94908KDBQ DBQ20100901000011109/01/10 00:00:49  5-MIN KDBQ 010600Z AUTO 35006KT 7SM -RA OVC048 20/19 A2994 1060 93 1900 350/06 RMK AO2 P0002
94908KDBQ DBQ20100901000511309/01/10 00:05:31  5-MIN KDBQ 010605Z AUTO 35004KT 6SM RA BR OVC048 20/19 A2995 1050 93 1900 350/04 RMK AO2 P0003
94908KDBQ DBQ20100901001012509/01/10 00:10:31  5-MIN KDBQ 010610Z AUTO 00000KT 6SM -RA BR OVC042 20/19 A2996 1040 93 1900 000/00 RMK AO2 LTG DSNT S P0004
94908KDBQ DBQ20100901001512209/01/10 00:15:33  5-MIN KDBQ 010615Z AUTO 00000KT 7SM -RA OVC039 20/19 A2996 1040 93 1900 000/00 RMK AO2 LTG DSNT S P0004
94908KDBQ DBQ20100901002012909/01/10 00:20:31  5-MIN KDBQ 010620Z AUTO 22003KT 8SM -RA BKN037 OVC110 20/19 A2996 1040 93 1900 220/03 RMK AO2 LTG DSNT S P0005
94908KDBQ DBQ20100901002512909/01/10 00:25:31  5-MIN KDBQ 010625Z AUTO 24003KT 7SM -RA BKN039 OVC110 20/19 A2996 1040 93 1900 240/03 RMK AO2 LTG DSNT S P0006
94908KDBQ DBQ20100901003013109/01/10 00:30:31  5-MIN KDBQ 010630Z AUTO 24003KT 5SM RA BR BKN037 OVC060 20/19 A2995 1050 97 1900 240/03 RMK AO2 LTG DSNT S P0007
94908KDBQ DBQ20100901003513309/01/10 00:35:31  5-MIN KDBQ 010635Z AUTO 25004KT 5SM RA BR BKN035 OVC060 20/19 A2995 1050 93 1900 250/04 RMK AO2 LTG DSNT S-W P0008
94908KDBQ DBQ20100901004012609/01/10 00:40:31  5-MIN KDBQ 010640Z AUTO 25003KT 5SM RA BR OVC037 20/19 A2994 1060 93 1900 250/03 RMK AO2 LTG DSNT S-W P0009
94908KDBQ DBQ20100901004513609/01/10 00:45:31  5-MIN KDBQ 010645Z AUTO 25004KT 6SM -TSRA BR OVC041 20/19 A2994 1060 93 1900 250/04 RMK AO2 LTG DSNT S-NW TSB41 P0011
94908KDBQ DBQ20100901005013409/01/10 00:50:31  5-MIN KDBQ 010650Z AUTO 26005KT 6SM -TSRA BR OVC039 20/19 A2994 1060 93 1900 260/05 RMK AO2 LTG DSNT NW TSB41 P0012
94908KDBQ DBQ20100901005512709/01/10 00:55:31  5-MIN KDBQ 010655Z AUTO 26004KT 5SM TSRA BR OVC037 19/19 A2994 1060 97 1900 260/04 RMK AO2 LTG DSNT NW P0001
94908KDBQ DBQ20100901010012109/01/10 01:00:31  5-MIN KDBQ 010700Z AUTO 26004KT 4SM RA BR OVC037 19/19 A2993 1070 97 1900 260/04 RMK AO2 TSE0656 P0002
94908KDBQ DBQ20100901010512109/01/10 01:05:31  5-MIN KDBQ 010705Z AUTO 28007KT 4SM RA BR OVC035 19/19 A2993 1070 97 1900 280/07 RMK AO2 TSE0656 P0004
94908KDBQ DBQ20100901011012109/01/10 01:10:31  5-MIN KDBQ 010710Z AUTO 28007KT 5SM RA BR OVC035 19/19 A2992 1070 97 1900 280/07 RMK AO2 TSE0656 P0006
94908KDBQ DBQ20100901011512809/01/10 01:15:31  5-MIN KDBQ 010715Z AUTO 29006KT 6SM RA BR OVC035 19/19 A2992 1080 97 1900 290/06 RMK AO2 TSE0656 PRESFR P0007
94908KDBQ DBQ20100901012012709/01/10 01:20:31  5-MIN KDBQ 010720Z AUTO 31006KT 7SM -RA OVC039 19/19 A2991 1090 100 1900 310/06 RMK AO2 TSE0656 PRESFR P0008
94908KDBQ DBQ20100901012512609/01/10 01:25:31  5-MIN KDBQ 010725Z AUTO 31005KT 7SM RA OVC041 19/19 A2990 1090 100 1900 310/05 RMK AO2 TSE0656 PRESFR P0009
94908KDBQ DBQ20100901013012009/01/10 01:30:31  5-MIN KDBQ 010730Z AUTO 25003KT 7SM -RA OVC048 19/19 A2990 1090 100 1900 250/03 RMK AO2 TSE0656 P0010
94908KDBQ DBQ20100901013512109/01/10 01:35:31  5-MIN KDBQ 010735Z AUTO 25004KT 10SM -RA OVC055 19/19 A2990 1100 100 1900 250/04 RMK AO2 TSE0656 P0010
94908KDBQ DBQ20100901014012109/01/10 01:40:31  5-MIN KDBQ 010740Z AUTO 29003KT 10SM -RA OVC055 19/19 A2990 1100 100 1900 290/03 RMK AO2 TSE0656 P0011
94908KDBQ DBQ20100901014512009/01/10 01:45:31  5-MIN KDBQ 010745Z AUTO 00000KT 9SM -RA OVC050 19/19 A2990 1100 100 1900 000/00 RMK AO2 TSE0656 P0011
94908KDBQ DBQ20100901015015109/01/10 01:50:31  5-MIN KDBQ 010750Z AUTO 00000KT 8SM -RA BKN050 BKN065 OVC120 19/19 A2991 1090 100 1900 000/00 RMK AO2 TSE0656 SLP122 P0011 T01940194
94908KDBQ DBQ20100901015512609/01/10 01:55:31  5-MIN KDBQ 010755Z AUTO 20006KT 8SM -RA BKN050 BKN065 OVC120 19/19 A2992 1080 100 1900 200/06 RMK AO2 P0000
94908KDBQ DBQ20100901020012609/01/10 02:00:31  5-MIN KDBQ 010800Z AUTO 19008KT 9SM -RA BKN050 OVC120 19/19 A2993 1070 100 1900 190/08 RMK AO2 PRESRR P0001
94908KDBQ DBQ20100901020513009/01/10 02:05:31  5-MIN KDBQ 010805Z AUTO 19008KT 9SM -RA OVC050 19/19 A2993 1070 100 1900 190/08 RMK AO2 LTG DSNT S PRESRR P0001
94908KDBQ DBQ20100901021012309/01/10 02:10:31  5-MIN KDBQ 010810Z AUTO 19008KT 8SM -RA OVC050 19/19 A2994 1060 100 1900 190/08 RMK AO2 LTG DSNT S P0001
94908KDBQ DBQ20100901021512909/01/10 02:15:31  5-MIN KDBQ 010815Z AUTO 19005KT 7SM RA OVC048 19/19 A2993 1070 100 1900 190/05 RMK AO2 LTG DSNT SE AND S P0002
94908KDBQ DBQ20100901022012409/01/10 02:20:31  5-MIN KDBQ 010820Z AUTO 17007KT 7SM -RA OVC046 19/19 A2993 1070 100 1900 170/07 RMK AO2 LTG DSNT SE P0003
94908KDBQ DBQ20100901022512409/01/10 02:25:31  5-MIN KDBQ 010825Z AUTO 16006KT 7SM -RA OVC046 19/19 A2993 1070 100 1900 160/06 RMK AO2 LTG DSNT SE P0004
94908KDBQ DBQ20100901023011209/01/10 02:30:31  5-MIN KDBQ 010830Z AUTO 16007KT 8SM -RA OVC048 19/19 A2992 1080 100 1900 160/07 RMK AO2 P0004
94908KDBQ DBQ20100901023511209/01/10 02:35:31  5-MIN KDBQ 010835Z AUTO 16008KT 8SM -RA OVC048 19/19 A2992 1080 100 1900 160/08 RMK AO2 P0005
94908KDBQ DBQ20100901024011209/01/10 02:40:31  5-MIN KDBQ 010840Z AUTO 16007KT 8SM -RA OVC048 19/19 A2992 1080 100 1900 160/07 RMK AO2 P0005
94908KDBQ DBQ20100901024511209/01/10 02:45:31  5-MIN KDBQ 010845Z AUTO 16005KT 9SM -RA OVC050 19/19 A2992 1080 100 1900 160/05 RMK AO2 P0006
94908KDBQ DBQ20100901025014209/01/10 02:50:31  5-MIN KDBQ 010850Z AUTO 14003KT 10SM -RA OVC050 19/19 A2992 1080 100 1900 140/03 RMK AO2 SLP124 P0006 60030 T01940194 53020
94908KDBQ DBQ20100901025512009/01/10 02:55:31  5-MIN KDBQ 010855Z AUTO 18003KT 10SM -RA BKN050 OVC110 19/19 A2992 1080 100 1900 170/03 RMK AO2 P0000
94908KDBQ DBQ20100901030011909/01/10 03:00:31  5-MIN KDBQ 010900Z AUTO 20004KT 9SM -RA BKN050 OVC100 19/19 A2992 1080 100 1900 200/04 RMK AO2 P0000
94908KDBQ DBQ20100901030511209/01/10 03:05:31  5-MIN KDBQ 010905Z AUTO 21004KT 9SM -RA OVC055 19/19 A2992 1080 100 1900 210/04 RMK AO2 P0001
94908KDBQ DBQ20100901031011909/01/10 03:10:31  5-MIN KDBQ 010910Z AUTO 18004KT 8SM -RA BKN055 OVC100 19/19 A2991 1090 100 1900 180/04 RMK AO2 P0001
94908KDBQ DBQ20100901031511909/01/10 03:15:31  5-MIN KDBQ 010915Z AUTO 16005KT 8SM -RA BKN055 OVC100 19/19 A2991 1090 100 1900 160/05 RMK AO2 P0001
94908KDBQ DBQ20100901032011909/01/10 03:20:31  5-MIN KDBQ 010920Z AUTO 18008KT 8SM -RA BKN055 OVC100 19/19 A2992 1080 100 1900 180/08 RMK AO2 P0001
94908KDBQ DBQ20100901032511209/01/10 03:25:31  5-MIN KDBQ 010925Z AUTO 17009KT 7SM -RA OVC055 19/19 A2991 1090 100 1900 170/09 RMK AO2 P0002
94908KDBQ DBQ20100901033011909/01/10 03:30:31  5-MIN KDBQ 010930Z AUTO 17012KT 7SM -RA BKN050 OVC100 19/19 A2990 1090 100 1900 170/12 RMK AO2 P0002
94908KDBQ DBQ20100901033512809/01/10 03:35:31  5-MIN KDBQ 010935Z AUTO 16012G17KT 6SM -RA BR BKN050 OVC100 19/19 A2990 1100 100 1900 160/12G17 RMK AO2 P0003
94908KDBQ DBQ20100901034013209/01/10 03:40:31  5-MIN KDBQ 010940Z AUTO 15012G17KT 7SM -RA FEW002 BKN055 OVC100 19/19 A2989 1100 100 1900 150/12G17 RMK AO2 P0003
94908KDBQ DBQ20100901034513309/01/10 03:45:31  5-MIN KDBQ 010945Z AUTO 14009KT 8SM -RA FEW002 BKN055 OVC100 19/19 A2988 1110 100 1900 140/09 RMK AO2 PRESFR P0003
94908KDBQ DBQ20100901035013609/01/10 03:50:31  5-MIN KDBQ 010950Z AUTO 15011KT 9SM -RA BKN060 OVC100 19/19 A2988 1110 100 1900 150/11 RMK AO2 SLP112 P0004 T01940194
94908KDBQ DBQ20100901035512009/01/10 03:55:31  5-MIN KDBQ 010955Z AUTO 14011KT 10SM -RA BKN060 OVC100 19/19 A2988 1110 100 1900 140/11 RMK AO2 P0000
94908KDBQ DBQ20100901040012609/01/10 04:00:31  5-MIN KDBQ 011000Z AUTO 13009G16KT 10SM -RA BKN065 OVC100 19/19 A2988 1110 100 1900 130/09G16 RMK AO2 P0000
94908KDBQ DBQ20100901040512009/01/10 04:05:31  5-MIN KDBQ 011005Z AUTO 12006KT 10SM -RA BKN060 OVC100 19/19 A2989 1100 100 1900 120/06 RMK AO2 P0000
94908KDBQ DBQ20100901041013309/01/10 04:10:31  5-MIN KDBQ 011010Z AUTO 30015G20KT 10SM -RA FEW006 OVC070 19/19 A2994 1060 100 1900 300/15G20 RMK AO2 PRESRR P0000
94908KDBQ DBQ20100901041514209/01/10 04:15:31  5-MIN KDBQ 011015Z AUTO 29016G21KT 10SM FEW006 SCT011 OVC070 19/19 A2995 1050 100 1900 290/16G21 RMK AO2 RAE13 PRESRR P0000
94908KDBQ DBQ20100901042013409/01/10 04:20:31  5-MIN KDBQ 011020Z AUTO 30009G21KT 10SM SCT009 BKN015 OVC065 20/19 A2995 1060 97 1900 300/09G21 RMK AO2 RAE13 P0000
94908KDBQ DBQ20100901042512909/01/10 04:25:31  5-MIN KDBQ 011025Z AUTO 31006KT 10SM FEW007 BKN015 OVC070 19/19 A2993 1070 100 1900 310/06 RMK AO2 RAE13 P0000
94908KDBQ DBQ20100901043012909/01/10 04:30:31  5-MIN KDBQ 011030Z AUTO 00000KT 10SM SCT011 BKN019 BKN027 19/19 A2993 1070 100 1900 000/00 RMK AO2 RAE13 P0000
94908KDBQ DBQ20100901043512909/01/10 04:35:31  5-MIN KDBQ 011035Z AUTO 19004KT 10SM FEW007 SCT011 BKN027 19/19 A2993 1070 100 1900 190/04 RMK AO2 RAE13 P0000
94908KDBQ DBQ20100901044012909/01/10 04:40:31  5-MIN KDBQ 011040Z AUTO 19005KT 10SM FEW009 SCT019 SCT027 19/19 A2993 1070 100 1900 190/05 RMK AO2 RAE13 P0000
94908KDBQ DBQ20100901044511509/01/10 04:45:31  5-MIN KDBQ 011045Z AUTO 19005KT 10SM FEW016 19/19 A2993 1070 100 1900 190/05 RMK AO2 RAE13 P0000
94908KDBQ DBQ20100901045012709/01/10 04:50:31  5-MIN KDBQ 011050Z 20007KT 10SM FEW019 19/19 A2993 1070 100 1900 200/07 RMK AO2 RAE13 SLP130 P0000 T01940194
94908KDBQ DBQ20100901045509509/01/10 04:55:31  5-MIN KDBQ 011055Z 20007KT 10SM CLR 19/19 A2993 1070 100 1900 200/07 RMK AO2
94908KDBQ DBQ20100901050009509/01/10 05:00:31  5-MIN KDBQ 011100Z 22007KT 10SM CLR 19/19 A2994 1060 100 1900 220/07 RMK AO2
94908KDBQ DBQ20100901050509509/01/10 05:05:31  5-MIN KDBQ 011105Z 24006KT 10SM CLR 19/19 A2995 1060 100 1900 240/06 RMK AO2
94908KDBQ DBQ20100901051009509/01/10 05:10:31  5-MIN KDBQ 011110Z 22006KT 10SM CLR 19/19 A2994 1060 100 1900 220/06 RMK AO2
94908KDBQ DBQ20100901051509509/01/10 05:15:31  5-MIN KDBQ 011115Z 22007KT 10SM CLR 19/19 A2995 1050 100 1900 220/07 RMK AO2
94908KDBQ DBQ20100901052009509/01/10 05:20:31  5-MIN KDBQ 011120Z 21007KT 10SM CLR 19/19 A2994 1060 100 1900 210/07 RMK AO2
94908KDBQ DBQ20100901052509509/01/10 05:25:31  5-MIN KDBQ 011125Z 22006KT 10SM CLR 19/19 A2994 1060 100 1900 220/06 RMK AO2
94908KDBQ DBQ20100901053009509/01/10 05:30:31  5-MIN KDBQ 011130Z 23006KT 10SM CLR 19/19 A2995 1050 100 1900 230/06 RMK AO2
94908KDBQ DBQ20100901053509509/01/10 05:35:31  5-MIN KDBQ 011135Z 23005KT 10SM CLR 19/19 A2995 1050 100 1800 220/05 RMK AO2
94908KDBQ DBQ20100901054009509/01/10 05:40:31  5-MIN KDBQ 011140Z 23005KT 10SM CLR 19/19 A2996 1040 100 1800 230/05 RMK AO2
94908KDBQ DBQ20100901054509509/01/10 05:45:31  5-MIN KDBQ 011145Z 21005KT 10SM CLR 19/19 A2996 1050 100 1800 210/05 RMK AO2
94908KDBQ DBQ20100901055009709/01/10 05:50:31  5-MIN KDBQ 011150Z 21006KT 10SM FEW006 19/19 A2996 1050 97 1800 210/06 RMK AO2
94908KDBQ DBQ20100901055509709/01/10 05:55:31  5-MIN KDBQ 011155Z 21006KT 10SM SCT006 19/19 A2995 1050 97 1800 210/06 RMK AO2
94908KDBQ DBQ20100901060009709/01/10 06:00:31  5-MIN KDBQ 011200Z 21006KT 10SM BKN006 19/19 A2996 1040 97 1800 210/06 RMK AO2
94908KDBQ DBQ20100901060509709/01/10 06:05:31  5-MIN KDBQ 011205Z 21007KT 10SM BKN004 19/19 A2996 1040 97 1800 210/07 RMK AO2
94908KDBQ DBQ20100901061009709/01/10 06:10:31  5-MIN KDBQ 011210Z 20007KT 10SM BKN004 19/19 A2996 1040 97 1800 200/07 RMK AO2
94908KDBQ DBQ20100901061509709/01/10 06:15:31  5-MIN KDBQ 011215Z 21006KT 10SM OVC004 19/19 A2996 1040 97 1800 210/06 RMK AO2
94908KDBQ DBQ20100901062009709/01/10 06:20:31  5-MIN KDBQ 011220Z 22005KT 10SM OVC004 19/19 A2996 1040 97 1800 220/05 RMK AO2
94908KDBQ DBQ20100901062509709/01/10 06:25:31  5-MIN KDBQ 011225Z 22006KT 10SM OVC004 19/19 A2996 1040 97 1800 220/06 RMK AO2
94908KDBQ DBQ20100901063009609/01/10 06:30:31  5-MIN KDBQ 011230Z 23006KT 9SM OVC004 19/19 A2996 1040 97 1800 230/06 RMK AO2
94908KDBQ DBQ20100901063509609/01/10 06:35:31  5-MIN KDBQ 011235Z 23008KT 9SM OVC004 19/19 A2996 1040 97 1800 230/08 RMK AO2
94908KDBQ DBQ20100901064009609/01/10 06:40:31  5-MIN KDBQ 011240Z 23009KT 8SM OVC004 19/19 A2996 1040 97 1800 230/09 RMK AO2
94908KDBQ DBQ20100901064509909/01/10 06:45:31  5-MIN KDBQ 011245Z 23009KT 6SM BR OVC004 19/19 A2996 1040 97 1800 230/09 RMK AO2
94908KDBQ DBQ20100901065011709/01/10 06:50:31  5-MIN KDBQ 011250Z 23009KT 5SM BR OVC004 19/19 A2996 1040 100 1800 230/09 RMK AO2 SLP140 T01940194
94908KDBQ DBQ20100901065510009/01/10 06:55:31  5-MIN KDBQ 011255Z 23007KT 4SM BR OVC002 19/19 A2996 1040 100 1800 230/07 RMK AO2
94908KDBQ DBQ20100901070010009/01/10 07:00:31  5-MIN KDBQ 011300Z 22008KT 4SM BR OVC002 19/19 A2996 1040 100 1800 220/08 RMK AO2
94908KDBQ DBQ20100901070510009/01/10 07:05:31  5-MIN KDBQ 011305Z 23009KT 4SM BR OVC002 19/19 A2996 1040 100 1800 230/09 RMK AO2
94908KDBQ DBQ20100901071009909/01/10 07:10:31  5-MIN KDBQ 011310Z 22009KT 4SM BR OVC002 20/19 A2996 1050 97 1900 220/09 RMK AO2
94908KDBQ DBQ20100901071509909/01/10 07:15:31  5-MIN KDBQ 011315Z 22008KT 4SM BR OVC002 20/19 A2995 1050 97 1900 220/08 RMK AO2
94908KDBQ DBQ20100901072009909/01/10 07:20:31  5-MIN KDBQ 011320Z 22010KT 4SM BR OVC002 20/19 A2995 1050 97 1900 220/10 RMK AO2
94908KDBQ DBQ20100901072509909/01/10 07:25:31  5-MIN KDBQ 011325Z 22007KT 5SM BR OVC002 20/19 A2995 1050 97 1900 220/07 RMK AO2
94908KDBQ DBQ20100901073009909/01/10 07:30:31  5-MIN KDBQ 011330Z 24007KT 5SM BR OVC002 20/19 A2996 1040 97 1900 240/07 RMK AO2
94908KDBQ DBQ20100901073509909/01/10 07:35:31  5-MIN KDBQ 011335Z 24006KT 5SM BR OVC002 20/19 A2996 1040 97 1900 240/06 RMK AO2
94908KDBQ DBQ20100901074009909/01/10 07:40:31  5-MIN KDBQ 011340Z 24008KT 5SM BR OVC002 20/19 A2996 1040 97 1900 240/08 RMK AO2
94908KDBQ DBQ20100901074509909/01/10 07:45:31  5-MIN KDBQ 011345Z 24008KT 5SM BR OVC002 20/19 A2996 1040 97 1900 240/08 RMK AO2
94908KDBQ DBQ20100901075011609/01/10 07:50:31  5-MIN KDBQ 011350Z 24007KT 6SM BR OVC002 20/19 A2995 1050 97 1900 240/07 RMK AO2 SLP138 T02000194
94908KDBQ DBQ20100901075509909/01/10 07:55:31  5-MIN KDBQ 011355Z 23007KT 6SM BR OVC002 20/19 A2995 1050 97 1900 230/07 RMK AO2
94908KDBQ DBQ20100901080009909/01/10 08:00:31  5-MIN KDBQ 011400Z 23008KT 6SM BR OVC002 20/19 A2995 1050 97 1900 230/08 RMK AO2
94908KDBQ DBQ20100901080509909/01/10 08:05:31  5-MIN KDBQ 011405Z 23006KT 6SM BR OVC002 21/19 A2995 1050 93 2000 230/06 RMK AO2
94908KDBQ DBQ20100901081009609/01/10 08:10:31  5-MIN KDBQ 011410Z 23009KT 7SM OVC002 21/20 A2995 1050 97 2000 230/09 RMK AO2
94908KDBQ DBQ20100901081509609/01/10 08:15:31  5-MIN KDBQ 011415Z 23008KT 7SM OVC004 21/19 A2995 1050 93 2000 230/08 RMK AO2
94908KDBQ DBQ20100901082009609/01/10 08:20:31  5-MIN KDBQ 011420Z 23006KT 8SM OVC004 21/19 A2995 1050 93 2000 230/06 RMK AO2
94908KDBQ DBQ20100901082509809/01/10 08:25:31  5-MIN KDBQ 011425Z 22008KT 7SM OVC004 21/20 A2995 1050 97 2000 220/08 RMK AO2 $
94908KDBQ DBQ20100901083009809/01/10 08:30:31  5-MIN KDBQ 011430Z 22008KT 7SM OVC004 21/19 A2995 1050 93 2000 220/08 RMK AO2 $
94908KDBQ DBQ20100901083509809/01/10 08:35:31  5-MIN KDBQ 011435Z 23008KT 8SM OVC004 21/19 A2995 1050 93 2000 220/08 RMK AO2 $
94908KDBQ DBQ20100901084009809/01/10 08:40:31  5-MIN KDBQ 011440Z 22006KT 8SM OVC004 21/19 A2995 1050 93 2000 220/06 RMK AO2 $
94908KDBQ DBQ20100901084510109/01/10 08:45:31  5-MIN KDBQ 011445Z 21006KT 5SM BR OVC004 21/20 A2995 1050 97 2000 210/06 RMK AO2 $
94908KDBQ DBQ20100901085012209/01/10 08:50:31  5-MIN KDBQ 011450Z 21007KT 2 1/2SM R36/5000VP6000FT BR OVC004 21/20 A2995 1050 97 2000 210/07 RMK AO2 $
94908KDBQ DBQ20100901085512109/01/10 08:55:31  5-MIN KDBQ 011455Z 22006KT 1 3/4SM R36/5000V5500FT BR OVC004 21/20 A2995 1050 97 2000 220/06 RMK AO2 $
94908KDBQ DBQ20100901090012109/01/10 09:00:31  5-MIN KDBQ 011500Z 22008KT 1 1/2SM R36/4500V5500FT BR OVC004 21/20 A2995 1050 97 2000 220/08 RMK AO2 $
94908KDBQ DBQ20100901090515609/01/10 09:05:31  5-MIN KDBQ 011505Z 22007KT 1 1/4SM R36/4000V5000FT -RA BR BKN004 OVC009 21/20 A2995 1050 97 2000 220/07 RMK AO2 RAB03 CIG 002V008 P0000 $
94908KDBQ DBQ20100901091015609/01/10 09:10:31  5-MIN KDBQ 011510Z 21006KT 1 1/4SM R36/4000V6000FT -RA BR BKN004 OVC009 21/20 A2995 1050 97 2000 210/06 RMK AO2 RAB03 CIG 002V007 P0000 $
94908KDBQ DBQ20100901091515509/01/10 09:15:31  5-MIN KDBQ 011515Z 21008KT 1 3/4SM R36/4000V6000FT BR BKN004 OVC009 21/20 A2995 1050 97 2000 210/08 RMK AO2 RAB03E13 CIG 002V006 P0001 $
94908KDBQ DBQ20100901092015609/01/10 09:20:31  5-MIN KDBQ 011520Z 22009KT 1 3/4SM R36/4000VP6000FT BR BKN004 OVC009 21/20 A2995 1050 97 2000 220/09 RMK AO2 RAB03E13 CIG 002V006 P0001 $
94908KDBQ DBQ20100901092515609/01/10 09:25:31  5-MIN KDBQ 011525Z 23011KT 1 3/4SM R36/4500VP6000FT BR BKN004 OVC009 21/20 A2996 1040 97 2000 230/11 RMK AO2 RAB03E13 CIG 002V006 P0001 $
94908KDBQ DBQ20100901093015509/01/10 09:30:31  5-MIN KDBQ 011530Z 24008KT 1 1/4SM R36/4500V6000FT BR SCT004 OVC009 21/20 A2996 1040 97 2000 240/08 RMK AO2 RAB03E13 CIG 007V014 P0001 $
94908KDBQ DBQ20100901093514309/01/10 09:35:31  5-MIN KDBQ 011535Z 23008KT 1 1/4SM R36/4500V6000FT BR BKN004 OVC009 21/20 A2996 1050 97 2000 230/08 RMK AO2 RAB03E13 P0001 $
94908KDBQ DBQ20100901094014309/01/10 09:40:31  5-MIN KDBQ 011540Z 23008KT 1 1/4SM R36/5000V6000FT BR BKN004 OVC009 21/20 A2996 1040 97 2000 220/08 RMK AO2 RAB03E13 P0002 $
94908KDBQ DBQ20100901094514409/01/10 09:45:31  5-MIN KDBQ 011545Z 22009KT 1 3/4SM R36/5000VP6000FT BR BKN004 OVC009 21/20 A2996 1040 97 2000 220/09 RMK AO2 RAB03E13 P0002 $
94908KDBQ DBQ20100901095014409/01/10 09:50:31  5-MIN KDBQ 011550Z 22008KT 2 1/2SM R36/5500VP6000FT BR BKN004 OVC009 21/20 A2996 1040 97 2000 220/08 RMK AO2 RAB03E13 P0002 $
94908KDBQ DBQ20100901095512409/01/10 09:55:31  5-MIN KDBQ 011555Z 23009KT 2 1/2SM BR BKN004 OVC011 21/20 A2996 1040 97 2000 230/09 RMK AO2 CIG 002V006 $
94908KDBQ DBQ20100901100013709/01/10 10:00:31  5-MIN KDBQ 011600Z 22008KT 2SM R36/6000VP6000FT BR BKN004 OVC011 21/20 A2996 1040 97 2000 220/08 RMK AO2 CIG 002V008 $
94908KDBQ DBQ20100901100514109/01/10 10:05:31  5-MIN KDBQ 011605Z 22008KT 1 3/4SM R36/6000VP6000FT BR BKN004 OVC011 21/21 A2996 1040 97 2000 220/08 RMK AO2 CIG 002V008 $
94908KDBQ DBQ20100901101013409/01/10 10:10:31  5-MIN KDBQ 011610Z 22009KT 1 3/4SM R36/6000VP6000FT BR OVC004 21/20 A2997 1030 97 2000 220/09 RMK AO2 CIG 002V008 $
94908KDBQ DBQ20100901101514109/01/10 10:15:31  5-MIN KDBQ 011615Z 23008KT 1 3/4SM R36/6000VP6000FT BR BKN004 OVC009 21/20 A2997 1030 97 2000 220/08 RMK AO2 CIG 002V006 $
94908KDBQ DBQ20100901102012209/01/10 10:20:31  5-MIN KDBQ 011620Z 22006KT 1 3/4SM R36/5000VP6000FT BR OVC004 21/21 A2997 1030 97 2000 220/06 RMK AO2 $
94908KDBQ DBQ20100901102512209/01/10 10:25:31  5-MIN KDBQ 011625Z 22006KT 1 3/4SM R36/4500VP6000FT BR OVC004 21/21 A2997 1030 97 2000 220/06 RMK AO2 $
94908KDBQ DBQ20100901103012609/01/10 10:30:31  5-MIN KDBQ 011630Z 22006KT 1 3/4SM R36/4500VP6000FT BR OVC004 21/21 A2997 1030 97 2000 220/06 RMK AO2 P0001
94908KDBQ DBQ20100901103512609/01/10 10:35:31  5-MIN KDBQ 011635Z 22007KT 1 3/4SM R36/4500VP6000FT BR OVC004 21/21 A2998 1030 97 2000 220/07 RMK AO2 P0001
94908KDBQ DBQ20100901104012509/01/10 10:40:31  5-MIN KDBQ 011640Z 23007KT 1 3/4SM R36/4000V5500FT BR OVC004 21/21 A2998 1030 97 2000 230/07 RMK AO2 P0001
94908KDBQ DBQ20100901104512509/01/10 10:45:31  5-MIN KDBQ 011645Z 24008KT 1 3/4SM R36/4000V5000FT BR OVC004 21/21 A2998 1020 97 2000 230/08 RMK AO2 P0001
94908KDBQ DBQ20100901105014209/01/10 10:50:31  5-MIN KDBQ 011650Z 23008KT 1 1/4SM R36/4000V5000FT BR OVC004 21/21 A2998 1030 97 2000 230/08 RMK AO2 SLP146 P0001 T02110206
94908KDBQ DBQ20100901105514409/01/10 10:55:31  5-MIN KDBQ 011655Z 24007KT 1 1/4SM R36/3500V5000FT BR BKN004 OVC012 21/21 A2997 1030 97 2000 240/07 RMK AO2 CIG 002V008 P0001
94908KDBQ DBQ20100901110014409/01/10 11:00:31  5-MIN KDBQ 011700Z 23007KT 1 1/2SM R36/3500V5500FT BR BKN004 OVC012 21/21 A2998 1030 97 2000 230/07 RMK AO2 CIG 002V008 P0001
94908KDBQ DBQ20100901110515309/01/10 11:05:31  5-MIN KDBQ 011705Z 24007KT 1 1/4SM R36/4000V6000FT BR BKN004 OVC011 21/21 A2998 1030 97 2000 230/07 RMK AO2 RAB04E05 CIG 002V007 P0001
94908KDBQ DBQ20100901111015409/01/10 11:10:31  5-MIN KDBQ 011710Z 24006KT 1 1/4SM R36/4000V6000FT -RA BR BKN004 OVC011 21/21 A2998 1030 97 2000 240/06 RMK AO2 RAB04 CIG 002V007 P0001
94908KDBQ DBQ20100901111514209/01/10 11:15:31  5-MIN KDBQ 011715Z 25009KT 1 1/4SM R36/4000V6000FT -RA BR BKN004 OVC008 21/21 A2998 1030 97 2000 250/09 RMK AO2 RAB04 P0002
94908KDBQ DBQ20100901112014309/01/10 11:20:31  5-MIN KDBQ 011720Z 25008KT 1 1/2SM R36/5000VP6000FT -RA BR BKN004 OVC008 21/21 A2997 1030 97 2000 250/08 RMK AO2 RAB04 P0002
94908KDBQ DBQ20100901112515409/01/10 11:25:31  5-MIN KDBQ 011725Z 24008KT 1 3/4SM R36/5500VP6000FT BR BKN004 OVC008 21/21 A2997 1030 97 2000 240/08 RMK AO2 RAB04E22 CIG 002V007 P0002
94908KDBQ DBQ20100901113015409/01/10 11:30:31  5-MIN KDBQ 011730Z 25008KT 1 1/2SM R36/5000VP6000FT BR BKN006 OVC017 21/21 A2997 1030 97 2000 250/08 RMK AO2 RAB04E22 CIG 002V010 P0002
94908KDBQ DBQ20100901113515709/01/10 11:35:31  5-MIN KDBQ 011735Z 25009KT 2SM R36/5000VP6000FT BR BKN004 BKN008 OVC017 21/21 A2997 1030 97 2000 250/09 RMK AO2 RAB04E22 CIG 002V007 P0002
94908KDBQ DBQ20100901114015709/01/10 11:40:31  5-MIN KDBQ 011740Z 25009KT 2SM R36/5000VP6000FT BR FEW004 BKN007 OVC017 21/21 A2997 1030 97 2000 250/09 RMK AO2 RAB04E22 CIG 005V009 P0002
94908KDBQ DBQ20100901114516109/01/10 11:45:31  5-MIN KDBQ 011745Z 24008KT 1 1/2SM R36/4000VP6000FT BR FEW004 BKN007 OVC017 21/21 A2997 1030 97 2000 240/08 RMK AO2 RAB04E22 CIG 005V009 P0002
94908KDBQ DBQ20100901115016109/01/10 11:50:31  5-MIN KDBQ 011750Z 24008KT 1 1/4SM R36/3500VP6000FT BR BKN004 BKN008 OVC017 21/21 A2997 1030 97 2000 240/08 RMK AO2 RAB04E22 CIG 002V006 P0002
94908KDBQ DBQ20100901115514109/01/10 11:55:31  5-MIN KDBQ 011755Z 23009KT 1SM R36/3500V4500FT BR BKN004 BKN008 OVC015 21/21 A2997 1030 97 2000 230/09 RMK AO2 CIG 002V006
94908KDBQ DBQ20100901120014709/01/10 12:00:31  5-MIN KDBQ 011800Z 23010KT 1SM R36/3500V4500FT BR BKN004 BKN008 OVC015 21/21 A2997 1030 97 2000 230/10 RMK AO2 CIG 002V006 P0001
94908KDBQ DBQ20100901120512809/01/10 12:05:31  5-MIN KDBQ 011805Z 24009KT 1SM R36/3500V4500FT BR BKN004 OVC011 21/21 A2997 1030 97 2000 240/09 RMK AO2 P0001
94908KDBQ DBQ20100901121013209/01/10 12:10:31  5-MIN KDBQ 011810Z 22010KT 1 1/4SM R36/4000V6000FT BR BKN004 OVC011 21/21 A2997 1030 97 2000 220/10 RMK AO2 P0001
94908KDBQ DBQ20100901121513309/01/10 12:15:31  5-MIN KDBQ 011815Z 23009KT 1 1/4SM R36/4000V6000FT BR BKN004 OVC013 21/21 A2997 1030 100 2000 230/09 RMK AO2 P0001
94908KDBQ DBQ20100901122014009/01/10 12:20:31  5-MIN KDBQ 011820Z 23011KT 1 1/4SM R36/4000VP6000FT BR SCT004 BKN008 OVC013 21/21 A2997 1030 97 2000 230/11 RMK AO2 P0001
94908KDBQ DBQ20100901122512309/01/10 12:25:31  5-MIN KDBQ 011825Z 23008KT 1 1/2SM BR BKN004 BKN011 OVC016 22/21 A2997 1040 93 2100 230/08 RMK AO2 P0001
94908KDBQ DBQ20100901123014309/01/10 12:30:31  5-MIN KDBQ 011830Z 25010KT 1 1/2SM R36/5000VP6000FT -RA BR BKN006 OVC013 22/21 A2997 1030 97 2100 240/10 RMK AO2 RAB29 P0001
94908KDBQ DBQ20100901123514309/01/10 12:35:31  5-MIN KDBQ 011835Z 23008KT 1 1/4SM R36/4000VP6000FT -RA BR BKN004 OVC013 22/21 A2997 1030 93 2100 230/08 RMK AO2 RAB29 P0002
94908KDBQ DBQ20100901124014309/01/10 12:40:31  5-MIN KDBQ 011840Z 25009KT 1 1/2SM R36/4000VP6000FT -RA BR BKN004 OVC013 22/21 A2997 1030 97 2100 240/09 RMK AO2 RAB29 P0002
94908KDBQ DBQ20100901124514309/01/10 12:45:31  5-MIN KDBQ 011845Z 26008KT 1 1/2SM R36/4000VP6000FT -RA BR BKN004 OVC013 22/21 A2997 1030 97 2100 260/08 RMK AO2 RAB29 P0002
94908KDBQ DBQ20100901125017109/01/10 12:50:31  5-MIN KDBQ 011850Z 25007KT 1 1/4SM R36/3500VP6000FT RA BR BKN004 OVC010 22/21 A2997 1030 97 2100 250/07 RMK AO2 RAB29 CIG 002V006 SLP144 P0003 T02170211
94908KDBQ DBQ20100901125514309/01/10 12:55:31  5-MIN KDBQ 011855Z 23009KT 1SM R36/3000V4000FT RA BR BKN004 OVC013 21/21 A2997 1030 97 2000 230/09 RMK AO2 CIG 002V008 P0001
94908KDBQ DBQ20100901130014609/01/10 13:00:31  5-MIN KDBQ 011900Z 23006KT 3/4SM R36/3000V4500FT -RA BR BKN004 OVC013 21/21 A2997 1040 97 2000 230/06 RMK AO2 CIG 002V008 P0002
94908KDBQ DBQ20100901130514509/01/10 13:05:31  5-MIN KDBQ 011905Z 23006KT 1SM R36/3500V5500FT -RA BR BKN004 OVC013 21/21 A2996 1040 100 2000 230/06 RMK AO2 CIG 002V008 P0003
94908KDBQ DBQ20100901131013909/01/10 13:10:31  5-MIN KDBQ 011910Z 23007KT 1SM R36/4000V5500FT -RA BR BKN004 BKN007 OVC013 22/21 A2997 1040 97 2100 220/07 RMK AO2 P0003
94908KDBQ DBQ20100901131513709/01/10 13:15:31  5-MIN KDBQ 011915Z 24005KT 1SM R36/3500V5500FT -RA BR OVC004 22/21 A2996 1040 97 2100 230/05 RMK AO2 CIG 002V008 P0003
94908KDBQ DBQ20100901132013609/01/10 13:20:31  5-MIN KDBQ 011920Z 23005KT 1 1/2SM R36/3500V6000FT -RA BR BKN004 OVC007 22/21 A2996 1040 97 2100 230/05 RMK AO2 P0004
94908KDBQ DBQ20100901132513609/01/10 13:25:31  5-MIN KDBQ 011925Z 24004KT 1 3/4SM R36/3500V6000FT -RA BR BKN004 OVC007 22/21 A2996 1040 97 2100 240/04 RMK AO2 P0004
94908KDBQ DBQ20100901133014109/01/10 13:30:31  5-MIN KDBQ 011930Z 23005KT 1 1/4SM R36/3500V6000FT -RA BR OVC004 22/21 A2996 1040 97 2100 230/05 RMK AO2 CIG 002V007 P0005
94908KDBQ DBQ20100901133514309/01/10 13:35:31  5-MIN KDBQ 011935Z 23006KT 1SM R36/3500V6000FT RA BR BKN004 OVC009 21/21 A2996 1040 97 2000 230/06 RMK AO2 CIG 002V006 P0006
94908KDBQ DBQ20100901134013109/01/10 13:40:31  5-MIN KDBQ 011940Z 25005KT 1SM R36/3500V5500FT RA BR BKN004 OVC008 21/21 A2996 1040 97 2000 250/05 RMK AO2 P0008
94908KDBQ DBQ20100901134513509/01/10 13:45:31  5-MIN KDBQ 011945Z 26004KT 1 1/4SM R36/3000V5500FT RA BR BKN004 OVC007 21/21 A2996 1040 97 2000 260/04 RMK AO2 P0009
94908KDBQ DBQ20100901135015309/01/10 13:50:31  5-MIN KDBQ 011950Z 23005KT 1SM R36/3000V4000FT RA BR OVC004 22/21 A2995 1050 97 2100 230/05 RMK AO2 CIG 002V008 SLP138 P0011 T02170211
94908KDBQ DBQ20100901135514309/01/10 13:55:31  5-MIN KDBQ 011955Z 23007KT 1SM R36/3500V5500FT RA BR BKN004 OVC011 22/21 A2995 1050 97 2100 230/07 RMK AO2 CIG 002V009 P0000
94908KDBQ DBQ20100901140013609/01/10 14:00:31  5-MIN KDBQ 012000Z 22005KT 1 1/4SM R36/3500V6000FT -RA BR BKN004 OVC016 22/21 A2995 1050 97 2100 220/05 RMK AO2 P0001
94908KDBQ DBQ20100901140513709/01/10 14:05:31  5-MIN KDBQ 012005Z 24004KT 1 3/4SM R36/4000VP6000FT -RA BR BKN004 OVC016 22/21 A2995 1050 97 2100 240/04 RMK AO2 P0002
94908KDBQ DBQ20100901141014409/01/10 14:10:31  5-MIN KDBQ 012010Z 23003KT 2 1/2SM -RA BR BKN006 OVC010 22/21 A2995 1050 97 2100 230/03 RMK AO2 VIS 1 1/2V5 CIG 003V008 P0002
94908KDBQ DBQ20100901141512809/01/10 14:15:31  5-MIN KDBQ 012015Z 24005KT 4SM -RA BR BKN006 OVC010 22/21 A2995 1050 97 2100 240/05 RMK AO2 CIG 003V010 P0003
94908KDBQ DBQ20100901142013509/01/10 14:20:31  5-MIN KDBQ 012020Z 26006KT 5SM -RA BR BKN006 BKN010 OVC017 22/21 A2995 1050 93 2200 260/06 RMK AO2 CIG 004V010 P0003
94908KDBQ DBQ20100901142512009/01/10 14:25:31  5-MIN KDBQ 012025Z 25006KT 7SM -RA SCT006 BKN012 OVC041 22/21 A2995 1050 93 2200 250/06 RMK AO2 P0003
94908KDBQ DBQ20100901143012309/01/10 14:30:31  5-MIN KDBQ 012030Z 24005KT 10SM BKN006 BKN012 OVC041 22/21 A2994 1060 93 2200 240/05 RMK AO2 RAE26 P0003
94908KDBQ DBQ20100901143512309/01/10 14:35:31  5-MIN KDBQ 012035Z 24007KT 10SM BKN006 BKN012 OVC041 23/21 A2994 1060 90 2200 240/07 RMK AO2 RAE26 P0003
94908KDBQ DBQ20100901144012309/01/10 14:40:31  5-MIN KDBQ 012040Z 25006KT 10SM BKN006 BKN012 OVC041 23/21 A2994 1060 90 2200 250/06 RMK AO2 RAE26 P0003
94908KDBQ DBQ20100901144512309/01/10 14:45:31  5-MIN KDBQ 012045Z 24006KT 10SM BKN006 BKN012 OVC041 23/21 A2994 1060 90 2200 240/06 RMK AO2 RAE26 P0003
94908KDBQ DBQ20100901145012309/01/10 14:50:31  5-MIN KDBQ 012050Z 24006KT 10SM FEW014 BKN024 OVC047 22/21 A2994 1060 93 2200 240/06 RMK AO2 RAE26 P0003
94908KDBQ DBQ20100901145511109/01/10 14:55:31  5-MIN KDBQ 012055Z VRB04KT 10SM SCT010 BKN024 OVC047 23/21 A2994 1060 90 2200 VRB/04 RMK AO2
94908KDBQ DBQ20100901150011109/01/10 15:00:31  5-MIN KDBQ 012100Z 21007KT 10SM FEW010 BKN023 OVC047 23/21 A2994 1060 90 2200 210/07 RMK AO2
94908KDBQ DBQ20100901150511109/01/10 15:05:31  5-MIN KDBQ 012105Z 20006KT 10SM FEW010 BKN024 BKN047 23/21 A2994 1060 90 2300 200/06 RMK AO2
94908KDBQ DBQ20100901151011109/01/10 15:10:31  5-MIN KDBQ 012110Z 22007KT 10SM FEW010 SCT013 BKN027 23/21 A2994 1060 87 2300 220/07 RMK AO2
94908KDBQ DBQ20100901151511109/01/10 15:15:31  5-MIN KDBQ 012115Z 21008KT 10SM FEW010 BKN024 OVC044 23/21 A2994 1060 87 2300 210/08 RMK AO2
94908KDBQ DBQ20100901152011109/01/10 15:20:31  5-MIN KDBQ 012120Z 21008KT 10SM FEW011 SCT016 BKN025 23/21 A2994 1060 84 2300 210/08 RMK AO2
94908KDBQ DBQ20100901152511109/01/10 15:25:31  5-MIN KDBQ 012125Z 22008KT 10SM SCT013 BKN028 OVC037 24/21 A2994 1060 84 2400 220/08 RMK AO2
94908KDBQ DBQ20100901153011109/01/10 15:30:31  5-MIN KDBQ 012130Z 23008KT 10SM SCT015 BKN028 OVC036 24/22 A2994 1060 87 2400 230/08 RMK AO2
94908KDBQ DBQ20100901153511109/01/10 15:35:31  5-MIN KDBQ 012135Z 22008KT 10SM SCT015 BKN030 OVC036 24/22 A2994 1060 84 2400 220/08 RMK AO2
94908KDBQ DBQ20100901154011109/01/10 15:40:31  5-MIN KDBQ 012140Z 22008KT 10SM FEW015 BKN031 OVC050 24/21 A2994 1060 81 2400 220/08 RMK AO2
94908KDBQ DBQ20100901154511109/01/10 15:45:31  5-MIN KDBQ 012145Z 21006KT 10SM FEW015 SCT031 BKN037 24/21 A2993 1070 84 2400 210/06 RMK AO2
94908KDBQ DBQ20100901155012809/01/10 15:50:31  5-MIN KDBQ 012150Z 22008KT 10SM FEW015 SCT031 SCT050 24/22 A2994 1060 87 2400 220/08 RMK AO2 SLP132 T02390217
94908KDBQ DBQ20100901155509709/01/10 15:55:31  5-MIN KDBQ 012155Z 22007KT 10SM FEW033 24/21 A2994 1060 84 2400 220/07 RMK AO2
94908KDBQ DBQ20100901160009709/01/10 16:00:31  5-MIN KDBQ 012200Z 22007KT 10SM FEW031 24/21 A2994 1060 84 2400 220/07 RMK AO2
94908KDBQ DBQ20100901160509709/01/10 16:05:31  5-MIN KDBQ 012205Z 23006KT 10SM FEW050 24/21 A2994 1060 81 2400 230/06 RMK AO2
94908KDBQ DBQ20100901161009409/01/10 16:10:31  5-MIN KDBQ 012210Z 23005KT 10SM CLR 24/21 A2994 1060 81 2400 230/05 RMK AO2
94908KDBQ DBQ20100901161509409/01/10 16:15:31  5-MIN KDBQ 012215Z 22004KT 10SM CLR 24/21 A2993 1070 81 2400 220/04 RMK AO2
94908KDBQ DBQ20100901162009409/01/10 16:20:31  5-MIN KDBQ 012220Z 20007KT 10SM CLR 24/21 A2993 1070 81 2400 200/07 RMK AO2
94908KDBQ DBQ20100901162509709/01/10 16:25:31  5-MIN KDBQ 012225Z 20006KT 10SM FEW016 24/21 A2994 1060 81 2400 200/06 RMK AO2
94908KDBQ DBQ20100901163009709/01/10 16:30:31  5-MIN KDBQ 012230Z 19005KT 10SM SCT016 24/21 A2993 1070 84 2400 190/05 RMK AO2
94908KDBQ DBQ20100901163509709/01/10 16:35:31  5-MIN KDBQ 012235Z 19006KT 10SM FEW016 24/21 A2993 1070 81 2400 190/06 RMK AO2
94908KDBQ DBQ20100901164009709/01/10 16:40:31  5-MIN KDBQ 012240Z 19005KT 10SM FEW016 24/21 A2993 1070 81 2400 190/05 RMK AO2
94908KDBQ DBQ20100901164509709/01/10 16:45:31  5-MIN KDBQ 012245Z 18006KT 10SM FEW016 24/21 A2993 1070 81 2400 180/06 RMK AO2
94908KDBQ DBQ20100901165011409/01/10 16:50:31  5-MIN KDBQ 012250Z 19007KT 10SM FEW016 24/21 A2993 1070 81 2400 190/07 RMK AO2 SLP128 T02390206
94908KDBQ DBQ20100901165509709/01/10 16:55:31  5-MIN KDBQ 012255Z 19007KT 10SM FEW016 23/21 A2993 1070 84 2300 190/07 RMK AO2
94908KDBQ DBQ20100901170009409/01/10 17:00:31  5-MIN KDBQ 012300Z 19006KT 10SM CLR 23/21 A2993 1070 84 2300 180/06 RMK AO2
94908KDBQ DBQ20100901170509409/01/10 17:05:31  5-MIN KDBQ 012305Z 18005KT 10SM CLR 23/21 A2993 1070 87 2300 180/05 RMK AO2
94908KDBQ DBQ20100901171009409/01/10 17:10:31  5-MIN KDBQ 012310Z 18005KT 10SM CLR 23/21 A2993 1070 90 2300 180/05 RMK AO2
94908KDBQ DBQ20100901171509409/01/10 17:15:31  5-MIN KDBQ 012315Z 19005KT 10SM CLR 23/21 A2993 1070 87 2300 190/05 RMK AO2
94908KDBQ DBQ20100901172009409/01/10 17:20:31  5-MIN KDBQ 012320Z 19007KT 10SM CLR 23/21 A2993 1070 87 2300 190/07 RMK AO2
94908KDBQ DBQ20100901172509409/01/10 17:25:31  5-MIN KDBQ 012325Z 19007KT 10SM CLR 23/21 A2993 1070 84 2300 190/07 RMK AO2
94908KDBQ DBQ20100901173009709/01/10 17:30:31  5-MIN KDBQ 012330Z 18007KT 10SM FEW020 23/21 A2993 1070 84 2300 180/07 RMK AO2
94908KDBQ DBQ20100901173509709/01/10 17:35:31  5-MIN KDBQ 012335Z 18007KT 10SM FEW020 23/21 A2993 1070 84 2300 180/07 RMK AO2
94908KDBQ DBQ20100901174009709/01/10 17:40:31  5-MIN KDBQ 012340Z 18007KT 10SM FEW020 23/21 A2993 1070 87 2300 180/07 RMK AO2
94908KDBQ DBQ20100901174509709/01/10 17:45:31  5-MIN KDBQ 012345Z 19007KT 10SM FEW020 23/21 A2993 1070 87 2300 190/07 RMK AO2
94908KDBQ DBQ20100901175013809/01/10 17:50:31  5-MIN KDBQ 012350Z 19005KT 10SM FEW020 22/21 A2993 1070 90 2200 190/05 RMK AO2 SLP131 60019 T02220206 10244 20211 58012
94908KDBQ DBQ20100901175509709/01/10 17:55:31  5-MIN KDBQ 012355Z 19005KT 10SM FEW020 23/21 A2993 1070 87 2300 190/05 RMK AO2
94908KDBQ DBQ20100901180009709/01/10 18:00:31  5-MIN KDBQ 020000Z 18008KT 10SM SCT022 23/21 A2993 1070 87 2300 180/08 RMK AO2
94908KDBQ DBQ20100901180509709/01/10 18:05:31  5-MIN KDBQ 020005Z 18008KT 10SM BKN022 22/21 A2993 1070 90 2200 180/08 RMK AO2
94908KDBQ DBQ20100901181009709/01/10 18:10:31  5-MIN KDBQ 020010Z 18006KT 10SM SCT022 22/21 A2993 1070 90 2200 180/06 RMK AO2
94908KDBQ DBQ20100901181509709/01/10 18:15:31  5-MIN KDBQ 020015Z 18007KT 10SM SCT022 22/21 A2993 1070 90 2200 180/07 RMK AO2
94908KDBQ DBQ20100901182009709/01/10 18:20:31  5-MIN KDBQ 020020Z 17006KT 10SM SCT022 22/21 A2992 1070 90 2200 170/06 RMK AO2
94908KDBQ DBQ20100901182509709/01/10 18:25:31  5-MIN KDBQ 020025Z 18006KT 10SM SCT022 22/21 A2992 1070 93 2100 180/06 RMK AO2
94908KDBQ DBQ20100901183009709/01/10 18:30:31  5-MIN KDBQ 020030Z 18005KT 10SM SCT022 22/21 A2992 1070 93 2100 180/05 RMK AO2
94908KDBQ DBQ20100901183509709/01/10 18:35:31  5-MIN KDBQ 020035Z 17005KT 10SM SCT022 22/21 A2993 1070 93 2100 170/05 RMK AO2
94908KDBQ DBQ20100901184009709/01/10 18:40:31  5-MIN KDBQ 020040Z 17005KT 10SM SCT022 21/21 A2993 1070 97 2100 170/05 RMK AO2
94908KDBQ DBQ20100901184509609/01/10 18:45:31  5-MIN KDBQ 020045Z 16005KT 9SM SCT022 21/20 A2992 1070 93 2100 160/05 RMK AO2
94908KDBQ DBQ20100901185011309/01/10 18:50:31  5-MIN KDBQ 020050Z 16005KT 9SM SCT022 21/20 A2993 1070 93 2100 160/05 RMK AO2 SLP129 T02110200
94908KDBQ DBQ20100901185509809/01/10 18:55:31  5-MIN KDBQ 020055Z AUTO 16005KT 9SM CLR 21/20 A2993 1070 93 2100 160/05 RMK AO2
94908KDBQ DBQ20100901190009809/01/10 19:00:31  5-MIN KDBQ 020100Z AUTO 16005KT 9SM CLR 21/20 A2992 1070 93 2100 160/05 RMK AO2
94908KDBQ DBQ20100901190509809/01/10 19:05:31  5-MIN KDBQ 020105Z AUTO 16004KT 8SM CLR 21/20 A2993 1070 97 2000 160/04 RMK AO2
94908KDBQ DBQ20100901191009809/01/10 19:10:31  5-MIN KDBQ 020110Z AUTO 16004KT 8SM CLR 21/20 A2993 1070 97 2000 160/04 RMK AO2
94908KDBQ DBQ20100901191509809/01/10 19:15:31  5-MIN KDBQ 020115Z AUTO 16004KT 8SM CLR 21/20 A2993 1070 97 2000 160/04 RMK AO2
94908KDBQ DBQ20100901192009809/01/10 19:20:31  5-MIN KDBQ 020120Z AUTO 15004KT 8SM CLR 21/20 A2993 1070 97 2000 150/04 RMK AO2
94908KDBQ DBQ20100901192509809/01/10 19:25:31  5-MIN KDBQ 020125Z AUTO 15005KT 7SM CLR 21/20 A2993 1070 97 2000 150/05 RMK AO2
94908KDBQ DBQ20100901193009809/01/10 19:30:31  5-MIN KDBQ 020130Z AUTO 16005KT 7SM CLR 21/20 A2993 1070 97 2000 160/05 RMK AO2
94908KDBQ DBQ20100901193509809/01/10 19:35:31  5-MIN KDBQ 020135Z AUTO 16005KT 8SM CLR 21/20 A2993 1070 97 2000 160/05 RMK AO2
94908KDBQ DBQ20100901194009809/01/10 19:40:31  5-MIN KDBQ 020140Z AUTO 16005KT 8SM CLR 21/20 A2993 1070 97 2000 160/05 RMK AO2
94908KDBQ DBQ20100901194509809/01/10 19:45:31  5-MIN KDBQ 020145Z AUTO 16004KT 8SM CLR 21/20 A2993 1070 97 2000 160/04 RMK AO2
94908KDBQ DBQ20100901195011509/01/10 19:50:31  5-MIN KDBQ 020150Z AUTO 16005KT 7SM CLR 21/20 A2993 1070 97 2000 160/05 RMK AO2 SLP131 T02060200
94908KDBQ DBQ20100901195509809/01/10 19:55:31  5-MIN KDBQ 020155Z AUTO 16005KT 7SM CLR 21/20 A2993 1070 97 2000 160/05 RMK AO2
94908KDBQ DBQ20100901200009809/01/10 20:00:31  5-MIN KDBQ 020200Z AUTO 17006KT 7SM CLR 21/19 A2993 1070 93 2000 170/06 RMK AO2
94908KDBQ DBQ20100902022010609/02/10 02:20:31  5-MIN KDBQ 020820Z AUTO 00000KT 4SM BR SCT019 18/18 A2989 1100 96 1800 000/00 RMK AO2 $
94908KDBQ DBQ20100902022510709/02/10 02:25:31  5-MIN KDBQ 020825Z AUTO 00000KT 4SM BR BKN017 18/18 A2989 1110 100 1800 000/00 RMK AO2 $
94908KDBQ DBQ20100902023010709/02/10 02:30:31  5-MIN KDBQ 020830Z AUTO 18003KT 3SM BR BKN017 18/18 A2989 1110 100 1800 180/03 RMK AO2 $
94908KDBQ DBQ20100902023510609/02/10 02:35:31  5-MIN KDBQ 020835Z AUTO 18003KT 3SM BR BKN017 19/18 A2988 1110 97 1900 180/03 RMK AO2 $
94908KDBQ DBQ20100902024010709/02/10 02:40:31  5-MIN KDBQ 020840Z AUTO 19004KT 3SM BR BKN017 18/18 A2989 1110 100 1800 190/04 RMK AO2 $
94908KDBQ DBQ20100902024510609/02/10 02:45:31  5-MIN KDBQ 020845Z AUTO 20004KT 3SM BR BKN017 19/18 A2988 1110 97 1900 200/04 RMK AO2 $
94908KDBQ DBQ20100902025013709/02/10 02:50:31  5-MIN KDBQ 020850Z AUTO 20004KT 4SM BR FEW010 BKN017 19/19 A2988 1110 100 1900 200/04 RMK AO2 SLP115 T01890189 57003 $
94908KDBQ DBQ20100902025512109/02/10 02:55:31  5-MIN KDBQ 020855Z AUTO 19005KT 4SM BR FEW002 SCT010 OVC017 19/19 A2988 1110 100 1900 190/05 RMK AO2 $
94908KDBQ DBQ20100902030012009/02/10 03:00:31  5-MIN KDBQ 020900Z AUTO 17007KT 3SM BR FEW002 SCT008 OVC017 19/19 A2988 1110 97 1900 170/07 RMK AO2 $
94908KDBQ DBQ20100902030512009/02/10 03:05:31  5-MIN KDBQ 020905Z AUTO 18007KT 3SM BR SCT002 SCT008 OVC017 19/19 A2988 1110 97 1900 170/07 RMK AO2 $
94908KDBQ DBQ20100902031013209/02/10 03:10:31  5-MIN KDBQ 020910Z AUTO 17008KT 3SM BR FEW002 BKN010 OVC017 19/19 A2988 1110 97 1900 170/08 RMK AO2 CIG 007V012 $
94908KDBQ DBQ20100902031513209/02/10 03:15:31  5-MIN KDBQ 020915Z AUTO 18007KT 3SM BR SCT004 BKN010 OVC017 19/19 A2988 1110 97 1900 180/07 RMK AO2 CIG 006V012 $
94908KDBQ DBQ20100902032013309/02/10 03:20:31  5-MIN KDBQ 020920Z AUTO 18008KT 3SM BR BKN004 BKN008 OVC012 19/19 A2988 1110 100 1900 180/08 RMK AO2 CIG 002V005 $
94908KDBQ DBQ20100902032511409/02/10 03:25:31  5-MIN KDBQ 020925Z AUTO 18006KT 3SM BR BKN002 OVC008 19/19 A2988 1120 100 1900 180/06 RMK AO2 $
94908KDBQ DBQ20100902033011409/02/10 03:30:31  5-MIN KDBQ 020930Z AUTO 18007KT 3SM BR BKN002 OVC010 19/19 A2987 1120 100 1900 170/07 RMK AO2 $
94908KDBQ DBQ20100902033512509/02/10 03:35:31  5-MIN KDBQ 020935Z AUTO 18005KT 3SM BR BKN002 OVC010 20/19 A2986 1130 97 2000 180/05 RMK AO2 CIG 001V005 $
94908KDBQ DBQ20100902034011709/02/10 03:40:31  5-MIN KDBQ 020940Z AUTO 17007KT 2 1/2SM BR OVC002 20/19 A2986 1140 97 2000 170/07 RMK AO2 PRESFR $
94908KDBQ DBQ20100902034512709/02/10 03:45:31  5-MIN KDBQ 020945Z AUTO 17007KT 1 3/4SM R36/6000VP6000FT BR OVC002 20/19 A2985 1140 97 2000 170/07 RMK AO2 $
94908KDBQ DBQ20100902035014009/02/10 03:50:31  5-MIN KDBQ 020950Z AUTO 17006KT 1SM R36/4500VP6000FT BR OVC002 20/19 A2985 1140 97 2000 170/06 RMK AO2 SLP102 T02000194 $
94908KDBQ DBQ20100902035512509/02/10 03:55:31  5-MIN KDBQ 020955Z AUTO 19007KT 3/4SM R36/4500VP6000FT BR OVC002 20/19 A2985 1140 97 2000 180/07 RMK AO2 $
94908KDBQ DBQ20100902040012509/02/10 04:00:31  5-MIN KDBQ 021000Z AUTO 19007KT 3/4SM R36/4500VP6000FT BR OVC002 20/19 A2985 1140 97 2000 190/07 RMK AO2 $
94908KDBQ DBQ20100902040512409/02/10 04:05:31  5-MIN KDBQ 021005Z AUTO 18007KT 1SM R36/4500VP6000FT BR OVC002 20/20 A2985 1150 100 2000 180/07 RMK AO2 $
94908KDBQ DBQ20100902041011109/02/10 04:10:31  5-MIN KDBQ 021010Z AUTO 18007KT 1 1/2SM BR OVC002 20/20 A2984 1150 100 2000 170/07 RMK AO2 $
94908KDBQ DBQ20100902041510709/02/10 04:15:31  5-MIN KDBQ 021015Z AUTO 17009KT 2SM BR OVC002 20/20 A2984 1160 100 2000 170/09 RMK AO2 $
94908KDBQ DBQ20100902042012409/02/10 04:20:31  5-MIN KDBQ 021020Z AUTO 17011KT 1SM R36/2600VP6000FT BR OVC002 20/20 A2983 1160 100 2000 170/11 RMK AO2 $
94908KDBQ DBQ20100902042512609/02/10 04:25:31  5-MIN KDBQ 021025Z AUTO 18011KT 1/2SM R36/2400VP6000FT FG OVC002 20/20 A2983 1160 100 2100 170/11 RMK AO2 $
94908KDBQ DBQ20100902043012509/02/10 04:30:31  5-MIN KDBQ 021030Z AUTO 17010KT 1/2SM R36/2400V4500FT FG OVC002 20/20 A2982 1170 100 2100 170/10 RMK AO2 $
94908KDBQ DBQ20100902043512409/02/10 04:35:31  5-MIN KDBQ 021035Z AUTO 18012KT 1/2SM R36/3500V5500FT FG VV001 19/19 A2983 1160 100 2000 180/12 RMK AO2 $
94908KDBQ DBQ20100902044012609/02/10 04:40:31  5-MIN KDBQ 021040Z AUTO 19011KT 3/4SM R36/3500VP6000FT BR OVC001 19/19 A2983 1160 100 2000 190/11 RMK AO2 $
94908KDBQ DBQ20100902044512809/02/10 04:45:31  5-MIN KDBQ 021045Z AUTO 19012KT 1 1/4SM R36/5500VP6000FT BR OVC001 19/19 A2983 1160 100 2000 190/12 RMK AO2 $
94908KDBQ DBQ20100902045012309/02/10 04:50:31  5-MIN KDBQ 021050Z 18010KT 1 1/2SM R36/5500VP6000FT BR OVC001 19/19 A2983 1170 100 2000 180/10 RMK AO2 $
94908KDBQ DBQ20100902045510609/02/10 04:55:31  5-MIN KDBQ 021055Z 18010KT 1 3/4SM BR OVC001 19/19 A2983 1160 100 2000 180/10 RMK AO2 $
94908KDBQ DBQ20100902050010609/02/10 05:00:31  5-MIN KDBQ 021100Z 19011KT 1 1/2SM BR OVC001 19/19 A2983 1160 100 2000 190/11 RMK AO2 $
94908KDBQ DBQ20100902050511809/02/10 05:05:31  5-MIN KDBQ 021105Z 19010KT 1 1/2SM BR OVC001 19/19 A2983 1160 100 2000 190/10 RMK AO2 CIG 001V005 $
94908KDBQ DBQ20100902051010609/02/10 05:10:31  5-MIN KDBQ 021110Z 19009KT 1 1/2SM BR OVC001 19/19 A2983 1160 100 2000 190/09 RMK AO2 $
94908KDBQ DBQ20100902051512309/02/10 05:15:31  5-MIN KDBQ 021115Z 18008KT 1 1/2SM R36/4500VP6000FT BR OVC001 19/19 A2983 1170 100 2000 180/08 RMK AO2 $
94908KDBQ DBQ20100902052012309/02/10 05:20:31  5-MIN KDBQ 021120Z 18008KT 1 1/2SM R36/3500VP6000FT BR OVC001 19/19 A2982 1170 100 2000 180/08 RMK AO2 $
94908KDBQ DBQ20100902052512209/02/10 05:25:31  5-MIN KDBQ 021125Z 17008KT 1 1/2SM R36/3500V6000FT BR OVC001 19/19 A2982 1170 100 2000 170/08 RMK AO2 $
94908KDBQ DBQ20100902053012309/02/10 05:30:31  5-MIN KDBQ 021130Z 18008KT 1 1/2SM R36/3500VP6000FT BR OVC001 19/19 A2982 1170 100 2000 180/08 RMK AO2 $
94908KDBQ DBQ20100902053512309/02/10 05:35:31  5-MIN KDBQ 021135Z 17008KT 1 1/2SM R36/6000VP6000FT BR OVC001 19/19 A2982 1170 100 2000 170/08 RMK AO2 $
94908KDBQ DBQ20100902054011309/02/10 05:40:31  5-MIN KDBQ 021140Z 20008KT 1 1/2SM BR BKN001 OVC005 19/19 A2983 1160 100 2000 190/08 RMK AO2 $
94908KDBQ DBQ20100902054512009/02/10 05:45:31  5-MIN KDBQ 021145Z 21008KT 1 1/2SM BR BKN001 OVC005 19/19 A2984 1150 100 2000 210/08 RMK AO2 PRESRR $
94908KDBQ DBQ20100902055011809/02/10 05:50:31  5-MIN KDBQ 021150Z 20005KT 1 1/2SM BR OVC003 19/19 A2985 1150 100 2000 200/05 RMK AO2 CIG 001V007 $
94908KDBQ DBQ20100902055511809/02/10 05:55:31  5-MIN KDBQ 021155Z 22007KT 2 1/2SM BR OVC003 19/19 A2985 1140 100 2000 210/07 RMK AO2 CIG 001V007 $
94908KDBQ DBQ20100902060011109/02/10 06:00:31  5-MIN KDBQ 021200Z 21005KT 3SM BR OVC003 20/19 A2985 1140 97 2000 210/05 RMK AO2 CIG 001V006
94908KDBQ DBQ20100902060511109/02/10 06:05:31  5-MIN KDBQ 021205Z 19007KT 4SM BR OVC005 20/19 A2985 1140 97 2000 190/07 RMK AO2 CIG 001V008
94908KDBQ DBQ20100902061011109/02/10 06:10:31  5-MIN KDBQ 021210Z 19007KT 3SM BR OVC005 20/19 A2985 1140 97 2000 190/07 RMK AO2 CIG 002V009
94908KDBQ DBQ20100902061511109/02/10 06:15:31  5-MIN KDBQ 021215Z 19007KT 3SM BR OVC005 20/19 A2985 1140 97 2000 190/07 RMK AO2 CIG 002V008
94908KDBQ DBQ20100902062011109/02/10 06:20:31  5-MIN KDBQ 021220Z 19007KT 3SM BR OVC005 20/19 A2986 1130 97 2000 190/07 RMK AO2 CIG 002V009
94908KDBQ DBQ20100902062511109/02/10 06:25:31  5-MIN KDBQ 021225Z 19008KT 3SM BR OVC005 20/19 A2986 1140 97 2000 190/08 RMK AO2 CIG 002V009
94908KDBQ DBQ20100902063011109/02/10 06:30:31  5-MIN KDBQ 021230Z 18005KT 3SM BR OVC005 20/19 A2985 1140 97 2000 180/05 RMK AO2 CIG 003V009
94908KDBQ DBQ20100902063511509/02/10 06:35:31  5-MIN KDBQ 021235Z 17006KT 2 1/2SM BR OVC005 20/19 A2985 1150 97 2000 170/06 RMK AO2 CIG 003V009
94908KDBQ DBQ20100902064010309/02/10 06:40:31  5-MIN KDBQ 021240Z 18007KT 2 1/2SM BR OVC005 20/19 A2986 1140 97 2000 180/07 RMK AO2
94908KDBQ DBQ20100902064511109/02/10 06:45:31  5-MIN KDBQ 021245Z 20007KT 3SM BR OVC005 20/19 A2987 1130 97 2000 200/07 RMK AO2 CIG 003V008
94908KDBQ DBQ20100902065012809/02/10 06:50:31  5-MIN KDBQ 021250Z 23005KT 3SM BR OVC005 20/19 A2987 1130 97 2000 230/05 RMK AO2 CIG 003V008 SLP110 T02000194
94908KDBQ DBQ20100902065511109/02/10 06:55:31  5-MIN KDBQ 021255Z 24003KT 3SM BR OVC005 21/19 A2986 1130 93 2100 240/03 RMK AO2 CIG 003V008
94908KDBQ DBQ20100902070009909/02/10 07:00:31  5-MIN KDBQ 021300Z 23005KT 3SM BR OVC005 21/19 A2987 1130 93 2100 230/05 RMK AO2
94908KDBQ DBQ20100902070511109/02/10 07:05:31  5-MIN KDBQ 021305Z 21004KT 3SM BR OVC005 21/20 A2987 1120 97 2100 210/04 RMK AO2 CIG 003V007
94908KDBQ DBQ20100902071011109/02/10 07:10:31  5-MIN KDBQ 021310Z 23004KT 3SM BR OVC005 21/19 A2988 1120 93 2100 230/04 RMK AO2 CIG 003V008
94908KDBQ DBQ20100902071511109/02/10 07:15:31  5-MIN KDBQ 021315Z 21005KT 3SM BR OVC005 21/19 A2988 1120 93 2100 210/05 RMK AO2 CIG 003V008
94908KDBQ DBQ20100902072011109/02/10 07:20:31  5-MIN KDBQ 021320Z 20004KT 3SM BR OVC005 21/19 A2987 1120 93 2100 200/04 RMK AO2 CIG 003V008
94908KDBQ DBQ20100902072511109/02/10 07:25:31  5-MIN KDBQ 021325Z 20005KT 4SM BR OVC005 21/19 A2987 1120 93 2100 200/05 RMK AO2 CIG 003V008
94908KDBQ DBQ20100902073011809/02/10 07:30:31  5-MIN KDBQ 021330Z 18004KT 4SM BR BKN005 OVC011 21/20 A2986 1130 97 2100 180/04 RMK AO2 CIG 003V008
94908KDBQ DBQ20100902073512509/02/10 07:35:31  5-MIN KDBQ 021335Z 18004KT 4SM BR BKN005 BKN011 OVC030 21/20 A2986 1140 97 2100 180/04 RMK AO2 CIG 003V008
94908KDBQ DBQ20100902074011809/02/10 07:40:31  5-MIN KDBQ 021340Z 19004KT 4SM BR BKN005 OVC030 21/20 A2986 1140 97 2100 190/04 RMK AO2 CIG 003V008
94908KDBQ DBQ20100902074510609/02/10 07:45:31  5-MIN KDBQ 021345Z 17003KT 4SM BR BKN005 OVC030 21/19 A2986 1140 90 2100 170/03 RMK AO2
94908KDBQ DBQ20100902075013009/02/10 07:50:31  5-MIN KDBQ 021350Z 18005KT 4SM BR BKN005 BKN010 OVC030 21/20 A2986 1140 93 2100 180/05 RMK AO2 SLP105 T02110200
94908KDBQ DBQ20100902075511809/02/10 07:55:31  5-MIN KDBQ 021355Z 19006KT 5SM BR BKN007 OVC030 21/20 A2986 1130 93 2100 190/06 RMK AO2 CIG 004V011
94908KDBQ DBQ20100902080012509/02/10 08:00:31  5-MIN KDBQ 021400Z 19007KT 6SM BR BKN007 BKN011 OVC030 21/20 A2986 1130 93 2100 190/07 RMK AO2 CIG 005V011
94908KDBQ DBQ20100902080511009/02/10 08:05:31  5-MIN KDBQ 021405Z 21007KT 7SM BKN007 BKN011 OVC030 21/20 A2987 1120 93 2100 210/07 RMK AO2
94908KDBQ DBQ20100902081011009/02/10 08:10:31  5-MIN KDBQ 021410Z 22006KT 7SM BKN007 BKN011 OVC030 21/19 A2987 1120 90 2100 220/06 RMK AO2
94908KDBQ DBQ20100902081511009/02/10 08:15:31  5-MIN KDBQ 021415Z 21006KT 7SM BKN007 BKN011 OVC030 21/19 A2987 1130 90 2100 210/06 RMK AO2
94908KDBQ DBQ20100902082011009/02/10 08:20:31  5-MIN KDBQ 021420Z 21005KT 8SM BKN007 BKN011 OVC030 22/20 A2986 1130 90 2200 210/05 RMK AO2
94908KDBQ DBQ20100902082511009/02/10 08:25:31  5-MIN KDBQ 021425Z 24005KT 8SM BKN007 BKN011 OVC030 22/20 A2987 1130 90 2200 240/05 RMK AO2
94908KDBQ DBQ20100902083011009/02/10 08:30:31  5-MIN KDBQ 021430Z 24006KT 8SM BKN007 BKN011 OVC030 22/20 A2987 1130 90 2200 240/06 RMK AO2
94908KDBQ DBQ20100902083511009/02/10 08:35:31  5-MIN KDBQ 021435Z 24006KT 8SM SCT009 BKN013 OVC025 22/20 A2987 1120 90 2200 240/06 RMK AO2
94908KDBQ DBQ20100902084011009/02/10 08:40:31  5-MIN KDBQ 021440Z 26007KT 8SM BKN009 BKN013 OVC025 22/19 A2987 1120 87 2200 260/07 RMK AO2
94908KDBQ DBQ20100902084511009/02/10 08:45:31  5-MIN KDBQ 021445Z 25006KT 9SM BKN009 BKN013 OVC025 22/19 A2987 1120 87 2200 250/06 RMK AO2
94908KDBQ DBQ20100902085013309/02/10 08:50:31  5-MIN KDBQ 021450Z 27006KT 9SM BKN009 BKN013 OVC025 22/19 A2987 1120 87 2200 270/06 RMK AO2 SLP111 T02170194 53001
94908KDBQ DBQ20100902085511009/02/10 08:55:31  5-MIN KDBQ 021455Z 27006KT 9SM SCT009 BKN013 OVC025 22/19 A2987 1120 87 2200 270/06 RMK AO2
94908KDBQ DBQ20100902090011009/02/10 09:00:31  5-MIN KDBQ 021500Z 25005KT 9SM BKN013 BKN025 OVC035 22/19 A2987 1130 87 2200 250/05 RMK AO2
94908KDBQ DBQ20100902090511009/02/10 09:05:31  5-MIN KDBQ 021505Z 24004KT 9SM FEW009 BKN013 OVC047 22/19 A2986 1130 87 2200 240/04 RMK AO2
94908KDBQ DBQ20100902091011009/02/10 09:10:31  5-MIN KDBQ 021510Z 24003KT 9SM FEW009 SCT015 BKN035 22/19 A2986 1130 87 2200 240/03 RMK AO2
94908KDBQ DBQ20100902091511109/02/10 09:15:31  5-MIN KDBQ 021515Z 22004KT 10SM SCT012 SCT034 BKN046 22/19 A2986 1130 84 2300 220/04 RMK AO2
94908KDBQ DBQ20100902092011109/02/10 09:20:31  5-MIN KDBQ 021520Z 22005KT 10SM FEW012 SCT034 BKN046 22/19 A2986 1130 84 2300 220/05 RMK AO2
94908KDBQ DBQ20100902092511109/02/10 09:25:31  5-MIN KDBQ 021525Z 23005KT 10SM SCT012 SCT034 OVC046 22/20 A2986 1130 87 2300 230/05 RMK AO2
94908KDBQ DBQ20100902093010409/02/10 09:30:31  5-MIN KDBQ 021530Z 22007KT 10SM BKN012 OVC046 22/20 A2986 1130 87 2300 220/07 RMK AO2
94908KDBQ DBQ20100902093510409/02/10 09:35:31  5-MIN KDBQ 021535Z 23007KT 10SM BKN012 OVC044 22/19 A2986 1130 84 2300 230/07 RMK AO2
94908KDBQ DBQ20100902094010409/02/10 09:40:31  5-MIN KDBQ 021540Z 22007KT 10SM BKN012 OVC044 22/19 A2986 1130 84 2300 220/07 RMK AO2
94908KDBQ DBQ20100902094510409/02/10 09:45:31  5-MIN KDBQ 021545Z 21005KT 10SM BKN014 OVC042 22/19 A2985 1140 84 2300 210/05 RMK AO2
94908KDBQ DBQ20100902095012109/02/10 09:50:31  5-MIN KDBQ 021550Z 19007KT 10SM BKN014 BKN040 23/19 A2985 1140 81 2300 190/07 RMK AO2 SLP102 T02280194
94908KDBQ DBQ20100902095510409/02/10 09:55:31  5-MIN KDBQ 021555Z 18005KT 10SM BKN014 BKN040 23/19 A2985 1150 81 2400 180/05 RMK AO2
94908KDBQ DBQ20100902100009709/02/10 10:00:31  5-MIN KDBQ 021600Z 19005KT 10SM BKN014 23/20 A2984 1150 81 2400 190/05 RMK AO2
94908KDBQ DBQ20100902100510409/02/10 10:05:31  5-MIN KDBQ 021605Z 17009KT 10SM BKN014 23/20 A2983 1160 81 2400 170/09 RMK AO2 PRESFR
94908KDBQ DBQ20100902101010409/02/10 10:10:31  5-MIN KDBQ 021610Z 19007KT 10SM BKN014 23/20 A2983 1160 81 2400 190/07 RMK AO2 PRESFR
94908KDBQ DBQ20100902101510409/02/10 10:15:31  5-MIN KDBQ 021615Z 17007KT 10SM BKN014 23/20 A2982 1180 81 2400 170/07 RMK AO2 PRESFR
94908KDBQ DBQ20100902102009709/02/10 10:20:31  5-MIN KDBQ 021620Z 16010KT 10SM BKN014 24/20 A2981 1180 78 2500 160/10 RMK AO2
94908KDBQ DBQ20100902102510409/02/10 10:25:31  5-MIN KDBQ 021625Z 17010KT 10SM BKN014 24/20 A2980 1190 78 2500 170/10 RMK AO2 PRESFR
94908KDBQ DBQ20100902103009709/02/10 10:30:31  5-MIN KDBQ 021630Z 17008KT 10SM BKN014 24/20 A2981 1180 78 2500 170/08 RMK AO2
94908KDBQ DBQ20100902103509709/02/10 10:35:31  5-MIN KDBQ 021635Z 16011KT 10SM BKN014 24/21 A2981 1180 81 2500 160/11 RMK AO2
94908KDBQ DBQ20100902104010309/02/10 10:40:31  5-MIN KDBQ 021640Z 18008G14KT 10SM BKN014 24/21 A2982 1170 78 2600 180/08G14 RMK AO2
94908KDBQ DBQ20100902104509709/02/10 10:45:31  5-MIN KDBQ 021645Z 19009KT 10SM BKN014 24/20 A2982 1170 78 2500 190/09 RMK AO2
94908KDBQ DBQ20100902105011409/02/10 10:50:31  5-MIN KDBQ 021650Z 19009KT 10SM BKN014 23/20 A2982 1170 81 2400 190/09 RMK AO2 SLP094 T02330200
94908KDBQ DBQ20100902105509709/02/10 10:55:31  5-MIN KDBQ 021655Z 21007KT 10SM BKN017 24/20 A2982 1170 78 2500 210/07 RMK AO2
94908KDBQ DBQ20100902110009709/02/10 11:00:31  5-MIN KDBQ 021700Z 19008KT 10SM BKN017 24/20 A2983 1160 76 2600 190/08 RMK AO2
94908KDBQ DBQ20100902110510409/02/10 11:05:31  5-MIN KDBQ 021705Z 20009KT 10SM BKN017 BKN026 24/20 A2983 1160 76 2600 200/09 RMK AO2
94908KDBQ DBQ20100902111010409/02/10 11:10:31  5-MIN KDBQ 021710Z 23007KT 10SM BKN017 OVC024 25/21 A2983 1160 76 2600 230/07 RMK AO2
94908KDBQ DBQ20100902111511109/02/10 11:15:31  5-MIN KDBQ 021715Z 24008KT 10SM BKN017 BKN024 OVC033 24/20 A2983 1170 76 2600 230/08 RMK AO2
94908KDBQ DBQ20100902112011109/02/10 11:20:31  5-MIN KDBQ 021720Z 23007KT 10SM SCT019 BKN024 OVC033 25/20 A2983 1170 73 2600 230/07 RMK AO2
94908KDBQ DBQ20100902112511109/02/10 11:25:31  5-MIN KDBQ 021725Z 22007KT 10SM BKN019 BKN030 OVC035 24/20 A2982 1170 76 2600 220/07 RMK AO2
94908KDBQ DBQ20100902113010409/02/10 11:30:31  5-MIN KDBQ 021730Z 24010KT 10SM BKN021 BKN035 24/20 A2982 1170 76 2600 230/10 RMK AO2
94908KDBQ DBQ20100902113510409/02/10 11:35:31  5-MIN KDBQ 021735Z 22008KT 10SM BKN021 BKN035 24/20 A2982 1170 76 2600 220/08 RMK AO2
94908KDBQ DBQ20100902114010409/02/10 11:40:31  5-MIN KDBQ 021740Z 22009KT 10SM BKN021 BKN035 26/21 A2982 1170 73 2700 220/09 RMK AO2
94908KDBQ DBQ20100902114510409/02/10 11:45:31  5-MIN KDBQ 021745Z 20008KT 10SM BKN021 BKN035 26/20 A2982 1170 71 2700 200/08 RMK AO2
94908KDBQ DBQ20100902115011109/02/10 11:50:31  5-MIN KDBQ 021750Z 23008KT 10SM FEW021 SCT035 BKN075 24/19 A2982 1170 73 2600 230/08 RMK AO2
94908KDBQ DBQ20100902115511109/02/10 11:55:31  5-MIN KDBQ 021755Z 21006KT 10SM FEW024 SCT035 BKN075 26/20 A2981 1180 71 2700 210/06 RMK AO2
94908KDBQ DBQ20100902120012709/02/10 12:00:31  5-MIN KDBQ 021800Z 22008KT 190V250 10SM FEW022 BKN035 BKN075 26/20 A2981 1180 71 2700 220/08 190V250 RMK AO2
94908KDBQ DBQ20100902120511109/02/10 12:05:31  5-MIN KDBQ 021805Z 22010KT 10SM FEW022 SCT035 BKN075 26/19 A2981 1180 68 2700 220/10 RMK AO2
94908KDBQ DBQ20100902121010409/02/10 12:10:31  5-MIN KDBQ 021810Z 20008KT 10SM FEW022 SCT075 26/19 A2981 1180 68 2700 200/08 RMK AO2
94908KDBQ DBQ20100902121509709/02/10 12:15:31  5-MIN KDBQ 021815Z 23007KT 10SM FEW022 26/20 A2981 1180 71 2700 230/07 RMK AO2
94908KDBQ DBQ20100902122009709/02/10 12:20:31  5-MIN KDBQ 021820Z 20006KT 10SM FEW022 26/20 A2981 1180 71 2700 200/06 RMK AO2
94908KDBQ DBQ20100902122509709/02/10 12:25:31  5-MIN KDBQ 021825Z 22007KT 10SM FEW022 26/20 A2981 1180 71 2700 220/07 RMK AO2
94908KDBQ DBQ20100902123009409/02/10 12:30:31  5-MIN KDBQ 021830Z 24007KT 10SM CLR 26/20 A2981 1180 68 2800 240/07 RMK AO2
94908KDBQ DBQ20100902123509409/02/10 12:35:31  5-MIN KDBQ 021835Z 24008KT 10SM CLR 26/19 A2982 1170 68 2700 240/08 RMK AO2
94908KDBQ DBQ20100902124010409/02/10 12:40:31  5-MIN KDBQ 021840Z 24008KT 10SM FEW030 SCT040 26/20 A2982 1170 68 2800 240/08 RMK AO2
94908KDBQ DBQ20100902124510409/02/10 12:45:31  5-MIN KDBQ 021845Z 23012KT 10SM FEW030 SCT040 26/19 A2982 1170 64 2800 220/12 RMK AO2
94908KDBQ DBQ20100902125012809/02/10 12:50:31  5-MIN KDBQ 021850Z 24010KT 10SM FEW030 SCT040 BKN070 26/19 A2982 1170 68 2700 240/10 RMK AO2 SLP092 T02560194
94908KDBQ DBQ20100902125511109/02/10 12:55:31  5-MIN KDBQ 021855Z 23010KT 10SM FEW030 SCT040 BKN070 26/19 A2982 1170 66 2800 230/10 RMK AO2
94908KDBQ DBQ20100902130011109/02/10 13:00:31  5-MIN KDBQ 021900Z 24008KT 10SM SCT030 SCT040 BKN070 26/20 A2983 1170 71 2700 240/08 RMK AO2
94908KDBQ DBQ20100902130511709/02/10 13:05:31  5-MIN KDBQ 021905Z 23014G17KT 10SM BKN030 BKN040 BKN070 26/19 A2982 1170 66 2800 230/14G17 RMK AO2
94908KDBQ DBQ20100902131011109/02/10 13:10:31  5-MIN KDBQ 021910Z 24012KT 10SM SCT030 BKN040 BKN070 27/19 A2982 1170 64 2800 240/12 RMK AO2
94908KDBQ DBQ20100902131511109/02/10 13:15:31  5-MIN KDBQ 021915Z 24009KT 10SM FEW030 SCT037 BKN070 26/19 A2982 1170 66 2700 240/09 RMK AO2
94908KDBQ DBQ20100902132011009/02/10 13:20:31  5-MIN KDBQ 021920Z 23012G19KT 10SM SCT030 SCT035 26/19 A2982 1170 66 2800 230/12G19 RMK AO2
94908KDBQ DBQ20100902132511009/02/10 13:25:31  5-MIN KDBQ 021925Z 22010G19KT 10SM SCT030 SCT037 26/19 A2982 1170 66 2800 220/10G19 RMK AO2
94908KDBQ DBQ20100902133009709/02/10 13:30:31  5-MIN KDBQ 021930Z 22011KT 10SM FEW033 27/20 A2982 1170 66 2800 220/11 RMK AO2
94908KDBQ DBQ20100902133510309/02/10 13:35:31  5-MIN KDBQ 021935Z 22011G18KT 10SM FEW030 27/19 A2981 1180 64 2800 220/11G18 RMK AO2
94908KDBQ DBQ20100902134010309/02/10 13:40:31  5-MIN KDBQ 021940Z 23011G18KT 10SM FEW030 26/19 A2981 1180 66 2800 230/11G18 RMK AO2
94908KDBQ DBQ20100902134509409/02/10 13:45:31  5-MIN KDBQ 021945Z 23011KT 10SM CLR 27/19 A2980 1190 62 2800 220/11 RMK AO2
94908KDBQ DBQ20100902135012209/02/10 13:50:31  5-MIN KDBQ 021950Z AUTO 24012G18KT 10SM CLR 27/19 A2980 1190 60 2900 240/12G18 RMK AO2 SLP084 T02720189
94908KDBQ DBQ20100902135510509/02/10 13:55:31  5-MIN KDBQ 021955Z AUTO 25014G19KT 10SM CLR 27/19 A2980 1190 62 2900 250/14G19 RMK AO2
94908KDBQ DBQ20100902140010309/02/10 14:00:31  5-MIN KDBQ 022000Z 24013G19KT 10SM FEW080 27/19 A2980 1190 62 2800 240/13G19 RMK AO2
94908KDBQ DBQ20100902140511009/02/10 14:05:31  5-MIN KDBQ 022005Z 23014G18KT 10SM FEW035 SCT075 26/19 A2980 1190 64 2800 230/14G18 RMK AO2
94908KDBQ DBQ20100902141010409/02/10 14:10:31  5-MIN KDBQ 022010Z 23013KT 10SM FEW035 SCT075 26/19 A2979 1190 66 2800 230/13 RMK AO2
94908KDBQ DBQ20100902141511009/02/10 14:15:31  5-MIN KDBQ 022015Z 24015G19KT 10SM FEW035 SCT075 27/19 A2979 1190 64 2800 240/15G19 RMK AO2
94908KDBQ DBQ20100902142010409/02/10 14:20:31  5-MIN KDBQ 022020Z 23014KT 10SM FEW035 SCT080 27/19 A2979 1200 62 2900 230/14 RMK AO2
94908KDBQ DBQ20100902142510409/02/10 14:25:31  5-MIN KDBQ 022025Z 23013KT 10SM SCT037 SCT075 26/19 A2979 1200 64 2800 230/13 RMK AO2
94908KDBQ DBQ20100902143011009/02/10 14:30:31  5-MIN KDBQ 022030Z 23016G20KT 10SM SCT037 SCT075 27/19 A2979 1200 64 2900 230/16G20 RMK AO2
94908KDBQ DBQ20100902143510309/02/10 14:35:31  5-MIN KDBQ 022035Z 24017G22KT 10SM FEW035 27/19 A2978 1210 60 2900 240/17G22 RMK AO2
94908KDBQ DBQ20100902144011009/02/10 14:40:31  5-MIN KDBQ 022040Z 26014G22KT 10SM FEW035 SCT080 27/18 A2978 1210 60 2900 250/14G22 RMK AO2
94908KDBQ DBQ20100902144511009/02/10 14:45:31  5-MIN KDBQ 022045Z 26012G21KT 10SM FEW035 SCT080 26/18 A2978 1210 62 2800 260/12G21 RMK AO2
94908KDBQ DBQ20100902145012609/02/10 14:50:31  5-MIN KDBQ 022050Z 25014G21KT 10SM FEW033 26/18 A2978 1210 62 2800 250/14G21 RMK AO2 SLP077 T02610183 56020
94908KDBQ DBQ20100902145509409/02/10 14:55:31  5-MIN KDBQ 022055Z 24011KT 10SM CLR 26/18 A2977 1210 62 2800 240/11 RMK AO2
94908KDBQ DBQ20100902150009409/02/10 15:00:31  5-MIN KDBQ 022100Z 25014KT 10SM CLR 26/18 A2978 1210 62 2800 250/14 RMK AO2
94908KDBQ DBQ20100902150509709/02/10 15:05:31  5-MIN KDBQ 022105Z 24015KT 10SM FEW065 27/18 A2978 1210 60 2900 240/15 RMK AO2
94908KDBQ DBQ20100902151009709/02/10 15:10:31  5-MIN KDBQ 022110Z 25012KT 10SM FEW065 26/19 A2978 1210 64 2800 250/12 RMK AO2
94908KDBQ DBQ20100902151509409/02/10 15:15:31  5-MIN KDBQ 022115Z 25012KT 10SM CLR 26/18 A2977 1220 64 2800 250/12 RMK AO2
94908KDBQ DBQ20100902152010009/02/10 15:20:31  5-MIN KDBQ 022120Z 25014G19KT 10SM CLR 25/18 A2977 1220 64 2700 250/14G19 RMK AO2
94908KDBQ DBQ20100902152509409/02/10 15:25:31  5-MIN KDBQ 022125Z 25014KT 10SM CLR 25/18 A2978 1210 64 2700 250/14 RMK AO2
94908KDBQ DBQ20100902153010009/02/10 15:30:31  5-MIN KDBQ 022130Z 25014G19KT 10SM CLR 25/18 A2978 1210 64 2700 250/14G19 RMK AO2
94908KDBQ DBQ20100902153510009/02/10 15:35:31  5-MIN KDBQ 022135Z 25014G19KT 10SM CLR 25/17 A2978 1200 61 2700 250/14G19 RMK AO2
94908KDBQ DBQ20100902154010409/02/10 15:40:31  5-MIN KDBQ 022140Z 26013KT 10SM FEW055 SCT070 24/18 A2979 1190 66 2600 260/13 RMK AO2
94908KDBQ DBQ20100902154510309/02/10 15:45:31  5-MIN KDBQ 022145Z 26015G22KT 10SM BKN065 24/17 A2980 1190 63 2600 260/15G22 RMK AO2
94908KDBQ DBQ20100902155013809/02/10 15:50:31  5-MIN KDBQ 022150Z 27014G22KT 10SM SCT060 BKN070 24/18 A2980 1190 66 2600 270/14G22 RMK AO2 LTG DSNT N SLP086 T02440178
94908KDBQ DBQ20100902155512109/02/10 15:55:31  5-MIN KDBQ 022155Z 27017G23KT 10SM BKN060 BKN070 24/17 A2980 1190 66 2500 270/17G23 RMK AO2 LTG DSNT N
94908KDBQ DBQ20100902160012109/02/10 16:00:31  5-MIN KDBQ 022200Z 27016G24KT 10SM BKN050 OVC070 23/17 A2980 1190 68 2500 270/16G24 RMK AO2 LTG DSNT N
94908KDBQ DBQ20100902160512109/02/10 16:05:31  5-MIN KDBQ 022205Z 27016G24KT 10SM BKN049 OVC060 23/18 A2980 1190 70 2500 270/16G24 RMK AO2 LTG DSNT N
94908KDBQ DBQ20100902161012109/02/10 16:10:31  5-MIN KDBQ 022210Z 27018G23KT 10SM BKN049 OVC065 23/18 A2980 1190 73 2400 270/18G23 RMK AO2 LTG DSNT N
94908KDBQ DBQ20100902161511409/02/10 16:15:31  5-MIN KDBQ 022215Z 28015G25KT 10SM OVC049 23/18 A2980 1190 73 2400 280/15G25 RMK AO2 LTG DSNT N
94908KDBQ DBQ20100902162011409/02/10 16:20:31  5-MIN KDBQ 022220Z 27014G25KT 10SM OVC047 23/18 A2980 1190 73 2400 270/14G25 RMK AO2 LTG DSNT N
94908KDBQ DBQ20100902162512209/02/10 16:25:31  5-MIN KDBQ 022225Z 28016G20KT 10SM FEW023 OVC047 22/18 A2981 1180 75 2300 280/16G20 RMK AO2 LTG DSNT NE
94908KDBQ DBQ20100902163012209/02/10 16:30:31  5-MIN KDBQ 022230Z 29012G22KT 10SM FEW023 OVC047 22/18 A2981 1180 75 2300 290/12G22 RMK AO2 LTG DSNT NE
94908KDBQ DBQ20100902163512909/02/10 16:35:31  5-MIN KDBQ 022235Z 29013G22KT 10SM FEW023 BKN045 OVC055 22/18 A2981 1180 81 2300 290/13G22 RMK AO2 LTG DSNT NE
94908KDBQ DBQ20100902164012909/02/10 16:40:31  5-MIN KDBQ 022240Z 29013G21KT 10SM FEW023 BKN047 OVC060 22/18 A2982 1180 81 2300 290/13G21 RMK AO2 LTG DSNT NE
94908KDBQ DBQ20100902164511709/02/10 16:45:31  5-MIN KDBQ 022245Z 29013G20KT 10SM FEW016 SCT047 OVC055 21/18 A2982 1170 84 2200 290/13G20 RMK AO2
94908KDBQ DBQ20100902165013409/02/10 16:50:31  5-MIN KDBQ 022250Z 30014G20KT 10SM FEW016 SCT050 OVC060 21/18 A2981 1180 84 2200 300/14G20 RMK AO2 SLP091 T02110183
94908KDBQ DBQ20100902165511009/02/10 16:55:31  5-MIN KDBQ 022255Z 30015G21KT 10SM FEW025 OVC060 21/18 A2982 1170 84 2100 300/15G21 RMK AO2
94908KDBQ DBQ20100902170010309/02/10 17:00:31  5-MIN KDBQ 022300Z 30011G21KT 10SM OVC060 20/17 A2982 1170 84 2100 300/11G21 RMK AO2
94908KDBQ DBQ20100902170511909/02/10 17:05:31  5-MIN KDBQ 022305Z 30012G20KT 10SM -RA OVC055 20/18 A2982 1170 87 2100 300/12G20 RMK AO2 RAB02 P0000
94908KDBQ DBQ20100902171011309/02/10 17:10:31  5-MIN KDBQ 022310Z 30010KT 10SM -RA OVC055 19/18 A2982 1170 90 2000 300/10 RMK AO2 RAB02 P0000
94908KDBQ DBQ20100902171513209/02/10 17:15:31  5-MIN KDBQ 022315Z 30011KT 10SM -RA FEW024 OVC060 19/18 A2982 1170 90 2000 300/11 RMK AO2 LTG DSNT SW RAB02 P0000
94908KDBQ DBQ20100902172014009/02/10 17:20:31  5-MIN KDBQ 022320Z 29010KT 6SM RA BR SCT024 SCT050 OVC060 19/18 A2982 1170 90 2000 290/10 RMK AO2 LTG DSNT SW RAB02 P0001
94908KDBQ DBQ20100902172514009/02/10 17:25:31  5-MIN KDBQ 022325Z 28009KT 5SM RA BR SCT024 BKN055 OVC070 19/18 A2983 1170 90 2000 280/09 RMK AO2 LTG DSNT SW RAB02 P0003
94908KDBQ DBQ20100902173014009/02/10 17:30:31  5-MIN KDBQ 022330Z 29009KT 6SM -RA BR FEW024 BKN055 OVC110 19/18 A2982 1170 90 2000 280/09 RMK AO2 LTG DSNT S RAB02 P0003
94908KDBQ DBQ20100902173513809/02/10 17:35:31  5-MIN KDBQ 022335Z 29005KT 10SM -RA SCT035 BKN055 BKN075 19/18 A2981 1180 90 2000 290/05 RMK AO2 LTG DSNT S RAB02 P0003
94908KDBQ DBQ20100902174013809/02/10 17:40:31  5-MIN KDBQ 022340Z 28005KT 10SM -RA SCT044 BKN075 BKN100 19/17 A2981 1180 90 1900 280/05 RMK AO2 LTG DSNT S RAB02 P0003
94908KDBQ DBQ20100902174513809/02/10 17:45:31  5-MIN KDBQ 022345Z 28006KT 10SM -RA BKN060 BKN075 BKN100 19/17 A2982 1180 90 1900 280/06 RMK AO2 LTG DSNT S RAB02 P0004
94908KDBQ DBQ20100902175017909/02/10 17:50:31  5-MIN KDBQ 022350Z 28006KT 10SM -RA FEW050 BKN070 BKN080 19/17 A2982 1170 90 1900 280/06 RMK AO2 LTG DSNT S RAB02 SLP093 P0004 60004 T01890172 10272 20189 58013
94908KDBQ DBQ20100902175513209/02/10 17:55:31  5-MIN KDBQ 022355Z 28007KT 9SM -RA FEW048 BKN060 BKN100 19/17 A2982 1170 90 1900 280/07 RMK AO2 LTG DSNT SE P0000
94908KDBQ DBQ20100902180013209/02/10 18:00:31  5-MIN KDBQ 030000Z 28006KT 9SM -RA FEW012 BKN065 BKN100 19/18 A2982 1170 93 1900 280/06 RMK AO2 LTG DSNT SE P0000
94908KDBQ DBQ20100902180513509/02/10 18:05:31  5-MIN KDBQ 030005Z 29008KT 10SM BKN015 BKN070 OVC100 19/18 A2982 1170 93 1900 280/08 RMK AO2 LTG DSNT SE RAE03 P0000
94908KDBQ DBQ20100902181013409/02/10 18:10:31  5-MIN KDBQ 030010Z 28009KT 10SM BKN013 BKN026 OVC100 19/18 A2982 1170 93 1900 280/09 RMK AO2 LTG DSNT E RAE03 P0000
94908KDBQ DBQ20100902181514009/02/10 18:15:31  5-MIN KDBQ 030015Z 29010G16KT 10SM BKN013 BKN026 OVC100 19/18 A2983 1160 93 1900 280/10G16 RMK AO2 LTG DSNT E RAE03 P0000
94908KDBQ DBQ20100902182014009/02/10 18:20:31  5-MIN KDBQ 030020Z 29010G16KT 10SM BKN013 BKN026 OVC100 19/18 A2982 1170 93 1900 290/10G16 RMK AO2 LTG DSNT E RAE03 P0000
94908KDBQ DBQ20100902182512909/02/10 18:25:31  5-MIN KDBQ 030025Z 30010G16KT 10SM BKN013 BKN026 OVC100 19/17 A2983 1170 90 1900 300/10G16 RMK AO2 RAE03 P0000
94908KDBQ DBQ20100902183012309/02/10 18:30:31  5-MIN KDBQ 030030Z 30010KT 10SM BKN013 BKN026 OVC100 19/16 A2982 1170 84 1900 300/10 RMK AO2 RAE03 P0000
94908KDBQ DBQ20100902183511609/02/10 18:35:31  5-MIN KDBQ 030035Z 31008KT 10SM FEW013 OVC120 19/16 A2981 1180 81 1900 310/08 RMK AO2 RAE03 P0000
94908KDBQ DBQ20100902184011509/02/10 18:40:31  5-MIN KDBQ 030040Z 31008G16KT 10SM OVC120 18/16 A2981 1180 84 1900 310/08G16 RMK AO2 RAE03 P0000
94908KDBQ DBQ20100902184510909/02/10 18:45:31  5-MIN KDBQ 030045Z 31007KT 10SM OVC120 18/15 A2981 1180 81 1900 300/07 RMK AO2 RAE03 P0000
94908KDBQ DBQ20100902185013309/02/10 18:50:31  5-MIN KDBQ 030050Z 31008KT 10SM FEW070 OVC120 18/15 A2981 1180 81 1900 310/08 RMK AO2 RAE03 SLP091 P0000 T01830150
94908KDBQ DBQ20100902185510909/02/10 18:55:31  5-MIN KDBQ 030055Z AUTO 29007KT 10SM FEW070 OVC120 18/16 A2982 1170 84 1900 290/07 RMK AO2
94908KDBQ DBQ20100902190010909/02/10 19:00:31  5-MIN KDBQ 030100Z AUTO 27007KT 10SM BKN120 18/16 A2983 1160 87 1900 270/07 RMK AO2 PRESRR
94908KDBQ DBQ20100902190510209/02/10 19:05:31  5-MIN KDBQ 030105Z AUTO 28011KT 10SM BKN120 18/17 A2983 1160 90 1900 280/11 RMK AO2
94908KDBQ DBQ20100902191010209/02/10 19:10:31  5-MIN KDBQ 030110Z AUTO 29011KT 10SM BKN120 18/16 A2983 1160 84 1900 290/11 RMK AO2
94908KDBQ DBQ20100902191510209/02/10 19:15:31  5-MIN KDBQ 030115Z AUTO 30008KT 10SM SCT120 18/16 A2984 1160 90 1800 290/08 RMK AO2
94908KDBQ DBQ20100902192010209/02/10 19:20:31  5-MIN KDBQ 030120Z AUTO 28008KT 10SM SCT120 18/16 A2984 1160 90 1800 280/08 RMK AO2
94908KDBQ DBQ20100902192510209/02/10 19:25:31  5-MIN KDBQ 030125Z AUTO 28009KT 10SM FEW120 18/16 A2984 1150 90 1800 280/09 RMK AO2
94908KDBQ DBQ20100902193010809/02/10 19:30:31  5-MIN KDBQ 030130Z AUTO 29010G17KT 10SM FEW120 18/16 A2984 1150 87 1800 290/10G17 RMK AO2
94908KDBQ DBQ20100902193509909/02/10 19:35:31  5-MIN KDBQ 030135Z AUTO 29012KT 10SM CLR 18/15 A2984 1150 83 1800 290/12 RMK AO2
94908KDBQ DBQ20100902194009909/02/10 19:40:31  5-MIN KDBQ 030140Z AUTO 29009KT 10SM CLR 18/15 A2984 1150 83 1800 290/09 RMK AO2
94908KDBQ DBQ20100902194509909/02/10 19:45:31  5-MIN KDBQ 030145Z AUTO 28006KT 10SM CLR 17/16 A2985 1140 90 1700 280/06 RMK AO2
94908KDBQ DBQ20100902195011609/02/10 19:50:31  5-MIN KDBQ 030150Z AUTO 28006KT 10SM CLR 17/16 A2985 1140 90 1700 280/06 RMK AO2 SLP104 T01720156
94908KDBQ DBQ20100902195509909/02/10 19:55:31  5-MIN KDBQ 030155Z AUTO 27008KT 10SM CLR 17/16 A2986 1140 90 1700 270/08 RMK AO2
94908KDBQ DBQ20100902200009909/02/10 20:00:31  5-MIN KDBQ 030200Z AUTO 28010KT 10SM CLR 17/16 A2986 1140 90 1700 280/10 RMK AO2
94908KDBQ DBQ20100902200509909/02/10 20:05:31  5-MIN KDBQ 030205Z AUTO 28009KT 10SM CLR 17/15 A2986 1140 87 1700 280/09 RMK AO2
94908KDBQ DBQ20100902201009909/02/10 20:10:31  5-MIN KDBQ 030210Z AUTO 27007KT 10SM CLR 17/16 A2986 1140 90 1700 270/07 RMK AO2
94908KDBQ DBQ20100902201509909/02/10 20:15:31  5-MIN KDBQ 030215Z AUTO 27009KT 10SM CLR 17/16 A2986 1130 90 1700 270/09 RMK AO2
94908KDBQ DBQ20100902202009909/02/10 20:20:31  5-MIN KDBQ 030220Z AUTO 27009KT 10SM CLR 17/16 A2986 1130 93 1600 270/09 RMK AO2
94908KDBQ DBQ20100902202509909/02/10 20:25:31  5-MIN KDBQ 030225Z AUTO 27009KT 10SM CLR 17/16 A2986 1130 93 1600 270/09 RMK AO2
94908KDBQ DBQ20100902203009909/02/10 20:30:31  5-MIN KDBQ 030230Z AUTO 27011KT 10SM CLR 17/16 A2986 1130 93 1600 270/11 RMK AO2
94908KDBQ DBQ20100902203509909/02/10 20:35:31  5-MIN KDBQ 030235Z AUTO 27010KT 10SM CLR 17/15 A2986 1130 90 1600 270/10 RMK AO2
94908KDBQ DBQ20100902204009909/02/10 20:40:31  5-MIN KDBQ 030240Z AUTO 27009KT 10SM CLR 17/15 A2986 1140 90 1600 270/09 RMK AO2
94908KDBQ DBQ20100902204509909/02/10 20:45:31  5-MIN KDBQ 030245Z AUTO 27010KT 10SM CLR 17/15 A2986 1140 90 1600 270/10 RMK AO2
94908KDBQ DBQ20100902205012809/02/10 20:50:31  5-MIN KDBQ 030250Z AUTO 28009KT 10SM CLR 17/15 A2986 1140 90 1600 280/09 RMK AO2 SLP106 60000 T01670150 51015
94908KDBQ DBQ20100902205509909/02/10 20:55:31  5-MIN KDBQ 030255Z AUTO 28011KT 10SM CLR 17/15 A2986 1140 90 1600 280/11 RMK AO2
94908KDBQ DBQ20100902210009909/02/10 21:00:31  5-MIN KDBQ 030300Z AUTO 28010KT 10SM CLR 17/15 A2985 1140 90 1600 280/10 RMK AO2
94908KDBQ DBQ20100902210509909/02/10 21:05:31  5-MIN KDBQ 030305Z AUTO 28010KT 10SM CLR 16/15 A2985 1140 93 1600 280/10 RMK AO2
94908KDBQ DBQ20100902211009909/02/10 21:10:31  5-MIN KDBQ 030310Z AUTO 27011KT 10SM CLR 16/15 A2985 1140 93 1600 270/11 RMK AO2
94908KDBQ DBQ20100902211509909/02/10 21:15:31  5-MIN KDBQ 030315Z AUTO 28011KT 10SM CLR 16/15 A2985 1140 93 1600 280/11 RMK AO2
94908KDBQ DBQ20100902212009909/02/10 21:20:31  5-MIN KDBQ 030320Z AUTO 27011KT 10SM CLR 16/15 A2985 1140 93 1600 270/11 RMK AO2
94908KDBQ DBQ20100902212509909/02/10 21:25:31  5-MIN KDBQ 030325Z AUTO 27009KT 10SM CLR 16/15 A2985 1140 93 1600 270/09 RMK AO2
94908KDBQ DBQ20100903040509909/03/10 04:05:31  5-MIN KDBQ 031005Z AUTO 28009KT 10SM CLR 12/11 A2987 1130 93 1100 270/09 RMK AO2
94908KDBQ DBQ20100903041009909/03/10 04:10:31  5-MIN KDBQ 031010Z AUTO 28009KT 10SM CLR 12/11 A2987 1130 93 1100 280/09 RMK AO2
94908KDBQ DBQ20100903041510509/03/10 04:15:31  5-MIN KDBQ 031015Z AUTO 28010G18KT 10SM CLR 12/11 A2987 1130 93 1100 280/10G18 RMK AO2
94908KDBQ DBQ20100903042010509/03/10 04:20:31  5-MIN KDBQ 031020Z AUTO 28010G18KT 10SM CLR 12/11 A2987 1130 93 1100 280/10G18 RMK AO2
94908KDBQ DBQ20100903042509909/03/10 04:25:31  5-MIN KDBQ 031025Z AUTO 27009KT 10SM CLR 12/11 A2987 1130 93 1100 270/09 RMK AO2
94908KDBQ DBQ20100903043009909/03/10 04:30:31  5-MIN KDBQ 031030Z AUTO 27009KT 10SM CLR 12/11 A2987 1130 93 1100 270/09 RMK AO2
94908KDBQ DBQ20100903043509909/03/10 04:35:31  5-MIN KDBQ 031035Z AUTO 28009KT 10SM CLR 12/11 A2987 1130 93 1100 270/09 RMK AO2
94908KDBQ DBQ20100903044009909/03/10 04:40:31  5-MIN KDBQ 031040Z AUTO 28011KT 10SM CLR 12/11 A2987 1130 89 1100 270/11 RMK AO2
94908KDBQ DBQ20100903044509909/03/10 04:45:31  5-MIN KDBQ 031045Z AUTO 28008KT 10SM CLR 12/11 A2987 1130 89 1100 280/08 RMK AO2
94908KDBQ DBQ20100903045011109/03/10 04:50:31  5-MIN KDBQ 031050Z 28011KT 10SM CLR 12/11 A2987 1130 89 1100 280/11 RMK AO2 SLP112 T01220106
94908KDBQ DBQ20100903045510009/03/10 04:55:31  5-MIN KDBQ 031055Z 28012G17KT 10SM CLR 13/11 A2987 1130 86 1200 280/12G17 RMK AO2
94908KDBQ DBQ20100903050010009/03/10 05:00:31  5-MIN KDBQ 031100Z 28009G17KT 10SM CLR 12/11 A2987 1130 89 1100 280/09G17 RMK AO2
94908KDBQ DBQ20100903050509409/03/10 05:05:31  5-MIN KDBQ 031105Z 28010KT 10SM CLR 12/11 A2987 1130 89 1100 280/10 RMK AO2
94908KDBQ DBQ20100903051009409/03/10 05:10:31  5-MIN KDBQ 031110Z 28010KT 10SM CLR 12/11 A2987 1130 89 1100 280/10 RMK AO2
94908KDBQ DBQ20100903051509409/03/10 05:15:31  5-MIN KDBQ 031115Z 27009KT 10SM CLR 12/11 A2987 1130 89 1100 270/09 RMK AO2
94908KDBQ DBQ20100903052009409/03/10 05:20:31  5-MIN KDBQ 031120Z 27009KT 10SM CLR 12/11 A2987 1130 89 1100 270/09 RMK AO2
94908KDBQ DBQ20100903052509409/03/10 05:25:31  5-MIN KDBQ 031125Z 27010KT 10SM CLR 12/11 A2987 1130 89 1100 270/10 RMK AO2
94908KDBQ DBQ20100903053009409/03/10 05:30:31  5-MIN KDBQ 031130Z 27010KT 10SM CLR 12/11 A2987 1120 89 1100 270/10 RMK AO2
94908KDBQ DBQ20100903053509409/03/10 05:35:31  5-MIN KDBQ 031135Z 28010KT 10SM CLR 12/11 A2987 1120 89 1100 280/10 RMK AO2
94908KDBQ DBQ20100903054010009/03/10 05:40:31  5-MIN KDBQ 031140Z 28008G16KT 10SM CLR 12/11 A2987 1120 89 1100 280/08G16 RMK AO2
94908KDBQ DBQ20100903054509409/03/10 05:45:31  5-MIN KDBQ 031145Z 27010KT 10SM CLR 12/11 A2987 1120 89 1100 270/10 RMK AO2
94908KDBQ DBQ20100903055014109/03/10 05:50:31  5-MIN KDBQ 031150Z 28009G17KT 10SM CLR 12/11 A2987 1120 89 1100 280/09G17 RMK AO2 SLP114 70004 T01220106 10150 20122 58000
94908KDBQ DBQ20100903055509409/03/10 05:55:31  5-MIN KDBQ 031155Z 27010KT 10SM CLR 12/11 A2987 1120 89 1100 270/10 RMK AO2
94908KDBQ DBQ20100903060009409/03/10 06:00:31  5-MIN KDBQ 031200Z 27012KT 10SM CLR 12/11 A2988 1120 89 1100 270/12 RMK AO2
94908KDBQ DBQ20100903060509409/03/10 06:05:31  5-MIN KDBQ 031205Z 27011KT 10SM CLR 12/11 A2988 1120 89 1100 270/11 RMK AO2
94908KDBQ DBQ20100903061009409/03/10 06:10:31  5-MIN KDBQ 031210Z 27012KT 10SM CLR 12/11 A2988 1120 89 1100 270/12 RMK AO2
94908KDBQ DBQ20100903061510009/03/10 06:15:31  5-MIN KDBQ 031215Z 27012G21KT 10SM CLR 13/11 A2988 1120 86 1200 270/12G21 RMK AO2
94908KDBQ DBQ20100903062010009/03/10 06:20:31  5-MIN KDBQ 031220Z 27015G21KT 10SM CLR 13/11 A2988 1120 86 1200 270/15G21 RMK AO2
94908KDBQ DBQ20100903062510009/03/10 06:25:31  5-MIN KDBQ 031225Z 28014G20KT 10SM CLR 13/11 A2988 1120 86 1200 280/14G20 RMK AO2
94908KDBQ DBQ20100903063010009/03/10 06:30:31  5-MIN KDBQ 031230Z 28014G20KT 10SM CLR 13/11 A2988 1120 86 1200 280/14G20 RMK AO2
94908KDBQ DBQ20100903063510009/03/10 06:35:31  5-MIN KDBQ 031235Z 28013G20KT 10SM CLR 13/11 A2988 1120 86 1200 280/13G20 RMK AO2
94908KDBQ DBQ20100903064010009/03/10 06:40:31  5-MIN KDBQ 031240Z 28011G20KT 10SM CLR 13/11 A2988 1110 83 1200 280/11G20 RMK AO2
94908KDBQ DBQ20100903064510009/03/10 06:45:31  5-MIN KDBQ 031245Z 28010G18KT 10SM CLR 13/11 A2988 1110 83 1200 280/10G18 RMK AO2
94908KDBQ DBQ20100903065011709/03/10 06:50:31  5-MIN KDBQ 031250Z 28012G17KT 10SM CLR 13/11 A2988 1110 83 1200 280/12G17 RMK AO2 SLP118 T01330106
94908KDBQ DBQ20100903065510009/03/10 06:55:31  5-MIN KDBQ 031255Z 28012G20KT 10SM CLR 13/11 A2988 1110 83 1200 280/12G20 RMK AO2
94908KDBQ DBQ20100903070010009/03/10 07:00:31  5-MIN KDBQ 031300Z 29012G20KT 10SM CLR 13/11 A2988 1110 83 1200 290/12G20 RMK AO2
94908KDBQ DBQ20100903070510309/03/10 07:05:31  5-MIN KDBQ 031305Z 29014G19KT 10SM FEW021 13/11 A2989 1110 83 1200 290/14G19 RMK AO2
94908KDBQ DBQ20100903071010309/03/10 07:10:31  5-MIN KDBQ 031310Z 29012G20KT 10SM SCT021 13/11 A2989 1110 83 1200 290/12G20 RMK AO2
94908KDBQ DBQ20100903071510309/03/10 07:15:31  5-MIN KDBQ 031315Z 29014G20KT 10SM SCT021 13/11 A2989 1110 83 1200 290/14G20 RMK AO2
94908KDBQ DBQ20100903072010309/03/10 07:20:31  5-MIN KDBQ 031320Z 29012G20KT 10SM BKN021 13/11 A2989 1110 83 1200 290/12G20 RMK AO2
94908KDBQ DBQ20100903072510309/03/10 07:25:31  5-MIN KDBQ 031325Z 29016G25KT 10SM BKN021 14/11 A2989 1110 80 1300 280/16G25 RMK AO2
94908KDBQ DBQ20100903073010309/03/10 07:30:31  5-MIN KDBQ 031330Z 29016G25KT 10SM OVC021 14/11 A2988 1110 80 1300 290/16G25 RMK AO2
94908KDBQ DBQ20100903073510309/03/10 07:35:31  5-MIN KDBQ 031335Z 29017G24KT 10SM OVC021 14/11 A2988 1110 80 1300 290/17G24 RMK AO2
94908KDBQ DBQ20100903074010309/03/10 07:40:31  5-MIN KDBQ 031340Z 29015G24KT 10SM OVC021 14/11 A2988 1110 80 1300 290/15G24 RMK AO2
94908KDBQ DBQ20100903074510309/03/10 07:45:31  5-MIN KDBQ 031345Z 30015G23KT 10SM BKN021 14/11 A2988 1120 80 1300 300/15G23 RMK AO2
94908KDBQ DBQ20100903075013809/03/10 07:50:31  5-MIN KDBQ 031350Z 29017G26KT 10SM BKN021 14/11 A2988 1120 80 1300 290/17G26 RMK AO2 PK WND 29026/1350 SLP116 T01390106
94908KDBQ DBQ20100903075510309/03/10 07:55:31  5-MIN KDBQ 031355Z 30020G26KT 10SM OVC023 14/10 A2988 1120 77 1300 300/20G26 RMK AO2
94908KDBQ DBQ20100903080011009/03/10 08:00:31  5-MIN KDBQ 031400Z 29016G25KT 10SM BKN021 OVC026 14/10 A2988 1120 77 1300 290/16G25 RMK AO2
94908KDBQ DBQ20100903080512109/03/10 08:05:31  5-MIN KDBQ 031405Z 29019G26KT 10SM BKN023 14/10 A2987 1120 74 1400 290/19G26 RMK AO2 PK WND 29026/1405
94908KDBQ DBQ20100903081012109/03/10 08:10:31  5-MIN KDBQ 031410Z 29018G27KT 10SM BKN023 14/10 A2988 1120 74 1400 290/18G27 RMK AO2 PK WND 29027/1407
94908KDBQ DBQ20100903081512109/03/10 08:15:31  5-MIN KDBQ 031415Z 30018G27KT 10SM BKN023 15/11 A2987 1120 74 1400 290/18G27 RMK AO2 PK WND 29027/1407
94908KDBQ DBQ20100903082012109/03/10 08:20:31  5-MIN KDBQ 031420Z 29016G27KT 10SM BKN023 15/10 A2987 1120 72 1400 290/16G27 RMK AO2 PK WND 30027/1416
94908KDBQ DBQ20100903082512109/03/10 08:25:31  5-MIN KDBQ 031425Z 29020G28KT 10SM BKN023 14/10 A2988 1120 74 1400 290/20G28 RMK AO2 PK WND 28028/1424
94908KDBQ DBQ20100903083012109/03/10 08:30:31  5-MIN KDBQ 031430Z 30017G28KT 10SM BKN023 15/10 A2988 1120 72 1400 300/17G28 RMK AO2 PK WND 28028/1424
94908KDBQ DBQ20100903083512109/03/10 08:35:31  5-MIN KDBQ 031435Z 29019G27KT 10SM SCT023 15/10 A2988 1120 72 1400 290/19G27 RMK AO2 PK WND 28028/1424
94908KDBQ DBQ20100903084012109/03/10 08:40:31  5-MIN KDBQ 031440Z 29021G29KT 10SM SCT023 15/10 A2988 1120 72 1400 290/21G29 RMK AO2 PK WND 30029/1440
94908KDBQ DBQ20100903084512109/03/10 08:45:31  5-MIN KDBQ 031445Z 30019G29KT 10SM SCT023 15/10 A2988 1120 72 1400 290/19G29 RMK AO2 PK WND 28029/1441
94908KDBQ DBQ20100903085014409/03/10 08:50:31  5-MIN KDBQ 031450Z 29015G29KT 10SM SCT023 15/10 A2987 1120 72 1400 290/15G29 RMK AO2 PK WND 28029/1441 SLP115 T01500100 53003
94908KDBQ DBQ20100903085512109/03/10 08:55:31  5-MIN KDBQ 031455Z 29020G28KT 10SM BKN023 16/11 A2988 1120 72 1500 290/20G28 RMK AO2 PK WND 28026/1455
94908KDBQ DBQ20100903090012109/03/10 09:00:31  5-MIN KDBQ 031500Z 28019G27KT 10SM BKN023 16/10 A2988 1120 69 1500 280/19G27 RMK AO2 PK WND 29027/1456
94908KDBQ DBQ20100903090512109/03/10 09:05:31  5-MIN KDBQ 031505Z 29014G27KT 10SM BKN023 16/10 A2988 1120 69 1500 290/14G27 RMK AO2 PK WND 29027/1456
94908KDBQ DBQ20100903091012109/03/10 09:10:31  5-MIN KDBQ 031510Z 30018G26KT 10SM BKN023 16/10 A2988 1120 67 1500 300/18G26 RMK AO2 PK WND 29027/1456
94908KDBQ DBQ20100903091512109/03/10 09:15:31  5-MIN KDBQ 031515Z 28018G26KT 10SM BKN023 16/10 A2988 1120 67 1500 280/18G26 RMK AO2 PK WND 29027/1456
94908KDBQ DBQ20100903092012109/03/10 09:20:31  5-MIN KDBQ 031520Z 30020G28KT 10SM BKN023 16/10 A2988 1120 67 1500 300/20G28 RMK AO2 PK WND 31028/1519
94908KDBQ DBQ20100903092512109/03/10 09:25:31  5-MIN KDBQ 031525Z 30019G28KT 10SM BKN023 16/09 A2988 1120 64 1500 300/19G28 RMK AO2 PK WND 31028/1519
94908KDBQ DBQ20100903093012109/03/10 09:30:31  5-MIN KDBQ 031530Z 30013G26KT 10SM BKN023 16/10 A2988 1120 67 1500 300/13G26 RMK AO2 PK WND 31028/1519
94908KDBQ DBQ20100903093512109/03/10 09:35:31  5-MIN KDBQ 031535Z 30020G25KT 10SM BKN023 17/10 A2988 1120 64 1600 290/20G25 RMK AO2 PK WND 31028/1519
94908KDBQ DBQ20100903094012109/03/10 09:40:31  5-MIN KDBQ 031540Z 30019G26KT 10SM BKN023 16/09 A2988 1120 64 1500 300/19G26 RMK AO2 PK WND 31028/1519
94908KDBQ DBQ20100903094512109/03/10 09:45:31  5-MIN KDBQ 031545Z 28017G26KT 10SM BKN023 16/10 A2988 1120 67 1500 280/17G26 RMK AO2 PK WND 31028/1519
94908KDBQ DBQ20100903095012809/03/10 09:50:31  5-MIN KDBQ 031550Z 30017G25KT 10SM BKN030 BKN035 17/10 A2988 1120 64 1600 290/17G25 RMK AO2 PK WND 31028/1519
94908KDBQ DBQ20100903095511009/03/10 09:55:31  5-MIN KDBQ 031555Z 30017G24KT 10SM SCT030 SCT035 17/10 A2988 1120 64 1600 300/17G24 RMK AO2
94908KDBQ DBQ20100903100012109/03/10 10:00:31  5-MIN KDBQ 031600Z 30019G26KT 10SM SCT032 17/10 A2988 1120 62 1700 300/19G26 RMK AO2 PK WND 29026/1559
94908KDBQ DBQ20100903100512109/03/10 10:05:31  5-MIN KDBQ 031605Z 28018G26KT 10SM BKN032 17/09 A2988 1120 62 1600 280/18G26 RMK AO2 PK WND 29026/1559
94908KDBQ DBQ20100903101012109/03/10 10:10:31  5-MIN KDBQ 031610Z 29020G28KT 10SM BKN032 17/09 A2988 1120 60 1700 290/20G28 RMK AO2 PK WND 29028/1609
94908KDBQ DBQ20100903101512109/03/10 10:15:31  5-MIN KDBQ 031615Z 28022G28KT 10SM SCT034 17/09 A2987 1120 60 1700 280/22G28 RMK AO2 PK WND 29028/1609
94908KDBQ DBQ20100903102012109/03/10 10:20:31  5-MIN KDBQ 031620Z 28017G27KT 10SM FEW036 17/10 A2988 1120 62 1700 280/17G27 RMK AO2 PK WND 29028/1609
94908KDBQ DBQ20100903102512109/03/10 10:25:31  5-MIN KDBQ 031625Z 28019G29KT 10SM FEW036 17/09 A2987 1120 60 1700 280/19G29 RMK AO2 PK WND 29029/1624
94908KDBQ DBQ20100903103012809/03/10 10:30:31  5-MIN KDBQ 031630Z 29019G34KT 10SM FEW034 SCT041 18/09 A2987 1120 58 1700 290/19G34 RMK AO2 PK WND 30034/1626
94908KDBQ DBQ20100903103512109/03/10 10:35:31  5-MIN KDBQ 031635Z 29021G34KT 10SM SCT038 17/09 A2987 1120 60 1700 290/21G34 RMK AO2 PK WND 30034/1626
94908KDBQ DBQ20100903104012109/03/10 10:40:31  5-MIN KDBQ 031640Z 30019G28KT 10SM SCT040 18/09 A2988 1120 58 1700 290/19G28 RMK AO2 PK WND 30034/1626
94908KDBQ DBQ20100903104512109/03/10 10:45:31  5-MIN KDBQ 031645Z 29017G29KT 10SM SCT040 18/10 A2988 1120 58 1800 290/17G29 RMK AO2 PK WND 30034/1626
94908KDBQ DBQ20100903105013809/03/10 10:50:31  5-MIN KDBQ 031650Z 30020G29KT 10SM SCT040 18/09 A2988 1120 58 1700 290/20G29 RMK AO2 PK WND 30034/1626 SLP115 T01780094
94908KDBQ DBQ20100903105512809/03/10 10:55:31  5-MIN KDBQ 031655Z 30020G30KT 10SM SCT040 BKN050 18/09 A2987 1120 56 1800 300/20G30 RMK AO2 PK WND 30027/1655
94908KDBQ DBQ20100903110012809/03/10 11:00:31  5-MIN KDBQ 031700Z 30016G30KT 10SM BKN040 BKN050 18/09 A2988 1120 55 1700 290/16G30 RMK AO2 PK WND 28029/1658
94908KDBQ DBQ20100903110512809/03/10 11:05:31  5-MIN KDBQ 031705Z 29018G29KT 10SM BKN042 BKN050 17/09 A2988 1120 57 1700 290/18G29 RMK AO2 PK WND 28029/1658
94908KDBQ DBQ20100903111012809/03/10 11:10:31  5-MIN KDBQ 031710Z 28019G32KT 10SM BKN044 BKN050 18/09 A2987 1120 58 1700 280/19G32 RMK AO2 PK WND 30032/1707
94908KDBQ DBQ20100903111512809/03/10 11:15:31  5-MIN KDBQ 031715Z 29025G32KT 10SM BKN042 BKN050 18/09 A2988 1120 58 1700 290/25G32 RMK AO2 PK WND 30032/1707
94908KDBQ DBQ20100903112012809/03/10 11:20:31  5-MIN KDBQ 031720Z 30016G31KT 10SM BKN044 BKN050 18/09 A2988 1120 55 1700 300/16G31 RMK AO2 PK WND 30032/1707
94908KDBQ DBQ20100903112512809/03/10 11:25:31  5-MIN KDBQ 031725Z 30020G27KT 10SM BKN044 BKN050 18/09 A2988 1120 54 1800 290/20G27 RMK AO2 PK WND 30032/1707
94908KDBQ DBQ20100903113012809/03/10 11:30:31  5-MIN KDBQ 031730Z 30020G27KT 10SM BKN044 BKN050 18/09 A2988 1120 54 1800 300/20G27 RMK AO2 PK WND 30032/1707
94908KDBQ DBQ20100903113512809/03/10 11:35:31  5-MIN KDBQ 031735Z 29019G30KT 10SM BKN042 BKN050 18/08 A2988 1120 53 1700 290/19G30 RMK AO2 PK WND 30032/1707
94908KDBQ DBQ20100903114012809/03/10 11:40:31  5-MIN KDBQ 031740Z 30021G33KT 10SM BKN044 BKN055 18/08 A2988 1120 53 1700 300/21G33 RMK AO2 PK WND 31033/1739
94908KDBQ DBQ20100903114512809/03/10 11:45:31  5-MIN KDBQ 031745Z 30022G33KT 10SM BKN044 BKN055 17/08 A2988 1120 55 1700 300/22G33 RMK AO2 PK WND 31033/1739
94908KDBQ DBQ20100903115016309/03/10 11:50:31  5-MIN KDBQ 031750Z 29020G33KT 10SM BKN044 BKN055 18/08 A2988 1120 53 1700 290/20G33 RMK AO2 PK WND 30033/1748 SLP115 T01780083 10183 20122 50001
94908KDBQ DBQ20100903115512809/03/10 11:55:31  5-MIN KDBQ 031755Z 30022G33KT 10SM BKN044 BKN055 18/08 A2988 1120 53 1700 300/22G33 RMK AO2 PK WND 30027/1754
94908KDBQ DBQ20100903120012809/03/10 12:00:31  5-MIN KDBQ 031800Z 30021G28KT 10SM BKN044 BKN055 18/08 A2988 1120 53 1700 290/21G28 RMK AO2 PK WND 30028/1759
94908KDBQ DBQ20100903120512809/03/10 12:05:31  5-MIN KDBQ 031805Z 30021G29KT 10SM SCT044 BKN055 18/08 A2988 1120 53 1700 300/21G29 RMK AO2 PK WND 29029/1801
94908KDBQ DBQ20100903121012809/03/10 12:10:31  5-MIN KDBQ 031810Z 28024G31KT 10SM BKN046 OVC055 19/09 A2988 1120 52 1900 280/24G31 RMK AO2 PK WND 28031/1807
94908KDBQ DBQ20100903121512809/03/10 12:15:31  5-MIN KDBQ 031815Z 30024G32KT 10SM SCT046 BKN055 19/08 A2988 1120 50 1900 300/24G32 RMK AO2 PK WND 29032/1812
94908KDBQ DBQ20100903122012809/03/10 12:20:31  5-MIN KDBQ 031820Z 29022G32KT 10SM FEW045 OVC055 18/08 A2987 1120 52 1800 290/22G32 RMK AO2 PK WND 29032/1812
94908KDBQ DBQ20100903122512809/03/10 12:25:31  5-MIN KDBQ 031825Z 29021G31KT 10SM FEW045 OVC055 18/08 A2987 1120 52 1800 290/21G31 RMK AO2 PK WND 29032/1812
94908KDBQ DBQ20100903123012809/03/10 12:30:31  5-MIN KDBQ 031830Z 30021G30KT 10SM BKN049 OVC060 18/08 A2988 1120 51 1700 300/21G30 RMK AO2 PK WND 29032/1812
94908KDBQ DBQ20100903123512809/03/10 12:35:31  5-MIN KDBQ 031835Z 31017G30KT 10SM BKN049 OVC060 18/08 A2988 1120 53 1700 310/17G30 RMK AO2 PK WND 29032/1812
94908KDBQ DBQ20100903124012809/03/10 12:40:31  5-MIN KDBQ 031840Z 30019G28KT 10SM BKN049 OVC060 17/08 A2988 1110 55 1700 300/19G28 RMK AO2 PK WND 29032/1812
94908KDBQ DBQ20100903124512809/03/10 12:45:31  5-MIN KDBQ 031845Z 31018G25KT 10SM BKN049 OVC060 17/08 A2988 1110 55 1700 310/18G25 RMK AO2 PK WND 29032/1812
94908KDBQ DBQ20100903125014509/03/10 12:50:31  5-MIN KDBQ 031850Z 31015G27KT 10SM FEW045 OVC055 17/08 A2989 1110 53 1700 310/15G27 RMK AO2 PK WND 29032/1812 SLP119 T01720078
94908KDBQ DBQ20100903125511009/03/10 12:55:31  5-MIN KDBQ 031855Z 32015G27KT 10SM BKN050 OVC060 17/08 A2989 1110 57 1600 320/15G27 RMK AO2
94908KDBQ DBQ20100903130011009/03/10 13:00:31  5-MIN KDBQ 031900Z 31016G25KT 10SM FEW045 OVC055 17/08 A2989 1110 57 1600 310/16G25 RMK AO2
94908KDBQ DBQ20100903130511009/03/10 13:05:31  5-MIN KDBQ 031905Z 31018G25KT 10SM FEW044 OVC055 17/08 A2989 1110 57 1600 310/18G25 RMK AO2
94908KDBQ DBQ20100903131011009/03/10 13:10:31  5-MIN KDBQ 031910Z 31021G25KT 10SM FEW044 OVC055 17/08 A2989 1110 57 1600 310/21G25 RMK AO2
94908KDBQ DBQ20100903131510309/03/10 13:15:31  5-MIN KDBQ 031915Z 31018G25KT 10SM OVC060 17/08 A2989 1110 55 1700 310/18G25 RMK AO2
94908KDBQ DBQ20100903132012109/03/10 13:20:31  5-MIN KDBQ 031920Z 30018G26KT 10SM OVC060 17/09 A2989 1110 57 1700 300/18G26 RMK AO2 PK WND 32026/1920
94908KDBQ DBQ20100903132512109/03/10 13:25:31  5-MIN KDBQ 031925Z 31019G26KT 10SM OVC060 17/09 A2989 1110 57 1700 310/19G26 RMK AO2 PK WND 32026/1920
94908KDBQ DBQ20100903133012109/03/10 13:30:31  5-MIN KDBQ 031930Z 30018G25KT 10SM OVC055 17/09 A2989 1110 57 1700 290/18G25 RMK AO2 PK WND 32026/1920
94908KDBQ DBQ20100903133512809/03/10 13:35:31  5-MIN KDBQ 031935Z 30019G25KT 10SM SCT046 OVC055 17/08 A2989 1110 57 1600 300/19G25 RMK AO2 PK WND 32026/1920
94908KDBQ DBQ20100903134012809/03/10 13:40:31  5-MIN KDBQ 031940Z 30017G27KT 10SM BKN046 OVC060 17/08 A2989 1100 57 1600 300/17G27 RMK AO2 PK WND 31027/1938
94908KDBQ DBQ20100903134512809/03/10 13:45:31  5-MIN KDBQ 031945Z 31016G27KT 10SM BKN048 OVC060 16/08 A2990 1100 59 1500 300/16G27 RMK AO2 PK WND 31027/1938
94908KDBQ DBQ20100903135014509/03/10 13:50:31  5-MIN KDBQ 031950Z 30016G25KT 10SM SCT046 OVC055 17/09 A2990 1100 60 1600 300/16G25 RMK AO2 PK WND 31027/1938 SLP123 T01670089
94908KDBQ DBQ20100903135512809/03/10 13:55:31  5-MIN KDBQ 031955Z 31021G28KT 10SM SCT046 OVC055 17/08 A2989 1100 57 1600 310/21G28 RMK AO2 PK WND 31027/1954
94908KDBQ DBQ20100903140012809/03/10 14:00:31  5-MIN KDBQ 032000Z 30019G29KT 10SM BKN046 OVC055 17/08 A2990 1100 57 1600 300/19G29 RMK AO2 PK WND 30029/1956
94908KDBQ DBQ20100903140512809/03/10 14:05:31  5-MIN KDBQ 032005Z 31018G29KT 10SM BKN047 OVC055 17/08 A2990 1100 57 1600 310/18G29 RMK AO2 PK WND 30029/1956
94908KDBQ DBQ20100903141012809/03/10 14:10:31  5-MIN KDBQ 032010Z 30023G30KT 10SM BKN045 OVC055 17/08 A2990 1100 57 1600 300/23G30 RMK AO2 PK WND 33030/2010
94908KDBQ DBQ20100903141512809/03/10 14:15:31  5-MIN KDBQ 032015Z 30021G30KT 10SM BKN045 OVC055 17/08 A2990 1100 57 1600 300/21G30 RMK AO2 PK WND 33030/2010
94908KDBQ DBQ20100903142012809/03/10 14:20:31  5-MIN KDBQ 032020Z 30019G29KT 10SM BKN045 OVC055 17/08 A2990 1100 57 1600 300/19G29 RMK AO2 PK WND 33030/2010
94908KDBQ DBQ20100903142512109/03/10 14:25:31  5-MIN KDBQ 032025Z 30022G29KT 10SM OVC043 16/08 A2990 1100 59 1500 300/22G29 RMK AO2 PK WND 33030/2010
94908KDBQ DBQ20100903143012109/03/10 14:30:31  5-MIN KDBQ 032030Z 29022G33KT 10SM OVC043 16/08 A2990 1090 59 1500 290/22G33 RMK AO2 PK WND 31033/2026
94908KDBQ DBQ20100903143512109/03/10 14:35:31  5-MIN KDBQ 032035Z 30015G33KT 10SM OVC041 16/08 A2990 1090 59 1500 300/15G33 RMK AO2 PK WND 31033/2026
94908KDBQ DBQ20100903144012109/03/10 14:40:31  5-MIN KDBQ 032040Z 30015G26KT 10SM OVC041 16/08 A2991 1090 59 1500 300/15G26 RMK AO2 PK WND 31033/2026
94908KDBQ DBQ20100903144512809/03/10 14:45:31  5-MIN KDBQ 032045Z 30016G25KT 10SM BKN041 OVC049 17/09 A2991 1090 60 1600 300/16G25 RMK AO2 PK WND 31033/2026
94908KDBQ DBQ20100903145015809/03/10 14:50:31  5-MIN KDBQ 032050Z 30020G30KT 10SM BKN039 BKN047 OVC080 17/09 A2991 1090 60 1600 300/20G30 RMK AO2 PK WND 31033/2026 SLP127 T01670089 53001
94908KDBQ DBQ20100903145513509/03/10 14:55:31  5-MIN KDBQ 032055Z 30021G30KT 10SM BKN039 BKN047 OVC065 17/09 A2991 1090 60 1600 300/21G30 RMK AO2 PK WND 29027/2055
94908KDBQ DBQ20100903150012809/03/10 15:00:31  5-MIN KDBQ 032100Z 30016G27KT 10SM BKN042 OVC060 16/08 A2991 1090 59 1500 300/16G27 RMK AO2 PK WND 30027/2058
94908KDBQ DBQ20100903150513509/03/10 15:05:31  5-MIN KDBQ 032105Z 30018G28KT 10SM BKN042 BKN048 OVC060 16/09 A2991 1090 62 1500 300/18G28 RMK AO2 PK WND 30028/2105
94908KDBQ DBQ20100903151012809/03/10 15:10:31  5-MIN KDBQ 032110Z 31022G30KT 10SM BKN042 OVC060 16/08 A2991 1090 59 1500 310/22G30 RMK AO2 PK WND 31030/2110
94908KDBQ DBQ20100903151512809/03/10 15:15:31  5-MIN KDBQ 032115Z 31020G34KT 10SM BKN040 OVC055 16/08 A2991 1090 59 1500 310/20G34 RMK AO2 PK WND 29034/2113
94908KDBQ DBQ20100903152012109/03/10 15:20:31  5-MIN KDBQ 032120Z 30020G34KT 10SM OVC040 16/08 A2991 1090 59 1500 300/20G34 RMK AO2 PK WND 29034/2113
94908KDBQ DBQ20100903152512109/03/10 15:25:31  5-MIN KDBQ 032125Z 30018G27KT 10SM OVC040 16/09 A2992 1080 62 1500 300/18G27 RMK AO2 PK WND 29034/2113
94908KDBQ DBQ20100903153012809/03/10 15:30:31  5-MIN KDBQ 032130Z 30023G28KT 10SM BKN038 OVC045 16/09 A2992 1080 62 1500 300/23G28 RMK AO2 PK WND 29034/2113
94908KDBQ DBQ20100903153512109/03/10 15:35:31  5-MIN KDBQ 032135Z 31015G30KT 10SM OVC038 16/09 A2992 1080 62 1500 310/15G30 RMK AO2 PK WND 29034/2113
94908KDBQ DBQ20100903154012109/03/10 15:40:31  5-MIN KDBQ 032140Z 31020G30KT 10SM OVC038 17/09 A2992 1080 60 1600 310/20G30 RMK AO2 PK WND 29034/2113
94908KDBQ DBQ20100903154512109/03/10 15:45:31  5-MIN KDBQ 032145Z 31020G26KT 10SM OVC038 16/09 A2992 1080 62 1500 310/20G26 RMK AO2 PK WND 29034/2113
94908KDBQ DBQ20100903155013809/03/10 15:50:31  5-MIN KDBQ 032150Z 31023G30KT 10SM OVC038 16/09 A2992 1080 62 1500 310/23G30 RMK AO2 PK WND 29034/2113 SLP131 T01610089
94908KDBQ DBQ20100903155510309/03/10 15:55:31  5-MIN KDBQ 032155Z 31019G30KT 10SM OVC038 16/09 A2992 1080 62 1500 310/19G30 RMK AO2
94908KDBQ DBQ20100903160012109/03/10 16:00:31  5-MIN KDBQ 032200Z 30021G29KT 10SM OVC038 16/09 A2992 1080 62 1500 300/21G29 RMK AO2 PK WND 31029/2159
94908KDBQ DBQ20100903160512109/03/10 16:05:31  5-MIN KDBQ 032205Z 31022G29KT 10SM OVC038 16/09 A2992 1080 64 1400 310/22G29 RMK AO2 PK WND 31029/2204
94908KDBQ DBQ20100903161012109/03/10 16:10:31  5-MIN KDBQ 032210Z 31015G29KT 10SM OVC038 16/09 A2993 1070 64 1400 310/15G29 RMK AO2 PK WND 31029/2204
94908KDBQ DBQ20100903161512109/03/10 16:15:31  5-MIN KDBQ 032215Z 31015G26KT 10SM OVC038 16/09 A2993 1070 64 1400 300/15G26 RMK AO2 PK WND 31029/2204
94908KDBQ DBQ20100903162012109/03/10 16:20:31  5-MIN KDBQ 032220Z 31014G23KT 10SM OVC038 16/09 A2993 1070 64 1400 310/14G23 RMK AO2 PK WND 31029/2204
94908KDBQ DBQ20100903162512109/03/10 16:25:31  5-MIN KDBQ 032225Z 31011G27KT 10SM OVC038 16/09 A2993 1070 64 1400 310/11G27 RMK AO2 PK WND 31029/2204
94908KDBQ DBQ20100903163012109/03/10 16:30:31  5-MIN KDBQ 032230Z 32018G27KT 10SM OVC038 16/09 A2994 1060 64 1400 320/18G27 RMK AO2 PK WND 31029/2204
94908KDBQ DBQ20100903163512109/03/10 16:35:31  5-MIN KDBQ 032235Z 31014G21KT 10SM OVC038 16/09 A2994 1060 64 1400 310/14G21 RMK AO2 PK WND 31029/2204
94908KDBQ DBQ20100903164012109/03/10 16:40:31  5-MIN KDBQ 032240Z 31016G21KT 10SM OVC040 16/09 A2993 1070 64 1400 300/16G21 RMK AO2 PK WND 31029/2204
94908KDBQ DBQ20100903164512109/03/10 16:45:31  5-MIN KDBQ 032245Z 32017G24KT 10SM OVC040 16/09 A2994 1060 64 1400 310/17G24 RMK AO2 PK WND 31029/2204
94908KDBQ DBQ20100903165014509/03/10 16:50:31  5-MIN KDBQ 032250Z 30014G24KT 10SM BKN040 OVC046 16/09 A2994 1060 64 1400 300/14G24 RMK AO2 PK WND 31029/2204 SLP139 T01560089
94908KDBQ DBQ20100903165510309/03/10 16:55:31  5-MIN KDBQ 032255Z 30016G21KT 10SM OVC043 16/09 A2994 1060 64 1400 300/16G21 RMK AO2
94908KDBQ DBQ20100903170010309/03/10 17:00:31  5-MIN KDBQ 032300Z 30015G24KT 10SM OVC045 16/09 A2994 1060 64 1400 300/15G24 RMK AO2
94908KDBQ DBQ20100903170510309/03/10 17:05:31  5-MIN KDBQ 032305Z 30017G24KT 10SM OVC045 16/09 A2994 1060 64 1400 300/17G24 RMK AO2
94908KDBQ DBQ20100903171012109/03/10 17:10:31  5-MIN KDBQ 032310Z 29020G26KT 10SM OVC047 16/09 A2994 1060 64 1400 290/20G26 RMK AO2 PK WND 28026/2309
94908KDBQ DBQ20100903171512109/03/10 17:15:31  5-MIN KDBQ 032315Z 31015G26KT 10SM OVC047 16/09 A2994 1060 64 1400 300/15G26 RMK AO2 PK WND 28026/2309
94908KDBQ DBQ20100903172012109/03/10 17:20:31  5-MIN KDBQ 032320Z 31014G25KT 10SM OVC049 16/09 A2994 1060 64 1400 310/14G25 RMK AO2 PK WND 28026/2309
94908KDBQ DBQ20100903172512109/03/10 17:25:31  5-MIN KDBQ 032325Z 30014G21KT 10SM OVC049 16/09 A2994 1060 64 1400 300/14G21 RMK AO2 PK WND 28026/2309
94908KDBQ DBQ20100903173012809/03/10 17:30:31  5-MIN KDBQ 032330Z 31017G22KT 10SM BKN043 OVC049 16/09 A2995 1050 64 1400 310/17G22 RMK AO2 PK WND 28026/2309
94908KDBQ DBQ20100903173512809/03/10 17:35:31  5-MIN KDBQ 032335Z 31012G22KT 10SM BKN041 OVC049 16/09 A2995 1050 64 1400 300/12G22 RMK AO2 PK WND 28026/2309
94908KDBQ DBQ20100903174012209/03/10 17:40:31  5-MIN KDBQ 032340Z 31011KT 10SM BKN041 OVC049 15/09 A2995 1060 66 1300 310/11 RMK AO2 PK WND 28026/2309
94908KDBQ DBQ20100903174512809/03/10 17:45:31  5-MIN KDBQ 032345Z 31013G20KT 10SM BKN041 OVC049 15/09 A2995 1060 66 1300 310/13G20 RMK AO2 PK WND 28026/2309
94908KDBQ DBQ20100903175015609/03/10 17:50:31  5-MIN KDBQ 032350Z 31015G20KT 10SM OVC041 15/09 A2995 1050 66 1300 310/15G20 RMK AO2 PK WND 28026/2309 SLP142 T01500089 10189 20150 53009
94908KDBQ DBQ20100903175510309/03/10 17:55:31  5-MIN KDBQ 032355Z 30014G20KT 10SM OVC039 15/09 A2995 1050 66 1300 300/14G20 RMK AO2
94908KDBQ DBQ20100903180010309/03/10 18:00:31  5-MIN KDBQ 040000Z 31017G25KT 10SM OVC041 15/09 A2995 1050 66 1300 310/17G25 RMK AO2
94908KDBQ DBQ20100903180510309/03/10 18:05:31  5-MIN KDBQ 040005Z 31015G25KT 10SM OVC041 15/09 A2995 1050 66 1300 310/15G25 RMK AO2
94908KDBQ DBQ20100903181010309/03/10 18:10:31  5-MIN KDBQ 040010Z 30014G20KT 10SM OVC041 15/09 A2995 1050 66 1300 300/14G20 RMK AO2
94908KDBQ DBQ20100903181510309/03/10 18:15:31  5-MIN KDBQ 040015Z 31014G22KT 10SM OVC041 15/09 A2995 1050 66 1300 310/14G22 RMK AO2
94908KDBQ DBQ20100903182010309/03/10 18:20:31  5-MIN KDBQ 040020Z 30009G22KT 10SM OVC043 15/09 A2995 1050 66 1300 300/09G22 RMK AO2
94908KDBQ DBQ20100903182509709/03/10 18:25:31  5-MIN KDBQ 040025Z 30011KT 10SM OVC043 15/09 A2995 1050 66 1300 300/11 RMK AO2
94908KDBQ DBQ20100903183010309/03/10 18:30:31  5-MIN KDBQ 040030Z 30010G18KT 10SM OVC043 14/09 A2995 1050 69 1300 300/10G18 RMK AO2
94908KDBQ DBQ20100903183510309/03/10 18:35:31  5-MIN KDBQ 040035Z 30011G18KT 10SM OVC045 15/09 A2995 1050 66 1300 300/11G18 RMK AO2
94908KDBQ DBQ20100903184010309/03/10 18:40:31  5-MIN KDBQ 040040Z 30013G17KT 10SM OVC045 14/09 A2995 1050 69 1300 300/13G17 RMK AO2
94908KDBQ DBQ20100903184510309/03/10 18:45:31  5-MIN KDBQ 040045Z 29012G20KT 10SM OVC045 14/09 A2995 1050 69 1300 290/12G20 RMK AO2
94908KDBQ DBQ20100903185012009/03/10 18:50:31  5-MIN KDBQ 040050Z 30014G21KT 10SM OVC047 15/09 A2996 1050 66 1300 300/14G21 RMK AO2 SLP144 T01500089
94908KDBQ DBQ20100903185510309/03/10 18:55:31  5-MIN KDBQ 040055Z 30014G23KT 10SM OVC047 15/09 A2996 1050 66 1300 300/14G23 RMK AO2
94908KDBQ DBQ20100903190011309/03/10 19:00:31  5-MIN KDBQ 040100Z AUTO 30012G23KT 10SM OVC047 15/09 A2996 1040 66 1300 300/12G23 RMK AO2 TSNO
94908KDBQ DBQ20100903190511309/03/10 19:05:31  5-MIN KDBQ 040105Z AUTO 30013G19KT 10SM OVC047 14/09 A2996 1040 72 1300 300/13G19 RMK AO2 TSNO
94908KDBQ DBQ20100903191010809/03/10 19:10:31  5-MIN KDBQ 040110Z AUTO 30012G23KT 10SM OVC047 15/09 A2996 1040 66 1300 300/12G23 RMK AO2
94908KDBQ DBQ20100903191510809/03/10 19:15:31  5-MIN KDBQ 040115Z AUTO 31014G23KT 10SM OVC047 15/09 A2996 1040 69 1300 300/14G23 RMK AO2
94908KDBQ DBQ20100903192010809/03/10 19:20:31  5-MIN KDBQ 040120Z AUTO 31012G20KT 10SM OVC047 15/09 A2996 1040 66 1300 310/12G20 RMK AO2
94908KDBQ DBQ20100903192510209/03/10 19:25:31  5-MIN KDBQ 040125Z AUTO 31012KT 10SM OVC047 15/09 A2996 1040 66 1300 300/12 RMK AO2
94908KDBQ DBQ20100903193010209/03/10 19:30:31  5-MIN KDBQ 040130Z AUTO 31015KT 10SM OVC049 15/09 A2996 1040 66 1300 310/15 RMK AO2
94908KDBQ DBQ20100903193510209/03/10 19:35:31  5-MIN KDBQ 040135Z AUTO 31012KT 10SM OVC049 15/09 A2996 1040 66 1300 310/12 RMK AO2
94908KDBQ DBQ20100903194010809/03/10 19:40:31  5-MIN KDBQ 040140Z AUTO 30016G21KT 10SM OVC049 15/09 A2996 1040 66 1300 300/16G21 RMK AO2
94908KDBQ DBQ20100903194510809/03/10 19:45:31  5-MIN KDBQ 040145Z AUTO 31015G23KT 10SM OVC049 15/09 A2997 1040 66 1300 300/15G23 RMK AO2
94908KDBQ DBQ20100903195012509/03/10 19:50:31  5-MIN KDBQ 040150Z AUTO 30014G23KT 10SM OVC049 15/09 A2997 1030 66 1300 300/14G23 RMK AO2 SLP148 T01500089
94908KDBQ DBQ20100903195510809/03/10 19:55:31  5-MIN KDBQ 040155Z AUTO 31014G20KT 10SM OVC049 15/09 A2997 1030 66 1300 310/14G20 RMK AO2
94908KDBQ DBQ20100903200010809/03/10 20:00:31  5-MIN KDBQ 040200Z AUTO 30012G20KT 10SM OVC049 15/09 A2997 1030 66 1300 300/12G20 RMK AO2
94908KDBQ DBQ20100903200510209/03/10 20:05:31  5-MIN KDBQ 040205Z AUTO 30012KT 10SM OVC049 15/09 A2997 1030 66 1300 300/12 RMK AO2
94908KDBQ DBQ20100903201010209/03/10 20:10:31  5-MIN KDBQ 040210Z AUTO 30013KT 10SM OVC049 14/09 A2997 1030 69 1200 300/13 RMK AO2
94908KDBQ DBQ20100903201510809/03/10 20:15:31  5-MIN KDBQ 040215Z AUTO 29015G19KT 10SM OVC049 15/09 A2997 1030 66 1300 290/15G19 RMK AO2
94908KDBQ DBQ20100903202010809/03/10 20:20:31  5-MIN KDBQ 040220Z AUTO 30012G19KT 10SM OVC049 14/09 A2997 1030 72 1200 300/12G19 RMK AO2
94908KDBQ DBQ20100903202510209/03/10 20:25:31  5-MIN KDBQ 040225Z AUTO 30012KT 10SM OVC049 14/09 A2997 1030 72 1200 300/12 RMK AO2
94908KDBQ DBQ20100903203010809/03/10 20:30:31  5-MIN KDBQ 040230Z AUTO 30011G20KT 10SM BKN049 14/09 A2997 1030 69 1200 300/11G20 RMK AO2
94908KDBQ DBQ20100903203510809/03/10 20:35:31  5-MIN KDBQ 040235Z AUTO 30012G20KT 10SM BKN049 14/09 A2997 1030 69 1200 300/12G20 RMK AO2
94908KDBQ DBQ20100903204010209/03/10 20:40:31  5-MIN KDBQ 040240Z AUTO 30012KT 10SM OVC049 14/09 A2997 1030 69 1200 300/12 RMK AO2
94908KDBQ DBQ20100903204510209/03/10 20:45:31  5-MIN KDBQ 040245Z AUTO 30012KT 10SM BKN049 14/09 A2998 1030 69 1200 300/12 RMK AO2
94908KDBQ DBQ20100903205012509/03/10 20:50:31  5-MIN KDBQ 040250Z AUTO 30012KT 10SM BKN049 14/09 A2998 1030 69 1200 300/12 RMK AO2 SLP151 T01440089 51013
94908KDBQ DBQ20100903205510209/03/10 20:55:31  5-MIN KDBQ 040255Z AUTO 31013KT 10SM BKN049 14/09 A2998 1030 69 1200 300/13 RMK AO2
94908KDBQ DBQ20100903210010209/03/10 21:00:31  5-MIN KDBQ 040300Z AUTO 30011KT 10SM BKN049 14/09 A2998 1020 71 1200 300/11 RMK AO2
94908KDBQ DBQ20100903210510209/03/10 21:05:31  5-MIN KDBQ 040305Z AUTO 31011KT 10SM BKN049 14/09 A2998 1020 71 1200 310/11 RMK AO2
94908KDBQ DBQ20100903211010209/03/10 21:10:31  5-MIN KDBQ 040310Z AUTO 30011KT 10SM SCT049 14/08 A2998 1020 69 1200 300/11 RMK AO2
94908KDBQ DBQ20100903211510209/03/10 21:15:31  5-MIN KDBQ 040315Z AUTO 31011KT 10SM SCT049 13/09 A2998 1020 74 1100 310/11 RMK AO2
94908KDBQ DBQ20100903212010809/03/10 21:20:31  5-MIN KDBQ 040320Z AUTO 31014G21KT 10SM FEW049 14/08 A2998 1020 69 1200 310/14G21 RMK AO2
94908KDBQ DBQ20100903212510509/03/10 21:25:31  5-MIN KDBQ 040325Z AUTO 31012G21KT 10SM CLR 14/08 A2998 1020 69 1200 310/12G21 RMK AO2
94908KDBQ DBQ20100903213009909/03/10 21:30:31  5-MIN KDBQ 040330Z AUTO 32013KT 10SM CLR 14/08 A2998 1020 69 1200 320/13 RMK AO2
94908KDBQ DBQ20100903213510509/03/10 21:35:31  5-MIN KDBQ 040335Z AUTO 31010G18KT 10SM CLR 14/08 A2998 1020 69 1200 310/10G18 RMK AO2
94908KDBQ DBQ20100903214010509/03/10 21:40:31  5-MIN KDBQ 040340Z AUTO 31010G18KT 10SM CLR 13/08 A2998 1020 71 1100 310/10G18 RMK AO2
94908KDBQ DBQ20100903214509909/03/10 21:45:31  5-MIN KDBQ 040345Z AUTO 30009KT 10SM CLR 13/08 A2998 1020 71 1100 300/09 RMK AO2
94908KDBQ DBQ20100903215011909/03/10 21:50:31  5-MIN KDBQ 040350Z AUTO 32011KT 10SM FEW047 13/08 A2998 1020 71 1100 310/11 RMK AO2 SLP153 T01330083
94908KDBQ DBQ20100903215510209/03/10 21:55:31  5-MIN KDBQ 040355Z AUTO 31010KT 10SM SCT047 13/08 A2998 1020 71 1100 310/10 RMK AO2
94908KDBQ DBQ20100903220010209/03/10 22:00:31  5-MIN KDBQ 040400Z AUTO 31009KT 10SM SCT045 13/08 A2998 1020 71 1100 310/09 RMK AO2
94908KDBQ DBQ20100903220510209/03/10 22:05:31  5-MIN KDBQ 040405Z AUTO 31012KT 10SM FEW045 13/08 A2998 1020 71 1100 310/12 RMK AO2
94908KDBQ DBQ20100903221010809/03/10 22:10:31  5-MIN KDBQ 040410Z AUTO 31013G18KT 10SM SCT045 13/08 A2998 1020 71 1100 310/13G18 RMK AO2
94908KDBQ DBQ20100903221510809/03/10 22:15:31  5-MIN KDBQ 040415Z AUTO 31010G18KT 10SM BKN045 13/08 A2999 1020 71 1100 310/10G18 RMK AO2
94908KDBQ DBQ20100903222010209/03/10 22:20:31  5-MIN KDBQ 040420Z AUTO 31011KT 10SM BKN045 13/08 A2999 1020 71 1100 310/11 RMK AO2
94908KDBQ DBQ20100903222510209/03/10 22:25:31  5-MIN KDBQ 040425Z AUTO 31011KT 10SM SCT045 13/08 A2999 1020 71 1100 310/11 RMK AO2
94908KDBQ DBQ20100903223010209/03/10 22:30:31  5-MIN KDBQ 040430Z AUTO 31009KT 10SM SCT045 13/08 A2999 1020 71 1100 310/09 RMK AO2
94908KDBQ DBQ20100903223510209/03/10 22:35:31  5-MIN KDBQ 040435Z AUTO 31009KT 10SM SCT045 13/08 A2999 1020 74 1000 310/09 RMK AO2
94908KDBQ DBQ20100903224010209/03/10 22:40:31  5-MIN KDBQ 040440Z AUTO 31010KT 10SM FEW045 13/08 A2999 1020 74 1000 300/10 RMK AO2
94908KDBQ DBQ20100903224510209/03/10 22:45:31  5-MIN KDBQ 040445Z AUTO 31011KT 10SM FEW045 13/08 A2999 1020 74 1000 310/11 RMK AO2
94908KDBQ DBQ20100903225011609/03/10 22:50:31  5-MIN KDBQ 040450Z AUTO 31009KT 10SM CLR 13/08 A2999 1010 74 1000 310/09 RMK AO2 SLP154 T01280083
94908KDBQ DBQ20100903225509909/03/10 22:55:31  5-MIN KDBQ 040455Z AUTO 31009KT 10SM CLR 13/08 A2999 1020 74 1000 310/09 RMK AO2
94908KDBQ DBQ20100903230010509/03/10 23:00:31  5-MIN KDBQ 040500Z AUTO 31010G20KT 10SM CLR 13/08 A2999 1020 74 1000 310/10G20 RMK AO2
94908KDBQ DBQ20100903230510509/03/10 23:05:31  5-MIN KDBQ 040505Z AUTO 31010G20KT 10SM CLR 13/08 A2999 1020 74 1000 310/10G20 RMK AO2
94908KDBQ DBQ20100903231009909/03/10 23:10:31  5-MIN KDBQ 040510Z AUTO 31010KT 10SM CLR 12/08 A2999 1020 77 1000 310/10 RMK AO2
94908KDBQ DBQ20100903231509909/03/10 23:15:31  5-MIN KDBQ 040515Z AUTO 30010KT 10SM CLR 12/08 A2999 1020 77 1000 300/10 RMK AO2
94908KDBQ DBQ20100903232009909/03/10 23:20:31  5-MIN KDBQ 040520Z AUTO 31009KT 10SM CLR 12/08 A2999 1020 77 1000 310/09 RMK AO2
94908KDBQ DBQ20100903232509909/03/10 23:25:31  5-MIN KDBQ 040525Z AUTO 31011KT 10SM CLR 12/08 A2999 1020 77 1000 310/11 RMK AO2
94908KDBQ DBQ20100903233009909/03/10 23:30:31  5-MIN KDBQ 040530Z AUTO 32011KT 10SM CLR 12/08 A2999 1020 77 1000 320/11 RMK AO2
94908KDBQ DBQ20100903233510509/03/10 23:35:31  5-MIN KDBQ 040535Z AUTO 32013G18KT 10SM CLR 12/08 A2999 1020 74 1000 320/13G18 RMK AO2
94908KDBQ DBQ20100903234009909/03/10 23:40:31  5-MIN KDBQ 040540Z AUTO 32012KT 10SM CLR 12/08 A2999 1020 74 1000 320/12 RMK AO2
94908KDBQ DBQ20100903234509909/03/10 23:45:31  5-MIN KDBQ 040545Z AUTO 32013KT 10SM CLR 12/08 A2999 1010 74 1000 320/13 RMK AO2
94908KDBQ DBQ20100903235014409/03/10 23:50:31  5-MIN KDBQ 040550Z AUTO 32011KT 10SM CLR 12/08 A2999 1010 74 1000 320/11 RMK AO2 SLP155 T01220078 10150 20122 401890122 51010
94908KDBQ DBQ20100903235510509/03/10 23:55:31  5-MIN KDBQ 040555Z AUTO 33012G20KT 10SM CLR 12/08 A2999 1010 74 1000 330/12G20 RMK AO2
94908KDBQ DBQ20100904000010409/04/10 00:00:38  5-MIN KDBQ 040600Z AUTO 32009G20KT 10SM CLR 12/08 A2999 1010 77 900 320/09G20 RMK AO2
94908KDBQ DBQ20100904000509909/04/10 00:05:31  5-MIN KDBQ 040605Z AUTO 32012KT 10SM CLR 12/08 A2999 1010 74 1000 320/12 RMK AO2
94908KDBQ DBQ20100904001010509/04/10 00:10:31  5-MIN KDBQ 040610Z AUTO 32010G18KT 10SM CLR 12/08 A2999 1010 74 1000 320/10G18 RMK AO2
94908KDBQ DBQ20100904001510409/04/10 00:15:32  5-MIN KDBQ 040615Z AUTO 33013G18KT 10SM CLR 12/08 A2999 1010 77 900 320/13G18 RMK AO2
94908KDBQ DBQ20100904002009809/04/10 00:20:31  5-MIN KDBQ 040620Z AUTO 33010KT 10SM CLR 12/08 A2999 1010 77 900 330/10 RMK AO2
94908KDBQ DBQ20100904002509809/04/10 00:25:31  5-MIN KDBQ 040625Z AUTO 32011KT 10SM CLR 12/08 A2999 1010 77 900 320/11 RMK AO2
94908KDBQ DBQ20100904003009809/04/10 00:30:31  5-MIN KDBQ 040630Z AUTO 32010KT 10SM CLR 12/08 A2999 1010 77 900 320/10 RMK AO2
94908KDBQ DBQ20100904003509809/04/10 00:35:31  5-MIN KDBQ 040635Z AUTO 32011KT 10SM CLR 12/08 A2999 1010 77 900 320/11 RMK AO2
94908KDBQ DBQ20100904004009809/04/10 00:40:31  5-MIN KDBQ 040640Z AUTO 32009KT 10SM CLR 12/08 A3000 1010 77 900 320/09 RMK AO2
94908KDBQ DBQ20100904004509809/04/10 00:45:31  5-MIN KDBQ 040645Z AUTO 31008KT 10SM CLR 11/08 A3000 1000 80 800 310/08 RMK AO2
94908KDBQ DBQ20100904005011509/04/10 00:50:31  5-MIN KDBQ 040650Z AUTO 32008KT 10SM CLR 11/08 A3000 1010 80 800 320/08 RMK AO2 SLP158 T01110078
94908KDBQ DBQ20100904005509809/04/10 00:55:31  5-MIN KDBQ 040655Z AUTO 32009KT 10SM CLR 11/08 A3000 1000 80 800 320/09 RMK AO2
94908KDBQ DBQ20100904010009809/04/10 01:00:31  5-MIN KDBQ 040700Z AUTO 32010KT 10SM CLR 11/08 A3000 1000 80 800 320/10 RMK AO2
94908KDBQ DBQ20100904010509809/04/10 01:05:31  5-MIN KDBQ 040705Z AUTO 32010KT 10SM CLR 11/08 A3000 1000 80 800 310/10 RMK AO2
94908KDBQ DBQ20100904011009809/04/10 01:10:31  5-MIN KDBQ 040710Z AUTO 31011KT 10SM CLR 11/08 A3000 1000 80 800 310/11 RMK AO2
94908KDBQ DBQ20100904011509809/04/10 01:15:31  5-MIN KDBQ 040715Z AUTO 32011KT 10SM CLR 11/08 A3000 1000 80 800 310/11 RMK AO2
94908KDBQ DBQ20100904012009809/04/10 01:20:31  5-MIN KDBQ 040720Z AUTO 32009KT 10SM CLR 11/08 A3000 1000 83 700 320/09 RMK AO2
94908KDBQ DBQ20100904012509809/04/10 01:25:31  5-MIN KDBQ 040725Z AUTO 33009KT 10SM CLR 11/08 A3000 1000 83 700 330/09 RMK AO2
94908KDBQ DBQ20100904013009809/04/10 01:30:31  5-MIN KDBQ 040730Z AUTO 33008KT 10SM CLR 11/08 A3000 1000 83 700 330/08 RMK AO2
94908KDBQ DBQ20100904013509809/04/10 01:35:31  5-MIN KDBQ 040735Z AUTO 34009KT 10SM CLR 11/08 A3000 1000 83 700 330/09 RMK AO2
94908KDBQ DBQ20100904014009809/04/10 01:40:31  5-MIN KDBQ 040740Z AUTO 34007KT 10SM CLR 10/08 A3000 1000 86 700 340/07 RMK AO2
94908KDBQ DBQ20100904014509809/04/10 01:45:31  5-MIN KDBQ 040745Z AUTO 34007KT 10SM CLR 10/08 A3000 1000 86 700 340/07 RMK AO2
94908KDBQ DBQ20100904015011509/04/10 01:50:31  5-MIN KDBQ 040750Z AUTO 34006KT 10SM CLR 10/08 A3000 1000 86 700 340/06 RMK AO2 SLP161 T01000078
94908KDBQ DBQ20100904015509809/04/10 01:55:31  5-MIN KDBQ 040755Z AUTO 34006KT 10SM CLR 10/08 A3000 1000 86 700 330/06 RMK AO2
94908KDBQ DBQ20100904020009809/04/10 02:00:31  5-MIN KDBQ 040800Z AUTO 33006KT 10SM CLR 09/08 A3000 1000 89 600 330/06 RMK AO2
94908KDBQ DBQ20100904020509809/04/10 02:05:31  5-MIN KDBQ 040805Z AUTO 33007KT 10SM CLR 10/07 A3000 1000 83 700 330/07 RMK AO2
94908KDBQ DBQ20100904021009809/04/10 02:10:31  5-MIN KDBQ 040810Z AUTO 32007KT 10SM CLR 10/08 A3000 1000 86 700 320/07 RMK AO2
94908KDBQ DBQ20100904021509809/04/10 02:15:31  5-MIN KDBQ 040815Z AUTO 33007KT 10SM CLR 10/07 A3000 1000 83 700 320/07 RMK AO2
94908KDBQ DBQ20100904022009809/04/10 02:20:31  5-MIN KDBQ 040820Z AUTO 32006KT 10SM CLR 10/07 A3000 1000 83 700 320/06 RMK AO2
94908KDBQ DBQ20100904022509809/04/10 02:25:31  5-MIN KDBQ 040825Z AUTO 32007KT 10SM CLR 09/07 A3000 1000 86 600 320/07 RMK AO2
94908KDBQ DBQ20100904023009809/04/10 02:30:31  5-MIN KDBQ 040830Z AUTO 31007KT 10SM CLR 09/07 A3001 1000 86 600 310/07 RMK AO2
94908KDBQ DBQ20100904023509809/04/10 02:35:31  5-MIN KDBQ 040835Z AUTO 30007KT 10SM CLR 09/07 A3001 1000 86 600 300/07 RMK AO2
94908KDBQ DBQ20100904024009809/04/10 02:40:31  5-MIN KDBQ 040840Z AUTO 30006KT 10SM CLR 09/07 A3001 1000 86 600 300/06 RMK AO2
94908KDBQ DBQ20100904024509809/04/10 02:45:31  5-MIN KDBQ 040845Z AUTO 30007KT 10SM CLR 09/07 A3001 1000 86 600 300/07 RMK AO2
94908KDBQ DBQ20100904025012009/04/10 02:50:31  5-MIN KDBQ 040850Z AUTO 31007KT 10SM CLR 09/07 A3001 990 86 600 310/07 RMK AO2 SLP164 T00940072 51004
94908KDBQ DBQ20100904025509709/04/10 02:55:31  5-MIN KDBQ 040855Z AUTO 31007KT 10SM CLR 09/07 A3001 990 86 600 310/07 RMK AO2
94908KDBQ DBQ20100904030009709/04/10 03:00:31  5-MIN KDBQ 040900Z AUTO 31007KT 10SM CLR 09/07 A3001 990 86 600 310/07 RMK AO2
94908KDBQ DBQ20100904030509709/04/10 03:05:31  5-MIN KDBQ 040905Z AUTO 31007KT 10SM CLR 09/07 A3001 990 86 600 310/07 RMK AO2
94908KDBQ DBQ20100904031009709/04/10 03:10:31  5-MIN KDBQ 040910Z AUTO 31006KT 10SM CLR 09/07 A3001 990 86 600 310/06 RMK AO2
94908KDBQ DBQ20100904031509709/04/10 03:15:31  5-MIN KDBQ 040915Z AUTO 31005KT 10SM CLR 09/07 A3001 990 89 500 310/05 RMK AO2
94908KDBQ DBQ20100904032009709/04/10 03:20:31  5-MIN KDBQ 040920Z AUTO 31006KT 10SM CLR 09/07 A3002 990 89 500 310/06 RMK AO2
94908KDBQ DBQ20100904032509709/04/10 03:25:31  5-MIN KDBQ 040925Z AUTO 31007KT 10SM CLR 09/07 A3001 990 89 500 310/07 RMK AO2
94908KDBQ DBQ20100904033009709/04/10 03:30:31  5-MIN KDBQ 040930Z AUTO 31005KT 10SM CLR 09/07 A3002 990 89 500 310/05 RMK AO2
94908KDBQ DBQ20100904033509709/04/10 03:35:31  5-MIN KDBQ 040935Z AUTO 31006KT 10SM CLR 09/07 A3002 990 89 500 310/06 RMK AO2
94908KDBQ DBQ20100904034009709/04/10 03:40:31  5-MIN KDBQ 040940Z AUTO 31006KT 10SM CLR 09/07 A3002 990 89 500 310/06 RMK AO2
94908KDBQ DBQ20100904034509709/04/10 03:45:31  5-MIN KDBQ 040945Z AUTO 31005KT 10SM CLR 09/07 A3002 990 89 500 310/05 RMK AO2
94908KDBQ DBQ20100904035011409/04/10 03:50:31  5-MIN KDBQ 040950Z AUTO 31006KT 10SM CLR 09/07 A3002 990 86 500 310/06 RMK AO2 SLP167 T00890067
94908KDBQ DBQ20100904035509709/04/10 03:55:31  5-MIN KDBQ 040955Z AUTO 31006KT 10SM CLR 09/07 A3002 990 86 500 310/06 RMK AO2
94908KDBQ DBQ20100904040009709/04/10 04:00:31  5-MIN KDBQ 041000Z AUTO 31006KT 10SM CLR 09/07 A3002 990 86 500 310/06 RMK AO2
94908KDBQ DBQ20100904040509709/04/10 04:05:31  5-MIN KDBQ 041005Z AUTO 31006KT 10SM CLR 09/07 A3002 990 86 500 310/06 RMK AO2
94908KDBQ DBQ20100904041009709/04/10 04:10:31  5-MIN KDBQ 041010Z AUTO 31006KT 10SM CLR 09/07 A3002 990 86 500 310/06 RMK AO2
94908KDBQ DBQ20100904041509709/04/10 04:15:31  5-MIN KDBQ 041015Z AUTO 31005KT 10SM CLR 09/07 A3002 990 86 500 300/05 RMK AO2
94908KDBQ DBQ20100904042009709/04/10 04:20:31  5-MIN KDBQ 041020Z AUTO 30006KT 10SM CLR 08/07 A3002 990 89 500 300/06 RMK AO2
94908KDBQ DBQ20100904042509709/04/10 04:25:31  5-MIN KDBQ 041025Z AUTO 30006KT 10SM CLR 08/07 A3002 990 89 500 300/06 RMK AO2
94908KDBQ DBQ20100904043009709/04/10 04:30:31  5-MIN KDBQ 041030Z AUTO 30006KT 10SM CLR 08/07 A3002 990 89 500 300/06 RMK AO2
94908KDBQ DBQ20100904043509709/04/10 04:35:31  5-MIN KDBQ 041035Z AUTO 31006KT 10SM CLR 08/07 A3002 990 89 500 310/06 RMK AO2
94908KDBQ DBQ20100904044009709/04/10 04:40:31  5-MIN KDBQ 041040Z AUTO 30005KT 10SM CLR 08/07 A3002 980 89 500 300/05 RMK AO2
94908KDBQ DBQ20100904044509709/04/10 04:45:31  5-MIN KDBQ 041045Z AUTO 31004KT 10SM CLR 08/07 A3002 980 89 500 300/04 RMK AO2
94908KDBQ DBQ20100904045010909/04/10 04:50:31  5-MIN KDBQ 041050Z 31005KT 10SM CLR 08/07 A3002 980 89 500 310/05 RMK AO2 SLP169 T00830067
94908KDBQ DBQ20100904045509209/04/10 04:55:31  5-MIN KDBQ 041055Z 31005KT 10SM CLR 08/07 A3002 980 89 500 310/05 RMK AO2
94908KDBQ DBQ20100904050009209/04/10 05:00:31  5-MIN KDBQ 041100Z 30004KT 10SM CLR 08/07 A3002 980 89 500 300/04 RMK AO2
94908KDBQ DBQ20100904050509209/04/10 05:05:31  5-MIN KDBQ 041105Z 30004KT 10SM CLR 08/07 A3002 980 93 400 300/04 RMK AO2
94908KDBQ DBQ20100904051009209/04/10 05:10:31  5-MIN KDBQ 041110Z 30005KT 10SM CLR 08/07 A3003 980 89 500 300/05 RMK AO2
94908KDBQ DBQ20100904051509209/04/10 05:15:31  5-MIN KDBQ 041115Z 30004KT 10SM CLR 08/07 A3003 980 93 400 300/04 RMK AO2
94908KDBQ DBQ20100904052009209/04/10 05:20:31  5-MIN KDBQ 041120Z 30004KT 10SM CLR 08/07 A3003 980 93 400 290/04 RMK AO2
94908KDBQ DBQ20100904052509209/04/10 05:25:31  5-MIN KDBQ 041125Z 29003KT 10SM CLR 08/06 A3003 980 89 400 290/03 RMK AO2
94908KDBQ DBQ20100904053009209/04/10 05:30:31  5-MIN KDBQ 041130Z 29004KT 10SM CLR 08/06 A3003 980 89 400 290/04 RMK AO2
94908KDBQ DBQ20100904053509209/04/10 05:35:31  5-MIN KDBQ 041135Z 29004KT 10SM CLR 08/06 A3003 980 89 400 290/04 RMK AO2
94908KDBQ DBQ20100904054009209/04/10 05:40:31  5-MIN KDBQ 041140Z 30004KT 10SM CLR 08/06 A3003 980 89 400 300/04 RMK AO2
94908KDBQ DBQ20100904054509209/04/10 05:45:31  5-MIN KDBQ 041145Z 29004KT 10SM CLR 08/07 A3003 970 93 400 290/04 RMK AO2
94908KDBQ DBQ20100904055012709/04/10 05:50:31  5-MIN KDBQ 041150Z 30004KT 10SM CLR 08/07 A3003 970 93 400 300/04 RMK AO2 SLP172 T00780067 10122 20078 52007
94908KDBQ DBQ20100904055509209/04/10 05:55:31  5-MIN KDBQ 041155Z 30004KT 10SM CLR 08/07 A3003 970 93 400 290/04 RMK AO2
94908KDBQ DBQ20100904060009209/04/10 06:00:31  5-MIN KDBQ 041200Z 29005KT 10SM CLR 08/07 A3004 970 93 400 290/05 RMK AO2
94908KDBQ DBQ20100904060509209/04/10 06:05:31  5-MIN KDBQ 041205Z 30005KT 10SM CLR 08/07 A3004 970 93 400 290/05 RMK AO2
94908KDBQ DBQ20100904061009209/04/10 06:10:31  5-MIN KDBQ 041210Z 30006KT 10SM CLR 08/07 A3004 970 89 400 300/06 RMK AO2
94908KDBQ DBQ20100904061509209/04/10 06:15:31  5-MIN KDBQ 041215Z 30006KT 10SM CLR 08/07 A3004 970 89 400 300/06 RMK AO2
94908KDBQ DBQ20100904062009209/04/10 06:20:31  5-MIN KDBQ 041220Z 30006KT 10SM CLR 09/07 A3004 960 89 500 300/06 RMK AO2
94908KDBQ DBQ20100904062509209/04/10 06:25:31  5-MIN KDBQ 041225Z 31006KT 10SM CLR 09/07 A3004 970 89 500 300/06 RMK AO2
94908KDBQ DBQ20100904063009209/04/10 06:30:31  5-MIN KDBQ 041230Z 31006KT 10SM CLR 09/07 A3004 960 86 600 310/06 RMK AO2
94908KDBQ DBQ20100904063509209/04/10 06:35:31  5-MIN KDBQ 041235Z 30006KT 10SM CLR 09/07 A3005 960 86 600 300/06 RMK AO2
94908KDBQ DBQ20100904064009209/04/10 06:40:31  5-MIN KDBQ 041240Z 30007KT 10SM CLR 09/07 A3005 960 86 600 300/07 RMK AO2
94908KDBQ DBQ20100904064509209/04/10 06:45:31  5-MIN KDBQ 041245Z 30007KT 10SM CLR 10/07 A3005 960 83 600 300/07 RMK AO2
94908KDBQ DBQ20100904065010909/04/10 06:50:31  5-MIN KDBQ 041250Z 30007KT 10SM CLR 10/07 A3005 960 83 600 300/07 RMK AO2 SLP178 T01000072
94908KDBQ DBQ20100904065509209/04/10 06:55:31  5-MIN KDBQ 041255Z 30008KT 10SM CLR 10/08 A3005 960 86 600 300/08 RMK AO2
94908KDBQ DBQ20100904070009209/04/10 07:00:31  5-MIN KDBQ 041300Z 30007KT 10SM CLR 11/08 A3005 960 83 700 300/07 RMK AO2
94908KDBQ DBQ20100904070509209/04/10 07:05:31  5-MIN KDBQ 041305Z 30009KT 10SM CLR 11/08 A3006 950 83 700 300/09 RMK AO2
94908KDBQ DBQ20100904071009209/04/10 07:10:31  5-MIN KDBQ 041310Z 30009KT 10SM CLR 11/08 A3006 950 83 700 290/09 RMK AO2
94908KDBQ DBQ20100904071509209/04/10 07:15:31  5-MIN KDBQ 041315Z 30007KT 10SM CLR 11/08 A3006 950 83 700 300/07 RMK AO2
94908KDBQ DBQ20100904072009209/04/10 07:20:31  5-MIN KDBQ 041320Z 30009KT 10SM CLR 11/08 A3006 950 83 700 300/09 RMK AO2
94908KDBQ DBQ20100904072509209/04/10 07:25:31  5-MIN KDBQ 041325Z 30009KT 10SM CLR 11/08 A3006 950 80 700 300/09 RMK AO2
94908KDBQ DBQ20100904073009209/04/10 07:30:31  5-MIN KDBQ 041330Z 31009KT 10SM CLR 11/08 A3006 950 80 700 300/09 RMK AO2
94908KDBQ DBQ20100904073509209/04/10 07:35:31  5-MIN KDBQ 041335Z 30009KT 10SM CLR 12/08 A3006 950 77 800 300/09 RMK AO2
94908KDBQ DBQ20100904074009209/04/10 07:40:31  5-MIN KDBQ 041340Z 32008KT 10SM CLR 12/08 A3006 950 77 800 310/08 RMK AO2
94908KDBQ DBQ20100904074509209/04/10 07:45:31  5-MIN KDBQ 041345Z 31009KT 10SM CLR 12/07 A3006 950 74 800 310/09 RMK AO2
94908KDBQ DBQ20100904075010909/04/10 07:50:31  5-MIN KDBQ 041350Z 31008KT 10SM CLR 12/07 A3006 950 74 800 310/08 RMK AO2 SLP181 T01170072
94908KDBQ DBQ20100904075509209/04/10 07:55:31  5-MIN KDBQ 041355Z 32009KT 10SM CLR 12/08 A3006 950 74 900 320/09 RMK AO2
94908KDBQ DBQ20100904080009209/04/10 08:00:31  5-MIN KDBQ 041400Z 31008KT 10SM CLR 12/08 A3006 950 74 900 310/08 RMK AO2
94908KDBQ DBQ20100904080509209/04/10 08:05:31  5-MIN KDBQ 041405Z 31009KT 10SM CLR 13/08 A3007 940 71 900 310/09 RMK AO2
94908KDBQ DBQ20100904081009809/04/10 08:10:31  5-MIN KDBQ 041410Z 30010G14KT 10SM CLR 13/07 A3007 940 69 900 300/10G14 RMK AO2
94908KDBQ DBQ20100904081509809/04/10 08:15:31  5-MIN KDBQ 041415Z 32008G14KT 10SM CLR 13/08 A3007 940 71 900 310/08G14 RMK AO2
94908KDBQ DBQ20100904082009309/04/10 08:20:31  5-MIN KDBQ 041420Z 33009KT 10SM CLR 13/08 A3007 940 69 1000 330/09 RMK AO2
94908KDBQ DBQ20100904082509309/04/10 08:25:31  5-MIN KDBQ 041425Z 32009KT 10SM CLR 13/07 A3006 950 66 1000 320/09 RMK AO2
94908KDBQ DBQ20100904083009309/04/10 08:30:31  5-MIN KDBQ 041430Z 31012KT 10SM CLR 14/07 A3007 940 61 1100 300/12 RMK AO2
94908KDBQ DBQ20100904083509309/04/10 08:35:31  5-MIN KDBQ 041435Z 32012KT 10SM CLR 14/06 A3007 940 59 1100 320/12 RMK AO2
94908KDBQ DBQ20100904084009309/04/10 08:40:31  5-MIN KDBQ 041440Z 33012KT 10SM CLR 14/06 A3007 940 59 1100 330/12 RMK AO2
94908KDBQ DBQ20100904084509909/04/10 08:45:31  5-MIN KDBQ 041445Z 33010G18KT 10SM CLR 14/06 A3007 940 59 1100 320/10G18 RMK AO2
94908KDBQ DBQ20100904085012209/04/10 08:50:31  5-MIN KDBQ 041450Z 31013G18KT 10SM CLR 14/06 A3007 940 59 1100 310/13G18 RMK AO2 SLP182 T01390061 52007
94908KDBQ DBQ20100904085509309/04/10 08:55:31  5-MIN KDBQ 041455Z 31013KT 10SM CLR 14/06 A3007 940 55 1100 310/13 RMK AO2
94908KDBQ DBQ20100904090009909/04/10 09:00:31  5-MIN KDBQ 041500Z 31011G20KT 10SM CLR 14/06 A3007 940 55 1100 310/11G20 RMK AO2
94908KDBQ DBQ20100904090509909/04/10 09:05:31  5-MIN KDBQ 041505Z 31012G20KT 10SM CLR 14/06 A3007 940 55 1100 310/12G20 RMK AO2
94908KDBQ DBQ20100904091009909/04/10 09:10:31  5-MIN KDBQ 041510Z 31013G20KT 10SM CLR 14/05 A3007 940 53 1100 310/13G20 RMK AO2
94908KDBQ DBQ20100904091509309/04/10 09:15:31  5-MIN KDBQ 041515Z 32016KT 10SM CLR 14/05 A3007 940 53 1100 320/16 RMK AO2
94908KDBQ DBQ20100904092009909/04/10 09:20:31  5-MIN KDBQ 041520Z 31014G20KT 10SM CLR 14/05 A3007 940 53 1100 310/14G20 RMK AO2
94908KDBQ DBQ20100904092509309/04/10 09:25:31  5-MIN KDBQ 041525Z 32015KT 10SM CLR 14/05 A3007 940 53 1100 320/15 RMK AO2
94908KDBQ DBQ20100904093009909/04/10 09:30:31  5-MIN KDBQ 041530Z 32014G23KT 10SM CLR 15/04 A3008 940 49 1200 320/14G23 RMK AO2
94908KDBQ DBQ20100904093509909/04/10 09:35:31  5-MIN KDBQ 041535Z 33014G23KT 10SM CLR 15/05 A3008 930 51 1200 330/14G23 RMK AO2
94908KDBQ DBQ20100904094009909/04/10 09:40:31  5-MIN KDBQ 041540Z 32014G22KT 10SM CLR 15/05 A3008 930 51 1200 320/14G22 RMK AO2
94908KDBQ DBQ20100904094509909/04/10 09:45:31  5-MIN KDBQ 041545Z 32012G20KT 10SM CLR 15/04 A3008 930 49 1200 310/12G20 RMK AO2
94908KDBQ DBQ20100904095011609/04/10 09:50:31  5-MIN KDBQ 041550Z 33015G20KT 10SM CLR 15/05 A3008 930 51 1200 330/15G20 RMK AO2 SLP186 T01500050
94908KDBQ DBQ20100904095509909/04/10 09:55:31  5-MIN KDBQ 041555Z 31011G20KT 10SM CLR 16/06 A3008 930 51 1300 310/11G20 RMK AO2
94908KDBQ DBQ20100904100009309/04/10 10:00:31  5-MIN KDBQ 041600Z 31012KT 10SM CLR 16/06 A3008 930 51 1300 300/12 RMK AO2
94908KDBQ DBQ20100904100509309/04/10 10:05:31  5-MIN KDBQ 041605Z 30012KT 10SM CLR 16/06 A3008 930 51 1300 300/12 RMK AO2
94908KDBQ DBQ20100904101009309/04/10 10:10:31  5-MIN KDBQ 041610Z 31014KT 10SM CLR 16/06 A3008 930 51 1300 310/14 RMK AO2
94908KDBQ DBQ20100904101509309/04/10 10:15:31  5-MIN KDBQ 041615Z 32015KT 10SM CLR 16/06 A3008 930 51 1300 320/15 RMK AO2
94908KDBQ DBQ20100904102009909/04/10 10:20:31  5-MIN KDBQ 041620Z 31014G22KT 10SM CLR 16/05 A3007 940 49 1300 310/14G22 RMK AO2
94908KDBQ DBQ20100904102509909/04/10 10:25:31  5-MIN KDBQ 041625Z 31013G22KT 10SM CLR 16/06 A3007 940 49 1300 300/13G22 RMK AO2
94908KDBQ DBQ20100904103009909/04/10 10:30:31  5-MIN KDBQ 041630Z 30013G20KT 10SM CLR 16/05 A3007 940 47 1300 300/13G20 RMK AO2
94908KDBQ DBQ20100904103509309/04/10 10:35:31  5-MIN KDBQ 041635Z 32014KT 10SM CLR 16/05 A3007 940 47 1300 320/14 RMK AO2
94908KDBQ DBQ20100904104009909/04/10 10:40:31  5-MIN KDBQ 041640Z 33012G19KT 10SM CLR 17/06 A3007 940 47 1400 330/12G19 RMK AO2
94908KDBQ DBQ20100904104509909/04/10 10:45:31  5-MIN KDBQ 041645Z 33015G21KT 10SM CLR 17/06 A3007 940 47 1400 330/15G21 RMK AO2
94908KDBQ DBQ20100904105011909/04/10 10:50:31  5-MIN KDBQ 041650Z 32014G21KT 10SM FEW050 16/06 A3007 940 49 1300 320/14G21 RMK AO2 SLP183 T01610056
94908KDBQ DBQ20100904105509609/04/10 10:55:31  5-MIN KDBQ 041655Z 32011KT 10SM FEW050 17/06 A3007 940 49 1400 320/11 RMK AO2
94908KDBQ DBQ20100904110010209/04/10 11:00:31  5-MIN KDBQ 041700Z 33013G19KT 10SM FEW050 16/06 A3007 940 49 1300 330/13G19 RMK AO2
94908KDBQ DBQ20100904110510209/04/10 11:05:31  5-MIN KDBQ 041705Z 34012G19KT 10SM FEW050 16/06 A3007 940 49 1300 340/12G19 RMK AO2
94908KDBQ DBQ20100904111009609/04/10 11:10:31  5-MIN KDBQ 041710Z 32009KT 10SM FEW048 17/06 A3007 940 49 1400 320/09 RMK AO2
94908KDBQ DBQ20100904111510209/04/10 11:15:31  5-MIN KDBQ 041715Z 31011G16KT 10SM SCT048 17/06 A3007 940 49 1400 310/11G16 RMK AO2
94908KDBQ DBQ20100904112010209/04/10 11:20:31  5-MIN KDBQ 041720Z 32012G17KT 10SM FEW048 17/06 A3007 940 49 1400 320/12G17 RMK AO2
94908KDBQ DBQ20100904112509609/04/10 11:25:31  5-MIN KDBQ 041725Z 34011KT 10SM SCT046 17/07 A3006 950 51 1400 330/11 RMK AO2
94908KDBQ DBQ20100904113009609/04/10 11:30:31  5-MIN KDBQ 041730Z 31011KT 10SM SCT046 16/06 A3007 940 51 1300 300/11 RMK AO2
94908KDBQ DBQ20100904113510209/04/10 11:35:31  5-MIN KDBQ 041735Z 32013G19KT 10SM FEW048 17/06 A3006 950 49 1400 310/13G19 RMK AO2
94908KDBQ DBQ20100904114010209/04/10 11:40:31  5-MIN KDBQ 041740Z 31009G19KT 10SM FEW048 17/06 A3006 950 47 1400 310/09G19 RMK AO2
94908KDBQ DBQ20100904114510209/04/10 11:45:31  5-MIN KDBQ 041745Z 29011G17KT 10SM SCT048 17/06 A3006 950 47 1500 290/11G17 RMK AO2
94908KDBQ DBQ20100904115013709/04/10 11:50:31  5-MIN KDBQ 041750Z 33013G16KT 10SM SCT048 17/06 A3006 950 47 1500 330/13G16 RMK AO2 SLP179 T01720061 10172 20078 51011
94908KDBQ DBQ20100904115510209/04/10 11:55:31  5-MIN KDBQ 041755Z 33010G16KT 10SM SCT048 17/06 A3006 950 49 1400 330/10G16 RMK AO2
94908KDBQ DBQ20100904120010209/04/10 12:00:31  5-MIN KDBQ 041800Z 32013G19KT 10SM SCT048 17/06 A3006 950 49 1400 320/13G19 RMK AO2
94908KDBQ DBQ20100904120510209/04/10 12:05:31  5-MIN KDBQ 041805Z 34009G19KT 10SM SCT050 17/06 A3006 950 47 1400 340/09G19 RMK AO2
94908KDBQ DBQ20100904121009609/04/10 12:10:31  5-MIN KDBQ 041810Z 31008KT 10SM SCT050 17/06 A3006 950 47 1400 310/08 RMK AO2
94908KDBQ DBQ20100904121510209/04/10 12:15:31  5-MIN KDBQ 041815Z 30010G18KT 10SM SCT050 17/06 A3006 950 47 1500 300/10G18 RMK AO2
94908KDBQ DBQ20100904122010209/04/10 12:20:31  5-MIN KDBQ 041820Z 32012G18KT 10SM SCT050 17/06 A3005 950 49 1400 320/12G18 RMK AO2
94908KDBQ DBQ20100904122510209/04/10 12:25:31  5-MIN KDBQ 041825Z 31012G16KT 10SM BKN050 17/06 A3005 950 49 1400 310/12G16 RMK AO2
94908KDBQ DBQ20100904123010209/04/10 12:30:31  5-MIN KDBQ 041830Z 30008G16KT 10SM BKN050 17/07 A3005 960 51 1400 300/08G16 RMK AO2
94908KDBQ DBQ20100904123509609/04/10 12:35:31  5-MIN KDBQ 041835Z 30009KT 10SM SCT050 18/07 A3005 960 48 1500 300/09 RMK AO2
94908KDBQ DBQ20100904124010209/04/10 12:40:31  5-MIN KDBQ 041840Z 29010G18KT 10SM BKN050 18/07 A3004 960 48 1600 290/10G18 RMK AO2
94908KDBQ DBQ20100904124510209/04/10 12:45:31  5-MIN KDBQ 041845Z 32011G18KT 10SM BKN050 18/07 A3004 960 46 1600 320/11G18 RMK AO2
94908KDBQ DBQ20100904125011909/04/10 12:50:31  5-MIN KDBQ 041850Z 32009G18KT 10SM BKN050 17/07 A3004 970 49 1500 320/09G18 RMK AO2 SLP173 T01720067
94908KDBQ DBQ20100904125509609/04/10 12:55:31  5-MIN KDBQ 041855Z 32009KT 10SM SCT050 17/07 A3004 970 51 1500 320/09 RMK AO2
94908KDBQ DBQ20100904130009609/04/10 13:00:31  5-MIN KDBQ 041900Z 32011KT 10SM BKN050 17/07 A3004 970 51 1500 320/11 RMK AO2
94908KDBQ DBQ20100904130510209/04/10 13:05:31  5-MIN KDBQ 041905Z 33011G17KT 10SM BKN050 17/07 A3004 970 51 1400 330/11G17 RMK AO2
94908KDBQ DBQ20100904131009609/04/10 13:10:31  5-MIN KDBQ 041910Z 32010KT 10SM BKN050 17/06 A3004 970 49 1400 320/10 RMK AO2
94908KDBQ DBQ20100904131510209/04/10 13:15:31  5-MIN KDBQ 041915Z 34011G17KT 10SM SCT050 18/07 A3004 970 49 1600 340/11G17 RMK AO2
94908KDBQ DBQ20100904132010209/04/10 13:20:31  5-MIN KDBQ 041920Z 33009G17KT 10SM SCT050 18/07 A3004 970 49 1600 330/09G17 RMK AO2
94908KDBQ DBQ20100904132509609/04/10 13:25:31  5-MIN KDBQ 041925Z 33009KT 10SM SCT050 18/07 A3003 970 48 1600 330/09 RMK AO2
94908KDBQ DBQ20100904133009609/04/10 13:30:31  5-MIN KDBQ 041930Z 32009KT 10SM SCT050 17/07 A3003 980 49 1500 320/09 RMK AO2
94908KDBQ DBQ20100904133509609/04/10 13:35:31  5-MIN KDBQ 041935Z 30011KT 10SM BKN050 19/08 A3003 980 48 1700 300/11 RMK AO2
94908KDBQ DBQ20100904134009609/04/10 13:40:31  5-MIN KDBQ 041940Z 34012KT 10SM BKN050 18/07 A3003 980 48 1600 340/12 RMK AO2
94908KDBQ DBQ20100904134510209/04/10 13:45:31  5-MIN KDBQ 041945Z 29009G16KT 10SM SCT050 18/07 A3003 980 48 1600 290/09G16 RMK AO2
94908KDBQ DBQ20100904135011909/04/10 13:50:31  5-MIN KDBQ 041950Z 32013G19KT 10SM BKN055 19/07 A3003 980 44 1700 320/13G19 RMK AO2 SLP169 T01890067
94908KDBQ DBQ20100904135510209/04/10 13:55:31  5-MIN KDBQ 041955Z 29013G19KT 10SM BKN055 18/07 A3003 980 48 1600 290/13G19 RMK AO2
94908KDBQ DBQ20100904140009609/04/10 14:00:31  5-MIN KDBQ 042000Z 30011KT 10SM SCT055 18/07 A3003 980 46 1600 290/11 RMK AO2
94908KDBQ DBQ20100904140510209/04/10 14:05:31  5-MIN KDBQ 042005Z 29014G20KT 10SM FEW055 19/07 A3002 980 44 1700 290/14G20 RMK AO2
94908KDBQ DBQ20100904141010209/04/10 14:10:31  5-MIN KDBQ 042010Z 32013G20KT 10SM FEW060 18/07 A3002 980 46 1600 310/13G20 RMK AO2
94908KDBQ DBQ20100904141509609/04/10 14:15:31  5-MIN KDBQ 042015Z 30013KT 10SM FEW055 18/07 A3002 980 46 1600 300/13 RMK AO2
94908KDBQ DBQ20100904142010209/04/10 14:20:31  5-MIN KDBQ 042020Z 30013G20KT 10SM FEW060 18/07 A3002 990 48 1600 300/13G20 RMK AO2
94908KDBQ DBQ20100904142509609/04/10 14:25:31  5-MIN KDBQ 042025Z 31012KT 10SM FEW060 18/07 A3002 990 48 1600 310/12 RMK AO2
94908KDBQ DBQ20100904143009609/04/10 14:30:31  5-MIN KDBQ 042030Z 31011KT 10SM FEW060 18/07 A3002 990 49 1600 310/11 RMK AO2
94908KDBQ DBQ20100904143510909/04/10 14:35:31  5-MIN KDBQ 042035Z 30012G17KT 10SM FEW050 SCT060 19/07 A3002 990 46 1700 300/12G17 RMK AO2
94908KDBQ DBQ20100904144010209/04/10 14:40:31  5-MIN KDBQ 042040Z 29014G17KT 10SM SCT055 18/07 A3002 990 48 1600 290/14G17 RMK AO2
94908KDBQ DBQ20100904144509609/04/10 14:45:31  5-MIN KDBQ 042045Z 29009KT 10SM SCT055 18/07 A3001 990 48 1600 290/09 RMK AO2
94908KDBQ DBQ20100904145011909/04/10 14:50:31  5-MIN KDBQ 042050Z 31009KT 10SM SCT055 18/07 A3001 990 48 1700 300/09 RMK AO2 SLP164 T01830072 58003
94908KDBQ DBQ20100904145510309/04/10 14:55:31  5-MIN KDBQ 042055Z 31011G18KT 10SM SCT055 19/07 A3001 1000 46 1700 310/11G18 RMK AO2
94908KDBQ DBQ20100904150010309/04/10 15:00:31  5-MIN KDBQ 042100Z 33010G18KT 10SM SCT055 19/07 A3001 1000 46 1700 330/10G18 RMK AO2
94908KDBQ DBQ20100904150509709/04/10 15:05:31  5-MIN KDBQ 042105Z 33011KT 10SM SCT050 19/08 A3001 1000 46 1800 330/11 RMK AO2
94908KDBQ DBQ20100904151009709/04/10 15:10:31  5-MIN KDBQ 042110Z 29013KT 10SM SCT050 19/07 A3001 1000 46 1700 290/13 RMK AO2
94908KDBQ DBQ20100904151510309/04/10 15:15:31  5-MIN KDBQ 042115Z 32012G18KT 10SM SCT055 19/07 A3000 1000 44 1800 320/12G18 RMK AO2
94908KDBQ DBQ20100904152010309/04/10 15:20:31  5-MIN KDBQ 042120Z 30012G18KT 10SM SCT050 19/07 A3000 1000 44 1700 300/12G18 RMK AO2
94908KDBQ DBQ20100904152509709/04/10 15:25:31  5-MIN KDBQ 042125Z 30014KT 10SM SCT055 19/07 A3000 1000 44 1700 300/14 RMK AO2
94908KDBQ DBQ20100904153010309/04/10 15:30:31  5-MIN KDBQ 042130Z 30010G19KT 10SM SCT055 18/06 A3000 1000 44 1700 300/10G19 RMK AO2
94908KDBQ DBQ20100904153510309/04/10 15:35:31  5-MIN KDBQ 042135Z 32012G18KT 10SM SCT055 18/07 A3000 1000 48 1700 320/12G18 RMK AO2
94908KDBQ DBQ20100904154009709/04/10 15:40:31  5-MIN KDBQ 042140Z 31012KT 10SM SCT055 18/07 A3000 1000 46 1700 310/12 RMK AO2
94908KDBQ DBQ20100904154509709/04/10 15:45:31  5-MIN KDBQ 042145Z 30010KT 10SM FEW055 18/07 A3000 1000 46 1700 300/10 RMK AO2
94908KDBQ DBQ20100904155011409/04/10 15:50:31  5-MIN KDBQ 042150Z 31012KT 10SM FEW055 18/07 A3000 1000 46 1700 310/12 RMK AO2 SLP160 T01830067
94908KDBQ DBQ20100904155509709/04/10 15:55:31  5-MIN KDBQ 042155Z 30013KT 10SM FEW055 18/07 A3000 1010 46 1700 300/13 RMK AO2
94908KDBQ DBQ20100904160009709/04/10 16:00:31  5-MIN KDBQ 042200Z 30009KT 10SM FEW055 19/07 A3000 1010 46 1700 300/09 RMK AO2
94908KDBQ DBQ20100904160509709/04/10 16:05:31  5-MIN KDBQ 042205Z 30013KT 10SM FEW050 19/07 A2999 1010 46 1700 300/13 RMK AO2
94908KDBQ DBQ20100904161010309/04/10 16:10:31  5-MIN KDBQ 042210Z 32007G16KT 10SM SCT055 19/07 A2999 1010 46 1700 320/07G16 RMK AO2
94908KDBQ DBQ20100904161510309/04/10 16:15:31  5-MIN KDBQ 042215Z 30009G14KT 10SM BKN055 19/07 A2999 1010 46 1700 300/09G14 RMK AO2
94908KDBQ DBQ20100904162010309/04/10 16:20:31  5-MIN KDBQ 042220Z 29013G16KT 10SM BKN055 18/06 A2999 1010 44 1700 290/13G16 RMK AO2
94908KDBQ DBQ20100904162509709/04/10 16:25:31  5-MIN KDBQ 042225Z 30010KT 10SM BKN055 18/07 A2999 1010 46 1700 300/10 RMK AO2
94908KDBQ DBQ20100904163009709/04/10 16:30:31  5-MIN KDBQ 042230Z 30010KT 10SM BKN055 19/07 A2999 1010 44 1700 300/10 RMK AO2
94908KDBQ DBQ20100904163509709/04/10 16:35:31  5-MIN KDBQ 042235Z 30009KT 10SM BKN055 18/07 A2999 1010 46 1700 300/09 RMK AO2
94908KDBQ DBQ20100904164009709/04/10 16:40:31  5-MIN KDBQ 042240Z 32009KT 10SM BKN055 18/07 A2999 1010 48 1700 320/09 RMK AO2
94908KDBQ DBQ20100904164509709/04/10 16:45:31  5-MIN KDBQ 042245Z 32008KT 10SM SCT055 18/07 A2999 1010 48 1700 320/08 RMK AO2
94908KDBQ DBQ20100904165011409/04/10 16:50:31  5-MIN KDBQ 042250Z 33009KT 10SM FEW055 18/07 A2999 1010 48 1700 330/09 RMK AO2 SLP157 T01830072
94908KDBQ DBQ20100904165509709/04/10 16:55:31  5-MIN KDBQ 042255Z 32008KT 10SM FEW055 18/07 A2999 1010 48 1700 320/08 RMK AO2
94908KDBQ DBQ20100904170009709/04/10 17:00:31  5-MIN KDBQ 042300Z 32008KT 10SM FEW055 18/07 A2999 1020 48 1700 320/08 RMK AO2
94908KDBQ DBQ20100904170509709/04/10 17:05:31  5-MIN KDBQ 042305Z 33008KT 10SM FEW055 18/07 A2999 1020 49 1600 330/08 RMK AO2
94908KDBQ DBQ20100904171009409/04/10 17:10:31  5-MIN KDBQ 042310Z 32007KT 10SM CLR 18/07 A2999 1020 49 1600 320/07 RMK AO2
94908KDBQ DBQ20100904171509409/04/10 17:15:31  5-MIN KDBQ 042315Z 32007KT 10SM CLR 18/08 A2998 1020 51 1600 320/07 RMK AO2
94908KDBQ DBQ20100904172009409/04/10 17:20:31  5-MIN KDBQ 042320Z 33007KT 10SM CLR 18/07 A2998 1020 49 1600 330/07 RMK AO2
94908KDBQ DBQ20100904172509409/04/10 17:25:31  5-MIN KDBQ 042325Z 32007KT 10SM CLR 18/07 A2998 1020 49 1600 320/07 RMK AO2
94908KDBQ DBQ20100904173009409/04/10 17:30:31  5-MIN KDBQ 042330Z 31005KT 10SM CLR 17/08 A2998 1020 53 1600 310/05 RMK AO2
94908KDBQ DBQ20100904173509409/04/10 17:35:31  5-MIN KDBQ 042335Z 32004KT 10SM CLR 17/08 A2998 1030 53 1600 320/04 RMK AO2
94908KDBQ DBQ20100904174009409/04/10 17:40:31  5-MIN KDBQ 042340Z 31004KT 10SM CLR 17/08 A2998 1030 55 1600 310/04 RMK AO2
94908KDBQ DBQ20100904174509409/04/10 17:45:31  5-MIN KDBQ 042345Z 31003KT 10SM CLR 17/08 A2998 1030 55 1600 310/03 RMK AO2
94908KDBQ DBQ20100904175012909/04/10 17:50:31  5-MIN KDBQ 042350Z 32004KT 10SM CLR 17/09 A2998 1030 57 1600 320/04 RMK AO2 SLP153 T01720089 10194 20167 57016
94908KDBQ DBQ20100904175509409/04/10 17:55:31  5-MIN KDBQ 042355Z 32004KT 10SM CLR 17/09 A2998 1030 60 1500 320/04 RMK AO2
94908KDBQ DBQ20100904180009409/04/10 18:00:31  5-MIN KDBQ 050000Z 32004KT 10SM CLR 16/09 A2998 1030 62 1400 320/04 RMK AO2
94908KDBQ DBQ20100904180509409/04/10 18:05:31  5-MIN KDBQ 050005Z 32004KT 10SM CLR 16/09 A2998 1030 62 1400 320/04 RMK AO2
94908KDBQ DBQ20100904181009409/04/10 18:10:31  5-MIN KDBQ 050010Z 32003KT 10SM CLR 16/09 A2998 1030 64 1400 320/03 RMK AO2
94908KDBQ DBQ20100904181509409/04/10 18:15:31  5-MIN KDBQ 050015Z 32003KT 10SM CLR 16/09 A2997 1030 62 1400 320/03 RMK AO2
94908KDBQ DBQ20100904182009409/04/10 18:20:31  5-MIN KDBQ 050020Z 32003KT 10SM CLR 16/08 A2998 1030 62 1400 320/03 RMK AO2
94908KDBQ DBQ20100904182509409/04/10 18:25:31  5-MIN KDBQ 050025Z 31003KT 10SM CLR 16/09 A2997 1030 64 1400 310/03 RMK AO2
94908KDBQ DBQ20100904183009409/04/10 18:30:31  5-MIN KDBQ 050030Z 00000KT 10SM CLR 15/09 A2998 1030 66 1300 000/00 RMK AO2
94908KDBQ DBQ20100904183509409/04/10 18:35:31  5-MIN KDBQ 050035Z 00000KT 10SM CLR 14/09 A2998 1030 72 1200 000/00 RMK AO2
94908KDBQ DBQ20100904184009409/04/10 18:40:31  5-MIN KDBQ 050040Z 00000KT 10SM CLR 14/09 A2998 1030 72 1200 000/00 RMK AO2
94908KDBQ DBQ20100904184509409/04/10 18:45:31  5-MIN KDBQ 050045Z 28003KT 10SM CLR 14/09 A2998 1030 72 1200 280/03 RMK AO2
94908KDBQ DBQ20100904185011109/04/10 18:50:31  5-MIN KDBQ 050050Z 00000KT 10SM CLR 14/09 A2998 1030 74 1200 000/00 RMK AO2 SLP153 T01390094
94908KDBQ DBQ20100904185509909/04/10 18:55:31  5-MIN KDBQ 050055Z AUTO 00000KT 10SM CLR 14/09 A2998 1020 71 1200 000/00 RMK AO2
94908KDBQ DBQ20100904190009909/04/10 19:00:31  5-MIN KDBQ 050100Z AUTO 00000KT 10SM CLR 14/09 A2998 1020 71 1200 000/00 RMK AO2
94908KDBQ DBQ20100904190509909/04/10 19:05:31  5-MIN KDBQ 050105Z AUTO 00000KT 10SM CLR 14/09 A2998 1020 71 1200 000/00 RMK AO2
94908KDBQ DBQ20100904191009909/04/10 19:10:31  5-MIN KDBQ 050110Z AUTO 00000KT 10SM CLR 13/09 A2998 1020 74 1100 000/00 RMK AO2
94908KDBQ DBQ20100904191509909/04/10 19:15:31  5-MIN KDBQ 050115Z AUTO 00000KT 10SM CLR 12/09 A2998 1020 83 1000 000/00 RMK AO2
94908KDBQ DBQ20100904192009909/04/10 19:20:31  5-MIN KDBQ 050120Z AUTO 00000KT 10SM CLR 12/09 A2998 1020 83 1000 000/00 RMK AO2
94908KDBQ DBQ20100904192509809/04/10 19:25:31  5-MIN KDBQ 050125Z AUTO 00000KT 10SM CLR 12/09 A2998 1020 86 900 000/00 RMK AO2
94908KDBQ DBQ20100904193009809/04/10 19:30:31  5-MIN KDBQ 050130Z AUTO 00000KT 10SM CLR 12/09 A2998 1020 86 900 000/00 RMK AO2
94908KDBQ DBQ20100904193509809/04/10 19:35:31  5-MIN KDBQ 050135Z AUTO 00000KT 10SM CLR 12/09 A2999 1020 86 900 000/00 RMK AO2
94908KDBQ DBQ20100904194009809/04/10 19:40:31  5-MIN KDBQ 050140Z AUTO 00000KT 10SM CLR 11/09 A2999 1020 89 800 000/00 RMK AO2
94908KDBQ DBQ20100904194509809/04/10 19:45:31  5-MIN KDBQ 050145Z AUTO 00000KT 10SM CLR 12/09 A2999 1020 86 900 000/00 RMK AO2
94908KDBQ DBQ20100904195011509/04/10 19:50:31  5-MIN KDBQ 050150Z AUTO 00000KT 10SM CLR 11/09 A2999 1010 89 800 000/00 RMK AO2 SLP157 T01110094
94908KDBQ DBQ20100904195509809/04/10 19:55:31  5-MIN KDBQ 050155Z AUTO 00000KT 10SM CLR 11/09 A2999 1010 86 800 000/00 RMK AO2
94908KDBQ DBQ20100904200009809/04/10 20:00:31  5-MIN KDBQ 050200Z AUTO 00000KT 10SM CLR 11/09 A2999 1010 86 800 000/00 RMK AO2
94908KDBQ DBQ20100904200509809/04/10 20:05:31  5-MIN KDBQ 050205Z AUTO 00000KT 10SM CLR 12/09 A3000 1010 83 900 000/00 RMK AO2
94908KDBQ DBQ20100904201009809/04/10 20:10:31  5-MIN KDBQ 050210Z AUTO 00000KT 10SM CLR 12/09 A3000 1010 86 900 000/00 RMK AO2
94908KDBQ DBQ20100904201509809/04/10 20:15:31  5-MIN KDBQ 050215Z AUTO 00000KT 10SM CLR 12/09 A3000 1010 83 900 000/00 RMK AO2
94908KDBQ DBQ20100904202009809/04/10 20:20:31  5-MIN KDBQ 050220Z AUTO 00000KT 10SM CLR 11/09 A3000 1010 86 800 000/00 RMK AO2
94908KDBQ DBQ20100904202509809/04/10 20:25:31  5-MIN KDBQ 050225Z AUTO 00000KT 10SM CLR 11/09 A3000 1000 86 800 000/00 RMK AO2
94908KDBQ DBQ20100904203009809/04/10 20:30:31  5-MIN KDBQ 050230Z AUTO 00000KT 10SM CLR 11/09 A3000 1000 89 800 000/00 RMK AO2
94908KDBQ DBQ20100904203509809/04/10 20:35:31  5-MIN KDBQ 050235Z AUTO 00000KT 10SM CLR 11/09 A3000 1000 89 700 000/00 RMK AO2
94908KDBQ DBQ20100904204009809/04/10 20:40:31  5-MIN KDBQ 050240Z AUTO 00000KT 10SM CLR 11/09 A3000 1000 89 700 000/00 RMK AO2
94908KDBQ DBQ20100904204509809/04/10 20:45:31  5-MIN KDBQ 050245Z AUTO 00000KT 10SM CLR 11/08 A3000 1000 86 700 000/00 RMK AO2
94908KDBQ DBQ20100904205012109/04/10 20:50:31  5-MIN KDBQ 050250Z AUTO 00000KT 10SM CLR 11/08 A3000 1000 83 800 000/00 RMK AO2 SLP162 T01110083 58010
94908KDBQ DBQ20100904205509809/04/10 20:55:31  5-MIN KDBQ 050255Z AUTO 00000KT 10SM CLR 11/08 A3000 1000 86 700 000/00 RMK AO2
94908KDBQ DBQ20100904210009809/04/10 21:00:31  5-MIN KDBQ 050300Z AUTO 00000KT 10SM CLR 11/08 A3001 1000 86 700 000/00 RMK AO2
94908KDBQ DBQ20100904210509809/04/10 21:05:31  5-MIN KDBQ 050305Z AUTO 00000KT 10SM CLR 10/08 A3000 1000 89 700 000/00 RMK AO2
94908KDBQ DBQ20100904211009809/04/10 21:10:31  5-MIN KDBQ 050310Z AUTO 00000KT 10SM CLR 10/08 A3000 1000 89 700 000/00 RMK AO2
94908KDBQ DBQ20100904211509809/04/10 21:15:31  5-MIN KDBQ 050315Z AUTO 00000KT 10SM CLR 10/08 A3001 1000 89 700 000/00 RMK AO2
94908KDBQ DBQ20100904212009809/04/10 21:20:31  5-MIN KDBQ 050320Z AUTO 00000KT 10SM CLR 10/08 A3001 1000 89 700 000/00 RMK AO2
94908KDBQ DBQ20100904212509809/04/10 21:25:31  5-MIN KDBQ 050325Z AUTO 00000KT 10SM CLR 10/08 A3001 1000 89 700 000/00 RMK AO2
94908KDBQ DBQ20100904213009809/04/10 21:30:31  5-MIN KDBQ 050330Z AUTO 00000KT 10SM CLR 10/08 A3001 1000 89 700 000/00 RMK AO2
94908KDBQ DBQ20100904213509809/04/10 21:35:31  5-MIN KDBQ 050335Z AUTO 00000KT 10SM CLR 10/08 A3001 1000 89 700 000/00 RMK AO2
94908KDBQ DBQ20100904214009809/04/10 21:40:31  5-MIN KDBQ 050340Z AUTO 00000KT 10SM CLR 10/08 A3001 1000 89 700 000/00 RMK AO2
94908KDBQ DBQ20100904214509809/04/10 21:45:31  5-MIN KDBQ 050345Z AUTO 00000KT 10SM CLR 10/08 A3001 1000 89 700 000/00 RMK AO2
94908KDBQ DBQ20100904215011509/04/10 21:50:31  5-MIN KDBQ 050350Z AUTO 00000KT 10SM CLR 10/08 A3001 1000 86 700 000/00 RMK AO2 SLP164 T01000078
94908KDBQ DBQ20100904215509809/04/10 21:55:31  5-MIN KDBQ 050355Z AUTO 00000KT 10SM CLR 10/08 A3001 1000 89 700 000/00 RMK AO2
94908KDBQ DBQ20100904220009809/04/10 22:00:31  5-MIN KDBQ 050400Z AUTO 00000KT 10SM CLR 10/08 A3001 1000 89 700 000/00 RMK AO2
94908KDBQ DBQ20100904220509709/04/10 22:05:31  5-MIN KDBQ 050405Z AUTO 00000KT 10SM CLR 10/08 A3001 990 89 700 000/00 RMK AO2
94908KDBQ DBQ20100904221009709/04/10 22:10:31  5-MIN KDBQ 050410Z AUTO 00000KT 10SM CLR 10/08 A3001 990 89 700 000/00 RMK AO2
94908KDBQ DBQ20100904221509709/04/10 22:15:31  5-MIN KDBQ 050415Z AUTO 00000KT 10SM CLR 10/08 A3001 990 89 700 000/00 RMK AO2
94908KDBQ DBQ20100904222009709/04/10 22:20:31  5-MIN KDBQ 050420Z AUTO 00000KT 10SM CLR 10/08 A3001 990 86 700 000/00 RMK AO2
94908KDBQ DBQ20100904222509709/04/10 22:25:31  5-MIN KDBQ 050425Z AUTO 00000KT 10SM CLR 10/08 A3001 990 86 700 000/00 RMK AO2
94908KDBQ DBQ20100904223009709/04/10 22:30:31  5-MIN KDBQ 050430Z AUTO 00000KT 10SM CLR 10/08 A3001 990 86 700 000/00 RMK AO2
94908KDBQ DBQ20100904223509709/04/10 22:35:31  5-MIN KDBQ 050435Z AUTO 00000KT 10SM CLR 10/08 A3001 990 86 700 000/00 RMK AO2
94908KDBQ DBQ20100904224009709/04/10 22:40:31  5-MIN KDBQ 050440Z AUTO 00000KT 10SM CLR 10/08 A3001 990 86 700 000/00 RMK AO2
94908KDBQ DBQ20100904224509709/04/10 22:45:31  5-MIN KDBQ 050445Z AUTO 00000KT 10SM CLR 10/08 A3001 990 86 700 000/00 RMK AO2
94908KDBQ DBQ20100904225011409/04/10 22:50:31  5-MIN KDBQ 050450Z AUTO 00000KT 10SM CLR 10/08 A3001 990 86 700 000/00 RMK AO2 SLP165 T01000078
94908KDBQ DBQ20100905013009809/05/10 01:30:31  5-MIN KDBQ 050730Z AUTO 00000KT 10SM CLR 08/07 A3000 1000 93 500 000/00 RMK AO2
94908KDBQ DBQ20100905013509809/05/10 01:35:31  5-MIN KDBQ 050735Z AUTO 00000KT 10SM CLR 08/07 A3000 1000 93 500 000/00 RMK AO2
94908KDBQ DBQ20100905014009809/05/10 01:40:31  5-MIN KDBQ 050740Z AUTO 00000KT 10SM CLR 09/07 A3000 1000 89 600 000/00 RMK AO2
94908KDBQ DBQ20100905014509809/05/10 01:45:31  5-MIN KDBQ 050745Z AUTO 00000KT 10SM CLR 09/07 A3000 1010 89 600 000/00 RMK AO2
94908KDBQ DBQ20100905015011509/05/10 01:50:31  5-MIN KDBQ 050750Z AUTO 00000KT 10SM CLR 09/07 A3000 1000 89 600 000/00 RMK AO2 SLP160 T00890072
94908KDBQ DBQ20100905015509809/05/10 01:55:31  5-MIN KDBQ 050755Z AUTO 00000KT 10SM CLR 09/07 A3000 1010 89 600 000/00 RMK AO2
94908KDBQ DBQ20100905020009809/05/10 02:00:31  5-MIN KDBQ 050800Z AUTO 00000KT 10SM CLR 09/07 A3000 1000 89 600 000/00 RMK AO2
94908KDBQ DBQ20100905020509809/05/10 02:05:31  5-MIN KDBQ 050805Z AUTO 00000KT 10SM CLR 09/07 A3000 1010 89 600 000/00 RMK AO2
94908KDBQ DBQ20100905021009809/05/10 02:10:31  5-MIN KDBQ 050810Z AUTO 00000KT 10SM CLR 08/07 A3000 1010 93 500 000/00 RMK AO2
94908KDBQ DBQ20100905021509809/05/10 02:15:31  5-MIN KDBQ 050815Z AUTO 00000KT 10SM CLR 08/07 A3000 1010 93 500 000/00 RMK AO2
94908KDBQ DBQ20100905022009809/05/10 02:20:31  5-MIN KDBQ 050820Z AUTO 00000KT 10SM CLR 08/07 A3000 1010 93 500 000/00 RMK AO2
94908KDBQ DBQ20100905022509809/05/10 02:25:31  5-MIN KDBQ 050825Z AUTO 00000KT 10SM CLR 09/07 A3000 1010 89 600 000/00 RMK AO2
94908KDBQ DBQ20100905023009809/05/10 02:30:31  5-MIN KDBQ 050830Z AUTO 00000KT 10SM CLR 09/07 A3000 1010 89 600 000/00 RMK AO2
94908KDBQ DBQ20100905023509809/05/10 02:35:31  5-MIN KDBQ 050835Z AUTO 00000KT 10SM CLR 08/07 A3000 1010 93 500 000/00 RMK AO2
94908KDBQ DBQ20100905024009809/05/10 02:40:31  5-MIN KDBQ 050840Z AUTO 00000KT 10SM CLR 08/07 A3000 1010 89 500 000/00 RMK AO2
94908KDBQ DBQ20100905024509809/05/10 02:45:31  5-MIN KDBQ 050845Z AUTO 00000KT 10SM CLR 09/07 A2999 1010 89 600 000/00 RMK AO2
94908KDBQ DBQ20100905025012109/05/10 02:50:31  5-MIN KDBQ 050850Z AUTO 00000KT 10SM CLR 09/07 A2999 1010 89 600 000/00 RMK AO2 SLP158 T00890072 50003
94908KDBQ DBQ20100905025509809/05/10 02:55:31  5-MIN KDBQ 050855Z AUTO 00000KT 10SM CLR 09/07 A2999 1010 89 600 000/00 RMK AO2
94908KDBQ DBQ20100905030009809/05/10 03:00:31  5-MIN KDBQ 050900Z AUTO 00000KT 10SM CLR 09/07 A2999 1010 89 600 000/00 RMK AO2
94908KDBQ DBQ20100905030509809/05/10 03:05:31  5-MIN KDBQ 050905Z AUTO 00000KT 10SM CLR 09/07 A2999 1010 89 600 000/00 RMK AO2
94908KDBQ DBQ20100905031009809/05/10 03:10:31  5-MIN KDBQ 050910Z AUTO 00000KT 10SM CLR 09/07 A2999 1020 89 600 000/00 RMK AO2
94908KDBQ DBQ20100905031509809/05/10 03:15:31  5-MIN KDBQ 050915Z AUTO 00000KT 10SM CLR 09/07 A2999 1020 89 600 000/00 RMK AO2
94908KDBQ DBQ20100905032009809/05/10 03:20:31  5-MIN KDBQ 050920Z AUTO 00000KT 10SM CLR 09/07 A2999 1020 89 600 000/00 RMK AO2
94908KDBQ DBQ20100905032509809/05/10 03:25:31  5-MIN KDBQ 050925Z AUTO 00000KT 10SM CLR 09/07 A2999 1020 89 600 000/00 RMK AO2
94908KDBQ DBQ20100905033009809/05/10 03:30:31  5-MIN KDBQ 050930Z AUTO 00000KT 10SM CLR 09/07 A2999 1020 89 600 000/00 RMK AO2
94908KDBQ DBQ20100905033509809/05/10 03:35:31  5-MIN KDBQ 050935Z AUTO 00000KT 10SM CLR 09/07 A2999 1020 89 600 000/00 RMK AO2
94908KDBQ DBQ20100905034009809/05/10 03:40:31  5-MIN KDBQ 050940Z AUTO 00000KT 10SM CLR 09/07 A2999 1020 89 600 000/00 RMK AO2
94908KDBQ DBQ20100905034509809/05/10 03:45:31  5-MIN KDBQ 050945Z AUTO 00000KT 10SM CLR 09/07 A2999 1020 89 600 000/00 RMK AO2
94908KDBQ DBQ20100905035011509/05/10 03:50:31  5-MIN KDBQ 050950Z AUTO 00000KT 10SM CLR 09/07 A2999 1020 86 600 000/00 RMK AO2 SLP156 T00890067
94908KDBQ DBQ20100905035509809/05/10 03:55:31  5-MIN KDBQ 050955Z AUTO 00000KT 10SM CLR 09/07 A2999 1020 86 600 000/00 RMK AO2
94908KDBQ DBQ20100905040009809/05/10 04:00:31  5-MIN KDBQ 051000Z AUTO 00000KT 10SM CLR 08/07 A2999 1020 93 500 000/00 RMK AO2
94908KDBQ DBQ20100905040509809/05/10 04:05:31  5-MIN KDBQ 051005Z AUTO 00000KT 10SM CLR 08/07 A2999 1020 93 500 000/00 RMK AO2
94908KDBQ DBQ20100905041009809/05/10 04:10:31  5-MIN KDBQ 051010Z AUTO 00000KT 10SM CLR 08/07 A2999 1020 89 500 000/00 RMK AO2
94908KDBQ DBQ20100905041509809/05/10 04:15:31  5-MIN KDBQ 051015Z AUTO 00000KT 10SM CLR 08/07 A2999 1020 89 500 000/00 RMK AO2
94908KDBQ DBQ20100905042009809/05/10 04:20:31  5-MIN KDBQ 051020Z AUTO 00000KT 10SM CLR 08/07 A2998 1020 89 500 000/00 RMK AO2
94908KDBQ DBQ20100905042509809/05/10 04:25:31  5-MIN KDBQ 051025Z AUTO 00000KT 10SM CLR 08/07 A2998 1020 89 500 000/00 RMK AO2
94908KDBQ DBQ20100905043010109/05/10 04:30:31  5-MIN KDBQ 051030Z AUTO 00000KT 10SM FEW075 08/07 A2998 1020 89 500 000/00 RMK AO2
94908KDBQ DBQ20100905043510109/05/10 04:35:31  5-MIN KDBQ 051035Z AUTO 00000KT 10SM BKN075 09/07 A2998 1020 89 600 000/00 RMK AO2
94908KDBQ DBQ20100905044010109/05/10 04:40:31  5-MIN KDBQ 051040Z AUTO 00000KT 10SM BKN080 09/08 A2998 1020 89 600 000/00 RMK AO2
94908KDBQ DBQ20100905044510109/05/10 04:45:31  5-MIN KDBQ 051045Z AUTO 00000KT 10SM BKN075 09/08 A2998 1020 89 600 000/00 RMK AO2
94908KDBQ DBQ20100905045012009/05/10 04:50:31  5-MIN KDBQ 051050Z 00000KT 10SM BKN070 OVC085 09/08 A2998 1020 93 600 000/00 RMK AO2 SLP154 T00940083
94908KDBQ DBQ20100905045510309/05/10 04:55:31  5-MIN KDBQ 051055Z 00000KT 10SM BKN070 OVC085 10/08 A2998 1020 89 700 000/00 RMK AO2
94908KDBQ DBQ20100905050010309/05/10 05:00:31  5-MIN KDBQ 051100Z 00000KT 10SM BKN065 OVC080 10/09 A2998 1020 93 700 000/00 RMK AO2
94908KDBQ DBQ20100905050510309/05/10 05:05:31  5-MIN KDBQ 051105Z 00000KT 10SM BKN065 OVC080 10/09 A2998 1020 93 700 000/00 RMK AO2
94908KDBQ DBQ20100905051009609/05/10 05:10:31  5-MIN KDBQ 051110Z 00000KT 10SM OVC065 10/09 A2998 1020 93 700 000/00 RMK AO2
94908KDBQ DBQ20100905051509609/05/10 05:15:31  5-MIN KDBQ 051115Z 00000KT 10SM OVC065 11/09 A2998 1020 89 800 000/00 RMK AO2
94908KDBQ DBQ20100905052009609/05/10 05:20:31  5-MIN KDBQ 051120Z 00000KT 10SM OVC065 11/09 A2999 1020 89 800 000/00 RMK AO2
94908KDBQ DBQ20100905052509609/05/10 05:25:31  5-MIN KDBQ 051125Z 00000KT 10SM OVC065 11/09 A2999 1020 89 800 000/00 RMK AO2
94908KDBQ DBQ20100905053009609/05/10 05:30:31  5-MIN KDBQ 051130Z 19003KT 10SM OVC065 11/09 A2999 1020 89 800 190/03 RMK AO2
94908KDBQ DBQ20100905053509609/05/10 05:35:31  5-MIN KDBQ 051135Z 00000KT 10SM OVC065 10/09 A2999 1010 93 700 000/00 RMK AO2
94908KDBQ DBQ20100905054009609/05/10 05:40:31  5-MIN KDBQ 051140Z 00000KT 10SM OVC060 11/09 A2999 1010 89 800 000/00 RMK AO2
94908KDBQ DBQ20100905054509609/05/10 05:45:31  5-MIN KDBQ 051145Z 00000KT 10SM OVC060 11/09 A2999 1010 89 800 000/00 RMK AO2
94908KDBQ DBQ20100905055013109/05/10 05:50:31  5-MIN KDBQ 051150Z 00000KT 10SM OVC060 11/09 A2999 1010 89 800 000/00 RMK AO2 SLP156 T01110094 10111 20083 57006
94908KDBQ DBQ20100905055510309/05/10 05:55:31  5-MIN KDBQ 051155Z 00000KT 10SM BKN060 OVC075 11/09 A2999 1010 89 800 000/00 RMK AO2
94908KDBQ DBQ20100905060009609/05/10 06:00:31  5-MIN KDBQ 051200Z 19003KT 10SM OVC065 11/09 A2999 1010 89 800 190/03 RMK AO2
94908KDBQ DBQ20100905060509609/05/10 06:05:31  5-MIN KDBQ 051205Z 00000KT 10SM OVC070 11/09 A2999 1010 93 800 000/00 RMK AO2
94908KDBQ DBQ20100905061009609/05/10 06:10:31  5-MIN KDBQ 051210Z 00000KT 10SM OVC065 11/09 A3000 1010 89 800 000/00 RMK AO2
94908KDBQ DBQ20100905061509609/05/10 06:15:31  5-MIN KDBQ 051215Z 00000KT 10SM OVC065 11/09 A3000 1010 93 800 000/00 RMK AO2
94908KDBQ DBQ20100905062009609/05/10 06:20:31  5-MIN KDBQ 051220Z 00000KT 10SM OVC065 11/10 A3000 1010 93 800 000/00 RMK AO2
94908KDBQ DBQ20100905062509609/05/10 06:25:31  5-MIN KDBQ 051225Z 00000KT 10SM OVC065 12/10 A3000 1010 89 900 000/00 RMK AO2
94908KDBQ DBQ20100905063009609/05/10 06:30:31  5-MIN KDBQ 051230Z 00000KT 10SM OVC065 12/10 A3000 1010 89 900 000/00 RMK AO2
94908KDBQ DBQ20100905063510409/05/10 06:35:31  5-MIN KDBQ 051235Z 17003KT 10SM BKN065 OVC090 12/10 A3000 1010 86 1000 170/03 RMK AO2
94908KDBQ DBQ20100905064010409/05/10 06:40:31  5-MIN KDBQ 051240Z 15003KT 10SM BKN065 OVC090 12/10 A2999 1010 86 1000 150/03 RMK AO2
94908KDBQ DBQ20100905064510409/05/10 06:45:31  5-MIN KDBQ 051245Z 00000KT 10SM BKN065 OVC090 12/10 A2999 1010 86 1000 000/00 RMK AO2
94908KDBQ DBQ20100905065012109/05/10 06:50:31  5-MIN KDBQ 051250Z 00000KT 10SM SCT070 OVC090 13/10 A2999 1010 83 1000 000/00 RMK AO2 SLP157 T01280100
94908KDBQ DBQ20100905065510409/05/10 06:55:31  5-MIN KDBQ 051255Z 00000KT 10SM SCT070 OVC090 13/10 A2999 1020 83 1000 000/00 RMK AO2
94908KDBQ DBQ20100905070010409/05/10 07:00:31  5-MIN KDBQ 051300Z 00000KT 10SM FEW070 OVC090 13/10 A2999 1020 83 1000 000/00 RMK AO2
94908KDBQ DBQ20100905070510409/05/10 07:05:31  5-MIN KDBQ 051305Z 00000KT 10SM FEW070 OVC095 13/11 A2999 1010 83 1100 000/00 RMK AO2
94908KDBQ DBQ20100905071010409/05/10 07:10:31  5-MIN KDBQ 051310Z 19003KT 10SM FEW070 OVC100 13/11 A2999 1010 83 1100 190/03 RMK AO2
94908KDBQ DBQ20100905071509709/05/10 07:15:31  5-MIN KDBQ 051315Z 19004KT 10SM OVC095 13/11 A2999 1010 83 1100 190/04 RMK AO2
94908KDBQ DBQ20100905072009709/05/10 07:20:31  5-MIN KDBQ 051320Z 19004KT 10SM OVC095 13/11 A2999 1010 83 1100 190/04 RMK AO2
94908KDBQ DBQ20100905072509709/05/10 07:25:31  5-MIN KDBQ 051325Z 19004KT 10SM OVC095 13/11 A2999 1010 83 1100 190/04 RMK AO2
94908KDBQ DBQ20100905073009709/05/10 07:30:31  5-MIN KDBQ 051330Z 19004KT 10SM OVC100 14/11 A2999 1010 80 1200 190/04 RMK AO2
94908KDBQ DBQ20100905073509709/05/10 07:35:31  5-MIN KDBQ 051335Z 19004KT 10SM OVC100 14/11 A2999 1010 83 1200 190/04 RMK AO2
94908KDBQ DBQ20100905074009709/05/10 07:40:31  5-MIN KDBQ 051340Z 18004KT 10SM OVC100 14/11 A2999 1010 83 1200 180/04 RMK AO2
94908KDBQ DBQ20100905074509709/05/10 07:45:31  5-MIN KDBQ 051345Z 17004KT 10SM OVC100 14/11 A2999 1020 80 1200 170/04 RMK AO2
94908KDBQ DBQ20100905075011409/05/10 07:50:31  5-MIN KDBQ 051350Z 17004KT 10SM OVC100 14/11 A2999 1020 80 1200 170/04 RMK AO2 SLP156 T01440111
94908KDBQ DBQ20100905075509709/05/10 07:55:31  5-MIN KDBQ 051355Z 18006KT 10SM OVC110 14/11 A2999 1020 80 1200 180/06 RMK AO2
94908KDBQ DBQ20100905080009709/05/10 08:00:31  5-MIN KDBQ 051400Z 18006KT 10SM OVC110 14/11 A2999 1020 80 1200 180/06 RMK AO2
94908KDBQ DBQ20100905080509709/05/10 08:05:31  5-MIN KDBQ 051405Z 18005KT 10SM OVC110 15/11 A2999 1020 74 1300 170/05 RMK AO2
94908KDBQ DBQ20100905081009709/05/10 08:10:31  5-MIN KDBQ 051410Z 17006KT 10SM OVC110 15/11 A2999 1020 77 1300 170/06 RMK AO2
94908KDBQ DBQ20100905081509709/05/10 08:15:31  5-MIN KDBQ 051415Z 17006KT 10SM OVC110 15/11 A2999 1020 74 1300 170/06 RMK AO2
94908KDBQ DBQ20100905082009709/05/10 08:20:31  5-MIN KDBQ 051420Z 18008KT 10SM OVC110 16/11 A2998 1020 72 1400 170/08 RMK AO2
94908KDBQ DBQ20100905082509709/05/10 08:25:31  5-MIN KDBQ 051425Z 18006KT 10SM OVC110 15/11 A2998 1020 74 1300 180/06 RMK AO2
94908KDBQ DBQ20100905083009709/05/10 08:30:31  5-MIN KDBQ 051430Z 18008KT 10SM OVC110 16/11 A2998 1020 74 1400 180/08 RMK AO2
94908KDBQ DBQ20100905083509709/05/10 08:35:31  5-MIN KDBQ 051435Z 18007KT 10SM BKN110 16/11 A2998 1020 69 1400 180/07 RMK AO2
94908KDBQ DBQ20100905084009709/05/10 08:40:31  5-MIN KDBQ 051440Z 17008KT 10SM BKN110 16/11 A2998 1020 69 1400 170/08 RMK AO2
94908KDBQ DBQ20100905084509709/05/10 08:45:31  5-MIN KDBQ 051445Z 17009KT 10SM BKN110 17/11 A2998 1020 69 1500 170/09 RMK AO2
94908KDBQ DBQ20100905085012009/05/10 08:50:31  5-MIN KDBQ 051450Z 18007KT 10SM BKN110 17/11 A2998 1020 69 1500 170/07 RMK AO2 SLP154 T01670111 55001
94908KDBQ DBQ20100905085509709/05/10 08:55:31  5-MIN KDBQ 051455Z 17009KT 10SM BKN110 17/11 A2998 1020 69 1500 170/09 RMK AO2
94908KDBQ DBQ20100905090009709/05/10 09:00:31  5-MIN KDBQ 051500Z 17007KT 10SM BKN100 17/12 A2998 1020 69 1600 170/07 RMK AO2
94908KDBQ DBQ20100905090510409/05/10 09:05:31  5-MIN KDBQ 051505Z 16008KT 10SM SCT100 BKN110 17/11 A2998 1020 69 1500 160/08 RMK AO2
94908KDBQ DBQ20100905091010409/05/10 09:10:31  5-MIN KDBQ 051510Z 17008KT 10SM SCT095 BKN110 17/11 A2998 1020 69 1500 170/08 RMK AO2
94908KDBQ DBQ20100905091510409/05/10 09:15:31  5-MIN KDBQ 051515Z 17007KT 10SM BKN095 BKN110 17/11 A2998 1020 69 1500 170/07 RMK AO2
94908KDBQ DBQ20100905092009709/05/10 09:20:31  5-MIN KDBQ 051520Z 17008KT 10SM BKN095 17/11 A2998 1030 67 1600 170/08 RMK AO2
94908KDBQ DBQ20100905092509709/05/10 09:25:31  5-MIN KDBQ 051525Z 17010KT 10SM BKN095 17/11 A2997 1030 67 1600 170/10 RMK AO2
94908KDBQ DBQ20100905093010409/05/10 09:30:31  5-MIN KDBQ 051530Z 17009KT 10SM SCT095 SCT120 18/12 A2997 1030 67 1600 170/09 RMK AO2
94908KDBQ DBQ20100905093510409/05/10 09:35:31  5-MIN KDBQ 051535Z 18011KT 10SM SCT095 SCT120 18/11 A2997 1030 64 1600 180/11 RMK AO2
94908KDBQ DBQ20100905094010409/05/10 09:40:31  5-MIN KDBQ 051540Z 18011KT 10SM FEW095 SCT120 18/11 A2997 1030 62 1700 180/11 RMK AO2
94908KDBQ DBQ20100905094509709/05/10 09:45:31  5-MIN KDBQ 051545Z 19011KT 10SM SCT110 18/11 A2997 1030 62 1700 190/11 RMK AO2
94908KDBQ DBQ20100905095011409/05/10 09:50:31  5-MIN KDBQ 051550Z 18009KT 10SM BKN110 18/12 A2997 1030 65 1700 170/09 RMK AO2 SLP149 T01830117
94908KDBQ DBQ20100905095509709/05/10 09:55:31  5-MIN KDBQ 051555Z 18010KT 10SM BKN110 18/11 A2997 1030 62 1700 180/10 RMK AO2
94908KDBQ DBQ20100905100010409/05/10 10:00:31  5-MIN KDBQ 051600Z 18012KT 10SM SCT095 BKN110 18/12 A2997 1040 65 1700 180/12 RMK AO2
94908KDBQ DBQ20100905100510409/05/10 10:05:31  5-MIN KDBQ 051605Z 18011KT 10SM SCT100 BKN110 18/12 A2997 1040 65 1700 180/11 RMK AO2
94908KDBQ DBQ20100905101010409/05/10 10:10:31  5-MIN KDBQ 051610Z 17011KT 10SM SCT100 BKN110 18/12 A2996 1040 65 1700 170/11 RMK AO2
94908KDBQ DBQ20100905101510409/05/10 10:15:31  5-MIN KDBQ 051615Z 17009KT 10SM FEW095 SCT110 18/12 A2996 1040 65 1700 170/09 RMK AO2
94908KDBQ DBQ20100905102009709/05/10 10:20:31  5-MIN KDBQ 051620Z 17012KT 10SM FEW095 19/12 A2996 1040 60 1800 170/12 RMK AO2
94908KDBQ DBQ20100905102509709/05/10 10:25:31  5-MIN KDBQ 051625Z 17012KT 10SM FEW095 19/12 A2996 1050 62 1800 170/12 RMK AO2
94908KDBQ DBQ20100905103009709/05/10 10:30:31  5-MIN KDBQ 051630Z 17012KT 10SM FEW100 20/12 A2995 1050 60 1900 170/12 RMK AO2
94908KDBQ DBQ20100905103509409/05/10 10:35:31  5-MIN KDBQ 051635Z 17013KT 10SM CLR 20/12 A2995 1050 58 1900 170/13 RMK AO2
94908KDBQ DBQ20100905104009709/05/10 10:40:31  5-MIN KDBQ 051640Z 17013KT 10SM FEW110 20/12 A2995 1050 58 1900 160/13 RMK AO2
94908KDBQ DBQ20100905104509709/05/10 10:45:31  5-MIN KDBQ 051645Z 17013KT 10SM SCT110 20/11 A2995 1050 56 1900 170/13 RMK AO2
94908KDBQ DBQ20100905105012009/05/10 10:50:31  5-MIN KDBQ 051650Z 17012G18KT 10SM SCT110 21/12 A2995 1050 56 2000 160/12G18 RMK AO2 SLP140 T02060117
94908KDBQ DBQ20100905105509709/05/10 10:55:31  5-MIN KDBQ 051655Z 18011KT 10SM SCT110 21/12 A2994 1060 56 2000 180/11 RMK AO2
94908KDBQ DBQ20100905110009709/05/10 11:00:31  5-MIN KDBQ 051700Z 18012KT 10SM SCT110 21/12 A2994 1060 56 2000 180/12 RMK AO2
94908KDBQ DBQ20100905110509709/05/10 11:05:31  5-MIN KDBQ 051705Z 18010KT 10SM SCT110 21/12 A2994 1060 58 2000 180/10 RMK AO2
94908KDBQ DBQ20100905111010309/05/10 11:10:31  5-MIN KDBQ 051710Z 17010G17KT 10SM SCT110 20/12 A2994 1060 58 1900 170/10G17 RMK AO2
94908KDBQ DBQ20100905111510309/05/10 11:15:31  5-MIN KDBQ 051715Z 17015G19KT 10SM SCT110 21/12 A2993 1070 54 2100 170/15G19 RMK AO2
94908KDBQ DBQ20100905112010309/05/10 11:20:31  5-MIN KDBQ 051720Z 18012G19KT 10SM FEW110 21/12 A2993 1070 56 2100 180/12G19 RMK AO2
94908KDBQ DBQ20100905112510309/05/10 11:25:31  5-MIN KDBQ 051725Z 17010G17KT 10SM FEW110 21/12 A2993 1070 54 2100 170/10G17 RMK AO2
94908KDBQ DBQ20100905113010309/05/10 11:30:31  5-MIN KDBQ 051730Z 17014G19KT 10SM FEW100 22/12 A2992 1070 54 2100 170/14G19 RMK AO2
94908KDBQ DBQ20100905113510309/05/10 11:35:31  5-MIN KDBQ 051735Z 16011G19KT 10SM FEW110 21/12 A2992 1080 54 2100 160/11G19 RMK AO2
94908KDBQ DBQ20100905114010309/05/10 11:40:31  5-MIN KDBQ 051740Z 16009G17KT 10SM SCT110 21/12 A2992 1080 56 2100 160/09G17 RMK AO2
94908KDBQ DBQ20100905114510309/05/10 11:45:31  5-MIN KDBQ 051745Z 17013G19KT 10SM SCT110 22/12 A2991 1080 54 2100 170/13G19 RMK AO2
94908KDBQ DBQ20100905115013809/05/10 11:50:31  5-MIN KDBQ 051750Z 18014G20KT 10SM SCT110 22/12 A2991 1090 52 2100 180/14G20 RMK AO2 SLP128 T02170117 10217 20106 56003
94908KDBQ DBQ20100905115510309/05/10 11:55:31  5-MIN KDBQ 051755Z 17012G20KT 10SM SCT110 22/12 A2991 1090 52 2200 170/12G20 RMK AO2
94908KDBQ DBQ20100905120010309/05/10 12:00:31  5-MIN KDBQ 051800Z 17014G19KT 10SM SCT110 22/12 A2991 1090 52 2200 170/14G19 RMK AO2
94908KDBQ DBQ20100905120510309/05/10 12:05:31  5-MIN KDBQ 051805Z 17012G20KT 10SM FEW110 22/12 A2991 1090 54 2200 170/12G20 RMK AO2
94908KDBQ DBQ20100905121010309/05/10 12:10:31  5-MIN KDBQ 051810Z 17010G20KT 10SM FEW110 22/12 A2990 1090 52 2200 170/10G20 RMK AO2
94908KDBQ DBQ20100905121510009/05/10 12:15:31  5-MIN KDBQ 051815Z 17013G19KT 10SM CLR 23/13 A2990 1100 53 2300 160/13G19 RMK AO2
94908KDBQ DBQ20100905122010009/05/10 12:20:31  5-MIN KDBQ 051820Z 17011G18KT 10SM CLR 23/13 A2990 1100 53 2300 170/11G18 RMK AO2
94908KDBQ DBQ20100905122510009/05/10 12:25:31  5-MIN KDBQ 051825Z 18015G19KT 10SM CLR 23/12 A2990 1100 51 2300 180/15G19 RMK AO2
94908KDBQ DBQ20100905123009409/05/10 12:30:31  5-MIN KDBQ 051830Z 17014KT 10SM CLR 23/12 A2989 1100 49 2300 170/14 RMK AO2
94908KDBQ DBQ20100905123509409/05/10 12:35:31  5-MIN KDBQ 051835Z 16014KT 10SM CLR 23/12 A2989 1110 51 2300 160/14 RMK AO2
94908KDBQ DBQ20100905124010009/05/10 12:40:31  5-MIN KDBQ 051840Z 16013G20KT 10SM CLR 23/12 A2988 1110 49 2400 160/13G20 RMK AO2
94908KDBQ DBQ20100905124510009/05/10 12:45:31  5-MIN KDBQ 051845Z 17017G20KT 10SM CLR 23/12 A2988 1110 51 2300 170/17G20 RMK AO2
94908KDBQ DBQ20100905125011709/05/10 12:50:31  5-MIN KDBQ 051850Z 17014G20KT 10SM CLR 23/12 A2988 1120 49 2300 170/14G20 RMK AO2 SLP117 T02280117
94908KDBQ DBQ20100905125510009/05/10 12:55:31  5-MIN KDBQ 051855Z 17015G21KT 10SM CLR 22/12 A2988 1120 52 2300 170/15G21 RMK AO2
94908KDBQ DBQ20100905130010009/05/10 13:00:31  5-MIN KDBQ 051900Z 18012G21KT 10SM CLR 22/12 A2987 1120 52 2300 170/12G21 RMK AO2
94908KDBQ DBQ20100905130510009/05/10 13:05:31  5-MIN KDBQ 051905Z 17014G20KT 10SM CLR 23/12 A2987 1120 49 2300 170/14G20 RMK AO2
94908KDBQ DBQ20100905131010009/05/10 13:10:31  5-MIN KDBQ 051910Z 16011G20KT 10SM CLR 23/11 A2987 1130 47 2300 160/11G20 RMK AO2
94908KDBQ DBQ20100905131510009/05/10 13:15:31  5-MIN KDBQ 051915Z 17013G20KT 10SM CLR 23/12 A2987 1130 49 2300 170/13G20 RMK AO2
94908KDBQ DBQ20100905132010009/05/10 13:20:31  5-MIN KDBQ 051920Z 17014G20KT 10SM CLR 23/12 A2986 1130 49 2400 170/14G20 RMK AO2
94908KDBQ DBQ20100905132510009/05/10 13:25:31  5-MIN KDBQ 051925Z 17016G21KT 10SM CLR 23/12 A2986 1130 49 2400 170/16G21 RMK AO2
94908KDBQ DBQ20100905133010009/05/10 13:30:31  5-MIN KDBQ 051930Z 18017G22KT 10SM CLR 23/12 A2986 1140 49 2400 180/17G22 RMK AO2
94908KDBQ DBQ20100905133510009/05/10 13:35:31  5-MIN KDBQ 051935Z 19016G22KT 10SM CLR 24/12 A2985 1140 47 2500 190/16G22 RMK AO2
94908KDBQ DBQ20100905134010009/05/10 13:40:31  5-MIN KDBQ 051940Z 17012G20KT 10SM CLR 23/12 A2985 1140 49 2400 170/12G20 RMK AO2
94908KDBQ DBQ20100905134510009/05/10 13:45:31  5-MIN KDBQ 051945Z 18013G17KT 10SM CLR 22/12 A2985 1150 52 2300 180/13G17 RMK AO2
94908KDBQ DBQ20100905135012709/05/10 13:50:31  5-MIN KDBQ 051950Z AUTO 18011G17KT 10SM CLR 22/12 A2985 1150 51 2300 180/11G17 RMK AO2 SLP106 T02220117 TSNO
94908KDBQ DBQ20100905135509409/05/10 13:55:31  5-MIN KDBQ 051955Z 17011KT 10SM CLR 22/12 A2984 1150 51 2300 170/11 RMK AO2
94908KDBQ DBQ20100905140010009/05/10 14:00:31  5-MIN KDBQ 052000Z 18011G17KT 10SM CLR 22/12 A2984 1150 51 2300 180/11G17 RMK AO2
94908KDBQ DBQ20100905140510009/05/10 14:05:31  5-MIN KDBQ 052005Z 17009G17KT 10SM CLR 22/12 A2985 1150 54 2200 170/09G17 RMK AO2
94908KDBQ DBQ20100905141009409/05/10 14:10:31  5-MIN KDBQ 052010Z 19010KT 10SM CLR 22/12 A2985 1140 54 2200 190/10 RMK AO2
94908KDBQ DBQ20100905141509409/05/10 14:15:31  5-MIN KDBQ 052015Z 18011KT 10SM CLR 22/12 A2984 1150 52 2200 180/11 RMK AO2
94908KDBQ DBQ20100905142009409/05/10 14:20:31  5-MIN KDBQ 052020Z 18010KT 10SM CLR 22/12 A2983 1160 52 2200 180/10 RMK AO2
94908KDBQ DBQ20100905142512209/05/10 14:25:31  5-MIN KDBQ 052025Z 17008KT 10SM SCT070 21/12 A2982 1170 54 2200 170/08 RMK AO2 LTG DSNT W AND NW PRESFR
94908KDBQ DBQ20100905143012509/05/10 14:30:31  5-MIN KDBQ 052030Z 18005KT 9SM VCTS SCT055 21/12 A2984 1150 56 2200 180/05 RMK AO2 LTG DSNT W AND NW TSB30
94908KDBQ DBQ20100905143513909/05/10 14:35:31  5-MIN KDBQ 052035Z 21004KT 6SM VCTS RA BKN041 21/13 A2985 1150 60 2100 210/04 RMK AO2 LTG DSNT W AND NW TSB30RAB31 P0000
94908KDBQ DBQ20100905144014809/05/10 14:40:31  5-MIN KDBQ 052040Z 17004KT 5SM R36/4500VP6000FT -TSRA BKN045 20/13 A2984 1150 65 2000 170/04 RMK AO2 LTG DSNT NW TSB30RAB31 P0001
94908KDBQ DBQ20100905144514209/05/10 14:45:31  5-MIN KDBQ 052045Z 14007KT 6SM R36/4500VP6000FT TSRA BKN047 OVC065 19/14 A2983 1160 72 1900 140/07 RMK AO2 TSB30RAB31 P0002
94908KDBQ DBQ20100905145016109/05/10 14:50:31  5-MIN KDBQ 052050Z 13008KT 7SM TSRA BKN043 BKN050 OVC065 19/13 A2983 1160 67 2000 130/08 RMK AO2 TSB30RAB31 SLP101 P0003 60003 T01940133 58023
94908KDBQ DBQ20100905145512609/05/10 14:55:31  5-MIN KDBQ 052055Z 15007KT 9SM -TSRA BKN039 OVC110 19/13 A2983 1160 67 2000 140/07 RMK AO2 LTG DSNT N P0000
94908KDBQ DBQ20100905150014409/05/10 15:00:31  5-MIN KDBQ 052100Z 14005KT 10SM VCTS -RA SCT040 SCT050 OVC110 19/14 A2983 1160 70 2000 140/05 RMK AO2 LTG DSNT N AND SE P0000
94908KDBQ DBQ20100905150513509/05/10 15:05:31  5-MIN KDBQ 052105Z 15006KT 10SM VCTS SCT044 BKN110 19/15 A2983 1160 75 2000 150/06 RMK AO2 LTG DSNT N-SE RAE01 P0000
94908KDBQ DBQ20100905151013509/05/10 15:10:31  5-MIN KDBQ 052110Z 15007KT 10SM VCTS FEW038 BKN110 20/15 A2983 1170 72 2100 150/07 RMK AO2 LTG DSNT N-SE RAE01 P0000
94908KDBQ DBQ20100905151513509/05/10 15:15:31  5-MIN KDBQ 052115Z 15007KT 10SM VCTS FEW037 SCT110 21/16 A2982 1170 73 2100 150/07 RMK AO2 LTG DSNT N-SE RAE01 P0000
94908KDBQ DBQ20100905152012909/05/10 15:20:31  5-MIN KDBQ 052120Z 16008KT 10SM VCTS SCT110 21/15 A2982 1170 68 2200 150/08 RMK AO2 LTG DSNT NE-SE RAE01 P0000
94908KDBQ DBQ20100905152512909/05/10 15:25:31  5-MIN KDBQ 052125Z 16007KT 10SM FEW110 21/15 A2982 1170 68 2200 160/07 RMK AO2 LTG DSNT NE-SE TSE25RAE01 P0000
94908KDBQ DBQ20100905153012609/05/10 15:30:31  5-MIN KDBQ 052130Z 16008KT 10SM CLR 22/16 A2981 1180 68 2300 160/08 RMK AO2 LTG DSNT NE-SE TSE25RAE01 P0000
94908KDBQ DBQ20100905153513509/05/10 15:35:31  5-MIN KDBQ 052135Z 18009G17KT 10SM CLR 22/15 A2981 1180 63 2300 180/09G17 RMK AO2 LTG DSNT NE AND E TSE25RAE01 P0000
94908KDBQ DBQ20100905154013509/05/10 15:40:31  5-MIN KDBQ 052140Z 20017G21KT 10SM CLR 22/13 A2981 1180 56 2300 190/17G21 RMK AO2 LTG DSNT NE AND E TSE25RAE01 P0000
94908KDBQ DBQ20100905154513509/05/10 15:45:31  5-MIN KDBQ 052145Z 19013G21KT 10SM CLR 22/12 A2981 1180 52 2300 190/13G21 RMK AO2 LTG DSNT NE AND E TSE25RAE01 P0000
94908KDBQ DBQ20100905155015209/05/10 15:50:31  5-MIN KDBQ 052150Z 18013G19KT 10SM CLR 22/12 A2981 1180 52 2300 180/13G19 RMK AO2 LTG DSNT NE AND E TSE25RAE01 SLP094 P0000 T02220122
94908KDBQ DBQ20100905155511809/05/10 15:55:31  5-MIN KDBQ 052155Z 18012G20KT 10SM CLR 22/13 A2981 1180 54 2300 180/12G20 RMK AO2 LTG DSNT NE AND E
94908KDBQ DBQ20100905160011109/05/10 16:00:31  5-MIN KDBQ 052200Z 18011G20KT 10SM CLR 23/13 A2981 1180 53 2400 180/11G20 RMK AO2 LTG DSNT E
94908KDBQ DBQ20100905160509409/05/10 16:05:31  5-MIN KDBQ 052205Z 18011KT 10SM CLR 22/13 A2981 1180 54 2300 180/11 RMK AO2
94908KDBQ DBQ20100905161009409/05/10 16:10:31  5-MIN KDBQ 052210Z 18012KT 10SM CLR 22/12 A2981 1180 52 2300 180/12 RMK AO2
94908KDBQ DBQ20100905161509409/05/10 16:15:31  5-MIN KDBQ 052215Z 18012KT 10SM CLR 22/12 A2980 1190 52 2300 180/12 RMK AO2
94908KDBQ DBQ20100905162009409/05/10 16:20:31  5-MIN KDBQ 052220Z 18011KT 10SM CLR 22/12 A2980 1190 54 2300 180/11 RMK AO2
94908KDBQ DBQ20100905162509409/05/10 16:25:31  5-MIN KDBQ 052225Z 18012KT 10SM CLR 22/12 A2979 1200 52 2300 180/12 RMK AO2
94908KDBQ DBQ20100905163009409/05/10 16:30:31  5-MIN KDBQ 052230Z 18011KT 10SM CLR 22/12 A2980 1190 52 2300 180/11 RMK AO2
94908KDBQ DBQ20100905163509409/05/10 16:35:31  5-MIN KDBQ 052235Z 18011KT 10SM CLR 22/12 A2979 1200 52 2300 180/11 RMK AO2
94908KDBQ DBQ20100905164009409/05/10 16:40:31  5-MIN KDBQ 052240Z 18009KT 10SM CLR 22/12 A2980 1190 54 2300 180/09 RMK AO2
94908KDBQ DBQ20100905164509409/05/10 16:45:31  5-MIN KDBQ 052245Z 18009KT 10SM CLR 21/12 A2980 1190 56 2200 180/09 RMK AO2
94908KDBQ DBQ20100905165011109/05/10 16:50:31  5-MIN KDBQ 052250Z 18011KT 10SM CLR 21/12 A2979 1200 56 2200 180/11 RMK AO2 SLP087 T02110122
94908KDBQ DBQ20100905165509409/05/10 16:55:31  5-MIN KDBQ 052255Z 17012KT 10SM CLR 21/12 A2978 1200 56 2200 170/12 RMK AO2
94908KDBQ DBQ20100905170009409/05/10 17:00:31  5-MIN KDBQ 052300Z 17013KT 10SM CLR 21/13 A2978 1210 58 2200 170/13 RMK AO2
94908KDBQ DBQ20100905170509409/05/10 17:05:31  5-MIN KDBQ 052305Z 17012KT 10SM CLR 21/12 A2979 1200 56 2200 170/12 RMK AO2
94908KDBQ DBQ20100905171010009/05/10 17:10:31  5-MIN KDBQ 052310Z 17010G17KT 10SM CLR 21/12 A2979 1200 56 2200 170/10G17 RMK AO2
94908KDBQ DBQ20100905171510009/05/10 17:15:31  5-MIN KDBQ 052315Z 17007G16KT 10SM CLR 21/13 A2979 1200 58 2200 160/07G16 RMK AO2
94908KDBQ DBQ20100905172009409/05/10 17:20:31  5-MIN KDBQ 052320Z 17009KT 10SM CLR 21/13 A2979 1200 60 2200 170/09 RMK AO2
94908KDBQ DBQ20100905172509409/05/10 17:25:31  5-MIN KDBQ 052325Z 17009KT 10SM CLR 21/13 A2979 1200 60 2200 170/09 RMK AO2
94908KDBQ DBQ20100905173009409/05/10 17:30:31  5-MIN KDBQ 052330Z 18009KT 10SM CLR 21/13 A2979 1200 60 2200 170/09 RMK AO2
94908KDBQ DBQ20100905173509409/05/10 17:35:31  5-MIN KDBQ 052335Z 18011KT 10SM CLR 21/13 A2979 1200 60 2200 180/11 RMK AO2
94908KDBQ DBQ20100905174009409/05/10 17:40:31  5-MIN KDBQ 052340Z 18013KT 10SM CLR 21/13 A2979 1200 60 2200 180/13 RMK AO2
94908KDBQ DBQ20100905174509409/05/10 17:45:31  5-MIN KDBQ 052345Z 18012KT 10SM CLR 21/13 A2978 1210 60 2200 180/12 RMK AO2
94908KDBQ DBQ20100905175013509/05/10 17:50:31  5-MIN KDBQ 052350Z 18013KT 10SM CLR 21/12 A2979 1200 58 2200 180/13 RMK AO2 SLP085 60003 T02060122 10239 20189 56026
94908KDBQ DBQ20100905175509409/05/10 17:55:31  5-MIN KDBQ 052355Z 18014KT 10SM CLR 21/13 A2978 1210 60 2200 180/14 RMK AO2
94908KDBQ DBQ20100905180009409/05/10 18:00:31  5-MIN KDBQ 060000Z 18015KT 10SM CLR 21/12 A2978 1210 58 2200 180/15 RMK AO2
94908KDBQ DBQ20100905180509409/05/10 18:05:31  5-MIN KDBQ 060005Z 18013KT 10SM CLR 21/12 A2978 1210 58 2200 180/13 RMK AO2
94908KDBQ DBQ20100905181009409/05/10 18:10:31  5-MIN KDBQ 060010Z 18013KT 10SM CLR 21/12 A2978 1210 58 2200 180/13 RMK AO2
94908KDBQ DBQ20100905181509409/05/10 18:15:31  5-MIN KDBQ 060015Z 18012KT 10SM CLR 20/12 A2978 1210 60 2100 180/12 RMK AO2
94908KDBQ DBQ20100905182009409/05/10 18:20:31  5-MIN KDBQ 060020Z 18012KT 10SM CLR 20/12 A2978 1210 60 2100 180/12 RMK AO2
94908KDBQ DBQ20100905182509409/05/10 18:25:31  5-MIN KDBQ 060025Z 18011KT 10SM CLR 20/12 A2978 1210 60 2100 180/11 RMK AO2
94908KDBQ DBQ20100905183009409/05/10 18:30:31  5-MIN KDBQ 060030Z 18011KT 10SM CLR 19/12 A2978 1210 62 2000 180/11 RMK AO2
94908KDBQ DBQ20100905183509409/05/10 18:35:31  5-MIN KDBQ 060035Z 18012KT 10SM CLR 19/13 A2978 1210 65 2000 180/12 RMK AO2
94908KDBQ DBQ20100905184009409/05/10 18:40:31  5-MIN KDBQ 060040Z 18012KT 10SM CLR 19/13 A2977 1220 65 2100 180/12 RMK AO2
94908KDBQ DBQ20100905184509409/05/10 18:45:31  5-MIN KDBQ 060045Z 18012KT 10SM CLR 19/13 A2977 1210 65 2100 180/12 RMK AO2
94908KDBQ DBQ20100905185011109/05/10 18:50:31  5-MIN KDBQ 060050Z 18012KT 10SM CLR 19/13 A2978 1210 65 2000 180/12 RMK AO2 SLP082 T01940128
94908KDBQ DBQ20100905185509909/05/10 18:55:31  5-MIN KDBQ 060055Z AUTO 18014KT 10SM CLR 19/12 A2978 1210 62 2000 180/14 RMK AO2
94908KDBQ DBQ20100905190009909/05/10 19:00:31  5-MIN KDBQ 060100Z AUTO 18014KT 10SM CLR 20/12 A2977 1220 60 2100 180/14 RMK AO2
94908KDBQ DBQ20100905190509909/05/10 19:05:31  5-MIN KDBQ 060105Z AUTO 19014KT 10SM CLR 20/12 A2978 1210 60 2100 180/14 RMK AO2
94908KDBQ DBQ20100905191010509/05/10 19:10:31  5-MIN KDBQ 060110Z AUTO 19013G19KT 10SM CLR 20/12 A2978 1210 60 2100 190/13G19 RMK AO2
94908KDBQ DBQ20100905191510509/05/10 19:15:31  5-MIN KDBQ 060115Z AUTO 19015G21KT 10SM CLR 20/12 A2978 1210 60 2100 190/15G21 RMK AO2
94908KDBQ DBQ20100905192010509/05/10 19:20:31  5-MIN KDBQ 060120Z AUTO 19013G21KT 10SM CLR 20/12 A2978 1200 58 2100 190/13G21 RMK AO2
94908KDBQ DBQ20100905192509909/05/10 19:25:31  5-MIN KDBQ 060125Z AUTO 19014KT 10SM CLR 20/12 A2979 1200 58 2100 190/14 RMK AO2
94908KDBQ DBQ20100905193009909/05/10 19:30:31  5-MIN KDBQ 060130Z AUTO 19013KT 10SM CLR 20/12 A2979 1200 58 2100 190/13 RMK AO2
94908KDBQ DBQ20100905193509909/05/10 19:35:31  5-MIN KDBQ 060135Z AUTO 19014KT 10SM CLR 20/12 A2979 1200 58 2100 190/14 RMK AO2
94908KDBQ DBQ20100905194010509/05/10 19:40:31  5-MIN KDBQ 060140Z AUTO 19015G20KT 10SM CLR 20/12 A2979 1200 58 2100 190/15G20 RMK AO2
94908KDBQ DBQ20100905194510509/05/10 19:45:31  5-MIN KDBQ 060145Z AUTO 18014G20KT 10SM CLR 20/12 A2979 1200 58 2100 180/14G20 RMK AO2
94908KDBQ DBQ20100905195012209/05/10 19:50:31  5-MIN KDBQ 060150Z AUTO 19011G19KT 10SM CLR 20/12 A2980 1190 58 2100 190/11G19 RMK AO2 SLP087 T02000117
94908KDBQ DBQ20100905195510509/05/10 19:55:31  5-MIN KDBQ 060155Z AUTO 18012G19KT 10SM CLR 20/12 A2979 1200 58 2100 180/12G19 RMK AO2
94908KDBQ DBQ20100905200010509/05/10 20:00:31  5-MIN KDBQ 060200Z AUTO 18012G19KT 10SM CLR 19/12 A2979 1200 60 2000 180/12G19 RMK AO2
94908KDBQ DBQ20100905200509909/05/10 20:05:31  5-MIN KDBQ 060205Z AUTO 18012KT 10SM CLR 19/12 A2979 1200 60 2000 180/12 RMK AO2
94908KDBQ DBQ20100905201009909/05/10 20:10:31  5-MIN KDBQ 060210Z AUTO 18013KT 10SM CLR 19/12 A2979 1200 62 2000 180/13 RMK AO2
94908KDBQ DBQ20100905201510509/05/10 20:15:31  5-MIN KDBQ 060215Z AUTO 18013G19KT 10SM CLR 19/12 A2978 1210 62 2000 180/13G19 RMK AO2
94908KDBQ DBQ20100905202010509/05/10 20:20:31  5-MIN KDBQ 060220Z AUTO 18015G19KT 10SM CLR 19/12 A2978 1210 62 2000 180/15G19 RMK AO2
94908KDBQ DBQ20100905202509909/05/10 20:25:31  5-MIN KDBQ 060225Z AUTO 18012KT 10SM CLR 19/12 A2978 1210 62 2000 180/12 RMK AO2
94908KDBQ DBQ20100905203009909/05/10 20:30:31  5-MIN KDBQ 060230Z AUTO 18014KT 10SM CLR 19/12 A2978 1210 62 2000 180/14 RMK AO2
94908KDBQ DBQ20100905203509909/05/10 20:35:31  5-MIN KDBQ 060235Z AUTO 18013KT 10SM CLR 19/12 A2978 1210 62 2000 180/13 RMK AO2
94908KDBQ DBQ20100905204009909/05/10 20:40:31  5-MIN KDBQ 060240Z AUTO 18013KT 10SM CLR 19/12 A2978 1210 65 2000 180/13 RMK AO2
94908KDBQ DBQ20100905204509909/05/10 20:45:31  5-MIN KDBQ 060245Z AUTO 18012KT 10SM CLR 19/12 A2978 1210 65 2000 180/12 RMK AO2
94908KDBQ DBQ20100905205012209/05/10 20:50:31  5-MIN KDBQ 060250Z AUTO 18011KT 10SM CLR 19/12 A2979 1200 65 2000 180/11 RMK AO2 SLP085 T01890122 56016
94908KDBQ DBQ20100905205509909/05/10 20:55:31  5-MIN KDBQ 060255Z AUTO 19011KT 10SM CLR 19/12 A2979 1190 65 2000 180/11 RMK AO2
94908KDBQ DBQ20100905210009909/05/10 21:00:31  5-MIN KDBQ 060300Z AUTO 18011KT 10SM CLR 19/12 A2979 1200 65 2000 180/11 RMK AO2
94908KDBQ DBQ20100905210509909/05/10 21:05:31  5-MIN KDBQ 060305Z AUTO 18010KT 10SM CLR 19/12 A2979 1200 65 2000 180/10 RMK AO2
94908KDBQ DBQ20100905211009909/05/10 21:10:31  5-MIN KDBQ 060310Z AUTO 18012KT 10SM CLR 19/12 A2978 1210 65 2000 180/12 RMK AO2
94908KDBQ DBQ20100905211509909/05/10 21:15:31  5-MIN KDBQ 060315Z AUTO 17011KT 10SM CLR 19/12 A2978 1210 65 2000 170/11 RMK AO2
94908KDBQ DBQ20100905212009909/05/10 21:20:31  5-MIN KDBQ 060320Z AUTO 17012KT 10SM CLR 19/12 A2978 1210 65 2000 170/12 RMK AO2
94908KDBQ DBQ20100905212509909/05/10 21:25:31  5-MIN KDBQ 060325Z AUTO 17010KT 10SM CLR 19/12 A2978 1210 65 2000 170/10 RMK AO2
94908KDBQ DBQ20100905213009909/05/10 21:30:31  5-MIN KDBQ 060330Z AUTO 17011KT 10SM CLR 19/12 A2978 1210 65 2000 160/11 RMK AO2
94908KDBQ DBQ20100905213509909/05/10 21:35:31  5-MIN KDBQ 060335Z AUTO 17010KT 10SM CLR 19/12 A2978 1210 65 2000 170/10 RMK AO2
94908KDBQ DBQ20100905214009909/05/10 21:40:31  5-MIN KDBQ 060340Z AUTO 18010KT 10SM CLR 19/12 A2979 1200 65 2000 180/10 RMK AO2
94908KDBQ DBQ20100905214510509/05/10 21:45:31  5-MIN KDBQ 060345Z AUTO 18011G17KT 10SM CLR 19/12 A2979 1200 65 2000 180/11G17 RMK AO2
94908KDBQ DBQ20100905215011609/05/10 21:50:31  5-MIN KDBQ 060350Z AUTO 18011KT 10SM CLR 19/12 A2980 1190 65 2000 180/11 RMK AO2 SLP087 T01890122
94908KDBQ DBQ20100905215510609/05/10 21:55:31  5-MIN KDBQ 060355Z AUTO 19009KT 10SM CLR 20/12 A2981 1180 60 2100 190/09 RMK AO2 PRESRR
94908KDBQ DBQ20100905220011109/05/10 22:00:31  5-MIN KDBQ 060400Z AUTO 20010KT 10SM CLR 18/12 A2981 1180 67 1900 200/10 RMK AO2 LTG DSNT SW
94908KDBQ DBQ20100905220511109/05/10 22:05:31  5-MIN KDBQ 060405Z AUTO 18010KT 10SM CLR 18/12 A2980 1190 67 1900 180/10 RMK AO2 LTG DSNT SW
94908KDBQ DBQ20100905221011109/05/10 22:10:31  5-MIN KDBQ 060410Z AUTO 18010KT 10SM CLR 19/12 A2980 1190 65 2000 180/10 RMK AO2 LTG DSNT SW
94908KDBQ DBQ20100905221509909/05/10 22:15:31  5-MIN KDBQ 060415Z AUTO 18011KT 10SM CLR 19/12 A2979 1200 65 2000 180/11 RMK AO2
94908KDBQ DBQ20100905222011809/05/10 22:20:31  5-MIN KDBQ 060420Z AUTO 17011KT 10SM CLR 19/13 A2978 1210 67 2000 170/11 RMK AO2 LTG DSNT SW PRESFR
94908KDBQ DBQ20100905222512109/05/10 22:25:31  5-MIN KDBQ 060425Z AUTO 17013KT 10SM FEW100 18/13 A2975 1240 70 2000 160/13 RMK AO2 LTG DSNT SW PRESFR
94908KDBQ DBQ20100905223011409/05/10 22:30:31  5-MIN KDBQ 060430Z AUTO 17011KT 10SM FEW085 18/13 A2976 1220 70 1900 170/11 RMK AO2 LTG DSNT SW
94908KDBQ DBQ20100905223510209/05/10 22:35:31  5-MIN KDBQ 060435Z AUTO 18013KT 10SM FEW080 18/13 A2976 1230 70 1900 180/13 RMK AO2
94908KDBQ DBQ20100905224010209/05/10 22:40:31  5-MIN KDBQ 060440Z AUTO 17014KT 10SM FEW085 18/13 A2974 1240 70 2000 170/14 RMK AO2
94908KDBQ DBQ20100905224510209/05/10 22:45:31  5-MIN KDBQ 060445Z AUTO 19009KT 10SM FEW085 18/13 A2977 1220 70 1900 190/09 RMK AO2
94908KDBQ DBQ20100905225011909/05/10 22:50:31  5-MIN KDBQ 060450Z AUTO 19011KT 10SM FEW085 19/13 A2977 1220 67 2000 180/11 RMK AO2 SLP077 T01890128
94908KDBQ DBQ20100905225511809/05/10 22:55:31  5-MIN KDBQ 060455Z AUTO 21009KT 10SM CLR 18/13 A2979 1200 70 1900 210/09 RMK AO2 LTG DSNT SW PRESRR
94908KDBQ DBQ20100905230011809/05/10 23:00:31  5-MIN KDBQ 060500Z AUTO 26005KT 10SM CLR 18/13 A2982 1170 70 1900 260/05 RMK AO2 LTG DSNT SW PRESRR
94908KDBQ DBQ20100905230511109/05/10 23:05:31  5-MIN KDBQ 060505Z AUTO 34004KT 10SM CLR 18/13 A2982 1170 70 1900 340/04 RMK AO2 LTG DSNT SW
94908KDBQ DBQ20100905231011109/05/10 23:10:31  5-MIN KDBQ 060510Z AUTO 36006KT 10SM CLR 18/13 A2982 1170 72 1800 360/06 RMK AO2 LTG DSNT SW
94908KDBQ DBQ20100905231511109/05/10 23:15:31  5-MIN KDBQ 060515Z AUTO 07004KT 10SM CLR 18/13 A2982 1180 72 1800 070/04 RMK AO2 LTG DSNT SW
94908KDBQ DBQ20100905232011109/05/10 23:20:31  5-MIN KDBQ 060520Z AUTO 00000KT 10SM CLR 18/13 A2982 1170 72 1800 000/00 RMK AO2 LTG DSNT SW
94908KDBQ DBQ20100905232509909/05/10 23:25:31  5-MIN KDBQ 060525Z AUTO 17004KT 10SM CLR 18/13 A2981 1180 72 1800 170/04 RMK AO2
94908KDBQ DBQ20100905233009909/05/10 23:30:31  5-MIN KDBQ 060530Z AUTO 16005KT 10SM CLR 17/13 A2980 1190 78 1800 160/05 RMK AO2
94908KDBQ DBQ20100905233509909/05/10 23:35:31  5-MIN KDBQ 060535Z AUTO 18006KT 10SM CLR 18/13 A2980 1190 75 1800 180/06 RMK AO2
94908KDBQ DBQ20100905234009909/05/10 23:40:31  5-MIN KDBQ 060540Z AUTO 19007KT 10SM CLR 19/13 A2981 1180 67 2000 190/07 RMK AO2
94908KDBQ DBQ20100905234511709/05/10 23:45:31  5-MIN KDBQ 060545Z AUTO 23006KT 10SM CLR 18/13 A2982 1170 75 1800 230/06 RMK AO2 LTG DSNT W AND NW
94908KDBQ DBQ20100905235016509/05/10 23:50:31  5-MIN KDBQ 060550Z AUTO 25004KT 10SM CLR 18/13 A2983 1170 75 1800 250/04 RMK AO2 LTG DSNT S-NW PRESRR SLP096 T01780133 10206 20172 402390083 53003
94908KDBQ DBQ20100905235511309/05/10 23:55:31  5-MIN KDBQ 060555Z AUTO 00000KT 10SM CLR 18/13 A2981 1180 75 1800 000/00 RMK AO2 LTG DSNT S-NW
94908KDBQ DBQ20100906000011309/06/10 00:00:38  5-MIN KDBQ 060600Z AUTO 17003KT 10SM CLR 17/13 A2982 1180 78 1700 170/03 RMK AO2 LTG DSNT S-NW
94908KDBQ DBQ20100906000511809/06/10 00:05:31  5-MIN KDBQ 060605Z AUTO 17005KT 10SM CLR 17/13 A2981 1180 78 1800 170/05 RMK AO2 LTG DSNT SW AND NW
94908KDBQ DBQ20100906001012009/06/10 00:10:31  5-MIN KDBQ 060610Z AUTO 00000KT 4SM HZ CLR 18/13 A2983 1160 75 1800 000/00 RMK AO2 LTG DSNT SW AND NW
94908KDBQ DBQ20100906001512009/06/10 00:15:32  5-MIN KDBQ 060615Z AUTO 21003KT 4SM HZ CLR 18/13 A2982 1170 75 1800 210/03 RMK AO2 LTG DSNT SW AND NW
94908KDBQ DBQ20100906002012909/06/10 00:20:31  5-MIN KDBQ 060620Z AUTO 19006KT 10SM VCTS CLR 18/13 A2982 1170 72 1900 190/06 RMK AO2 LTG DSNT SW AND NW TSB18
94908KDBQ DBQ20100906002513109/06/10 00:25:31  5-MIN KDBQ 060625Z AUTO 21011KT 10SM VCTS FEW120 19/13 A2982 1170 67 1900 210/11 RMK AO2 LTG DSNT S AND SW TSB18
94908KDBQ DBQ20100906003014409/06/10 00:30:31  5-MIN KDBQ 060630Z AUTO 21016G24KT 10SM VCTS SCT120 20/13 A2981 1180 63 2100 210/16G24 RMK AO2 LTG DSNT S AND SW TSB18 PRESFR
94908KDBQ DBQ20100906003514409/06/10 00:35:31  5-MIN KDBQ 060635Z AUTO 21020G25KT 10SM VCTS BKN110 20/13 A2979 1200 63 2100 210/20G25 RMK AO2 LTG DSNT S AND SW TSB18 PRESFR
94908KDBQ DBQ20100906004016209/06/10 00:40:31  5-MIN KDBQ 060640Z AUTO 21023G30KT 10SM VCTS SCT100 20/13 A2977 1220 63 2100 210/23G30 RMK AO2 PK WND 21030/0640 LTG DSNT S AND SW TSB18 PRESFR
94908KDBQ DBQ20100906004515009/06/10 00:45:31  5-MIN KDBQ 060645Z AUTO 21021G30KT 10SM SCT110 19/13 A2977 1210 65 2100 210/21G30 RMK AO2 PK WND 21030/0640 LTG DSNT SE-SW TSB18E44
94908KDBQ DBQ20100906005016709/06/10 00:50:31  5-MIN KDBQ 060650Z AUTO 21019G27KT 10SM SCT110 19/13 A2978 1210 65 2000 210/19G27 RMK AO2 PK WND 21030/0640 LTG DSNT SE-SW TSB18E44 SLP080 T01940128
94908KDBQ DBQ20100906005512309/06/10 00:55:31  5-MIN KDBQ 060655Z AUTO 20019G28KT 10SM FEW110 19/13 A2978 1210 65 2000 200/19G28 RMK AO2 LTG DSNT SE-SW
94908KDBQ DBQ20100906010014409/06/10 01:00:31  5-MIN KDBQ 060700Z AUTO 20019G28KT 10SM FEW100 19/13 A2977 1220 67 2000 200/19G28 RMK AO2 PK WND 20026/0700 LTG DSNT S AND SW
94908KDBQ DBQ20100906010513809/06/10 01:05:31  5-MIN KDBQ 060705Z AUTO 20022G26KT 10SM CLR 19/13 A2977 1220 65 2100 200/22G26 RMK AO2 PK WND 20026/0704 LTG DSNT SE-SW
94908KDBQ DBQ20100906011014109/06/10 01:10:31  5-MIN KDBQ 060710Z AUTO 20020G27KT 10SM CLR 19/13 A2977 1220 65 2100 200/20G27 RMK AO2 PK WND 20027/0709 LTG DSNT SE AND S
94908KDBQ DBQ20100906011514109/06/10 01:15:31  5-MIN KDBQ 060715Z AUTO 20020G27KT 10SM CLR 19/13 A2978 1210 65 2000 200/20G27 RMK AO2 PK WND 20027/0709 LTG DSNT SE AND S
94908KDBQ DBQ20100906012013409/06/10 01:20:31  5-MIN KDBQ 060720Z AUTO 20019G26KT 10SM CLR 19/13 A2979 1200 65 2000 200/19G26 RMK AO2 PK WND 20027/0709 LTG DSNT S
94908KDBQ DBQ20100906012513409/06/10 01:25:31  5-MIN KDBQ 060725Z AUTO 20017G25KT 10SM CLR 19/13 A2979 1200 65 2000 200/17G25 RMK AO2 PK WND 20027/0709 LTG DSNT S
94908KDBQ DBQ20100906013012309/06/10 01:30:31  5-MIN KDBQ 060730Z AUTO 20018G23KT 10SM CLR 19/13 A2979 1200 65 2000 200/18G23 RMK AO2 PK WND 20027/0709
94908KDBQ DBQ20100906013512309/06/10 01:35:31  5-MIN KDBQ 060735Z AUTO 19015G23KT 10SM CLR 19/13 A2979 1200 65 2000 190/15G23 RMK AO2 PK WND 20027/0709
94908KDBQ DBQ20100906014012309/06/10 01:40:31  5-MIN KDBQ 060740Z AUTO 19017G24KT 10SM CLR 19/12 A2979 1200 62 2000 190/17G24 RMK AO2 PK WND 20027/0709
94908KDBQ DBQ20100906014512609/06/10 01:45:31  5-MIN KDBQ 060745Z AUTO 19018G24KT 10SM FEW090 19/12 A2979 1200 62 2000 190/18G24 RMK AO2 PK WND 20027/0709
94908KDBQ DBQ20100906015015409/06/10 01:50:31  5-MIN KDBQ 060750Z AUTO 19019G26KT 10SM SCT095 20/12 A2978 1210 60 2100 190/19G26 RMK AO2 PK WND 20027/0709 LTG DSNT W SLP077 T02000122
94908KDBQ DBQ20100906015511909/06/10 01:55:31  5-MIN KDBQ 060755Z AUTO 19022G26KT 10SM BKN090 20/12 A2977 1220 60 2100 190/22G26 RMK AO2 LTG DSNT W
94908KDBQ DBQ20100906020011909/06/10 02:00:31  5-MIN KDBQ 060800Z AUTO 19018G25KT 10SM BKN090 20/12 A2977 1220 60 2100 190/18G25 RMK AO2 LTG DSNT W
94908KDBQ DBQ20100906020512809/06/10 02:05:31  5-MIN KDBQ 060805Z AUTO 19016G23KT 10SM TS BKN095 20/12 A2976 1220 60 2100 180/16G23 RMK AO2 LTG DSNT W TSB04
94908KDBQ DBQ20100906021012809/06/10 02:10:31  5-MIN KDBQ 060810Z AUTO 19015G23KT 10SM TS BKN095 20/12 A2977 1220 58 2100 190/15G23 RMK AO2 LTG DSNT W TSB04
94908KDBQ DBQ20100906021513409/06/10 02:15:31  5-MIN KDBQ 060815Z AUTO 20014G23KT 10SM TS BKN095 19/12 A2979 1200 60 2000 200/14G23 RMK AO2 LTG DSNT E AND W TSB04
94908KDBQ DBQ20100906022013509/06/10 02:20:31  5-MIN KDBQ 060820Z AUTO 19015KT 10SM TS SCT075 BKN100 19/12 A2977 1210 62 2100 190/15 RMK AO2 LTG DSNT E AND W TSB04
94908KDBQ DBQ20100906022514109/06/10 02:25:31  5-MIN KDBQ 060825Z AUTO 19016G21KT 10SM TS SCT070 BKN100 19/12 A2978 1210 60 2000 190/16G21 RMK AO2 LTG DSNT E AND W TSB04
94908KDBQ DBQ20100906023014409/06/10 02:30:31  5-MIN KDBQ 060830Z AUTO 19014KT 10SM -TSRA BKN070 BKN100 19/13 A2978 1210 67 2000 190/14 RMK AO2 LTG DSNT SW TSB04RAB29 P0001
94908KDBQ DBQ20100906023515609/06/10 02:35:31  5-MIN KDBQ 060835Z AUTO 19015G21KT 10SM -TSRA BKN070 BKN100 18/13 A2979 1200 70 1900 190/15G21 RMK AO2 LTG DSNT E AND SW TSB04RAB29 P0001
94908KDBQ DBQ20100906024016309/06/10 02:40:31  5-MIN KDBQ 060840Z AUTO 19016G21KT 10SM -TSRA BKN070 OVC095 18/13 A2979 1200 70 1900 190/16G21 RMK AO2 LTG DSNT NE AND E AND SW TSB04RAB29 P0001
94908KDBQ DBQ20100906024514909/06/10 02:45:31  5-MIN KDBQ 060845Z AUTO 19015G21KT 10SM TS OVC070 18/13 A2979 1200 70 1900 190/15G21 RMK AO2 LTG DSNT NE AND E TSB04RAB29E41 P0001
94908KDBQ DBQ20100906025014309/06/10 02:50:31  5-MIN KDBQ 060850Z AUTO 19014KT 10SM OVC070 18/13 A2979 1200 70 1900 190/14 RMK AO2 LTG DSNT NE AND E TSB04E50RAB29E41 P0001
94908KDBQ DBQ20100906025511709/06/10 02:55:31  5-MIN KDBQ 060855Z AUTO 19014KT 10SM OVC075 18/13 A2979 1200 70 1900 180/14 RMK AO2 LTG DSNT NE-SE
94908KDBQ DBQ20100906030012009/06/10 03:00:31  5-MIN KDBQ 060900Z AUTO 18012KT 10SM OVC070 19/13 A2979 1200 67 2000 180/12 RMK AO2 LTG DSNT E AND SE
94908KDBQ DBQ20100906030513309/06/10 03:05:31  5-MIN KDBQ 060905Z AUTO 18012G19KT 10SM BKN075 OVC090 18/12 A2978 1210 67 1900 180/12G19 RMK AO2 LTG DSNT E AND SE
94908KDBQ DBQ20100906031013309/06/10 03:10:31  5-MIN KDBQ 060910Z AUTO 18012G19KT 10SM BKN075 OVC090 18/13 A2978 1210 70 1900 180/12G19 RMK AO2 LTG DSNT E AND SE
94908KDBQ DBQ20100906031513309/06/10 03:15:31  5-MIN KDBQ 060915Z AUTO 18013G18KT 10SM BKN075 OVC090 18/12 A2978 1200 67 1900 180/13G18 RMK AO2 LTG DSNT E AND SE
94908KDBQ DBQ20100906032013409/06/10 03:20:31  5-MIN KDBQ 060920Z AUTO 18012KT 10SM SCT075 BKN090 BKN110 18/12 A2978 1210 67 1900 180/12 RMK AO2 LTG DSNT E AND SE
94908KDBQ DBQ20100906032512809/06/10 03:25:31  5-MIN KDBQ 060925Z AUTO 18013KT 10SM SCT080 BKN090 BKN120 18/12 A2979 1200 67 1900 180/13 RMK AO2 LTG DSNT SE
94908KDBQ DBQ20100906033012809/06/10 03:30:31  5-MIN KDBQ 060930Z AUTO 18012KT 10SM FEW080 BKN090 BKN110 18/12 A2979 1200 69 1800 180/12 RMK AO2 LTG DSNT SE
94908KDBQ DBQ20100906033511609/06/10 03:35:31  5-MIN KDBQ 060935Z AUTO 18012KT 10SM FEW075 BKN090 BKN110 18/12 A2979 1200 67 1900 180/12 RMK AO2
94908KDBQ DBQ20100906034010909/06/10 03:40:31  5-MIN KDBQ 060940Z AUTO 18015KT 10SM BKN090 BKN110 18/12 A2978 1210 67 1900 180/15 RMK AO2
94908KDBQ DBQ20100906034510909/06/10 03:45:31  5-MIN KDBQ 060945Z AUTO 18013KT 10SM SCT090 BKN110 18/12 A2978 1210 67 1900 180/13 RMK AO2
94908KDBQ DBQ20100906035013209/06/10 03:50:31  5-MIN KDBQ 060950Z AUTO 18016G20KT 10SM SCT090 SCT110 18/12 A2978 1210 67 1900 180/16G20 RMK AO2 SLP079 T01830122
94908KDBQ DBQ20100906035510909/06/10 03:55:31  5-MIN KDBQ 060955Z AUTO 18016KT 10SM SCT090 SCT110 18/12 A2978 1210 67 1900 180/16 RMK AO2
94908KDBQ DBQ20100906040011509/06/10 04:00:31  5-MIN KDBQ 061000Z AUTO 18017G23KT 10SM FEW090 SCT110 18/12 A2977 1220 65 1900 180/17G23 RMK AO2
94908KDBQ DBQ20100906040512609/06/10 04:05:31  5-MIN KDBQ 061005Z AUTO 18017G28KT 10SM FEW090 18/12 A2977 1210 65 1900 180/17G28 RMK AO2 PK WND 19028/1001
94908KDBQ DBQ20100906041012609/06/10 04:10:31  5-MIN KDBQ 061010Z AUTO 18015G28KT 10SM FEW070 18/12 A2977 1220 65 1900 180/15G28 RMK AO2 PK WND 19028/1001
94908KDBQ DBQ20100906041512709/06/10 04:15:31  5-MIN KDBQ 061015Z AUTO 18017KT 10SM SCT070 SCT110 18/12 A2978 1210 65 1900 180/17 RMK AO2 PK WND 19028/1001
94908KDBQ DBQ20100906042012609/06/10 04:20:31  5-MIN KDBQ 061020Z AUTO 18017G22KT 10SM SCT075 18/12 A2978 1210 65 1900 180/17G22 RMK AO2 PK WND 19028/1001
94908KDBQ DBQ20100906042512609/06/10 04:25:31  5-MIN KDBQ 061025Z AUTO 18016G22KT 10SM FEW070 18/12 A2978 1210 65 1900 180/16G22 RMK AO2 PK WND 19028/1001
94908KDBQ DBQ20100906043012609/06/10 04:30:31  5-MIN KDBQ 061030Z AUTO 18015G22KT 10SM FEW070 18/12 A2978 1210 65 1900 180/15G22 RMK AO2 PK WND 19028/1001
94908KDBQ DBQ20100906043512609/06/10 04:35:31  5-MIN KDBQ 061035Z AUTO 18014G22KT 10SM FEW070 18/12 A2978 1210 67 1900 180/14G22 RMK AO2 PK WND 19028/1001
94908KDBQ DBQ20100906044012009/06/10 04:40:31  5-MIN KDBQ 061040Z AUTO 18013KT 10SM FEW075 18/12 A2978 1210 67 1900 180/13 RMK AO2 PK WND 19028/1001
94908KDBQ DBQ20100906044512709/06/10 04:45:31  5-MIN KDBQ 061045Z AUTO 18012KT 10SM SCT075 SCT090 18/12 A2978 1210 69 1900 180/12 RMK AO2 PK WND 19028/1001
94908KDBQ DBQ20100906045014409/06/10 04:50:31  5-MIN KDBQ 061050Z AUTO 18013KT 10SM SCT080 SCT095 18/12 A2978 1200 69 1800 180/13 RMK AO2 PK WND 19028/1001 SLP082 T01780122
94908KDBQ DBQ20100906045510409/06/10 04:55:31  5-MIN KDBQ 061055Z 18014KT 10SM SCT080 BKN095 18/12 A2978 1210 69 1900 180/14 RMK AO2
94908KDBQ DBQ20100906050010409/06/10 05:00:31  5-MIN KDBQ 061100Z 18013KT 10SM SCT080 BKN095 18/12 A2978 1210 69 1900 180/13 RMK AO2
94908KDBQ DBQ20100906050511109/06/10 05:05:31  5-MIN KDBQ 061105Z 18012KT 10SM BKN080 BKN090 BKN110 18/12 A2978 1210 69 1900 180/12 RMK AO2
94908KDBQ DBQ20100906051011009/06/10 05:10:31  5-MIN KDBQ 061110Z 18012G19KT 10SM BKN080 OVC100 18/12 A2978 1210 69 1900 180/12G19 RMK AO2
94908KDBQ DBQ20100906051510409/06/10 05:15:31  5-MIN KDBQ 061115Z 18012KT 10SM BKN080 BKN100 18/12 A2978 1210 69 1900 180/12 RMK AO2
94908KDBQ DBQ20100906052009709/06/10 05:20:31  5-MIN KDBQ 061120Z 18014KT 10SM BKN090 18/12 A2978 1210 69 1900 180/14 RMK AO2
94908KDBQ DBQ20100906052509709/06/10 05:25:31  5-MIN KDBQ 061125Z 18014KT 10SM BKN085 17/12 A2978 1210 72 1800 180/14 RMK AO2
94908KDBQ DBQ20100906053009709/06/10 05:30:31  5-MIN KDBQ 061130Z 18013KT 10SM BKN090 17/12 A2979 1200 72 1800 180/13 RMK AO2
94908KDBQ DBQ20100906053510309/06/10 05:35:31  5-MIN KDBQ 061135Z 18013G18KT 10SM BKN090 17/12 A2978 1210 72 1800 180/13G18 RMK AO2
94908KDBQ DBQ20100906054010309/06/10 05:40:31  5-MIN KDBQ 061140Z 18012G19KT 10SM SCT095 17/12 A2978 1210 72 1800 180/12G19 RMK AO2
94908KDBQ DBQ20100906054510309/06/10 05:45:31  5-MIN KDBQ 061145Z 18013G19KT 10SM FEW090 17/12 A2978 1210 69 1800 180/13G19 RMK AO2
94908KDBQ DBQ20100906055014409/06/10 05:50:31  5-MIN KDBQ 061150Z 18013KT 10SM FEW090 17/12 A2978 1210 72 1800 180/13 RMK AO2 SLP080 60001 70004 T01720122 10200 20172 53001
94908KDBQ DBQ20100906055509709/06/10 05:55:31  5-MIN KDBQ 061155Z 18012KT 10SM FEW095 17/12 A2977 1210 72 1800 180/12 RMK AO2
94908KDBQ DBQ20100906060009409/06/10 06:00:31  5-MIN KDBQ 061200Z 18013KT 10SM CLR 17/12 A2978 1210 72 1800 180/13 RMK AO2
94908KDBQ DBQ20100906060509409/06/10 06:05:31  5-MIN KDBQ 061205Z 18014KT 10SM CLR 17/12 A2978 1210 72 1800 170/14 RMK AO2
94908KDBQ DBQ20100906061010009/06/10 06:10:31  5-MIN KDBQ 061210Z 17012G19KT 10SM CLR 17/12 A2978 1210 72 1800 170/12G19 RMK AO2
94908KDBQ DBQ20100906061510009/06/10 06:15:31  5-MIN KDBQ 061215Z 17011G18KT 10SM CLR 17/12 A2978 1210 72 1800 170/11G18 RMK AO2
94908KDBQ DBQ20100906062010009/06/10 06:20:31  5-MIN KDBQ 061220Z 18012G17KT 10SM CLR 17/12 A2977 1210 72 1800 170/12G17 RMK AO2
94908KDBQ DBQ20100906062509409/06/10 06:25:31  5-MIN KDBQ 061225Z 17015KT 10SM CLR 17/12 A2976 1220 72 1800 170/15 RMK AO2
94908KDBQ DBQ20100906063010109/06/10 06:30:31  5-MIN KDBQ 061230Z 17016KT 10SM CLR 17/12 A2976 1230 72 1800 170/16 RMK AO2 PRESFR
94908KDBQ DBQ20100906063510009/06/10 06:35:31  5-MIN KDBQ 061235Z 18017G22KT 10SM CLR 17/12 A2976 1230 72 1800 180/17G22 RMK AO2
94908KDBQ DBQ20100906064010009/06/10 06:40:31  5-MIN KDBQ 061240Z 18015G24KT 10SM CLR 18/12 A2976 1230 69 1900 180/15G24 RMK AO2
94908KDBQ DBQ20100906064510009/06/10 06:45:31  5-MIN KDBQ 061245Z 18015G24KT 10SM CLR 18/12 A2976 1230 67 1900 180/15G24 RMK AO2
94908KDBQ DBQ20100906065011709/06/10 06:50:31  5-MIN KDBQ 061250Z 18017G22KT 10SM CLR 18/12 A2976 1230 65 1900 180/17G22 RMK AO2 SLP075 T01830117
94908KDBQ DBQ20100906065510009/06/10 06:55:31  5-MIN KDBQ 061255Z 19016G24KT 10SM CLR 18/12 A2976 1230 65 1900 180/16G24 RMK AO2
94908KDBQ DBQ20100906070010009/06/10 07:00:31  5-MIN KDBQ 061300Z 19016G24KT 10SM CLR 19/12 A2976 1220 62 2000 190/16G24 RMK AO2
94908KDBQ DBQ20100906070509409/06/10 07:05:31  5-MIN KDBQ 061305Z 19015KT 10SM CLR 19/12 A2977 1220 62 2000 190/15 RMK AO2
94908KDBQ DBQ20100906071010009/06/10 07:10:31  5-MIN KDBQ 061310Z 19018G23KT 10SM CLR 19/12 A2977 1220 62 2000 190/18G23 RMK AO2
94908KDBQ DBQ20100906071510009/06/10 07:15:31  5-MIN KDBQ 061315Z 19017G23KT 10SM CLR 19/12 A2977 1220 60 2100 190/17G23 RMK AO2
94908KDBQ DBQ20100906072010009/06/10 07:20:31  5-MIN KDBQ 061320Z 19014G23KT 10SM CLR 19/12 A2977 1220 60 2100 190/14G23 RMK AO2
94908KDBQ DBQ20100906072510009/06/10 07:25:31  5-MIN KDBQ 061325Z 19015G23KT 10SM CLR 19/12 A2977 1210 60 2100 190/15G23 RMK AO2
94908KDBQ DBQ20100906073010009/06/10 07:30:31  5-MIN KDBQ 061330Z 19012G22KT 10SM CLR 19/12 A2978 1210 60 2000 190/12G22 RMK AO2
94908KDBQ DBQ20100906073510009/06/10 07:35:31  5-MIN KDBQ 061335Z 19013G20KT 10SM CLR 20/12 A2978 1210 58 2100 190/13G20 RMK AO2
94908KDBQ DBQ20100906074010009/06/10 07:40:31  5-MIN KDBQ 061340Z 19015G22KT 10SM CLR 20/12 A2977 1210 58 2100 190/15G22 RMK AO2
94908KDBQ DBQ20100906074510009/06/10 07:45:31  5-MIN KDBQ 061345Z 19013G22KT 10SM CLR 20/12 A2978 1210 58 2100 190/13G22 RMK AO2
94908KDBQ DBQ20100906075011709/06/10 07:50:31  5-MIN KDBQ 061350Z 20016G21KT 10SM CLR 21/12 A2978 1210 56 2200 200/16G21 RMK AO2 SLP078 T02060117
94908KDBQ DBQ20100906075510009/06/10 07:55:31  5-MIN KDBQ 061355Z 20014G21KT 10SM CLR 20/12 A2978 1210 58 2100 190/14G21 RMK AO2
94908KDBQ DBQ20100906080010009/06/10 08:00:31  5-MIN KDBQ 061400Z 20016G23KT 10SM CLR 20/12 A2978 1200 58 2100 200/16G23 RMK AO2
94908KDBQ DBQ20100906080510009/06/10 08:05:31  5-MIN KDBQ 061405Z 20013G23KT 10SM CLR 20/12 A2979 1200 60 2100 200/13G23 RMK AO2
94908KDBQ DBQ20100906081010009/06/10 08:10:31  5-MIN KDBQ 061410Z 20015G25KT 10SM CLR 21/12 A2979 1200 56 2200 200/15G25 RMK AO2
94908KDBQ DBQ20100906081511809/06/10 08:15:31  5-MIN KDBQ 061415Z 20018G27KT 10SM CLR 21/12 A2979 1200 54 2200 200/18G27 RMK AO2 PK WND 20027/1415
94908KDBQ DBQ20100906082011809/06/10 08:20:31  5-MIN KDBQ 061420Z 20018G27KT 10SM CLR 21/12 A2978 1210 54 2200 200/18G27 RMK AO2 PK WND 20027/1415
94908KDBQ DBQ20100906082511809/06/10 08:25:31  5-MIN KDBQ 061425Z 19019G26KT 10SM CLR 22/12 A2977 1210 52 2300 190/19G26 RMK AO2 PK WND 20027/1415
94908KDBQ DBQ20100906083011809/06/10 08:30:31  5-MIN KDBQ 061430Z 19015G30KT 10SM CLR 21/12 A2977 1220 54 2200 190/15G30 RMK AO2 PK WND 20030/1428
94908KDBQ DBQ20100906083511809/06/10 08:35:31  5-MIN KDBQ 061435Z 20018G30KT 10SM CLR 21/11 A2977 1220 52 2200 190/18G30 RMK AO2 PK WND 20030/1428
94908KDBQ DBQ20100906084011809/06/10 08:40:31  5-MIN KDBQ 061440Z 19019G26KT 10SM CLR 21/12 A2977 1220 54 2200 190/19G26 RMK AO2 PK WND 20030/1428
94908KDBQ DBQ20100906084511809/06/10 08:45:31  5-MIN KDBQ 061445Z 19020G26KT 10SM CLR 21/12 A2977 1220 54 2200 190/20G26 RMK AO2 PK WND 20030/1428
94908KDBQ DBQ20100906085014109/06/10 08:50:31  5-MIN KDBQ 061450Z 19017G25KT 10SM CLR 21/12 A2977 1220 54 2200 190/17G25 RMK AO2 PK WND 20030/1428 SLP078 T02110117 58003
94908KDBQ DBQ20100906085511809/06/10 08:55:31  5-MIN KDBQ 061455Z 19021G26KT 10SM CLR 21/12 A2977 1220 54 2200 190/21G26 RMK AO2 PK WND 19026/1455
94908KDBQ DBQ20100906090011809/06/10 09:00:31  5-MIN KDBQ 061500Z 19018G26KT 10SM CLR 21/12 A2977 1220 56 2200 190/18G26 RMK AO2 PK WND 19026/1455
94908KDBQ DBQ20100906090511809/06/10 09:05:31  5-MIN KDBQ 061505Z 19019G26KT 10SM CLR 21/11 A2977 1210 54 2200 190/19G26 RMK AO2 PK WND 19026/1505
94908KDBQ DBQ20100906091011809/06/10 09:10:31  5-MIN KDBQ 061510Z 19018G27KT 10SM CLR 21/12 A2978 1210 56 2200 190/18G27 RMK AO2 PK WND 18027/1506
94908KDBQ DBQ20100906091511809/06/10 09:15:31  5-MIN KDBQ 061515Z 19020G27KT 10SM CLR 21/11 A2978 1210 54 2200 190/20G27 RMK AO2 PK WND 19027/1511
94908KDBQ DBQ20100906092011809/06/10 09:20:31  5-MIN KDBQ 061520Z 19019G27KT 10SM CLR 20/11 A2978 1210 56 2100 190/19G27 RMK AO2 PK WND 19027/1511
94908KDBQ DBQ20100906092511809/06/10 09:25:31  5-MIN KDBQ 061525Z 19018G25KT 10SM CLR 20/12 A2978 1210 58 2100 190/18G25 RMK AO2 PK WND 19027/1511
94908KDBQ DBQ20100906093011809/06/10 09:30:31  5-MIN KDBQ 061530Z 19020G25KT 10SM CLR 20/11 A2978 1210 56 2100 190/20G25 RMK AO2 PK WND 19027/1511
94908KDBQ DBQ20100906093511809/06/10 09:35:31  5-MIN KDBQ 061535Z 19018G25KT 10SM CLR 19/12 A2978 1210 60 2000 190/18G25 RMK AO2 PK WND 19027/1511
94908KDBQ DBQ20100906094011209/06/10 09:40:31  5-MIN KDBQ 061540Z 19016KT 10SM CLR 19/12 A2978 1210 62 2000 190/16 RMK AO2 PK WND 19027/1511
94908KDBQ DBQ20100906094511809/06/10 09:45:31  5-MIN KDBQ 061545Z 18016G22KT 10SM CLR 20/12 A2977 1220 60 2100 180/16G22 RMK AO2 PK WND 19027/1511
94908KDBQ DBQ20100906095013509/06/10 09:50:31  5-MIN KDBQ 061550Z 19014G22KT 10SM CLR 20/12 A2977 1220 60 2100 190/14G22 RMK AO2 PK WND 19027/1511 SLP076 T02000122
94908KDBQ DBQ20100906095511209/06/10 09:55:31  5-MIN KDBQ 061555Z 19014G22KT 10SM CLR 20/13 A2977 1220 63 2100 190/14G22 RMK AO2 LTG DSNT NW
94908KDBQ DBQ20100906100010609/06/10 10:00:31  5-MIN KDBQ 061600Z 19015KT 10SM CLR 20/13 A2977 1210 63 2100 190/15 RMK AO2 LTG DSNT NW
94908KDBQ DBQ20100906100510609/06/10 10:05:31  5-MIN KDBQ 061605Z 19013KT 10SM CLR 20/13 A2977 1210 63 2100 190/13 RMK AO2 LTG DSNT NW
94908KDBQ DBQ20100906101011209/06/10 10:10:31  5-MIN KDBQ 061610Z 18010G19KT 10SM CLR 20/13 A2977 1220 63 2100 180/10G19 RMK AO2 LTG DSNT NW
94908KDBQ DBQ20100906101511209/06/10 10:15:31  5-MIN KDBQ 061615Z 17011G15KT 10SM CLR 20/13 A2977 1220 63 2100 170/11G15 RMK AO2 LTG DSNT NW
94908KDBQ DBQ20100906102009409/06/10 10:20:31  5-MIN KDBQ 061620Z 18008KT 10SM CLR 20/13 A2977 1220 63 2100 180/08 RMK AO2
94908KDBQ DBQ20100906102509409/06/10 10:25:31  5-MIN KDBQ 061625Z 19009KT 10SM CLR 20/13 A2977 1210 63 2100 190/09 RMK AO2
94908KDBQ DBQ20100906103009409/06/10 10:30:31  5-MIN KDBQ 061630Z 17009KT 10SM CLR 19/13 A2976 1230 67 2100 170/09 RMK AO2
94908KDBQ DBQ20100906103510009/06/10 10:35:31  5-MIN KDBQ 061635Z 17010G15KT 10SM CLR 19/13 A2976 1230 67 2100 170/10G15 RMK AO2
94908KDBQ DBQ20100906104010009/06/10 10:40:31  5-MIN KDBQ 061640Z 18010G15KT 10SM CLR 19/13 A2977 1220 65 2100 170/10G15 RMK AO2
94908KDBQ DBQ20100906104509409/06/10 10:45:31  5-MIN KDBQ 061645Z 16011KT 10SM CLR 19/13 A2976 1220 67 2100 160/11 RMK AO2
94908KDBQ DBQ20100906105011709/06/10 10:50:31  5-MIN KDBQ 061650Z VRB03G16KT 10SM CLR 19/13 A2978 1210 70 2000 VRB/03G16 RMK AO2 SLP080 T01890133
94908KDBQ DBQ20100906105509409/06/10 10:55:31  5-MIN KDBQ 061655Z 20006KT 10SM CLR 19/13 A2978 1210 67 2000 190/06 RMK AO2
94908KDBQ DBQ20100906110009409/06/10 11:00:31  5-MIN KDBQ 061700Z 19009KT 10SM CLR 19/13 A2977 1220 67 2100 190/09 RMK AO2
94908KDBQ DBQ20100906110509409/06/10 11:05:31  5-MIN KDBQ 061705Z 18012KT 10SM CLR 20/13 A2976 1230 65 2100 180/12 RMK AO2
94908KDBQ DBQ20100906111010009/06/10 11:10:31  5-MIN KDBQ 061710Z 18015G20KT 10SM CLR 19/13 A2976 1230 67 2100 180/15G20 RMK AO2
94908KDBQ DBQ20100906111510009/06/10 11:15:31  5-MIN KDBQ 061715Z 19013G20KT 10SM CLR 19/13 A2976 1230 67 2100 180/13G20 RMK AO2
94908KDBQ DBQ20100906112009409/06/10 11:20:31  5-MIN KDBQ 061720Z 19013KT 10SM CLR 19/13 A2976 1230 67 2100 190/13 RMK AO2
94908KDBQ DBQ20100906112510009/06/10 11:25:31  5-MIN KDBQ 061725Z 19015G20KT 10SM CLR 20/14 A2975 1230 67 2100 190/15G20 RMK AO2
94908KDBQ DBQ20100906113010009/06/10 11:30:31  5-MIN KDBQ 061730Z 20015G20KT 10SM CLR 21/13 A2975 1240 63 2200 200/15G20 RMK AO2
94908KDBQ DBQ20100906113509409/06/10 11:35:31  5-MIN KDBQ 061735Z 19016KT 10SM CLR 21/14 A2974 1240 63 2300 190/16 RMK AO2
94908KDBQ DBQ20100906114009409/06/10 11:40:31  5-MIN KDBQ 061740Z 20019KT 10SM CLR 21/13 A2974 1250 61 2300 200/19 RMK AO2
94908KDBQ DBQ20100906114510009/06/10 11:45:31  5-MIN KDBQ 061745Z 20014G21KT 10SM CLR 21/13 A2975 1240 61 2300 200/14G21 RMK AO2
94908KDBQ DBQ20100906115012909/06/10 11:50:31  5-MIN KDBQ 061750Z 19016KT 10SM CLR 21/14 A2975 1240 63 2300 190/16 RMK AO2 SLP068 T02110139 10217 20172 56001
94908KDBQ DBQ20100906115509409/06/10 11:55:31  5-MIN KDBQ 061755Z 19014KT 10SM CLR 21/14 A2976 1230 63 2300 190/14 RMK AO2
94908KDBQ DBQ20100906120009409/06/10 12:00:31  5-MIN KDBQ 061800Z 19012KT 10SM CLR 21/14 A2976 1230 63 2300 190/12 RMK AO2
94908KDBQ DBQ20100906120509409/06/10 12:05:31  5-MIN KDBQ 061805Z 20012KT 10SM CLR 21/14 A2975 1230 63 2300 200/12 RMK AO2
94908KDBQ DBQ20100906121009409/06/10 12:10:31  5-MIN KDBQ 061810Z 20012KT 10SM CLR 21/14 A2975 1230 63 2300 200/12 RMK AO2
94908KDBQ DBQ20100906121509409/06/10 12:15:31  5-MIN KDBQ 061815Z 20011KT 10SM CLR 21/14 A2976 1230 63 2300 200/11 RMK AO2
94908KDBQ DBQ20100906122009409/06/10 12:20:31  5-MIN KDBQ 061820Z 20011KT 10SM CLR 21/14 A2976 1230 65 2300 200/11 RMK AO2
94908KDBQ DBQ20100906122510009/06/10 12:25:31  5-MIN KDBQ 061825Z 20012G18KT 10SM CLR 21/14 A2976 1230 63 2300 190/12G18 RMK AO2
94908KDBQ DBQ20100906123010009/06/10 12:30:31  5-MIN KDBQ 061830Z 19010G18KT 10SM CLR 21/13 A2976 1230 61 2300 180/10G18 RMK AO2
94908KDBQ DBQ20100906123509409/06/10 12:35:31  5-MIN KDBQ 061835Z 20008KT 10SM CLR 21/14 A2976 1220 63 2300 190/08 RMK AO2
94908KDBQ DBQ20100906124009409/06/10 12:40:31  5-MIN KDBQ 061840Z 19009KT 10SM CLR 21/14 A2976 1230 63 2300 190/09 RMK AO2
94908KDBQ DBQ20100906124510009/06/10 12:45:31  5-MIN KDBQ 061845Z 19012G18KT 10SM CLR 21/14 A2975 1230 63 2300 190/12G18 RMK AO2
94908KDBQ DBQ20100906125011709/06/10 12:50:31  5-MIN KDBQ 061850Z 19010G18KT 10SM CLR 21/13 A2976 1230 61 2300 190/10G18 RMK AO2 SLP071 T02110133
94908KDBQ DBQ20100906125509409/06/10 12:55:31  5-MIN KDBQ 061855Z 18007KT 10SM CLR 21/14 A2975 1240 63 2300 180/07 RMK AO2
94908KDBQ DBQ20100906130010709/06/10 13:00:31  5-MIN KDBQ 061900Z 18012G16KT 10SM CLR 21/14 A2973 1250 63 2300 170/12G16 RMK AO2 PRESFR
94908KDBQ DBQ20100906130510009/06/10 13:05:31  5-MIN KDBQ 061905Z 17009G16KT 10SM CLR 21/13 A2973 1260 61 2300 170/09G16 RMK AO2
94908KDBQ DBQ20100906131010009/06/10 13:10:31  5-MIN KDBQ 061910Z 15009G15KT 10SM CLR 22/14 A2973 1260 63 2400 150/09G15 RMK AO2
94908KDBQ DBQ20100906131510009/06/10 13:15:31  5-MIN KDBQ 061915Z 18011G18KT 10SM CLR 22/14 A2973 1260 61 2400 180/11G18 RMK AO2
94908KDBQ DBQ20100906132010009/06/10 13:20:31  5-MIN KDBQ 061920Z 18014G18KT 10SM CLR 22/14 A2973 1250 61 2400 180/14G18 RMK AO2
94908KDBQ DBQ20100906132510009/06/10 13:25:31  5-MIN KDBQ 061925Z 19014G20KT 10SM CLR 23/14 A2973 1250 59 2500 190/14G20 RMK AO2
94908KDBQ DBQ20100906133010009/06/10 13:30:31  5-MIN KDBQ 061930Z 18014G20KT 10SM CLR 23/15 A2973 1260 59 2600 180/14G20 RMK AO2
94908KDBQ DBQ20100906133510009/06/10 13:35:31  5-MIN KDBQ 061935Z 18014G22KT 10SM CLR 23/15 A2972 1260 59 2600 180/14G22 RMK AO2
94908KDBQ DBQ20100906134010009/06/10 13:40:31  5-MIN KDBQ 061940Z 18015G22KT 10SM CLR 24/16 A2972 1260 57 2700 180/15G22 RMK AO2
94908KDBQ DBQ20100906134510009/06/10 13:45:31  5-MIN KDBQ 061945Z 18014G22KT 10SM CLR 24/15 A2971 1270 55 2700 180/14G22 RMK AO2
94908KDBQ DBQ20100906135012409/06/10 13:50:31  5-MIN KDBQ 061950Z 17012G22KT 10SM CLR 25/16 A2970 1280 57 2800 170/12G22 RMK AO2 PRESFR SLP052 T02500161
94908KDBQ DBQ20100906135510009/06/10 13:55:31  5-MIN KDBQ 061955Z 18014G23KT 10SM CLR 26/16 A2970 1280 53 2800 180/14G23 RMK AO2
94908KDBQ DBQ20100906140010009/06/10 14:00:31  5-MIN KDBQ 062000Z 17015G23KT 10SM CLR 26/16 A2970 1290 51 2900 170/15G23 RMK AO2
94908KDBQ DBQ20100906140510009/06/10 14:05:31  5-MIN KDBQ 062005Z 17012G21KT 10SM CLR 26/16 A2969 1290 53 2900 170/12G21 RMK AO2
94908KDBQ DBQ20100906141010009/06/10 14:10:31  5-MIN KDBQ 062010Z 18016G21KT 10SM CLR 26/16 A2969 1290 53 2900 180/16G21 RMK AO2
94908KDBQ DBQ20100906141510009/06/10 14:15:31  5-MIN KDBQ 062015Z 19017G22KT 10SM CLR 26/16 A2969 1290 51 2900 190/17G22 RMK AO2
94908KDBQ DBQ20100906142010009/06/10 14:20:31  5-MIN KDBQ 062020Z 18017G23KT 10SM CLR 27/16 A2969 1290 50 3000 180/17G23 RMK AO2
94908KDBQ DBQ20100906142510009/06/10 14:25:31  5-MIN KDBQ 062025Z 18012G23KT 10SM CLR 27/16 A2969 1290 52 3000 180/12G23 RMK AO2
94908KDBQ DBQ20100906143010009/06/10 14:30:31  5-MIN KDBQ 062030Z 18015G20KT 10SM CLR 27/16 A2969 1300 52 3000 180/15G20 RMK AO2
94908KDBQ DBQ20100906143510009/06/10 14:35:31  5-MIN KDBQ 062035Z 18012G21KT 10SM CLR 27/16 A2968 1300 50 3000 180/12G21 RMK AO2
94908KDBQ DBQ20100906144010009/06/10 14:40:31  5-MIN KDBQ 062040Z 18013G21KT 10SM CLR 27/17 A2968 1310 52 3000 180/13G21 RMK AO2
94908KDBQ DBQ20100906144510009/06/10 14:45:31  5-MIN KDBQ 062045Z 18016G21KT 10SM CLR 28/17 A2967 1310 50 3100 180/16G21 RMK AO2
94908KDBQ DBQ20100906145012309/06/10 14:50:31  5-MIN KDBQ 062050Z 18016G22KT 10SM CLR 28/17 A2967 1310 50 3100 180/16G22 RMK AO2 SLP040 T02780167 58006
94908KDBQ DBQ20100906145510009/06/10 14:55:31  5-MIN KDBQ 062055Z 18018G26KT 10SM CLR 28/16 A2967 1310 48 3100 180/18G26 RMK AO2
94908KDBQ DBQ20100906150011809/06/10 15:00:31  5-MIN KDBQ 062100Z 18017G28KT 10SM CLR 28/17 A2967 1310 50 3100 180/17G28 RMK AO2 PK WND 19028/2056
94908KDBQ DBQ20100906150511809/06/10 15:05:31  5-MIN KDBQ 062105Z 18018G28KT 10SM CLR 28/17 A2967 1310 50 3100 170/18G28 RMK AO2 PK WND 19028/2056
94908KDBQ DBQ20100906151011809/06/10 15:10:31  5-MIN KDBQ 062110Z 18014G24KT 10SM CLR 28/17 A2967 1310 50 3100 180/14G24 RMK AO2 PK WND 19028/2056
94908KDBQ DBQ20100906151511809/06/10 15:15:31  5-MIN KDBQ 062115Z 17017G24KT 10SM CLR 28/17 A2966 1320 50 3100 170/17G24 RMK AO2 PK WND 19028/2056
94908KDBQ DBQ20100906152011809/06/10 15:20:31  5-MIN KDBQ 062120Z 17016G26KT 10SM CLR 28/17 A2966 1320 50 3100 170/16G26 RMK AO2 PK WND 19028/2056
94908KDBQ DBQ20100906152511809/06/10 15:25:31  5-MIN KDBQ 062125Z 18019G26KT 10SM CLR 28/16 A2967 1310 48 3100 180/19G26 RMK AO2 PK WND 19028/2056
94908KDBQ DBQ20100906153011809/06/10 15:30:31  5-MIN KDBQ 062130Z 19018G26KT 10SM CLR 28/17 A2967 1310 48 3200 190/18G26 RMK AO2 PK WND 19028/2056
94908KDBQ DBQ20100906153511809/06/10 15:35:31  5-MIN KDBQ 062135Z 18017G25KT 10SM CLR 28/17 A2968 1300 48 3200 180/17G25 RMK AO2 PK WND 19028/2056
94908KDBQ DBQ20100906154011809/06/10 15:40:31  5-MIN KDBQ 062140Z 19021G25KT 10SM CLR 28/17 A2967 1310 48 3200 190/21G25 RMK AO2 PK WND 19028/2056
94908KDBQ DBQ20100906154511809/06/10 15:45:31  5-MIN KDBQ 062145Z 19021G28KT 10SM CLR 28/17 A2967 1310 50 3100 190/21G28 RMK AO2 PK WND 19028/2144
94908KDBQ DBQ20100906155013509/06/10 15:50:31  5-MIN KDBQ 062150Z 18014G28KT 10SM CLR 28/16 A2967 1310 48 3100 180/14G28 RMK AO2 PK WND 19028/2144 SLP039 T02780161
94908KDBQ DBQ20100906155510009/06/10 15:55:31  5-MIN KDBQ 062155Z 18014G23KT 10SM CLR 28/17 A2966 1320 50 3100 180/14G23 RMK AO2
94908KDBQ DBQ20100906160011809/06/10 16:00:31  5-MIN KDBQ 062200Z 18019G28KT 10SM CLR 28/17 A2966 1320 50 3100 180/19G28 RMK AO2 PK WND 19028/2158
94908KDBQ DBQ20100906160511809/06/10 16:05:31  5-MIN KDBQ 062205Z 20020G30KT 10SM CLR 28/17 A2969 1300 50 3100 200/20G30 RMK AO2 PK WND 19030/2205
94908KDBQ DBQ20100906161012509/06/10 16:10:31  5-MIN KDBQ 062210Z 20022G30KT 10SM CLR 27/17 A2970 1280 52 3000 200/22G30 RMK AO2 PK WND 19030/2205 PRESRR
94908KDBQ DBQ20100906161511809/06/10 16:15:31  5-MIN KDBQ 062215Z 20016G30KT 10SM CLR 27/17 A2970 1280 52 3000 200/16G30 RMK AO2 PK WND 20030/2212
94908KDBQ DBQ20100906162012509/06/10 16:20:31  5-MIN KDBQ 062220Z 21015G30KT 10SM CLR 27/17 A2971 1270 53 2900 210/15G30 RMK AO2 PK WND 20030/2212 PRESRR
94908KDBQ DBQ20100906162511209/06/10 16:25:31  5-MIN KDBQ 062225Z 20014KT 10SM CLR 27/17 A2971 1270 53 2900 200/14 RMK AO2 PK WND 20030/2212
94908KDBQ DBQ20100906163011209/06/10 16:30:31  5-MIN KDBQ 062230Z 20014KT 10SM CLR 26/17 A2972 1270 55 2900 200/14 RMK AO2 PK WND 20030/2212
94908KDBQ DBQ20100906163511809/06/10 16:35:31  5-MIN KDBQ 062235Z 20012G20KT 10SM CLR 26/17 A2972 1260 55 2900 200/12G20 RMK AO2 PK WND 20030/2212
94908KDBQ DBQ20100906164011809/06/10 16:40:31  5-MIN KDBQ 062240Z 20012G20KT 10SM CLR 26/17 A2972 1260 57 2900 200/12G20 RMK AO2 PK WND 20030/2212
94908KDBQ DBQ20100906164511209/06/10 16:45:31  5-MIN KDBQ 062245Z 19009KT 10SM CLR 26/17 A2972 1270 57 2900 190/09 RMK AO2 PK WND 20030/2212
94908KDBQ DBQ20100906165012909/06/10 16:50:31  5-MIN KDBQ 062250Z 19009KT 10SM CLR 26/17 A2971 1270 59 2800 190/09 RMK AO2 PK WND 20030/2212 SLP056 T02560172
94908KDBQ DBQ20100906165509409/06/10 16:55:31  5-MIN KDBQ 062255Z 20009KT 10SM CLR 26/17 A2971 1270 59 2800 200/09 RMK AO2
94908KDBQ DBQ20100906170009409/06/10 17:00:31  5-MIN KDBQ 062300Z 20009KT 10SM CLR 26/17 A2972 1270 59 2800 190/09 RMK AO2
94908KDBQ DBQ20100906170509409/06/10 17:05:31  5-MIN KDBQ 062305Z 19008KT 10SM CLR 25/18 A2971 1270 64 2800 190/08 RMK AO2
94908KDBQ DBQ20100906171009409/06/10 17:10:31  5-MIN KDBQ 062310Z 19009KT 10SM CLR 25/18 A2971 1270 64 2800 190/09 RMK AO2
94908KDBQ DBQ20100906171509409/06/10 17:15:31  5-MIN KDBQ 062315Z 19011KT 10SM CLR 26/18 A2970 1280 61 2800 190/11 RMK AO2
94908KDBQ DBQ20100906172009409/06/10 17:20:31  5-MIN KDBQ 062320Z 19011KT 10SM CLR 26/18 A2970 1280 61 2800 190/11 RMK AO2
94908KDBQ DBQ20100906172509409/06/10 17:25:31  5-MIN KDBQ 062325Z 19012KT 10SM CLR 26/18 A2970 1280 61 2800 190/12 RMK AO2
94908KDBQ DBQ20100906173009409/06/10 17:30:31  5-MIN KDBQ 062330Z 19012KT 10SM CLR 26/18 A2970 1280 61 2800 190/12 RMK AO2
94908KDBQ DBQ20100906173509409/06/10 17:35:31  5-MIN KDBQ 062335Z 19011KT 10SM CLR 26/18 A2971 1280 61 2800 190/11 RMK AO2
94908KDBQ DBQ20100906174009409/06/10 17:40:31  5-MIN KDBQ 062340Z 20009KT 10SM CLR 25/18 A2971 1270 64 2800 190/09 RMK AO2
94908KDBQ DBQ20100906174509409/06/10 17:45:31  5-MIN KDBQ 062345Z 19008KT 10SM CLR 25/18 A2971 1280 64 2800 190/08 RMK AO2
94908KDBQ DBQ20100906175012909/06/10 17:50:31  5-MIN KDBQ 062350Z 19009KT 10SM CLR 25/18 A2970 1280 64 2800 190/09 RMK AO2 SLP054 T02500178 10283 20211 58028
94908KDBQ DBQ20100906175509409/06/10 17:55:31  5-MIN KDBQ 062355Z 18010KT 10SM CLR 25/18 A2970 1280 64 2800 180/10 RMK AO2
94908KDBQ DBQ20100906180009409/06/10 18:00:31  5-MIN KDBQ 070000Z 18010KT 10SM CLR 25/17 A2970 1280 61 2800 180/10 RMK AO2
94908KDBQ DBQ20100906180509409/06/10 18:05:31  5-MIN KDBQ 070005Z 19010KT 10SM CLR 24/17 A2970 1280 63 2700 190/10 RMK AO2
94908KDBQ DBQ20100906181009409/06/10 18:10:31  5-MIN KDBQ 070010Z 19009KT 10SM CLR 24/17 A2970 1280 63 2700 190/09 RMK AO2
94908KDBQ DBQ20100906181509409/06/10 18:15:31  5-MIN KDBQ 070015Z 19011KT 10SM CLR 24/17 A2970 1280 63 2700 180/11 RMK AO2
94908KDBQ DBQ20100906182009409/06/10 18:20:31  5-MIN KDBQ 070020Z 18010KT 10SM CLR 24/17 A2970 1290 63 2700 180/10 RMK AO2
94908KDBQ DBQ20100906182509409/06/10 18:25:31  5-MIN KDBQ 070025Z 18010KT 10SM CLR 24/17 A2970 1290 63 2700 180/10 RMK AO2
94908KDBQ DBQ20100906183009409/06/10 18:30:31  5-MIN KDBQ 070030Z 18011KT 10SM CLR 24/17 A2970 1280 63 2700 180/11 RMK AO2
94908KDBQ DBQ20100906183509409/06/10 18:35:31  5-MIN KDBQ 070035Z 18011KT 10SM CLR 24/17 A2971 1280 63 2700 180/11 RMK AO2
94908KDBQ DBQ20100906184009409/06/10 18:40:31  5-MIN KDBQ 070040Z 18012KT 10SM CLR 24/17 A2970 1280 63 2700 180/12 RMK AO2
94908KDBQ DBQ20100906184509409/06/10 18:45:31  5-MIN KDBQ 070045Z 18013KT 10SM CLR 24/17 A2971 1270 63 2700 180/13 RMK AO2
94908KDBQ DBQ20100906185011109/06/10 18:50:31  5-MIN KDBQ 070050Z 18013KT 10SM CLR 24/17 A2971 1270 63 2700 180/13 RMK AO2 SLP054 T02440172
94908KDBQ DBQ20100906185509409/06/10 18:55:31  5-MIN KDBQ 070055Z 18012KT 10SM CLR 24/17 A2971 1280 63 2700 180/12 RMK AO2
94908KDBQ DBQ20100906190009909/06/10 19:00:31  5-MIN KDBQ 070100Z AUTO 18011KT 10SM CLR 24/17 A2971 1270 63 2700 180/11 RMK AO2
94908KDBQ DBQ20100906190510209/06/10 19:05:31  5-MIN KDBQ 070105Z AUTO 18011KT 10SM SCT075 24/17 A2971 1270 63 2700 180/11 RMK AO2
94908KDBQ DBQ20100906191010209/06/10 19:10:31  5-MIN KDBQ 070110Z AUTO 18012KT 10SM BKN080 24/17 A2971 1270 63 2700 180/12 RMK AO2
94908KDBQ DBQ20100906191510209/06/10 19:15:31  5-MIN KDBQ 070115Z AUTO 18011KT 10SM BKN080 24/17 A2971 1280 63 2700 180/11 RMK AO2
94908KDBQ DBQ20100906192010209/06/10 19:20:31  5-MIN KDBQ 070120Z AUTO 18012KT 10SM BKN085 24/17 A2971 1280 63 2700 180/12 RMK AO2
94908KDBQ DBQ20100906192510209/06/10 19:25:31  5-MIN KDBQ 070125Z AUTO 18014KT 10SM BKN085 24/17 A2971 1280 63 2700 180/14 RMK AO2
94908KDBQ DBQ20100906193010809/06/10 19:30:31  5-MIN KDBQ 070130Z AUTO 18015G18KT 10SM BKN085 24/17 A2970 1280 63 2700 180/15G18 RMK AO2
94908KDBQ DBQ20100906193510209/06/10 19:35:31  5-MIN KDBQ 070135Z AUTO 18014KT 10SM BKN085 24/17 A2970 1280 66 2600 180/14 RMK AO2
94908KDBQ DBQ20100906194010809/06/10 19:40:31  5-MIN KDBQ 070140Z AUTO 18014G20KT 10SM SCT085 24/17 A2970 1280 66 2600 180/14G20 RMK AO2
94908KDBQ DBQ20100906194510209/06/10 19:45:31  5-MIN KDBQ 070145Z AUTO 18014KT 10SM FEW085 24/17 A2970 1280 66 2600 180/14 RMK AO2
94908KDBQ DBQ20100906195012509/06/10 19:50:31  5-MIN KDBQ 070150Z AUTO 18014G21KT 10SM FEW085 24/17 A2971 1280 66 2600 180/14G21 RMK AO2 SLP053 T02390172
94908KDBQ DBQ20100906195510509/06/10 19:55:31  5-MIN KDBQ 070155Z AUTO 18015G22KT 10SM CLR 24/17 A2971 1280 66 2600 180/15G22 RMK AO2
94908KDBQ DBQ20100906200010809/06/10 20:00:31  5-MIN KDBQ 070200Z AUTO 18014G22KT 10SM FEW070 24/17 A2970 1280 66 2600 180/14G22 RMK AO2
94908KDBQ DBQ20100906200510809/06/10 20:05:31  5-MIN KDBQ 070205Z AUTO 18014G20KT 10SM FEW070 24/17 A2970 1280 66 2600 180/14G20 RMK AO2
94908KDBQ DBQ20100906201010809/06/10 20:10:31  5-MIN KDBQ 070210Z AUTO 18014G21KT 10SM FEW070 24/17 A2969 1290 66 2700 180/14G21 RMK AO2
94908KDBQ DBQ20100906201510809/06/10 20:15:31  5-MIN KDBQ 070215Z AUTO 18017G23KT 10SM FEW070 24/17 A2969 1300 66 2700 180/17G23 RMK AO2
94908KDBQ DBQ20100906202010809/06/10 20:20:31  5-MIN KDBQ 070220Z AUTO 18015G23KT 10SM FEW070 24/17 A2968 1300 66 2700 180/15G23 RMK AO2
94908KDBQ DBQ20100906202510509/06/10 20:25:31  5-MIN KDBQ 070225Z AUTO 18015G22KT 10SM CLR 24/17 A2968 1300 66 2700 180/15G22 RMK AO2
94908KDBQ DBQ20100906203011209/06/10 20:30:31  5-MIN KDBQ 070230Z AUTO 18017G22KT 10SM CLR 24/17 A2967 1310 66 2700 180/17G22 RMK AO2 PRESFR
94908KDBQ DBQ20100906203510609/06/10 20:35:31  5-MIN KDBQ 070235Z AUTO 18016KT 10SM CLR 23/17 A2966 1320 68 2600 180/16 RMK AO2 PRESFR
94908KDBQ DBQ20100906204011009/06/10 20:40:31  5-MIN KDBQ 070240Z AUTO 18015KT 10SM CLR 23/17 A2967 1310 68 2600 180/15 RMK AO2 LTG DSNT W
94908KDBQ DBQ20100906204512309/06/10 20:45:31  5-MIN KDBQ 070245Z AUTO 18016G22KT 10SM CLR 23/17 A2968 1300 68 2600 180/16G22 RMK AO2 LTG DSNT W AND NW
94908KDBQ DBQ20100906205014909/06/10 20:50:31  5-MIN KDBQ 070250Z AUTO 18016G22KT 10SM FEW060 23/17 A2968 1300 68 2600 180/16G22 RMK AO2 LTG DSNT W AND NW SLP045 T02330172 50012
94908KDBQ DBQ20100906205512609/06/10 20:55:31  5-MIN KDBQ 070255Z AUTO 18017G21KT 10SM SCT060 23/17 A2968 1300 68 2600 180/17G21 RMK AO2 LTG DSNT W AND NW
94908KDBQ DBQ20100906210013009/06/10 21:00:31  5-MIN KDBQ 070300Z AUTO 19016G22KT 10SM SCT060 SCT075 24/17 A2969 1290 66 2700 190/16G22 RMK AO2 LTG DSNT SW-NW
94908KDBQ DBQ20100906210513009/06/10 21:05:31  5-MIN KDBQ 070305Z AUTO 19017G22KT 10SM SCT060 BKN075 23/17 A2969 1290 68 2600 190/17G22 RMK AO2 LTG DSNT SW-NW
94908KDBQ DBQ20100906211015509/06/10 21:10:31  5-MIN KDBQ 070310Z AUTO 19016G23KT 10SM VCTS -RA BKN060 BKN075 23/17 A2970 1290 68 2600 190/16G23 RMK AO2 LTG DSNT SW-N TSB06RAB10 P0000
94908KDBQ DBQ20100906211515809/06/10 21:15:31  5-MIN KDBQ 070315Z AUTO 19017G23KT 8SM -TSRA FEW044 BKN060 BKN075 23/18 A2970 1280 73 2500 190/17G23 RMK AO2 LTG DSNT SW-N TSB06RAB10 P0000
94908KDBQ DBQ20100906212015809/06/10 21:20:31  5-MIN KDBQ 070320Z AUTO 19016G23KT 8SM -TSRA FEW046 BKN060 OVC075 23/18 A2970 1290 73 2500 190/16G23 RMK AO2 LTG DSNT SW-N TSB06RAB10 P0000
94908KDBQ DBQ20100906212515909/06/10 21:25:31  5-MIN KDBQ 070325Z AUTO 19019G25KT 8SM -TSRA SCT040 BKN065 OVC075 23/18 A2970 1280 73 2500 190/19G25 RMK AO2 LTG DSNT ALQDS TSB06RAB10 P0000
94908KDBQ DBQ20100906213017609/06/10 21:30:31  5-MIN KDBQ 070330Z AUTO 20018G26KT 5SM TSRA SCT038 BKN060 OVC075 22/18 A2971 1270 78 2400 200/18G26 RMK AO2 PK WND 20026/0327 LTG DSNT ALQDS TSB06RAB10 P0001
94908KDBQ DBQ20100906213517609/06/10 21:35:31  5-MIN KDBQ 070335Z AUTO 21018G26KT 5SM TSRA SCT034 BKN050 OVC060 22/18 A2972 1270 81 2400 200/18G26 RMK AO2 PK WND 20026/0327 LTG DSNT ALQDS TSB06RAB10 P0005
94908KDBQ DBQ20100906214017709/06/10 21:40:31  5-MIN KDBQ 070340Z AUTO 20012G22KT 7SM -TSRA SCT040 BKN048 OVC070 22/18 A2971 1270 81 2400 200/12G22 RMK AO2 PK WND 20026/0327 LTG DSNT ALQDS TSB06RAB10 P0005
94908KDBQ DBQ20100906214517209/06/10 21:45:31  5-MIN KDBQ 070345Z AUTO 21012KT 10SM -TSRA BKN040 BKN048 BKN075 22/18 A2972 1260 81 2400 210/12 RMK AO2 PK WND 20026/0327 LTG DSNT ALQDS TSB06RAB10 P0006
94908KDBQ DBQ20100906215019209/06/10 21:50:31  5-MIN KDBQ 070350Z AUTO 21011KT 10SM VCTS -RA BKN038 BKN050 BKN060 22/18 A2972 1260 81 2400 210/11 RMK AO2 PK WND 20026/0327 LTG DSNT ALQDS TSB06RAB10 SLP060 P0006 T02170183
94908KDBQ DBQ20100906215514609/06/10 21:55:31  5-MIN KDBQ 070355Z :31  5-MIN KDBQ 070500Z AUTO 27018G25KT 10SM FEW016 SCT024 BKN038 19/16 A2977 1220 78 2100 270/18G25 RMK AO2
94908KDBQ DBQ20100906225016309/06/10 22:50:31  5-MIN KDBQ 070450Z AUTO 27020G30KT 10SM SCT016 BKN026 OVC036 20/17 A2976 1230 84 2100 260/20G30 RMK AO2 PK WND 26030/0443 TSE04 SLP072 T02000172
94908KDBQ DBQ20100906225512209/06/10 22:55:31  5-MIN KDBQ 070455Z AUTO 27016G27KT 10SM SCT016 SCT026 BKN036 19/16 A2976 1230 81 2100 270/16G27 RMK AO2
94908KDBQ DBQ20100906230012209/06/10 23:00:31  5-MIN KDBQ 070500Z AUTO 27018G25KT 10SM FEW016 SCT024 BKN038 19/16 A2977 1220 78 2100 270/18G25 RMK AO2
94908KDBQ DBQ20100906230512209/06/10 23:05:31  5-MIN KDBQ 070505Z AUTO 27018G25KT 10SM FEW018 SCT027 BKN038 19/16 A2977 1210 78 2100 270/18G25 RMK AO2
94908KDBQ DBQ20100906231012209/06/10 23:10:31  5-MIN KDBQ 070510Z AUTO 27016G24KT 10SM FEW018 SCT026 OVC038 19/16 A2978 1210 81 2000 270/16G24 RMK AO2
94908KDBQ DBQ20100906231514009/06/10 23:15:31  5-MIN KDBQ 070515Z AUTO 28019G26KT 10SM FEW020 SCT024 OVC038 19/16 A2978 1200 81 2000 280/19G26 RMK AO2 PK WND 28026/0511
94908KDBQ DBQ20100906232014009/06/10 23:20:31  5-MIN KDBQ 070520Z AUTO 27013G26KT 10SM FEW021 BKN026 BKN038 19/15 A2979 1200 78 2000 270/13G26 RMK AO2 PK WND 28026/0511
94908KDBQ DBQ20100906232513309/06/10 23:25:31  5-MIN KDBQ 070525Z AUTO 27015G24KT 10SM BKN026 OVC038 18/15 A2979 1200 81 1900 270/15G24 RMK AO2 PK WND 28026/0511
94908KDBQ DBQ20100906233013309/06/10 23:30:31  5-MIN KDBQ 070530Z AUTO 27012G22KT 10SM BKN026 OVC042 18/15 A2979 1200 81 1900 270/12G22 RMK AO2 PK WND 28026/0511
94908KDBQ DBQ20100906233513309/06/10 23:35:31  5-MIN KDBQ 070535Z AUTO 26012G18KT 10SM BKN026 OVC044 18/15 A2979 1200 81 1900 260/12G18 RMK AO2 PK WND 28026/0511
94908KDBQ DBQ20100906234012709/06/10 23:40:31  5-MIN KDBQ 070540Z AUTO 26013KT 10SM SCT026 BKN046 18/15 A2979 1200 83 1800 260/13 RMK AO2 PK WND 28026/0511
94908KDBQ DBQ20100906234015809/06/10 23:40:31  5-MIN KDBQ 070540Z AUTO 26013KT 10SM SCT026 BKN046 18/15 A2979 1200 83 1800 011G20KT 10SM FEW046 17/14 A2981 1180 80 1800 260/11G20 RMK AO2
94908KDBQ DBQ20100906234512709/06/10 23:45:31  5-MIN KDBQ 070545Z AUTO 25012KT 10SM SCT026 SCT046 18/15 A2980 1190 83 1800 250/12 RMK AO2 PK WND 28026/0511
94908KDBQ DBQ20100906235018409/06/10 23:50:31  5-MIN KDBQ 070550Z AUTO 26016G24KT 10SM FEW026 SCT046 18/14 A2980 1190 81 1800 260/16G24 RMK AO2 PK WND 28026/0511 SLP086 60006 T01780144 10250 20178 402830172 58008
94908KDBQ DBQ20100906235510809/06/10 23:55:31  5-MIN KDBQ 070555Z AUTO 27015G24KT 10SM FEW046 17/14 A2980 1190 83 1800 270/15G24 RMK AO2
94908KDBQ DBQ20100907000010809/07/10 00:00:38  5-MIN KDBQ 070600Z AUTO 26011G20KT 10SM FEW046 17/14 A2981 1180 80 1800 260/11G20 RMK AO2
94908KDBQ DBQ20100907000510809/07/10 00:05:31  5-MIN KDBQ 070605Z AUTO 26011G20KT 10SM FEW090 17/13 A2981 1180 78 1800 260/11G20 RMK AO2
94908KDBQ DBQ20100907001010809/07/10 00:10:31  5-MIN KDBQ 070610Z AUTO 25014G19KT 10SM FEW090 17/14 A2981 1180 83 1700 250/14G19 RMK AO2
94908KDBQ DBQ20100907001510809/07/10 00:15:33  5-MIN KDBQ 070615Z AUTO 25013G21KT 10SM FEW085 17/14 A2981 1180 83 1700 250/13G21 RMK AO2
94908KDBQ DBQ20100907001511409/07/10 00:15:33  5-MIN KDBQ 070615Z AUTO 25013G21KT 10SM FEW085 17/14 16/13 A2982 1170 80 1600 250/15G22 RMK AO2
94908KDBQ DBQ20100907002010809/07/10 00:20:31  5-MIN KDBQ 070620Z AUTO 26012G21KT 10SM SCT085 16/13 A2982 1180 83 1600 260/12G21 RMK AO2
94908KDBQ DBQ20100907002511509/07/10 00:25:31  5-MIN KDBQ 070625Z AUTO 26018G22KT 10SM FEW085 SCT110 16/13 A2982 1170 80 1600 260/18G22 RMK AO2
94908KDBQ DBQ20100907003011509/07/10 00:30:31  5-MIN KDBQ 070630Z AUTO 25015G22KT 10SM SCT090 BKN110 16/13 A2982 1170 80 1600 250/15G22 RMK AO2
94908KDBQ DBQ20100907003510809/07/10 00:35:31  5-MIN KDBQ 070635Z AUTO 26014G21KT 10SM SCT100 16/12 A2982 1170 77 1600 260/14G21 RMK AO2
94908KDBQ DBQ20100907004010809/07/10 00:40:31  5-MIN KDBQ 070640Z AUTO 26015G21KT 10SM BKN100 16/12 A2982 1170 77 1600 260/15G21 RMK AO2
94908KDBQ DBQ20100907004510809/07/10 00:45:31  5-MIN KDBQ 070645Z AUTO 26014G21KT 10SM BKN100 16/12 A2982 1170 77 1600 260/14G21 RMK AO2
94908KDBQ DBQ20100907005012509/07/10 00:50:31  5-MIN KDBQ 070650Z AUTO 26012G18KT 10SM BKN100 16/12 A2983 1160 80 1500 260/12G18 RMK AO2 SLP098 T01560122
94908KDBQ DBQ20100907005510209/07/10 00:55:31  5-MIN KDBQ 070655Z AUTO 26011KT 10SM BKN100 16/12 A2983 1160 80 1500 260/11 RMK AO2
94908KDBQ DBQ20100907010010209/07/10 01:00:31  5-MIN KDBQ 070700Z AUTO 26014KT 10SM OVC100 16/12 A2983 1160 80 1500 260/14 RMK AO2
94908KDBQ DBQ20100907010510209/07/10 01:05:31  5-MIN KDBQ 070705Z AUTO 26014KT 10SM OVC100 16/12 A2983 1160 80 1500 260/14 RMK AO2
94908KDBQ DBQ20100907011010209/07/10 01:10:31  5-MIN KDBQ 070710Z AUTO 26012KT 10SM OVC100 16/12 A2983 1160 80 1500 260/12 RMK AO2
94908KDBQ DBQ20100907011510209/07/10 01:15:31  5-MIN KDBQ 070715Z AUTO 26012KT 10SM OVC100 16/12 A2984 1160 80 1500 260/12 RMK AO2
94908KDBQ DBQ20100907012010209/07/10 01:20:31  5-MIN KDBQ 070720Z AUTO 26012KT 10SM OVC100 16/12 A2984 1160 80 1500 260/12 RMK AO2
94908KDBQ DBQ20100907012510809/07/10 01:25:31  5-MIN KDBQ 070725Z AUTO 26015G22KT 10SM OVC100 16/12 A2983 1160 77 1500 260/15G22 RMK AO2
94908KDBQ DBQ20100907013010809/07/10 01:30:31  5-MIN KDBQ 070730Z AUTO 26011G22KT 10SM OVC100 16/12 A2984 1160 77 1500 260/11G22 RMK AO2
94908KDBQ DBQ20100907013510809/07/10 01:35:31  5-MIN KDBQ 070735Z AUTO 25015G22KT 10SM OVC100 16/12 A2984 1150 77 1500 250/15G22 RMK AO2
94908KDBQ DBQ20100907014010809/07/10 01:40:31  5-MIN KDBQ 070740Z AUTO 25011G21KT 10SM OVC100 15/12 A2984 1150 80 1500 250/11G21 RMK AO2
94908KDBQ DBQ20100907014510809/07/10 01:45:31  5-MIN KDBQ 070745Z AUTO 25013G21KT 10SM OVC100 16/12 A2984 1150 77 1500 250/13G21 RMK AO2
94908KDBQ DBQ20100907015012509/07/10 01:50:31  5-MIN KDBQ 070750Z AUTO 25010G20KT 10SM OVC100 15/12 A2984 1150 80 1500 250/10G20 RMK AO2 SLP102 T01500117
94908KDBQ DBQ20100907015510809/07/10 01:55:31  5-MIN KDBQ 070755Z AUTO 26013G19KT 10SM BKN100 15/12 A2984 1150 80 1500 250/13G19 RMK AO2
94908KDBQ DBQ20100907020010209/07/10 02:00:31  5-MIN KDBQ 070800Z AUTO 26013KT 10SM SCT100 15/11 A2984 1150 77 1500 260/13 RMK AO2
94908KDBQ DBQ20100907020510209/07/10 02:05:31  5-MIN KDBQ 070805Z AUTO 26013KT 10SM SCT100 14/11 A2985 1150 80 1400 260/13 RMK AO2
94908KDBQ DBQ20100907021010209/07/10 02:10:31  5-MIN KDBQ 070810Z AUTO 25013KT 10SM FEW100 14/11 A2985 1150 80 1400 250/13 RMK AO2
94908KDBQ DBQ20100907021510209/07/10 02:15:31  5-MIN KDBQ 070815Z AUTO 25010KT 10SM FEW100 14/11 A2985 1150 80 1400 250/10 RMK AO2
94908KDBQ DBQ20100907022009909/07/10 02:20:31  5-MIN KDBQ 070820Z AUTO 25011KT 10SM CLR 14/11 A2985 1150 80 1300 250/11 RMK AO2
94908KDBQ DBQ20100907022509909/07/10 02:25:31  5-MIN KDBQ 070825Z AUTO 25010KT 10SM CLR 14/11 A2985 1140 80 1300 250/10 RMK AO2
94908KDBQ DBQ20100907023009909/07/10 02:30:31  5-MIN KDBQ 070830Z AUTO 25009KT 10SM CLR 14/11 A2985 1140 80 1300 250/09 RMK AO2
94908KDBQ DBQ20100907023509909/07/10 02:35:31  5-MIN KDBQ 070835Z AUTO 25010KT 10SM CLR 14/11 A2985 1140 80 1300 240/10 RMK AO2
94908KDBQ DBQ20100907024009909/07/10 02:40:31  5-MIN KDBQ 070840Z AUTO 24010KT 10SM CLR 13/11 A2985 1140 83 1300 240/10 RMK AO2
94908KDBQ DBQ20100907024509909/07/10 02:45:31  5-MIN KDBQ 070845Z AUTO 24010KT 10SM CLR 13/11 A2985 1140 83 1300 240/10 RMK AO2
94908KDBQ DBQ20100907025012209/07/10 02:50:31  5-MIN KDBQ 070850Z AUTO 24011KT 10SM CLR 13/11 A2985 1140 83 1300 240/11 RMK AO2 SLP103 T01330106 51038
94908KDBQ DBQ20100907025505109/07/10 02:55:31  5-MIN KDBQ 070855Z AUTO 2RMK AO2
94908KDBQ DBQ20100907025509909/07/10 02:55:31  5-MIN KDBQ 070855Z AUTO 24010KT 10SM CLR 13/11 A2985 1140 83 1300 240/10 RMK AO2
94908KDBQ DBQ20100907030009909/07/10 03:00:31  5-MIN KDBQ 070900Z AUTO 24010KT 10SM CLR 13/11 A2985 1140 83 1200 240/10 RMK AO2
94908KDBQ DBQ20100907030509909/07/10 03:05:31  5-MIN KDBQ 070905Z AUTO 24011KT 10SM CLR 13/10 A2985 1140 80 1200 240/11 RMK AO2
94908KDBQ DBQ20100907031009909/07/10 03:10:31  5-MIN KDBQ 070910Z AUTO 24009KT 10SM CLR 13/10 A2985 1140 83 1200 240/09 RMK AO2
94908KDBQ DBQ20100907031509909/07/10 03:15:31  5-MIN KDBQ 070915Z AUTO 23009KT 10SM CLR 13/10 A2985 1140 83 1200 230/09 RMK AO2
94908KDBQ DBQ20100907032009909/07/10 03:20:31  5-MIN KDBQ 070920Z AUTO 23009KT 10SM CLR 13/10 A2985 1140 83 1200 230/09 RMK AO2
94908KDBQ DBQ20100907032509909/07/10 03:25:31  5-MIN KDBQ 070925Z AUTO 23010KT 10SM CLR 13/10 A2985 1140 83 1200 230/10 RMK AO2
94908KDBQ DBQ20100907033009909/07/10 03:30:31  5-MIN KDBQ 070930Z AUTO 23012KT 10SM CLR 13/10 A2985 1140 83 1200 230/12 RMK AO2
94908KDBQ DBQ20100907033509909/07/10 03:35:31  5-MIN KDBQ 070935Z AUTO 23011KT 10SM CLR 13/10 A2985 1150 83 1200 230/11 RMK AO2
94908KDBQ DBQ20100907034009909/07/10 03:40:31  5-MIN KDBQ 070940Z AUTO 23011KT 10SM CLR 13/10 A2985 1150 83 1200 230/11 RMK AO2
94908KDBQ DBQ20100907034509909/07/10 03:45:31  5-MIN KDBQ 070945Z AUTO 23011KT 10SM CLR 13/10 A2984 1150 83 1200 230/11 RMK AO2
94908KDBQ DBQ20100907035011609/07/10 03:50:31  5-MIN KDBQ 070950Z AUTO 23011KT 10SM CLR 13/10 A2985 1150 83 1200 230/11 RMK AO2 SLP102 T01280100
94908KDBQ DBQ20100907035509909/07/10 03:55:31  5-MIN KDBQ 070955Z AUTO 23010KT 10SM CLR 13/10 A2985 1150 83 1200 230/10 RMK AO2
94908KDBQ DBQ20100907040009909/07/10 04:00:31  5-MIN KDBQ 071000Z AUTO 23010KT 10SM CLR 13/10 A2985 1150 83 1200 230/10 RMK AO2
94908KDBQ DBQ20100907040509909/07/10 04:05:31  5-MIN KDBQ 071005Z AUTO 23012KT 10SM CLR 13/09 A2984 1150 80 1200 230/12 RMK AO2
94908KDBQ DBQ20100907041009909/07/10 04:10:31  5-MIN KDBQ 071010Z AUTO 23012KT 10SM CLR 13/09 A2985 1150 80 1200 230/12 RMK AO2
94908KDBQ DBQ20100907041509909/07/10 04:15:31  5-MIN KDBQ 071015Z AUTO 23012KT 10SM CLR 13/09 A2985 1150 80 1200 230/12 RMK AO2
94908KDBQ DBQ20100907042009909/07/10 04:20:31  5-MIN KDBQ 071020Z AUTO 23012KT 10SM CLR 13/09 A2985 1150 80 1200 230/12 RMK AO2
94908KDBQ DBQ20100907042509909/07/10 04:25:31  5-MIN KDBQ 071025Z AUTO 22011KT 10SM CLR 13/09 A2985 1150 80 1200 220/11 RMK AO2
94908KDBQ DBQ20100907043009909/07/10 04:30:31  5-MIN KDBQ 071030Z AUTO 22011KT 10SM CLR 13/09 A2985 1150 80 1200 220/11 RMK AO2
94908KDBQ DBQ20100907043509909/07/10 04:35:31  5-MIN KDBQ 071035Z AUTO 22011KT 10SM CLR 13/09 A2985 1150 80 1200 220/11 RMK AO2
94908KDBQ DBQ20100907044009909/07/10 04:40:31  5-MIN KDBQ 071040Z AUTO 22012KT 10SM CLR 13/09 A2985 1140 80 1200 220/12 RMK AO2
94908KDBQ DBQ20100907044509909/07/10 04:45:31  5-MIN KDBQ 071045Z AUTO 22012KT 10SM CLR 13/09 A2985 1150 80 1200 220/12 RMK AO2
94908KDBQ DBQ20100907045011109/07/10 04:50:31  5-MIN KDBQ 071050Z 22012KT 10SM CLR 13/09 A2985 1140 80 1200 210/12 RMK AO2 SLP104 T01280094
94908KDBQ DBQ20100907045509409/07/10 04:55:31  5-MIN KDBQ 071055Z 22012KT 10SM CLR 12/09 A2985 1140 83 1100 220/12 RMK AO2
94908KDBQ DBQ20100907050009409/07/10 05:00:31  5-MIN KDBQ 071100Z 22013KT 10SM CLR 13/09 A2985 1150 80 1200 220/13 RMK AO2
94908KDBQ DBQ20100907050509409/07/10 05:05:31  5-MIN KDBQ 071105Z 22013KT 10SM CLR 13/09 A2984 1150 80 1200 220/13 RMK AO2
94908KDBQ DBQ20100907051010009/07/10 05:10:31  5-MIN KDBQ 071110Z 23014G20KT 10SM CLR 13/09 A2985 1150 80 1200 230/14G20 RMK AO2
94908KDBQ DBQ20100907051510009/07/10 05:15:31  5-MIN KDBQ 071115Z 23012G20KT 10SM CLR 13/09 A2985 1140 80 1200 230/12G20 RMK AO2
94908KDBQ DBQ20100907052009409/07/10 05:20:31  5-MIN KDBQ 071120Z 23012KT 10SM CLR 12/09 A2985 1150 83 1100 230/12 RMK AO2
94908KDBQ DBQ20100907052509409/07/10 05:25:31  5-MIN KDBQ 071125Z 22013KT 10SM CLR 12/09 A2985 1140 83 1100 220/13 RMK AO2
94908KDBQ DBQ20100907053009409/07/10 05:30:31  5-MIN KDBQ 071130Z 23012KT 10SM CLR 12/09 A2985 1150 83 1100 220/12 RMK AO2
94908KDBQ DBQ20100907053509409/07/10 05:35:31  5-MIN KDBQ 071135Z 23011KT 10SM CLR 12/09 A2985 1140 80 1100 220/11 RMK AO2
94908KDBQ DBQ20100907054009409/07/10 05:40:31  5-MIN KDBQ 071140Z 23011KT 10SM CLR 12/09 A2985 1140 83 1100 230/11 RMK AO2
94908KDBQ DBQ20100907054509409/07/10 05:45:31  5-MIN KDBQ 071145Z 22012KT 10SM CLR 12/09 A2985 1140 80 1100 220/12 RMK AO2
94908KDBQ DBQ20100907055013509/07/10 05:50:31  5-MIN KDBQ 071150Z 22011KT 10SM CLR 12/09 A2985 1140 80 1100 220/11 RMK AO2 SLP105 70006 T01220089 10172 20122 51019
94908KDBQ DBQ20100907055509409/07/10 05:55:31  5-MIN KDBQ 071155Z 22012KT 10SM CLR 12/09 A2985 1140 80 1100 220/12 RMK AO2
94908KDBQ DBQ20100907060009409/07/10 06:00:31  5-MIN KDBQ 071200Z 22011KT 10SM CLR 12/09 A2985 1140 80 1100 220/11 RMK AO2
94908KDBQ DBQ20100907060509409/07/10 06:05:31  5-MIN KDBQ 071205Z 22011KT 10SM CLR 12/09 A2985 1140 80 1100 220/11 RMK AO2
94908KDBQ DBQ20100907061009409/07/10 06:10:31  5-MIN KDBQ 071210Z 23011KT 10SM CLR 12/09 A2985 1150 80 1100 230/11 RMK AO2
94908KDBQ DBQ20100907061509409/07/10 06:15:31  5-MIN KDBQ 071215Z 22013KT 10SM CLR 12/09 A2985 1150 80 1100 220/13 RMK AO2
94908KDBQ DBQ20100907062009409/07/10 06:20:31  5-MIN KDBQ 071220Z 22013KT 10SM CLR 12/09 A2985 1150 80 1100 220/13 RMK AO2
94908KDBQ DBQ20100907062509409/07/10 06:25:31  5-MIN KDBQ 071225Z 23013KT 10SM CLR 12/09 A2985 1150 80 1100 220/13 RMK AO2
94908KDBQ DBQ20100907063010009/07/10 06:30:31  5-MIN KDBQ 071230Z 23014G20KT 10SM CLR 13/09 A2985 1140 80 1200 230/14G20 RMK AO2
94908KDBQ DBQ20100907063510009/07/10 06:35:31  5-MIN KDBQ 071235Z 22013G20KT 10SM CLR 13/09 A2985 1140 80 1200 220/13G20 RMK AO2
94908KDBQ DBQ20100907064009409/07/10 06:40:31  5-MIN KDBQ 071240Z 23013KT 10SM CLR 13/09 A2985 1150 80 1200 230/13 RMK AO2
94908KDBQ DBQ20100907064509409/07/10 06:45:31  5-MIN KDBQ 071245Z 23014KT 10SM CLR 13/09 A2985 1150 77 1300 230/14 RMK AO2
94908KDBQ DBQ20100907065011109/07/10 06:50:31  5-MIN KDBQ 071250Z 23015KT 10SM CLR 13/09 A2985 1150 77 1300 230/15 RMK AO2 SLP103 T01330094
94908KDBQ DBQ20100907065510009/07/10 06:55:31  5-MIN KDBQ 071255Z 23018G23KT 10SM CLR 13/09 A2984 1150 77 1300 230/18G23 RMK AO2
94908KDBQ DBQ20100907070010009/07/10 07:00:31  5-MIN KDBQ 071300Z 23018G23KT 10SM CLR 14/09 A2984 1150 71 1300 230/18G23 RMK AO2
94908KDBQ DBQ20100907070511809/07/10 07:05:31  5-MIN KDBQ 071305Z 23020G26KT 10SM CLR 14/09 A2985 1150 71 1300 230/20G26 RMK AO2 PK WND 23026/1305
94908KDBQ DBQ20100907071011809/07/10 07:10:31  5-MIN KDBQ 071310Z 23018G26KT 10SM CLR 14/09 A2984 1150 71 1300 230/18G26 RMK AO2 PK WND 23026/1305
94908KDBQ DBQ20100907071511809/07/10 07:15:31  5-MIN KDBQ 071315Z 24018G27KT 10SM CLR 14/09 A2984 1150 69 1400 240/18G27 RMK AO2 PK WND 23027/1313
94908KDBQ DBQ20100907072011809/07/10 07:20:31  5-MIN KDBQ 071320Z 24018G27KT 10SM CLR 14/09 A2985 1150 69 1400 240/18G27 RMK AO2 PK WND 23027/1313
94908KDBQ DBQ20100907072511809/07/10 07:25:31  5-MIN KDBQ 071325Z 24020G26KT 10SM CLR 14/09 A2985 1150 69 1400 240/20G26 RMK AO2 PK WND 23027/1313
94908KDBQ DBQ20100907073011809/07/10 07:30:31  5-MIN KDBQ 071330Z 24019G27KT 10SM CLR 15/09 A2985 1150 66 1500 240/19G27 RMK AO2 PK WND 24027/1329
94908KDBQ DBQ20100907073511809/07/10 07:35:31  5-MIN KDBQ 071335Z 24023G32KT 10SM CLR 15/09 A2985 1150 66 1500 240/23G32 RMK AO2 PK WND 23032/1334
94908KDBQ DBQ20100907074011809/07/10 07:40:31  5-MIN KDBQ 071340Z 24017G32KT 10SM CLR 15/08 A2985 1150 64 1500 240/17G32 RMK AO2 PK WND 23032/1334
94908KDBQ DBQ20100907074511809/07/10 07:45:31  5-MIN KDBQ 071345Z 24022G29KT 10SM CLR 15/09 A2984 1150 66 1500 240/22G29 RMK AO2 PK WND 23032/1334
94908KDBQ DBQ20100907075013509/07/10 07:50:31  5-MIN KDBQ 071350Z 25019G29KT 10SM CLR 16/08 A2984 1150 62 1500 250/19G29 RMK AO2 PK WND 23032/1334 SLP101 T01560083
94908KDBQ DBQ20100907075511809/07/10 07:55:31  5-MIN KDBQ 071355Z 25023G32KT 10SM CLR 16/08 A2985 1140 62 1500 250/23G32 RMK AO2 PK WND 25031/1355
94908KDBQ DBQ20100907080011809/07/10 08:00:31  5-MIN KDBQ 071400Z 25019G32KT 10SM CLR 16/08 A2985 1140 62 1500 250/19G32 RMK AO2 PK WND 25031/1355
94908KDBQ DBQ20100907080511809/07/10 08:05:31  5-MIN KDBQ 071405Z 25019G32KT 10SM CLR 16/08 A2985 1140 62 1500 250/19G32 RMK AO2 PK WND 24032/1401
94908KDBQ DBQ20100907081011809/07/10 08:10:31  5-MIN KDBQ 071410Z 25022G33KT 10SM CLR 16/08 A2985 1150 62 1500 250/22G33 RMK AO2 PK WND 25033/1410
94908KDBQ DBQ20100907081511809/07/10 08:15:31  5-MIN KDBQ 071415Z 26023G33KT 10SM CLR 16/08 A2986 1140 62 1500 260/23G33 RMK AO2 PK WND 25033/1410
94908KDBQ DBQ20100907082011809/07/10 08:20:31  5-MIN KDBQ 071420Z 25027G34KT 10SM CLR 16/08 A2986 1140 59 1500 250/27G34 RMK AO2 PK WND 26034/1420
94908KDBQ DBQ20100907082511809/07/10 08:25:31  5-MIN KDBQ 071425Z 26025G34KT 10SM CLR 16/08 A2985 1140 59 1500 260/25G34 RMK AO2 PK WND 26034/1420
94908KDBQ DBQ20100907083012109/07/10 08:30:31  5-MIN KDBQ 071430Z 26020G33KT 10SM FEW035 16/08 A2986 1130 59 1600 260/20G33 RMK AO2 PK WND 26034/1420
94908KDBQ DBQ20100907083512109/07/10 08:35:31  5-MIN KDBQ 071435Z 26024G33KT 10SM FEW035 16/08 A2986 1130 59 1600 260/24G33 RMK AO2 PK WND 26034/1420
94908KDBQ DBQ20100907084012109/07/10 08:40:31  5-MIN KDBQ 071440Z 26020G32KT 10SM FEW035 16/08 A2986 1140 59 1600 260/20G32 RMK AO2 PK WND 26034/1420
94908KDBQ DBQ20100907084512109/07/10 08:45:31  5-MIN KDBQ 071445Z 26023G32KT 10SM FEW035 16/08 A2986 1130 59 1600 260/23G32 RMK AO2 PK WND 26034/1420
94908KDBQ DBQ20100907085014409/07/10 08:50:31  5-MIN KDBQ 071450Z 26019G32KT 10SM FEW035 16/08 A2987 1130 59 1600 260/19G32 RMK AO2 PK WND 26034/1420 SLP110 T01610083 56001
94908KDBQ DBQ20100907085512109/07/10 08:55:31  5-MIN KDBQ 071455Z 25022G32KT 10SM FEW035 17/08 A2987 1130 57 1600 250/22G32 RMK AO2 PK WND 25028/1454
94908KDBQ DBQ20100907090012109/07/10 09:00:31  5-MIN KDBQ 071500Z 26023G28KT 10SM FEW035 17/08 A2987 1120 57 1600 260/23G28 RMK AO2 PK WND 26028/1500
94908KDBQ DBQ20100907090512109/07/10 09:05:31  5-MIN KDBQ 071505Z 25025G35KT 10SM FEW035 17/08 A2988 1120 57 1600 250/25G35 RMK AO2 PK WND 25035/1504
94908KDBQ DBQ20100907091012109/07/10 09:10:31  5-MIN KDBQ 071510Z 26022G35KT 10SM FEW035 17/09 A2987 1120 60 1600 250/22G35 RMK AO2 PK WND 25035/1504
94908KDBQ DBQ20100907091512109/07/10 09:15:31  5-MIN KDBQ 071515Z 25022G32KT 10SM FEW035 17/09 A2988 1120 60 1600 250/22G32 RMK AO2 PK WND 25035/1504
94908KDBQ DBQ20100907092012109/07/10 09:20:31  5-MIN KDBQ 071520Z 26025G32KT 10SM FEW035 17/08 A2988 1120 57 1600 260/25G32 RMK AO2 PK WND 25035/1504
94908KDBQ DBQ20100907092512109/07/10 09:25:31  5-MIN KDBQ 071525Z 25021G32KT 10SM FEW035 17/09 A2987 1120 60 1600 250/21G32 RMK AO2 PK WND 25035/1504
94908KDBQ DBQ20100907093012109/07/10 09:30:31  5-MIN KDBQ 071530Z 26024G30KT 10SM FEW035 17/09 A2987 1130 57 1700 260/24G30 RMK AO2 PK WND 25035/1504
94908KDBQ DBQ20100907093511809/07/10 09:35:31  5-MIN KDBQ 071535Z 26024G30KT 10SM CLR 17/09 A2987 1120 57 1700 260/24G30 RMK AO2 PK WND 25035/1504
94908KDBQ DBQ20100907094011809/07/10 09:40:31  5-MIN KDBQ 071540Z 26022G31KT 10SM CLR 17/09 A2987 1120 57 1700 260/22G31 RMK AO2 PK WND 25035/1504
94908KDBQ DBQ20100907094511809/07/10 09:45:31  5-MIN KDBQ 071545Z 26017G31KT 10SM CLR 17/09 A2988 1120 57 1700 260/17G31 RMK AO2 PK WND 25035/1504
94908KDBQ DBQ20100907095012909/07/10 09:50:31  5-MIN KDBQ 071550Z 26018KT 10SM CLR 18/09 A2988 1120 58 1700 260/18 RMK AO2 PK WND 25035/1504 SLP114 T01780094
94908KDBQ DBQ20100907095510309/07/10 09:55:31  5-MIN KDBQ 071555Z 26017G25KT 10SM FEW038 18/09 A2988 1120 58 1700 260/17G25 RMK AO2
94908KDBQ DBQ20100907100012109/07/10 10:00:31  5-MIN KDBQ 071600Z 26019G31KT 10SM FEW038 18/09 A2988 1110 55 1700 260/19G31 RMK AO2 PK WND 25031/1557
94908KDBQ DBQ20100907100512109/07/10 10:05:31  5-MIN KDBQ 071605Z 27022G31KT 10SM FEW038 18/09 A2989 1100 54 1800 270/22G31 RMK AO2 PK WND 27031/1603
94908KDBQ DBQ20100907101012109/07/10 10:10:31  5-MIN KDBQ 071610Z 26021G31KT 10SM FEW038 18/09 A2988 1110 55 1700 260/21G31 RMK AO2 PK WND 28031/1609
94908KDBQ DBQ20100907101512109/07/10 10:15:31  5-MIN KDBQ 071615Z 26022G31KT 10SM FEW038 18/09 A2989 1100 55 1700 260/22G31 RMK AO2 PK WND 28031/1609
94908KDBQ DBQ20100907102012109/07/10 10:20:31  5-MIN KDBQ 071620Z 27020G32KT 10SM FEW040 18/09 A2990 1100 55 1700 270/20G32 RMK AO2 PK WND 27032/1617
94908KDBQ DBQ20100907102512109/07/10 10:25:31  5-MIN KDBQ 071625Z 27024G34KT 10SM FEW040 18/09 A2989 1100 54 1800 270/24G34 RMK AO2 PK WND 28034/1624
94908KDBQ DBQ20100907103012109/07/10 10:30:31  5-MIN KDBQ 071630Z 27021G34KT 10SM FEW040 18/09 A2990 1100 55 1700 270/21G34 RMK AO2 PK WND 28034/1624
94908KDBQ DBQ20100907103512109/07/10 10:35:31  5-MIN KDBQ 071635Z 28023G33KT 10SM FEW040 18/09 A2990 1090 55 1700 280/23G33 RMK AO2 PK WND 28034/1624
94908KDBQ DBQ20100907104012109/07/10 10:40:31  5-MIN KDBQ 071640Z 26020G33KT 10SM FEW042 19/09 A2990 1100 52 1800 260/20G33 RMK AO2 PK WND 28034/1624
94908KDBQ DBQ20100907104512109/07/10 10:45:31  5-MIN KDBQ 071645Z 26020G32KT 10SM SCT042 19/09 A2991 1090 52 1800 260/20G32 RMK AO2 PK WND 28034/1624
94908KDBQ DBQ20100907140012109/07/10 14:00:31  5-MIN KDBQ 072000Z 28019G27KT 10SM SCT055 21/08 A2995 1050 43 2000 280/19G27 RMK AO2 PK WND 27027/1955
94908KDBQ DBQ20100907140512109/07/10 14:05:31  5-MIN KDBQ 072005Z 28020G32KT 10SM SCT055 21/08 A2995 1050 43 2000 280/20G32 RMK AO2 PK WND 28032/2002
94908KDBQ DBQ20100907141012109/07/10 14:10:31  5-MIN KDBQ 072010Z 29015G32KT 10SM SCT055 21/08 A2995 1050 43 2000 290/15G32 RMK AO2 PK WND 28032/2002
94908KDBQ DBQ20100907141512109/07/10 14:15:31  5-MIN KDBQ 072015Z 28019G26KT 10SM SCT055 22/09 A2996 1050 43 2100 280/19G26 RMK AO2 PK WND 28032/2002
94908KDBQ DBQ20100907142012109/07/10 14:20:31  5-MIN KDBQ 072020Z 28018G28KT 10SM SCT055 22/08 A2996 1040 42 2100 280/18G28 RMK AO2 PK WND 28032/2002
94908KDBQ DBQ20100907142512109/07/10 14:25:31  5-MIN KDBQ 072025Z 28020G32KT 10SM SCT055 22/08 A2996 1040 42 2100 280/20G32 RMK AO2 PK WND 28032/2025
94908KDBQ DBQ20100907143012109/07/10 14:30:31  5-MIN KDBQ 072030Z 28020G32KT 10SM SCT055 21/08 A2996 1040 42 2000 280/20G32 RMK AO2 PK WND 28032/2025
94908KDBQ DBQ20100907143512109/07/10 14:35:31  5-MIN KDBQ 072035Z 29016G30KT 10SM SCT055 22/08 A2996 1040 42 2100 280/16G30 RMK AO2 PK WND 28032/2025
94908KDBQ DBQ20100907144012109/07/10 14:40:31  5-MIN KDBQ 072040Z 27020G33KT 10SM SCT055 21/08 A2996 1050 42 2000 270/20G33 RMK AO2 PK WND 28033/2037
94908KDBQ DBQ20100907144512109/07/10 14:45:31  5-MIN KDBQ 072045Z 28016G33KT 10SM SCT055 22/08 A2996 1050 42 2100 280/16G33 RMK AO2 PK WND 28033/2037
94908KDBQ DBQ20100907145014409/07/10 14:50:31  5-MIN KDBQ 072050Z 28023G30KT 10SM FEW060 22/08 A2996 1040 40 2100 280/23G30 RMK AO2 PK WND 28033/2037 SLP142 T02170078 51015
94908KDBQ DBQ20100907145511809/07/10 14:55:31  5-MIN KDBQ 072055Z 27024G30KT 10SM CLR 21/08 A2996 1040 42 2000 270/24G30 RMK AO2 PK WND 28030/2055
94908KDBQ DBQ20100907150011809/07/10 15:00:31  5-MIN KDBQ 072100Z 27021G32KT 10SM CLR 21/08 A2996 1040 42 2000 270/21G32 RMK AO2 PK WND 27032/2058
94908KDBQ DBQ20100907150511809/07/10 15:05:31  5-MIN KDBQ 072105Z 28021G33KT 10SM CLR 21/08 A2996 1040 42 2000 270/21G33 RMK AO2 PK WND 28033/2102
94908KDBQ DBQ20100907151011809/07/10 15:10:31  5-MIN KDBQ 072110Z 28020G33KT 10SM CLR 21/08 A2997 1040 42 2000 270/20G33 RMK AO2 PK WND 28033/2102
94908KDBQ DBQ20100907151511809/07/10 15:15:31  5-MIN KDBQ 072115Z 28017G28KT 10SM CLR 22/08 A2997 1030 42 2100 280/17G28 RMK AO2 PK WND 28033/2102
94908KDBQ DBQ20100907152011809/07/10 15:20:31  5-MIN KDBQ 072120Z 28021G28KT 10SM CLR 21/07 A2997 1030 40 2000 280/21G28 RMK AO2 PK WND 28033/2102
94908KDBQ DBQ20100907152511809/07/10 15:25:31  5-MIN KDBQ 072125Z 27022G29KT 10SM CLR 21/07 A2997 1030 40 2000 270/22G29 RMK AO2 PK WND 28033/2102
94908KDBQ DBQ20100907153011809/07/10 15:30:31  5-MIN KDBQ 072130Z 29023G30KT 10SM CLR 21/07 A2997 1030 40 2000 280/23G30 RMK AO2 PK WND 28033/2102
94908KDBQ DBQ20100907153511809/07/10 15:35:31  5-MIN KDBQ 072135Z 28019G30KT 10SM CLR 21/07 A2997 1030 40 2000 280/19G30 RMK AO2 PK WND 28033/2102
94908KDBQ DBQ20100907154011809/07/10 15:40:31  5-MIN KDBQ 072140Z 28014G28KT 10SM CLR 21/07 A2998 1030 40 2000 280/14G28 RMK AO2 PK WND 28033/2102
94908KDBQ DBQ20100907154511809/07/10 15:45:31  5-MIN KDBQ 072145Z 29021G28KT 10SM CLR 21/08 A2998 1020 42 2000 290/21G28 RMK AO2 PK WND 28033/2102
94908KDBQ DBQ20100907155013509/07/10 15:50:31  5-MIN KDBQ 072150Z 29019G28KT 10SM CLR 21/07 A2998 1020 40 2000 290/19G28 RMK AO2 PK WND 28033/2102 SLP150 T02110072
94908KDBQ DBQ20100907155510009/07/10 15:55:31  5-MIN KDBQ 072155Z 29019G28KT 10SM CLR 21/07 A2998 1020 38 2000 290/19G28 RMK AO2
94908KDBQ DBQ20100907160010009/07/10 16:00:31  5-MIN KDBQ 072200Z 29016G26KT 10SM CLR 21/07 A2998 1020 40 2000 290/16G26 RMK AO2
94908KDBQ DBQ20100907160510009/07/10 16:05:31  5-MIN KDBQ 072205Z 29014G21KT 10SM CLR 21/07 A2998 1020 40 2000 290/14G21 RMK AO2
94908KDBQ DBQ20100907161010009/07/10 16:10:31  5-MIN KDBQ 072210Z 28016G21KT 10SM CLR 21/08 A2999 1020 42 2000 280/16G21 RMK AO2
94908KDBQ DBQ20100907161510009/07/10 16:15:31  5-MIN KDBQ 072215Z 28017G24KT 10SM CLR 21/07 A2999 1020 40 2000 280/17G24 RMK AO2
94908KDBQ DBQ20100907162010009/07/10 16:20:31  5-MIN KDBQ 072220Z 28015G24KT 10SM CLR 21/07 A2999 1010 40 2000 280/15G24 RMK AO2
94908KDBQ DBQ20100907162511809/07/10 16:25:31  5-MIN KDBQ 072225Z 28020G26KT 10SM CLR 21/07 A2999 1010 38 2000 280/20G26 RMK AO2 PK WND 28026/2225
94908KDBQ DBQ20100907163011809/07/10 16:30:31  5-MIN KDBQ 072230Z 28019G26KT 10SM CLR 21/07 A3000 1010 38 2000 280/19G26 RMK AO2 PK WND 28026/2225
94908KDBQ DBQ20100907163511809/07/10 16:35:31  5-MIN KDBQ 072235Z 28012G24KT 10SM CLR 21/07 A3000 1010 40 1900 280/12G24 RMK AO2 PK WND 28026/2225
94908KDBQ DBQ20100907164011809/07/10 16:40:31  5-MIN KDBQ 072240Z 28015G21KT 10SM CLR 21/07 A3000 1010 41 1900 280/15G21 RMK AO2 PK WND 28026/2225
94908KDBQ DBQ20100907164511809/07/10 16:45:31  5-MIN KDBQ 072245Z 28017G25KT 10SM CLR 21/07 A3000 1010 40 1900 280/17G25 RMK AO2 PK WND 28026/2225
94908KDBQ DBQ20100907165013509/07/10 16:50:31  5-MIN KDBQ 072250Z 28014G25KT 10SM CLR 21/07 A3000 1000 40 1900 280/14G25 RMK AO2 PK WND 28026/2225 SLP158 T02060067
94908KDBQ DBQ20100907165510009/07/10 16:55:31  5-MIN KDBQ 072255Z 28015G21KT 10SM CLR 21/07 A3000 1000 41 1900 280/15G21 RMK AO2
94908KDBQ DBQ20100907170010009/07/10 17:00:31  5-MIN KDBQ 072300Z 28012G21KT 10SM CLR 21/07 A3000 1000 41 1900 280/12G21 RMK AO2
94908KDBQ DBQ20100907170510009/07/10 17:05:31  5-MIN KDBQ 072305Z 29015G21KT 10SM CLR 20/07 A3001 1000 43 1900 290/15G21 RMK AO2
94908KDBQ DBQ20100907171010009/07/10 17:10:31  5-MIN KDBQ 072310Z 29014G21KT 10SM CLR 20/07 A3001 1000 43 1900 280/14G21 RMK AO2
94908KDBQ DBQ20100907171510009/07/10 17:15:31  5-MIN KDBQ 072315Z 28014G21KT 10SM CLR 20/07 A3001 1000 43 1900 280/14G21 RMK AO2
94908KDBQ DBQ20100907172010009/07/10 17:20:31  5-MIN KDBQ 072320Z 28010G19KT 10SM CLR 20/07 A3001 1000 43 1800 280/10G19 RMK AO2
94908KDBQ DBQ20100907172509909/07/10 17:25:31  5-MIN KDBQ 072325Z 28013G18KT 10SM CLR 20/07 A3001 990 43 1800 280/13G18 RMK AO2
94908KDBQ DBQ20100907173009309/07/10 17:30:31  5-MIN KDBQ 072330Z 29012KT 10SM CLR 20/07 A3001 990 43 1800 290/12 RMK AO2
94908KDBQ DBQ20100907173509309/07/10 17:35:31  5-MIN KDBQ 072335Z 28013KT 10SM CLR 19/07 A3001 990 44 1800 280/13 RMK AO2
94908KDBQ DBQ20100907174009309/07/10 17:40:31  5-MIN KDBQ 072340Z 27012KT 10SM CLR 19/07 A3001 990 44 1800 270/12 RMK AO2
94908KDBQ DBQ20100907174509309/07/10 17:45:31  5-MIN KDBQ 072345Z 29009KT 10SM CLR 19/08 A3002 990 48 1700 290/09 RMK AO2
94908KDBQ DBQ20100907175012809/07/10 17:50:31  5-MIN KDBQ 072350Z 29008KT 10SM CLR 19/08 A3002 990 48 1700 290/08 RMK AO2 SLP164 T01890078 10217 20189 51014
94908KDBQ DBQ20100907175509309/07/10 17:55:31  5-MIN KDBQ 072355Z 29009KT 10SM CLR 19/08 A3002 990 48 1700 290/09 RMK AO2
94908KDBQ DBQ20100907180009309/07/10 18:00:31  5-MIN KDBQ 080000Z 29009KT 10SM CLR 18/08 A3002 990 50 1600 290/09 RMK AO2
94908KDBQ DBQ20100907180509309/07/10 18:05:31  5-MIN KDBQ 080005Z 29008KT 10SM CLR 18/08 A3002 980 50 1600 290/08 RMK AO2
94908KDBQ DBQ20100907181009309/07/10 18:10:31  5-MIN KDBQ 080010Z 29007KT 10SM CLR 18/08 A3002 980 51 1600 290/07 RMK AO2
94908KDBQ DBQ20100907181509309/07/10 18:15:31  5-MIN KDBQ 080015Z 29010KT 10SM CLR 18/08 A3002 980 51 1600 290/10 RMK AO2
94908KDBQ DBQ20100907182009309/07/10 18:20:31  5-MIN KDBQ 080020Z 29008KT 10SM CLR 18/08 A3002 980 51 1600 290/08 RMK AO2
94908KDBQ DBQ20100907182509309/07/10 18:25:31  5-MIN KDBQ 080025Z 28008KT 10SM CLR 17/08 A3003 980 53 1500 280/08 RMK AO2
94908KDBQ DBQ20100907183009309/07/10 18:30:31  5-MIN KDBQ 080030Z 29008KT 10SM CLR 17/08 A3003 980 53 1500 290/08 RMK AO2
94908KDBQ DBQ20100907183509309/07/10 18:35:31  5-MIN KDBQ 080035Z 29007KT 10SM CLR 17/08 A3003 980 55 1400 290/07 RMK AO2
94908KDBQ DBQ20100907184009309/07/10 18:40:31  5-MIN KDBQ 080040Z 29007KT 10SM CLR 17/08 A3003 980 55 1400 290/07 RMK AO2
94908KDBQ DBQ20100907184509309/07/10 18:45:31  5-MIN KDBQ 080045Z 29008KT 10SM CLR 17/08 A3003 980 55 1400 290/08 RMK AO2
94908KDBQ DBQ20100907185011009/07/10 18:50:31  5-MIN KDBQ 080050Z 29008KT 10SM CLR 17/08 A3003 980 55 1400 290/08 RMK AO2 SLP169 T01670078
94908KDBQ DBQ20100907185509809/07/10 18:55:31  5-MIN KDBQ 080055Z AUTO 29007KT 10SM CLR 16/08 A3003 980 57 1400 290/07 RMK AO2
94908KDBQ DBQ20100907190009809/07/10 19:00:31  5-MIN KDBQ 080100Z AUTO 29007KT 10SM CLR 16/08 A3004 970 57 1400 290/07 RMK AO2
94908KDBQ DBQ20100907190509809/07/10 19:05:31  5-MIN KDBQ 080105Z AUTO 30006KT 10SM CLR 16/08 A3004 970 57 1400 290/06 RMK AO2
94908KDBQ DBQ20100907191009809/07/10 19:10:31  5-MIN KDBQ 080110Z AUTO 29006KT 10SM CLR 16/08 A3004 970 59 1300 290/06 RMK AO2
94908KDBQ DBQ20100907191509809/07/10 19:15:31  5-MIN KDBQ 080115Z AUTO 29006KT 10SM CLR 15/08 A3004 960 62 1200 290/06 RMK AO2
94908KDBQ DBQ20100907192009809/07/10 19:20:31  5-MIN KDBQ 080120Z AUTO 29005KT 10SM CLR 15/08 A3005 960 62 1200 280/05 RMK AO2
94908KDBQ DBQ20100907192509809/07/10 19:25:31  5-MIN KDBQ 080125Z AUTO 29004KT 10SM CLR 15/08 A3005 960 62 1200 290/04 RMK AO2
94908KDBQ DBQ20100907193009809/07/10 19:30:31  5-MIN KDBQ 080130Z AUTO 31005KT 10SM CLR 15/08 A3005 960 62 1200 300/05 RMK AO2
94908KDBQ DBQ20100907193509809/07/10 19:35:31  5-MIN KDBQ 080135Z AUTO 31005KT 10SM CLR 14/08 A3006 950 66 1200 310/05 RMK AO2
94908KDBQ DBQ20100907194009809/07/10 19:40:31  5-MIN KDBQ 080140Z AUTO 31005KT 10SM CLR 14/08 A3006 950 66 1100 310/05 RMK AO2
94908KDBQ DBQ20100907194509809/07/10 19:45:31  5-MIN KDBQ 080145Z AUTO 30005KT 10SM CLR 14/08 A3006 950 64 1100 300/05 RMK AO2
94908KDBQ DBQ20100907195011509/07/10 19:50:31  5-MIN KDBQ 080150Z AUTO 29004KT 10SM CLR 14/08 A3006 950 66 1100 290/04 RMK AO2 SLP180 T01440083
94908KDBQ DBQ20100907195509809/07/10 19:55:31  5-MIN KDBQ 080155Z AUTO 29004KT 10SM CLR 14/08 A3007 940 66 1100 290/04 RMK AO2
94908KDBQ DBQ20100907200009809/07/10 20:00:31  5-MIN KDBQ 080200Z AUTO 29004KT 10SM CLR 14/08 A3007 940 66 1100 290/04 RMK AO2
94908KDBQ DBQ20100907200509809/07/10 20:05:31  5-MIN KDBQ 080205Z AUTO 30005KT 10SM CLR 14/08 A3007 940 66 1100 290/05 RMK AO2
94908KDBQ DBQ20100907201009809/07/10 20:10:31  5-MIN KDBQ 080210Z AUTO 30005KT 10SM CLR 14/08 A3007 940 69 1100 300/05 RMK AO2
94908KDBQ DBQ20100907201509809/07/10 20:15:31  5-MIN KDBQ 080215Z AUTO 30005KT 10SM CLR 13/08 A3007 940 71 1000 300/05 RMK AO2
94908KDBQ DBQ20100907202009709/07/10 20:20:31  5-MIN KDBQ 080220Z AUTO 31004KT 10SM CLR 13/08 A3007 940 74 900 310/04 RMK AO2
94908KDBQ DBQ20100907202509709/07/10 20:25:31  5-MIN KDBQ 080225Z AUTO 29004KT 10SM CLR 12/08 A3007 940 77 900 290/04 RMK AO2
94908KDBQ DBQ20100907203009709/07/10 20:30:31  5-MIN KDBQ 080230Z AUTO 28004KT 10SM CLR 13/08 A3008 930 74 900 280/04 RMK AO2
94908KDBQ DBQ20100907203509809/07/10 20:35:31  5-MIN KDBQ 080235Z AUTO 29005KT 10SM CLR 13/08 A3008 930 71 1000 290/05 RMK AO2
94908KDBQ DBQ20100907204009709/07/10 20:40:31  5-MIN KDBQ 080240Z AUTO 29005KT 10SM CLR 13/08 A3008 930 74 900 290/05 RMK AO2
94908KDBQ DBQ20100907204509809/07/10 20:45:31  5-MIN KDBQ 080245Z AUTO 29005KT 10SM CLR 13/08 A3008 930 71 1000 290/05 RMK AO2
94908KDBQ DBQ20100907205012109/07/10 20:50:31  5-MIN KDBQ 080250Z AUTO 29006KT 10SM CLR 13/08 A3008 930 71 1000 290/06 RMK AO2 SLP188 T01330083 51019
94908KDBQ DBQ20100907205509809/07/10 20:55:31  5-MIN KDBQ 080255Z AUTO 30006KT 10SM CLR 13/08 A3009 930 71 1000 300/06 RMK AO2
94908KDBQ DBQ20100907210009709/07/10 21:00:31  5-MIN KDBQ 080300Z AUTO 31006KT 10SM CLR 13/08 A3009 920 74 900 310/06 RMK AO2
94908KDBQ DBQ20100907210509709/07/10 21:05:31  5-MIN KDBQ 080305Z AUTO 31005KT 10SM CLR 13/08 A3009 920 74 900 310/05 RMK AO2
94908KDBQ DBQ20100907211009709/07/10 21:10:31  5-MIN KDBQ 080310Z AUTO 32005KT 10SM CLR 13/08 A3009 920 74 900 320/05 RMK AO2
94908KDBQ DBQ20100907211509709/07/10 21:15:31  5-MIN KDBQ 080315Z AUTO 32005KT 10SM CLR 13/08 A3009 920 74 900 320/05 RMK AO2
94908KDBQ DBQ20100907212009709/07/10 21:20:31  5-MIN KDBQ 080320Z AUTO 32006KT 10SM CLR 13/08 A3009 920 74 900 320/06 RMK AO2
94908KDBQ DBQ20100907212509709/07/10 21:25:31  5-MIN KDBQ 080325Z AUTO 32006KT 10SM CLR 13/08 A3009 920 74 900 320/06 RMK AO2
94908KDBQ DBQ20100907213009709/07/10 21:30:31  5-MIN KDBQ 080330Z AUTO 33006KT 10SM CLR 13/08 A3009 920 74 900 320/06 RMK AO2
94908KDBQ DBQ20100907213509709/07/10 21:35:31  5-MIN KDBQ 080335Z AUTO 32006KT 10SM CLR 13/08 A3009 920 74 900 320/06 RMK AO2
94908KDBQ DBQ20100907214009709/07/10 21:40:31  5-MIN KDBQ 080340Z AUTO 31005KT 10SM CLR 13/08 A3009 920 74 900 310/05 RMK AO2
94908KDBQ DBQ20100907214509709/07/10 21:45:31  5-MIN KDBQ 080345Z AUTO 30003KT 10SM CLR 12/08 A3009 920 77 800 300/03 RMK AO2
94908KDBQ DBQ20100907215011409/07/10 21:50:31  5-MIN KDBQ 080350Z AUTO 30003KT 10SM CLR 12/08 A3009 920 77 800 300/03 RMK AO2 SLP191 T01220083
94908KDBQ DBQ20100907215509709/07/10 21:55:31  5-MIN KDBQ 080355Z AUTO 30003KT 10SM CLR 12/08 A3009 920 77 800 300/03 RMK AO2
94908KDBQ DBQ20100907220009709/07/10 22:00:31  5-MIN KDBQ 080400Z AUTO 30003KT 10SM CLR 12/08 A3010 920 77 800 300/03 RMK AO2
94908KDBQ DBQ20100907220509709/07/10 22:05:31  5-MIN KDBQ 080405Z AUTO 31004KT 10SM CLR 12/08 A3010 920 77 800 300/04 RMK AO2
94908KDBQ DBQ20100907221009709/07/10 22:10:31  5-MIN KDBQ 080410Z AUTO 31004KT 10SM CLR 12/08 A3010 920 77 800 310/04 RMK AO2
94908KDBQ DBQ20100907221509709/07/10 22:15:31  5-MIN KDBQ 080415Z AUTO 30004KT 10SM CLR 12/08 A3010 910 80 800 300/04 RMK AO2
94908KDBQ DBQ20100907222009709/07/10 22:20:31  5-MIN KDBQ 080420Z AUTO 31004KT 10SM CLR 12/08 A3010 910 80 800 300/04 RMK AO2
94908KDBQ DBQ20100907222509709/07/10 22:25:31  5-MIN KDBQ 080425Z AUTO 31003KT 10SM CLR 12/08 A3010 910 80 800 310/03 RMK AO2
94908KDBQ DBQ20100907223009709/07/10 22:30:31  5-MIN KDBQ 080430Z AUTO 31003KT 10SM CLR 11/08 A3010 910 83 700 310/03 RMK AO2
94908KDBQ DBQ20100907223509709/07/10 22:35:31  5-MIN KDBQ 080435Z AUTO 32003KT 10SM CLR 11/08 A3010 910 83 600 320/03 RMK AO2
94908KDBQ DBQ20100907224009709/07/10 22:40:31  5-MIN KDBQ 080440Z AUTO 32005KT 10SM CLR 12/08 A3010 910 80 800 320/05 RMK AO2
94908KDBQ DBQ20100907224509709/07/10 22:45:31  5-MIN KDBQ 080445Z AUTO 33006KT 10SM CLR 11/08 A3010 910 83 700 330/06 RMK AO2
94908KDBQ DBQ20100907225011409/07/10 22:50:31  5-MIN KDBQ 080450Z AUTO 34007KT 10SM CLR 11/08 A3010 920 80 700 340/07 RMK AO2 SLP192 T01110078
94908KDBQ DBQ20100907225509709/07/10 22:55:31  5-MIN KDBQ 080455Z AUTO 34008KT 10SM CLR 11/08 A3010 920 80 700 340/08 RMK AO2
94908KDBQ DBQ20100907230009709/07/10 23:00:31  5-MIN KDBQ 080500Z AUTO 34007KT 10SM CLR 11/08 A3010 920 80 700 340/07 RMK AO2
94908KDBQ DBQ20100907230509709/07/10 23:05:31  5-MIN KDBQ 080505Z AUTO 33007KT 10SM CLR 11/08 A3010 910 80 700 330/07 RMK AO2
94908KDBQ DBQ20100907231009709/07/10 23:10:31  5-MIN KDBQ 080510Z AUTO 33006KT 10SM CLR 12/08 A3010 910 77 800 330/06 RMK AO2
94908KDBQ DBQ20100907231509709/07/10 23:15:31  5-MIN KDBQ 080515Z AUTO 33007KT 10SM CLR 11/08 A3010 920 83 700 330/07 RMK AO2
94908KDBQ DBQ20100907232009709/07/10 23:20:31  5-MIN KDBQ 080520Z AUTO 34007KT 10SM CLR 12/08 A3010 920 80 800 340/07 RMK AO2
94908KDBQ DBQ20100907232509709/07/10 23:25:31  5-MIN KDBQ 080525Z AUTO 34007KT 10SM CLR 12/08 A3009 920 80 800 340/07 RMK AO2
94908KDBQ DBQ20100907233009709/07/10 23:30:31  5-MIN KDBQ 080530Z AUTO 34007KT 10SM CLR 11/08 A3009 920 83 700 340/07 RMK AO2
94908KDBQ DBQ20100907233509709/07/10 23:35:31  5-MIN KDBQ 080535Z AUTO 34007KT 10SM CLR 12/08 A3010 920 80 800 330/07 RMK AO2
94908KDBQ DBQ20100907234009709/07/10 23:40:31  5-MIN KDBQ 080540Z AUTO 34007KT 10SM CLR 12/08 A3010 920 80 800 330/07 RMK AO2
94908KDBQ DBQ20100907234509709/07/10 23:45:31  5-MIN KDBQ 080545Z AUTO 34007KT 10SM CLR 12/08 A3010 920 80 800 330/07 RMK AO2
94908KDBQ DBQ20100907235014209/07/10 23:50:31  5-MIN KDBQ 080550Z AUTO 34007KT 10SM CLR 12/08 A3009 920 77 800 340/07 RMK AO2 SLP190 T01170078 10189 20106 402170106 53022
94908KDBQ DBQ20100907235509709/07/10 23:55:31  5-MIN KDBQ 080555Z AUTO 33007KT 10SM CLR 12/08 A3009 920 77 800 330/07 RMK AO2
94908KDBQ DBQ20100908000009709/08/10 00:00:38  5-MIN KDBQ 080600Z AUTO 33007KT 10SM CLR 12/08 A3010 920 77 800 330/07 RMK AO2
94908KDBQ DBQ20100908000509709/08/10 00:05:31  5-MIN KDBQ 080605Z AUTO 33007KT 10SM CLR 12/08 A3010 910 77 800 330/07 RMK AO2
94908KDBQ DBQ20100908001009709/08/10 00:10:31  5-MIN KDBQ 080610Z AUTO 33007KT 10SM CLR 12/08 A3010 910 77 800 330/07 RMK AO2
94908KDBQ DBQ20100908001509709/08/10 00:15:32  5-MIN KDBQ 080615Z AUTO 33006KT 10SM CLR 12/08 A3010 910 77 800 330/06 RMK AO2
94908KDBQ DBQ20100908002009709/08/10 00:20:31  5-MIN KDBQ 080620Z AUTO 33007KT 10SM CLR 12/08 A3010 910 77 800 330/07 RMK AO2
94908KDBQ DBQ20100908002509709/08/10 00:25:31  5-MIN KDBQ 080625Z AUTO 33006KT 10SM CLR 12/08 A3010 910 77 800 330/06 RMK AO2
94908KDBQ DBQ20100908003009709/08/10 00:30:31  5-MIN KDBQ 080630Z AUTO 33006KT 10SM CLR 11/08 A3010 910 80 700 330/06 RMK AO2
94908KDBQ DBQ20100908003509709/08/10 00:35:31  5-MIN KDBQ 080635Z AUTO 33005KT 10SM CLR 11/08 A3010 910 80 700 330/05 RMK AO2
94908KDBQ DBQ20100908004009709/08/10 00:40:31  5-MIN KDBQ 080640Z AUTO 33005KT 10SM CLR 11/08 A3010 910 80 700 320/05 RMK AO2
94908KDBQ DBQ20100908004509709/08/10 00:45:31  5-MIN KDBQ 080645Z AUTO 32005KT 10SM CLR 11/08 A3010 910 80 700 320/05 RMK AO2
94908KDBQ DBQ20100908005011409/08/10 00:50:31  5-MIN KDBQ 080650Z AUTO 32005KT 10SM CLR 11/08 A3010 910 83 600 320/05 RMK AO2 SLP193 T01060078
94908KDBQ DBQ20100908005509709/08/10 00:55:31  5-MIN KDBQ 080655Z AUTO 33006KT 10SM CLR 11/08 A3010 910 83 600 320/06 RMK AO2
94908KDBQ DBQ20100908010009709/08/10 01:00:31  5-MIN KDBQ 080700Z AUTO 32005KT 10SM CLR 11/08 A3010 910 83 600 320/05 RMK AO2
94908KDBQ DBQ20100908010509709/08/10 01:05:31  5-MIN KDBQ 080705Z AUTO 31005KT 10SM CLR 10/08 A3010 910 86 600 310/05 RMK AO2
94908KDBQ DBQ20100908011009709/08/10 01:10:31  5-MIN KDBQ 080710Z AUTO 32005KT 10SM CLR 11/08 A3010 910 83 600 320/05 RMK AO2
94908KDBQ DBQ20100908011509709/08/10 01:15:31  5-MIN KDBQ 080715Z AUTO 32006KT 10SM CLR 10/08 A3010 910 86 600 310/06 RMK AO2
94908KDBQ DBQ20100908012009709/08/10 01:20:31  5-MIN KDBQ 080720Z AUTO 30004KT 10SM CLR 10/08 A3010 910 86 600 300/04 RMK AO2
94908KDBQ DBQ20100908012509709/08/10 01:25:31  5-MIN KDBQ 080725Z AUTO 28005KT 10SM CLR 10/08 A3011 910 86 600 280/05 RMK AO2
94908KDBQ DBQ20100908013009709/08/10 01:30:31  5-MIN KDBQ 080730Z AUTO 25004KT 10SM CLR 08/07 A3011 900 89 400 250/04 RMK AO2
94908KDBQ DBQ20100908013509709/08/10 01:35:31  5-MIN KDBQ 080735Z AUTO 26004KT 10SM CLR 08/07 A3011 900 89 400 260/04 RMK AO2
94908KDBQ DBQ20100908014009709/08/10 01:40:31  5-MIN KDBQ 080740Z AUTO 30004KT 10SM CLR 08/07 A3011 900 89 400 300/04 RMK AO2
94908KDBQ DBQ20100908014509709/08/10 01:45:31  5-MIN KDBQ 080745Z AUTO 31006KT 10SM CLR 09/07 A3011 900 89 400 310/06 RMK AO2
94908KDBQ DBQ20100908015011409/08/10 01:50:31  5-MIN KDBQ 080750Z AUTO 31005KT 10SM CLR 09/08 A3011 900 89 500 310/05 RMK AO2 SLP196 T00940078
94908KDBQ DBQ20100908015509709/08/10 01:55:31  5-MIN KDBQ 080755Z AUTO 32005KT 10SM CLR 09/08 A3011 900 89 500 320/05 RMK AO2
94908KDBQ DBQ20100908020009709/08/10 02:00:31  5-MIN KDBQ 080800Z AUTO 32006KT 10SM CLR 09/08 A3011 900 89 500 320/06 RMK AO2
94908KDBQ DBQ20100908020509709/08/10 02:05:31  5-MIN KDBQ 080805Z AUTO 33005KT 10SM CLR 09/07 A3011 910 86 500 320/05 RMK AO2
94908KDBQ DBQ20100908021009709/08/10 02:10:31  5-MIN KDBQ 080810Z AUTO 32005KT 10SM CLR 09/07 A3011 910 86 500 320/05 RMK AO2
94908KDBQ DBQ20100908021509709/08/10 02:15:31  5-MIN KDBQ 080815Z AUTO 32005KT 10SM CLR 09/07 A3011 910 86 500 320/05 RMK AO2
94908KDBQ DBQ20100908022009709/08/10 02:20:31  5-MIN KDBQ 080820Z AUTO 31005KT 10SM CLR 10/07 A3011 910 83 600 310/05 RMK AO2
94908KDBQ DBQ20100908022509709/08/10 02:25:31  5-MIN KDBQ 080825Z AUTO 31004KT 10SM CLR 09/07 A3011 910 86 500 310/04 RMK AO2
94908KDBQ DBQ20100908023009709/08/10 02:30:31  5-MIN KDBQ 080830Z AUTO 32005KT 10SM CLR 09/07 A3011 900 86 500 320/05 RMK AO2
94908KDBQ DBQ20100908023509709/08/10 02:35:31  5-MIN KDBQ 080835Z AUTO 31005KT 10SM CLR 09/07 A3011 900 89 400 310/05 RMK AO2
94908KDBQ DBQ20100908024009709/08/10 02:40:31  5-MIN KDBQ 080840Z AUTO 31004KT 10SM CLR 09/07 A3012 900 89 400 310/04 RMK AO2
94908KDBQ DBQ20100908024509709/08/10 02:45:31  5-MIN KDBQ 080845Z AUTO 30004KT 10SM CLR 09/07 A3012 900 86 500 300/04 RMK AO2
94908KDBQ DBQ20100908025012009/08/10 02:50:31  5-MIN KDBQ 080850Z AUTO 29004KT 10SM CLR 09/07 A3012 900 86 500 290/04 RMK AO2 SLP197 T00940072 50003
94908KDBQ DBQ20100908025509709/08/10 02:55:31  5-MIN KDBQ 080855Z AUTO 29004KT 10SM CLR 09/07 A3012 900 89 400 290/04 RMK AO2
94908KDBQ DBQ20100908030009709/08/10 03:00:31  5-MIN KDBQ 080900Z AUTO 28005KT 10SM CLR 09/07 A3012 900 89 400 280/05 RMK AO2
94908KDBQ DBQ20100908030509709/08/10 03:05:31  5-MIN KDBQ 080905Z AUTO 26004KT 10SM CLR 08/07 A3012 890 93 300 260/04 RMK AO2
94908KDBQ DBQ20100908031009709/08/10 03:10:31  5-MIN KDBQ 080910Z AUTO 25004KT 10SM CLR 07/06 A3012 890 93 200 250/04 RMK AO2
94908KDBQ DBQ20100908031509709/08/10 03:15:31  5-MIN KDBQ 080915Z AUTO 25004KT 10SM CLR 07/07 A3013 890 96 200 250/04 RMK AO2
94908KDBQ DBQ20100908032009709/08/10 03:20:31  5-MIN KDBQ 080920Z AUTO 27003KT 10SM CLR 07/07 A3013 890 96 200 260/03 RMK AO2
94908KDBQ DBQ20100908032509709/08/10 03:25:31  5-MIN KDBQ 080925Z AUTO 29003KT 10SM CLR 07/07 A3013 890 96 200 290/03 RMK AO2
94908KDBQ DBQ20100908033009709/08/10 03:30:31  5-MIN KDBQ 080930Z AUTO 31005KT 10SM CLR 08/07 A3013 890 93 300 310/05 RMK AO2
94908KDBQ DBQ20100908033509709/08/10 03:35:31  5-MIN KDBQ 080935Z AUTO 32006KT 10SM CLR 08/07 A3013 890 93 300 320/06 RMK AO2
94908KDBQ DBQ20100908034009709/08/10 03:40:31  5-MIN KDBQ 080940Z AUTO 32007KT 10SM CLR 08/07 A3012 890 93 300 320/07 RMK AO2
94908KDBQ DBQ20100908034509709/08/10 03:45:31  5-MIN KDBQ 080945Z AUTO 30006KT 10SM CLR 09/07 A3013 890 89 400 300/06 RMK AO2
94908KDBQ DBQ20100908035011409/08/10 03:50:31  5-MIN KDBQ 080950Z AUTO 29006KT 10SM CLR 09/07 A3013 890 89 400 290/06 RMK AO2 SLP203 T00890072
94908KDBQ DBQ20100908035509709/08/10 03:55:31  5-MIN KDBQ 080955Z AUTO 28006KT 10SM CLR 09/07 A3013 880 89 400 280/06 RMK AO2
94908KDBQ DBQ20100908040009709/08/10 04:00:31  5-MIN KDBQ 081000Z AUTO 28005KT 10SM CLR 09/07 A3013 880 89 400 280/05 RMK AO2
94908KDBQ DBQ20100908040509709/08/10 04:05:31  5-MIN KDBQ 081005Z AUTO 29003KT 10SM CLR 08/07 A3013 880 93 300 290/03 RMK AO2
94908KDBQ DBQ20100908041009709/08/10 04:10:31  5-MIN KDBQ 081010Z AUTO 29005KT 10SM CLR 08/07 A3013 880 93 300 290/05 RMK AO2
94908KDBQ DBQ20100908041509709/08/10 04:15:31  5-MIN KDBQ 081015Z AUTO 29004KT 10SM CLR 09/07 A3013 880 89 400 290/04 RMK AO2
94908KDBQ DBQ20100908042009709/08/10 04:20:31  5-MIN KDBQ 081020Z AUTO 29003KT 10SM CLR 08/07 A3013 880 89 300 290/03 RMK AO2
94908KDBQ DBQ20100908042509709/08/10 04:25:31  5-MIN KDBQ 081025Z AUTO 29004KT 10SM CLR 08/07 A3013 880 93 300 290/04 RMK AO2
94908KDBQ DBQ20100908043009709/08/10 04:30:31  5-MIN KDBQ 081030Z AUTO 30005KT 10SM CLR 08/07 A3013 880 93 300 300/05 RMK AO2
94908KDBQ DBQ20100908043509709/08/10 04:35:31  5-MIN KDBQ 081035Z AUTO 31005KT 10SM CLR 09/07 A3013 880 89 400 310/05 RMK AO2
94908KDBQ DBQ20100908044009709/08/10 04:40:31  5-MIN KDBQ 081040Z AUTO 31006KT 10SM CLR 08/07 A3013 880 93 300 310/06 RMK AO2
94908KDBQ DBQ20100908044509709/08/10 04:45:31  5-MIN KDBQ 081045Z AUTO 32006KT 10SM CLR 08/07 A3013 890 93 300 310/06 RMK AO2
94908KDBQ DBQ20100908045010909/08/10 04:50:31  5-MIN KDBQ 081050Z 31006KT 10SM CLR 08/07 A3013 880 93 300 310/06 RMK AO2 SLP204 T00830072
94908KDBQ DBQ20100908045509209/08/10 04:55:31  5-MIN KDBQ 081055Z 31007KT 10SM CLR 09/07 A3014 880 89 400 310/07 RMK AO2
94908KDBQ DBQ20100908050009209/08/10 05:00:31  5-MIN KDBQ 081100Z 31007KT 10SM CLR 09/07 A3014 880 89 400 310/07 RMK AO2
94908KDBQ DBQ20100908050509209/08/10 05:05:31  5-MIN KDBQ 081105Z 31007KT 10SM CLR 09/07 A3014 880 89 400 310/07 RMK AO2
94908KDBQ DBQ20100908051009209/08/10 05:10:31  5-MIN KDBQ 081110Z 31006KT 10SM CLR 09/07 A3014 880 89 400 310/06 RMK AO2
94908KDBQ DBQ20100908051509209/08/10 05:15:31  5-MIN KDBQ 081115Z 31007KT 10SM CLR 09/07 A3014 880 89 400 300/07 RMK AO2
94908KDBQ DBQ20100908052009209/08/10 05:20:31  5-MIN KDBQ 081120Z 31006KT 10SM CLR 09/07 A3014 880 86 500 310/06 RMK AO2
94908KDBQ DBQ20100908052509209/08/10 05:25:31  5-MIN KDBQ 081125Z 30006KT 10SM CLR 09/07 A3014 870 89 400 300/06 RMK AO2
94908KDBQ DBQ20100908053009209/08/10 05:30:31  5-MIN KDBQ 081130Z 30006KT 10SM CLR 09/07 A3014 870 89 400 300/06 RMK AO2
94908KDBQ DBQ20100908053509209/08/10 05:35:31  5-MIN KDBQ 081135Z 30007KT 10SM CLR 09/07 A3015 870 89 400 300/07 RMK AO2
94908KDBQ DBQ20100908054009209/08/10 05:40:31  5-MIN KDBQ 081140Z 31007KT 10SM CLR 09/07 A3014 870 86 500 310/07 RMK AO2
94908KDBQ DBQ20100908054509209/08/10 05:45:31  5-MIN KDBQ 081145Z 31006KT 10SM CLR 09/07 A3014 870 89 400 310/06 RMK AO2
94908KDBQ DBQ20100908055012709/08/10 05:50:31  5-MIN KDBQ 081150Z 32006KT 10SM CLR 09/07 A3014 870 89 400 320/06 RMK AO2 SLP209 T00890072 10117 20072 51007
94908KDBQ DBQ20100908055509209/08/10 05:55:31  5-MIN KDBQ 081155Z 32007KT 10SM CLR 08/07 A3015 870 93 300 320/07 RMK AO2
94908KDBQ DBQ20100908060009209/08/10 06:00:31  5-MIN KDBQ 081200Z 33008KT 10SM CLR 09/07 A3015 870 89 400 330/08 RMK AO2
94908KDBQ DBQ20100908060509209/08/10 06:05:31  5-MIN KDBQ 081205Z 34008KT 10SM CLR 09/08 A3015 870 89 500 330/08 RMK AO2
94908KDBQ DBQ20100908061009209/08/10 06:10:31  5-MIN KDBQ 081210Z 34008KT 10SM CLR 10/08 A3015 870 86 500 340/08 RMK AO2
94908KDBQ DBQ20100908061509209/08/10 06:15:31  5-MIN KDBQ 081215Z 34007KT 10SM CLR 10/08 A3015 870 86 500 340/07 RMK AO2
94908KDBQ DBQ20100908062009209/08/10 06:20:31  5-MIN KDBQ 081220Z 33007KT 10SM CLR 10/08 A3015 870 86 500 330/07 RMK AO2
94908KDBQ DBQ20100908062509209/08/10 06:25:31  5-MIN KDBQ 081225Z 33006KT 10SM CLR 11/08 A3015 860 83 600 330/06 RMK AO2
94908KDBQ DBQ20100908063009209/08/10 06:30:31  5-MIN KDBQ 081230Z 33006KT 10SM CLR 11/08 A3015 860 86 600 330/06 RMK AO2
94908KDBQ DBQ20100908063509209/08/10 06:35:31  5-MIN KDBQ 081235Z 32005KT 10SM CLR 11/08 A3016 860 86 600 320/05 RMK AO2
94908KDBQ DBQ20100908064009209/08/10 06:40:31  5-MIN KDBQ 081240Z 32006KT 10SM CLR 11/08 A3016 860 83 600 320/06 RMK AO2
94908KDBQ DBQ20100908064509209/08/10 06:45:31  5-MIN KDBQ 081245Z 33005KT 10SM CLR 11/08 A3016 860 83 600 330/05 RMK AO2
94908KDBQ DBQ20100908065010909/08/10 06:50:31  5-MIN KDBQ 081250Z 33005KT 10SM CLR 11/08 A3016 860 83 600 330/05 RMK AO2 SLP214 T01110083
94908KDBQ DBQ20100908065509209/08/10 06:55:31  5-MIN KDBQ 081255Z 31005KT 10SM CLR 11/08 A3016 860 83 600 310/05 RMK AO2
94908KDBQ DBQ20100908070009209/08/10 07:00:31  5-MIN KDBQ 081300Z 34006KT 10SM CLR 11/08 A3016 860 83 600 330/06 RMK AO2
94908KDBQ DBQ20100908070509209/08/10 07:05:31  5-MIN KDBQ 081305Z 33004KT 10SM CLR 12/08 A3016 860 80 700 330/04 RMK AO2
94908KDBQ DBQ20100908071009209/08/10 07:10:31  5-MIN KDBQ 081310Z 31004KT 10SM CLR 12/08 A3016 850 80 700 310/04 RMK AO2
94908KDBQ DBQ20100908071509209/08/10 07:15:31  5-MIN KDBQ 081315Z 31003KT 10SM CLR 12/08 A3017 850 80 700 310/03 RMK AO2
94908KDBQ DBQ20100908072009209/08/10 07:20:31  5-MIN KDBQ 081320Z 33007KT 10SM CLR 12/08 A3017 850 80 700 330/07 RMK AO2
94908KDBQ DBQ20100908072509209/08/10 07:25:31  5-MIN KDBQ 081325Z 33006KT 10SM CLR 12/08 A3017 850 80 700 330/06 RMK AO2
94908KDBQ DBQ20100908073009209/08/10 07:30:31  5-MIN KDBQ 081330Z 33006KT 10SM CLR 12/08 A3017 850 77 700 330/06 RMK AO2
94908KDBQ DBQ20100908073509209/08/10 07:35:31  5-MIN KDBQ 081335Z 33005KT 10SM CLR 12/08 A3017 850 77 800 330/05 RMK AO2
94908KDBQ DBQ20100908074009209/08/10 07:40:31  5-MIN KDBQ 081340Z 35006KT 10SM CLR 12/08 A3017 850 74 800 350/06 RMK AO2
94908KDBQ DBQ20100908074509209/08/10 07:45:31  5-MIN KDBQ 081345Z 35006KT 10SM CLR 12/08 A3017 850 77 800 350/06 RMK AO2
94908KDBQ DBQ20100908075010909/08/10 07:50:31  5-MIN KDBQ 081350Z 36006KT 10SM CLR 12/08 A3017 850 74 800 360/06 RMK AO2 SLP218 T01220078
94908KDBQ DBQ20100908075509209/08/10 07:55:31  5-MIN KDBQ 081355Z 36006KT 10SM CLR 13/08 A3017 850 74 800 360/06 RMK AO2
94908KDBQ DBQ20100908080009209/08/10 08:00:31  5-MIN KDBQ 081400Z 36008KT 10SM CLR 12/08 A3017 850 74 800 360/08 RMK AO2
94908KDBQ DBQ20100908080509209/08/10 08:05:31  5-MIN KDBQ 081405Z 35008KT 10SM CLR 12/08 A3017 850 74 800 350/08 RMK AO2
94908KDBQ DBQ20100908081009209/08/10 08:10:31  5-MIN KDBQ 081410Z 36010KT 10SM CLR 13/08 A3017 850 71 800 350/10 RMK AO2
94908KDBQ DBQ20100908081509209/08/10 08:15:31  5-MIN KDBQ 081415Z 35010KT 10SM CLR 12/08 A3017 850 74 800 340/10 RMK AO2
94908KDBQ DBQ20100908082009209/08/10 08:20:31  5-MIN KDBQ 081420Z 34009KT 10SM CLR 13/08 A3017 850 71 800 340/09 RMK AO2
94908KDBQ DBQ20100908082509209/08/10 08:25:31  5-MIN KDBQ 081425Z 34008KT 10SM CLR 13/08 A3017 850 74 800 340/08 RMK AO2
94908KDBQ DBQ20100908083009209/08/10 08:30:31  5-MIN KDBQ 081430Z 35007KT 10SM CLR 13/08 A3017 850 74 800 350/07 RMK AO2
94908KDBQ DBQ20100908083509209/08/10 08:35:31  5-MIN KDBQ 081435Z 35008KT 10SM CLR 13/08 A3017 850 71 900 350/08 RMK AO2
94908KDBQ DBQ20100908084009209/08/10 08:40:31  5-MIN KDBQ 081440Z 35008KT 10SM CLR 13/08 A3017 850 71 900 350/08 RMK AO2
94908KDBQ DBQ20100908084509209/08/10 08:45:31  5-MIN KDBQ 081445Z 01007KT 10SM CLR 13/09 A3017 850 74 900 010/07 RMK AO2
94908KDBQ DBQ20100908090009209/08/10 09:00:31  5-MIN KDBQ 081500Z 34008KT 10SM CLR 13/09 A3018 840 74 900 340/08 RMK AO2
94908KDBQ DBQ20100908090509209/08/10 09:05:31  5-MIN KDBQ 081505Z 35008KT 10SM CLR 14/09 A3018 840 71 900 350/08 RMK AO2
94908KDBQ DBQ20100908091009209/08/10 09:10:31  5-MIN KDBQ 081510Z 36005KT 10SM CLR 14/09 A3018 840 71 900 360/05 RMK AO2
94908KDBQ DBQ20100908091510909/08/10 09:15:31  5-MIN KDBQ 081515Z 36009KT 320V030 10SM CLR 14/09 A3018 840 72 1000 360/09 320V030 RMK AO2
94908KDBQ DBQ20100908092009209/08/10 09:20:31  5-MIN KDBQ 081520Z 36004KT 10SM CLR 14/08 A3018 840 69 900 360/04 RMK AO2
94908KDBQ DBQ20100908092509309/08/10 09:25:31  5-MIN KDBQ 081525Z 34007KT 10SM CLR 14/09 A3018 840 72 1000 340/07 RMK AO2
94908KDBQ DBQ20100908093009309/08/10 09:30:31  5-MIN KDBQ 081530Z 33007KT 10SM CLR 14/09 A3018 840 69 1000 320/07 RMK AO2
94908KDBQ DBQ20100908093509309/08/10 09:35:31  5-MIN KDBQ 081535Z 33007KT 10SM CLR 14/09 A3019 830 72 1000 330/07 RMK AO2
94908KDBQ DBQ20100908094009309/08/10 09:40:31  5-MIN KDBQ 081540Z 34005KT 10SM CLR 14/09 A3018 840 69 1000 330/05 RMK AO2
94908KDBQ DBQ20100908094509309/08/10 09:45:31  5-MIN KDBQ 081545Z VRB05KT 10SM CLR 15/09 A3018 840 66 1100 VRB/05 RMK AO2
94908KDBQ DBQ20100908095011009/08/10 09:50:31  5-MIN KDBQ 081550Z 34006KT 10SM CLR 15/09 A3018 840 69 1100 340/06 RMK AO2 SLP222 T01500094
94908KDBQ DBQ20100908095509309/08/10 09:55:31  5-MIN KDBQ 081555Z 34007KT 10SM CLR 15/09 A3018 840 66 1100 330/07 RMK AO2
94908KDBQ DBQ20100908100009309/08/10 10:00:31  5-MIN KDBQ 081600Z 34006KT 10SM CLR 15/09 A3018 840 66 1100 340/06 RMK AO2
94908KDBQ DBQ20100908100509309/08/10 10:05:31  5-MIN KDBQ 081605Z 32005KT 10SM CLR 15/09 A3018 840 66 1100 320/05 RMK AO2
94908KDBQ DBQ20100908101009309/08/10 10:10:31  5-MIN KDBQ 081610Z 01008KT 10SM CLR 16/09 A3018 840 67 1100 010/08 RMK AO2
94908KDBQ DBQ20100908101509309/08/10 10:15:31  5-MIN KDBQ 081615Z 33005KT 10SM CLR 16/09 A3018 840 64 1100 330/05 RMK AO2
94908KDBQ DBQ20100908102009309/08/10 10:20:31  5-MIN KDBQ 081620Z VRB03KT 10SM CLR 16/09 A3018 840 64 1100 VRB/03 RMK AO2
94908KDBQ DBQ20100908102509309/08/10 10:25:31  5-MIN KDBQ 081625Z 33005KT 10SM CLR 16/09 A3018 840 64 1100 330/05 RMK AO2
94908KDBQ DBQ20100908103009309/08/10 10:30:31  5-MIN KDBQ 081630Z 34008KT 10SM CLR 16/09 A3017 840 62 1200 340/08 RMK AO2
94908KDBQ DBQ20100908103509309/08/10 10:35:31  5-MIN KDBQ 081635Z 35005KT 10SM CLR 16/09 A3017 850 64 1200 340/05 RMK AO2
94908KDBQ DBQ20100908104009309/08/10 10:40:31  5-MIN KDBQ 081640Z 33007KT 10SM CLR 16/09 A3017 850 62 1200 330/07 RMK AO2
94908KDBQ DBQ20100908104509309/08/10 10:45:31  5-MIN KDBQ 081645Z VRB05KT 10SM CLR 17/09 A3017 850 62 1300 VRB/05 RMK AO2
94908KDBQ DBQ20100908105011009/08/10 10:50:31  5-MIN KDBQ 081650Z 32006KT 10SM CLR 17/09 A3017 850 60 1300 310/06 RMK AO2 SLP219 T01670089
94908KDBQ DBQ20100908105509309/08/10 10:55:31  5-MIN KDBQ 081655Z 35006KT 10SM CLR 17/09 A3017 850 60 1300 350/06 RMK AO2
94908KDBQ DBQ20100908110009309/08/10 11:00:31  5-MIN KDBQ 081700Z 33006KT 10SM CLR 17/09 A3017 850 60 1300 330/06 RMK AO2
94908KDBQ DBQ20100908110509309/08/10 11:05:31  5-MIN KDBQ 081705Z 34007KT 10SM CLR 17/09 A3017 850 60 1300 340/07 RMK AO2
94908KDBQ DBQ20100908111009309/08/10 11:10:31  5-MIN KDBQ 081710Z 34008KT 10SM CLR 17/09 A3017 850 60 1300 340/08 RMK AO2
94908KDBQ DBQ20100908111509309/08/10 11:15:31  5-MIN KDBQ 081715Z 34008KT 10SM CLR 17/09 A3017 850 57 1300 340/08 RMK AO2
94908KDBQ DBQ20100908112009309/08/10 11:20:31  5-MIN KDBQ 081720Z 33006KT 10SM CLR 17/09 A3017 850 57 1300 330/06 RMK AO2
94908KDBQ DBQ20100908112509309/08/10 11:25:31  5-MIN KDBQ 081725Z 36006KT 10SM CLR 17/08 A3017 850 55 1300 360/06 RMK AO2
94908KDBQ DBQ20100908113009309/08/10 11:30:31  5-MIN KDBQ 081730Z 35007KT 10SM CLR 17/09 A3017 850 57 1400 350/07 RMK AO2
94908KDBQ DBQ20100908113509309/08/10 11:35:31  5-MIN KDBQ 081735Z 34004KT 10SM CLR 17/09 A3016 850 57 1400 340/04 RMK AO2
94908KDBQ DBQ20100908114009309/08/10 11:40:31  5-MIN KDBQ 081740Z 35004KT 10SM CLR 17/09 A3016 850 60 1400 350/04 RMK AO2
94908KDBQ DBQ20100908114509309/08/10 11:45:31  5-MIN KDBQ 081745Z 29004KT 10SM CLR 17/09 A3016 860 57 1400 290/04 RMK AO2
94908KDBQ DBQ20100908115012809/08/10 11:50:31  5-MIN KDBQ 081750Z 33007KT 10SM CLR 18/09 A3016 860 55 1400 330/07 RMK AO2 SLP214 T01780089 10178 20083 51010
94908KDBQ DBQ20100908115509309/08/10 11:55:31  5-MIN KDBQ 081755Z 35004KT 10SM CLR 18/09 A3016 860 58 1400 350/04 RMK AO2
94908KDBQ DBQ20100908120012609/08/10 12:00:31  5-MIN KDBQ 081800Z 00000KT 10SM CLR 18/09 A3016 860 55 1400 000/00 R 18/09 A3015 860 54 1500 360/05 RMK AO2
94908KDBQ DBQ20100908120509309/08/10 12:05:31  5-MIN KDBQ 081805Z 36007KT 10SM CLR 18/09 A3016 860 56 1500 350/07 RMK AO2
94908KDBQ DBQ20100908121009309/08/10 12:10:31  5-MIN KDBQ 081810Z 33005KT 10SM CLR 18/09 A3016 860 54 1500 330/05 RMK AO2
94908KDBQ DBQ20100908121509309/08/10 12:15:31  5-MIN KDBQ 081815Z 36005KT 10SM CLR 18/09 A3015 860 54 1500 360/05 RMK AO2
94908KDBQ DBQ20100908122009309/08/10 12:20:31  5-MIN KDBQ 081820Z VRB06KT 10SM CLR 18/09 A3015 860 56 1500 VRB/06 RMK AO2
94908KDBQ DBQ20100908122509309/08/10 12:25:31  5-MIN KDBQ 081825Z 35008KT 10SM CLR 18/09 A3015 870 56 1500 350/08 RMK AO2
94908KDBQ DBQ20100908123009309/08/10 12:30:31  5-MIN KDBQ 081830Z 35007KT 10SM CLR 18/08 A3015 870 52 1500 350/07 RMK AO2
94908KDBQ DBQ20100908123509309/08/10 12:35:31  5-MIN KDBQ 081835Z 35006KT 10SM CLR 19/09 A3015 870 52 1600 350/06 RMK AO2
94908KDBQ DBQ20100908124009309/08/10 12:40:31  5-MIN KDBQ 081840Z 36006KT 10SM CLR 18/09 A3014 870 54 1500 360/06 RMK AO2
94908KDBQ DBQ20100908124509309/08/10 12:45:31  5-MIN KDBQ 081845Z 34008KT 10SM CLR 19/09 A3014 870 52 1600 340/08 RMK AO2
94908KDBQ DBQ20100908125011009/08/10 12:50:31  5-MIN KDBQ 081850Z 33005KT 10SM CLR 18/08 A3014 870 52 1500 320/05 RMK AO2 SLP207 T01830083
94908KDBQ DBQ20100908125509309/08/10 12:55:31  5-MIN KDBQ 081855Z 33007KT 10SM CLR 19/08 A3014 880 50 1600 330/07 RMK AO2
94908KDBQ DBQ20100908130009309/08/10 13:00:31  5-MIN KDBQ 081900Z 35005KT 10SM CLR 19/09 A3014 870 52 1600 350/05 RMK AO2
94908KDBQ DBQ20100908130509309/08/10 13:05:31  5-MIN KDBQ 081905Z 34006KT 10SM CLR 19/09 A3014 870 52 1600 340/06 RMK AO2
94908KDBQ DBQ20100908131009309/08/10 13:10:31  5-MIN KDBQ 081910Z 33006KT 10SM CLR 20/10 A3014 880 52 1700 320/06 RMK AO2
94908KDBQ DBQ20100908131509309/08/10 13:15:31  5-MIN KDBQ 081915Z 36004KT 10SM CLR 19/09 A3014 880 50 1600 360/04 RMK AO2
94908KDBQ DBQ20100908132009309/08/10 13:20:31  5-MIN KDBQ 081920Z 36006KT 10SM CLR 19/09 A3014 880 52 1600 360/06 RMK AO2
94908KDBQ DBQ20100908132509309/08/10 13:25:31  5-MIN KDBQ 081925Z 29003KT 10SM CLR 19/09 A3014 880 52 1600 290/03 RMK AO2
94908KDBQ DBQ20100908133009309/08/10 13:30:31  5-MIN KDBQ 081930Z VRB04KT 10SM CLR 19/09 A3013 880 50 1600 VRB/04 RMK AO2
94908KDBQ DBQ20100908133509309/08/10 13:35:31  5-MIN KDBQ 081935Z VRB04KT 10SM CLR 19/09 A3014 880 50 1600 VRB/04 RMK AO2
94908KDBQ DBQ20100908134009309/08/10 13:40:31  5-MIN KDBQ 081940Z 35005KT 10SM CLR 19/09 A3013 880 50 1600 340/05 RMK AO2
94908KDBQ DBQ20100908134509309/08/10 13:45:31  5-MIN KDBQ 081945Z 35006KT 10SM CLR 19/08 A3013 890 48 1700 350/06 RMK AO2
94908KDBQ DBQ20100908135011009/08/10 13:50:31  5-MIN KDBQ 081950Z VRB05KT 10SM CLR 20/09 A3013 890 48 1700 VRB/05 RMK AO2 SLP202 T02000089
94908KDBQ DBQ20100908135509309/08/10 13:55:31  5-MIN KDBQ 081955Z 01005KT 10SM CLR 20/08 A3013 890 46 1700 010/05 RMK AO2
94908KDBQ DBQ20100908140009309/08/10 14:00:31  5-MIN KDBQ 082000Z 31008KT 10SM CLR 20/08 A3012 890 46 1700 310/08 RMK AO2
94908KDBQ DBQ20100908140509309/08/10 14:05:31  5-MIN KDBQ 082005Z 32004KT 10SM CLR 20/09 A3012 890 48 1700 320/04 RMK AO2
94908KDBQ DBQ20100908141009309/08/10 14:10:31  5-MIN KDBQ 082010Z 31008KT 10SM CLR 20/09 A3012 890 48 1700 310/08 RMK AO2
94908KDBQ DBQ20100908141509309/08/10 14:15:31  5-MIN KDBQ 082015Z 33006KT 10SM CLR 20/09 A3012 900 48 1700 330/06 RMK AO2
94908KDBQ DBQ20100908142009309/08/10 14:20:31  5-MIN KDBQ 082020Z 34009KT 10SM CLR 21/08 A3012 900 45 1800 340/09 RMK AO2
94908KDBQ DBQ20100908142509309/08/10 14:25:31  5-MIN KDBQ 082025Z 35008KT 10SM CLR 20/08 A3012 890 46 1700 340/08 RMK AO2
94908KDBQ DBQ20100908143009309/08/10 14:30:31  5-MIN KDBQ 082030Z 34008KT 10SM CLR 20/08 A3012 900 46 1700 340/08 RMK AO2
94908KDBQ DBQ20100908143509309/08/10 14:35:31  5-MIN KDBQ 082035Z 35006KT 10SM CLR 20/09 A3012 900 48 1700 350/06 RMK AO2
94908KDBQ DBQ20100908144009309/08/10 14:40:31  5-MIN KDBQ 082040Z 31006KT 10SM CLR 20/08 A3012 900 46 1700 310/06 RMK AO2
94908KDBQ DBQ20100908144509309/08/10 14:45:31  5-MIN KDBQ 082045Z 34007KT 10SM CLR 20/08 A3011 900 46 1700 340/07 RMK AO2
94908KDBQ DBQ20100908145011209/08/10 14:50:31  5-MIN KDBQ 082050Z VRB03 KDBQ 082300Z 35005KT 10SM CLR 20/10 A3011 900 52 1700 350/05 RMK AO2
94908KDBQ DBQ20100908145011609/08/10 14:50:31  5-MIN KDBQ 082050Z VRB03KT 10SM CLR 20/08 A3011 900 46 1700 VRB/03 RMK AO2 SLP197 T02000083 58006
94908KDBQ DBQ20100908145509309/08/10 14:55:31  5-MIN KDBQ 082055Z 36007KT 10SM CLR 21/09 A3011 900 46 1800 360/07 RMK AO2
94908KDBQ DBQ20100908150009309/08/10 15:00:31  5-MIN KDBQ 082100Z 01005KT 10SM CLR 21/09 A3011 900 46 1800 010/05 RMK AO2
94908KDBQ DBQ20100908150509309/08/10 15:05:31  5-MIN KDBQ 082105Z 36006KT 10SM CLR 21/09 A3011 900 46 1800 350/06 RMK AO2
94908KDBQ DBQ20100908151009309/08/10 15:10:31  5-MIN KDBQ 082110Z 33005KT 10SM CLR 21/08 A3011 900 45 1800 330/05 RMK AO2
94908KDBQ DBQ20100908151509309/08/10 15:15:31  5-MIN KDBQ 082115Z 01005KT 10SM CLR 21/09 A3011 910 46 1800 010/05 RMK AO2
94908KDBQ DBQ20100908152009309/08/10 15:20:31  5-MIN KDBQ 082120Z 03005KT 10SM CLR 21/09 A3011 910 46 1800 030/05 RMK AO2
94908KDBQ DBQ20100908152509309/08/10 15:25:31  5-MIN KDBQ 082125Z 04003KT 10SM CLR 21/08 A3010 910 45 1800 040/03 RMK AO2
94908KDBQ DBQ20100908153009309/08/10 15:30:31  5-MIN KDBQ 082130Z 02005KT 10SM CLR 21/08 A3010 910 45 1800 020/05 RMK AO2
94908KDBQ DBQ20100908153509309/08/10 15:35:31  5-MIN KDBQ 082135Z 02005KT 10SM CLR 21/09 A3010 910 46 1800 020/05 RMK AO2
94908KDBQ DBQ20100908154009309/08/10 15:40:31  5-MIN KDBQ 082140Z 35006KT 10SM CLR 21/09 A3010 910 46 1800 350/06 RMK AO2
94908KDBQ DBQ20100908154509309/08/10 15:45:31  5-MIN KDBQ 082145Z 32004KT 10SM CLR 21/09 A3010 910 46 1800 320/04 RMK AO2
94908KDBQ DBQ20100908155011009/08/10 15:50:31  5-MIN KDBQ 082150Z 00000KT 10SM CLR 21/09 A3010 910 46 1800 000/00 RMK AO2 SLP194 T02060089
94908KDBQ DBQ20100908155509309/08/10 15:55:31  5-MIN KDBQ 082155Z VRB03KT 10SM CLR 21/09 A3011 910 47 1900 VRB/03 RMK AO2
94908KDBQ DBQ20100908160009309/08/10 16:00:31  5-MIN KDBQ 082200Z 01004KT 10SM CLR 21/09 A3011 910 48 1800 010/04 RMK AO2
94908KDBQ DBQ20100908160509309/08/10 16:05:31  5-MIN KDBQ 082205Z 34005KT 10SM CLR 21/09 A3011 910 46 1800 330/05 RMK AO2
94908KDBQ DBQ20100908161009309/08/10 16:10:31  5-MIN KDBQ 082210Z 35005KT 10SM CLR 21/09 A3011 910 46 1800 350/05 RMK AO2
94908KDBQ DBQ20100908161509309/08/10 16:15:31  5-MIN KDBQ 082215Z 35004KT 10SM CLR 21/09 A3011 910 48 1800 350/04 RMK AO2
94908KDBQ DBQ20100908162009309/08/10 16:20:31  5-MIN KDBQ 082220Z 35007KT 10SM CLR 21/09 A3011 910 46 1800 350/07 RMK AO2
94908KDBQ DBQ20100908162509309/08/10 16:25:31  5-MIN KDBQ 082225Z 35006KT 10SM CLR 20/09 A3011 900 50 1700 350/06 RMK AO2
94908KDBQ DBQ20100908163009309/08/10 16:30:31  5-MIN KDBQ 082230Z 35006KT 10SM CLR 20/10 A3011 910 52 1700 350/06 RMK AO2
94908KDBQ DBQ20100908163509309/08/10 16:35:31  5-MIN KDBQ 082235Z 34005KT 10SM CLR 19/09 A3011 900 52 1700 340/05 RMK AO2
94908KDBQ DBQ20100908164009309/08/10 16:40:31  5-MIN KDBQ 082240Z 36005KT 10SM CLR 19/11 A3011 900 56 1700 360/05 RMK AO2
94908KDBQ DBQ20100908164509309/08/10 16:45:31  5-MIN KDBQ 082245Z 36004KT 10SM CLR 20/10 A3011 900 52 1700 360/04 RMK AO2
94908KDBQ DBQ20100908165011009/08/10 16:50:31  5-MIN KDBQ 082250Z 35004KT 10SM CLR 20/10 A3011 900 52 1700 350/04 RMK AO2 SLP197 T02000100
94908KDBQ DBQ20100908165509309/08/10 16:55:31  5-MIN KDBQ 082255Z 01004KT 10SM CLR 20/09 A3011 900 50 1700 010/04 RMK AO2
94908KDBQ DBQ20100908170009309/08/10 17:00:31  5-MIN KDBQ 082300Z 35005KT 10SM CLR 20/10 A3011 900 52 1700 350/05 RMK AO2
94908KDBQ DBQ20100908170509309/08/10 17:05:31  5-MIN KDBQ 082305Z 35005KT 10SM CLR 19/10 A3011 900 54 1700 350/05 RMK AO2
94908KDBQ DBQ20100908171009309/08/10 17:10:31  5-MIN KDBQ 082310Z 36004KT 10SM CLR 19/10 A3012 900 54 1700 360/04 RMK AO2
94908KDBQ DBQ20100908171509309/08/10 17:15:31  5-MIN KDBQ 082315Z 01005KT 10SM CLR 19/10 A3011 900 54 1700 010/05 RMK AO2
94908KDBQ DBQ20100908172007409/08/10 17:20:31  5-MIN KDBQ 082320Z7/09 A3011 900 60 1400 360/04 RMK AO2
94908KDBQ DBQ20100908172009309/08/10 17:20:31  5-MIN KDBQ 082320Z 01004KT 10SM CLR 19/11 A3011 900 56 1700 010/04 RMK AO2
94908KDBQ DBQ20100908172509309/08/10 17:25:31  5-MIN KDBQ 082325Z 01004KT 10SM CLR 19/11 A3011 900 56 1700 010/04 RMK AO2
94908KDBQ DBQ20100908173009309/08/10 17:30:31  5-MIN KDBQ 082330Z 01003KT 10SM CLR 19/11 A3011 900 58 1600 010/03 RMK AO2
94908KDBQ DBQ20100908173509309/08/10 17:35:31  5-MIN KDBQ 082335Z 01003KT 10SM CLR 18/11 A3011 900 60 1500 010/03 RMK AO2
94908KDBQ DBQ20100908174009309/08/10 17:40:31  5-MIN KDBQ 082340Z 01003KT 10SM CLR 18/11 A3011 910 60 1500 010/03 RMK AO2
94908KDBQ DBQ20100908174509309/08/10 17:45:31  5-MIN KDBQ 082345Z 01003KT 10SM CLR 18/10 A3011 910 60 1500 010/03 RMK AO2
94908KDBQ DBQ20100908175012809/08/10 17:50:31  5-MIN KDBQ 082350Z 01003KT 10SM CLR 17/10 A3011 900 62 1400 010/03 RMK AO2 SLP197 T01720100 10211 20172 56016
94908KDBQ DBQ20100908175509309/08/10 17:55:31  5-MIN KDBQ 082355Z 36003KT 10SM CLR 18/09 A3011 900 58 1500 360/03 RMK AO2
94908KDBQ DBQ20100908180009309/08/10 18:00:31  5-MIN KDBQ 090000Z 35003KT 10SM CLR 18/09 A3011 900 55 1500 350/03 RMK AO2
94908KDBQ DBQ20100908180509309/08/10 18:05:31  5-MIN KDBQ 090005Z 35003KT 10SM CLR 18/09 A3011 910 55 1500 350/03 RMK AO2
94908KDBQ DBQ20100908181009309/08/10 18:10:31  5-MIN KDBQ 090010Z 36004KT 10SM CLR 17/09 A3011 900 60 1400 360/04 RMK AO2
94908KDBQ DBQ20100908181509309/08/10 18:15:31  5-MIN KDBQ 090015Z 01004KT 10SM CLR 17/09 A3010 910 62 1400 010/04 RMK AO2
94908KDBQ DBQ20100908182009309/08/10 18:20:31  5-MIN KDBQ 090020Z 36004KT 10SM CLR 17/09 A3010 910 57 1400 360/04 RMK AO2
94908KDBQ DBQ20100908182509309/08/10 18:25:31  5-MIN KDBQ 090025Z 36005KT 10SM CLR 16/09 A3011 910 64 1300 360/05 RMK AO2
94908KDBQ DBQ20100908183009309/08/10 18:30:31  5-MIN KDBQ 090030Z 01005KT 10SM CLR 16/09 A3011 900 64 1300 010/05 RMK AO2
94908KDBQ DBQ20100908183509309/08/10 18:35:31  5-MIN KDBQ 090035Z 02004KT 10SM CLR 16/09 A3011 910 62 1300 020/04 RMK AO2
94908KDBQ DBQ20100908184009309/08/10 18:40:31  5-MIN KDBQ 090040Z 04004KT 10SM CLR 15/09 A3011 910 69 1200 040/04 RMK AO2
94908KDBQ DBQ20100908184509309/08/10 18:45:31  5-MIN KDBQ 090045Z 05004KT 10SM CLR 15/09 A3011 910 69 1200 050/04 RMK AO2
94908KDBQ DBQ20100908185011009/08/10 18:50:31  5-MIN KDBQ 090050Z 04004KT 10SM CLR 15/09 A3011 900 69 1200 030/04 RMK AO2 SLP197 T01500094
94908KDBQ DBQ20100908185015809/08/10 18:50:31  5-MIN KDBQ 090050Z 04004KT 10SM CLR 15/09 A3011 900 69 1200 030/04 RMK A90105Z AUTO 04003KT 10SM CLR 14/09 A3011 900 72 1100 040/03 RMK AO2
94908KDBQ DBQ20100908185509809/08/10 18:55:31  5-MIN KDBQ 090055Z AUTO 04004KT 10SM CLR 15/09 A3011 910 69 1200 040/04 RMK AO2
94908KDBQ DBQ20100908190009809/08/10 19:00:31  5-MIN KDBQ 090100Z AUTO 03004KT 10SM CLR 14/09 A3011 910 72 1100 030/04 RMK AO2
94908KDBQ DBQ20100908190509809/08/10 19:05:31  5-MIN KDBQ 090105Z AUTO 04003KT 10SM CLR 14/09 A3011 900 72 1100 040/03 RMK AO2
94908KDBQ DBQ20100908191009809/08/10 19:10:31  5-MIN KDBQ 090110Z AUTO 03003KT 10SM CLR 13/10 A3011 900 80 1000 030/03 RMK AO2
94908KDBQ DBQ20100908191509809/08/10 19:15:31  5-MIN KDBQ 090115Z AUTO 04003KT 10SM CLR 14/10 A3011 910 77 1000 040/03 RMK AO2
94908KDBQ DBQ20100908192009709/08/10 19:20:31  5-MIN KDBQ 090120Z AUTO 05003KT 10SM CLR 13/10 A3011 900 83 900 050/03 RMK AO2
94908KDBQ DBQ20100908192013609/08/10 19:20:31  5-MIN KDBQ 090120Z AUTO 05003KT 10SM CLR 13/10 A3011 900 83 900 050/03 RMK AO2 86 800 000/00 RMK AO2 SLP200 T01170094
94908KDBQ DBQ20100908192509709/08/10 19:25:31  5-MIN KDBQ 090125Z AUTO 04003KT 10SM CLR 13/09 A3011 900 80 900 040/03 RMK AO2
94908KDBQ DBQ20100908193009709/08/10 19:30:31  5-MIN KDBQ 090130Z AUTO 05004KT 10SM CLR 13/10 A3011 900 83 900 050/04 RMK AO2
94908KDBQ DBQ20100908193509709/08/10 19:35:31  5-MIN KDBQ 090135Z AUTO 05004KT 10SM CLR 13/09 A3011 900 80 900 050/04 RMK AO2
94908KDBQ DBQ20100908194009809/08/10 19:40:31  5-MIN KDBQ 090140Z AUTO 06003KT 10SM CLR 13/09 A3011 900 77 1000 060/03 RMK AO2
94908KDBQ DBQ20100908194509709/08/10 19:45:31  5-MIN KDBQ 090145Z AUTO 00000KT 10SM CLR 12/09 A3011 900 83 800 000/00 RMK AO2
94908KDBQ DBQ20100908195011409/08/10 19:50:31  5-MIN KDBQ 090150Z AUTO 00000KT 10SM CLR 12/09 A3012 900 86 800 000/00 RMK AO2 SLP200 T01170094
94908KDBQ DBQ20100908195509709/08/10 19:55:31  5-MIN KDBQ 090155Z AUTO 06004KT 10SM CLR 13/10 A3012 900 83 900 060/04 RMK AO2
94908KDBQ DBQ20100908200009709/08/10 20:00:31  5-MIN KDBQ 090200Z AUTO 05004KT 10SM CLR 12/09 A3012 890 83 800 050/04 RMK AO2
94908KDBQ DBQ20100908200509709/08/10 20:05:31  5-MIN KDBQ 090205Z AUTO 04004KT 10SM CLR 13/09 A3012 890 80 900 040/04 RMK AO2
94908KDBQ DBQ20100908200514309/08/10 20:05:31  5-MIN KDBQ 090205Z AUTO 04004KT 10SM CLR 13/09 A3012 890 80 900 040/04 RMK AO209/08/10 20:10A3012 890 77 1000 050/05 RMK AO2
94908KDBQ DBQ20100908201009809/08/10 20:10:31  5-MIN KDBQ 090210Z AUTO 05004KT 10SM CLR 14/10 A3012 890 77 1000 050/04 RMK AO2
94908KDBQ DBQ20100908201509809/08/10 20:15:31  5-MIN KDBQ 090215Z AUTO 04005KT 10SM CLR 14/10 A3012 890 77 1000 040/05 RMK AO2
94908KDBQ DBQ20100908202009809/08/10 20:20:31  5-MIN KDBQ 090220Z AUTO 05005KT 10SM CLR 14/10 A3012 890 77 1000 050/05 RMK AO2
94908KDBQ DBQ20100908202509809/08/10 20:25:31  5-MIN KDBQ 090225Z AUTO 06005KT 10SM CLR 14/10 A3012 890 77 1000 060/05 RMK AO2
94908KDBQ DBQ20100908203009809/08/10 20:30:31  5-MIN KDBQ 090230Z AUTO 06006KT 10SM CLR 14/10 A3013 890 77 1000 060/06 RMK AO2
94908KDBQ DBQ20100908203509809/08/10 20:35:31  5-MIN KDBQ 090235Z AUTO 05006KT 10SM CLR 14/10 A3013 890 77 1000 050/06 RMK AO2
94908KDBQ DBQ20100908204009809/08/10 20:40:31  5-MIN KDBQ 090240Z AUTO 05005KT 10SM CLR 14/10 A3013 890 77 1000 050/05 RMK AO2
94908KDBQ DBQ20100908204509809/08/10 20:45:31  5-MIN KDBQ 090245Z AUTO 05005KT 10SM CLR 14/10 A3013 890 77 1000 050/05 RMK AO2
94908KDBQ DBQ20100908205012109/08/10 20:50:31  5-MIN KDBQ 090250Z AUTO 05005KT 10SM CLR 14/10 A3013 880 77 1000 050/05 RMK AO2 SLP205 T01390100 56001
94908KDBQ DBQ20100908205509809/08/10 20:55:31  5-MIN KDBQ 090255Z AUTO 06005KT 10SM CLR 14/09 A3013 890 74 1000 060/05 RMK AO2
94908KDBQ DBQ20100908210009709/08/10 21:00:31  5-MIN KDBQ 090300Z AUTO 06006KT 10SM CLR 13/10 A3013 890 80 900 060/06 RMK AO2
94908KDBQ DBQ20100908210509809/08/10 21:05:31  5-MIN KDBQ 090305Z AUTO 06006KT 10SM CLR 14/10 A3013 890 77 1000 050/06 RMK AO2
94908KDBQ DBQ20100908211009709/08/10 21:10:31  5-MIN KDBQ 090310Z AUTO 05006KT 10SM CLR 13/10 A3013 890 80 900 050/06 RMK AO2
94908KDBQ DBQ20100908211509809/08/10 21:15:31  5-MIN KDBQ 090315Z AUTO 05006KT 10SM CLR 14/10 A3013 890 77 1000 050/06 RMK AO2
94908KDBQ DBQ20100908212009809/08/10 21:20:31  5-MIN KDBQ 090320Z AUTO 05006KT 10SM CLR 14/10 A3013 890 77 1000 050/06 RMK AO2
94908KDBQ DBQ20100908212509809/08/10 21:25:31  5-MIN KDBQ 090325Z AUTO 05006KT 10SM CLR 14/10 A3013 890 77 1000 050/06 RMK AO2
94908KDBQ DBQ20100908213009809/08/10 21:30:31  5-MIN KDBQ 090330Z AUTO 06005KT 10SM CLR 14/10 A3013 890 77 1000 050/05 RMK AO2
94908KDBQ DBQ20100908213509709/08/10 21:35:31  5-MIN KDBQ 090335Z AUTO 05005KT 10SM CLR 13/09 A3013 880 77 900 050/05 RMK AO2
94908KDBQ DBQ20100908214009709/08/10 21:40:31  5-MIN KDBQ 090340Z AUTO 05004KT 10SM CLR 13/09 A3013 890 80 900 050/04 RMK AO2
94908KDBQ DBQ20100908214509709/08/10 21:45:31  5-MIN KDBQ 090345Z AUTO 05004KT 10SM CLR 13/09 A3013 890 80 900 050/04 RMK AO2
94908KDBQ DBQ20100908215011409/08/10 21:50:31  5-MIN KDBQ 090350Z AUTO 07003KT 10SM CLR 13/09 A3013 880 77 900 070/03 RMK AO2 SLP204 T01330094
94908KDBQ DBQ20100908215509709/08/10 21:55:31  5-MIN KDBQ 090355Z AUTO 00000KT 10SM CLR 13/09 A3014 880 80 900 000/00 RMK AO2
94908KDBQ DBQ20100908220009709/08/10 22:00:31  5-MIN KDBQ 090400Z AUTO 05004KT 10SM CLR 13/09 A3013 880 80 900 050/04 RMK AO2
94908KDBQ DBQ20100908220509709/08/10 22:05:31  5-MIN KDBQ 090405Z AUTO 05006KT 10SM CLR 13/09 A3013 880 80 900 050/06 RMK AO2
94908KDBQ DBQ20100908221009709/08/10 22:10:31  5-MIN KDBQ 090410Z AUTO 05005KT 10SM CLR 13/09 A3013 880 80 900 050/05 RMK AO2
94908KDBQ DBQ20100908221509709/08/10 22:15:31  5-MIN KDBQ 090415Z AUTO 04006KT 10SM CLR 13/10 A3014 880 83 900 040/06 RMK AO2
94908KDBQ DBQ20100908222009709/08/10 22:20:31  5-MIN KDBQ 090420Z AUTO 04007KT 10SM CLR 13/10 A3013 880 83 900 040/07 RMK AO2
94908KDBQ DBQ20100908222509709/08/10 22:25:31  5-MIN KDBQ 090425Z AUTO 05006KT 10SM CLR 13/10 A3013 880 83 900 040/06 RMK AO2
94908KDBQ DBQ20100908223009709/08/10 22:30:31  5-MIN KDBQ 090430Z AUTO 04006KT 10SM CLR 13/10 A3013 880 83 900 040/06 RMK AO2
94908KDBQ DBQ20100908223509709/08/10 22:35:31  5-MIN KDBQ 090435Z AUTO 05006KT 10SM CLR 13/10 A3013 880 83 900 050/06 RMK AO2
94908KDBQ DBQ20100908224009709/08/10 22:40:31  5-MIN KDBQ 090440Z AUTO 04006KT 10SM CLR 13/10 A3013 880 83 900 040/06 RMK AO2
94908KDBQ DBQ20100908224509709/08/10 22:45:31  5-MIN KDBQ 090445Z AUTO 05006KT 10SM CLR 13/10 A3013 880 83 900 050/06 RMK AO2
94908KDBQ DBQ20100908225011409/08/10 22:50:31  5-MIN KDBQ 090450Z AUTO 04006KT 10SM CLR 13/10 A3014 880 83 900 040/06 RMK AO2 SLP205 T01280100
94908KDBQ DBQ20100908225509709/08/10 22:55:31  5-MIN KDBQ 090455Z AUTO 04006KT 10SM CLR 13/10 A3013 880 83 900 040/06 RMK AO2
94908KDBQ DBQ20100908230009709/08/10 23:00:31  5-MIN KDBQ 090500Z AUTO 04006KT 10SM CLR 13/10 A3013 880 83 900 040/06 RMK AO2
94908KDBQ DBQ20100908230509709/08/10 23:05:31  5-MIN KDBQ 090505Z AUTO 05006KT 10SM CLR 12/10 A3013 890 86 800 050/06 RMK AO2
94908KDBQ DBQ20100908231009709/08/10 23:10:31  5-MIN KDBQ 090510Z AUTO 04006KT 10SM CLR 12/10 A3013 890 86 800 040/06 RMK AO2
94908KDBQ DBQ20100908231509709/08/10 23:15:31  5-MIN KDBQ 090515Z AUTO 04005KT 10SM CLR 12/10 A3013 890 86 800 040/05 RMK AO2
94908KDBQ DBQ20100908232009709/08/10 23:20:31  5-MIN KDBQ 090520Z AUTO 03005KT 10SM CLR 12/10 A3013 880 86 800 030/05 RMK AO2
94908KDBQ DBQ20100908232509709/08/10 23:25:31  5-MIN KDBQ 090525Z AUTO 04005KT 10SM CLR 12/10 A3013 890 86 800 040/05 RMK AO2
94908KDBQ DBQ20100908233009709/08/10 23:30:31  5-MIN KDBQ 090530Z AUTO 04004KT 10SM CLR 12/10 A3013 880 86 800 040/04 RMK AO2
94908KDBQ DBQ20100908233509709/08/10 23:35:31  5-MIN KDBQ 090535Z AUTO 04004KT 10SM CLR 12/10 A3013 880 86 800 030/04 RMK AO2
94908KDBQ DBQ20100908234009709/08/10 23:40:31  5-MIN KDBQ 090540Z AUTO 03004KT 10SM CLR 12/10 A3013 880 86 800 030/04 RMK AO2
94908KDBQ DBQ20100908234509709/08/10 23:45:31  5-MIN KDBQ 090545Z AUTO 04003KT 10SM CLR 12/10 A3013 880 86 800 040/03 RMK AO2
94908KDBQ DBQ20100908235014209/08/10 23:50:31  5-MIN KDBQ 090550Z AUTO 05004KT 10SM CLR 12/10 A3013 880 86 800 050/04 RMK AO2 SLP204 T01220100 10183 20117 402110072 53007
94908KDBQ DBQ20100908235509709/08/10 23:55:31  5-MIN KDBQ 090555Z AUTO 06004KT 10SM CLR 13/10 A3013 880 83 900 060/04 RMK AO2
94908KDBQ DBQ20100909000009709/09/10 00:00:38  5-MIN KDBQ 090600Z AUTO 06006KT 10SM CLR 13/10 A3013 880 80 900 060/06 RMK AO2
94908KDBQ DBQ20100909000509709/09/10 00:05:31  5-MIN KDBQ 090605Z AUTO 06006KT 10SM CLR 13/10 A3013 890 80 900 060/06 RMK AO2
94908KDBQ DBQ20100909001009709/09/10 00:10:31  5-MIN KDBQ 090610Z AUTO 06005KT 10SM CLR 13/10 A3013 880 80 900 050/05 RMK AO2
94908KDBQ DBQ20100909001509709/09/10 00:15:31  5-MIN KDBQ 090615Z AUTO 06005KT 10SM CLR 13/10 A3013 890 80 900 060/05 RMK AO2
94908KDBQ DBQ20100909002009709/09/10 00:20:31  5-MIN KDBQ 090620Z AUTO 05004KT 10SM CLR 13/10 A3013 890 83 900 050/04 RMK AO2
94908KDBQ DBQ20100909002509709/09/10 00:25:31  5-MIN KDBQ 090625Z AUTO 05005KT 10SM CLR 13/10 A3012 890 83 900 050/05 RMK AO2
94908KDBQ DBQ20100909003009709/09/10 00:30:31  5-MIN KDBQ 090630Z AUTO 06004KT 10SM CLR 13/10 A3013 890 83 900 060/04 RMK AO2
94908KDBQ DBQ20100909003509709/09/10 00:35:31  5-MIN KDBQ 090635Z AUTO 06004KT 10SM CLR 13/10 A3012 890 83 900 060/04 RMK AO2
94908KDBQ DBQ20100909004009709/09/10 00:40:31  5-MIN KDBQ 090640Z AUTO 06003KT 10SM CLR 13/09 A3013 890 80 900 050/03 RMK AO2
94908KDBQ DBQ20100909004509709/09/10 00:45:31  5-MIN KDBQ 090645Z AUTO 05003KT 10SM CLR 12/09 A3013 890 83 800 050/03 RMK AO2
94908KDBQ DBQ20100909005011409/09/10 00:50:31  5-MIN KDBQ 090650Z AUTO 00000KT 10SM CLR 12/09 A3013 890 83 800 000/00 RMK AO2 SLP201 T01220094
94908KDBQ DBQ20100909005509709/09/10 00:55:31  5-MIN KDBQ 090655Z AUTO 00000KT 10SM CLR 12/09 A3012 890 83 800 000/00 RMK AO2
94908KDBQ DBQ20100909010009709/09/10 01:00:31  5-MIN KDBQ 090700Z AUTO 00000KT 10SM CLR 12/09 A3012 890 83 800 000/00 RMK AO2
94908KDBQ DBQ20100909010509709/09/10 01:05:31  5-MIN KDBQ 090705Z AUTO 07003KT 10SM CLR 12/09 A3012 890 83 800 070/03 RMK AO2
94908KDBQ DBQ20100909011009709/09/10 01:10:31  5-MIN KDBQ 090710Z AUTO 00000KT 10SM CLR 12/09 A3013 890 86 700 000/00 RMK AO2
94908KDBQ DBQ20100909011509709/09/10 01:15:31  5-MIN KDBQ 090715Z AUTO 00000KT 10SM CLR 12/09 A3013 880 86 700 000/00 RMK AO2
94908KDBQ DBQ20100909012009709/09/10 01:20:31  5-MIN KDBQ 090720Z AUTO 05003KT 10SM CLR 12/09 A3013 880 83 700 050/03 RMK AO2
94908KDBQ DBQ20100909012509709/09/10 01:25:31  5-MIN KDBQ 090725Z AUTO 05003KT 10SM CLR 11/09 A3013 880 86 700 050/03 RMK AO2
94908KDBQ DBQ20100909013009709/09/10 01:30:31  5-MIN KDBQ 090730Z AUTO 06004KT 10SM CLR 12/09 A3013 880 83 700 060/04 RMK AO2
94908KDBQ DBQ20100909013509709/09/10 01:35:31  5-MIN KDBQ 090735Z AUTO 06003KT 10SM CLR 12/09 A3014 880 86 700 060/03 RMK AO2
94908KDBQ DBQ20100909014009709/09/10 01:40:31  5-MIN KDBQ 090740Z AUTO 07004KT 10SM CLR 12/09 A3013 880 86 700 070/04 RMK AO2
94908KDBQ DBQ20100909014509709/09/10 01:45:31  5-MIN KDBQ 090745Z AUTO 07003KT 10SM CLR 12/09 A3013 880 86 700 070/03 RMK AO2
94908KDBQ DBQ20100909015011409/09/10 01:50:31  5-MIN KDBQ 090750Z AUTO 07003KT 10SM CLR 11/09 A3013 890 89 700 070/03 RMK AO2 SLP202 T01110094
94908KDBQ DBQ20100909015509709/09/10 01:55:31  5-MIN KDBQ 090755Z AUTO 08003KT 10SM CLR 11/09 A3012 890 89 700 080/03 RMK AO2
94908KDBQ DBQ20100909020009709/09/10 02:00:31  5-MIN KDBQ 090800Z AUTO 00000KT 10SM CLR 11/09 A3012 890 89 700 000/00 RMK AO2
94908KDBQ DBQ20100909020509709/09/10 02:05:31  5-MIN KDBQ 090805Z AUTO 00000KT 10SM CLR 11/09 A3012 890 89 600 000/00 RMK AO2
94908KDBQ DBQ20100909021009709/09/10 02:10:31  5-MIN KDBQ 090810Z AUTO 00000KT 10SM CLR 11/09 A3012 890 89 700 000/00 RMK AO2
94908KDBQ DBQ20100909021509709/09/10 02:15:31  5-MIN KDBQ 090815Z AUTO 00000KT 10SM CLR 11/09 A3013 890 93 600 000/00 RMK AO2
94908KDBQ DBQ20100909022009709/09/10 02:20:31  5-MIN KDBQ 090820Z AUTO 00000KT 10SM CLR 11/09 A3013 890 89 700 000/00 RMK AO2
94908KDBQ DBQ20100909022509709/09/10 02:25:31  5-MIN KDBQ 090825Z AUTO 00000KT 10SM CLR 11/09 A3013 880 89 700 000/00 RMK AO2
94908KDBQ DBQ20100909023010009/09/10 02:30:31  5-MIN KDBQ 090830Z AUTO 00000KT 10SM FEW100 11/09 A3013 890 89 700 000/00 RMK AO2
94908KDBQ DBQ20100909023510009/09/10 02:35:31  5-MIN KDBQ 090835Z AUTO 10003KT 10SM FEW100 12/09 A3012 890 86 700 090/03 RMK AO2
94908KDBQ DBQ20100909024010009/09/10 02:40:31  5-MIN KDBQ 090840Z AUTO 00000KT 10SM FEW100 12/09 A3012 890 83 800 000/00 RMK AO2
94908KDBQ DBQ20100909024509709/09/10 02:45:31  5-MIN KDBQ 090845Z AUTO 00000KT 10SM CLR 12/09 A3012 900 83 800 000/00 RMK AO2
94908KDBQ DBQ20100909025012309/09/10 02:50:31  5-MIN KDBQ 090850Z AUTO 00000KT 10SM FEW100 12/09 A3012 900 83 800 000/00 RMK AO2 SLP198 T01220094 50001
94908KDBQ DBQ20100909025510009/09/10 02:55:31  5-MIN KDBQ 090855Z AUTO 00000KT 10SM FEW100 12/10 A3012 900 86 800 000/00 RMK AO2
94908KDBQ DBQ20100909030010009/09/10 03:00:31  5-MIN KDBQ 090900Z AUTO 06003KT 10SM SCT100 12/10 A3012 900 86 800 060/03 RMK AO2
94908KDBQ DBQ20100909030510009/09/10 03:05:31  5-MIN KDBQ 090905Z AUTO 08004KT 10SM SCT100 12/10 A3011 900 86 800 080/04 RMK AO2
94908KDBQ DBQ20100909031010009/09/10 03:10:31  5-MIN KDBQ 090910Z AUTO 09005KT 10SM SCT100 12/10 A3010 910 86 800 090/05 RMK AO2
94908KDBQ DBQ20100909031510009/09/10 03:15:31  5-MIN KDBQ 090915Z AUTO 08004KT 10SM SCT100 12/10 A3010 910 86 800 080/04 RMK AO2
94908KDBQ DBQ20100909032010009/09/10 03:20:31  5-MIN KDBQ 090920Z AUTO 10004KT 10SM BKN100 13/10 A3010 910 83 900 100/04 RMK AO2
94908KDBQ DBQ20100909032510709/09/10 03:25:31  5-MIN KDBQ 090925Z AUTO 11004KT 10SM BKN100 BKN110 13/10 A3010 910 83 900 110/04 RMK AO2
94908KDBQ DBQ20100909033010709/09/10 03:30:31  5-MIN KDBQ 090930Z AUTO 10004KT 10SM BKN100 BKN120 13/10 A3010 910 83 900 100/04 RMK AO2
94908KDBQ DBQ20100909033510709/09/10 03:35:31  5-MIN KDBQ 090935Z AUTO 10004KT 10SM BKN100 OVC120 13/10 A3010 910 83 900 100/04 RMK AO2
94908KDBQ DBQ20100909034010709/09/10 03:40:31  5-MIN KDBQ 090940Z AUTO 09003KT 10SM BKN090 OVC110 13/10 A3011 900 83 900 090/03 RMK AO2
94908KDBQ DBQ20100909034510009/09/10 03:45:31  5-MIN KDBQ 090945Z AUTO 09003KT 10SM OVC095 13/10 A3011 900 83 900 090/03 RMK AO2
94908KDBQ DBQ20100909035011709/09/10 03:50:31  5-MIN KDBQ 090950Z AUTO 08005KT 10SM OVC100 13/10 A3011 900 83 900 080/05 RMK AO2 SLP196 T01280100
94908KDBQ DBQ20100909035510709/09/10 03:55:31  5-MIN KDBQ 090955Z AUTO 08005KT 10SM BKN100 OVC120 13/10 A3011 900 83 900 080/05 RMK AO2
94908KDBQ DBQ20100909040010709/09/10 04:00:31  5-MIN KDBQ 091000Z AUTO 08005KT 10SM BKN100 OVC120 13/10 A3011 910 83 900 080/05 RMK AO2
94908KDBQ DBQ20100909040510009/09/10 04:05:31  5-MIN KDBQ 091005Z AUTO 09004KT 10SM OVC100 13/10 A3010 910 83 900 090/04 RMK AO2
94908KDBQ DBQ20100909041010009/09/10 04:10:31  5-MIN KDBQ 091010Z AUTO 08004KT 10SM OVC100 13/10 A3010 910 83 900 080/04 RMK AO2
94908KDBQ DBQ20100909041510009/09/10 04:15:31  5-MIN KDBQ 091015Z AUTO 09005KT 10SM OVC110 13/10 A3010 910 83 900 080/05 RMK AO2
94908KDBQ DBQ20100909042010009/09/10 04:20:31  5-MIN KDBQ 091020Z AUTO 09005KT 10SM OVC110 13/10 A3010 910 83 900 090/05 RMK AO2
94908KDBQ DBQ20100909042510009/09/10 04:25:31  5-MIN KDBQ 091025Z AUTO 09005KT 10SM BKN110 13/10 A3010 910 83 900 090/05 RMK AO2
94908KDBQ DBQ20100909043010009/09/10 04:30:31  5-MIN KDBQ 091030Z AUTO 09005KT 10SM BKN110 13/09 A3010 910 80 900 090/05 RMK AO2
94908KDBQ DBQ20100909043510009/09/10 04:35:31  5-MIN KDBQ 091035Z AUTO 08005KT 10SM SCT110 13/09 A3011 910 80 900 070/05 RMK AO2
94908KDBQ DBQ20100909044010009/09/10 04:40:31  5-MIN KDBQ 091040Z AUTO 08005KT 10SM SCT110 13/09 A3011 910 80 900 080/05 RMK AO2
94908KDBQ DBQ20100909044510709/09/10 04:45:31  5-MIN KDBQ 091045Z AUTO 07004KT 10SM SCT090 SCT110 12/10 A3011 900 86 800 060/04 RMK AO2
94908KDBQ DBQ20100909045011209/09/10 04:50:31  5-MIN KDBQ 091050Z 08004KT 10SM BKN090 12/10 A3011 900 86 800 080/04 RMK AO2 SLP195 T01220100
94908KDBQ DBQ20100909045509509/09/10 04:55:31  5-MIN KDBQ 091055Z 10004KT 10SM BKN090 13/10 A3011 910 83 900 100/04 RMK AO2
94908KDBQ DBQ20100909050009509/09/10 05:00:31  5-MIN KDBQ 091100Z 10003KT 10SM BKN090 13/10 A3011 900 83 900 090/03 RMK AO2
94908KDBQ DBQ20100909050509509/09/10 05:05:31  5-MIN KDBQ 091105Z 09003KT 10SM BKN090 13/10 A3011 900 83 900 090/03 RMK AO2
94908KDBQ DBQ20100909051009509/09/10 05:10:31  5-MIN KDBQ 091110Z 00000KT 10SM OVC090 13/10 A3012 890 83 900 000/00 RMK AO2
94908KDBQ DBQ20100909051509509/09/10 05:15:31  5-MIN KDBQ 091115Z 00000KT 10SM OVC090 13/10 A3012 890 83 900 000/00 RMK AO2
94908KDBQ DBQ20100909052009509/09/10 05:20:31  5-MIN KDBQ 091120Z 11003KT 10SM OVC090 13/10 A3012 890 83 900 110/03 RMK AO2
94908KDBQ DBQ20100909052509509/09/10 05:25:31  5-MIN KDBQ 091125Z 10003KT 10SM OVC090 13/10 A3012 890 83 900 100/03 RMK AO2
94908KDBQ DBQ20100909053009509/09/10 05:30:31  5-MIN KDBQ 091130Z 00000KT 10SM OVC090 13/10 A3012 890 83 900 000/00 RMK AO2
94908KDBQ DBQ20100909053509509/09/10 05:35:31  5-MIN KDBQ 091135Z 00000KT 10SM OVC090 13/10 A3013 890 83 900 000/00 RMK AO2
94908KDBQ DBQ20100909054009509/09/10 05:40:31  5-MIN KDBQ 091140Z 00000KT 10SM OVC090 13/10 A3013 890 83 900 000/00 RMK AO2
94908KDBQ DBQ20100909054509509/09/10 05:45:31  5-MIN KDBQ 091145Z 00000KT 10SM OVC090 12/11 A3013 890 89 800 000/00 RMK AO2
94908KDBQ DBQ20100909055013009/09/10 05:50:31  5-MIN KDBQ 091150Z 00000KT 10SM OVC090 13/11 A3013 890 86 900 000/00 RMK AO2 SLP202 T01280106 10133 20106 58006
94908KDBQ DBQ20100909055509509/09/10 05:55:31  5-MIN KDBQ 091155Z 09003KT 10SM OVC090 13/11 A3013 890 86 900 090/03 RMK AO2
94908KDBQ DBQ20100909060009509/09/10 06:00:31  5-MIN KDBQ 091200Z 10003KT 10SM OVC090 13/11 A3013 890 86 900 100/03 RMK AO2
94908KDBQ DBQ20100909060509509/09/10 06:05:31  5-MIN KDBQ 091205Z 14003KT 10SM OVC090 13/11 A3013 890 86 900 140/03 RMK AO2
94908KDBQ DBQ20100909061009509/09/10 06:10:31  5-MIN KDBQ 091210Z 16004KT 10SM OVC090 12/11 A3012 890 89 800 150/04 RMK AO2
94908KDBQ DBQ20100909061509509/09/10 06:15:31  5-MIN KDBQ 091215Z 14004KT 10SM OVC090 13/11 A3013 890 86 900 140/04 RMK AO2
94908KDBQ DBQ20100909062009509/09/10 06:20:31  5-MIN KDBQ 091220Z 13005KT 10SM OVC090 13/11 A3013 890 86 900 130/05 RMK AO2
94908KDBQ DBQ20100909062509509/09/10 06:25:31  5-MIN KDBQ 091225Z 13004KT 10SM OVC090 13/11 A3013 890 86 900 130/04 RMK AO2
94908KDBQ DBQ20100909063009509/09/10 06:30:31  5-MIN KDBQ 091230Z 13003KT 10SM OVC085 13/11 A3013 890 86 900 130/03 RMK AO2
94908KDBQ DBQ20100909063509509/09/10 06:35:31  5-MIN KDBQ 091235Z 13005KT 10SM OVC085 13/11 A3013 890 86 900 130/05 RMK AO2
94908KDBQ DBQ20100909064009509/09/10 06:40:31  5-MIN KDBQ 091240Z 13005KT 10SM OVC085 13/11 A3013 890 86 900 130/05 RMK AO2
94908KDBQ DBQ20100909064510209/09/10 06:45:31  5-MIN KDBQ 091245Z 13005KT 10SM BKN085 OVC120 13/11 A3013 890 86 900 130/05 RMK AO2
94908KDBQ DBQ20100909065011909/09/10 06:50:31  5-MIN KDBQ 091250Z 13005KT 10SM BKN085 OVC120 13/11 A3013 890 86 900 130/05 RMK AO2 SLP204 T01280106
94908KDBQ DBQ20100909065510209/09/10 06:55:31  5-MIN KDBQ 091255Z 13005KT 10SM SCT085 OVC120 13/11 A3013 890 86 900 130/05 RMK AO2
94908KDBQ DBQ20100909070010209/09/10 07:00:31  5-MIN KDBQ 091300Z 13004KT 10SM SCT085 OVC120 13/11 A3013 880 86 900 130/04 RMK AO2
94908KDBQ DBQ20100909070510209/09/10 07:05:31  5-MIN KDBQ 091305Z 12004KT 10SM FEW085 OVC110 13/11 A3013 880 86 900 120/04 RMK AO2
94908KDBQ DBQ20100909071009509/09/10 07:10:31  5-MIN KDBQ 091310Z 12004KT 10SM OVC110 13/11 A3013 880 86 900 120/04 RMK AO2
94908KDBQ DBQ20100909071509509/09/10 07:15:31  5-MIN KDBQ 091315Z 12005KT 10SM OVC110 13/11 A3013 880 83 900 120/05 RMK AO2
94908KDBQ DBQ20100909072009509/09/10 07:20:31  5-MIN KDBQ 091320Z 12003KT 10SM OVC110 13/11 A3013 880 83 900 120/03 RMK AO2
94908KDBQ DBQ20100909072510209/09/10 07:25:31  5-MIN KDBQ 091325Z 14004KT 10SM FEW090 OVC110 13/11 A3013 880 83 900 140/04 RMK AO2
94908KDBQ DBQ20100909073010209/09/10 07:30:31  5-MIN KDBQ 091330Z 12004KT 10SM BKN090 OVC110 13/11 A3013 880 83 900 120/04 RMK AO2
94908KDBQ DBQ20100909073510209/09/10 07:35:31  5-MIN KDBQ 091335Z 11005KT 10SM BKN090 OVC110 13/11 A3013 880 83 900 110/05 RMK AO2
94908KDBQ DBQ20100909074010209/09/10 07:40:31  5-MIN KDBQ 091340Z 12004KT 10SM SCT090 BKN110 13/11 A3014 880 83 900 120/04 RMK AO2
94908KDBQ DBQ20100909074510209/09/10 07:45:31  5-MIN KDBQ 091345Z 12005KT 10SM SCT090 BKN110 13/11 A3014 880 83 900 120/05 RMK AO2
94908KDBQ DBQ20100909075011909/09/10 07:50:31  5-MIN KDBQ 091350Z 12003KT 10SM SCT090 BKN110 13/11 A3014 880 83 900 120/03 RMK AO2 SLP208 T01330106
94908KDBQ DBQ20100909075510209/09/10 07:55:31  5-MIN KDBQ 091355Z 00000KT 10SM BKN090 BKN110 13/11 A3014 870 86 900 000/00 RMK AO2
94908KDBQ DBQ20100909080010209/09/10 08:00:31  5-MIN KDBQ 091400Z 14003KT 10SM BKN085 BKN110 13/11 A3014 870 86 900 140/03 RMK AO2
94908KDBQ DBQ20100909080510209/09/10 08:05:31  5-MIN KDBQ 091405Z 12003KT 10SM BKN085 OVC110 13/11 A3014 870 86 900 120/03 RMK AO2
94908KDBQ DBQ20100909081010309/09/10 08:10:31  5-MIN KDBQ 091410Z 10004KT 10SM BKN085 OVC110 14/11 A3014 870 83 1000 100/04 RMK AO2
94908KDBQ DBQ20100909081509509/09/10 08:15:31  5-MIN KDBQ 091415Z 08005KT 10SM BKN090 13/11 A3014 870 86 900 080/05 RMK AO2
94908KDBQ DBQ20100909082009609/09/10 08:20:31  5-MIN KDBQ 091420Z 08005KT 10SM OVC090 14/11 A3014 870 83 1000 080/05 RMK AO2
94908KDBQ DBQ20100909082509609/09/10 08:25:31  5-MIN KDBQ 091425Z 09004KT 10SM BKN090 14/11 A3014 870 83 1000 090/04 RMK AO2
94908KDBQ DBQ20100909083009609/09/10 08:30:31  5-MIN KDBQ 091430Z 09006KT 10SM BKN090 14/11 A3014 880 83 1000 090/06 RMK AO2
94908KDBQ DBQ20100909083509609/09/10 08:35:31  5-MIN KDBQ 091435Z 11005KT 10SM BKN090 14/11 A3014 880 83 1000 110/05 RMK AO2
94908KDBQ DBQ20100909084009609/09/10 08:40:31  5-MIN KDBQ 091440Z 08005KT 10SM BKN090 14/11 A3014 880 83 1000 080/05 RMK AO2
94908KDBQ DBQ20100909084509609/09/10 08:45:31  5-MIN KDBQ 091445Z 10005KT 10SM BKN090 14/11 A3014 880 83 1000 100/05 RMK AO2
94908KDBQ DBQ20100909085011909/09/10 08:50:31  5-MIN KDBQ 091450Z 11005KT 10SM BKN090 14/11 A3014 870 83 1000 110/05 RMK AO2 SLP208 T01390111 53004
94908KDBQ DBQ20100909085509609/09/10 08:55:31  5-MIN KDBQ 091455Z 10005KT 10SM BKN090 14/11 A3014 870 83 1000 100/05 RMK AO2
94908KDBQ DBQ20100909090009609/09/10 09:00:31  5-MIN KDBQ 091500Z 11006KT 10SM BKN090 14/11 A3014 880 80 1100 110/06 RMK AO2
94908KDBQ DBQ20100909090509609/09/10 09:05:31  5-MIN KDBQ 091505Z 12005KT 10SM BKN090 14/11 A3014 870 83 1000 120/05 RMK AO2
94908KDBQ DBQ20100909091010309/09/10 09:10:31  5-MIN KDBQ 091510Z 11005KT 10SM BKN090 BKN110 14/11 A3014 870 83 1000 110/05 RMK AO2
94908KDBQ DBQ20100909091510309/09/10 09:15:31  5-MIN KDBQ 091515Z 10007KT 10SM BKN090 BKN110 14/11 A3015 870 80 1000 100/07 RMK AO2
94908KDBQ DBQ20100909092010309/09/10 09:20:31  5-MIN KDBQ 091520Z 10005KT 10SM BKN085 BKN110 14/11 A3015 870 80 1000 100/05 RMK AO2
94908KDBQ DBQ20100909092510309/09/10 09:25:31  5-MIN KDBQ 091525Z 10006KT 10SM BKN085 BKN110 14/11 A3015 870 80 1000 100/06 RMK AO2
94908KDBQ DBQ20100909093009609/09/10 09:30:31  5-MIN KDBQ 091530Z 11006KT 10SM BKN080 14/11 A3015 870 80 1000 110/06 RMK AO2
94908KDBQ DBQ20100909093509609/09/10 09:35:31  5-MIN KDBQ 091535Z 09006KT 10SM OVC080 14/11 A3015 870 80 1000 090/06 RMK AO2
94908KDBQ DBQ20100909094009609/09/10 09:40:31  5-MIN KDBQ 091540Z 09006KT 10SM OVC080 14/11 A3015 870 80 1000 090/06 RMK AO2
94908KDBQ DBQ20100909094509609/09/10 09:45:31  5-MIN KDBQ 091545Z 09005KT 10SM OVC080 14/11 A3015 870 80 1000 090/05 RMK AO2
94908KDBQ DBQ20100909095011309/09/10 09:50:31  5-MIN KDBQ 091550Z 09007KT 10SM OVC085 14/11 A3015 870 80 1000 090/07 RMK AO2 SLP211 T01440111
94908KDBQ DBQ20100909095509609/09/10 09:55:31  5-MIN KDBQ 091555Z 10006KT 10SM BKN085 14/11 A3015 870 80 1000 100/06 RMK AO2
94908KDBQ DBQ20100909100009609/09/10 10:00:31  5-MIN KDBQ 091600Z 11005KT 10SM BKN085 14/11 A3015 870 80 1000 100/05 RMK AO2
94908KDBQ DBQ20100909100509609/09/10 10:05:31  5-MIN KDBQ 091605Z 12005KT 10SM BKN085 14/11 A3015 870 80 1000 120/05 RMK AO2
94908KDBQ DBQ20100909101009609/09/10 10:10:31  5-MIN KDBQ 091610Z 14005KT 10SM BKN085 14/11 A3015 870 80 1000 140/05 RMK AO2
94908KDBQ DBQ20100909101509609/09/10 10:15:31  5-MIN KDBQ 091615Z 12006KT 10SM OVC080 15/11 A3014 870 77 1100 120/06 RMK AO2
94908KDBQ DBQ20100909102009609/09/10 10:20:31  5-MIN KDBQ 091620Z 13006KT 10SM OVC080 15/11 A3014 870 77 1100 130/06 RMK AO2
94908KDBQ DBQ20100909102509609/09/10 10:25:31  5-MIN KDBQ 091625Z 13005KT 10SM OVC080 15/11 A3014 870 77 1100 130/05 RMK AO2
94908KDBQ DBQ20100909103009609/09/10 10:30:31  5-MIN KDBQ 091630Z 13007KT 10SM OVC080 15/11 A3014 870 77 1100 130/07 RMK AO2
94908KDBQ DBQ20100909103509609/09/10 10:35:31  5-MIN KDBQ 091635Z 14006KT 10SM OVC080 15/11 A3014 880 77 1100 140/06 RMK AO2
94908KDBQ DBQ20100909104009609/09/10 10:40:31  5-MIN KDBQ 091640Z 15007KT 10SM OVC080 15/11 A3014 880 77 1100 150/07 RMK AO2
94908KDBQ DBQ20100909104509609/09/10 10:45:31  5-MIN KDBQ 091645Z 13006KT 10SM OVC080 15/11 A3014 880 74 1100 130/06 RMK AO2
94908KDBQ DBQ20100909105011309/09/10 10:50:31  5-MIN KDBQ 091650Z 13007KT 10SM OVC080 15/11 A3014 880 77 1100 130/07 RMK AO2 SLP207 T01500111
94908KDBQ DBQ20100909105509609/09/10 10:55:31  5-MIN KDBQ 091655Z 14007KT 10SM OVC080 15/11 A3014 880 77 1100 140/07 RMK AO2
94908KDBQ DBQ20100909110009609/09/10 11:00:31  5-MIN KDBQ 091700Z 15005KT 10SM OVC080 16/11 A3014 880 74 1200 150/05 RMK AO2
94908KDBQ DBQ20100909110509609/09/10 11:05:31  5-MIN KDBQ 091705Z 13007KT 10SM OVC080 16/11 A3014 880 74 1200 130/07 RMK AO2
94908KDBQ DBQ20100909111009609/09/10 11:10:31  5-MIN KDBQ 091710Z 13007KT 10SM OVC080 16/11 A3013 880 74 1200 130/07 RMK AO2
94908KDBQ DBQ20100909111509609/09/10 11:15:31  5-MIN KDBQ 091715Z 13006KT 10SM BKN080 16/11 A3013 880 74 1200 130/06 RMK AO2
94908KDBQ DBQ20100909112009609/09/10 11:20:31  5-MIN KDBQ 091720Z 12008KT 10SM BKN085 16/11 A3013 880 72 1300 120/08 RMK AO2
94908KDBQ DBQ20100909112509609/09/10 11:25:31  5-MIN KDBQ 091725Z 11009KT 10SM BKN080 16/11 A3013 890 72 1300 110/09 RMK AO2
94908KDBQ DBQ20100909113009609/09/10 11:30:31  5-MIN KDBQ 091730Z 11008KT 10SM BKN080 16/11 A3013 890 72 1300 110/08 RMK AO2
94908KDBQ DBQ20100909113509609/09/10 11:35:31  5-MIN KDBQ 091735Z 14008KT 10SM BKN080 16/11 A3013 890 72 1300 140/08 RMK AO2
94908KDBQ DBQ20100909114009609/09/10 11:40:31  5-MIN KDBQ 091740Z VRB06KT 10SM BKN080 16/11 A3013 890 72 1300 VRB/06 RMK AO2
94908KDBQ DBQ20100909114509609/09/10 11:45:31  5-MIN KDBQ 091745Z 11007KT 10SM BKN080 16/11 A3012 890 72 1300 110/07 RMK AO2
94908KDBQ DBQ20100909115013809/09/10 11:50:31  5-MIN KDBQ 091750Z 13007KT 10SM BKN080 BKN100 16/11 A3012 890 72 1300 130/07 RMK AO2 SLP200 T01610111 10161 20122 52004
94908KDBQ DBQ20100909115510309/09/10 11:55:31  5-MIN KDBQ 091755Z 11006KT 10SM SCT080 BKN100 17/11 A3012 890 69 1300 110/06 RMK AO2
94908KDBQ DBQ20100909120010309/09/10 12:00:31  5-MIN KDBQ 091800Z 13006KT 10SM SCT080 BKN100 17/11 A3012 900 69 1300 120/06 RMK AO2
94908KDBQ DBQ20100909120510309/09/10 12:05:31  5-MIN KDBQ 091805Z 13007KT 10SM FEW080 BKN100 17/11 A3011 900 67 1300 130/07 RMK AO2
94908KDBQ DBQ20100909121010309/09/10 12:10:31  5-MIN KDBQ 091810Z 12008KT 10SM FEW080 BKN100 17/11 A3011 900 69 1300 120/08 RMK AO2
94908KDBQ DBQ20100909121510309/09/10 12:15:31  5-MIN KDBQ 091815Z 14008KT 10SM FEW080 BKN100 17/11 A3011 900 67 1400 140/08 RMK AO2
94908KDBQ DBQ20100909122009609/09/10 12:20:31  5-MIN KDBQ 091820Z 12007KT 10SM BKN100 17/11 A3011 910 69 1400 120/07 RMK AO2
94908KDBQ DBQ20100909122509609/09/10 12:25:31  5-MIN KDBQ 091825Z 14008KT 10SM BKN110 17/11 A3011 910 67 1400 140/08 RMK AO2
94908KDBQ DBQ20100909123009609/09/10 12:30:31  5-MIN KDBQ 091830Z 14006KT 10SM BKN110 17/11 A3010 910 67 1400 140/06 RMK AO2
94908KDBQ DBQ20100909123511209/09/10 12:35:31  5-MIN KDBQ 091835Z 11008KT 090V150 10SM SCT110 17/11 A3010 910 67 1400 110/08 090V150 RMK AO2
94908KDBQ DBQ20100909124009609/09/10 12:40:31  5-MIN KDBQ 091840Z 12007KT 10SM SCT110 17/12 A3010 910 69 1400 110/07 RMK AO2
94908KDBQ DBQ20100909124509609/09/10 12:45:31  5-MIN KDBQ 091845Z 11008KT 10SM SCT110 18/12 A3010 920 67 1500 110/08 RMK AO2
94908KDBQ DBQ20100909125011309/09/10 12:50:31  5-MIN KDBQ 091850Z 10008KT 10SM FEW110 18/12 A3009 920 67 1500 100/08 RMK AO2 SLP191 T01780117
94908KDBQ DBQ20100909125509609/09/10 12:55:31  5-MIN KDBQ 091855Z 10007KT 10SM FEW110 18/11 A3009 920 64 1500 100/07 RMK AO2
94908KDBQ DBQ20100909130009609/09/10 13:00:31  5-MIN KDBQ 091900Z 10007KT 10SM FEW110 18/11 A3009 920 64 1500 100/07 RMK AO2
94908KDBQ DBQ20100909130509609/09/10 13:05:31  5-MIN KDBQ 091905Z 10010KT 10SM FEW110 18/12 A3009 930 67 1500 100/10 RMK AO2
94908KDBQ DBQ20100909131009309/09/10 13:10:31  5-MIN KDBQ 091910Z 10007KT 10SM CLR 18/12 A3009 930 65 1600 100/07 RMK AO2
94908KDBQ DBQ20100909131509309/09/10 13:15:31  5-MIN KDBQ 091915Z 10006KT 10SM CLR 18/11 A3008 930 62 1600 100/06 RMK AO2
94908KDBQ DBQ20100909132009609/09/10 13:20:31  5-MIN KDBQ 091920Z 09009KT 10SM FEW080 18/11 A3008 930 62 1600 090/09 RMK AO2
94908KDBQ DBQ20100909132509609/09/10 13:25:31  5-MIN KDBQ 091925Z 11007KT 10SM FEW080 18/11 A3008 930 62 1600 110/07 RMK AO2
94908KDBQ DBQ20100909133009609/09/10 13:30:31  5-MIN KDBQ 091930Z 10008KT 10SM SCT080 19/11 A3008 930 60 1600 100/08 RMK AO2
94908KDBQ DBQ20100909133509609/09/10 13:35:31  5-MIN KDBQ 091935Z 10006KT 10SM FEW080 18/11 A3008 930 62 1600 100/06 RMK AO2
94908KDBQ DBQ20100909134009609/09/10 13:40:31  5-MIN KDBQ 091940Z 11007KT 10SM FEW080 19/11 A3008 940 60 1600 110/07 RMK AO2
94908KDBQ DBQ20100909134509609/09/10 13:45:31  5-MIN KDBQ 091945Z 10008KT 10SM FEW080 19/11 A3007 940 60 1600 090/08 RMK AO2
94908KDBQ DBQ20100909135012309/09/10 13:50:31  5-MIN KDBQ 091950Z AUTO 11008KT 10SM FEW080 19/12 A3007 940 60 1700 110/08 RMK AO2 SLP183 T01940117 TSNO
94908KDBQ DBQ20100909135512209/09/10 13:55:31  5-MIN KDBQ 091955Z AUTO 10007KT 060V130 10SM FEW080 19/11 A3007 940 60 1700 100/07 060V130 RMK AO2 TSNO
94908KDBQ DBQ20100909140010309/09/10 14:00:31  5-MIN KDBQ 092000Z AUTO 10008KT 10SM CLR 19/11 A3006 950 58 1700 100/08 RMK AO2 TSNO
94908KDBQ DBQ20100909140510309/09/10 14:05:31  5-MIN KDBQ 092005Z AUTO 10009KT 10SM CLR 19/11 A3006 950 58 1700 100/09 RMK AO2 TSNO
94908KDBQ DBQ20100909141009309/09/10 14:10:31  5-MIN KDBQ 092010Z 10008KT 10SM CLR 19/11 A3006 950 58 1700 100/08 RMK AO2
94908KDBQ DBQ20100909141509309/09/10 14:15:31  5-MIN KDBQ 092015Z 08008KT 10SM CLR 19/11 A3006 950 58 1700 080/08 RMK AO2
94908KDBQ DBQ20100909142009309/09/10 14:20:31  5-MIN KDBQ 092020Z 09006KT 10SM CLR 19/11 A3006 950 58 1700 090/06 RMK AO2
94908KDBQ DBQ20100909142509309/09/10 14:25:31  5-MIN KDBQ 092025Z 09005KT 10SM CLR 19/11 A3006 950 60 1700 090/05 RMK AO2
94908KDBQ DBQ20100909143009309/09/10 14:30:31  5-MIN KDBQ 092030Z 10005KT 10SM CLR 19/11 A3006 950 58 1700 100/05 RMK AO2
94908KDBQ DBQ20100909143509309/09/10 14:35:31  5-MIN KDBQ 092035Z VRB06KT 10SM CLR 19/11 A3006 950 60 1700 VRB/06 RMK AO2
94908KDBQ DBQ20100909144010909/09/10 14:40:31  5-MIN KDBQ 092040Z 09007KT 070V130 10SM CLR 19/11 A3005 960 58 1700 090/07 070V130 RMK AO2
94908KDBQ DBQ20100909144509309/09/10 14:45:31  5-MIN KDBQ 092045Z 10008KT 10SM CLR 19/11 A3005 960 56 1700 100/08 RMK AO2
94908KDBQ DBQ20100909145011609/09/10 14:50:31  5-MIN KDBQ 092050Z 10005KT 10SM CLR 19/11 A3005 960 60 1700 100/05 RMK AO2 SLP175 T01890111 58007
94908KDBQ DBQ20100909145509309/09/10 14:55:31  5-MIN KDBQ 092055Z 11009KT 10SM CLR 19/11 A3005 960 60 1700 110/09 RMK AO2
94908KDBQ DBQ20100909150009309/09/10 15:00:31  5-MIN KDBQ 092100Z 11007KT 10SM CLR 19/11 A3005 960 60 1700 110/07 RMK AO2
94908KDBQ DBQ20100909150509309/09/10 15:05:31  5-MIN KDBQ 092105Z 08006KT 10SM CLR 19/11 A3005 960 58 1700 070/06 RMK AO2
94908KDBQ DBQ20100909151009609/09/10 15:10:31  5-MIN KDBQ 092110Z 10008KT 10SM FEW075 19/11 A3005 960 60 1700 100/08 RMK AO2
94908KDBQ DBQ20100909151509609/09/10 15:15:31  5-MIN KDBQ 092115Z 10007KT 10SM FEW075 19/11 A3005 960 58 1700 100/07 RMK AO2
94908KDBQ DBQ20100909152010209/09/10 15:20:31  5-MIN KDBQ 092120Z 10009G14KT 10SM FEW075 19/11 A3005 960 58 1700 100/09G14 RMK AO2
94908KDBQ DBQ20100909152510209/09/10 15:25:31  5-MIN KDBQ 092125Z 12005G14KT 10SM FEW075 19/11 A3005 960 58 1700 120/05G14 RMK AO2
94908KDBQ DBQ20100909153009609/09/10 15:30:31  5-MIN KDBQ 092130Z 09007KT 10SM FEW075 19/11 A3005 960 58 1700 090/07 RMK AO2
94908KDBQ DBQ20100909153509609/09/10 15:35:31  5-MIN KDBQ 092135Z 10008KT 10SM FEW075 19/11 A3005 960 58 1700 100/08 RMK AO2
94908KDBQ DBQ20100909154009609/09/10 15:40:31  5-MIN KDBQ 092140Z 09010KT 10SM FEW075 19/11 A3004 960 58 1700 080/10 RMK AO2
94908KDBQ DBQ20100909154509309/09/10 15:45:31  5-MIN KDBQ 092145Z 11008KT 10SM CLR 19/11 A3004 970 58 1700 110/08 RMK AO2
94908KDBQ DBQ20100909155011009/09/10 15:50:31  5-MIN KDBQ 092150Z 12007KT 10SM CLR 19/11 A3004 970 56 1800 120/07 RMK AO2 SLP172 T01940106
94908KDBQ DBQ20100909155509309/09/10 15:55:31  5-MIN KDBQ 092155Z 08007KT 10SM CLR 19/11 A3004 970 60 1700 080/07 RMK AO2
94908KDBQ DBQ20100909160009309/09/10 16:00:31  5-MIN KDBQ 092200Z 11008KT 10SM CLR 19/11 A3004 970 58 1800 110/08 RMK AO2
94908KDBQ DBQ20100909160509309/09/10 16:05:31  5-MIN KDBQ 092205Z 08008KT 10SM CLR 19/11 A3004 970 58 1700 080/08 RMK AO2
94908KDBQ DBQ20100909161009309/09/10 16:10:31  5-MIN KDBQ 092210Z 10010KT 10SM CLR 19/11 A3004 970 60 1700 100/10 RMK AO2
94908KDBQ DBQ20100909161509309/09/10 16:15:31  5-MIN KDBQ 092215Z 10007KT 10SM CLR 19/11 A3003 970 58 1700 100/07 RMK AO2
94908KDBQ DBQ20100909162009309/09/10 16:20:31  5-MIN KDBQ 092220Z 10009KT 10SM CLR 18/11 A3004 970 60 1600 100/09 RMK AO2
94908KDBQ DBQ20100909162509309/09/10 16:25:31  5-MIN KDBQ 092225Z 09009KT 10SM CLR 19/11 A3003 980 58 1700 090/09 RMK AO2
94908KDBQ DBQ20100909163009309/09/10 16:30:31  5-MIN KDBQ 092230Z 08010KT 10SM CLR 19/11 A3003 980 58 1700 080/10 RMK AO2
94908KDBQ DBQ20100909163509309/09/10 16:35:31  5-MIN KDBQ 092235Z 10010KT 10SM CLR 19/11 A3003 980 58 1700 100/10 RMK AO2
94908KDBQ DBQ20100909164009309/09/10 16:40:31  5-MIN KDBQ 092240Z 09007KT 10SM CLR 18/11 A3003 970 60 1600 090/07 RMK AO2
94908KDBQ DBQ20100909164509309/09/10 16:45:31  5-MIN KDBQ 092245Z 09008KT 10SM CLR 18/11 A3003 980 60 1600 090/08 RMK AO2
94908KDBQ DBQ20100909165011009/09/10 16:50:31  5-MIN KDBQ 092250Z 10007KT 10SM CLR 18/11 A3003 980 60 1600 100/07 RMK AO2 SLP169 T01830106
94908KDBQ DBQ20100909165509309/09/10 16:55:31  5-MIN KDBQ 092255Z 10006KT 10SM CLR 18/11 A3003 970 60 1600 100/06 RMK AO2
94908KDBQ DBQ20100909170009309/09/10 17:00:31  5-MIN KDBQ 092300Z 08007KT 10SM CLR 18/11 A3003 980 60 1600 080/07 RMK AO2
94908KDBQ DBQ20100909170509309/09/10 17:05:31  5-MIN KDBQ 092305Z 08008KT 10SM CLR 18/11 A3003 980 60 1600 080/08 RMK AO2
94908KDBQ DBQ20100909171009309/09/10 17:10:31  5-MIN KDBQ 092310Z 08010KT 10SM CLR 18/11 A3003 970 60 1600 080/10 RMK AO2
94908KDBQ DBQ20100909171509309/09/10 17:15:31  5-MIN KDBQ 092315Z 08009KT 10SM CLR 18/11 A3003 970 62 1600 070/09 RMK AO2
94908KDBQ DBQ20100909172009309/09/10 17:20:31  5-MIN KDBQ 092320Z 07008KT 10SM CLR 18/11 A3003 970 62 1600 070/08 RMK AO2
94908KDBQ DBQ20100909172509309/09/10 17:25:31  5-MIN KDBQ 092325Z 07007KT 10SM CLR 18/11 A3003 970 62 1600 070/07 RMK AO2
94908KDBQ DBQ20100909173009309/09/10 17:30:31  5-MIN KDBQ 092330Z 07008KT 10SM CLR 18/11 A3003 970 62 1600 070/08 RMK AO2
94908KDBQ DBQ20100909173509309/09/10 17:35:31  5-MIN KDBQ 092335Z 08008KT 10SM CLR 17/11 A3003 970 64 1500 080/08 RMK AO2
94908KDBQ DBQ20100909174009309/09/10 17:40:31  5-MIN KDBQ 092340Z 08009KT 10SM CLR 17/11 A3003 970 67 1400 080/09 RMK AO2
94908KDBQ DBQ20100909174509309/09/10 17:45:31  5-MIN KDBQ 092345Z 08009KT 10SM CLR 17/11 A3003 970 67 1400 080/09 RMK AO2
94908KDBQ DBQ20100909175012809/09/10 17:50:31  5-MIN KDBQ 092350Z 08008KT 10SM CLR 17/11 A3003 980 67 1400 080/08 RMK AO2 SLP170 T01670106 10194 20167 56022
94908KDBQ DBQ20100915213509909/15/10 21:35:31  5-MIN KDBQ 160335Z AUTO 22009KT 10SM CLR 19/17 A2979 1200 87 2000 220/09 RMK AO2
94908KDBQ DBQ20100915214009909/15/10 21:40:31  5-MIN KDBQ 160340Z AUTO 21010KT 10SM CLR 19/17 A2979 1200 87 2000 210/10 RMK AO2
94908KDBQ DBQ20100915214509909/15/10 21:45:31  5-MIN KDBQ 160345Z AUTO 21009KT 10SM CLR 19/17 A2978 1200 87 2000 210/09 RMK AO2
94908KDBQ DBQ20100915215011609/15/10 21:50:31  5-MIN KDBQ 160350Z AUTO 21010KT 10SM CLR 19/17 A2978 1210 87 2000 210/10 RMK AO2 SLP081 T01940172
94908KDBQ DBQ20100915215509909/15/10 21:55:31  5-MIN KDBQ 160355Z AUTO 21011KT 10SM CLR 19/17 A2978 1210 87 2000 210/11 RMK AO2
94908KDBQ DBQ20100915220011109/15/10 22:00:31  5-MIN KDBQ 160400Z AUTO 21010KT 10SM CLR 19/17 A2978 1210 87 2000 210/10 RMK AO2 LTG DSNT NW
94908KDBQ DBQ20100915220511109/15/10 22:05:31  5-MIN KDBQ 160405Z AUTO 21011KT 10SM CLR 19/17 A2977 1210 87 2100 210/11 RMK AO2 LTG DSNT NW
94908KDBQ DBQ20100915221011809/15/10 22:10:31  5-MIN KDBQ 160410Z AUTO 20012KT 10SM CLR 19/17 A2976 1230 87 2100 200/12 RMK AO2 LTG DSNT NW PRESFR
94908KDBQ DBQ20100915221509909/15/10 22:15:31  5-MIN KDBQ 160415Z AUTO 20012KT 10SM CLR 19/17 A2976 1220 87 2100 200/12 RMK AO2
94908KDBQ DBQ20100915222009909/15/10 22:20:31  5-MIN KDBQ 160420Z AUTO 21011KT 10SM CLR 19/17 A2977 1220 87 2100 210/11 RMK AO2
94908KDBQ DBQ20100915222509909/15/10 22:25:31  5-MIN KDBQ 160425Z AUTO 21011KT 10SM CLR 19/18 A2976 1220 90 2100 200/11 RMK AO2
94908KDBQ DBQ20100915223009909/15/10 22:30:31  5-MIN KDBQ 160430Z AUTO 21010KT 10SM CLR 19/18 A2976 1230 90 2100 210/10 RMK AO2
94908KDBQ DBQ20100915223509909/15/10 22:35:31  5-MIN KDBQ 160435Z AUTO 21010KT 10SM CLR 19/18 A2975 1230 90 2100 210/10 RMK AO2
94908KDBQ DBQ20100915224009909/15/10 22:40:31  5-MIN KDBQ 160440Z AUTO 21011KT 10SM CLR 19/18 A2975 1230 93 2000 210/11 RMK AO2
94908KDBQ DBQ20100915224509909/15/10 22:45:31  5-MIN KDBQ 160445Z AUTO 21010KT 10SM CLR 19/18 A2976 1230 93 2000 210/10 RMK AO2
94908KDBQ DBQ20100915225011609/15/10 22:50:31  5-MIN KDBQ 160450Z AUTO 21010KT 10SM CLR 19/18 A2976 1230 93 2000 210/10 RMK AO2 SLP073 T01890178
94908KDBQ DBQ20100915225509909/15/10 22:55:31  5-MIN KDBQ 160455Z AUTO 21010KT 10SM CLR 19/18 A2976 1230 93 2000 210/10 RMK AO2
94908KDBQ DBQ20100915230009909/15/10 23:00:31  5-MIN KDBQ 160500Z AUTO 21010KT 10SM CLR 19/18 A2976 1230 93 2000 210/10 RMK AO2
94908KDBQ DBQ20100915230509909/15/10 23:05:31  5-MIN KDBQ 160505Z AUTO 21010KT 10SM CLR 19/18 A2976 1230 93 2000 210/10 RMK AO2
94908KDBQ DBQ20100915231010209/15/10 23:10:31  5-MIN KDBQ 160510Z AUTO 21010KT 10SM FEW016 19/18 A2976 1230 93 2000 210/10 RMK AO2
94908KDBQ DBQ20100915231510209/15/10 23:15:31  5-MIN KDBQ 160515Z AUTO 22008KT 10SM FEW016 19/18 A2976 1230 93 2000 220/08 RMK AO2
94908KDBQ DBQ20100915232010209/15/10 23:20:31  5-MIN KDBQ 160520Z AUTO 22008KT 10SM FEW016 19/18 A2976 1230 93 2000 210/08 RMK AO2
94908KDBQ DBQ20100915232510209/15/10 23:25:31  5-MIN KDBQ 160525Z AUTO 22007KT 10SM FEW014 19/17 A2975 1230 90 2000 210/07 RMK AO2
94908KDBQ DBQ20100915233010109/15/10 23:30:31  5-MIN KDBQ 160530Z AUTO 21007KT 9SM FEW014 18/17 A2975 1240 93 2000 210/07 RMK AO2
94908KDBQ DBQ20100915233510109/15/10 23:35:31  5-MIN KDBQ 160535Z AUTO 21007KT 9SM FEW014 18/17 A2975 1230 93 1900 210/07 RMK AO2
94908KDBQ DBQ20100915234010109/15/10 23:40:31  5-MIN KDBQ 160540Z AUTO 22007KT 9SM FEW014 18/17 A2975 1230 93 1900 220/07 RMK AO2
94908KDBQ DBQ20100915234510109/15/10 23:45:31  5-MIN KDBQ 160545Z AUTO 23007KT 9SM FEW012 18/17 A2975 1230 93 1900 230/07 RMK AO2
94908KDBQ DBQ20100915235015209/15/10 23:50:31  5-MIN KDBQ 160550Z AUTO 23008KT 9SM FEW010 18/17 A2976 1230 93 1900 230/08 RMK AO2 SLP071 60000 T01830172 10228 20183 402610117 56011
94908KDBQ DBQ20100915235510109/15/10 23:55:31  5-MIN KDBQ 160555Z AUTO 23008KT 8SM SCT010 19/18 A2975 1230 93 2000 230/08 RMK AO2
94908KDBQ DBQ20100916000010809/16/10 00:00:38  5-MIN KDBQ 160600Z AUTO 23008KT 9SM SCT010 BKN029 19/18 A2975 1230 93 2000 230/08 RMK AO2
94908KDBQ DBQ20100916000511509/16/10 00:05:31  5-MIN KDBQ 160605Z AUTO 23009KT 9SM SCT008 BKN012 BKN029 19/18 A2975 1240 93 2000 230/09 RMK AO2
94908KDBQ DBQ20100916001012009/16/10 00:10:31  5-MIN KDBQ 160610Z AUTO 23010KT 8SM BKN008 BKN029 19/18 A2975 1230 93 2000 230/10 RMK AO2 CIG 007V011
94908KDBQ DBQ20100916001510809/16/10 00:15:31  5-MIN KDBQ 160615Z AUTO 23009KT 8SM BKN008 BKN027 19/18 A2975 1240 93 2000 230/09 RMK AO2
94908KDBQ DBQ20100916002010809/16/10 00:20:31  5-MIN KDBQ 160620Z AUTO 23009KT 8SM BKN008 BKN027 19/18 A2975 1240 93 2000 230/09 RMK AO2
94908KDBQ DBQ20100916002510809/16/10 00:25:31  5-MIN KDBQ 160625Z AUTO 23008KT 8SM BKN008 BKN027 19/18 A2975 1230 93 2000 230/08 RMK AO2
94908KDBQ DBQ20100916003010809/16/10 00:30:31  5-MIN KDBQ 160630Z AUTO 23009KT 7SM BKN008 BKN027 19/18 A2975 1240 93 2000 230/09 RMK AO2
94908KDBQ DBQ20100916003510809/16/10 00:35:31  5-MIN KDBQ 160635Z AUTO 23010KT 7SM BKN006 BKN027 18/18 A2975 1240 96 2000 230/10 RMK AO2
94908KDBQ DBQ20100916004010809/16/10 00:40:31  5-MIN KDBQ 160640Z AUTO 22009KT 7SM BKN006 BKN027 18/18 A2975 1240 96 2000 220/09 RMK AO2
94908KDBQ DBQ20100916004510109/16/10 00:45:31  5-MIN KDBQ 160645Z AUTO 22008KT 7SM BKN006 18/18 A2975 1240 96 2000 220/08 RMK AO2
94908KDBQ DBQ20100916005012809/16/10 00:50:31  5-MIN KDBQ 160650Z AUTO 22007KT 6SM BR BKN006 BKN033 18/18 A2975 1240 96 2000 220/07 RMK AO2 SLP068 T01830178
94908KDBQ DBQ20100916005511109/16/10 00:55:31  5-MIN KDBQ 160655Z AUTO 22008KT 6SM BR BKN006 OVC035 18/18 A2975 1240 96 2000 220/08 RMK AO2
94908KDBQ DBQ20100916010011109/16/10 01:00:31  5-MIN KDBQ 160700Z AUTO 22008KT 6SM BR SCT006 BKN035 18/18 A2975 1240 96 2000 220/08 RMK AO2
94908KDBQ DBQ20100916010511109/16/10 01:05:31  5-MIN KDBQ 160705Z AUTO 22007KT 6SM BR SCT006 BKN035 18/18 A2974 1240 96 2000 220/07 RMK AO2
94908KDBQ DBQ20100916011011109/16/10 01:10:31  5-MIN KDBQ 160710Z AUTO 21007KT 6SM BR FEW006 SCT035 18/18 A2974 1250 96 2000 210/07 RMK AO2
94908KDBQ DBQ20100916011511109/16/10 01:15:31  5-MIN KDBQ 160715Z AUTO 21006KT 5SM BR FEW006 SCT035 18/17 A2974 1250 96 1900 210/06 RMK AO2
94908KDBQ DBQ20100916012010409/16/10 01:20:31  5-MIN KDBQ 160720Z AUTO 22006KT 5SM BR FEW037 18/17 A2974 1250 96 1900 220/06 RMK AO2
94908KDBQ DBQ20100916012510109/16/10 01:25:31  5-MIN KDBQ 160725Z AUTO 22005KT 5SM BR CLR 18/17 A2973 1250 96 1900 220/05 RMK AO2
94908KDBQ DBQ20100916013010209/16/10 01:30:31  5-MIN KDBQ 160730Z AUTO 23005KT 4SM BR CLR 17/17 A2973 1250 100 1800 220/05 RMK AO2
94908KDBQ DBQ20100916013510209/16/10 01:35:31  5-MIN KDBQ 160735Z AUTO 23007KT 4SM BR CLR 17/17 A2973 1250 100 1800 230/07 RMK AO2
94908KDBQ DBQ20100916014010409/16/10 01:40:31  5-MIN KDBQ 160740Z AUTO 23005KT 4SM BR FEW038 18/17 A2973 1250 96 1900 230/05 RMK AO2
94908KDBQ DBQ20100916014510409/16/10 01:45:31  5-MIN KDBQ 160745Z AUTO 22006KT 4SM BR BKN038 18/17 A2973 1260 96 1900 220/06 RMK AO2
94908KDBQ DBQ20100916015012109/16/10 01:50:31  5-MIN KDBQ 160750Z AUTO 22005KT 4SM BR BKN040 18/17 A2973 1260 96 1900 220/05 RMK AO2 SLP059 T01780172
94908KDBQ DBQ20100916015510409/16/10 01:55:31  5-MIN KDBQ 160755Z AUTO 22005KT 5SM BR BKN042 18/17 A2972 1260 96 1900 220/05 RMK AO2
94908KDBQ DBQ20100916020011109/16/10 02:00:31  5-MIN KDBQ 160800Z AUTO 22005KT 5SM BR SCT039 SCT046 18/17 A2972 1260 96 1900 220/05 RMK AO2
94908KDBQ DBQ20100916020510409/16/10 02:05:31  5-MIN KDBQ 160805Z AUTO 21005KT 5SM BR SCT041 18/17 A2972 1270 96 1900 210/05 RMK AO2
94908KDBQ DBQ20100916021011109/16/10 02:10:31  5-MIN KDBQ 160810Z AUTO 22005KT 5SM BR FEW041 SCT090 18/17 A2972 1270 96 1900 220/05 RMK AO2
94908KDBQ DBQ20100916021511109/16/10 02:15:31  5-MIN KDBQ 160815Z AUTO 22006KT 4SM BR FEW043 SCT090 17/17 A2972 1270 96 1900 220/06 RMK AO2
94908KDBQ DBQ20100916022010409/16/10 02:20:31  5-MIN KDBQ 160820Z AUTO 23006KT 4SM BR FEW090 17/17 A2972 1270 96 1900 230/06 RMK AO2
94908KDBQ DBQ20100916022510409/16/10 02:25:31  5-MIN KDBQ 160825Z AUTO 23006KT 3SM BR FEW090 17/17 A2972 1270 96 1900 230/06 RMK AO2
94908KDBQ DBQ20100916023011109/16/10 02:30:31  5-MIN KDBQ 160830Z AUTO 23006KT 3SM BR FEW012 SCT085 17/17 A2972 1270 96 1900 230/06 RMK AO2
94908KDBQ DBQ20100916023511109/16/10 02:35:31  5-MIN KDBQ 160835Z AUTO 23005KT 4SM BR FEW012 BKN080 17/17 A2972 1270 96 1900 230/05 RMK AO2
94908KDBQ DBQ20100916024011109/16/10 02:40:31  5-MIN KDBQ 160840Z AUTO 23006KT 5SM BR FEW012 BKN080 17/17 A2972 1270 96 1900 230/06 RMK AO2
94908KDBQ DBQ20100916024511109/16/10 02:45:31  5-MIN KDBQ 160845Z AUTO 23006KT 5SM BR FEW012 BKN075 17/17 A2972 1270 96 1900 230/06 RMK AO2
94908KDBQ DBQ20100916025013509/16/10 02:50:31  5-MIN KDBQ 160850Z AUTO 23006KT 5SM BR FEW012 BKN075 17/17 A2972 1270 100 1900 230/06 RMK AO2 SLP056 T01720172 56018
94908KDBQ DBQ20100916025511209/16/10 02:55:31  5-MIN KDBQ 160855Z AUTO 25006KT 5SM BR SCT012 OVC075 17/17 A2972 1260 100 1900 250/06 RMK AO2
94908KDBQ DBQ20100916030011109/16/10 03:00:31  5-MIN KDBQ 160900Z AUTO 24007KT 6SM BR BKN012 OVC075 18/17 A2972 1270 96 1900 240/07 RMK AO2
94908KDBQ DBQ20100916030511109/16/10 03:05:31  5-MIN KDBQ 160905Z AUTO 25007KT 6SM BR SCT010 OVC070 18/17 A2972 1260 96 1900 250/07 RMK AO2
94908KDBQ DBQ20100916031011109/16/10 03:10:31  5-MIN KDBQ 160910Z AUTO 25008KT 6SM BR BKN010 OVC070 18/17 A2972 1260 96 1900 250/08 RMK AO2
94908KDBQ DBQ20100916031511109/16/10 03:15:31  5-MIN KDBQ 160915Z AUTO 25008KT 6SM BR BKN010 OVC070 18/17 A2972 1260 93 2000 250/08 RMK AO2
94908KDBQ DBQ20100916032010809/16/10 03:20:31  5-MIN KDBQ 160920Z AUTO 25008KT 7SM BKN014 OVC075 18/17 A2972 1260 93 2000 250/08 RMK AO2
94908KDBQ DBQ20100916032511509/16/10 03:25:31  5-MIN KDBQ 160925Z AUTO 26010KT 7SM BKN012 BKN017 OVC070 18/17 A2972 1260 93 2000 260/10 RMK AO2
94908KDBQ DBQ20100916033012109/16/10 03:30:31  5-MIN KDBQ 160930Z AUTO 25014G17KT 8SM BKN014 BKN022 OVC070 18/17 A2972 1260 93 2000 250/14G17 RMK AO2
94908KDBQ DBQ20100916033511509/16/10 03:35:31  5-MIN KDBQ 160935Z AUTO 26012KT 9SM SCT012 BKN018 OVC022 18/17 A2973 1260 93 2000 260/12 RMK AO2
94908KDBQ DBQ20100916034011409/16/10 03:40:31  5-MIN KDBQ 160940Z AUTO 26010G17KT 9SM BKN015 OVC022 18/17 A2973 1260 93 2000 260/10G17 RMK AO2
94908KDBQ DBQ20100916034510909/16/10 03:45:31  5-MIN KDBQ 160945Z AUTO 26011KT 10SM BKN015 OVC022 18/17 A2973 1260 93 2000 260/11 RMK AO2
94908KDBQ DBQ20100916035013309/16/10 03:50:31  5-MIN KDBQ 160950Z AUTO 26011KT 10SM FEW009 BKN015 OVC021 18/17 A2973 1260 93 2000 260/11 RMK AO2 SLP060 T01830172
94908KDBQ DBQ20100916035510909/16/10 03:55:31  5-MIN KDBQ 160955Z AUTO 26012KT 10SM BKN013 OVC021 18/17 A2973 1260 90 2000 260/12 RMK AO2
94908KDBQ DBQ20100916040011309/16/10 04:00:31  5-MIN KDBQ 161000Z AUTO 27014KT 10SM OVC013 18/17 A2973 1260 90 2000 270/14 RMK AO2 LTG DSNT N
94908KDBQ DBQ20100916040511309/16/10 04:05:31  5-MIN KDBQ 161005Z AUTO 26012KT 10SM OVC013 18/16 A2973 1260 90 1900 260/12 RMK AO2 LTG DSNT N
94908KDBQ DBQ20100916041012609/16/10 04:10:31  5-MIN KDBQ 161010Z AUTO 26013G18KT 10SM BKN013 OVC021 18/16 A2973 1260 90 1900 260/13G18 RMK AO2 LTG DSNT N
94908KDBQ DBQ20100916041513309/16/10 04:15:31  5-MIN KDBQ 161015Z AUTO 27009G17KT 10SM BKN013 OVC021 18/16 A2973 1260 90 1900 260/09G17 RMK AO2 LTG DSNT N AND NW
94908KDBQ DBQ20100916042012709/16/10 04:20:31  5-MIN KDBQ 161020Z AUTO 27009KT 10SM BKN013 OVC021 18/16 A2973 1250 90 1900 270/09 RMK AO2 LTG DSNT N AND NW
94908KDBQ DBQ20100916042512709/16/10 04:25:31  5-MIN KDBQ 161025Z AUTO 27009KT 10SM BKN013 OVC021 18/16 A2973 1250 90 1900 270/09 RMK AO2 LTG DSNT N AND NW
94908KDBQ DBQ20100916043012709/16/10 04:30:31  5-MIN KDBQ 161030Z AUTO 27008KT 10SM SCT013 OVC021 18/16 A2974 1250 90 1900 270/08 RMK AO2 LTG DSNT N AND NW
94908KDBQ DBQ20100916043512709/16/10 04:35:31  5-MIN KDBQ 161035Z AUTO 27011KT 10SM FEW013 OVC021 18/16 A2974 1250 90 1900 270/11 RMK AO2 LTG DSNT N AND NW
94908KDBQ DBQ20100916044012409/16/10 04:40:31  5-MIN KDBQ 161040Z AUTO 28011KT 10SM SCT013 OVC021 18/16 A2974 1240 90 1900 270/11 RMK AO2 LTG DSNT NW-NE
94908KDBQ DBQ20100916044512709/16/10 04:45:31  5-MIN KDBQ 161045Z AUTO 28011KT 10SM BKN011 OVC021 18/16 A2975 1240 90 1900 280/11 RMK AO2 LTG DSNT N AND NE
94908KDBQ DBQ20100916045013909/16/10 04:50:31  5-MIN KDBQ 161050Z 28012KT 10SM BKN011 OVC023 18/16 A2975 1230 90 1900 280/12 RMK AO2 LTG DSNT N AND NE SLP070 T01780161
94908KDBQ DBQ20100916045512909/16/10 04:55:31  5-MIN KDBQ 161055Z 30010KT 10SM BKN011 BKN018 OVC023 18/16 A2975 1230 90 1900 300/10 RMK AO2 LTG DSNT N AND NE
94908KDBQ DBQ20100916050014609/16/10 05:00:31  5-MIN KDBQ 161100Z 33020G24KT 5SM RA BR BKN011 BKN015 OVC027 17/16 A2976 1230 90 1800 330/20G24 RMK AO2 LTG DSNT NE RAB00 P0000
94908KDBQ DBQ20100916050514609/16/10 05:05:31  5-MIN KDBQ 161105Z 34019G24KT 5SM RA BR BKN011 BKN015 OVC027 16/15 A2976 1220 93 1700 340/19G24 RMK AO2 LTG DSNT NE RAB00 P0002
94908KDBQ DBQ20100916051014409/16/10 05:10:31  5-MIN KDBQ 161110Z 34014G24KT 8SM -RA BKN011 BKN015 OVC027 16/15 A2977 1220 93 1700 340/14G24 RMK AO2 LTG DSNT NE RAB00 P0002
94908KDBQ DBQ20100916051515109/16/10 05:15:31  5-MIN KDBQ 161115Z 35013G21KT 10SM -RA BKN011 BKN015 OVC027 16/15 A2977 1220 93 1700 350/13G21 RMK AO2 LTG DSNT NE AND E RAB00 P0003
94908KDBQ DBQ20100916052015109/16/10 05:20:31  5-MIN KDBQ 161120Z 34011G21KT 10SM -RA BKN011 BKN015 OVC027 16/15 A2976 1220 93 1700 340/11G21 RMK AO2 LTG DSNT NE AND E RAB00 P0003
94908KDBQ DBQ20100916052513809/16/10 05:25:31  5-MIN KDBQ 161125Z 34013KT 10SM -RA BKN011 BKN015 OVC027 16/15 A2977 1220 93 1700 330/13 RMK AO2 LTG DSNT E RAB00 P0003
94908KDBQ DBQ20100916053014409/16/10 05:30:31  5-MIN KDBQ 161130Z 34016KT 10SM BKN011 BKN015 OVC027 16/15 A2977 1210 96 1600 340/16 RMK AO2 LTG DSNT NE AND E RAB00E28 P0003
94908KDBQ DBQ20100916053514409/16/10 05:35:31  5-MIN KDBQ 161135Z 33015KT 10SM BKN011 BKN015 OVC027 16/14 A2978 1210 93 1600 330/15 RMK AO2 LTG DSNT NE AND E RAB00E28 P0003
94908KDBQ DBQ20100916054014409/16/10 05:40:31  5-MIN KDBQ 161140Z 33012G20KT 10SM BKN011 BKN015 OVC027 16/14 A2978 1210 93 1600 330/12G20 RMK AO2 LTG DSNT NE RAB00E28 P0003
94908KDBQ DBQ20100916054513209/16/10 05:45:31  5-MIN KDBQ 161145Z 33011G20KT 10SM BKN011 BKN015 OVC027 16/14 A2978 1200 93 1600 330/11G20 RMK AO2 RAB00E28 P0003
94908KDBQ DBQ20100916055011809/16/10 05:50:31  5-MIN KDBQ 161150Z 33010G18KT 10SM OVC007 16/14 A2978 1210 93 1600 330/10G18 RMK AO2 RAB00E28 P0003
94908KDBQ DBQ20100916055510309/16/10 05:55:31  5-MIN KDBQ 161155Z 34014G19KT 10SM OVC007 15/14 A2979 1200 96 1500 340/14G19 RMK AO2
94908KDBQ DBQ20100916060010309/16/10 06:00:31  5-MIN KDBQ 161200Z 34017G22KT 10SM OVC007 15/14 A2980 1190 93 1500 330/17G22 RMK AO2
94908KDBQ DBQ20100916060512209/16/10 06:05:31  5-MIN KDBQ 161205Z 34019G24KT 10SM OVC007 15/14 A2981 1180 93 1500 340/19G24 RMK AO2 CIG 005V009 PRESRR
94908KDBQ DBQ20100916061011009/16/10 06:10:31  5-MIN KDBQ 161210Z 33019G24KT 10SM OVC007 15/13 A2982 1170 90 1500 330/19G24 RMK AO2 PRESRR
94908KDBQ DBQ20100916061511509/16/10 06:15:31  5-MIN KDBQ 161215Z 33012G23KT 10SM OVC007 14/13 A2982 1170 93 1400 330/12G23 RMK AO2 CIG 005V010
94908KDBQ DBQ20100916062011509/16/10 06:20:31  5-MIN KDBQ 161220Z 33018G22KT 10SM OVC007 14/13 A2982 1170 93 1400 330/18G22 RMK AO2 CIG 005V010
94908KDBQ DBQ20100916062511509/16/10 06:25:31  5-MIN KDBQ 161225Z 34013G22KT 10SM OVC007 14/13 A2983 1160 93 1400 340/13G22 RMK AO2 CIG 006V010
94908KDBQ DBQ20100916063010309/16/10 06:30:31  5-MIN KDBQ 161230Z 34014G21KT 10SM OVC007 14/13 A2983 1160 93 1400 340/14G21 RMK AO2
94908KDBQ DBQ20100916063510309/16/10 06:35:31  5-MIN KDBQ 161235Z 33014G21KT 10SM OVC007 14/13 A2984 1160 93 1400 330/14G21 RMK AO2
94908KDBQ DBQ20100916064011509/16/10 06:40:31  5-MIN KDBQ 161240Z 35015G20KT 10SM OVC007 14/13 A2984 1150 93 1400 350/15G20 RMK AO2 CIG 006V010
94908KDBQ DBQ20100916064511509/16/10 06:45:31  5-MIN KDBQ 161245Z 35013G20KT 10SM OVC007 14/13 A2984 1150 93 1400 350/13G20 RMK AO2 CIG 006V012
94908KDBQ DBQ20100916065013209/16/10 06:50:31  5-MIN KDBQ 161250Z 35012G19KT 10SM OVC007 14/13 A2984 1150 93 1400 350/12G19 RMK AO2 CIG 006V011 SLP102 T01440133
94908KDBQ DBQ20100916065510909/16/10 06:55:31  5-MIN KDBQ 161255Z 35014KT 10SM OVC009 14/13 A2984 1150 93 1400 350/14 RMK AO2 CIG 006V011
94908KDBQ DBQ20100916070010909/16/10 07:00:31  5-MIN KDBQ 161300Z 35014KT 10SM OVC009 14/13 A2984 1150 93 1400 350/14 RMK AO2 CIG 006V011
94908KDBQ DBQ20100916070510909/16/10 07:05:31  5-MIN KDBQ 161305Z 35013KT 10SM OVC009 14/13 A2985 1140 93 1400 350/13 RMK AO2 CIG 007V011
94908KDBQ DBQ20100916071011509/16/10 07:10:31  5-MIN KDBQ 161310Z 35016G19KT 10SM OVC009 14/13 A2985 1140 93 1400 340/16G19 RMK AO2 CIG 007V012
94908KDBQ DBQ20100916071511509/16/10 07:15:31  5-MIN KDBQ 161315Z 35014G19KT 10SM OVC009 14/13 A2985 1140 93 1400 350/14G19 RMK AO2 CIG 007V012
94908KDBQ DBQ20100916072011509/16/10 07:20:31  5-MIN KDBQ 161320Z 36018G24KT 10SM OVC009 14/13 A2986 1130 90 1400 350/18G24 RMK AO2 CIG 007V012
94908KDBQ DBQ20100916072512209/16/10 07:25:31  5-MIN KDBQ 161325Z 35018G24KT 10SM BKN009 OVC013 14/13 A2987 1130 90 1400 340/18G24 RMK AO2 CIG 007V011
94908KDBQ DBQ20100916073011509/16/10 07:30:31  5-MIN KDBQ 161330Z 35015G23KT 10SM OVC009 14/13 A2987 1130 90 1400 350/15G23 RMK AO2 CIG 007V014
94908KDBQ DBQ20100916073511509/16/10 07:35:31  5-MIN KDBQ 161335Z 36013G20KT 10SM OVC009 14/13 A2987 1120 90 1400 350/13G20 RMK AO2 CIG 007V014
94908KDBQ DBQ20100916074011509/16/10 07:40:31  5-MIN KDBQ 161340Z 35015G20KT 10SM OVC009 14/13 A2988 1120 90 1400 350/15G20 RMK AO2 CIG 008V014
94908KDBQ DBQ20100916074510309/16/10 07:45:31  5-MIN KDBQ 161345Z 34014G23KT 10SM OVC011 14/12 A2988 1110 90 1300 340/14G23 RMK AO2
94908KDBQ DBQ20100916075012009/16/10 07:50:31  5-MIN KDBQ 161350Z 36014G23KT 10SM OVC011 14/12 A2988 1110 86 1300 350/14G23 RMK AO2 SLP118 T01440122
94908KDBQ DBQ20100916075510309/16/10 07:55:31  5-MIN KDBQ 161355Z 35014G21KT 10SM BKN011 14/12 A2989 1110 90 1300 350/14G21 RMK AO2
94908KDBQ DBQ20100916080010309/16/10 08:00:31  5-MIN KDBQ 161400Z 34012G21KT 10SM BKN011 15/12 A2989 1100 83 1400 340/12G21 RMK AO2
94908KDBQ DBQ20100916080509709/16/10 08:05:31  5-MIN KDBQ 161405Z 33013KT 10SM BKN011 14/13 A2990 1100 90 1300 330/13 RMK AO2
94908KDBQ DBQ20100916081011009/16/10 08:10:31  5-MIN KDBQ 161410Z 34015G22KT 10SM BKN013 BKN019 14/12 A2990 1090 90 1300 340/15G22 RMK AO2
94908KDBQ DBQ20100916081511009/16/10 08:15:31  5-MIN KDBQ 161415Z 34016G22KT 10SM BKN013 BKN019 14/12 A2991 1090 86 1300 340/16G22 RMK AO2
94908KDBQ DBQ20100916082013509/16/10 08:20:31  5-MIN KDBQ 161420Z 33015G26KT 10SM BKN013 BKN017 OVC023 14/12 A2991 1090 86 1300 330/15G26 RMK AO2 PK WND 33026/1416
94908KDBQ DBQ20100916082513509/16/10 08:25:31  5-MIN KDBQ 161425Z 34017G26KT 10SM BKN013 BKN022 OVC027 15/12 A2991 1090 83 1400 340/17G26 RMK AO2 PK WND 33026/1416
94908KDBQ DBQ20100916083013509/16/10 08:30:31  5-MIN KDBQ 161430Z 34017G23KT 10SM SCT013 BKN017 OVC027 15/12 A2991 1090 83 1400 340/17G23 RMK AO2 PK WND 33026/1416
94908KDBQ DBQ20100916083513509/16/10 08:35:31  5-MIN KDBQ 161435Z 34013G20KT 10SM BKN013 BKN017 OVC027 16/13 A2991 1090 83 1400 340/13G20 RMK AO2 PK WND 33026/1416
94908KDBQ DBQ20100916084013509/16/10 08:40:31  5-MIN KDBQ 161440Z 34015G21KT 10SM BKN013 BKN017 OVC027 15/13 A2991 1090 86 1400 340/15G21 RMK AO2 PK WND 33026/1416
94908KDBQ DBQ20100916084513509/16/10 08:45:31  5-MIN KDBQ 161445Z 35018G23KT 10SM BKN013 BKN017 OVC027 14/12 A2992 1080 86 1300 340/18G23 RMK AO2 PK WND 33026/1416
94908KDBQ DBQ20100916085013509/16/10 08:50:31  5-MIN KDBQ 161450Z 35015G23KT 10SM SCT013 BKN019 OVC029 14/12 A2992 1080 86 1300 350/15G23 RMK AO2 PK WND 33026/1416
94908KDBQ DBQ20100916085511109/16/10 08:55:31  5-MIN KDBQ 161455Z 34015KT 10SM SCT013 BKN019 OVC029 14/12 A2993 1070 86 1300 340/15 RMK AO2
94908KDBQ DBQ20100916090011709/16/10 09:00:31  5-MIN KDBQ 161500Z 34013G21KT 10SM BKN013 BKN019 OVC029 14/12 A2993 1070 86 1300 340/13G21 RMK AO2
94908KDBQ DBQ20100916090511709/16/10 09:05:31  5-MIN KDBQ 161505Z 34015G20KT 10SM BKN013 BKN019 OVC027 14/12 A2993 1070 83 1300 340/15G20 RMK AO2
94908KDBQ DBQ20100916091011709/16/10 09:10:31  5-MIN KDBQ 161510Z 35014G21KT 10SM BKN013 BKN018 OVC023 14/12 A2994 1060 83 1300 350/14G21 RMK AO2
94908KDBQ DBQ20100916091511709/16/10 09:15:31  5-MIN KDBQ 161515Z 36014G21KT 10SM BKN013 BKN018 OVC023 14/12 A2994 1060 86 1300 360/14G21 RMK AO2
94908KDBQ DBQ20100916092011709/16/10 09:20:31  5-MIN KDBQ 161520Z 36014G20KT 10SM BKN013 BKN018 OVC023 14/12 A2994 1060 83 1300 360/14G20 RMK AO2
94908KDBQ DBQ20100916092511709/16/10 09:25:31  5-MIN KDBQ 161525Z 36013G20KT 10SM BKN013 BKN018 OVC023 14/12 A2995 1050 86 1200 360/13G20 RMK AO2
94908KDBQ DBQ20100916093013509/16/10 09:30:31  5-MIN KDBQ 161530Z 36020G26KT 10SM BKN013 BKN018 OVC023 14/12 A2995 1050 86 1200 360/20G26 RMK AO2 PK WND 34026/1529
94908KDBQ DBQ20100916093513509/16/10 09:35:31  5-MIN KDBQ 161535Z 36015G26KT 10SM BKN013 BKN018 OVC023 14/12 A2995 1050 86 1200 360/15G26 RMK AO2 PK WND 34026/1529
94908KDBQ DBQ20100916094013509/16/10 09:40:31  5-MIN KDBQ 161540Z 35015G22KT 10SM BKN013 BKN018 OVC023 14/12 A2995 1050 83 1300 340/15G22 RMK AO2 PK WND 34026/1529
94908KDBQ DBQ20100916094513509/16/10 09:45:31  5-MIN KDBQ 161545Z 35013G20KT 10SM BKN013 BKN018 OVC023 15/12 A2995 1050 80 1300 350/13G20 RMK AO2 PK WND 34026/1529
94908KDBQ DBQ20100916095012809/16/10 09:50:31  5-MIN KDBQ 161550Z 35016G20KT 10SM BKN015 OVC030 15/12 A2995 1050 83 1300 350/16G20 RMK AO2 PK WND 34026/1529
94908KDBQ DBQ20100916095510409/16/10 09:55:31  5-MIN KDBQ 161555Z 35017KT 10SM BKN015 OVC030 15/12 A2995 1050 80 1300 350/17 RMK AO2
94908KDBQ DBQ20100916100010409/16/10 10:00:31  5-MIN KDBQ 161600Z 35015KT 10SM BKN015 OVC030 15/12 A2996 1040 80 1300 350/15 RMK AO2
94908KDBQ DBQ20100916100511709/16/10 10:05:31  5-MIN KDBQ 161605Z 01013G19KT 10SM BKN015 BKN021 OVC030 15/12 A2996 1040 80 1300 010/13G19 RMK AO2
94908KDBQ DBQ20100916101011009/16/10 10:10:31  5-MIN KDBQ 161610Z 36014G19KT 10SM BKN015 OVC021 15/11 A2996 1040 77 1300 360/14G19 RMK AO2
94908KDBQ DBQ20100916101510409/16/10 10:15:31  5-MIN KDBQ 161615Z 34014KT 10SM BKN015 OVC021 15/12 A2996 1040 80 1300 340/14 RMK AO2
94908KDBQ DBQ20100916102010409/16/10 10:20:31  5-MIN KDBQ 161620Z 35014KT 10SM BKN015 OVC021 15/12 A2996 1040 80 1300 350/14 RMK AO2
94908KDBQ DBQ20100916102510409/16/10 10:25:31  5-MIN KDBQ 161625Z 01013KT 10SM BKN015 OVC021 15/11 A2996 1040 77 1300 010/13 RMK AO2
94908KDBQ DBQ20100916103010309/16/10 10:30:31  5-MIN KDBQ 161630Z 35013G19KT 10SM OVC018 15/12 A2997 1040 80 1300 350/13G19 RMK AO2
94908KDBQ DBQ20100916103510309/16/10 10:35:31  5-MIN KDBQ 161635Z 35010G19KT 10SM OVC016 15/12 A2997 1030 80 1300 350/10G19 RMK AO2
94908KDBQ DBQ20100916104009709/16/10 10:40:31  5-MIN KDBQ 161640Z 34013KT 10SM OVC016 15/12 A2997 1030 80 1300 340/13 RMK AO2
94908KDBQ DBQ20100916104509709/16/10 10:45:31  5-MIN KDBQ 161645Z 35010KT 10SM OVC016 15/12 A2998 1030 80 1300 350/10 RMK AO2
94908KDBQ DBQ20100916105011409/16/10 10:50:31  5-MIN KDBQ 161650Z 34012KT 10SM OVC016 15/12 A2998 1020 80 1300 340/12 RMK AO2 SLP150 T01500117
94908KDBQ DBQ20100916105509709/16/10 10:55:31  5-MIN KDBQ 161655Z 35011KT 10SM OVC016 16/12 A2998 1020 77 1400 350/11 RMK AO2
94908KDBQ DBQ20100916110009709/16/10 11:00:31  5-MIN KDBQ 161700Z 35010KT 10SM OVC018 16/12 A2999 1020 77 1400 350/10 RMK AO2
94908KDBQ DBQ20100916110509709/16/10 11:05:31  5-MIN KDBQ 161705Z 34012KT 10SM OVC018 16/12 A2999 1010 77 1400 340/12 RMK AO2
94908KDBQ DBQ20100916111009709/16/10 11:10:31  5-MIN KDBQ 161710Z 35011KT 10SM OVC018 16/12 A2999 1020 77 1400 350/11 RMK AO2
94908KDBQ DBQ20100916111510409/16/10 11:15:31  5-MIN KDBQ 161715Z 35011KT 10SM BKN018 OVC025 16/12 A2998 1020 75 1400 340/11 RMK AO2
94908KDBQ DBQ20100916112011109/16/10 11:20:31  5-MIN KDBQ 161720Z 36011KT 10SM BKN021 BKN028 OVC035 17/12 A2998 1020 75 1500 360/11 RMK AO2
94908KDBQ DBQ20100916112511109/16/10 11:25:31  5-MIN KDBQ 161725Z 35010KT 10SM SCT018 BKN023 BKN029 17/12 A2999 1010 75 1500 350/10 RMK AO2
94908KDBQ DBQ20100916113011109/16/10 11:30:31  5-MIN KDBQ 161730Z 36012KT 10SM FEW017 BKN024 OVC031 17/12 A2999 1010 72 1500 360/12 RMK AO2
94908KDBQ DBQ20100916113511109/16/10 11:35:31  5-MIN KDBQ 161735Z 36013KT 10SM FEW017 BKN025 OVC029 16/12 A3000 1010 75 1400 360/13 RMK AO2
94908KDBQ DBQ20100916114011109/16/10 11:40:31  5-MIN KDBQ 161740Z 34011KT 10SM SCT022 BKN027 OVC031 16/12 A3000 1010 75 1400 340/11 RMK AO2
94908KDBQ DBQ20100916114509709/16/10 11:45:31  5-MIN KDBQ 161745Z 34012KT 10SM OVC024 16/12 A2999 1010 75 1400 340/12 RMK AO2
94908KDBQ DBQ20100916115013909/16/10 11:50:31  5-MIN KDBQ 161750Z 34010KT 10SM BKN024 OVC031 17/12 A2999 1020 72 1500 340/10 RMK AO2 SLP151 T01670117 10167 20139 51028
94908KDBQ DBQ20100916115510409/16/10 11:55:31  5-MIN KDBQ 161755Z 35012KT 10SM BKN024 OVC031 17/12 A2999 1020 72 1600 350/12 RMK AO2
94908KDBQ DBQ20100916120011109/16/10 12:00:31  5-MIN KDBQ 161800Z 35010KT 10SM BKN022 BKN027 OVC032 17/12 A2999 1010 72 1500 350/10 RMK AO2
94908KDBQ DBQ20100916120510409/16/10 12:05:31  5-MIN KDBQ 161805Z 36010KT 10SM BKN022 OVC027 17/12 A2999 1010 72 1500 360/10 RMK AO2
94908KDBQ DBQ20100916121011009/16/10 12:10:31  5-MIN KDBQ 161810Z 35011G17KT 10SM BKN022 OVC029 17/12 A3000 1010 75 1500 350/11G17 RMK AO2
94908KDBQ DBQ20100916121510409/16/10 12:15:31  5-MIN KDBQ 161815Z 36011KT 10SM SCT022 OVC029 17/12 A2999 1010 69 1500 350/11 RMK AO2
94908KDBQ DBQ20100916122010409/16/10 12:20:31  5-MIN KDBQ 161820Z 01012KT 10SM SCT022 OVC029 17/12 A2999 1010 72 1500 360/12 RMK AO2
94908KDBQ DBQ20100916122510409/16/10 12:25:31  5-MIN KDBQ 161825Z 01011KT 10SM SCT022 OVC029 17/12 A2999 1010 72 1500 360/11 RMK AO2
94908KDBQ DBQ20100916123010409/16/10 12:30:31  5-MIN KDBQ 161830Z 36010KT 10SM BKN022 OVC029 17/12 A3000 1010 72 1500 360/10 RMK AO2
94908KDBQ DBQ20100916123510409/16/10 12:35:31  5-MIN KDBQ 161835Z 34011KT 10SM BKN022 OVC029 16/12 A3000 1000 75 1400 340/11 RMK AO2
94908KDBQ DBQ20100916124010409/16/10 12:40:31  5-MIN KDBQ 161840Z 32011KT 10SM BKN022 OVC029 17/12 A3000 1010 72 1500 320/11 RMK AO2
94908KDBQ DBQ20100916124510409/16/10 12:45:31  5-MIN KDBQ 161845Z 36009KT 10SM BKN022 OVC029 17/12 A3000 1000 72 1500 350/09 RMK AO2
94908KDBQ DBQ20100916125012109/16/10 12:50:31  5-MIN KDBQ 161850Z 01010KT 10SM BKN024 OVC029 17/12 A3000 1010 72 1500 010/10 RMK AO2 SLP156 T01670117
94908KDBQ DBQ20100916125510409/16/10 12:55:31  5-MIN KDBQ 161855Z 36011KT 10SM BKN024 OVC029 16/11 A3000 1010 72 1400 360/11 RMK AO2
94908KDBQ DBQ20100916130010409/16/10 13:00:31  5-MIN KDBQ 161900Z 01008KT 10SM BKN022 OVC029 17/12 A3000 1010 72 1500 010/08 RMK AO2
94908KDBQ DBQ20100916130510409/16/10 13:05:31  5-MIN KDBQ 161905Z 02009KT 10SM BKN024 OVC031 17/11 A3000 1010 69 1500 020/09 RMK AO2
94908KDBQ DBQ20100916131010409/16/10 13:10:31  5-MIN KDBQ 161910Z 02010KT 10SM BKN024 OVC031 17/11 A3000 1000 69 1500 020/10 RMK AO2
94908KDBQ DBQ20100916131511009/16/10 13:15:31  5-MIN KDBQ 161915Z 01007G14KT 10SM BKN024 OVC031 17/11 A3001 1000 69 1500 010/07G14 RMK AO2
94908KDBQ DBQ20100916132010409/16/10 13:20:31  5-MIN KDBQ 161920Z 02007KT 10SM BKN024 OVC031 17/12 A3001 1000 72 1500 020/07 RMK AO2
94908KDBQ DBQ20100916132510409/16/10 13:25:31  5-MIN KDBQ 161925Z 34010KT 10SM BKN024 OVC031 17/12 A3000 1000 72 1500 340/10 RMK AO2
94908KDBQ DBQ20100916133010409/16/10 13:30:31  5-MIN KDBQ 161930Z 35008KT 10SM BKN024 OVC031 17/12 A3000 1000 72 1500 350/08 RMK AO2
94908KDBQ DBQ20100916133510409/16/10 13:35:31  5-MIN KDBQ 161935Z 35009KT 10SM BKN024 OVC031 17/12 A3000 1000 72 1500 340/09 RMK AO2
94908KDBQ DBQ20100916134010409/16/10 13:40:31  5-MIN KDBQ 161940Z 36007KT 10SM BKN024 OVC031 17/12 A3000 1000 72 1500 360/07 RMK AO2
94908KDBQ DBQ20100916134510409/16/10 13:45:31  5-MIN KDBQ 161945Z 34009KT 10SM BKN024 OVC031 17/12 A3000 1000 69 1500 340/09 RMK AO2
94908KDBQ DBQ20100916135013109/16/10 13:50:31  5-MIN KDBQ 161950Z AUTO 36009KT 10SM BKN024 OVC031 17/12 A3001 1000 69 1500 360/09 RMK AO2 SLP158 T01720117 TSNO
94908KDBQ DBQ20100916135509709/16/10 13:55:31  5-MIN KDBQ 161955Z 35009KT 10SM OVC031 17/12 A3001 1000 69 1500 350/09 RMK AO2
94908KDBQ DBQ20100916140009709/16/10 14:00:31  5-MIN KDBQ 162000Z 36007KT 10SM OVC031 17/12 A3001 1000 69 1500 360/07 RMK AO2
94908KDBQ DBQ20100916140509609/16/10 14:05:31  5-MIN KDBQ 162005Z 32007KT 10SM OVC033 17/12 A3001 990 69 1500 320/07 RMK AO2
94908KDBQ DBQ20100916141010409/16/10 14:10:31  5-MIN KDBQ 162010Z 35010KT 10SM FEW027 OVC033 18/12 A3001 1000 67 1600 350/10 RMK AO2
94908KDBQ DBQ20100916141510309/16/10 14:15:31  5-MIN KDBQ 162015Z 34008KT 10SM FEW027 OVC033 17/12 A3001 990 69 1500 340/08 RMK AO2
94908KDBQ DBQ20100916142010309/16/10 14:20:31  5-MIN KDBQ 162020Z 31004KT 10SM FEW025 OVC033 17/12 A3002 990 69 1500 310/04 RMK AO2
94908KDBQ DBQ20100916142510309/16/10 14:25:31  5-MIN KDBQ 162025Z 33009KT 10SM SCT027 OVC033 18/12 A3002 990 67 1600 330/09 RMK AO2
94908KDBQ DBQ20100916143010309/16/10 14:30:31  5-MIN KDBQ 162030Z 33005KT 10SM SCT027 OVC033 17/11 A3002 990 67 1500 330/05 RMK AO2
94908KDBQ DBQ20100916143509609/16/10 14:35:31  5-MIN KDBQ 162035Z 34008KT 10SM OVC033 17/12 A3002 990 69 1500 340/08 RMK AO2
94908KDBQ DBQ20100916144010309/16/10 14:40:31  5-MIN KDBQ 162040Z 32007KT 10SM SCT028 OVC033 17/11 A3002 990 67 1500 320/07 RMK AO2
94908KDBQ DBQ20100916144510309/16/10 14:45:31  5-MIN KDBQ 162045Z 33006KT 10SM BKN028 OVC033 17/11 A3002 990 69 1500 330/06 RMK AO2
94908KDBQ DBQ20100916145010309/16/10 14:50:31  5-MIN KDBQ 162050Z 34008KT 10SM BKN028 OVC033 17/12 A3002 990 72 1500 340/08 RMK AO2
94908KDBQ DBQ20100916145510309/16/10 14:55:31  5-MIN KDBQ 162055Z 35005KT 10SM BKN028 OVC033 17/12 A3002 990 72 1500 350/05 RMK AO2
94908KDBQ DBQ20100916150009609/16/10 15:00:31  5-MIN KDBQ 162100Z 34007KT 10SM OVC030 17/12 A3002 990 72 1500 340/07 RMK AO2
94908KDBQ DBQ20100916150509609/16/10 15:05:31  5-MIN KDBQ 162105Z 34006KT 10SM OVC030 17/12 A3002 980 72 1400 340/06 RMK AO2
94908KDBQ DBQ20100916151009609/16/10 15:10:31  5-MIN KDBQ 162110Z 34007KT 10SM OVC030 17/12 A3002 980 72 1400 340/07 RMK AO2
94908KDBQ DBQ20100916151509609/16/10 15:15:31  5-MIN KDBQ 162115Z 34006KT 10SM OVC030 17/12 A3003 980 72 1400 340/06 RMK AO2
94908KDBQ DBQ20100916152009609/16/10 15:20:31  5-MIN KDBQ 162120Z 33005KT 10SM OVC030 17/12 A3002 980 72 1400 320/05 RMK AO2
94908KDBQ DBQ20100916152509609/16/10 15:25:31  5-MIN KDBQ 162125Z 34006KT 10SM OVC032 17/12 A3002 980 69 1500 340/06 RMK AO2
94908KDBQ DBQ20100916153009609/16/10 15:30:31  5-MIN KDBQ 162130Z 35007KT 10SM OVC032 17/12 A3002 990 69 1500 350/07 RMK AO2
94908KDBQ DBQ20100916153509609/16/10 15:35:31  5-MIN KDBQ 162135Z 34007KT 10SM OVC034 17/12 A3002 980 69 1500 340/07 RMK AO2
94908KDBQ DBQ20100916154010309/16/10 15:40:31  5-MIN KDBQ 162140Z 33007KT 10SM FEW025 OVC034 17/12 A3002 990 69 1500 330/07 RMK AO2
94908KDBQ DBQ20100916154510309/16/10 15:45:31  5-MIN KDBQ 162145Z 34009KT 10SM FEW025 OVC034 17/12 A3002 990 72 1500 340/09 RMK AO2
94908KDBQ DBQ20100916155012009/16/10 15:50:31  5-MIN KDBQ 162150Z 33008KT 10SM FEW025 OVC034 17/12 A3002 990 72 1400 330/08 RMK AO2 SLP163 T01670117
94908KDBQ DBQ20100916155510309/16/10 15:55:31  5-MIN KDBQ 162155Z 33006KT 10SM FEW025 OVC034 17/12 A3002 980 72 1400 330/06 RMK AO2
94908KDBQ DBQ20100916160010309/16/10 16:00:31  5-MIN KDBQ 162200Z 34006KT 10SM FEW025 OVC034 17/12 A3003 980 72 1400 340/06 RMK AO2
94908KDBQ DBQ20100916160510309/16/10 16:05:31  5-MIN KDBQ 162205Z 33007KT 10SM FEW025 OVC034 17/12 A3003 980 72 1400 320/07 RMK AO2
94908KDBQ DBQ20100916161009609/16/10 16:10:31  5-MIN KDBQ 162210Z 33007KT 10SM OVC034 17/12 A3002 980 72 1400 330/07 RMK AO2
94908KDBQ DBQ20100916161509609/16/10 16:15:31  5-MIN KDBQ 162215Z 33006KT 10SM OVC034 17/12 A3002 980 72 1400 330/06 RMK AO2
94908KDBQ DBQ20100916162009609/16/10 16:20:31  5-MIN KDBQ 162220Z 34006KT 10SM OVC034 17/12 A3002 980 72 1400 340/06 RMK AO2
94908KDBQ DBQ20100916162509609/16/10 16:25:31  5-MIN KDBQ 162225Z 34008KT 10SM OVC034 17/12 A3002 980 75 1400 340/08 RMK AO2
94908KDBQ DBQ20100916163009609/16/10 16:30:31  5-MIN KDBQ 162230Z 34007KT 10SM OVC034 17/12 A3003 980 75 1400 340/07 RMK AO2
94908KDBQ DBQ20100916163509609/16/10 16:35:31  5-MIN KDBQ 162235Z 35006KT 10SM OVC034 17/12 A3003 980 75 1400 340/06 RMK AO2
94908KDBQ DBQ20100916164009609/16/10 16:40:31  5-MIN KDBQ 162240Z 36007KT 10SM OVC034 16/12 A3003 980 77 1400 360/07 RMK AO2
94908KDBQ DBQ20100916164509609/16/10 16:45:31  5-MIN KDBQ 162245Z 35007KT 10SM OVC034 16/12 A3003 980 77 1400 350/07 RMK AO2
94908KDBQ DBQ20100916165011309/16/10 16:50:31  5-MIN KDBQ 162250Z 36006KT 10SM OVC034 16/12 A3003 980 75 1400 360/06 RMK AO2 SLP167 T01610117
94908KDBQ DBQ20100916165509609/16/10 16:55:31  5-MIN KDBQ 162255Z 36005KT 10SM OVC034 16/12 A3003 980 75 1400 360/05 RMK AO2
94908KDBQ DBQ20100916170009609/16/10 17:00:31  5-MIN KDBQ 162300Z 36004KT 10SM OVC034 16/12 A3003 970 77 1400 360/04 RMK AO2
94908KDBQ DBQ20100916170509609/16/10 17:05:31  5-MIN KDBQ 162305Z 36003KT 10SM OVC034 16/12 A3004 970 77 1400 350/03 RMK AO2
94908KDBQ DBQ20100916171009609/16/10 17:10:31  5-MIN KDBQ 162310Z 36004KT 10SM OVC034 16/12 A3004 970 77 1400 360/04 RMK AO2
94908KDBQ DBQ20100916171509609/16/10 17:15:31  5-MIN KDBQ 162315Z 36004KT 10SM OVC034 16/12 A3004 970 77 1400 360/04 RMK AO2
94908KDBQ DBQ20100916172009609/16/10 17:20:31  5-MIN KDBQ 162320Z 36004KT 10SM OVC034 16/12 A3004 970 77 1400 360/04 RMK AO2
94908KDBQ DBQ20100916172509609/16/10 17:25:31  5-MIN KDBQ 162325Z 36005KT 10SM OVC034 16/12 A3004 970 75 1400 360/05 RMK AO2
94908KDBQ DBQ20100916173009609/16/10 17:30:31  5-MIN KDBQ 162330Z 36005KT 10SM OVC034 16/12 A3004 970 75 1400 360/05 RMK AO2
94908KDBQ DBQ20100916173509609/16/10 17:35:31  5-MIN KDBQ 162335Z 01005KT 10SM OVC034 16/12 A3004 970 75 1400 010/05 RMK AO2
94908KDBQ DBQ20100916174009609/16/10 17:40:31  5-MIN KDBQ 162340Z 35005KT 10SM OVC034 16/11 A3004 970 72 1400 350/05 RMK AO2
94908KDBQ DBQ20100916174509609/16/10 17:45:31  5-MIN KDBQ 162345Z 35005KT 10SM OVC034 16/12 A3004 970 77 1300 350/05 RMK AO2
94908KDBQ DBQ20100916175013109/16/10 17:50:31  5-MIN KDBQ 162350Z 36004KT 10SM OVC034 16/12 A3004 970 77 1300 360/04 RMK AO2 SLP173 T01560117 10178 20156 53009
94908KDBQ DBQ20100916175509609/16/10 17:55:31  5-MIN KDBQ 162355Z 35005KT 10SM OVC034 16/11 A3004 970 74 1300 350/05 RMK AO2
94908KDBQ DBQ20100916180009609/16/10 18:00:31  5-MIN KDBQ 170000Z 36003KT 10SM OVC034 16/09 A3004 970 64 1400 360/03 RMK AO2
94908KDBQ DBQ20100916180509609/16/10 18:05:31  5-MIN KDBQ 170005Z 34003KT 10SM OVC034 16/11 A3004 970 72 1300 340/03 RMK AO2
94908KDBQ DBQ20100916181009609/16/10 18:10:31  5-MIN KDBQ 170010Z 00000KT 10SM OVC034 16/12 A3004 960 77 1300 000/00 RMK AO2
94908KDBQ DBQ20100916181509609/16/10 18:15:31  5-MIN KDBQ 170015Z 00000KT 10SM OVC034 16/12 A3004 960 77 1300 000/00 RMK AO2
94908KDBQ DBQ20100916182009609/16/10 18:20:31  5-MIN KDBQ 170020Z 00000KT 10SM OVC034 16/12 A3005 960 77 1300 000/00 RMK AO2
94908KDBQ DBQ20100916182509609/16/10 18:25:31  5-MIN KDBQ 170025Z 00000KT 10SM OVC034 16/12 A3005 960 77 1300 000/00 RMK AO2
94908KDBQ DBQ20100916183009609/16/10 18:30:31  5-MIN KDBQ 170030Z 00000KT 10SM OVC034 16/11 A3005 960 72 1400 000/00 RMK AO2
94908KDBQ DBQ20100916183509609/16/10 18:35:31  5-MIN KDBQ 170035Z 00000KT 10SM OVC034 16/11 A3005 960 69 1400 000/00 RMK AO2
94908KDBQ DBQ20100916184009609/16/10 18:40:31  5-MIN KDBQ 170040Z 00000KT 10SM OVC034 16/11 A3004 960 74 1300 000/00 RMK AO2
94908KDBQ DBQ20100916184509609/16/10 18:45:31  5-MIN KDBQ 170045Z 00000KT 10SM OVC034 16/11 A3004 960 72 1300 000/00 RMK AO2
94908KDBQ DBQ20100916185011309/16/10 18:50:31  5-MIN KDBQ 170050Z 00000KT 10SM OVC034 16/11 A3004 960 69 1400 000/00 RMK AO2 SLP173 T01610106
94908KDBQ DBQ20100916185510109/16/10 18:55:31  5-MIN KDBQ 170055Z AUTO 00000KT 10SM OVC034 16/10 A3004 960 67 1400 000/00 RMK AO2
94908KDBQ DBQ20100916190010109/16/10 19:00:31  5-MIN KDBQ 170100Z AUTO 00000KT 10SM OVC034 16/09 A3004 960 64 1400 000/00 RMK AO2
94908KDBQ DBQ20100916190510109/16/10 19:05:31  5-MIN KDBQ 170105Z AUTO 00000KT 10SM OVC036 16/09 A3004 960 67 1300 000/00 RMK AO2
94908KDBQ DBQ20100916191010109/16/10 19:10:31  5-MIN KDBQ 170110Z AUTO 00000KT 10SM OVC036 15/11 A3005 960 74 1200 000/00 RMK AO2
94908KDBQ DBQ20100916191510109/16/10 19:15:31  5-MIN KDBQ 170115Z AUTO 00000KT 10SM OVC036 15/11 A3005 960 77 1200 000/00 RMK AO2
94908KDBQ DBQ20100916192010109/16/10 19:20:31  5-MIN KDBQ 170120Z AUTO 00000KT 10SM OVC036 15/12 A3005 960 80 1200 000/00 RMK AO2
94908KDBQ DBQ20100916192510109/16/10 19:25:31  5-MIN KDBQ 170125Z AUTO 00000KT 10SM OVC036 15/12 A3005 960 80 1200 000/00 RMK AO2
94908KDBQ DBQ20100916193010109/16/10 19:30:31  5-MIN KDBQ 170130Z AUTO 00000KT 10SM OVC036 14/11 A3005 960 80 1200 000/00 RMK AO2
94908KDBQ DBQ20100916193510109/16/10 19:35:31  5-MIN KDBQ 170135Z AUTO 00000KT 10SM BKN036 14/12 A3005 960 86 1100 000/00 RMK AO2
94908KDBQ DBQ20100916194010109/16/10 19:40:31  5-MIN KDBQ 170140Z AUTO 00000KT 10SM BKN036 14/12 A3005 960 83 1200 000/00 RMK AO2
94908KDBQ DBQ20100916194510109/16/10 19:45:31  5-MIN KDBQ 170145Z AUTO 00000KT 10SM BKN036 14/12 A3005 950 83 1200 000/00 RMK AO2
94908KDBQ DBQ20100916195011809/16/10 19:50:31  5-MIN KDBQ 170150Z AUTO 00000KT 10SM SCT036 14/11 A3005 960 80 1200 000/00 RMK AO2 SLP177 T01440111
94908KDBQ DBQ20100916195510109/16/10 19:55:31  5-MIN KDBQ 170155Z AUTO 00000KT 10SM FEW036 13/11 A3005 960 86 1000 000/00 RMK AO2
94908KDBQ DBQ20100916200010109/16/10 20:00:31  5-MIN KDBQ 170200Z AUTO 00000KT 10SM FEW036 13/11 A3005 960 86 1000 000/00 RMK AO2
94908KDBQ DBQ20100916200509809/16/10 20:05:31  5-MIN KDBQ 170205Z AUTO 00000KT 10SM CLR 13/11 A3005 960 86 1000 000/00 RMK AO2
94908KDBQ DBQ20100916201010109/16/10 20:10:31  5-MIN KDBQ 170210Z AUTO 00000KT 10SM FEW037 13/11 A3005 950 86 1000 000/00 RMK AO2
94908KDBQ DBQ20100916201510009/16/10 20:15:31  5-MIN KDBQ 170215Z AUTO 00000KT 10SM FEW037 12/11 A3006 950 89 900 000/00 RMK AO2
94908KDBQ DBQ20100916202010109/16/10 20:20:31  5-MIN KDBQ 170220Z AUTO 00000KT 10SM FEW037 13/11 A3005 950 89 1000 000/00 RMK AO2
94908KDBQ DBQ20100916202510109/16/10 20:25:31  5-MIN KDBQ 170225Z AUTO 00000KT 10SM FEW037 13/11 A3006 950 86 1000 000/00 RMK AO2
94908KDBQ DBQ20100916203010009/16/10 20:30:31  5-MIN KDBQ 170230Z AUTO 00000KT 10SM FEW037 11/09 A3006 950 89 800 000/00 RMK AO2
94908KDBQ DBQ20100916203510009/16/10 20:35:31  5-MIN KDBQ 170235Z AUTO 00000KT 10SM FEW037 11/09 A3006 950 89 800 000/00 RMK AO2
94908KDBQ DBQ20100916204010009/16/10 20:40:31  5-MIN KDBQ 170240Z AUTO 00000KT 10SM FEW037 13/11 A3006 950 86 900 000/00 RMK AO2
94908KDBQ DBQ20100916204509709/16/10 20:45:31  5-MIN KDBQ 170245Z AUTO 00000KT 10SM CLR 11/09 A3006 950 89 800 000/00 RMK AO2
94908KDBQ DBQ20100916205012009/16/10 20:50:31  5-MIN KDBQ 170250Z AUTO 00000KT 10SM CLR 11/09 A3006 950 89 700 000/00 RMK AO2 SLP182 T01110094 53008
94908KDBQ DBQ20100916205509709/16/10 20:55:31  5-MIN KDBQ 170255Z AUTO 00000KT 10SM CLR 11/09 A3006 950 93 700 000/00 RMK AO2
94908KDBQ DBQ20100916210009709/16/10 21:00:31  5-MIN KDBQ 170300Z AUTO 00000KT 10SM CLR 11/09 A3006 950 93 700 000/00 RMK AO2
94908KDBQ DBQ20100916210509709/16/10 21:05:31  5-MIN KDBQ 170305Z AUTO 00000KT 10SM CLR 11/09 A3006 950 93 700 000/00 RMK AO2
94908KDBQ DBQ20100916211009709/16/10 21:10:31  5-MIN KDBQ 170310Z AUTO 00000KT 10SM CLR 10/09 A3006 950 93 600 000/00 RMK AO2
94908KDBQ DBQ20100916211509709/16/10 21:15:31  5-MIN KDBQ 170315Z AUTO 00000KT 10SM CLR 11/09 A3006 950 89 700 000/00 RMK AO2
94908KDBQ DBQ20100916212009709/16/10 21:20:31  5-MIN KDBQ 170320Z AUTO 00000KT 10SM CLR 10/09 A3006 950 93 600 000/00 RMK AO2
94908KDBQ DBQ20100916212509709/16/10 21:25:31  5-MIN KDBQ 170325Z AUTO 00000KT 10SM CLR 10/09 A3006 950 93 600 000/00 RMK AO2
94908KDBQ DBQ20100916213009709/16/10 21:30:31  5-MIN KDBQ 170330Z AUTO 00000KT 10SM CLR 10/09 A3006 950 93 600 000/00 RMK AO2
94908KDBQ DBQ20100916213509709/16/10 21:35:31  5-MIN KDBQ 170335Z AUTO 00000KT 10SM CLR 10/08 A3006 950 89 600 000/00 RMK AO2
94908KDBQ DBQ20100916214009709/16/10 21:40:31  5-MIN KDBQ 170340Z AUTO 00000KT 10SM CLR 10/09 A3006 950 93 600 000/00 RMK AO2
94908KDBQ DBQ20100916214509709/16/10 21:45:31  5-MIN KDBQ 170345Z AUTO 00000KT 10SM CLR 10/09 A3006 950 93 600 000/00 RMK AO2
94908KDBQ DBQ20100916215011409/16/10 21:50:31  5-MIN KDBQ 170350Z AUTO 00000KT 10SM CLR 11/09 A3006 950 89 700 000/00 RMK AO2 SLP181 T01060089
94908KDBQ DBQ20100916215509709/16/10 21:55:31  5-MIN KDBQ 170355Z AUTO 00000KT 10SM CLR 11/09 A3006 950 89 700 000/00 RMK AO2
94908KDBQ DBQ20100916220009709/16/10 22:00:31  5-MIN KDBQ 170400Z AUTO 00000KT 10SM CLR 10/09 A3006 950 93 600 000/00 RMK AO2
94908KDBQ DBQ20100916220509709/16/10 22:05:31  5-MIN KDBQ 170405Z AUTO 00000KT 10SM CLR 10/08 A3006 950 89 600 000/00 RMK AO2
94908KDBQ DBQ20100916221009709/16/10 22:10:31  5-MIN KDBQ 170410Z AUTO 00000KT 10SM CLR 09/08 A3006 950 93 500 000/00 RMK AO2
94908KDBQ DBQ20100916221509709/16/10 22:15:31  5-MIN KDBQ 170415Z AUTO 00000KT 10SM CLR 09/08 A3006 950 93 500 000/00 RMK AO2
94908KDBQ DBQ20100916222009709/16/10 22:20:31  5-MIN KDBQ 170420Z AUTO 00000KT 10SM CLR 09/08 A3006 950 89 600 000/00 RMK AO2
94908KDBQ DBQ20100916222509709/16/10 22:25:31  5-MIN KDBQ 170425Z AUTO 00000KT 10SM CLR 10/08 A3006 950 86 600 000/00 RMK AO2
94908KDBQ DBQ20100916223009709/16/10 22:30:31  5-MIN KDBQ 170430Z AUTO 00000KT 10SM CLR 10/08 A3006 950 89 600 000/00 RMK AO2
94908KDBQ DBQ20100916223509709/16/10 22:35:31  5-MIN KDBQ 170435Z AUTO 00000KT 10SM CLR 09/08 A3006 950 93 500 000/00 RMK AO2
94908KDBQ DBQ20100916224009709/16/10 22:40:31  5-MIN KDBQ 170440Z AUTO 00000KT 10SM CLR 09/08 A3005 960 93 500 000/00 RMK AO2
94908KDBQ DBQ20100916224509709/16/10 22:45:31  5-MIN KDBQ 170445Z AUTO 00000KT 10SM CLR 09/08 A3005 960 93 600 000/00 RMK AO2
94908KDBQ DBQ20100916225011409/16/10 22:50:31  5-MIN KDBQ 170450Z AUTO 00000KT 10SM CLR 09/08 A3005 960 93 600 000/00 RMK AO2 SLP178 T00940083
94908KDBQ DBQ20100916225509709/16/10 22:55:31  5-MIN KDBQ 170455Z AUTO 00000KT 10SM CLR 09/08 A3005 960 93 500 000/00 RMK AO2
94908KDBQ DBQ20100916230009709/16/10 23:00:31  5-MIN KDBQ 170500Z AUTO 00000KT 10SM CLR 09/08 A3005 960 93 500 000/00 RMK AO2
94908KDBQ DBQ20100916230509709/16/10 23:05:31  5-MIN KDBQ 170505Z AUTO 00000KT 10SM CLR 09/08 A3005 960 89 600 000/00 RMK AO2
94908KDBQ DBQ20100916231009709/16/10 23:10:31  5-MIN KDBQ 170510Z AUTO 00000KT 10SM CLR 09/08 A3005 960 93 500 000/00 RMK AO2
94908KDBQ DBQ20100916231509709/16/10 23:15:31  5-MIN KDBQ 170515Z AUTO 00000KT 10SM CLR 09/08 A3005 960 93 500 000/00 RMK AO2
94908KDBQ DBQ20100916232009709/16/10 23:20:31  5-MIN KDBQ 170520Z AUTO 00000KT 10SM CLR 09/08 A3005 960 93 500 000/00 RMK AO2
94908KDBQ DBQ20100916232509709/16/10 23:25:31  5-MIN KDBQ 170525Z AUTO 00000KT 10SM CLR 09/08 A3005 960 93 500 000/00 RMK AO2
94908KDBQ DBQ20100916233009709/16/10 23:30:31  5-MIN KDBQ 170530Z AUTO 00000KT 10SM CLR 09/08 A3006 950 89 600 000/00 RMK AO2
94908KDBQ DBQ20100916233509709/16/10 23:35:31  5-MIN KDBQ 170535Z AUTO 00000KT 10SM CLR 09/08 A3006 950 93 500 000/00 RMK AO2
94908KDBQ DBQ20100916234009709/16/10 23:40:31  5-MIN KDBQ 170540Z AUTO 00000KT 10SM CLR 09/08 A3005 960 93 500 000/00 RMK AO2
94908KDBQ DBQ20100916234509709/16/10 23:45:31  5-MIN KDBQ 170545Z AUTO 00000KT 10SM CLR 09/08 A3005 960 93 500 000/00 RMK AO2
94908KDBQ DBQ20100916235014209/16/10 23:50:31  5-MIN KDBQ 170550Z AUTO 00000KT 10SM CLR 09/08 A3005 950 93 500 000/00 RMK AO2 SLP180 T00890078 10161 20089 401890089 53006
94908KDBQ DBQ20100916235509709/16/10 23:55:31  5-MIN KDBQ 170555Z AUTO 00000KT 10SM CLR 09/08 A3005 960 89 600 000/00 RMK AO2
94908KDBQ DBQ20100917000009709/17/10 00:00:38  5-MIN KDBQ 170600Z AUTO 00000KT 10SM CLR 09/08 A3005 960 93 500 000/00 RMK AO2
94908KDBQ DBQ20100917000509709/17/10 00:05:31  5-MIN KDBQ 170605Z AUTO 00000KT 10SM CLR 08/07 A3005 960 96 400 000/00 RMK AO2
94908KDBQ DBQ20100917001009709/17/10 00:10:31  5-MIN KDBQ 170610Z AUTO 00000KT 10SM CLR 08/07 A3005 960 93 400 000/00 RMK AO2
94908KDBQ DBQ20100917001509709/17/10 00:15:33  5-MIN KDBQ 170615Z AUTO 00000KT 10SM CLR 08/07 A3005 960 93 400 000/00 RMK AO2
94908KDBQ DBQ20100917002009709/17/10 00:20:31  5-MIN KDBQ 170620Z AUTO 00000KT 10SM CLR 08/07 A3006 950 93 400 000/00 RMK AO2
94908KDBQ DBQ20100917002509709/17/10 00:25:31  5-MIN KDBQ 170625Z AUTO 00000KT 10SM CLR 08/07 A3006 950 93 400 000/00 RMK AO2
94908KDBQ DBQ20100917003009709/17/10 00:30:31  5-MIN KDBQ 170630Z AUTO 00000KT 10SM CLR 08/08 A3006 950 96 400 000/00 RMK AO2
94908KDBQ DBQ20100917003509709/17/10 00:35:31  5-MIN KDBQ 170635Z AUTO 00000KT 10SM CLR 08/07 A3006 950 93 400 000/00 RMK AO2
94908KDBQ DBQ20100917004009709/17/10 00:40:31  5-MIN KDBQ 170640Z AUTO 00000KT 10SM CLR 08/07 A3006 950 93 400 000/00 RMK AO2
94908KDBQ DBQ20100917004509709/17/10 00:45:31  5-MIN KDBQ 170645Z AUTO 00000KT 10SM CLR 09/07 A3006 950 89 500 000/00 RMK AO2
94908KDBQ DBQ20100917005011409/17/10 00:50:31  5-MIN KDBQ 170650Z AUTO 00000KT 10SM CLR 08/07 A3006 950 93 400 000/00 RMK AO2 SLP182 T00830072
94908KDBQ DBQ20100917005509709/17/10 00:55:31  5-MIN KDBQ 170655Z AUTO 00000KT 10SM CLR 08/07 A3006 950 93 400 000/00 RMK AO2
94908KDBQ DBQ20100917010009709/17/10 01:00:31  5-MIN KDBQ 170700Z AUTO 00000KT 10SM CLR 08/07 A3007 940 93 400 000/00 RMK AO2
94908KDBQ DBQ20100917010509709/17/10 01:05:31  5-MIN KDBQ 170705Z AUTO 17003KT 10SM CLR 08/07 A3006 950 93 400 170/03 RMK AO2
94908KDBQ DBQ20100917011009709/17/10 01:10:31  5-MIN KDBQ 170710Z AUTO 00000KT 10SM CLR 08/07 A3007 940 93 300 000/00 RMK AO2
94908KDBQ DBQ20100917011509709/17/10 01:15:31  5-MIN KDBQ 170715Z AUTO 00000KT 10SM CLR 08/07 A3007 940 93 300 000/00 RMK AO2
94908KDBQ DBQ20100917012009709/17/10 01:20:31  5-MIN KDBQ 170720Z AUTO 00000KT 10SM CLR 08/07 A3007 940 96 300 000/00 RMK AO2
94908KDBQ DBQ20100917012509709/17/10 01:25:31  5-MIN KDBQ 170725Z AUTO 00000KT 10SM CLR 08/07 A3007 940 93 400 000/00 RMK AO2
94908KDBQ DBQ20100917013009709/17/10 01:30:31  5-MIN KDBQ 170730Z AUTO 00000KT 10SM CLR 08/07 A3007 940 93 400 000/00 RMK AO2
94908KDBQ DBQ20100917013509709/17/10 01:35:31  5-MIN KDBQ 170735Z AUTO 00000KT 10SM CLR 08/07 A3007 940 93 400 000/00 RMK AO2
94908KDBQ DBQ20100917014009709/17/10 01:40:31  5-MIN KDBQ 170740Z AUTO 00000KT 10SM CLR 08/07 A3007 940 93 400 000/00 RMK AO2
94908KDBQ DBQ20100917014509709/17/10 01:45:31  5-MIN KDBQ 170745Z AUTO 00000KT 10SM CLR 08/07 A3007 940 89 400 000/00 RMK AO2
94908KDBQ DBQ20100917015011409/17/10 01:50:31  5-MIN KDBQ 170750Z AUTO 00000KT 10SM CLR 08/07 A3007 940 89 400 000/00 RMK AO2 SLP184 T00830067
94908KDBQ DBQ20100917015509709/17/10 01:55:31  5-MIN KDBQ 170755Z AUTO 00000KT 10SM CLR 08/07 A3007 940 93 300 000/00 RMK AO2
94908KDBQ DBQ20100917020009709/17/10 02:00:31  5-MIN KDBQ 170800Z AUTO 23003KT 10SM CLR 08/07 A3007 940 93 300 230/03 RMK AO2
94908KDBQ DBQ20100917020509709/17/10 02:05:31  5-MIN KDBQ 170805Z AUTO 23003KT 10SM CLR 08/07 A3007 940 93 300 230/03 RMK AO2
94908KDBQ DBQ20100917021009709/17/10 02:10:31  5-MIN KDBQ 170810Z AUTO 23003KT 10SM CLR 08/07 A3007 940 93 300 230/03 RMK AO2
94908KDBQ DBQ20100917021509709/17/10 02:15:31  5-MIN KDBQ 170815Z AUTO 00000KT 10SM CLR 08/07 A3007 940 93 300 000/00 RMK AO2
94908KDBQ DBQ20100917022009709/17/10 02:20:31  5-MIN KDBQ 170820Z AUTO 21003KT 10SM CLR 08/07 A3007 940 93 300 210/03 RMK AO2
94908KDBQ DBQ20100917022509709/17/10 02:25:31  5-MIN KDBQ 170825Z AUTO 21003KT 10SM CLR 08/07 A3007 940 93 300 210/03 RMK AO2
94908KDBQ DBQ20100917023009709/17/10 02:30:31  5-MIN KDBQ 170830Z AUTO 00000KT 10SM CLR 08/07 A3007 940 93 300 000/00 RMK AO2
94908KDBQ DBQ20100917023509709/17/10 02:35:31  5-MIN KDBQ 170835Z AUTO 00000KT 10SM CLR 08/07 A3007 940 89 400 000/00 RMK AO2
94908KDBQ DBQ20100917024009609/17/10 02:40:31  5-MIN KDBQ 170840Z AUTO 19003KT 9SM CLR 08/07 A3007 940 93 300 190/03 RMK AO2
94908KDBQ DBQ20100917024509609/17/10 02:45:31  5-MIN KDBQ 170845Z AUTO 00000KT 9SM CLR 08/07 A3007 940 93 400 000/00 RMK AO2
94908KDBQ DBQ20100917025011909/17/10 02:50:31  5-MIN KDBQ 170850Z AUTO 00000KT 9SM CLR 08/07 A3007 940 93 300 000/00 RMK AO2 SLP184 T00780067 55002
94908KDBQ DBQ20100917025509609/17/10 02:55:31  5-MIN KDBQ 170855Z AUTO 00000KT 9SM CLR 08/07 A3007 940 93 300 000/00 RMK AO2
94908KDBQ DBQ20100917030009609/17/10 03:00:31  5-MIN KDBQ 170900Z AUTO 20003KT 9SM CLR 08/07 A3007 940 93 300 200/03 RMK AO2
94908KDBQ DBQ20100917030509609/17/10 03:05:31  5-MIN KDBQ 170905Z AUTO 00000KT 9SM CLR 08/07 A3007 940 93 300 000/00 RMK AO2
94908KDBQ DBQ20100917031009709/17/10 03:10:31  5-MIN KDBQ 170910Z AUTO 21003KT 10SM CLR 08/07 A3007 940 93 300 210/03 RMK AO2
94908KDBQ DBQ20100917031509709/17/10 03:15:31  5-MIN KDBQ 170915Z AUTO 21003KT 10SM CLR 08/07 A3007 940 93 300 210/03 RMK AO2
94908KDBQ DBQ20100917032009709/17/10 03:20:31  5-MIN KDBQ 170920Z AUTO 21003KT 10SM CLR 08/07 A3007 940 93 300 210/03 RMK AO2
94908KDBQ DBQ20100917032509709/17/10 03:25:31  5-MIN KDBQ 170925Z AUTO 20003KT 10SM CLR 08/07 A3007 940 93 300 200/03 RMK AO2
94908KDBQ DBQ20100917033009709/17/10 03:30:31  5-MIN KDBQ 170930Z AUTO 19003KT 10SM CLR 08/07 A3007 940 93 300 180/03 RMK AO2
94908KDBQ DBQ20100917033509609/17/10 03:35:31  5-MIN KDBQ 170935Z AUTO 18003KT 8SM CLR 08/07 A3007 940 96 300 180/03 RMK AO2
94908KDBQ DBQ20100917034009609/17/10 03:40:31  5-MIN KDBQ 170940Z AUTO 19003KT 7SM CLR 08/07 A3007 940 96 300 190/03 RMK AO2
94908KDBQ DBQ20100917034509609/17/10 03:45:31  5-MIN KDBQ 170945Z AUTO 18003KT 7SM CLR 08/07 A3007 940 93 400 180/03 RMK AO2
94908KDBQ DBQ20100917035011309/17/10 03:50:31  5-MIN KDBQ 170950Z AUTO 21003KT 7SM CLR 08/07 A3008 940 96 300 210/03 RMK AO2 SLP187 T00780072
94908KDBQ DBQ20100917035509609/17/10 03:55:31  5-MIN KDBQ 170955Z AUTO 00000KT 7SM CLR 08/07 A3008 930 93 300 000/00 RMK AO2
94908KDBQ DBQ20100917040009609/17/10 04:00:31  5-MIN KDBQ 171000Z AUTO 21003KT 7SM CLR 08/07 A3008 930 96 300 210/03 RMK AO2
94908KDBQ DBQ20100917040509609/17/10 04:05:31  5-MIN KDBQ 171005Z AUTO 00000KT 8SM CLR 08/07 A3008 930 93 400 000/00 RMK AO2
94908KDBQ DBQ20100917041009609/17/10 04:10:31  5-MIN KDBQ 171010Z AUTO 00000KT 8SM CLR 08/07 A3008 930 93 400 000/00 RMK AO2
94908KDBQ DBQ20100917041509609/17/10 04:15:31  5-MIN KDBQ 171015Z AUTO 00000KT 8SM CLR 08/07 A3008 930 93 400 000/00 RMK AO2
94908KDBQ DBQ20100917042009609/17/10 04:20:31  5-MIN KDBQ 171020Z AUTO 00000KT 8SM CLR 08/07 A3008 930 93 400 000/00 RMK AO2
94908KDBQ DBQ20100917042509609/17/10 04:25:31  5-MIN KDBQ 171025Z AUTO 00000KT 7SM CLR 08/08 A3008 930 96 400 000/00 RMK AO2
94908KDBQ DBQ20100917043009609/17/10 04:30:31  5-MIN KDBQ 171030Z AUTO 00000KT 7SM CLR 08/08 A3008 930 96 400 000/00 RMK AO2
94908KDBQ DBQ20100917043509609/17/10 04:35:31  5-MIN KDBQ 171035Z AUTO 00000KT 8SM CLR 08/07 A3008 930 93 400 000/00 RMK AO2
94908KDBQ DBQ20100917044009609/17/10 04:40:31  5-MIN KDBQ 171040Z AUTO 00000KT 7SM CLR 08/07 A3008 930 93 400 000/00 RMK AO2
94908KDBQ DBQ20100917044509909/17/10 04:45:31  5-MIN KDBQ 171045Z AUTO 16004KT 6SM BR CLR 08/08 A3007 940 96 400 160/04 RMK AO2
94908KDBQ DBQ20100917045010809/17/10 04:50:31  5-MIN KDBQ 171050Z 17005KT 7SM CLR 09/08 A3008 940 93 500 170/05 RMK AO2 SLP187 T00890078
94908KDBQ DBQ20100917045509109/17/10 04:55:31  5-MIN KDBQ 171055Z 18004KT 7SM CLR 08/07 A3008 930 96 300 180/04 RMK AO2
94908KDBQ DBQ20100917050009109/17/10 05:00:31  5-MIN KDBQ 171100Z 21003KT 7SM CLR 08/07 A3008 930 96 300 200/03 RMK AO2
94908KDBQ DBQ20100917050509109/17/10 05:05:31  5-MIN KDBQ 171105Z 21004KT 8SM CLR 08/07 A3008 930 93 400 210/04 RMK AO2
94908KDBQ DBQ20100917051009109/17/10 05:10:31  5-MIN KDBQ 171110Z 20004KT 7SM CLR 08/07 A3008 930 93 400 200/04 RMK AO2
94908KDBQ DBQ20100917051509109/17/10 05:15:31  5-MIN KDBQ 171115Z 21004KT 7SM CLR 08/07 A3008 930 96 300 210/04 RMK AO2
94908KDBQ DBQ20100917052009109/17/10 05:20:31  5-MIN KDBQ 171120Z 22004KT 7SM CLR 07/07 A3009 930 96 300 220/04 RMK AO2
94908KDBQ DBQ20100917052509109/17/10 05:25:31  5-MIN KDBQ 171125Z 22003KT 7SM CLR 07/06 A3009 930 96 200 220/03 RMK AO2
94908KDBQ DBQ20100917053009109/17/10 05:30:31  5-MIN KDBQ 171130Z 23004KT 7SM CLR 07/06 A3009 920 93 200 230/04 RMK AO2
94908KDBQ DBQ20100917053509109/17/10 05:35:31  5-MIN KDBQ 171135Z 20004KT 7SM CLR 07/07 A3008 930 96 300 200/04 RMK AO2
94908KDBQ DBQ20100917054009409/17/10 05:40:31  5-MIN KDBQ 171140Z 20004KT 6SM BR CLR 07/07 A3008 930 96 300 200/04 RMK AO2
94908KDBQ DBQ20100917054509409/17/10 05:45:31  5-MIN KDBQ 171145Z 20005KT 6SM BR CLR 07/07 A3008 930 96 300 190/05 RMK AO2
94908KDBQ DBQ20100917055012909/17/10 05:50:31  5-MIN KDBQ 171150Z 18005KT 6SM BR CLR 08/07 A3007 940 93 300 180/05 RMK AO2 SLP186 T00780067 10094 20067 51004
94908KDBQ DBQ20100917055509409/17/10 05:55:31  5-MIN KDBQ 171155Z 19005KT 6SM BR CLR 08/07 A3008 930 96 300 190/05 RMK AO2
94908KDBQ DBQ20100917060009409/17/10 06:00:31  5-MIN KDBQ 171200Z 19005KT 6SM BR CLR 08/07 A3008 930 93 400 190/05 RMK AO2
94908KDBQ DBQ20100917060509109/17/10 06:05:31  5-MIN KDBQ 171205Z 19005KT 7SM CLR 09/08 A3008 930 93 500 190/05 RMK AO2
94908KDBQ DBQ20100917061009109/17/10 06:10:31  5-MIN KDBQ 171210Z 19005KT 7SM CLR 09/08 A3008 930 93 500 190/05 RMK AO2
94908KDBQ DBQ20100917061509109/17/10 06:15:31  5-MIN KDBQ 171215Z 19005KT 7SM CLR 09/09 A3008 930 96 500 190/05 RMK AO2
94908KDBQ DBQ20100917062009109/17/10 06:20:31  5-MIN KDBQ 171220Z 20005KT 7SM CLR 09/09 A3008 930 96 500 190/05 RMK AO2
94908KDBQ DBQ20100917062509109/17/10 06:25:31  5-MIN KDBQ 171225Z 19005KT 7SM CLR 11/09 A3008 930 93 700 190/05 RMK AO2
94908KDBQ DBQ20100917063009109/17/10 06:30:31  5-MIN KDBQ 171230Z 20005KT 7SM CLR 11/09 A3008 930 93 700 200/05 RMK AO2
94908KDBQ DBQ20100917063509109/17/10 06:35:31  5-MIN KDBQ 171235Z 20005KT 7SM CLR 10/09 A3009 930 93 600 200/05 RMK AO2
94908KDBQ DBQ20100917064009109/17/10 06:40:31  5-MIN KDBQ 171240Z 19005KT 7SM CLR 10/09 A3009 920 96 600 190/05 RMK AO2
94908KDBQ DBQ20100917064509109/17/10 06:45:31  5-MIN KDBQ 171245Z 19005KT 7SM CLR 11/10 A3009 920 93 700 190/05 RMK AO2
94908KDBQ DBQ20100917065010809/17/10 06:50:31  5-MIN KDBQ 171250Z 20005KT 7SM CLR 11/10 A3009 920 93 700 190/05 RMK AO2 SLP191 T01110100
94908KDBQ DBQ20100917065509109/17/10 06:55:31  5-MIN KDBQ 171255Z 20005KT 7SM CLR 11/10 A3009 920 93 700 200/05 RMK AO2
94908KDBQ DBQ20100917070009109/17/10 07:00:31  5-MIN KDBQ 171300Z 19004KT 7SM CLR 11/11 A3009 920 96 700 190/04 RMK AO2
94908KDBQ DBQ20100917070509109/17/10 07:05:31  5-MIN KDBQ 171305Z 18004KT 7SM CLR 11/11 A3009 920 96 700 180/04 RMK AO2
94908KDBQ DBQ20100917071009109/17/10 07:10:31  5-MIN KDBQ 171310Z 18005KT 7SM CLR 12/11 A3009 920 93 800 180/05 RMK AO2
94908KDBQ DBQ20100917071509109/17/10 07:15:31  5-MIN KDBQ 171315Z 17004KT 8SM CLR 12/11 A3009 920 93 800 170/04 RMK AO2
94908KDBQ DBQ20100917072009109/17/10 07:20:31  5-MIN KDBQ 171320Z 19003KT 8SM CLR 12/11 A3009 920 93 800 190/03 RMK AO2
94908KDBQ DBQ20100917072509109/17/10 07:25:31  5-MIN KDBQ 171325Z 17003KT 9SM CLR 12/11 A3010 920 93 800 170/03 RMK AO2
94908KDBQ DBQ20100917073009109/17/10 07:30:31  5-MIN KDBQ 171330Z 17003KT 9SM CLR 12/11 A3010 910 93 800 170/03 RMK AO2
94908KDBQ DBQ20100917073509109/17/10 07:35:31  5-MIN KDBQ 171335Z 17004KT 9SM CLR 13/11 A3010 910 89 900 170/04 RMK AO2
94908KDBQ DBQ20100917074009209/17/10 07:40:31  5-MIN KDBQ 171340Z 19004KT 10SM CLR 13/12 A3011 910 93 900 190/04 RMK AO2
94908KDBQ DBQ20100917074509309/17/10 07:45:31  5-MIN KDBQ 171345Z 19006KT 10SM CLR 13/12 A3011 910 89 1000 190/06 RMK AO2
94908KDBQ DBQ20100917075011009/17/10 07:50:31  5-MIN KDBQ 171350Z 19007KT 10SM CLR 14/12 A3010 910 86 1000 190/07 RMK AO2 SLP194 T01390117
94908KDBQ DBQ20100917075509309/17/10 07:55:31  5-MIN KDBQ 171355Z 19006KT 10SM CLR 14/12 A3010 910 86 1000 190/06 RMK AO2
94908KDBQ DBQ20100917080009309/17/10 08:00:31  5-MIN KDBQ 171400Z 18006KT 10SM CLR 14/12 A3010 910 86 1100 180/06 RMK AO2
94908KDBQ DBQ20100917080509309/17/10 08:05:31  5-MIN KDBQ 171405Z 19006KT 10SM CLR 14/12 A3010 910 83 1100 190/06 RMK AO2
94908KDBQ DBQ20100917081009309/17/10 08:10:31  5-MIN KDBQ 171410Z 20007KT 10SM CLR 14/12 A3010 920 86 1100 200/07 RMK AO2
94908KDBQ DBQ20100917081509309/17/10 08:15:31  5-MIN KDBQ 171415Z 19008KT 10SM CLR 15/12 A3010 910 83 1200 190/08 RMK AO2
94908KDBQ DBQ20100917082009309/17/10 08:20:31  5-MIN KDBQ 171420Z 19007KT 10SM CLR 15/12 A3010 910 83 1200 190/07 RMK AO2
94908KDBQ DBQ20100917082509309/17/10 08:25:31  5-MIN KDBQ 171425Z 21007KT 10SM CLR 15/12 A3011 910 80 1200 210/07 RMK AO2
94908KDBQ DBQ20100917083009309/17/10 08:30:31  5-MIN KDBQ 171430Z 20008KT 10SM CLR 16/12 A3011 900 80 1200 200/08 RMK AO2
94908KDBQ DBQ20100917083509309/17/10 08:35:31  5-MIN KDBQ 171435Z 20008KT 10SM CLR 16/12 A3011 900 80 1200 190/08 RMK AO2
94908KDBQ DBQ20100917084009309/17/10 08:40:31  5-MIN KDBQ 171440Z 20010KT 10SM CLR 16/12 A3011 900 77 1200 200/10 RMK AO2
94908KDBQ DBQ20100917084509309/17/10 08:45:31  5-MIN KDBQ 171445Z 19010KT 10SM CLR 16/12 A3011 900 77 1300 190/10 RMK AO2
94908KDBQ DBQ20100917085011909/17/10 08:50:31  5-MIN KDBQ 171450Z 20010KT 10SM FEW110 16/12 A3011 900 77 1300 200/10 RMK AO2 SLP197 T01610122 51003
94908KDBQ DBQ20100917085509609/17/10 08:55:31  5-MIN KDBQ 171455Z 20010KT 10SM SCT110 17/12 A3011 900 75 1400 200/10 RMK AO2
94908KDBQ DBQ20100917090009609/17/10 09:00:31  5-MIN KDBQ 171500Z 20012KT 10SM SCT110 16/12 A3011 900 75 1300 200/12 RMK AO2
94908KDBQ DBQ20100917090509609/17/10 09:05:31  5-MIN KDBQ 171505Z 20012KT 10SM SCT110 17/12 A3011 900 75 1300 190/12 RMK AO2
94908KDBQ DBQ20100917091009609/17/10 09:10:31  5-MIN KDBQ 171510Z 20010KT 10SM FEW110 17/12 A3011 900 75 1300 200/10 RMK AO2
94908KDBQ DBQ20100917091509609/17/10 09:15:31  5-MIN KDBQ 171515Z 21009KT 10SM SCT110 17/12 A3012 900 75 1300 210/09 RMK AO2
94908KDBQ DBQ20100917092009609/17/10 09:20:31  5-MIN KDBQ 171520Z 22009KT 10SM FEW110 17/12 A3012 890 75 1300 220/09 RMK AO2
94908KDBQ DBQ20100917092509609/17/10 09:25:31  5-MIN KDBQ 171525Z 22010KT 10SM FEW110 17/13 A3012 900 75 1400 220/10 RMK AO2
94908KDBQ DBQ20100917093009309/17/10 09:30:31  5-MIN KDBQ 171530Z 23009KT 10SM CLR 17/12 A3012 900 72 1400 220/09 RMK AO2
94908KDBQ DBQ20100917093509309/17/10 09:35:31  5-MIN KDBQ 171535Z 22010KT 10SM CLR 17/13 A3012 900 75 1400 210/10 RMK AO2
94908KDBQ DBQ20100917094009309/17/10 09:40:31  5-MIN KDBQ 171540Z 19009KT 10SM CLR 18/13 A3011 900 72 1500 190/09 RMK AO2
94908KDBQ DBQ20100917094509309/17/10 09:45:31  5-MIN KDBQ 171545Z 19010KT 10SM CLR 18/12 A3011 900 69 1500 190/10 RMK AO2
94908KDBQ DBQ20100917095011009/17/10 09:50:31  5-MIN KDBQ 171550Z 21009KT 10SM CLR 18/13 A3011 900 72 1500 210/09 RMK AO2 SLP197 T01780128
94908KDBQ DBQ20100917095509309/17/10 09:55:31  5-MIN KDBQ 171555Z 21010KT 10SM CLR 18/13 A3011 900 72 1500 210/10 RMK AO2
94908KDBQ DBQ20100917100009309/17/10 10:00:31  5-MIN KDBQ 171600Z 21011KT 10SM CLR 18/13 A3011 900 72 1500 210/11 RMK AO2
94908KDBQ DBQ20100917100509309/17/10 10:05:31  5-MIN KDBQ 171605Z 21009KT 10SM CLR 18/13 A3011 900 70 1500 210/09 RMK AO2
94908KDBQ DBQ20100917101009309/17/10 10:10:31  5-MIN KDBQ 171610Z 22009KT 10SM CLR 18/13 A3011 910 72 1500 220/09 RMK AO2
94908KDBQ DBQ20100917101509609/17/10 10:15:31  5-MIN KDBQ 171615Z 20008KT 10SM FEW022 18/13 A3011 900 70 1500 190/08 RMK AO2
94908KDBQ DBQ20100917102009609/17/10 10:20:31  5-MIN KDBQ 171620Z 20010KT 10SM FEW022 19/13 A3011 900 67 1600 200/10 RMK AO2
94908KDBQ DBQ20100917102509609/17/10 10:25:31  5-MIN KDBQ 171625Z 20008KT 10SM FEW022 18/13 A3011 910 70 1500 200/08 RMK AO2
94908KDBQ DBQ20100917103009609/17/10 10:30:31  5-MIN KDBQ 171630Z 21009KT 10SM FEW022 19/13 A3010 910 67 1600 210/09 RMK AO2
94908KDBQ DBQ20100917103509609/17/10 10:35:31  5-MIN KDBQ 171635Z 22009KT 10SM FEW022 19/13 A3010 910 70 1600 220/09 RMK AO2
94908KDBQ DBQ20100917104009609/17/10 10:40:31  5-MIN KDBQ 171640Z 20010KT 10SM FEW022 19/13 A3010 910 70 1600 200/10 RMK AO2
94908KDBQ DBQ20100917104509609/17/10 10:45:31  5-MIN KDBQ 171645Z 21008KT 10SM FEW024 19/13 A3010 910 70 1600 210/08 RMK AO2
94908KDBQ DBQ20100917105011309/17/10 10:50:31  5-MIN KDBQ 171650Z 19009KT 10SM SCT024 19/13 A3010 910 65 1700 190/09 RMK AO2 SLP193 T01940128
94908KDBQ DBQ20100917105509609/17/10 10:55:31  5-MIN KDBQ 171655Z 19010KT 10SM BKN024 19/13 A3010 910 65 1700 190/10 RMK AO2
94908KDBQ DBQ20100917110009609/17/10 11:00:31  5-MIN KDBQ 171700Z 19010KT 10SM SCT024 20/13 A3009 920 65 1800 190/10 RMK AO2
94908KDBQ DBQ20100917110509609/17/10 11:05:31  5-MIN KDBQ 171705Z 20010KT 10SM SCT024 21/13 A3009 920 63 1800 190/10 RMK AO2
94908KDBQ DBQ20100917111009609/17/10 11:10:31  5-MIN KDBQ 171710Z 21011KT 10SM SCT024 20/13 A3009 920 65 1800 210/11 RMK AO2
94908KDBQ DBQ20100917111509609/17/10 11:15:31  5-MIN KDBQ 171715Z 21011KT 10SM SCT024 20/13 A3009 920 65 1800 210/11 RMK AO2
94908KDBQ DBQ20100917112010209/17/10 11:20:31  5-MIN KDBQ 171720Z 20013G17KT 10SM SCT024 20/13 A3009 930 65 1800 200/13G17 RMK AO2
94908KDBQ DBQ20100917112509609/17/10 11:25:31  5-MIN KDBQ 171725Z 19011KT 10SM SCT024 20/13 A3008 930 65 1800 190/11 RMK AO2
94908KDBQ DBQ20100917113009609/17/10 11:30:31  5-MIN KDBQ 171730Z 19012KT 10SM SCT024 21/13 A3008 930 63 1800 190/12 RMK AO2
94908KDBQ DBQ20100917113509609/17/10 11:35:31  5-MIN KDBQ 171735Z 19010KT 10SM SCT024 21/13 A3008 940 63 1800 190/10 RMK AO2
94908KDBQ DBQ20100917114010209/17/10 11:40:31  5-MIN KDBQ 171740Z 19010G17KT 10SM SCT024 21/13 A3008 940 61 1900 190/10G17 RMK AO2
94908KDBQ DBQ20100917114510209/17/10 11:45:31  5-MIN KDBQ 171745Z 20013G17KT 10SM SCT024 21/13 A3007 940 63 1800 200/13G17 RMK AO2
94908KDBQ DBQ20100917115013709/17/10 11:50:31  5-MIN KDBQ 171750Z 19010G17KT 10SM SCT024 21/13 A3007 940 63 1800 190/10G17 RMK AO2 SLP183 T02060133 10211 20078 51010
94908KDBQ DBQ20100917115509909/17/10 11:55:31  5-MIN KDBQ 171755Z 21012G18KT 10SM CLR 21/13 A3007 940 61 1900 210/12G18 RMK AO2
94908KDBQ DBQ20100917120009909/17/10 12:00:31  5-MIN KDBQ 171800Z 19009G18KT 10SM CLR 21/13 A3006 950 61 1900 180/09G18 RMK AO2
94908KDBQ DBQ20100917120509909/17/10 12:05:31  5-MIN KDBQ 171805Z 21011G17KT 10SM CLR 22/13 A3006 950 58 2000 210/11G17 RMK AO2
94908KDBQ DBQ20100917121009909/17/10 12:10:31  5-MIN KDBQ 171810Z 20012G19KT 10SM CLR 22/13 A3006 950 58 2000 200/12G19 RMK AO2
94908KDBQ DBQ20100917121509909/17/10 12:15:31  5-MIN KDBQ 171815Z 20010G19KT 10SM CLR 22/13 A3006 950 56 2000 200/10G19 RMK AO2
94908KDBQ DBQ20100917122009909/17/10 12:20:31  5-MIN KDBQ 171820Z 20013G17KT 10SM CLR 22/13 A3006 950 58 2000 200/13G17 RMK AO2
94908KDBQ DBQ20100917122509909/17/10 12:25:31  5-MIN KDBQ 171825Z 20014G17KT 10SM CLR 22/13 A3005 960 56 2100 200/14G17 RMK AO2
94908KDBQ DBQ20100917123009309/17/10 12:30:31  5-MIN KDBQ 171830Z 19009KT 10SM CLR 22/13 A3005 960 56 2000 190/09 RMK AO2
94908KDBQ DBQ20100917123509909/17/10 12:35:31  5-MIN KDBQ 171835Z 17011G16KT 10SM CLR 22/13 A3005 960 56 2000 170/11G16 RMK AO2
94908KDBQ DBQ20100917124009309/17/10 12:40:31  5-MIN KDBQ 171840Z 21010KT 10SM CLR 22/13 A3004 970 56 2100 210/10 RMK AO2
94908KDBQ DBQ20100917124509909/17/10 12:45:31  5-MIN KDBQ 171845Z 19012G16KT 10SM CLR 22/13 A3004 970 56 2100 190/12G16 RMK AO2
94908KDBQ DBQ20100917125011609/17/10 12:50:31  5-MIN KDBQ 171850Z 19013G19KT 10SM CLR 22/13 A3004 970 54 2100 190/13G19 RMK AO2 SLP170 T02220128
94908KDBQ DBQ20100917125509909/17/10 12:55:31  5-MIN KDBQ 171855Z 22013G19KT 10SM CLR 23/13 A3003 970 53 2100 220/13G19 RMK AO2
94908KDBQ DBQ20100917130009909/17/10 13:00:31  5-MIN KDBQ 171900Z 20015G19KT 10SM CLR 23/13 A3003 980 53 2100 190/15G19 RMK AO2
94908KDBQ DBQ20100917130509909/17/10 13:05:31  5-MIN KDBQ 171905Z 19011G19KT 10SM CLR 23/13 A3003 980 53 2100 190/11G19 RMK AO2
94908KDBQ DBQ20100917131009909/17/10 13:10:31  5-MIN KDBQ 171910Z 21010G18KT 10SM CLR 23/13 A3003 980 55 2100 210/10G18 RMK AO2
94908KDBQ DBQ20100917131509909/17/10 13:15:31  5-MIN KDBQ 171915Z 17011G18KT 10SM CLR 23/13 A3002 980 53 2200 170/11G18 RMK AO2
94908KDBQ DBQ20100917132009909/17/10 13:20:31  5-MIN KDBQ 171920Z 20014G18KT 10SM CLR 23/13 A3002 980 53 2200 200/14G18 RMK AO2
94908KDBQ DBQ20100917132509909/17/10 13:25:31  5-MIN KDBQ 171925Z 19012G18KT 10SM CLR 23/13 A3002 990 53 2200 190/12G18 RMK AO2
94908KDBQ DBQ20100917133009909/17/10 13:30:31  5-MIN KDBQ 171930Z 19011G18KT 10SM CLR 23/13 A3002 990 51 2200 190/11G18 RMK AO2
94908KDBQ DBQ20100917133509909/17/10 13:35:31  5-MIN KDBQ 171935Z 21011G18KT 10SM CLR 23/13 A3001 990 51 2200 210/11G18 RMK AO2
94908KDBQ DBQ20100917134010009/17/10 13:40:31  5-MIN KDBQ 171940Z 18015G18KT 10SM CLR 23/13 A3001 1000 51 2200 180/15G18 RMK AO2
94908KDBQ DBQ20100917134510009/17/10 13:45:31  5-MIN KDBQ 171945Z 18013G18KT 10SM CLR 24/13 A3000 1000 49 2300 180/13G18 RMK AO2
94908KDBQ DBQ20100917135012709/17/10 13:50:31  5-MIN KDBQ 171950Z AUTO 18013G19KT 10SM CLR 23/12 A3000 1000 49 2200 180/13G19 RMK AO2 SLP158 T02330122 TSNO
94908KDBQ DBQ20100917135510009/17/10 13:55:31  5-MIN KDBQ 171955Z 20014G19KT 10SM CLR 23/13 A3000 1010 51 2200 190/14G19 RMK AO2
94908KDBQ DBQ20100917140010009/17/10 14:00:31  5-MIN KDBQ 172000Z 19016G20KT 10SM CLR 24/12 A2999 1010 47 2300 190/16G20 RMK AO2
94908KDBQ DBQ20100917140510009/17/10 14:05:31  5-MIN KDBQ 172005Z 19016G22KT 10SM CLR 24/12 A2999 1010 47 2300 190/16G22 RMK AO2
94908KDBQ DBQ20100917141010009/17/10 14:10:31  5-MIN KDBQ 172010Z 20014G22KT 10SM CLR 24/12 A2999 1010 47 2300 200/14G22 RMK AO2
94908KDBQ DBQ20100917141510009/17/10 14:15:31  5-MIN KDBQ 172015Z 19011G19KT 10SM CLR 24/13 A2999 1010 49 2300 190/11G19 RMK AO2
94908KDBQ DBQ20100917142010009/17/10 14:20:31  5-MIN KDBQ 172020Z 19013G19KT 10SM CLR 24/13 A2999 1010 47 2400 190/13G19 RMK AO2
94908KDBQ DBQ20100917142510009/17/10 14:25:31  5-MIN KDBQ 172025Z 21015G20KT 10SM CLR 24/13 A2999 1020 49 2300 210/15G20 RMK AO2
94908KDBQ DBQ20100917143009409/17/10 14:30:31  5-MIN KDBQ 172030Z 20013KT 10SM CLR 24/13 A2999 1010 51 2300 200/13 RMK AO2
94908KDBQ DBQ20100917143509409/17/10 14:35:31  5-MIN KDBQ 172035Z 20017KT 10SM CLR 24/13 A2999 1010 49 2300 200/17 RMK AO2
94908KDBQ DBQ20100917144009409/17/10 14:40:31  5-MIN KDBQ 172040Z 20017KT 10SM CLR 24/13 A2999 1010 49 2300 200/17 RMK AO2
94908KDBQ DBQ20100917144509409/17/10 14:45:31  5-MIN KDBQ 172045Z 19016KT 10SM CLR 24/13 A2999 1010 49 2300 190/16 RMK AO2
94908KDBQ DBQ20100917145011709/17/10 14:50:31  5-MIN KDBQ 172050Z 19015KT 10SM CLR 24/13 A2999 1010 49 2300 190/15 RMK AO2 SLP155 T02390128 58013
94908KDBQ DBQ20100917145510009/17/10 14:55:31  5-MIN KDBQ 172055Z 20016G21KT 10SM CLR 24/13 A2999 1010 49 2300 200/16G21 RMK AO2
94908KDBQ DBQ20100917150010009/17/10 15:00:31  5-MIN KDBQ 172100Z 21013G21KT 10SM CLR 24/13 A2999 1010 49 2300 200/13G21 RMK AO2
94908KDBQ DBQ20100917150510009/17/10 15:05:31  5-MIN KDBQ 172105Z 21013G21KT 10SM CLR 24/13 A2999 1010 49 2300 210/13G21 RMK AO2
94908KDBQ DBQ20100917151010009/17/10 15:10:31  5-MIN KDBQ 172110Z 20013G20KT 10SM CLR 24/13 A2999 1010 47 2400 200/13G20 RMK AO2
94908KDBQ DBQ20100917151510009/17/10 15:15:31  5-MIN KDBQ 172115Z 20015G20KT 10SM CLR 24/13 A2999 1010 47 2400 190/15G20 RMK AO2
94908KDBQ DBQ20100917152010009/17/10 15:20:31  5-MIN KDBQ 172120Z 20013G19KT 10SM CLR 24/13 A2999 1010 47 2400 200/13G19 RMK AO2
94908KDBQ DBQ20100917152509409/17/10 15:25:31  5-MIN KDBQ 172125Z 20015KT 10SM CLR 24/13 A2999 1010 49 2300 200/15 RMK AO2
94908KDBQ DBQ20100917153009409/17/10 15:30:31  5-MIN KDBQ 172130Z 19013KT 10SM CLR 24/13 A2999 1020 49 2300 190/13 RMK AO2
94908KDBQ DBQ20100917153509409/17/10 15:35:31  5-MIN KDBQ 172135Z 21010KT 10SM CLR 24/13 A2999 1020 49 2400 210/10 RMK AO2
94908KDBQ DBQ20100917154009409/17/10 15:40:31  5-MIN KDBQ 172140Z 20011KT 10SM CLR 24/13 A2999 1020 49 2400 200/11 RMK AO2
94908KDBQ DBQ20100917154509409/17/10 15:45:31  5-MIN KDBQ 172145Z 20013KT 10SM CLR 24/13 A2999 1010 47 2400 200/13 RMK AO2
94908KDBQ DBQ20100917155011109/17/10 15:50:31  5-MIN KDBQ 172150Z 21010KT 10SM CLR 24/13 A2999 1010 51 2300 200/10 RMK AO2 SLP155 T02390133
94908KDBQ DBQ20100917155509409/17/10 15:55:31  5-MIN KDBQ 172155Z 22012KT 10SM CLR 24/13 A2999 1010 51 2300 220/12 RMK AO2
94908KDBQ DBQ20100917160009409/17/10 16:00:31  5-MIN KDBQ 172200Z 21010KT 10SM CLR 24/13 A2999 1010 51 2300 210/10 RMK AO2
94908KDBQ DBQ20100917160509409/17/10 16:05:31  5-MIN KDBQ 172205Z 20012KT 10SM CLR 24/13 A2999 1010 51 2300 200/12 RMK AO2
94908KDBQ DBQ20100917161009409/17/10 16:10:31  5-MIN KDBQ 172210Z 20012KT 10SM CLR 24/13 A2999 1010 51 2300 200/12 RMK AO2
94908KDBQ DBQ20100917163509409/17/10 16:35:31  5-MIN KDBQ 172235Z 20011KT 10SM CLR 24/13 A3000 1010 51 2300 200/11 RMK AO2
94908KDBQ DBQ20100917164009409/17/10 16:40:31  5-MIN KDBQ 172240Z 20011KT 10SM CLR 23/13 A3000 1010 53 2200 200/11 RMK AO2
94908KDBQ DBQ20100917164509409/17/10 16:45:31  5-MIN KDBQ 172245Z 21011KT 10SM CLR 23/13 A3000 1010 53 2200 210/11 RMK AO2
94908KDBQ DBQ20100917165011109/17/10 16:50:31  5-MIN KDBQ 172250Z 20010KT 10SM CLR 23/13 A3000 1000 53 2200 200/10 RMK AO2 SLP158 T02330133
94908KDBQ DBQ20100917165509409/17/10 16:55:31  5-MIN KDBQ 172255Z 21010KT 10SM CLR 23/13 A3000 1000 53 2200 210/10 RMK AO2
94908KDBQ DBQ20100917170009409/17/10 17:00:31  5-MIN KDBQ 172300Z 21009KT 10SM CLR 23/14 A3000 1000 55 2200 210/09 RMK AO2
94908KDBQ DBQ20100917170509409/17/10 17:05:31  5-MIN KDBQ 172305Z 21009KT 10SM CLR 23/14 A3000 1000 57 2200 210/09 RMK AO2
94908KDBQ DBQ20100917171009409/17/10 17:10:31  5-MIN KDBQ 172310Z 21008KT 10SM CLR 23/14 A3000 1000 57 2200 210/08 RMK AO2
94908KDBQ DBQ20100917171509409/17/10 17:15:31  5-MIN KDBQ 172315Z 21008KT 10SM CLR 23/14 A3000 1000 57 2200 210/08 RMK AO2
94908KDBQ DBQ20100917172009409/17/10 17:20:31  5-MIN KDBQ 172320Z 21007KT 10SM CLR 22/14 A3000 1000 59 2100 210/07 RMK AO2
94908KDBQ DBQ20100917172509409/17/10 17:25:31  5-MIN KDBQ 172325Z 21007KT 10SM CLR 22/14 A3000 1000 61 2000 210/07 RMK AO2
94908KDBQ DBQ20100917173009409/17/10 17:30:31  5-MIN KDBQ 172330Z 21007KT 10SM CLR 22/14 A3000 1000 61 2000 210/07 RMK AO2
94908KDBQ DBQ20100917173509409/17/10 17:35:31  5-MIN KDBQ 172335Z 21007KT 10SM CLR 21/14 A3000 1000 63 2000 200/07 RMK AO2
94908KDBQ DBQ20100917174009709/17/10 17:40:31  5-MIN KDBQ 172340Z 20006KT 10SM FEW060 21/14 A3001 1000 63 2000 200/06 RMK AO2
94908KDBQ DBQ20100917174509709/17/10 17:45:31  5-MIN KDBQ 172345Z 20006KT 10SM SCT060 21/14 A3001 1000 65 2000 200/06 RMK AO2
94908KDBQ DBQ20100917175013209/17/10 17:50:31  5-MIN KDBQ 172350Z 20005KT 10SM BKN060 21/14 A3001 1000 65 2000 200/05 RMK AO2 SLP162 T02110144 10244 20211 56024
94908KDBQ DBQ20100917175509709/17/10 17:55:31  5-MIN KDBQ 172355Z 19005KT 10SM BKN060 21/14 A3001 1000 65 2000 190/05 RMK AO2
94908KDBQ DBQ20100917180009709/17/10 18:00:31  5-MIN KDBQ 180000Z 19005KT 10SM BKN060 21/14 A3001 1000 65 2000 190/05 RMK AO2
94908KDBQ DBQ20100917180509709/17/10 18:05:31  5-MIN KDBQ 180005Z 19005KT 10SM OVC060 21/14 A3001 1000 63 2000 190/05 RMK AO2
94908KDBQ DBQ20100917181009709/17/10 18:10:31  5-MIN KDBQ 180010Z 19006KT 10SM OVC060 21/14 A3001 1000 65 2000 190/06 RMK AO2
94908KDBQ DBQ20100917181509709/17/10 18:15:31  5-MIN KDBQ 180015Z 19005KT 10SM OVC060 21/14 A3001 1000 65 2000 190/05 RMK AO2
94908KDBQ DBQ20100917182009609/17/10 18:20:31  5-MIN KDBQ 180020Z 19005KT 10SM OVC060 21/14 A3001 990 67 1900 190/05 RMK AO2
94908KDBQ DBQ20100917182509609/17/10 18:25:31  5-MIN KDBQ 180025Z 19004KT 10SM OVC060 21/14 A3001 990 67 1900 190/04 RMK AO2
94908KDBQ DBQ20100917183009709/17/10 18:30:31  5-MIN KDBQ 180030Z 19005KT 10SM OVC060 21/14 A3001 1000 67 1900 190/05 RMK AO2
94908KDBQ DBQ20100917183509709/17/10 18:35:31  5-MIN KDBQ 180035Z 19006KT 10SM OVC065 21/14 A3001 1000 65 1900 180/06 RMK AO2
94908KDBQ DBQ20100917184009609/17/10 18:40:31  5-MIN KDBQ 180040Z 19006KT 10SM OVC065 21/14 A3001 990 65 1900 190/06 RMK AO2
94908KDBQ DBQ20100917184509609/17/10 18:45:31  5-MIN KDBQ 180045Z 20005KT 10SM OVC065 21/14 A3002 990 67 1900 200/05 RMK AO2
94908KDBQ DBQ20100917185011309/17/10 18:50:31  5-MIN KDBQ 180050Z 20005KT 10SM OVC065 21/14 A3002 990 67 1900 200/05 RMK AO2 SLP165 T02060144
94908KDBQ DBQ20100917185509609/17/10 18:55:31  5-MIN KDBQ 180055Z 20005KT 10SM OVC070 21/14 A3002 980 67 1900 200/05 RMK AO2
94908KDBQ DBQ20100917190010109/17/10 19:00:31  5-MIN KDBQ 180100Z AUTO 20006KT 10SM OVC070 20/14 A3002 980 70 1800 200/06 RMK AO2
94908KDBQ DBQ20100917190510109/17/10 19:05:31  5-MIN KDBQ 180105Z AUTO 20006KT 10SM BKN070 20/14 A3002 980 70 1800 190/06 RMK AO2
94908KDBQ DBQ20100917191010809/17/10 19:10:31  5-MIN KDBQ 180110Z AUTO 19006KT 10SM FEW050 BKN070 20/14 A3002 980 70 1800 190/06 RMK AO2
94908KDBQ DBQ20100917191510809/17/10 19:15:31  5-MIN KDBQ 180115Z AUTO 19006KT 10SM FEW050 OVC070 20/14 A3003 980 70 1800 190/06 RMK AO2
94908KDBQ DBQ20100917192010809/17/10 19:20:31  5-MIN KDBQ 180120Z AUTO 19006KT 10SM FEW050 BKN075 20/14 A3003 980 70 1800 190/06 RMK AO2
94908KDBQ DBQ20100917192510809/17/10 19:25:31  5-MIN KDBQ 180125Z AUTO 19006KT 10SM FEW050 BKN075 20/14 A3003 980 70 1800 190/06 RMK AO2
94908KDBQ DBQ20100917193010809/17/10 19:30:31  5-MIN KDBQ 180130Z AUTO 19006KT 10SM FEW055 BKN075 20/14 A3003 980 70 1800 190/06 RMK AO2
94908KDBQ DBQ20100917193510809/17/10 19:35:31  5-MIN KDBQ 180135Z AUTO 20005KT 10SM FEW055 BKN075 19/14 A3003 980 72 1800 200/05 RMK AO2
94908KDBQ DBQ20100917194010809/17/10 19:40:31  5-MIN KDBQ 180140Z AUTO 19006KT 10SM FEW055 BKN075 19/14 A3003 980 72 1800 190/06 RMK AO2
94908KDBQ DBQ20100917194510809/17/10 19:45:31  5-MIN KDBQ 180145Z AUTO 19006KT 10SM FEW060 BKN080 19/14 A3003 970 72 1800 190/06 RMK AO2
94908KDBQ DBQ20100917195012509/17/10 19:50:31  5-MIN KDBQ 180150Z AUTO 19007KT 10SM FEW060 BKN080 19/14 A3003 970 72 1800 190/07 RMK AO2 SLP168 T01940144
94908KDBQ DBQ20100917195511509/17/10 19:55:31  5-MIN KDBQ 180155Z AUTO 19007KT 10SM FEW050 SCT070 OVC085 19/14 A3004 970 72 1800 190/07 RMK AO2
94908KDBQ DBQ20100917200011509/17/10 20:00:31  5-MIN KDBQ 180200Z AUTO 20007KT 10SM FEW050 SCT070 OVC080 20/14 A3004 970 70 1800 200/07 RMK AO2
94908KDBQ DBQ20100917200511509/17/10 20:05:31  5-MIN KDBQ 180205Z AUTO 19007KT 10SM FEW050 BKN070 OVC085 20/14 A3004 970 70 1800 190/07 RMK AO2
94908KDBQ DBQ20100917201011509/17/10 20:10:31  5-MIN KDBQ 180210Z AUTO 20007KT 10SM SCT055 BKN065 OVC085 20/14 A3004 970 70 1800 200/07 RMK AO2
94908KDBQ DBQ20100917201511509/17/10 20:15:31  5-MIN KDBQ 180215Z AUTO 20006KT 10SM BKN050 BKN065 OVC085 20/14 A3004 970 70 1800 200/06 RMK AO2
94908KDBQ DBQ20100917202011509/17/10 20:20:31  5-MIN KDBQ 180220Z AUTO 20007KT 10SM BKN050 BKN065 OVC085 20/14 A3004 970 70 1800 200/07 RMK AO2
94908KDBQ DBQ20100917202511509/17/10 20:25:31  5-MIN KDBQ 180225Z AUTO 20007KT 10SM BKN050 BKN065 OVC080 19/14 A3004 970 72 1800 200/07 RMK AO2
94908KDBQ DBQ20100917203011509/17/10 20:30:31  5-MIN KDBQ 180230Z AUTO 21006KT 10SM BKN050 BKN065 OVC080 19/14 A3004 970 72 1800 210/06 RMK AO2
94908KDBQ DBQ20100917203511509/17/10 20:35:31  5-MIN KDBQ 180235Z AUTO 22005KT 10SM BKN050 BKN065 OVC080 19/14 A3004 970 72 1800 220/05 RMK AO2
94908KDBQ DBQ20100917204011509/17/10 20:40:31  5-MIN KDBQ 180240Z AUTO 21005KT 10SM BKN055 BKN065 OVC080 19/14 A3004 970 72 1800 200/05 RMK AO2
94908KDBQ DBQ20100917204511509/17/10 20:45:31  5-MIN KDBQ 180245Z AUTO 20006KT 10SM BKN050 BKN065 OVC080 19/14 A3004 970 72 1700 200/06 RMK AO2
94908KDBQ DBQ20100917205013809/17/10 20:50:31  5-MIN KDBQ 180250Z AUTO 20006KT 10SM SCT050 BKN065 OVC080 19/14 A3004 970 72 1800 190/06 RMK AO2 SLP170 T01940144 53005
94908KDBQ DBQ20100917205511509/17/10 20:55:31  5-MIN KDBQ 180255Z AUTO 19007KT 10SM FEW055 BKN070 BKN080 19/14 A3004 970 75 1700 190/07 RMK AO2
94908KDBQ DBQ20100917210011509/17/10 21:00:31  5-MIN KDBQ 180300Z AUTO 20006KT 10SM FEW055 BKN070 BKN080 19/14 A3004 970 75 1700 190/06 RMK AO2
94908KDBQ DBQ20100917210511509/17/10 21:05:31  5-MIN KDBQ 180305Z AUTO 19007KT 10SM FEW055 SCT070 OVC080 19/14 A3004 970 75 1700 190/07 RMK AO2
94908KDBQ DBQ20100917211011509/17/10 21:10:31  5-MIN KDBQ 180310Z AUTO 19007KT 10SM FEW050 SCT070 OVC085 19/14 A3004 970 72 1800 190/07 RMK AO2
94908KDBQ DBQ20100917211510809/17/10 21:15:31  5-MIN KDBQ 180315Z AUTO 19009KT 10SM SCT070 OVC085 19/14 A3004 970 72 1800 190/09 RMK AO2
94908KDBQ DBQ20100917212010109/17/10 21:20:31  5-MIN KDBQ 180320Z AUTO 20009KT 10SM OVC080 19/14 A3004 970 72 1800 200/09 RMK AO2
94908KDBQ DBQ20100917212510809/17/10 21:25:31  5-MIN KDBQ 180325Z AUTO 20009KT 10SM FEW070 OVC085 20/14 A3004 970 70 1800 200/09 RMK AO2
94908KDBQ DBQ20100917213010109/17/10 21:30:31  5-MIN KDBQ 180330Z AUTO 20009KT 10SM OVC085 19/14 A3004 970 72 1700 200/09 RMK AO2
94908KDBQ DBQ20100917213510809/17/10 21:35:31  5-MIN KDBQ 180335Z AUTO 20007KT 10SM BKN080 OVC090 19/14 A3004 970 72 1700 200/07 RMK AO2
94908KDBQ DBQ20100917214010809/17/10 21:40:31  5-MIN KDBQ 180340Z AUTO 20007KT 10SM BKN075 OVC090 19/14 A3004 970 72 1700 200/07 RMK AO2
94908KDBQ DBQ20100917214510809/17/10 21:45:31  5-MIN KDBQ 180345Z AUTO 20007KT 10SM SCT080 BKN090 19/14 A3004 970 72 1800 200/07 RMK AO2
94908KDBQ DBQ20100917215012509/17/10 21:50:31  5-MIN KDBQ 180350Z AUTO 20007KT 10SM SCT075 BKN090 19/14 A3004 970 75 1700 200/07 RMK AO2 SLP169 T01890144
94908KDBQ DBQ20100917215510809/17/10 21:55:31  5-MIN KDBQ 180355Z AUTO 20007KT 10SM SCT075 BKN090 19/14 A3004 970 75 1700 200/07 RMK AO2
94908KDBQ DBQ20100917220010809/17/10 22:00:31  5-MIN KDBQ 180400Z AUTO 21006KT 10SM FEW075 BKN090 19/14 A3004 970 75 1700 210/06 RMK AO2
94908KDBQ DBQ20100917220510809/17/10 22:05:31  5-MIN KDBQ 180405Z AUTO 21007KT 10SM FEW075 SCT090 18/14 A3004 970 78 1600 210/07 RMK AO2
94908KDBQ DBQ20100917221010809/17/10 22:10:31  5-MIN KDBQ 180410Z AUTO 20007KT 10SM FEW075 SCT090 19/14 A3003 970 75 1700 200/07 RMK AO2
94908KDBQ DBQ20100917221510809/17/10 22:15:31  5-MIN KDBQ 180415Z AUTO 21007KT 10SM FEW070 BKN090 19/14 A3003 970 75 1700 200/07 RMK AO2
94908KDBQ DBQ20100917222010109/17/10 22:20:31  5-MIN KDBQ 180420Z AUTO 20008KT 10SM SCT090 19/14 A3004 970 75 1700 200/08 RMK AO2
94908KDBQ DBQ20100917222510809/17/10 22:25:31  5-MIN KDBQ 180425Z AUTO 21008KT 10SM FEW070 BKN090 19/14 A3004 970 75 1700 200/08 RMK AO2
94908KDBQ DBQ20100917223010809/17/10 22:30:31  5-MIN KDBQ 180430Z AUTO 20008KT 10SM SCT070 BKN085 19/15 A3003 970 78 1700 200/08 RMK AO2
94908KDBQ DBQ20100917223510809/17/10 22:35:31  5-MIN KDBQ 180435Z AUTO 21009KT 10SM SCT070 BKN085 19/15 A3004 970 78 1700 210/09 RMK AO2
94908KDBQ DBQ20100917224010809/17/10 22:40:31  5-MIN KDBQ 180440Z AUTO 20009KT 10SM BKN075 BKN090 19/15 A3003 980 78 1700 200/09 RMK AO2
94908KDBQ DBQ20100917224510109/17/10 22:45:31  5-MIN KDBQ 180445Z AUTO 20010KT 10SM BKN075 19/15 A3003 980 78 1700 200/10 RMK AO2
94908KDBQ DBQ20100917225011809/17/10 22:50:31  5-MIN KDBQ 180450Z AUTO 19011KT 10SM BKN075 19/15 A3002 990 78 1700 190/11 RMK AO2 SLP162 T01890150
94908KDBQ DBQ20100917225510109/17/10 22:55:31  5-MIN KDBQ 180455Z AUTO 19012KT 10SM BKN075 19/15 A3002 990 78 1700 190/12 RMK AO2
94908KDBQ DBQ20100917230010809/17/10 23:00:31  5-MIN KDBQ 180500Z AUTO 19013KT 10SM BKN075 BKN090 19/15 A3001 990 78 1700 190/13 RMK AO2
94908KDBQ DBQ20100917230510809/17/10 23:05:31  5-MIN KDBQ 180505Z AUTO 19012KT 10SM BKN075 BKN090 19/15 A3001 990 78 1700 190/12 RMK AO2
94908KDBQ DBQ20100917231010809/17/10 23:10:31  5-MIN KDBQ 180510Z AUTO 19011KT 10SM BKN075 OVC090 19/15 A3002 990 78 1700 190/11 RMK AO2
94908KDBQ DBQ20100917231510809/17/10 23:15:31  5-MIN KDBQ 180515Z AUTO 20010KT 10SM BKN075 OVC095 19/15 A3002 990 75 1800 200/10 RMK AO2
94908KDBQ DBQ20100917232010809/17/10 23:20:31  5-MIN KDBQ 180520Z AUTO 22009KT 10SM BKN080 OVC095 19/15 A3003 980 78 1700 220/09 RMK AO2
94908KDBQ DBQ20100917232510809/17/10 23:25:31  5-MIN KDBQ 180525Z AUTO 23007KT 10SM BKN080 OVC100 19/15 A3003 980 78 1700 230/07 RMK AO2
94908KDBQ DBQ20100917233010809/17/10 23:30:31  5-MIN KDBQ 180530Z AUTO 22006KT 10SM BKN080 OVC100 19/15 A3004 970 78 1700 220/06 RMK AO2
94908KDBQ DBQ20100917233510809/17/10 23:35:31  5-MIN KDBQ 180535Z AUTO 23006KT 10SM BKN080 OVC095 19/15 A3004 970 78 1700 230/06 RMK AO2
94908KDBQ DBQ20100917234010809/17/10 23:40:31  5-MIN KDBQ 180540Z AUTO 24005KT 10SM BKN080 OVC095 19/15 A3004 970 78 1700 240/05 RMK AO2
94908KDBQ DBQ20100917234510109/17/10 23:45:31  5-MIN KDBQ 180545Z AUTO 21006KT 10SM OVC080 19/16 A3004 970 81 1700 210/06 RMK AO2
94908KDBQ DBQ20100917235015309/17/10 23:50:31  5-MIN KDBQ 180550Z AUTO 20005KT 10SM BKN080 OVC095 19/16 A3003 970 81 1700 200/05 RMK AO2 SLP167 T01890156 10211 20183 402440067 51010
94908KDBQ DBQ20100917235510809/17/10 23:55:31  5-MIN KDBQ 180555Z AUTO 20006KT 10SM BKN080 OVC095 19/15 A3004 970 78 1700 190/06 RMK AO2
94908KDBQ DBQ20100918000010809/18/10 00:00:38  5-MIN KDBQ 180600Z AUTO 21005KT 10SM BKN080 BKN095 19/15 A3004 960 78 1700 210/05 RMK AO2
94908KDBQ DBQ20100918000510809/18/10 00:05:31  5-MIN KDBQ 180605Z AUTO 24003KT 10SM SCT080 BKN095 19/15 A3005 960 78 1700 240/03 RMK AO2
94908KDBQ DBQ20100918001010809/18/10 00:10:31  5-MIN KDBQ 180610Z AUTO 25004KT 10SM SCT080 BKN095 19/15 A3004 970 78 1700 250/04 RMK AO2
94908KDBQ DBQ20100918001510809/18/10 00:15:32  5-MIN KDBQ 180615Z AUTO 23003KT 10SM FEW080 BKN095 19/16 A3004 970 81 1700 230/03 RMK AO2
94908KDBQ DBQ20100918002010109/18/10 00:20:31  5-MIN KDBQ 180620Z AUTO 24003KT 10SM SCT090 19/16 A3004 970 81 1700 240/03 RMK AO2
94908KDBQ DBQ20100918002510109/18/10 00:25:31  5-MIN KDBQ 180625Z AUTO 24003KT 10SM SCT090 19/15 A3004 970 78 1700 240/03 RMK AO2
94908KDBQ DBQ20100918003010109/18/10 00:30:31  5-MIN KDBQ 180630Z AUTO 22004KT 10SM FEW080 18/16 A3004 970 84 1600 210/04 RMK AO2
94908KDBQ DBQ20100918003510109/18/10 00:35:31  5-MIN KDBQ 180635Z AUTO 22005KT 10SM FEW095 18/16 A3004 970 84 1600 220/05 RMK AO2
94908KDBQ DBQ20100918004010109/18/10 00:40:31  5-MIN KDBQ 180640Z AUTO 21005KT 10SM FEW095 18/16 A3004 960 84 1600 210/05 RMK AO2
94908KDBQ DBQ20100918004509809/18/10 00:45:31  5-MIN KDBQ 180645Z AUTO 21006KT 10SM CLR 18/15 A3005 960 83 1600 210/06 RMK AO2
94908KDBQ DBQ20100918005011509/18/10 00:50:31  5-MIN KDBQ 180650Z AUTO 23006KT 10SM CLR 18/16 A3005 960 87 1500 230/06 RMK AO2 SLP172 T01780156
94908KDBQ DBQ20100918005509809/18/10 00:55:31  5-MIN KDBQ 180655Z AUTO 23006KT 10SM CLR 18/16 A3005 960 87 1500 230/06 RMK AO2
94908KDBQ DBQ20100918010009809/18/10 01:00:31  5-MIN KDBQ 180700Z AUTO 23006KT 10SM CLR 18/16 A3005 960 84 1600 230/06 RMK AO2
94908KDBQ DBQ20100918010510809/18/10 01:05:31  5-MIN KDBQ 180705Z AUTO 22008KT 10SM FEW045 SCT055 18/16 A3005 960 84 1600 220/08 RMK AO2
94908KDBQ DBQ20100918011010809/18/10 01:10:31  5-MIN KDBQ 180710Z AUTO 22008KT 10SM FEW045 BKN055 19/16 A3005 960 81 1700 220/08 RMK AO2
94908KDBQ DBQ20100918011510809/18/10 01:15:31  5-MIN KDBQ 180715Z AUTO 21008KT 10SM FEW045 BKN055 19/16 A3004 960 81 1700 210/08 RMK AO2
94908KDBQ DBQ20100918012010809/18/10 01:20:31  5-MIN KDBQ 180720Z AUTO 21008KT 10SM FEW045 BKN055 19/16 A3004 970 81 1700 210/08 RMK AO2
94908KDBQ DBQ20100918012510809/18/10 01:25:31  5-MIN KDBQ 180725Z AUTO 21007KT 10SM FEW045 BKN055 18/16 A3004 970 84 1600 210/07 RMK AO2
94908KDBQ DBQ20100918013010809/18/10 01:30:31  5-MIN KDBQ 180730Z AUTO 22006KT 10SM FEW045 SCT055 18/16 A3005 960 84 1600 220/06 RMK AO2
94908KDBQ DBQ20100918013510809/18/10 01:35:31  5-MIN KDBQ 180735Z AUTO 23005KT 10SM FEW045 SCT055 18/16 A3004 960 87 1600 230/05 RMK AO2
94908KDBQ DBQ20100918014010109/18/10 01:40:31  5-MIN KDBQ 180740Z AUTO 22005KT 10SM BKN055 18/16 A3004 970 87 1600 220/05 RMK AO2
94908KDBQ DBQ20100918014510109/18/10 01:45:31  5-MIN KDBQ 180745Z AUTO 22005KT 10SM BKN055 18/16 A3004 970 87 1600 220/05 RMK AO2
94908KDBQ DBQ20100918015011809/18/10 01:50:31  5-MIN KDBQ 180750Z AUTO 22004KT 10SM BKN055 18/16 A3003 970 87 1600 220/04 RMK AO2 SLP165 T01780156
94908KDBQ DBQ20100918015510109/18/10 01:55:31  5-MIN KDBQ 180755Z AUTO 22004KT 10SM SCT055 18/16 A3003 980 87 1600 220/04 RMK AO2
94908KDBQ DBQ20100918020010109/18/10 02:00:31  5-MIN KDBQ 180800Z AUTO 21003KT 10SM SCT055 18/16 A3003 980 87 1600 210/03 RMK AO2
94908KDBQ DBQ20100918020510109/18/10 02:05:31  5-MIN KDBQ 180805Z AUTO 20005KT 10SM SCT055 18/16 A3002 980 87 1600 200/05 RMK AO2
94908KDBQ DBQ20100918021010109/18/10 02:10:31  5-MIN KDBQ 180810Z AUTO 20005KT 10SM FEW055 17/16 A3002 980 90 1500 200/05 RMK AO2
94908KDBQ DBQ20100918021509809/18/10 02:15:31  5-MIN KDBQ 180815Z AUTO 21006KT 10SM CLR 17/16 A3003 980 90 1500 210/06 RMK AO2
94908KDBQ DBQ20100918022009809/18/10 02:20:31  5-MIN KDBQ 180820Z AUTO 21006KT 10SM CLR 17/16 A3003 980 90 1500 210/06 RMK AO2
94908KDBQ DBQ20100918022511309/18/10 02:25:31  5-MIN KDBQ 180825Z AUTO 22006KT 10SM FEW070 17/16 A3003 980 90 1500 220/06 RMK AO2 LTG DSNT NW
94908KDBQ DBQ20100918023011309/18/10 02:30:31  5-MIN KDBQ 180830Z AUTO 24006KT 10SM FEW070 17/16 A3003 970 90 1500 240/06 RMK AO2 LTG DSNT NW
94908KDBQ DBQ20100918023511909/18/10 02:35:31  5-MIN KDBQ 180835Z AUTO 25004KT 10SM FEW070 17/16 A3004 970 90 1500 250/04 RMK AO2 LTG DSNT N AND NW
94908KDBQ DBQ20100918024011909/18/10 02:40:31  5-MIN KDBQ 180840Z AUTO 26006KT 10SM FEW070 18/16 A3004 970 87 1600 260/06 RMK AO2 LTG DSNT N AND NW
94908KDBQ DBQ20100918024511209/18/10 02:45:31  5-MIN KDBQ 180845Z AUTO 27005KT 10SM FEW070 18/16 A3004 960 87 1600 260/05 RMK AO2 LTG DSNT N
94908KDBQ DBQ20100918025013509/18/10 02:50:31  5-MIN KDBQ 180850Z AUTO 26006KT 10SM FEW070 18/16 A3004 960 87 1600 260/06 RMK AO2 LTG DSNT N SLP169 T01780156 55003
94908KDBQ DBQ20100918025509809/18/10 02:55:31  5-MIN KDBQ 180855Z AUTO 25005KT 10SM CLR 18/16 A3004 970 87 1600 250/05 RMK AO2
94908KDBQ DBQ20100918030009809/18/10 03:00:31  5-MIN KDBQ 180900Z AUTO 24005KT 10SM CLR 18/16 A3004 970 87 1600 240/05 RMK AO2
94908KDBQ DBQ20100918030509809/18/10 03:05:31  5-MIN KDBQ 180905Z AUTO 27003KT 10SM CLR 18/16 A3005 960 87 1500 270/03 RMK AO2
94908KDBQ DBQ20100918031009809/18/10 03:10:31  5-MIN KDBQ 180910Z AUTO 27003KT 10SM CLR 18/16 A3005 960 87 1500 270/03 RMK AO2
94908KDBQ DBQ20100918031509809/18/10 03:15:31  5-MIN KDBQ 180915Z AUTO 29003KT 10SM CLR 18/16 A3005 960 87 1500 290/03 RMK AO2
94908KDBQ DBQ20100918032009809/18/10 03:20:31  5-MIN KDBQ 180920Z AUTO 31004KT 10SM CLR 18/16 A3005 950 87 1500 310/04 RMK AO2
94908KDBQ DBQ20100918032509809/18/10 03:25:31  5-MIN KDBQ 180925Z AUTO 34009KT 10SM CLR 18/16 A3006 950 87 1500 340/09 RMK AO2
94908KDBQ DBQ20100918033010109/18/10 03:30:31  5-MIN KDBQ 180930Z AUTO 35011KT 10SM FEW050 17/16 A3006 950 90 1500 350/11 RMK AO2
94908KDBQ DBQ20100918033510809/18/10 03:35:31  5-MIN KDBQ 180935Z AUTO 36011KT 10SM SCT007 SCT050 17/16 A3006 950 90 1500 350/11 RMK AO2
94908KDBQ DBQ20100918034010009/18/10 03:40:31  5-MIN KDBQ 180940Z AUTO 35009KT 8SM BKN005 17/16 A3006 950 93 1400 350/09 RMK AO2
94908KDBQ DBQ20100918034510009/18/10 03:45:31  5-MIN KDBQ 180945Z AUTO 36006KT 7SM BKN005 17/16 A3006 950 93 1400 360/06 RMK AO2
94908KDBQ DBQ20100918035012909/18/10 03:50:31  5-MIN KDBQ 180950Z AUTO 36007KT 7SM BKN005 17/16 A3005 960 93 1400 360/07 RMK AO2 LTG DSNT NW SLP172 T01670156
94908KDBQ DBQ20100918035512109/18/10 03:55:31  5-MIN KDBQ 180955Z AUTO 36007KT 6SM BR OVC005 17/16 A3006 950 93 1400 350/07 RMK AO2 LTG DSNT N AND NW
94908KDBQ DBQ20100918040012109/18/10 04:00:31  5-MIN KDBQ 181000Z AUTO 35009KT 6SM BR OVC005 17/16 A3006 950 93 1400 350/09 RMK AO2 LTG DSNT N AND NW
94908KDBQ DBQ20100918040512109/18/10 04:05:31  5-MIN KDBQ 181005Z AUTO 36010KT 6SM BR OVC005 17/16 A3006 950 93 1400 360/10 RMK AO2 LTG DSNT N AND NW
94908KDBQ DBQ20100918041012109/18/10 04:10:31  5-MIN KDBQ 181010Z AUTO 36008KT 6SM BR OVC005 17/16 A3006 950 93 1400 360/08 RMK AO2 LTG DSNT N AND NW
94908KDBQ DBQ20100918041512109/18/10 04:15:31  5-MIN KDBQ 181015Z AUTO 36007KT 6SM BR BKN005 17/16 A3006 950 93 1400 360/07 RMK AO2 LTG DSNT N AND NW
94908KDBQ DBQ20100918042011809/18/10 04:20:31  5-MIN KDBQ 181020Z AUTO 36010KT 7SM BKN005 17/16 A3007 940 93 1400 360/10 RMK AO2 LTG DSNT N AND NE
94908KDBQ DBQ20100918042513009/18/10 04:25:31  5-MIN KDBQ 181025Z AUTO 01009KT 7SM BKN007 17/16 A3006 950 93 1400 010/09 RMK AO2 LTG DSNT N AND NE CIG 005V009
94908KDBQ DBQ20100918043013009/18/10 04:30:31  5-MIN KDBQ 181030Z AUTO 01009KT 7SM BKN007 17/16 A3007 940 93 1400 360/09 RMK AO2 LTG DSNT N AND NE CIG 005V009
94908KDBQ DBQ20100918043513009/18/10 04:35:31  5-MIN KDBQ 181035Z AUTO 01011KT 8SM BKN007 17/15 A3007 940 90 1400 010/11 RMK AO2 LTG DSNT N AND NE CIG 005V010
94908KDBQ DBQ20100918044011809/18/10 04:40:31  5-MIN KDBQ 181040Z AUTO 01011KT 9SM BKN007 17/15 A3007 940 90 1400 360/11 RMK AO2 LTG DSNT N AND NE
94908KDBQ DBQ20100918044512509/18/10 04:45:31  5-MIN KDBQ 181045Z AUTO 36010KT 9SM BKN009 BKN041 17/15 A3007 940 90 1400 360/10 RMK AO2 LTG DSNT N AND NE
94908KDBQ DBQ20100918045013109/18/10 04:50:31  5-MIN KDBQ 181050Z 01008KT 9SM BKN009 BKN038 17/15 A3007 940 90 1400 010/08 RMK AO2 LTG DSNT NE SLP179 T01670150
94908KDBQ DBQ20100918045511409/18/10 04:55:31  5-MIN KDBQ 181055Z 02009KT 9SM BKN009 OVC038 17/15 A3008 930 90 1400 020/09 RMK AO2 LTG DSNT NE
94908KDBQ DBQ20100918050011409/18/10 05:00:31  5-MIN KDBQ 181100Z 02008KT 9SM BKN009 OVC022 17/15 A3008 930 90 1400 020/08 RMK AO2 LTG DSNT NE
94908KDBQ DBQ20100918050511409/18/10 05:05:31  5-MIN KDBQ 181105Z 01008KT 9SM BKN009 OVC022 17/15 A3008 930 90 1400 010/08 RMK AO2 LTG DSNT NE
94908KDBQ DBQ20100918051010209/18/10 05:10:31  5-MIN KDBQ 181110Z 01008KT 9SM BKN009 OVC022 16/15 A3009 930 93 1300 010/08 RMK AO2
94908KDBQ DBQ20100918051509509/18/10 05:15:31  5-MIN KDBQ 181115Z 02014KT 9SM OVC009 16/15 A3008 930 93 1300 020/14 RMK AO2
94908KDBQ DBQ20100918052011309/18/10 05:20:31  5-MIN KDBQ 181120Z 01014G19KT 9SM OVC009 16/14 A3009 930 90 1300 010/14G19 RMK AO2 CIG 007V011
94908KDBQ DBQ20100918052510109/18/10 05:25:31  5-MIN KDBQ 181125Z 02011G19KT 8SM OVC007 16/14 A3009 920 90 1300 020/11G19 RMK AO2
94908KDBQ DBQ20100918053010709/18/10 05:30:31  5-MIN KDBQ 181130Z 01013KT 8SM OVC007 16/14 A3010 920 90 1300 010/13 RMK AO2 CIG 007V011
94908KDBQ DBQ20100918053509509/18/10 05:35:31  5-MIN KDBQ 181135Z 02012KT 8SM OVC007 16/14 A3009 920 90 1300 020/12 RMK AO2
94908KDBQ DBQ20100918054009509/18/10 05:40:31  5-MIN KDBQ 181140Z 02012KT 8SM OVC007 16/14 A3009 920 90 1300 010/12 RMK AO2
94908KDBQ DBQ20100918054510109/18/10 05:45:31  5-MIN KDBQ 181145Z 02013G19KT 9SM OVC007 16/14 A3009 920 90 1300 020/13G19 RMK AO2
94908KDBQ DBQ20100918055013609/18/10 05:50:31  5-MIN KDBQ 181150Z 02011G19KT 9SM OVC007 16/14 A3009 920 93 1200 020/11G19 RMK AO2 SLP187 T01560144 10189 20156 51004
94908KDBQ DBQ20100918055510709/18/10 05:55:31  5-MIN KDBQ 181155Z 02011KT 8SM OVC007 16/14 A3009 920 93 1200 020/11 RMK AO2 LTG DSNT NW
94908KDBQ DBQ20100918060011309/18/10 06:00:31  5-MIN KDBQ 181200Z 02010KT 8SM OVC007 16/14 A3010 910 93 1200 020/10 RMK AO2 LTG DSNT W AND NW
94908KDBQ DBQ20100918060511609/18/10 06:05:31  5-MIN KDBQ 181205Z 02008KT 7SM OVC007 16/14 A3012 900 93 1200 020/08 RMK AO2 LTG DSNT S-NW PRESRR
94908KDBQ DBQ20100918061012309/18/10 06:10:31  5-MIN KDBQ 181210Z 02008KT 6SM VCTS BR OVC007 16/14 A3011 900 93 1200 020/08 RMK AO2 LTG DSNT S-NW TSB07
94908KDBQ DBQ20100918061511809/18/10 06:15:31  5-MIN KDBQ 181215Z 01011KT 5SM TS OVC007 16/14 A3012 890 93 1200 010/11 RMK AO2 LTG DSNT S-NW TSB07
94908KDBQ DBQ20100918062014609/18/10 06:20:31  5-MIN KDBQ 181220Z 36012KT 6SM -TSRA BKN007 OVC013 16/14 A3014 880 93 1200 360/12 RMK AO2 LTG DSNT SW-N TSB07RAB17 PRESRR P0000
94908KDBQ DBQ20100918062514709/18/10 06:25:31  5-MIN KDBQ 181225Z 35011KT 7SM -TSRA BKN007 OVC015 15/14 A3015 860 93 1100 350/11 RMK AO2 LTG DSNT ALQDS TSB07RAB17 PRESRR P0001
94908KDBQ DBQ20100918063015909/18/10 06:30:31  5-MIN KDBQ 181230Z 32015G20KT 6SM TSRA BKN007 BKN015 OVC024 15/14 A3018 840 93 1100 320/15G20 RMK AO2 LTG DSNT ALQDS TSB07RAB17 PRESRR P0001
94908KDBQ DBQ20100918063515309/18/10 06:35:31  5-MIN KDBQ 181235Z 34011G20KT 4SM +TSRA BKN007 BKN015 OVC024 15/14 A3016 860 93 1100 340/11G20 RMK AO2 LTG DSNT ALQDS TSB07RAB17 P0003
94908KDBQ DBQ20100918064014609/18/10 06:40:31  5-MIN KDBQ 181240Z 36011KT 4SM TSRA BKN007 BKN015 OVC024 14/13 A3015 860 93 1000 350/11 RMK AO2 LTG DSNT ALQDS TSB07RAB17 P0005
94908KDBQ DBQ20100918064514609/18/10 06:45:31  5-MIN KDBQ 181245Z 35009KT 4SM TSRA BKN007 BKN015 OVC024 14/14 A3016 860 96 1000 350/09 RMK AO2 LTG DSNT ALQDS TSB07RAB17 P0006
94908KDBQ DBQ20100918065016409/18/10 06:50:31  5-MIN KDBQ 181250Z 36008KT 4SM TSRA BKN007 BKN015 OVC024 14/14 A3016 850 100 1000 360/08 RMK AO2 LTG DSNT ALQDS TSB07RAB17 SLP212 P0007 T01440144
94908KDBQ DBQ20100918065512109/18/10 06:55:31  5-MIN KDBQ 181255Z 36008KT 4SM TSRA OVC027 14/14 A3016 850 100 1000 360/08 RMK AO2 LTG DSNT NE-S P0001
94908KDBQ DBQ20100918070013609/18/10 07:00:31  5-MIN KDBQ 181300Z 36008KT 4SM -TSRA FEW013 BKN027 OVC032 14/14 A3017 850 100 1000 360/08 RMK AO2 LTG DSNT NE-S P0002
94908KDBQ DBQ20100918070513509/18/10 07:05:31  5-MIN KDBQ 181305Z 36008KT 4SM TSRA BKN029 BKN036 OVC044 14/14 A3016 850 100 1000 360/08 RMK AO2 LTG DSNT NE-S P0002
94908KDBQ DBQ20100918071014009/18/10 07:10:31  5-MIN KDBQ 181310Z 36007KT 6SM -TSRA BKN029 BKN035 OVC044 14/14 A3017 850 100 1000 360/07 RMK AO2 LTG DSNT E AND SE P0003
94908KDBQ DBQ20100918071514309/18/10 07:15:31  5-MIN KDBQ 181315Z 03010KT 9SM TS SCT029 BKN038 BKN070 14/14 A3017 850 100 1000 020/10 RMK AO2 LTG DSNT E AND SE RAE14 P0003
94908KDBQ DBQ20100918072014909/18/10 07:20:31  5-MIN KDBQ 181320Z 04012KT 9SM TS SCT032 BKN045 BKN080 14/13 A3014 870 93 1100 040/12 RMK AO2 LTG DSNT E AND SE RAE14 PRESFR P0003
94908KDBQ DBQ20100918072514409/18/10 07:25:31  5-MIN KDBQ 181325Z 03012KT 9SM SCT032 SCT045 SCT090 14/14 A3015 860 96 1000 030/12 RMK AO2 LTG DSNT E AND SE TSE22RAE14 P0003
94908KDBQ DBQ20100918073013709/18/10 07:30:31  5-MIN KDBQ 181330Z 02012KT 9SM FEW032 SCT080 14/14 A3016 860 96 1000 020/12 RMK AO2 LTG DSNT E AND SE TSE22RAE14 P0003
94908KDBQ DBQ20100918073512509/18/10 07:35:31  5-MIN KDBQ 181335Z 03012KT 10SM FEW033 14/13 A3015 870 93 1000 030/12 RMK AO2 LTG DSNT SE TSE22RAE14 P0003
94908KDBQ DBQ20100918074012509/18/10 07:40:31  5-MIN KDBQ 181340Z 03011KT 10SM FEW080 14/13 A3015 870 93 1000 030/11 RMK AO2 LTG DSNT SE TSE22RAE14 P0003
94908KDBQ DBQ20100918074512209/18/10 07:45:31  5-MIN KDBQ 181345Z 02013KT 10SM CLR 14/13 A3015 860 93 1000 020/13 RMK AO2 LTG DSNT SE TSE22RAE14 P0003
94908KDBQ DBQ20100918075012709/18/10 07:50:31  5-MIN KDBQ 181350Z 03014KT 10SM CLR 14/13 A3014 870 90 1100 030/14 RMK AO2 TSE22RAE14 SLP205 P0003 T01440128
94908KDBQ DBQ20100918075509309/18/10 07:55:31  5-MIN KDBQ 181355Z 03016KT 10SM CLR 14/13 A3014 880 90 1100 030/16 RMK AO2
94908KDBQ DBQ20100918080009309/18/10 08:00:31  5-MIN KDBQ 181400Z 03014KT 10SM CLR 14/13 A3014 880 90 1100 030/14 RMK AO2
94908KDBQ DBQ20100918080509909/18/10 08:05:31  5-MIN KDBQ 181405Z 03018G23KT 10SM CLR 15/13 A3013 880 86 1100 030/18G23 RMK AO2
94908KDBQ DBQ20100918081009909/18/10 08:10:31  5-MIN KDBQ 181410Z 02015G23KT 10SM CLR 15/13 A3014 870 86 1100 020/15G23 RMK AO2
94908KDBQ DBQ20100918081509309/18/10 08:15:31  5-MIN KDBQ 181415Z 03013KT 10SM CLR 15/13 A3015 870 86 1100 030/13 RMK AO2
94908KDBQ DBQ20100918082009309/18/10 08:20:31  5-MIN KDBQ 181420Z 03013KT 10SM CLR 14/13 A3015 870 90 1000 030/13 RMK AO2
94908KDBQ DBQ20100918082509309/18/10 08:25:31  5-MIN KDBQ 181425Z 02013KT 10SM CLR 14/13 A3016 860 90 1000 020/13 RMK AO2
94908KDBQ DBQ20100918083009309/18/10 08:30:31  5-MIN KDBQ 181430Z 01013KT 10SM CLR 15/13 A3016 860 86 1100 010/13 RMK AO2
94908KDBQ DBQ20100918083509309/18/10 08:35:31  5-MIN KDBQ 181435Z 02012KT 10SM CLR 15/13 A3016 860 86 1100 010/12 RMK AO2
94908KDBQ DBQ20100918084009609/18/10 08:40:31  5-MIN KDBQ 181440Z 02013KT 10SM FEW011 15/13 A3017 850 86 1100 020/13 RMK AO2
94908KDBQ DBQ20100918084510309/18/10 08:45:31  5-MIN KDBQ 181445Z 02014KT 10SM FEW011 SCT110 15/13 A3017 850 86 1100 020/14 RMK AO2
94908KDBQ DBQ20100918085013209/18/10 08:50:31  5-MIN KDBQ 181450Z 03011KT 10SM SCT011 BKN110 15/13 A3016 860 86 1100 020/11 RMK AO2 SLP212 60011 T01500128 53015
94908KDBQ DBQ20100918085510909/18/10 08:55:31  5-MIN KDBQ 181455Z 03017G21KT 10SM FEW011 BKN110 15/12 A3016 850 83 1100 030/17G21 RMK AO2
94908KDBQ DBQ20100918090010909/18/10 09:00:31  5-MIN KDBQ 181500Z 03012G21KT 10SM FEW011 BKN110 14/12 A3017 840 83 1000 030/12G21 RMK AO2
94908KDBQ DBQ20100918090510309/18/10 09:05:31  5-MIN KDBQ 181505Z 02012KT 10SM SCT013 BKN110 14/12 A3019 830 83 1000 020/12 RMK AO2
94908KDBQ DBQ20100918091010909/18/10 09:10:31  5-MIN KDBQ 181510Z 01010G17KT 10SM SCT013 OVC110 14/12 A3018 830 86 1000 010/10G17 RMK AO2
94908KDBQ DBQ20100918091510309/18/10 09:15:31  5-MIN KDBQ 181515Z 01010KT 10SM SCT013 OVC110 14/12 A3018 840 86 1000 010/10 RMK AO2
94908KDBQ DBQ20100918092010309/18/10 09:20:31  5-MIN KDBQ 181520Z 01008KT 10SM BKN013 OVC110 14/12 A3019 830 86 1000 010/08 RMK AO2
94908KDBQ DBQ20100918092510309/18/10 09:25:31  5-MIN KDBQ 181525Z 02008KT 10SM SCT013 OVC110 14/12 A3019 830 86 1000 020/08 RMK AO2
94908KDBQ DBQ20100918093010309/18/10 09:30:31  5-MIN KDBQ 181530Z 02011KT 10SM SCT013 OVC110 14/12 A3019 830 83 1000 020/11 RMK AO2
94908KDBQ DBQ20100918093510309/18/10 09:35:31  5-MIN KDBQ 181535Z 02011KT 10SM SCT013 OVC110 14/12 A3019 830 83 1000 020/11 RMK AO2
94908KDBQ DBQ20100918094010309/18/10 09:40:31  5-MIN KDBQ 181540Z 02010KT 10SM SCT013 OVC110 14/12 A3019 830 83 1000 020/10 RMK AO2
94908KDBQ DBQ20100918094510309/18/10 09:45:31  5-MIN KDBQ 181545Z 01008KT 10SM SCT013 OVC110 15/12 A3019 830 80 1100 010/08 RMK AO2
94908KDBQ DBQ20100918095012009/18/10 09:50:31  5-MIN KDBQ 181550Z 01009KT 10SM SCT013 OVC110 15/12 A3020 820 80 1100 360/09 RMK AO2 SLP226 T01500117
94908KDBQ DBQ20100918095510309/18/10 09:55:31  5-MIN KDBQ 181555Z 02010KT 10SM SCT015 15/12 A3021 810 80 1000 010/10 RMK AO2 PRESRR
94908KDBQ DBQ20100918100009609/18/10 10:00:31  5-MIN KDBQ 181600Z 02007KT 10SM BKN015 15/12 A3021 810 80 1000 020/07 RMK AO2
94908KDBQ DBQ20100918100509609/18/10 10:05:31  5-MIN KDBQ 181605Z 01007KT 10SM BKN015 15/12 A3021 810 80 1000 010/07 RMK AO2
94908KDBQ DBQ20100918101009609/18/10 10:10:31  5-MIN KDBQ 181610Z 01006KT 10SM BKN015 15/12 A3022 810 80 1000 010/06 RMK AO2
94908KDBQ DBQ20100918101510309/18/10 10:15:31  5-MIN KDBQ 181615Z 01007KT 10SM BKN015 BKN021 15/12 A3021 810 80 1000 010/07 RMK AO2
94908KDBQ DBQ20100918102010309/18/10 10:20:31  5-MIN KDBQ 181620Z 02006KT 10SM BKN015 OVC021 15/12 A3021 810 80 1000 020/06 RMK AO2
94908KDBQ DBQ20100918102510309/18/10 10:25:31  5-MIN KDBQ 181625Z 02008KT 10SM BKN016 OVC021 15/12 A3020 820 80 1000 020/08 RMK AO2
94908KDBQ DBQ20100918103009609/18/10 10:30:31  5-MIN KDBQ 181630Z 05006KT 10SM OVC018 16/12 A3020 820 80 1100 050/06 RMK AO2
94908KDBQ DBQ20100918103509609/18/10 10:35:31  5-MIN KDBQ 181635Z 03007KT 10SM OVC018 16/12 A3020 820 77 1200 030/07 RMK AO2
94908KDBQ DBQ20100918104009609/18/10 10:40:31  5-MIN KDBQ 181640Z 02008KT 10SM OVC018 16/12 A3020 820 77 1100 020/08 RMK AO2
94908KDBQ DBQ20100918104509609/18/10 10:45:31  5-MIN KDBQ 181645Z 02005KT 10SM BKN018 16/12 A3020 820 77 1100 020/05 RMK AO2
94908KDBQ DBQ20100918105011309/18/10 10:50:31  5-MIN KDBQ 181650Z 01006KT 10SM BKN018 17/12 A3020 820 75 1200 010/06 RMK AO2 SLP224 T01670122
94908KDBQ DBQ20100918105509609/18/10 10:55:31  5-MIN KDBQ 181655Z 03006KT 10SM BKN018 16/12 A3019 830 77 1200 030/06 RMK AO2
94908KDBQ DBQ20100918110009609/18/10 11:00:31  5-MIN KDBQ 181700Z 01006KT 10SM BKN018 17/12 A3019 830 75 1300 010/06 RMK AO2
94908KDBQ DBQ20100918110509609/18/10 11:05:31  5-MIN KDBQ 181705Z 36007KT 10SM BKN018 17/12 A3019 830 75 1300 360/07 RMK AO2
94908KDBQ DBQ20100918111009609/18/10 11:10:31  5-MIN KDBQ 181710Z 04007KT 10SM SCT018 17/12 A3020 820 72 1300 040/07 RMK AO2
94908KDBQ DBQ20100918111509609/18/10 11:15:31  5-MIN KDBQ 181715Z 02008KT 10SM BKN018 17/12 A3019 830 72 1300 020/08 RMK AO2
94908KDBQ DBQ20100918112009609/18/10 11:20:31  5-MIN KDBQ 181720Z 04008KT 10SM BKN018 17/12 A3019 830 69 1300 040/08 RMK AO2
94908KDBQ DBQ20100918112509609/18/10 11:25:31  5-MIN KDBQ 181725Z 36009KT 10SM BKN018 17/12 A3020 820 72 1300 360/09 RMK AO2
94908KDBQ DBQ20100918113009609/18/10 11:30:31  5-MIN KDBQ 181730Z 02007KT 10SM BKN018 16/12 A3019 830 75 1200 020/07 RMK AO2
94908KDBQ DBQ20100918113509609/18/10 11:35:31  5-MIN KDBQ 181735Z 03008KT 10SM BKN018 17/12 A3019 830 69 1300 030/08 RMK AO2
94908KDBQ DBQ20100918114009609/18/10 11:40:31  5-MIN KDBQ 181740Z 03007KT 10SM BKN018 17/12 A3019 830 69 1300 030/07 RMK AO2
94908KDBQ DBQ20100918114509609/18/10 11:45:31  5-MIN KDBQ 181745Z 02007KT 10SM BKN018 18/11 A3018 840 64 1400 020/07 RMK AO2
94908KDBQ DBQ20100918115009609/18/10 11:50:31  5-MIN KDBQ 181750Z 01007KT 10SM FEW021 17/11 A3018 840 67 1300 010/07 RMK AO2
94908KDBQ DBQ20100918115509309/18/10 11:55:31  5-MIN KDBQ 181755Z 02011KT 10SM CLR 18/11 A3018 840 64 1400 020/11 RMK AO2
94908KDBQ DBQ20100918120009309/18/10 12:00:31  5-MIN KDBQ 181800Z VRB06KT 10SM CLR 17/10 A3018 840 62 1300 VRB/06 RMK AO2
94908KDBQ DBQ20100918120509309/18/10 12:05:31  5-MIN KDBQ 181805Z 02007KT 10SM CLR 17/11 A3018 840 64 1300 020/07 RMK AO2
94908KDBQ DBQ20100918121009309/18/10 12:10:31  5-MIN KDBQ 181810Z 06005KT 10SM CLR 17/11 A3017 850 64 1300 060/05 RMK AO2
94908KDBQ DBQ20100918121509309/18/10 12:15:31  5-MIN KDBQ 181815Z 04008KT 10SM CLR 17/11 A3017 850 64 1300 040/08 RMK AO2
94908KDBQ DBQ20100918122009309/18/10 12:20:31  5-MIN KDBQ 181820Z 02007KT 10SM CLR 17/11 A3017 850 64 1300 020/07 RMK AO2
94908KDBQ DBQ20100918122509309/18/10 12:25:31  5-MIN KDBQ 181825Z 02010KT 10SM CLR 18/11 A3017 850 62 1400 020/10 RMK AO2
94908KDBQ DBQ20100918123009309/18/10 12:30:31  5-MIN KDBQ 181830Z 04007KT 10SM CLR 18/11 A3016 850 62 1400 040/07 RMK AO2
94908KDBQ DBQ20100918123509309/18/10 12:35:31  5-MIN KDBQ 181835Z 03010KT 10SM CLR 18/11 A3017 850 62 1400 030/10 RMK AO2
94908KDBQ DBQ20100918124009309/18/10 12:40:31  5-MIN KDBQ 181840Z 01008KT 10SM CLR 18/11 A3017 850 62 1400 360/08 RMK AO2
94908KDBQ DBQ20100918124509309/18/10 12:45:31  5-MIN KDBQ 181845Z 01009KT 10SM CLR 17/11 A3016 860 67 1400 010/09 RMK AO2
94908KDBQ DBQ20100918125011009/18/10 12:50:31  5-MIN KDBQ 181850Z 03012KT 10SM CLR 18/11 A3016 860 64 1400 020/12 RMK AO2 SLP210 T01780111
94908KDBQ DBQ20100918125509309/18/10 12:55:31  5-MIN KDBQ 181855Z 02010KT 10SM CLR 17/11 A3015 860 64 1400 020/10 RMK AO2
94908KDBQ DBQ20100918130009309/18/10 13:00:31  5-MIN KDBQ 181900Z 01008KT 10SM CLR 17/10 A3015 870 62 1400 010/08 RMK AO2
94908KDBQ DBQ20100918130509309/18/10 13:05:31  5-MIN KDBQ 181905Z 01010KT 10SM CLR 17/10 A3015 870 62 1400 010/10 RMK AO2
94908KDBQ DBQ20100918131009309/18/10 13:10:31  5-MIN KDBQ 181910Z 02008KT 10SM CLR 17/10 A3015 860 62 1400 010/08 RMK AO2
94908KDBQ DBQ20100918131509309/18/10 13:15:31  5-MIN KDBQ 181915Z 03010KT 10SM CLR 17/10 A3015 860 62 1400 030/10 RMK AO2
94908KDBQ DBQ20100918132009309/18/10 13:20:31  5-MIN KDBQ 181920Z 02009KT 10SM CLR 17/10 A3016 860 62 1400 020/09 RMK AO2
94908KDBQ DBQ20100918132509309/18/10 13:25:31  5-MIN KDBQ 181925Z 03010KT 10SM CLR 17/10 A3016 860 62 1400 030/10 RMK AO2
94908KDBQ DBQ20100918133009309/18/10 13:30:31  5-MIN KDBQ 181930Z 02008KT 10SM CLR 17/10 A3016 860 62 1400 020/08 RMK AO2
94908KDBQ DBQ20100918133509309/18/10 13:35:31  5-MIN KDBQ 181935Z 02009KT 10SM CLR 17/10 A3016 860 62 1400 020/09 RMK AO2
94908KDBQ DBQ20100918134009309/18/10 13:40:31  5-MIN KDBQ 181940Z 02009KT 10SM CLR 17/10 A3017 850 64 1300 020/09 RMK AO2
94908KDBQ DBQ20100918134509309/18/10 13:45:31  5-MIN KDBQ 181945Z 02007KT 10SM CLR 17/10 A3017 850 64 1300 020/07 RMK AO2
94908KDBQ DBQ20100918135011009/18/10 13:50:31  5-MIN KDBQ 181950Z 03007KT 10SM CLR 17/10 A3017 850 62 1400 020/07 RMK AO2 SLP212 T01720100
94908KDBQ DBQ20100918135509309/18/10 13:55:31  5-MIN KDBQ 181955Z 03009KT 10SM CLR 17/10 A3016 850 64 1300 030/09 RMK AO2
94908KDBQ DBQ20100918140009309/18/10 14:00:31  5-MIN KDBQ 182000Z 04008KT 10SM CLR 17/10 A3016 850 64 1300 040/08 RMK AO2
94908KDBQ DBQ20100918140509309/18/10 14:05:31  5-MIN KDBQ 182005Z 04008KT 10SM CLR 17/09 A3016 860 62 1300 040/08 RMK AO2
94908KDBQ DBQ20100918141009309/18/10 14:10:31  5-MIN KDBQ 182010Z 04009KT 10SM CLR 17/09 A3016 860 62 1300 040/09 RMK AO2
94908KDBQ DBQ20100918141509309/18/10 14:15:31  5-MIN KDBQ 182015Z 03010KT 10SM CLR 17/09 A3016 860 62 1300 030/10 RMK AO2
94908KDBQ DBQ20100918142009309/18/10 14:20:31  5-MIN KDBQ 182020Z 03010KT 10SM CLR 17/09 A3016 850 62 1300 030/10 RMK AO2
94908KDBQ DBQ20100918142509309/18/10 14:25:31  5-MIN KDBQ 182025Z 01008KT 10SM CLR 16/10 A3018 840 67 1200 010/08 RMK AO2
94908KDBQ DBQ20100918143010009/18/10 14:30:31  5-MIN KDBQ 182030Z 36008KT 10SM CLR 16/10 A3018 840 67 1200 360/08 RMK AO2 PRESRR
94908KDBQ DBQ20100918143510009/18/10 14:35:31  5-MIN KDBQ 182035Z 35008KT 10SM CLR 16/10 A3019 830 67 1200 350/08 RMK AO2 PRESRR
94908KDBQ DBQ20100918144010009/18/10 14:40:31  5-MIN KDBQ 182040Z 35009KT 10SM CLR 16/11 A3019 830 69 1200 350/09 RMK AO2 PRESRR
94908KDBQ DBQ20100918144510009/18/10 14:45:31  5-MIN KDBQ 182045Z 34007KT 10SM CLR 16/11 A3020 820 69 1200 340/07 RMK AO2 PRESRR
94908KDBQ DBQ20100918145011609/18/10 14:50:31  5-MIN KDBQ 182050Z 35010KT 10SM CLR 16/11 A3020 820 72 1100 350/10 RMK AO2 SLP226 T01560106 50006
94908KDBQ DBQ20100918145509309/18/10 14:55:31  5-MIN KDBQ 182055Z 35010KT 10SM CLR 16/11 A3020 820 72 1100 350/10 RMK AO2
94908KDBQ DBQ20100918150009309/18/10 15:00:31  5-MIN KDBQ 182100Z 35010KT 10SM CLR 16/11 A3021 810 72 1100 350/10 RMK AO2
94908KDBQ DBQ20100918150509609/18/10 15:05:31  5-MIN KDBQ 182105Z 34010KT 10SM FEW110 16/11 A3022 810 72 1100 340/10 RMK AO2
94908KDBQ DBQ20100918151010309/18/10 15:10:31  5-MIN KDBQ 182110Z 32009KT 10SM FEW110 15/10 A3023 800 72 1000 320/09 RMK AO2 PRESRR
94908KDBQ DBQ20100918151509609/18/10 15:15:31  5-MIN KDBQ 182115Z 33006KT 10SM FEW120 15/10 A3023 790 72 1000 330/06 RMK AO2
94908KDBQ DBQ20100918152009609/18/10 15:20:31  5-MIN KDBQ 182120Z 32007KT 10SM FEW120 15/11 A3023 790 74 1000 320/07 RMK AO2
94908KDBQ DBQ20100918152509609/18/10 15:25:31  5-MIN KDBQ 182125Z 30006KT 10SM FEW095 15/11 A3023 790 74 1000 300/06 RMK AO2
94908KDBQ DBQ20100918153009609/18/10 15:30:31  5-MIN KDBQ 182130Z 32004KT 10SM FEW095 15/11 A3022 800 74 1000 320/04 RMK AO2
94908KDBQ DBQ20100918153509609/18/10 15:35:31  5-MIN KDBQ 182135Z 32007KT 10SM FEW120 14/11 A3022 800 77 1000 320/07 RMK AO2
94908KDBQ DBQ20100918154009609/18/10 15:40:31  5-MIN KDBQ 182140Z 33006KT 10SM FEW120 14/11 A3022 800 77 1000 330/06 RMK AO2
94908KDBQ DBQ20100918154509609/18/10 15:45:31  5-MIN KDBQ 182145Z 32005KT 10SM FEW110 14/11 A3022 800 77 1000 310/05 RMK AO2
94908KDBQ DBQ20100918155012009/18/10 15:50:31  5-MIN KDBQ 182150Z 32006KT 10SM FEW043 SCT110 14/10 A3022 800 74 1000 320/06 RMK AO2 SLP234 T01440100
94908KDBQ DBQ20100918155510209/18/10 15:55:31  5-MIN KDBQ 182155Z 32006KT 10SM FEW038 BKN110 14/10 A3022 800 77 900 320/06 RMK AO2
94908KDBQ DBQ20100918160012009/18/10 16:00:31  5-MIN KDBQ 182200Z 33005KT 10SM -RA FEW036 BKN110 14/10 A3021 810 77 900 330/05 RMK AO2 RAB2158 P0000
94908KDBQ DBQ20100918160512009/18/10 16:05:31  5-MIN KDBQ 182205Z 34005KT 10SM -RA FEW038 BKN110 14/10 A3021 810 77 900 340/05 RMK AO2 RAB2158 P0000
94908KDBQ DBQ20100918161011909/18/10 16:10:31  5-MIN KDBQ 182210Z 35005KT 10SM FEW038 SCT110 14/11 A3021 810 80 900 350/05 RMK AO2 RAB2158E10 P0000
94908KDBQ DBQ20100918161511909/18/10 16:15:31  5-MIN KDBQ 182215Z 01003KT 10SM FEW038 SCT110 14/11 A3020 820 80 900 010/03 RMK AO2 RAB2158E10 P0000
94908KDBQ DBQ20100918162012709/18/10 16:20:31  5-MIN KDBQ 182220Z 04004KT 10SM -RA SCT048 BKN110 13/11 A3019 830 83 900 040/04 RMK AO2 RAB2158 PRESFR P0000
94908KDBQ DBQ20100918162513409/18/10 16:25:31  5-MIN KDBQ 182225Z 05006KT 10SM -RA BKN040 BKN065 BKN110 13/11 A3018 840 83 900 040/06 RMK AO2 RAB2158 PRESFR P0000
94908KDBQ DBQ20100918163013409/18/10 16:30:31  5-MIN KDBQ 182230Z 04008KT 10SM -RA BKN036 BKN060 BKN110 13/11 A3017 850 83 900 040/08 RMK AO2 RAB2158 PRESFR P0000
94908KDBQ DBQ20100918163512709/18/10 16:35:31  5-MIN KDBQ 182235Z 02010KT 10SM -RA BKN034 BKN060 BKN110 13/11 A3017 850 86 800 020/10 RMK AO2 RAB2158 P0000
94908KDBQ DBQ20100918164011309/18/10 16:40:31  5-MIN KDBQ 182240Z 04008KT 10SM -RA BKN034 13/11 A3017 850 89 800 040/08 RMK AO2 RAB2158 P0001
94908KDBQ DBQ20100918164512009/18/10 16:45:31  5-MIN KDBQ 182245Z 02006KT 10SM -RA BKN039 BKN100 13/11 A3018 840 89 800 020/06 RMK AO2 RAB2158 P0001
94908KDBQ DBQ20100918165013609/18/10 16:50:31  5-MIN KDBQ 182250Z 05007KT 10SM SCT034 SCT100 13/11 A3016 860 89 800 040/07 RMK AO2 RAB2158E46 SLP214 P0001 T01280111
94908KDBQ DBQ20100918165509509/18/10 16:55:31  5-MIN KDBQ 182255Z 02007KT 10SM FEW034 13/11 A3018 840 89 800 020/07 RMK AO2
94908KDBQ DBQ20100918170009509/18/10 17:00:31  5-MIN KDBQ 182300Z 02005KT 10SM FEW034 13/11 A3017 840 89 800 020/05 RMK AO2
94908KDBQ DBQ20100918170509209/18/10 17:05:31  5-MIN KDBQ 182305Z 35007KT 10SM CLR 13/11 A3019 830 89 800 350/07 RMK AO2
94908KDBQ DBQ20100918171009909/18/10 17:10:31  5-MIN KDBQ 182310Z 33006KT 10SM CLR 13/11 A3020 820 89 800 330/06 RMK AO2 PRESRR
94908KDBQ DBQ20100918171509209/18/10 17:15:31  5-MIN KDBQ 182315Z 36006KT 10SM CLR 13/11 A3019 830 89 800 360/06 RMK AO2
94908KDBQ DBQ20100918172009209/18/10 17:20:31  5-MIN KDBQ 182320Z 01005KT 10SM CLR 13/11 A3018 840 86 800 010/05 RMK AO2
94908KDBQ DBQ20100918172509209/18/10 17:25:31  5-MIN KDBQ 182325Z 36004KT 10SM CLR 13/11 A3018 840 86 800 360/04 RMK AO2
94908KDBQ DBQ20100918173009209/18/10 17:30:31  5-MIN KDBQ 182330Z 35005KT 10SM CLR 13/11 A3019 830 89 800 350/05 RMK AO2
94908KDBQ DBQ20100918173509209/18/10 17:35:31  5-MIN KDBQ 182335Z 01006KT 10SM CLR 13/11 A3018 840 86 800 010/06 RMK AO2
94908KDBQ DBQ20100918174009209/18/10 17:40:31  5-MIN KDBQ 182340Z 03006KT 10SM CLR 13/11 A3017 850 89 800 030/06 RMK AO2
94908KDBQ DBQ20100918174509209/18/10 17:45:31  5-MIN KDBQ 182345Z 03006KT 10SM CLR 13/11 A3017 850 86 800 030/06 RMK AO2
94908KDBQ DBQ20100918175013309/18/10 17:50:31  5-MIN KDBQ 182350Z 36005KT 10SM CLR 13/11 A3018 840 86 800 360/05 RMK AO2 SLP220 60001 T01280106 10178 20128 53008
94908KDBQ DBQ20100918175509209/18/10 17:55:31  5-MIN KDBQ 182355Z 34006KT 10SM CLR 13/11 A3019 830 86 800 340/06 RMK AO2
94908KDBQ DBQ20100918180009709/18/10 18:00:31  5-MIN KDBQ 190000Z AUTO 36005KT 10SM CLR 12/11 A3019 830 93 700 350/05 RMK AO2
94908KDBQ DBQ20100918180509209/18/10 18:05:31  5-MIN KDBQ 190005Z 34004KT 10SM CLR 12/11 A3019 830 93 700 340/04 RMK AO2
94908KDBQ DBQ20100918181009209/18/10 18:10:31  5-MIN KDBQ 190010Z 34005KT 10SM CLR 12/11 A3019 830 93 700 340/05 RMK AO2
94908KDBQ DBQ20100918181509209/18/10 18:15:31  5-MIN KDBQ 190015Z 34007KT 10SM CLR 12/11 A3020 820 93 700 340/07 RMK AO2
94908KDBQ DBQ20100918182009209/18/10 18:20:31  5-MIN KDBQ 190020Z 34007KT 10SM CLR 12/11 A3020 820 93 700 340/07 RMK AO2
94908KDBQ DBQ20100918182509209/18/10 18:25:31  5-MIN KDBQ 190025Z 34007KT 10SM CLR 12/11 A3020 820 93 700 340/07 RMK AO2
94908KDBQ DBQ20100918183009209/18/10 18:30:31  5-MIN KDBQ 190030Z 35009KT 10SM CLR 12/11 A3020 820 93 700 350/09 RMK AO2
94908KDBQ DBQ20100918183509209/18/10 18:35:31  5-MIN KDBQ 190035Z 35008KT 10SM CLR 12/11 A3020 820 93 700 350/08 RMK AO2
94908KDBQ DBQ20100918184009209/18/10 18:40:31  5-MIN KDBQ 190040Z 35006KT 10SM CLR 12/11 A3020 820 93 700 350/06 RMK AO2
94908KDBQ DBQ20100918184509209/18/10 18:45:31  5-MIN KDBQ 190045Z 34006KT 10SM CLR 12/11 A3021 810 93 700 340/06 RMK AO2
94908KDBQ DBQ20100918185010909/18/10 18:50:31  5-MIN KDBQ 190050Z 34007KT 10SM CLR 12/11 A3021 810 93 700 340/07 RMK AO2 SLP232 T01220111
94908KDBQ DBQ20100918185509709/18/10 18:55:31  5-MIN KDBQ 190055Z AUTO 34007KT 10SM CLR 12/11 A3021 810 89 700 340/07 RMK AO2
94908KDBQ DBQ20100918190010009/18/10 19:00:31  5-MIN KDBQ 190100Z AUTO 35008KT 10SM FEW050 12/11 A3021 810 89 700 350/08 RMK AO2
94908KDBQ DBQ20100918190510009/18/10 19:05:31  5-MIN KDBQ 190105Z AUTO 35008KT 10SM SCT050 12/11 A3022 800 89 700 350/08 RMK AO2
94908KDBQ DBQ20100918191010009/18/10 19:10:31  5-MIN KDBQ 190110Z AUTO 35008KT 10SM BKN050 12/10 A3022 800 86 700 350/08 RMK AO2
94908KDBQ DBQ20100918191510009/18/10 19:15:31  5-MIN KDBQ 190115Z AUTO 35009KT 10SM BKN050 12/10 A3022 800 86 700 350/09 RMK AO2
94908KDBQ DBQ20100918192010009/18/10 19:20:31  5-MIN KDBQ 190120Z AUTO 01008KT 10SM BKN050 12/09 A3021 810 83 700 360/08 RMK AO2
94908KDBQ DBQ20100918192510009/18/10 19:25:31  5-MIN KDBQ 190125Z AUTO 02008KT 10SM BKN050 12/09 A3020 820 83 700 020/08 RMK AO2
94908KDBQ DBQ20100918193010009/18/10 19:30:31  5-MIN KDBQ 190130Z AUTO 01009KT 10SM BKN050 12/09 A3020 820 86 700 010/09 RMK AO2
94908KDBQ DBQ20100918193510009/18/10 19:35:31  5-MIN KDBQ 190135Z AUTO 02009KT 10SM SCT050 12/09 A3020 820 83 700 020/09 RMK AO2
94908KDBQ DBQ20100918194010009/18/10 19:40:31  5-MIN KDBQ 190140Z AUTO 01009KT 10SM SCT050 12/08 A3021 820 80 600 010/09 RMK AO2
94908KDBQ DBQ20100918194510009/18/10 19:45:31  5-MIN KDBQ 190145Z AUTO 01009KT 10SM FEW050 12/08 A3021 810 80 600 010/09 RMK AO2
94908KDBQ DBQ20100918195011409/18/10 19:50:31  5-MIN KDBQ 190150Z AUTO 01012KT 10SM CLR 12/08 A3021 810 80 600 010/12 RMK AO2 SLP230 T01170083
94908KDBQ DBQ20100918195509709/18/10 19:55:31  5-MIN KDBQ 190155Z AUTO 01011KT 10SM CLR 12/08 A3021 810 77 600 010/11 RMK AO2
94908KDBQ DBQ20100918200009709/18/10 20:00:31  5-MIN KDBQ 190200Z AUTO 02011KT 10SM CLR 12/07 A3021 820 74 700 020/11 RMK AO2
94908KDBQ DBQ20100918200509709/18/10 20:05:31  5-MIN KDBQ 190205Z AUTO 03010KT 10SM CLR 11/07 A3020 820 77 600 030/10 RMK AO2
94908KDBQ DBQ20100918201009709/18/10 20:10:31  5-MIN KDBQ 190210Z AUTO 02010KT 10SM CLR 11/07 A3021 810 77 600 020/10 RMK AO2
94908KDBQ DBQ20100918201509709/18/10 20:15:31  5-MIN KDBQ 190215Z AUTO 02009KT 10SM CLR 11/07 A3021 820 77 600 020/09 RMK AO2
94908KDBQ DBQ20100918202009709/18/10 20:20:31  5-MIN KDBQ 190220Z AUTO 02011KT 10SM CLR 11/07 A3020 820 77 600 020/11 RMK AO2
94908KDBQ DBQ20100918202509709/18/10 20:25:31  5-MIN KDBQ 190225Z AUTO 02010KT 10SM CLR 11/07 A3020 820 77 600 020/10 RMK AO2
94908KDBQ DBQ20100918203009709/18/10 20:30:31  5-MIN KDBQ 190230Z AUTO 02008KT 10SM CLR 11/07 A3020 820 77 600 020/08 RMK AO2
94908KDBQ DBQ20100918203509709/18/10 20:35:31  5-MIN KDBQ 190235Z AUTO 02009KT 10SM CLR 11/07 A3020 820 77 600 020/09 RMK AO2
94908KDBQ DBQ20100918204009709/18/10 20:40:31  5-MIN KDBQ 190240Z AUTO 02009KT 10SM CLR 11/07 A3020 820 77 600 020/09 RMK AO2
94908KDBQ DBQ20100918204509709/18/10 20:45:31  5-MIN KDBQ 190245Z AUTO 02009KT 10SM CLR 11/07 A3020 820 77 600 020/09 RMK AO2
94908KDBQ DBQ20100918205012009/18/10 20:50:31  5-MIN KDBQ 190250Z AUTO 03008KT 10SM CLR 11/07 A3020 820 77 600 030/08 RMK AO2 SLP229 T01110072 58004
94908KDBQ DBQ20100918205509709/18/10 20:55:31  5-MIN KDBQ 190255Z AUTO 03008KT 10SM CLR 11/07 A3020 820 80 500 030/08 RMK AO2
94908KDBQ DBQ20100918210010009/18/10 21:00:31  5-MIN KDBQ 190300Z AUTO 02008KT 10SM FEW050 11/07 A3022 800 80 500 020/08 RMK AO2
94908KDBQ DBQ20100918210510009/18/10 21:05:31  5-MIN KDBQ 190305Z AUTO 03007KT 10SM SCT050 11/07 A3022 810 77 600 030/07 RMK AO2
94908KDBQ DBQ20100918211010009/18/10 21:10:31  5-MIN KDBQ 190310Z AUTO 02006KT 10SM BKN050 11/07 A3022 800 77 600 020/06 RMK AO2
94908KDBQ DBQ20100918211510009/18/10 21:15:31  5-MIN KDBQ 190315Z AUTO 02006KT 10SM BKN050 11/07 A3023 790 77 600 020/06 RMK AO2
94908KDBQ DBQ20100918212010009/18/10 21:20:31  5-MIN KDBQ 190320Z AUTO 02007KT 10SM BKN050 11/07 A3023 790 74 600 020/07 RMK AO2
94908KDBQ DBQ20100918212510709/18/10 21:25:31  5-MIN KDBQ 190325Z AUTO 03007KT 10SM OVC050 11/07 A3024 780 74 500 030/07 RMK AO2 PRESRR
94908KDBQ DBQ20100918213010009/18/10 21:30:31  5-MIN KDBQ 190330Z AUTO 02008KT 10SM OVC050 11/07 A3024 780 77 500 020/08 RMK AO2
94908KDBQ DBQ20100918213510009/18/10 21:35:31  5-MIN KDBQ 190335Z AUTO 03007KT 10SM BKN050 11/07 A3023 790 77 500 030/07 RMK AO2
94908KDBQ DBQ20100918214010009/18/10 21:40:31  5-MIN KDBQ 190340Z AUTO 04007KT 10SM SCT050 11/07 A3023 790 77 500 040/07 RMK AO2
94908KDBQ DBQ20100918214510009/18/10 21:45:31  5-MIN KDBQ 190345Z AUTO 04007KT 10SM SCT050 11/07 A3023 800 77 500 040/07 RMK AO2
94908KDBQ DBQ20100918215011709/18/10 21:50:31  5-MIN KDBQ 190350Z AUTO 04005KT 10SM FEW050 11/07 A3023 790 77 500 040/05 RMK AO2 SLP240 T01060067
94908KDBQ DBQ20100918215510009/18/10 21:55:31  5-MIN KDBQ 190355Z AUTO 03005KT 10SM FEW050 11/07 A3024 780 77 500 030/05 RMK AO2
94908KDBQ DBQ20100918220010009/18/10 22:00:31  5-MIN KDBQ 190400Z AUTO 03004KT 10SM FEW050 11/07 A3024 780 77 500 030/04 RMK AO2
94908KDBQ DBQ20100918220510709/18/10 22:05:31  5-MIN KDBQ 190405Z AUTO 04005KT 10SM FEW050 SCT110 11/07 A3023 790 77 500 040/05 RMK AO2
94908KDBQ DBQ20100918221010709/18/10 22:10:31  5-MIN KDBQ 190410Z AUTO 05007KT 10SM FEW050 SCT120 11/07 A3023 800 77 500 050/07 RMK AO2
94908KDBQ DBQ20100918221510709/18/10 22:15:31  5-MIN KDBQ 190415Z AUTO 05007KT 10SM FEW050 BKN120 11/07 A3023 790 77 500 050/07 RMK AO2
94908KDBQ DBQ20100918222010709/18/10 22:20:31  5-MIN KDBQ 190420Z AUTO 05006KT 10SM FEW050 BKN120 11/07 A3023 790 74 600 050/06 RMK AO2
94908KDBQ DBQ20100918222512309/18/10 22:25:31  5-MIN KDBQ 190425Z AUTO 04007KT 10SM -RA FEW050 BKN120 11/07 A3024 780 74 500 040/07 RMK AO2 RAB23 P0000
94908KDBQ DBQ20100918223014209/18/10 22:30:31  5-MIN KDBQ 190430Z AUTO 36006KT 10SM -RA FEW047 OVC120 11/07 A3027 760 80 400 360/06 RMK AO2 LTG DSNT SW RAB23 PRESRR P0000
94908KDBQ DBQ20100918223515509/18/10 22:35:31  5-MIN KDBQ 190435Z AUTO 03006KT 10SM -TSRA SCT049 SCT095 OVC120 11/08 A3025 770 83 500 030/06 RMK AO2 LTG DSNT SW AND W TSB33RAB23 P0000
94908KDBQ DBQ20100918224015009/18/10 22:40:31  5-MIN KDBQ 190440Z AUTO 05009KT 10SM -TSRA SCT049 BKN095 OVC120 11/08 A3024 790 83 500 050/09 RMK AO2 LTG DSNT S-W TSB33RAB23 P0001
94908KDBQ DBQ20100918224515209/18/10 22:45:31  5-MIN KDBQ 190445Z AUTO 05008KT 10SM -TSRA SCT049 BKN095 OVC110 11/07 A3024 790 80 500 050/08 RMK AO2 LTG DSNT ALQDS TSB33RAB23 P0001
94908KDBQ DBQ20100918225015309/18/10 22:50:31  5-MIN KDBQ 190450Z AUTO 01009KT 10SM -RA SCT049 BKN090 OVC120 11/08 A3025 770 83 500 010/09 RMK AO2 LTG DSNT ALQDS TSB33E50RAB23 P0001
94908KDBQ DBQ20100918225513209/18/10 22:55:31  5-MIN KDBQ 190455Z AUTO 36008KT 10SM -RA SCT049 OVC085 10/08 A3027 760 89 400 360/08 RMK AO2 LTG DSNT ALQDS P0000
94908KDBQ DBQ20100918230015009/18/10 23:00:31  5-MIN KDBQ 190500Z AUTO 02010KT 10SM VCTS -RA SCT049 BKN065 OVC085 10/08 A3026 770 86 400 020/10 RMK AO2 LTG DSNT ALQDS TSB00 P0000
94908KDBQ DBQ20100918230514309/18/10 23:05:31  5-MIN KDBQ 190505Z AUTO 05008KT 10SM VCTS -RA BKN060 OVC080 10/07 A3025 780 83 400 050/08 RMK AO2 LTG DSNT ALQDS TSB00 P0000
94908KDBQ DBQ20100918231014309/18/10 23:10:31  5-MIN KDBQ 190510Z AUTO 04004KT 10SM VCTS -RA BKN060 OVC080 10/07 A3025 780 83 400 040/04 RMK AO2 LTG DSNT ALQDS TSB00 P0000
94908KDBQ DBQ20100918231514709/18/10 23:15:31  5-MIN KDBQ 190515Z AUTO 02006KT 9SM VCTS -RA FEW049 BKN060 OVC080 10/07 A3025 780 83 400 020/06 RMK AO2 LTG DSNT E-S TSB00 P0001
94908KDBQ DBQ20100918232014809/18/10 23:20:31  5-MIN KDBQ 190520Z AUTO 05009KT 9SM VCTS -RA BKN060 OVC080 10/08 A3023 800 86 400 050/09 RMK AO2 LTG DSNT E-SW TSB00 PRESFR P0001
94908KDBQ DBQ20100918232515009/18/10 23:25:31  5-MIN KDBQ 190525Z AUTO 04009KT 9SM -RA BKN050 OVC060 10/08 A3023 800 86 400 040/09 RMK AO2 LTG DSNT E AND SW AND NW TSB00E22 P0002
94908KDBQ DBQ20100918233014509/18/10 23:30:31  5-MIN KDBQ 190530Z AUTO 01010KT 10SM -RA BKN044 OVC060 10/08 A3026 770 86 400 010/10 RMK AO2 LTG DSNT SW AND NW TSB00E22 P0002
94908KDBQ DBQ20100918233514109/18/10 23:35:31  5-MIN KDBQ 190535Z AUTO 02011KT 10SM -RA SCT042 OVC060 10/07 A3025 770 83 400 020/11 RMK AO2 LTG DSNT ALQDS TSB00E22 P0002
94908KDBQ DBQ20100918234014209/18/10 23:40:31  5-MIN KDBQ 190540Z AUTO 02009KT 10SM SCT044 OVC060 09/07 A3025 770 86 300 020/09 RMK AO2 LTG DSNT ALQDS TSB00E22RAE39 P0002
94908KDBQ DBQ20100918234514909/18/10 23:45:31  5-MIN KDBQ 190545Z AUTO 02009KT 10SM FEW033 SCT044 OVC055 09/07 A3025 770 86 300 020/09 RMK AO2 LTG DSNT ALQDS TSB00E22RAE39 P0002
94908KDBQ DBQ20100918235014509/18/10 23:50:31  5-MIN KDBQ 190550Z AUTO 03008KT 10SM VCTS SCT033 OVC050 09/07 A3024 780 86 300 030/08 RMK AO2 TSB00E22B47RAE39 P0002 401890094
94908KDBQ DBQ20100918235511909/18/10 23:55:31  5-MIN KDBQ 190555Z AUTO 06011KT 10SM VCTS FEW033 OVC060 09/08 A3021 810 89 400 060/11 RMK AO2 PRESFR
94908KDBQ DBQ20100919000013709/19/10 00:00:38  5-MIN KDBQ 190600Z AUTO 04010KT 10SM VCTS -RA FEW033 SCT055 OVC065 09/08 A3021 810 89 400 040/10 RMK AO2 RAB0556 P0000
94908KDBQ DBQ20100919000514909/19/10 00:05:31  5-MIN KDBQ 190605Z AUTO 05012KT 10SM VCTS -RA FEW033 OVC060 09/08 A3020 820 89 400 040/12 RMK AO2 LTG DSNT NE RAB0556 PRESFR P0000
94908KDBQ DBQ20100919001015009/19/10 00:10:31  5-MIN KDBQ 190610Z AUTO 08008KT 8SM VCTS RA FEW033 OVC050 09/08 A3018 840 89 400 070/08 RMK AO2 LTG DSNT NE-SE RAB0556 PRESFR P0001
94908KDBQ DBQ20100919001515109/19/10 00:15:33  5-MIN KDBQ 190615Z AUTO 34008KT 7SM -RA FEW031 OVC050 09/08 A3024 780 89 300 340/08 RMK AO2 LTG DSNT NE-SE TSE11RAB0556 PRESRR P0002
94908KDBQ DBQ20100919002016209/19/10 00:20:31  5-MIN KDBQ 190620Z AUTO 00000KT 9SM VCTS -RA FEW029 SCT046 OVC055 09/08 A3024 790 93 400 000/00 RMK AO2 LTG DSNT E AND SE TSE11B18RAB0556 P0002
94908KDBQ DBQ20100919002513809/19/10 00:25:31  5-MIN KDBQ 190625Z AUTO 05003KT 10SM VCTS -RA FEW029 OVC047 09/08 A3023 790 93 400 050/03 RMK AO2 TSE11B18RAB0556 P0003
94908KDBQ DBQ20100919003014409/19/10 00:30:31  5-MIN KDBQ 190630Z AUTO 06005KT 10SM VCTS FEW029 BKN043 OVC055 09/08 A3022 800 93 400 060/05 RMK AO2 TSE11B18RAB0556E30 P0003
94908KDBQ DBQ20100919003514209/19/10 00:35:31  5-MIN KDBQ 190635Z AUTO 02005KT 10SM FEW029 BKN043 OVC110 09/08 A3023 790 93 400 020/05 RMK AO2 TSE11B18E33RAB0556E30 P0003
94908KDBQ DBQ20100919004014309/19/10 00:40:31  5-MIN KDBQ 190640Z AUTO 03004KT 10SM -RA FEW029 BKN048 OVC110 09/08 A3023 790 93 400 030/04 RMK AO2 TSE11B18E33RAB0556 P0003
94908KDBQ DBQ20100919004514309/19/10 00:45:31  5-MIN KDBQ 190645Z AUTO 05008KT 10SM -RA FEW027 BKN070 OVC110 09/08 A3021 810 93 400 050/08 RMK AO2 TSE11B18E33RAB0556 P0003
94908KDBQ DBQ20100919005016009/19/10 00:50:31  5-MIN KDBQ 190650Z AUTO 07006KT 10SM -RA FEW044 SCT070 OVC110 09/08 A3019 830 93 400 070/06 RMK AO2 TSE11B18E33RAB0556 SLP225 P0003 T00940083
94908KDBQ DBQ20100919005513309/19/10 00:55:31  5-MIN KDBQ 190655Z AUTO 04007KT 010V080 10SM -RA BKN060 OVC110 09/08 A3022 800 93 400 040/07 010V080 RMK AO2 P0000
94908KDBQ DBQ20100919010011509/19/10 01:00:31  5-MIN KDBQ 190700Z AUTO 02005KT 8SM RA BKN060 OVC100 09/08 A3022 800 93 400 020/05 RMK AO2 P0000
94908KDBQ DBQ20100919010512309/19/10 01:05:31  5-MIN KDBQ 190705Z AUTO 04006KT 8SM -RA SCT055 BKN070 OVC110 09/08 A3021 810 93 400 040/06 RMK AO2 P0001
94908KDBQ DBQ20100919011012809/19/10 01:10:31  5-MIN KDBQ 190710Z AUTO 03005KT 10SM -RA BKN060 OVC110 09/08 A3022 810 93 400 030/05 RMK AO2 LTG DSNT W P0001
94908KDBQ DBQ20100919011513009/19/10 01:15:31  5-MIN KDBQ 190715Z AUTO 04006KT 10SM BKN065 OVC110 09/08 A3022 800 93 400 040/06 RMK AO2 LTG DSNT W RAE14 P0001
94908KDBQ DBQ20100919012013709/19/10 01:20:31  5-MIN KDBQ 190720Z AUTO 04006KT 10SM FEW050 BKN070 BKN120 09/08 A3021 810 93 400 040/06 RMK AO2 LTG DSNT W RAE14 P0001
94908KDBQ DBQ20100919012513709/19/10 01:25:31  5-MIN KDBQ 190725Z AUTO 04008KT 10SM FEW050 BKN070 OVC120 09/08 A3020 820 93 400 040/08 RMK AO2 LTG DSNT W RAE14 P0001
94908KDBQ DBQ20100919013013009/19/10 01:30:31  5-MIN KDBQ 190730Z AUTO 05008KT 10SM BKN070 OVC120 09/08 A3019 830 93 400 050/08 RMK AO2 LTG DSNT W RAE14 P0001
94908KDBQ DBQ20100919013512309/19/10 01:35:31  5-MIN KDBQ 190735Z AUTO 05007KT 10SM OVC070 09/08 A3019 830 89 400 050/07 RMK AO2 LTG DSNT W RAE14 P0001
94908KDBQ DBQ20100919014012309/19/10 01:40:31  5-MIN KDBQ 190740Z AUTO 05006KT 10SM OVC065 09/08 A3019 830 89 400 050/06 RMK AO2 LTG DSNT W RAE14 P0001
94908KDBQ DBQ20100919014512409/19/10 01:45:31  5-MIN KDBQ 190745Z AUTO 06004KT 10SM OVC070 09/08 A3020 820 89 400 050/04 RMK AO2 LTG DSNT SW RAE14 P0001
94908KDBQ DBQ20100919015013409/19/10 01:50:31  5-MIN KDBQ 190750Z AUTO 04003KT 10SM VCTS OVC070 09/08 A3021 810 89 400 040/03 RMK AO2 LTG DSNT SW TSB46RAE14 P0001
94908KDBQ DBQ20100919015512309/19/10 01:55:31  5-MIN KDBQ 190755Z AUTO 02006KT 10SM VCTS OVC070 09/08 A3022 810 89 400 010/06 RMK AO2 LTG DSNT S AND SW
94908KDBQ DBQ20100919020012309/19/10 02:00:31  5-MIN KDBQ 190800Z AUTO 03007KT 10SM VCTS BKN070 OVC095 09/08 A3020 820 93 400 030/07 RMK AO2 LTG DSNT S
94908KDBQ DBQ20100919020513109/19/10 02:05:31  5-MIN KDBQ 190805Z AUTO 03008KT 10SM BKN070 OVC100 09/08 A3020 820 93 400 030/08 RMK AO2 LTG DSNT SE AND S TSE05
94908KDBQ DBQ20100919021013909/19/10 02:10:31  5-MIN KDBQ 190810Z AUTO 04005KT 10SM VCTS SCT070 OVC095 09/08 A3020 820 93 400 040/05 RMK AO2 LTG DSNT SE AND W TSE05B10
94908KDBQ DBQ20100919021515609/19/10 02:15:31  5-MIN KDBQ 190815Z AUTO 05008KT 9SM VCTS -RA FEW050 SCT070 OVC095 09/08 A3019 830 93 400 050/08 RMK AO2 LTG DSNT SE-W TSE05B10RAB11 P0000
94908KDBQ DBQ20100919022016809/19/10 02:20:31  5-MIN KDBQ 190820Z AUTO 03009G16KT 5SM VCTS RA BR SCT035 BKN070 OVC095 09/08 A3020 820 93 400 030/09G16 RMK AO2 LTG DSNT SW AND W TSE05B10RAB11 P0001
94908KDBQ DBQ20100919022516909/19/10 02:25:31  5-MIN KDBQ 190825Z AUTO 04007G16KT 5SM VCTS -RA BR FEW032 SCT065 OVC090 09/08 A3020 820 93 400 040/07G16 RMK AO2 LTG DSNT SW AND W TSE05B10RAB11 P0003
94908KDBQ DBQ20100919023016009/19/10 02:30:31  5-MIN KDBQ 190830Z AUTO 03006KT 8SM VCTS -RA FEW034 SCT060 OVC090 09/08 A3020 820 93 400 030/06 RMK AO2 LTG DSNT SW AND W TSE05B10RAB11 P0003
94908KDBQ DBQ20100919023515209/19/10 02:35:31  5-MIN KDBQ 190835Z AUTO 04008KT 10SM FEW034 SCT055 OVC090 09/08 A3019 830 93 400 040/08 RMK AO2 LTG DSNT SW TSE05B10E31RAB11E34 P0003
94908KDBQ DBQ20100919024015309/19/10 02:40:31  5-MIN KDBQ 190840Z AUTO 03008KT 10SM -RA FEW034 SCT080 OVC090 09/08 A3020 820 93 400 030/08 RMK AO2 LTG DSNT SW TSE05B10E31RAB11 P0003
94908KDBQ DBQ20100919024514109/19/10 02:45:31  5-MIN KDBQ 190845Z AUTO 03008KT 10SM -RA FEW025 BKN075 OVC090 09/08 A3020 820 93 400 030/08 RMK AO2 TSE05B10E31RAB11 P0004
94908KDBQ DBQ20100919025017009/19/10 02:50:31  5-MIN KDBQ 190850Z AUTO 03011KT 10SM -RA FEW060 BKN075 OVC095 09/08 A3020 820 93 400 030/11 RMK AO2 TSE05B10E31RAB11 SLP229 P0004 60009 T00940083 50009
94908KDBQ DBQ20100919025512409/19/10 02:55:31  5-MIN KDBQ 190855Z AUTO 06008KT 10SM -RA FEW055 BKN075 OVC095 09/09 A3019 830 96 400 060/08 RMK AO2 P0000
94908KDBQ DBQ20100919030013909/19/10 03:00:31  5-MIN KDBQ 190900Z AUTO 04007KT 10SM FEW060 BKN075 OVC095 09/09 A3020 820 96 400 040/07 RMK AO2 LTG DSNT S RAE0857 P0000
94908KDBQ DBQ20100919030513909/19/10 03:05:31  5-MIN KDBQ 190905Z AUTO 06008KT 10SM SCT060 BKN075 OVC095 09/09 A3020 820 96 400 050/08 RMK AO2 LTG DSNT S RAE0857 P0000
94908KDBQ DBQ20100919031013909/19/10 03:10:31  5-MIN KDBQ 190910Z AUTO 04007KT 10SM FEW060 BKN080 OVC100 09/09 A3020 820 96 400 040/07 RMK AO2 LTG DSNT S RAE0857 P0000
94908KDBQ DBQ20100919031512809/19/10 03:15:31  5-MIN KDBQ 190915Z AUTO 02008KT 10SM FEW021 BKN080 OVC100 09/09 A3021 810 96 400 020/08 RMK AO2 RAE0857 P0000
94908KDBQ DBQ20100919032012809/19/10 03:20:31  5-MIN KDBQ 190920Z AUTO 03009KT 10SM SCT019 BKN060 OVC095 09/09 A3020 820 96 400 030/09 RMK AO2 RAE0857 P0000
94908KDBQ DBQ20100919032512809/19/10 03:25:31  5-MIN KDBQ 190925Z AUTO 05010KT 10SM SCT014 BKN023 OVC100 09/09 A3020 820 96 400 050/10 RMK AO2 RAE0857 P0000
94908KDBQ DBQ20100919033012809/19/10 03:30:31  5-MIN KDBQ 190930Z AUTO 04009KT 10SM BKN014 BKN060 OVC100 09/09 A3020 820 96 400 030/09 RMK AO2 RAE0857 P0000
94908KDBQ DBQ20100919033512109/19/10 03:35:31  5-MIN KDBQ 190935Z AUTO 04008KT 10SM BKN014 OVC080 09/08 A3021 820 93 400 040/08 RMK AO2 RAE0857 P0000
94908KDBQ DBQ20100919034012109/19/10 03:40:31  5-MIN KDBQ 190940Z AUTO 03005KT 10SM BKN014 OVC023 09/08 A3021 810 93 400 030/05 RMK AO2 RAE0857 P0000
94908KDBQ DBQ20100919034511409/19/10 03:45:31  5-MIN KDBQ 190945Z AUTO 04008KT 10SM OVC014 09/08 A3021 810 89 400 040/08 RMK AO2 RAE0857 P0000
94908KDBQ DBQ20100919035013109/19/10 03:50:31  5-MIN KDBQ 190950Z AUTO 05007KT 10SM OVC014 09/08 A3021 810 89 400 050/07 RMK AO2 RAE0857 SLP233 P0000 T00940078
94908KDBQ DBQ20100919035510009/19/10 03:55:31  5-MIN KDBQ 190955Z AUTO 03007KT 10SM OVC014 09/08 A3022 810 89 400 030/07 RMK AO2
94908KDBQ DBQ20100919040010009/19/10 04:00:31  5-MIN KDBQ 191000Z AUTO 04008KT 10SM OVC014 09/08 A3021 810 89 400 040/08 RMK AO2
94908KDBQ DBQ20100919040510009/19/10 04:05:31  5-MIN KDBQ 191005Z AUTO 04008KT 10SM OVC014 09/08 A3020 820 89 400 040/08 RMK AO2
94908KDBQ DBQ20100919041010009/19/10 04:10:31  5-MIN KDBQ 191010Z AUTO 05009KT 10SM OVC014 09/08 A3020 820 93 400 050/09 RMK AO2
94908KDBQ DBQ20100919041510009/19/10 04:15:31  5-MIN KDBQ 191015Z AUTO 04009KT 10SM OVC014 09/08 A3020 820 89 400 040/09 RMK AO2
94908KDBQ DBQ20100919042010009/19/10 04:20:31  5-MIN KDBQ 191020Z AUTO 06008KT 10SM OVC014 09/08 A3021 820 89 400 060/08 RMK AO2
94908KDBQ DBQ20100919042510009/19/10 04:25:31  5-MIN KDBQ 191025Z AUTO 04007KT 10SM OVC014 09/08 A3021 810 89 400 040/07 RMK AO2
94908KDBQ DBQ20100919043010009/19/10 04:30:31  5-MIN KDBQ 191030Z AUTO 03007KT 10SM OVC014 09/08 A3021 810 89 400 030/07 RMK AO2
94908KDBQ DBQ20100919043510009/19/10 04:35:31  5-MIN KDBQ 191035Z AUTO 02006KT 10SM OVC014 09/08 A3022 800 93 400 020/06 RMK AO2
94908KDBQ DBQ20100919044010709/19/10 04:40:31  5-MIN KDBQ 191040Z AUTO 01005KT 10SM OVC014 09/08 A3023 800 93 400 010/05 RMK AO2 PRESRR
94908KDBQ DBQ20100919044509509/19/10 04:45:31  5-MIN KDBQ 191045Z 05010KT 10SM OVC014 09/08 A3020 820 93 400 050/10 RMK AO2
94908KDBQ DBQ20100919045011209/19/10 04:50:31  5-MIN KDBQ 191050Z 05009KT 10SM OVC014 09/08 A3020 820 93 400 050/09 RMK AO2 SLP231 T00940083
94908KDBQ DBQ20100919045509509/19/10 04:55:31  5-MIN KDBQ 191055Z 05007KT 10SM OVC012 09/08 A3021 810 93 400 050/07 RMK AO2
94908KDBQ DBQ20100919050011109/19/10 05:00:31  5-MIN KDBQ 191100Z 03010KT 8SM RA OVC012 09/08 A3021 810 89 400 030/10 RMK AO2 RAB1057 P0001
94908KDBQ DBQ20100919050511209/19/10 05:05:31  5-MIN KDBQ 191105Z 06008KT 8SM -RA OVC012 09/08 A3020 820 93 400 050/08 RMK AO2 RAB1057 P0001
94908KDBQ DBQ20100919051011309/19/10 05:10:31  5-MIN KDBQ 191110Z 05007KT 10SM -RA OVC012 09/08 A3021 810 93 400 050/07 RMK AO2 RAB1057 P0001
94908KDBQ DBQ20100919051511209/19/10 05:15:31  5-MIN KDBQ 191115Z 03011KT 10SM OVC012 09/08 A3021 810 93 400 030/11 RMK AO2 RAB1057E12 P0001
94908KDBQ DBQ20100919052011209/19/10 05:20:31  5-MIN KDBQ 191120Z 02009KT 10SM OVC014 09/08 A3023 800 93 400 020/09 RMK AO2 RAB1057E12 P0001
94908KDBQ DBQ20100919052511209/19/10 05:25:31  5-MIN KDBQ 191125Z 03011KT 10SM OVC014 09/08 A3022 810 93 400 030/11 RMK AO2 RAB1057E12 P0001
94908KDBQ DBQ20100919053013809/19/10 05:30:31  5-MIN KDBQ 191130Z 05010KT 4SM R36/6000VP6000FT +RA BR OVC014 09/08 A3021 810 93 400 050/10 RMK AO2 RAB1057E12B29 P0002
94908KDBQ DBQ20100919053513709/19/10 05:35:31  5-MIN KDBQ 191135Z 04011KT 3SM R36/6000VP6000FT RA BR OVC014 09/08 A3022 800 93 400 040/11 RMK AO2 RAB1057E12B29 P0008
94908KDBQ DBQ20100919054013409/19/10 05:40:31  5-MIN KDBQ 191140Z 04011KT 4SM RA BR BKN014 BKN022 OVC075 09/08 A3021 810 93 400 040/11 RMK AO2 RAB1057E12B29 P0009
94908KDBQ DBQ20100919054513409/19/10 05:45:31  5-MIN KDBQ 191145Z 06010KT 5SM RA BR BKN014 BKN022 OVC070 09/08 A3020 820 93 400 060/10 RMK AO2 RAB1057E12B29 P0010
94908KDBQ DBQ20100919055017509/19/10 05:50:31  5-MIN KDBQ 191150Z 05010KT 6SM -RA BR SCT016 OVC070 09/08 A3020 820 93 400 050/10 RMK AO2 RAB1057E12B29 SLP230 P0011 60020 70035 T00940083 10094 20094 50002
94908KDBQ DBQ20100919055511209/19/10 05:55:31  5-MIN KDBQ 191155Z 04010KT 10SM -RA BKN016 OVC070 09/08 A3020 820 93 400 040/10 RMK AO2 P0000
94908KDBQ DBQ20100919060011409/19/10 06:00:31  5-MIN KDBQ 191200Z 05011KT 10SM BKN016 OVC070 09/08 A3020 820 93 400 050/11 RMK AO2 RAE00 P0000
94908KDBQ DBQ20100919060511409/19/10 06:05:31  5-MIN KDBQ 191205Z 04010KT 10SM BKN016 OVC070 09/08 A3020 820 93 400 040/10 RMK AO2 RAE00 P0000
94908KDBQ DBQ20100919061012109/19/10 06:10:31  5-MIN KDBQ 191210Z 04010KT 10SM BKN016 BKN070 OVC080 09/08 A3021 820 93 400 040/10 RMK AO2 RAE00 P0000
94908KDBQ DBQ20100919061512109/19/10 06:15:31  5-MIN KDBQ 191215Z 04008KT 10SM BKN016 BKN065 OVC080 09/08 A3021 810 93 400 040/08 RMK AO2 RAE00 P0000
94908KDBQ DBQ20100919062012109/19/10 06:20:31  5-MIN KDBQ 191220Z 06008KT 10SM BKN016 BKN065 OVC080 09/08 A3021 810 93 400 060/08 RMK AO2 RAE00 P0000
94908KDBQ DBQ20100919062512109/19/10 06:25:31  5-MIN KDBQ 191225Z 04009KT 10SM BKN016 BKN065 OVC080 09/08 A3021 810 93 400 040/09 RMK AO2 RAE00 P0000
94908KDBQ DBQ20100919063012109/19/10 06:30:31  5-MIN KDBQ 191230Z 04008KT 10SM BKN016 BKN021 OVC080 09/08 A3021 810 93 400 040/08 RMK AO2 RAE00 P0000
94908KDBQ DBQ20100919063512109/19/10 06:35:31  5-MIN KDBQ 191235Z 04008KT 10SM BKN016 BKN065 OVC080 10/08 A3022 800 89 400 040/08 RMK AO2 RAE00 P0000
94908KDBQ DBQ20100919064011409/19/10 06:40:31  5-MIN KDBQ 191240Z 06008KT 10SM BKN016 OVC065 10/08 A3021 810 89 400 060/08 RMK AO2 RAE00 P0000
94908KDBQ DBQ20100919064511409/19/10 06:45:31  5-MIN KDBQ 191245Z 06008KT 10SM BKN016 OVC027 10/08 A3021 810 89 400 060/08 RMK AO2 RAE00 P0000
94908KDBQ DBQ20100919065013109/19/10 06:50:31  5-MIN KDBQ 191250Z 04007KT 10SM BKN016 OVC027 10/08 A3021 810 89 400 040/07 RMK AO2 RAE00 SLP235 P0000 T01000083
94908KDBQ DBQ20100919065509509/19/10 06:55:31  5-MIN KDBQ 191255Z 06006KT 10SM OVC016 10/08 A3021 810 89 400 060/06 RMK AO2
94908KDBQ DBQ20100919070009509/19/10 07:00:31  5-MIN KDBQ 191300Z 07007KT 10SM OVC018 10/08 A3021 810 89 400 070/07 RMK AO2
94908KDBQ DBQ20100919070509509/19/10 07:05:31  5-MIN KDBQ 191305Z 04007KT 10SM OVC018 10/08 A3022 800 89 400 030/07 RMK AO2
94908KDBQ DBQ20100919071009509/19/10 07:10:31  5-MIN KDBQ 191310Z 04007KT 10SM OVC018 10/08 A3022 800 89 400 030/07 RMK AO2
94908KDBQ DBQ20100919071509509/19/10 07:15:31  5-MIN KDBQ 191315Z 03004KT 10SM OVC018 10/08 A3022 800 89 400 030/04 RMK AO2
94908KDBQ DBQ20100919072009509/19/10 07:20:31  5-MIN KDBQ 191320Z 04004KT 10SM OVC018 10/08 A3022 800 89 400 040/04 RMK AO2
94908KDBQ DBQ20100919072509509/19/10 07:25:31  5-MIN KDBQ 191325Z 04006KT 10SM OVC018 10/08 A3022 800 89 400 040/06 RMK AO2
94908KDBQ DBQ20100919073009509/19/10 07:30:31  5-MIN KDBQ 191330Z 04007KT 10SM OVC018 10/09 A3022 800 93 400 030/07 RMK AO2
94908KDBQ DBQ20100919073511009/19/10 07:35:31  5-MIN KDBQ 191335Z 03007KT 9SM -RA OVC018 10/09 A3022 800 93 400 030/07 RMK AO2 RAB32 P0000
94908KDBQ DBQ20100919074011009/19/10 07:40:31  5-MIN KDBQ 191340Z 04007KT 7SM -RA OVC018 10/09 A3022 800 93 400 040/07 RMK AO2 RAB32 P0000
94908KDBQ DBQ20100919074511009/19/10 07:45:31  5-MIN KDBQ 191345Z 05007KT 7SM -RA OVC018 10/09 A3021 810 93 400 050/07 RMK AO2 RAB32 P0000
94908KDBQ DBQ20100919075012709/19/10 07:50:31  5-MIN KDBQ 191350Z 05005KT 8SM -RA OVC018 10/09 A3022 800 93 400 050/05 RMK AO2 RAB32 SLP236 P0001 T01000089
94908KDBQ DBQ20100919075510009/19/10 07:55:31  5-MIN KDBQ 191355Z 04007KT 8SM OVC018 10/09 A3022 800 93 400 040/07 RMK AO2 RAE54
94908KDBQ DBQ20100919080010209/19/10 08:00:31  5-MIN KDBQ 191400Z 03007KT 9SM OVC018 10/09 A3022 800 93 400 030/07 RMK AO2 RAE1354
94908KDBQ DBQ20100919080510309/19/10 08:05:31  5-MIN KDBQ 191405Z 03008KT 10SM OVC020 10/09 A3022 800 93 400 030/08 RMK AO2 RAE1354
94908KDBQ DBQ20100919081010309/19/10 08:10:31  5-MIN KDBQ 191410Z 03010KT 10SM OVC020 10/09 A3022 800 93 400 030/10 RMK AO2 RAE1354
94908KDBQ DBQ20100919081510209/19/10 08:15:31  5-MIN KDBQ 191415Z 04009KT 9SM OVC020 10/09 A3022 800 93 400 040/09 RMK AO2 RAE1354
94908KDBQ DBQ20100919082011509/19/10 08:20:31  5-MIN KDBQ 191420Z 04009KT 7SM -RA OVC020 10/09 A3022 810 93 400 040/09 RMK AO2 RAE1354B20 P0000
94908KDBQ DBQ20100919082511509/19/10 08:25:31  5-MIN KDBQ 191425Z 04010KT 7SM -RA OVC020 10/09 A3022 800 93 400 040/10 RMK AO2 RAE1354B20 P0000
94908KDBQ DBQ20100919083011409/19/10 08:30:31  5-MIN KDBQ 191430Z 03007KT 8SM OVC020 10/09 A3022 800 93 400 030/07 RMK AO2 RAE1354B20E26 P0000
94908KDBQ DBQ20100919083511509/19/10 08:35:31  5-MIN KDBQ 191435Z 03008KT 7SM -RA OVC020 10/09 A3023 790 93 400 030/08 RMK AO2 RAE1354B20 P0000
94908KDBQ DBQ20100919084011809/19/10 08:40:31  5-MIN KDBQ 191440Z 04010KT 5SM -RA BR OVC020 10/08 A3023 800 89 400 040/10 RMK AO2 RAE1354B20 P0000
94908KDBQ DBQ20100919084511809/19/10 08:45:31  5-MIN KDBQ 191445Z 03008KT 4SM -RA BR OVC020 10/09 A3023 790 93 400 030/08 RMK AO2 RAE1354B20 P0001
94908KDBQ DBQ20100919085014709/19/10 08:50:31  5-MIN KDBQ 191450Z 03010KT 5SM -RA BR OVC020 10/09 A3023 790 93 400 030/10 RMK AO2 RAE1354B20 SLP242 P0001 60002 T01000089 51004
94908KDBQ DBQ20100919085512409/19/10 08:55:31  5-MIN KDBQ 191455Z 04009KT 4SM R36/6000VP6000FT -RA BR OVC020 10/09 A3023 790 93 400 040/09 RMK AO2 P0000
94908KDBQ DBQ20100919090012409/19/10 09:00:31  5-MIN KDBQ 191500Z 04008KT 3SM R36/6000VP6000FT -RA BR OVC020 10/09 A3023 790 93 400 040/08 RMK AO2 P0000
94908KDBQ DBQ20100919090512609/19/10 09:05:31  5-MIN KDBQ 191505Z 04009KT 3SM R36/6000VP6000FT BR OVC020 10/09 A3023 790 93 400 040/09 RMK AO2 RAE05 P0001
94908KDBQ DBQ20100919091011309/19/10 09:10:31  5-MIN KDBQ 191510Z 03011KT 2 1/2SM BR OVC020 10/09 A3023 790 93 400 030/11 RMK AO2 RAE05 P0001
94908KDBQ DBQ20100919091511309/19/10 09:15:31  5-MIN KDBQ 191515Z 03010KT 2 1/2SM BR OVC020 10/09 A3023 790 93 400 030/10 RMK AO2 RAE05 P0001
94908KDBQ DBQ20100919092010909/19/10 09:20:31  5-MIN KDBQ 191520Z 03009KT 3SM BR OVC020 10/09 A3023 790 93 400 030/09 RMK AO2 RAE05 P0001
94908KDBQ DBQ20100919092510909/19/10 09:25:31  5-MIN KDBQ 191525Z 04008KT 4SM BR OVC020 10/09 A3023 790 93 400 040/08 RMK AO2 RAE05 P0001
94908KDBQ DBQ20100919093010909/19/10 09:30:31  5-MIN KDBQ 191530Z 04009KT 3SM BR OVC020 10/09 A3023 790 93 400 040/09 RMK AO2 RAE05 P0001
94908KDBQ DBQ20100919093510909/19/10 09:35:31  5-MIN KDBQ 191535Z 03008KT 3SM BR OVC020 10/09 A3023 790 96 400 030/08 RMK AO2 RAE05 P0001
94908KDBQ DBQ20100919094011609/19/10 09:40:31  5-MIN KDBQ 191540Z 04008KT 3SM BR FEW005 OVC020 10/09 A3023 790 96 400 030/08 RMK AO2 RAE05 P0001
94908KDBQ DBQ20100919094511609/19/10 09:45:31  5-MIN KDBQ 191545Z 04009KT 3SM BR SCT005 OVC020 10/09 A3023 790 96 400 040/09 RMK AO2 RAE05 P0001
94908KDBQ DBQ20100919095013209/19/10 09:50:31  5-MIN KDBQ 191550Z 04009KT 2 1/2SM BR BKN003 OVC020 10/09 A3023 800 96 400 040/09 RMK AO2 RAE05 CIG 002V007 P0001
94908KDBQ DBQ20100919095511609/19/10 09:55:31  5-MIN KDBQ 191555Z 04010KT 3SM BR BKN003 OVC020 10/09 A3023 800 93 400 040/10 RMK AO2 CIG 002V007
94908KDBQ DBQ20100919100011609/19/10 10:00:31  5-MIN KDBQ 191600Z 05009KT 5SM BR BKN003 OVC020 10/09 A3023 800 93 400 050/09 RMK AO2 CIG 002V007
94908KDBQ DBQ20100919100511609/19/10 10:05:31  5-MIN KDBQ 191605Z 05009KT 5SM BR BKN005 OVC018 10/09 A3023 800 93 400 040/09 RMK AO2 CIG 002V009
94908KDBQ DBQ20100919101012209/19/10 10:10:31  5-MIN KDBQ 191610Z 04008KT 4SM BR BKN005 OVC018 10/09 A3023 790 96 400 040/08 RMK AO2 CIG 002V009 P0001
94908KDBQ DBQ20100919101512209/19/10 10:15:31  5-MIN KDBQ 191615Z 04008KT 4SM BR BKN003 OVC018 10/09 A3023 790 96 400 040/08 RMK AO2 CIG 002V009 P0001
94908KDBQ DBQ20100919102012209/19/10 10:20:31  5-MIN KDBQ 191620Z 04009KT 4SM BR BKN005 OVC018 10/09 A3023 790 96 400 040/09 RMK AO2 CIG 002V009 P0001
94908KDBQ DBQ20100919102512209/19/10 10:25:31  5-MIN KDBQ 191625Z 04008KT 4SM BR BKN005 OVC018 10/09 A3023 790 96 400 040/08 RMK AO2 CIG 002V009 P0001
94908KDBQ DBQ20100919103012209/19/10 10:30:31  5-MIN KDBQ 191630Z 04006KT 3SM BR BKN005 OVC018 10/09 A3023 790 96 400 040/06 RMK AO2 CIG 002V008 P0001
94908KDBQ DBQ20100919103512209/19/10 10:35:31  5-MIN KDBQ 191635Z 04008KT 4SM BR BKN005 OVC018 10/09 A3023 790 96 400 040/08 RMK AO2 CIG 002V007 P0001
94908KDBQ DBQ20100919104011509/19/10 10:40:31  5-MIN KDBQ 191640Z 04009KT 4SM BR OVC005 10/09 A3023 790 96 400 040/09 RMK AO2 CIG 002V007 P0001
94908KDBQ DBQ20100919104512009/19/10 10:45:31  5-MIN KDBQ 191645Z 05011KT 3SM -RA BR BKN003 OVC006 10/09 A3023 800 96 400 040/11 RMK AO2 RAB44 P0001
94908KDBQ DBQ20100919105013209/19/10 10:50:31  5-MIN KDBQ 191650Z 04010KT 3SM -RA BR BKN003 OVC017 10/09 A3023 800 96 400 040/10 RMK AO2 RAB44 CIG 002V007 P0001
94908KDBQ DBQ20100919105512209/19/10 10:55:31  5-MIN KDBQ 191655Z 04010KT 4SM BR BKN003 OVC017 10/09 A3022 800 96 400 040/10 RMK AO2 RAE54 CIG 002V007
94908KDBQ DBQ20100919110011209/19/10 11:00:31  5-MIN KDBQ 191700Z 05009KT 4SM BR BKN003 OVC017 10/09 A3022 800 96 400 040/09 RMK AO2 RAE1654
94908KDBQ DBQ20100919110511209/19/10 11:05:31  5-MIN KDBQ 191705Z 05010KT 6SM BR BKN003 OVC017 10/09 A3022 800 96 400 050/10 RMK AO2 RAE1654
94908KDBQ DBQ20100919111010909/19/10 11:10:31  5-MIN KDBQ 191710Z 05007KT 8SM SCT003 OVC017 10/09 A3022 800 96 400 050/07 RMK AO2 RAE1654
94908KDBQ DBQ20100919111511009/19/10 11:15:31  5-MIN KDBQ 191715Z 05008KT 10SM BKN003 OVC017 10/09 A3023 800 96 400 050/08 RMK AO2 RAE1654
94908KDBQ DBQ20100919112010909/19/10 11:20:31  5-MIN KDBQ 191720Z 05007KT 8SM FEW003 OVC017 11/09 A3023 800 93 500 040/07 RMK AO2 RAE1654
94908KDBQ DBQ20100919112511209/19/10 11:25:31  5-MIN KDBQ 191725Z 05008KT 6SM BR FEW003 OVC017 10/09 A3023 790 96 400 040/08 RMK AO2 RAE1654
94908KDBQ DBQ20100919113011809/19/10 11:30:31  5-MIN KDBQ 191730Z 04008KT 5SM BR SCT003 OVC017 10/09 A3023 790 96 400 040/08 RMK AO2 RAE1654 P0001
94908KDBQ DBQ20100919113511809/19/10 11:35:31  5-MIN KDBQ 191735Z 04007KT 4SM BR SCT003 OVC017 10/09 A3023 790 96 400 040/07 RMK AO2 RAE1654 P0001
94908KDBQ DBQ20100919114011809/19/10 11:40:31  5-MIN KDBQ 191740Z 05007KT 3SM BR SCT003 OVC017 10/09 A3023 790 96 400 040/07 RMK AO2 RAE1654 P0001
94908KDBQ DBQ20100919114513009/19/10 11:45:31  5-MIN KDBQ 191745Z 04008KT 3SM BR BKN003 OVC017 10/09 A3023 790 96 400 040/08 RMK AO2 RAE1654 CIG 002V006 P0001
94908KDBQ DBQ20100919115017509/19/10 11:50:31  5-MIN KDBQ 191750Z 04008KT 2 1/2SM BR BKN003 OVC019 11/10 A3023 800 96 500 040/08 RMK AO2 RAE1654 CIG 002V006 SLP240 P0001 60005 T01060100 10106 20094 53009
94908KDBQ DBQ20100919115512109/19/10 11:55:31  5-MIN KDBQ 191755Z 05008KT 2SM R36/6000VP6000FT BR BKN003 OVC019 11/10 A3022 800 96 500 050/08 RMK AO2
94908KDBQ DBQ20100919120012109/19/10 12:00:31  5-MIN KDBQ 191800Z 05008KT 2SM R36/6000VP6000FT BR BKN003 OVC019 11/10 A3022 800 96 500 050/08 RMK AO2
94908KDBQ DBQ20100919120512109/19/10 12:05:31  5-MIN KDBQ 191805Z 04008KT 2SM R36/6000VP6000FT BR BKN003 OVC019 11/10 A3022 800 96 500 040/08 RMK AO2
94908KDBQ DBQ20100919121011609/19/10 12:10:31  5-MIN KDBQ 191810Z 04008KT 2SM BR BKN003 OVC019 11/10 A3022 800 96 500 040/08 RMK AO2 CIG 002V006
94908KDBQ DBQ20100919200010009/19/10 20:00:31  5-MIN KDBQ 200200Z AUTO 04007KT 10SM OVC019 11/10 A3016 850 93 600 040/07 RMK AO2
94908KDBQ DBQ20100919200510009/19/10 20:05:31  5-MIN KDBQ 200205Z AUTO 04006KT 10SM OVC019 11/10 A3016 850 93 600 040/06 RMK AO2
94908KDBQ DBQ20100919201010009/19/10 20:10:31  5-MIN KDBQ 200210Z AUTO 05007KT 10SM OVC021 11/10 A3016 850 93 600 040/07 RMK AO2
94908KDBQ DBQ20100919201510009/19/10 20:15:31  5-MIN KDBQ 200215Z AUTO 05008KT 10SM OVC021 11/10 A3016 860 93 600 050/08 RMK AO2
94908KDBQ DBQ20100919202010009/19/10 20:20:31  5-MIN KDBQ 200220Z AUTO 05006KT 10SM OVC021 11/10 A3016 860 93 600 050/06 RMK AO2
94908KDBQ DBQ20100919202510009/19/10 20:25:31  5-MIN KDBQ 200225Z AUTO 06006KT 10SM OVC021 11/10 A3016 860 93 600 050/06 RMK AO2
94908KDBQ DBQ20100919203010009/19/10 20:30:31  5-MIN KDBQ 200230Z AUTO 06007KT 10SM OVC021 11/10 A3016 850 93 600 050/07 RMK AO2
94908KDBQ DBQ20100919203510009/19/10 20:35:31  5-MIN KDBQ 200235Z AUTO 05006KT 10SM OVC021 12/10 A3016 860 89 700 050/06 RMK AO2
94908KDBQ DBQ20100919204010009/19/10 20:40:31  5-MIN KDBQ 200240Z AUTO 06006KT 10SM OVC021 12/10 A3016 860 89 700 060/06 RMK AO2
94908KDBQ DBQ20100919204510009/19/10 20:45:31  5-MIN KDBQ 200245Z AUTO 06006KT 10SM OVC021 12/10 A3016 860 89 700 060/06 RMK AO2
94908KDBQ DBQ20100919205012309/19/10 20:50:31  5-MIN KDBQ 200250Z AUTO 05006KT 10SM OVC021 12/10 A3016 860 89 700 050/06 RMK AO2 SLP216 T01170100 58007
94908KDBQ DBQ20100919205510009/19/10 20:55:31  5-MIN KDBQ 200255Z AUTO 06006KT 10SM OVC021 12/10 A3016 860 89 700 060/06 RMK AO2
94908KDBQ DBQ20100919210010009/19/10 21:00:31  5-MIN KDBQ 200300Z AUTO 06006KT 10SM OVC021 12/10 A3016 860 89 700 060/06 RMK AO2
94908KDBQ DBQ20100919210510009/19/10 21:05:31  5-MIN KDBQ 200305Z AUTO 05006KT 10SM OVC021 12/10 A3015 860 89 700 050/06 RMK AO2
94908KDBQ DBQ20100919211010009/19/10 21:10:31  5-MIN KDBQ 200310Z AUTO 06007KT 10SM OVC021 12/10 A3015 870 89 700 060/07 RMK AO2
94908KDBQ DBQ20100919211510009/19/10 21:15:31  5-MIN KDBQ 200315Z AUTO 06006KT 10SM OVC021 12/10 A3015 860 89 700 060/06 RMK AO2
94908KDBQ DBQ20100919212010009/19/10 21:20:31  5-MIN KDBQ 200320Z AUTO 05006KT 10SM OVC021 12/10 A3016 860 89 700 050/06 RMK AO2
94908KDBQ DBQ20100919212510009/19/10 21:25:31  5-MIN KDBQ 200325Z AUTO 05006KT 10SM OVC021 12/10 A3015 860 89 700 050/06 RMK AO2
94908KDBQ DBQ20100919213010009/19/10 21:30:31  5-MIN KDBQ 200330Z AUTO 06006KT 10SM OVC021 12/10 A3015 860 89 700 060/06 RMK AO2
94908KDBQ DBQ20100919213510009/19/10 21:35:31  5-MIN KDBQ 200335Z AUTO 04006KT 10SM OVC021 12/11 A3016 860 93 700 040/06 RMK AO2
94908KDBQ DBQ20100919214010009/19/10 21:40:31  5-MIN KDBQ 200340Z AUTO 05006KT 10SM OVC021 12/11 A3016 860 93 700 050/06 RMK AO2
94908KDBQ DBQ20100919214510009/19/10 21:45:31  5-MIN KDBQ 200345Z AUTO 05005KT 10SM OVC021 12/11 A3016 860 93 700 050/05 RMK AO2
94908KDBQ DBQ20100919215011709/19/10 21:50:31  5-MIN KDBQ 200350Z AUTO 05006KT 10SM OVC023 12/11 A3016 860 93 700 050/06 RMK AO2 SLP216 T01170106
94908KDBQ DBQ20100919215510009/19/10 21:55:31  5-MIN KDBQ 200355Z AUTO 06006KT 10SM OVC023 12/11 A3016 860 93 700 060/06 RMK AO2
94908KDBQ DBQ20100919220010009/19/10 22:00:31  5-MIN KDBQ 200400Z AUTO 06006KT 10SM OVC023 12/11 A3016 860 93 700 060/06 RMK AO2
94908KDBQ DBQ20100919220510009/19/10 22:05:31  5-MIN KDBQ 200405Z AUTO 07005KT 10SM OVC023 12/11 A3016 860 93 700 070/05 RMK AO2
94908KDBQ DBQ20100919221010009/19/10 22:10:31  5-MIN KDBQ 200410Z AUTO 06005KT 10SM OVC023 12/11 A3016 860 93 700 060/05 RMK AO2
94908KDBQ DBQ20100919221510009/19/10 22:15:31  5-MIN KDBQ 200415Z AUTO 06006KT 10SM OVC023 12/11 A3015 860 93 700 060/06 RMK AO2
94908KDBQ DBQ20100919222010009/19/10 22:20:31  5-MIN KDBQ 200420Z AUTO 07006KT 10SM OVC023 12/11 A3015 860 93 700 070/06 RMK AO2
94908KDBQ DBQ20100919222510009/19/10 22:25:31  5-MIN KDBQ 200425Z AUTO 07005KT 10SM OVC023 12/11 A3015 870 93 700 070/05 RMK AO2
94908KDBQ DBQ20100919223010709/19/10 22:30:31  5-MIN KDBQ 200430Z AUTO 07005KT 10SM BKN023 OVC055 12/11 A3015 860 93 700 070/05 RMK AO2
94908KDBQ DBQ20100919223510709/19/10 22:35:31  5-MIN KDBQ 200435Z AUTO 05005KT 10SM BKN023 OVC055 12/11 A3016 860 93 700 050/05 RMK AO2
94908KDBQ DBQ20100919224010009/19/10 22:40:31  5-MIN KDBQ 200440Z AUTO 08005KT 10SM OVC021 12/11 A3015 870 93 700 080/05 RMK AO2
94908KDBQ DBQ20100919224510009/19/10 22:45:31  5-MIN KDBQ 200445Z AUTO 08005KT 10SM OVC021 12/10 A3015 860 86 800 080/05 RMK AO2
94908KDBQ DBQ20100919225011709/19/10 22:50:31  5-MIN KDBQ 200450Z AUTO 07005KT 10SM OVC021 12/11 A3015 870 89 800 070/05 RMK AO2 SLP213 T01220106
94908KDBQ DBQ20100919225510009/19/10 22:55:31  5-MIN KDBQ 200455Z AUTO 07004KT 10SM OVC021 12/11 A3015 870 89 800 070/04 RMK AO2
94908KDBQ DBQ20100919230010009/19/10 23:00:31  5-MIN KDBQ 200500Z AUTO 07004KT 10SM OVC021 12/11 A3015 860 89 800 070/04 RMK AO2
94908KDBQ DBQ20100919230510009/19/10 23:05:31  5-MIN KDBQ 200505Z AUTO 08006KT 10SM OVC021 12/10 A3015 870 86 800 080/06 RMK AO2
94908KDBQ DBQ20100919231010009/19/10 23:10:31  5-MIN KDBQ 200510Z AUTO 08005KT 10SM OVC021 12/10 A3015 870 86 800 080/05 RMK AO2
94908KDBQ DBQ20100919231510009/19/10 23:15:31  5-MIN KDBQ 200515Z AUTO 08005KT 10SM OVC021 12/10 A3015 870 86 800 080/05 RMK AO2
94908KDBQ DBQ20100919232010009/19/10 23:20:31  5-MIN KDBQ 200520Z AUTO 08005KT 10SM OVC021 12/10 A3014 870 86 800 080/05 RMK AO2
94908KDBQ DBQ20100919232510009/19/10 23:25:31  5-MIN KDBQ 200525Z AUTO 10004KT 10SM OVC021 12/10 A3014 870 86 800 100/04 RMK AO2
94908KDBQ DBQ20100919233010009/19/10 23:30:31  5-MIN KDBQ 200530Z AUTO 08005KT 10SM OVC021 12/10 A3014 870 86 800 080/05 RMK AO2
94908KDBQ DBQ20100919233510009/19/10 23:35:31  5-MIN KDBQ 200535Z AUTO 09005KT 10SM OVC019 12/10 A3014 870 86 800 080/05 RMK AO2
94908KDBQ DBQ20100919234010009/19/10 23:40:31  5-MIN KDBQ 200540Z AUTO 07005KT 10SM OVC019 12/10 A3014 870 86 800 070/05 RMK AO2
94908KDBQ DBQ20100919234511209/19/10 23:45:31  5-MIN KDBQ 200545Z AUTO 07005KT 10SM OVC019 12/10 A3014 870 86 800 070/05 RMK AO2 LTG DSNT SW
94908KDBQ DBQ20100919235015709/19/10 23:50:31  5-MIN KDBQ 200550Z AUTO 08005KT 10SM OVC019 12/10 A3014 870 86 800 080/05 RMK AO2 LTG DSNT SW SLP209 T01220100 10122 20111 401220094 58003
94908KDBQ DBQ20100919235511209/19/10 23:55:31  5-MIN KDBQ 200555Z AUTO 07003KT 10SM OVC019 12/10 A3014 870 86 800 070/03 RMK AO2 LTG DSNT SW
94908KDBQ DBQ20100920000013009/20/10 00:00:38  5-MIN KDBQ 200600Z AUTO 08004KT 10SM -RA OVC019 12/10 A3014 880 86 800 080/04 RMK AO2 LTG DSNT SW RAB0558 P0000
94908KDBQ DBQ20100920000513009/20/10 00:05:31  5-MIN KDBQ 200605Z AUTO 07003KT 10SM -RA OVC019 12/10 A3014 870 86 800 070/03 RMK AO2 LTG DSNT SW RAB0558 P0000
94908KDBQ DBQ20100920001013509/20/10 00:10:31  5-MIN KDBQ 200610Z AUTO 08005KT 10SM OVC019 12/11 A3014 880 89 800 080/05 RMK AO2 LTG DSNT SW AND W RAB0558E07 P0000
94908KDBQ DBQ20100920001513509/20/10 00:15:34  5-MIN KDBQ 200615Z AUTO 08005KT 10SM OVC019 12/10 A3014 880 86 800 080/05 RMK AO2 LTG DSNT SW AND W RAB0558E07 P0000
94908KDBQ DBQ20100920002013509/20/10 00:20:31  5-MIN KDBQ 200620Z AUTO 08005KT 10SM OVC019 12/11 A3014 880 89 800 070/05 RMK AO2 LTG DSNT SW AND W RAB0558E07 P0000
94908KDBQ DBQ20100920002513009/20/10 00:25:31  5-MIN KDBQ 200625Z AUTO 08005KT 10SM OVC019 12/10 A3013 880 86 800 070/05 RMK AO2 LTG DSNT S-W RAB0558E07 P0000
94908KDBQ DBQ20100920003013009/20/10 00:30:31  5-MIN KDBQ 200630Z AUTO 08004KT 10SM OVC019 12/11 A3013 880 89 800 080/04 RMK AO2 LTG DSNT S-W RAB0558E07 P0000
94908KDBQ DBQ20100920003512809/20/10 00:35:31  5-MIN KDBQ 200635Z AUTO 08004KT 10SM OVC019 12/10 A3013 880 86 800 080/04 RMK AO2 LTG DSNT S RAB0558E07 P0000
94908KDBQ DBQ20100920004012809/20/10 00:40:31  5-MIN KDBQ 200640Z AUTO 09003KT 10SM OVC019 12/11 A3013 880 89 800 090/03 RMK AO2 LTG DSNT S RAB0558E07 P0000
94908KDBQ DBQ20100920004513509/20/10 00:45:31  5-MIN KDBQ 200645Z AUTO 09003KT 10SM -RA OVC019 12/10 A3013 880 86 800 090/03 RMK AO2 LTG DSNT S RAB0558E07B45 P0000
94908KDBQ DBQ20100920005015009/20/10 00:50:31  5-MIN KDBQ 200650Z AUTO 09003KT 7SM RA OVC019 12/10 A3013 880 86 800 090/03 RMK AO2 LTG DSNT S RAB0558E07B45 SLP207 P0001 T01220100
94908KDBQ DBQ20100920005512009/20/10 00:55:31  5-MIN KDBQ 200655Z AUTO 09004KT 7SM -RA OVC019 12/11 A3013 880 89 800 090/04 RMK AO2 LTG DSNT S P0000
94908KDBQ DBQ20100920010012309/20/10 01:00:31  5-MIN KDBQ 200700Z AUTO 11003KT 10SM OVC019 12/11 A3013 880 89 800 100/03 RMK AO2 LTG DSNT S RAE00 P0000
94908KDBQ DBQ20100920010512309/20/10 01:05:31  5-MIN KDBQ 200705Z AUTO 11004KT 10SM OVC019 12/10 A3013 880 86 800 110/04 RMK AO2 LTG DSNT S RAE00 P0000
94908KDBQ DBQ20100920011012309/20/10 01:10:31  5-MIN KDBQ 200710Z AUTO 11004KT 10SM OVC017 12/11 A3013 880 89 800 110/04 RMK AO2 LTG DSNT S RAE00 P0000
94908KDBQ DBQ20100920011512309/20/10 01:15:31  5-MIN KDBQ 200715Z AUTO 09003KT 10SM OVC017 12/11 A3013 880 89 800 090/03 RMK AO2 LTG DSNT S RAE00 P0000
94908KDBQ DBQ20100920012012309/20/10 01:20:31  5-MIN KDBQ 200720Z AUTO 09003KT 10SM OVC017 12/11 A3013 880 89 800 090/03 RMK AO2 LTG DSNT S RAE00 P0000
94908KDBQ DBQ20100920012512309/20/10 01:25:31  5-MIN KDBQ 200725Z AUTO 08004KT 10SM OVC017 12/11 A3013 880 89 800 080/04 RMK AO2 LTG DSNT S RAE00 P0000
94908KDBQ DBQ20100920013012409/20/10 01:30:31  5-MIN KDBQ 200730Z AUTO 08004KT 10SM OVC017 12/11 A3013 890 89 800 080/04 RMK AO2 LTG DSNT SE RAE00 P0000
94908KDBQ DBQ20100920013512409/20/10 01:35:31  5-MIN KDBQ 200735Z AUTO 08004KT 10SM OVC017 12/11 A3013 890 89 800 080/04 RMK AO2 LTG DSNT SE RAE00 P0000
94908KDBQ DBQ20100920014012409/20/10 01:40:31  5-MIN KDBQ 200740Z AUTO 09004KT 10SM OVC017 12/11 A3013 890 89 800 090/04 RMK AO2 LTG DSNT SE RAE00 P0000
94908KDBQ DBQ20100920014512409/20/10 01:45:31  5-MIN KDBQ 200745Z AUTO 08003KT 10SM OVC017 12/11 A3013 890 89 800 080/03 RMK AO2 LTG DSNT SE RAE00 P0000
94908KDBQ DBQ20100920015012909/20/10 01:50:31  5-MIN KDBQ 200750Z AUTO 09004KT 10SM OVC017 12/11 A3013 890 89 800 090/04 RMK AO2 RAE00 SLP204 P0000 T01220106
94908KDBQ DBQ20100920015510009/20/10 01:55:31  5-MIN KDBQ 200755Z AUTO 08004KT 10SM OVC017 12/11 A3013 890 89 800 080/04 RMK AO2
94908KDBQ DBQ20100920020010009/20/10 02:00:31  5-MIN KDBQ 200800Z AUTO 08003KT 10SM OVC017 12/11 A3012 890 89 800 080/03 RMK AO2
94908KDBQ DBQ20100920020510009/20/10 02:05:31  5-MIN KDBQ 200805Z AUTO 08004KT 10SM OVC017 12/11 A3012 890 89 800 080/04 RMK AO2
94908KDBQ DBQ20100920021010009/20/10 02:10:31  5-MIN KDBQ 200810Z AUTO 08004KT 10SM OVC017 12/11 A3012 890 89 800 070/04 RMK AO2
94908KDBQ DBQ20100920021510009/20/10 02:15:31  5-MIN KDBQ 200815Z AUTO 00000KT 10SM OVC017 12/11 A3012 890 89 800 000/00 RMK AO2
94908KDBQ DBQ20100920022010009/20/10 02:20:31  5-MIN KDBQ 200820Z AUTO 09004KT 10SM OVC017 12/11 A3012 900 89 800 080/04 RMK AO2
94908KDBQ DBQ20100920022510009/20/10 02:25:31  5-MIN KDBQ 200825Z AUTO 08003KT 10SM OVC017 12/11 A3012 900 89 800 080/03 RMK AO2
94908KDBQ DBQ20100920023010009/20/10 02:30:31  5-MIN KDBQ 200830Z AUTO 08004KT 10SM OVC017 12/11 A3012 900 89 800 080/04 RMK AO2
94908KDBQ DBQ20100920023510009/20/10 02:35:31  5-MIN KDBQ 200835Z AUTO 08004KT 10SM OVC017 12/11 A3011 900 89 800 080/04 RMK AO2
94908KDBQ DBQ20100920024010009/20/10 02:40:31  5-MIN KDBQ 200840Z AUTO 08005KT 10SM OVC017 12/11 A3011 900 89 800 080/05 RMK AO2
94908KDBQ DBQ20100920024510009/20/10 02:45:31  5-MIN KDBQ 200845Z AUTO 08004KT 10SM OVC017 12/11 A3011 900 89 800 080/04 RMK AO2
94908KDBQ DBQ20100920025012909/20/10 02:50:31  5-MIN KDBQ 200850Z AUTO 06004KT 10SM OVC017 12/11 A3011 900 89 800 060/04 RMK AO2 SLP200 60002 T01220106 58005
94908KDBQ DBQ20100920025510009/20/10 02:55:31  5-MIN KDBQ 200855Z AUTO 07004KT 10SM OVC017 12/11 A3011 900 89 800 070/04 RMK AO2
94908KDBQ DBQ20100920030011709/20/10 03:00:31  5-MIN KDBQ 200900Z AUTO 07003KT 9SM -RA OVC017 12/11 A3012 900 89 800 070/03 RMK AO2 RAB0859 P0000
94908KDBQ DBQ20100920030511709/20/10 03:05:31  5-MIN KDBQ 200905Z AUTO 05004KT 9SM -RA OVC017 12/11 A3012 890 89 800 050/04 RMK AO2 RAB0859 P0000
94908KDBQ DBQ20100920031011709/20/10 03:10:31  5-MIN KDBQ 200910Z AUTO 08003KT 10SM OVC017 12/11 A3012 890 89 800 080/03 RMK AO2 RAB0859E07 P0000
94908KDBQ DBQ20100920031511709/20/10 03:15:31  5-MIN KDBQ 200915Z AUTO 09004KT 10SM OVC017 12/11 A3012 890 89 800 090/04 RMK AO2 RAB0859E07 P0000
94908KDBQ DBQ20100920032011709/20/10 03:20:31  5-MIN KDBQ 200920Z AUTO 10004KT 10SM OVC017 12/11 A3012 890 89 800 100/04 RMK AO2 RAB0859E07 P0000
94908KDBQ DBQ20100920032511609/20/10 03:25:31  5-MIN KDBQ 200925Z AUTO 09004KT 9SM OVC017 12/11 A3012 890 89 800 090/04 RMK AO2 RAB0859E07 P0000
94908KDBQ DBQ20100920033012609/20/10 03:30:31  5-MIN KDBQ 200930Z AUTO 09004KT 6SM -RA BR OVC017 12/11 A3012 890 89 800 080/04 RMK AO2 RAB0859E07B28 P0000
94908KDBQ DBQ20100920033512609/20/10 03:35:31  5-MIN KDBQ 200935Z AUTO 08004KT 5SM -RA BR OVC017 12/11 A3012 890 89 800 080/04 RMK AO2 RAB0859E07B28 P0000
94908KDBQ DBQ20100920034012609/20/10 03:40:31  5-MIN KDBQ 200940Z AUTO 08004KT 5SM -RA BR OVC017 12/11 A3012 900 89 800 080/04 RMK AO2 RAB0859E07B28 P0000
94908KDBQ DBQ20100920034512609/20/10 03:45:31  5-MIN KDBQ 200945Z AUTO 09005KT 5SM -RA BR OVC017 12/11 A3012 900 89 800 090/05 RMK AO2 RAB0859E07B28 P0001
94908KDBQ DBQ20100920035014309/20/10 03:50:31  5-MIN KDBQ 200950Z AUTO 08004KT 5SM -RA BR OVC017 12/11 A3011 900 89 800 080/04 RMK AO2 RAB0859E07B28 SLP200 P0001 T01220106
94908KDBQ DBQ20100920035510909/20/10 03:55:31  5-MIN KDBQ 200955Z AUTO 07006KT 8SM -RA OVC017 12/11 A3011 900 93 800 070/06 RMK AO2 P0000
94908KDBQ DBQ20100920040011409/20/10 04:00:31  5-MIN KDBQ 201000Z AUTO 07006KT 10SM OVC019 12/11 A3011 900 89 800 070/06 RMK AO2 RAE0956 P0000
94908KDBQ DBQ20100920040511409/20/10 04:05:31  5-MIN KDBQ 201005Z AUTO 08006KT 10SM OVC019 12/11 A3011 900 89 800 080/06 RMK AO2 RAE0956 P0000
94908KDBQ DBQ20100920041011409/20/10 04:10:31  5-MIN KDBQ 201010Z AUTO 08006KT 10SM OVC019 12/11 A3011 900 93 800 080/06 RMK AO2 RAE0956 P0000
94908KDBQ DBQ20100920041511409/20/10 04:15:31  5-MIN KDBQ 201015Z AUTO 08006KT 10SM OVC019 12/11 A3011 900 89 800 080/06 RMK AO2 RAE0956 P0000
94908KDBQ DBQ20100920042011409/20/10 04:20:31  5-MIN KDBQ 201020Z AUTO 08006KT 10SM OVC019 12/11 A3011 910 93 800 080/06 RMK AO2 RAE0956 P0000
94908KDBQ DBQ20100920042511409/20/10 04:25:31  5-MIN KDBQ 201025Z AUTO 10006KT 10SM OVC019 12/11 A3010 910 93 800 100/06 RMK AO2 RAE0956 P0000
94908KDBQ DBQ20100920043011409/20/10 04:30:31  5-MIN KDBQ 201030Z AUTO 11005KT 10SM OVC019 12/11 A3010 910 93 800 110/05 RMK AO2 RAE0956 P0000
94908KDBQ DBQ20100920043511409/20/10 04:35:31  5-MIN KDBQ 201035Z AUTO 10005KT 10SM OVC019 12/11 A3011 910 93 800 100/05 RMK AO2 RAE0956 P0000
94908KDBQ DBQ20100920044011409/20/10 04:40:31  5-MIN KDBQ 201040Z AUTO 08004KT 10SM OVC019 12/11 A3011 900 93 800 080/04 RMK AO2 RAE0956 P0000
94908KDBQ DBQ20100920044511409/20/10 04:45:31  5-MIN KDBQ 201045Z AUTO 08004KT 10SM OVC019 12/11 A3011 910 93 800 080/04 RMK AO2 RAE0956 P0000
94908KDBQ DBQ20100920045012609/20/10 04:50:31  5-MIN KDBQ 201050Z 09003KT 10SM OVC019 12/11 A3010 910 93 800 090/03 RMK AO2 RAE0956 SLP197 P0000 T01220111
94908KDBQ DBQ20100920045509509/20/10 04:55:31  5-MIN KDBQ 201055Z 08003KT 10SM OVC019 12/11 A3011 910 93 800 070/03 RMK AO2
94908KDBQ DBQ20100920050009509/20/10 05:00:31  5-MIN KDBQ 201100Z 07005KT 10SM OVC019 12/11 A3011 910 93 800 070/05 RMK AO2
94908KDBQ DBQ20100920050509509/20/10 05:05:31  5-MIN KDBQ 201105Z 09005KT 10SM OVC019 12/11 A3010 910 93 800 090/05 RMK AO2
94908KDBQ DBQ20100920051009509/20/10 05:10:31  5-MIN KDBQ 201110Z 10005KT 10SM OVC019 12/11 A3010 910 93 800 100/05 RMK AO2
94908KDBQ DBQ20100920051509509/20/10 05:15:31  5-MIN KDBQ 201115Z 08005KT 10SM OVC019 12/11 A3010 910 93 800 080/05 RMK AO2
94908KDBQ DBQ20100920052009509/20/10 05:20:31  5-MIN KDBQ 201120Z 08005KT 10SM OVC019 12/11 A3010 920 93 800 080/05 RMK AO2
94908KDBQ DBQ20100920052509509/20/10 05:25:31  5-MIN KDBQ 201125Z 10005KT 10SM OVC019 12/11 A3010 920 93 800 100/05 RMK AO2
94908KDBQ DBQ20100920053009509/20/10 05:30:31  5-MIN KDBQ 201130Z 10004KT 10SM OVC019 12/11 A3010 920 93 800 100/04 RMK AO2
94908KDBQ DBQ20100920053509509/20/10 05:35:31  5-MIN KDBQ 201135Z 11005KT 10SM OVC019 12/11 A3010 920 93 800 100/05 RMK AO2
94908KDBQ DBQ20100920054009509/20/10 05:40:31  5-MIN KDBQ 201140Z 10004KT 10SM OVC019 12/11 A3010 910 93 800 100/04 RMK AO2
94908KDBQ DBQ20100920054509509/20/10 05:45:31  5-MIN KDBQ 201145Z 11004KT 10SM OVC019 12/11 A3010 920 93 800 110/04 RMK AO2
94908KDBQ DBQ20100920055014209/20/10 05:50:31  5-MIN KDBQ 201150Z 10004KT 10SM OVC019 12/11 A3009 920 93 800 100/04 RMK AO2 SLP193 60003 70010 T01220111 10122 20117 58009
94908KDBQ DBQ20100920055510209/20/10 05:55:31  5-MIN KDBQ 201155Z 11004KT 10SM BKN019 OVC024 12/11 A3009 920 93 800 110/04 RMK AO2
94908KDBQ DBQ20100920060010909/20/10 06:00:31  5-MIN KDBQ 201200Z 11005KT 10SM BKN019 BKN026 OVC048 12/11 A3009 920 93 800 110/05 RMK AO2
94908KDBQ DBQ20100920060510909/20/10 06:05:31  5-MIN KDBQ 201205Z 11005KT 10SM SCT019 BKN023 OVC048 13/11 A3009 920 89 900 110/05 RMK AO2
94908KDBQ DBQ20100920061010909/20/10 06:10:31  5-MIN KDBQ 201210Z 11007KT 10SM FEW019 BKN023 OVC048 13/11 A3009 920 89 900 110/07 RMK AO2
94908KDBQ DBQ20100920061510909/20/10 06:15:31  5-MIN KDBQ 201215Z 12005KT 10SM FEW019 BKN023 OVC048 13/11 A3009 920 89 900 120/05 RMK AO2
94908KDBQ DBQ20100920062010209/20/10 06:20:31  5-MIN KDBQ 201220Z 13006KT 10SM BKN023 OVC048 13/11 A3009 920 89 900 130/06 RMK AO2
94908KDBQ DBQ20100920062510209/20/10 06:25:31  5-MIN KDBQ 201225Z 12006KT 10SM BKN023 OVC048 13/11 A3009 920 89 900 120/06 RMK AO2
94908KDBQ DBQ20100920063009509/20/10 06:30:31  5-MIN KDBQ 201230Z 10003KT 10SM OVC023 13/11 A3009 920 89 900 100/03 RMK AO2
94908KDBQ DBQ20100920063509509/20/10 06:35:31  5-MIN KDBQ 201235Z 10004KT 10SM OVC023 13/11 A3009 920 89 900 100/04 RMK AO2
94908KDBQ DBQ20100920064009509/20/10 06:40:31  5-MIN KDBQ 201240Z 13005KT 10SM OVC021 13/11 A3009 920 89 900 130/05 RMK AO2
94908KDBQ DBQ20100920064509509/20/10 06:45:31  5-MIN KDBQ 201245Z 12006KT 10SM OVC021 13/11 A3010 920 89 900 120/06 RMK AO2
94908KDBQ DBQ20100920065011209/20/10 06:50:31  5-MIN KDBQ 201250Z 10004KT 10SM OVC023 13/11 A3010 920 89 900 100/04 RMK AO2 SLP194 T01280111
94908KDBQ DBQ20100920065509509/20/10 06:55:31  5-MIN KDBQ 201255Z 11006KT 10SM OVC023 13/11 A3009 920 89 900 110/06 RMK AO2
94908KDBQ DBQ20100920070009509/20/10 07:00:31  5-MIN KDBQ 201300Z 11005KT 10SM OVC023 13/11 A3009 920 89 900 110/05 RMK AO2
94908KDBQ DBQ20100920070509609/20/10 07:05:31  5-MIN KDBQ 201305Z 12005KT 10SM OVC023 13/11 A3009 920 86 1000 110/05 RMK AO2
94908KDBQ DBQ20100920071009609/20/10 07:10:31  5-MIN KDBQ 201310Z 11006KT 10SM OVC023 13/11 A3009 920 86 1000 110/06 RMK AO2
94908KDBQ DBQ20100920071509609/20/10 07:15:31  5-MIN KDBQ 201315Z 11006KT 10SM OVC023 13/11 A3009 920 86 1000 110/06 RMK AO2
94908KDBQ DBQ20100920072009609/20/10 07:20:31  5-MIN KDBQ 201320Z 11007KT 10SM OVC023 13/12 A3009 920 89 1000 110/07 RMK AO2
94908KDBQ DBQ20100920072509609/20/10 07:25:31  5-MIN KDBQ 201325Z 12007KT 10SM OVC023 13/11 A3009 920 86 1000 120/07 RMK AO2
94908KDBQ DBQ20100920073009609/20/10 07:30:31  5-MIN KDBQ 201330Z 11005KT 10SM OVC023 13/11 A3009 920 86 1000 110/05 RMK AO2
94908KDBQ DBQ20100920073509609/20/10 07:35:31  5-MIN KDBQ 201335Z 11007KT 10SM OVC023 13/12 A3009 930 89 1000 110/07 RMK AO2
94908KDBQ DBQ20100920074010309/20/10 07:40:31  5-MIN KDBQ 201340Z 12006KT 10SM BKN023 OVC037 13/12 A3009 920 89 1000 120/06 RMK AO2
94908KDBQ DBQ20100920074510309/20/10 07:45:31  5-MIN KDBQ 201345Z 11007KT 10SM BKN023 OVC037 13/12 A3008 930 89 1000 110/07 RMK AO2
94908KDBQ DBQ20100920075012009/20/10 07:50:31  5-MIN KDBQ 201350Z 11007KT 10SM BKN023 OVC032 14/12 A3009 920 86 1000 110/07 RMK AO2 SLP191 T01390117
94908KDBQ DBQ20100920075510309/20/10 07:55:31  5-MIN KDBQ 201355Z 12008KT 10SM BKN023 OVC034 14/12 A3008 930 86 1100 120/08 RMK AO2
94908KDBQ DBQ20100920080012009/20/10 08:00:31  5-MIN KDBQ 201400Z 12008KT 9SM -RA BKN023 OVC034 14/12 A3008 930 86 1100 120/08 RMK AO2 RAB1358 P0000
94908KDBQ DBQ20100920080512009/20/10 08:05:31  5-MIN KDBQ 201405Z VRB06KT 9SM -RA BKN023 OVC032 14/12 A3009 930 86 1000 VRB/06 RMK AO2 RAB1358 P0000
94908KDBQ DBQ20100920081012009/20/10 08:10:31  5-MIN KDBQ 201410Z 12003KT 10SM BKN025 OVC032 14/12 A3009 920 86 1000 120/03 RMK AO2 RAB1358E09 P0000
94908KDBQ DBQ20100920081512009/20/10 08:15:31  5-MIN KDBQ 201415Z 12006KT 10SM BKN023 OVC032 14/12 A3008 930 90 1100 120/06 RMK AO2 RAB1358E09 P0000
94908KDBQ DBQ20100920082011309/20/10 08:20:31  5-MIN KDBQ 201420Z 13005KT 10SM OVC023 14/12 A3008 930 90 1100 130/05 RMK AO2 RAB1358E09 P0000
94908KDBQ DBQ20100920082511309/20/10 08:25:31  5-MIN KDBQ 201425Z 12004KT 10SM OVC023 14/12 A3009 930 90 1100 120/04 RMK AO2 RAB1358E09 P0000
94908KDBQ DBQ20100920083011309/20/10 08:30:31  5-MIN KDBQ 201430Z 13006KT 10SM OVC023 14/12 A3008 930 90 1100 130/06 RMK AO2 RAB1358E09 P0000
94908KDBQ DBQ20100920083511309/20/10 08:35:31  5-MIN KDBQ 201435Z 13006KT 10SM OVC023 14/12 A3008 930 90 1100 130/06 RMK AO2 RAB1358E09 P0000
94908KDBQ DBQ20100920084012009/20/10 08:40:31  5-MIN KDBQ 201440Z 13006KT 10SM -RA OVC023 14/12 A3008 930 90 1100 120/06 RMK AO2 RAB1358E09B40 P0000
94908KDBQ DBQ20100920084512009/20/10 08:45:31  5-MIN KDBQ 201445Z 12005KT 10SM -RA OVC023 14/13 A3008 930 90 1100 120/05 RMK AO2 RAB1358E09B40 P0000
94908KDBQ DBQ20100920085014809/20/10 08:50:31  5-MIN KDBQ 201450Z 13008KT 10SM OVC023 14/12 A3008 930 86 1100 130/08 RMK AO2 RAB1358E09B40E50 SLP187 P0000 60000 T01440122 58007
94908KDBQ DBQ20100920085509609/20/10 08:55:31  5-MIN KDBQ 201455Z 14009KT 10SM OVC023 14/12 A3008 930 86 1100 140/09 RMK AO2
94908KDBQ DBQ20100920090009609/20/10 09:00:31  5-MIN KDBQ 201500Z 14008KT 10SM OVC023 14/13 A3007 940 90 1100 140/08 RMK AO2
94908KDBQ DBQ20100920090509609/20/10 09:05:31  5-MIN KDBQ 201505Z 14006KT 10SM OVC023 14/13 A3007 940 90 1100 140/06 RMK AO2
94908KDBQ DBQ20100920091009609/20/10 09:10:31  5-MIN KDBQ 201510Z 14006KT 10SM OVC023 15/13 A3007 940 86 1200 140/06 RMK AO2
94908KDBQ DBQ20100920091509609/20/10 09:15:31  5-MIN KDBQ 201515Z 14008KT 10SM OVC023 15/13 A3007 940 90 1200 140/08 RMK AO2
94908KDBQ DBQ20100920092009609/20/10 09:20:31  5-MIN KDBQ 201520Z 15008KT 10SM OVC023 15/13 A3007 940 90 1200 150/08 RMK AO2
94908KDBQ DBQ20100920092509609/20/10 09:25:31  5-MIN KDBQ 201525Z 15010KT 10SM OVC023 15/13 A3007 940 90 1200 150/10 RMK AO2
94908KDBQ DBQ20100920093009609/20/10 09:30:31  5-MIN KDBQ 201530Z 14008KT 10SM OVC023 16/13 A3007 940 86 1300 140/08 RMK AO2
94908KDBQ DBQ20100920093510209/20/10 09:35:31  5-MIN KDBQ 201535Z 14009G16KT 10SM OVC023 16/13 A3006 950 86 1300 140/09G16 RMK AO2
94908KDBQ DBQ20100920094010209/20/10 09:40:31  5-MIN KDBQ 201540Z 13012G16KT 10SM BKN023 16/13 A3006 950 86 1300 130/12G16 RMK AO2
94908KDBQ DBQ20100920094510209/20/10 09:45:31  5-MIN KDBQ 201545Z 15010G16KT 10SM BKN023 16/14 A3006 950 86 1300 140/10G16 RMK AO2
94908KDBQ DBQ20100920095010209/20/10 09:50:31  5-MIN KDBQ 201550Z 14009G16KT 10SM SCT023 17/13 A3006 950 80 1400 140/09G16 RMK AO2
94908KDBQ DBQ20100920095509609/20/10 09:55:31  5-MIN KDBQ 201555Z 15010KT 10SM FEW023 17/13 A3006 950 80 1400 150/10 RMK AO2
94908KDBQ DBQ20100920100009609/20/10 10:00:31  5-MIN KDBQ 201600Z 14010KT 10SM FEW023 17/14 A3006 950 83 1400 140/10 RMK AO2
94908KDBQ DBQ20100920100509309/20/10 10:05:31  5-MIN KDBQ 201605Z 16011KT 10SM CLR 17/14 A3005 960 83 1400 150/11 RMK AO2
94908KDBQ DBQ20100920101009609/20/10 10:10:31  5-MIN KDBQ 201610Z 16010KT 10SM FEW015 17/14 A3005 960 80 1500 150/10 RMK AO2
94908KDBQ DBQ20100920101509609/20/10 10:15:31  5-MIN KDBQ 201615Z 15009KT 10SM FEW015 17/14 A3005 960 80 1500 150/09 RMK AO2
94908KDBQ DBQ20100920102009609/20/10 10:20:31  5-MIN KDBQ 201620Z 16010KT 10SM FEW100 18/14 A3005 960 81 1500 150/10 RMK AO2
94908KDBQ DBQ20100920102510209/20/10 10:25:31  5-MIN KDBQ 201625Z 15011G15KT 10SM FEW110 18/15 A3005 960 81 1600 150/11G15 RMK AO2
94908KDBQ DBQ20100920103010209/20/10 10:30:31  5-MIN KDBQ 201630Z 14010G15KT 10SM FEW110 18/15 A3005 960 81 1600 140/10G15 RMK AO2
94908KDBQ DBQ20100920103509609/20/10 10:35:31  5-MIN KDBQ 201635Z 16009KT 10SM FEW110 18/15 A3004 960 81 1600 160/09 RMK AO2
94908KDBQ DBQ20100920104009609/20/10 10:40:31  5-MIN KDBQ 201640Z 15008KT 10SM FEW110 18/15 A3004 960 81 1600 150/08 RMK AO2
94908KDBQ DBQ20100920104509309/20/10 10:45:31  5-MIN KDBQ 201645Z 15010KT 10SM CLR 18/15 A3004 970 81 1600 150/10 RMK AO2
94908KDBQ DBQ20100920105011309/20/10 10:50:31  5-MIN KDBQ 201650Z 14010KT 10SM SCT014 18/15 A3004 970 81 1600 140/10 RMK AO2 SLP172 T01830150
94908KDBQ DBQ20100920105510809/20/10 10:55:31  5-MIN KDBQ 201655Z 13008KT 10SM SCT014 18/15 A3004 970 81 1600 130/08 RMK AO2 LTG DSNT SE
94908KDBQ DBQ20100920110010809/20/10 11:00:31  5-MIN KDBQ 201700Z 16008KT 10SM FEW014 19/16 A3004 970 78 1800 160/08 RMK AO2 LTG DSNT SE
94908KDBQ DBQ20100920110511409/20/10 11:05:31  5-MIN KDBQ 201705Z 15010G15KT 10SM FEW014 19/16 A3003 970 78 1800 150/10G15 RMK AO2 LTG DSNT SE
94908KDBQ DBQ20100920111010209/20/10 11:10:31  5-MIN KDBQ 201710Z 15008G15KT 10SM FEW014 19/16 A3003 980 78 1800 150/08G15 RMK AO2
94908KDBQ DBQ20100920111510209/20/10 11:15:31  5-MIN KDBQ 201715Z 15009G15KT 10SM FEW014 20/16 A3003 980 78 1800 150/09G15 RMK AO2
94908KDBQ DBQ20100920112009309/20/10 11:20:31  5-MIN KDBQ 201720Z 16010KT 10SM CLR 21/16 A3003 980 75 1900 160/10 RMK AO2
94908KDBQ DBQ20100920112509909/20/10 11:25:31  5-MIN KDBQ 201725Z 17010G15KT 10SM CLR 20/16 A3002 980 75 1800 170/10G15 RMK AO2
94908KDBQ DBQ20100920113009309/20/10 11:30:31  5-MIN KDBQ 201730Z 17011KT 10SM CLR 21/16 A3002 990 75 1900 170/11 RMK AO2
94908KDBQ DBQ20100920113509309/20/10 11:35:31  5-MIN KDBQ 201735Z 17011KT 10SM CLR 21/16 A3002 990 75 1900 170/11 RMK AO2
94908KDBQ DBQ20100920114009309/20/10 11:40:31  5-MIN KDBQ 201740Z 18011KT 10SM CLR 21/16 A3001 990 73 2000 180/11 RMK AO2
94908KDBQ DBQ20100920114509409/20/10 11:45:31  5-MIN KDBQ 201745Z 17011KT 10SM CLR 21/16 A3001 1000 73 2000 170/11 RMK AO2
94908KDBQ DBQ20100920115013509/20/10 11:50:31  5-MIN KDBQ 201750Z 19012KT 10SM CLR 22/17 A3001 1000 73 2000 190/12 RMK AO2 SLP159 60000 T02170167 10217 20122 58005
94908KDBQ DBQ20100920115509409/20/10 11:55:31  5-MIN KDBQ 201755Z 16009KT 10SM CLR 22/17 A3000 1000 73 2000 160/09 RMK AO2
94908KDBQ DBQ20100920120009409/20/10 12:00:31  5-MIN KDBQ 201800Z 17008KT 10SM CLR 22/17 A3000 1000 70 2100 170/08 RMK AO2
94908KDBQ DBQ20100920120510009/20/10 12:05:31  5-MIN KDBQ 201805Z 18010G17KT 10SM CLR 22/17 A3000 1010 73 2100 180/10G17 RMK AO2
94908KDBQ DBQ20100920121010009/20/10 12:10:31  5-MIN KDBQ 201810Z 18008G17KT 10SM CLR 22/17 A2999 1010 73 2100 180/08G17 RMK AO2
94908KDBQ DBQ20100920121509409/20/10 12:15:31  5-MIN KDBQ 201815Z 17010KT 10SM CLR 23/17 A2999 1010 70 2200 170/10 RMK AO2
94908KDBQ DBQ20100920122009409/20/10 12:20:31  5-MIN KDBQ 201820Z 19011KT 10SM CLR 23/17 A2999 1010 70 2200 190/11 RMK AO2
94908KDBQ DBQ20100920122509409/20/10 12:25:31  5-MIN KDBQ 201825Z 17011KT 10SM CLR 23/17 A2999 1010 70 2200 170/11 RMK AO2
94908KDBQ DBQ20100920123009409/20/10 12:30:31  5-MIN KDBQ 201830Z 16011KT 10SM CLR 23/17 A2999 1020 70 2200 160/11 RMK AO2
94908KDBQ DBQ20100920123509409/20/10 12:35:31  5-MIN KDBQ 201835Z 18010KT 10SM CLR 23/17 A2998 1020 68 2300 170/10 RMK AO2
94908KDBQ DBQ20100920124009409/20/10 12:40:31  5-MIN KDBQ 201840Z 18011KT 10SM CLR 24/18 A2998 1030 68 2300 180/11 RMK AO2
94908KDBQ DBQ20100920124509409/20/10 12:45:31  5-MIN KDBQ 201845Z 17011KT 10SM CLR 24/18 A2997 1030 68 2300 170/11 RMK AO2
94908KDBQ DBQ20100920125012309/20/10 12:50:31  5-MIN KDBQ 201850Z 18013G17KT 10SM CLR 24/18 A2997 1030 68 2300 180/13G17 RMK AO2 SLP147 P0001 T02390178
94908KDBQ DBQ20100920125509409/20/10 12:55:31  5-MIN KDBQ 201855Z 18011KT 10SM CLR 24/18 A2997 1030 68 2300 180/11 RMK AO2
94908KDBQ DBQ20100920130009409/20/10 13:00:31  5-MIN KDBQ 201900Z 17013KT 10SM CLR 24/18 A2997 1030 66 2400 170/13 RMK AO2
94908KDBQ DBQ20100920130509409/20/10 13:05:31  5-MIN KDBQ 201905Z 17012KT 10SM CLR 24/18 A2997 1040 66 2400 170/12 RMK AO2
94908KDBQ DBQ20100920131009409/20/10 13:10:31  5-MIN KDBQ 201910Z 18012KT 10SM CLR 24/18 A2996 1040 66 2400 180/12 RMK AO2
94908KDBQ DBQ20100920131509409/20/10 13:15:31  5-MIN KDBQ 201915Z 18011KT 10SM CLR 25/18 A2996 1040 66 2500 180/11 RMK AO2
94908KDBQ DBQ20100920132010009/20/10 13:20:31  5-MIN KDBQ 201920Z 17009G17KT 10SM CLR 25/18 A2996 1040 64 2500 170/09G17 RMK AO2
94908KDBQ DBQ20100920132509409/20/10 13:25:31  5-MIN KDBQ 201925Z 17009KT 10SM CLR 25/18 A2996 1040 66 2500 170/09 RMK AO2
94908KDBQ DBQ20100920133009409/20/10 13:30:31  5-MIN KDBQ 201930Z 17009KT 10SM CLR 26/18 A2996 1050 64 2500 170/09 RMK AO2
94908KDBQ DBQ20100920133509409/20/10 13:35:31  5-MIN KDBQ 201935Z 18011KT 10SM CLR 26/18 A2995 1050 64 2500 180/11 RMK AO2
94908KDBQ DBQ20100920134010009/20/10 13:40:31  5-MIN KDBQ 201940Z 16011G17KT 10SM CLR 26/18 A2995 1050 64 2500 160/11G17 RMK AO2
94908KDBQ DBQ20100920134509409/20/10 13:45:31  5-MIN KDBQ 201945Z 16010KT 10SM CLR 26/19 A2995 1050 66 2500 160/10 RMK AO2
94908KDBQ DBQ20100920135011709/20/10 13:50:31  5-MIN KDBQ 201950Z 17012G16KT 10SM CLR 26/19 A2994 1060 64 2600 170/12G16 RMK AO2 SLP136 T02610189
94908KDBQ DBQ20100920135510009/20/10 13:55:31  5-MIN KDBQ 201955Z 18010G16KT 10SM CLR 26/19 A2994 1060 64 2600 180/10G16 RMK AO2
94908KDBQ DBQ20100920140009409/20/10 14:00:31  5-MIN KDBQ 202000Z 19012KT 10SM CLR 26/19 A2994 1060 64 2600 190/12 RMK AO2
94908KDBQ DBQ20100920140510009/20/10 14:05:31  5-MIN KDBQ 202005Z 17010G17KT 10SM CLR 27/19 A2994 1060 62 2700 170/10G17 RMK AO2
94908KDBQ DBQ20100920141009409/20/10 14:10:31  5-MIN KDBQ 202010Z 17011KT 10SM CLR 27/19 A2994 1060 64 2700 170/11 RMK AO2
94908KDBQ DBQ20100920141510009/20/10 14:15:31  5-MIN KDBQ 202015Z 17009G17KT 10SM CLR 27/19 A2993 1070 64 2700 170/09G17 RMK AO2
94908KDBQ DBQ20100920142010009/20/10 14:20:31  5-MIN KDBQ 202020Z 17011G18KT 10SM CLR 27/19 A2993 1070 62 2700 170/11G18 RMK AO2
94908KDBQ DBQ20100920142510009/20/10 14:25:31  5-MIN KDBQ 202025Z 17013G18KT 10SM CLR 27/19 A2993 1070 64 2700 170/13G18 RMK AO2
94908KDBQ DBQ20100920143010009/20/10 14:30:31  5-MIN KDBQ 202030Z 17009G17KT 10SM CLR 27/19 A2992 1070 64 2700 170/09G17 RMK AO2
94908KDBQ DBQ20100920143509409/20/10 14:35:31  5-MIN KDBQ 202035Z 16010KT 10SM CLR 27/19 A2992 1080 64 2700 160/10 RMK AO2
94908KDBQ DBQ20100920144010009/20/10 14:40:31  5-MIN KDBQ 202040Z 15013G18KT 10SM CLR 27/19 A2992 1080 62 2800 150/13G18 RMK AO2
94908KDBQ DBQ20100920144510009/20/10 14:45:31  5-MIN KDBQ 202045Z 18012G18KT 10SM CLR 27/19 A2992 1080 62 2800 180/12G18 RMK AO2
94908KDBQ DBQ20100920145012309/20/10 14:50:31  5-MIN KDBQ 202050Z 18011KT 10SM CLR 27/19 A2992 1080 62 2800 180/11 RMK AO2 SLP127 60001 T02720194 58024
94908KDBQ DBQ20100920145509409/20/10 14:55:31  5-MIN KDBQ 202055Z 17013KT 10SM CLR 27/19 A2991 1080 62 2800 170/13 RMK AO2
94908KDBQ DBQ20100920150010009/20/10 15:00:31  5-MIN KDBQ 202100Z 17008G17KT 10SM CLR 27/19 A2991 1090 62 2800 170/08G17 RMK AO2
94908KDBQ DBQ20100920150510009/20/10 15:05:31  5-MIN KDBQ 202105Z 17013G17KT 10SM CLR 28/20 A2991 1090 62 2800 170/13G17 RMK AO2
94908KDBQ DBQ20100920151010009/20/10 15:10:31  5-MIN KDBQ 202110Z 17009G17KT 10SM CLR 28/20 A2991 1090 62 2800 170/09G17 RMK AO2
94908KDBQ DBQ20100920151509409/20/10 15:15:31  5-MIN KDBQ 202115Z 16011KT 10SM CLR 28/20 A2990 1090 60 2900 160/11 RMK AO2
94908KDBQ DBQ20100920152010009/20/10 15:20:31  5-MIN KDBQ 202120Z 15011G17KT 10SM CLR 28/20 A2990 1100 60 2900 150/11G17 RMK AO2
94908KDBQ DBQ20100920152510009/20/10 15:25:31  5-MIN KDBQ 202125Z 16012G18KT 10SM CLR 28/20 A2990 1100 60 2900 160/12G18 RMK AO2
94908KDBQ DBQ20100920153010009/20/10 15:30:31  5-MIN KDBQ 202130Z 16012G18KT 10SM CLR 28/20 A2989 1100 60 2900 160/12G18 RMK AO2
94908KDBQ DBQ20100920153510009/20/10 15:35:31  5-MIN KDBQ 202135Z 16013G18KT 10SM CLR 28/20 A2989 1100 60 2900 160/13G18 RMK AO2
94908KDBQ DBQ20100920154010009/20/10 15:40:31  5-MIN KDBQ 202140Z 17009G17KT 10SM CLR 28/21 A2989 1110 62 2900 170/09G17 RMK AO2
94908KDBQ DBQ20100920154509409/20/10 15:45:31  5-MIN KDBQ 202145Z 17010KT 10SM CLR 28/21 A2989 1110 62 2900 170/10 RMK AO2
94908KDBQ DBQ20100920155011109/20/10 15:50:31  5-MIN KDBQ 202150Z 17011KT 10SM CLR 29/21 A2989 1110 60 3000 170/11 RMK AO2 SLP115 T02890206
94908KDBQ DBQ20100920155509409/20/10 15:55:31  5-MIN KDBQ 202155Z 17011KT 10SM CLR 29/21 A2988 1110 60 3000 170/11 RMK AO2
94908KDBQ DBQ20100920160009309/20/10 16:00:31  5-MIN KDBQ 202200Z 18011KT 9SM CLR 29/21 A2988 1110 60 3000 180/11 RMK AO2
94908KDBQ DBQ20100920160509309/20/10 16:05:31  5-MIN KDBQ 202205Z 17010KT 9SM CLR 29/21 A2988 1110 60 3000 170/10 RMK AO2
94908KDBQ DBQ20100920161009909/20/10 16:10:31  5-MIN KDBQ 202210Z 19013G19KT 9SM CLR 29/21 A2988 1120 60 3000 190/13G19 RMK AO2
94908KDBQ DBQ20100920161509909/20/10 16:15:31  5-MIN KDBQ 202215Z 20015G20KT 8SM CLR 29/20 A2988 1120 58 3000 200/15G20 RMK AO2
94908KDBQ DBQ20100920162009309/20/10 16:20:31  5-MIN KDBQ 202220Z 20014KT 9SM CLR 29/20 A2988 1120 58 3000 200/14 RMK AO2
94908KDBQ DBQ20100920162509309/20/10 16:25:31  5-MIN KDBQ 202225Z 20013KT 9SM CLR 28/20 A2988 1120 60 2900 200/13 RMK AO2
94908KDBQ DBQ20100920163009309/20/10 16:30:31  5-MIN KDBQ 202230Z 20013KT 9SM CLR 28/19 A2987 1120 58 2900 200/13 RMK AO2
94908KDBQ DBQ20100920163509309/20/10 16:35:31  5-MIN KDBQ 202235Z 20013KT 9SM CLR 28/19 A2987 1120 58 2900 200/13 RMK AO2
94908KDBQ DBQ20100920164009309/20/10 16:40:31  5-MIN KDBQ 202240Z 20013KT 9SM CLR 28/19 A2987 1120 60 2900 200/13 RMK AO2
94908KDBQ DBQ20100920164509309/20/10 16:45:31  5-MIN KDBQ 202245Z 20014KT 9SM CLR 28/19 A2987 1120 58 2900 200/14 RMK AO2
94908KDBQ DBQ20100920165011009/20/10 16:50:31  5-MIN KDBQ 202250Z 19012KT 9SM CLR 28/19 A2987 1120 56 2900 190/12 RMK AO2 SLP110 T02830189
94908KDBQ DBQ20100920165509309/20/10 16:55:31  5-MIN KDBQ 202255Z 19011KT 9SM CLR 28/19 A2987 1120 60 2900 190/11 RMK AO2
94908KDBQ DBQ20100920170009309/20/10 17:00:31  5-MIN KDBQ 202300Z 19010KT 9SM CLR 28/19 A2987 1120 60 2900 190/10 RMK AO2
94908KDBQ DBQ20100920170509309/20/10 17:05:31  5-MIN KDBQ 202305Z 19009KT 9SM CLR 28/19 A2987 1130 60 2900 190/09 RMK AO2
94908KDBQ DBQ20100920171009309/20/10 17:10:31  5-MIN KDBQ 202310Z 19009KT 9SM CLR 28/20 A2987 1130 62 2900 190/09 RMK AO2
94908KDBQ DBQ20100920171509309/20/10 17:15:31  5-MIN KDBQ 202315Z 18010KT 9SM CLR 28/20 A2987 1130 62 2900 180/10 RMK AO2
94908KDBQ DBQ20100920172009309/20/10 17:20:31  5-MIN KDBQ 202320Z 19011KT 8SM CLR 28/19 A2987 1130 60 2900 180/11 RMK AO2
94908KDBQ DBQ20100920172509309/20/10 17:25:31  5-MIN KDBQ 202325Z 18011KT 8SM CLR 28/19 A2986 1130 60 2900 180/11 RMK AO2
94908KDBQ DBQ20100920173009309/20/10 17:30:31  5-MIN KDBQ 202330Z 18011KT 8SM CLR 27/19 A2986 1130 62 2800 180/11 RMK AO2
94908KDBQ DBQ20100920173509309/20/10 17:35:31  5-MIN KDBQ 202335Z 18009KT 8SM CLR 27/19 A2986 1130 62 2800 180/09 RMK AO2
94908KDBQ DBQ20100920174009309/20/10 17:40:31  5-MIN KDBQ 202340Z 18009KT 8SM CLR 27/19 A2986 1130 64 2800 180/09 RMK AO2
94908KDBQ DBQ20100920174509309/20/10 17:45:31  5-MIN KDBQ 202345Z 18010KT 8SM CLR 27/19 A2986 1130 64 2800 180/10 RMK AO2
94908KDBQ DBQ20100920175013409/20/10 17:50:31  5-MIN KDBQ 202350Z 18010KT 8SM CLR 27/19 A2986 1140 64 2800 180/10 RMK AO2 SLP107 60001 T02670194 10289 20217 56029
94908KDBQ DBQ20100920175509309/20/10 17:55:31  5-MIN KDBQ 202355Z 18010KT 8SM CLR 26/19 A2986 1140 66 2700 180/10 RMK AO2
94908KDBQ DBQ20100920180009309/20/10 18:00:31  5-MIN KDBQ 210000Z 18011KT 8SM CLR 26/19 A2986 1140 66 2700 180/11 RMK AO2
94908KDBQ DBQ20100920180509309/20/10 18:05:31  5-MIN KDBQ 210005Z 18010KT 8SM CLR 26/19 A2986 1140 66 2700 180/10 RMK AO2
94908KDBQ DBQ20100920181009309/20/10 18:10:31  5-MIN KDBQ 210010Z 18010KT 8SM CLR 26/19 A2985 1140 66 2700 180/10 RMK AO2
94908KDBQ DBQ20100920181509309/20/10 18:15:31  5-MIN KDBQ 210015Z 18011KT 8SM CLR 26/19 A2985 1140 66 2700 180/11 RMK AO2
94908KDBQ DBQ20100920182009309/20/10 18:20:31  5-MIN KDBQ 210020Z 18011KT 8SM CLR 26/19 A2985 1140 66 2700 180/11 RMK AO2
94908KDBQ DBQ20100920182509309/20/10 18:25:31  5-MIN KDBQ 210025Z 18011KT 9SM CLR 26/19 A2985 1140 68 2700 180/11 RMK AO2
94908KDBQ DBQ20100920183009309/20/10 18:30:31  5-MIN KDBQ 210030Z 18011KT 9SM CLR 26/19 A2985 1140 68 2700 180/11 RMK AO2
94908KDBQ DBQ20100920183509309/20/10 18:35:31  5-MIN KDBQ 210035Z 19011KT 9SM CLR 26/19 A2985 1140 68 2700 180/11 RMK AO2
94908KDBQ DBQ20100920184009309/20/10 18:40:31  5-MIN KDBQ 210040Z 19011KT 9SM CLR 26/19 A2985 1140 68 2700 190/11 RMK AO2
94908KDBQ DBQ20100920184509309/20/10 18:45:31  5-MIN KDBQ 210045Z 18011KT 9SM CLR 26/19 A2985 1140 68 2700 180/11 RMK AO2
94908KDBQ DBQ20100920185011009/20/10 18:50:31  5-MIN KDBQ 210050Z 18012KT 9SM CLR 26/19 A2985 1140 68 2700 180/12 RMK AO2 SLP105 T02560194
94908KDBQ DBQ20100920185509309/20/10 18:55:31  5-MIN KDBQ 210055Z 19011KT 9SM CLR 25/19 A2985 1140 71 2600 190/11 RMK AO2
94908KDBQ DBQ20100920190009309/20/10 19:00:31  5-MIN KDBQ 210100Z 19012KT 9SM CLR 25/19 A2985 1140 71 2600 190/12 RMK AO2
94908KDBQ DBQ20100920190509809/20/10 19:05:31  5-MIN KDBQ 210105Z AUTO 19012KT 9SM CLR 25/19 A2985 1140 71 2600 190/12 RMK AO2
94908KDBQ DBQ20100920191009809/20/10 19:10:31  5-MIN KDBQ 210110Z AUTO 19013KT 9SM CLR 25/19 A2985 1140 71 2600 190/13 RMK AO2
94908KDBQ DBQ20100920191509809/20/10 19:15:31  5-MIN KDBQ 210115Z AUTO 19013KT 9SM CLR 25/19 A2986 1140 71 2600 190/13 RMK AO2
94908KDBQ DBQ20100920192009809/20/10 19:20:31  5-MIN KDBQ 210120Z AUTO 19012KT 9SM CLR 25/19 A2986 1140 71 2600 190/12 RMK AO2
94908KDBQ DBQ20100920192509809/20/10 19:25:31  5-MIN KDBQ 210125Z AUTO 19012KT 9SM CLR 25/19 A2986 1140 71 2600 190/12 RMK AO2
94908KDBQ DBQ20100920193009809/20/10 19:30:31  5-MIN KDBQ 210130Z AUTO 19011KT 9SM CLR 24/19 A2986 1140 73 2500 190/11 RMK AO2
94908KDBQ DBQ20100920193509809/20/10 19:35:31  5-MIN KDBQ 210135Z AUTO 19012KT 9SM CLR 24/19 A2986 1140 73 2500 190/12 RMK AO2
94908KDBQ DBQ20100920194009809/20/10 19:40:31  5-MIN KDBQ 210140Z AUTO 19012KT 9SM CLR 24/19 A2986 1140 73 2500 190/12 RMK AO2
94908KDBQ DBQ20100920194509809/20/10 19:45:31  5-MIN KDBQ 210145Z AUTO 19011KT 9SM CLR 24/19 A2986 1140 73 2500 190/11 RMK AO2
94908KDBQ DBQ20100920195011509/20/10 19:50:31  5-MIN KDBQ 210150Z AUTO 19011KT 9SM CLR 24/19 A2986 1140 73 2500 190/11 RMK AO2 SLP106 T02440194
94908KDBQ DBQ20100920195509809/20/10 19:55:31  5-MIN KDBQ 210155Z AUTO 19011KT 9SM CLR 24/19 A2986 1140 73 2500 190/11 RMK AO2
94908KDBQ DBQ20100920200009809/20/10 20:00:31  5-MIN KDBQ 210200Z AUTO 19010KT 9SM CLR 24/19 A2986 1140 76 2500 190/10 RMK AO2
94908KDBQ DBQ20100920200509809/20/10 20:05:31  5-MIN KDBQ 210205Z AUTO 19012KT 9SM CLR 24/19 A2986 1140 76 2500 190/12 RMK AO2
94908KDBQ DBQ20100920201009809/20/10 20:10:31  5-MIN KDBQ 210210Z AUTO 19013KT 9SM CLR 24/19 A2986 1140 76 2500 190/13 RMK AO2
94908KDBQ DBQ20100920201509809/20/10 20:15:31  5-MIN KDBQ 210215Z AUTO 19012KT 9SM CLR 24/19 A2986 1130 76 2500 190/12 RMK AO2
94908KDBQ DBQ20100920202009809/20/10 20:20:31  5-MIN KDBQ 210220Z AUTO 19012KT 9SM CLR 24/19 A2986 1130 76 2500 190/12 RMK AO2
94908KDBQ DBQ20100920202509809/20/10 20:25:31  5-MIN KDBQ 210225Z AUTO 19011KT 8SM CLR 24/19 A2986 1130 76 2500 190/11 RMK AO2
94908KDBQ DBQ20100920203009809/20/10 20:30:31  5-MIN KDBQ 210230Z AUTO 19012KT 8SM CLR 24/19 A2986 1140 76 2500 190/12 RMK AO2
94908KDBQ DBQ20100920203509809/20/10 20:35:31  5-MIN KDBQ 210235Z AUTO 19012KT 8SM CLR 24/19 A2986 1130 76 2500 180/12 RMK AO2
94908KDBQ DBQ20100920204009809/20/10 20:40:31  5-MIN KDBQ 210240Z AUTO 19012KT 8SM CLR 24/19 A2986 1130 76 2500 180/12 RMK AO2
94908KDBQ DBQ20100920204509809/20/10 20:45:31  5-MIN KDBQ 210245Z AUTO 19013KT 8SM CLR 24/19 A2986 1130 76 2500 190/13 RMK AO2
94908KDBQ DBQ20100920205012109/20/10 20:50:31  5-MIN KDBQ 210250Z AUTO 19013KT 8SM CLR 24/19 A2986 1130 76 2500 190/13 RMK AO2 SLP108 T02390194 56019
94908KDBQ DBQ20100920205509809/20/10 20:55:31  5-MIN KDBQ 210255Z AUTO 19013KT 8SM CLR 24/19 A2986 1130 76 2500 190/13 RMK AO2
94908KDBQ DBQ20100920210009809/20/10 21:00:31  5-MIN KDBQ 210300Z AUTO 19013KT 8SM CLR 24/19 A2986 1130 76 2500 180/13 RMK AO2
94908KDBQ DBQ20100920210509809/20/10 21:05:31  5-MIN KDBQ 210305Z AUTO 18012KT 8SM CLR 24/19 A2986 1130 76 2500 180/12 RMK AO2
94908KDBQ DBQ20100920211009809/20/10 21:10:31  5-MIN KDBQ 210310Z AUTO 18014KT 8SM CLR 24/19 A2986 1130 76 2500 180/14 RMK AO2
94908KDBQ DBQ20100920211509809/20/10 21:15:31  5-MIN KDBQ 210315Z AUTO 18012KT 8SM CLR 23/19 A2986 1130 78 2400 180/12 RMK AO2
94908KDBQ DBQ20100920212009809/20/10 21:20:31  5-MIN KDBQ 210320Z AUTO 19013KT 8SM CLR 23/19 A2986 1130 78 2400 180/13 RMK AO2
94908KDBQ DBQ20100920212509809/20/10 21:25:31  5-MIN KDBQ 210325Z AUTO 18013KT 8SM CLR 23/19 A2986 1130 78 2400 180/13 RMK AO2
94908KDBQ DBQ20100920213009809/20/10 21:30:31  5-MIN KDBQ 210330Z AUTO 19012KT 8SM CLR 23/19 A2986 1130 78 2400 190/12 RMK AO2
94908KDBQ DBQ20100920213509809/20/10 21:35:31  5-MIN KDBQ 210335Z AUTO 19011KT 8SM CLR 23/20 A2986 1130 81 2400 190/11 RMK AO2
94908KDBQ DBQ20100920214009809/20/10 21:40:31  5-MIN KDBQ 210340Z AUTO 19011KT 8SM CLR 23/20 A2986 1130 81 2400 190/11 RMK AO2
94908KDBQ DBQ20100920214509809/20/10 21:45:31  5-MIN KDBQ 210345Z AUTO 19012KT 8SM CLR 23/20 A2986 1130 81 2400 190/12 RMK AO2
94908KDBQ DBQ20100920215011509/20/10 21:50:31  5-MIN KDBQ 210350Z AUTO 19012KT 8SM CLR 23/20 A2986 1130 84 2300 190/12 RMK AO2 SLP108 T02280200
94908KDBQ DBQ20100920215509809/20/10 21:55:31  5-MIN KDBQ 210355Z AUTO 19011KT 8SM CLR 23/20 A2986 1130 84 2300 190/11 RMK AO2
94908KDBQ DBQ20100920220009809/20/10 22:00:31  5-MIN KDBQ 210400Z AUTO 19012KT 8SM CLR 23/20 A2986 1130 84 2300 190/12 RMK AO2
94908KDBQ DBQ20100920220509809/20/10 22:05:31  5-MIN KDBQ 210405Z AUTO 19011KT 8SM CLR 23/20 A2986 1130 84 2300 190/11 RMK AO2
94908KDBQ DBQ20100920221009809/20/10 22:10:31  5-MIN KDBQ 210410Z AUTO 19011KT 8SM CLR 23/20 A2986 1130 84 2300 190/11 RMK AO2
94908KDBQ DBQ20100920221509809/20/10 22:15:31  5-MIN KDBQ 210415Z AUTO 19011KT 8SM CLR 23/20 A2986 1130 84 2300 190/11 RMK AO2
94908KDBQ DBQ20100920222009809/20/10 22:20:31  5-MIN KDBQ 210420Z AUTO 19013KT 8SM CLR 23/20 A2986 1130 84 2300 190/13 RMK AO2
94908KDBQ DBQ20100920222509809/20/10 22:25:31  5-MIN KDBQ 210425Z AUTO 19011KT 8SM CLR 23/20 A2986 1130 84 2300 190/11 RMK AO2
94908KDBQ DBQ20100920223010409/20/10 22:30:31  5-MIN KDBQ 210430Z AUTO 19011G18KT 8SM CLR 23/20 A2986 1130 84 2300 190/11G18 RMK AO2
94908KDBQ DBQ20100920223510409/20/10 22:35:31  5-MIN KDBQ 210435Z AUTO 19012G18KT 8SM CLR 23/20 A2986 1130 84 2300 190/12G18 RMK AO2
94908KDBQ DBQ20100920224009809/20/10 22:40:31  5-MIN KDBQ 210440Z AUTO 19010KT 8SM CLR 23/20 A2986 1130 81 2400 190/10 RMK AO2
94908KDBQ DBQ20100920224509809/20/10 22:45:31  5-MIN KDBQ 210445Z AUTO 19012KT 8SM CLR 23/20 A2986 1130 81 2400 190/12 RMK AO2
94908KDBQ DBQ20100920225011509/20/10 22:50:31  5-MIN KDBQ 210450Z AUTO 19012KT 8SM CLR 23/20 A2986 1130 84 2300 190/12 RMK AO2 SLP107 T02280200
94908KDBQ DBQ20100920225509809/20/10 22:55:31  5-MIN KDBQ 210455Z AUTO 19012KT 8SM CLR 23/20 A2986 1130 84 2300 190/12 RMK AO2
94908KDBQ DBQ20100920230009809/20/10 23:00:31  5-MIN KDBQ 210500Z AUTO 20011KT 8SM CLR 23/20 A2986 1130 84 2300 190/11 RMK AO2
94908KDBQ DBQ20100920230509809/20/10 23:05:31  5-MIN KDBQ 210505Z AUTO 19011KT 8SM CLR 23/20 A2986 1130 84 2300 190/11 RMK AO2
94908KDBQ DBQ20100920231009809/20/10 23:10:31  5-MIN KDBQ 210510Z AUTO 19010KT 8SM CLR 23/20 A2986 1130 84 2300 190/10 RMK AO2
94908KDBQ DBQ20100920231509809/20/10 23:15:31  5-MIN KDBQ 210515Z AUTO 20011KT 8SM CLR 23/20 A2986 1130 84 2300 200/11 RMK AO2
94908KDBQ DBQ20100920232009809/20/10 23:20:31  5-MIN KDBQ 210520Z AUTO 20011KT 8SM CLR 23/20 A2986 1130 84 2300 200/11 RMK AO2
94908KDBQ DBQ20100920232509809/20/10 23:25:31  5-MIN KDBQ 210525Z AUTO 20010KT 8SM CLR 23/20 A2986 1130 84 2300 200/10 RMK AO2
94908KDBQ DBQ20100920233009809/20/10 23:30:31  5-MIN KDBQ 210530Z AUTO 20011KT 7SM CLR 23/20 A2986 1130 84 2300 200/11 RMK AO2
94908KDBQ DBQ20100920233509809/20/10 23:35:31  5-MIN KDBQ 210535Z AUTO 21010KT 7SM CLR 22/20 A2986 1130 87 2300 210/10 RMK AO2
94908KDBQ DBQ20100920234009809/20/10 23:40:31  5-MIN KDBQ 210540Z AUTO 20011KT 7SM CLR 22/20 A2986 1130 87 2300 200/11 RMK AO2
94908KDBQ DBQ20100920234509809/20/10 23:45:31  5-MIN KDBQ 210545Z AUTO 20011KT 7SM CLR 22/20 A2986 1130 87 2300 200/11 RMK AO2
94908KDBQ DBQ20100920235014309/20/10 23:50:31  5-MIN KDBQ 210550Z AUTO 20011KT 7SM CLR 22/20 A2986 1130 87 2300 200/11 RMK AO2 SLP106 T02220200 10267 20222 402890117 53001
94908KDBQ DBQ20100920235509809/20/10 23:55:31  5-MIN KDBQ 210555Z AUTO 20010KT 7SM CLR 22/20 A2986 1130 87 2300 200/10 RMK AO2
94908KDBQ DBQ20100921000009809/21/10 00:00:38  5-MIN KDBQ 210600Z AUTO 20011KT 7SM CLR 22/20 A2986 1130 87 2300 200/11 RMK AO2
94908KDBQ DBQ20100921000509809/21/10 00:05:31  5-MIN KDBQ 210605Z AUTO 20010KT 7SM CLR 22/20 A2986 1130 87 2300 200/10 RMK AO2
94908KDBQ DBQ20100921001009809/21/10 00:10:31  5-MIN KDBQ 210610Z AUTO 20009KT 7SM CLR 22/20 A2987 1130 90 2200 200/09 RMK AO2
94908KDBQ DBQ20100921001509809/21/10 00:15:31  5-MIN KDBQ 210615Z AUTO 20010KT 7SM CLR 22/20 A2986 1130 87 2300 200/10 RMK AO2
94908KDBQ DBQ20100921002009809/21/10 00:20:31  5-MIN KDBQ 210620Z AUTO 20011KT 7SM CLR 22/20 A2986 1130 90 2200 200/11 RMK AO2
94908KDBQ DBQ20100921002509809/21/10 00:25:31  5-MIN KDBQ 210625Z AUTO 20010KT 7SM CLR 22/20 A2986 1130 90 2200 200/10 RMK AO2
94908KDBQ DBQ20100921003009809/21/10 00:30:31  5-MIN KDBQ 210630Z AUTO 20010KT 7SM CLR 22/20 A2986 1130 90 2200 200/10 RMK AO2
94908KDBQ DBQ20100921003509809/21/10 00:35:31  5-MIN KDBQ 210635Z AUTO 20010KT 7SM CLR 22/20 A2986 1130 90 2200 200/10 RMK AO2
94908KDBQ DBQ20100921004010109/21/10 00:40:31  5-MIN KDBQ 210640Z AUTO 20010KT 6SM BR CLR 22/20 A2986 1130 90 2200 200/10 RMK AO2
94908KDBQ DBQ20100921004510109/21/10 00:45:31  5-MIN KDBQ 210645Z AUTO 20010KT 6SM BR CLR 22/20 A2986 1130 90 2200 200/10 RMK AO2
94908KDBQ DBQ20100921005011809/21/10 00:50:31  5-MIN KDBQ 210650Z AUTO 20010KT 6SM BR CLR 22/20 A2987 1130 90 2200 200/10 RMK AO2 SLP107 T02170200
94908KDBQ DBQ20100921005510109/21/10 00:55:31  5-MIN KDBQ 210655Z AUTO 20011KT 6SM BR CLR 22/20 A2986 1130 90 2200 200/11 RMK AO2
94908KDBQ DBQ20100921010010109/21/10 01:00:31  5-MIN KDBQ 210700Z AUTO 20010KT 6SM BR CLR 22/20 A2986 1130 90 2200 200/10 RMK AO2
94908KDBQ DBQ20100921010510109/21/10 01:05:31  5-MIN KDBQ 210705Z AUTO 20010KT 6SM BR CLR 22/20 A2987 1130 90 2200 190/10 RMK AO2
94908KDBQ DBQ20100921011010109/21/10 01:10:31  5-MIN KDBQ 210710Z AUTO 20010KT 6SM BR CLR 21/19 A2987 1130 90 2100 190/10 RMK AO2
94908KDBQ DBQ20100921011510109/21/10 01:15:31  5-MIN KDBQ 210715Z AUTO 19010KT 6SM BR CLR 21/20 A2986 1130 93 2100 190/10 RMK AO2
94908KDBQ DBQ20100921012010109/21/10 01:20:31  5-MIN KDBQ 210720Z AUTO 19010KT 6SM BR CLR 21/19 A2986 1130 90 2100 190/10 RMK AO2
94908KDBQ DBQ20100921012510109/21/10 01:25:31  5-MIN KDBQ 210725Z AUTO 19010KT 6SM BR CLR 22/20 A2986 1130 90 2200 190/10 RMK AO2
94908KDBQ DBQ20100921013010109/21/10 01:30:31  5-MIN KDBQ 210730Z AUTO 19011KT 6SM BR CLR 22/20 A2986 1130 90 2200 190/11 RMK AO2
94908KDBQ DBQ20100921013510109/21/10 01:35:31  5-MIN KDBQ 210735Z AUTO 19010KT 6SM BR CLR 22/19 A2986 1130 87 2200 190/10 RMK AO2
94908KDBQ DBQ20100921014010109/21/10 01:40:31  5-MIN KDBQ 210740Z AUTO 19011KT 6SM BR CLR 22/19 A2986 1140 87 2200 190/11 RMK AO2
94908KDBQ DBQ20100921014510109/21/10 01:45:31  5-MIN KDBQ 210745Z AUTO 19010KT 6SM BR CLR 22/19 A2986 1140 87 2200 190/10 RMK AO2
94908KDBQ DBQ20100921015011809/21/10 01:50:31  5-MIN KDBQ 210750Z AUTO 19011KT 6SM BR CLR 22/19 A2985 1140 87 2200 190/11 RMK AO2 SLP103 T02170194
94908KDBQ DBQ20100921015510109/21/10 01:55:31  5-MIN KDBQ 210755Z AUTO 19012KT 6SM BR CLR 22/19 A2985 1140 87 2200 190/12 RMK AO2
94908KDBQ DBQ20100921020010109/21/10 02:00:31  5-MIN KDBQ 210800Z AUTO 19012KT 6SM BR CLR 21/19 A2985 1140 90 2200 190/12 RMK AO2
94908KDBQ DBQ20100921020510109/21/10 02:05:31  5-MIN KDBQ 210805Z AUTO 19012KT 6SM BR CLR 22/19 A2985 1140 87 2200 190/12 RMK AO2
94908KDBQ DBQ20100921021010109/21/10 02:10:31  5-MIN KDBQ 210810Z AUTO 19013KT 6SM BR CLR 22/19 A2985 1150 87 2200 190/13 RMK AO2
94908KDBQ DBQ20100921021510109/21/10 02:15:31  5-MIN KDBQ 210815Z AUTO 19012KT 6SM BR CLR 22/19 A2985 1150 87 2200 190/12 RMK AO2
94908KDBQ DBQ20100921022010109/21/10 02:20:31  5-MIN KDBQ 210820Z AUTO 19012KT 6SM BR CLR 21/19 A2984 1150 90 2200 190/12 RMK AO2
94908KDBQ DBQ20100921022510109/21/10 02:25:31  5-MIN KDBQ 210825Z AUTO 19012KT 6SM BR CLR 21/19 A2984 1150 90 2200 190/12 RMK AO2
94908KDBQ DBQ20100921023010109/21/10 02:30:31  5-MIN KDBQ 210830Z AUTO 19012KT 6SM BR CLR 21/19 A2984 1150 90 2200 190/12 RMK AO2
94908KDBQ DBQ20100921023510109/21/10 02:35:31  5-MIN KDBQ 210835Z AUTO 19012KT 6SM BR CLR 21/19 A2984 1150 90 2200 190/12 RMK AO2
94908KDBQ DBQ20100921024010109/21/10 02:40:31  5-MIN KDBQ 210840Z AUTO 20013KT 6SM BR CLR 21/19 A2984 1150 90 2200 190/13 RMK AO2
94908KDBQ DBQ20100921024510109/21/10 02:45:31  5-MIN KDBQ 210845Z AUTO 19012KT 6SM BR CLR 21/19 A2984 1150 90 2200 190/12 RMK AO2
94908KDBQ DBQ20100921025012409/21/10 02:50:31  5-MIN KDBQ 210850Z AUTO 20012KT 6SM BR CLR 21/19 A2984 1150 90 2200 190/12 RMK AO2 SLP097 T02110194 51000
94908KDBQ DBQ20100921025510109/21/10 02:55:31  5-MIN KDBQ 210855Z AUTO 20013KT 6SM BR CLR 21/19 A2984 1150 90 2200 200/13 RMK AO2
94908KDBQ DBQ20100921030010109/21/10 03:00:31  5-MIN KDBQ 210900Z AUTO 19011KT 6SM BR CLR 21/19 A2984 1150 90 2200 190/11 RMK AO2
94908KDBQ DBQ20100921030510109/21/10 03:05:31  5-MIN KDBQ 210905Z AUTO 19011KT 6SM BR CLR 21/19 A2984 1150 90 2200 190/11 RMK AO2
94908KDBQ DBQ20100921031010109/21/10 03:10:31  5-MIN KDBQ 210910Z AUTO 20012KT 6SM BR CLR 21/19 A2984 1160 90 2200 200/12 RMK AO2
94908KDBQ DBQ20100921031510109/21/10 03:15:31  5-MIN KDBQ 210915Z AUTO 20011KT 6SM BR CLR 21/19 A2984 1150 93 2100 190/11 RMK AO2
94908KDBQ DBQ20100921032010109/21/10 03:20:31  5-MIN KDBQ 210920Z AUTO 19012KT 6SM BR CLR 21/19 A2984 1160 93 2100 190/12 RMK AO2
94908KDBQ DBQ20100921032510109/21/10 03:25:31  5-MIN KDBQ 210925Z AUTO 20011KT 6SM BR CLR 21/19 A2984 1160 93 2100 190/11 RMK AO2
94908KDBQ DBQ20100921033010109/21/10 03:30:31  5-MIN KDBQ 210930Z AUTO 20011KT 6SM BR CLR 21/19 A2983 1160 93 2100 200/11 RMK AO2
94908KDBQ DBQ20100921033510109/21/10 03:35:31  5-MIN KDBQ 210935Z AUTO 20011KT 6SM BR CLR 21/19 A2983 1160 93 2100 200/11 RMK AO2
94908KDBQ DBQ20100921034010109/21/10 03:40:31  5-MIN KDBQ 210940Z AUTO 20011KT 6SM BR CLR 21/19 A2983 1160 93 2100 200/11 RMK AO2
94908KDBQ DBQ20100921034510109/21/10 03:45:31  5-MIN KDBQ 210945Z AUTO 20011KT 6SM BR CLR 21/19 A2983 1160 93 2100 200/11 RMK AO2
94908KDBQ DBQ20100921035011809/21/10 03:50:31  5-MIN KDBQ 210950Z AUTO 20011KT 6SM BR CLR 21/19 A2983 1160 90 2100 190/11 RMK AO2 SLP094 T02060189
94908KDBQ DBQ20100921035510109/21/10 03:55:31  5-MIN KDBQ 210955Z AUTO 20011KT 6SM BR CLR 21/19 A2983 1160 90 2100 200/11 RMK AO2
94908KDBQ DBQ20100921040010109/21/10 04:00:31  5-MIN KDBQ 211000Z AUTO 20011KT 6SM BR CLR 21/19 A2983 1160 90 2100 200/11 RMK AO2
94908KDBQ DBQ20100921040510109/21/10 04:05:31  5-MIN KDBQ 211005Z AUTO 20011KT 6SM BR CLR 21/19 A2983 1160 90 2100 200/11 RMK AO2
94908KDBQ DBQ20100921041010109/21/10 04:10:31  5-MIN KDBQ 211010Z AUTO 20011KT 6SM BR CLR 21/19 A2983 1160 90 2100 200/11 RMK AO2
94908KDBQ DBQ20100921041510109/21/10 04:15:31  5-MIN KDBQ 211015Z AUTO 20011KT 6SM BR CLR 21/19 A2983 1160 90 2100 200/11 RMK AO2
94908KDBQ DBQ20100921042010109/21/10 04:20:31  5-MIN KDBQ 211020Z AUTO 20011KT 6SM BR CLR 21/19 A2983 1160 90 2100 200/11 RMK AO2
94908KDBQ DBQ20100921042510109/21/10 04:25:31  5-MIN KDBQ 211025Z AUTO 20011KT 6SM BR CLR 20/19 A2983 1160 93 2100 200/11 RMK AO2
94908KDBQ DBQ20100921043010109/21/10 04:30:31  5-MIN KDBQ 211030Z AUTO 20011KT 6SM BR CLR 21/19 A2983 1160 90 2100 200/11 RMK AO2
94908KDBQ DBQ20100921043510109/21/10 04:35:31  5-MIN KDBQ 211035Z AUTO 20011KT 6SM BR CLR 20/19 A2983 1160 93 2100 200/11 RMK AO2
94908KDBQ DBQ20100921044009609/21/10 04:40:31  5-MIN KDBQ 211040Z 20010KT 6SM BR CLR 20/19 A2983 1160 93 2100 200/10 RMK AO2
94908KDBQ DBQ20100921044509609/21/10 04:45:31  5-MIN KDBQ 211045Z 20010KT 6SM BR CLR 20/19 A2983 1160 93 2100 200/10 RMK AO2
94908KDBQ DBQ20100921045011309/21/10 04:50:31  5-MIN KDBQ 211050Z 20011KT 6SM BR CLR 21/19 A2982 1170 90 2100 200/11 RMK AO2 SLP092 T02060189
94908KDBQ DBQ20100921045509609/21/10 04:55:31  5-MIN KDBQ 211055Z 20011KT 6SM BR CLR 21/19 A2983 1170 90 2100 200/11 RMK AO2
94908KDBQ DBQ20100921050009609/21/10 05:00:31  5-MIN KDBQ 211100Z 20010KT 6SM BR CLR 20/19 A2982 1170 93 2100 200/10 RMK AO2
94908KDBQ DBQ20100921050509609/21/10 05:05:31  5-MIN KDBQ 211105Z 20010KT 6SM BR CLR 21/19 A2982 1170 90 2100 190/10 RMK AO2
94908KDBQ DBQ20100921051009609/21/10 05:10:31  5-MIN KDBQ 211110Z 20011KT 6SM BR CLR 21/19 A2983 1160 90 2100 200/11 RMK AO2
94908KDBQ DBQ20100921051509909/21/10 05:15:31  5-MIN KDBQ 211115Z 20010KT 6SM BR SCT120 21/19 A2983 1160 90 2100 200/10 RMK AO2
94908KDBQ DBQ20100921052009909/21/10 05:20:31  5-MIN KDBQ 211120Z 20011KT 6SM BR BKN120 21/19 A2983 1160 90 2100 200/11 RMK AO2
94908KDBQ DBQ20100921052509909/21/10 05:25:31  5-MIN KDBQ 211125Z 20010KT 6SM BR SCT120 20/19 A2983 1160 93 2000 200/10 RMK AO2
94908KDBQ DBQ20100921053009909/21/10 05:30:31  5-MIN KDBQ 211130Z 20010KT 6SM BR SCT120 20/19 A2983 1160 93 2000 200/10 RMK AO2
94908KDBQ DBQ20100921053509909/21/10 05:35:31  5-MIN KDBQ 211135Z 20010KT 6SM BR SCT120 20/18 A2983 1160 90 2000 200/10 RMK AO2
94908KDBQ DBQ20100921054009909/21/10 05:40:31  5-MIN KDBQ 211140Z 20011KT 6SM BR FEW120 21/18 A2983 1160 87 2100 200/11 RMK AO2
94908KDBQ DBQ20100921054509909/21/10 05:45:31  5-MIN KDBQ 211145Z 20011KT 6SM BR FEW120 21/18 A2984 1150 87 2100 200/11 RMK AO2
94908KDBQ DBQ20100921055013409/21/10 05:50:31  5-MIN KDBQ 211150Z 21012KT 7SM CLR 21/18 A2984 1150 87 2100 210/12 RMK AO2 SLP097 70001 T02060183 10222 20200 58007
94908KDBQ DBQ20100921055509309/21/10 05:55:31  5-MIN KDBQ 211155Z 21012KT 7SM CLR 21/18 A2984 1160 87 2100 210/12 RMK AO2
94908KDBQ DBQ20100921060009309/21/10 06:00:31  5-MIN KDBQ 211200Z 21012KT 7SM CLR 21/18 A2984 1160 84 2200 210/12 RMK AO2
94908KDBQ DBQ20100921060509309/21/10 06:05:31  5-MIN KDBQ 211205Z 21011KT 7SM CLR 21/18 A2984 1150 84 2200 210/11 RMK AO2
94908KDBQ DBQ20100921061009309/21/10 06:10:31  5-MIN KDBQ 211210Z 21012KT 7SM CLR 21/18 A2984 1150 84 2200 210/12 RMK AO2
94908KDBQ DBQ20100921061509309/21/10 06:15:31  5-MIN KDBQ 211215Z 21014KT 7SM CLR 21/18 A2984 1150 84 2200 210/14 RMK AO2
94908KDBQ DBQ20100921062009309/21/10 06:20:31  5-MIN KDBQ 211220Z 21012KT 7SM CLR 21/18 A2984 1150 84 2200 210/12 RMK AO2
94908KDBQ DBQ20100921062509909/21/10 06:25:31  5-MIN KDBQ 211225Z 21015G20KT 7SM CLR 22/18 A2984 1150 81 2200 210/15G20 RMK AO2
94908KDBQ DBQ20100921063009909/21/10 06:30:31  5-MIN KDBQ 211230Z 21014G20KT 7SM CLR 22/18 A2984 1150 81 2200 210/14G20 RMK AO2
94908KDBQ DBQ20100921063509909/21/10 06:35:31  5-MIN KDBQ 211235Z 21013G20KT 7SM CLR 22/18 A2984 1150 81 2200 200/13G20 RMK AO2
94908KDBQ DBQ20100921064009909/21/10 06:40:31  5-MIN KDBQ 211240Z 22015G21KT 7SM CLR 22/18 A2984 1150 81 2200 220/15G21 RMK AO2
94908KDBQ DBQ20100921064509909/21/10 06:45:31  5-MIN KDBQ 211245Z 21014G21KT 7SM CLR 22/18 A2984 1150 81 2200 210/14G21 RMK AO2
94908KDBQ DBQ20100921065011009/21/10 06:50:31  5-MIN KDBQ 211250Z 21013KT 7SM CLR 22/18 A2984 1150 81 2200 210/13 RMK AO2 SLP099 T02170183
94908KDBQ DBQ20100921065509309/21/10 06:55:31  5-MIN KDBQ 211255Z 21013KT 7SM CLR 22/18 A2985 1150 81 2200 210/13 RMK AO2
94908KDBQ DBQ20100921070009309/21/10 07:00:31  5-MIN KDBQ 211300Z 22011KT 7SM CLR 22/18 A2985 1140 81 2200 220/11 RMK AO2
94908KDBQ DBQ20100921070509309/21/10 07:05:31  5-MIN KDBQ 211305Z 23011KT 8SM CLR 22/18 A2985 1140 81 2200 230/11 RMK AO2
94908KDBQ DBQ20100921071010209/21/10 07:10:31  5-MIN KDBQ 211310Z 22012G18KT 8SM FEW065 22/18 A2985 1140 81 2200 220/12G18 RMK AO2
94908KDBQ DBQ20100921071510909/21/10 07:15:31  5-MIN KDBQ 211315Z 23012G18KT 8SM FEW049 SCT065 22/18 A2985 1140 81 2200 230/12G18 RMK AO2
94908KDBQ DBQ20100921072010309/21/10 07:20:31  5-MIN KDBQ 211320Z 23011KT 8SM SCT049 BKN065 22/18 A2985 1140 81 2200 230/11 RMK AO2
94908KDBQ DBQ20100921072510309/21/10 07:25:31  5-MIN KDBQ 211325Z 22012KT 8SM FEW055 SCT065 22/18 A2985 1140 81 2200 220/12 RMK AO2
94908KDBQ DBQ20100921073010309/21/10 07:30:31  5-MIN KDBQ 211330Z 22012KT 8SM FEW050 SCT065 22/18 A2985 1140 81 2200 220/12 RMK AO2
94908KDBQ DBQ20100921073510309/21/10 07:35:31  5-MIN KDBQ 211335Z 22010KT 8SM FEW050 SCT065 22/18 A2985 1140 81 2200 220/10 RMK AO2
94908KDBQ DBQ20100921074009609/21/10 07:40:31  5-MIN KDBQ 211340Z 23011KT 8SM FEW050 22/18 A2985 1140 81 2200 230/11 RMK AO2
94908KDBQ DBQ20100921074509609/21/10 07:45:31  5-MIN KDBQ 211345Z 23012KT 8SM FEW055 22/18 A2985 1140 78 2300 230/12 RMK AO2
94908KDBQ DBQ20100921075011009/21/10 07:50:31  5-MIN KDBQ 211350Z 22010KT 8SM CLR 22/18 A2985 1140 78 2300 220/10 RMK AO2 SLP102 T02220183
94908KDBQ DBQ20100921075509309/21/10 07:55:31  5-MIN KDBQ 211355Z 22013KT 8SM CLR 22/18 A2985 1140 78 2300 220/13 RMK AO2
94908KDBQ DBQ20100921080009309/21/10 08:00:31  5-MIN KDBQ 211400Z 22010KT 8SM CLR 22/18 A2985 1150 78 2300 220/10 RMK AO2
94908KDBQ DBQ20100921080509309/21/10 08:05:31  5-MIN KDBQ 211405Z 21012KT 8SM CLR 22/18 A2984 1150 78 2300 210/12 RMK AO2
94908KDBQ DBQ20100921081009309/21/10 08:10:31  5-MIN KDBQ 211410Z 21013KT 8SM CLR 22/18 A2984 1160 78 2300 210/13 RMK AO2
94908KDBQ DBQ20100921081509309/21/10 08:15:31  5-MIN KDBQ 211415Z 21013KT 8SM CLR 23/18 A2983 1160 76 2400 210/13 RMK AO2
94908KDBQ DBQ20100921082009309/21/10 08:20:31  5-MIN KDBQ 211420Z 21014KT 8SM CLR 23/18 A2983 1160 76 2400 210/14 RMK AO2
94908KDBQ DBQ20100921082509309/21/10 08:25:31  5-MIN KDBQ 211425Z 21014KT 8SM CLR 23/19 A2983 1160 78 2400 210/14 RMK AO2
94908KDBQ DBQ20100921083009309/21/10 08:30:31  5-MIN KDBQ 211430Z 21015KT 8SM CLR 23/19 A2983 1160 78 2400 210/15 RMK AO2
94908KDBQ DBQ20100921083509309/21/10 08:35:31  5-MIN KDBQ 211435Z 21015KT 8SM CLR 23/18 A2984 1160 73 2400 210/15 RMK AO2
94908KDBQ DBQ20100921084009309/21/10 08:40:31  5-MIN KDBQ 211440Z 22014KT 9SM CLR 23/18 A2983 1160 73 2400 220/14 RMK AO2
94908KDBQ DBQ20100921084509309/21/10 08:45:31  5-MIN KDBQ 211445Z 22015KT 9SM CLR 23/19 A2983 1160 76 2400 210/15 RMK AO2
94908KDBQ DBQ20100921085012809/21/10 08:50:31  5-MIN KDBQ 211450Z 21016KT 9SM CLR 23/19 A2983 1160 76 2400 210/16 RMK AO2 SLP094 P0001 60001 T02330189 55001
94908KDBQ DBQ20100921085509309/21/10 08:55:31  5-MIN KDBQ 211455Z 22012KT 9SM CLR 23/18 A2984 1160 73 2400 220/12 RMK AO2
94908KDBQ DBQ20100921090009309/21/10 09:00:31  5-MIN KDBQ 211500Z 23014KT 9SM CLR 24/19 A2984 1150 73 2500 230/14 RMK AO2
94908KDBQ DBQ20100921090509909/21/10 09:05:31  5-MIN KDBQ 211505Z 24016G19KT 9SM CLR 24/19 A2984 1150 71 2500 230/16G19 RMK AO2
94908KDBQ DBQ20100921091009909/21/10 09:10:31  5-MIN KDBQ 211510Z 23017G22KT 9SM CLR 24/19 A2984 1150 71 2500 220/17G22 RMK AO2
94908KDBQ DBQ20100921091509909/21/10 09:15:31  5-MIN KDBQ 211515Z 23016G22KT 9SM CLR 24/19 A2985 1140 71 2500 230/16G22 RMK AO2
94908KDBQ DBQ20100921092009909/21/10 09:20:31  5-MIN KDBQ 211520Z 23015G22KT 9SM CLR 24/19 A2985 1150 71 2500 230/15G22 RMK AO2
94908KDBQ DBQ20100921092509909/21/10 09:25:31  5-MIN KDBQ 211525Z 23016G22KT 9SM CLR 24/19 A2985 1150 71 2500 230/16G22 RMK AO2
94908KDBQ DBQ20100921093009909/21/10 09:30:31  5-MIN KDBQ 211530Z 24014G21KT 9SM CLR 24/18 A2985 1150 68 2500 240/14G21 RMK AO2
94908KDBQ DBQ20100921093509309/21/10 09:35:31  5-MIN KDBQ 211535Z 22016KT 9SM CLR 24/19 A2984 1150 71 2500 220/16 RMK AO2
94908KDBQ DBQ20100921094009909/21/10 09:40:31  5-MIN KDBQ 211540Z 23011G19KT 9SM CLR 24/18 A2984 1150 68 2500 230/11G19 RMK AO2
94908KDBQ DBQ20100921094509909/21/10 09:45:31  5-MIN KDBQ 211545Z 23014G19KT 9SM CLR 24/19 A2984 1150 71 2500 230/14G19 RMK AO2
94908KDBQ DBQ20100921095011709/21/10 09:50:31  5-MIN KDBQ 211550Z 24015G25KT 10SM CLR 24/18 A2984 1150 68 2500 240/15G25 RMK AO2 SLP099 T02440183
94908KDBQ DBQ20100921095510009/21/10 09:55:31  5-MIN KDBQ 211555Z 24014G25KT 10SM CLR 24/18 A2984 1150 68 2500 240/14G25 RMK AO2
94908KDBQ DBQ20100921100009409/21/10 10:00:31  5-MIN KDBQ 211600Z 23012KT 10SM CLR 25/19 A2984 1150 68 2600 230/12 RMK AO2
94908KDBQ DBQ20100921100509409/21/10 10:05:31  5-MIN KDBQ 211605Z 24012KT 10SM CLR 25/19 A2984 1160 68 2600 240/12 RMK AO2
94908KDBQ DBQ20100921101009409/21/10 10:10:31  5-MIN KDBQ 211610Z 23012KT 10SM CLR 25/19 A2984 1160 68 2600 220/12 RMK AO2
94908KDBQ DBQ20100921101509409/21/10 10:15:31  5-MIN KDBQ 211615Z 23012KT 10SM CLR 26/19 A2984 1160 66 2700 230/12 RMK AO2
94908KDBQ DBQ20100921102010009/21/10 10:20:31  5-MIN KDBQ 211620Z 22012G18KT 10SM CLR 26/19 A2984 1150 66 2700 220/12G18 RMK AO2
94908KDBQ DBQ20100921102510009/21/10 10:25:31  5-MIN KDBQ 211625Z 21017G20KT 10SM CLR 26/19 A2984 1160 66 2700 210/17G20 RMK AO2
94908KDBQ DBQ20100921103010009/21/10 10:30:31  5-MIN KDBQ 211630Z 22018G21KT 10SM CLR 27/19 A2984 1160 62 2800 220/18G21 RMK AO2
94908KDBQ DBQ20100921103511809/21/10 10:35:31  5-MIN KDBQ 211635Z 23017G24KT 10SM CLR 27/19 A2983 1160 62 2800 230/17G24 RMK AO2 LTG DSNT W AND NW
94908KDBQ DBQ20100921104011809/21/10 10:40:31  5-MIN KDBQ 211640Z 22015G24KT 10SM CLR 27/19 A2984 1160 62 2800 220/15G24 RMK AO2 LTG DSNT W AND NW
94908KDBQ DBQ20100921104511809/21/10 10:45:31  5-MIN KDBQ 211645Z 22015G21KT 10SM CLR 27/19 A2984 1150 62 2800 220/15G21 RMK AO2 LTG DSNT N AND NW
94908KDBQ DBQ20100921105013509/21/10 10:50:31  5-MIN KDBQ 211650Z 23019G24KT 10SM CLR 28/19 A2984 1150 58 2900 220/19G24 RMK AO2 LTG DSNT N AND NW SLP097 T02780189
94908KDBQ DBQ20100921105511809/21/10 10:55:31  5-MIN KDBQ 211655Z 24016G24KT 10SM CLR 28/19 A2984 1150 58 2900 240/16G24 RMK AO2 LTG DSNT N AND NW
94908KDBQ DBQ20100921110011209/21/10 11:00:31  5-MIN KDBQ 211700Z 23018G24KT 10SM CLR 27/19 A2984 1150 60 2900 230/18G24 RMK AO2 LTG DSNT NW
94908KDBQ DBQ20100921110511209/21/10 11:05:31  5-MIN KDBQ 211705Z 23016G24KT 10SM CLR 26/18 A2984 1150 62 2700 230/16G24 RMK AO2 LTG DSNT NW
94908KDBQ DBQ20100921111011209/21/10 11:10:31  5-MIN KDBQ 211710Z 25015G23KT 10SM CLR 26/18 A2984 1150 62 2700 250/15G23 RMK AO2 LTG DSNT NW
94908KDBQ DBQ20100921111511209/21/10 11:15:31  5-MIN KDBQ 211715Z 24012G20KT 10SM CLR 26/18 A2984 1150 62 2700 240/12G20 RMK AO2 LTG DSNT NW
94908KDBQ DBQ20100921112011209/21/10 11:20:31  5-MIN KDBQ 211720Z 25014KT 10SM CLR 26/18 A2984 1150 62 2700 250/14 RMK AO2 LTG DSNT N AND NW
94908KDBQ DBQ20100921112511809/21/10 11:25:31  5-MIN KDBQ 211725Z 25011G18KT 10SM CLR 26/18 A2985 1150 62 2700 250/11G18 RMK AO2 LTG DSNT N AND NW
94908KDBQ DBQ20100921113011209/21/10 11:30:31  5-MIN KDBQ 211730Z 25010KT 10SM CLR 27/18 A2985 1150 60 2800 250/10 RMK AO2 LTG DSNT N AND NW
94908KDBQ DBQ20100921113511209/21/10 11:35:31  5-MIN KDBQ 211735Z 25014KT 10SM CLR 26/18 A2985 1150 62 2700 250/14 RMK AO2 LTG DSNT N AND NW
94908KDBQ DBQ20100921114010609/21/10 11:40:31  5-MIN KDBQ 211740Z 25013KT 10SM CLR 26/18 A2985 1150 62 2700 250/13 RMK AO2 LTG DSNT NW
94908KDBQ DBQ20100921114510609/21/10 11:45:31  5-MIN KDBQ 211745Z 24011KT 10SM CLR 26/18 A2984 1150 62 2700 240/11 RMK AO2 LTG DSNT NW
94908KDBQ DBQ20100921115014709/21/10 11:50:31  5-MIN KDBQ 211750Z 25013KT 10SM CLR 26/18 A2984 1150 62 2700 250/13 RMK AO2 LTG DSNT NW SLP097 60001 T02610183 10278 20206 58001
94908KDBQ DBQ20100921115509409/21/10 11:55:31  5-MIN KDBQ 211755Z 24011KT 10SM CLR 26/18 A2984 1150 62 2700 240/11 RMK AO2
94908KDBQ DBQ20100921120009409/21/10 12:00:31  5-MIN KDBQ 211800Z 24011KT 10SM CLR 26/18 A2984 1160 62 2700 240/11 RMK AO2
94908KDBQ DBQ20100921120509409/21/10 12:05:31  5-MIN KDBQ 211805Z 24008KT 10SM CLR 26/18 A2983 1160 62 2700 240/08 RMK AO2
94908KDBQ DBQ20100921121009409/21/10 12:10:31  5-MIN KDBQ 211810Z 24009KT 10SM CLR 26/18 A2983 1160 62 2700 240/09 RMK AO2
94908KDBQ DBQ20100921121509409/21/10 12:15:31  5-MIN KDBQ 211815Z 24006KT 10SM CLR 26/18 A2983 1160 62 2700 240/06 RMK AO2
94908KDBQ DBQ20100921122009409/21/10 12:20:31  5-MIN KDBQ 211820Z 24009KT 10SM CLR 26/18 A2983 1160 62 2700 240/09 RMK AO2
94908KDBQ DBQ20100921122510509/21/10 12:25:31  5-MIN KDBQ 211825Z 25009KT 10SM CLR 26/18 A2984 1160 64 2700 250/09 RMK AO2 LTG DSNT W
94908KDBQ DBQ20100921123011209/21/10 12:30:31  5-MIN KDBQ 211830Z 25008KT 10SM CLR 26/19 A2984 1150 66 2700 250/08 RMK AO2 LTG DSNT W AND NW
94908KDBQ DBQ20100921123511209/21/10 12:35:31  5-MIN KDBQ 211835Z 27007KT 10SM CLR 26/19 A2984 1160 64 2700 270/07 RMK AO2 LTG DSNT W AND NW
94908KDBQ DBQ20100921124011209/21/10 12:40:31  5-MIN KDBQ 211840Z 27005KT 10SM CLR 26/19 A2983 1160 64 2700 260/05 RMK AO2 LTG DSNT W AND NW
94908KDBQ DBQ20100921124511209/21/10 12:45:31  5-MIN KDBQ 211845Z 27006KT 10SM CLR 26/19 A2984 1150 64 2700 270/06 RMK AO2 LTG DSNT W AND NW
94908KDBQ DBQ20100921125012909/21/10 12:50:31  5-MIN KDBQ 211850Z 28007KT 10SM CLR 26/19 A2984 1150 66 2700 280/07 RMK AO2 LTG DSNT W AND NW SLP097 T02560189
94908KDBQ DBQ20100921125511209/21/10 12:55:31  5-MIN KDBQ 211855Z 29005KT 10SM CLR 25/19 A2983 1160 68 2600 290/05 RMK AO2 LTG DSNT W AND NW
94908KDBQ DBQ20100921130011209/21/10 13:00:31  5-MIN KDBQ 211900Z 29005KT 10SM CLR 25/19 A2984 1160 68 2600 280/05 RMK AO2 LTG DSNT W AND NW
94908KDBQ DBQ20100921130511209/21/10 13:05:31  5-MIN KDBQ 211905Z 32006KT 10SM CLR 24/19 A2984 1150 71 2500 320/06 RMK AO2 LTG DSNT W AND NW
94908KDBQ DBQ20100921131012009/21/10 13:10:31  5-MIN KDBQ 211910Z 32009KT 10SM VCTS CLR 24/19 A2983 1160 71 2600 320/09 RMK AO2 LTG DSNT SW-NW TSB10
94908KDBQ DBQ20100921131512009/21/10 13:15:31  5-MIN KDBQ 211915Z 34010KT 10SM VCTS CLR 23/19 A2983 1160 76 2400 340/10 RMK AO2 LTG DSNT ALQDS TSB10
94908KDBQ DBQ20100921132012009/21/10 13:20:31  5-MIN KDBQ 211920Z 34010KT 10SM VCTS CLR 23/19 A2982 1170 78 2400 340/10 RMK AO2 LTG DSNT ALQDS TSB10
94908KDBQ DBQ20100921132512509/21/10 13:25:31  5-MIN KDBQ 211925Z 35013G17KT 9SM TS SCT041 23/19 A2983 1160 78 2400 350/13G17 RMK AO2 LTG DSNT W-NE TSB10
94908KDBQ DBQ20100921133015709/21/10 13:30:31  5-MIN KDBQ 211930Z 26017G22KT 9SM R36/5500VP6000FT TS FEW033 BKN039 22/19 A2986 1130 81 2300 260/17G22 RMK AO2 LTG DSNT SW-NW TSB10 PRESRR
94908KDBQ DBQ20100921133520309/21/10 13:35:31  5-MIN KDBQ 211935Z 30020G28KT 1SM R36/2400VP6000FT +TSRA BR FEW005 SCT030 BKN039 20/18 A2985 1150 90 2000 300/20G28 RMK AO2 PK WND 31028/1933 WSHFT 1921 LTG DSNT SW-NW TSB10RAB33 P0003
94908KDBQ DBQ20100921134020409/21/10 13:40:31  5-MIN KDBQ 211940Z 32017G28KT 3/4SM R36/2400VP6000FT TSRA BR FEW012 SCT023 BKN041 19/18 A2985 1140 97 1900 320/17G28 RMK AO2 PK WND 31028/1933 WSHFT 1921 LTG DSNT SW-NW TSB10RAB33 P0010
94908KDBQ DBQ20100921134520609/21/10 13:45:31  5-MIN KDBQ 211945Z 32009G22KT 2 1/2SM R36/5500VP6000FT -TSRA BR SCT025 BKN041 OVC080 19/18 A2985 1140 93 2000 320/09G22 RMK AO2 PK WND 31028/1933 WSHFT 1921 LTG DSNT SW-N TSB10RAB33 P0010
94908KDBQ DBQ20100921135018309/21/10 13:50:31  5-MIN KDBQ 211950Z 33010G19KT 7SM -TSRA FEW020 BKN041 OVC080 19/18 A2984 1150 93 2000 330/10G19 RMK AO2 PK WND 31028/1933 WSHFT 1921 LTG DSNT ALQDS TSB10RAB33 P0011
94908KDBQ DBQ20100921135513709/21/10 13:55:31  5-MIN KDBQ 211955Z 29007KT 7SM -TSRA FEW020 BKN065 OVC080 19/18 A2986 1130 93 1900 290/07 RMK AO2 LTG DSNT ALQDS P0000
94908KDBQ DBQ20100921140014109/21/10 14:00:31  5-MIN KDBQ 212000Z AUTO 29006KT 3SM VCTS +RA BR BKN025 OVC075 19/17 A2985 1140 90 1900 290/06 RMK AO2 LTG DSNT ALQDS P0002
94908KDBQ DBQ20100921140514809/21/10 14:05:31  5-MIN KDBQ 212005Z AUTO 27004KT 3SM VCTS -RA BR SCT031 BKN070 OVC080 19/17 A2985 1140 87 2000 270/04 RMK AO2 LTG DSNT ALQDS P0004
94908KDBQ DBQ20100921141014509/21/10 14:10:31  5-MIN KDBQ 212010Z AUTO 30004KT 7SM VCTS -RA BKN046 BKN065 OVC080 19/17 A2985 1150 90 1900 300/04 RMK AO2 LTG DSNT ALQDS P0004
94908KDBQ DBQ20100921141514009/21/10 14:15:31  5-MIN KDBQ 212015Z AUTO 32007KT 3SM VCTS RA BR BKN038 OVC080 19/17 A2984 1160 87 2000 320/07 RMK AO2 LTG DSNT ALQDS P0005
94908KDBQ DBQ20100921142014009/21/10 14:20:31  5-MIN KDBQ 212020Z 30009KT 3SM -TSRA BR BKN036 BKN080 OVC095 19/18 A2984 1150 90 2000 300/09 RMK AO2 LTG DSNT ALQDS P0007
94908KDBQ DBQ20100921142513909/21/10 14:25:31  5-MIN KDBQ 212025Z 28013G19KT 6SM -TSRA BR BKN043 OVC090 19/18 A2985 1140 93 2000 280/13G19 RMK AO2 LTG DSNT ALQDS P0007
94908KDBQ DBQ20100921143013909/21/10 14:30:31  5-MIN KDBQ 212030Z 28012G19KT 6SM -TSRA BR BKN045 OVC085 19/18 A2985 1150 93 2000 280/12G19 RMK AO2 LTG DSNT ALQDS P0008
94908KDBQ DBQ20100921143513209/21/10 14:35:31  5-MIN KDBQ 212035Z 29010KT 4SM TSRA BR BKN043 OVC100 19/19 A2984 1150 97 2000 290/10 RMK AO2 LTG DSNT ALQDS P0009
94908KDBQ DBQ20100921144013809/21/10 14:40:31  5-MIN KDBQ 212040Z 29009G17KT 4SM TSRA BR BKN038 OVC100 19/18 A2984 1160 93 2000 290/09G17 RMK AO2 LTG DSNT ALQDS P0010
94908KDBQ DBQ20100921144512509/21/10 14:45:31  5-MIN KDBQ 212045Z 27008KT 4SM TSRA BR OVC040 19/18 A2984 1150 93 2000 270/08 RMK AO2 LTG DSNT ALQDS P0011
94908KDBQ DBQ20100921145015409/21/10 14:50:31  5-MIN KDBQ 212050Z 26011KT 4SM TSRA BR OVC038 19/18 A2985 1150 90 2000 260/11 RMK AO2 LTG DSNT ALQDS SLP102 P0012 60023 T01940178 50001
94908KDBQ DBQ20100921145512809/21/10 14:55:31  5-MIN KDBQ 212055Z 26010KT 4SM TSRA BR OVC036 19/18 A2985 1140 93 2000 260/10 RMK AO2 LTG DSNT E AND SE P0002
94908KDBQ DBQ20100921150012409/21/10 15:00:31  5-MIN KDBQ 212100Z 27007KT 3SM TSRA BR OVC032 19/18 A2984 1160 90 2000 270/07 RMK AO2 LTG DSNT N-SE P0004
94908KDBQ DBQ20100921150513509/21/10 15:05:31  5-MIN KDBQ 212105Z 36007KT 3SM RA BR OVC030 19/17 A2979 1200 87 2000 350/07 RMK AO2 LTG DSNT N-SE TSE03 PRESFR P0005
94908KDBQ DBQ20100921151012809/21/10 15:10:31  5-MIN KDBQ 212110Z 31003KT 4SM RA BR OVC026 19/17 A2979 1200 90 2000 310/03 RMK AO2 LTG DSNT N-SE TSE03 P0007
94908KDBQ DBQ20100921151512609/21/10 15:15:31  5-MIN KDBQ 212115Z 24004KT 4SM -RA BR BKN024 19/17 A2980 1190 87 2000 240/04 RMK AO2 LTG DSNT E TSE03 P0008
94908KDBQ DBQ20100921152012609/21/10 15:20:31  5-MIN KDBQ 212120Z 20004KT 4SM -RA BR BKN024 19/18 A2980 1190 90 2000 200/04 RMK AO2 LTG DSNT E TSE03 P0008
94908KDBQ DBQ20100921152511609/21/10 15:25:31  5-MIN KDBQ 212125Z 14005KT 4SM BR SCT024 19/18 A2977 1220 90 2100 130/05 RMK AO2 TSE03RAE24 P0008
94908KDBQ DBQ20100921153011609/21/10 15:30:31  5-MIN KDBQ 212130Z 16003KT 4SM BR SCT022 19/18 A2977 1220 93 2100 160/03 RMK AO2 TSE03RAE24 P0008
94908KDBQ DBQ20100921153511609/21/10 15:35:31  5-MIN KDBQ 212135Z 00000KT 4SM BR FEW018 19/18 A2976 1220 90 2100 000/00 RMK AO2 TSE03RAE24 P0008
94908KDBQ DBQ20100921154012309/21/10 15:40:31  5-MIN KDBQ 212140Z 00000KT 4SM BR FEW046 SCT120 20/18 A2976 1220 87 2100 000/00 RMK AO2 TSE03RAE24 P0008
94908KDBQ DBQ20100921154511609/21/10 15:45:31  5-MIN KDBQ 212145Z 00000KT 4SM BR SCT110 20/18 A2976 1230 87 2100 000/00 RMK AO2 TSE03RAE24 P0008
94908KDBQ DBQ20100921155013109/21/10 15:50:31  5-MIN KDBQ 212150Z 19004KT 10SM FEW120 19/18 A2977 1220 93 2100 190/04 RMK AO2 TSE03RAE24 SLP075 P0008 T01940183
94908KDBQ DBQ20100921155509709/21/10 15:55:31  5-MIN KDBQ 212155Z 09003KT 10SM FEW120 20/18 A2977 1220 87 2100 090/03 RMK AO2
94908KDBQ DBQ20100921160010409/21/10 16:00:31  5-MIN KDBQ 212200Z 21004KT 10SM SCT120 20/18 A2979 1200 90 2100 210/04 RMK AO2 PRESRR
94908KDBQ DBQ20100921160510409/21/10 16:05:31  5-MIN KDBQ 212205Z 32009KT 10SM SCT120 20/18 A2982 1170 90 2100 320/09 RMK AO2 PRESRR
94908KDBQ DBQ20100921161011009/21/10 16:10:31  5-MIN KDBQ 212210Z 33013G18KT 10SM FEW120 19/18 A2983 1160 93 2000 330/13G18 RMK AO2 PRESRR
94908KDBQ DBQ20100921161510309/21/10 16:15:31  5-MIN KDBQ 212215Z 30007G18KT 10SM FEW120 19/18 A2983 1160 90 2000 300/07G18 RMK AO2
94908KDBQ DBQ20100921162009709/21/10 16:20:31  5-MIN KDBQ 212220Z 31006KT 10SM FEW011 19/18 A2984 1150 90 2000 300/06 RMK AO2
94908KDBQ DBQ20100921162510409/21/10 16:25:31  5-MIN KDBQ 212225Z 29003KT 10SM SCT011 SCT120 19/18 A2985 1150 90 2000 290/03 RMK AO2
94908KDBQ DBQ20100921163009709/21/10 16:30:31  5-MIN KDBQ 212230Z 24004KT 10SM SCT011 19/18 A2985 1150 90 2000 240/04 RMK AO2
94908KDBQ DBQ20100921163510409/21/10 16:35:31  5-MIN KDBQ 212235Z 26005KT 10SM BKN011 BKN018 19/18 A2985 1140 90 2000 260/05 RMK AO2
94908KDBQ DBQ20100921164010309/21/10 16:40:31  5-MIN KDBQ 212240Z 27004KT 9SM SCT011 BKN018 19/18 A2986 1130 90 2000 270/04 RMK AO2
94908KDBQ DBQ20100921164511009/21/10 16:45:31  5-MIN KDBQ 212245Z 30004KT 9SM SCT011 BKN020 BKN024 19/18 A2986 1130 90 2000 300/04 RMK AO2
94908KDBQ DBQ20100921165012109/21/10 16:50:31  5-MIN KDBQ 212250Z 28005KT 10SM SCT011 BKN020 19/18 A2986 1130 93 1900 280/05 RMK AO2 SLP109 T01890178
94908KDBQ DBQ20100921165511109/21/10 16:55:31  5-MIN KDBQ 212255Z 26005KT 10SM FEW009 BKN020 BKN025 19/18 A2987 1130 93 1900 260/05 RMK AO2
94908KDBQ DBQ20100921170010409/21/10 17:00:31  5-MIN KDBQ 212300Z 00000KT 10SM FEW009 BKN022 19/18 A2987 1130 93 1900 000/00 RMK AO2
94908KDBQ DBQ20100921170509709/21/10 17:05:31  5-MIN KDBQ 212305Z 26003KT 10SM BKN022 19/18 A2987 1130 93 1900 260/03 RMK AO2
94908KDBQ DBQ20100921171009709/21/10 17:10:31  5-MIN KDBQ 212310Z 25003KT 10SM SCT022 19/18 A2987 1130 93 1900 240/03 RMK AO2
94908KDBQ DBQ20100921171509609/21/10 17:15:31  5-MIN KDBQ 212315Z 20003KT 9SM SCT022 19/18 A2987 1130 93 1900 200/03 RMK AO2
94908KDBQ DBQ20100921172009609/21/10 17:20:31  5-MIN KDBQ 212320Z 17004KT 8SM FEW022 18/18 A2987 1130 96 1800 170/04 RMK AO2
94908KDBQ DBQ20100921172509609/21/10 17:25:31  5-MIN KDBQ 212325Z 17003KT 7SM FEW022 18/18 A2987 1130 96 1800 170/03 RMK AO2
94908KDBQ DBQ20100921173009309/21/10 17:30:31  5-MIN KDBQ 212330Z 00000KT 7SM CLR 18/18 A2986 1130 96 1800 000/00 RMK AO2
94908KDBQ DBQ20100921173509309/21/10 17:35:31  5-MIN KDBQ 212335Z 15004KT 7SM CLR 18/18 A2987 1130 96 1800 150/04 RMK AO2
94908KDBQ DBQ20100921174009609/21/10 17:40:31  5-MIN KDBQ 212340Z 15004KT 6SM BR CLR 18/18 A2987 1130 96 1800 150/04 RMK AO2
94908KDBQ DBQ20100921174509609/21/10 17:45:31  5-MIN KDBQ 212345Z 16005KT 6SM BR CLR 18/18 A2986 1130 96 1800 160/05 RMK AO2
94908KDBQ DBQ20100921175013709/21/10 17:50:31  5-MIN KDBQ 212350Z 15007KT 5SM BR CLR 18/18 A2986 1130 96 1800 150/07 RMK AO2 SLP108 60031 T01830178 10261 20183 50004
94908KDBQ DBQ20100921175509609/21/10 17:55:31  5-MIN KDBQ 212355Z 16006KT 6SM BR CLR 18/18 A2986 1130 96 1800 160/06 RMK AO2
94908KDBQ DBQ20100921180009609/21/10 18:00:31  5-MIN KDBQ 220000Z 16005KT 6SM BR CLR 18/18 A2986 1130 96 1800 150/05 RMK AO2
94908KDBQ DBQ20100921180509609/21/10 18:05:31  5-MIN KDBQ 220005Z 17008KT 6SM BR CLR 18/17 A2986 1130 93 1800 170/08 RMK AO2
94908KDBQ DBQ20100921181009309/21/10 18:10:31  5-MIN KDBQ 220010Z 18007KT 7SM CLR 18/17 A2986 1130 93 1800 170/07 RMK AO2
94908KDBQ DBQ20100921181509309/21/10 18:15:31  5-MIN KDBQ 220015Z 18007KT 7SM CLR 18/17 A2987 1130 93 1800 170/07 RMK AO2
94908KDBQ DBQ20100921182009309/21/10 18:20:31  5-MIN KDBQ 220020Z 17007KT 8SM CLR 18/17 A2987 1130 93 1800 170/07 RMK AO2
94908KDBQ DBQ20100921182509309/21/10 18:25:31  5-MIN KDBQ 220025Z 18005KT 9SM CLR 18/17 A2987 1130 93 1800 170/05 RMK AO2
94908KDBQ DBQ20100921183009309/21/10 18:30:31  5-MIN KDBQ 220030Z 18005KT 9SM CLR 18/17 A2987 1130 96 1800 180/05 RMK AO2
94908KDBQ DBQ20100921183509309/21/10 18:35:31  5-MIN KDBQ 220035Z 17005KT 9SM CLR 18/17 A2987 1130 96 1800 170/05 RMK AO2
94908KDBQ DBQ20100921184009309/21/10 18:40:31  5-MIN KDBQ 220040Z 16004KT 8SM CLR 18/17 A2986 1130 96 1800 160/04 RMK AO2
94908KDBQ DBQ20100921184509309/21/10 18:45:31  5-MIN KDBQ 220045Z 16003KT 7SM CLR 18/17 A2986 1130 96 1800 160/03 RMK AO2
94908KDBQ DBQ20100921185011009/21/10 18:50:31  5-MIN KDBQ 220050Z 16003KT 7SM CLR 18/17 A2986 1130 96 1800 160/03 RMK AO2 SLP107 T01780172
94908KDBQ DBQ20100921185509609/21/10 18:55:31  5-MIN KDBQ 220055Z 16003KT 6SM BR CLR 18/17 A2986 1140 96 1800 160/03 RMK AO2
94908KDBQ DBQ20100921190009609/21/10 19:00:31  5-MIN KDBQ 220100Z 00000KT 6SM BR CLR 18/17 A2986 1130 96 1800 000/00 RMK AO2
94908KDBQ DBQ20100921190509609/21/10 19:05:31  5-MIN KDBQ 220105Z 00000KT 6SM BR CLR 18/17 A2986 1130 96 1800 000/00 RMK AO2
94908KDBQ DBQ20100921191009609/21/10 19:10:31  5-MIN KDBQ 220110Z 00000KT 6SM BR CLR 18/17 A2986 1130 96 1800 000/00 RMK AO2
94908KDBQ DBQ20100921191510109/21/10 19:15:31  5-MIN KDBQ 220115Z AUTO 00000KT 6SM BR CLR 17/17 A2986 1130 96 1700 000/00 RMK AO2
94908KDBQ DBQ20100921192010109/21/10 19:20:31  5-MIN KDBQ 220120Z AUTO 00000KT 5SM BR CLR 17/17 A2987 1130 96 1700 000/00 RMK AO2
94908KDBQ DBQ20100921192510109/21/10 19:25:31  5-MIN KDBQ 220125Z AUTO 00000KT 5SM BR CLR 17/17 A2987 1120 96 1700 000/00 RMK AO2
94908KDBQ DBQ20100921193010109/21/10 19:30:31  5-MIN KDBQ 220130Z AUTO 00000KT 5SM BR CLR 17/17 A2987 1120 96 1700 000/00 RMK AO2
94908KDBQ DBQ20100921193510109/21/10 19:35:31  5-MIN KDBQ 220135Z AUTO 00000KT 5SM BR CLR 17/17 A2987 1120 96 1700 000/00 RMK AO2
94908KDBQ DBQ20100921194010109/21/10 19:40:31  5-MIN KDBQ 220140Z AUTO 28003KT 5SM BR CLR 17/17 A2987 1120 96 1700 280/03 RMK AO2
94908KDBQ DBQ20100921194510209/21/10 19:45:31  5-MIN KDBQ 220145Z AUTO 27003KT 5SM BR CLR 17/17 A2987 1120 100 1600 270/03 RMK AO2
94908KDBQ DBQ20100921195011909/21/10 19:50:31  5-MIN KDBQ 220150Z AUTO 00000KT 5SM BR CLR 17/17 A2988 1120 100 1600 000/00 RMK AO2 SLP113 T01670167
94908KDBQ DBQ20100921195510209/21/10 19:55:31  5-MIN KDBQ 220155Z AUTO 00000KT 5SM BR CLR 17/17 A2988 1120 100 1600 000/00 RMK AO2
94908KDBQ DBQ20100921200010109/21/10 20:00:31  5-MIN KDBQ 220200Z AUTO 00000KT 4SM BR CLR 17/16 A2988 1120 96 1600 000/00 RMK AO2
94908KDBQ DBQ20100921200510109/21/10 20:05:31  5-MIN KDBQ 220205Z AUTO 00000KT 5SM BR CLR 17/17 A2988 1120 96 1700 000/00 RMK AO2
94908KDBQ DBQ20100921201010109/21/10 20:10:31  5-MIN KDBQ 220210Z AUTO 00000KT 5SM BR CLR 17/17 A2988 1120 96 1700 000/00 RMK AO2
94908KDBQ DBQ20100921201510109/21/10 20:15:31  5-MIN KDBQ 220215Z AUTO 00000KT 5SM BR CLR 17/17 A2988 1120 96 1700 000/00 RMK AO2
94908KDBQ DBQ20100921202010209/21/10 20:20:31  5-MIN KDBQ 220220Z AUTO 00000KT 5SM BR CLR 17/17 A2988 1110 100 1600 000/00 RMK AO2
94908KDBQ DBQ20100921202510209/21/10 20:25:31  5-MIN KDBQ 220225Z AUTO 00000KT 4SM BR CLR 17/17 A2988 1110 100 1600 000/00 RMK AO2
94908KDBQ DBQ20100921203010209/21/10 20:30:31  5-MIN KDBQ 220230Z AUTO 00000KT 4SM BR CLR 17/17 A2988 1110 100 1600 000/00 RMK AO2
94908KDBQ DBQ20100921203510509/21/10 20:35:31  5-MIN KDBQ 220235Z AUTO 00000KT 2 1/2SM BR CLR 17/16 A2989 1110 96 1600 000/00 RMK AO2
94908KDBQ DBQ20100921204011309/21/10 20:40:31  5-MIN KDBQ 220240Z AUTO 00000KT 2SM BR CLR 17/16 A2989 1110 96 1600 000/00 RMK AO2 VIS 1 1/4V5
94908KDBQ DBQ20100921204510609/21/10 20:45:31  5-MIN KDBQ 220245Z AUTO 21003KT 1 1/2SM BR CLR 16/16 A2989 1110 100 1500 210/03 RMK AO2
94908KDBQ DBQ20100921205014209/21/10 20:50:31  5-MIN KDBQ 220250Z AUTO 22004KT 1SM R36/3500VP6000FT BR CLR 16/16 A2989 1100 100 1500 220/04 RMK AO2 SLP119 T01610161 53010
94908KDBQ DBQ20100921205512209/21/10 20:55:31  5-MIN KDBQ 220255Z AUTO 23003KT 1 1/4SM R36/2400VP6000FT BR CLR 16/16 A2989 1100 96 1500 230/03 RMK AO2
94908KDBQ DBQ20100921210012209/21/10 21:00:31  5-MIN KDBQ 220300Z AUTO 23003KT 2 1/2SM R36/2000V4500FT BR CLR 16/16 A2990 1100 100 1500 230/03 RMK AO2
94908KDBQ DBQ20100921210512209/21/10 21:05:31  5-MIN KDBQ 220305Z AUTO 22004KT 1 3/4SM R36/2000V4000FT BR CLR 16/16 A2990 1100 100 1500 220/04 RMK AO2
94908KDBQ DBQ20100921211012209/21/10 21:10:31  5-MIN KDBQ 220310Z AUTO 23004KT 1 1/2SM R36/1800V4000FT BR CLR 16/16 A2990 1100 100 1500 230/04 RMK AO2
94908KDBQ DBQ20100921211512109/21/10 21:15:31  5-MIN KDBQ 220315Z AUTO 22004KT 3/4SM R36/1200V3000FT BR VV001 16/16 A2990 1100 96 1500 220/04 RMK AO2
94908KDBQ DBQ20100921212013009/21/10 21:20:31  5-MIN KDBQ 220320Z AUTO 22003KT 1/4SM R36/1200V1600FT FG SCT001 BKN009 16/16 A2990 1100 100 1500 220/03 RMK AO2
94908KDBQ DBQ20100921212513009/21/10 21:25:31  5-MIN KDBQ 220325Z AUTO 22004KT 1/4SM R36/1400V1800FT FG SCT001 BKN009 16/16 A2991 1090 100 1500 220/04 RMK AO2
94908KDBQ DBQ20100921213013009/21/10 21:30:31  5-MIN KDBQ 220330Z AUTO 22004KT 1/4SM R36/1400V1800FT FG SCT001 BKN009 16/16 A2991 1090 100 1400 220/04 RMK AO2
94908KDBQ DBQ20100921213513009/21/10 21:35:31  5-MIN KDBQ 220335Z AUTO 22004KT 1/4SM R36/1600V1800FT FG SCT001 OVC007 16/16 A2991 1090 100 1400 220/04 RMK AO2
94908KDBQ DBQ20100921214013009/21/10 21:40:31  5-MIN KDBQ 220340Z AUTO 24004KT 1/4SM R36/1400V1800FT FG SCT001 OVC007 16/16 A2991 1090 100 1400 240/04 RMK AO2
94908KDBQ DBQ20100921214513009/21/10 21:45:31  5-MIN KDBQ 220345Z AUTO 23004KT 1/4SM R36/1400V2800FT FG SCT001 BKN007 16/16 A2991 1090 100 1400 230/04 RMK AO2
94908KDBQ DBQ20100921215014709/21/10 21:50:31  5-MIN KDBQ 220350Z AUTO 24003KT 1/2SM R36/1600V4500FT FG FEW001 BKN007 16/16 A2991 1090 100 1400 240/03 RMK AO2 SLP123 T01560156
94908KDBQ DBQ20100921215513009/21/10 21:55:31  5-MIN KDBQ 220355Z AUTO 25003KT 3/4SM R36/2400V4500FT BR FEW001 SCT007 16/16 A2991 1090 100 1400 250/03 RMK AO2
94908KDBQ DBQ20100921220013009/21/10 22:00:31  5-MIN KDBQ 220400Z AUTO 23004KT 3/4SM R36/2400V5000FT BR FEW001 SCT007 16/16 A2991 1090 100 1400 230/04 RMK AO2
94908KDBQ DBQ20100921220512009/21/10 22:05:31  5-MIN KDBQ 220405Z AUTO 24004KT 1SM R36/2600V5500FT BR VV001 16/16 A2991 1090 100 1400 240/04 RMK AO2
94908KDBQ DBQ20100921221012309/21/10 22:10:31  5-MIN KDBQ 220410Z AUTO 23004KT 1 1/4SM R36/2600VP6000FT BR CLR 16/16 A2991 1090 100 1400 230/04 RMK AO2
94908KDBQ DBQ20100921221512309/21/10 22:15:31  5-MIN KDBQ 220415Z AUTO 23004KT 1 1/4SM R36/2200VP6000FT BR CLR 16/16 A2991 1090 100 1400 230/04 RMK AO2
94908KDBQ DBQ20100921222011909/21/10 22:20:31  5-MIN KDBQ 220420Z AUTO 23004KT 1SM R36/2200VP6000FT BR CLR 16/16 A2991 1090 100 1400 230/04 RMK AO2
94908KDBQ DBQ20100921222512509/21/10 22:25:31  5-MIN KDBQ 220425Z AUTO 23004KT 1 1/4SM R36/1600V3000FT BR FEW001 16/16 A2991 1090 100 1400 230/04 RMK AO2
94908KDBQ DBQ20100921223012209/21/10 22:30:31  5-MIN KDBQ 220430Z AUTO 22006KT 1/2SM R36/1600V2200FT FG VV001 16/16 A2991 1080 100 1400 220/06 RMK AO2
94908KDBQ DBQ20100921223512909/21/10 22:35:31  5-MIN KDBQ 220435Z AUTO 22005KT 1/4SM R36/1400V1800FT FG SCT001 BKN007 16/16 A2992 1080 96 1500 220/05 RMK AO2
94908KDBQ DBQ20100921224013009/21/10 22:40:31  5-MIN KDBQ 220440Z AUTO 22005KT 1/4SM R36/1400V1800FT FG FEW001 BKN007 16/16 A2992 1080 100 1500 220/05 RMK AO2
94908KDBQ DBQ20100921224513009/21/10 22:45:31  5-MIN KDBQ 220445Z AUTO 22004KT 1/2SM R36/1600V2000FT FG SCT001 BKN007 16/16 A2993 1070 100 1500 220/04 RMK AO2
94908KDBQ DBQ20100921225013009/21/10 22:50:31  5-MIN KDBQ 220450Z AUTO 22004KT 1/2SM R36/1600V2400FT FG BKN001 OVC007 16/16 A2993 1070 100 1500 220/04 RMK AO2
94908KDBQ DBQ20100921225513009/21/10 22:55:31  5-MIN KDBQ 220455Z AUTO 22004KT 1/2SM R36/1800V4000FT FG BKN001 OVC007 16/16 A2992 1080 100 1500 220/04 RMK AO2
94908KDBQ DBQ20100921230013109/21/10 23:00:31  5-MIN KDBQ 220500Z AUTO 22004KT 3/4SM R36/2400VP6000FT BR BKN001 OVC007 16/16 A2993 1070 100 1500 220/04 RMK AO2
94908KDBQ DBQ20100921230510409/21/10 23:05:31  5-MIN KDBQ 220505Z AUTO 24005KT 2SM BR OVC003 17/16 A2993 1070 96 1600 230/05 RMK AO2
94908KDBQ DBQ20100921231010509/21/10 23:10:31  5-MIN KDBQ 220510Z AUTO 24006KT 4SM BR OVC003 17/17 A2993 1070 100 1600 240/06 RMK AO2
94908KDBQ DBQ20100921231510509/21/10 23:15:31  5-MIN KDBQ 220515Z AUTO 24007KT 5SM BR OVC003 17/17 A2993 1070 100 1600 240/07 RMK AO2
94908KDBQ DBQ20100921232010509/21/10 23:20:31  5-MIN KDBQ 220520Z AUTO 25008KT 6SM BR OVC003 17/17 A2993 1070 100 1600 250/08 RMK AO2
94908KDBQ DBQ20100921232510109/21/10 23:25:31  5-MIN KDBQ 220525Z AUTO 25007KT 7SM OVC003 17/17 A2993 1070 96 1600 250/07 RMK AO2
94908KDBQ DBQ20100921233010109/21/10 23:30:31  5-MIN KDBQ 220530Z AUTO 25009KT 7SM OVC003 17/17 A2993 1070 96 1600 240/09 RMK AO2
94908KDBQ DBQ20100921233510109/21/10 23:35:31  5-MIN KDBQ 220535Z AUTO 24008KT 7SM OVC003 17/17 A2993 1070 96 1600 240/08 RMK AO2
94908KDBQ DBQ20100921234010109/21/10 23:40:31  5-MIN KDBQ 220540Z AUTO 24008KT 7SM OVC003 17/17 A2993 1070 96 1600 240/08 RMK AO2
94908KDBQ DBQ20100921234510109/21/10 23:45:31  5-MIN KDBQ 220545Z AUTO 24008KT 7SM OVC003 17/17 A2993 1070 96 1600 240/08 RMK AO2
94908KDBQ DBQ20100921235014609/21/10 23:50:31  5-MIN KDBQ 220550Z AUTO 25008KT 7SM OVC003 17/17 A2994 1060 96 1600 250/08 RMK AO2 SLP132 T01720167 10183 20156 402780156 51011
94908KDBQ DBQ20100921235510209/21/10 23:55:31  5-MIN KDBQ 220555Z AUTO 25007KT 7SM OVC003 17/17 A2994 1060 100 1600 250/07 RMK AO2
94908KDBQ DBQ20100922000010209/22/10 00:00:38  5-MIN KDBQ 220600Z AUTO 25005KT 7SM OVC003 17/17 A2994 1060 100 1600 250/05 RMK AO2
94908KDBQ DBQ20100922000510509/22/10 00:05:31  5-MIN KDBQ 220605Z AUTO 25006KT 6SM BR OVC003 17/17 A2994 1060 100 1600 250/06 RMK AO2
94908KDBQ DBQ20100922001010509/22/10 00:10:31  5-MIN KDBQ 220610Z AUTO 25007KT 6SM BR OVC003 17/17 A2994 1060 100 1600 250/07 RMK AO2
94908KDBQ DBQ20100922001510509/22/10 00:15:34  5-MIN KDBQ 220615Z AUTO 24007KT 6SM BR OVC003 17/17 A2994 1060 100 1600 240/07 RMK AO2
94908KDBQ DBQ20100922002010509/22/10 00:20:31  5-MIN KDBQ 220620Z AUTO 25007KT 6SM BR OVC003 17/17 A2994 1060 100 1600 250/07 RMK AO2
94908KDBQ DBQ20100922002510409/22/10 00:25:31  5-MIN KDBQ 220625Z AUTO 25008KT 6SM BR OVC003 17/17 A2994 1060 96 1600 250/08 RMK AO2
94908KDBQ DBQ20100922003010209/22/10 00:30:31  5-MIN KDBQ 220630Z AUTO 27006KT 7SM OVC003 17/17 A2995 1050 100 1600 260/06 RMK AO2
94908KDBQ DBQ20100922003510209/22/10 00:35:31  5-MIN KDBQ 220635Z AUTO 28006KT 7SM OVC003 17/17 A2995 1050 100 1600 280/06 RMK AO2
94908KDBQ DBQ20100922004010409/22/10 00:40:31  5-MIN KDBQ 220640Z AUTO 28007KT 6SM BR OVC003 17/17 A2995 1050 96 1600 280/07 RMK AO2
94908KDBQ DBQ20100922004510409/22/10 00:45:31  5-MIN KDBQ 220645Z AUTO 28004KT 6SM BR OVC003 17/17 A2995 1050 96 1600 280/04 RMK AO2
94908KDBQ DBQ20100922005012209/22/10 00:50:31  5-MIN KDBQ 220650Z AUTO 27003KT 5SM BR OVC003 17/17 A2995 1050 100 1600 270/03 RMK AO2 SLP135 T01720172
94908KDBQ DBQ20100922005510409/22/10 00:55:31  5-MIN KDBQ 220655Z AUTO 30004KT 5SM BR OVC003 17/17 A2995 1050 96 1600 300/04 RMK AO2
94908KDBQ DBQ20100922010010409/22/10 01:00:31  5-MIN KDBQ 220700Z AUTO 31005KT 5SM BR OVC003 17/17 A2994 1060 96 1600 310/05 RMK AO2
94908KDBQ DBQ20100922010510409/22/10 01:05:31  5-MIN KDBQ 220705Z AUTO 30003KT 4SM BR OVC003 17/17 A2994 1060 96 1600 300/03 RMK AO2
94908KDBQ DBQ20100922011010409/22/10 01:10:31  5-MIN KDBQ 220710Z AUTO 31004KT 4SM BR OVC003 17/17 A2994 1060 96 1600 310/04 RMK AO2
94908KDBQ DBQ20100922011510509/22/10 01:15:31  5-MIN KDBQ 220715Z AUTO 31004KT 4SM BR OVC003 17/17 A2994 1060 100 1500 310/04 RMK AO2
94908KDBQ DBQ20100922012010509/22/10 01:20:31  5-MIN KDBQ 220720Z AUTO 32004KT 4SM BR OVC003 17/17 A2994 1060 100 1500 320/04 RMK AO2
94908KDBQ DBQ20100922012510509/22/10 01:25:31  5-MIN KDBQ 220725Z AUTO 34005KT 5SM BR OVC003 17/17 A2994 1060 100 1500 340/05 RMK AO2
94908KDBQ DBQ20100922013010509/22/10 01:30:31  5-MIN KDBQ 220730Z AUTO 35004KT 5SM BR OVC003 17/17 A2994 1060 100 1500 350/04 RMK AO2
94908KDBQ DBQ20100922013510509/22/10 01:35:31  5-MIN KDBQ 220735Z AUTO 35007KT 4SM BR OVC003 17/17 A2994 1060 100 1500 350/07 RMK AO2
94908KDBQ DBQ20100922014011909/22/10 01:40:31  5-MIN KDBQ 220740Z AUTO 36006KT 5SM BR BKN003 BKN080 OVC100 17/17 A2994 1060 100 1500 360/06 RMK AO2
94908KDBQ DBQ20100922014511909/22/10 01:45:31  5-MIN KDBQ 220745Z AUTO 36006KT 5SM BR BKN003 BKN085 OVC100 17/17 A2994 1060 100 1500 360/06 RMK AO2
94908KDBQ DBQ20100922015013609/22/10 01:50:31  5-MIN KDBQ 220750Z AUTO 36008KT 5SM BR BKN003 BKN070 OVC100 17/17 A2994 1060 100 1500 360/08 RMK AO2 SLP136 T01670167
94908KDBQ DBQ20100922015511909/22/10 01:55:31  5-MIN KDBQ 220755Z AUTO 34009KT 5SM BR SCT003 BKN070 OVC100 17/17 A2995 1060 100 1500 340/09 RMK AO2
94908KDBQ DBQ20100922020011909/22/10 02:00:31  5-MIN KDBQ 220800Z AUTO 36006KT 6SM BR FEW003 BKN070 OVC085 17/17 A2995 1050 100 1500 360/06 RMK AO2
94908KDBQ DBQ20100922020511909/22/10 02:05:31  5-MIN KDBQ 220805Z AUTO 01005KT 6SM BR FEW003 BKN070 OVC100 17/17 A2995 1050 100 1500 010/05 RMK AO2
94908KDBQ DBQ20100922021010909/22/10 02:10:31  5-MIN KDBQ 220810Z AUTO 02005KT 7SM FEW003 OVC070 17/17 A2995 1050 100 1500 020/05 RMK AO2
94908KDBQ DBQ20100922021511209/22/10 02:15:31  5-MIN KDBQ 220815Z AUTO 03005KT 6SM BR FEW003 OVC065 17/17 A2995 1050 100 1500 030/05 RMK AO2
94908KDBQ DBQ20100922022011209/22/10 02:20:31  5-MIN KDBQ 220820Z AUTO 02006KT 6SM BR FEW003 OVC065 17/17 A2994 1060 100 1500 020/06 RMK AO2
94908KDBQ DBQ20100922022511209/22/10 02:25:31  5-MIN KDBQ 220825Z AUTO 03005KT 6SM BR FEW003 OVC065 17/17 A2994 1060 100 1500 030/05 RMK AO2
94908KDBQ DBQ20100922023011209/22/10 02:30:31  5-MIN KDBQ 220830Z AUTO 04003KT 6SM BR FEW003 OVC065 17/17 A2994 1060 100 1500 040/03 RMK AO2
94908KDBQ DBQ20100922023511209/22/10 02:35:31  5-MIN KDBQ 220835Z AUTO 04004KT 6SM BR FEW003 OVC065 17/17 A2995 1050 100 1500 040/04 RMK AO2
94908KDBQ DBQ20100922024011209/22/10 02:40:31  5-MIN KDBQ 220840Z AUTO 36003KT 6SM BR FEW003 OVC065 17/17 A2995 1050 100 1500 360/03 RMK AO2
94908KDBQ DBQ20100922024510509/22/10 02:45:31  5-MIN KDBQ 220845Z AUTO 02003KT 6SM BR OVC060 17/17 A2995 1050 100 1500 020/03 RMK AO2
94908KDBQ DBQ20100922025012809/22/10 02:50:31  5-MIN KDBQ 220850Z AUTO 03003KT 5SM BR OVC060 17/17 A2995 1050 100 1500 030/03 RMK AO2 SLP140 T01670167 53015
94908KDBQ DBQ20100922025511109/22/10 02:55:31  5-MIN KDBQ 220855Z AUTO 00000KT 5SM BR FEW003 OVC060 17/17 A2995 1050 96 1600 000/00 RMK AO2
94908KDBQ DBQ20100922030011209/22/10 03:00:31  5-MIN KDBQ 220900Z AUTO 00000KT 5SM BR FEW003 OVC060 17/17 A2996 1050 100 1500 000/00 RMK AO2
94908KDBQ DBQ20100922030511209/22/10 03:05:31  5-MIN KDBQ 220905Z AUTO 00000KT 4SM BR SCT003 OVC060 17/17 A2996 1040 100 1500 000/00 RMK AO2
94908KDBQ DBQ20100922031011109/22/10 03:10:31  5-MIN KDBQ 220910Z AUTO 00000KT 4SM BR BKN003 OVC060 17/17 A2996 1040 96 1600 000/00 RMK AO2
94908KDBQ DBQ20100922031511109/22/10 03:15:31  5-MIN KDBQ 220915Z AUTO 00000KT 4SM BR BKN003 OVC060 17/17 A2996 1040 96 1600 000/00 RMK AO2
94908KDBQ DBQ20100922032011109/22/10 03:20:31  5-MIN KDBQ 220920Z AUTO 00000KT 4SM BR BKN003 OVC060 17/17 A2996 1040 96 1600 000/00 RMK AO2
94908KDBQ DBQ20100922032510409/22/10 03:25:31  5-MIN KDBQ 220925Z AUTO 00000KT 4SM BR OVC003 17/17 A2996 1040 96 1600 000/00 RMK AO2
94908KDBQ DBQ20100922033010409/22/10 03:30:31  5-MIN KDBQ 220930Z AUTO 00000KT 4SM BR OVC003 17/17 A2997 1040 96 1600 000/00 RMK AO2
94908KDBQ DBQ20100922033510409/22/10 03:35:31  5-MIN KDBQ 220935Z AUTO 00000KT 4SM BR OVC003 17/17 A2997 1040 96 1600 000/00 RMK AO2
94908KDBQ DBQ20100922034010409/22/10 03:40:31  5-MIN KDBQ 220940Z AUTO 00000KT 4SM BR OVC003 17/17 A2997 1040 96 1600 000/00 RMK AO2
94908KDBQ DBQ20100922034510409/22/10 03:45:31  5-MIN KDBQ 220945Z AUTO 00000KT 4SM BR OVC003 17/17 A2997 1030 96 1600 000/00 RMK AO2
94908KDBQ DBQ20100922035012109/22/10 03:50:31  5-MIN KDBQ 220950Z AUTO 00000KT 4SM BR OVC003 17/17 A2997 1030 96 1600 000/00 RMK AO2 SLP146 T01720167
94908KDBQ DBQ20100922035510409/22/10 03:55:31  5-MIN KDBQ 220955Z AUTO 17003KT 4SM BR OVC003 17/17 A2997 1030 96 1600 170/03 RMK AO2
94908KDBQ DBQ20100922040010409/22/10 04:00:31  5-MIN KDBQ 221000Z AUTO 00000KT 3SM BR OVC003 17/17 A2997 1030 96 1600 000/00 RMK AO2
94908KDBQ DBQ20100922040510409/22/10 04:05:31  5-MIN KDBQ 221005Z AUTO 00000KT 3SM BR OVC003 17/17 A2998 1020 96 1600 000/00 RMK AO2
94908KDBQ DBQ20100922041010409/22/10 04:10:31  5-MIN KDBQ 221010Z AUTO 18003KT 4SM BR OVC003 17/17 A2998 1030 96 1600 170/03 RMK AO2
94908KDBQ DBQ20100922041510409/22/10 04:15:31  5-MIN KDBQ 221015Z AUTO 00000KT 4SM BR OVC003 17/17 A2998 1020 96 1600 000/00 RMK AO2
94908KDBQ DBQ20100922042010409/22/10 04:20:31  5-MIN KDBQ 221020Z AUTO 19003KT 4SM BR OVC003 17/17 A2998 1020 96 1600 190/03 RMK AO2
94908KDBQ DBQ20100922042510409/22/10 04:25:31  5-MIN KDBQ 221025Z AUTO 00000KT 4SM BR OVC003 17/17 A2998 1020 96 1600 000/00 RMK AO2
94908KDBQ DBQ20100922043010409/22/10 04:30:31  5-MIN KDBQ 221030Z AUTO 00000KT 5SM BR OVC003 17/17 A2998 1020 96 1600 000/00 RMK AO2
94908KDBQ DBQ20100922043510409/22/10 04:35:31  5-MIN KDBQ 221035Z AUTO 00000KT 5SM BR OVC003 17/17 A2998 1020 96 1600 000/00 RMK AO2
94908KDBQ DBQ20100922044010409/22/10 04:40:31  5-MIN KDBQ 221040Z AUTO 00000KT 5SM BR OVC003 17/17 A2998 1020 96 1600 000/00 RMK AO2
94908KDBQ DBQ20100922044510409/22/10 04:45:31  5-MIN KDBQ 221045Z AUTO 00000KT 5SM BR OVC003 17/17 A2998 1020 96 1600 000/00 RMK AO2
94908KDBQ DBQ20100922045011609/22/10 04:50:31  5-MIN KDBQ 221050Z 00000KT 5SM BR OVC003 17/17 A2998 1020 96 1600 000/00 RMK AO2 SLP151 T01720167
94908KDBQ DBQ20100922045509909/22/10 04:55:31  5-MIN KDBQ 221055Z 00000KT 5SM BR OVC003 17/17 A2999 1020 96 1600 000/00 RMK AO2
94908KDBQ DBQ20100922050009909/22/10 05:00:31  5-MIN KDBQ 221100Z 00000KT 5SM BR OVC003 17/17 A2999 1010 96 1500 000/00 RMK AO2
94908KDBQ DBQ20100922050509909/22/10 05:05:31  5-MIN KDBQ 221105Z 23004KT 4SM BR OVC003 17/17 A3000 1010 96 1500 230/04 RMK AO2
94908KDBQ DBQ20100922051009909/22/10 05:10:31  5-MIN KDBQ 221110Z 23003KT 4SM BR OVC003 17/17 A3000 1000 96 1500 230/03 RMK AO2
94908KDBQ DBQ20100922051509909/22/10 05:15:31  5-MIN KDBQ 221115Z 00000KT 4SM BR OVC003 17/17 A3000 1000 96 1500 000/00 RMK AO2
94908KDBQ DBQ20100922052009909/22/10 05:20:31  5-MIN KDBQ 221120Z 00000KT 4SM BR OVC003 17/17 A3000 1000 96 1500 000/00 RMK AO2
94908KDBQ DBQ20100922052510009/22/10 05:25:31  5-MIN KDBQ 221125Z 00000KT 4SM BR OVC003 17/17 A3000 1000 100 1500 000/00 RMK AO2
94908KDBQ DBQ20100922053010009/22/10 05:30:31  5-MIN KDBQ 221130Z 00000KT 4SM BR OVC003 17/17 A3001 1000 100 1500 000/00 RMK AO2
94908KDBQ DBQ20100922053509909/22/10 05:35:31  5-MIN KDBQ 221135Z 00000KT 4SM BR OVC003 17/17 A3001 1000 96 1500 000/00 RMK AO2
94908KDBQ DBQ20100922054009909/22/10 05:40:31  5-MIN KDBQ 221140Z 00000KT 4SM BR OVC003 17/17 A3001 1000 96 1500 000/00 RMK AO2
94908KDBQ DBQ20100922054509809/22/10 05:45:31  5-MIN KDBQ 221145Z 00000KT 4SM BR OVC003 17/17 A3002 990 96 1500 000/00 RMK AO2
94908KDBQ DBQ20100922055014009/22/10 05:50:31  5-MIN KDBQ 221150Z 00000KT 4SM BR OVC003 17/17 A3002 990 100 1500 000/00 RMK AO2 SLP162 70032 T01720172 10172 20167 53004
94908KDBQ DBQ20100922055509909/22/10 05:55:31  5-MIN KDBQ 221155Z 00000KT 4SM BR OVC003 17/17 A3001 990 100 1500 000/00 RMK AO2
94908KDBQ DBQ20100922060009909/22/10 06:00:31  5-MIN KDBQ 221200Z 00000KT 4SM BR OVC003 17/17 A3002 990 100 1500 000/00 RMK AO2
94908KDBQ DBQ20100922060509909/22/10 06:05:31  5-MIN KDBQ 221205Z 00000KT 4SM BR OVC003 17/17 A3002 990 100 1500 000/00 RMK AO2
94908KDBQ DBQ20100922061009909/22/10 06:10:31  5-MIN KDBQ 221210Z 00000KT 4SM BR OVC003 17/17 A3002 990 100 1500 000/00 RMK AO2
94908KDBQ DBQ20100922061509809/22/10 06:15:31  5-MIN KDBQ 221215Z 00000KT 4SM BR OVC003 18/17 A3002 990 96 1600 000/00 RMK AO2
94908KDBQ DBQ20100922062009909/22/10 06:20:31  5-MIN KDBQ 221220Z 00000KT 3SM BR OVC003 17/17 A3002 990 100 1500 000/00 RMK AO2
94908KDBQ DBQ20100922062510209/22/10 06:25:31  5-MIN KDBQ 221225Z 00000KT 2 1/2SM BR OVC003 18/17 A3002 990 96 1600 000/00 RMK AO2
94908KDBQ DBQ20100922063011109/22/10 06:30:31  5-MIN KDBQ 221230Z 00000KT 1SM R36/P6000FT BR OVC003 17/17 A3002 980 100 1500 000/00 RMK AO2
94908KDBQ DBQ20100922063511609/22/10 06:35:31  5-MIN KDBQ 221235Z 00000KT 1SM R36/5500VP6000FT BR OVC001 17/17 A3002 980 100 1500 000/00 RMK AO2
94908KDBQ DBQ20100922064011809/22/10 06:40:31  5-MIN KDBQ 221240Z 00000KT 1/2SM R36/5000VP6000FT FG OVC001 17/17 A3003 980 100 1500 000/00 RMK AO2
94908KDBQ DBQ20100922064511709/22/10 06:45:31  5-MIN KDBQ 221245Z 00000KT 1/2SM R36/4000V6000FT FG OVC001 17/17 A3003 980 100 1500 000/00 RMK AO2
94908KDBQ DBQ20100922065011709/22/10 06:50:31  5-MIN KDBQ 221250Z 00000KT 1/4SM R36/3000V5000FT FG OVC001 17/17 A3003 980 100 1500 000/00 RMK AO2
94908KDBQ DBQ20100922065511709/22/10 06:55:31  5-MIN KDBQ 221255Z 00000KT 1/4SM R36/3000V4000FT FG OVC001 17/17 A3003 980 100 1500 000/00 RMK AO2
94908KDBQ DBQ20100922070011709/22/10 07:00:31  5-MIN KDBQ 221300Z 00000KT 1/2SM R36/2800V3500FT FG OVC001 17/17 A3003 980 100 1500 000/00 RMK AO2
94908KDBQ DBQ20100922070511709/22/10 07:05:31  5-MIN KDBQ 221305Z 00000KT 1/4SM R36/2000V3000FT FG OVC001 17/17 A3003 980 100 1500 000/00 RMK AO2
94908KDBQ DBQ20100922071011709/22/10 07:10:31  5-MIN KDBQ 221310Z 00000KT 1/4SM R36/1800V2800FT FG OVC001 17/17 A3003 970 100 1500 000/00 RMK AO2
94908KDBQ DBQ20100922071511709/22/10 07:15:31  5-MIN KDBQ 221315Z 00000KT 1/4SM R36/1800V2200FT FG OVC001 17/17 A3003 970 100 1500 000/00 RMK AO2
94908KDBQ DBQ20100922072011709/22/10 07:20:31  5-MIN KDBQ 221320Z 00000KT 1/4SM R36/1800V2200FT FG OVC001 17/17 A3004 970 100 1500 000/00 RMK AO2
94908KDBQ DBQ20100922072511709/22/10 07:25:31  5-MIN KDBQ 221325Z 00000KT 1/4SM R36/1800V3000FT FG OVC001 17/17 A3004 970 100 1500 000/00 RMK AO2
94908KDBQ DBQ20100922073011709/22/10 07:30:31  5-MIN KDBQ 221330Z 07003KT 1/4SM R36/2000V5000FT FG OVC001 17/17 A3004 970 100 1500 070/03 RMK AO2
94908KDBQ DBQ20100922073511709/22/10 07:35:31  5-MIN KDBQ 221335Z 07003KT 3/4SM R36/4000V5000FT BR OVC001 17/17 A3004 970 100 1500 070/03 RMK AO2
94908KDBQ DBQ20100922074011609/22/10 07:40:31  5-MIN KDBQ 221340Z 08004KT 3/4SM R36/4000V5000FT BR OVC001 18/17 A3003 970 96 1600 080/04 RMK AO2
94908KDBQ DBQ20100922074511609/22/10 07:45:31  5-MIN KDBQ 221345Z 11003KT 3/4SM R36/4000V5000FT BR OVC001 18/17 A3004 970 96 1600 110/03 RMK AO2
94908KDBQ DBQ20100922075013409/22/10 07:50:31  5-MIN KDBQ 221350Z 11003KT 3/4SM R36/4000V4500FT BR OVC001 17/17 A3004 970 100 1500 110/03 RMK AO2 SLP171 T01720172
94908KDBQ DBQ20100922075511109/22/10 07:55:31  5-MIN KDBQ 221355Z 09003KT 3/4SM R36/4500FT BR OVC001 18/17 A3004 970 96 1600 090/03 RMK AO2
94908KDBQ DBQ20100922080011609/22/10 08:00:31  5-MIN KDBQ 221400Z 09003KT 3/4SM R36/4000V4500FT BR OVC001 18/17 A3004 970 96 1600 090/03 RMK AO2
94908KDBQ DBQ20100922080511609/22/10 08:05:31  5-MIN KDBQ 221405Z 08003KT 3/4SM R36/4000V5000FT BR OVC001 18/17 A3005 960 96 1600 080/03 RMK AO2
94908KDBQ DBQ20100922081011609/22/10 08:10:31  5-MIN KDBQ 221410Z 10003KT 3/4SM R36/4000V5000FT BR OVC001 18/17 A3005 960 96 1500 100/03 RMK AO2
94908KDBQ DBQ20100922081511509/22/10 08:15:31  5-MIN KDBQ 221415Z 12003KT 1SM R36/4500VP6000FT BR OVC001 18/17 A3005 960 96 1500 120/03 RMK AO2
94908KDBQ DBQ20100922082011509/22/10 08:20:31  5-MIN KDBQ 221420Z 08003KT 1SM R36/5500VP6000FT BR OVC001 18/17 A3005 960 96 1500 080/03 RMK AO2
94908KDBQ DBQ20100922082511909/22/10 08:25:31  5-MIN KDBQ 221425Z 11004KT 1 1/2SM R36/5500VP6000FT BR OVC001 18/17 A3005 960 96 1500 110/04 RMK AO2
94908KDBQ DBQ20100922083009809/22/10 08:30:31  5-MIN KDBQ 221430Z 09003KT 2SM BR OVC001 18/17 A3005 960 96 1500 090/03 RMK AO2
94908KDBQ DBQ20100922083510209/22/10 08:35:31  5-MIN KDBQ 221435Z 10004KT 1 3/4SM BR OVC001 18/17 A3005 960 96 1500 100/04 RMK AO2
94908KDBQ DBQ20100922084010209/22/10 08:40:31  5-MIN KDBQ 221440Z 08003KT 1 3/4SM BR OVC003 18/17 A3005 960 96 1500 080/03 RMK AO2
94908KDBQ DBQ20100922084510209/22/10 08:45:31  5-MIN KDBQ 221445Z 09004KT 1 3/4SM BR OVC003 18/17 A3005 960 93 1600 090/04 RMK AO2
94908KDBQ DBQ20100922085011009/22/10 08:50:31  5-MIN KDBQ 221450Z 10004KT 2SM BR OVC003 18/18 A3005 960 96 1600 100/04 RMK AO2 CIG 002V006
94908KDBQ DBQ20100922085511009/22/10 08:55:31  5-MIN KDBQ 221455Z 11003KT 2SM BR OVC003 18/18 A3006 950 96 1600 110/03 RMK AO2 CIG 002V006
94908KDBQ DBQ20100922090009809/22/10 09:00:31  5-MIN KDBQ 221500Z 09005KT 2SM BR OVC003 18/18 A3006 950 96 1600 090/05 RMK AO2
94908KDBQ DBQ20100922090509809/22/10 09:05:31  5-MIN KDBQ 221505Z 00000KT 2SM BR OVC003 18/18 A3006 950 96 1600 000/00 RMK AO2
94908KDBQ DBQ20100922091011009/22/10 09:10:31  5-MIN KDBQ 221510Z 10004KT 2SM BR OVC003 18/17 A3007 940 93 1600 100/04 RMK AO2 CIG 002V006
94908KDBQ DBQ20100922091509809/22/10 09:15:31  5-MIN KDBQ 221515Z 09003KT 2SM BR OVC003 18/17 A3007 940 93 1600 090/03 RMK AO2
94908KDBQ DBQ20100922092009809/22/10 09:20:31  5-MIN KDBQ 221520Z 10003KT 2SM BR OVC003 18/17 A3007 940 93 1600 100/03 RMK AO2
94908KDBQ DBQ20100922092509809/22/10 09:25:31  5-MIN KDBQ 221525Z 11003KT 2SM BR OVC003 18/17 A3007 940 93 1600 110/03 RMK AO2
94908KDBQ DBQ20100922093009809/22/10 09:30:31  5-MIN KDBQ 221530Z 00000KT 2SM BR OVC003 18/17 A3007 940 93 1600 000/00 RMK AO2
94908KDBQ DBQ20100922093509809/22/10 09:35:31  5-MIN KDBQ 221535Z 11004KT 2SM BR OVC003 18/18 A3007 940 96 1600 110/04 RMK AO2
94908KDBQ DBQ20100922094011009/22/10 09:40:31  5-MIN KDBQ 221540Z 11004KT 2SM BR OVC003 18/18 A3007 940 96 1600 110/04 RMK AO2 CIG 002V006
94908KDBQ DBQ20100922094511009/22/10 09:45:31  5-MIN KDBQ 221545Z 10003KT 2SM BR OVC003 18/18 A3007 940 96 1600 100/03 RMK AO2 CIG 002V006
94908KDBQ DBQ20100922095011509/22/10 09:50:31  5-MIN KDBQ 221550Z 10004KT 2SM BR OVC003 18/18 A3006 950 96 1600 100/04 RMK AO2 SLP179 T01830178
94908KDBQ DBQ20100922095509809/22/10 09:55:31  5-MIN KDBQ 221555Z 12004KT 2SM BR OVC003 19/18 A3007 940 93 1700 120/04 RMK AO2
94908KDBQ DBQ20100922100009809/22/10 10:00:31  5-MIN KDBQ 221600Z 10005KT 2SM BR OVC003 18/18 A3006 950 96 1600 090/05 RMK AO2
94908KDBQ DBQ20100922100509809/22/10 10:05:31  5-MIN KDBQ 221605Z 11005KT 2SM BR OVC003 19/18 A3006 950 93 1700 110/05 RMK AO2
94908KDBQ DBQ20100922101009809/22/10 10:10:31  5-MIN KDBQ 221610Z 12005KT 2SM BR OVC003 19/18 A3006 950 93 1700 120/05 RMK AO2
94908KDBQ DBQ20100922101509809/22/10 10:15:31  5-MIN KDBQ 221615Z 11005KT 2SM BR OVC003 19/18 A3007 940 93 1700 110/05 RMK AO2
94908KDBQ DBQ20100922102011009/22/10 10:20:31  5-MIN KDBQ 221620Z 11005KT 2SM BR OVC003 19/18 A3007 940 93 1700 110/05 RMK AO2 CIG 003V008
94908KDBQ DBQ20100922102511009/22/10 10:25:31  5-MIN KDBQ 221625Z 10003KT 2SM BR OVC005 19/18 A3007 940 93 1700 100/03 RMK AO2 CIG 003V008
94908KDBQ DBQ20100922103011009/22/10 10:30:31  5-MIN KDBQ 221630Z 11004KT 5SM BR OVC005 19/18 A3007 940 93 1700 110/04 RMK AO2 CIG 003V008
94908KDBQ DBQ20100922103511009/22/10 10:35:31  5-MIN KDBQ 221635Z 12005KT 5SM BR OVC005 19/18 A3007 940 93 1700 120/05 RMK AO2 CIG 003V008
94908KDBQ DBQ20100922104011009/22/10 10:40:31  5-MIN KDBQ 221640Z 11005KT 4SM BR OVC005 19/18 A3006 950 93 1700 110/05 RMK AO2 CIG 003V008
94908KDBQ DBQ20100922104511009/22/10 10:45:31  5-MIN KDBQ 221645Z 12005KT 4SM BR OVC005 19/18 A3006 950 93 1700 120/05 RMK AO2 CIG 003V008
94908KDBQ DBQ20100922105012709/22/10 10:50:31  5-MIN KDBQ 221650Z 11003KT 4SM BR OVC005 19/18 A3007 940 93 1700 110/03 RMK AO2 CIG 003V007 SLP179 T01890178
94908KDBQ DBQ20100922105511009/22/10 10:55:31  5-MIN KDBQ 221655Z 11004KT 4SM BR OVC005 19/18 A3007 940 93 1700 110/04 RMK AO2 CIG 003V007
94908KDBQ DBQ20100922110009809/22/10 11:00:31  5-MIN KDBQ 221700Z 15004KT 5SM BR OVC005 19/18 A3007 940 93 1700 150/04 RMK AO2
94908KDBQ DBQ20100922110509809/22/10 11:05:31  5-MIN KDBQ 221705Z 12004KT 5SM BR OVC005 19/18 A3006 950 93 1700 120/04 RMK AO2
94908KDBQ DBQ20100922111011009/22/10 11:10:31  5-MIN KDBQ 221710Z 11006KT 5SM BR OVC005 19/18 A3006 950 93 1700 110/06 RMK AO2 CIG 003V009
94908KDBQ DBQ20100922111511009/22/10 11:15:31  5-MIN KDBQ 221715Z 13005KT 5SM BR OVC005 19/18 A3006 950 93 1700 130/05 RMK AO2 CIG 004V008
94908KDBQ DBQ20100922112011009/22/10 11:20:31  5-MIN KDBQ 221720Z 16006KT 5SM BR OVC005 19/18 A3007 940 93 1700 160/06 RMK AO2 CIG 004V008
94908KDBQ DBQ20100922112511009/22/10 11:25:31  5-MIN KDBQ 221725Z 12006KT 6SM BR OVC005 19/18 A3006 950 90 1700 120/06 RMK AO2 CIG 005V011
94908KDBQ DBQ20100922113011009/22/10 11:30:31  5-MIN KDBQ 221730Z 13006KT 6SM BR OVC007 19/18 A3006 950 90 1700 130/06 RMK AO2 CIG 005V011
94908KDBQ DBQ20100922113511009/22/10 11:35:31  5-MIN KDBQ 221735Z 14006KT 6SM BR OVC007 19/18 A3006 950 90 1700 140/06 RMK AO2 CIG 005V011
94908KDBQ DBQ20100922114011009/22/10 11:40:31  5-MIN KDBQ 221740Z 14005KT 6SM BR OVC007 19/18 A3005 950 90 1700 140/05 RMK AO2 CIG 005V010
94908KDBQ DBQ20100922114510709/22/10 11:45:31  5-MIN KDBQ 221745Z 14006KT 7SM OVC007 19/18 A3005 960 90 1700 140/06 RMK AO2 CIG 005V010
94908KDBQ DBQ20100922115014209/22/10 11:50:31  5-MIN KDBQ 221750Z 16008KT 7SM OVC007 19/18 A3005 960 90 1700 160/08 RMK AO2 CIG 005V010 SLP174 T01940178 10194 20172 51013
94908KDBQ DBQ20100922115511009/22/10 11:55:31  5-MIN KDBQ 221755Z 16008KT 6SM BR OVC007 19/18 A3006 950 93 1700 160/08 RMK AO2 CIG 005V010
94908KDBQ DBQ20100922120011009/22/10 12:00:31  5-MIN KDBQ 221800Z 15007KT 6SM BR OVC007 19/18 A3006 950 90 1700 150/07 RMK AO2 CIG 005V011
94908KDBQ DBQ20100922120510709/22/10 12:05:31  5-MIN KDBQ 221805Z 15007KT 7SM OVC007 19/18 A3006 950 90 1700 150/07 RMK AO2 CIG 005V011
94908KDBQ DBQ20100922121010709/22/10 12:10:31  5-MIN KDBQ 221810Z 16007KT 7SM OVC007 19/18 A3006 950 90 1700 150/07 RMK AO2 CIG 005V011
94908KDBQ DBQ20100922121511009/22/10 12:15:31  5-MIN KDBQ 221815Z 18008KT 6SM BR OVC007 19/18 A3006 950 90 1700 170/08 RMK AO2 CIG 005V012
94908KDBQ DBQ20100922122011009/22/10 12:20:31  5-MIN KDBQ 221820Z 18007KT 5SM BR OVC007 19/18 A3006 950 90 1700 180/07 RMK AO2 CIG 005V011
94908KDBQ DBQ20100922122511009/22/10 12:25:31  5-MIN KDBQ 221825Z 17006KT 5SM BR OVC007 19/18 A3007 940 90 1700 170/06 RMK AO2 CIG 005V011
94908KDBQ DBQ20100922123011009/22/10 12:30:31  5-MIN KDBQ 221830Z 17006KT 6SM BR OVC009 19/18 A3007 940 90 1700 170/06 RMK AO2 CIG 005V011
94908KDBQ DBQ20100922123511009/22/10 12:35:31  5-MIN KDBQ 221835Z 15007KT 6SM BR OVC009 19/18 A3006 950 90 1700 150/07 RMK AO2 CIG 005V011
94908KDBQ DBQ20100922124011009/22/10 12:40:31  5-MIN KDBQ 221840Z 15006KT 5SM BR OVC009 19/18 A3006 950 93 1700 150/06 RMK AO2 CIG 005V011
94908KDBQ DBQ20100922124511009/22/10 12:45:31  5-MIN KDBQ 221845Z 15007KT 4SM BR OVC009 19/18 A3005 960 93 1700 140/07 RMK AO2 CIG 005V011
94908KDBQ DBQ20100922125012709/22/10 12:50:31  5-MIN KDBQ 221850Z 16007KT 4SM BR OVC009 19/18 A3006 950 90 1700 150/07 RMK AO2 CIG 005V012 SLP175 T01940178
94908KDBQ DBQ20100922125511709/22/10 12:55:31  5-MIN KDBQ 221855Z 15007KT 5SM BR BKN009 OVC012 19/18 A3006 950 90 1700 150/07 RMK AO2 CIG 005V010
94908KDBQ DBQ20100922130011709/22/10 13:00:31  5-MIN KDBQ 221900Z 15005KT 6SM BR BKN009 OVC012 19/18 A3006 950 90 1700 150/05 RMK AO2 CIG 005V010
94908KDBQ DBQ20100922130511009/22/10 13:05:31  5-MIN KDBQ 221905Z 15007KT 6SM BR OVC009 19/18 A3006 950 93 1700 150/07 RMK AO2 CIG 005V010
94908KDBQ DBQ20100922131010709/22/10 13:10:31  5-MIN KDBQ 221910Z 12007KT 7SM OVC009 19/18 A3005 960 93 1700 120/07 RMK AO2 CIG 006V013
94908KDBQ DBQ20100922131510709/22/10 13:15:31  5-MIN KDBQ 221915Z 12007KT 7SM OVC009 20/18 A3004 970 90 1800 110/07 RMK AO2 CIG 006V013
94908KDBQ DBQ20100922132010709/22/10 13:20:31  5-MIN KDBQ 221920Z 11008KT 7SM OVC009 20/18 A3004 970 90 1800 110/08 RMK AO2 CIG 006V013
94908KDBQ DBQ20100922132511409/22/10 13:25:31  5-MIN KDBQ 221925Z 13006KT 8SM BKN009 OVC044 20/18 A3004 970 90 1800 130/06 RMK AO2 CIG 006V011
94908KDBQ DBQ20100922133011409/22/10 13:30:31  5-MIN KDBQ 221930Z 12007KT 9SM BKN007 OVC044 20/18 A3004 970 90 1800 120/07 RMK AO2 CIG 006V011
94908KDBQ DBQ20100922133512109/22/10 13:35:31  5-MIN KDBQ 221935Z 14008KT 9SM BKN007 BKN011 OVC044 20/18 A3004 970 90 1800 140/08 RMK AO2 CIG 006V010
94908KDBQ DBQ20100922134013009/22/10 13:40:31  5-MIN KDBQ 221940Z 15008KT 100V160 9SM BKN007 OVC011 20/18 A3004 970 90 1800 140/08 100V160 RMK AO2 CIG 006V010
94908KDBQ DBQ20100922134510209/22/10 13:45:31  5-MIN KDBQ 221945Z 14010KT 9SM BKN007 OVC010 20/18 A3004 970 90 1800 140/10 RMK AO2
94908KDBQ DBQ20100922135013109/22/10 13:50:31  5-MIN KDBQ 221950Z 14010KT 9SM BKN007 OVC013 20/18 A3004 970 90 1800 140/10 RMK AO2 CIG 006V011 SLP169 T02000183
94908KDBQ DBQ20100922135511409/22/10 13:55:31  5-MIN KDBQ 221955Z 15009KT 8SM BKN007 OVC013 20/18 A3004 970 90 1800 150/09 RMK AO2 CIG 006V011
94908KDBQ DBQ20100922140010209/22/10 14:00:31  5-MIN KDBQ 222000Z 15007KT 8SM BKN007 OVC011 20/18 A3004 970 90 1800 150/07 RMK AO2
94908KDBQ DBQ20100922140510709/22/10 14:05:31  5-MIN KDBQ 222005Z 16010KT 7SM OVC007 20/18 A3004 970 90 1800 160/10 RMK AO2 CIG 006V012
94908KDBQ DBQ20100922141010209/22/10 14:10:31  5-MIN KDBQ 222010Z 16009KT 7SM BKN007 OVC011 20/18 A3004 970 90 1800 150/09 RMK AO2
94908KDBQ DBQ20100922141511409/22/10 14:15:31  5-MIN KDBQ 222015Z 14008KT 7SM BKN009 OVC015 20/18 A3003 970 90 1800 140/08 RMK AO2 CIG 006V013
94908KDBQ DBQ20100922142012109/22/10 14:20:31  5-MIN KDBQ 222020Z 15009KT 7SM BKN009 BKN015 OVC050 21/18 A3003 980 87 1900 150/09 RMK AO2 CIG 006V011
94908KDBQ DBQ20100922142512109/22/10 14:25:31  5-MIN KDBQ 222025Z 14010KT 7SM BKN009 BKN015 OVC050 21/18 A3003 980 87 1900 140/10 RMK AO2 CIG 006V011
94908KDBQ DBQ20100922143012109/22/10 14:30:31  5-MIN KDBQ 222030Z 13008KT 7SM BKN009 BKN015 OVC050 21/18 A3002 990 87 1900 130/08 RMK AO2 CIG 006V011
94908KDBQ DBQ20100922143511209/22/10 14:35:31  5-MIN KDBQ 222035Z 12007KT 6SM BR SCT009 BKN015 OVC050 21/18 A3002 990 87 1900 120/07 RMK AO2
94908KDBQ DBQ20100922144011209/22/10 14:40:31  5-MIN KDBQ 222040Z 14008KT 6SM BR SCT009 SCT016 OVC050 21/18 A3002 990 87 1900 140/08 RMK AO2
94908KDBQ DBQ20100922144510209/22/10 14:45:31  5-MIN KDBQ 222045Z 15008KT 7SM SCT011 OVC055 21/18 A3001 990 84 2000 150/08 RMK AO2
94908KDBQ DBQ20100922145010209/22/10 14:50:31  5-MIN KDBQ 222050Z 13009KT 7SM BKN011 BKN055 21/18 A3001 990 84 2000 130/09 RMK AO2
94908KDBQ DBQ20100922145510909/22/10 14:55:31  5-MIN KDBQ 222055Z 13007KT 7SM BKN011 BKN050 OVC065 21/18 A3002 990 84 2000 130/07 RMK AO2
94908KDBQ DBQ20100922150011209/22/10 15:00:31  5-MIN KDBQ 222100Z 14008KT 6SM HZ BKN011 BKN050 OVC065 21/18 A3002 990 84 2000 140/08 RMK AO2
94908KDBQ DBQ20100922150510509/22/10 15:05:31  5-MIN KDBQ 222105Z 14007KT 6SM HZ BKN011 OVC060 21/18 A3002 990 84 2000 140/07 RMK AO2
94908KDBQ DBQ20100922151010509/22/10 15:10:31  5-MIN KDBQ 222110Z 15006KT 6SM BR BKN011 BKN060 21/19 A3002 990 87 2000 150/06 RMK AO2
94908KDBQ DBQ20100922151510509/22/10 15:15:31  5-MIN KDBQ 222115Z 16008KT 6SM BR BKN011 OVC060 21/19 A3002 980 87 2000 150/08 RMK AO2
94908KDBQ DBQ20100922152010509/22/10 15:20:31  5-MIN KDBQ 222120Z 16009KT 6SM BR BKN013 OVC060 21/19 A3002 980 87 2000 160/09 RMK AO2
94908KDBQ DBQ20100922152511209/22/10 15:25:31  5-MIN KDBQ 222125Z 15007KT 6SM BR BKN013 BKN018 OVC060 21/19 A3002 990 87 2000 150/07 RMK AO2
94908KDBQ DBQ20100922153011209/22/10 15:30:31  5-MIN KDBQ 222130Z 17008KT 6SM HZ BKN013 BKN020 BKN060 21/18 A3002 990 84 2000 170/08 RMK AO2
94908KDBQ DBQ20100922153511209/22/10 15:35:31  5-MIN KDBQ 222135Z 15008KT 6SM HZ SCT013 BKN020 BKN026 22/19 A3001 990 84 2000 150/08 RMK AO2
94908KDBQ DBQ20100922154010909/22/10 15:40:31  5-MIN KDBQ 222140Z 15008KT 7SM BKN013 BKN020 BKN026 22/19 A3001 990 84 2000 150/08 RMK AO2
94908KDBQ DBQ20100922154510909/22/10 15:45:31  5-MIN KDBQ 222145Z 16005KT 7SM BKN013 BKN020 BKN026 22/19 A3002 990 84 2000 160/05 RMK AO2
94908KDBQ DBQ20100922155010209/22/10 15:50:31  5-MIN KDBQ 222150Z 14007KT 7SM BKN016 BKN024 22/19 A3002 990 84 2000 140/07 RMK AO2
94908KDBQ DBQ20100922155510209/22/10 15:55:31  5-MIN KDBQ 222155Z 15006KT 7SM SCT016 BKN024 22/19 A3002 990 84 2000 150/06 RMK AO2
94908KDBQ DBQ20100922160010209/22/10 16:00:31  5-MIN KDBQ 222200Z 16007KT 7SM BKN016 BKN022 22/19 A3001 990 84 2000 160/07 RMK AO2
94908KDBQ DBQ20100922160511009/22/10 16:05:31  5-MIN KDBQ 222205Z 14006KT 7SM BKN016 BKN022 BKN075 22/19 A3001 1000 84 2000 140/06 RMK AO2
94908KDBQ DBQ20100922161011009/22/10 16:10:31  5-MIN KDBQ 222210Z 15005KT 7SM SCT016 SCT022 BKN075 22/19 A3001 1000 84 2000 150/05 RMK AO2
94908KDBQ DBQ20100922161510309/22/10 16:15:31  5-MIN KDBQ 222215Z 14006KT 7SM FEW016 BKN075 22/19 A3000 1000 84 2000 130/06 RMK AO2
94908KDBQ DBQ20100922162010309/22/10 16:20:31  5-MIN KDBQ 222220Z 14007KT 7SM FEW016 SCT075 21/19 A3000 1000 87 2000 130/07 RMK AO2
94908KDBQ DBQ20100922162510609/22/10 16:25:31  5-MIN KDBQ 222225Z 13007KT 6SM BR FEW016 SCT075 21/19 A3000 1010 87 2000 130/07 RMK AO2
94908KDBQ DBQ20100922163010609/22/10 16:30:31  5-MIN KDBQ 222230Z 13008KT 6SM BR FEW016 SCT075 21/19 A3000 1010 87 2000 130/08 RMK AO2
94908KDBQ DBQ20100922163509909/22/10 16:35:31  5-MIN KDBQ 222235Z 13006KT 6SM BR FEW075 21/19 A3000 1010 87 2000 130/06 RMK AO2
94908KDBQ DBQ20100922164009909/22/10 16:40:31  5-MIN KDBQ 222240Z 14004KT 6SM BR FEW075 21/19 A3000 1000 90 2000 140/04 RMK AO2
94908KDBQ DBQ20100922164509909/22/10 16:45:31  5-MIN KDBQ 222245Z 14007KT 6SM BR FEW075 21/19 A3000 1000 87 2000 140/07 RMK AO2
94908KDBQ DBQ20100922165011609/22/10 16:50:31  5-MIN KDBQ 222250Z 14007KT 6SM BR FEW075 21/19 A3000 1010 90 2000 140/07 RMK AO2 SLP154 T02110194
94908KDBQ DBQ20100922165509609/22/10 16:55:31  5-MIN KDBQ 222255Z 15006KT 6SM BR CLR 21/19 A3000 1010 90 2000 140/06 RMK AO2
94908KDBQ DBQ20100922170009609/22/10 17:00:31  5-MIN KDBQ 222300Z 14006KT 6SM BR CLR 21/19 A2999 1010 90 2000 140/06 RMK AO2
94908KDBQ DBQ20100922170509609/22/10 17:05:31  5-MIN KDBQ 222305Z 13007KT 6SM BR CLR 21/19 A2999 1010 90 2000 130/07 RMK AO2
94908KDBQ DBQ20100922171009609/22/10 17:10:31  5-MIN KDBQ 222310Z 13006KT 6SM BR CLR 21/19 A2999 1010 90 2000 120/06 RMK AO2
94908KDBQ DBQ20100922171509609/22/10 17:15:31  5-MIN KDBQ 222315Z 13007KT 6SM BR CLR 21/19 A2999 1020 87 2000 130/07 RMK AO2
94908KDBQ DBQ20100922172009609/22/10 17:20:31  5-MIN KDBQ 222320Z 14006KT 6SM BR CLR 21/19 A2998 1020 87 2000 140/06 RMK AO2
94908KDBQ DBQ20100922172509609/22/10 17:25:31  5-MIN KDBQ 222325Z 13006KT 6SM BR CLR 21/19 A2998 1020 90 1900 130/06 RMK AO2
94908KDBQ DBQ20100922173009609/22/10 17:30:31  5-MIN KDBQ 222330Z 14005KT 6SM BR CLR 21/19 A2998 1020 93 1900 130/05 RMK AO2
94908KDBQ DBQ20100922173509609/22/10 17:35:31  5-MIN KDBQ 222335Z 14006KT 5SM BR CLR 21/19 A2998 1020 90 1900 140/06 RMK AO2
94908KDBQ DBQ20100922174009609/22/10 17:40:31  5-MIN KDBQ 222340Z 14006KT 5SM BR CLR 21/19 A2998 1030 90 1900 140/06 RMK AO2
94908KDBQ DBQ20100922174509609/22/10 17:45:31  5-MIN KDBQ 222345Z 13006KT 5SM BR CLR 20/19 A2997 1030 93 1900 130/06 RMK AO2
94908KDBQ DBQ20100922175013109/22/10 17:50:31  5-MIN KDBQ 222350Z 13007KT 6SM BR CLR 20/19 A2997 1030 93 1900 130/07 RMK AO2 SLP146 T02000189 10217 20189 58013
94908KDBQ DBQ20100922175509609/22/10 17:55:31  5-MIN KDBQ 222355Z 14006KT 6SM BR CLR 20/19 A2997 1030 93 1900 140/06 RMK AO2
94908KDBQ DBQ20100922180009609/22/10 18:00:31  5-MIN KDBQ 230000Z 14005KT 6SM BR CLR 20/19 A2998 1030 93 1900 140/05 RMK AO2
94908KDBQ DBQ20100922180509609/22/10 18:05:31  5-MIN KDBQ 230005Z 14006KT 6SM BR CLR 20/19 A2998 1020 93 1900 140/06 RMK AO2
94908KDBQ DBQ20100922181009309/22/10 18:10:31  5-MIN KDBQ 230010Z 14006KT 8SM CLR 20/19 A2998 1030 93 1900 140/06 RMK AO2
94908KDBQ DBQ20100922181509309/22/10 18:15:31  5-MIN KDBQ 230015Z 15006KT 8SM CLR 20/19 A2998 1020 93 1900 140/06 RMK AO2
94908KDBQ DBQ20100922182009309/22/10 18:20:31  5-MIN KDBQ 230020Z 15006KT 9SM CLR 20/18 A2998 1020 90 1900 150/06 RMK AO2
94908KDBQ DBQ20100922182509309/22/10 18:25:31  5-MIN KDBQ 230025Z 15006KT 9SM CLR 20/18 A2998 1020 90 1900 150/06 RMK AO2
94908KDBQ DBQ20100922183009309/22/10 18:30:31  5-MIN KDBQ 230030Z 15006KT 8SM CLR 20/18 A2998 1020 90 1900 150/06 RMK AO2
94908KDBQ DBQ20100922183509309/22/10 18:35:31  5-MIN KDBQ 230035Z 15006KT 9SM CLR 20/18 A2998 1020 90 1900 150/06 RMK AO2
94908KDBQ DBQ20100922184009309/22/10 18:40:31  5-MIN KDBQ 230040Z 15006KT 9SM CLR 20/18 A2998 1020 90 1900 150/06 RMK AO2
94908KDBQ DBQ20100922184509309/22/10 18:45:31  5-MIN KDBQ 230045Z 15007KT 9SM CLR 20/18 A2998 1020 90 1900 150/07 RMK AO2
94908KDBQ DBQ20100922185011009/22/10 18:50:31  5-MIN KDBQ 230050Z 14007KT 8SM CLR 19/18 A2998 1030 93 1800 140/07 RMK AO2 SLP148 T01940183
94908KDBQ DBQ20100922185509809/22/10 18:55:31  5-MIN KDBQ 230055Z AUTO 14008KT 9SM CLR 19/18 A2997 1030 93 1800 140/08 RMK AO2
94908KDBQ DBQ20100922190009909/22/10 19:00:31  5-MIN KDBQ 230100Z AUTO 15009KT 10SM CLR 20/18 A2997 1030 87 1900 140/09 RMK AO2
94908KDBQ DBQ20100922190509909/22/10 19:05:31  5-MIN KDBQ 230105Z AUTO 14009KT 10SM CLR 20/18 A2997 1030 87 1900 140/09 RMK AO2
94908KDBQ DBQ20100922191009909/22/10 19:10:31  5-MIN KDBQ 230110Z AUTO 15009KT 10SM CLR 20/18 A2997 1030 87 1900 140/09 RMK AO2
94908KDBQ DBQ20100922191509909/22/10 19:15:31  5-MIN KDBQ 230115Z AUTO 15009KT 10SM CLR 20/17 A2997 1030 84 1900 150/09 RMK AO2
94908KDBQ DBQ20100922192009909/22/10 19:20:31  5-MIN KDBQ 230120Z AUTO 15007KT 10SM CLR 20/17 A2997 1030 84 1900 150/07 RMK AO2
94908KDBQ DBQ20100922192509909/22/10 19:25:31  5-MIN KDBQ 230125Z AUTO 15009KT 10SM CLR 20/17 A2997 1030 84 1900 150/09 RMK AO2
94908KDBQ DBQ20100922193009909/22/10 19:30:31  5-MIN KDBQ 230130Z AUTO 15009KT 10SM CLR 20/17 A2997 1030 84 1900 150/09 RMK AO2
94908KDBQ DBQ20100922193509909/22/10 19:35:31  5-MIN KDBQ 230135Z AUTO 15010KT 10SM CLR 19/17 A2997 1040 87 1800 150/10 RMK AO2
94908KDBQ DBQ20100922194009909/22/10 19:40:31  5-MIN KDBQ 230140Z AUTO 15009KT 10SM CLR 19/17 A2996 1040 87 1800 140/09 RMK AO2
94908KDBQ DBQ20100922194509909/22/10 19:45:31  5-MIN KDBQ 230145Z AUTO 15010KT 10SM CLR 19/17 A2996 1040 87 1800 140/10 RMK AO2
94908KDBQ DBQ20100922195011609/22/10 19:50:31  5-MIN KDBQ 230150Z AUTO 15010KT 10SM CLR 19/17 A2996 1040 87 1800 150/10 RMK AO2 SLP143 T01940172
94908KDBQ DBQ20100922195509909/22/10 19:55:31  5-MIN KDBQ 230155Z AUTO 15008KT 10SM CLR 19/17 A2997 1030 87 1800 150/08 RMK AO2
94908KDBQ DBQ20100922200009909/22/10 20:00:31  5-MIN KDBQ 230200Z AUTO 15008KT 10SM CLR 19/17 A2997 1030 87 1800 150/08 RMK AO2
94908KDBQ DBQ20100922200509909/22/10 20:05:31  5-MIN KDBQ 230205Z AUTO 15008KT 10SM CLR 19/17 A2998 1020 87 1800 150/08 RMK AO2
94908KDBQ DBQ20100922201009909/22/10 20:10:31  5-MIN KDBQ 230210Z AUTO 15009KT 10SM CLR 20/17 A2998 1020 84 1900 150/09 RMK AO2
94908KDBQ DBQ20100922201510209/22/10 20:15:31  5-MIN KDBQ 230215Z AUTO 15009KT 10SM FEW090 19/17 A2999 1020 87 1800 150/09 RMK AO2
94908KDBQ DBQ20100922202010209/22/10 20:20:31  5-MIN KDBQ 230220Z AUTO 15010KT 10SM FEW090 20/17 A2998 1020 84 1900 150/10 RMK AO2
94908KDBQ DBQ20100922202510209/22/10 20:25:31  5-MIN KDBQ 230225Z AUTO 15011KT 10SM FEW095 20/17 A2999 1020 84 1900 150/11 RMK AO2
94908KDBQ DBQ20100922203010209/22/10 20:30:31  5-MIN KDBQ 230230Z AUTO 15010KT 10SM FEW100 20/17 A2999 1020 84 1900 150/10 RMK AO2
94908KDBQ DBQ20100922203510809/22/10 20:35:31  5-MIN KDBQ 230235Z AUTO 16011G16KT 10SM SCT100 20/17 A2999 1020 84 1900 160/11G16 RMK AO2
94908KDBQ DBQ20100922204010809/22/10 20:40:31  5-MIN KDBQ 230240Z AUTO 16011G16KT 10SM BKN100 20/17 A2999 1020 84 1900 160/11G16 RMK AO2
94908KDBQ DBQ20100922204510209/22/10 20:45:31  5-MIN KDBQ 230245Z AUTO 16011KT 10SM BKN100 20/17 A2998 1020 84 1900 160/11 RMK AO2
94908KDBQ DBQ20100922205012509/22/10 20:50:31  5-MIN KDBQ 230250Z AUTO 16010KT 10SM BKN100 20/17 A2998 1020 84 1900 160/10 RMK AO2 SLP148 T02000172 58015
94908KDBQ DBQ20100922205510209/22/10 20:55:31  5-MIN KDBQ 230255Z AUTO 16010KT 10SM BKN100 19/17 A2998 1020 87 1800 160/10 RMK AO2
94908KDBQ DBQ20100922210010209/22/10 21:00:31  5-MIN KDBQ 230300Z AUTO 16010KT 10SM BKN100 19/17 A2998 1020 87 1800 160/10 RMK AO2
94908KDBQ DBQ20100922210510209/22/10 21:05:31  5-MIN KDBQ 230305Z AUTO 16010KT 10SM SCT110 19/17 A2999 1020 87 1800 160/10 RMK AO2
94908KDBQ DBQ20100922211010209/22/10 21:10:31  5-MIN KDBQ 230310Z AUTO 17010KT 10SM SCT110 20/17 A2999 1010 84 1900 170/10 RMK AO2
94908KDBQ DBQ20100922211510209/22/10 21:15:31  5-MIN KDBQ 230315Z AUTO 17011KT 10SM SCT110 20/17 A2999 1010 84 1900 170/11 RMK AO2
94908KDBQ DBQ20100922212010209/22/10 21:20:31  5-MIN KDBQ 230320Z AUTO 17010KT 10SM BKN100 20/17 A2999 1010 84 1900 160/10 RMK AO2
94908KDBQ DBQ20100922212510209/22/10 21:25:31  5-MIN KDBQ 230325Z AUTO 16010KT 10SM BKN100 20/17 A2999 1020 84 1900 160/10 RMK AO2
94908KDBQ DBQ20100922213010209/22/10 21:30:31  5-MIN KDBQ 230330Z AUTO 16011KT 10SM BKN100 20/17 A2998 1020 84 1900 160/11 RMK AO2
94908KDBQ DBQ20100922213510209/22/10 21:35:31  5-MIN KDBQ 230335Z AUTO 16011KT 10SM BKN100 20/17 A2998 1020 84 1900 160/11 RMK AO2
94908KDBQ DBQ20100922214010209/22/10 21:40:31  5-MIN KDBQ 230340Z AUTO 16009KT 10SM OVC100 20/17 A2998 1020 84 1900 160/09 RMK AO2
94908KDBQ DBQ20100922214510809/22/10 21:45:31  5-MIN KDBQ 230345Z AUTO 16012G18KT 10SM OVC095 20/18 A2998 1020 87 1900 160/12G18 RMK AO2
94908KDBQ DBQ20100922215013009/22/10 21:50:31  5-MIN KDBQ 230350Z AUTO 16012G18KT 10SM BKN100 20/18 A2998 1020 87 1900 160/12G18 RMK AO2 SLP148 T02000178 TSNO
94908KDBQ DBQ20100922215511409/22/10 21:55:31  5-MIN KDBQ 230355Z AUTO 16013KT 10SM BKN095 BKN110 20/17 A2998 1020 84 1900 160/13 RMK AO2 TSNO
94908KDBQ DBQ20100922220012009/22/10 22:00:31  5-MIN KDBQ 230400Z AUTO 17013G21KT 10SM BKN095 BKN120 20/18 A2997 1030 87 1900 170/13G21 RMK AO2 TSNO
94908KDBQ DBQ20100922220511509/22/10 22:05:31  5-MIN KDBQ 230405Z AUTO 16013G21KT 10SM BKN100 BKN120 20/17 A2997 1030 84 1900 160/13G21 RMK AO2
94908KDBQ DBQ20100922221010809/22/10 22:10:31  5-MIN KDBQ 230410Z AUTO 17012G20KT 10SM BKN100 20/18 A2997 1040 87 1900 160/12G20 RMK AO2
94908KDBQ DBQ20100922221511509/22/10 22:15:31  5-MIN KDBQ 230415Z AUTO 17012G20KT 10SM SCT100 SCT120 20/17 A2997 1030 84 1900 170/12G20 RMK AO2
94908KDBQ DBQ20100922222010809/22/10 22:20:31  5-MIN KDBQ 230420Z AUTO 17014G20KT 10SM BKN095 20/17 A2997 1030 84 1900 170/14G20 RMK AO2
94908KDBQ DBQ20100922222510809/22/10 22:25:31  5-MIN KDBQ 230425Z AUTO 17014G20KT 10SM BKN100 20/17 A2997 1030 84 1900 170/14G20 RMK AO2
94908KDBQ DBQ20100922223011509/22/10 22:30:31  5-MIN KDBQ 230430Z AUTO 16011G20KT 10SM BKN100 BKN110 20/17 A2997 1030 84 1900 160/11G20 RMK AO2
94908KDBQ DBQ20100922223510909/22/10 22:35:31  5-MIN KDBQ 230435Z AUTO 17012KT 10SM BKN100 BKN110 20/17 A2997 1030 84 1900 170/12 RMK AO2
94908KDBQ DBQ20100922224010909/22/10 22:40:31  5-MIN KDBQ 230440Z AUTO 17012KT 10SM BKN095 BKN110 20/18 A2997 1030 87 1900 170/12 RMK AO2
94908KDBQ DBQ20100922224510209/22/10 22:45:31  5-MIN KDBQ 230445Z AUTO 16012KT 10SM BKN100 20/17 A2997 1030 84 1900 160/12 RMK AO2
94908KDBQ DBQ20100922225011909/22/10 22:50:31  5-MIN KDBQ 230450Z AUTO 16012KT 10SM SCT100 20/17 A2997 1030 84 1900 160/12 RMK AO2 SLP145 T02000172
94908KDBQ DBQ20100922225510909/22/10 22:55:31  5-MIN KDBQ 230455Z AUTO 17010KT 10SM SCT095 SCT110 20/17 A2997 1030 84 1900 170/10 RMK AO2
94908KDBQ DBQ20100922230010209/22/10 23:00:31  5-MIN KDBQ 230500Z AUTO 17012KT 10SM BKN100 20/17 A2997 1030 84 1900 170/12 RMK AO2
94908KDBQ DBQ20100922230510809/22/10 23:05:31  5-MIN KDBQ 230505Z AUTO 17011G18KT 10SM BKN100 20/17 A2997 1040 84 1900 170/11G18 RMK AO2
94908KDBQ DBQ20100922231010709/22/10 23:10:31  5-MIN KDBQ 230510Z AUTO 17013G18KT 9SM BKN100 20/17 A2996 1040 84 1900 170/13G18 RMK AO2
94908KDBQ DBQ20100922231510709/22/10 23:15:31  5-MIN KDBQ 230515Z AUTO 17012G19KT 9SM BKN100 20/17 A2996 1040 84 1900 170/12G19 RMK AO2
94908KDBQ DBQ20100922232010709/22/10 23:20:31  5-MIN KDBQ 230520Z AUTO 17013G19KT 9SM BKN100 20/17 A2996 1040 84 1900 170/13G19 RMK AO2
94908KDBQ DBQ20100922232510109/22/10 23:25:31  5-MIN KDBQ 230525Z AUTO 17012KT 9SM SCT100 19/17 A2996 1040 87 1800 170/12 RMK AO2
94908KDBQ DBQ20100922233010109/22/10 23:30:31  5-MIN KDBQ 230530Z AUTO 17012KT 9SM SCT095 19/17 A2995 1050 87 1800 170/12 RMK AO2
94908KDBQ DBQ20100922233510209/22/10 23:35:31  5-MIN KDBQ 230535Z AUTO 16013KT 10SM FEW090 19/17 A2995 1050 87 1900 160/13 RMK AO2
94908KDBQ DBQ20100922234010509/22/10 23:40:31  5-MIN KDBQ 230540Z AUTO 17013G19KT 10SM CLR 20/17 A2995 1050 84 1900 160/13G19 RMK AO2
94908KDBQ DBQ20100922234509809/22/10 23:45:31  5-MIN KDBQ 230545Z AUTO 16012KT 9SM CLR 20/17 A2994 1060 84 1900 160/12 RMK AO2
94908KDBQ DBQ20100922235015209/22/10 23:50:31  5-MIN KDBQ 230550Z AUTO 16013G19KT 9SM FEW110 20/17 A2994 1060 84 1900 160/13G19 RMK AO2 SLP135 T02000172 10200 20194 402170167 53003
94908KDBQ DBQ20100922235510709/22/10 23:55:31  5-MIN KDBQ 230555Z AUTO 17014G19KT 9SM SCT100 20/17 A2994 1060 84 1900 170/14G19 RMK AO2
94908KDBQ DBQ20100923000010109/23/10 00:00:38  5-MIN KDBQ 230600Z AUTO 16013KT 9SM BKN100 19/17 A2994 1060 87 1900 160/13 RMK AO2
94908KDBQ DBQ20100923000510109/23/10 00:05:31  5-MIN KDBQ 230605Z AUTO 17012KT 9SM BKN095 19/17 A2994 1060 87 1900 160/12 RMK AO2
94908KDBQ DBQ20100923001010109/23/10 00:10:31  5-MIN KDBQ 230610Z AUTO 17012KT 9SM BKN095 19/17 A2994 1060 87 1900 160/12 RMK AO2
94908KDBQ DBQ20100923001511409/23/10 00:15:32  5-MIN KDBQ 230615Z AUTO 16012G18KT 9SM BKN095 BKN110 19/17 A2994 1060 87 1900 160/12G18 RMK AO2
94908KDBQ DBQ20100923002011409/23/10 00:20:31  5-MIN KDBQ 230620Z AUTO 17012G19KT 9SM BKN095 BKN120 19/17 A2994 1060 87 1900 170/12G19 RMK AO2
94908KDBQ DBQ20100923002511409/23/10 00:25:31  5-MIN KDBQ 230625Z AUTO 16013G19KT 9SM SCT095 SCT120 19/18 A2994 1060 90 1900 160/13G19 RMK AO2
94908KDBQ DBQ20100923003012109/23/10 00:30:31  5-MIN KDBQ 230630Z AUTO 16012G18KT 9SM FEW070 SCT090 SCT110 19/18 A2994 1060 90 1900 160/12G18 RMK AO2
94908KDBQ DBQ20100923003511509/23/10 00:35:31  5-MIN KDBQ 230635Z AUTO 16012KT 9SM SCT070 BKN090 BKN110 19/18 A2993 1070 90 1900 160/12 RMK AO2
94908KDBQ DBQ20100923004011409/23/10 00:40:31  5-MIN KDBQ 230640Z AUTO 16014G19KT 9SM BKN070 BKN120 19/18 A2993 1070 90 1900 160/14G19 RMK AO2
94908KDBQ DBQ20100923004510709/23/10 00:45:31  5-MIN KDBQ 230645Z AUTO 17013G19KT 9SM BKN070 19/18 A2993 1070 90 1900 170/13G19 RMK AO2
94908KDBQ DBQ20100923005011809/23/10 00:50:31  5-MIN KDBQ 230650Z AUTO 17011KT 9SM BKN070 19/18 A2993 1070 90 1900 170/11 RMK AO2 SLP133 T01940178
94908KDBQ DBQ20100923005510109/23/10 00:55:31  5-MIN KDBQ 230655Z AUTO 17010KT 9SM OVC070 19/18 A2993 1070 90 1900 170/10 RMK AO2
94908KDBQ DBQ20100923010010209/23/10 01:00:31  5-MIN KDBQ 230700Z AUTO 17011KT 10SM OVC070 19/18 A2993 1070 90 1900 170/11 RMK AO2
94908KDBQ DBQ20100923010510709/23/10 01:05:31  5-MIN KDBQ 230705Z AUTO 17012KT 10SM OVC070 19/18 A2993 1070 90 1900 170/12 RMK AO2 TSNO
94908KDBQ DBQ20100923011010709/23/10 01:10:31  5-MIN KDBQ 230710Z AUTO 17010KT 10SM BKN070 19/18 A2993 1070 90 1900 170/10 RMK AO2 TSNO
94908KDBQ DBQ20100923011510709/23/10 01:15:31  5-MIN KDBQ 230715Z AUTO 17009KT 10SM BKN070 19/18 A2993 1070 90 1900 170/09 RMK AO2 TSNO
94908KDBQ DBQ20100923012010909/23/10 01:20:31  5-MIN KDBQ 230720Z AUTO 17011KT 10SM BKN070 OVC080 19/18 A2992 1080 90 1900 170/11 RMK AO2
94908KDBQ DBQ20100923012511509/23/10 01:25:31  5-MIN KDBQ 230725Z AUTO 17012G17KT 10SM BKN070 BKN080 19/18 A2992 1080 90 1900 170/12G17 RMK AO2
94908KDBQ DBQ20100923013011309/23/10 01:30:31  5-MIN KDBQ 230730Z AUTO 17013G18KT 10SM SCT070 19/18 A2992 1080 90 1900 170/13G18 RMK AO2 TSNO
94908KDBQ DBQ20100923013512009/23/10 01:35:31  5-MIN KDBQ 230735Z AUTO 17013G18KT 10SM FEW070 SCT080 19/18 A2992 1080 90 1900 170/13G18 RMK AO2 TSNO
94908KDBQ DBQ20100923014010709/23/10 01:40:31  5-MIN KDBQ 230740Z AUTO 17014KT 10SM FEW070 19/18 A2991 1080 90 1900 170/14 RMK AO2 TSNO
94908KDBQ DBQ20100923014511409/23/10 01:45:31  5-MIN KDBQ 230745Z AUTO 17014KT 10SM FEW075 SCT100 19/18 A2991 1090 90 1900 170/14 RMK AO2 TSNO
94908KDBQ DBQ20100923015013109/23/10 01:50:31  5-MIN KDBQ 230750Z AUTO 17013KT 10SM FEW080 SCT100 19/18 A2991 1090 90 1900 170/13 RMK AO2 SLP124 T01940178 TSNO
94908KDBQ DBQ20100923015510209/23/10 01:55:31  5-MIN KDBQ 230755Z AUTO 17013KT 10SM FEW080 19/18 A2991 1090 90 1900 170/13 RMK AO2
94908KDBQ DBQ20100923020010809/23/10 02:00:31  5-MIN KDBQ 230800Z AUTO 17013G19KT 10SM FEW080 20/18 A2991 1090 87 2000 170/13G19 RMK AO2
94908KDBQ DBQ20100923020511409/23/10 02:05:31  5-MIN KDBQ 230805Z AUTO 17013G19KT 10SM FEW080 19/18 A2991 1090 90 1900 170/13G19 RMK AO2 P0001
94908KDBQ DBQ20100923021011409/23/10 02:10:31  5-MIN KDBQ 230810Z AUTO 17015G20KT 10SM FEW080 20/18 A2990 1090 87 2000 170/15G20 RMK AO2 P0001
94908KDBQ DBQ20100923021511109/23/10 02:15:31  5-MIN KDBQ 230815Z AUTO 17013G20KT 10SM CLR 20/18 A2990 1100 87 2000 170/13G20 RMK AO2 P0001
94908KDBQ DBQ20100923022010509/23/10 02:20:31  5-MIN KDBQ 230820Z AUTO 17014KT 10SM CLR 20/18 A2990 1100 87 2000 170/14 RMK AO2 P0001
94908KDBQ DBQ20100923022511109/23/10 02:25:31  5-MIN KDBQ 230825Z AUTO 18013G19KT 10SM CLR 20/18 A2990 1100 87 2000 180/13G19 RMK AO2 P0001
94908KDBQ DBQ20100923023010509/23/10 02:30:31  5-MIN KDBQ 230830Z AUTO 18012KT 10SM CLR 19/18 A2989 1100 90 1900 170/12 RMK AO2 P0001
94908KDBQ DBQ20100923023511109/23/10 02:35:31  5-MIN KDBQ 230835Z AUTO 18012G19KT 10SM CLR 19/18 A2989 1100 90 1900 180/12G19 RMK AO2 P0001
94908KDBQ DBQ20100923024011109/23/10 02:40:31  5-MIN KDBQ 230840Z AUTO 18010G19KT 10SM CLR 19/18 A2989 1110 90 1900 180/10G19 RMK AO2 P0001
94908KDBQ DBQ20100923024510509/23/10 02:45:31  5-MIN KDBQ 230845Z AUTO 18012KT 10SM CLR 19/18 A2989 1110 90 1900 180/12 RMK AO2 P0001
94908KDBQ DBQ20100923025013409/23/10 02:50:31  5-MIN KDBQ 230850Z AUTO 18013KT 10SM CLR 19/18 A2989 1110 90 1900 180/13 RMK AO2 SLP116 P0001 60001 T01940178 58013
94908KDBQ DBQ20100923025509909/23/10 02:55:31  5-MIN KDBQ 230855Z AUTO 18012KT 10SM CLR 19/18 A2989 1110 90 1900 180/12 RMK AO2
94908KDBQ DBQ20100923030009909/23/10 03:00:31  5-MIN KDBQ 230900Z AUTO 18013KT 10SM CLR 19/18 A2988 1110 90 1900 180/13 RMK AO2
94908KDBQ DBQ20100923030509909/23/10 03:05:31  5-MIN KDBQ 230905Z AUTO 19011KT 10SM CLR 19/18 A2988 1110 90 1900 180/11 RMK AO2
94908KDBQ DBQ20100923031009909/23/10 03:10:31  5-MIN KDBQ 230910Z AUTO 19012KT 10SM CLR 19/18 A2988 1110 90 1900 190/12 RMK AO2
94908KDBQ DBQ20100923031509809/23/10 03:15:31  5-MIN KDBQ 230915Z AUTO 18012KT 9SM CLR 19/18 A2988 1110 93 1900 180/12 RMK AO2
94908KDBQ DBQ20100923032010409/23/10 03:20:31  5-MIN KDBQ 230920Z AUTO 19012G18KT 9SM CLR 19/18 A2988 1120 93 1900 190/12G18 RMK AO2
94908KDBQ DBQ20100923032510409/23/10 03:25:31  5-MIN KDBQ 230925Z AUTO 19011G18KT 9SM CLR 19/18 A2988 1120 93 1900 190/11G18 RMK AO2
94908KDBQ DBQ20100923033009809/23/10 03:30:31  5-MIN KDBQ 230930Z AUTO 19012KT 9SM CLR 19/18 A2988 1120 93 1900 190/12 RMK AO2
94908KDBQ DBQ20100923033509809/23/10 03:35:31  5-MIN KDBQ 230935Z AUTO 19012KT 9SM CLR 19/18 A2988 1120 93 1900 190/12 RMK AO2
94908KDBQ DBQ20100923034009809/23/10 03:40:31  5-MIN KDBQ 230940Z AUTO 20012KT 9SM CLR 20/18 A2988 1120 90 2000 190/12 RMK AO2
94908KDBQ DBQ20100923034509909/23/10 03:45:31  5-MIN KDBQ 230945Z AUTO 19011KT 10SM CLR 20/18 A2988 1120 90 2000 190/11 RMK AO2
94908KDBQ DBQ20100923035012209/23/10 03:50:31  5-MIN KDBQ 230950Z AUTO 19014G18KT 10SM CLR 20/18 A2988 1120 90 2000 190/14G18 RMK AO2 SLP112 T02000183
94908KDBQ DBQ20100923035509909/23/10 03:55:31  5-MIN KDBQ 230955Z AUTO 19014KT 10SM CLR 20/18 A2987 1120 90 2000 190/14 RMK AO2
94908KDBQ DBQ20100923040009909/23/10 04:00:31  5-MIN KDBQ 231000Z AUTO 19014KT 10SM CLR 20/18 A2987 1120 90 2000 190/14 RMK AO2
94908KDBQ DBQ20100923040509909/23/10 04:05:31  5-MIN KDBQ 231005Z AUTO 19014KT 10SM CLR 20/18 A2987 1120 90 2000 190/14 RMK AO2
94908KDBQ DBQ20100923041009909/23/10 04:10:31  5-MIN KDBQ 231010Z AUTO 20014KT 10SM CLR 20/18 A2987 1120 90 2000 190/14 RMK AO2
94908KDBQ DBQ20100923041509909/23/10 04:15:31  5-MIN KDBQ 231015Z AUTO 20014KT 10SM CLR 20/18 A2987 1120 90 2000 200/14 RMK AO2
94908KDBQ DBQ20100923042009909/23/10 04:20:31  5-MIN KDBQ 231020Z AUTO 20015KT 10SM CLR 20/18 A2987 1120 90 2000 200/15 RMK AO2
94908KDBQ DBQ20100923042509909/23/10 04:25:31  5-MIN KDBQ 231025Z AUTO 20014KT 10SM CLR 20/18 A2987 1130 90 2000 190/14 RMK AO2
94908KDBQ DBQ20100923043009909/23/10 04:30:31  5-MIN KDBQ 231030Z AUTO 20014KT 10SM CLR 20/18 A2987 1130 90 2000 190/14 RMK AO2
94908KDBQ DBQ20100923043509909/23/10 04:35:31  5-MIN KDBQ 231035Z AUTO 20014KT 10SM CLR 20/18 A2987 1130 90 2000 190/14 RMK AO2
94908KDBQ DBQ20100923044009909/23/10 04:40:31  5-MIN KDBQ 231040Z AUTO 20013KT 10SM CLR 20/18 A2987 1130 90 2000 200/13 RMK AO2
94908KDBQ DBQ20100923044509909/23/10 04:45:31  5-MIN KDBQ 231045Z AUTO 20015KT 10SM CLR 20/18 A2987 1130 90 2000 190/15 RMK AO2
94908KDBQ DBQ20100923045011909/23/10 04:50:31  5-MIN KDBQ 231050Z AUTO 20014KT 10SM FEW095 20/19 A2987 1130 93 2000 190/14 RMK AO2 SLP109 T02000189
94908KDBQ DBQ20100923045509709/23/10 04:55:31  5-MIN KDBQ 231055Z 20012KT 10SM FEW095 20/19 A2987 1130 93 2000 200/12 RMK AO2
94908KDBQ DBQ20100923050009609/23/10 05:00:31  5-MIN KDBQ 231100Z 20013KT 9SM FEW095 20/19 A2987 1120 93 2000 200/13 RMK AO2
94908KDBQ DBQ20100923050509709/23/10 05:05:31  5-MIN KDBQ 231105Z 20013KT 10SM SCT100 21/19 A2987 1120 90 2100 200/13 RMK AO2
94908KDBQ DBQ20100923051009709/23/10 05:10:31  5-MIN KDBQ 231110Z 20013KT 10SM BKN100 21/19 A2987 1120 90 2100 200/13 RMK AO2
94908KDBQ DBQ20100923051509709/23/10 05:15:31  5-MIN KDBQ 231115Z 19012KT 10SM BKN100 21/19 A2987 1120 90 2100 190/12 RMK AO2
94908KDBQ DBQ20100923052009709/23/10 05:20:31  5-MIN KDBQ 231120Z 19013KT 10SM BKN100 21/19 A2987 1120 90 2100 190/13 RMK AO2
94908KDBQ DBQ20100923052509709/23/10 05:25:31  5-MIN KDBQ 231125Z 19013KT 10SM OVC100 21/19 A2987 1120 87 2100 190/13 RMK AO2
94908KDBQ DBQ20100923053009709/23/10 05:30:31  5-MIN KDBQ 231130Z 20014KT 10SM OVC100 21/19 A2987 1130 87 2100 200/14 RMK AO2
94908KDBQ DBQ20100923053509709/23/10 05:35:31  5-MIN KDBQ 231135Z 20013KT 10SM OVC100 21/19 A2987 1120 87 2100 200/13 RMK AO2
94908KDBQ DBQ20100923054009709/23/10 05:40:31  5-MIN KDBQ 231140Z 20013KT 10SM OVC100 21/19 A2987 1130 87 2100 200/13 RMK AO2
94908KDBQ DBQ20100923054509709/23/10 05:45:31  5-MIN KDBQ 231145Z 20014KT 10SM OVC100 21/19 A2987 1130 87 2100 200/14 RMK AO2
94908KDBQ DBQ20100923055015009/23/10 05:50:31  5-MIN KDBQ 231150Z 20014G21KT 10SM OVC100 21/19 A2987 1130 87 2100 200/14G21 RMK AO2 SLP109 60001 70001 T02110189 10211 20194 58017
94908KDBQ DBQ20100923055510309/23/10 05:55:31  5-MIN KDBQ 231155Z 20014G21KT 10SM OVC100 21/19 A2987 1130 87 2100 200/14G21 RMK AO2
94908KDBQ DBQ20100923060009709/23/10 06:00:31  5-MIN KDBQ 231200Z 20014KT 10SM OVC100 21/19 A2987 1130 87 2100 200/14 RMK AO2
94908KDBQ DBQ20100923060510309/23/10 06:05:31  5-MIN KDBQ 231205Z 20016G20KT 10SM BKN100 21/19 A2987 1130 87 2100 200/16G20 RMK AO2
94908KDBQ DBQ20100923061010309/23/10 06:10:31  5-MIN KDBQ 231210Z 20015G20KT 10SM BKN100 21/19 A2987 1130 87 2100 200/15G20 RMK AO2
94908KDBQ DBQ20100923061509709/23/10 06:15:31  5-MIN KDBQ 231215Z 20017KT 10SM BKN095 21/19 A2987 1130 87 2100 200/17 RMK AO2
94908KDBQ DBQ20100923062009709/23/10 06:20:31  5-MIN KDBQ 231220Z 20015KT 10SM BKN095 21/19 A2987 1130 87 2100 200/15 RMK AO2
94908KDBQ DBQ20100923062509709/23/10 06:25:31  5-MIN KDBQ 231225Z 20013KT 10SM SCT095 21/19 A2987 1130 87 2100 200/13 RMK AO2
94908KDBQ DBQ20100923063009709/23/10 06:30:31  5-MIN KDBQ 231230Z 20016KT 10SM FEW095 21/19 A2987 1130 87 2100 200/16 RMK AO2
94908KDBQ DBQ20100923063509709/23/10 06:35:31  5-MIN KDBQ 231235Z 20014KT 10SM FEW095 21/19 A2986 1130 87 2100 200/14 RMK AO2
94908KDBQ DBQ20100923064009709/23/10 06:40:31  5-MIN KDBQ 231240Z 20015KT 10SM FEW095 22/19 A2986 1130 84 2200 200/15 RMK AO2
94908KDBQ DBQ20100923064509409/23/10 06:45:31  5-MIN KDBQ 231245Z 20016KT 10SM CLR 22/19 A2986 1130 84 2200 200/16 RMK AO2
94908KDBQ DBQ20100923065011109/23/10 06:50:31  5-MIN KDBQ 231250Z 20016KT 10SM CLR 22/19 A2986 1130 84 2200 200/16 RMK AO2 SLP108 T02170189
94908KDBQ DBQ20100923065510009/23/10 06:55:31  5-MIN KDBQ 231255Z 20016G21KT 10SM CLR 22/19 A2986 1130 84 2200 200/16G21 RMK AO2
94908KDBQ DBQ20100923070010009/23/10 07:00:31  5-MIN KDBQ 231300Z 20018G23KT 10SM CLR 22/19 A2986 1130 84 2200 200/18G23 RMK AO2
94908KDBQ DBQ20100923070510009/23/10 07:05:31  5-MIN KDBQ 231305Z 20016G25KT 10SM CLR 22/19 A2986 1140 81 2300 200/16G25 RMK AO2
94908KDBQ DBQ20100923071010009/23/10 07:10:31  5-MIN KDBQ 231310Z 20016G25KT 10SM CLR 22/19 A2986 1140 81 2300 200/16G25 RMK AO2
94908KDBQ DBQ20100923071510009/23/10 07:15:31  5-MIN KDBQ 231315Z 20015G24KT 10SM CLR 22/19 A2986 1140 84 2200 200/15G24 RMK AO2
94908KDBQ DBQ20100923072010009/23/10 07:20:31  5-MIN KDBQ 231320Z 20016G23KT 10SM CLR 22/19 A2986 1140 84 2200 200/16G23 RMK AO2
94908KDBQ DBQ20100923072510009/23/10 07:25:31  5-MIN KDBQ 231325Z 20014G23KT 10SM CLR 22/19 A2986 1140 84 2300 200/14G23 RMK AO2
94908KDBQ DBQ20100923073010009/23/10 07:30:31  5-MIN KDBQ 231330Z 20018G22KT 10SM CLR 22/19 A2985 1140 84 2300 200/18G22 RMK AO2
94908KDBQ DBQ20100923073510009/23/10 07:35:31  5-MIN KDBQ 231335Z 20015G22KT 10SM CLR 22/19 A2986 1140 81 2300 200/15G22 RMK AO2
94908KDBQ DBQ20100923074010009/23/10 07:40:31  5-MIN KDBQ 231340Z 20014G21KT 10SM CLR 22/19 A2985 1140 81 2300 200/14G21 RMK AO2
94908KDBQ DBQ20100923074509409/23/10 07:45:31  5-MIN KDBQ 231345Z 20014KT 10SM CLR 22/19 A2985 1140 84 2300 200/14 RMK AO2
94908KDBQ DBQ20100923075011109/23/10 07:50:31  5-MIN KDBQ 231350Z 20015KT 10SM CLR 22/19 A2985 1140 81 2300 200/15 RMK AO2 SLP104 T02220189
94908KDBQ DBQ20100923075510009/23/10 07:55:31  5-MIN KDBQ 231355Z 20015G21KT 10SM CLR 22/19 A2985 1140 84 2300 200/15G21 RMK AO2
94908KDBQ DBQ20100923080010009/23/10 08:00:31  5-MIN KDBQ 231400Z 20015G21KT 10SM CLR 23/19 A2985 1140 81 2300 200/15G21 RMK AO2
94908KDBQ DBQ20100923080510009/23/10 08:05:31  5-MIN KDBQ 231405Z 20016G22KT 10SM CLR 23/19 A2985 1140 78 2400 200/16G22 RMK AO2
94908KDBQ DBQ20100923081010009/23/10 08:10:31  5-MIN KDBQ 231410Z 20017G22KT 10SM CLR 23/19 A2985 1140 78 2400 200/17G22 RMK AO2
94908KDBQ DBQ20100923081510009/23/10 08:15:31  5-MIN KDBQ 231415Z 20018G23KT 10SM CLR 23/19 A2985 1150 78 2400 200/18G23 RMK AO2
94908KDBQ DBQ20100923082010009/23/10 08:20:31  5-MIN KDBQ 231420Z 20017G24KT 10SM CLR 23/19 A2985 1150 78 2400 200/17G24 RMK AO2
94908KDBQ DBQ20100923082510009/23/10 08:25:31  5-MIN KDBQ 231425Z 21018G24KT 10SM CLR 23/19 A2985 1150 78 2400 200/18G24 RMK AO2
94908KDBQ DBQ20100923083010009/23/10 08:30:31  5-MIN KDBQ 231430Z 20015G24KT 10SM CLR 24/19 A2985 1150 76 2500 200/15G24 RMK AO2
94908KDBQ DBQ20100923083510009/23/10 08:35:31  5-MIN KDBQ 231435Z 20017G24KT 10SM CLR 24/19 A2985 1150 73 2500 200/17G24 RMK AO2
94908KDBQ DBQ20100923084010309/23/10 08:40:31  5-MIN KDBQ 231440Z 20017G24KT 10SM FEW060 24/19 A2985 1150 76 2500 200/17G24 RMK AO2
94908KDBQ DBQ20100923084512109/23/10 08:45:31  5-MIN KDBQ 231445Z 20020G26KT 10SM SCT060 24/19 A2985 1150 73 2500 200/20G26 RMK AO2 PK WND 21026/1445
94908KDBQ DBQ20100923085014409/23/10 08:50:31  5-MIN KDBQ 231450Z 20017G26KT 10SM BKN060 24/19 A2984 1150 71 2500 200/17G26 RMK AO2 PK WND 21026/1445 SLP100 T02440189 55006
94908KDBQ DBQ20100923085509709/23/10 08:55:31  5-MIN KDBQ 231455Z 20016KT 10SM BKN065 24/19 A2984 1150 71 2500 200/16 RMK AO2
94908KDBQ DBQ20100923090010309/23/10 09:00:31  5-MIN KDBQ 231500Z 20017G25KT 10SM BKN065 24/19 A2984 1150 71 2500 200/17G25 RMK AO2
94908KDBQ DBQ20100923090510309/23/10 09:05:31  5-MIN KDBQ 231505Z 20019G25KT 10SM OVC065 24/19 A2984 1150 71 2500 200/19G25 RMK AO2
94908KDBQ DBQ20100923091012109/23/10 09:10:31  5-MIN KDBQ 231510Z 20018G28KT 10SM OVC065 24/19 A2984 1150 71 2500 200/18G28 RMK AO2 PK WND 20028/1507
94908KDBQ DBQ20100923091512109/23/10 09:15:31  5-MIN KDBQ 231515Z 20019G28KT 10SM OVC065 24/19 A2984 1150 71 2500 200/19G28 RMK AO2 PK WND 20028/1507
94908KDBQ DBQ20100923092012709/23/10 09:20:31  5-MIN KDBQ 231520Z 21017G23KT 10SM OVC065 25/19 A2984 1150 68 2600 200/17G23 RMK AO2 PK WND 20028/1507 P0001
94908KDBQ DBQ20100923092512709/23/10 09:25:31  5-MIN KDBQ 231525Z 21017G25KT 10SM OVC065 25/19 A2984 1150 68 2600 210/17G25 RMK AO2 PK WND 20028/1507 P0001
94908KDBQ DBQ20100923093012709/23/10 09:30:31  5-MIN KDBQ 231530Z 22018G25KT 10SM OVC065 25/19 A2984 1150 71 2600 210/18G25 RMK AO2 PK WND 20028/1507 P0001
94908KDBQ DBQ20100923093512709/23/10 09:35:31  5-MIN KDBQ 231535Z 21014G23KT 10SM BKN065 25/19 A2984 1150 68 2600 210/14G23 RMK AO2 PK WND 20028/1507 P0001
94908KDBQ DBQ20100923094012709/23/10 09:40:31  5-MIN KDBQ 231540Z 21016G23KT 10SM BKN065 26/19 A2984 1160 68 2700 210/16G23 RMK AO2 PK WND 20028/1507 P0001
94908KDBQ DBQ20100923094512709/23/10 09:45:31  5-MIN KDBQ 231545Z 21020G24KT 10SM BKN065 26/19 A2984 1150 64 2700 200/20G24 RMK AO2 PK WND 20028/1507 P0001
94908KDBQ DBQ20100923095014409/23/10 09:50:31  5-MIN KDBQ 231550Z 21018G24KT 10SM SCT065 26/19 A2984 1160 66 2700 210/18G24 RMK AO2 PK WND 20028/1507 SLP096 P0001 T02610194
94908KDBQ DBQ20100923095512109/23/10 09:55:31  5-MIN KDBQ 231555Z 20020G26KT 10SM FEW065 27/19 A2983 1160 64 2800 200/20G26 RMK AO2 PK WND 19026/1555
94908KDBQ DBQ20100923100012109/23/10 10:00:31  5-MIN KDBQ 231600Z 21018G27KT 10SM FEW065 26/19 A2984 1160 64 2700 210/18G27 RMK AO2 PK WND 20027/1556
94908KDBQ DBQ20100923100512109/23/10 10:05:31  5-MIN KDBQ 231605Z 22019G29KT 10SM FEW065 27/19 A2983 1160 64 2800 220/19G29 RMK AO2 PK WND 23029/1605
94908KDBQ DBQ20100923101011809/23/10 10:10:31  5-MIN KDBQ 231610Z 21018G29KT 10SM CLR 27/19 A2983 1160 62 2900 210/18G29 RMK AO2 PK WND 20029/1607
94908KDBQ DBQ20100923101511809/23/10 10:15:31  5-MIN KDBQ 231615Z 22019G30KT 10SM CLR 27/19 A2983 1160 62 2900 210/19G30 RMK AO2 PK WND 21030/1615
94908KDBQ DBQ20100923102011809/23/10 10:20:31  5-MIN KDBQ 231620Z 21020G30KT 10SM CLR 27/19 A2982 1170 60 2900 210/20G30 RMK AO2 PK WND 21030/1615
94908KDBQ DBQ20100923102511809/23/10 10:25:31  5-MIN KDBQ 231625Z 22020G30KT 10SM CLR 27/19 A2983 1160 60 2900 220/20G30 RMK AO2 PK WND 22030/1625
94908KDBQ DBQ20100923103011809/23/10 10:30:31  5-MIN KDBQ 231630Z 21017G30KT 10SM CLR 27/19 A2983 1160 60 2900 210/17G30 RMK AO2 PK WND 22030/1625
94908KDBQ DBQ20100923103511809/23/10 10:35:31  5-MIN KDBQ 231635Z 21017G31KT 10SM CLR 27/19 A2983 1160 60 2900 210/17G31 RMK AO2 PK WND 21031/1632
94908KDBQ DBQ20100923104011809/23/10 10:40:31  5-MIN KDBQ 231640Z 22019G31KT 10SM CLR 28/19 A2982 1170 60 2900 220/19G31 RMK AO2 PK WND 21031/1632
94908KDBQ DBQ20100923104511809/23/10 10:45:31  5-MIN KDBQ 231645Z 21018G28KT 10SM CLR 28/19 A2983 1170 60 2900 210/18G28 RMK AO2 PK WND 21031/1632
94908KDBQ DBQ20100923105013509/23/10 10:50:31  5-MIN KDBQ 231650Z 21023G31KT 10SM CLR 28/19 A2982 1170 60 2900 210/23G31 RMK AO2 PK WND 20031/1649 SLP092 T02780194
94908KDBQ DBQ20100923105510009/23/10 10:55:31  5-MIN KDBQ 231655Z 22020G31KT 10SM CLR 28/19 A2982 1170 58 2900 220/20G31 RMK AO2
94908KDBQ DBQ20100923110010009/23/10 11:00:31  5-MIN KDBQ 231700Z 21019G28KT 10SM CLR 28/19 A2982 1170 60 2900 210/19G28 RMK AO2
94908KDBQ DBQ20100923110511809/23/10 11:05:31  5-MIN KDBQ 231705Z 21023G31KT 10SM CLR 28/19 A2982 1170 58 2900 200/23G31 RMK AO2 PK WND 21031/1704
94908KDBQ DBQ20100923111011809/23/10 11:10:31  5-MIN KDBQ 231710Z 21018G31KT 10SM CLR 28/19 A2982 1170 58 2900 210/18G31 RMK AO2 PK WND 21031/1704
94908KDBQ DBQ20100923111512109/23/10 11:15:31  5-MIN KDBQ 231715Z 21020G30KT 10SM FEW095 28/19 A2982 1170 60 2900 210/20G30 RMK AO2 PK WND 21031/1704
94908KDBQ DBQ20100923112012109/23/10 11:20:31  5-MIN KDBQ 231720Z 22019G28KT 10SM FEW095 28/19 A2981 1180 58 3000 220/19G28 RMK AO2 PK WND 21031/1704
94908KDBQ DBQ20100923112512109/23/10 11:25:31  5-MIN KDBQ 231725Z 21022G29KT 10SM FEW090 28/19 A2981 1180 58 2900 210/22G29 RMK AO2 PK WND 21031/1704
94908KDBQ DBQ20100923113012109/23/10 11:30:31  5-MIN KDBQ 231730Z 22019G31KT 10SM FEW090 28/19 A2981 1180 58 2900 220/19G31 RMK AO2 PK WND 22031/1727
94908KDBQ DBQ20100923113512109/23/10 11:35:31  5-MIN KDBQ 231735Z 22019G33KT 10SM SCT090 28/19 A2981 1180 56 3000 220/19G33 RMK AO2 PK WND 22033/1733
94908KDBQ DBQ20100923114012109/23/10 11:40:31  5-MIN KDBQ 231740Z 22021G33KT 10SM SCT090 28/19 A2981 1180 56 3000 220/21G33 RMK AO2 PK WND 22033/1733
94908KDBQ DBQ20100923114512109/23/10 11:45:31  5-MIN KDBQ 231745Z 21019G28KT 10SM SCT090 28/19 A2981 1180 56 3000 210/19G28 RMK AO2 PK WND 22033/1733
94908KDBQ DBQ20100923115016209/23/10 11:50:31  5-MIN KDBQ 231750Z 22019G29KT 10SM SCT090 28/18 A2981 1180 56 3000 220/19G29 RMK AO2 PK WND 22033/1733 SLP087 60001 T02780183 10283 20211 58008
94908KDBQ DBQ20100923115510309/23/10 11:55:31  5-MIN KDBQ 231755Z 21017G29KT 10SM SCT085 28/19 A2981 1180 58 3000 210/17G29 RMK AO2
94908KDBQ DBQ20100923120010309/23/10 12:00:31  5-MIN KDBQ 231800Z 21018G24KT 10SM FEW085 28/19 A2981 1180 58 3000 210/18G24 RMK AO2
94908KDBQ DBQ20100923120512109/23/10 12:05:31  5-MIN KDBQ 231805Z 21019G27KT 10SM FEW085 28/19 A2980 1190 58 3000 210/19G27 RMK AO2 PK WND 20027/1801
94908KDBQ DBQ20100923121012109/23/10 12:10:31  5-MIN KDBQ 231810Z 21019G27KT 10SM FEW085 28/18 A2980 1190 56 3000 210/19G27 RMK AO2 PK WND 21027/1806
94908KDBQ DBQ20100923121511809/23/10 12:15:31  5-MIN KDBQ 231815Z 21017G27KT 10SM CLR 28/18 A2980 1190 56 3000 210/17G27 RMK AO2 PK WND 21027/1806
94908KDBQ DBQ20100923122011809/23/10 12:20:31  5-MIN KDBQ 231820Z 20025G33KT 10SM CLR 28/19 A2980 1190 58 3000 200/25G33 RMK AO2 PK WND 19033/1819
94908KDBQ DBQ20100923122511809/23/10 12:25:31  5-MIN KDBQ 231825Z 21022G33KT 10SM CLR 28/18 A2979 1190 56 3000 210/22G33 RMK AO2 PK WND 19033/1819
94908KDBQ DBQ20100923123011809/23/10 12:30:31  5-MIN KDBQ 231830Z 22019G30KT 10SM CLR 28/18 A2979 1200 56 3000 220/19G30 RMK AO2 PK WND 19033/1819
94908KDBQ DBQ20100923123511809/23/10 12:35:31  5-MIN KDBQ 231835Z 21019G25KT 10SM CLR 27/18 A2980 1190 58 2900 210/19G25 RMK AO2 PK WND 19033/1819
94908KDBQ DBQ20100923124011809/23/10 12:40:31  5-MIN KDBQ 231840Z 21019G25KT 10SM CLR 27/18 A2979 1200 58 2900 210/19G25 RMK AO2 PK WND 19033/1819
94908KDBQ DBQ20100923124511809/23/10 12:45:31  5-MIN KDBQ 231845Z 21020G26KT 10SM CLR 27/18 A2979 1200 58 2900 210/20G26 RMK AO2 PK WND 19033/1819
94908KDBQ DBQ20100923125013809/23/10 12:50:31  5-MIN KDBQ 231850Z 21017G26KT 10SM FEW100 27/18 A2979 1200 58 2900 200/17G26 RMK AO2 PK WND 19033/1819 SLP082 T02720183
94908KDBQ DBQ20100923125512109/23/10 12:55:31  5-MIN KDBQ 231855Z 21022G28KT 10SM SCT100 27/18 A2978 1210 58 2900 210/22G28 RMK AO2 PK WND 21028/1854
94908KDBQ DBQ20100923130012109/23/10 13:00:31  5-MIN KDBQ 231900Z 21022G28KT 10SM SCT110 27/18 A2979 1200 56 2900 210/22G28 RMK AO2 PK WND 20028/1859
94908KDBQ DBQ20100923130512109/23/10 13:05:31  5-MIN KDBQ 231905Z 20019G28KT 10SM SCT110 27/18 A2978 1200 56 2900 200/19G28 RMK AO2 PK WND 21028/1901
94908KDBQ DBQ20100923131012109/23/10 13:10:31  5-MIN KDBQ 231910Z 21022G31KT 10SM SCT110 27/18 A2978 1210 58 2900 210/22G31 RMK AO2 PK WND 21031/1909
94908KDBQ DBQ20100923131512109/23/10 13:15:31  5-MIN KDBQ 231915Z 21021G31KT 10SM SCT110 27/18 A2978 1210 56 2900 210/21G31 RMK AO2 PK WND 22031/1912
94908KDBQ DBQ20100923132012109/23/10 13:20:31  5-MIN KDBQ 231920Z 21019G31KT 10SM FEW110 27/18 A2978 1210 58 2900 210/19G31 RMK AO2 PK WND 22031/1912
94908KDBQ DBQ20100923132512109/23/10 13:25:31  5-MIN KDBQ 231925Z 21019G28KT 10SM FEW110 27/18 A2978 1210 58 2900 200/19G28 RMK AO2 PK WND 22031/1912
94908KDBQ DBQ20100923133012109/23/10 13:30:31  5-MIN KDBQ 231930Z 20023G29KT 10SM FEW110 27/18 A2978 1210 58 2900 200/23G29 RMK AO2 PK WND 22031/1912
94908KDBQ DBQ20100923133512109/23/10 13:35:31  5-MIN KDBQ 231935Z 20022G29KT 10SM FEW110 27/18 A2978 1210 58 2900 200/22G29 RMK AO2 PK WND 22031/1912
94908KDBQ DBQ20100923134012109/23/10 13:40:31  5-MIN KDBQ 231940Z 21019G29KT 10SM FEW110 27/18 A2977 1220 60 2900 210/19G29 RMK AO2 PK WND 22031/1912
94908KDBQ DBQ20100923134512109/23/10 13:45:31  5-MIN KDBQ 231945Z 20020G28KT 10SM FEW110 27/18 A2977 1210 60 2900 200/20G28 RMK AO2 PK WND 22031/1912
94908KDBQ DBQ20100923135013509/23/10 13:50:31  5-MIN KDBQ 231950Z 21019G28KT 10SM CLR 27/18 A2978 1210 60 2900 210/19G28 RMK AO2 PK WND 22031/1912 SLP076 T02670183
94908KDBQ DBQ20100923135512109/23/10 13:55:31  5-MIN KDBQ 231955Z 20022G27KT 10SM FEW110 27/18 A2977 1220 60 2900 200/22G27 RMK AO2 PK WND 21027/1954
94908KDBQ DBQ20100923140012109/23/10 14:00:31  5-MIN KDBQ 232000Z 20017G27KT 10SM FEW110 27/18 A2977 1220 60 2900 200/17G27 RMK AO2 PK WND 21027/1954
94908KDBQ DBQ20100923140512109/23/10 14:05:31  5-MIN KDBQ 232005Z 20017G24KT 10SM FEW110 27/18 A2977 1220 60 2900 200/17G24 RMK AO2 PK WND 21027/1954
94908KDBQ DBQ20100923141012109/23/10 14:10:31  5-MIN KDBQ 232010Z 20023G30KT 10SM FEW110 27/18 A2976 1220 60 2900 200/23G30 RMK AO2 PK WND 20030/2010
94908KDBQ DBQ20100923141512109/23/10 14:15:31  5-MIN KDBQ 232015Z 21020G30KT 10SM FEW110 27/18 A2977 1220 60 2900 210/20G30 RMK AO2 PK WND 20030/2010
94908KDBQ DBQ20100923142012109/23/10 14:20:31  5-MIN KDBQ 232020Z 20020G28KT 10SM FEW110 27/18 A2976 1220 60 2900 200/20G28 RMK AO2 PK WND 20030/2010
94908KDBQ DBQ20100923142512109/23/10 14:25:31  5-MIN KDBQ 232025Z 21021G32KT 10SM FEW110 27/18 A2976 1230 57 2900 200/21G32 RMK AO2 PK WND 21032/2021
94908KDBQ DBQ20100923143012109/23/10 14:30:31  5-MIN KDBQ 232030Z 21018G32KT 10SM FEW110 26/18 A2976 1230 62 2800 210/18G32 RMK AO2 PK WND 21032/2021
94908KDBQ DBQ20100923143511809/23/10 14:35:31  5-MIN KDBQ 232035Z 20020G27KT 10SM CLR 27/18 A2976 1230 60 2900 200/20G27 RMK AO2 PK WND 21032/2021
94908KDBQ DBQ20100923144011809/23/10 14:40:31  5-MIN KDBQ 232040Z 20016G27KT 10SM CLR 27/18 A2976 1230 60 2900 190/16G27 RMK AO2 PK WND 21032/2021
94908KDBQ DBQ20100923144511809/23/10 14:45:31  5-MIN KDBQ 232045Z 20019G28KT 10SM CLR 27/18 A2975 1230 60 2900 200/19G28 RMK AO2 PK WND 21032/2021
94908KDBQ DBQ20100923145014109/23/10 14:50:31  5-MIN KDBQ 232050Z 20024G31KT 10SM CLR 26/18 A2975 1240 59 2800 200/24G31 RMK AO2 PK WND 21032/2021 SLP067 T02610178 58011
94908KDBQ DBQ20100923145510009/23/10 14:55:31  5-MIN KDBQ 232055Z 20019G31KT 10SM CLR 26/18 A2975 1230 59 2800 200/19G31 RMK AO2
94908KDBQ DBQ20100923150010009/23/10 15:00:31  5-MIN KDBQ 232100Z 20017G29KT 10SM CLR 26/18 A2976 1230 62 2800 200/17G29 RMK AO2
94908KDBQ DBQ20100923150511809/23/10 15:05:31  5-MIN KDBQ 232105Z 20017G26KT 10SM CLR 26/18 A2976 1230 62 2800 200/17G26 RMK AO2 PK WND 20026/2105
94908KDBQ DBQ20100923151012109/23/10 15:10:31  5-MIN KDBQ 232110Z 20017G26KT 10SM FEW050 27/18 A2976 1230 57 2900 200/17G26 RMK AO2 PK WND 20026/2105
94908KDBQ DBQ20100923151511509/23/10 15:15:31  5-MIN KDBQ 232115Z 20018KT 10SM SCT050 26/18 A2975 1230 62 2800 200/18 RMK AO2 PK WND 20026/2105
94908KDBQ DBQ20100923152012109/23/10 15:20:31  5-MIN KDBQ 232120Z 20019G24KT 10SM SCT050 27/18 A2975 1240 60 2900 200/19G24 RMK AO2 PK WND 20026/2105
94908KDBQ DBQ20100923152512109/23/10 15:25:31  5-MIN KDBQ 232125Z 20020G27KT 10SM SCT050 27/18 A2975 1240 57 2900 200/20G27 RMK AO2 PK WND 20027/2124
94908KDBQ DBQ20100923153012109/23/10 15:30:31  5-MIN KDBQ 232130Z 20020G27KT 10SM SCT050 27/18 A2975 1240 57 2900 200/20G27 RMK AO2 PK WND 20027/2124
94908KDBQ DBQ20100923153512109/23/10 15:35:31  5-MIN KDBQ 232135Z 20020G28KT 10SM SCT055 26/18 A2974 1240 59 2800 200/20G28 RMK AO2 PK WND 19028/2133
94908KDBQ DBQ20100923154012109/23/10 15:40:31  5-MIN KDBQ 232140Z 20020G28KT 10SM BKN055 26/18 A2974 1250 59 2800 200/20G28 RMK AO2 PK WND 19028/2133
94908KDBQ DBQ20100923154512109/23/10 15:45:31  5-MIN KDBQ 232145Z 20020G27KT 10SM BKN055 26/18 A2974 1250 59 2800 200/20G27 RMK AO2 PK WND 19028/2133
94908KDBQ DBQ20100923155013809/23/10 15:50:31  5-MIN KDBQ 232150Z 20015G27KT 10SM BKN050 26/18 A2974 1250 59 2800 200/15G27 RMK AO2 PK WND 19028/2133 SLP064 T02610178
94908KDBQ DBQ20100923155510309/23/10 15:55:31  5-MIN KDBQ 232155Z 20016G27KT 10SM BKN050 26/18 A2974 1250 61 2800 200/16G27 RMK AO2
94908KDBQ DBQ20100923160012109/23/10 16:00:31  5-MIN KDBQ 232200Z 20023G30KT 10SM OVC050 26/18 A2974 1250 59 2900 200/23G30 RMK AO2 PK WND 20030/2200
94908KDBQ DBQ20100923160512109/23/10 16:05:31  5-MIN KDBQ 232205Z 20020G30KT 10SM OVC050 26/18 A2974 1250 59 2900 200/20G30 RMK AO2 PK WND 21030/2201
94908KDBQ DBQ20100923161012109/23/10 16:10:31  5-MIN KDBQ 232210Z 20020G30KT 10SM OVC050 26/18 A2973 1250 59 2900 200/20G30 RMK AO2 PK WND 21030/2201
94908KDBQ DBQ20100923161512809/23/10 16:15:31  5-MIN KDBQ 232215Z 20021G29KT 10SM BKN050 BKN060 26/17 A2973 1260 57 2900 200/21G29 RMK AO2 PK WND 21030/2201
94908KDBQ DBQ20100923162012809/23/10 16:20:31  5-MIN KDBQ 232220Z 20022G29KT 10SM BKN050 BKN060 26/18 A2972 1260 59 2900 200/22G29 RMK AO2 PK WND 21030/2201
94908KDBQ DBQ20100923162513509/23/10 16:25:31  5-MIN KDBQ 232225Z 20023G29KT 10SM FEW039 BKN050 BKN060 26/17 A2973 1260 57 2900 200/23G29 RMK AO2 PK WND 21030/2201
94908KDBQ DBQ20100923163013509/23/10 16:30:31  5-MIN KDBQ 232230Z 20020G28KT 10SM FEW041 SCT050 BKN060 26/18 A2972 1260 61 2800 200/20G28 RMK AO2 PK WND 21030/2201
94908KDBQ DBQ20100923163512809/23/10 16:35:31  5-MIN KDBQ 232235Z 20023G28KT 10SM FEW043 SCT060 26/18 A2972 1260 61 2800 200/23G28 RMK AO2 PK WND 21030/2201
94908KDBQ DBQ20100923164012109/23/10 16:40:31  5-MIN KDBQ 232240Z 20019G30KT 10SM FEW050 26/17 A2972 1270 57 2900 200/19G30 RMK AO2 PK WND 20030/2236
94908KDBQ DBQ20100923164512809/23/10 16:45:31  5-MIN KDBQ 232245Z 19019G30KT 10SM FEW050 SCT060 26/17 A2972 1270 57 2900 190/19G30 RMK AO2 PK WND 20030/2236
94908KDBQ DBQ20100923165013809/23/10 16:50:31  5-MIN KDBQ 232250Z 20021G28KT 10SM SCT060 26/17 A2972 1270 57 2900 200/21G28 RMK AO2 PK WND 20030/2236 SLP056 T02610172
94908KDBQ DBQ20100923165512109/23/10 16:55:31  5-MIN KDBQ 232255Z 19020G28KT 10SM SCT065 26/18 A2971 1270 59 2900 190/20G28 RMK AO2 PK WND 19028/2255
94908KDBQ DBQ20100923170012109/23/10 17:00:31  5-MIN KDBQ 232300Z 20024G29KT 10SM SCT065 26/17 A2971 1270 57 2900 200/24G29 RMK AO2 PK WND 19029/2300
94908KDBQ DBQ20100923170512109/23/10 17:05:31  5-MIN KDBQ 232305Z 20022G30KT 10SM FEW065 26/17 A2971 1270 57 2900 200/22G30 RMK AO2 PK WND 20030/2301
94908KDBQ DBQ20100923171012109/23/10 17:10:31  5-MIN KDBQ 232310Z 19021G30KT 10SM FEW065 26/18 A2971 1280 61 2800 190/21G30 RMK AO2 PK WND 20030/2301
94908KDBQ DBQ20100923171512109/23/10 17:15:31  5-MIN KDBQ 232315Z 19018G28KT 10SM FEW065 25/18 A2971 1280 64 2800 190/18G28 RMK AO2 PK WND 20030/2301
94908KDBQ DBQ20100923172011809/23/10 17:20:31  5-MIN KDBQ 232320Z 19019G25KT 10SM CLR 25/18 A2971 1280 64 2800 190/19G25 RMK AO2 PK WND 20030/2301
94908KDBQ DBQ20100923172511809/23/10 17:25:31  5-MIN KDBQ 232325Z 19019G27KT 10SM CLR 25/18 A2971 1280 64 2800 190/19G27 RMK AO2 PK WND 20030/2301
94908KDBQ DBQ20100923173011809/23/10 17:30:31  5-MIN KDBQ 232330Z 19020G27KT 10SM CLR 26/18 A2970 1280 61 2800 190/20G27 RMK AO2 PK WND 20030/2301
94908KDBQ DBQ20100923173512109/23/10 17:35:31  5-MIN KDBQ 232335Z 19017G26KT 10SM FEW031 26/18 A2970 1280 61 2800 190/17G26 RMK AO2 PK WND 20030/2301
94908KDBQ DBQ20100923174014309/23/10 17:40:31  5-MIN KDBQ 232340Z 19017G25KT 9SM -RA SCT035 SCT110 25/18 A2970 1280 64 2800 190/17G25 RMK AO2 PK WND 20030/2301 RAB38 P0000
94908KDBQ DBQ20100923174514309/23/10 17:45:31  5-MIN KDBQ 232345Z 19017G24KT 7SM -RA BKN035 BKN110 24/18 A2970 1280 68 2700 190/17G24 RMK AO2 PK WND 20030/2301 RAB38 P0000
94908KDBQ DBQ20100923175017809/23/10 17:50:31  5-MIN KDBQ 232350Z 19018KT 6SM -RA BKN038 BKN110 24/18 A2970 1280 71 2600 190/18 RMK AO2 PK WND 20030/2301 RAB38 SLP050 P0000 60000 T02390183 10278 20239 57019
94908KDBQ DBQ20100923175511909/23/10 17:55:31  5-MIN KDBQ 232355Z 19016G22KT 8SM -RA BKN045 BKN110 24/18 A2970 1290 71 2600 180/16G22 RMK AO2 P0000
94908KDBQ DBQ20100923180012409/23/10 18:00:31  5-MIN KDBQ 240000Z 19018G22KT 10SM BKN049 OVC110 24/18 A2969 1290 71 2700 190/18G22 RMK AO2 RAE2359 P0000
94908KDBQ DBQ20100923180514909/23/10 18:05:31  5-MIN KDBQ 240005Z 19019G27KT 10SM BKN049 BKN065 BKN110 24/18 A2969 1290 68 2700 190/19G27 RMK AO2 PK WND 20027/0005 RAE2359 P0000
94908KDBQ DBQ20100923181014909/23/10 18:10:31  5-MIN KDBQ 240010Z 19021G29KT 10SM SCT049 BKN065 BKN110 25/18 A2969 1290 64 2800 190/21G29 RMK AO2 PK WND 20029/0009 RAE2359 P0000
94908KDBQ DBQ20100923181514209/23/10 18:15:31  5-MIN KDBQ 240015Z 19018G29KT 10SM SCT065 BKN110 24/18 A2969 1290 66 2700 190/18G29 RMK AO2 PK WND 20029/0009 RAE2359 P0000
94908KDBQ DBQ20100923182014209/23/10 18:20:31  5-MIN KDBQ 240020Z 19021G26KT 10SM BKN065 BKN110 25/18 A2969 1290 64 2800 190/21G26 RMK AO2 PK WND 20029/0009 RAE2359 P0000
94908KDBQ DBQ20100923182513509/23/10 18:25:31  5-MIN KDBQ 240025Z 19019G28KT 10SM BKN065 25/18 A2969 1300 64 2800 190/19G28 RMK AO2 PK WND 20029/0009 RAE2359 P0000
94908KDBQ DBQ20100923183013509/23/10 18:30:31  5-MIN KDBQ 240030Z 19021G30KT 10SM BKN065 25/18 A2969 1300 64 2800 190/21G30 RMK AO2 PK WND 20030/0029 RAE2359 P0000
94908KDBQ DBQ20100923183513509/23/10 18:35:31  5-MIN KDBQ 240035Z 19020G30KT 10SM BKN070 25/18 A2969 1300 64 2800 190/20G30 RMK AO2 PK WND 20030/0029 RAE2359 P0000
94908KDBQ DBQ20100923184013509/23/10 18:40:31  5-MIN KDBQ 240040Z 19021G29KT 10SM OVC070 25/18 A2969 1300 64 2800 190/21G29 RMK AO2 PK WND 20030/0029 RAE2359 P0000
94908KDBQ DBQ20100923184513509/23/10 18:45:31  5-MIN KDBQ 240045Z 19021G29KT 10SM OVC070 25/18 A2968 1300 64 2800 190/21G29 RMK AO2 PK WND 20030/0029 RAE2359 P0000
94908KDBQ DBQ20100923185015909/23/10 18:50:31  5-MIN KDBQ 240050Z 19021G30KT 10SM BKN070 OVC120 26/18 A2968 1300 61 2900 190/21G30 RMK AO2 PK WND 18030/0046 RAE2359 SLP043 P0000 T02560178
94908KDBQ DBQ20100923185512809/23/10 18:55:31  5-MIN KDBQ 240055Z 20022G30KT 10SM BKN070 BKN120 26/18 A2968 1300 61 2900 190/22G30 RMK AO2 PK WND 20029/0054
94908KDBQ DBQ20100923190013309/23/10 19:00:31  5-MIN KDBQ 240100Z AUTO 19020G29KT 10SM BKN070 BKN120 26/18 A2968 1300 61 2900 190/20G29 RMK AO2 PK WND 19029/0058
94908KDBQ DBQ20100923190513309/23/10 19:05:31  5-MIN KDBQ 240105Z AUTO 19022G32KT 10SM SCT070 BKN120 25/18 A2968 1300 64 2800 190/22G32 RMK AO2 PK WND 18032/0105
94908KDBQ DBQ20100923191013309/23/10 19:10:31  5-MIN KDBQ 240110Z AUTO 19022G32KT 10SM BKN065 BKN120 26/18 A2967 1310 61 2900 190/22G32 RMK AO2 PK WND 18032/0105
94908KDBQ DBQ20100923191512609/23/10 19:15:31  5-MIN KDBQ 240115Z AUTO 20023G32KT 10SM BKN065 26/18 A2967 1310 61 2900 200/23G32 RMK AO2 PK WND 19032/0112
94908KDBQ DBQ20100923192012609/23/10 19:20:31  5-MIN KDBQ 240120Z AUTO 20025G32KT 10SM BKN065 26/18 A2968 1310 64 2900 190/25G32 RMK AO2 PK WND 19032/0112
94908KDBQ DBQ20100923192512609/23/10 19:25:31  5-MIN KDBQ 240125Z AUTO 19024G31KT 10SM BKN065 25/18 A2968 1300 66 2800 190/24G31 RMK AO2 PK WND 19032/0112
94908KDBQ DBQ20100923193012609/23/10 19:30:31  5-MIN KDBQ 240130Z AUTO 19023G30KT 10SM OVC060 25/18 A2968 1300 66 2800 190/23G30 RMK AO2 PK WND 19032/0112
94908KDBQ DBQ20100923193512609/23/10 19:35:31  5-MIN KDBQ 240135Z AUTO 20025G32KT 10SM OVC065 25/18 A2968 1300 66 2800 200/25G32 RMK AO2 PK WND 21032/0135
94908KDBQ DBQ20100923194012609/23/10 19:40:31  5-MIN KDBQ 240140Z AUTO 20023G32KT 10SM OVC065 24/18 A2968 1300 68 2700 200/23G32 RMK AO2 PK WND 21032/0135
94908KDBQ DBQ20100923194512609/23/10 19:45:31  5-MIN KDBQ 240145Z AUTO 19025G31KT 10SM OVC065 24/18 A2968 1300 68 2700 190/25G31 RMK AO2 PK WND 21032/0135
94908KDBQ DBQ20100923195015909/23/10 19:50:31  5-MIN KDBQ 240150Z AUTO 20023G31KT 10SM -RA OVC065 24/18 A2968 1300 68 2700 200/23G31 RMK AO2 PK WND 21032/0135 RAB48 SLP044 P0000 T02440183
94908KDBQ DBQ20100923195513609/23/10 19:55:31  5-MIN KDBQ 240155Z AUTO 20022G28KT 10SM -RA OVC065 24/19 A2968 1300 73 2700 200/22G28 RMK AO2 PK WND 19027/0155 P0000
94908KDBQ DBQ20100923200013609/23/10 20:00:31  5-MIN KDBQ 240200Z AUTO 19024G31KT 10SM -RA OVC065 24/18 A2968 1310 71 2700 190/24G31 RMK AO2 PK WND 20031/0157 P0000
94908KDBQ DBQ20100923200513609/23/10 20:05:31  5-MIN KDBQ 240205Z AUTO 20023G31KT 10SM -RA OVC060 24/18 A2968 1300 71 2700 200/23G31 RMK AO2 PK WND 20031/0203 P0000
94908KDBQ DBQ20100923201013609/23/10 20:10:31  5-MIN KDBQ 240210Z AUTO 20025G32KT 10SM -RA OVC060 24/19 A2968 1310 73 2700 190/25G32 RMK AO2 PK WND 19032/0209 P0000
94908KDBQ DBQ20100923201513509/23/10 20:15:31  5-MIN KDBQ 240215Z AUTO 19020G32KT 9SM -RA OVC060 23/19 A2968 1300 76 2600 190/20G32 RMK AO2 PK WND 19032/0209 P0000
94908KDBQ DBQ20100923202013609/23/10 20:20:31  5-MIN KDBQ 240220Z AUTO 19021G29KT 10SM -RA OVC060 23/19 A2968 1300 76 2600 190/21G29 RMK AO2 PK WND 19032/0209 P0000
94908KDBQ DBQ20100923202513609/23/10 20:25:31  5-MIN KDBQ 240225Z AUTO 20020G29KT 10SM -RA OVC060 23/19 A2968 1300 76 2600 190/20G29 RMK AO2 PK WND 19032/0209 P0000
94908KDBQ DBQ20100923203014309/23/10 20:30:31  5-MIN KDBQ 240230Z AUTO 20022G29KT 10SM -RA BKN060 OVC075 23/19 A2968 1300 76 2600 190/22G29 RMK AO2 PK WND 19032/0209 P0000
94908KDBQ DBQ20100923203514909/23/10 20:35:31  5-MIN KDBQ 240235Z AUTO 20022G29KT 9SM -RA FEW043 BKN060 OVC080 23/19 A2968 1300 76 2600 200/22G29 RMK AO2 PK WND 19032/0209 P0000
94908KDBQ DBQ20100923204014909/23/10 20:40:31  5-MIN KDBQ 240240Z AUTO 20024G30KT 7SM -RA SCT038 BKN060 OVC085 23/19 A2968 1300 76 2600 200/24G30 RMK AO2 PK WND 19032/0209 P0000
94908KDBQ DBQ20100923204514909/23/10 20:45:31  5-MIN KDBQ 240245Z AUTO 20023G30KT 7SM -RA SCT036 BKN055 OVC070 23/19 A2968 1300 78 2500 200/23G30 RMK AO2 PK WND 19032/0209 P0002
94908KDBQ DBQ20100923205017809/23/10 20:50:31  5-MIN KDBQ 240250Z AUTO 20021G30KT 6SM -RA SCT038 BKN055 OVC070 23/19 A2968 1300 78 2500 200/21G30 RMK AO2 PK WND 19032/0209 SLP043 P0002 60002 T02280189 58018
94908KDBQ DBQ20100923205514809/23/10 20:55:31  5-MIN KDBQ 240255Z AUTO 20023G28KT 4SM RA SCT031 BKN048 OVC070 22/19 A2968 1300 84 2500 200/23G28 RMK AO2 PK WND 19027/0254 P0001
94908KDBQ DBQ20100923210014109/23/10 21:00:31  5-MIN KDBQ 240300Z AUTO 20024G33KT 4SM RA SCT031 OVC050 22/19 A2967 1310 84 2500 200/24G33 RMK AO2 PK WND 19033/0257 P0002
94908KDBQ DBQ20100923210514909/23/10 21:05:31  5-MIN KDBQ 240305Z AUTO 20021G33KT 6SM -RA FEW033 BKN045 OVC050 22/19 A2968 1300 84 2500 200/21G33 RMK AO2 PK WND 19033/0257 P0002
94908KDBQ DBQ20100923211014909/23/10 21:10:31  5-MIN KDBQ 240310Z AUTO 20024G35KT 7SM -RA FEW028 BKN043 OVC050 22/19 A2968 1300 84 2500 200/24G35 RMK AO2 PK WND 20035/0308 P0002
94908KDBQ DBQ20100923211515109/23/10 21:15:31  5-MIN KDBQ 240315Z AUTO 21025G35KT 5SM RA BR FEW025 SCT037 OVC047 22/20 A2969 1300 87 2500 210/25G35 RMK AO2 PK WND 20035/0308 P0004
94908KDBQ DBQ20100923212015909/23/10 21:20:31  5-MIN KDBQ 240320Z AUTO 22020G32KT 3SM +RA BR FEW024 BKN043 OVC050 22/20 A2970 1280 90 2400 220/20G32 RMK AO2 PK WND 20035/0308 PRESRR P0005
94908KDBQ DBQ20100923212515609/23/10 21:25:31  5-MIN KDBQ 240325Z AUTO 23018G30KT 2 1/2SM +RA BR FEW017 BKN036 OVC046 22/21 A2971 1280 93 2400 230/18G30 RMK AO2 PK WND 20035/0308 P0010
94908KDBQ DBQ20100923213015609/23/10 21:30:31  5-MIN KDBQ 240330Z AUTO 21021G29KT 2 1/2SM +RA BR FEW017 BKN024 OVC046 22/21 A2971 1280 93 2400 210/21G29 RMK AO2 PK WND 20035/0308 P0013
94908KDBQ DBQ20100923213515609/23/10 21:35:31  5-MIN KDBQ 240335Z AUTO 22021G32KT 2 1/2SM +RA BR FEW015 BKN024 OVC040 21/21 A2970 1280 97 2300 220/21G32 RMK AO2 PK WND 20035/0308 P0016
94908KDBQ DBQ20100923214015209/23/10 21:40:31  5-MIN KDBQ 240340Z AUTO 23018G32KT 3SM +RA BR FEW015 BKN022 OVC038 21/21 A2970 1280 97 2300 230/18G32 RMK AO2 PK WND 20035/0308 P0017
94908KDBQ DBQ20100923214515709/23/10 21:45:31  5-MIN KDBQ 240345Z AUTO 23019G31KT 2 1/2SM +RA BR FEW015 BKN020 OVC038 21/21 A2970 1290 100 2300 230/19G31 RMK AO2 PK WND 20035/0308 P0022
94908KDBQ DBQ20100923215015109/23/10 21:50:31  5-MIN KDBQ 240350Z AUTO 22016G29KT 3SM RA BR FEW012 BKN020 OVC045 21/21 A2969 1290 97 2300 220/16G29 RMK AO2 PK WND 20035/0308 P0024
94908KDBQ DBQ20100923215513409/23/10 21:55:31  5-MIN KDBQ 240355Z AUTO 22016G28KT 6SM -RA BR FEW012 BKN031 OVC070 21/21 A2969 1290 97 2300 220/16G28 RMK AO2 P0000
94908KDBQ DBQ20100923220015009/23/10 22:00:31  5-MIN KDBQ 240400Z AUTO 22019G28KT 7SM -RA SCT014 BKN034 OVC042 21/21 A2969 1290 100 2300 220/19G28 RMK AO2 PK WND 22028/0359 P0000
94908KDBQ DBQ20100923220515209/23/10 22:05:31  5-MIN KDBQ 240405Z AUTO 21019G30KT 6SM RA BR BKN014 BKN028 OVC041 21/21 A2969 1290 100 2300 210/19G30 RMK AO2 PK WND 22030/0403 P0002
94908KDBQ DBQ20100923221014909/23/10 22:10:31  5-MIN KDBQ 240410Z AUTO 22018G30KT 7SM -RA SCT011 BKN017 OVC036 21/21 A2969 1290 97 2300 220/18G30 RMK AO2 PK WND 22030/0403 P0002
94908KDBQ DBQ20100923221515109/23/10 22:15:31  5-MIN KDBQ 240415Z AUTO 22016G24KT 6SM RA BR SCT011 BKN017 OVC040 21/21 A2969 1290 97 2300 220/16G24 RMK AO2 PK WND 22030/0403 P0004
94908KDBQ DBQ20100923222015109/23/10 22:20:31  5-MIN KDBQ 240420Z AUTO 22019G27KT 5SM RA BR BKN014 BKN029 OVC055 21/21 A2969 1290 97 2300 220/19G27 RMK AO2 PK WND 22030/0403 P0004
94908KDBQ DBQ20100923222515109/23/10 22:25:31  5-MIN KDBQ 240425Z AUTO 21018G27KT 5SM RA BR SCT011 BKN017 OVC055 21/20 A2969 1290 93 2300 210/18G27 RMK AO2 PK WND 22030/0403 P0006
94908KDBQ DBQ20100923223014509/23/10 22:30:31  5-MIN KDBQ 240430Z AUTO 22019KT 5SM RA BR BKN013 BKN032 OVC060 21/20 A2969 1290 93 2300 210/19 RMK AO2 PK WND 22030/0403 P0006
94908KDBQ DBQ20100923223514509/23/10 22:35:31  5-MIN KDBQ 240435Z AUTO 21019KT 5SM RA BR SCT013 BKN029 OVC055 21/20 A2969 1290 93 2300 210/19 RMK AO2 PK WND 22030/0403 P0008
94908KDBQ DBQ20100923224015109/23/10 22:40:31  5-MIN KDBQ 240440Z AUTO 21018G25KT 5SM RA BR FEW013 BKN029 OVC055 21/20 A2969 1290 93 2300 210/18G25 RMK AO2 PK WND 22030/0403 P0009
94908KDBQ DBQ20100923224515209/23/10 22:45:31  5-MIN KDBQ 240445Z AUTO 22019G29KT 5SM +RA BR SCT013 BKN027 OVC055 21/20 A2969 1290 93 2300 220/19G29 RMK AO2 PK WND 22030/0403 P0009
94908KDBQ DBQ20100923225016809/23/10 22:50:31  5-MIN KDBQ 240450Z AUTO 22019G29KT 4SM RA BR SCT013 BKN025 OVC050 21/20 A2969 1300 93 2300 220/19G29 RMK AO2 PK WND 22030/0403 SLP044 P0012 T02110200
94908KDBQ DBQ20100923225513309/23/10 22:55:31  5-MIN KDBQ 240455Z AUTO 22018G28KT 4SM RA BR FEW013 BKN025 OVC055 21/20 A2968 1300 93 2300 220/18G28 RMK AO2 P0000
94908KDBQ DBQ20100923230013309/23/10 23:00:31  5-MIN KDBQ 240500Z AUTO 22016G25KT 6SM RA BR FEW011 BKN026 OVC060 21/20 A2969 1300 93 2300 210/16G25 RMK AO2 P0000
94908KDBQ DBQ20100923230512509/23/10 23:05:31  5-MIN KDBQ 240505Z AUTO 21017KT 8SM -RA FEW011 BKN030 OVC060 21/20 A2969 1290 93 2300 210/17 RMK AO2 P0002
94908KDBQ DBQ20100923231013109/23/10 23:10:31  5-MIN KDBQ 240510Z AUTO 22015G21KT 9SM -RA SCT013 BKN030 OVC055 21/20 A2969 1300 93 2300 220/15G21 RMK AO2 P0002
94908KDBQ DBQ20100923231513109/23/10 23:15:31  5-MIN KDBQ 240515Z AUTO 22015G21KT 8SM -RA SCT013 BKN030 OVC055 21/21 A2968 1300 97 2300 210/15G21 RMK AO2 P0002
94908KDBQ DBQ20100923232013109/23/10 23:20:31  5-MIN KDBQ 240520Z AUTO 21017G23KT 7SM -RA BKN013 BKN028 OVC055 21/21 A2968 1300 97 2300 210/17G23 RMK AO2 P0004
94908KDBQ DBQ20100923232513009/23/10 23:25:31  5-MIN KDBQ 240525Z AUTO 22017G23KT 7SM RA BKN013 BKN028 OVC036 21/21 A2968 1300 97 2300 220/17G23 RMK AO2 P0004
94908KDBQ DBQ20100923233013109/23/10 23:30:31  5-MIN KDBQ 240530Z AUTO 22016G22KT 9SM -RA BKN013 BKN018 OVC035 21/20 A2968 1300 93 2400 220/16G22 RMK AO2 P0004
94908KDBQ DBQ20100923233512509/23/10 23:35:31  5-MIN KDBQ 240535Z AUTO 22011G20KT 10SM -RA BKN013 OVC018 21/20 A2968 1300 93 2300 220/11G20 RMK AO2 P0005
94908KDBQ DBQ20100923234012509/23/10 23:40:31  5-MIN KDBQ 240540Z AUTO 22019G23KT 10SM -RA BKN013 OVC020 21/20 A2968 1300 93 2300 210/19G23 RMK AO2 P0005
94908KDBQ DBQ20100923234514309/23/10 23:45:31  5-MIN KDBQ 240545Z AUTO 22016G28KT 10SM -RA BKN013 OVC020 21/20 A2968 1300 93 2300 220/16G28 RMK AO2 PK WND 22028/0541 P0005
94908KDBQ DBQ20100923235016209/23/10 23:50:31  5-MIN KDBQ 240550Z AUTO 22018G28KT 10SM SCT010 BKN015 OVC022 21/20 A2968 1300 93 2300 220/18G28 RMK AO2 PK WND 21028/0550 RAE46 P0005 402830194
94908KDBQ DBQ20100923235514009/23/10 23:55:31  5-MIN KDBQ 240555Z AUTO 22019G31KT 10SM FEW010 BKN015 OVC090 21/19 A2967 1310 90 2400 220/19G31 RMK AO2 PK WND 21030/0554
94908KDBQ DBQ20100924000015809/24/10 00:00:38  5-MIN KDBQ 240600Z AUTO 22017G31KT 10SM -RA FEW010 BKN015 OVC090 21/20 A2968 1310 93 2400 220/17G31 RMK AO2 PK WND 21030/0554 RAB0556 P0000
94908KDBQ DBQ20100924000517009/24/10 00:05:31  5-MIN KDBQ 240605Z AUTO 22017G25KT 10SM -RA BKN013 BKN022 OVC110 21/20 A2967 1320 93 2400 220/17G25 RMK AO2 PK WND 21030/0554 RAB0556 CIG 008V018 P0000
94908KDBQ DBQ20100924001015709/24/10 00:10:31  5-MIN KDBQ 240610Z AUTO 24016G25KT 10SM SCT013 BKN090 OVC110 21/20 A2968 1310 93 2400 240/16G25 RMK AO2 PK WND 21030/0554 RAB0556E08 P0000
94908KDBQ DBQ20100924001515809/24/10 00:15:34  5-MIN KDBQ 240615Z AUTO 24016G25KT 10SM -RA SCT013 SCT090 OVC110 21/19 A2967 1310 90 2400 240/16G25 RMK AO2 PK WND 21030/0554 RAB0556 P0000
94908KDBQ DBQ20100924002015809/24/10 00:20:31  5-MIN KDBQ 240620Z AUTO 23014G24KT 10SM -RA FEW013 SCT090 OVC110 21/19 A2968 1300 93 2300 230/14G24 RMK AO2 PK WND 21030/0554 RAB0556 P0000
94908KDBQ DBQ20100924002515209/24/10 00:25:31  5-MIN KDBQ 240625Z AUTO 23012KT 10SM -RA FEW013 SCT085 OVC110 21/19 A2967 1310 93 2300 230/12 RMK AO2 PK WND 21030/0554 RAB0556 P0000
94908KDBQ DBQ20100924003014509/24/10 00:30:31  5-MIN KDBQ 240630Z AUTO 23015KT 10SM -RA FEW070 OVC110 21/19 A2967 1310 93 2300 230/15 RMK AO2 PK WND 21030/0554 RAB0556 P0000
94908KDBQ DBQ20100924003514409/24/10 00:35:31  5-MIN KDBQ 240635Z AUTO 22014KT 10SM FEW070 OVC110 21/19 A2967 1310 90 2300 220/14 RMK AO2 PK WND 21030/0554 RAB0556E35 P0000
94908KDBQ DBQ20100924004014409/24/10 00:40:31  5-MIN KDBQ 240640Z AUTO 22011KT 10SM FEW075 OVC120 21/19 A2967 1310 90 2300 220/11 RMK AO2 PK WND 21030/0554 RAB0556E35 P0000
94908KDBQ DBQ20100924004515009/24/10 00:45:31  5-MIN KDBQ 240645Z AUTO 22014G19KT 10SM FEW070 BKN120 21/19 A2967 1310 90 2300 220/14G19 RMK AO2 PK WND 21030/0554 RAB0556E35 P0000
94908KDBQ DBQ20100924005016109/24/10 00:50:31  5-MIN KDBQ 240650Z AUTO 23013KT 10SM FEW070 BKN120 20/19 A2968 1310 93 2200 230/13 RMK AO2 PK WND 21030/0554 RAB0556E35 SLP041 P0000 T02000189
94908KDBQ DBQ20100924005510909/24/10 00:55:31  5-MIN KDBQ 240655Z AUTO 23015KT 10SM FEW014 BKN120 20/19 A2968 1310 93 2200 230/15 RMK AO2
94908KDBQ DBQ20100924010010909/24/10 01:00:31  5-MIN KDBQ 240700Z AUTO 23015KT 10SM SCT012 BKN120 20/19 A2967 1310 93 2200 230/15 RMK AO2
94908KDBQ DBQ20100924010511509/24/10 01:05:31  5-MIN KDBQ 240705Z AUTO 23012KT 10SM BKN012 BKN120 20/19 A2967 1310 93 2200 230/12 RMK AO2 P0001
94908KDBQ DBQ20100924011011509/24/10 01:10:31  5-MIN KDBQ 240710Z AUTO 23016KT 10SM BKN012 BKN120 20/19 A2967 1310 93 2200 230/16 RMK AO2 P0001
94908KDBQ DBQ20100924011512609/24/10 01:15:31  5-MIN KDBQ 240715Z AUTO 23014G19KT 10SM BKN009 20/19 A2966 1320 93 2200 230/14G19 RMK AO2 CIG 008V015 P0001
94908KDBQ DBQ20100924012012609/24/10 01:20:31  5-MIN KDBQ 240720Z AUTO 24015G19KT 10SM OVC009 20/19 A2968 1300 93 2200 240/15G19 RMK AO2 CIG 008V015 P0001
94908KDBQ DBQ20100924012512709/24/10 01:25:31  5-MIN KDBQ 240725Z AUTO 24016KT 10SM BKN009 OVC013 20/19 A2968 1300 93 2200 240/16 RMK AO2 CIG 007V011 P0001
94908KDBQ DBQ20100924013013309/24/10 01:30:31  5-MIN KDBQ 240730Z AUTO 25015G22KT 10SM BKN009 OVC014 20/18 A2967 1310 90 2200 250/15G22 RMK AO2 CIG 007V012 P0001
94908KDBQ DBQ20100924013513309/24/10 01:35:31  5-MIN KDBQ 240735Z AUTO 25017G22KT 10SM BKN009 OVC014 19/18 A2968 1300 93 2200 250/17G22 RMK AO2 CIG 007V012 P0001
94908KDBQ DBQ20100924014015109/24/10 01:40:31  5-MIN KDBQ 240740Z AUTO 24016G26KT 10SM BKN009 OVC014 19/18 A2969 1300 93 2200 240/16G26 RMK AO2 PK WND 24026/0736 CIG 007V012 P0001
94908KDBQ DBQ20100924014515109/24/10 01:45:31  5-MIN KDBQ 240745Z AUTO 25013G26KT 10SM BKN009 OVC014 19/18 A2968 1300 93 2200 240/13G26 RMK AO2 PK WND 24026/0736 CIG 007V012 P0001
94908KDBQ DBQ20100924015016109/24/10 01:50:31  5-MIN KDBQ 240750Z AUTO 25014KT 9SM BKN009 OVC014 19/18 A2968 1300 93 2200 250/14 RMK AO2 PK WND 24026/0736 CIG 007V012 SLP043 P0001 T01940183
94908KDBQ DBQ20100924015514409/24/10 01:55:31  5-MIN KDBQ 240755Z AUTO 27019G26KT 8SM BKN009 OVC014 19/18 A2970 1290 93 2100 270/19G26 RMK AO2 PK WND 28026/0755 CIG 006V012
94908KDBQ DBQ20100924020015109/24/10 02:00:31  5-MIN KDBQ 240800Z AUTO 27020G28KT 9SM BKN009 OVC013 18/17 A2971 1270 93 2000 270/20G28 RMK AO2 PK WND 28028/0758 CIG 006V010 PRESRR
94908KDBQ DBQ20100924020514509/24/10 02:05:31  5-MIN KDBQ 240805Z AUTO 27018G28KT 10SM BKN009 OVC013 18/17 A2971 1270 93 1900 270/18G28 RMK AO2 PK WND 28028/0758 CIG 006V010
94908KDBQ DBQ20100924021013809/24/10 02:10:31  5-MIN KDBQ 240810Z AUTO 28016G27KT 10SM OVC009 17/16 A2972 1270 93 1800 270/16G27 RMK AO2 PK WND 28028/0758 CIG 006V010
94908KDBQ DBQ20100924021513809/24/10 02:15:31  5-MIN KDBQ 240815Z AUTO 28018G24KT 10SM OVC007 17/16 A2972 1260 93 1800 280/18G24 RMK AO2 PK WND 28028/0758 CIG 006V010
94908KDBQ DBQ20100924022013809/24/10 02:20:31  5-MIN KDBQ 240820Z AUTO 27022G28KT 10SM OVC007 16/15 A2972 1270 93 1700 270/22G28 RMK AO2 PK WND 28028/0820 CIG 006V011
94908KDBQ DBQ20100924022513809/24/10 02:25:31  5-MIN KDBQ 240825Z AUTO 27015G28KT 10SM OVC007 16/15 A2972 1270 93 1700 260/15G28 RMK AO2 PK WND 28028/0820 CIG 005V010
94908KDBQ DBQ20100924023013809/24/10 02:30:31  5-MIN KDBQ 240830Z AUTO 27016G23KT 10SM OVC007 16/15 A2972 1260 93 1700 260/16G23 RMK AO2 PK WND 28028/0820 CIG 005V010
94908KDBQ DBQ20100924023513809/24/10 02:35:31  5-MIN KDBQ 240835Z AUTO 27015G21KT 10SM OVC007 16/15 A2972 1260 93 1700 270/15G21 RMK AO2 PK WND 28028/0820 CIG 005V010
94908KDBQ DBQ20100924024013809/24/10 02:40:31  5-MIN KDBQ 240840Z AUTO 27012G20KT 10SM OVC007 16/15 A2973 1260 96 1700 270/12G20 RMK AO2 PK WND 28028/0820 CIG 004V010
94908KDBQ DBQ20100924024513809/24/10 02:45:31  5-MIN KDBQ 240845Z AUTO 27019G28KT 10SM OVC007 16/14 A2973 1260 93 1700 270/19G28 RMK AO2 PK WND 28028/0844 CIG 004V010
94908KDBQ DBQ20100924025017409/24/10 02:50:31  5-MIN KDBQ 240850Z AUTO 26015G28KT 10SM BKN007 OVC018 16/14 A2973 1260 93 1700 260/15G28 RMK AO2 PK WND 28028/0844 CIG 004V010 SLP061 60001 T01560144 58003
94908KDBQ DBQ20100924025512609/24/10 02:55:31  5-MIN KDBQ 240855Z AUTO 27018G24KT 9SM BKN007 OVC018 16/14 A2973 1250 93 1700 270/18G24 RMK AO2 CIG 004V009
94908KDBQ DBQ20100924030013709/24/10 03:00:31  5-MIN KDBQ 240900Z AUTO 27017G27KT 9SM OVC007 16/14 A2973 1250 93 1600 270/17G27 RMK AO2 PK WND 28027/0900 CIG 004V009
94908KDBQ DBQ20100924030514509/24/10 03:05:31  5-MIN KDBQ 240905Z AUTO 27018G32KT 10SM BKN007 OVC012 15/14 A2973 1250 93 1600 270/18G32 RMK AO2 PK WND 28032/0902 CIG 004V010
94908KDBQ DBQ20100924031014509/24/10 03:10:31  5-MIN KDBQ 240910Z AUTO 27016G32KT 10SM BKN007 OVC012 15/13 A2974 1250 90 1600 270/16G32 RMK AO2 PK WND 28032/0902 CIG 004V010
94908KDBQ DBQ20100924031513309/24/10 03:15:31  5-MIN KDBQ 240915Z AUTO 26016G26KT 10SM BKN007 OVC012 14/13 A2974 1250 93 1500 260/16G26 RMK AO2 PK WND 28032/0902
94908KDBQ DBQ20100924032012609/24/10 03:20:31  5-MIN KDBQ 240920Z AUTO 27018G27KT 10SM OVC007 14/13 A2974 1240 93 1500 260/18G27 RMK AO2 PK WND 28032/0902
94908KDBQ DBQ20100924032512609/24/10 03:25:31  5-MIN KDBQ 240925Z AUTO 27017G27KT 10SM OVC007 14/13 A2975 1240 93 1500 270/17G27 RMK AO2 PK WND 28032/0902
94908KDBQ DBQ20100924033013809/24/10 03:30:31  5-MIN KDBQ 240930Z AUTO 26017G27KT 10SM OVC007 14/13 A2975 1240 93 1500 260/17G27 RMK AO2 PK WND 28032/0902 CIG 007V011
94908KDBQ DBQ20100924033513809/24/10 03:35:31  5-MIN KDBQ 240935Z AUTO 27018G27KT 10SM OVC007 14/13 A2975 1240 93 1500 270/18G27 RMK AO2 PK WND 28032/0902 CIG 007V011
94908KDBQ DBQ20100924034014509/24/10 03:40:31  5-MIN KDBQ 240940Z AUTO 26016G27KT 10SM BKN007 OVC012 14/13 A2975 1240 93 1500 260/16G27 RMK AO2 PK WND 28032/0902 CIG 007V010
94908KDBQ DBQ20100924034513809/24/10 03:45:31  5-MIN KDBQ 240945Z AUTO 26018G27KT 10SM OVC010 14/13 A2975 1240 90 1500 260/18G27 RMK AO2 PK WND 28032/0902 CIG 007V014
94908KDBQ DBQ20100924035016209/24/10 03:50:31  5-MIN KDBQ 240950Z AUTO 26019G27KT 10SM BKN010 OVC014 14/13 A2975 1230 90 1500 260/19G27 RMK AO2 PK WND 28032/0902 CIG 007V012 SLP070 T01440128
94908KDBQ DBQ20100924035512709/24/10 03:55:31  5-MIN KDBQ 240955Z AUTO 27019G30KT 10SM BKN010 OVC014 14/12 A2976 1230 86 1500 270/19G30 RMK AO2 CIG 007V012
94908KDBQ DBQ20100924040013309/24/10 04:00:31  5-MIN KDBQ 241000Z AUTO 26017G30KT 10SM FEW008 OVC014 14/12 A2976 1220 90 1400 260/17G30 RMK AO2 PK WND 28026/0958
94908KDBQ DBQ20100924040513309/24/10 04:05:31  5-MIN KDBQ 241005Z AUTO 27018G26KT 10SM BKN012 OVC018 14/12 A2976 1220 86 1400 260/18G26 RMK AO2 PK WND 28026/0958
94908KDBQ DBQ20100924041013309/24/10 04:10:31  5-MIN KDBQ 241010Z AUTO 27020G32KT 10SM BKN014 OVC020 13/12 A2977 1220 89 1300 270/20G32 RMK AO2 PK WND 29032/1010
94908KDBQ DBQ20100924041512609/24/10 04:15:31  5-MIN KDBQ 241015Z AUTO 26018G32KT 10SM OVC014 13/11 A2977 1220 86 1300 260/18G32 RMK AO2 PK WND 29032/1010
94908KDBQ DBQ20100924042012609/24/10 04:20:31  5-MIN KDBQ 241020Z AUTO 27017G30KT 10SM OVC014 13/11 A2978 1210 89 1300 270/17G30 RMK AO2 PK WND 29032/1010
94908KDBQ DBQ20100924042512609/24/10 04:25:31  5-MIN KDBQ 241025Z AUTO 27017G30KT 10SM OVC014 13/11 A2978 1210 89 1300 270/17G30 RMK AO2 PK WND 29032/1010
94908KDBQ DBQ20100924043012609/24/10 04:30:31  5-MIN KDBQ 241030Z AUTO 27016G27KT 10SM OVC014 13/11 A2979 1200 89 1300 270/16G27 RMK AO2 PK WND 29032/1010
94908KDBQ DBQ20100924043512609/24/10 04:35:31  5-MIN KDBQ 241035Z AUTO 27016G27KT 10SM OVC014 13/11 A2979 1200 89 1300 270/16G27 RMK AO2 PK WND 29032/1010
94908KDBQ DBQ20100924044012609/24/10 04:40:31  5-MIN KDBQ 241040Z AUTO 27016G24KT 10SM OVC014 13/11 A2979 1200 86 1300 270/16G24 RMK AO2 PK WND 29032/1010
94908KDBQ DBQ20100924044512609/24/10 04:45:31  5-MIN KDBQ 241045Z AUTO 27015G22KT 10SM OVC014 13/11 A2979 1200 86 1300 270/15G22 RMK AO2 PK WND 29032/1010
94908KDBQ DBQ20100924045013809/24/10 04:50:31  5-MIN KDBQ 241050Z 26014G22KT 10SM OVC014 13/11 A2979 1190 86 1300 260/14G22 RMK AO2 PK WND 29032/1010 SLP085 T01280106
94908KDBQ DBQ20100924045510309/24/10 04:55:31  5-MIN KDBQ 241055Z 25014G21KT 10SM OVC014 13/11 A2980 1190 89 1200 250/14G21 RMK AO2
94908KDBQ DBQ20100924050010309/24/10 05:00:31  5-MIN KDBQ 241100Z 26016G25KT 10SM OVC014 13/11 A2980 1190 86 1200 260/16G25 RMK AO2
94908KDBQ DBQ20100924050510309/24/10 05:05:31  5-MIN KDBQ 241105Z 26017G25KT 10SM OVC012 12/11 A2980 1190 89 1200 260/17G25 RMK AO2
94908KDBQ DBQ20100924051010309/24/10 05:10:31  5-MIN KDBQ 241110Z 26014G25KT 10SM OVC012 12/11 A2980 1190 89 1200 260/14G25 RMK AO2
94908KDBQ DBQ20100924051510309/24/10 05:15:31  5-MIN KDBQ 241115Z 26015G25KT 10SM OVC012 12/11 A2980 1190 89 1200 260/15G25 RMK AO2
94908KDBQ DBQ20100924052012109/24/10 05:20:31  5-MIN KDBQ 241120Z 28018G28KT 10SM OVC012 12/11 A2981 1180 89 1200 280/18G28 RMK AO2 PK WND 28028/1117
94908KDBQ DBQ20100924052512109/24/10 05:25:31  5-MIN KDBQ 241125Z 27020G28KT 10SM OVC012 12/11 A2981 1180 89 1200 270/20G28 RMK AO2 PK WND 27028/1124
94908KDBQ DBQ20100924053012109/24/10 05:30:31  5-MIN KDBQ 241130Z 27015G28KT 10SM OVC014 12/10 A2982 1170 86 1200 260/15G28 RMK AO2 PK WND 28028/1126
94908KDBQ DBQ20100924053512109/24/10 05:35:31  5-MIN KDBQ 241135Z 28018G28KT 10SM OVC014 12/10 A2982 1170 89 1100 270/18G28 RMK AO2 PK WND 28028/1126
94908KDBQ DBQ20100924054012809/24/10 05:40:31  5-MIN KDBQ 241140Z 28017G25KT 10SM OVC014 12/10 A2983 1160 89 1100 280/17G25 RMK AO2 PK WND 28028/1126 PRESRR
94908KDBQ DBQ20100924054512109/24/10 05:45:31  5-MIN KDBQ 241145Z 29015G29KT 10SM OVC016 12/09 A2984 1160 83 1100 290/15G29 RMK AO2 PK WND 29029/1143
94908KDBQ DBQ20100924055016809/24/10 05:50:31  5-MIN KDBQ 241150Z 28013G29KT 10SM OVC016 12/09 A2984 1150 83 1100 280/13G29 RMK AO2 PK WND 29029/1143 SLP102 60001 70047 T01170089 10211 20117 53028
94908KDBQ DBQ20100924055510309/24/10 05:55:31  5-MIN KDBQ 241155Z 28013G26KT 10SM OVC016 12/09 A2984 1150 83 1100 280/13G26 RMK AO2
94908KDBQ DBQ20100924060010309/24/10 06:00:31  5-MIN KDBQ 241200Z 28014G26KT 10SM OVC016 12/09 A2984 1150 83 1100 280/14G26 RMK AO2
94908KDBQ DBQ20100924060510309/24/10 06:05:31  5-MIN KDBQ 241205Z 28017G23KT 10SM OVC016 12/09 A2985 1150 83 1100 280/17G23 RMK AO2
94908KDBQ DBQ20100924061010309/24/10 06:10:31  5-MIN KDBQ 241210Z 28014G23KT 10SM OVC016 12/09 A2985 1140 83 1100 280/14G23 RMK AO2
94908KDBQ DBQ20100924061510309/24/10 06:15:31  5-MIN KDBQ 241215Z 27017G25KT 10SM OVC018 12/09 A2986 1140 83 1000 270/17G25 RMK AO2
94908KDBQ DBQ20100924062010309/24/10 06:20:31  5-MIN KDBQ 241220Z 28015G25KT 10SM OVC018 12/09 A2986 1140 83 1000 280/15G25 RMK AO2
94908KDBQ DBQ20100924062510309/24/10 06:25:31  5-MIN KDBQ 241225Z 27019G24KT 10SM OVC018 12/09 A2986 1140 83 1000 270/19G24 RMK AO2
94908KDBQ DBQ20100924063012109/24/10 06:30:31  5-MIN KDBQ 241230Z 28019G28KT 10SM OVC020 12/08 A2986 1130 80 1000 280/19G28 RMK AO2 PK WND 28028/1230
94908KDBQ DBQ20100924063512109/24/10 06:35:31  5-MIN KDBQ 241235Z 27015G28KT 10SM OVC020 12/08 A2986 1130 80 1000 270/15G28 RMK AO2 PK WND 28028/1230
94908KDBQ DBQ20100924064012109/24/10 06:40:31  5-MIN KDBQ 241240Z 27015G26KT 10SM OVC020 12/08 A2987 1130 80 1000 270/15G26 RMK AO2 PK WND 28028/1230
94908KDBQ DBQ20100924064512109/24/10 06:45:31  5-MIN KDBQ 241245Z 26016G26KT 10SM OVC020 12/08 A2987 1130 80 1000 260/16G26 RMK AO2 PK WND 28028/1230
94908KDBQ DBQ20100924065013809/24/10 06:50:31  5-MIN KDBQ 241250Z 27020G27KT 10SM OVC020 12/08 A2987 1130 80 1000 270/20G27 RMK AO2 PK WND 28028/1230 SLP111 T01170083
94908KDBQ DBQ20100924065510309/24/10 06:55:31  5-MIN KDBQ 241255Z 28019G27KT 10SM OVC022 12/08 A2987 1130 77 1000 280/19G27 RMK AO2
94908KDBQ DBQ20100924070010309/24/10 07:00:31  5-MIN KDBQ 241300Z 27015G27KT 10SM OVC022 12/08 A2987 1120 80 1000 270/15G27 RMK AO2
94908KDBQ DBQ20100924070510309/24/10 07:05:31  5-MIN KDBQ 241305Z 27015G24KT 10SM OVC022 12/08 A2987 1120 77 1000 270/15G24 RMK AO2
94908KDBQ DBQ20100924071010309/24/10 07:10:31  5-MIN KDBQ 241310Z 27015G23KT 10SM OVC024 12/08 A2988 1120 77 1000 270/15G23 RMK AO2
94908KDBQ DBQ20100924071510309/24/10 07:15:31  5-MIN KDBQ 241315Z 27016G23KT 10SM OVC024 12/08 A2988 1120 77 1000 270/16G23 RMK AO2
94908KDBQ DBQ20100924072010309/24/10 07:20:31  5-MIN KDBQ 241320Z 27014G24KT 10SM OVC024 12/08 A2988 1120 77 1000 270/14G24 RMK AO2
94908KDBQ DBQ20100924072512109/24/10 07:25:31  5-MIN KDBQ 241325Z 27019G27KT 10SM OVC024 12/08 A2988 1110 77 1000 270/19G27 RMK AO2 PK WND 28027/1321
94908KDBQ DBQ20100924073012109/24/10 07:30:31  5-MIN KDBQ 241330Z 27016G27KT 10SM OVC024 12/08 A2988 1120 77 1000 270/16G27 RMK AO2 PK WND 28027/1321
94908KDBQ DBQ20100924073512109/24/10 07:35:31  5-MIN KDBQ 241335Z 26015G25KT 10SM OVC024 12/08 A2988 1120 77 1000 260/15G25 RMK AO2 PK WND 28027/1321
94908KDBQ DBQ20100924074012109/24/10 07:40:31  5-MIN KDBQ 241340Z 27017G26KT 10SM OVC024 12/08 A2988 1110 77 1000 260/17G26 RMK AO2 PK WND 28027/1321
94908KDBQ DBQ20100924074512109/24/10 07:45:31  5-MIN KDBQ 241345Z 27018G26KT 10SM OVC024 12/08 A2988 1110 77 1000 270/18G26 RMK AO2 PK WND 28027/1321
94908KDBQ DBQ20100924075013809/24/10 07:50:31  5-MIN KDBQ 241350Z 26014G25KT 10SM OVC024 12/08 A2988 1110 80 1000 260/14G25 RMK AO2 PK WND 28027/1321 SLP116 T01170083
94908KDBQ DBQ20100924075510309/24/10 07:55:31  5-MIN KDBQ 241355Z 27015G24KT 10SM OVC024 12/08 A2988 1110 77 1100 270/15G24 RMK AO2
94908KDBQ DBQ20100924080012109/24/10 08:00:31  5-MIN KDBQ 241400Z 27018G26KT 10SM OVC024 12/08 A2989 1110 77 1100 270/18G26 RMK AO2 PK WND 28026/1400
94908KDBQ DBQ20100924080512109/24/10 08:05:31  5-MIN KDBQ 241405Z 27014G26KT 10SM OVC024 12/08 A2989 1100 77 1100 270/14G26 RMK AO2 PK WND 28026/1400
94908KDBQ DBQ20100924081012109/24/10 08:10:31  5-MIN KDBQ 241410Z 27015G24KT 10SM OVC024 12/08 A2989 1100 77 1100 270/15G24 RMK AO2 PK WND 28026/1400
94908KDBQ DBQ20100924081512109/24/10 08:15:31  5-MIN KDBQ 241415Z 27019G26KT 10SM OVC024 12/08 A2989 1100 77 1100 270/19G26 RMK AO2 PK WND 28026/1415
94908KDBQ DBQ20100924082012109/24/10 08:20:31  5-MIN KDBQ 241420Z 27015G26KT 10SM OVC024 12/08 A2990 1100 74 1100 270/15G26 RMK AO2 PK WND 28026/1415
94908KDBQ DBQ20100924082512109/24/10 08:25:31  5-MIN KDBQ 241425Z 27017G28KT 10SM OVC024 12/08 A2990 1100 74 1100 260/17G28 RMK AO2 PK WND 28028/1422
94908KDBQ DBQ20100924083012109/24/10 08:30:31  5-MIN KDBQ 241430Z 27017G28KT 10SM OVC024 12/08 A2990 1100 74 1100 270/17G28 RMK AO2 PK WND 28028/1422
94908KDBQ DBQ20100924083512109/24/10 08:35:31  5-MIN KDBQ 241435Z 27015G26KT 10SM OVC024 12/08 A2990 1090 74 1100 270/15G26 RMK AO2 PK WND 28028/1422
94908KDBQ DBQ20100924084012109/24/10 08:40:31  5-MIN KDBQ 241440Z 27017G26KT 10SM OVC024 12/08 A2990 1090 77 1100 270/17G26 RMK AO2 PK WND 28028/1422
94908KDBQ DBQ20100924084512109/24/10 08:45:31  5-MIN KDBQ 241445Z 27020G27KT 10SM OVC024 12/08 A2990 1090 74 1100 270/20G27 RMK AO2 PK WND 28028/1422
94908KDBQ DBQ20100924085014409/24/10 08:50:31  5-MIN KDBQ 241450Z 27018G27KT 10SM OVC024 12/08 A2991 1090 74 1100 270/18G27 RMK AO2 PK WND 28028/1422 SLP124 T01220078 51030
94908KDBQ DBQ20100924085510309/24/10 08:55:31  5-MIN KDBQ 241455Z 26016G27KT 10SM OVC024 13/08 A2991 1090 74 1100 260/16G27 RMK AO2
94908KDBQ DBQ20100924090012109/24/10 09:00:31  5-MIN KDBQ 241500Z 27021G31KT 10SM OVC024 13/08 A2991 1090 71 1100 270/21G31 RMK AO2 PK WND 28031/1456
94908KDBQ DBQ20100924090512109/24/10 09:05:31  5-MIN KDBQ 241505Z 27019G31KT 10SM OVC024 13/08 A2991 1090 74 1100 270/19G31 RMK AO2 PK WND 28031/1456
94908KDBQ DBQ20100924091012109/24/10 09:10:31  5-MIN KDBQ 241510Z 27020G31KT 10SM OVC024 13/08 A2991 1080 74 1100 270/20G31 RMK AO2 PK WND 28031/1507
94908KDBQ DBQ20100924091512109/24/10 09:15:31  5-MIN KDBQ 241515Z 26013G31KT 10SM OVC024 13/08 A2992 1080 74 1100 260/13G31 RMK AO2 PK WND 28031/1507
94908KDBQ DBQ20100924092012109/24/10 09:20:31  5-MIN KDBQ 241520Z 27021G30KT 10SM OVC024 13/08 A2992 1080 74 1100 270/21G30 RMK AO2 PK WND 28031/1507
94908KDBQ DBQ20100924092512109/24/10 09:25:31  5-MIN KDBQ 241525Z 27018G31KT 10SM OVC024 13/08 A2992 1080 71 1100 270/18G31 RMK AO2 PK WND 27031/1522
94908KDBQ DBQ20100924093012109/24/10 09:30:31  5-MIN KDBQ 241530Z 27017G31KT 10SM OVC024 13/08 A2992 1080 71 1200 270/17G31 RMK AO2 PK WND 27031/1522
94908KDBQ DBQ20100924093512109/24/10 09:35:31  5-MIN KDBQ 241535Z 27020G27KT 10SM OVC024 13/08 A2992 1070 71 1200 270/20G27 RMK AO2 PK WND 27031/1522
94908KDBQ DBQ20100924094012109/24/10 09:40:31  5-MIN KDBQ 241540Z 28026G36KT 10SM OVC024 13/08 A2993 1070 71 1200 280/26G36 RMK AO2 PK WND 29036/1540
94908KDBQ DBQ20100924094512109/24/10 09:45:31  5-MIN KDBQ 241545Z 28021G36KT 10SM OVC024 13/08 A2993 1070 71 1200 280/21G36 RMK AO2 PK WND 29036/1540
94908KDBQ DBQ20100924095013809/24/10 09:50:31  5-MIN KDBQ 241550Z 27018G30KT 10SM OVC026 13/08 A2992 1080 71 1200 270/18G30 RMK AO2 PK WND 29036/1540 SLP131 T01330083
94908KDBQ DBQ20100924095512109/24/10 09:55:31  5-MIN KDBQ 241555Z 27017G30KT 10SM OVC026 14/08 A2993 1070 69 1200 270/17G30 RMK AO2 PK WND 28026/1555
94908KDBQ DBQ20100924100012109/24/10 10:00:31  5-MIN KDBQ 241600Z 28016G28KT 10SM OVC026 14/08 A2993 1070 69 1200 280/16G28 RMK AO2 PK WND 29028/1556
94908KDBQ DBQ20100924100512109/24/10 10:05:31  5-MIN KDBQ 241605Z 27022G28KT 10SM OVC028 14/09 A2993 1070 69 1300 270/22G28 RMK AO2 PK WND 29028/1605
94908KDBQ DBQ20100924101012809/24/10 10:10:31  5-MIN KDBQ 241610Z 28022G31KT 10SM BKN028 OVC032 14/08 A2992 1080 66 1300 270/22G31 RMK AO2 PK WND 28031/1609
94908KDBQ DBQ20100924101512109/24/10 10:15:31  5-MIN KDBQ 241615Z 28020G32KT 10SM OVC028 14/08 A2993 1070 69 1200 280/20G32 RMK AO2 PK WND 28032/1611
94908KDBQ DBQ20100924102012109/24/10 10:20:31  5-MIN KDBQ 241620Z 28019G32KT 10SM OVC028 14/08 A2993 1060 66 1300 280/19G32 RMK AO2 PK WND 28032/1611
94908KDBQ DBQ20100924102512109/24/10 10:25:31  5-MIN KDBQ 241625Z 27021G28KT 10SM OVC028 14/08 A2993 1070 66 1300 270/21G28 RMK AO2 PK WND 28032/1611
94908KDBQ DBQ20100924103012109/24/10 10:30:31  5-MIN KDBQ 241630Z 28020G29KT 10SM OVC030 14/08 A2993 1070 66 1300 280/20G29 RMK AO2 PK WND 28032/1611
94908KDBQ DBQ20100924103512109/24/10 10:35:31  5-MIN KDBQ 241635Z 27017G29KT 10SM OVC030 15/08 A2994 1060 64 1400 270/17G29 RMK AO2 PK WND 28032/1611
94908KDBQ DBQ20100924104012809/24/10 10:40:31  5-MIN KDBQ 241640Z 27020G27KT 10SM BKN030 OVC036 15/08 A2994 1060 64 1400 270/20G27 RMK AO2 PK WND 28032/1611
94908KDBQ DBQ20100924104512109/24/10 10:45:31  5-MIN KDBQ 241645Z 27021G29KT 10SM OVC030 15/08 A2993 1060 64 1400 270/21G29 RMK AO2 PK WND 28032/1611
94908KDBQ DBQ20100924105013809/24/10 10:50:31  5-MIN KDBQ 241650Z 27017G29KT 10SM OVC030 16/08 A2993 1070 62 1400 270/17G29 RMK AO2 PK WND 28032/1611 SLP133 T01560083
94908KDBQ DBQ20100924105512109/24/10 10:55:31  5-MIN KDBQ 241655Z 27019G28KT 10SM BKN030 16/09 A2994 1060 64 1500 270/19G28 RMK AO2 PK WND 28028/1655
94908KDBQ DBQ20100924110012109/24/10 11:00:31  5-MIN KDBQ 241700Z 27018G28KT 10SM BKN030 16/09 A2993 1070 64 1400 270/18G28 RMK AO2 PK WND 28028/1655
94908KDBQ DBQ20100924110512109/24/10 11:05:31  5-MIN KDBQ 241705Z 27023G29KT 10SM BKN032 16/09 A2994 1060 64 1400 270/23G29 RMK AO2 PK WND 28029/1704
94908KDBQ DBQ20100924111012109/24/10 11:10:31  5-MIN KDBQ 241710Z 27018G29KT 10SM BKN032 16/09 A2994 1060 62 1500 270/18G29 RMK AO2 PK WND 28029/1704
94908KDBQ DBQ20100924111512109/24/10 11:15:31  5-MIN KDBQ 241715Z 27014G27KT 10SM BKN032 16/09 A2994 1060 62 1500 270/14G27 RMK AO2 PK WND 28029/1704
94908KDBQ DBQ20100924112012109/24/10 11:20:31  5-MIN KDBQ 241720Z 27019G28KT 10SM BKN032 16/09 A2994 1060 62 1500 270/19G28 RMK AO2 PK WND 28029/1704
94908KDBQ DBQ20100924112512109/24/10 11:25:31  5-MIN KDBQ 241725Z 28018G28KT 10SM BKN032 16/09 A2995 1050 64 1400 280/18G28 RMK AO2 PK WND 28029/1704
94908KDBQ DBQ20100924113012109/24/10 11:30:31  5-MIN KDBQ 241730Z 27017G24KT 10SM BKN034 17/09 A2995 1050 60 1500 270/17G24 RMK AO2 PK WND 28029/1704
94908KDBQ DBQ20100924113512109/24/10 11:35:31  5-MIN KDBQ 241735Z 27020G30KT 10SM BKN034 17/08 A2995 1050 57 1500 270/20G30 RMK AO2 PK WND 28030/1732
94908KDBQ DBQ20100924114012109/24/10 11:40:31  5-MIN KDBQ 241740Z 27019G30KT 10SM BKN034 17/09 A2994 1060 60 1500 270/19G30 RMK AO2 PK WND 28030/1732
94908KDBQ DBQ20100924114512109/24/10 11:45:31  5-MIN KDBQ 241745Z 27018G29KT 10SM BKN034 17/09 A2995 1050 57 1600 270/18G29 RMK AO2 PK WND 28030/1732
94908KDBQ DBQ20100924115015609/24/10 11:50:31  5-MIN KDBQ 241750Z 27022G30KT 10SM BKN034 17/09 A2995 1050 57 1600 270/22G30 RMK AO2 PK WND 28030/1749 SLP138 T01720089 10172 20117 51020
94908KDBQ DBQ20100924115510309/24/10 11:55:31  5-MIN KDBQ 241755Z 27014G30KT 10SM BKN036 18/09 A2995 1050 58 1700 270/14G30 RMK AO2
94908KDBQ DBQ20100924120012109/24/10 12:00:31  5-MIN KDBQ 241800Z 28022G30KT 10SM BKN036 17/09 A2994 1060 57 1600 270/22G30 RMK AO2 PK WND 28030/1759
94908KDBQ DBQ20100924120512109/24/10 12:05:31  5-MIN KDBQ 241805Z 28021G30KT 10SM BKN036 18/09 A2995 1050 55 1700 280/21G30 RMK AO2 PK WND 28030/1759
94908KDBQ DBQ20100924121012109/24/10 12:10:31  5-MIN KDBQ 241810Z 27018G29KT 10SM BKN036 18/09 A2995 1050 55 1700 270/18G29 RMK AO2 PK WND 28030/1759
94908KDBQ DBQ20100924121512109/24/10 12:15:31  5-MIN KDBQ 241815Z 28022G32KT 10SM BKN036 18/09 A2995 1050 55 1700 280/22G32 RMK AO2 PK WND 29032/1814
94908KDBQ DBQ20100924122012109/24/10 12:20:31  5-MIN KDBQ 241820Z 29016G32KT 10SM BKN038 18/09 A2996 1050 55 1700 280/16G32 RMK AO2 PK WND 29032/1814
94908KDBQ DBQ20100924122512109/24/10 12:25:31  5-MIN KDBQ 241825Z 29021G30KT 10SM BKN038 17/08 A2996 1050 55 1600 290/21G30 RMK AO2 PK WND 29032/1814
94908KDBQ DBQ20100924123012109/24/10 12:30:31  5-MIN KDBQ 241830Z 28021G31KT 10SM BKN038 18/09 A2996 1040 55 1600 280/21G31 RMK AO2 PK WND 29032/1814
94908KDBQ DBQ20100924123512109/24/10 12:35:31  5-MIN KDBQ 241835Z 28019G31KT 10SM BKN040 18/09 A2995 1050 55 1700 280/19G31 RMK AO2 PK WND 29032/1814
94908KDBQ DBQ20100924124012109/24/10 12:40:31  5-MIN KDBQ 241840Z 27022G28KT 10SM SCT040 18/09 A2995 1050 54 1700 270/22G28 RMK AO2 PK WND 29032/1814
94908KDBQ DBQ20100924124512109/24/10 12:45:31  5-MIN KDBQ 241845Z 29018G28KT 10SM SCT040 18/09 A2996 1050 54 1700 290/18G28 RMK AO2 PK WND 29032/1814
94908KDBQ DBQ20100924125013809/24/10 12:50:31  5-MIN KDBQ 241850Z 28017G28KT 10SM SCT042 18/08 A2995 1050 52 1700 280/17G28 RMK AO2 PK WND 29032/1814 SLP138 T01830083
94908KDBQ DBQ20100924125510309/24/10 12:55:31  5-MIN KDBQ 241855Z 28016G24KT 10SM SCT042 18/09 A2995 1050 54 1700 280/16G24 RMK AO2
94908KDBQ DBQ20100924130012109/24/10 13:00:31  5-MIN KDBQ 241900Z 28022G30KT 10SM FEW042 18/08 A2995 1050 53 1700 280/22G30 RMK AO2 PK WND 28030/1858
94908KDBQ DBQ20100924130512109/24/10 13:05:31  5-MIN KDBQ 241905Z 27018G30KT 10SM FEW042 18/09 A2995 1050 54 1700 270/18G30 RMK AO2 PK WND 28030/1858
94908KDBQ DBQ20100924131012109/24/10 13:10:31  5-MIN KDBQ 241910Z 28017G28KT 10SM FEW042 19/09 A2995 1050 54 1800 280/17G28 RMK AO2 PK WND 28030/1858
94908KDBQ DBQ20100924131512109/24/10 13:15:31  5-MIN KDBQ 241915Z 28018G28KT 10SM FEW042 18/09 A2995 1050 54 1700 280/18G28 RMK AO2 PK WND 28030/1858
94908KDBQ DBQ20100924132012109/24/10 13:20:31  5-MIN KDBQ 241920Z 27019G28KT 10SM FEW042 19/09 A2995 1050 52 1800 270/19G28 RMK AO2 PK WND 28030/1858
94908KDBQ DBQ20100924132512109/24/10 13:25:31  5-MIN KDBQ 241925Z 28022G31KT 10SM FEW042 18/09 A2995 1050 54 1700 280/22G31 RMK AO2 PK WND 28031/1923
94908KDBQ DBQ20100924133012109/24/10 13:30:31  5-MIN KDBQ 241930Z 28019G31KT 10SM FEW042 18/09 A2996 1040 54 1700 280/19G31 RMK AO2 PK WND 28031/1923
94908KDBQ DBQ20100924133512109/24/10 13:35:31  5-MIN KDBQ 241935Z 28018G29KT 10SM FEW042 18/09 A2995 1050 54 1700 280/18G29 RMK AO2 PK WND 28031/1923
94908KDBQ DBQ20100924134012109/24/10 13:40:31  5-MIN KDBQ 241940Z 28015G29KT 10SM FEW044 19/09 A2996 1040 54 1800 280/15G29 RMK AO2 PK WND 28031/1923
94908KDBQ DBQ20100924134512109/24/10 13:45:31  5-MIN KDBQ 241945Z 28021G27KT 10SM SCT044 19/09 A2996 1050 50 1800 280/21G27 RMK AO2 PK WND 28031/1923
94908KDBQ DBQ20100924135013809/24/10 13:50:31  5-MIN KDBQ 241950Z 27017G27KT 10SM SCT044 19/09 A2996 1050 52 1800 270/17G27 RMK AO2 PK WND 28031/1923 SLP140 T01890089
94908KDBQ DBQ20100924135510309/24/10 13:55:31  5-MIN KDBQ 241955Z 28021G29KT 10SM FEW044 19/09 A2996 1040 52 1800 280/21G29 RMK AO2
94908KDBQ DBQ20100924140012109/24/10 14:00:31  5-MIN KDBQ 242000Z 29021G36KT 10SM FEW044 19/08 A2996 1040 50 1800 280/21G36 RMK AO2 PK WND 29036/1956
94908KDBQ DBQ20100924140512109/24/10 14:05:31  5-MIN KDBQ 242005Z 28022G36KT 10SM FEW044 19/08 A2996 1040 50 1800 280/22G36 RMK AO2 PK WND 29036/1956
94908KDBQ DBQ20100924141012109/24/10 14:10:31  5-MIN KDBQ 242010Z 28023G32KT 10SM FEW044 19/08 A2996 1040 50 1800 280/23G32 RMK AO2 PK WND 29036/1956
94908KDBQ DBQ20100924141512109/24/10 14:15:31  5-MIN KDBQ 242015Z 28015G32KT 10SM FEW046 19/09 A2996 1040 52 1800 280/15G32 RMK AO2 PK WND 29036/1956
94908KDBQ DBQ20100924142011809/24/10 14:20:31  5-MIN KDBQ 242020Z 29018G27KT 10SM CLR 19/08 A2997 1040 50 1800 290/18G27 RMK AO2 PK WND 29036/1956
94908KDBQ DBQ20100924142511809/24/10 14:25:31  5-MIN KDBQ 242025Z 28015G25KT 10SM CLR 19/09 A2997 1040 50 1800 280/15G25 RMK AO2 PK WND 29036/1956
94908KDBQ DBQ20100924143011809/24/10 14:30:31  5-MIN KDBQ 242030Z 28018G27KT 10SM CLR 19/08 A2997 1040 48 1800 280/18G27 RMK AO2 PK WND 29036/1956
94908KDBQ DBQ20100924143512109/24/10 14:35:31  5-MIN KDBQ 242035Z 28020G29KT 10SM FEW048 19/08 A2996 1040 50 1800 280/20G29 RMK AO2 PK WND 29036/1956
94908KDBQ DBQ20100924144012109/24/10 14:40:31  5-MIN KDBQ 242040Z 28021G30KT 10SM FEW048 19/09 A2997 1040 50 1800 270/21G30 RMK AO2 PK WND 29036/1956
94908KDBQ DBQ20100924144512109/24/10 14:45:31  5-MIN KDBQ 242045Z 29020G31KT 10SM FEW048 19/08 A2996 1040 50 1800 280/20G31 RMK AO2 PK WND 29036/1956
94908KDBQ DBQ20100924145014409/24/10 14:50:31  5-MIN KDBQ 242050Z 28023G31KT 10SM FEW048 19/08 A2996 1040 50 1800 280/23G31 RMK AO2 PK WND 29036/1956 SLP144 T01890083 51016
94908KDBQ DBQ20100924145510309/24/10 14:55:31  5-MIN KDBQ 242055Z 28019G30KT 10SM FEW048 19/08 A2997 1040 50 1800 280/19G30 RMK AO2
94908KDBQ DBQ20100924150012109/24/10 15:00:31  5-MIN KDBQ 242100Z 28021G30KT 10SM FEW048 19/09 A2997 1040 50 1800 280/21G30 RMK AO2 PK WND 29030/2100
94908KDBQ DBQ20100924150512109/24/10 15:05:31  5-MIN KDBQ 242105Z 28018G30KT 10SM FEW048 19/08 A2997 1040 50 1800 280/18G30 RMK AO2 PK WND 29030/2100
94908KDBQ DBQ20100924151012109/24/10 15:10:31  5-MIN KDBQ 242110Z 29016G28KT 10SM FEW048 19/08 A2997 1030 50 1800 290/16G28 RMK AO2 PK WND 29030/2100
94908KDBQ DBQ20100924151512109/24/10 15:15:31  5-MIN KDBQ 242115Z 28014G28KT 10SM FEW048 19/08 A2998 1030 48 1800 280/14G28 RMK AO2 PK WND 29030/2100
94908KDBQ DBQ20100924152012109/24/10 15:20:31  5-MIN KDBQ 242120Z 28019G26KT 10SM FEW048 19/08 A2998 1020 48 1800 280/19G26 RMK AO2 PK WND 29030/2100
94908KDBQ DBQ20100924152512109/24/10 15:25:31  5-MIN KDBQ 242125Z 29016G25KT 10SM FEW048 19/08 A2998 1020 50 1800 290/16G25 RMK AO2 PK WND 29030/2100
94908KDBQ DBQ20100924153012109/24/10 15:30:31  5-MIN KDBQ 242130Z 30022G31KT 10SM FEW048 19/08 A2998 1020 46 1800 290/22G31 RMK AO2 PK WND 29031/2130
94908KDBQ DBQ20100924153512109/24/10 15:35:31  5-MIN KDBQ 242135Z 30018G31KT 10SM FEW048 19/08 A2998 1020 48 1800 300/18G31 RMK AO2 PK WND 29031/2130
94908KDBQ DBQ20100924154012109/24/10 15:40:31  5-MIN KDBQ 242140Z 28017G27KT 10SM FEW048 19/08 A2998 1020 50 1800 280/17G27 RMK AO2 PK WND 29031/2130
94908KDBQ DBQ20100924154512109/24/10 15:45:31  5-MIN KDBQ 242145Z 29020G25KT 10SM FEW048 19/08 A2998 1020 50 1800 290/20G25 RMK AO2 PK WND 29031/2130
94908KDBQ DBQ20100924155013809/24/10 15:50:31  5-MIN KDBQ 242150Z 29021G30KT 10SM FEW048 19/08 A2999 1020 48 1700 290/21G30 RMK AO2 PK WND 29031/2130 SLP152 T01890078
94908KDBQ DBQ20100924155510309/24/10 15:55:31  5-MIN KDBQ 242155Z 29016G30KT 10SM FEW048 19/08 A2998 1020 48 1700 290/16G30 RMK AO2
94908KDBQ DBQ20100924160012109/24/10 16:00:31  5-MIN KDBQ 242200Z 28020G27KT 10SM FEW050 19/08 A2999 1020 48 1700 280/20G27 RMK AO2 PK WND 29027/2159
94908KDBQ DBQ20100924160512109/24/10 16:05:31  5-MIN KDBQ 242205Z 29020G28KT 10SM FEW050 19/08 A2999 1020 48 1700 290/20G28 RMK AO2 PK WND 29028/2202
94908KDBQ DBQ20100924161012109/24/10 16:10:31  5-MIN KDBQ 242210Z 29016G28KT 10SM FEW050 19/08 A2999 1010 48 1700 290/16G28 RMK AO2 PK WND 29028/2202
94908KDBQ DBQ20100924161511809/24/10 16:15:31  5-MIN KDBQ 242215Z 30018G26KT 10SM CLR 19/08 A2999 1010 48 1700 300/18G26 RMK AO2 PK WND 29028/2202
94908KDBQ DBQ20100924162011809/24/10 16:20:31  5-MIN KDBQ 242220Z 29013G22KT 10SM CLR 19/08 A2999 1010 48 1700 290/13G22 RMK AO2 PK WND 29028/2202
94908KDBQ DBQ20100924162511809/24/10 16:25:31  5-MIN KDBQ 242225Z 29013G20KT 10SM CLR 19/08 A2999 1010 50 1700 290/13G20 RMK AO2 PK WND 29028/2202
94908KDBQ DBQ20100924163011809/24/10 16:30:31  5-MIN KDBQ 242230Z 30013G21KT 10SM CLR 19/08 A2999 1010 50 1700 300/13G21 RMK AO2 PK WND 29028/2202
94908KDBQ DBQ20100924163511809/24/10 16:35:31  5-MIN KDBQ 242235Z 30016G23KT 10SM CLR 18/08 A3000 1010 50 1700 300/16G23 RMK AO2 PK WND 29028/2202
94908KDBQ DBQ20100924164011809/24/10 16:40:31  5-MIN KDBQ 242240Z 29015G23KT 10SM CLR 18/08 A3000 1010 50 1700 290/15G23 RMK AO2 PK WND 29028/2202
94908KDBQ DBQ20100924164511209/24/10 16:45:31  5-MIN KDBQ 242245Z 29014KT 10SM CLR 18/08 A2999 1010 52 1700 290/14 RMK AO2 PK WND 29028/2202
94908KDBQ DBQ20100924165013509/24/10 16:50:31  5-MIN KDBQ 242250Z 29017G20KT 10SM CLR 18/08 A2999 1010 52 1700 290/17G20 RMK AO2 PK WND 29028/2202 SLP156 T01830083
94908KDBQ DBQ20100924165510009/24/10 16:55:31  5-MIN KDBQ 242255Z 29013G20KT 10SM CLR 18/08 A3000 1010 52 1700 290/13G20 RMK AO2
94908KDBQ DBQ20100924170010009/24/10 17:00:31  5-MIN KDBQ 242300Z 29015G21KT 10SM CLR 18/08 A3000 1010 52 1700 280/15G21 RMK AO2
94908KDBQ DBQ20100924170510009/24/10 17:05:31  5-MIN KDBQ 242305Z 29012G21KT 10SM CLR 18/08 A3000 1010 53 1600 290/12G21 RMK AO2
94908KDBQ DBQ20100924171010009/24/10 17:10:31  5-MIN KDBQ 242310Z 28016G19KT 10SM CLR 18/08 A3000 1010 51 1600 280/16G19 RMK AO2
94908KDBQ DBQ20100924171510009/24/10 17:15:31  5-MIN KDBQ 242315Z 29013G19KT 10SM CLR 18/08 A3000 1010 51 1600 290/13G19 RMK AO2
94908KDBQ DBQ20100924172010009/24/10 17:20:31  5-MIN KDBQ 242320Z 28011G19KT 10SM CLR 18/08 A3000 1000 51 1600 280/11G19 RMK AO2
94908KDBQ DBQ20100924172510009/24/10 17:25:31  5-MIN KDBQ 242325Z 29014G21KT 10SM CLR 18/08 A3000 1000 51 1600 290/14G21 RMK AO2
94908KDBQ DBQ20100924173010009/24/10 17:30:31  5-MIN KDBQ 242330Z 29011G21KT 10SM CLR 17/08 A3001 1000 53 1500 290/11G21 RMK AO2
94908KDBQ DBQ20100924173510009/24/10 17:35:31  5-MIN KDBQ 242335Z 30010G19KT 10SM CLR 17/08 A3001 1000 55 1500 300/10G19 RMK AO2
94908KDBQ DBQ20100924174009409/24/10 17:40:31  5-MIN KDBQ 242340Z 30010KT 10SM CLR 17/08 A3001 1000 55 1500 300/10 RMK AO2
94908KDBQ DBQ20100924174510009/24/10 17:45:31  5-MIN KDBQ 242345Z 30012G17KT 10SM CLR 17/08 A3001 1000 55 1500 300/12G17 RMK AO2
94908KDBQ DBQ20100924175013409/24/10 17:50:31  5-MIN KDBQ 242350Z 30011G20KT 10SM CLR 17/08 A3001 990 55 1500 300/11G20 RMK AO2 SLP163 T01670078 10194 20167 53005
94908KDBQ DBQ20100924175509909/24/10 17:55:31  5-MIN KDBQ 242355Z 30011G20KT 10SM CLR 16/08 A3001 990 57 1400 300/11G20 RMK AO2
94908KDBQ DBQ20100924180009309/24/10 18:00:31  5-MIN KDBQ 250000Z 31009KT 10SM CLR 16/08 A3001 990 57 1400 310/09 RMK AO2
94908KDBQ DBQ20100924180509309/24/10 18:05:31  5-MIN KDBQ 250005Z 31010KT 10SM CLR 16/08 A3002 990 57 1400 310/10 RMK AO2
94908KDBQ DBQ20100924181009309/24/10 18:10:31  5-MIN KDBQ 250010Z 30008KT 10SM CLR 16/08 A3002 990 59 1300 300/08 RMK AO2
94908KDBQ DBQ20100924181509909/24/10 18:15:31  5-MIN KDBQ 250015Z 30007G16KT 10SM CLR 16/08 A3002 990 59 1300 300/07G16 RMK AO2
94908KDBQ DBQ20100924182009309/24/10 18:20:31  5-MIN KDBQ 250020Z 30007KT 10SM CLR 15/08 A3002 980 62 1300 300/07 RMK AO2
94908KDBQ DBQ20100924182509309/24/10 18:25:31  5-MIN KDBQ 250025Z 29008KT 10SM CLR 15/08 A3003 980 62 1200 290/08 RMK AO2
94908KDBQ DBQ20100924183009909/24/10 18:30:31  5-MIN KDBQ 250030Z 29009G16KT 10SM CLR 15/08 A3003 980 62 1200 290/09G16 RMK AO2
94908KDBQ DBQ20100924183509909/24/10 18:35:31  5-MIN KDBQ 250035Z 29011G16KT 10SM CLR 16/08 A3003 980 59 1300 290/11G16 RMK AO2
94908KDBQ DBQ20100924184009309/24/10 18:40:31  5-MIN KDBQ 250040Z 29012KT 10SM CLR 16/08 A3003 970 59 1300 290/12 RMK AO2
94908KDBQ DBQ20100924184509909/24/10 18:45:31  5-MIN KDBQ 250045Z 30011G18KT 10SM CLR 15/08 A3004 970 62 1200 300/11G18 RMK AO2
94908KDBQ DBQ20100924185011009/24/10 18:50:31  5-MIN KDBQ 250050Z 30010KT 10SM CLR 15/08 A3004 970 62 1200 300/10 RMK AO2 SLP173 T01500078
94908KDBQ DBQ20100924185509809/24/10 18:55:31  5-MIN KDBQ 250055Z AUTO 30010KT 10SM CLR 15/08 A3004 970 62 1200 300/10 RMK AO2
94908KDBQ DBQ20100924190009809/24/10 19:00:31  5-MIN KDBQ 250100Z AUTO 31011KT 10SM CLR 15/08 A3004 970 62 1200 300/11 RMK AO2
94908KDBQ DBQ20100924190509809/24/10 19:05:31  5-MIN KDBQ 250105Z AUTO 30008KT 10SM CLR 14/08 A3004 970 64 1200 300/08 RMK AO2
94908KDBQ DBQ20100924191009809/24/10 19:10:31  5-MIN KDBQ 250110Z AUTO 30009KT 10SM CLR 14/08 A3004 970 64 1200 300/09 RMK AO2
94908KDBQ DBQ20100924191509809/24/10 19:15:31  5-MIN KDBQ 250115Z AUTO 31009KT 10SM CLR 14/08 A3004 960 64 1200 300/09 RMK AO2
94908KDBQ DBQ20100924192009809/24/10 19:20:31  5-MIN KDBQ 250120Z AUTO 31008KT 10SM CLR 14/08 A3004 960 66 1100 300/08 RMK AO2
94908KDBQ DBQ20100924192509809/24/10 19:25:31  5-MIN KDBQ 250125Z AUTO 31008KT 10SM CLR 14/08 A3005 960 66 1100 310/08 RMK AO2
94908KDBQ DBQ20100924193009809/24/10 19:30:31  5-MIN KDBQ 250130Z AUTO 31008KT 10SM CLR 14/08 A3005 960 66 1100 310/08 RMK AO2
94908KDBQ DBQ20100924193509809/24/10 19:35:31  5-MIN KDBQ 250135Z AUTO 31008KT 10SM CLR 14/08 A3005 960 66 1100 310/08 RMK AO2
94908KDBQ DBQ20100924194009809/24/10 19:40:31  5-MIN KDBQ 250140Z AUTO 31008KT 10SM CLR 14/08 A3006 950 66 1100 310/08 RMK AO2
94908KDBQ DBQ20100924194509809/24/10 19:45:31  5-MIN KDBQ 250145Z AUTO 31008KT 10SM CLR 13/08 A3006 950 69 1000 310/08 RMK AO2
94908KDBQ DBQ20100924195011509/24/10 19:50:31  5-MIN KDBQ 250150Z AUTO 31007KT 10SM CLR 13/08 A3006 950 69 1000 310/07 RMK AO2 SLP182 T01330078
94908KDBQ DBQ20100924195509809/24/10 19:55:31  5-MIN KDBQ 250155Z AUTO 31008KT 10SM CLR 13/08 A3006 950 69 1000 310/08 RMK AO2
94908KDBQ DBQ20100924200009809/24/10 20:00:31  5-MIN KDBQ 250200Z AUTO 31008KT 10SM CLR 13/08 A3007 940 69 1000 310/08 RMK AO2
94908KDBQ DBQ20100924200509809/24/10 20:05:31  5-MIN KDBQ 250205Z AUTO 31009KT 10SM CLR 13/08 A3007 940 69 1000 310/09 RMK AO2
94908KDBQ DBQ20100924201009809/24/10 20:10:31  5-MIN KDBQ 250210Z AUTO 31009KT 10SM CLR 13/08 A3007 940 69 1000 310/09 RMK AO2
94908KDBQ DBQ20100924201509809/24/10 20:15:31  5-MIN KDBQ 250215Z AUTO 31010KT 10SM CLR 13/08 A3007 940 69 1000 310/10 RMK AO2
94908KDBQ DBQ20100924202009809/24/10 20:20:31  5-MIN KDBQ 250220Z AUTO 31010KT 10SM CLR 13/08 A3007 940 69 1000 310/10 RMK AO2
94908KDBQ DBQ20100924202509809/24/10 20:25:31  5-MIN KDBQ 250225Z AUTO 32012KT 10SM CLR 14/08 A3008 940 66 1100 310/12 RMK AO2
94908KDBQ DBQ20100924203009809/24/10 20:30:31  5-MIN KDBQ 250230Z AUTO 32011KT 10SM CLR 13/08 A3008 930 69 1000 320/11 RMK AO2
94908KDBQ DBQ20100924203509809/24/10 20:35:31  5-MIN KDBQ 250235Z AUTO 32011KT 10SM CLR 13/08 A3008 930 69 1000 320/11 RMK AO2
94908KDBQ DBQ20100924204010409/24/10 20:40:31  5-MIN KDBQ 250240Z AUTO 33013G19KT 10SM CLR 13/08 A3009 920 69 1000 320/13G19 RMK AO2
94908KDBQ DBQ20100924204510409/24/10 20:45:31  5-MIN KDBQ 250245Z AUTO 33013G19KT 10SM CLR 13/08 A3009 920 69 1000 330/13G19 RMK AO2
94908KDBQ DBQ20100924205012109/24/10 20:50:31  5-MIN KDBQ 250250Z AUTO 33011KT 10SM CLR 13/08 A3009 920 69 1000 330/11 RMK AO2 SLP192 T01330078 51015
94908KDBQ DBQ20100924205509809/24/10 20:55:31  5-MIN KDBQ 250255Z AUTO 33011KT 10SM CLR 13/08 A3009 920 69 1000 330/11 RMK AO2
94908KDBQ DBQ20100924210009709/24/10 21:00:31  5-MIN KDBQ 250300Z AUTO 32011KT 10SM CLR 13/08 A3009 920 71 900 320/11 RMK AO2
94908KDBQ DBQ20100924210509709/24/10 21:05:31  5-MIN KDBQ 250305Z AUTO 33011KT 10SM CLR 13/08 A3009 920 71 900 330/11 RMK AO2
94908KDBQ DBQ20100924211009809/24/10 21:10:31  5-MIN KDBQ 250310Z AUTO 32014KT 10SM CLR 13/08 A3009 920 69 1000 320/14 RMK AO2
94908KDBQ DBQ20100924211510409/24/10 21:15:31  5-MIN KDBQ 250315Z AUTO 32012G21KT 10SM CLR 13/07 A3009 920 66 1000 320/12G21 RMK AO2
94908KDBQ DBQ20100924212010309/24/10 21:20:31  5-MIN KDBQ 250320Z AUTO 32013G21KT 10SM CLR 13/07 A3009 920 69 900 320/13G21 RMK AO2
94908KDBQ DBQ20100924212510309/24/10 21:25:31  5-MIN KDBQ 250325Z AUTO 32010G19KT 10SM CLR 13/07 A3010 920 69 900 320/10G19 RMK AO2
94908KDBQ DBQ20100924213009709/24/10 21:30:31  5-MIN KDBQ 250330Z AUTO 32010KT 10SM CLR 13/07 A3010 920 69 900 320/10 RMK AO2
94908KDBQ DBQ20100924213509709/24/10 21:35:31  5-MIN KDBQ 250335Z AUTO 33012KT 10SM CLR 12/07 A3010 920 71 800 320/12 RMK AO2
94908KDBQ DBQ20100924214009709/24/10 21:40:31  5-MIN KDBQ 250340Z AUTO 32010KT 10SM CLR 13/07 A3010 920 69 900 320/10 RMK AO2
94908KDBQ DBQ20100924214509709/24/10 21:45:31  5-MIN KDBQ 250345Z AUTO 32009KT 10SM CLR 12/07 A3010 910 71 800 320/09 RMK AO2
94908KDBQ DBQ20100924215011409/24/10 21:50:31  5-MIN KDBQ 250350Z AUTO 32010KT 10SM CLR 12/07 A3010 910 71 800 320/10 RMK AO2 SLP195 T01220072
94908KDBQ DBQ20100924215509709/24/10 21:55:31  5-MIN KDBQ 250355Z AUTO 31012KT 10SM CLR 12/07 A3010 910 71 800 310/12 RMK AO2
94908KDBQ DBQ20100924220009709/24/10 22:00:31  5-MIN KDBQ 250400Z AUTO 32011KT 10SM CLR 12/07 A3010 910 71 800 320/11 RMK AO2
94908KDBQ DBQ20100924220509709/24/10 22:05:31  5-MIN KDBQ 250405Z AUTO 31011KT 10SM CLR 12/07 A3010 910 71 800 310/11 RMK AO2
94908KDBQ DBQ20100924221009709/24/10 22:10:31  5-MIN KDBQ 250410Z AUTO 31011KT 10SM CLR 12/07 A3010 910 71 800 310/11 RMK AO2
94908KDBQ DBQ20100924221509709/24/10 22:15:31  5-MIN KDBQ 250415Z AUTO 31012KT 10SM CLR 12/07 A3010 910 71 800 310/12 RMK AO2
94908KDBQ DBQ20100924222009709/24/10 22:20:31  5-MIN KDBQ 250420Z AUTO 31012KT 10SM CLR 12/07 A3011 910 71 800 310/12 RMK AO2
94908KDBQ DBQ20100924222509709/24/10 22:25:31  5-MIN KDBQ 250425Z AUTO 32011KT 10SM CLR 12/07 A3011 910 74 800 310/11 RMK AO2
94908KDBQ DBQ20100924223009709/24/10 22:30:31  5-MIN KDBQ 250430Z AUTO 31011KT 10SM CLR 12/07 A3011 910 71 800 310/11 RMK AO2
94908KDBQ DBQ20100924223509709/24/10 22:35:31  5-MIN KDBQ 250435Z AUTO 32010KT 10SM CLR 12/07 A3011 910 71 800 320/10 RMK AO2
94908KDBQ DBQ20100924224010309/24/10 22:40:31  5-MIN KDBQ 250440Z AUTO 31011G17KT 10SM CLR 12/07 A3011 900 74 800 310/11G17 RMK AO2
94908KDBQ DBQ20100924224510309/24/10 22:45:31  5-MIN KDBQ 250445Z AUTO 31012G17KT 10SM CLR 12/07 A3011 900 74 800 310/12G17 RMK AO2
94908KDBQ DBQ20100924225011409/24/10 22:50:31  5-MIN KDBQ 250450Z AUTO 31010KT 10SM CLR 12/07 A3011 900 74 800 310/10 RMK AO2 SLP198 T01170072
94908KDBQ DBQ20100924225509709/24/10 22:55:31  5-MIN KDBQ 250455Z AUTO 31011KT 10SM CLR 12/07 A3011 900 74 800 310/11 RMK AO2
94908KDBQ DBQ20100924230009709/24/10 23:00:31  5-MIN KDBQ 250500Z AUTO 31010KT 10SM CLR 12/07 A3011 900 74 800 310/10 RMK AO2
94908KDBQ DBQ20100924230509709/24/10 23:05:31  5-MIN KDBQ 250505Z AUTO 31011KT 10SM CLR 12/07 A3011 900 74 800 310/11 RMK AO2
94908KDBQ DBQ20100924231010309/24/10 23:10:31  5-MIN KDBQ 250510Z AUTO 32010G17KT 10SM CLR 12/07 A3011 910 74 800 310/10G17 RMK AO2
94908KDBQ DBQ20100924231509709/24/10 23:15:31  5-MIN KDBQ 250515Z AUTO 31011KT 10SM CLR 12/07 A3011 910 74 800 310/11 RMK AO2
94908KDBQ DBQ20100924232009709/24/10 23:20:31  5-MIN KDBQ 250520Z AUTO 31011KT 10SM CLR 12/07 A3011 910 74 800 310/11 RMK AO2
94908KDBQ DBQ20100924232509709/24/10 23:25:31  5-MIN KDBQ 250525Z AUTO 31011KT 10SM CLR 12/07 A3011 900 74 800 310/11 RMK AO2
94908KDBQ DBQ20100924233010309/24/10 23:30:31  5-MIN KDBQ 250530Z AUTO 31010G18KT 10SM CLR 12/07 A3011 900 74 800 310/10G18 RMK AO2
94908KDBQ DBQ20100924233510309/24/10 23:35:31  5-MIN KDBQ 250535Z AUTO 31011G18KT 10SM CLR 12/07 A3011 900 74 800 310/11G18 RMK AO2
94908KDBQ DBQ20100924234009709/24/10 23:40:31  5-MIN KDBQ 250540Z AUTO 31012KT 10SM CLR 12/07 A3011 900 74 800 310/12 RMK AO2
94908KDBQ DBQ20100924234510309/24/10 23:45:31  5-MIN KDBQ 250545Z AUTO 31011G16KT 10SM CLR 11/07 A3011 900 77 700 310/11G16 RMK AO2
94908KDBQ DBQ20100924235014809/24/10 23:50:31  5-MIN KDBQ 250550Z AUTO 31010G16KT 10SM CLR 11/07 A3012 900 77 700 300/10G16 RMK AO2 SLP199 T01110072 10161 20111 402110111 53026
94908KDBQ DBQ20100924235510309/24/10 23:55:31  5-MIN KDBQ 250555Z AUTO 31008G16KT 10SM CLR 11/07 A3012 900 77 700 310/08G16 RMK AO2
94908KDBQ DBQ20100925000010309/25/10 00:00:38  5-MIN KDBQ 250600Z AUTO 31008G16KT 10SM CLR 11/07 A3011 900 77 700 310/08G16 RMK AO2
94908KDBQ DBQ20100925000510309/25/10 00:05:31  5-MIN KDBQ 250605Z AUTO 31008G16KT 10SM CLR 11/07 A3011 900 77 700 310/08G16 RMK AO2
94908KDBQ DBQ20100925001010309/25/10 00:10:31  5-MIN KDBQ 250610Z AUTO 32007G15KT 10SM CLR 11/07 A3011 900 77 700 320/07G15 RMK AO2
94908KDBQ DBQ20100925001509709/25/10 00:15:34  5-MIN KDBQ 250615Z AUTO 32008KT 10SM CLR 11/07 A3011 900 80 600 320/08 RMK AO2
94908KDBQ DBQ20100925002009709/25/10 00:20:31  5-MIN KDBQ 250620Z AUTO 32007KT 10SM CLR 11/07 A3011 910 77 700 310/07 RMK AO2
94908KDBQ DBQ20100925002510309/25/10 00:25:31  5-MIN KDBQ 250625Z AUTO 32008G15KT 10SM CLR 11/07 A3011 910 77 700 320/08G15 RMK AO2
94908KDBQ DBQ20100925003010309/25/10 00:30:31  5-MIN KDBQ 250630Z AUTO 32009G16KT 10SM CLR 11/07 A3011 910 77 700 320/09G16 RMK AO2
94908KDBQ DBQ20100925003510309/25/10 00:35:31  5-MIN KDBQ 250635Z AUTO 32008G16KT 10SM CLR 11/07 A3011 910 77 700 320/08G16 RMK AO2
94908KDBQ DBQ20100925004010309/25/10 00:40:31  5-MIN KDBQ 250640Z AUTO 31008G16KT 10SM CLR 11/07 A3011 910 80 600 310/08G16 RMK AO2
94908KDBQ DBQ20100925004510309/25/10 00:45:31  5-MIN KDBQ 250645Z AUTO 31010G16KT 10SM CLR 11/07 A3011 900 77 700 310/10G16 RMK AO2
94908KDBQ DBQ20100925005012009/25/10 00:50:31  5-MIN KDBQ 250650Z AUTO 31012G17KT 10SM CLR 11/07 A3011 900 77 700 310/12G17 RMK AO2 SLP198 T01110072
94908KDBQ DBQ20100925005510309/25/10 00:55:31  5-MIN KDBQ 250655Z AUTO 31009G18KT 10SM CLR 11/07 A3011 900 77 700 310/09G18 RMK AO2
94908KDBQ DBQ20100925010010309/25/10 01:00:31  5-MIN KDBQ 250700Z AUTO 32009G18KT 10SM CLR 11/07 A3011 900 80 600 320/09G18 RMK AO2
94908KDBQ DBQ20100925010510309/25/10 01:05:31  5-MIN KDBQ 250705Z AUTO 31008G16KT 10SM CLR 11/07 A3011 900 80 600 310/08G16 RMK AO2
94908KDBQ DBQ20100925011010309/25/10 01:10:31  5-MIN KDBQ 250710Z AUTO 32008G16KT 10SM CLR 11/07 A3011 910 80 600 310/08G16 RMK AO2
94908KDBQ DBQ20100925011509709/25/10 01:15:31  5-MIN KDBQ 250715Z AUTO 31007KT 10SM CLR 11/07 A3011 900 80 600 310/07 RMK AO2
94908KDBQ DBQ20100925012010309/25/10 01:20:31  5-MIN KDBQ 250720Z AUTO 31007G14KT 10SM CLR 11/07 A3011 900 80 600 310/07G14 RMK AO2
94908KDBQ DBQ20100925012510309/25/10 01:25:31  5-MIN KDBQ 250725Z AUTO 31008G14KT 10SM CLR 11/07 A3011 900 80 600 310/08G14 RMK AO2
94908KDBQ DBQ20100925013009709/25/10 01:30:31  5-MIN KDBQ 250730Z AUTO 30008KT 10SM CLR 10/07 A3011 900 83 600 300/08 RMK AO2
94908KDBQ DBQ20100925013509709/25/10 01:35:31  5-MIN KDBQ 250735Z AUTO 30008KT 10SM CLR 10/07 A3012 900 83 600 300/08 RMK AO2
94908KDBQ DBQ20100925014009709/25/10 01:40:31  5-MIN KDBQ 250740Z AUTO 30008KT 10SM CLR 10/07 A3012 900 83 600 300/08 RMK AO2
94908KDBQ DBQ20100925014509709/25/10 01:45:31  5-MIN KDBQ 250745Z AUTO 30005KT 10SM CLR 10/07 A3012 900 83 600 300/05 RMK AO2
94908KDBQ DBQ20100925015011409/25/10 01:50:31  5-MIN KDBQ 250750Z AUTO 31005KT 10SM CLR 10/07 A3011 900 83 600 310/05 RMK AO2 SLP197 T01000072
94908KDBQ DBQ20100925015509709/25/10 01:55:31  5-MIN KDBQ 250755Z AUTO 31005KT 10SM CLR 10/07 A3011 900 83 600 310/05 RMK AO2
94908KDBQ DBQ20100925020009709/25/10 02:00:31  5-MIN KDBQ 250800Z AUTO 31005KT 10SM CLR 09/07 A3011 900 86 500 310/05 RMK AO2
94908KDBQ DBQ20100925020509709/25/10 02:05:31  5-MIN KDBQ 250805Z AUTO 30005KT 10SM CLR 09/07 A3011 900 86 500 300/05 RMK AO2
94908KDBQ DBQ20100925021009709/25/10 02:10:31  5-MIN KDBQ 250810Z AUTO 31007KT 10SM CLR 09/07 A3011 910 86 500 310/07 RMK AO2
94908KDBQ DBQ20100925021509709/25/10 02:15:31  5-MIN KDBQ 250815Z AUTO 31005KT 10SM CLR 10/07 A3011 900 83 600 310/05 RMK AO2
94908KDBQ DBQ20100925022009709/25/10 02:20:31  5-MIN KDBQ 250820Z AUTO 31005KT 10SM CLR 09/07 A3011 900 86 500 310/05 RMK AO2
94908KDBQ DBQ20100925022509709/25/10 02:25:31  5-MIN KDBQ 250825Z AUTO 31006KT 10SM CLR 09/07 A3011 910 86 500 310/06 RMK AO2
94908KDBQ DBQ20100925023009709/25/10 02:30:31  5-MIN KDBQ 250830Z AUTO 31007KT 10SM CLR 09/07 A3011 910 86 500 310/07 RMK AO2
94908KDBQ DBQ20100925023509709/25/10 02:35:31  5-MIN KDBQ 250835Z AUTO 31008KT 10SM CLR 10/07 A3011 900 83 600 300/08 RMK AO2
94908KDBQ DBQ20100925024009709/25/10 02:40:31  5-MIN KDBQ 250840Z AUTO 31008KT 10SM CLR 10/07 A3011 910 83 600 310/08 RMK AO2
94908KDBQ DBQ20100925024509709/25/10 02:45:31  5-MIN KDBQ 250845Z AUTO 31008KT 10SM CLR 10/07 A3011 910 83 600 310/08 RMK AO2
94908KDBQ DBQ20100925025012009/25/10 02:50:31  5-MIN KDBQ 250850Z AUTO 30007KT 10SM CLR 09/07 A3011 910 86 500 300/07 RMK AO2 SLP195 T00940072 51008
94908KDBQ DBQ20100925025509709/25/10 02:55:31  5-MIN KDBQ 250855Z AUTO 30006KT 10SM CLR 09/07 A3011 900 86 500 290/06 RMK AO2
94908KDBQ DBQ20100925030009709/25/10 03:00:31  5-MIN KDBQ 250900Z AUTO 30007KT 10SM CLR 09/07 A3011 900 86 500 300/07 RMK AO2
94908KDBQ DBQ20100925030509709/25/10 03:05:31  5-MIN KDBQ 250905Z AUTO 30008KT 10SM CLR 09/07 A3011 900 86 500 300/08 RMK AO2
94908KDBQ DBQ20100925031009709/25/10 03:10:31  5-MIN KDBQ 250910Z AUTO 31006KT 10SM CLR 09/07 A3011 900 86 500 310/06 RMK AO2
94908KDBQ DBQ20100925031509709/25/10 03:15:31  5-MIN KDBQ 250915Z AUTO 31006KT 10SM CLR 09/07 A3011 900 86 500 310/06 RMK AO2
94908KDBQ DBQ20100925032009709/25/10 03:20:31  5-MIN KDBQ 250920Z AUTO 31006KT 10SM CLR 09/07 A3011 900 86 500 310/06 RMK AO2
94908KDBQ DBQ20100925032509709/25/10 03:25:31  5-MIN KDBQ 250925Z AUTO 31007KT 10SM CLR 09/07 A3011 900 86 500 310/07 RMK AO2
94908KDBQ DBQ20100925033009709/25/10 03:30:31  5-MIN KDBQ 250930Z AUTO 32008KT 10SM CLR 09/07 A3011 900 86 500 310/08 RMK AO2
94908KDBQ DBQ20100925033509709/25/10 03:35:31  5-MIN KDBQ 250935Z AUTO 32007KT 10SM CLR 09/07 A3011 900 86 500 320/07 RMK AO2
94908KDBQ DBQ20100925034009709/25/10 03:40:31  5-MIN KDBQ 250940Z AUTO 32009KT 10SM CLR 09/07 A3012 900 86 500 320/09 RMK AO2
94908KDBQ DBQ20100925034509709/25/10 03:45:31  5-MIN KDBQ 250945Z AUTO 32009KT 10SM CLR 09/07 A3012 900 86 500 320/09 RMK AO2
94908KDBQ DBQ20100925035011409/25/10 03:50:31  5-MIN KDBQ 250950Z AUTO 32009KT 10SM CLR 09/07 A3012 890 86 500 320/09 RMK AO2 SLP201 T00940072
94908KDBQ DBQ20100925035509709/25/10 03:55:31  5-MIN KDBQ 250955Z AUTO 32009KT 10SM CLR 09/07 A3012 890 86 500 320/09 RMK AO2
94908KDBQ DBQ20100925040009709/25/10 04:00:31  5-MIN KDBQ 251000Z AUTO 33009KT 10SM CLR 09/07 A3012 890 86 500 330/09 RMK AO2
94908KDBQ DBQ20100925040509709/25/10 04:05:31  5-MIN KDBQ 251005Z AUTO 33009KT 10SM CLR 09/07 A3013 890 86 500 330/09 RMK AO2
94908KDBQ DBQ20100925041009709/25/10 04:10:31  5-MIN KDBQ 251010Z AUTO 33009KT 10SM CLR 09/07 A3013 890 86 500 330/09 RMK AO2
94908KDBQ DBQ20100925041509709/25/10 04:15:31  5-MIN KDBQ 251015Z AUTO 33011KT 10SM CLR 09/07 A3013 880 86 500 330/11 RMK AO2
94908KDBQ DBQ20100925042009709/25/10 04:20:31  5-MIN KDBQ 251020Z AUTO 33009KT 10SM CLR 09/07 A3013 880 86 500 330/09 RMK AO2
94908KDBQ DBQ20100925042509709/25/10 04:25:31  5-MIN KDBQ 251025Z AUTO 32009KT 10SM CLR 09/07 A3013 880 86 500 320/09 RMK AO2
94908KDBQ DBQ20100925043009709/25/10 04:30:31  5-MIN KDBQ 251030Z AUTO 33010KT 10SM CLR 09/07 A3014 880 86 500 320/10 RMK AO2
94908KDBQ DBQ20100925043509709/25/10 04:35:31  5-MIN KDBQ 251035Z AUTO 33009KT 10SM CLR 09/07 A3013 880 86 500 330/09 RMK AO2
94908KDBQ DBQ20100925044009709/25/10 04:40:31  5-MIN KDBQ 251040Z AUTO 33009KT 10SM CLR 09/07 A3013 880 86 500 330/09 RMK AO2
94908KDBQ DBQ20100925044509709/25/10 04:45:31  5-MIN KDBQ 251045Z AUTO 34009KT 10SM CLR 09/08 A3014 880 89 500 330/09 RMK AO2
94908KDBQ DBQ20100925045010909/25/10 04:50:31  5-MIN KDBQ 251050Z 34010KT 10SM CLR 09/08 A3014 880 89 500 340/10 RMK AO2 SLP207 T00940078
94908KDBQ DBQ20100925045509209/25/10 04:55:31  5-MIN KDBQ 251055Z 33010KT 10SM CLR 09/08 A3014 880 89 500 330/10 RMK AO2
94908KDBQ DBQ20100925050009209/25/10 05:00:31  5-MIN KDBQ 251100Z 34010KT 10SM CLR 09/08 A3014 880 89 500 340/10 RMK AO2
94908KDBQ DBQ20100925050509209/25/10 05:05:31  5-MIN KDBQ 251105Z 34011KT 10SM CLR 09/08 A3014 870 89 500 340/11 RMK AO2
94908KDBQ DBQ20100925051009209/25/10 05:10:31  5-MIN KDBQ 251110Z 34010KT 10SM CLR 09/08 A3014 870 89 500 340/10 RMK AO2
94908KDBQ DBQ20100925051509209/25/10 05:15:31  5-MIN KDBQ 251115Z 34012KT 10SM CLR 09/08 A3014 870 89 500 340/12 RMK AO2
94908KDBQ DBQ20100925052009209/25/10 05:20:31  5-MIN KDBQ 251120Z 34012KT 10SM CLR 09/08 A3014 880 89 500 340/12 RMK AO2
94908KDBQ DBQ20100925052509209/25/10 05:25:31  5-MIN KDBQ 251125Z 34011KT 10SM CLR 09/08 A3014 880 89 500 340/11 RMK AO2
94908KDBQ DBQ20100925053009209/25/10 05:30:31  5-MIN KDBQ 251130Z 34010KT 10SM CLR 09/08 A3014 870 89 500 340/10 RMK AO2
94908KDBQ DBQ20100925053509209/25/10 05:35:31  5-MIN KDBQ 251135Z 35010KT 10SM CLR 09/08 A3014 880 89 500 350/10 RMK AO2
94908KDBQ DBQ20100925054009209/25/10 05:40:31  5-MIN KDBQ 251140Z 35010KT 10SM CLR 09/08 A3014 880 89 500 350/10 RMK AO2
94908KDBQ DBQ20100925054509209/25/10 05:45:31  5-MIN KDBQ 251145Z 35009KT 10SM CLR 09/08 A3014 880 89 500 350/09 RMK AO2
94908KDBQ DBQ20100925055012709/25/10 05:50:31  5-MIN KDBQ 251150Z 35010KT 10SM CLR 09/08 A3014 870 89 500 350/10 RMK AO2 SLP208 T00940078 10111 20094 56003
94908KDBQ DBQ20100925055509209/25/10 05:55:31  5-MIN KDBQ 251155Z 35009KT 10SM CLR 09/08 A3015 870 93 400 350/09 RMK AO2
94908KDBQ DBQ20100925060009209/25/10 06:00:31  5-MIN KDBQ 251200Z 35009KT 10SM CLR 09/08 A3015 860 93 400 350/09 RMK AO2
94908KDBQ DBQ20100925060509209/25/10 06:05:31  5-MIN KDBQ 251205Z 35009KT 10SM CLR 09/08 A3015 860 93 400 350/09 RMK AO2
94908KDBQ DBQ20100925061009209/25/10 06:10:31  5-MIN KDBQ 251210Z 35009KT 10SM CLR 09/08 A3016 860 89 400 350/09 RMK AO2
94908KDBQ DBQ20100925061509209/25/10 06:15:31  5-MIN KDBQ 251215Z 36009KT 10SM CLR 09/08 A3016 860 89 400 350/09 RMK AO2
94908KDBQ DBQ20100925062009209/25/10 06:20:31  5-MIN KDBQ 251220Z 36009KT 10SM CLR 09/08 A3015 860 89 400 360/09 RMK AO2
94908KDBQ DBQ20100925062509209/25/10 06:25:31  5-MIN KDBQ 251225Z 01009KT 10SM CLR 09/08 A3015 870 89 400 010/09 RMK AO2
94908KDBQ DBQ20100925063009209/25/10 06:30:31  5-MIN KDBQ 251230Z 01009KT 10SM CLR 09/08 A3014 870 89 500 010/09 RMK AO2
94908KDBQ DBQ20100925063509209/25/10 06:35:31  5-MIN KDBQ 251235Z 01009KT 10SM CLR 09/08 A3014 870 89 500 010/09 RMK AO2
94908KDBQ DBQ20100925064009209/25/10 06:40:31  5-MIN KDBQ 251240Z 01010KT 10SM CLR 09/08 A3014 870 89 500 010/10 RMK AO2
94908KDBQ DBQ20100925064509209/25/10 06:45:31  5-MIN KDBQ 251245Z 02010KT 10SM CLR 10/08 A3014 870 86 500 010/10 RMK AO2
94908KDBQ DBQ20100925065010909/25/10 06:50:31  5-MIN KDBQ 251250Z 02008KT 10SM CLR 10/08 A3014 870 86 500 020/08 RMK AO2 SLP209 T01000078
94908KDBQ DBQ20100925065509209/25/10 06:55:31  5-MIN KDBQ 251255Z 02008KT 10SM CLR 09/08 A3014 880 89 500 020/08 RMK AO2
94908KDBQ DBQ20100925070009209/25/10 07:00:31  5-MIN KDBQ 251300Z 01007KT 10SM CLR 09/08 A3014 870 89 500 010/07 RMK AO2
94908KDBQ DBQ20100925070509209/25/10 07:05:31  5-MIN KDBQ 251305Z 01007KT 10SM CLR 09/08 A3015 870 89 400 360/07 RMK AO2
94908KDBQ DBQ20100925071009209/25/10 07:10:31  5-MIN KDBQ 251310Z 01006KT 10SM CLR 09/08 A3015 870 89 400 010/06 RMK AO2
94908KDBQ DBQ20100925071509209/25/10 07:15:31  5-MIN KDBQ 251315Z 35005KT 10SM CLR 09/08 A3016 860 89 400 350/05 RMK AO2
94908KDBQ DBQ20100925072009209/25/10 07:20:31  5-MIN KDBQ 251320Z 34006KT 10SM CLR 09/08 A3016 850 89 400 340/06 RMK AO2
94908KDBQ DBQ20100925072509209/25/10 07:25:31  5-MIN KDBQ 251325Z 34006KT 10SM CLR 09/08 A3017 850 89 400 330/06 RMK AO2
94908KDBQ DBQ20100925073009209/25/10 07:30:31  5-MIN KDBQ 251330Z 34006KT 10SM CLR 10/08 A3017 850 86 500 340/06 RMK AO2
94908KDBQ DBQ20100925073509209/25/10 07:35:31  5-MIN KDBQ 251335Z 35005KT 10SM CLR 10/08 A3017 850 86 500 350/05 RMK AO2
94908KDBQ DBQ20100925074009209/25/10 07:40:31  5-MIN KDBQ 251340Z 35005KT 10SM CLR 10/08 A3017 850 86 500 350/05 RMK AO2
94908KDBQ DBQ20100925074509209/25/10 07:45:31  5-MIN KDBQ 251345Z 35006KT 10SM CLR 10/08 A3017 850 86 500 350/06 RMK AO2
94908KDBQ DBQ20100925075010909/25/10 07:50:31  5-MIN KDBQ 251350Z 34007KT 10SM CLR 10/08 A3018 840 86 500 340/07 RMK AO2 SLP223 T01000078
94908KDBQ DBQ20100925075509209/25/10 07:55:31  5-MIN KDBQ 251355Z 33008KT 10SM CLR 10/08 A3019 830 86 500 330/08 RMK AO2
94908KDBQ DBQ20100925080009209/25/10 08:00:31  5-MIN KDBQ 251400Z 34008KT 10SM CLR 10/08 A3019 830 86 500 340/08 RMK AO2
94908KDBQ DBQ20100925080509209/25/10 08:05:31  5-MIN KDBQ 251405Z 34005KT 10SM CLR 10/08 A3019 830 86 500 340/05 RMK AO2
94908KDBQ DBQ20100925081009209/25/10 08:10:31  5-MIN KDBQ 251410Z 35006KT 10SM CLR 10/08 A3019 830 86 500 350/06 RMK AO2
94908KDBQ DBQ20100925081509209/25/10 08:15:31  5-MIN KDBQ 251415Z 34005KT 10SM CLR 10/08 A3019 830 86 500 340/05 RMK AO2
94908KDBQ DBQ20100925082009209/25/10 08:20:31  5-MIN KDBQ 251420Z 35004KT 10SM CLR 10/08 A3019 830 86 500 350/04 RMK AO2
94908KDBQ DBQ20100925082509209/25/10 08:25:31  5-MIN KDBQ 251425Z 36008KT 10SM CLR 11/07 A3019 830 80 500 360/08 RMK AO2
94908KDBQ DBQ20100925083009209/25/10 08:30:31  5-MIN KDBQ 251430Z 36007KT 10SM CLR 11/07 A3019 830 80 500 350/07 RMK AO2
94908KDBQ DBQ20100925083509209/25/10 08:35:31  5-MIN KDBQ 251435Z 35010KT 10SM CLR 11/07 A3019 830 80 500 350/10 RMK AO2
94908KDBQ DBQ20100925084009209/25/10 08:40:31  5-MIN KDBQ 251440Z 35009KT 10SM CLR 11/07 A3019 830 80 500 350/09 RMK AO2
94908KDBQ DBQ20100925084509209/25/10 08:45:31  5-MIN KDBQ 251445Z 35009KT 10SM CLR 11/07 A3019 830 80 500 350/09 RMK AO2
94908KDBQ DBQ20100925085011509/25/10 08:50:31  5-MIN KDBQ 251450Z 36008KT 10SM CLR 11/07 A3019 830 80 500 360/08 RMK AO2 SLP226 T01060072 51013
94908KDBQ DBQ20100925085509209/25/10 08:55:31  5-MIN KDBQ 251455Z 35008KT 10SM CLR 11/07 A3019 830 80 500 350/08 RMK AO2
94908KDBQ DBQ20100925090009209/25/10 09:00:31  5-MIN KDBQ 251500Z 35007KT 10SM CLR 11/07 A3019 830 77 600 350/07 RMK AO2
94908KDBQ DBQ20100925090509209/25/10 09:05:31  5-MIN KDBQ 251505Z 35009KT 10SM CLR 11/07 A3018 840 80 500 350/09 RMK AO2
94908KDBQ DBQ20100925091009509/25/10 09:10:31  5-MIN KDBQ 251510Z 35011KT 10SM FEW110 11/07 A3018 840 80 600 350/11 RMK AO2
94908KDBQ DBQ20100925091509509/25/10 09:15:31  5-MIN KDBQ 251515Z 01009KT 10SM FEW110 11/07 A3018 840 80 600 010/09 RMK AO2
94908KDBQ DBQ20100925092009509/25/10 09:20:31  5-MIN KDBQ 251520Z 36010KT 10SM FEW110 11/07 A3017 850 80 600 360/10 RMK AO2
94908KDBQ DBQ20100925092509509/25/10 09:25:31  5-MIN KDBQ 251525Z 01010KT 10SM FEW110 11/07 A3017 850 80 600 010/10 RMK AO2
94908KDBQ DBQ20100925093009509/25/10 09:30:31  5-MIN KDBQ 251530Z 01007KT 10SM FEW110 11/07 A3017 850 77 600 010/07 RMK AO2
94908KDBQ DBQ20100925093509509/25/10 09:35:31  5-MIN KDBQ 251535Z 01007KT 10SM FEW110 11/07 A3017 850 77 600 010/07 RMK AO2
94908KDBQ DBQ20100925094009209/25/10 09:40:31  5-MIN KDBQ 251540Z 36006KT 10SM CLR 11/07 A3017 850 77 600 350/06 RMK AO2
94908KDBQ DBQ20100925094509209/25/10 09:45:31  5-MIN KDBQ 251545Z 03005KT 10SM CLR 11/07 A3017 850 77 600 030/05 RMK AO2
94908KDBQ DBQ20100925095010909/25/10 09:50:31  5-MIN KDBQ 251550Z VRB04KT 10SM CLR 11/07 A3017 850 77 600 VRB/04 RMK AO2 SLP220 T01110072
94908KDBQ DBQ20100925095509209/25/10 09:55:31  5-MIN KDBQ 251555Z 02004KT 10SM CLR 11/07 A3017 850 77 600 020/04 RMK AO2
94908KDBQ DBQ20100925100009209/25/10 10:00:31  5-MIN KDBQ 251600Z 04007KT 10SM CLR 11/07 A3016 850 77 600 040/07 RMK AO2
94908KDBQ DBQ20100925100509209/25/10 10:05:31  5-MIN KDBQ 251605Z 04008KT 10SM CLR 11/07 A3016 860 77 600 040/08 RMK AO2
94908KDBQ DBQ20100925101009209/25/10 10:10:31  5-MIN KDBQ 251610Z 05006KT 10SM CLR 11/07 A3016 860 77 600 050/06 RMK AO2
94908KDBQ DBQ20100925101509209/25/10 10:15:31  5-MIN KDBQ 251615Z 03005KT 10SM CLR 11/07 A3016 860 77 600 030/05 RMK AO2
94908KDBQ DBQ20100925102009209/25/10 10:20:31  5-MIN KDBQ 251620Z 03006KT 10SM CLR 11/07 A3016 860 77 600 030/06 RMK AO2
94908KDBQ DBQ20100925102509209/25/10 10:25:31  5-MIN KDBQ 251625Z 04006KT 10SM CLR 11/07 A3016 860 77 600 040/06 RMK AO2
94908KDBQ DBQ20100925103009509/25/10 10:30:31  5-MIN KDBQ 251630Z 03008KT 10SM FEW100 11/07 A3015 860 77 600 030/08 RMK AO2
94908KDBQ DBQ20100925103509509/25/10 10:35:31  5-MIN KDBQ 251635Z 04008KT 10SM FEW100 11/07 A3015 870 77 600 040/08 RMK AO2
94908KDBQ DBQ20100925104009509/25/10 10:40:31  5-MIN KDBQ 251640Z 05009KT 10SM FEW100 11/07 A3015 870 77 600 050/09 RMK AO2
94908KDBQ DBQ20100925104509509/25/10 10:45:31  5-MIN KDBQ 251645Z 04008KT 10SM FEW075 11/07 A3015 870 77 600 040/08 RMK AO2
94908KDBQ DBQ20100925105011209/25/10 10:50:31  5-MIN KDBQ 251650Z 03007KT 10SM FEW075 11/07 A3015 870 77 600 030/07 RMK AO2 SLP212 T01110072
94908KDBQ DBQ20100925105509509/25/10 10:55:31  5-MIN KDBQ 251655Z 03009KT 10SM FEW100 12/07 A3015 860 74 700 030/09 RMK AO2
94908KDBQ DBQ20100925110009209/25/10 11:00:31  5-MIN KDBQ 251700Z 03008KT 10SM CLR 12/08 A3016 860 77 700 030/08 RMK AO2
94908KDBQ DBQ20100925110509509/25/10 11:05:31  5-MIN KDBQ 251705Z 02007KT 10SM FEW075 12/08 A3016 850 77 700 020/07 RMK AO2
94908KDBQ DBQ20100925111009509/25/10 11:10:31  5-MIN KDBQ 251710Z 03008KT 10SM FEW075 12/08 A3016 850 77 700 030/08 RMK AO2
94908KDBQ DBQ20100925111509509/25/10 11:15:31  5-MIN KDBQ 251715Z 01008KT 10SM FEW050 11/08 A3016 860 80 600 010/08 RMK AO2
94908KDBQ DBQ20100925112012509/25/10 11:20:31  5-MIN KDBQ 251720Z 35007KT 10SM -RA FEW017 SCT050 SCT075 11/08 A3017 850 80 600 350/07 RMK AO2 RAB18 P0000
94908KDBQ DBQ20100925112512509/25/10 11:25:31  5-MIN KDBQ 251725Z 35008KT 10SM -RA SCT017 SCT050 BKN075 11/08 A3017 850 83 600 350/08 RMK AO2 RAB18 P0000
94908KDBQ DBQ20100925113012509/25/10 11:30:31  5-MIN KDBQ 251730Z 35006KT 10SM -RA SCT017 SCT038 BKN075 11/08 A3017 850 80 600 350/06 RMK AO2 RAB18 P0000
94908KDBQ DBQ20100925113512509/25/10 11:35:31  5-MIN KDBQ 251735Z 35007KT 10SM -RA FEW017 SCT044 BKN075 11/08 A3017 850 80 600 350/07 RMK AO2 RAB18 P0000
94908KDBQ DBQ20100925114012509/25/10 11:40:31  5-MIN KDBQ 251740Z 35007KT 10SM -RA FEW017 SCT047 BKN075 11/08 A3018 840 83 600 350/07 RMK AO2 RAB18 P0000
94908KDBQ DBQ20100925114512509/25/10 11:45:31  5-MIN KDBQ 251745Z 01005KT 10SM -RA FEW017 SCT041 OVC075 11/08 A3018 840 80 600 010/05 RMK AO2 RAB18 P0000
94908KDBQ DBQ20100925115015909/25/10 11:50:31  5-MIN KDBQ 251750Z 01003KT 10SM -RA FEW017 OVC070 11/08 A3018 840 83 600 010/03 RMK AO2 RAB18 SLP222 P0001 60001 T01110083 10117 20089 53014
94908KDBQ DBQ20100925115511209/25/10 11:55:31  5-MIN KDBQ 251755Z 05004KT 10SM -RA FEW043 OVC070 11/08 A3017 840 80 600 040/04 RMK AO2 P0000
94908KDBQ DBQ20100925120011209/25/10 12:00:31  5-MIN KDBQ 251800Z 00000KT 10SM -RA FEW043 OVC070 11/08 A3017 850 80 600 000/00 RMK AO2 P0000
94908KDBQ DBQ20100925120511909/25/10 12:05:31  5-MIN KDBQ 251805Z 00000KT 10SM -RA SCT039 SCT049 OVC075 11/08 A3017 850 80 600 000/00 RMK AO2 P0000
94908KDBQ DBQ20100925121011209/25/10 12:10:31  5-MIN KDBQ 251810Z 00000KT 10SM -RA SCT046 OVC075 11/08 A3017 850 80 600 000/00 RMK AO2 P0000
94908KDBQ DBQ20100925121511209/25/10 12:15:31  5-MIN KDBQ 251815Z 00000KT 10SM -RA SCT048 OVC070 11/08 A3017 850 80 600 000/00 RMK AO2 P0000
94908KDBQ DBQ20100925122011209/25/10 12:20:31  5-MIN KDBQ 251820Z 00000KT 10SM -RA SCT046 BKN070 11/08 A3016 850 80 600 000/00 RMK AO2 P0000
94908KDBQ DBQ20100925122511109/25/10 12:25:31  5-MIN KDBQ 251825Z 00000KT 9SM -RA SCT046 BKN065 11/08 A3016 850 80 600 000/00 RMK AO2 P0001
94908KDBQ DBQ20100925123011809/25/10 12:30:31  5-MIN KDBQ 251830Z 00000KT 9SM -RA SCT043 BKN050 BKN070 11/08 A3016 850 80 600 000/00 RMK AO2 P0001
94908KDBQ DBQ20100925123511809/25/10 12:35:31  5-MIN KDBQ 251835Z 00000KT 8SM -RA SCT045 SCT055 BKN070 11/08 A3016 860 80 600 000/00 RMK AO2 P0001
94908KDBQ DBQ20100925124011809/25/10 12:40:31  5-MIN KDBQ 251840Z 00000KT 7SM -RA FEW035 SCT045 BKN070 11/08 A3016 860 83 600 000/00 RMK AO2 P0002
94908KDBQ DBQ20100925124511109/25/10 12:45:31  5-MIN KDBQ 251845Z 00000KT 8SM -RA BKN039 BKN065 11/08 A3016 860 80 600 000/00 RMK AO2 P0002
94908KDBQ DBQ20100925125012809/25/10 12:50:31  5-MIN KDBQ 251850Z 32003KT 9SM -RA SCT039 BKN065 11/08 A3016 860 83 600 320/03 RMK AO2 SLP215 P0002 T01110083
94908KDBQ DBQ20100925125511209/25/10 12:55:31  5-MIN KDBQ 251855Z 00000KT 10SM -RA SCT043 OVC065 11/08 A3016 860 80 600 000/00 RMK AO2 P0000
94908KDBQ DBQ20100925130011609/25/10 13:00:31  5-MIN KDBQ 251900Z 00000KT 10SM FEW043 OVC065 11/08 A3016 860 83 600 000/00 RMK AO2 RAE1857 P0000
94908KDBQ DBQ20100925130511609/25/10 13:05:31  5-MIN KDBQ 251905Z 00000KT 10SM FEW043 OVC070 11/08 A3016 860 83 600 000/00 RMK AO2 RAE1857 P0000
94908KDBQ DBQ20100925131012309/25/10 13:10:31  5-MIN KDBQ 251910Z 00000KT 10SM FEW041 SCT055 OVC070 11/08 A3016 860 83 600 000/00 RMK AO2 RAE1857 P0000
94908KDBQ DBQ20100925131511909/25/10 13:15:31  5-MIN KDBQ 251915Z 00000KT 10SM -RA FEW046 BKN055 OVC070 11/08 A3016 860 83 600 000/00 RMK AO2 P0000
94908KDBQ DBQ20100925132011909/25/10 13:20:31  5-MIN KDBQ 251920Z 00000KT 10SM -RA SCT042 BKN055 OVC070 11/08 A3016 860 80 600 000/00 RMK AO2 P0001
94908KDBQ DBQ20100925132511909/25/10 13:25:31  5-MIN KDBQ 251925Z 00000KT 10SM -RA FEW040 BKN055 OVC070 11/08 A3016 860 80 600 000/00 RMK AO2 P0001
94908KDBQ DBQ20100925133011909/25/10 13:30:31  5-MIN KDBQ 251930Z 00000KT 10SM -RA FEW038 BKN055 OVC075 11/08 A3016 860 83 600 000/00 RMK AO2 P0001
94908KDBQ DBQ20100925133511909/25/10 13:35:31  5-MIN KDBQ 251935Z 00000KT 10SM -RA FEW040 BKN055 OVC080 11/08 A3016 860 83 600 000/00 RMK AO2 P0001
94908KDBQ DBQ20100925134011909/25/10 13:40:31  5-MIN KDBQ 251940Z 00000KT 10SM -RA SCT038 SCT050 BKN080 11/08 A3016 860 83 600 000/00 RMK AO2 P0001
94908KDBQ DBQ20100925134511909/25/10 13:45:31  5-MIN KDBQ 251945Z 00000KT 10SM -RA FEW009 SCT036 BKN080 11/09 A3016 860 86 600 000/00 RMK AO2 P0001
94908KDBQ DBQ20100925135011909/25/10 13:50:31  5-MIN KDBQ 251950Z 00000KT 10SM -RA FEW009 SCT055 BKN080 11/09 A3016 860 86 600 000/00 RMK AO2 P0001
94908KDBQ DBQ20100925135511909/25/10 13:55:31  5-MIN KDBQ 251955Z 29003KT 10SM -RA FEW009 SCT060 OVC075 11/09 A3016 850 86 600 290/03 RMK AO2 P0000
94908KDBQ DBQ20100925140011909/25/10 14:00:31  5-MIN KDBQ 252000Z 00000KT 10SM -RA FEW009 BKN060 OVC075 11/09 A3017 850 86 600 000/00 RMK AO2 P0000
94908KDBQ DBQ20100925140511909/25/10 14:05:31  5-MIN KDBQ 252005Z 00000KT 10SM -RA FEW009 BKN060 BKN075 11/09 A3016 860 86 600 000/00 RMK AO2 P0000
94908KDBQ DBQ20100925141011809/25/10 14:10:31  5-MIN KDBQ 252010Z 00000KT 9SM -RA SCT011 BKN060 OVC075 11/09 A3016 850 86 600 000/00 RMK AO2 P0000
94908KDBQ DBQ20100925141511109/25/10 14:15:31  5-MIN KDBQ 252015Z 31003KT 8SM -RA SCT011 OVC060 11/09 A3016 850 86 600 310/03 RMK AO2 P0000
94908KDBQ DBQ20100925142011109/25/10 14:20:31  5-MIN KDBQ 252020Z 00000KT 8SM -RA BKN011 OVC060 11/09 A3016 850 86 600 000/00 RMK AO2 P0000
94908KDBQ DBQ20100925142511109/25/10 14:25:31  5-MIN KDBQ 252025Z 32003KT 9SM -RA BKN011 OVC055 11/09 A3016 860 86 600 320/03 RMK AO2 P0000
94908KDBQ DBQ20100925143011209/25/10 14:30:31  5-MIN KDBQ 252030Z 32004KT 10SM -RA BKN011 OVC055 11/09 A3016 860 86 600 320/04 RMK AO2 P0001
94908KDBQ DBQ20100925143511909/25/10 14:35:31  5-MIN KDBQ 252035Z 32004KT 10SM -RA BKN011 BKN017 OVC050 11/09 A3016 860 86 600 320/04 RMK AO2 P0001
94908KDBQ DBQ20100925144011209/25/10 14:40:31  5-MIN KDBQ 252040Z 33003KT 10SM -RA BKN013 OVC050 11/09 A3016 850 89 600 330/03 RMK AO2 P0001
94908KDBQ DBQ20100925144512109/25/10 14:45:31  5-MIN KDBQ 252045Z 34005KT 10SM BKN010 BKN016 OVC050 11/09 A3016 860 89 600 340/05 RMK AO2 RAE45 P0001
94908KDBQ DBQ20100925145015009/25/10 14:50:31  5-MIN KDBQ 252050Z 34005KT 10SM BKN011 BKN016 OVC050 11/09 A3016 860 86 600 340/05 RMK AO2 RAE45 SLP217 P0001 60005 T01110089 55004
94908KDBQ DBQ20100925145510909/25/10 14:55:31  5-MIN KDBQ 252055Z 33005KT 10SM FEW009 BKN014 OVC050 11/09 A3016 860 86 600 330/05 RMK AO2
94908KDBQ DBQ20100925150010909/25/10 15:00:31  5-MIN KDBQ 252100Z 33005KT 10SM SCT009 BKN014 OVC050 11/09 A3016 860 86 600 330/05 RMK AO2
94908KDBQ DBQ20100925150510909/25/10 15:05:31  5-MIN KDBQ 252105Z 34006KT 10SM SCT009 BKN014 OVC050 11/09 A3016 850 86 600 340/06 RMK AO2
94908KDBQ DBQ20100925151012509/25/10 15:10:31  5-MIN KDBQ 252110Z 34004KT 10SM -RA SCT009 BKN014 OVC050 11/09 A3016 850 89 600 340/04 RMK AO2 RAB07 P0000
94908KDBQ DBQ20100925151512509/25/10 15:15:31  5-MIN KDBQ 252115Z 34005KT 10SM -RA SCT009 BKN014 OVC050 11/09 A3017 850 89 600 330/05 RMK AO2 RAB07 P0000
94908KDBQ DBQ20100925152012509/25/10 15:20:31  5-MIN KDBQ 252120Z 35005KT 10SM -RA SCT009 BKN014 OVC050 11/09 A3017 850 89 600 350/05 RMK AO2 RAB07 P0001
94908KDBQ DBQ20100925152512509/25/10 15:25:31  5-MIN KDBQ 252125Z 36004KT 10SM -RA SCT009 BKN014 OVC050 11/09 A3017 850 89 600 360/04 RMK AO2 RAB07 P0001
94908KDBQ DBQ20100925153012409/25/10 15:30:31  5-MIN KDBQ 252130Z 36004KT 8SM -RA SCT009 BKN014 OVC050 11/09 A3016 850 89 600 360/04 RMK AO2 RAB07 P0001
94908KDBQ DBQ20100925153512709/25/10 15:35:31  5-MIN KDBQ 252135Z 36003KT 6SM -RA BR SCT009 BKN014 OVC050 11/09 A3016 850 89 600 360/03 RMK AO2 RAB07 P0001
94908KDBQ DBQ20100925154012709/25/10 15:40:31  5-MIN KDBQ 252140Z 35004KT 6SM -RA BR SCT009 BKN014 OVC050 11/09 A3016 860 89 600 350/04 RMK AO2 RAB07 P0002
94908KDBQ DBQ20100925154512409/25/10 15:45:31  5-MIN KDBQ 252145Z 36004KT 7SM -RA SCT009 BKN014 OVC050 11/09 A3016 860 89 600 360/04 RMK AO2 RAB07 P0002
94908KDBQ DBQ20100925155014109/25/10 15:50:31  5-MIN KDBQ 252150Z 36004KT 8SM -RA SCT009 BKN014 OVC050 11/10 A3016 860 93 600 360/04 RMK AO2 RAB07 SLP217 P0002 T01110100
94908KDBQ DBQ20100925155510409/25/10 15:55:31  5-MIN KDBQ 252155Z 35004KT 9SM -RA OVC060 11/09 A3016 860 89 600 350/04 RMK AO2 P0000
94908KDBQ DBQ20100925160010509/25/10 16:00:31  5-MIN KDBQ 252200Z 35005KT 10SM -RA OVC055 11/09 A3016 850 93 600 340/05 RMK AO2 P0000
94908KDBQ DBQ20100925160510709/25/10 16:05:31  5-MIN KDBQ 252205Z 34005KT 10SM OVC060 11/09 A3017 850 89 600 340/05 RMK AO2 RAE02 P0000
94908KDBQ DBQ20100925161010609/25/10 16:10:31  5-MIN KDBQ 252210Z 34005KT 9SM OVC060 11/09 A3017 850 93 600 340/05 RMK AO2 RAE02 P0001
94908KDBQ DBQ20100925161510709/25/10 16:15:31  5-MIN KDBQ 252215Z 34004KT 10SM OVC060 11/09 A3017 850 93 600 340/04 RMK AO2 RAE02 P0001
94908KDBQ DBQ20100925162010709/25/10 16:20:31  5-MIN KDBQ 252220Z 35004KT 10SM OVC060 11/09 A3017 850 93 600 350/04 RMK AO2 RAE02 P0001
94908KDBQ DBQ20100925162510709/25/10 16:25:31  5-MIN KDBQ 252225Z 36004KT 10SM OVC060 11/09 A3017 850 93 600 360/04 RMK AO2 RAE02 P0001
94908KDBQ DBQ20100925163010709/25/10 16:30:31  5-MIN KDBQ 252230Z 35004KT 10SM OVC060 11/09 A3017 850 93 600 350/04 RMK AO2 RAE02 P0001
94908KDBQ DBQ20100925163510709/25/10 16:35:31  5-MIN KDBQ 252235Z 35006KT 10SM OVC060 11/09 A3017 850 93 600 350/06 RMK AO2 RAE02 P0001
94908KDBQ DBQ20100925164010709/25/10 16:40:31  5-MIN KDBQ 252240Z 35005KT 10SM OVC060 11/09 A3017 850 93 600 350/05 RMK AO2 RAE02 P0001
94908KDBQ DBQ20100925164512009/25/10 16:45:31  5-MIN KDBQ 252245Z 34005KT 9SM -RA FEW008 OVC060 11/09 A3017 850 93 600 340/05 RMK AO2 RAE02B44 P0001
94908KDBQ DBQ20100925165013709/25/10 16:50:31  5-MIN KDBQ 252250Z 34007KT 9SM -RA FEW008 OVC060 11/09 A3017 850 93 600 340/07 RMK AO2 RAE02B44 SLP220 P0001 T01060094
94908KDBQ DBQ20100925165511109/25/10 16:55:31  5-MIN KDBQ 252255Z 34005KT 9SM -RA SCT008 OVC060 11/09 A3017 850 93 600 340/05 RMK AO2 P0000
94908KDBQ DBQ20100925170011909/25/10 17:00:31  5-MIN KDBQ 252300Z 34005KT 10SM -RA SCT008 BKN012 OVC060 11/10 A3017 850 96 600 340/05 RMK AO2 P0000
94908KDBQ DBQ20100925170512109/25/10 17:05:31  5-MIN KDBQ 252305Z 34006KT 10SM SCT008 BKN012 OVC060 11/10 A3017 850 96 600 340/06 RMK AO2 RAE03 P0000
94908KDBQ DBQ20100925171012109/25/10 17:10:31  5-MIN KDBQ 252310Z 36007KT 10SM SCT008 BKN012 OVC060 11/10 A3017 850 96 600 360/07 RMK AO2 RAE03 P0000
94908KDBQ DBQ20100925171512109/25/10 17:15:31  5-MIN KDBQ 252315Z 36006KT 10SM BKN008 BKN012 OVC060 11/09 A3017 850 93 600 360/06 RMK AO2 RAE03 P0000
94908KDBQ DBQ20100925172012109/25/10 17:20:31  5-MIN KDBQ 252320Z 36006KT 10SM BKN008 BKN012 OVC060 11/09 A3016 860 93 600 360/06 RMK AO2 RAE03 P0000
94908KDBQ DBQ20100925172512109/25/10 17:25:31  5-MIN KDBQ 252325Z 36005KT 10SM BKN008 BKN012 OVC060 11/09 A3016 850 93 600 360/05 RMK AO2 RAE03 P0000
94908KDBQ DBQ20100925173012109/25/10 17:30:31  5-MIN KDBQ 252330Z 34004KT 10SM BKN008 BKN012 OVC060 11/09 A3016 850 93 600 340/04 RMK AO2 RAE03 P0000
94908KDBQ DBQ20100925173511409/25/10 17:35:31  5-MIN KDBQ 252335Z 34004KT 10SM FEW012 OVC028 11/10 A3017 850 96 600 340/04 RMK AO2 RAE03 P0000
94908KDBQ DBQ20100925174010709/25/10 17:40:31  5-MIN KDBQ 252340Z 35004KT 10SM OVC026 11/10 A3017 850 96 600 350/04 RMK AO2 RAE03 P0000
94908KDBQ DBQ20100925174511409/25/10 17:45:31  5-MIN KDBQ 252345Z 36004KT 10SM BKN026 OVC036 11/10 A3017 850 96 600 360/04 RMK AO2 RAE03 P0000
94908KDBQ DBQ20100925175016209/25/10 17:50:31  5-MIN KDBQ 252350Z 35003KT 10SM BKN026 BKN036 OVC085 11/09 A3017 850 93 600 350/03 RMK AO2 RAE03 SLP220 P0000 60008 T01060094 10111 20106 50001
94908KDBQ DBQ20100925175510909/25/10 17:55:31  5-MIN KDBQ 252355Z 35004KT 10SM SCT026 BKN035 OVC085 11/09 A3017 850 93 600 340/04 RMK AO2
94908KDBQ DBQ20100925180010909/25/10 18:00:31  5-MIN KDBQ 260000Z 35004KT 10SM SCT026 BKN070 OVC085 11/09 A3017 850 93 600 350/04 RMK AO2
94908KDBQ DBQ20100925180510909/25/10 18:05:31  5-MIN KDBQ 260005Z 34004KT 10SM FEW023 BKN070 OVC090 11/09 A3017 850 93 600 340/04 RMK AO2
94908KDBQ DBQ20100925181010909/25/10 18:10:31  5-MIN KDBQ 260010Z 34004KT 10SM SCT038 BKN070 OVC090 11/09 A3017 850 93 600 340/04 RMK AO2
94908KDBQ DBQ20100925181510909/25/10 18:15:31  5-MIN KDBQ 260015Z 33003KT 10SM SCT038 BKN070 OVC090 11/09 A3017 850 93 600 330/03 RMK AO2
94908KDBQ DBQ20100925182010909/25/10 18:20:31  5-MIN KDBQ 260020Z 00000KT 10SM BKN038 BKN070 OVC095 11/09 A3017 850 93 600 000/00 RMK AO2
94908KDBQ DBQ20100925182510909/25/10 18:25:31  5-MIN KDBQ 260025Z 33003KT 10SM BKN038 BKN075 OVC100 11/09 A3017 850 93 600 330/03 RMK AO2
94908KDBQ DBQ20100925183010209/25/10 18:30:31  5-MIN KDBQ 260030Z 34003KT 10SM BKN040 OVC100 11/09 A3017 850 93 600 340/03 RMK AO2
94908KDBQ DBQ20100925183509509/25/10 18:35:31  5-MIN KDBQ 260035Z 34003KT 10SM OVC040 11/09 A3017 850 93 600 340/03 RMK AO2
94908KDBQ DBQ20100925184009509/25/10 18:40:31  5-MIN KDBQ 260040Z 34004KT 10SM BKN040 11/09 A3017 850 93 600 340/04 RMK AO2
94908KDBQ DBQ20100925184510209/25/10 18:45:31  5-MIN KDBQ 260045Z 34003KT 10SM BKN040 BKN120 11/09 A3017 850 93 600 340/03 RMK AO2
94908KDBQ DBQ20100925185011909/25/10 18:50:31  5-MIN KDBQ 260050Z 34003KT 10SM SCT042 SCT110 11/09 A3017 850 93 600 340/03 RMK AO2 SLP219 T01060094
94908KDBQ DBQ20100925185510209/25/10 18:55:31  5-MIN KDBQ 260055Z 34004KT 10SM FEW042 BKN100 11/09 A3017 850 93 600 330/04 RMK AO2
94908KDBQ DBQ20100925190010209/25/10 19:00:31  5-MIN KDBQ 260100Z 34003KT 10SM FEW042 BKN100 11/09 A3017 850 93 600 340/03 RMK AO2
94908KDBQ DBQ20100925190510009/25/10 19:05:31  5-MIN KDBQ 260105Z AUTO 34003KT 10SM BKN100 11/09 A3017 850 93 600 340/03 RMK AO2
94908KDBQ DBQ20100925191010009/25/10 19:10:31  5-MIN KDBQ 260110Z AUTO 34003KT 10SM BKN100 11/09 A3017 850 93 600 340/03 RMK AO2
94908KDBQ DBQ20100925191510009/25/10 19:15:31  5-MIN KDBQ 260115Z AUTO 35003KT 10SM OVC100 11/09 A3017 850 93 600 350/03 RMK AO2
94908KDBQ DBQ20100925192010009/25/10 19:20:31  5-MIN KDBQ 260120Z AUTO 36003KT 10SM OVC100 11/09 A3017 850 93 600 360/03 RMK AO2
94908KDBQ DBQ20100925192510009/25/10 19:25:31  5-MIN KDBQ 260125Z AUTO 01003KT 10SM OVC100 11/09 A3017 850 93 600 360/03 RMK AO2
94908KDBQ DBQ20100925193010009/25/10 19:30:31  5-MIN KDBQ 260130Z AUTO 00000KT 10SM OVC100 11/09 A3017 840 93 600 000/00 RMK AO2
94908KDBQ DBQ20100925193510009/25/10 19:35:31  5-MIN KDBQ 260135Z AUTO 00000KT 10SM OVC100 11/09 A3017 840 93 600 000/00 RMK AO2
94908KDBQ DBQ20100925194010009/25/10 19:40:31  5-MIN KDBQ 260140Z AUTO 01003KT 10SM OVC100 11/09 A3017 840 93 600 010/03 RMK AO2
94908KDBQ DBQ20100925194510009/25/10 19:45:31  5-MIN KDBQ 260145Z AUTO 00000KT 10SM BKN100 11/09 A3017 850 93 600 000/00 RMK AO2
94908KDBQ DBQ20100925195011709/25/10 19:50:31  5-MIN KDBQ 260150Z AUTO 01003KT 10SM BKN100 11/09 A3017 850 93 600 010/03 RMK AO2 SLP221 T01060094
94908KDBQ DBQ20100925195510009/25/10 19:55:31  5-MIN KDBQ 260155Z AUTO 02003KT 10SM BKN100 11/09 A3017 850 93 600 020/03 RMK AO2
94908KDBQ DBQ20100925200010009/25/10 20:00:31  5-MIN KDBQ 260200Z AUTO 01003KT 10SM BKN110 11/09 A3017 850 93 600 010/03 RMK AO2
94908KDBQ DBQ20100925200510009/25/10 20:05:31  5-MIN KDBQ 260205Z AUTO 02003KT 10SM BKN110 11/09 A3017 850 93 600 010/03 RMK AO2
94908KDBQ DBQ20100925201010009/25/10 20:10:31  5-MIN KDBQ 260210Z AUTO 02003KT 10SM BKN110 11/09 A3017 850 93 600 020/03 RMK AO2
94908KDBQ DBQ20100925201510009/25/10 20:15:31  5-MIN KDBQ 260215Z AUTO 01004KT 10SM BKN110 11/09 A3017 850 93 600 010/04 RMK AO2
94908KDBQ DBQ20100925202010009/25/10 20:20:31  5-MIN KDBQ 260220Z AUTO 01004KT 10SM BKN110 11/09 A3017 850 93 600 010/04 RMK AO2
94908KDBQ DBQ20100925202510009/25/10 20:25:31  5-MIN KDBQ 260225Z AUTO 01005KT 10SM OVC110 11/09 A3017 850 93 600 010/05 RMK AO2
94908KDBQ DBQ20100925203010009/25/10 20:30:31  5-MIN KDBQ 260230Z AUTO 01005KT 10SM OVC110 11/09 A3017 850 89 600 010/05 RMK AO2
94908KDBQ DBQ20100925203510009/25/10 20:35:31  5-MIN KDBQ 260235Z AUTO 02003KT 10SM BKN110 11/09 A3017 850 89 600 020/03 RMK AO2
94908KDBQ DBQ20100925204010009/25/10 20:40:31  5-MIN KDBQ 260240Z AUTO 01004KT 10SM BKN110 10/09 A3017 840 96 500 010/04 RMK AO2
94908KDBQ DBQ20100925204510009/25/10 20:45:31  5-MIN KDBQ 260245Z AUTO 01004KT 10SM SCT110 10/09 A3018 840 93 500 010/04 RMK AO2
94908KDBQ DBQ20100925205012309/25/10 20:50:31  5-MIN KDBQ 260250Z AUTO 01006KT 10SM SCT110 10/09 A3018 840 93 500 010/06 RMK AO2 SLP223 T01000089 51003
94908KDBQ DBQ20100925205510709/25/10 20:55:31  5-MIN KDBQ 260255Z AUTO 01005KT 10SM FEW043 SCT110 10/09 A3018 840 93 500 010/05 RMK AO2
94908KDBQ DBQ20100925210010709/25/10 21:00:31  5-MIN KDBQ 260300Z AUTO 01005KT 10SM FEW045 SCT110 10/09 A3018 840 93 500 360/05 RMK AO2
94908KDBQ DBQ20100925210510009/25/10 21:05:31  5-MIN KDBQ 260305Z AUTO 01005KT 10SM SCT047 10/09 A3018 840 93 500 010/05 RMK AO2
94908KDBQ DBQ20100925211010709/25/10 21:10:31  5-MIN KDBQ 260310Z AUTO 01005KT 10SM FEW036 BKN047 11/09 A3018 840 89 500 010/05 RMK AO2
94908KDBQ DBQ20100925211510709/25/10 21:15:31  5-MIN KDBQ 260315Z AUTO 01005KT 10SM SCT038 BKN047 11/09 A3019 830 89 500 010/05 RMK AO2
94908KDBQ DBQ20100925212010709/25/10 21:20:31  5-MIN KDBQ 260320Z AUTO 01005KT 10SM SCT038 BKN047 11/09 A3019 830 89 500 010/05 RMK AO2
94908KDBQ DBQ20100925212510709/25/10 21:25:31  5-MIN KDBQ 260325Z AUTO 01005KT 10SM FEW038 OVC047 11/09 A3019 830 89 500 010/05 RMK AO2
94908KDBQ DBQ20100925213010709/25/10 21:30:31  5-MIN KDBQ 260330Z AUTO 02004KT 10SM SCT038 OVC047 11/09 A3019 830 89 500 020/04 RMK AO2
94908KDBQ DBQ20100925213510709/25/10 21:35:31  5-MIN KDBQ 260335Z AUTO 04004KT 10SM BKN039 OVC047 11/09 A3019 830 89 500 040/04 RMK AO2
94908KDBQ DBQ20100925214010009/25/10 21:40:31  5-MIN KDBQ 260340Z AUTO 04004KT 10SM OVC042 11/09 A3019 830 89 500 040/04 RMK AO2
94908KDBQ DBQ20100925214510009/25/10 21:45:31  5-MIN KDBQ 260345Z AUTO 03004KT 10SM BKN042 09/08 A3019 830 93 400 020/04 RMK AO2
94908KDBQ DBQ20100925215011709/25/10 21:50:31  5-MIN KDBQ 260350Z AUTO 03004KT 10SM BKN042 10/08 A3019 830 89 500 030/04 RMK AO2 SLP227 T01000083
94908KDBQ DBQ20100925215510009/25/10 21:55:31  5-MIN KDBQ 260355Z AUTO 04004KT 10SM SCT042 10/08 A3019 830 89 500 040/04 RMK AO2
94908KDBQ DBQ20100925220010009/25/10 22:00:31  5-MIN KDBQ 260400Z AUTO 03004KT 10SM FEW042 09/08 A3019 830 93 400 030/04 RMK AO2
94908KDBQ DBQ20100925220510009/25/10 22:05:31  5-MIN KDBQ 260405Z AUTO 02004KT 10SM FEW042 09/08 A3020 820 93 400 020/04 RMK AO2
94908KDBQ DBQ20100925221009709/25/10 22:10:31  5-MIN KDBQ 260410Z AUTO 02003KT 10SM CLR 09/08 A3020 820 93 400 020/03 RMK AO2
94908KDBQ DBQ20100925221509709/25/10 22:15:31  5-MIN KDBQ 260415Z AUTO 02003KT 10SM CLR 09/08 A3020 820 89 400 020/03 RMK AO2
94908KDBQ DBQ20100925222009709/25/10 22:20:31  5-MIN KDBQ 260420Z AUTO 03003KT 10SM CLR 09/08 A3020 820 89 400 020/03 RMK AO2
94908KDBQ DBQ20100925222509709/25/10 22:25:31  5-MIN KDBQ 260425Z AUTO 01004KT 10SM CLR 09/08 A3020 820 89 400 010/04 RMK AO2
94908KDBQ DBQ20100925223009709/25/10 22:30:31  5-MIN KDBQ 260430Z AUTO 36005KT 10SM CLR 09/08 A3020 820 89 400 360/05 RMK AO2
94908KDBQ DBQ20100925223509709/25/10 22:35:31  5-MIN KDBQ 260435Z AUTO 36005KT 10SM CLR 09/08 A3020 820 93 300 360/05 RMK AO2
94908KDBQ DBQ20100925224009709/25/10 22:40:31  5-MIN KDBQ 260440Z AUTO 01005KT 10SM CLR 09/08 A3019 830 89 400 010/05 RMK AO2
94908KDBQ DBQ20100925224509709/25/10 22:45:31  5-MIN KDBQ 260445Z AUTO 02004KT 10SM CLR 09/08 A3019 830 89 400 020/04 RMK AO2
94908KDBQ DBQ20100925225011409/25/10 22:50:31  5-MIN KDBQ 260450Z AUTO 02004KT 10SM CLR 09/08 A3019 830 89 400 020/04 RMK AO2 SLP227 T00940078
94908KDBQ DBQ20100925225509709/25/10 22:55:31  5-MIN KDBQ 260455Z AUTO 01003KT 10SM CLR 09/08 A3019 830 89 400 010/03 RMK AO2
94908KDBQ DBQ20100925230009709/25/10 23:00:31  5-MIN KDBQ 260500Z AUTO 01003KT 10SM CLR 09/08 A3018 830 89 400 010/03 RMK AO2
94908KDBQ DBQ20100925230509709/25/10 23:05:31  5-MIN KDBQ 260505Z AUTO 01003KT 10SM CLR 09/08 A3019 830 89 400 360/03 RMK AO2
94908KDBQ DBQ20100925231009709/25/10 23:10:31  5-MIN KDBQ 260510Z AUTO 34005KT 10SM CLR 09/08 A3018 830 93 300 340/05 RMK AO2
94908KDBQ DBQ20100925231509709/25/10 23:15:31  5-MIN KDBQ 260515Z AUTO 34006KT 10SM CLR 08/07 A3018 840 93 300 340/06 RMK AO2
94908KDBQ DBQ20100925232009709/25/10 23:20:31  5-MIN KDBQ 260520Z AUTO 36005KT 10SM CLR 08/07 A3018 840 93 300 360/05 RMK AO2
94908KDBQ DBQ20100925232509709/25/10 23:25:31  5-MIN KDBQ 260525Z AUTO 35004KT 10SM CLR 08/07 A3018 840 93 300 350/04 RMK AO2
94908KDBQ DBQ20100925233009709/25/10 23:30:31  5-MIN KDBQ 260530Z AUTO 36005KT 10SM CLR 08/07 A3018 840 93 300 350/05 RMK AO2
94908KDBQ DBQ20100925233509709/25/10 23:35:31  5-MIN KDBQ 260535Z AUTO 35004KT 10SM CLR 08/07 A3018 840 93 300 350/04 RMK AO2
94908KDBQ DBQ20100925234009709/25/10 23:40:31  5-MIN KDBQ 260540Z AUTO 36005KT 10SM CLR 08/07 A3018 840 93 300 360/05 RMK AO2
94908KDBQ DBQ20100925234509709/25/10 23:45:31  5-MIN KDBQ 260545Z AUTO 01004KT 10SM CLR 08/07 A3017 850 96 200 010/04 RMK AO2
94908KDBQ DBQ20100925235014709/25/10 23:50:31  5-MIN KDBQ 260550Z AUTO 02003KT 10SM CLR 08/07 A3017 850 93 200 020/03 RMK AO2 SLP220 T00780067 10106 20078 401170078 53003 TSNO
94908KDBQ DBQ20100925235510209/25/10 23:55:31  5-MIN KDBQ 260555Z AUTO 04003KT 10SM CLR 08/07 A3017 850 93 300 040/03 RMK AO2 TSNO
94908KDBQ DBQ20100926000010209/26/10 00:00:38  5-MIN KDBQ 260600Z AUTO 02003KT 10SM CLR 08/07 A3017 850 93 300 020/03 RMK AO2 TSNO
94908KDBQ DBQ20100926000510209/26/10 00:05:31  5-MIN KDBQ 260605Z AUTO 01003KT 10SM CLR 08/07 A3017 850 93 200 010/03 RMK AO2 TSNO
94908KDBQ DBQ20100926001010209/26/10 00:10:31  5-MIN KDBQ 260610Z AUTO 01003KT 10SM CLR 07/06 A3017 850 93 200 010/03 RMK AO2 TSNO
94908KDBQ DBQ20100926001510209/26/10 00:15:32  5-MIN KDBQ 260615Z AUTO 04003KT 10SM CLR 07/06 A3016 850 93 200 040/03 RMK AO2 TSNO
94908KDBQ DBQ20100926002010209/26/10 00:20:31  5-MIN KDBQ 260620Z AUTO 05003KT 10SM CLR 08/07 A3016 850 93 200 050/03 RMK AO2 TSNO
94908KDBQ DBQ20100926002510209/26/10 00:25:31  5-MIN KDBQ 260625Z AUTO 04003KT 10SM CLR 07/06 A3016 850 93 200 040/03 RMK AO2 TSNO
94908KDBQ DBQ20100926003010209/26/10 00:30:31  5-MIN KDBQ 260630Z AUTO 04004KT 10SM CLR 07/06 A3016 850 96 100 040/04 RMK AO2 TSNO
94908KDBQ DBQ20100926003510209/26/10 00:35:31  5-MIN KDBQ 260635Z AUTO 03003KT 10SM CLR 07/06 A3017 850 96 100 030/03 RMK AO2 TSNO
94908KDBQ DBQ20100926004010209/26/10 00:40:31  5-MIN KDBQ 260640Z AUTO 02004KT 10SM CLR 07/06 A3017 850 96 100 020/04 RMK AO2 TSNO
94908KDBQ DBQ20100926004510209/26/10 00:45:31  5-MIN KDBQ 260645Z AUTO 01004KT 10SM CLR 07/06 A3017 850 93 200 010/04 RMK AO2 TSNO
94908KDBQ DBQ20100926005011909/26/10 00:50:31  5-MIN KDBQ 260650Z AUTO 01005KT 10SM CLR 07/06 A3018 840 96 100 010/05 RMK AO2 SLP224 T00670061 TSNO
94908KDBQ DBQ20100926005510209/26/10 00:55:31  5-MIN KDBQ 260655Z AUTO 36005KT 10SM CLR 07/06 A3018 840 96 100 360/05 RMK AO2 TSNO
94908KDBQ DBQ20100926010010209/26/10 01:00:31  5-MIN KDBQ 260700Z AUTO 35006KT 10SM CLR 07/06 A3018 840 96 100 350/06 RMK AO2 TSNO
94908KDBQ DBQ20100926010510209/26/10 01:05:31  5-MIN KDBQ 260705Z AUTO 35006KT 10SM CLR 07/06 A3018 840 93 100 350/06 RMK AO2 TSNO
94908KDBQ DBQ20100926011010009/26/10 01:10:31  5-MIN KDBQ 260710Z AUTO 34006KT 10SM CLR 06/06 A3019 830 96 0 340/06 RMK AO2 TSNO
94908KDBQ DBQ20100926011510209/26/10 01:15:31  5-MIN KDBQ 260715Z AUTO 35006KT 10SM CLR 07/06 A3019 830 93 100 350/06 RMK AO2 TSNO
94908KDBQ DBQ20100926012010209/26/10 01:20:31  5-MIN KDBQ 260720Z AUTO 36005KT 10SM CLR 07/06 A3019 830 96 100 350/05 RMK AO2 TSNO
94908KDBQ DBQ20100926012510209/26/10 01:25:31  5-MIN KDBQ 260725Z AUTO 01004KT 10SM CLR 07/06 A3018 830 93 100 010/04 RMK AO2 TSNO
94908KDBQ DBQ20100926013010209/26/10 01:30:31  5-MIN KDBQ 260730Z AUTO 01006KT 10SM CLR 07/06 A3018 840 93 100 010/06 RMK AO2 TSNO
94908KDBQ DBQ20100926013510209/26/10 01:35:31  5-MIN KDBQ 260735Z AUTO 01006KT 10SM CLR 07/06 A3018 840 96 100 010/06 RMK AO2 TSNO
94908KDBQ DBQ20100926014010209/26/10 01:40:31  5-MIN KDBQ 260740Z AUTO 01005KT 10SM CLR 07/06 A3018 840 93 100 010/05 RMK AO2 TSNO
94908KDBQ DBQ20100926014510209/26/10 01:45:31  5-MIN KDBQ 260745Z AUTO 01005KT 10SM CLR 07/06 A3018 840 93 100 010/05 RMK AO2 TSNO
94908KDBQ DBQ20100926015011909/26/10 01:50:31  5-MIN KDBQ 260750Z AUTO 01005KT 10SM CLR 07/06 A3018 840 93 100 010/05 RMK AO2 SLP226 T00720061 TSNO
94908KDBQ DBQ20100926015510209/26/10 01:55:31  5-MIN KDBQ 260755Z AUTO 01005KT 10SM CLR 07/06 A3018 840 96 100 010/05 RMK AO2 TSNO
94908KDBQ DBQ20100926020010209/26/10 02:00:31  5-MIN KDBQ 260800Z AUTO 02004KT 10SM CLR 07/06 A3018 840 93 100 020/04 RMK AO2 TSNO
94908KDBQ DBQ20100926020509709/26/10 02:05:31  5-MIN KDBQ 260805Z AUTO 02004KT 10SM CLR 07/06 A3018 840 93 100 020/04 RMK AO2
94908KDBQ DBQ20100926021009709/26/10 02:10:31  5-MIN KDBQ 260810Z AUTO 03003KT 10SM CLR 07/06 A3018 840 93 100 030/03 RMK AO2
94908KDBQ DBQ20100926021509709/26/10 02:15:31  5-MIN KDBQ 260815Z AUTO 00000KT 10SM CLR 07/06 A3018 840 93 100 000/00 RMK AO2
94908KDBQ DBQ20100926022009509/26/10 02:20:31  5-MIN KDBQ 260820Z AUTO 00000KT 10SM CLR 06/06 A3018 840 96 0 000/00 RMK AO2
94908KDBQ DBQ20100926022509509/26/10 02:25:31  5-MIN KDBQ 260825Z AUTO 00000KT 10SM CLR 06/06 A3018 840 96 0 000/00 RMK AO2
94908KDBQ DBQ20100926023009509/26/10 02:30:31  5-MIN KDBQ 260830Z AUTO 00000KT 10SM CLR 06/06 A3018 840 96 0 000/00 RMK AO2
94908KDBQ DBQ20100926023509509/26/10 02:35:31  5-MIN KDBQ 260835Z AUTO 01003KT 10SM CLR 06/05 A3018 840 93 0 010/03 RMK AO2
94908KDBQ DBQ20100926024009509/26/10 02:40:31  5-MIN KDBQ 260840Z AUTO 02004KT 10SM CLR 06/05 A3018 840 93 0 020/04 RMK AO2
94908KDBQ DBQ20100926024509509/26/10 02:45:31  5-MIN KDBQ 260845Z AUTO 03005KT 10SM CLR 06/05 A3018 840 93 0 020/05 RMK AO2
94908KDBQ DBQ20100926025012009/26/10 02:50:31  5-MIN KDBQ 260850Z AUTO 02005KT 10SM CLR 07/06 A3018 840 93 100 020/05 RMK AO2 SLP224 T00670056 58004
94908KDBQ DBQ20100926025509709/26/10 02:55:31  5-MIN KDBQ 260855Z AUTO 02004KT 10SM CLR 07/06 A3017 840 93 100 020/04 RMK AO2
94908KDBQ DBQ20100926030009709/26/10 03:00:31  5-MIN KDBQ 260900Z AUTO 02003KT 10SM CLR 07/06 A3017 840 93 100 020/03 RMK AO2
94908KDBQ DBQ20100926030509509/26/10 03:05:31  5-MIN KDBQ 260905Z AUTO 00000KT 10SM CLR 06/04 A3017 840 92 0 000/00 RMK AO2
94908KDBQ DBQ20100926031009509/26/10 03:10:31  5-MIN KDBQ 260910Z AUTO 00000KT 10SM CLR 06/05 A3018 840 96 0 000/00 RMK AO2
94908KDBQ DBQ20100926031509509/26/10 03:15:31  5-MIN KDBQ 260915Z AUTO 00000KT 10SM CLR 06/05 A3018 840 93 0 000/00 RMK AO2
94908KDBQ DBQ20100926032009509/26/10 03:20:31  5-MIN KDBQ 260920Z AUTO 00000KT 10SM CLR 06/05 A3017 840 93 0 000/00 RMK AO2
94908KDBQ DBQ20100926032509509/26/10 03:25:31  5-MIN KDBQ 260925Z AUTO 00000KT 10SM CLR 06/05 A3017 840 93 0 000/00 RMK AO2
94908KDBQ DBQ20100926033009509/26/10 03:30:31  5-MIN KDBQ 260930Z AUTO 00000KT 10SM CLR 06/04 A3017 850 92 0 000/00 RMK AO2
94908KDBQ DBQ20100926033509709/26/10 03:35:31  5-MIN KDBQ 260935Z AUTO 00000KT 9SM CLR 05/04 A3018 840 96 -100 000/00 RMK AO2
94908KDBQ DBQ20100926034009709/26/10 03:40:31  5-MIN KDBQ 260940Z AUTO 00000KT 9SM CLR 05/04 A3018 840 92 -100 000/00 RMK AO2
94908KDBQ DBQ20100926034509709/26/10 03:45:31  5-MIN KDBQ 260945Z AUTO 00000KT 9SM CLR 04/04 A3018 840 96 -100 000/00 RMK AO2
94908KDBQ DBQ20100926035011409/26/10 03:50:31  5-MIN KDBQ 260950Z AUTO 00000KT 7SM CLR 04/04 A3018 840 96 -100 000/00 RMK AO2 SLP226 T00440039
94908KDBQ DBQ20100926035509709/26/10 03:55:31  5-MIN KDBQ 260955Z AUTO 00000KT 7SM CLR 05/04 A3018 840 96 -100 000/00 RMK AO2
94908KDBQ DBQ20100926040009709/26/10 04:00:31  5-MIN KDBQ 261000Z AUTO 00000KT 9SM CLR 05/04 A3019 830 96 -100 000/00 RMK AO2
94908KDBQ DBQ20100926040509809/26/10 04:05:31  5-MIN KDBQ 261005Z AUTO 00000KT 9SM CLR 04/04 A3019 830 100 -200 000/00 RMK AO2
94908KDBQ DBQ20100926041009709/26/10 04:10:31  5-MIN KDBQ 261010Z AUTO 32003KT 9SM CLR 05/04 A3019 830 96 -100 320/03 RMK AO2
94908KDBQ DBQ20100926041509909/26/10 04:15:31  5-MIN KDBQ 261015Z AUTO 35003KT 10SM CLR 05/05 A3020 820 100 -100 350/03 RMK AO2
94908KDBQ DBQ20100926042009809/26/10 04:20:31  5-MIN KDBQ 261020Z AUTO 34006KT 10SM CLR 05/04 A3020 820 96 -100 340/06 RMK AO2
94908KDBQ DBQ20100926042509809/26/10 04:25:31  5-MIN KDBQ 261025Z AUTO 35005KT 10SM CLR 05/04 A3020 820 96 -100 350/05 RMK AO2
94908KDBQ DBQ20100926043009509/26/10 04:30:31  5-MIN KDBQ 261030Z AUTO 35005KT 10SM CLR 06/05 A3020 820 96 0 350/05 RMK AO2
94908KDBQ DBQ20100926043509509/26/10 04:35:31  5-MIN KDBQ 261035Z AUTO 34005KT 10SM CLR 06/05 A3020 820 96 0 340/05 RMK AO2
94908KDBQ DBQ20100926044009509/26/10 04:40:31  5-MIN KDBQ 261040Z AUTO 35003KT 10SM CLR 06/04 A3021 820 92 0 350/03 RMK AO2
94908KDBQ DBQ20100926044509509/26/10 04:45:31  5-MIN KDBQ 261045Z AUTO 00000KT 10SM CLR 06/04 A3020 820 92 0 000/00 RMK AO2
94908KDBQ DBQ20100926045010709/26/10 04:50:31  5-MIN KDBQ 261050Z 00000KT 10SM CLR 06/05 A3021 810 96 0 000/00 RMK AO2 SLP234 T00560050
94908KDBQ DBQ20100926045509009/26/10 04:55:31  5-MIN KDBQ 261055Z 00000KT 10SM CLR 06/05 A3021 810 96 0 000/00 RMK AO2
94908KDBQ DBQ20100926050009009/26/10 05:00:31  5-MIN KDBQ 261100Z 00000KT 10SM CLR 06/04 A3021 810 92 0 000/00 RMK AO2
94908KDBQ DBQ20100926050509009/26/10 05:05:31  5-MIN KDBQ 261105Z 35003KT 10SM CLR 06/04 A3021 810 92 0 350/03 RMK AO2
94908KDBQ DBQ20100926051009009/26/10 05:10:31  5-MIN KDBQ 261110Z 35004KT 10SM CLR 06/04 A3021 810 92 0 350/04 RMK AO2
94908KDBQ DBQ20100926051509009/26/10 05:15:31  5-MIN KDBQ 261115Z 36004KT 10SM CLR 06/05 A3021 810 93 0 360/04 RMK AO2
94908KDBQ DBQ20100926052009009/26/10 05:20:31  5-MIN KDBQ 261120Z 01003KT 10SM CLR 06/05 A3021 810 93 0 010/03 RMK AO2
94908KDBQ DBQ20100926052509009/26/10 05:25:31  5-MIN KDBQ 261125Z 00000KT 10SM CLR 06/06 A3021 810 96 0 000/00 RMK AO2
94908KDBQ DBQ20100926053009009/26/10 05:30:31  5-MIN KDBQ 261130Z 02003KT 10SM CLR 06/06 A3021 810 96 0 010/03 RMK AO2
94908KDBQ DBQ20100926053509009/26/10 05:35:31  5-MIN KDBQ 261135Z 01005KT 10SM CLR 06/06 A3021 810 96 0 010/05 RMK AO2
94908KDBQ DBQ20100926054009009/26/10 05:40:31  5-MIN KDBQ 261140Z 01004KT 10SM CLR 06/05 A3021 810 96 0 010/04 RMK AO2
94908KDBQ DBQ20100926054509009/26/10 05:45:31  5-MIN KDBQ 261145Z 01003KT 10SM CLR 06/05 A3021 810 96 0 010/03 RMK AO2
94908KDBQ DBQ20100926055013309/26/10 05:50:31  5-MIN KDBQ 261150Z 01003KT 9SM CLR 06/05 A3022 810 96 -100 010/03 RMK AO2 SLP238 70009 T00560050 10083 20044 50003
94908KDBQ DBQ20100926055509209/26/10 05:55:31  5-MIN KDBQ 261155Z 36005KT 8SM CLR 06/05 A3022 800 96 -100 360/05 RMK AO2
94908KDBQ DBQ20100926060009209/26/10 06:00:31  5-MIN KDBQ 261200Z 36006KT 7SM CLR 06/05 A3022 810 96 -100 360/06 RMK AO2
94908KDBQ DBQ20100926060509509/26/10 06:05:31  5-MIN KDBQ 261205Z 36005KT 6SM BR FEW002 06/05 A3021 810 96 0 360/05 RMK AO2
94908KDBQ DBQ20100926061009509/26/10 06:10:31  5-MIN KDBQ 261210Z 01004KT 4SM BR SCT002 06/05 A3021 810 96 0 010/04 RMK AO2
94908KDBQ DBQ20100926061509609/26/10 06:15:31  5-MIN KDBQ 261215Z 01003KT 4SM BR BKN002 06/06 A3021 810 100 0 360/03 RMK AO2
94908KDBQ DBQ20100926062011309/26/10 06:20:31  5-MIN KDBQ 261220Z 01004KT 4SM R36/3500VP6000FT BR BKN002 06/06 A3021 810 100 0 360/04 RMK AO2
94908KDBQ DBQ20100926062511309/26/10 06:25:31  5-MIN KDBQ 261225Z 01004KT 4SM R36/2800VP6000FT BR BKN002 06/06 A3021 810 100 0 010/04 RMK AO2
94908KDBQ DBQ20100926063012309/26/10 06:30:31  5-MIN KDBQ 261230Z 01003KT 5SM R36/1800V4000FT BR OVC002 06/06 A3021 810 96 0 010/03 RMK AO2 CIG 001V004
94908KDBQ DBQ20100926063512309/26/10 06:35:31  5-MIN KDBQ 261235Z 01005KT 5SM R36/1800V3500FT BR OVC002 06/06 A3021 810 96 0 010/05 RMK AO2 CIG 001V004
94908KDBQ DBQ20100926064011309/26/10 06:40:31  5-MIN KDBQ 261240Z 01005KT 6SM R36/2600VP6000FT BR OVC002 06/06 A3022 800 100 0 010/05 RMK AO2
94908KDBQ DBQ20100926064511209/26/10 06:45:31  5-MIN KDBQ 261245Z 02007KT 5SM R36/4000VP6000FT BR OVC002 07/06 A3022 800 96 0 010/07 RMK AO2
94908KDBQ DBQ20100926065011209/26/10 06:50:31  5-MIN KDBQ 261250Z 02006KT 5SM BR OVC002 07/06 A3022 800 96 0 020/06 RMK AO2 SLP239 T00670061
94908KDBQ DBQ20100926065509509/26/10 06:55:31  5-MIN KDBQ 261255Z 02006KT 5SM BR OVC002 07/06 A3022 800 96 0 020/06 RMK AO2
94908KDBQ DBQ20100926070009509/26/10 07:00:31  5-MIN KDBQ 261300Z 02005KT 5SM BR OVC002 07/06 A3022 810 96 0 020/05 RMK AO2
94908KDBQ DBQ20100926070509509/26/10 07:05:31  5-MIN KDBQ 261305Z 03005KT 4SM BR OVC002 07/06 A3022 810 96 0 030/05 RMK AO2
94908KDBQ DBQ20100926071009509/26/10 07:10:31  5-MIN KDBQ 261310Z 03005KT 4SM BR OVC002 07/06 A3021 810 96 0 030/05 RMK AO2
94908KDBQ DBQ20100926071509609/26/10 07:15:31  5-MIN KDBQ 261315Z 03004KT 4SM BR OVC002 07/07 A3021 810 100 0 030/04 RMK AO2
94908KDBQ DBQ20100926072009709/26/10 07:20:31  5-MIN KDBQ 261320Z 04005KT 4SM BR OVC002 07/07 A3022 810 96 100 040/05 RMK AO2
94908KDBQ DBQ20100926072509509/26/10 07:25:31  5-MIN KDBQ 261325Z 05005KT 4SM BR OVC002 07/06 A3021 810 96 0 050/05 RMK AO2
94908KDBQ DBQ20100926073009709/26/10 07:30:31  5-MIN KDBQ 261330Z 05005KT 4SM BR OVC002 07/07 A3021 810 96 100 050/05 RMK AO2
94908KDBQ DBQ20100926073509709/26/10 07:35:31  5-MIN KDBQ 261335Z 05006KT 3SM BR OVC002 07/07 A3021 810 96 100 050/06 RMK AO2
94908KDBQ DBQ20100926074009709/26/10 07:40:31  5-MIN KDBQ 261340Z 05005KT 3SM BR OVC002 07/07 A3021 810 96 100 050/05 RMK AO2
94908KDBQ DBQ20100926074509709/26/10 07:45:31  5-MIN KDBQ 261345Z 05005KT 3SM BR OVC002 07/07 A3022 810 96 100 050/05 RMK AO2
94908KDBQ DBQ20100926075011409/26/10 07:50:31  5-MIN KDBQ 261350Z 03007KT 3SM BR OVC002 08/07 A3022 800 96 200 030/07 RMK AO2 SLP238 T00780072
94908KDBQ DBQ20100926075509709/26/10 07:55:31  5-MIN KDBQ 261355Z 03007KT 3SM BR OVC002 07/07 A3022 800 96 100 030/07 RMK AO2
94908KDBQ DBQ20100926080010109/26/10 08:00:31  5-MIN KDBQ 261400Z 04005KT 2 1/2SM BR OVC002 07/07 A3021 810 96 100 040/05 RMK AO2
94908KDBQ DBQ20100926080511409/26/10 08:05:31  5-MIN KDBQ 261405Z 04006KT 2SM R36/6000VP6000FT BR OVC002 07/07 A3021 810 96 100 040/06 RMK AO2
94908KDBQ DBQ20100926081011809/26/10 08:10:31  5-MIN KDBQ 261410Z 05005KT 1 3/4SM R36/6000VP6000FT BR OVC002 08/07 A3022 800 93 200 040/05 RMK AO2
94908KDBQ DBQ20100926081511809/26/10 08:15:31  5-MIN KDBQ 261415Z 02006KT 1 1/4SM R36/6000VP6000FT BR OVC002 08/07 A3022 800 96 200 020/06 RMK AO2
94908KDBQ DBQ20100926082011709/26/10 08:20:31  5-MIN KDBQ 261420Z 03006KT 3/4SM R36/1400VP6000FT BR OVC002 07/07 A3022 800 100 100 030/06 RMK AO2
94908KDBQ DBQ20100926082511509/26/10 08:25:31  5-MIN KDBQ 261425Z 04004KT 1/2SM R36/1400V5000FT FG OVC002 08/07 A3022 800 96 200 040/04 RMK AO2
94908KDBQ DBQ20100926083011809/26/10 08:30:31  5-MIN KDBQ 261430Z 04005KT 1 1/2SM R36/2400VP6000FT BR OVC002 08/07 A3022 800 96 200 040/05 RMK AO2
94908KDBQ DBQ20100926083510109/26/10 08:35:31  5-MIN KDBQ 261435Z 03005KT 1 1/2SM BR OVC002 08/07 A3022 800 96 200 030/05 RMK AO2
94908KDBQ DBQ20100926084010109/26/10 08:40:31  5-MIN KDBQ 261440Z 04005KT 1 1/2SM BR OVC002 08/08 A3023 800 96 200 040/05 RMK AO2
94908KDBQ DBQ20100926084509709/26/10 08:45:31  5-MIN KDBQ 261445Z 05007KT 4SM BR OVC002 08/08 A3023 800 96 200 050/07 RMK AO2
94908KDBQ DBQ20100926085012009/26/10 08:50:31  5-MIN KDBQ 261450Z 04007KT 4SM BR OVC002 08/08 A3022 800 96 200 040/07 RMK AO2 SLP240 T00830078 53002
94908KDBQ DBQ20100926085509709/26/10 08:55:31  5-MIN KDBQ 261455Z 02005KT 5SM BR OVC002 09/08 A3023 800 93 300 020/05 RMK AO2
94908KDBQ DBQ20100926090010909/26/10 09:00:31  5-MIN KDBQ 261500Z 02007KT 6SM BR OVC002 09/08 A3023 790 93 300 020/07 RMK AO2 CIG 001V007
94908KDBQ DBQ20100926090510609/26/10 09:05:31  5-MIN KDBQ 261505Z 02007KT 7SM OVC004 09/08 A3023 790 93 400 020/07 RMK AO2 CIG 002V007
94908KDBQ DBQ20100926091010609/26/10 09:10:31  5-MIN KDBQ 261510Z 03007KT 7SM OVC004 10/08 A3023 800 89 400 020/07 RMK AO2 CIG 002V007
94908KDBQ DBQ20100926091510609/26/10 09:15:31  5-MIN KDBQ 261515Z 02006KT 8SM BKN004 10/08 A3022 800 89 400 020/06 RMK AO2 CIG 002V009
94908KDBQ DBQ20100926092010609/26/10 09:20:31  5-MIN KDBQ 261520Z 03006KT 8SM BKN004 10/08 A3022 800 89 400 030/06 RMK AO2 CIG 003V009
94908KDBQ DBQ20100926092509409/26/10 09:25:31  5-MIN KDBQ 261525Z 04005KT 9SM SCT006 10/08 A3022 800 89 400 030/05 RMK AO2
94908KDBQ DBQ20100926093009509/26/10 09:30:31  5-MIN KDBQ 261530Z 04004KT 10SM SCT006 11/08 A3022 800 86 500 040/04 RMK AO2
94908KDBQ DBQ20100926093509509/26/10 09:35:31  5-MIN KDBQ 261535Z 02005KT 10SM FEW006 11/08 A3022 800 83 600 020/05 RMK AO2
94908KDBQ DBQ20100926094009209/26/10 09:40:31  5-MIN KDBQ 261540Z 03008KT 10SM CLR 11/08 A3023 800 83 600 030/08 RMK AO2
94908KDBQ DBQ20100926094509209/26/10 09:45:31  5-MIN KDBQ 261545Z 05004KT 10SM CLR 11/08 A3023 800 83 600 050/04 RMK AO2
94908KDBQ DBQ20100926095010909/26/10 09:50:31  5-MIN KDBQ 261550Z 05004KT 10SM CLR 12/08 A3022 800 80 600 050/04 RMK AO2 SLP238 T01170083
94908KDBQ DBQ20100926095509509/26/10 09:55:31  5-MIN KDBQ 261555Z 04005KT 10SM FEW012 12/08 A3022 800 80 600 040/05 RMK AO2
94908KDBQ DBQ20100926100009509/26/10 10:00:31  5-MIN KDBQ 261600Z 02005KT 10SM FEW012 11/08 A3022 800 83 600 020/05 RMK AO2
94908KDBQ DBQ20100926100509509/26/10 10:05:31  5-MIN KDBQ 261605Z 03005KT 10SM FEW012 11/08 A3023 800 80 600 030/05 RMK AO2
94908KDBQ DBQ20100926101009509/26/10 10:10:31  5-MIN KDBQ 261610Z 02005KT 10SM FEW014 12/08 A3022 800 80 600 020/05 RMK AO2
94908KDBQ DBQ20100926101510209/26/10 10:15:31  5-MIN KDBQ 261615Z 03005KT 10SM FEW014 SCT021 12/08 A3022 800 77 700 030/05 RMK AO2
94908KDBQ DBQ20100926102010209/26/10 10:20:31  5-MIN KDBQ 261620Z 03006KT 10SM SCT014 SCT021 12/08 A3022 800 77 700 030/06 RMK AO2
94908KDBQ DBQ20100926102509509/26/10 10:25:31  5-MIN KDBQ 261625Z 02006KT 10SM SCT017 12/08 A3022 800 74 700 020/06 RMK AO2
94908KDBQ DBQ20100926103009509/26/10 10:30:31  5-MIN KDBQ 261630Z 06006KT 10SM FEW017 12/08 A3022 800 74 700 060/06 RMK AO2
94908KDBQ DBQ20100926103509509/26/10 10:35:31  5-MIN KDBQ 261635Z 04006KT 10SM FEW017 13/08 A3022 810 71 800 040/06 RMK AO2
94908KDBQ DBQ20100926104009509/26/10 10:40:31  5-MIN KDBQ 261640Z 04004KT 10SM FEW017 13/08 A3022 810 71 800 040/04 RMK AO2
94908KDBQ DBQ20100926104509509/26/10 10:45:31  5-MIN KDBQ 261645Z VRB03KT 10SM FEW019 13/08 A3021 810 69 800 VRB/03 RMK AO2
94908KDBQ DBQ20100926105011209/26/10 10:50:31  5-MIN KDBQ 261650Z 00000KT 10SM FEW023 13/08 A3021 810 71 800 000/00 RMK AO2 SLP234 T01280078
94908KDBQ DBQ20100926105509509/26/10 10:55:31  5-MIN KDBQ 261655Z 03006KT 10SM SCT023 13/08 A3021 810 71 800 030/06 RMK AO2
94908KDBQ DBQ20100926110010209/26/10 11:00:31  5-MIN KDBQ 261700Z 01006KT 10SM SCT023 SCT027 14/08 A3021 810 69 900 010/06 RMK AO2
94908KDBQ DBQ20100926110510209/26/10 11:05:31  5-MIN KDBQ 261705Z 01006KT 10SM SCT023 SCT027 13/08 A3021 820 69 800 010/06 RMK AO2
94908KDBQ DBQ20100926111010209/26/10 11:10:31  5-MIN KDBQ 261710Z 07003KT 10SM SCT023 SCT030 13/07 A3020 820 69 800 070/03 RMK AO2
94908KDBQ DBQ20100926111510209/26/10 11:15:31  5-MIN KDBQ 261715Z 03006KT 10SM SCT023 BKN030 13/08 A3020 820 69 900 030/06 RMK AO2
94908KDBQ DBQ20100926112010209/26/10 11:20:31  5-MIN KDBQ 261720Z 05006KT 10SM FEW023 BKN030 13/07 A3020 820 69 800 050/06 RMK AO2
94908KDBQ DBQ20100926112509509/26/10 11:25:31  5-MIN KDBQ 261725Z VRB05KT 10SM SCT028 14/07 A3020 820 64 900 VRB/05 RMK AO2
94908KDBQ DBQ20100926113009609/26/10 11:30:31  5-MIN KDBQ 261730Z 04007KT 10SM SCT028 14/07 A3020 820 61 1000 040/07 RMK AO2
94908KDBQ DBQ20100926113509609/26/10 11:35:31  5-MIN KDBQ 261735Z 03006KT 10SM SCT028 14/07 A3020 820 59 1000 030/06 RMK AO2
94908KDBQ DBQ20100926114009609/26/10 11:40:31  5-MIN KDBQ 261740Z 02004KT 10SM SCT028 14/07 A3020 820 61 1000 010/04 RMK AO2
94908KDBQ DBQ20100926114509609/26/10 11:45:31  5-MIN KDBQ 261745Z 03006KT 10SM BKN034 15/07 A3020 820 59 1100 030/06 RMK AO2
94908KDBQ DBQ20100926115013109/26/10 11:50:31  5-MIN KDBQ 261750Z VRB06KT 10SM BKN036 15/07 A3020 820 57 1100 VRB/06 RMK AO2 SLP229 T01500067 10150 20056 53002
94908KDBQ DBQ20100926115510209/26/10 11:55:31  5-MIN KDBQ 261755Z 05010G17KT 10SM OVC036 14/07 A3020 820 59 1000 050/10G17 RMK AO2
94908KDBQ DBQ20100926120010109/26/10 12:00:31  5-MIN KDBQ 261800Z 05008G17KT 10SM OVC036 14/06 A3020 820 59 900 050/08G17 RMK AO2
94908KDBQ DBQ20100926120509509/26/10 12:05:31  5-MIN KDBQ 261805Z 05008KT 10SM BKN036 13/06 A3019 830 61 900 050/08 RMK AO2
94908KDBQ DBQ20100926121009509/26/10 12:10:31  5-MIN KDBQ 261810Z 06009KT 10SM BKN036 14/06 A3019 830 59 900 060/09 RMK AO2
94908KDBQ DBQ20100926121509609/26/10 12:15:31  5-MIN KDBQ 261815Z 08007KT 10SM BKN038 14/07 A3019 830 59 1000 070/07 RMK AO2
94908KDBQ DBQ20100926122009609/26/10 12:20:31  5-MIN KDBQ 261820Z 06006KT 10SM BKN038 14/06 A3019 830 57 1000 060/06 RMK AO2
94908KDBQ DBQ20100926122509609/26/10 12:25:31  5-MIN KDBQ 261825Z 10004KT 10SM SCT038 14/06 A3018 840 57 1000 100/04 RMK AO2
94908KDBQ DBQ20100926123009609/26/10 12:30:31  5-MIN KDBQ 261830Z 07005KT 10SM SCT038 15/06 A3018 840 53 1100 070/05 RMK AO2
94908KDBQ DBQ20100926123509609/26/10 12:35:31  5-MIN KDBQ 261835Z 09009KT 10SM SCT038 15/06 A3018 840 53 1100 090/09 RMK AO2
94908KDBQ DBQ20100926124009609/26/10 12:40:31  5-MIN KDBQ 261840Z 09009KT 10SM SCT038 15/05 A3018 840 51 1100 090/09 RMK AO2
94908KDBQ DBQ20100926124509609/26/10 12:45:31  5-MIN KDBQ 261845Z 06007KT 10SM BKN038 15/06 A3017 850 53 1100 060/07 RMK AO2
94908KDBQ DBQ20100926125011309/26/10 12:50:31  5-MIN KDBQ 261850Z 06009KT 10SM BKN038 16/06 A3017 850 53 1100 060/09 RMK AO2 SLP220 T01560061
94908KDBQ DBQ20100926125509609/26/10 12:55:31  5-MIN KDBQ 261855Z 04009KT 10SM SCT038 15/06 A3017 850 55 1100 030/09 RMK AO2
94908KDBQ DBQ20100926130009609/26/10 13:00:31  5-MIN KDBQ 261900Z 05007KT 10SM FEW038 16/06 A3017 850 51 1200 050/07 RMK AO2
94908KDBQ DBQ20100926130509609/26/10 13:05:31  5-MIN KDBQ 261905Z 02004KT 10SM FEW038 16/06 A3017 850 51 1200 020/04 RMK AO2
94908KDBQ DBQ20100926131009609/26/10 13:10:31  5-MIN KDBQ 261910Z 07006KT 10SM FEW040 16/06 A3016 850 51 1200 070/06 RMK AO2
94908KDBQ DBQ20100926131509309/26/10 13:15:31  5-MIN KDBQ 261915Z 11006KT 10SM CLR 16/06 A3016 860 51 1200 100/06 RMK AO2
94908KDBQ DBQ20100926132009609/26/10 13:20:31  5-MIN KDBQ 261920Z 06005KT 10SM FEW042 15/05 A3016 860 51 1100 050/05 RMK AO2
94908KDBQ DBQ20100926132509609/26/10 13:25:31  5-MIN KDBQ 261925Z 02008KT 10SM FEW042 16/05 A3016 860 49 1200 020/08 RMK AO2
94908KDBQ DBQ20100926133009609/26/10 13:30:31  5-MIN KDBQ 261930Z VRB04KT 10SM FEW042 16/06 A3016 860 51 1200 VRB/04 RMK AO2
94908KDBQ DBQ20100926133509609/26/10 13:35:31  5-MIN KDBQ 261935Z 02007KT 10SM FEW042 16/05 A3015 860 49 1200 020/07 RMK AO2
94908KDBQ DBQ20100926134009609/26/10 13:40:31  5-MIN KDBQ 261940Z VRB03KT 10SM FEW042 16/04 A3015 860 47 1200 VRB/03 RMK AO2
94908KDBQ DBQ20100926134509609/26/10 13:45:31  5-MIN KDBQ 261945Z 07005KT 10SM FEW042 16/05 A3015 870 49 1200 070/05 RMK AO2
94908KDBQ DBQ20100926135011009/26/10 13:50:31  5-MIN KDBQ 261950Z 04006KT 10SM CLR 16/05 A3015 870 49 1200 040/06 RMK AO2 SLP212 T01560050
94908KDBQ DBQ20100926135509309/26/10 13:55:31  5-MIN KDBQ 261955Z 02008KT 10SM CLR 16/06 A3015 870 51 1200 020/08 RMK AO2
94908KDBQ DBQ20100926140009309/26/10 14:00:31  5-MIN KDBQ 262000Z 04011KT 10SM CLR 16/06 A3015 870 49 1200 040/11 RMK AO2
94908KDBQ DBQ20100926140509309/26/10 14:05:31  5-MIN KDBQ 262005Z 03006KT 10SM CLR 16/05 A3015 870 49 1200 030/06 RMK AO2
94908KDBQ DBQ20100926141009309/26/10 14:10:31  5-MIN KDBQ 262010Z VRB04KT 10SM CLR 16/06 A3015 870 51 1200 VRB/04 RMK AO2
94908KDBQ DBQ20100926141509309/26/10 14:15:31  5-MIN KDBQ 262015Z 06004KT 10SM CLR 16/06 A3014 870 51 1200 060/04 RMK AO2
94908KDBQ DBQ20100926142009309/26/10 14:20:31  5-MIN KDBQ 262020Z VRB06KT 10SM CLR 16/06 A3014 870 51 1200 VRB/06 RMK AO2
94908KDBQ DBQ20100926142509309/26/10 14:25:31  5-MIN KDBQ 262025Z 05007KT 10SM CLR 16/06 A3014 870 49 1200 050/07 RMK AO2
94908KDBQ DBQ20100926143009309/26/10 14:30:31  5-MIN KDBQ 262030Z 08008KT 10SM CLR 16/06 A3014 870 51 1200 070/08 RMK AO2
94908KDBQ DBQ20100926143509309/26/10 14:35:31  5-MIN KDBQ 262035Z 07004KT 10SM CLR 16/05 A3014 880 49 1200 070/04 RMK AO2
94908KDBQ DBQ20100926144009309/26/10 14:40:31  5-MIN KDBQ 262040Z 05005KT 10SM CLR 16/05 A3014 880 49 1200 040/05 RMK AO2
94908KDBQ DBQ20100926144509309/26/10 14:45:31  5-MIN KDBQ 262045Z VRB03KT 10SM CLR 16/05 A3014 880 49 1200 VRB/03 RMK AO2
94908KDBQ DBQ20100926145011609/26/10 14:50:31  5-MIN KDBQ 262050Z 09004KT 10SM CLR 16/05 A3014 880 49 1200 090/04 RMK AO2 SLP208 T01560050 58009
94908KDBQ DBQ20100926145509309/26/10 14:55:31  5-MIN KDBQ 262055Z 06005KT 10SM CLR 16/05 A3014 880 49 1200 060/05 RMK AO2
94908KDBQ DBQ20100926150009309/26/10 15:00:31  5-MIN KDBQ 262100Z 06006KT 10SM CLR 16/05 A3013 880 49 1200 060/06 RMK AO2
94908KDBQ DBQ20100926150509309/26/10 15:05:31  5-MIN KDBQ 262105Z 08006KT 10SM CLR 16/04 A3013 880 47 1200 080/06 RMK AO2
94908KDBQ DBQ20100926151009309/26/10 15:10:31  5-MIN KDBQ 262110Z 05006KT 10SM CLR 16/04 A3013 880 47 1200 050/06 RMK AO2
94908KDBQ DBQ20100926151509309/26/10 15:15:31  5-MIN KDBQ 262115Z 07004KT 10SM CLR 16/05 A3013 890 49 1200 070/04 RMK AO2
94908KDBQ DBQ20100926152009309/26/10 15:20:31  5-MIN KDBQ 262120Z 06007KT 10SM CLR 16/05 A3013 890 47 1300 060/07 RMK AO2
94908KDBQ DBQ20100926152509309/26/10 15:25:31  5-MIN KDBQ 262125Z 00000KT 10SM CLR 16/04 A3013 890 47 1200 000/00 RMK AO2
94908KDBQ DBQ20100926153009309/26/10 15:30:31  5-MIN KDBQ 262130Z 00000KT 10SM CLR 16/05 A3013 890 47 1300 000/00 RMK AO2
94908KDBQ DBQ20100926153509309/26/10 15:35:31  5-MIN KDBQ 262135Z VRB06KT 10SM CLR 16/05 A3013 890 47 1300 VRB/06 RMK AO2
94908KDBQ DBQ20100926154009309/26/10 15:40:31  5-MIN KDBQ 262140Z 07005KT 10SM CLR 16/05 A3013 890 47 1300 070/05 RMK AO2
94908KDBQ DBQ20100926154510909/26/10 15:45:31  5-MIN KDBQ 262145Z 07007KT 030V100 10SM CLR 16/06 A3012 890 51 1200 070/07 030V100 RMK AO2
94908KDBQ DBQ20100926155011009/26/10 15:50:31  5-MIN KDBQ 262150Z 07006KT 10SM CLR 16/06 A3012 890 51 1200 070/06 RMK AO2 SLP205 T01560056
94908KDBQ DBQ20100926155509309/26/10 15:55:31  5-MIN KDBQ 262155Z 10005KT 10SM CLR 16/05 A3013 890 49 1200 100/05 RMK AO2
94908KDBQ DBQ20100926160009309/26/10 16:00:31  5-MIN KDBQ 262200Z 09004KT 10SM CLR 16/05 A3012 890 49 1200 090/04 RMK AO2
94908KDBQ DBQ20100926160509309/26/10 16:05:31  5-MIN KDBQ 262205Z 06006KT 10SM CLR 16/05 A3013 890 49 1200 060/06 RMK AO2
94908KDBQ DBQ20100926161009309/26/10 16:10:31  5-MIN KDBQ 262210Z 06005KT 10SM CLR 16/05 A3013 890 49 1200 060/05 RMK AO2
94908KDBQ DBQ20100926161509309/26/10 16:15:31  5-MIN KDBQ 262215Z 06004KT 10SM CLR 16/05 A3013 890 49 1200 060/04 RMK AO2
94908KDBQ DBQ20100926162009309/26/10 16:20:31  5-MIN KDBQ 262220Z VRB03KT 10SM CLR 16/05 A3012 890 49 1200 VRB/03 RMK AO2
94908KDBQ DBQ20100926162509309/26/10 16:25:31  5-MIN KDBQ 262225Z 03004KT 10SM CLR 16/05 A3012 890 47 1300 030/04 RMK AO2
94908KDBQ DBQ20100926163009309/26/10 16:30:31  5-MIN KDBQ 262230Z 03004KT 10SM CLR 16/06 A3013 890 51 1200 030/04 RMK AO2
94908KDBQ DBQ20100926163509309/26/10 16:35:31  5-MIN KDBQ 262235Z 02005KT 10SM CLR 16/06 A3013 890 53 1200 020/05 RMK AO2
94908KDBQ DBQ20100926164009309/26/10 16:40:31  5-MIN KDBQ 262240Z 03005KT 10SM CLR 15/05 A3013 890 51 1100 030/05 RMK AO2
94908KDBQ DBQ20100926164509309/26/10 16:45:31  5-MIN KDBQ 262245Z 04005KT 10SM CLR 15/05 A3013 880 51 1100 040/05 RMK AO2
94908KDBQ DBQ20100926165011009/26/10 16:50:31  5-MIN KDBQ 262250Z 05003KT 10SM CLR 15/06 A3013 890 53 1100 050/03 RMK AO2 SLP206 T01500056
94908KDBQ DBQ20100926165509309/26/10 16:55:31  5-MIN KDBQ 262255Z 00000KT 10SM CLR 15/05 A3013 880 51 1100 000/00 RMK AO2
94908KDBQ DBQ20100926170009309/26/10 17:00:31  5-MIN KDBQ 262300Z 06004KT 10SM CLR 15/05 A3013 890 51 1100 060/04 RMK AO2
94908KDBQ DBQ20100926170509309/26/10 17:05:31  5-MIN KDBQ 262305Z 05005KT 10SM CLR 14/05 A3013 890 53 1100 050/05 RMK AO2
94908KDBQ DBQ20100926171009309/26/10 17:10:31  5-MIN KDBQ 262310Z 04004KT 10SM CLR 14/05 A3013 890 55 1000 040/04 RMK AO2
94908KDBQ DBQ20100926171509309/26/10 17:15:31  5-MIN KDBQ 262315Z 03003KT 10SM CLR 14/05 A3013 890 55 1000 020/03 RMK AO2
94908KDBQ DBQ20100926172009309/26/10 17:20:31  5-MIN KDBQ 262320Z 04003KT 10SM CLR 14/05 A3013 890 55 1000 040/03 RMK AO2
94908KDBQ DBQ20100926172509209/26/10 17:25:31  5-MIN KDBQ 262325Z 05003KT 10SM CLR 13/05 A3013 890 57 900 050/03 RMK AO2
94908KDBQ DBQ20100926173009209/26/10 17:30:31  5-MIN KDBQ 262330Z 00000KT 10SM CLR 13/05 A3013 890 57 900 000/00 RMK AO2
94908KDBQ DBQ20100926173509309/26/10 17:35:31  5-MIN KDBQ 262335Z 00000KT 10SM CLR 14/04 A3013 890 52 1000 000/00 RMK AO2
94908KDBQ DBQ20100926174009209/26/10 17:40:31  5-MIN KDBQ 262340Z 02003KT 10SM CLR 13/05 A3012 890 57 900 020/03 RMK AO2
94908KDBQ DBQ20100926174509209/26/10 17:45:31  5-MIN KDBQ 262345Z 00000KT 10SM CLR 13/04 A3013 890 54 900 000/00 RMK AO2
94908KDBQ DBQ20100926175012709/26/10 17:50:31  5-MIN KDBQ 262350Z 02003KT 10SM CLR 12/05 A3013 890 61 800 020/03 RMK AO2 SLP207 T01220050 10161 20122 56021
94908KDBQ DBQ20100926175509209/26/10 17:55:31  5-MIN KDBQ 262355Z 00000KT 10SM CLR 12/04 A3013 890 59 800 000/00 RMK AO2
94908KDBQ DBQ20100926180009209/26/10 18:00:31  5-MIN KDBQ 270000Z 00000KT 10SM CLR 13/04 A3013 890 56 900 000/00 RMK AO2
94908KDBQ DBQ20100926180509209/26/10 18:05:31  5-MIN KDBQ 270005Z 00000KT 10SM CLR 13/04 A3013 890 56 900 000/00 RMK AO2
94908KDBQ DBQ20100926181009209/26/10 18:10:31  5-MIN KDBQ 270010Z 00000KT 10SM CLR 12/04 A3013 890 56 800 000/00 RMK AO2
94908KDBQ DBQ20100926181509209/26/10 18:15:31  5-MIN KDBQ 270015Z 00000KT 10SM CLR 12/04 A3013 890 56 800 000/00 RMK AO2
94908KDBQ DBQ20100926182009209/26/10 18:20:31  5-MIN KDBQ 270020Z 00000KT 10SM CLR 11/05 A3012 890 68 600 000/00 RMK AO2
94908KDBQ DBQ20100926182509209/26/10 18:25:31  5-MIN KDBQ 270025Z 00000KT 10SM CLR 11/04 A3012 890 66 600 000/00 RMK AO2
94908KDBQ DBQ20100926183009209/26/10 18:30:31  5-MIN KDBQ 270030Z 00000KT 10SM CLR 10/06 A3012 890 74 500 000/00 RMK AO2
94908KDBQ DBQ20100926183509209/26/10 18:35:31  5-MIN KDBQ 270035Z 00000KT 10SM CLR 11/05 A3012 890 68 600 000/00 RMK AO2
94908KDBQ DBQ20100926184009209/26/10 18:40:31  5-MIN KDBQ 270040Z 00000KT 10SM CLR 11/05 A3012 890 68 600 000/00 RMK AO2
94908KDBQ DBQ20100926184509209/26/10 18:45:31  5-MIN KDBQ 270045Z 00000KT 10SM CLR 10/04 A3013 890 68 500 000/00 RMK AO2
94908KDBQ DBQ20100926185010909/26/10 18:50:31  5-MIN KDBQ 270050Z 00000KT 10SM CLR 09/04 A3013 890 71 500 000/00 RMK AO2 SLP207 T00940044
94908KDBQ DBQ20100926185509709/26/10 18:55:31  5-MIN KDBQ 270055Z AUTO 00000KT 10SM CLR 09/05 A3012 890 74 500 000/00 RMK AO2
94908KDBQ DBQ20100926190009709/26/10 19:00:31  5-MIN KDBQ 270100Z AUTO 00000KT 10SM CLR 09/06 A3012 890 76 500 000/00 RMK AO2
94908KDBQ DBQ20100926190509709/26/10 19:05:31  5-MIN KDBQ 270105Z AUTO 00000KT 10SM CLR 09/06 A3013 890 76 500 000/00 RMK AO2
94908KDBQ DBQ20100926191009709/26/10 19:10:31  5-MIN KDBQ 270110Z AUTO 00000KT 10SM CLR 09/06 A3013 890 83 400 000/00 RMK AO2
94908KDBQ DBQ20100926191509709/26/10 19:15:31  5-MIN KDBQ 270115Z AUTO 00000KT 10SM CLR 08/06 A3013 890 82 300 000/00 RMK AO2
94908KDBQ DBQ20100926192009709/26/10 19:20:31  5-MIN KDBQ 270120Z AUTO 00000KT 10SM CLR 09/06 A3013 890 79 400 000/00 RMK AO2
94908KDBQ DBQ20100926192509709/26/10 19:25:31  5-MIN KDBQ 270125Z AUTO 00000KT 10SM CLR 08/06 A3013 890 82 300 000/00 RMK AO2
94908KDBQ DBQ20100926193009709/26/10 19:30:31  5-MIN KDBQ 270130Z AUTO 00000KT 10SM CLR 08/06 A3013 890 82 300 000/00 RMK AO2
94908KDBQ DBQ20100926193509709/26/10 19:35:31  5-MIN KDBQ 270135Z AUTO 00000KT 10SM CLR 08/05 A3013 890 79 300 000/00 RMK AO2
94908KDBQ DBQ20100926194009709/26/10 19:40:31  5-MIN KDBQ 270140Z AUTO 00000KT 10SM CLR 08/05 A3012 890 82 300 000/00 RMK AO2
94908KDBQ DBQ20100926194509709/26/10 19:45:31  5-MIN KDBQ 270145Z AUTO 00000KT 10SM CLR 08/05 A3012 890 79 300 000/00 RMK AO2
94908KDBQ DBQ20100926195011409/26/10 19:50:31  5-MIN KDBQ 270150Z AUTO 00000KT 10SM CLR 08/06 A3012 890 86 300 000/00 RMK AO2 SLP207 T00780056
94908KDBQ DBQ20100926195509709/26/10 19:55:31  5-MIN KDBQ 270155Z AUTO 00000KT 10SM CLR 08/05 A3012 890 82 300 000/00 RMK AO2
94908KDBQ DBQ20100926200009709/26/10 20:00:31  5-MIN KDBQ 270200Z AUTO 00000KT 10SM CLR 07/05 A3012 890 86 200 000/00 RMK AO2
94908KDBQ DBQ20100926200509709/26/10 20:05:31  5-MIN KDBQ 270205Z AUTO 00000KT 10SM CLR 07/05 A3012 890 89 100 000/00 RMK AO2
94908KDBQ DBQ20100926201009709/26/10 20:10:31  5-MIN KDBQ 270210Z AUTO 00000KT 10SM CLR 08/04 A3012 890 79 300 000/00 RMK AO2
94908KDBQ DBQ20100926201509709/26/10 20:15:31  5-MIN KDBQ 270215Z AUTO 00000KT 10SM CLR 08/05 A3012 890 79 300 000/00 RMK AO2
94908KDBQ DBQ20100926202009709/26/10 20:20:31  5-MIN KDBQ 270220Z AUTO 00000KT 10SM CLR 08/05 A3012 890 82 300 000/00 RMK AO2
94908KDBQ DBQ20100926202509709/26/10 20:25:31  5-MIN KDBQ 270225Z AUTO 00000KT 10SM CLR 07/05 A3012 890 86 200 000/00 RMK AO2
94908KDBQ DBQ20100926203009709/26/10 20:30:31  5-MIN KDBQ 270230Z AUTO 00000KT 10SM CLR 08/05 A3012 890 82 300 000/00 RMK AO2
94908KDBQ DBQ20100926203509709/26/10 20:35:31  5-MIN KDBQ 270235Z AUTO 00000KT 10SM CLR 07/05 A3012 890 86 200 000/00 RMK AO2
94908KDBQ DBQ20100926204009709/26/10 20:40:31  5-MIN KDBQ 270240Z AUTO 00000KT 10SM CLR 07/05 A3012 890 86 200 000/00 RMK AO2
94908KDBQ DBQ20100926204509709/26/10 20:45:31  5-MIN KDBQ 270245Z AUTO 00000KT 10SM CLR 07/05 A3012 900 86 200 000/00 RMK AO2
94908KDBQ DBQ20100926205012009/26/10 20:50:31  5-MIN KDBQ 270250Z AUTO 00000KT 10SM CLR 07/05 A3012 900 86 200 000/00 RMK AO2 SLP205 T00720050 56003
94908KDBQ DBQ20100926205509709/26/10 20:55:31  5-MIN KDBQ 270255Z AUTO 08003KT 10SM CLR 07/05 A3012 900 86 200 080/03 RMK AO2
94908KDBQ DBQ20100926210009709/26/10 21:00:31  5-MIN KDBQ 270300Z AUTO 00000KT 10SM CLR 07/04 A3012 900 82 200 000/00 RMK AO2
94908KDBQ DBQ20100926210509709/26/10 21:05:31  5-MIN KDBQ 270305Z AUTO 00000KT 10SM CLR 07/04 A3011 900 82 200 000/00 RMK AO2
94908KDBQ DBQ20100926211009709/26/10 21:10:31  5-MIN KDBQ 270310Z AUTO 07003KT 10SM CLR 07/04 A3011 900 82 200 070/03 RMK AO2
94908KDBQ DBQ20100926211509709/26/10 21:15:31  5-MIN KDBQ 270315Z AUTO 06003KT 10SM CLR 08/04 A3011 900 79 300 060/03 RMK AO2
94908KDBQ DBQ20100926212009709/26/10 21:20:31  5-MIN KDBQ 270320Z AUTO 00000KT 10SM CLR 08/04 A3011 900 79 300 000/00 RMK AO2
94908KDBQ DBQ20100926212509709/26/10 21:25:31  5-MIN KDBQ 270325Z AUTO 08003KT 10SM CLR 07/04 A3011 900 82 200 070/03 RMK AO2
94908KDBQ DBQ20100926213009709/26/10 21:30:31  5-MIN KDBQ 270330Z AUTO 00000KT 10SM CLR 07/05 A3011 900 89 200 000/00 RMK AO2
94908KDBQ DBQ20100926213509709/26/10 21:35:31  5-MIN KDBQ 270335Z AUTO 00000KT 10SM CLR 06/04 A3011 900 89 100 000/00 RMK AO2
94908KDBQ DBQ20100926214009709/26/10 21:40:31  5-MIN KDBQ 270340Z AUTO 00000KT 10SM CLR 07/04 A3011 900 86 200 000/00 RMK AO2
94908KDBQ DBQ20100926214509709/26/10 21:45:31  5-MIN KDBQ 270345Z AUTO 10003KT 10SM CLR 06/04 A3011 900 89 100 100/03 RMK AO2
94908KDBQ DBQ20100926215011409/26/10 21:50:31  5-MIN KDBQ 270350Z AUTO 00000KT 10SM CLR 07/04 A3011 900 86 200 000/00 RMK AO2 SLP202 T00670044
94908KDBQ DBQ20100926215509709/26/10 21:55:31  5-MIN KDBQ 270355Z AUTO 00000KT 10SM CLR 07/04 A3011 900 86 200 000/00 RMK AO2
94908KDBQ DBQ20100926220009709/26/10 22:00:31  5-MIN KDBQ 270400Z AUTO 00000KT 10SM CLR 07/04 A3011 900 86 200 000/00 RMK AO2
94908KDBQ DBQ20100926220509709/26/10 22:05:31  5-MIN KDBQ 270405Z AUTO 00000KT 10SM CLR 07/04 A3011 900 86 200 000/00 RMK AO2
94908KDBQ DBQ20100926221009709/26/10 22:10:31  5-MIN KDBQ 270410Z AUTO 00000KT 10SM CLR 08/04 A3011 900 79 300 000/00 RMK AO2
94908KDBQ DBQ20100926221509709/26/10 22:15:31  5-MIN KDBQ 270415Z AUTO 00000KT 10SM CLR 08/04 A3011 910 79 300 000/00 RMK AO2
94908KDBQ DBQ20100926222009709/26/10 22:20:31  5-MIN KDBQ 270420Z AUTO 14003KT 10SM CLR 08/04 A3011 910 79 300 140/03 RMK AO2
94908KDBQ DBQ20100926222509709/26/10 22:25:31  5-MIN KDBQ 270425Z AUTO 14003KT 10SM CLR 07/04 A3010 910 82 200 140/03 RMK AO2
94908KDBQ DBQ20100926223009709/26/10 22:30:31  5-MIN KDBQ 270430Z AUTO 14003KT 10SM CLR 07/04 A3010 910 82 200 140/03 RMK AO2
94908KDBQ DBQ20100926223509709/26/10 22:35:31  5-MIN KDBQ 270435Z AUTO 14003KT 10SM CLR 08/04 A3010 910 79 300 140/03 RMK AO2
94908KDBQ DBQ20100926224009709/26/10 22:40:31  5-MIN KDBQ 270440Z AUTO 00000KT 10SM CLR 08/04 A3010 910 79 300 000/00 RMK AO2
94908KDBQ DBQ20100926224509709/26/10 22:45:31  5-MIN KDBQ 270445Z AUTO 14003KT 10SM CLR 07/04 A3010 910 82 200 140/03 RMK AO2
94908KDBQ DBQ20100926225011409/26/10 22:50:31  5-MIN KDBQ 270450Z AUTO 00000KT 10SM CLR 07/04 A3010 910 82 200 000/00 RMK AO2 SLP197 T00720044
94908KDBQ DBQ20100926225509709/26/10 22:55:31  5-MIN KDBQ 270455Z AUTO 00000KT 10SM CLR 07/04 A3010 910 82 200 000/00 RMK AO2
94908KDBQ DBQ20100926230009709/26/10 23:00:31  5-MIN KDBQ 270500Z AUTO 00000KT 10SM CLR 07/04 A3010 910 86 200 000/00 RMK AO2
94908KDBQ DBQ20100926230509709/26/10 23:05:31  5-MIN KDBQ 270505Z AUTO 00000KT 10SM CLR 07/04 A3010 910 86 200 000/00 RMK AO2
94908KDBQ DBQ20100926231009709/26/10 23:10:31  5-MIN KDBQ 270510Z AUTO 00000KT 10SM CLR 07/04 A3010 910 82 200 000/00 RMK AO2
94908KDBQ DBQ20100926231509709/26/10 23:15:31  5-MIN KDBQ 270515Z AUTO 00000KT 10SM CLR 08/05 A3010 910 82 300 000/00 RMK AO2
94908KDBQ DBQ20100926232009709/26/10 23:20:31  5-MIN KDBQ 270520Z AUTO 00000KT 10SM CLR 08/05 A3010 910 82 300 000/00 RMK AO2
94908KDBQ DBQ20100926232509709/26/10 23:25:31  5-MIN KDBQ 270525Z AUTO 00000KT 10SM CLR 08/05 A3010 910 79 400 000/00 RMK AO2
94908KDBQ DBQ20100926233009709/26/10 23:30:31  5-MIN KDBQ 270530Z AUTO 00000KT 10SM CLR 08/05 A3010 910 82 300 000/00 RMK AO2
94908KDBQ DBQ20100926233509709/26/10 23:35:31  5-MIN KDBQ 270535Z AUTO 00000KT 10SM CLR 08/05 A3010 910 82 300 000/00 RMK AO2
94908KDBQ DBQ20100926234009709/26/10 23:40:31  5-MIN KDBQ 270540Z AUTO 00000KT 10SM CLR 08/05 A3010 910 82 300 000/00 RMK AO2
94908KDBQ DBQ20100926234509709/26/10 23:45:31  5-MIN KDBQ 270545Z AUTO 00000KT 10SM CLR 07/04 A3010 910 86 200 000/00 RMK AO2
94908KDBQ DBQ20100926235014209/26/10 23:50:31  5-MIN KDBQ 270550Z AUTO 00000KT 10SM CLR 06/04 A3010 910 86 100 000/00 RMK AO2 SLP196 T00610039 10128 20061 401610044 58003
94908KDBQ DBQ20100926235509709/26/10 23:55:31  5-MIN KDBQ 270555Z AUTO 00000KT 10SM CLR 07/04 A3010 910 86 200 000/00 RMK AO2
94908KDBQ DBQ20100927000009709/27/10 00:00:38  5-MIN KDBQ 270600Z AUTO 00000KT 10SM CLR 07/04 A3010 910 86 200 000/00 RMK AO2
94908KDBQ DBQ20100927000509709/27/10 00:05:31  5-MIN KDBQ 270605Z AUTO 00000KT 10SM CLR 07/04 A3010 910 86 200 000/00 RMK AO2
94908KDBQ DBQ20100927001009709/27/10 00:10:31  5-MIN KDBQ 270610Z AUTO 00000KT 10SM CLR 06/04 A3010 910 89 100 000/00 RMK AO2
94908KDBQ DBQ20100927001509509/27/10 00:15:32  5-MIN KDBQ 270615Z AUTO 00000KT 10SM CLR 06/04 A3010 920 89 0 000/00 RMK AO2
94908KDBQ DBQ20100927002009709/27/10 00:20:31  5-MIN KDBQ 270620Z AUTO 00000KT 10SM CLR 06/04 A3009 920 86 100 000/00 RMK AO2
94908KDBQ DBQ20100927002509709/27/10 00:25:31  5-MIN KDBQ 270625Z AUTO 00000KT 10SM CLR 06/04 A3009 920 86 100 000/00 RMK AO2
94908KDBQ DBQ20100927003009509/27/10 00:30:31  5-MIN KDBQ 270630Z AUTO 00000KT 10SM CLR 05/04 A3009 920 92 0 000/00 RMK AO2
94908KDBQ DBQ20100927003509509/27/10 00:35:31  5-MIN KDBQ 270635Z AUTO 00000KT 10SM CLR 05/03 A3009 930 89 0 000/00 RMK AO2
94908KDBQ DBQ20100927004009509/27/10 00:40:31  5-MIN KDBQ 270640Z AUTO 00000KT 10SM CLR 05/03 A3008 930 89 0 000/00 RMK AO2
94908KDBQ DBQ20100927004509509/27/10 00:45:31  5-MIN KDBQ 270645Z AUTO 00000KT 10SM CLR 05/03 A3009 930 89 0 000/00 RMK AO2
94908KDBQ DBQ20100927005011209/27/10 00:50:31  5-MIN KDBQ 270650Z AUTO 00000KT 10SM CLR 04/03 A3009 930 92 0 000/00 RMK AO2 SLP192 T00440033
94908KDBQ DBQ20100927005509509/27/10 00:55:31  5-MIN KDBQ 270655Z AUTO 00000KT 10SM CLR 05/04 A3009 920 92 0 000/00 RMK AO2
94908KDBQ DBQ20100927010009509/27/10 01:00:31  5-MIN KDBQ 270700Z AUTO 00000KT 10SM CLR 05/04 A3009 920 92 0 000/00 RMK AO2
94908KDBQ DBQ20100927010509509/27/10 01:05:31  5-MIN KDBQ 270705Z AUTO 00000KT 10SM CLR 06/03 A3009 920 85 0 000/00 RMK AO2
94908KDBQ DBQ20100927011009509/27/10 01:10:31  5-MIN KDBQ 270710Z AUTO 00000KT 10SM CLR 05/03 A3009 930 89 0 000/00 RMK AO2
94908KDBQ DBQ20100927011509509/27/10 01:15:31  5-MIN KDBQ 270715Z AUTO 00000KT 10SM CLR 05/03 A3009 930 89 0 000/00 RMK AO2
94908KDBQ DBQ20100927012009709/27/10 01:20:31  5-MIN KDBQ 270720Z AUTO 00000KT 10SM CLR 06/03 A3008 930 85 100 000/00 RMK AO2
94908KDBQ DBQ20100927012509509/27/10 01:25:31  5-MIN KDBQ 270725Z AUTO 00000KT 10SM CLR 05/03 A3008 930 89 0 000/00 RMK AO2
94908KDBQ DBQ20100927013009509/27/10 01:30:31  5-MIN KDBQ 270730Z AUTO 00000KT 10SM CLR 04/03 A3008 930 92 0 000/00 RMK AO2
94908KDBQ DBQ20100927013509509/27/10 01:35:31  5-MIN KDBQ 270735Z AUTO 00000KT 10SM CLR 04/03 A3008 930 92 0 000/00 RMK AO2
94908KDBQ DBQ20100927014009509/27/10 01:40:31  5-MIN KDBQ 270740Z AUTO 00000KT 10SM CLR 04/03 A3008 930 89 0 000/00 RMK AO2
94908KDBQ DBQ20100927014509509/27/10 01:45:31  5-MIN KDBQ 270745Z AUTO 00000KT 10SM CLR 04/03 A3008 930 92 0 000/00 RMK AO2
94908KDBQ DBQ20100927015011209/27/10 01:50:31  5-MIN KDBQ 270750Z AUTO 00000KT 10SM CLR 04/03 A3008 930 89 0 000/00 RMK AO2 SLP189 T00440028
94908KDBQ DBQ20100927015509509/27/10 01:55:31  5-MIN KDBQ 270755Z AUTO 00000KT 10SM CLR 05/03 A3008 930 89 0 000/00 RMK AO2
94908KDBQ DBQ20100927020009709/27/10 02:00:31  5-MIN KDBQ 270800Z AUTO 00000KT 10SM CLR 06/04 A3008 930 89 100 000/00 RMK AO2
94908KDBQ DBQ20100927020509509/27/10 02:05:31  5-MIN KDBQ 270805Z AUTO 00000KT 10SM CLR 05/03 A3008 930 89 0 000/00 RMK AO2
94908KDBQ DBQ20100927021009509/27/10 02:10:31  5-MIN KDBQ 270810Z AUTO 00000KT 10SM CLR 05/03 A3008 940 89 0 000/00 RMK AO2
94908KDBQ DBQ20100927021509509/27/10 02:15:31  5-MIN KDBQ 270815Z AUTO 00000KT 10SM CLR 05/03 A3007 940 89 0 000/00 RMK AO2
94908KDBQ DBQ20100927022009709/27/10 02:20:31  5-MIN KDBQ 270820Z AUTO 00000KT 10SM CLR 06/03 A3007 940 85 100 000/00 RMK AO2
94908KDBQ DBQ20100927022509709/27/10 02:25:31  5-MIN KDBQ 270825Z AUTO 00000KT 10SM CLR 06/03 A3007 940 85 100 000/00 RMK AO2
94908KDBQ DBQ20100927023009709/27/10 02:30:31  5-MIN KDBQ 270830Z AUTO 00000KT 10SM CLR 06/04 A3007 940 89 100 000/00 RMK AO2
94908KDBQ DBQ20100927023509709/27/10 02:35:31  5-MIN KDBQ 270835Z AUTO 17003KT 10SM CLR 06/04 A3007 940 89 100 170/03 RMK AO2
94908KDBQ DBQ20100927024009709/27/10 02:40:31  5-MIN KDBQ 270840Z AUTO 00000KT 10SM CLR 06/04 A3007 940 89 100 000/00 RMK AO2
94908KDBQ DBQ20100927024509709/27/10 02:45:31  5-MIN KDBQ 270845Z AUTO 00000KT 10SM CLR 06/04 A3007 940 89 100 000/00 RMK AO2
94908KDBQ DBQ20100927025012009/27/10 02:50:31  5-MIN KDBQ 270850Z AUTO 00000KT 10SM CLR 06/04 A3007 940 89 100 000/00 RMK AO2 SLP185 T00560039 55006
94908KDBQ DBQ20100927025509709/27/10 02:55:31  5-MIN KDBQ 270855Z AUTO VRB04KT 10SM CLR 06/04 A3007 940 89 100 VRB/04 RMK AO2
94908KDBQ DBQ20100927030009709/27/10 03:00:31  5-MIN KDBQ 270900Z AUTO VRB03KT 10SM CLR 06/04 A3007 940 89 100 VRB/03 RMK AO2
94908KDBQ DBQ20100927030509709/27/10 03:05:31  5-MIN KDBQ 270905Z AUTO VRB03KT 10SM CLR 06/04 A3007 940 89 100 VRB/03 RMK AO2
94908KDBQ DBQ20100927031009509/27/10 03:10:31  5-MIN KDBQ 270910Z AUTO VRB03KT 10SM CLR 05/03 A3007 940 89 0 VRB/03 RMK AO2
94908KDBQ DBQ20100927031509709/27/10 03:15:31  5-MIN KDBQ 270915Z AUTO VRB03KT 10SM CLR 06/03 A3007 940 85 100 VRB/03 RMK AO2
94908KDBQ DBQ20100927032009509/27/10 03:20:31  5-MIN KDBQ 270920Z AUTO VRB03KT 10SM CLR 04/03 A3007 940 92 0 VRB/03 RMK AO2
94908KDBQ DBQ20100927032509509/27/10 03:25:31  5-MIN KDBQ 270925Z AUTO 00000KT 10SM CLR 04/03 A3007 940 92 0 000/00 RMK AO2
94908KDBQ DBQ20100927033009509/27/10 03:30:31  5-MIN KDBQ 270930Z AUTO VRB03KT 10SM CLR 05/03 A3007 940 89 0 VRB/03 RMK AO2
94908KDBQ DBQ20100927033509509/27/10 03:35:31  5-MIN KDBQ 270935Z AUTO VRB03KT 10SM CLR 04/03 A3007 940 92 0 VRB/03 RMK AO2
94908KDBQ DBQ20100927034009509/27/10 03:40:31  5-MIN KDBQ 270940Z AUTO VRB03KT 10SM CLR 05/03 A3007 940 89 0 VRB/03 RMK AO2
94908KDBQ DBQ20100927034509509/27/10 03:45:31  5-MIN KDBQ 270945Z AUTO 30005KT 10SM CLR 04/03 A3007 940 92 0 300/05 RMK AO2
94908KDBQ DBQ20100927035011209/27/10 03:50:31  5-MIN KDBQ 270950Z AUTO 00000KT 10SM CLR 04/03 A3007 940 89 0 000/00 RMK AO2 SLP186 T00440028
94908KDBQ DBQ20100927035509809/27/10 03:55:31  5-MIN KDBQ 270955Z AUTO 20003KT 10SM CLR 04/03 A3007 940 92 -100 200/03 RMK AO2
94908KDBQ DBQ20100927040009509/27/10 04:00:31  5-MIN KDBQ 271000Z AUTO 00000KT 10SM CLR 04/03 A3007 940 92 0 000/00 RMK AO2
94908KDBQ DBQ20100927040509509/27/10 04:05:31  5-MIN KDBQ 271005Z AUTO 00000KT 10SM CLR 04/03 A3007 940 92 0 000/00 RMK AO2
94908KDBQ DBQ20100927041009809/27/10 04:10:31  5-MIN KDBQ 271010Z AUTO 00000KT 10SM CLR 04/03 A3007 940 96 -100 000/00 RMK AO2
94908KDBQ DBQ20100927041509809/27/10 04:15:31  5-MIN KDBQ 271015Z AUTO 00000KT 10SM CLR 04/03 A3007 940 92 -100 000/00 RMK AO2
94908KDBQ DBQ20100927042009809/27/10 04:20:31  5-MIN KDBQ 271020Z AUTO 00000KT 10SM CLR 03/02 A3006 950 92 -200 000/00 RMK AO2
94908KDBQ DBQ20100927042509809/27/10 04:25:31  5-MIN KDBQ 271025Z AUTO 00000KT 10SM CLR 03/02 A3007 940 92 -200 000/00 RMK AO2
94908KDBQ DBQ20100927043009809/27/10 04:30:31  5-MIN KDBQ 271030Z AUTO VRB04KT 10SM CLR 04/03 A3007 940 92 -100 VRB/04 RMK AO2
94908KDBQ DBQ20100927043509809/27/10 04:35:31  5-MIN KDBQ 271035Z AUTO VRB04KT 10SM CLR 04/03 A3007 940 96 -100 VRB/04 RMK AO2
94908KDBQ DBQ20100927044009809/27/10 04:40:31  5-MIN KDBQ 271040Z AUTO VRB03KT 10SM CLR 04/03 A3007 940 92 -100 VRB/03 RMK AO2
94908KDBQ DBQ20100927044509309/27/10 04:45:31  5-MIN KDBQ 271045Z 00000KT 10SM CLR 04/03 A3008 930 92 -100 000/00 RMK AO2
94908KDBQ DBQ20100927045011009/27/10 04:50:31  5-MIN KDBQ 271050Z 00000KT 10SM CLR 04/03 A3008 930 92 -100 000/00 RMK AO2 SLP189 T00390028
94908KDBQ DBQ20100927045509309/27/10 04:55:31  5-MIN KDBQ 271055Z VRB03KT 10SM CLR 04/03 A3008 930 92 -100 VRB/03 RMK AO2
94908KDBQ DBQ20100927050009309/27/10 05:00:31  5-MIN KDBQ 271100Z VRB05KT 10SM CLR 04/03 A3008 930 92 -100 VRB/05 RMK AO2
94908KDBQ DBQ20100927050509009/27/10 05:05:31  5-MIN KDBQ 271105Z VRB04KT 10SM CLR 04/03 A3008 930 89 0 VRB/04 RMK AO2
94908KDBQ DBQ20100927051009309/27/10 05:10:31  5-MIN KDBQ 271110Z 00000KT 10SM CLR 03/03 A3008 930 96 -200 000/00 RMK AO2
94908KDBQ DBQ20100927051509309/27/10 05:15:31  5-MIN KDBQ 271115Z 00000KT 10SM CLR 03/02 A3008 940 96 -200 000/00 RMK AO2
94908KDBQ DBQ20100927052009209/27/10 05:20:31  5-MIN KDBQ 271120Z 20003KT 8SM CLR 03/02 A3007 940 92 -200 190/03 RMK AO2
94908KDBQ DBQ20100927052509209/27/10 05:25:31  5-MIN KDBQ 271125Z VRB03KT 8SM CLR 03/02 A3007 940 92 -200 VRB/03 RMK AO2
94908KDBQ DBQ20100927053009209/27/10 05:30:31  5-MIN KDBQ 271130Z VRB04KT 8SM CLR 04/02 A3007 940 89 -100 VRB/04 RMK AO2
94908KDBQ DBQ20100927053509209/27/10 05:35:31  5-MIN KDBQ 271135Z 00000KT 9SM CLR 03/03 A3007 940 96 -200 000/00 RMK AO2
94908KDBQ DBQ20100927054009209/27/10 05:40:31  5-MIN KDBQ 271140Z VRB03KT 9SM CLR 03/03 A3007 940 96 -200 VRB/03 RMK AO2
94908KDBQ DBQ20100927054509209/27/10 05:45:31  5-MIN KDBQ 271145Z 00000KT 8SM CLR 03/03 A3007 940 96 -200 000/00 RMK AO2
94908KDBQ DBQ20100927055012709/27/10 05:50:31  5-MIN KDBQ 271150Z 00000KT 7SM CLR 03/02 A3007 940 96 -200 000/00 RMK AO2 SLP188 T00280022 10067 20028 56010
94908KDBQ DBQ20100927055509209/27/10 05:55:31  5-MIN KDBQ 271155Z 00000KT 7SM CLR 03/02 A3007 940 92 -200 000/00 RMK AO2
94908KDBQ DBQ20100927060009209/27/10 06:00:31  5-MIN KDBQ 271200Z 20003KT 7SM CLR 04/03 A3006 950 92 -100 200/03 RMK AO2
94908KDBQ DBQ20100927060508909/27/10 06:05:31  5-MIN KDBQ 271205Z 20003KT 8SM CLR 04/03 A3006 950 92 0 200/03 RMK AO2
94908KDBQ DBQ20100927061009209/27/10 06:10:31  5-MIN KDBQ 271210Z VRB03KT 9SM CLR 04/03 A3006 950 92 -100 VRB/03 RMK AO2
94908KDBQ DBQ20100927061509209/27/10 06:15:31  5-MIN KDBQ 271215Z VRB03KT 9SM CLR 04/03 A3006 950 92 -100 VRB/03 RMK AO2
94908KDBQ DBQ20100927062008909/27/10 06:20:31  5-MIN KDBQ 271220Z VRB03KT 9SM CLR 04/03 A3006 950 92 0 VRB/03 RMK AO2
94908KDBQ DBQ20100927062509009/27/10 06:25:31  5-MIN KDBQ 271225Z VRB03KT 10SM CLR 04/03 A3006 950 92 0 VRB/03 RMK AO2
94908KDBQ DBQ20100927063009009/27/10 06:30:31  5-MIN KDBQ 271230Z VRB03KT 10SM CLR 04/03 A3006 950 92 0 VRB/03 RMK AO2
94908KDBQ DBQ20100927063508909/27/10 06:35:31  5-MIN KDBQ 271235Z 00000KT 9SM CLR 05/03 A3006 950 89 0 000/00 RMK AO2
94908KDBQ DBQ20100927064008909/27/10 06:40:31  5-MIN KDBQ 271240Z 00000KT 9SM CLR 05/03 A3005 950 89 0 000/00 RMK AO2
94908KDBQ DBQ20100927064509109/27/10 06:45:31  5-MIN KDBQ 271245Z 23003KT 9SM CLR 06/04 A3005 960 89 100 230/03 RMK AO2
94908KDBQ DBQ20100927065010909/27/10 06:50:31  5-MIN KDBQ 271250Z 00000KT 10SM CLR 06/04 A3005 960 89 200 000/00 RMK AO2 SLP182 T00610044
94908KDBQ DBQ20100927065509209/27/10 06:55:31  5-MIN KDBQ 271255Z 00000KT 10SM CLR 06/04 A3005 960 89 200 000/00 RMK AO2
94908KDBQ DBQ20100927070009209/27/10 07:00:31  5-MIN KDBQ 271300Z 00000KT 10SM CLR 07/05 A3005 960 89 200 000/00 RMK AO2
94908KDBQ DBQ20100927070509209/27/10 07:05:31  5-MIN KDBQ 271305Z 00000KT 10SM CLR 07/06 A3005 960 93 200 000/00 RMK AO2
94908KDBQ DBQ20100927071009209/27/10 07:10:31  5-MIN KDBQ 271310Z 00000KT 10SM CLR 07/06 A3004 960 89 300 000/00 RMK AO2
94908KDBQ DBQ20100927071509209/27/10 07:15:31  5-MIN KDBQ 271315Z 22003KT 10SM CLR 08/06 A3005 960 89 400 220/03 RMK AO2
94908KDBQ DBQ20100927072009209/27/10 07:20:31  5-MIN KDBQ 271320Z 21003KT 10SM CLR 08/06 A3005 960 89 400 210/03 RMK AO2
94908KDBQ DBQ20100927072509209/27/10 07:25:31  5-MIN KDBQ 271325Z 23003KT 10SM CLR 08/07 A3005 960 89 400 220/03 RMK AO2
94908KDBQ DBQ20100927073009209/27/10 07:30:31  5-MIN KDBQ 271330Z 23004KT 10SM CLR 09/07 A3005 960 86 500 230/04 RMK AO2
94908KDBQ DBQ20100927073509209/27/10 07:35:31  5-MIN KDBQ 271335Z 24006KT 10SM CLR 09/07 A3005 960 83 600 240/06 RMK AO2
94908KDBQ DBQ20100927074009209/27/10 07:40:31  5-MIN KDBQ 271340Z 23005KT 10SM CLR 09/07 A3005 960 83 600 230/05 RMK AO2
94908KDBQ DBQ20100927074509209/27/10 07:45:31  5-MIN KDBQ 271345Z 23004KT 10SM CLR 09/07 A3004 970 86 600 230/04 RMK AO2
94908KDBQ DBQ20100927075010909/27/10 07:50:31  5-MIN KDBQ 271350Z 23005KT 10SM CLR 10/07 A3004 970 83 600 230/05 RMK AO2 SLP178 T01000072
94908KDBQ DBQ20100927075509209/27/10 07:55:31  5-MIN KDBQ 271355Z 23005KT 10SM CLR 11/07 A3004 970 80 700 230/05 RMK AO2
94908KDBQ DBQ20100927080009209/27/10 08:00:31  5-MIN KDBQ 271400Z 23007KT 10SM CLR 11/07 A3004 970 77 700 230/07 RMK AO2
94908KDBQ DBQ20100927080509209/27/10 08:05:31  5-MIN KDBQ 271405Z 23007KT 10SM CLR 11/07 A3003 980 80 700 220/07 RMK AO2
94908KDBQ DBQ20100927081009209/27/10 08:10:31  5-MIN KDBQ 271410Z 23006KT 10SM CLR 11/07 A3003 980 77 700 230/06 RMK AO2
94908KDBQ DBQ20100927081509209/27/10 08:15:31  5-MIN KDBQ 271415Z 22006KT 10SM CLR 11/07 A3003 980 77 800 220/06 RMK AO2
94908KDBQ DBQ20100927082009209/27/10 08:20:31  5-MIN KDBQ 271420Z 23006KT 10SM CLR 11/07 A3003 980 77 800 230/06 RMK AO2
94908KDBQ DBQ20100927082509209/27/10 08:25:31  5-MIN KDBQ 271425Z 24009KT 10SM CLR 12/07 A3003 980 74 800 240/09 RMK AO2
94908KDBQ DBQ20100927083009209/27/10 08:30:31  5-MIN KDBQ 271430Z 25007KT 10SM CLR 12/07 A3003 980 71 800 250/07 RMK AO2
94908KDBQ DBQ20100927083509209/27/10 08:35:31  5-MIN KDBQ 271435Z 26008KT 10SM CLR 12/07 A3003 980 71 900 260/08 RMK AO2
94908KDBQ DBQ20100927084009209/27/10 08:40:31  5-MIN KDBQ 271440Z 24009KT 10SM CLR 12/07 A3003 980 68 900 240/09 RMK AO2
94908KDBQ DBQ20100927084509209/27/10 08:45:31  5-MIN KDBQ 271445Z 24009KT 10SM CLR 12/07 A3003 980 68 900 240/09 RMK AO2
94908KDBQ DBQ20100927085011509/27/10 08:50:31  5-MIN KDBQ 271450Z 24008KT 10SM CLR 12/07 A3003 980 68 900 240/08 RMK AO2 SLP172 T01220067 58001
94908KDBQ DBQ20100927085509209/27/10 08:55:31  5-MIN KDBQ 271455Z 23009KT 10SM CLR 12/07 A3003 980 68 900 230/09 RMK AO2
94908KDBQ DBQ20100927090009209/27/10 09:00:31  5-MIN KDBQ 271500Z 24008KT 10SM CLR 12/07 A3002 980 68 900 240/08 RMK AO2
94908KDBQ DBQ20100927090509309/27/10 09:05:31  5-MIN KDBQ 271505Z 23006KT 10SM CLR 13/07 A3002 980 66 1000 230/06 RMK AO2
94908KDBQ DBQ20100927091009309/27/10 09:10:31  5-MIN KDBQ 271510Z 20010KT 10SM CLR 13/07 A3002 990 66 1000 200/10 RMK AO2
94908KDBQ DBQ20100927091509309/27/10 09:15:31  5-MIN KDBQ 271515Z 22008KT 10SM CLR 13/07 A3002 980 64 1100 220/08 RMK AO2
94908KDBQ DBQ20100927092009309/27/10 09:20:31  5-MIN KDBQ 271520Z 22009KT 10SM CLR 13/07 A3002 980 64 1100 220/09 RMK AO2
94908KDBQ DBQ20100927092509309/27/10 09:25:31  5-MIN KDBQ 271525Z 24008KT 10SM CLR 13/06 A3002 980 61 1100 230/08 RMK AO2
94908KDBQ DBQ20100927093009309/27/10 09:30:31  5-MIN KDBQ 271530Z 21009KT 10SM CLR 13/07 A3002 990 64 1100 210/09 RMK AO2
94908KDBQ DBQ20100927093509309/27/10 09:35:31  5-MIN KDBQ 271535Z 22007KT 10SM CLR 13/07 A3002 990 64 1100 220/07 RMK AO2
94908KDBQ DBQ20100927094009309/27/10 09:40:31  5-MIN KDBQ 271540Z 23008KT 10SM CLR 13/07 A3002 990 64 1100 220/08 RMK AO2
94908KDBQ DBQ20100927094509309/27/10 09:45:31  5-MIN KDBQ 271545Z 20008KT 10SM CLR 14/07 A3002 990 61 1100 200/08 RMK AO2
94908KDBQ DBQ20100927095011009/27/10 09:50:31  5-MIN KDBQ 271550Z 23007KT 10SM CLR 14/07 A3002 990 61 1100 230/07 RMK AO2 SLP169 T01390067
94908KDBQ DBQ20100927095509309/27/10 09:55:31  5-MIN KDBQ 271555Z 21005KT 10SM CLR 14/07 A3002 990 61 1100 200/05 RMK AO2
94908KDBQ DBQ20100927100009309/27/10 10:00:31  5-MIN KDBQ 271600Z 21005KT 10SM CLR 14/07 A3002 990 61 1100 210/05 RMK AO2
94908KDBQ DBQ20100927100509309/27/10 10:05:31  5-MIN KDBQ 271605Z 24006KT 10SM CLR 14/07 A3002 990 59 1200 240/06 RMK AO2
94908KDBQ DBQ20100927101009309/27/10 10:10:31  5-MIN KDBQ 271610Z 24007KT 10SM CLR 14/06 A3001 990 57 1200 240/07 RMK AO2
94908KDBQ DBQ20100927101509409/27/10 10:15:31  5-MIN KDBQ 271615Z 24004KT 10SM CLR 14/06 A3001 1000 57 1200 230/04 RMK AO2
94908KDBQ DBQ20100927102009409/27/10 10:20:31  5-MIN KDBQ 271620Z 22006KT 10SM CLR 14/06 A3001 1000 57 1200 220/06 RMK AO2
94908KDBQ DBQ20100927102509409/27/10 10:25:31  5-MIN KDBQ 271625Z 00000KT 10SM CLR 14/06 A3001 1000 57 1200 000/00 RMK AO2
94908KDBQ DBQ20100927103009409/27/10 10:30:31  5-MIN KDBQ 271630Z 20007KT 10SM CLR 15/07 A3001 1000 57 1300 200/07 RMK AO2
94908KDBQ DBQ20100927103509409/27/10 10:35:31  5-MIN KDBQ 271635Z 19005KT 10SM CLR 14/06 A3001 1000 57 1200 190/05 RMK AO2
94908KDBQ DBQ20100927104009409/27/10 10:40:31  5-MIN KDBQ 271640Z 24006KT 10SM CLR 15/06 A3001 1000 55 1300 240/06 RMK AO2
94908KDBQ DBQ20100927104509409/27/10 10:45:31  5-MIN KDBQ 271645Z 25005KT 10SM CLR 15/06 A3001 1000 55 1300 250/05 RMK AO2
94908KDBQ DBQ20100927105011109/27/10 10:50:31  5-MIN KDBQ 271650Z VRB03KT 10SM CLR 16/06 A3001 1000 51 1300 VRB/03 RMK AO2 SLP163 T01560056
94908KDBQ DBQ20100927105509409/27/10 10:55:31  5-MIN KDBQ 271655Z 22006KT 10SM CLR 16/06 A3001 1000 53 1300 220/06 RMK AO2
94908KDBQ DBQ20100927110009409/27/10 11:00:31  5-MIN KDBQ 271700Z VRB05KT 10SM CLR 16/06 A3000 1000 53 1300 VRB/05 RMK AO2
94908KDBQ DBQ20100927110509409/27/10 11:05:31  5-MIN KDBQ 271705Z VRB04KT 10SM CLR 16/06 A3000 1000 53 1300 VRB/04 RMK AO2
94908KDBQ DBQ20100927111009309/27/10 11:10:31  5-MIN KDBQ 271710Z VRB03KT 9SM CLR 16/06 A3000 1010 53 1300 VRB/03 RMK AO2
94908KDBQ DBQ20100927111509309/27/10 11:15:31  5-MIN KDBQ 271715Z VRB05KT 9SM CLR 16/07 A3000 1010 55 1400 VRB/05 RMK AO2
94908KDBQ DBQ20100927112009409/27/10 11:20:31  5-MIN KDBQ 271720Z 00000KT 10SM CLR 16/06 A2999 1010 53 1400 000/00 RMK AO2
94908KDBQ DBQ20100927112509409/27/10 11:25:31  5-MIN KDBQ 271725Z 23005KT 10SM CLR 16/06 A2999 1010 53 1400 230/05 RMK AO2
94908KDBQ DBQ20100927113009409/27/10 11:30:31  5-MIN KDBQ 271730Z 29006KT 10SM CLR 16/06 A2999 1010 51 1400 290/06 RMK AO2
94908KDBQ DBQ20100927113509409/27/10 11:35:31  5-MIN KDBQ 271735Z 23005KT 10SM CLR 16/07 A2999 1010 53 1400 230/05 RMK AO2
94908KDBQ DBQ20100927114011009/27/10 11:40:31  5-MIN KDBQ 271740Z 28007KT 230V320 10SM CLR 17/07 A2999 1010 53 1500 280/07 230V320 RMK AO2
94908KDBQ DBQ20100927114509409/27/10 11:45:31  5-MIN KDBQ 271745Z 30007KT 10SM CLR 17/06 A2999 1020 49 1500 300/07 RMK AO2
94908KDBQ DBQ20100927115012909/27/10 11:50:31  5-MIN KDBQ 271750Z 00000KT 10SM CLR 17/06 A2999 1020 49 1500 000/00 RMK AO2 SLP157 T01670061 10167 20033 56013
94908KDBQ DBQ20100927115509409/27/10 11:55:31  5-MIN KDBQ 271755Z VRB06KT 10SM CLR 17/06 A2998 1020 47 1600 VRB/06 RMK AO2
94908KDBQ DBQ20100927120009409/27/10 12:00:31  5-MIN KDBQ 271800Z 29005KT 10SM CLR 17/06 A2998 1020 47 1500 290/05 RMK AO2
94908KDBQ DBQ20100927120509409/27/10 12:05:31  5-MIN KDBQ 271805Z 23003KT 10SM CLR 17/06 A2998 1020 49 1500 230/03 RMK AO2
94908KDBQ DBQ20100927121009409/27/10 12:10:31  5-MIN KDBQ 271810Z 20005KT 10SM CLR 16/06 A2998 1030 51 1400 200/05 RMK AO2
94908KDBQ DBQ20100927121509409/27/10 12:15:31  5-MIN KDBQ 271815Z 00000KT 10SM CLR 16/06 A2997 1030 51 1400 000/00 RMK AO2
94908KDBQ DBQ20100927122009409/27/10 12:20:31  5-MIN KDBQ 271820Z 28005KT 10SM CLR 17/06 A2997 1030 47 1600 280/05 RMK AO2
94908KDBQ DBQ20100927122509409/27/10 12:25:31  5-MIN KDBQ 271825Z 27008KT 10SM CLR 17/06 A2997 1030 47 1500 270/08 RMK AO2
94908KDBQ DBQ20100927123009409/27/10 12:30:31  5-MIN KDBQ 271830Z 30007KT 10SM CLR 17/05 A2997 1030 45 1500 300/07 RMK AO2
94908KDBQ DBQ20100927123509409/27/10 12:35:31  5-MIN KDBQ 271835Z VRB05KT 10SM CLR 17/05 A2996 1040 45 1500 VRB/05 RMK AO2
94908KDBQ DBQ20100927124009409/27/10 12:40:31  5-MIN KDBQ 271840Z VRB05KT 10SM CLR 17/05 A2996 1040 45 1500 VRB/05 RMK AO2
94908KDBQ DBQ20100927124509409/27/10 12:45:31  5-MIN KDBQ 271845Z 28006KT 10SM CLR 17/06 A2995 1050 46 1600 280/06 RMK AO2
94908KDBQ DBQ20100927125011109/27/10 12:50:31  5-MIN KDBQ 271850Z 00000KT 10SM CLR 17/04 A2995 1050 44 1500 000/00 RMK AO2 SLP144 T01670044
94908KDBQ DBQ20100927125509409/27/10 12:55:31  5-MIN KDBQ 271855Z VRB03KT 10SM CLR 17/04 A2995 1050 42 1600 VRB/03 RMK AO2
94908KDBQ DBQ20100927130009409/27/10 13:00:31  5-MIN KDBQ 271900Z 24008KT 10SM CLR 17/06 A2994 1060 46 1600 240/08 RMK AO2
94908KDBQ DBQ20100927130509409/27/10 13:05:31  5-MIN KDBQ 271905Z 00000KT 10SM CLR 17/05 A2994 1060 44 1600 000/00 RMK AO2
94908KDBQ DBQ20100927131009409/27/10 13:10:31  5-MIN KDBQ 271910Z 20006KT 10SM CLR 18/05 A2994 1060 42 1700 200/06 RMK AO2
94908KDBQ DBQ20100927131509409/27/10 13:15:31  5-MIN KDBQ 271915Z 20004KT 10SM CLR 17/05 A2993 1070 44 1600 200/04 RMK AO2
94908KDBQ DBQ20100927132009409/27/10 13:20:31  5-MIN KDBQ 271920Z 00000KT 10SM CLR 18/06 A2992 1070 44 1700 000/00 RMK AO2
94908KDBQ DBQ20100927132509409/27/10 13:25:31  5-MIN KDBQ 271925Z VRB06KT 10SM CLR 18/06 A2992 1070 44 1700 VRB/06 RMK AO2
94908KDBQ DBQ20100927133009409/27/10 13:30:31  5-MIN KDBQ 271930Z VRB04KT 10SM CLR 17/06 A2992 1080 46 1600 VRB/04 RMK AO2
94908KDBQ DBQ20100927133509409/27/10 13:35:31  5-MIN KDBQ 271935Z VRB03KT 10SM CLR 17/06 A2992 1080 46 1600 VRB/03 RMK AO2
94908KDBQ DBQ20100927134009409/27/10 13:40:31  5-MIN KDBQ 271940Z 19004KT 10SM CLR 17/06 A2992 1080 46 1600 190/04 RMK AO2
94908KDBQ DBQ20100927134509409/27/10 13:45:31  5-MIN KDBQ 271945Z 22007KT 10SM CLR 18/06 A2992 1080 44 1700 220/07 RMK AO2
94908KDBQ DBQ20100927135011109/27/10 13:50:31  5-MIN KDBQ 271950Z 22006KT 10SM CLR 18/06 A2992 1080 44 1700 220/06 RMK AO2 SLP135 T01780056
94908KDBQ DBQ20100927135509409/27/10 13:55:31  5-MIN KDBQ 271955Z 23004KT 10SM CLR 17/05 A2992 1080 44 1600 230/04 RMK AO2
94908KDBQ DBQ20100927140009409/27/10 14:00:31  5-MIN KDBQ 272000Z 26010KT 10SM CLR 18/06 A2992 1080 46 1700 250/10 RMK AO2
94908KDBQ DBQ20100927140509409/27/10 14:05:31  5-MIN KDBQ 272005Z 27008KT 10SM CLR 18/06 A2992 1080 44 1700 270/08 RMK AO2
94908KDBQ DBQ20100927141009409/27/10 14:10:31  5-MIN KDBQ 272010Z 28004KT 10SM CLR 17/05 A2991 1080 44 1600 280/04 RMK AO2
94908KDBQ DBQ20100927141509409/27/10 14:15:31  5-MIN KDBQ 272015Z VRB04KT 10SM CLR 18/04 A2991 1090 41 1700 VRB/04 RMK AO2
94908KDBQ DBQ20100927142009409/27/10 14:20:31  5-MIN KDBQ 272020Z 30005KT 10SM CLR 18/06 A2991 1090 44 1700 300/05 RMK AO2
94908KDBQ DBQ20100927142509409/27/10 14:25:31  5-MIN KDBQ 272025Z 00000KT 10SM CLR 18/06 A2991 1090 44 1700 000/00 RMK AO2
94908KDBQ DBQ20100927143009409/27/10 14:30:31  5-MIN KDBQ 272030Z 28005KT 10SM CLR 18/06 A2990 1090 46 1700 280/05 RMK AO2
94908KDBQ DBQ20100927143509409/27/10 14:35:31  5-MIN KDBQ 272035Z 26008KT 10SM CLR 18/06 A2990 1090 46 1700 260/08 RMK AO2
94908KDBQ DBQ20100927144009409/27/10 14:40:31  5-MIN KDBQ 272040Z 25005KT 10SM CLR 17/06 A2990 1100 46 1700 250/05 RMK AO2
94908KDBQ DBQ20100927144509409/27/10 14:45:31  5-MIN KDBQ 272045Z VRB04KT 10SM CLR 18/05 A2990 1100 42 1700 VRB/04 RMK AO2
94908KDBQ DBQ20100927145011709/27/10 14:50:31  5-MIN KDBQ 272050Z 23007KT 10SM CLR 17/06 A2989 1100 47 1700 230/07 RMK AO2 SLP125 T01720061 58014
94908KDBQ DBQ20100927145509409/27/10 14:55:31  5-MIN KDBQ 272055Z 21003KT 10SM CLR 17/06 A2989 1110 46 1700 200/03 RMK AO2
94908KDBQ DBQ20100927150009409/27/10 15:00:31  5-MIN KDBQ 272100Z 20005KT 10SM CLR 18/06 A2989 1110 44 1700 200/05 RMK AO2
94908KDBQ DBQ20100927150509409/27/10 15:05:31  5-MIN KDBQ 272105Z VRB04KT 10SM CLR 18/06 A2989 1110 44 1700 VRB/04 RMK AO2
94908KDBQ DBQ20100927151009409/27/10 15:10:31  5-MIN KDBQ 272110Z 19004KT 10SM CLR 18/06 A2988 1110 44 1700 190/04 RMK AO2
94908KDBQ DBQ20100927151509409/27/10 15:15:31  5-MIN KDBQ 272115Z 19005KT 10SM CLR 18/05 A2988 1120 42 1700 190/05 RMK AO2
94908KDBQ DBQ20100927152009409/27/10 15:20:31  5-MIN KDBQ 272120Z 00000KT 10SM CLR 18/06 A2988 1120 44 1700 000/00 RMK AO2
94908KDBQ DBQ20100927152509409/27/10 15:25:31  5-MIN KDBQ 272125Z 19005KT 10SM CLR 18/06 A2988 1120 44 1700 180/05 RMK AO2
94908KDBQ DBQ20100927153009409/27/10 15:30:31  5-MIN KDBQ 272130Z 21006KT 10SM CLR 18/07 A2988 1120 48 1700 210/06 RMK AO2
94908KDBQ DBQ20100927153509409/27/10 15:35:31  5-MIN KDBQ 272135Z 21007KT 10SM CLR 18/06 A2988 1120 46 1700 210/07 RMK AO2
94908KDBQ DBQ20100927154009409/27/10 15:40:31  5-MIN KDBQ 272140Z 23003KT 10SM CLR 18/06 A2987 1120 44 1700 230/03 RMK AO2
94908KDBQ DBQ20100927154509409/27/10 15:45:31  5-MIN KDBQ 272145Z 20006KT 10SM CLR 18/06 A2987 1120 46 1700 200/06 RMK AO2
94908KDBQ DBQ20100927155011109/27/10 15:50:31  5-MIN KDBQ 272150Z 20006KT 10SM CLR 18/07 A2987 1120 48 1700 200/06 RMK AO2 SLP119 T01780067
94908KDBQ DBQ20100927155509409/27/10 15:55:31  5-MIN KDBQ 272155Z 21004KT 10SM CLR 18/06 A2987 1120 46 1700 210/04 RMK AO2
94908KDBQ DBQ20100927160009409/27/10 16:00:31  5-MIN KDBQ 272200Z 24007KT 10SM CLR 18/07 A2987 1120 48 1700 240/07 RMK AO2
94908KDBQ DBQ20100927160509409/27/10 16:05:31  5-MIN KDBQ 272205Z 24009KT 10SM CLR 18/06 A2987 1120 44 1800 240/09 RMK AO2
94908KDBQ DBQ20100927161009409/27/10 16:10:31  5-MIN KDBQ 272210Z 25008KT 10SM CLR 17/06 A2987 1120 47 1700 250/08 RMK AO2
94908KDBQ DBQ20100927161509409/27/10 16:15:31  5-MIN KDBQ 272215Z 25006KT 10SM CLR 18/06 A2987 1130 46 1800 250/06 RMK AO2
94908KDBQ DBQ20100927162009409/27/10 16:20:31  5-MIN KDBQ 272220Z 25006KT 10SM CLR 17/06 A2987 1130 47 1700 250/06 RMK AO2
94908KDBQ DBQ20100927162509409/27/10 16:25:31  5-MIN KDBQ 272225Z 24005KT 10SM CLR 17/06 A2987 1130 47 1700 240/05 RMK AO2
94908KDBQ DBQ20100927163009409/27/10 16:30:31  5-MIN KDBQ 272230Z VRB04KT 10SM CLR 17/07 A2987 1130 53 1600 VRB/04 RMK AO2
94908KDBQ DBQ20100927163509409/27/10 16:35:31  5-MIN KDBQ 272235Z 22004KT 10SM CLR 17/07 A2986 1130 53 1600 220/04 RMK AO2
94908KDBQ DBQ20100927164009409/27/10 16:40:31  5-MIN KDBQ 272240Z 22006KT 10SM CLR 17/07 A2986 1130 49 1700 220/06 RMK AO2
94908KDBQ DBQ20100927164509409/27/10 16:45:31  5-MIN KDBQ 272245Z 22006KT 10SM CLR 17/07 A2986 1130 51 1600 220/06 RMK AO2
94908KDBQ DBQ20100927165011109/27/10 16:50:31  5-MIN KDBQ 272250Z 21005KT 10SM CLR 17/07 A2986 1130 53 1600 210/05 RMK AO2 SLP114 T01670072
94908KDBQ DBQ20100927165509409/27/10 16:55:31  5-MIN KDBQ 272255Z 21005KT 10SM CLR 17/07 A2986 1130 53 1600 210/05 RMK AO2
94908KDBQ DBQ20100927170009409/27/10 17:00:31  5-MIN KDBQ 272300Z 20005KT 10SM CLR 17/07 A2986 1140 53 1600 200/05 RMK AO2
94908KDBQ DBQ20100927170509409/27/10 17:05:31  5-MIN KDBQ 272305Z 20004KT 10SM CLR 16/08 A2985 1140 57 1600 200/04 RMK AO2
94908KDBQ DBQ20100927171009409/27/10 17:10:31  5-MIN KDBQ 272310Z 21005KT 10SM CLR 16/08 A2985 1140 57 1600 210/05 RMK AO2
94908KDBQ DBQ20100927171509409/27/10 17:15:31  5-MIN KDBQ 272315Z 21005KT 10SM CLR 16/08 A2985 1140 57 1600 210/05 RMK AO2
94908KDBQ DBQ20100927172009409/27/10 17:20:31  5-MIN KDBQ 272320Z 20005KT 10SM CLR 16/08 A2985 1140 57 1600 200/05 RMK AO2
94908KDBQ DBQ20100927172509409/27/10 17:25:31  5-MIN KDBQ 272325Z 20005KT 10SM CLR 16/08 A2985 1140 57 1600 200/05 RMK AO2
94908KDBQ DBQ20100927173009409/27/10 17:30:31  5-MIN KDBQ 272330Z 21005KT 10SM CLR 16/08 A2985 1150 57 1600 210/05 RMK AO2
94908KDBQ DBQ20100927173509409/27/10 17:35:31  5-MIN KDBQ 272335Z 21006KT 10SM CLR 16/07 A2985 1150 57 1500 210/06 RMK AO2
94908KDBQ DBQ20100927174009409/27/10 17:40:31  5-MIN KDBQ 272340Z 20005KT 10SM CLR 16/07 A2985 1150 57 1500 200/05 RMK AO2
94908KDBQ DBQ20100927174509409/27/10 17:45:31  5-MIN KDBQ 272345Z 20005KT 10SM CLR 15/07 A2985 1150 59 1500 200/05 RMK AO2
94908KDBQ DBQ20100927175012909/27/10 17:50:31  5-MIN KDBQ 272350Z 20005KT 10SM CLR 15/07 A2985 1150 59 1500 200/05 RMK AO2 SLP112 T01500072 10178 20150 56030
94908KDBQ DBQ20100927175509409/27/10 17:55:31  5-MIN KDBQ 272355Z 20005KT 10SM CLR 14/07 A2985 1150 61 1400 200/05 RMK AO2
94908KDBQ DBQ20100927180009409/27/10 18:00:31  5-MIN KDBQ 280000Z 21004KT 10SM CLR 14/07 A2985 1140 61 1400 200/04 RMK AO2
94908KDBQ DBQ20100927180509409/27/10 18:05:31  5-MIN KDBQ 280005Z 23003KT 10SM CLR 14/07 A2985 1140 64 1300 230/03 RMK AO2
94908KDBQ DBQ20100927181009409/27/10 18:10:31  5-MIN KDBQ 280010Z VRB03KT 10SM CLR 14/07 A2986 1140 61 1300 VRB/03 RMK AO2
94908KDBQ DBQ20100927181509409/27/10 18:15:31  5-MIN KDBQ 280015Z 00000KT 10SM CLR 14/07 A2986 1140 61 1300 000/00 RMK AO2
94908KDBQ DBQ20100927182009409/27/10 18:20:31  5-MIN KDBQ 280020Z 00000KT 10SM CLR 13/07 A2986 1140 66 1200 000/00 RMK AO2
94908KDBQ DBQ20100927182509409/27/10 18:25:31  5-MIN KDBQ 280025Z 00000KT 10SM CLR 14/07 A2986 1140 64 1300 000/00 RMK AO2
94908KDBQ DBQ20100927183009409/27/10 18:30:31  5-MIN KDBQ 280030Z 00000KT 10SM CLR 13/07 A2986 1140 69 1200 000/00 RMK AO2
94908KDBQ DBQ20100927183509409/27/10 18:35:31  5-MIN KDBQ 280035Z 19003KT 10SM CLR 12/08 A2986 1140 74 1100 190/03 RMK AO2
94908KDBQ DBQ20100927184009409/27/10 18:40:31  5-MIN KDBQ 280040Z 20003KT 10SM CLR 12/07 A2986 1140 71 1100 200/03 RMK AO2
94908KDBQ DBQ20100927184509409/27/10 18:45:31  5-MIN KDBQ 280045Z 20003KT 10SM CLR 12/07 A2986 1140 71 1100 200/03 RMK AO2
94908KDBQ DBQ20100927185011109/27/10 18:50:31  5-MIN KDBQ 280050Z 18004KT 10SM CLR 12/07 A2986 1140 74 1000 180/04 RMK AO2 SLP115 T01170072
94908KDBQ DBQ20100927185509409/27/10 18:55:31  5-MIN KDBQ 280055Z 19004KT 10SM CLR 12/07 A2986 1130 71 1100 190/04 RMK AO2
94908KDBQ DBQ20100927190009909/27/10 19:00:31  5-MIN KDBQ 280100Z AUTO 18004KT 10SM CLR 12/07 A2986 1140 74 1000 180/04 RMK AO2
94908KDBQ DBQ20100927190509909/27/10 19:05:31  5-MIN KDBQ 280105Z AUTO 18004KT 10SM CLR 12/07 A2985 1140 74 1100 180/04 RMK AO2
94908KDBQ DBQ20100927191009909/27/10 19:10:31  5-MIN KDBQ 280110Z AUTO 18004KT 10SM CLR 12/07 A2985 1140 71 1100 170/04 RMK AO2
94908KDBQ DBQ20100927191509909/27/10 19:15:31  5-MIN KDBQ 280115Z AUTO 17003KT 10SM CLR 12/07 A2986 1140 71 1000 170/03 RMK AO2
94908KDBQ DBQ20100927192009909/27/10 19:20:31  5-MIN KDBQ 280120Z AUTO 18004KT 10SM CLR 12/07 A2986 1140 68 1100 180/04 RMK AO2
94908KDBQ DBQ20100927192509909/27/10 19:25:31  5-MIN KDBQ 280125Z AUTO 19004KT 10SM CLR 12/07 A2986 1140 71 1000 190/04 RMK AO2
94908KDBQ DBQ20100927193009909/27/10 19:30:31  5-MIN KDBQ 280130Z AUTO 19003KT 10SM CLR 12/07 A2986 1140 71 1000 190/03 RMK AO2
94908KDBQ DBQ20100927193509909/27/10 19:35:31  5-MIN KDBQ 280135Z AUTO 18004KT 10SM CLR 12/07 A2985 1140 71 1100 180/04 RMK AO2
94908KDBQ DBQ20100927194009909/27/10 19:40:31  5-MIN KDBQ 280140Z AUTO 19003KT 10SM CLR 11/07 A2985 1140 74 1000 180/03 RMK AO2
94908KDBQ DBQ20100927194509909/27/10 19:45:31  5-MIN KDBQ 280145Z AUTO 20003KT 10SM CLR 11/07 A2985 1140 74 1000 200/03 RMK AO2
94908KDBQ DBQ20100927195011609/27/10 19:50:31  5-MIN KDBQ 280150Z AUTO 19003KT 10SM CLR 11/07 A2985 1140 74 1000 190/03 RMK AO2 SLP111 T01110067
94908KDBQ DBQ20100927195509809/27/10 19:55:31  5-MIN KDBQ 280155Z AUTO 19003KT 10SM CLR 11/07 A2985 1140 77 900 190/03 RMK AO2
94908KDBQ DBQ20100927200009809/27/10 20:00:31  5-MIN KDBQ 280200Z AUTO 20003KT 10SM CLR 11/07 A2985 1140 77 900 190/03 RMK AO2
94908KDBQ DBQ20100927200509809/27/10 20:05:31  5-MIN KDBQ 280205Z AUTO 21003KT 10SM CLR 11/07 A2985 1140 77 900 210/03 RMK AO2
94908KDBQ DBQ20100927201009809/27/10 20:10:31  5-MIN KDBQ 280210Z AUTO 21003KT 10SM CLR 10/07 A2985 1140 83 900 200/03 RMK AO2
94908KDBQ DBQ20100927201509809/27/10 20:15:31  5-MIN KDBQ 280215Z AUTO 20004KT 10SM CLR 11/07 A2985 1150 80 900 200/04 RMK AO2
94908KDBQ DBQ20100927202009809/27/10 20:20:31  5-MIN KDBQ 280220Z AUTO 21003KT 10SM CLR 10/07 A2985 1150 83 900 200/03 RMK AO2
94908KDBQ DBQ20100927202509809/27/10 20:25:31  5-MIN KDBQ 280225Z AUTO 20003KT 10SM CLR 10/07 A2985 1150 83 900 200/03 RMK AO2
94908KDBQ DBQ20100927203009809/27/10 20:30:31  5-MIN KDBQ 280230Z AUTO 19004KT 10SM CLR 10/07 A2984 1150 83 900 190/04 RMK AO2
94908KDBQ DBQ20100927203509809/27/10 20:35:31  5-MIN KDBQ 280235Z AUTO 19003KT 10SM CLR 11/07 A2984 1150 77 900 190/03 RMK AO2
94908KDBQ DBQ20100927204009809/27/10 20:40:31  5-MIN KDBQ 280240Z AUTO 19004KT 10SM CLR 11/07 A2984 1150 77 900 190/04 RMK AO2
94908KDBQ DBQ20100927204509809/27/10 20:45:31  5-MIN KDBQ 280245Z AUTO 19004KT 10SM CLR 11/07 A2984 1150 77 900 190/04 RMK AO2
94908KDBQ DBQ20100927205012109/27/10 20:50:31  5-MIN KDBQ 280250Z AUTO 19005KT 10SM CLR 11/07 A2984 1160 77 900 190/05 RMK AO2 SLP105 T01060067 56015
94908KDBQ DBQ20100927205509809/27/10 20:55:31  5-MIN KDBQ 280255Z AUTO 19004KT 10SM CLR 11/07 A2984 1160 77 900 190/04 RMK AO2
94908KDBQ DBQ20100927210009809/27/10 21:00:31  5-MIN KDBQ 280300Z AUTO 19004KT 10SM CLR 11/07 A2983 1160 77 900 190/04 RMK AO2
94908KDBQ DBQ20100927210509809/27/10 21:05:31  5-MIN KDBQ 280305Z AUTO 19004KT 10SM CLR 11/07 A2983 1160 77 900 190/04 RMK AO2
94908KDBQ DBQ20100927211009809/27/10 21:10:31  5-MIN KDBQ 280310Z AUTO 20004KT 10SM CLR 10/07 A2982 1170 80 900 190/04 RMK AO2
94908KDBQ DBQ20100927211509809/27/10 21:15:31  5-MIN KDBQ 280315Z AUTO 20004KT 10SM CLR 10/07 A2982 1170 80 900 200/04 RMK AO2
94908KDBQ DBQ20100927212009809/27/10 21:20:31  5-MIN KDBQ 280320Z AUTO 20004KT 10SM CLR 10/07 A2982 1170 80 900 200/04 RMK AO2
94908KDBQ DBQ20100927212509809/27/10 21:25:31  5-MIN KDBQ 280325Z AUTO 21005KT 10SM CLR 09/07 A2982 1170 83 800 210/05 RMK AO2
94908KDBQ DBQ20100927213009809/27/10 21:30:31  5-MIN KDBQ 280330Z AUTO 21005KT 10SM CLR 08/07 A2982 1170 89 700 210/05 RMK AO2
94908KDBQ DBQ20100927213509809/27/10 21:35:31  5-MIN KDBQ 280335Z AUTO 21005KT 10SM CLR 08/07 A2982 1170 89 700 210/05 RMK AO2
94908KDBQ DBQ20100927214009809/27/10 21:40:31  5-MIN KDBQ 280340Z AUTO 21005KT 10SM CLR 09/07 A2981 1180 86 800 210/05 RMK AO2
94908KDBQ DBQ20100927214509809/27/10 21:45:31  5-MIN KDBQ 280345Z AUTO 21006KT 10SM CLR 09/07 A2981 1180 89 800 210/06 RMK AO2
94908KDBQ DBQ20100927215011509/27/10 21:50:31  5-MIN KDBQ 280350Z AUTO 21006KT 10SM CLR 09/07 A2981 1180 86 800 210/06 RMK AO2 SLP095 T00940072
94908KDBQ DBQ20100927215509809/27/10 21:55:31  5-MIN KDBQ 280355Z AUTO 22006KT 10SM CLR 09/07 A2981 1180 86 800 220/06 RMK AO2
94908KDBQ DBQ20100927220009809/27/10 22:00:31  5-MIN KDBQ 280400Z AUTO 22005KT 10SM CLR 09/07 A2980 1190 86 800 210/05 RMK AO2
94908KDBQ DBQ20100927220509809/27/10 22:05:31  5-MIN KDBQ 280405Z AUTO 21004KT 10SM CLR 10/07 A2981 1180 83 900 210/04 RMK AO2
94908KDBQ DBQ20100927221009909/27/10 22:10:31  5-MIN KDBQ 280410Z AUTO 20003KT 10SM CLR 11/07 A2980 1190 80 1000 200/03 RMK AO2
94908KDBQ DBQ20100927221509909/27/10 22:15:31  5-MIN KDBQ 280415Z AUTO 21003KT 10SM CLR 11/07 A2980 1190 77 1000 210/03 RMK AO2
94908KDBQ DBQ20100927222009909/27/10 22:20:31  5-MIN KDBQ 280420Z AUTO 21003KT 10SM CLR 11/07 A2980 1190 77 1000 210/03 RMK AO2
94908KDBQ DBQ20100927222509909/27/10 22:25:31  5-MIN KDBQ 280425Z AUTO 21003KT 10SM CLR 11/07 A2980 1190 74 1000 210/03 RMK AO2
94908KDBQ DBQ20100927223009909/27/10 22:30:31  5-MIN KDBQ 280430Z AUTO 20004KT 10SM CLR 11/07 A2980 1190 74 1000 200/04 RMK AO2
94908KDBQ DBQ20100927223509909/27/10 22:35:31  5-MIN KDBQ 280435Z AUTO 19003KT 10SM CLR 11/07 A2980 1190 77 1000 190/03 RMK AO2
94908KDBQ DBQ20100927224009909/27/10 22:40:31  5-MIN KDBQ 280440Z AUTO 17003KT 10SM CLR 11/07 A2980 1190 80 1000 170/03 RMK AO2
94908KDBQ DBQ20100927224509909/27/10 22:45:31  5-MIN KDBQ 280445Z AUTO 18004KT 10SM CLR 11/07 A2980 1190 77 1000 170/04 RMK AO2
94908KDBQ DBQ20100927225011609/27/10 22:50:31  5-MIN KDBQ 280450Z AUTO 19004KT 10SM CLR 11/07 A2980 1190 74 1100 180/04 RMK AO2 SLP091 T01110067
94908KDBQ DBQ20100927225509909/27/10 22:55:31  5-MIN KDBQ 280455Z AUTO 19004KT 10SM CLR 11/07 A2979 1200 74 1100 190/04 RMK AO2
94908KDBQ DBQ20100927230009909/27/10 23:00:31  5-MIN KDBQ 280500Z AUTO 20004KT 10SM CLR 11/07 A2979 1200 74 1100 200/04 RMK AO2
94908KDBQ DBQ20100927230509909/27/10 23:05:31  5-MIN KDBQ 280505Z AUTO 20004KT 10SM CLR 11/07 A2979 1200 77 1000 200/04 RMK AO2
94908KDBQ DBQ20100927231009909/27/10 23:10:31  5-MIN KDBQ 280510Z AUTO 19004KT 10SM CLR 11/07 A2979 1200 77 1000 190/04 RMK AO2
94908KDBQ DBQ20100927231509909/27/10 23:15:31  5-MIN KDBQ 280515Z AUTO 19004KT 10SM CLR 11/07 A2979 1200 77 1000 190/04 RMK AO2
94908KDBQ DBQ20100927232009809/27/10 23:20:31  5-MIN KDBQ 280520Z AUTO 19004KT 10SM CLR 10/07 A2979 1200 80 900 190/04 RMK AO2
94908KDBQ DBQ20100927232509809/27/10 23:25:31  5-MIN KDBQ 280525Z AUTO 19004KT 10SM CLR 10/07 A2979 1200 80 900 190/04 RMK AO2
94908KDBQ DBQ20100927233009809/27/10 23:30:31  5-MIN KDBQ 280530Z AUTO 18004KT 10SM CLR 10/07 A2978 1200 80 900 180/04 RMK AO2
94908KDBQ DBQ20100927233509809/27/10 23:35:31  5-MIN KDBQ 280535Z AUTO 19004KT 10SM CLR 10/07 A2978 1210 80 900 190/04 RMK AO2
94908KDBQ DBQ20100927234009809/27/10 23:40:31  5-MIN KDBQ 280540Z AUTO 20004KT 10SM CLR 10/07 A2978 1210 80 900 200/04 RMK AO2
94908KDBQ DBQ20100927234509809/27/10 23:45:31  5-MIN KDBQ 280545Z AUTO 20004KT 10SM CLR 10/07 A2978 1210 80 900 200/04 RMK AO2
94908KDBQ DBQ20100927235014309/27/10 23:50:31  5-MIN KDBQ 280550Z AUTO 21004KT 10SM CLR 09/07 A2978 1210 83 900 210/04 RMK AO2 SLP084 T00940067 10144 20083 401780028 58003
94908KDBQ DBQ20100927235509809/27/10 23:55:31  5-MIN KDBQ 280555Z AUTO 21004KT 10SM CLR 09/07 A2978 1210 83 900 210/04 RMK AO2
94908KDBQ DBQ20100928000009809/28/10 00:00:38  5-MIN KDBQ 280600Z AUTO 20004KT 10SM CLR 09/07 A2978 1210 83 900 200/04 RMK AO2
94908KDBQ DBQ20100928000509809/28/10 00:05:31  5-MIN KDBQ 280605Z AUTO 19004KT 10SM CLR 09/07 A2978 1210 83 900 190/04 RMK AO2
94908KDBQ DBQ20100928001009809/28/10 00:10:31  5-MIN KDBQ 280610Z AUTO 17003KT 10SM CLR 09/07 A2978 1210 83 900 170/03 RMK AO2
94908KDBQ DBQ20100928001509809/28/10 00:15:31  5-MIN KDBQ 280615Z AUTO 18003KT 10SM CLR 09/07 A2978 1210 83 900 180/03 RMK AO2
94908KDBQ DBQ20100928002009809/28/10 00:20:31  5-MIN KDBQ 280620Z AUTO 18004KT 10SM CLR 09/07 A2977 1220 83 900 180/04 RMK AO2
94908KDBQ DBQ20100928002509809/28/10 00:25:31  5-MIN KDBQ 280625Z AUTO 19005KT 10SM CLR 10/07 A2977 1220 80 900 190/05 RMK AO2
94908KDBQ DBQ20100928003009809/28/10 00:30:31  5-MIN KDBQ 280630Z AUTO 20004KT 10SM CLR 10/07 A2977 1220 80 900 190/04 RMK AO2
94908KDBQ DBQ20100928003509809/28/10 00:35:31  5-MIN KDBQ 280635Z AUTO 20004KT 10SM CLR 09/07 A2977 1220 83 900 200/04 RMK AO2
94908KDBQ DBQ20100928004009809/28/10 00:40:31  5-MIN KDBQ 280640Z AUTO 19004KT 10SM CLR 09/07 A2976 1220 83 900 190/04 RMK AO2
94908KDBQ DBQ20100928004509809/28/10 00:45:31  5-MIN KDBQ 280645Z AUTO 18003KT 10SM CLR 09/07 A2976 1220 83 900 180/03 RMK AO2
94908KDBQ DBQ20100928005011509/28/10 00:50:31  5-MIN KDBQ 280650Z AUTO 19003KT 10SM CLR 09/07 A2976 1220 83 900 190/03 RMK AO2 SLP079 T00940067
94908KDBQ DBQ20100928005509809/28/10 00:55:31  5-MIN KDBQ 280655Z AUTO 00000KT 10SM CLR 09/07 A2976 1230 83 900 000/00 RMK AO2
94908KDBQ DBQ20100928010009809/28/10 01:00:31  5-MIN KDBQ 280700Z AUTO 00000KT 10SM CLR 09/07 A2976 1230 86 900 000/00 RMK AO2
94908KDBQ DBQ20100928010509809/28/10 01:05:31  5-MIN KDBQ 280705Z AUTO 00000KT 10SM CLR 09/07 A2976 1230 86 900 000/00 RMK AO2
94908KDBQ DBQ20100928011009809/28/10 01:10:31  5-MIN KDBQ 280710Z AUTO 00000KT 10SM CLR 09/07 A2976 1230 83 900 000/00 RMK AO2
94908KDBQ DBQ20100928011509809/28/10 01:15:31  5-MIN KDBQ 280715Z AUTO 00000KT 10SM CLR 09/07 A2976 1230 83 900 000/00 RMK AO2
94908KDBQ DBQ20100928012009809/28/10 01:20:31  5-MIN KDBQ 280720Z AUTO 19003KT 10SM CLR 09/07 A2976 1230 83 900 180/03 RMK AO2
94908KDBQ DBQ20100928012509809/28/10 01:25:31  5-MIN KDBQ 280725Z AUTO 00000KT 10SM CLR 09/07 A2976 1230 83 900 000/00 RMK AO2
94908KDBQ DBQ20100928013009809/28/10 01:30:31  5-MIN KDBQ 280730Z AUTO 00000KT 10SM CLR 09/07 A2975 1230 83 900 000/00 RMK AO2
94908KDBQ DBQ20100928013509809/28/10 01:35:31  5-MIN KDBQ 280735Z AUTO 00000KT 10SM CLR 09/07 A2975 1230 83 900 000/00 RMK AO2
94908KDBQ DBQ20100928014009809/28/10 01:40:31  5-MIN KDBQ 280740Z AUTO 00000KT 10SM CLR 09/07 A2975 1230 83 900 000/00 RMK AO2
94908KDBQ DBQ20100928014509809/28/10 01:45:31  5-MIN KDBQ 280745Z AUTO 00000KT 10SM CLR 09/07 A2975 1230 83 900 000/00 RMK AO2
94908KDBQ DBQ20100928015011509/28/10 01:50:31  5-MIN KDBQ 280750Z AUTO 00000KT 10SM CLR 09/07 A2975 1230 86 800 000/00 RMK AO2 SLP075 T00890067
94908KDBQ DBQ20100928015509809/28/10 01:55:31  5-MIN KDBQ 280755Z AUTO 18004KT 10SM CLR 09/07 A2975 1240 86 900 170/04 RMK AO2
94908KDBQ DBQ20100928020009809/28/10 02:00:31  5-MIN KDBQ 280800Z AUTO 19004KT 10SM CLR 09/07 A2975 1240 86 900 180/04 RMK AO2
94908KDBQ DBQ20100928020509809/28/10 02:05:31  5-MIN KDBQ 280805Z AUTO 19004KT 10SM CLR 09/07 A2975 1240 86 900 190/04 RMK AO2
94908KDBQ DBQ20100928021009809/28/10 02:10:31  5-MIN KDBQ 280810Z AUTO 19003KT 10SM CLR 09/07 A2975 1240 86 800 190/03 RMK AO2
94908KDBQ DBQ20100928021509809/28/10 02:15:31  5-MIN KDBQ 280815Z AUTO 20003KT 10SM CLR 08/07 A2975 1240 89 800 200/03 RMK AO2
94908KDBQ DBQ20100928022009809/28/10 02:20:31  5-MIN KDBQ 280820Z AUTO 20004KT 10SM CLR 08/07 A2975 1240 93 700 200/04 RMK AO2
94908KDBQ DBQ20100928022509809/28/10 02:25:31  5-MIN KDBQ 280825Z AUTO 21003KT 10SM CLR 07/06 A2975 1240 93 600 200/03 RMK AO2
94908KDBQ DBQ20100928023009809/28/10 02:30:31  5-MIN KDBQ 280830Z AUTO 21003KT 10SM CLR 07/06 A2974 1240 93 600 200/03 RMK AO2
94908KDBQ DBQ20100928023509809/28/10 02:35:31  5-MIN KDBQ 280835Z AUTO 00000KT 10SM CLR 07/06 A2974 1240 93 600 000/00 RMK AO2
94908KDBQ DBQ20100928024009809/28/10 02:40:31  5-MIN KDBQ 280840Z AUTO 21003KT 10SM CLR 07/06 A2974 1240 93 600 210/03 RMK AO2
94908KDBQ DBQ20100928024509809/28/10 02:45:31  5-MIN KDBQ 280845Z AUTO 23003KT 10SM CLR 08/06 A2974 1240 89 700 230/03 RMK AO2
94908KDBQ DBQ20100928025012109/28/10 02:50:31  5-MIN KDBQ 280850Z AUTO 00000KT 10SM CLR 08/07 A2974 1240 93 700 000/00 RMK AO2 SLP074 T00780067 56020
94908KDBQ DBQ20100928025509809/28/10 02:55:31  5-MIN KDBQ 280855Z AUTO 26003KT 10SM CLR 08/07 A2975 1240 93 700 260/03 RMK AO2
94908KDBQ DBQ20100928030009809/28/10 03:00:31  5-MIN KDBQ 280900Z AUTO 00000KT 10SM CLR 08/07 A2975 1240 93 700 000/00 RMK AO2
94908KDBQ DBQ20100928030509809/28/10 03:05:31  5-MIN KDBQ 280905Z AUTO 00000KT 10SM CLR 08/06 A2975 1240 89 700 000/00 RMK AO2
94908KDBQ DBQ20100928031009809/28/10 03:10:31  5-MIN KDBQ 280910Z AUTO 00000KT 10SM CLR 08/06 A2975 1240 89 700 000/00 RMK AO2
94908KDBQ DBQ20100928031509809/28/10 03:15:31  5-MIN KDBQ 280915Z AUTO 00000KT 10SM CLR 08/06 A2975 1230 89 700 000/00 RMK AO2
94908KDBQ DBQ20100928032009809/28/10 03:20:31  5-MIN KDBQ 280920Z AUTO 00000KT 10SM CLR 08/07 A2975 1230 89 800 000/00 RMK AO2
94908KDBQ DBQ20100928032509809/28/10 03:25:31  5-MIN KDBQ 280925Z AUTO 00000KT 10SM CLR 08/07 A2975 1230 89 800 000/00 RMK AO2
94908KDBQ DBQ20100928033009809/28/10 03:30:31  5-MIN KDBQ 280930Z AUTO 00000KT 10SM CLR 08/07 A2976 1230 89 800 000/00 RMK AO2
94908KDBQ DBQ20100928033509809/28/10 03:35:31  5-MIN KDBQ 280935Z AUTO 00000KT 10SM CLR 08/07 A2976 1230 89 800 000/00 RMK AO2
94908KDBQ DBQ20100928034009809/28/10 03:40:31  5-MIN KDBQ 280940Z AUTO 05003KT 10SM CLR 08/07 A2976 1230 89 800 050/03 RMK AO2
94908KDBQ DBQ20100928034509809/28/10 03:45:31  5-MIN KDBQ 280945Z AUTO 00000KT 10SM CLR 08/07 A2976 1230 89 800 000/00 RMK AO2
94908KDBQ DBQ20100928035011509/28/10 03:50:31  5-MIN KDBQ 280950Z AUTO 03003KT 10SM CLR 08/07 A2976 1230 89 800 030/03 RMK AO2 SLP078 T00830067
94908KDBQ DBQ20100928035509809/28/10 03:55:31  5-MIN KDBQ 280955Z AUTO 04004KT 10SM CLR 08/06 A2976 1230 89 700 040/04 RMK AO2
94908KDBQ DBQ20100928040009809/28/10 04:00:31  5-MIN KDBQ 281000Z AUTO 05003KT 10SM CLR 08/07 A2976 1230 89 800 050/03 RMK AO2
94908KDBQ DBQ20100928040509809/28/10 04:05:31  5-MIN KDBQ 281005Z AUTO 00000KT 10SM CLR 08/07 A2976 1230 89 800 000/00 RMK AO2
94908KDBQ DBQ20100928041009809/28/10 04:10:31  5-MIN KDBQ 281010Z AUTO 00000KT 10SM CLR 08/07 A2976 1230 93 700 000/00 RMK AO2
94908KDBQ DBQ20100928041509809/28/10 04:15:31  5-MIN KDBQ 281015Z AUTO 00000KT 10SM CLR 07/06 A2976 1220 93 600 000/00 RMK AO2
94908KDBQ DBQ20100928042009809/28/10 04:20:31  5-MIN KDBQ 281020Z AUTO 00000KT 10SM CLR 07/06 A2976 1220 93 600 000/00 RMK AO2
94908KDBQ DBQ20100928042509809/28/10 04:25:31  5-MIN KDBQ 281025Z AUTO 00000KT 10SM CLR 07/06 A2976 1220 93 600 000/00 RMK AO2
94908KDBQ DBQ20100928043009809/28/10 04:30:31  5-MIN KDBQ 281030Z AUTO 00000KT 10SM CLR 08/07 A2976 1220 89 800 000/00 RMK AO2
94908KDBQ DBQ20100928043509809/28/10 04:35:31  5-MIN KDBQ 281035Z AUTO 00000KT 10SM CLR 08/07 A2977 1220 93 700 000/00 RMK AO2
94908KDBQ DBQ20100928044009809/28/10 04:40:31  5-MIN KDBQ 281040Z AUTO 00000KT 10SM CLR 07/06 A2977 1220 93 600 000/00 RMK AO2
94908KDBQ DBQ20100928044509809/28/10 04:45:31  5-MIN KDBQ 281045Z AUTO 00000KT 10SM CLR 07/06 A2977 1220 93 600 000/00 RMK AO2
94908KDBQ DBQ20100928045011309/28/10 04:50:31  5-MIN KDBQ 281050Z 00000KT 10SM FEW060 07/06 A2977 1220 93 500 000/00 RMK AO2 SLP082 T00670056
94908KDBQ DBQ20100928045509609/28/10 04:55:31  5-MIN KDBQ 281055Z 00000KT 10SM SCT060 07/06 A2977 1220 93 600 000/00 RMK AO2
94908KDBQ DBQ20100928050009609/28/10 05:00:31  5-MIN KDBQ 281100Z 00000KT 10SM BKN060 08/06 A2977 1220 89 700 000/00 RMK AO2
94908KDBQ DBQ20100928050509609/28/10 05:05:31  5-MIN KDBQ 281105Z 01003KT 10SM BKN060 08/07 A2977 1220 93 700 360/03 RMK AO2
94908KDBQ DBQ20100928051010309/28/10 05:10:31  5-MIN KDBQ 281110Z 36004KT 10SM BKN060 BKN070 07/07 A2977 1220 96 600 360/04 RMK AO2
94908KDBQ DBQ20100928051510309/28/10 05:15:31  5-MIN KDBQ 281115Z 01004KT 10SM SCT060 BKN070 09/07 A2977 1220 89 800 010/04 RMK AO2
94908KDBQ DBQ20100928052010309/28/10 05:20:31  5-MIN KDBQ 281120Z 36005KT 10SM BKN060 OVC070 09/07 A2977 1220 89 800 360/05 RMK AO2
94908KDBQ DBQ20100928052509609/28/10 05:25:31  5-MIN KDBQ 281125Z 01006KT 10SM OVC065 09/07 A2977 1220 89 800 010/06 RMK AO2
94908KDBQ DBQ20100928053009609/28/10 05:30:31  5-MIN KDBQ 281130Z 01007KT 10SM OVC065 09/08 A2977 1210 89 900 010/07 RMK AO2
94908KDBQ DBQ20100928053509609/28/10 05:35:31  5-MIN KDBQ 281135Z 01007KT 10SM OVC065 10/08 A2978 1210 89 900 010/07 RMK AO2
94908KDBQ DBQ20100928054009609/28/10 05:40:31  5-MIN KDBQ 281140Z 02006KT 10SM OVC065 10/08 A2978 1210 89 900 020/06 RMK AO2
94908KDBQ DBQ20100928054509609/28/10 05:45:31  5-MIN KDBQ 281145Z 01006KT 10SM OVC065 10/08 A2978 1210 89 900 010/06 RMK AO2
94908KDBQ DBQ20100928055013209/28/10 05:50:31  5-MIN KDBQ 281150Z 02006KT 10SM OVC065 11/08 A2978 1210 86 1000 020/06 RMK AO2 SLP085 T01060083 10106 20067 56010
94908KDBQ DBQ20100928055509709/28/10 05:55:31  5-MIN KDBQ 281155Z 02007KT 10SM OVC065 11/08 A2978 1210 86 1000 020/07 RMK AO2
94908KDBQ DBQ20100928060009709/28/10 06:00:31  5-MIN KDBQ 281200Z 02007KT 10SM OVC065 11/08 A2978 1210 86 1000 020/07 RMK AO2
94908KDBQ DBQ20100928060509709/28/10 06:05:31  5-MIN KDBQ 281205Z 02007KT 10SM OVC065 11/08 A2978 1210 86 1000 020/07 RMK AO2
94908KDBQ DBQ20100928061009709/28/10 06:10:31  5-MIN KDBQ 281210Z 01008KT 10SM OVC065 11/08 A2978 1200 86 1000 010/08 RMK AO2
94908KDBQ DBQ20100928061509709/28/10 06:15:31  5-MIN KDBQ 281215Z 02008KT 10SM OVC065 11/08 A2979 1200 86 1000 020/08 RMK AO2
94908KDBQ DBQ20100928062009709/28/10 06:20:31  5-MIN KDBQ 281220Z 02007KT 10SM OVC065 11/08 A2978 1200 86 1000 020/07 RMK AO2
94908KDBQ DBQ20100928062509709/28/10 06:25:31  5-MIN KDBQ 281225Z 02007KT 10SM OVC065 11/09 A2979 1200 89 1000 020/07 RMK AO2
94908KDBQ DBQ20100928063009709/28/10 06:30:31  5-MIN KDBQ 281230Z 03007KT 10SM OVC065 11/09 A2979 1200 89 1000 030/07 RMK AO2
94908KDBQ DBQ20100928063509709/28/10 06:35:31  5-MIN KDBQ 281235Z 03007KT 10SM OVC070 11/09 A2979 1200 89 1000 030/07 RMK AO2
94908KDBQ DBQ20100928064009709/28/10 06:40:31  5-MIN KDBQ 281240Z 01007KT 10SM OVC070 11/09 A2979 1200 89 1000 010/07 RMK AO2
94908KDBQ DBQ20100928064509709/28/10 06:45:31  5-MIN KDBQ 281245Z 02007KT 10SM OVC070 11/09 A2979 1200 89 1000 020/07 RMK AO2
94908KDBQ DBQ20100928065011409/28/10 06:50:31  5-MIN KDBQ 281250Z 02008KT 10SM OVC070 11/09 A2979 1200 89 1000 020/08 RMK AO2 SLP091 T01060089
94908KDBQ DBQ20100928065509709/28/10 06:55:31  5-MIN KDBQ 281255Z 02009KT 10SM OVC070 11/09 A2979 1200 86 1100 020/09 RMK AO2
94908KDBQ DBQ20100928070009709/28/10 07:00:31  5-MIN KDBQ 281300Z 02008KT 10SM OVC070 11/09 A2980 1190 86 1100 020/08 RMK AO2
94908KDBQ DBQ20100928070509709/28/10 07:05:31  5-MIN KDBQ 281305Z 01009KT 10SM OVC070 11/09 A2980 1190 86 1100 010/09 RMK AO2
94908KDBQ DBQ20100928071009709/28/10 07:10:31  5-MIN KDBQ 281310Z 01009KT 10SM OVC070 11/09 A2980 1190 86 1100 010/09 RMK AO2
94908KDBQ DBQ20100928071509709/28/10 07:15:31  5-MIN KDBQ 281315Z 01011KT 10SM OVC070 11/09 A2980 1190 86 1000 010/11 RMK AO2
94908KDBQ DBQ20100928072009709/28/10 07:20:31  5-MIN KDBQ 281320Z 01010KT 10SM OVC070 11/09 A2980 1190 86 1000 010/10 RMK AO2
94908KDBQ DBQ20100928072509709/28/10 07:25:31  5-MIN KDBQ 281325Z 01010KT 10SM OVC070 11/09 A2980 1190 86 1000 010/10 RMK AO2
94908KDBQ DBQ20100928073009709/28/10 07:30:31  5-MIN KDBQ 281330Z 01010KT 10SM OVC070 11/09 A2980 1190 89 1000 010/10 RMK AO2
94908KDBQ DBQ20100928073509709/28/10 07:35:31  5-MIN KDBQ 281335Z 01010KT 10SM OVC070 11/09 A2980 1190 86 1000 010/10 RMK AO2
94908KDBQ DBQ20100928074009709/28/10 07:40:31  5-MIN KDBQ 281340Z 01011KT 10SM OVC070 11/09 A2980 1190 89 1000 010/11 RMK AO2
94908KDBQ DBQ20100928074509709/28/10 07:45:31  5-MIN KDBQ 281345Z 01013KT 10SM OVC070 11/09 A2981 1180 89 1000 010/13 RMK AO2
94908KDBQ DBQ20100928075011409/28/10 07:50:31  5-MIN KDBQ 281350Z 01011KT 10SM OVC070 11/09 A2981 1180 86 1000 010/11 RMK AO2 SLP097 T01110089
94908KDBQ DBQ20100928075509709/28/10 07:55:31  5-MIN KDBQ 281355Z 01011KT 10SM OVC070 12/09 A2981 1180 86 1100 010/11 RMK AO2
94908KDBQ DBQ20100928080009709/28/10 08:00:31  5-MIN KDBQ 281400Z 01011KT 10SM OVC070 12/09 A2981 1180 83 1100 010/11 RMK AO2
94908KDBQ DBQ20100928080509709/28/10 08:05:31  5-MIN KDBQ 281405Z 01012KT 10SM OVC070 12/09 A2981 1180 86 1100 010/12 RMK AO2
94908KDBQ DBQ20100928081009709/28/10 08:10:31  5-MIN KDBQ 281410Z 01011KT 10SM OVC070 12/09 A2981 1180 86 1100 010/11 RMK AO2
94908KDBQ DBQ20100928081509709/28/10 08:15:31  5-MIN KDBQ 281415Z 01014KT 10SM OVC070 12/09 A2981 1180 86 1100 010/14 RMK AO2
94908KDBQ DBQ20100928082009709/28/10 08:20:31  5-MIN KDBQ 281420Z 01012KT 10SM OVC070 12/09 A2981 1180 86 1100 010/12 RMK AO2
94908KDBQ DBQ20100928082509709/28/10 08:25:31  5-MIN KDBQ 281425Z 01011KT 10SM OVC070 12/09 A2982 1170 86 1100 010/11 RMK AO2
94908KDBQ DBQ20100928083009709/28/10 08:30:31  5-MIN KDBQ 281430Z 02014KT 10SM OVC070 12/09 A2982 1170 83 1100 020/14 RMK AO2
94908KDBQ DBQ20100928083509709/28/10 08:35:31  5-MIN KDBQ 281435Z 01013KT 10SM OVC065 12/09 A2982 1170 83 1100 010/13 RMK AO2
94908KDBQ DBQ20100928084009709/28/10 08:40:31  5-MIN KDBQ 281440Z 02012KT 10SM OVC065 12/09 A2983 1160 83 1100 010/12 RMK AO2
94908KDBQ DBQ20100928084509709/28/10 08:45:31  5-MIN KDBQ 281445Z 02012KT 10SM OVC065 12/09 A2983 1160 80 1100 010/12 RMK AO2
94908KDBQ DBQ20100928085012009/28/10 08:50:31  5-MIN KDBQ 281450Z 02012KT 10SM OVC065 12/09 A2983 1160 83 1100 020/12 RMK AO2 SLP103 T01220094 51011
94908KDBQ DBQ20100928085509709/28/10 08:55:31  5-MIN KDBQ 281455Z 01012KT 10SM OVC065 12/09 A2983 1160 80 1100 010/12 RMK AO2
94908KDBQ DBQ20100928090009709/28/10 09:00:31  5-MIN KDBQ 281500Z 02011KT 10SM OVC065 12/09 A2983 1160 80 1100 020/11 RMK AO2
94908KDBQ DBQ20100928090509709/28/10 09:05:31  5-MIN KDBQ 281505Z 02010KT 10SM OVC065 12/09 A2984 1160 80 1100 020/10 RMK AO2
94908KDBQ DBQ20100928091009709/28/10 09:10:31  5-MIN KDBQ 281510Z 01010KT 10SM OVC065 13/09 A2984 1160 77 1200 010/10 RMK AO2
94908KDBQ DBQ20100928091509709/28/10 09:15:31  5-MIN KDBQ 281515Z 01010KT 10SM OVC065 13/09 A2984 1160 77 1200 010/10 RMK AO2
94908KDBQ DBQ20100928092009709/28/10 09:20:31  5-MIN KDBQ 281520Z 02010KT 10SM OVC065 13/09 A2984 1160 77 1200 020/10 RMK AO2
94908KDBQ DBQ20100928092509709/28/10 09:25:31  5-MIN KDBQ 281525Z 01011KT 10SM OVC065 13/09 A2984 1160 74 1300 010/11 RMK AO2
94908KDBQ DBQ20100928093009709/28/10 09:30:31  5-MIN KDBQ 281530Z 01010KT 10SM OVC065 13/09 A2983 1160 74 1300 010/10 RMK AO2
94908KDBQ DBQ20100928093509709/28/10 09:35:31  5-MIN KDBQ 281535Z 01010KT 10SM OVC065 13/09 A2984 1160 74 1300 010/10 RMK AO2
94908KDBQ DBQ20100928094009709/28/10 09:40:31  5-MIN KDBQ 281540Z 01011KT 10SM OVC065 14/09 A2984 1160 74 1300 010/11 RMK AO2
94908KDBQ DBQ20100928094509709/28/10 09:45:31  5-MIN KDBQ 281545Z 02010KT 10SM OVC065 14/09 A2984 1160 72 1400 020/10 RMK AO2
94908KDBQ DBQ20100928095011409/28/10 09:50:31  5-MIN KDBQ 281550Z 01010KT 10SM OVC065 14/09 A2984 1160 69 1400 010/10 RMK AO2 SLP105 T01440089
94908KDBQ DBQ20100928095509709/28/10 09:55:31  5-MIN KDBQ 281555Z 02010KT 10SM OVC065 14/09 A2984 1160 72 1400 020/10 RMK AO2
94908KDBQ DBQ20100928100009709/28/10 10:00:31  5-MIN KDBQ 281600Z 01011KT 10SM OVC065 15/09 A2984 1150 69 1500 010/11 RMK AO2
94908KDBQ DBQ20100928100509709/28/10 10:05:31  5-MIN KDBQ 281605Z 02011KT 10SM OVC065 14/09 A2984 1150 72 1400 020/11 RMK AO2
94908KDBQ DBQ20100928101009709/28/10 10:10:31  5-MIN KDBQ 281610Z 02010KT 10SM OVC065 15/09 A2984 1150 69 1500 020/10 RMK AO2
94908KDBQ DBQ20100928101509709/28/10 10:15:31  5-MIN KDBQ 281615Z 01010KT 10SM OVC065 15/09 A2984 1150 66 1500 010/10 RMK AO2
94908KDBQ DBQ20100928102009709/28/10 10:20:31  5-MIN KDBQ 281620Z 01009KT 10SM OVC065 15/09 A2984 1150 69 1500 010/09 RMK AO2
94908KDBQ DBQ20100928102509709/28/10 10:25:31  5-MIN KDBQ 281625Z 01009KT 10SM OVC065 15/09 A2984 1150 69 1500 010/09 RMK AO2
94908KDBQ DBQ20100928103009709/28/10 10:30:31  5-MIN KDBQ 281630Z 02009KT 10SM OVC065 15/09 A2985 1150 69 1500 020/09 RMK AO2
94908KDBQ DBQ20100928103509709/28/10 10:35:31  5-MIN KDBQ 281635Z 02011KT 10SM OVC065 15/09 A2985 1150 69 1500 010/11 RMK AO2
94908KDBQ DBQ20100928104009709/28/10 10:40:31  5-MIN KDBQ 281640Z 02009KT 10SM OVC065 15/09 A2985 1150 69 1500 020/09 RMK AO2
94908KDBQ DBQ20100928104509709/28/10 10:45:31  5-MIN KDBQ 281645Z 01008KT 10SM OVC065 16/10 A2985 1150 69 1500 010/08 RMK AO2
94908KDBQ DBQ20100928105011409/28/10 10:50:31  5-MIN KDBQ 281650Z 01009KT 10SM OVC065 16/10 A2984 1150 69 1500 010/09 RMK AO2 SLP106 T01560100
94908KDBQ DBQ20100928105509709/28/10 10:55:31  5-MIN KDBQ 281655Z 36008KT 10SM OVC065 16/09 A2984 1150 67 1500 360/08 RMK AO2
94908KDBQ DBQ20100928110009709/28/10 11:00:31  5-MIN KDBQ 281700Z 01008KT 10SM OVC065 16/10 A2984 1150 69 1500 010/08 RMK AO2
94908KDBQ DBQ20100928110509709/28/10 11:05:31  5-MIN KDBQ 281705Z 01008KT 10SM OVC065 16/10 A2985 1150 69 1500 010/08 RMK AO2
94908KDBQ DBQ20100928111009709/28/10 11:10:31  5-MIN KDBQ 281710Z 35009KT 10SM OVC065 16/10 A2985 1150 69 1500 350/09 RMK AO2
94908KDBQ DBQ20100928111509709/28/10 11:15:31  5-MIN KDBQ 281715Z 35009KT 10SM OVC065 16/10 A2985 1150 69 1500 350/09 RMK AO2
94908KDBQ DBQ20100928112009709/28/10 11:20:31  5-MIN KDBQ 281720Z 35009KT 10SM OVC065 16/09 A2984 1150 67 1500 350/09 RMK AO2
94908KDBQ DBQ20100928112509709/28/10 11:25:31  5-MIN KDBQ 281725Z 35009KT 10SM OVC065 16/10 A2984 1150 69 1500 350/09 RMK AO2
94908KDBQ DBQ20100928113009709/28/10 11:30:31  5-MIN KDBQ 281730Z 36008KT 10SM OVC065 16/10 A2984 1150 69 1500 360/08 RMK AO2
94908KDBQ DBQ20100928113509709/28/10 11:35:31  5-MIN KDBQ 281735Z 36008KT 10SM OVC065 16/10 A2984 1150 67 1600 360/08 RMK AO2
94908KDBQ DBQ20100928114009709/28/10 11:40:31  5-MIN KDBQ 281740Z 36009KT 10SM OVC065 16/10 A2984 1150 67 1600 360/09 RMK AO2
94908KDBQ DBQ20100928114509709/28/10 11:45:31  5-MIN KDBQ 281745Z 36007KT 10SM OVC065 16/10 A2984 1150 67 1600 360/07 RMK AO2
94908KDBQ DBQ20100928115013209/28/10 11:50:31  5-MIN KDBQ 281750Z 36007KT 10SM OVC065 17/10 A2984 1150 64 1700 360/07 RMK AO2 SLP105 T01670100 10167 20106 53018
94908KDBQ DBQ20100928115509709/28/10 11:55:31  5-MIN KDBQ 281755Z 34008KT 10SM OVC065 17/11 A2984 1160 67 1700 340/08 RMK AO2
94908KDBQ DBQ20100928120009709/28/10 12:00:31  5-MIN KDBQ 281800Z 35008KT 10SM OVC065 17/10 A2983 1160 64 1700 350/08 RMK AO2
94908KDBQ DBQ20100928120509709/28/10 12:05:31  5-MIN KDBQ 281805Z 35007KT 10SM OVC065 17/11 A2983 1160 64 1700 350/07 RMK AO2
94908KDBQ DBQ20100928121009709/28/10 12:10:31  5-MIN KDBQ 281810Z 33008KT 10SM OVC065 17/10 A2983 1160 62 1700 330/08 RMK AO2
94908KDBQ DBQ20100928121509709/28/10 12:15:31  5-MIN KDBQ 281815Z 35008KT 10SM OVC065 17/10 A2983 1160 62 1700 350/08 RMK AO2
94908KDBQ DBQ20100928122009709/28/10 12:20:31  5-MIN KDBQ 281820Z 35008KT 10SM OVC065 17/10 A2983 1160 62 1700 350/08 RMK AO2
94908KDBQ DBQ20100928122509709/28/10 12:25:31  5-MIN KDBQ 281825Z 33006KT 10SM OVC065 17/11 A2983 1160 64 1700 330/06 RMK AO2
94908KDBQ DBQ20100928123009709/28/10 12:30:31  5-MIN KDBQ 281830Z 33007KT 10SM OVC065 18/11 A2983 1160 62 1800 330/07 RMK AO2
94908KDBQ DBQ20100928123509709/28/10 12:35:31  5-MIN KDBQ 281835Z 34006KT 10SM OVC065 18/11 A2983 1160 64 1800 340/06 RMK AO2
94908KDBQ DBQ20100928124009709/28/10 12:40:31  5-MIN KDBQ 281840Z 35008KT 10SM OVC065 18/11 A2983 1160 60 1900 340/08 RMK AO2
94908KDBQ DBQ20100928124509709/28/10 12:45:31  5-MIN KDBQ 281845Z 35008KT 10SM OVC065 18/10 A2983 1160 60 1800 350/08 RMK AO2
94908KDBQ DBQ20100928125011409/28/10 12:50:31  5-MIN KDBQ 281850Z 35007KT 10SM OVC065 18/09 A2983 1160 56 1900 350/07 RMK AO2 SLP102 T01830094
94908KDBQ DBQ20100928125509709/28/10 12:55:31  5-MIN KDBQ 281855Z 35009KT 10SM OVC065 18/11 A2983 1170 60 1900 350/09 RMK AO2
94908KDBQ DBQ20100928130009709/28/10 13:00:31  5-MIN KDBQ 281900Z 36008KT 10SM OVC065 18/10 A2982 1170 58 1900 350/08 RMK AO2
94908KDBQ DBQ20100928130509709/28/10 13:05:31  5-MIN KDBQ 281905Z 34007KT 10SM BKN065 19/11 A2982 1170 58 1900 340/07 RMK AO2
94908KDBQ DBQ20100928131009709/28/10 13:10:31  5-MIN KDBQ 281910Z 36006KT 10SM BKN065 19/10 A2982 1170 56 1900 360/06 RMK AO2
94908KDBQ DBQ20100928131509709/28/10 13:15:31  5-MIN KDBQ 281915Z 35008KT 10SM BKN065 19/10 A2982 1170 56 1900 350/08 RMK AO2
94908KDBQ DBQ20100928132009709/28/10 13:20:31  5-MIN KDBQ 281920Z 01009KT 10SM SCT065 19/09 A2982 1170 54 1900 010/09 RMK AO2
94908KDBQ DBQ20100928132509709/28/10 13:25:31  5-MIN KDBQ 281925Z 35008KT 10SM FEW060 19/10 A2982 1170 54 2000 350/08 RMK AO2
94908KDBQ DBQ20100928133009709/28/10 13:30:31  5-MIN KDBQ 281930Z 36007KT 10SM FEW060 19/10 A2981 1180 54 2000 360/07 RMK AO2
94908KDBQ DBQ20100928133509409/28/10 13:35:31  5-MIN KDBQ 281935Z 01007KT 10SM CLR 19/10 A2981 1180 54 2000 010/07 RMK AO2
94908KDBQ DBQ20100928134009409/28/10 13:40:31  5-MIN KDBQ 281940Z 33009KT 10SM CLR 19/10 A2981 1180 56 1900 330/09 RMK AO2
94908KDBQ DBQ20100928134509409/28/10 13:45:31  5-MIN KDBQ 281945Z 36008KT 10SM CLR 19/10 A2981 1180 56 1900 350/08 RMK AO2
94908KDBQ DBQ20100928135011109/28/10 13:50:31  5-MIN KDBQ 281950Z 36008KT 10SM CLR 19/10 A2981 1180 56 1900 360/08 RMK AO2 SLP095 T01890100
94908KDBQ DBQ20100928135509409/28/10 13:55:31  5-MIN KDBQ 281955Z 36009KT 10SM CLR 19/10 A2981 1180 56 1900 360/09 RMK AO2
94908KDBQ DBQ20100928140009409/28/10 14:00:31  5-MIN KDBQ 282000Z 36006KT 10SM CLR 19/10 A2981 1180 56 1900 360/06 RMK AO2
94908KDBQ DBQ20100928140509409/28/10 14:05:31  5-MIN KDBQ 282005Z 36008KT 10SM CLR 19/10 A2981 1180 56 1900 360/08 RMK AO2
94908KDBQ DBQ20100928141009409/28/10 14:10:31  5-MIN KDBQ 282010Z 01009KT 10SM CLR 19/11 A2981 1180 56 2000 010/09 RMK AO2
94908KDBQ DBQ20100928141509409/28/10 14:15:31  5-MIN KDBQ 282015Z 36008KT 10SM CLR 19/11 A2981 1180 56 2000 360/08 RMK AO2
94908KDBQ DBQ20100928142009409/28/10 14:20:31  5-MIN KDBQ 282020Z 35008KT 10SM CLR 19/11 A2981 1180 58 1900 350/08 RMK AO2
94908KDBQ DBQ20100928142509409/28/10 14:25:31  5-MIN KDBQ 282025Z 35009KT 10SM CLR 19/10 A2981 1180 56 1900 350/09 RMK AO2
94908KDBQ DBQ20100928143009409/28/10 14:30:31  5-MIN KDBQ 282030Z 35010KT 10SM CLR 19/11 A2981 1180 56 2000 350/10 RMK AO2
94908KDBQ DBQ20100928143509409/28/10 14:35:31  5-MIN KDBQ 282035Z 35007KT 10SM CLR 19/11 A2981 1180 56 2000 350/07 RMK AO2
94908KDBQ DBQ20100928144009409/28/10 14:40:31  5-MIN KDBQ 282040Z 35006KT 10SM CLR 19/11 A2981 1180 58 2000 350/06 RMK AO2
94908KDBQ DBQ20100928144509409/28/10 14:45:31  5-MIN KDBQ 282045Z 02006KT 10SM CLR 19/11 A2981 1180 58 2000 020/06 RMK AO2
94908KDBQ DBQ20100928145011709/28/10 14:50:31  5-MIN KDBQ 282050Z 02005KT 10SM CLR 19/11 A2981 1180 58 2000 020/05 RMK AO2 SLP095 T01940111 50002
94908KDBQ DBQ20100928145509409/28/10 14:55:31  5-MIN KDBQ 282055Z 01009KT 10SM CLR 19/11 A2981 1180 58 2000 360/09 RMK AO2
94908KDBQ DBQ20100928150009409/28/10 15:00:31  5-MIN KDBQ 282100Z 01005KT 10SM CLR 19/11 A2981 1180 58 2000 010/05 RMK AO2
94908KDBQ DBQ20100928150509409/28/10 15:05:31  5-MIN KDBQ 282105Z 02007KT 10SM CLR 19/11 A2981 1180 58 2000 020/07 RMK AO2
94908KDBQ DBQ20100928151009709/28/10 15:10:31  5-MIN KDBQ 282110Z 01007KT 10SM FEW055 19/12 A2981 1180 60 2000 010/07 RMK AO2
94908KDBQ DBQ20100928151509709/28/10 15:15:31  5-MIN KDBQ 282115Z 04007KT 10SM FEW055 19/11 A2980 1190 58 2000 040/07 RMK AO2
94908KDBQ DBQ20100928152009709/28/10 15:20:31  5-MIN KDBQ 282120Z 04008KT 10SM FEW055 19/12 A2981 1180 60 2000 040/08 RMK AO2
94908KDBQ DBQ20100928152509709/28/10 15:25:31  5-MIN KDBQ 282125Z 02009KT 10SM FEW055 19/12 A2981 1180 60 2000 020/09 RMK AO2
94908KDBQ DBQ20100928153009709/28/10 15:30:31  5-MIN KDBQ 282130Z 03008KT 10SM FEW055 19/12 A2981 1180 60 2000 030/08 RMK AO2
94908KDBQ DBQ20100928153509709/28/10 15:35:31  5-MIN KDBQ 282135Z 02006KT 10SM FEW055 19/12 A2981 1180 60 2000 020/06 RMK AO2
94908KDBQ DBQ20100928154009709/28/10 15:40:31  5-MIN KDBQ 282140Z 03007KT 10SM FEW055 19/12 A2981 1180 60 2000 030/07 RMK AO2
94908KDBQ DBQ20100928154509709/28/10 15:45:31  5-MIN KDBQ 282145Z 35006KT 10SM FEW055 19/12 A2981 1180 60 2000 350/06 RMK AO2
94908KDBQ DBQ20100928155012109/28/10 15:50:31  5-MIN KDBQ 282150Z 03007KT 10SM FEW036 SCT055 19/12 A2982 1180 60 2000 030/07 RMK AO2 SLP097 T01940117
94908KDBQ DBQ20100928155509709/28/10 15:55:31  5-MIN KDBQ 282155Z 02009KT 10SM FEW036 19/12 A2982 1180 62 1900 010/09 RMK AO2
94908KDBQ DBQ20100928160010409/28/10 16:00:31  5-MIN KDBQ 282200Z 03008KT 10SM FEW036 SCT055 18/11 A2981 1180 62 1900 030/08 RMK AO2
94908KDBQ DBQ20100928160510409/28/10 16:05:31  5-MIN KDBQ 282205Z 02006KT 10SM FEW036 SCT055 18/12 A2982 1170 65 1900 010/06 RMK AO2
94908KDBQ DBQ20100928161010409/28/10 16:10:31  5-MIN KDBQ 282210Z 01006KT 10SM FEW036 BKN050 19/12 A2982 1170 62 1900 010/06 RMK AO2
94908KDBQ DBQ20100928161510409/28/10 16:15:31  5-MIN KDBQ 282215Z 01007KT 10SM FEW036 BKN050 19/12 A2982 1170 62 1900 010/07 RMK AO2
94908KDBQ DBQ20100928162010409/28/10 16:20:31  5-MIN KDBQ 282220Z 02008KT 10SM FEW034 BKN050 18/12 A2982 1170 65 1900 010/08 RMK AO2
94908KDBQ DBQ20100928162510409/28/10 16:25:31  5-MIN KDBQ 282225Z 01009KT 10SM FEW034 OVC050 18/12 A2982 1170 67 1800 010/09 RMK AO2
94908KDBQ DBQ20100928163009709/28/10 16:30:31  5-MIN KDBQ 282230Z 01006KT 10SM OVC050 18/12 A2982 1170 67 1800 360/06 RMK AO2
94908KDBQ DBQ20100928163509709/28/10 16:35:31  5-MIN KDBQ 282235Z 36008KT 10SM OVC050 17/12 A2982 1170 69 1700 360/08 RMK AO2
94908KDBQ DBQ20100928164009709/28/10 16:40:31  5-MIN KDBQ 282240Z 36007KT 10SM OVC050 17/12 A2982 1170 69 1700 360/07 RMK AO2
94908KDBQ DBQ20100928164509709/28/10 16:45:31  5-MIN KDBQ 282245Z 36005KT 10SM OVC050 17/12 A2983 1170 69 1700 360/05 RMK AO2
94908KDBQ DBQ20100928165011409/28/10 16:50:31  5-MIN KDBQ 282250Z 01005KT 10SM OVC050 17/12 A2983 1160 69 1700 010/05 RMK AO2 SLP102 T01720117
94908KDBQ DBQ20100928165509709/28/10 16:55:31  5-MIN KDBQ 282255Z 01006KT 10SM OVC050 17/12 A2983 1160 69 1700 010/06 RMK AO2
94908KDBQ DBQ20100928170009709/28/10 17:00:31  5-MIN KDBQ 282300Z 01006KT 10SM OVC050 17/12 A2983 1160 69 1700 010/06 RMK AO2
94908KDBQ DBQ20100928170509709/28/10 17:05:31  5-MIN KDBQ 282305Z 01007KT 10SM OVC050 17/12 A2983 1160 69 1700 010/07 RMK AO2
94908KDBQ DBQ20100928171009709/28/10 17:10:31  5-MIN KDBQ 282310Z 01007KT 10SM OVC050 17/12 A2983 1160 69 1700 010/07 RMK AO2
94908KDBQ DBQ20100928171509709/28/10 17:15:31  5-MIN KDBQ 282315Z 01007KT 10SM OVC050 17/12 A2983 1160 69 1700 010/07 RMK AO2
94908KDBQ DBQ20100928172009709/28/10 17:20:31  5-MIN KDBQ 282320Z 01007KT 10SM OVC050 17/12 A2984 1160 69 1700 010/07 RMK AO2
94908KDBQ DBQ20100928172509709/28/10 17:25:31  5-MIN KDBQ 282325Z 02008KT 10SM OVC050 17/12 A2984 1150 72 1700 020/08 RMK AO2
94908KDBQ DBQ20100928173009709/28/10 17:30:31  5-MIN KDBQ 282330Z 02007KT 10SM OVC050 17/12 A2984 1150 72 1700 010/07 RMK AO2
94908KDBQ DBQ20100928173509709/28/10 17:35:31  5-MIN KDBQ 282335Z 02007KT 10SM OVC050 17/12 A2984 1150 72 1700 020/07 RMK AO2
94908KDBQ DBQ20100928174009709/28/10 17:40:31  5-MIN KDBQ 282340Z 02006KT 10SM OVC050 17/11 A2984 1150 69 1700 020/06 RMK AO2
94908KDBQ DBQ20100928174509709/28/10 17:45:31  5-MIN KDBQ 282345Z 02006KT 10SM OVC050 17/12 A2984 1150 72 1700 020/06 RMK AO2
94908KDBQ DBQ20100928175013209/28/10 17:50:31  5-MIN KDBQ 282350Z 01006KT 10SM OVC050 16/11 A2984 1150 72 1600 010/06 RMK AO2 SLP106 T01610111 10194 20161 56009
94908KDBQ DBQ20100928175509709/28/10 17:55:31  5-MIN KDBQ 282355Z 01006KT 10SM OVC050 17/11 A2984 1150 69 1700 010/06 RMK AO2
94908KDBQ DBQ20100928180009709/28/10 18:00:31  5-MIN KDBQ 290000Z 01005KT 10SM OVC050 16/11 A2984 1150 72 1600 010/05 RMK AO2
94908KDBQ DBQ20100928180509709/28/10 18:05:31  5-MIN KDBQ 290005Z 01005KT 10SM OVC050 16/11 A2984 1150 72 1600 010/05 RMK AO2
94908KDBQ DBQ20100928181009709/28/10 18:10:31  5-MIN KDBQ 290010Z 01006KT 10SM OVC050 16/11 A2984 1150 72 1600 010/06 RMK AO2
94908KDBQ DBQ20100928181509709/28/10 18:15:31  5-MIN KDBQ 290015Z 02006KT 10SM OVC048 16/11 A2984 1150 72 1600 020/06 RMK AO2
94908KDBQ DBQ20100928182009709/28/10 18:20:31  5-MIN KDBQ 290020Z 02006KT 10SM OVC048 16/11 A2985 1150 72 1600 020/06 RMK AO2
94908KDBQ DBQ20100928182509709/28/10 18:25:31  5-MIN KDBQ 290025Z 01006KT 10SM OVC048 16/11 A2985 1150 72 1600 010/06 RMK AO2
94908KDBQ DBQ20100928183009709/28/10 18:30:31  5-MIN KDBQ 290030Z 01006KT 10SM OVC048 16/11 A2985 1140 72 1600 010/06 RMK AO2
94908KDBQ DBQ20100928183509709/28/10 18:35:31  5-MIN KDBQ 290035Z 01006KT 10SM OVC048 16/11 A2985 1140 72 1600 010/06 RMK AO2
94908KDBQ DBQ20100928184009709/28/10 18:40:31  5-MIN KDBQ 290040Z 02006KT 10SM OVC048 16/11 A2985 1140 74 1500 020/06 RMK AO2
94908KDBQ DBQ20100928184509709/28/10 18:45:31  5-MIN KDBQ 290045Z 03007KT 10SM OVC048 16/12 A2986 1140 77 1500 030/07 RMK AO2
94908KDBQ DBQ20100928185011409/28/10 18:50:31  5-MIN KDBQ 290050Z 02008KT 10SM OVC048 16/12 A2986 1140 77 1500 020/08 RMK AO2 SLP111 T01560117
94908KDBQ DBQ20100928185510209/28/10 18:55:31  5-MIN KDBQ 290055Z AUTO 01009KT 10SM OVC048 16/11 A2986 1140 74 1500 010/09 RMK AO2
94908KDBQ DBQ20100928190010209/28/10 19:00:31  5-MIN KDBQ 290100Z AUTO 02007KT 10SM OVC046 16/11 A2986 1140 74 1500 020/07 RMK AO2
94908KDBQ DBQ20100928190510209/28/10 19:05:31  5-MIN KDBQ 290105Z AUTO 02006KT 10SM OVC046 16/11 A2986 1130 74 1500 020/06 RMK AO2
94908KDBQ DBQ20100928191010209/28/10 19:10:31  5-MIN KDBQ 290110Z AUTO 03005KT 10SM OVC046 16/11 A2986 1130 74 1500 030/05 RMK AO2
94908KDBQ DBQ20100928191510209/28/10 19:15:31  5-MIN KDBQ 290115Z AUTO 03006KT 10SM OVC046 15/11 A2986 1130 77 1400 030/06 RMK AO2
94908KDBQ DBQ20100928192010209/28/10 19:20:31  5-MIN KDBQ 290120Z AUTO 03005KT 10SM OVC046 16/11 A2986 1130 74 1500 030/05 RMK AO2
94908KDBQ DBQ20100928192510209/28/10 19:25:31  5-MIN KDBQ 290125Z AUTO 02005KT 10SM OVC046 15/11 A2986 1130 77 1400 020/05 RMK AO2
94908KDBQ DBQ20100928193010209/28/10 19:30:31  5-MIN KDBQ 290130Z AUTO 04005KT 10SM OVC046 15/11 A2986 1130 77 1400 030/05 RMK AO2
94908KDBQ DBQ20100928193510209/28/10 19:35:31  5-MIN KDBQ 290135Z AUTO 04005KT 10SM OVC044 14/11 A2986 1130 80 1400 040/05 RMK AO2
94908KDBQ DBQ20100928194010209/28/10 19:40:31  5-MIN KDBQ 290140Z AUTO 04006KT 10SM OVC044 14/11 A2987 1130 80 1400 040/06 RMK AO2
94908KDBQ DBQ20100928194510209/28/10 19:45:31  5-MIN KDBQ 290145Z AUTO 05005KT 10SM BKN044 14/11 A2986 1130 77 1400 040/05 RMK AO2
94908KDBQ DBQ20100928195011909/28/10 19:50:31  5-MIN KDBQ 290150Z AUTO 05006KT 10SM BKN044 14/11 A2986 1130 80 1300 050/06 RMK AO2 SLP114 T01390106
94908KDBQ DBQ20100928195510209/28/10 19:55:31  5-MIN KDBQ 290155Z AUTO 04004KT 10SM SCT044 14/11 A2986 1130 80 1300 040/04 RMK AO2
94908KDBQ DBQ20100928200010209/28/10 20:00:31  5-MIN KDBQ 290200Z AUTO 03005KT 10SM FEW044 14/11 A2986 1130 80 1300 030/05 RMK AO2
94908KDBQ DBQ20100928200510209/28/10 20:05:31  5-MIN KDBQ 290205Z AUTO 04006KT 10SM FEW044 14/11 A2986 1130 80 1300 040/06 RMK AO2
94908KDBQ DBQ20100928201009909/28/10 20:10:31  5-MIN KDBQ 290210Z AUTO 05005KT 10SM CLR 14/11 A2986 1130 80 1300 050/05 RMK AO2
94908KDBQ DBQ20100928201509909/28/10 20:15:31  5-MIN KDBQ 290215Z AUTO 05004KT 10SM CLR 13/11 A2986 1130 83 1200 040/04 RMK AO2
94908KDBQ DBQ20100928202009909/28/10 20:20:31  5-MIN KDBQ 290220Z AUTO 05004KT 10SM CLR 13/10 A2986 1130 83 1200 050/04 RMK AO2
94908KDBQ DBQ20100928202509909/28/10 20:25:31  5-MIN KDBQ 290225Z AUTO 05005KT 10SM CLR 13/10 A2986 1130 83 1200 050/05 RMK AO2
94908KDBQ DBQ20100928203009909/28/10 20:30:31  5-MIN KDBQ 290230Z AUTO 04004KT 10SM CLR 13/11 A2986 1130 86 1200 040/04 RMK AO2
94908KDBQ DBQ20100928203509909/28/10 20:35:31  5-MIN KDBQ 290235Z AUTO 03004KT 10SM CLR 13/11 A2986 1130 86 1200 030/04 RMK AO2
94908KDBQ DBQ20100928204009909/28/10 20:40:31  5-MIN KDBQ 290240Z AUTO 05003KT 10SM CLR 13/11 A2986 1130 86 1200 050/03 RMK AO2
94908KDBQ DBQ20100928204509909/28/10 20:45:31  5-MIN KDBQ 290245Z AUTO 05004KT 10SM CLR 13/11 A2986 1130 86 1200 050/04 RMK AO2
94908KDBQ DBQ20100928205012209/28/10 20:50:31  5-MIN KDBQ 290250Z AUTO 05003KT 10SM CLR 13/11 A2986 1130 83 1200 050/03 RMK AO2 SLP114 T01330106 53011
94908KDBQ DBQ20100928205509909/28/10 20:55:31  5-MIN KDBQ 290255Z AUTO 06003KT 10SM CLR 13/11 A2986 1130 86 1200 060/03 RMK AO2
94908KDBQ DBQ20100928210009909/28/10 21:00:31  5-MIN KDBQ 290300Z AUTO 06003KT 10SM CLR 13/10 A2986 1130 83 1200 060/03 RMK AO2
94908KDBQ DBQ20100928210509909/28/10 21:05:31  5-MIN KDBQ 290305Z AUTO 05003KT 10SM CLR 12/10 A2986 1130 89 1000 050/03 RMK AO2
94908KDBQ DBQ20100928211009909/28/10 21:10:31  5-MIN KDBQ 290310Z AUTO 05003KT 10SM CLR 12/10 A2986 1130 86 1100 050/03 RMK AO2
94908KDBQ DBQ20100928211509909/28/10 21:15:31  5-MIN KDBQ 290315Z AUTO 06003KT 10SM CLR 12/10 A2987 1130 86 1100 060/03 RMK AO2
94908KDBQ DBQ20100928212009909/28/10 21:20:31  5-MIN KDBQ 290320Z AUTO 06003KT 10SM CLR 12/10 A2987 1130 86 1100 060/03 RMK AO2
94908KDBQ DBQ20100928212509909/28/10 21:25:31  5-MIN KDBQ 290325Z AUTO 06003KT 10SM CLR 11/09 A2987 1130 89 1000 060/03 RMK AO2
94908KDBQ DBQ20100928213009909/28/10 21:30:31  5-MIN KDBQ 290330Z AUTO 05003KT 10SM CLR 12/09 A2987 1130 86 1000 050/03 RMK AO2
94908KDBQ DBQ20100928213509909/28/10 21:35:31  5-MIN KDBQ 290335Z AUTO 00000KT 10SM CLR 11/09 A2987 1130 89 1000 000/00 RMK AO2
94908KDBQ DBQ20100928214009809/28/10 21:40:31  5-MIN KDBQ 290340Z AUTO 00000KT 10SM CLR 11/09 A2987 1130 93 900 000/00 RMK AO2
94908KDBQ DBQ20100928214509809/28/10 21:45:31  5-MIN KDBQ 290345Z AUTO 00000KT 10SM CLR 10/09 A2987 1130 93 800 000/00 RMK AO2
94908KDBQ DBQ20100928215011509/28/10 21:50:31  5-MIN KDBQ 290350Z AUTO 00000KT 10SM CLR 11/09 A2987 1130 89 900 000/00 RMK AO2 SLP115 T01060089
94908KDBQ DBQ20100928215509809/28/10 21:55:31  5-MIN KDBQ 290355Z AUTO 00000KT 10SM CLR 11/09 A2987 1130 89 900 000/00 RMK AO2
94908KDBQ DBQ20100928220009809/28/10 22:00:31  5-MIN KDBQ 290400Z AUTO 00000KT 10SM CLR 11/09 A2986 1130 93 900 000/00 RMK AO2
94908KDBQ DBQ20100928220509809/28/10 22:05:31  5-MIN KDBQ 290405Z AUTO 00000KT 10SM CLR 10/09 A2986 1130 93 800 000/00 RMK AO2
94908KDBQ DBQ20100928221009809/28/10 22:10:31  5-MIN KDBQ 290410Z AUTO 00000KT 10SM CLR 09/09 A2986 1130 96 800 000/00 RMK AO2
94908KDBQ DBQ20100928221509809/28/10 22:15:31  5-MIN KDBQ 290415Z AUTO 00000KT 10SM CLR 09/08 A2986 1130 93 800 000/00 RMK AO2
94908KDBQ DBQ20100928222009809/28/10 22:20:31  5-MIN KDBQ 290420Z AUTO 00000KT 10SM CLR 08/07 A2986 1140 93 600 000/00 RMK AO2
94908KDBQ DBQ20100928222509809/28/10 22:25:31  5-MIN KDBQ 290425Z AUTO 00000KT 10SM CLR 08/07 A2986 1140 93 600 000/00 RMK AO2
94908KDBQ DBQ20100928223009809/28/10 22:30:31  5-MIN KDBQ 290430Z AUTO 00000KT 10SM CLR 09/07 A2986 1140 89 700 000/00 RMK AO2
94908KDBQ DBQ20100928223509809/28/10 22:35:31  5-MIN KDBQ 290435Z AUTO 00000KT 10SM CLR 09/08 A2986 1140 93 700 000/00 RMK AO2
94908KDBQ DBQ20100928224009809/28/10 22:40:31  5-MIN KDBQ 290440Z AUTO 00000KT 10SM CLR 09/08 A2986 1140 93 700 000/00 RMK AO2
94908KDBQ DBQ20100928224509809/28/10 22:45:31  5-MIN KDBQ 290445Z AUTO 00000KT 10SM CLR 09/08 A2986 1140 93 700 000/00 RMK AO2
94908KDBQ DBQ20100928225011509/28/10 22:50:31  5-MIN KDBQ 290450Z AUTO 00000KT 10SM CLR 09/08 A2986 1140 93 700 000/00 RMK AO2 SLP112 T00890078
94908KDBQ DBQ20100928225509809/28/10 22:55:31  5-MIN KDBQ 290455Z AUTO 00000KT 10SM CLR 09/08 A2985 1140 89 800 000/00 RMK AO2
94908KDBQ DBQ20100928230009809/28/10 23:00:31  5-MIN KDBQ 290500Z AUTO 00000KT 10SM CLR 09/08 A2985 1140 89 800 000/00 RMK AO2
94908KDBQ DBQ20100928230509809/28/10 23:05:31  5-MIN KDBQ 290505Z AUTO 00000KT 10SM CLR 09/08 A2985 1140 93 700 000/00 RMK AO2
94908KDBQ DBQ20100928231009809/28/10 23:10:31  5-MIN KDBQ 290510Z AUTO 00000KT 10SM CLR 08/07 A2985 1140 93 700 000/00 RMK AO2
94908KDBQ DBQ20100928231509809/28/10 23:15:31  5-MIN KDBQ 290515Z AUTO 00000KT 10SM CLR 08/07 A2986 1140 93 700 000/00 RMK AO2
94908KDBQ DBQ20100928232009809/28/10 23:20:31  5-MIN KDBQ 290520Z AUTO 00000KT 10SM CLR 08/07 A2985 1140 93 700 000/00 RMK AO2
94908KDBQ DBQ20100928232509809/28/10 23:25:31  5-MIN KDBQ 290525Z AUTO 00000KT 10SM CLR 08/08 A2985 1140 96 700 000/00 RMK AO2
94908KDBQ DBQ20100928233009809/28/10 23:30:31  5-MIN KDBQ 290530Z AUTO 00000KT 10SM CLR 08/08 A2985 1140 96 700 000/00 RMK AO2
94908KDBQ DBQ20100928233509809/28/10 23:35:31  5-MIN KDBQ 290535Z AUTO 00000KT 10SM CLR 08/07 A2986 1140 93 700 000/00 RMK AO2
94908KDBQ DBQ20100928234009809/28/10 23:40:31  5-MIN KDBQ 290540Z AUTO 00000KT 10SM CLR 08/07 A2985 1140 93 700 000/00 RMK AO2
94908KDBQ DBQ20100928234509809/28/10 23:45:31  5-MIN KDBQ 290545Z AUTO 00000KT 10SM CLR 08/07 A2985 1140 93 700 000/00 RMK AO2
94908KDBQ DBQ20100928235014209/28/10 23:50:31  5-MIN KDBQ 290550Z AUTO 00000KT 9SM CLR 09/08 A2986 1140 93 700 000/00 RMK AO2 SLP112 T00890078 10167 20078 401940067 51006
94908KDBQ DBQ20100928235509709/28/10 23:55:31  5-MIN KDBQ 290555Z AUTO 00000KT 8SM CLR 09/08 A2986 1140 93 700 000/00 RMK AO2
94908KDBQ DBQ20100929000009709/29/10 00:00:38  5-MIN KDBQ 290600Z AUTO 00000KT 9SM CLR 08/08 A2986 1140 96 600 000/00 RMK AO2
94908KDBQ DBQ20100929000509809/29/10 00:05:31  5-MIN KDBQ 290605Z AUTO 00000KT 10SM CLR 08/07 A2985 1140 93 700 000/00 RMK AO2
94908KDBQ DBQ20100929001009809/29/10 00:10:31  5-MIN KDBQ 290610Z AUTO 14003KT 10SM CLR 08/07 A2985 1140 93 700 140/03 RMK AO2
94908KDBQ DBQ20100929001509809/29/10 00:15:31  5-MIN KDBQ 290615Z AUTO 00000KT 10SM CLR 08/07 A2985 1140 89 700 000/00 RMK AO2
94908KDBQ DBQ20100929002009809/29/10 00:20:31  5-MIN KDBQ 290620Z AUTO 00000KT 10SM CLR 08/07 A2985 1140 89 700 000/00 RMK AO2
94908KDBQ DBQ20100929002509809/29/10 00:25:31  5-MIN KDBQ 290625Z AUTO 00000KT 10SM CLR 08/07 A2985 1140 93 700 000/00 RMK AO2
94908KDBQ DBQ20100929003009809/29/10 00:30:31  5-MIN KDBQ 290630Z AUTO 00000KT 10SM CLR 08/08 A2985 1140 96 700 000/00 RMK AO2
94908KDBQ DBQ20100929003509709/29/10 00:35:31  5-MIN KDBQ 290635Z AUTO 00000KT 8SM CLR 08/08 A2985 1140 96 700 000/00 RMK AO2
94908KDBQ DBQ20100929004009709/29/10 00:40:31  5-MIN KDBQ 290640Z AUTO 00000KT 8SM CLR 08/08 A2985 1140 96 700 000/00 RMK AO2
94908KDBQ DBQ20100929004509709/29/10 00:45:31  5-MIN KDBQ 290645Z AUTO 00000KT 9SM CLR 09/08 A2985 1140 93 700 000/00 RMK AO2
94908KDBQ DBQ20100929005011509/29/10 00:50:31  5-MIN KDBQ 290650Z AUTO 00000KT 10SM CLR 09/08 A2985 1140 93 700 000/00 RMK AO2 SLP110 T00890078
94908KDBQ DBQ20100929005509809/29/10 00:55:31  5-MIN KDBQ 290655Z AUTO 00000KT 10SM CLR 08/08 A2986 1140 96 700 000/00 RMK AO2
94908KDBQ DBQ20100929010009709/29/10 01:00:31  5-MIN KDBQ 290700Z AUTO 00000KT 9SM CLR 08/08 A2986 1140 96 600 000/00 RMK AO2
94908KDBQ DBQ20100929010509709/29/10 01:05:31  5-MIN KDBQ 290705Z AUTO 00000KT 8SM CLR 08/07 A2986 1140 93 600 000/00 RMK AO2
94908KDBQ DBQ20100929011009709/29/10 01:10:31  5-MIN KDBQ 290710Z AUTO 00000KT 7SM CLR 08/07 A2986 1140 93 600 000/00 RMK AO2
94908KDBQ DBQ20100929011509709/29/10 01:15:31  5-MIN KDBQ 290715Z AUTO 00000KT 8SM CLR 09/08 A2986 1140 93 700 000/00 RMK AO2
94908KDBQ DBQ20100929012009709/29/10 01:20:31  5-MIN KDBQ 290720Z AUTO 00000KT 9SM CLR 08/07 A2986 1140 93 600 000/00 RMK AO2
94908KDBQ DBQ20100929012509709/29/10 01:25:31  5-MIN KDBQ 290725Z AUTO 00000KT 9SM CLR 08/07 A2986 1140 93 600 000/00 RMK AO2
94908KDBQ DBQ20100929013009809/29/10 01:30:31  5-MIN KDBQ 290730Z AUTO 00000KT 10SM CLR 08/07 A2986 1140 93 600 000/00 RMK AO2
94908KDBQ DBQ20100929013509809/29/10 01:35:31  5-MIN KDBQ 290735Z AUTO 00000KT 10SM CLR 08/07 A2986 1140 93 600 000/00 RMK AO2
94908KDBQ DBQ20100929014009809/29/10 01:40:31  5-MIN KDBQ 290740Z AUTO 00000KT 10SM CLR 08/07 A2986 1140 93 600 000/00 RMK AO2
94908KDBQ DBQ20100929014509709/29/10 01:45:31  5-MIN KDBQ 290745Z AUTO 00000KT 9SM CLR 08/07 A2986 1140 93 600 000/00 RMK AO2
94908KDBQ DBQ20100929015011409/29/10 01:50:31  5-MIN KDBQ 290750Z AUTO 00000KT 8SM CLR 08/07 A2986 1140 93 600 000/00 RMK AO2 SLP111 T00830072
94908KDBQ DBQ20100929015509709/29/10 01:55:31  5-MIN KDBQ 290755Z AUTO 00000KT 7SM CLR 08/07 A2985 1140 93 600 000/00 RMK AO2
94908KDBQ DBQ20100929020009709/29/10 02:00:31  5-MIN KDBQ 290800Z AUTO 00000KT 7SM CLR 07/07 A2985 1140 96 500 000/00 RMK AO2
94908KDBQ DBQ20100929020509709/29/10 02:05:31  5-MIN KDBQ 290805Z AUTO 00000KT 7SM CLR 08/07 A2985 1140 93 600 000/00 RMK AO2
94908KDBQ DBQ20100929021009709/29/10 02:10:31  5-MIN KDBQ 290810Z AUTO 00000KT 8SM CLR 08/07 A2985 1140 93 600 000/00 RMK AO2
94908KDBQ DBQ20100929021509709/29/10 02:15:31  5-MIN KDBQ 290815Z AUTO 00000KT 8SM CLR 08/07 A2985 1140 96 600 000/00 RMK AO2
94908KDBQ DBQ20100929022009709/29/10 02:20:31  5-MIN KDBQ 290820Z AUTO 00000KT 8SM CLR 07/07 A2985 1140 96 500 000/00 RMK AO2
94908KDBQ DBQ20100929022510009/29/10 02:25:31  5-MIN KDBQ 290825Z AUTO 00000KT 4SM BR CLR 07/06 A2985 1140 93 500 000/00 RMK AO2
94908KDBQ DBQ20100929023010009/29/10 02:30:31  5-MIN KDBQ 290830Z AUTO 00000KT 4SM BR CLR 08/07 A2985 1140 93 600 000/00 RMK AO2
94908KDBQ DBQ20100929023510009/29/10 02:35:31  5-MIN KDBQ 290835Z AUTO 00000KT 5SM BR CLR 08/07 A2986 1140 93 600 000/00 RMK AO2
94908KDBQ DBQ20100929024009709/29/10 02:40:31  5-MIN KDBQ 290840Z AUTO 00000KT 8SM CLR 08/07 A2986 1140 93 600 000/00 RMK AO2
94908KDBQ DBQ20100929024511409/29/10 02:45:31  5-MIN KDBQ 290845Z AUTO 00000KT 8SM R36/2800VP6000FT CLR 08/07 A2986 1140 93 600 000/00 RMK AO2
94908KDBQ DBQ20100929025013709/29/10 02:50:31  5-MIN KDBQ 290850Z AUTO 00000KT 8SM R36/2800VP6000FT CLR 08/07 A2986 1140 96 600 000/00 RMK AO2 SLP110 T00780072 58002
94908KDBQ DBQ20100929025509709/29/10 02:55:31  5-MIN KDBQ 290855Z AUTO 00000KT 9SM CLR 08/07 A2985 1140 96 600 000/00 RMK AO2
94908KDBQ DBQ20100929030009709/29/10 03:00:31  5-MIN KDBQ 290900Z AUTO 00000KT 9SM CLR 08/07 A2985 1140 93 600 000/00 RMK AO2
94908KDBQ DBQ20100929030509709/29/10 03:05:31  5-MIN KDBQ 290905Z AUTO 00000KT 9SM CLR 08/07 A2985 1140 93 600 000/00 RMK AO2
94908KDBQ DBQ20100929031010409/29/10 03:10:31  5-MIN KDBQ 290910Z AUTO 00000KT 2 1/2SM BR CLR 08/07 A2985 1140 96 600 000/00 RMK AO2
94908KDBQ DBQ20100929031511509/29/10 03:15:31  5-MIN KDBQ 290915Z AUTO 00000KT 1 1/4SM BR CLR 07/07 A2985 1140 100 500 000/00 RMK AO2 VIS 3/4V5
94908KDBQ DBQ20100929032010409/29/10 03:20:31  5-MIN KDBQ 290920Z AUTO 00000KT 1 1/2SM BR CLR 07/07 A2985 1140 96 500 000/00 RMK AO2
94908KDBQ DBQ20100929032509709/29/10 03:25:31  5-MIN KDBQ 290925Z AUTO 00000KT 7SM CLR 07/06 A2985 1140 93 500 000/00 RMK AO2
94908KDBQ DBQ20100929033009709/29/10 03:30:31  5-MIN KDBQ 290930Z AUTO 00000KT 8SM CLR 07/07 A2985 1150 96 500 000/00 RMK AO2
94908KDBQ DBQ20100929033510009/29/10 03:35:31  5-MIN KDBQ 290935Z AUTO 00000KT 4SM BR CLR 07/07 A2985 1140 96 500 000/00 RMK AO2
94908KDBQ DBQ20100929034010009/29/10 03:40:31  5-MIN KDBQ 290940Z AUTO 00000KT 4SM BR CLR 07/06 A2985 1140 93 500 000/00 RMK AO2
94908KDBQ DBQ20100929034509709/29/10 03:45:31  5-MIN KDBQ 290945Z AUTO 00000KT 7SM CLR 07/06 A2985 1140 96 500 000/00 RMK AO2
94908KDBQ DBQ20100929035011509/29/10 03:50:31  5-MIN KDBQ 290950Z AUTO 00000KT 10SM CLR 07/06 A2985 1140 93 500 000/00 RMK AO2 SLP108 T00670056
94908KDBQ DBQ20100929035509709/29/10 03:55:31  5-MIN KDBQ 290955Z AUTO 00000KT 9SM CLR 07/06 A2985 1140 93 500 000/00 RMK AO2
94908KDBQ DBQ20100929040009709/29/10 04:00:31  5-MIN KDBQ 291000Z AUTO 00000KT 9SM CLR 07/06 A2985 1140 93 500 000/00 RMK AO2
94908KDBQ DBQ20100929040509709/29/10 04:05:31  5-MIN KDBQ 291005Z AUTO 00000KT 9SM CLR 07/06 A2985 1150 96 500 000/00 RMK AO2
94908KDBQ DBQ20100929041009709/29/10 04:10:31  5-MIN KDBQ 291010Z AUTO 00000KT 8SM CLR 07/06 A2985 1150 96 500 000/00 RMK AO2
94908KDBQ DBQ20100929041509709/29/10 04:15:31  5-MIN KDBQ 291015Z AUTO 00000KT 7SM CLR 07/06 A2985 1150 93 500 000/00 RMK AO2
94908KDBQ DBQ20100929042009709/29/10 04:20:31  5-MIN KDBQ 291020Z AUTO 00000KT 8SM CLR 08/06 A2985 1140 89 600 000/00 RMK AO2
94908KDBQ DBQ20100929042509809/29/10 04:25:31  5-MIN KDBQ 291025Z AUTO 00000KT 10SM CLR 07/06 A2985 1140 93 500 000/00 RMK AO2
94908KDBQ DBQ20100929043009809/29/10 04:30:31  5-MIN KDBQ 291030Z AUTO 00000KT 10SM CLR 07/06 A2985 1140 93 500 000/00 RMK AO2
94908KDBQ DBQ20100929043509809/29/10 04:35:31  5-MIN KDBQ 291035Z AUTO 00000KT 10SM CLR 08/06 A2985 1140 89 600 000/00 RMK AO2
94908KDBQ DBQ20100929044010009/29/10 04:40:31  5-MIN KDBQ 291040Z AUTO 00000KT 9SM FEW001 07/06 A2985 1140 93 500 000/00 RMK AO2
94908KDBQ DBQ20100929044510309/29/10 04:45:31  5-MIN KDBQ 291045Z AUTO 00000KT 6SM BR FEW001 07/06 A2985 1140 96 500 000/00 RMK AO2
94908KDBQ DBQ20100929045011709/29/10 04:50:31  5-MIN KDBQ 291050Z AUTO 00000KT 4SM BR CLR 07/06 A2986 1140 93 400 000/00 RMK AO2 SLP112 T00670056
94908KDBQ DBQ20100929045509509/29/10 04:55:31  5-MIN KDBQ 291055Z 00000KT 2SM BR CLR 07/06 A2985 1140 96 400 000/00 RMK AO2
94908KDBQ DBQ20100929050009909/29/10 05:00:31  5-MIN KDBQ 291100Z 00000KT 2 1/2SM BR CLR 07/07 A2985 1140 96 500 000/00 RMK AO2
94908KDBQ DBQ20100929050509209/29/10 05:05:31  5-MIN KDBQ 291105Z 00000KT 7SM CLR 08/07 A2985 1140 93 600 000/00 RMK AO2
94908KDBQ DBQ20100929051009509/29/10 05:10:31  5-MIN KDBQ 291110Z 00000KT 4SM BR CLR 07/07 A2985 1140 96 500 000/00 RMK AO2
94908KDBQ DBQ20100929051509509/29/10 05:15:31  5-MIN KDBQ 291115Z 00000KT 4SM BR CLR 07/07 A2985 1140 96 500 000/00 RMK AO2
94908KDBQ DBQ20100929052009509/29/10 05:20:31  5-MIN KDBQ 291120Z 00000KT 5SM BR CLR 07/06 A2985 1140 93 500 000/00 RMK AO2
94908KDBQ DBQ20100929052509209/29/10 05:25:31  5-MIN KDBQ 291125Z 00000KT 9SM CLR 07/06 A2985 1140 96 500 000/00 RMK AO2
94908KDBQ DBQ20100929053009309/29/10 05:30:31  5-MIN KDBQ 291130Z 00000KT 10SM CLR 07/06 A2986 1140 89 500 000/00 RMK AO2
94908KDBQ DBQ20100929053509309/29/10 05:35:31  5-MIN KDBQ 291135Z 00000KT 10SM CLR 07/06 A2986 1140 93 400 000/00 RMK AO2
94908KDBQ DBQ20100929054011009/29/10 05:40:31  5-MIN KDBQ 291140Z 00000KT 10SM R36/2600VP6000FT CLR 07/06 A2986 1140 93 400 000/00 RMK AO2
94908KDBQ DBQ20100929054511009/29/10 05:45:31  5-MIN KDBQ 291145Z 00000KT 10SM R36/1400VP6000FT CLR 07/06 A2986 1140 89 500 000/00 RMK AO2
94908KDBQ DBQ20100929055014509/29/10 05:50:31  5-MIN KDBQ 291150Z 00000KT 10SM R36/1400VP6000FT CLR 07/06 A2986 1140 93 500 000/00 RMK AO2 SLP112 T00720061 10089 20067 57001
94908KDBQ DBQ20100929055510909/29/10 05:55:31  5-MIN KDBQ 291155Z 22003KT 10SM R36/1200V1800FT CLR 07/06 A2986 1140 89 500 220/03 RMK AO2
94908KDBQ DBQ20100929060010809/29/10 06:00:31  5-MIN KDBQ 291200Z 23003KT 9SM R36/1000V3000FT CLR 07/06 A2986 1140 93 400 230/03 RMK AO2
94908KDBQ DBQ20100929060511209/29/10 06:05:31  5-MIN KDBQ 291205Z VRB03KT 7SM R36/1000VP6000FT FEW026 07/06 A2986 1130 93 400 VRB/03 RMK AO2
94908KDBQ DBQ20100929061011909/29/10 06:10:31  5-MIN KDBQ 291210Z 21003KT 1 1/2SM R36/2800VP6000FT BR FEW008 07/06 A2986 1130 93 400 210/03 RMK AO2
94908KDBQ DBQ20100929061511409/29/10 06:15:31  5-MIN KDBQ 291215Z 21003KT 1/2SM R36/0800VP6000FT FG CLR 07/06 A2986 1130 93 400 210/03 RMK AO2
94908KDBQ DBQ20100929062011309/29/10 06:20:31  5-MIN KDBQ 291220Z 21003KT 1/4SM R36/0800V3000FT FG CLR 07/06 A2986 1130 96 400 210/03 RMK AO2
94908KDBQ DBQ20100929062511409/29/10 06:25:31  5-MIN KDBQ 291225Z 21003KT 1/4SM R36/0800V2600FT FG CLR 07/07 A2986 1130 100 400 210/03 RMK AO2
94908KDBQ DBQ20100929063011309/29/10 06:30:31  5-MIN KDBQ 291230Z 22003KT 3/4SM R36/1000V2600FT BR CLR 07/07 A2986 1130 96 500 220/03 RMK AO2
94908KDBQ DBQ20100929063511209/29/10 06:35:31  5-MIN KDBQ 291235Z VRB03KT 6SM R36/1000V1200FT BR CLR 07/07 A2986 1130 100 400 VRB/03 RMK AO2
94908KDBQ DBQ20100929064011109/29/10 06:40:31  5-MIN KDBQ 291240Z 22003KT 6SM R36/1000V1200FT BR CLR 07/07 A2986 1130 96 500 220/03 RMK AO2
94908KDBQ DBQ20100929064511209/29/10 06:45:31  5-MIN KDBQ 291245Z 22003KT 6SM R36/1000V1800FT BR CLR 07/07 A2986 1130 100 500 220/03 RMK AO2
94908KDBQ DBQ20100929065012809/29/10 06:50:31  5-MIN KDBQ 291250Z 22003KT 6SM R36/1200V1800FT BR CLR 08/07 A2986 1130 96 600 220/03 RMK AO2 SLP114 T00780072
94908KDBQ DBQ20100929065511109/29/10 06:55:31  5-MIN KDBQ 291255Z 21003KT 6SM R36/1400V1800FT BR CLR 08/08 A2986 1130 96 600 210/03 RMK AO2
94908KDBQ DBQ20100929070011109/29/10 07:00:31  5-MIN KDBQ 291300Z 21004KT 3SM R36/1400V4500FT BR CLR 09/08 A2986 1130 96 700 210/04 RMK AO2
94908KDBQ DBQ20100929070511209/29/10 07:05:31  5-MIN KDBQ 291305Z 21004KT 3SM R36/2200VP6000FT BR CLR 09/08 A2986 1130 96 700 210/04 RMK AO2
94908KDBQ DBQ20100929071011209/29/10 07:10:31  5-MIN KDBQ 291310Z 20004KT 4SM R36/2600VP6000FT BR CLR 09/09 A2986 1130 96 800 200/04 RMK AO2
94908KDBQ DBQ20100929071511209/29/10 07:15:31  5-MIN KDBQ 291315Z 20004KT 5SM R36/2600VP6000FT BR CLR 10/09 A2986 1130 96 800 200/04 RMK AO2
94908KDBQ DBQ20100929112509409/29/10 11:25:31  5-MIN KDBQ 291725Z 23011KT 10SM CLR 21/12 A2980 1190 56 2200 230/11 RMK AO2
94908KDBQ DBQ20100929113009409/29/10 11:30:31  5-MIN KDBQ 291730Z 23010KT 10SM CLR 21/12 A2980 1190 56 2200 230/10 RMK AO2
94908KDBQ DBQ20100929113509409/29/10 11:35:31  5-MIN KDBQ 291735Z 23013KT 10SM CLR 21/12 A2980 1190 54 2200 230/13 RMK AO2
94908KDBQ DBQ20100929114009409/29/10 11:40:31  5-MIN KDBQ 291740Z 22011KT 10SM CLR 22/12 A2979 1200 54 2300 210/11 RMK AO2
94908KDBQ DBQ20100929114510009/29/10 11:45:31  5-MIN KDBQ 291745Z 23012G17KT 10SM CLR 22/12 A2979 1200 54 2300 230/12G17 RMK AO2
94908KDBQ DBQ20100929115013509/29/10 11:50:31  5-MIN KDBQ 291750Z 25013G18KT 10SM CLR 22/12 A2979 1200 52 2300 240/13G18 RMK AO2 SLP087 T02170117 10217 20067 58001
94908KDBQ DBQ20100929115510009/29/10 11:55:31  5-MIN KDBQ 291755Z 23013G18KT 10SM CLR 22/11 A2979 1200 50 2300 220/13G18 RMK AO2
94908KDBQ DBQ20100929120009409/29/10 12:00:31  5-MIN KDBQ 291800Z 24012KT 10SM CLR 22/12 A2979 1200 51 2300 240/12 RMK AO2
94908KDBQ DBQ20100929120510009/29/10 12:05:31  5-MIN KDBQ 291805Z 21010G17KT 10SM CLR 22/11 A2979 1200 50 2300 210/10G17 RMK AO2
94908KDBQ DBQ20100929121009409/29/10 12:10:31  5-MIN KDBQ 291810Z 22010KT 10SM CLR 22/12 A2979 1200 51 2400 220/10 RMK AO2
94908KDBQ DBQ20100929121509409/29/10 12:15:31  5-MIN KDBQ 291815Z 24011KT 10SM CLR 22/12 A2978 1210 51 2400 240/11 RMK AO2
94908KDBQ DBQ20100929122010009/29/10 12:20:31  5-MIN KDBQ 291820Z 23012G18KT 10SM CLR 22/12 A2978 1210 51 2400 230/12G18 RMK AO2
94908KDBQ DBQ20100929122510009/29/10 12:25:31  5-MIN KDBQ 291825Z 23012G18KT 10SM CLR 22/12 A2978 1210 51 2400 230/12G18 RMK AO2
94908KDBQ DBQ20100929123010009/29/10 12:30:31  5-MIN KDBQ 291830Z 25012G16KT 10SM CLR 23/12 A2978 1210 49 2400 250/12G16 RMK AO2
94908KDBQ DBQ20100929123509409/29/10 12:35:31  5-MIN KDBQ 291835Z 22010KT 10SM CLR 22/12 A2978 1210 51 2400 220/10 RMK AO2
94908KDBQ DBQ20100929124009409/29/10 12:40:31  5-MIN KDBQ 291840Z 21013KT 10SM CLR 22/12 A2978 1210 51 2400 210/13 RMK AO2
94908KDBQ DBQ20100929124510009/29/10 12:45:31  5-MIN KDBQ 291845Z 23011G17KT 10SM CLR 23/12 A2978 1210 49 2400 230/11G17 RMK AO2
94908KDBQ DBQ20100929125011109/29/10 12:50:31  5-MIN KDBQ 291850Z 21012KT 10SM CLR 23/12 A2978 1210 49 2400 210/12 RMK AO2 SLP082 T02280117
94908KDBQ DBQ20100929125509409/29/10 12:55:31  5-MIN KDBQ 291855Z 22013KT 10SM CLR 23/11 A2977 1210 47 2400 220/13 RMK AO2
94908KDBQ DBQ20100929130009409/29/10 13:00:31  5-MIN KDBQ 291900Z 21010KT 10SM CLR 23/12 A2977 1220 49 2400 210/10 RMK AO2
94908KDBQ DBQ20100929130510009/29/10 13:05:31  5-MIN KDBQ 291905Z 22011G17KT 10SM CLR 23/12 A2976 1220 49 2400 220/11G17 RMK AO2
94908KDBQ DBQ20100929131009409/29/10 13:10:31  5-MIN KDBQ 291910Z 21012KT 10SM CLR 23/11 A2976 1220 47 2400 210/12 RMK AO2
94908KDBQ DBQ20100929131510009/29/10 13:15:31  5-MIN KDBQ 291915Z 22012G18KT 10SM CLR 23/11 A2976 1220 47 2400 220/12G18 RMK AO2
94908KDBQ DBQ20100929132009409/29/10 13:20:31  5-MIN KDBQ 291920Z 21011KT 10SM CLR 23/11 A2976 1230 45 2400 200/11 RMK AO2
94908KDBQ DBQ20100929132509409/29/10 13:25:31  5-MIN KDBQ 291925Z 23011KT 10SM CLR 23/11 A2976 1230 45 2500 230/11 RMK AO2
94908KDBQ DBQ20100929133009409/29/10 13:30:31  5-MIN KDBQ 291930Z 23012KT 10SM CLR 23/11 A2976 1230 44 2500 230/12 RMK AO2
94908KDBQ DBQ20100929133509409/29/10 13:35:31  5-MIN KDBQ 291935Z 21010KT 10SM CLR 23/11 A2977 1220 47 2400 210/10 RMK AO2
94908KDBQ DBQ20100929134010009/29/10 13:40:31  5-MIN KDBQ 291940Z 23012G18KT 10SM CLR 23/11 A2977 1220 44 2500 230/12G18 RMK AO2
94908KDBQ DBQ20100929134509409/29/10 13:45:31  5-MIN KDBQ 291945Z 24013KT 10SM CLR 23/10 A2976 1220 42 2500 240/13 RMK AO2
94908KDBQ DBQ20100929135011109/29/10 13:50:31  5-MIN KDBQ 291950Z 24013KT 10SM CLR 23/11 A2976 1230 44 2500 240/13 RMK AO2 SLP077 T02330106
94908KDBQ DBQ20100929135509409/29/10 13:55:31  5-MIN KDBQ 291955Z 23013KT 10SM CLR 23/11 A2976 1220 45 2500 230/13 RMK AO2
94908KDBQ DBQ20100929140009409/29/10 14:00:31  5-MIN KDBQ 292000Z 24011KT 10SM CLR 23/10 A2976 1220 42 2500 240/11 RMK AO2
94908KDBQ DBQ20100929140509409/29/10 14:05:31  5-MIN KDBQ 292005Z 23011KT 10SM CLR 23/10 A2976 1230 42 2500 220/11 RMK AO2
94908KDBQ DBQ20100929141009409/29/10 14:10:31  5-MIN KDBQ 292010Z 24010KT 10SM CLR 23/11 A2976 1230 45 2500 230/10 RMK AO2
94908KDBQ DBQ20100929141509409/29/10 14:15:31  5-MIN KDBQ 292015Z 26012KT 10SM CLR 23/10 A2976 1230 42 2500 250/12 RMK AO2
94908KDBQ DBQ20100929142009409/29/10 14:20:31  5-MIN KDBQ 292020Z 25012KT 10SM CLR 24/10 A2976 1230 41 2600 250/12 RMK AO2
94908KDBQ DBQ20100929142510009/29/10 14:25:31  5-MIN KDBQ 292025Z 26013G18KT 10SM CLR 24/10 A2976 1230 41 2600 260/13G18 RMK AO2
94908KDBQ DBQ20100929143010009/29/10 14:30:31  5-MIN KDBQ 292030Z 23013G18KT 10SM CLR 24/11 A2975 1240 42 2600 230/13G18 RMK AO2
94908KDBQ DBQ20100929143510009/29/10 14:35:31  5-MIN KDBQ 292035Z 22010G18KT 10SM CLR 23/11 A2975 1230 44 2500 220/10G18 RMK AO2
94908KDBQ DBQ20100929144010009/29/10 14:40:31  5-MIN KDBQ 292040Z 24011G18KT 10SM CLR 23/11 A2975 1240 44 2500 240/11G18 RMK AO2
94908KDBQ DBQ20100929144509409/29/10 14:45:31  5-MIN KDBQ 292045Z 22012KT 10SM CLR 23/11 A2975 1240 44 2500 220/12 RMK AO2
94908KDBQ DBQ20100929145011709/29/10 14:50:31  5-MIN KDBQ 292050Z 21010KT 10SM CLR 23/11 A2975 1240 44 2500 210/10 RMK AO2 SLP072 T02330106 58021
94908KDBQ DBQ20100929145509409/29/10 14:55:31  5-MIN KDBQ 292055Z 23011KT 10SM CLR 23/11 A2975 1240 44 2500 230/11 RMK AO2
94908KDBQ DBQ20100929150009409/29/10 15:00:31  5-MIN KDBQ 292100Z 26011KT 10SM CLR 24/11 A2974 1250 44 2600 260/11 RMK AO2
94908KDBQ DBQ20100929150509409/29/10 15:05:31  5-MIN KDBQ 292105Z 24012KT 10SM CLR 23/11 A2974 1250 44 2500 230/12 RMK AO2
94908KDBQ DBQ20100929151010009/29/10 15:10:31  5-MIN KDBQ 292110Z 22011G18KT 10SM CLR 23/11 A2974 1250 44 2500 220/11G18 RMK AO2
94908KDBQ DBQ20100929151509409/29/10 15:15:31  5-MIN KDBQ 292115Z 22012KT 10SM CLR 23/11 A2974 1250 44 2500 220/12 RMK AO2
94908KDBQ DBQ20100929152009409/29/10 15:20:31  5-MIN KDBQ 292120Z 23013KT 10SM CLR 23/11 A2974 1250 44 2500 230/13 RMK AO2
94908KDBQ DBQ20100929152509409/29/10 15:25:31  5-MIN KDBQ 292125Z 23013KT 10SM CLR 23/11 A2974 1250 44 2500 230/13 RMK AO2
94908KDBQ DBQ20100929153009409/29/10 15:30:31  5-MIN KDBQ 292130Z 23012KT 10SM CLR 23/11 A2974 1240 45 2500 230/12 RMK AO2
94908KDBQ DBQ20100929153509409/29/10 15:35:31  5-MIN KDBQ 292135Z 22012KT 10SM CLR 23/11 A2974 1250 45 2500 220/12 RMK AO2
94908KDBQ DBQ20100929154009409/29/10 15:40:31  5-MIN KDBQ 292140Z 22009KT 10SM CLR 23/11 A2974 1240 45 2500 220/09 RMK AO2
94908KDBQ DBQ20100929154509409/29/10 15:45:31  5-MIN KDBQ 292145Z 24012KT 10SM CLR 23/11 A2974 1240 45 2500 240/12 RMK AO2
94908KDBQ DBQ20100929155011109/29/10 15:50:31  5-MIN KDBQ 292150Z 24012KT 10SM CLR 23/11 A2975 1240 44 2500 240/12 RMK AO2 SLP072 T02330106
94908KDBQ DBQ20100929155509409/29/10 15:55:31  5-MIN KDBQ 292155Z 23014KT 10SM CLR 23/11 A2975 1240 44 2500 220/14 RMK AO2
94908KDBQ DBQ20100929160009409/29/10 16:00:31  5-MIN KDBQ 292200Z 23012KT 10SM CLR 23/11 A2975 1240 44 2500 230/12 RMK AO2
94908KDBQ DBQ20100929160509409/29/10 16:05:31  5-MIN KDBQ 292205Z 22012KT 10SM CLR 23/11 A2974 1240 45 2500 220/12 RMK AO2
94908KDBQ DBQ20100929161009409/29/10 16:10:31  5-MIN KDBQ 292210Z 24012KT 10SM CLR 23/11 A2974 1240 47 2500 230/12 RMK AO2
94908KDBQ DBQ20100929161509409/29/10 16:15:31  5-MIN KDBQ 292215Z 23010KT 10SM CLR 23/11 A2974 1240 44 2500 230/10 RMK AO2
94908KDBQ DBQ20100929162009409/29/10 16:20:31  5-MIN KDBQ 292220Z 23012KT 10SM CLR 23/11 A2975 1240 47 2500 220/12 RMK AO2
94908KDBQ DBQ20100929162509409/29/10 16:25:31  5-MIN KDBQ 292225Z 23008KT 10SM CLR 23/11 A2974 1240 47 2500 230/08 RMK AO2
94908KDBQ DBQ20100929163009409/29/10 16:30:31  5-MIN KDBQ 292230Z 22011KT 10SM CLR 23/11 A2975 1240 47 2500 220/11 RMK AO2
94908KDBQ DBQ20100929163509409/29/10 16:35:31  5-MIN KDBQ 292235Z 22008KT 10SM CLR 23/11 A2975 1240 47 2500 210/08 RMK AO2
94908KDBQ DBQ20100929164009409/29/10 16:40:31  5-MIN KDBQ 292240Z 22011KT 10SM CLR 23/11 A2975 1240 47 2500 220/11 RMK AO2
94908KDBQ DBQ20100929164509409/29/10 16:45:31  5-MIN KDBQ 292245Z 22009KT 10SM CLR 22/12 A2975 1240 51 2400 220/09 RMK AO2
94908KDBQ DBQ20100929165011109/29/10 16:50:31  5-MIN KDBQ 292250Z 22008KT 10SM CLR 22/12 A2975 1240 51 2400 220/08 RMK AO2 SLP073 T02220117
94908KDBQ DBQ20100929165509409/29/10 16:55:31  5-MIN KDBQ 292255Z 22010KT 10SM CLR 22/11 A2975 1240 49 2400 210/10 RMK AO2
94908KDBQ DBQ20100929170009409/29/10 17:00:31  5-MIN KDBQ 292300Z 22008KT 10SM CLR 22/11 A2975 1230 49 2400 220/08 RMK AO2
94908KDBQ DBQ20100929170509409/29/10 17:05:31  5-MIN KDBQ 292305Z 21008KT 10SM CLR 22/12 A2975 1230 51 2400 210/08 RMK AO2
94908KDBQ DBQ20100929171009409/29/10 17:10:31  5-MIN KDBQ 292310Z 21007KT 10SM CLR 22/12 A2975 1230 52 2300 210/07 RMK AO2
94908KDBQ DBQ20100929171509409/29/10 17:15:31  5-MIN KDBQ 292315Z 21008KT 10SM CLR 21/12 A2975 1230 54 2300 210/08 RMK AO2
94908KDBQ DBQ20100929172009409/29/10 17:20:31  5-MIN KDBQ 292320Z 21008KT 10SM CLR 21/12 A2975 1230 54 2300 210/08 RMK AO2
94908KDBQ DBQ20100929172509409/29/10 17:25:31  5-MIN KDBQ 292325Z 20008KT 10SM CLR 21/12 A2975 1230 56 2200 200/08 RMK AO2
94908KDBQ DBQ20100929173009409/29/10 17:30:31  5-MIN KDBQ 292330Z 20007KT 10SM CLR 20/12 A2975 1230 60 2100 200/07 RMK AO2
94908KDBQ DBQ20100929173509409/29/10 17:35:31  5-MIN KDBQ 292335Z 20008KT 10SM CLR 19/12 A2975 1230 60 2100 200/08 RMK AO2
94908KDBQ DBQ20100929174009409/29/10 17:40:31  5-MIN KDBQ 292340Z 20007KT 10SM CLR 19/12 A2975 1230 60 2100 190/07 RMK AO2
94908KDBQ DBQ20100929174509409/29/10 17:45:31  5-MIN KDBQ 292345Z 19006KT 10SM CLR 19/12 A2975 1230 62 2000 190/06 RMK AO2
94908KDBQ DBQ20100929175012909/29/10 17:50:31  5-MIN KDBQ 292350Z 20006KT 10SM CLR 19/12 A2975 1230 62 2000 200/06 RMK AO2 SLP075 T01890117 10239 20189 56015
94908KDBQ DBQ20100929175509409/29/10 17:55:31  5-MIN KDBQ 292355Z 20006KT 10SM CLR 18/12 A2975 1230 65 1900 190/06 RMK AO2
94908KDBQ DBQ20100929180009409/29/10 18:00:31  5-MIN KDBQ 300000Z 20007KT 10SM CLR 18/12 A2975 1230 65 1900 200/07 RMK AO2
94908KDBQ DBQ20100929180509409/29/10 18:05:31  5-MIN KDBQ 300005Z 19007KT 10SM CLR 18/12 A2975 1230 67 1900 190/07 RMK AO2
94908KDBQ DBQ20100929181009409/29/10 18:10:31  5-MIN KDBQ 300010Z 19008KT 10SM CLR 18/12 A2975 1230 65 2000 190/08 RMK AO2
94908KDBQ DBQ20100929181509409/29/10 18:15:31  5-MIN KDBQ 300015Z 19008KT 10SM CLR 18/12 A2975 1240 65 2000 190/08 RMK AO2
94908KDBQ DBQ20100929182009409/29/10 18:20:31  5-MIN KDBQ 300020Z 20007KT 10SM CLR 18/12 A2975 1240 67 1900 200/07 RMK AO2
94908KDBQ DBQ20100929182509409/29/10 18:25:31  5-MIN KDBQ 300025Z 21007KT 10SM CLR 18/12 A2975 1230 67 1900 200/07 RMK AO2
94908KDBQ DBQ20100929183009709/29/10 18:30:31  5-MIN KDBQ 300030Z 20007KT 10SM FEW070 18/12 A2975 1230 67 1900 200/07 RMK AO2
94908KDBQ DBQ20100929183509709/29/10 18:35:31  5-MIN KDBQ 300035Z 20007KT 10SM SCT070 18/12 A2975 1230 67 1900 200/07 RMK AO2
94908KDBQ DBQ20100929184009709/29/10 18:40:31  5-MIN KDBQ 300040Z 20007KT 10SM BKN070 18/12 A2975 1230 69 1900 200/07 RMK AO2
94908KDBQ DBQ20100929184509709/29/10 18:45:31  5-MIN KDBQ 300045Z 21008KT 10SM BKN070 18/12 A2976 1230 67 1900 210/08 RMK AO2
94908KDBQ DBQ20100929185011409/29/10 18:50:31  5-MIN KDBQ 300050Z 21008KT 10SM BKN075 18/12 A2976 1230 67 1900 210/08 RMK AO2 SLP078 T01830122
94908KDBQ DBQ20100929185510709/29/10 18:55:31  5-MIN KDBQ 300055Z AUTO 22008KT 10SM OVC075 18/12 A2976 1230 67 1900 210/08 RMK AO2 TSNO
94908KDBQ DBQ20100929190010709/29/10 19:00:31  5-MIN KDBQ 300100Z AUTO 21008KT 10SM OVC075 19/12 A2976 1220 65 2000 210/08 RMK AO2 TSNO
94908KDBQ DBQ20100929190510709/29/10 19:05:31  5-MIN KDBQ 300105Z AUTO 21008KT 10SM OVC075 18/12 A2977 1220 67 1900 210/08 RMK AO2 TSNO
94908KDBQ DBQ20100929191010709/29/10 19:10:31  5-MIN KDBQ 300110Z AUTO 21008KT 10SM BKN075 18/12 A2977 1220 67 1900 210/08 RMK AO2 TSNO
94908KDBQ DBQ20100929191510709/29/10 19:15:31  5-MIN KDBQ 300115Z AUTO 22007KT 10SM BKN070 18/12 A2977 1220 67 1900 220/07 RMK AO2 TSNO
94908KDBQ DBQ20100929192010709/29/10 19:20:31  5-MIN KDBQ 300120Z AUTO 22007KT 10SM BKN070 18/12 A2978 1210 69 1900 220/07 RMK AO2 TSNO
94908KDBQ DBQ20100929192511409/29/10 19:25:31  5-MIN KDBQ 300125Z AUTO 22007KT 10SM BKN070 BKN080 18/12 A2978 1210 67 1900 220/07 RMK AO2 TSNO
94908KDBQ DBQ20100929193011409/29/10 19:30:31  5-MIN KDBQ 300130Z AUTO 23006KT 10SM BKN065 BKN080 18/12 A2978 1210 69 1900 230/06 RMK AO2 TSNO
94908KDBQ DBQ20100929193511409/29/10 19:35:31  5-MIN KDBQ 300135Z AUTO 23006KT 10SM BKN065 BKN085 18/12 A2978 1210 67 1900 230/06 RMK AO2 TSNO
94908KDBQ DBQ20100929194011409/29/10 19:40:31  5-MIN KDBQ 300140Z AUTO 27010KT 10SM BKN065 OVC085 18/12 A2979 1200 67 1900 270/10 RMK AO2 TSNO
94908KDBQ DBQ20100929194512009/29/10 19:45:31  5-MIN KDBQ 300145Z AUTO 26013G17KT 10SM BKN060 BKN085 20/12 A2979 1200 60 2100 260/13G17 RMK AO2 TSNO
94908KDBQ DBQ20100929195013109/29/10 19:50:31  5-MIN KDBQ 300150Z AUTO 26013KT 10SM BKN060 BKN085 21/12 A2979 1200 56 2200 260/13 RMK AO2 SLP086 T02060117 TSNO
94908KDBQ DBQ20100929195511409/29/10 19:55:31  5-MIN KDBQ 300155Z AUTO 27012KT 10SM BKN060 BKN085 21/12 A2980 1190 54 2200 270/12 RMK AO2 TSNO
94908KDBQ DBQ20100929200012009/29/10 20:00:31  5-MIN KDBQ 300200Z AUTO 30011G17KT 10SM BKN060 OVC085 21/12 A2980 1190 58 2100 300/11G17 RMK AO2 TSNO
94908KDBQ DBQ20100929200512009/29/10 20:05:31  5-MIN KDBQ 300205Z AUTO 31013G17KT 10SM BKN055 OVC085 21/12 A2981 1180 56 2200 310/13G17 RMK AO2 TSNO
94908KDBQ DBQ20100929201010709/29/10 20:10:31  5-MIN KDBQ 300210Z AUTO 33012KT 10SM OVC055 21/12 A2981 1180 56 2200 330/12 RMK AO2 TSNO
94908KDBQ DBQ20100929201511809/29/10 20:15:31  5-MIN KDBQ 300215Z AUTO 34013KT 10SM OVC055 21/12 A2981 1180 56 2200 340/13 RMK AO2 WSHFT 0200 TSNO
94908KDBQ DBQ20100929202011809/29/10 20:20:31  5-MIN KDBQ 300220Z AUTO 34011KT 10SM OVC055 21/12 A2981 1180 58 2100 340/11 RMK AO2 WSHFT 0200 TSNO
94908KDBQ DBQ20100929202512409/29/10 20:25:31  5-MIN KDBQ 300225Z AUTO 35013G18KT 10SM OVC060 21/12 A2981 1180 58 2100 350/13G18 RMK AO2 WSHFT 0200 TSNO
94908KDBQ DBQ20100929203011809/29/10 20:30:31  5-MIN KDBQ 300230Z AUTO 35015KT 10SM OVC060 21/12 A2981 1180 58 2100 350/15 RMK AO2 WSHFT 0200 TSNO
94908KDBQ DBQ20100929203511809/29/10 20:35:31  5-MIN KDBQ 300235Z AUTO 35014KT 10SM OVC060 21/12 A2982 1180 58 2100 350/14 RMK AO2 WSHFT 0200 TSNO
94908KDBQ DBQ20100929204011809/29/10 20:40:31  5-MIN KDBQ 300240Z AUTO 35015KT 10SM OVC060 21/12 A2982 1170 58 2100 350/15 RMK AO2 WSHFT 0200 TSNO
94908KDBQ DBQ20100929204511809/29/10 20:45:31  5-MIN KDBQ 300245Z AUTO 35012KT 10SM OVC060 20/12 A2982 1170 58 2100 350/12 RMK AO2 WSHFT 0200 TSNO
94908KDBQ DBQ20100929205014709/29/10 20:50:31  5-MIN KDBQ 300250Z AUTO 35016G21KT 10SM OVC060 21/12 A2982 1170 56 2100 350/16G21 RMK AO2 WSHFT 0200 SLP095 T02060117 53002 TSNO
94908KDBQ DBQ20100929205511309/29/10 20:55:31  5-MIN KDBQ 300255Z AUTO 35014G21KT 10SM OVC060 20/12 A2982 1170 58 2100 350/14G21 RMK AO2 TSNO
94908KDBQ DBQ20100929210010709/29/10 21:00:31  5-MIN KDBQ 300300Z AUTO 35015KT 10SM BKN060 20/12 A2982 1170 58 2100 350/15 RMK AO2 TSNO
94908KDBQ DBQ20100929210510709/29/10 21:05:31  5-MIN KDBQ 300305Z AUTO 35012KT 10SM BKN060 19/12 A2983 1170 60 2000 350/12 RMK AO2 TSNO
94908KDBQ DBQ20100929211010709/29/10 21:10:31  5-MIN KDBQ 300310Z AUTO 35013KT 10SM BKN060 19/12 A2983 1160 60 2000 350/13 RMK AO2 TSNO
94908KDBQ DBQ20100929211510709/29/10 21:15:31  5-MIN KDBQ 300315Z AUTO 35014KT 10SM BKN065 19/12 A2983 1160 60 2000 350/14 RMK AO2 TSNO
94908KDBQ DBQ20100929212011409/29/10 21:20:31  5-MIN KDBQ 300320Z AUTO 35013KT 10SM BKN065 BKN090 19/12 A2983 1160 60 2000 350/13 RMK AO2 TSNO
94908KDBQ DBQ20100929212511409/29/10 21:25:31  5-MIN KDBQ 300325Z AUTO 35010KT 10SM BKN065 BKN100 19/12 A2983 1160 62 1900 350/10 RMK AO2 TSNO
94908KDBQ DBQ20100929213011409/29/10 21:30:31  5-MIN KDBQ 300330Z AUTO 35010KT 10SM SCT065 BKN100 19/12 A2983 1160 62 1900 350/10 RMK AO2 TSNO
94908KDBQ DBQ20100929213511409/29/10 21:35:31  5-MIN KDBQ 300335Z AUTO 35010KT 10SM BKN070 BKN095 18/12 A2984 1150 65 1800 350/10 RMK AO2 TSNO
94908KDBQ DBQ20100929214011409/29/10 21:40:31  5-MIN KDBQ 300340Z AUTO 36011KT 10SM BKN070 BKN095 18/12 A2984 1150 65 1800 350/11 RMK AO2 TSNO
94908KDBQ DBQ20100929214511409/29/10 21:45:31  5-MIN KDBQ 300345Z AUTO 36011KT 10SM BKN070 BKN095 19/12 A2984 1150 60 2000 360/11 RMK AO2 TSNO
94908KDBQ DBQ20100929215013109/29/10 21:50:31  5-MIN KDBQ 300350Z AUTO 36011KT 10SM BKN075 BKN100 18/12 A2984 1150 65 1800 360/11 RMK AO2 SLP102 T01830117 TSNO
94908KDBQ DBQ20100929215510709/29/10 21:55:31  5-MIN KDBQ 300355Z AUTO 36011KT 10SM BKN075 18/12 A2984 1150 67 1800 360/11 RMK AO2 TSNO
94908KDBQ DBQ20100929220010709/29/10 22:00:31  5-MIN KDBQ 300400Z AUTO 36010KT 10SM BKN075 18/11 A2985 1150 64 1800 360/10 RMK AO2 TSNO
94908KDBQ DBQ20100929220510709/29/10 22:05:31  5-MIN KDBQ 300405Z AUTO 36010KT 10SM SCT075 17/11 A2985 1140 67 1700 360/10 RMK AO2 TSNO
94908KDBQ DBQ20100929221010709/29/10 22:10:31  5-MIN KDBQ 300410Z AUTO 36011KT 10SM FEW075 17/11 A2985 1140 67 1700 360/11 RMK AO2 TSNO
94908KDBQ DBQ20100929221510709/29/10 22:15:31  5-MIN KDBQ 300415Z AUTO 36010KT 10SM FEW080 17/11 A2985 1140 67 1700 360/10 RMK AO2 TSNO
94908KDBQ DBQ20100929222010409/29/10 22:20:31  5-MIN KDBQ 300420Z AUTO 36011KT 10SM CLR 17/11 A2985 1140 69 1600 360/11 RMK AO2 TSNO
94908KDBQ DBQ20100929222510409/29/10 22:25:31  5-MIN KDBQ 300425Z AUTO 35010KT 10SM CLR 17/11 A2986 1140 69 1600 350/10 RMK AO2 TSNO
94908KDBQ DBQ20100929223010409/29/10 22:30:31  5-MIN KDBQ 300430Z AUTO 35010KT 10SM CLR 16/11 A2986 1140 72 1600 350/10 RMK AO2 TSNO
94908KDBQ DBQ20100929223510409/29/10 22:35:31  5-MIN KDBQ 300435Z AUTO 35011KT 10SM CLR 17/11 A2986 1140 67 1600 350/11 RMK AO2 TSNO
94908KDBQ DBQ20100929224010409/29/10 22:40:31  5-MIN KDBQ 300440Z AUTO 36010KT 10SM CLR 17/11 A2986 1140 67 1600 360/10 RMK AO2 TSNO
94908KDBQ DBQ20100929224510409/29/10 22:45:31  5-MIN KDBQ 300445Z AUTO 36011KT 10SM CLR 16/11 A2986 1130 69 1600 360/11 RMK AO2 TSNO
94908KDBQ DBQ20100929225012109/29/10 22:50:31  5-MIN KDBQ 300450Z AUTO 36010KT 10SM CLR 17/11 A2986 1130 67 1600 360/10 RMK AO2 SLP109 T01670106 TSNO
94908KDBQ DBQ20100929225510409/29/10 22:55:31  5-MIN KDBQ 300455Z AUTO 36010KT 10SM CLR 17/11 A2986 1130 67 1600 360/10 RMK AO2 TSNO
94908KDBQ DBQ20100929230010409/29/10 23:00:31  5-MIN KDBQ 300500Z AUTO 36011KT 10SM CLR 17/11 A2986 1130 67 1600 360/11 RMK AO2 TSNO
94908KDBQ DBQ20100929230510409/29/10 23:05:31  5-MIN KDBQ 300505Z AUTO 36011KT 10SM CLR 17/11 A2986 1130 67 1600 360/11 RMK AO2 TSNO
94908KDBQ DBQ20100929231010409/29/10 23:10:31  5-MIN KDBQ 300510Z AUTO 36009KT 10SM CLR 16/11 A2986 1130 69 1600 360/09 RMK AO2 TSNO
94908KDBQ DBQ20100929231510409/29/10 23:15:31  5-MIN KDBQ 300515Z AUTO 36009KT 10SM CLR 16/11 A2986 1130 69 1600 360/09 RMK AO2 TSNO
94908KDBQ DBQ20100929232010409/29/10 23:20:31  5-MIN KDBQ 300520Z AUTO 36008KT 10SM CLR 16/11 A2987 1130 69 1600 360/08 RMK AO2 TSNO
94908KDBQ DBQ20100929232510409/29/10 23:25:31  5-MIN KDBQ 300525Z AUTO 01007KT 10SM CLR 16/11 A2987 1130 72 1500 360/07 RMK AO2 TSNO
94908KDBQ DBQ20100929233010409/29/10 23:30:31  5-MIN KDBQ 300530Z AUTO 36007KT 10SM CLR 15/11 A2987 1120 74 1400 360/07 RMK AO2 TSNO
94908KDBQ DBQ20100929233510409/29/10 23:35:31  5-MIN KDBQ 300535Z AUTO 35007KT 10SM CLR 14/11 A2987 1130 77 1400 350/07 RMK AO2 TSNO
94908KDBQ DBQ20100929234010409/29/10 23:40:31  5-MIN KDBQ 300540Z AUTO 35007KT 10SM CLR 13/10 A2987 1120 80 1200 350/07 RMK AO2 TSNO
94908KDBQ DBQ20100929234510409/29/10 23:45:31  5-MIN KDBQ 300545Z AUTO 35007KT 10SM CLR 13/10 A2987 1120 83 1200 350/07 RMK AO2 TSNO
94908KDBQ DBQ20100929235014909/29/10 23:50:31  5-MIN KDBQ 300550Z AUTO 34007KT 10SM CLR 13/10 A2987 1120 80 1200 340/07 RMK AO2 SLP113 T01330100 10211 20128 402390067 53022 TSNO
94908KDBQ DBQ20100929235510409/29/10 23:55:31  5-MIN KDBQ 300555Z AUTO 34007KT 10SM CLR 13/10 A2988 1120 80 1200 340/07 RMK AO2 TSNO
94908KDBQ DBQ20100930000010409/30/10 00:00:38  5-MIN KDBQ 300600Z AUTO 35007KT 10SM CLR 13/10 A2988 1120 83 1200 340/07 RMK AO2 TSNO
94908KDBQ DBQ20100930000510409/30/10 00:05:31  5-MIN KDBQ 300605Z AUTO 34006KT 10SM CLR 13/10 A2988 1120 83 1200 340/06 RMK AO2 TSNO
94908KDBQ DBQ20100930001010409/30/10 00:10:31  5-MIN KDBQ 300610Z AUTO 33006KT 10SM CLR 13/10 A2988 1120 83 1200 330/06 RMK AO2 TSNO
94908KDBQ DBQ20100930001510409/30/10 00:15:31  5-MIN KDBQ 300615Z AUTO 34006KT 10SM CLR 13/10 A2988 1110 83 1200 330/06 RMK AO2 TSNO
94908KDBQ DBQ20100930002010409/30/10 00:20:31  5-MIN KDBQ 300620Z AUTO 33005KT 10SM CLR 13/10 A2988 1110 83 1200 330/05 RMK AO2 TSNO
94908KDBQ DBQ20100930002510409/30/10 00:25:31  5-MIN KDBQ 300625Z AUTO 33005KT 10SM CLR 13/10 A2988 1110 83 1100 330/05 RMK AO2 TSNO
94908KDBQ DBQ20100930003010409/30/10 00:30:31  5-MIN KDBQ 300630Z AUTO 33004KT 10SM CLR 12/10 A2989 1110 86 1100 330/04 RMK AO2 TSNO
94908KDBQ DBQ20100930003510409/30/10 00:35:31  5-MIN KDBQ 300635Z AUTO 34003KT 10SM CLR 13/10 A2989 1110 83 1100 330/03 RMK AO2 TSNO
94908KDBQ DBQ20100930004010409/30/10 00:40:31  5-MIN KDBQ 300640Z AUTO 34003KT 10SM CLR 13/10 A2989 1110 80 1200 330/03 RMK AO2 TSNO
94908KDBQ DBQ20100930004510409/30/10 00:45:31  5-MIN KDBQ 300645Z AUTO 00000KT 10SM CLR 13/10 A2989 1110 80 1200 000/00 RMK AO2 TSNO
94908KDBQ DBQ20100930005012109/30/10 00:50:31  5-MIN KDBQ 300650Z AUTO 33003KT 10SM CLR 13/10 A2989 1110 80 1200 330/03 RMK AO2 SLP119 T01330100 TSNO
94908KDBQ DBQ20100930005510409/30/10 00:55:31  5-MIN KDBQ 300655Z AUTO 33003KT 10SM CLR 13/10 A2989 1100 80 1200 330/03 RMK AO2 TSNO
94908KDBQ DBQ20100930010010409/30/10 01:00:31  5-MIN KDBQ 300700Z AUTO 33003KT 10SM CLR 13/10 A2989 1100 83 1100 330/03 RMK AO2 TSNO
94908KDBQ DBQ20100930010510409/30/10 01:05:31  5-MIN KDBQ 300705Z AUTO 33004KT 10SM CLR 13/09 A2990 1100 80 1100 330/04 RMK AO2 TSNO
94908KDBQ DBQ20100930011010409/30/10 01:10:31  5-MIN KDBQ 300710Z AUTO 33005KT 10SM CLR 12/09 A2990 1100 83 1100 330/05 RMK AO2 TSNO
94908KDBQ DBQ20100930011510409/30/10 01:15:31  5-MIN KDBQ 300715Z AUTO 33004KT 10SM CLR 12/09 A2990 1100 83 1100 330/04 RMK AO2 TSNO
94908KDBQ DBQ20100930012010409/30/10 01:20:31  5-MIN KDBQ 300720Z AUTO 33004KT 10SM CLR 12/09 A2990 1100 83 1100 320/04 RMK AO2 TSNO
94908KDBQ DBQ20100930012510409/30/10 01:25:31  5-MIN KDBQ 300725Z AUTO 32005KT 10SM CLR 12/09 A2990 1100 83 1100 320/05 RMK AO2 TSNO
94908KDBQ DBQ20100930013010409/30/10 01:30:31  5-MIN KDBQ 300730Z AUTO 32004KT 10SM CLR 12/09 A2990 1100 83 1000 320/04 RMK AO2 TSNO
94908KDBQ DBQ20100930013510409/30/10 01:35:31  5-MIN KDBQ 300735Z AUTO 33005KT 10SM CLR 12/09 A2990 1100 86 1000 320/05 RMK AO2 TSNO
94908KDBQ DBQ20100930014010409/30/10 01:40:31  5-MIN KDBQ 300740Z AUTO 32005KT 10SM CLR 12/09 A2990 1100 83 1000 320/05 RMK AO2 TSNO
94908KDBQ DBQ20100930014510409/30/10 01:45:31  5-MIN KDBQ 300745Z AUTO 32005KT 10SM CLR 12/09 A2990 1100 86 1000 320/05 RMK AO2 TSNO
94908KDBQ DBQ20100930015012109/30/10 01:50:31  5-MIN KDBQ 300750Z AUTO 33005KT 10SM CLR 12/09 A2990 1100 83 1000 320/05 RMK AO2 SLP122 T01170089 TSNO
94908KDBQ DBQ20100930015510409/30/10 01:55:31  5-MIN KDBQ 300755Z AUTO 32004KT 10SM CLR 12/09 A2990 1090 86 1000 320/04 RMK AO2 TSNO
94908KDBQ DBQ20100930020010409/30/10 02:00:31  5-MIN KDBQ 300800Z AUTO 32004KT 10SM CLR 12/09 A2991 1090 83 1100 320/04 RMK AO2 TSNO
94908KDBQ DBQ20100930020510309/30/10 02:05:31  5-MIN KDBQ 300805Z AUTO 31006KT 10SM CLR 11/09 A2991 1090 86 900 310/06 RMK AO2 TSNO
94908KDBQ DBQ20100930021010409/30/10 02:10:31  5-MIN KDBQ 300810Z AUTO 31006KT 10SM CLR 12/09 A2991 1090 86 1000 310/06 RMK AO2 TSNO
94908KDBQ DBQ20100930021510409/30/10 02:15:31  5-MIN KDBQ 300815Z AUTO 30005KT 10SM CLR 12/09 A2991 1090 83 1100 300/05 RMK AO2 TSNO
94908KDBQ DBQ20100930022010309/30/10 02:20:31  5-MIN KDBQ 300820Z AUTO 00000KT 10SM CLR 11/09 A2991 1090 89 900 000/00 RMK AO2 TSNO
94908KDBQ DBQ20100930022510309/30/10 02:25:31  5-MIN KDBQ 300825Z AUTO 30004KT 10SM CLR 11/09 A2991 1090 89 900 300/04 RMK AO2 TSNO
94908KDBQ DBQ20100930023010309/30/10 02:30:31  5-MIN KDBQ 300830Z AUTO 00000KT 10SM CLR 11/09 A2991 1090 89 900 000/00 RMK AO2 TSNO
94908KDBQ DBQ20100930023510309/30/10 02:35:31  5-MIN KDBQ 300835Z AUTO 00000KT 10SM CLR 11/09 A2991 1090 86 900 000/00 RMK AO2 TSNO
94908KDBQ DBQ20100930024010409/30/10 02:40:31  5-MIN KDBQ 300840Z AUTO 00000KT 10SM CLR 12/09 A2991 1080 86 1000 000/00 RMK AO2 TSNO
94908KDBQ DBQ20100930024510409/30/10 02:45:31  5-MIN KDBQ 300845Z AUTO 00000KT 10SM CLR 12/09 A2991 1080 86 1000 000/00 RMK AO2 TSNO
94908KDBQ DBQ20100930025012609/30/10 02:50:31  5-MIN KDBQ 300850Z AUTO 00000KT 10SM CLR 11/09 A2992 1080 89 800 000/00 RMK AO2 SLP129 T01060089 51019 TSNO
94908KDBQ DBQ20100930025510309/30/10 02:55:31  5-MIN KDBQ 300855Z AUTO 00000KT 10SM CLR 11/09 A2992 1080 89 800 000/00 RMK AO2 TSNO
94908KDBQ DBQ20100930030010309/30/10 03:00:31  5-MIN KDBQ 300900Z AUTO 32005KT 10SM CLR 11/09 A2992 1080 89 800 320/05 RMK AO2 TSNO
94908KDBQ DBQ20100930030510409/30/10 03:05:31  5-MIN KDBQ 300905Z AUTO 33007KT 10SM CLR 12/09 A2992 1080 86 1000 330/07 RMK AO2 TSNO
94908KDBQ DBQ20100930031010409/30/10 03:10:31  5-MIN KDBQ 300910Z AUTO 33007KT 10SM CLR 12/09 A2993 1070 83 1000 330/07 RMK AO2 TSNO
94908KDBQ DBQ20100930031510409/30/10 03:15:31  5-MIN KDBQ 300915Z AUTO 33006KT 10SM CLR 13/10 A2993 1070 83 1100 330/06 RMK AO2 TSNO
94908KDBQ DBQ20100930032010409/30/10 03:20:31  5-MIN KDBQ 300920Z AUTO 33006KT 10SM CLR 12/09 A2993 1070 83 1000 330/06 RMK AO2 TSNO
94908KDBQ DBQ20100930032510409/30/10 03:25:31  5-MIN KDBQ 300925Z AUTO 34008KT 10SM CLR 13/09 A2993 1070 80 1100 330/08 RMK AO2 TSNO
94908KDBQ DBQ20100930033010409/30/10 03:30:31  5-MIN KDBQ 300930Z AUTO 33008KT 10SM CLR 13/09 A2993 1070 80 1100 330/08 RMK AO2 TSNO
94908KDBQ DBQ20100930033510409/30/10 03:35:31  5-MIN KDBQ 300935Z AUTO 33008KT 10SM CLR 13/09 A2993 1070 80 1100 330/08 RMK AO2 TSNO
94908KDBQ DBQ20100930034010409/30/10 03:40:31  5-MIN KDBQ 300940Z AUTO 34007KT 10SM CLR 12/09 A2994 1060 83 1000 340/07 RMK AO2 TSNO
94908KDBQ DBQ20100930034510409/30/10 03:45:31  5-MIN KDBQ 300945Z AUTO 34007KT 10SM CLR 12/09 A2994 1060 83 1000 340/07 RMK AO2 TSNO
94908KDBQ DBQ20100930035012109/30/10 03:50:31  5-MIN KDBQ 300950Z AUTO 34007KT 10SM CLR 12/09 A2994 1060 83 1000 340/07 RMK AO2 SLP135 T01220094 TSNO
94908KDBQ DBQ20100930035510409/30/10 03:55:31  5-MIN KDBQ 300955Z AUTO 34007KT 10SM CLR 12/09 A2994 1060 83 1000 340/07 RMK AO2 TSNO
94908KDBQ DBQ20100930040010409/30/10 04:00:31  5-MIN KDBQ 301000Z AUTO 34007KT 10SM CLR 12/09 A2994 1060 83 1000 340/07 RMK AO2 TSNO
94908KDBQ DBQ20100930040510409/30/10 04:05:31  5-MIN KDBQ 301005Z AUTO 35007KT 10SM CLR 12/09 A2994 1060 83 1000 340/07 RMK AO2 TSNO
94908KDBQ DBQ20100930041010409/30/10 04:10:31  5-MIN KDBQ 301010Z AUTO 34007KT 10SM CLR 12/09 A2994 1060 83 1000 340/07 RMK AO2 TSNO
94908KDBQ DBQ20100930041510409/30/10 04:15:31  5-MIN KDBQ 301015Z AUTO 34007KT 10SM CLR 12/09 A2994 1060 80 1000 340/07 RMK AO2 TSNO
94908KDBQ DBQ20100930042010409/30/10 04:20:31  5-MIN KDBQ 301020Z AUTO 34007KT 10SM CLR 12/09 A2994 1060 83 1000 340/07 RMK AO2 TSNO
94908KDBQ DBQ20100930042510409/30/10 04:25:31  5-MIN KDBQ 301025Z AUTO 34007KT 10SM CLR 12/09 A2994 1060 83 1000 340/07 RMK AO2 TSNO
94908KDBQ DBQ20100930043010309/30/10 04:30:31  5-MIN KDBQ 301030Z AUTO 34006KT 10SM CLR 12/09 A2994 1060 83 900 340/06 RMK AO2 TSNO
94908KDBQ DBQ20100930043510309/30/10 04:35:31  5-MIN KDBQ 301035Z AUTO 34007KT 10SM CLR 12/09 A2994 1060 83 900 340/07 RMK AO2 TSNO
94908KDBQ DBQ20100930044010309/30/10 04:40:31  5-MIN KDBQ 301040Z AUTO 34006KT 10SM CLR 12/09 A2995 1060 83 900 340/06 RMK AO2 TSNO
94908KDBQ DBQ20100930044510309/30/10 04:45:31  5-MIN KDBQ 301045Z AUTO 34006KT 10SM CLR 12/09 A2994 1060 83 900 340/06 RMK AO2 TSNO
94908KDBQ DBQ20100930045011009/30/10 04:50:31  5-MIN KDBQ 301050Z 35005KT 10SM CLR 12/09 A2995 1050 83 900 350/05 RMK AO2 SLP139 T01170089
94908KDBQ DBQ20100930045509309/30/10 04:55:31  5-MIN KDBQ 301055Z 35005KT 10SM CLR 12/09 A2995 1050 83 900 350/05 RMK AO2
94908KDBQ DBQ20100930050009309/30/10 05:00:31  5-MIN KDBQ 301100Z 36005KT 10SM CLR 11/09 A2995 1050 86 900 350/05 RMK AO2
94908KDBQ DBQ20100930050509309/30/10 05:05:31  5-MIN KDBQ 301105Z 35005KT 10SM CLR 11/09 A2995 1050 86 900 350/05 RMK AO2
94908KDBQ DBQ20100930051009309/30/10 05:10:31  5-MIN KDBQ 301110Z 36006KT 10SM CLR 12/09 A2995 1050 83 900 350/06 RMK AO2
94908KDBQ DBQ20100930051509309/30/10 05:15:31  5-MIN KDBQ 301115Z 36004KT 10SM CLR 11/09 A2995 1050 86 900 360/04 RMK AO2
94908KDBQ DBQ20100930052009309/30/10 05:20:31  5-MIN KDBQ 301120Z 01004KT 10SM CLR 11/08 A2995 1050 83 900 010/04 RMK AO2
94908KDBQ DBQ20100930052509309/30/10 05:25:31  5-MIN KDBQ 301125Z 02004KT 10SM CLR 11/08 A2995 1050 83 900 020/04 RMK AO2
94908KDBQ DBQ20100930053009309/30/10 05:30:31  5-MIN KDBQ 301130Z 02004KT 10SM CLR 12/08 A2996 1050 80 900 020/04 RMK AO2
94908KDBQ DBQ20100930053509309/30/10 05:35:31  5-MIN KDBQ 301135Z 04003KT 10SM CLR 12/08 A2996 1050 80 900 040/03 RMK AO2
94908KDBQ DBQ20100930054009309/30/10 05:40:31  5-MIN KDBQ 301140Z 00000KT 10SM CLR 12/08 A2996 1040 80 900 000/00 RMK AO2
94908KDBQ DBQ20100930054509309/30/10 05:45:31  5-MIN KDBQ 301145Z 03003KT 10SM CLR 12/08 A2996 1040 80 900 030/03 RMK AO2
94908KDBQ DBQ20100930055012809/30/10 05:50:31  5-MIN KDBQ 301150Z 00000KT 10SM CLR 12/09 A2996 1040 83 900 000/00 RMK AO2 SLP144 T01170089 10133 20100 51014
94908KDBQ DBQ20100930055509309/30/10 05:55:31  5-MIN KDBQ 301155Z 00000KT 10SM CLR 12/09 A2996 1040 83 900 000/00 RMK AO2
94908KDBQ DBQ20100930060009309/30/10 06:00:31  5-MIN KDBQ 301200Z 00000KT 10SM CLR 12/09 A2996 1040 83 900 000/00 RMK AO2
94908KDBQ DBQ20100930060509309/30/10 06:05:31  5-MIN KDBQ 301205Z 00000KT 10SM CLR 12/09 A2996 1040 83 900 000/00 RMK AO2
94908KDBQ DBQ20100930061009309/30/10 06:10:31  5-MIN KDBQ 301210Z 00000KT 10SM CLR 12/08 A2996 1040 80 900 000/00 RMK AO2
94908KDBQ DBQ20100930061509309/30/10 06:15:31  5-MIN KDBQ 301215Z 00000KT 10SM CLR 12/08 A2996 1040 80 900 000/00 RMK AO2
94908KDBQ DBQ20100930062009309/30/10 06:20:31  5-MIN KDBQ 301220Z 00000KT 10SM CLR 12/08 A2997 1040 80 900 000/00 RMK AO2
94908KDBQ DBQ20100930062509309/30/10 06:25:31  5-MIN KDBQ 301225Z 00000KT 10SM CLR 12/08 A2997 1030 80 900 000/00 RMK AO2
94908KDBQ DBQ20100930063009309/30/10 06:30:31  5-MIN KDBQ 301230Z 00000KT 10SM CLR 12/08 A2997 1030 80 900 000/00 RMK AO2
94908KDBQ DBQ20100930063509309/30/10 06:35:31  5-MIN KDBQ 301235Z 34004KT 10SM CLR 11/08 A2997 1030 83 800 340/04 RMK AO2
94908KDBQ DBQ20100930064009309/30/10 06:40:31  5-MIN KDBQ 301240Z 34005KT 10SM CLR 12/09 A2998 1030 83 900 340/05 RMK AO2
94908KDBQ DBQ20100930064509409/30/10 06:45:31  5-MIN KDBQ 301245Z 33006KT 10SM CLR 12/09 A2998 1020 80 1000 330/06 RMK AO2
94908KDBQ DBQ20100930065011109/30/10 06:50:31  5-MIN KDBQ 301250Z 33007KT 10SM CLR 12/09 A2998 1020 80 1000 330/07 RMK AO2 SLP151 T01220089
94908KDBQ DBQ20100930065509409/30/10 06:55:31  5-MIN KDBQ 301255Z 34008KT 10SM CLR 13/09 A2998 1020 80 1000 340/08 RMK AO2
94908KDBQ DBQ20100930070009409/30/10 07:00:31  5-MIN KDBQ 301300Z 35007KT 10SM CLR 13/09 A2999 1020 80 1000 340/07 RMK AO2
94908KDBQ DBQ20100930070509409/30/10 07:05:31  5-MIN KDBQ 301305Z 35006KT 10SM CLR 13/09 A2999 1020 80 1000 350/06 RMK AO2
94908KDBQ DBQ20100930071009409/30/10 07:10:31  5-MIN KDBQ 301310Z 35008KT 10SM CLR 13/09 A2999 1010 80 1000 340/08 RMK AO2
94908KDBQ DBQ20100930071509409/30/10 07:15:31  5-MIN KDBQ 301315Z 35007KT 10SM CLR 13/09 A2999 1010 77 1100 350/07 RMK AO2
94908KDBQ DBQ20100930072009409/30/10 07:20:31  5-MIN KDBQ 301320Z 35008KT 10SM CLR 13/09 A2999 1010 77 1100 350/08 RMK AO2
94908KDBQ DBQ20100930072509409/30/10 07:25:31  5-MIN KDBQ 301325Z 35007KT 10SM CLR 13/09 A2999 1010 77 1100 350/07 RMK AO2
94908KDBQ DBQ20100930073009409/30/10 07:30:31  5-MIN KDBQ 301330Z 35009KT 10SM CLR 14/09 A2999 1010 74 1200 350/09 RMK AO2
94908KDBQ DBQ20100930073509409/30/10 07:35:31  5-MIN KDBQ 301335Z 35008KT 10SM CLR 14/09 A2999 1010 74 1200 350/08 RMK AO2
94908KDBQ DBQ20100930074009409/30/10 07:40:31  5-MIN KDBQ 301340Z 35009KT 10SM CLR 14/09 A3000 1010 74 1200 350/09 RMK AO2
94908KDBQ DBQ20100930074509409/30/10 07:45:31  5-MIN KDBQ 301345Z 35009KT 10SM CLR 14/09 A3000 1000 74 1100 350/09 RMK AO2
94908KDBQ DBQ20100930075011109/30/10 07:50:31  5-MIN KDBQ 301350Z 36009KT 10SM CLR 14/09 A3000 1000 72 1200 350/09 RMK AO2 SLP156 T01440094
94908KDBQ DBQ20100930075509409/30/10 07:55:31  5-MIN KDBQ 301355Z 35009KT 10SM CLR 14/09 A3000 1000 72 1200 350/09 RMK AO2
94908KDBQ DBQ20100930080009409/30/10 08:00:31  5-MIN KDBQ 301400Z 36009KT 10SM CLR 14/09 A3000 1000 72 1200 360/09 RMK AO2
94908KDBQ DBQ20100930080509409/30/10 08:05:31  5-MIN KDBQ 301405Z 36008KT 10SM CLR 14/10 A3000 1000 74 1200 360/08 RMK AO2
94908KDBQ DBQ20100930081009409/30/10 08:10:31  5-MIN KDBQ 301410Z 35009KT 10SM CLR 15/09 A3000 1000 69 1300 350/09 RMK AO2
94908KDBQ DBQ20100930081509409/30/10 08:15:31  5-MIN KDBQ 301415Z 34012KT 10SM CLR 15/09 A3000 1000 69 1300 340/12 RMK AO2
94908KDBQ DBQ20100930082009409/30/10 08:20:31  5-MIN KDBQ 301420Z 35012KT 10SM CLR 15/09 A3000 1000 69 1300 350/12 RMK AO2
94908KDBQ DBQ20100930082509409/30/10 08:25:31  5-MIN KDBQ 301425Z 36013KT 10SM CLR 15/09 A3000 1000 66 1300 360/13 RMK AO2
94908KDBQ DBQ20100930083009409/30/10 08:30:31  5-MIN KDBQ 301430Z 36013KT 10SM CLR 16/09 A3001 1000 67 1300 350/13 RMK AO2
94908KDBQ DBQ20100930083509409/30/10 08:35:31  5-MIN KDBQ 301435Z 35010KT 10SM CLR 16/09 A3001 1000 67 1300 350/10 RMK AO2
94908KDBQ DBQ20100930084009409/30/10 08:40:31  5-MIN KDBQ 301440Z 36014KT 10SM CLR 16/09 A3001 1000 64 1300 360/14 RMK AO2
94908KDBQ DBQ20100930084509409/30/10 08:45:31  5-MIN KDBQ 301445Z 36012KT 10SM CLR 16/09 A3001 1000 62 1400 360/12 RMK AO2
94908KDBQ DBQ20100930085011709/30/10 08:50:31  5-MIN KDBQ 301450Z 36011KT 10SM CLR 16/09 A3001 1000 62 1400 360/11 RMK AO2 SLP159 T01610089 51014
94908KDBQ DBQ20100930085509309/30/10 08:55:31  5-MIN KDBQ 301455Z 36013KT 10SM CLR 17/09 A3001 990 60 1500 360/13 RMK AO2
94908KDBQ DBQ20100930090009309/30/10 09:00:31  5-MIN KDBQ 301500Z 01009KT 10SM CLR 17/09 A3002 990 60 1500 010/09 RMK AO2
94908KDBQ DBQ20100930090509909/30/10 09:05:31  5-MIN KDBQ 301505Z 01011G16KT 10SM CLR 17/09 A3002 990 62 1500 010/11G16 RMK AO2
94908KDBQ DBQ20100930091009909/30/10 09:10:31  5-MIN KDBQ 301510Z 36012G16KT 10SM CLR 17/09 A3002 990 60 1500 360/12G16 RMK AO2
94908KDBQ DBQ20100930091509309/30/10 09:15:31  5-MIN KDBQ 301515Z 36013KT 10SM CLR 17/09 A3002 990 60 1500 360/13 RMK AO2
94908KDBQ DBQ20100930092009309/30/10 09:20:31  5-MIN KDBQ 301520Z 36013KT 10SM CLR 17/09 A3002 990 57 1500 360/13 RMK AO2
94908KDBQ DBQ20100930092509309/30/10 09:25:31  5-MIN KDBQ 301525Z 36010KT 10SM CLR 18/09 A3002 980 58 1600 360/10 RMK AO2
94908KDBQ DBQ20100930093009309/30/10 09:30:31  5-MIN KDBQ 301530Z 36012KT 10SM CLR 18/09 A3003 980 58 1600 360/12 RMK AO2
94908KDBQ DBQ20100930093509909/30/10 09:35:31  5-MIN KDBQ 301535Z 36014G20KT 10SM CLR 18/09 A3003 980 55 1600 360/14G20 RMK AO2
94908KDBQ DBQ20100930094009909/30/10 09:40:31  5-MIN KDBQ 301540Z 36013G20KT 10SM CLR 18/09 A3003 980 55 1600 360/13G20 RMK AO2
94908KDBQ DBQ20100930094509509/30/10 09:45:31  5-MIN KDBQ 301545Z 35011KT 2SM HZ CLR 18/09 A3002 980 54 1600 350/11 RMK AO2
94908KDBQ DBQ20100930095011209/30/10 09:50:31  5-MIN KDBQ 301550Z 36011KT 2SM HZ CLR 19/09 A3002 980 54 1700 360/11 RMK AO2 SLP165 T01890094
94908KDBQ DBQ20100930095509909/30/10 09:55:31  5-MIN KDBQ 301555Z 35016G19KT 10SM CLR 18/09 A3002 980 54 1600 350/16G19 RMK AO2
94908KDBQ DBQ20100930100009309/30/10 10:00:31  5-MIN KDBQ 301600Z 35012KT 10SM CLR 18/08 A3002 990 52 1600 350/12 RMK AO2
94908KDBQ DBQ20100930100509909/30/10 10:05:31  5-MIN KDBQ 301605Z 36014G18KT 10SM CLR 19/09 A3003 980 52 1700 360/14G18 RMK AO2
94908KDBQ DBQ20100930101009909/30/10 10:10:31  5-MIN KDBQ 301610Z 34014G20KT 10SM CLR 18/08 A3003 980 50 1600 340/14G20 RMK AO2
94908KDBQ DBQ20100930101509909/30/10 10:15:31  5-MIN KDBQ 301615Z 34014G21KT 10SM CLR 19/08 A3003 980 50 1700 340/14G21 RMK AO2
94908KDBQ DBQ20100930102009909/30/10 10:20:31  5-MIN KDBQ 301620Z 34013G21KT 10SM CLR 19/08 A3003 980 48 1700 340/13G21 RMK AO2
94908KDBQ DBQ20100930102509909/30/10 10:25:31  5-MIN KDBQ 301625Z 34014G20KT 10SM CLR 19/08 A3003 980 48 1700 340/14G20 RMK AO2
94908KDBQ DBQ20100930103009309/30/10 10:30:31  5-MIN KDBQ 301630Z 34013KT 10SM CLR 19/08 A3003 980 48 1700 340/13 RMK AO2
94908KDBQ DBQ20100930103509909/30/10 10:35:31  5-MIN KDBQ 301635Z 34015G20KT 10SM CLR 19/08 A3003 980 48 1700 340/15G20 RMK AO2
94908KDBQ DBQ20100930104009909/30/10 10:40:31  5-MIN KDBQ 301640Z 34016G22KT 10SM CLR 19/07 A3003 980 46 1700 340/16G22 RMK AO2
94908KDBQ DBQ20100930104509909/30/10 10:45:31  5-MIN KDBQ 301645Z 34017G22KT 10SM CLR 19/07 A3003 980 44 1800 340/17G22 RMK AO2
94908KDBQ DBQ20100930105011609/30/10 10:50:31  5-MIN KDBQ 301650Z 34015G22KT 10SM CLR 19/07 A3003 980 43 1800 340/15G22 RMK AO2 SLP166 T01940067
94908KDBQ DBQ20100930105509909/30/10 10:55:31  5-MIN KDBQ 301655Z 36016G22KT 10SM CLR 19/07 A3003 980 43 1800 360/16G22 RMK AO2
94908KDBQ DBQ20100930110009309/30/10 11:00:31  5-MIN KDBQ 301700Z 35017KT 10SM CLR 19/07 A3003 980 43 1800 350/17 RMK AO2
94908KDBQ DBQ20100930110509909/30/10 11:05:31  5-MIN KDBQ 301705Z 35016G22KT 10SM CLR 19/06 A3003 980 41 1800 350/16G22 RMK AO2
94908KDBQ DBQ20100930111011709/30/10 11:10:31  5-MIN KDBQ 301710Z 33019G27KT 10SM CLR 20/06 A3003 980 38 1800 330/19G27 RMK AO2 PK WND 32027/1710
94908KDBQ DBQ20100930111511709/30/10 11:15:31  5-MIN KDBQ 301715Z 34018G27KT 10SM CLR 20/06 A3003 980 38 1800 340/18G27 RMK AO2 PK WND 32027/1710
94908KDBQ DBQ20100930112011709/30/10 11:20:31  5-MIN KDBQ 301720Z 34015G24KT 10SM CLR 20/06 A3003 980 38 1800 340/15G24 RMK AO2 PK WND 32027/1710
94908KDBQ DBQ20100930112511709/30/10 11:25:31  5-MIN KDBQ 301725Z 34013G23KT 10SM CLR 20/06 A3003 980 38 1800 340/13G23 RMK AO2 PK WND 32027/1710
94908KDBQ DBQ20100930113011709/30/10 11:30:31  5-MIN KDBQ 301730Z 34018G23KT 10SM CLR 21/06 A3003 980 38 1900 340/18G23 RMK AO2 PK WND 32027/1710
94908KDBQ DBQ20100930113511709/30/10 11:35:31  5-MIN KDBQ 301735Z 35019G26KT 10SM CLR 20/05 A3003 980 37 1800 350/19G26 RMK AO2 PK WND 32027/1710
94908KDBQ DBQ20100930114011709/30/10 11:40:31  5-MIN KDBQ 301740Z 33016G26KT 10SM CLR 21/06 A3003 980 37 1900 330/16G26 RMK AO2 PK WND 32027/1710
94908KDBQ DBQ20100930114511709/30/10 11:45:31  5-MIN KDBQ 301745Z 34020G23KT 10SM CLR 21/04 A3003 980 34 1900 340/20G23 RMK AO2 PK WND 32027/1710
94908KDBQ DBQ20100930115015209/30/10 11:50:31  5-MIN KDBQ 301750Z 35018G24KT 10SM CLR 21/05 A3003 980 35 1900 340/18G24 RMK AO2 PK WND 32027/1710 SLP168 T02060050 10206 20111 51017
94908KDBQ DBQ20100930115511709/30/10 11:55:31  5-MIN KDBQ 301755Z 34020G28KT 10SM CLR 21/05 A3003 980 35 1900 340/20G28 RMK AO2 PK WND 33028/1754
94908KDBQ DBQ20100930120011709/30/10 12:00:31  5-MIN KDBQ 301800Z 35019G28KT 10SM CLR 21/05 A3003 980 35 1900 350/19G28 RMK AO2 PK WND 33028/1754
94908KDBQ DBQ20100930120511709/30/10 12:05:31  5-MIN KDBQ 301805Z 35018G25KT 10SM CLR 21/04 A3003 980 34 1900 350/18G25 RMK AO2 PK WND 33028/1754
94908KDBQ DBQ20100930121011709/30/10 12:10:31  5-MIN KDBQ 301810Z 34016G24KT 10SM CLR 21/06 A3003 980 36 2000 340/16G24 RMK AO2 PK WND 33028/1754
94908KDBQ DBQ20100930121511709/30/10 12:15:31  5-MIN KDBQ 301815Z 35015G23KT 10SM CLR 21/04 A3003 980 34 1900 350/15G23 RMK AO2 PK WND 33028/1754
94908KDBQ DBQ20100930122011109/30/10 12:20:31  5-MIN KDBQ 301820Z 33015KT 10SM CLR 21/05 A3003 980 34 2000 330/15 RMK AO2 PK WND 33028/1754
94908KDBQ DBQ20100930122511709/30/10 12:25:31  5-MIN KDBQ 301825Z 33012G20KT 10SM CLR 21/06 A3003 980 36 2000 330/12G20 RMK AO2 PK WND 33028/1754
94908KDBQ DBQ20100930123011709/30/10 12:30:31  5-MIN KDBQ 301830Z 34014G20KT 10SM CLR 21/06 A3003 980 36 2000 340/14G20 RMK AO2 PK WND 33028/1754
94908KDBQ DBQ20100930123511709/30/10 12:35:31  5-MIN KDBQ 301835Z 34015G20KT 10SM CLR 21/06 A3003 980 36 2000 340/15G20 RMK AO2 PK WND 33028/1754
94908KDBQ DBQ20100930124011709/30/10 12:40:31  5-MIN KDBQ 301840Z 32015G22KT 10SM CLR 21/05 A3002 980 34 2000 320/15G22 RMK AO2 PK WND 33028/1754
94908KDBQ DBQ20100930124511709/30/10 12:45:31  5-MIN KDBQ 301845Z 32014G22KT 10SM CLR 22/06 A3003 980 34 2000 320/14G22 RMK AO2 PK WND 33028/1754
94908KDBQ DBQ20100930125012809/30/10 12:50:31  5-MIN KDBQ 301850Z 34014KT 10SM CLR 22/06 A3002 980 34 2000 340/14 RMK AO2 PK WND 33028/1754 SLP164 T02170056
94908KDBQ DBQ20100930125509909/30/10 12:55:31  5-MIN KDBQ 301855Z 35019G28KT 10SM CLR 21/04 A3002 980 33 2000 350/19G28 RMK AO2
94908KDBQ DBQ20100930130011709/30/10 13:00:31  5-MIN KDBQ 301900Z 35020G28KT 10SM CLR 21/04 A3002 980 32 2000 350/20G28 RMK AO2 PK WND 33028/1858
94908KDBQ DBQ20100930130511709/30/10 13:05:31  5-MIN KDBQ 301905Z 35018G28KT 10SM CLR 21/03 A3002 980 30 2000 350/18G28 RMK AO2 PK WND 33028/1858
94908KDBQ DBQ20100930131011109/30/10 13:10:31  5-MIN KDBQ 301910Z 34016KT 10SM CLR 21/04 A3002 980 32 2000 340/16 RMK AO2 PK WND 33028/1858
94908KDBQ DBQ20100930131511709/30/10 13:15:31  5-MIN KDBQ 301915Z 34017G25KT 10SM CLR 21/03 A3002 980 30 2000 340/17G25 RMK AO2 PK WND 33028/1858
94908KDBQ DBQ20100930132011709/30/10 13:20:31  5-MIN KDBQ 301920Z 35019G25KT 10SM CLR 21/04 A3002 980 32 2000 350/19G25 RMK AO2 PK WND 33028/1858
94908KDBQ DBQ20100930132511709/30/10 13:25:31  5-MIN KDBQ 301925Z 35017G24KT 10SM CLR 21/04 A3002 980 32 2000 350/17G24 RMK AO2 PK WND 33028/1858
94908KDBQ DBQ20100930133011709/30/10 13:30:31  5-MIN KDBQ 301930Z 36018G25KT 10SM CLR 21/04 A3002 990 32 2000 360/18G25 RMK AO2 PK WND 33028/1858
94908KDBQ DBQ20100930133511709/30/10 13:35:31  5-MIN KDBQ 301935Z 36017G25KT 10SM CLR 21/04 A3002 990 33 1900 360/17G25 RMK AO2 PK WND 33028/1858
94908KDBQ DBQ20100930134011709/30/10 13:40:31  5-MIN KDBQ 301940Z 36017G24KT 10SM CLR 21/04 A3002 990 33 2000 360/17G24 RMK AO2 PK WND 33028/1858
94908KDBQ DBQ20100930134511709/30/10 13:45:31  5-MIN KDBQ 301945Z 35015G23KT 10SM CLR 21/04 A3002 990 33 2000 350/15G23 RMK AO2 PK WND 33028/1858
94908KDBQ DBQ20100930135014409/30/10 13:50:31  5-MIN KDBQ 301950Z AUTO 36014G23KT 10SM CLR 21/05 A3002 980 34 2000 360/14G23 RMK AO2 PK WND 33028/1858 SLP165 T02110050 TSNO
94908KDBQ DBQ20100930135509909/30/10 13:55:31  5-MIN KDBQ 301955Z 34015G22KT 10SM CLR 21/05 A3002 980 34 2000 340/15G22 RMK AO2
94908KDBQ DBQ20100930140009909/30/10 14:00:31  5-MIN KDBQ 302000Z 35013G22KT 10SM CLR 21/06 A3002 980 36 2000 350/13G22 RMK AO2
94908KDBQ DBQ20100930140511709/30/10 14:05:31  5-MIN KDBQ 302005Z 34017G29KT 10SM CLR 21/04 A3003 980 33 2000 340/17G29 RMK AO2 PK WND 33029/2003
94908KDBQ DBQ20100930141011709/30/10 14:10:31  5-MIN KDBQ 302010Z 33017G29KT 10SM CLR 21/05 A3003 980 34 2000 330/17G29 RMK AO2 PK WND 33029/2003
94908KDBQ DBQ20100930141511709/30/10 14:15:31  5-MIN KDBQ 302015Z 33018G29KT 10SM CLR 21/04 A3003 980 34 1900 330/18G29 RMK AO2 PK WND 32029/2014
94908KDBQ DBQ20100930142011709/30/10 14:20:31  5-MIN KDBQ 302020Z 33019G29KT 10SM CLR 21/04 A3003 980 33 1900 330/19G29 RMK AO2 PK WND 32029/2014
94908KDBQ DBQ20100930142511709/30/10 14:25:31  5-MIN KDBQ 302025Z 34018G24KT 10SM CLR 21/04 A3003 980 33 1900 340/18G24 RMK AO2 PK WND 32029/2014
94908KDBQ DBQ20100930143011709/30/10 14:30:31  5-MIN KDBQ 302030Z 35015G24KT 10SM CLR 21/04 A3003 980 34 1900 350/15G24 RMK AO2 PK WND 32029/2014
94908KDBQ DBQ20100930143511709/30/10 14:35:31  5-MIN KDBQ 302035Z 35017G25KT 10SM CLR 21/04 A3003 980 34 1900 350/17G25 RMK AO2 PK WND 32029/2014
94908KDBQ DBQ20100930144011709/30/10 14:40:31  5-MIN KDBQ 302040Z 35014G25KT 10SM CLR 21/04 A3003 970 34 1900 350/14G25 RMK AO2 PK WND 32029/2014
94908KDBQ DBQ20100930144511709/30/10 14:45:31  5-MIN KDBQ 302045Z 35014G23KT 10SM CLR 21/05 A3003 980 35 1900 350/14G23 RMK AO2 PK WND 32029/2014
94908KDBQ DBQ20100930145014009/30/10 14:50:31  5-MIN KDBQ 302050Z 35012G20KT 10SM CLR 21/05 A3003 970 35 1900 350/12G20 RMK AO2 PK WND 32029/2014 SLP169 T02060050 53002
94908KDBQ DBQ20100930145509909/30/10 14:55:31  5-MIN KDBQ 302055Z 34013G20KT 10SM CLR 21/06 A3003 970 37 1900 340/13G20 RMK AO2
94908KDBQ DBQ20100930150009309/30/10 15:00:31  5-MIN KDBQ 302100Z 34017KT 10SM CLR 21/05 A3003 970 35 1900 340/17 RMK AO2
94908KDBQ DBQ20100930150509909/30/10 15:05:31  5-MIN KDBQ 302105Z 33016G25KT 10SM CLR 21/04 A3004 970 34 1900 330/16G25 RMK AO2
94908KDBQ DBQ20100930151009909/30/10 15:10:31  5-MIN KDBQ 302110Z 34017G25KT 10SM CLR 21/04 A3004 970 33 1900 340/17G25 RMK AO2
94908KDBQ DBQ20100930151509909/30/10 15:15:31  5-MIN KDBQ 302115Z 36013G22KT 10SM CLR 20/04 A3003 970 35 1800 360/13G22 RMK AO2
94908KDBQ DBQ20100930152009309/30/10 15:20:31  5-MIN KDBQ 302120Z 35015KT 10SM CLR 20/04 A3004 970 35 1800 350/15 RMK AO2
94908KDBQ DBQ20100930152509909/30/10 15:25:31  5-MIN KDBQ 302125Z 35014G20KT 10SM CLR 21/05 A3004 970 35 1900 350/14G20 RMK AO2
94908KDBQ DBQ20100930153009909/30/10 15:30:31  5-MIN KDBQ 302130Z 33019G25KT 10SM CLR 20/04 A3004 970 34 1800 330/19G25 RMK AO2
94908KDBQ DBQ20100930153509909/30/10 15:35:31  5-MIN KDBQ 302135Z 34017G25KT 10SM CLR 20/04 A3004 970 34 1800 330/17G25 RMK AO2
94908KDBQ DBQ20100930154009909/30/10 15:40:31  5-MIN KDBQ 302140Z 34017G23KT 10SM CLR 20/04 A3004 960 34 1800 340/17G23 RMK AO2
94908KDBQ DBQ20100930154509909/30/10 15:45:31  5-MIN KDBQ 302145Z 35013G21KT 10SM CLR 20/04 A3005 960 35 1800 350/13G21 RMK AO2
94908KDBQ DBQ20100930155011609/30/10 15:50:31  5-MIN KDBQ 302150Z 34014G23KT 10SM CLR 20/04 A3005 960 34 1800 330/14G23 RMK AO2 SLP174 T02000039
94908KDBQ DBQ20100930155509909/30/10 15:55:31  5-MIN KDBQ 302155Z 35015G23KT 10SM CLR 19/04 A3005 960 35 1700 340/15G23 RMK AO2
94908KDBQ DBQ20100930160009909/30/10 16:00:31  5-MIN KDBQ 302200Z 34016G22KT 10SM CLR 19/04 A3005 960 35 1700 340/16G22 RMK AO2
94908KDBQ DBQ20100930160509309/30/10 16:05:31  5-MIN KDBQ 302205Z 34013KT 10SM CLR 19/04 A3005 960 35 1700 340/13 RMK AO2
94908KDBQ DBQ20100930161009309/30/10 16:10:31  5-MIN KDBQ 302210Z 35014KT 10SM CLR 19/04 A3005 960 37 1700 350/14 RMK AO2
94908KDBQ DBQ20100930161509909/30/10 16:15:31  5-MIN KDBQ 302215Z 35015G21KT 10SM CLR 19/04 A3005 960 36 1700 350/15G21 RMK AO2
94908KDBQ DBQ20100930162009909/30/10 16:20:31  5-MIN KDBQ 302220Z 34012G21KT 10SM CLR 19/04 A3005 960 36 1700 340/12G21 RMK AO2
94908KDBQ DBQ20100930162509909/30/10 16:25:31  5-MIN KDBQ 302225Z 35014G20KT 10SM CLR 19/04 A3005 950 38 1700 350/14G20 RMK AO2
94908KDBQ DBQ20100930163009909/30/10 16:30:31  5-MIN KDBQ 302230Z 35014G20KT 10SM CLR 19/04 A3006 950 36 1700 350/14G20 RMK AO2
94908KDBQ DBQ20100930163509909/30/10 16:35:31  5-MIN KDBQ 302235Z 35012G19KT 10SM CLR 19/04 A3006 950 38 1700 340/12G19 RMK AO2
94908KDBQ DBQ20100930164009309/30/10 16:40:31  5-MIN KDBQ 302240Z 35011KT 10SM CLR 18/04 A3006 950 39 1600 350/11 RMK AO2
94908KDBQ DBQ20100930164509309/30/10 16:45:31  5-MIN KDBQ 302245Z 35012KT 10SM CLR 18/04 A3006 950 39 1600 350/12 RMK AO2
94908KDBQ DBQ20100930165011009/30/10 16:50:31  5-MIN KDBQ 302250Z 35011KT 10SM CLR 18/04 A3006 950 39 1600 350/11 RMK AO2 SLP180 T01830044
94908KDBQ DBQ20100930165509309/30/10 16:55:31  5-MIN KDBQ 302255Z 34010KT 10SM CLR 18/04 A3006 950 41 1500 340/10 RMK AO2
94908KDBQ DBQ20100930170009309/30/10 17:00:31  5-MIN KDBQ 302300Z 35009KT 10SM CLR 18/04 A3006 950 41 1500 350/09 RMK AO2
94908KDBQ DBQ20100930170509309/30/10 17:05:31  5-MIN KDBQ 302305Z 35009KT 10SM CLR 18/04 A3007 940 41 1500 350/09 RMK AO2
94908KDBQ DBQ20100930171009309/30/10 17:10:31  5-MIN KDBQ 302310Z 36009KT 10SM CLR 18/04 A3007 940 41 1500 360/09 RMK AO2
94908KDBQ DBQ20100930171509309/30/10 17:15:31  5-MIN KDBQ 302315Z 36009KT 10SM CLR 17/04 A3007 940 42 1500 360/09 RMK AO2
94908KDBQ DBQ20100930172009309/30/10 17:20:31  5-MIN KDBQ 302320Z 35008KT 10SM CLR 17/05 A3007 940 45 1400 350/08 RMK AO2
94908KDBQ DBQ20100930172509309/30/10 17:25:31  5-MIN KDBQ 302325Z 35008KT 10SM CLR 17/04 A3007 940 44 1400 350/08 RMK AO2
94908KDBQ DBQ20100930173009309/30/10 17:30:31  5-MIN KDBQ 302330Z 35007KT 10SM CLR 16/04 A3007 940 45 1300 350/07 RMK AO2
94908KDBQ DBQ20100930173509309/30/10 17:35:31  5-MIN KDBQ 302335Z 35009KT 10SM CLR 16/04 A3007 940 45 1300 340/09 RMK AO2
94908KDBQ DBQ20100930174009309/30/10 17:40:31  5-MIN KDBQ 302340Z 35008KT 10SM CLR 16/04 A3007 940 47 1300 350/08 RMK AO2
94908KDBQ DBQ20100930174509309/30/10 17:45:31  5-MIN KDBQ 302345Z 35007KT 10SM CLR 15/04 A3007 940 49 1200 340/07 RMK AO2
94908KDBQ DBQ20100930175012809/30/10 17:50:31  5-MIN KDBQ 302350Z 35007KT 10SM CLR 14/04 A3007 940 51 1100 350/07 RMK AO2 SLP184 T01440044 10217 20144 53001
94908KDBQ DBQ20100930175509309/30/10 17:55:31  5-MIN KDBQ 302355Z 35007KT 10SM CLR 14/04 A3007 940 51 1100 350/07 RMK AO2
94908KDBQ DBQ20100930180009309/30/10 18:00:31  5-MIN KDBQ 010000Z 36008KT 10SM CLR 14/04 A3007 940 52 1100 350/08 RMK AO2
94908KDBQ DBQ20100930180509309/30/10 18:05:31  5-MIN KDBQ 010005Z 34006KT 10SM CLR 14/04 A3007 940 52 1100 340/06 RMK AO2
94908KDBQ DBQ20100930181009309/30/10 18:10:31  5-MIN KDBQ 010010Z 35006KT 10SM CLR 14/04 A3007 940 52 1100 350/06 RMK AO2
94908KDBQ DBQ20100930181509309/30/10 18:15:31  5-MIN KDBQ 010015Z 35006KT 10SM CLR 14/04 A3007 940 52 1100 350/06 RMK AO2
94908KDBQ DBQ20100930182009309/30/10 18:20:31  5-MIN KDBQ 010020Z 35007KT 10SM CLR 13/04 A3007 940 54 1000 350/07 RMK AO2
94908KDBQ DBQ20100930182509209/30/10 18:25:31  5-MIN KDBQ 010025Z 35007KT 10SM CLR 13/04 A3008 940 56 900 350/07 RMK AO2
94908KDBQ DBQ20100930183009209/30/10 18:30:31  5-MIN KDBQ 010030Z 35006KT 10SM CLR 13/04 A3008 930 56 900 350/06 RMK AO2
94908KDBQ DBQ20100930183509309/30/10 18:35:31  5-MIN KDBQ 010035Z 35006KT 10SM CLR 13/04 A3008 930 54 1000 350/06 RMK AO2
94908KDBQ DBQ20100930184009209/30/10 18:40:31  5-MIN KDBQ 010040Z 34006KT 10SM CLR 13/04 A3008 930 56 900 340/06 RMK AO2
94908KDBQ DBQ20100930184509309/30/10 18:45:31  5-MIN KDBQ 010045Z 34005KT 10SM CLR 13/04 A3008 930 54 1000 340/05 RMK AO2
94908KDBQ DBQ20100930185011009/30/10 18:50:31  5-MIN KDBQ 010050Z 34005KT 10SM CLR 13/04 A3008 930 52 1000 340/05 RMK AO2 SLP187 T01330039
94908KDBQ DBQ20100930185509209/30/10 18:55:31  5-MIN KDBQ 010055Z 34005KT 10SM CLR 13/04 A3008 930 56 900 340/05 RMK AO2
94908KDBQ DBQ20100930190009209/30/10 19:00:31  5-MIN KDBQ 010100Z 33004KT 10SM CLR 12/04 A3008 930 61 800 330/04 RMK AO2
94908KDBQ DBQ20100930190509209/30/10 19:05:31  5-MIN KDBQ 010105Z 33003KT 10SM CLR 12/04 A3008 930 61 800 330/03 RMK AO2
94908KDBQ DBQ20100930191009209/30/10 19:10:31  5-MIN KDBQ 010110Z 33004KT 10SM CLR 12/04 A3008 930 61 800 330/04 RMK AO2
94908KDBQ DBQ20100930191509209/30/10 19:15:31  5-MIN KDBQ 010115Z 33005KT 10SM CLR 12/04 A3008 930 61 800 330/05 RMK AO2
94908KDBQ DBQ20100930192009209/30/10 19:20:31  5-MIN KDBQ 010120Z 34005KT 10SM CLR 12/04 A3008 930 59 900 330/05 RMK AO2
94908KDBQ DBQ20100930192509209/30/10 19:25:31  5-MIN KDBQ 010125Z 34005KT 10SM CLR 12/04 A3008 930 61 800 340/05 RMK AO2
94908KDBQ DBQ20100930193009209/30/10 19:30:31  5-MIN KDBQ 010130Z 34005KT 10SM CLR 11/04 A3008 930 63 700 340/05 RMK AO2
94908KDBQ DBQ20100930193509209/30/10 19:35:31  5-MIN KDBQ 010135Z 34005KT 10SM CLR 11/04 A3008 930 63 700 340/05 RMK AO2
94908KDBQ DBQ20100930194009209/30/10 19:40:31  5-MIN KDBQ 010140Z 34006KT 10SM CLR 12/04 A3009 930 61 800 340/06 RMK AO2
94908KDBQ DBQ20100930194509209/30/10 19:45:31  5-MIN KDBQ 010145Z 34006KT 10SM CLR 12/04 A3009 930 61 800 340/06 RMK AO2
94908KDBQ DBQ20100930195010109/30/10 19:50:31  5-MIN KDBQ 010150Z 10SM CLR 11/04 A3009 930 63 700 M /M RMK AO2 SLP190 T01110044 $
94908KDBQ DBQ20100930195509409/30/10 19:55:31  5-MIN KDBQ 010155Z 34007KT 10SM CLR 11/05 A3009 930 68 700 340/07 RMK AO2 $
94908KDBQ DBQ20100930200009409/30/10 20:00:31  5-MIN KDBQ 010200Z 34007KT 10SM CLR 11/04 A3009 920 66 700 340/07 RMK AO2 $
94908KDBQ DBQ20100930200509409/30/10 20:05:31  5-MIN KDBQ 010205Z 34006KT 10SM CLR 12/04 A3009 920 61 800 340/06 RMK AO2 $
94908KDBQ DBQ20100930201009409/30/10 20:10:31  5-MIN KDBQ 010210Z 34006KT 10SM CLR 12/04 A3009 920 61 800 340/06 RMK AO2 $
94908KDBQ DBQ20100930201509409/30/10 20:15:31  5-MIN KDBQ 010215Z 34006KT 10SM CLR 12/04 A3009 920 59 800 340/06 RMK AO2 $
94908KDBQ DBQ20100930202009409/30/10 20:20:31  5-MIN KDBQ 010220Z 33006KT 10SM CLR 12/04 A3009 920 61 800 330/06 RMK AO2 $
94908KDBQ DBQ20100930202509409/30/10 20:25:31  5-MIN KDBQ 010225Z 34005KT 10SM CLR 12/04 A3009 920 61 800 340/05 RMK AO2 $
94908KDBQ DBQ20100930203009209/30/10 20:30:31  5-MIN KDBQ 010230Z 34005KT 10SM CLR 12/04 A3009 920 61 800 340/05 RMK AO2
94908KDBQ DBQ20100930203509209/30/10 20:35:31  5-MIN KDBQ 010235Z 34005KT 10SM CLR 12/04 A3009 920 59 800 340/05 RMK AO2
94908KDBQ DBQ20100930204009209/30/10 20:40:31  5-MIN KDBQ 010240Z 34004KT 10SM CLR 12/04 A3010 920 61 800 340/04 RMK AO2
94908KDBQ DBQ20100930204509209/30/10 20:45:31  5-MIN KDBQ 010245Z 34004KT 10SM CLR 12/04 A3010 920 59 800 340/04 RMK AO2
94908KDBQ DBQ20100930205011509/30/10 20:50:31  5-MIN KDBQ 010250Z 34004KT 10SM CLR 13/04 A3010 910 56 900 340/04 RMK AO2 SLP192 T01280044 51012
94908KDBQ DBQ20100930205509309/30/10 20:55:31  5-MIN KDBQ 010255Z 36004KT 10SM CLR 13/04 A3010 910 54 1000 360/04 RMK AO2
94908KDBQ DBQ20100930210009309/30/10 21:00:31  5-MIN KDBQ 010300Z 36004KT 10SM CLR 13/04 A3010 910 54 1000 360/04 RMK AO2
94908KDBQ DBQ20100930210509209/30/10 21:05:31  5-MIN KDBQ 010305Z 36004KT 10SM CLR 13/04 A3010 910 56 900 360/04 RMK AO2
94908KDBQ DBQ20100930211009209/30/10 21:10:31  5-MIN KDBQ 010310Z 36003KT 10SM CLR 13/04 A3010 910 56 900 360/03 RMK AO2
94908KDBQ DBQ20100930211509309/30/10 21:15:31  5-MIN KDBQ 010315Z 36003KT 10SM CLR 14/04 A3010 910 52 1000 360/03 RMK AO2
94908KDBQ DBQ20100930212009309/30/10 21:20:31  5-MIN KDBQ 010320Z 36003KT 10SM CLR 14/04 A3010 910 52 1000 360/03 RMK AO2
94908KDBQ DBQ20100930212509309/30/10 21:25:31  5-MIN KDBQ 010325Z 36003KT 10SM CLR 14/04 A3010 910 51 1100 360/03 RMK AO2
94908KDBQ DBQ20100930213009309/30/10 21:30:31  5-MIN KDBQ 010330Z 35004KT 10SM CLR 14/04 A3010 910 51 1100 350/04 RMK AO2
94908KDBQ DBQ20100930213509309/30/10 21:35:31  5-MIN KDBQ 010335Z 35004KT 10SM CLR 14/04 A3010 910 52 1000 350/04 RMK AO2
94908KDBQ DBQ20100930214009309/30/10 21:40:31  5-MIN KDBQ 010340Z 34004KT 10SM CLR 14/04 A3010 910 52 1000 340/04 RMK AO2
94908KDBQ DBQ20100930214509309/30/10 21:45:31  5-MIN KDBQ 010345Z 34004KT 10SM CLR 13/04 A3011 910 54 1000 340/04 RMK AO2
94908KDBQ DBQ20100930215010909/30/10 21:50:31  5-MIN KDBQ 010350Z 34004KT 10SM CLR 13/04 A3011 910 56 900 340/04 RMK AO2 SLP194 T01280044
94908KDBQ DBQ20100930215509209/30/10 21:55:31  5-MIN KDBQ 010355Z 34004KT 10SM CLR 13/04 A3011 900 56 900 340/04 RMK AO2
94908KDBQ DBQ20100930220009209/30/10 22:00:31  5-MIN KDBQ 010400Z 34003KT 10SM CLR 12/04 A3011 900 61 800 340/03 RMK AO2
94908KDBQ DBQ20100930220509209/30/10 22:05:31  5-MIN KDBQ 010405Z 00000KT 10SM CLR 10/04 A3011 900 68 600 000/00 RMK AO2
94908KDBQ DBQ20100930221009209/30/10 22:10:31  5-MIN KDBQ 010410Z 00000KT 10SM CLR 09/04 A3011 900 71 500 000/00 RMK AO2
94908KDBQ DBQ20100930221509209/30/10 22:15:31  5-MIN KDBQ 010415Z 00000KT 10SM CLR 10/05 A3011 900 71 600 000/00 RMK AO2
94908KDBQ DBQ20100930222009209/30/10 22:20:31  5-MIN KDBQ 010420Z 00000KT 10SM CLR 10/05 A3011 900 71 600 000/00 RMK AO2
94908KDBQ DBQ20100930222509209/30/10 22:25:31  5-MIN KDBQ 010425Z 00000KT 10SM CLR 10/05 A3011 900 71 600 000/00 RMK AO2
94908KDBQ DBQ20100930223009209/30/10 22:30:31  5-MIN KDBQ 010430Z 00000KT 10SM CLR 10/05 A3011 900 71 600 000/00 RMK AO2
94908KDBQ DBQ20100930223509209/30/10 22:35:31  5-MIN KDBQ 010435Z 00000KT 10SM CLR 09/05 A3011 900 74 500 000/00 RMK AO2
94908KDBQ DBQ20100930224009209/30/10 22:40:31  5-MIN KDBQ 010440Z 00000KT 10SM CLR 10/05 A3011 900 71 600 000/00 RMK AO2
94908KDBQ DBQ20100930224509209/30/10 22:45:31  5-MIN KDBQ 010445Z 00000KT 10SM CLR 09/05 A3011 900 74 500 000/00 RMK AO2
94908KDBQ DBQ20100930225010909/30/10 22:50:31  5-MIN KDBQ 010450Z 00000KT 10SM CLR 09/05 A3011 900 76 400 000/00 RMK AO2 SLP198 T00890050
94908KDBQ DBQ20100930225509209/30/10 22:55:31  5-MIN KDBQ 010455Z 00000KT 10SM CLR 09/05 A3012 900 76 400 000/00 RMK AO2
94908KDBQ DBQ20100930230009209/30/10 23:00:31  5-MIN KDBQ 010500Z 00000KT 10SM CLR 08/04 A3012 900 76 400 000/00 RMK AO2
94908KDBQ DBQ20100930230509209/30/10 23:05:31  5-MIN KDBQ 010505Z 00000KT 10SM CLR 08/04 A3011 900 76 400 000/00 RMK AO2
94908KDBQ DBQ20100930231009209/30/10 23:10:31  5-MIN KDBQ 010510Z 00000KT 10SM CLR 09/04 A3011 900 73 400 000/00 RMK AO2
94908KDBQ DBQ20100930231509209/30/10 23:15:31  5-MIN KDBQ 010515Z 00000KT 10SM CLR 09/05 A3011 900 76 400 000/00 RMK AO2
94908KDBQ DBQ20100930232009209/30/10 23:20:31  5-MIN KDBQ 010520Z 00000KT 10SM CLR 08/06 A3012 900 82 400 000/00 RMK AO2
94908KDBQ DBQ20100930232509209/30/10 23:25:31  5-MIN KDBQ 010525Z 00000KT 10SM CLR 08/05 A3012 900 79 400 000/00 RMK AO2
94908KDBQ DBQ20100930233009209/30/10 23:30:31  5-MIN KDBQ 010530Z 00000KT 10SM CLR 07/05 A3012 900 86 200 000/00 RMK AO2
94908KDBQ DBQ20100930233509209/30/10 23:35:31  5-MIN KDBQ 010535Z 00000KT 10SM CLR 07/05 A3011 900 86 200 000/00 RMK AO2
94908KDBQ DBQ20100930234009209/30/10 23:40:31  5-MIN KDBQ 010540Z 00000KT 10SM CLR 07/05 A3011 900 86 200 000/00 RMK AO2
94908KDBQ DBQ20100930234509209/30/10 23:45:31  5-MIN KDBQ 010545Z 00000KT 10SM CLR 07/04 A3011 900 82 200 000/00 RMK AO2
94908KDBQ DBQ20100930235013709/30/10 23:50:31  5-MIN KDBQ 010550Z 00000KT 10SM CLR 07/04 A3011 900 86 200 000/00 RMK AO2 SLP198 T00670044 10144 20067 402170067 53009
94908KDBQ DBQ20100930235509209/30/10 23:55:31  5-MIN KDBQ 010555Z 22003KT 10SM CLR 07/04 A3011 900 82 200 210/03 RMK AO2
