94908KDBQ DBQ20060201000011202/01/06 00:00:49  5-MIN KDBQ 010600Z AUTO 17010KT 9SM BKN070 OVC090 03/00 A2969 1290 82 200 170/10 RMK AO2 TSNO
94908KDBQ DBQ20060201000511202/01/06 00:05:31  5-MIN KDBQ 010605Z AUTO 17010KT 9SM BKN075 OVC090 03/00 A2969 1300 82 200 170/10 RMK AO2 TSNO
94908KDBQ DBQ20060201001010502/01/06 00:10:31  5-MIN KDBQ 010610Z AUTO 17010KT 9SM OVC085 03/00 A2968 1300 82 200 170/10 RMK AO2 TSNO
94908KDBQ DBQ20060201001510502/01/06 00:15:31  5-MIN KDBQ 010615Z AUTO 17011KT 9SM OVC090 03/00 A2968 1310 79 200 170/11 RMK AO2 TSNO
94908KDBQ DBQ20060201002011202/01/06 00:20:31  5-MIN KDBQ 010620Z AUTO 17011KT 9SM OVC095 03/00 A2967 1310 79 300 170/11 RMK AO2 PRESFR TSNO
94908KDBQ DBQ20060201002511902/01/06 00:25:31  5-MIN KDBQ 010625Z AUTO 17013KT 9SM BKN100 OVC110 03/00 A2966 1320 79 300 170/13 RMK AO2 PRESFR TSNO
94908KDBQ DBQ20060201003011902/01/06 00:30:31  5-MIN KDBQ 010630Z AUTO 17013KT 9SM BKN100 OVC120 03/00 A2966 1320 79 300 170/13 RMK AO2 PRESFR TSNO
94908KDBQ DBQ20060201003510502/01/06 00:35:31  5-MIN KDBQ 010635Z AUTO 17012KT 9SM OVC110 03/00 A2965 1330 79 300 170/12 RMK AO2 TSNO
94908KDBQ DBQ20060201004010502/01/06 00:40:31  5-MIN KDBQ 010640Z AUTO 17012KT 9SM OVC110 03/00 A2965 1330 79 300 170/12 RMK AO2 TSNO
94908KDBQ DBQ20060201004510502/01/06 00:45:31  5-MIN KDBQ 010645Z AUTO 17013KT 9SM OVC110 03/00 A2965 1330 79 300 170/13 RMK AO2 TSNO
94908KDBQ DBQ20060201005012202/01/06 00:50:31  5-MIN KDBQ 010650Z AUTO 17012KT 9SM OVC110 03/00 A2964 1340 79 300 170/12 RMK AO2 SLP047 T00330000 TSNO
94908KDBQ DBQ20060201005512202/01/06 00:55:31  5-MIN KDBQ 010655Z AUTO 17012KT 9SM OVC110 03/00 A2964 1340 79 300 170/12 RMK AO2 SLP046 T00330000 TSNO
94908KDBQ DBQ20060201010010602/01/06 01:00:31  5-MIN KDBQ 010700Z AUTO 17012KT 10SM OVC110 03/00 A2964 1340 79 300 170/12 RMK AO2 TSNO
94908KDBQ DBQ20060201010510602/01/06 01:05:31  5-MIN KDBQ 010705Z AUTO 17012KT 10SM OVC110 03/00 A2963 1350 79 300 170/12 RMK AO2 TSNO
94908KDBQ DBQ20060201011010602/01/06 01:10:31  5-MIN KDBQ 010710Z AUTO 17014KT 10SM OVC100 03/00 A2963 1350 79 300 170/14 RMK AO2 TSNO
94908KDBQ DBQ20060201011511302/01/06 01:15:31  5-MIN KDBQ 010715Z AUTO 18012KT 10SM BKN095 OVC110 04/00 A2963 1350 76 400 180/12 RMK AO2 TSNO
94908KDBQ DBQ20060201012011302/01/06 01:20:31  5-MIN KDBQ 010720Z AUTO 18012KT 10SM BKN080 OVC100 04/00 A2963 1350 76 400 180/12 RMK AO2 TSNO
94908KDBQ DBQ20060201012511302/01/06 01:25:31  5-MIN KDBQ 010725Z AUTO 18014KT 10SM BKN080 OVC100 04/00 A2963 1350 76 400 180/14 RMK AO2 TSNO
94908KDBQ DBQ20060201013011402/01/06 01:30:31  5-MIN KDBQ 010730Z AUTO 18016KT 10SM BKN070 OVC100 04/M01 A2962 1350 70 400 180/16 RMK AO2 TSNO
94908KDBQ DBQ20060201013511402/01/06 01:35:31  5-MIN KDBQ 010735Z AUTO 17020KT 10SM OVC070 04/M01 A2960 1370 70 500 170/20 RMK AO2 PRESFR TSNO
94908KDBQ DBQ20060201014010702/01/06 01:40:31  5-MIN KDBQ 010740Z AUTO 19016KT 10SM OVC070 04/M01 A2962 1360 70 400 190/16 RMK AO2 TSNO
94908KDBQ DBQ20060201014512902/01/06 01:45:31  5-MIN KDBQ 010745Z AUTO 17017G22KT 10SM -RA OVC065 05/M01 A2961 1370 67 500 170/17G22 RMK AO2 RAB45 P0000 TSNO
94908KDBQ DBQ20060201015015202/01/06 01:50:31  5-MIN KDBQ 010750Z AUTO 17014G22KT 10SM -RA BKN065 OVC085 04/00 A2960 1370 73 500 170/14G22 RMK AO2 RAB45 SLP032 P0000 T00440000 TSNO
94908KDBQ DBQ20060201015515102/01/06 01:55:31  5-MIN KDBQ 010755Z AUTO 18015G19KT 10SM BKN065 OVC085 04/00 A2960 1370 73 500 180/15G19 RMK AO2 RAB45E54 SLP032 P0000 T00440000 TSNO
94908KDBQ DBQ20060201020011302/01/06 02:00:31  5-MIN KDBQ 010800Z AUTO 18014KT 10SM BKN070 OVC085 05/00 A2960 1380 70 500 180/14 RMK AO2 TSNO
94908KDBQ DBQ20060201020512002/01/06 02:05:31  5-MIN KDBQ 010805Z AUTO 18015KT 10SM BKN070 BKN085 OVC110 04/00 A2960 1380 73 500 180/15 RMK AO2 TSNO
94908KDBQ DBQ20060201021011402/01/06 02:10:31  5-MIN KDBQ 010810Z AUTO 18013KT 10SM BKN080 OVC110 04/M01 A2959 1380 70 500 180/13 RMK AO2 TSNO
94908KDBQ DBQ20060201021511402/01/06 02:15:31  5-MIN KDBQ 010815Z AUTO 19013KT 10SM BKN085 OVC110 04/M01 A2960 1380 70 500 190/13 RMK AO2 TSNO
94908KDBQ DBQ20060201022011402/01/06 02:20:31  5-MIN KDBQ 010820Z AUTO 20015KT 10SM BKN085 OVC110 05/M01 A2960 1380 67 500 190/15 RMK AO2 TSNO
94908KDBQ DBQ20060201022511402/01/06 02:25:31  5-MIN KDBQ 010825Z AUTO 19016KT 10SM BKN090 OVC110 05/M01 A2959 1380 67 500 190/16 RMK AO2 TSNO
94908KDBQ DBQ20060201023011402/01/06 02:30:31  5-MIN KDBQ 010830Z AUTO 19015KT 10SM BKN100 OVC120 05/M01 A2959 1380 67 500 190/15 RMK AO2 TSNO
94908KDBQ DBQ20060201023510702/01/06 02:35:31  5-MIN KDBQ 010835Z AUTO 20012KT 10SM OVC100 05/M01 A2959 1380 67 500 200/12 RMK AO2 TSNO
94908KDBQ DBQ20060201024010702/01/06 02:40:31  5-MIN KDBQ 010840Z AUTO 21011KT 10SM OVC100 05/M01 A2959 1380 67 500 210/11 RMK AO2 TSNO
94908KDBQ DBQ20060201024510702/01/06 02:45:31  5-MIN KDBQ 010845Z AUTO 20012KT 10SM OVC100 05/M01 A2959 1390 67 600 200/12 RMK AO2 TSNO
94908KDBQ DBQ20060201025013602/01/06 02:50:31  5-MIN KDBQ 010850Z AUTO 20013KT 10SM OVC100 05/M01 A2959 1390 67 600 200/13 RMK AO2 SLP026 60000 T00501006 58017 TSNO
94908KDBQ DBQ20060201025513602/01/06 02:55:31  5-MIN KDBQ 010855Z AUTO 20013KT 10SM OVC100 05/M01 A2959 1390 67 600 200/13 RMK AO2 SLP026 60000 T00501006 56036 TSNO
94908KDBQ DBQ20060201030010702/01/06 03:00:31  5-MIN KDBQ 010900Z AUTO 20014KT 10SM OVC100 06/M01 A2958 1390 65 600 200/14 RMK AO2 TSNO
94908KDBQ DBQ20060201030510702/01/06 03:05:31  5-MIN KDBQ 010905Z AUTO 20014KT 10SM OVC095 06/M01 A2958 1400 65 600 200/14 RMK AO2 TSNO
94908KDBQ DBQ20060201031010702/01/06 03:10:31  5-MIN KDBQ 010910Z AUTO 20014KT 10SM OVC095 06/M01 A2958 1390 62 600 200/14 RMK AO2 TSNO
94908KDBQ DBQ20060201031510702/01/06 03:15:31  5-MIN KDBQ 010915Z AUTO 20014KT 10SM OVC095 06/M01 A2958 1400 62 600 200/14 RMK AO2 TSNO
94908KDBQ DBQ20060201032010702/01/06 03:20:31  5-MIN KDBQ 010920Z AUTO 20014KT 10SM OVC095 06/M01 A2957 1400 62 600 200/14 RMK AO2 TSNO
94908KDBQ DBQ20060201032510702/01/06 03:25:31  5-MIN KDBQ 010925Z AUTO 20015KT 10SM OVC095 06/M01 A2958 1400 62 600 200/15 RMK AO2 TSNO
94908KDBQ DBQ20060201033010702/01/06 03:30:31  5-MIN KDBQ 010930Z AUTO 20014KT 10SM OVC095 06/M01 A2957 1400 62 600 190/14 RMK AO2 TSNO
94908KDBQ DBQ20060201033510702/01/06 03:35:31  5-MIN KDBQ 010935Z AUTO 20014KT 10SM OVC095 06/M01 A2957 1400 62 600 200/14 RMK AO2 TSNO
94908KDBQ DBQ20060201034010702/01/06 03:40:31  5-MIN KDBQ 010940Z AUTO 20014KT 10SM OVC100 06/M01 A2957 1410 62 600 200/14 RMK AO2 TSNO
94908KDBQ DBQ20060201034510702/01/06 03:45:31  5-MIN KDBQ 010945Z AUTO 20015KT 10SM OVC100 06/M01 A2957 1410 62 600 200/15 RMK AO2 TSNO
94908KDBQ DBQ20060201035012402/01/06 03:50:31  5-MIN KDBQ 010950Z AUTO 21016KT 10SM OVC100 06/M02 A2956 1410 57 700 210/16 RMK AO2 SLP018 T00611017 TSNO
94908KDBQ DBQ20060201035512402/01/06 03:55:31  5-MIN KDBQ 010955Z AUTO 21015KT 10SM OVC100 06/M02 A2956 1410 57 700 210/15 RMK AO2 SLP019 T00611017 TSNO
94908KDBQ DBQ20060201040010702/01/06 04:00:31  5-MIN KDBQ 011000Z AUTO 21015KT 10SM OVC100 06/M02 A2956 1410 57 700 210/15 RMK AO2 TSNO
94908KDBQ DBQ20060201040510702/01/06 04:05:31  5-MIN KDBQ 011005Z AUTO 22015KT 10SM OVC100 06/M02 A2956 1410 57 700 220/15 RMK AO2 TSNO
94908KDBQ DBQ20060201041010702/01/06 04:10:31  5-MIN KDBQ 011010Z AUTO 22015KT 10SM OVC100 06/M02 A2956 1410 57 700 220/15 RMK AO2 TSNO
94908KDBQ DBQ20060201041510702/01/06 04:15:31  5-MIN KDBQ 011015Z AUTO 22017KT 10SM OVC100 06/M02 A2956 1410 57 700 220/17 RMK AO2 TSNO
94908KDBQ DBQ20060201042010702/01/06 04:20:31  5-MIN KDBQ 011020Z AUTO 22014KT 10SM OVC100 06/M02 A2955 1420 55 700 220/14 RMK AO2 TSNO
94908KDBQ DBQ20060201042510702/01/06 04:25:31  5-MIN KDBQ 011025Z AUTO 22015KT 10SM OVC100 06/M02 A2955 1420 57 700 220/15 RMK AO2 TSNO
94908KDBQ DBQ20060201043012002/01/06 04:30:31  5-MIN KDBQ 011030Z AUTO 23016G19KT 10SM FEW090 OVC100 06/M02 A2956 1420 57 700 230/16G19 RMK AO2 TSNO
94908KDBQ DBQ20060201043511402/01/06 04:35:31  5-MIN KDBQ 011035Z AUTO 23015KT 10SM FEW090 OVC100 06/M02 A2956 1420 57 700 230/15 RMK AO2 TSNO
94908KDBQ DBQ20060201044010702/01/06 04:40:31  5-MIN KDBQ 011040Z AUTO 23015KT 10SM OVC100 06/M02 A2955 1420 57 700 230/15 RMK AO2 TSNO
94908KDBQ DBQ20060201044510702/01/06 04:45:31  5-MIN KDBQ 011045Z AUTO 23014KT 10SM OVC100 06/M02 A2956 1420 59 700 230/14 RMK AO2 TSNO
94908KDBQ DBQ20060201045012402/01/06 04:50:31  5-MIN KDBQ 011050Z AUTO 23014KT 10SM OVC100 06/M02 A2956 1420 59 700 230/14 RMK AO2 SLP016 T00561017 TSNO
94908KDBQ DBQ20060201045512402/01/06 04:55:31  5-MIN KDBQ 011055Z AUTO 23012KT 10SM OVC100 05/M02 A2956 1420 62 600 230/12 RMK AO2 SLP016 T00501017 TSNO
94908KDBQ DBQ20060201050010702/01/06 05:00:31  5-MIN KDBQ 011100Z AUTO 24013KT 10SM OVC100 05/M01 A2956 1420 64 600 240/13 RMK AO2 TSNO
94908KDBQ DBQ20060201050510702/01/06 05:05:31  5-MIN KDBQ 011105Z AUTO 24013KT 10SM OVC100 04/M01 A2956 1410 67 500 240/13 RMK AO2 TSNO
94908KDBQ DBQ20060201051010702/01/06 05:10:31  5-MIN KDBQ 011110Z AUTO 24012KT 10SM OVC100 04/M01 A2956 1420 67 500 240/12 RMK AO2 TSNO
94908KDBQ DBQ20060201051510702/01/06 05:15:31  5-MIN KDBQ 011115Z AUTO 24012KT 10SM BKN095 04/M01 A2956 1410 70 500 240/12 RMK AO2 TSNO
94908KDBQ DBQ20060201052010702/01/06 05:20:31  5-MIN KDBQ 011120Z AUTO 25012KT 10SM BKN100 04/M01 A2956 1410 70 400 240/12 RMK AO2 TSNO
94908KDBQ DBQ20060201052510702/01/06 05:25:31  5-MIN KDBQ 011125Z AUTO 25010KT 10SM SCT095 03/M01 A2956 1410 72 400 250/10 RMK AO2 TSNO
94908KDBQ DBQ20060201053010702/01/06 05:30:31  5-MIN KDBQ 011130Z AUTO 26011KT 10SM FEW095 03/M01 A2957 1410 72 400 260/11 RMK AO2 TSNO
94908KDBQ DBQ20060201053510702/01/06 05:35:31  5-MIN KDBQ 011135Z AUTO 27012KT 10SM FEW095 03/M01 A2957 1400 72 400 260/12 RMK AO2 TSNO
94908KDBQ DBQ20060201054010402/01/06 05:40:31  5-MIN KDBQ 011140Z AUTO 28013KT 10SM CLR 04/M01 A2958 1400 70 400 270/13 RMK AO2 TSNO
94908KDBQ DBQ20060201054510702/01/06 05:45:31  5-MIN KDBQ 011145Z AUTO 28014KT 10SM FEW017 04/M01 A2958 1390 73 400 280/14 RMK AO2 TSNO
94908KDBQ DBQ20060201055015302/01/06 05:50:31  5-MIN KDBQ 011150Z AUTO 28016G20KT 10SM FEW017 04/00 A2958 1390 76 400 280/16G20 RMK AO2 SLP026 60000 T00390000 10061 20028 56036 TSNO
94908KDBQ DBQ20060201055515302/01/06 05:55:31  5-MIN KDBQ 011155Z AUTO 29012G20KT 10SM FEW017 03/00 A2958 1390 79 400 280/12G20 RMK AO2 SLP026 60000 T00330000 10061 20028 55001 TSNO
94908KDBQ DBQ20060201060010602/01/06 06:00:31  5-MIN KDBQ 011200Z AUTO 29011KT 10SM SCT015 03/00 A2958 1390 79 400 290/11 RMK AO2 TSNO
94908KDBQ DBQ20060201060509602/01/06 06:05:31  5-MIN KDBQ 011205Z 29011KT 10SM BKN015 03/00 A2959 1390 79 400 290/11 RMK AO2
94908KDBQ DBQ20060201061009602/01/06 06:10:31  5-MIN KDBQ 011210Z 29013KT 10SM BKN015 03/01 A2959 1390 82 300 290/13 RMK AO2
94908KDBQ DBQ20060201061509602/01/06 06:15:31  5-MIN KDBQ 011215Z 29013KT 10SM BKN015 03/00 A2959 1380 79 300 290/13 RMK AO2
94908KDBQ DBQ20060201062009602/01/06 06:20:31  5-MIN KDBQ 011220Z 29013KT 10SM BKN015 03/01 A2959 1380 82 300 290/13 RMK AO2
94908KDBQ DBQ20060201062509602/01/06 06:25:31  5-MIN KDBQ 011225Z 28013KT 10SM OVC013 03/01 A2960 1380 82 300 280/13 RMK AO2
94908KDBQ DBQ20060201063009502/01/06 06:30:31  5-MIN KDBQ 011230Z 28017KT 9SM OVC013 03/00 A2960 1380 82 300 280/17 RMK AO2
94908KDBQ DBQ20060201063509502/01/06 06:35:31  5-MIN KDBQ 011235Z 30017KT 8SM OVC013 03/00 A2960 1370 82 300 300/17 RMK AO2
94908KDBQ DBQ20060201064010102/01/06 06:40:31  5-MIN KDBQ 011240Z 29020G24KT 8SM OVC011 02/00 A2960 1380 85 200 290/20G24 RMK AO2
94908KDBQ DBQ20060201064511402/01/06 06:45:31  5-MIN KDBQ 011245Z 30019G24KT 8SM OVC011 02/M01 A2961 1370 82 200 300/19G24 RMK AO2 CIG 009V014
94908KDBQ DBQ20060201065013102/01/06 06:50:31  5-MIN KDBQ 011250Z 29017G24KT 8SM OVC011 02/M01 A2961 1360 85 100 290/17G24 RMK AO2 CIG 008V013 SLP038 T00171006
94908KDBQ DBQ20060201065513102/01/06 06:55:31  5-MIN KDBQ 011255Z 29017G25KT 8SM OVC011 02/M01 A2961 1370 85 100 290/17G25 RMK AO2 CIG 008V012 SLP036 T00171006
94908KDBQ DBQ20060201070011302/01/06 07:00:31  5-MIN KDBQ 011300Z 29016G25KT 8SM OVC009 02/00 A2961 1360 89 100 290/16G25 RMK AO2 CIG 008V012
94908KDBQ DBQ20060201070510102/01/06 07:05:31  5-MIN KDBQ 011305Z 30014G21KT 8SM OVC009 02/00 A2961 1370 89 100 300/14G21 RMK AO2
94908KDBQ DBQ20060201071010102/01/06 07:10:31  5-MIN KDBQ 011310Z 30014G22KT 8SM OVC009 02/00 A2961 1360 89 100 300/14G22 RMK AO2
94908KDBQ DBQ20060201071510102/01/06 07:15:31  5-MIN KDBQ 011315Z 30015G22KT 9SM OVC009 02/00 A2961 1360 89 100 300/15G22 RMK AO2
94908KDBQ DBQ20060201072009502/01/06 07:20:31  5-MIN KDBQ 011320Z 29015KT 9SM OVC009 02/00 A2961 1370 85 200 290/15 RMK AO2
94908KDBQ DBQ20060201072510102/01/06 07:25:31  5-MIN KDBQ 011325Z 30019G23KT 9SM OVC009 02/00 A2962 1360 85 200 300/19G23 RMK AO2
94908KDBQ DBQ20060201073010202/01/06 07:30:31  5-MIN KDBQ 011330Z 30017G23KT 9SM OVC009 02/M01 A2961 1360 82 200 300/17G23 RMK AO2
94908KDBQ DBQ20060201073509502/01/06 07:35:31  5-MIN KDBQ 011335Z 29019KT 9SM OVC009 02/00 A2961 1360 85 200 290/19 RMK AO2
94908KDBQ DBQ20060201074010102/01/06 07:40:31  5-MIN KDBQ 011340Z 30019G23KT 8SM OVC009 02/00 A2962 1360 85 200 300/19G23 RMK AO2
94908KDBQ DBQ20060201074510102/01/06 07:45:31  5-MIN KDBQ 011345Z 30018G23KT 8SM OVC009 02/00 A2962 1360 85 200 300/18G23 RMK AO2
94908KDBQ DBQ20060201075011202/01/06 07:50:31  5-MIN KDBQ 011350Z 30016KT 7SM OVC009 02/00 A2962 1360 85 200 300/16 RMK AO2 SLP038 T00220000
94908KDBQ DBQ20060201075511202/01/06 07:55:31  5-MIN KDBQ 011355Z 30016KT 7SM OVC009 02/00 A2962 1360 85 200 300/16 RMK AO2 SLP038 T00220000
94908KDBQ DBQ20060201080009502/01/06 08:00:31  5-MIN KDBQ 011400Z 29016KT 7SM OVC009 02/00 A2962 1360 85 200 290/16 RMK AO2
94908KDBQ DBQ20060201080509502/01/06 08:05:31  5-MIN KDBQ 011405Z 30014KT 7SM OVC009 02/00 A2962 1360 85 200 300/14 RMK AO2
94908KDBQ DBQ20060201081009502/01/06 08:10:31  5-MIN KDBQ 011410Z 30014KT 7SM OVC009 02/00 A2962 1360 85 200 300/14 RMK AO2
94908KDBQ DBQ20060201081509602/01/06 08:15:31  5-MIN KDBQ 011415Z 30013KT 8SM OVC009 02/M01 A2962 1360 82 200 300/13 RMK AO2
94908KDBQ DBQ20060201082009602/01/06 08:20:31  5-MIN KDBQ 011420Z 29011KT 8SM OVC009 02/M01 A2962 1360 82 200 290/11 RMK AO2
94908KDBQ DBQ20060201082510202/01/06 08:25:31  5-MIN KDBQ 011425Z 31012G19KT 8SM OVC009 02/M01 A2961 1360 82 200 300/12G19 RMK AO2
94908KDBQ DBQ20060201083010102/01/06 08:30:31  5-MIN KDBQ 011430Z 30010G19KT 8SM OVC009 02/00 A2962 1360 85 200 300/10G19 RMK AO2
94908KDBQ DBQ20060201083509502/01/06 08:35:31  5-MIN KDBQ 011435Z 31011KT 8SM OVC009 02/00 A2961 1360 85 200 310/11 RMK AO2
94908KDBQ DBQ20060201084009602/01/06 08:40:31  5-MIN KDBQ 011440Z 31012KT 8SM OVC009 02/M01 A2962 1360 82 200 310/12 RMK AO2
94908KDBQ DBQ20060201084509602/01/06 08:45:31  5-MIN KDBQ 011445Z 32011KT 8SM OVC011 02/M01 A2962 1360 82 200 320/11 RMK AO2
94908KDBQ DBQ20060201085009602/01/06 08:50:31  5-MIN KDBQ 011450Z 31010KT 8SM OVC011 02/M01 A2961 1360 82 200 310/10 RMK AO2
94908KDBQ DBQ20060201085511902/01/06 08:55:31  5-MIN KDBQ 011455Z 30011KT 8SM OVC011 02/M01 A2962 1360 82 200 300/11 RMK AO2 SLP038 T00221006 51002
94908KDBQ DBQ20060201090009602/01/06 09:00:31  5-MIN KDBQ 011500Z 31010KT 8SM OVC011 02/M01 A2962 1360 82 200 310/10 RMK AO2
94908KDBQ DBQ20060201090509602/01/06 09:05:31  5-MIN KDBQ 011505Z 31012KT 8SM OVC013 02/M01 A2963 1350 82 200 310/12 RMK AO2
94908KDBQ DBQ20060201091009602/01/06 09:10:31  5-MIN KDBQ 011510Z 30012KT 8SM OVC013 02/M01 A2963 1350 82 200 300/12 RMK AO2
94908KDBQ DBQ20060201091509602/01/06 09:15:31  5-MIN KDBQ 011515Z 30011KT 8SM OVC013 02/M01 A2963 1350 82 200 300/11 RMK AO2
94908KDBQ DBQ20060201092009602/01/06 09:20:31  5-MIN KDBQ 011520Z 30011KT 8SM OVC013 02/M01 A2964 1340 82 200 300/11 RMK AO2
94908KDBQ DBQ20060201092509602/01/06 09:25:31  5-MIN KDBQ 011525Z 28011KT 8SM OVC013 02/M01 A2964 1340 82 100 280/11 RMK AO2
94908KDBQ DBQ20060201093009502/01/06 09:30:31  5-MIN KDBQ 011530Z 29013KT 7SM OVC013 02/00 A2964 1340 85 100 290/13 RMK AO2
94908KDBQ DBQ20060201093509602/01/06 09:35:31  5-MIN KDBQ 011535Z 28014KT 7SM OVC013 02/M01 A2965 1330 82 100 280/14 RMK AO2
94908KDBQ DBQ20060201094009602/01/06 09:40:31  5-MIN KDBQ 011540Z 29015KT 8SM OVC013 02/M01 A2965 1330 82 100 290/15 RMK AO2
94908KDBQ DBQ20060201094509602/01/06 09:45:31  5-MIN KDBQ 011545Z 30016KT 9SM OVC013 02/M01 A2965 1330 78 100 300/16 RMK AO2
94908KDBQ DBQ20060201095011402/01/06 09:50:31  5-MIN KDBQ 011550Z 29016KT 10SM OVC013 02/M01 A2965 1330 78 100 290/16 RMK AO2 SLP051 T00221011
94908KDBQ DBQ20060201095512002/01/06 09:55:31  5-MIN KDBQ 011555Z 30014G22KT 10SM OVC013 02/M01 A2966 1320 78 100 300/14G22 RMK AO2 SLP052 T00221011
94908KDBQ DBQ20060201100009702/01/06 10:00:31  5-MIN KDBQ 011600Z 30017KT 10SM OVC013 02/M01 A2966 1320 78 100 300/17 RMK AO2
94908KDBQ DBQ20060201100509702/01/06 10:05:31  5-MIN KDBQ 011605Z 30011KT 10SM OVC013 02/M01 A2966 1320 78 100 300/11 RMK AO2
94908KDBQ DBQ20060201101009702/01/06 10:10:31  5-MIN KDBQ 011610Z 30013KT 10SM OVC013 03/M01 A2967 1310 79 200 300/13 RMK AO2
94908KDBQ DBQ20060201101509702/01/06 10:15:31  5-MIN KDBQ 011615Z 31013KT 10SM OVC013 03/M01 A2966 1320 79 200 300/13 RMK AO2
94908KDBQ DBQ20060201102009702/01/06 10:20:31  5-MIN KDBQ 011620Z 31017KT 10SM OVC015 03/M01 A2966 1320 79 200 300/17 RMK AO2
94908KDBQ DBQ20060201102509702/01/06 10:25:31  5-MIN KDBQ 011625Z 31018KT 10SM OVC015 03/M01 A2966 1320 75 200 300/18 RMK AO2
94908KDBQ DBQ20060201103009702/01/06 10:30:31  5-MIN KDBQ 011630Z 29016KT 10SM OVC015 03/M01 A2966 1320 79 200 290/16 RMK AO2
94908KDBQ DBQ20060201103510302/01/06 10:35:31  5-MIN KDBQ 011635Z 30018G21KT 10SM OVC015 03/M01 A2966 1320 79 200 300/18G21 RMK AO2
94908KDBQ DBQ20060201104010302/01/06 10:40:31  5-MIN KDBQ 011640Z 29015G22KT 10SM OVC015 02/M01 A2967 1310 78 100 290/15G22 RMK AO2
94908KDBQ DBQ20060201104510302/01/06 10:45:31  5-MIN KDBQ 011645Z 29014G22KT 10SM OVC015 02/M01 A2966 1320 82 100 290/14G22 RMK AO2
94908KDBQ DBQ20060201105012002/01/06 10:50:31  5-MIN KDBQ 011650Z 30017G22KT 10SM OVC015 02/M01 A2967 1310 78 100 300/17G22 RMK AO2 SLP056 T00221011
94908KDBQ DBQ20060201105512002/01/06 10:55:31  5-MIN KDBQ 011655Z 29014G22KT 10SM OVC015 02/M01 A2967 1310 78 100 290/14G22 RMK AO2 SLP057 T00221011
94908KDBQ DBQ20060201110010302/01/06 11:00:31  5-MIN KDBQ 011700Z 30018G22KT 10SM OVC015 02/M01 A2967 1310 78 100 300/18G22 RMK AO2
94908KDBQ DBQ20060201110510302/01/06 11:05:31  5-MIN KDBQ 011705Z 30014G22KT 10SM OVC015 02/M01 A2968 1300 78 100 300/14G22 RMK AO2
94908KDBQ DBQ20060201111010302/01/06 11:10:31  5-MIN KDBQ 011710Z 29017G23KT 10SM OVC015 02/M01 A2967 1310 78 100 290/17G23 RMK AO2
94908KDBQ DBQ20060201111510302/01/06 11:15:31  5-MIN KDBQ 011715Z 30017G23KT 10SM OVC015 02/M01 A2968 1300 78 100 300/17G23 RMK AO2
94908KDBQ DBQ20060201112009502/01/06 11:20:31  5-MIN KDBQ 011720Z 28016KT 10SM OVC015 02/M01 A2968 1300 82 0 280/16 RMK AO2
94908KDBQ DBQ20060201112509502/01/06 11:25:31  5-MIN KDBQ 011725Z 29014KT 10SM OVC015 02/M02 A2967 1310 78 0 290/14 RMK AO2
94908KDBQ DBQ20060201113009502/01/06 11:30:31  5-MIN KDBQ 011730Z 29015KT 10SM OVC013 02/M02 A2968 1300 78 0 290/15 RMK AO2
94908KDBQ DBQ20060201113509502/01/06 11:35:31  5-MIN KDBQ 011735Z 30013KT 10SM OVC013 02/M01 A2968 1300 82 0 300/13 RMK AO2
94908KDBQ DBQ20060201114009502/01/06 11:40:31  5-MIN KDBQ 011740Z 28013KT 10SM OVC013 02/M01 A2968 1300 82 0 280/13 RMK AO2
94908KDBQ DBQ20060201114509502/01/06 11:45:31  5-MIN KDBQ 011745Z 29011KT 10SM OVC013 02/M01 A2967 1310 82 0 290/11 RMK AO2
94908KDBQ DBQ20060201115013002/01/06 11:50:31  5-MIN KDBQ 011750Z 30014KT 10SM OVC013 02/M01 A2968 1310 82 0 300/14 RMK AO2 SLP058 T00171011 10033 20017 51002
94908KDBQ DBQ20060201115513002/01/06 11:55:31  5-MIN KDBQ 011755Z 30011KT 10SM OVC013 02/M01 A2967 1310 82 0 300/11 RMK AO2 SLP058 T00171011 10033 20017 51019
94908KDBQ DBQ20060201120009502/01/06 12:00:31  5-MIN KDBQ 011800Z 29013KT 10SM OVC011 02/M02 A2967 1310 78 0 290/13 RMK AO2
94908KDBQ DBQ20060201120509502/01/06 12:05:31  5-MIN KDBQ 011805Z 29015KT 10SM OVC011 01/M02 A2968 1310 78 0 290/15 RMK AO2
94908KDBQ DBQ20060201121009502/01/06 12:10:31  5-MIN KDBQ 011810Z 30016KT 10SM OVC013 02/M02 A2967 1310 75 0 300/16 RMK AO2
94908KDBQ DBQ20060201121509502/01/06 12:15:31  5-MIN KDBQ 011815Z 31016KT 10SM OVC013 02/M02 A2967 1310 75 0 310/16 RMK AO2
94908KDBQ DBQ20060201122009502/01/06 12:20:31  5-MIN KDBQ 011820Z 31014KT 10SM OVC013 02/M02 A2967 1310 75 0 310/14 RMK AO2
94908KDBQ DBQ20060201122509502/01/06 12:25:31  5-MIN KDBQ 011825Z 31013KT 10SM OVC013 01/M02 A2967 1310 78 0 310/13 RMK AO2
94908KDBQ DBQ20060201123009502/01/06 12:30:31  5-MIN KDBQ 011830Z 30012KT 10SM OVC013 02/M02 A2967 1310 75 0 300/12 RMK AO2
94908KDBQ DBQ20060201123509502/01/06 12:35:31  5-MIN KDBQ 011835Z 29012KT 10SM OVC013 02/M02 A2967 1310 78 0 290/12 RMK AO2
94908KDBQ DBQ20060201124009702/01/06 12:40:31  5-MIN KDBQ 011840Z 28011KT 10SM OVC013 02/M02 A2967 1310 78 100 280/11 RMK AO2
94908KDBQ DBQ20060201124509702/01/06 12:45:31  5-MIN KDBQ 011845Z 29012KT 10SM OVC013 02/M02 A2967 1310 78 100 290/12 RMK AO2
94908KDBQ DBQ20060201125011202/01/06 12:50:31  5-MIN KDBQ 011850Z 29009KT 10SM OVC013 02/M02 A2967 1310 78 0 290/09 RMK AO2 SLP056 T00171017
94908KDBQ DBQ20060201125511202/01/06 12:55:31  5-MIN KDBQ 011855Z 29015KT 10SM OVC013 02/M02 A2967 1310 78 0 290/15 RMK AO2 SLP056 T00171017
94908KDBQ DBQ20060201130009502/01/06 13:00:31  5-MIN KDBQ 011900Z 28013KT 10SM OVC013 02/M02 A2968 1310 75 0 280/13 RMK AO2
94908KDBQ DBQ20060201130509502/01/06 13:05:31  5-MIN KDBQ 011905Z 28014KT 10SM OVC013 02/M02 A2967 1310 78 0 280/14 RMK AO2
94908KDBQ DBQ20060201131009502/01/06 13:10:31  5-MIN KDBQ 011910Z 28013KT 10SM OVC013 02/M02 A2968 1300 75 0 280/13 RMK AO2
94908KDBQ DBQ20060201131509502/01/06 13:15:31  5-MIN KDBQ 011915Z 30012KT 10SM OVC013 02/M02 A2968 1300 75 0 300/12 RMK AO2
94908KDBQ DBQ20060201132009502/01/06 13:20:31  5-MIN KDBQ 011920Z 30013KT 10SM OVC013 02/M02 A2968 1300 75 0 300/13 RMK AO2
94908KDBQ DBQ20060201132509502/01/06 13:25:31  5-MIN KDBQ 011925Z 29013KT 10SM OVC015 02/M02 A2967 1310 75 0 290/13 RMK AO2
94908KDBQ DBQ20060201133009502/01/06 13:30:31  5-MIN KDBQ 011930Z 30013KT 10SM OVC015 02/M02 A2968 1300 75 0 300/13 RMK AO2
94908KDBQ DBQ20060201133509502/01/06 13:35:31  5-MIN KDBQ 011935Z 30015KT 10SM OVC015 02/M02 A2968 1300 75 0 300/15 RMK AO2
94908KDBQ DBQ20060201134009502/01/06 13:40:31  5-MIN KDBQ 011940Z 29011KT 10SM OVC015 02/M02 A2968 1300 75 0 290/11 RMK AO2
94908KDBQ DBQ20060201134509502/01/06 13:45:31  5-MIN KDBQ 011945Z 30011KT 10SM OVC015 02/M02 A2968 1300 75 0 300/11 RMK AO2
94908KDBQ DBQ20060201135011202/01/06 13:50:31  5-MIN KDBQ 011950Z 29012KT 10SM OVC015 02/M02 A2968 1300 75 0 290/12 RMK AO2 SLP059 T00171022
94908KDBQ DBQ20060201135511402/01/06 13:55:31  5-MIN KDBQ 011955Z 29012KT 10SM OVC015 02/M02 A2969 1300 75 100 290/12 RMK AO2 SLP060 T00221017
94908KDBQ DBQ20060201140009702/01/06 14:00:31  5-MIN KDBQ 012000Z 29016KT 10SM OVC015 02/M02 A2968 1300 75 100 290/16 RMK AO2
94908KDBQ DBQ20060201140509502/01/06 14:05:31  5-MIN KDBQ 012005Z 30012KT 10SM OVC015 02/M02 A2969 1300 78 0 300/12 RMK AO2
94908KDBQ DBQ20060201141009502/01/06 14:10:31  5-MIN KDBQ 012010Z 29013KT 10SM OVC015 02/M02 A2969 1300 78 0 290/13 RMK AO2
94908KDBQ DBQ20060201141509502/01/06 14:15:31  5-MIN KDBQ 012015Z 30013KT 10SM OVC015 02/M02 A2969 1290 75 0 300/13 RMK AO2
94908KDBQ DBQ20060201142009502/01/06 14:20:31  5-MIN KDBQ 012020Z 29010KT 10SM OVC015 02/M02 A2969 1290 78 0 290/10 RMK AO2
94908KDBQ DBQ20060201142509502/01/06 14:25:31  5-MIN KDBQ 012025Z 28012KT 10SM OVC015 02/M02 A2969 1290 78 0 280/12 RMK AO2
94908KDBQ DBQ20060201143009502/01/06 14:30:31  5-MIN KDBQ 012030Z 28014KT 10SM OVC015 02/M02 A2969 1290 75 0 280/14 RMK AO2
94908KDBQ DBQ20060201143509502/01/06 14:35:31  5-MIN KDBQ 012035Z 28013KT 10SM OVC015 02/M02 A2969 1300 75 0 280/13 RMK AO2
94908KDBQ DBQ20060201144009502/01/06 14:40:31  5-MIN KDBQ 012040Z 27016KT 10SM OVC015 02/M02 A2969 1290 75 0 270/16 RMK AO2
94908KDBQ DBQ20060201144509502/01/06 14:45:31  5-MIN KDBQ 012045Z 27015KT 10SM OVC015 02/M02 A2969 1290 75 0 270/15 RMK AO2
94908KDBQ DBQ20060201145011802/01/06 14:50:31  5-MIN KDBQ 012050Z 28012KT 10SM OVC015 02/M02 A2969 1290 75 0 280/12 RMK AO2 SLP061 T00171022 51019
94908KDBQ DBQ20060201145511802/01/06 14:55:31  5-MIN KDBQ 012055Z 28014KT 10SM OVC015 02/M03 A2969 1290 72 0 270/14 RMK AO2 SLP061 T00171028 53005
94908KDBQ DBQ20060201150009502/01/06 15:00:31  5-MIN KDBQ 012100Z 28013KT 10SM OVC015 02/M03 A2969 1290 72 0 280/13 RMK AO2
94908KDBQ DBQ20060201150509502/01/06 15:05:31  5-MIN KDBQ 012105Z 29013KT 10SM OVC015 02/M03 A2970 1290 72 0 290/13 RMK AO2
94908KDBQ DBQ20060201151010102/01/06 15:10:31  5-MIN KDBQ 012110Z 31012G18KT 10SM OVC015 01/M03 A2970 1280 75 0 310/12G18 RMK AO2
94908KDBQ DBQ20060201151509502/01/06 15:15:31  5-MIN KDBQ 012115Z 29012KT 10SM OVC015 01/M03 A2970 1280 75 0 290/12 RMK AO2
94908KDBQ DBQ20060201152009502/01/06 15:20:31  5-MIN KDBQ 012120Z 30015KT 10SM OVC015 01/M03 A2970 1280 75 0 300/15 RMK AO2
94908KDBQ DBQ20060201152509502/01/06 15:25:31  5-MIN KDBQ 012125Z 30014KT 10SM OVC015 01/M03 A2970 1280 75 0 300/14 RMK AO2
94908KDBQ DBQ20060201153009502/01/06 15:30:31  5-MIN KDBQ 012130Z 30012KT 10SM OVC017 01/M03 A2970 1280 75 0 300/12 RMK AO2
94908KDBQ DBQ20060201153509502/01/06 15:35:31  5-MIN KDBQ 012135Z 29010KT 10SM OVC017 01/M03 A2970 1280 75 0 290/10 RMK AO2
94908KDBQ DBQ20060201154009502/01/06 15:40:31  5-MIN KDBQ 012140Z 30011KT 10SM OVC017 01/M03 A2971 1280 75 0 300/11 RMK AO2
94908KDBQ DBQ20060201154509502/01/06 15:45:31  5-MIN KDBQ 012145Z 30013KT 10SM OVC017 01/M03 A2971 1280 75 0 300/13 RMK AO2
94908KDBQ DBQ20060201155011202/01/06 15:50:31  5-MIN KDBQ 012150Z 31013KT 10SM OVC017 01/M03 A2971 1280 72 0 310/13 RMK AO2 SLP067 T00111033
94908KDBQ DBQ20060201155511202/01/06 15:55:31  5-MIN KDBQ 012155Z 30012KT 10SM OVC017 01/M03 A2970 1280 72 0 300/12 RMK AO2 SLP066 T00111033
94908KDBQ DBQ20060201160009502/01/06 16:00:31  5-MIN KDBQ 012200Z 31008KT 10SM OVC017 01/M03 A2970 1280 72 0 310/08 RMK AO2
94908KDBQ DBQ20060201160509502/01/06 16:05:31  5-MIN KDBQ 012205Z 29009KT 10SM OVC017 01/M03 A2970 1280 75 0 290/09 RMK AO2
94908KDBQ DBQ20060201161009502/01/06 16:10:31  5-MIN KDBQ 012210Z 29009KT 10SM OVC017 01/M03 A2970 1280 72 0 290/09 RMK AO2
94908KDBQ DBQ20060201161509502/01/06 16:15:31  5-MIN KDBQ 012215Z 28012KT 10SM OVC017 01/M03 A2970 1280 72 0 280/12 RMK AO2
94908KDBQ DBQ20060201162009502/01/06 16:20:31  5-MIN KDBQ 012220Z 29008KT 10SM OVC017 01/M03 A2970 1280 72 0 280/08 RMK AO2
94908KDBQ DBQ20060201162509502/01/06 16:25:31  5-MIN KDBQ 012225Z 29010KT 10SM OVC019 01/M03 A2971 1280 72 0 290/10 RMK AO2
94908KDBQ DBQ20060201163009502/01/06 16:30:31  5-MIN KDBQ 012230Z 30009KT 10SM OVC019 01/M03 A2971 1270 72 0 300/09 RMK AO2
94908KDBQ DBQ20060201163509502/01/06 16:35:31  5-MIN KDBQ 012235Z 29008KT 10SM OVC019 01/M03 A2971 1270 72 0 290/08 RMK AO2
94908KDBQ DBQ20060201164009502/01/06 16:40:31  5-MIN KDBQ 012240Z 27008KT 10SM OVC019 01/M03 A2972 1270 72 0 270/08 RMK AO2
94908KDBQ DBQ20060201164509502/01/06 16:45:31  5-MIN KDBQ 012245Z 28009KT 10SM OVC019 01/M03 A2972 1270 72 0 280/09 RMK AO2
94908KDBQ DBQ20060201165011202/01/06 16:50:31  5-MIN KDBQ 012250Z 28009KT 10SM OVC019 01/M03 A2972 1270 72 0 280/09 RMK AO2 SLP071 T00111033
94908KDBQ DBQ20060201165511202/01/06 16:55:31  5-MIN KDBQ 012255Z 28009KT 10SM OVC019 01/M03 A2972 1270 72 0 280/09 RMK AO2 SLP071 T00111033
94908KDBQ DBQ20060201170009802/01/06 17:00:31  5-MIN KDBQ 012300Z 29010KT 10SM OVC019 01/M03 A2972 1270 75 -100 280/10 RMK AO2
94908KDBQ DBQ20060201170509802/01/06 17:05:31  5-MIN KDBQ 012305Z 29008KT 10SM OVC019 01/M03 A2972 1270 75 -100 290/08 RMK AO2
94908KDBQ DBQ20060201171009802/01/06 17:10:31  5-MIN KDBQ 012310Z 30009KT 10SM OVC019 00/M03 A2972 1270 78 -200 300/09 RMK AO2
94908KDBQ DBQ20060201171509802/01/06 17:15:31  5-MIN KDBQ 012315Z 30008KT 10SM BKN019 00/M04 A2972 1270 75 -200 300/08 RMK AO2
94908KDBQ DBQ20060201172009802/01/06 17:20:31  5-MIN KDBQ 012320Z 29007KT 10SM BKN019 00/M04 A2972 1260 75 -200 290/07 RMK AO2
94908KDBQ DBQ20060201172509802/01/06 17:25:31  5-MIN KDBQ 012325Z 29005KT 9SM BKN019 M01/M04 A2973 1260 78 -200 290/05 RMK AO2
94908KDBQ DBQ20060201173009802/01/06 17:30:31  5-MIN KDBQ 012330Z 29005KT 9SM SCT019 M01/M04 A2973 1260 78 -200 290/05 RMK AO2
94908KDBQ DBQ20060201173509902/01/06 17:35:31  5-MIN KDBQ 012335Z 28005KT 10SM BKN019 M01/M04 A2973 1260 78 -200 280/05 RMK AO2
94908KDBQ DBQ20060201174009902/01/06 17:40:31  5-MIN KDBQ 012340Z 29006KT 10SM BKN019 M01/M04 A2974 1250 81 -300 290/06 RMK AO2
94908KDBQ DBQ20060201174509902/01/06 17:45:31  5-MIN KDBQ 012345Z 29006KT 10SM SCT019 M01/M04 A2974 1250 78 -300 290/06 RMK AO2
94908KDBQ DBQ20060201175013402/01/06 17:50:31  5-MIN KDBQ 012350Z 29006KT 10SM FEW019 M01/M04 A2974 1250 81 -300 290/06 RMK AO2 SLP079 T10111039 10022 21011 53005
94908KDBQ DBQ20060201175513402/01/06 17:55:31  5-MIN KDBQ 012355Z 30006KT 10SM FEW019 M01/M04 A2974 1250 81 -300 300/06 RMK AO2 SLP079 T10111039 10022 21011 53015
94908KDBQ DBQ20060201180009802/01/06 18:00:31  5-MIN KDBQ 020000Z 30005KT 9SM FEW019 M01/M04 A2974 1250 81 -300 300/05 RMK AO2
94908KDBQ DBQ20060201180509502/01/06 18:05:31  5-MIN KDBQ 020005Z 29004KT 9SM CLR M01/M04 A2974 1250 81 -300 290/04 RMK AO2
94908KDBQ DBQ20060201181009502/01/06 18:10:31  5-MIN KDBQ 020010Z 29004KT 9SM CLR M01/M04 A2974 1240 81 -300 290/04 RMK AO2
94908KDBQ DBQ20060201181509502/01/06 18:15:31  5-MIN KDBQ 020015Z 00000KT 9SM CLR M01/M04 A2974 1250 81 -300 000/00 RMK AO2
94908KDBQ DBQ20060201182009502/01/06 18:20:31  5-MIN KDBQ 020020Z 28003KT 9SM CLR M01/M04 A2974 1240 81 -300 280/03 RMK AO2
94908KDBQ DBQ20060201182509502/01/06 18:25:31  5-MIN KDBQ 020025Z 30003KT 9SM CLR M01/M04 A2974 1240 81 -300 290/03 RMK AO2
94908KDBQ DBQ20060201183009502/01/06 18:30:31  5-MIN KDBQ 020030Z 29003KT 9SM CLR M01/M04 A2974 1240 81 -300 290/03 RMK AO2
94908KDBQ DBQ20060201183509502/01/06 18:35:31  5-MIN KDBQ 020035Z 00000KT 9SM CLR M02/M04 A2974 1240 85 -400 000/00 RMK AO2
94908KDBQ DBQ20060201184009502/01/06 18:40:31  5-MIN KDBQ 020040Z 00000KT 9SM CLR M02/M04 A2974 1240 81 -400 000/00 RMK AO2
94908KDBQ DBQ20060201184509502/01/06 18:45:31  5-MIN KDBQ 020045Z 00000KT 9SM CLR M02/M04 A2974 1240 85 -400 000/00 RMK AO2
94908KDBQ DBQ20060201185011202/01/06 18:50:31  5-MIN KDBQ 020050Z 29003KT 9SM CLR M02/M04 A2974 1250 85 -400 290/03 RMK AO2 SLP082 T10171039
94908KDBQ DBQ20060201185511202/01/06 18:55:31  5-MIN KDBQ 020055Z 30004KT 9SM CLR M02/M04 A2974 1240 85 -500 300/04 RMK AO2 SLP083 T10221044
94908KDBQ DBQ20060201190009502/01/06 19:00:31  5-MIN KDBQ 020100Z 30003KT 9SM CLR M02/M04 A2975 1240 85 -500 300/03 RMK AO2
94908KDBQ DBQ20060201190509502/01/06 19:05:31  5-MIN KDBQ 020105Z 29003KT 9SM CLR M02/M04 A2975 1240 81 -400 290/03 RMK AO2
94908KDBQ DBQ20060201191009502/01/06 19:10:31  5-MIN KDBQ 020110Z 00000KT 9SM CLR M02/M04 A2975 1240 88 -500 000/00 RMK AO2
94908KDBQ DBQ20060201191509502/01/06 19:15:31  5-MIN KDBQ 020115Z 00000KT 8SM CLR M02/M04 A2975 1240 88 -500 000/00 RMK AO2
94908KDBQ DBQ20060201192009502/01/06 19:20:31  5-MIN KDBQ 020120Z 19003KT 8SM CLR M02/M04 A2975 1230 88 -500 190/03 RMK AO2
94908KDBQ DBQ20060201192509502/01/06 19:25:31  5-MIN KDBQ 020125Z 00000KT 8SM CLR M02/M04 A2975 1240 88 -500 000/00 RMK AO2
94908KDBQ DBQ20060201193009502/01/06 19:30:31  5-MIN KDBQ 020130Z 00000KT 8SM CLR M02/M04 A2975 1230 88 -500 000/00 RMK AO2
94908KDBQ DBQ20060201193509502/01/06 19:35:31  5-MIN KDBQ 020135Z 00000KT 8SM CLR M02/M04 A2975 1230 85 -500 000/00 RMK AO2
94908KDBQ DBQ20060201194009502/01/06 19:40:31  5-MIN KDBQ 020140Z 00000KT 8SM CLR M02/M04 A2975 1230 88 -500 000/00 RMK AO2
94908KDBQ DBQ20060201194509502/01/06 19:45:31  5-MIN KDBQ 020145Z 22003KT 8SM CLR M02/M04 A2975 1230 88 -500 220/03 RMK AO2
94908KDBQ DBQ20060201195011202/01/06 19:50:31  5-MIN KDBQ 020150Z 19003KT 8SM CLR M02/M04 A2975 1240 88 -500 190/03 RMK AO2 SLP086 T10221039
94908KDBQ DBQ20060201195511202/01/06 19:55:31  5-MIN KDBQ 020155Z 19003KT 7SM CLR M02/M04 A2975 1240 88 -500 190/03 RMK AO2 SLP084 T10221039
94908KDBQ DBQ20060201200009502/01/06 20:00:31  5-MIN KDBQ 020200Z 17003KT 7SM CLR M02/M04 A2975 1240 88 -500 160/03 RMK AO2
94908KDBQ DBQ20060201200510502/01/06 20:05:31  5-MIN KDBQ 020205Z AUTO 00000KT 8SM CLR M02/M04 A2975 1240 88 -500 000/00 RMK AO2 TSNO
94908KDBQ DBQ20060201201010502/01/06 20:10:31  5-MIN KDBQ 020210Z AUTO 00000KT 8SM CLR M02/M04 A2974 1240 88 -500 000/00 RMK AO2 TSNO
94908KDBQ DBQ20060201201510502/01/06 20:15:31  5-MIN KDBQ 020215Z AUTO 00000KT 8SM CLR M03/M04 A2974 1250 88 -500 000/00 RMK AO2 TSNO
94908KDBQ DBQ20060201202010502/01/06 20:20:31  5-MIN KDBQ 020220Z AUTO 00000KT 8SM CLR M02/M04 A2974 1250 88 -500 000/00 RMK AO2 TSNO
94908KDBQ DBQ20060201202510502/01/06 20:25:31  5-MIN KDBQ 020225Z AUTO 00000KT 8SM CLR M03/M04 A2974 1250 92 -500 000/00 RMK AO2 TSNO
94908KDBQ DBQ20060201203010502/01/06 20:30:31  5-MIN KDBQ 020230Z AUTO 00000KT 8SM CLR M02/M04 A2974 1250 88 -500 000/00 RMK AO2 TSNO
94908KDBQ DBQ20060201203510502/01/06 20:35:31  5-MIN KDBQ 020235Z AUTO 00000KT 8SM CLR M02/M04 A2974 1250 88 -500 000/00 RMK AO2 TSNO
94908KDBQ DBQ20060201204010502/01/06 20:40:31  5-MIN KDBQ 020240Z AUTO 00000KT 7SM CLR M03/M04 A2973 1250 92 -500 000/00 RMK AO2 TSNO
94908KDBQ DBQ20060201204510502/01/06 20:45:31  5-MIN KDBQ 020245Z AUTO 00000KT 7SM CLR M03/M04 A2973 1260 92 -500 000/00 RMK AO2 TSNO
94908KDBQ DBQ20060201205012802/01/06 20:50:31  5-MIN KDBQ 020250Z AUTO 00000KT 7SM CLR M03/M04 A2973 1260 92 -500 000/00 RMK AO2 SLP077 T10281039 53015 TSNO
94908KDBQ DBQ20060201205512802/01/06 20:55:31  5-MIN KDBQ 020255Z AUTO 00000KT 7SM CLR M03/M04 A2972 1260 92 -500 000/00 RMK AO2 SLP076 T10281039 58004 TSNO
94908KDBQ DBQ20060201210010502/01/06 21:00:31  5-MIN KDBQ 020300Z AUTO 00000KT 7SM CLR M03/M04 A2972 1260 88 -500 000/00 RMK AO2 TSNO
94908KDBQ DBQ20060201210510502/01/06 21:05:31  5-MIN KDBQ 020305Z AUTO 00000KT 8SM CLR M03/M04 A2972 1260 88 -500 000/00 RMK AO2 TSNO
94908KDBQ DBQ20060201211010502/01/06 21:10:31  5-MIN KDBQ 020310Z AUTO 00000KT 8SM CLR M02/M04 A2972 1260 88 -500 000/00 RMK AO2 TSNO
94908KDBQ DBQ20060201211510502/01/06 21:15:31  5-MIN KDBQ 020315Z AUTO 00000KT 8SM CLR M02/M04 A2972 1260 85 -400 000/00 RMK AO2 TSNO
94908KDBQ DBQ20060201212010502/01/06 21:20:31  5-MIN KDBQ 020320Z AUTO 00000KT 8SM CLR M03/M04 A2972 1260 88 -500 000/00 RMK AO2 TSNO
94908KDBQ DBQ20060201212510502/01/06 21:25:31  5-MIN KDBQ 020325Z AUTO 16003KT 7SM CLR M03/M04 A2972 1260 88 -500 160/03 RMK AO2 TSNO
94908KDBQ DBQ20060201213010502/01/06 21:30:31  5-MIN KDBQ 020330Z AUTO 00000KT 7SM CLR M03/M04 A2972 1260 88 -500 000/00 RMK AO2 TSNO
94908KDBQ DBQ20060201213510502/01/06 21:35:31  5-MIN KDBQ 020335Z AUTO 00000KT 7SM CLR M03/M05 A2972 1260 88 -600 000/00 RMK AO2 TSNO
94908KDBQ DBQ20060201214010502/01/06 21:40:31  5-MIN KDBQ 020340Z AUTO 15003KT 7SM CLR M03/M05 A2972 1260 88 -600 150/03 RMK AO2 TSNO
94908KDBQ DBQ20060201214510502/01/06 21:45:31  5-MIN KDBQ 020345Z AUTO 00000KT 7SM CLR M03/M05 A2972 1260 88 -600 000/00 RMK AO2 TSNO
94908KDBQ DBQ20060201215012202/01/06 21:50:31  5-MIN KDBQ 020350Z AUTO 15003KT 7SM CLR M03/M05 A2972 1260 88 -600 150/03 RMK AO2 SLP076 T10331050 TSNO
94908KDBQ DBQ20060201215512202/01/06 21:55:31  5-MIN KDBQ 020355Z AUTO 17003KT 7SM CLR M03/M04 A2973 1260 88 -500 160/03 RMK AO2 SLP077 T10281044 TSNO
94908KDBQ DBQ20060201220010502/01/06 22:00:31  5-MIN KDBQ 020400Z AUTO 18003KT 7SM CLR M03/M04 A2973 1260 92 -600 180/03 RMK AO2 TSNO
94908KDBQ DBQ20060201220510502/01/06 22:05:31  5-MIN KDBQ 020405Z AUTO 17003KT 8SM CLR M03/M04 A2973 1260 88 -500 170/03 RMK AO2 TSNO
94908KDBQ DBQ20060201221010502/01/06 22:10:31  5-MIN KDBQ 020410Z AUTO 16003KT 8SM CLR M03/M04 A2972 1260 88 -500 160/03 RMK AO2 TSNO
94908KDBQ DBQ20060201221510502/01/06 22:15:31  5-MIN KDBQ 020415Z AUTO 16004KT 7SM CLR M02/M04 A2972 1260 88 -400 150/04 RMK AO2 TSNO
94908KDBQ DBQ20060201222010502/01/06 22:20:31  5-MIN KDBQ 020420Z AUTO 00000KT 7SM CLR M03/M04 A2972 1260 88 -500 000/00 RMK AO2 TSNO
94908KDBQ DBQ20060201222510502/01/06 22:25:31  5-MIN KDBQ 020425Z AUTO 00000KT 7SM CLR M03/M04 A2972 1260 92 -600 000/00 RMK AO2 TSNO
94908KDBQ DBQ20060201223010502/01/06 22:30:31  5-MIN KDBQ 020430Z AUTO 22003KT 7SM CLR M03/M05 A2972 1260 88 -600 220/03 RMK AO2 TSNO
94908KDBQ DBQ20060201223510502/01/06 22:35:31  5-MIN KDBQ 020435Z AUTO 21003KT 7SM CLR M03/M05 A2973 1260 88 -600 210/03 RMK AO2 TSNO
94908KDBQ DBQ20060201224010502/01/06 22:40:31  5-MIN KDBQ 020440Z AUTO 22004KT 7SM CLR M04/M05 A2973 1260 92 -700 220/04 RMK AO2 TSNO
94908KDBQ DBQ20060201224510502/01/06 22:45:31  5-MIN KDBQ 020445Z AUTO 20005KT 7SM CLR M03/M05 A2973 1260 88 -600 200/05 RMK AO2 TSNO
94908KDBQ DBQ20060201225012202/01/06 22:50:31  5-MIN KDBQ 020450Z AUTO 20005KT 7SM CLR M03/M05 A2973 1260 88 -600 200/05 RMK AO2 SLP078 T10331050 TSNO
94908KDBQ DBQ20060201225512202/01/06 22:55:31  5-MIN KDBQ 020455Z AUTO 20004KT 7SM CLR M04/M05 A2973 1250 92 -700 200/04 RMK AO2 SLP080 T10391050 TSNO
94908KDBQ DBQ20060201230010502/01/06 23:00:31  5-MIN KDBQ 020500Z AUTO 22003KT 7SM CLR M04/M06 A2973 1260 88 -700 220/03 RMK AO2 TSNO
94908KDBQ DBQ20060201230510502/01/06 23:05:31  5-MIN KDBQ 020505Z AUTO 23004KT 7SM CLR M04/M05 A2973 1250 92 -700 230/04 RMK AO2 TSNO
94908KDBQ DBQ20060201231010502/01/06 23:10:31  5-MIN KDBQ 020510Z AUTO 24003KT 7SM CLR M04/M05 A2973 1250 92 -700 240/03 RMK AO2 TSNO
94908KDBQ DBQ20060201231510502/01/06 23:15:31  5-MIN KDBQ 020515Z AUTO 23003KT 7SM CLR M04/M05 A2973 1250 92 -700 230/03 RMK AO2 TSNO
94908KDBQ DBQ20060201232010802/01/06 23:20:31  5-MIN KDBQ 020520Z AUTO 23003KT 6SM BR CLR M04/M05 A2973 1250 92 -700 230/03 RMK AO2 TSNO
94908KDBQ DBQ20060201232510802/01/06 23:25:31  5-MIN KDBQ 020525Z AUTO 00000KT 6SM BR CLR M04/M05 A2973 1260 92 -700 000/00 RMK AO2 TSNO
94908KDBQ DBQ20060201233010802/01/06 23:30:31  5-MIN KDBQ 020530Z AUTO 00000KT 6SM BR CLR M03/M04 A2973 1260 92 -600 000/00 RMK AO2 TSNO
94908KDBQ DBQ20060201233510802/01/06 23:35:31  5-MIN KDBQ 020535Z AUTO 00000KT 6SM BR CLR M03/M04 A2973 1260 92 -600 000/00 RMK AO2 TSNO
94908KDBQ DBQ20060201234010802/01/06 23:40:31  5-MIN KDBQ 020540Z AUTO 00000KT 6SM BR CLR M03/M04 A2973 1260 92 -600 000/00 RMK AO2 TSNO
94908KDBQ DBQ20060201234510502/01/06 23:45:31  5-MIN KDBQ 020545Z AUTO 00000KT 7SM CLR M03/M04 A2973 1260 92 -600 000/00 RMK AO2 TSNO
94908KDBQ DBQ20060201235015002/01/06 23:50:31  5-MIN KDBQ 020550Z AUTO 00000KT 7SM CLR M03/M04 A2973 1260 88 -500 000/00 RMK AO2 SLP079 T10281044 11011 21039 400611039 58004 TSNO
94908KDBQ DBQ20060201235515002/01/06 23:55:31  5-MIN KDBQ 020555Z AUTO 00000KT 7SM CLR M03/M04 A2973 1260 88 -500 000/00 RMK AO2 SLP079 T10281044 11011 21039 400611039 50002 TSNO
94908KDBQ DBQ20060202000010802/02/06 00:00:38  5-MIN KDBQ 020600Z AUTO 00000KT 6SM BR CLR M03/M04 A2973 1260 92 -500 000/00 RMK AO2 TSNO
94908KDBQ DBQ20060202000510802/02/06 00:05:31  5-MIN KDBQ 020605Z AUTO 00000KT 6SM BR CLR M03/M04 A2973 1260 92 -500 000/00 RMK AO2 TSNO
94908KDBQ DBQ20060202001010802/02/06 00:10:31  5-MIN KDBQ 020610Z AUTO 00000KT 6SM BR CLR M03/M04 A2973 1260 92 -500 000/00 RMK AO2 TSNO
94908KDBQ DBQ20060202001510502/02/06 00:15:32  5-MIN KDBQ 020615Z AUTO 20003KT 7SM CLR M03/M04 A2973 1260 88 -500 200/03 RMK AO2 TSNO
94908KDBQ DBQ20060202002010502/02/06 00:20:31  5-MIN KDBQ 020620Z AUTO 20003KT 7SM CLR M02/M04 A2973 1260 85 -500 200/03 RMK AO2 TSNO
94908KDBQ DBQ20060202002510502/02/06 00:25:31  5-MIN KDBQ 020625Z AUTO 19003KT 7SM CLR M03/M04 A2973 1260 88 -500 190/03 RMK AO2 TSNO
94908KDBQ DBQ20060202003010502/02/06 00:30:31  5-MIN KDBQ 020630Z AUTO 19003KT 7SM CLR M03/M04 A2973 1260 88 -500 190/03 RMK AO2 TSNO
94908KDBQ DBQ20060202003510502/02/06 00:35:31  5-MIN KDBQ 020635Z AUTO 20004KT 7SM CLR M03/M04 A2973 1260 88 -500 200/04 RMK AO2 TSNO
94908KDBQ DBQ20060202004010502/02/06 00:40:31  5-MIN KDBQ 020640Z AUTO 20003KT 7SM CLR M03/M04 A2973 1260 92 -500 200/03 RMK AO2 TSNO
94908KDBQ DBQ20060202004510502/02/06 00:45:31  5-MIN KDBQ 020645Z AUTO 00000KT 7SM CLR M03/M04 A2973 1260 92 -500 000/00 RMK AO2 TSNO
94908KDBQ DBQ20060202005012502/02/06 00:50:31  5-MIN KDBQ 020650Z AUTO 00000KT 7SM FEW110 M03/M04 A2973 1260 92 -500 000/00 RMK AO2 SLP078 T10281039 TSNO
94908KDBQ DBQ20060202005512502/02/06 00:55:31  5-MIN KDBQ 020655Z AUTO 00000KT 7SM SCT110 M03/M04 A2972 1260 92 -500 000/00 RMK AO2 SLP077 T10281039 TSNO
94908KDBQ DBQ20060202010010802/02/06 01:00:31  5-MIN KDBQ 020700Z AUTO 00000KT 7SM SCT110 M02/M04 A2972 1260 88 -500 000/00 RMK AO2 TSNO
94908KDBQ DBQ20060202010510802/02/06 01:05:31  5-MIN KDBQ 020705Z AUTO 00000KT 7SM SCT110 M02/M03 A2972 1260 92 -400 000/00 RMK AO2 TSNO
94908KDBQ DBQ20060202011010802/02/06 01:10:31  5-MIN KDBQ 020710Z AUTO 00000KT 7SM BKN110 M02/M04 A2971 1270 88 -400 000/00 RMK AO2 TSNO
94908KDBQ DBQ20060202011510802/02/06 01:15:31  5-MIN KDBQ 020715Z AUTO 00000KT 7SM BKN110 M02/M04 A2971 1270 88 -400 000/00 RMK AO2 TSNO
94908KDBQ DBQ20060202012010802/02/06 01:20:31  5-MIN KDBQ 020720Z AUTO 00000KT 7SM BKN110 M02/M04 A2971 1270 88 -400 000/00 RMK AO2 TSNO
94908KDBQ DBQ20060202012510802/02/06 01:25:31  5-MIN KDBQ 020725Z AUTO 00000KT 7SM BKN110 M02/M03 A2971 1270 92 -400 000/00 RMK AO2 TSNO
94908KDBQ DBQ20060202013010802/02/06 01:30:31  5-MIN KDBQ 020730Z AUTO 00000KT 7SM BKN110 M02/M03 A2971 1270 88 -400 000/00 RMK AO2 TSNO
94908KDBQ DBQ20060202013510802/02/06 01:35:31  5-MIN KDBQ 020735Z AUTO 00000KT 7SM BKN110 M02/M03 A2971 1280 88 -400 000/00 RMK AO2 TSNO
94908KDBQ DBQ20060202014010802/02/06 01:40:31  5-MIN KDBQ 020740Z AUTO 00000KT 7SM BKN110 M02/M03 A2971 1280 88 -400 000/00 RMK AO2 TSNO
94908KDBQ DBQ20060202014510802/02/06 01:45:31  5-MIN KDBQ 020745Z AUTO 17003KT 7SM BKN110 M02/M03 A2971 1270 88 -400 170/03 RMK AO2 TSNO
94908KDBQ DBQ20060202015012502/02/06 01:50:31  5-MIN KDBQ 020750Z AUTO 00000KT 7SM BKN110 M02/M03 A2971 1270 92 -400 000/00 RMK AO2 SLP072 T10221033 TSNO
94908KDBQ DBQ20060202015512502/02/06 01:55:31  5-MIN KDBQ 020755Z AUTO 18004KT 7SM BKN110 M02/M03 A2971 1280 88 -400 180/04 RMK AO2 SLP071 T10171033 TSNO
94908KDBQ DBQ20060202020010802/02/06 02:00:31  5-MIN KDBQ 020800Z AUTO 17003KT 7SM BKN110 M01/M03 A2971 1280 88 -300 160/03 RMK AO2 TSNO
94908KDBQ DBQ20060202020510802/02/06 02:05:31  5-MIN KDBQ 020805Z AUTO 00000KT 7SM SCT110 M01/M03 A2971 1280 88 -300 000/00 RMK AO2 TSNO
94908KDBQ DBQ20060202021010802/02/06 02:10:31  5-MIN KDBQ 020810Z AUTO 19003KT 7SM SCT110 M01/M03 A2971 1280 88 -300 190/03 RMK AO2 TSNO
94908KDBQ DBQ20060202021510802/02/06 02:15:31  5-MIN KDBQ 020815Z AUTO 21004KT 7SM SCT120 M02/M03 A2971 1280 88 -400 210/04 RMK AO2 TSNO
94908KDBQ DBQ20060202022010802/02/06 02:20:31  5-MIN KDBQ 020820Z AUTO 20004KT 7SM BKN120 M02/M03 A2971 1280 88 -400 200/04 RMK AO2 TSNO
94908KDBQ DBQ20060202022510802/02/06 02:25:31  5-MIN KDBQ 020825Z AUTO 21003KT 7SM BKN110 M02/M03 A2971 1280 88 -400 210/03 RMK AO2 TSNO
94908KDBQ DBQ20060202023010802/02/06 02:30:31  5-MIN KDBQ 020830Z AUTO 00000KT 7SM SCT110 M02/M03 A2970 1280 88 -400 000/00 RMK AO2 TSNO
94908KDBQ DBQ20060202023510802/02/06 02:35:31  5-MIN KDBQ 020835Z AUTO 00000KT 7SM SCT120 M02/M03 A2970 1280 88 -400 000/00 RMK AO2 TSNO
94908KDBQ DBQ20060202024010802/02/06 02:40:31  5-MIN KDBQ 020840Z AUTO 00000KT 7SM SCT120 M02/M03 A2970 1280 88 -400 000/00 RMK AO2 TSNO
94908KDBQ DBQ20060202024510802/02/06 02:45:31  5-MIN KDBQ 020845Z AUTO 00000KT 7SM SCT110 M02/M03 A2970 1290 88 -400 000/00 RMK AO2 TSNO
94908KDBQ DBQ20060202025013102/02/06 02:50:31  5-MIN KDBQ 020850Z AUTO 00000KT 7SM FEW110 M02/M03 A2970 1290 92 -300 000/00 RMK AO2 SLP067 T10171028 50002 TSNO
94908KDBQ DBQ20060202025513102/02/06 02:55:31  5-MIN KDBQ 020855Z AUTO 00000KT 7SM FEW120 M02/M03 A2970 1290 88 -300 000/00 RMK AO2 SLP067 T10171033 58011 TSNO
94908KDBQ DBQ20060202030010802/02/06 03:00:31  5-MIN KDBQ 020900Z AUTO 17003KT 7SM FEW120 M01/M03 A2970 1290 88 -300 170/03 RMK AO2 TSNO
94908KDBQ DBQ20060202030510502/02/06 03:05:31  5-MIN KDBQ 020905Z AUTO 19004KT 8SM CLR M01/M03 A2970 1290 88 -300 190/04 RMK AO2 TSNO
94908KDBQ DBQ20060202031010502/02/06 03:10:31  5-MIN KDBQ 020910Z AUTO 17006KT 8SM CLR M01/M03 A2969 1290 85 -300 160/06 RMK AO2 TSNO
94908KDBQ DBQ20060202031510802/02/06 03:15:31  5-MIN KDBQ 020915Z AUTO 16007KT 8SM FEW110 M01/M03 A2969 1290 88 -300 160/07 RMK AO2 TSNO
94908KDBQ DBQ20060202032010802/02/06 03:20:31  5-MIN KDBQ 020920Z AUTO 16007KT 8SM SCT110 M01/M03 A2969 1290 88 -300 160/07 RMK AO2 TSNO
94908KDBQ DBQ20060202032510802/02/06 03:25:31  5-MIN KDBQ 020925Z AUTO 15009KT 8SM BKN110 M01/M03 A2969 1290 85 -300 150/09 RMK AO2 TSNO
94908KDBQ DBQ20060202033010802/02/06 03:30:31  5-MIN KDBQ 020930Z AUTO 16009KT 8SM BKN110 M01/M03 A2969 1290 85 -300 160/09 RMK AO2 TSNO
94908KDBQ DBQ20060202033510802/02/06 03:35:31  5-MIN KDBQ 020935Z AUTO 16010KT 8SM BKN110 M01/M03 A2969 1290 85 -300 160/10 RMK AO2 TSNO
94908KDBQ DBQ20060202034010802/02/06 03:40:31  5-MIN KDBQ 020940Z AUTO 17010KT 8SM OVC110 M01/M03 A2969 1290 88 -300 170/10 RMK AO2 TSNO
94908KDBQ DBQ20060202034510802/02/06 03:45:31  5-MIN KDBQ 020945Z AUTO 17009KT 7SM OVC110 M01/M03 A2969 1290 85 -300 170/09 RMK AO2 TSNO
94908KDBQ DBQ20060202035012502/02/06 03:50:31  5-MIN KDBQ 020950Z AUTO 18009KT 7SM OVC110 M01/M03 A2969 1300 85 -300 170/09 RMK AO2 SLP064 T10111033 TSNO
94908KDBQ DBQ20060202035512502/02/06 03:55:31  5-MIN KDBQ 020955Z AUTO 17009KT 7SM OVC110 M01/M03 A2968 1300 85 -300 170/09 RMK AO2 SLP063 T10111033 TSNO
94908KDBQ DBQ20060202040010802/02/06 04:00:31  5-MIN KDBQ 021000Z AUTO 17009KT 7SM OVC100 M02/M03 A2968 1300 88 -300 170/09 RMK AO2 TSNO
94908KDBQ DBQ20060202040510802/02/06 04:05:31  5-MIN KDBQ 021005Z AUTO 18008KT 7SM OVC100 M02/M03 A2968 1300 88 -300 170/08 RMK AO2 TSNO
94908KDBQ DBQ20060202041010802/02/06 04:10:31  5-MIN KDBQ 021010Z AUTO 17009KT 7SM OVC100 M01/M03 A2968 1300 85 -300 170/09 RMK AO2 TSNO
94908KDBQ DBQ20060202041510802/02/06 04:15:31  5-MIN KDBQ 021015Z AUTO 16010KT 7SM OVC100 M01/M03 A2967 1310 85 -300 160/10 RMK AO2 TSNO
94908KDBQ DBQ20060202042010802/02/06 04:20:31  5-MIN KDBQ 021020Z AUTO 16011KT 7SM OVC100 M01/M03 A2967 1310 85 -300 160/11 RMK AO2 TSNO
94908KDBQ DBQ20060202042510802/02/06 04:25:31  5-MIN KDBQ 021025Z AUTO 17010KT 7SM OVC100 M01/M03 A2967 1310 85 -300 170/10 RMK AO2 TSNO
94908KDBQ DBQ20060202043010802/02/06 04:30:31  5-MIN KDBQ 021030Z AUTO 17010KT 7SM OVC095 M01/M03 A2967 1310 88 -300 170/10 RMK AO2 TSNO
94908KDBQ DBQ20060202043510802/02/06 04:35:31  5-MIN KDBQ 021035Z AUTO 17011KT 7SM OVC095 M01/M03 A2967 1310 88 -300 170/11 RMK AO2 TSNO
94908KDBQ DBQ20060202044010802/02/06 04:40:31  5-MIN KDBQ 021040Z AUTO 16012KT 8SM OVC095 M01/M03 A2967 1310 88 -200 160/12 RMK AO2 TSNO
94908KDBQ DBQ20060202044510802/02/06 04:45:31  5-MIN KDBQ 021045Z AUTO 16013KT 8SM OVC095 M01/M03 A2967 1310 85 -200 160/13 RMK AO2 TSNO
94908KDBQ DBQ20060202045013202/02/06 04:50:31  5-MIN KDBQ 021050Z AUTO 16013KT 8SM BKN095 OVC110 M01/M03 A2967 1310 88 -200 160/13 RMK AO2 SLP056 T10111028 TSNO
94908KDBQ DBQ20060202045512502/02/06 04:55:31  5-MIN KDBQ 021055Z AUTO 16014KT 8SM OVC100 M01/M03 A2966 1320 85 -200 160/14 RMK AO2 SLP056 T10061028 TSNO
94908KDBQ DBQ20060202050010802/02/06 05:00:31  5-MIN KDBQ 021100Z AUTO 16012KT 8SM OVC100 M01/M03 A2966 1320 85 -200 160/12 RMK AO2 TSNO
94908KDBQ DBQ20060202050510802/02/06 05:05:31  5-MIN KDBQ 021105Z AUTO 16014KT 8SM OVC100 M01/M03 A2966 1320 85 -200 160/14 RMK AO2 TSNO
94908KDBQ DBQ20060202051010802/02/06 05:10:31  5-MIN KDBQ 021110Z AUTO 16012KT 8SM OVC100 M01/M03 A2966 1320 85 -200 160/12 RMK AO2 TSNO
94908KDBQ DBQ20060202051510802/02/06 05:15:31  5-MIN KDBQ 021115Z AUTO 16014KT 7SM OVC100 M01/M03 A2966 1320 85 -200 150/14 RMK AO2 TSNO
94908KDBQ DBQ20060202052010802/02/06 05:20:31  5-MIN KDBQ 021120Z AUTO 16013KT 7SM OVC100 M01/M03 A2966 1320 85 -200 150/13 RMK AO2 TSNO
94908KDBQ DBQ20060202052510702/02/06 05:25:31  5-MIN KDBQ 021125Z AUTO 15013KT 7SM OVC100 00/M03 A2966 1320 81 -100 150/13 RMK AO2 TSNO
94908KDBQ DBQ20060202053011402/02/06 05:30:31  5-MIN KDBQ 021130Z AUTO 15013KT 7SM FEW080 OVC100 00/M02 A2965 1330 85 -100 150/13 RMK AO2 TSNO
94908KDBQ DBQ20060202053511402/02/06 05:35:31  5-MIN KDBQ 021135Z AUTO 15014KT 7SM BKN075 OVC100 00/M02 A2965 1330 85 -100 150/14 RMK AO2 TSNO
94908KDBQ DBQ20060202054011402/02/06 05:40:31  5-MIN KDBQ 021140Z AUTO 15014KT 7SM BKN075 OVC100 00/M02 A2965 1330 85 -100 150/14 RMK AO2 TSNO
94908KDBQ DBQ20060202054511102/02/06 05:45:31  5-MIN KDBQ 021145Z AUTO 15015KT 7SM BKN075 OVC100 01/M02 A2965 1330 82 0 150/15 RMK AO2 TSNO
94908KDBQ DBQ20060202055013902/02/06 05:50:31  5-MIN KDBQ 021150Z AUTO 15017KT 7SM OVC075 01/M02 A2965 1330 82 0 150/17 RMK AO2 SLP051 T00061022 10006 21028 58011 TSNO
94908KDBQ DBQ20060202055514202/02/06 05:55:31  5-MIN KDBQ 021155Z AUTO 16017KT 7SM OVC080 00/M02 A2965 1330 85 -100 150/17 RMK AO2 SLP052 T00001022 10006 21028 58015 TSNO
94908KDBQ DBQ20060202060009702/02/06 06:00:31  5-MIN KDBQ 021200Z 16013KT 7SM OVC080 00/M02 A2965 1330 85 -100 160/13 RMK AO2
94908KDBQ DBQ20060202060510102/02/06 06:05:31  5-MIN KDBQ 021205Z 16014KT 7SM BKN080 OVC090 01/M02 A2965 1330 82 0 160/14 RMK AO2
94908KDBQ DBQ20060202061010402/02/06 06:10:31  5-MIN KDBQ 021210Z 16016KT 7SM BKN080 OVC090 00/M02 A2964 1340 85 -100 160/16 RMK AO2
94908KDBQ DBQ20060202061510402/02/06 06:15:31  5-MIN KDBQ 021215Z 16014KT 7SM BKN080 OVC090 00/M02 A2965 1330 85 -100 150/14 RMK AO2
94908KDBQ DBQ20060202062010402/02/06 06:20:31  5-MIN KDBQ 021220Z 16014KT 7SM BKN080 OVC095 00/M02 A2965 1330 85 -100 160/14 RMK AO2
94908KDBQ DBQ20060202062510102/02/06 06:25:31  5-MIN KDBQ 021225Z 16013KT 7SM BKN085 OVC100 01/M02 A2965 1330 82 0 160/13 RMK AO2
94908KDBQ DBQ20060202063010102/02/06 06:30:31  5-MIN KDBQ 021230Z 16011KT 7SM SCT080 OVC100 01/M02 A2965 1330 85 0 160/11 RMK AO2
94908KDBQ DBQ20060202063510102/02/06 06:35:31  5-MIN KDBQ 021235Z 17009KT 7SM BKN090 OVC100 01/M02 A2965 1330 85 0 170/09 RMK AO2
94908KDBQ DBQ20060202064009402/02/06 06:40:31  5-MIN KDBQ 021240Z 17010KT 7SM OVC090 01/M02 A2965 1320 85 0 170/10 RMK AO2
94908KDBQ DBQ20060202064509402/02/06 06:45:31  5-MIN KDBQ 021245Z 17010KT 7SM OVC095 01/M02 A2966 1320 85 0 160/10 RMK AO2
94908KDBQ DBQ20060202065011102/02/06 06:50:31  5-MIN KDBQ 021250Z 17012KT 7SM OVC095 01/M02 A2965 1330 85 0 160/12 RMK AO2 SLP053 T00061017
94908KDBQ DBQ20060202065511102/02/06 06:55:31  5-MIN KDBQ 021255Z 18011KT 7SM OVC090 01/M02 A2966 1320 85 0 180/11 RMK AO2 SLP054 T00061017
94908KDBQ DBQ20060202070009702/02/06 07:00:31  5-MIN KDBQ 021300Z 17009KT 6SM BR OVC090 01/M02 A2966 1320 85 0 170/09 RMK AO2
94908KDBQ DBQ20060202070511102/02/06 07:05:31  5-MIN KDBQ 021305Z 18007KT 6SM BR FEW060 BKN080 OVC095 01/M02 A2966 1320 85 0 180/07 RMK AO2
94908KDBQ DBQ20060202071011102/02/06 07:10:31  5-MIN KDBQ 021310Z 17007KT 6SM BR FEW060 BKN075 OVC095 01/M02 A2966 1320 85 0 170/07 RMK AO2
94908KDBQ DBQ20060202071510402/02/06 07:15:31  5-MIN KDBQ 021315Z 19005KT 6SM BR BKN070 OVC095 01/M02 A2967 1310 85 0 180/05 RMK AO2
94908KDBQ DBQ20060202072011102/02/06 07:20:31  5-MIN KDBQ 021320Z 19005KT 5SM BR SCT060 BKN070 OVC095 01/M02 A2966 1320 85 0 190/05 RMK AO2
94908KDBQ DBQ20060202072510402/02/06 07:25:31  5-MIN KDBQ 021325Z 16005KT 5SM BR BKN060 OVC100 01/M02 A2966 1320 85 0 160/05 RMK AO2
94908KDBQ DBQ20060202073010402/02/06 07:30:31  5-MIN KDBQ 021330Z 21004KT 4SM BR BKN060 OVC100 01/M02 A2966 1320 85 0 210/04 RMK AO2
94908KDBQ DBQ20060202073511102/02/06 07:35:31  5-MIN KDBQ 021335Z 23004KT 4SM BR SCT060 BKN080 OVC100 01/M02 A2966 1320 85 0 230/04 RMK AO2
94908KDBQ DBQ20060202074011102/02/06 07:40:31  5-MIN KDBQ 021340Z 22004KT 4SM BR FEW060 BKN085 OVC100 01/M02 A2967 1320 85 0 220/04 RMK AO2
94908KDBQ DBQ20060202074511102/02/06 07:45:31  5-MIN KDBQ 021345Z 23003KT 5SM BR FEW060 BKN085 OVC100 01/M02 A2966 1320 85 0 230/03 RMK AO2
94908KDBQ DBQ20060202075012802/02/06 07:50:31  5-MIN KDBQ 021350Z 00000KT 4SM BR FEW060 BKN085 BKN100 01/M01 A2966 1320 89 0 000/00 RMK AO2 SLP054 T00061011
94908KDBQ DBQ20060202075512802/02/06 07:55:31  5-MIN KDBQ 021355Z 14004KT 4SM BR FEW060 BKN085 OVC100 01/M01 A2965 1330 89 0 130/04 RMK AO2 SLP051 T00061011
94908KDBQ DBQ20060202080011102/02/06 08:00:31  5-MIN KDBQ 021400Z 12007KT 5SM BR FEW060 OVC095 01/M02 A2964 1340 85 0 120/07 RMK AO2 PRESFR
94908KDBQ DBQ20060202080510402/02/06 08:05:31  5-MIN KDBQ 021405Z 13006KT 5SM BR FEW060 OVC095 01/M02 A2964 1340 85 0 130/06 RMK AO2
94908KDBQ DBQ20060202081009702/02/06 08:10:31  5-MIN KDBQ 021410Z 15004KT 5SM BR OVC100 01/M01 A2964 1340 89 0 150/04 RMK AO2
94908KDBQ DBQ20060202081509702/02/06 08:15:31  5-MIN KDBQ 021415Z 15007KT 5SM BR OVC100 01/M01 A2965 1330 89 0 150/07 RMK AO2
94908KDBQ DBQ20060202082009702/02/06 08:20:31  5-MIN KDBQ 021420Z 18004KT 5SM BR OVC100 01/M01 A2965 1330 85 0 180/04 RMK AO2
94908KDBQ DBQ20060202082509702/02/06 08:25:31  5-MIN KDBQ 021425Z 25005KT 5SM BR OVC100 01/M01 A2966 1320 85 0 250/05 RMK AO2
94908KDBQ DBQ20060202083009702/02/06 08:30:31  5-MIN KDBQ 021430Z 21004KT 5SM BR OVC100 01/M01 A2965 1330 89 0 210/04 RMK AO2
94908KDBQ DBQ20060202083509702/02/06 08:35:31  5-MIN KDBQ 021435Z 19004KT 5SM BR OVC100 01/M01 A2965 1330 89 0 190/04 RMK AO2
94908KDBQ DBQ20060202084009702/02/06 08:40:31  5-MIN KDBQ 021440Z 21004KT 5SM BR OVC100 01/M01 A2965 1330 85 0 210/04 RMK AO2
94908KDBQ DBQ20060202084509702/02/06 08:45:31  5-MIN KDBQ 021445Z 19003KT 5SM BR OVC100 01/M01 A2965 1330 89 0 190/03 RMK AO2
94908KDBQ DBQ20060202085012002/02/06 08:50:31  5-MIN KDBQ 021450Z 18005KT 5SM BR OVC100 01/M01 A2965 1330 89 0 180/05 RMK AO2 SLP052 T00111006 58015
94908KDBQ DBQ20060202085512002/02/06 08:55:31  5-MIN KDBQ 021455Z 17006KT 5SM BR OVC100 01/M01 A2965 1330 89 0 170/06 RMK AO2 SLP053 T00111006 51001
94908KDBQ DBQ20060202090009702/02/06 09:00:31  5-MIN KDBQ 021500Z 16005KT 5SM BR OVC110 01/M01 A2965 1330 89 0 160/05 RMK AO2
94908KDBQ DBQ20060202090509702/02/06 09:05:31  5-MIN KDBQ 021505Z 16007KT 5SM BR BKN110 01/M01 A2965 1330 89 0 150/07 RMK AO2
94908KDBQ DBQ20060202091009702/02/06 09:10:31  5-MIN KDBQ 021510Z 15008KT 5SM BR BKN110 01/M01 A2965 1330 89 0 150/08 RMK AO2
94908KDBQ DBQ20060202091510602/02/06 09:15:31  5-MIN KDBQ 021515Z 17007KT 5SM BR FEW060 BKN110 02/M01 A2965 1330 85 100 170/07 RMK AO2
94908KDBQ DBQ20060202092011202/02/06 09:20:31  5-MIN KDBQ 021520Z 17007KT 5SM BR SCT060 SCT085 BKN110 02/00 A2965 1330 89 100 170/07 RMK AO2
94908KDBQ DBQ20060202092511202/02/06 09:25:31  5-MIN KDBQ 021525Z 17009KT 5SM BR FEW060 SCT075 SCT110 02/00 A2965 1330 89 100 170/09 RMK AO2
94908KDBQ DBQ20060202093010502/02/06 09:30:31  5-MIN KDBQ 021530Z 17009KT 5SM BR FEW060 SCT110 02/00 A2965 1330 89 100 170/09 RMK AO2
94908KDBQ DBQ20060202093510502/02/06 09:35:31  5-MIN KDBQ 021535Z 18007KT 5SM BR FEW060 BKN110 02/00 A2965 1330 89 100 180/07 RMK AO2
94908KDBQ DBQ20060202094010502/02/06 09:40:31  5-MIN KDBQ 021540Z 18009KT 5SM BR FEW060 BKN110 02/00 A2965 1330 89 100 180/09 RMK AO2
94908KDBQ DBQ20060202094509802/02/06 09:45:31  5-MIN KDBQ 021545Z 18009KT 5SM BR BKN110 02/00 A2965 1330 89 100 180/09 RMK AO2
94908KDBQ DBQ20060202095011502/02/06 09:50:31  5-MIN KDBQ 021550Z 17008KT 5SM BR BKN110 02/00 A2964 1340 89 100 170/08 RMK AO2 SLP050 T00170000
94908KDBQ DBQ20060202095511502/02/06 09:55:31  5-MIN KDBQ 021555Z 18007KT 5SM BR BKN110 02/00 A2964 1340 89 100 180/07 RMK AO2 SLP050 T00170000
94908KDBQ DBQ20060202100009802/02/06 10:00:31  5-MIN KDBQ 021600Z 19007KT 5SM BR BKN110 02/00 A2965 1330 85 100 190/07 RMK AO2
94908KDBQ DBQ20060202100509802/02/06 10:05:31  5-MIN KDBQ 021605Z 19008KT 5SM BR BKN110 02/00 A2964 1340 85 100 180/08 RMK AO2
94908KDBQ DBQ20060202101009802/02/06 10:10:31  5-MIN KDBQ 021610Z 18008KT 5SM BR BKN100 02/00 A2964 1340 85 200 170/08 RMK AO2
94908KDBQ DBQ20060202101509802/02/06 10:15:31  5-MIN KDBQ 021615Z 17008KT 5SM BR SCT100 03/01 A2964 1340 85 200 170/08 RMK AO2
94908KDBQ DBQ20060202102009802/02/06 10:20:31  5-MIN KDBQ 021620Z 16008KT 5SM BR FEW100 03/01 A2963 1350 85 200 160/08 RMK AO2
94908KDBQ DBQ20060202102509802/02/06 10:25:31  5-MIN KDBQ 021625Z 16009KT 6SM BR FEW100 03/01 A2963 1350 85 200 160/09 RMK AO2
94908KDBQ DBQ20060202103009802/02/06 10:30:31  5-MIN KDBQ 021630Z 16009KT 6SM HZ FEW100 03/01 A2962 1360 82 300 150/09 RMK AO2
94908KDBQ DBQ20060202103510502/02/06 10:35:31  5-MIN KDBQ 021635Z 15013KT 6SM BR FEW100 03/01 A2961 1360 85 300 150/13 RMK AO2 PRESFR
94908KDBQ DBQ20060202104010202/02/06 10:40:31  5-MIN KDBQ 021640Z 14014KT 6SM HZ CLR 04/01 A2961 1370 82 400 140/14 RMK AO2 PRESFR
94908KDBQ DBQ20060202104509202/02/06 10:45:31  5-MIN KDBQ 021645Z 15014KT 7SM CLR 04/01 A2961 1370 82 400 150/14 RMK AO2
94908KDBQ DBQ20060202105010902/02/06 10:50:31  5-MIN KDBQ 021650Z 15014KT 7SM CLR 04/01 A2960 1370 79 500 140/14 RMK AO2 SLP035 T00440011
94908KDBQ DBQ20060202105510902/02/06 10:55:31  5-MIN KDBQ 021655Z 15014KT 7SM CLR 05/01 A2961 1370 76 500 150/14 RMK AO2 SLP036 T00500011
94908KDBQ DBQ20060202110009202/02/06 11:00:31  5-MIN KDBQ 021700Z 16013KT 7SM CLR 05/02 A2960 1370 79 500 160/13 RMK AO2
94908KDBQ DBQ20060202110509202/02/06 11:05:31  5-MIN KDBQ 021705Z 16014KT 8SM CLR 05/02 A2960 1370 79 500 160/14 RMK AO2
94908KDBQ DBQ20060202111009202/02/06 11:10:31  5-MIN KDBQ 021710Z 16015KT 8SM CLR 06/01 A2960 1370 73 600 160/15 RMK AO2
94908KDBQ DBQ20060202111509202/02/06 11:15:31  5-MIN KDBQ 021715Z 16016KT 9SM CLR 06/01 A2960 1380 73 600 160/16 RMK AO2
94908KDBQ DBQ20060202112009202/02/06 11:20:31  5-MIN KDBQ 021720Z 16017KT 9SM CLR 06/02 A2960 1380 76 600 160/17 RMK AO2
94908KDBQ DBQ20060202112509202/02/06 11:25:31  5-MIN KDBQ 021725Z 17016KT 9SM CLR 06/02 A2960 1380 76 600 170/16 RMK AO2
94908KDBQ DBQ20060202113009202/02/06 11:30:31  5-MIN KDBQ 021730Z 17013KT 9SM CLR 06/02 A2960 1380 73 700 170/13 RMK AO2
94908KDBQ DBQ20060202113509802/02/06 11:35:31  5-MIN KDBQ 021735Z 17014G20KT 9SM CLR 06/02 A2960 1380 73 700 170/14G20 RMK AO2
94908KDBQ DBQ20060202114009202/02/06 11:40:31  5-MIN KDBQ 021740Z 17015KT 9SM CLR 06/02 A2959 1380 73 700 170/15 RMK AO2
94908KDBQ DBQ20060202114509202/02/06 11:45:31  5-MIN KDBQ 021745Z 18012KT 9SM CLR 06/02 A2959 1390 73 700 180/12 RMK AO2
94908KDBQ DBQ20060202115012702/02/06 11:50:31  5-MIN KDBQ 021750Z 16013KT 9SM CLR 07/02 A2959 1390 70 800 160/13 RMK AO2 SLP028 T00670017 10067 20000 51001
94908KDBQ DBQ20060202115512702/02/06 11:55:31  5-MIN KDBQ 021755Z 18013KT 9SM CLR 07/02 A2959 1390 70 800 180/13 RMK AO2 SLP028 T00670017 10067 20000 58022
94908KDBQ DBQ20060202120009302/02/06 12:00:31  5-MIN KDBQ 021800Z 17014KT 10SM CLR 07/02 A2958 1390 70 800 170/14 RMK AO2
94908KDBQ DBQ20060202120509302/02/06 12:05:31  5-MIN KDBQ 021805Z 17015KT 10SM CLR 07/02 A2958 1390 70 800 170/15 RMK AO2
94908KDBQ DBQ20060202121009202/02/06 12:10:31  5-MIN KDBQ 021810Z 17016KT 9SM CLR 07/02 A2958 1400 70 800 170/16 RMK AO2
94908KDBQ DBQ20060202121509302/02/06 12:15:31  5-MIN KDBQ 021815Z 17015KT 10SM CLR 07/02 A2958 1400 70 800 170/15 RMK AO2
94908KDBQ DBQ20060202122009302/02/06 12:20:31  5-MIN KDBQ 021820Z 18016KT 10SM CLR 07/02 A2958 1400 68 800 170/16 RMK AO2
94908KDBQ DBQ20060202122509302/02/06 12:25:31  5-MIN KDBQ 021825Z 17014KT 10SM CLR 07/02 A2958 1400 68 800 170/14 RMK AO2
94908KDBQ DBQ20060202123009302/02/06 12:30:31  5-MIN KDBQ 021830Z 17016KT 10SM CLR 07/02 A2958 1400 68 800 170/16 RMK AO2
94908KDBQ DBQ20060202123509302/02/06 12:35:31  5-MIN KDBQ 021835Z 17015KT 10SM CLR 07/02 A2957 1400 68 800 170/15 RMK AO2
94908KDBQ DBQ20060202124009302/02/06 12:40:31  5-MIN KDBQ 021840Z 18016KT 10SM CLR 08/02 A2957 1400 68 900 180/16 RMK AO2
94908KDBQ DBQ20060202124509302/02/06 12:45:31  5-MIN KDBQ 021845Z 17017KT 10SM CLR 08/02 A2957 1410 65 900 170/17 RMK AO2
94908KDBQ DBQ20060202125011002/02/06 12:50:31  5-MIN KDBQ 021850Z 17017KT 10SM CLR 08/02 A2957 1410 65 900 170/17 RMK AO2 SLP021 T00780017
94908KDBQ DBQ20060202125511002/02/06 12:55:31  5-MIN KDBQ 021855Z 18015KT 10SM CLR 08/02 A2957 1410 65 900 180/15 RMK AO2 SLP021 T00780017
94908KDBQ DBQ20060202130009302/02/06 13:00:31  5-MIN KDBQ 021900Z 17014KT 10SM CLR 08/02 A2957 1410 68 900 170/14 RMK AO2
94908KDBQ DBQ20060202130509302/02/06 13:05:31  5-MIN KDBQ 021905Z 17016KT 10SM CLR 08/02 A2957 1410 68 900 170/16 RMK AO2
94908KDBQ DBQ20060202131009302/02/06 13:10:31  5-MIN KDBQ 021910Z 18018KT 10SM CLR 08/02 A2956 1410 68 900 180/18 RMK AO2
94908KDBQ DBQ20060202131509302/02/06 13:15:31  5-MIN KDBQ 021915Z 17017KT 10SM CLR 08/02 A2956 1410 65 900 170/17 RMK AO2
94908KDBQ DBQ20060202132009302/02/06 13:20:31  5-MIN KDBQ 021920Z 18018KT 10SM CLR 07/02 A2956 1410 68 900 170/18 RMK AO2
94908KDBQ DBQ20060202132509302/02/06 13:25:31  5-MIN KDBQ 021925Z 18015KT 10SM CLR 07/02 A2956 1410 68 900 180/15 RMK AO2
94908KDBQ DBQ20060202133009302/02/06 13:30:31  5-MIN KDBQ 021930Z 19015KT 10SM CLR 07/02 A2956 1410 68 900 190/15 RMK AO2
94908KDBQ DBQ20060202133509302/02/06 13:35:31  5-MIN KDBQ 021935Z 18012KT 10SM CLR 08/02 A2956 1410 68 900 180/12 RMK AO2
94908KDBQ DBQ20060202134009302/02/06 13:40:31  5-MIN KDBQ 021940Z 19013KT 10SM CLR 08/02 A2956 1410 68 900 190/13 RMK AO2
94908KDBQ DBQ20060202134509302/02/06 13:45:31  5-MIN KDBQ 021945Z 17014KT 10SM CLR 08/02 A2956 1410 68 900 170/14 RMK AO2
94908KDBQ DBQ20060202135011002/02/06 13:50:31  5-MIN KDBQ 021950Z 17011KT 10SM CLR 08/02 A2956 1410 68 900 170/11 RMK AO2 SLP018 T00780022
94908KDBQ DBQ20060202135511002/02/06 13:55:31  5-MIN KDBQ 021955Z 17014KT 10SM CLR 08/02 A2956 1420 68 900 170/14 RMK AO2 SLP017 T00780022
94908KDBQ DBQ20060202140009302/02/06 14:00:31  5-MIN KDBQ 022000Z 17013KT 10SM CLR 08/02 A2955 1420 68 900 170/13 RMK AO2
94908KDBQ DBQ20060202140509302/02/06 14:05:31  5-MIN KDBQ 022005Z 18012KT 10SM CLR 08/02 A2955 1420 68 900 170/12 RMK AO2
94908KDBQ DBQ20060202141009302/02/06 14:10:31  5-MIN KDBQ 022010Z 18012KT 10SM CLR 08/02 A2955 1420 68 900 180/12 RMK AO2
94908KDBQ DBQ20060202141509302/02/06 14:15:31  5-MIN KDBQ 022015Z 18012KT 10SM CLR 08/02 A2955 1420 68 900 180/12 RMK AO2
94908KDBQ DBQ20060202142009302/02/06 14:20:31  5-MIN KDBQ 022020Z 18013KT 10SM CLR 08/02 A2955 1430 68 900 170/13 RMK AO2
94908KDBQ DBQ20060202142509402/02/06 14:25:31  5-MIN KDBQ 022025Z 18010KT 10SM CLR 08/02 A2955 1430 65 1000 180/10 RMK AO2
94908KDBQ DBQ20060202143009402/02/06 14:30:31  5-MIN KDBQ 022030Z 17013KT 10SM CLR 08/02 A2954 1430 65 1000 170/13 RMK AO2
94908KDBQ DBQ20060202143509402/02/06 14:35:31  5-MIN KDBQ 022035Z 17012KT 10SM CLR 08/02 A2954 1430 65 1000 170/12 RMK AO2
94908KDBQ DBQ20060202144009402/02/06 14:40:31  5-MIN KDBQ 022040Z 17013KT 10SM CLR 08/03 A2954 1430 68 1000 170/13 RMK AO2
94908KDBQ DBQ20060202144509402/02/06 14:45:31  5-MIN KDBQ 022045Z 18012KT 10SM CLR 08/02 A2954 1430 65 1000 180/12 RMK AO2
94908KDBQ DBQ20060202145011702/02/06 14:50:31  5-MIN KDBQ 022050Z 18014KT 10SM CLR 08/02 A2954 1430 65 1000 180/14 RMK AO2 SLP011 T00830022 58022
94908KDBQ DBQ20060202145511702/02/06 14:55:31  5-MIN KDBQ 022055Z 17013KT 10SM CLR 08/02 A2954 1430 65 1000 170/13 RMK AO2 SLP012 T00830022 56014
94908KDBQ DBQ20060202150009402/02/06 15:00:31  5-MIN KDBQ 022100Z 17014KT 10SM CLR 08/02 A2954 1430 65 1000 170/14 RMK AO2
94908KDBQ DBQ20060202150509402/02/06 15:05:31  5-MIN KDBQ 022105Z 17013KT 10SM CLR 08/02 A2954 1430 65 1000 170/13 RMK AO2
94908KDBQ DBQ20060202151009402/02/06 15:10:31  5-MIN KDBQ 022110Z 17013KT 10SM CLR 08/02 A2954 1430 65 1000 170/13 RMK AO2
94908KDBQ DBQ20060202151509402/02/06 15:15:31  5-MIN KDBQ 022115Z 18013KT 10SM CLR 08/02 A2954 1430 65 1000 180/13 RMK AO2
94908KDBQ DBQ20060202152009402/02/06 15:20:31  5-MIN KDBQ 022120Z 18014KT 10SM CLR 08/02 A2954 1430 65 1000 170/14 RMK AO2
94908KDBQ DBQ20060202152509402/02/06 15:25:31  5-MIN KDBQ 022125Z 17012KT 10SM CLR 08/02 A2954 1430 65 1000 170/12 RMK AO2
94908KDBQ DBQ20060202153009402/02/06 15:30:31  5-MIN KDBQ 022130Z 17013KT 10SM CLR 08/02 A2954 1430 65 1000 170/13 RMK AO2
94908KDBQ DBQ20060202153509402/02/06 15:35:31  5-MIN KDBQ 022135Z 18013KT 10SM CLR 08/02 A2954 1430 65 1000 180/13 RMK AO2
94908KDBQ DBQ20060202154009402/02/06 15:40:31  5-MIN KDBQ 022140Z 17010KT 10SM CLR 08/02 A2954 1430 65 1000 170/10 RMK AO2
94908KDBQ DBQ20060202154509402/02/06 15:45:31  5-MIN KDBQ 022145Z 18010KT 10SM CLR 08/02 A2954 1430 65 1000 180/10 RMK AO2
94908KDBQ DBQ20060202155011102/02/06 15:50:31  5-MIN KDBQ 022150Z 17011KT 10SM CLR 08/02 A2954 1430 65 1000 170/11 RMK AO2 SLP011 T00830022
94908KDBQ DBQ20060202155511102/02/06 15:55:31  5-MIN KDBQ 022155Z 18013KT 10SM CLR 08/02 A2954 1430 65 1000 180/13 RMK AO2 SLP010 T00830022
94908KDBQ DBQ20060202160009402/02/06 16:00:31  5-MIN KDBQ 022200Z 17014KT 10SM CLR 08/02 A2954 1430 65 1000 170/14 RMK AO2
94908KDBQ DBQ20060202160509402/02/06 16:05:31  5-MIN KDBQ 022205Z 18013KT 10SM CLR 08/02 A2954 1430 63 1000 180/13 RMK AO2
94908KDBQ DBQ20060202161009402/02/06 16:10:31  5-MIN KDBQ 022210Z 18011KT 10SM CLR 08/02 A2954 1430 65 1000 180/11 RMK AO2
94908KDBQ DBQ20060202161509302/02/06 16:15:31  5-MIN KDBQ 022215Z 17012KT 10SM CLR 08/02 A2954 1430 68 900 170/12 RMK AO2
94908KDBQ DBQ20060202162009302/02/06 16:20:31  5-MIN KDBQ 022220Z 17013KT 10SM CLR 08/02 A2954 1430 65 900 170/13 RMK AO2
94908KDBQ DBQ20060202162509302/02/06 16:25:31  5-MIN KDBQ 022225Z 18009KT 10SM CLR 08/02 A2954 1430 65 900 180/09 RMK AO2
94908KDBQ DBQ20060202163009302/02/06 16:30:31  5-MIN KDBQ 022230Z 18008KT 10SM CLR 08/02 A2954 1430 68 900 170/08 RMK AO2
94908KDBQ DBQ20060202163509302/02/06 16:35:31  5-MIN KDBQ 022235Z 18010KT 10SM CLR 07/02 A2954 1430 68 900 170/10 RMK AO2
94908KDBQ DBQ20060202164009302/02/06 16:40:31  5-MIN KDBQ 022240Z 18009KT 10SM CLR 07/02 A2954 1430 68 900 180/09 RMK AO2
94908KDBQ DBQ20060202164509302/02/06 16:45:31  5-MIN KDBQ 022245Z 17009KT 10SM CLR 07/02 A2954 1430 70 800 170/09 RMK AO2
94908KDBQ DBQ20060202165011002/02/06 16:50:31  5-MIN KDBQ 022250Z 17009KT 10SM CLR 06/02 A2954 1430 73 700 170/09 RMK AO2 SLP013 T00610017
94908KDBQ DBQ20060202165511002/02/06 16:55:31  5-MIN KDBQ 022255Z 18008KT 10SM CLR 06/02 A2954 1430 73 700 170/08 RMK AO2 SLP013 T00610017
94908KDBQ DBQ20060202170009302/02/06 17:00:31  5-MIN KDBQ 022300Z 17008KT 10SM CLR 06/02 A2954 1430 76 700 170/08 RMK AO2
94908KDBQ DBQ20060202170509302/02/06 17:05:31  5-MIN KDBQ 022305Z 17008KT 10SM CLR 06/01 A2954 1430 73 700 170/08 RMK AO2
94908KDBQ DBQ20060202171009202/02/06 17:10:31  5-MIN KDBQ 022310Z 17008KT 9SM CLR 05/01 A2955 1430 76 600 170/08 RMK AO2
94908KDBQ DBQ20060202171509202/02/06 17:15:31  5-MIN KDBQ 022315Z 16007KT 9SM CLR 04/01 A2955 1430 79 500 160/07 RMK AO2
94908KDBQ DBQ20060202172009202/02/06 17:20:31  5-MIN KDBQ 022320Z 15006KT 9SM CLR 04/01 A2955 1420 82 500 150/06 RMK AO2
94908KDBQ DBQ20060202172509202/02/06 17:25:31  5-MIN KDBQ 022325Z 15006KT 9SM CLR 04/01 A2955 1430 82 500 140/06 RMK AO2
94908KDBQ DBQ20060202173009202/02/06 17:30:31  5-MIN KDBQ 022330Z 15006KT 9SM CLR 04/01 A2955 1420 79 500 150/06 RMK AO2
94908KDBQ DBQ20060202173509202/02/06 17:35:31  5-MIN KDBQ 022335Z 16008KT 9SM CLR 03/01 A2955 1420 82 400 160/08 RMK AO2
94908KDBQ DBQ20060202174009202/02/06 17:40:31  5-MIN KDBQ 022340Z 15008KT 9SM CLR 03/01 A2955 1420 82 400 150/08 RMK AO2
94908KDBQ DBQ20060202174509202/02/06 17:45:31  5-MIN KDBQ 022345Z 15008KT 9SM CLR 03/01 A2955 1420 82 400 150/08 RMK AO2
94908KDBQ DBQ20060202175012702/02/06 17:50:31  5-MIN KDBQ 022350Z 15008KT 9SM CLR 03/00 A2955 1420 82 300 150/08 RMK AO2 SLP015 T00280000 10083 20028 56014
94908KDBQ DBQ20060202175512702/02/06 17:55:31  5-MIN KDBQ 022355Z 15007KT 9SM CLR 03/00 A2955 1420 82 300 150/07 RMK AO2 SLP016 T00280000 10083 20028 53002
94908KDBQ DBQ20060202180009202/02/06 18:00:31  5-MIN KDBQ 030000Z 15007KT 9SM CLR 03/00 A2955 1420 82 300 150/07 RMK AO2
94908KDBQ DBQ20060202180509202/02/06 18:05:31  5-MIN KDBQ 030005Z 14006KT 8SM CLR 03/00 A2955 1420 82 300 140/06 RMK AO2
94908KDBQ DBQ20060202181009202/02/06 18:10:31  5-MIN KDBQ 030010Z 15008KT 8SM CLR 03/01 A2955 1420 82 400 150/08 RMK AO2
94908KDBQ DBQ20060202181509202/02/06 18:15:31  5-MIN KDBQ 030015Z 15008KT 8SM CLR 04/01 A2955 1420 82 500 150/08 RMK AO2
94908KDBQ DBQ20060202182009202/02/06 18:20:31  5-MIN KDBQ 030020Z 15010KT 7SM CLR 04/01 A2955 1420 82 500 150/10 RMK AO2
94908KDBQ DBQ20060202182509502/02/06 18:25:31  5-MIN KDBQ 030025Z 16008KT 6SM HZ CLR 04/01 A2955 1420 82 500 160/08 RMK AO2
94908KDBQ DBQ20060202183009502/02/06 18:30:31  5-MIN KDBQ 030030Z 15009KT 5SM BR CLR 03/01 A2955 1420 85 400 150/09 RMK AO2
94908KDBQ DBQ20060202183509502/02/06 18:35:31  5-MIN KDBQ 030035Z 16009KT 6SM HZ CLR 04/01 A2955 1420 82 500 160/09 RMK AO2
94908KDBQ DBQ20060202184009502/02/06 18:40:31  5-MIN KDBQ 030040Z 16011KT 6SM BR CLR 03/01 A2955 1420 85 400 160/11 RMK AO2
94908KDBQ DBQ20060202184509202/02/06 18:45:31  5-MIN KDBQ 030045Z 16010KT 7SM CLR 03/01 A2955 1420 85 400 160/10 RMK AO2
94908KDBQ DBQ20060202185010902/02/06 18:50:31  5-MIN KDBQ 030050Z 16010KT 7SM CLR 03/01 A2955 1420 85 400 150/10 RMK AO2 SLP015 T00330011
94908KDBQ DBQ20060202185510902/02/06 18:55:31  5-MIN KDBQ 030055Z 16011KT 7SM CLR 03/01 A2955 1420 85 400 160/11 RMK AO2 SLP015 T00330011
94908KDBQ DBQ20060202190009202/02/06 19:00:31  5-MIN KDBQ 030100Z 16009KT 7SM CLR 03/01 A2955 1420 85 400 160/09 RMK AO2
94908KDBQ DBQ20060202190509202/02/06 19:05:31  5-MIN KDBQ 030105Z 16009KT 7SM CLR 03/01 A2955 1420 85 400 160/09 RMK AO2
94908KDBQ DBQ20060202191009502/02/06 19:10:31  5-MIN KDBQ 030110Z 16010KT 6SM BR CLR 03/01 A2955 1420 89 300 160/10 RMK AO2
94908KDBQ DBQ20060202191509502/02/06 19:15:31  5-MIN KDBQ 030115Z 17009KT 6SM BR CLR 03/01 A2955 1420 89 300 160/09 RMK AO2
94908KDBQ DBQ20060202192009502/02/06 19:20:31  5-MIN KDBQ 030120Z 16010KT 6SM BR CLR 03/01 A2956 1420 89 300 160/10 RMK AO2
94908KDBQ DBQ20060202192509502/02/06 19:25:31  5-MIN KDBQ 030125Z 16009KT 6SM BR CLR 03/01 A2956 1420 89 300 160/09 RMK AO2
94908KDBQ DBQ20060202193009502/02/06 19:30:31  5-MIN KDBQ 030130Z 16009KT 6SM BR CLR 03/01 A2956 1420 89 300 160/09 RMK AO2
94908KDBQ DBQ20060202193509502/02/06 19:35:31  5-MIN KDBQ 030135Z 16010KT 6SM BR CLR 03/01 A2956 1420 89 300 160/10 RMK AO2
94908KDBQ DBQ20060202194009502/02/06 19:40:31  5-MIN KDBQ 030140Z 16010KT 6SM BR CLR 03/01 A2956 1420 89 300 160/10 RMK AO2
94908KDBQ DBQ20060202194509502/02/06 19:45:31  5-MIN KDBQ 030145Z 17009KT 6SM BR CLR 03/01 A2955 1420 89 300 160/09 RMK AO2
94908KDBQ DBQ20060202195011202/02/06 19:50:31  5-MIN KDBQ 030150Z 16010KT 6SM BR CLR 03/01 A2955 1420 89 300 160/10 RMK AO2 SLP017 T00280011
94908KDBQ DBQ20060202195511202/02/06 19:55:31  5-MIN KDBQ 030155Z 16009KT 6SM BR CLR 03/01 A2955 1420 89 300 160/09 RMK AO2 SLP017 T00280011
94908KDBQ DBQ20060202200009502/02/06 20:00:31  5-MIN KDBQ 030200Z 17009KT 6SM BR CLR 03/01 A2955 1420 89 300 170/09 RMK AO2
94908KDBQ DBQ20060202200510802/02/06 20:05:31  5-MIN KDBQ 030205Z AUTO 16010KT 6SM BR FEW100 02/01 A2955 1420 92 300 160/10 RMK AO2 TSNO
94908KDBQ DBQ20060202201010802/02/06 20:10:31  5-MIN KDBQ 030210Z AUTO 17010KT 6SM BR FEW100 02/01 A2955 1420 92 300 170/10 RMK AO2 TSNO
94908KDBQ DBQ20060202201510802/02/06 20:15:31  5-MIN KDBQ 030215Z AUTO 17009KT 6SM BR SCT100 02/01 A2955 1420 89 300 170/09 RMK AO2 TSNO
94908KDBQ DBQ20060202202010802/02/06 20:20:31  5-MIN KDBQ 030220Z AUTO 17009KT 5SM BR SCT100 02/01 A2955 1420 89 300 170/09 RMK AO2 TSNO
94908KDBQ DBQ20060202202510802/02/06 20:25:31  5-MIN KDBQ 030225Z AUTO 17010KT 5SM BR FEW100 02/01 A2955 1420 89 300 170/10 RMK AO2 TSNO
94908KDBQ DBQ20060202203011502/02/06 20:30:31  5-MIN KDBQ 030230Z AUTO 17009KT 5SM BR FEW065 SCT100 02/01 A2955 1420 89 300 170/09 RMK AO2 TSNO
94908KDBQ DBQ20060202203510802/02/06 20:35:31  5-MIN KDBQ 030235Z AUTO 17009KT 5SM BR FEW060 02/01 A2955 1420 89 300 170/09 RMK AO2 TSNO
94908KDBQ DBQ20060202204011502/02/06 20:40:31  5-MIN KDBQ 030240Z AUTO 18009KT 5SM BR SCT065 SCT100 02/01 A2955 1420 92 300 180/09 RMK AO2 TSNO
94908KDBQ DBQ20060202204511502/02/06 20:45:31  5-MIN KDBQ 030245Z AUTO 18008KT 5SM BR FEW060 BKN070 02/01 A2955 1420 92 300 180/08 RMK AO2 TSNO
94908KDBQ DBQ20060202205013802/02/06 20:50:31  5-MIN KDBQ 030250Z AUTO 18008KT 5SM BR SCT060 BKN070 02/01 A2955 1420 92 300 180/08 RMK AO2 SLP016 T00220011 53002 TSNO
94908KDBQ DBQ20060202205513102/02/06 20:55:31  5-MIN KDBQ 030255Z AUTO 18009KT 5SM BR BKN060 02/01 A2955 1420 92 300 180/09 RMK AO2 SLP015 T00220011 58000 TSNO
94908KDBQ DBQ20060202210010802/02/06 21:00:31  5-MIN KDBQ 030300Z AUTO 18009KT 5SM BR BKN065 02/01 A2955 1430 92 300 180/09 RMK AO2 TSNO
94908KDBQ DBQ20060202210510802/02/06 21:05:31  5-MIN KDBQ 030305Z AUTO 19007KT 5SM BR BKN065 02/01 A2955 1430 89 300 190/07 RMK AO2 TSNO
94908KDBQ DBQ20060202211011502/02/06 21:10:31  5-MIN KDBQ 030310Z AUTO 20006KT 5SM BR FEW055 SCT070 02/01 A2954 1430 89 300 200/06 RMK AO2 TSNO
94908KDBQ DBQ20060202211510802/02/06 21:15:31  5-MIN KDBQ 030315Z AUTO 21007KT 5SM BR SCT060 02/01 A2954 1430 89 300 210/07 RMK AO2 TSNO
94908KDBQ DBQ20060202212011502/02/06 21:20:31  5-MIN KDBQ 030320Z AUTO 22006KT 5SM BR FEW065 SCT080 02/01 A2954 1430 92 200 220/06 RMK AO2 TSNO
94908KDBQ DBQ20060202212510802/02/06 21:25:31  5-MIN KDBQ 030325Z AUTO 21006KT 5SM BR FEW070 02/01 A2954 1430 92 300 210/06 RMK AO2 TSNO
94908KDBQ DBQ20060202213010802/02/06 21:30:31  5-MIN KDBQ 030330Z AUTO 20006KT 5SM BR FEW080 02/01 A2954 1430 92 300 200/06 RMK AO2 TSNO
94908KDBQ DBQ20060202213510802/02/06 21:35:31  5-MIN KDBQ 030335Z AUTO 20007KT 5SM BR FEW080 02/01 A2954 1440 92 300 200/07 RMK AO2 TSNO
94908KDBQ DBQ20060203074009702/03/06 07:40:31  5-MIN KDBQ 031340Z 35010KT 10SM FEW060 01/M02 A2961 1370 82 100 350/10 RMK AO2
94908KDBQ DBQ20060203074509702/03/06 07:45:31  5-MIN KDBQ 031345Z 35011KT 10SM SCT055 01/M02 A2961 1370 82 100 350/11 RMK AO2
94908KDBQ DBQ20060203075011202/03/06 07:50:31  5-MIN KDBQ 031350Z 35011KT 10SM BKN055 01/M02 A2961 1370 82 0 350/11 RMK AO2 SLP036 T00111017
94908KDBQ DBQ20060203075511202/03/06 07:55:31  5-MIN KDBQ 031355Z 34008KT 10SM BKN055 01/M02 A2961 1360 82 0 340/08 RMK AO2 SLP036 T00111017
94908KDBQ DBQ20060203080009502/03/06 08:00:31  5-MIN KDBQ 031400Z 34008KT 10SM BKN055 01/M02 A2962 1360 82 0 340/08 RMK AO2
94908KDBQ DBQ20060203080509502/03/06 08:05:31  5-MIN KDBQ 031405Z 35009KT 10SM OVC055 01/M02 A2962 1360 82 0 350/09 RMK AO2
94908KDBQ DBQ20060203081009502/03/06 08:10:31  5-MIN KDBQ 031410Z 36009KT 10SM OVC055 01/M01 A2961 1360 85 0 360/09 RMK AO2
94908KDBQ DBQ20060203081509502/03/06 08:15:31  5-MIN KDBQ 031415Z 36010KT 10SM OVC050 01/M02 A2961 1360 82 0 360/10 RMK AO2
94908KDBQ DBQ20060203082009402/03/06 08:20:31  5-MIN KDBQ 031420Z 36009KT 9SM BKN055 01/M02 A2962 1360 82 0 360/09 RMK AO2
94908KDBQ DBQ20060203082509402/03/06 08:25:31  5-MIN KDBQ 031425Z 35008KT 9SM BKN055 01/M01 A2961 1360 85 0 350/08 RMK AO2
94908KDBQ DBQ20060203083009602/03/06 08:30:31  5-MIN KDBQ 031430Z 35009KT 9SM OVC055 02/M01 A2962 1360 82 100 350/09 RMK AO2
94908KDBQ DBQ20060203083509602/03/06 08:35:31  5-MIN KDBQ 031435Z 35010KT 9SM OVC055 02/M01 A2962 1360 82 100 350/10 RMK AO2
94908KDBQ DBQ20060203084009702/03/06 08:40:31  5-MIN KDBQ 031440Z 34011KT 10SM OVC055 02/M01 A2962 1360 82 100 340/11 RMK AO2
94908KDBQ DBQ20060203084509602/03/06 08:45:31  5-MIN KDBQ 031445Z 34011KT 9SM BKN055 02/M01 A2962 1360 82 100 340/11 RMK AO2
94908KDBQ DBQ20060203085011902/03/06 08:50:31  5-MIN KDBQ 031450Z 33011KT 9SM BKN055 02/M01 A2962 1360 82 100 330/11 RMK AO2 SLP039 T00171011 53009
94908KDBQ DBQ20060203085511902/03/06 08:55:31  5-MIN KDBQ 031455Z 34011KT 9SM BKN055 02/M01 A2962 1360 82 100 340/11 RMK AO2 SLP039 T00171011 51020
94908KDBQ DBQ20060203090009602/03/06 09:00:31  5-MIN KDBQ 031500Z 34009KT 9SM BKN050 02/M01 A2962 1360 85 100 330/09 RMK AO2
94908KDBQ DBQ20060203090509602/03/06 09:05:31  5-MIN KDBQ 031505Z 33009KT 9SM BKN050 02/M01 A2962 1360 82 100 330/09 RMK AO2
94908KDBQ DBQ20060203091009702/03/06 09:10:31  5-MIN KDBQ 031510Z 32009KT 10SM BKN050 02/M01 A2962 1350 82 100 320/09 RMK AO2
94908KDBQ DBQ20060203091509602/03/06 09:15:31  5-MIN KDBQ 031515Z 31011KT 9SM BKN050 02/M01 A2962 1350 82 100 310/11 RMK AO2
94908KDBQ DBQ20060203092009602/03/06 09:20:31  5-MIN KDBQ 031520Z 32011KT 9SM OVC050 02/M01 A2963 1350 82 100 320/11 RMK AO2
94908KDBQ DBQ20060203092509602/03/06 09:25:31  5-MIN KDBQ 031525Z 31009KT 9SM OVC050 02/M01 A2963 1350 82 100 310/09 RMK AO2
94908KDBQ DBQ20060203093010302/03/06 09:30:31  5-MIN KDBQ 031530Z 32009KT 9SM FEW011 OVC050 02/M01 A2963 1350 82 100 310/09 RMK AO2
94908KDBQ DBQ20060203093510102/03/06 09:35:31  5-MIN KDBQ 031535Z 30008KT 8SM SCT011 OVC050 01/M01 A2963 1350 85 0 300/08 RMK AO2
94908KDBQ DBQ20060203094010102/03/06 09:40:31  5-MIN KDBQ 031540Z 29009KT 8SM SCT011 OVC050 01/M01 A2963 1340 85 0 290/09 RMK AO2
94908KDBQ DBQ20060203094510102/03/06 09:45:31  5-MIN KDBQ 031545Z 30010KT 8SM BKN011 OVC050 01/M01 A2964 1340 85 0 300/10 RMK AO2
94908KDBQ DBQ20060203095010102/03/06 09:50:31  5-MIN KDBQ 031550Z 29011KT 8SM BKN011 OVC050 01/M02 A2964 1340 82 0 290/11 RMK AO2
94908KDBQ DBQ20060203095511802/03/06 09:55:31  5-MIN KDBQ 031555Z 29011KT 8SM BKN011 OVC050 01/M01 A2964 1340 85 0 290/11 RMK AO2 SLP047 T00111011
94908KDBQ DBQ20060203100009402/03/06 10:00:31  5-MIN KDBQ 031600Z 30013KT 8SM OVC011 01/M01 A2965 1330 85 0 290/13 RMK AO2
94908KDBQ DBQ20060203100509402/03/06 10:05:31  5-MIN KDBQ 031605Z 29013KT 8SM OVC011 01/M01 A2965 1330 85 0 290/13 RMK AO2
94908KDBQ DBQ20060203101010602/03/06 10:10:31  5-MIN KDBQ 031610Z 30012KT 7SM OVC011 01/M02 A2965 1330 82 0 300/12 RMK AO2 CIG 009V014
94908KDBQ DBQ20060203101510602/03/06 10:15:31  5-MIN KDBQ 031615Z 29012KT 7SM OVC011 01/M01 A2964 1330 85 0 290/12 RMK AO2 CIG 009V014
94908KDBQ DBQ20060203102010602/03/06 10:20:31  5-MIN KDBQ 031620Z 30011KT 7SM OVC011 01/M01 A2965 1330 85 0 290/11 RMK AO2 CIG 009V014
94908KDBQ DBQ20060203102510302/03/06 10:25:31  5-MIN KDBQ 031625Z 30010KT 7SM BKN011 OVC015 02/M01 A2965 1330 82 100 290/10 RMK AO2
94908KDBQ DBQ20060203103010302/03/06 10:30:31  5-MIN KDBQ 031630Z 29013KT 7SM BKN011 OVC015 02/M02 A2965 1330 78 100 290/13 RMK AO2
94908KDBQ DBQ20060203103509602/03/06 10:35:31  5-MIN KDBQ 031635Z 29011KT 8SM OVC013 02/M02 A2965 1330 78 100 290/11 RMK AO2
94908KDBQ DBQ20060203104009602/03/06 10:40:31  5-MIN KDBQ 031640Z 28013KT 7SM OVC011 02/M01 A2965 1330 82 100 280/13 RMK AO2
94908KDBQ DBQ20060203104509402/03/06 10:45:31  5-MIN KDBQ 031645Z 29013KT 7SM OVC011 01/M01 A2966 1320 85 0 290/13 RMK AO2
94908KDBQ DBQ20060203105012602/03/06 10:50:31  5-MIN KDBQ 031650Z 29013KT 6SM BR OVC011 01/M01 A2966 1320 85 0 290/13 RMK AO2 CIG 007V014 SLP052 T00111011
94908KDBQ DBQ20060203105512602/03/06 10:55:31  5-MIN KDBQ 031655Z 28014KT 5SM BR OVC011 01/M02 A2966 1320 85 0 280/14 RMK AO2 CIG 007V015 SLP053 T00061017
94908KDBQ DBQ20060203110011602/03/06 11:00:31  5-MIN KDBQ 031700Z 28013KT 5SM BR BKN008 OVC011 01/M01 A2966 1320 85 0 280/13 RMK AO2 CIG 007V011
94908KDBQ DBQ20060203110510902/03/06 11:05:31  5-MIN KDBQ 031705Z 29017KT 6SM BR OVC008 01/M02 A2966 1320 85 0 290/17 RMK AO2 CIG 007V011
94908KDBQ DBQ20060203111009702/03/06 11:10:31  5-MIN KDBQ 031710Z 29017KT 6SM HZ OVC008 01/M02 A2966 1320 82 0 290/17 RMK AO2
94908KDBQ DBQ20060203111509702/03/06 11:15:31  5-MIN KDBQ 031715Z 29017KT 6SM HZ OVC008 01/M02 A2966 1320 82 0 290/17 RMK AO2
94908KDBQ DBQ20060203112009402/03/06 11:20:31  5-MIN KDBQ 031720Z 29016KT 7SM OVC008 01/M02 A2966 1320 82 0 280/16 RMK AO2
94908KDBQ DBQ20060203112509402/03/06 11:25:31  5-MIN KDBQ 031725Z 28014KT 8SM OVC008 01/M02 A2966 1320 78 0 280/14 RMK AO2
94908KDBQ DBQ20060203113010802/03/06 11:30:31  5-MIN KDBQ 031730Z 29017KT 8SM OVC010 02/M02 A2966 1320 78 100 290/17 RMK AO2 CIG 008V013
94908KDBQ DBQ20060203113509402/03/06 11:35:31  5-MIN KDBQ 031735Z 28018KT 9SM OVC010 01/M02 A2966 1320 78 0 280/18 RMK AO2
94908KDBQ DBQ20060203114009702/03/06 11:40:31  5-MIN KDBQ 031740Z 28015KT 10SM OVC012 02/M02 A2966 1320 75 100 280/15 RMK AO2
94908KDBQ DBQ20060203114511702/03/06 11:45:31  5-MIN KDBQ 031745Z 28017G23KT 10SM SCT010 BKN014 OVC090 02/M02 A2967 1310 75 100 280/17G23 RMK AO2
94908KDBQ DBQ20060203115014202/03/06 11:50:31  5-MIN KDBQ 031750Z 28016G23KT 9SM BKN014 OVC090 01/M03 A2967 1310 75 0 280/16G23 RMK AO2 SLP056 T00111028 10022 20006 51020
94908KDBQ DBQ20060203115513602/03/06 11:55:31  5-MIN KDBQ 031755Z 28017KT 8SM BKN014 OVC090 01/M03 A2967 1310 78 0 270/17 RMK AO2 SLP056 T00061028 10022 20006 51015
94908KDBQ DBQ20060203120010002/03/06 12:00:31  5-MIN KDBQ 031800Z 28016G21KT 8SM OVC012 01/M03 A2967 1310 78 0 280/16G21 RMK AO2
94908KDBQ DBQ20060203120509702/03/06 12:05:31  5-MIN KDBQ 031805Z 28016KT 8SM OVC012 00/M03 A2967 1310 81 -100 280/16 RMK AO2
94908KDBQ DBQ20060203121011602/03/06 12:10:31  5-MIN KDBQ 031810Z 27016KT 8SM BKN010 OVC014 00/M03 A2967 1310 81 -100 270/16 RMK AO2 CIG 009V013
94908KDBQ DBQ20060203121510402/03/06 12:15:31  5-MIN KDBQ 031815Z 27016G22KT 9SM OVC010 M01/M03 A2967 1310 81 -200 270/16G22 RMK AO2
94908KDBQ DBQ20060203122009902/03/06 12:20:31  5-MIN KDBQ 031820Z 28016KT 10SM OVC010 M01/M03 A2968 1310 81 -200 280/16 RMK AO2
94908KDBQ DBQ20060203122509902/03/06 12:25:31  5-MIN KDBQ 031825Z 28015KT 10SM OVC010 M01/M03 A2968 1300 81 -200 280/15 RMK AO2
94908KDBQ DBQ20060203123010402/03/06 12:30:31  5-MIN KDBQ 031830Z 28016G21KT 9SM OVC010 M01/M04 A2968 1310 78 -200 280/16G21 RMK AO2
94908KDBQ DBQ20060203123509802/03/06 12:35:31  5-MIN KDBQ 031835Z 28017KT 8SM OVC010 M01/M04 A2968 1300 78 -200 280/17 RMK AO2
94908KDBQ DBQ20060203124009802/03/06 12:40:31  5-MIN KDBQ 031840Z 29016KT 7SM OVC010 M01/M04 A2968 1300 78 -200 290/16 RMK AO2
94908KDBQ DBQ20060203124509802/03/06 12:45:31  5-MIN KDBQ 031845Z 28017KT 7SM OVC010 M01/M04 A2968 1300 78 -200 280/17 RMK AO2
94908KDBQ DBQ20060203125011502/03/06 12:50:31  5-MIN KDBQ 031850Z 28015KT 8SM OVC010 M01/M04 A2968 1300 81 -300 280/15 RMK AO2 SLP062 T10111039
94908KDBQ DBQ20060203125511502/03/06 12:55:31  5-MIN KDBQ 031855Z 28015KT 8SM OVC010 M01/M04 A2968 1300 81 -300 280/15 RMK AO2 SLP063 T10111039
94908KDBQ DBQ20060203130011002/03/06 13:00:31  5-MIN KDBQ 031900Z 29016KT 8SM OVC010 M01/M04 A2968 1300 78 -300 290/16 RMK AO2 CIG 009V013
94908KDBQ DBQ20060203130511702/03/06 13:05:31  5-MIN KDBQ 031905Z 28013KT 7SM BKN010 OVC014 M01/M04 A2968 1300 78 -300 280/13 RMK AO2 CIG 009V012
94908KDBQ DBQ20060203131010402/03/06 13:10:31  5-MIN KDBQ 031910Z 29017G21KT 7SM OVC012 M01/M04 A2968 1300 75 -200 290/17G21 RMK AO2
94908KDBQ DBQ20060203131510402/03/06 13:15:31  5-MIN KDBQ 031915Z 28017G21KT 9SM OVC012 M01/M04 A2969 1300 78 -300 280/17G21 RMK AO2
94908KDBQ DBQ20060203132009902/03/06 13:20:31  5-MIN KDBQ 031920Z 29018KT 10SM OVC012 M01/M05 A2969 1290 75 -300 280/18 RMK AO2
94908KDBQ DBQ20060203132509902/03/06 13:25:31  5-MIN KDBQ 031925Z 29016KT 10SM OVC012 M01/M05 A2969 1290 75 -300 280/16 RMK AO2
94908KDBQ DBQ20060203133010502/03/06 13:30:31  5-MIN KDBQ 031930Z 28016G21KT 10SM OVC012 M01/M05 A2969 1290 75 -300 280/16G21 RMK AO2
94908KDBQ DBQ20060203133510502/03/06 13:35:31  5-MIN KDBQ 031935Z 28016G21KT 10SM OVC012 M01/M05 A2969 1290 75 -300 280/16G21 RMK AO2
94908KDBQ DBQ20060203134009902/03/06 13:40:31  5-MIN KDBQ 031940Z 28015KT 10SM OVC012 M01/M05 A2970 1290 75 -300 280/15 RMK AO2
94908KDBQ DBQ20060203134510502/03/06 13:45:31  5-MIN KDBQ 031945Z 29015G21KT 10SM OVC012 M01/M05 A2970 1290 75 -300 280/15G21 RMK AO2
94908KDBQ DBQ20060203135012202/03/06 13:50:31  5-MIN KDBQ 031950Z 28018G21KT 10SM OVC012 M02/M05 A2970 1290 78 -400 280/18G21 RMK AO2 SLP067 T10171050
94908KDBQ DBQ20060203135511502/03/06 13:55:31  5-MIN KDBQ 031955Z 29014KT 9SM OVC012 M02/M05 A2970 1290 78 -400 290/14 RMK AO2 SLP067 T10171050
94908KDBQ DBQ20060203140010502/03/06 14:00:31  5-MIN KDBQ 032000Z 29013G20KT 10SM OVC012 M02/M05 A2970 1290 78 -300 290/13G20 RMK AO2
94908KDBQ DBQ20060203140509902/03/06 14:05:31  5-MIN KDBQ 032005Z 30017KT 10SM OVC012 M01/M05 A2970 1290 75 -300 290/17 RMK AO2
94908KDBQ DBQ20060203141010502/03/06 14:10:31  5-MIN KDBQ 032010Z 28016G20KT 10SM OVC012 M02/M05 A2970 1280 78 -400 280/16G20 RMK AO2
94908KDBQ DBQ20060203141509902/03/06 14:15:31  5-MIN KDBQ 032015Z 28015KT 10SM OVC012 M02/M06 A2970 1280 75 -400 280/15 RMK AO2
94908KDBQ DBQ20060203142009902/03/06 14:20:31  5-MIN KDBQ 032020Z 28015KT 10SM OVC012 M02/M06 A2970 1280 78 -400 280/15 RMK AO2
94908KDBQ DBQ20060203142509902/03/06 14:25:31  5-MIN KDBQ 032025Z 29013KT 10SM OVC012 M02/M05 A2971 1280 78 -400 290/13 RMK AO2
94908KDBQ DBQ20060203143009902/03/06 14:30:31  5-MIN KDBQ 032030Z 30012KT 10SM OVC012 M02/M06 A2971 1270 78 -400 300/12 RMK AO2
94908KDBQ DBQ20060203143509902/03/06 14:35:31  5-MIN KDBQ 032035Z 30011KT 10SM OVC012 M02/M06 A2971 1270 78 -400 300/11 RMK AO2
94908KDBQ DBQ20060203144009902/03/06 14:40:31  5-MIN KDBQ 032040Z 29013KT 10SM OVC012 M02/M05 A2971 1270 81 -400 290/13 RMK AO2
94908KDBQ DBQ20060203144509902/03/06 14:45:31  5-MIN KDBQ 032045Z 31013KT 10SM OVC012 M02/M05 A2971 1270 78 -400 310/13 RMK AO2
94908KDBQ DBQ20060203145012202/03/06 14:50:31  5-MIN KDBQ 032050Z 29015KT 10SM OVC012 M02/M06 A2971 1270 78 -400 290/15 RMK AO2 SLP073 T10221056 51015
94908KDBQ DBQ20060203145512202/03/06 14:55:31  5-MIN KDBQ 032055Z 30015KT 10SM OVC012 M02/M06 A2972 1270 78 -400 300/15 RMK AO2 SLP073 T10221056 53016
94908KDBQ DBQ20060203150009902/03/06 15:00:31  5-MIN KDBQ 032100Z 29014KT 10SM OVC012 M02/M06 A2972 1270 78 -400 290/14 RMK AO2
94908KDBQ DBQ20060203150509902/03/06 15:05:31  5-MIN KDBQ 032105Z 30014KT 10SM OVC012 M02/M06 A2972 1270 78 -400 300/14 RMK AO2
94908KDBQ DBQ20060203151009802/03/06 15:10:31  5-MIN KDBQ 032110Z 30014KT 9SM OVC012 M02/M06 A2972 1260 78 -400 290/14 RMK AO2
94908KDBQ DBQ20060203151509802/03/06 15:15:31  5-MIN KDBQ 032115Z 30014KT 9SM OVC012 M02/M06 A2972 1260 78 -500 300/14 RMK AO2
94908KDBQ DBQ20060203152009802/03/06 15:20:31  5-MIN KDBQ 032120Z 29011KT 9SM OVC012 M02/M06 A2973 1260 78 -500 290/11 RMK AO2
94908KDBQ DBQ20060203152509802/03/06 15:25:31  5-MIN KDBQ 032125Z 30012KT 9SM OVC012 M02/M05 A2973 1260 81 -500 300/12 RMK AO2
94908KDBQ DBQ20060203153009802/03/06 15:30:31  5-MIN KDBQ 032130Z 30011KT 9SM OVC012 M02/M05 A2973 1250 81 -500 300/11 RMK AO2
94908KDBQ DBQ20060203153509802/03/06 15:35:31  5-MIN KDBQ 032135Z 29013KT 9SM OVC012 M02/M05 A2973 1250 81 -500 290/13 RMK AO2
94908KDBQ DBQ20060203154009802/03/06 15:40:31  5-MIN KDBQ 032140Z 29011KT 9SM OVC012 M02/M06 A2974 1240 78 -500 290/11 RMK AO2
94908KDBQ DBQ20060203154509802/03/06 15:45:31  5-MIN KDBQ 032145Z 28012KT 9SM OVC012 M02/M06 A2975 1240 78 -500 280/12 RMK AO2
94908KDBQ DBQ20060203155011502/03/06 15:50:31  5-MIN KDBQ 032150Z 29010KT 9SM OVC012 M02/M06 A2975 1240 78 -500 290/10 RMK AO2 SLP083 T10221056
94908KDBQ DBQ20060203155511602/03/06 15:55:31  5-MIN KDBQ 032155Z 29010KT 10SM OVC012 M02/M06 A2975 1240 78 -500 290/10 RMK AO2 SLP084 T10221056
94908KDBQ DBQ20060203160009902/03/06 16:00:31  5-MIN KDBQ 032200Z 30012KT 10SM OVC012 M02/M06 A2975 1240 78 -500 300/12 RMK AO2
94908KDBQ DBQ20060203160509902/03/06 16:05:31  5-MIN KDBQ 032205Z 30011KT 10SM OVC012 M02/M06 A2975 1240 78 -500 300/11 RMK AO2
94908KDBQ DBQ20060203161009902/03/06 16:10:31  5-MIN KDBQ 032210Z 29011KT 10SM OVC012 M02/M06 A2975 1240 78 -500 290/11 RMK AO2
94908KDBQ DBQ20060203161509902/03/06 16:15:31  5-MIN KDBQ 032215Z 29009KT 10SM OVC012 M02/M06 A2975 1240 78 -500 290/09 RMK AO2
94908KDBQ DBQ20060203162009902/03/06 16:20:31  5-MIN KDBQ 032220Z 28012KT 10SM OVC012 M02/M06 A2975 1230 78 -500 280/12 RMK AO2
94908KDBQ DBQ20060203162509902/03/06 16:25:31  5-MIN KDBQ 032225Z 29010KT 10SM OVC012 M02/M06 A2975 1230 78 -500 290/10 RMK AO2
94908KDBQ DBQ20060203163009902/03/06 16:30:31  5-MIN KDBQ 032230Z 30011KT 10SM OVC012 M02/M06 A2975 1230 78 -500 300/11 RMK AO2
94908KDBQ DBQ20060203163509902/03/06 16:35:31  5-MIN KDBQ 032235Z 29014KT 10SM OVC012 M02/M06 A2975 1230 78 -500 290/14 RMK AO2
94908KDBQ DBQ20060203164009802/03/06 16:40:31  5-MIN KDBQ 032240Z 30012KT 9SM OVC014 M02/M06 A2976 1230 78 -500 300/12 RMK AO2
94908KDBQ DBQ20060203164509802/03/06 16:45:31  5-MIN KDBQ 032245Z 30012KT 9SM OVC014 M02/M06 A2976 1230 78 -500 300/12 RMK AO2
94908KDBQ DBQ20060203165011502/03/06 16:50:31  5-MIN KDBQ 032250Z 30013KT 9SM OVC014 M02/M06 A2976 1230 78 -500 300/13 RMK AO2 SLP087 T10221056
94908KDBQ DBQ20060203165511502/03/06 16:55:31  5-MIN KDBQ 032255Z 30014KT 9SM OVC016 M02/M06 A2976 1230 78 -500 300/14 RMK AO2 SLP088 T10221056
94908KDBQ DBQ20060203170009802/03/06 17:00:31  5-MIN KDBQ 032300Z 30012KT 9SM OVC016 M02/M06 A2976 1230 78 -500 300/12 RMK AO2
94908KDBQ DBQ20060203170509802/03/06 17:05:31  5-MIN KDBQ 032305Z 30013KT 9SM OVC018 M02/M06 A2977 1220 78 -500 300/13 RMK AO2
94908KDBQ DBQ20060203171009802/03/06 17:10:31  5-MIN KDBQ 032310Z 30013KT 9SM OVC018 M02/M06 A2977 1220 78 -500 290/13 RMK AO2
94908KDBQ DBQ20060203171510602/03/06 17:15:31  5-MIN KDBQ 032315Z 30011KT 10SM BKN018 OVC026 M02/M06 A2977 1220 78 -500 300/11 RMK AO2
94908KDBQ DBQ20060203172010602/03/06 17:20:31  5-MIN KDBQ 032320Z 29010KT 10SM BKN020 OVC026 M02/M06 A2977 1220 78 -500 290/10 RMK AO2
94908KDBQ DBQ20060203172510602/03/06 17:25:31  5-MIN KDBQ 032325Z 29011KT 10SM FEW015 OVC020 M02/M06 A2977 1210 78 -500 290/11 RMK AO2
94908KDBQ DBQ20060203173010602/03/06 17:30:31  5-MIN KDBQ 032330Z 29012KT 10SM SCT015 OVC020 M02/M06 A2978 1210 78 -500 280/12 RMK AO2
94908KDBQ DBQ20060203173510602/03/06 17:35:31  5-MIN KDBQ 032335Z 29014KT 10SM BKN015 OVC020 M02/M06 A2978 1210 78 -500 290/14 RMK AO2
94908KDBQ DBQ20060203174010602/03/06 17:40:31  5-MIN KDBQ 032340Z 29013KT 10SM BKN015 OVC020 M02/M06 A2978 1210 78 -500 290/13 RMK AO2
94908KDBQ DBQ20060203174509902/03/06 17:45:31  5-MIN KDBQ 032345Z 29012KT 10SM OVC015 M02/M06 A2978 1210 78 -500 290/12 RMK AO2
94908KDBQ DBQ20060203175013402/03/06 17:50:31  5-MIN KDBQ 032350Z 29013KT 10SM OVC015 M02/M06 A2979 1200 78 -500 290/13 RMK AO2 SLP097 T10221056 10006 21022 53016
94908KDBQ DBQ20060203175513402/03/06 17:55:31  5-MIN KDBQ 032355Z 29011KT 10SM OVC015 M02/M06 A2979 1200 78 -500 290/11 RMK AO2 SLP098 T10221056 10006 21022 51024
94908KDBQ DBQ20060203180010602/03/06 18:00:31  5-MIN KDBQ 040000Z 30013KT 10SM BKN015 OVC033 M03/M06 A2979 1200 81 -600 300/13 RMK AO2
94908KDBQ DBQ20060203180509902/03/06 18:05:31  5-MIN KDBQ 040005Z 29014KT 10SM OVC015 M03/M06 A2979 1200 81 -600 290/14 RMK AO2
94908KDBQ DBQ20060203181009902/03/06 18:10:31  5-MIN KDBQ 040010Z 29011KT 10SM OVC015 M03/M06 A2980 1190 81 -600 290/11 RMK AO2
94908KDBQ DBQ20060203181510602/03/06 18:15:31  5-MIN KDBQ 040015Z 30012KT 10SM BKN015 OVC032 M03/M06 A2980 1190 81 -600 300/12 RMK AO2
94908KDBQ DBQ20060203182010602/03/06 18:20:31  5-MIN KDBQ 040020Z 30016KT 10SM BKN015 OVC032 M03/M06 A2980 1190 81 -600 300/16 RMK AO2
94908KDBQ DBQ20060203182510602/03/06 18:25:31  5-MIN KDBQ 040025Z 30013KT 10SM BKN015 OVC032 M03/M06 A2980 1190 78 -600 300/13 RMK AO2
94908KDBQ DBQ20060203183010602/03/06 18:30:31  5-MIN KDBQ 040030Z 31013KT 10SM BKN015 OVC029 M03/M06 A2981 1180 78 -600 300/13 RMK AO2
94908KDBQ DBQ20060203183510602/03/06 18:35:31  5-MIN KDBQ 040035Z 30014KT 10SM BKN015 OVC029 M03/M06 A2980 1190 78 -600 300/14 RMK AO2
94908KDBQ DBQ20060203184010602/03/06 18:40:31  5-MIN KDBQ 040040Z 30014KT 10SM BKN015 OVC029 M03/M06 A2981 1180 78 -600 300/14 RMK AO2
94908KDBQ DBQ20060203184510602/03/06 18:45:31  5-MIN KDBQ 040045Z 30014KT 10SM BKN015 OVC029 M03/M06 A2981 1180 78 -600 290/14 RMK AO2
94908KDBQ DBQ20060203185011602/03/06 18:50:31  5-MIN KDBQ 040050Z 30014KT 10SM OVC015 M03/M07 A2981 1180 75 -600 300/14 RMK AO2 SLP108 T10281067
94908KDBQ DBQ20060203185511602/03/06 18:55:31  5-MIN KDBQ 040055Z 31011KT 10SM OVC017 M03/M07 A2981 1180 75 -600 310/11 RMK AO2 SLP108 T10281067
94908KDBQ DBQ20060203190010602/03/06 19:00:31  5-MIN KDBQ 040100Z 30013KT 10SM BKN017 OVC028 M03/M07 A2981 1180 75 -600 300/13 RMK AO2
94908KDBQ DBQ20060203190510602/03/06 19:05:31  5-MIN KDBQ 040105Z 31011KT 10SM BKN017 OVC028 M03/M07 A2981 1180 75 -600 310/11 RMK AO2
94908KDBQ DBQ20060203191010602/03/06 19:10:31  5-MIN KDBQ 040110Z 30010KT 10SM BKN017 OVC028 M03/M06 A2982 1170 78 -600 300/10 RMK AO2
94908KDBQ DBQ20060203191510602/03/06 19:15:31  5-MIN KDBQ 040115Z 29009KT 10SM BKN017 OVC028 M03/M06 A2982 1170 78 -600 290/09 RMK AO2
94908KDBQ DBQ20060203192010602/03/06 19:20:31  5-MIN KDBQ 040120Z 30012KT 10SM BKN017 OVC028 M03/M06 A2982 1170 81 -700 290/12 RMK AO2
94908KDBQ DBQ20060203192510602/03/06 19:25:31  5-MIN KDBQ 040125Z 30014KT 10SM BKN015 OVC028 M03/M06 A2982 1170 81 -700 300/14 RMK AO2
94908KDBQ DBQ20060203193010602/03/06 19:30:31  5-MIN KDBQ 040130Z 30015KT 10SM BKN015 OVC019 M03/M07 A2982 1170 78 -700 300/15 RMK AO2
94908KDBQ DBQ20060203193509902/03/06 19:35:31  5-MIN KDBQ 040135Z 31015KT 10SM OVC015 M03/M07 A2982 1170 78 -700 310/15 RMK AO2
94908KDBQ DBQ20060203195512602/03/06 19:55:31  5-MIN KDBQ 040155Z AUTO 32014KT 10SM OVC015 M04/M07 A2983 1160 78 -800 320/14 RMK AO2 SLP114 T10391072 TSNO
94908KDBQ DBQ20060203200010902/03/06 20:00:31  5-MIN KDBQ 040200Z AUTO 33015KT 10SM OVC015 M04/M07 A2983 1160 78 -800 330/15 RMK AO2 TSNO
94908KDBQ DBQ20060203200511502/03/06 20:05:31  5-MIN KDBQ 040205Z AUTO 33011G19KT 10SM OVC015 M04/M07 A2983 1160 78 -800 320/11G19 RMK AO2 TSNO
94908KDBQ DBQ20060203201010902/03/06 20:10:31  5-MIN KDBQ 040210Z AUTO 32012KT 10SM OVC015 M04/M07 A2983 1160 78 -800 320/12 RMK AO2 TSNO
94908KDBQ DBQ20060203201510902/03/06 20:15:31  5-MIN KDBQ 040215Z AUTO 32014KT 10SM OVC013 M04/M07 A2983 1160 78 -800 320/14 RMK AO2 TSNO
94908KDBQ DBQ20060203202010902/03/06 20:20:31  5-MIN KDBQ 040220Z AUTO 33014KT 10SM OVC013 M04/M07 A2984 1160 78 -800 330/14 RMK AO2 TSNO
94908KDBQ DBQ20060203202510902/03/06 20:25:31  5-MIN KDBQ 040225Z AUTO 33012KT 10SM OVC013 M04/M07 A2984 1150 78 -800 330/12 RMK AO2 TSNO
94908KDBQ DBQ20060203203010902/03/06 20:30:31  5-MIN KDBQ 040230Z AUTO 32012KT 10SM OVC013 M04/M07 A2984 1150 78 -800 320/12 RMK AO2 TSNO
94908KDBQ DBQ20060203203510902/03/06 20:35:31  5-MIN KDBQ 040235Z AUTO 33011KT 10SM OVC013 M04/M07 A2984 1150 81 -900 320/11 RMK AO2 TSNO
94908KDBQ DBQ20060203204010902/03/06 20:40:31  5-MIN KDBQ 040240Z AUTO 33014KT 10SM OVC013 M04/M07 A2984 1150 78 -800 330/14 RMK AO2 TSNO
94908KDBQ DBQ20060203204510902/03/06 20:45:31  5-MIN KDBQ 040245Z AUTO 33014KT 10SM OVC013 M04/M07 A2984 1150 81 -900 330/14 RMK AO2 TSNO
94908KDBQ DBQ20060203205013202/03/06 20:50:31  5-MIN KDBQ 040250Z AUTO 33014KT 10SM OVC013 M04/M07 A2985 1150 81 -900 330/14 RMK AO2 SLP119 T10441072 51024 TSNO
94908KDBQ DBQ20060203205513202/03/06 20:55:31  5-MIN KDBQ 040255Z AUTO 32011KT 10SM OVC013 M04/M07 A2985 1140 81 -900 320/11 RMK AO2 SLP120 T10441072 51020 TSNO
94908KDBQ DBQ20060203210010902/03/06 21:00:31  5-MIN KDBQ 040300Z AUTO 32010KT 10SM OVC013 M04/M07 A2985 1140 81 -900 320/10 RMK AO2 TSNO
94908KDBQ DBQ20060203210510902/03/06 21:05:31  5-MIN KDBQ 040305Z AUTO 33012KT 10SM OVC013 M04/M07 A2985 1140 81 -900 330/12 RMK AO2 TSNO
94908KDBQ DBQ20060203211010902/03/06 21:10:31  5-MIN KDBQ 040310Z AUTO 32013KT 10SM OVC013 M04/M08 A2985 1140 78 -900 320/13 RMK AO2 TSNO
94908KDBQ DBQ20060203211510902/03/06 21:15:31  5-MIN KDBQ 040315Z AUTO 32015KT 10SM OVC013 M04/M08 A2985 1140 78 -900 320/15 RMK AO2 TSNO
94908KDBQ DBQ20060203212010902/03/06 21:20:31  5-MIN KDBQ 040320Z AUTO 32015KT 10SM OVC013 M04/M08 A2985 1140 78 -900 320/15 RMK AO2 TSNO
94908KDBQ DBQ20060203212510902/03/06 21:25:31  5-MIN KDBQ 040325Z AUTO 33013KT 10SM OVC013 M04/M08 A2985 1140 78 -900 330/13 RMK AO2 TSNO
94908KDBQ DBQ20060203213010902/03/06 21:30:31  5-MIN KDBQ 040330Z AUTO 33012KT 10SM OVC013 M04/M08 A2985 1140 78 -900 320/12 RMK AO2 TSNO
94908KDBQ DBQ20060203213510902/03/06 21:35:31  5-MIN KDBQ 040335Z AUTO 32013KT 10SM OVC013 M04/M08 A2985 1150 78 -900 320/13 RMK AO2 TSNO
94908KDBQ DBQ20060203214010902/03/06 21:40:31  5-MIN KDBQ 040340Z AUTO 32012KT 10SM OVC013 M04/M08 A2985 1150 78 -900 320/12 RMK AO2 TSNO
94908KDBQ DBQ20060203214510902/03/06 21:45:31  5-MIN KDBQ 040345Z AUTO 32013KT 10SM OVC013 M04/M08 A2985 1150 78 -900 320/13 RMK AO2 TSNO
94908KDBQ DBQ20060203215012602/03/06 21:50:31  5-MIN KDBQ 040350Z AUTO 32013KT 10SM OVC013 M04/M08 A2985 1150 78 -900 320/13 RMK AO2 SLP120 T10441078 TSNO
94908KDBQ DBQ20060203215512602/03/06 21:55:31  5-MIN KDBQ 040355Z AUTO 33012KT 10SM OVC013 M04/M08 A2985 1150 78 -900 320/12 RMK AO2 SLP120 T10441078 TSNO
94908KDBQ DBQ20060203220010902/03/06 22:00:31  5-MIN KDBQ 040400Z AUTO 33008KT 10SM OVC015 M04/M08 A2985 1140 78 -900 330/08 RMK AO2 TSNO
94908KDBQ DBQ20060203220510902/03/06 22:05:31  5-MIN KDBQ 040405Z AUTO 33011KT 10SM OVC015 M04/M08 A2985 1140 78 -900 330/11 RMK AO2 TSNO
94908KDBQ DBQ20060203221010902/03/06 22:10:31  5-MIN KDBQ 040410Z AUTO 33012KT 10SM OVC015 M04/M08 A2985 1150 78 -900 330/12 RMK AO2 TSNO
94908KDBQ DBQ20060203221510902/03/06 22:15:31  5-MIN KDBQ 040415Z AUTO 32010KT 10SM OVC015 M04/M08 A2985 1150 78 -900 320/10 RMK AO2 TSNO
94908KDBQ DBQ20060203222011002/03/06 22:20:31  5-MIN KDBQ 040420Z AUTO 32013KT 10SM OVC015 M05/M08 A2985 1150 81 -1000 320/13 RMK AO2 TSNO
94908KDBQ DBQ20060203222511002/03/06 22:25:31  5-MIN KDBQ 040425Z AUTO 33012KT 10SM OVC015 M05/M08 A2985 1140 81 -1000 330/12 RMK AO2 TSNO
94908KDBQ DBQ20060203223010902/03/06 22:30:31  5-MIN KDBQ 040430Z AUTO 33013KT 10SM OVC015 M05/M08 A2985 1150 77 -900 330/13 RMK AO2 TSNO
94908KDBQ DBQ20060203223510902/03/06 22:35:31  5-MIN KDBQ 040435Z AUTO 32012KT 10SM OVC015 M05/M08 A2985 1150 77 -900 320/12 RMK AO2 TSNO
94908KDBQ DBQ20060203224011002/03/06 22:40:31  5-MIN KDBQ 040440Z AUTO 33012KT 10SM OVC015 M05/M08 A2985 1140 77 -1000 330/12 RMK AO2 TSNO
94908KDBQ DBQ20060203224511002/03/06 22:45:31  5-MIN KDBQ 040445Z AUTO 33011KT 10SM OVC015 M05/M08 A2985 1140 77 -1000 330/11 RMK AO2 TSNO
94908KDBQ DBQ20060203225012702/03/06 22:50:31  5-MIN KDBQ 040450Z AUTO 34012KT 10SM OVC015 M06/M09 A2985 1140 77 -1000 340/12 RMK AO2 SLP123 T10561089 TSNO
94908KDBQ DBQ20060203225512702/03/06 22:55:31  5-MIN KDBQ 040455Z AUTO 33013KT 10SM OVC015 M06/M09 A2986 1140 77 -1000 330/13 RMK AO2 SLP123 T10561089 TSNO
94908KDBQ DBQ20060203230011002/03/06 23:00:31  5-MIN KDBQ 040500Z AUTO 33014KT 10SM OVC015 M06/M09 A2986 1140 77 -1000 330/14 RMK AO2 TSNO
94908KDBQ DBQ20060203230511002/03/06 23:05:31  5-MIN KDBQ 040505Z AUTO 32013KT 10SM OVC015 M06/M09 A2986 1140 77 -1000 320/13 RMK AO2 TSNO
94908KDBQ DBQ20060203231011002/03/06 23:10:31  5-MIN KDBQ 040510Z AUTO 33010KT 10SM OVC015 M06/M09 A2985 1140 77 -1000 320/10 RMK AO2 TSNO
94908KDBQ DBQ20060203231511002/03/06 23:15:31  5-MIN KDBQ 040515Z AUTO 32012KT 10SM OVC015 M06/M09 A2986 1140 77 -1000 320/12 RMK AO2 TSNO
94908KDBQ DBQ20060203232011002/03/06 23:20:31  5-MIN KDBQ 040520Z AUTO 33010KT 10SM OVC015 M06/M09 A2986 1140 77 -1100 330/10 RMK AO2 TSNO
94908KDBQ DBQ20060203232511002/03/06 23:25:31  5-MIN KDBQ 040525Z AUTO 32012KT 10SM OVC017 M06/M09 A2986 1130 77 -1100 320/12 RMK AO2 TSNO
94908KDBQ DBQ20060203233011002/03/06 23:30:31  5-MIN KDBQ 040530Z AUTO 33011KT 10SM OVC017 M06/M09 A2986 1130 77 -1100 330/11 RMK AO2 TSNO
94908KDBQ DBQ20060203233511002/03/06 23:35:31  5-MIN KDBQ 040535Z AUTO 33009KT 10SM OVC019 M06/M09 A2986 1130 77 -1100 330/09 RMK AO2 TSNO
94908KDBQ DBQ20060203234011702/03/06 23:40:31  5-MIN KDBQ 040540Z AUTO 31012KT 10SM FEW016 OVC021 M07/M09 A2987 1130 81 -1200 310/12 RMK AO2 TSNO
94908KDBQ DBQ20060203234511702/03/06 23:45:31  5-MIN KDBQ 040545Z AUTO 32012KT 10SM BKN021 OVC039 M07/M10 A2987 1130 77 -1200 320/12 RMK AO2 TSNO
94908KDBQ DBQ20060203235016902/03/06 23:50:31  5-MIN KDBQ 040550Z AUTO 32011KT 10SM FEW016 BKN021 OVC039 M07/M10 A2987 1130 77 -1200 320/11 RMK AO2 SLP128 T10671100 11022 21067 400501067 51020 TSNO
94908KDBQ DBQ20060203235516202/03/06 23:55:31  5-MIN KDBQ 040555Z AUTO 32010KT 10SM SCT021 OVC039 M07/M10 A2987 1130 77 -1200 320/10 RMK AO2 SLP128 T10671100 11022 21067 400501067 53005 TSNO
94908KDBQ DBQ20060204000011702/04/06 00:00:38  5-MIN KDBQ 040600Z AUTO 33010KT 10SM FEW021 OVC039 M07/M10 A2987 1130 77 -1200 330/10 RMK AO2 TSNO
94908KDBQ DBQ20060204000511702/04/06 00:05:31  5-MIN KDBQ 040605Z AUTO 33011KT 10SM FEW021 OVC039 M07/M10 A2986 1130 77 -1200 330/11 RMK AO2 TSNO
94908KDBQ DBQ20060204001011002/04/06 00:10:31  5-MIN KDBQ 040610Z AUTO 33012KT 10SM OVC039 M07/M10 A2987 1130 77 -1200 330/12 RMK AO2 TSNO
94908KDBQ DBQ20060204001511002/04/06 00:15:32  5-MIN KDBQ 040615Z AUTO 33012KT 10SM OVC039 M07/M10 A2987 1130 77 -1200 330/12 RMK AO2 TSNO
94908KDBQ DBQ20060204002011002/04/06 00:20:31  5-MIN KDBQ 040620Z AUTO 32012KT 10SM OVC039 M07/M10 A2987 1130 77 -1200 320/12 RMK AO2 TSNO
94908KDBQ DBQ20060204002511002/04/06 00:25:31  5-MIN KDBQ 040625Z AUTO 33010KT 10SM OVC039 M07/M10 A2987 1130 77 -1200 320/10 RMK AO2 TSNO
94908KDBQ DBQ20060204003011002/04/06 00:30:31  5-MIN KDBQ 040630Z AUTO 32012KT 10SM OVC039 M07/M10 A2987 1130 77 -1200 320/12 RMK AO2 TSNO
94908KDBQ DBQ20060204003511002/04/06 00:35:31  5-MIN KDBQ 040635Z AUTO 33012KT 10SM OVC039 M07/M10 A2987 1130 77 -1200 330/12 RMK AO2 TSNO
94908KDBQ DBQ20060204004011002/04/06 00:40:31  5-MIN KDBQ 040640Z AUTO 33014KT 10SM OVC037 M07/M10 A2987 1130 77 -1200 330/14 RMK AO2 TSNO
94908KDBQ DBQ20060204004511002/04/06 00:45:31  5-MIN KDBQ 040645Z AUTO 33012KT 10SM OVC037 M07/M10 A2987 1130 77 -1200 330/12 RMK AO2 TSNO
94908KDBQ DBQ20060204005012702/04/06 00:50:31  5-MIN KDBQ 040650Z AUTO 33013KT 10SM OVC035 M07/M10 A2987 1130 77 -1200 330/13 RMK AO2 SLP129 T10671100 TSNO
94908KDBQ DBQ20060204005512702/04/06 00:55:31  5-MIN KDBQ 040655Z AUTO 33012KT 10SM OVC035 M07/M11 A2987 1130 74 -1200 330/12 RMK AO2 SLP130 T10671106 TSNO
94908KDBQ DBQ20060204010011002/04/06 01:00:31  5-MIN KDBQ 040700Z AUTO 32014KT 10SM OVC035 M07/M10 A2987 1130 77 -1200 320/14 RMK AO2 TSNO
94908KDBQ DBQ20060204010511002/04/06 01:05:31  5-MIN KDBQ 040705Z AUTO 32012KT 10SM OVC035 M07/M10 A2987 1130 77 -1200 320/12 RMK AO2 TSNO
94908KDBQ DBQ20060204011011002/04/06 01:10:31  5-MIN KDBQ 040710Z AUTO 33014KT 10SM OVC035 M07/M10 A2987 1130 77 -1200 330/14 RMK AO2 TSNO
94908KDBQ DBQ20060204011511002/04/06 01:15:31  5-MIN KDBQ 040715Z AUTO 32015KT 10SM OVC035 M07/M11 A2987 1130 74 -1200 320/15 RMK AO2 TSNO
94908KDBQ DBQ20060204012011002/04/06 01:20:31  5-MIN KDBQ 040720Z AUTO 33014KT 10SM OVC033 M07/M11 A2987 1130 74 -1200 330/14 RMK AO2 TSNO
94908KDBQ DBQ20060204012511002/04/06 01:25:31  5-MIN KDBQ 040725Z AUTO 33013KT 10SM OVC033 M07/M11 A2987 1130 74 -1200 330/13 RMK AO2 TSNO
94908KDBQ DBQ20060204013011702/04/06 01:30:31  5-MIN KDBQ 040730Z AUTO 34012KT 10SM BKN033 OVC041 M07/M11 A2987 1130 74 -1200 330/12 RMK AO2 TSNO
94908KDBQ DBQ20060204013511702/04/06 01:35:31  5-MIN KDBQ 040735Z AUTO 34014KT 10SM BKN033 OVC041 M07/M11 A2987 1130 77 -1300 340/14 RMK AO2 TSNO
94908KDBQ DBQ20060204014011702/04/06 01:40:31  5-MIN KDBQ 040740Z AUTO 33013KT 10SM SCT033 OVC041 M07/M11 A2987 1120 77 -1300 330/13 RMK AO2 TSNO
94908KDBQ DBQ20060204014511702/04/06 01:45:31  5-MIN KDBQ 040745Z AUTO 34013KT 10SM SCT033 OVC041 M07/M11 A2987 1120 77 -1300 340/13 RMK AO2 TSNO
94908KDBQ DBQ20060204015014102/04/06 01:50:31  5-MIN KDBQ 040750Z AUTO 33013KT 10SM FEW033 BKN041 OVC050 M07/M11 A2987 1120 77 -1300 320/13 RMK AO2 SLP131 T10721106 TSNO
94908KDBQ DBQ20060204015513402/04/06 01:55:31  5-MIN KDBQ 040755Z AUTO 33012KT 10SM BKN041 OVC050 M07/M11 A2987 1120 74 -1300 330/12 RMK AO2 SLP131 T10721111 TSNO
94908KDBQ DBQ20060204020011702/04/06 02:00:31  5-MIN KDBQ 040800Z AUTO 33012KT 10SM SCT041 OVC050 M07/M11 A2987 1120 77 -1300 320/12 RMK AO2 TSNO
94908KDBQ DBQ20060204020511702/04/06 02:05:31  5-MIN KDBQ 040805Z AUTO 33012KT 10SM SCT041 OVC050 M07/M11 A2988 1120 77 -1300 330/12 RMK AO2 TSNO
94908KDBQ DBQ20060204021011702/04/06 02:10:31  5-MIN KDBQ 040810Z AUTO 33014KT 10SM SCT041 OVC050 M07/M11 A2988 1120 77 -1300 330/14 RMK AO2 TSNO
94908KDBQ DBQ20060204021511702/04/06 02:15:31  5-MIN KDBQ 040815Z AUTO 33014KT 10SM SCT043 OVC050 M07/M11 A2988 1120 74 -1300 330/14 RMK AO2 TSNO
94908KDBQ DBQ20060204022011702/04/06 02:20:31  5-MIN KDBQ 040820Z AUTO 33012KT 10SM SCT043 OVC050 M07/M11 A2988 1120 74 -1300 330/12 RMK AO2 TSNO
94908KDBQ DBQ20060204022511702/04/06 02:25:31  5-MIN KDBQ 040825Z AUTO 34015KT 10SM BKN043 OVC050 M07/M11 A2988 1120 74 -1300 330/15 RMK AO2 TSNO
94908KDBQ DBQ20060204023011702/04/06 02:30:31  5-MIN KDBQ 040830Z AUTO 34013KT 10SM BKN043 OVC050 M07/M11 A2987 1120 74 -1300 340/13 RMK AO2 TSNO
94908KDBQ DBQ20060204023511002/04/06 02:35:31  5-MIN KDBQ 040835Z AUTO 34017KT 10SM OVC043 M07/M11 A2988 1120 77 -1300 340/17 RMK AO2 TSNO
94908KDBQ DBQ20060204024011602/04/06 02:40:31  5-MIN KDBQ 040840Z AUTO 33013G19KT 10SM OVC043 M07/M11 A2988 1120 74 -1300 330/13G19 RMK AO2 TSNO
94908KDBQ DBQ20060204024511002/04/06 02:45:31  5-MIN KDBQ 040845Z AUTO 34015KT 10SM OVC043 M07/M11 A2988 1120 77 -1300 330/15 RMK AO2 TSNO
94908KDBQ DBQ20060204025013302/04/06 02:50:31  5-MIN KDBQ 040850Z AUTO 34013KT 10SM OVC043 M07/M11 A2988 1120 74 -1300 340/13 RMK AO2 SLP132 T10721111 53005 TSNO
94908KDBQ DBQ20060204025513302/04/06 02:55:31  5-MIN KDBQ 040855Z AUTO 33015KT 10SM OVC043 M07/M11 A2988 1120 74 -1300 330/15 RMK AO2 SLP132 T10721111 52004 TSNO
94908KDBQ DBQ20060204030011002/04/06 03:00:31  5-MIN KDBQ 040900Z AUTO 33013KT 10SM OVC043 M07/M11 A2988 1120 74 -1300 330/13 RMK AO2 TSNO
94908KDBQ DBQ20060204030511002/04/06 03:05:31  5-MIN KDBQ 040905Z AUTO 34011KT 10SM OVC043 M07/M11 A2988 1120 74 -1300 340/11 RMK AO2 TSNO
94908KDBQ DBQ20060204031011002/04/06 03:10:31  5-MIN KDBQ 040910Z AUTO 33012KT 10SM OVC043 M07/M11 A2988 1120 74 -1300 330/12 RMK AO2 TSNO
94908KDBQ DBQ20060204031511002/04/06 03:15:31  5-MIN KDBQ 040915Z AUTO 34012KT 10SM OVC043 M07/M11 A2988 1120 74 -1300 340/12 RMK AO2 TSNO
94908KDBQ DBQ20060204032011002/04/06 03:20:31  5-MIN KDBQ 040920Z AUTO 34011KT 10SM OVC043 M07/M11 A2988 1120 74 -1300 340/11 RMK AO2 TSNO
94908KDBQ DBQ20060204032511002/04/06 03:25:31  5-MIN KDBQ 040925Z AUTO 35010KT 10SM OVC041 M07/M11 A2988 1120 74 -1300 350/10 RMK AO2 TSNO
94908KDBQ DBQ20060204033011002/04/06 03:30:31  5-MIN KDBQ 040930Z AUTO 35009KT 10SM OVC041 M07/M11 A2988 1120 74 -1300 350/09 RMK AO2 TSNO
94908KDBQ DBQ20060204033511002/04/06 03:35:31  5-MIN KDBQ 040935Z AUTO 35011KT 10SM OVC041 M07/M11 A2988 1120 74 -1300 350/11 RMK AO2 TSNO
94908KDBQ DBQ20060204034011002/04/06 03:40:31  5-MIN KDBQ 040940Z AUTO 35011KT 10SM OVC039 M07/M11 A2988 1120 74 -1300 350/11 RMK AO2 TSNO
94908KDBQ DBQ20060204034511002/04/06 03:45:31  5-MIN KDBQ 040945Z AUTO 34012KT 10SM OVC039 M07/M11 A2988 1110 74 -1300 340/12 RMK AO2 TSNO
94908KDBQ DBQ20060204035012702/04/06 03:50:31  5-MIN KDBQ 040950Z AUTO 36009KT 10SM OVC039 M07/M11 A2988 1110 74 -1300 350/09 RMK AO2 SLP135 T10721111 TSNO
94908KDBQ DBQ20060204035513402/04/06 03:55:31  5-MIN KDBQ 040955Z AUTO 35010KT 10SM SCT031 OVC039 M07/M11 A2988 1110 74 -1300 350/10 RMK AO2 SLP135 T10721111 TSNO
94908KDBQ DBQ20060204040011702/04/06 04:00:31  5-MIN KDBQ 041000Z AUTO 35011KT 10SM BKN031 OVC039 M07/M11 A2988 1110 74 -1300 350/11 RMK AO2 TSNO
94908KDBQ DBQ20060204040511702/04/06 04:05:31  5-MIN KDBQ 041005Z AUTO 35011KT 10SM BKN031 OVC039 M07/M11 A2988 1110 74 -1300 350/11 RMK AO2 TSNO
94908KDBQ DBQ20060204041011702/04/06 04:10:31  5-MIN KDBQ 041010Z AUTO 35013KT 10SM BKN031 OVC039 M07/M11 A2988 1110 74 -1300 340/13 RMK AO2 TSNO
94908KDBQ DBQ20060204041511002/04/06 04:15:31  5-MIN KDBQ 041015Z AUTO 34010KT 10SM OVC031 M07/M11 A2988 1110 74 -1300 340/10 RMK AO2 TSNO
94908KDBQ DBQ20060204042011002/04/06 04:20:31  5-MIN KDBQ 041020Z AUTO 35011KT 10SM OVC031 M07/M11 A2988 1120 77 -1300 340/11 RMK AO2 TSNO
94908KDBQ DBQ20060204042511002/04/06 04:25:31  5-MIN KDBQ 041025Z AUTO 34011KT 10SM OVC031 M07/M11 A2988 1110 77 -1300 340/11 RMK AO2 TSNO
94908KDBQ DBQ20060204043011002/04/06 04:30:31  5-MIN KDBQ 041030Z AUTO 34012KT 10SM OVC031 M07/M11 A2988 1110 74 -1300 340/12 RMK AO2 TSNO
94908KDBQ DBQ20060204043511002/04/06 04:35:31  5-MIN KDBQ 041035Z AUTO 34011KT 10SM OVC031 M07/M11 A2988 1110 77 -1300 340/11 RMK AO2 TSNO
94908KDBQ DBQ20060204044011002/04/06 04:40:31  5-MIN KDBQ 041040Z AUTO 34012KT 10SM OVC031 M07/M11 A2989 1110 74 -1300 340/12 RMK AO2 TSNO
94908KDBQ DBQ20060204044511002/04/06 04:45:31  5-MIN KDBQ 041045Z AUTO 34013KT 10SM OVC031 M07/M11 A2989 1110 74 -1300 340/13 RMK AO2 TSNO
94908KDBQ DBQ20060204045012702/04/06 04:50:31  5-MIN KDBQ 041050Z AUTO 34015KT 10SM OVC031 M07/M11 A2989 1110 74 -1300 340/15 RMK AO2 SLP137 T10721111 TSNO
94908KDBQ DBQ20060204045512702/04/06 04:55:31  5-MIN KDBQ 041055Z AUTO 34014KT 10SM OVC031 M07/M11 A2989 1110 74 -1300 340/14 RMK AO2 SLP137 T10721111 TSNO
94908KDBQ DBQ20060204050011002/04/06 05:00:31  5-MIN KDBQ 041100Z AUTO 34014KT 10SM OVC031 M07/M11 A2989 1110 74 -1300 340/14 RMK AO2 TSNO
94908KDBQ DBQ20060204050511002/04/06 05:05:31  5-MIN KDBQ 041105Z AUTO 34014KT 10SM OVC031 M07/M11 A2989 1100 74 -1300 340/14 RMK AO2 TSNO
94908KDBQ DBQ20060204051011002/04/06 05:10:31  5-MIN KDBQ 041110Z AUTO 34013KT 10SM OVC031 M07/M11 A2989 1100 74 -1300 340/13 RMK AO2 TSNO
94908KDBQ DBQ20060204051511702/04/06 05:15:31  5-MIN KDBQ 041115Z AUTO 34011KT 10SM BKN031 OVC049 M07/M11 A2989 1100 74 -1300 340/11 RMK AO2 TSNO
94908KDBQ DBQ20060204052011702/04/06 05:20:31  5-MIN KDBQ 041120Z AUTO 34010KT 10SM BKN031 OVC049 M07/M11 A2990 1100 74 -1300 340/10 RMK AO2 TSNO
94908KDBQ DBQ20060204052511002/04/06 05:25:31  5-MIN KDBQ 041125Z AUTO 34010KT 10SM OVC031 M07/M11 A2990 1100 74 -1300 340/10 RMK AO2 TSNO
94908KDBQ DBQ20060204053011002/04/06 05:30:31  5-MIN KDBQ 041130Z AUTO 34013KT 10SM OVC031 M07/M11 A2989 1100 74 -1300 340/13 RMK AO2 TSNO
94908KDBQ DBQ20060204053511002/04/06 05:35:31  5-MIN KDBQ 041135Z AUTO 34013KT 10SM OVC031 M07/M11 A2990 1100 74 -1300 330/13 RMK AO2 TSNO
94908KDBQ DBQ20060204054011002/04/06 05:40:31  5-MIN KDBQ 041140Z AUTO 33013KT 10SM OVC031 M07/M11 A2990 1100 74 -1300 330/13 RMK AO2 TSNO
94908KDBQ DBQ20060204054511002/04/06 05:45:31  5-MIN KDBQ 041145Z AUTO 34013KT 10SM OVC033 M07/M11 A2990 1100 74 -1300 340/13 RMK AO2 TSNO
94908KDBQ DBQ20060204055013502/04/06 05:50:31  5-MIN KDBQ 041150Z 34014KT 10SM OVC033 M07/M11 A2990 1100 74 -1300 340/14 RMK AO2 SLP140 T10721111 11067 21072 52004
94908KDBQ DBQ20060204055513502/04/06 05:55:31  5-MIN KDBQ 041155Z 34014KT 10SM OVC033 M07/M11 A2990 1100 74 -1300 340/14 RMK AO2 SLP140 T10721111 11067 21072 53007
94908KDBQ DBQ20060204060010002/04/06 06:00:31  5-MIN KDBQ 041200Z 34015KT 10SM OVC033 M07/M11 A2990 1100 74 -1300 340/15 RMK AO2
94908KDBQ DBQ20060204060510002/04/06 06:05:31  5-MIN KDBQ 041205Z 35015KT 10SM OVC033 M07/M11 A2990 1100 74 -1300 340/15 RMK AO2
94908KDBQ DBQ20060204061010002/04/06 06:10:31  5-MIN KDBQ 041210Z 34014KT 10SM OVC035 M07/M11 A2990 1100 74 -1300 340/14 RMK AO2
94908KDBQ DBQ20060204061510002/04/06 06:15:31  5-MIN KDBQ 041215Z 34012KT 10SM OVC035 M07/M11 A2990 1100 74 -1300 340/12 RMK AO2
94908KDBQ DBQ20060204062010002/04/06 06:20:31  5-MIN KDBQ 041220Z 34015KT 10SM OVC035 M07/M11 A2990 1100 77 -1300 340/15 RMK AO2
94908KDBQ DBQ20060204062510002/04/06 06:25:31  5-MIN KDBQ 041225Z 34013KT 10SM OVC035 M07/M11 A2990 1100 77 -1300 340/13 RMK AO2
94908KDBQ DBQ20060204063010002/04/06 06:30:31  5-MIN KDBQ 041230Z 35011KT 10SM OVC035 M07/M11 A2990 1100 74 -1300 350/11 RMK AO2
94908KDBQ DBQ20060204063510002/04/06 06:35:31  5-MIN KDBQ 041235Z 34013KT 10SM OVC035 M07/M11 A2990 1090 77 -1300 340/13 RMK AO2
94908KDBQ DBQ20060204064010702/04/06 06:40:31  5-MIN KDBQ 041240Z 35015KT 10SM BKN035 OVC055 M07/M11 A2990 1090 74 -1300 350/15 RMK AO2
94908KDBQ DBQ20060204064510702/04/06 06:45:31  5-MIN KDBQ 041245Z 35015KT 10SM BKN035 OVC055 M07/M11 A2990 1100 77 -1300 350/15 RMK AO2
94908KDBQ DBQ20060204065012402/04/06 06:50:31  5-MIN KDBQ 041250Z 35014KT 10SM BKN035 OVC050 M07/M11 A2990 1100 77 -1300 350/14 RMK AO2 SLP142 T10721106
94908KDBQ DBQ20060204065512402/04/06 06:55:31  5-MIN KDBQ 041255Z 35013KT 10SM SCT035 OVC050 M07/M11 A2990 1100 77 -1300 350/13 RMK AO2 SLP142 T10721106
94908KDBQ DBQ20060204070010702/04/06 07:00:31  5-MIN KDBQ 041300Z 35013KT 10SM SCT035 OVC050 M07/M11 A2990 1100 77 -1300 350/13 RMK AO2
94908KDBQ DBQ20060204070510702/04/06 07:05:31  5-MIN KDBQ 041305Z 35012KT 10SM FEW035 OVC050 M07/M11 A2990 1090 77 -1300 350/12 RMK AO2
94908KDBQ DBQ20060204071010702/04/06 07:10:31  5-MIN KDBQ 041310Z 35013KT 10SM FEW035 OVC050 M07/M11 A2990 1090 77 -1300 350/13 RMK AO2
94908KDBQ DBQ20060204071510002/04/06 07:15:31  5-MIN KDBQ 041315Z 34014KT 10SM OVC050 M07/M11 A2990 1100 77 -1300 340/14 RMK AO2
94908KDBQ DBQ20060204072010002/04/06 07:20:31  5-MIN KDBQ 041320Z 34017KT 10SM OVC050 M07/M11 A2990 1090 77 -1300 340/17 RMK AO2
94908KDBQ DBQ20060204072510702/04/06 07:25:31  5-MIN KDBQ 041325Z 35013KT 10SM FEW037 OVC050 M07/M11 A2991 1090 77 -1300 350/13 RMK AO2
94908KDBQ DBQ20060204073010702/04/06 07:30:31  5-MIN KDBQ 041330Z 34015KT 10SM SCT037 OVC050 M07/M11 A2991 1090 77 -1300 340/15 RMK AO2
94908KDBQ DBQ20060204073510702/04/06 07:35:31  5-MIN KDBQ 041335Z 35013KT 10SM BKN037 OVC050 M07/M11 A2991 1090 77 -1300 340/13 RMK AO2
94908KDBQ DBQ20060204074010702/04/06 07:40:31  5-MIN KDBQ 041340Z 34014KT 10SM BKN037 OVC050 M07/M11 A2991 1090 77 -1300 340/14 RMK AO2
94908KDBQ DBQ20060204074511402/04/06 07:45:31  5-MIN KDBQ 041345Z 35011KT 10SM FEW017 BKN037 OVC050 M07/M11 A2991 1090 77 -1300 350/11 RMK AO2
94908KDBQ DBQ20060204075012402/04/06 07:50:31  5-MIN KDBQ 041350Z 35013KT 10SM SCT017 OVC037 M07/M11 A2991 1090 74 -1200 340/13 RMK AO2 SLP143 T10671106
94908KDBQ DBQ20060204075512402/04/06 07:55:31  5-MIN KDBQ 041355Z 35012KT 10SM BKN017 OVC037 M07/M11 A2991 1090 74 -1200 350/12 RMK AO2 SLP145 T10671106
94908KDBQ DBQ20060204080010702/04/06 08:00:31  5-MIN KDBQ 041400Z 35011KT 10SM BKN017 OVC039 M07/M11 A2991 1090 74 -1200 350/11 RMK AO2
94908KDBQ DBQ20060204080511402/04/06 08:05:31  5-MIN KDBQ 041405Z 35010KT 10SM BKN017 BKN039 OVC050 M07/M10 A2991 1090 77 -1200 350/10 RMK AO2
94908KDBQ DBQ20060204081010702/04/06 08:10:31  5-MIN KDBQ 041410Z 35012KT 10SM BKN017 OVC050 M07/M10 A2991 1090 77 -1200 350/12 RMK AO2
94908KDBQ DBQ20060204081510002/04/06 08:15:31  5-MIN KDBQ 041415Z 34014KT 10SM OVC017 M07/M10 A2992 1080 77 -1200 340/14 RMK AO2
94908KDBQ DBQ20060204082010702/04/06 08:20:31  5-MIN KDBQ 041420Z 35011KT 10SM BKN017 OVC050 M07/M10 A2991 1080 77 -1200 350/11 RMK AO2
94908KDBQ DBQ20060204082510702/04/06 08:25:31  5-MIN KDBQ 041425Z 35013KT 10SM BKN017 OVC050 M07/M10 A2991 1090 77 -1200 350/13 RMK AO2
94908KDBQ DBQ20060204083010702/04/06 08:30:31  5-MIN KDBQ 041430Z 35013KT 10SM BKN017 OVC050 M07/M11 A2991 1080 74 -1200 350/13 RMK AO2
94908KDBQ DBQ20060204083510702/04/06 08:35:31  5-MIN KDBQ 041435Z 35014KT 10SM BKN017 OVC050 M07/M10 A2991 1080 77 -1200 350/14 RMK AO2
94908KDBQ DBQ20060204084010702/04/06 08:40:31  5-MIN KDBQ 041440Z 35014KT 10SM BKN017 OVC050 M07/M10 A2991 1090 77 -1200 350/14 RMK AO2
94908KDBQ DBQ20060204084510702/04/06 08:45:31  5-MIN KDBQ 041445Z 35013KT 10SM SCT017 OVC050 M07/M10 A2991 1090 77 -1200 350/13 RMK AO2
94908KDBQ DBQ20060204085013002/04/06 08:50:31  5-MIN KDBQ 041450Z 35013KT 10SM SCT017 OVC050 M06/M10 A2991 1090 74 -1200 350/13 RMK AO2 SLP145 T10611100 53007
94908KDBQ DBQ20060204085513002/04/06 08:55:31  5-MIN KDBQ 041455Z 35014KT 10SM FEW017 OVC050 M06/M10 A2991 1090 74 -1200 350/14 RMK AO2 SLP145 T10611100 51003
94908KDBQ DBQ20060204090010702/04/06 09:00:31  5-MIN KDBQ 041500Z 35013KT 10SM FEW017 OVC050 M06/M10 A2990 1090 74 -1200 350/13 RMK AO2
94908KDBQ DBQ20060204090511302/04/06 09:05:31  5-MIN KDBQ 041505Z 35016G20KT 10SM SCT017 OVC050 M06/M10 A2991 1090 74 -1200 350/16G20 RMK AO2
94908KDBQ DBQ20060204091010702/04/06 09:10:31  5-MIN KDBQ 041510Z 35015KT 10SM SCT017 OVC050 M06/M10 A2991 1090 74 -1200 350/15 RMK AO2
94908KDBQ DBQ20060204091510702/04/06 09:15:31  5-MIN KDBQ 041515Z 35016KT 10SM SCT017 OVC050 M06/M10 A2991 1090 74 -1200 350/16 RMK AO2
94908KDBQ DBQ20060204092010702/04/06 09:20:31  5-MIN KDBQ 041520Z 35015KT 10SM BKN017 OVC050 M06/M10 A2990 1090 74 -1200 350/15 RMK AO2
94908KDBQ DBQ20060204092510702/04/06 09:25:31  5-MIN KDBQ 041525Z 35015KT 10SM BKN017 OVC050 M06/M10 A2990 1090 74 -1200 350/15 RMK AO2
94908KDBQ DBQ20060204093010702/04/06 09:30:31  5-MIN KDBQ 041530Z 35017KT 10SM BKN017 OVC050 M06/M10 A2990 1090 74 -1200 350/17 RMK AO2
94908KDBQ DBQ20060204093510702/04/06 09:35:31  5-MIN KDBQ 041535Z 35018KT 10SM BKN017 OVC050 M06/M10 A2990 1100 74 -1200 350/18 RMK AO2
94908KDBQ DBQ20060204094010702/04/06 09:40:31  5-MIN KDBQ 041540Z 35015KT 10SM BKN017 OVC050 M06/M10 A2990 1090 74 -1200 350/15 RMK AO2
94908KDBQ DBQ20060204094510702/04/06 09:45:31  5-MIN KDBQ 041545Z 35015KT 10SM BKN015 OVC050 M06/M10 A2990 1090 74 -1200 350/15 RMK AO2
94908KDBQ DBQ20060204095011702/04/06 09:50:31  5-MIN KDBQ 041550Z 36015KT 10SM OVC015 M06/M10 A2991 1090 74 -1200 360/15 RMK AO2 SLP144 T10611100
94908KDBQ DBQ20060204095511702/04/06 09:55:31  5-MIN KDBQ 041555Z 36015KT 10SM OVC015 M06/M10 A2991 1090 71 -1100 360/15 RMK AO2 SLP144 T10561100
94908KDBQ DBQ20060204100010002/04/06 10:00:31  5-MIN KDBQ 041600Z 35013KT 10SM OVC015 M06/M09 A2990 1090 74 -1100 350/13 RMK AO2
94908KDBQ DBQ20060204100510002/04/06 10:05:31  5-MIN KDBQ 041605Z 35014KT 10SM OVC015 M06/M09 A2990 1090 74 -1100 350/14 RMK AO2
94908KDBQ DBQ20060204101010602/04/06 10:10:31  5-MIN KDBQ 041610Z 36015G20KT 10SM OVC015 M06/M09 A2991 1090 74 -1100 360/15G20 RMK AO2
94908KDBQ DBQ20060204101510602/04/06 10:15:31  5-MIN KDBQ 041615Z 36015G20KT 10SM OVC015 M06/M09 A2991 1090 74 -1100 360/15G20 RMK AO2
94908KDBQ DBQ20060204102010002/04/06 10:20:31  5-MIN KDBQ 041620Z 36013KT 10SM OVC015 M06/M09 A2990 1090 74 -1100 360/13 RMK AO2
94908KDBQ DBQ20060204102510002/04/06 10:25:31  5-MIN KDBQ 041625Z 36013KT 10SM OVC015 M05/M09 A2990 1090 71 -1000 360/13 RMK AO2
94908KDBQ DBQ20060204103009902/04/06 10:30:31  5-MIN KDBQ 041630Z 35015KT 10SM OVC015 M04/M09 A2991 1090 71 -900 340/15 RMK AO2
94908KDBQ DBQ20060204103510002/04/06 10:35:31  5-MIN KDBQ 041635Z 35016KT 10SM OVC015 M05/M09 A2991 1090 71 -1000 340/16 RMK AO2
94908KDBQ DBQ20060204104010002/04/06 10:40:31  5-MIN KDBQ 041640Z 35015KT 10SM OVC015 M05/M09 A2990 1100 71 -1000 350/15 RMK AO2
94908KDBQ DBQ20060204104510002/04/06 10:45:31  5-MIN KDBQ 041645Z 34018KT 10SM OVC015 M05/M09 A2990 1090 71 -1000 340/18 RMK AO2
94908KDBQ DBQ20060204105011702/04/06 10:50:31  5-MIN KDBQ 041650Z 35015KT 10SM OVC015 M05/M09 A2990 1090 71 -1000 350/15 RMK AO2 SLP142 T10501094
94908KDBQ DBQ20060204105511702/04/06 10:55:31  5-MIN KDBQ 041655Z 36014KT 10SM OVC015 M05/M09 A2990 1090 71 -1000 360/14 RMK AO2 SLP142 T10501094
94908KDBQ DBQ20060204110010002/04/06 11:00:31  5-MIN KDBQ 041700Z 36013KT 10SM OVC015 M05/M09 A2990 1100 71 -1000 360/13 RMK AO2
94908KDBQ DBQ20060204110509902/04/06 11:05:31  5-MIN KDBQ 041705Z 35013KT 10SM OVC015 M04/M09 A2990 1100 68 -900 350/13 RMK AO2
94908KDBQ DBQ20060204111009902/04/06 11:10:31  5-MIN KDBQ 041710Z 36012KT 10SM OVC015 M04/M09 A2990 1100 68 -900 360/12 RMK AO2
94908KDBQ DBQ20060204111509902/04/06 11:15:31  5-MIN KDBQ 041715Z 36014KT 10SM OVC017 M04/M09 A2990 1100 68 -900 360/14 RMK AO2
94908KDBQ DBQ20060204112010502/04/06 11:20:31  5-MIN KDBQ 041720Z 35015G21KT 10SM OVC017 M04/M09 A2990 1100 68 -900 350/15G21 RMK AO2
94908KDBQ DBQ20060204112510502/04/06 11:25:31  5-MIN KDBQ 041725Z 34013G21KT 10SM OVC017 M04/M09 A2990 1100 68 -900 340/13G21 RMK AO2
94908KDBQ DBQ20060204113009902/04/06 11:30:31  5-MIN KDBQ 041730Z 35017KT 10SM OVC017 M04/M09 A2990 1100 68 -900 340/17 RMK AO2
94908KDBQ DBQ20060204113509902/04/06 11:35:31  5-MIN KDBQ 041735Z 35016KT 10SM OVC017 M04/M09 A2990 1100 68 -900 350/16 RMK AO2
94908KDBQ DBQ20060204114010002/04/06 11:40:31  5-MIN KDBQ 041740Z 36014KT 10SM OVC017 M05/M10 A2989 1100 68 -1000 360/14 RMK AO2
94908KDBQ DBQ20060204114510002/04/06 11:45:31  5-MIN KDBQ 041745Z 36014KT 10SM OVC017 M05/M10 A2989 1110 68 -1000 360/14 RMK AO2
94908KDBQ DBQ20060204115013502/04/06 11:50:31  5-MIN KDBQ 041750Z 36014KT 10SM OVC017 M05/M10 A2989 1110 68 -1000 350/14 RMK AO2 SLP139 T10501100 11044 21072 51003
94908KDBQ DBQ20060204115513502/04/06 11:55:31  5-MIN KDBQ 041755Z 35014KT 10SM OVC017 M05/M10 A2989 1110 68 -1000 350/14 RMK AO2 SLP139 T10501100 11044 21072 58006
94908KDBQ DBQ20060204120010602/04/06 12:00:31  5-MIN KDBQ 041800Z 33015G20KT 10SM OVC017 M05/M09 A2989 1110 71 -1000 330/15G20 RMK AO2
94908KDBQ DBQ20060204120510602/04/06 12:05:31  5-MIN KDBQ 041805Z 34013G20KT 10SM OVC017 M05/M10 A2989 1110 68 -1000 340/13G20 RMK AO2
94908KDBQ DBQ20060204121010002/04/06 12:10:31  5-MIN KDBQ 041810Z 33017KT 10SM OVC017 M05/M10 A2989 1110 68 -1000 330/17 RMK AO2
94908KDBQ DBQ20060204121510002/04/06 12:15:31  5-MIN KDBQ 041815Z 35013KT 10SM OVC017 M05/M10 A2989 1110 68 -1000 350/13 RMK AO2
94908KDBQ DBQ20060204122010002/04/06 12:20:31  5-MIN KDBQ 041820Z 34017KT 10SM OVC017 M05/M10 A2988 1110 68 -1000 340/17 RMK AO2
94908KDBQ DBQ20060204122510002/04/06 12:25:31  5-MIN KDBQ 041825Z 33014KT 10SM OVC017 M05/M10 A2988 1110 68 -1000 330/14 RMK AO2
94908KDBQ DBQ20060204123010002/04/06 12:30:31  5-MIN KDBQ 041830Z 33018KT 10SM OVC017 M05/M10 A2988 1110 68 -1000 330/18 RMK AO2
94908KDBQ DBQ20060204123510002/04/06 12:35:31  5-MIN KDBQ 041835Z 34015KT 10SM OVC017 M05/M10 A2988 1120 68 -1000 340/15 RMK AO2
94908KDBQ DBQ20060204124010002/04/06 12:40:31  5-MIN KDBQ 041840Z 34014KT 10SM OVC017 M05/M10 A2988 1120 68 -1000 340/14 RMK AO2
94908KDBQ DBQ20060204124510002/04/06 12:45:31  5-MIN KDBQ 041845Z 33016KT 10SM OVC017 M05/M10 A2987 1120 68 -1000 330/16 RMK AO2
94908KDBQ DBQ20060204125011702/04/06 12:50:31  5-MIN KDBQ 041850Z 33014KT 10SM OVC017 M05/M10 A2987 1120 68 -1000 330/14 RMK AO2 SLP133 T10501100
94908KDBQ DBQ20060204125511602/04/06 12:55:31  5-MIN KDBQ 041855Z 34011KT 10SM OVC017 M04/M09 A2987 1120 68 -900 340/11 RMK AO2 SLP133 T10441094
94908KDBQ DBQ20060204130010002/04/06 13:00:31  5-MIN KDBQ 041900Z 34013KT 10SM OVC017 M05/M09 A2987 1120 71 -1000 340/13 RMK AO2
94908KDBQ DBQ20060204130510002/04/06 13:05:31  5-MIN KDBQ 041905Z 34015KT 10SM OVC017 M05/M10 A2987 1130 68 -1000 330/15 RMK AO2
94908KDBQ DBQ20060204131010002/04/06 13:10:31  5-MIN KDBQ 041910Z 33017KT 10SM OVC017 M05/M10 A2987 1130 68 -1000 330/17 RMK AO2
94908KDBQ DBQ20060204131510002/04/06 13:15:31  5-MIN KDBQ 041915Z 35014KT 10SM OVC017 M05/M10 A2987 1130 68 -1000 350/14 RMK AO2
94908KDBQ DBQ20060204132010002/04/06 13:20:31  5-MIN KDBQ 041920Z 34017KT 10SM OVC017 M05/M10 A2987 1130 68 -1000 330/17 RMK AO2
94908KDBQ DBQ20060204132510602/04/06 13:25:31  5-MIN KDBQ 041925Z 36013G19KT 10SM OVC017 M05/M10 A2987 1130 68 -1000 360/13G19 RMK AO2
94908KDBQ DBQ20060204133010002/04/06 13:30:31  5-MIN KDBQ 041930Z 35016KT 10SM OVC019 M05/M10 A2987 1130 68 -1000 350/16 RMK AO2
94908KDBQ DBQ20060204133510002/04/06 13:35:31  5-MIN KDBQ 041935Z 35015KT 10SM OVC019 M05/M11 A2987 1130 65 -1000 340/15 RMK AO2
94908KDBQ DBQ20060204134010002/04/06 13:40:31  5-MIN KDBQ 041940Z 34016KT 10SM OVC019 M05/M11 A2987 1130 65 -1000 340/16 RMK AO2
94908KDBQ DBQ20060204134510002/04/06 13:45:31  5-MIN KDBQ 041945Z 34015KT 10SM OVC019 M05/M11 A2987 1130 65 -1000 340/15 RMK AO2
94908KDBQ DBQ20060204135011702/04/06 13:50:31  5-MIN KDBQ 041950Z 35010KT 10SM OVC019 M05/M11 A2987 1130 65 -1000 350/10 RMK AO2 SLP132 T10501106
94908KDBQ DBQ20060204135511702/04/06 13:55:31  5-MIN KDBQ 041955Z 35012KT 10SM OVC019 M05/M11 A2987 1130 65 -1000 350/12 RMK AO2 SLP131 T10501106
94908KDBQ DBQ20060204140010002/04/06 14:00:31  5-MIN KDBQ 042000Z 35012KT 10SM OVC021 M05/M11 A2987 1130 65 -1000 350/12 RMK AO2
94908KDBQ DBQ20060204140509902/04/06 14:05:31  5-MIN KDBQ 042005Z 34012KT 10SM OVC021 M04/M10 A2987 1130 65 -900 340/12 RMK AO2
94908KDBQ DBQ20060204141010602/04/06 14:10:31  5-MIN KDBQ 042010Z 34015G18KT 10SM OVC021 M05/M11 A2987 1130 65 -1000 330/15G18 RMK AO2
94908KDBQ DBQ20060204141510002/04/06 14:15:31  5-MIN KDBQ 042015Z 33014KT 10SM OVC021 M05/M11 A2987 1130 65 -1000 330/14 RMK AO2
94908KDBQ DBQ20060204142010002/04/06 14:20:31  5-MIN KDBQ 042020Z 34010KT 10SM OVC021 M05/M10 A2986 1130 68 -1000 340/10 RMK AO2
94908KDBQ DBQ20060204142510002/04/06 14:25:31  5-MIN KDBQ 042025Z 33015KT 10SM OVC021 M05/M10 A2987 1130 68 -1000 330/15 RMK AO2
94908KDBQ DBQ20060204143010002/04/06 14:30:31  5-MIN KDBQ 042030Z 33016KT 10SM OVC021 M05/M11 A2987 1130 65 -1000 330/16 RMK AO2
94908KDBQ DBQ20060204143510002/04/06 14:35:31  5-MIN KDBQ 042035Z 34014KT 10SM OVC021 M05/M11 A2987 1130 65 -1000 340/14 RMK AO2
94908KDBQ DBQ20060204144010002/04/06 14:40:31  5-MIN KDBQ 042040Z 34013KT 10SM OVC021 M05/M11 A2987 1130 65 -1000 340/13 RMK AO2
94908KDBQ DBQ20060204144510002/04/06 14:45:31  5-MIN KDBQ 042045Z 34014KT 10SM OVC021 M05/M11 A2987 1130 65 -1000 340/14 RMK AO2
94908KDBQ DBQ20060204145012302/04/06 14:50:31  5-MIN KDBQ 042050Z 33011KT 10SM OVC021 M05/M11 A2987 1130 65 -1000 330/11 RMK AO2 SLP132 T10501106 58006
94908KDBQ DBQ20060204145512302/04/06 14:55:31  5-MIN KDBQ 042055Z 34013KT 10SM OVC021 M05/M11 A2987 1130 65 -1000 340/13 RMK AO2 SLP132 T10501106 55007
94908KDBQ DBQ20060204150010002/04/06 15:00:31  5-MIN KDBQ 042100Z 35011KT 10SM OVC021 M05/M11 A2987 1130 65 -1000 340/11 RMK AO2
94908KDBQ DBQ20060204150510602/04/06 15:05:31  5-MIN KDBQ 042105Z 35013G18KT 10SM OVC021 M05/M11 A2987 1130 65 -1000 350/13G18 RMK AO2
94908KDBQ DBQ20060204151010002/04/06 15:10:31  5-MIN KDBQ 042110Z 35011KT 10SM OVC021 M05/M11 A2987 1130 65 -1000 340/11 RMK AO2
94908KDBQ DBQ20060204151510002/04/06 15:15:31  5-MIN KDBQ 042115Z 32015KT 10SM OVC021 M05/M11 A2987 1130 65 -1000 320/15 RMK AO2
94908KDBQ DBQ20060204152010002/04/06 15:20:31  5-MIN KDBQ 042120Z 33012KT 10SM OVC021 M06/M11 A2987 1130 68 -1000 330/12 RMK AO2
94908KDBQ DBQ20060204152510002/04/06 15:25:31  5-MIN KDBQ 042125Z 35015KT 10SM OVC021 M05/M11 A2987 1130 65 -1000 350/15 RMK AO2
94908KDBQ DBQ20060204153010002/04/06 15:30:31  5-MIN KDBQ 042130Z 36012KT 10SM OVC021 M06/M11 A2987 1130 68 -1000 350/12 RMK AO2
94908KDBQ DBQ20060204153510002/04/06 15:35:31  5-MIN KDBQ 042135Z 33013KT 10SM OVC021 M06/M11 A2986 1130 68 -1000 330/13 RMK AO2
94908KDBQ DBQ20060204154010002/04/06 15:40:31  5-MIN KDBQ 042140Z 35011KT 10SM OVC021 M06/M11 A2987 1130 68 -1000 350/11 RMK AO2
94908KDBQ DBQ20060204154510002/04/06 15:45:31  5-MIN KDBQ 042145Z 36010KT 10SM OVC021 M06/M11 A2987 1130 65 -1000 360/10 RMK AO2
94908KDBQ DBQ20060204155011702/04/06 15:50:31  5-MIN KDBQ 042150Z 35010KT 10SM OVC021 M06/M11 A2987 1130 68 -1100 350/10 RMK AO2 SLP132 T10611111
94908KDBQ DBQ20060204155511702/04/06 15:55:31  5-MIN KDBQ 042155Z 36012KT 10SM OVC021 M06/M11 A2987 1130 65 -1000 350/12 RMK AO2 SLP131 T10561111
94908KDBQ DBQ20060204160010002/04/06 16:00:31  5-MIN KDBQ 042200Z 35011KT 10SM OVC021 M06/M11 A2987 1130 68 -1100 350/11 RMK AO2
94908KDBQ DBQ20060204160510002/04/06 16:05:31  5-MIN KDBQ 042205Z 36009KT 10SM OVC021 M06/M11 A2987 1130 65 -1000 360/09 RMK AO2
94908KDBQ DBQ20060204161010002/04/06 16:10:31  5-MIN KDBQ 042210Z 33010KT 10SM OVC021 M06/M11 A2987 1130 68 -1000 330/10 RMK AO2
94908KDBQ DBQ20060204161510602/04/06 16:15:31  5-MIN KDBQ 042215Z 34012G18KT 10SM OVC021 M06/M11 A2987 1130 68 -1100 330/12G18 RMK AO2
94908KDBQ DBQ20060204162010602/04/06 16:20:31  5-MIN KDBQ 042220Z 35013G18KT 10SM OVC021 M06/M11 A2987 1120 68 -1100 350/13G18 RMK AO2
94908KDBQ DBQ20060204162510002/04/06 16:25:31  5-MIN KDBQ 042225Z 33011KT 10SM OVC021 M06/M11 A2987 1120 68 -1100 330/11 RMK AO2
94908KDBQ DBQ20060204163010002/04/06 16:30:31  5-MIN KDBQ 042230Z 34013KT 10SM OVC021 M06/M11 A2987 1120 68 -1100 340/13 RMK AO2
94908KDBQ DBQ20060204163510002/04/06 16:35:31  5-MIN KDBQ 042235Z 33014KT 10SM OVC021 M06/M11 A2987 1130 68 -1100 330/14 RMK AO2
94908KDBQ DBQ20060204164010002/04/06 16:40:31  5-MIN KDBQ 042240Z 36013KT 10SM OVC021 M06/M11 A2987 1130 68 -1100 360/13 RMK AO2
94908KDBQ DBQ20060204164510002/04/06 16:45:31  5-MIN KDBQ 042245Z 36011KT 10SM OVC021 M06/M11 A2987 1120 68 -1100 360/11 RMK AO2
94908KDBQ DBQ20060204165011702/04/06 16:50:31  5-MIN KDBQ 042250Z 35013KT 10SM OVC021 M06/M11 A2987 1120 68 -1100 350/13 RMK AO2 SLP134 T10611111
94908KDBQ DBQ20060204165511702/04/06 16:55:31  5-MIN KDBQ 042255Z 34013KT 10SM OVC021 M07/M11 A2987 1120 71 -1200 340/13 RMK AO2 SLP134 T10671111
94908KDBQ DBQ20060204170010002/04/06 17:00:31  5-MIN KDBQ 042300Z 35012KT 10SM OVC021 M07/M11 A2987 1120 71 -1200 350/12 RMK AO2
94908KDBQ DBQ20060204170510002/04/06 17:05:31  5-MIN KDBQ 042305Z 35011KT 10SM OVC021 M07/M11 A2987 1120 71 -1200 350/11 RMK AO2
94908KDBQ DBQ20060204171010002/04/06 17:10:31  5-MIN KDBQ 042310Z 35012KT 10SM OVC021 M07/M12 A2988 1120 68 -1200 350/12 RMK AO2
94908KDBQ DBQ20060204171510002/04/06 17:15:31  5-MIN KDBQ 042315Z 34014KT 10SM OVC021 M07/M11 A2988 1120 71 -1200 340/14 RMK AO2
94908KDBQ DBQ20060204172010002/04/06 17:20:31  5-MIN KDBQ 042320Z 35015KT 10SM OVC021 M07/M12 A2988 1120 68 -1200 350/15 RMK AO2
94908KDBQ DBQ20060204172510002/04/06 17:25:31  5-MIN KDBQ 042325Z 34017KT 10SM OVC021 M07/M12 A2988 1120 68 -1200 340/17 RMK AO2
94908KDBQ DBQ20060204173010002/04/06 17:30:31  5-MIN KDBQ 042330Z 35013KT 10SM OVC021 M07/M12 A2988 1120 68 -1200 350/13 RMK AO2
94908KDBQ DBQ20060204173510002/04/06 17:35:31  5-MIN KDBQ 042335Z 35014KT 10SM OVC021 M07/M12 A2988 1120 68 -1200 340/14 RMK AO2
94908KDBQ DBQ20060204174010002/04/06 17:40:31  5-MIN KDBQ 042340Z 35014KT 10SM OVC021 M07/M12 A2988 1120 68 -1200 350/14 RMK AO2
94908KDBQ DBQ20060204174510002/04/06 17:45:31  5-MIN KDBQ 042345Z 33015KT 10SM OVC021 M07/M12 A2988 1120 68 -1200 330/15 RMK AO2
94908KDBQ DBQ20060204175013502/04/06 17:50:31  5-MIN KDBQ 042350Z 34015KT 10SM OVC021 M07/M12 A2988 1120 68 -1200 340/15 RMK AO2 SLP136 T10671117 11044 21067 55007
94908KDBQ DBQ20060204175513502/04/06 17:55:31  5-MIN KDBQ 042355Z 34012KT 10SM OVC021 M07/M12 A2988 1120 68 -1200 340/12 RMK AO2 SLP135 T10671117 11044 21067 53003
94908KDBQ DBQ20060204180010002/04/06 18:00:31  5-MIN KDBQ 050000Z 35010KT 10SM OVC021 M07/M12 A2988 1120 68 -1200 350/10 RMK AO2
94908KDBQ DBQ20060204180510002/04/06 18:05:31  5-MIN KDBQ 050005Z 36009KT 10SM OVC021 M07/M12 A2987 1120 68 -1200 360/09 RMK AO2
94908KDBQ DBQ20060204181010002/04/06 18:10:31  5-MIN KDBQ 050010Z 36011KT 10SM OVC021 M07/M12 A2987 1120 68 -1200 360/11 RMK AO2
94908KDBQ DBQ20060204181510002/04/06 18:15:31  5-MIN KDBQ 050015Z 36013KT 10SM OVC021 M07/M12 A2988 1120 71 -1300 360/13 RMK AO2
94908KDBQ DBQ20060204182010002/04/06 18:20:31  5-MIN KDBQ 050020Z 36013KT 10SM OVC021 M07/M12 A2988 1120 71 -1300 360/13 RMK AO2
94908KDBQ DBQ20060204182510602/04/06 18:25:31  5-MIN KDBQ 050025Z 36013G19KT 10SM OVC021 M07/M12 A2988 1110 71 -1300 360/13G19 RMK AO2
94908KDBQ DBQ20060204183010602/04/06 18:30:31  5-MIN KDBQ 050030Z 34016G19KT 10SM OVC019 M07/M12 A2988 1110 71 -1300 340/16G19 RMK AO2
94908KDBQ DBQ20060204183510002/04/06 18:35:31  5-MIN KDBQ 050035Z 34016KT 10SM OVC019 M07/M12 A2989 1110 68 -1300 330/16 RMK AO2
94908KDBQ DBQ20060204184010002/04/06 18:40:31  5-MIN KDBQ 050040Z 35014KT 10SM OVC019 M08/M12 A2989 1110 74 -1400 350/14 RMK AO2
94908KDBQ DBQ20060204184510602/04/06 18:45:31  5-MIN KDBQ 050045Z 01015G20KT 10SM OVC019 M07/M12 A2989 1110 71 -1300 360/15G20 RMK AO2
94908KDBQ DBQ20060204185012302/04/06 18:50:31  5-MIN KDBQ 050050Z 35015G20KT 10SM OVC019 M08/M12 A2989 1110 71 -1400 350/15G20 RMK AO2 SLP139 T10781122
94908KDBQ DBQ20060204185511702/04/06 18:55:31  5-MIN KDBQ 050055Z 35013KT 10SM OVC019 M08/M12 A2989 1110 71 -1400 350/13 RMK AO2 SLP139 T10781122
94908KDBQ DBQ20060204190010002/04/06 19:00:31  5-MIN KDBQ 050100Z 01013KT 10SM OVC019 M08/M12 A2989 1110 71 -1400 360/13 RMK AO2
94908KDBQ DBQ20060204190510002/04/06 19:05:31  5-MIN KDBQ 050105Z 36014KT 10SM OVC019 M08/M12 A2989 1100 71 -1400 360/14 RMK AO2
94908KDBQ DBQ20060204191010002/04/06 19:10:31  5-MIN KDBQ 050110Z 36013KT 10SM OVC019 M08/M12 A2989 1110 71 -1400 360/13 RMK AO2
94908KDBQ DBQ20060204191510002/04/06 19:15:31  5-MIN KDBQ 050115Z 36012KT 10SM OVC019 M08/M12 A2989 1100 74 -1400 360/12 RMK AO2
94908KDBQ DBQ20060204192011102/04/06 19:20:31  5-MIN KDBQ 050120Z AUTO 02012G18KT 10SM OVC019 M08/M12 A2989 1110 74 -1400 020/12G18 RMK AO2
94908KDBQ DBQ20060204192511502/04/06 19:25:31  5-MIN KDBQ 050125Z AUTO 36013G18KT 9SM OVC019 M08/M12 A2989 1100 74 -1400 360/13G18 RMK AO2 TSNO
94908KDBQ DBQ20060204193010902/04/06 19:30:31  5-MIN KDBQ 050130Z AUTO 36013KT 9SM OVC019 M08/M12 A2989 1110 74 -1400 360/13 RMK AO2 TSNO
94908KDBQ DBQ20060204193510902/04/06 19:35:31  5-MIN KDBQ 050135Z AUTO 36016KT 9SM OVC019 M08/M12 A2990 1100 74 -1400 360/16 RMK AO2 TSNO
94908KDBQ DBQ20060204194011502/04/06 19:40:31  5-MIN KDBQ 050140Z AUTO 36012G20KT 9SM OVC019 M08/M13 A2990 1100 70 -1400 360/12G20 RMK AO2 TSNO
94908KDBQ DBQ20060204194511502/04/06 19:45:31  5-MIN KDBQ 050145Z AUTO 35017G20KT 9SM OVC019 M08/M13 A2990 1100 70 -1400 350/17G20 RMK AO2 TSNO
94908KDBQ DBQ20060204195013202/04/06 19:50:31  5-MIN KDBQ 050150Z AUTO 35018G22KT 9SM OVC019 M08/M13 A2989 1100 70 -1400 350/18G22 RMK AO2 SLP141 T10831128 TSNO
94908KDBQ DBQ20060204195513302/04/06 19:55:31  5-MIN KDBQ 050155Z AUTO 36015G22KT 10SM OVC019 M08/M13 A2989 1110 70 -1400 360/15G22 RMK AO2 SLP140 T10831128 TSNO
94908KDBQ DBQ20060204200011002/04/06 20:00:31  5-MIN KDBQ 050200Z AUTO 01013KT 10SM OVC019 M08/M13 A2989 1110 70 -1400 360/13 RMK AO2 TSNO
94908KDBQ DBQ20060204200511002/04/06 20:05:31  5-MIN KDBQ 050205Z AUTO 36011KT 10SM OVC019 M08/M13 A2989 1110 70 -1400 360/11 RMK AO2 TSNO
94908KDBQ DBQ20060204201011602/04/06 20:10:31  5-MIN KDBQ 050210Z AUTO 36013G19KT 10SM OVC019 M08/M13 A2989 1110 70 -1400 350/13G19 RMK AO2 TSNO
94908KDBQ DBQ20060204201511602/04/06 20:15:31  5-MIN KDBQ 050215Z AUTO 36015G19KT 10SM OVC019 M08/M13 A2989 1110 70 -1400 360/15G19 RMK AO2 TSNO
94908KDBQ DBQ20060204202011002/04/06 20:20:31  5-MIN KDBQ 050220Z AUTO 36012KT 10SM OVC019 M08/M13 A2989 1110 70 -1400 360/12 RMK AO2 TSNO
94908KDBQ DBQ20060204202511002/04/06 20:25:31  5-MIN KDBQ 050225Z AUTO 36016KT 10SM OVC019 M08/M12 A2989 1110 74 -1400 360/16 RMK AO2 TSNO
94908KDBQ DBQ20060204203011602/04/06 20:30:31  5-MIN KDBQ 050230Z AUTO 36015G22KT 10SM OVC019 M08/M12 A2988 1110 74 -1400 360/15G22 RMK AO2 TSNO
94908KDBQ DBQ20060204203511602/04/06 20:35:31  5-MIN KDBQ 050235Z AUTO 36014G22KT 10SM OVC019 M08/M12 A2988 1110 74 -1400 360/14G22 RMK AO2 TSNO
94908KDBQ DBQ20060204204011602/04/06 20:40:31  5-MIN KDBQ 050240Z AUTO 36014G21KT 10SM OVC019 M08/M12 A2988 1110 74 -1400 360/14G21 RMK AO2 TSNO
94908KDBQ DBQ20060204204511002/04/06 20:45:31  5-MIN KDBQ 050245Z AUTO 35014KT 10SM OVC019 M08/M12 A2988 1120 74 -1400 350/14 RMK AO2 TSNO
94908KDBQ DBQ20060204205013302/04/06 20:50:31  5-MIN KDBQ 050250Z AUTO 35013KT 10SM OVC019 M08/M12 A2988 1120 71 -1300 350/13 RMK AO2 SLP135 T10781122 53003 TSNO
94908KDBQ DBQ20060204205513302/04/06 20:55:31  5-MIN KDBQ 050255Z AUTO 35012KT 10SM OVC019 M08/M12 A2987 1120 71 -1300 350/12 RMK AO2 SLP134 T10781122 58001 TSNO
94908KDBQ DBQ20060204210011002/04/06 21:00:31  5-MIN KDBQ 050300Z AUTO 35012KT 10SM OVC019 M08/M12 A2987 1120 71 -1300 340/12 RMK AO2 TSNO
94908KDBQ DBQ20060204210511002/04/06 21:05:31  5-MIN KDBQ 050305Z AUTO 35011KT 10SM OVC019 M08/M12 A2987 1120 71 -1300 350/11 RMK AO2 TSNO
94908KDBQ DBQ20060204211011002/04/06 21:10:31  5-MIN KDBQ 050310Z AUTO 34012KT 10SM OVC019 M08/M12 A2987 1130 71 -1300 340/12 RMK AO2 TSNO
94908KDBQ DBQ20060204211511002/04/06 21:15:31  5-MIN KDBQ 050315Z AUTO 34013KT 10SM OVC019 M08/M12 A2987 1130 71 -1300 340/13 RMK AO2 TSNO
94908KDBQ DBQ20060204212011002/04/06 21:20:31  5-MIN KDBQ 050320Z AUTO 34013KT 10SM OVC019 M08/M12 A2987 1130 71 -1300 340/13 RMK AO2 TSNO
94908KDBQ DBQ20060204212511002/04/06 21:25:31  5-MIN KDBQ 050325Z AUTO 33014KT 10SM OVC019 M08/M12 A2986 1130 71 -1300 330/14 RMK AO2 TSNO
94908KDBQ DBQ20060204213011002/04/06 21:30:31  5-MIN KDBQ 050330Z AUTO 33013KT 10SM OVC019 M08/M12 A2986 1130 71 -1300 330/13 RMK AO2 TSNO
94908KDBQ DBQ20060204213511002/04/06 21:35:31  5-MIN KDBQ 050335Z AUTO 33013KT 10SM OVC019 M08/M12 A2986 1130 71 -1300 330/13 RMK AO2 TSNO
94908KDBQ DBQ20060204214011002/04/06 21:40:31  5-MIN KDBQ 050340Z AUTO 33014KT 10SM OVC021 M08/M12 A2986 1130 71 -1300 330/14 RMK AO2 TSNO
94908KDBQ DBQ20060204214511002/04/06 21:45:31  5-MIN KDBQ 050345Z AUTO 33014KT 10SM OVC021 M08/M12 A2986 1130 71 -1300 320/14 RMK AO2 TSNO
94908KDBQ DBQ20060204215012702/04/06 21:50:31  5-MIN KDBQ 050350Z AUTO 33012KT 10SM OVC021 M08/M12 A2986 1140 71 -1300 330/12 RMK AO2 SLP129 T10781122 TSNO
94908KDBQ DBQ20060204215512702/04/06 21:55:31  5-MIN KDBQ 050355Z AUTO 33013KT 10SM OVC021 M08/M12 A2986 1140 71 -1300 330/13 RMK AO2 SLP129 T10781122 TSNO
94908KDBQ DBQ20060204220011002/04/06 22:00:31  5-MIN KDBQ 050400Z AUTO 33014KT 10SM OVC023 M08/M12 A2986 1140 71 -1300 330/14 RMK AO2 TSNO
94908KDBQ DBQ20060204220511002/04/06 22:05:31  5-MIN KDBQ 050405Z AUTO 33012KT 10SM OVC023 M08/M12 A2985 1140 71 -1300 330/12 RMK AO2 TSNO
94908KDBQ DBQ20060204221011002/04/06 22:10:31  5-MIN KDBQ 050410Z AUTO 33013KT 10SM OVC023 M08/M12 A2985 1140 71 -1300 330/13 RMK AO2 TSNO
94908KDBQ DBQ20060204221511002/04/06 22:15:31  5-MIN KDBQ 050415Z AUTO 33013KT 10SM OVC023 M08/M12 A2985 1140 71 -1300 330/13 RMK AO2 TSNO
94908KDBQ DBQ20060204222011002/04/06 22:20:31  5-MIN KDBQ 050420Z AUTO 33012KT 10SM OVC023 M08/M12 A2985 1140 71 -1300 330/12 RMK AO2 TSNO
94908KDBQ DBQ20060204222511002/04/06 22:25:31  5-MIN KDBQ 050425Z AUTO 33013KT 10SM OVC023 M08/M12 A2985 1150 71 -1300 330/13 RMK AO2 TSNO
94908KDBQ DBQ20060204223011002/04/06 22:30:31  5-MIN KDBQ 050430Z AUTO 35012KT 10SM OVC023 M08/M12 A2984 1150 74 -1300 350/12 RMK AO2 TSNO
94908KDBQ DBQ20060204223511002/04/06 22:35:31  5-MIN KDBQ 050435Z AUTO 34013KT 10SM OVC023 M08/M12 A2985 1150 71 -1300 340/13 RMK AO2 TSNO
94908KDBQ DBQ20060204224011002/04/06 22:40:31  5-MIN KDBQ 050440Z AUTO 34011KT 10SM OVC023 M07/M12 A2984 1150 71 -1200 340/11 RMK AO2 TSNO
94908KDBQ DBQ20060204224511002/04/06 22:45:31  5-MIN KDBQ 050445Z AUTO 35012KT 10SM OVC023 M07/M12 A2984 1150 71 -1200 350/12 RMK AO2 TSNO
94908KDBQ DBQ20060204225012702/04/06 22:50:31  5-MIN KDBQ 050450Z AUTO 35012KT 10SM OVC023 M07/M12 A2984 1160 71 -1200 350/12 RMK AO2 SLP121 T10721117 TSNO
94908KDBQ DBQ20060204225512702/04/06 22:55:31  5-MIN KDBQ 050455Z AUTO 34014KT 10SM OVC023 M07/M12 A2984 1150 71 -1200 340/14 RMK AO2 SLP121 T10721117 TSNO
94908KDBQ DBQ20060204230011002/04/06 23:00:31  5-MIN KDBQ 050500Z AUTO 34012KT 10SM OVC023 M07/M12 A2984 1160 71 -1200 340/12 RMK AO2 TSNO
94908KDBQ DBQ20060204230511002/04/06 23:05:31  5-MIN KDBQ 050505Z AUTO 35013KT 10SM OVC023 M07/M12 A2984 1160 71 -1200 350/13 RMK AO2 TSNO
94908KDBQ DBQ20060204231011002/04/06 23:10:31  5-MIN KDBQ 050510Z AUTO 35013KT 10SM OVC023 M07/M12 A2984 1160 71 -1200 350/13 RMK AO2 TSNO
94908KDBQ DBQ20060204231511002/04/06 23:15:31  5-MIN KDBQ 050515Z AUTO 35011KT 10SM OVC023 M07/M12 A2984 1160 71 -1200 340/11 RMK AO2 TSNO
94908KDBQ DBQ20060204232011002/04/06 23:20:31  5-MIN KDBQ 050520Z AUTO 35013KT 10SM OVC023 M07/M12 A2983 1160 71 -1200 350/13 RMK AO2 TSNO
94908KDBQ DBQ20060204232511002/04/06 23:25:31  5-MIN KDBQ 050525Z AUTO 35011KT 10SM OVC023 M07/M12 A2983 1160 71 -1200 350/11 RMK AO2 TSNO
94908KDBQ DBQ20060204233011002/04/06 23:30:31  5-MIN KDBQ 050530Z AUTO 35013KT 10SM OVC023 M07/M12 A2983 1160 71 -1200 350/13 RMK AO2 TSNO
94908KDBQ DBQ20060204233511002/04/06 23:35:31  5-MIN KDBQ 050535Z AUTO 34013KT 10SM OVC023 M08/M12 A2983 1160 74 -1300 340/13 RMK AO2 TSNO
94908KDBQ DBQ20060204234011002/04/06 23:40:31  5-MIN KDBQ 050540Z AUTO 34012KT 10SM OVC023 M08/M12 A2983 1170 74 -1300 340/12 RMK AO2 TSNO
94908KDBQ DBQ20060204234511002/04/06 23:45:31  5-MIN KDBQ 050545Z AUTO 34013KT 10SM OVC023 M08/M12 A2982 1170 74 -1300 340/13 RMK AO2 TSNO
94908KDBQ DBQ20060204235015502/04/06 23:50:31  5-MIN KDBQ 050550Z AUTO 35012KT 10SM BKN023 M08/M12 A2982 1170 74 -1300 350/12 RMK AO2 SLP116 T10781117 11067 21083 410441083 58001 TSNO
94908KDBQ DBQ20060204235515502/04/06 23:55:31  5-MIN KDBQ 050555Z AUTO 35011KT 10SM BKN023 M08/M12 A2982 1170 74 -1300 350/11 RMK AO2 SLP115 T10781117 11067 21083 410441083 58018 TSNO
94908KDBQ DBQ20060205000011002/05/06 00:00:38  5-MIN KDBQ 050600Z AUTO 35011KT 10SM SCT023 M08/M12 A2982 1170 74 -1300 350/11 RMK AO2 TSNO
94908KDBQ DBQ20060205000511002/05/06 00:05:31  5-MIN KDBQ 050605Z AUTO 35012KT 10SM SCT023 M08/M12 A2982 1170 74 -1300 350/12 RMK AO2 TSNO
94908KDBQ DBQ20060205001011002/05/06 00:10:31  5-MIN KDBQ 050610Z AUTO 35012KT 10SM FEW021 M08/M12 A2982 1170 74 -1300 350/12 RMK AO2 TSNO
94908KDBQ DBQ20060205001510702/05/06 00:15:32  5-MIN KDBQ 050615Z AUTO 35012KT 10SM CLR M08/M12 A2981 1180 74 -1300 350/12 RMK AO2 TSNO
94908KDBQ DBQ20060205002010702/05/06 00:20:31  5-MIN KDBQ 050620Z AUTO 36013KT 10SM CLR M08/M12 A2981 1180 74 -1300 350/13 RMK AO2 TSNO
94908KDBQ DBQ20060205002510702/05/06 00:25:31  5-MIN KDBQ 050625Z AUTO 35013KT 10SM CLR M08/M12 A2981 1180 74 -1300 350/13 RMK AO2 TSNO
94908KDBQ DBQ20060205003010702/05/06 00:30:31  5-MIN KDBQ 050630Z AUTO 35012KT 10SM CLR M08/M12 A2981 1180 74 -1300 350/12 RMK AO2 TSNO
94908KDBQ DBQ20060205003510702/05/06 00:35:31  5-MIN KDBQ 050635Z AUTO 35012KT 10SM CLR M08/M12 A2981 1180 74 -1300 350/12 RMK AO2 TSNO
94908KDBQ DBQ20060205004010702/05/06 00:40:31  5-MIN KDBQ 050640Z AUTO 35012KT 10SM CLR M08/M12 A2981 1180 77 -1300 340/12 RMK AO2 TSNO
94908KDBQ DBQ20060205004510702/05/06 00:45:31  5-MIN KDBQ 050645Z AUTO 35011KT 10SM CLR M08/M12 A2981 1180 77 -1300 350/11 RMK AO2 TSNO
94908KDBQ DBQ20060205005012402/05/06 00:50:31  5-MIN KDBQ 050650Z AUTO 34012KT 10SM CLR M08/M12 A2981 1180 77 -1300 340/12 RMK AO2 SLP112 T10831117 TSNO
94908KDBQ DBQ20060205005512402/05/06 00:55:31  5-MIN KDBQ 050655Z AUTO 34012KT 10SM CLR M08/M12 A2981 1180 77 -1300 340/12 RMK AO2 SLP111 T10831117 TSNO
94908KDBQ DBQ20060205010010702/05/06 01:00:31  5-MIN KDBQ 050700Z AUTO 34012KT 10SM CLR M08/M12 A2981 1180 77 -1300 340/12 RMK AO2 TSNO
94908KDBQ DBQ20060205010510702/05/06 01:05:31  5-MIN KDBQ 050705Z AUTO 34012KT 10SM CLR M08/M12 A2980 1190 77 -1300 340/12 RMK AO2 TSNO
94908KDBQ DBQ20060205011010702/05/06 01:10:31  5-MIN KDBQ 050710Z AUTO 34009KT 10SM CLR M08/M12 A2980 1190 77 -1300 340/09 RMK AO2 TSNO
94908KDBQ DBQ20060205011510702/05/06 01:15:31  5-MIN KDBQ 050715Z AUTO 34012KT 10SM CLR M08/M12 A2981 1180 77 -1300 340/12 RMK AO2 TSNO
94908KDBQ DBQ20060205012010702/05/06 01:20:31  5-MIN KDBQ 050720Z AUTO 34012KT 10SM CLR M08/M12 A2981 1180 77 -1300 340/12 RMK AO2 TSNO
94908KDBQ DBQ20060205012510702/05/06 01:25:31  5-MIN KDBQ 050725Z AUTO 34011KT 10SM CLR M08/M12 A2981 1180 77 -1300 340/11 RMK AO2 TSNO
94908KDBQ DBQ20060205013010702/05/06 01:30:31  5-MIN KDBQ 050730Z AUTO 34011KT 10SM CLR M08/M12 A2981 1180 77 -1300 340/11 RMK AO2 TSNO
94908KDBQ DBQ20060205013510702/05/06 01:35:31  5-MIN KDBQ 050735Z AUTO 34013KT 10SM CLR M08/M12 A2981 1180 77 -1300 330/13 RMK AO2 TSNO
94908KDBQ DBQ20060205014010702/05/06 01:40:31  5-MIN KDBQ 050740Z AUTO 34012KT 10SM CLR M08/M12 A2981 1180 74 -1300 340/12 RMK AO2 TSNO
94908KDBQ DBQ20060205014510702/05/06 01:45:31  5-MIN KDBQ 050745Z AUTO 34010KT 10SM CLR M08/M12 A2981 1180 74 -1300 340/10 RMK AO2 TSNO
94908KDBQ DBQ20060205015012402/05/06 01:50:31  5-MIN KDBQ 050750Z AUTO 34012KT 10SM CLR M08/M12 A2981 1180 74 -1300 340/12 RMK AO2 SLP114 T10831122 TSNO
94908KDBQ DBQ20060205015512402/05/06 01:55:31  5-MIN KDBQ 050755Z AUTO 34010KT 10SM CLR M08/M12 A2981 1180 74 -1300 340/10 RMK AO2 SLP114 T10831122 TSNO
94908KDBQ DBQ20060205020010702/05/06 02:00:31  5-MIN KDBQ 050800Z AUTO 34009KT 10SM CLR M08/M12 A2982 1180 74 -1300 340/09 RMK AO2 TSNO
94908KDBQ DBQ20060205020510702/05/06 02:05:31  5-MIN KDBQ 050805Z AUTO 34010KT 10SM CLR M09/M12 A2982 1180 77 -1400 340/10 RMK AO2 TSNO
94908KDBQ DBQ20060205021011002/05/06 02:10:31  5-MIN KDBQ 050810Z AUTO 34011KT 10SM FEW020 M08/M12 A2982 1170 74 -1300 340/11 RMK AO2 TSNO
94908KDBQ DBQ20060205021511002/05/06 02:15:31  5-MIN KDBQ 050815Z AUTO 34012KT 10SM FEW020 M09/M12 A2982 1170 77 -1400 340/12 RMK AO2 TSNO
94908KDBQ DBQ20060205022010702/05/06 02:20:31  5-MIN KDBQ 050820Z AUTO 35011KT 10SM CLR M09/M12 A2982 1180 77 -1400 350/11 RMK AO2 TSNO
94908KDBQ DBQ20060205022510702/05/06 02:25:31  5-MIN KDBQ 050825Z AUTO 35010KT 10SM CLR M09/M12 A2982 1180 77 -1400 350/10 RMK AO2 TSNO
94908KDBQ DBQ20060205023010702/05/06 02:30:31  5-MIN KDBQ 050830Z AUTO 34010KT 10SM CLR M09/M12 A2981 1180 77 -1400 340/10 RMK AO2 TSNO
94908KDBQ DBQ20060205023510702/05/06 02:35:31  5-MIN KDBQ 050835Z AUTO 34010KT 10SM CLR M09/M12 A2982 1180 77 -1400 340/10 RMK AO2 TSNO
94908KDBQ DBQ20060205024010702/05/06 02:40:31  5-MIN KDBQ 050840Z AUTO 33012KT 10SM CLR M09/M12 A2982 1180 77 -1400 330/12 RMK AO2 TSNO
94908KDBQ DBQ20060205024510702/05/06 02:45:31  5-MIN KDBQ 050845Z AUTO 34010KT 10SM CLR M09/M12 A2982 1170 77 -1400 340/10 RMK AO2 TSNO
94908KDBQ DBQ20060205025013002/05/06 02:50:31  5-MIN KDBQ 050850Z AUTO 33009KT 10SM CLR M09/M12 A2982 1170 77 -1400 330/09 RMK AO2 SLP116 T10891122 58018 TSNO
94908KDBQ DBQ20060205025513002/05/06 02:55:31  5-MIN KDBQ 050855Z AUTO 34009KT 10SM CLR M09/M12 A2982 1170 77 -1400 340/09 RMK AO2 SLP115 T10891122 55001 TSNO
94908KDBQ DBQ20060205030010702/05/06 03:00:31  5-MIN KDBQ 050900Z AUTO 34009KT 10SM CLR M09/M12 A2981 1180 77 -1400 340/09 RMK AO2 TSNO
94908KDBQ DBQ20060205030510702/05/06 03:05:31  5-MIN KDBQ 050905Z AUTO 34011KT 10SM CLR M09/M12 A2981 1180 77 -1400 340/11 RMK AO2 TSNO
94908KDBQ DBQ20060205031010702/05/06 03:10:31  5-MIN KDBQ 050910Z AUTO 34009KT 10SM CLR M09/M12 A2981 1180 77 -1400 340/09 RMK AO2 TSNO
94908KDBQ DBQ20060205031510702/05/06 03:15:31  5-MIN KDBQ 050915Z AUTO 34011KT 10SM CLR M09/M12 A2981 1180 77 -1400 330/11 RMK AO2 TSNO
94908KDBQ DBQ20060205032010702/05/06 03:20:31  5-MIN KDBQ 050920Z AUTO 33010KT 10SM CLR M09/M12 A2981 1180 77 -1400 330/10 RMK AO2 TSNO
94908KDBQ DBQ20060205032510702/05/06 03:25:31  5-MIN KDBQ 050925Z AUTO 33009KT 10SM CLR M09/M12 A2982 1170 77 -1400 330/09 RMK AO2 TSNO
94908KDBQ DBQ20060205033010702/05/06 03:30:31  5-MIN KDBQ 050930Z AUTO 32009KT 10SM CLR M09/M12 A2982 1170 77 -1400 320/09 RMK AO2 TSNO
94908KDBQ DBQ20060205033510702/05/06 03:35:31  5-MIN KDBQ 050935Z AUTO 32008KT 10SM CLR M09/M12 A2982 1170 77 -1400 320/08 RMK AO2 TSNO
94908KDBQ DBQ20060205034010702/05/06 03:40:31  5-MIN KDBQ 050940Z AUTO 32009KT 10SM CLR M09/M12 A2982 1170 80 -1500 320/09 RMK AO2 TSNO
94908KDBQ DBQ20060205034510702/05/06 03:45:31  5-MIN KDBQ 050945Z AUTO 32007KT 10SM CLR M09/M12 A2982 1170 80 -1500 310/07 RMK AO2 TSNO
94908KDBQ DBQ20060205035012402/05/06 03:50:31  5-MIN KDBQ 050950Z AUTO 32008KT 10SM CLR M09/M12 A2982 1170 80 -1500 320/08 RMK AO2 SLP117 T10941122 TSNO
94908KDBQ DBQ20060205035512402/05/06 03:55:31  5-MIN KDBQ 050955Z AUTO 31008KT 10SM CLR M09/M12 A2982 1170 80 -1500 310/08 RMK AO2 SLP116 T10941122 TSNO
94908KDBQ DBQ20060205040010702/05/06 04:00:31  5-MIN KDBQ 051000Z AUTO 31008KT 10SM CLR M09/M12 A2982 1170 80 -1500 310/08 RMK AO2 TSNO
94908KDBQ DBQ20060205040510702/05/06 04:05:31  5-MIN KDBQ 051005Z AUTO 31008KT 10SM CLR M09/M12 A2982 1170 80 -1500 310/08 RMK AO2 TSNO
94908KDBQ DBQ20060205041010702/05/06 04:10:31  5-MIN KDBQ 051010Z AUTO 31010KT 10SM CLR M09/M12 A2982 1170 80 -1500 310/10 RMK AO2 TSNO
94908KDBQ DBQ20060205041510702/05/06 04:15:31  5-MIN KDBQ 051015Z AUTO 32009KT 10SM CLR M09/M13 A2982 1170 77 -1500 320/09 RMK AO2 TSNO
94908KDBQ DBQ20060205042010702/05/06 04:20:31  5-MIN KDBQ 051020Z AUTO 32009KT 10SM CLR M09/M13 A2982 1170 77 -1500 310/09 RMK AO2 TSNO
94908KDBQ DBQ20060205042510702/05/06 04:25:31  5-MIN KDBQ 051025Z AUTO 32011KT 10SM CLR M09/M13 A2982 1170 77 -1500 320/11 RMK AO2 TSNO
94908KDBQ DBQ20060205043010702/05/06 04:30:31  5-MIN KDBQ 051030Z AUTO 32011KT 10SM CLR M09/M13 A2982 1170 77 -1500 320/11 RMK AO2 TSNO
94908KDBQ DBQ20060205043510702/05/06 04:35:31  5-MIN KDBQ 051035Z AUTO 31009KT 10SM CLR M09/M13 A2982 1170 77 -1500 310/09 RMK AO2 TSNO
94908KDBQ DBQ20060205044010702/05/06 04:40:31  5-MIN KDBQ 051040Z AUTO 32010KT 10SM CLR M09/M13 A2982 1170 77 -1500 320/10 RMK AO2 TSNO
94908KDBQ DBQ20060205044510702/05/06 04:45:31  5-MIN KDBQ 051045Z AUTO 32011KT 10SM CLR M09/M13 A2982 1170 77 -1500 320/11 RMK AO2 TSNO
94908KDBQ DBQ20060205045012402/05/06 04:50:31  5-MIN KDBQ 051050Z AUTO 32011KT 10SM CLR M09/M13 A2983 1160 77 -1500 320/11 RMK AO2 SLP119 T10941128 TSNO
94908KDBQ DBQ20060205045512402/05/06 04:55:31  5-MIN KDBQ 051055Z AUTO 32011KT 10SM CLR M09/M13 A2983 1170 77 -1500 320/11 RMK AO2 SLP119 T10941128 TSNO
94908KDBQ DBQ20060205050010702/05/06 05:00:31  5-MIN KDBQ 051100Z AUTO 32012KT 10SM CLR M09/M13 A2983 1170 77 -1500 320/12 RMK AO2 TSNO
94908KDBQ DBQ20060205050510702/05/06 05:05:31  5-MIN KDBQ 051105Z AUTO 33011KT 10SM CLR M09/M13 A2982 1170 77 -1500 330/11 RMK AO2 TSNO
94908KDBQ DBQ20060205051010702/05/06 05:10:31  5-MIN KDBQ 051110Z AUTO 33011KT 10SM CLR M09/M13 A2982 1170 77 -1500 330/11 RMK AO2 TSNO
94908KDBQ DBQ20060205051510702/05/06 05:15:31  5-MIN KDBQ 051115Z AUTO 33013KT 10SM CLR M09/M13 A2982 1170 77 -1500 330/13 RMK AO2 TSNO
94908KDBQ DBQ20060205052010702/05/06 05:20:31  5-MIN KDBQ 051120Z AUTO 33011KT 10SM CLR M09/M13 A2982 1170 77 -1500 330/11 RMK AO2 TSNO
94908KDBQ DBQ20060205052510702/05/06 05:25:31  5-MIN KDBQ 051125Z AUTO 34014KT 10SM CLR M09/M13 A2982 1170 77 -1500 340/14 RMK AO2 TSNO
94908KDBQ DBQ20060205053010702/05/06 05:30:31  5-MIN KDBQ 051130Z AUTO 34012KT 10SM CLR M09/M13 A2982 1170 77 -1500 340/12 RMK AO2 TSNO
94908KDBQ DBQ20060205053510702/05/06 05:35:31  5-MIN KDBQ 051135Z AUTO 34013KT 10SM CLR M09/M13 A2982 1170 77 -1500 340/13 RMK AO2 TSNO
94908KDBQ DBQ20060205054010702/05/06 05:40:31  5-MIN KDBQ 051140Z AUTO 33013KT 10SM CLR M09/M13 A2982 1170 77 -1500 330/13 RMK AO2 TSNO
94908KDBQ DBQ20060205054510702/05/06 05:45:31  5-MIN KDBQ 051145Z AUTO 34012KT 10SM CLR M09/M13 A2982 1170 77 -1500 340/12 RMK AO2 TSNO
94908KDBQ DBQ20060205055014202/05/06 05:50:31  5-MIN KDBQ 051150Z AUTO 33011KT 10SM CLR M09/M13 A2982 1170 77 -1500 330/11 RMK AO2 SLP118 T10941128 11078 21094 55001 TSNO
94908KDBQ DBQ20060205055513802/05/06 05:55:31  5-MIN KDBQ 051155Z 33014G18KT 10SM CLR M09/M13 A2982 1170 77 -1500 330/14G18 RMK AO2 SLP119 T10941128 11078 21094 50003
94908KDBQ DBQ20060205060009702/05/06 06:00:31  5-MIN KDBQ 051200Z 34015KT 10SM CLR M09/M12 A2983 1170 80 -1500 330/15 RMK AO2
94908KDBQ DBQ20060205060509702/05/06 06:05:31  5-MIN KDBQ 051205Z 35014KT 10SM CLR M09/M12 A2982 1170 80 -1500 350/14 RMK AO2
94908KDBQ DBQ20060205061009702/05/06 06:10:31  5-MIN KDBQ 051210Z 34013KT 10SM CLR M09/M12 A2982 1170 80 -1500 340/13 RMK AO2
94908KDBQ DBQ20060205061509702/05/06 06:15:31  5-MIN KDBQ 051215Z 34016KT 10SM CLR M09/M12 A2982 1170 80 -1500 340/16 RMK AO2
94908KDBQ DBQ20060205062009702/05/06 06:20:31  5-MIN KDBQ 051220Z 35014KT 10SM CLR M09/M12 A2982 1170 80 -1500 350/14 RMK AO2
94908KDBQ DBQ20060205062509702/05/06 06:25:31  5-MIN KDBQ 051225Z 35018KT 10SM CLR M09/M12 A2982 1170 80 -1500 350/18 RMK AO2
94908KDBQ DBQ20060205063009702/05/06 06:30:31  5-MIN KDBQ 051230Z 35016KT 10SM CLR M09/M12 A2982 1170 80 -1500 350/16 RMK AO2
94908KDBQ DBQ20060205063509702/05/06 06:35:31  5-MIN KDBQ 051235Z 35015KT 10SM CLR M09/M12 A2982 1170 80 -1500 350/15 RMK AO2
94908KDBQ DBQ20060205064009702/05/06 06:40:31  5-MIN KDBQ 051240Z 35015KT 10SM CLR M09/M12 A2982 1170 80 -1500 350/15 RMK AO2
94908KDBQ DBQ20060205064510302/05/06 06:45:31  5-MIN KDBQ 051245Z 35014G20KT 10SM CLR M09/M12 A2982 1170 80 -1500 350/14G20 RMK AO2
94908KDBQ DBQ20060205065011402/05/06 06:50:31  5-MIN KDBQ 051250Z 35014KT 10SM CLR M09/M12 A2982 1170 80 -1500 350/14 RMK AO2 SLP117 T10941122
94908KDBQ DBQ20060205065511402/05/06 06:55:31  5-MIN KDBQ 051255Z 36014KT 10SM CLR M09/M12 A2982 1170 80 -1500 350/14 RMK AO2 SLP118 T10941122
94908KDBQ DBQ20060205070009702/05/06 07:00:31  5-MIN KDBQ 051300Z 35013KT 10SM CLR M09/M12 A2982 1170 80 -1500 350/13 RMK AO2
94908KDBQ DBQ20060205070509702/05/06 07:05:31  5-MIN KDBQ 051305Z 36012KT 10SM CLR M09/M12 A2982 1170 80 -1500 350/12 RMK AO2
94908KDBQ DBQ20060205071009702/05/06 07:10:31  5-MIN KDBQ 051310Z 36010KT 10SM CLR M09/M12 A2982 1170 80 -1500 360/10 RMK AO2
94908KDBQ DBQ20060205071509702/05/06 07:15:31  5-MIN KDBQ 051315Z 36011KT 10SM CLR M09/M12 A2982 1170 80 -1500 350/11 RMK AO2
94908KDBQ DBQ20060205072009702/05/06 07:20:31  5-MIN KDBQ 051320Z 35012KT 10SM CLR M09/M12 A2982 1170 80 -1500 350/12 RMK AO2
94908KDBQ DBQ20060205072509702/05/06 07:25:31  5-MIN KDBQ 051325Z 35013KT 10SM CLR M09/M12 A2982 1170 80 -1500 350/13 RMK AO2
94908KDBQ DBQ20060205073009702/05/06 07:30:31  5-MIN KDBQ 051330Z 35012KT 10SM CLR M09/M12 A2981 1180 80 -1500 350/12 RMK AO2
94908KDBQ DBQ20060205073509702/05/06 07:35:31  5-MIN KDBQ 051335Z 36013KT 10SM CLR M09/M12 A2982 1170 80 -1500 350/13 RMK AO2
94908KDBQ DBQ20060205074009702/05/06 07:40:31  5-MIN KDBQ 051340Z 35013KT 10SM CLR M09/M12 A2982 1170 80 -1500 350/13 RMK AO2
94908KDBQ DBQ20060205074509702/05/06 07:45:31  5-MIN KDBQ 051345Z 36012KT 10SM CLR M09/M12 A2982 1170 77 -1400 360/12 RMK AO2
94908KDBQ DBQ20060205075011402/05/06 07:50:31  5-MIN KDBQ 051350Z 36011KT 10SM CLR M09/M12 A2982 1170 80 -1400 360/11 RMK AO2 SLP117 T10891117
94908KDBQ DBQ20060205075511402/05/06 07:55:31  5-MIN KDBQ 051355Z 36013KT 10SM CLR M09/M12 A2982 1170 80 -1400 360/13 RMK AO2 SLP116 T10891117
94908KDBQ DBQ20060205080009702/05/06 08:00:31  5-MIN KDBQ 051400Z 36012KT 10SM CLR M09/M12 A2982 1170 80 -1400 360/12 RMK AO2
94908KDBQ DBQ20060205080509702/05/06 08:05:31  5-MIN KDBQ 051405Z 01013KT 10SM CLR M08/M12 A2982 1170 77 -1400 360/13 RMK AO2
94908KDBQ DBQ20060205081009702/05/06 08:10:31  5-MIN KDBQ 051410Z 01013KT 10SM CLR M08/M12 A2982 1170 77 -1300 010/13 RMK AO2
94908KDBQ DBQ20060205081509702/05/06 08:15:31  5-MIN KDBQ 051415Z 01011KT 10SM CLR M08/M12 A2983 1170 77 -1400 010/11 RMK AO2
94908KDBQ DBQ20060205082009702/05/06 08:20:31  5-MIN KDBQ 051420Z 01010KT 10SM CLR M08/M11 A2983 1160 77 -1300 010/10 RMK AO2
94908KDBQ DBQ20060205082509702/05/06 08:25:31  5-MIN KDBQ 051425Z 36012KT 10SM CLR M08/M11 A2983 1160 77 -1300 360/12 RMK AO2
94908KDBQ DBQ20060205083009702/05/06 08:30:31  5-MIN KDBQ 051430Z 36011KT 10SM CLR M08/M11 A2983 1160 77 -1300 360/11 RMK AO2
94908KDBQ DBQ20060205083509702/05/06 08:35:31  5-MIN KDBQ 051435Z 36012KT 10SM CLR M08/M11 A2984 1160 77 -1300 360/12 RMK AO2
94908KDBQ DBQ20060205084009702/05/06 08:40:31  5-MIN KDBQ 051440Z 36011KT 10SM CLR M07/M11 A2984 1150 74 -1200 350/11 RMK AO2
94908KDBQ DBQ20060205084509702/05/06 08:45:31  5-MIN KDBQ 051445Z 35012KT 10SM CLR M07/M11 A2984 1160 74 -1200 350/12 RMK AO2
94908KDBQ DBQ20060205085012002/05/06 08:50:31  5-MIN KDBQ 051450Z 01013KT 10SM CLR M07/M11 A2984 1150 77 -1200 010/13 RMK AO2 SLP122 T10721106 50003
94908KDBQ DBQ20060205085512002/05/06 08:55:31  5-MIN KDBQ 051455Z 36013KT 10SM CLR M07/M11 A2984 1150 77 -1200 360/13 RMK AO2 SLP122 T10721106 53005
94908KDBQ DBQ20060205090009702/05/06 09:00:31  5-MIN KDBQ 051500Z 35012KT 10SM CLR M07/M11 A2984 1160 77 -1200 350/12 RMK AO2
94908KDBQ DBQ20060205090509702/05/06 09:05:31  5-MIN KDBQ 051505Z 36013KT 10SM CLR M07/M11 A2984 1150 74 -1200 360/13 RMK AO2
94908KDBQ DBQ20060205091009702/05/06 09:10:31  5-MIN KDBQ 051510Z 01013KT 10SM CLR M07/M11 A2984 1160 74 -1200 010/13 RMK AO2
94908KDBQ DBQ20060205091509702/05/06 09:15:31  5-MIN KDBQ 051515Z 36013KT 10SM CLR M07/M11 A2984 1150 74 -1200 360/13 RMK AO2
94908KDBQ DBQ20060205092009702/05/06 09:20:31  5-MIN KDBQ 051520Z 36014KT 10SM CLR M06/M11 A2984 1150 71 -1100 360/14 RMK AO2
94908KDBQ DBQ20060205092509702/05/06 09:25:31  5-MIN KDBQ 051525Z 01014KT 10SM CLR M06/M11 A2984 1150 71 -1100 360/14 RMK AO2
94908KDBQ DBQ20060205093009702/05/06 09:30:31  5-MIN KDBQ 051530Z 36016KT 10SM CLR M06/M11 A2984 1150 71 -1100 360/16 RMK AO2
94908KDBQ DBQ20060205093509702/05/06 09:35:31  5-MIN KDBQ 051535Z 36017KT 10SM CLR M06/M11 A2984 1160 71 -1100 360/17 RMK AO2
94908KDBQ DBQ20060205094009702/05/06 09:40:31  5-MIN KDBQ 051540Z 36017KT 10SM CLR M06/M11 A2984 1150 71 -1100 360/17 RMK AO2
94908KDBQ DBQ20060205094509702/05/06 09:45:31  5-MIN KDBQ 051545Z 01015KT 10SM CLR M06/M11 A2984 1150 68 -1000 360/15 RMK AO2
94908KDBQ DBQ20060205095011402/05/06 09:50:31  5-MIN KDBQ 051550Z 35016KT 10SM CLR M06/M11 A2984 1150 68 -1000 350/16 RMK AO2 SLP124 T10561106
94908KDBQ DBQ20060205095511402/05/06 09:55:31  5-MIN KDBQ 051555Z 35015KT 10SM CLR M06/M10 A2985 1150 71 -1000 350/15 RMK AO2 SLP125 T10561100
94908KDBQ DBQ20060205100009702/05/06 10:00:31  5-MIN KDBQ 051600Z 35014KT 10SM CLR M06/M11 A2985 1140 68 -1000 350/14 RMK AO2
94908KDBQ DBQ20060205100509702/05/06 10:05:31  5-MIN KDBQ 051605Z 36014KT 10SM CLR M05/M11 A2985 1140 65 -1000 360/14 RMK AO2
94908KDBQ DBQ20060205101009702/05/06 10:10:31  5-MIN KDBQ 051610Z 36012KT 10SM CLR M05/M10 A2985 1140 68 -1000 360/12 RMK AO2
94908KDBQ DBQ20060205101509602/05/06 10:15:31  5-MIN KDBQ 051615Z 36012KT 10SM CLR M04/M10 A2985 1140 65 -900 360/12 RMK AO2
94908KDBQ DBQ20060205102009602/05/06 10:20:31  5-MIN KDBQ 051620Z 36012KT 10SM CLR M04/M10 A2986 1140 65 -900 360/12 RMK AO2
94908KDBQ DBQ20060205102509602/05/06 10:25:31  5-MIN KDBQ 051625Z 36010KT 10SM CLR M04/M10 A2986 1140 65 -900 360/10 RMK AO2
94908KDBQ DBQ20060205103009602/05/06 10:30:31  5-MIN KDBQ 051630Z 36011KT 10SM CLR M04/M09 A2986 1140 65 -800 360/11 RMK AO2
94908KDBQ DBQ20060205103509602/05/06 10:35:31  5-MIN KDBQ 051635Z 35012KT 10SM CLR M04/M10 A2985 1140 63 -800 350/12 RMK AO2
94908KDBQ DBQ20060205104009602/05/06 10:40:31  5-MIN KDBQ 051640Z 34013KT 10SM CLR M04/M10 A2986 1140 63 -800 340/13 RMK AO2
94908KDBQ DBQ20060205104509602/05/06 10:45:31  5-MIN KDBQ 051645Z 35011KT 10SM CLR M04/M10 A2986 1130 63 -800 350/11 RMK AO2
94908KDBQ DBQ20060205105011302/05/06 10:50:31  5-MIN KDBQ 051650Z 36010KT 10SM CLR M04/M10 A2986 1130 63 -800 360/10 RMK AO2 SLP130 T10391100
94908KDBQ DBQ20060205105511302/05/06 10:55:31  5-MIN KDBQ 051655Z 34012KT 10SM CLR M03/M09 A2986 1130 63 -800 340/12 RMK AO2 SLP129 T10331094
94908KDBQ DBQ20060205110009602/05/06 11:00:31  5-MIN KDBQ 051700Z 33011KT 10SM CLR M03/M09 A2986 1130 63 -800 330/11 RMK AO2
94908KDBQ DBQ20060205110509602/05/06 11:05:31  5-MIN KDBQ 051705Z 33012KT 10SM CLR M03/M09 A2986 1130 63 -800 330/12 RMK AO2
94908KDBQ DBQ20060205111009602/05/06 11:10:31  5-MIN KDBQ 051710Z 35011KT 10SM CLR M03/M09 A2986 1130 63 -800 350/11 RMK AO2
94908KDBQ DBQ20060205111509602/05/06 11:15:31  5-MIN KDBQ 051715Z 34012KT 10SM CLR M03/M09 A2987 1130 63 -800 340/12 RMK AO2
94908KDBQ DBQ20060205112009602/05/06 11:20:31  5-MIN KDBQ 051720Z 34010KT 10SM CLR M03/M09 A2987 1130 63 -800 340/10 RMK AO2
94908KDBQ DBQ20060205112509602/05/06 11:25:31  5-MIN KDBQ 051725Z 34014KT 10SM CLR M02/M09 A2987 1130 58 -600 330/14 RMK AO2
94908KDBQ DBQ20060205113010202/05/06 11:30:31  5-MIN KDBQ 051730Z 33013G16KT 10SM CLR M03/M09 A2987 1130 60 -700 330/13G16 RMK AO2
94908KDBQ DBQ20060205113509602/05/06 11:35:31  5-MIN KDBQ 051735Z 34009KT 10SM CLR M03/M09 A2987 1130 60 -700 340/09 RMK AO2
94908KDBQ DBQ20060205114009602/05/06 11:40:31  5-MIN KDBQ 051740Z 33009KT 10SM CLR M03/M09 A2987 1120 60 -700 330/09 RMK AO2
94908KDBQ DBQ20060205114509602/05/06 11:45:31  5-MIN KDBQ 051745Z 35009KT 10SM CLR M03/M09 A2987 1130 60 -700 340/09 RMK AO2
94908KDBQ DBQ20060205115013102/05/06 11:50:31  5-MIN KDBQ 051750Z 32010KT 10SM CLR M02/M09 A2987 1130 58 -600 320/10 RMK AO2 SLP130 T10221094 11022 21100 53005
94908KDBQ DBQ20060205115513102/05/06 11:55:31  5-MIN KDBQ 051755Z 33012KT 10SM CLR M03/M09 A2987 1130 63 -700 330/12 RMK AO2 SLP130 T10281089 11022 21100 51009
94908KDBQ DBQ20060205120009602/05/06 12:00:31  5-MIN KDBQ 051800Z 35009KT 10SM CLR M02/M09 A2987 1130 60 -600 350/09 RMK AO2
94908KDBQ DBQ20060205120509602/05/06 12:05:31  5-MIN KDBQ 051805Z 34009KT 10SM CLR M03/M09 A2986 1130 60 -700 340/09 RMK AO2
94908KDBQ DBQ20060205121009602/05/06 12:10:31  5-MIN KDBQ 051810Z 32011KT 10SM CLR M02/M09 A2986 1130 58 -600 320/11 RMK AO2
94908KDBQ DBQ20060205121509602/05/06 12:15:31  5-MIN KDBQ 051815Z 33011KT 10SM CLR M02/M09 A2986 1130 58 -600 330/11 RMK AO2
94908KDBQ DBQ20060205122009602/05/06 12:20:31  5-MIN KDBQ 051820Z 32011KT 10SM CLR M02/M09 A2986 1130 58 -600 320/11 RMK AO2
94908KDBQ DBQ20060205122509602/05/06 12:25:31  5-MIN KDBQ 051825Z 32008KT 10SM CLR M02/M09 A2986 1130 60 -600 320/08 RMK AO2
94908KDBQ DBQ20060205123009602/05/06 12:30:31  5-MIN KDBQ 051830Z 33009KT 10SM CLR M02/M09 A2986 1130 60 -600 330/09 RMK AO2
94908KDBQ DBQ20060205123509602/05/06 12:35:31  5-MIN KDBQ 051835Z 34008KT 10SM CLR M02/M09 A2986 1130 58 -600 340/08 RMK AO2
94908KDBQ DBQ20060205124009602/05/06 12:40:31  5-MIN KDBQ 051840Z 32009KT 10SM CLR M02/M09 A2986 1130 55 -500 320/09 RMK AO2
94908KDBQ DBQ20060205124509602/05/06 12:45:31  5-MIN KDBQ 051845Z 33009KT 10SM CLR M02/M09 A2986 1130 60 -600 320/09 RMK AO2
94908KDBQ DBQ20060205125012902/05/06 12:50:31  5-MIN KDBQ 051850Z 32008KT 290V360 10SM CLR M02/M09 A2986 1130 58 -500 320/08 290V360 RMK AO2 SLP127 T10171089
94908KDBQ DBQ20060205125511302/05/06 12:55:31  5-MIN KDBQ 051855Z 32009KT 10SM CLR M02/M09 A2986 1130 58 -500 320/09 RMK AO2 SLP128 T10171089
94908KDBQ DBQ20060205130009602/05/06 13:00:31  5-MIN KDBQ 051900Z 31010KT 10SM CLR M01/M09 A2986 1130 55 -500 310/10 RMK AO2
94908KDBQ DBQ20060205130509902/05/06 13:05:31  5-MIN KDBQ 051905Z 32010KT 10SM SCT049 M01/M09 A2986 1130 55 -500 320/10 RMK AO2
94908KDBQ DBQ20060205131009902/05/06 13:10:31  5-MIN KDBQ 051910Z 34010KT 10SM SCT049 M01/M09 A2986 1130 55 -500 340/10 RMK AO2
94908KDBQ DBQ20060205131509902/05/06 13:15:31  5-MIN KDBQ 051915Z 34011KT 10SM BKN049 M01/M09 A2986 1130 55 -500 340/11 RMK AO2
94908KDBQ DBQ20060205132009902/05/06 13:20:31  5-MIN KDBQ 051920Z 32009KT 10SM BKN049 M01/M09 A2986 1130 55 -500 320/09 RMK AO2
94908KDBQ DBQ20060205132509902/05/06 13:25:31  5-MIN KDBQ 051925Z 35012KT 10SM BKN049 M01/M09 A2986 1130 55 -500 350/12 RMK AO2
94908KDBQ DBQ20060205133009902/05/06 13:30:31  5-MIN KDBQ 051930Z 35009KT 10SM SCT049 M01/M09 A2986 1130 53 -400 350/09 RMK AO2
94908KDBQ DBQ20060205133509902/05/06 13:35:31  5-MIN KDBQ 051935Z 35009KT 10SM SCT049 M01/M09 A2986 1130 53 -400 350/09 RMK AO2
94908KDBQ DBQ20060205134009902/05/06 13:40:31  5-MIN KDBQ 051940Z 33008KT 10SM FEW049 M01/M09 A2986 1130 55 -500 330/08 RMK AO2
94908KDBQ DBQ20060205134509902/05/06 13:45:31  5-MIN KDBQ 051945Z 34009KT 10SM FEW049 M01/M09 A2986 1130 53 -400 340/09 RMK AO2
94908KDBQ DBQ20060205135011302/05/06 13:50:31  5-MIN KDBQ 051950Z 33008KT 10SM CLR M01/M09 A2986 1130 53 -400 320/08 RMK AO2 SLP127 T10061089
94908KDBQ DBQ20060205135511302/05/06 13:55:31  5-MIN KDBQ 051955Z 36010KT 10SM CLR M01/M09 A2986 1130 53 -400 360/10 RMK AO2 SLP127 T10061089
94908KDBQ DBQ20060205140009602/05/06 14:00:31  5-MIN KDBQ 052000Z 31009KT 10SM CLR M01/M09 A2986 1130 53 -400 310/09 RMK AO2
94908KDBQ DBQ20060205140509602/05/06 14:05:31  5-MIN KDBQ 052005Z 34012KT 10SM CLR M01/M09 A2986 1130 53 -400 340/12 RMK AO2
94908KDBQ DBQ20060205141009602/05/06 14:10:31  5-MIN KDBQ 052010Z 34014KT 10SM CLR M01/M09 A2986 1130 53 -400 340/14 RMK AO2
94908KDBQ DBQ20060205141509602/05/06 14:15:31  5-MIN KDBQ 052015Z 34011KT 10SM CLR M01/M09 A2986 1130 53 -400 340/11 RMK AO2
94908KDBQ DBQ20060205142009602/05/06 14:20:31  5-MIN KDBQ 052020Z 33011KT 10SM CLR M01/M09 A2986 1130 53 -400 330/11 RMK AO2
94908KDBQ DBQ20060205142509602/05/06 14:25:31  5-MIN KDBQ 052025Z 32010KT 10SM CLR M01/M09 A2986 1130 53 -400 320/10 RMK AO2
94908KDBQ DBQ20060205143009602/05/06 14:30:31  5-MIN KDBQ 052030Z 33010KT 10SM CLR M01/M09 A2987 1130 53 -400 330/10 RMK AO2
94908KDBQ DBQ20060205143509502/05/06 14:35:31  5-MIN KDBQ 052035Z 33010KT 10SM CLR 00/M09 A2987 1130 51 -300 330/10 RMK AO2
94908KDBQ DBQ20060205144009502/05/06 14:40:31  5-MIN KDBQ 052040Z 34009KT 10SM CLR 00/M09 A2986 1130 51 -300 340/09 RMK AO2
94908KDBQ DBQ20060205144509502/05/06 14:45:31  5-MIN KDBQ 052045Z 34011KT 10SM CLR 00/M09 A2987 1130 51 -300 340/11 RMK AO2
94908KDBQ DBQ20060205145011802/05/06 14:50:31  5-MIN KDBQ 052050Z 34012KT 10SM CLR 00/M09 A2987 1130 51 -300 340/12 RMK AO2 SLP129 T00001089 51009
94908KDBQ DBQ20060205145511802/05/06 14:55:31  5-MIN KDBQ 052055Z 33012KT 10SM CLR 00/M09 A2987 1130 51 -300 330/12 RMK AO2 SLP129 T00001089 55000
94908KDBQ DBQ20060205150009502/05/06 15:00:31  5-MIN KDBQ 052100Z 34010KT 10SM CLR 00/M09 A2987 1130 51 -300 340/10 RMK AO2
94908KDBQ DBQ20060205150509502/05/06 15:05:31  5-MIN KDBQ 052105Z 34009KT 10SM CLR 00/M09 A2987 1130 51 -300 340/09 RMK AO2
94908KDBQ DBQ20060205151009502/05/06 15:10:31  5-MIN KDBQ 052110Z 33010KT 10SM CLR 00/M08 A2987 1130 53 -300 330/10 RMK AO2
94908KDBQ DBQ20060205151509502/05/06 15:15:31  5-MIN KDBQ 052115Z 33009KT 10SM CLR 00/M08 A2987 1130 53 -300 330/09 RMK AO2
94908KDBQ DBQ20060205152009502/05/06 15:20:31  5-MIN KDBQ 052120Z 31013KT 10SM CLR 00/M09 A2987 1120 51 -300 310/13 RMK AO2
94908KDBQ DBQ20060205152509502/05/06 15:25:31  5-MIN KDBQ 052125Z 30013KT 10SM CLR 00/M09 A2987 1130 51 -300 300/13 RMK AO2
94908KDBQ DBQ20060205153009502/05/06 15:30:31  5-MIN KDBQ 052130Z 30013KT 10SM CLR 00/M09 A2987 1120 51 -300 300/13 RMK AO2
94908KDBQ DBQ20060205153509502/05/06 15:35:31  5-MIN KDBQ 052135Z 33011KT 10SM CLR 00/M08 A2987 1120 53 -300 330/11 RMK AO2
94908KDBQ DBQ20060205154009502/05/06 15:40:31  5-MIN KDBQ 052140Z 32012KT 10SM CLR 00/M08 A2987 1120 53 -300 320/12 RMK AO2
94908KDBQ DBQ20060205154509502/05/06 15:45:31  5-MIN KDBQ 052145Z 33011KT 10SM CLR 00/M08 A2987 1120 53 -300 330/11 RMK AO2
94908KDBQ DBQ20060205155011202/05/06 15:50:31  5-MIN KDBQ 052150Z 32012KT 10SM CLR 00/M08 A2987 1120 53 -300 320/12 RMK AO2 SLP132 T00001083
94908KDBQ DBQ20060205155511202/05/06 15:55:31  5-MIN KDBQ 052155Z 32011KT 10SM CLR 00/M09 A2988 1120 51 -300 310/11 RMK AO2 SLP132 T00001089
94908KDBQ DBQ20060205160009502/05/06 16:00:31  5-MIN KDBQ 052200Z 31014KT 10SM CLR 00/M08 A2988 1120 53 -400 310/14 RMK AO2
94908KDBQ DBQ20060205160509602/05/06 16:05:31  5-MIN KDBQ 052205Z 32013KT 10SM CLR M01/M08 A2988 1120 56 -400 320/13 RMK AO2
94908KDBQ DBQ20060205161009602/05/06 16:10:31  5-MIN KDBQ 052210Z 32013KT 10SM CLR M01/M09 A2988 1110 53 -400 320/13 RMK AO2
94908KDBQ DBQ20060205161509602/05/06 16:15:31  5-MIN KDBQ 052215Z 33012KT 10SM CLR M01/M08 A2988 1110 56 -400 330/12 RMK AO2
94908KDBQ DBQ20060205162009602/05/06 16:20:31  5-MIN KDBQ 052220Z 33014KT 10SM CLR M01/M08 A2988 1110 56 -400 330/14 RMK AO2
94908KDBQ DBQ20060205162509602/05/06 16:25:31  5-MIN KDBQ 052225Z 32011KT 10SM CLR M01/M09 A2989 1110 53 -400 320/11 RMK AO2
94908KDBQ DBQ20060205163009602/05/06 16:30:31  5-MIN KDBQ 052230Z 33012KT 10SM CLR M01/M09 A2989 1110 55 -500 330/12 RMK AO2
94908KDBQ DBQ20060205163509602/05/06 16:35:31  5-MIN KDBQ 052235Z 33012KT 10SM CLR M01/M09 A2989 1100 55 -500 330/12 RMK AO2
94908KDBQ DBQ20060205164009602/05/06 16:40:31  5-MIN KDBQ 052240Z 34010KT 10SM CLR M01/M09 A2989 1100 55 -500 340/10 RMK AO2
94908KDBQ DBQ20060205164509602/05/06 16:45:31  5-MIN KDBQ 052245Z 34010KT 10SM CLR M01/M09 A2989 1100 55 -500 340/10 RMK AO2
94908KDBQ DBQ20060205165011302/05/06 16:50:31  5-MIN KDBQ 052250Z 33012KT 10SM CLR M02/M09 A2989 1100 58 -600 330/12 RMK AO2 SLP140 T10171089
94908KDBQ DBQ20060205165511302/05/06 16:55:31  5-MIN KDBQ 052255Z 34012KT 10SM CLR M02/M09 A2990 1100 58 -600 340/12 RMK AO2 SLP142 T10171089
94908KDBQ DBQ20060205170009602/05/06 17:00:31  5-MIN KDBQ 052300Z 34011KT 10SM CLR M02/M09 A2990 1100 58 -600 340/11 RMK AO2
94908KDBQ DBQ20060205170509602/05/06 17:05:31  5-MIN KDBQ 052305Z 34010KT 10SM CLR M02/M09 A2990 1100 60 -700 340/10 RMK AO2
94908KDBQ DBQ20060205171009602/05/06 17:10:31  5-MIN KDBQ 052310Z 33012KT 10SM CLR M02/M09 A2990 1090 60 -700 330/12 RMK AO2
94908KDBQ DBQ20060205171509602/05/06 17:15:31  5-MIN KDBQ 052315Z 33012KT 10SM CLR M02/M09 A2990 1090 58 -700 330/12 RMK AO2
94908KDBQ DBQ20060205172009602/05/06 17:20:31  5-MIN KDBQ 052320Z 33012KT 10SM CLR M02/M09 A2991 1090 58 -700 330/12 RMK AO2
94908KDBQ DBQ20060205172509602/05/06 17:25:31  5-MIN KDBQ 052325Z 33010KT 10SM CLR M03/M09 A2991 1090 60 -700 330/10 RMK AO2
94908KDBQ DBQ20060205173009602/05/06 17:30:31  5-MIN KDBQ 052330Z 34010KT 10SM CLR M03/M09 A2991 1090 60 -700 340/10 RMK AO2
94908KDBQ DBQ20060205173509602/05/06 17:35:31  5-MIN KDBQ 052335Z 34011KT 10SM CLR M03/M09 A2992 1080 60 -700 340/11 RMK AO2
94908KDBQ DBQ20060205174009602/05/06 17:40:31  5-MIN KDBQ 052340Z 33009KT 10SM CLR M03/M09 A2992 1080 63 -800 330/09 RMK AO2
94908KDBQ DBQ20060205174509602/05/06 17:45:31  5-MIN KDBQ 052345Z 33008KT 10SM CLR M03/M09 A2992 1080 63 -800 330/08 RMK AO2
94908KDBQ DBQ20060205175013102/05/06 17:50:31  5-MIN KDBQ 052350Z 33008KT 10SM CLR M04/M09 A2992 1080 68 -900 330/08 RMK AO2 SLP151 T10391089 10000 21039 55000
94908KDBQ DBQ20060205175513102/05/06 17:55:31  5-MIN KDBQ 052355Z 33007KT 10SM CLR M04/M09 A2992 1070 65 -900 330/07 RMK AO2 SLP152 T10391094 10000 21039 53019
94908KDBQ DBQ20060205180009602/05/06 18:00:31  5-MIN KDBQ 060000Z 33007KT 10SM CLR M04/M09 A2993 1070 65 -900 330/07 RMK AO2
94908KDBQ DBQ20060205180509602/05/06 18:05:31  5-MIN KDBQ 060005Z 34009KT 10SM CLR M04/M09 A2993 1070 65 -900 340/09 RMK AO2
94908KDBQ DBQ20060205181009602/05/06 18:10:31  5-MIN KDBQ 060010Z 34011KT 10SM CLR M03/M09 A2993 1070 63 -800 330/11 RMK AO2
94908KDBQ DBQ20060205181509602/05/06 18:15:31  5-MIN KDBQ 060015Z 33010KT 10SM CLR M03/M09 A2994 1060 63 -800 330/10 RMK AO2
94908KDBQ DBQ20060205182009602/05/06 18:20:31  5-MIN KDBQ 060020Z 33012KT 10SM CLR M03/M09 A2994 1060 63 -800 320/12 RMK AO2
94908KDBQ DBQ20060205182509602/05/06 18:25:31  5-MIN KDBQ 060025Z 33011KT 10SM CLR M04/M09 A2994 1060 68 -900 330/11 RMK AO2
94908KDBQ DBQ20060205183009602/05/06 18:30:31  5-MIN KDBQ 060030Z 32012KT 10SM CLR M03/M09 A2995 1050 63 -900 320/12 RMK AO2
94908KDBQ DBQ20060205183509602/05/06 18:35:31  5-MIN KDBQ 060035Z 32012KT 10SM CLR M04/M09 A2995 1050 65 -900 320/12 RMK AO2
94908KDBQ DBQ20060205184009602/05/06 18:40:31  5-MIN KDBQ 060040Z 32010KT 10SM CLR M04/M09 A2995 1050 65 -900 320/10 RMK AO2
94908KDBQ DBQ20060205184509602/05/06 18:45:31  5-MIN KDBQ 060045Z 32011KT 10SM CLR M04/M09 A2995 1050 65 -900 320/11 RMK AO2
94908KDBQ DBQ20060205185011302/05/06 18:50:31  5-MIN KDBQ 060050Z 32010KT 10SM CLR M04/M09 A2995 1050 65 -900 320/10 RMK AO2 SLP161 T10391094
94908KDBQ DBQ20060205185511302/05/06 18:55:31  5-MIN KDBQ 060055Z 32013KT 10SM CLR M04/M09 A2995 1050 65 -900 320/13 RMK AO2 SLP162 T10391094
94908KDBQ DBQ20060205190009602/05/06 19:00:31  5-MIN KDBQ 060100Z 32010KT 10SM CLR M04/M09 A2995 1050 65 -900 320/10 RMK AO2
94908KDBQ DBQ20060205190509602/05/06 19:05:31  5-MIN KDBQ 060105Z 32011KT 10SM CLR M04/M09 A2995 1050 65 -900 320/11 RMK AO2
94908KDBQ DBQ20060205191009602/05/06 19:10:31  5-MIN KDBQ 060110Z 32010KT 10SM CLR M04/M09 A2995 1050 65 -900 320/10 RMK AO2
94908KDBQ DBQ20060205191509702/05/06 19:15:31  5-MIN KDBQ 060115Z 32010KT 10SM CLR M04/M09 A2996 1040 68 -1000 320/10 RMK AO2
94908KDBQ DBQ20060205192009702/05/06 19:20:31  5-MIN KDBQ 060120Z 32013KT 10SM CLR M04/M09 A2996 1040 68 -1000 320/13 RMK AO2
94908KDBQ DBQ20060205192509702/05/06 19:25:31  5-MIN KDBQ 060125Z 32010KT 10SM CLR M04/M09 A2996 1040 68 -1000 320/10 RMK AO2
94908KDBQ DBQ20060205193009702/05/06 19:30:31  5-MIN KDBQ 060130Z 32010KT 10SM CLR M04/M09 A2997 1040 68 -1000 320/10 RMK AO2
94908KDBQ DBQ20060205193510702/05/06 19:35:31  5-MIN KDBQ 060135Z AUTO 33010KT 10SM CLR M04/M09 A2997 1040 68 -1000 330/10 RMK AO2 TSNO
94908KDBQ DBQ20060205194010702/05/06 19:40:31  5-MIN KDBQ 060140Z AUTO 33012KT 10SM CLR M04/M09 A2997 1040 68 -1000 330/12 RMK AO2 TSNO
94908KDBQ DBQ20060205194510702/05/06 19:45:31  5-MIN KDBQ 060145Z AUTO 33012KT 10SM CLR M04/M09 A2997 1040 68 -1000 330/12 RMK AO2 TSNO
94908KDBQ DBQ20060205195012402/05/06 19:50:31  5-MIN KDBQ 060150Z AUTO 33013KT 10SM CLR M04/M09 A2997 1040 68 -1000 330/13 RMK AO2 SLP166 T10441094 TSNO
94908KDBQ DBQ20060205195512402/05/06 19:55:31  5-MIN KDBQ 060155Z AUTO 34011KT 10SM CLR M04/M09 A2997 1040 68 -1000 340/11 RMK AO2 SLP166 T10441094 TSNO
94908KDBQ DBQ20060205200010702/05/06 20:00:31  5-MIN KDBQ 060200Z AUTO 34012KT 10SM CLR M05/M09 A2997 1040 71 -1100 340/12 RMK AO2 TSNO
94908KDBQ DBQ20060205200510702/05/06 20:05:31  5-MIN KDBQ 060205Z AUTO 34012KT 10SM CLR M05/M09 A2997 1030 71 -1100 340/12 RMK AO2 TSNO
94908KDBQ DBQ20060205201010702/05/06 20:10:31  5-MIN KDBQ 060210Z AUTO 35013KT 10SM CLR M05/M09 A2997 1040 71 -1100 350/13 RMK AO2 TSNO
94908KDBQ DBQ20060205201510702/05/06 20:15:31  5-MIN KDBQ 060215Z AUTO 35012KT 10SM CLR M05/M09 A2997 1030 71 -1100 350/12 RMK AO2 TSNO
94908KDBQ DBQ20060205202010702/05/06 20:20:31  5-MIN KDBQ 060220Z AUTO 35012KT 10SM CLR M05/M09 A2997 1030 71 -1100 340/12 RMK AO2 TSNO
94908KDBQ DBQ20060205202510702/05/06 20:25:31  5-MIN KDBQ 060225Z AUTO 34012KT 10SM CLR M05/M09 A2997 1030 71 -1100 340/12 RMK AO2 TSNO
94908KDBQ DBQ20060205203010702/05/06 20:30:31  5-MIN KDBQ 060230Z AUTO 34013KT 10SM CLR M05/M09 A2997 1030 71 -1100 340/13 RMK AO2 TSNO
94908KDBQ DBQ20060205203510702/05/06 20:35:31  5-MIN KDBQ 060235Z AUTO 34012KT 10SM CLR M05/M09 A2998 1030 71 -1100 340/12 RMK AO2 TSNO
94908KDBQ DBQ20060205204010702/05/06 20:40:31  5-MIN KDBQ 060240Z AUTO 35013KT 10SM CLR M05/M09 A2998 1030 71 -1100 350/13 RMK AO2 TSNO
94908KDBQ DBQ20060205204510702/05/06 20:45:31  5-MIN KDBQ 060245Z AUTO 34012KT 10SM CLR M05/M09 A2998 1030 71 -1100 340/12 RMK AO2 TSNO
94908KDBQ DBQ20060205205013002/05/06 20:50:31  5-MIN KDBQ 060250Z AUTO 34012KT 10SM CLR M06/M09 A2998 1020 74 -1200 340/12 RMK AO2 SLP169 T10561094 53019 TSNO
94908KDBQ DBQ20060205205513002/05/06 20:55:31  5-MIN KDBQ 060255Z AUTO 34011KT 10SM CLR M06/M09 A2998 1020 74 -1200 340/11 RMK AO2 SLP170 T10561094 51018 TSNO
94908KDBQ DBQ20060205210010702/05/06 21:00:31  5-MIN KDBQ 060300Z AUTO 34013KT 10SM CLR M06/M09 A2998 1020 74 -1200 340/13 RMK AO2 TSNO
94908KDBQ DBQ20060205210510702/05/06 21:05:31  5-MIN KDBQ 060305Z AUTO 33011KT 10SM CLR M06/M09 A2999 1020 74 -1200 330/11 RMK AO2 TSNO
94908KDBQ DBQ20060205211010702/05/06 21:10:31  5-MIN KDBQ 060310Z AUTO 34011KT 10SM CLR M06/M09 A2999 1020 74 -1200 340/11 RMK AO2 TSNO
94908KDBQ DBQ20060205211510702/05/06 21:15:31  5-MIN KDBQ 060315Z AUTO 34011KT 10SM CLR M06/M09 A2998 1020 74 -1200 340/11 RMK AO2 TSNO
94908KDBQ DBQ20060205212010702/05/06 21:20:31  5-MIN KDBQ 060320Z AUTO 34011KT 10SM CLR M06/M09 A2999 1020 74 -1200 340/11 RMK AO2 TSNO
94908KDBQ DBQ20060205212510702/05/06 21:25:31  5-MIN KDBQ 060325Z AUTO 34011KT 10SM CLR M06/M09 A2999 1010 74 -1200 330/11 RMK AO2 TSNO
94908KDBQ DBQ20060205213010702/05/06 21:30:31  5-MIN KDBQ 060330Z AUTO 34010KT 10SM CLR M06/M09 A2999 1010 74 -1200 340/10 RMK AO2 TSNO
94908KDBQ DBQ20060205213510702/05/06 21:35:31  5-MIN KDBQ 060335Z AUTO 34013KT 10SM CLR M06/M09 A2999 1010 74 -1200 340/13 RMK AO2 TSNO
94908KDBQ DBQ20060205214010702/05/06 21:40:31  5-MIN KDBQ 060340Z AUTO 34013KT 10SM CLR M06/M09 A2999 1020 74 -1200 330/13 RMK AO2 TSNO
94908KDBQ DBQ20060205214510702/05/06 21:45:31  5-MIN KDBQ 060345Z AUTO 33011KT 10SM CLR M06/M09 A2999 1010 74 -1200 330/11 RMK AO2 TSNO
94908KDBQ DBQ20060205215012402/05/06 21:50:31  5-MIN KDBQ 060350Z AUTO 34013KT 10SM CLR M06/M09 A2999 1010 74 -1200 340/13 RMK AO2 SLP173 T10561094 TSNO
94908KDBQ DBQ20060205215512402/05/06 21:55:31  5-MIN KDBQ 060355Z AUTO 34012KT 10SM CLR M06/M09 A2999 1010 74 -1200 330/12 RMK AO2 SLP174 T10561094 TSNO
94908KDBQ DBQ20060205220010702/05/06 22:00:31  5-MIN KDBQ 060400Z AUTO 33013KT 10SM CLR M06/M09 A3000 1010 77 -1300 330/13 RMK AO2 TSNO
94908KDBQ DBQ20060205220510702/05/06 22:05:31  5-MIN KDBQ 060405Z AUTO 34009KT 10SM CLR M06/M09 A3000 1010 77 -1300 340/09 RMK AO2 TSNO
94908KDBQ DBQ20060205221010702/05/06 22:10:31  5-MIN KDBQ 060410Z AUTO 34008KT 10SM CLR M06/M09 A2999 1010 77 -1300 340/08 RMK AO2 TSNO
94908KDBQ DBQ20060205221510702/05/06 22:15:31  5-MIN KDBQ 060415Z AUTO 34010KT 10SM CLR M06/M10 A3000 1010 74 -1300 340/10 RMK AO2 TSNO
94908KDBQ DBQ20060205222010702/05/06 22:20:31  5-MIN KDBQ 060420Z AUTO 35010KT 10SM CLR M06/M10 A3000 1010 74 -1300 350/10 RMK AO2 TSNO
94908KDBQ DBQ20060205222510702/05/06 22:25:31  5-MIN KDBQ 060425Z AUTO 35009KT 10SM CLR M06/M10 A3000 1010 74 -1300 350/09 RMK AO2 TSNO
94908KDBQ DBQ20060205223010702/05/06 22:30:31  5-MIN KDBQ 060430Z AUTO 34011KT 10SM CLR M07/M10 A3000 1010 77 -1300 340/11 RMK AO2 TSNO
94908KDBQ DBQ20060205223510702/05/06 22:35:31  5-MIN KDBQ 060435Z AUTO 34009KT 10SM CLR M07/M10 A3000 1010 77 -1300 340/09 RMK AO2 TSNO
94908KDBQ DBQ20060205224010702/05/06 22:40:31  5-MIN KDBQ 060440Z AUTO 34010KT 10SM CLR M07/M10 A3000 1010 77 -1300 340/10 RMK AO2 TSNO
94908KDBQ DBQ20060205224510702/05/06 22:45:31  5-MIN KDBQ 060445Z AUTO 34012KT 10SM CLR M07/M10 A3000 1010 77 -1300 340/12 RMK AO2 TSNO
94908KDBQ DBQ20060205225012402/05/06 22:50:31  5-MIN KDBQ 060450Z AUTO 34011KT 10SM CLR M06/M10 A3000 1010 74 -1300 340/11 RMK AO2 SLP175 T10611100 TSNO
94908KDBQ DBQ20060205225512402/05/06 22:55:31  5-MIN KDBQ 060455Z AUTO 34012KT 10SM CLR M07/M10 A3000 1000 77 -1300 340/12 RMK AO2 SLP175 T10671100 TSNO
94908KDBQ DBQ20060205230010702/05/06 23:00:31  5-MIN KDBQ 060500Z AUTO 34011KT 10SM CLR M07/M10 A3000 1000 77 -1300 340/11 RMK AO2 TSNO
94908KDBQ DBQ20060205230510702/05/06 23:05:31  5-MIN KDBQ 060505Z AUTO 34011KT 10SM CLR M07/M10 A3000 1000 77 -1300 340/11 RMK AO2 TSNO
94908KDBQ DBQ20060205231010702/05/06 23:10:31  5-MIN KDBQ 060510Z AUTO 34011KT 10SM CLR M07/M10 A3000 1000 77 -1300 340/11 RMK AO2 TSNO
94908KDBQ DBQ20060205231510702/05/06 23:15:31  5-MIN KDBQ 060515Z AUTO 33012KT 10SM CLR M07/M10 A3001 1000 77 -1300 330/12 RMK AO2 TSNO
94908KDBQ DBQ20060205232010702/05/06 23:20:31  5-MIN KDBQ 060520Z AUTO 34013KT 10SM CLR M07/M10 A3001 1000 77 -1300 340/13 RMK AO2 TSNO
94908KDBQ DBQ20060205232510702/05/06 23:25:31  5-MIN KDBQ 060525Z AUTO 33010KT 10SM CLR M07/M10 A3001 1000 77 -1300 330/10 RMK AO2 TSNO
94908KDBQ DBQ20060205233010702/05/06 23:30:31  5-MIN KDBQ 060530Z AUTO 33011KT 10SM CLR M07/M10 A3001 1000 77 -1400 330/11 RMK AO2 TSNO
94908KDBQ DBQ20060205233510702/05/06 23:35:31  5-MIN KDBQ 060535Z AUTO 33010KT 10SM CLR M07/M10 A3001 1000 77 -1400 330/10 RMK AO2 TSNO
94908KDBQ DBQ20060205234010702/05/06 23:40:31  5-MIN KDBQ 060540Z AUTO 33012KT 10SM CLR M07/M10 A3001 1000 77 -1300 330/12 RMK AO2 TSNO
94908KDBQ DBQ20060205234510702/05/06 23:45:31  5-MIN KDBQ 060545Z AUTO 33012KT 10SM CLR M07/M11 A3001 1000 74 -1400 330/12 RMK AO2 TSNO
94908KDBQ DBQ20060205235015202/05/06 23:50:31  5-MIN KDBQ 060550Z AUTO 33010KT 10SM CLR M07/M11 A3001 1000 74 -1400 330/10 RMK AO2 SLP177 T10671106 11033 21067 400001100 51018 TSNO
94908KDBQ DBQ20060205235515202/05/06 23:55:31  5-MIN KDBQ 060555Z AUTO 33012KT 10SM CLR M07/M11 A3001 1000 74 -1300 330/12 RMK AO2 SLP177 T10671106 11033 21067 400001100 51009 TSNO
94908KDBQ DBQ20060206000010702/06/06 00:00:38  5-MIN KDBQ 060600Z AUTO 32012KT 10SM CLR M07/M11 A3001 1000 74 -1300 320/12 RMK AO2 TSNO
94908KDBQ DBQ20060206000510702/06/06 00:05:31  5-MIN KDBQ 060605Z AUTO 33010KT 10SM CLR M07/M11 A3001 1000 74 -1300 320/10 RMK AO2 TSNO
94908KDBQ DBQ20060206001010702/06/06 00:10:31  5-MIN KDBQ 060610Z AUTO 33011KT 10SM CLR M07/M11 A3001 1000 71 -1300 330/11 RMK AO2 TSNO
94908KDBQ DBQ20060206001510702/06/06 00:15:32  5-MIN KDBQ 060615Z AUTO 33011KT 10SM CLR M07/M11 A3001 1000 71 -1300 320/11 RMK AO2 TSNO
94908KDBQ DBQ20060206002010702/06/06 00:20:31  5-MIN KDBQ 060620Z AUTO 32013KT 10SM CLR M07/M11 A3001 1000 71 -1300 320/13 RMK AO2 TSNO
94908KDBQ DBQ20060206002510702/06/06 00:25:31  5-MIN KDBQ 060625Z AUTO 33013KT 10SM CLR M07/M12 A3001 1000 68 -1300 330/13 RMK AO2 TSNO
94908KDBQ DBQ20060206003010702/06/06 00:30:31  5-MIN KDBQ 060630Z AUTO 33013KT 10SM CLR M07/M12 A3001 1000 68 -1300 330/13 RMK AO2 TSNO
94908KDBQ DBQ20060206003510702/06/06 00:35:31  5-MIN KDBQ 060635Z AUTO 33012KT 10SM CLR M07/M12 A3001 1000 68 -1400 330/12 RMK AO2 TSNO
94908KDBQ DBQ20060206004010702/06/06 00:40:31  5-MIN KDBQ 060640Z AUTO 33013KT 10SM CLR M07/M12 A3001 1000 65 -1400 330/13 RMK AO2 TSNO
94908KDBQ DBQ20060206004510702/06/06 00:45:31  5-MIN KDBQ 060645Z AUTO 33012KT 10SM CLR M07/M12 A3001 1000 65 -1400 330/12 RMK AO2 TSNO
94908KDBQ DBQ20060206005012402/06/06 00:50:31  5-MIN KDBQ 060650Z AUTO 33013KT 10SM CLR M07/M12 A3001 1000 65 -1400 330/13 RMK AO2 SLP178 T10671122 TSNO
94908KDBQ DBQ20060206005512402/06/06 00:55:31  5-MIN KDBQ 060655Z AUTO 33013KT 10SM CLR M07/M12 A3001 1000 65 -1300 330/13 RMK AO2 SLP177 T10671122 TSNO
94908KDBQ DBQ20060206010010702/06/06 01:00:31  5-MIN KDBQ 060700Z AUTO 33012KT 10SM CLR M07/M12 A3001 1000 68 -1400 330/12 RMK AO2 TSNO
94908KDBQ DBQ20060206010510702/06/06 01:05:31  5-MIN KDBQ 060705Z AUTO 33014KT 10SM CLR M07/M13 A3001 1000 62 -1400 330/14 RMK AO2 TSNO
94908KDBQ DBQ20060206011010702/06/06 01:10:31  5-MIN KDBQ 060710Z AUTO 33014KT 10SM CLR M07/M13 A3001 1000 62 -1400 330/14 RMK AO2 TSNO
94908KDBQ DBQ20060206011510602/06/06 01:15:31  5-MIN KDBQ 060715Z AUTO 33013KT 10SM CLR M07/M13 A3001 990 62 -1400 330/13 RMK AO2 TSNO
94908KDBQ DBQ20060206012010602/06/06 01:20:31  5-MIN KDBQ 060720Z AUTO 33014KT 10SM CLR M07/M13 A3001 990 62 -1400 330/14 RMK AO2 TSNO
94908KDBQ DBQ20060206012510602/06/06 01:25:31  5-MIN KDBQ 060725Z AUTO 33013KT 10SM CLR M07/M13 A3001 990 62 -1400 330/13 RMK AO2 TSNO
94908KDBQ DBQ20060206013010602/06/06 01:30:31  5-MIN KDBQ 060730Z AUTO 33013KT 10SM CLR M07/M13 A3001 990 62 -1400 330/13 RMK AO2 TSNO
94908KDBQ DBQ20060206013510602/06/06 01:35:31  5-MIN KDBQ 060735Z AUTO 33012KT 10SM CLR M07/M13 A3002 990 62 -1400 330/12 RMK AO2 TSNO
94908KDBQ DBQ20060206014010602/06/06 01:40:31  5-MIN KDBQ 060740Z AUTO 33011KT 10SM CLR M07/M13 A3002 990 59 -1400 330/11 RMK AO2 TSNO
94908KDBQ DBQ20060206014510602/06/06 01:45:31  5-MIN KDBQ 060745Z AUTO 32011KT 10SM CLR M07/M13 A3002 990 62 -1400 320/11 RMK AO2 TSNO
94908KDBQ DBQ20060206015012302/06/06 01:50:31  5-MIN KDBQ 060750Z AUTO 31011KT 10SM CLR M07/M13 A3002 990 62 -1400 310/11 RMK AO2 SLP182 T10721133 TSNO
94908KDBQ DBQ20060206015512302/06/06 01:55:31  5-MIN KDBQ 060755Z AUTO 31010KT 10SM CLR M08/M13 A3002 980 64 -1500 310/10 RMK AO2 SLP182 T10781133 TSNO
94908KDBQ DBQ20060206020010602/06/06 02:00:31  5-MIN KDBQ 060800Z AUTO 31011KT 10SM CLR M07/M13 A3002 980 62 -1400 310/11 RMK AO2 TSNO
94908KDBQ DBQ20060206020510602/06/06 02:05:31  5-MIN KDBQ 060805Z AUTO 32011KT 10SM CLR M07/M13 A3002 980 62 -1400 320/11 RMK AO2 TSNO
94908KDBQ DBQ20060206021010602/06/06 02:10:31  5-MIN KDBQ 060810Z AUTO 32010KT 10SM CLR M07/M13 A3002 980 62 -1400 320/10 RMK AO2 TSNO
94908KDBQ DBQ20060206021510602/06/06 02:15:31  5-MIN KDBQ 060815Z AUTO 32011KT 10SM CLR M07/M13 A3003 980 62 -1400 310/11 RMK AO2 TSNO
94908KDBQ DBQ20060206022010602/06/06 02:20:31  5-MIN KDBQ 060820Z AUTO 32012KT 10SM CLR M07/M13 A3003 980 62 -1400 320/12 RMK AO2 TSNO
94908KDBQ DBQ20060206022510602/06/06 02:25:31  5-MIN KDBQ 060825Z AUTO 32012KT 10SM CLR M07/M13 A3003 980 62 -1400 320/12 RMK AO2 TSNO
94908KDBQ DBQ20060206023010602/06/06 02:30:31  5-MIN KDBQ 060830Z AUTO 32012KT 10SM CLR M07/M13 A3002 980 62 -1400 320/12 RMK AO2 TSNO
94908KDBQ DBQ20060206023510602/06/06 02:35:31  5-MIN KDBQ 060835Z AUTO 32012KT 10SM CLR M07/M13 A3002 980 62 -1400 320/12 RMK AO2 TSNO
94908KDBQ DBQ20060206025512902/06/06 02:55:31  5-MIN KDBQ 060855Z AUTO 32011KT 10SM CLR M08/M13 A3002 980 64 -1500 320/11 RMK AO2 SLP182 T10781133 53005 TSNO
94908KDBQ DBQ20060206030010602/06/06 03:00:31  5-MIN KDBQ 060900Z AUTO 33012KT 10SM CLR M07/M14 A3002 980 59 -1400 320/12 RMK AO2 TSNO
94908KDBQ DBQ20060206030510602/06/06 03:05:31  5-MIN KDBQ 060905Z AUTO 32012KT 10SM CLR M07/M14 A3002 980 59 -1400 320/12 RMK AO2 TSNO
94908KDBQ DBQ20060206031010602/06/06 03:10:31  5-MIN KDBQ 060910Z AUTO 32012KT 10SM CLR M07/M14 A3002 980 59 -1400 320/12 RMK AO2 TSNO
94908KDBQ DBQ20060206031510602/06/06 03:15:31  5-MIN KDBQ 060915Z AUTO 32011KT 10SM CLR M08/M14 A3002 980 62 -1500 320/11 RMK AO2 TSNO
94908KDBQ DBQ20060206032010602/06/06 03:20:31  5-MIN KDBQ 060920Z AUTO 33012KT 10SM CLR M08/M14 A3003 980 62 -1500 330/12 RMK AO2 TSNO
94908KDBQ DBQ20060206032510602/06/06 03:25:31  5-MIN KDBQ 060925Z AUTO 32012KT 10SM CLR M08/M14 A3003 980 62 -1500 320/12 RMK AO2 TSNO
94908KDBQ DBQ20060206033010602/06/06 03:30:31  5-MIN KDBQ 060930Z AUTO 31009KT 10SM CLR M07/M14 A3003 980 56 -1400 310/09 RMK AO2 TSNO
94908KDBQ DBQ20060206033510602/06/06 03:35:31  5-MIN KDBQ 060935Z AUTO 31008KT 10SM CLR M08/M14 A3003 980 62 -1600 310/08 RMK AO2 TSNO
94908KDBQ DBQ20060206034010602/06/06 03:40:31  5-MIN KDBQ 060940Z AUTO 30009KT 10SM CLR M09/M14 A3003 980 64 -1700 300/09 RMK AO2 TSNO
94908KDBQ DBQ20060206034510602/06/06 03:45:31  5-MIN KDBQ 060945Z AUTO 30008KT 10SM CLR M09/M14 A3003 980 64 -1700 300/08 RMK AO2 TSNO
94908KDBQ DBQ20060206035012302/06/06 03:50:31  5-MIN KDBQ 060950Z AUTO 31009KT 10SM CLR M09/M14 A3003 980 64 -1700 300/09 RMK AO2 SLP184 T10891144 TSNO
94908KDBQ DBQ20060206035512302/06/06 03:55:31  5-MIN KDBQ 060955Z AUTO 30008KT 10SM CLR M09/M14 A3003 980 64 -1700 300/08 RMK AO2 SLP184 T10891144 TSNO
94908KDBQ DBQ20060206040010602/06/06 04:00:31  5-MIN KDBQ 061000Z AUTO 31009KT 10SM CLR M09/M14 A3003 980 64 -1700 310/09 RMK AO2 TSNO
94908KDBQ DBQ20060206040510602/06/06 04:05:31  5-MIN KDBQ 061005Z AUTO 32008KT 10SM CLR M08/M14 A3003 980 62 -1600 320/08 RMK AO2 TSNO
94908KDBQ DBQ20060206041010602/06/06 04:10:31  5-MIN KDBQ 061010Z AUTO 30007KT 10SM CLR M09/M14 A3003 980 64 -1700 300/07 RMK AO2 TSNO
94908KDBQ DBQ20060206041510602/06/06 04:15:31  5-MIN KDBQ 061015Z AUTO 31007KT 10SM CLR M09/M14 A3003 980 67 -1700 310/07 RMK AO2 TSNO
94908KDBQ DBQ20060206042010602/06/06 04:20:31  5-MIN KDBQ 061020Z AUTO 32009KT 10SM CLR M09/M14 A3003 980 64 -1700 320/09 RMK AO2 TSNO
94908KDBQ DBQ20060206042510602/06/06 04:25:31  5-MIN KDBQ 061025Z AUTO 32011KT 10SM CLR M08/M14 A3003 970 62 -1600 320/11 RMK AO2 TSNO
94908KDBQ DBQ20060206043010602/06/06 04:30:31  5-MIN KDBQ 061030Z AUTO 32011KT 10SM CLR M08/M14 A3004 970 62 -1600 320/11 RMK AO2 TSNO
94908KDBQ DBQ20060206043510602/06/06 04:35:31  5-MIN KDBQ 061035Z AUTO 32010KT 10SM CLR M08/M14 A3004 970 62 -1600 320/10 RMK AO2 TSNO
94908KDBQ DBQ20060206044010602/06/06 04:40:31  5-MIN KDBQ 061040Z AUTO 32010KT 10SM CLR M08/M14 A3003 970 62 -1600 320/10 RMK AO2 TSNO
94908KDBQ DBQ20060206044510602/06/06 04:45:31  5-MIN KDBQ 061045Z AUTO 32010KT 10SM CLR M08/M14 A3003 970 62 -1600 320/10 RMK AO2 TSNO
94908KDBQ DBQ20060206045012302/06/06 04:50:31  5-MIN KDBQ 061050Z AUTO 32010KT 10SM CLR M08/M14 A3003 970 62 -1600 320/10 RMK AO2 SLP187 T10831144 TSNO
94908KDBQ DBQ20060206045512302/06/06 04:55:31  5-MIN KDBQ 061055Z AUTO 33011KT 10SM CLR M08/M15 A3003 970 56 -1500 320/11 RMK AO2 SLP186 T10781150 TSNO
94908KDBQ DBQ20060206050010602/06/06 05:00:31  5-MIN KDBQ 061100Z AUTO 32010KT 10SM CLR M08/M15 A3004 970 59 -1600 320/10 RMK AO2 TSNO
94908KDBQ DBQ20060206050510602/06/06 05:05:31  5-MIN KDBQ 061105Z AUTO 33010KT 10SM CLR M08/M15 A3004 970 56 -1500 330/10 RMK AO2 TSNO
94908KDBQ DBQ20060206051010602/06/06 05:10:31  5-MIN KDBQ 061110Z AUTO 32010KT 10SM CLR M08/M15 A3004 970 59 -1600 320/10 RMK AO2 TSNO
94908KDBQ DBQ20060206051510602/06/06 05:15:31  5-MIN KDBQ 061115Z AUTO 31009KT 10SM CLR M08/M15 A3004 970 56 -1500 310/09 RMK AO2 TSNO
94908KDBQ DBQ20060206052010602/06/06 05:20:31  5-MIN KDBQ 061120Z AUTO 32009KT 10SM CLR M08/M15 A3004 970 59 -1600 320/09 RMK AO2 TSNO
94908KDBQ DBQ20060206052510602/06/06 05:25:31  5-MIN KDBQ 061125Z AUTO 32009KT 10SM CLR M08/M16 A3004 970 54 -1500 320/09 RMK AO2 TSNO
94908KDBQ DBQ20060206053010602/06/06 05:30:31  5-MIN KDBQ 061130Z AUTO 32010KT 10SM CLR M08/M16 A3005 960 56 -1600 320/10 RMK AO2 TSNO
94908KDBQ DBQ20060206053510602/06/06 05:35:31  5-MIN KDBQ 061135Z AUTO 32010KT 10SM CLR M08/M15 A3004 960 59 -1600 320/10 RMK AO2 TSNO
94908KDBQ DBQ20060206054010602/06/06 05:40:31  5-MIN KDBQ 061140Z AUTO 31008KT 10SM CLR M08/M16 A3004 970 56 -1600 310/08 RMK AO2 TSNO
94908KDBQ DBQ20060206054510602/06/06 05:45:31  5-MIN KDBQ 061145Z AUTO 30008KT 10SM CLR M08/M16 A3004 970 56 -1600 300/08 RMK AO2 TSNO
94908KDBQ DBQ20060206055014102/06/06 05:50:31  5-MIN KDBQ 061150Z AUTO 31008KT 10SM CLR M08/M15 A3004 970 59 -1600 310/08 RMK AO2 SLP191 T10831150 11067 21094 53005 TSNO
94908KDBQ DBQ20060206055514102/06/06 05:55:31  5-MIN KDBQ 061155Z AUTO 32009KT 10SM CLR M08/M16 A3005 960 56 -1600 320/09 RMK AO2 SLP192 T10831156 11067 21094 53007 TSNO
94908KDBQ DBQ20060206060010602/06/06 06:00:31  5-MIN KDBQ 061200Z AUTO 32010KT 10SM CLR M09/M16 A3005 960 59 -1700 320/10 RMK AO2 TSNO
94908KDBQ DBQ20060206060509602/06/06 06:05:31  5-MIN KDBQ 061205Z 32011KT 10SM CLR M08/M16 A3005 960 56 -1600 320/11 RMK AO2
94908KDBQ DBQ20060206061009602/06/06 06:10:31  5-MIN KDBQ 061210Z 33010KT 10SM CLR M09/M15 A3005 960 61 -1700 330/10 RMK AO2
94908KDBQ DBQ20060206061509602/06/06 06:15:31  5-MIN KDBQ 061215Z 32010KT 10SM CLR M09/M16 A3005 960 59 -1700 320/10 RMK AO2
94908KDBQ DBQ20060206062009602/06/06 06:20:31  5-MIN KDBQ 061220Z 30009KT 10SM CLR M09/M16 A3005 960 59 -1700 300/09 RMK AO2
94908KDBQ DBQ20060206062509602/06/06 06:25:31  5-MIN KDBQ 061225Z 31009KT 10SM CLR M09/M16 A3005 960 59 -1700 310/09 RMK AO2
94908KDBQ DBQ20060206063009602/06/06 06:30:31  5-MIN KDBQ 061230Z 31009KT 10SM CLR M09/M16 A3005 960 59 -1700 310/09 RMK AO2
94908KDBQ DBQ20060206063509602/06/06 06:35:31  5-MIN KDBQ 061235Z 32009KT 10SM CLR M09/M16 A3005 950 59 -1700 320/09 RMK AO2
94908KDBQ DBQ20060206064009602/06/06 06:40:31  5-MIN KDBQ 061240Z 31010KT 10SM CLR M08/M16 A3005 960 54 -1600 310/10 RMK AO2
94908KDBQ DBQ20060206064509602/06/06 06:45:31  5-MIN KDBQ 061245Z 32008KT 10SM CLR M09/M16 A3006 950 56 -1700 320/08 RMK AO2
94908KDBQ DBQ20060206065011302/06/06 06:50:31  5-MIN KDBQ 061250Z 32008KT 10SM CLR M09/M16 A3006 950 59 -1800 320/08 RMK AO2 SLP197 T10941161
94908KDBQ DBQ20060206065511302/06/06 06:55:31  5-MIN KDBQ 061255Z 32009KT 10SM CLR M09/M16 A3006 950 59 -1800 320/09 RMK AO2 SLP197 T10941161
94908KDBQ DBQ20060206070009602/06/06 07:00:31  5-MIN KDBQ 061300Z 33009KT 10SM CLR M09/M16 A3007 940 56 -1700 330/09 RMK AO2
94908KDBQ DBQ20060206070509602/06/06 07:05:31  5-MIN KDBQ 061305Z 33009KT 10SM CLR M09/M16 A3006 950 59 -1800 330/09 RMK AO2
94908KDBQ DBQ20060206071009602/06/06 07:10:31  5-MIN KDBQ 061310Z 31008KT 10SM CLR M09/M16 A3007 940 59 -1800 310/08 RMK AO2
94908KDBQ DBQ20060206071509602/06/06 07:15:31  5-MIN KDBQ 061315Z 30008KT 10SM CLR M09/M16 A3007 940 59 -1800 300/08 RMK AO2
94908KDBQ DBQ20060206072009602/06/06 07:20:31  5-MIN KDBQ 061320Z 30010KT 10SM CLR M09/M16 A3007 940 61 -1800 300/10 RMK AO2
94908KDBQ DBQ20060206072509602/06/06 07:25:31  5-MIN KDBQ 061325Z 31008KT 10SM CLR M09/M16 A3007 940 61 -1800 310/08 RMK AO2
94908KDBQ DBQ20060206073009602/06/06 07:30:31  5-MIN KDBQ 061330Z 32009KT 10SM CLR M09/M16 A3007 940 61 -1800 320/09 RMK AO2
94908KDBQ DBQ20060206073509602/06/06 07:35:31  5-MIN KDBQ 061335Z 32009KT 10SM CLR M09/M16 A3007 940 59 -1700 320/09 RMK AO2
94908KDBQ DBQ20060206074009602/06/06 07:40:31  5-MIN KDBQ 061340Z 32008KT 10SM CLR M09/M16 A3008 930 59 -1700 320/08 RMK AO2
94908KDBQ DBQ20060206074509602/06/06 07:45:31  5-MIN KDBQ 061345Z 31010KT 10SM CLR M09/M16 A3007 940 59 -1700 310/10 RMK AO2
94908KDBQ DBQ20060206075011302/06/06 07:50:31  5-MIN KDBQ 061350Z 30009KT 10SM CLR M08/M16 A3008 930 56 -1600 300/09 RMK AO2 SLP203 T10831156
94908KDBQ DBQ20060206075511302/06/06 07:55:31  5-MIN KDBQ 061355Z 31009KT 10SM CLR M08/M16 A3008 930 56 -1700 310/09 RMK AO2 SLP204 T10831156
94908KDBQ DBQ20060206080009602/06/06 08:00:31  5-MIN KDBQ 061400Z 31009KT 10SM CLR M08/M16 A3008 930 56 -1700 310/09 RMK AO2
94908KDBQ DBQ20060206080509602/06/06 08:05:31  5-MIN KDBQ 061405Z 31011KT 10SM CLR M08/M16 A3008 930 51 -1600 310/11 RMK AO2
94908KDBQ DBQ20060206081009602/06/06 08:10:31  5-MIN KDBQ 061410Z 31010KT 10SM CLR M08/M17 A3008 930 49 -1600 310/10 RMK AO2
94908KDBQ DBQ20060206081509602/06/06 08:15:31  5-MIN KDBQ 061415Z 32011KT 10SM CLR M07/M17 A3008 930 47 -1500 320/11 RMK AO2
94908KDBQ DBQ20060206082009602/06/06 08:20:31  5-MIN KDBQ 061420Z 32009KT 10SM CLR M07/M17 A3009 930 47 -1500 320/09 RMK AO2
94908KDBQ DBQ20060206082509602/06/06 08:25:31  5-MIN KDBQ 061425Z 32008KT 10SM CLR M07/M16 A3009 920 47 -1400 320/08 RMK AO2
94908KDBQ DBQ20060206083009602/06/06 08:30:31  5-MIN KDBQ 061430Z 33007KT 10SM CLR M07/M16 A3009 920 47 -1400 330/07 RMK AO2
94908KDBQ DBQ20060206083509602/06/06 08:35:31  5-MIN KDBQ 061435Z 33010KT 10SM CLR M07/M17 A3009 920 45 -1400 330/10 RMK AO2
94908KDBQ DBQ20060206084009602/06/06 08:40:31  5-MIN KDBQ 061440Z 33011KT 10SM CLR M07/M17 A3009 920 45 -1400 330/11 RMK AO2
94908KDBQ DBQ20060206084509602/06/06 08:45:31  5-MIN KDBQ 061445Z 33010KT 10SM CLR M06/M17 A3009 920 43 -1400 330/10 RMK AO2
94908KDBQ DBQ20060206085011902/06/06 08:50:31  5-MIN KDBQ 061450Z 33013KT 10SM CLR M06/M17 A3009 920 41 -1400 330/13 RMK AO2 SLP209 T10611172 53007
94908KDBQ DBQ20060206085511902/06/06 08:55:31  5-MIN KDBQ 061455Z 32013KT 10SM CLR M06/M17 A3010 920 40 -1300 320/13 RMK AO2 SLP209 T10561172 53016
94908KDBQ DBQ20060206090010202/06/06 09:00:31  5-MIN KDBQ 061500Z 33012G19KT 10SM CLR M06/M18 A3010 920 38 -1300 330/12G19 RMK AO2
94908KDBQ DBQ20060206090509602/06/06 09:05:31  5-MIN KDBQ 061505Z 33014KT 10SM CLR M06/M18 A3010 920 38 -1300 330/14 RMK AO2
94908KDBQ DBQ20060206091009602/06/06 09:10:31  5-MIN KDBQ 061510Z 33012KT 10SM CLR M05/M18 A3010 910 36 -1200 330/12 RMK AO2
94908KDBQ DBQ20060206091510202/06/06 09:15:31  5-MIN KDBQ 061515Z 33016G19KT 10SM CLR M05/M18 A3010 910 35 -1200 330/16G19 RMK AO2
94908KDBQ DBQ20060206092010202/06/06 09:20:31  5-MIN KDBQ 061520Z 34013G19KT 10SM CLR M05/M19 A3010 910 33 -1200 340/13G19 RMK AO2
94908KDBQ DBQ20060206092509602/06/06 09:25:31  5-MIN KDBQ 061525Z 33016KT 10SM CLR M04/M18 A3011 910 33 -1200 330/16 RMK AO2
94908KDBQ DBQ20060206093009602/06/06 09:30:31  5-MIN KDBQ 061530Z 34013KT 10SM CLR M04/M18 A3011 910 33 -1200 340/13 RMK AO2
94908KDBQ DBQ20060206093509602/06/06 09:35:31  5-MIN KDBQ 061535Z 34014KT 10SM CLR M04/M19 A3011 910 32 -1200 340/14 RMK AO2
94908KDBQ DBQ20060206094009602/06/06 09:40:31  5-MIN KDBQ 061540Z 33016KT 10SM CLR M04/M19 A3011 900 30 -1100 330/16 RMK AO2
94908KDBQ DBQ20060206094509602/06/06 09:45:31  5-MIN KDBQ 061545Z 34014KT 10SM CLR M04/M19 A3011 910 30 -1100 340/14 RMK AO2
94908KDBQ DBQ20060206095011302/06/06 09:50:31  5-MIN KDBQ 061550Z 35012KT 10SM CLR M04/M18 A3011 910 32 -1100 340/12 RMK AO2 SLP211 T10391183
94908KDBQ DBQ20060206095511302/06/06 09:55:31  5-MIN KDBQ 061555Z 35012KT 10SM CLR M04/M18 A3011 910 33 -1100 350/12 RMK AO2 SLP211 T10391178
94908KDBQ DBQ20060206100009602/06/06 10:00:31  5-MIN KDBQ 061600Z 35011KT 10SM CLR M04/M18 A3011 900 33 -1100 350/11 RMK AO2
94908KDBQ DBQ20060206100510202/06/06 10:05:31  5-MIN KDBQ 061605Z 35012G17KT 10SM CLR M03/M18 A3011 900 32 -1000 340/12G17 RMK AO2
94908KDBQ DBQ20060206101010202/06/06 10:10:31  5-MIN KDBQ 061610Z 36011G17KT 10SM CLR M03/M17 A3011 900 33 -1000 350/11G17 RMK AO2
94908KDBQ DBQ20060206101509602/06/06 10:15:31  5-MIN KDBQ 061615Z 33011KT 10SM CLR M03/M18 A3011 900 32 -1000 330/11 RMK AO2
94908KDBQ DBQ20060206102009602/06/06 10:20:31  5-MIN KDBQ 061620Z 33014KT 10SM CLR M03/M18 A3012 900 29 -1000 330/14 RMK AO2
94908KDBQ DBQ20060206102509602/06/06 10:25:31  5-MIN KDBQ 061625Z 33012KT 10SM CLR M03/M18 A3012 900 29 -1000 330/12 RMK AO2
94908KDBQ DBQ20060206103009602/06/06 10:30:31  5-MIN KDBQ 061630Z 35012KT 10SM CLR M03/M18 A3011 900 29 -1000 350/12 RMK AO2
94908KDBQ DBQ20060206103509602/06/06 10:35:31  5-MIN KDBQ 061635Z 34013KT 10SM CLR M03/M18 A3012 890 29 -1000 340/13 RMK AO2
94908KDBQ DBQ20060206104009602/06/06 10:40:31  5-MIN KDBQ 061640Z 34015KT 10SM CLR M03/M19 A3012 890 28 -1000 340/15 RMK AO2
94908KDBQ DBQ20060206104509602/06/06 10:45:31  5-MIN KDBQ 061645Z 34013KT 10SM CLR M03/M19 A3012 890 28 -1000 340/13 RMK AO2
94908KDBQ DBQ20060206105011202/06/06 10:50:31  5-MIN KDBQ 061650Z 33014KT 10SM CLR M02/M19 A3012 890 27 -900 330/14 RMK AO2 SLP217 T10221189
94908KDBQ DBQ20060206105511202/06/06 10:55:31  5-MIN KDBQ 061655Z 34013KT 10SM CLR M02/M19 A3013 890 27 -900 340/13 RMK AO2 SLP217 T10221189
94908KDBQ DBQ20060206110009502/06/06 11:00:31  5-MIN KDBQ 061700Z 33014KT 10SM CLR M02/M19 A3013 890 26 -900 330/14 RMK AO2
94908KDBQ DBQ20060206110509502/06/06 11:05:31  5-MIN KDBQ 061705Z 34013KT 10SM CLR M02/M19 A3013 890 26 -900 340/13 RMK AO2
94908KDBQ DBQ20060206111009502/06/06 11:10:31  5-MIN KDBQ 061710Z 34016KT 10SM CLR M02/M19 A3013 890 26 -800 340/16 RMK AO2
94908KDBQ DBQ20060206111509502/06/06 11:15:31  5-MIN KDBQ 061715Z 34015KT 10SM CLR M02/M19 A3013 890 25 -800 340/15 RMK AO2
94908KDBQ DBQ20060206112009502/06/06 11:20:31  5-MIN KDBQ 061720Z 34016KT 10SM CLR M02/M19 A3012 890 25 -800 340/16 RMK AO2
94908KDBQ DBQ20060206112509502/06/06 11:25:31  5-MIN KDBQ 061725Z 34014KT 10SM CLR M02/M20 A3012 890 23 -800 340/14 RMK AO2
94908KDBQ DBQ20060206113009502/06/06 11:30:31  5-MIN KDBQ 061730Z 33013KT 10SM CLR M01/M19 A3012 890 24 -800 330/13 RMK AO2
94908KDBQ DBQ20060206113509502/06/06 11:35:31  5-MIN KDBQ 061735Z 34013KT 10SM CLR M01/M19 A3012 890 24 -800 340/13 RMK AO2
94908KDBQ DBQ20060206114009502/06/06 11:40:31  5-MIN KDBQ 061740Z 34011KT 10SM CLR M01/M19 A3012 890 24 -800 340/11 RMK AO2
94908KDBQ DBQ20060206114509502/06/06 11:45:31  5-MIN KDBQ 061745Z 34012KT 10SM CLR M01/M19 A3012 890 25 -800 330/12 RMK AO2
94908KDBQ DBQ20060206115013002/06/06 11:50:31  5-MIN KDBQ 061750Z 34011KT 10SM CLR M01/M19 A3012 890 24 -700 340/11 RMK AO2 SLP216 T10061189 11006 21094 53016
94908KDBQ DBQ20060206115513002/06/06 11:55:31  5-MIN KDBQ 061755Z 34010KT 10SM CLR M01/M18 A3012 890 25 -700 340/10 RMK AO2 SLP215 T10061183 11006 21094 50009
94908KDBQ DBQ20060206120009502/06/06 12:00:31  5-MIN KDBQ 061800Z 31014KT 10SM CLR M01/M18 A3012 890 25 -700 310/14 RMK AO2
94908KDBQ DBQ20060206120509502/06/06 12:05:31  5-MIN KDBQ 061805Z 32015KT 10SM CLR M01/M19 A3012 890 24 -700 320/15 RMK AO2
94908KDBQ DBQ20060206121009402/06/06 12:10:31  5-MIN KDBQ 061810Z 33012KT 10SM CLR 00/M19 A3012 890 23 -600 330/12 RMK AO2
94908KDBQ DBQ20060206121509502/06/06 12:15:31  5-MIN KDBQ 061815Z 33015KT 10SM CLR M01/M19 A3012 890 24 -700 330/15 RMK AO2
94908KDBQ DBQ20060206122009502/06/06 12:20:31  5-MIN KDBQ 061820Z 33012KT 10SM CLR M01/M18 A3012 890 25 -700 330/12 RMK AO2
94908KDBQ DBQ20060206122509502/06/06 12:25:31  5-MIN KDBQ 061825Z 34015KT 10SM CLR M01/M19 A3012 890 24 -700 330/15 RMK AO2
94908KDBQ DBQ20060206123010002/06/06 12:30:31  5-MIN KDBQ 061830Z 33017G20KT 10SM CLR 00/M18 A3012 900 24 -600 330/17G20 RMK AO2
94908KDBQ DBQ20060206123510002/06/06 12:35:31  5-MIN KDBQ 061835Z 34016G21KT 10SM CLR 00/M19 A3012 900 23 -600 340/16G21 RMK AO2
94908KDBQ DBQ20060206124010002/06/06 12:40:31  5-MIN KDBQ 061840Z 33015G21KT 10SM CLR 00/M18 A3011 900 24 -600 330/15G21 RMK AO2
94908KDBQ DBQ20060206124509402/06/06 12:45:31  5-MIN KDBQ 061845Z 33015KT 10SM CLR 00/M18 A3011 900 25 -600 330/15 RMK AO2
94908KDBQ DBQ20060206125011102/06/06 12:50:31  5-MIN KDBQ 061850Z 33016KT 10SM CLR 00/M18 A3011 900 24 -600 330/16 RMK AO2 SLP212 T00001183
94908KDBQ DBQ20060206125511102/06/06 12:55:31  5-MIN KDBQ 061855Z 33016KT 10SM CLR 00/M18 A3011 900 24 -600 330/16 RMK AO2 SLP212 T00001183
94908KDBQ DBQ20060206130009402/06/06 13:00:31  5-MIN KDBQ 061900Z 31014KT 10SM CLR 00/M18 A3011 900 24 -600 310/14 RMK AO2
94908KDBQ DBQ20060206130509402/06/06 13:05:31  5-MIN KDBQ 061905Z 31013KT 10SM CLR 00/M18 A3011 900 24 -600 310/13 RMK AO2
94908KDBQ DBQ20060206131009402/06/06 13:10:31  5-MIN KDBQ 061910Z 32016KT 10SM CLR 00/M18 A3011 900 24 -600 320/16 RMK AO2
94908KDBQ DBQ20060206131509402/06/06 13:15:31  5-MIN KDBQ 061915Z 31013KT 10SM CLR 01/M18 A3011 900 23 -500 310/13 RMK AO2
94908KDBQ DBQ20060206132010002/06/06 13:20:31  5-MIN KDBQ 061920Z 33016G22KT 10SM CLR 01/M18 A3011 900 24 -500 330/16G22 RMK AO2
94908KDBQ DBQ20060206132510002/06/06 13:25:31  5-MIN KDBQ 061925Z 31018G22KT 10SM CLR 01/M18 A3011 900 24 -500 300/18G22 RMK AO2
94908KDBQ DBQ20060206133010002/06/06 13:30:31  5-MIN KDBQ 061930Z 32015G22KT 10SM CLR 01/M18 A3011 910 23 -500 320/15G22 RMK AO2
94908KDBQ DBQ20060206133509402/06/06 13:35:31  5-MIN KDBQ 061935Z 33016KT 10SM CLR 01/M18 A3011 910 23 -500 330/16 RMK AO2
94908KDBQ DBQ20060206134009402/06/06 13:40:31  5-MIN KDBQ 061940Z 33015KT 10SM CLR 01/M18 A3011 910 24 -500 330/15 RMK AO2
94908KDBQ DBQ20060206134509402/06/06 13:45:31  5-MIN KDBQ 061945Z 33014KT 10SM CLR 01/M18 A3011 910 23 -500 330/14 RMK AO2
94908KDBQ DBQ20060206135011102/06/06 13:50:31  5-MIN KDBQ 061950Z 34016KT 10SM CLR 01/M18 A3011 910 24 -500 330/16 RMK AO2 SLP210 T00061178
94908KDBQ DBQ20060206135511102/06/06 13:55:31  5-MIN KDBQ 061955Z 32015KT 10SM CLR 01/M18 A3011 910 22 -500 320/15 RMK AO2 SLP210 T00111183
94908KDBQ DBQ20060206140010002/06/06 14:00:31  5-MIN KDBQ 062000Z 33013G20KT 10SM CLR 01/M18 A3010 910 22 -500 320/13G20 RMK AO2
94908KDBQ DBQ20060206140510002/06/06 14:05:31  5-MIN KDBQ 062005Z 33013G19KT 10SM CLR 01/M18 A3010 910 22 -500 330/13G19 RMK AO2
94908KDBQ DBQ20060206141010002/06/06 14:10:31  5-MIN KDBQ 062010Z 32013G19KT 10SM CLR 01/M18 A3010 910 22 -500 320/13G19 RMK AO2
94908KDBQ DBQ20060206141509402/06/06 14:15:31  5-MIN KDBQ 062015Z 31015KT 10SM CLR 01/M19 A3010 910 21 -500 310/15 RMK AO2
94908KDBQ DBQ20060206142010002/06/06 14:20:31  5-MIN KDBQ 062020Z 31017G22KT 10SM CLR 01/M18 A3010 910 22 -500 310/17G22 RMK AO2
94908KDBQ DBQ20060206142510002/06/06 14:25:31  5-MIN KDBQ 062025Z 32016G22KT 10SM CLR 01/M19 A3011 910 21 -500 320/16G22 RMK AO2
94908KDBQ DBQ20060206143010002/06/06 14:30:31  5-MIN KDBQ 062030Z 33015G22KT 10SM CLR 01/M19 A3011 910 21 -500 330/15G22 RMK AO2
94908KDBQ DBQ20060206143509402/06/06 14:35:31  5-MIN KDBQ 062035Z 32012KT 10SM CLR 02/M19 A3010 910 20 -400 320/12 RMK AO2
94908KDBQ DBQ20060206144009402/06/06 14:40:31  5-MIN KDBQ 062040Z 33014KT 10SM CLR 01/M19 A3011 910 21 -500 320/14 RMK AO2
94908KDBQ DBQ20060206144509402/06/06 14:45:31  5-MIN KDBQ 062045Z 31018KT 10SM CLR 01/M19 A3011 910 21 -500 310/18 RMK AO2
94908KDBQ DBQ20060206145011702/06/06 14:50:31  5-MIN KDBQ 062050Z 31012KT 10SM CLR 02/M18 A3011 900 21 -400 310/12 RMK AO2 SLP212 T00171183 50009
94908KDBQ DBQ20060206145511702/06/06 14:55:31  5-MIN KDBQ 062055Z 32014KT 10SM CLR 02/M19 A3011 900 20 -400 320/14 RMK AO2 SLP212 T00171189 55003
94908KDBQ DBQ20060206150010002/06/06 15:00:31  5-MIN KDBQ 062100Z 32014G20KT 10SM CLR 02/M19 A3011 900 19 -400 320/14G20 RMK AO2
94908KDBQ DBQ20060206150510002/06/06 15:05:31  5-MIN KDBQ 062105Z 33013G20KT 10SM CLR 02/M19 A3012 900 20 -400 330/13G20 RMK AO2
94908KDBQ DBQ20060206151010002/06/06 15:10:31  5-MIN KDBQ 062110Z 32015G21KT 10SM CLR 02/M19 A3012 900 19 -400 310/15G21 RMK AO2
94908KDBQ DBQ20060206151510002/06/06 15:15:31  5-MIN KDBQ 062115Z 32013G21KT 10SM CLR 02/M19 A3012 900 20 -400 320/13G21 RMK AO2
94908KDBQ DBQ20060206152009402/06/06 15:20:31  5-MIN KDBQ 062120Z 32015KT 10SM CLR 02/M19 A3012 900 20 -400 320/15 RMK AO2
94908KDBQ DBQ20060206152509402/06/06 15:25:31  5-MIN KDBQ 062125Z 32015KT 10SM CLR 02/M19 A3012 900 19 -400 310/15 RMK AO2
94908KDBQ DBQ20060206153009402/06/06 15:30:31  5-MIN KDBQ 062130Z 30016KT 10SM CLR 02/M19 A3012 900 19 -400 300/16 RMK AO2
94908KDBQ DBQ20060206153509402/06/06 15:35:31  5-MIN KDBQ 062135Z 31014KT 10SM CLR 01/M19 A3012 900 20 -500 310/14 RMK AO2
94908KDBQ DBQ20060206154009402/06/06 15:40:31  5-MIN KDBQ 062140Z 32013KT 10SM CLR 01/M19 A3011 900 21 -500 320/13 RMK AO2
94908KDBQ DBQ20060206154509402/06/06 15:45:31  5-MIN KDBQ 062145Z 32012KT 10SM CLR 01/M19 A3011 900 21 -500 320/12 RMK AO2
94908KDBQ DBQ20060206155011102/06/06 15:50:31  5-MIN KDBQ 062150Z 31013KT 10SM CLR 01/M19 A3011 900 21 -500 310/13 RMK AO2 SLP213 T00111189
94908KDBQ DBQ20060206155511102/06/06 15:55:31  5-MIN KDBQ 062155Z 32015KT 10SM CLR 01/M19 A3011 900 20 -500 320/15 RMK AO2 SLP213 T00111194
94908KDBQ DBQ20060206160009402/06/06 16:00:31  5-MIN KDBQ 062200Z 33014KT 10SM CLR 01/M19 A3011 900 20 -500 330/14 RMK AO2
94908KDBQ DBQ20060206160509402/06/06 16:05:31  5-MIN KDBQ 062205Z 33011KT 10SM CLR 01/M19 A3011 900 21 -500 330/11 RMK AO2
94908KDBQ DBQ20060206161009402/06/06 16:10:31  5-MIN KDBQ 062210Z 33012KT 10SM CLR 01/M19 A3011 900 21 -500 330/12 RMK AO2
94908KDBQ DBQ20060206161509402/06/06 16:15:31  5-MIN KDBQ 062215Z 32013KT 10SM CLR 01/M19 A3011 900 21 -500 320/13 RMK AO2
94908KDBQ DBQ20060206162009402/06/06 16:20:31  5-MIN KDBQ 062220Z 32014KT 10SM CLR 01/M19 A3012 900 21 -600 310/14 RMK AO2
94908KDBQ DBQ20060206162509402/06/06 16:25:31  5-MIN KDBQ 062225Z 32013KT 10SM CLR 01/M19 A3012 900 21 -600 320/13 RMK AO2
94908KDBQ DBQ20060206163009402/06/06 16:30:31  5-MIN KDBQ 062230Z 32012KT 10SM CLR 01/M19 A3011 900 22 -600 320/12 RMK AO2
94908KDBQ DBQ20060206163509402/06/06 16:35:31  5-MIN KDBQ 062235Z 32011KT 10SM CLR 01/M19 A3011 900 22 -600 320/11 RMK AO2
94908KDBQ DBQ20060206164009402/06/06 16:40:31  5-MIN KDBQ 062240Z 31013KT 10SM CLR 01/M19 A3012 900 22 -600 310/13 RMK AO2
94908KDBQ DBQ20060206164509402/06/06 16:45:31  5-MIN KDBQ 062245Z 33012KT 10SM CLR 01/M19 A3012 900 22 -600 330/12 RMK AO2
94908KDBQ DBQ20060206165011102/06/06 16:50:31  5-MIN KDBQ 062250Z 33012KT 10SM CLR 00/M18 A3012 900 24 -600 330/12 RMK AO2 SLP214 T00001183
94908KDBQ DBQ20060206165511102/06/06 16:55:31  5-MIN KDBQ 062255Z 33011KT 10SM CLR 00/M18 A3012 900 24 -600 330/11 RMK AO2 SLP215 T00001183
94908KDBQ DBQ20060206170009502/06/06 17:00:31  5-MIN KDBQ 062300Z 32010KT 10SM CLR M01/M18 A3012 900 25 -700 310/10 RMK AO2
94908KDBQ DBQ20060206170509502/06/06 17:05:31  5-MIN KDBQ 062305Z 31008KT 10SM CLR M01/M18 A3012 900 25 -700 310/08 RMK AO2
94908KDBQ DBQ20060206171009502/06/06 17:10:31  5-MIN KDBQ 062310Z 32009KT 10SM CLR M01/M18 A3012 900 27 -800 320/09 RMK AO2
94908KDBQ DBQ20060206171509502/06/06 17:15:31  5-MIN KDBQ 062315Z 31010KT 10SM CLR M01/M18 A3012 890 27 -800 310/10 RMK AO2
94908KDBQ DBQ20060206172009502/06/06 17:20:31  5-MIN KDBQ 062320Z 32010KT 10SM CLR M01/M18 A3012 890 27 -800 320/10 RMK AO2
94908KDBQ DBQ20060206172509502/06/06 17:25:31  5-MIN KDBQ 062325Z 32009KT 10SM CLR M02/M18 A3012 890 28 -800 320/09 RMK AO2
94908KDBQ DBQ20060206173009502/06/06 17:30:31  5-MIN KDBQ 062330Z 32009KT 10SM CLR M02/M17 A3012 890 31 -900 310/09 RMK AO2
94908KDBQ DBQ20060206173509502/06/06 17:35:31  5-MIN KDBQ 062335Z 31008KT 10SM CLR M02/M18 A3012 890 29 -900 310/08 RMK AO2
94908KDBQ DBQ20060206174009602/06/06 17:40:31  5-MIN KDBQ 062340Z 31008KT 10SM CLR M03/M17 A3012 890 32 -1000 310/08 RMK AO2
94908KDBQ DBQ20060206174509602/06/06 17:45:31  5-MIN KDBQ 062345Z 31009KT 10SM CLR M03/M17 A3012 890 32 -1000 310/09 RMK AO2
94908KDBQ DBQ20060206175013002/06/06 17:50:31  5-MIN KDBQ 062350Z 31010KT 10SM CLR M02/M18 A3012 890 29 -900 310/10 RMK AO2 SLP217 T10221178 10017 21028 55003
94908KDBQ DBQ20060206175513002/06/06 17:55:31  5-MIN KDBQ 062355Z 30008KT 10SM CLR M02/M17 A3012 890 31 -900 300/08 RMK AO2 SLP218 T10221172 10017 21028 53004
94908KDBQ DBQ20060206180009602/06/06 18:00:31  5-MIN KDBQ 070000Z 30008KT 10SM CLR M03/M17 A3012 890 35 -1100 290/08 RMK AO2
94908KDBQ DBQ20060206180509602/06/06 18:05:31  5-MIN KDBQ 070005Z 30009KT 10SM CLR M03/M17 A3013 890 34 -1000 300/09 RMK AO2
94908KDBQ DBQ20060206181009602/06/06 18:10:31  5-MIN KDBQ 070010Z 30011KT 10SM CLR M03/M16 A3012 890 35 -1000 300/11 RMK AO2
94908KDBQ DBQ20060206181509602/06/06 18:15:31  5-MIN KDBQ 070015Z 30012KT 10SM CLR M03/M16 A3012 890 37 -1000 300/12 RMK AO2
94908KDBQ DBQ20060206182009602/06/06 18:20:31  5-MIN KDBQ 070020Z 30013KT 10SM CLR M03/M16 A3012 890 37 -1000 300/13 RMK AO2
94908KDBQ DBQ20060206182509602/06/06 18:25:31  5-MIN KDBQ 070025Z 30012KT 10SM CLR M03/M15 A3013 890 39 -1000 300/12 RMK AO2
94908KDBQ DBQ20060206183009602/06/06 18:30:31  5-MIN KDBQ 070030Z 30012KT 10SM CLR M03/M15 A3013 890 39 -1000 300/12 RMK AO2
94908KDBQ DBQ20060206183509602/06/06 18:35:31  5-MIN KDBQ 070035Z 30013KT 10SM CLR M03/M15 A3013 880 39 -1000 300/13 RMK AO2
94908KDBQ DBQ20060206184009602/06/06 18:40:31  5-MIN KDBQ 070040Z 31012KT 10SM CLR M03/M15 A3013 880 39 -1000 300/12 RMK AO2
94908KDBQ DBQ20060206184509602/06/06 18:45:31  5-MIN KDBQ 070045Z 31011KT 10SM CLR M03/M15 A3013 880 39 -1000 310/11 RMK AO2
94908KDBQ DBQ20060206185011302/06/06 18:50:31  5-MIN KDBQ 070050Z 31012KT 10SM CLR M03/M15 A3014 880 40 -1100 310/12 RMK AO2 SLP223 T10331150
94908KDBQ DBQ20060206185511302/06/06 18:55:31  5-MIN KDBQ 070055Z 31013KT 10SM CLR M03/M15 A3014 880 40 -1100 300/13 RMK AO2 SLP223 T10331150
94908KDBQ DBQ20060206190009602/06/06 19:00:31  5-MIN KDBQ 070100Z 31012KT 10SM CLR M03/M15 A3014 880 40 -1100 310/12 RMK AO2
94908KDBQ DBQ20060206190509602/06/06 19:05:31  5-MIN KDBQ 070105Z 31011KT 10SM CLR M03/M15 A3014 880 40 -1100 310/11 RMK AO2
94908KDBQ DBQ20060206191009602/06/06 19:10:31  5-MIN KDBQ 070110Z 31012KT 10SM CLR M03/M15 A3014 880 40 -1100 310/12 RMK AO2
94908KDBQ DBQ20060206191509602/06/06 19:15:31  5-MIN KDBQ 070115Z 31013KT 10SM CLR M03/M15 A3014 880 39 -1000 310/13 RMK AO2
94908KDBQ DBQ20060206192009602/06/06 19:20:31  5-MIN KDBQ 070120Z 31012KT 10SM CLR M03/M16 A3014 870 37 -1000 310/12 RMK AO2
94908KDBQ DBQ20060206192509602/06/06 19:25:31  5-MIN KDBQ 070125Z 31014KT 10SM CLR M03/M16 A3014 870 38 -1100 310/14 RMK AO2
94908KDBQ DBQ20060206193010602/06/06 19:30:31  5-MIN KDBQ 070130Z AUTO 31013KT 10SM CLR M03/M16 A3014 870 38 -1100 310/13 RMK AO2 TSNO
94908KDBQ DBQ20060206193510602/06/06 19:35:31  5-MIN KDBQ 070135Z AUTO 32011KT 10SM CLR M03/M15 A3014 870 40 -1100 320/11 RMK AO2 TSNO
94908KDBQ DBQ20060206194010602/06/06 19:40:31  5-MIN KDBQ 070140Z AUTO 32011KT 10SM CLR M03/M15 A3014 870 40 -1100 310/11 RMK AO2 TSNO
94908KDBQ DBQ20060206194510602/06/06 19:45:31  5-MIN KDBQ 070145Z AUTO 31012KT 10SM CLR M03/M15 A3014 880 40 -1100 310/12 RMK AO2 TSNO
94908KDBQ DBQ20060206195012302/06/06 19:50:31  5-MIN KDBQ 070150Z AUTO 31011KT 10SM CLR M03/M15 A3014 870 40 -1100 310/11 RMK AO2 SLP226 T10331150 TSNO
94908KDBQ DBQ20060206195512302/06/06 19:55:31  5-MIN KDBQ 070155Z AUTO 31012KT 10SM CLR M03/M15 A3014 870 40 -1100 310/12 RMK AO2 SLP226 T10331150 TSNO
94908KDBQ DBQ20060206200010602/06/06 20:00:31  5-MIN KDBQ 070200Z AUTO 31012KT 10SM CLR M04/M15 A3015 870 42 -1200 310/12 RMK AO2 TSNO
94908KDBQ DBQ20060206200510602/06/06 20:05:31  5-MIN KDBQ 070205Z AUTO 31013KT 10SM CLR M04/M15 A3015 870 42 -1200 310/13 RMK AO2 TSNO
94908KDBQ DBQ20060206201010602/06/06 20:10:31  5-MIN KDBQ 070210Z AUTO 31013KT 10SM CLR M04/M15 A3015 870 42 -1200 310/13 RMK AO2 TSNO
94908KDBQ DBQ20060206201510602/06/06 20:15:31  5-MIN KDBQ 070215Z AUTO 31011KT 10SM CLR M04/M15 A3015 870 42 -1200 310/11 RMK AO2 TSNO
94908KDBQ DBQ20060206202010602/06/06 20:20:31  5-MIN KDBQ 070220Z AUTO 31011KT 10SM CLR M04/M15 A3015 870 42 -1200 310/11 RMK AO2 TSNO
94908KDBQ DBQ20060206202510602/06/06 20:25:31  5-MIN KDBQ 070225Z AUTO 31011KT 10SM CLR M04/M14 A3015 870 44 -1200 310/11 RMK AO2 TSNO
94908KDBQ DBQ20060206203010602/06/06 20:30:31  5-MIN KDBQ 070230Z AUTO 31011KT 10SM CLR M04/M14 A3015 860 46 -1200 310/11 RMK AO2 TSNO
94908KDBQ DBQ20060206203510602/06/06 20:35:31  5-MIN KDBQ 070235Z AUTO 32011KT 10SM CLR M04/M14 A3015 870 44 -1200 320/11 RMK AO2 TSNO
94908KDBQ DBQ20060206204010602/06/06 20:40:31  5-MIN KDBQ 070240Z AUTO 32011KT 10SM CLR M04/M14 A3015 870 46 -1200 320/11 RMK AO2 TSNO
94908KDBQ DBQ20060206204510602/06/06 20:45:31  5-MIN KDBQ 070245Z AUTO 32011KT 10SM CLR M04/M14 A3015 860 46 -1200 310/11 RMK AO2 TSNO
94908KDBQ DBQ20060206205012902/06/06 20:50:31  5-MIN KDBQ 070250Z AUTO 32012KT 10SM CLR M04/M14 A3015 860 46 -1200 320/12 RMK AO2 SLP228 T10441144 53004 TSNO
94908KDBQ DBQ20060206205512902/06/06 20:55:31  5-MIN KDBQ 070255Z AUTO 32012KT 10SM CLR M04/M14 A3015 860 46 -1200 320/12 RMK AO2 SLP228 T10441144 51009 TSNO
94908KDBQ DBQ20060206210010602/06/06 21:00:31  5-MIN KDBQ 070300Z AUTO 33016KT 10SM CLR M04/M14 A3015 860 44 -1200 330/16 RMK AO2 TSNO
94908KDBQ DBQ20060206210510602/06/06 21:05:31  5-MIN KDBQ 070305Z AUTO 32012KT 10SM CLR M04/M14 A3015 870 46 -1200 320/12 RMK AO2 TSNO
94908KDBQ DBQ20060206211010602/06/06 21:10:31  5-MIN KDBQ 070310Z AUTO 32014KT 10SM CLR M04/M14 A3015 870 46 -1200 320/14 RMK AO2 TSNO
94908KDBQ DBQ20060206211510602/06/06 21:15:31  5-MIN KDBQ 070315Z AUTO 32012KT 10SM CLR M04/M14 A3015 870 48 -1200 320/12 RMK AO2 TSNO
94908KDBQ DBQ20060206212010602/06/06 21:20:31  5-MIN KDBQ 070320Z AUTO 32011KT 10SM CLR M05/M14 A3015 870 50 -1300 320/11 RMK AO2 TSNO
94908KDBQ DBQ20060206212510602/06/06 21:25:31  5-MIN KDBQ 070325Z AUTO 33011KT 10SM CLR M04/M14 A3015 870 48 -1200 330/11 RMK AO2 TSNO
94908KDBQ DBQ20060206213010602/06/06 21:30:31  5-MIN KDBQ 070330Z AUTO 33011KT 10SM CLR M05/M14 A3015 870 50 -1300 330/11 RMK AO2 TSNO
94908KDBQ DBQ20060206213510602/06/06 21:35:31  5-MIN KDBQ 070335Z AUTO 34011KT 10SM CLR M05/M14 A3015 870 50 -1300 340/11 RMK AO2 TSNO
94908KDBQ DBQ20060206214010602/06/06 21:40:31  5-MIN KDBQ 070340Z AUTO 34010KT 10SM CLR M05/M14 A3015 870 50 -1300 340/10 RMK AO2 TSNO
94908KDBQ DBQ20060206214510602/06/06 21:45:31  5-MIN KDBQ 070345Z AUTO 34009KT 10SM CLR M05/M14 A3015 860 50 -1300 340/09 RMK AO2 TSNO
94908KDBQ DBQ20060206215012302/06/06 21:50:31  5-MIN KDBQ 070350Z AUTO 33009KT 10SM CLR M06/M14 A3015 860 52 -1400 330/09 RMK AO2 SLP227 T10561139 TSNO
94908KDBQ DBQ20060206215512302/06/06 21:55:31  5-MIN KDBQ 070355Z AUTO 33010KT 10SM CLR M05/M14 A3016 860 50 -1300 330/10 RMK AO2 SLP228 T10501139 TSNO
94908KDBQ DBQ20060206220010602/06/06 22:00:31  5-MIN KDBQ 070400Z AUTO 33009KT 10SM CLR M06/M14 A3016 860 52 -1400 330/09 RMK AO2 TSNO
94908KDBQ DBQ20060206220510602/06/06 22:05:31  5-MIN KDBQ 070405Z AUTO 33009KT 10SM CLR M06/M14 A3016 860 52 -1400 330/09 RMK AO2 TSNO
94908KDBQ DBQ20060206221010602/06/06 22:10:31  5-MIN KDBQ 070410Z AUTO 33011KT 10SM CLR M06/M14 A3015 860 52 -1400 330/11 RMK AO2 TSNO
94908KDBQ DBQ20060206221510602/06/06 22:15:31  5-MIN KDBQ 070415Z AUTO 34012KT 10SM CLR M06/M14 A3016 860 52 -1400 340/12 RMK AO2 TSNO
94908KDBQ DBQ20060206222010602/06/06 22:20:31  5-MIN KDBQ 070420Z AUTO 34011KT 10SM CLR M06/M14 A3015 860 52 -1400 340/11 RMK AO2 TSNO
94908KDBQ DBQ20060206222510602/06/06 22:25:31  5-MIN KDBQ 070425Z AUTO 34011KT 10SM CLR M06/M14 A3016 860 52 -1400 340/11 RMK AO2 TSNO
94908KDBQ DBQ20060206223010602/06/06 22:30:31  5-MIN KDBQ 070430Z AUTO 34011KT 10SM CLR M06/M14 A3015 860 52 -1400 340/11 RMK AO2 TSNO
94908KDBQ DBQ20060206223510602/06/06 22:35:31  5-MIN KDBQ 070435Z AUTO 34011KT 10SM CLR M06/M14 A3016 860 52 -1400 340/11 RMK AO2 TSNO
94908KDBQ DBQ20060206224010602/06/06 22:40:31  5-MIN KDBQ 070440Z AUTO 34010KT 10SM CLR M06/M14 A3016 860 52 -1400 340/10 RMK AO2 TSNO
94908KDBQ DBQ20060206224510602/06/06 22:45:31  5-MIN KDBQ 070445Z AUTO 34009KT 10SM CLR M06/M14 A3016 860 54 -1500 340/09 RMK AO2 TSNO
94908KDBQ DBQ20060206225012302/06/06 22:50:31  5-MIN KDBQ 070450Z AUTO 35008KT 10SM CLR M06/M14 A3016 860 54 -1500 350/08 RMK AO2 SLP229 T10611139 TSNO
94908KDBQ DBQ20060206225512302/06/06 22:55:31  5-MIN KDBQ 070455Z AUTO 35007KT 10SM CLR M06/M14 A3016 850 52 -1400 350/07 RMK AO2 SLP230 T10561139 TSNO
94908KDBQ DBQ20060206230010602/06/06 23:00:31  5-MIN KDBQ 070500Z AUTO 35007KT 10SM CLR M06/M14 A3016 850 54 -1500 350/07 RMK AO2 TSNO
94908KDBQ DBQ20060206230510602/06/06 23:05:31  5-MIN KDBQ 070505Z AUTO 35007KT 10SM CLR M06/M14 A3017 850 54 -1500 350/07 RMK AO2 TSNO
94908KDBQ DBQ20060206231010602/06/06 23:10:31  5-MIN KDBQ 070510Z AUTO 34007KT 10SM CLR M06/M14 A3017 850 54 -1500 330/07 RMK AO2 TSNO
94908KDBQ DBQ20060206231510602/06/06 23:15:31  5-MIN KDBQ 070515Z AUTO 34008KT 10SM CLR M06/M14 A3017 850 54 -1500 340/08 RMK AO2 TSNO
94908KDBQ DBQ20060206232010602/06/06 23:20:31  5-MIN KDBQ 070520Z AUTO 34006KT 10SM CLR M07/M14 A3017 850 57 -1500 340/06 RMK AO2 TSNO
94908KDBQ DBQ20060206232510602/06/06 23:25:31  5-MIN KDBQ 070525Z AUTO 34008KT 10SM CLR M07/M14 A3017 850 57 -1500 340/08 RMK AO2 TSNO
94908KDBQ DBQ20060206233010602/06/06 23:30:31  5-MIN KDBQ 070530Z AUTO 34007KT 10SM CLR M07/M14 A3017 850 57 -1500 340/07 RMK AO2 TSNO
94908KDBQ DBQ20060206233510602/06/06 23:35:31  5-MIN KDBQ 070535Z AUTO 35008KT 10SM CLR M07/M14 A3017 850 57 -1500 340/08 RMK AO2 TSNO
94908KDBQ DBQ20060206234010602/06/06 23:40:31  5-MIN KDBQ 070540Z AUTO 35009KT 10SM CLR M07/M14 A3017 850 57 -1500 350/09 RMK AO2 TSNO
94908KDBQ DBQ20060206234510602/06/06 23:45:31  5-MIN KDBQ 070545Z AUTO 36008KT 10SM CLR M07/M13 A3017 850 59 -1500 360/08 RMK AO2 TSNO
94908KDBQ DBQ20060206235015102/06/06 23:50:31  5-MIN KDBQ 070550Z AUTO 35008KT 10SM CLR M07/M13 A3017 850 59 -1500 350/08 RMK AO2 SLP231 T10671133 11022 21067 400171094 51009 TSNO
94908KDBQ DBQ20060206235515102/06/06 23:55:31  5-MIN KDBQ 070555Z AUTO 36008KT 10SM CLR M07/M13 A3017 850 59 -1500 350/08 RMK AO2 SLP231 T10671133 11022 21067 400171094 53005 TSNO
94908KDBQ DBQ20060207000010602/07/06 00:00:38  5-MIN KDBQ 070600Z AUTO 35009KT 10SM CLR M07/M14 A3017 850 57 -1500 350/09 RMK AO2 TSNO
94908KDBQ DBQ20060207000510602/07/06 00:05:31  5-MIN KDBQ 070605Z AUTO 35009KT 10SM CLR M07/M14 A3017 850 57 -1500 350/09 RMK AO2 TSNO
94908KDBQ DBQ20060207001010602/07/06 00:10:31  5-MIN KDBQ 070610Z AUTO 35008KT 10SM CLR M07/M14 A3017 850 57 -1500 350/08 RMK AO2 TSNO
94908KDBQ DBQ20060207001510602/07/06 00:15:31  5-MIN KDBQ 070615Z AUTO 35008KT 10SM CLR M07/M14 A3017 850 57 -1500 350/08 RMK AO2 TSNO
94908KDBQ DBQ20060207002010602/07/06 00:20:31  5-MIN KDBQ 070620Z AUTO 36007KT 10SM CLR M07/M14 A3017 850 57 -1500 360/07 RMK AO2 TSNO
94908KDBQ DBQ20060207002510602/07/06 00:25:31  5-MIN KDBQ 070625Z AUTO 36008KT 10SM CLR M07/M14 A3017 850 57 -1500 360/08 RMK AO2 TSNO
94908KDBQ DBQ20060207003010602/07/06 00:30:31  5-MIN KDBQ 070630Z AUTO 35008KT 10SM CLR M07/M14 A3016 850 59 -1600 350/08 RMK AO2 TSNO
94908KDBQ DBQ20060207003510602/07/06 00:35:31  5-MIN KDBQ 070635Z AUTO 34009KT 10SM CLR M07/M14 A3016 850 57 -1500 340/09 RMK AO2 TSNO
94908KDBQ DBQ20060207004010602/07/06 00:40:31  5-MIN KDBQ 070640Z AUTO 34010KT 10SM CLR M07/M14 A3016 850 57 -1500 340/10 RMK AO2 TSNO
94908KDBQ DBQ20060207004510602/07/06 00:45:31  5-MIN KDBQ 070645Z AUTO 34010KT 10SM CLR M07/M14 A3016 850 54 -1500 340/10 RMK AO2 TSNO
94908KDBQ DBQ20060207014010602/07/06 01:40:31  5-MIN KDBQ 070740Z AUTO 34008KT 10SM CLR M07/M14 A3017 850 56 -1600 340/08 RMK AO2 TSNO
94908KDBQ DBQ20060207014510602/07/06 01:45:31  5-MIN KDBQ 070745Z AUTO 34009KT 10SM CLR M07/M14 A3017 850 56 -1600 340/09 RMK AO2 TSNO
94908KDBQ DBQ20060207015012302/07/06 01:50:31  5-MIN KDBQ 070750Z AUTO 34008KT 10SM CLR M08/M14 A3017 850 59 -1700 330/08 RMK AO2 SLP231 T10781144 TSNO
94908KDBQ DBQ20060207015512302/07/06 01:55:31  5-MIN KDBQ 070755Z AUTO 33008KT 10SM CLR M07/M14 A3017 850 56 -1600 330/08 RMK AO2 SLP231 T10721144 TSNO
94908KDBQ DBQ20060207020010602/07/06 02:00:31  5-MIN KDBQ 070800Z AUTO 33008KT 10SM CLR M08/M14 A3017 850 59 -1700 330/08 RMK AO2 TSNO
94908KDBQ DBQ20060207020510602/07/06 02:05:31  5-MIN KDBQ 070805Z AUTO 34008KT 10SM CLR M08/M14 A3017 850 59 -1700 340/08 RMK AO2 TSNO
94908KDBQ DBQ20060207021010602/07/06 02:10:31  5-MIN KDBQ 070810Z AUTO 33007KT 10SM CLR M08/M14 A3017 850 59 -1700 330/07 RMK AO2 TSNO
94908KDBQ DBQ20060207021510602/07/06 02:15:31  5-MIN KDBQ 070815Z AUTO 33007KT 10SM CLR M08/M14 A3017 850 59 -1700 330/07 RMK AO2 TSNO
94908KDBQ DBQ20060207022010602/07/06 02:20:31  5-MIN KDBQ 070820Z AUTO 34007KT 10SM CLR M08/M14 A3017 850 59 -1700 340/07 RMK AO2 TSNO
94908KDBQ DBQ20060207022510602/07/06 02:25:31  5-MIN KDBQ 070825Z AUTO 34007KT 10SM CLR M08/M14 A3017 850 59 -1700 330/07 RMK AO2 TSNO
94908KDBQ DBQ20060207023010602/07/06 02:30:31  5-MIN KDBQ 070830Z AUTO 34008KT 10SM CLR M08/M14 A3017 850 59 -1700 340/08 RMK AO2 TSNO
94908KDBQ DBQ20060207023510602/07/06 02:35:31  5-MIN KDBQ 070835Z AUTO 34008KT 10SM CLR M08/M14 A3017 850 59 -1700 340/08 RMK AO2 TSNO
94908KDBQ DBQ20060207024010602/07/06 02:40:31  5-MIN KDBQ 070840Z AUTO 34008KT 10SM CLR M08/M14 A3017 850 59 -1700 340/08 RMK AO2 TSNO
94908KDBQ DBQ20060207024510602/07/06 02:45:31  5-MIN KDBQ 070845Z AUTO 34008KT 10SM CLR M08/M14 A3017 850 59 -1700 330/08 RMK AO2 TSNO
94908KDBQ DBQ20060207025012902/07/06 02:50:31  5-MIN KDBQ 070850Z AUTO 34008KT 10SM CLR M08/M14 A3017 850 59 -1700 330/08 RMK AO2 SLP230 T10781144 53005 TSNO
94908KDBQ DBQ20060207025512902/07/06 02:55:31  5-MIN KDBQ 070855Z AUTO 33008KT 10SM CLR M08/M14 A3017 850 59 -1700 330/08 RMK AO2 SLP230 T10781144 58000 TSNO
94908KDBQ DBQ20060207030010602/07/06 03:00:31  5-MIN KDBQ 070900Z AUTO 33008KT 10SM CLR M08/M14 A3017 850 59 -1700 330/08 RMK AO2 TSNO
94908KDBQ DBQ20060207030510602/07/06 03:05:31  5-MIN KDBQ 070905Z AUTO 33007KT 10SM CLR M08/M14 A3016 850 59 -1700 330/07 RMK AO2 TSNO
94908KDBQ DBQ20060207031010602/07/06 03:10:31  5-MIN KDBQ 070910Z AUTO 33007KT 10SM CLR M08/M15 A3017 850 56 -1700 330/07 RMK AO2 TSNO
94908KDBQ DBQ20060207031510602/07/06 03:15:31  5-MIN KDBQ 070915Z AUTO 32007KT 10SM CLR M08/M14 A3017 850 62 -1800 320/07 RMK AO2 TSNO
94908KDBQ DBQ20060207032010602/07/06 03:20:31  5-MIN KDBQ 070920Z AUTO 32008KT 10SM CLR M09/M15 A3017 850 61 -1800 320/08 RMK AO2 TSNO
94908KDBQ DBQ20060207032510602/07/06 03:25:31  5-MIN KDBQ 070925Z AUTO 31007KT 10SM CLR M08/M15 A3017 850 59 -1800 310/07 RMK AO2 TSNO
94908KDBQ DBQ20060207033010602/07/06 03:30:31  5-MIN KDBQ 070930Z AUTO 31006KT 10SM CLR M08/M15 A3017 850 59 -1800 310/06 RMK AO2 TSNO
94908KDBQ DBQ20060207033510602/07/06 03:35:31  5-MIN KDBQ 070935Z AUTO 31006KT 10SM CLR M08/M15 A3017 850 59 -1800 310/06 RMK AO2 TSNO
94908KDBQ DBQ20060207034010602/07/06 03:40:31  5-MIN KDBQ 070940Z AUTO 31006KT 10SM CLR M09/M15 A3017 850 61 -1800 310/06 RMK AO2 TSNO
94908KDBQ DBQ20060207034510902/07/06 03:45:31  5-MIN KDBQ 070945Z AUTO 31006KT 10SM FEW075 M09/M15 A3017 850 61 -1800 300/06 RMK AO2 TSNO
94908KDBQ DBQ20060207035012602/07/06 03:50:31  5-MIN KDBQ 070950Z AUTO 30006KT 10SM SCT075 M09/M15 A3017 850 61 -1800 300/06 RMK AO2 SLP232 T10891150 TSNO
94908KDBQ DBQ20060207035512602/07/06 03:55:31  5-MIN KDBQ 070955Z AUTO 30006KT 10SM BKN075 M09/M15 A3017 850 61 -1800 300/06 RMK AO2 SLP232 T10891150 TSNO
94908KDBQ DBQ20060207040010902/07/06 04:00:31  5-MIN KDBQ 071000Z AUTO 30006KT 10SM BKN075 M09/M14 A3017 850 64 -1800 300/06 RMK AO2 TSNO
94908KDBQ DBQ20060207040510902/07/06 04:05:31  5-MIN KDBQ 071005Z AUTO 30006KT 10SM BKN075 M09/M14 A3017 850 67 -1900 300/06 RMK AO2 TSNO
94908KDBQ DBQ20060207041010902/07/06 04:10:31  5-MIN KDBQ 071010Z AUTO 31006KT 10SM OVC075 M09/M14 A3017 850 64 -1800 310/06 RMK AO2 TSNO
94908KDBQ DBQ20060207041510902/07/06 04:15:31  5-MIN KDBQ 071015Z AUTO 31005KT 10SM OVC075 M09/M14 A3017 850 64 -1800 310/05 RMK AO2 TSNO
94908KDBQ DBQ20060207042010902/07/06 04:20:31  5-MIN KDBQ 071020Z AUTO 31004KT 10SM OVC075 M09/M14 A3016 850 67 -1900 310/04 RMK AO2 TSNO
94908KDBQ DBQ20060207042510902/07/06 04:25:31  5-MIN KDBQ 071025Z AUTO 00000KT 10SM OVC075 M09/M14 A3016 850 67 -1900 000/00 RMK AO2 TSNO
94908KDBQ DBQ20060207043010902/07/06 04:30:31  5-MIN KDBQ 071030Z AUTO 00000KT 10SM OVC075 M09/M14 A3017 850 67 -1900 000/00 RMK AO2 TSNO
94908KDBQ DBQ20060207043510902/07/06 04:35:31  5-MIN KDBQ 071035Z AUTO 00000KT 10SM OVC075 M09/M14 A3016 850 67 -1900 000/00 RMK AO2 TSNO
94908KDBQ DBQ20060207044010902/07/06 04:40:31  5-MIN KDBQ 071040Z AUTO 00000KT 10SM OVC075 M09/M14 A3016 850 64 -1800 000/00 RMK AO2 TSNO
94908KDBQ DBQ20060207044510902/07/06 04:45:31  5-MIN KDBQ 071045Z AUTO 00000KT 10SM OVC080 M08/M14 A3017 850 62 -1700 000/00 RMK AO2 TSNO
94908KDBQ DBQ20060207045012602/07/06 04:50:31  5-MIN KDBQ 071050Z AUTO 00000KT 10SM OVC080 M08/M14 A3017 850 59 -1700 000/00 RMK AO2 SLP232 T10781144 TSNO
94908KDBQ DBQ20060207045512602/07/06 04:55:31  5-MIN KDBQ 071055Z AUTO 00000KT 10SM OVC085 M08/M14 A3017 850 62 -1700 000/00 RMK AO2 SLP231 T10831144 TSNO
94908KDBQ DBQ20060207050010902/07/06 05:00:31  5-MIN KDBQ 071100Z AUTO 00000KT 10SM OVC085 M09/M14 A3017 850 67 -1800 000/00 RMK AO2 TSNO
94908KDBQ DBQ20060207050510902/07/06 05:05:31  5-MIN KDBQ 071105Z AUTO 00000KT 10SM OVC085 M08/M14 A3017 850 64 -1800 000/00 RMK AO2 TSNO
94908KDBQ DBQ20060207051010902/07/06 05:10:31  5-MIN KDBQ 071110Z AUTO 00000KT 10SM OVC085 M08/M13 A3017 850 67 -1800 000/00 RMK AO2 TSNO
94908KDBQ DBQ20060207051510902/07/06 05:15:31  5-MIN KDBQ 071115Z AUTO 00000KT 10SM OVC085 M08/M13 A3017 850 67 -1800 000/00 RMK AO2 TSNO
94908KDBQ DBQ20060207052010902/07/06 05:20:31  5-MIN KDBQ 071120Z AUTO 00000KT 10SM OVC085 M08/M14 A3017 850 62 -1700 000/00 RMK AO2 TSNO
94908KDBQ DBQ20060207052510902/07/06 05:25:31  5-MIN KDBQ 071125Z AUTO 00000KT 10SM OVC085 M07/M13 A3017 850 62 -1600 000/00 RMK AO2 TSNO
94908KDBQ DBQ20060207053010902/07/06 05:30:31  5-MIN KDBQ 071130Z AUTO 00000KT 10SM OVC085 M07/M14 A3017 850 59 -1600 000/00 RMK AO2 TSNO
94908KDBQ DBQ20060207053510902/07/06 05:35:31  5-MIN KDBQ 071135Z AUTO 00000KT 10SM OVC080 M07/M13 A3017 850 62 -1600 000/00 RMK AO2 TSNO
94908KDBQ DBQ20060207054010902/07/06 05:40:31  5-MIN KDBQ 071140Z AUTO 00000KT 10SM OVC080 M07/M13 A3017 850 62 -1500 000/00 RMK AO2 TSNO
94908KDBQ DBQ20060207054510902/07/06 05:45:31  5-MIN KDBQ 071145Z AUTO 30003KT 10SM OVC080 M07/M13 A3017 850 62 -1500 300/03 RMK AO2 TSNO
94908KDBQ DBQ20060207055013402/07/06 05:50:31  5-MIN KDBQ 071150Z 00000KT 10SM OVC080 M07/M13 A3017 850 59 -1500 000/00 RMK AO2 SLP232 T10671133 11067 21094 58000
94908KDBQ DBQ20060207055514102/07/06 05:55:31  5-MIN KDBQ 071155Z 00000KT 10SM FEW070 OVC085 M07/M13 A3017 850 62 -1500 000/00 RMK AO2 SLP233 T10671128 11067 21094 53001
94908KDBQ DBQ20060207060009902/07/06 06:00:31  5-MIN KDBQ 071200Z 34004KT 10SM OVC080 M06/M13 A3017 850 59 -1500 340/04 RMK AO2
94908KDBQ DBQ20060207060509902/07/06 06:05:31  5-MIN KDBQ 071205Z 34004KT 10SM OVC080 M06/M13 A3017 850 57 -1500 340/04 RMK AO2
94908KDBQ DBQ20060207061009902/07/06 06:10:31  5-MIN KDBQ 071210Z 34004KT 10SM OVC080 M06/M14 A3017 850 54 -1500 330/04 RMK AO2
94908KDBQ DBQ20060207061509902/07/06 06:15:31  5-MIN KDBQ 071215Z 36004KT 10SM OVC080 M06/M14 A3017 850 54 -1500 360/04 RMK AO2
94908KDBQ DBQ20060207062009902/07/06 06:20:31  5-MIN KDBQ 071220Z 36004KT 10SM OVC080 M06/M14 A3017 850 52 -1400 360/04 RMK AO2
94908KDBQ DBQ20060207062509902/07/06 06:25:31  5-MIN KDBQ 071225Z 01004KT 10SM OVC080 M06/M14 A3017 850 52 -1400 010/04 RMK AO2
94908KDBQ DBQ20060207063009902/07/06 06:30:31  5-MIN KDBQ 071230Z 01003KT 10SM OVC085 M06/M14 A3017 850 50 -1400 010/03 RMK AO2
94908KDBQ DBQ20060207063509902/07/06 06:35:31  5-MIN KDBQ 071235Z 36003KT 10SM OVC080 M06/M14 A3017 840 50 -1400 360/03 RMK AO2
94908KDBQ DBQ20060207064009902/07/06 06:40:31  5-MIN KDBQ 071240Z 00000KT 10SM OVC085 M06/M14 A3018 840 52 -1500 000/00 RMK AO2
94908KDBQ DBQ20060207064509902/07/06 06:45:31  5-MIN KDBQ 071245Z 36003KT 10SM OVC085 M06/M14 A3018 840 52 -1500 360/03 RMK AO2
94908KDBQ DBQ20060207065012302/07/06 06:50:31  5-MIN KDBQ 071250Z 36003KT 10SM FEW075 OVC085 M06/M14 A3018 840 52 -1500 360/03 RMK AO2 SLP236 T10611144
94908KDBQ DBQ20060207065512302/07/06 06:55:31  5-MIN KDBQ 071255Z 00000KT 10SM FEW070 OVC085 M06/M14 A3018 840 54 -1500 000/00 RMK AO2 SLP236 T10611139
94908KDBQ DBQ20060207070010602/07/06 07:00:31  5-MIN KDBQ 071300Z 36003KT 10SM FEW070 OVC085 M06/M14 A3018 840 54 -1500 360/03 RMK AO2
94908KDBQ DBQ20060207070510602/07/06 07:05:31  5-MIN KDBQ 071305Z 01004KT 10SM FEW070 OVC085 M06/M14 A3018 840 54 -1500 010/04 RMK AO2
94908KDBQ DBQ20060207071009902/07/06 07:10:31  5-MIN KDBQ 071310Z 01003KT 10SM OVC085 M06/M14 A3018 830 54 -1500 360/03 RMK AO2
94908KDBQ DBQ20060207071510602/07/06 07:15:31  5-MIN KDBQ 071315Z 35003KT 10SM FEW070 OVC085 M06/M14 A3019 830 54 -1500 350/03 RMK AO2
94908KDBQ DBQ20060207072010602/07/06 07:20:31  5-MIN KDBQ 071320Z 35003KT 10SM SCT070 OVC085 M06/M14 A3019 830 52 -1400 350/03 RMK AO2
94908KDBQ DBQ20060207072510602/07/06 07:25:31  5-MIN KDBQ 071325Z 34005KT 10SM SCT070 OVC085 M06/M14 A3019 830 52 -1400 330/05 RMK AO2
94908KDBQ DBQ20060207073010602/07/06 07:30:31  5-MIN KDBQ 071330Z 33005KT 10SM BKN070 OVC085 M06/M14 A3019 830 52 -1400 330/05 RMK AO2
94908KDBQ DBQ20060207073510602/07/06 07:35:31  5-MIN KDBQ 071335Z 33006KT 10SM BKN070 OVC085 M06/M14 A3019 830 52 -1400 330/06 RMK AO2
94908KDBQ DBQ20060207074010602/07/06 07:40:31  5-MIN KDBQ 071340Z 33007KT 10SM BKN070 OVC085 M06/M14 A3020 820 52 -1400 330/07 RMK AO2
94908KDBQ DBQ20060207074510602/07/06 07:45:31  5-MIN KDBQ 071345Z 33007KT 10SM BKN070 OVC085 M06/M14 A3020 820 50 -1400 330/07 RMK AO2
94908KDBQ DBQ20060207075012302/07/06 07:50:31  5-MIN KDBQ 071350Z 33007KT 10SM BKN070 OVC085 M06/M14 A3020 820 52 -1400 320/07 RMK AO2 SLP242 T10561139
94908KDBQ DBQ20060207075512302/07/06 07:55:31  5-MIN KDBQ 071355Z 33007KT 10SM SCT070 OVC085 M06/M14 A3020 820 50 -1400 330/07 RMK AO2 SLP244 T10561144
94908KDBQ DBQ20060207080009902/07/06 08:00:31  5-MIN KDBQ 071400Z 32005KT 10SM OVC080 M06/M14 A3020 820 52 -1400 320/05 RMK AO2
94908KDBQ DBQ20060207080509902/07/06 08:05:31  5-MIN KDBQ 071405Z 32006KT 10SM OVC080 M06/M14 A3020 820 50 -1400 320/06 RMK AO2
94908KDBQ DBQ20060207081009902/07/06 08:10:31  5-MIN KDBQ 071410Z 34006KT 10SM OVC080 M06/M14 A3021 810 52 -1400 340/06 RMK AO2
94908KDBQ DBQ20060207081509902/07/06 08:15:31  5-MIN KDBQ 071415Z 34006KT 10SM OVC080 M06/M14 A3021 820 52 -1400 330/06 RMK AO2
94908KDBQ DBQ20060207082009902/07/06 08:20:31  5-MIN KDBQ 071420Z 34006KT 10SM OVC080 M05/M14 A3021 810 50 -1400 330/06 RMK AO2
94908KDBQ DBQ20060207082509902/07/06 08:25:31  5-MIN KDBQ 071425Z 34006KT 10SM OVC080 M05/M14 A3021 820 48 -1400 340/06 RMK AO2
94908KDBQ DBQ20060207083009902/07/06 08:30:31  5-MIN KDBQ 071430Z 34005KT 10SM OVC080 M05/M14 A3021 810 48 -1400 340/05 RMK AO2
94908KDBQ DBQ20060207083509902/07/06 08:35:31  5-MIN KDBQ 071435Z 34006KT 10SM OVC080 M05/M14 A3021 810 48 -1400 330/06 RMK AO2
94908KDBQ DBQ20060207084009902/07/06 08:40:31  5-MIN KDBQ 071440Z 34006KT 10SM OVC080 M05/M14 A3021 810 48 -1400 330/06 RMK AO2
94908KDBQ DBQ20060207084509902/07/06 08:45:31  5-MIN KDBQ 071445Z 33006KT 10SM OVC080 M05/M14 A3021 810 48 -1400 330/06 RMK AO2
94908KDBQ DBQ20060207085012202/07/06 08:50:31  5-MIN KDBQ 071450Z 33006KT 10SM OVC080 M05/M14 A3021 810 48 -1400 330/06 RMK AO2 SLP247 T10501144 53001
94908KDBQ DBQ20060207085512202/07/06 08:55:31  5-MIN KDBQ 071455Z 33005KT 10SM OVC080 M05/M14 A3021 810 48 -1400 320/05 RMK AO2 SLP247 T10501144 51014
94908KDBQ DBQ20060207090009902/07/06 09:00:31  5-MIN KDBQ 071500Z 34006KT 10SM OVC080 M05/M14 A3021 810 48 -1400 330/06 RMK AO2
94908KDBQ DBQ20060207090509902/07/06 09:05:31  5-MIN KDBQ 071505Z 33006KT 10SM OVC080 M05/M14 A3021 810 48 -1400 330/06 RMK AO2
94908KDBQ DBQ20060207091009902/07/06 09:10:31  5-MIN KDBQ 071510Z 33005KT 10SM OVC080 M05/M14 A3021 810 48 -1400 330/05 RMK AO2
94908KDBQ DBQ20060207091509902/07/06 09:15:31  5-MIN KDBQ 071515Z 32005KT 10SM OVC080 M05/M15 A3021 810 46 -1400 320/05 RMK AO2
94908KDBQ DBQ20060207092009902/07/06 09:20:31  5-MIN KDBQ 071520Z 33006KT 10SM OVC080 M05/M15 A3021 810 46 -1400 330/06 RMK AO2
94908KDBQ DBQ20060207092509902/07/06 09:25:31  5-MIN KDBQ 071525Z 33005KT 10SM OVC080 M04/M15 A3021 810 44 -1300 330/05 RMK AO2
94908KDBQ DBQ20060207093009902/07/06 09:30:31  5-MIN KDBQ 071530Z 33005KT 10SM OVC080 M04/M15 A3021 810 44 -1300 330/05 RMK AO2
94908KDBQ DBQ20060207093509902/07/06 09:35:31  5-MIN KDBQ 071535Z 33006KT 10SM OVC080 M04/M16 A3021 810 42 -1300 330/06 RMK AO2
94908KDBQ DBQ20060207094009902/07/06 09:40:31  5-MIN KDBQ 071540Z 34006KT 10SM OVC080 M04/M15 A3021 820 44 -1300 340/06 RMK AO2
94908KDBQ DBQ20060207094509902/07/06 09:45:31  5-MIN KDBQ 071545Z 35006KT 10SM OVC080 M04/M16 A3021 810 42 -1300 350/06 RMK AO2
94908KDBQ DBQ20060207095011602/07/06 09:50:31  5-MIN KDBQ 071550Z 01005KT 10SM OVC080 M04/M16 A3021 810 42 -1300 010/05 RMK AO2 SLP247 T10441156
94908KDBQ DBQ20060207095511602/07/06 09:55:31  5-MIN KDBQ 071555Z 01006KT 10SM OVC080 M04/M15 A3020 820 42 -1200 010/06 RMK AO2 SLP244 T10391150
94908KDBQ DBQ20060207100009902/07/06 10:00:31  5-MIN KDBQ 071600Z 35005KT 10SM OVC080 M04/M16 A3021 820 40 -1200 350/05 RMK AO2
94908KDBQ DBQ20060207100509902/07/06 10:05:31  5-MIN KDBQ 071605Z 33005KT 10SM OVC080 M04/M16 A3021 820 40 -1200 330/05 RMK AO2
94908KDBQ DBQ20060207101009902/07/06 10:10:31  5-MIN KDBQ 071610Z 33007KT 10SM OVC080 M04/M15 A3021 820 42 -1200 330/07 RMK AO2
94908KDBQ DBQ20060207101509902/07/06 10:15:31  5-MIN KDBQ 071615Z 33007KT 10SM OVC080 M04/M16 A3020 820 40 -1200 330/07 RMK AO2
94908KDBQ DBQ20060207102009902/07/06 10:20:31  5-MIN KDBQ 071620Z 34007KT 10SM OVC080 M04/M16 A3021 820 38 -1200 330/07 RMK AO2
94908KDBQ DBQ20060207102509902/07/06 10:25:31  5-MIN KDBQ 071625Z 34006KT 10SM OVC080 M04/M16 A3021 810 40 -1200 340/06 RMK AO2
94908KDBQ DBQ20060207103009902/07/06 10:30:31  5-MIN KDBQ 071630Z 35006KT 10SM OVC080 M04/M16 A3021 810 40 -1200 350/06 RMK AO2
94908KDBQ DBQ20060207103509902/07/06 10:35:31  5-MIN KDBQ 071635Z 35006KT 10SM OVC080 M04/M16 A3021 820 40 -1200 350/06 RMK AO2
94908KDBQ DBQ20060207104009902/07/06 10:40:31  5-MIN KDBQ 071640Z 35005KT 10SM OVC080 M04/M16 A3021 810 40 -1200 350/05 RMK AO2
94908KDBQ DBQ20060207104509902/07/06 10:45:31  5-MIN KDBQ 071645Z 35006KT 10SM OVC080 M03/M16 A3021 810 38 -1200 350/06 RMK AO2
94908KDBQ DBQ20060207105011602/07/06 10:50:31  5-MIN KDBQ 071650Z 35007KT 10SM OVC080 M03/M16 A3021 810 38 -1200 350/07 RMK AO2 SLP246 T10331156
94908KDBQ DBQ20060207105511602/07/06 10:55:31  5-MIN KDBQ 071655Z 35005KT 10SM OVC080 M03/M16 A3021 810 37 -1200 340/05 RMK AO2 SLP245 T10331161
94908KDBQ DBQ20060207110009902/07/06 11:00:31  5-MIN KDBQ 071700Z 36006KT 10SM OVC080 M03/M16 A3021 810 38 -1200 360/06 RMK AO2
94908KDBQ DBQ20060207110509902/07/06 11:05:31  5-MIN KDBQ 071705Z 35006KT 10SM OVC080 M03/M15 A3021 810 40 -1200 350/06 RMK AO2
94908KDBQ DBQ20060207111009902/07/06 11:10:31  5-MIN KDBQ 071710Z 33005KT 10SM OVC080 M03/M16 A3021 820 38 -1200 330/05 RMK AO2
94908KDBQ DBQ20060207111509902/07/06 11:15:31  5-MIN KDBQ 071715Z 33004KT 10SM OVC080 M03/M15 A3021 820 40 -1200 330/04 RMK AO2
94908KDBQ DBQ20060207112009902/07/06 11:20:31  5-MIN KDBQ 071720Z 36004KT 10SM OVC080 M03/M15 A3020 820 40 -1100 360/04 RMK AO2
94908KDBQ DBQ20060207112509902/07/06 11:25:31  5-MIN KDBQ 071725Z 34006KT 10SM OVC080 M03/M15 A3020 820 39 -1100 340/06 RMK AO2
94908KDBQ DBQ20060207113009902/07/06 11:30:31  5-MIN KDBQ 071730Z 33005KT 10SM OVC080 M03/M15 A3020 820 39 -1100 330/05 RMK AO2
94908KDBQ DBQ20060207113509902/07/06 11:35:31  5-MIN KDBQ 071735Z 34005KT 10SM OVC080 M03/M15 A3020 820 39 -1100 340/05 RMK AO2
94908KDBQ DBQ20060207114009902/07/06 11:40:31  5-MIN KDBQ 071740Z 33005KT 10SM OVC080 M03/M15 A3020 820 39 -1100 330/05 RMK AO2
94908KDBQ DBQ20060207114510602/07/06 11:45:31  5-MIN KDBQ 071745Z 35004KT 10SM FEW070 OVC080 M03/M15 A3020 820 39 -1100 350/04 RMK AO2
94908KDBQ DBQ20060207115014102/07/06 11:50:31  5-MIN KDBQ 071750Z VRB05KT 10SM FEW070 OVC080 M02/M15 A3020 820 37 -1000 VRB/05 RMK AO2 SLP242 T10221150 11022 21067 51014
94908KDBQ DBQ20060207115513402/07/06 11:55:31  5-MIN KDBQ 071755Z 28007KT 10SM OVC080 M02/M16 A3020 820 35 -1000 280/07 RMK AO2 SLP242 T10221156 11022 21067 57005
94908KDBQ DBQ20060207120009902/07/06 12:00:31  5-MIN KDBQ 071800Z 30007KT 10SM OVC080 M02/M16 A3020 820 35 -1000 300/07 RMK AO2
94908KDBQ DBQ20060207120509902/07/06 12:05:31  5-MIN KDBQ 071805Z 31008KT 10SM OVC080 M02/M16 A3020 820 35 -1000 310/08 RMK AO2
94908KDBQ DBQ20060207121009802/07/06 12:10:31  5-MIN KDBQ 071810Z 29008KT 10SM OVC080 M02/M16 A3020 820 32 -900 290/08 RMK AO2
94908KDBQ DBQ20060207121509802/07/06 12:15:31  5-MIN KDBQ 071815Z 30005KT 10SM OVC080 M02/M16 A3019 830 32 -900 300/05 RMK AO2
94908KDBQ DBQ20060207122009802/07/06 12:20:31  5-MIN KDBQ 071820Z 28009KT 10SM OVC080 M02/M16 A3019 830 32 -900 280/09 RMK AO2
94908KDBQ DBQ20060207122509802/07/06 12:25:31  5-MIN KDBQ 071825Z 29009KT 10SM OVC080 M02/M16 A3019 830 32 -900 290/09 RMK AO2
94908KDBQ DBQ20060207123009802/07/06 12:30:31  5-MIN KDBQ 071830Z 32005KT 10SM OVC080 M02/M16 A3019 830 32 -900 320/05 RMK AO2
94908KDBQ DBQ20060207123510502/07/06 12:35:31  5-MIN KDBQ 071835Z 29006KT 10SM FEW070 OVC085 M01/M16 A3018 840 31 -800 290/06 RMK AO2
94908KDBQ DBQ20060207124010502/07/06 12:40:31  5-MIN KDBQ 071840Z 32008KT 10SM FEW070 OVC085 M01/M17 A3018 840 30 -800 320/08 RMK AO2
94908KDBQ DBQ20060207124509802/07/06 12:45:31  5-MIN KDBQ 071845Z 30007KT 10SM OVC085 M01/M17 A3018 840 30 -800 300/07 RMK AO2
94908KDBQ DBQ20060207125011502/07/06 12:50:31  5-MIN KDBQ 071850Z 30009KT 10SM OVC085 M01/M17 A3018 840 30 -800 300/09 RMK AO2 SLP237 T10111167
94908KDBQ DBQ20060207125511502/07/06 12:55:31  5-MIN KDBQ 071855Z 30006KT 10SM OVC085 M01/M17 A3018 840 30 -800 300/06 RMK AO2 SLP237 T10111167
94908KDBQ DBQ20060207130009802/07/06 13:00:31  5-MIN KDBQ 071900Z 30008KT 10SM OVC085 M01/M17 A3018 840 29 -800 300/08 RMK AO2
94908KDBQ DBQ20060207130509802/07/06 13:05:31  5-MIN KDBQ 071905Z 32009KT 10SM OVC085 M01/M17 A3018 840 30 -800 320/09 RMK AO2
94908KDBQ DBQ20060207131009802/07/06 13:10:31  5-MIN KDBQ 071910Z 33008KT 10SM OVC085 M01/M17 A3018 840 28 -800 330/08 RMK AO2
94908KDBQ DBQ20060207131509802/07/06 13:15:31  5-MIN KDBQ 071915Z 33009KT 10SM OVC085 M01/M17 A3017 840 27 -800 320/09 RMK AO2
94908KDBQ DBQ20060207132009802/07/06 13:20:31  5-MIN KDBQ 071920Z 33007KT 10SM OVC085 M01/M17 A3017 850 27 -800 330/07 RMK AO2
94908KDBQ DBQ20060207132509802/07/06 13:25:31  5-MIN KDBQ 071925Z 31007KT 10SM OVC085 M01/M17 A3017 850 27 -800 300/07 RMK AO2
94908KDBQ DBQ20060207133009802/07/06 13:30:31  5-MIN KDBQ 071930Z 30007KT 10SM OVC085 M01/M17 A3017 850 27 -800 300/07 RMK AO2
94908KDBQ DBQ20060207133509702/07/06 13:35:31  5-MIN KDBQ 071935Z 35006KT 10SM OVC085 00/M17 A3017 850 26 -700 350/06 RMK AO2
94908KDBQ DBQ20060207134010502/07/06 13:40:31  5-MIN KDBQ 071940Z 32006KT 10SM FEW065 OVC085 M01/M17 A3017 850 27 -800 320/06 RMK AO2
94908KDBQ DBQ20060207134510502/07/06 13:45:31  5-MIN KDBQ 071945Z 35007KT 10SM FEW065 OVC085 M01/M18 A3016 850 26 -800 350/07 RMK AO2
94908KDBQ DBQ20060207135011402/07/06 13:50:31  5-MIN KDBQ 071950Z 28006KT 10SM OVC085 00/M17 A3016 860 26 -700 280/06 RMK AO2 SLP230 T00001172
94908KDBQ DBQ20060207135511502/07/06 13:55:31  5-MIN KDBQ 071955Z 30008KT 10SM OVC085 M01/M17 A3016 860 27 -700 300/08 RMK AO2 SLP230 T10061172
94908KDBQ DBQ20060207140009802/07/06 14:00:31  5-MIN KDBQ 072000Z 33007KT 10SM OVC085 M01/M17 A3016 850 27 -700 330/07 RMK AO2
94908KDBQ DBQ20060207140509702/07/06 14:05:31  5-MIN KDBQ 072005Z 33006KT 10SM OVC085 00/M17 A3016 860 26 -700 330/06 RMK AO2
94908KDBQ DBQ20060207141009802/07/06 14:10:31  5-MIN KDBQ 072010Z 32007KT 10SM OVC085 M01/M18 A3016 860 26 -700 310/07 RMK AO2
94908KDBQ DBQ20060207141509802/07/06 14:15:31  5-MIN KDBQ 072015Z 31006KT 10SM OVC085 M01/M18 A3016 860 26 -700 310/06 RMK AO2
94908KDBQ DBQ20060207142009702/07/06 14:20:31  5-MIN KDBQ 072020Z 31008KT 10SM OVC085 00/M18 A3016 860 25 -700 310/08 RMK AO2
94908KDBQ DBQ20060207142510502/07/06 14:25:31  5-MIN KDBQ 072025Z 34007KT 10SM FEW065 OVC085 M01/M17 A3016 850 27 -700 340/07 RMK AO2
94908KDBQ DBQ20060207143010502/07/06 14:30:31  5-MIN KDBQ 072030Z 34005KT 10SM FEW065 OVC085 M01/M18 A3016 860 26 -700 340/05 RMK AO2
94908KDBQ DBQ20060207143510402/07/06 14:35:31  5-MIN KDBQ 072035Z 33009KT 10SM SCT070 OVC085 00/M17 A3016 860 26 -700 330/09 RMK AO2
94908KDBQ DBQ20060207144010402/07/06 14:40:31  5-MIN KDBQ 072040Z 32006KT 10SM SCT065 OVC085 00/M18 A3016 860 25 -700 320/06 RMK AO2
94908KDBQ DBQ20060207144510402/07/06 14:45:31  5-MIN KDBQ 072045Z 33007KT 10SM BKN065 OVC085 00/M18 A3016 850 25 -700 330/07 RMK AO2
94908KDBQ DBQ20060207145012802/07/06 14:50:31  5-MIN KDBQ 072050Z 32007KT 10SM BKN065 OVC085 M01/M18 A3016 850 26 -800 320/07 RMK AO2 SLP231 T10061178 57005
94908KDBQ DBQ20060207145512802/07/06 14:55:31  5-MIN KDBQ 072055Z 36005KT 10SM BKN065 OVC085 M01/M18 A3016 850 26 -700 360/05 RMK AO2 SLP230 T10061178 55011
94908KDBQ DBQ20060207150010402/07/06 15:00:31  5-MIN KDBQ 072100Z 30006KT 10SM BKN065 OVC080 00/M18 A3016 850 25 -700 300/06 RMK AO2
94908KDBQ DBQ20060207150510402/07/06 15:05:31  5-MIN KDBQ 072105Z 31005KT 10SM BKN065 OVC080 00/M18 A3016 850 25 -700 310/05 RMK AO2
94908KDBQ DBQ20060207151010402/07/06 15:10:31  5-MIN KDBQ 072110Z 29007KT 10SM BKN065 OVC080 00/M17 A3017 850 26 -700 290/07 RMK AO2
94908KDBQ DBQ20060207151510402/07/06 15:15:31  5-MIN KDBQ 072115Z 31006KT 10SM SCT065 OVC080 00/M17 A3017 850 26 -700 310/06 RMK AO2
94908KDBQ DBQ20060207152010502/07/06 15:20:31  5-MIN KDBQ 072120Z 31006KT 10SM SCT065 OVC080 M01/M18 A3017 850 26 -800 310/06 RMK AO2
94908KDBQ DBQ20060207152510502/07/06 15:25:31  5-MIN KDBQ 072125Z 31006KT 10SM SCT070 OVC080 M01/M17 A3017 850 27 -800 310/06 RMK AO2
94908KDBQ DBQ20060207153010502/07/06 15:30:31  5-MIN KDBQ 072130Z 31004KT 10SM SCT065 OVC080 M01/M18 A3017 850 26 -800 310/04 RMK AO2
94908KDBQ DBQ20060207153510402/07/06 15:35:31  5-MIN KDBQ 072135Z 34004KT 10SM BKN065 OVC080 00/M17 A3017 850 26 -700 340/04 RMK AO2
94908KDBQ DBQ20060207154010402/07/06 15:40:31  5-MIN KDBQ 072140Z 35005KT 10SM BKN065 OVC080 00/M17 A3017 850 26 -700 350/05 RMK AO2
94908KDBQ DBQ20060207154510502/07/06 15:45:31  5-MIN KDBQ 072145Z 32004KT 10SM BKN065 OVC080 M01/M17 A3017 850 27 -800 320/04 RMK AO2
94908KDBQ DBQ20060207155011402/07/06 15:50:31  5-MIN KDBQ 072150Z 35006KT 10SM OVC065 00/M17 A3017 850 26 -700 340/06 RMK AO2 SLP231 T00001172
94908KDBQ DBQ20060207155512202/07/06 15:55:31  5-MIN KDBQ 072155Z 33004KT 10SM BKN065 OVC080 M01/M17 A3017 850 27 -800 330/04 RMK AO2 SLP231 T10061172
94908KDBQ DBQ20060207160010502/07/06 16:00:31  5-MIN KDBQ 072200Z 31007KT 10SM BKN065 OVC080 M01/M17 A3017 850 27 -800 310/07 RMK AO2
94908KDBQ DBQ20060207160509802/07/06 16:05:31  5-MIN KDBQ 072205Z 33007KT 10SM OVC065 M01/M17 A3017 850 27 -800 330/07 RMK AO2
94908KDBQ DBQ20060207161010502/07/06 16:10:31  5-MIN KDBQ 072210Z 30006KT 10SM BKN065 OVC080 M01/M17 A3016 850 27 -800 300/06 RMK AO2
94908KDBQ DBQ20060207161510502/07/06 16:15:31  5-MIN KDBQ 072215Z 31006KT 10SM SCT065 OVC080 M01/M17 A3017 850 29 -800 310/06 RMK AO2
94908KDBQ DBQ20060207162010502/07/06 16:20:31  5-MIN KDBQ 072220Z 33006KT 10SM SCT065 OVC080 M01/M17 A3017 850 29 -800 330/06 RMK AO2
94908KDBQ DBQ20060207162510502/07/06 16:25:31  5-MIN KDBQ 072225Z 33006KT 10SM BKN065 OVC080 M01/M17 A3017 850 29 -800 330/06 RMK AO2
94908KDBQ DBQ20060207163010502/07/06 16:30:31  5-MIN KDBQ 072230Z 32005KT 10SM SCT065 OVC080 M01/M17 A3017 850 29 -800 320/05 RMK AO2
94908KDBQ DBQ20060207163510502/07/06 16:35:31  5-MIN KDBQ 072235Z 32005KT 10SM FEW065 OVC080 M01/M17 A3016 850 29 -800 310/05 RMK AO2
94908KDBQ DBQ20060207164010502/07/06 16:40:31  5-MIN KDBQ 072240Z 32005KT 10SM FEW065 OVC080 M01/M16 A3016 850 30 -700 320/05 RMK AO2
94908KDBQ DBQ20060207164510502/07/06 16:45:31  5-MIN KDBQ 072245Z 31006KT 10SM SCT065 OVC080 M01/M16 A3016 850 30 -700 310/06 RMK AO2
94908KDBQ DBQ20060207165011502/07/06 16:50:31  5-MIN KDBQ 072250Z 33004KT 10SM OVC075 M01/M16 A3016 860 30 -700 330/04 RMK AO2 SLP230 T10061161
94908KDBQ DBQ20060207165511502/07/06 16:55:31  5-MIN KDBQ 072255Z 32003KT 10SM OVC080 M01/M16 A3016 860 31 -800 320/03 RMK AO2 SLP230 T10111161
94908KDBQ DBQ20060207170009802/07/06 17:00:31  5-MIN KDBQ 072300Z 32004KT 10SM OVC075 M01/M16 A3016 860 33 -800 320/04 RMK AO2
94908KDBQ DBQ20060207170509802/07/06 17:05:31  5-MIN KDBQ 072305Z 34003KT 10SM OVC075 M01/M16 A3016 860 33 -800 340/03 RMK AO2
94908KDBQ DBQ20060207171009802/07/06 17:10:31  5-MIN KDBQ 072310Z 35003KT 10SM OVC075 M01/M15 A3016 860 34 -800 350/03 RMK AO2
94908KDBQ DBQ20060207171510502/07/06 17:15:31  5-MIN KDBQ 072315Z 34004KT 10SM FEW060 OVC075 M01/M15 A3016 860 34 -800 340/04 RMK AO2
94908KDBQ DBQ20060207172010502/07/06 17:20:31  5-MIN KDBQ 072320Z 34003KT 10SM FEW060 OVC075 M02/M15 A3016 860 35 -900 340/03 RMK AO2
94908KDBQ DBQ20060207172510502/07/06 17:25:31  5-MIN KDBQ 072325Z 34004KT 10SM FEW060 OVC075 M01/M15 A3016 860 34 -800 340/04 RMK AO2
94908KDBQ DBQ20060207173010502/07/06 17:30:31  5-MIN KDBQ 072330Z 34004KT 10SM FEW060 OVC075 M02/M15 A3016 860 35 -900 340/04 RMK AO2
94908KDBQ DBQ20060207173510502/07/06 17:35:31  5-MIN KDBQ 072335Z 35004KT 10SM FEW060 OVC075 M02/M14 A3016 860 37 -900 350/04 RMK AO2
94908KDBQ DBQ20060207174009902/07/06 17:40:31  5-MIN KDBQ 072340Z 36003KT 10SM OVC075 M02/M14 A3016 850 39 -1000 360/03 RMK AO2
94908KDBQ DBQ20060207174509802/07/06 17:45:31  5-MIN KDBQ 072345Z 36003KT 10SM OVC075 M02/M14 A3016 860 37 -900 360/03 RMK AO2
94908KDBQ DBQ20060207175013302/07/06 17:50:31  5-MIN KDBQ 072350Z 36003KT 10SM OVC075 M01/M16 A3016 850 33 -800 360/03 RMK AO2 SLP230 T10111156 10000 21022 55011
94908KDBQ DBQ20060207175513302/07/06 17:55:31  5-MIN KDBQ 072355Z 01003KT 10SM OVC075 M02/M16 A3016 850 34 -900 010/03 RMK AO2 SLP230 T10171156 10000 21022 58000
94908KDBQ DBQ20060207180009802/07/06 18:00:31  5-MIN KDBQ 080000Z 36003KT 10SM OVC075 M02/M15 A3016 850 35 -900 360/03 RMK AO2
94908KDBQ DBQ20060207180509802/07/06 18:05:31  5-MIN KDBQ 080005Z 36003KT 10SM OVC075 M02/M15 A3016 850 35 -900 360/03 RMK AO2
94908KDBQ DBQ20060207181009802/07/06 18:10:31  5-MIN KDBQ 080010Z 36003KT 10SM OVC075 M02/M15 A3016 850 35 -900 360/03 RMK AO2
94908KDBQ DBQ20060207181509802/07/06 18:15:31  5-MIN KDBQ 080015Z 35004KT 10SM OVC075 M02/M15 A3017 850 35 -900 350/04 RMK AO2
94908KDBQ DBQ20060207182009802/07/06 18:20:31  5-MIN KDBQ 080020Z 35004KT 10SM OVC070 M02/M14 A3016 850 37 -900 350/04 RMK AO2
94908KDBQ DBQ20060207182509902/07/06 18:25:31  5-MIN KDBQ 080025Z 34004KT 10SM OVC070 M02/M14 A3016 850 39 -1000 340/04 RMK AO2
94908KDBQ DBQ20060207183009902/07/06 18:30:31  5-MIN KDBQ 080030Z 34004KT 10SM OVC070 M02/M14 A3016 850 39 -1000 340/04 RMK AO2
94908KDBQ DBQ20060207183509902/07/06 18:35:31  5-MIN KDBQ 080035Z 35004KT 10SM OVC070 M02/M14 A3016 850 39 -1000 350/04 RMK AO2
94908KDBQ DBQ20060207184009802/07/06 18:40:31  5-MIN KDBQ 080040Z 35004KT 10SM OVC070 M02/M14 A3016 860 37 -900 350/04 RMK AO2
94908KDBQ DBQ20060207184509902/07/06 18:45:31  5-MIN KDBQ 080045Z 35003KT 10SM OVC070 M02/M14 A3016 860 40 -1000 350/03 RMK AO2
94908KDBQ DBQ20060207185011602/07/06 18:50:31  5-MIN KDBQ 080050Z 35003KT 10SM OVC070 M02/M14 A3016 860 40 -1000 350/03 RMK AO2 SLP230 T10221139
94908KDBQ DBQ20060207185511602/07/06 18:55:31  5-MIN KDBQ 080055Z 35003KT 10SM OVC070 M02/M14 A3016 860 40 -1000 350/03 RMK AO2 SLP229 T10221139
94908KDBQ DBQ20060207190009902/07/06 19:00:31  5-MIN KDBQ 080100Z 34003KT 10SM OVC075 M02/M14 A3016 860 39 -1000 340/03 RMK AO2
94908KDBQ DBQ20060207190509902/07/06 19:05:31  5-MIN KDBQ 080105Z 34003KT 10SM OVC075 M02/M14 A3016 860 39 -1000 340/03 RMK AO2
94908KDBQ DBQ20060207191009902/07/06 19:10:31  5-MIN KDBQ 080110Z 33003KT 10SM OVC075 M03/M13 A3016 860 46 -1000 330/03 RMK AO2
94908KDBQ DBQ20060207191509902/07/06 19:15:31  5-MIN KDBQ 080115Z 00000KT 10SM OVC075 M02/M13 A3016 860 42 -1000 000/00 RMK AO2
94908KDBQ DBQ20060207192009902/07/06 19:20:31  5-MIN KDBQ 080120Z 00000KT 10SM OVC075 M02/M13 A3016 860 44 -1000 000/00 RMK AO2
94908KDBQ DBQ20060207192509902/07/06 19:25:31  5-MIN KDBQ 080125Z 00000KT 10SM OVC070 M02/M13 A3016 860 44 -1000 000/00 RMK AO2
94908KDBQ DBQ20060207193009902/07/06 19:30:31  5-MIN KDBQ 080130Z 00000KT 10SM OVC070 M02/M13 A3016 860 42 -1000 000/00 RMK AO2
94908KDBQ DBQ20060207193509902/07/06 19:35:31  5-MIN KDBQ 080135Z 00000KT 10SM OVC070 M02/M13 A3016 860 42 -1000 000/00 RMK AO2
94908KDBQ DBQ20060207194009902/07/06 19:40:31  5-MIN KDBQ 080140Z 00000KT 10SM OVC070 M02/M13 A3016 860 42 -1000 000/00 RMK AO2
94908KDBQ DBQ20060207194509902/07/06 19:45:31  5-MIN KDBQ 080145Z 00000KT 10SM OVC070 M02/M14 A3016 860 39 -1000 000/00 RMK AO2
94908KDBQ DBQ20060207195012602/07/06 19:50:31  5-MIN KDBQ 080150Z AUTO 00000KT 10SM OVC075 M02/M14 A3016 860 39 -1000 000/00 RMK AO2 SLP228 T10221144 TSNO
94908KDBQ DBQ20060207195512602/07/06 19:55:31  5-MIN KDBQ 080155Z AUTO 00000KT 10SM OVC075 M02/M14 A3015 860 39 -1000 000/00 RMK AO2 SLP227 T10221144 TSNO
94908KDBQ DBQ20060207200010902/07/06 20:00:31  5-MIN KDBQ 080200Z AUTO 00000KT 10SM OVC075 M02/M13 A3015 860 44 -1000 000/00 RMK AO2 TSNO
94908KDBQ DBQ20060207200510902/07/06 20:05:31  5-MIN KDBQ 080205Z AUTO 00000KT 10SM OVC080 M02/M13 A3016 860 42 -1000 000/00 RMK AO2 TSNO
94908KDBQ DBQ20060207201010902/07/06 20:10:31  5-MIN KDBQ 080210Z AUTO 00000KT 10SM OVC080 M03/M12 A3016 860 50 -1000 000/00 RMK AO2 TSNO
94908KDBQ DBQ20060207201510902/07/06 20:15:31  5-MIN KDBQ 080215Z AUTO 00000KT 10SM OVC080 M03/M11 A3016 860 53 -1000 000/00 RMK AO2 TSNO
94908KDBQ DBQ20060207202010902/07/06 20:20:31  5-MIN KDBQ 080220Z AUTO 00000KT 10SM OVC080 M03/M12 A3016 860 50 -1000 000/00 RMK AO2 TSNO
94908KDBQ DBQ20060207202510902/07/06 20:25:31  5-MIN KDBQ 080225Z AUTO 00000KT 10SM OVC080 M03/M12 A3015 860 48 -1000 000/00 RMK AO2 TSNO
94908KDBQ DBQ20060207203010902/07/06 20:30:31  5-MIN KDBQ 080230Z AUTO 00000KT 10SM OVC080 M03/M12 A3015 860 48 -1000 000/00 RMK AO2 TSNO
94908KDBQ DBQ20060207203510902/07/06 20:35:31  5-MIN KDBQ 080235Z AUTO 00000KT 10SM OVC080 M03/M11 A3015 870 53 -1000 000/00 RMK AO2 TSNO
94908KDBQ DBQ20060207204010902/07/06 20:40:31  5-MIN KDBQ 080240Z AUTO 00000KT 10SM OVC080 M03/M12 A3015 870 48 -1000 000/00 RMK AO2 TSNO
94908KDBQ DBQ20060207204510902/07/06 20:45:31  5-MIN KDBQ 080245Z AUTO 00000KT 10SM OVC080 M03/M12 A3015 870 48 -1000 000/00 RMK AO2 TSNO
94908KDBQ DBQ20060207205013102/07/06 20:50:31  5-MIN KDBQ 080250Z AUTO 00000KT 10SM OVC085 M02/M13 A3015 860 44 -900 000/00 RMK AO2 SLP226 T10221128 58000 TSNO
94908KDBQ DBQ20060207205513202/07/06 20:55:31  5-MIN KDBQ 080255Z AUTO 00000KT 10SM OVC085 M03/M11 A3015 860 55 -1100 000/00 RMK AO2 SLP227 T10331111 57003 TSNO
94908KDBQ DBQ20060207210010902/07/06 21:00:31  5-MIN KDBQ 080300Z AUTO 00000KT 10SM OVC085 M03/M13 A3015 860 46 -1000 000/00 RMK AO2 TSNO
94908KDBQ DBQ20060207210510802/07/06 21:05:31  5-MIN KDBQ 080305Z AUTO 00000KT 10SM OVC085 M02/M14 A3015 860 40 -900 000/00 RMK AO2 TSNO
94908KDBQ DBQ20060207211010902/07/06 21:10:31  5-MIN KDBQ 080310Z AUTO 00000KT 10SM OVC085 M03/M13 A3015 860 44 -1000 000/00 RMK AO2 TSNO
94908KDBQ DBQ20060207211510902/07/06 21:15:31  5-MIN KDBQ 080315Z AUTO 00000KT 10SM OVC085 M03/M13 A3016 860 44 -1000 000/00 RMK AO2 TSNO
94908KDBQ DBQ20060207212010902/07/06 21:20:31  5-MIN KDBQ 080320Z AUTO 03006KT 10SM OVC085 M03/M12 A3016 860 53 -1100 030/06 RMK AO2 TSNO
94908KDBQ DBQ20060207212511602/07/06 21:25:31  5-MIN KDBQ 080325Z AUTO 04005KT 10SM FEW065 OVC085 M03/M13 A3016 860 46 -1000 040/05 RMK AO2 TSNO
94908KDBQ DBQ20060207213011602/07/06 21:30:31  5-MIN KDBQ 080330Z AUTO 04005KT 10SM FEW065 OVC090 M03/M12 A3015 860 50 -1000 040/05 RMK AO2 TSNO
94908KDBQ DBQ20060207213511602/07/06 21:35:31  5-MIN KDBQ 080335Z AUTO 05004KT 10SM FEW065 OVC090 M03/M12 A3016 860 48 -1000 050/04 RMK AO2 TSNO
94908KDBQ DBQ20060207214011602/07/06 21:40:31  5-MIN KDBQ 080340Z AUTO 05004KT 10SM FEW065 OVC090 M03/M12 A3016 860 48 -1000 050/04 RMK AO2 TSNO
94908KDBQ DBQ20060207214511602/07/06 21:45:31  5-MIN KDBQ 080345Z AUTO 04004KT 10SM FEW065 OVC090 M03/M12 A3016 860 50 -1100 040/04 RMK AO2 TSNO
94908KDBQ DBQ20060207215013302/07/06 21:50:31  5-MIN KDBQ 080350Z AUTO 04005KT 10SM SCT070 OVC090 M03/M13 A3016 860 46 -1000 040/05 RMK AO2 SLP227 T10281128 TSNO
94908KDBQ DBQ20060207215513302/07/06 21:55:31  5-MIN KDBQ 080355Z AUTO 04005KT 10SM SCT070 OVC090 M03/M13 A3016 860 46 -1000 040/05 RMK AO2 SLP227 T10281128 TSNO
94908KDBQ DBQ20060207220011602/07/06 22:00:31  5-MIN KDBQ 080400Z AUTO 04005KT 10SM SCT070 OVC095 M03/M13 A3016 860 46 -1000 040/05 RMK AO2 TSNO
94908KDBQ DBQ20060207220511602/07/06 22:05:31  5-MIN KDBQ 080405Z AUTO 04004KT 10SM SCT070 OVC090 M03/M13 A3016 860 46 -1000 040/04 RMK AO2 TSNO
94908KDBQ DBQ20060207221011602/07/06 22:10:31  5-MIN KDBQ 080410Z AUTO 03004KT 10SM SCT070 OVC090 M03/M13 A3016 860 46 -1000 030/04 RMK AO2 TSNO
94908KDBQ DBQ20060207221511602/07/06 22:15:31  5-MIN KDBQ 080415Z AUTO 04005KT 10SM SCT070 OVC090 M03/M13 A3016 860 46 -1000 040/05 RMK AO2 TSNO
94908KDBQ DBQ20060207222011602/07/06 22:20:31  5-MIN KDBQ 080420Z AUTO 04005KT 10SM SCT070 OVC095 M03/M13 A3016 860 46 -1000 040/05 RMK AO2 TSNO
94908KDBQ DBQ20060207222511602/07/06 22:25:31  5-MIN KDBQ 080425Z AUTO 04005KT 10SM SCT065 OVC095 M03/M13 A3015 860 44 -1000 040/05 RMK AO2 TSNO
94908KDBQ DBQ20060207223012302/07/06 22:30:31  5-MIN KDBQ 080430Z AUTO 04005KT 10SM FEW055 SCT070 OVC100 M03/M14 A3015 860 42 -1000 040/05 RMK AO2 TSNO
94908KDBQ DBQ20060207223512302/07/06 22:35:31  5-MIN KDBQ 080435Z AUTO 04005KT 10SM SCT060 SCT070 OVC100 M03/M13 A3015 860 44 -1000 040/05 RMK AO2 TSNO
94908KDBQ DBQ20060207224011602/07/06 22:40:31  5-MIN KDBQ 080440Z AUTO 05006KT 10SM BKN060 OVC100 M03/M13 A3015 870 44 -1000 040/06 RMK AO2 TSNO
94908KDBQ DBQ20060207224512302/07/06 22:45:31  5-MIN KDBQ 080445Z AUTO 04005KT 10SM SCT060 BKN075 OVC100 M03/M13 A3015 870 44 -1000 040/05 RMK AO2 TSNO
94908KDBQ DBQ20060207225014002/07/06 22:50:31  5-MIN KDBQ 080450Z AUTO 05005KT 10SM SCT060 BKN075 OVC100 M03/M13 A3015 870 46 -1100 040/05 RMK AO2 SLP224 T10331133 TSNO
94908KDBQ DBQ20060207225514002/07/06 22:55:31  5-MIN KDBQ 080455Z AUTO 05006KT 10SM FEW060 BKN075 OVC100 M03/M13 A3015 870 46 -1100 050/06 RMK AO2 SLP224 T10331133 TSNO
94908KDBQ DBQ20060207230011602/07/06 23:00:31  5-MIN KDBQ 080500Z AUTO 04006KT 10SM FEW060 OVC075 M03/M13 A3015 870 46 -1100 040/06 RMK AO2 TSNO
94908KDBQ DBQ20060207230511602/07/06 23:05:31  5-MIN KDBQ 080505Z AUTO 04006KT 10SM FEW060 OVC075 M03/M14 A3015 870 44 -1100 040/06 RMK AO2 TSNO
94908KDBQ DBQ20060207231010902/07/06 23:10:31  5-MIN KDBQ 080510Z AUTO 04005KT 10SM OVC075 M03/M13 A3015 870 46 -1100 040/05 RMK AO2 TSNO
94908KDBQ DBQ20060207231510902/07/06 23:15:31  5-MIN KDBQ 080515Z AUTO 03006KT 10SM OVC075 M03/M13 A3015 860 46 -1100 030/06 RMK AO2 TSNO
94908KDBQ DBQ20060207232010902/07/06 23:20:31  5-MIN KDBQ 080520Z AUTO 03005KT 10SM OVC080 M03/M13 A3015 860 46 -1100 030/05 RMK AO2 TSNO
94908KDBQ DBQ20060207232511602/07/06 23:25:31  5-MIN KDBQ 080525Z AUTO 04005KT 10SM FEW065 OVC080 M03/M13 A3016 860 46 -1100 040/05 RMK AO2 TSNO
94908KDBQ DBQ20060207233011602/07/06 23:30:31  5-MIN KDBQ 080530Z AUTO 03005KT 10SM SCT060 OVC080 M03/M13 A3016 860 46 -1100 030/05 RMK AO2 TSNO
94908KDBQ DBQ20060207233511602/07/06 23:35:31  5-MIN KDBQ 080535Z AUTO 03005KT 10SM SCT060 OVC080 M03/M13 A3016 860 48 -1100 030/05 RMK AO2 TSNO
94908KDBQ DBQ20060207234011602/07/06 23:40:31  5-MIN KDBQ 080540Z AUTO 03005KT 10SM FEW060 OVC080 M03/M13 A3016 860 48 -1100 030/05 RMK AO2 TSNO
94908KDBQ DBQ20060207234511602/07/06 23:45:31  5-MIN KDBQ 080545Z AUTO 03006KT 10SM FEW060 OVC080 M03/M13 A3016 860 48 -1100 030/06 RMK AO2 TSNO
94908KDBQ DBQ20060207235016102/07/06 23:50:31  5-MIN KDBQ 080550Z AUTO 04005KT 10SM FEW060 OVC075 M03/M13 A3016 860 48 -1100 040/05 RMK AO2 SLP228 T10331128 11017 21033 400001094 57003 TSNO
94908KDBQ DBQ20060207235515402/07/06 23:55:31  5-MIN KDBQ 080555Z AUTO 04005KT 10SM OVC075 M03/M13 A3016 860 48 -1100 040/05 RMK AO2 SLP227 T10331128 11017 21033 400001094 53002 TSNO
94908KDBQ DBQ20060208000010902/08/06 00:00:38  5-MIN KDBQ 080600Z AUTO 04005KT 10SM OVC075 M04/M13 A3016 860 50 -1200 030/05 RMK AO2 TSNO
94908KDBQ DBQ20060208000510902/08/06 00:05:31  5-MIN KDBQ 080605Z AUTO 03005KT 10SM OVC070 M04/M13 A3016 860 50 -1200 030/05 RMK AO2 TSNO
94908KDBQ DBQ20060208001011602/08/06 00:10:31  5-MIN KDBQ 080610Z AUTO 04005KT 10SM BKN065 OVC080 M04/M13 A3016 860 50 -1200 030/05 RMK AO2 TSNO
94908KDBQ DBQ20060208001511602/08/06 00:15:32  5-MIN KDBQ 080615Z AUTO 03006KT 10SM BKN065 OVC080 M04/M13 A3016 860 50 -1200 030/06 RMK AO2 TSNO
94908KDBQ DBQ20060208002011602/08/06 00:20:31  5-MIN KDBQ 080620Z AUTO 04005KT 10SM BKN065 OVC080 M04/M13 A3015 860 50 -1200 040/05 RMK AO2 TSNO
94908KDBQ DBQ20060208002511602/08/06 00:25:31  5-MIN KDBQ 080625Z AUTO 04005KT 10SM BKN060 OVC080 M04/M13 A3015 860 50 -1200 040/05 RMK AO2 TSNO
94908KDBQ DBQ20060208003011602/08/06 00:30:31  5-MIN KDBQ 080630Z AUTO 04005KT 10SM BKN060 OVC110 M04/M13 A3016 860 50 -1200 040/05 RMK AO2 TSNO
94908KDBQ DBQ20060208003511602/08/06 00:35:31  5-MIN KDBQ 080635Z AUTO 04006KT 10SM BKN060 OVC080 M04/M13 A3015 860 50 -1200 030/06 RMK AO2 TSNO
94908KDBQ DBQ20060208004012302/08/06 00:40:31  5-MIN KDBQ 080640Z AUTO 03006KT 10SM BKN060 BKN085 OVC110 M04/M13 A3016 860 50 -1200 030/06 RMK AO2 TSNO
94908KDBQ DBQ20060208004512302/08/06 00:45:31  5-MIN KDBQ 080645Z AUTO 04005KT 10SM BKN060 BKN085 OVC110 M04/M13 A3016 860 50 -1200 040/05 RMK AO2 TSNO
94908KDBQ DBQ20060208005014002/08/06 00:50:31  5-MIN KDBQ 080650Z AUTO 04005KT 10SM BKN060 BKN085 OVC110 M04/M12 A3015 860 52 -1200 040/05 RMK AO2 SLP225 T10391122 TSNO
94908KDBQ DBQ20060208005514002/08/06 00:55:31  5-MIN KDBQ 080655Z AUTO 04005KT 10SM BKN060 BKN090 OVC110 M04/M13 A3015 860 50 -1200 040/05 RMK AO2 SLP225 T10391128 TSNO
94908KDBQ DBQ20060208010012302/08/06 01:00:31  5-MIN KDBQ 080700Z AUTO 04005KT 10SM BKN060 BKN090 OVC110 M04/M12 A3015 860 55 -1200 040/05 RMK AO2 TSNO
94908KDBQ DBQ20060208010511602/08/06 01:05:31  5-MIN KDBQ 080705Z AUTO 04005KT 10SM BKN060 OVC110 M04/M12 A3016 860 55 -1200 040/05 RMK AO2 TSNO
94908KDBQ DBQ20060208011012302/08/06 01:10:31  5-MIN KDBQ 080710Z AUTO 03007KT 10SM BKN060 BKN100 OVC110 M04/M12 A3016 860 55 -1200 030/07 RMK AO2 TSNO
94908KDBQ DBQ20060208011512302/08/06 01:15:31  5-MIN KDBQ 080715Z AUTO 04005KT 10SM SCT060 BKN075 OVC110 M04/M13 A3016 860 52 -1200 040/05 RMK AO2 TSNO
94908KDBQ DBQ20060208012012302/08/06 01:20:31  5-MIN KDBQ 080720Z AUTO 04006KT 10SM SCT060 BKN075 OVC110 M04/M13 A3015 860 52 -1200 030/06 RMK AO2 TSNO
94908KDBQ DBQ20060208012512302/08/06 01:25:31  5-MIN KDBQ 080725Z AUTO 04005KT 10SM FEW050 BKN060 OVC100 M05/M13 A3015 860 55 -1300 040/05 RMK AO2 TSNO
94908KDBQ DBQ20060208013012302/08/06 01:30:31  5-MIN KDBQ 080730Z AUTO 04006KT 10SM SCT050 BKN070 OVC100 M05/M13 A3015 860 55 -1300 040/06 RMK AO2 TSNO
94908KDBQ DBQ20060208013512302/08/06 01:35:31  5-MIN KDBQ 080735Z AUTO 03005KT 10SM SCT055 BKN075 OVC100 M05/M13 A3015 860 55 -1300 030/05 RMK AO2 TSNO
94908KDBQ DBQ20060208014011602/08/06 01:40:31  5-MIN KDBQ 080740Z AUTO 04006KT 10SM SCT055 OVC075 M06/M13 A3015 860 57 -1400 040/06 RMK AO2 TSNO
94908KDBQ DBQ20060208014511602/08/06 01:45:31  5-MIN KDBQ 080745Z AUTO 04006KT 10SM SCT055 OVC070 M06/M13 A3015 860 57 -1400 040/06 RMK AO2 TSNO
94908KDBQ DBQ20060208015013302/08/06 01:50:31  5-MIN KDBQ 080750Z AUTO 04006KT 10SM SCT055 OVC070 M06/M13 A3015 860 57 -1400 040/06 RMK AO2 SLP226 T10561128 TSNO
94908KDBQ DBQ20060208015513302/08/06 01:55:31  5-MIN KDBQ 080755Z AUTO 04006KT 10SM BKN060 OVC075 M06/M13 A3015 860 57 -1400 040/06 RMK AO2 SLP226 T10561128 TSNO
94908KDBQ DBQ20060208020010902/08/06 02:00:31  5-MIN KDBQ 080800Z AUTO 03006KT 10SM OVC060 M06/M13 A3015 860 57 -1400 030/06 RMK AO2 TSNO
94908KDBQ DBQ20060208020510902/08/06 02:05:31  5-MIN KDBQ 080805Z AUTO 04007KT 10SM OVC060 M06/M13 A3015 860 57 -1400 040/07 RMK AO2 TSNO
94908KDBQ DBQ20060208021011602/08/06 02:10:31  5-MIN KDBQ 080810Z AUTO 04008KT 10SM FEW050 OVC065 M06/M13 A3016 860 57 -1400 040/08 RMK AO2 TSNO
94908KDBQ DBQ20060208021510902/08/06 02:15:31  5-MIN KDBQ 080815Z AUTO 04007KT 10SM OVC060 M06/M13 A3016 860 57 -1400 040/07 RMK AO2 TSNO
94908KDBQ DBQ20060208022010902/08/06 02:20:31  5-MIN KDBQ 080820Z AUTO 03006KT 10SM OVC060 M06/M13 A3016 860 57 -1400 030/06 RMK AO2 TSNO
94908KDBQ DBQ20060208022511602/08/06 02:25:31  5-MIN KDBQ 080825Z AUTO 04007KT 10SM FEW050 OVC065 M06/M13 A3016 860 57 -1400 040/07 RMK AO2 TSNO
94908KDBQ DBQ20060208023010902/08/06 02:30:31  5-MIN KDBQ 080830Z AUTO 04007KT 10SM OVC060 M06/M13 A3016 860 59 -1500 040/07 RMK AO2 TSNO
94908KDBQ DBQ20060208023511602/08/06 02:35:31  5-MIN KDBQ 080835Z AUTO 04006KT 10SM FEW048 OVC065 M06/M13 A3016 860 59 -1400 040/06 RMK AO2 TSNO
94908KDBQ DBQ20060208024012302/08/06 02:40:31  5-MIN KDBQ 080840Z AUTO 04007KT 10SM FEW048 BKN065 OVC090 M06/M13 A3016 860 59 -1400 040/07 RMK AO2 TSNO
94908KDBQ DBQ20060208024511602/08/06 02:45:31  5-MIN KDBQ 080845Z AUTO 03006KT 10SM BKN065 OVC095 M06/M13 A3016 860 59 -1500 030/06 RMK AO2 TSNO
94908KDBQ DBQ20060208025014602/08/06 02:50:31  5-MIN KDBQ 080850Z AUTO 04006KT 10SM FEW055 SCT070 OVC095 M06/M13 A3016 860 59 -1500 040/06 RMK AO2 SLP227 T10611128 53002 TSNO
94908KDBQ DBQ20060208025513902/08/06 02:55:31  5-MIN KDBQ 080855Z AUTO 04006KT 10SM FEW065 OVC090 M06/M13 A3016 860 59 -1400 040/06 RMK AO2 SLP227 T10611128 55001 TSNO
94908KDBQ DBQ20060208030011602/08/06 03:00:31  5-MIN KDBQ 080900Z AUTO 04006KT 10SM FEW065 OVC090 M07/M13 A3016 860 62 -1500 040/06 RMK AO2 TSNO
94908KDBQ DBQ20060208030510902/08/06 03:05:31  5-MIN KDBQ 080905Z AUTO 04005KT 10SM OVC090 M07/M13 A3015 860 62 -1500 040/05 RMK AO2 TSNO
94908KDBQ DBQ20060208031011602/08/06 03:10:31  5-MIN KDBQ 080910Z AUTO 04005KT 10SM FEW050 OVC090 M07/M13 A3015 860 65 -1600 040/05 RMK AO2 TSNO
94908KDBQ DBQ20060208031511602/08/06 03:15:31  5-MIN KDBQ 080915Z AUTO 04005KT 10SM FEW050 OVC085 M07/M13 A3015 860 65 -1600 040/05 RMK AO2 TSNO
94908KDBQ DBQ20060208032012302/08/06 03:20:31  5-MIN KDBQ 080920Z AUTO 04005KT 10SM FEW050 BKN070 BKN090 M07/M13 A3015 860 62 -1600 040/05 RMK AO2 TSNO
94908KDBQ DBQ20060208032512302/08/06 03:25:31  5-MIN KDBQ 080925Z AUTO 04006KT 10SM FEW050 SCT070 BKN090 M07/M13 A3015 860 62 -1600 040/06 RMK AO2 TSNO
94908KDBQ DBQ20060208033011602/08/06 03:30:31  5-MIN KDBQ 080930Z AUTO 04005KT 10SM FEW050 SCT085 M07/M13 A3016 860 65 -1600 040/05 RMK AO2 TSNO
94908KDBQ DBQ20060208033511602/08/06 03:35:31  5-MIN KDBQ 080935Z AUTO 04005KT 10SM FEW050 SCT085 M08/M13 A3016 860 67 -1700 040/05 RMK AO2 TSNO
94908KDBQ DBQ20060208034010902/08/06 03:40:31  5-MIN KDBQ 080940Z AUTO 03005KT 10SM FEW050 M08/M13 A3016 860 64 -1700 030/05 RMK AO2 TSNO
94908KDBQ DBQ20060208034510602/08/06 03:45:31  5-MIN KDBQ 080945Z AUTO 03005KT 10SM CLR M08/M13 A3016 860 64 -1700 030/05 RMK AO2 TSNO
94908KDBQ DBQ20060208035012302/08/06 03:50:31  5-MIN KDBQ 080950Z AUTO 03005KT 10SM CLR M08/M13 A3016 860 64 -1700 030/05 RMK AO2 SLP228 T10781133 TSNO
94908KDBQ DBQ20060208035512602/08/06 03:55:31  5-MIN KDBQ 080955Z AUTO 03005KT 10SM SCT065 M08/M13 A3016 860 67 -1700 030/05 RMK AO2 SLP229 T10831133 TSNO
94908KDBQ DBQ20060208040010902/08/06 04:00:31  5-MIN KDBQ 081000Z AUTO 03005KT 10SM SCT065 M08/M13 A3016 860 64 -1700 030/05 RMK AO2 TSNO
94908KDBQ DBQ20060208040510902/08/06 04:05:31  5-MIN KDBQ 081005Z AUTO 03005KT 10SM BKN070 M08/M13 A3016 860 67 -1700 030/05 RMK AO2 TSNO
94908KDBQ DBQ20060208041010902/08/06 04:10:31  5-MIN KDBQ 081010Z AUTO 04005KT 10SM BKN070 M07/M13 A3016 860 65 -1600 040/05 RMK AO2 TSNO
94908KDBQ DBQ20060208041510902/08/06 04:15:31  5-MIN KDBQ 081015Z AUTO 03006KT 10SM OVC070 M08/M13 A3016 860 67 -1700 030/06 RMK AO2 TSNO
94908KDBQ DBQ20060208042010902/08/06 04:20:31  5-MIN KDBQ 081020Z AUTO 03006KT 10SM OVC070 M08/M13 A3016 860 67 -1700 030/06 RMK AO2 TSNO
94908KDBQ DBQ20060208042510902/08/06 04:25:31  5-MIN KDBQ 081025Z AUTO 04007KT 10SM BKN070 M08/M13 A3016 860 67 -1700 040/07 RMK AO2 TSNO
94908KDBQ DBQ20060208043010902/08/06 04:30:31  5-MIN KDBQ 081030Z AUTO 04006KT 10SM BKN070 M07/M13 A3016 850 65 -1600 040/06 RMK AO2 TSNO
94908KDBQ DBQ20060208043510902/08/06 04:35:31  5-MIN KDBQ 081035Z AUTO 04008KT 10SM SCT070 M07/M13 A3016 850 65 -1600 040/08 RMK AO2 TSNO
94908KDBQ DBQ20060208044010902/08/06 04:40:31  5-MIN KDBQ 081040Z AUTO 04008KT 10SM FEW070 M07/M13 A3017 850 65 -1600 030/08 RMK AO2 TSNO
94908KDBQ DBQ20060208044510902/08/06 04:45:31  5-MIN KDBQ 081045Z AUTO 03007KT 10SM FEW070 M08/M13 A3017 850 67 -1700 030/07 RMK AO2 TSNO
94908KDBQ DBQ20060208045012302/08/06 04:50:31  5-MIN KDBQ 081050Z AUTO 04006KT 10SM CLR M08/M13 A3017 850 67 -1700 040/06 RMK AO2 SLP232 T10781128 TSNO
94908KDBQ DBQ20060208045512302/08/06 04:55:31  5-MIN KDBQ 081055Z AUTO 03007KT 10SM CLR M08/M13 A3017 850 67 -1700 030/07 RMK AO2 SLP232 T10781128 TSNO
94908KDBQ DBQ20060208050010602/08/06 05:00:31  5-MIN KDBQ 081100Z AUTO 03007KT 10SM CLR M08/M13 A3017 850 67 -1700 030/07 RMK AO2 TSNO
94908KDBQ DBQ20060208050510602/08/06 05:05:31  5-MIN KDBQ 081105Z AUTO 03008KT 10SM CLR M08/M13 A3017 840 67 -1700 030/08 RMK AO2 TSNO
94908KDBQ DBQ20060208051010602/08/06 05:10:31  5-MIN KDBQ 081110Z AUTO 03008KT 10SM CLR M08/M13 A3018 840 67 -1700 030/08 RMK AO2 TSNO
94908KDBQ DBQ20060208051510602/08/06 05:15:31  5-MIN KDBQ 081115Z AUTO 03007KT 10SM CLR M08/M13 A3018 840 70 -1800 030/07 RMK AO2 TSNO
94908KDBQ DBQ20060208052010602/08/06 05:20:31  5-MIN KDBQ 081120Z AUTO 03008KT 10SM CLR M08/M13 A3018 840 67 -1700 030/08 RMK AO2 TSNO
94908KDBQ DBQ20060208052510602/08/06 05:25:31  5-MIN KDBQ 081125Z AUTO 04007KT 10SM CLR M08/M13 A3018 840 67 -1700 040/07 RMK AO2 TSNO
94908KDBQ DBQ20060208053010602/08/06 05:30:31  5-MIN KDBQ 081130Z AUTO 04007KT 10SM CLR M08/M13 A3018 840 70 -1800 040/07 RMK AO2 TSNO
94908KDBQ DBQ20060208053510602/08/06 05:35:31  5-MIN KDBQ 081135Z AUTO 03006KT 10SM CLR M08/M13 A3018 840 67 -1800 030/06 RMK AO2 TSNO
94908KDBQ DBQ20060208054010602/08/06 05:40:31  5-MIN KDBQ 081140Z AUTO 03005KT 10SM CLR M08/M13 A3018 830 67 -1800 020/05 RMK AO2 TSNO
94908KDBQ DBQ20060208054510602/08/06 05:45:31  5-MIN KDBQ 081145Z AUTO 03006KT 10SM CLR M08/M13 A3019 830 67 -1800 030/06 RMK AO2 TSNO
94908KDBQ DBQ20060208055014102/08/06 05:50:31  5-MIN KDBQ 081150Z AUTO 03005KT 10SM CLR M08/M13 A3019 830 67 -1800 030/05 RMK AO2 SLP239 T10831133 11033 21083 55001 TSNO
94908KDBQ DBQ20060208055514102/08/06 05:55:31  5-MIN KDBQ 081155Z AUTO 03005KT 10SM CLR M09/M13 A3019 830 70 -1800 030/05 RMK AO2 SLP239 T10891133 11033 21089 53010 TSNO
94908KDBQ DBQ20060208060010602/08/06 06:00:31  5-MIN KDBQ 081200Z AUTO 03005KT 10SM CLR M09/M13 A3019 830 70 -1900 030/05 RMK AO2 TSNO
94908KDBQ DBQ20060208060510602/08/06 06:05:31  5-MIN KDBQ 081205Z AUTO 03006KT 10SM CLR M09/M13 A3019 830 70 -1900 020/06 RMK AO2 TSNO
94908KDBQ DBQ20060208061009602/08/06 06:10:31  5-MIN KDBQ 081210Z 02006KT 10SM CLR M09/M13 A3019 830 70 -1900 020/06 RMK AO2
94908KDBQ DBQ20060208061509602/08/06 06:15:31  5-MIN KDBQ 081215Z 03007KT 10SM CLR M09/M13 A3019 830 70 -1900 030/07 RMK AO2
94908KDBQ DBQ20060208062009602/08/06 06:20:31  5-MIN KDBQ 081220Z 03006KT 10SM CLR M09/M13 A3020 820 70 -1900 030/06 RMK AO2
94908KDBQ DBQ20060208062509602/08/06 06:25:31  5-MIN KDBQ 081225Z 03006KT 10SM CLR M09/M13 A3020 820 70 -1900 030/06 RMK AO2
94908KDBQ DBQ20060208063009602/08/06 06:30:31  5-MIN KDBQ 081230Z 03006KT 10SM CLR M09/M13 A3020 820 70 -1900 030/06 RMK AO2
94908KDBQ DBQ20060208063509602/08/06 06:35:31  5-MIN KDBQ 081235Z 03006KT 10SM CLR M09/M13 A3020 820 70 -1900 030/06 RMK AO2
94908KDBQ DBQ20060208064009602/08/06 06:40:31  5-MIN KDBQ 081240Z 03006KT 10SM CLR M09/M13 A3020 820 73 -1900 030/06 RMK AO2
94908KDBQ DBQ20060208064509602/08/06 06:45:31  5-MIN KDBQ 081245Z 03006KT 10SM CLR M09/M13 A3021 820 73 -1900 030/06 RMK AO2
94908KDBQ DBQ20060208065011302/08/06 06:50:31  5-MIN KDBQ 081250Z 03007KT 10SM CLR M09/M13 A3021 820 73 -1900 030/07 RMK AO2 SLP247 T10941133
94908KDBQ DBQ20060208065511302/08/06 06:55:31  5-MIN KDBQ 081255Z 03007KT 10SM CLR M09/M13 A3021 810 73 -1900 030/07 RMK AO2 SLP247 T10941133
94908KDBQ DBQ20060208070009602/08/06 07:00:31  5-MIN KDBQ 081300Z 04007KT 10SM CLR M09/M13 A3021 810 73 -1900 040/07 RMK AO2
94908KDBQ DBQ20060208070509602/08/06 07:05:31  5-MIN KDBQ 081305Z 04008KT 10SM CLR M09/M13 A3021 810 70 -1900 040/08 RMK AO2
94908KDBQ DBQ20060208071009602/08/06 07:10:31  5-MIN KDBQ 081310Z 04008KT 10SM CLR M08/M13 A3021 810 70 -1800 040/08 RMK AO2
94908KDBQ DBQ20060208071509602/08/06 07:15:31  5-MIN KDBQ 081315Z 04007KT 10SM CLR M09/M13 A3022 800 74 -1900 040/07 RMK AO2
94908KDBQ DBQ20060208072009602/08/06 07:20:31  5-MIN KDBQ 081320Z 04007KT 10SM CLR M09/M13 A3022 800 70 -1900 040/07 RMK AO2
94908KDBQ DBQ20060208072509602/08/06 07:25:31  5-MIN KDBQ 081325Z 04007KT 10SM CLR M09/M13 A3022 800 70 -1900 040/07 RMK AO2
94908KDBQ DBQ20060208073009602/08/06 07:30:31  5-MIN KDBQ 081330Z 04006KT 10SM CLR M09/M13 A3023 800 70 -1900 030/06 RMK AO2
94908KDBQ DBQ20060208073509602/08/06 07:35:31  5-MIN KDBQ 081335Z 03006KT 10SM CLR M09/M13 A3023 790 74 -1900 030/06 RMK AO2
94908KDBQ DBQ20060208074009602/08/06 07:40:31  5-MIN KDBQ 081340Z 03006KT 10SM CLR M08/M13 A3023 790 70 -1800 030/06 RMK AO2
94908KDBQ DBQ20060208074509602/08/06 07:45:31  5-MIN KDBQ 081345Z 03006KT 10SM CLR M08/M13 A3023 790 70 -1800 030/06 RMK AO2
94908KDBQ DBQ20060208075011302/08/06 07:50:31  5-MIN KDBQ 081350Z 03007KT 10SM CLR M08/M13 A3023 790 70 -1800 030/07 RMK AO2 SLP255 T10831128
94908KDBQ DBQ20060208075511302/08/06 07:55:31  5-MIN KDBQ 081355Z 03006KT 10SM CLR M08/M13 A3023 790 70 -1800 030/06 RMK AO2 SLP255 T10831128
94908KDBQ DBQ20060208080009602/08/06 08:00:31  5-MIN KDBQ 081400Z 03007KT 10SM CLR M08/M12 A3024 790 71 -1800 030/07 RMK AO2
94908KDBQ DBQ20060208080509602/08/06 08:05:31  5-MIN KDBQ 081405Z 02007KT 10SM CLR M08/M12 A3023 790 71 -1800 020/07 RMK AO2
94908KDBQ DBQ20060208081009602/08/06 08:10:31  5-MIN KDBQ 081410Z 03008KT 10SM CLR M07/M12 A3024 780 68 -1700 030/08 RMK AO2
94908KDBQ DBQ20060208081509602/08/06 08:15:31  5-MIN KDBQ 081415Z 03008KT 10SM CLR M07/M12 A3024 780 68 -1700 030/08 RMK AO2
94908KDBQ DBQ20060208082009602/08/06 08:20:31  5-MIN KDBQ 081420Z 02007KT 10SM CLR M07/M12 A3024 780 68 -1700 020/07 RMK AO2
94908KDBQ DBQ20060208082509602/08/06 08:25:31  5-MIN KDBQ 081425Z 03009KT 10SM CLR M07/M12 A3024 780 68 -1700 030/09 RMK AO2
94908KDBQ DBQ20060208083009602/08/06 08:30:31  5-MIN KDBQ 081430Z 02009KT 10SM CLR M07/M13 A3025 780 65 -1700 020/09 RMK AO2
94908KDBQ DBQ20060208083509602/08/06 08:35:31  5-MIN KDBQ 081435Z 04009KT 10SM CLR M07/M12 A3025 780 68 -1700 030/09 RMK AO2
94908KDBQ DBQ20060208084009602/08/06 08:40:31  5-MIN KDBQ 081440Z 03006KT 10SM CLR M07/M12 A3025 780 65 -1600 030/06 RMK AO2
94908KDBQ DBQ20060208084509602/08/06 08:45:31  5-MIN KDBQ 081445Z 03007KT 10SM CLR M07/M12 A3025 780 65 -1600 030/07 RMK AO2
94908KDBQ DBQ20060208085011902/08/06 08:50:31  5-MIN KDBQ 081450Z 03008KT 10SM CLR M07/M12 A3025 780 65 -1600 030/08 RMK AO2 SLP259 T10671122 53010
94908KDBQ DBQ20060208085511902/08/06 08:55:31  5-MIN KDBQ 081455Z 03008KT 10SM CLR M07/M12 A3025 780 65 -1600 020/08 RMK AO2 SLP260 T10671122 51020
94908KDBQ DBQ20060208090009602/08/06 09:00:31  5-MIN KDBQ 081500Z 04009KT 10SM CLR M07/M12 A3025 780 65 -1600 040/09 RMK AO2
94908KDBQ DBQ20060208090509602/08/06 09:05:31  5-MIN KDBQ 081505Z 04008KT 10SM CLR M07/M12 A3025 770 65 -1600 040/08 RMK AO2
94908KDBQ DBQ20060208091009602/08/06 09:10:31  5-MIN KDBQ 081510Z 04011KT 10SM CLR M06/M12 A3025 770 62 -1600 040/11 RMK AO2
94908KDBQ DBQ20060208091509602/08/06 09:15:31  5-MIN KDBQ 081515Z 04010KT 10SM CLR M06/M12 A3025 780 65 -1600 040/10 RMK AO2
94908KDBQ DBQ20060208092009602/08/06 09:20:31  5-MIN KDBQ 081520Z 03008KT 10SM CLR M06/M12 A3025 770 65 -1600 030/08 RMK AO2
94908KDBQ DBQ20060208092509602/08/06 09:25:31  5-MIN KDBQ 081525Z 04009KT 10SM CLR M06/M12 A3025 780 62 -1500 040/09 RMK AO2
94908KDBQ DBQ20060208093009602/08/06 09:30:31  5-MIN KDBQ 081530Z 03009KT 10SM CLR M06/M12 A3025 770 62 -1500 030/09 RMK AO2
94908KDBQ DBQ20060208093509602/08/06 09:35:31  5-MIN KDBQ 081535Z 02009KT 10SM CLR M05/M11 A3025 770 62 -1400 020/09 RMK AO2
94908KDBQ DBQ20060208094009602/08/06 09:40:31  5-MIN KDBQ 081540Z 03010KT 10SM CLR M06/M12 A3025 770 62 -1500 030/10 RMK AO2
94908KDBQ DBQ20060208094509602/08/06 09:45:31  5-MIN KDBQ 081545Z 02013KT 10SM CLR M05/M11 A3025 770 62 -1400 020/13 RMK AO2
94908KDBQ DBQ20060208095011302/08/06 09:50:31  5-MIN KDBQ 081550Z 03010KT 10SM CLR M05/M11 A3025 770 62 -1400 030/10 RMK AO2 SLP260 T10501111
94908KDBQ DBQ20060208095511302/08/06 09:55:31  5-MIN KDBQ 081555Z 04010KT 10SM CLR M05/M11 A3025 770 62 -1400 040/10 RMK AO2 SLP260 T10501111
94908KDBQ DBQ20060208100009602/08/06 10:00:31  5-MIN KDBQ 081600Z 03012KT 10SM CLR M04/M11 A3025 770 60 -1300 020/12 RMK AO2
94908KDBQ DBQ20060208100509602/08/06 10:05:31  5-MIN KDBQ 081605Z 02014KT 10SM CLR M05/M11 A3025 770 62 -1400 020/14 RMK AO2
94908KDBQ DBQ20060208101009602/08/06 10:10:31  5-MIN KDBQ 081610Z 04012KT 10SM CLR M04/M11 A3025 770 60 -1300 040/12 RMK AO2
94908KDBQ DBQ20060208101509602/08/06 10:15:31  5-MIN KDBQ 081615Z 01011KT 10SM CLR M04/M11 A3025 770 60 -1300 010/11 RMK AO2
94908KDBQ DBQ20060208102009602/08/06 10:20:31  5-MIN KDBQ 081620Z 03011KT 10SM CLR M04/M11 A3025 770 60 -1300 030/11 RMK AO2
94908KDBQ DBQ20060208102509602/08/06 10:25:31  5-MIN KDBQ 081625Z 03011KT 10SM CLR M04/M11 A3025 770 60 -1300 030/11 RMK AO2
94908KDBQ DBQ20060208103009602/08/06 10:30:31  5-MIN KDBQ 081630Z 02012KT 10SM CLR M04/M11 A3025 770 60 -1300 020/12 RMK AO2
94908KDBQ DBQ20060208103509602/08/06 10:35:31  5-MIN KDBQ 081635Z 02013KT 10SM CLR M04/M11 A3025 770 57 -1300 020/13 RMK AO2
94908KDBQ DBQ20060208104009902/08/06 10:40:31  5-MIN KDBQ 081640Z 03013KT 10SM FEW049 M03/M11 A3026 770 57 -1200 030/13 RMK AO2
94908KDBQ DBQ20060208104509902/08/06 10:45:31  5-MIN KDBQ 081645Z 03013KT 10SM SCT049 M04/M11 A3025 770 60 -1300 030/13 RMK AO2
94908KDBQ DBQ20060208105011602/08/06 10:50:31  5-MIN KDBQ 081650Z 03014KT 10SM BKN049 M03/M11 A3025 770 55 -1200 030/14 RMK AO2 SLP260 T10331111
94908KDBQ DBQ20060208105511602/08/06 10:55:31  5-MIN KDBQ 081655Z 04013KT 10SM BKN049 M04/M11 A3026 770 57 -1300 040/13 RMK AO2 SLP261 T10391111
94908KDBQ DBQ20060208110009902/08/06 11:00:31  5-MIN KDBQ 081700Z 02012KT 10SM BKN049 M04/M11 A3026 770 57 -1300 020/12 RMK AO2
94908KDBQ DBQ20060208110509902/08/06 11:05:31  5-MIN KDBQ 081705Z 01012KT 10SM OVC049 M03/M11 A3026 770 57 -1200 010/12 RMK AO2
94908KDBQ DBQ20060208111009902/08/06 11:10:31  5-MIN KDBQ 081710Z 03014KT 10SM OVC049 M04/M11 A3026 770 57 -1300 030/14 RMK AO2
94908KDBQ DBQ20060208111509902/08/06 11:15:31  5-MIN KDBQ 081715Z 03012KT 10SM OVC049 M03/M11 A3026 760 57 -1200 030/12 RMK AO2
94908KDBQ DBQ20060208112009902/08/06 11:20:31  5-MIN KDBQ 081720Z 01010KT 10SM OVC049 M03/M11 A3026 770 57 -1200 010/10 RMK AO2
94908KDBQ DBQ20060208112510602/08/06 11:25:31  5-MIN KDBQ 081725Z 03013KT 10SM FEW029 OVC049 M03/M11 A3026 770 53 -1100 030/13 RMK AO2
94908KDBQ DBQ20060208113010602/08/06 11:30:31  5-MIN KDBQ 081730Z 03014KT 10SM FEW029 OVC049 M04/M11 A3026 770 57 -1300 030/14 RMK AO2
94908KDBQ DBQ20060208113510602/08/06 11:35:31  5-MIN KDBQ 081735Z 03012KT 10SM FEW029 OVC049 M04/M11 A3026 770 57 -1300 020/12 RMK AO2
94908KDBQ DBQ20060208114010602/08/06 11:40:31  5-MIN KDBQ 081740Z 03012KT 10SM FEW029 OVC049 M04/M11 A3026 770 60 -1300 030/12 RMK AO2
94908KDBQ DBQ20060208114510602/08/06 11:45:31  5-MIN KDBQ 081745Z 04012KT 10SM FEW029 OVC049 M03/M11 A3026 770 57 -1200 040/12 RMK AO2
94908KDBQ DBQ20060208115013402/08/06 11:50:31  5-MIN KDBQ 081750Z 03014KT 10SM OVC049 M03/M11 A3026 770 55 -1200 030/14 RMK AO2 SLP261 T10331111 11028 21094 51020
94908KDBQ DBQ20060208115513402/08/06 11:55:31  5-MIN KDBQ 081755Z 03012KT 10SM OVC049 M03/M12 A3026 770 53 -1200 030/12 RMK AO2 SLP262 T10331117 11028 21094 51003
94908KDBQ DBQ20060208120009902/08/06 12:00:31  5-MIN KDBQ 081800Z 03012KT 10SM OVC049 M03/M11 A3026 770 53 -1100 030/12 RMK AO2
94908KDBQ DBQ20060208120509902/08/06 12:05:31  5-MIN KDBQ 081805Z 03014KT 10SM OVC049 M03/M11 A3026 770 53 -1100 030/14 RMK AO2
94908KDBQ DBQ20060208121009902/08/06 12:10:31  5-MIN KDBQ 081810Z 02015KT 10SM OVC049 M03/M12 A3025 770 50 -1200 020/15 RMK AO2
94908KDBQ DBQ20060208121510502/08/06 12:15:31  5-MIN KDBQ 081815Z 03013G18KT 10SM OVC049 M03/M12 A3025 770 53 -1200 030/13G18 RMK AO2
94908KDBQ DBQ20060208122009902/08/06 12:20:31  5-MIN KDBQ 081820Z 03014KT 10SM OVC049 M03/M12 A3026 770 50 -1200 030/14 RMK AO2
94908KDBQ DBQ20060208122511502/08/06 12:25:31  5-MIN KDBQ 081825Z 04013KT 010V070 10SM OVC049 M03/M12 A3025 770 50 -1200 040/13 010V070 RMK AO2
94908KDBQ DBQ20060208123010602/08/06 12:30:31  5-MIN KDBQ 081830Z 03011KT 10SM FEW032 OVC049 M03/M12 A3025 770 50 -1100 030/11 RMK AO2
94908KDBQ DBQ20060208123511202/08/06 12:35:31  5-MIN KDBQ 081835Z 01014G18KT 10SM FEW032 OVC049 M03/M12 A3025 770 50 -1100 010/14G18 RMK AO2
94908KDBQ DBQ20060208124011202/08/06 12:40:31  5-MIN KDBQ 081840Z 01011G18KT 10SM FEW032 OVC049 M03/M12 A3025 770 48 -1100 010/11G18 RMK AO2
94908KDBQ DBQ20060208124510602/08/06 12:45:31  5-MIN KDBQ 081845Z 36010KT 10SM FEW032 OVC049 M03/M12 A3025 770 50 -1200 360/10 RMK AO2
94908KDBQ DBQ20060208125012302/08/06 12:50:31  5-MIN KDBQ 081850Z 36011KT 10SM FEW032 OVC049 M03/M12 A3025 770 50 -1200 360/11 RMK AO2 SLP260 T10331122
94908KDBQ DBQ20060208125512302/08/06 12:55:31  5-MIN KDBQ 081855Z 01011KT 10SM SCT034 OVC049 M03/M12 A3025 770 50 -1100 010/11 RMK AO2 SLP259 T10281117
94908KDBQ DBQ20060208130010602/08/06 13:00:31  5-MIN KDBQ 081900Z 35012KT 10SM SCT034 BKN049 M03/M12 A3025 770 48 -1100 350/12 RMK AO2
94908KDBQ DBQ20060208130510602/08/06 13:05:31  5-MIN KDBQ 081905Z 01010KT 10SM SCT036 BKN049 M02/M12 A3025 770 46 -1100 010/10 RMK AO2
94908KDBQ DBQ20060208131011202/08/06 13:10:31  5-MIN KDBQ 081910Z 01011G16KT 10SM BKN038 BKN049 M03/M12 A3025 770 48 -1100 010/11G16 RMK AO2
94908KDBQ DBQ20060208131510602/08/06 13:15:31  5-MIN KDBQ 081915Z 01011KT 10SM BKN038 BKN049 M03/M12 A3025 770 48 -1100 360/11 RMK AO2
94908KDBQ DBQ20060208132011202/08/06 13:20:31  5-MIN KDBQ 081920Z 02012G17KT 10SM BKN038 BKN047 M02/M12 A3025 770 46 -1100 020/12G17 RMK AO2
94908KDBQ DBQ20060208132511202/08/06 13:25:31  5-MIN KDBQ 081925Z 04011G17KT 10SM SCT040 BKN049 M02/M13 A3025 780 44 -1100 040/11G17 RMK AO2
94908KDBQ DBQ20060208133010602/08/06 13:30:31  5-MIN KDBQ 081930Z 36010KT 10SM SCT040 BKN049 M02/M13 A3025 780 42 -1000 360/10 RMK AO2
94908KDBQ DBQ20060208133510602/08/06 13:35:31  5-MIN KDBQ 081935Z 02016KT 10SM SCT040 BKN049 M02/M13 A3025 780 42 -1000 020/16 RMK AO2
94908KDBQ DBQ20060208134010502/08/06 13:40:31  5-MIN KDBQ 081940Z 01013G20KT 10SM BKN046 M03/M14 A3025 770 42 -1100 010/13G20 RMK AO2
94908KDBQ DBQ20060208134510502/08/06 13:45:31  5-MIN KDBQ 081945Z 01012G20KT 10SM BKN046 M03/M13 A3025 780 44 -1100 010/12G20 RMK AO2
94908KDBQ DBQ20060208135012202/08/06 13:50:31  5-MIN KDBQ 081950Z 01015G18KT 10SM BKN046 M03/M13 A3025 770 44 -1100 010/15G18 RMK AO2 SLP260 T10281133
94908KDBQ DBQ20060208135512202/08/06 13:55:31  5-MIN KDBQ 081955Z 36014G18KT 10SM OVC046 M03/M13 A3025 780 44 -1100 360/14G18 RMK AO2 SLP260 T10281133
94908KDBQ DBQ20060208140010502/08/06 14:00:31  5-MIN KDBQ 082000Z 36013G18KT 10SM OVC046 M03/M13 A3025 770 44 -1100 360/13G18 RMK AO2
94908KDBQ DBQ20060208140509902/08/06 14:05:31  5-MIN KDBQ 082005Z 36011KT 10SM OVC046 M03/M14 A3025 770 42 -1100 360/11 RMK AO2
94908KDBQ DBQ20060208141010502/08/06 14:10:31  5-MIN KDBQ 082010Z 01009G18KT 10SM OVC046 M03/M14 A3025 770 42 -1100 010/09G18 RMK AO2
94908KDBQ DBQ20060208141510502/08/06 14:15:31  5-MIN KDBQ 082015Z 01014G17KT 10SM OVC046 M03/M13 A3026 770 44 -1100 010/14G17 RMK AO2
94908KDBQ DBQ20060208142009902/08/06 14:20:31  5-MIN KDBQ 082020Z 36012KT 10SM OVC048 M03/M14 A3026 770 42 -1100 360/12 RMK AO2
94908KDBQ DBQ20060208142509902/08/06 14:25:31  5-MIN KDBQ 082025Z 36009KT 10SM OVC048 M03/M14 A3026 770 42 -1100 360/09 RMK AO2
94908KDBQ DBQ20060208143009902/08/06 14:30:31  5-MIN KDBQ 082030Z 01011KT 10SM OVC048 M03/M13 A3025 770 46 -1200 360/11 RMK AO2
94908KDBQ DBQ20060208143509902/08/06 14:35:31  5-MIN KDBQ 082035Z 01010KT 10SM OVC046 M03/M13 A3026 770 44 -1100 010/10 RMK AO2
94908KDBQ DBQ20060208144009902/08/06 14:40:31  5-MIN KDBQ 082040Z 35011KT 10SM OVC046 M03/M13 A3026 770 44 -1100 350/11 RMK AO2
94908KDBQ DBQ20060208144509902/08/06 14:45:31  5-MIN KDBQ 082045Z 35011KT 10SM OVC046 M03/M13 A3026 770 44 -1100 350/11 RMK AO2
94908KDBQ DBQ20060208145012202/08/06 14:50:31  5-MIN KDBQ 082050Z 36010KT 10SM OVC046 M03/M13 A3026 770 46 -1200 360/10 RMK AO2 SLP263 T10331133 51003
94908KDBQ DBQ20060208145512202/08/06 14:55:31  5-MIN KDBQ 082055Z 02011KT 10SM OVC048 M03/M14 A3026 760 44 -1200 020/11 RMK AO2 SLP265 T10331139 53002
94908KDBQ DBQ20060208150009902/08/06 15:00:31  5-MIN KDBQ 082100Z 36010KT 10SM OVC048 M03/M14 A3026 760 44 -1200 360/10 RMK AO2
94908KDBQ DBQ20060208150509902/08/06 15:05:31  5-MIN KDBQ 082105Z 36009KT 10SM OVC048 M03/M14 A3026 760 42 -1100 360/09 RMK AO2
94908KDBQ DBQ20060208151009902/08/06 15:10:31  5-MIN KDBQ 082110Z 02010KT 10SM OVC048 M03/M14 A3026 760 42 -1100 020/10 RMK AO2
94908KDBQ DBQ20060208151509902/08/06 15:15:31  5-MIN KDBQ 082115Z 01011KT 10SM OVC048 M02/M13 A3027 760 42 -1100 010/11 RMK AO2
94908KDBQ DBQ20060208152009902/08/06 15:20:31  5-MIN KDBQ 082120Z 01009KT 10SM OVC048 M03/M14 A3027 760 42 -1200 360/09 RMK AO2
94908KDBQ DBQ20060208152509902/08/06 15:25:31  5-MIN KDBQ 082125Z 36009KT 10SM OVC048 M03/M14 A3027 760 42 -1200 350/09 RMK AO2
94908KDBQ DBQ20060208153009902/08/06 15:30:31  5-MIN KDBQ 082130Z 36007KT 10SM OVC048 M03/M14 A3027 760 42 -1200 360/07 RMK AO2
94908KDBQ DBQ20060208153509902/08/06 15:35:31  5-MIN KDBQ 082135Z 36009KT 10SM OVC048 M03/M14 A3027 760 42 -1200 360/09 RMK AO2
94908KDBQ DBQ20060208154009902/08/06 15:40:31  5-MIN KDBQ 082140Z 01012KT 10SM OVC048 M03/M13 A3027 750 44 -1200 010/12 RMK AO2
94908KDBQ DBQ20060208154509902/08/06 15:45:31  5-MIN KDBQ 082145Z 36011KT 10SM OVC048 M03/M13 A3027 750 44 -1200 360/11 RMK AO2
94908KDBQ DBQ20060208155011602/08/06 15:50:31  5-MIN KDBQ 082150Z 01010KT 10SM OVC048 M03/M13 A3027 760 44 -1200 010/10 RMK AO2 SLP268 T10281133
94908KDBQ DBQ20060208155511602/08/06 15:55:31  5-MIN KDBQ 082155Z 01010KT 10SM OVC048 M03/M13 A3027 760 46 -1200 010/10 RMK AO2 SLP269 T10331133
94908KDBQ DBQ20060208160009902/08/06 16:00:31  5-MIN KDBQ 082200Z 36007KT 10SM OVC048 M03/M13 A3027 750 46 -1200 360/07 RMK AO2
94908KDBQ DBQ20060208160509902/08/06 16:05:31  5-MIN KDBQ 082205Z 01010KT 10SM OVC048 M03/M13 A3027 760 46 -1200 010/10 RMK AO2
94908KDBQ DBQ20060208161009902/08/06 16:10:31  5-MIN KDBQ 082210Z 01012KT 10SM OVC048 M03/M13 A3027 760 46 -1200 010/12 RMK AO2
94908KDBQ DBQ20060208161509902/08/06 16:15:31  5-MIN KDBQ 082215Z 35010KT 10SM BKN048 M03/M13 A3027 760 46 -1200 350/10 RMK AO2
94908KDBQ DBQ20060208162009902/08/06 16:20:31  5-MIN KDBQ 082220Z 35010KT 10SM BKN048 M03/M13 A3027 760 44 -1200 350/10 RMK AO2
94908KDBQ DBQ20060208162509902/08/06 16:25:31  5-MIN KDBQ 082225Z 01008KT 10SM SCT048 M03/M13 A3027 750 44 -1200 010/08 RMK AO2
94908KDBQ DBQ20060208163009902/08/06 16:30:31  5-MIN KDBQ 082230Z 02007KT 10SM SCT048 M04/M14 A3028 750 46 -1300 010/07 RMK AO2
94908KDBQ DBQ20060208163509902/08/06 16:35:31  5-MIN KDBQ 082235Z 02011KT 10SM FEW048 M03/M14 A3028 750 44 -1200 020/11 RMK AO2
94908KDBQ DBQ20060208164009602/08/06 16:40:31  5-MIN KDBQ 082240Z 03009KT 10SM CLR M03/M13 A3028 750 46 -1200 030/09 RMK AO2
94908KDBQ DBQ20060208164509602/08/06 16:45:31  5-MIN KDBQ 082245Z 02010KT 10SM CLR M03/M13 A3028 750 46 -1200 020/10 RMK AO2
94908KDBQ DBQ20060208165011302/08/06 16:50:31  5-MIN KDBQ 082250Z 02009KT 10SM CLR M03/M13 A3027 750 46 -1200 020/09 RMK AO2 SLP270 T10331133
94908KDBQ DBQ20060208165511302/08/06 16:55:31  5-MIN KDBQ 082255Z 02009KT 10SM CLR M04/M13 A3028 750 48 -1300 020/09 RMK AO2 SLP271 T10391133
94908KDBQ DBQ20060208170009602/08/06 17:00:31  5-MIN KDBQ 082300Z 03008KT 10SM CLR M04/M13 A3028 750 48 -1300 030/08 RMK AO2
94908KDBQ DBQ20060208170509602/08/06 17:05:31  5-MIN KDBQ 082305Z 03007KT 10SM CLR M04/M13 A3027 750 48 -1300 020/07 RMK AO2
94908KDBQ DBQ20060208171009602/08/06 17:10:31  5-MIN KDBQ 082310Z 01006KT 10SM CLR M04/M13 A3027 750 50 -1400 010/06 RMK AO2
94908KDBQ DBQ20060208171509602/08/06 17:15:31  5-MIN KDBQ 082315Z 02005KT 10SM CLR M04/M14 A3028 750 48 -1400 020/05 RMK AO2
94908KDBQ DBQ20060208172009602/08/06 17:20:31  5-MIN KDBQ 082320Z 01004KT 10SM CLR M05/M14 A3028 750 50 -1400 010/04 RMK AO2
94908KDBQ DBQ20060208172509602/08/06 17:25:31  5-MIN KDBQ 082325Z 01003KT 10SM CLR M05/M14 A3028 750 50 -1400 360/03 RMK AO2
94908KDBQ DBQ20060208173009602/08/06 17:30:31  5-MIN KDBQ 082330Z 36004KT 10SM CLR M05/M14 A3028 750 50 -1500 360/04 RMK AO2
94908KDBQ DBQ20060208173509602/08/06 17:35:31  5-MIN KDBQ 082335Z 36004KT 10SM CLR M05/M14 A3028 740 50 -1500 360/04 RMK AO2
94908KDBQ DBQ20060208174009602/08/06 17:40:31  5-MIN KDBQ 082340Z 36004KT 10SM CLR M06/M14 A3029 740 52 -1500 360/04 RMK AO2
94908KDBQ DBQ20060208174509602/08/06 17:45:31  5-MIN KDBQ 082345Z 01004KT 10SM CLR M06/M14 A3028 740 54 -1600 010/04 RMK AO2
94908KDBQ DBQ20060208175013102/08/06 17:50:31  5-MIN KDBQ 082350Z 01004KT 10SM CLR M06/M14 A3029 740 52 -1500 010/04 RMK AO2 SLP276 T10561139 11017 21061 53002
94908KDBQ DBQ20060208175513102/08/06 17:55:31  5-MIN KDBQ 082355Z 01003KT 10SM CLR M05/M14 A3029 740 50 -1500 010/03 RMK AO2 SLP276 T10501139 11017 21061 53008
94908KDBQ DBQ20060208180009602/08/06 18:00:31  5-MIN KDBQ 090000Z 02003KT 10SM CLR M06/M14 A3029 740 52 -1500 020/03 RMK AO2
94908KDBQ DBQ20060208180509602/08/06 18:05:31  5-MIN KDBQ 090005Z 00000KT 10SM CLR M07/M14 A3029 740 57 -1700 000/00 RMK AO2
94908KDBQ DBQ20060208181009602/08/06 18:10:31  5-MIN KDBQ 090010Z 00000KT 10SM CLR M06/M14 A3029 740 54 -1600 000/00 RMK AO2
94908KDBQ DBQ20060208181509602/08/06 18:15:31  5-MIN KDBQ 090015Z 00000KT 10SM CLR M07/M14 A3029 740 59 -1700 000/00 RMK AO2
94908KDBQ DBQ20060208182009602/08/06 18:20:31  5-MIN KDBQ 090020Z 00000KT 10SM CLR M07/M14 A3029 740 59 -1700 000/00 RMK AO2
94908KDBQ DBQ20060208182509602/08/06 18:25:31  5-MIN KDBQ 090025Z 00000KT 10SM CLR M08/M14 A3029 730 64 -1900 000/00 RMK AO2
94908KDBQ DBQ20060208183009602/08/06 18:30:31  5-MIN KDBQ 090030Z 00000KT 10SM CLR M08/M14 A3030 730 62 -1800 000/00 RMK AO2
94908KDBQ DBQ20060208183509602/08/06 18:35:31  5-MIN KDBQ 090035Z 00000KT 10SM CLR M07/M14 A3030 730 59 -1800 000/00 RMK AO2
94908KDBQ DBQ20060208184009602/08/06 18:40:31  5-MIN KDBQ 090040Z 00000KT 10SM CLR M07/M14 A3030 730 59 -1800 000/00 RMK AO2
94908KDBQ DBQ20060208184509602/08/06 18:45:31  5-MIN KDBQ 090045Z 00000KT 10SM CLR M08/M14 A3030 730 62 -1800 000/00 RMK AO2
94908KDBQ DBQ20060208185011302/08/06 18:50:31  5-MIN KDBQ 090050Z 00000KT 10SM CLR M08/M14 A3030 730 64 -1900 000/00 RMK AO2 SLP281 T10831139
94908KDBQ DBQ20060208185511302/08/06 18:55:31  5-MIN KDBQ 090055Z 00000KT 10SM CLR M08/M14 A3030 730 64 -1900 000/00 RMK AO2 SLP282 T10831139
94908KDBQ DBQ20060208190009602/08/06 19:00:31  5-MIN KDBQ 090100Z 00000KT 10SM CLR M08/M14 A3030 730 64 -1900 000/00 RMK AO2
94908KDBQ DBQ20060208190509602/08/06 19:05:31  5-MIN KDBQ 090105Z 00000KT 10SM CLR M09/M14 A3030 730 67 -2000 000/00 RMK AO2
94908KDBQ DBQ20060208191009602/08/06 19:10:31  5-MIN KDBQ 090110Z 00000KT 10SM CLR M09/M14 A3030 730 64 -2000 000/00 RMK AO2
94908KDBQ DBQ20060208191509602/08/06 19:15:31  5-MIN KDBQ 090115Z 00000KT 10SM CLR M09/M14 A3030 730 67 -2100 000/00 RMK AO2
94908KDBQ DBQ20060208192009602/08/06 19:20:31  5-MIN KDBQ 090120Z 00000KT 10SM CLR M09/M14 A3031 720 64 -2000 000/00 RMK AO2
94908KDBQ DBQ20060208192509602/08/06 19:25:31  5-MIN KDBQ 090125Z 00000KT 10SM CLR M08/M14 A3031 720 64 -1900 000/00 RMK AO2
94908KDBQ DBQ20060208193009602/08/06 19:30:31  5-MIN KDBQ 090130Z 00000KT 10SM CLR M08/M14 A3031 720 62 -1900 000/00 RMK AO2
94908KDBQ DBQ20060208193509602/08/06 19:35:31  5-MIN KDBQ 090135Z 00000KT 10SM CLR M09/M14 A3031 720 67 -2100 000/00 RMK AO2
94908KDBQ DBQ20060208194009602/08/06 19:40:31  5-MIN KDBQ 090140Z 00000KT 10SM CLR M10/M14 A3031 720 70 -2100 000/00 RMK AO2
94908KDBQ DBQ20060208194509602/08/06 19:45:31  5-MIN KDBQ 090145Z 00000KT 10SM CLR M09/M14 A3031 720 67 -2100 000/00 RMK AO2
94908KDBQ DBQ20060208195011302/08/06 19:50:31  5-MIN KDBQ 090150Z 00000KT 10SM CLR M09/M14 A3031 720 64 -2000 000/00 RMK AO2 SLP284 T10891144
94908KDBQ DBQ20060208195512302/08/06 19:55:31  5-MIN KDBQ 090155Z AUTO 00000KT 10SM CLR M09/M14 A3031 720 67 -2100 000/00 RMK AO2 SLP286 T10941144 TSNO
94908KDBQ DBQ20060208200010602/08/06 20:00:31  5-MIN KDBQ 090200Z AUTO 00000KT 10SM CLR M09/M14 A3031 720 64 -2000 000/00 RMK AO2 TSNO
94908KDBQ DBQ20060208200510602/08/06 20:05:31  5-MIN KDBQ 090205Z AUTO 34003KT 10SM CLR M09/M14 A3031 720 64 -2000 330/03 RMK AO2 TSNO
94908KDBQ DBQ20060208201010602/08/06 20:10:31  5-MIN KDBQ 090210Z AUTO 33006KT 10SM CLR M08/M14 A3031 720 64 -1900 330/06 RMK AO2 TSNO
94908KDBQ DBQ20060208201510602/08/06 20:15:31  5-MIN KDBQ 090215Z AUTO 33006KT 10SM CLR M09/M14 A3031 720 64 -2000 330/06 RMK AO2 TSNO
94908KDBQ DBQ20060208202010602/08/06 20:20:31  5-MIN KDBQ 090220Z AUTO 34006KT 10SM CLR M09/M14 A3031 720 67 -2100 340/06 RMK AO2 TSNO
94908KDBQ DBQ20060208202510602/08/06 20:25:31  5-MIN KDBQ 090225Z AUTO 34006KT 10SM CLR M09/M14 A3031 720 67 -2100 330/06 RMK AO2 TSNO
94908KDBQ DBQ20060208203010602/08/06 20:30:31  5-MIN KDBQ 090230Z AUTO 34006KT 10SM CLR M08/M14 A3031 720 64 -1900 340/06 RMK AO2 TSNO
94908KDBQ DBQ20060208203510602/08/06 20:35:31  5-MIN KDBQ 090235Z AUTO 34006KT 10SM CLR M08/M14 A3031 720 62 -1800 340/06 RMK AO2 TSNO
94908KDBQ DBQ20060208204010602/08/06 20:40:31  5-MIN KDBQ 090240Z AUTO 34006KT 10SM CLR M08/M14 A3032 710 62 -1800 340/06 RMK AO2 TSNO
94908KDBQ DBQ20060208204510602/08/06 20:45:31  5-MIN KDBQ 090245Z AUTO 34006KT 10SM CLR M08/M14 A3032 710 62 -1900 340/06 RMK AO2 TSNO
94908KDBQ DBQ20060208205012902/08/06 20:50:31  5-MIN KDBQ 090250Z AUTO 34006KT 10SM CLR M08/M14 A3032 710 64 -1900 340/06 RMK AO2 SLP286 T10831139 53008 TSNO
94908KDBQ DBQ20060208205512902/08/06 20:55:31  5-MIN KDBQ 090255Z AUTO 35006KT 10SM CLR M08/M14 A3032 710 64 -1900 350/06 RMK AO2 SLP286 T10831139 51010 TSNO
94908KDBQ DBQ20060208210010602/08/06 21:00:31  5-MIN KDBQ 090300Z AUTO 36005KT 10SM CLR M08/M14 A3032 710 62 -1900 360/05 RMK AO2 TSNO
94908KDBQ DBQ20060208210510602/08/06 21:05:31  5-MIN KDBQ 090305Z AUTO 36005KT 10SM CLR M07/M13 A3032 710 59 -1700 360/05 RMK AO2 TSNO
94908KDBQ DBQ20060208211010602/08/06 21:10:31  5-MIN KDBQ 090310Z AUTO 35004KT 10SM CLR M07/M13 A3032 710 59 -1700 350/04 RMK AO2 TSNO
94908KDBQ DBQ20060208211510602/08/06 21:15:31  5-MIN KDBQ 090315Z AUTO 34005KT 10SM CLR M07/M13 A3032 710 62 -1800 340/05 RMK AO2 TSNO
94908KDBQ DBQ20060208212010602/08/06 21:20:31  5-MIN KDBQ 090320Z AUTO 34005KT 10SM CLR M07/M13 A3032 710 62 -1800 340/05 RMK AO2 TSNO
94908KDBQ DBQ20060208212510602/08/06 21:25:31  5-MIN KDBQ 090325Z AUTO 33005KT 10SM CLR M07/M13 A3033 710 62 -1800 330/05 RMK AO2 TSNO
94908KDBQ DBQ20060208213010602/08/06 21:30:31  5-MIN KDBQ 090330Z AUTO 33005KT 10SM CLR M08/M14 A3032 710 62 -1900 330/05 RMK AO2 TSNO
94908KDBQ DBQ20060208213510602/08/06 21:35:31  5-MIN KDBQ 090335Z AUTO 33005KT 10SM CLR M09/M14 A3032 710 67 -2000 330/05 RMK AO2 TSNO
94908KDBQ DBQ20060208214010602/08/06 21:40:31  5-MIN KDBQ 090340Z AUTO 33006KT 10SM CLR M08/M14 A3033 700 64 -1900 330/06 RMK AO2 TSNO
94908KDBQ DBQ20060208214510602/08/06 21:45:31  5-MIN KDBQ 090345Z AUTO 33005KT 10SM CLR M08/M14 A3033 700 64 -1900 330/05 RMK AO2 TSNO
94908KDBQ DBQ20060208215012302/08/06 21:50:31  5-MIN KDBQ 090350Z AUTO 34005KT 10SM CLR M08/M14 A3033 700 64 -1900 340/05 RMK AO2 SLP289 T10831139 TSNO
94908KDBQ DBQ20060208215512302/08/06 21:55:31  5-MIN KDBQ 090355Z AUTO 33005KT 10SM CLR M08/M14 A3032 710 62 -1900 330/05 RMK AO2 SLP287 T10781139 TSNO
94908KDBQ DBQ20060208220010602/08/06 22:00:31  5-MIN KDBQ 090400Z AUTO 33005KT 10SM CLR M08/M14 A3033 710 64 -1900 330/05 RMK AO2 TSNO
94908KDBQ DBQ20060208220510602/08/06 22:05:31  5-MIN KDBQ 090405Z AUTO 33006KT 10SM CLR M09/M14 A3033 700 64 -2000 330/06 RMK AO2 TSNO
94908KDBQ DBQ20060208221010602/08/06 22:10:31  5-MIN KDBQ 090410Z AUTO 34006KT 10SM CLR M09/M14 A3033 700 67 -2100 330/06 RMK AO2 TSNO
94908KDBQ DBQ20060208221510602/08/06 22:15:31  5-MIN KDBQ 090415Z AUTO 34006KT 10SM CLR M09/M14 A3033 700 67 -2100 340/06 RMK AO2 TSNO
94908KDBQ DBQ20060208222010602/08/06 22:20:31  5-MIN KDBQ 090420Z AUTO 34007KT 10SM CLR M09/M14 A3033 700 67 -2100 340/07 RMK AO2 TSNO
94908KDBQ DBQ20060208222510602/08/06 22:25:31  5-MIN KDBQ 090425Z AUTO 34006KT 10SM CLR M09/M14 A3033 710 64 -2000 340/06 RMK AO2 TSNO
94908KDBQ DBQ20060208223010602/08/06 22:30:31  5-MIN KDBQ 090430Z AUTO 34006KT 10SM CLR M08/M14 A3033 700 62 -1900 340/06 RMK AO2 TSNO
94908KDBQ DBQ20060208223510602/08/06 22:35:31  5-MIN KDBQ 090435Z AUTO 33006KT 10SM CLR M08/M14 A3033 700 62 -1900 330/06 RMK AO2 TSNO
94908KDBQ DBQ20060208224010602/08/06 22:40:31  5-MIN KDBQ 090440Z AUTO 33007KT 10SM CLR M09/M14 A3033 700 64 -2000 330/07 RMK AO2 TSNO
94908KDBQ DBQ20060208224510602/08/06 22:45:31  5-MIN KDBQ 090445Z AUTO 32006KT 10SM CLR M09/M14 A3033 700 67 -2100 320/06 RMK AO2 TSNO
94908KDBQ DBQ20060208225012302/08/06 22:50:31  5-MIN KDBQ 090450Z AUTO 32006KT 10SM CLR M09/M14 A3033 700 64 -2000 320/06 RMK AO2 SLP290 T10891144 TSNO
94908KDBQ DBQ20060208225512302/08/06 22:55:31  5-MIN KDBQ 090455Z AUTO 32006KT 10SM CLR M09/M14 A3033 700 67 -2100 320/06 RMK AO2 SLP291 T10941144 TSNO
94908KDBQ DBQ20060208230010602/08/06 23:00:31  5-MIN KDBQ 090500Z AUTO 33005KT 10SM CLR M11/M15 A3033 700 70 -2200 330/05 RMK AO2 TSNO
94908KDBQ DBQ20060208230510602/08/06 23:05:31  5-MIN KDBQ 090505Z AUTO 33004KT 10SM CLR M11/M15 A3033 700 70 -2200 330/04 RMK AO2 TSNO
94908KDBQ DBQ20060208231010602/08/06 23:10:31  5-MIN KDBQ 090510Z AUTO 33004KT 10SM CLR M11/M15 A3033 700 70 -2200 330/04 RMK AO2 TSNO
94908KDBQ DBQ20060208231510602/08/06 23:15:31  5-MIN KDBQ 090515Z AUTO 31003KT 10SM CLR M11/M16 A3034 700 70 -2300 310/03 RMK AO2 TSNO
94908KDBQ DBQ20060208232010602/08/06 23:20:31  5-MIN KDBQ 090520Z AUTO 32003KT 10SM CLR M12/M16 A3034 700 73 -2400 310/03 RMK AO2 TSNO
94908KDBQ DBQ20060208232510602/08/06 23:25:31  5-MIN KDBQ 090525Z AUTO 32004KT 10SM CLR M12/M16 A3034 690 73 -2400 320/04 RMK AO2 TSNO
94908KDBQ DBQ20060208233010602/08/06 23:30:31  5-MIN KDBQ 090530Z AUTO 32005KT 10SM CLR M11/M16 A3034 700 70 -2300 320/05 RMK AO2 TSNO
94908KDBQ DBQ20060208233510602/08/06 23:35:31  5-MIN KDBQ 090535Z AUTO 32003KT 10SM CLR M11/M16 A3034 700 70 -2300 320/03 RMK AO2 TSNO
94908KDBQ DBQ20060208234010602/08/06 23:40:31  5-MIN KDBQ 090540Z AUTO 32003KT 10SM CLR M11/M15 A3034 700 73 -2300 320/03 RMK AO2 TSNO
94908KDBQ DBQ20060208234510602/08/06 23:45:31  5-MIN KDBQ 090545Z AUTO 32003KT 10SM CLR M10/M15 A3033 700 67 -2200 320/03 RMK AO2 TSNO
94908KDBQ DBQ20060208235015102/08/06 23:50:31  5-MIN KDBQ 090550Z AUTO 00000KT 10SM CLR M10/M15 A3033 700 67 -2200 000/00 RMK AO2 SLP291 T11001150 11050 21117 410171117 51010 TSNO
94908KDBQ DBQ20060208235515102/08/06 23:55:31  5-MIN KDBQ 090555Z AUTO 00000KT 10SM CLR M11/M16 A3033 700 67 -2200 000/00 RMK AO2 SLP290 T11061156 11050 21117 410171117 50004 TSNO
94908KDBQ DBQ20060209000010602/09/06 00:00:38  5-MIN KDBQ 090600Z AUTO 00000KT 10SM CLR M11/M16 A3032 710 70 -2300 000/00 RMK AO2 TSNO
94908KDBQ DBQ20060209000510602/09/06 00:05:31  5-MIN KDBQ 090605Z AUTO 02003KT 10SM CLR M09/M14 A3032 710 67 -2100 020/03 RMK AO2 TSNO
94908KDBQ DBQ20060209001010602/09/06 00:10:31  5-MIN KDBQ 090610Z AUTO 00000KT 10SM CLR M11/M15 A3032 710 70 -2200 000/00 RMK AO2 TSNO
94908KDBQ DBQ20060209001510602/09/06 00:15:31  5-MIN KDBQ 090615Z AUTO 00000KT 10SM CLR M11/M15 A3032 710 73 -2300 000/00 RMK AO2 TSNO
94908KDBQ DBQ20060209002010602/09/06 00:20:31  5-MIN KDBQ 090620Z AUTO 00000KT 10SM CLR M11/M15 A3032 710 73 -2300 000/00 RMK AO2 TSNO
94908KDBQ DBQ20060209002510602/09/06 00:25:31  5-MIN KDBQ 090625Z AUTO 00000KT 10SM CLR M12/M16 A3032 710 73 -2400 000/00 RMK AO2 TSNO
94908KDBQ DBQ20060209003010602/09/06 00:30:31  5-MIN KDBQ 090630Z AUTO 00000KT 10SM CLR M12/M16 A3032 710 73 -2400 000/00 RMK AO2 TSNO
94908KDBQ DBQ20060209003510602/09/06 00:35:31  5-MIN KDBQ 090635Z AUTO 00000KT 10SM CLR M11/M16 A3032 710 70 -2300 000/00 RMK AO2 TSNO
94908KDBQ DBQ20060209004010602/09/06 00:40:31  5-MIN KDBQ 090640Z AUTO 00000KT 10SM CLR M11/M16 A3032 710 70 -2300 000/00 RMK AO2 TSNO
94908KDBQ DBQ20060209004510602/09/06 00:45:31  5-MIN KDBQ 090645Z AUTO 00000KT 10SM CLR M12/M16 A3032 710 73 -2400 000/00 RMK AO2 TSNO
94908KDBQ DBQ20060209005012302/09/06 00:50:31  5-MIN KDBQ 090650Z AUTO 00000KT 10SM CLR M13/M16 A3032 710 76 -2500 000/00 RMK AO2 SLP288 T11281161 TSNO
94908KDBQ DBQ20060209005512302/09/06 00:55:31  5-MIN KDBQ 090655Z AUTO 00000KT 10SM CLR M13/M16 A3032 710 76 -2500 000/00 RMK AO2 SLP288 T11281161 TSNO
94908KDBQ DBQ20060209010010602/09/06 01:00:31  5-MIN KDBQ 090700Z AUTO 00000KT 10SM CLR M12/M16 A3032 710 70 -2400 000/00 RMK AO2 TSNO
94908KDBQ DBQ20060209010510602/09/06 01:05:31  5-MIN KDBQ 090705Z AUTO 00000KT 10SM CLR M12/M16 A3032 710 73 -2400 000/00 RMK AO2 TSNO
94908KDBQ DBQ20060209011010602/09/06 01:10:31  5-MIN KDBQ 090710Z AUTO 00000KT 10SM CLR M13/M16 A3032 710 76 -2500 000/00 RMK AO2 TSNO
94908KDBQ DBQ20060209011510602/09/06 01:15:31  5-MIN KDBQ 090715Z AUTO 00000KT 10SM CLR M13/M16 A3032 710 80 -2600 000/00 RMK AO2 TSNO
94908KDBQ DBQ20060209012010602/09/06 01:20:31  5-MIN KDBQ 090720Z AUTO 00000KT 10SM CLR M13/M17 A3032 710 76 -2600 000/00 RMK AO2 TSNO
94908KDBQ DBQ20060209012510602/09/06 01:25:31  5-MIN KDBQ 090725Z AUTO 00000KT 10SM CLR M13/M17 A3032 710 73 -2500 000/00 RMK AO2 TSNO
94908KDBQ DBQ20060209013010602/09/06 01:30:31  5-MIN KDBQ 090730Z AUTO 00000KT 10SM CLR M13/M17 A3032 710 73 -2500 000/00 RMK AO2 TSNO
94908KDBQ DBQ20060209013510602/09/06 01:35:31  5-MIN KDBQ 090735Z AUTO 20003KT 10SM CLR M13/M16 A3031 720 76 -2500 200/03 RMK AO2 TSNO
94908KDBQ DBQ20060209014010602/09/06 01:40:31  5-MIN KDBQ 090740Z AUTO 19003KT 10SM CLR M13/M17 A3031 720 76 -2600 190/03 RMK AO2 TSNO
94908KDBQ DBQ20060209014510602/09/06 01:45:31  5-MIN KDBQ 090745Z AUTO 21003KT 10SM CLR M13/M17 A3030 730 76 -2600 210/03 RMK AO2 TSNO
94908KDBQ DBQ20060209015012302/09/06 01:50:31  5-MIN KDBQ 090750Z AUTO 23003KT 10SM CLR M13/M17 A3031 720 76 -2600 220/03 RMK AO2 SLP283 T11331167 TSNO
94908KDBQ DBQ20060209015512302/09/06 01:55:31  5-MIN KDBQ 090755Z AUTO 00000KT 10SM CLR M13/M17 A3031 720 76 -2600 000/00 RMK AO2 SLP284 T11331167 TSNO
94908KDBQ DBQ20060209020010602/09/06 02:00:31  5-MIN KDBQ 090800Z AUTO 22003KT 10SM CLR M13/M17 A3031 720 76 -2600 220/03 RMK AO2 TSNO
94908KDBQ DBQ20060209020510602/09/06 02:05:31  5-MIN KDBQ 090805Z AUTO 22004KT 10SM CLR M13/M17 A3031 720 76 -2600 220/04 RMK AO2 TSNO
94908KDBQ DBQ20060209021010602/09/06 02:10:31  5-MIN KDBQ 090810Z AUTO 21004KT 10SM CLR M13/M17 A3031 720 76 -2600 210/04 RMK AO2 TSNO
94908KDBQ DBQ20060209021510602/09/06 02:15:31  5-MIN KDBQ 090815Z AUTO 21004KT 10SM CLR M14/M17 A3031 720 80 -2600 210/04 RMK AO2 TSNO
94908KDBQ DBQ20060209022010602/09/06 02:20:31  5-MIN KDBQ 090820Z AUTO 21005KT 10SM CLR M14/M17 A3030 730 80 -2600 210/05 RMK AO2 TSNO
94908KDBQ DBQ20060209022510602/09/06 02:25:31  5-MIN KDBQ 090825Z AUTO 21005KT 10SM CLR M13/M17 A3030 730 76 -2600 210/05 RMK AO2 TSNO
94908KDBQ DBQ20060209023010602/09/06 02:30:31  5-MIN KDBQ 090830Z AUTO 21004KT 10SM CLR M13/M16 A3030 730 80 -2600 210/04 RMK AO2 TSNO
94908KDBQ DBQ20060209023510602/09/06 02:35:31  5-MIN KDBQ 090835Z AUTO 21004KT 10SM CLR M13/M16 A3030 730 80 -2600 210/04 RMK AO2 TSNO
94908KDBQ DBQ20060209024010602/09/06 02:40:31  5-MIN KDBQ 090840Z AUTO 21004KT 10SM CLR M13/M16 A3029 740 80 -2600 210/04 RMK AO2 TSNO
94908KDBQ DBQ20060209024510602/09/06 02:45:31  5-MIN KDBQ 090845Z AUTO 21003KT 10SM CLR M13/M16 A3029 740 80 -2600 210/03 RMK AO2 TSNO
94908KDBQ DBQ20060209025012902/09/06 02:50:31  5-MIN KDBQ 090850Z AUTO 21003KT 10SM CLR M13/M16 A3029 740 80 -2600 210/03 RMK AO2 SLP277 T11331161 50004 TSNO
94908KDBQ DBQ20060209025512902/09/06 02:55:31  5-MIN KDBQ 090855Z AUTO 21004KT 10SM CLR M13/M16 A3028 740 80 -2500 210/04 RMK AO2 SLP275 T11331161 58016 TSNO
94908KDBQ DBQ20060209030010602/09/06 03:00:31  5-MIN KDBQ 090900Z AUTO 21004KT 10SM CLR M13/M16 A3028 750 80 -2500 210/04 RMK AO2 TSNO
94908KDBQ DBQ20060209030510602/09/06 03:05:31  5-MIN KDBQ 090905Z AUTO 21004KT 10SM CLR M13/M16 A3028 750 80 -2500 200/04 RMK AO2 TSNO
94908KDBQ DBQ20060209031010602/09/06 03:10:31  5-MIN KDBQ 090910Z AUTO 21005KT 10SM CLR M13/M16 A3028 750 83 -2500 200/05 RMK AO2 TSNO
94908KDBQ DBQ20060209031510602/09/06 03:15:31  5-MIN KDBQ 090915Z AUTO 21005KT 10SM CLR M13/M16 A3028 750 80 -2500 210/05 RMK AO2 TSNO
94908KDBQ DBQ20060209032010602/09/06 03:20:31  5-MIN KDBQ 090920Z AUTO 22004KT 10SM CLR M14/M16 A3028 750 83 -2600 210/04 RMK AO2 TSNO
94908KDBQ DBQ20060209032510602/09/06 03:25:31  5-MIN KDBQ 090925Z AUTO 21003KT 10SM CLR M14/M17 A3028 750 80 -2600 210/03 RMK AO2 TSNO
94908KDBQ DBQ20060209033010602/09/06 03:30:31  5-MIN KDBQ 090930Z AUTO 22003KT 10SM CLR M14/M17 A3028 750 80 -2600 220/03 RMK AO2 TSNO
94908KDBQ DBQ20060209033510602/09/06 03:35:31  5-MIN KDBQ 090935Z AUTO 22003KT 10SM CLR M13/M16 A3028 750 80 -2500 210/03 RMK AO2 TSNO
94908KDBQ DBQ20060209034010602/09/06 03:40:31  5-MIN KDBQ 090940Z AUTO 22003KT 10SM CLR M13/M16 A3029 740 80 -2500 220/03 RMK AO2 TSNO
94908KDBQ DBQ20060209034510602/09/06 03:45:31  5-MIN KDBQ 090945Z AUTO 00000KT 10SM CLR M14/M16 A3029 730 83 -2600 000/00 RMK AO2 TSNO
94908KDBQ DBQ20060209035012302/09/06 03:50:31  5-MIN KDBQ 090950Z AUTO 23003KT 10SM CLR M14/M16 A3029 730 83 -2600 230/03 RMK AO2 SLP279 T11391161 TSNO
94908KDBQ DBQ20060209035512302/09/06 03:55:31  5-MIN KDBQ 090955Z AUTO 19003KT 10SM CLR M14/M16 A3029 740 83 -2600 190/03 RMK AO2 SLP277 T11391161 TSNO
94908KDBQ DBQ20060209040010602/09/06 04:00:31  5-MIN KDBQ 091000Z AUTO 21003KT 10SM CLR M14/M16 A3029 730 83 -2600 210/03 RMK AO2 TSNO
94908KDBQ DBQ20060209040510602/09/06 04:05:31  5-MIN KDBQ 091005Z AUTO 19003KT 10SM CLR M14/M17 A3029 740 80 -2600 190/03 RMK AO2 TSNO
94908KDBQ DBQ20060209041010602/09/06 04:10:31  5-MIN KDBQ 091010Z AUTO 00000KT 10SM CLR M13/M16 A3028 740 80 -2500 000/00 RMK AO2 TSNO
94908KDBQ DBQ20060209041510602/09/06 04:15:31  5-MIN KDBQ 091015Z AUTO 00000KT 10SM CLR M13/M16 A3028 740 80 -2500 000/00 RMK AO2 TSNO
94908KDBQ DBQ20060209042010602/09/06 04:20:31  5-MIN KDBQ 091020Z AUTO 00000KT 10SM CLR M13/M16 A3028 750 80 -2500 000/00 RMK AO2 TSNO
94908KDBQ DBQ20060209042510602/09/06 04:25:31  5-MIN KDBQ 091025Z AUTO 00000KT 10SM CLR M13/M16 A3028 740 76 -2500 000/00 RMK AO2 TSNO
94908KDBQ DBQ20060209043010602/09/06 04:30:31  5-MIN KDBQ 091030Z AUTO 00000KT 10SM CLR M13/M16 A3028 740 80 -2500 000/00 RMK AO2 TSNO
94908KDBQ DBQ20060209043510602/09/06 04:35:31  5-MIN KDBQ 091035Z AUTO 20003KT 10SM CLR M13/M16 A3028 750 80 -2500 200/03 RMK AO2 TSNO
94908KDBQ DBQ20060209044010602/09/06 04:40:31  5-MIN KDBQ 091040Z AUTO 20004KT 10SM CLR M13/M16 A3028 750 80 -2500 200/04 RMK AO2 TSNO
94908KDBQ DBQ20060209044510602/09/06 04:45:31  5-MIN KDBQ 091045Z AUTO 20004KT 10SM CLR M13/M16 A3028 750 80 -2500 200/04 RMK AO2 TSNO
94908KDBQ DBQ20060209045012302/09/06 04:50:31  5-MIN KDBQ 091050Z AUTO 21003KT 10SM CLR M14/M16 A3028 750 83 -2600 210/03 RMK AO2 SLP273 T11391161 TSNO
94908KDBQ DBQ20060209045512302/09/06 04:55:31  5-MIN KDBQ 091055Z AUTO 21003KT 10SM CLR M14/M17 A3028 750 83 -2700 210/03 RMK AO2 SLP274 T11441167 TSNO
94908KDBQ DBQ20060209050010602/09/06 05:00:31  5-MIN KDBQ 091100Z AUTO 22003KT 10SM CLR M14/M17 A3028 750 80 -2700 220/03 RMK AO2 TSNO
94908KDBQ DBQ20060209050510602/09/06 05:05:31  5-MIN KDBQ 091105Z AUTO 22004KT 10SM CLR M14/M17 A3028 750 80 -2700 220/04 RMK AO2 TSNO
94908KDBQ DBQ20060209051010602/09/06 05:10:31  5-MIN KDBQ 091110Z AUTO 23004KT 10SM CLR M14/M17 A3028 750 83 -2700 230/04 RMK AO2 TSNO
94908KDBQ DBQ20060209051510602/09/06 05:15:31  5-MIN KDBQ 091115Z AUTO 22003KT 10SM CLR M14/M17 A3028 750 83 -2700 220/03 RMK AO2 TSNO
94908KDBQ DBQ20060209052010602/09/06 05:20:31  5-MIN KDBQ 091120Z AUTO 22003KT 10SM CLR M14/M17 A3028 740 80 -2600 220/03 RMK AO2 TSNO
94908KDBQ DBQ20060209052510602/09/06 05:25:31  5-MIN KDBQ 091125Z AUTO 21004KT 10SM CLR M14/M17 A3028 750 80 -2700 210/04 RMK AO2 TSNO
94908KDBQ DBQ20060209053010602/09/06 05:30:31  5-MIN KDBQ 091130Z AUTO 22004KT 10SM CLR M14/M17 A3028 750 80 -2700 220/04 RMK AO2 TSNO
94908KDBQ DBQ20060209053510602/09/06 05:35:31  5-MIN KDBQ 091135Z AUTO 22004KT 10SM CLR M14/M17 A3028 750 83 -2700 220/04 RMK AO2 TSNO
94908KDBQ DBQ20060209054010602/09/06 05:40:31  5-MIN KDBQ 091140Z AUTO 20003KT 10SM CLR M14/M17 A3028 750 83 -2700 200/03 RMK AO2 TSNO
94908KDBQ DBQ20060209054510602/09/06 05:45:31  5-MIN KDBQ 091145Z AUTO 20003KT 10SM CLR M14/M17 A3028 750 80 -2600 200/03 RMK AO2 TSNO
94908KDBQ DBQ20060209055014102/09/06 05:50:31  5-MIN KDBQ 091150Z AUTO 00000KT 10SM CLR M13/M16 A3028 750 80 -2500 000/00 RMK AO2 SLP274 T11331161 11094 21144 58016 TSNO
94908KDBQ DBQ20060209055514102/09/06 05:55:31  5-MIN KDBQ 091155Z AUTO 00000KT 10SM CLR M13/M16 A3028 750 80 -2500 000/00 RMK AO2 SLP274 T11331161 11094 21144 58002 TSNO
94908KDBQ DBQ20060209060009602/09/06 06:00:31  5-MIN KDBQ 091200Z 00000KT 10SM CLR M13/M16 A3028 750 80 -2500 000/00 RMK AO2
94908KDBQ DBQ20060209060509602/09/06 06:05:31  5-MIN KDBQ 091205Z 00000KT 10SM CLR M13/M17 A3027 750 76 -2500 000/00 RMK AO2
94908KDBQ DBQ20060209061009602/09/06 06:10:31  5-MIN KDBQ 091210Z 21003KT 10SM CLR M14/M17 A3028 750 80 -2600 210/03 RMK AO2
94908KDBQ DBQ20060209061509602/09/06 06:15:31  5-MIN KDBQ 091215Z 21003KT 10SM CLR M14/M17 A3028 750 80 -2600 210/03 RMK AO2
94908KDBQ DBQ20060209062009602/09/06 06:20:31  5-MIN KDBQ 091220Z 21004KT 10SM CLR M14/M17 A3028 750 80 -2700 210/04 RMK AO2
94908KDBQ DBQ20060209062509602/09/06 06:25:31  5-MIN KDBQ 091225Z 21005KT 10SM CLR M14/M17 A3028 750 80 -2700 210/05 RMK AO2
94908KDBQ DBQ20060209063009602/09/06 06:30:31  5-MIN KDBQ 091230Z 22005KT 10SM CLR M15/M17 A3028 750 83 -2800 220/05 RMK AO2
94908KDBQ DBQ20060209063509602/09/06 06:35:31  5-MIN KDBQ 091235Z 23005KT 10SM CLR M15/M17 A3028 750 83 -2800 230/05 RMK AO2
94908KDBQ DBQ20060209064009602/09/06 06:40:31  5-MIN KDBQ 091240Z 23005KT 10SM CLR M16/M18 A3028 740 83 -2800 230/05 RMK AO2
94908KDBQ DBQ20060209064509602/09/06 06:45:31  5-MIN KDBQ 091245Z 22004KT 10SM CLR M14/M17 A3028 740 80 -2700 220/04 RMK AO2
94908KDBQ DBQ20060209065011302/09/06 06:50:31  5-MIN KDBQ 091250Z 21004KT 10SM CLR M14/M17 A3028 750 80 -2700 210/04 RMK AO2 SLP277 T11441172
94908KDBQ DBQ20060209065511302/09/06 06:55:31  5-MIN KDBQ 091255Z 20003KT 10SM CLR M14/M17 A3028 750 80 -2700 200/03 RMK AO2 SLP276 T11441172
94908KDBQ DBQ20060209070009602/09/06 07:00:31  5-MIN KDBQ 091300Z 20003KT 10SM CLR M14/M17 A3027 750 80 -2600 200/03 RMK AO2
94908KDBQ DBQ20060209070509602/09/06 07:05:31  5-MIN KDBQ 091305Z 00000KT 10SM CLR M13/M16 A3027 750 80 -2500 000/00 RMK AO2
94908KDBQ DBQ20060209071009602/09/06 07:10:31  5-MIN KDBQ 091310Z 21003KT 10SM CLR M13/M16 A3028 750 80 -2500 210/03 RMK AO2
94908KDBQ DBQ20060209071509602/09/06 07:15:31  5-MIN KDBQ 091315Z 20003KT 10SM CLR M14/M16 A3027 750 83 -2600 200/03 RMK AO2
94908KDBQ DBQ20060209072009602/09/06 07:20:31  5-MIN KDBQ 091320Z 20004KT 10SM CLR M13/M16 A3027 760 80 -2500 200/04 RMK AO2
94908KDBQ DBQ20060209072509602/09/06 07:25:31  5-MIN KDBQ 091325Z 20004KT 10SM CLR M13/M16 A3027 760 80 -2500 200/04 RMK AO2
94908KDBQ DBQ20060209073009602/09/06 07:30:31  5-MIN KDBQ 091330Z 20003KT 10SM CLR M13/M16 A3027 760 80 -2500 200/03 RMK AO2
94908KDBQ DBQ20060209073509602/09/06 07:35:31  5-MIN KDBQ 091335Z 20003KT 10SM CLR M13/M15 A3027 760 84 -2500 200/03 RMK AO2
94908KDBQ DBQ20060209074009602/09/06 07:40:31  5-MIN KDBQ 091340Z 21003KT 10SM CLR M13/M15 A3027 760 84 -2500 210/03 RMK AO2
94908KDBQ DBQ20060209074509602/09/06 07:45:31  5-MIN KDBQ 091345Z 21004KT 10SM CLR M13/M15 A3026 760 84 -2400 210/04 RMK AO2
94908KDBQ DBQ20060209075011302/09/06 07:50:31  5-MIN KDBQ 091350Z 22004KT 10SM CLR M13/M15 A3026 760 84 -2400 220/04 RMK AO2 SLP270 T11281150
94908KDBQ DBQ20060209075511302/09/06 07:55:31  5-MIN KDBQ 091355Z 23005KT 10SM CLR M13/M15 A3027 760 84 -2500 230/05 RMK AO2 SLP272 T11281150
94908KDBQ DBQ20060209080009602/09/06 08:00:31  5-MIN KDBQ 091400Z 24005KT 10SM CLR M12/M15 A3027 760 80 -2400 240/05 RMK AO2
94908KDBQ DBQ20060209080509602/09/06 08:05:31  5-MIN KDBQ 091405Z 24004KT 10SM CLR M12/M14 A3027 760 84 -2400 240/04 RMK AO2
94908KDBQ DBQ20060209081009602/09/06 08:10:31  5-MIN KDBQ 091410Z 22004KT 10SM CLR M12/M14 A3026 760 80 -2300 220/04 RMK AO2
94908KDBQ DBQ20060209081509602/09/06 08:15:31  5-MIN KDBQ 091415Z 00000KT 10SM CLR M12/M14 A3026 760 80 -2300 000/00 RMK AO2
94908KDBQ DBQ20060209082009602/09/06 08:20:31  5-MIN KDBQ 091420Z 00000KT 10SM CLR M12/M14 A3026 770 84 -2300 000/00 RMK AO2
94908KDBQ DBQ20060209082509602/09/06 08:25:31  5-MIN KDBQ 091425Z 21003KT 10SM CLR M11/M14 A3026 770 80 -2200 210/03 RMK AO2
94908KDBQ DBQ20060209083009602/09/06 08:30:31  5-MIN KDBQ 091430Z 21003KT 10SM CLR M11/M13 A3025 770 84 -2200 210/03 RMK AO2
94908KDBQ DBQ20060209083509602/09/06 08:35:31  5-MIN KDBQ 091435Z 21003KT 10SM CLR M11/M13 A3025 770 84 -2200 210/03 RMK AO2
94908KDBQ DBQ20060209084009602/09/06 08:40:31  5-MIN KDBQ 091440Z 21003KT 10SM CLR M11/M13 A3025 770 80 -2100 210/03 RMK AO2
94908KDBQ DBQ20060209084509602/09/06 08:45:31  5-MIN KDBQ 091445Z 00000KT 10SM CLR M10/M13 A3025 770 80 -2100 000/00 RMK AO2
94908KDBQ DBQ20060209085011902/09/06 08:50:31  5-MIN KDBQ 091450Z 00000KT 10SM CLR M10/M13 A3025 770 80 -2100 000/00 RMK AO2 SLP266 T11001128 58002
94908KDBQ DBQ20060209085511902/09/06 08:55:31  5-MIN KDBQ 091455Z 23003KT 10SM CLR M10/M12 A3026 770 84 -2100 220/03 RMK AO2 SLP267 T11001122 58007
94908KDBQ DBQ20060209090009602/09/06 09:00:31  5-MIN KDBQ 091500Z 23003KT 10SM CLR M09/M12 A3026 770 80 -2000 230/03 RMK AO2
94908KDBQ DBQ20060209090509602/09/06 09:05:31  5-MIN KDBQ 091505Z 23003KT 10SM CLR M09/M12 A3025 770 80 -2000 220/03 RMK AO2
94908KDBQ DBQ20060209091009602/09/06 09:10:31  5-MIN KDBQ 091510Z 21003KT 10SM CLR M09/M12 A3025 770 80 -1900 210/03 RMK AO2
94908KDBQ DBQ20060209091509602/09/06 09:15:31  5-MIN KDBQ 091515Z 19003KT 10SM CLR M09/M12 A3025 780 80 -1900 180/03 RMK AO2
94908KDBQ DBQ20060209092009602/09/06 09:20:31  5-MIN KDBQ 091520Z 20003KT 10SM CLR M08/M11 A3025 780 80 -1800 200/03 RMK AO2
94908KDBQ DBQ20060209092509602/09/06 09:25:31  5-MIN KDBQ 091525Z 21004KT 10SM CLR M08/M11 A3024 780 80 -1800 210/04 RMK AO2
94908KDBQ DBQ20060209093009602/09/06 09:30:31  5-MIN KDBQ 091530Z 20004KT 10SM CLR M08/M11 A3024 780 77 -1800 200/04 RMK AO2
94908KDBQ DBQ20060209093509602/09/06 09:35:31  5-MIN KDBQ 091535Z 21005KT 10SM CLR M07/M11 A3024 780 77 -1700 210/05 RMK AO2
94908KDBQ DBQ20060209094009602/09/06 09:40:31  5-MIN KDBQ 091540Z 20005KT 10SM CLR M07/M11 A3024 780 77 -1700 200/05 RMK AO2
94908KDBQ DBQ20060209094509602/09/06 09:45:31  5-MIN KDBQ 091545Z 20006KT 10SM CLR M07/M11 A3024 790 77 -1700 200/06 RMK AO2
94908KDBQ DBQ20060209095011602/09/06 09:50:31  5-MIN KDBQ 091550Z 20005KT 10SM FEW100 M07/M11 A3024 790 77 -1700 200/05 RMK AO2 SLP259 T10721106
94908KDBQ DBQ20060209095511302/09/06 09:55:31  5-MIN KDBQ 091555Z 20006KT 10SM CLR M07/M11 A3023 790 74 -1600 200/06 RMK AO2 SLP257 T10671106
94908KDBQ DBQ20060209100009602/09/06 10:00:31  5-MIN KDBQ 091600Z 22006KT 10SM CLR M07/M11 A3023 790 74 -1600 220/06 RMK AO2
94908KDBQ DBQ20060209100509602/09/06 10:05:31  5-MIN KDBQ 091605Z 22007KT 10SM CLR M06/M11 A3024 790 71 -1500 220/07 RMK AO2
94908KDBQ DBQ20060209101009602/09/06 10:10:31  5-MIN KDBQ 091610Z 22008KT 10SM CLR M06/M11 A3024 790 71 -1500 220/08 RMK AO2
94908KDBQ DBQ20060209101509602/09/06 10:15:31  5-MIN KDBQ 091615Z 23008KT 10SM CLR M06/M11 A3024 790 71 -1500 230/08 RMK AO2
94908KDBQ DBQ20060209102009602/09/06 10:20:31  5-MIN KDBQ 091620Z 23008KT 10SM CLR M06/M11 A3023 790 71 -1500 230/08 RMK AO2
94908KDBQ DBQ20060209102509602/09/06 10:25:31  5-MIN KDBQ 091625Z 22007KT 10SM CLR M06/M11 A3023 790 71 -1500 220/07 RMK AO2
94908KDBQ DBQ20060209103009602/09/06 10:30:31  5-MIN KDBQ 091630Z 21007KT 10SM CLR M06/M11 A3023 790 68 -1500 210/07 RMK AO2
94908KDBQ DBQ20060209103509602/09/06 10:35:31  5-MIN KDBQ 091635Z 21007KT 10SM CLR M06/M11 A3023 790 68 -1500 210/07 RMK AO2
94908KDBQ DBQ20060209104009602/09/06 10:40:31  5-MIN KDBQ 091640Z 24011KT 10SM CLR M05/M11 A3023 800 65 -1400 240/11 RMK AO2
94908KDBQ DBQ20060209104509602/09/06 10:45:31  5-MIN KDBQ 091645Z 24011KT 10SM CLR M05/M11 A3022 800 62 -1400 240/11 RMK AO2
94908KDBQ DBQ20060209105011302/09/06 10:50:31  5-MIN KDBQ 091650Z 23010KT 10SM CLR M05/M12 A3022 800 60 -1400 230/10 RMK AO2 SLP253 T10501117
94908KDBQ DBQ20060209105511302/09/06 10:55:31  5-MIN KDBQ 091655Z 23011KT 10SM CLR M04/M11 A3022 800 60 -1300 220/11 RMK AO2 SLP252 T10441111
94908KDBQ DBQ20060209110009602/09/06 11:00:31  5-MIN KDBQ 091700Z 23010KT 10SM CLR M04/M11 A3022 800 60 -1300 230/10 RMK AO2
94908KDBQ DBQ20060209110509602/09/06 11:05:31  5-MIN KDBQ 091705Z 22009KT 10SM CLR M04/M11 A3022 810 60 -1300 220/09 RMK AO2
94908KDBQ DBQ20060209111009602/09/06 11:10:31  5-MIN KDBQ 091710Z 22010KT 10SM CLR M04/M11 A3022 810 60 -1300 220/10 RMK AO2
94908KDBQ DBQ20060209111509602/09/06 11:15:31  5-MIN KDBQ 091715Z 24010KT 10SM CLR M04/M12 A3021 810 57 -1300 230/10 RMK AO2
94908KDBQ DBQ20060209112009602/09/06 11:20:31  5-MIN KDBQ 091720Z 24010KT 10SM CLR M04/M12 A3021 810 55 -1200 240/10 RMK AO2
94908KDBQ DBQ20060209112509602/09/06 11:25:31  5-MIN KDBQ 091725Z 23011KT 10SM CLR M04/M12 A3021 810 55 -1200 230/11 RMK AO2
94908KDBQ DBQ20060209113009602/09/06 11:30:31  5-MIN KDBQ 091730Z 24010KT 10SM CLR M04/M12 A3020 820 52 -1200 240/10 RMK AO2
94908KDBQ DBQ20060209113509602/09/06 11:35:31  5-MIN KDBQ 091735Z 22009KT 10SM CLR M04/M12 A3020 820 55 -1200 220/09 RMK AO2
94908KDBQ DBQ20060209114009602/09/06 11:40:31  5-MIN KDBQ 091740Z 22010KT 10SM CLR M03/M12 A3020 820 53 -1100 220/10 RMK AO2
94908KDBQ DBQ20060209114509602/09/06 11:45:31  5-MIN KDBQ 091745Z 21009KT 10SM CLR M03/M12 A3020 820 53 -1100 210/09 RMK AO2
94908KDBQ DBQ20060209115013102/09/06 11:50:31  5-MIN KDBQ 091750Z 23008KT 10SM CLR M03/M12 A3019 830 53 -1100 230/08 RMK AO2 SLP243 T10331117 11033 21156 58007
94908KDBQ DBQ20060209115514702/09/06 11:55:31  5-MIN KDBQ 091755Z 19009KT 170V230 10SM CLR M03/M12 A3019 830 50 -1100 190/09 170V230 RMK AO2 SLP241 T10281117 11028 21156 58023
94908KDBQ DBQ20060209120009602/09/06 12:00:31  5-MIN KDBQ 091800Z 20010KT 10SM CLR M03/M11 A3019 830 53 -1100 190/10 RMK AO2
94908KDBQ DBQ20060209120509602/09/06 12:05:31  5-MIN KDBQ 091805Z 23007KT 10SM CLR M03/M11 A3019 830 55 -1100 220/07 RMK AO2
94908KDBQ DBQ20060209121009602/09/06 12:10:31  5-MIN KDBQ 091810Z 22008KT 10SM CLR M03/M11 A3019 830 55 -1100 220/08 RMK AO2
94908KDBQ DBQ20060209121509602/09/06 12:15:31  5-MIN KDBQ 091815Z 19010KT 10SM CLR M03/M11 A3018 840 53 -1100 190/10 RMK AO2
94908KDBQ DBQ20060209122011202/09/06 12:20:31  5-MIN KDBQ 091820Z 21007KT 160V230 10SM CLR M03/M11 A3018 840 53 -1000 210/07 160V230 RMK AO2
94908KDBQ DBQ20060209122509602/09/06 12:25:31  5-MIN KDBQ 091825Z 23011KT 10SM CLR M03/M12 A3017 850 48 -1000 230/11 RMK AO2
94908KDBQ DBQ20060209123009602/09/06 12:30:31  5-MIN KDBQ 091830Z 23012KT 10SM CLR M03/M13 A3017 850 46 -1000 230/12 RMK AO2
94908KDBQ DBQ20060209123509602/09/06 12:35:31  5-MIN KDBQ 091835Z 23011KT 10SM CLR M02/M13 A3016 860 44 -1000 230/11 RMK AO2
94908KDBQ DBQ20060209124009602/09/06 12:40:31  5-MIN KDBQ 091840Z 21012KT 10SM CLR M03/M12 A3016 860 48 -1000 210/12 RMK AO2
94908KDBQ DBQ20060209124509602/09/06 12:45:31  5-MIN KDBQ 091845Z 20013KT 10SM CLR M03/M12 A3015 870 48 -1000 200/13 RMK AO2
94908KDBQ DBQ20060209125011202/09/06 12:50:31  5-MIN KDBQ 091850Z 19010KT 10SM CLR M02/M12 A3015 870 46 -900 190/10 RMK AO2 SLP228 T10221122
94908KDBQ DBQ20060209125511302/09/06 12:55:31  5-MIN KDBQ 091855Z 21011KT 10SM CLR M03/M12 A3014 870 48 -1000 200/11 RMK AO2 SLP228 T10281122
94908KDBQ DBQ20060209130009502/09/06 13:00:31  5-MIN KDBQ 091900Z 22011KT 10SM CLR M02/M12 A3014 870 46 -900 220/11 RMK AO2
94908KDBQ DBQ20060209130509502/09/06 13:05:31  5-MIN KDBQ 091905Z 20010KT 10SM CLR M02/M12 A3014 870 46 -900 200/10 RMK AO2
94908KDBQ DBQ20060209131009502/09/06 13:10:31  5-MIN KDBQ 091910Z 20010KT 10SM CLR M02/M12 A3014 880 46 -900 200/10 RMK AO2
94908KDBQ DBQ20060209131509502/09/06 13:15:31  5-MIN KDBQ 091915Z 20009KT 10SM CLR M02/M12 A3013 880 46 -900 190/09 RMK AO2
94908KDBQ DBQ20060209132009502/09/06 13:20:31  5-MIN KDBQ 091920Z 21011KT 10SM CLR M02/M12 A3013 890 44 -800 200/11 RMK AO2
94908KDBQ DBQ20060209132509502/09/06 13:25:31  5-MIN KDBQ 091925Z 21012KT 10SM CLR M02/M12 A3012 890 46 -900 200/12 RMK AO2
94908KDBQ DBQ20060209133009502/09/06 13:30:31  5-MIN KDBQ 091930Z 20012KT 10SM CLR M02/M12 A3012 900 44 -800 200/12 RMK AO2
94908KDBQ DBQ20060209133509502/09/06 13:35:31  5-MIN KDBQ 091935Z 19013KT 10SM CLR M02/M12 A3012 900 46 -900 190/13 RMK AO2
94908KDBQ DBQ20060209134009502/09/06 13:40:31  5-MIN KDBQ 091940Z 22011KT 10SM CLR M02/M12 A3011 900 46 -900 220/11 RMK AO2
94908KDBQ DBQ20060209134509502/09/06 13:45:31  5-MIN KDBQ 091945Z 21011KT 10SM CLR M02/M12 A3011 910 44 -800 210/11 RMK AO2
94908KDBQ DBQ20060209135011202/09/06 13:50:31  5-MIN KDBQ 091950Z 21010KT 10SM CLR M02/M12 A3010 910 46 -900 210/10 RMK AO2 SLP214 T10221122
94908KDBQ DBQ20060209135511202/09/06 13:55:31  5-MIN KDBQ 091955Z 19013KT 10SM CLR M02/M13 A3010 910 44 -900 190/13 RMK AO2 SLP214 T10221128
94908KDBQ DBQ20060209140009502/09/06 14:00:31  5-MIN KDBQ 092000Z 19009KT 10SM CLR M02/M13 A3010 910 44 -900 190/09 RMK AO2
94908KDBQ DBQ20060209140509502/09/06 14:05:31  5-MIN KDBQ 092005Z 22010KT 10SM CLR M02/M13 A3010 910 44 -900 220/10 RMK AO2
94908KDBQ DBQ20060209141009802/09/06 14:10:31  5-MIN KDBQ 092010Z 20012KT 10SM FEW110 M02/M13 A3010 920 42 -800 200/12 RMK AO2
94908KDBQ DBQ20060209141509802/09/06 14:15:31  5-MIN KDBQ 092015Z 21012KT 10SM FEW090 M02/M13 A3010 920 44 -900 210/12 RMK AO2
94908KDBQ DBQ20060209142009802/09/06 14:20:31  5-MIN KDBQ 092020Z 23011KT 10SM FEW085 M02/M13 A3010 910 42 -800 230/11 RMK AO2
94908KDBQ DBQ20060209142509802/09/06 14:25:31  5-MIN KDBQ 092025Z 21012KT 10SM FEW090 M02/M13 A3010 910 42 -800 210/12 RMK AO2
94908KDBQ DBQ20060209143010502/09/06 14:30:31  5-MIN KDBQ 092030Z 23012KT 10SM FEW090 SCT110 M01/M12 A3010 910 43 -700 230/12 RMK AO2
94908KDBQ DBQ20060209143509802/09/06 14:35:31  5-MIN KDBQ 092035Z 22013KT 10SM BKN100 M02/M13 A3010 920 42 -800 220/13 RMK AO2
94908KDBQ DBQ20060209144009802/09/06 14:40:31  5-MIN KDBQ 092040Z 23013KT 10SM BKN100 M02/M13 A3010 920 42 -800 230/13 RMK AO2
94908KDBQ DBQ20060209144509802/09/06 14:45:31  5-MIN KDBQ 092045Z 22012KT 10SM BKN100 M02/M13 A3010 910 42 -800 220/12 RMK AO2
94908KDBQ DBQ20060209145012102/09/06 14:50:31  5-MIN KDBQ 092050Z 21011KT 10SM BKN100 M01/M13 A3010 910 41 -700 210/11 RMK AO2 SLP212 T10111128 58023
94908KDBQ DBQ20060209145512102/09/06 14:55:31  5-MIN KDBQ 092055Z 23012KT 10SM OVC100 M01/M13 A3010 910 41 -700 230/12 RMK AO2 SLP212 T10111128 56027
94908KDBQ DBQ20060209150009802/09/06 15:00:31  5-MIN KDBQ 092100Z 22015KT 10SM BKN100 M01/M13 A3010 910 41 -700 220/15 RMK AO2
94908KDBQ DBQ20060209150509802/09/06 15:05:31  5-MIN KDBQ 092105Z 22012KT 10SM BKN100 M02/M13 A3010 920 42 -800 220/12 RMK AO2
94908KDBQ DBQ20060209151009802/09/06 15:10:31  5-MIN KDBQ 092110Z 21012KT 10SM BKN100 M02/M13 A3009 920 42 -800 210/12 RMK AO2
94908KDBQ DBQ20060209151509802/09/06 15:15:31  5-MIN KDBQ 092115Z 22013KT 10SM BKN100 M02/M13 A3009 920 42 -800 220/13 RMK AO2
94908KDBQ DBQ20060209152009802/09/06 15:20:31  5-MIN KDBQ 092120Z 23012KT 10SM BKN100 M02/M13 A3009 920 42 -800 220/12 RMK AO2
94908KDBQ DBQ20060209152509802/09/06 15:25:31  5-MIN KDBQ 092125Z 21012KT 10SM BKN100 M02/M13 A3009 920 42 -800 200/12 RMK AO2
94908KDBQ DBQ20060209153009802/09/06 15:30:31  5-MIN KDBQ 092130Z 24010KT 10SM BKN100 M02/M13 A3009 920 42 -800 240/10 RMK AO2
94908KDBQ DBQ20060209153509802/09/06 15:35:31  5-MIN KDBQ 092135Z 22011KT 10SM BKN100 M02/M13 A3009 920 42 -800 220/11 RMK AO2
94908KDBQ DBQ20060209154009802/09/06 15:40:31  5-MIN KDBQ 092140Z 21011KT 10SM BKN100 M02/M13 A3009 920 42 -800 210/11 RMK AO2
94908KDBQ DBQ20060209154509802/09/06 15:45:31  5-MIN KDBQ 092145Z 23012KT 10SM BKN100 M02/M13 A3009 920 42 -800 230/12 RMK AO2
94908KDBQ DBQ20060209155011502/09/06 15:50:31  5-MIN KDBQ 092150Z 23012KT 10SM BKN095 M02/M13 A3009 930 42 -800 220/12 RMK AO2 SLP207 T10171128
94908KDBQ DBQ20060209155511502/09/06 15:55:31  5-MIN KDBQ 092155Z 22011KT 10SM BKN095 M02/M13 A3009 920 42 -800 220/11 RMK AO2 SLP209 T10171128
94908KDBQ DBQ20060209160009802/09/06 16:00:31  5-MIN KDBQ 092200Z 21011KT 10SM OVC095 M02/M12 A3009 920 44 -800 210/11 RMK AO2
94908KDBQ DBQ20060209160509802/09/06 16:05:31  5-MIN KDBQ 092205Z 22011KT 10SM OVC090 M02/M12 A3008 930 44 -800 220/11 RMK AO2
94908KDBQ DBQ20060209161009802/09/06 16:10:31  5-MIN KDBQ 092210Z 22010KT 10SM OVC090 M02/M12 A3008 930 44 -800 220/10 RMK AO2
94908KDBQ DBQ20060209161509802/09/06 16:15:31  5-MIN KDBQ 092215Z 22010KT 10SM OVC090 M02/M12 A3007 940 44 -800 220/10 RMK AO2
94908KDBQ DBQ20060209162010502/09/06 16:20:31  5-MIN KDBQ 092220Z 21011KT 10SM FEW070 OVC090 M02/M12 A3007 940 44 -800 210/11 RMK AO2
94908KDBQ DBQ20060209162510502/09/06 16:25:31  5-MIN KDBQ 092225Z 22012KT 10SM BKN080 OVC095 M02/M12 A3007 940 44 -800 210/12 RMK AO2
94908KDBQ DBQ20060209163010502/09/06 16:30:31  5-MIN KDBQ 092230Z 22012KT 10SM BKN070 OVC085 M02/M12 A3006 950 44 -800 220/12 RMK AO2
94908KDBQ DBQ20060209163510502/09/06 16:35:31  5-MIN KDBQ 092235Z 22011KT 10SM BKN065 OVC085 M02/M12 A3006 950 44 -800 220/11 RMK AO2
94908KDBQ DBQ20060209164009802/09/06 16:40:31  5-MIN KDBQ 092240Z 21010KT 10SM OVC060 M02/M12 A3006 950 44 -800 210/10 RMK AO2
94908KDBQ DBQ20060209164510502/09/06 16:45:31  5-MIN KDBQ 092245Z 20012KT 10SM BKN055 OVC065 M02/M12 A3005 960 44 -800 200/12 RMK AO2
94908KDBQ DBQ20060209165011502/09/06 16:50:31  5-MIN KDBQ 092250Z 21014KT 10SM OVC050 M02/M12 A3005 960 44 -800 210/14 RMK AO2 SLP196 T10171122
94908KDBQ DBQ20060209165511502/09/06 16:55:31  5-MIN KDBQ 092255Z 22013KT 10SM OVC048 M02/M12 A3005 960 44 -800 210/13 RMK AO2 SLP194 T10171122
94908KDBQ DBQ20060209170010502/09/06 17:00:31  5-MIN KDBQ 092300Z 22013KT 10SM BKN048 OVC065 M02/M12 A3004 970 44 -800 220/13 RMK AO2
94908KDBQ DBQ20060209170510502/09/06 17:05:31  5-MIN KDBQ 092305Z 21014KT 10SM BKN050 OVC065 M02/M12 A3004 970 44 -700 210/14 RMK AO2
94908KDBQ DBQ20060209171011202/09/06 17:10:31  5-MIN KDBQ 092310Z 21015KT 10SM BKN055 BKN065 OVC085 M02/M12 A3004 970 46 -800 210/15 RMK AO2
94908KDBQ DBQ20060209171511202/09/06 17:15:31  5-MIN KDBQ 092315Z 21015KT 10SM BKN055 BKN065 OVC085 M02/M12 A3004 970 48 -800 210/15 RMK AO2
94908KDBQ DBQ20060209172011202/09/06 17:20:31  5-MIN KDBQ 092320Z 22015KT 10SM BKN060 BKN075 OVC090 M03/M12 A3003 970 50 -900 210/15 RMK AO2
94908KDBQ DBQ20060209172511202/09/06 17:25:31  5-MIN KDBQ 092325Z 21013KT 10SM BKN065 BKN075 OVC090 M03/M11 A3003 980 53 -900 210/13 RMK AO2
94908KDBQ DBQ20060209173011202/09/06 17:30:31  5-MIN KDBQ 092330Z 23013KT 10SM BKN065 BKN075 OVC090 M03/M11 A3003 980 55 -900 220/13 RMK AO2
94908KDBQ DBQ20060209173510502/09/06 17:35:31  5-MIN KDBQ 092335Z 23015KT 10SM BKN070 OVC090 M03/M11 A3004 970 55 -900 230/15 RMK AO2
94908KDBQ DBQ20060209174010502/09/06 17:40:31  5-MIN KDBQ 092340Z 22013KT 10SM BKN065 OVC085 M03/M11 A3003 980 55 -900 220/13 RMK AO2
94908KDBQ DBQ20060209174509802/09/06 17:45:31  5-MIN KDBQ 092345Z 22014KT 10SM OVC065 M03/M10 A3003 980 58 -900 210/14 RMK AO2
94908KDBQ DBQ20060209175014002/09/06 17:50:31  5-MIN KDBQ 092350Z 21013KT 10SM BKN055 OVC070 M03/M10 A3003 980 58 -900 210/13 RMK AO2 SLP187 T10281100 11011 21033 56027
94908KDBQ DBQ20060209175513902/09/06 17:55:31  5-MIN KDBQ 092355Z 20014KT 9SM BKN046 OVC065 M03/M09 A3003 980 63 -900 200/14 RMK AO2 SLP187 T10331094 11011 21033 58025
94908KDBQ DBQ20060209180012002/09/06 18:00:31  5-MIN KDBQ 100000Z 20014KT 8SM -SN BKN044 OVC065 M03/M09 A3002 980 63 -900 200/14 RMK AO2 SNB00 P0000
94908KDBQ DBQ20060209180512102/09/06 18:05:31  5-MIN KDBQ 100005Z 20014KT 5SM -SN BKN044 OVC065 M04/M09 A3002 980 68 -1000 200/14 RMK AO2 SNB00 P0000
94908KDBQ DBQ20060209181012102/09/06 18:10:31  5-MIN KDBQ 100010Z 20013KT 4SM -SN SCT040 OVC065 M04/M08 A3002 980 71 -1000 200/13 RMK AO2 SNB00 P0000
94908KDBQ DBQ20060209181512802/09/06 18:15:31  5-MIN KDBQ 100015Z 20012KT 4SM -SN SCT026 BKN044 OVC060 M04/M08 A3002 990 74 -1000 200/12 RMK AO2 SNB00 P0000
94908KDBQ DBQ20060209182012802/09/06 18:20:31  5-MIN KDBQ 100020Z 20010KT 3SM -SN SCT018 BKN044 OVC065 M04/M08 A3002 990 74 -1000 200/10 RMK AO2 SNB00 P0000
94908KDBQ DBQ20060209182513202/09/06 18:25:31  5-MIN KDBQ 100025Z 20011KT 2 1/2SM -SN BKN016 BKN044 OVC065 M04/M07 A3002 990 81 -1100 200/11 RMK AO2 SNB00 P0000
94908KDBQ DBQ20060209183012502/09/06 18:30:31  5-MIN KDBQ 100030Z 20010KT 2 1/2SM -SN BKN016 OVC065 M04/M07 A3001 990 81 -1100 190/10 RMK AO2 SNB00 P0000
94908KDBQ DBQ20060209183512802/09/06 18:35:31  5-MIN KDBQ 100035Z 19009KT 2 1/2SM -SN BR BKN016 OVC060 M04/M07 A3001 990 84 -1100 190/09 RMK AO2 SNB00 P0000
94908KDBQ DBQ20060209184012202/09/06 18:40:31  5-MIN KDBQ 100040Z 20009KT 1 3/4SM -SN BR OVC012 M04/M07 A3001 1000 84 -1100 190/09 RMK AO2 SNB00 P0000
94908KDBQ DBQ20060209184512202/09/06 18:45:31  5-MIN KDBQ 100045Z 19008KT 1 1/2SM -SN BR OVC012 M04/M07 A3000 1000 84 -1100 190/08 RMK AO2 SNB00 P0000
94908KDBQ DBQ20060209185013902/09/06 18:50:31  5-MIN KDBQ 100050Z 19008KT 1 3/4SM -SN BR OVC014 M04/M07 A3000 1000 84 -1100 190/08 RMK AO2 SNB00 SLP180 P0000 T10441067
94908KDBQ DBQ20060209185513502/09/06 18:55:31  5-MIN KDBQ 100055Z 20011KT 3SM -SN BR OVC016 M04/M07 A3001 1000 84 -1100 190/11 RMK AO2 SNB00 SLP182 P0000 T10441067
94908KDBQ DBQ20060209190011202/09/06 19:00:31  5-MIN KDBQ 100100Z 20011KT 4SM -SN BR OVC018 M04/M07 A3001 1000 84 -1100 200/11 RMK AO2 P0000
94908KDBQ DBQ20060209190511202/09/06 19:05:31  5-MIN KDBQ 100105Z 20014KT 4SM -SN BR OVC018 M04/M07 A3001 1000 84 -1100 200/14 RMK AO2 P0000
94908KDBQ DBQ20060209191011602/09/06 19:10:31  5-MIN KDBQ 100110Z 19012KT 2 1/2SM -SN BR OVC016 M04/M07 A3001 1000 84 -1100 190/12 RMK AO2 P0000
94908KDBQ DBQ20060209191511102/09/06 19:15:31  5-MIN KDBQ 100115Z 20015KT 2SM -SN BR OVC016 M04/M07 A3001 990 84 -1100 200/15 RMK AO2 P0000
94908KDBQ DBQ20060209192012202/09/06 19:20:31  5-MIN KDBQ 100120Z 21012KT 2 1/2SM -SN BR FEW010 OVC018 M04/M06 A3001 990 88 -1100 200/12 RMK AO2 P0000
94908KDBQ DBQ20060209192511802/09/06 19:25:31  5-MIN KDBQ 100125Z 20016KT 3SM -SN BR SCT010 OVC018 M04/M07 A3001 990 84 -1100 200/16 RMK AO2 P0000
94908KDBQ DBQ20060209193011802/09/06 19:30:31  5-MIN KDBQ 100130Z 20011KT 5SM -SN BR SCT010 OVC018 M04/M06 A3001 990 88 -1100 200/11 RMK AO2 P0000
94908KDBQ DBQ20060209193512602/09/06 19:35:31  5-MIN KDBQ 100135Z 20014KT 5SM -SN BR SCT010 BKN018 OVC044 M04/M06 A3001 1000 88 -1100 200/14 RMK AO2 P0000
94908KDBQ DBQ20060209194012602/09/06 19:40:31  5-MIN KDBQ 100140Z 20011KT 5SM -SN BR SCT010 BKN023 OVC042 M04/M07 A3001 1000 84 -1100 200/11 RMK AO2 P0000
94908KDBQ DBQ20060209194512602/09/06 19:45:31  5-MIN KDBQ 100145Z 20014KT 4SM -SN BR SCT010 BKN025 OVC047 M04/M06 A3001 1000 88 -1100 200/14 RMK AO2 P0000
94908KDBQ DBQ20060209195012602/09/06 19:50:31  5-MIN KDBQ 100150Z 20015KT 3SM -SN BR BKN010 BKN024 OVC047 M04/M06 A3001 1000 88 -1100 200/15 RMK AO2 P0000
94908KDBQ DBQ20060209195514302/09/06 19:55:31  5-MIN KDBQ 100155Z 20014KT 4SM -SN BR BKN010 BKN026 OVC047 M04/M06 A3000 1000 88 -1100 200/14 RMK AO2 SLP180 P0000 T10441061
94908KDBQ DBQ20060209200013602/09/06 20:00:31  5-MIN KDBQ 100200Z AUTO 21013KT 3SM -SN BR SCT010 BKN024 OVC047 M04/M06 A3001 1000 88 -1100 210/13 RMK AO2 P0000 TSNO
94908KDBQ DBQ20060209200514002/09/06 20:05:31  5-MIN KDBQ 100205Z AUTO 21011KT 2 1/2SM -SN BR SCT010 BKN021 OVC047 M04/M06 A3001 1000 88 -1100 210/11 RMK AO2 P0000 TSNO
94908KDBQ DBQ20060209201014002/09/06 20:10:31  5-MIN KDBQ 100210Z AUTO 21012KT 2 1/2SM -SN BR SCT010 BKN021 OVC046 M04/M06 A3001 1000 88 -1100 210/12 RMK AO2 P0000 TSNO
94908KDBQ DBQ20060209201514002/09/06 20:15:31  5-MIN KDBQ 100215Z AUTO 21013KT 2 1/2SM -SN BR SCT010 BKN021 OVC046 M04/M06 A3001 1000 88 -1100 210/13 RMK AO2 P0000 TSNO
94908KDBQ DBQ20060209202014002/09/06 20:20:31  5-MIN KDBQ 100220Z AUTO 21012KT 2 1/2SM -SN BR FEW010 BKN021 OVC039 M04/M06 A3001 1000 88 -1100 210/12 RMK AO2 P0000 TSNO
94908KDBQ DBQ20060209202514002/09/06 20:25:31  5-MIN KDBQ 100225Z AUTO 21014KT 2 1/2SM -SN BR FEW010 BKN021 OVC039 M04/M06 A3001 1000 88 -1100 210/14 RMK AO2 P0000 TSNO
94908KDBQ DBQ20060209203014002/09/06 20:30:31  5-MIN KDBQ 100230Z AUTO 21014KT 1 3/4SM -SN BR FEW010 BKN021 OVC037 M04/M06 A3001 1000 88 -1100 210/14 RMK AO2 P0000 TSNO
94908KDBQ DBQ20060209203514002/09/06 20:35:31  5-MIN KDBQ 100235Z AUTO 21013KT 1 1/2SM -SN BR FEW010 SCT021 OVC037 M04/M06 A3001 1000 88 -1100 210/13 RMK AO2 P0000 TSNO
94908KDBQ DBQ20060209204013302/09/06 20:40:31  5-MIN KDBQ 100240Z AUTO 21014KT 1 3/4SM -SN BR SCT021 OVC035 M04/M06 A3000 1000 88 -1100 210/14 RMK AO2 P0000 TSNO
94908KDBQ DBQ20060209204513602/09/06 20:45:31  5-MIN KDBQ 100245Z AUTO 22013KT 2SM -SN BR SCT029 BKN037 OVC050 M04/M06 A3000 1000 88 -1100 210/13 RMK AO2 P0000 TSNO
94908KDBQ DBQ20060209205016902/09/06 20:50:31  5-MIN KDBQ 100250Z AUTO 21013KT 2 1/2SM -SN BR BKN033 BKN046 OVC055 M04/M06 A3000 1010 88 -1000 210/13 RMK AO2 SLP176 P0000 60000 T10441061 58025 TSNO
94908KDBQ DBQ20060209205515802/09/06 20:55:31  5-MIN KDBQ 100255Z AUTO 21014KT 3SM -SN BR SCT033 OVC046 M04/M06 A2999 1010 88 -1000 210/14 RMK AO2 SLP175 P0000 60000 T10441061 58005 TSNO
94908KDBQ DBQ20060209210012902/09/06 21:00:31  5-MIN KDBQ 100300Z AUTO 21015KT 3SM -SN BR SCT033 OVC046 M04/M06 A2999 1010 88 -1000 210/15 RMK AO2 P0000 TSNO
94908KDBQ DBQ20060209210512902/09/06 21:05:31  5-MIN KDBQ 100305Z AUTO 21015KT 3SM -SN BR BKN035 OVC046 M04/M06 A2999 1020 88 -1000 210/15 RMK AO2 P0000 TSNO
94908KDBQ DBQ20060209211013302/09/06 21:10:31  5-MIN KDBQ 100310Z AUTO 21014KT 2 1/2SM -SN BR BKN035 OVC046 M04/M06 A2998 1020 88 -1000 210/14 RMK AO2 P0000 TSNO
94908KDBQ DBQ20060209211514002/09/06 21:15:31  5-MIN KDBQ 100315Z AUTO 21014KT 2 1/2SM -SN BR FEW026 BKN037 OVC046 M04/M06 A2999 1020 88 -1000 210/14 RMK AO2 P0000 TSNO
94908KDBQ DBQ20060209212013602/09/06 21:20:31  5-MIN KDBQ 100320Z AUTO 21013KT 3SM -SN BR FEW027 BKN039 OVC046 M04/M06 A2999 1020 88 -1000 210/13 RMK AO2 P0000 TSNO
94908KDBQ DBQ20060209212512902/09/06 21:25:31  5-MIN KDBQ 100325Z AUTO 21012KT 3SM -SN BR FEW027 OVC039 M04/M06 A2998 1020 88 -1000 210/12 RMK AO2 P0000 TSNO
94908KDBQ DBQ20060209213013602/09/06 21:30:31  5-MIN KDBQ 100330Z AUTO 21011KT 4SM -SN BR SCT033 BKN041 OVC048 M04/M06 A2998 1020 88 -1000 210/11 RMK AO2 P0000 TSNO
94908KDBQ DBQ20060209213513102/09/06 21:35:31  5-MIN KDBQ 100335Z AUTO 21011KT 5SM BR BKN039 OVC048 M04/M06 A2998 1020 88 -1000 210/11 RMK AO2 SNE35 P0000 TSNO
94908KDBQ DBQ20060209214013602/09/06 21:40:31  5-MIN KDBQ 100340Z AUTO 21011KT 6SM -SN BR BKN041 BKN048 OVC080 M04/M06 A2998 1020 88 -1000 210/11 RMK AO2 P0000 TSNO
94908KDBQ DBQ20060209214512902/09/06 21:45:31  5-MIN KDBQ 100345Z AUTO 21012KT 6SM -SN BR BKN043 OVC080 M04/M07 A2998 1020 84 -1000 210/12 RMK AO2 P0000 TSNO
94908KDBQ DBQ20060209215014602/09/06 21:50:31  5-MIN KDBQ 100350Z AUTO 21011KT 5SM -SN BR BKN045 OVC080 M04/M07 A2998 1030 84 -1000 210/11 RMK AO2 SLP169 P0000 T10441067 TSNO
94908KDBQ DBQ20060209215514802/09/06 21:55:31  5-MIN KDBQ 100355Z AUTO 21011KT 6SM BR BKN047 OVC080 M04/M07 A2997 1030 84 -1000 210/11 RMK AO2 SNE52 SLP167 P0000 T10441067 TSNO
94908KDBQ DBQ20060209220011602/09/06 22:00:31  5-MIN KDBQ 100400Z AUTO 21012KT 8SM BKN049 OVC080 M04/M07 A2997 1030 84 -1000 210/12 RMK AO2 TSNO
94908KDBQ DBQ20060209220512302/09/06 22:05:31  5-MIN KDBQ 100405Z AUTO 21012KT 8SM SCT049 BKN065 OVC080 M04/M07 A2997 1040 84 -1000 210/12 RMK AO2 TSNO
94908KDBQ DBQ20060209221012302/09/06 22:10:31  5-MIN KDBQ 100410Z AUTO 20013KT 7SM SCT049 BKN065 OVC080 M04/M07 A2996 1040 84 -1000 200/13 RMK AO2 TSNO
94908KDBQ DBQ20060209221514202/09/06 22:15:31  5-MIN KDBQ 100415Z AUTO 20014KT 5SM -SN BR SCT049 BKN065 OVC080 M04/M07 A2996 1050 84 -1000 200/14 RMK AO2 SNB12 P0000 TSNO
94908KDBQ DBQ20060209222014202/09/06 22:20:31  5-MIN KDBQ 100420Z AUTO 21013KT 4SM -SN BR SCT049 BKN065 OVC080 M04/M07 A2995 1050 84 -1000 200/13 RMK AO2 SNB12 P0000 TSNO
94908KDBQ DBQ20060209222513502/09/06 22:25:31  5-MIN KDBQ 100425Z AUTO 20014KT 4SM -SN BR SCT047 OVC065 M04/M07 A2995 1050 84 -1000 200/14 RMK AO2 SNB12 P0000 TSNO
94908KDBQ DBQ20060209223013502/09/06 22:30:31  5-MIN KDBQ 100430Z AUTO 21013KT 3SM -SN BR BKN045 OVC065 M04/M07 A2995 1050 84 -1000 210/13 RMK AO2 SNB12 P0000 TSNO
94908KDBQ DBQ20060209223514602/09/06 22:35:31  5-MIN KDBQ 100435Z AUTO 21013KT 2 1/2SM -SN BR SCT042 BKN049 OVC060 M04/M07 A2995 1050 84 -1000 210/13 RMK AO2 SNB12 P0000 TSNO
94908KDBQ DBQ20060209224014602/09/06 22:40:31  5-MIN KDBQ 100440Z AUTO 21014KT 2 1/2SM -SN BR SCT038 BKN049 OVC065 M04/M07 A2996 1040 84 -1000 210/14 RMK AO2 SNB12 P0000 TSNO
94908KDBQ DBQ20060209224513902/09/06 22:45:31  5-MIN KDBQ 100445Z AUTO 21013KT 2 1/2SM -SN BR BKN034 OVC049 M04/M07 A2996 1040 84 -1000 210/13 RMK AO2 SNB12 P0000 TSNO
94908KDBQ DBQ20060209225015602/09/06 22:50:31  5-MIN KDBQ 100450Z AUTO 21013KT 2 1/2SM -SN BR BKN030 OVC047 M04/M07 A2995 1050 84 -1000 210/13 RMK AO2 SNB12 SLP159 P0000 T10441067 TSNO
94908KDBQ DBQ20060209225515902/09/06 22:55:31  5-MIN KDBQ 100455Z AUTO 21013KT 2SM -SN BR BKN028 BKN040 OVC049 M04/M06 A2995 1050 88 -1000 210/13 RMK AO2 SNB12 SLP159 P0000 T10441061 TSNO
94908KDBQ DBQ20060209230014002/09/06 23:00:31  5-MIN KDBQ 100500Z AUTO 21014KT 1 3/4SM -SN BR BKN026 BKN037 OVC047 M04/M06 A2995 1050 88 -1000 210/14 RMK AO2 P0000 TSNO
94908KDBQ DBQ20060209230513302/09/06 23:05:31  5-MIN KDBQ 100505Z AUTO 21014KT 1 3/4SM -SN BR BKN022 OVC037 M04/M06 A2995 1050 88 -1000 210/14 RMK AO2 P0000 TSNO
94908KDBQ DBQ20060209231013302/09/06 23:10:31  5-MIN KDBQ 100510Z AUTO 21014KT 1 3/4SM -SN BR SCT020 OVC037 M04/M06 A2995 1050 88 -1000 210/14 RMK AO2 P0000 TSNO
94908KDBQ DBQ20060209231513302/09/06 23:15:31  5-MIN KDBQ 100515Z AUTO 21013KT 2 1/2SM -SN BR FEW016 OVC035 M04/M06 A2994 1060 88 -1000 210/13 RMK AO2 P0000 TSNO
94908KDBQ DBQ20060209232013302/09/06 23:20:31  5-MIN KDBQ 100520Z AUTO 21013KT 2 1/2SM -SN BR FEW014 OVC033 M04/M06 A2994 1060 88 -1000 210/13 RMK AO2 P0000 TSNO
94908KDBQ DBQ20060209232512902/09/06 23:25:31  5-MIN KDBQ 100525Z AUTO 20013KT 4SM -SN BR FEW014 OVC033 M04/M06 A2994 1060 88 -1000 200/13 RMK AO2 P0000 TSNO
94908KDBQ DBQ20060209233012902/09/06 23:30:31  5-MIN KDBQ 100530Z AUTO 21012KT 6SM -SN BR FEW012 OVC033 M04/M06 A2994 1060 88 -1000 210/12 RMK AO2 P0000 TSNO
94908KDBQ DBQ20060209233512102/09/06 23:35:31  5-MIN KDBQ 100535Z AUTO 20013KT 8SM OVC031 M04/M06 A2994 1060 88 -1000 200/13 RMK AO2 SNE31 P0000 TSNO
94908KDBQ DBQ20060209234012102/09/06 23:40:31  5-MIN KDBQ 100540Z AUTO 21013KT 9SM OVC031 M04/M06 A2994 1060 88 -1000 210/13 RMK AO2 SNE31 P0000 TSNO
94908KDBQ DBQ20060209234512102/09/06 23:45:31  5-MIN KDBQ 100545Z AUTO 21012KT 9SM OVC031 M04/M06 A2994 1060 88 -1000 210/12 RMK AO2 SNE31 P0000 TSNO
94908KDBQ DBQ20060209235017202/09/06 23:50:31  5-MIN KDBQ 100550Z AUTO 21013KT 9SM OVC031 M04/M06 A2993 1070 88 -1000 210/13 RMK AO2 SNE31 SLP152 P0000 60000 T10441061 11033 21044 410111156 58005 TSNO
94908KDBQ DBQ20060209235517202/09/06 23:55:31  5-MIN KDBQ 100555Z AUTO 21013KT 9SM OVC031 M04/M06 A2993 1070 88 -1000 210/13 RMK AO2 SNE31 SLP150 P0000 60000 T10441061 11033 21044 410111156 58020 TSNO
94908KDBQ DBQ20060210000010802/10/06 00:00:38  5-MIN KDBQ 100600Z AUTO 21014KT 9SM OVC031 M04/M06 A2993 1070 85 -900 210/14 RMK AO2 TSNO
94908KDBQ DBQ20060210000510802/10/06 00:05:31  5-MIN KDBQ 100605Z AUTO 21013KT 9SM OVC031 M04/M06 A2993 1070 85 -900 210/13 RMK AO2 TSNO
94908KDBQ DBQ20060210001010802/10/06 00:10:31  5-MIN KDBQ 100610Z AUTO 21013KT 9SM OVC031 M04/M06 A2993 1070 85 -900 210/13 RMK AO2 TSNO
94908KDBQ DBQ20060210001510802/10/06 00:15:32  5-MIN KDBQ 100615Z AUTO 21012KT 9SM OVC031 M04/M06 A2993 1070 85 -900 210/12 RMK AO2 TSNO
94908KDBQ DBQ20060210002010802/10/06 00:20:31  5-MIN KDBQ 100620Z AUTO 21012KT 9SM OVC029 M04/M06 A2993 1070 85 -900 210/12 RMK AO2 TSNO
94908KDBQ DBQ20060210002510902/10/06 00:25:31  5-MIN KDBQ 100625Z AUTO 21011KT 10SM OVC029 M04/M06 A2993 1070 85 -900 210/11 RMK AO2 TSNO
94908KDBQ DBQ20060210003010902/10/06 00:30:31  5-MIN KDBQ 100630Z AUTO 21012KT 10SM OVC029 M04/M06 A2992 1070 85 -900 210/12 RMK AO2 TSNO
94908KDBQ DBQ20060210003510902/10/06 00:35:31  5-MIN KDBQ 100635Z AUTO 22013KT 10SM OVC029 M04/M06 A2993 1070 85 -900 220/13 RMK AO2 TSNO
94908KDBQ DBQ20060210004010902/10/06 00:40:31  5-MIN KDBQ 100640Z AUTO 22011KT 10SM OVC029 M04/M06 A2992 1070 85 -900 220/11 RMK AO2 TSNO
94908KDBQ DBQ20060210004510902/10/06 00:45:31  5-MIN KDBQ 100645Z AUTO 22011KT 10SM OVC027 M04/M06 A2992 1080 85 -900 220/11 RMK AO2 TSNO
94908KDBQ DBQ20060210005012602/10/06 00:50:31  5-MIN KDBQ 100650Z AUTO 21011KT 10SM OVC027 M04/M06 A2991 1090 85 -900 210/11 RMK AO2 SLP143 T10391061 TSNO
94908KDBQ DBQ20060210005512602/10/06 00:55:31  5-MIN KDBQ 100655Z AUTO 22012KT 10SM OVC027 M04/M07 A2992 1080 81 -900 220/12 RMK AO2 SLP147 T10391067 TSNO
94908KDBQ DBQ20060210010010902/10/06 01:00:31  5-MIN KDBQ 100700Z AUTO 22009KT 10SM OVC027 M04/M07 A2992 1080 81 -900 220/09 RMK AO2 TSNO
94908KDBQ DBQ20060210010510902/10/06 01:05:31  5-MIN KDBQ 100705Z AUTO 22009KT 10SM OVC025 M04/M07 A2992 1080 81 -900 220/09 RMK AO2 TSNO
94908KDBQ DBQ20060210011010902/10/06 01:10:31  5-MIN KDBQ 100710Z AUTO 22011KT 10SM OVC025 M04/M07 A2992 1080 81 -900 220/11 RMK AO2 TSNO
94908KDBQ DBQ20060210011510902/10/06 01:15:31  5-MIN KDBQ 100715Z AUTO 23010KT 10SM OVC025 M03/M07 A2992 1080 78 -800 230/10 RMK AO2 TSNO
94908KDBQ DBQ20060210012010902/10/06 01:20:31  5-MIN KDBQ 100720Z AUTO 23010KT 10SM OVC025 M03/M07 A2992 1080 78 -800 230/10 RMK AO2 TSNO
94908KDBQ DBQ20060210012510902/10/06 01:25:31  5-MIN KDBQ 100725Z AUTO 23010KT 10SM OVC023 M03/M07 A2991 1080 74 -800 230/10 RMK AO2 TSNO
94908KDBQ DBQ20060210013010902/10/06 01:30:31  5-MIN KDBQ 100730Z AUTO 23010KT 10SM OVC023 M03/M07 A2991 1080 74 -800 230/10 RMK AO2 TSNO
94908KDBQ DBQ20060210013510902/10/06 01:35:31  5-MIN KDBQ 100735Z AUTO 23010KT 10SM OVC021 M03/M07 A2991 1090 74 -800 230/10 RMK AO2 TSNO
94908KDBQ DBQ20060210014010902/10/06 01:40:31  5-MIN KDBQ 100740Z AUTO 23011KT 10SM OVC021 M03/M07 A2991 1090 78 -800 230/11 RMK AO2 TSNO
94908KDBQ DBQ20060210014510902/10/06 01:45:31  5-MIN KDBQ 100745Z AUTO 23010KT 10SM OVC021 M03/M07 A2991 1090 78 -800 230/10 RMK AO2 TSNO
94908KDBQ DBQ20060210015012602/10/06 01:50:31  5-MIN KDBQ 100750Z AUTO 23011KT 10SM OVC019 M03/M07 A2991 1090 78 -800 230/11 RMK AO2 SLP142 T10331067 TSNO
94908KDBQ DBQ20060210015512602/10/06 01:55:31  5-MIN KDBQ 100755Z AUTO 23010KT 10SM OVC019 M03/M07 A2991 1090 78 -800 230/10 RMK AO2 SLP142 T10331067 TSNO
94908KDBQ DBQ20060210020010902/10/06 02:00:31  5-MIN KDBQ 100800Z AUTO 23011KT 10SM OVC019 M03/M07 A2991 1090 78 -800 230/11 RMK AO2 TSNO
94908KDBQ DBQ20060210020510902/10/06 02:05:31  5-MIN KDBQ 100805Z AUTO 24010KT 10SM OVC017 M03/M07 A2991 1090 78 -800 240/10 RMK AO2 TSNO
94908KDBQ DBQ20060210021010902/10/06 02:10:31  5-MIN KDBQ 100810Z AUTO 24010KT 10SM OVC017 M03/M07 A2991 1090 78 -800 240/10 RMK AO2 TSNO
94908KDBQ DBQ20060210021510902/10/06 02:15:31  5-MIN KDBQ 100815Z AUTO 25009KT 10SM OVC017 M03/M07 A2991 1090 78 -800 250/09 RMK AO2 TSNO
94908KDBQ DBQ20060210022010902/10/06 02:20:31  5-MIN KDBQ 100820Z AUTO 24008KT 10SM OVC017 M03/M07 A2991 1090 78 -800 240/08 RMK AO2 TSNO
94908KDBQ DBQ20060210022510902/10/06 02:25:31  5-MIN KDBQ 100825Z AUTO 24008KT 10SM OVC015 M03/M07 A2991 1090 78 -800 230/08 RMK AO2 TSNO
94908KDBQ DBQ20060210023010902/10/06 02:30:31  5-MIN KDBQ 100830Z AUTO 23008KT 10SM OVC015 M03/M07 A2990 1090 78 -800 230/08 RMK AO2 TSNO
94908KDBQ DBQ20060210023510902/10/06 02:35:31  5-MIN KDBQ 100835Z AUTO 24009KT 10SM OVC015 M03/M07 A2991 1090 78 -800 240/09 RMK AO2 TSNO
94908KDBQ DBQ20060210024010902/10/06 02:40:31  5-MIN KDBQ 100840Z AUTO 24008KT 10SM OVC015 M03/M07 A2990 1090 78 -800 240/08 RMK AO2 TSNO
94908KDBQ DBQ20060210024510902/10/06 02:45:31  5-MIN KDBQ 100845Z AUTO 24009KT 10SM OVC013 M03/M07 A2990 1100 78 -800 240/09 RMK AO2 TSNO
94908KDBQ DBQ20060210025013202/10/06 02:50:31  5-MIN KDBQ 100850Z AUTO 24009KT 10SM OVC013 M03/M07 A2990 1100 78 -800 240/09 RMK AO2 SLP139 T10331067 58020 TSNO
94908KDBQ DBQ20060210025513202/10/06 02:55:31  5-MIN KDBQ 100855Z AUTO 24009KT 10SM OVC013 M03/M07 A2990 1100 78 -800 240/09 RMK AO2 SLP139 T10331067 56009 TSNO
94908KDBQ DBQ20060210030010902/10/06 03:00:31  5-MIN KDBQ 100900Z AUTO 24008KT 10SM OVC013 M03/M07 A2990 1100 78 -800 240/08 RMK AO2 TSNO
94908KDBQ DBQ20060210030510802/10/06 03:05:31  5-MIN KDBQ 100905Z AUTO 24008KT 9SM OVC013 M03/M07 A2990 1100 78 -800 240/08 RMK AO2 TSNO
94908KDBQ DBQ20060210031010802/10/06 03:10:31  5-MIN KDBQ 100910Z AUTO 24009KT 9SM OVC013 M03/M07 A2990 1100 78 -800 240/09 RMK AO2 TSNO
94908KDBQ DBQ20060210031511502/10/06 03:15:31  5-MIN KDBQ 100915Z AUTO 24008KT 8SM BKN013 OVC070 M03/M07 A2989 1100 78 -800 240/08 RMK AO2 TSNO
94908KDBQ DBQ20060210032012202/10/06 03:20:31  5-MIN KDBQ 100920Z AUTO 25008KT 8SM BKN013 BKN060 OVC070 M03/M06 A2989 1100 81 -800 250/08 RMK AO2 TSNO
94908KDBQ DBQ20060210032512202/10/06 03:25:31  5-MIN KDBQ 100925Z AUTO 25009KT 8SM SCT013 BKN055 OVC070 M03/M06 A2989 1110 81 -800 250/09 RMK AO2 TSNO
94908KDBQ DBQ20060210033012202/10/06 03:30:31  5-MIN KDBQ 100930Z AUTO 24010KT 8SM SCT013 BKN055 OVC070 M03/M06 A2989 1110 81 -800 240/10 RMK AO2 TSNO
94908KDBQ DBQ20060210033512202/10/06 03:35:31  5-MIN KDBQ 100935Z AUTO 25010KT 7SM FEW015 BKN055 OVC070 M03/M06 A2989 1110 81 -800 250/10 RMK AO2 TSNO
94908KDBQ DBQ20060210034012202/10/06 03:40:31  5-MIN KDBQ 100940Z AUTO 25011KT 7SM SCT047 SCT060 OVC070 M03/M06 A2989 1110 81 -800 250/11 RMK AO2 TSNO
94908KDBQ DBQ20060210034512502/10/06 03:45:31  5-MIN KDBQ 100945Z AUTO 25012KT 6SM HZ FEW047 SCT055 OVC070 M03/M06 A2989 1110 81 -800 250/12 RMK AO2 TSNO
94908KDBQ DBQ20060210035013502/10/06 03:50:31  5-MIN KDBQ 100950Z AUTO 25011KT 6SM BR FEW047 OVC070 M03/M06 A2989 1110 85 -800 250/11 RMK AO2 SLP134 T10331056 TSNO
94908KDBQ DBQ20060210035513202/10/06 03:55:31  5-MIN KDBQ 100955Z AUTO 25011KT 7SM SCT047 OVC070 M03/M06 A2989 1110 85 -800 250/11 RMK AO2 SLP134 T10331056 TSNO
94908KDBQ DBQ20060210040011502/10/06 04:00:31  5-MIN KDBQ 101000Z AUTO 25010KT 7SM SCT045 OVC065 M03/M06 A2989 1110 85 -800 250/10 RMK AO2 TSNO
94908KDBQ DBQ20060210040511502/10/06 04:05:31  5-MIN KDBQ 101005Z AUTO 25010KT 7SM FEW040 OVC065 M03/M06 A2989 1110 85 -800 250/10 RMK AO2 TSNO
94908KDBQ DBQ20060210041011802/10/06 04:10:31  5-MIN KDBQ 101010Z AUTO 25011KT 6SM BR FEW040 OVC065 M03/M06 A2989 1110 85 -800 250/11 RMK AO2 TSNO
94908KDBQ DBQ20060210041511802/10/06 04:15:31  5-MIN KDBQ 101015Z AUTO 25011KT 6SM BR FEW040 OVC060 M03/M05 A2989 1110 88 -800 250/11 RMK AO2 TSNO
94908KDBQ DBQ20060210042011802/10/06 04:20:31  5-MIN KDBQ 101020Z AUTO 25011KT 6SM BR FEW040 OVC060 M03/M05 A2989 1110 88 -800 250/11 RMK AO2 TSNO
94908KDBQ DBQ20060210042511102/10/06 04:25:31  5-MIN KDBQ 101025Z AUTO 25011KT 6SM BR OVC060 M03/M05 A2988 1110 88 -800 250/11 RMK AO2 TSNO
94908KDBQ DBQ20060210043011102/10/06 04:30:31  5-MIN KDBQ 101030Z AUTO 25010KT 6SM BR OVC060 M03/M05 A2988 1110 88 -800 250/10 RMK AO2 TSNO
94908KDBQ DBQ20060210043511102/10/06 04:35:31  5-MIN KDBQ 101035Z AUTO 25011KT 6SM BR OVC060 M03/M05 A2988 1110 85 -700 250/11 RMK AO2 TSNO
94908KDBQ DBQ20060210044011102/10/06 04:40:31  5-MIN KDBQ 101040Z AUTO 25011KT 6SM BR OVC060 M03/M05 A2988 1110 85 -700 250/11 RMK AO2 TSNO
94908KDBQ DBQ20060210044511102/10/06 04:45:31  5-MIN KDBQ 101045Z AUTO 25011KT 6SM BR OVC060 M03/M05 A2988 1110 85 -700 250/11 RMK AO2 TSNO
94908KDBQ DBQ20060210045012802/10/06 04:50:31  5-MIN KDBQ 101050Z AUTO 25012KT 6SM BR OVC060 M03/M05 A2988 1110 85 -700 250/12 RMK AO2 SLP132 T10281050 TSNO
94908KDBQ DBQ20060210045512802/10/06 04:55:31  5-MIN KDBQ 101055Z AUTO 25012KT 6SM BR OVC060 M03/M04 A2988 1110 88 -700 250/12 RMK AO2 SLP133 T10281044 TSNO
94908KDBQ DBQ20060210050011102/10/06 05:00:31  5-MIN KDBQ 101100Z AUTO 25011KT 6SM BR OVC055 M03/M04 A2988 1110 88 -700 250/11 RMK AO2 TSNO
94908KDBQ DBQ20060210050511102/10/06 05:05:31  5-MIN KDBQ 101105Z AUTO 25010KT 6SM BR OVC060 M03/M04 A2989 1110 88 -700 250/10 RMK AO2 TSNO
94908KDBQ DBQ20060210051011102/10/06 05:10:31  5-MIN KDBQ 101110Z AUTO 26009KT 6SM BR OVC060 M03/M04 A2989 1110 88 -700 260/09 RMK AO2 TSNO
94908KDBQ DBQ20060210051511102/10/06 05:15:31  5-MIN KDBQ 101115Z AUTO 26009KT 5SM BR OVC060 M03/M04 A2988 1110 88 -700 260/09 RMK AO2 TSNO
94908KDBQ DBQ20060210052011102/10/06 05:20:31  5-MIN KDBQ 101120Z AUTO 26010KT 5SM BR OVC060 M03/M04 A2988 1120 88 -700 250/10 RMK AO2 TSNO
94908KDBQ DBQ20060210052511102/10/06 05:25:31  5-MIN KDBQ 101125Z AUTO 25010KT 5SM BR OVC060 M03/M04 A2988 1120 88 -700 250/10 RMK AO2 TSNO
94908KDBQ DBQ20060210053011102/10/06 05:30:31  5-MIN KDBQ 101130Z AUTO 24009KT 5SM BR OVC060 M03/M04 A2988 1120 88 -700 240/09 RMK AO2 TSNO
94908KDBQ DBQ20060210053511102/10/06 05:35:31  5-MIN KDBQ 101135Z AUTO 24007KT 5SM BR OVC060 M03/M04 A2988 1120 88 -700 240/07 RMK AO2 TSNO
94908KDBQ DBQ20060210054011102/10/06 05:40:31  5-MIN KDBQ 101140Z AUTO 25009KT 5SM BR OVC060 M03/M04 A2988 1120 88 -700 250/09 RMK AO2 TSNO
94908KDBQ DBQ20060210054511102/10/06 05:45:31  5-MIN KDBQ 101145Z AUTO 25009KT 5SM BR OVC065 M03/M04 A2988 1110 88 -700 250/09 RMK AO2 TSNO
94908KDBQ DBQ20060210055013602/10/06 05:50:31  5-MIN KDBQ 101150Z 25007KT 5SM BR OVC065 M03/M04 A2988 1110 92 -800 250/07 RMK AO2 SLP134 T10331044 11028 21044 56009
94908KDBQ DBQ20060210103508102/10/06 10:35:31  5-MIN KDBQ 101635Z AUTO M M M M /M RMK AO2 PWINO FZRANO TSNO $
94908KDBQ DBQ20060210105009502/10/06 10:50:31  5-MIN KDBQ 101650Z AUTO 27009KT M M M 270/09 RMK AO2 SLPNO FZRANO TSNO PNO $
94908KDBQ DBQ20060210105512502/10/06 10:55:31  5-MIN KDBQ 101655Z AUTO 29009KT 01/M03 A2996 1040 75 -300 290/09 RMK AO2 SLPNO T00111028 PWINO FZRANO TSNO
94908KDBQ DBQ20060210110010102/10/06 11:00:31  5-MIN KDBQ 101700Z AUTO 28012KT 10SM 01/M03 A2997 1030 75 -300 280/12 RMK AO2 TSNO
94908KDBQ DBQ20060210110510102/10/06 11:05:31  5-MIN KDBQ 101705Z AUTO 28011KT 10SM 01/M03 A2997 1030 75 -300 280/11 RMK AO2 TSNO
94908KDBQ DBQ20060210111010102/10/06 11:10:31  5-MIN KDBQ 101710Z AUTO 28011KT 10SM 02/M02 A2997 1040 75 -200 280/11 RMK AO2 TSNO
94908KDBQ DBQ20060210111509102/10/06 11:15:31  5-MIN KDBQ 101715Z 29012KT 10SM 02/M02 A2997 1030 75 -200 290/12 RMK AO2
94908KDBQ DBQ20060210112010502/10/06 11:20:31  5-MIN KDBQ 101720Z 29012KT 10SM FEW016 OVC060 02/M03 A2997 1030 72 -200 290/12 RMK AO2
94908KDBQ DBQ20060210112510502/10/06 11:25:31  5-MIN KDBQ 101725Z 30012KT 10SM FEW016 OVC060 01/M03 A2996 1040 72 -300 300/12 RMK AO2
94908KDBQ DBQ20060210113010502/10/06 11:30:31  5-MIN KDBQ 101730Z 30011KT 10SM FEW016 OVC060 01/M03 A2996 1040 75 -300 300/11 RMK AO2
94908KDBQ DBQ20060210113510502/10/06 11:35:31  5-MIN KDBQ 101735Z 29010KT 10SM FEW016 OVC060 01/M03 A2996 1040 75 -300 290/10 RMK AO2
94908KDBQ DBQ20060210114010502/10/06 11:40:31  5-MIN KDBQ 101740Z 28010KT 10SM FEW016 OVC055 01/M03 A2996 1040 75 -300 280/10 RMK AO2
94908KDBQ DBQ20060210114509802/10/06 11:45:31  5-MIN KDBQ 101745Z 30010KT 10SM OVC055 01/M03 A2996 1040 75 -300 290/10 RMK AO2
94908KDBQ DBQ20060210115012002/10/06 11:50:31  5-MIN KDBQ 101750Z 29012KT 10SM OVC055 01/M03 A2996 1040 75 -300 290/12 RMK AO2 SLPNO 6//// T00111028
94908KDBQ DBQ20060210115512002/10/06 11:55:31  5-MIN KDBQ 101755Z 28011KT 10SM OVC055 01/M03 A2996 1040 75 -300 280/11 RMK AO2 SLPNO 6//// T00111028
94908KDBQ DBQ20060210120009802/10/06 12:00:31  5-MIN KDBQ 101800Z 27011KT 10SM OVC055 01/M03 A2996 1040 75 -300 270/11 RMK AO2
94908KDBQ DBQ20060210120510502/10/06 12:05:31  5-MIN KDBQ 101805Z 30010KT 10SM FEW018 OVC055 02/M03 A2996 1040 72 -200 300/10 RMK AO2
94908KDBQ DBQ20060210121010502/10/06 12:10:31  5-MIN KDBQ 101810Z 28012KT 10SM SCT018 OVC055 02/M02 A2996 1040 75 -200 280/12 RMK AO2
94908KDBQ DBQ20060210121510502/10/06 12:15:31  5-MIN KDBQ 101815Z 29013KT 10SM BKN018 OVC055 01/M03 A2996 1040 75 -300 290/13 RMK AO2
94908KDBQ DBQ20060210122011202/10/06 12:20:31  5-MIN KDBQ 101820Z 28014KT 10SM SCT018 BKN022 OVC055 01/M03 A2996 1040 75 -300 280/14 RMK AO2
94908KDBQ DBQ20060210122511202/10/06 12:25:31  5-MIN KDBQ 101825Z 29013KT 10SM SCT018 BKN022 OVC055 01/M03 A2996 1040 75 -300 290/13 RMK AO2
94908KDBQ DBQ20060210123011202/10/06 12:30:31  5-MIN KDBQ 101830Z 30013KT 10SM SCT018 BKN022 OVC055 01/M03 A2996 1040 75 -300 290/13 RMK AO2
94908KDBQ DBQ20060210123511202/10/06 12:35:31  5-MIN KDBQ 101835Z 28012KT 10SM SCT018 BKN022 OVC055 02/M02 A2996 1040 75 -200 280/12 RMK AO2
94908KDBQ DBQ20060210124011202/10/06 12:40:31  5-MIN KDBQ 101840Z 27011KT 10SM SCT016 BKN022 OVC055 02/M03 A2996 1040 72 -200 270/11 RMK AO2
94908KDBQ DBQ20060210124511202/10/06 12:45:31  5-MIN KDBQ 101845Z 28013KT 10SM SCT016 BKN022 OVC055 02/M03 A2996 1040 72 -200 280/13 RMK AO2
94908KDBQ DBQ20060210125011202/10/06 12:50:31  5-MIN KDBQ 101850Z 28014KT 10SM FEW022 SCT026 OVC055 02/M03 A2996 1050 72 -200 280/14 RMK AO2
94908KDBQ DBQ20060210125512802/10/06 12:55:31  5-MIN KDBQ 101855Z 28012KT 10SM FEW022 SCT026 OVC055 01/M03 A2996 1040 75 -300 280/12 RMK AO2 SLPNO T00111028
94908KDBQ DBQ20060210130011202/10/06 13:00:31  5-MIN KDBQ 101900Z 29014KT 10SM BKN022 BKN028 OVC055 01/M03 A2996 1040 72 -300 290/14 RMK AO2
94908KDBQ DBQ20060210130511202/10/06 13:05:31  5-MIN KDBQ 101905Z 29013KT 10SM SCT022 BKN028 OVC055 02/M03 A2996 1040 69 -200 290/13 RMK AO2
94908KDBQ DBQ20060210131011202/10/06 13:10:31  5-MIN KDBQ 101910Z 28012KT 10SM SCT022 BKN028 OVC055 02/M04 A2996 1040 66 -200 280/12 RMK AO2
94908KDBQ DBQ20060210131511202/10/06 13:15:31  5-MIN KDBQ 101915Z 30013KT 10SM SCT022 BKN028 OVC055 02/M04 A2996 1040 66 -200 300/13 RMK AO2
94908KDBQ DBQ20060210132011202/10/06 13:20:31  5-MIN KDBQ 101920Z 30013KT 10SM SCT022 BKN028 OVC055 02/M04 A2996 1040 64 -200 290/13 RMK AO2
94908KDBQ DBQ20060210132511202/10/06 13:25:31  5-MIN KDBQ 101925Z 29013KT 10SM SCT022 BKN028 OVC055 02/M04 A2996 1040 64 -200 290/13 RMK AO2
94908KDBQ DBQ20060210133011202/10/06 13:30:31  5-MIN KDBQ 101930Z 30013KT 10SM SCT022 BKN028 OVC055 02/M05 A2996 1040 61 -200 300/13 RMK AO2
94908KDBQ DBQ20060210133511202/10/06 13:35:31  5-MIN KDBQ 101935Z 29011KT 10SM SCT022 BKN028 OVC055 03/M04 A2996 1050 59 -100 290/11 RMK AO2
94908KDBQ DBQ20060210134011202/10/06 13:40:31  5-MIN KDBQ 101940Z 28013KT 10SM SCT022 BKN028 OVC055 03/M04 A2995 1050 59 -100 270/13 RMK AO2
94908KDBQ DBQ20060210134511802/10/06 13:45:31  5-MIN KDBQ 101945Z 28014G19KT 10SM SCT022 BKN028 OVC055 03/M05 A2996 1050 56 -100 270/14G19 RMK AO2
94908KDBQ DBQ20060210135010802/10/06 13:50:31  5-MIN KDBQ 101950Z 28013G19KT 10SM SCT033 SCT060 03/M04 A2996 1040 57 0 280/13G19 RMK AO2
94908KDBQ DBQ20060210135511102/10/06 13:55:31  5-MIN KDBQ 101955Z 28015KT 10SM SCT034 03/M05 A2996 1050 54 0 280/15 RMK AO2 SLPNO T00331050
94908KDBQ DBQ20060210140010102/10/06 14:00:31  5-MIN KDBQ 102000Z 29015G21KT 10SM BKN036 03/M06 A2996 1040 52 0 290/15G21 RMK AO2
94908KDBQ DBQ20060210140511102/10/06 14:05:31  5-MIN KDBQ 102005Z 29011G21KT 10SM BKN036 BKN095 03/M06 A2996 1040 52 -100 280/11G21 RMK AO2
94908KDBQ DBQ20060210141010202/10/06 14:10:31  5-MIN KDBQ 102010Z 29012KT 10SM BKN036 BKN095 03/M06 A2996 1040 52 0 290/12 RMK AO2
94908KDBQ DBQ20060210141510202/10/06 14:15:31  5-MIN KDBQ 102015Z 29014KT 10SM BKN038 OVC095 03/M06 A2996 1040 50 0 290/14 RMK AO2
94908KDBQ DBQ20060210142010202/10/06 14:20:31  5-MIN KDBQ 102020Z 30012KT 10SM BKN038 OVC095 03/M07 A2996 1040 48 0 300/12 RMK AO2
94908KDBQ DBQ20060210142510502/10/06 14:25:31  5-MIN KDBQ 102025Z 28014KT 10SM BKN040 BKN095 03/M07 A2996 1040 50 -100 280/14 RMK AO2
94908KDBQ DBQ20060210143010202/10/06 14:30:31  5-MIN KDBQ 102030Z 27013KT 10SM BKN040 BKN095 03/M07 A2996 1040 48 0 270/13 RMK AO2
94908KDBQ DBQ20060210143509802/10/06 14:35:31  5-MIN KDBQ 102035Z 30009KT 10SM BKN040 03/M07 A2996 1040 50 -100 300/09 RMK AO2
94908KDBQ DBQ20060210144010102/10/06 14:40:31  5-MIN KDBQ 102040Z 30015G22KT 10SM SCT040 03/M07 A2996 1040 46 0 300/15G22 RMK AO2
94908KDBQ DBQ20060210144510102/10/06 14:45:31  5-MIN KDBQ 102045Z 31015G22KT 10SM SCT042 03/M07 A2997 1040 46 0 310/15G22 RMK AO2
94908KDBQ DBQ20060210145011402/10/06 14:50:31  5-MIN KDBQ 102050Z 30014KT 10SM FEW042 03/M07 A2997 1030 48 -100 290/14 RMK AO2 SLPNO T00281072
94908KDBQ DBQ20060210145512002/10/06 14:55:31  5-MIN KDBQ 102055Z 29015KT 10SM FEW042 02/M07 A2997 1030 50 -200 290/15 RMK AO2 SLPNO T00221072 53003
94908KDBQ DBQ20060210150009802/10/06 15:00:31  5-MIN KDBQ 102100Z 29013KT 10SM SCT060 02/M07 A2997 1030 50 -200 290/13 RMK AO2
94908KDBQ DBQ20060210150509802/10/06 15:05:31  5-MIN KDBQ 102105Z 29010KT 10SM BKN060 02/M07 A2997 1030 54 -300 290/10 RMK AO2
94908KDBQ DBQ20060210151009802/10/06 15:10:31  5-MIN KDBQ 102110Z 28013KT 10SM BKN060 02/M07 A2997 1030 54 -300 280/13 RMK AO2
94908KDBQ DBQ20060210151510502/10/06 15:15:31  5-MIN KDBQ 102115Z 30010KT 10SM FEW049 BKN060 03/M06 A2997 1030 52 -100 300/10 RMK AO2
94908KDBQ DBQ20060210152009502/10/06 15:20:31  5-MIN KDBQ 102120Z 29010KT 10SM OVC055 03/M07 A2997 1030 48 0 290/10 RMK AO2
94908KDBQ DBQ20060210152509802/10/06 15:25:31  5-MIN KDBQ 102125Z 28010KT 10SM BKN055 02/M07 A2997 1030 52 -200 270/10 RMK AO2
94908KDBQ DBQ20060210153009802/10/06 15:30:31  5-MIN KDBQ 102130Z 30008KT 10SM BKN060 02/M07 A2997 1030 50 -200 290/08 RMK AO2
94908KDBQ DBQ20060210153509802/10/06 15:35:31  5-MIN KDBQ 102135Z 29009KT 10SM OVC060 02/M07 A2997 1030 52 -200 290/09 RMK AO2
94908KDBQ DBQ20060210154009802/10/06 15:40:31  5-MIN KDBQ 102140Z 29009KT 10SM OVC060 02/M07 A2997 1030 52 -300 280/09 RMK AO2
94908KDBQ DBQ20060210154509802/10/06 15:45:31  5-MIN KDBQ 102145Z 28008KT 10SM OVC060 02/M07 A2997 1030 50 -200 280/08 RMK AO2
94908KDBQ DBQ20060210155011402/10/06 15:50:31  5-MIN KDBQ 102150Z 28011KT 10SM OVC060 02/M07 A2997 1030 54 -300 280/11 RMK AO2 SLPNO T00171067
94908KDBQ DBQ20060210155511402/10/06 15:55:31  5-MIN KDBQ 102155Z 29010KT 10SM OVC060 02/M07 A2997 1030 54 -300 290/10 RMK AO2 SLPNO T00171067
94908KDBQ DBQ20060210160009802/10/06 16:00:31  5-MIN KDBQ 102200Z 28009KT 10SM OVC060 02/M07 A2998 1030 54 -300 280/09 RMK AO2
94908KDBQ DBQ20060210160509802/10/06 16:05:31  5-MIN KDBQ 102205Z 28009KT 10SM OVC060 02/M07 A2998 1030 54 -300 280/09 RMK AO2
94908KDBQ DBQ20060210161009802/10/06 16:10:31  5-MIN KDBQ 102210Z 28009KT 10SM OVC060 01/M07 A2998 1020 56 -300 280/09 RMK AO2
94908KDBQ DBQ20060210161509802/10/06 16:15:31  5-MIN KDBQ 102215Z 29008KT 10SM OVC060 01/M07 A2998 1020 56 -300 290/08 RMK AO2
94908KDBQ DBQ20060210162009802/10/06 16:20:31  5-MIN KDBQ 102220Z 31008KT 10SM OVC060 01/M06 A2998 1030 58 -300 300/08 RMK AO2
94908KDBQ DBQ20060210162510402/10/06 16:25:31  5-MIN KDBQ 102225Z 28008KT 9SM FEW044 OVC060 01/M06 A2998 1020 58 -300 280/08 RMK AO2
94908KDBQ DBQ20060210163012002/10/06 16:30:31  5-MIN KDBQ 102230Z 27008KT 9SM -SN SCT042 OVC055 01/M06 A2998 1020 61 -300 270/08 RMK AO2 SNB26 P0000
94908KDBQ DBQ20060210163512002/10/06 16:35:31  5-MIN KDBQ 102235Z 27009KT 9SM -SN BKN040 OVC060 01/M06 A2998 1020 63 -400 270/09 RMK AO2 SNB26 P0000
94908KDBQ DBQ20060210164011902/10/06 16:40:31  5-MIN KDBQ 102240Z 30010KT 9SM BKN038 OVC060 01/M06 A2998 1020 63 -400 300/10 RMK AO2 SNB26E36 P0000
94908KDBQ DBQ20060210164512702/10/06 16:45:31  5-MIN KDBQ 102245Z 30007KT 9SM -SN BKN038 BKN050 OVC060 01/M05 A2998 1020 66 -400 300/07 RMK AO2 SNB26 P0000
94908KDBQ DBQ20060210165014302/10/06 16:50:31  5-MIN KDBQ 102250Z 31007KT 9SM -SN BKN040 BKN049 OVC060 01/M05 A2998 1020 66 -400 300/07 RMK AO2 SNB26 SLPNO P0000 T00061050
94908KDBQ DBQ20060210165514202/10/06 16:55:31  5-MIN KDBQ 102255Z 30006KT 9SM SCT038 BKN048 OVC075 01/M05 A2998 1020 66 -400 300/06 RMK AO2 SNB26E52 SLPNO P0000 T00061050
94908KDBQ DBQ20060210170011202/10/06 17:00:31  5-MIN KDBQ 102300Z 30006KT 10SM SCT038 BKN065 OVC075 01/M05 A2998 1020 66 -400 300/06 RMK AO2
94908KDBQ DBQ20060210170510502/10/06 17:05:31  5-MIN KDBQ 102305Z 30006KT 10SM FEW038 OVC070 01/M05 A2999 1020 66 -400 300/06 RMK AO2
94908KDBQ DBQ20060210171010502/10/06 17:10:31  5-MIN KDBQ 102310Z 30006KT 10SM FEW055 OVC075 01/M05 A2999 1020 66 -400 300/06 RMK AO2
94908KDBQ DBQ20060210171510502/10/06 17:15:31  5-MIN KDBQ 102315Z 29005KT 10SM BKN065 OVC080 00/M05 A2999 1020 69 -500 290/05 RMK AO2
94908KDBQ DBQ20060210172010502/10/06 17:20:31  5-MIN KDBQ 102320Z 29003KT 10SM FEW055 OVC075 00/M05 A2999 1020 69 -500 290/03 RMK AO2
94908KDBQ DBQ20060210172510502/10/06 17:25:31  5-MIN KDBQ 102325Z 30003KT 10SM FEW055 OVC075 00/M05 A2999 1010 69 -500 300/03 RMK AO2
94908KDBQ DBQ20060210173010502/10/06 17:30:31  5-MIN KDBQ 102330Z 30003KT 10SM FEW055 OVC070 00/M05 A2999 1010 69 -500 290/03 RMK AO2
94908KDBQ DBQ20060210173510502/10/06 17:35:31  5-MIN KDBQ 102335Z 29003KT 10SM FEW055 OVC070 00/M05 A2999 1010 69 -500 290/03 RMK AO2
94908KDBQ DBQ20060210174009802/10/06 17:40:31  5-MIN KDBQ 102340Z 00000KT 10SM OVC070 00/M05 A3000 1010 69 -500 000/00 RMK AO2
94908KDBQ DBQ20060210174509802/10/06 17:45:31  5-MIN KDBQ 102345Z 00000KT 10SM OVC070 00/M04 A3000 1010 72 -500 000/00 RMK AO2
94908KDBQ DBQ20060210175014602/10/06 17:50:31  5-MIN KDBQ 102350Z 00000KT 10SM FEW050 OVC070 M01/M05 A3000 1010 72 -600 000/00 RMK AO2 SLPNO 60000 T10061050 10039 21006 53003
94908KDBQ DBQ20060210175514502/10/06 17:55:31  5-MIN KDBQ 102355Z 00000KT 10SM FEW050 OVC070 00/M05 A3000 1000 69 -500 000/00 RMK AO2 SLPNO 60000 T00001050 10039 21006 53010
94908KDBQ DBQ20060210180010602/10/06 18:00:31  5-MIN KDBQ 110000Z 00000KT 10SM FEW050 OVC070 M01/M05 A3000 1000 72 -600 000/00 RMK AO2
94908KDBQ DBQ20060210180510502/10/06 18:05:31  5-MIN KDBQ 110005Z 00000KT 10SM SCT050 OVC070 00/M04 A3000 1000 72 -500 000/00 RMK AO2
94908KDBQ DBQ20060210181010502/10/06 18:10:31  5-MIN KDBQ 110010Z 00000KT 10SM BKN050 OVC070 00/M04 A3000 1000 72 -500 000/00 RMK AO2
94908KDBQ DBQ20060210181510602/10/06 18:15:31  5-MIN KDBQ 110015Z 00000KT 10SM BKN050 OVC070 M01/M04 A3001 1000 75 -600 000/00 RMK AO2
94908KDBQ DBQ20060210182010602/10/06 18:20:31  5-MIN KDBQ 110020Z 19003KT 10SM SCT050 OVC070 M01/M04 A3001 1000 75 -600 190/03 RMK AO2
94908KDBQ DBQ20060210182510602/10/06 18:25:31  5-MIN KDBQ 110025Z 20003KT 10SM SCT050 OVC070 M01/M04 A3001 1000 75 -600 200/03 RMK AO2
94908KDBQ DBQ20060210183010602/10/06 18:30:31  5-MIN KDBQ 110030Z 19004KT 10SM FEW050 OVC065 M01/M04 A3001 1000 75 -600 190/04 RMK AO2
94908KDBQ DBQ20060210183510502/10/06 18:35:31  5-MIN KDBQ 110035Z 20004KT 10SM FEW050 OVC070 M01/M04 A3001 990 78 -600 200/04 RMK AO2
94908KDBQ DBQ20060210184010502/10/06 18:40:31  5-MIN KDBQ 110040Z 21004KT 10SM FEW050 OVC070 M01/M04 A3001 990 78 -600 210/04 RMK AO2
94908KDBQ DBQ20060210184509802/10/06 18:45:31  5-MIN KDBQ 110045Z 21003KT 10SM OVC070 M01/M04 A3002 990 78 -600 210/03 RMK AO2
94908KDBQ DBQ20060210185011402/10/06 18:50:31  5-MIN KDBQ 110050Z 21004KT 10SM OVC070 M01/M04 A3002 990 78 -700 210/04 RMK AO2 SLPNO T10111044
94908KDBQ DBQ20060210185511402/10/06 18:55:31  5-MIN KDBQ 110055Z 21004KT 10SM OVC070 M01/M04 A3002 990 78 -700 210/04 RMK AO2 SLPNO T10111044
94908KDBQ DBQ20060210190009802/10/06 19:00:31  5-MIN KDBQ 110100Z 21004KT 10SM OVC070 M01/M04 A3002 990 78 -700 210/04 RMK AO2
94908KDBQ DBQ20060210190509802/10/06 19:05:31  5-MIN KDBQ 110105Z 20003KT 10SM OVC070 M01/M04 A3002 990 78 -700 200/03 RMK AO2
94908KDBQ DBQ20060210191009802/10/06 19:10:31  5-MIN KDBQ 110110Z 20003KT 10SM OVC070 M01/M04 A3002 990 75 -600 200/03 RMK AO2
94908KDBQ DBQ20060210191509802/10/06 19:15:31  5-MIN KDBQ 110115Z 20003KT 10SM OVC070 M01/M04 A3002 990 78 -700 200/03 RMK AO2
94908KDBQ DBQ20060210192009802/10/06 19:20:31  5-MIN KDBQ 110120Z 20003KT 10SM OVC070 M01/M04 A3002 990 78 -700 200/03 RMK AO2
94908KDBQ DBQ20060210192509802/10/06 19:25:31  5-MIN KDBQ 110125Z 21003KT 10SM OVC070 M01/M04 A3002 990 78 -700 210/03 RMK AO2
94908KDBQ DBQ20060210193009802/10/06 19:30:31  5-MIN KDBQ 110130Z 21003KT 10SM OVC070 M01/M05 A3002 990 75 -700 210/03 RMK AO2
94908KDBQ DBQ20060210193510802/10/06 19:35:31  5-MIN KDBQ 110135Z AUTO 00000KT 10SM OVC070 M01/M05 A3002 990 75 -700 000/00 RMK AO2 TSNO
94908KDBQ DBQ20060210194011502/10/06 19:40:31  5-MIN KDBQ 110140Z AUTO 00000KT 10SM FEW042 OVC070 M01/M04 A3002 980 78 -700 000/00 RMK AO2 TSNO
94908KDBQ DBQ20060210194511502/10/06 19:45:31  5-MIN KDBQ 110145Z AUTO 00000KT 10SM FEW042 OVC070 M01/M04 A3002 980 78 -700 000/00 RMK AO2 TSNO
94908KDBQ DBQ20060210195013102/10/06 19:50:31  5-MIN KDBQ 110150Z AUTO 00000KT 10SM SCT042 OVC070 M01/M04 A3002 980 78 -700 000/00 RMK AO2 SLPNO T10111044 TSNO
94908KDBQ DBQ20060210195513802/10/06 19:55:31  5-MIN KDBQ 110155Z AUTO 23003KT 10SM FEW034 BKN042 OVC070 M01/M04 A3002 980 78 -700 230/03 RMK AO2 SLPNO T10111044 TSNO
94908KDBQ DBQ20060210200012202/10/06 20:00:31  5-MIN KDBQ 110200Z AUTO 27005KT 10SM SCT032 BKN042 OVC070 M02/M04 A3003 980 81 -700 270/05 RMK AO2 TSNO
94908KDBQ DBQ20060210200512202/10/06 20:05:31  5-MIN KDBQ 110205Z AUTO 26006KT 10SM SCT032 BKN042 OVC070 M01/M04 A3003 980 78 -700 260/06 RMK AO2 TSNO
94908KDBQ DBQ20060210201012202/10/06 20:10:31  5-MIN KDBQ 110210Z AUTO 29008KT 10SM SCT032 BKN042 OVC070 M01/M04 A3003 980 81 -700 290/08 RMK AO2 TSNO
94908KDBQ DBQ20060210201511502/10/06 20:15:31  5-MIN KDBQ 110215Z AUTO 31007KT 10SM BKN034 OVC042 M01/M04 A3003 980 81 -700 300/07 RMK AO2 TSNO
94908KDBQ DBQ20060210202011502/10/06 20:20:31  5-MIN KDBQ 110220Z AUTO 31009KT 10SM SCT033 OVC042 M01/M03 A3003 980 85 -700 300/09 RMK AO2 TSNO
94908KDBQ DBQ20060210202511502/10/06 20:25:31  5-MIN KDBQ 110225Z AUTO 32007KT 10SM SCT033 OVC041 M02/M03 A3003 970 88 -700 320/07 RMK AO2 TSNO
94908KDBQ DBQ20060210203011502/10/06 20:30:31  5-MIN KDBQ 110230Z AUTO 33008KT 10SM SCT031 OVC041 M02/M03 A3003 970 88 -700 330/08 RMK AO2 TSNO
94908KDBQ DBQ20060210203511502/10/06 20:35:31  5-MIN KDBQ 110235Z AUTO 33007KT 10SM BKN031 OVC041 M02/M03 A3003 970 88 -700 330/07 RMK AO2 TSNO
94908KDBQ DBQ20060210204012202/10/06 20:40:31  5-MIN KDBQ 110240Z AUTO 32007KT 10SM BKN031 BKN039 OVC070 M02/M03 A3004 970 88 -700 320/07 RMK AO2 TSNO
94908KDBQ DBQ20060210204512202/10/06 20:45:31  5-MIN KDBQ 110245Z AUTO 32008KT 10SM BKN031 BKN041 OVC075 M02/M03 A3004 970 88 -700 320/08 RMK AO2 TSNO
94908KDBQ DBQ20060210205014402/10/06 20:50:31  5-MIN KDBQ 110250Z AUTO 32007KT 10SM SCT031 BKN035 OVC075 M02/M03 A3004 970 88 -700 320/07 RMK AO2 SLPNO T10171033 53010 TSNO
94908KDBQ DBQ20060210205514402/10/06 20:55:31  5-MIN KDBQ 110255Z AUTO 32008KT 10SM FEW006 BKN035 OVC080 M02/M03 A3004 970 88 -700 320/08 RMK AO2 SLPNO T10171033 51013 TSNO
94908KDBQ DBQ20060210210012202/10/06 21:00:31  5-MIN KDBQ 110300Z AUTO 33008KT 10SM SCT006 BKN030 OVC075 M02/M03 A3004 970 88 -700 330/08 RMK AO2 TSNO
94908KDBQ DBQ20060210210513302/10/06 21:05:31  5-MIN KDBQ 110305Z AUTO 33010KT 8SM BKN006 BKN030 OVC075 M02/M03 A3004 970 88 -700 330/10 RMK AO2 CIG 005V009 TSNO
94908KDBQ DBQ20060210211013302/10/06 21:10:31  5-MIN KDBQ 110310Z AUTO 33007KT 7SM BKN006 BKN035 OVC080 M02/M03 A3004 960 88 -800 330/07 RMK AO2 CIG 005V011 TSNO
94908KDBQ DBQ20060210211513302/10/06 21:15:31  5-MIN KDBQ 110315Z AUTO 34009KT 7SM BKN006 BKN009 OVC044 M02/M03 A3004 960 88 -800 340/09 RMK AO2 CIG 003V007 TSNO
94908KDBQ DBQ20060210212013302/10/06 21:20:31  5-MIN KDBQ 110320Z AUTO 35008KT 7SM BKN006 BKN011 OVC040 M02/M03 A3004 960 92 -800 350/08 RMK AO2 CIG 003V008 TSNO
94908KDBQ DBQ20060210212513302/10/06 21:25:31  5-MIN KDBQ 110325Z AUTO 34010KT 8SM BKN006 BKN011 OVC041 M02/M04 A3005 960 88 -800 340/10 RMK AO2 CIG 003V009 TSNO
94908KDBQ DBQ20060210213013302/10/06 21:30:31  5-MIN KDBQ 110330Z AUTO 33009KT 9SM FEW006 BKN009 OVC043 M02/M04 A3005 960 88 -800 330/09 RMK AO2 CIG 007V011 TSNO
94908KDBQ DBQ20060210213512202/10/06 21:35:31  5-MIN KDBQ 110335Z AUTO 33009KT 10SM FEW006 BKN013 OVC043 M02/M04 A3005 960 85 -800 330/09 RMK AO2 TSNO
94908KDBQ DBQ20060210214012202/10/06 21:40:31  5-MIN KDBQ 110340Z AUTO 33008KT 10SM FEW004 BKN013 OVC043 M03/M05 A3005 960 85 -900 330/08 RMK AO2 TSNO
94908KDBQ DBQ20060210214512202/10/06 21:45:31  5-MIN KDBQ 110345Z AUTO 32008KT 10SM FEW009 SCT013 BKN043 M03/M05 A3006 950 85 -900 310/08 RMK AO2 TSNO
94908KDBQ DBQ20060210215013102/10/06 21:50:31  5-MIN KDBQ 110350Z AUTO 32008KT 10SM FEW009 BKN043 M03/M05 A3006 950 85 -900 320/08 RMK AO2 SLPNO T10281050 TSNO
94908KDBQ DBQ20060210215513102/10/06 21:55:31  5-MIN KDBQ 110355Z AUTO 34008KT 10SM FEW014 BKN043 M03/M06 A3006 950 81 -900 330/08 RMK AO2 SLPNO T10281056 TSNO
94908KDBQ DBQ20060210220010802/10/06 22:00:31  5-MIN KDBQ 110400Z AUTO 33009KT 10SM BKN043 M03/M06 A3006 950 81 -900 330/09 RMK AO2 TSNO
94908KDBQ DBQ20060210220510802/10/06 22:05:31  5-MIN KDBQ 110405Z AUTO 32009KT 10SM OVC043 M03/M06 A3006 950 81 -900 320/09 RMK AO2 TSNO
94908KDBQ DBQ20060210221011502/10/06 22:10:31  5-MIN KDBQ 110410Z AUTO 31007KT 10SM FEW016 OVC043 M03/M06 A3006 950 78 -900 310/07 RMK AO2 TSNO
94908KDBQ DBQ20060210221511502/10/06 22:15:31  5-MIN KDBQ 110415Z AUTO 32008KT 10SM SCT016 OVC043 M03/M06 A3006 950 81 -900 320/08 RMK AO2 TSNO
94908KDBQ DBQ20060210222011502/10/06 22:20:31  5-MIN KDBQ 110420Z AUTO 32008KT 10SM FEW016 OVC043 M03/M06 A3006 950 78 -900 320/08 RMK AO2 TSNO
94908KDBQ DBQ20060210222511502/10/06 22:25:31  5-MIN KDBQ 110425Z AUTO 33009KT 10SM FEW016 OVC043 M03/M06 A3006 950 78 -900 330/09 RMK AO2 TSNO
94908KDBQ DBQ20060210223011502/10/06 22:30:31  5-MIN KDBQ 110430Z AUTO 32008KT 10SM FEW016 OVC043 M03/M06 A3006 950 78 -900 320/08 RMK AO2 TSNO
94908KDBQ DBQ20060210223511502/10/06 22:35:31  5-MIN KDBQ 110435Z AUTO 31008KT 10SM FEW016 OVC043 M03/M06 A3006 950 78 -900 310/08 RMK AO2 TSNO
94908KDBQ DBQ20060210224010802/10/06 22:40:31  5-MIN KDBQ 110440Z AUTO 33007KT 10SM OVC043 M03/M06 A3006 950 78 -900 330/07 RMK AO2 TSNO
94908KDBQ DBQ20060210224510802/10/06 22:45:31  5-MIN KDBQ 110445Z AUTO 33008KT 10SM OVC043 M03/M06 A3006 950 78 -900 330/08 RMK AO2 TSNO
94908KDBQ DBQ20060210225012402/10/06 22:50:31  5-MIN KDBQ 110450Z AUTO 33006KT 10SM OVC045 M03/M06 A3006 950 78 -900 330/06 RMK AO2 SLPNO T10281061 TSNO
94908KDBQ DBQ20060210225512502/10/06 22:55:31  5-MIN KDBQ 110455Z AUTO 33006KT 10SM OVC047 M03/M06 A3006 950 78 -900 330/06 RMK AO2 SLP194 T10281061 TSNO
94908KDBQ DBQ20060210230011502/10/06 23:00:31  5-MIN KDBQ 110500Z AUTO 33006KT 10SM FEW017 OVC047 M03/M06 A3006 950 78 -900 330/06 RMK AO2 TSNO
94908KDBQ DBQ20060210230511502/10/06 23:05:31  5-MIN KDBQ 110505Z AUTO 33006KT 10SM SCT017 OVC047 M03/M06 A3007 940 78 -900 330/06 RMK AO2 TSNO
94908KDBQ DBQ20060210231011502/10/06 23:10:31  5-MIN KDBQ 110510Z AUTO 33008KT 10SM FEW017 OVC047 M03/M06 A3006 950 78 -900 330/08 RMK AO2 TSNO
94908KDBQ DBQ20060210231511502/10/06 23:15:31  5-MIN KDBQ 110515Z AUTO 34008KT 10SM FEW017 OVC047 M03/M06 A3006 950 78 -900 340/08 RMK AO2 TSNO
94908KDBQ DBQ20060210232011502/10/06 23:20:31  5-MIN KDBQ 110520Z AUTO 34007KT 10SM FEW017 OVC047 M03/M06 A3006 950 78 -900 340/07 RMK AO2 TSNO
94908KDBQ DBQ20060210232511502/10/06 23:25:31  5-MIN KDBQ 110525Z AUTO 34008KT 10SM FEW017 OVC047 M03/M07 A3006 950 75 -900 340/08 RMK AO2 TSNO
94908KDBQ DBQ20060210233011502/10/06 23:30:31  5-MIN KDBQ 110530Z AUTO 34008KT 10SM FEW017 OVC047 M03/M07 A3006 950 75 -900 340/08 RMK AO2 TSNO
94908KDBQ DBQ20060210233510902/10/06 23:35:31  5-MIN KDBQ 110535Z AUTO 34008KT 10SM OVC047 M03/M07 A3006 950 78 -1000 340/08 RMK AO2 TSNO
94908KDBQ DBQ20060210234010902/10/06 23:40:31  5-MIN KDBQ 110540Z AUTO 35005KT 10SM OVC047 M03/M07 A3006 950 78 -1000 350/05 RMK AO2 TSNO
94908KDBQ DBQ20060210234510902/10/06 23:45:31  5-MIN KDBQ 110545Z AUTO 36004KT 10SM OVC047 M03/M07 A3006 950 78 -1000 360/04 RMK AO2 TSNO
94908KDBQ DBQ20060210235015402/10/06 23:50:31  5-MIN KDBQ 110550Z AUTO 01005KT 10SM OVC049 M04/M07 A3006 950 81 -1100 010/05 RMK AO2 SLP193 T10391067 10000 21039 400391039 51013 TSNO
94908KDBQ DBQ20060210235515402/10/06 23:55:31  5-MIN KDBQ 110555Z AUTO 36004KT 10SM OVC049 M04/M07 A3006 950 81 -1100 350/04 RMK AO2 SLP194 T10391067 10000 21039 400391039 51008 TSNO
94908KDBQ DBQ20060211000010902/11/06 00:00:38  5-MIN KDBQ 110600Z AUTO 33004KT 10SM OVC049 M04/M07 A3006 950 81 -1100 330/04 RMK AO2 TSNO
94908KDBQ DBQ20060211000510902/11/06 00:05:31  5-MIN KDBQ 110605Z AUTO 32004KT 10SM OVC049 M04/M07 A3007 940 81 -1100 320/04 RMK AO2 TSNO
94908KDBQ DBQ20060211001010902/11/06 00:10:31  5-MIN KDBQ 110610Z AUTO 30003KT 10SM OVC049 M04/M07 A3007 940 84 -1100 300/03 RMK AO2 TSNO
94908KDBQ DBQ20060211001511602/11/06 00:15:31  5-MIN KDBQ 110615Z AUTO 32006KT 10SM FEW014 OVC049 M04/M07 A3007 940 81 -1100 320/06 RMK AO2 TSNO
94908KDBQ DBQ20060211002011602/11/06 00:20:31  5-MIN KDBQ 110620Z AUTO 33005KT 10SM FEW014 OVC049 M04/M07 A3007 940 81 -1100 330/05 RMK AO2 TSNO
94908KDBQ DBQ20060211002511602/11/06 00:25:31  5-MIN KDBQ 110625Z AUTO 31004KT 10SM FEW014 OVC049 M04/M07 A3007 940 81 -1100 310/04 RMK AO2 TSNO
94908KDBQ DBQ20060211003011602/11/06 00:30:31  5-MIN KDBQ 110630Z AUTO 29004KT 10SM SCT014 OVC049 M04/M07 A3007 940 81 -1100 290/04 RMK AO2 TSNO
94908KDBQ DBQ20060211003512302/11/06 00:35:31  5-MIN KDBQ 110635Z AUTO 32005KT 10SM SCT014 BKN041 OVC049 M04/M07 A3007 940 78 -1100 320/05 RMK AO2 TSNO
94908KDBQ DBQ20060211004012302/11/06 00:40:31  5-MIN KDBQ 110640Z AUTO 32006KT 10SM FEW014 BKN041 OVC049 M04/M07 A3007 940 78 -1100 320/06 RMK AO2 TSNO
94908KDBQ DBQ20060211004512302/11/06 00:45:31  5-MIN KDBQ 110645Z AUTO 33006KT 10SM FEW014 BKN039 OVC049 M04/M07 A3007 940 78 -1100 320/06 RMK AO2 TSNO
94908KDBQ DBQ20060211005014002/11/06 00:50:31  5-MIN KDBQ 110650Z AUTO 32005KT 10SM FEW014 BKN039 OVC049 M04/M07 A3007 940 78 -1100 320/05 RMK AO2 SLP195 T10391072 TSNO
94908KDBQ DBQ20060211005514002/11/06 00:55:31  5-MIN KDBQ 110655Z AUTO 32005KT 10SM FEW014 BKN039 OVC049 M04/M07 A3007 940 81 -1100 320/05 RMK AO2 SLP195 T10391067 TSNO
94908KDBQ DBQ20060211010012302/11/06 01:00:31  5-MIN KDBQ 110700Z AUTO 32005KT 10SM FEW021 BKN039 OVC049 M04/M07 A3007 940 81 -1100 320/05 RMK AO2 TSNO
94908KDBQ DBQ20060211010512302/11/06 01:05:31  5-MIN KDBQ 110705Z AUTO 33006KT 10SM FEW021 BKN039 OVC049 M04/M07 A3007 940 81 -1100 330/06 RMK AO2 TSNO
94908KDBQ DBQ20060211011012302/11/06 01:10:31  5-MIN KDBQ 110710Z AUTO 32006KT 10SM SCT021 BKN037 OVC049 M04/M07 A3006 950 78 -1100 320/06 RMK AO2 TSNO
94908KDBQ DBQ20060211011512302/11/06 01:15:31  5-MIN KDBQ 110715Z AUTO 32006KT 10SM BKN021 BKN037 OVC049 M04/M07 A3006 950 78 -1100 320/06 RMK AO2 TSNO
94908KDBQ DBQ20060211012012302/11/06 01:20:31  5-MIN KDBQ 110720Z AUTO 33006KT 10SM BKN021 BKN035 OVC049 M04/M07 A3006 940 78 -1100 330/06 RMK AO2 TSNO
94908KDBQ DBQ20060211012511602/11/06 01:25:31  5-MIN KDBQ 110725Z AUTO 33006KT 10SM BKN023 OVC049 M04/M07 A3006 940 78 -1100 330/06 RMK AO2 TSNO
94908KDBQ DBQ20060211013011602/11/06 01:30:31  5-MIN KDBQ 110730Z AUTO 33006KT 10SM BKN023 OVC049 M04/M07 A3006 950 78 -1100 320/06 RMK AO2 TSNO
94908KDBQ DBQ20060211013510902/11/06 01:35:31  5-MIN KDBQ 110735Z AUTO 33006KT 10SM OVC023 M04/M07 A3006 950 78 -1100 330/06 RMK AO2 TSNO
94908KDBQ DBQ20060211014010902/11/06 01:40:31  5-MIN KDBQ 110740Z AUTO 33005KT 10SM OVC023 M04/M07 A3006 950 78 -1100 330/05 RMK AO2 TSNO
94908KDBQ DBQ20060211014510902/11/06 01:45:31  5-MIN KDBQ 110745Z AUTO 33006KT 10SM OVC023 M04/M07 A3006 950 78 -1100 330/06 RMK AO2 TSNO
94908KDBQ DBQ20060211015012602/11/06 01:50:31  5-MIN KDBQ 110750Z AUTO 33006KT 10SM OVC023 M04/M07 A3006 950 78 -1100 330/06 RMK AO2 SLP191 T10391072 TSNO
94908KDBQ DBQ20060211015512602/11/06 01:55:31  5-MIN KDBQ 110755Z AUTO 33005KT 10SM OVC023 M04/M07 A3006 950 78 -1100 330/05 RMK AO2 SLP191 T10391072 TSNO
94908KDBQ DBQ20060211020010902/11/06 02:00:31  5-MIN KDBQ 110800Z AUTO 32006KT 10SM OVC023 M04/M07 A3006 950 78 -1100 320/06 RMK AO2 TSNO
94908KDBQ DBQ20060211020511602/11/06 02:05:31  5-MIN KDBQ 110805Z AUTO 32005KT 10SM BKN023 OVC050 M04/M07 A3006 950 78 -1100 320/05 RMK AO2 TSNO
94908KDBQ DBQ20060211021011602/11/06 02:10:31  5-MIN KDBQ 110810Z AUTO 33006KT 10SM BKN023 OVC050 M04/M07 A3006 950 78 -1100 330/06 RMK AO2 TSNO
94908KDBQ DBQ20060211021511602/11/06 02:15:31  5-MIN KDBQ 110815Z AUTO 33005KT 10SM BKN023 OVC050 M04/M07 A3006 950 78 -1100 330/05 RMK AO2 TSNO
94908KDBQ DBQ20060211022012302/11/06 02:20:31  5-MIN KDBQ 110820Z AUTO 32005KT 10SM FEW023 SCT028 OVC050 M04/M07 A3006 950 78 -1100 320/05 RMK AO2 TSNO
94908KDBQ DBQ20060211022513102/11/06 02:25:31  5-MIN KDBQ 110825Z AUTO 32005KT 9SM -SN SCT026 OVC050 M04/M07 A3006 950 78 -1100 320/05 RMK AO2 SNB24 P0000 TSNO
94908KDBQ DBQ20060211023013802/11/06 02:30:31  5-MIN KDBQ 110830Z AUTO 33007KT 8SM -SN SCT024 SCT030 OVC050 M04/M07 A3006 950 78 -1100 330/07 RMK AO2 SNB24 P0000 TSNO
94908KDBQ DBQ20060211023513802/11/06 02:35:31  5-MIN KDBQ 110835Z AUTO 33006KT 8SM -SN FEW024 SCT030 OVC050 M04/M07 A3006 950 78 -1000 330/06 RMK AO2 SNB24 P0000 TSNO
94908KDBQ DBQ20060211024013102/11/06 02:40:31  5-MIN KDBQ 110840Z AUTO 33007KT 8SM -SN FEW024 OVC050 M04/M07 A3006 950 78 -1100 330/07 RMK AO2 SNB24 P0000 TSNO
94908KDBQ DBQ20060211024513102/11/06 02:45:31  5-MIN KDBQ 110845Z AUTO 33007KT 9SM -SN FEW024 OVC050 M04/M07 A3006 950 81 -1100 330/07 RMK AO2 SNB24 P0000 TSNO
94908KDBQ DBQ20060211025015902/11/06 02:50:31  5-MIN KDBQ 110850Z AUTO 33006KT 9SM FEW024 OVC055 M04/M08 A3006 950 78 -1100 330/06 RMK AO2 SNB24E46 SLP191 P0000 60000 T10441078 51008 TSNO
94908KDBQ DBQ20060211025515302/11/06 02:55:31  5-MIN KDBQ 110855Z AUTO 32004KT 10SM OVC055 M04/M08 A3005 950 78 -1100 310/04 RMK AO2 SNB24E46 SLP190 P0000 60000 T10441078 58003 TSNO
94908KDBQ DBQ20060211030010902/11/06 03:00:31  5-MIN KDBQ 110900Z AUTO 31006KT 10SM OVC055 M04/M08 A3005 960 78 -1100 310/06 RMK AO2 TSNO
94908KDBQ DBQ20060211030510902/11/06 03:05:31  5-MIN KDBQ 110905Z AUTO 31006KT 10SM BKN055 M05/M08 A3006 950 81 -1200 310/06 RMK AO2 TSNO
94908KDBQ DBQ20060211031011602/11/06 03:10:31  5-MIN KDBQ 110910Z AUTO 28005KT 10SM SCT014 BKN055 M06/M08 A3006 950 84 -1300 280/05 RMK AO2 TSNO
94908KDBQ DBQ20060211031511602/11/06 03:15:31  5-MIN KDBQ 110915Z AUTO 28005KT 10SM BKN014 BKN055 M05/M08 A3006 950 81 -1200 280/05 RMK AO2 TSNO
94908KDBQ DBQ20060211032011602/11/06 03:20:31  5-MIN KDBQ 110920Z AUTO 30007KT 10SM BKN014 BKN055 M05/M08 A3005 960 81 -1200 300/07 RMK AO2 TSNO
94908KDBQ DBQ20060211032511602/11/06 03:25:31  5-MIN KDBQ 110925Z AUTO 29006KT 10SM BKN014 BKN055 M06/M08 A3005 960 81 -1300 290/06 RMK AO2 TSNO
94908KDBQ DBQ20060211033010902/11/06 03:30:31  5-MIN KDBQ 110930Z AUTO 29005KT 10SM OVC014 M06/M08 A3005 960 81 -1300 290/05 RMK AO2 TSNO
94908KDBQ DBQ20060211033510902/11/06 03:35:31  5-MIN KDBQ 110935Z AUTO 29005KT 10SM OVC012 M06/M08 A3005 960 81 -1300 290/05 RMK AO2 TSNO
94908KDBQ DBQ20060211034010902/11/06 03:40:31  5-MIN KDBQ 110940Z AUTO 29006KT 10SM BKN012 M06/M09 A3005 960 81 -1300 290/06 RMK AO2 TSNO
94908KDBQ DBQ20060211034510902/11/06 03:45:31  5-MIN KDBQ 110945Z AUTO 29007KT 10SM BKN012 M07/M09 A3005 960 84 -1400 290/07 RMK AO2 TSNO
94908KDBQ DBQ20060211035012602/11/06 03:50:31  5-MIN KDBQ 110950Z AUTO 29007KT 10SM BKN012 M06/M09 A3005 960 81 -1300 290/07 RMK AO2 SLP191 T10611089 TSNO
94908KDBQ DBQ20060211035513302/11/06 03:55:31  5-MIN KDBQ 110955Z AUTO 30007KT 10SM SCT012 BKN055 M06/M09 A3005 950 81 -1300 300/07 RMK AO2 SLP191 T10611089 TSNO
94908KDBQ DBQ20060211040011602/11/06 04:00:31  5-MIN KDBQ 111000Z AUTO 31006KT 10SM FEW012 BKN055 M06/M08 A3006 950 84 -1300 300/06 RMK AO2 TSNO
94908KDBQ DBQ20060211040511602/11/06 04:05:31  5-MIN KDBQ 111005Z AUTO 30006KT 10SM SCT014 BKN055 M06/M08 A3005 950 84 -1300 300/06 RMK AO2 TSNO
94908KDBQ DBQ20060211041011602/11/06 04:10:31  5-MIN KDBQ 111010Z AUTO 31005KT 10SM SCT014 BKN055 M06/M08 A3006 950 84 -1300 310/05 RMK AO2 TSNO
94908KDBQ DBQ20060211041511602/11/06 04:15:31  5-MIN KDBQ 111015Z AUTO 32006KT 10SM SCT014 BKN055 M06/M08 A3006 950 84 -1300 310/06 RMK AO2 TSNO
94908KDBQ DBQ20060211042011602/11/06 04:20:31  5-MIN KDBQ 111020Z AUTO 31006KT 10SM BKN014 BKN055 M06/M08 A3006 950 81 -1300 310/06 RMK AO2 TSNO
94908KDBQ DBQ20060211042511602/11/06 04:25:31  5-MIN KDBQ 111025Z AUTO 32004KT 10SM BKN012 BKN050 M06/M08 A3006 950 81 -1300 320/04 RMK AO2 TSNO
94908KDBQ DBQ20060211043011602/11/06 04:30:31  5-MIN KDBQ 111030Z AUTO 31005KT 10SM BKN012 BKN050 M06/M08 A3006 950 84 -1300 310/05 RMK AO2 TSNO
94908KDBQ DBQ20060211043510902/11/06 04:35:31  5-MIN KDBQ 111035Z AUTO 32004KT 10SM BKN012 M05/M08 A3006 940 81 -1200 320/04 RMK AO2 TSNO
94908KDBQ DBQ20060211044010902/11/06 04:40:31  5-MIN KDBQ 111040Z AUTO 31004KT 10SM OVC012 M05/M07 A3007 940 84 -1200 310/04 RMK AO2 TSNO
94908KDBQ DBQ20060211044510902/11/06 04:45:31  5-MIN KDBQ 111045Z AUTO 32004KT 10SM OVC012 M04/M07 A3007 940 81 -1100 320/04 RMK AO2 TSNO
94908KDBQ DBQ20060211045012602/11/06 04:50:31  5-MIN KDBQ 111050Z AUTO 32004KT 10SM OVC012 M04/M07 A3007 940 81 -1100 320/04 RMK AO2 SLP197 T10441072 TSNO
94908KDBQ DBQ20060211045512602/11/06 04:55:31  5-MIN KDBQ 111055Z AUTO 32003KT 10SM OVC012 M04/M07 A3007 940 81 -1100 320/03 RMK AO2 SLP197 T10441072 TSNO
94908KDBQ DBQ20060211050010902/11/06 05:00:31  5-MIN KDBQ 111100Z AUTO 00000KT 10SM OVC012 M04/M07 A3007 940 81 -1100 000/00 RMK AO2 TSNO
94908KDBQ DBQ20060211050510902/11/06 05:05:31  5-MIN KDBQ 111105Z AUTO 32003KT 10SM OVC012 M04/M07 A3007 940 84 -1100 320/03 RMK AO2 TSNO
94908KDBQ DBQ20060211051010902/11/06 05:10:31  5-MIN KDBQ 111110Z AUTO 29003KT 10SM OVC012 M04/M07 A3007 940 81 -1100 290/03 RMK AO2 TSNO
94908KDBQ DBQ20060211051510902/11/06 05:15:31  5-MIN KDBQ 111115Z AUTO 29003KT 10SM OVC012 M04/M07 A3007 940 81 -1100 280/03 RMK AO2 TSNO
94908KDBQ DBQ20060211052010902/11/06 05:20:31  5-MIN KDBQ 111120Z AUTO 31004KT 10SM OVC012 M04/M07 A3008 930 81 -1100 310/04 RMK AO2 TSNO
94908KDBQ DBQ20060211052510902/11/06 05:25:31  5-MIN KDBQ 111125Z AUTO 31005KT 10SM OVC012 M04/M07 A3008 930 81 -1100 310/05 RMK AO2 TSNO
94908KDBQ DBQ20060211053010902/11/06 05:30:31  5-MIN KDBQ 111130Z AUTO 31005KT 10SM OVC012 M04/M07 A3008 930 81 -1100 310/05 RMK AO2 TSNO
94908KDBQ DBQ20060211053510902/11/06 05:35:31  5-MIN KDBQ 111135Z AUTO 32005KT 10SM OVC012 M04/M07 A3008 930 81 -1100 310/05 RMK AO2 TSNO
94908KDBQ DBQ20060211054009902/11/06 05:40:31  5-MIN KDBQ 111140Z 33005KT 10SM OVC012 M04/M07 A3008 930 78 -1100 330/05 RMK AO2
94908KDBQ DBQ20060211054509902/11/06 05:45:31  5-MIN KDBQ 111145Z 34006KT 10SM OVC012 M04/M07 A3008 930 78 -1100 340/06 RMK AO2
94908KDBQ DBQ20060211055014602/11/06 05:50:31  5-MIN KDBQ 111150Z 34006KT 10SM OVC012 M04/M07 A3008 930 78 -1100 340/06 RMK AO2 SLP201 60000 7//// T10391072 11039 21067 58003
94908KDBQ DBQ20060211055514602/11/06 05:55:31  5-MIN KDBQ 111155Z 35005KT 10SM OVC012 M04/M07 A3008 930 78 -1100 350/05 RMK AO2 SLP201 60000 7//// T10391072 11039 21067 53009
94908KDBQ DBQ20060211060009902/11/06 06:00:31  5-MIN KDBQ 111200Z 35005KT 10SM OVC012 M04/M07 A3008 930 78 -1100 350/05 RMK AO2
94908KDBQ DBQ20060211060509902/11/06 06:05:31  5-MIN KDBQ 111205Z 35006KT 10SM OVC012 M04/M07 A3008 930 78 -1100 350/06 RMK AO2
94908KDBQ DBQ20060211061009902/11/06 06:10:31  5-MIN KDBQ 111210Z 36006KT 10SM OVC012 M04/M07 A3009 930 78 -1100 360/06 RMK AO2
94908KDBQ DBQ20060211061509902/11/06 06:15:31  5-MIN KDBQ 111215Z 36006KT 10SM OVC012 M04/M07 A3008 930 78 -1100 360/06 RMK AO2
94908KDBQ DBQ20060211062010602/11/06 06:20:31  5-MIN KDBQ 111220Z 01006KT 10SM BKN012 OVC060 M04/M07 A3008 930 78 -1100 360/06 RMK AO2
94908KDBQ DBQ20060211062510602/11/06 06:25:31  5-MIN KDBQ 111225Z 01006KT 10SM BKN012 OVC060 M04/M07 A3009 930 78 -1100 010/06 RMK AO2
94908KDBQ DBQ20060211063010602/11/06 06:30:31  5-MIN KDBQ 111230Z 01006KT 10SM BKN012 OVC060 M04/M07 A3009 920 78 -1100 010/06 RMK AO2
94908KDBQ DBQ20060211063510602/11/06 06:35:31  5-MIN KDBQ 111235Z 01007KT 10SM BKN012 OVC060 M04/M07 A3009 920 78 -1100 010/07 RMK AO2
94908KDBQ DBQ20060211064010602/11/06 06:40:31  5-MIN KDBQ 111240Z 02008KT 10SM BKN012 OVC060 M04/M07 A3009 920 78 -1100 020/08 RMK AO2
94908KDBQ DBQ20060211064511302/11/06 06:45:31  5-MIN KDBQ 111245Z 02008KT 10SM BKN012 BKN017 OVC060 M04/M07 A3009 920 78 -1100 020/08 RMK AO2
94908KDBQ DBQ20060211065013002/11/06 06:50:31  5-MIN KDBQ 111250Z 02006KT 10SM BKN012 BKN019 OVC060 M04/M07 A3009 920 81 -1100 020/06 RMK AO2 SLP204 T10391067
94908KDBQ DBQ20060211065513002/11/06 06:55:31  5-MIN KDBQ 111255Z 02006KT 10SM SCT012 BKN019 OVC060 M04/M07 A3009 920 81 -1100 010/06 RMK AO2 SLP203 T10391067
94908KDBQ DBQ20060211070011302/11/06 07:00:31  5-MIN KDBQ 111300Z 01005KT 10SM SCT012 BKN019 OVC060 M04/M07 A3009 920 81 -1100 010/05 RMK AO2
94908KDBQ DBQ20060211070511202/11/06 07:05:31  5-MIN KDBQ 111305Z 01005KT 9SM SCT012 BKN019 OVC050 M04/M07 A3009 920 81 -1100 010/05 RMK AO2
94908KDBQ DBQ20060211071011202/11/06 07:10:31  5-MIN KDBQ 111310Z 01005KT 9SM SCT012 BKN019 OVC060 M04/M07 A3009 920 81 -1100 010/05 RMK AO2
94908KDBQ DBQ20060211071511302/11/06 07:15:31  5-MIN KDBQ 111315Z 02005KT 10SM SCT012 BKN019 OVC060 M04/M07 A3009 920 81 -1100 020/05 RMK AO2
94908KDBQ DBQ20060211072011202/11/06 07:20:31  5-MIN KDBQ 111320Z 01005KT 9SM SCT012 BKN019 OVC060 M03/M07 A3009 920 78 -1000 010/05 RMK AO2
94908KDBQ DBQ20060211072511202/11/06 07:25:31  5-MIN KDBQ 111325Z 02005KT 8SM BKN012 BKN019 OVC060 M03/M07 A3009 920 78 -1000 020/05 RMK AO2
94908KDBQ DBQ20060211073011202/11/06 07:30:31  5-MIN KDBQ 111330Z 02006KT 8SM BKN010 BKN021 OVC060 M03/M07 A3010 920 78 -1000 020/06 RMK AO2
94908KDBQ DBQ20060211073511202/11/06 07:35:31  5-MIN KDBQ 111335Z 02006KT 8SM BKN010 BKN021 OVC065 M03/M06 A3010 910 81 -1000 010/06 RMK AO2
94908KDBQ DBQ20060211074010502/11/06 07:40:31  5-MIN KDBQ 111340Z 01006KT 8SM BKN010 OVC021 M03/M06 A3010 920 81 -1000 010/06 RMK AO2
94908KDBQ DBQ20060211074509802/11/06 07:45:31  5-MIN KDBQ 111345Z 02006KT 8SM OVC010 M03/M06 A3010 910 81 -1000 010/06 RMK AO2
94908KDBQ DBQ20060211075009802/11/06 07:50:31  5-MIN KDBQ 111350Z 03005KT 7SM OVC008 M03/M06 A3010 910 81 -1000 030/05 RMK AO2
94908KDBQ DBQ20060211075511502/11/06 07:55:31  5-MIN KDBQ 111355Z 03006KT 7SM OVC008 M03/M06 A3010 910 81 -1000 020/06 RMK AO2 SLP207 T10331061
94908KDBQ DBQ20060211080009802/11/06 08:00:31  5-MIN KDBQ 111400Z 02008KT 7SM OVC008 M03/M06 A3010 910 81 -1000 020/08 RMK AO2
94908KDBQ DBQ20060211080509802/11/06 08:05:31  5-MIN KDBQ 111405Z 02008KT 7SM OVC008 M03/M06 A3010 910 81 -1000 020/08 RMK AO2
94908KDBQ DBQ20060211081010102/11/06 08:10:31  5-MIN KDBQ 111410Z 02008KT 6SM BR OVC008 M03/M06 A3010 910 85 -1000 020/08 RMK AO2
94908KDBQ DBQ20060211081510102/11/06 08:15:31  5-MIN KDBQ 111415Z 02007KT 6SM BR OVC008 M03/M06 A3010 910 85 -1000 020/07 RMK AO2
94908KDBQ DBQ20060211082010802/11/06 08:20:31  5-MIN KDBQ 111420Z 03008KT 6SM BR BKN008 OVC013 M03/M06 A3010 910 85 -1000 030/08 RMK AO2
94908KDBQ DBQ20060211082510802/11/06 08:25:31  5-MIN KDBQ 111425Z 02006KT 6SM BR BKN008 OVC013 M03/M06 A3010 910 85 -1000 020/06 RMK AO2
94908KDBQ DBQ20060211083011502/11/06 08:30:31  5-MIN KDBQ 111430Z 03007KT 5SM BR BKN008 BKN013 OVC032 M03/M05 A3010 910 85 -1000 030/07 RMK AO2
94908KDBQ DBQ20060211083511502/11/06 08:35:31  5-MIN KDBQ 111435Z 03007KT 5SM BR BKN008 BKN013 OVC032 M03/M05 A3011 910 85 -1000 030/07 RMK AO2
94908KDBQ DBQ20060211084011502/11/06 08:40:31  5-MIN KDBQ 111440Z 03008KT 5SM BR SCT008 BKN013 OVC032 M03/M05 A3011 910 85 -1000 030/08 RMK AO2
94908KDBQ DBQ20060211084511502/11/06 08:45:31  5-MIN KDBQ 111445Z 03008KT 5SM BR SCT008 BKN011 OVC032 M03/M05 A3010 910 85 -1000 030/08 RMK AO2
94908KDBQ DBQ20060211085012002/11/06 08:50:31  5-MIN KDBQ 111450Z 03008KT 5SM BR BKN008 OVC032 M03/M05 A3011 910 85 -1000 030/08 RMK AO2 CIG 006V010
94908KDBQ DBQ20060211085514302/11/06 08:55:31  5-MIN KDBQ 111455Z 02008KT 5SM BR BKN008 OVC032 M03/M05 A3011 910 85 -1000 020/08 RMK AO2 CIG 006V010 SLP209 T10281050 52003
94908KDBQ DBQ20060211090012702/11/06 09:00:31  5-MIN KDBQ 111500Z 02008KT 5SM BR BKN008 BKN023 OVC032 M03/M05 A3011 910 85 -1000 020/08 RMK AO2 CIG 006V010
94908KDBQ DBQ20060211090512702/11/06 09:05:31  5-MIN KDBQ 111505Z 02008KT 5SM BR BKN008 BKN023 OVC034 M03/M05 A3011 910 85 -1000 020/08 RMK AO2 CIG 006V010
94908KDBQ DBQ20060211091012602/11/06 09:10:31  5-MIN KDBQ 111510Z 03010KT 5SM HZ BKN008 BKN023 OVC034 M02/M05 A3011 910 81 -900 020/10 RMK AO2 CIG 006V010
94908KDBQ DBQ20060211091511402/11/06 09:15:31  5-MIN KDBQ 111515Z 02009KT 5SM HZ SCT008 BKN023 OVC034 M02/M05 A3011 910 81 -900 020/09 RMK AO2
94908KDBQ DBQ20060211092011402/11/06 09:20:31  5-MIN KDBQ 111520Z 03008KT 5SM BR FEW008 SCT023 OVC034 M02/M04 A3011 900 85 -900 030/08 RMK AO2
94908KDBQ DBQ20060211092511402/11/06 09:25:31  5-MIN KDBQ 111525Z 02009KT 4SM BR FEW008 BKN023 OVC034 M02/M04 A3011 900 85 -900 020/09 RMK AO2
94908KDBQ DBQ20060211093011402/11/06 09:30:31  5-MIN KDBQ 111530Z 03008KT 4SM BR FEW008 BKN023 OVC034 M02/M04 A3011 900 85 -900 030/08 RMK AO2
94908KDBQ DBQ20060211093511402/11/06 09:35:31  5-MIN KDBQ 111535Z 03008KT 4SM BR FEW008 BKN013 OVC034 M02/M04 A3011 900 85 -900 030/08 RMK AO2
94908KDBQ DBQ20060211094011402/11/06 09:40:31  5-MIN KDBQ 111540Z 03008KT 4SM BR SCT008 BKN013 OVC034 M02/M04 A3011 900 85 -900 030/08 RMK AO2
94908KDBQ DBQ20060211094512602/11/06 09:45:31  5-MIN KDBQ 111545Z 02007KT 5SM BR BKN008 BKN013 OVC024 M02/M04 A3012 900 85 -900 020/07 RMK AO2 CIG 006V011
94908KDBQ DBQ20060211095013602/11/06 09:50:31  5-MIN KDBQ 111550Z 03007KT 5SM HZ BKN008 OVC013 M02/M05 A3011 900 81 -900 030/07 RMK AO2 CIG 006V012 SLP211 T10221050
94908KDBQ DBQ20060211095512402/11/06 09:55:31  5-MIN KDBQ 111555Z 03009KT 5SM BR SCT008 OVC011 M02/M04 A3012 900 85 -900 030/09 RMK AO2 SLP212 T10221044
94908KDBQ DBQ20060211100010702/11/06 10:00:31  5-MIN KDBQ 111600Z 03010KT 5SM HZ SCT008 OVC011 M02/M05 A3012 900 81 -900 020/10 RMK AO2
94908KDBQ DBQ20060211100510002/11/06 10:05:31  5-MIN KDBQ 111605Z 02008KT 5SM HZ OVC011 M02/M04 A3012 900 81 -800 020/08 RMK AO2
94908KDBQ DBQ20060211101010002/11/06 10:10:31  5-MIN KDBQ 111610Z 02010KT 5SM HZ OVC013 M02/M04 A3012 900 81 -800 020/10 RMK AO2
94908KDBQ DBQ20060211101510002/11/06 10:15:31  5-MIN KDBQ 111615Z 03009KT 4SM HZ OVC013 M02/M05 A3012 890 78 -800 030/09 RMK AO2
94908KDBQ DBQ20060211102010002/11/06 10:20:31  5-MIN KDBQ 111620Z 01009KT 4SM HZ OVC013 M02/M04 A3012 890 81 -800 010/09 RMK AO2
94908KDBQ DBQ20060211102510002/11/06 10:25:31  5-MIN KDBQ 111625Z 02008KT 4SM HZ OVC013 M01/M04 A3012 890 78 -800 010/08 RMK AO2
94908KDBQ DBQ20060211103010002/11/06 10:30:31  5-MIN KDBQ 111630Z 01009KT 4SM HZ OVC013 M01/M05 A3012 890 75 -800 010/09 RMK AO2
94908KDBQ DBQ20060211103510702/11/06 10:35:31  5-MIN KDBQ 111635Z 02010KT 4SM HZ BKN013 OVC019 M01/M05 A3013 890 75 -800 010/10 RMK AO2
94908KDBQ DBQ20060211104011402/11/06 10:40:31  5-MIN KDBQ 111640Z 02009KT 5SM HZ BKN013 BKN019 BKN042 M01/M05 A3013 890 75 -800 020/09 RMK AO2
94908KDBQ DBQ20060211104510702/11/06 10:45:31  5-MIN KDBQ 111645Z 03012KT 5SM HZ BKN015 BKN044 M01/M05 A3012 890 75 -800 030/12 RMK AO2
94908KDBQ DBQ20060211105010702/11/06 10:50:31  5-MIN KDBQ 111650Z 03010KT 5SM HZ BKN015 BKN044 M01/M05 A3013 890 72 -700 030/10 RMK AO2
94908KDBQ DBQ20060211105513102/11/06 10:55:31  5-MIN KDBQ 111655Z 03009KT 5SM HZ BKN015 BKN022 OVC044 M01/M05 A3013 890 72 -700 030/09 RMK AO2 SLP216 T10061050
94908KDBQ DBQ20060211110010602/11/06 11:00:31  5-MIN KDBQ 111700Z 01009KT 5SM HZ BKN017 OVC044 00/M05 A3013 880 69 -600 010/09 RMK AO2
94908KDBQ DBQ20060211110510702/11/06 11:05:31  5-MIN KDBQ 111705Z 02009KT 6SM HZ BKN017 OVC044 M01/M06 A3013 880 69 -700 020/09 RMK AO2
94908KDBQ DBQ20060211111010702/11/06 11:10:31  5-MIN KDBQ 111710Z 01010KT 6SM HZ BKN019 OVC044 M01/M06 A3013 880 69 -700 010/10 RMK AO2
94908KDBQ DBQ20060211111511402/11/06 11:15:31  5-MIN KDBQ 111715Z 03008KT 6SM HZ SCT019 BKN023 OVC044 M01/M06 A3013 880 69 -700 030/08 RMK AO2
94908KDBQ DBQ20060211112010302/11/06 11:20:31  5-MIN KDBQ 111720Z 02008KT 7SM BKN019 OVC044 00/M06 A3013 880 66 -600 010/08 RMK AO2
94908KDBQ DBQ20060211112510402/11/06 11:25:31  5-MIN KDBQ 111725Z 03008KT 7SM BKN019 OVC044 M01/M06 A3013 880 69 -700 020/08 RMK AO2
94908KDBQ DBQ20060211113011102/11/06 11:30:31  5-MIN KDBQ 111730Z 03010KT 7SM BKN019 BKN027 OVC044 M01/M07 A3013 880 63 -700 030/10 RMK AO2
94908KDBQ DBQ20060211113511102/11/06 11:35:31  5-MIN KDBQ 111735Z 01011KT 7SM FEW015 BKN019 OVC044 M01/M06 A3013 880 66 -700 360/11 RMK AO2
94908KDBQ DBQ20060211114011402/11/06 11:40:31  5-MIN KDBQ 111740Z 01010KT 5SM HZ BKN019 BKN027 OVC044 M01/M06 A3013 880 72 -800 010/10 RMK AO2
94908KDBQ DBQ20060211114511402/11/06 11:45:31  5-MIN KDBQ 111745Z 02009KT 5SM HZ BKN019 BKN027 OVC044 M01/M06 A3013 890 69 -700 020/09 RMK AO2
94908KDBQ DBQ20060211115014902/11/06 11:50:31  5-MIN KDBQ 111750Z 01009KT 5SM HZ BKN019 BKN027 OVC044 M01/M06 A3013 890 69 -700 010/09 RMK AO2 SLP216 T10061056 10000 21039 52003
94908KDBQ DBQ20060211115514902/11/06 11:55:31  5-MIN KDBQ 111755Z 01009KT 6SM HZ SCT016 BKN024 OVC044 M01/M06 A3013 890 69 -700 010/09 RMK AO2 SLP215 T10061056 10000 21039 50006
94908KDBQ DBQ20060211120011402/11/06 12:00:31  5-MIN KDBQ 111800Z 36008KT 6SM HZ SCT018 BKN025 OVC044 M01/M06 A3012 890 66 -700 360/08 RMK AO2
94908KDBQ DBQ20060211120511402/11/06 12:05:31  5-MIN KDBQ 111805Z 35008KT 6SM HZ SCT018 SCT023 OVC044 M01/M06 A3012 890 69 -800 350/08 RMK AO2
94908KDBQ DBQ20060211121011102/11/06 12:10:31  5-MIN KDBQ 111810Z 02007KT 7SM SCT018 BKN023 OVC044 M01/M06 A3012 900 66 -700 020/07 RMK AO2
94908KDBQ DBQ20060211121511102/11/06 12:15:31  5-MIN KDBQ 111815Z 04007KT 7SM SCT018 BKN023 OVC044 M01/M06 A3012 900 66 -700 040/07 RMK AO2
94908KDBQ DBQ20060211122011002/11/06 12:20:31  5-MIN KDBQ 111820Z 01009KT 8SM SCT018 BKN023 OVC044 00/M06 A3012 900 63 -600 010/09 RMK AO2
94908KDBQ DBQ20060211122511002/11/06 12:25:31  5-MIN KDBQ 111825Z 36008KT 7SM SCT018 BKN023 OVC044 00/M06 A3012 900 63 -600 360/08 RMK AO2
94908KDBQ DBQ20060211123011002/11/06 12:30:31  5-MIN KDBQ 111830Z 36008KT 7SM SCT018 BKN023 OVC044 00/M06 A3011 900 63 -600 360/08 RMK AO2
94908KDBQ DBQ20060211123511102/11/06 12:35:31  5-MIN KDBQ 111835Z 02010KT 7SM SCT018 BKN023 OVC044 M01/M06 A3011 900 66 -700 020/10 RMK AO2
94908KDBQ DBQ20060211124011002/11/06 12:40:31  5-MIN KDBQ 111840Z 36008KT 7SM SCT018 BKN023 OVC044 00/M06 A3011 900 66 -600 360/08 RMK AO2
94908KDBQ DBQ20060211124510402/11/06 12:45:31  5-MIN KDBQ 111845Z 01009KT 7SM BKN023 OVC048 M01/M07 A3011 900 63 -700 360/09 RMK AO2
94908KDBQ DBQ20060211125012002/11/06 12:50:31  5-MIN KDBQ 111850Z 01008KT 8SM BKN023 OVC048 00/M07 A3011 900 61 -600 010/08 RMK AO2 SLP210 T00001067
94908KDBQ DBQ20060211125512002/11/06 12:55:31  5-MIN KDBQ 111855Z 01008KT 8SM BKN023 OVC048 01/M06 A3011 900 61 -500 010/08 RMK AO2 SLP210 T00061061
94908KDBQ DBQ20060211130011002/11/06 13:00:31  5-MIN KDBQ 111900Z 36007KT 9SM BKN023 BKN030 OVC048 00/M07 A3011 900 61 -600 360/07 RMK AO2
94908KDBQ DBQ20060211130511102/11/06 13:05:31  5-MIN KDBQ 111905Z 35010KT 8SM BKN023 BKN032 OVC050 M01/M07 A3011 910 63 -700 350/10 RMK AO2
94908KDBQ DBQ20060211131010402/11/06 13:10:31  5-MIN KDBQ 111910Z 34010KT 7SM BKN023 OVC028 M01/M06 A3011 910 69 -800 340/10 RMK AO2
94908KDBQ DBQ20060211131511402/11/06 13:15:31  5-MIN KDBQ 111915Z 34010KT 6SM HZ BKN023 BKN030 OVC050 M01/M06 A3011 910 66 -700 340/10 RMK AO2
94908KDBQ DBQ20060211132011402/11/06 13:20:31  5-MIN KDBQ 111920Z 34009KT 6SM HZ SCT021 BKN027 OVC032 M01/M06 A3011 910 66 -700 340/09 RMK AO2
94908KDBQ DBQ20060211132511102/11/06 13:25:31  5-MIN KDBQ 111925Z 35010KT 7SM SCT021 BKN027 OVC032 M01/M06 A3011 910 66 -700 350/10 RMK AO2
94908KDBQ DBQ20060211133011102/11/06 13:30:31  5-MIN KDBQ 111930Z 01010KT 7SM BKN023 BKN029 OVC034 M01/M07 A3010 910 66 -800 010/10 RMK AO2
94908KDBQ DBQ20060211133510402/11/06 13:35:31  5-MIN KDBQ 111935Z 36009KT 7SM BKN023 OVC029 M01/M07 A3010 910 66 -700 360/09 RMK AO2
94908KDBQ DBQ20060211134010402/11/06 13:40:31  5-MIN KDBQ 111940Z 36008KT 8SM BKN023 OVC033 M01/M07 A3010 910 63 -700 360/08 RMK AO2
94908KDBQ DBQ20060211134510302/11/06 13:45:31  5-MIN KDBQ 111945Z 02008KT 9SM BKN025 OVC033 00/M07 A3010 910 61 -600 020/08 RMK AO2
94908KDBQ DBQ20060211135012102/11/06 13:50:31  5-MIN KDBQ 111950Z 01008KT 8SM BKN025 OVC030 M01/M07 A3010 910 63 -700 010/08 RMK AO2 SLP206 T10061067
94908KDBQ DBQ20060211135512102/11/06 13:55:31  5-MIN KDBQ 111955Z 01008KT 8SM BKN025 OVC030 M01/M07 A3010 910 61 -700 010/08 RMK AO2 SLP206 T10061072
94908KDBQ DBQ20060211140010402/11/06 14:00:31  5-MIN KDBQ 112000Z 01009KT 9SM BKN025 OVC033 M01/M07 A3010 920 61 -700 010/09 RMK AO2
94908KDBQ DBQ20060211140510402/11/06 14:05:31  5-MIN KDBQ 112005Z 36007KT 9SM BKN027 OVC033 M01/M07 A3009 920 61 -700 360/07 RMK AO2
94908KDBQ DBQ20060211141009702/11/06 14:10:31  5-MIN KDBQ 112010Z 34008KT 9SM OVC027 M01/M07 A3009 920 61 -700 340/08 RMK AO2
94908KDBQ DBQ20060211141509702/11/06 14:15:31  5-MIN KDBQ 112015Z 01006KT 9SM OVC027 M01/M07 A3009 920 63 -700 010/06 RMK AO2
94908KDBQ DBQ20060211142009702/11/06 14:20:31  5-MIN KDBQ 112020Z 36006KT 9SM OVC027 M01/M07 A3009 920 63 -700 360/06 RMK AO2
94908KDBQ DBQ20060211142510402/11/06 14:25:31  5-MIN KDBQ 112025Z 36008KT 9SM BKN027 OVC033 M01/M08 A3009 920 58 -700 360/08 RMK AO2
94908KDBQ DBQ20060211143009802/11/06 14:30:31  5-MIN KDBQ 112030Z 34010KT 10SM OVC027 M01/M08 A3009 920 58 -700 340/10 RMK AO2
94908KDBQ DBQ20060211143509802/11/06 14:35:31  5-MIN KDBQ 112035Z 35011KT 10SM OVC029 M01/M08 A3009 920 58 -700 350/11 RMK AO2
94908KDBQ DBQ20060211144009802/11/06 14:40:31  5-MIN KDBQ 112040Z 35010KT 10SM OVC029 M01/M08 A3009 920 60 -700 350/10 RMK AO2
94908KDBQ DBQ20060211144509802/11/06 14:45:31  5-MIN KDBQ 112045Z 34010KT 10SM OVC029 M01/M08 A3009 920 60 -700 340/10 RMK AO2
94908KDBQ DBQ20060211145012102/11/06 14:50:31  5-MIN KDBQ 112050Z 35009KT 10SM OVC029 M01/M08 A3009 920 60 -700 350/09 RMK AO2 SLP203 T10111078 50006
94908KDBQ DBQ20060211145512102/11/06 14:55:31  5-MIN KDBQ 112055Z 01008KT 10SM OVC031 M01/M08 A3009 920 58 -700 010/08 RMK AO2 SLP203 T10061078 56012
94908KDBQ DBQ20060211150009802/11/06 15:00:31  5-MIN KDBQ 112100Z 36007KT 10SM OVC031 M01/M08 A3009 920 58 -700 360/07 RMK AO2
94908KDBQ DBQ20060211150509802/11/06 15:05:31  5-MIN KDBQ 112105Z 01006KT 10SM OVC031 M01/M08 A3009 920 58 -700 010/06 RMK AO2
94908KDBQ DBQ20060211151009802/11/06 15:10:31  5-MIN KDBQ 112110Z 35008KT 10SM OVC031 M01/M08 A3009 920 60 -700 350/08 RMK AO2
94908KDBQ DBQ20060211151509802/11/06 15:15:31  5-MIN KDBQ 112115Z 36006KT 10SM OVC031 M01/M08 A3009 920 56 -700 360/06 RMK AO2
94908KDBQ DBQ20060211152009802/11/06 15:20:31  5-MIN KDBQ 112120Z 34009KT 10SM OVC033 M01/M08 A3009 920 56 -700 340/09 RMK AO2
94908KDBQ DBQ20060211152509802/11/06 15:25:31  5-MIN KDBQ 112125Z 34010KT 10SM OVC033 M01/M08 A3009 920 58 -700 340/10 RMK AO2
94908KDBQ DBQ20060211153009802/11/06 15:30:31  5-MIN KDBQ 112130Z 33011KT 10SM OVC033 M01/M08 A3009 920 58 -700 330/11 RMK AO2
94908KDBQ DBQ20060211153509802/11/06 15:35:31  5-MIN KDBQ 112135Z 34009KT 10SM OVC035 M01/M08 A3009 920 58 -700 340/09 RMK AO2
94908KDBQ DBQ20060211154009802/11/06 15:40:31  5-MIN KDBQ 112140Z 33011KT 10SM OVC035 M01/M08 A3009 920 56 -700 330/11 RMK AO2
94908KDBQ DBQ20060211154509802/11/06 15:45:31  5-MIN KDBQ 112145Z 33012KT 10SM OVC035 M01/M08 A3009 920 58 -700 330/12 RMK AO2
94908KDBQ DBQ20060211155011502/11/06 15:50:31  5-MIN KDBQ 112150Z 33011KT 10SM OVC035 M01/M08 A3009 920 58 -700 330/11 RMK AO2 SLP205 T10111083
94908KDBQ DBQ20060211155511502/11/06 15:55:31  5-MIN KDBQ 112155Z 33010KT 10SM OVC035 M01/M08 A3009 920 60 -700 330/10 RMK AO2 SLP205 T10111078
94908KDBQ DBQ20060211160009802/11/06 16:00:31  5-MIN KDBQ 112200Z 34011KT 10SM OVC037 M01/M08 A3009 920 60 -700 340/11 RMK AO2
94908KDBQ DBQ20060211160509802/11/06 16:05:31  5-MIN KDBQ 112205Z 34010KT 10SM OVC037 M01/M08 A3009 920 58 -700 340/10 RMK AO2
94908KDBQ DBQ20060211161009802/11/06 16:10:31  5-MIN KDBQ 112210Z 35008KT 10SM OVC039 M01/M08 A3009 920 60 -700 350/08 RMK AO2
94908KDBQ DBQ20060211161509702/11/06 16:15:31  5-MIN KDBQ 112215Z 32008KT 9SM OVC041 M01/M08 A3009 920 60 -700 320/08 RMK AO2
94908KDBQ DBQ20060211162010402/11/06 16:20:31  5-MIN KDBQ 112220Z 32011KT 9SM FEW032 OVC043 M01/M08 A3009 920 60 -700 320/11 RMK AO2
94908KDBQ DBQ20060211162510402/11/06 16:25:31  5-MIN KDBQ 112225Z 34009KT 9SM SCT030 OVC043 M01/M08 A3009 920 60 -700 340/09 RMK AO2
94908KDBQ DBQ20060211163010402/11/06 16:30:31  5-MIN KDBQ 112230Z 34010KT 9SM FEW030 OVC043 M01/M08 A3009 920 60 -700 340/10 RMK AO2
94908KDBQ DBQ20060211163510402/11/06 16:35:31  5-MIN KDBQ 112235Z 32011KT 8SM FEW030 OVC043 M02/M07 A3009 920 66 -800 320/11 RMK AO2
94908KDBQ DBQ20060211164010702/11/06 16:40:31  5-MIN KDBQ 112240Z 33010KT 6SM HZ SCT028 OVC043 M02/M07 A3009 920 66 -800 330/10 RMK AO2
94908KDBQ DBQ20060211164510702/11/06 16:45:31  5-MIN KDBQ 112245Z 33006KT 6SM HZ FEW028 OVC043 M02/M07 A3009 920 66 -800 330/06 RMK AO2
94908KDBQ DBQ20060211165012102/11/06 16:50:31  5-MIN KDBQ 112250Z 34007KT 8SM FEW028 OVC043 M02/M07 A3009 930 66 -800 340/07 RMK AO2 SLP203 T10171072
94908KDBQ DBQ20060211165512102/11/06 16:55:31  5-MIN KDBQ 112255Z 33006KT 8SM FEW028 OVC043 M02/M07 A3008 930 66 -800 330/06 RMK AO2 SLP202 T10171072
94908KDBQ DBQ20060211170010402/11/06 17:00:31  5-MIN KDBQ 112300Z 34007KT 8SM FEW034 OVC043 M02/M07 A3008 930 66 -800 340/07 RMK AO2
94908KDBQ DBQ20060211170510402/11/06 17:05:31  5-MIN KDBQ 112305Z 34008KT 8SM FEW034 OVC043 M02/M07 A3008 930 69 -900 340/08 RMK AO2
94908KDBQ DBQ20060211171010402/11/06 17:10:31  5-MIN KDBQ 112310Z 34007KT 8SM FEW034 OVC043 M02/M07 A3008 930 69 -900 340/07 RMK AO2
94908KDBQ DBQ20060211171509702/11/06 17:15:31  5-MIN KDBQ 112315Z 35007KT 8SM OVC041 M02/M07 A3008 930 69 -900 350/07 RMK AO2
94908KDBQ DBQ20060211172009702/11/06 17:20:31  5-MIN KDBQ 112320Z 34006KT 8SM OVC041 M02/M07 A3008 930 69 -900 340/06 RMK AO2
94908KDBQ DBQ20060211172509702/11/06 17:25:31  5-MIN KDBQ 112325Z 34007KT 8SM OVC041 M02/M07 A3008 930 69 -900 340/07 RMK AO2
94908KDBQ DBQ20060211173009702/11/06 17:30:31  5-MIN KDBQ 112330Z 34006KT 8SM OVC041 M02/M07 A3008 930 69 -900 340/06 RMK AO2
94908KDBQ DBQ20060211173509702/11/06 17:35:31  5-MIN KDBQ 112335Z 33006KT 8SM OVC041 M02/M07 A3008 930 69 -900 330/06 RMK AO2
94908KDBQ DBQ20060211174009702/11/06 17:40:31  5-MIN KDBQ 112340Z 32006KT 9SM OVC039 M02/M07 A3009 920 69 -900 320/06 RMK AO2
94908KDBQ DBQ20060211174509802/11/06 17:45:31  5-MIN KDBQ 112345Z 31006KT 10SM OVC039 M02/M07 A3009 920 69 -900 310/06 RMK AO2
94908KDBQ DBQ20060211175013302/11/06 17:50:31  5-MIN KDBQ 112350Z 32005KT 10SM OVC041 M02/M08 A3009 930 66 -900 320/05 RMK AO2 SLP203 T10221078 10006 21022 56012
94908KDBQ DBQ20060211175513302/11/06 17:55:31  5-MIN KDBQ 112355Z 31006KT 10SM OVC041 M02/M08 A3009 930 66 -900 310/06 RMK AO2 SLP203 T10221078 10006 21022 57001
94908KDBQ DBQ20060211180010502/11/06 18:00:31  5-MIN KDBQ 120000Z 31007KT 10SM FEW033 OVC041 M02/M08 A3009 920 66 -900 310/07 RMK AO2
94908KDBQ DBQ20060211180509802/11/06 18:05:31  5-MIN KDBQ 120005Z 32009KT 10SM OVC041 M02/M08 A3009 920 66 -900 320/09 RMK AO2
94908KDBQ DBQ20060211181009802/11/06 18:10:31  5-MIN KDBQ 120010Z 33009KT 10SM OVC041 M02/M08 A3009 920 60 -800 330/09 RMK AO2
94908KDBQ DBQ20060211181509802/11/06 18:15:31  5-MIN KDBQ 120015Z 33009KT 10SM OVC041 M02/M08 A3009 920 63 -900 320/09 RMK AO2
94908KDBQ DBQ20060211182009802/11/06 18:20:31  5-MIN KDBQ 120020Z 33008KT 10SM OVC041 M02/M08 A3009 920 63 -900 330/08 RMK AO2
94908KDBQ DBQ20060211182509802/11/06 18:25:31  5-MIN KDBQ 120025Z 33007KT 10SM OVC041 M02/M08 A3009 930 63 -900 320/07 RMK AO2
94908KDBQ DBQ20060211183009802/11/06 18:30:31  5-MIN KDBQ 120030Z 33007KT 10SM OVC041 M02/M08 A3009 930 63 -900 330/07 RMK AO2
94908KDBQ DBQ20060211183509802/11/06 18:35:31  5-MIN KDBQ 120035Z 33009KT 10SM OVC041 M02/M09 A3008 930 58 -800 330/09 RMK AO2
94908KDBQ DBQ20060211184009802/11/06 18:40:31  5-MIN KDBQ 120040Z 33009KT 10SM OVC041 M02/M08 A3009 930 63 -900 320/09 RMK AO2
94908KDBQ DBQ20060211184509802/11/06 18:45:31  5-MIN KDBQ 120045Z 33011KT 10SM OVC041 M02/M09 A3008 930 60 -900 330/11 RMK AO2
94908KDBQ DBQ20060211185011502/11/06 18:50:31  5-MIN KDBQ 120050Z 32009KT 10SM OVC039 M02/M09 A3008 930 58 -800 320/09 RMK AO2 SLP202 T10171089
94908KDBQ DBQ20060211185511502/11/06 18:55:31  5-MIN KDBQ 120055Z 32009KT 10SM OVC039 M02/M09 A3008 930 58 -800 320/09 RMK AO2 SLP202 T10171089
94908KDBQ DBQ20060211190009802/11/06 19:00:31  5-MIN KDBQ 120100Z 32007KT 10SM OVC039 M02/M08 A3008 930 63 -900 320/07 RMK AO2
94908KDBQ DBQ20060211190509802/11/06 19:05:31  5-MIN KDBQ 120105Z 32007KT 10SM OVC039 M02/M08 A3008 930 63 -900 320/07 RMK AO2
94908KDBQ DBQ20060211191009802/11/06 19:10:31  5-MIN KDBQ 120110Z 32007KT 10SM OVC039 M02/M08 A3008 930 63 -900 320/07 RMK AO2
94908KDBQ DBQ20060211191509802/11/06 19:15:31  5-MIN KDBQ 120115Z 32006KT 10SM OVC039 M02/M08 A3008 930 63 -900 320/06 RMK AO2
94908KDBQ DBQ20060211192009802/11/06 19:20:31  5-MIN KDBQ 120120Z 32007KT 10SM OVC039 M02/M08 A3008 930 63 -900 320/07 RMK AO2
94908KDBQ DBQ20060211192509802/11/06 19:25:31  5-MIN KDBQ 120125Z 32007KT 10SM OVC039 M02/M08 A3008 930 63 -900 320/07 RMK AO2
94908KDBQ DBQ20060211193009802/11/06 19:30:31  5-MIN KDBQ 120130Z 32007KT 10SM OVC039 M02/M08 A3008 930 63 -900 320/07 RMK AO2
94908KDBQ DBQ20060211193510802/11/06 19:35:31  5-MIN KDBQ 120135Z AUTO 32006KT 10SM OVC041 M02/M08 A3008 930 66 -900 310/06 RMK AO2 TSNO
94908KDBQ DBQ20060211194010802/11/06 19:40:31  5-MIN KDBQ 120140Z AUTO 32006KT 10SM OVC041 M02/M08 A3008 930 66 -900 320/06 RMK AO2 TSNO
94908KDBQ DBQ20060211194510802/11/06 19:45:31  5-MIN KDBQ 120145Z AUTO 31005KT 10SM OVC041 M02/M08 A3008 930 66 -900 310/05 RMK AO2 TSNO
94908KDBQ DBQ20060211195012502/11/06 19:50:31  5-MIN KDBQ 120150Z AUTO 31006KT 10SM OVC041 M02/M08 A3008 930 66 -900 310/06 RMK AO2 SLP200 T10221078 TSNO
94908KDBQ DBQ20060211195512502/11/06 19:55:31  5-MIN KDBQ 120155Z AUTO 31005KT 10SM OVC041 M02/M08 A3008 930 66 -900 310/05 RMK AO2 SLP200 T10221078 TSNO
94908KDBQ DBQ20060211200010802/11/06 20:00:31  5-MIN KDBQ 120200Z AUTO 32006KT 10SM OVC041 M02/M08 A3008 930 66 -900 320/06 RMK AO2 TSNO
94908KDBQ DBQ20060211200510802/11/06 20:05:31  5-MIN KDBQ 120205Z AUTO 31006KT 10SM OVC041 M02/M08 A3008 930 66 -900 310/06 RMK AO2 TSNO
94908KDBQ DBQ20060211201010802/11/06 20:10:31  5-MIN KDBQ 120210Z AUTO 31006KT 10SM OVC041 M02/M08 A3007 940 66 -900 310/06 RMK AO2 TSNO
94908KDBQ DBQ20060211201510802/11/06 20:15:31  5-MIN KDBQ 120215Z AUTO 31008KT 10SM OVC039 M02/M08 A3008 930 66 -900 310/08 RMK AO2 TSNO
94908KDBQ DBQ20060211202010802/11/06 20:20:31  5-MIN KDBQ 120220Z AUTO 32010KT 10SM OVC039 M02/M08 A3008 930 66 -900 320/10 RMK AO2 TSNO
94908KDBQ DBQ20060211202510802/11/06 20:25:31  5-MIN KDBQ 120225Z AUTO 32008KT 10SM OVC039 M02/M08 A3008 930 66 -900 320/08 RMK AO2 TSNO
94908KDBQ DBQ20060211203010802/11/06 20:30:31  5-MIN KDBQ 120230Z AUTO 32011KT 10SM OVC039 M02/M08 A3008 930 66 -900 320/11 RMK AO2 TSNO
94908KDBQ DBQ20060211203510802/11/06 20:35:31  5-MIN KDBQ 120235Z AUTO 32009KT 10SM OVC039 M02/M08 A3008 930 66 -900 320/09 RMK AO2 TSNO
94908KDBQ DBQ20060211204010802/11/06 20:40:31  5-MIN KDBQ 120240Z AUTO 32008KT 10SM OVC039 M02/M08 A3008 930 66 -900 320/08 RMK AO2 TSNO
94908KDBQ DBQ20060211204510802/11/06 20:45:31  5-MIN KDBQ 120245Z AUTO 32007KT 10SM OVC039 M02/M08 A3008 930 66 -900 320/07 RMK AO2 TSNO
94908KDBQ DBQ20060211205013102/11/06 20:50:31  5-MIN KDBQ 120250Z AUTO 32010KT 10SM OVC041 M02/M08 A3008 930 66 -900 320/10 RMK AO2 SLP199 T10221078 57001 TSNO
94908KDBQ DBQ20060211205513102/11/06 20:55:31  5-MIN KDBQ 120255Z AUTO 33010KT 10SM OVC041 M02/M08 A3008 940 66 -900 330/10 RMK AO2 SLP198 T10221078 57003 TSNO
94908KDBQ DBQ20060211210010802/11/06 21:00:31  5-MIN KDBQ 120300Z AUTO 33009KT 10SM OVC041 M02/M08 A3007 940 66 -900 330/09 RMK AO2 TSNO
94908KDBQ DBQ20060211210510802/11/06 21:05:31  5-MIN KDBQ 120305Z AUTO 33011KT 10SM OVC041 M02/M08 A3008 930 66 -900 330/11 RMK AO2 TSNO
94908KDBQ DBQ20060211211010802/11/06 21:10:31  5-MIN KDBQ 120310Z AUTO 33010KT 10SM OVC041 M02/M08 A3008 930 63 -900 330/10 RMK AO2 TSNO
94908KDBQ DBQ20060211211510802/11/06 21:15:31  5-MIN KDBQ 120315Z AUTO 32008KT 10SM OVC041 M03/M08 A3008 940 68 -900 320/08 RMK AO2 TSNO
94908KDBQ DBQ20060211212010802/11/06 21:20:31  5-MIN KDBQ 120320Z AUTO 32011KT 10SM OVC041 M03/M08 A3007 940 68 -900 320/11 RMK AO2 TSNO
94908KDBQ DBQ20060211212510802/11/06 21:25:31  5-MIN KDBQ 120325Z AUTO 32011KT 10SM OVC041 M03/M08 A3007 940 68 -900 320/11 RMK AO2 TSNO
94908KDBQ DBQ20060211213010802/11/06 21:30:31  5-MIN KDBQ 120330Z AUTO 33012KT 10SM OVC041 M03/M08 A3007 940 68 -900 330/12 RMK AO2 TSNO
94908KDBQ DBQ20060211213510802/11/06 21:35:31  5-MIN KDBQ 120335Z AUTO 32011KT 10SM OVC041 M03/M08 A3007 940 68 -900 320/11 RMK AO2 TSNO
94908KDBQ DBQ20060211214010802/11/06 21:40:31  5-MIN KDBQ 120340Z AUTO 32010KT 10SM OVC043 M03/M08 A3007 940 68 -900 320/10 RMK AO2 TSNO
94908KDBQ DBQ20060211214510802/11/06 21:45:31  5-MIN KDBQ 120345Z AUTO 32008KT 10SM OVC043 M03/M08 A3007 940 68 -900 320/08 RMK AO2 TSNO
94908KDBQ DBQ20060211215012502/11/06 21:50:31  5-MIN KDBQ 120350Z AUTO 31009KT 10SM OVC043 M03/M08 A3007 940 68 -900 310/09 RMK AO2 SLP197 T10281078 TSNO
94908KDBQ DBQ20060211215512502/11/06 21:55:31  5-MIN KDBQ 120355Z AUTO 32010KT 10SM OVC043 M03/M08 A3007 940 68 -900 320/10 RMK AO2 SLP196 T10281078 TSNO
94908KDBQ DBQ20060211220010802/11/06 22:00:31  5-MIN KDBQ 120400Z AUTO 33009KT 10SM OVC043 M03/M08 A3007 940 68 -900 330/09 RMK AO2 TSNO
94908KDBQ DBQ20060211220510902/11/06 22:05:31  5-MIN KDBQ 120405Z AUTO 31008KT 10SM OVC043 M03/M08 A3007 940 71 -1000 310/08 RMK AO2 TSNO
94908KDBQ DBQ20060211221010902/11/06 22:10:31  5-MIN KDBQ 120410Z AUTO 31006KT 10SM OVC043 M03/M08 A3007 940 71 -1000 310/06 RMK AO2 TSNO
94908KDBQ DBQ20060211221510902/11/06 22:15:31  5-MIN KDBQ 120415Z AUTO 31010KT 10SM OVC043 M03/M08 A3007 940 71 -1000 310/10 RMK AO2 TSNO
94908KDBQ DBQ20060211222010902/11/06 22:20:31  5-MIN KDBQ 120420Z AUTO 31009KT 10SM OVC043 M03/M08 A3007 940 71 -1000 310/09 RMK AO2 TSNO
94908KDBQ DBQ20060211222510902/11/06 22:25:31  5-MIN KDBQ 120425Z AUTO 31009KT 10SM OVC043 M03/M08 A3007 940 71 -1000 310/09 RMK AO2 TSNO
94908KDBQ DBQ20060211223010902/11/06 22:30:31  5-MIN KDBQ 120430Z AUTO 33009KT 10SM OVC043 M03/M08 A3006 950 71 -1000 330/09 RMK AO2 TSNO
94908KDBQ DBQ20060211223510902/11/06 22:35:31  5-MIN KDBQ 120435Z AUTO 31009KT 10SM OVC043 M03/M08 A3006 950 71 -1000 310/09 RMK AO2 TSNO
94908KDBQ DBQ20060211224010902/11/06 22:40:31  5-MIN KDBQ 120440Z AUTO 32009KT 10SM OVC043 M03/M08 A3007 940 71 -1000 320/09 RMK AO2 TSNO
94908KDBQ DBQ20060211224510902/11/06 22:45:31  5-MIN KDBQ 120445Z AUTO 32009KT 10SM OVC043 M03/M08 A3006 950 71 -1000 320/09 RMK AO2 TSNO
94908KDBQ DBQ20060211225012602/11/06 22:50:31  5-MIN KDBQ 120450Z AUTO 32009KT 10SM OVC043 M03/M08 A3006 950 71 -1000 320/09 RMK AO2 SLP194 T10331078 TSNO
94908KDBQ DBQ20060211225512602/11/06 22:55:31  5-MIN KDBQ 120455Z AUTO 32009KT 10SM OVC043 M03/M08 A3006 950 71 -1000 320/09 RMK AO2 SLP193 T10331078 TSNO
94908KDBQ DBQ20060211230010902/11/06 23:00:31  5-MIN KDBQ 120500Z AUTO 30010KT 10SM OVC043 M03/M08 A3006 950 71 -1000 300/10 RMK AO2 TSNO
94908KDBQ DBQ20060211230510902/11/06 23:05:31  5-MIN KDBQ 120505Z AUTO 31010KT 10SM OVC043 M03/M08 A3006 950 71 -1000 310/10 RMK AO2 TSNO
94908KDBQ DBQ20060211231010902/11/06 23:10:31  5-MIN KDBQ 120510Z AUTO 31010KT 10SM OVC043 M04/M08 A3006 950 74 -1100 310/10 RMK AO2 TSNO
94908KDBQ DBQ20060211231510902/11/06 23:15:31  5-MIN KDBQ 120515Z AUTO 31010KT 10SM OVC043 M04/M08 A3006 950 74 -1000 310/10 RMK AO2 TSNO
94908KDBQ DBQ20060211232010902/11/06 23:20:31  5-MIN KDBQ 120520Z AUTO 31009KT 10SM OVC043 M04/M08 A3006 950 74 -1000 310/09 RMK AO2 TSNO
94908KDBQ DBQ20060211232510902/11/06 23:25:31  5-MIN KDBQ 120525Z AUTO 31010KT 10SM OVC043 M04/M08 A3005 950 71 -1000 310/10 RMK AO2 TSNO
94908KDBQ DBQ20060211233010902/11/06 23:30:31  5-MIN KDBQ 120530Z AUTO 31010KT 10SM OVC043 M04/M08 A3005 960 71 -1000 310/10 RMK AO2 TSNO
94908KDBQ DBQ20060211233510902/11/06 23:35:31  5-MIN KDBQ 120535Z AUTO 31009KT 10SM OVC043 M04/M08 A3005 960 71 -1000 310/09 RMK AO2 TSNO
94908KDBQ DBQ20060211234010902/11/06 23:40:31  5-MIN KDBQ 120540Z AUTO 31011KT 10SM OVC043 M04/M09 A3005 960 68 -1000 310/11 RMK AO2 TSNO
94908KDBQ DBQ20060211234510902/11/06 23:45:31  5-MIN KDBQ 120545Z AUTO 31010KT 10SM OVC043 M04/M09 A3005 960 71 -1100 310/10 RMK AO2 TSNO
94908KDBQ DBQ20060211235015402/11/06 23:50:31  5-MIN KDBQ 120550Z AUTO 31010KT 10SM OVC043 M04/M09 A3005 960 71 -1100 310/10 RMK AO2 SLP189 T10441089 11017 21044 400061067 57003 TSNO
94908KDBQ DBQ20060211235515402/11/06 23:55:31  5-MIN KDBQ 120555Z AUTO 32010KT 10SM OVC043 M04/M09 A3005 960 71 -1100 320/10 RMK AO2 SLP189 T10441089 11017 21044 400061067 58009 TSNO
94908KDBQ DBQ20060212000010902/12/06 00:00:38  5-MIN KDBQ 120600Z AUTO 31008KT 10SM OVC043 M04/M09 A3005 960 71 -1100 310/08 RMK AO2 TSNO
94908KDBQ DBQ20060212000510902/12/06 00:05:31  5-MIN KDBQ 120605Z AUTO 30007KT 10SM OVC043 M05/M09 A3004 960 74 -1200 300/07 RMK AO2 TSNO
94908KDBQ DBQ20060212001010902/12/06 00:10:31  5-MIN KDBQ 120610Z AUTO 31009KT 10SM OVC043 M05/M09 A3004 970 74 -1200 300/09 RMK AO2 TSNO
94908KDBQ DBQ20060212001510902/12/06 00:15:32  5-MIN KDBQ 120615Z AUTO 31010KT 10SM OVC041 M06/M09 A3004 970 77 -1200 300/10 RMK AO2 TSNO
94908KDBQ DBQ20060212002010902/12/06 00:20:31  5-MIN KDBQ 120620Z AUTO 31013KT 10SM OVC041 M06/M09 A3004 970 74 -1200 310/13 RMK AO2 TSNO
94908KDBQ DBQ20060212002510902/12/06 00:25:31  5-MIN KDBQ 120625Z AUTO 31011KT 10SM OVC041 M06/M09 A3004 970 74 -1200 310/11 RMK AO2 TSNO
94908KDBQ DBQ20060212003010902/12/06 00:30:31  5-MIN KDBQ 120630Z AUTO 31011KT 10SM OVC041 M06/M09 A3004 970 74 -1200 310/11 RMK AO2 TSNO
94908KDBQ DBQ20060212003510902/12/06 00:35:31  5-MIN KDBQ 120635Z AUTO 32010KT 10SM OVC041 M06/M09 A3004 970 77 -1300 320/10 RMK AO2 TSNO
94908KDBQ DBQ20060212004010902/12/06 00:40:31  5-MIN KDBQ 120640Z AUTO 31010KT 10SM OVC041 M06/M10 A3004 970 74 -1300 310/10 RMK AO2 TSNO
94908KDBQ DBQ20060212004510902/12/06 00:45:31  5-MIN KDBQ 120645Z AUTO 31008KT 10SM OVC041 M07/M10 A3004 970 77 -1400 310/08 RMK AO2 TSNO
94908KDBQ DBQ20060212005012602/12/06 00:50:31  5-MIN KDBQ 120650Z AUTO 31009KT 10SM OVC041 M07/M10 A3004 970 77 -1400 310/09 RMK AO2 SLP187 T10671100 TSNO
94908KDBQ DBQ20060212005512602/12/06 00:55:31  5-MIN KDBQ 120655Z AUTO 31008KT 10SM BKN041 M07/M10 A3004 970 77 -1400 310/08 RMK AO2 SLP187 T10671100 TSNO
94908KDBQ DBQ20060212010010902/12/06 01:00:31  5-MIN KDBQ 120700Z AUTO 31010KT 10SM BKN041 M07/M10 A3004 970 81 -1500 310/10 RMK AO2 TSNO
94908KDBQ DBQ20060212010510902/12/06 01:05:31  5-MIN KDBQ 120705Z AUTO 31009KT 10SM SCT041 M07/M10 A3003 970 81 -1500 310/09 RMK AO2 TSNO
94908KDBQ DBQ20060212011010902/12/06 01:10:31  5-MIN KDBQ 120710Z AUTO 31009KT 10SM FEW041 M07/M10 A3004 970 81 -1500 310/09 RMK AO2 TSNO
94908KDBQ DBQ20060212011510902/12/06 01:15:31  5-MIN KDBQ 120715Z AUTO 31010KT 10SM FEW041 M07/M10 A3003 970 81 -1500 310/10 RMK AO2 TSNO
94908KDBQ DBQ20060212012010602/12/06 01:20:31  5-MIN KDBQ 120720Z AUTO 32012KT 10SM CLR M07/M10 A3003 970 81 -1500 310/12 RMK AO2 TSNO
94908KDBQ DBQ20060212012510602/12/06 01:25:31  5-MIN KDBQ 120725Z AUTO 31010KT 10SM CLR M07/M10 A3003 980 81 -1400 310/10 RMK AO2 TSNO
94908KDBQ DBQ20060212013010602/12/06 01:30:31  5-MIN KDBQ 120730Z AUTO 30012KT 10SM CLR M08/M11 A3003 980 80 -1500 300/12 RMK AO2 TSNO
94908KDBQ DBQ20060212013510602/12/06 01:35:31  5-MIN KDBQ 120735Z AUTO 31011KT 10SM CLR M08/M10 A3003 980 84 -1500 310/11 RMK AO2 TSNO
94908KDBQ DBQ20060212014010902/12/06 01:40:31  5-MIN KDBQ 120740Z AUTO 31012KT 10SM FEW042 M08/M10 A3003 980 84 -1500 310/12 RMK AO2 TSNO
94908KDBQ DBQ20060212014510902/12/06 01:45:31  5-MIN KDBQ 120745Z AUTO 31010KT 10SM SCT042 M08/M10 A3003 980 84 -1500 310/10 RMK AO2 TSNO
94908KDBQ DBQ20060212015012602/12/06 01:50:31  5-MIN KDBQ 120750Z AUTO 31012KT 10SM BKN042 M08/M10 A3003 980 84 -1500 310/12 RMK AO2 SLP185 T10781100 TSNO
94908KDBQ DBQ20060212015512602/12/06 01:55:31  5-MIN KDBQ 120755Z AUTO 31012KT 10SM BKN042 M08/M10 A3003 980 84 -1500 310/12 RMK AO2 SLP185 T10781100 TSNO
94908KDBQ DBQ20060212020010902/12/06 02:00:31  5-MIN KDBQ 120800Z AUTO 32012KT 10SM BKN042 M08/M10 A3003 980 84 -1500 310/12 RMK AO2 TSNO
94908KDBQ DBQ20060212020510902/12/06 02:05:31  5-MIN KDBQ 120805Z AUTO 32012KT 10SM OVC042 M08/M11 A3003 980 80 -1500 320/12 RMK AO2 TSNO
94908KDBQ DBQ20060212021010902/12/06 02:10:31  5-MIN KDBQ 120810Z AUTO 31010KT 10SM OVC042 M08/M10 A3003 980 84 -1500 310/10 RMK AO2 TSNO
94908KDBQ DBQ20060212021510902/12/06 02:15:31  5-MIN KDBQ 120815Z AUTO 31011KT 10SM OVC042 M08/M10 A3003 980 84 -1500 310/11 RMK AO2 TSNO
94908KDBQ DBQ20060212022010902/12/06 02:20:31  5-MIN KDBQ 120820Z AUTO 31011KT 10SM OVC042 M08/M10 A3003 980 84 -1500 310/11 RMK AO2 TSNO
94908KDBQ DBQ20060212022510902/12/06 02:25:31  5-MIN KDBQ 120825Z AUTO 32010KT 10SM OVC042 M08/M10 A3003 980 84 -1500 320/10 RMK AO2 TSNO
94908KDBQ DBQ20060212023010902/12/06 02:30:31  5-MIN KDBQ 120830Z AUTO 31011KT 10SM OVC042 M08/M10 A3002 980 84 -1500 310/11 RMK AO2 TSNO
94908KDBQ DBQ20060212023510902/12/06 02:35:31  5-MIN KDBQ 120835Z AUTO 31011KT 10SM OVC042 M08/M10 A3002 980 84 -1500 310/11 RMK AO2 TSNO
94908KDBQ DBQ20060212024010902/12/06 02:40:31  5-MIN KDBQ 120840Z AUTO 31010KT 10SM OVC042 M08/M10 A3002 990 84 -1500 310/10 RMK AO2 TSNO
94908KDBQ DBQ20060212024510902/12/06 02:45:31  5-MIN KDBQ 120845Z AUTO 32011KT 10SM OVC042 M08/M10 A3002 990 84 -1500 320/11 RMK AO2 TSNO
94908KDBQ DBQ20060212025013202/12/06 02:50:31  5-MIN KDBQ 120850Z AUTO 32010KT 10SM OVC042 M08/M10 A3002 990 84 -1500 320/10 RMK AO2 SLP181 T10781100 58009 TSNO
94908KDBQ DBQ20060212025513202/12/06 02:55:31  5-MIN KDBQ 120855Z AUTO 31011KT 10SM OVC040 M08/M10 A3002 990 84 -1500 310/11 RMK AO2 SLP181 T10781100 58010 TSNO
94908KDBQ DBQ20060212030010902/12/06 03:00:31  5-MIN KDBQ 120900Z AUTO 31010KT 10SM OVC040 M07/M10 A3002 990 81 -1400 310/10 RMK AO2 TSNO
94908KDBQ DBQ20060212030510902/12/06 03:05:31  5-MIN KDBQ 120905Z AUTO 31010KT 10SM OVC040 M07/M10 A3002 990 81 -1400 310/10 RMK AO2 TSNO
94908KDBQ DBQ20060212031010902/12/06 03:10:31  5-MIN KDBQ 120910Z AUTO 31010KT 10SM OVC040 M07/M10 A3002 990 81 -1400 310/10 RMK AO2 TSNO
94908KDBQ DBQ20060212031510902/12/06 03:15:31  5-MIN KDBQ 120915Z AUTO 32010KT 10SM OVC040 M07/M10 A3001 990 81 -1400 320/10 RMK AO2 TSNO
94908KDBQ DBQ20060212032010902/12/06 03:20:31  5-MIN KDBQ 120920Z AUTO 31011KT 10SM OVC040 M07/M11 A3001 990 77 -1400 310/11 RMK AO2 TSNO
94908KDBQ DBQ20060212032510902/12/06 03:25:31  5-MIN KDBQ 120925Z AUTO 32010KT 10SM OVC040 M07/M11 A3001 990 77 -1400 310/10 RMK AO2 TSNO
94908KDBQ DBQ20060212033011002/12/06 03:30:31  5-MIN KDBQ 120930Z AUTO 31009KT 10SM OVC040 M07/M11 A3001 1000 77 -1400 310/09 RMK AO2 TSNO
94908KDBQ DBQ20060212033511002/12/06 03:35:31  5-MIN KDBQ 120935Z AUTO 32010KT 10SM OVC040 M07/M11 A3001 1000 77 -1400 310/10 RMK AO2 TSNO
94908KDBQ DBQ20060212034011002/12/06 03:40:31  5-MIN KDBQ 120940Z AUTO 32010KT 10SM OVC040 M07/M11 A3001 1000 77 -1400 310/10 RMK AO2 TSNO
94908KDBQ DBQ20060212034511702/12/06 03:45:31  5-MIN KDBQ 120945Z AUTO 32009KT 10SM BKN040 OVC060 M07/M11 A3001 1000 77 -1400 320/09 RMK AO2 TSNO
94908KDBQ DBQ20060212035013402/12/06 03:50:31  5-MIN KDBQ 120950Z AUTO 32012KT 10SM BKN040 OVC060 M07/M11 A3001 1000 77 -1400 320/12 RMK AO2 SLP177 T10721106 TSNO
94908KDBQ DBQ20060212035512702/12/06 03:55:31  5-MIN KDBQ 120955Z AUTO 32010KT 10SM OVC042 M07/M11 A3001 1000 77 -1400 320/10 RMK AO2 SLP177 T10721106 TSNO
94908KDBQ DBQ20060212040011002/12/06 04:00:31  5-MIN KDBQ 121000Z AUTO 32010KT 10SM OVC042 M07/M11 A3000 1000 77 -1400 310/10 RMK AO2 TSNO
94908KDBQ DBQ20060212040511002/12/06 04:05:31  5-MIN KDBQ 121005Z AUTO 31010KT 10SM OVC042 M07/M11 A3001 1000 77 -1400 310/10 RMK AO2 TSNO
94908KDBQ DBQ20060212041010902/12/06 04:10:31  5-MIN KDBQ 121010Z AUTO 31008KT 9SM OVC042 M07/M11 A3001 1000 77 -1400 310/08 RMK AO2 TSNO
94908KDBQ DBQ20060212041512502/12/06 04:15:31  5-MIN KDBQ 121015Z AUTO 31010KT 8SM -SN OVC042 M08/M11 A3001 1000 80 -1500 310/10 RMK AO2 SNB12 P0000 TSNO
94908KDBQ DBQ20060212042013202/12/06 04:20:31  5-MIN KDBQ 121020Z AUTO 31009KT 7SM -SN FEW031 OVC042 M08/M11 A3001 1000 80 -1500 310/09 RMK AO2 SNB12 P0000 TSNO
94908KDBQ DBQ20060212042513202/12/06 04:25:31  5-MIN KDBQ 121025Z AUTO 31010KT 7SM -SN SCT031 OVC042 M08/M11 A3001 1000 80 -1500 310/10 RMK AO2 SNB12 P0000 TSNO
94908KDBQ DBQ20060212043013202/12/06 04:30:31  5-MIN KDBQ 121030Z AUTO 31008KT 7SM -SN SCT031 OVC042 M08/M10 A3001 1000 84 -1500 310/08 RMK AO2 SNB12 P0000 TSNO
94908KDBQ DBQ20060212043513202/12/06 04:35:31  5-MIN KDBQ 121035Z AUTO 31008KT 7SM -SN SCT031 OVC042 M08/M10 A3001 1000 84 -1500 310/08 RMK AO2 SNB12 P0000 TSNO
94908KDBQ DBQ20060212044013502/12/06 04:40:31  5-MIN KDBQ 121040Z AUTO 31009KT 6SM -SN BR SCT031 OVC042 M08/M10 A3001 1000 84 -1500 310/09 RMK AO2 SNB12 P0000 TSNO
94908KDBQ DBQ20060212044513202/12/06 04:45:31  5-MIN KDBQ 121045Z AUTO 31008KT 7SM -SN SCT031 OVC042 M07/M10 A3001 1000 81 -1400 310/08 RMK AO2 SNB12 P0000 TSNO
94908KDBQ DBQ20060212045014902/12/06 04:50:31  5-MIN KDBQ 121050Z AUTO 30008KT 7SM -SN FEW031 OVC042 M07/M10 A3001 1000 81 -1400 300/08 RMK AO2 SNB12 SLP177 P0000 T10721100 TSNO
94908KDBQ DBQ20060212045514102/12/06 04:55:31  5-MIN KDBQ 121055Z AUTO 30008KT 7SM OVC042 M07/M10 A3001 1000 81 -1400 300/08 RMK AO2 SNB12E55 SLP176 P0000 T10721100 TSNO
94908KDBQ DBQ20060212050012702/12/06 05:00:31  5-MIN KDBQ 121100Z AUTO 30009KT 7SM -SN OVC042 M07/M10 A3001 1000 81 -1400 300/09 RMK AO2 SNB1056 P0000 TSNO
94908KDBQ DBQ20060212050512702/12/06 05:05:31  5-MIN KDBQ 121105Z AUTO 31009KT 7SM -SN OVC042 M07/M10 A3001 1000 81 -1400 310/09 RMK AO2 SNB1056 P0000 TSNO
94908KDBQ DBQ20060212051012702/12/06 05:10:31  5-MIN KDBQ 121110Z AUTO 31008KT 7SM -SN OVC042 M07/M10 A3001 1000 81 -1400 310/08 RMK AO2 SNB1056 P0000 TSNO
94908KDBQ DBQ20060212051512702/12/06 05:15:31  5-MIN KDBQ 121115Z AUTO 30008KT 7SM -SN OVC042 M07/M10 A3001 1000 81 -1400 300/08 RMK AO2 SNB1056 P0000 TSNO
94908KDBQ DBQ20060212052012702/12/06 05:20:31  5-MIN KDBQ 121120Z AUTO 31008KT 7SM -SN OVC042 M07/M10 A3000 1000 81 -1400 310/08 RMK AO2 SNB1056 P0000 TSNO
94908KDBQ DBQ20060212052512702/12/06 05:25:31  5-MIN KDBQ 121125Z AUTO 31008KT 7SM -SN OVC042 M07/M10 A3001 1000 81 -1400 310/08 RMK AO2 SNB1056 P0000 TSNO
94908KDBQ DBQ20060212053012702/12/06 05:30:31  5-MIN KDBQ 121130Z AUTO 31009KT 7SM -SN OVC042 M07/M10 A3000 1000 81 -1400 310/09 RMK AO2 SNB1056 P0000 TSNO
94908KDBQ DBQ20060212053512702/12/06 05:35:31  5-MIN KDBQ 121135Z AUTO 32010KT 8SM -SN OVC042 M07/M10 A3000 1000 81 -1400 320/10 RMK AO2 SNB1056 P0000 TSNO
94908KDBQ DBQ20060212054012602/12/06 05:40:31  5-MIN KDBQ 121140Z AUTO 32009KT 9SM OVC042 M07/M11 A3000 1000 77 -1400 310/09 RMK AO2 SNB1056E39 P0000 TSNO
94908KDBQ DBQ20060212054512702/12/06 05:45:31  5-MIN KDBQ 121145Z AUTO 32010KT 10SM OVC042 M07/M11 A3000 1000 77 -1400 320/10 RMK AO2 SNB1056E39 P0000 TSNO
94908KDBQ DBQ20060212055016802/12/06 05:50:31  5-MIN KDBQ 121150Z AUTO 31011KT 10SM OVC042 M07/M11 A3000 1000 77 -1400 310/11 RMK AO2 SNB1056E39 SLP176 P0000 60000 T10721106 11044 21078 58010 TSNO
94908KDBQ DBQ20060212055515802/12/06 05:55:31  5-MIN KDBQ 121155Z 32010KT 10SM OVC042 M07/M11 A3001 1000 77 -1400 320/10 RMK AO2 SNB1056E39 SLP176 P0000 60000 T10721106 11044 21078 56004
94908KDBQ DBQ20060212060010002/12/06 06:00:31  5-MIN KDBQ 121200Z 33011KT 10SM OVC042 M07/M11 A3001 1000 77 -1400 330/11 RMK AO2
94908KDBQ DBQ20060212060510002/12/06 06:05:31  5-MIN KDBQ 121205Z 32010KT 10SM OVC042 M07/M11 A3001 1000 74 -1400 320/10 RMK AO2
94908KDBQ DBQ20060212061010002/12/06 06:10:31  5-MIN KDBQ 121210Z 32009KT 10SM OVC042 M07/M11 A3000 1000 77 -1400 320/09 RMK AO2
94908KDBQ DBQ20060212061510002/12/06 06:15:31  5-MIN KDBQ 121215Z 32009KT 10SM OVC042 M07/M11 A3001 1000 77 -1400 320/09 RMK AO2
94908KDBQ DBQ20060212062010002/12/06 06:20:31  5-MIN KDBQ 121220Z 32009KT 10SM OVC042 M07/M11 A3001 1000 77 -1400 320/09 RMK AO2
94908KDBQ DBQ20060212062510002/12/06 06:25:31  5-MIN KDBQ 121225Z 32012KT 10SM OVC042 M07/M11 A3001 1000 74 -1400 320/12 RMK AO2
94908KDBQ DBQ20060212063010002/12/06 06:30:31  5-MIN KDBQ 121230Z 33011KT 10SM OVC042 M07/M12 A3001 1000 71 -1400 330/11 RMK AO2
94908KDBQ DBQ20060212063510002/12/06 06:35:31  5-MIN KDBQ 121235Z 34011KT 10SM OVC042 M07/M12 A3001 1000 71 -1400 330/11 RMK AO2
94908KDBQ DBQ20060212064010002/12/06 06:40:31  5-MIN KDBQ 121240Z 34012KT 10SM OVC042 M07/M12 A3001 1000 71 -1400 330/12 RMK AO2
94908KDBQ DBQ20060212064509902/12/06 06:45:31  5-MIN KDBQ 121245Z 33010KT 10SM OVC042 M07/M12 A3001 990 71 -1400 330/10 RMK AO2
94908KDBQ DBQ20060212065011702/12/06 06:50:31  5-MIN KDBQ 121250Z 34010KT 10SM OVC042 M07/M12 A3001 1000 71 -1400 340/10 RMK AO2 SLP178 T10721117
94908KDBQ DBQ20060212065513102/12/06 06:55:31  5-MIN KDBQ 121255Z 33010KT 8SM -SN OVC042 M07/M12 A3001 990 71 -1400 330/10 RMK AO2 SNB53 SLP179 P0000 T10721117
94908KDBQ DBQ20060212070010802/12/06 07:00:31  5-MIN KDBQ 121300Z 33007KT 7SM -SN OVC042 M07/M12 A3001 990 71 -1400 330/07 RMK AO2 P0000
94908KDBQ DBQ20060212070510802/12/06 07:05:31  5-MIN KDBQ 121305Z 31008KT 7SM -SN OVC042 M07/M11 A3001 990 74 -1400 310/08 RMK AO2 P0000
94908KDBQ DBQ20060212071010802/12/06 07:10:31  5-MIN KDBQ 121310Z 32008KT 7SM -SN OVC042 M07/M11 A3001 990 74 -1400 320/08 RMK AO2 P0000
94908KDBQ DBQ20060212071510802/12/06 07:15:31  5-MIN KDBQ 121315Z 32010KT 6SM -SN OVC042 M07/M12 A3002 990 71 -1400 320/10 RMK AO2 P0000
94908KDBQ DBQ20060212072010802/12/06 07:20:31  5-MIN KDBQ 121320Z 31012KT 5SM -SN OVC044 M07/M12 A3002 990 71 -1400 310/12 RMK AO2 P0000
94908KDBQ DBQ20060212072510802/12/06 07:25:31  5-MIN KDBQ 121325Z 32010KT 5SM -SN OVC044 M07/M12 A3002 990 71 -1400 320/10 RMK AO2 P0000
94908KDBQ DBQ20060212073010802/12/06 07:30:31  5-MIN KDBQ 121330Z 32009KT 5SM -SN OVC044 M07/M11 A3002 990 74 -1400 320/09 RMK AO2 P0000
94908KDBQ DBQ20060212073510802/12/06 07:35:31  5-MIN KDBQ 121335Z 33009KT 4SM -SN OVC044 M07/M11 A3002 990 74 -1400 330/09 RMK AO2 P0000
94908KDBQ DBQ20060212074010802/12/06 07:40:31  5-MIN KDBQ 121340Z 32008KT 3SM -SN OVC044 M07/M11 A3002 990 74 -1400 320/08 RMK AO2 P0000
94908KDBQ DBQ20060212074511502/12/06 07:45:31  5-MIN KDBQ 121345Z 32008KT 3SM -SN FEW031 OVC046 M07/M11 A3002 990 74 -1400 320/08 RMK AO2 P0000
94908KDBQ DBQ20060212075013902/12/06 07:50:31  5-MIN KDBQ 121350Z 32009KT 3SM -SN FEW029 SCT038 OVC046 M07/M11 A3002 990 74 -1400 320/09 RMK AO2 SLP181 P0000 T10721111
94908KDBQ DBQ20060212075513902/12/06 07:55:31  5-MIN KDBQ 121355Z 33009KT 2SM -SN FEW029 SCT038 OVC046 M07/M11 A3002 980 77 -1400 330/09 RMK AO2 SLP182 P0000 T10721106
94908KDBQ DBQ20060212080012202/12/06 08:00:31  5-MIN KDBQ 121400Z 32009KT 2SM -SN FEW029 SCT038 OVC046 M07/M11 A3002 980 77 -1400 320/09 RMK AO2 P0000
94908KDBQ DBQ20060212080512602/12/06 08:05:31  5-MIN KDBQ 121405Z 32008KT 2 1/2SM -SN FEW029 SCT038 OVC046 M07/M11 A3002 980 77 -1400 320/08 RMK AO2 P0000
94908KDBQ DBQ20060212081012602/12/06 08:10:31  5-MIN KDBQ 121410Z 32007KT 2 1/2SM -SN FEW029 SCT038 OVC046 M07/M11 A3002 980 77 -1400 320/07 RMK AO2 P0000
94908KDBQ DBQ20060212081512202/12/06 08:15:31  5-MIN KDBQ 121415Z 32007KT 3SM -SN SCT029 BKN038 OVC046 M07/M11 A3002 980 77 -1400 320/07 RMK AO2 P0000
94908KDBQ DBQ20060212082012202/12/06 08:20:31  5-MIN KDBQ 121420Z 32008KT 3SM -SN BKN027 BKN038 OVC046 M07/M11 A3003 980 77 -1400 320/08 RMK AO2 P0000
94908KDBQ DBQ20060212082511502/12/06 08:25:31  5-MIN KDBQ 121425Z 33008KT 3SM -SN BKN027 OVC046 M07/M11 A3003 980 77 -1400 330/08 RMK AO2 P0000
94908KDBQ DBQ20060212083011502/12/06 08:30:31  5-MIN KDBQ 121430Z 33009KT 3SM -SN BKN027 OVC046 M07/M11 A3003 980 77 -1400 330/09 RMK AO2 P0000
94908KDBQ DBQ20060212083510802/12/06 08:35:31  5-MIN KDBQ 121435Z 32009KT 3SM -SN OVC027 M07/M11 A3003 980 77 -1400 310/09 RMK AO2 P0000
94908KDBQ DBQ20060212084010802/12/06 08:40:31  5-MIN KDBQ 121440Z 32009KT 3SM -SN OVC027 M07/M11 A3003 980 77 -1400 320/09 RMK AO2 P0000
94908KDBQ DBQ20060212084510802/12/06 08:45:31  5-MIN KDBQ 121445Z 32007KT 3SM -SN OVC027 M07/M11 A3003 980 77 -1400 320/07 RMK AO2 P0000
94908KDBQ DBQ20060212085011902/12/06 08:50:31  5-MIN KDBQ 121450Z 31008KT 2 1/2SM -SN FEW016 OVC027 M07/M11 A3003 980 77 -1400 310/08 RMK AO2 P0000
94908KDBQ DBQ20060212085514402/12/06 08:55:31  5-MIN KDBQ 121455Z 32007KT 3SM -SN FEW018 OVC027 M07/M11 A3003 980 77 -1400 320/07 RMK AO2 SLP185 P0000 60000 T10721106 51006
94908KDBQ DBQ20060212090011502/12/06 09:00:31  5-MIN KDBQ 121500Z 32011KT 4SM -SN SCT018 OVC025 M07/M11 A3003 970 77 -1500 320/11 RMK AO2 P0000
94908KDBQ DBQ20060212090511502/12/06 09:05:31  5-MIN KDBQ 121505Z 32009KT 3SM -SN BKN018 OVC025 M07/M11 A3003 970 77 -1500 320/09 RMK AO2 P0000
94908KDBQ DBQ20060212091011502/12/06 09:10:31  5-MIN KDBQ 121510Z 32009KT 3SM -SN BKN018 OVC025 M07/M10 A3003 970 81 -1500 320/09 RMK AO2 P0000
94908KDBQ DBQ20060212091511902/12/06 09:15:31  5-MIN KDBQ 121515Z 31008KT 2 1/2SM -SN BKN018 OVC025 M07/M10 A3004 970 81 -1500 310/08 RMK AO2 P0000
94908KDBQ DBQ20060212092011202/12/06 09:20:31  5-MIN KDBQ 121520Z 32007KT 2 1/2SM -SN OVC018 M07/M10 A3004 970 81 -1500 320/07 RMK AO2 P0000
94908KDBQ DBQ20060212092511502/12/06 09:25:31  5-MIN KDBQ 121525Z 33009KT 3SM -SN BKN018 OVC025 M07/M10 A3004 970 77 -1400 330/09 RMK AO2 P0000
94908KDBQ DBQ20060212093011502/12/06 09:30:31  5-MIN KDBQ 121530Z 32009KT 3SM -SN BKN016 OVC025 M07/M10 A3004 970 77 -1400 320/09 RMK AO2 P0000
94908KDBQ DBQ20060212093511502/12/06 09:35:31  5-MIN KDBQ 121535Z 33009KT 3SM -SN BKN016 OVC025 M07/M10 A3004 970 77 -1400 330/09 RMK AO2 P0000
94908KDBQ DBQ20060212094011502/12/06 09:40:31  5-MIN KDBQ 121540Z 34008KT 3SM -SN BKN016 OVC025 M07/M10 A3004 970 77 -1400 340/08 RMK AO2 P0000
94908KDBQ DBQ20060212094511502/12/06 09:45:31  5-MIN KDBQ 121545Z 33010KT 3SM -SN BKN016 OVC025 M07/M10 A3004 960 77 -1400 330/10 RMK AO2 P0000
94908KDBQ DBQ20060212095011902/12/06 09:50:31  5-MIN KDBQ 121550Z 34009KT 2 1/2SM -SN BKN016 OVC025 M07/M10 A3004 970 77 -1400 340/09 RMK AO2 P0000
94908KDBQ DBQ20060212095514302/12/06 09:55:31  5-MIN KDBQ 121555Z 33008KT 2 1/2SM -SN SCT016 BKN021 OVC025 M07/M09 A3005 960 81 -1400 330/08 RMK AO2 SLP190 P0000 T10671094
94908KDBQ DBQ20060212100011502/12/06 10:00:31  5-MIN KDBQ 121600Z 33009KT 2SM -SN BKN018 OVC025 M07/M09 A3005 960 81 -1400 330/09 RMK AO2 P0000
94908KDBQ DBQ20060212100511902/12/06 10:05:31  5-MIN KDBQ 121605Z 33010KT 1 3/4SM -SN SCT015 OVC023 M07/M09 A3005 960 81 -1400 330/10 RMK AO2 P0000
94908KDBQ DBQ20060212101011902/12/06 10:10:31  5-MIN KDBQ 121610Z 33010KT 1 3/4SM -SN BKN017 OVC023 M07/M09 A3005 960 81 -1400 330/10 RMK AO2 P0000
94908KDBQ DBQ20060212101512202/12/06 10:15:31  5-MIN KDBQ 121615Z 34009KT 2SM -SN BKN015 BKN021 OVC030 M07/M09 A3005 960 81 -1400 340/09 RMK AO2 P0000
94908KDBQ DBQ20060212102012602/12/06 10:20:31  5-MIN KDBQ 121620Z 34008KT 2 1/2SM -SN BKN015 BKN021 OVC030 M06/M09 A3005 960 77 -1300 330/08 RMK AO2 P0000
94908KDBQ DBQ20060212102512602/12/06 10:25:31  5-MIN KDBQ 121625Z 34009KT 2 1/2SM -SN BKN015 BKN021 OVC030 M06/M09 A3005 960 81 -1300 340/09 RMK AO2 P0000
94908KDBQ DBQ20060212103012202/12/06 10:30:31  5-MIN KDBQ 121630Z 33010KT 3SM -SN BKN015 BKN021 OVC030 M06/M09 A3005 960 81 -1300 330/10 RMK AO2 P0000
94908KDBQ DBQ20060212103511502/12/06 10:35:31  5-MIN KDBQ 121635Z 33011KT 3SM -SN BKN015 OVC030 M06/M09 A3005 960 77 -1300 330/11 RMK AO2 P0000
94908KDBQ DBQ20060212104011502/12/06 10:40:31  5-MIN KDBQ 121640Z 33011KT 4SM -SN BKN015 OVC030 M06/M09 A3006 950 77 -1300 330/11 RMK AO2 P0000
94908KDBQ DBQ20060212104511502/12/06 10:45:31  5-MIN KDBQ 121645Z 33010KT 4SM -SN BKN015 OVC030 M06/M09 A3006 950 77 -1300 330/10 RMK AO2 P0000
94908KDBQ DBQ20060212105012502/12/06 10:50:31  5-MIN KDBQ 121650Z 34008KT 5SM -SN OVC015 M06/M09 A3006 950 81 -1300 340/08 RMK AO2 SLP195 P0000 T10611089
94908KDBQ DBQ20060212105512502/12/06 10:55:31  5-MIN KDBQ 121655Z 34010KT 5SM -SN OVC015 M06/M09 A3006 950 81 -1300 330/10 RMK AO2 SLP195 P0000 T10611089
94908KDBQ DBQ20060212110011502/12/06 11:00:31  5-MIN KDBQ 121700Z 33011KT 6SM HZ OVC015 M06/M09 A3006 950 81 -1300 320/11 RMK AO2 SNE1659 P0000
94908KDBQ DBQ20060212110511502/12/06 11:05:31  5-MIN KDBQ 121705Z 34011KT 6SM HZ OVC015 M06/M09 A3006 950 81 -1300 340/11 RMK AO2 SNE1659 P0000
94908KDBQ DBQ20060212111011202/12/06 11:10:31  5-MIN KDBQ 121710Z 36008KT 7SM OVC015 M06/M09 A3006 950 77 -1300 350/08 RMK AO2 SNE1659 P0000
94908KDBQ DBQ20060212111510802/12/06 11:15:31  5-MIN KDBQ 121715Z 34010KT 7SM -SN OVC015 M06/M09 A3006 950 77 -1300 340/10 RMK AO2 P0000
94908KDBQ DBQ20060212112010802/12/06 11:20:31  5-MIN KDBQ 121720Z 33009KT 6SM -SN OVC015 M06/M08 A3006 950 81 -1300 330/09 RMK AO2 P0000
94908KDBQ DBQ20060212112510802/12/06 11:25:31  5-MIN KDBQ 121725Z 35009KT 6SM -SN OVC015 M06/M09 A3006 950 77 -1300 340/09 RMK AO2 P0000
94908KDBQ DBQ20060212113010802/12/06 11:30:31  5-MIN KDBQ 121730Z 34009KT 6SM -SN OVC015 M06/M08 A3006 950 81 -1300 340/09 RMK AO2 P0000
94908KDBQ DBQ20060212113511502/12/06 11:35:31  5-MIN KDBQ 121735Z 33012KT 5SM -SN BKN015 OVC019 M05/M08 A3006 950 77 -1200 330/12 RMK AO2 P0000
94908KDBQ DBQ20060212114010802/12/06 11:40:31  5-MIN KDBQ 121740Z 34011KT 5SM -SN OVC015 M05/M08 A3006 950 77 -1200 340/11 RMK AO2 P0000
94908KDBQ DBQ20060212114510802/12/06 11:45:31  5-MIN KDBQ 121745Z 35010KT 5SM -SN OVC015 M05/M08 A3006 950 77 -1200 350/10 RMK AO2 P0000
94908KDBQ DBQ20060212115015602/12/06 11:50:31  5-MIN KDBQ 121750Z 36009KT 4SM -SN BKN015 OVC035 M05/M08 A3006 950 77 -1200 360/09 RMK AO2 SLP194 P0000 60000 T10501083 11050 21072 51006
94908KDBQ DBQ20060212115515602/12/06 11:55:31  5-MIN KDBQ 121755Z 34009KT 4SM -SN BKN015 OVC035 M05/M08 A3006 950 77 -1200 340/09 RMK AO2 SLP195 P0000 60000 T10501083 11044 21072 50004
94908KDBQ DBQ20060212120012202/12/06 12:00:31  5-MIN KDBQ 121800Z 35010KT 3SM -SN BKN015 BKN035 OVC050 M05/M08 A3006 950 77 -1200 350/10 RMK AO2 P0000
94908KDBQ DBQ20060212120512202/12/06 12:05:31  5-MIN KDBQ 121805Z 35010KT 4SM -SN BKN017 BKN035 OVC050 M05/M08 A3006 950 77 -1200 340/10 RMK AO2 P0000
94908KDBQ DBQ20060212121011502/12/06 12:10:31  5-MIN KDBQ 121810Z 34010KT 4SM -SN BKN017 OVC035 M04/M08 A3006 950 74 -1100 340/10 RMK AO2 P0000
94908KDBQ DBQ20060212121511502/12/06 12:15:31  5-MIN KDBQ 121815Z 34011KT 5SM -SN BKN017 OVC035 M04/M08 A3006 950 74 -1100 340/11 RMK AO2 P0000
94908KDBQ DBQ20060212122011502/12/06 12:20:31  5-MIN KDBQ 121820Z 34009KT 5SM -SN BKN017 OVC037 M04/M08 A3006 950 74 -1100 340/09 RMK AO2 P0000
94908KDBQ DBQ20060212122511502/12/06 12:25:31  5-MIN KDBQ 121825Z 35008KT 6SM -SN BKN017 OVC037 M04/M08 A3005 950 78 -1100 350/08 RMK AO2 P0000
94908KDBQ DBQ20060212123011502/12/06 12:30:31  5-MIN KDBQ 121830Z 35008KT 6SM -SN BKN017 OVC037 M04/M08 A3005 960 74 -1100 350/08 RMK AO2 P0000
94908KDBQ DBQ20060212123511502/12/06 12:35:31  5-MIN KDBQ 121835Z 35010KT 6SM -SN BKN017 OVC037 M04/M08 A3005 960 71 -1000 340/10 RMK AO2 P0000
94908KDBQ DBQ20060212124012002/12/06 12:40:31  5-MIN KDBQ 121840Z 32010KT 6SM HZ BKN017 OVC037 M04/M08 A3005 960 74 -1100 320/10 RMK AO2 SNE38 P0000
94908KDBQ DBQ20060212124511702/12/06 12:45:31  5-MIN KDBQ 121845Z 34010KT 7SM BKN017 OVC037 M04/M09 A3005 960 71 -1100 340/10 RMK AO2 SNE38 P0000
94908KDBQ DBQ20060212125014102/12/06 12:50:31  5-MIN KDBQ 121850Z 35010KT 8SM BKN017 BKN037 OVC044 M04/M09 A3005 960 68 -1000 340/10 RMK AO2 SNE38 SLP193 P0000 T10391089
94908KDBQ DBQ20060212125513402/12/06 12:55:31  5-MIN KDBQ 121855Z 32011KT 8SM BKN017 OVC044 M04/M08 A3005 960 71 -1000 320/11 RMK AO2 SNE38 SLP193 P0000 T10391083
94908KDBQ DBQ20060212130010502/12/06 13:00:31  5-MIN KDBQ 121900Z 35010KT 8SM BKN017 OVC042 M04/M08 A3005 960 71 -1000 350/10 RMK AO2
94908KDBQ DBQ20060212130510502/12/06 13:05:31  5-MIN KDBQ 121905Z 34010KT 7SM BKN017 OVC042 M04/M08 A3005 960 71 -1000 340/10 RMK AO2
94908KDBQ DBQ20060212131010502/12/06 13:10:31  5-MIN KDBQ 121910Z 35008KT 7SM BKN017 OVC042 M04/M09 A3005 960 68 -1000 340/08 RMK AO2
94908KDBQ DBQ20060212131510502/12/06 13:15:31  5-MIN KDBQ 121915Z 33010KT 7SM BKN019 OVC042 M03/M08 A3005 960 68 -1000 330/10 RMK AO2
94908KDBQ DBQ20060212132010502/12/06 13:20:31  5-MIN KDBQ 121920Z 34009KT 8SM BKN019 OVC044 M03/M09 A3005 960 65 -1000 340/09 RMK AO2
94908KDBQ DBQ20060212132510502/12/06 13:25:31  5-MIN KDBQ 121925Z 32009KT 7SM BKN019 OVC044 M03/M09 A3005 960 65 -1000 320/09 RMK AO2
94908KDBQ DBQ20060212133010502/12/06 13:30:31  5-MIN KDBQ 121930Z 33008KT 8SM BKN019 OVC046 M03/M09 A3005 960 65 -1000 330/08 RMK AO2
94908KDBQ DBQ20060212133510502/12/06 13:35:31  5-MIN KDBQ 121935Z 32012KT 9SM BKN019 OVC046 M03/M09 A3005 960 65 -1000 320/12 RMK AO2
94908KDBQ DBQ20060212134010502/12/06 13:40:31  5-MIN KDBQ 121940Z 34009KT 9SM BKN021 OVC046 M04/M09 A3005 960 68 -1000 340/09 RMK AO2
94908KDBQ DBQ20060212134510502/12/06 13:45:31  5-MIN KDBQ 121945Z 34011KT 9SM BKN021 OVC046 M03/M09 A3005 960 65 -1000 340/11 RMK AO2
94908KDBQ DBQ20060212135012202/12/06 13:50:31  5-MIN KDBQ 121950Z 35010KT 9SM BKN021 OVC046 M04/M09 A3005 960 65 -1000 350/10 RMK AO2 SLP193 T10391094
94908KDBQ DBQ20060212135512202/12/06 13:55:31  5-MIN KDBQ 121955Z 34009KT 8SM BKN021 OVC046 M04/M09 A3005 960 68 -1000 340/09 RMK AO2 SLP193 T10391089
94908KDBQ DBQ20060212140010502/12/06 14:00:31  5-MIN KDBQ 122000Z 34011KT 8SM BKN021 OVC046 M04/M09 A3005 960 68 -1000 330/11 RMK AO2
94908KDBQ DBQ20060212140510602/12/06 14:05:31  5-MIN KDBQ 122005Z 34010KT 10SM BKN021 OVC046 M03/M09 A3005 960 65 -1000 340/10 RMK AO2
94908KDBQ DBQ20060212141012102/12/06 14:10:31  5-MIN KDBQ 122010Z 33012KT 8SM -SN BKN021 OVC044 M03/M09 A3005 960 63 -1000 330/12 RMK AO2 SNB09 P0000
94908KDBQ DBQ20060212141512102/12/06 14:15:31  5-MIN KDBQ 122015Z 34008KT 8SM -SN BKN023 OVC044 M04/M09 A3005 960 65 -1000 330/08 RMK AO2 SNB09 P0000
94908KDBQ DBQ20060212142012002/12/06 14:20:31  5-MIN KDBQ 122020Z 34009KT 9SM BKN023 OVC044 M03/M09 A3005 950 63 -1000 340/09 RMK AO2 SNB09E17 P0000
94908KDBQ DBQ20060212142512102/12/06 14:25:31  5-MIN KDBQ 122025Z 33012KT 10SM BKN023 OVC044 M03/M09 A3005 950 63 -1000 330/12 RMK AO2 SNB09E17 P0000
94908KDBQ DBQ20060212143012802/12/06 14:30:31  5-MIN KDBQ 122030Z 32012KT 10SM SCT023 BKN028 OVC044 M03/M09 A3006 950 63 -1000 320/12 RMK AO2 SNB09E17 P0000
94908KDBQ DBQ20060212143512102/12/06 14:35:31  5-MIN KDBQ 122035Z 33012KT 10SM BKN023 OVC044 M04/M09 A3005 950 65 -1000 330/12 RMK AO2 SNB09E17 P0000
94908KDBQ DBQ20060212144012102/12/06 14:40:31  5-MIN KDBQ 122040Z 33010KT 10SM BKN023 OVC044 M04/M10 A3006 950 63 -1000 330/10 RMK AO2 SNB09E17 P0000
94908KDBQ DBQ20060212144512102/12/06 14:45:31  5-MIN KDBQ 122045Z 34009KT 10SM BKN023 OVC044 M04/M10 A3006 950 63 -1100 330/09 RMK AO2 SNB09E17 P0000
94908KDBQ DBQ20060212145012102/12/06 14:50:31  5-MIN KDBQ 122050Z 34011KT 10SM FEW028 OVC041 M04/M10 A3006 950 63 -1100 340/11 RMK AO2 SNB09E17 P0000
94908KDBQ DBQ20060212145516002/12/06 14:55:31  5-MIN KDBQ 122055Z AUTO 34012KT 10SM SCT028 OVC041 M03/M10 A3006 950 60 -1000 340/12 RMK AO2 SNB09E17 SLP197 P0000 60000 T10331100 53001 TSNO
94908KDBQ DBQ20060212150010602/12/06 15:00:31  5-MIN KDBQ 122100Z 33010KT 10SM SCT028 OVC039 M03/M11 A3006 950 57 -1000 330/10 RMK AO2
94908KDBQ DBQ20060212150510602/12/06 15:05:31  5-MIN KDBQ 122105Z 33014KT 10SM FEW028 OVC041 M03/M11 A3006 950 55 -1000 330/14 RMK AO2
94908KDBQ DBQ20060212151010602/12/06 15:10:31  5-MIN KDBQ 122110Z 34012KT 10SM FEW028 OVC041 M03/M11 A3006 950 57 -1000 340/12 RMK AO2
94908KDBQ DBQ20060212151510602/12/06 15:15:31  5-MIN KDBQ 122115Z 34013KT 10SM FEW028 OVC041 M03/M11 A3006 950 57 -1000 340/13 RMK AO2
94908KDBQ DBQ20060212152010602/12/06 15:20:31  5-MIN KDBQ 122120Z 32010KT 10SM FEW028 OVC041 M04/M11 A3007 940 60 -1100 320/10 RMK AO2
94908KDBQ DBQ20060212152509902/12/06 15:25:31  5-MIN KDBQ 122125Z 31011KT 10SM OVC041 M03/M10 A3007 940 60 -1000 310/11 RMK AO2
94908KDBQ DBQ20060212153009902/12/06 15:30:31  5-MIN KDBQ 122130Z 31013KT 10SM OVC041 M03/M10 A3007 940 60 -1000 310/13 RMK AO2
94908KDBQ DBQ20060212153509802/12/06 15:35:31  5-MIN KDBQ 122135Z 33011KT 9SM OVC041 M03/M11 A3006 950 57 -1000 330/11 RMK AO2
94908KDBQ DBQ20060212154012102/12/06 15:40:31  5-MIN KDBQ 122140Z 32012KT 9SM -SN SCT035 OVC042 M04/M10 A3006 950 63 -1100 320/12 RMK AO2 SNB36 P0000
94908KDBQ DBQ20060212154512002/12/06 15:45:31  5-MIN KDBQ 122145Z 34011KT 9SM SCT035 OVC042 M03/M11 A3006 950 57 -1000 340/11 RMK AO2 SNB36E45 P0000
94908KDBQ DBQ20060212155013702/12/06 15:50:31  5-MIN KDBQ 122150Z 32011KT 9SM FEW035 OVC042 M03/M11 A3007 940 57 -1000 320/11 RMK AO2 SNB36E45 SLP198 P0000 T10331106
94908KDBQ DBQ20060212155513102/12/06 15:55:31  5-MIN KDBQ 122155Z 31012KT 10SM OVC040 M04/M11 A3007 940 57 -1100 310/12 RMK AO2 SNB36E45 SLP199 P0000 T10391111
94908KDBQ DBQ20060212160009902/12/06 16:00:31  5-MIN KDBQ 122200Z 32011KT 10SM OVC040 M04/M11 A3007 940 57 -1100 320/11 RMK AO2
94908KDBQ DBQ20060212160509902/12/06 16:05:31  5-MIN KDBQ 122205Z 31011KT 10SM OVC040 M04/M11 A3007 940 57 -1100 310/11 RMK AO2
94908KDBQ DBQ20060212161012102/12/06 16:10:31  5-MIN KDBQ 122210Z 32011KT 9SM -SN BKN035 OVC042 M04/M11 A3007 940 60 -1100 320/11 RMK AO2 SNB07 P0000
94908KDBQ DBQ20060212161512102/12/06 16:15:31  5-MIN KDBQ 122215Z 33008KT 9SM -SN FEW029 OVC038 M04/M10 A3006 950 63 -1100 330/08 RMK AO2 SNB07 P0000
94908KDBQ DBQ20060212162012002/12/06 16:20:31  5-MIN KDBQ 122220Z 34010KT 9SM FEW029 OVC038 M04/M11 A3006 950 60 -1100 340/10 RMK AO2 SNB07E16 P0000
94908KDBQ DBQ20060212162512102/12/06 16:25:31  5-MIN KDBQ 122225Z 33010KT 10SM FEW029 OVC038 M04/M11 A3006 950 60 -1100 330/10 RMK AO2 SNB07E16 P0000
94908KDBQ DBQ20060212163011402/12/06 16:30:31  5-MIN KDBQ 122230Z 33009KT 10SM OVC036 M04/M11 A3007 940 60 -1100 330/09 RMK AO2 SNB07E16 P0000
94908KDBQ DBQ20060212163512102/12/06 16:35:31  5-MIN KDBQ 122235Z 33009KT 10SM FEW029 OVC036 M04/M11 A3007 940 57 -1100 330/09 RMK AO2 SNB07E16 P0000
94908KDBQ DBQ20060212164011402/12/06 16:40:31  5-MIN KDBQ 122240Z 31011KT 10SM OVC036 M04/M11 A3007 940 57 -1100 310/11 RMK AO2 SNB07E16 P0000
94908KDBQ DBQ20060212164511402/12/06 16:45:31  5-MIN KDBQ 122245Z 31010KT 10SM OVC038 M04/M11 A3007 940 57 -1100 310/10 RMK AO2 SNB07E16 P0000
94908KDBQ DBQ20060212165013102/12/06 16:50:31  5-MIN KDBQ 122250Z 32011KT 10SM OVC038 M04/M12 A3007 940 55 -1100 320/11 RMK AO2 SNB07E16 SLP200 P0000 T10391117
94908KDBQ DBQ20060212165513102/12/06 16:55:31  5-MIN KDBQ 122255Z 31009KT 10SM OVC038 M04/M12 A3007 940 55 -1100 310/09 RMK AO2 SNB07E16 SLP201 P0000 T10391117
94908KDBQ DBQ20060212170009902/12/06 17:00:31  5-MIN KDBQ 122300Z 31012KT 10SM OVC036 M04/M12 A3008 940 55 -1100 310/12 RMK AO2
94908KDBQ DBQ20060212170509902/12/06 17:05:31  5-MIN KDBQ 122305Z 32011KT 10SM OVC036 M04/M12 A3007 940 55 -1100 320/11 RMK AO2
94908KDBQ DBQ20060212171009902/12/06 17:10:31  5-MIN KDBQ 122310Z 33011KT 10SM OVC036 M04/M12 A3007 940 55 -1100 330/11 RMK AO2
94908KDBQ DBQ20060212171509902/12/06 17:15:31  5-MIN KDBQ 122315Z 33008KT 10SM OVC036 M04/M12 A3007 940 55 -1100 320/08 RMK AO2
94908KDBQ DBQ20060212172009902/12/06 17:20:31  5-MIN KDBQ 122320Z 32009KT 10SM OVC036 M04/M12 A3007 940 55 -1100 320/09 RMK AO2
94908KDBQ DBQ20060212172509902/12/06 17:25:31  5-MIN KDBQ 122325Z 31007KT 10SM OVC036 M04/M12 A3008 930 55 -1100 310/07 RMK AO2
94908KDBQ DBQ20060212173009902/12/06 17:30:31  5-MIN KDBQ 122330Z 31008KT 10SM OVC036 M05/M12 A3008 930 57 -1200 310/08 RMK AO2
94908KDBQ DBQ20060212173509902/12/06 17:35:31  5-MIN KDBQ 122335Z 33009KT 10SM BKN036 M05/M12 A3008 930 57 -1200 330/09 RMK AO2
94908KDBQ DBQ20060212174009902/12/06 17:40:31  5-MIN KDBQ 122340Z 32008KT 10SM BKN036 M05/M12 A3009 930 57 -1200 320/08 RMK AO2
94908KDBQ DBQ20060212174509902/12/06 17:45:31  5-MIN KDBQ 122345Z 32008KT 10SM BKN036 M05/M12 A3009 920 60 -1200 320/08 RMK AO2
94908KDBQ DBQ20060212175014002/12/06 17:50:31  5-MIN KDBQ 122350Z 32007KT 10SM BKN036 M05/M12 A3009 920 60 -1200 320/07 RMK AO2 SLP207 60000 T10501117 11033 21050 53001
94908KDBQ DBQ20060212175514002/12/06 17:55:31  5-MIN KDBQ 122355Z 31011KT 10SM BKN036 M05/M12 A3009 920 60 -1200 310/11 RMK AO2 SLP208 60000 T10501117 11033 21050 53010
94908KDBQ DBQ20060212180009902/12/06 18:00:31  5-MIN KDBQ 130000Z 32009KT 10SM BKN036 M04/M12 A3009 920 57 -1200 320/09 RMK AO2
94908KDBQ DBQ20060212180509902/12/06 18:05:31  5-MIN KDBQ 130005Z 32008KT 10SM BKN036 M05/M12 A3009 920 60 -1200 310/08 RMK AO2
94908KDBQ DBQ20060212181009902/12/06 18:10:31  5-MIN KDBQ 130010Z 31008KT 10SM OVC036 M05/M12 A3009 920 60 -1200 310/08 RMK AO2
94908KDBQ DBQ20060212181509902/12/06 18:15:31  5-MIN KDBQ 130015Z 32008KT 10SM OVC036 M05/M12 A3010 910 60 -1200 310/08 RMK AO2
94908KDBQ DBQ20060212182009902/12/06 18:20:31  5-MIN KDBQ 130020Z 32008KT 10SM OVC036 M04/M12 A3010 910 57 -1200 310/08 RMK AO2
94908KDBQ DBQ20060212182509902/12/06 18:25:31  5-MIN KDBQ 130025Z 32009KT 10SM OVC034 M04/M12 A3010 910 57 -1200 310/09 RMK AO2
94908KDBQ DBQ20060212183009902/12/06 18:30:31  5-MIN KDBQ 130030Z 31008KT 10SM OVC034 M04/M12 A3010 910 57 -1200 310/08 RMK AO2
94908KDBQ DBQ20060212183509902/12/06 18:35:31  5-MIN KDBQ 130035Z 32009KT 10SM OVC034 M05/M12 A3010 910 60 -1200 320/09 RMK AO2
94908KDBQ DBQ20060212184009902/12/06 18:40:31  5-MIN KDBQ 130040Z 33011KT 10SM OVC034 M05/M12 A3010 910 60 -1200 330/11 RMK AO2
94908KDBQ DBQ20060212184509902/12/06 18:45:31  5-MIN KDBQ 130045Z 32010KT 10SM OVC034 M05/M12 A3011 910 60 -1200 320/10 RMK AO2
94908KDBQ DBQ20060212185012602/12/06 18:50:31  5-MIN KDBQ 130050Z AUTO 32013KT 10SM OVC034 M05/M12 A3011 910 60 -1200 320/13 RMK AO2 SLP213 T10501117 TSNO
94908KDBQ DBQ20060212185512602/12/06 18:55:31  5-MIN KDBQ 130055Z AUTO 31014KT 10SM OVC034 M05/M12 A3011 910 60 -1200 310/14 RMK AO2 SLP213 T10501117 TSNO
94908KDBQ DBQ20060212190010902/12/06 19:00:31  5-MIN KDBQ 130100Z AUTO 31012KT 10SM OVC034 M05/M12 A3010 910 60 -1200 310/12 RMK AO2 TSNO
94908KDBQ DBQ20060212190510902/12/06 19:05:31  5-MIN KDBQ 130105Z AUTO 31012KT 10SM OVC034 M06/M12 A3010 910 62 -1300 310/12 RMK AO2 TSNO
94908KDBQ DBQ20060212191010902/12/06 19:10:31  5-MIN KDBQ 130110Z AUTO 31011KT 10SM OVC034 M06/M12 A3011 910 62 -1300 310/11 RMK AO2 TSNO
94908KDBQ DBQ20060212191510902/12/06 19:15:31  5-MIN KDBQ 130115Z AUTO 31010KT 10SM OVC034 M06/M12 A3011 900 62 -1300 310/10 RMK AO2 TSNO
94908KDBQ DBQ20060212192010902/12/06 19:20:31  5-MIN KDBQ 130120Z AUTO 31014KT 10SM OVC032 M06/M12 A3011 900 59 -1300 310/14 RMK AO2 TSNO
94908KDBQ DBQ20060212192510902/12/06 19:25:31  5-MIN KDBQ 130125Z AUTO 31014KT 10SM OVC032 M06/M12 A3012 900 59 -1300 310/14 RMK AO2 TSNO
94908KDBQ DBQ20060212193010902/12/06 19:30:31  5-MIN KDBQ 130130Z AUTO 32012KT 10SM OVC032 M06/M12 A3011 900 62 -1300 320/12 RMK AO2 TSNO
94908KDBQ DBQ20060212193510902/12/06 19:35:31  5-MIN KDBQ 130135Z AUTO 31013KT 10SM OVC032 M06/M12 A3011 900 59 -1300 310/13 RMK AO2 TSNO
94908KDBQ DBQ20060212194010902/12/06 19:40:31  5-MIN KDBQ 130140Z AUTO 32012KT 10SM OVC032 M06/M12 A3011 900 62 -1400 320/12 RMK AO2 TSNO
94908KDBQ DBQ20060212194510902/12/06 19:45:31  5-MIN KDBQ 130145Z AUTO 32013KT 10SM BKN030 M06/M12 A3011 900 62 -1400 320/13 RMK AO2 TSNO
94908KDBQ DBQ20060212195012602/12/06 19:50:31  5-MIN KDBQ 130150Z AUTO 33011KT 10SM BKN030 M07/M12 A3011 900 65 -1500 330/11 RMK AO2 SLP217 T10671122 TSNO
94908KDBQ DBQ20060212195512602/12/06 19:55:31  5-MIN KDBQ 130155Z AUTO 32011KT 10SM BKN030 M07/M12 A3012 900 65 -1500 320/11 RMK AO2 SLP217 T10671122 TSNO
94908KDBQ DBQ20060212200010902/12/06 20:00:31  5-MIN KDBQ 130200Z AUTO 32011KT 10SM BKN030 M07/M12 A3012 900 65 -1500 310/11 RMK AO2 TSNO
94908KDBQ DBQ20060212200510902/12/06 20:05:31  5-MIN KDBQ 130205Z AUTO 31009KT 10SM BKN030 M07/M12 A3012 900 65 -1500 310/09 RMK AO2 TSNO
94908KDBQ DBQ20060212201010902/12/06 20:10:31  5-MIN KDBQ 130210Z AUTO 31009KT 10SM BKN030 M07/M12 A3011 900 65 -1500 310/09 RMK AO2 TSNO
94908KDBQ DBQ20060212201510902/12/06 20:15:31  5-MIN KDBQ 130215Z AUTO 32006KT 10SM BKN030 M07/M12 A3011 900 65 -1500 320/06 RMK AO2 TSNO
94908KDBQ DBQ20060212202010902/12/06 20:20:31  5-MIN KDBQ 130220Z AUTO 32009KT 10SM BKN030 M07/M12 A3010 910 65 -1500 320/09 RMK AO2 TSNO
94908KDBQ DBQ20060212202510902/12/06 20:25:31  5-MIN KDBQ 130225Z AUTO 32009KT 10SM BKN030 M07/M12 A3010 910 68 -1500 320/09 RMK AO2 TSNO
94908KDBQ DBQ20060212203010902/12/06 20:30:31  5-MIN KDBQ 130230Z AUTO 31007KT 10SM BKN030 M08/M13 A3010 910 67 -1600 310/07 RMK AO2 TSNO
94908KDBQ DBQ20060212203510902/12/06 20:35:31  5-MIN KDBQ 130235Z AUTO 31007KT 10SM SCT030 M08/M13 A3010 910 67 -1600 310/07 RMK AO2 TSNO
94908KDBQ DBQ20060212204010902/12/06 20:40:31  5-MIN KDBQ 130240Z AUTO 31007KT 10SM FEW030 M08/M13 A3010 910 67 -1600 300/07 RMK AO2 TSNO
94908KDBQ DBQ20060212204510902/12/06 20:45:31  5-MIN KDBQ 130245Z AUTO 31007KT 10SM FEW030 M08/M13 A3010 910 67 -1600 310/07 RMK AO2 TSNO
94908KDBQ DBQ20060212205012902/12/06 20:50:31  5-MIN KDBQ 130250Z AUTO 31006KT 10SM CLR M08/M13 A3010 910 70 -1700 310/06 RMK AO2 SLP212 T10831128 53010 TSNO
94908KDBQ DBQ20060212205512902/12/06 20:55:31  5-MIN KDBQ 130255Z AUTO 29005KT 10SM CLR M09/M13 A3010 910 74 -1700 280/05 RMK AO2 SLP212 T10891128 50002 TSNO
94908KDBQ DBQ20060212210010602/12/06 21:00:31  5-MIN KDBQ 130300Z AUTO 29005KT 10SM CLR M09/M13 A3010 910 74 -1700 290/05 RMK AO2 TSNO
94908KDBQ DBQ20060212210510602/12/06 21:05:31  5-MIN KDBQ 130305Z AUTO 29006KT 10SM CLR M09/M13 A3010 910 77 -1800 290/06 RMK AO2 TSNO
94908KDBQ DBQ20060212211010602/12/06 21:10:31  5-MIN KDBQ 130310Z AUTO 29006KT 10SM CLR M09/M13 A3010 910 77 -1800 290/06 RMK AO2 TSNO
94908KDBQ DBQ20060212211510602/12/06 21:15:31  5-MIN KDBQ 130315Z AUTO 29007KT 10SM CLR M09/M13 A3010 910 74 -1700 290/07 RMK AO2 TSNO
94908KDBQ DBQ20060212212010602/12/06 21:20:31  5-MIN KDBQ 130320Z AUTO 29007KT 10SM CLR M09/M12 A3010 910 77 -1700 290/07 RMK AO2 TSNO
94908KDBQ DBQ20060212212510602/12/06 21:25:31  5-MIN KDBQ 130325Z AUTO 29008KT 10SM CLR M09/M12 A3010 910 77 -1700 290/08 RMK AO2 TSNO
94908KDBQ DBQ20060212213010602/12/06 21:30:31  5-MIN KDBQ 130330Z AUTO 29009KT 10SM CLR M09/M12 A3010 910 77 -1700 290/09 RMK AO2 TSNO
94908KDBQ DBQ20060212213510602/12/06 21:35:31  5-MIN KDBQ 130335Z AUTO 29007KT 10SM CLR M09/M12 A3010 920 80 -1800 290/07 RMK AO2 TSNO
94908KDBQ DBQ20060212214010602/12/06 21:40:31  5-MIN KDBQ 130340Z AUTO 29006KT 10SM CLR M09/M13 A3010 910 77 -1800 290/06 RMK AO2 TSNO
94908KDBQ DBQ20060212214510602/12/06 21:45:31  5-MIN KDBQ 130345Z AUTO 30007KT 10SM CLR M09/M13 A3010 910 77 -1800 300/07 RMK AO2 TSNO
94908KDBQ DBQ20060212215012302/12/06 21:50:31  5-MIN KDBQ 130350Z AUTO 30008KT 10SM CLR M09/M13 A3010 910 77 -1800 300/08 RMK AO2 SLP213 T10941128 TSNO
94908KDBQ DBQ20060212215512302/12/06 21:55:31  5-MIN KDBQ 130355Z AUTO 29007KT 10SM CLR M09/M13 A3010 910 77 -1800 290/07 RMK AO2 SLP212 T10941128 TSNO
94908KDBQ DBQ20060212220010602/12/06 22:00:31  5-MIN KDBQ 130400Z AUTO 30006KT 10SM CLR M09/M13 A3010 920 77 -1800 290/06 RMK AO2 TSNO
94908KDBQ DBQ20060212220510602/12/06 22:05:31  5-MIN KDBQ 130405Z AUTO 28005KT 10SM CLR M10/M13 A3009 920 80 -1900 280/05 RMK AO2 TSNO
94908KDBQ DBQ20060212221010602/12/06 22:10:31  5-MIN KDBQ 130410Z AUTO 29006KT 10SM CLR M10/M13 A3009 920 80 -1900 290/06 RMK AO2 TSNO
94908KDBQ DBQ20060212221510602/12/06 22:15:31  5-MIN KDBQ 130415Z AUTO 28006KT 10SM CLR M10/M13 A3009 920 80 -1900 280/06 RMK AO2 TSNO
94908KDBQ DBQ20060212222010602/12/06 22:20:31  5-MIN KDBQ 130420Z AUTO 29006KT 10SM CLR M11/M13 A3009 920 84 -2000 280/06 RMK AO2 TSNO
94908KDBQ DBQ20060212222510602/12/06 22:25:31  5-MIN KDBQ 130425Z AUTO 29007KT 10SM CLR M11/M13 A3009 920 84 -2000 290/07 RMK AO2 TSNO
94908KDBQ DBQ20060212223010602/12/06 22:30:31  5-MIN KDBQ 130430Z AUTO 29007KT 10SM CLR M10/M13 A3010 910 80 -1900 290/07 RMK AO2 TSNO
94908KDBQ DBQ20060212223510602/12/06 22:35:31  5-MIN KDBQ 130435Z AUTO 29009KT 10SM CLR M10/M13 A3010 910 80 -1900 290/09 RMK AO2 TSNO
94908KDBQ DBQ20060212224010602/12/06 22:40:31  5-MIN KDBQ 130440Z AUTO 30009KT 10SM CLR M10/M13 A3010 910 80 -1900 300/09 RMK AO2 TSNO
94908KDBQ DBQ20060212224510602/12/06 22:45:31  5-MIN KDBQ 130445Z AUTO 30010KT 10SM CLR M10/M13 A3010 910 80 -1900 300/10 RMK AO2 TSNO
94908KDBQ DBQ20060212225012302/12/06 22:50:31  5-MIN KDBQ 130450Z AUTO 30008KT 10SM CLR M10/M13 A3009 920 80 -1900 300/08 RMK AO2 SLP210 T11001128 TSNO
94908KDBQ DBQ20060212225512302/12/06 22:55:31  5-MIN KDBQ 130455Z AUTO 30008KT 10SM CLR M10/M13 A3009 920 80 -1900 300/08 RMK AO2 SLP210 T11001128 TSNO
94908KDBQ DBQ20060212230010602/12/06 23:00:31  5-MIN KDBQ 130500Z AUTO 30008KT 10SM CLR M10/M13 A3009 920 80 -1900 300/08 RMK AO2 TSNO
94908KDBQ DBQ20060212230510602/12/06 23:05:31  5-MIN KDBQ 130505Z AUTO 30007KT 10SM CLR M10/M13 A3009 920 80 -1900 300/07 RMK AO2 TSNO
94908KDBQ DBQ20060212231010602/12/06 23:10:31  5-MIN KDBQ 130510Z AUTO 30008KT 10SM CLR M10/M13 A3009 920 77 -1900 300/08 RMK AO2 TSNO
94908KDBQ DBQ20060212231510602/12/06 23:15:31  5-MIN KDBQ 130515Z AUTO 30008KT 10SM CLR M11/M13 A3009 930 80 -1900 300/08 RMK AO2 TSNO
94908KDBQ DBQ20060212232010602/12/06 23:20:31  5-MIN KDBQ 130520Z AUTO 31007KT 10SM CLR M11/M13 A3008 930 80 -1900 310/07 RMK AO2 TSNO
94908KDBQ DBQ20060212232510602/12/06 23:25:31  5-MIN KDBQ 130525Z AUTO 31007KT 10SM CLR M11/M13 A3008 930 80 -1900 310/07 RMK AO2 TSNO
94908KDBQ DBQ20060212233010602/12/06 23:30:31  5-MIN KDBQ 130530Z AUTO 30008KT 10SM CLR M11/M13 A3008 930 80 -1900 300/08 RMK AO2 TSNO
94908KDBQ DBQ20060212233510602/12/06 23:35:31  5-MIN KDBQ 130535Z AUTO 29007KT 10SM CLR M11/M13 A3008 930 80 -1900 290/07 RMK AO2 TSNO
94908KDBQ DBQ20060212234010602/12/06 23:40:31  5-MIN KDBQ 130540Z AUTO 30006KT 10SM CLR M11/M13 A3008 930 80 -1900 300/06 RMK AO2 TSNO
94908KDBQ DBQ20060212234510602/12/06 23:45:31  5-MIN KDBQ 130545Z AUTO 30006KT 10SM CLR M11/M13 A3008 930 80 -1900 300/06 RMK AO2 TSNO
94908KDBQ DBQ20060212235015102/12/06 23:50:31  5-MIN KDBQ 130550Z AUTO 30005KT 10SM CLR M11/M13 A3008 930 84 -2000 300/05 RMK AO2 SLP205 T11111133 11044 21111 410331111 50002 TSNO
94908KDBQ DBQ20060213235015302/13/06 23:50:31  5-MIN KDBQ 140550Z AUTO 27010KT 8SM OVC015 M02/M06 A2982 1180 78 -600 270/10 RMK AO2 SLP109 T10221056 10017 21022 400611122 50014 TSNO
94908KDBQ DBQ20060213235515302/13/06 23:55:31  5-MIN KDBQ 140555Z AUTO 27010KT 8SM OVC013 M02/M06 A2981 1180 78 -600 270/10 RMK AO2 SLP107 T10221056 10017 21022 400611122 51004 TSNO
94908KDBQ DBQ20060214000010802/14/06 00:00:38  5-MIN KDBQ 140600Z AUTO 27009KT 8SM OVC013 M02/M06 A2981 1180 78 -600 270/09 RMK AO2 TSNO
94908KDBQ DBQ20060214000510802/14/06 00:05:31  5-MIN KDBQ 140605Z AUTO 27010KT 8SM OVC013 M02/M06 A2981 1180 78 -600 270/10 RMK AO2 TSNO
94908KDBQ DBQ20060214001010802/14/06 00:10:31  5-MIN KDBQ 140610Z AUTO 26009KT 8SM OVC013 M02/M06 A2981 1180 78 -600 260/09 RMK AO2 TSNO
94908KDBQ DBQ20060214001510802/14/06 00:15:32  5-MIN KDBQ 140615Z AUTO 28011KT 8SM OVC013 M02/M06 A2981 1180 78 -600 280/11 RMK AO2 TSNO
94908KDBQ DBQ20060214002010802/14/06 00:20:31  5-MIN KDBQ 140620Z AUTO 30009KT 8SM OVC013 M03/M06 A2981 1180 81 -600 300/09 RMK AO2 TSNO
94908KDBQ DBQ20060214002510802/14/06 00:25:31  5-MIN KDBQ 140625Z AUTO 30010KT 8SM OVC013 M02/M06 A2981 1180 78 -600 300/10 RMK AO2 TSNO
94908KDBQ DBQ20060214003010802/14/06 00:30:31  5-MIN KDBQ 140630Z AUTO 29007KT 8SM OVC013 M02/M06 A2981 1180 78 -600 290/07 RMK AO2 TSNO
94908KDBQ DBQ20060214003510802/14/06 00:35:31  5-MIN KDBQ 140635Z AUTO 28007KT 8SM OVC013 M02/M06 A2981 1180 78 -500 280/07 RMK AO2 TSNO
94908KDBQ DBQ20060214004010802/14/06 00:40:31  5-MIN KDBQ 140640Z AUTO 27008KT 8SM OVC013 M02/M06 A2981 1190 78 -500 270/08 RMK AO2 TSNO
94908KDBQ DBQ20060214004510802/14/06 00:45:31  5-MIN KDBQ 140645Z AUTO 27010KT 8SM OVC013 M03/M06 A2981 1180 81 -600 270/10 RMK AO2 TSNO
94908KDBQ DBQ20060214005012502/14/06 00:50:31  5-MIN KDBQ 140650Z AUTO 27010KT 8SM OVC013 M03/M06 A2981 1180 81 -600 270/10 RMK AO2 SLP107 T10281056 TSNO
94908KDBQ DBQ20060214005512502/14/06 00:55:31  5-MIN KDBQ 140655Z AUTO 28011KT 8SM OVC013 M03/M06 A2982 1170 81 -600 280/11 RMK AO2 SLP109 T10281056 TSNO
94908KDBQ DBQ20060214010010802/14/06 01:00:31  5-MIN KDBQ 140700Z AUTO 29010KT 8SM OVC013 M03/M06 A2982 1180 81 -600 290/10 RMK AO2 TSNO
94908KDBQ DBQ20060214010510802/14/06 01:05:31  5-MIN KDBQ 140705Z AUTO 28009KT 8SM OVC013 M03/M06 A2982 1180 81 -600 280/09 RMK AO2 TSNO
94908KDBQ DBQ20060214011010802/14/06 01:10:31  5-MIN KDBQ 140710Z AUTO 26008KT 8SM OVC013 M03/M06 A2981 1180 81 -600 260/08 RMK AO2 TSNO
94908KDBQ DBQ20060214011510802/14/06 01:15:31  5-MIN KDBQ 140715Z AUTO 28010KT 8SM OVC013 M03/M06 A2980 1190 81 -600 280/10 RMK AO2 TSNO
94908KDBQ DBQ20060214012010802/14/06 01:20:31  5-MIN KDBQ 140720Z AUTO 27009KT 8SM OVC013 M03/M06 A2981 1180 81 -600 270/09 RMK AO2 TSNO
94908KDBQ DBQ20060214012510802/14/06 01:25:31  5-MIN KDBQ 140725Z AUTO 27010KT 8SM OVC011 M03/M06 A2981 1180 81 -600 260/10 RMK AO2 TSNO
94908KDBQ DBQ20060214013010802/14/06 01:30:31  5-MIN KDBQ 140730Z AUTO 27008KT 8SM OVC011 M03/M06 A2981 1180 81 -600 270/08 RMK AO2 TSNO
94908KDBQ DBQ20060214013510802/14/06 01:35:31  5-MIN KDBQ 140735Z AUTO 27010KT 8SM OVC011 M03/M06 A2981 1180 81 -600 270/10 RMK AO2 TSNO
94908KDBQ DBQ20060214014010802/14/06 01:40:31  5-MIN KDBQ 140740Z AUTO 27009KT 8SM BKN011 M03/M06 A2982 1180 85 -700 270/09 RMK AO2 TSNO
94908KDBQ DBQ20060214014510802/14/06 01:45:31  5-MIN KDBQ 140745Z AUTO 27008KT 7SM BKN011 M04/M06 A2981 1180 85 -800 270/08 RMK AO2 TSNO
94908KDBQ DBQ20060214015010802/14/06 01:50:31  5-MIN KDBQ 140750Z AUTO 27008KT 7SM SCT011 M04/M06 A2982 1170 85 -800 260/08 RMK AO2 TSNO
94908KDBQ DBQ20060214015512502/14/06 01:55:31  5-MIN KDBQ 140755Z AUTO 27007KT 7SM BKN011 M04/M06 A2982 1170 85 -800 270/07 RMK AO2 SLP108 T10391061 TSNO
94908KDBQ DBQ20060214020010802/14/06 02:00:31  5-MIN KDBQ 140800Z AUTO 26007KT 7SM SCT011 M04/M06 A2981 1180 85 -800 260/07 RMK AO2 TSNO
94908KDBQ DBQ20060214020510802/14/06 02:05:31  5-MIN KDBQ 140805Z AUTO 27006KT 7SM FEW011 M04/M06 A2981 1180 85 -800 270/06 RMK AO2 TSNO
94908KDBQ DBQ20060214021010802/14/06 02:10:31  5-MIN KDBQ 140810Z AUTO 27006KT 7SM FEW011 M04/M07 A2981 1180 84 -800 270/06 RMK AO2 TSNO
94908KDBQ DBQ20060214021510802/14/06 02:15:31  5-MIN KDBQ 140815Z AUTO 27005KT 7SM FEW011 M04/M07 A2981 1180 84 -800 270/05 RMK AO2 TSNO
94908KDBQ DBQ20060214022010802/14/06 02:20:31  5-MIN KDBQ 140820Z AUTO 27005KT 7SM FEW011 M05/M07 A2981 1180 88 -900 270/05 RMK AO2 TSNO
94908KDBQ DBQ20060214022510502/14/06 02:25:31  5-MIN KDBQ 140825Z AUTO 27004KT 7SM CLR M05/M07 A2981 1190 88 -900 260/04 RMK AO2 TSNO
94908KDBQ DBQ20060214023010602/14/06 02:30:31  5-MIN KDBQ 140830Z AUTO 24004KT 7SM CLR M06/M07 A2980 1190 88 -1000 240/04 RMK AO2 TSNO
94908KDBQ DBQ20060214023510902/14/06 02:35:31  5-MIN KDBQ 140835Z AUTO 25005KT 6SM BR CLR M06/M07 A2980 1190 88 -1000 250/05 RMK AO2 TSNO
94908KDBQ DBQ20060214024010902/14/06 02:40:31  5-MIN KDBQ 140840Z AUTO 25005KT 6SM BR CLR M06/M07 A2980 1190 88 -1000 250/05 RMK AO2 TSNO
94908KDBQ DBQ20060214024510902/14/06 02:45:31  5-MIN KDBQ 140845Z AUTO 25005KT 6SM BR CLR M06/M08 A2980 1190 84 -1000 240/05 RMK AO2 TSNO
94908KDBQ DBQ20060214025013202/14/06 02:50:31  5-MIN KDBQ 140850Z AUTO 23005KT 6SM BR CLR M06/M08 A2980 1190 88 -1000 230/05 RMK AO2 SLP103 T10611078 51004 TSNO
94908KDBQ DBQ20060214025513202/14/06 02:55:31  5-MIN KDBQ 140855Z AUTO 23005KT 6SM BR CLR M06/M08 A2980 1190 88 -1000 230/05 RMK AO2 SLP101 T10611078 58005 TSNO
94908KDBQ DBQ20060214030010902/14/06 03:00:31  5-MIN KDBQ 140900Z AUTO 24004KT 6SM BR CLR M06/M08 A2980 1190 88 -1000 240/04 RMK AO2 TSNO
94908KDBQ DBQ20060214030510902/14/06 03:05:31  5-MIN KDBQ 140905Z AUTO 24005KT 5SM BR CLR M07/M08 A2980 1190 92 -1100 240/05 RMK AO2 TSNO
94908KDBQ DBQ20060214031010902/14/06 03:10:31  5-MIN KDBQ 140910Z AUTO 23004KT 5SM BR CLR M07/M08 A2979 1200 92 -1100 230/04 RMK AO2 TSNO
94908KDBQ DBQ20060214031510902/14/06 03:15:31  5-MIN KDBQ 140915Z AUTO 22005KT 6SM BR CLR M06/M08 A2979 1200 88 -1000 220/05 RMK AO2 TSNO
94908KDBQ DBQ20060214032010902/14/06 03:20:31  5-MIN KDBQ 140920Z AUTO 22005KT 6SM BR CLR M07/M08 A2979 1200 92 -1100 220/05 RMK AO2 TSNO
94908KDBQ DBQ20060214032510902/14/06 03:25:31  5-MIN KDBQ 140925Z AUTO 23006KT 6SM BR CLR M07/M08 A2979 1200 92 -1100 230/06 RMK AO2 TSNO
94908KDBQ DBQ20060214033010902/14/06 03:30:31  5-MIN KDBQ 140930Z AUTO 23005KT 6SM BR CLR M07/M08 A2979 1200 88 -1100 230/05 RMK AO2 TSNO
94908KDBQ DBQ20060214033510902/14/06 03:35:31  5-MIN KDBQ 140935Z AUTO 23006KT 5SM BR CLR M07/M08 A2980 1190 92 -1200 230/06 RMK AO2 TSNO
94908KDBQ DBQ20060214034010902/14/06 03:40:31  5-MIN KDBQ 140940Z AUTO 23006KT 5SM BR CLR M07/M09 A2980 1190 88 -1200 230/06 RMK AO2 TSNO
94908KDBQ DBQ20060214034510902/14/06 03:45:31  5-MIN KDBQ 140945Z AUTO 23006KT 5SM BR CLR M07/M09 A2979 1200 88 -1200 230/06 RMK AO2 TSNO
94908KDBQ DBQ20060214035012602/14/06 03:50:31  5-MIN KDBQ 140950Z AUTO 23006KT 5SM BR CLR M07/M08 A2979 1200 92 -1200 230/06 RMK AO2 SLP100 T10721083 TSNO
94908KDBQ DBQ20060214035512602/14/06 03:55:31  5-MIN KDBQ 140955Z AUTO 22006KT 5SM BR CLR M07/M08 A2978 1200 92 -1200 220/06 RMK AO2 SLP098 T10721083 TSNO
94908KDBQ DBQ20060214040010902/14/06 04:00:31  5-MIN KDBQ 141000Z AUTO 22007KT 5SM BR CLR M07/M08 A2979 1200 92 -1200 220/07 RMK AO2 TSNO
94908KDBQ DBQ20060214040510902/14/06 04:05:31  5-MIN KDBQ 141005Z AUTO 22007KT 5SM BR CLR M07/M08 A2979 1200 92 -1200 220/07 RMK AO2 TSNO
94908KDBQ DBQ20060214041010902/14/06 04:10:31  5-MIN KDBQ 141010Z AUTO 22006KT 5SM BR CLR M07/M08 A2979 1200 92 -1200 220/06 RMK AO2 TSNO
94908KDBQ DBQ20060214041510902/14/06 04:15:31  5-MIN KDBQ 141015Z AUTO 22006KT 5SM BR CLR M07/M08 A2978 1200 92 -1200 220/06 RMK AO2 TSNO
94908KDBQ DBQ20060214042010902/14/06 04:20:31  5-MIN KDBQ 141020Z AUTO 21007KT 5SM BR CLR M07/M09 A2979 1200 88 -1200 210/07 RMK AO2 TSNO
94908KDBQ DBQ20060214042510902/14/06 04:25:31  5-MIN KDBQ 141025Z AUTO 21007KT 5SM BR CLR M07/M08 A2978 1210 92 -1200 210/07 RMK AO2 TSNO
94908KDBQ DBQ20060214043010902/14/06 04:30:31  5-MIN KDBQ 141030Z AUTO 22008KT 5SM BR CLR M07/M08 A2979 1200 92 -1200 220/08 RMK AO2 TSNO
94908KDBQ DBQ20060214043510902/14/06 04:35:31  5-MIN KDBQ 141035Z AUTO 22009KT 5SM BR CLR M07/M08 A2979 1200 88 -1100 220/09 RMK AO2 TSNO
94908KDBQ DBQ20060214044010902/14/06 04:40:31  5-MIN KDBQ 141040Z AUTO 22008KT 5SM BR CLR M07/M08 A2979 1200 88 -1100 220/08 RMK AO2 TSNO
94908KDBQ DBQ20060214044510902/14/06 04:45:31  5-MIN KDBQ 141045Z AUTO 22009KT 5SM BR CLR M07/M08 A2980 1190 92 -1100 220/09 RMK AO2 TSNO
94908KDBQ DBQ20060214045012602/14/06 04:50:31  5-MIN KDBQ 141050Z AUTO 22008KT 5SM BR CLR M07/M08 A2979 1200 92 -1100 220/08 RMK AO2 SLP102 T10671078 TSNO
94908KDBQ DBQ20060214045512602/14/06 04:55:31  5-MIN KDBQ 141055Z AUTO 22008KT 6SM BR CLR M07/M08 A2979 1200 92 -1100 220/08 RMK AO2 SLP102 T10671078 TSNO
94908KDBQ DBQ20060214050010902/14/06 05:00:31  5-MIN KDBQ 141100Z AUTO 22008KT 6SM BR CLR M07/M08 A2979 1200 92 -1100 220/08 RMK AO2 TSNO
94908KDBQ DBQ20060214050510902/14/06 05:05:31  5-MIN KDBQ 141105Z AUTO 21008KT 6SM BR CLR M07/M08 A2979 1200 88 -1100 210/08 RMK AO2 TSNO
94908KDBQ DBQ20060214051010902/14/06 05:10:31  5-MIN KDBQ 141110Z AUTO 21007KT 6SM BR CLR M07/M08 A2979 1200 88 -1100 210/07 RMK AO2 TSNO
94908KDBQ DBQ20060214051510902/14/06 05:15:31  5-MIN KDBQ 141115Z AUTO 21008KT 6SM BR CLR M07/M08 A2979 1200 88 -1100 210/08 RMK AO2 TSNO
94908KDBQ DBQ20060214052010902/14/06 05:20:31  5-MIN KDBQ 141120Z AUTO 22008KT 6SM BR CLR M06/M08 A2979 1200 88 -1000 210/08 RMK AO2 TSNO
94908KDBQ DBQ20060214052510902/14/06 05:25:31  5-MIN KDBQ 141125Z AUTO 21008KT 6SM BR CLR M06/M08 A2978 1200 88 -1000 210/08 RMK AO2 TSNO
94908KDBQ DBQ20060214053010902/14/06 05:30:31  5-MIN KDBQ 141130Z AUTO 20010KT 6SM BR CLR M07/M08 A2979 1200 88 -1100 200/10 RMK AO2 TSNO
94908KDBQ DBQ20060214053510902/14/06 05:35:31  5-MIN KDBQ 141135Z AUTO 20010KT 6SM BR CLR M07/M08 A2979 1200 88 -1100 200/10 RMK AO2 TSNO
94908KDBQ DBQ20060214054010902/14/06 05:40:31  5-MIN KDBQ 141140Z AUTO 20009KT 6SM BR CLR M07/M08 A2979 1200 88 -1100 200/09 RMK AO2 TSNO
94908KDBQ DBQ20060214054510902/14/06 05:45:31  5-MIN KDBQ 141145Z AUTO 20009KT 6SM BR CLR M07/M08 A2979 1200 88 -1100 200/09 RMK AO2 TSNO
94908KDBQ DBQ20060214055013102/14/06 05:50:31  5-MIN KDBQ 141150Z 20008KT 8SM CLR M07/M08 A2978 1200 88 -1100 200/08 RMK AO2 SLP099 T10671083 11022 21072 58005
94908KDBQ DBQ20060214055513102/14/06 05:55:31  5-MIN KDBQ 141155Z 20007KT 8SM CLR M07/M08 A2979 1200 88 -1100 200/07 RMK AO2 SLP100 T10671083 11022 21072 56002
94908KDBQ DBQ20060214060009602/14/06 06:00:31  5-MIN KDBQ 141200Z 20008KT 8SM CLR M07/M08 A2979 1200 88 -1100 200/08 RMK AO2
94908KDBQ DBQ20060214060509602/14/06 06:05:31  5-MIN KDBQ 141205Z 19006KT 8SM CLR M07/M08 A2979 1200 88 -1100 190/06 RMK AO2
94908KDBQ DBQ20060214061009602/14/06 06:10:31  5-MIN KDBQ 141210Z 19008KT 8SM CLR M07/M08 A2979 1200 88 -1100 190/08 RMK AO2
94908KDBQ DBQ20060214061509602/14/06 06:15:31  5-MIN KDBQ 141215Z 20007KT 8SM CLR M07/M08 A2979 1200 88 -1100 200/07 RMK AO2
94908KDBQ DBQ20060214062009602/14/06 06:20:31  5-MIN KDBQ 141220Z 20008KT 8SM CLR M07/M08 A2979 1200 88 -1100 190/08 RMK AO2
94908KDBQ DBQ20060214062509602/14/06 06:25:31  5-MIN KDBQ 141225Z 20007KT 8SM CLR M07/M08 A2979 1200 88 -1100 200/07 RMK AO2
94908KDBQ DBQ20060214063009902/14/06 06:30:31  5-MIN KDBQ 141230Z 20007KT 5SM BR CLR M07/M08 A2979 1200 88 -1100 200/07 RMK AO2
94908KDBQ DBQ20060214063509902/14/06 06:35:31  5-MIN KDBQ 141235Z 20007KT 5SM BR CLR M07/M08 A2979 1200 88 -1100 200/07 RMK AO2
94908KDBQ DBQ20060214064009902/14/06 06:40:31  5-MIN KDBQ 141240Z 20008KT 5SM BR CLR M07/M08 A2979 1200 88 -1100 200/08 RMK AO2
94908KDBQ DBQ20060214064509902/14/06 06:45:31  5-MIN KDBQ 141245Z 20009KT 5SM BR CLR M07/M08 A2979 1200 88 -1100 200/09 RMK AO2
94908KDBQ DBQ20060214065011602/14/06 06:50:31  5-MIN KDBQ 141250Z 20009KT 4SM BR CLR M07/M08 A2979 1200 92 -1100 200/09 RMK AO2 SLP101 T10671078
94908KDBQ DBQ20060214065511602/14/06 06:55:31  5-MIN KDBQ 141255Z 20010KT 4SM BR CLR M07/M08 A2979 1200 92 -1100 200/10 RMK AO2 SLP101 T10671078
94908KDBQ DBQ20060214070009902/14/06 07:00:31  5-MIN KDBQ 141300Z 20010KT 4SM BR CLR M07/M08 A2979 1200 92 -1100 200/10 RMK AO2
94908KDBQ DBQ20060214070509902/14/06 07:05:31  5-MIN KDBQ 141305Z 21009KT 4SM BR CLR M07/M08 A2979 1200 88 -1100 200/09 RMK AO2
94908KDBQ DBQ20060214071009902/14/06 07:10:31  5-MIN KDBQ 141310Z 21008KT 3SM BR CLR M07/M08 A2979 1200 92 -1100 210/08 RMK AO2
94908KDBQ DBQ20060214071509902/14/06 07:15:31  5-MIN KDBQ 141315Z 20010KT 3SM BR CLR M07/M08 A2979 1200 92 -1100 200/10 RMK AO2
94908KDBQ DBQ20060214072009902/14/06 07:20:31  5-MIN KDBQ 141320Z 20011KT 3SM BR CLR M07/M08 A2979 1200 92 -1100 200/11 RMK AO2
94908KDBQ DBQ20060214072509902/14/06 07:25:31  5-MIN KDBQ 141325Z 20011KT 3SM BR CLR M06/M08 A2979 1200 88 -1000 200/11 RMK AO2
94908KDBQ DBQ20060214073009902/14/06 07:30:31  5-MIN KDBQ 141330Z 21010KT 4SM BR CLR M06/M07 A2979 1200 92 -1000 210/10 RMK AO2
94908KDBQ DBQ20060214073509902/14/06 07:35:31  5-MIN KDBQ 141335Z 21010KT 4SM BR CLR M06/M07 A2979 1200 88 -1000 210/10 RMK AO2
94908KDBQ DBQ20060214074009802/14/06 07:40:31  5-MIN KDBQ 141340Z 20011KT 4SM BR CLR M06/M07 A2978 1200 92 -900 200/11 RMK AO2
94908KDBQ DBQ20060214074509802/14/06 07:45:31  5-MIN KDBQ 141345Z 21010KT 4SM BR CLR M05/M07 A2979 1200 88 -900 210/10 RMK AO2
94908KDBQ DBQ20060214075011502/14/06 07:50:31  5-MIN KDBQ 141350Z 21010KT 4SM BR CLR M04/M06 A2979 1200 88 -800 210/10 RMK AO2 SLP099 T10441061
94908KDBQ DBQ20060214075511502/14/06 07:55:31  5-MIN KDBQ 141355Z 22011KT 5SM BR CLR M04/M06 A2979 1200 88 -700 210/11 RMK AO2 SLP100 T10391056
94908KDBQ DBQ20060214080009802/14/06 08:00:31  5-MIN KDBQ 141400Z 22011KT 5SM BR CLR M03/M06 A2979 1200 85 -700 220/11 RMK AO2
94908KDBQ DBQ20060214080509802/14/06 08:05:31  5-MIN KDBQ 141405Z 22010KT 6SM BR CLR M03/M05 A2979 1200 88 -700 220/10 RMK AO2
94908KDBQ DBQ20060214081009802/14/06 08:10:31  5-MIN KDBQ 141410Z 22011KT 6SM BR CLR M03/M05 A2979 1200 85 -600 220/11 RMK AO2
94908KDBQ DBQ20060214081509802/14/06 08:15:31  5-MIN KDBQ 141415Z 22009KT 6SM BR CLR M03/M05 A2979 1200 85 -600 220/09 RMK AO2
94908KDBQ DBQ20060214082009802/14/06 08:20:31  5-MIN KDBQ 141420Z 22008KT 6SM BR CLR M02/M04 A2979 1200 85 -500 210/08 RMK AO2
94908KDBQ DBQ20060214082509802/14/06 08:25:31  5-MIN KDBQ 141425Z 21009KT 6SM BR CLR M02/M04 A2979 1200 88 -500 210/09 RMK AO2
94908KDBQ DBQ20060214083009802/14/06 08:30:31  5-MIN KDBQ 141430Z 21009KT 6SM BR CLR M02/M04 A2979 1200 85 -500 210/09 RMK AO2
94908KDBQ DBQ20060214083509502/14/06 08:35:31  5-MIN KDBQ 141435Z 21009KT 7SM CLR M02/M04 A2979 1200 85 -500 210/09 RMK AO2
94908KDBQ DBQ20060214084009502/14/06 08:40:31  5-MIN KDBQ 141440Z 21008KT 7SM CLR M02/M04 A2979 1200 85 -500 210/08 RMK AO2
94908KDBQ DBQ20060214084509502/14/06 08:45:31  5-MIN KDBQ 141445Z 21008KT 7SM CLR M01/M04 A2979 1200 81 -400 210/08 RMK AO2
94908KDBQ DBQ20060214085011802/14/06 08:50:31  5-MIN KDBQ 141450Z 21007KT 7SM CLR M01/M04 A2978 1210 81 -400 210/07 RMK AO2 SLP098 T10111039 56002
94908KDBQ DBQ20060214085511802/14/06 08:55:31  5-MIN KDBQ 141455Z 22007KT 8SM CLR M01/M03 A2978 1210 81 -300 210/07 RMK AO2 SLP097 T10061033 58003
94908KDBQ DBQ20060214090009502/14/06 09:00:31  5-MIN KDBQ 141500Z 21010KT 8SM CLR M01/M03 A2978 1210 81 -300 210/10 RMK AO2
94908KDBQ DBQ20060214090509502/14/06 09:05:31  5-MIN KDBQ 141505Z 21009KT 8SM CLR M01/M03 A2978 1210 81 -300 210/09 RMK AO2
94908KDBQ DBQ20060214091009402/14/06 09:10:31  5-MIN KDBQ 141510Z 21011KT 8SM CLR 00/M03 A2977 1210 78 -200 210/11 RMK AO2
94908KDBQ DBQ20060214091509402/14/06 09:15:31  5-MIN KDBQ 141515Z 21011KT 9SM CLR 01/M03 A2977 1220 75 -200 210/11 RMK AO2
94908KDBQ DBQ20060214092009502/14/06 09:20:31  5-MIN KDBQ 141520Z 21011KT 10SM CLR 01/M03 A2977 1220 72 -100 210/11 RMK AO2
94908KDBQ DBQ20060214092509502/14/06 09:25:31  5-MIN KDBQ 141525Z 20010KT 10SM CLR 01/M03 A2977 1220 75 -100 200/10 RMK AO2
94908KDBQ DBQ20060214093009202/14/06 09:30:31  5-MIN KDBQ 141530Z 21010KT 10SM CLR 02/M03 A2977 1220 72 0 200/10 RMK AO2
94908KDBQ DBQ20060214093509202/14/06 09:35:31  5-MIN KDBQ 141535Z 20012KT 10SM CLR 02/M03 A2977 1220 69 0 200/12 RMK AO2
94908KDBQ DBQ20060214094009202/14/06 09:40:31  5-MIN KDBQ 141540Z 21012KT 10SM CLR 02/M03 A2977 1220 69 0 210/12 RMK AO2
94908KDBQ DBQ20060214094509202/14/06 09:45:31  5-MIN KDBQ 141545Z 21011KT 10SM CLR 02/M03 A2977 1220 69 0 210/11 RMK AO2
94908KDBQ DBQ20060214095011102/14/06 09:50:31  5-MIN KDBQ 141550Z 20012KT 10SM CLR 03/M03 A2976 1220 67 100 200/12 RMK AO2 SLP089 T00281028
94908KDBQ DBQ20060214095511102/14/06 09:55:31  5-MIN KDBQ 141555Z 21015KT 10SM CLR 03/M03 A2976 1220 64 100 200/15 RMK AO2 SLP089 T00331028
94908KDBQ DBQ20060214100009402/14/06 10:00:31  5-MIN KDBQ 141600Z 21015KT 10SM CLR 04/M03 A2976 1220 62 200 210/15 RMK AO2
94908KDBQ DBQ20060214100509402/14/06 10:05:31  5-MIN KDBQ 141605Z 21016KT 10SM CLR 04/M03 A2976 1230 59 300 210/16 RMK AO2
94908KDBQ DBQ20060214101009402/14/06 10:10:31  5-MIN KDBQ 141610Z 21014KT 10SM CLR 04/M03 A2976 1230 59 300 210/14 RMK AO2
94908KDBQ DBQ20060214101509402/14/06 10:15:31  5-MIN KDBQ 141615Z 21014KT 10SM CLR 05/M03 A2976 1220 57 300 210/14 RMK AO2
94908KDBQ DBQ20060214102009402/14/06 10:20:31  5-MIN KDBQ 141620Z 21013KT 10SM CLR 06/M02 A2977 1220 57 400 210/13 RMK AO2
94908KDBQ DBQ20060214102509402/14/06 10:25:31  5-MIN KDBQ 141625Z 21014KT 10SM CLR 06/M02 A2977 1220 55 500 210/14 RMK AO2
94908KDBQ DBQ20060214103009402/14/06 10:30:31  5-MIN KDBQ 141630Z 21013KT 10SM CLR 06/M02 A2977 1220 55 500 210/13 RMK AO2
94908KDBQ DBQ20060214103509402/14/06 10:35:31  5-MIN KDBQ 141635Z 22016KT 10SM CLR 07/M02 A2977 1220 51 600 220/16 RMK AO2
94908KDBQ DBQ20060214104009402/14/06 10:40:31  5-MIN KDBQ 141640Z 22017KT 10SM CLR 07/M02 A2976 1220 51 600 220/17 RMK AO2
94908KDBQ DBQ20060214104510002/14/06 10:45:31  5-MIN KDBQ 141645Z 22017G22KT 10SM CLR 07/M02 A2976 1230 51 600 220/17G22 RMK AO2
94908KDBQ DBQ20060214105011102/14/06 10:50:31  5-MIN KDBQ 141650Z 21016KT 10SM CLR 08/M02 A2976 1230 47 800 210/16 RMK AO2 SLP086 T00831022
94908KDBQ DBQ20060214105511102/14/06 10:55:31  5-MIN KDBQ 141655Z 21018KT 10SM CLR 08/M03 A2976 1230 45 800 210/18 RMK AO2 SLP084 T00831028
94908KDBQ DBQ20060214110009402/14/06 11:00:31  5-MIN KDBQ 141700Z 21017KT 10SM CLR 08/M03 A2975 1230 45 800 210/17 RMK AO2
94908KDBQ DBQ20060214110509402/14/06 11:05:31  5-MIN KDBQ 141705Z 21015KT 10SM CLR 09/M02 A2975 1240 45 800 210/15 RMK AO2
94908KDBQ DBQ20060214111009402/14/06 11:10:31  5-MIN KDBQ 141710Z 21014KT 10SM CLR 09/M02 A2975 1240 44 900 210/14 RMK AO2
94908KDBQ DBQ20060214111509402/14/06 11:15:31  5-MIN KDBQ 141715Z 21016KT 10SM CLR 09/M02 A2974 1250 44 900 210/16 RMK AO2
94908KDBQ DBQ20060214112009502/14/06 11:20:31  5-MIN KDBQ 141720Z 21016KT 10SM CLR 10/M02 A2974 1250 42 1000 210/16 RMK AO2
94908KDBQ DBQ20060214112509502/14/06 11:25:31  5-MIN KDBQ 141725Z 22014KT 10SM CLR 10/M02 A2974 1250 42 1000 210/14 RMK AO2
94908KDBQ DBQ20060214113009502/14/06 11:30:31  5-MIN KDBQ 141730Z 22014KT 10SM CLR 10/M02 A2974 1250 42 1000 220/14 RMK AO2
94908KDBQ DBQ20060214113509502/14/06 11:35:31  5-MIN KDBQ 141735Z 23014KT 10SM CLR 11/M03 A2973 1250 39 1100 230/14 RMK AO2
94908KDBQ DBQ20060214114009502/14/06 11:40:31  5-MIN KDBQ 141740Z 22013KT 10SM CLR 12/M02 A2974 1250 38 1200 220/13 RMK AO2
94908KDBQ DBQ20060214114509502/14/06 11:45:31  5-MIN KDBQ 141745Z 23013KT 10SM CLR 11/M03 A2974 1250 37 1100 230/13 RMK AO2
94908KDBQ DBQ20060214115013002/14/06 11:50:31  5-MIN KDBQ 141750Z 24015KT 10SM CLR 12/M03 A2974 1250 35 1300 240/15 RMK AO2 SLP077 T01221028 10122 21067 58003
94908KDBQ DBQ20060214115513602/14/06 11:55:31  5-MIN KDBQ 141755Z 24015G20KT 10SM CLR 12/M03 A2974 1250 35 1300 240/15G20 RMK AO2 SLP077 T01221028 10122 21067 58015
94908KDBQ DBQ20060214120009502/14/06 12:00:31  5-MIN KDBQ 141800Z 24016KT 10SM CLR 12/M03 A2973 1250 33 1300 240/16 RMK AO2
94908KDBQ DBQ20060214120509502/14/06 12:05:31  5-MIN KDBQ 141805Z 23016KT 10SM CLR 12/M03 A2974 1250 35 1300 230/16 RMK AO2
94908KDBQ DBQ20060214121009502/14/06 12:10:31  5-MIN KDBQ 141810Z 25012KT 10SM CLR 12/M03 A2974 1250 35 1300 250/12 RMK AO2
94908KDBQ DBQ20060214121509502/14/06 12:15:31  5-MIN KDBQ 141815Z 25013KT 10SM CLR 13/M03 A2973 1250 33 1300 250/13 RMK AO2
94908KDBQ DBQ20060214122009502/14/06 12:20:31  5-MIN KDBQ 141820Z 23014KT 10SM CLR 13/M03 A2973 1250 32 1300 230/14 RMK AO2
94908KDBQ DBQ20060214122509502/14/06 12:25:31  5-MIN KDBQ 141825Z 25013KT 10SM CLR 13/M03 A2973 1260 32 1400 250/13 RMK AO2
94908KDBQ DBQ20060214123009502/14/06 12:30:31  5-MIN KDBQ 141830Z 25014KT 10SM CLR 13/M03 A2972 1260 31 1400 250/14 RMK AO2
94908KDBQ DBQ20060214123509502/14/06 12:35:31  5-MIN KDBQ 141835Z 25011KT 10SM CLR 13/M03 A2972 1270 31 1400 250/11 RMK AO2
94908KDBQ DBQ20060214124009502/14/06 12:40:31  5-MIN KDBQ 141840Z 24015KT 10SM CLR 13/M03 A2971 1270 31 1400 240/15 RMK AO2
94908KDBQ DBQ20060214124509502/14/06 12:45:31  5-MIN KDBQ 141845Z 24012KT 10SM CLR 13/M03 A2971 1270 31 1400 240/12 RMK AO2
94908KDBQ DBQ20060214125011202/14/06 12:50:31  5-MIN KDBQ 141850Z 25011KT 10SM CLR 13/M03 A2971 1280 31 1400 240/11 RMK AO2 SLP066 T01331033
94908KDBQ DBQ20060214125511202/14/06 12:55:31  5-MIN KDBQ 141855Z 23012KT 10SM CLR 14/M03 A2970 1280 30 1500 230/12 RMK AO2 SLP064 T01391033
94908KDBQ DBQ20060214130010102/14/06 13:00:31  5-MIN KDBQ 141900Z 24012G18KT 10SM CLR 14/M03 A2970 1280 30 1500 240/12G18 RMK AO2
94908KDBQ DBQ20060214130509502/14/06 13:05:31  5-MIN KDBQ 141905Z 24010KT 10SM CLR 13/M03 A2970 1280 31 1400 230/10 RMK AO2
94908KDBQ DBQ20060214131009502/14/06 13:10:31  5-MIN KDBQ 141910Z 21011KT 10SM CLR 13/M03 A2970 1290 31 1400 210/11 RMK AO2
94908KDBQ DBQ20060214131509502/14/06 13:15:31  5-MIN KDBQ 141915Z 22015KT 10SM CLR 13/M04 A2969 1290 30 1400 220/15 RMK AO2
94908KDBQ DBQ20060214132009502/14/06 13:20:31  5-MIN KDBQ 141920Z 23012KT 10SM CLR 13/M04 A2969 1290 30 1400 230/12 RMK AO2
94908KDBQ DBQ20060214132509502/14/06 13:25:31  5-MIN KDBQ 141925Z 23011KT 10SM CLR 13/M03 A2969 1290 31 1400 230/11 RMK AO2
94908KDBQ DBQ20060214133009502/14/06 13:30:31  5-MIN KDBQ 141930Z 23012KT 10SM CLR 13/M04 A2968 1300 30 1400 230/12 RMK AO2
94908KDBQ DBQ20060214133509502/14/06 13:35:31  5-MIN KDBQ 141935Z 24012KT 10SM CLR 13/M03 A2968 1300 31 1400 240/12 RMK AO2
94908KDBQ DBQ20060214134009502/14/06 13:40:31  5-MIN KDBQ 141940Z 21010KT 10SM CLR 13/M03 A2968 1310 31 1500 210/10 RMK AO2
94908KDBQ DBQ20060214134509502/14/06 13:45:31  5-MIN KDBQ 141945Z 21010KT 10SM CLR 13/M03 A2967 1310 31 1500 210/10 RMK AO2
94908KDBQ DBQ20060214135011202/14/06 13:50:31  5-MIN KDBQ 141950Z 21011KT 10SM CLR 13/M03 A2967 1310 31 1500 210/11 RMK AO2 SLP053 T01331033
94908KDBQ DBQ20060214135511202/14/06 13:55:31  5-MIN KDBQ 141955Z 20014KT 10SM CLR 14/M03 A2966 1320 30 1500 200/14 RMK AO2 SLP052 T01391033
94908KDBQ DBQ20060214140009502/14/06 14:00:31  5-MIN KDBQ 142000Z 21014KT 10SM CLR 14/M04 A2966 1320 29 1500 210/14 RMK AO2
94908KDBQ DBQ20060214140509502/14/06 14:05:31  5-MIN KDBQ 142005Z 20011KT 10SM CLR 14/M03 A2965 1330 30 1500 200/11 RMK AO2
94908KDBQ DBQ20060214141009502/14/06 14:10:31  5-MIN KDBQ 142010Z 19013KT 10SM CLR 14/M03 A2965 1330 29 1600 190/13 RMK AO2
94908KDBQ DBQ20060214141509502/14/06 14:15:31  5-MIN KDBQ 142015Z 19010KT 10SM CLR 14/M04 A2965 1330 29 1600 190/10 RMK AO2
94908KDBQ DBQ20060214142009502/14/06 14:20:31  5-MIN KDBQ 142020Z 20013KT 10SM CLR 14/M03 A2965 1330 29 1600 200/13 RMK AO2
94908KDBQ DBQ20060214142509502/14/06 14:25:31  5-MIN KDBQ 142025Z 20010KT 10SM CLR 14/M04 A2965 1330 28 1600 200/10 RMK AO2
94908KDBQ DBQ20060214143009502/14/06 14:30:31  5-MIN KDBQ 142030Z 21014KT 10SM CLR 14/M04 A2964 1340 28 1600 210/14 RMK AO2
94908KDBQ DBQ20060214143509502/14/06 14:35:31  5-MIN KDBQ 142035Z 24010KT 10SM CLR 14/M04 A2965 1330 28 1600 240/10 RMK AO2
94908KDBQ DBQ20060214144009502/14/06 14:40:31  5-MIN KDBQ 142040Z 23011KT 10SM CLR 14/M04 A2965 1330 28 1600 230/11 RMK AO2
94908KDBQ DBQ20060214144509502/14/06 14:45:31  5-MIN KDBQ 142045Z 22012KT 10SM CLR 14/M04 A2964 1340 28 1600 220/12 RMK AO2
94908KDBQ DBQ20060214145011802/14/06 14:50:31  5-MIN KDBQ 142050Z 22013KT 10SM CLR 14/M04 A2965 1330 28 1600 220/13 RMK AO2 SLP047 T01441039 58015
94908KDBQ DBQ20060214145511802/14/06 14:55:31  5-MIN KDBQ 142055Z 22011KT 10SM CLR 14/M04 A2965 1330 28 1600 220/11 RMK AO2 SLP047 T01441039 56029
94908KDBQ DBQ20060214150009502/14/06 15:00:31  5-MIN KDBQ 142100Z 22010KT 10SM CLR 14/M04 A2965 1330 28 1600 220/10 RMK AO2
94908KDBQ DBQ20060214150509502/14/06 15:05:31  5-MIN KDBQ 142105Z 21011KT 10SM CLR 14/M04 A2964 1330 28 1600 200/11 RMK AO2
94908KDBQ DBQ20060214151010102/14/06 15:10:31  5-MIN KDBQ 142110Z 22012G16KT 10SM CLR 15/M04 A2964 1340 27 1700 220/12G16 RMK AO2
94908KDBQ DBQ20060214151510102/14/06 15:15:31  5-MIN KDBQ 142115Z 21011G16KT 10SM CLR 14/M04 A2964 1340 28 1600 210/11G16 RMK AO2
94908KDBQ DBQ20060214152009502/14/06 15:20:31  5-MIN KDBQ 142120Z 20012KT 10SM CLR 15/M04 A2964 1340 27 1700 200/12 RMK AO2
94908KDBQ DBQ20060214152509502/14/06 15:25:31  5-MIN KDBQ 142125Z 21015KT 10SM CLR 15/M04 A2964 1340 27 1700 210/15 RMK AO2
94908KDBQ DBQ20060214153009502/14/06 15:30:31  5-MIN KDBQ 142130Z 21015KT 10SM CLR 14/M04 A2963 1350 26 1600 210/15 RMK AO2
94908KDBQ DBQ20060214153509502/14/06 15:35:31  5-MIN KDBQ 142135Z 22011KT 10SM CLR 15/M04 A2963 1350 25 1700 220/11 RMK AO2
94908KDBQ DBQ20060214154009502/14/06 15:40:31  5-MIN KDBQ 142140Z 22013KT 10SM CLR 15/M04 A2963 1350 25 1700 220/13 RMK AO2
94908KDBQ DBQ20060214154509502/14/06 15:45:31  5-MIN KDBQ 142145Z 21015KT 10SM CLR 14/M04 A2963 1350 26 1600 210/15 RMK AO2
94908KDBQ DBQ20060214155011202/14/06 15:50:31  5-MIN KDBQ 142150Z 20014KT 10SM CLR 14/M04 A2963 1350 26 1600 200/14 RMK AO2 SLP042 T01441044
94908KDBQ DBQ20060214155511202/14/06 15:55:31  5-MIN KDBQ 142155Z 20016KT 10SM CLR 14/M04 A2963 1350 26 1600 200/16 RMK AO2 SLP042 T01441044
94908KDBQ DBQ20060214160009502/14/06 16:00:31  5-MIN KDBQ 142200Z 21013KT 10SM CLR 14/M04 A2963 1340 26 1600 210/13 RMK AO2
94908KDBQ DBQ20060214160509502/14/06 16:05:31  5-MIN KDBQ 142205Z 21015KT 10SM CLR 14/M04 A2963 1350 27 1600 210/15 RMK AO2
94908KDBQ DBQ20060214161009502/14/06 16:10:31  5-MIN KDBQ 142210Z 20015KT 10SM CLR 14/M04 A2963 1350 27 1600 200/15 RMK AO2
94908KDBQ DBQ20060214161509502/14/06 16:15:31  5-MIN KDBQ 142215Z 20013KT 10SM CLR 14/M04 A2963 1350 27 1600 200/13 RMK AO2
94908KDBQ DBQ20060214162009502/14/06 16:20:31  5-MIN KDBQ 142220Z 20016KT 10SM CLR 14/M04 A2962 1350 27 1600 200/16 RMK AO2
94908KDBQ DBQ20060214162509502/14/06 16:25:31  5-MIN KDBQ 142225Z 21016KT 10SM CLR 14/M05 A2963 1350 26 1600 210/16 RMK AO2
94908KDBQ DBQ20060214163009502/14/06 16:30:31  5-MIN KDBQ 142230Z 20014KT 10SM CLR 14/M05 A2963 1350 26 1600 200/14 RMK AO2
94908KDBQ DBQ20060214163509502/14/06 16:35:31  5-MIN KDBQ 142235Z 20012KT 10SM CLR 13/M05 A2963 1350 27 1500 200/12 RMK AO2
94908KDBQ DBQ20060214164009502/14/06 16:40:31  5-MIN KDBQ 142240Z 21011KT 10SM CLR 13/M05 A2963 1340 27 1500 200/11 RMK AO2
94908KDBQ DBQ20060214164509502/14/06 16:45:31  5-MIN KDBQ 142245Z 21010KT 10SM CLR 13/M05 A2964 1340 28 1400 210/10 RMK AO2
94908KDBQ DBQ20060214165011202/14/06 16:50:31  5-MIN KDBQ 142250Z 21010KT 10SM CLR 13/M05 A2964 1340 28 1400 210/10 RMK AO2 SLP044 T01281050
94908KDBQ DBQ20060214165511202/14/06 16:55:31  5-MIN KDBQ 142255Z 21009KT 10SM CLR 12/M05 A2964 1340 29 1400 210/09 RMK AO2 SLP044 T01221050
94908KDBQ DBQ20060214170009502/14/06 17:00:31  5-MIN KDBQ 142300Z 21009KT 10SM CLR 12/M05 A2964 1340 30 1300 210/09 RMK AO2
94908KDBQ DBQ20060214170509502/14/06 17:05:31  5-MIN KDBQ 142305Z 20008KT 10SM CLR 11/M05 A2963 1340 32 1200 200/08 RMK AO2
94908KDBQ DBQ20060214171009502/14/06 17:10:31  5-MIN KDBQ 142310Z 19008KT 10SM CLR 11/M05 A2963 1350 33 1200 190/08 RMK AO2
94908KDBQ DBQ20060214171509502/14/06 17:15:31  5-MIN KDBQ 142315Z 18007KT 10SM CLR 10/M06 A2963 1350 33 1100 180/07 RMK AO2
94908KDBQ DBQ20060214172009502/14/06 17:20:31  5-MIN KDBQ 142320Z 17009KT 10SM CLR 09/M06 A2963 1350 34 1000 170/09 RMK AO2
94908KDBQ DBQ20060214172509502/14/06 17:25:31  5-MIN KDBQ 142325Z 17008KT 10SM CLR 09/M06 A2964 1340 34 1000 170/08 RMK AO2
94908KDBQ DBQ20060214173009502/14/06 17:30:31  5-MIN KDBQ 142330Z 17006KT 10SM CLR 09/M06 A2964 1340 35 1000 170/06 RMK AO2
94908KDBQ DBQ20060214173509402/14/06 17:35:31  5-MIN KDBQ 142335Z 18007KT 10SM CLR 08/M06 A2964 1340 37 900 180/07 RMK AO2
94908KDBQ DBQ20060214174009402/14/06 17:40:31  5-MIN KDBQ 142340Z 18006KT 10SM CLR 08/M06 A2964 1340 38 800 180/06 RMK AO2
94908KDBQ DBQ20060214174509402/14/06 17:45:31  5-MIN KDBQ 142345Z 19006KT 10SM CLR 07/M06 A2964 1330 39 700 190/06 RMK AO2
94908KDBQ DBQ20060214175012902/14/06 17:50:31  5-MIN KDBQ 142350Z 19006KT 10SM CLR 08/M06 A2964 1330 36 800 190/06 RMK AO2 SLP049 T00781061 10150 20067 56029
94908KDBQ DBQ20060214175512902/14/06 17:55:31  5-MIN KDBQ 142355Z 18008KT 10SM CLR 07/M06 A2964 1330 38 800 180/08 RMK AO2 SLP049 T00721061 10150 20067 55001
94908KDBQ DBQ20060214180009402/14/06 18:00:31  5-MIN KDBQ 150000Z 19009KT 10SM CLR 07/M06 A2965 1330 39 700 190/09 RMK AO2
94908KDBQ DBQ20060214180509402/14/06 18:05:31  5-MIN KDBQ 150005Z 21008KT 10SM CLR 06/M06 A2965 1330 41 600 210/08 RMK AO2
94908KDBQ DBQ20060214181009402/14/06 18:10:31  5-MIN KDBQ 150010Z 22008KT 10SM CLR 06/M06 A2965 1330 41 600 220/08 RMK AO2
94908KDBQ DBQ20060214181510102/14/06 18:15:31  5-MIN KDBQ 150015Z 25005KT 10SM CLR 06/M06 A2967 1310 43 500 240/05 RMK AO2 PRESRR
94908KDBQ DBQ20060214182010102/14/06 18:20:31  5-MIN KDBQ 150020Z 33012KT 10SM CLR 04/M06 A2968 1300 46 400 330/12 RMK AO2 PRESRR
94908KDBQ DBQ20060214182510102/14/06 18:25:31  5-MIN KDBQ 150025Z 35013KT 10SM CLR 07/M04 A2968 1300 45 700 350/13 RMK AO2 PRESRR
94908KDBQ DBQ20060214183009402/14/06 18:30:31  5-MIN KDBQ 150030Z 35009KT 10SM CLR 07/M03 A2969 1300 49 600 350/09 RMK AO2
94908KDBQ DBQ20060214183509402/14/06 18:35:31  5-MIN KDBQ 150035Z 35007KT 10SM CLR 07/M03 A2969 1290 49 600 350/07 RMK AO2
94908KDBQ DBQ20060214184009402/14/06 18:40:31  5-MIN KDBQ 150040Z VRB04KT 10SM CLR 06/M03 A2969 1290 53 500 VRB/04 RMK AO2
94908KDBQ DBQ20060214184509402/14/06 18:45:31  5-MIN KDBQ 150045Z 33011KT 10SM CLR 05/M03 A2970 1280 55 400 330/11 RMK AO2
94908KDBQ DBQ20060214185011102/14/06 18:50:31  5-MIN KDBQ 150050Z 36010KT 10SM CLR 06/M03 A2970 1290 55 500 360/10 RMK AO2 SLP068 T00561028
94908KDBQ DBQ20060214185511102/14/06 18:55:31  5-MIN KDBQ 150055Z 36010KT 10SM CLR 06/M03 A2970 1280 53 600 360/10 RMK AO2 SLP068 T00611028
94908KDBQ DBQ20060214190009402/14/06 19:00:31  5-MIN KDBQ 150100Z 36009KT 10SM CLR 06/M03 A2971 1280 53 500 360/09 RMK AO2
94908KDBQ DBQ20060214190509402/14/06 19:05:31  5-MIN KDBQ 150105Z 36012KT 10SM CLR 06/M03 A2972 1270 55 500 360/12 RMK AO2
94908KDBQ DBQ20060214191009402/14/06 19:10:31  5-MIN KDBQ 150110Z 01013KT 10SM CLR 06/M03 A2972 1270 53 500 360/13 RMK AO2
94908KDBQ DBQ20060214191509402/14/06 19:15:31  5-MIN KDBQ 150115Z 01012KT 10SM CLR 06/M03 A2972 1260 53 500 360/12 RMK AO2
94908KDBQ DBQ20060214192009402/14/06 19:20:31  5-MIN KDBQ 150120Z 36012KT 10SM CLR 06/M02 A2973 1260 57 500 360/12 RMK AO2
94908KDBQ DBQ20060214192509402/14/06 19:25:31  5-MIN KDBQ 150125Z 02013KT 10SM CLR 06/M02 A2973 1260 55 500 020/13 RMK AO2
94908KDBQ DBQ20060214193009402/14/06 19:30:31  5-MIN KDBQ 150130Z 35009KT 10SM CLR 06/M02 A2973 1250 55 500 350/09 RMK AO2
94908KDBQ DBQ20060214193509402/14/06 19:35:31  5-MIN KDBQ 150135Z 01016KT 10SM CLR 06/M02 A2973 1250 57 500 010/16 RMK AO2
94908KDBQ DBQ20060214194009402/14/06 19:40:31  5-MIN KDBQ 150140Z 01014KT 10SM CLR 06/M02 A2973 1250 55 500 010/14 RMK AO2
94908KDBQ DBQ20060214194509402/14/06 19:45:31  5-MIN KDBQ 150145Z 01014KT 10SM CLR 06/M02 A2974 1250 57 400 010/14 RMK AO2
94908KDBQ DBQ20060214195012102/14/06 19:50:31  5-MIN KDBQ 150150Z AUTO 36014KT 10SM CLR 06/M02 A2974 1240 57 400 360/14 RMK AO2 SLP082 T00561022 TSNO
94908KDBQ DBQ20060214195512102/14/06 19:55:31  5-MIN KDBQ 150155Z AUTO 01017KT 10SM CLR 05/M02 A2975 1240 59 400 010/17 RMK AO2 SLP084 T00501022 TSNO
94908KDBQ DBQ20060214200010402/14/06 20:00:31  5-MIN KDBQ 150200Z AUTO 01016KT 10SM CLR 05/M02 A2975 1240 59 400 010/16 RMK AO2 TSNO
94908KDBQ DBQ20060214200510402/14/06 20:05:31  5-MIN KDBQ 150205Z AUTO 01017KT 10SM CLR 04/M02 A2975 1240 62 300 010/17 RMK AO2 TSNO
94908KDBQ DBQ20060214201011002/14/06 20:10:31  5-MIN KDBQ 150210Z AUTO 02020G23KT 10SM CLR 04/M02 A2975 1230 62 300 020/20G23 RMK AO2 TSNO
94908KDBQ DBQ20060214201511002/14/06 20:15:31  5-MIN KDBQ 150215Z AUTO 02017G23KT 10SM CLR 04/M02 A2975 1230 62 300 020/17G23 RMK AO2 TSNO
94908KDBQ DBQ20060214202010402/14/06 20:20:31  5-MIN KDBQ 150220Z AUTO 01015KT 10SM CLR 04/M02 A2976 1220 64 200 010/15 RMK AO2 TSNO
94908KDBQ DBQ20060214202511002/14/06 20:25:31  5-MIN KDBQ 150225Z AUTO 01017G21KT 10SM CLR 04/M02 A2976 1230 64 200 010/17G21 RMK AO2 TSNO
94908KDBQ DBQ20060214203010402/14/06 20:30:31  5-MIN KDBQ 150230Z AUTO 01015KT 10SM CLR 04/M02 A2977 1220 67 200 010/15 RMK AO2 TSNO
94908KDBQ DBQ20060214203510402/14/06 20:35:31  5-MIN KDBQ 150235Z AUTO 02019KT 10SM CLR 03/M02 A2977 1220 70 100 020/19 RMK AO2 TSNO
94908KDBQ DBQ20060214204010402/14/06 20:40:31  5-MIN KDBQ 150240Z AUTO 02018KT 10SM CLR 03/M02 A2977 1220 70 100 020/18 RMK AO2 TSNO
94908KDBQ DBQ20060214204510402/14/06 20:45:31  5-MIN KDBQ 150245Z AUTO 02017KT 10SM CLR 03/M02 A2978 1210 70 100 010/17 RMK AO2 TSNO
94908KDBQ DBQ20060214205012702/14/06 20:50:31  5-MIN KDBQ 150250Z AUTO 02018KT 10SM CLR 03/M02 A2977 1220 70 100 020/18 RMK AO2 SLP092 T00331017 55001 TSNO
94908KDBQ DBQ20060214205512702/14/06 20:55:31  5-MIN KDBQ 150255Z AUTO 02017KT 10SM CLR 03/M02 A2977 1220 72 100 020/17 RMK AO2 SLP092 T00281017 51042 TSNO
94908KDBQ DBQ20060214210010402/14/06 21:00:31  5-MIN KDBQ 150300Z AUTO 01016KT 10SM CLR 03/M02 A2978 1210 72 100 010/16 RMK AO2 TSNO
94908KDBQ DBQ20060214210511002/14/06 21:05:31  5-MIN KDBQ 150305Z AUTO 01014G21KT 10SM CLR 03/M02 A2978 1210 72 100 010/14G21 RMK AO2 TSNO
94908KDBQ DBQ20060214211010402/14/06 21:10:31  5-MIN KDBQ 150310Z AUTO 01015KT 10SM CLR 03/M02 A2978 1210 72 100 010/15 RMK AO2 TSNO
94908KDBQ DBQ20060214211510402/14/06 21:15:31  5-MIN KDBQ 150315Z AUTO 02016KT 10SM CLR 03/M02 A2978 1210 72 100 010/16 RMK AO2 TSNO
94908KDBQ DBQ20060214212010202/14/06 21:20:31  5-MIN KDBQ 150320Z AUTO 02016KT 10SM CLR 03/M02 A2979 1200 72 0 020/16 RMK AO2 TSNO
94908KDBQ DBQ20060214212510202/14/06 21:25:31  5-MIN KDBQ 150325Z AUTO 02015KT 10SM CLR 03/M02 A2979 1200 72 0 010/15 RMK AO2 TSNO
94908KDBQ DBQ20060214213010202/14/06 21:30:31  5-MIN KDBQ 150330Z AUTO 02015KT 10SM CLR 03/M02 A2979 1200 72 0 020/15 RMK AO2 TSNO
94908KDBQ DBQ20060214213510202/14/06 21:35:31  5-MIN KDBQ 150335Z AUTO 02016KT 10SM CLR 03/M02 A2979 1190 72 0 010/16 RMK AO2 TSNO
94908KDBQ DBQ20060214214010202/14/06 21:40:31  5-MIN KDBQ 150340Z AUTO 02015KT 10SM CLR 03/M02 A2980 1190 72 0 020/15 RMK AO2 TSNO
94908KDBQ DBQ20060214214510202/14/06 21:45:31  5-MIN KDBQ 150345Z AUTO 02015KT 10SM CLR 03/M02 A2980 1190 72 0 020/15 RMK AO2 TSNO
94908KDBQ DBQ20060214215011902/14/06 21:50:31  5-MIN KDBQ 150350Z AUTO 02014KT 10SM CLR 03/M02 A2980 1190 69 0 010/14 RMK AO2 SLP101 T00281022 TSNO
94908KDBQ DBQ20060214215511902/14/06 21:55:31  5-MIN KDBQ 150355Z AUTO 01014KT 10SM CLR 03/M02 A2980 1190 69 0 010/14 RMK AO2 SLP101 T00281022 TSNO
94908KDBQ DBQ20060214220010202/14/06 22:00:31  5-MIN KDBQ 150400Z AUTO 01014KT 10SM CLR 03/M02 A2980 1190 69 0 010/14 RMK AO2 TSNO
94908KDBQ DBQ20060214220510202/14/06 22:05:31  5-MIN KDBQ 150405Z AUTO 01014KT 10SM CLR 02/M02 A2981 1180 72 0 010/14 RMK AO2 TSNO
94908KDBQ DBQ20060214221010202/14/06 22:10:31  5-MIN KDBQ 150410Z AUTO 01015KT 10SM CLR 02/M02 A2981 1180 72 0 010/15 RMK AO2 TSNO
94908KDBQ DBQ20060214221510202/14/06 22:15:31  5-MIN KDBQ 150415Z AUTO 01014KT 10SM CLR 02/M02 A2981 1180 72 0 010/14 RMK AO2 TSNO
94908KDBQ DBQ20060214222010202/14/06 22:20:31  5-MIN KDBQ 150420Z AUTO 01014KT 10SM CLR 02/M02 A2982 1170 72 0 010/14 RMK AO2 TSNO
94908KDBQ DBQ20060214222510202/14/06 22:25:31  5-MIN KDBQ 150425Z AUTO 01012KT 10SM CLR 02/M02 A2982 1170 72 0 010/12 RMK AO2 TSNO
94908KDBQ DBQ20060214223010202/14/06 22:30:31  5-MIN KDBQ 150430Z AUTO 01012KT 10SM CLR 02/M02 A2983 1170 72 0 010/12 RMK AO2 TSNO
94908KDBQ DBQ20060214223510202/14/06 22:35:31  5-MIN KDBQ 150435Z AUTO 01015KT 10SM CLR 02/M02 A2983 1160 72 0 010/15 RMK AO2 TSNO
94908KDBQ DBQ20060214224010202/14/06 22:40:31  5-MIN KDBQ 150440Z AUTO 01012KT 10SM CLR 02/M02 A2983 1160 72 0 010/12 RMK AO2 TSNO
94908KDBQ DBQ20060214224510202/14/06 22:45:31  5-MIN KDBQ 150445Z AUTO 01011KT 10SM CLR 02/M02 A2984 1160 72 0 010/11 RMK AO2 TSNO
94908KDBQ DBQ20060214225011902/14/06 22:50:31  5-MIN KDBQ 150450Z AUTO 01012KT 10SM CLR 02/M02 A2984 1160 72 0 360/12 RMK AO2 SLP110 T00221022 TSNO
94908KDBQ DBQ20060214225511902/14/06 22:55:31  5-MIN KDBQ 150455Z AUTO 01012KT 10SM CLR 02/M02 A2984 1160 72 0 010/12 RMK AO2 SLP110 T00221022 TSNO
94908KDBQ DBQ20060214230010202/14/06 23:00:31  5-MIN KDBQ 150500Z AUTO 01010KT 10SM CLR 02/M02 A2984 1150 72 0 010/10 RMK AO2 TSNO
94908KDBQ DBQ20060214230510202/14/06 23:05:31  5-MIN KDBQ 150505Z AUTO 36010KT 10SM CLR 02/M02 A2984 1150 72 0 360/10 RMK AO2 TSNO
94908KDBQ DBQ20060214231010202/14/06 23:10:31  5-MIN KDBQ 150510Z AUTO 01008KT 10SM CLR 02/M02 A2985 1150 72 0 360/08 RMK AO2 TSNO
94908KDBQ DBQ20060214231510502/14/06 23:15:31  5-MIN KDBQ 150515Z AUTO 01008KT 10SM CLR 02/M02 A2985 1140 75 -100 010/08 RMK AO2 TSNO
94908KDBQ DBQ20060214232010502/14/06 23:20:31  5-MIN KDBQ 150520Z AUTO 01006KT 10SM CLR 02/M02 A2985 1140 75 -100 360/06 RMK AO2 TSNO
94908KDBQ DBQ20060214232510502/14/06 23:25:31  5-MIN KDBQ 150525Z AUTO 01007KT 10SM CLR 01/M02 A2985 1140 78 -200 010/07 RMK AO2 TSNO
94908KDBQ DBQ20060214233010502/14/06 23:30:31  5-MIN KDBQ 150530Z AUTO 01007KT 10SM CLR 01/M02 A2985 1140 78 -200 010/07 RMK AO2 TSNO
94908KDBQ DBQ20060214233510502/14/06 23:35:31  5-MIN KDBQ 150535Z AUTO 01007KT 10SM CLR 01/M03 A2986 1130 78 -300 010/07 RMK AO2 TSNO
94908KDBQ DBQ20060214234010502/14/06 23:40:31  5-MIN KDBQ 150540Z AUTO 01007KT 10SM CLR 01/M03 A2986 1130 78 -300 010/07 RMK AO2 TSNO
94908KDBQ DBQ20060214234510502/14/06 23:45:31  5-MIN KDBQ 150545Z AUTO 01007KT 10SM CLR 01/M03 A2986 1130 78 -300 010/07 RMK AO2 TSNO
94908KDBQ DBQ20060214235015002/14/06 23:50:31  5-MIN KDBQ 150550Z AUTO 01008KT 10SM CLR 01/M03 A2986 1130 75 -200 010/08 RMK AO2 SLP119 T00111028 10072 20006 401501072 51042 TSNO
94908KDBQ DBQ20060214235515002/14/06 23:55:31  5-MIN KDBQ 150555Z AUTO 01007KT 10SM CLR 01/M02 A2987 1130 78 -200 010/07 RMK AO2 SLP121 T00111022 10072 20006 401501072 51031 TSNO
94908KDBQ DBQ20060215000010502/15/06 00:00:38  5-MIN KDBQ 150600Z AUTO 36007KT 10SM CLR 01/M02 A2987 1120 78 -200 360/07 RMK AO2 TSNO
94908KDBQ DBQ20060215000510502/15/06 00:05:31  5-MIN KDBQ 150605Z AUTO 01006KT 10SM CLR 01/M03 A2987 1120 78 -300 360/06 RMK AO2 TSNO
94908KDBQ DBQ20060215001010502/15/06 00:10:31  5-MIN KDBQ 150610Z AUTO 36007KT 10SM CLR 01/M03 A2988 1120 78 -300 360/07 RMK AO2 TSNO
94908KDBQ DBQ20060215001510502/15/06 00:15:32  5-MIN KDBQ 150615Z AUTO 36007KT 10SM CLR 01/M03 A2988 1110 78 -300 360/07 RMK AO2 TSNO
94908KDBQ DBQ20060215002010502/15/06 00:20:31  5-MIN KDBQ 150620Z AUTO 35006KT 10SM CLR 01/M03 A2989 1110 78 -300 350/06 RMK AO2 TSNO
94908KDBQ DBQ20060215002510502/15/06 00:25:31  5-MIN KDBQ 150625Z AUTO 35006KT 10SM CLR 01/M03 A2989 1110 78 -300 350/06 RMK AO2 TSNO
94908KDBQ DBQ20060215003010502/15/06 00:30:31  5-MIN KDBQ 150630Z AUTO 36006KT 10SM CLR 00/M03 A2989 1100 81 -400 350/06 RMK AO2 TSNO
94908KDBQ DBQ20060215003510502/15/06 00:35:31  5-MIN KDBQ 150635Z AUTO 35007KT 10SM CLR 00/M03 A2989 1100 81 -400 350/07 RMK AO2 TSNO
94908KDBQ DBQ20060215004010502/15/06 00:40:31  5-MIN KDBQ 150640Z AUTO 35007KT 10SM CLR 00/M03 A2990 1100 81 -400 350/07 RMK AO2 TSNO
94908KDBQ DBQ20060215004510502/15/06 00:45:31  5-MIN KDBQ 150645Z AUTO 35007KT 10SM CLR 00/M03 A2990 1090 81 -400 350/07 RMK AO2 TSNO
94908KDBQ DBQ20060215005012202/15/06 00:50:31  5-MIN KDBQ 150650Z AUTO 35008KT 10SM CLR 00/M03 A2991 1090 81 -400 350/08 RMK AO2 SLP134 T00001028 TSNO
94908KDBQ DBQ20060215005512202/15/06 00:55:31  5-MIN KDBQ 150655Z AUTO 34009KT 10SM CLR 00/M03 A2991 1090 81 -400 340/09 RMK AO2 SLP135 T00001028 TSNO
94908KDBQ DBQ20060215010010502/15/06 01:00:31  5-MIN KDBQ 150700Z AUTO 35009KT 10SM CLR 00/M03 A2991 1080 81 -400 350/09 RMK AO2 TSNO
94908KDBQ DBQ20060215010510502/15/06 01:05:31  5-MIN KDBQ 150705Z AUTO 35007KT 10SM CLR 00/M03 A2991 1080 81 -400 350/07 RMK AO2 TSNO
94908KDBQ DBQ20060215011010502/15/06 01:10:31  5-MIN KDBQ 150710Z AUTO 35008KT 10SM CLR 00/M03 A2992 1080 81 -400 350/08 RMK AO2 TSNO
94908KDBQ DBQ20060215011510502/15/06 01:15:31  5-MIN KDBQ 150715Z AUTO 34008KT 10SM CLR 00/M03 A2993 1070 78 -400 340/08 RMK AO2 TSNO
94908KDBQ DBQ20060215012010602/15/06 01:20:31  5-MIN KDBQ 150720Z AUTO 34008KT 10SM CLR M01/M03 A2993 1070 81 -500 340/08 RMK AO2 TSNO
94908KDBQ DBQ20060215012510502/15/06 01:25:31  5-MIN KDBQ 150725Z AUTO 34010KT 10SM CLR 01/M03 A2993 1070 78 -300 340/10 RMK AO2 TSNO
94908KDBQ DBQ20060215013010502/15/06 01:30:31  5-MIN KDBQ 150730Z AUTO 35008KT 10SM CLR 00/M03 A2993 1070 81 -400 340/08 RMK AO2 TSNO
94908KDBQ DBQ20060215013510502/15/06 01:35:31  5-MIN KDBQ 150735Z AUTO 34008KT 10SM CLR 01/M03 A2993 1070 78 -300 340/08 RMK AO2 TSNO
94908KDBQ DBQ20060215014010502/15/06 01:40:31  5-MIN KDBQ 150740Z AUTO 35008KT 10SM CLR 01/M03 A2993 1070 78 -300 350/08 RMK AO2 TSNO
94908KDBQ DBQ20060215014510502/15/06 01:45:31  5-MIN KDBQ 150745Z AUTO 35011KT 10SM CLR 01/M03 A2993 1070 78 -300 350/11 RMK AO2 TSNO
94908KDBQ DBQ20060215015012202/15/06 01:50:31  5-MIN KDBQ 150750Z AUTO 34010KT 10SM CLR 01/M03 A2994 1060 75 -300 340/10 RMK AO2 SLP143 T00061033 TSNO
94908KDBQ DBQ20060215015512202/15/06 01:55:31  5-MIN KDBQ 150755Z AUTO 34010KT 10SM CLR 01/M03 A2994 1060 75 -400 340/10 RMK AO2 SLP146 T00061033 TSNO
94908KDBQ DBQ20060215020010502/15/06 02:00:31  5-MIN KDBQ 150800Z AUTO 34010KT 10SM CLR 01/M03 A2994 1060 75 -400 340/10 RMK AO2 TSNO
94908KDBQ DBQ20060215020510502/15/06 02:05:31  5-MIN KDBQ 150805Z AUTO 34010KT 10SM CLR 01/M03 A2995 1050 75 -400 340/10 RMK AO2 TSNO
94908KDBQ DBQ20060215021010502/15/06 02:10:31  5-MIN KDBQ 150810Z AUTO 34011KT 10SM CLR 00/M03 A2995 1050 78 -400 340/11 RMK AO2 TSNO
94908KDBQ DBQ20060215021510502/15/06 02:15:31  5-MIN KDBQ 150815Z AUTO 34012KT 10SM CLR 00/M03 A2995 1050 78 -400 340/12 RMK AO2 TSNO
94908KDBQ DBQ20060215022010502/15/06 02:20:31  5-MIN KDBQ 150820Z AUTO 34013KT 10SM CLR 00/M03 A2995 1050 78 -400 340/13 RMK AO2 TSNO
94908KDBQ DBQ20060215022510802/15/06 02:25:31  5-MIN KDBQ 150825Z AUTO 34011KT 10SM FEW110 00/M03 A2995 1050 78 -400 340/11 RMK AO2 TSNO
94908KDBQ DBQ20060215023010802/15/06 02:30:31  5-MIN KDBQ 150830Z AUTO 34011KT 10SM FEW110 00/M04 A2995 1050 75 -400 340/11 RMK AO2 TSNO
94908KDBQ DBQ20060215023510802/15/06 02:35:31  5-MIN KDBQ 150835Z AUTO 34011KT 10SM FEW120 00/M04 A2995 1050 75 -400 340/11 RMK AO2 TSNO
94908KDBQ DBQ20060215024010802/15/06 02:40:31  5-MIN KDBQ 150840Z AUTO 34010KT 10SM SCT120 00/M04 A2996 1050 75 -400 340/10 RMK AO2 TSNO
94908KDBQ DBQ20060215024510802/15/06 02:45:31  5-MIN KDBQ 150845Z AUTO 34011KT 10SM BKN120 00/M04 A2996 1040 75 -400 340/11 RMK AO2 TSNO
94908KDBQ DBQ20060215025013102/15/06 02:50:31  5-MIN KDBQ 150850Z AUTO 34012KT 10SM BKN110 00/M04 A2996 1040 75 -400 340/12 RMK AO2 SLP151 T00001039 51031 TSNO
94908KDBQ DBQ20060215025513102/15/06 02:55:31  5-MIN KDBQ 150855Z AUTO 35011KT 10SM BKN120 00/M04 A2996 1040 75 -400 350/11 RMK AO2 SLP151 T00001039 51030 TSNO
94908KDBQ DBQ20060215030010802/15/06 03:00:31  5-MIN KDBQ 150900Z AUTO 35012KT 10SM OVC120 00/M04 A2996 1040 75 -400 340/12 RMK AO2 TSNO
94908KDBQ DBQ20060215030510802/15/06 03:05:31  5-MIN KDBQ 150905Z AUTO 35012KT 10SM OVC120 00/M04 A2996 1040 75 -400 340/12 RMK AO2 TSNO
94908KDBQ DBQ20060215031010802/15/06 03:10:31  5-MIN KDBQ 150910Z AUTO 35011KT 10SM OVC120 00/M04 A2996 1040 75 -400 350/11 RMK AO2 TSNO
94908KDBQ DBQ20060215031510802/15/06 03:15:31  5-MIN KDBQ 150915Z AUTO 35012KT 10SM OVC120 00/M04 A2996 1040 75 -400 350/12 RMK AO2 TSNO
94908KDBQ DBQ20060215032010802/15/06 03:20:31  5-MIN KDBQ 150920Z AUTO 35011KT 10SM BKN120 00/M04 A2996 1040 72 -400 350/11 RMK AO2 TSNO
94908KDBQ DBQ20060215032510902/15/06 03:25:31  5-MIN KDBQ 150925Z AUTO 36010KT 10SM BKN120 M01/M04 A2996 1040 75 -500 360/10 RMK AO2 TSNO
94908KDBQ DBQ20060215033010902/15/06 03:30:31  5-MIN KDBQ 150930Z AUTO 36010KT 10SM SCT120 M01/M04 A2996 1040 75 -500 360/10 RMK AO2 TSNO
94908KDBQ DBQ20060215033510902/15/06 03:35:31  5-MIN KDBQ 150935Z AUTO 36008KT 10SM SCT120 M01/M04 A2996 1040 75 -500 360/08 RMK AO2 TSNO
94908KDBQ DBQ20060215034010902/15/06 03:40:31  5-MIN KDBQ 150940Z AUTO 36008KT 10SM FEW120 M01/M04 A2996 1040 75 -500 360/08 RMK AO2 TSNO
94908KDBQ DBQ20060215034510902/15/06 03:45:31  5-MIN KDBQ 150945Z AUTO 36007KT 10SM FEW120 M01/M04 A2997 1030 75 -500 360/07 RMK AO2 TSNO
94908KDBQ DBQ20060215035012302/15/06 03:50:31  5-MIN KDBQ 150950Z AUTO 36006KT 10SM CLR M01/M04 A2997 1030 75 -500 360/06 RMK AO2 SLP155 T10061044 TSNO
94908KDBQ DBQ20060215035512602/15/06 03:55:31  5-MIN KDBQ 150955Z AUTO 36010KT 10SM FEW120 M01/M05 A2997 1030 72 -500 360/10 RMK AO2 SLP156 T10061050 TSNO
94908KDBQ DBQ20060215040010902/15/06 04:00:31  5-MIN KDBQ 151000Z AUTO 35012KT 10SM FEW120 M01/M06 A2998 1020 69 -500 350/12 RMK AO2 TSNO
94908KDBQ DBQ20060215040510902/15/06 04:05:31  5-MIN KDBQ 151005Z AUTO 36008KT 10SM FEW120 M01/M06 A2998 1020 66 -500 360/08 RMK AO2 TSNO
94908KDBQ DBQ20060215041010902/15/06 04:10:31  5-MIN KDBQ 151010Z AUTO 36009KT 10SM FEW120 M01/M06 A2998 1020 66 -500 360/09 RMK AO2 TSNO
94908KDBQ DBQ20060215041510902/15/06 04:15:31  5-MIN KDBQ 151015Z AUTO 36009KT 10SM FEW120 M01/M06 A2998 1030 66 -500 360/09 RMK AO2 TSNO
94908KDBQ DBQ20060215042010902/15/06 04:20:31  5-MIN KDBQ 151020Z AUTO 36009KT 10SM FEW120 M01/M06 A2998 1030 66 -500 360/09 RMK AO2 TSNO
94908KDBQ DBQ20060215042510602/15/06 04:25:31  5-MIN KDBQ 151025Z AUTO 36009KT 10SM CLR M01/M07 A2998 1020 63 -500 360/09 RMK AO2 TSNO
94908KDBQ DBQ20060215043010602/15/06 04:30:31  5-MIN KDBQ 151030Z AUTO 35011KT 10SM CLR M01/M07 A2998 1020 63 -500 350/11 RMK AO2 TSNO
94908KDBQ DBQ20060215043510902/15/06 04:35:31  5-MIN KDBQ 151035Z AUTO 36010KT 10SM FEW120 M01/M07 A2998 1020 61 -500 360/10 RMK AO2 TSNO
94908KDBQ DBQ20060215044010902/15/06 04:40:31  5-MIN KDBQ 151040Z AUTO 36011KT 10SM SCT120 M01/M07 A2998 1020 61 -500 360/11 RMK AO2 TSNO
94908KDBQ DBQ20060215044510902/15/06 04:45:31  5-MIN KDBQ 151045Z AUTO 01010KT 10SM BKN120 M01/M07 A2999 1020 61 -500 010/10 RMK AO2 TSNO
94908KDBQ DBQ20060215045012602/15/06 04:50:31  5-MIN KDBQ 151050Z AUTO 01013KT 10SM BKN120 M01/M08 A2999 1010 58 -600 010/13 RMK AO2 SLP163 T10061078 TSNO
94908KDBQ DBQ20060215045512602/15/06 04:55:31  5-MIN KDBQ 151055Z AUTO 01010KT 10SM BKN120 M01/M08 A2999 1010 60 -600 010/10 RMK AO2 SLP164 T10111078 TSNO
94908KDBQ DBQ20060215050010902/15/06 05:00:31  5-MIN KDBQ 151100Z AUTO 01010KT 10SM OVC120 M01/M08 A3000 1000 60 -600 010/10 RMK AO2 TSNO
94908KDBQ DBQ20060215050510902/15/06 05:05:31  5-MIN KDBQ 151105Z AUTO 01011KT 10SM OVC120 M01/M08 A3000 1000 58 -600 010/11 RMK AO2 TSNO
94908KDBQ DBQ20060215051010902/15/06 05:10:31  5-MIN KDBQ 151110Z AUTO 36010KT 10SM OVC120 M01/M08 A3001 1000 60 -600 360/10 RMK AO2 TSNO
94908KDBQ DBQ20060215051510902/15/06 05:15:31  5-MIN KDBQ 151115Z AUTO 36010KT 10SM OVC120 M01/M08 A3001 1000 60 -600 360/10 RMK AO2 TSNO
94908KDBQ DBQ20060215052010902/15/06 05:20:31  5-MIN KDBQ 151120Z AUTO 01011KT 10SM OVC120 M01/M08 A3001 1000 60 -600 360/11 RMK AO2 TSNO
94908KDBQ DBQ20060215052510902/15/06 05:25:31  5-MIN KDBQ 151125Z AUTO 01009KT 10SM OVC120 M01/M08 A3001 1000 60 -600 010/09 RMK AO2 TSNO
94908KDBQ DBQ20060215053010902/15/06 05:30:31  5-MIN KDBQ 151130Z AUTO 02010KT 10SM OVC120 M01/M08 A3001 1000 60 -600 010/10 RMK AO2 TSNO
94908KDBQ DBQ20060215053510902/15/06 05:35:31  5-MIN KDBQ 151135Z AUTO 01009KT 10SM OVC120 M01/M08 A3001 1000 60 -600 010/09 RMK AO2 TSNO
94908KDBQ DBQ20060215054010902/15/06 05:40:31  5-MIN KDBQ 151140Z AUTO 01009KT 10SM OVC120 M01/M08 A3000 1000 60 -600 010/09 RMK AO2 TSNO
94908KDBQ DBQ20060215054510902/15/06 05:45:31  5-MIN KDBQ 151145Z AUTO 01010KT 10SM OVC120 M01/M08 A3000 1000 60 -600 010/10 RMK AO2 TSNO
94908KDBQ DBQ20060215055014402/15/06 05:50:31  5-MIN KDBQ 151150Z AUTO 01008KT 10SM OVC120 M01/M08 A3001 1000 60 -600 010/08 RMK AO2 SLP170 T10111078 10011 21011 51030 TSNO
94908KDBQ DBQ20060215055514402/15/06 05:55:31  5-MIN KDBQ 151155Z AUTO 01010KT 10SM OVC120 M01/M08 A3001 1000 60 -600 010/10 RMK AO2 SLP171 T10111078 10011 21011 53016 TSNO
94908KDBQ DBQ20060215060009802/15/06 06:00:31  5-MIN KDBQ 151200Z 01010KT 10SM OVC120 M01/M08 A3001 990 60 -600 010/10 RMK AO2
94908KDBQ DBQ20060215060509802/15/06 06:05:31  5-MIN KDBQ 151205Z 01009KT 10SM OVC120 M02/M08 A3001 990 63 -700 010/09 RMK AO2
94908KDBQ DBQ20060215061009802/15/06 06:10:31  5-MIN KDBQ 151210Z 01009KT 10SM OVC120 M02/M08 A3002 990 63 -700 010/09 RMK AO2
94908KDBQ DBQ20060215061509802/15/06 06:15:31  5-MIN KDBQ 151215Z 01009KT 10SM OVC120 M02/M08 A3002 990 63 -700 010/09 RMK AO2
94908KDBQ DBQ20060215062009802/15/06 06:20:31  5-MIN KDBQ 151220Z 01008KT 10SM OVC120 M02/M08 A3002 990 63 -700 010/08 RMK AO2
94908KDBQ DBQ20060215062509802/15/06 06:25:31  5-MIN KDBQ 151225Z 01008KT 10SM OVC120 M02/M08 A3002 990 63 -700 010/08 RMK AO2
94908KDBQ DBQ20060215063009802/15/06 06:30:31  5-MIN KDBQ 151230Z 01010KT 10SM OVC120 M02/M08 A3002 990 63 -700 010/10 RMK AO2
94908KDBQ DBQ20060215063509802/15/06 06:35:31  5-MIN KDBQ 151235Z 01010KT 10SM OVC120 M02/M08 A3002 990 63 -700 010/10 RMK AO2
94908KDBQ DBQ20060215064009802/15/06 06:40:31  5-MIN KDBQ 151240Z 01010KT 10SM OVC120 M02/M08 A3002 990 63 -700 010/10 RMK AO2
94908KDBQ DBQ20060215064509802/15/06 06:45:31  5-MIN KDBQ 151245Z 01009KT 10SM OVC120 M02/M08 A3002 980 63 -700 010/09 RMK AO2
94908KDBQ DBQ20060215065011502/15/06 06:50:31  5-MIN KDBQ 151250Z 01009KT 10SM OVC110 M02/M08 A3002 980 63 -700 010/09 RMK AO2 SLP176 T10171078
94908KDBQ DBQ20060215065511502/15/06 06:55:31  5-MIN KDBQ 151255Z 01009KT 10SM OVC110 M02/M08 A3002 980 63 -700 010/09 RMK AO2 SLP177 T10171078
94908KDBQ DBQ20060215070009802/15/06 07:00:31  5-MIN KDBQ 151300Z 01010KT 10SM OVC110 M02/M08 A3003 980 63 -700 010/10 RMK AO2
94908KDBQ DBQ20060215070509802/15/06 07:05:31  5-MIN KDBQ 151305Z 01009KT 10SM OVC110 M02/M08 A3003 970 63 -700 010/09 RMK AO2
94908KDBQ DBQ20060215071009802/15/06 07:10:31  5-MIN KDBQ 151310Z 01010KT 10SM OVC110 M02/M08 A3004 970 63 -700 010/10 RMK AO2
94908KDBQ DBQ20060215071509802/15/06 07:15:31  5-MIN KDBQ 151315Z 01010KT 10SM OVC110 M02/M08 A3004 970 63 -700 010/10 RMK AO2
94908KDBQ DBQ20060215072009802/15/06 07:20:31  5-MIN KDBQ 151320Z 01010KT 10SM OVC110 M02/M08 A3004 970 63 -700 360/10 RMK AO2
94908KDBQ DBQ20060215072509802/15/06 07:25:31  5-MIN KDBQ 151325Z 01010KT 10SM OVC110 M02/M08 A3004 960 66 -800 010/10 RMK AO2
94908KDBQ DBQ20060215073009802/15/06 07:30:31  5-MIN KDBQ 151330Z 01010KT 10SM OVC110 M02/M08 A3005 960 63 -800 010/10 RMK AO2
94908KDBQ DBQ20060215073509802/15/06 07:35:31  5-MIN KDBQ 151335Z 02010KT 10SM BKN110 M02/M08 A3005 960 63 -800 020/10 RMK AO2
94908KDBQ DBQ20060215074009802/15/06 07:40:31  5-MIN KDBQ 151340Z 02009KT 10SM BKN110 M02/M08 A3006 950 63 -800 020/09 RMK AO2
94908KDBQ DBQ20060215074509802/15/06 07:45:31  5-MIN KDBQ 151345Z 02010KT 10SM BKN110 M02/M08 A3006 950 63 -800 020/10 RMK AO2
94908KDBQ DBQ20060215075011502/15/06 07:50:31  5-MIN KDBQ 151350Z 02010KT 10SM BKN110 M02/M08 A3006 950 63 -800 020/10 RMK AO2 SLP190 T10171078
94908KDBQ DBQ20060215075511502/15/06 07:55:31  5-MIN KDBQ 151355Z 01010KT 10SM BKN100 M02/M08 A3007 940 63 -800 010/10 RMK AO2 SLP194 T10171078
94908KDBQ DBQ20060215080009802/15/06 08:00:31  5-MIN KDBQ 151400Z 02010KT 10SM OVC100 M02/M08 A3008 930 63 -800 020/10 RMK AO2
94908KDBQ DBQ20060215080509802/15/06 08:05:31  5-MIN KDBQ 151405Z 02012KT 10SM OVC110 M02/M08 A3008 930 63 -800 020/12 RMK AO2
94908KDBQ DBQ20060215081009802/15/06 08:10:31  5-MIN KDBQ 151410Z 01011KT 10SM OVC100 M02/M08 A3008 930 63 -800 010/11 RMK AO2
94908KDBQ DBQ20060215081509802/15/06 08:15:31  5-MIN KDBQ 151415Z 02011KT 10SM OVC100 M02/M08 A3009 930 63 -800 020/11 RMK AO2
94908KDBQ DBQ20060215082009802/15/06 08:20:31  5-MIN KDBQ 151420Z 01011KT 10SM BKN100 M02/M08 A3009 930 63 -800 010/11 RMK AO2
94908KDBQ DBQ20060215082509802/15/06 08:25:31  5-MIN KDBQ 151425Z 02011KT 10SM BKN100 M02/M08 A3009 920 63 -800 010/11 RMK AO2
94908KDBQ DBQ20060215083009802/15/06 08:30:31  5-MIN KDBQ 151430Z 02010KT 10SM SCT100 M02/M07 A3009 920 66 -800 020/10 RMK AO2
94908KDBQ DBQ20060215083509802/15/06 08:35:31  5-MIN KDBQ 151435Z 02009KT 10SM SCT100 M01/M07 A3009 920 63 -700 020/09 RMK AO2
94908KDBQ DBQ20060215084009802/15/06 08:40:31  5-MIN KDBQ 151440Z 02009KT 10SM FEW095 M01/M07 A3010 920 63 -700 020/09 RMK AO2
94908KDBQ DBQ20060215084509802/15/06 08:45:31  5-MIN KDBQ 151445Z 02011KT 10SM FEW090 M01/M07 A3010 910 63 -700 010/11 RMK AO2
94908KDBQ DBQ20060215085012102/15/06 08:50:31  5-MIN KDBQ 151450Z 02009KT 10SM FEW090 M01/M08 A3010 910 60 -800 020/09 RMK AO2 SLP205 T10111078 53016
94908KDBQ DBQ20060215085512102/15/06 08:55:31  5-MIN KDBQ 151455Z 01010KT 10SM FEW090 M01/M08 A3010 910 60 -800 010/10 RMK AO2 SLP205 T10111078 53031
94908KDBQ DBQ20060215090009802/15/06 09:00:31  5-MIN KDBQ 151500Z 02010KT 10SM FEW090 M01/M08 A3011 910 60 -800 020/10 RMK AO2
94908KDBQ DBQ20060215090509802/15/06 09:05:31  5-MIN KDBQ 151505Z 02009KT 10SM FEW090 M01/M07 A3011 900 63 -800 020/09 RMK AO2
94908KDBQ DBQ20060215091009802/15/06 09:10:31  5-MIN KDBQ 151510Z 03010KT 10SM FEW090 M01/M08 A3011 910 60 -800 030/10 RMK AO2
94908KDBQ DBQ20060215091509802/15/06 09:15:31  5-MIN KDBQ 151515Z 03010KT 10SM FEW100 M01/M08 A3011 910 60 -800 030/10 RMK AO2
94908KDBQ DBQ20060215092009802/15/06 09:20:31  5-MIN KDBQ 151520Z 02009KT 10SM FEW100 M01/M08 A3010 910 60 -800 020/09 RMK AO2
94908KDBQ DBQ20060215092509502/15/06 09:25:31  5-MIN KDBQ 151525Z 03009KT 10SM CLR M01/M08 A3010 910 60 -700 030/09 RMK AO2
94908KDBQ DBQ20060215093009802/15/06 09:30:31  5-MIN KDBQ 151530Z 04009KT 10SM FEW110 M01/M08 A3010 910 58 -700 030/09 RMK AO2
94908KDBQ DBQ20060215093509802/15/06 09:35:31  5-MIN KDBQ 151535Z 03009KT 10SM FEW100 M01/M08 A3010 910 60 -700 030/09 RMK AO2
94908KDBQ DBQ20060215094009802/15/06 09:40:31  5-MIN KDBQ 151540Z 04009KT 10SM FEW110 M01/M08 A3010 910 58 -700 040/09 RMK AO2
94908KDBQ DBQ20060215094509802/15/06 09:45:31  5-MIN KDBQ 151545Z 03010KT 10SM FEW100 M01/M08 A3010 910 58 -700 030/10 RMK AO2
94908KDBQ DBQ20060215095011502/15/06 09:50:31  5-MIN KDBQ 151550Z 03010KT 10SM FEW100 M01/M08 A3010 910 58 -700 030/10 RMK AO2 SLP205 T10061078
94908KDBQ DBQ20060215095511502/15/06 09:55:31  5-MIN KDBQ 151555Z 03011KT 10SM FEW095 M01/M08 A3010 910 56 -700 030/11 RMK AO2 SLP205 T10061083
94908KDBQ DBQ20060215100009802/15/06 10:00:31  5-MIN KDBQ 151600Z 03008KT 10SM SCT095 M01/M08 A3011 910 58 -700 030/08 RMK AO2
94908KDBQ DBQ20060215100509802/15/06 10:05:31  5-MIN KDBQ 151605Z 03009KT 10SM SCT095 M01/M08 A3011 910 56 -700 030/09 RMK AO2
94908KDBQ DBQ20060215101009802/15/06 10:10:31  5-MIN KDBQ 151610Z 03009KT 10SM FEW095 M01/M08 A3011 910 56 -700 020/09 RMK AO2
94908KDBQ DBQ20060215101509802/15/06 10:15:31  5-MIN KDBQ 151615Z 04009KT 10SM FEW095 M01/M08 A3011 910 56 -700 040/09 RMK AO2
94908KDBQ DBQ20060215102009702/15/06 10:20:31  5-MIN KDBQ 151620Z 03010KT 10SM FEW095 00/M08 A3010 910 53 -600 030/10 RMK AO2
94908KDBQ DBQ20060215102509702/15/06 10:25:31  5-MIN KDBQ 151625Z 03010KT 10SM FEW090 00/M08 A3010 910 56 -600 030/10 RMK AO2
94908KDBQ DBQ20060215103009402/15/06 10:30:31  5-MIN KDBQ 151630Z 02009KT 10SM CLR 00/M08 A3010 910 56 -600 020/09 RMK AO2
94908KDBQ DBQ20060215103509402/15/06 10:35:31  5-MIN KDBQ 151635Z 03009KT 10SM CLR 00/M08 A3010 910 53 -600 030/09 RMK AO2
94908KDBQ DBQ20060215104009702/15/06 10:40:31  5-MIN KDBQ 151640Z 02011KT 10SM FEW095 00/M08 A3010 910 53 -600 020/11 RMK AO2
94908KDBQ DBQ20060215104509702/15/06 10:45:31  5-MIN KDBQ 151645Z 03012KT 10SM FEW090 00/M08 A3010 910 53 -600 030/12 RMK AO2
94908KDBQ DBQ20060215105011402/15/06 10:50:31  5-MIN KDBQ 151650Z 02010KT 10SM FEW095 00/M08 A3010 910 53 -600 020/10 RMK AO2 SLP204 T00001083
94908KDBQ DBQ20060215105512102/15/06 10:55:31  5-MIN KDBQ 151655Z 03011KT 10SM FEW075 SCT090 00/M09 A3010 910 51 -600 030/11 RMK AO2 SLP204 T00001089
94908KDBQ DBQ20060215110010402/15/06 11:00:31  5-MIN KDBQ 151700Z 04009KT 10SM SCT075 SCT090 00/M09 A3010 910 51 -600 040/09 RMK AO2
94908KDBQ DBQ20060215110510402/15/06 11:05:31  5-MIN KDBQ 151705Z 04011KT 10SM SCT070 SCT090 00/M08 A3010 910 53 -600 040/11 RMK AO2
94908KDBQ DBQ20060215111009702/15/06 11:10:31  5-MIN KDBQ 151710Z 03013KT 10SM SCT065 00/M09 A3010 910 49 -600 030/13 RMK AO2
94908KDBQ DBQ20060215111509702/15/06 11:15:31  5-MIN KDBQ 151715Z 03010KT 10SM FEW070 00/M09 A3010 910 49 -600 030/10 RMK AO2
94908KDBQ DBQ20060215112009702/15/06 11:20:31  5-MIN KDBQ 151720Z 04008KT 10SM FEW070 00/M09 A3010 910 51 -600 030/08 RMK AO2
94908KDBQ DBQ20060215112509702/15/06 11:25:31  5-MIN KDBQ 151725Z 03009KT 10SM FEW060 01/M09 A3011 910 49 -500 030/09 RMK AO2
94908KDBQ DBQ20060215113009702/15/06 11:30:31  5-MIN KDBQ 151730Z 03008KT 10SM FEW065 01/M09 A3011 910 49 -500 030/08 RMK AO2
94908KDBQ DBQ20060215113509702/15/06 11:35:31  5-MIN KDBQ 151735Z 03007KT 10SM FEW110 01/M09 A3010 910 49 -500 030/07 RMK AO2
94908KDBQ DBQ20060215114009402/15/06 11:40:31  5-MIN KDBQ 151740Z 02008KT 10SM CLR 01/M09 A3010 910 49 -500 020/08 RMK AO2
94908KDBQ DBQ20060215114509402/15/06 11:45:31  5-MIN KDBQ 151745Z 03009KT 10SM CLR 01/M09 A3010 910 49 -500 030/09 RMK AO2
94908KDBQ DBQ20060215115012902/15/06 11:50:31  5-MIN KDBQ 151750Z 04008KT 10SM CLR 01/M09 A3010 910 49 -500 040/08 RMK AO2 SLP205 T00061089 10006 21022 53031
94908KDBQ DBQ20060215115512902/15/06 11:55:31  5-MIN KDBQ 151755Z 03006KT 10SM CLR 01/M09 A3011 910 49 -500 030/06 RMK AO2 SLP206 T00061089 10006 21022 53000
94908KDBQ DBQ20060215120009702/15/06 12:00:31  5-MIN KDBQ 151800Z 04007KT 10SM FEW075 01/M09 A3010 910 47 -500 030/07 RMK AO2
94908KDBQ DBQ20060215120509702/15/06 12:05:31  5-MIN KDBQ 151805Z 05007KT 10SM SCT070 01/M09 A3010 910 45 -500 050/07 RMK AO2
94908KDBQ DBQ20060215121009702/15/06 12:10:31  5-MIN KDBQ 151810Z 05008KT 10SM SCT070 01/M09 A3010 910 45 -500 050/08 RMK AO2
94908KDBQ DBQ20060215121509702/15/06 12:15:31  5-MIN KDBQ 151815Z 05009KT 10SM BKN065 01/M09 A3010 910 45 -500 050/09 RMK AO2
94908KDBQ DBQ20060215122009702/15/06 12:20:31  5-MIN KDBQ 151820Z 04008KT 10SM BKN065 01/M10 A3010 920 43 -500 040/08 RMK AO2
94908KDBQ DBQ20060215122509702/15/06 12:25:31  5-MIN KDBQ 151825Z 04010KT 10SM BKN065 01/M10 A3009 920 43 -500 040/10 RMK AO2
94908KDBQ DBQ20060215123009702/15/06 12:30:31  5-MIN KDBQ 151830Z 04010KT 10SM BKN065 01/M10 A3009 920 43 -500 040/10 RMK AO2
94908KDBQ DBQ20060215123509702/15/06 12:35:31  5-MIN KDBQ 151835Z 04011KT 10SM BKN065 01/M10 A3009 920 43 -500 040/11 RMK AO2
94908KDBQ DBQ20060215124009702/15/06 12:40:31  5-MIN KDBQ 151840Z 03009KT 10SM BKN065 01/M10 A3008 930 43 -400 030/09 RMK AO2
94908KDBQ DBQ20060215124509702/15/06 12:45:31  5-MIN KDBQ 151845Z 04009KT 10SM BKN060 01/M10 A3009 920 43 -500 040/09 RMK AO2
94908KDBQ DBQ20060215125011402/15/06 12:50:31  5-MIN KDBQ 151850Z 03013KT 10SM BKN060 01/M11 A3009 920 41 -500 030/13 RMK AO2 SLP201 T00111106
94908KDBQ DBQ20060215125511402/15/06 12:55:31  5-MIN KDBQ 151855Z 04010KT 10SM BKN060 01/M11 A3009 920 41 -500 040/10 RMK AO2 SLP200 T00111106
94908KDBQ DBQ20060215130009702/15/06 13:00:31  5-MIN KDBQ 151900Z 03013KT 10SM BKN060 01/M11 A3009 930 40 -500 030/13 RMK AO2
94908KDBQ DBQ20060215130509702/15/06 13:05:31  5-MIN KDBQ 151905Z 03011KT 10SM BKN055 02/M11 A3009 920 38 -400 030/11 RMK AO2
94908KDBQ DBQ20060215131009702/15/06 13:10:31  5-MIN KDBQ 151910Z 04012KT 10SM BKN060 02/M11 A3009 920 38 -400 040/12 RMK AO2
94908KDBQ DBQ20060215131509702/15/06 13:15:31  5-MIN KDBQ 151915Z 03011KT 10SM SCT055 02/M11 A3009 920 38 -400 030/11 RMK AO2
94908KDBQ DBQ20060215132009702/15/06 13:20:31  5-MIN KDBQ 151920Z 03012KT 10SM SCT055 02/M11 A3008 930 38 -400 030/12 RMK AO2
94908KDBQ DBQ20060215132509702/15/06 13:25:31  5-MIN KDBQ 151925Z 03010KT 10SM SCT060 02/M11 A3008 930 37 -300 030/10 RMK AO2
94908KDBQ DBQ20060215133011102/15/06 13:30:31  5-MIN KDBQ 151930Z 02013KT 10SM FEW050 SCT095 SCT110 02/M11 A3008 930 38 -300 020/13 RMK AO2
94908KDBQ DBQ20060215133509702/15/06 13:35:31  5-MIN KDBQ 151935Z 02013KT 10SM SCT110 02/M11 A3007 940 38 -400 020/13 RMK AO2
94908KDBQ DBQ20060215134010402/15/06 13:40:31  5-MIN KDBQ 151940Z 03012KT 10SM FEW070 SCT110 02/M11 A3007 940 40 -400 030/12 RMK AO2
94908KDBQ DBQ20060215134510402/15/06 13:45:31  5-MIN KDBQ 151945Z 03013KT 10SM FEW065 BKN095 02/M11 A3007 940 40 -400 030/13 RMK AO2
94908KDBQ DBQ20060215135012802/15/06 13:50:31  5-MIN KDBQ 151950Z 04012KT 10SM FEW065 BKN080 BKN110 02/M11 A3007 940 40 -400 040/12 RMK AO2 SLP192 T00171106
94908KDBQ DBQ20060215135512802/15/06 13:55:31  5-MIN KDBQ 151955Z 03014KT 10SM FEW060 BKN080 BKN110 02/M11 A3006 950 40 -400 020/14 RMK AO2 SLP191 T00171106
94908KDBQ DBQ20060215140009702/15/06 14:00:31  5-MIN KDBQ 152000Z 03013KT 10SM BKN065 02/M11 A3006 950 40 -300 030/13 RMK AO2
94908KDBQ DBQ20060215140510402/15/06 14:05:31  5-MIN KDBQ 152005Z 03014KT 10SM BKN050 BKN065 02/M11 A3005 960 40 -300 020/14 RMK AO2
94908KDBQ DBQ20060215141010402/15/06 14:10:31  5-MIN KDBQ 152010Z 03014KT 10SM BKN050 BKN065 02/M11 A3005 960 40 -300 030/14 RMK AO2
94908KDBQ DBQ20060215141510402/15/06 14:15:31  5-MIN KDBQ 152015Z 03012KT 10SM BKN048 BKN060 02/M11 A3005 960 40 -300 030/12 RMK AO2
94908KDBQ DBQ20060215142010402/15/06 14:20:31  5-MIN KDBQ 152020Z 03012KT 10SM BKN044 BKN060 02/M11 A3005 960 40 -300 030/12 RMK AO2
94908KDBQ DBQ20060215142509702/15/06 14:25:31  5-MIN KDBQ 152025Z 03017KT 10SM BKN042 02/M11 A3005 960 38 -300 030/17 RMK AO2
94908KDBQ DBQ20060215143009702/15/06 14:30:31  5-MIN KDBQ 152030Z 03015KT 10SM BKN042 01/M11 A3005 960 40 -400 030/15 RMK AO2
94908KDBQ DBQ20060215143509702/15/06 14:35:31  5-MIN KDBQ 152035Z 04014KT 10SM BKN040 01/M11 A3005 960 40 -400 040/14 RMK AO2
94908KDBQ DBQ20060215144009702/15/06 14:40:31  5-MIN KDBQ 152040Z 03011KT 10SM BKN040 01/M11 A3005 960 40 -400 030/11 RMK AO2
94908KDBQ DBQ20060215144509702/15/06 14:45:31  5-MIN KDBQ 152045Z 04013KT 10SM BKN040 02/M11 A3005 960 38 -300 040/13 RMK AO2
94908KDBQ DBQ20060215145012002/15/06 14:50:31  5-MIN KDBQ 152050Z 04012KT 10SM BKN040 02/M11 A3005 960 38 -300 040/12 RMK AO2 SLP186 T00171111 53000
94908KDBQ DBQ20060215145512002/15/06 14:55:31  5-MIN KDBQ 152055Z 04014KT 10SM BKN036 02/M11 A3005 960 38 -300 040/14 RMK AO2 SLP186 T00171111 56019
94908KDBQ DBQ20060215150009702/15/06 15:00:31  5-MIN KDBQ 152100Z 03012KT 10SM OVC034 02/M11 A3005 960 38 -300 030/12 RMK AO2
94908KDBQ DBQ20060215150509702/15/06 15:05:31  5-MIN KDBQ 152105Z 04013KT 10SM OVC032 02/M11 A3004 960 38 -300 040/13 RMK AO2
94908KDBQ DBQ20060215151010202/15/06 15:10:31  5-MIN KDBQ 152110Z 05012G18KT 9SM OVC030 01/M09 A3004 970 45 -400 050/12G18 RMK AO2
94908KDBQ DBQ20060215151510202/15/06 15:15:31  5-MIN KDBQ 152115Z 05011G18KT 9SM OVC028 01/M09 A3004 970 47 -400 050/11G18 RMK AO2
94908KDBQ DBQ20060215152010202/15/06 15:20:31  5-MIN KDBQ 152120Z 05009G18KT 9SM OVC026 01/M09 A3004 970 49 -500 050/09G18 RMK AO2
94908KDBQ DBQ20060215152510202/15/06 15:25:31  5-MIN KDBQ 152125Z 05010G18KT 8SM OVC026 01/M08 A3004 970 51 -500 040/10G18 RMK AO2
94908KDBQ DBQ20060215153010202/15/06 15:30:31  5-MIN KDBQ 152130Z 06016G19KT 9SM OVC026 01/M09 A3004 970 47 -400 060/16G19 RMK AO2
94908KDBQ DBQ20060215153511802/15/06 15:35:31  5-MIN KDBQ 152135Z 06014G19KT 4SM -SN OVC026 01/M09 A3005 960 49 -500 050/14G19 RMK AO2 SNB33 P0000
94908KDBQ DBQ20060215154012802/15/06 15:40:31  5-MIN KDBQ 152140Z 06015KT 2 1/2SM -SN OVC024 00/M08 A3005 960 53 -600 060/15 RMK AO2 VIS 1 3/4V4 SNB33 P0000
94908KDBQ DBQ20060215154511602/15/06 15:45:31  5-MIN KDBQ 152145Z 03017KT 2 1/2SM -SN OVC024 00/M08 A3005 960 56 -500 030/17 RMK AO2 SNB33 P0000
94908KDBQ DBQ20060215155011802/15/06 15:50:31  5-MIN KDBQ 152150Z 03017G22KT 4SM -SN OVC024 00/M08 A3005 960 56 -500 030/17G22 RMK AO2 SNB33 P0000
94908KDBQ DBQ20060215155515102/15/06 15:55:31  5-MIN KDBQ 152155Z 03015G22KT 5SM HZ BKN022 BKN027 OVC050 00/M07 A3005 950 58 -600 030/15G22 RMK AO2 SNB33E55 SLP189 P0000 T00001072
94908KDBQ DBQ20060215160010302/15/06 16:00:31  5-MIN KDBQ 152200Z 04015KT 7SM BKN022 OVC050 01/M08 A3005 960 54 -500 040/15 RMK AO2
94908KDBQ DBQ20060215160511002/15/06 16:05:31  5-MIN KDBQ 152205Z 04017KT 9SM FEW021 SCT026 BKN050 01/M09 A3005 960 49 -500 040/17 RMK AO2
94908KDBQ DBQ20060215161011102/15/06 16:10:31  5-MIN KDBQ 152210Z 04015KT 10SM FEW024 BKN050 BKN070 01/M09 A3005 960 49 -500 040/15 RMK AO2
94908KDBQ DBQ20060215161511102/15/06 16:15:31  5-MIN KDBQ 152215Z 05014KT 10SM FEW021 BKN070 OVC090 01/M08 A3005 960 51 -500 050/14 RMK AO2
94908KDBQ DBQ20060215162011102/15/06 16:20:31  5-MIN KDBQ 152220Z 03016KT 10SM FEW050 BKN065 OVC075 00/M08 A3005 960 53 -500 030/16 RMK AO2
94908KDBQ DBQ20060215162510402/15/06 16:25:31  5-MIN KDBQ 152225Z 03014KT 10SM BKN060 OVC075 00/M08 A3005 960 56 -500 030/14 RMK AO2
94908KDBQ DBQ20060215163010402/15/06 16:30:31  5-MIN KDBQ 152230Z 04013KT 10SM BKN060 OVC075 00/M07 A3005 960 58 -500 040/13 RMK AO2
94908KDBQ DBQ20060215163510502/15/06 16:35:31  5-MIN KDBQ 152235Z 03015KT 10SM BKN060 OVC075 M01/M07 A3005 960 61 -600 030/15 RMK AO2
94908KDBQ DBQ20060215164010502/15/06 16:40:31  5-MIN KDBQ 152240Z 04015KT 10SM BKN065 OVC080 M01/M07 A3004 970 61 -600 040/15 RMK AO2
94908KDBQ DBQ20060215164510502/15/06 16:45:31  5-MIN KDBQ 152245Z 04015KT 10SM BKN060 OVC075 M01/M07 A3004 970 61 -600 040/15 RMK AO2
94908KDBQ DBQ20060215165013502/15/06 16:50:31  5-MIN KDBQ 152250Z 04017G21KT 10SM FEW050 BKN060 OVC075 M01/M07 A3003 980 61 -600 040/17G21 RMK AO2 SLP182 T10061072
94908KDBQ DBQ20060215165512202/15/06 16:55:31  5-MIN KDBQ 152255Z 03015KT 10SM BKN050 OVC070 M01/M07 A3003 980 61 -600 030/15 RMK AO2 SLP181 T10061072
94908KDBQ DBQ20060215170010502/15/06 17:00:31  5-MIN KDBQ 152300Z 04017KT 10SM FEW033 OVC050 M01/M07 A3002 980 61 -600 040/17 RMK AO2
94908KDBQ DBQ20060215170510502/15/06 17:05:31  5-MIN KDBQ 152305Z 04015KT 10SM FEW035 OVC050 M01/M07 A3002 980 61 -600 030/15 RMK AO2
94908KDBQ DBQ20060215171009802/15/06 17:10:31  5-MIN KDBQ 152310Z 03014KT 10SM OVC042 M01/M07 A3003 980 61 -600 030/14 RMK AO2
94908KDBQ DBQ20060215171511802/15/06 17:15:31  5-MIN KDBQ 152315Z 03016G21KT 10SM BKN038 BKN048 OVC055 M01/M07 A3003 970 63 -700 030/16G21 RMK AO2
94908KDBQ DBQ20060215172011802/15/06 17:20:31  5-MIN KDBQ 152320Z 03016G21KT 10SM BKN033 BKN046 OVC055 M01/M08 A3003 970 60 -700 030/16G21 RMK AO2
94908KDBQ DBQ20060215172511702/15/06 17:25:31  5-MIN KDBQ 152325Z 04015G21KT 9SM BKN031 BKN038 OVC047 M01/M08 A3004 970 60 -700 040/15G21 RMK AO2
94908KDBQ DBQ20060215173012702/15/06 17:30:31  5-MIN KDBQ 152330Z 04015KT 6SM -SN BKN027 BKN038 OVC047 M01/M08 A3004 970 60 -700 040/15 RMK AO2 SNB26 P0000
94908KDBQ DBQ20060215173513302/15/06 17:35:31  5-MIN KDBQ 152335Z 05018G22KT 5SM -SN BKN025 BKN038 OVC047 M01/M08 A3004 970 60 -700 050/18G22 RMK AO2 SNB26 P0000
94908KDBQ DBQ20060215174012602/15/06 17:40:31  5-MIN KDBQ 152340Z 05014G22KT 5SM -SN BKN025 OVC038 M01/M08 A3003 970 60 -700 050/14G22 RMK AO2 SNB26 P0000
94908KDBQ DBQ20060215174511302/15/06 17:45:31  5-MIN KDBQ 152345Z 05015KT 5SM -SN OVC023 M01/M07 A3003 980 63 -700 040/15 RMK AO2 SNB26 P0000
94908KDBQ DBQ20060215175015402/15/06 17:50:31  5-MIN KDBQ 152350Z 05015KT 5SM -SN OVC023 M02/M07 A3003 980 66 -700 050/15 RMK AO2 SNB26 SLP182 P0000 60000 T10171072 10022 21017 56019
94908KDBQ DBQ20060215175515402/15/06 17:55:31  5-MIN KDBQ 152355Z 05018KT 4SM -SN OVC021 M02/M07 A3003 970 69 -700 050/18 RMK AO2 SNB26 SLP183 P0000 60000 T10171067 10022 21017 55005
94908KDBQ DBQ20060215180011902/15/06 18:00:31  5-MIN KDBQ 160000Z 05016KT 2 1/2SM -SN OVC019 M02/M06 A3004 970 75 -800 040/16 RMK AO2 VIS 2V5 P0000
94908KDBQ DBQ20060215180510702/15/06 18:05:31  5-MIN KDBQ 160005Z 05017KT 2SM -SN OVC017 M02/M06 A3004 970 75 -800 050/17 RMK AO2 P0000
94908KDBQ DBQ20060215181011102/15/06 18:10:31  5-MIN KDBQ 160010Z 05015KT 1 3/4SM -SN OVC015 M03/M06 A3004 970 81 -900 050/15 RMK AO2 P0000
94908KDBQ DBQ20060215181511402/15/06 18:15:31  5-MIN KDBQ 160015Z 05013KT 1 1/2SM -SN BR OVC013 M03/M05 A3004 970 85 -900 040/13 RMK AO2 P0000
94908KDBQ DBQ20060215182011402/15/06 18:20:31  5-MIN KDBQ 160020Z 05012KT 1 1/4SM -SN BR OVC011 M03/M05 A3005 960 85 -900 050/12 RMK AO2 P0000
94908KDBQ DBQ20060215182511002/15/06 18:25:31  5-MIN KDBQ 160025Z 05013KT 1SM -SN BR VV010 M03/M05 A3005 960 88 -1000 050/13 RMK AO2 P0000
94908KDBQ DBQ20060215183011502/15/06 18:30:31  5-MIN KDBQ 160030Z 05015KT 1 1/4SM -SN BR OVC010 M03/M05 A3005 950 88 -1000 050/15 RMK AO2 P0000
94908KDBQ DBQ20060215183512102/15/06 18:35:31  5-MIN KDBQ 160035Z 05014G19KT 1 1/2SM -SN BR OVC010 M03/M05 A3006 950 88 -1000 050/14G19 RMK AO2 P0000
94908KDBQ DBQ20060215184012202/15/06 18:40:31  5-MIN KDBQ 160040Z 05014KT 1 1/2SM -SN BR OVC010 M03/M05 A3007 940 88 -1000 050/14 RMK AO2 PRESRR P0000
94908KDBQ DBQ20060215184512202/15/06 18:45:31  5-MIN KDBQ 160045Z 05014KT 1 1/2SM -SN BR OVC010 M03/M05 A3008 940 88 -1000 050/14 RMK AO2 PRESRR P0000
94908KDBQ DBQ20060215185013202/15/06 18:50:31  5-MIN KDBQ 160050Z 05014KT 1 1/2SM -SN BR OVC010 M03/M05 A3008 930 88 -1000 050/14 RMK AO2 SLP200 P0000 T10331050
94908KDBQ DBQ20060215185513202/15/06 18:55:31  5-MIN KDBQ 160055Z 05014KT 1 1/2SM -SN BR OVC010 M03/M05 A3008 930 88 -1000 050/14 RMK AO2 SLP201 P0000 T10331050
94908KDBQ DBQ20060215190011502/15/06 19:00:31  5-MIN KDBQ 160100Z 05013KT 1 1/2SM -SN BR OVC010 M03/M05 A3008 930 88 -1000 050/13 RMK AO2 P0000
94908KDBQ DBQ20060215190512202/15/06 19:05:31  5-MIN KDBQ 160105Z 05016KT 1 1/2SM -SN BR FEW008 OVC012 M03/M05 A3008 930 88 -1000 050/16 RMK AO2 P0000
94908KDBQ DBQ20060215191011502/15/06 19:10:31  5-MIN KDBQ 160110Z 05014KT 1 1/2SM -SN BR OVC012 M03/M05 A3008 930 88 -1000 050/14 RMK AO2 P0000
94908KDBQ DBQ20060215191511502/15/06 19:15:31  5-MIN KDBQ 160115Z 05015KT 1 1/2SM -SN BR OVC012 M03/M06 A3009 930 85 -1000 050/15 RMK AO2 P0000
94908KDBQ DBQ20060215192011502/15/06 19:20:31  5-MIN KDBQ 160120Z 05015KT 1 1/2SM -SN BR OVC010 M03/M06 A3009 920 85 -1000 050/15 RMK AO2 P0000
94908KDBQ DBQ20060215192511502/15/06 19:25:31  5-MIN KDBQ 160125Z 04013KT 1 1/4SM -SN BR OVC010 M03/M06 A3009 920 85 -1000 040/13 RMK AO2 P0000
94908KDBQ DBQ20060215193011002/15/06 19:30:31  5-MIN KDBQ 160130Z 05012KT 1SM -SN BR VV008 M04/M05 A3010 920 92 -1100 050/12 RMK AO2 P0000
94908KDBQ DBQ20060215193511002/15/06 19:35:31  5-MIN KDBQ 160135Z 04014KT 1SM -SN BR VV008 M04/M05 A3009 920 92 -1100 040/14 RMK AO2 P0001
94908KDBQ DBQ20060215194011002/15/06 19:40:31  5-MIN KDBQ 160140Z 04014KT 1SM -SN BR VV007 M04/M05 A3009 920 92 -1100 040/14 RMK AO2 P0001
94908KDBQ DBQ20060215194511202/15/06 19:45:31  5-MIN KDBQ 160145Z 04014KT 3/4SM -SN BR VV006 M04/M05 A3008 930 92 -1100 040/14 RMK AO2 P0001
94908KDBQ DBQ20060215195011202/15/06 19:50:31  5-MIN KDBQ 160150Z 04015KT 3/4SM -SN BR VV005 M04/M05 A3008 930 92 -1100 040/15 RMK AO2 P0001
94908KDBQ DBQ20060215195512902/15/06 19:55:31  5-MIN KDBQ 160155Z 04014KT 3/4SM -SN BR VV005 M04/M05 A3008 930 92 -1100 040/14 RMK AO2 SLP200 P0001 T10391050
94908KDBQ DBQ20060215200012202/15/06 20:00:31  5-MIN KDBQ 160200Z AUTO 04014KT 3/4SM -SN BR VV004 M04/M05 A3007 940 92 -1100 030/14 RMK AO2 P0000 TSNO
94908KDBQ DBQ20060215200512202/15/06 20:05:31  5-MIN KDBQ 160205Z AUTO 03013KT 3/4SM -SN BR VV004 M04/M05 A3007 940 92 -1100 030/13 RMK AO2 P0001 TSNO
94908KDBQ DBQ20060215201012002/15/06 20:10:31  5-MIN KDBQ 160210Z AUTO 03014KT 1SM -SN BR VV004 M04/M05 A3006 950 92 -1100 030/14 RMK AO2 P0001 TSNO
94908KDBQ DBQ20060215201512002/15/06 20:15:31  5-MIN KDBQ 160215Z AUTO 03012KT 1SM -SN BR VV005 M04/M05 A3006 950 92 -1100 030/12 RMK AO2 P0001 TSNO
94908KDBQ DBQ20060215202012102/15/06 20:20:31  5-MIN KDBQ 160220Z AUTO 02014KT 1SM -SN BR OVC005 M04/M05 A3006 950 92 -1100 020/14 RMK AO2 P0001 TSNO
94908KDBQ DBQ20060215202512102/15/06 20:25:31  5-MIN KDBQ 160225Z AUTO 02016KT 1SM -SN BR OVC005 M04/M05 A3006 950 92 -1000 020/16 RMK AO2 P0001 TSNO
94908KDBQ DBQ20060215203012102/15/06 20:30:31  5-MIN KDBQ 160230Z AUTO 02015KT 1SM -SN BR OVC005 M04/M06 A3006 950 88 -1000 020/15 RMK AO2 P0002 TSNO
94908KDBQ DBQ20060215203512102/15/06 20:35:31  5-MIN KDBQ 160235Z AUTO 03016KT 1SM -SN BR OVC005 M04/M06 A3006 950 88 -1000 030/16 RMK AO2 P0002 TSNO
94908KDBQ DBQ20060215204012102/15/06 20:40:31  5-MIN KDBQ 160240Z AUTO 03016KT 1SM -SN BR OVC005 M04/M06 A3006 950 92 -1100 030/16 RMK AO2 P0002 TSNO
94908KDBQ DBQ20060215204512302/15/06 20:45:31  5-MIN KDBQ 160245Z AUTO 03016KT 3/4SM -SN BR OVC005 M04/M06 A3006 950 92 -1100 030/16 RMK AO2 P0002 TSNO
94908KDBQ DBQ20060215205013002/15/06 20:50:31  5-MIN KDBQ 160250Z AUTO 03013KT 3/4SM -SN BR BKN005 OVC009 M04/M06 A3006 950 92 -1100 030/13 RMK AO2 P0002 TSNO
94908KDBQ DBQ20060215205516002/15/06 20:55:31  5-MIN KDBQ 160255Z AUTO 03014KT 1/2SM SN FZFG BKN005 OVC009 M04/M06 A3005 960 92 -1100 030/14 RMK AO2 SLP192 P0002 60003 T10441056 56009 TSNO
94908KDBQ DBQ20060215210013002/15/06 21:00:31  5-MIN KDBQ 160300Z AUTO 04013KT 3/4SM -SN BR BKN003 OVC009 M04/M06 A3005 960 92 -1100 040/13 RMK AO2 P0000 TSNO
94908KDBQ DBQ20060215210513002/15/06 21:05:31  5-MIN KDBQ 160305Z AUTO 03013KT 3/4SM -SN BR BKN003 OVC009 M04/M06 A3005 960 92 -1100 030/13 RMK AO2 P0001 TSNO
94908KDBQ DBQ20060215211012302/15/06 21:10:31  5-MIN KDBQ 160310Z AUTO 04014KT 1/2SM SN FZFG VV003 M04/M06 A3005 960 92 -1100 040/14 RMK AO2 P0001 TSNO
94908KDBQ DBQ20060215211512302/15/06 21:15:31  5-MIN KDBQ 160315Z AUTO 03014KT 1/2SM SN FZFG VV003 M04/M06 A3005 950 92 -1100 030/14 RMK AO2 P0001 TSNO
94908KDBQ DBQ20060215212012302/15/06 21:20:31  5-MIN KDBQ 160320Z AUTO 03014KT 1/2SM SN FZFG VV003 M04/M06 A3005 960 92 -1100 030/14 RMK AO2 P0001 TSNO
94908KDBQ DBQ20060215212512302/15/06 21:25:31  5-MIN KDBQ 160325Z AUTO 03014KT 1/2SM SN FZFG VV002 M04/M06 A3005 960 92 -1100 030/14 RMK AO2 P0001 TSNO
94908KDBQ DBQ20060215213012302/15/06 21:30:31  5-MIN KDBQ 160330Z AUTO 03015KT 1/2SM SN FZFG VV002 M04/M06 A3006 950 92 -1100 030/15 RMK AO2 P0001 TSNO
94908KDBQ DBQ20060215213512302/15/06 21:35:31  5-MIN KDBQ 160335Z AUTO 04013KT 1/2SM SN FZFG VV003 M04/M06 A3006 950 92 -1100 040/13 RMK AO2 P0001 TSNO
94908KDBQ DBQ20060215214012202/15/06 21:40:31  5-MIN KDBQ 160340Z AUTO 03013KT 3/4SM -SN BR VV003 M04/M06 A3006 950 92 -1100 030/13 RMK AO2 P0001 TSNO
94908KDBQ DBQ20060215214512302/15/06 21:45:31  5-MIN KDBQ 160345Z AUTO 03013KT 1/2SM SN FZFG VV003 M04/M06 A3006 950 92 -1100 030/13 RMK AO2 P0002 TSNO
94908KDBQ DBQ20060215215014002/15/06 21:50:31  5-MIN KDBQ 160350Z AUTO 03015KT 1/2SM SN FZFG VV003 M04/M06 A3005 950 88 -1100 030/15 RMK AO2 SLP191 P0002 T10441061 TSNO
94908KDBQ DBQ20060215215514002/15/06 21:55:31  5-MIN KDBQ 160355Z AUTO 04012KT 1/2SM SN FZFG VV003 M04/M06 A3005 950 88 -1100 040/12 RMK AO2 SLP191 P0002 T10441061 TSNO
94908KDBQ DBQ20060215220012302/15/06 22:00:31  5-MIN KDBQ 160400Z AUTO 03014KT 1/2SM SN FZFG VV003 M04/M06 A3006 950 88 -1100 030/14 RMK AO2 P0001 TSNO
94908KDBQ DBQ20060215220513002/15/06 22:05:31  5-MIN KDBQ 160405Z AUTO 03015KT 3/4SM -SN BR BKN003 OVC007 M04/M06 A3006 950 88 -1100 030/15 RMK AO2 P0001 TSNO
94908KDBQ DBQ20060215221013502/15/06 22:10:31  5-MIN KDBQ 160410Z AUTO 03014KT 1SM -SN BR BKN005 BKN008 OVC046 M05/M06 A3006 950 92 -1200 030/14 RMK AO2 P0001 TSNO
94908KDBQ DBQ20060215221513902/15/06 22:15:31  5-MIN KDBQ 160415Z AUTO 03014KT 1 1/4SM -SN BR BKN005 BKN009 OVC046 M05/M06 A3006 950 92 -1200 030/14 RMK AO2 P0001 TSNO
94908KDBQ DBQ20060215222013902/15/06 22:20:31  5-MIN KDBQ 160420Z AUTO 03013KT 1 1/2SM -SN BR SCT003 BKN009 OVC046 M05/M06 A3006 950 92 -1200 030/13 RMK AO2 P0001 TSNO
94908KDBQ DBQ20060215222513902/15/06 22:25:31  5-MIN KDBQ 160425Z AUTO 04013KT 1 3/4SM -SN BR FEW003 SCT009 OVC046 M05/M06 A3006 950 92 -1200 040/13 RMK AO2 P0001 TSNO
94908KDBQ DBQ20060215223013202/15/06 22:30:31  5-MIN KDBQ 160430Z AUTO 04012KT 2 1/2SM -SN BR FEW005 OVC046 M05/M06 A3006 950 92 -1200 040/12 RMK AO2 P0001 TSNO
94908KDBQ DBQ20060215223513202/15/06 22:35:31  5-MIN KDBQ 160435Z AUTO 04011KT 2 1/2SM -SN BR FEW005 OVC046 M05/M06 A3005 960 92 -1200 040/11 RMK AO2 P0001 TSNO
94908KDBQ DBQ20060215224012802/15/06 22:40:31  5-MIN KDBQ 160440Z AUTO 04014KT 3SM -SN BR FEW013 OVC046 M05/M06 A3005 960 92 -1200 040/14 RMK AO2 P0001 TSNO
94908KDBQ DBQ20060215224513502/15/06 22:45:31  5-MIN KDBQ 160445Z AUTO 04013KT 3SM -SN BR FEW008 SCT011 OVC046 M05/M06 A3005 960 92 -1200 040/13 RMK AO2 P0001 TSNO
94908KDBQ DBQ20060215225013502/15/06 22:50:31  5-MIN KDBQ 160450Z AUTO 04013KT 3SM -SN BR SCT007 BKN013 OVC046 M05/M06 A3005 960 92 -1200 040/13 RMK AO2 P0001 TSNO
94908KDBQ DBQ20060215225515802/15/06 22:55:31  5-MIN KDBQ 160455Z AUTO 04017G23KT 3SM -SN BR SCT008 BKN013 OVC046 M05/M06 A3005 960 92 -1200 040/17G23 RMK AO2 SLP189 P0001 T10501061 TSNO
94908KDBQ DBQ20060215230014102/15/06 23:00:31  5-MIN KDBQ 160500Z AUTO 04015G23KT 4SM -SN BR SCT007 BKN013 OVC044 M05/M07 A3005 960 88 -1200 040/15G23 RMK AO2 P0000 TSNO
94908KDBQ DBQ20060215230513502/15/06 23:05:31  5-MIN KDBQ 160505Z AUTO 04015KT 4SM -SN BR SCT007 BKN013 OVC044 M05/M07 A3005 960 88 -1200 040/15 RMK AO2 P0000 TSNO
94908KDBQ DBQ20060215231014702/15/06 23:10:31  5-MIN KDBQ 160510Z AUTO 04013KT 4SM -SN BR BKN007 BKN013 OVC044 M05/M06 A3006 950 92 -1200 040/13 RMK AO2 CIG 005V010 P0000 TSNO
94908KDBQ DBQ20060215231514702/15/06 23:15:31  5-MIN KDBQ 160515Z AUTO 03015KT 4SM -SN BR BKN007 BKN013 OVC044 M05/M06 A3005 960 92 -1200 030/15 RMK AO2 CIG 005V010 P0000 TSNO
94908KDBQ DBQ20060215232015302/15/06 23:20:31  5-MIN KDBQ 160520Z AUTO 03014G21KT 4SM -SN BR BKN007 BKN012 OVC044 M05/M07 A3005 960 88 -1200 030/14G21 RMK AO2 CIG 005V009 P0000 TSNO
94908KDBQ DBQ20060215232515302/15/06 23:25:31  5-MIN KDBQ 160525Z AUTO 04015G21KT 4SM -SN BR BKN009 BKN012 OVC044 M05/M07 A3005 960 88 -1200 040/15G21 RMK AO2 CIG 006V011 P0000 TSNO
94908KDBQ DBQ20060215233015302/15/06 23:30:31  5-MIN KDBQ 160530Z AUTO 04015G21KT 4SM -SN BR BKN009 BKN013 OVC044 M05/M07 A3006 950 84 -1200 030/15G21 RMK AO2 CIG 006V011 P0000 TSNO
94908KDBQ DBQ20060215233513502/15/06 23:35:31  5-MIN KDBQ 160535Z AUTO 03016KT 5SM -SN BR SCT007 BKN011 OVC044 M05/M07 A3005 960 84 -1200 030/16 RMK AO2 P0000 TSNO
94908KDBQ DBQ20060215234014102/15/06 23:40:31  5-MIN KDBQ 160540Z AUTO 03014G22KT 5SM -SN BR FEW007 BKN011 OVC044 M05/M07 A3006 950 84 -1200 030/14G22 RMK AO2 P0000 TSNO
94908KDBQ DBQ20060215234513402/15/06 23:45:31  5-MIN KDBQ 160545Z AUTO 03013G22KT 6SM -SN BR BKN011 OVC042 M05/M07 A3006 950 84 -1200 030/13G22 RMK AO2 P0000 TSNO
94908KDBQ DBQ20060215235017802/15/06 23:50:31  5-MIN KDBQ 160550Z AUTO 03015KT 7SM BKN011 OVC042 M05/M07 A3005 960 84 -1200 030/15 RMK AO2 SNE46 SLP190 P0000 60006 T10501072 11033 21050 400221050 56009 TSNO
94908KDBQ DBQ20060215235517802/15/06 23:55:31  5-MIN KDBQ 160555Z AUTO 03016KT 7SM BKN011 OVC042 M05/M07 A3006 950 84 -1200 030/16 RMK AO2 SNE46 SLP191 P0000 60006 T10501072 11033 21050 400221050 53000 TSNO
94908KDBQ DBQ20060216000011502/16/06 00:00:38  5-MIN KDBQ 160600Z AUTO 03014KT 7SM BKN011 OVC042 M05/M07 A3006 950 84 -1200 030/14 RMK AO2 TSNO
94908KDBQ DBQ20060216000510802/16/06 00:05:31  5-MIN KDBQ 160605Z AUTO 03015KT 7SM OVC011 M05/M07 A3005 950 84 -1200 030/15 RMK AO2 TSNO
94908KDBQ DBQ20060216001012602/16/06 00:10:31  5-MIN KDBQ 160610Z AUTO 04016KT 6SM UP BR OVC011 M06/M07 A3004 960 88 -1200 040/16 RMK AO2 UPB09 P0000 TSNO
94908KDBQ DBQ20060216001512602/16/06 00:15:32  5-MIN KDBQ 160615Z AUTO 04017KT 6SM UP BR OVC011 M06/M07 A3004 970 88 -1200 040/17 RMK AO2 UPB09 P0000 TSNO
94908KDBQ DBQ20060216002013602/16/06 00:20:31  5-MIN KDBQ 160620Z AUTO 03016G22KT 7SM BKN011 OVC041 M06/M07 A3004 960 88 -1200 030/16G22 RMK AO2 UPB09E17 P0000 TSNO
94908KDBQ DBQ20060216002514202/16/06 00:25:31  5-MIN KDBQ 160625Z AUTO 04016KT 8SM BKN011 OVC041 M06/M07 A3004 970 88 -1200 040/16 RMK AO2 UPB09E17 CIG 008V013 P0000 TSNO
94908KDBQ DBQ20060216003013002/16/06 00:30:31  5-MIN KDBQ 160630Z AUTO 04015KT 9SM BKN011 OVC043 M06/M07 A3003 980 88 -1200 040/15 RMK AO2 UPB09E17 P0000 TSNO
94908KDBQ DBQ20060216003513002/16/06 00:35:31  5-MIN KDBQ 160635Z AUTO 04013KT 9SM BKN011 OVC043 M06/M07 A3004 970 88 -1200 040/13 RMK AO2 UPB09E17 P0000 TSNO
94908KDBQ DBQ20060216004013002/16/06 00:40:31  5-MIN KDBQ 160640Z AUTO 04014KT 9SM SCT011 OVC043 M06/M07 A3003 970 88 -1200 040/14 RMK AO2 UPB09E17 P0000 TSNO
94908KDBQ DBQ20060216004513002/16/06 00:45:31  5-MIN KDBQ 160645Z AUTO 04014KT 9SM SCT011 OVC043 M06/M07 A3003 970 88 -1200 040/14 RMK AO2 UPB09E17 P0000 TSNO
94908KDBQ DBQ20060216005014702/16/06 00:50:31  5-MIN KDBQ 160650Z AUTO 04014KT 8SM SCT011 OVC041 M06/M07 A3004 970 88 -1200 040/14 RMK AO2 UPB09E17 SLP185 P0000 T10561072 TSNO
94908KDBQ DBQ20060216005514702/16/06 00:55:31  5-MIN KDBQ 160655Z AUTO 04017KT 8SM SCT011 OVC041 M06/M07 A3004 970 88 -1200 040/17 RMK AO2 UPB09E17 SLP186 P0000 T10561072 TSNO
94908KDBQ DBQ20060216010011502/16/06 01:00:31  5-MIN KDBQ 160700Z AUTO 03016KT 9SM BKN011 OVC041 M06/M08 A3004 970 84 -1200 030/16 RMK AO2 TSNO
94908KDBQ DBQ20060216010512202/16/06 01:05:31  5-MIN KDBQ 160705Z AUTO 04018G23KT 10SM BKN011 OVC041 M06/M08 A3004 970 84 -1200 040/18G23 RMK AO2 TSNO
94908KDBQ DBQ20060216011012102/16/06 01:10:31  5-MIN KDBQ 160710Z AUTO 04016G23KT 9SM SCT011 OVC039 M06/M08 A3003 970 84 -1200 040/16G23 RMK AO2 TSNO
94908KDBQ DBQ20060216011511602/16/06 01:15:31  5-MIN KDBQ 160715Z AUTO 03014KT 10SM SCT011 OVC039 M06/M08 A3003 980 84 -1200 030/14 RMK AO2 TSNO
94908KDBQ DBQ20060216012011602/16/06 01:20:31  5-MIN KDBQ 160720Z AUTO 04016KT 10SM SCT011 OVC037 M06/M08 A3003 980 84 -1200 040/16 RMK AO2 TSNO
94908KDBQ DBQ20060216012511602/16/06 01:25:31  5-MIN KDBQ 160725Z AUTO 04015KT 10SM FEW011 OVC037 M06/M08 A3002 990 84 -1200 040/15 RMK AO2 TSNO
94908KDBQ DBQ20060216013011602/16/06 01:30:31  5-MIN KDBQ 160730Z AUTO 04016KT 10SM FEW011 OVC037 M06/M08 A3002 980 84 -1200 040/16 RMK AO2 TSNO
94908KDBQ DBQ20060216013510902/16/06 01:35:31  5-MIN KDBQ 160735Z AUTO 04016KT 10SM OVC037 M06/M08 A3002 980 84 -1200 040/16 RMK AO2 TSNO
94908KDBQ DBQ20060216014010902/16/06 01:40:31  5-MIN KDBQ 160740Z AUTO 05018KT 10SM OVC037 M06/M08 A3002 980 81 -1200 050/18 RMK AO2 TSNO
94908KDBQ DBQ20060216014510902/16/06 01:45:31  5-MIN KDBQ 160745Z AUTO 04018KT 10SM OVC037 M06/M08 A3002 990 81 -1200 040/18 RMK AO2 TSNO
94908KDBQ DBQ20060216015012602/16/06 01:50:31  5-MIN KDBQ 160750Z AUTO 04016KT 10SM OVC035 M06/M08 A3001 990 81 -1200 040/16 RMK AO2 SLP177 T10561083 TSNO
94908KDBQ DBQ20060216015512602/16/06 01:55:31  5-MIN KDBQ 160755Z AUTO 04018KT 10SM OVC035 M06/M08 A3002 990 84 -1300 040/18 RMK AO2 SLP178 T10611083 TSNO
94908KDBQ DBQ20060216020012202/16/06 02:00:31  5-MIN KDBQ 160800Z AUTO 04015G21KT 10SM FEW012 OVC035 M06/M08 A3002 990 84 -1300 040/15G21 RMK AO2 TSNO
94908KDBQ DBQ20060216020512302/16/06 02:05:31  5-MIN KDBQ 160805Z AUTO 04017G21KT 10SM FEW012 OVC035 M06/M08 A3001 1000 84 -1300 030/17G21 RMK AO2 TSNO
94908KDBQ DBQ20060216021011702/16/06 02:10:31  5-MIN KDBQ 160810Z AUTO 05017KT 10SM FEW012 OVC035 M06/M08 A3001 1000 84 -1300 040/17 RMK AO2 TSNO
94908KDBQ DBQ20060216021512202/16/06 02:15:31  5-MIN KDBQ 160815Z AUTO 04018G22KT 10SM FEW012 OVC033 M06/M08 A3001 990 84 -1300 040/18G22 RMK AO2 TSNO
94908KDBQ DBQ20060216022012302/16/06 02:20:31  5-MIN KDBQ 160820Z AUTO 04016G22KT 10SM FEW012 OVC033 M06/M08 A3000 1000 84 -1300 040/16G22 RMK AO2 TSNO
94908KDBQ DBQ20060216022511702/16/06 02:25:31  5-MIN KDBQ 160825Z AUTO 04016KT 10SM FEW012 OVC033 M06/M08 A3000 1000 84 -1300 040/16 RMK AO2 TSNO
94908KDBQ DBQ20060216023012302/16/06 02:30:31  5-MIN KDBQ 160830Z AUTO 04019G23KT 10SM FEW012 OVC033 M06/M08 A2999 1010 84 -1300 040/19G23 RMK AO2 TSNO
94908KDBQ DBQ20060216023511002/16/06 02:35:31  5-MIN KDBQ 160835Z AUTO 04018KT 10SM OVC033 M06/M08 A2999 1010 84 -1300 040/18 RMK AO2 TSNO
94908KDBQ DBQ20060216024011002/16/06 02:40:31  5-MIN KDBQ 160840Z AUTO 04016KT 10SM OVC033 M06/M08 A3000 1010 84 -1300 040/16 RMK AO2 TSNO
94908KDBQ DBQ20060216024511002/16/06 02:45:31  5-MIN KDBQ 160845Z AUTO 04017KT 10SM OVC033 M06/M08 A2999 1020 84 -1300 040/17 RMK AO2 TSNO
94908KDBQ DBQ20060216025013902/16/06 02:50:31  5-MIN KDBQ 160850Z AUTO 05017KT 10SM OVC031 M06/M08 A2999 1010 84 -1300 040/17 RMK AO2 SLP169 60000 T10611083 53000 TSNO
94908KDBQ DBQ20060216025514502/16/06 02:55:31  5-MIN KDBQ 160855Z AUTO 05019G24KT 10SM OVC031 M06/M08 A2999 1010 84 -1300 050/19G24 RMK AO2 SLP170 60000 T10611083 58020 TSNO
94908KDBQ DBQ20060216030011602/16/06 03:00:31  5-MIN KDBQ 160900Z AUTO 04016G24KT 10SM OVC031 M06/M08 A2999 1020 84 -1300 040/16G24 RMK AO2 TSNO
94908KDBQ DBQ20060216030511702/16/06 03:05:31  5-MIN KDBQ 160905Z AUTO 05017KT 10SM FEW012 OVC031 M06/M08 A2999 1020 84 -1300 050/17 RMK AO2 TSNO
94908KDBQ DBQ20060216031011702/16/06 03:10:31  5-MIN KDBQ 160910Z AUTO 04015KT 10SM FEW012 OVC031 M06/M08 A2999 1020 84 -1300 040/15 RMK AO2 TSNO
94908KDBQ DBQ20060216031511702/16/06 03:15:31  5-MIN KDBQ 160915Z AUTO 05016KT 10SM FEW012 OVC031 M06/M08 A2998 1020 84 -1300 050/16 RMK AO2 TSNO
94908KDBQ DBQ20060216032011702/16/06 03:20:31  5-MIN KDBQ 160920Z AUTO 04016KT 10SM SCT012 OVC031 M06/M08 A2999 1010 84 -1300 040/16 RMK AO2 TSNO
94908KDBQ DBQ20060216032511702/16/06 03:25:31  5-MIN KDBQ 160925Z AUTO 04016KT 10SM SCT012 OVC031 M06/M08 A2999 1010 84 -1300 040/16 RMK AO2 TSNO
94908KDBQ DBQ20060216033011702/16/06 03:30:31  5-MIN KDBQ 160930Z AUTO 05017KT 10SM SCT012 OVC031 M06/M08 A2999 1020 84 -1300 050/17 RMK AO2 TSNO
94908KDBQ DBQ20060216033511602/16/06 03:35:31  5-MIN KDBQ 160935Z AUTO 04016KT 9SM SCT012 OVC031 M06/M08 A2999 1020 84 -1300 040/16 RMK AO2 TSNO
94908KDBQ DBQ20060216034011602/16/06 03:40:31  5-MIN KDBQ 160940Z AUTO 04016KT 9SM BKN012 OVC029 M06/M08 A2998 1020 84 -1200 040/16 RMK AO2 TSNO
94908KDBQ DBQ20060216034511602/16/06 03:45:31  5-MIN KDBQ 160945Z AUTO 04017KT 8SM BKN012 OVC029 M06/M08 A2997 1030 84 -1200 040/17 RMK AO2 TSNO
94908KDBQ DBQ20060216035012902/16/06 03:50:31  5-MIN KDBQ 160950Z AUTO 04019G24KT 7SM SCT012 OVC029 M06/M08 A2996 1040 84 -1200 040/19G24 RMK AO2 PRESFR TSNO
94908KDBQ DBQ20060216035514602/16/06 03:55:31  5-MIN KDBQ 160955Z AUTO 04019G24KT 7SM SCT012 OVC029 M06/M08 A2996 1050 84 -1200 040/19G24 RMK AO2 PRESFR SLP158 T10611083 TSNO
94908KDBQ DBQ20060216040012902/16/06 04:00:31  5-MIN KDBQ 161000Z AUTO 05017G25KT 7SM SCT012 OVC029 M06/M08 A2994 1060 84 -1200 050/17G25 RMK AO2 PRESFR TSNO
94908KDBQ DBQ20060216040512202/16/06 04:05:31  5-MIN KDBQ 161005Z AUTO 05018G25KT 7SM SCT012 OVC029 M06/M08 A2995 1050 84 -1200 050/18G25 RMK AO2 TSNO
94908KDBQ DBQ20060216041012202/16/06 04:10:31  5-MIN KDBQ 161010Z AUTO 04018G23KT 7SM SCT012 OVC029 M06/M08 A2994 1060 84 -1200 040/18G23 RMK AO2 TSNO
94908KDBQ DBQ20060216041511602/16/06 04:15:31  5-MIN KDBQ 161015Z AUTO 04018KT 7SM SCT012 OVC029 M06/M08 A2994 1060 84 -1200 040/18 RMK AO2 TSNO
94908KDBQ DBQ20060216042011602/16/06 04:20:31  5-MIN KDBQ 161020Z AUTO 05018KT 8SM BKN012 OVC027 M06/M08 A2995 1050 84 -1200 050/18 RMK AO2 TSNO
94908KDBQ DBQ20060216042511602/16/06 04:25:31  5-MIN KDBQ 161025Z AUTO 05017KT 9SM BKN012 OVC027 M06/M08 A2995 1060 84 -1200 050/17 RMK AO2 TSNO
94908KDBQ DBQ20060216043011602/16/06 04:30:31  5-MIN KDBQ 161030Z AUTO 05015KT 9SM BKN012 OVC027 M06/M08 A2994 1060 84 -1200 050/15 RMK AO2 TSNO
94908KDBQ DBQ20060216043511602/16/06 04:35:31  5-MIN KDBQ 161035Z AUTO 05016KT 9SM BKN012 OVC027 M06/M08 A2994 1060 84 -1200 050/16 RMK AO2 TSNO
94908KDBQ DBQ20060216044011602/16/06 04:40:31  5-MIN KDBQ 161040Z AUTO 05016KT 9SM BKN012 OVC027 M06/M08 A2994 1060 88 -1200 050/16 RMK AO2 TSNO
94908KDBQ DBQ20060216044511602/16/06 04:45:31  5-MIN KDBQ 161045Z AUTO 05017KT 9SM BKN012 OVC027 M06/M08 A2994 1060 84 -1100 050/17 RMK AO2 TSNO
94908KDBQ DBQ20060216045011602/16/06 04:50:31  5-MIN KDBQ 161050Z AUTO 05017KT 8SM SCT012 OVC027 M06/M08 A2994 1060 84 -1100 050/17 RMK AO2 TSNO
94908KDBQ DBQ20060216045513302/16/06 04:55:31  5-MIN KDBQ 161055Z AUTO 04014KT 8SM FEW012 OVC027 M06/M08 A2993 1070 84 -1100 040/14 RMK AO2 SLP151 T10561078 TSNO
94908KDBQ DBQ20060216050011602/16/06 05:00:31  5-MIN KDBQ 161100Z AUTO 05017KT 8SM FEW012 OVC027 M06/M08 A2993 1070 84 -1100 050/17 RMK AO2 TSNO
94908KDBQ DBQ20060216050511602/16/06 05:05:31  5-MIN KDBQ 161105Z AUTO 05016KT 9SM FEW012 OVC027 M06/M08 A2993 1070 84 -1100 040/16 RMK AO2 TSNO
94908KDBQ DBQ20060216051011602/16/06 05:10:31  5-MIN KDBQ 161110Z AUTO 05015KT 9SM FEW012 OVC027 M06/M08 A2993 1070 84 -1100 050/15 RMK AO2 TSNO
94908KDBQ DBQ20060216051511602/16/06 05:15:31  5-MIN KDBQ 161115Z AUTO 04017KT 9SM FEW012 OVC025 M06/M08 A2993 1070 84 -1100 040/17 RMK AO2 TSNO
94908KDBQ DBQ20060216052011702/16/06 05:20:31  5-MIN KDBQ 161120Z AUTO 05015KT 10SM FEW012 OVC025 M06/M08 A2992 1070 84 -1100 040/15 RMK AO2 TSNO
94908KDBQ DBQ20060216052511602/16/06 05:25:31  5-MIN KDBQ 161125Z AUTO 05013KT 9SM SCT012 OVC025 M06/M08 A2993 1070 84 -1100 040/13 RMK AO2 TSNO
94908KDBQ DBQ20060216053011602/16/06 05:30:31  5-MIN KDBQ 161130Z AUTO 04012KT 9SM SCT012 OVC025 M06/M08 A2993 1070 84 -1100 040/12 RMK AO2 TSNO
94908KDBQ DBQ20060216053511602/16/06 05:35:31  5-MIN KDBQ 161135Z AUTO 05013KT 8SM BKN012 OVC025 M06/M08 A2993 1070 84 -1100 050/13 RMK AO2 TSNO
94908KDBQ DBQ20060216054011602/16/06 05:40:31  5-MIN KDBQ 161140Z AUTO 04012KT 8SM BKN012 OVC025 M06/M07 A2993 1070 88 -1100 040/12 RMK AO2 TSNO
94908KDBQ DBQ20060216054511602/16/06 05:45:31  5-MIN KDBQ 161145Z AUTO 04012KT 7SM BKN012 OVC025 M06/M07 A2993 1070 88 -1100 040/12 RMK AO2 TSNO
94908KDBQ DBQ20060216055014602/16/06 05:50:31  5-MIN KDBQ 161150Z 04012KT 7SM OVC012 M06/M07 A2993 1070 88 -1100 040/12 RMK AO2 SLP149 60000 70006 T10561072 11050 21061 58020
94908KDBQ DBQ20060216055514902/16/06 05:55:31  5-MIN KDBQ 161155Z 05015KT 6SM BR OVC012 M06/M07 A2991 1090 88 -1100 050/15 RMK AO2 SLP143 60000 70006 T10561072 11050 21061 58015
94908KDBQ DBQ20060216060011602/16/06 06:00:31  5-MIN KDBQ 161200Z 05015KT 5SM BR BKN012 OVC020 M06/M07 A2989 1100 88 -1100 050/15 RMK AO2 PRESFR
94908KDBQ DBQ20060216060511602/16/06 06:05:31  5-MIN KDBQ 161205Z 05018KT 5SM BR BKN012 OVC020 M06/M07 A2986 1140 88 -1000 050/18 RMK AO2 PRESFR
94908KDBQ DBQ20060216061012202/16/06 06:10:31  5-MIN KDBQ 161210Z 05020G23KT 4SM BR BKN012 OVC020 M06/M07 A2985 1140 88 -1000 050/20G23 RMK AO2 PRESFR
94908KDBQ DBQ20060216061511602/16/06 06:15:31  5-MIN KDBQ 161215Z 05018KT 4SM BR BKN012 OVC020 M06/M07 A2984 1150 88 -1000 050/18 RMK AO2 PRESFR
94908KDBQ DBQ20060216062012802/16/06 06:20:31  5-MIN KDBQ 161220Z 05019KT 3SM BR BKN010 OVC020 M06/M07 A2982 1170 88 -1000 050/19 RMK AO2 CIG 007V014 PRESFR
94908KDBQ DBQ20060216062512102/16/06 06:25:31  5-MIN KDBQ 161225Z 04018KT 3SM BR BKN008 OVC012 M06/M07 A2983 1170 92 -1000 040/18 RMK AO2 CIG 006V011
94908KDBQ DBQ20060216063012102/16/06 06:30:31  5-MIN KDBQ 161230Z 04016KT 3SM BR BKN008 OVC011 M06/M07 A2983 1160 92 -1000 040/16 RMK AO2 CIG 005V009
94908KDBQ DBQ20060216063511402/16/06 06:35:31  5-MIN KDBQ 161235Z 04017KT 3SM BR OVC008 M06/M07 A2985 1150 92 -1000 030/17 RMK AO2 CIG 005V012
94908KDBQ DBQ20060216064014702/16/06 06:40:31  5-MIN KDBQ 161240Z 03016KT 3SM -SN BR OVC006 M06/M07 A2986 1130 92 -1000 030/16 RMK AO2 FZRAB36E39SNB39 CIG 005V010 PRESRR P0000
94908KDBQ DBQ20060216064514402/16/06 06:45:31  5-MIN KDBQ 161245Z 04016KT 2 1/2SM -SN BR OVC006 M06/M07 A2986 1140 92 -1000 040/16 RMK AO2 FZRAB36E39SNB39 CIG 004V010 P0000
94908KDBQ DBQ20060216065015702/16/06 06:50:31  5-MIN KDBQ 161250Z 04016KT 2SM -SN BR OVC006 M06/M07 A2984 1150 92 -1000 040/16 RMK AO2 FZRAB36E39SNB39 CIG 004V009 SLP119 P0001 T10561067
94908KDBQ DBQ20060216065514502/16/06 06:55:31  5-MIN KDBQ 161255Z 04014KT 2SM -SN BR OVC006 M06/M07 A2985 1140 92 -1000 040/14 RMK AO2 FZRAB36E39SNB39 SLP123 P0001 T10561067
94908KDBQ DBQ20060216070012802/16/06 07:00:31  5-MIN KDBQ 161300Z 04015KT 1 1/2SM -SN BR OVC006 M06/M07 A2984 1160 92 -1000 040/15 RMK AO2 CIG 004V009 P0001
94908KDBQ DBQ20060216070511602/16/06 07:05:31  5-MIN KDBQ 161305Z 04016KT 1 1/2SM -SN BR OVC006 M06/M07 A2984 1160 92 -1000 040/16 RMK AO2 P0003
94908KDBQ DBQ20060216071012202/16/06 07:10:31  5-MIN KDBQ 161310Z 03016KT 1 1/2SM -SN BR BKN006 OVC011 M05/M07 A2984 1150 88 -900 030/16 RMK AO2 P0004
94908KDBQ DBQ20060216071512202/16/06 07:15:31  5-MIN KDBQ 161315Z 03015KT 1 1/4SM -SN BR BKN006 OVC011 M05/M07 A2984 1150 88 -900 030/15 RMK AO2 P0005
94908KDBQ DBQ20060216072011802/16/06 07:20:31  5-MIN KDBQ 161320Z 04017KT 1SM -SN BR BKN006 OVC011 M05/M06 A2983 1160 92 -900 040/17 RMK AO2 P0005
94908KDBQ DBQ20060216072512002/16/06 07:25:31  5-MIN KDBQ 161325Z 04018KT 3/4SM -SN BR BKN006 OVC011 M05/M06 A2982 1170 92 -900 040/18 RMK AO2 P0005
94908KDBQ DBQ20060216073012102/16/06 07:30:31  5-MIN KDBQ 161330Z 04016KT 1/2SM SN FZFG BKN004 OVC009 M05/M06 A2983 1170 92 -900 040/16 RMK AO2 P0006
94908KDBQ DBQ20060216073511902/16/06 07:35:31  5-MIN KDBQ 161335Z 03016G23KT 1/2SM SN FZFG VV004 M05/M06 A2983 1160 92 -900 030/16G23 RMK AO2 P0006
94908KDBQ DBQ20060216074011902/16/06 07:40:31  5-MIN KDBQ 161340Z 03016G23KT 1/2SM SN FZFG VV003 M05/M06 A2984 1150 92 -900 030/16G23 RMK AO2 P0008
94908KDBQ DBQ20060216074511802/16/06 07:45:31  5-MIN KDBQ 161345Z 03018KT 1/4SM FZFG VV003 M05/M06 A2983 1160 92 -900 030/18 RMK AO2 SNEMM P0009 $
94908KDBQ DBQ20060216075013502/16/06 07:50:31  5-MIN KDBQ 161350Z 03017KT 1/4SM FZFG VV002 M05/M06 A2983 1160 92 -900 030/17 RMK AO2 SNEMM SLP115 P0009 T10501061 $
94908KDBQ DBQ20060216075513502/16/06 07:55:31  5-MIN KDBQ 161355Z 02017KT 1/4SM FZFG VV001 M05/M06 A2984 1150 92 -900 020/17 RMK AO2 SNEMM SLP121 P0010 T10501061 $
94908KDBQ DBQ20060216080011202/16/06 08:00:31  5-MIN KDBQ 161400Z 02018KT 1/4SM FZFG VV001 M05/M06 A2984 1150 92 -900 020/18 RMK AO2 P0001 $
94908KDBQ DBQ20060216080511202/16/06 08:05:31  5-MIN KDBQ 161405Z 02016KT 1/4SM FZFG VV001 M05/M06 A2984 1150 92 -900 020/16 RMK AO2 P0002 $
94908KDBQ DBQ20060216081011202/16/06 08:10:31  5-MIN KDBQ 161410Z 04015KT 1/4SM FZFG VV001 M05/M06 A2982 1170 92 -900 040/15 RMK AO2 P0002 $
94908KDBQ DBQ20060216081511202/16/06 08:15:31  5-MIN KDBQ 161415Z 03017KT 1/4SM FZFG VV001 M05/M06 A2982 1170 92 -900 030/17 RMK AO2 P0002 $
94908KDBQ DBQ20060216082011202/16/06 08:20:31  5-MIN KDBQ 161420Z 03018KT 1/4SM FZFG VV001 M04/M06 A2982 1170 88 -900 030/18 RMK AO2 P0003 $
94908KDBQ DBQ20060216082511202/16/06 08:25:31  5-MIN KDBQ 161425Z 03019KT 1/2SM FZFG VV001 M04/M06 A2983 1170 88 -900 030/19 RMK AO2 P0004 $
94908KDBQ DBQ20060216083011902/16/06 08:30:31  5-MIN KDBQ 161430Z 02015KT 1/2SM FZFG VV001 M04/M06 A2984 1150 92 -900 020/15 RMK AO2 PRESRR P0004 $
94908KDBQ DBQ20060216083511202/16/06 08:35:31  5-MIN KDBQ 161435Z 03016KT 1/2SM FZFG VV001 M04/M06 A2983 1160 92 -900 030/16 RMK AO2 P0005 $
94908KDBQ DBQ20060216084011202/16/06 08:40:31  5-MIN KDBQ 161440Z 04016KT 1/2SM FZFG VV001 M04/M06 A2983 1160 92 -900 040/16 RMK AO2 P0006 $
94908KDBQ DBQ20060216084511802/16/06 08:45:31  5-MIN KDBQ 161445Z 04014G21KT 1/4SM FZFG VV001 M04/M06 A2983 1160 92 -900 040/14G21 RMK AO2 P0006 $
94908KDBQ DBQ20060216085014702/16/06 08:50:31  5-MIN KDBQ 161450Z 04014G21KT 1/4SM FZFG VV001 M04/M06 A2983 1160 92 -900 030/14G21 RMK AO2 SLP116 P0007 60018 T10441056 58015 $
94908KDBQ DBQ20060216085514102/16/06 08:55:31  5-MIN KDBQ 161455Z 03017KT 1/4SM FZFG VV001 M04/M06 A2982 1170 92 -800 030/17 RMK AO2 SLP114 P0008 60019 T10441056 58005 $
94908KDBQ DBQ20060216090011202/16/06 09:00:31  5-MIN KDBQ 161500Z 03015KT 1/4SM FZFG VV001 M04/M06 A2983 1160 92 -900 030/15 RMK AO2 P0001 $
94908KDBQ DBQ20060216090511202/16/06 09:05:31  5-MIN KDBQ 161505Z 04017KT 1/4SM FZFG VV001 M04/M06 A2983 1170 92 -900 040/17 RMK AO2 P0002 $
94908KDBQ DBQ20060216091011202/16/06 09:10:31  5-MIN KDBQ 161510Z 04016KT 1/4SM FZFG VV002 M04/M06 A2982 1170 92 -800 030/16 RMK AO2 P0002 $
94908KDBQ DBQ20060216091512702/16/06 09:15:31  5-MIN KDBQ 161515Z 03014KT 1/4SM FZFG BKN002 BKN013 OVC030 M04/M06 A2982 1170 92 -800 030/14 RMK AO2 P0002 $
94908KDBQ DBQ20060216092012002/16/06 09:20:31  5-MIN KDBQ 161520Z 03016KT 1/2SM FZFG BKN002 OVC030 M04/M06 A2982 1170 92 -800 030/16 RMK AO2 P0002 $
94908KDBQ DBQ20060216092511002/16/06 09:25:31  5-MIN KDBQ 161525Z 03016KT 3/4SM BR VV004 M04/M06 A2981 1180 92 -800 020/16 RMK AO2 P0002 $
94908KDBQ DBQ20060216093011802/16/06 09:30:31  5-MIN KDBQ 161530Z 03018KT 3/4SM BR BKN004 OVC029 M04/M06 A2981 1180 92 -800 030/18 RMK AO2 P0003 $
94908KDBQ DBQ20060216093511802/16/06 09:35:31  5-MIN KDBQ 161535Z 03016KT 3/4SM BR BKN004 OVC027 M04/M06 A2981 1180 88 -800 030/16 RMK AO2 P0004 $
94908KDBQ DBQ20060216094011802/16/06 09:40:31  5-MIN KDBQ 161540Z 03018KT 3/4SM BR SCT006 OVC025 M04/M06 A2980 1190 88 -800 030/18 RMK AO2 P0004 $
94908KDBQ DBQ20060216094512902/16/06 09:45:31  5-MIN KDBQ 161545Z 03018G24KT 1SM BR SCT006 OVC025 M04/M06 A2979 1200 88 -800 030/18G24 RMK AO2 PRESFR P0004 $
94908KDBQ DBQ20060216095014302/16/06 09:50:31  5-MIN KDBQ 161550Z 03018G24KT 1 1/4SM BR SCT006 OVC025 M04/M06 A2980 1190 92 -800 030/18G24 RMK AO2 SLP105 P0004 T10441056 $
94908KDBQ DBQ20060216095513302/16/06 09:55:31  5-MIN KDBQ 161555Z 03020KT 1SM BR FEW006 OVC025 M04/M06 A2979 1200 88 -800 030/20 RMK AO2 SLP102 P0004 T10441061 $
94908KDBQ DBQ20060216100011002/16/06 10:00:31  5-MIN KDBQ 161600Z 03017KT 1SM BR FEW006 OVC025 M04/M06 A2978 1210 88 -800 030/17 RMK AO2 $
94908KDBQ DBQ20060216100511402/16/06 10:05:31  5-MIN KDBQ 161605Z 02019KT 1 1/4SM BR SCT004 OVC023 M04/M06 A2978 1210 88 -800 020/19 RMK AO2 $
94908KDBQ DBQ20060216101012102/16/06 10:10:31  5-MIN KDBQ 161610Z 03020KT 1 1/2SM BR SCT006 SCT009 OVC025 M05/M06 A2977 1210 92 -900 020/20 RMK AO2 $
94908KDBQ DBQ20060216101514502/16/06 10:15:31  5-MIN KDBQ 161615Z 02021G26KT 1 3/4SM BR SCT006 BKN012 OVC023 M05/M06 A2977 1220 92 -900 020/21G26 RMK AO2 PK WND 02026/1611 $
94908KDBQ DBQ20060216102014102/16/06 10:20:31  5-MIN KDBQ 161620Z 03020G27KT 2SM BR FEW006 BKN012 OVC023 M05/M07 A2976 1220 88 -900 030/20G27 RMK AO2 PK WND 02027/1617 $
94908KDBQ DBQ20060216102514102/16/06 10:25:31  5-MIN KDBQ 161625Z 03019G27KT 2SM BR FEW004 BKN012 OVC021 M05/M07 A2977 1220 88 -900 030/19G27 RMK AO2 PK WND 02027/1617 $
94908KDBQ DBQ20060216103013502/16/06 10:30:31  5-MIN KDBQ 161630Z 03020KT 2SM BR FEW004 BKN008 OVC021 M05/M07 A2977 1220 88 -900 030/20 RMK AO2 PK WND 02027/1617 $
94908KDBQ DBQ20060216103515302/16/06 10:35:31  5-MIN KDBQ 161635Z 03022G27KT 2SM BR BKN008 BKN012 OVC021 M05/M07 A2976 1230 88 -800 020/22G27 RMK AO2 PK WND 03027/1633 CIG 006V011 $
94908KDBQ DBQ20060216104014102/16/06 10:40:31  5-MIN KDBQ 161640Z 03020G27KT 2SM BR SCT008 BKN012 OVC021 M05/M07 A2976 1220 88 -900 030/20G27 RMK AO2 PK WND 03027/1633 $
94908KDBQ DBQ20060216104513902/16/06 10:45:31  5-MIN KDBQ 161645Z 03021KT 1 3/4SM BR SCT008 BKN012 OVC021 M05/M07 A2976 1230 88 -900 020/21 RMK AO2 PK WND 03027/1633 $
94908KDBQ DBQ20060216105013902/16/06 10:50:31  5-MIN KDBQ 161650Z 03021KT 1 3/4SM BR FEW007 BKN010 OVC019 M05/M07 A2976 1230 88 -800 030/21 RMK AO2 PK WND 03027/1633 $
94908KDBQ DBQ20060216105515702/16/06 10:55:31  5-MIN KDBQ 161655Z 03020KT 2SM BR BKN010 OVC019 M05/M07 A2975 1230 88 -800 020/20 RMK AO2 PK WND 03027/1633 CIG 006V014 SLP091 T10501067 $
94908KDBQ DBQ20060216110012602/16/06 11:00:31  5-MIN KDBQ 161700Z 03020KT 2 1/2SM BR BKN010 OVC019 M05/M07 A2976 1230 88 -800 020/20 RMK AO2 CIG 006V012 $
94908KDBQ DBQ20060216110511002/16/06 11:05:31  5-MIN KDBQ 161705Z 02021KT 4SM BR SCT010 OVC017 M05/M07 A2976 1230 84 -800 020/21 RMK AO2 $
94908KDBQ DBQ20060216111012202/16/06 11:10:31  5-MIN KDBQ 161710Z 02020KT 5SM BR BKN010 OVC017 M05/M07 A2975 1230 84 -800 020/20 RMK AO2 CIG 007V014 $
94908KDBQ DBQ20060216111512202/16/06 11:15:31  5-MIN KDBQ 161715Z 02019KT 5SM BR BKN010 OVC017 M06/M07 A2976 1230 88 -900 020/19 RMK AO2 CIG 007V014 $
94908KDBQ DBQ20060216112011002/16/06 11:20:31  5-MIN KDBQ 161720Z 02019KT 5SM BR BKN010 OVC015 M06/M07 A2977 1220 88 -900 020/19 RMK AO2 $
94908KDBQ DBQ20060216112510902/16/06 11:25:31  5-MIN KDBQ 161725Z 02019G25KT 5SM BR OVC012 M06/M07 A2976 1230 88 -900 020/19G25 RMK AO2 $
94908KDBQ DBQ20060216113012702/16/06 11:30:31  5-MIN KDBQ 161730Z 02019G26KT 5SM BR OVC012 M06/M07 A2976 1230 88 -900 020/19G26 RMK AO2 PK WND 03026/1730 $
94908KDBQ DBQ20060216113512102/16/06 11:35:31  5-MIN KDBQ 161735Z 02022KT 4SM BR OVC012 M06/M08 A2975 1230 84 -900 020/22 RMK AO2 PK WND 02026/1733 $
94908KDBQ DBQ20060216114012702/16/06 11:40:31  5-MIN KDBQ 161740Z 02020G26KT 3SM BR OVC012 M06/M08 A2976 1230 84 -900 020/20G26 RMK AO2 PK WND 02026/1733 $
94908KDBQ DBQ20060216114512702/16/06 11:45:31  5-MIN KDBQ 161745Z 02021G28KT 4SM BR OVC014 M06/M08 A2975 1230 84 -900 020/21G28 RMK AO2 PK WND 03028/1743 $
94908KDBQ DBQ20060216115016802/16/06 11:50:31  5-MIN KDBQ 161750Z 02022G28KT 3SM BR OVC014 M06/M08 A2975 1230 84 -900 020/22G28 RMK AO2 PK WND 03028/1743 SLP092 60023 T10561078 11044 21056 58005 $
94908KDBQ DBQ20060216115516202/16/06 11:55:31  5-MIN KDBQ 161755Z 02021KT 3SM BR OVC014 M06/M08 A2975 1230 84 -900 020/21 RMK AO2 PK WND 03028/1743 SLP091 60023 T10561078 11044 21056 55023 $
94908KDBQ DBQ20060216120012102/16/06 12:00:31  5-MIN KDBQ 161800Z 02021KT 4SM BR OVC014 M06/M08 A2975 1230 84 -900 020/21 RMK AO2 PK WND 01027/1758 $
94908KDBQ DBQ20060216120512102/16/06 12:05:31  5-MIN KDBQ 161805Z 02022KT 4SM BR OVC014 M06/M08 A2975 1240 84 -900 020/22 RMK AO2 PK WND 03027/1805 $
94908KDBQ DBQ20060216121012702/16/06 12:10:31  5-MIN KDBQ 161810Z 03021G27KT 4SM BR OVC016 M06/M08 A2975 1240 84 -900 030/21G27 RMK AO2 PK WND 02027/1808 $
94908KDBQ DBQ20060216121512702/16/06 12:15:31  5-MIN KDBQ 161815Z 03021G27KT 3SM BR OVC016 M06/M08 A2975 1230 84 -900 020/21G27 RMK AO2 PK WND 02027/1808 $
94908KDBQ DBQ20060216122012102/16/06 12:20:31  5-MIN KDBQ 161820Z 02021KT 4SM BR OVC014 M06/M08 A2975 1240 84 -900 020/21 RMK AO2 PK WND 02027/1808 $
94908KDBQ DBQ20060216122512102/16/06 12:25:31  5-MIN KDBQ 161825Z 03023KT 4SM BR OVC014 M06/M08 A2974 1240 84 -900 030/23 RMK AO2 PK WND 02027/1808 $
94908KDBQ DBQ20060216123012702/16/06 12:30:31  5-MIN KDBQ 161830Z 03022G28KT 3SM BR OVC014 M06/M08 A2974 1240 84 -900 030/22G28 RMK AO2 PK WND 02028/1826 $
94908KDBQ DBQ20060216123512102/16/06 12:35:31  5-MIN KDBQ 161835Z 03022KT 3SM BR OVC014 M06/M08 A2974 1250 84 -900 030/22 RMK AO2 PK WND 02028/1826 $
94908KDBQ DBQ20060216124012702/16/06 12:40:31  5-MIN KDBQ 161840Z 02019G26KT 3SM BR OVC016 M06/M08 A2975 1230 84 -900 020/19G26 RMK AO2 PK WND 02028/1826 $
94908KDBQ DBQ20060216124513102/16/06 12:45:31  5-MIN KDBQ 161845Z 03022G28KT 2 1/2SM BR OVC016 M06/M08 A2975 1240 84 -900 030/22G28 RMK AO2 PK WND 03028/1844 $
94908KDBQ DBQ20060216125013102/16/06 12:50:31  5-MIN KDBQ 161850Z 03022G28KT 2 1/2SM BR OVC016 M06/M08 A2975 1240 84 -900 030/22G28 RMK AO2 PK WND 03028/1844 $
94908KDBQ DBQ20060216125513802/16/06 12:55:31  5-MIN KDBQ 161855Z 02021KT 2SM BR OVC016 M06/M08 A2974 1240 84 -900 020/21 RMK AO2 PK WND 03028/1844 SLP089 T10561078 $
94908KDBQ DBQ20060216130010702/16/06 13:00:31  5-MIN KDBQ 161900Z 03020KT 2 1/2SM BR OVC016 M06/M08 A2975 1240 84 -900 030/20 RMK AO2 $
94908KDBQ DBQ20060216130511302/16/06 13:05:31  5-MIN KDBQ 161905Z 02019G25KT 2 1/2SM BR OVC018 M06/M08 A2975 1240 84 -900 020/19G25 RMK AO2 $
94908KDBQ DBQ20060216131010302/16/06 13:10:31  5-MIN KDBQ 161910Z 02018KT 3SM BR OVC018 M06/M08 A2975 1240 84 -900 020/18 RMK AO2 $
94908KDBQ DBQ20060216131510302/16/06 13:15:31  5-MIN KDBQ 161915Z 02020KT 3SM BR OVC016 M06/M08 A2974 1250 84 -900 020/20 RMK AO2 $
94908KDBQ DBQ20060216132013402/16/06 13:20:31  5-MIN KDBQ 161920Z 02021G26KT 3SM BR BKN014 OVC019 M06/M08 A2975 1240 84 -900 020/21G26 RMK AO2 PK WND 02026/1919 $
94908KDBQ DBQ20060216132513402/16/06 13:25:31  5-MIN KDBQ 161925Z 02022G26KT 3SM BR BKN015 OVC020 M06/M08 A2975 1230 84 -900 020/22G26 RMK AO2 PK WND 02026/1924 $
94908KDBQ DBQ20060216133012702/16/06 13:30:31  5-MIN KDBQ 161930Z 02021G27KT 3SM BR OVC017 M06/M08 A2975 1240 84 -900 020/21G27 RMK AO2 PK WND 02027/1928 $
94908KDBQ DBQ20060216133512702/16/06 13:35:31  5-MIN KDBQ 161935Z 01022G27KT 3SM BR OVC015 M06/M08 A2976 1230 84 -900 010/22G27 RMK AO2 PK WND 02027/1928 $
94908KDBQ DBQ20060216134013102/16/06 13:40:31  5-MIN KDBQ 161940Z 02021G28KT 2 1/2SM BR OVC015 M06/M08 A2975 1240 84 -900 020/21G28 RMK AO2 PK WND 02028/1939 $
94908KDBQ DBQ20060216134513102/16/06 13:45:31  5-MIN KDBQ 161945Z 02018G28KT 2 1/2SM BR OVC015 M06/M07 A2976 1230 88 -900 020/18G28 RMK AO2 PK WND 02028/1939 $
94908KDBQ DBQ20060216135013102/16/06 13:50:31  5-MIN KDBQ 161950Z 01021G26KT 2 1/2SM BR OVC015 M06/M07 A2977 1220 88 -900 010/21G26 RMK AO2 PK WND 02028/1939 $
94908KDBQ DBQ20060216135514402/16/06 13:55:31  5-MIN KDBQ 161955Z 02023G30KT 2SM BR OVC015 M06/M07 A2975 1230 88 -900 020/23G30 RMK AO2 PK WND 02030/1954 SLP093 T10561072 $
94908KDBQ DBQ20060216140011302/16/06 14:00:31  5-MIN KDBQ 162000Z 02018G30KT 1 3/4SM BR OVC015 M06/M07 A2975 1230 88 -900 020/18G30 RMK AO2 $
94908KDBQ DBQ20060216140511302/16/06 14:05:31  5-MIN KDBQ 162005Z 02021G25KT 1 3/4SM BR OVC015 M06/M07 A2976 1230 88 -900 020/21G25 RMK AO2 $
94908KDBQ DBQ20060216141011302/16/06 14:10:31  5-MIN KDBQ 162010Z 02017G25KT 1 1/2SM BR OVC015 M05/M07 A2977 1220 84 -900 020/17G25 RMK AO2 $
94908KDBQ DBQ20060216141511302/16/06 14:15:31  5-MIN KDBQ 162015Z 02021G25KT 1 1/2SM BR OVC015 M05/M07 A2976 1220 84 -900 020/21G25 RMK AO2 $
94908KDBQ DBQ20060216142012502/16/06 14:20:31  5-MIN KDBQ 162020Z 02019KT 1 1/4SM BR OVC016 M05/M07 A2976 1230 84 -800 020/19 RMK AO2 PK WND 02027/2017 $
94908KDBQ DBQ20060216142513802/16/06 14:25:31  5-MIN KDBQ 162025Z 02020G26KT 1 1/4SM BR BKN014 OVC018 M05/M07 A2977 1220 88 -900 010/20G26 RMK AO2 PK WND 02027/2017 $
94908KDBQ DBQ20060216143013802/16/06 14:30:31  5-MIN KDBQ 162030Z 01017G26KT 1 1/4SM BR BKN013 OVC023 M05/M07 A2978 1200 88 -900 010/17G26 RMK AO2 PK WND 02027/2017 $
94908KDBQ DBQ20060216143513802/16/06 14:35:31  5-MIN KDBQ 162035Z 01017G22KT 1 1/4SM BR BKN013 OVC019 M06/M07 A2978 1210 92 -900 010/17G22 RMK AO2 PK WND 02027/2017 $
94908KDBQ DBQ20060216144013902/16/06 14:40:31  5-MIN KDBQ 162040Z 01015KT 1 1/4SM BR SCT009 BKN015 OVC023 M06/M07 A2977 1220 92 -900 010/15 RMK AO2 PK WND 02027/2017 $
94908KDBQ DBQ20060216144513902/16/06 14:45:31  5-MIN KDBQ 162045Z 01017KT 1 1/4SM BR BKN011 BKN017 OVC023 M06/M07 A2977 1220 88 -900 010/17 RMK AO2 PK WND 02027/2017 $
94908KDBQ DBQ20060216145016802/16/06 14:50:31  5-MIN KDBQ 162050Z 01019G26KT 1 1/4SM BR FEW007 BKN011 OVC019 M06/M07 A2977 1220 88 -900 010/19G26 RMK AO2 PK WND 02027/2017 SLP098 T10561072 53007 $
94908KDBQ DBQ20060216145516802/16/06 14:55:31  5-MIN KDBQ 162055Z 01017G26KT 1 1/4SM BR FEW007 BKN013 OVC017 M06/M07 A2978 1210 88 -900 010/17G26 RMK AO2 PK WND 02027/2017 SLP100 T10561072 51010 $
94908KDBQ DBQ20060216150011602/16/06 15:00:31  5-MIN KDBQ 162100Z 01020G24KT 1SM BR BKN011 OVC019 M06/M07 A2978 1210 88 -900 010/20G24 RMK AO2 $
94908KDBQ DBQ20060216150510802/16/06 15:05:31  5-MIN KDBQ 162105Z 01019G24KT 1SM BR VV010 M06/M07 A2978 1210 88 -900 010/19G24 RMK AO2 $
94908KDBQ DBQ20060216151010202/16/06 15:10:31  5-MIN KDBQ 162110Z 01017KT 1SM BR VV009 M06/M07 A2977 1220 88 -900 010/17 RMK AO2 $
94908KDBQ DBQ20060216151510802/16/06 15:15:31  5-MIN KDBQ 162115Z 01019G25KT 1SM BR VV009 M06/M08 A2978 1210 84 -900 010/19G25 RMK AO2 $
94908KDBQ DBQ20060216152012102/16/06 15:20:31  5-MIN KDBQ 162120Z 01018G25KT 1SM -SN VV008 M06/M08 A2979 1200 84 -900 010/18G25 RMK AO2 SNB20 P0000 $
94908KDBQ DBQ20060216152511802/16/06 15:25:31  5-MIN KDBQ 162125Z 01018KT 3/4SM -SN VV008 M06/M08 A2979 1200 84 -1000 010/18 RMK AO2 SNB20 P0000 $
94908KDBQ DBQ20060216153011702/16/06 15:30:31  5-MIN KDBQ 162130Z 01018KT 3/4SM -SN VV008 M06/M08 A2978 1210 84 -900 010/18 RMK AO2 SNB20 P0000 $
94908KDBQ DBQ20060216153512602/16/06 15:35:31  5-MIN KDBQ 162135Z 01020KT 3/4SM -SN BKN009 OVC015 M06/M08 A2979 1200 84 -1000 010/20 RMK AO2 SNB20 P0000 $
94908KDBQ DBQ20060216154013002/16/06 15:40:31  5-MIN KDBQ 162140Z 01018G25KT 1SM -SN BKN009 OVC018 M06/M08 A2979 1200 84 -1000 010/18G25 RMK AO2 SNB20 P0000 $
94908KDBQ DBQ20060216154515502/16/06 15:45:31  5-MIN KDBQ 162145Z 02021G28KT 1SM -SN BKN009 BKN016 OVC021 M06/M08 A2981 1180 84 -1000 010/21G28 RMK AO2 PK WND 02028/2145 SNB20 P0000 $
94908KDBQ DBQ20060216155018302/16/06 15:50:31  5-MIN KDBQ 162150Z 01017G28KT 1 1/4SM -SN BKN009 BKN018 OVC041 M06/M08 A2982 1180 84 -1000 010/17G28 RMK AO2 PK WND 02028/2145 SNB20 PRESRR SLP113 P0000 T10561078 $
94908KDBQ DBQ20060216155517002/16/06 15:55:31  5-MIN KDBQ 162155Z 01017KT 1 1/4SM -SN SCT009 BKN018 OVC060 M06/M08 A2982 1170 84 -1000 360/17 RMK AO2 PK WND 02028/2145 SNB20 SLP114 P0000 T10561078 $
94908KDBQ DBQ20060216160015302/16/06 16:00:31  5-MIN KDBQ 162200Z 02021G28KT 1 1/4SM -SN SCT011 BKN018 OVC039 M06/M08 A2981 1180 84 -1000 010/21G28 RMK AO2 PK WND 03028/2200 P0000 $
94908KDBQ DBQ20060216160515302/16/06 16:05:31  5-MIN KDBQ 162205Z 02021G28KT 1 3/4SM -SN FEW011 SCT018 OVC039 M06/M08 A2982 1170 84 -1000 020/21G28 RMK AO2 PK WND 03028/2200 P0000 $
94908KDBQ DBQ20060216161014902/16/06 16:10:31  5-MIN KDBQ 162210Z 01020G26KT 3SM -SN FEW011 SCT018 OVC041 M06/M08 A2982 1170 81 -1000 010/20G26 RMK AO2 PK WND 03028/2200 P0000 $
94908KDBQ DBQ20060216161514702/16/06 16:15:31  5-MIN KDBQ 162215Z 01019G27KT 5SM HZ SCT018 OVC041 M06/M08 A2982 1170 81 -1000 010/19G27 RMK AO2 PK WND 03028/2200 SNE12 P0000 $
94908KDBQ DBQ20060216162014702/16/06 16:20:31  5-MIN KDBQ 162220Z 01017G27KT 6SM HZ SCT018 OVC041 M06/M08 A2982 1170 81 -1000 010/17G27 RMK AO2 PK WND 03028/2200 SNE12 P0000 $
94908KDBQ DBQ20060216162514702/16/06 16:25:31  5-MIN KDBQ 162225Z 01021G30KT 6SM HZ SCT018 OVC043 M06/M08 A2982 1170 81 -1000 010/21G30 RMK AO2 PK WND 02030/2223 SNE12 P0000 $
94908KDBQ DBQ20060216163014702/16/06 16:30:31  5-MIN KDBQ 162230Z 01019G30KT 6SM HZ SCT018 OVC043 M06/M08 A2983 1160 81 -1000 010/19G30 RMK AO2 PK WND 02030/2223 SNE12 P0000 $
94908KDBQ DBQ20060216163515402/16/06 16:35:31  5-MIN KDBQ 162235Z 01022G29KT 6SM HZ SCT018 BKN024 OVC043 M06/M08 A2983 1160 81 -1000 010/22G29 RMK AO2 PK WND 02030/2223 SNE12 P0000 $
94908KDBQ DBQ20060216164015402/16/06 16:40:31  5-MIN KDBQ 162240Z 02019G26KT 6SM HZ SCT018 BKN024 OVC043 M06/M09 A2983 1160 77 -1000 010/19G26 RMK AO2 PK WND 02030/2223 SNE12 P0000 $
94908KDBQ DBQ20060216164514702/16/06 16:45:31  5-MIN KDBQ 162245Z 01021G28KT 6SM HZ BKN020 OVC041 M06/M09 A2984 1160 77 -1000 010/21G28 RMK AO2 PK WND 02030/2223 SNE12 P0000 $
94908KDBQ DBQ20060216165014702/16/06 16:50:31  5-MIN KDBQ 162250Z 01023G28KT 5SM HZ SCT020 OVC041 M06/M09 A2984 1150 77 -1000 010/23G28 RMK AO2 PK WND 02030/2223 SNE12 P0000 $
94908KDBQ DBQ20060216165515802/16/06 16:55:31  5-MIN KDBQ 162255Z 02021KT 5SM HZ SCT020 OVC041 M06/M09 A2985 1150 77 -1000 010/21 RMK AO2 PK WND 02030/2223 SNE12 SLP124 P0000 T10561089 $
94908KDBQ DBQ20060216170013202/16/06 17:00:31  5-MIN KDBQ 162300Z 02020G26KT 7SM BKN022 OVC041 M06/M09 A2985 1150 77 -1000 010/20G26 RMK AO2 PK WND 03026/2256 $
94908KDBQ DBQ20060216170513202/16/06 17:05:31  5-MIN KDBQ 162305Z 02021G27KT 8SM BKN022 OVC041 M06/M09 A2986 1140 77 -1000 020/21G27 RMK AO2 PK WND 02027/2305 $
94908KDBQ DBQ20060216171013202/16/06 17:10:31  5-MIN KDBQ 162310Z 02021G27KT 7SM BKN022 OVC039 M06/M09 A2986 1130 77 -1000 020/21G27 RMK AO2 PK WND 02027/2305 $
94908KDBQ DBQ20060216171513902/16/06 17:15:31  5-MIN KDBQ 162315Z 02020G25KT 7SM BKN020 OVC039 M06/M09 A2987 1130 77 -1000 020/20G25 RMK AO2 PK WND 02027/2305 PRESRR $
94908KDBQ DBQ20060216172013902/16/06 17:20:31  5-MIN KDBQ 162320Z 01018G25KT 8SM BKN022 OVC039 M06/M09 A2988 1120 77 -1100 010/18G25 RMK AO2 PK WND 02027/2305 PRESRR $
94908KDBQ DBQ20060216172513202/16/06 17:25:31  5-MIN KDBQ 162325Z 02022G30KT 7SM BKN022 OVC027 M06/M09 A2988 1120 77 -1100 020/22G30 RMK AO2 PK WND 03030/2323 $
94908KDBQ DBQ20060216173012502/16/06 17:30:31  5-MIN KDBQ 162330Z 01019G30KT 7SM OVC022 M06/M09 A2988 1110 77 -1100 010/19G30 RMK AO2 PK WND 03030/2323 $
94908KDBQ DBQ20060216173512602/16/06 17:35:31  5-MIN KDBQ 162335Z 01016G23KT 10SM OVC022 M06/M09 A2988 1110 77 -1100 010/16G23 RMK AO2 PK WND 03030/2323 $
94908KDBQ DBQ20060216174012002/16/06 17:40:31  5-MIN KDBQ 162340Z 01018KT 10SM OVC022 M06/M09 A2989 1110 77 -1100 010/18 RMK AO2 PK WND 03030/2323 $
94908KDBQ DBQ20060216174514802/16/06 17:45:31  5-MIN KDBQ 162345Z 01016G23KT 10SM OVC022 M06/M09 A2990 1100 77 -1100 010/16G23 RMK AO2 PK WND 03030/2323 UPB41E44 PRESRR P0000 $
94908KDBQ DBQ20060216175018202/16/06 17:50:31  5-MIN KDBQ 162350Z 36015G23KT 10SM OVC020 M06/M09 A2990 1100 77 -1100 360/15G23 RMK AO2 PK WND 03030/2323 UPB41E44 SLP142 P0000 60000 T10561089 11050 21056 51010 $
94908KDBQ DBQ20060216175517602/16/06 17:55:31  5-MIN KDBQ 162355Z 36014KT 10SM OVC020 M06/M09 A2991 1090 81 -1200 360/14 RMK AO2 PK WND 03030/2323 UPB41E44 SLP145 P0000 60000 T10611089 11050 21061 53044 $
94908KDBQ DBQ20060216180011402/16/06 18:00:31  5-MIN KDBQ 170000Z 36018G23KT 9SM OVC020 M06/M09 A2992 1080 81 -1200 360/18G23 RMK AO2 PRESRR $
94908KDBQ DBQ20060216180511402/16/06 18:05:31  5-MIN KDBQ 170005Z 36015G23KT 8SM OVC018 M06/M09 A2992 1080 81 -1200 360/15G23 RMK AO2 PRESRR $
94908KDBQ DBQ20060216181012302/16/06 18:10:31  5-MIN KDBQ 170010Z 36017G23KT 7SM -SN OVC018 M06/M09 A2992 1070 81 -1200 360/17G23 RMK AO2 SNB09 P0000 $
94908KDBQ DBQ20060216181513002/16/06 18:15:31  5-MIN KDBQ 170015Z 36015G23KT 6SM -SN OVC020 M06/M09 A2993 1070 81 -1200 360/15G23 RMK AO2 SNB09 PRESRR P0000 $
94908KDBQ DBQ20060216182012402/16/06 18:20:31  5-MIN KDBQ 170020Z 01016KT 5SM -SN BKN020 OVC024 M06/M09 A2994 1060 81 -1200 360/16 RMK AO2 SNB09 P0000 $
94908KDBQ DBQ20060216182513702/16/06 18:25:31  5-MIN KDBQ 170025Z 36017G22KT 4SM -SN BKN020 OVC027 M06/M09 A2995 1050 81 -1200 360/17G22 RMK AO2 SNB09 PRESRR P0000 $
94908KDBQ DBQ20060216183013002/16/06 18:30:31  5-MIN KDBQ 170030Z 36015G22KT 4SM -SN BKN022 OVC027 M06/M09 A2995 1060 81 -1200 360/15G22 RMK AO2 SNB09 P0000 $
94908KDBQ DBQ20060216183512402/16/06 18:35:31  5-MIN KDBQ 170035Z 36014KT 4SM -SN SCT018 OVC025 M06/M09 A2995 1050 81 -1200 360/14 RMK AO2 SNB09 P0000 $
94908KDBQ DBQ20060216184013702/16/06 18:40:31  5-MIN KDBQ 170040Z 36018G22KT 3SM -SN SCT018 BKN025 OVC030 M06/M09 A2995 1050 81 -1200 350/18G22 RMK AO2 SNB09 P0000 $
94908KDBQ DBQ20060216184513702/16/06 18:45:31  5-MIN KDBQ 170045Z 35019G22KT 3SM -SN FEW018 BKN025 OVC032 M06/M09 A2997 1040 81 -1200 350/19G22 RMK AO2 SNB09 P0000 $
94908KDBQ DBQ20060216185014802/16/06 18:50:31  5-MIN KDBQ 170050Z 35016KT 3SM -SN FEW018 BKN027 OVC034 M06/M09 A2997 1030 81 -1200 350/16 RMK AO2 SNB09 SLP166 P0000 T10611089 $
94908KDBQ DBQ20060216185515502/16/06 18:55:31  5-MIN KDBQ 170055Z 35015KT 4SM -SN FEW018 BKN029 OVC034 M06/M09 A2998 1020 81 -1200 350/15 RMK AO2 SNB09 PRESRR SLP169 P0000 T10611089 $
94908KDBQ DBQ20060216190012502/16/06 19:00:31  5-MIN KDBQ 170100Z 34017KT 4SM -SN SCT016 BKN029 OVC034 M06/M09 A2997 1030 81 -1200 340/17 RMK AO2 P0000 $
94908KDBQ DBQ20060216190513402/16/06 19:05:31  5-MIN KDBQ 170105Z 35018G25KT 3SM -SN BR SCT016 BKN023 OVC034 M07/M09 A2998 1030 84 -1300 340/18G25 RMK AO2 P0000 $
94908KDBQ DBQ20060216191013402/16/06 19:10:31  5-MIN KDBQ 170110Z 35018G25KT 3SM -SN BR SCT018 BKN034 OVC065 M07/M09 A2998 1020 84 -1300 340/18G25 RMK AO2 P0000 $
94908KDBQ DBQ20060216191513402/16/06 19:15:31  5-MIN KDBQ 170115Z 35016G24KT 3SM -SN BR FEW015 BKN037 OVC070 M07/M09 A2999 1010 84 -1300 350/16G24 RMK AO2 P0000 $
94908KDBQ DBQ20060216192012802/16/06 19:20:31  5-MIN KDBQ 170120Z 35017KT 3SM -SN BR SCT018 SCT036 OVC065 M07/M09 A2999 1010 84 -1300 350/17 RMK AO2 P0000 $
94908KDBQ DBQ20060216192513102/16/06 19:25:31  5-MIN KDBQ 170125Z 35020G25KT 3SM -SN FEW015 BKN055 OVC070 M07/M09 A2999 1010 81 -1300 350/20G25 RMK AO2 P0000 $
94908KDBQ DBQ20060216193013102/16/06 19:30:31  5-MIN KDBQ 170130Z 35020G25KT 3SM -SN FEW017 SCT037 OVC060 M07/M09 A3000 1000 81 -1300 350/20G25 RMK AO2 P0000 $
94908KDBQ DBQ20060216193511802/16/06 19:35:31  5-MIN KDBQ 170135Z 35019KT 3SM -SN FEW038 OVC060 M07/M09 A3000 1000 81 -1300 350/19 RMK AO2 P0000 $
94908KDBQ DBQ20060216194013602/16/06 19:40:31  5-MIN KDBQ 170140Z 35021KT 3SM -SN FEW041 OVC065 M07/M09 A3000 1010 81 -1300 350/21 RMK AO2 PK WND 34026/0139 P0000 $
94908KDBQ DBQ20060216194514302/16/06 19:45:31  5-MIN KDBQ 170145Z 35019KT 3SM -SN FEW041 BKN060 OVC070 M07/M09 A2999 1010 81 -1300 350/19 RMK AO2 PK WND 34026/0139 P0000 $
94908KDBQ DBQ20060216195016202/16/06 19:50:31  5-MIN KDBQ 170150Z 35020G25KT 3SM -SN BR FEW044 OVC065 M07/M09 A2999 1010 84 -1400 350/20G25 RMK AO2 PK WND 34026/0139 SLP175 P0000 T10721094 $
94908KDBQ DBQ20060216195515302/16/06 19:55:31  5-MIN KDBQ 170155Z 35019KT 3SM -SN SCT050 OVC070 M07/M10 A3000 1010 81 -1400 350/19 RMK AO2 PK WND 34026/0139 SLP175 P0000 T10721100 $
94908KDBQ DBQ20060216200012802/16/06 20:00:31  5-MIN KDBQ 170200Z AUTO 35019KT 3SM -SN SCT050 OVC070 M07/M10 A2999 1010 81 -1400 350/19 RMK AO2 P0000 TSNO $
94908KDBQ DBQ20060216200515202/16/06 20:05:31  5-MIN KDBQ 170205Z AUTO 35021G26KT 3SM -SN SCT050 OVC070 M07/M10 A3000 1000 81 -1400 340/21G26 RMK AO2 PK WND 34026/0201 P0000 TSNO $
94908KDBQ DBQ20060216201015202/16/06 20:10:31  5-MIN KDBQ 170210Z AUTO 34020G26KT 3SM -SN BKN050 OVC070 M07/M10 A3001 1000 81 -1400 340/20G26 RMK AO2 PK WND 34026/0208 P0000 TSNO $
94908KDBQ DBQ20060216201515802/16/06 20:15:31  5-MIN KDBQ 170215Z AUTO 34018G27KT 4SM -SN FEW040 BKN050 OVC070 M07/M10 A3002 990 81 -1400 340/18G27 RMK AO2 PK WND 35027/0211 P0000 TSNO $
94908KDBQ DBQ20060216202016502/16/06 20:20:31  5-MIN KDBQ 170220Z AUTO 34020G27KT 4SM -SN BKN045 BKN050 OVC070 M07/M10 A3003 980 81 -1400 340/20G27 RMK AO2 PK WND 35027/0211 PRESRR P0000 TSNO $
94908KDBQ DBQ20060216202515902/16/06 20:25:31  5-MIN KDBQ 170225Z AUTO 34020KT 6SM -SN FEW019 BKN048 OVC070 M07/M10 A3004 970 81 -1500 340/20 RMK AO2 PK WND 35027/0211 PRESRR P0000 TSNO $
94908KDBQ DBQ20060216203016102/16/06 20:30:31  5-MIN KDBQ 170230Z AUTO 34018KT 7SM SCT019 SCT042 BKN048 M07/M11 A3005 960 77 -1500 340/18 RMK AO2 PK WND 35027/0211 SNE26 PRESRR P0000 TSNO $
94908KDBQ DBQ20060216203516102/16/06 20:35:31  5-MIN KDBQ 170235Z AUTO 34017KT 9SM SCT019 BKN045 BKN095 M07/M11 A3006 950 77 -1500 340/17 RMK AO2 PK WND 35027/0211 SNE26 PRESRR P0000 TSNO $
94908KDBQ DBQ20060216204016102/16/06 20:40:31  5-MIN KDBQ 170240Z AUTO 34018KT 8SM SCT019 SCT023 BKN043 M08/M11 A3006 950 80 -1600 340/18 RMK AO2 PK WND 35027/0211 SNE26 PRESRR P0000 TSNO $
94908KDBQ DBQ20060216204516102/16/06 20:45:31  5-MIN KDBQ 170245Z AUTO 34019KT 7SM SCT019 SCT026 BKN043 M08/M11 A3007 940 80 -1600 340/19 RMK AO2 PK WND 35027/0211 SNE26 PRESRR P0000 TSNO $
94908KDBQ DBQ20060216205019002/16/06 20:50:31  5-MIN KDBQ 170250Z AUTO 34016KT 7SM SCT019 SCT026 BKN060 M08/M11 A3008 940 80 -1600 340/16 RMK AO2 PK WND 35027/0211 SNE26 PRESRR SLP202 P0000 60000 T10781106 53044 TSNO $
94908KDBQ DBQ20060216205519002/16/06 20:55:31  5-MIN KDBQ 170255Z AUTO 34020KT 7SM FEW019 BKN060 BKN095 M08/M11 A3008 930 80 -1600 340/20 RMK AO2 PK WND 35027/0211 SNE26 PRESRR SLP205 P0000 60000 T10781106 53058 TSNO $
94908KDBQ DBQ20060216210012402/16/06 21:00:31  5-MIN KDBQ 170300Z AUTO 34018KT 8SM FEW019 BKN060 OVC095 M08/M11 A3009 920 80 -1600 340/18 RMK AO2 TSNO $
94908KDBQ DBQ20060216210513102/16/06 21:05:31  5-MIN KDBQ 170305Z AUTO 34019KT 8SM FEW019 BKN050 OVC060 M08/M11 A3009 920 80 -1600 340/19 RMK AO2 PRESRR TSNO $
94908KDBQ DBQ20060216211012402/16/06 21:10:31  5-MIN KDBQ 170310Z AUTO 34020KT 8SM FEW017 BKN049 OVC060 M08/M11 A3010 910 80 -1600 340/20 RMK AO2 TSNO $
94908KDBQ DBQ20060216211511702/16/06 21:15:31  5-MIN KDBQ 170315Z AUTO 34020KT 8SM BKN049 OVC060 M08/M11 A3010 910 80 -1600 340/20 RMK AO2 TSNO $
94908KDBQ DBQ20060216212011702/16/06 21:20:31  5-MIN KDBQ 170320Z AUTO 34018KT 8SM BKN047 OVC060 M08/M11 A3011 900 80 -1600 340/18 RMK AO2 TSNO $
94908KDBQ DBQ20060216212511602/16/06 21:25:31  5-MIN KDBQ 170325Z AUTO 34019G25KT 7SM OVC047 M08/M11 A3011 900 80 -1600 340/19G25 RMK AO2 TSNO $
94908KDBQ DBQ20060216213011602/16/06 21:30:31  5-MIN KDBQ 170330Z AUTO 34017G25KT 7SM OVC047 M08/M11 A3012 900 80 -1600 340/17G25 RMK AO2 TSNO $
94908KDBQ DBQ20060216213511002/16/06 21:35:31  5-MIN KDBQ 170335Z AUTO 34018KT 9SM OVC047 M08/M11 A3012 890 80 -1600 340/18 RMK AO2 TSNO $
94908KDBQ DBQ20060216214011102/16/06 21:40:31  5-MIN KDBQ 170340Z AUTO 34019KT 10SM OVC047 M08/M11 A3013 890 80 -1600 340/19 RMK AO2 TSNO $
94908KDBQ DBQ20060216214511102/16/06 21:45:31  5-MIN KDBQ 170345Z AUTO 34018KT 10SM OVC047 M08/M11 A3013 880 80 -1600 340/18 RMK AO2 TSNO $
94908KDBQ DBQ20060216215014102/16/06 21:50:31  5-MIN KDBQ 170350Z AUTO 34018G24KT 10SM OVC047 M08/M11 A3014 870 77 -1700 340/18G24 RMK AO2 PRESRR SLP225 T10781111 TSNO $
94908KDBQ DBQ20060216215514102/16/06 21:55:31  5-MIN KDBQ 170355Z AUTO 34019G24KT 10SM OVC047 M08/M11 A3015 860 77 -1700 330/19G24 RMK AO2 PRESRR SLP228 T10781111 TSNO $
94908KDBQ DBQ20060216220012402/16/06 22:00:31  5-MIN KDBQ 170400Z AUTO 34017G24KT 10SM OVC047 M08/M11 A3016 860 77 -1700 330/17G24 RMK AO2 PRESRR TSNO $
94908KDBQ DBQ20060216220512302/16/06 22:05:31  5-MIN KDBQ 170405Z AUTO 34019G24KT 9SM BKN049 M08/M11 A3017 850 77 -1700 340/19G24 RMK AO2 PRESRR TSNO $
94908KDBQ DBQ20060216221011602/16/06 22:10:31  5-MIN KDBQ 170410Z AUTO 34018G24KT 9SM BKN049 M08/M11 A3017 850 77 -1700 330/18G24 RMK AO2 TSNO $
94908KDBQ DBQ20060216221511602/16/06 22:15:31  5-MIN KDBQ 170415Z AUTO 33018G25KT 9SM SCT049 M08/M11 A3018 840 77 -1700 330/18G25 RMK AO2 TSNO $
94908KDBQ DBQ20060216222011702/16/06 22:20:31  5-MIN KDBQ 170420Z AUTO 34017G25KT 10SM FEW049 M08/M11 A3018 840 77 -1700 340/17G25 RMK AO2 TSNO $
94908KDBQ DBQ20060216222511102/16/06 22:25:31  5-MIN KDBQ 170425Z AUTO 33018KT 10SM FEW049 M08/M11 A3019 830 80 -1800 330/18 RMK AO2 TSNO $
94908KDBQ DBQ20060216223011502/16/06 22:30:31  5-MIN KDBQ 170430Z AUTO 33017KT 10SM CLR M08/M11 A3019 830 80 -1800 330/17 RMK AO2 PRESRR TSNO $
94908KDBQ DBQ20060216223511402/16/06 22:35:31  5-MIN KDBQ 170435Z AUTO 33018G24KT 10SM CLR M08/M11 A3019 830 77 -1700 330/18G24 RMK AO2 TSNO $
94908KDBQ DBQ20060216224011402/16/06 22:40:31  5-MIN KDBQ 170440Z AUTO 34017G24KT 10SM CLR M08/M11 A3020 830 77 -1700 340/17G24 RMK AO2 TSNO $
94908KDBQ DBQ20060216224510802/16/06 22:45:31  5-MIN KDBQ 170445Z AUTO 33015KT 10SM CLR M08/M11 A3020 820 80 -1800 330/15 RMK AO2 TSNO $
94908KDBQ DBQ20060216225012502/16/06 22:50:31  5-MIN KDBQ 170450Z AUTO 33015KT 10SM CLR M08/M12 A3021 820 77 -1800 330/15 RMK AO2 SLP248 T10831117 TSNO $
94908KDBQ DBQ20060216225512502/16/06 22:55:31  5-MIN KDBQ 170455Z AUTO 34013KT 10SM CLR M08/M12 A3021 810 77 -1800 340/13 RMK AO2 SLP249 T10831117 TSNO $
94908KDBQ DBQ20060216230010802/16/06 23:00:31  5-MIN KDBQ 170500Z AUTO 34013KT 10SM CLR M08/M12 A3021 810 77 -1800 340/13 RMK AO2 TSNO $
94908KDBQ DBQ20060216230510802/16/06 23:05:31  5-MIN KDBQ 170505Z AUTO 34014KT 10SM CLR M08/M12 A3022 800 77 -1800 330/14 RMK AO2 TSNO $
94908KDBQ DBQ20060216231010802/16/06 23:10:31  5-MIN KDBQ 170510Z AUTO 33013KT 10SM CLR M08/M12 A3022 800 77 -1800 330/13 RMK AO2 TSNO $
94908KDBQ DBQ20060216231510802/16/06 23:15:31  5-MIN KDBQ 170515Z AUTO 33013KT 10SM CLR M08/M12 A3022 800 77 -1800 330/13 RMK AO2 TSNO $
94908KDBQ DBQ20060216232010802/16/06 23:20:31  5-MIN KDBQ 170520Z AUTO 34015KT 10SM CLR M08/M12 A3023 790 77 -1800 340/15 RMK AO2 TSNO $
94908KDBQ DBQ20060216232510802/16/06 23:25:31  5-MIN KDBQ 170525Z AUTO 34013KT 10SM CLR M08/M12 A3023 790 77 -1800 330/13 RMK AO2 TSNO $
94908KDBQ DBQ20060216233010802/16/06 23:30:31  5-MIN KDBQ 170530Z AUTO 33014KT 10SM CLR M08/M12 A3024 780 77 -1800 330/14 RMK AO2 TSNO $
94908KDBQ DBQ20060216233511502/16/06 23:35:31  5-MIN KDBQ 170535Z AUTO 32012KT 10SM CLR M08/M12 A3024 780 77 -1800 320/12 RMK AO2 PRESRR TSNO $
94908KDBQ DBQ20060216234011502/16/06 23:40:31  5-MIN KDBQ 170540Z AUTO 32012KT 10SM CLR M09/M12 A3025 770 77 -1900 320/12 RMK AO2 PRESRR TSNO $
94908KDBQ DBQ20060216234511502/16/06 23:45:31  5-MIN KDBQ 170545Z AUTO 32015KT 10SM CLR M09/M12 A3026 770 77 -1900 320/15 RMK AO2 PRESRR TSNO $
94908KDBQ DBQ20060216235016602/16/06 23:50:31  5-MIN KDBQ 170550Z AUTO 32016KT 10SM CLR M09/M12 A3027 760 77 -1900 320/16 RMK AO2 PRESRR SLP269 60000 T10891122 11061 21089 410441089 53058 TSNO $
94908KDBQ DBQ20060216235516902/16/06 23:55:31  5-MIN KDBQ 170555Z AUTO 31015KT 10SM FEW021 M09/M12 A3028 750 77 -2000 310/15 RMK AO2 PRESRR SLP272 60000 T10891122 11061 21089 410441089 53063 TSNO $
94908KDBQ DBQ20060217000011102/17/06 00:00:38  5-MIN KDBQ 170600Z AUTO 32017KT 10SM SCT021 M09/M12 A3028 750 80 -2000 320/17 RMK AO2 TSNO $
94908KDBQ DBQ20060217000511102/17/06 00:05:31  5-MIN KDBQ 170605Z AUTO 32018KT 10SM BKN019 M09/M13 A3028 750 77 -2000 320/18 RMK AO2 TSNO $
94908KDBQ DBQ20060217001011702/17/06 00:10:31  5-MIN KDBQ 170610Z AUTO 32018KT 9SM SCT016 BKN021 M09/M13 A3028 740 77 -2000 320/18 RMK AO2 TSNO $
94908KDBQ DBQ20060217001513902/17/06 00:15:33  5-MIN KDBQ 170615Z AUTO 32019G23KT 9SM -SN FEW016 SCT021 M09/M13 A3029 740 77 -2000 320/19G23 RMK AO2 SNB12 P0000 TSNO $
94908KDBQ DBQ20060217002013202/17/06 00:20:31  5-MIN KDBQ 170620Z AUTO 32016G23KT 9SM -SN SCT019 M09/M13 A3030 730 77 -2000 320/16G23 RMK AO2 SNB12 P0000 TSNO $
94908KDBQ DBQ20060217002513802/17/06 00:25:31  5-MIN KDBQ 170625Z AUTO 32015G22KT 9SM FEW016 M10/M13 A3030 730 77 -2100 320/15G22 RMK AO2 SNB12E22 PRESRR P0000 TSNO $
94908KDBQ DBQ20060217003013902/17/06 00:30:31  5-MIN KDBQ 170630Z AUTO 32015G22KT 10SM FEW016 M10/M13 A3031 720 77 -2100 320/15G22 RMK AO2 SNB12E22 PRESRR P0000 TSNO $
94908KDBQ DBQ20060217003513002/17/06 00:35:31  5-MIN KDBQ 170635Z AUTO 32015KT 10SM CLR M10/M13 A3032 710 77 -2100 320/15 RMK AO2 SNB12E22 PRESRR P0000 TSNO $
94908KDBQ DBQ20060217004012302/17/06 00:40:31  5-MIN KDBQ 170640Z AUTO 32014KT 10SM CLR M10/M13 A3031 720 77 -2100 320/14 RMK AO2 SNB12E22 P0000 TSNO $
94908KDBQ DBQ20060217004512302/17/06 00:45:31  5-MIN KDBQ 170645Z AUTO 33016KT 10SM CLR M10/M13 A3030 720 77 -2100 330/16 RMK AO2 SNB12E22 P0000 TSNO $
94908KDBQ DBQ20060217005014002/17/06 00:50:31  5-MIN KDBQ 170650Z AUTO 33015KT 10SM CLR M10/M13 A3030 720 77 -2100 330/15 RMK AO2 SNB12E22 SLP282 P0000 T11001133 TSNO $
94908KDBQ DBQ20060217005514002/17/06 00:55:31  5-MIN KDBQ 170655Z AUTO 33015KT 10SM CLR M11/M13 A3031 720 80 -2200 330/15 RMK AO2 SNB12E22 SLP283 P0000 T11061133 TSNO $
94908KDBQ DBQ20060217010010802/17/06 01:00:31  5-MIN KDBQ 170700Z AUTO 33015KT 10SM CLR M11/M14 A3031 720 77 -2200 320/15 RMK AO2 TSNO $
94908KDBQ DBQ20060217010510802/17/06 01:05:31  5-MIN KDBQ 170705Z AUTO 32015KT 10SM CLR M11/M14 A3032 710 77 -2200 320/15 RMK AO2 TSNO $
94908KDBQ DBQ20060217011010802/17/06 01:10:31  5-MIN KDBQ 170710Z AUTO 32016KT 10SM CLR M11/M14 A3032 710 77 -2200 320/16 RMK AO2 TSNO $
94908KDBQ DBQ20060217011511502/17/06 01:15:31  5-MIN KDBQ 170715Z AUTO 32015KT 10SM CLR M11/M14 A3033 700 77 -2200 320/15 RMK AO2 PRESRR TSNO $
94908KDBQ DBQ20060217012011502/17/06 01:20:31  5-MIN KDBQ 170720Z AUTO 32016KT 10SM CLR M11/M14 A3034 690 77 -2200 320/16 RMK AO2 PRESRR TSNO $
94908KDBQ DBQ20060217012510802/17/06 01:25:31  5-MIN KDBQ 170725Z AUTO 32016KT 10SM CLR M11/M14 A3034 690 77 -2200 320/16 RMK AO2 TSNO $
94908KDBQ DBQ20060217013010802/17/06 01:30:31  5-MIN KDBQ 170730Z AUTO 32015KT 10SM CLR M11/M14 A3034 690 77 -2200 320/15 RMK AO2 TSNO $
94908KDBQ DBQ20060217013510802/17/06 01:35:31  5-MIN KDBQ 170735Z AUTO 33016KT 10SM CLR M11/M14 A3034 690 77 -2200 330/16 RMK AO2 TSNO $
94908KDBQ DBQ20060217014010802/17/06 01:40:31  5-MIN KDBQ 170740Z AUTO 33015KT 10SM CLR M11/M14 A3034 690 77 -2200 330/15 RMK AO2 TSNO $
94908KDBQ DBQ20060217014510802/17/06 01:45:31  5-MIN KDBQ 170745Z AUTO 33015KT 10SM CLR M11/M14 A3034 690 77 -2200 330/15 RMK AO2 TSNO $
94908KDBQ DBQ20060217015012502/17/06 01:50:31  5-MIN KDBQ 170750Z AUTO 33014KT 10SM CLR M11/M14 A3035 680 77 -2300 330/14 RMK AO2 SLP298 T11111144 TSNO $
94908KDBQ DBQ20060217015512502/17/06 01:55:31  5-MIN KDBQ 170755Z AUTO 33014KT 10SM CLR M11/M14 A3035 680 77 -2300 320/14 RMK AO2 SLP299 T11111144 TSNO $
94908KDBQ DBQ20060217020010802/17/06 02:00:31  5-MIN KDBQ 170800Z AUTO 33013KT 10SM CLR M11/M14 A3036 670 77 -2300 330/13 RMK AO2 TSNO $
94908KDBQ DBQ20060217020510802/17/06 02:05:31  5-MIN KDBQ 170805Z AUTO 33013KT 10SM CLR M11/M14 A3036 670 77 -2300 320/13 RMK AO2 TSNO $
94908KDBQ DBQ20060217021010802/17/06 02:10:31  5-MIN KDBQ 170810Z AUTO 33012KT 10SM CLR M11/M14 A3036 670 77 -2300 330/12 RMK AO2 TSNO $
94908KDBQ DBQ20060217021510802/17/06 02:15:31  5-MIN KDBQ 170815Z AUTO 33011KT 10SM CLR M11/M14 A3037 670 77 -2300 330/11 RMK AO2 TSNO $
94908KDBQ DBQ20060217022010802/17/06 02:20:31  5-MIN KDBQ 170820Z AUTO 33011KT 10SM CLR M12/M14 A3037 660 80 -2400 330/11 RMK AO2 TSNO $
94908KDBQ DBQ20060217022510802/17/06 02:25:31  5-MIN KDBQ 170825Z AUTO 32012KT 10SM CLR M12/M14 A3038 660 80 -2400 320/12 RMK AO2 TSNO $
94908KDBQ DBQ20060217023010802/17/06 02:30:31  5-MIN KDBQ 170830Z AUTO 32010KT 10SM CLR M12/M14 A3038 660 80 -2400 320/10 RMK AO2 TSNO $
94908KDBQ DBQ20060217023510802/17/06 02:35:31  5-MIN KDBQ 170835Z AUTO 33013KT 10SM CLR M12/M15 A3038 660 76 -2400 330/13 RMK AO2 TSNO $
94908KDBQ DBQ20060217024010802/17/06 02:40:31  5-MIN KDBQ 170840Z AUTO 33012KT 10SM CLR M12/M15 A3037 660 76 -2400 330/12 RMK AO2 TSNO $
94908KDBQ DBQ20060217024510802/17/06 02:45:31  5-MIN KDBQ 170845Z AUTO 33012KT 10SM CLR M12/M15 A3038 660 76 -2400 330/12 RMK AO2 TSNO $
94908KDBQ DBQ20060217025013702/17/06 02:50:31  5-MIN KDBQ 170850Z AUTO 33011KT 10SM CLR M12/M15 A3038 660 76 -2400 330/11 RMK AO2 SLP308 60000 T11171150 53063 TSNO $
94908KDBQ DBQ20060217025513702/17/06 02:55:31  5-MIN KDBQ 170855Z AUTO 34011KT 10SM CLR M12/M15 A3038 660 76 -2400 340/11 RMK AO2 SLP307 60000 T11171150 51033 TSNO $
94908KDBQ DBQ20060217030010802/17/06 03:00:31  5-MIN KDBQ 170900Z AUTO 34010KT 10SM CLR M12/M15 A3038 660 76 -2400 340/10 RMK AO2 TSNO $
94908KDBQ DBQ20060217030510802/17/06 03:05:31  5-MIN KDBQ 170905Z AUTO 33011KT 10SM CLR M12/M15 A3039 650 80 -2500 330/11 RMK AO2 TSNO $
94908KDBQ DBQ20060217031010802/17/06 03:10:31  5-MIN KDBQ 170910Z AUTO 33010KT 10SM CLR M12/M15 A3039 640 80 -2500 330/10 RMK AO2 TSNO $
94908KDBQ DBQ20060217031511502/17/06 03:15:31  5-MIN KDBQ 170915Z AUTO 33009KT 10SM CLR M12/M15 A3040 640 80 -2500 320/09 RMK AO2 PRESRR TSNO $
94908KDBQ DBQ20060217032010802/17/06 03:20:31  5-MIN KDBQ 170920Z AUTO 32011KT 10SM CLR M12/M15 A3040 640 80 -2500 320/11 RMK AO2 TSNO $
94908KDBQ DBQ20060217032510802/17/06 03:25:31  5-MIN KDBQ 170925Z AUTO 33010KT 10SM CLR M12/M16 A3041 630 76 -2500 330/10 RMK AO2 TSNO $
94908KDBQ DBQ20060217033010802/17/06 03:30:31  5-MIN KDBQ 170930Z AUTO 32011KT 10SM CLR M12/M16 A3041 630 76 -2500 320/11 RMK AO2 TSNO $
94908KDBQ DBQ20060217033510802/17/06 03:35:31  5-MIN KDBQ 170935Z AUTO 32010KT 10SM CLR M12/M16 A3041 630 76 -2500 320/10 RMK AO2 TSNO $
94908KDBQ DBQ20060217034010802/17/06 03:40:31  5-MIN KDBQ 170940Z AUTO 33013KT 10SM CLR M13/M16 A3041 620 80 -2600 330/13 RMK AO2 TSNO $
94908KDBQ DBQ20060217034510802/17/06 03:45:31  5-MIN KDBQ 170945Z AUTO 32011KT 10SM CLR M12/M16 A3042 620 76 -2600 320/11 RMK AO2 TSNO $
94908KDBQ DBQ20060217035012502/17/06 03:50:31  5-MIN KDBQ 170950Z AUTO 33013KT 10SM CLR M13/M16 A3042 620 80 -2600 330/13 RMK AO2 SLP323 T11281156 TSNO $
94908KDBQ DBQ20060217035512502/17/06 03:55:31  5-MIN KDBQ 170955Z AUTO 32014KT 10SM CLR M12/M16 A3042 620 76 -2600 320/14 RMK AO2 SLP324 T11221156 TSNO $
94908KDBQ DBQ20060217040010802/17/06 04:00:31  5-MIN KDBQ 171000Z AUTO 33012KT 10SM CLR M12/M16 A3043 610 76 -2600 330/12 RMK AO2 TSNO $
94908KDBQ DBQ20060217040510802/17/06 04:05:31  5-MIN KDBQ 171005Z AUTO 33012KT 10SM CLR M12/M16 A3043 610 76 -2600 330/12 RMK AO2 TSNO $
94908KDBQ DBQ20060217041010802/17/06 04:10:31  5-MIN KDBQ 171010Z AUTO 32010KT 10SM CLR M12/M16 A3043 610 73 -2600 320/10 RMK AO2 TSNO $
94908KDBQ DBQ20060217041510802/17/06 04:15:31  5-MIN KDBQ 171015Z AUTO 32012KT 10SM CLR M13/M16 A3043 610 76 -2600 320/12 RMK AO2 TSNO $
94908KDBQ DBQ20060217042010802/17/06 04:20:31  5-MIN KDBQ 171020Z AUTO 32012KT 10SM CLR M13/M16 A3044 600 76 -2600 320/12 RMK AO2 TSNO $
94908KDBQ DBQ20060217042510802/17/06 04:25:31  5-MIN KDBQ 171025Z AUTO 33011KT 10SM CLR M13/M16 A3044 600 76 -2700 330/11 RMK AO2 TSNO $
94908KDBQ DBQ20060217043010802/17/06 04:30:31  5-MIN KDBQ 171030Z AUTO 33011KT 10SM CLR M13/M17 A3045 590 76 -2700 320/11 RMK AO2 TSNO $
94908KDBQ DBQ20060217043510802/17/06 04:35:31  5-MIN KDBQ 171035Z AUTO 32012KT 10SM CLR M13/M17 A3045 590 73 -2700 320/12 RMK AO2 TSNO $
94908KDBQ DBQ20060217044010802/17/06 04:40:31  5-MIN KDBQ 171040Z AUTO 32012KT 10SM CLR M13/M17 A3046 580 73 -2700 310/12 RMK AO2 TSNO $
94908KDBQ DBQ20060217044510802/17/06 04:45:31  5-MIN KDBQ 171045Z AUTO 32013KT 10SM CLR M13/M17 A3046 590 73 -2700 320/13 RMK AO2 TSNO $
94908KDBQ DBQ20060217045012502/17/06 04:50:31  5-MIN KDBQ 171050Z AUTO 32012KT 10SM CLR M13/M17 A3046 580 73 -2700 320/12 RMK AO2 SLP336 T11331172 TSNO $
94908KDBQ DBQ20060217045512502/17/06 04:55:31  5-MIN KDBQ 171055Z AUTO 32013KT 10SM CLR M13/M17 A3046 590 73 -2700 320/13 RMK AO2 SLP336 T11331172 TSNO $
94908KDBQ DBQ20060217050010802/17/06 05:00:31  5-MIN KDBQ 171100Z AUTO 33012KT 10SM CLR M13/M18 A3046 580 69 -2800 330/12 RMK AO2 TSNO $
94908KDBQ DBQ20060217050510802/17/06 05:05:31  5-MIN KDBQ 171105Z AUTO 33011KT 10SM CLR M13/M18 A3046 580 69 -2800 330/11 RMK AO2 TSNO $
94908KDBQ DBQ20060217051010802/17/06 05:10:31  5-MIN KDBQ 171110Z AUTO 32015KT 10SM CLR M13/M18 A3047 570 69 -2800 320/15 RMK AO2 TSNO $
94908KDBQ DBQ20060217051510802/17/06 05:15:31  5-MIN KDBQ 171115Z AUTO 33012KT 10SM CLR M13/M18 A3047 580 69 -2800 330/12 RMK AO2 TSNO $
94908KDBQ DBQ20060217052010802/17/06 05:20:31  5-MIN KDBQ 171120Z AUTO 33012KT 10SM CLR M14/M18 A3047 570 69 -2800 330/12 RMK AO2 TSNO $
94908KDBQ DBQ20060217052510802/17/06 05:25:31  5-MIN KDBQ 171125Z AUTO 33013KT 10SM CLR M13/M18 A3048 570 66 -2800 330/13 RMK AO2 TSNO $
94908KDBQ DBQ20060217053010802/17/06 05:30:31  5-MIN KDBQ 171130Z AUTO 33012KT 10SM CLR M13/M18 A3048 570 66 -2800 330/12 RMK AO2 TSNO $
94908KDBQ DBQ20060217053510802/17/06 05:35:31  5-MIN KDBQ 171135Z AUTO 32013KT 10SM CLR M14/M18 A3048 560 69 -2800 320/13 RMK AO2 TSNO $
94908KDBQ DBQ20060217054010802/17/06 05:40:31  5-MIN KDBQ 171140Z AUTO 33012KT 10SM CLR M14/M18 A3049 560 69 -2900 330/12 RMK AO2 TSNO $
94908KDBQ DBQ20060217054510802/17/06 05:45:31  5-MIN KDBQ 171145Z AUTO 32012KT 10SM CLR M14/M19 A3049 560 66 -2900 320/12 RMK AO2 TSNO $
94908KDBQ DBQ20060217055015002/17/06 05:50:31  5-MIN KDBQ 171150Z 33013KT 10SM CLR M14/M19 A3049 560 66 -2900 330/13 RMK AO2 SLP345 60000 70023 T11391189 11089 21139 51033 TSNO $
94908KDBQ DBQ20060217055514502/17/06 05:55:31  5-MIN KDBQ 171155Z 33014KT 10SM CLR M14/M19 A3048 560 66 -2900 330/14 RMK AO2 SLP345 60000 70023 T11391189 11089 21144 51035 $
94908KDBQ DBQ20060217060009802/17/06 06:00:31  5-MIN KDBQ 171200Z 33015KT 10SM CLR M14/M19 A3048 560 66 -2900 330/15 RMK AO2 $
94908KDBQ DBQ20060217060509802/17/06 06:05:31  5-MIN KDBQ 171205Z 33014KT 10SM CLR M14/M19 A3049 560 69 -2900 330/14 RMK AO2 $
94908KDBQ DBQ20060217061009802/17/06 06:10:31  5-MIN KDBQ 171210Z 32014KT 10SM CLR M14/M19 A3049 560 66 -2900 320/14 RMK AO2 $
94908KDBQ DBQ20060217061509802/17/06 06:15:31  5-MIN KDBQ 171215Z 32014KT 10SM CLR M14/M19 A3049 550 63 -2900 320/14 RMK AO2 $
94908KDBQ DBQ20060217062009802/17/06 06:20:31  5-MIN KDBQ 171220Z 32015KT 10SM CLR M14/M19 A3049 560 66 -2900 320/15 RMK AO2 $
94908KDBQ DBQ20060217062509802/17/06 06:25:31  5-MIN KDBQ 171225Z 32015KT 10SM CLR M14/M19 A3049 560 66 -2900 320/15 RMK AO2 $
94908KDBQ DBQ20060217063009802/17/06 06:30:31  5-MIN KDBQ 171230Z 33016KT 10SM CLR M15/M20 A3049 560 66 -3000 330/16 RMK AO2 $
94908KDBQ DBQ20060217063509802/17/06 06:35:31  5-MIN KDBQ 171235Z 33015KT 10SM CLR M15/M19 A3049 560 69 -3000 330/15 RMK AO2 $
94908KDBQ DBQ20060217064009802/17/06 06:40:31  5-MIN KDBQ 171240Z 33015KT 10SM CLR M15/M20 A3049 550 66 -3000 330/15 RMK AO2 $
94908KDBQ DBQ20060217064509802/17/06 06:45:31  5-MIN KDBQ 171245Z 33015KT 10SM CLR M15/M20 A3049 550 66 -3000 330/15 RMK AO2 $
94908KDBQ DBQ20060217065011502/17/06 06:50:31  5-MIN KDBQ 171250Z 33016KT 10SM CLR M15/M20 A3049 550 66 -3000 330/16 RMK AO2 SLP349 T11501200 $
94908KDBQ DBQ20060217065511502/17/06 06:55:31  5-MIN KDBQ 171255Z 33015KT 10SM CLR M15/M20 A3050 550 66 -3000 330/15 RMK AO2 SLP350 T11501200 $
94908KDBQ DBQ20060217070009802/17/06 07:00:31  5-MIN KDBQ 171300Z 33013KT 10SM CLR M15/M20 A3050 550 66 -3000 330/13 RMK AO2 $
94908KDBQ DBQ20060217070509802/17/06 07:05:31  5-MIN KDBQ 171305Z 33015KT 10SM CLR M15/M20 A3050 550 66 -3000 330/15 RMK AO2 $
94908KDBQ DBQ20060217071009802/17/06 07:10:31  5-MIN KDBQ 171310Z 33016KT 10SM CLR M15/M20 A3050 540 66 -3000 330/16 RMK AO2 $
94908KDBQ DBQ20060217071509802/17/06 07:15:31  5-MIN KDBQ 171315Z 34014KT 10SM CLR M15/M20 A3050 540 66 -3000 340/14 RMK AO2 $
94908KDBQ DBQ20060217072009802/17/06 07:20:31  5-MIN KDBQ 171320Z 33015KT 10SM CLR M15/M20 A3051 540 66 -3000 330/15 RMK AO2 $
94908KDBQ DBQ20060217072509802/17/06 07:25:31  5-MIN KDBQ 171325Z 34014KT 10SM CLR M15/M20 A3051 540 66 -3000 340/14 RMK AO2 $
94908KDBQ DBQ20060217073009802/17/06 07:30:31  5-MIN KDBQ 171330Z 33013KT 10SM CLR M15/M20 A3051 530 66 -3000 330/13 RMK AO2 $
94908KDBQ DBQ20060217073509802/17/06 07:35:31  5-MIN KDBQ 171335Z 33012KT 10SM CLR M15/M20 A3051 530 66 -3000 330/12 RMK AO2 $
94908KDBQ DBQ20060217074009802/17/06 07:40:31  5-MIN KDBQ 171340Z 33012KT 10SM CLR M15/M20 A3051 530 66 -3000 330/12 RMK AO2 $
94908KDBQ DBQ20060217074509802/17/06 07:45:31  5-MIN KDBQ 171345Z 34011KT 10SM CLR M15/M21 A3052 530 63 -3000 340/11 RMK AO2 $
94908KDBQ DBQ20060217075011502/17/06 07:50:31  5-MIN KDBQ 171350Z 33011KT 10SM CLR M15/M21 A3052 530 63 -3000 330/11 RMK AO2 SLP359 T11501206 $
94908KDBQ DBQ20060217075511502/17/06 07:55:31  5-MIN KDBQ 171355Z 34011KT 10SM CLR M15/M21 A3052 530 63 -3000 340/11 RMK AO2 SLP359 T11501206 $
94908KDBQ DBQ20060217080009802/17/06 08:00:31  5-MIN KDBQ 171400Z 35011KT 10SM CLR M15/M21 A3052 530 63 -3000 350/11 RMK AO2 $
94908KDBQ DBQ20060217080509802/17/06 08:05:31  5-MIN KDBQ 171405Z 35011KT 10SM CLR M15/M21 A3052 530 63 -3000 350/11 RMK AO2 $
94908KDBQ DBQ20060217081009802/17/06 08:10:31  5-MIN KDBQ 171410Z 35011KT 10SM CLR M15/M21 A3053 520 63 -3000 350/11 RMK AO2 $
94908KDBQ DBQ20060217081509802/17/06 08:15:31  5-MIN KDBQ 171415Z 35010KT 10SM CLR M15/M21 A3053 520 63 -3100 350/10 RMK AO2 $
94908KDBQ DBQ20060217082009802/17/06 08:20:31  5-MIN KDBQ 171420Z 35010KT 10SM CLR M15/M21 A3054 510 63 -3100 350/10 RMK AO2 $
94908KDBQ DBQ20060217082509802/17/06 08:25:31  5-MIN KDBQ 171425Z 35010KT 10SM CLR M15/M21 A3054 510 63 -3100 350/10 RMK AO2 $
94908KDBQ DBQ20060217083009802/17/06 08:30:31  5-MIN KDBQ 171430Z 36009KT 10SM CLR M15/M21 A3054 510 63 -3100 350/09 RMK AO2 $
94908KDBQ DBQ20060217083509802/17/06 08:35:31  5-MIN KDBQ 171435Z 36011KT 10SM CLR M14/M21 A3053 520 60 -3000 360/11 RMK AO2 $
94908KDBQ DBQ20060217084009802/17/06 08:40:31  5-MIN KDBQ 171440Z 36010KT 10SM CLR M14/M21 A3054 510 60 -3000 360/10 RMK AO2 $
94908KDBQ DBQ20060217084509802/17/06 08:45:31  5-MIN KDBQ 171445Z 35012KT 10SM CLR M14/M21 A3053 520 60 -3000 350/12 RMK AO2 $
94908KDBQ DBQ20060217085012102/17/06 08:50:31  5-MIN KDBQ 171450Z 36011KT 10SM CLR M14/M21 A3053 520 60 -3000 350/11 RMK AO2 SLP362 T11441206 51035 $
94908KDBQ DBQ20060217085512102/17/06 08:55:31  5-MIN KDBQ 171455Z 35011KT 10SM CLR M14/M21 A3053 520 60 -3000 350/11 RMK AO2 SLP364 T11441206 51017 $
94908KDBQ DBQ20060217090009802/17/06 09:00:31  5-MIN KDBQ 171500Z 36011KT 10SM CLR M14/M21 A3053 520 60 -3000 360/11 RMK AO2 $
94908KDBQ DBQ20060217090509802/17/06 09:05:31  5-MIN KDBQ 171505Z 35013KT 10SM CLR M14/M21 A3053 520 60 -3000 350/13 RMK AO2 $
94908KDBQ DBQ20060217091009802/17/06 09:10:31  5-MIN KDBQ 171510Z 35013KT 10SM CLR M14/M21 A3053 510 60 -3000 350/13 RMK AO2 $
94908KDBQ DBQ20060217091509802/17/06 09:15:31  5-MIN KDBQ 171515Z 35014KT 10SM CLR M14/M20 A3054 510 63 -3000 350/14 RMK AO2 $
94908KDBQ DBQ20060217092009802/17/06 09:20:31  5-MIN KDBQ 171520Z 34014KT 10SM CLR M14/M20 A3054 510 63 -3000 340/14 RMK AO2 $
94908KDBQ DBQ20060217092509802/17/06 09:25:31  5-MIN KDBQ 171525Z 35013KT 10SM CLR M14/M20 A3054 510 63 -3000 340/13 RMK AO2 $
94908KDBQ DBQ20060217093009802/17/06 09:30:31  5-MIN KDBQ 171530Z 35013KT 10SM CLR M14/M20 A3055 500 60 -2900 350/13 RMK AO2 $
94908KDBQ DBQ20060217093509802/17/06 09:35:31  5-MIN KDBQ 171535Z 34013KT 10SM CLR M14/M20 A3055 500 60 -2900 340/13 RMK AO2 $
94908KDBQ DBQ20060217094009802/17/06 09:40:31  5-MIN KDBQ 171540Z 34013KT 10SM CLR M14/M20 A3056 490 60 -2900 340/13 RMK AO2 $
94908KDBQ DBQ20060217094509802/17/06 09:45:31  5-MIN KDBQ 171545Z 34013KT 10SM CLR M14/M20 A3056 490 60 -2900 340/13 RMK AO2 $
94908KDBQ DBQ20060217095011502/17/06 09:50:31  5-MIN KDBQ 171550Z 34015KT 10SM CLR M14/M20 A3057 490 60 -2900 340/15 RMK AO2 SLP374 T11391200 $
94908KDBQ DBQ20060217095511502/17/06 09:55:31  5-MIN KDBQ 171555Z 34013KT 10SM CLR M14/M20 A3057 480 60 -2900 340/13 RMK AO2 SLP375 T11391200 $
94908KDBQ DBQ20060217100009802/17/06 10:00:31  5-MIN KDBQ 171600Z 34014KT 10SM CLR M14/M20 A3057 480 60 -3000 340/14 RMK AO2 $
94908KDBQ DBQ20060217100509802/17/06 10:05:31  5-MIN KDBQ 171605Z 34015KT 10SM CLR M14/M20 A3057 480 60 -3000 340/15 RMK AO2 $
94908KDBQ DBQ20060217101009802/17/06 10:10:31  5-MIN KDBQ 171610Z 34011KT 10SM CLR M13/M20 A3058 480 58 -2900 340/11 RMK AO2 $
94908KDBQ DBQ20060217101509802/17/06 10:15:31  5-MIN KDBQ 171615Z 35008KT 10SM CLR M13/M20 A3058 480 58 -2900 350/08 RMK AO2 $
94908KDBQ DBQ20060217102009802/17/06 10:20:31  5-MIN KDBQ 171620Z 34009KT 10SM CLR M13/M20 A3058 470 58 -2900 340/09 RMK AO2 $
94908KDBQ DBQ20060217102509802/17/06 10:25:31  5-MIN KDBQ 171625Z 33009KT 10SM CLR M13/M20 A3059 460 58 -2900 330/09 RMK AO2 $
94908KDBQ DBQ20060217103009802/17/06 10:30:31  5-MIN KDBQ 171630Z 32008KT 10SM CLR M13/M19 A3059 460 58 -2800 320/08 RMK AO2 $
94908KDBQ DBQ20060217103509802/17/06 10:35:31  5-MIN KDBQ 171635Z 30015KT 10SM CLR M13/M19 A3060 460 60 -2900 300/15 RMK AO2 $
94908KDBQ DBQ20060217104009802/17/06 10:40:31  5-MIN KDBQ 171640Z 30013KT 10SM CLR M13/M19 A3060 450 60 -2900 300/13 RMK AO2 $
94908KDBQ DBQ20060217104509802/17/06 10:45:31  5-MIN KDBQ 171645Z 32012KT 10SM CLR M13/M19 A3061 450 60 -2900 320/12 RMK AO2 $
94908KDBQ DBQ20060217105011502/17/06 10:50:31  5-MIN KDBQ 171650Z 31014KT 10SM CLR M13/M19 A3061 450 60 -2900 310/14 RMK AO2 SLP389 T11331194 $
94908KDBQ DBQ20060217105511502/17/06 10:55:31  5-MIN KDBQ 171655Z 33013KT 10SM CLR M13/M19 A3061 450 60 -2900 330/13 RMK AO2 SLP388 T11331194 $
94908KDBQ DBQ20060217110009802/17/06 11:00:31  5-MIN KDBQ 171700Z 30011KT 10SM CLR M13/M19 A3062 440 60 -2900 300/11 RMK AO2 $
94908KDBQ DBQ20060217110509802/17/06 11:05:31  5-MIN KDBQ 171705Z 30014KT 10SM CLR M13/M19 A3062 440 60 -2900 300/14 RMK AO2 $
94908KDBQ DBQ20060217111009802/17/06 11:10:31  5-MIN KDBQ 171710Z 30013KT 10SM CLR M13/M19 A3062 440 60 -2900 300/13 RMK AO2 $
94908KDBQ DBQ20060217111509802/17/06 11:15:31  5-MIN KDBQ 171715Z 30015KT 10SM CLR M13/M19 A3062 430 60 -2900 300/15 RMK AO2 $
94908KDBQ DBQ20060217112009802/17/06 11:20:31  5-MIN KDBQ 171720Z 30015KT 10SM CLR M13/M19 A3062 430 60 -2900 300/15 RMK AO2 $
94908KDBQ DBQ20060217112509802/17/06 11:25:31  5-MIN KDBQ 171725Z 31015KT 10SM CLR M13/M19 A3063 430 60 -2900 310/15 RMK AO2 $
94908KDBQ DBQ20060217113009802/17/06 11:30:31  5-MIN KDBQ 171730Z 31014KT 10SM CLR M13/M20 A3063 430 58 -2900 310/14 RMK AO2 $
94908KDBQ DBQ20060217113509802/17/06 11:35:31  5-MIN KDBQ 171735Z 31012KT 10SM CLR M13/M20 A3063 430 58 -2900 310/12 RMK AO2 $
94908KDBQ DBQ20060217114009802/17/06 11:40:31  5-MIN KDBQ 171740Z 31013KT 10SM CLR M13/M19 A3063 430 58 -2900 310/13 RMK AO2 $
94908KDBQ DBQ20060217114509802/17/06 11:45:31  5-MIN KDBQ 171745Z 31018KT 10SM CLR M13/M20 A3063 430 58 -2900 300/18 RMK AO2 $
94908KDBQ DBQ20060217115013302/17/06 11:50:31  5-MIN KDBQ 171750Z 31015KT 10SM CLR M13/M20 A3063 430 58 -2900 300/15 RMK AO2 SLP396 T11331200 11128 21150 51017 $
94908KDBQ DBQ20060217115513902/17/06 11:55:31  5-MIN KDBQ 171755Z 31018G22KT 10SM CLR M13/M20 A3063 430 58 -2900 310/18G22 RMK AO2 SLP396 T11331200 11128 21150 51031 $
94908KDBQ DBQ20060217120010402/17/06 12:00:31  5-MIN KDBQ 171800Z 33016G22KT 10SM CLR M13/M20 A3063 430 58 -2900 330/16G22 RMK AO2 $
94908KDBQ DBQ20060217120510402/17/06 12:05:31  5-MIN KDBQ 171805Z 32012G21KT 10SM CLR M13/M20 A3063 430 58 -2900 320/12G21 RMK AO2 $
94908KDBQ DBQ20060217121009802/17/06 12:10:31  5-MIN KDBQ 171810Z 29011KT 10SM CLR M13/M19 A3063 430 60 -2900 290/11 RMK AO2 $
94908KDBQ DBQ20060217121509802/17/06 12:15:31  5-MIN KDBQ 171815Z 29013KT 10SM CLR M13/M19 A3063 430 63 -2900 290/13 RMK AO2 $
94908KDBQ DBQ20060217122009802/17/06 12:20:31  5-MIN KDBQ 171820Z 30015KT 10SM CLR M13/M19 A3063 430 60 -2900 300/15 RMK AO2 $
94908KDBQ DBQ20060217122509802/17/06 12:25:31  5-MIN KDBQ 171825Z 30014KT 10SM CLR M13/M20 A3063 420 58 -3000 300/14 RMK AO2 $
94908KDBQ DBQ20060217123009802/17/06 12:30:31  5-MIN KDBQ 171830Z 31016KT 10SM CLR M13/M20 A3063 430 58 -2900 300/16 RMK AO2 $
94908KDBQ DBQ20060217123509802/17/06 12:35:31  5-MIN KDBQ 171835Z 30014KT 10SM CLR M13/M20 A3063 430 58 -2900 300/14 RMK AO2 $
94908KDBQ DBQ20060217124009802/17/06 12:40:31  5-MIN KDBQ 171840Z 28014KT 10SM CLR M14/M20 A3063 420 60 -3000 280/14 RMK AO2 $
94908KDBQ DBQ20060217124509802/17/06 12:45:31  5-MIN KDBQ 171845Z 30012KT 10SM CLR M14/M20 A3063 420 60 -3000 300/12 RMK AO2 $
94908KDBQ DBQ20060217125011502/17/06 12:50:31  5-MIN KDBQ 171850Z 30015KT 10SM CLR M14/M20 A3063 430 60 -3000 300/15 RMK AO2 SLP398 T11391200 $
94908KDBQ DBQ20060217125511502/17/06 12:55:31  5-MIN KDBQ 171855Z 29017KT 10SM CLR M14/M21 A3063 430 57 -3000 290/17 RMK AO2 SLP397 T11391206 $
94908KDBQ DBQ20060217130009802/17/06 13:00:31  5-MIN KDBQ 171900Z 30018KT 10SM CLR M14/M21 A3063 430 57 -3000 300/18 RMK AO2 $
94908KDBQ DBQ20060217130509802/17/06 13:05:31  5-MIN KDBQ 171905Z 30014KT 10SM CLR M14/M20 A3063 430 60 -3000 300/14 RMK AO2 $
94908KDBQ DBQ20060217131009802/17/06 13:10:31  5-MIN KDBQ 171910Z 31014KT 10SM CLR M14/M20 A3063 430 60 -3000 310/14 RMK AO2 $
94908KDBQ DBQ20060217131510402/17/06 13:15:31  5-MIN KDBQ 171915Z 31015G19KT 10SM CLR M14/M21 A3063 420 57 -3000 300/15G19 RMK AO2 $
94908KDBQ DBQ20060217132009802/17/06 13:20:31  5-MIN KDBQ 171920Z 30016KT 10SM CLR M14/M21 A3064 420 55 -3000 290/16 RMK AO2 $
94908KDBQ DBQ20060217132509802/17/06 13:25:31  5-MIN KDBQ 171925Z 30013KT 10SM CLR M14/M21 A3063 430 57 -3000 290/13 RMK AO2 $
94908KDBQ DBQ20060217133009802/17/06 13:30:31  5-MIN KDBQ 171930Z 30017KT 10SM CLR M14/M20 A3063 430 60 -3000 290/17 RMK AO2 $
94908KDBQ DBQ20060217133509802/17/06 13:35:31  5-MIN KDBQ 171935Z 30014KT 10SM CLR M14/M21 A3063 430 57 -3000 300/14 RMK AO2 $
94908KDBQ DBQ20060217134009802/17/06 13:40:31  5-MIN KDBQ 171940Z 30015KT 10SM CLR M14/M21 A3063 430 60 -3100 290/15 RMK AO2 $
94908KDBQ DBQ20060217134509802/17/06 13:45:31  5-MIN KDBQ 171945Z 31017KT 10SM CLR M14/M21 A3063 430 57 -3100 310/17 RMK AO2 $
94908KDBQ DBQ20060217135011502/17/06 13:50:31  5-MIN KDBQ 171950Z 31019KT 10SM CLR M14/M22 A3063 430 55 -3100 300/19 RMK AO2 SLP398 T11441217 $
94908KDBQ DBQ20060217135511502/17/06 13:55:31  5-MIN KDBQ 171955Z 31018KT 10SM CLR M14/M22 A3063 430 52 -3100 310/18 RMK AO2 SLP398 T11441222 $
94908KDBQ DBQ20060217140009802/17/06 14:00:31  5-MIN KDBQ 172000Z 31019KT 10SM CLR M14/M22 A3063 430 55 -3100 300/19 RMK AO2 $
94908KDBQ DBQ20060217140510402/17/06 14:05:31  5-MIN KDBQ 172005Z 31013G23KT 10SM CLR M14/M22 A3062 430 55 -3100 310/13G23 RMK AO2 $
94908KDBQ DBQ20060217141009802/17/06 14:10:31  5-MIN KDBQ 172010Z 30018KT 10SM CLR M14/M23 A3062 440 50 -3100 300/18 RMK AO2 $
94908KDBQ DBQ20060217141509802/17/06 14:15:31  5-MIN KDBQ 172015Z 31017KT 10SM CLR M14/M23 A3062 440 50 -3100 310/17 RMK AO2 $
94908KDBQ DBQ20060217142009802/17/06 14:20:31  5-MIN KDBQ 172020Z 31017KT 10SM CLR M14/M23 A3062 440 50 -3100 310/17 RMK AO2 $
94908KDBQ DBQ20060217142509802/17/06 14:25:31  5-MIN KDBQ 172025Z 32017KT 10SM CLR M14/M23 A3062 440 50 -3100 320/17 RMK AO2 $
94908KDBQ DBQ20060217143009802/17/06 14:30:31  5-MIN KDBQ 172030Z 32013KT 10SM CLR M14/M23 A3062 440 50 -3100 320/13 RMK AO2 $
94908KDBQ DBQ20060217143509802/17/06 14:35:31  5-MIN KDBQ 172035Z 30015KT 10SM CLR M14/M22 A3062 440 52 -3100 300/15 RMK AO2 $
94908KDBQ DBQ20060217144009802/17/06 14:40:31  5-MIN KDBQ 172040Z 30015KT 10SM CLR M15/M22 A3061 440 54 -3200 300/15 RMK AO2 $
94908KDBQ DBQ20060217144509802/17/06 14:45:31  5-MIN KDBQ 172045Z 30015KT 10SM CLR M14/M23 A3062 440 50 -3100 290/15 RMK AO2 $
94908KDBQ DBQ20060217145011902/17/06 14:50:31  5-MIN KDBQ 172050Z 30018KT 10SM CLR M14/M23 A3062 440 47 -3100 300/18 RMK AO2 SLP396 T11441233 51031
94908KDBQ DBQ20060217145512502/17/06 14:55:31  5-MIN KDBQ 172055Z 32016G20KT 10SM CLR M15/M24 A3063 430 45 -3200 320/16G20 RMK AO2 SLP397 T11501244 58001
94908KDBQ DBQ20060217150009602/17/06 15:00:31  5-MIN KDBQ 172100Z 29014KT 10SM CLR M15/M24 A3063 430 47 -3200 290/14 RMK AO2
94908KDBQ DBQ20060217150509602/17/06 15:05:31  5-MIN KDBQ 172105Z 30016KT 10SM CLR M15/M23 A3063 430 49 -3200 300/16 RMK AO2
94908KDBQ DBQ20060217151010202/17/06 15:10:31  5-MIN KDBQ 172110Z 31018G22KT 10SM CLR M16/M24 A3062 440 47 -3200 300/18G22 RMK AO2
94908KDBQ DBQ20060217151509602/17/06 15:15:31  5-MIN KDBQ 172115Z 31018KT 10SM CLR M16/M25 A3063 430 45 -3200 310/18 RMK AO2
94908KDBQ DBQ20060217152010202/17/06 15:20:31  5-MIN KDBQ 172120Z 30014G22KT 10SM CLR M16/M24 A3063 430 47 -3200 300/14G22 RMK AO2
94908KDBQ DBQ20060217152509602/17/06 15:25:31  5-MIN KDBQ 172125Z 30016KT 10SM CLR M16/M24 A3062 440 49 -3200 300/16 RMK AO2
94908KDBQ DBQ20060217153009602/17/06 15:30:31  5-MIN KDBQ 172130Z 30016KT 10SM CLR M16/M24 A3062 440 47 -3200 300/16 RMK AO2
94908KDBQ DBQ20060217153509602/17/06 15:35:31  5-MIN KDBQ 172135Z 33015KT 10SM CLR M16/M25 A3062 440 45 -3200 320/15 RMK AO2
94908KDBQ DBQ20060217154009602/17/06 15:40:31  5-MIN KDBQ 172140Z 31018KT 10SM CLR M16/M25 A3062 440 45 -3200 300/18 RMK AO2
94908KDBQ DBQ20060217154510202/17/06 15:45:31  5-MIN KDBQ 172145Z 31016G21KT 10SM CLR M16/M25 A3062 440 47 -3300 310/16G21 RMK AO2
94908KDBQ DBQ20060217155011302/17/06 15:50:31  5-MIN KDBQ 172150Z 31014KT 10SM CLR M16/M26 A3062 430 45 -3300 310/14 RMK AO2 SLP398 T11611256
94908KDBQ DBQ20060217155511302/17/06 15:55:31  5-MIN KDBQ 172155Z 32014KT 10SM CLR M17/M26 A3062 440 47 -3400 310/14 RMK AO2 SLP397 T11671256
94908KDBQ DBQ20060217160009602/17/06 16:00:31  5-MIN KDBQ 172200Z 32016KT 10SM CLR M17/M26 A3062 440 47 -3400 320/16 RMK AO2
94908KDBQ DBQ20060217160509902/17/06 16:05:31  5-MIN KDBQ 172205Z 31013KT 10SM SCT095 M17/M26 A3062 430 44 -3400 310/13 RMK AO2
94908KDBQ DBQ20060217161010502/17/06 16:10:31  5-MIN KDBQ 172210Z 31016G20KT 10SM BKN090 M17/M26 A3062 430 44 -3400 310/16G20 RMK AO2
94908KDBQ DBQ20060217161510502/17/06 16:15:31  5-MIN KDBQ 172215Z 32017G20KT 10SM BKN085 M17/M26 A3062 430 44 -3400 310/17G20 RMK AO2
94908KDBQ DBQ20060217162010602/17/06 16:20:31  5-MIN KDBQ 172220Z 32015KT 10SM BKN085 BKN100 M17/M26 A3062 440 49 -3500 320/15 RMK AO2
94908KDBQ DBQ20060217162510602/17/06 16:25:31  5-MIN KDBQ 172225Z 31017KT 10SM SCT090 OVC100 M17/M26 A3062 440 49 -3500 300/17 RMK AO2
94908KDBQ DBQ20060217163010602/17/06 16:30:31  5-MIN KDBQ 172230Z 31016KT 10SM SCT085 OVC100 M17/M26 A3062 430 47 -3500 310/16 RMK AO2
94908KDBQ DBQ20060217163511202/17/06 16:35:31  5-MIN KDBQ 172235Z 31017G22KT 10SM SCT085 OVC100 M18/M26 A3062 430 49 -3500 310/17G22 RMK AO2
94908KDBQ DBQ20060217164011102/17/06 16:40:31  5-MIN KDBQ 172240Z 33020G24KT 9SM SCT090 OVC100 M18/M27 A3062 440 46 -3500 330/20G24 RMK AO2
94908KDBQ DBQ20060217164510402/17/06 16:45:31  5-MIN KDBQ 172245Z 31016G24KT 9SM OVC100 M18/M27 A3063 430 46 -3500 310/16G24 RMK AO2
94908KDBQ DBQ20060217165011602/17/06 16:50:31  5-MIN KDBQ 172250Z 32014KT 10SM OVC100 M18/M27 A3063 430 46 -3500 310/14 RMK AO2 SLP400 T11781267
94908KDBQ DBQ20060217165511602/17/06 16:55:31  5-MIN KDBQ 172255Z 32016KT 10SM OVC100 M18/M26 A3062 430 49 -3500 320/16 RMK AO2 SLP400 T11781261
94908KDBQ DBQ20060217170009902/17/06 17:00:31  5-MIN KDBQ 172300Z 32014KT 10SM OVC100 M18/M26 A3062 430 49 -3500 320/14 RMK AO2
94908KDBQ DBQ20060217170509902/17/06 17:05:31  5-MIN KDBQ 172305Z 31017KT 10SM OVC100 M18/M27 A3062 440 46 -3500 310/17 RMK AO2
94908KDBQ DBQ20060217171009902/17/06 17:10:31  5-MIN KDBQ 172310Z 31017KT 10SM BKN100 M18/M26 A3062 440 51 -3600 310/17 RMK AO2
94908KDBQ DBQ20060217171509902/17/06 17:15:31  5-MIN KDBQ 172315Z 31016KT 10SM BKN100 M18/M26 A3063 430 51 -3600 310/16 RMK AO2
94908KDBQ DBQ20060217172010502/17/06 17:20:31  5-MIN KDBQ 172320Z 32019G23KT 10SM SCT100 M19/M27 A3063 430 51 -3700 320/19G23 RMK AO2
94908KDBQ DBQ20060217172510502/17/06 17:25:31  5-MIN KDBQ 172325Z 33016G23KT 10SM SCT100 M19/M27 A3062 430 51 -3700 320/16G23 RMK AO2
94908KDBQ DBQ20060217173009902/17/06 17:30:31  5-MIN KDBQ 172330Z 32015KT 10SM FEW100 M19/M27 A3062 440 48 -3700 320/15 RMK AO2
94908KDBQ DBQ20060217173510602/17/06 17:35:31  5-MIN KDBQ 172335Z 32013KT 10SM FEW095 SCT110 M19/M27 A3062 440 48 -3700 320/13 RMK AO2
94908KDBQ DBQ20060217174010602/17/06 17:40:31  5-MIN KDBQ 172340Z 31014KT 10SM FEW095 BKN110 M19/M27 A3061 440 48 -3700 310/14 RMK AO2
94908KDBQ DBQ20060217174509902/17/06 17:45:31  5-MIN KDBQ 172345Z 32014KT 10SM BKN110 M19/M27 A3062 430 51 -3700 320/14 RMK AO2
94908KDBQ DBQ20060217175014002/17/06 17:50:31  5-MIN KDBQ 172350Z 32018G22KT 10SM BKN110 M19/M27 A3062 430 51 -3700 320/18G22 RMK AO2 SLP400 T11891267 11133 21189 58001
94908KDBQ DBQ20060217175514702/17/06 17:55:31  5-MIN KDBQ 172355Z 34015G22KT 10SM FEW100 OVC110 M19/M27 A3062 430 51 -3800 330/15G22 RMK AO2 SLP400 T11941272 11133 21194 56001
94908KDBQ DBQ20060217180009902/17/06 18:00:31  5-MIN KDBQ 180000Z 33015KT 10SM OVC110 M19/M27 A3063 430 51 -3800 330/15 RMK AO2
94908KDBQ DBQ20060217180509902/17/06 18:05:31  5-MIN KDBQ 180005Z 32015KT 10SM OVC110 M19/M27 A3064 420 51 -3800 320/15 RMK AO2
94908KDBQ DBQ20060217181009902/17/06 18:10:31  5-MIN KDBQ 180010Z 32012KT 10SM OVC110 M19/M27 A3064 420 51 -3800 320/12 RMK AO2
94908KDBQ DBQ20060217181509902/17/06 18:15:31  5-MIN KDBQ 180015Z 32014KT 10SM OVC110 M19/M27 A3064 420 51 -3800 320/14 RMK AO2
94908KDBQ DBQ20060217182009902/17/06 18:20:31  5-MIN KDBQ 180020Z 31012KT 10SM OVC110 M19/M27 A3065 410 51 -3800 310/12 RMK AO2
94908KDBQ DBQ20060217182509902/17/06 18:25:31  5-MIN KDBQ 180025Z 31014KT 10SM OVC120 M20/M27 A3065 410 56 -3900 310/14 RMK AO2
94908KDBQ DBQ20060217183010602/17/06 18:30:31  5-MIN KDBQ 180030Z 31016KT 10SM FEW090 OVC120 M20/M27 A3065 410 56 -3900 310/16 RMK AO2
94908KDBQ DBQ20060217183510602/17/06 18:35:31  5-MIN KDBQ 180035Z 32015KT 10SM FEW090 OVC120 M20/M27 A3065 410 56 -3900 320/15 RMK AO2
94908KDBQ DBQ20060217184010602/17/06 18:40:31  5-MIN KDBQ 180040Z 31015KT 10SM FEW090 OVC120 M20/M27 A3066 400 56 -3900 310/15 RMK AO2
94908KDBQ DBQ20060217184510602/17/06 18:45:31  5-MIN KDBQ 180045Z 31015KT 10SM FEW090 OVC120 M20/M27 A3066 400 56 -3900 310/15 RMK AO2
94908KDBQ DBQ20060217185013302/17/06 18:50:31  5-MIN KDBQ 180050Z AUTO 31017KT 10SM FEW090 OVC120 M20/M27 A3066 400 56 -3900 300/17 RMK AO2 SLP415 T12001267 TSNO
94908KDBQ DBQ20060217185512602/17/06 18:55:31  5-MIN KDBQ 180055Z AUTO 31016KT 10SM OVC120 M21/M27 A3066 400 59 -4000 310/16 RMK AO2 SLP414 T12061267 TSNO
94908KDBQ DBQ20060217190010902/17/06 19:00:31  5-MIN KDBQ 180100Z AUTO 32016KT 10SM OVC120 M21/M27 A3066 400 59 -4000 320/16 RMK AO2 TSNO
94908KDBQ DBQ20060217190510902/17/06 19:05:31  5-MIN KDBQ 180105Z AUTO 32014KT 10SM OVC120 M21/M27 A3066 400 59 -4000 320/14 RMK AO2 TSNO
94908KDBQ DBQ20060217191010902/17/06 19:10:31  5-MIN KDBQ 180110Z AUTO 32015KT 10SM OVC110 M21/M27 A3066 400 59 -4000 320/15 RMK AO2 TSNO
94908KDBQ DBQ20060217191510902/17/06 19:15:31  5-MIN KDBQ 180115Z AUTO 31013KT 10SM OVC110 M21/M27 A3066 400 59 -4000 310/13 RMK AO2 TSNO
94908KDBQ DBQ20060217192010902/17/06 19:20:31  5-MIN KDBQ 180120Z AUTO 32014KT 10SM OVC110 M21/M27 A3065 410 59 -4000 320/14 RMK AO2 TSNO
94908KDBQ DBQ20060217192510902/17/06 19:25:31  5-MIN KDBQ 180125Z AUTO 32011KT 10SM OVC100 M21/M27 A3066 400 59 -4000 320/11 RMK AO2 TSNO
94908KDBQ DBQ20060217193010902/17/06 19:30:31  5-MIN KDBQ 180130Z AUTO 32011KT 10SM OVC100 M21/M27 A3066 400 59 -4000 320/11 RMK AO2 TSNO
94908KDBQ DBQ20060217193510902/17/06 19:35:31  5-MIN KDBQ 180135Z AUTO 32012KT 10SM OVC100 M21/M27 A3066 400 56 -4000 310/12 RMK AO2 TSNO
94908KDBQ DBQ20060217194010902/17/06 19:40:31  5-MIN KDBQ 180140Z AUTO 31010KT 10SM OVC100 M21/M27 A3066 400 56 -4000 310/10 RMK AO2 TSNO
94908KDBQ DBQ20060217194510902/17/06 19:45:31  5-MIN KDBQ 180145Z AUTO 32014KT 10SM OVC110 M21/M28 A3067 390 56 -4100 320/14 RMK AO2 TSNO
94908KDBQ DBQ20060217195012602/17/06 19:50:31  5-MIN KDBQ 180150Z AUTO 32012KT 10SM OVC110 M21/M27 A3067 390 58 -4100 320/12 RMK AO2 SLP418 T12111272 TSNO
94908KDBQ DBQ20060217195512602/17/06 19:55:31  5-MIN KDBQ 180155Z AUTO 31014KT 10SM OVC110 M21/M27 A3067 390 58 -4100 310/14 RMK AO2 SLP419 T12111272 TSNO
94908KDBQ DBQ20060217200010902/17/06 20:00:31  5-MIN KDBQ 180200Z AUTO 31015KT 10SM OVC110 M21/M27 A3067 390 58 -4100 310/15 RMK AO2 TSNO
94908KDBQ DBQ20060217200510902/17/06 20:05:31  5-MIN KDBQ 180205Z AUTO 31013KT 10SM OVC110 M21/M27 A3067 390 58 -4100 310/13 RMK AO2 TSNO
94908KDBQ DBQ20060217201010902/17/06 20:10:31  5-MIN KDBQ 180210Z AUTO 31014KT 10SM BKN110 M21/M27 A3067 390 58 -4100 310/14 RMK AO2 TSNO
94908KDBQ DBQ20060217201511502/17/06 20:15:31  5-MIN KDBQ 180215Z AUTO 32015G21KT 10SM BKN110 M21/M27 A3067 390 58 -4100 320/15G21 RMK AO2 TSNO
94908KDBQ DBQ20060217202011502/17/06 20:20:31  5-MIN KDBQ 180220Z AUTO 31017G22KT 10SM BKN110 M21/M27 A3067 390 58 -4100 310/17G22 RMK AO2 TSNO
94908KDBQ DBQ20060217202511502/17/06 20:25:31  5-MIN KDBQ 180225Z AUTO 32018G22KT 10SM BKN120 M21/M27 A3067 390 58 -4100 320/18G22 RMK AO2 TSNO
94908KDBQ DBQ20060217203010902/17/06 20:30:31  5-MIN KDBQ 180230Z AUTO 33015KT 10SM BKN120 M21/M27 A3067 390 58 -4100 320/15 RMK AO2 TSNO
94908KDBQ DBQ20060217203510902/17/06 20:35:31  5-MIN KDBQ 180235Z AUTO 32017KT 10SM BKN120 M21/M27 A3067 390 58 -4100 320/17 RMK AO2 TSNO
94908KDBQ DBQ20060217204010902/17/06 20:40:31  5-MIN KDBQ 180240Z AUTO 32019KT 10SM OVC120 M21/M27 A3068 380 58 -4100 320/19 RMK AO2 TSNO
94908KDBQ DBQ20060217204510902/17/06 20:45:31  5-MIN KDBQ 180245Z AUTO 31016KT 10SM OVC120 M21/M28 A3069 380 56 -4100 310/16 RMK AO2 TSNO
94908KDBQ DBQ20060217205013802/17/06 20:50:31  5-MIN KDBQ 180250Z AUTO 32016G22KT 10SM BKN120 M22/M28 A3069 380 58 -4100 320/16G22 RMK AO2 SLP424 T12171278 56001 TSNO
94908KDBQ DBQ20060217205513702/17/06 20:55:31  5-MIN KDBQ 180255Z AUTO 33019G22KT 9SM BKN120 M22/M28 A3069 380 58 -4200 330/19G22 RMK AO2 SLP424 T12171278 51021 TSNO
94908KDBQ DBQ20060217210010802/17/06 21:00:31  5-MIN KDBQ 180300Z AUTO 32017KT 9SM OVC120 M22/M28 A3068 380 58 -4100 320/17 RMK AO2 TSNO
94908KDBQ DBQ20060217210510902/17/06 21:05:31  5-MIN KDBQ 180305Z AUTO 32014KT 10SM OVC120 M22/M28 A3069 380 55 -4100 320/14 RMK AO2 TSNO
94908KDBQ DBQ20060217211010902/17/06 21:10:31  5-MIN KDBQ 180310Z AUTO 32017KT 10SM OVC120 M22/M28 A3069 380 55 -4100 320/17 RMK AO2 TSNO
94908KDBQ DBQ20060217211510902/17/06 21:15:31  5-MIN KDBQ 180315Z AUTO 33015KT 10SM OVC120 M22/M28 A3069 370 55 -4200 330/15 RMK AO2 TSNO
94908KDBQ DBQ20060217212010902/17/06 21:20:31  5-MIN KDBQ 180320Z AUTO 33016KT 10SM OVC120 M22/M28 A3069 370 55 -4200 330/16 RMK AO2 TSNO
94908KDBQ DBQ20060217212510902/17/06 21:25:31  5-MIN KDBQ 180325Z AUTO 32014KT 10SM OVC120 M22/M28 A3069 370 55 -4200 320/14 RMK AO2 TSNO
94908KDBQ DBQ20060217213010902/17/06 21:30:31  5-MIN KDBQ 180330Z AUTO 32013KT 10SM OVC120 M22/M28 A3070 370 55 -4200 320/13 RMK AO2 TSNO
94908KDBQ DBQ20060217213510902/17/06 21:35:31  5-MIN KDBQ 180335Z AUTO 32013KT 10SM OVC120 M22/M28 A3070 360 55 -4200 320/13 RMK AO2 TSNO
94908KDBQ DBQ20060217214010902/17/06 21:40:31  5-MIN KDBQ 180340Z AUTO 32013KT 10SM OVC120 M22/M28 A3070 360 55 -4200 320/13 RMK AO2 TSNO
94908KDBQ DBQ20060217214510902/17/06 21:45:31  5-MIN KDBQ 180345Z AUTO 32011KT 10SM BKN120 M22/M28 A3070 360 58 -4200 320/11 RMK AO2 TSNO
94908KDBQ DBQ20060217215012602/17/06 21:50:31  5-MIN KDBQ 180350Z AUTO 32012KT 10SM BKN110 M22/M29 A3071 360 55 -4300 320/12 RMK AO2 SLP431 T12221289 TSNO
94908KDBQ DBQ20060217215512602/17/06 21:55:31  5-MIN KDBQ 180355Z AUTO 32013KT 10SM BKN110 M22/M29 A3071 360 55 -4300 320/13 RMK AO2 SLP432 T12221289 TSNO
94908KDBQ DBQ20060217220010902/17/06 22:00:31  5-MIN KDBQ 180400Z AUTO 32017KT 10SM SCT110 M22/M29 A3071 360 55 -4300 320/17 RMK AO2 TSNO
94908KDBQ DBQ20060217220510902/17/06 22:05:31  5-MIN KDBQ 180405Z AUTO 32013KT 10SM FEW110 M22/M29 A3071 350 55 -4300 320/13 RMK AO2 TSNO
94908KDBQ DBQ20060217221010902/17/06 22:10:31  5-MIN KDBQ 180410Z AUTO 32012KT 10SM FEW110 M22/M29 A3071 350 55 -4300 320/12 RMK AO2 TSNO
94908KDBQ DBQ20060217221510902/17/06 22:15:31  5-MIN KDBQ 180415Z AUTO 32016KT 10SM FEW110 M22/M29 A3071 360 55 -4300 320/16 RMK AO2 TSNO
94908KDBQ DBQ20060217222010602/17/06 22:20:31  5-MIN KDBQ 180420Z AUTO 33012KT 10SM CLR M23/M29 A3071 360 58 -4300 320/12 RMK AO2 TSNO
94908KDBQ DBQ20060217222510602/17/06 22:25:31  5-MIN KDBQ 180425Z AUTO 33014KT 10SM CLR M23/M29 A3071 350 58 -4300 330/14 RMK AO2 TSNO
94908KDBQ DBQ20060217223010602/17/06 22:30:31  5-MIN KDBQ 180430Z AUTO 33015KT 10SM CLR M23/M29 A3071 360 58 -4300 330/15 RMK AO2 TSNO
94908KDBQ DBQ20060217223510602/17/06 22:35:31  5-MIN KDBQ 180435Z AUTO 33014KT 10SM CLR M23/M29 A3071 360 58 -4300 330/14 RMK AO2 TSNO
94908KDBQ DBQ20060217224010602/17/06 22:40:31  5-MIN KDBQ 180440Z AUTO 33014KT 10SM CLR M23/M29 A3071 360 58 -4300 320/14 RMK AO2 TSNO
94908KDBQ DBQ20060217224510602/17/06 22:45:31  5-MIN KDBQ 180445Z AUTO 33014KT 10SM CLR M23/M29 A3071 360 58 -4300 330/14 RMK AO2 TSNO
94908KDBQ DBQ20060217225012302/17/06 22:50:31  5-MIN KDBQ 180450Z AUTO 32015KT 10SM CLR M23/M29 A3071 360 58 -4300 320/15 RMK AO2 SLP431 T12281289 TSNO
94908KDBQ DBQ20060217225512302/17/06 22:55:31  5-MIN KDBQ 180455Z AUTO 33013KT 10SM CLR M23/M29 A3071 360 58 -4300 330/13 RMK AO2 SLP431 T12281289 TSNO
94908KDBQ DBQ20060217230010602/17/06 23:00:31  5-MIN KDBQ 180500Z AUTO 33011KT 10SM CLR M23/M29 A3070 360 55 -4300 330/11 RMK AO2 TSNO
94908KDBQ DBQ20060217230510602/17/06 23:05:31  5-MIN KDBQ 180505Z AUTO 32013KT 10SM CLR M23/M29 A3071 360 55 -4300 320/13 RMK AO2 TSNO
94908KDBQ DBQ20060217231010602/17/06 23:10:31  5-MIN KDBQ 180510Z AUTO 33016KT 10SM CLR M23/M29 A3070 360 55 -4300 330/16 RMK AO2 TSNO
94908KDBQ DBQ20060217231510602/17/06 23:15:31  5-MIN KDBQ 180515Z AUTO 32014KT 10SM CLR M23/M29 A3070 370 55 -4300 320/14 RMK AO2 TSNO
94908KDBQ DBQ20060217232010602/17/06 23:20:31  5-MIN KDBQ 180520Z AUTO 32016KT 10SM CLR M23/M29 A3070 370 55 -4300 320/16 RMK AO2 TSNO
94908KDBQ DBQ20060217232510602/17/06 23:25:31  5-MIN KDBQ 180525Z AUTO 32015KT 10SM CLR M23/M29 A3070 360 55 -4300 320/15 RMK AO2 TSNO
94908KDBQ DBQ20060217233010602/17/06 23:30:31  5-MIN KDBQ 180530Z AUTO 32014KT 10SM CLR M23/M29 A3070 360 55 -4300 320/14 RMK AO2 TSNO
94908KDBQ DBQ20060217233510602/17/06 23:35:31  5-MIN KDBQ 180535Z AUTO 32013KT 10SM CLR M23/M29 A3070 370 58 -4400 320/13 RMK AO2 TSNO
94908KDBQ DBQ20060217234010602/17/06 23:40:31  5-MIN KDBQ 180540Z AUTO 33013KT 10SM CLR M23/M29 A3070 360 58 -4400 330/13 RMK AO2 TSNO
94908KDBQ DBQ20060217234510602/17/06 23:45:31  5-MIN KDBQ 180545Z AUTO 34012KT 10SM CLR M23/M29 A3070 360 58 -4400 330/12 RMK AO2 TSNO
94908KDBQ DBQ20060217235015102/17/06 23:50:31  5-MIN KDBQ 180550Z AUTO 33012KT 10SM CLR M23/M30 A3070 360 55 -4400 330/12 RMK AO2 SLP428 T12331300 11194 21233 410941233 51021 TSNO
94908KDBQ DBQ20060217235515102/17/06 23:55:31  5-MIN KDBQ 180555Z AUTO 32013KT 10SM CLR M23/M30 A3070 360 55 -4400 320/13 RMK AO2 SLP429 T12331300 11194 21233 410941233 50004 TSNO
94908KDBQ DBQ20060218000010602/18/06 00:00:38  5-MIN KDBQ 180600Z AUTO 33014KT 10SM CLR M23/M30 A3070 360 55 -4400 320/14 RMK AO2 TSNO
94908KDBQ DBQ20060218000510602/18/06 00:05:31  5-MIN KDBQ 180605Z AUTO 33016KT 10SM CLR M23/M29 A3070 360 58 -4400 320/16 RMK AO2 TSNO
94908KDBQ DBQ20060218001010602/18/06 00:10:31  5-MIN KDBQ 180610Z AUTO 33016KT 10SM CLR M23/M29 A3070 360 58 -4400 330/16 RMK AO2 TSNO
94908KDBQ DBQ20060218001510602/18/06 00:15:31  5-MIN KDBQ 180615Z AUTO 33017KT 10SM CLR M23/M29 A3070 370 58 -4400 330/17 RMK AO2 TSNO
94908KDBQ DBQ20060218002010602/18/06 00:20:31  5-MIN KDBQ 180620Z AUTO 33014KT 10SM CLR M23/M29 A3070 360 58 -4400 330/14 RMK AO2 TSNO
94908KDBQ DBQ20060218002510602/18/06 00:25:31  5-MIN KDBQ 180625Z AUTO 33014KT 10SM CLR M23/M30 A3070 360 55 -4400 320/14 RMK AO2 TSNO
94908KDBQ DBQ20060218003010602/18/06 00:30:31  5-MIN KDBQ 180630Z AUTO 33014KT 10SM CLR M23/M30 A3070 360 55 -4400 330/14 RMK AO2 TSNO
94908KDBQ DBQ20060218003510602/18/06 00:35:31  5-MIN KDBQ 180635Z AUTO 34015KT 10SM CLR M23/M30 A3070 360 55 -4400 330/15 RMK AO2 TSNO
94908KDBQ DBQ20060218004010602/18/06 00:40:31  5-MIN KDBQ 180640Z AUTO 33015KT 10SM CLR M24/M30 A3070 370 58 -4500 330/15 RMK AO2 TSNO
94908KDBQ DBQ20060218004510602/18/06 00:45:31  5-MIN KDBQ 180645Z AUTO 33016KT 10SM CLR M24/M30 A3070 360 58 -4500 330/16 RMK AO2 TSNO
94908KDBQ DBQ20060218005012302/18/06 00:50:31  5-MIN KDBQ 180650Z AUTO 33016KT 10SM CLR M24/M30 A3070 360 58 -4500 330/16 RMK AO2 SLP428 T12391300 TSNO
94908KDBQ DBQ20060218005512302/18/06 00:55:31  5-MIN KDBQ 180655Z AUTO 33015KT 10SM CLR M24/M30 A3070 360 58 -4500 330/15 RMK AO2 SLP429 T12391300 TSNO
94908KDBQ DBQ20060218010010602/18/06 01:00:31  5-MIN KDBQ 180700Z AUTO 33015KT 10SM CLR M24/M30 A3070 360 58 -4500 330/15 RMK AO2 TSNO
94908KDBQ DBQ20060218010510602/18/06 01:05:31  5-MIN KDBQ 180705Z AUTO 33015KT 10SM CLR M24/M30 A3070 360 58 -4500 330/15 RMK AO2 TSNO
94908KDBQ DBQ20060218011010602/18/06 01:10:31  5-MIN KDBQ 180710Z AUTO 33014KT 10SM CLR M24/M30 A3070 370 58 -4500 330/14 RMK AO2 TSNO
94908KDBQ DBQ20060218011510602/18/06 01:15:31  5-MIN KDBQ 180715Z AUTO 33014KT 10SM CLR M24/M30 A3070 370 58 -4500 330/14 RMK AO2 TSNO
94908KDBQ DBQ20060218012010602/18/06 01:20:31  5-MIN KDBQ 180720Z AUTO 33014KT 10SM CLR M24/M30 A3070 360 58 -4500 330/14 RMK AO2 TSNO
94908KDBQ DBQ20060218012510602/18/06 01:25:31  5-MIN KDBQ 180725Z AUTO 33014KT 10SM CLR M24/M30 A3070 360 58 -4500 330/14 RMK AO2 TSNO
94908KDBQ DBQ20060218013010602/18/06 01:30:31  5-MIN KDBQ 180730Z AUTO 33014KT 10SM CLR M24/M30 A3070 360 61 -4600 330/14 RMK AO2 TSNO
94908KDBQ DBQ20060218013510602/18/06 01:35:31  5-MIN KDBQ 180735Z AUTO 33015KT 10SM CLR M24/M30 A3070 360 61 -4600 330/15 RMK AO2 TSNO
94908KDBQ DBQ20060218014010602/18/06 01:40:31  5-MIN KDBQ 180740Z AUTO 33013KT 10SM CLR M24/M30 A3070 360 61 -4600 330/13 RMK AO2 TSNO
94908KDBQ DBQ20060218014510602/18/06 01:45:31  5-MIN KDBQ 180745Z AUTO 33014KT 10SM CLR M24/M30 A3070 360 61 -4600 330/14 RMK AO2 TSNO
94908KDBQ DBQ20060218015012302/18/06 01:50:31  5-MIN KDBQ 180750Z AUTO 33013KT 10SM CLR M24/M31 A3070 360 58 -4600 330/13 RMK AO2 SLP431 T12441306 TSNO
94908KDBQ DBQ20060218015512302/18/06 01:55:31  5-MIN KDBQ 180755Z AUTO 34014KT 10SM CLR M24/M31 A3070 360 58 -4600 340/14 RMK AO2 SLP431 T12441306 TSNO
94908KDBQ DBQ20060218020010602/18/06 02:00:31  5-MIN KDBQ 180800Z AUTO 34010KT 10SM CLR M24/M31 A3070 360 58 -4600 330/10 RMK AO2 TSNO
94908KDBQ DBQ20060218020510602/18/06 02:05:31  5-MIN KDBQ 180805Z AUTO 34010KT 10SM CLR M25/M31 A3070 360 61 -4600 340/10 RMK AO2 TSNO
94908KDBQ DBQ20060218021010602/18/06 02:10:31  5-MIN KDBQ 180810Z AUTO 34009KT 10SM CLR M25/M31 A3070 370 61 -4600 340/09 RMK AO2 TSNO
94908KDBQ DBQ20060218021510602/18/06 02:15:31  5-MIN KDBQ 180815Z AUTO 33010KT 10SM CLR M25/M31 A3070 360 61 -4600 330/10 RMK AO2 TSNO
94908KDBQ DBQ20060218022010602/18/06 02:20:31  5-MIN KDBQ 180820Z AUTO 33010KT 10SM CLR M25/M31 A3070 360 61 -4600 330/10 RMK AO2 TSNO
94908KDBQ DBQ20060218022510602/18/06 02:25:31  5-MIN KDBQ 180825Z AUTO 34008KT 10SM CLR M25/M31 A3071 360 57 -4600 340/08 RMK AO2 TSNO
94908KDBQ DBQ20060218023010602/18/06 02:30:31  5-MIN KDBQ 180830Z AUTO 35010KT 10SM CLR M25/M31 A3071 360 57 -4600 340/10 RMK AO2 TSNO
94908KDBQ DBQ20060218023510602/18/06 02:35:31  5-MIN KDBQ 180835Z AUTO 34010KT 10SM CLR M25/M31 A3071 360 57 -4600 340/10 RMK AO2 TSNO
94908KDBQ DBQ20060218024010602/18/06 02:40:31  5-MIN KDBQ 180840Z AUTO 34010KT 10SM CLR M25/M31 A3071 360 57 -4600 340/10 RMK AO2 TSNO
94908KDBQ DBQ20060218024510602/18/06 02:45:31  5-MIN KDBQ 180845Z AUTO 34009KT 10SM CLR M25/M31 A3071 360 57 -4600 340/09 RMK AO2 TSNO
94908KDBQ DBQ20060218025012902/18/06 02:50:31  5-MIN KDBQ 180850Z AUTO 35009KT 10SM CLR M25/M31 A3071 360 57 -4600 350/09 RMK AO2 SLP432 T12501311 50004 TSNO
94908KDBQ DBQ20060218025512902/18/06 02:55:31  5-MIN KDBQ 180855Z AUTO 34009KT 10SM CLR M25/M31 A3070 360 57 -4600 340/09 RMK AO2 SLP431 T12501311 50001 TSNO
94908KDBQ DBQ20060218030010602/18/06 03:00:31  5-MIN KDBQ 180900Z AUTO 33012KT 10SM CLR M25/M31 A3070 360 57 -4600 330/12 RMK AO2 TSNO
94908KDBQ DBQ20060218030510602/18/06 03:05:31  5-MIN KDBQ 180905Z AUTO 34010KT 10SM CLR M25/M31 A3070 360 57 -4600 340/10 RMK AO2 TSNO
94908KDBQ DBQ20060218031010602/18/06 03:10:31  5-MIN KDBQ 180910Z AUTO 35010KT 10SM CLR M25/M31 A3070 370 57 -4600 340/10 RMK AO2 TSNO
94908KDBQ DBQ20060218031510602/18/06 03:15:31  5-MIN KDBQ 180915Z AUTO 35008KT 10SM CLR M26/M31 A3070 360 60 -4700 350/08 RMK AO2 TSNO
94908KDBQ DBQ20060218032010602/18/06 03:20:31  5-MIN KDBQ 180920Z AUTO 35009KT 10SM CLR M25/M31 A3070 370 57 -4600 350/09 RMK AO2 TSNO
94908KDBQ DBQ20060218032510602/18/06 03:25:31  5-MIN KDBQ 180925Z AUTO 35010KT 10SM CLR M26/M31 A3070 370 60 -4700 350/10 RMK AO2 TSNO
94908KDBQ DBQ20060218033010602/18/06 03:30:31  5-MIN KDBQ 180930Z AUTO 35012KT 10SM CLR M25/M31 A3070 370 57 -4600 350/12 RMK AO2 TSNO
94908KDBQ DBQ20060218033510602/18/06 03:35:31  5-MIN KDBQ 180935Z AUTO 34010KT 10SM CLR M25/M31 A3070 360 57 -4600 340/10 RMK AO2 TSNO
94908KDBQ DBQ20060218034010602/18/06 03:40:31  5-MIN KDBQ 180940Z AUTO 35010KT 10SM CLR M25/M32 A3070 370 55 -4600 350/10 RMK AO2 TSNO
94908KDBQ DBQ20060218034510602/18/06 03:45:31  5-MIN KDBQ 180945Z AUTO 36009KT 10SM CLR M26/M32 A3070 370 57 -4700 350/09 RMK AO2 TSNO
94908KDBQ DBQ20060218035012302/18/06 03:50:31  5-MIN KDBQ 180950Z AUTO 35009KT 10SM CLR M26/M32 A3070 370 57 -4700 350/09 RMK AO2 SLP430 T12561317 TSNO
94908KDBQ DBQ20060218035512302/18/06 03:55:31  5-MIN KDBQ 180955Z AUTO 35009KT 10SM CLR M26/M32 A3069 370 57 -4700 350/09 RMK AO2 SLP428 T12561317 TSNO
94908KDBQ DBQ20060218040010602/18/06 04:00:31  5-MIN KDBQ 181000Z AUTO 35010KT 10SM CLR M26/M32 A3069 380 57 -4700 350/10 RMK AO2 TSNO
94908KDBQ DBQ20060218040510602/18/06 04:05:31  5-MIN KDBQ 181005Z AUTO 35010KT 10SM CLR M26/M32 A3068 380 57 -4700 350/10 RMK AO2 TSNO
94908KDBQ DBQ20060218041010602/18/06 04:10:31  5-MIN KDBQ 181010Z AUTO 35010KT 10SM CLR M26/M32 A3068 380 57 -4700 350/10 RMK AO2 TSNO
94908KDBQ DBQ20060218041510602/18/06 04:15:31  5-MIN KDBQ 181015Z AUTO 36011KT 10SM CLR M26/M32 A3068 380 57 -4700 360/11 RMK AO2 TSNO
94908KDBQ DBQ20060218042010602/18/06 04:20:31  5-MIN KDBQ 181020Z AUTO 36010KT 10SM CLR M26/M32 A3068 380 57 -4700 360/10 RMK AO2 TSNO
94908KDBQ DBQ20060218042510602/18/06 04:25:31  5-MIN KDBQ 181025Z AUTO 36010KT 10SM CLR M26/M32 A3068 380 60 -4800 360/10 RMK AO2 TSNO
94908KDBQ DBQ20060218043010602/18/06 04:30:31  5-MIN KDBQ 181030Z AUTO 36009KT 10SM CLR M26/M32 A3068 380 57 -4700 360/09 RMK AO2 TSNO
94908KDBQ DBQ20060218043510602/18/06 04:35:31  5-MIN KDBQ 181035Z AUTO 01009KT 10SM CLR M26/M32 A3068 380 60 -4800 010/09 RMK AO2 TSNO
94908KDBQ DBQ20060218044010602/18/06 04:40:31  5-MIN KDBQ 181040Z AUTO 01009KT 10SM CLR M26/M32 A3068 380 60 -4800 010/09 RMK AO2 TSNO
94908KDBQ DBQ20060218044510602/18/06 04:45:31  5-MIN KDBQ 181045Z AUTO 36009KT 10SM CLR M26/M32 A3068 380 60 -4800 360/09 RMK AO2 TSNO
94908KDBQ DBQ20060218045012302/18/06 04:50:31  5-MIN KDBQ 181050Z AUTO 36008KT 10SM CLR M26/M32 A3069 380 57 -4800 360/08 RMK AO2 SLP427 T12611322 TSNO
94908KDBQ DBQ20060218045512302/18/06 04:55:31  5-MIN KDBQ 181055Z AUTO 36008KT 10SM CLR M27/M32 A3069 380 60 -4900 360/08 RMK AO2 SLP428 T12671322 TSNO
94908KDBQ DBQ20060218050010602/18/06 05:00:31  5-MIN KDBQ 181100Z AUTO 36008KT 10SM CLR M27/M32 A3069 370 60 -4900 360/08 RMK AO2 TSNO
94908KDBQ DBQ20060218050510602/18/06 05:05:31  5-MIN KDBQ 181105Z AUTO 35009KT 10SM CLR M26/M32 A3069 370 57 -4800 350/09 RMK AO2 TSNO
94908KDBQ DBQ20060218051010602/18/06 05:10:31  5-MIN KDBQ 181110Z AUTO 34009KT 10SM CLR M26/M32 A3070 370 57 -4800 340/09 RMK AO2 TSNO
94908KDBQ DBQ20060218051510602/18/06 05:15:31  5-MIN KDBQ 181115Z AUTO 35009KT 10SM CLR M27/M32 A3070 370 60 -4900 350/09 RMK AO2 TSNO
94908KDBQ DBQ20060218052010602/18/06 05:20:31  5-MIN KDBQ 181120Z AUTO 34007KT 10SM CLR M26/M32 A3070 370 57 -4800 340/07 RMK AO2 TSNO
94908KDBQ DBQ20060218052510602/18/06 05:25:31  5-MIN KDBQ 181125Z AUTO 35007KT 10SM CLR M27/M32 A3070 360 60 -4900 340/07 RMK AO2 TSNO
94908KDBQ DBQ20060218053010602/18/06 05:30:31  5-MIN KDBQ 181130Z AUTO 35007KT 10SM CLR M27/M32 A3070 360 60 -4900 350/07 RMK AO2 TSNO
94908KDBQ DBQ20060218053510602/18/06 05:35:31  5-MIN KDBQ 181135Z AUTO 35006KT 10SM CLR M27/M32 A3070 360 60 -4900 350/06 RMK AO2 TSNO
94908KDBQ DBQ20060218054010602/18/06 05:40:31  5-MIN KDBQ 181140Z AUTO 35007KT 10SM CLR M27/M32 A3071 360 60 -4900 350/07 RMK AO2 TSNO
94908KDBQ DBQ20060218054510602/18/06 05:45:31  5-MIN KDBQ 181145Z AUTO 35005KT 10SM CLR M27/M32 A3071 360 60 -4900 340/05 RMK AO2 TSNO
94908KDBQ DBQ20060218055013102/18/06 05:50:31  5-MIN KDBQ 181150Z 36005KT 10SM CLR M27/M32 A3071 360 60 -4900 350/05 RMK AO2 SLP436 T12671322 11233 21267 50001
94908KDBQ DBQ20060218055513102/18/06 05:55:31  5-MIN KDBQ 181155Z 35004KT 10SM CLR M27/M32 A3071 350 60 -4900 350/04 RMK AO2 SLP437 T12671322 11233 21267 53003
94908KDBQ DBQ20060218060009602/18/06 06:00:31  5-MIN KDBQ 181200Z 36003KT 10SM CLR M27/M32 A3071 350 60 -4900 360/03 RMK AO2
94908KDBQ DBQ20060218060509602/18/06 06:05:31  5-MIN KDBQ 181205Z 35004KT 10SM CLR M27/M32 A3071 360 60 -4900 350/04 RMK AO2
94908KDBQ DBQ20060218061009602/18/06 06:10:31  5-MIN KDBQ 181210Z 33005KT 10SM CLR M27/M32 A3071 350 60 -4900 330/05 RMK AO2
94908KDBQ DBQ20060218061509602/18/06 06:15:31  5-MIN KDBQ 181215Z 32004KT 10SM CLR M27/M33 A3072 350 60 -5000 310/04 RMK AO2
94908KDBQ DBQ20060218062009602/18/06 06:20:31  5-MIN KDBQ 181220Z 31004KT 10SM CLR M27/M32 A3072 350 60 -4900 310/04 RMK AO2
94908KDBQ DBQ20060218062509602/18/06 06:25:31  5-MIN KDBQ 181225Z 29004KT 10SM CLR M27/M32 A3072 350 60 -4900 290/04 RMK AO2
94908KDBQ DBQ20060218063009602/18/06 06:30:31  5-MIN KDBQ 181230Z 29004KT 10SM CLR M27/M32 A3071 350 63 -5000 290/04 RMK AO2
94908KDBQ DBQ20060218063509602/18/06 06:35:31  5-MIN KDBQ 181235Z 29005KT 10SM CLR M28/M33 A3072 350 63 -5100 290/05 RMK AO2
94908KDBQ DBQ20060218064009602/18/06 06:40:31  5-MIN KDBQ 181240Z 30004KT 10SM CLR M27/M33 A3071 350 60 -5000 300/04 RMK AO2
94908KDBQ DBQ20060218064509602/18/06 06:45:31  5-MIN KDBQ 181245Z 28003KT 10SM CLR M28/M32 A3071 350 66 -5000 280/03 RMK AO2
94908KDBQ DBQ20060218065011302/18/06 06:50:31  5-MIN KDBQ 181250Z 26003KT 10SM CLR M27/M32 A3071 350 63 -5000 260/03 RMK AO2 SLP439 T12721322
94908KDBQ DBQ20060218065511302/18/06 06:55:31  5-MIN KDBQ 181255Z 25003KT 10SM CLR M27/M32 A3071 350 63 -5000 250/03 RMK AO2 SLP439 T12721322
94908KDBQ DBQ20060218070009602/18/06 07:00:31  5-MIN KDBQ 181300Z 26004KT 10SM CLR M28/M32 A3072 350 66 -5000 260/04 RMK AO2
94908KDBQ DBQ20060218070509602/18/06 07:05:31  5-MIN KDBQ 181305Z 27004KT 10SM CLR M28/M32 A3072 350 66 -5100 270/04 RMK AO2
94908KDBQ DBQ20060218071009602/18/06 07:10:31  5-MIN KDBQ 181310Z 28005KT 10SM CLR M27/M32 A3071 350 63 -5000 280/05 RMK AO2
94908KDBQ DBQ20060218071509602/18/06 07:15:31  5-MIN KDBQ 181315Z 28005KT 10SM CLR M27/M32 A3071 350 63 -5000 280/05 RMK AO2
94908KDBQ DBQ20060218072009602/18/06 07:20:31  5-MIN KDBQ 181320Z 27005KT 10SM CLR M27/M32 A3072 350 63 -5000 270/05 RMK AO2
94908KDBQ DBQ20060218072509602/18/06 07:25:31  5-MIN KDBQ 181325Z 28006KT 10SM CLR M28/M32 A3072 350 66 -5100 280/06 RMK AO2
94908KDBQ DBQ20060218073009602/18/06 07:30:31  5-MIN KDBQ 181330Z 27005KT 10SM CLR M28/M32 A3072 350 66 -5100 270/05 RMK AO2
94908KDBQ DBQ20060218073509602/18/06 07:35:31  5-MIN KDBQ 181335Z 27006KT 10SM CLR M28/M33 A3072 350 63 -5100 270/06 RMK AO2
94908KDBQ DBQ20060218074009602/18/06 07:40:31  5-MIN KDBQ 181340Z 28004KT 10SM CLR M28/M32 A3072 350 66 -5100 280/04 RMK AO2
94908KDBQ DBQ20060218074509602/18/06 07:45:31  5-MIN KDBQ 181345Z VRB04KT 10SM CLR M28/M32 A3072 340 66 -5100 VRB/04 RMK AO2
94908KDBQ DBQ20060218075011302/18/06 07:50:31  5-MIN KDBQ 181350Z 28004KT 10SM CLR M28/M32 A3072 350 66 -5100 270/04 RMK AO2 SLP442 T12781322
94908KDBQ DBQ20060218075511302/18/06 07:55:31  5-MIN KDBQ 181355Z 28005KT 10SM CLR M27/M32 A3072 340 63 -5000 280/05 RMK AO2 SLP443 T12721322
94908KDBQ DBQ20060218080009602/18/06 08:00:31  5-MIN KDBQ 181400Z 27004KT 10SM CLR M27/M32 A3072 340 60 -4900 270/04 RMK AO2
94908KDBQ DBQ20060218080509602/18/06 08:05:31  5-MIN KDBQ 181405Z 26004KT 10SM CLR M27/M32 A3073 340 63 -5000 260/04 RMK AO2
94908KDBQ DBQ20060218081009602/18/06 08:10:31  5-MIN KDBQ 181410Z 26005KT 10SM CLR M27/M32 A3073 340 63 -5000 260/05 RMK AO2
94908KDBQ DBQ20060218081509602/18/06 08:15:31  5-MIN KDBQ 181415Z 26004KT 10SM CLR M28/M32 A3073 340 66 -5100 260/04 RMK AO2
94908KDBQ DBQ20060218082009602/18/06 08:20:31  5-MIN KDBQ 181420Z 26005KT 10SM CLR M27/M32 A3073 340 67 -5000 260/05 RMK AO2
94908KDBQ DBQ20060218082509602/18/06 08:25:31  5-MIN KDBQ 181425Z 25006KT 10SM CLR M27/M32 A3073 340 67 -5000 250/06 RMK AO2
94908KDBQ DBQ20060218083009602/18/06 08:30:31  5-MIN KDBQ 181430Z 26005KT 10SM CLR M27/M32 A3073 340 67 -5000 260/05 RMK AO2
94908KDBQ DBQ20060218083509602/18/06 08:35:31  5-MIN KDBQ 181435Z 28006KT 10SM CLR M27/M32 A3073 340 63 -4900 280/06 RMK AO2
94908KDBQ DBQ20060218084009602/18/06 08:40:31  5-MIN KDBQ 181440Z 27005KT 10SM CLR M27/M31 A3073 340 67 -4900 270/05 RMK AO2
94908KDBQ DBQ20060218084509602/18/06 08:45:31  5-MIN KDBQ 181445Z 27005KT 10SM CLR M26/M31 A3073 340 63 -4800 270/05 RMK AO2
94908KDBQ DBQ20060218085011902/18/06 08:50:31  5-MIN KDBQ 181450Z 27006KT 10SM CLR M26/M31 A3073 340 60 -4700 270/06 RMK AO2 SLP445 T12561311 53003
94908KDBQ DBQ20060218085511902/18/06 08:55:31  5-MIN KDBQ 181455Z 29006KT 10SM CLR M26/M31 A3073 340 64 -4700 290/06 RMK AO2 SLP445 T12561306 53006
94908KDBQ DBQ20060218090009602/18/06 09:00:31  5-MIN KDBQ 181500Z 29007KT 10SM CLR M25/M31 A3073 340 61 -4700 290/07 RMK AO2
94908KDBQ DBQ20060218090509602/18/06 09:05:31  5-MIN KDBQ 181505Z 29007KT 10SM CLR M25/M31 A3073 340 61 -4700 290/07 RMK AO2
94908KDBQ DBQ20060218091009602/18/06 09:10:31  5-MIN KDBQ 181510Z 30008KT 10SM CLR M25/M31 A3073 340 61 -4700 300/08 RMK AO2
94908KDBQ DBQ20060218091509602/18/06 09:15:31  5-MIN KDBQ 181515Z 30008KT 10SM CLR M24/M31 A3073 340 58 -4600 300/08 RMK AO2
94908KDBQ DBQ20060218092009602/18/06 09:20:31  5-MIN KDBQ 181520Z 30007KT 10SM CLR M24/M31 A3073 340 58 -4600 300/07 RMK AO2
94908KDBQ DBQ20060218092509602/18/06 09:25:31  5-MIN KDBQ 181525Z 31009KT 10SM CLR M24/M30 A3073 340 61 -4600 310/09 RMK AO2
94908KDBQ DBQ20060218093009602/18/06 09:30:31  5-MIN KDBQ 181530Z 30007KT 10SM CLR M24/M30 A3072 340 61 -4600 300/07 RMK AO2
94908KDBQ DBQ20060218093509602/18/06 09:35:31  5-MIN KDBQ 181535Z 31008KT 10SM CLR M24/M30 A3073 340 58 -4500 300/08 RMK AO2
94908KDBQ DBQ20060218094009602/18/06 09:40:31  5-MIN KDBQ 181540Z 30008KT 10SM CLR M24/M30 A3073 340 58 -4500 300/08 RMK AO2
94908KDBQ DBQ20060218094509602/18/06 09:45:31  5-MIN KDBQ 181545Z 30008KT 10SM CLR M24/M30 A3072 340 58 -4500 300/08 RMK AO2
94908KDBQ DBQ20060218095011302/18/06 09:50:31  5-MIN KDBQ 181550Z 31007KT 10SM CLR M23/M29 A3072 340 58 -4400 310/07 RMK AO2 SLP442 T12331294
94908KDBQ DBQ20060218095511302/18/06 09:55:31  5-MIN KDBQ 181555Z 30007KT 10SM CLR M23/M29 A3072 340 58 -4400 300/07 RMK AO2 SLP442 T12331294
94908KDBQ DBQ20060218100009602/18/06 10:00:31  5-MIN KDBQ 181600Z 30009KT 10SM CLR M23/M29 A3072 340 58 -4400 300/09 RMK AO2
94908KDBQ DBQ20060218100509602/18/06 10:05:31  5-MIN KDBQ 181605Z 29007KT 10SM CLR M23/M29 A3072 340 61 -4400 290/07 RMK AO2
94908KDBQ DBQ20060218101009602/18/06 10:10:31  5-MIN KDBQ 181610Z 31008KT 10SM CLR M23/M29 A3072 340 58 -4300 300/08 RMK AO2
94908KDBQ DBQ20060218101509602/18/06 10:15:31  5-MIN KDBQ 181615Z 31008KT 10SM CLR M23/M29 A3073 340 58 -4400 300/08 RMK AO2
94908KDBQ DBQ20060218102009602/18/06 10:20:31  5-MIN KDBQ 181620Z 31009KT 10SM CLR M23/M29 A3073 340 58 -4400 300/09 RMK AO2
94908KDBQ DBQ20060218102509602/18/06 10:25:31  5-MIN KDBQ 181625Z 30009KT 10SM CLR M23/M28 A3073 340 61 -4400 300/09 RMK AO2
94908KDBQ DBQ20060218103009602/18/06 10:30:31  5-MIN KDBQ 181630Z 29009KT 10SM CLR M22/M28 A3073 340 58 -4300 290/09 RMK AO2
94908KDBQ DBQ20060218103509602/18/06 10:35:31  5-MIN KDBQ 181635Z 29007KT 10SM CLR M22/M28 A3073 340 58 -4300 290/07 RMK AO2
94908KDBQ DBQ20060218104009602/18/06 10:40:31  5-MIN KDBQ 181640Z 28008KT 10SM CLR M22/M28 A3073 340 58 -4300 280/08 RMK AO2
94908KDBQ DBQ20060218104509602/18/06 10:45:31  5-MIN KDBQ 181645Z 27009KT 10SM CLR M22/M28 A3073 340 58 -4300 270/09 RMK AO2
94908KDBQ DBQ20060218105011302/18/06 10:50:31  5-MIN KDBQ 181650Z 28009KT 10SM CLR M22/M28 A3073 340 61 -4300 280/09 RMK AO2 SLP443 T12221278
94908KDBQ DBQ20060218105511302/18/06 10:55:31  5-MIN KDBQ 181655Z 28008KT 10SM CLR M22/M28 A3073 340 61 -4300 280/08 RMK AO2 SLP443 T12221278
94908KDBQ DBQ20060218110009602/18/06 11:00:31  5-MIN KDBQ 181700Z 28009KT 10SM CLR M22/M28 A3073 340 61 -4300 280/09 RMK AO2
94908KDBQ DBQ20060218110509602/18/06 11:05:31  5-MIN KDBQ 181705Z 28008KT 10SM CLR M22/M27 A3073 340 61 -4200 280/08 RMK AO2
94908KDBQ DBQ20060218111009602/18/06 11:10:31  5-MIN KDBQ 181710Z 28008KT 10SM CLR M22/M27 A3073 340 61 -4200 280/08 RMK AO2
94908KDBQ DBQ20060218111509602/18/06 11:15:31  5-MIN KDBQ 181715Z 28009KT 10SM CLR M22/M27 A3073 340 61 -4200 280/09 RMK AO2
94908KDBQ DBQ20060218112009602/18/06 11:20:31  5-MIN KDBQ 181720Z 28008KT 10SM CLR M21/M27 A3073 340 58 -4100 280/08 RMK AO2
94908KDBQ DBQ20060218112509602/18/06 11:25:31  5-MIN KDBQ 181725Z 29009KT 10SM CLR M21/M27 A3073 340 58 -4100 290/09 RMK AO2
94908KDBQ DBQ20060218113009602/18/06 11:30:31  5-MIN KDBQ 181730Z 28008KT 10SM CLR M21/M27 A3073 340 58 -4100 280/08 RMK AO2
94908KDBQ DBQ20060218113509602/18/06 11:35:31  5-MIN KDBQ 181735Z 28010KT 10SM CLR M21/M27 A3073 340 58 -4100 280/10 RMK AO2
94908KDBQ DBQ20060218114009602/18/06 11:40:31  5-MIN KDBQ 181740Z 29010KT 10SM CLR M21/M27 A3073 340 58 -4100 290/10 RMK AO2
94908KDBQ DBQ20060218114509602/18/06 11:45:31  5-MIN KDBQ 181745Z 28011KT 10SM CLR M21/M27 A3073 340 58 -4100 280/11 RMK AO2
94908KDBQ DBQ20060218115013102/18/06 11:50:31  5-MIN KDBQ 181750Z 28010KT 10SM CLR M21/M27 A3073 340 61 -4100 280/10 RMK AO2 SLP441 T12111267 11206 21278 53006
94908KDBQ DBQ20060218115513102/18/06 11:55:31  5-MIN KDBQ 181755Z 28012KT 10SM CLR M21/M27 A3072 340 59 -4000 280/12 RMK AO2 SLP441 T12061267 11206 21278 56001
94908KDBQ DBQ20060218120009602/18/06 12:00:31  5-MIN KDBQ 181800Z 29009KT 10SM CLR M21/M27 A3072 340 59 -4000 290/09 RMK AO2
94908KDBQ DBQ20060218120509602/18/06 12:05:31  5-MIN KDBQ 181805Z 29009KT 10SM CLR M20/M27 A3072 350 56 -4000 290/09 RMK AO2
94908KDBQ DBQ20060218121009602/18/06 12:10:31  5-MIN KDBQ 181810Z 30010KT 10SM CLR M20/M27 A3072 350 56 -4000 300/10 RMK AO2
94908KDBQ DBQ20060218121509602/18/06 12:15:31  5-MIN KDBQ 181815Z 29011KT 10SM CLR M20/M27 A3071 350 56 -4000 290/11 RMK AO2
94908KDBQ DBQ20060218122009602/18/06 12:20:31  5-MIN KDBQ 181820Z 30010KT 10SM CLR M20/M27 A3071 360 56 -3900 300/10 RMK AO2
94908KDBQ DBQ20060218122509602/18/06 12:25:31  5-MIN KDBQ 181825Z 29009KT 10SM CLR M20/M27 A3071 360 56 -3900 280/09 RMK AO2
94908KDBQ DBQ20060218123009602/18/06 12:30:31  5-MIN KDBQ 181830Z 29008KT 10SM CLR M20/M26 A3071 360 59 -3900 290/08 RMK AO2
94908KDBQ DBQ20060218123509602/18/06 12:35:31  5-MIN KDBQ 181835Z 29009KT 10SM CLR M20/M26 A3071 360 59 -3900 290/09 RMK AO2
94908KDBQ DBQ20060218124009602/18/06 12:40:31  5-MIN KDBQ 181840Z 28011KT 10SM CLR M19/M26 A3070 360 56 -3900 280/11 RMK AO2
94908KDBQ DBQ20060218124509602/18/06 12:45:31  5-MIN KDBQ 181845Z 27012KT 10SM CLR M19/M26 A3070 360 56 -3900 270/12 RMK AO2
94908KDBQ DBQ20060218125011302/18/06 12:50:31  5-MIN KDBQ 181850Z 29010KT 10SM CLR M19/M26 A3070 360 59 -3900 290/10 RMK AO2 SLP432 T11941256
94908KDBQ DBQ20060218125511302/18/06 12:55:31  5-MIN KDBQ 181855Z 29011KT 10SM CLR M19/M26 A3070 370 56 -3900 290/11 RMK AO2 SLP430 T11941261
94908KDBQ DBQ20060218130009602/18/06 13:00:31  5-MIN KDBQ 181900Z 28011KT 10SM CLR M19/M26 A3070 370 59 -3900 280/11 RMK AO2
94908KDBQ DBQ20060218130509602/18/06 13:05:31  5-MIN KDBQ 181905Z 29012KT 10SM CLR M19/M26 A3069 370 59 -3800 280/12 RMK AO2
94908KDBQ DBQ20060218131009602/18/06 13:10:31  5-MIN KDBQ 181910Z 29011KT 10SM CLR M19/M26 A3069 370 59 -3800 290/11 RMK AO2
94908KDBQ DBQ20060218131509602/18/06 13:15:31  5-MIN KDBQ 181915Z 28014KT 10SM CLR M19/M26 A3069 380 59 -3800 280/14 RMK AO2
94908KDBQ DBQ20060218132009602/18/06 13:20:31  5-MIN KDBQ 181920Z 27013KT 10SM CLR M19/M26 A3068 380 59 -3800 270/13 RMK AO2
94908KDBQ DBQ20060218132509602/18/06 13:25:31  5-MIN KDBQ 181925Z 29012KT 10SM CLR M19/M25 A3068 380 62 -3800 290/12 RMK AO2
94908KDBQ DBQ20060218133009602/18/06 13:30:31  5-MIN KDBQ 181930Z 27014KT 10SM CLR M19/M25 A3068 390 62 -3800 270/14 RMK AO2
94908KDBQ DBQ20060218133509602/18/06 13:35:31  5-MIN KDBQ 181935Z 27012KT 10SM CLR M19/M25 A3068 390 59 -3800 270/12 RMK AO2
94908KDBQ DBQ20060218134009602/18/06 13:40:31  5-MIN KDBQ 181940Z 28014KT 10SM CLR M19/M25 A3067 390 59 -3700 280/14 RMK AO2
94908KDBQ DBQ20060218134509602/18/06 13:45:31  5-MIN KDBQ 181945Z 28015KT 10SM CLR M19/M25 A3067 390 59 -3700 280/15 RMK AO2
94908KDBQ DBQ20060218135011302/18/06 13:50:31  5-MIN KDBQ 181950Z 27012KT 10SM CLR M19/M25 A3067 390 59 -3700 270/12 RMK AO2 SLP420 T11891250
94908KDBQ DBQ20060218135511302/18/06 13:55:31  5-MIN KDBQ 181955Z 27014KT 10SM CLR M19/M25 A3066 400 59 -3700 270/14 RMK AO2 SLP419 T11891250
94908KDBQ DBQ20060218140009602/18/06 14:00:31  5-MIN KDBQ 182000Z 29012KT 10SM CLR M19/M24 A3066 400 62 -3700 290/12 RMK AO2
94908KDBQ DBQ20060218140509602/18/06 14:05:31  5-MIN KDBQ 182005Z 28012KT 10SM CLR M18/M24 A3066 400 59 -3700 280/12 RMK AO2
94908KDBQ DBQ20060218141009602/18/06 14:10:31  5-MIN KDBQ 182010Z 27013KT 10SM CLR M18/M24 A3065 410 59 -3700 270/13 RMK AO2
94908KDBQ DBQ20060218141509602/18/06 14:15:31  5-MIN KDBQ 182015Z 27014KT 10SM CLR M19/M24 A3065 410 62 -3700 270/14 RMK AO2
94908KDBQ DBQ20060218142009602/18/06 14:20:31  5-MIN KDBQ 182020Z 27014KT 10SM CLR M18/M24 A3065 410 59 -3600 270/14 RMK AO2
94908KDBQ DBQ20060218142509602/18/06 14:25:31  5-MIN KDBQ 182025Z 28014KT 10SM CLR M18/M24 A3065 410 59 -3600 270/14 RMK AO2
94908KDBQ DBQ20060218143009602/18/06 14:30:31  5-MIN KDBQ 182030Z 28014KT 10SM CLR M18/M24 A3065 410 59 -3600 280/14 RMK AO2
94908KDBQ DBQ20060218143509602/18/06 14:35:31  5-MIN KDBQ 182035Z 27013KT 10SM CLR M18/M24 A3064 410 59 -3600 270/13 RMK AO2
94908KDBQ DBQ20060218144009602/18/06 14:40:31  5-MIN KDBQ 182040Z 28013KT 10SM CLR M18/M24 A3064 420 59 -3600 280/13 RMK AO2
94908KDBQ DBQ20060218144509602/18/06 14:45:31  5-MIN KDBQ 182045Z 27014KT 10SM CLR M18/M24 A3065 410 59 -3600 270/14 RMK AO2
94908KDBQ DBQ20060218145011902/18/06 14:50:31  5-MIN KDBQ 182050Z 27013KT 10SM CLR M18/M24 A3064 420 56 -3600 270/13 RMK AO2 SLP411 T11781244 56001
94908KDBQ DBQ20060218145511902/18/06 14:55:31  5-MIN KDBQ 182055Z 28010KT 10SM CLR M18/M24 A3064 420 56 -3600 280/10 RMK AO2 SLP411 T11781244 56027
94908KDBQ DBQ20060218150009602/18/06 15:00:31  5-MIN KDBQ 182100Z 27014KT 10SM CLR M18/M24 A3064 420 56 -3600 270/14 RMK AO2
94908KDBQ DBQ20060218150509602/18/06 15:05:31  5-MIN KDBQ 182105Z 28013KT 10SM CLR M18/M24 A3064 420 56 -3600 280/13 RMK AO2
94908KDBQ DBQ20060218151009602/18/06 15:10:31  5-MIN KDBQ 182110Z 28014KT 10SM CLR M18/M24 A3064 420 56 -3600 280/14 RMK AO2
94908KDBQ DBQ20060218151509602/18/06 15:15:31  5-MIN KDBQ 182115Z 28013KT 10SM CLR M18/M24 A3064 420 56 -3600 280/13 RMK AO2
94908KDBQ DBQ20060218152009602/18/06 15:20:31  5-MIN KDBQ 182120Z 28012KT 10SM CLR M18/M24 A3063 420 56 -3600 280/12 RMK AO2
94908KDBQ DBQ20060218152509602/18/06 15:25:31  5-MIN KDBQ 182125Z 28013KT 10SM CLR M18/M24 A3063 420 56 -3600 280/13 RMK AO2
94908KDBQ DBQ20060218153009602/18/06 15:30:31  5-MIN KDBQ 182130Z 28011KT 10SM CLR M18/M24 A3064 420 56 -3600 280/11 RMK AO2
94908KDBQ DBQ20060218153509602/18/06 15:35:31  5-MIN KDBQ 182135Z 28014KT 10SM CLR M18/M24 A3063 430 59 -3600 280/14 RMK AO2
94908KDBQ DBQ20060218154009602/18/06 15:40:31  5-MIN KDBQ 182140Z 28015KT 10SM CLR M18/M24 A3063 420 56 -3600 280/15 RMK AO2
94908KDBQ DBQ20060218154509602/18/06 15:45:31  5-MIN KDBQ 182145Z 28013KT 10SM CLR M18/M24 A3063 420 59 -3600 280/13 RMK AO2
94908KDBQ DBQ20060218155011302/18/06 15:50:31  5-MIN KDBQ 182150Z 28015KT 10SM CLR M18/M24 A3063 420 59 -3600 280/15 RMK AO2 SLP409 T11781239
94908KDBQ DBQ20060218155511302/18/06 15:55:31  5-MIN KDBQ 182155Z 28013KT 10SM CLR M17/M24 A3063 430 54 -3500 280/13 RMK AO2 SLP409 T11721244
94908KDBQ DBQ20060218160009602/18/06 16:00:31  5-MIN KDBQ 182200Z 28011KT 10SM CLR M17/M24 A3063 430 57 -3500 280/11 RMK AO2
94908KDBQ DBQ20060218160509602/18/06 16:05:31  5-MIN KDBQ 182205Z 28014KT 10SM CLR M17/M24 A3063 430 57 -3500 280/14 RMK AO2
94908KDBQ DBQ20060218161009602/18/06 16:10:31  5-MIN KDBQ 182210Z 27013KT 10SM CLR M17/M24 A3063 430 57 -3500 270/13 RMK AO2
94908KDBQ DBQ20060218161509602/18/06 16:15:31  5-MIN KDBQ 182215Z 29011KT 10SM CLR M17/M24 A3063 430 57 -3500 290/11 RMK AO2
94908KDBQ DBQ20060218162009602/18/06 16:20:31  5-MIN KDBQ 182220Z 28013KT 10SM CLR M17/M24 A3063 430 57 -3500 280/13 RMK AO2
94908KDBQ DBQ20060218162509602/18/06 16:25:31  5-MIN KDBQ 182225Z 28011KT 10SM CLR M17/M24 A3062 430 57 -3500 280/11 RMK AO2
94908KDBQ DBQ20060218163009602/18/06 16:30:31  5-MIN KDBQ 182230Z 28011KT 10SM CLR M17/M24 A3062 440 57 -3500 280/11 RMK AO2
94908KDBQ DBQ20060218163509602/18/06 16:35:31  5-MIN KDBQ 182235Z 28011KT 10SM CLR M17/M24 A3062 440 57 -3500 280/11 RMK AO2
94908KDBQ DBQ20060218164009602/18/06 16:40:31  5-MIN KDBQ 182240Z 29011KT 10SM CLR M17/M24 A3062 440 57 -3500 290/11 RMK AO2
94908KDBQ DBQ20060218164509602/18/06 16:45:31  5-MIN KDBQ 182245Z 28010KT 10SM CLR M17/M24 A3062 440 57 -3500 280/10 RMK AO2
94908KDBQ DBQ20060218165011302/18/06 16:50:31  5-MIN KDBQ 182250Z 28010KT 10SM CLR M17/M24 A3061 440 57 -3500 280/10 RMK AO2 SLP402 T11721239
94908KDBQ DBQ20060218165511302/18/06 16:55:31  5-MIN KDBQ 182255Z 29010KT 10SM CLR M17/M24 A3061 440 57 -3500 280/10 RMK AO2 SLP403 T11721239
94908KDBQ DBQ20060218170009602/18/06 17:00:31  5-MIN KDBQ 182300Z 28011KT 10SM CLR M17/M24 A3061 450 57 -3400 280/11 RMK AO2
94908KDBQ DBQ20060218170509602/18/06 17:05:31  5-MIN KDBQ 182305Z 28009KT 10SM CLR M18/M24 A3061 450 59 -3500 280/09 RMK AO2
94908KDBQ DBQ20060218171009602/18/06 17:10:31  5-MIN KDBQ 182310Z 28011KT 10SM CLR M18/M24 A3061 450 59 -3500 280/11 RMK AO2
94908KDBQ DBQ20060218171509602/18/06 17:15:31  5-MIN KDBQ 182315Z 28012KT 10SM CLR M18/M24 A3060 450 59 -3500 280/12 RMK AO2
94908KDBQ DBQ20060218172009602/18/06 17:20:31  5-MIN KDBQ 182320Z 28009KT 10SM CLR M18/M24 A3060 450 59 -3500 280/09 RMK AO2
94908KDBQ DBQ20060218172509602/18/06 17:25:31  5-MIN KDBQ 182325Z 27007KT 10SM CLR M18/M24 A3060 460 59 -3500 270/07 RMK AO2
94908KDBQ DBQ20060218173009602/18/06 17:30:31  5-MIN KDBQ 182330Z 27006KT 10SM CLR M18/M24 A3060 460 59 -3600 270/06 RMK AO2
94908KDBQ DBQ20060218173509602/18/06 17:35:31  5-MIN KDBQ 182335Z 26005KT 10SM CLR M18/M24 A3060 460 59 -3600 260/05 RMK AO2
94908KDBQ DBQ20060218174009602/18/06 17:40:31  5-MIN KDBQ 182340Z 24005KT 10SM CLR M18/M24 A3060 460 59 -3600 240/05 RMK AO2
94908KDBQ DBQ20060218174509602/18/06 17:45:31  5-MIN KDBQ 182345Z 25006KT 10SM CLR M19/M24 A3060 460 62 -3700 250/06 RMK AO2
94908KDBQ DBQ20060218175013102/18/06 17:50:31  5-MIN KDBQ 182350Z 26006KT 10SM CLR M19/M24 A3059 460 65 -3700 260/06 RMK AO2 SLP397 T11941244 11172 21206 56027
94908KDBQ DBQ20060218175513102/18/06 17:55:31  5-MIN KDBQ 182355Z 26007KT 10SM CLR M19/M24 A3059 460 65 -3700 260/07 RMK AO2 SLP397 T11941244 11172 21206 58016
94908KDBQ DBQ20060218180009602/18/06 18:00:31  5-MIN KDBQ 190000Z 25007KT 10SM CLR M19/M24 A3059 460 65 -3700 250/07 RMK AO2
94908KDBQ DBQ20060218180509602/18/06 18:05:31  5-MIN KDBQ 190005Z 25007KT 10SM CLR M19/M25 A3059 460 62 -3700 250/07 RMK AO2
94908KDBQ DBQ20060218181009602/18/06 18:10:31  5-MIN KDBQ 190010Z 25007KT 10SM CLR M20/M25 A3059 460 65 -3800 250/07 RMK AO2
94908KDBQ DBQ20060218181509602/18/06 18:15:31  5-MIN KDBQ 190015Z 25005KT 10SM CLR M20/M25 A3059 460 65 -3800 250/05 RMK AO2
94908KDBQ DBQ20060218182009602/18/06 18:20:31  5-MIN KDBQ 190020Z 25005KT 10SM CLR M20/M25 A3059 460 65 -3800 250/05 RMK AO2
94908KDBQ DBQ20060218182509602/18/06 18:25:31  5-MIN KDBQ 190025Z 25005KT 10SM CLR M20/M25 A3059 460 65 -3800 250/05 RMK AO2
94908KDBQ DBQ20060218183009602/18/06 18:30:31  5-MIN KDBQ 190030Z 26006KT 10SM CLR M20/M25 A3059 460 65 -3800 260/06 RMK AO2
94908KDBQ DBQ20060218183509602/18/06 18:35:31  5-MIN KDBQ 190035Z 26006KT 10SM CLR M20/M25 A3059 460 65 -3800 260/06 RMK AO2
94908KDBQ DBQ20060218184009602/18/06 18:40:31  5-MIN KDBQ 190040Z 26006KT 10SM CLR M20/M25 A3059 460 65 -3800 260/06 RMK AO2
94908KDBQ DBQ20060218184509602/18/06 18:45:31  5-MIN KDBQ 190045Z 26005KT 10SM CLR M20/M25 A3059 460 65 -3800 260/05 RMK AO2
94908KDBQ DBQ20060218185011302/18/06 18:50:31  5-MIN KDBQ 190050Z 00000KT 10SM CLR M21/M25 A3059 460 68 -3900 000/00 RMK AO2 SLP398 T12061250
94908KDBQ DBQ20060218185511302/18/06 18:55:31  5-MIN KDBQ 190055Z 17003KT 10SM CLR M20/M25 A3059 460 65 -3800 170/03 RMK AO2 SLP398 T12001250
94908KDBQ DBQ20060218190009602/18/06 19:00:31  5-MIN KDBQ 190100Z 15003KT 10SM CLR M20/M25 A3059 460 65 -3800 150/03 RMK AO2
94908KDBQ DBQ20060218190509602/18/06 19:05:31  5-MIN KDBQ 190105Z 00000KT 10SM CLR M21/M25 A3059 460 68 -3900 000/00 RMK AO2
94908KDBQ DBQ20060218191009602/18/06 19:10:31  5-MIN KDBQ 190110Z 00000KT 10SM CLR M21/M25 A3059 460 68 -3900 000/00 RMK AO2
94908KDBQ DBQ20060218191509602/18/06 19:15:31  5-MIN KDBQ 190115Z 23003KT 10SM CLR M21/M25 A3059 470 68 -3900 230/03 RMK AO2
94908KDBQ DBQ20060218192009602/18/06 19:20:31  5-MIN KDBQ 190120Z 24004KT 10SM CLR M20/M25 A3059 460 65 -3800 240/04 RMK AO2
94908KDBQ DBQ20060218192509602/18/06 19:25:31  5-MIN KDBQ 190125Z 25004KT 10SM CLR M21/M25 A3059 460 71 -4000 240/04 RMK AO2
94908KDBQ DBQ20060218193009602/18/06 19:30:31  5-MIN KDBQ 190130Z 25004KT 10SM CLR M21/M25 A3059 460 68 -3900 250/04 RMK AO2
94908KDBQ DBQ20060218193509602/18/06 19:35:31  5-MIN KDBQ 190135Z 24004KT 10SM CLR M21/M26 A3059 460 68 -4000 240/04 RMK AO2
94908KDBQ DBQ20060218194010602/18/06 19:40:31  5-MIN KDBQ 190140Z AUTO 25004KT 10SM CLR M21/M26 A3059 470 68 -4000 250/04 RMK AO2 TSNO
94908KDBQ DBQ20060218194510602/18/06 19:45:31  5-MIN KDBQ 190145Z AUTO 00000KT 10SM CLR M22/M26 A3059 470 71 -4000 000/00 RMK AO2 TSNO
94908KDBQ DBQ20060218195012302/18/06 19:50:31  5-MIN KDBQ 190150Z AUTO 25004KT 10SM CLR M22/M26 A3059 470 71 -4100 250/04 RMK AO2 SLP397 T12221261 TSNO
94908KDBQ DBQ20060218195512302/18/06 19:55:31  5-MIN KDBQ 190155Z AUTO 24003KT 10SM CLR M22/M26 A3059 470 71 -4000 240/03 RMK AO2 SLP395 T12171256 TSNO
94908KDBQ DBQ20060218200010602/18/06 20:00:31  5-MIN KDBQ 190200Z AUTO 25003KT 10SM CLR M22/M26 A3058 470 71 -4000 250/03 RMK AO2 TSNO
94908KDBQ DBQ20060218200510602/18/06 20:05:31  5-MIN KDBQ 190205Z AUTO 00000KT 10SM CLR M22/M26 A3058 470 71 -4100 000/00 RMK AO2 TSNO
94908KDBQ DBQ20060218201010602/18/06 20:10:31  5-MIN KDBQ 190210Z AUTO 24003KT 10SM CLR M22/M26 A3058 470 75 -4100 240/03 RMK AO2 TSNO
94908KDBQ DBQ20060218201510602/18/06 20:15:31  5-MIN KDBQ 190215Z AUTO 26003KT 10SM CLR M22/M26 A3058 470 71 -4000 260/03 RMK AO2 TSNO
94908KDBQ DBQ20060218202010602/18/06 20:20:31  5-MIN KDBQ 190220Z AUTO 00000KT 10SM CLR M21/M26 A3058 480 68 -3900 000/00 RMK AO2 TSNO
94908KDBQ DBQ20060218202510602/18/06 20:25:31  5-MIN KDBQ 190225Z AUTO 00000KT 10SM CLR M22/M26 A3057 480 71 -4000 000/00 RMK AO2 TSNO
94908KDBQ DBQ20060218203010602/18/06 20:30:31  5-MIN KDBQ 190230Z AUTO 00000KT 10SM CLR M22/M26 A3057 480 71 -4000 000/00 RMK AO2 TSNO
94908KDBQ DBQ20060218203510602/18/06 20:35:31  5-MIN KDBQ 190235Z AUTO 00000KT 10SM CLR M22/M26 A3057 480 75 -4100 000/00 RMK AO2 TSNO
94908KDBQ DBQ20060218204010602/18/06 20:40:31  5-MIN KDBQ 190240Z AUTO 00000KT 10SM CLR M22/M26 A3057 480 75 -4100 000/00 RMK AO2 TSNO
94908KDBQ DBQ20060218204510602/18/06 20:45:31  5-MIN KDBQ 190245Z AUTO 00000KT 10SM CLR M22/M26 A3057 480 75 -4100 000/00 RMK AO2 TSNO
94908KDBQ DBQ20060218205012902/18/06 20:50:31  5-MIN KDBQ 190250Z AUTO 00000KT 10SM CLR M22/M26 A3057 480 75 -4100 000/00 RMK AO2 SLP391 T12221256 58016 TSNO
94908KDBQ DBQ20060218205512902/18/06 20:55:31  5-MIN KDBQ 190255Z AUTO 00000KT 10SM CLR M22/M26 A3057 480 75 -4100 000/00 RMK AO2 SLP390 T12221256 58007 TSNO
94908KDBQ DBQ20060218210010602/18/06 21:00:31  5-MIN KDBQ 190300Z AUTO 00000KT 10SM CLR M22/M26 A3057 480 71 -4000 000/00 RMK AO2 TSNO
94908KDBQ DBQ20060218210510602/18/06 21:05:31  5-MIN KDBQ 190305Z AUTO 00000KT 10SM CLR M23/M26 A3057 480 75 -4200 000/00 RMK AO2 TSNO
94908KDBQ DBQ20060218211010602/18/06 21:10:31  5-MIN KDBQ 190310Z AUTO 28003KT 10SM CLR M22/M26 A3057 480 71 -4100 270/03 RMK AO2 TSNO
94908KDBQ DBQ20060218211510602/18/06 21:15:31  5-MIN KDBQ 190315Z AUTO 26003KT 10SM CLR M23/M26 A3057 480 75 -4200 260/03 RMK AO2 TSNO
94908KDBQ DBQ20060218212010602/18/06 21:20:31  5-MIN KDBQ 190320Z AUTO 00000KT 10SM CLR M22/M26 A3057 480 71 -4100 000/00 RMK AO2 TSNO
94908KDBQ DBQ20060218212510602/18/06 21:25:31  5-MIN KDBQ 190325Z AUTO 26003KT 10SM CLR M23/M26 A3057 480 75 -4200 260/03 RMK AO2 TSNO
94908KDBQ DBQ20060218213010602/18/06 21:30:31  5-MIN KDBQ 190330Z AUTO 26004KT 10SM CLR M23/M26 A3057 480 75 -4200 260/04 RMK AO2 TSNO
94908KDBQ DBQ20060218213510602/18/06 21:35:31  5-MIN KDBQ 190335Z AUTO 26004KT 10SM CLR M22/M26 A3057 480 71 -4100 260/04 RMK AO2 TSNO
94908KDBQ DBQ20060218214010602/18/06 21:40:31  5-MIN KDBQ 190340Z AUTO 24004KT 10SM CLR M23/M26 A3057 480 75 -4200 240/04 RMK AO2 TSNO
94908KDBQ DBQ20060218214510602/18/06 21:45:31  5-MIN KDBQ 190345Z AUTO 23004KT 10SM CLR M23/M26 A3057 480 75 -4200 230/04 RMK AO2 TSNO
94908KDBQ DBQ20060218215012302/18/06 21:50:31  5-MIN KDBQ 190350Z AUTO 25004KT 10SM CLR M23/M27 A3057 480 74 -4300 250/04 RMK AO2 SLP389 T12331267 TSNO
94908KDBQ DBQ20060218215512302/18/06 21:55:31  5-MIN KDBQ 190355Z AUTO 24003KT 10SM CLR M23/M27 A3057 480 71 -4200 240/03 RMK AO2 SLP389 T12281267 TSNO
94908KDBQ DBQ20060218220010602/18/06 22:00:31  5-MIN KDBQ 190400Z AUTO 22003KT 10SM CLR M23/M27 A3057 480 74 -4200 220/03 RMK AO2 TSNO
94908KDBQ DBQ20060218220510602/18/06 22:05:31  5-MIN KDBQ 190405Z AUTO 00000KT 10SM CLR M23/M27 A3057 480 74 -4200 000/00 RMK AO2 TSNO
94908KDBQ DBQ20060218221010602/18/06 22:10:31  5-MIN KDBQ 190410Z AUTO 00000KT 10SM CLR M23/M27 A3057 490 71 -4200 000/00 RMK AO2 TSNO
94908KDBQ DBQ20060218221510602/18/06 22:15:31  5-MIN KDBQ 190415Z AUTO 00000KT 10SM CLR M22/M26 A3057 490 71 -4100 000/00 RMK AO2 TSNO
94908KDBQ DBQ20060218222010602/18/06 22:20:31  5-MIN KDBQ 190420Z AUTO 00000KT 10SM CLR M22/M26 A3056 490 71 -4100 000/00 RMK AO2 TSNO
94908KDBQ DBQ20060218222510602/18/06 22:25:31  5-MIN KDBQ 190425Z AUTO 00000KT 10SM CLR M22/M26 A3056 490 71 -4000 000/00 RMK AO2 TSNO
94908KDBQ DBQ20060218223010602/18/06 22:30:31  5-MIN KDBQ 190430Z AUTO 00000KT 10SM CLR M22/M25 A3056 490 75 -4000 000/00 RMK AO2 TSNO
94908KDBQ DBQ20060218223510602/18/06 22:35:31  5-MIN KDBQ 190435Z AUTO 00000KT 10SM CLR M22/M25 A3056 500 75 -4000 000/00 RMK AO2 TSNO
94908KDBQ DBQ20060218224010602/18/06 22:40:31  5-MIN KDBQ 190440Z AUTO 00000KT 10SM CLR M21/M25 A3055 500 68 -3800 000/00 RMK AO2 TSNO
94908KDBQ DBQ20060218224510602/18/06 22:45:31  5-MIN KDBQ 190445Z AUTO 00000KT 10SM CLR M21/M24 A3055 500 75 -3900 000/00 RMK AO2 TSNO
94908KDBQ DBQ20060218225012302/18/06 22:50:31  5-MIN KDBQ 190450Z AUTO 00000KT 10SM CLR M22/M25 A3055 500 78 -4100 000/00 RMK AO2 SLP381 T12221250 TSNO
94908KDBQ DBQ20060218225512302/18/06 22:55:31  5-MIN KDBQ 190455Z AUTO 00000KT 10SM CLR M22/M26 A3055 500 71 -4000 000/00 RMK AO2 SLP380 T12171256 TSNO
94908KDBQ DBQ20060218230010602/18/06 23:00:31  5-MIN KDBQ 190500Z AUTO VRB03KT 10SM CLR M23/M26 A3055 500 78 -4100 VRB/03 RMK AO2 TSNO
94908KDBQ DBQ20060218230510602/18/06 23:05:31  5-MIN KDBQ 190505Z AUTO 19003KT 10SM CLR M23/M26 A3055 500 75 -4100 190/03 RMK AO2 TSNO
94908KDBQ DBQ20060218231010602/18/06 23:10:31  5-MIN KDBQ 190510Z AUTO 00000KT 10SM CLR M23/M26 A3055 500 75 -4100 000/00 RMK AO2 TSNO
94908KDBQ DBQ20060218231510602/18/06 23:15:31  5-MIN KDBQ 190515Z AUTO 00000KT 10SM CLR M23/M26 A3055 500 78 -4100 000/00 RMK AO2 TSNO
94908KDBQ DBQ20060218232010602/18/06 23:20:31  5-MIN KDBQ 190520Z AUTO 21003KT 10SM CLR M23/M26 A3055 500 78 -4100 210/03 RMK AO2 TSNO
94908KDBQ DBQ20060218232510602/18/06 23:25:31  5-MIN KDBQ 190525Z AUTO 00000KT 10SM CLR M23/M26 A3055 500 78 -4100 000/00 RMK AO2 TSNO
94908KDBQ DBQ20060218233010602/18/06 23:30:31  5-MIN KDBQ 190530Z AUTO 00000KT 10SM CLR M23/M26 A3054 510 78 -4200 000/00 RMK AO2 TSNO
94908KDBQ DBQ20060218233510602/18/06 23:35:31  5-MIN KDBQ 190535Z AUTO 00000KT 10SM CLR M23/M26 A3054 510 78 -4200 000/00 RMK AO2 TSNO
94908KDBQ DBQ20060218234010602/18/06 23:40:31  5-MIN KDBQ 190540Z AUTO 23003KT 10SM CLR M23/M26 A3055 510 75 -4100 220/03 RMK AO2 TSNO
94908KDBQ DBQ20060218234510602/18/06 23:45:31  5-MIN KDBQ 190545Z AUTO 24004KT 10SM CLR M23/M26 A3054 510 78 -4200 240/04 RMK AO2 TSNO
94908KDBQ DBQ20060218235015102/18/06 23:50:31  5-MIN KDBQ 190550Z AUTO 24004KT 10SM CLR M23/M26 A3054 510 78 -4200 240/04 RMK AO2 SLP379 T12331261 11194 21233 411721278 58007 TSNO
94908KDBQ DBQ20060218235515102/18/06 23:55:31  5-MIN KDBQ 190555Z AUTO 25004KT 10SM CLR M23/M27 A3054 510 74 -4200 250/04 RMK AO2 SLP379 T12331267 11194 21233 411721278 58009 TSNO
94908KDBQ DBQ20060219000010602/19/06 00:00:38  5-MIN KDBQ 190600Z AUTO 23003KT 10SM CLR M23/M26 A3054 510 75 -4100 230/03 RMK AO2 TSNO
94908KDBQ DBQ20060219000510602/19/06 00:05:31  5-MIN KDBQ 190605Z AUTO 22003KT 10SM CLR M24/M27 A3054 510 74 -4300 220/03 RMK AO2 TSNO
94908KDBQ DBQ20060219001010602/19/06 00:10:31  5-MIN KDBQ 190610Z AUTO 24004KT 10SM CLR M24/M27 A3054 510 78 -4300 240/04 RMK AO2 TSNO
94908KDBQ DBQ20060219001510602/19/06 00:15:31  5-MIN KDBQ 190615Z AUTO 24004KT 10SM CLR M24/M27 A3054 510 82 -4400 240/04 RMK AO2 TSNO
94908KDBQ DBQ20060219002010602/19/06 00:20:31  5-MIN KDBQ 190620Z AUTO 24004KT 10SM CLR M24/M27 A3054 510 78 -4400 240/04 RMK AO2 TSNO
94908KDBQ DBQ20060219002510602/19/06 00:25:31  5-MIN KDBQ 190625Z AUTO 25004KT 10SM CLR M24/M27 A3054 510 78 -4300 240/04 RMK AO2 TSNO
94908KDBQ DBQ20060219003010602/19/06 00:30:31  5-MIN KDBQ 190630Z AUTO 24003KT 10SM CLR M24/M27 A3054 510 78 -4300 240/03 RMK AO2 TSNO
94908KDBQ DBQ20060219003510602/19/06 00:35:31  5-MIN KDBQ 190635Z AUTO 22004KT 10SM CLR M23/M27 A3054 510 74 -4200 220/04 RMK AO2 TSNO
94908KDBQ DBQ20060219004010602/19/06 00:40:31  5-MIN KDBQ 190640Z AUTO 22005KT 10SM CLR M24/M27 A3054 510 78 -4400 210/05 RMK AO2 TSNO
94908KDBQ DBQ20060219004510602/19/06 00:45:31  5-MIN KDBQ 190645Z AUTO 22004KT 10SM CLR M24/M27 A3054 510 78 -4400 220/04 RMK AO2 TSNO
94908KDBQ DBQ20060219005012302/19/06 00:50:31  5-MIN KDBQ 190650Z AUTO 23004KT 10SM CLR M24/M27 A3054 510 78 -4400 230/04 RMK AO2 SLP378 T12441272 TSNO
94908KDBQ DBQ20060219005512302/19/06 00:55:31  5-MIN KDBQ 190655Z AUTO 23006KT 10SM CLR M24/M28 A3054 510 74 -4400 220/06 RMK AO2 SLP378 T12441278 TSNO
94908KDBQ DBQ20060219010010602/19/06 01:00:31  5-MIN KDBQ 190700Z AUTO 23008KT 10SM CLR M25/M28 A3054 510 78 -4400 230/08 RMK AO2 TSNO
94908KDBQ DBQ20060219010510602/19/06 01:05:31  5-MIN KDBQ 190705Z AUTO 24007KT 10SM CLR M24/M27 A3054 510 78 -4400 240/07 RMK AO2 TSNO
94908KDBQ DBQ20060219011010602/19/06 01:10:31  5-MIN KDBQ 190710Z AUTO 23007KT 10SM CLR M24/M27 A3054 510 78 -4400 230/07 RMK AO2 TSNO
94908KDBQ DBQ20060219011510602/19/06 01:15:31  5-MIN KDBQ 190715Z AUTO 23007KT 10SM CLR M24/M27 A3053 510 78 -4300 230/07 RMK AO2 TSNO
94908KDBQ DBQ20060219012010602/19/06 01:20:31  5-MIN KDBQ 190720Z AUTO 23006KT 10SM CLR M24/M27 A3053 510 78 -4300 230/06 RMK AO2 TSNO
94908KDBQ DBQ20060219012510602/19/06 01:25:31  5-MIN KDBQ 190725Z AUTO 23006KT 10SM CLR M24/M26 A3053 510 82 -4300 230/06 RMK AO2 TSNO
94908KDBQ DBQ20060219013010602/19/06 01:30:31  5-MIN KDBQ 190730Z AUTO 23006KT 10SM CLR M24/M27 A3054 510 78 -4300 230/06 RMK AO2 TSNO
94908KDBQ DBQ20060219013510602/19/06 01:35:31  5-MIN KDBQ 190735Z AUTO 23007KT 10SM CLR M24/M27 A3054 510 78 -4400 230/07 RMK AO2 TSNO
94908KDBQ DBQ20060219014010602/19/06 01:40:31  5-MIN KDBQ 190740Z AUTO 23006KT 10SM CLR M24/M27 A3054 510 78 -4400 230/06 RMK AO2 TSNO
94908KDBQ DBQ20060219014510602/19/06 01:45:31  5-MIN KDBQ 190745Z AUTO 22006KT 10SM CLR M24/M27 A3054 510 78 -4300 220/06 RMK AO2 TSNO
94908KDBQ DBQ20060219015012302/19/06 01:50:31  5-MIN KDBQ 190750Z AUTO 22006KT 10SM CLR M24/M27 A3054 510 78 -4300 220/06 RMK AO2 SLP376 T12391267 TSNO
94908KDBQ DBQ20060219015512302/19/06 01:55:31  5-MIN KDBQ 190755Z AUTO 22006KT 10SM CLR M23/M26 A3054 510 78 -4200 220/06 RMK AO2 SLP376 T12331261 TSNO
94908KDBQ DBQ20060219020010602/19/06 02:00:31  5-MIN KDBQ 190800Z AUTO 23006KT 10SM CLR M23/M26 A3054 510 75 -4100 230/06 RMK AO2 TSNO
94908KDBQ DBQ20060219020510602/19/06 02:05:31  5-MIN KDBQ 190805Z AUTO 23006KT 10SM CLR M23/M26 A3054 510 78 -4100 230/06 RMK AO2 TSNO
94908KDBQ DBQ20060219021010602/19/06 02:10:31  5-MIN KDBQ 190810Z AUTO 23006KT 10SM CLR M23/M26 A3054 510 78 -4100 230/06 RMK AO2 TSNO
94908KDBQ DBQ20060219021510602/19/06 02:15:31  5-MIN KDBQ 190815Z AUTO 23005KT 10SM CLR M23/M26 A3053 520 75 -4100 230/05 RMK AO2 TSNO
94908KDBQ DBQ20060219022010602/19/06 02:20:31  5-MIN KDBQ 190820Z AUTO 23005KT 10SM CLR M23/M26 A3053 520 78 -4200 230/05 RMK AO2 TSNO
94908KDBQ DBQ20060219022510602/19/06 02:25:31  5-MIN KDBQ 190825Z AUTO 23004KT 10SM CLR M23/M26 A3052 520 78 -4200 230/04 RMK AO2 TSNO
94908KDBQ DBQ20060219023010602/19/06 02:30:31  5-MIN KDBQ 190830Z AUTO 22004KT 10SM CLR M24/M27 A3052 530 78 -4300 210/04 RMK AO2 TSNO
94908KDBQ DBQ20060219023510602/19/06 02:35:31  5-MIN KDBQ 190835Z AUTO 21004KT 10SM CLR M24/M27 A3052 530 78 -4300 210/04 RMK AO2 TSNO
94908KDBQ DBQ20060219024010602/19/06 02:40:31  5-MIN KDBQ 190840Z AUTO 22004KT 10SM CLR M24/M27 A3052 530 78 -4300 220/04 RMK AO2 TSNO
94908KDBQ DBQ20060219024510602/19/06 02:45:31  5-MIN KDBQ 190845Z AUTO 20006KT 10SM CLR M24/M27 A3052 530 78 -4300 200/06 RMK AO2 TSNO
94908KDBQ DBQ20060219025012902/19/06 02:50:31  5-MIN KDBQ 190850Z AUTO 21005KT 10SM CLR M24/M27 A3052 530 78 -4300 210/05 RMK AO2 SLP369 T12391267 58009 TSNO
94908KDBQ DBQ20060219025512902/19/06 02:55:31  5-MIN KDBQ 190855Z AUTO 21006KT 10SM CLR M23/M26 A3052 530 78 -4200 210/06 RMK AO2 SLP368 T12331261 58008 TSNO
94908KDBQ DBQ20060219030010602/19/06 03:00:31  5-MIN KDBQ 190900Z AUTO 21006KT 10SM CLR M23/M26 A3052 530 78 -4200 210/06 RMK AO2 TSNO
94908KDBQ DBQ20060219030510602/19/06 03:05:31  5-MIN KDBQ 190905Z AUTO 21005KT 10SM CLR M23/M26 A3051 530 78 -4200 210/05 RMK AO2 TSNO
94908KDBQ DBQ20060219031010602/19/06 03:10:31  5-MIN KDBQ 190910Z AUTO 22005KT 10SM CLR M23/M26 A3051 540 75 -4100 220/05 RMK AO2 TSNO
94908KDBQ DBQ20060219031510602/19/06 03:15:31  5-MIN KDBQ 190915Z AUTO 22005KT 10SM CLR M23/M26 A3051 540 78 -4200 220/05 RMK AO2 TSNO
94908KDBQ DBQ20060219032010602/19/06 03:20:31  5-MIN KDBQ 190920Z AUTO 20005KT 10SM CLR M23/M26 A3051 540 78 -4200 200/05 RMK AO2 TSNO
94908KDBQ DBQ20060219032510602/19/06 03:25:31  5-MIN KDBQ 190925Z AUTO 20005KT 10SM CLR M23/M26 A3051 540 75 -4100 200/05 RMK AO2 TSNO
94908KDBQ DBQ20060219033010602/19/06 03:30:31  5-MIN KDBQ 190930Z AUTO 20006KT 10SM CLR M23/M26 A3051 540 75 -4100 200/06 RMK AO2 TSNO
94908KDBQ DBQ20060219033510602/19/06 03:35:31  5-MIN KDBQ 190935Z AUTO 20005KT 10SM CLR M23/M26 A3051 540 75 -4100 200/05 RMK AO2 TSNO
94908KDBQ DBQ20060219034010602/19/06 03:40:31  5-MIN KDBQ 190940Z AUTO 21004KT 10SM CLR M23/M26 A3050 540 75 -4100 210/04 RMK AO2 TSNO
94908KDBQ DBQ20060219034510602/19/06 03:45:31  5-MIN KDBQ 190945Z AUTO 20004KT 10SM CLR M23/M26 A3050 550 78 -4200 200/04 RMK AO2 TSNO
94908KDBQ DBQ20060219035012302/19/06 03:50:31  5-MIN KDBQ 190950Z AUTO 21004KT 10SM CLR M23/M26 A3050 550 78 -4100 210/04 RMK AO2 SLP363 T12281256 TSNO
94908KDBQ DBQ20060219035512302/19/06 03:55:31  5-MIN KDBQ 190955Z AUTO 22004KT 10SM CLR M23/M26 A3050 550 78 -4100 220/04 RMK AO2 SLP361 T12281256 TSNO
94908KDBQ DBQ20060219040010602/19/06 04:00:31  5-MIN KDBQ 191000Z AUTO 22005KT 10SM CLR M23/M26 A3049 550 78 -4100 220/05 RMK AO2 TSNO
94908KDBQ DBQ20060219040510602/19/06 04:05:31  5-MIN KDBQ 191005Z AUTO 21004KT 10SM CLR M23/M26 A3049 560 78 -4100 210/04 RMK AO2 TSNO
94908KDBQ DBQ20060219041010602/19/06 04:10:31  5-MIN KDBQ 191010Z AUTO 20004KT 10SM CLR M23/M26 A3049 560 78 -4200 200/04 RMK AO2 TSNO
94908KDBQ DBQ20060219041510602/19/06 04:15:31  5-MIN KDBQ 191015Z AUTO 20004KT 10SM CLR M24/M26 A3049 560 82 -4200 200/04 RMK AO2 TSNO
94908KDBQ DBQ20060219042010602/19/06 04:20:31  5-MIN KDBQ 191020Z AUTO 19004KT 10SM CLR M24/M27 A3049 560 78 -4200 190/04 RMK AO2 TSNO
94908KDBQ DBQ20060219042510602/19/06 04:25:31  5-MIN KDBQ 191025Z AUTO 19004KT 10SM CLR M24/M27 A3048 560 78 -4200 180/04 RMK AO2 TSNO
94908KDBQ DBQ20060219043010602/19/06 04:30:31  5-MIN KDBQ 191030Z AUTO 19003KT 10SM CLR M24/M27 A3048 560 78 -4200 190/03 RMK AO2 TSNO
94908KDBQ DBQ20060219043510602/19/06 04:35:31  5-MIN KDBQ 191035Z AUTO 18004KT 10SM CLR M24/M27 A3048 560 78 -4200 180/04 RMK AO2 TSNO
94908KDBQ DBQ20060219044010602/19/06 04:40:31  5-MIN KDBQ 191040Z AUTO 19004KT 10SM CLR M24/M27 A3048 560 78 -4200 190/04 RMK AO2 TSNO
94908KDBQ DBQ20060219044510602/19/06 04:45:31  5-MIN KDBQ 191045Z AUTO 19003KT 10SM CLR M24/M27 A3048 570 78 -4200 190/03 RMK AO2 TSNO
94908KDBQ DBQ20060219045012302/19/06 04:50:31  5-MIN KDBQ 191050Z AUTO 18003KT 10SM CLR M23/M27 A3048 570 74 -4100 180/03 RMK AO2 SLP354 T12331267 TSNO
94908KDBQ DBQ20060219045512302/19/06 04:55:31  5-MIN KDBQ 191055Z AUTO 18003KT 10SM CLR M23/M26 A3048 570 78 -4100 180/03 RMK AO2 SLP354 T12331261 TSNO
94908KDBQ DBQ20060219050010602/19/06 05:00:31  5-MIN KDBQ 191100Z AUTO 18003KT 10SM CLR M23/M26 A3048 570 78 -4100 180/03 RMK AO2 TSNO
94908KDBQ DBQ20060219050510602/19/06 05:05:31  5-MIN KDBQ 191105Z AUTO 18004KT 10SM CLR M24/M26 A3047 570 82 -4200 180/04 RMK AO2 TSNO
94908KDBQ DBQ20060219051010602/19/06 05:10:31  5-MIN KDBQ 191110Z AUTO 19005KT 10SM CLR M24/M27 A3047 570 78 -4200 190/05 RMK AO2 TSNO
94908KDBQ DBQ20060219051510602/19/06 05:15:31  5-MIN KDBQ 191115Z AUTO 19005KT 10SM CLR M24/M27 A3047 570 78 -4200 190/05 RMK AO2 TSNO
94908KDBQ DBQ20060219052010602/19/06 05:20:31  5-MIN KDBQ 191120Z AUTO 19005KT 10SM CLR M24/M27 A3047 570 78 -4200 190/05 RMK AO2 TSNO
94908KDBQ DBQ20060219052510602/19/06 05:25:31  5-MIN KDBQ 191125Z AUTO 19005KT 10SM CLR M23/M27 A3047 570 74 -4100 190/05 RMK AO2 TSNO
94908KDBQ DBQ20060219053010602/19/06 05:30:31  5-MIN KDBQ 191130Z AUTO 20005KT 10SM CLR M23/M26 A3047 570 78 -4100 200/05 RMK AO2 TSNO
94908KDBQ DBQ20060219053510602/19/06 05:35:31  5-MIN KDBQ 191135Z AUTO 20005KT 10SM CLR M23/M26 A3047 570 78 -4100 200/05 RMK AO2 TSNO
94908KDBQ DBQ20060219054010602/19/06 05:40:31  5-MIN KDBQ 191140Z AUTO 20005KT 10SM CLR M23/M26 A3047 580 78 -4100 200/05 RMK AO2 TSNO
94908KDBQ DBQ20060219054510602/19/06 05:45:31  5-MIN KDBQ 191145Z AUTO 19005KT 10SM CLR M23/M26 A3047 580 78 -4100 190/05 RMK AO2 TSNO
94908KDBQ DBQ20060219055014102/19/06 05:50:31  5-MIN KDBQ 191150Z AUTO 20004KT 10SM CLR M23/M26 A3047 570 78 -4100 200/04 RMK AO2 SLP353 T12331261 11222 21250 58008 TSNO
94908KDBQ DBQ20060219055513102/19/06 05:55:31  5-MIN KDBQ 191155Z 19004KT 10SM CLR M23/M26 A3047 580 75 -4100 190/04 RMK AO2 SLP352 T12281261 11222 21250 56017
94908KDBQ DBQ20060219060009602/19/06 06:00:31  5-MIN KDBQ 191200Z 18004KT 10SM CLR M23/M26 A3047 580 78 -4100 180/04 RMK AO2
94908KDBQ DBQ20060219060509602/19/06 06:05:31  5-MIN KDBQ 191205Z 19004KT 10SM CLR M23/M26 A3046 580 78 -4100 190/04 RMK AO2
94908KDBQ DBQ20060219061009602/19/06 06:10:31  5-MIN KDBQ 191210Z 20004KT 10SM CLR M23/M26 A3046 580 78 -4100 200/04 RMK AO2
94908KDBQ DBQ20060219061509602/19/06 06:15:31  5-MIN KDBQ 191215Z 20005KT 10SM CLR M23/M26 A3046 580 78 -4100 200/05 RMK AO2
94908KDBQ DBQ20060219062009602/19/06 06:20:31  5-MIN KDBQ 191220Z 19006KT 10SM CLR M24/M27 A3046 580 78 -4200 190/06 RMK AO2
94908KDBQ DBQ20060219062509602/19/06 06:25:31  5-MIN KDBQ 191225Z 19006KT 10SM CLR M24/M27 A3046 580 78 -4200 190/06 RMK AO2
94908KDBQ DBQ20060219063009602/19/06 06:30:31  5-MIN KDBQ 191230Z 20006KT 10SM CLR M24/M27 A3046 590 78 -4200 200/06 RMK AO2
94908KDBQ DBQ20060219063509602/19/06 06:35:31  5-MIN KDBQ 191235Z 20005KT 10SM CLR M24/M27 A3045 590 78 -4200 200/05 RMK AO2
94908KDBQ DBQ20060219064009602/19/06 06:40:31  5-MIN KDBQ 191240Z 20006KT 10SM CLR M24/M27 A3045 590 78 -4200 200/06 RMK AO2
94908KDBQ DBQ20060219064509602/19/06 06:45:31  5-MIN KDBQ 191245Z 20006KT 10SM CLR M24/M27 A3045 590 78 -4200 200/06 RMK AO2
94908KDBQ DBQ20060219065011302/19/06 06:50:31  5-MIN KDBQ 191250Z 20006KT 10SM CLR M24/M27 A3045 590 78 -4200 200/06 RMK AO2 SLP347 T12391267
94908KDBQ DBQ20060219065511302/19/06 06:55:31  5-MIN KDBQ 191255Z 20005KT 10SM CLR M23/M27 A3045 590 74 -4100 190/05 RMK AO2 SLP345 T12331267
94908KDBQ DBQ20060219070009602/19/06 07:00:31  5-MIN KDBQ 191300Z 20005KT 10SM CLR M23/M27 A3045 590 74 -4100 200/05 RMK AO2
94908KDBQ DBQ20060219070509602/19/06 07:05:31  5-MIN KDBQ 191305Z 20005KT 10SM CLR M24/M27 A3045 590 78 -4200 200/05 RMK AO2
94908KDBQ DBQ20060219071009602/19/06 07:10:31  5-MIN KDBQ 191310Z 20005KT 10SM CLR M23/M26 A3045 600 78 -4100 200/05 RMK AO2
94908KDBQ DBQ20060219071509602/19/06 07:15:31  5-MIN KDBQ 191315Z 21005KT 10SM CLR M23/M26 A3045 590 78 -4100 210/05 RMK AO2
94908KDBQ DBQ20060219072009602/19/06 07:20:31  5-MIN KDBQ 191320Z 21004KT 10SM CLR M24/M26 A3045 590 82 -4200 210/04 RMK AO2
94908KDBQ DBQ20060219072509602/19/06 07:25:31  5-MIN KDBQ 191325Z 22004KT 10SM CLR M24/M26 A3045 590 82 -4200 220/04 RMK AO2
94908KDBQ DBQ20060219073009602/19/06 07:30:31  5-MIN KDBQ 191330Z 20003KT 10SM CLR M24/M26 A3045 590 82 -4200 200/03 RMK AO2
94908KDBQ DBQ20060219073509602/19/06 07:35:31  5-MIN KDBQ 191335Z 20003KT 10SM CLR M23/M26 A3045 590 78 -4100 200/03 RMK AO2
94908KDBQ DBQ20060219074009602/19/06 07:40:31  5-MIN KDBQ 191340Z 00000KT 10SM CLR M23/M26 A3045 590 82 -4100 000/00 RMK AO2
94908KDBQ DBQ20060219074509602/19/06 07:45:31  5-MIN KDBQ 191345Z 18003KT 10SM CLR M23/M26 A3045 590 78 -4000 180/03 RMK AO2
94908KDBQ DBQ20060219075011302/19/06 07:50:31  5-MIN KDBQ 191350Z 19004KT 10SM CLR M23/M26 A3046 590 78 -4000 180/04 RMK AO2 SLP350 T12281256
94908KDBQ DBQ20060219075511302/19/06 07:55:31  5-MIN KDBQ 191355Z 20006KT 10SM CLR M23/M26 A3045 590 78 -4000 200/06 RMK AO2 SLP348 T12281256
94908KDBQ DBQ20060219080009602/19/06 08:00:31  5-MIN KDBQ 191400Z 20006KT 10SM CLR M23/M26 A3045 590 78 -4000 190/06 RMK AO2
94908KDBQ DBQ20060219080509602/19/06 08:05:31  5-MIN KDBQ 191405Z 20005KT 10SM CLR M22/M25 A3045 590 78 -4000 200/05 RMK AO2
94908KDBQ DBQ20060219081009602/19/06 08:10:31  5-MIN KDBQ 191410Z 20006KT 10SM CLR M22/M25 A3045 590 78 -4000 200/06 RMK AO2
94908KDBQ DBQ20060219081509602/19/06 08:15:31  5-MIN KDBQ 191415Z 20006KT 10SM CLR M22/M25 A3045 590 75 -3900 200/06 RMK AO2
94908KDBQ DBQ20060219082009602/19/06 08:20:31  5-MIN KDBQ 191420Z 20006KT 10SM CLR M22/M25 A3045 590 75 -3900 200/06 RMK AO2
94908KDBQ DBQ20060219082509602/19/06 08:25:31  5-MIN KDBQ 191425Z 20006KT 10SM CLR M22/M24 A3045 590 79 -3900 200/06 RMK AO2
94908KDBQ DBQ20060219083009602/19/06 08:30:31  5-MIN KDBQ 191430Z 20006KT 10SM CLR M22/M24 A3045 590 79 -3900 200/06 RMK AO2
94908KDBQ DBQ20060219083509602/19/06 08:35:31  5-MIN KDBQ 191435Z 21006KT 10SM CLR M21/M24 A3045 600 75 -3800 210/06 RMK AO2
94908KDBQ DBQ20060219084009602/19/06 08:40:31  5-MIN KDBQ 191440Z 21005KT 10SM CLR M21/M24 A3045 600 79 -3800 210/05 RMK AO2
94908KDBQ DBQ20060219084509602/19/06 08:45:31  5-MIN KDBQ 191445Z 21005KT 10SM CLR M21/M24 A3044 600 75 -3700 210/05 RMK AO2
94908KDBQ DBQ20060219085011902/19/06 08:50:31  5-MIN KDBQ 191450Z 21006KT 10SM CLR M21/M24 A3044 600 75 -3700 210/06 RMK AO2 SLP343 T12061239 56017
94908KDBQ DBQ20060219085511902/19/06 08:55:31  5-MIN KDBQ 191455Z 21007KT 10SM CLR M21/M24 A3044 600 75 -3700 210/07 RMK AO2 SLP342 T12061239 56009
94908KDBQ DBQ20060219090009602/19/06 09:00:31  5-MIN KDBQ 191500Z 22007KT 10SM CLR M20/M23 A3044 600 75 -3600 220/07 RMK AO2
94908KDBQ DBQ20060219090509602/19/06 09:05:31  5-MIN KDBQ 191505Z 22007KT 10SM CLR M20/M23 A3044 600 75 -3600 220/07 RMK AO2
94908KDBQ DBQ20060219091009602/19/06 09:10:31  5-MIN KDBQ 191510Z 22008KT 10SM CLR M19/M23 A3044 600 72 -3600 220/08 RMK AO2
94908KDBQ DBQ20060219091509602/19/06 09:15:31  5-MIN KDBQ 191515Z 21008KT 10SM CLR M19/M23 A3044 600 72 -3600 210/08 RMK AO2
94908KDBQ DBQ20060219092009602/19/06 09:20:31  5-MIN KDBQ 191520Z 22007KT 10SM CLR M19/M23 A3044 600 72 -3600 220/07 RMK AO2
94908KDBQ DBQ20060219092509602/19/06 09:25:31  5-MIN KDBQ 191525Z 22008KT 10SM CLR M19/M23 A3044 600 72 -3500 220/08 RMK AO2
94908KDBQ DBQ20060219093009602/19/06 09:30:31  5-MIN KDBQ 191530Z 23008KT 10SM CLR M18/M23 A3044 600 68 -3400 220/08 RMK AO2
94908KDBQ DBQ20060219093509602/19/06 09:35:31  5-MIN KDBQ 191535Z 23009KT 10SM CLR M18/M23 A3044 600 65 -3300 230/09 RMK AO2
94908KDBQ DBQ20060219094009602/19/06 09:40:31  5-MIN KDBQ 191540Z 22009KT 10SM CLR M18/M23 A3044 600 65 -3300 220/09 RMK AO2
94908KDBQ DBQ20060219094509602/19/06 09:45:31  5-MIN KDBQ 191545Z 23010KT 10SM CLR M17/M22 A3044 600 65 -3300 230/10 RMK AO2
94908KDBQ DBQ20060219095011302/19/06 09:50:31  5-MIN KDBQ 191550Z 23010KT 10SM CLR M17/M22 A3044 600 63 -3200 230/10 RMK AO2 SLP341 T11671222
94908KDBQ DBQ20060219095511302/19/06 09:55:31  5-MIN KDBQ 191555Z 23010KT 10SM CLR M17/M22 A3044 600 66 -3200 230/10 RMK AO2 SLP343 T11671217
94908KDBQ DBQ20060219100009602/19/06 10:00:31  5-MIN KDBQ 191600Z 23009KT 10SM CLR M17/M22 A3044 600 63 -3200 230/09 RMK AO2
94908KDBQ DBQ20060219100509602/19/06 10:05:31  5-MIN KDBQ 191605Z 23009KT 10SM CLR M16/M22 A3044 600 63 -3100 230/09 RMK AO2
94908KDBQ DBQ20060219101009602/19/06 10:10:31  5-MIN KDBQ 191610Z 24011KT 10SM CLR M16/M22 A3044 600 63 -3100 230/11 RMK AO2
94908KDBQ DBQ20060219101509602/19/06 10:15:31  5-MIN KDBQ 191615Z 24010KT 10SM CLR M16/M22 A3044 600 60 -3000 240/10 RMK AO2
94908KDBQ DBQ20060219102009602/19/06 10:20:31  5-MIN KDBQ 191620Z 24012KT 10SM CLR M15/M21 A3043 610 60 -2900 240/12 RMK AO2
94908KDBQ DBQ20060219102509602/19/06 10:25:31  5-MIN KDBQ 191625Z 25014KT 10SM CLR M15/M21 A3043 610 60 -2900 250/14 RMK AO2
94908KDBQ DBQ20060219103010202/19/06 10:30:31  5-MIN KDBQ 191630Z 25014G19KT 10SM CLR M14/M21 A3043 610 57 -2900 250/14G19 RMK AO2
94908KDBQ DBQ20060219103509602/19/06 10:35:31  5-MIN KDBQ 191635Z 26015KT 10SM CLR M14/M21 A3043 610 57 -2900 250/15 RMK AO2
94908KDBQ DBQ20060219104009602/19/06 10:40:31  5-MIN KDBQ 191640Z 25015KT 10SM CLR M14/M21 A3042 620 60 -2900 250/15 RMK AO2
94908KDBQ DBQ20060219104509602/19/06 10:45:31  5-MIN KDBQ 191645Z 25014KT 10SM CLR M14/M21 A3043 610 55 -2800 250/14 RMK AO2
94908KDBQ DBQ20060219105011302/19/06 10:50:31  5-MIN KDBQ 191650Z 25016KT 10SM CLR M14/M21 A3042 620 57 -2800 250/16 RMK AO2 SLP334 T11391206
94908KDBQ DBQ20060219105511302/19/06 10:55:31  5-MIN KDBQ 191655Z 24016KT 10SM CLR M14/M21 A3042 620 55 -2800 240/16 RMK AO2 SLP332 T11391211
94908KDBQ DBQ20060219110009602/19/06 11:00:31  5-MIN KDBQ 191700Z 25015KT 10SM CLR M14/M21 A3042 620 57 -2800 250/15 RMK AO2
94908KDBQ DBQ20060219110509602/19/06 11:05:31  5-MIN KDBQ 191705Z 24016KT 10SM CLR M13/M21 A3042 620 55 -2700 240/16 RMK AO2
94908KDBQ DBQ20060219111009602/19/06 11:10:31  5-MIN KDBQ 191710Z 25014KT 10SM CLR M13/M21 A3041 630 55 -2700 250/14 RMK AO2
94908KDBQ DBQ20060219111509602/19/06 11:15:31  5-MIN KDBQ 191715Z 25014KT 10SM CLR M13/M21 A3041 630 55 -2700 250/14 RMK AO2
94908KDBQ DBQ20060219112009602/19/06 11:20:31  5-MIN KDBQ 191720Z 24013KT 10SM CLR M13/M21 A3041 630 55 -2700 240/13 RMK AO2
94908KDBQ DBQ20060219112509602/19/06 11:25:31  5-MIN KDBQ 191725Z 25013KT 10SM CLR M13/M21 A3041 630 55 -2700 250/13 RMK AO2
94908KDBQ DBQ20060219113009602/19/06 11:30:31  5-MIN KDBQ 191730Z 24014KT 10SM CLR M13/M20 A3040 640 55 -2600 240/14 RMK AO2
94908KDBQ DBQ20060219113509602/19/06 11:35:31  5-MIN KDBQ 191735Z 25014KT 10SM CLR M13/M20 A3040 630 55 -2600 250/14 RMK AO2
94908KDBQ DBQ20060219114009602/19/06 11:40:31  5-MIN KDBQ 191740Z 25012KT 10SM CLR M13/M19 A3040 640 58 -2600 250/12 RMK AO2
94908KDBQ DBQ20060219114509602/19/06 11:45:31  5-MIN KDBQ 191745Z 25011KT 10SM CLR M12/M19 A3040 640 55 -2500 250/11 RMK AO2
94908KDBQ DBQ20060219115013102/19/06 11:50:31  5-MIN KDBQ 191750Z 24015KT 10SM CLR M12/M19 A3040 640 55 -2500 240/15 RMK AO2 SLP324 T11221194 11122 21239 56009
94908KDBQ DBQ20060219115513102/19/06 11:55:31  5-MIN KDBQ 191755Z 24015KT 10SM CLR M12/M19 A3040 640 55 -2500 240/15 RMK AO2 SLP324 T11221194 11122 21239 58014
94908KDBQ DBQ20060219120009602/19/06 12:00:31  5-MIN KDBQ 191800Z 25014KT 10SM CLR M12/M19 A3039 650 55 -2500 250/14 RMK AO2
94908KDBQ DBQ20060219120509602/19/06 12:05:31  5-MIN KDBQ 191805Z 25013KT 10SM CLR M12/M19 A3039 650 55 -2500 240/13 RMK AO2
94908KDBQ DBQ20060219121009602/19/06 12:10:31  5-MIN KDBQ 191810Z 25014KT 10SM CLR M12/M19 A3038 650 53 -2400 250/14 RMK AO2
94908KDBQ DBQ20060219121509602/19/06 12:15:31  5-MIN KDBQ 191815Z 25014KT 10SM CLR M12/M19 A3038 660 53 -2400 250/14 RMK AO2
94908KDBQ DBQ20060219122009602/19/06 12:20:31  5-MIN KDBQ 191820Z 25015KT 10SM CLR M12/M19 A3038 660 53 -2400 250/15 RMK AO2
94908KDBQ DBQ20060219122509602/19/06 12:25:31  5-MIN KDBQ 191825Z 25015KT 10SM CLR M12/M19 A3037 660 53 -2400 250/15 RMK AO2
94908KDBQ DBQ20060219224010802/19/06 22:40:31  5-MIN KDBQ 200440Z AUTO 21008KT 10SM CLR M15/M19 A3019 830 72 -2700 210/08 RMK AO2 TSNO $
94908KDBQ DBQ20060219224510802/19/06 22:45:31  5-MIN KDBQ 200445Z AUTO 20007KT 10SM CLR M15/M19 A3019 830 72 -2700 200/07 RMK AO2 TSNO $
94908KDBQ DBQ20060219225012502/19/06 22:50:31  5-MIN KDBQ 200450Z AUTO 20006KT 10SM CLR M15/M19 A3019 830 72 -2700 200/06 RMK AO2 SLP250 T11501189 TSNO $
94908KDBQ DBQ20060219225512502/19/06 22:55:31  5-MIN KDBQ 200455Z AUTO 20006KT 10SM CLR M15/M19 A3019 830 72 -2700 200/06 RMK AO2 SLP249 T11501189 TSNO $
94908KDBQ DBQ20060219230010802/19/06 23:00:31  5-MIN KDBQ 200500Z AUTO 20006KT 10SM CLR M15/M19 A3019 830 72 -2700 190/06 RMK AO2 TSNO $
94908KDBQ DBQ20060219230510802/19/06 23:05:31  5-MIN KDBQ 200505Z AUTO 19005KT 10SM CLR M15/M19 A3019 830 72 -2700 190/05 RMK AO2 TSNO $
94908KDBQ DBQ20060219231010802/19/06 23:10:31  5-MIN KDBQ 200510Z AUTO 19005KT 10SM CLR M14/M18 A3019 830 73 -2600 190/05 RMK AO2 TSNO $
94908KDBQ DBQ20060219231510802/19/06 23:15:31  5-MIN KDBQ 200515Z AUTO 19005KT 10SM CLR M14/M18 A3019 830 73 -2600 190/05 RMK AO2 TSNO $
94908KDBQ DBQ20060219232010802/19/06 23:20:31  5-MIN KDBQ 200520Z AUTO 19006KT 10SM CLR M14/M18 A3018 840 73 -2600 190/06 RMK AO2 TSNO $
94908KDBQ DBQ20060219232510802/19/06 23:25:31  5-MIN KDBQ 200525Z AUTO 19006KT 10SM CLR M15/M18 A3018 840 76 -2700 190/06 RMK AO2 TSNO $
94908KDBQ DBQ20060219233010802/19/06 23:30:31  5-MIN KDBQ 200530Z AUTO 18005KT 10SM CLR M15/M19 A3018 840 72 -2700 180/05 RMK AO2 TSNO $
94908KDBQ DBQ20060219233510802/19/06 23:35:31  5-MIN KDBQ 200535Z AUTO 18005KT 10SM CLR M15/M19 A3018 840 72 -2700 180/05 RMK AO2 TSNO $
94908KDBQ DBQ20060219234010802/19/06 23:40:31  5-MIN KDBQ 200540Z AUTO 19005KT 10SM CLR M16/M19 A3018 840 76 -2700 180/05 RMK AO2 TSNO $
94908KDBQ DBQ20060219234510802/19/06 23:45:31  5-MIN KDBQ 200545Z AUTO 19005KT 10SM CLR M15/M19 A3018 840 72 -2700 190/05 RMK AO2 TSNO $
94908KDBQ DBQ20060219235015302/19/06 23:50:31  5-MIN KDBQ 200550Z AUTO 18005KT 10SM CLR M15/M19 A3018 840 72 -2700 180/05 RMK AO2 SLP245 T11501189 11122 21156 411061250 58010 TSNO $
94908KDBQ DBQ20060219235515302/19/06 23:55:31  5-MIN KDBQ 200555Z AUTO 18005KT 10SM CLR M16/M19 A3018 840 76 -2700 180/05 RMK AO2 SLP246 T11561189 11122 21156 411061250 58008 TSNO $
94908KDBQ DBQ20060220000010802/20/06 00:00:38  5-MIN KDBQ 200600Z AUTO 18005KT 10SM CLR M16/M19 A3018 840 76 -2700 180/05 RMK AO2 TSNO $
94908KDBQ DBQ20060220000510802/20/06 00:05:31  5-MIN KDBQ 200605Z AUTO 18005KT 10SM CLR M16/M19 A3018 840 76 -2700 180/05 RMK AO2 TSNO $
94908KDBQ DBQ20060220001010802/20/06 00:10:31  5-MIN KDBQ 200610Z AUTO 18004KT 10SM CLR M16/M19 A3018 840 76 -2700 180/04 RMK AO2 TSNO $
94908KDBQ DBQ20060220001510802/20/06 00:15:31  5-MIN KDBQ 200615Z AUTO 18004KT 10SM CLR M15/M19 A3018 840 72 -2600 180/04 RMK AO2 TSNO $
94908KDBQ DBQ20060220002010802/20/06 00:20:31  5-MIN KDBQ 200620Z AUTO 18004KT 10SM CLR M15/M18 A3018 840 76 -2600 180/04 RMK AO2 TSNO $
94908KDBQ DBQ20060220002510802/20/06 00:25:31  5-MIN KDBQ 200625Z AUTO 18004KT 10SM CLR M15/M18 A3018 840 76 -2600 180/04 RMK AO2 TSNO $
94908KDBQ DBQ20060220003010802/20/06 00:30:31  5-MIN KDBQ 200630Z AUTO 18004KT 10SM CLR M15/M19 A3017 840 72 -2600 180/04 RMK AO2 TSNO $
94908KDBQ DBQ20060220003510802/20/06 00:35:31  5-MIN KDBQ 200635Z AUTO 17003KT 10SM CLR M15/M19 A3017 850 72 -2600 170/03 RMK AO2 TSNO $
94908KDBQ DBQ20060220004010802/20/06 00:40:31  5-MIN KDBQ 200640Z AUTO 17004KT 10SM CLR M15/M19 A3017 850 72 -2600 170/04 RMK AO2 TSNO $
94908KDBQ DBQ20060220004510802/20/06 00:45:31  5-MIN KDBQ 200645Z AUTO 17004KT 10SM CLR M15/M18 A3017 850 76 -2600 170/04 RMK AO2 TSNO $
94908KDBQ DBQ20060220005012502/20/06 00:50:31  5-MIN KDBQ 200650Z AUTO 18004KT 10SM CLR M15/M19 A3017 850 72 -2600 180/04 RMK AO2 SLP241 T11501189 TSNO $
94908KDBQ DBQ20060220005512502/20/06 00:55:31  5-MIN KDBQ 200655Z AUTO 19004KT 10SM CLR M16/M19 A3017 850 76 -2700 190/04 RMK AO2 SLP240 T11561189 TSNO $
94908KDBQ DBQ20060220010010802/20/06 01:00:31  5-MIN KDBQ 200700Z AUTO 19005KT 10SM CLR M16/M19 A3016 850 76 -2700 190/05 RMK AO2 TSNO $
94908KDBQ DBQ20060220010510802/20/06 01:05:31  5-MIN KDBQ 200705Z AUTO 19006KT 10SM CLR M16/M19 A3016 850 76 -2700 190/06 RMK AO2 TSNO $
94908KDBQ DBQ20060220011010802/20/06 01:10:31  5-MIN KDBQ 200710Z AUTO 19005KT 10SM CLR M16/M19 A3016 860 76 -2800 190/05 RMK AO2 TSNO $
94908KDBQ DBQ20060220011510802/20/06 01:15:31  5-MIN KDBQ 200715Z AUTO 19005KT 10SM CLR M16/M19 A3016 850 76 -2800 190/05 RMK AO2 TSNO $
94908KDBQ DBQ20060220012010802/20/06 01:20:31  5-MIN KDBQ 200720Z AUTO 19005KT 10SM CLR M16/M19 A3016 860 72 -2700 190/05 RMK AO2 TSNO $
94908KDBQ DBQ20060220012510802/20/06 01:25:31  5-MIN KDBQ 200725Z AUTO 19005KT 10SM CLR M16/M19 A3016 860 76 -2700 190/05 RMK AO2 TSNO $
94908KDBQ DBQ20060220013010802/20/06 01:30:31  5-MIN KDBQ 200730Z AUTO 19004KT 10SM CLR M16/M19 A3016 860 76 -2700 190/04 RMK AO2 TSNO $
94908KDBQ DBQ20060220013510802/20/06 01:35:31  5-MIN KDBQ 200735Z AUTO 19005KT 10SM CLR M16/M19 A3016 860 76 -2700 190/05 RMK AO2 TSNO $
94908KDBQ DBQ20060220014010802/20/06 01:40:31  5-MIN KDBQ 200740Z AUTO 20005KT 10SM CLR M15/M19 A3015 860 72 -2600 190/05 RMK AO2 TSNO $
94908KDBQ DBQ20060220014510802/20/06 01:45:31  5-MIN KDBQ 200745Z AUTO 20005KT 10SM CLR M16/M19 A3015 870 76 -2700 200/05 RMK AO2 TSNO $
94908KDBQ DBQ20060220015012502/20/06 01:50:31  5-MIN KDBQ 200750Z AUTO 20006KT 10SM CLR M16/M19 A3015 870 76 -2700 200/06 RMK AO2 SLP233 T11561189 TSNO $
94908KDBQ DBQ20060220015512502/20/06 01:55:31  5-MIN KDBQ 200755Z AUTO 21006KT 10SM CLR M16/M19 A3014 870 76 -2800 200/06 RMK AO2 SLP233 T11611194 TSNO $
94908KDBQ DBQ20060220020010802/20/06 02:00:31  5-MIN KDBQ 200800Z AUTO 20006KT 10SM CLR M16/M19 A3015 870 76 -2800 200/06 RMK AO2 TSNO $
94908KDBQ DBQ20060220020510802/20/06 02:05:31  5-MIN KDBQ 200805Z AUTO 20004KT 10SM CLR M16/M19 A3014 870 76 -2800 200/04 RMK AO2 TSNO $
94908KDBQ DBQ20060220021010802/20/06 02:10:31  5-MIN KDBQ 200810Z AUTO 21004KT 10SM CLR M16/M19 A3014 880 76 -2700 210/04 RMK AO2 TSNO $
94908KDBQ DBQ20060220021510802/20/06 02:15:31  5-MIN KDBQ 200815Z AUTO 22004KT 10SM CLR M16/M19 A3014 870 76 -2700 220/04 RMK AO2 TSNO $
94908KDBQ DBQ20060220022010802/20/06 02:20:31  5-MIN KDBQ 200820Z AUTO 22005KT 10SM CLR M16/M19 A3014 880 76 -2700 220/05 RMK AO2 TSNO $
94908KDBQ DBQ20060220022510802/20/06 02:25:31  5-MIN KDBQ 200825Z AUTO 21006KT 10SM CLR M16/M19 A3013 880 79 -2700 210/06 RMK AO2 TSNO $
94908KDBQ DBQ20060220023010802/20/06 02:30:31  5-MIN KDBQ 200830Z AUTO 21007KT 10SM CLR M16/M19 A3013 880 76 -2700 210/07 RMK AO2 TSNO $
94908KDBQ DBQ20060220023510802/20/06 02:35:31  5-MIN KDBQ 200835Z AUTO 21007KT 10SM CLR M16/M19 A3013 890 79 -2700 200/07 RMK AO2 TSNO $
94908KDBQ DBQ20060220024010802/20/06 02:40:31  5-MIN KDBQ 200840Z AUTO 20006KT 10SM CLR M16/M19 A3013 880 79 -2700 200/06 RMK AO2 TSNO $
94908KDBQ DBQ20060220024510802/20/06 02:45:31  5-MIN KDBQ 200845Z AUTO 21006KT 10SM CLR M16/M19 A3013 890 79 -2700 210/06 RMK AO2 TSNO $
94908KDBQ DBQ20060220025013102/20/06 02:50:31  5-MIN KDBQ 200850Z AUTO 21006KT 10SM CLR M16/M19 A3012 890 76 -2700 210/06 RMK AO2 SLP226 T11561189 58008 TSNO $
94908KDBQ DBQ20060220025513102/20/06 02:55:31  5-MIN KDBQ 200855Z AUTO 22006KT 10SM CLR M16/M19 A3012 890 79 -2700 220/06 RMK AO2 SLP226 T11611189 58018 TSNO $
94908KDBQ DBQ20060220030010802/20/06 03:00:31  5-MIN KDBQ 200900Z AUTO 21006KT 10SM CLR M17/M19 A3012 890 79 -2800 210/06 RMK AO2 TSNO $
94908KDBQ DBQ20060220030510802/20/06 03:05:31  5-MIN KDBQ 200905Z AUTO 21006KT 10SM CLR M17/M19 A3012 900 79 -2800 210/06 RMK AO2 TSNO $
94908KDBQ DBQ20060220031010802/20/06 03:10:31  5-MIN KDBQ 200910Z AUTO 22007KT 10SM CLR M17/M19 A3012 900 79 -2800 210/07 RMK AO2 TSNO $
94908KDBQ DBQ20060220031510802/20/06 03:15:31  5-MIN KDBQ 200915Z AUTO 22006KT 10SM CLR M17/M19 A3012 890 79 -2800 220/06 RMK AO2 TSNO $
94908KDBQ DBQ20060220032010802/20/06 03:20:31  5-MIN KDBQ 200920Z AUTO 21005KT 10SM CLR M17/M19 A3011 900 79 -2800 210/05 RMK AO2 TSNO $
94908KDBQ DBQ20060220032510802/20/06 03:25:31  5-MIN KDBQ 200925Z AUTO 21005KT 10SM CLR M16/M19 A3011 910 79 -2700 210/05 RMK AO2 TSNO $
94908KDBQ DBQ20060220033010802/20/06 03:30:31  5-MIN KDBQ 200930Z AUTO 22005KT 10SM CLR M16/M19 A3010 910 79 -2700 210/05 RMK AO2 TSNO $
94908KDBQ DBQ20060220033510802/20/06 03:35:31  5-MIN KDBQ 200935Z AUTO 21005KT 10SM CLR M16/M18 A3010 910 79 -2600 210/05 RMK AO2 TSNO $
94908KDBQ DBQ20060220034011102/20/06 03:40:31  5-MIN KDBQ 200940Z AUTO 22005KT 10SM FEW100 M16/M19 A3010 910 79 -2700 220/05 RMK AO2 TSNO $
94908KDBQ DBQ20060220034511102/20/06 03:45:31  5-MIN KDBQ 200945Z AUTO 22005KT 10SM SCT100 M16/M18 A3010 910 79 -2600 220/05 RMK AO2 TSNO $
94908KDBQ DBQ20060220035012802/20/06 03:50:31  5-MIN KDBQ 200950Z AUTO 22004KT 10SM SCT100 M16/M19 A3010 910 79 -2700 220/04 RMK AO2 SLP217 T11611189 TSNO $
94908KDBQ DBQ20060220035512802/20/06 03:55:31  5-MIN KDBQ 200955Z AUTO 22005KT 10SM BKN100 M16/M19 A3010 920 79 -2700 220/05 RMK AO2 SLP216 T11611189 TSNO $
94908KDBQ DBQ20060220040011102/20/06 04:00:31  5-MIN KDBQ 201000Z AUTO 22006KT 10SM BKN100 M16/M19 A3010 920 79 -2700 220/06 RMK AO2 TSNO $
94908KDBQ DBQ20060220040511102/20/06 04:05:31  5-MIN KDBQ 201005Z AUTO 22005KT 10SM BKN100 M17/M19 A3009 920 83 -2800 220/05 RMK AO2 TSNO $
94908KDBQ DBQ20060220041011102/20/06 04:10:31  5-MIN KDBQ 201010Z AUTO 22005KT 10SM OVC100 M17/M19 A3009 920 83 -2800 220/05 RMK AO2 TSNO $
94908KDBQ DBQ20060220041511102/20/06 04:15:31  5-MIN KDBQ 201015Z AUTO 22005KT 10SM OVC100 M16/M19 A3009 920 79 -2700 220/05 RMK AO2 TSNO $
94908KDBQ DBQ20060220042011102/20/06 04:20:31  5-MIN KDBQ 201020Z AUTO 22006KT 10SM OVC100 M17/M19 A3009 920 83 -2800 220/06 RMK AO2 TSNO $
94908KDBQ DBQ20060220042511102/20/06 04:25:31  5-MIN KDBQ 201025Z AUTO 22006KT 10SM OVC100 M17/M19 A3009 930 83 -2800 220/06 RMK AO2 TSNO $
94908KDBQ DBQ20060220043011102/20/06 04:30:31  5-MIN KDBQ 201030Z AUTO 22006KT 10SM OVC100 M17/M19 A3009 930 83 -2800 220/06 RMK AO2 TSNO $
94908KDBQ DBQ20060220043511102/20/06 04:35:31  5-MIN KDBQ 201035Z AUTO 22006KT 10SM OVC100 M16/M19 A3009 920 79 -2700 220/06 RMK AO2 TSNO $
94908KDBQ DBQ20060220044011102/20/06 04:40:31  5-MIN KDBQ 201040Z AUTO 22005KT 10SM OVC100 M16/M18 A3009 920 83 -2700 220/05 RMK AO2 TSNO $
94908KDBQ DBQ20060220044511102/20/06 04:45:31  5-MIN KDBQ 201045Z AUTO 21005KT 10SM OVC100 M16/M18 A3009 920 83 -2700 210/05 RMK AO2 TSNO $
94908KDBQ DBQ20060220045012802/20/06 04:50:31  5-MIN KDBQ 201050Z AUTO 21006KT 10SM OVC100 M16/M18 A3009 920 83 -2700 210/06 RMK AO2 SLP215 T11611183 TSNO $
94908KDBQ DBQ20060220045512802/20/06 04:55:31  5-MIN KDBQ 201055Z AUTO 21007KT 10SM OVC100 M16/M18 A3009 920 79 -2600 210/07 RMK AO2 SLP214 T11561183 TSNO $
94908KDBQ DBQ20060220050011102/20/06 05:00:31  5-MIN KDBQ 201100Z AUTO 21007KT 10SM OVC100 M16/M18 A3009 920 79 -2600 210/07 RMK AO2 TSNO $
94908KDBQ DBQ20060220050511102/20/06 05:05:31  5-MIN KDBQ 201105Z AUTO 22007KT 10SM OVC100 M16/M18 A3009 920 79 -2600 220/07 RMK AO2 TSNO $
94908KDBQ DBQ20060220051011102/20/06 05:10:31  5-MIN KDBQ 201110Z AUTO 22007KT 10SM OVC100 M16/M18 A3009 930 79 -2600 220/07 RMK AO2 TSNO $
94908KDBQ DBQ20060220051511102/20/06 05:15:31  5-MIN KDBQ 201115Z AUTO 22007KT 10SM OVC100 M16/M18 A3008 930 79 -2600 220/07 RMK AO2 TSNO $
94908KDBQ DBQ20060220052011102/20/06 05:20:31  5-MIN KDBQ 201120Z AUTO 22007KT 10SM OVC100 M16/M18 A3008 930 79 -2600 220/07 RMK AO2 TSNO $
94908KDBQ DBQ20060220052511102/20/06 05:25:31  5-MIN KDBQ 201125Z AUTO 22007KT 10SM OVC100 M15/M18 A3008 930 80 -2500 220/07 RMK AO2 TSNO $
94908KDBQ DBQ20060220053011102/20/06 05:30:31  5-MIN KDBQ 201130Z AUTO 22006KT 10SM OVC100 M15/M18 A3008 930 80 -2500 220/06 RMK AO2 TSNO $
94908KDBQ DBQ20060220053511102/20/06 05:35:31  5-MIN KDBQ 201135Z AUTO 22006KT 10SM OVC100 M15/M17 A3008 930 83 -2500 220/06 RMK AO2 TSNO $
94908KDBQ DBQ20060220054011102/20/06 05:40:31  5-MIN KDBQ 201140Z AUTO 22005KT 10SM OVC100 M14/M17 A3008 930 80 -2500 220/05 RMK AO2 TSNO $
94908KDBQ DBQ20060220054511102/20/06 05:45:31  5-MIN KDBQ 201145Z AUTO 22005KT 10SM OVC100 M14/M17 A3007 940 80 -2500 220/05 RMK AO2 TSNO $
94908KDBQ DBQ20060220055014602/20/06 05:50:31  5-MIN KDBQ 201150Z AUTO 22006KT 10SM OVC100 M14/M17 A3007 940 76 -2400 220/06 RMK AO2 SLP208 T11391172 11139 21167 58018 TSNO $
94908KDBQ DBQ20060220055514602/20/06 05:55:31  5-MIN KDBQ 201155Z AUTO 22006KT 10SM OVC100 M14/M17 A3008 930 76 -2400 220/06 RMK AO2 SLP209 T11391172 11139 21167 56016 TSNO $
94908KDBQ DBQ20060220060010102/20/06 06:00:31  5-MIN KDBQ 201200Z 22006KT 10SM OVC100 M14/M17 A3008 940 76 -2400 220/06 RMK AO2 $
94908KDBQ DBQ20060220060510102/20/06 06:05:31  5-MIN KDBQ 201205Z 22006KT 10SM OVC100 M14/M17 A3007 940 80 -2400 220/06 RMK AO2 $
94908KDBQ DBQ20060220061010102/20/06 06:10:31  5-MIN KDBQ 201210Z 22007KT 10SM OVC100 M14/M17 A3007 940 80 -2400 220/07 RMK AO2 $
94908KDBQ DBQ20060220061510102/20/06 06:15:31  5-MIN KDBQ 201215Z 22007KT 10SM OVC100 M13/M17 A3007 940 76 -2300 220/07 RMK AO2 $
94908KDBQ DBQ20060220062010102/20/06 06:20:31  5-MIN KDBQ 201220Z 22006KT 10SM OVC100 M13/M17 A3007 940 76 -2300 220/06 RMK AO2 $
94908KDBQ DBQ20060220062510102/20/06 06:25:31  5-MIN KDBQ 201225Z 23006KT 10SM OVC100 M13/M17 A3007 940 76 -2300 230/06 RMK AO2 $
94908KDBQ DBQ20060220063010802/20/06 06:30:31  5-MIN KDBQ 201230Z 23006KT 10SM BKN100 OVC110 M13/M17 A3007 940 76 -2300 220/06 RMK AO2 $
94908KDBQ DBQ20060220063510802/20/06 06:35:31  5-MIN KDBQ 201235Z 22006KT 10SM BKN100 OVC110 M13/M17 A3007 940 76 -2300 220/06 RMK AO2 $
94908KDBQ DBQ20060220064010802/20/06 06:40:31  5-MIN KDBQ 201240Z 22007KT 10SM BKN095 OVC110 M13/M17 A3007 940 76 -2300 220/07 RMK AO2 $
94908KDBQ DBQ20060220064510802/20/06 06:45:31  5-MIN KDBQ 201245Z 21007KT 10SM BKN090 OVC110 M13/M16 A3006 950 80 -2300 210/07 RMK AO2 $
94908KDBQ DBQ20060220065011802/20/06 06:50:31  5-MIN KDBQ 201250Z 21007KT 10SM OVC095 M13/M16 A3006 950 76 -2200 210/07 RMK AO2 SLP203 T11281161 $
94908KDBQ DBQ20060220065512502/20/06 06:55:31  5-MIN KDBQ 201255Z 21008KT 10SM BKN095 OVC110 M13/M16 A3006 950 76 -2200 210/08 RMK AO2 SLP202 T11281161 $
94908KDBQ DBQ20060220070010802/20/06 07:00:31  5-MIN KDBQ 201300Z 22008KT 10SM BKN095 OVC110 M12/M16 A3006 950 73 -2100 220/08 RMK AO2 $
94908KDBQ DBQ20060220070510802/20/06 07:05:31  5-MIN KDBQ 201305Z 21008KT 10SM BKN095 OVC110 M12/M16 A3005 960 73 -2100 210/08 RMK AO2 $
94908KDBQ DBQ20060220071010802/20/06 07:10:31  5-MIN KDBQ 201310Z 22008KT 10SM BKN095 OVC110 M12/M16 A3005 950 73 -2100 220/08 RMK AO2 $
94908KDBQ DBQ20060220071510802/20/06 07:15:31  5-MIN KDBQ 201315Z 22009KT 10SM BKN100 OVC110 M12/M16 A3006 950 73 -2100 220/09 RMK AO2 $
94908KDBQ DBQ20060220072010102/20/06 07:20:31  5-MIN KDBQ 201320Z 22008KT 10SM OVC100 M12/M16 A3005 950 70 -2100 220/08 RMK AO2 $
94908KDBQ DBQ20060220072510102/20/06 07:25:31  5-MIN KDBQ 201325Z 22008KT 10SM OVC100 M12/M16 A3005 960 70 -2100 220/08 RMK AO2 $
94908KDBQ DBQ20060220073010102/20/06 07:30:31  5-MIN KDBQ 201330Z 22008KT 10SM OVC100 M12/M16 A3005 960 70 -2100 220/08 RMK AO2 $
94908KDBQ DBQ20060220073510102/20/06 07:35:31  5-MIN KDBQ 201335Z 22008KT 10SM OVC110 M12/M16 A3005 960 70 -2100 220/08 RMK AO2 $
94908KDBQ DBQ20060220074010102/20/06 07:40:31  5-MIN KDBQ 201340Z 22009KT 10SM BKN110 M11/M16 A3005 960 67 -2000 220/09 RMK AO2 $
94908KDBQ DBQ20060220074510102/20/06 07:45:31  5-MIN KDBQ 201345Z 23008KT 10SM BKN100 M11/M16 A3005 960 70 -2000 220/08 RMK AO2 $
94908KDBQ DBQ20060220075011802/20/06 07:50:31  5-MIN KDBQ 201350Z 22009KT 10SM BKN110 M11/M16 A3005 960 70 -2000 220/09 RMK AO2 SLP201 T11111156 $
94908KDBQ DBQ20060220075511802/20/06 07:55:31  5-MIN KDBQ 201355Z 22009KT 10SM BKN110 M11/M16 A3006 950 70 -2000 220/09 RMK AO2 SLP202 T11111156 $
94908KDBQ DBQ20060220080010802/20/06 08:00:31  5-MIN KDBQ 201400Z 22009KT 10SM BKN100 BKN110 M11/M16 A3006 950 70 -2000 220/09 RMK AO2 $
94908KDBQ DBQ20060220080510102/20/06 08:05:31  5-MIN KDBQ 201405Z 22008KT 10SM BKN100 M11/M16 A3006 950 70 -2000 220/08 RMK AO2 $
94908KDBQ DBQ20060220081010102/20/06 08:10:31  5-MIN KDBQ 201410Z 22009KT 10SM BKN100 M11/M16 A3006 950 70 -2000 220/09 RMK AO2 $
94908KDBQ DBQ20060220081510102/20/06 08:15:31  5-MIN KDBQ 201415Z 23009KT 10SM BKN100 M11/M16 A3006 950 70 -2000 220/09 RMK AO2 $
94908KDBQ DBQ20060220082010102/20/06 08:20:31  5-MIN KDBQ 201420Z 22009KT 10SM BKN100 M11/M16 A3006 950 67 -1900 220/09 RMK AO2 $
94908KDBQ DBQ20060220082510102/20/06 08:25:31  5-MIN KDBQ 201425Z 22009KT 10SM SCT100 M11/M16 A3006 950 67 -1900 220/09 RMK AO2 $
94908KDBQ DBQ20060220083010102/20/06 08:30:31  5-MIN KDBQ 201430Z 22009KT 10SM FEW100 M11/M15 A3006 950 70 -1900 220/09 RMK AO2 $
94908KDBQ DBQ20060220083510102/20/06 08:35:31  5-MIN KDBQ 201435Z 22009KT 10SM FEW100 M11/M15 A3006 950 70 -1900 220/09 RMK AO2 $
94908KDBQ DBQ20060220084010102/20/06 08:40:31  5-MIN KDBQ 201440Z 22009KT 10SM FEW100 M11/M15 A3005 960 70 -1900 220/09 RMK AO2 $
94908KDBQ DBQ20060220084510102/20/06 08:45:31  5-MIN KDBQ 201445Z 22009KT 10SM FEW110 M11/M15 A3005 950 70 -1900 220/09 RMK AO2 $
94908KDBQ DBQ20060220085012402/20/06 08:50:31  5-MIN KDBQ 201450Z 22009KT 10SM SCT100 M10/M15 A3005 960 67 -1800 220/09 RMK AO2 SLP200 T11001150 56016 $
94908KDBQ DBQ20060220085512402/20/06 08:55:31  5-MIN KDBQ 201455Z 22008KT 10SM BKN100 M10/M14 A3005 960 70 -1800 220/08 RMK AO2 SLP201 T11001144 56007 $
94908KDBQ DBQ20060220090010102/20/06 09:00:31  5-MIN KDBQ 201500Z 23009KT 10SM BKN100 M09/M14 A3005 960 67 -1800 230/09 RMK AO2 $
94908KDBQ DBQ20060220090510102/20/06 09:05:31  5-MIN KDBQ 201505Z 23010KT 10SM BKN095 M09/M14 A3005 950 67 -1800 230/10 RMK AO2 $
94908KDBQ DBQ20060220091010102/20/06 09:10:31  5-MIN KDBQ 201510Z 23010KT 10SM BKN095 M09/M14 A3005 950 67 -1800 230/10 RMK AO2 $
94908KDBQ DBQ20060220091510102/20/06 09:15:31  5-MIN KDBQ 201515Z 23011KT 10SM BKN090 M09/M14 A3005 950 67 -1800 220/11 RMK AO2 $
94908KDBQ DBQ20060220092010102/20/06 09:20:31  5-MIN KDBQ 201520Z 23011KT 10SM BKN090 M09/M14 A3005 960 67 -1800 230/11 RMK AO2 $
94908KDBQ DBQ20060220092510102/20/06 09:25:31  5-MIN KDBQ 201525Z 23010KT 10SM SCT090 M09/M14 A3005 960 67 -1700 220/10 RMK AO2 $
94908KDBQ DBQ20060220093010102/20/06 09:30:31  5-MIN KDBQ 201530Z 23009KT 10SM FEW085 M09/M14 A3005 960 67 -1700 230/09 RMK AO2 $
94908KDBQ DBQ20060220093510102/20/06 09:35:31  5-MIN KDBQ 201535Z 23008KT 10SM FEW085 M09/M14 A3005 960 67 -1700 230/08 RMK AO2 $
94908KDBQ DBQ20060220094010102/20/06 09:40:31  5-MIN KDBQ 201540Z 22009KT 10SM FEW035 M09/M14 A3005 960 67 -1700 220/09 RMK AO2 $
94908KDBQ DBQ20060220094510102/20/06 09:45:31  5-MIN KDBQ 201545Z 23010KT 10SM FEW035 M08/M14 A3004 960 64 -1600 230/10 RMK AO2 $
94908KDBQ DBQ20060220095011802/20/06 09:50:31  5-MIN KDBQ 201550Z 23010KT 10SM FEW035 M08/M13 A3004 970 67 -1600 230/10 RMK AO2 SLP197 T10831133 $
94908KDBQ DBQ20060220095511802/20/06 09:55:31  5-MIN KDBQ 201555Z 23011KT 10SM FEW035 M08/M13 A3004 970 67 -1600 230/11 RMK AO2 SLP195 T10831133 $
94908KDBQ DBQ20060220100010802/20/06 10:00:31  5-MIN KDBQ 201600Z 23012KT 10SM FEW035 SCT080 M08/M13 A3004 970 64 -1500 230/12 RMK AO2 $
94908KDBQ DBQ20060220100510802/20/06 10:05:31  5-MIN KDBQ 201605Z 23011KT 10SM FEW035 SCT080 M08/M13 A3003 970 64 -1500 230/11 RMK AO2 $
94908KDBQ DBQ20060220101010102/20/06 10:10:31  5-MIN KDBQ 201610Z 23010KT 10SM FEW035 M08/M13 A3003 970 67 -1500 230/10 RMK AO2 $
94908KDBQ DBQ20060220101510102/20/06 10:15:31  5-MIN KDBQ 201615Z 23011KT 10SM SCT080 M07/M13 A3003 980 65 -1400 230/11 RMK AO2 $
94908KDBQ DBQ20060220102010102/20/06 10:20:31  5-MIN KDBQ 201620Z 23011KT 10SM SCT080 M07/M13 A3003 980 65 -1400 230/11 RMK AO2 $
94908KDBQ DBQ20060220102510102/20/06 10:25:31  5-MIN KDBQ 201625Z 23012KT 10SM SCT080 M07/M13 A3003 980 65 -1400 220/12 RMK AO2 $
94908KDBQ DBQ20060220103010102/20/06 10:30:31  5-MIN KDBQ 201630Z 24014KT 10SM SCT075 M07/M13 A3003 980 62 -1400 240/14 RMK AO2 $
94908KDBQ DBQ20060220103510102/20/06 10:35:31  5-MIN KDBQ 201635Z 23011KT 10SM SCT075 M07/M13 A3003 980 62 -1400 230/11 RMK AO2 $
94908KDBQ DBQ20060220201510702/20/06 20:15:31  5-MIN KDBQ 210215Z AUTO 21010KT 10SM CLR M06/M10 A2985 1150 74 -1100 210/10 RMK AO2 TSNO
94908KDBQ DBQ20060220202010702/20/06 20:20:31  5-MIN KDBQ 210220Z AUTO 21010KT 10SM CLR M06/M10 A2985 1140 74 -1100 210/10 RMK AO2 TSNO
94908KDBQ DBQ20060220202510702/20/06 20:25:31  5-MIN KDBQ 210225Z AUTO 21009KT 10SM CLR M07/M10 A2985 1140 77 -1200 210/09 RMK AO2 TSNO
94908KDBQ DBQ20060220203010702/20/06 20:30:31  5-MIN KDBQ 210230Z AUTO 21008KT 10SM CLR M07/M11 A2985 1140 77 -1200 210/08 RMK AO2 TSNO
94908KDBQ DBQ20060220203510702/20/06 20:35:31  5-MIN KDBQ 210235Z AUTO 21008KT 10SM CLR M07/M11 A2985 1140 77 -1200 210/08 RMK AO2 TSNO
94908KDBQ DBQ20060220204010702/20/06 20:40:31  5-MIN KDBQ 210240Z AUTO 21009KT 10SM CLR M07/M11 A2985 1140 77 -1200 210/09 RMK AO2 TSNO
94908KDBQ DBQ20060220204510702/20/06 20:45:31  5-MIN KDBQ 210245Z AUTO 22008KT 10SM CLR M07/M10 A2985 1140 77 -1200 220/08 RMK AO2 TSNO
94908KDBQ DBQ20060220205013002/20/06 20:50:31  5-MIN KDBQ 210250Z AUTO 21008KT 10SM CLR M08/M11 A2985 1140 80 -1300 210/08 RMK AO2 SLP128 T10781106 58016 TSNO
94908KDBQ DBQ20060220205513002/20/06 20:55:31  5-MIN KDBQ 210255Z AUTO 21008KT 10SM CLR M08/M11 A2985 1140 80 -1300 210/08 RMK AO2 SLP129 T10781106 55002 TSNO
94908KDBQ DBQ20060220210010702/20/06 21:00:31  5-MIN KDBQ 210300Z AUTO 21008KT 10SM CLR M08/M11 A2986 1140 80 -1300 210/08 RMK AO2 TSNO
94908KDBQ DBQ20060220210510702/20/06 21:05:31  5-MIN KDBQ 210305Z AUTO 22007KT 10SM CLR M08/M11 A2986 1140 80 -1300 220/07 RMK AO2 TSNO
94908KDBQ DBQ20060220211010702/20/06 21:10:31  5-MIN KDBQ 210310Z AUTO 22007KT 10SM CLR M08/M11 A2986 1140 80 -1300 220/07 RMK AO2 TSNO
94908KDBQ DBQ20060220211510702/20/06 21:15:31  5-MIN KDBQ 210315Z AUTO 21007KT 10SM CLR M08/M11 A2986 1140 84 -1400 210/07 RMK AO2 TSNO
94908KDBQ DBQ20060220212010702/20/06 21:20:31  5-MIN KDBQ 210320Z AUTO 22007KT 10SM CLR M09/M11 A2986 1140 84 -1500 210/07 RMK AO2 TSNO
94908KDBQ DBQ20060220212510702/20/06 21:25:31  5-MIN KDBQ 210325Z AUTO 22005KT 10SM CLR M09/M11 A2986 1130 84 -1500 220/05 RMK AO2 TSNO
94908KDBQ DBQ20060220213010602/20/06 21:30:31  5-MIN KDBQ 210330Z AUTO 23004KT 9SM CLR M08/M11 A2986 1130 80 -1400 230/04 RMK AO2 TSNO
94908KDBQ DBQ20060220213510602/20/06 21:35:31  5-MIN KDBQ 210335Z AUTO 22005KT 9SM CLR M08/M11 A2986 1130 80 -1400 220/05 RMK AO2 TSNO
94908KDBQ DBQ20060220214010602/20/06 21:40:31  5-MIN KDBQ 210340Z AUTO 24005KT 9SM CLR M08/M11 A2986 1130 80 -1400 240/05 RMK AO2 TSNO
94908KDBQ DBQ20060220214510602/20/06 21:45:31  5-MIN KDBQ 210345Z AUTO 23006KT 9SM CLR M08/M11 A2986 1130 80 -1400 230/06 RMK AO2 TSNO
94908KDBQ DBQ20060220215012302/20/06 21:50:31  5-MIN KDBQ 210350Z AUTO 23005KT 9SM CLR M08/M11 A2987 1130 80 -1300 230/05 RMK AO2 SLP132 T10781106 TSNO
94908KDBQ DBQ20060220215512402/20/06 21:55:31  5-MIN KDBQ 210355Z AUTO 23006KT 10SM CLR M07/M11 A2987 1130 77 -1300 230/06 RMK AO2 SLP133 T10721106 TSNO
94908KDBQ DBQ20060220220010702/20/06 22:00:31  5-MIN KDBQ 210400Z AUTO 23006KT 10SM CLR M08/M11 A2987 1130 80 -1400 230/06 RMK AO2 TSNO
94908KDBQ DBQ20060220220510602/20/06 22:05:31  5-MIN KDBQ 210405Z AUTO 24006KT 9SM CLR M08/M11 A2987 1120 80 -1400 240/06 RMK AO2 TSNO
94908KDBQ DBQ20060220221010702/20/06 22:10:31  5-MIN KDBQ 210410Z AUTO 23005KT 10SM CLR M08/M11 A2987 1120 77 -1300 230/05 RMK AO2 TSNO
94908KDBQ DBQ20060220221510702/20/06 22:15:31  5-MIN KDBQ 210415Z AUTO 23005KT 10SM CLR M08/M11 A2987 1120 80 -1400 230/05 RMK AO2 TSNO
94908KDBQ DBQ20060220222010602/20/06 22:20:31  5-MIN KDBQ 210420Z AUTO 24007KT 9SM CLR M08/M11 A2987 1130 80 -1400 240/07 RMK AO2 TSNO
94908KDBQ DBQ20060220222510602/20/06 22:25:31  5-MIN KDBQ 210425Z AUTO 24007KT 9SM CLR M09/M12 A2987 1130 80 -1500 240/07 RMK AO2 TSNO
94908KDBQ DBQ20060220223010602/20/06 22:30:31  5-MIN KDBQ 210430Z AUTO 25007KT 9SM CLR M09/M12 A2987 1120 80 -1500 250/07 RMK AO2 TSNO
94908KDBQ DBQ20060220223510602/20/06 22:35:31  5-MIN KDBQ 210435Z AUTO 26008KT 9SM CLR M09/M12 A2987 1120 80 -1500 260/08 RMK AO2 TSNO
94908KDBQ DBQ20060220224010702/20/06 22:40:31  5-MIN KDBQ 210440Z AUTO 26009KT 10SM CLR M07/M11 A2987 1120 74 -1300 260/09 RMK AO2 TSNO
94908KDBQ DBQ20060220224510702/20/06 22:45:31  5-MIN KDBQ 210445Z AUTO 26009KT 10SM CLR M07/M11 A2987 1120 74 -1300 250/09 RMK AO2 TSNO
94908KDBQ DBQ20060220225012402/20/06 22:50:31  5-MIN KDBQ 210450Z AUTO 25009KT 10SM CLR M07/M11 A2987 1120 74 -1300 250/09 RMK AO2 SLP134 T10721111 TSNO
94908KDBQ DBQ20060220225512402/20/06 22:55:31  5-MIN KDBQ 210455Z AUTO 25009KT 10SM CLR M08/M11 A2987 1120 77 -1300 250/09 RMK AO2 SLP134 T10781111 TSNO
94908KDBQ DBQ20060220230010702/20/06 23:00:31  5-MIN KDBQ 210500Z AUTO 25009KT 10SM CLR M08/M11 A2987 1120 77 -1300 250/09 RMK AO2 TSNO
94908KDBQ DBQ20060220230510702/20/06 23:05:31  5-MIN KDBQ 210505Z AUTO 25009KT 10SM CLR M08/M12 A2987 1120 74 -1300 250/09 RMK AO2 TSNO
94908KDBQ DBQ20060220231010702/20/06 23:10:31  5-MIN KDBQ 210510Z AUTO 25010KT 10SM CLR M08/M11 A2987 1120 77 -1300 250/10 RMK AO2 TSNO
94908KDBQ DBQ20060220231510702/20/06 23:15:31  5-MIN KDBQ 210515Z AUTO 25010KT 10SM CLR M08/M12 A2987 1120 74 -1300 250/10 RMK AO2 TSNO
94908KDBQ DBQ20060220232010702/20/06 23:20:31  5-MIN KDBQ 210520Z AUTO 25010KT 10SM CLR M08/M12 A2987 1120 74 -1300 250/10 RMK AO2 TSNO
94908KDBQ DBQ20060220232510702/20/06 23:25:31  5-MIN KDBQ 210525Z AUTO 26010KT 10SM CLR M08/M12 A2988 1120 74 -1300 260/10 RMK AO2 TSNO
94908KDBQ DBQ20060220233010702/20/06 23:30:31  5-MIN KDBQ 210530Z AUTO 27010KT 10SM CLR M08/M11 A2988 1120 77 -1300 260/10 RMK AO2 TSNO
94908KDBQ DBQ20060220233510702/20/06 23:35:31  5-MIN KDBQ 210535Z AUTO 27009KT 10SM CLR M07/M11 A2988 1120 74 -1300 270/09 RMK AO2 TSNO
94908KDBQ DBQ20060220234010702/20/06 23:40:31  5-MIN KDBQ 210540Z AUTO 27009KT 10SM CLR M06/M11 A2988 1120 71 -1100 270/09 RMK AO2 TSNO
94908KDBQ DBQ20060220234510702/20/06 23:45:31  5-MIN KDBQ 210545Z AUTO 27009KT 10SM CLR M06/M11 A2988 1120 71 -1100 270/09 RMK AO2 TSNO
94908KDBQ DBQ20060220235015202/20/06 23:50:31  5-MIN KDBQ 210550Z AUTO 27009KT 10SM CLR M06/M11 A2988 1120 71 -1100 260/09 RMK AO2 SLP134 T10611106 11039 21089 410281167 55002 TSNO
94908KDBQ DBQ20060220235515202/20/06 23:55:31  5-MIN KDBQ 210555Z AUTO 27010KT 10SM CLR M06/M11 A2988 1120 71 -1100 270/10 RMK AO2 SLP133 T10611106 11039 21089 410281167 51008 TSNO
94908KDBQ DBQ20060221000010702/21/06 00:00:38  5-MIN KDBQ 210600Z AUTO 27010KT 10SM CLR M06/M10 A2988 1120 74 -1100 270/10 RMK AO2 TSNO
94908KDBQ DBQ20060221000510702/21/06 00:05:31  5-MIN KDBQ 210605Z AUTO 27011KT 10SM CLR M06/M10 A2988 1120 71 -1100 270/11 RMK AO2 TSNO
94908KDBQ DBQ20060221001010702/21/06 00:10:31  5-MIN KDBQ 210610Z AUTO 28010KT 10SM CLR M06/M10 A2988 1120 71 -1100 280/10 RMK AO2 TSNO
94908KDBQ DBQ20060221001510702/21/06 00:15:31  5-MIN KDBQ 210615Z AUTO 28009KT 10SM CLR M06/M10 A2988 1110 71 -1100 270/09 RMK AO2 TSNO
94908KDBQ DBQ20060221002010702/21/06 00:20:31  5-MIN KDBQ 210620Z AUTO 27009KT 10SM CLR M06/M10 A2989 1110 74 -1100 270/09 RMK AO2 TSNO
94908KDBQ DBQ20060221002510702/21/06 00:25:31  5-MIN KDBQ 210625Z AUTO 27009KT 10SM CLR M06/M10 A2989 1110 74 -1100 270/09 RMK AO2 TSNO
94908KDBQ DBQ20060221003010702/21/06 00:30:31  5-MIN KDBQ 210630Z AUTO 27009KT 10SM CLR M06/M10 A2989 1110 74 -1100 270/09 RMK AO2 TSNO
94908KDBQ DBQ20060221003510702/21/06 00:35:31  5-MIN KDBQ 210635Z AUTO 27009KT 10SM CLR M06/M10 A2989 1110 74 -1100 270/09 RMK AO2 TSNO
94908KDBQ DBQ20060221004010702/21/06 00:40:31  5-MIN KDBQ 210640Z AUTO 27008KT 10SM CLR M06/M10 A2989 1110 74 -1100 270/08 RMK AO2 TSNO
94908KDBQ DBQ20060221004510702/21/06 00:45:31  5-MIN KDBQ 210645Z AUTO 27009KT 10SM CLR M06/M11 A2989 1100 71 -1100 270/09 RMK AO2 TSNO
94908KDBQ DBQ20060221005012402/21/06 00:50:31  5-MIN KDBQ 210650Z AUTO 28009KT 10SM CLR M06/M10 A2990 1100 74 -1100 280/09 RMK AO2 SLP140 T10611100 TSNO
94908KDBQ DBQ20060221005512402/21/06 00:55:31  5-MIN KDBQ 210655Z AUTO 28008KT 10SM CLR M06/M10 A2990 1100 74 -1100 280/08 RMK AO2 SLP140 T10611100 TSNO
94908KDBQ DBQ20060221010010702/21/06 01:00:31  5-MIN KDBQ 210700Z AUTO 27009KT 10SM CLR M06/M11 A2990 1100 71 -1100 270/09 RMK AO2 TSNO
94908KDBQ DBQ20060221010510702/21/06 01:05:31  5-MIN KDBQ 210705Z AUTO 27008KT 10SM CLR M07/M11 A2990 1100 74 -1200 270/08 RMK AO2 TSNO
94908KDBQ DBQ20060221011010702/21/06 01:10:31  5-MIN KDBQ 210710Z AUTO 27008KT 10SM CLR M07/M11 A2990 1100 74 -1200 270/08 RMK AO2 TSNO
94908KDBQ DBQ20060221011510702/21/06 01:15:31  5-MIN KDBQ 210715Z AUTO 27008KT 10SM CLR M07/M11 A2990 1100 74 -1200 270/08 RMK AO2 TSNO
94908KDBQ DBQ20060221012010702/21/06 01:20:31  5-MIN KDBQ 210720Z AUTO 26009KT 10SM CLR M07/M11 A2990 1100 74 -1200 260/09 RMK AO2 TSNO
94908KDBQ DBQ20060221012510702/21/06 01:25:31  5-MIN KDBQ 210725Z AUTO 26009KT 10SM CLR M07/M11 A2990 1100 74 -1300 260/09 RMK AO2 TSNO
94908KDBQ DBQ20060221013010702/21/06 01:30:31  5-MIN KDBQ 210730Z AUTO 27008KT 10SM CLR M07/M11 A2990 1090 74 -1300 270/08 RMK AO2 TSNO
94908KDBQ DBQ20060221013510702/21/06 01:35:31  5-MIN KDBQ 210735Z AUTO 27008KT 10SM CLR M07/M11 A2991 1090 77 -1300 270/08 RMK AO2 TSNO
94908KDBQ DBQ20060221014010702/21/06 01:40:31  5-MIN KDBQ 210740Z AUTO 28008KT 10SM CLR M07/M11 A2991 1090 77 -1300 280/08 RMK AO2 TSNO
94908KDBQ DBQ20060221014510702/21/06 01:45:31  5-MIN KDBQ 210745Z AUTO 29007KT 10SM CLR M07/M11 A2991 1080 77 -1300 280/07 RMK AO2 TSNO
94908KDBQ DBQ20060221015012402/21/06 01:50:31  5-MIN KDBQ 210750Z AUTO 28008KT 10SM CLR M07/M11 A2992 1080 77 -1300 280/08 RMK AO2 SLP147 T10721106 TSNO
94908KDBQ DBQ20060221015512402/21/06 01:55:31  5-MIN KDBQ 210755Z AUTO 28008KT 10SM CLR M07/M11 A2992 1080 77 -1300 280/08 RMK AO2 SLP148 T10721106 TSNO
94908KDBQ DBQ20060221020010702/21/06 02:00:31  5-MIN KDBQ 210800Z AUTO 28008KT 10SM CLR M07/M11 A2992 1080 77 -1300 280/08 RMK AO2 TSNO
94908KDBQ DBQ20060221020510702/21/06 02:05:31  5-MIN KDBQ 210805Z AUTO 28009KT 10SM CLR M07/M11 A2992 1080 77 -1300 280/09 RMK AO2 TSNO
94908KDBQ DBQ20060221021010602/21/06 02:10:31  5-MIN KDBQ 210810Z AUTO 28009KT 9SM CLR M07/M11 A2992 1080 77 -1300 280/09 RMK AO2 TSNO
94908KDBQ DBQ20060221021510702/21/06 02:15:31  5-MIN KDBQ 210815Z AUTO 29009KT 10SM CLR M07/M11 A2992 1080 77 -1300 280/09 RMK AO2 TSNO
94908KDBQ DBQ20060221022010602/21/06 02:20:31  5-MIN KDBQ 210820Z AUTO 28008KT 9SM CLR M07/M11 A2992 1080 77 -1300 280/08 RMK AO2 TSNO
94908KDBQ DBQ20060221022510602/21/06 02:25:31  5-MIN KDBQ 210825Z AUTO 28009KT 9SM CLR M08/M11 A2992 1080 77 -1400 280/09 RMK AO2 TSNO
94908KDBQ DBQ20060221023010602/21/06 02:30:31  5-MIN KDBQ 210830Z AUTO 27008KT 9SM CLR M08/M11 A2992 1080 80 -1500 270/08 RMK AO2 TSNO
94908KDBQ DBQ20060221023510602/21/06 02:35:31  5-MIN KDBQ 210835Z AUTO 27008KT 9SM CLR M08/M12 A2992 1080 77 -1500 270/08 RMK AO2 TSNO
94908KDBQ DBQ20060221024010602/21/06 02:40:31  5-MIN KDBQ 210840Z AUTO 28009KT 9SM CLR M08/M11 A2992 1080 80 -1500 280/09 RMK AO2 TSNO
94908KDBQ DBQ20060221024510602/21/06 02:45:31  5-MIN KDBQ 210845Z AUTO 29008KT 9SM CLR M08/M11 A2992 1080 80 -1500 290/08 RMK AO2 TSNO
94908KDBQ DBQ20060221025012902/21/06 02:50:31  5-MIN KDBQ 210850Z AUTO 29008KT 9SM CLR M08/M11 A2992 1080 80 -1500 290/08 RMK AO2 SLP148 T10831111 51008 TSNO
94908KDBQ DBQ20060221025512902/21/06 02:55:31  5-MIN KDBQ 210855Z AUTO 30008KT 9SM CLR M08/M12 A2992 1080 77 -1500 300/08 RMK AO2 SLP149 T10831117 51014 TSNO
94908KDBQ DBQ20060221030010602/21/06 03:00:31  5-MIN KDBQ 210900Z AUTO 31008KT 9SM CLR M09/M12 A2992 1080 80 -1500 310/08 RMK AO2 TSNO
94908KDBQ DBQ20060221030510602/21/06 03:05:31  5-MIN KDBQ 210905Z AUTO 31009KT 9SM CLR M09/M12 A2992 1080 80 -1500 310/09 RMK AO2 TSNO
94908KDBQ DBQ20060221031010602/21/06 03:10:31  5-MIN KDBQ 210910Z AUTO 30008KT 9SM CLR M09/M12 A2992 1080 80 -1500 300/08 RMK AO2 TSNO
94908KDBQ DBQ20060221031510602/21/06 03:15:31  5-MIN KDBQ 210915Z AUTO 29008KT 9SM CLR M09/M12 A2992 1080 84 -1600 290/08 RMK AO2 TSNO
94908KDBQ DBQ20060221032010602/21/06 03:20:31  5-MIN KDBQ 210920Z AUTO 29009KT 9SM CLR M09/M12 A2992 1080 80 -1600 290/09 RMK AO2 TSNO
94908KDBQ DBQ20060221032510602/21/06 03:25:31  5-MIN KDBQ 210925Z AUTO 30008KT 9SM CLR M09/M12 A2992 1080 84 -1600 300/08 RMK AO2 TSNO
94908KDBQ DBQ20060221033010602/21/06 03:30:31  5-MIN KDBQ 210930Z AUTO 31008KT 9SM CLR M09/M12 A2992 1080 84 -1600 310/08 RMK AO2 TSNO
94908KDBQ DBQ20060221033510602/21/06 03:35:31  5-MIN KDBQ 210935Z AUTO 31008KT 9SM CLR M09/M12 A2993 1070 84 -1600 310/08 RMK AO2 TSNO
94908KDBQ DBQ20060221034010602/21/06 03:40:31  5-MIN KDBQ 210940Z AUTO 32008KT 9SM CLR M09/M12 A2993 1070 84 -1600 320/08 RMK AO2 TSNO
94908KDBQ DBQ20060221034510602/21/06 03:45:31  5-MIN KDBQ 210945Z AUTO 32008KT 9SM CLR M09/M12 A2993 1070 80 -1600 320/08 RMK AO2 TSNO
94908KDBQ DBQ20060221035012402/21/06 03:50:31  5-MIN KDBQ 210950Z AUTO 31007KT 10SM CLR M09/M12 A2993 1070 80 -1600 310/07 RMK AO2 SLP152 T10941122 TSNO
94908KDBQ DBQ20060221035512402/21/06 03:55:31  5-MIN KDBQ 210955Z AUTO 30007KT 10SM CLR M09/M12 A2993 1070 80 -1600 300/07 RMK AO2 SLP154 T10941122 TSNO
94908KDBQ DBQ20060221040010702/21/06 04:00:31  5-MIN KDBQ 211000Z AUTO 32008KT 10SM CLR M10/M12 A2994 1060 84 -1700 320/08 RMK AO2 TSNO
94908KDBQ DBQ20060221040510602/21/06 04:05:31  5-MIN KDBQ 211005Z AUTO 32008KT 9SM CLR M10/M13 A2994 1060 80 -1700 320/08 RMK AO2 TSNO
94908KDBQ DBQ20060221041010602/21/06 04:10:31  5-MIN KDBQ 211010Z AUTO 33008KT 9SM CLR M11/M13 A2994 1060 84 -1800 330/08 RMK AO2 TSNO
94908KDBQ DBQ20060221041510702/21/06 04:15:31  5-MIN KDBQ 211015Z AUTO 33009KT 10SM CLR M11/M13 A2994 1060 84 -1800 330/09 RMK AO2 TSNO
94908KDBQ DBQ20060221042010702/21/06 04:20:31  5-MIN KDBQ 211020Z AUTO 32009KT 10SM CLR M11/M13 A2994 1060 84 -1800 320/09 RMK AO2 TSNO
94908KDBQ DBQ20060221042510702/21/06 04:25:31  5-MIN KDBQ 211025Z AUTO 32008KT 10SM CLR M11/M13 A2994 1060 84 -1800 320/08 RMK AO2 TSNO
94908KDBQ DBQ20060221043010702/21/06 04:30:31  5-MIN KDBQ 211030Z AUTO 32007KT 10SM CLR M10/M13 A2995 1050 80 -1700 320/07 RMK AO2 TSNO
94908KDBQ DBQ20060221043510702/21/06 04:35:31  5-MIN KDBQ 211035Z AUTO 30006KT 10SM CLR M11/M12 A2995 1050 88 -1800 300/06 RMK AO2 TSNO
94908KDBQ DBQ20060221044010602/21/06 04:40:31  5-MIN KDBQ 211040Z AUTO 30006KT 9SM CLR M11/M13 A2995 1050 84 -1900 300/06 RMK AO2 TSNO
94908KDBQ DBQ20060221044510602/21/06 04:45:31  5-MIN KDBQ 211045Z AUTO 23003KT 9SM CLR M12/M14 A2995 1050 87 -2000 230/03 RMK AO2 TSNO
94908KDBQ DBQ20060221045012302/21/06 04:50:31  5-MIN KDBQ 211050Z AUTO 20005KT 8SM CLR M12/M14 A2996 1050 87 -2000 200/05 RMK AO2 SLP163 T11221139 TSNO
94908KDBQ DBQ20060221045512302/21/06 04:55:31  5-MIN KDBQ 211055Z AUTO VRB03KT 8SM CLR M12/M13 A2996 1050 87 -1900 VRB/03 RMK AO2 SLP162 T11171133 TSNO
94908KDBQ DBQ20060221050010602/21/06 05:00:31  5-MIN KDBQ 211100Z AUTO 00000KT 8SM CLR M11/M13 A2995 1050 84 -1900 000/00 RMK AO2 TSNO
94908KDBQ DBQ20060221050510602/21/06 05:05:31  5-MIN KDBQ 211105Z AUTO 00000KT 8SM CLR M11/M13 A2996 1050 84 -1900 000/00 RMK AO2 TSNO
94908KDBQ DBQ20060221051010602/21/06 05:10:31  5-MIN KDBQ 211110Z AUTO 00000KT 8SM CLR M11/M13 A2996 1050 88 -1900 000/00 RMK AO2 TSNO
94908KDBQ DBQ20060221051510602/21/06 05:15:31  5-MIN KDBQ 211115Z AUTO 00000KT 8SM CLR M11/M13 A2996 1040 88 -1900 000/00 RMK AO2 TSNO
94908KDBQ DBQ20060221052010602/21/06 05:20:31  5-MIN KDBQ 211120Z AUTO 25003KT 8SM CLR M12/M13 A2996 1040 91 -2000 250/03 RMK AO2 TSNO
94908KDBQ DBQ20060221052510602/21/06 05:25:31  5-MIN KDBQ 211125Z AUTO 27005KT 8SM CLR M12/M14 A2996 1040 87 -2000 270/05 RMK AO2 TSNO
94908KDBQ DBQ20060221053010602/21/06 05:30:31  5-MIN KDBQ 211130Z AUTO 29005KT 7SM CLR M13/M14 A2996 1040 87 -2100 290/05 RMK AO2 TSNO
94908KDBQ DBQ20060221053510602/21/06 05:35:31  5-MIN KDBQ 211135Z AUTO 31006KT 7SM CLR M13/M14 A2996 1040 91 -2100 310/06 RMK AO2 TSNO
94908KDBQ DBQ20060221054010602/21/06 05:40:31  5-MIN KDBQ 211140Z AUTO 31007KT 8SM CLR M12/M14 A2996 1040 87 -2000 310/07 RMK AO2 TSNO
94908KDBQ DBQ20060221054509602/21/06 05:45:31  5-MIN KDBQ 211145Z 31006KT 8SM CLR M12/M14 A2996 1040 87 -2000 310/06 RMK AO2
94908KDBQ DBQ20060221055013102/21/06 05:50:31  5-MIN KDBQ 211150Z 30006KT 8SM CLR M12/M13 A2997 1030 87 -2000 300/06 RMK AO2 SLP167 T11171133 11056 21128 51014
94908KDBQ DBQ20060221055513102/21/06 05:55:31  5-MIN KDBQ 211155Z 26005KT 8SM CLR M14/M15 A2997 1030 96 -2300 250/05 RMK AO2 SLP169 T11441150 11056 21144 52017
94908KDBQ DBQ20060221060009902/21/06 06:00:31  5-MIN KDBQ 211200Z 30005KT 6SM BR CLR M16/M17 A2997 1030 87 -2500 290/05 RMK AO2
94908KDBQ DBQ20060221060509602/21/06 06:05:31  5-MIN KDBQ 211205Z 30006KT 8SM CLR M16/M17 A2997 1040 91 -2500 300/06 RMK AO2
94908KDBQ DBQ20060221061009602/21/06 06:10:31  5-MIN KDBQ 211210Z 00000KT 8SM CLR M14/M17 A2997 1030 83 -2300 000/00 RMK AO2
94908KDBQ DBQ20060221061509602/21/06 06:15:31  5-MIN KDBQ 211215Z 00000KT 8SM CLR M14/M16 A2997 1030 87 -2300 000/00 RMK AO2
94908KDBQ DBQ20060221062009602/21/06 06:20:31  5-MIN KDBQ 211220Z 00000KT 8SM CLR M14/M16 A2997 1040 87 -2300 000/00 RMK AO2
94908KDBQ DBQ20060221062509602/21/06 06:25:31  5-MIN KDBQ 211225Z 22003KT 8SM CLR M14/M16 A2997 1040 83 -2300 220/03 RMK AO2
94908KDBQ DBQ20060221063009602/21/06 06:30:31  5-MIN KDBQ 211230Z 22003KT 8SM CLR M14/M16 A2997 1030 87 -2300 220/03 RMK AO2
94908KDBQ DBQ20060221063509602/21/06 06:35:31  5-MIN KDBQ 211235Z 21004KT 8SM CLR M14/M16 A2997 1030 87 -2300 200/04 RMK AO2
94908KDBQ DBQ20060221064009602/21/06 06:40:31  5-MIN KDBQ 211240Z 22005KT 8SM CLR M15/M17 A2997 1030 87 -2400 220/05 RMK AO2
94908KDBQ DBQ20060221064509602/21/06 06:45:31  5-MIN KDBQ 211245Z 26003KT 8SM CLR M14/M16 A2997 1030 87 -2300 260/03 RMK AO2
94908KDBQ DBQ20060221065011302/21/06 06:50:31  5-MIN KDBQ 211250Z 00000KT 8SM CLR M14/M16 A2997 1030 87 -2300 000/00 RMK AO2 SLP170 T11391156
94908KDBQ DBQ20060221065511302/21/06 06:55:31  5-MIN KDBQ 211255Z 21003KT 8SM CLR M13/M16 A2997 1030 83 -2200 210/03 RMK AO2 SLP171 T11331156
94908KDBQ DBQ20060221070009602/21/06 07:00:31  5-MIN KDBQ 211300Z 22004KT 8SM CLR M14/M16 A2997 1030 87 -2300 220/04 RMK AO2
94908KDBQ DBQ20060221070509602/21/06 07:05:31  5-MIN KDBQ 211305Z 00000KT 8SM CLR M14/M16 A2998 1030 87 -2300 000/00 RMK AO2
94908KDBQ DBQ20060221071009602/21/06 07:10:31  5-MIN KDBQ 211310Z 17003KT 8SM CLR M14/M16 A2998 1030 87 -2300 170/03 RMK AO2
94908KDBQ DBQ20060221071509602/21/06 07:15:31  5-MIN KDBQ 211315Z 20005KT 8SM CLR M14/M16 A2998 1020 87 -2300 200/05 RMK AO2
94908KDBQ DBQ20060221072009602/21/06 07:20:31  5-MIN KDBQ 211320Z 24004KT 8SM CLR M14/M16 A2998 1020 87 -2300 240/04 RMK AO2
94908KDBQ DBQ20060221072509602/21/06 07:25:31  5-MIN KDBQ 211325Z 23005KT 8SM CLR M14/M16 A2998 1020 91 -2300 220/05 RMK AO2
94908KDBQ DBQ20060221073009602/21/06 07:30:31  5-MIN KDBQ 211330Z 22005KT 8SM CLR M15/M17 A2999 1020 87 -2400 220/05 RMK AO2
94908KDBQ DBQ20060221073509602/21/06 07:35:31  5-MIN KDBQ 211335Z 26005KT 8SM CLR M16/M17 A2999 1020 91 -2500 260/05 RMK AO2
94908KDBQ DBQ20060221074009602/21/06 07:40:31  5-MIN KDBQ 211340Z 25004KT 8SM CLR M15/M17 A2999 1020 87 -2400 250/04 RMK AO2
94908KDBQ DBQ20060221074509602/21/06 07:45:31  5-MIN KDBQ 211345Z 23003KT 8SM CLR M14/M16 A2999 1010 87 -2300 230/03 RMK AO2
94908KDBQ DBQ20060221075011302/21/06 07:50:31  5-MIN KDBQ 211350Z 27004KT 8SM CLR M13/M14 A2999 1010 91 -2200 270/04 RMK AO2 SLP179 T11331144
94908KDBQ DBQ20060221075511302/21/06 07:55:31  5-MIN KDBQ 211355Z 26004KT 8SM CLR M13/M15 A3000 1010 87 -2200 260/04 RMK AO2 SLP178 T11331150
94908KDBQ DBQ20060221080009602/21/06 08:00:31  5-MIN KDBQ 211400Z 21004KT 8SM CLR M13/M14 A3000 1010 87 -2100 210/04 RMK AO2
94908KDBQ DBQ20060221080509602/21/06 08:05:31  5-MIN KDBQ 211405Z 22003KT 8SM CLR M13/M14 A3000 1000 91 -2100 220/03 RMK AO2
94908KDBQ DBQ20060221081009602/21/06 08:10:31  5-MIN KDBQ 211410Z 00000KT 8SM CLR M13/M14 A3000 1000 91 -2100 000/00 RMK AO2
94908KDBQ DBQ20060221174509702/21/06 17:45:31  5-MIN KDBQ 212345Z 16008KT 10SM CLR M05/M11 A2986 1130 62 -1000 160/08 RMK AO2
94908KDBQ DBQ20060221175013202/21/06 17:50:31  5-MIN KDBQ 212350Z 16009KT 10SM CLR M05/M11 A2986 1130 65 -1000 160/09 RMK AO2 SLP131 T10501106 11022 21056 58023
94908KDBQ DBQ20060221175513102/21/06 17:55:31  5-MIN KDBQ 212355Z 17009KT 10SM CLR M04/M11 A2986 1130 62 -900 170/09 RMK AO2 SLP132 T10441106 11022 21056 56024
94908KDBQ DBQ20060221180009602/21/06 18:00:31  5-MIN KDBQ 220000Z 17009KT 10SM CLR M04/M11 A2986 1130 62 -900 170/09 RMK AO2
94908KDBQ DBQ20060221180509702/21/06 18:05:31  5-MIN KDBQ 220005Z 17010KT 10SM CLR M05/M11 A2985 1140 65 -1000 160/10 RMK AO2
94908KDBQ DBQ20060221181009602/21/06 18:10:31  5-MIN KDBQ 220010Z 17009KT 10SM CLR M04/M10 A2985 1140 65 -900 170/09 RMK AO2
94908KDBQ DBQ20060221181509702/21/06 18:15:31  5-MIN KDBQ 220015Z 17009KT 10SM CLR M05/M10 A2985 1140 68 -1000 170/09 RMK AO2
94908KDBQ DBQ20060221182009702/21/06 18:20:31  5-MIN KDBQ 220020Z 17010KT 10SM CLR M05/M10 A2985 1140 68 -1000 170/10 RMK AO2
94908KDBQ DBQ20060221182509702/21/06 18:25:31  5-MIN KDBQ 220025Z 18010KT 10SM CLR M05/M10 A2986 1140 68 -1000 180/10 RMK AO2
94908KDBQ DBQ20060221183009702/21/06 18:30:31  5-MIN KDBQ 220030Z 18009KT 10SM CLR M05/M10 A2986 1140 68 -1000 180/09 RMK AO2
94908KDBQ DBQ20060221183509702/21/06 18:35:31  5-MIN KDBQ 220035Z 18007KT 10SM CLR M05/M10 A2986 1140 68 -1000 180/07 RMK AO2
94908KDBQ DBQ20060221184009702/21/06 18:40:31  5-MIN KDBQ 220040Z 18006KT 10SM CLR M06/M10 A2986 1130 71 -1000 170/06 RMK AO2
94908KDBQ DBQ20060221184509702/21/06 18:45:31  5-MIN KDBQ 220045Z 18006KT 10SM CLR M06/M11 A2986 1130 71 -1100 180/06 RMK AO2
94908KDBQ DBQ20060221185011402/21/06 18:50:31  5-MIN KDBQ 220050Z 19006KT 10SM CLR M06/M11 A2986 1130 71 -1100 180/06 RMK AO2 SLP133 T10611106
94908KDBQ DBQ20060221185511402/21/06 18:55:31  5-MIN KDBQ 220055Z 17005KT 10SM CLR M06/M10 A2986 1140 71 -1000 170/05 RMK AO2 SLP131 T10561100
94908KDBQ DBQ20060221190009702/21/06 19:00:31  5-MIN KDBQ 220100Z 17006KT 10SM CLR M06/M10 A2986 1130 74 -1100 170/06 RMK AO2
94908KDBQ DBQ20060221190509702/21/06 19:05:31  5-MIN KDBQ 220105Z 16008KT 10SM CLR M06/M10 A2986 1140 71 -1000 160/08 RMK AO2
94908KDBQ DBQ20060221191009602/21/06 19:10:31  5-MIN KDBQ 220110Z 16008KT 10SM CLR M04/M09 A2986 1140 68 -900 160/08 RMK AO2
94908KDBQ DBQ20060221191509602/21/06 19:15:31  5-MIN KDBQ 220115Z 16008KT 10SM CLR M04/M09 A2985 1140 68 -800 160/08 RMK AO2
94908KDBQ DBQ20060221192009602/21/06 19:20:31  5-MIN KDBQ 220120Z 16009KT 10SM CLR M04/M09 A2985 1140 68 -800 160/09 RMK AO2
94908KDBQ DBQ20060221192509602/21/06 19:25:31  5-MIN KDBQ 220125Z 16009KT 10SM CLR M04/M08 A2985 1140 71 -800 160/09 RMK AO2
94908KDBQ DBQ20060221193009902/21/06 19:30:31  5-MIN KDBQ 220130Z 17008KT 10SM FEW120 M03/M08 A2985 1140 68 -700 160/08 RMK AO2
94908KDBQ DBQ20060221193509902/21/06 19:35:31  5-MIN KDBQ 220135Z 16008KT 10SM FEW120 M03/M08 A2985 1150 68 -700 160/08 RMK AO2
94908KDBQ DBQ20060221194009902/21/06 19:40:31  5-MIN KDBQ 220140Z 16008KT 10SM FEW120 M03/M08 A2984 1150 68 -700 160/08 RMK AO2
94908KDBQ DBQ20060221194509902/21/06 19:45:31  5-MIN KDBQ 220145Z 16007KT 10SM FEW120 M03/M08 A2984 1150 71 -700 160/07 RMK AO2
94908KDBQ DBQ20060221195011602/21/06 19:50:31  5-MIN KDBQ 220150Z 17006KT 10SM FEW120 M03/M08 A2984 1160 71 -700 170/06 RMK AO2 SLP123 T10331078
94908KDBQ DBQ20060221195512602/21/06 19:55:31  5-MIN KDBQ 220155Z AUTO 19005KT 10SM FEW120 M03/M08 A2983 1160 71 -700 190/05 RMK AO2 SLP122 T10331078 TSNO
94908KDBQ DBQ20060221200010902/21/06 20:00:31  5-MIN KDBQ 220200Z AUTO 18006KT 10SM FEW120 M04/M08 A2983 1160 74 -800 180/06 RMK AO2 TSNO
94908KDBQ DBQ20060221200510902/21/06 20:05:31  5-MIN KDBQ 220205Z AUTO 18005KT 10SM FEW120 M03/M08 A2983 1160 71 -700 180/05 RMK AO2 TSNO
94908KDBQ DBQ20060221201010902/21/06 20:10:31  5-MIN KDBQ 220210Z AUTO 19007KT 10SM FEW120 M03/M08 A2983 1160 71 -700 190/07 RMK AO2 TSNO
94908KDBQ DBQ20060221201510602/21/06 20:15:31  5-MIN KDBQ 220215Z AUTO 17006KT 10SM CLR M03/M07 A2983 1160 74 -700 170/06 RMK AO2 TSNO
94908KDBQ DBQ20060221202010602/21/06 20:20:31  5-MIN KDBQ 220220Z AUTO 18008KT 10SM CLR M03/M07 A2983 1160 71 -600 180/08 RMK AO2 TSNO
94908KDBQ DBQ20060221202510602/21/06 20:25:31  5-MIN KDBQ 220225Z AUTO 17009KT 10SM CLR M03/M07 A2982 1170 71 -600 170/09 RMK AO2 TSNO
94908KDBQ DBQ20060221203010602/21/06 20:30:31  5-MIN KDBQ 220230Z AUTO 17009KT 10SM CLR M03/M07 A2982 1170 71 -600 170/09 RMK AO2 TSNO
94908KDBQ DBQ20060221203510602/21/06 20:35:31  5-MIN KDBQ 220235Z AUTO 17009KT 10SM CLR M03/M07 A2982 1170 74 -700 170/09 RMK AO2 TSNO
94908KDBQ DBQ20060221204010602/21/06 20:40:31  5-MIN KDBQ 220240Z AUTO 17009KT 10SM CLR M03/M07 A2982 1170 74 -700 170/09 RMK AO2 TSNO
94908KDBQ DBQ20060221204510602/21/06 20:45:31  5-MIN KDBQ 220245Z AUTO 17009KT 10SM CLR M03/M07 A2982 1170 74 -700 170/09 RMK AO2 TSNO
94908KDBQ DBQ20060221205012902/21/06 20:50:31  5-MIN KDBQ 220250Z AUTO 18009KT 10SM CLR M03/M07 A2982 1170 74 -700 180/09 RMK AO2 SLP117 T10331072 56024 TSNO
94908KDBQ DBQ20060221205512902/21/06 20:55:31  5-MIN KDBQ 220255Z AUTO 17010KT 10SM CLR M03/M07 A2982 1170 74 -700 170/10 RMK AO2 SLP116 T10331072 58013 TSNO
94908KDBQ DBQ20060221210010902/21/06 21:00:31  5-MIN KDBQ 220300Z AUTO 17010KT 10SM FEW120 M03/M07 A2982 1170 74 -700 170/10 RMK AO2 TSNO
94908KDBQ DBQ20060221210510902/21/06 21:05:31  5-MIN KDBQ 220305Z AUTO 17010KT 10SM FEW120 M03/M07 A2982 1170 74 -700 170/10 RMK AO2 TSNO
94908KDBQ DBQ20060221211010802/21/06 21:10:31  5-MIN KDBQ 220310Z AUTO 17009KT 9SM SCT120 M03/M07 A2982 1170 74 -700 170/09 RMK AO2 TSNO
94908KDBQ DBQ20060221211510902/21/06 21:15:31  5-MIN KDBQ 220315Z AUTO 17010KT 10SM SCT120 M03/M07 A2982 1170 74 -700 170/10 RMK AO2 TSNO
94908KDBQ DBQ20060221212010902/21/06 21:20:31  5-MIN KDBQ 220320Z AUTO 18009KT 10SM FEW120 M03/M07 A2982 1170 71 -600 180/09 RMK AO2 TSNO
94908KDBQ DBQ20060221212510902/21/06 21:25:31  5-MIN KDBQ 220325Z AUTO 18009KT 10SM FEW120 M03/M07 A2982 1170 71 -600 180/09 RMK AO2 TSNO
94908KDBQ DBQ20060221213010902/21/06 21:30:31  5-MIN KDBQ 220330Z AUTO 18009KT 10SM FEW120 M03/M07 A2981 1180 71 -600 180/09 RMK AO2 TSNO
94908KDBQ DBQ20060221213510902/21/06 21:35:31  5-MIN KDBQ 220335Z AUTO 18010KT 10SM FEW120 M03/M07 A2982 1180 71 -600 180/10 RMK AO2 TSNO
94908KDBQ DBQ20060221214010602/21/06 21:40:31  5-MIN KDBQ 220340Z AUTO 18009KT 10SM CLR M03/M07 A2981 1180 71 -600 180/09 RMK AO2 TSNO
94908KDBQ DBQ20060221214510602/21/06 21:45:31  5-MIN KDBQ 220345Z AUTO 19008KT 10SM CLR M03/M07 A2981 1180 74 -700 190/08 RMK AO2 TSNO
94908KDBQ DBQ20060221215012602/21/06 21:50:31  5-MIN KDBQ 220350Z AUTO 19008KT 10SM FEW100 M03/M07 A2981 1180 71 -600 190/08 RMK AO2 SLP113 T10281072 TSNO
94908KDBQ DBQ20060221215512602/21/06 21:55:31  5-MIN KDBQ 220355Z AUTO 20008KT 10SM SCT100 M03/M07 A2981 1180 71 -600 200/08 RMK AO2 SLP113 T10281072 TSNO
94908KDBQ DBQ20060221220010902/21/06 22:00:31  5-MIN KDBQ 220400Z AUTO 19008KT 10SM BKN100 M03/M07 A2982 1180 71 -600 190/08 RMK AO2 TSNO
94908KDBQ DBQ20060221220510802/21/06 22:05:31  5-MIN KDBQ 220405Z AUTO 20008KT 9SM BKN100 M03/M07 A2981 1180 74 -700 200/08 RMK AO2 TSNO
94908KDBQ DBQ20060221221010802/21/06 22:10:31  5-MIN KDBQ 220410Z AUTO 20007KT 9SM BKN100 M03/M07 A2982 1180 71 -600 190/07 RMK AO2 TSNO
94908KDBQ DBQ20060221221511502/21/06 22:15:31  5-MIN KDBQ 220415Z AUTO 19007KT 9SM FEW070 BKN100 M03/M07 A2982 1170 71 -600 190/07 RMK AO2 TSNO
94908KDBQ DBQ20060221222011502/21/06 22:20:31  5-MIN KDBQ 220420Z AUTO 18008KT 9SM SCT070 BKN100 M03/M07 A2982 1170 74 -700 180/08 RMK AO2 TSNO
94908KDBQ DBQ20060221222511502/21/06 22:25:31  5-MIN KDBQ 220425Z AUTO 19008KT 9SM FEW070 BKN100 M03/M07 A2982 1170 74 -700 190/08 RMK AO2 TSNO
94908KDBQ DBQ20060221223011502/21/06 22:30:31  5-MIN KDBQ 220430Z AUTO 19007KT 9SM FEW070 BKN100 M03/M07 A2982 1170 74 -700 190/07 RMK AO2 TSNO
94908KDBQ DBQ20060221223511502/21/06 22:35:31  5-MIN KDBQ 220435Z AUTO 19008KT 9SM FEW070 OVC095 M03/M07 A2982 1170 74 -700 190/08 RMK AO2 TSNO
94908KDBQ DBQ20060221224012202/21/06 22:40:31  5-MIN KDBQ 220440Z AUTO 19008KT 9SM FEW070 BKN095 BKN110 M03/M07 A2982 1170 74 -700 190/08 RMK AO2 TSNO
94908KDBQ DBQ20060221224512202/21/06 22:45:31  5-MIN KDBQ 220445Z AUTO 20007KT 9SM FEW070 BKN095 BKN110 M03/M07 A2982 1170 74 -700 200/07 RMK AO2 TSNO
94908KDBQ DBQ20060221225013902/21/06 22:50:31  5-MIN KDBQ 220450Z AUTO 23006KT 9SM SCT070 BKN095 OVC110 M03/M07 A2982 1170 74 -700 230/06 RMK AO2 SLP113 T10331072 TSNO
94908KDBQ DBQ20060221225513902/21/06 22:55:31  5-MIN KDBQ 220455Z AUTO 23007KT 9SM SCT070 BKN095 OVC110 M03/M07 A2982 1170 74 -700 220/07 RMK AO2 SLP114 T10331072 TSNO
94908KDBQ DBQ20060221230012202/21/06 23:00:31  5-MIN KDBQ 220500Z AUTO 22006KT 9SM BKN070 BKN090 OVC110 M03/M07 A2982 1180 75 -600 220/06 RMK AO2 TSNO
94908KDBQ DBQ20060221230512202/21/06 23:05:31  5-MIN KDBQ 220505Z AUTO 22005KT 9SM BKN070 BKN095 BKN110 M03/M07 A2981 1180 78 -700 220/05 RMK AO2 TSNO
94908KDBQ DBQ20060221231010802/21/06 23:10:31  5-MIN KDBQ 220510Z AUTO 20008KT 9SM OVC070 M03/M07 A2981 1180 78 -700 200/08 RMK AO2 TSNO
94908KDBQ DBQ20060221231510802/21/06 23:15:31  5-MIN KDBQ 220515Z AUTO 20007KT 9SM OVC070 M03/M07 A2981 1180 78 -700 200/07 RMK AO2 TSNO
94908KDBQ DBQ20060221232010802/21/06 23:20:31  5-MIN KDBQ 220520Z AUTO 20007KT 9SM OVC070 M03/M07 A2981 1180 75 -600 200/07 RMK AO2 TSNO
94908KDBQ DBQ20060221232512402/21/06 23:25:31  5-MIN KDBQ 220525Z AUTO 27008KT 220V300 9SM OVC070 M03/M07 A2982 1170 78 -700 270/08 220V300 RMK AO2 TSNO
94908KDBQ DBQ20060221233010802/21/06 23:30:31  5-MIN KDBQ 220530Z AUTO 27007KT 9SM OVC070 M02/M07 A2982 1170 72 -600 270/07 RMK AO2 TSNO
94908KDBQ DBQ20060221233510802/21/06 23:35:31  5-MIN KDBQ 220535Z AUTO 29009KT 9SM OVC070 M02/M06 A2983 1160 75 -600 290/09 RMK AO2 TSNO
94908KDBQ DBQ20060221234010802/21/06 23:40:31  5-MIN KDBQ 220540Z AUTO 28010KT 9SM OVC070 M02/M07 A2983 1160 72 -600 280/10 RMK AO2 TSNO
94908KDBQ DBQ20060221234511502/21/06 23:45:31  5-MIN KDBQ 220545Z AUTO 29008KT 9SM BKN070 OVC110 M02/M07 A2983 1160 72 -600 290/08 RMK AO2 TSNO
94908KDBQ DBQ20060221235016002/21/06 23:50:31  5-MIN KDBQ 220550Z AUTO 26007KT 9SM BKN075 BKN110 M02/M07 A2983 1170 72 -600 260/07 RMK AO2 SLP115 T10221067 11022 21061 410221161 58013 TSNO
94908KDBQ DBQ20060221235516802/21/06 23:55:31  5-MIN KDBQ 220555Z AUTO 28009KT 10SM FEW070 SCT080 BKN100 M02/M07 A2983 1160 72 -600 270/09 RMK AO2 SLP117 T10221067 11022 21061 410221161 53003 TSNO
94908KDBQ DBQ20060222000011602/22/06 00:00:38  5-MIN KDBQ 220600Z AUTO 27008KT 10SM SCT085 BKN100 M02/M07 A2983 1160 72 -600 270/08 RMK AO2 TSNO
94908KDBQ DBQ20060222000511602/22/06 00:05:31  5-MIN KDBQ 220605Z AUTO 26007KT 10SM SCT090 BKN110 M02/M07 A2983 1160 72 -600 260/07 RMK AO2 TSNO
94908KDBQ DBQ20060222001010902/22/06 00:10:31  5-MIN KDBQ 220610Z AUTO 26007KT 10SM BKN095 M02/M07 A2983 1160 72 -600 260/07 RMK AO2 TSNO
94908KDBQ DBQ20060222001510902/22/06 00:15:31  5-MIN KDBQ 220615Z AUTO 26006KT 10SM BKN095 M02/M07 A2983 1160 72 -600 260/06 RMK AO2 TSNO
94908KDBQ DBQ20060222002010802/22/06 00:20:31  5-MIN KDBQ 220620Z AUTO 23004KT 9SM BKN095 M03/M07 A2983 1160 74 -700 230/04 RMK AO2 TSNO
94908KDBQ DBQ20060222002510802/22/06 00:25:31  5-MIN KDBQ 220625Z AUTO 23004KT 9SM SCT095 M03/M07 A2984 1160 74 -700 230/04 RMK AO2 TSNO
94908KDBQ DBQ20060222003010802/22/06 00:30:31  5-MIN KDBQ 220630Z AUTO 22004KT 9SM SCT095 M03/M07 A2983 1160 74 -700 220/04 RMK AO2 TSNO
94908KDBQ DBQ20060222003510802/22/06 00:35:31  5-MIN KDBQ 220635Z AUTO 20004KT 9SM FEW100 M03/M07 A2983 1160 74 -700 200/04 RMK AO2 TSNO
94908KDBQ DBQ20060222004010802/22/06 00:40:31  5-MIN KDBQ 220640Z AUTO 20005KT 9SM SCT095 M03/M07 A2983 1160 71 -600 200/05 RMK AO2 TSNO
94908KDBQ DBQ20060222004510802/22/06 00:45:31  5-MIN KDBQ 220645Z AUTO 21005KT 9SM SCT090 M03/M07 A2983 1160 74 -700 210/05 RMK AO2 TSNO
94908KDBQ DBQ20060222005012502/22/06 00:50:31  5-MIN KDBQ 220650Z AUTO 22006KT 9SM BKN095 M03/M07 A2983 1160 74 -700 220/06 RMK AO2 SLP118 T10331072 TSNO
94908KDBQ DBQ20060222005512502/22/06 00:55:31  5-MIN KDBQ 220655Z AUTO 22006KT 9SM BKN100 M03/M07 A2983 1160 74 -700 220/06 RMK AO2 SLP118 T10331072 TSNO
94908KDBQ DBQ20060222010010802/22/06 01:00:31  5-MIN KDBQ 220700Z AUTO 21004KT 9SM BKN100 M03/M07 A2984 1160 74 -700 210/04 RMK AO2 TSNO
94908KDBQ DBQ20060222010510802/22/06 01:05:31  5-MIN KDBQ 220705Z AUTO 21004KT 9SM OVC095 M04/M07 A2984 1150 81 -900 210/04 RMK AO2 TSNO
94908KDBQ DBQ20060222011011502/22/06 01:10:31  5-MIN KDBQ 220710Z AUTO 22004KT 9SM BKN090 OVC100 M04/M07 A2984 1150 78 -800 220/04 RMK AO2 TSNO
94908KDBQ DBQ20060222011511502/22/06 01:15:31  5-MIN KDBQ 220715Z AUTO 23003KT 9SM BKN090 OVC100 M04/M07 A2984 1150 81 -900 230/03 RMK AO2 TSNO
94908KDBQ DBQ20060222012011502/22/06 01:20:31  5-MIN KDBQ 220720Z AUTO 22004KT 8SM BKN085 OVC100 M04/M07 A2984 1160 78 -800 220/04 RMK AO2 TSNO
94908KDBQ DBQ20060222012511502/22/06 01:25:31  5-MIN KDBQ 220725Z AUTO 22004KT 8SM BKN090 OVC100 M04/M07 A2984 1150 78 -800 220/04 RMK AO2 TSNO
94908KDBQ DBQ20060222013010802/22/06 01:30:31  5-MIN KDBQ 220730Z AUTO 22004KT 8SM OVC085 M04/M07 A2984 1150 81 -900 220/04 RMK AO2 TSNO
94908KDBQ DBQ20060222013511502/22/06 01:35:31  5-MIN KDBQ 220735Z AUTO 21005KT 8SM BKN085 OVC100 M04/M07 A2984 1150 81 -900 210/05 RMK AO2 TSNO
94908KDBQ DBQ20060222014010802/22/06 01:40:31  5-MIN KDBQ 220740Z AUTO 21004KT 8SM OVC085 M04/M07 A2984 1160 81 -900 210/04 RMK AO2 TSNO
94908KDBQ DBQ20060222014510802/22/06 01:45:31  5-MIN KDBQ 220745Z AUTO 22004KT 8SM OVC085 M04/M07 A2984 1160 81 -900 220/04 RMK AO2 TSNO
94908KDBQ DBQ20060222015012502/22/06 01:50:31  5-MIN KDBQ 220750Z AUTO 22004KT 8SM OVC085 M04/M07 A2984 1160 81 -900 220/04 RMK AO2 SLP118 T10441072 TSNO
94908KDBQ DBQ20060222015512502/22/06 01:55:31  5-MIN KDBQ 220755Z AUTO 21004KT 8SM OVC080 M04/M07 A2983 1160 81 -900 210/04 RMK AO2 SLP118 T10441072 TSNO
94908KDBQ DBQ20060222020010802/22/06 02:00:31  5-MIN KDBQ 220800Z AUTO 21005KT 8SM OVC085 M04/M07 A2983 1160 81 -900 210/05 RMK AO2 TSNO
94908KDBQ DBQ20060222020510802/22/06 02:05:31  5-MIN KDBQ 220805Z AUTO 20005KT 8SM OVC085 M04/M07 A2983 1160 81 -900 200/05 RMK AO2 TSNO
94908KDBQ DBQ20060222021010802/22/06 02:10:31  5-MIN KDBQ 220810Z AUTO 20005KT 8SM OVC085 M04/M07 A2983 1160 78 -800 200/05 RMK AO2 TSNO
94908KDBQ DBQ20060222021510802/22/06 02:15:31  5-MIN KDBQ 220815Z AUTO 20005KT 8SM OVC085 M04/M07 A2983 1170 78 -800 200/05 RMK AO2 TSNO
94908KDBQ DBQ20060222022010802/22/06 02:20:31  5-MIN KDBQ 220820Z AUTO 20006KT 8SM OVC085 M04/M07 A2982 1170 78 -800 200/06 RMK AO2 TSNO
94908KDBQ DBQ20060222022510802/22/06 02:25:31  5-MIN KDBQ 220825Z AUTO 20007KT 8SM OVC085 M04/M07 A2982 1170 78 -800 200/07 RMK AO2 TSNO
94908KDBQ DBQ20060222023010802/22/06 02:30:31  5-MIN KDBQ 220830Z AUTO 21006KT 8SM OVC085 M04/M07 A2981 1180 81 -800 210/06 RMK AO2 TSNO
94908KDBQ DBQ20060222023510802/22/06 02:35:31  5-MIN KDBQ 220835Z AUTO 20006KT 8SM OVC085 M04/M07 A2981 1180 81 -800 200/06 RMK AO2 TSNO
94908KDBQ DBQ20060222024010802/22/06 02:40:31  5-MIN KDBQ 220840Z AUTO 20005KT 8SM OVC090 M03/M07 A2981 1180 78 -700 200/05 RMK AO2 TSNO
94908KDBQ DBQ20060222024510802/22/06 02:45:31  5-MIN KDBQ 220845Z AUTO 20004KT 8SM OVC090 M03/M07 A2980 1190 78 -700 200/04 RMK AO2 TSNO
94908KDBQ DBQ20060222025013802/22/06 02:50:31  5-MIN KDBQ 220850Z AUTO 20003KT 8SM FEW075 OVC090 M03/M07 A2979 1190 78 -700 200/03 RMK AO2 SLP103 T10331067 53003 TSNO
94908KDBQ DBQ20060222025513802/22/06 02:55:31  5-MIN KDBQ 220855Z AUTO 00000KT 8SM SCT080 OVC090 M03/M07 A2979 1200 78 -700 000/00 RMK AO2 SLP102 T10331067 58013 TSNO
94908KDBQ DBQ20060222030011502/22/06 03:00:31  5-MIN KDBQ 220900Z AUTO 00000KT 8SM SCT080 OVC090 M03/M07 A2979 1200 78 -700 000/00 RMK AO2 TSNO
94908KDBQ DBQ20060222030511502/22/06 03:05:31  5-MIN KDBQ 220905Z AUTO 00000KT 8SM SCT080 OVC090 M03/M07 A2979 1200 75 -600 000/00 RMK AO2 TSNO
94908KDBQ DBQ20060222031011502/22/06 03:10:31  5-MIN KDBQ 220910Z AUTO 00000KT 8SM SCT080 BKN090 M03/M07 A2979 1200 78 -700 000/00 RMK AO2 TSNO
94908KDBQ DBQ20060222031511502/22/06 03:15:31  5-MIN KDBQ 220915Z AUTO 00000KT 8SM FEW075 SCT090 M03/M07 A2978 1210 78 -700 000/00 RMK AO2 TSNO
94908KDBQ DBQ20060222032011502/22/06 03:20:31  5-MIN KDBQ 220920Z AUTO 00000KT 8SM FEW075 SCT090 M03/M07 A2978 1210 75 -600 000/00 RMK AO2 TSNO
94908KDBQ DBQ20060222032510802/22/06 03:25:31  5-MIN KDBQ 220925Z AUTO 27003KT 8SM FEW080 M03/M06 A2978 1210 78 -600 270/03 RMK AO2 TSNO
94908KDBQ DBQ20060222033010502/22/06 03:30:31  5-MIN KDBQ 220930Z AUTO 00000KT 8SM CLR M03/M07 A2978 1210 75 -600 000/00 RMK AO2 TSNO
94908KDBQ DBQ20060222033510502/22/06 03:35:31  5-MIN KDBQ 220935Z AUTO 19004KT 8SM CLR M04/M07 A2978 1210 81 -700 190/04 RMK AO2 TSNO
94908KDBQ DBQ20060222034010502/22/06 03:40:31  5-MIN KDBQ 220940Z AUTO 19005KT 7SM CLR M06/M08 A2979 1200 84 -900 190/05 RMK AO2 TSNO
94908KDBQ DBQ20060222034510502/22/06 03:45:31  5-MIN KDBQ 220945Z AUTO 22006KT 7SM CLR M06/M08 A2979 1200 84 -900 210/06 RMK AO2 TSNO
94908KDBQ DBQ20060222035012302/22/06 03:50:31  5-MIN KDBQ 220950Z AUTO 22004KT 7SM CLR M07/M08 A2979 1200 88 -1100 220/04 RMK AO2 SLP102 T10671083 TSNO
94908KDBQ DBQ20060222035512602/22/06 03:55:31  5-MIN KDBQ 220955Z AUTO 21005KT 6SM BR CLR M07/M09 A2979 1200 84 -1200 210/05 RMK AO2 SLP102 T10721094 TSNO
94908KDBQ DBQ20060222040010902/22/06 04:00:31  5-MIN KDBQ 221000Z AUTO 23003KT 6SM BR CLR M07/M09 A2979 1200 88 -1200 230/03 RMK AO2 TSNO
94908KDBQ DBQ20060222040510902/22/06 04:05:31  5-MIN KDBQ 221005Z AUTO 25003KT 6SM BR CLR M07/M09 A2979 1200 88 -1200 250/03 RMK AO2 TSNO
94908KDBQ DBQ20060222041010902/22/06 04:10:31  5-MIN KDBQ 221010Z AUTO 22004KT 6SM BR CLR M07/M09 A2978 1200 84 -1200 220/04 RMK AO2 TSNO
94908KDBQ DBQ20060222041510902/22/06 04:15:31  5-MIN KDBQ 221015Z AUTO 20003KT 6SM BR CLR M06/M08 A2979 1200 84 -1000 200/03 RMK AO2 TSNO
94908KDBQ DBQ20060222042010902/22/06 04:20:31  5-MIN KDBQ 221020Z AUTO 00000KT 6SM BR CLR M06/M08 A2979 1200 84 -1000 000/00 RMK AO2 TSNO
94908KDBQ DBQ20060222042510602/22/06 04:25:31  5-MIN KDBQ 221025Z AUTO 00000KT 7SM CLR M06/M08 A2979 1200 84 -1000 000/00 RMK AO2 TSNO
94908KDBQ DBQ20060222043010502/22/06 04:30:31  5-MIN KDBQ 221030Z AUTO 00000KT 7SM CLR M05/M08 A2979 1200 81 -900 000/00 RMK AO2 TSNO
94908KDBQ DBQ20060222043510502/22/06 04:35:31  5-MIN KDBQ 221035Z AUTO 20003KT 7SM CLR M05/M08 A2980 1190 81 -900 200/03 RMK AO2 TSNO
94908KDBQ DBQ20060222044010502/22/06 04:40:31  5-MIN KDBQ 221040Z AUTO 20003KT 7SM CLR M05/M08 A2980 1190 81 -900 200/03 RMK AO2 TSNO
94908KDBQ DBQ20060222044510602/22/06 04:45:31  5-MIN KDBQ 221045Z AUTO 19004KT 7SM CLR M07/M08 A2980 1190 88 -1100 190/04 RMK AO2 TSNO
94908KDBQ DBQ20060222045012602/22/06 04:50:31  5-MIN KDBQ 221050Z AUTO 20005KT 6SM BR CLR M07/M09 A2980 1190 84 -1100 200/05 RMK AO2 SLP107 T10671089 TSNO
94908KDBQ DBQ20060222045512602/22/06 04:55:31  5-MIN KDBQ 221055Z AUTO 22003KT 6SM BR CLR M07/M08 A2980 1190 88 -1100 220/03 RMK AO2 SLP106 T10671083 TSNO
94908KDBQ DBQ20060222050010602/22/06 05:00:31  5-MIN KDBQ 221100Z AUTO 23003KT 7SM CLR M06/M08 A2980 1190 84 -1000 230/03 RMK AO2 TSNO
94908KDBQ DBQ20060222050510602/22/06 05:05:31  5-MIN KDBQ 221105Z AUTO 00000KT 7SM CLR M06/M08 A2980 1190 84 -1000 000/00 RMK AO2 TSNO
94908KDBQ DBQ20060222051010602/22/06 05:10:31  5-MIN KDBQ 221110Z AUTO 00000KT 7SM CLR M06/M08 A2980 1190 84 -1000 000/00 RMK AO2 TSNO
94908KDBQ DBQ20060222051510902/22/06 05:15:31  5-MIN KDBQ 221115Z AUTO 00000KT 6SM BR CLR M07/M08 A2981 1180 88 -1100 000/00 RMK AO2 TSNO
94908KDBQ DBQ20060222052010902/22/06 05:20:31  5-MIN KDBQ 221120Z AUTO 27003KT 6SM BR CLR M07/M08 A2981 1180 92 -1200 270/03 RMK AO2 TSNO
94908KDBQ DBQ20060222052510902/22/06 05:25:31  5-MIN KDBQ 221125Z AUTO 00000KT 6SM BR CLR M07/M09 A2981 1180 88 -1200 000/00 RMK AO2 TSNO
94908KDBQ DBQ20060222053010902/22/06 05:30:31  5-MIN KDBQ 221130Z AUTO 00000KT 6SM BR CLR M07/M08 A2981 1180 88 -1100 000/00 RMK AO2 TSNO
94908KDBQ DBQ20060222053510502/22/06 05:35:31  5-MIN KDBQ 221135Z AUTO 21004KT 7SM CLR M05/M08 A2981 1180 81 -900 210/04 RMK AO2 TSNO
94908KDBQ DBQ20060222054010602/22/06 05:40:31  5-MIN KDBQ 221140Z AUTO 21004KT 8SM CLR M06/M08 A2982 1180 84 -1000 210/04 RMK AO2 TSNO
94908KDBQ DBQ20060222054510602/22/06 05:45:31  5-MIN KDBQ 221145Z AUTO 21004KT 7SM CLR M06/M08 A2981 1180 88 -1100 210/04 RMK AO2 TSNO
94908KDBQ DBQ20060222055014102/22/06 05:50:31  5-MIN KDBQ 221150Z AUTO 22003KT 7SM CLR M06/M08 A2982 1180 84 -1100 220/03 RMK AO2 SLP113 T10611083 11022 21078 58013 TSNO
94908KDBQ DBQ20060222055514102/22/06 05:55:31  5-MIN KDBQ 221155Z AUTO 24003KT 7SM CLR M06/M08 A2982 1170 84 -1100 240/03 RMK AO2 SLP113 T10611083 11022 21078 53008 TSNO
94908KDBQ DBQ20060222060010602/22/06 06:00:31  5-MIN KDBQ 221200Z AUTO 24003KT 7SM CLR M07/M08 A2982 1170 88 -1100 240/03 RMK AO2 TSNO
94908KDBQ DBQ20060222060509902/22/06 06:05:31  5-MIN KDBQ 221205Z 25003KT 6SM BR CLR M07/M09 A2982 1170 84 -1100 250/03 RMK AO2
94908KDBQ DBQ20060222061009902/22/06 06:10:31  5-MIN KDBQ 221210Z 27004KT 6SM BR CLR M06/M08 A2982 1170 84 -1100 270/04 RMK AO2
94908KDBQ DBQ20060222061509602/22/06 06:15:31  5-MIN KDBQ 221215Z 27004KT 7SM CLR M06/M08 A2982 1180 84 -1100 270/04 RMK AO2
94908KDBQ DBQ20060222062009602/22/06 06:20:31  5-MIN KDBQ 221220Z 27004KT 7SM CLR M06/M08 A2982 1180 84 -1000 270/04 RMK AO2
94908KDBQ DBQ20060222062509602/22/06 06:25:31  5-MIN KDBQ 221225Z 26005KT 7SM CLR M07/M09 A2981 1180 84 -1100 260/05 RMK AO2
94908KDBQ DBQ20060222063009602/22/06 06:30:31  5-MIN KDBQ 221230Z 26004KT 7SM CLR M07/M08 A2982 1180 88 -1100 260/04 RMK AO2
94908KDBQ DBQ20060222063509602/22/06 06:35:31  5-MIN KDBQ 221235Z 28004KT 7SM CLR M07/M09 A2982 1170 88 -1200 270/04 RMK AO2
94908KDBQ DBQ20060222064009602/22/06 06:40:31  5-MIN KDBQ 221240Z 29004KT 7SM CLR M07/M09 A2982 1170 88 -1200 290/04 RMK AO2
94908KDBQ DBQ20060222064509602/22/06 06:45:31  5-MIN KDBQ 221245Z 30005KT 7SM CLR M07/M09 A2982 1170 88 -1200 300/05 RMK AO2
94908KDBQ DBQ20060222065011302/22/06 06:50:31  5-MIN KDBQ 221250Z 31005KT 7SM CLR M07/M09 A2982 1170 88 -1200 310/05 RMK AO2 SLP117 T10721089
94908KDBQ DBQ20060222065511302/22/06 06:55:31  5-MIN KDBQ 221255Z 31003KT 7SM CLR M08/M09 A2982 1170 92 -1300 310/03 RMK AO2 SLP117 T10781089
94908KDBQ DBQ20060222070009902/22/06 07:00:31  5-MIN KDBQ 221300Z 00000KT 6SM BR CLR M06/M08 A2983 1160 84 -1100 000/00 RMK AO2
94908KDBQ DBQ20060222070509902/22/06 07:05:31  5-MIN KDBQ 221305Z 00000KT 6SM BR CLR M07/M08 A2983 1160 88 -1100 000/00 RMK AO2
94908KDBQ DBQ20060222071009902/22/06 07:10:31  5-MIN KDBQ 221310Z 21005KT 6SM BR CLR M07/M09 A2983 1160 84 -1100 210/05 RMK AO2
94908KDBQ DBQ20060222071509902/22/06 07:15:31  5-MIN KDBQ 221315Z 22007KT 6SM BR CLR M07/M08 A2984 1150 88 -1200 220/07 RMK AO2
94908KDBQ DBQ20060222072009902/22/06 07:20:31  5-MIN KDBQ 221320Z 23006KT 6SM BR CLR M07/M09 A2984 1150 88 -1200 230/06 RMK AO2
94908KDBQ DBQ20060222072509902/22/06 07:25:31  5-MIN KDBQ 221325Z 23005KT 5SM BR CLR M07/M09 A2984 1150 88 -1200 230/05 RMK AO2
94908KDBQ DBQ20060222073009902/22/06 07:30:31  5-MIN KDBQ 221330Z 22004KT 5SM BR CLR M07/M08 A2985 1150 88 -1200 220/04 RMK AO2
94908KDBQ DBQ20060222073509902/22/06 07:35:31  5-MIN KDBQ 221335Z 22004KT 5SM BR CLR M07/M08 A2985 1140 92 -1200 210/04 RMK AO2
94908KDBQ DBQ20060222074009902/22/06 07:40:31  5-MIN KDBQ 221340Z 21004KT 5SM BR CLR M07/M08 A2985 1140 92 -1200 210/04 RMK AO2
94908KDBQ DBQ20060222074509902/22/06 07:45:31  5-MIN KDBQ 221345Z 21004KT 5SM BR CLR M07/M08 A2985 1140 88 -1200 210/04 RMK AO2
94908KDBQ DBQ20060222075011602/22/06 07:50:31  5-MIN KDBQ 221350Z 21004KT 5SM BR CLR M07/M08 A2986 1140 92 -1200 210/04 RMK AO2 SLP126 T10671078
94908KDBQ DBQ20060222075511602/22/06 07:55:31  5-MIN KDBQ 221355Z 22004KT 5SM BR CLR M07/M08 A2986 1140 92 -1200 220/04 RMK AO2 SLP127 T10671078
94908KDBQ DBQ20060222080009902/22/06 08:00:31  5-MIN KDBQ 221400Z 22005KT 5SM BR CLR M07/M08 A2986 1140 92 -1200 210/05 RMK AO2
94908KDBQ DBQ20060222080509902/22/06 08:05:31  5-MIN KDBQ 221405Z 22005KT 5SM BR CLR M08/M09 A2986 1130 92 -1300 220/05 RMK AO2
94908KDBQ DBQ20060222081009902/22/06 08:10:31  5-MIN KDBQ 221410Z 23003KT 5SM BR CLR M08/M09 A2987 1130 92 -1300 230/03 RMK AO2
94908KDBQ DBQ20060222081509902/22/06 08:15:31  5-MIN KDBQ 221415Z 00000KT 5SM BR CLR M07/M09 A2987 1130 84 -1300 000/00 RMK AO2
94908KDBQ DBQ20060222082009902/22/06 08:20:31  5-MIN KDBQ 221420Z 00000KT 5SM BR CLR M06/M08 A2987 1120 84 -1100 000/00 RMK AO2
94908KDBQ DBQ20060222082509902/22/06 08:25:31  5-MIN KDBQ 221425Z VRB03KT 5SM BR CLR M06/M08 A2987 1120 88 -1100 VRB/03 RMK AO2
94908KDBQ DBQ20060222083009902/22/06 08:30:31  5-MIN KDBQ 221430Z 00000KT 6SM BR CLR M06/M07 A2988 1120 88 -1100 000/00 RMK AO2
94908KDBQ DBQ20060222083509902/22/06 08:35:31  5-MIN KDBQ 221435Z VRB03KT 6SM BR CLR M06/M07 A2987 1120 88 -1100 VRB/03 RMK AO2
94908KDBQ DBQ20060222084009602/22/06 08:40:31  5-MIN KDBQ 221440Z 20003KT 7SM CLR M05/M07 A2988 1120 84 -1000 200/03 RMK AO2
94908KDBQ DBQ20060222084509502/22/06 08:45:31  5-MIN KDBQ 221445Z 22004KT 8SM CLR M04/M07 A2988 1120 84 -900 220/04 RMK AO2
94908KDBQ DBQ20060222085011802/22/06 08:50:31  5-MIN KDBQ 221450Z 21003KT 8SM CLR M04/M06 A2988 1120 88 -900 210/03 RMK AO2 SLP132 T10441061 53008
94908KDBQ DBQ20060222085511802/22/06 08:55:31  5-MIN KDBQ 221455Z 00000KT 8SM CLR M04/M06 A2988 1120 88 -900 000/00 RMK AO2 SLP132 T10441061 53020
94908KDBQ DBQ20060222090009502/22/06 09:00:31  5-MIN KDBQ 221500Z VRB03KT 9SM CLR M04/M06 A2988 1120 92 -900 VRB/03 RMK AO2
94908KDBQ DBQ20060222090509502/22/06 09:05:31  5-MIN KDBQ 221505Z 24003KT 9SM CLR M04/M06 A2988 1120 85 -800 240/03 RMK AO2
94908KDBQ DBQ20060222091009502/22/06 09:10:31  5-MIN KDBQ 221510Z 00000KT 9SM CLR M03/M06 A2987 1120 85 -800 000/00 RMK AO2
94908KDBQ DBQ20060222091509602/22/06 09:15:31  5-MIN KDBQ 221515Z 00000KT 10SM CLR M03/M06 A2987 1120 85 -800 000/00 RMK AO2
94908KDBQ DBQ20060222092009602/22/06 09:20:31  5-MIN KDBQ 221520Z 00000KT 10SM CLR M03/M06 A2987 1120 81 -700 000/00 RMK AO2
94908KDBQ DBQ20060222092509602/22/06 09:25:31  5-MIN KDBQ 221525Z 00000KT 10SM CLR M03/M06 A2987 1120 81 -700 000/00 RMK AO2
94908KDBQ DBQ20060222093009602/22/06 09:30:31  5-MIN KDBQ 221530Z 00000KT 10SM CLR M02/M06 A2987 1120 75 -600 000/00 RMK AO2
94908KDBQ DBQ20060222093509602/22/06 09:35:31  5-MIN KDBQ 221535Z 00000KT 10SM CLR M02/M06 A2987 1130 75 -600 000/00 RMK AO2
94908KDBQ DBQ20060222094009602/22/06 09:40:31  5-MIN KDBQ 221540Z 00000KT 10SM CLR M01/M06 A2987 1130 69 -400 000/00 RMK AO2
94908KDBQ DBQ20060222094509602/22/06 09:45:31  5-MIN KDBQ 221545Z 00000KT 10SM CLR M01/M06 A2987 1130 72 -500 000/00 RMK AO2
94908KDBQ DBQ20060222095011302/22/06 09:50:31  5-MIN KDBQ 221550Z 30006KT 10SM CLR M01/M06 A2987 1120 66 -400 300/06 RMK AO2 SLP129 T10061061
94908KDBQ DBQ20060222095511202/22/06 09:55:31  5-MIN KDBQ 221555Z 30008KT 10SM CLR 01/M07 A2987 1120 58 -300 300/08 RMK AO2 SLP127 T00061067
94908KDBQ DBQ20060222100009502/22/06 10:00:31  5-MIN KDBQ 221600Z 29007KT 10SM CLR 01/M07 A2987 1120 56 -300 290/07 RMK AO2
94908KDBQ DBQ20060222100509502/22/06 10:05:31  5-MIN KDBQ 221605Z 29007KT 10SM CLR 01/M07 A2987 1120 58 -300 290/07 RMK AO2
94908KDBQ DBQ20060222101009502/22/06 10:10:31  5-MIN KDBQ 221610Z 29008KT 10SM CLR 01/M07 A2987 1120 54 -200 290/08 RMK AO2
94908KDBQ DBQ20060222101509502/22/06 10:15:31  5-MIN KDBQ 221615Z 29008KT 10SM CLR 01/M08 A2987 1120 51 -200 290/08 RMK AO2
94908KDBQ DBQ20060222102009502/22/06 10:20:31  5-MIN KDBQ 221620Z 30009KT 10SM CLR 02/M07 A2987 1130 52 -100 300/09 RMK AO2
94908KDBQ DBQ20060222102509502/22/06 10:25:31  5-MIN KDBQ 221625Z 31009KT 10SM CLR 02/M07 A2987 1130 52 -100 300/09 RMK AO2
94908KDBQ DBQ20060222103009502/22/06 10:30:31  5-MIN KDBQ 221630Z 31009KT 10SM CLR 02/M08 A2986 1130 49 -100 310/09 RMK AO2
94908KDBQ DBQ20060222103509502/22/06 10:35:31  5-MIN KDBQ 221635Z 30008KT 10SM CLR 02/M08 A2986 1130 49 -100 300/08 RMK AO2
94908KDBQ DBQ20060222104009502/22/06 10:40:31  5-MIN KDBQ 221640Z 30010KT 10SM CLR 02/M07 A2986 1130 52 -100 300/10 RMK AO2
94908KDBQ DBQ20060222104509502/22/06 10:45:31  5-MIN KDBQ 221645Z 30010KT 10SM CLR 02/M08 A2986 1130 49 -100 300/10 RMK AO2
94908KDBQ DBQ20060222105011202/22/06 10:50:31  5-MIN KDBQ 221650Z 30010KT 10SM CLR 02/M08 A2987 1130 47 -100 300/10 RMK AO2 SLP127 T00221078
94908KDBQ DBQ20060222105511202/22/06 10:55:31  5-MIN KDBQ 221655Z 30010KT 10SM CLR 02/M08 A2987 1130 47 -100 300/10 RMK AO2 SLP127 T00221078
94908KDBQ DBQ20060222110009502/22/06 11:00:31  5-MIN KDBQ 221700Z 30011KT 10SM CLR 02/M08 A2987 1120 47 -100 300/11 RMK AO2
94908KDBQ DBQ20060222110509502/22/06 11:05:31  5-MIN KDBQ 221705Z 30010KT 10SM CLR 02/M08 A2987 1120 47 -100 300/10 RMK AO2
94908KDBQ DBQ20060222111009502/22/06 11:10:31  5-MIN KDBQ 221710Z 31010KT 10SM CLR 02/M07 A2988 1120 50 -100 300/10 RMK AO2
94908KDBQ DBQ20060222111509502/22/06 11:15:31  5-MIN KDBQ 221715Z 29008KT 10SM CLR 02/M07 A2988 1120 50 -100 290/08 RMK AO2
94908KDBQ DBQ20060222112009502/22/06 11:20:31  5-MIN KDBQ 221720Z 29010KT 10SM CLR 02/M07 A2988 1120 50 -100 290/10 RMK AO2
94908KDBQ DBQ20060222112509502/22/06 11:25:31  5-MIN KDBQ 221725Z 29007KT 10SM CLR 02/M07 A2988 1120 52 -100 290/07 RMK AO2
94908KDBQ DBQ20060222113009502/22/06 11:30:31  5-MIN KDBQ 221730Z 28006KT 10SM CLR 02/M07 A2988 1120 52 -100 280/06 RMK AO2
94908KDBQ DBQ20060222113509502/22/06 11:35:31  5-MIN KDBQ 221735Z 28009KT 10SM CLR 02/M07 A2988 1120 52 -100 280/09 RMK AO2
94908KDBQ DBQ20060222114009502/22/06 11:40:31  5-MIN KDBQ 221740Z 29009KT 10SM CLR 02/M07 A2988 1120 50 -100 280/09 RMK AO2
94908KDBQ DBQ20060222114509502/22/06 11:45:31  5-MIN KDBQ 221745Z 28008KT 10SM CLR 02/M07 A2987 1120 50 -100 270/08 RMK AO2
94908KDBQ DBQ20060222115013002/22/06 11:50:31  5-MIN KDBQ 221750Z 28007KT 10SM CLR 02/M07 A2987 1120 50 -100 270/07 RMK AO2 SLP127 T00221072 10022 21078 53020
94908KDBQ DBQ20060222115513002/22/06 11:55:31  5-MIN KDBQ 221755Z 27009KT 10SM CLR 02/M07 A2987 1120 50 -100 270/09 RMK AO2 SLP127 T00221072 10022 21078 55001
94908KDBQ DBQ20060222120009502/22/06 12:00:31  5-MIN KDBQ 221800Z 27010KT 10SM CLR 02/M07 A2987 1120 50 -100 270/10 RMK AO2
94908KDBQ DBQ20060222120509502/22/06 12:05:31  5-MIN KDBQ 221805Z 28010KT 10SM CLR 02/M08 A2987 1120 47 -100 280/10 RMK AO2
94908KDBQ DBQ20060222121009502/22/06 12:10:31  5-MIN KDBQ 221810Z 27008KT 10SM CLR 02/M07 A2987 1130 50 -100 270/08 RMK AO2
94908KDBQ DBQ20060222121509502/22/06 12:15:31  5-MIN KDBQ 221815Z 28009KT 10SM CLR 02/M07 A2987 1130 50 -100 270/09 RMK AO2
94908KDBQ DBQ20060222122009502/22/06 12:20:31  5-MIN KDBQ 221820Z 26009KT 10SM CLR 02/M07 A2987 1130 52 -100 260/09 RMK AO2
94908KDBQ DBQ20060222122509502/22/06 12:25:31  5-MIN KDBQ 221825Z 26010KT 10SM CLR 02/M07 A2986 1130 52 -100 260/10 RMK AO2
94908KDBQ DBQ20060222123009502/22/06 12:30:31  5-MIN KDBQ 221830Z 26010KT 10SM CLR 02/M07 A2986 1130 52 -100 260/10 RMK AO2
94908KDBQ DBQ20060222123509502/22/06 12:35:31  5-MIN KDBQ 221835Z 26011KT 10SM CLR 02/M07 A2986 1140 52 -100 260/11 RMK AO2
94908KDBQ DBQ20060222124009202/22/06 12:40:31  5-MIN KDBQ 221840Z 26009KT 10SM CLR 02/M07 A2986 1140 50 0 260/09 RMK AO2
94908KDBQ DBQ20060222124509202/22/06 12:45:31  5-MIN KDBQ 221845Z 27010KT 10SM CLR 02/M07 A2985 1140 50 0 270/10 RMK AO2
94908KDBQ DBQ20060222125010902/22/06 12:50:31  5-MIN KDBQ 221850Z 27008KT 10SM CLR 02/M07 A2985 1140 52 0 270/08 RMK AO2 SLP121 T00221067
94908KDBQ DBQ20060222125510902/22/06 12:55:31  5-MIN KDBQ 221855Z 26008KT 10SM CLR 02/M07 A2985 1140 52 0 250/08 RMK AO2 SLP120 T00221067
94908KDBQ DBQ20060222130009202/22/06 13:00:31  5-MIN KDBQ 221900Z 26008KT 10SM CLR 02/M07 A2985 1150 52 0 260/08 RMK AO2
94908KDBQ DBQ20060222130509202/22/06 13:05:31  5-MIN KDBQ 221905Z 25010KT 10SM CLR 02/M07 A2985 1150 52 0 250/10 RMK AO2
94908KDBQ DBQ20060222131009202/22/06 13:10:31  5-MIN KDBQ 221910Z 24010KT 10SM CLR 02/M07 A2984 1150 52 0 240/10 RMK AO2
94908KDBQ DBQ20060222131509202/22/06 13:15:31  5-MIN KDBQ 221915Z 25009KT 10SM CLR 02/M07 A2984 1150 52 0 250/09 RMK AO2
94908KDBQ DBQ20060222132009202/22/06 13:20:31  5-MIN KDBQ 221920Z 26010KT 10SM CLR 03/M07 A2984 1150 50 0 260/10 RMK AO2
94908KDBQ DBQ20060222132509202/22/06 13:25:31  5-MIN KDBQ 221925Z 24010KT 10SM CLR 03/M06 A2984 1160 52 0 240/10 RMK AO2
94908KDBQ DBQ20060222133009202/22/06 13:30:31  5-MIN KDBQ 221930Z 24009KT 10SM CLR 03/M06 A2984 1160 52 0 240/09 RMK AO2
94908KDBQ DBQ20060222133509202/22/06 13:35:31  5-MIN KDBQ 221935Z 24012KT 10SM CLR 03/M07 A2983 1160 50 0 240/12 RMK AO2
94908KDBQ DBQ20060222134009202/22/06 13:40:31  5-MIN KDBQ 221940Z 25010KT 10SM CLR 03/M06 A2983 1160 52 0 250/10 RMK AO2
94908KDBQ DBQ20060222134509202/22/06 13:45:31  5-MIN KDBQ 221945Z 26011KT 10SM CLR 03/M07 A2983 1160 50 0 260/11 RMK AO2
94908KDBQ DBQ20060222135010902/22/06 13:50:31  5-MIN KDBQ 221950Z 25010KT 10SM CLR 03/M06 A2983 1170 52 0 250/10 RMK AO2 SLP112 T00281061
94908KDBQ DBQ20060222135510902/22/06 13:55:31  5-MIN KDBQ 221955Z 26010KT 10SM CLR 03/M06 A2983 1170 52 0 260/10 RMK AO2 SLP112 T00281061
94908KDBQ DBQ20060222140009202/22/06 14:00:31  5-MIN KDBQ 222000Z 25010KT 10SM CLR 03/M06 A2982 1170 52 0 250/10 RMK AO2
94908KDBQ DBQ20060222140509202/22/06 14:05:31  5-MIN KDBQ 222005Z 26010KT 10SM CLR 03/M06 A2982 1170 52 0 260/10 RMK AO2
94908KDBQ DBQ20060222141009202/22/06 14:10:31  5-MIN KDBQ 222010Z 25009KT 10SM CLR 03/M06 A2982 1170 52 0 250/09 RMK AO2
94908KDBQ DBQ20060222141509202/22/06 14:15:31  5-MIN KDBQ 222015Z 26012KT 10SM CLR 03/M06 A2983 1170 52 0 260/12 RMK AO2
94908KDBQ DBQ20060222142009202/22/06 14:20:31  5-MIN KDBQ 222020Z 24009KT 10SM CLR 03/M06 A2982 1170 52 0 240/09 RMK AO2
94908KDBQ DBQ20060222142509202/22/06 14:25:31  5-MIN KDBQ 222025Z 26011KT 10SM CLR 03/M07 A2982 1170 50 0 250/11 RMK AO2
94908KDBQ DBQ20060222143009202/22/06 14:30:31  5-MIN KDBQ 222030Z 25009KT 10SM CLR 03/M07 A2982 1170 50 0 250/09 RMK AO2
94908KDBQ DBQ20060222143509202/22/06 14:35:31  5-MIN KDBQ 222035Z 26009KT 10SM CLR 03/M06 A2982 1170 52 0 260/09 RMK AO2
94908KDBQ DBQ20060222144009202/22/06 14:40:31  5-MIN KDBQ 222040Z 25010KT 10SM CLR 03/M06 A2982 1170 52 0 250/10 RMK AO2
94908KDBQ DBQ20060222144509202/22/06 14:45:31  5-MIN KDBQ 222045Z 25009KT 10SM CLR 03/M06 A2982 1170 52 0 250/09 RMK AO2
94908KDBQ DBQ20060222145011702/22/06 14:50:31  5-MIN KDBQ 222050Z 27009KT 10SM CLR 03/M06 A2982 1170 50 100 260/09 RMK AO2 SLP110 T00331061 55001
94908KDBQ DBQ20060222145511702/22/06 14:55:31  5-MIN KDBQ 222055Z 27011KT 10SM CLR 03/M07 A2982 1170 48 100 270/11 RMK AO2 SLP110 T00331067 56017
94908KDBQ DBQ20060222150009902/22/06 15:00:31  5-MIN KDBQ 222100Z AUTO 26011KT 10SM CLR 03/M07 A2982 1170 48 100 260/11 RMK AO2
94908KDBQ DBQ20060222150510402/22/06 15:05:31  5-MIN KDBQ 222105Z AUTO 27010KT 10SM CLR 03/M07 A2982 1170 48 100 270/10 RMK AO2 TSNO
94908KDBQ DBQ20060222151010402/22/06 15:10:31  5-MIN KDBQ 222110Z AUTO 26010KT 10SM CLR 03/M07 A2983 1170 48 100 260/10 RMK AO2 TSNO
94908KDBQ DBQ20060222151510402/22/06 15:15:31  5-MIN KDBQ 222115Z AUTO 26012KT 10SM CLR 03/M07 A2983 1160 48 100 260/12 RMK AO2 TSNO
94908KDBQ DBQ20060222152010402/22/06 15:20:31  5-MIN KDBQ 222120Z AUTO 27009KT 10SM CLR 03/M07 A2983 1160 48 100 270/09 RMK AO2 TSNO
94908KDBQ DBQ20060222152510402/22/06 15:25:31  5-MIN KDBQ 222125Z AUTO 26010KT 10SM CLR 03/M07 A2983 1160 48 100 260/10 RMK AO2 TSNO
94908KDBQ DBQ20060222153010402/22/06 15:30:31  5-MIN KDBQ 222130Z AUTO 27011KT 10SM CLR 03/M07 A2983 1160 48 100 270/11 RMK AO2 TSNO
94908KDBQ DBQ20060222153510402/22/06 15:35:31  5-MIN KDBQ 222135Z AUTO 26011KT 10SM CLR 03/M06 A2983 1170 50 100 260/11 RMK AO2 TSNO
94908KDBQ DBQ20060222154009402/22/06 15:40:31  5-MIN KDBQ 222140Z 26010KT 10SM CLR 03/M07 A2983 1160 48 100 260/10 RMK AO2
94908KDBQ DBQ20060222154509702/22/06 15:45:31  5-MIN KDBQ 222145Z 26009KT 10SM FEW055 03/M06 A2983 1160 50 100 260/09 RMK AO2
94908KDBQ DBQ20060222155011402/22/06 15:50:31  5-MIN KDBQ 222150Z 26008KT 10SM SCT055 03/M06 A2983 1160 50 100 260/08 RMK AO2 SLP114 T00331061
94908KDBQ DBQ20060222155511202/22/06 15:55:31  5-MIN KDBQ 222155Z 26009KT 10SM SCT055 03/M06 A2983 1170 54 0 260/09 RMK AO2 SLP113 T00281056
94908KDBQ DBQ20060222160009502/22/06 16:00:31  5-MIN KDBQ 222200Z 26007KT 10SM BKN055 03/M06 A2983 1170 54 0 260/07 RMK AO2
94908KDBQ DBQ20060222160509502/22/06 16:05:31  5-MIN KDBQ 222205Z 26006KT 10SM BKN055 03/M06 A2983 1170 52 0 250/06 RMK AO2
94908KDBQ DBQ20060222161009502/22/06 16:10:31  5-MIN KDBQ 222210Z 25007KT 10SM BKN060 03/M05 A2982 1170 56 0 250/07 RMK AO2
94908KDBQ DBQ20060222161509502/22/06 16:15:31  5-MIN KDBQ 222215Z 25005KT 10SM BKN060 03/M05 A2982 1170 56 0 250/05 RMK AO2
94908KDBQ DBQ20060222162009502/22/06 16:20:31  5-MIN KDBQ 222220Z 24006KT 10SM BKN060 03/M04 A2982 1170 59 0 240/06 RMK AO2
94908KDBQ DBQ20060222162509502/22/06 16:25:31  5-MIN KDBQ 222225Z 24005KT 10SM BKN060 03/M04 A2982 1170 59 0 240/05 RMK AO2
94908KDBQ DBQ20060222163009502/22/06 16:30:31  5-MIN KDBQ 222230Z 24007KT 10SM SCT060 03/M05 A2982 1170 56 0 240/07 RMK AO2
94908KDBQ DBQ20060222163509702/22/06 16:35:31  5-MIN KDBQ 222235Z 24008KT 10SM SCT060 03/M06 A2982 1170 52 100 240/08 RMK AO2
94908KDBQ DBQ20060222164009502/22/06 16:40:31  5-MIN KDBQ 222240Z 24007KT 10SM FEW060 03/M05 A2982 1170 56 0 240/07 RMK AO2
94908KDBQ DBQ20060222164509502/22/06 16:45:31  5-MIN KDBQ 222245Z 24007KT 10SM FEW060 03/M05 A2982 1170 56 0 240/07 RMK AO2
94908KDBQ DBQ20060222165010902/22/06 16:50:31  5-MIN KDBQ 222250Z 24006KT 10SM CLR 03/M05 A2982 1170 56 0 240/06 RMK AO2 SLP111 T00281050
94908KDBQ DBQ20060222165510902/22/06 16:55:31  5-MIN KDBQ 222255Z 23006KT 10SM CLR 03/M05 A2982 1170 56 0 230/06 RMK AO2 SLP111 T00281050
94908KDBQ DBQ20060222170009202/22/06 17:00:31  5-MIN KDBQ 222300Z 23006KT 10SM CLR 03/M05 A2982 1170 56 0 220/06 RMK AO2
94908KDBQ DBQ20060222170509202/22/06 17:05:31  5-MIN KDBQ 222305Z 23005KT 10SM CLR 03/M05 A2982 1170 56 0 230/05 RMK AO2
94908KDBQ DBQ20060222171009202/22/06 17:10:31  5-MIN KDBQ 222310Z 23006KT 10SM CLR 02/M05 A2982 1170 59 0 230/06 RMK AO2
94908KDBQ DBQ20060222171509202/22/06 17:15:31  5-MIN KDBQ 222315Z 23005KT 10SM CLR 02/M05 A2982 1170 59 0 230/05 RMK AO2
94908KDBQ DBQ20060222172009502/22/06 17:20:31  5-MIN KDBQ 222320Z 23004KT 10SM CLR 02/M05 A2982 1170 61 -100 230/04 RMK AO2
94908KDBQ DBQ20060222172509502/22/06 17:25:31  5-MIN KDBQ 222325Z 22005KT 10SM CLR 02/M05 A2982 1170 61 -100 220/05 RMK AO2
94908KDBQ DBQ20060222173009202/22/06 17:30:31  5-MIN KDBQ 222330Z 21003KT 10SM CLR 02/M06 A2983 1170 56 0 210/03 RMK AO2
94908KDBQ DBQ20060222173509502/22/06 17:35:31  5-MIN KDBQ 222335Z 21004KT 10SM CLR 02/M05 A2983 1160 61 -100 210/04 RMK AO2
94908KDBQ DBQ20060222174009502/22/06 17:40:31  5-MIN KDBQ 222340Z 21004KT 10SM CLR 02/M06 A2983 1160 59 -100 210/04 RMK AO2
94908KDBQ DBQ20060222174509502/22/06 17:45:31  5-MIN KDBQ 222345Z 20003KT 10SM CLR 01/M06 A2983 1160 61 -200 200/03 RMK AO2
94908KDBQ DBQ20060222175013002/22/06 17:50:31  5-MIN KDBQ 222350Z 21003KT 10SM CLR 01/M06 A2983 1160 61 -200 210/03 RMK AO2 SLP114 T00111056 10033 20011 56017
94908KDBQ DBQ20060222175513002/22/06 17:55:31  5-MIN KDBQ 222355Z 21003KT 10SM CLR 01/M06 A2983 1160 61 -200 210/03 RMK AO2 SLP114 T00111056 10033 20011 53002
94908KDBQ DBQ20060222180009502/22/06 18:00:31  5-MIN KDBQ 230000Z 21004KT 10SM CLR 01/M06 A2983 1160 61 -200 200/04 RMK AO2
94908KDBQ DBQ20060222180509502/22/06 18:05:31  5-MIN KDBQ 230005Z 20005KT 10SM CLR 01/M06 A2983 1160 63 -200 200/05 RMK AO2
94908KDBQ DBQ20060222181009502/22/06 18:10:31  5-MIN KDBQ 230010Z 21005KT 10SM CLR 01/M06 A2983 1160 61 -200 210/05 RMK AO2
94908KDBQ DBQ20060222181509502/22/06 18:15:31  5-MIN KDBQ 230015Z 21005KT 10SM CLR 01/M06 A2983 1160 61 -200 210/05 RMK AO2
94908KDBQ DBQ20060222182009502/22/06 18:20:31  5-MIN KDBQ 230020Z 21006KT 10SM CLR 01/M06 A2983 1160 61 -200 210/06 RMK AO2
94908KDBQ DBQ20060222182509502/22/06 18:25:31  5-MIN KDBQ 230025Z 19006KT 10SM CLR 00/M06 A2983 1160 63 -300 190/06 RMK AO2
94908KDBQ DBQ20060222183009502/22/06 18:30:31  5-MIN KDBQ 230030Z 19006KT 10SM CLR 00/M06 A2984 1160 63 -300 190/06 RMK AO2
94908KDBQ DBQ20060222183509602/22/06 18:35:31  5-MIN KDBQ 230035Z 19006KT 10SM CLR M01/M06 A2984 1150 66 -400 190/06 RMK AO2
94908KDBQ DBQ20060222184009602/22/06 18:40:31  5-MIN KDBQ 230040Z 19004KT 10SM CLR M02/M07 A2984 1150 69 -500 190/04 RMK AO2
94908KDBQ DBQ20060222184509602/22/06 18:45:31  5-MIN KDBQ 230045Z 19004KT 10SM CLR M01/M07 A2984 1150 63 -400 190/04 RMK AO2
94908KDBQ DBQ20060222185011302/22/06 18:50:31  5-MIN KDBQ 230050Z 20005KT 10SM CLR M01/M07 A2985 1150 66 -500 200/05 RMK AO2 SLP122 T10111067
94908KDBQ DBQ20060222185511302/22/06 18:55:31  5-MIN KDBQ 230055Z 20004KT 10SM CLR M01/M07 A2985 1150 66 -500 200/04 RMK AO2 SLP122 T10111067
94908KDBQ DBQ20060222190009602/22/06 19:00:31  5-MIN KDBQ 230100Z 20005KT 10SM CLR M01/M07 A2985 1150 63 -400 200/05 RMK AO2
94908KDBQ DBQ20060222190509602/22/06 19:05:31  5-MIN KDBQ 230105Z 20005KT 10SM CLR M01/M07 A2985 1140 63 -400 200/05 RMK AO2
94908KDBQ DBQ20060222191009602/22/06 19:10:31  5-MIN KDBQ 230110Z 20005KT 10SM CLR M01/M07 A2985 1140 63 -400 200/05 RMK AO2
94908KDBQ DBQ20060222191509602/22/06 19:15:31  5-MIN KDBQ 230115Z 21004KT 10SM CLR M01/M07 A2985 1140 66 -500 210/04 RMK AO2
94908KDBQ DBQ20060222192009602/22/06 19:20:31  5-MIN KDBQ 230120Z 21005KT 10SM CLR M01/M07 A2985 1140 66 -500 210/05 RMK AO2
94908KDBQ DBQ20060222192509602/22/06 19:25:31  5-MIN KDBQ 230125Z 20005KT 10SM CLR M01/M07 A2985 1140 66 -500 200/05 RMK AO2
94908KDBQ DBQ20060222193009602/22/06 19:30:31  5-MIN KDBQ 230130Z 20005KT 10SM CLR M02/M07 A2985 1140 69 -500 200/05 RMK AO2
94908KDBQ DBQ20060222193509602/22/06 19:35:31  5-MIN KDBQ 230135Z 20006KT 10SM CLR M02/M07 A2985 1140 69 -500 200/06 RMK AO2
94908KDBQ DBQ20060222194009602/22/06 19:40:31  5-MIN KDBQ 230140Z 20005KT 10SM CLR M02/M07 A2985 1140 66 -500 200/05 RMK AO2
94908KDBQ DBQ20060222194509602/22/06 19:45:31  5-MIN KDBQ 230145Z 19006KT 10SM CLR M02/M07 A2985 1140 66 -500 190/06 RMK AO2
94908KDBQ DBQ20060222195011302/22/06 19:50:31  5-MIN KDBQ 230150Z 19005KT 10SM CLR M02/M07 A2985 1140 66 -500 190/05 RMK AO2 SLP124 T10171072
94908KDBQ DBQ20060222195511302/22/06 19:55:31  5-MIN KDBQ 230155Z 19005KT 10SM CLR M02/M07 A2985 1140 69 -600 190/05 RMK AO2 SLP123 T10221072
94908KDBQ DBQ20060222200010602/22/06 20:00:31  5-MIN KDBQ 230200Z AUTO 19007KT 10SM CLR M02/M07 A2985 1140 69 -600 190/07 RMK AO2 TSNO
94908KDBQ DBQ20060222200510602/22/06 20:05:31  5-MIN KDBQ 230205Z AUTO 19008KT 10SM CLR M02/M07 A2985 1150 69 -600 190/08 RMK AO2 TSNO
94908KDBQ DBQ20060222201010602/22/06 20:10:31  5-MIN KDBQ 230210Z AUTO 20007KT 10SM CLR M02/M07 A2985 1150 69 -600 200/07 RMK AO2 TSNO
94908KDBQ DBQ20060222201510602/22/06 20:15:31  5-MIN KDBQ 230215Z AUTO 20008KT 10SM CLR M02/M07 A2985 1150 69 -600 200/08 RMK AO2 TSNO
94908KDBQ DBQ20060222202010602/22/06 20:20:31  5-MIN KDBQ 230220Z AUTO 21007KT 10SM CLR M02/M07 A2985 1150 69 -600 200/07 RMK AO2 TSNO
94908KDBQ DBQ20060222202510602/22/06 20:25:31  5-MIN KDBQ 230225Z AUTO 20008KT 10SM CLR M02/M07 A2985 1150 66 -500 200/08 RMK AO2 TSNO
94908KDBQ DBQ20060222203010602/22/06 20:30:31  5-MIN KDBQ 230230Z AUTO 21006KT 10SM CLR M02/M07 A2985 1150 66 -500 200/06 RMK AO2 TSNO
94908KDBQ DBQ20060222203510602/22/06 20:35:31  5-MIN KDBQ 230235Z AUTO 21006KT 10SM CLR M02/M07 A2985 1150 69 -600 210/06 RMK AO2 TSNO
94908KDBQ DBQ20060222204010902/22/06 20:40:31  5-MIN KDBQ 230240Z AUTO 21005KT 10SM FEW060 M02/M07 A2985 1150 69 -600 210/05 RMK AO2 TSNO
94908KDBQ DBQ20060222204510902/22/06 20:45:31  5-MIN KDBQ 230245Z AUTO 21005KT 10SM FEW060 M02/M07 A2985 1150 69 -600 200/05 RMK AO2 TSNO
94908KDBQ DBQ20060222205012902/22/06 20:50:31  5-MIN KDBQ 230250Z AUTO 21005KT 10SM CLR M02/M07 A2985 1150 69 -600 210/05 RMK AO2 SLP121 T10221072 53002 TSNO
94908KDBQ DBQ20060222205512902/22/06 20:55:31  5-MIN KDBQ 230255Z AUTO 21004KT 10SM CLR M02/M07 A2985 1150 66 -500 210/04 RMK AO2 SLP121 T10171072 50006 TSNO
94908KDBQ DBQ20060222210010602/22/06 21:00:31  5-MIN KDBQ 230300Z AUTO 21004KT 10SM CLR M02/M07 A2985 1150 66 -500 210/04 RMK AO2 TSNO
94908KDBQ DBQ20060222210510602/22/06 21:05:31  5-MIN KDBQ 230305Z AUTO 21003KT 10SM CLR M01/M07 A2985 1150 63 -500 210/03 RMK AO2 TSNO
94908KDBQ DBQ20060222211010602/22/06 21:10:31  5-MIN KDBQ 230310Z AUTO 21004KT 10SM CLR M01/M07 A2985 1150 63 -500 210/04 RMK AO2 TSNO
94908KDBQ DBQ20060222211510602/22/06 21:15:31  5-MIN KDBQ 230315Z AUTO 20004KT 10SM CLR M02/M07 A2985 1140 66 -500 200/04 RMK AO2 TSNO
94908KDBQ DBQ20060222212010602/22/06 21:20:31  5-MIN KDBQ 230320Z AUTO 21005KT 10SM CLR M02/M07 A2985 1140 69 -600 210/05 RMK AO2 TSNO
94908KDBQ DBQ20060222212510602/22/06 21:25:31  5-MIN KDBQ 230325Z AUTO 21004KT 10SM CLR M02/M07 A2985 1140 69 -600 210/04 RMK AO2 TSNO
94908KDBQ DBQ20060222213010602/22/06 21:30:31  5-MIN KDBQ 230330Z AUTO 20005KT 10SM CLR M02/M07 A2985 1150 69 -600 200/05 RMK AO2 TSNO
94908KDBQ DBQ20060222213510602/22/06 21:35:31  5-MIN KDBQ 230335Z AUTO 20005KT 10SM CLR M03/M08 A2985 1150 68 -700 190/05 RMK AO2 TSNO
94908KDBQ DBQ20060222214010602/22/06 21:40:31  5-MIN KDBQ 230340Z AUTO 19005KT 10SM CLR M03/M08 A2985 1150 71 -700 190/05 RMK AO2 TSNO
94908KDBQ DBQ20060222214510602/22/06 21:45:31  5-MIN KDBQ 230345Z AUTO 20006KT 10SM CLR M03/M08 A2985 1150 71 -700 190/06 RMK AO2 TSNO
94908KDBQ DBQ20060222215012302/22/06 21:50:31  5-MIN KDBQ 230350Z AUTO 19006KT 10SM CLR M03/M08 A2985 1150 71 -700 190/06 RMK AO2 SLP120 T10331078 TSNO
94908KDBQ DBQ20060222215512302/22/06 21:55:31  5-MIN KDBQ 230355Z AUTO 20007KT 10SM CLR M04/M08 A2985 1150 74 -800 200/07 RMK AO2 SLP121 T10391078 TSNO
94908KDBQ DBQ20060222220010602/22/06 22:00:31  5-MIN KDBQ 230400Z AUTO 20007KT 10SM CLR M03/M08 A2985 1150 71 -700 200/07 RMK AO2 TSNO
94908KDBQ DBQ20060222220509802/22/06 22:05:31  5-MIN KDBQ 230405Z AUTO 10SM CLR M04/M08 A2985 1140 71 -800 M /M RMK AO2 TSNO $
94908KDBQ DBQ20060222221010802/22/06 22:10:31  5-MIN KDBQ 230410Z AUTO 20007KT 10SM CLR M04/M08 A2985 1140 71 -800 190/07 RMK AO2 TSNO $
94908KDBQ DBQ20060222221510802/22/06 22:15:31  5-MIN KDBQ 230415Z AUTO 20007KT 10SM CLR M04/M08 A2985 1140 71 -800 190/07 RMK AO2 TSNO $
94908KDBQ DBQ20060222222010802/22/06 22:20:31  5-MIN KDBQ 230420Z AUTO 20007KT 10SM CLR M03/M08 A2985 1140 68 -700 190/07 RMK AO2 TSNO $
94908KDBQ DBQ20060222222510802/22/06 22:25:31  5-MIN KDBQ 230425Z AUTO 20007KT 10SM CLR M03/M08 A2985 1140 68 -700 200/07 RMK AO2 TSNO $
94908KDBQ DBQ20060222223010802/22/06 22:30:31  5-MIN KDBQ 230430Z AUTO 20007KT 10SM CLR M04/M08 A2985 1140 71 -800 200/07 RMK AO2 TSNO $
94908KDBQ DBQ20060222223510802/22/06 22:35:31  5-MIN KDBQ 230435Z AUTO 20007KT 10SM CLR M04/M08 A2985 1140 71 -800 200/07 RMK AO2 TSNO $
94908KDBQ DBQ20060222224010802/22/06 22:40:31  5-MIN KDBQ 230440Z AUTO 20006KT 10SM CLR M03/M08 A2985 1140 68 -700 200/06 RMK AO2 TSNO $
94908KDBQ DBQ20060222224510802/22/06 22:45:31  5-MIN KDBQ 230445Z AUTO 20005KT 10SM CLR M04/M08 A2986 1140 71 -800 200/05 RMK AO2 TSNO $
94908KDBQ DBQ20060222225012502/22/06 22:50:31  5-MIN KDBQ 230450Z AUTO 20005KT 10SM CLR M04/M08 A2986 1140 71 -800 200/05 RMK AO2 SLP123 T10391083 TSNO $
94908KDBQ DBQ20060222225512502/22/06 22:55:31  5-MIN KDBQ 230455Z AUTO 21005KT 10SM CLR M04/M08 A2986 1140 71 -800 210/05 RMK AO2 SLP123 T10391083 TSNO $
94908KDBQ DBQ20060222230010802/22/06 23:00:31  5-MIN KDBQ 230500Z AUTO 22004KT 10SM CLR M03/M08 A2986 1140 71 -700 210/04 RMK AO2 TSNO $
94908KDBQ DBQ20060222230510802/22/06 23:05:31  5-MIN KDBQ 230505Z AUTO 21004KT 10SM CLR M03/M08 A2986 1130 71 -800 210/04 RMK AO2 TSNO $
94908KDBQ DBQ20060222231010802/22/06 23:10:31  5-MIN KDBQ 230510Z AUTO 22003KT 10SM CLR M03/M08 A2986 1130 68 -700 220/03 RMK AO2 TSNO $
94908KDBQ DBQ20060222231510802/22/06 23:15:31  5-MIN KDBQ 230515Z AUTO 22004KT 10SM CLR M03/M08 A2986 1130 68 -700 210/04 RMK AO2 TSNO $
94908KDBQ DBQ20060222232010802/22/06 23:20:31  5-MIN KDBQ 230520Z AUTO 21004KT 10SM CLR M03/M08 A2986 1130 71 -800 210/04 RMK AO2 TSNO $
94908KDBQ DBQ20060222232510802/22/06 23:25:31  5-MIN KDBQ 230525Z AUTO 22004KT 10SM CLR M04/M08 A2986 1130 74 -800 210/04 RMK AO2 TSNO $
94908KDBQ DBQ20060222233010802/22/06 23:30:31  5-MIN KDBQ 230530Z AUTO 22004KT 10SM CLR M03/M08 A2986 1130 71 -800 220/04 RMK AO2 TSNO $
94908KDBQ DBQ20060222233510802/22/06 23:35:31  5-MIN KDBQ 230535Z AUTO 22004KT 10SM CLR M04/M08 A2987 1130 74 -800 220/04 RMK AO2 TSNO $
94908KDBQ DBQ20060222234010802/22/06 23:40:31  5-MIN KDBQ 230540Z AUTO 22004KT 10SM CLR M04/M08 A2987 1130 74 -800 220/04 RMK AO2 TSNO $
94908KDBQ DBQ20060222234510802/22/06 23:45:31  5-MIN KDBQ 230545Z AUTO 22005KT 10SM CLR M04/M08 A2987 1130 74 -900 220/05 RMK AO2 TSNO $
94908KDBQ DBQ20060222235015302/22/06 23:50:31  5-MIN KDBQ 230550Z AUTO 22005KT 10SM CLR M04/M08 A2987 1130 74 -800 220/05 RMK AO2 SLP126 T10391078 10011 21044 400331078 50006 TSNO $
94908KDBQ DBQ20060222235515302/22/06 23:55:31  5-MIN KDBQ 230555Z AUTO 22005KT 10SM CLR M03/M08 A2987 1130 71 -800 220/05 RMK AO2 SLP126 T10331078 10011 21044 400331078 53006 TSNO $
94908KDBQ DBQ20060223000010802/23/06 00:00:38  5-MIN KDBQ 230600Z AUTO 22005KT 10SM CLR M04/M08 A2987 1130 74 -800 220/05 RMK AO2 TSNO $
94908KDBQ DBQ20060223000510802/23/06 00:05:31  5-MIN KDBQ 230605Z AUTO 22004KT 10SM CLR M04/M08 A2987 1120 74 -800 220/04 RMK AO2 TSNO $
94908KDBQ DBQ20060223001010802/23/06 00:10:31  5-MIN KDBQ 230610Z AUTO 22004KT 10SM CLR M04/M08 A2987 1120 74 -800 220/04 RMK AO2 TSNO $
94908KDBQ DBQ20060223001510802/23/06 00:15:31  5-MIN KDBQ 230615Z AUTO 20003KT 10SM CLR M04/M08 A2987 1120 74 -900 200/03 RMK AO2 TSNO $
94908KDBQ DBQ20060223002010802/23/06 00:20:31  5-MIN KDBQ 230620Z AUTO 19003KT 10SM CLR M04/M08 A2987 1120 74 -900 190/03 RMK AO2 TSNO $
94908KDBQ DBQ20060223002510802/23/06 00:25:31  5-MIN KDBQ 230625Z AUTO 19003KT 10SM CLR M04/M08 A2987 1120 74 -900 190/03 RMK AO2 TSNO $
94908KDBQ DBQ20060223003010802/23/06 00:30:31  5-MIN KDBQ 230630Z AUTO 19003KT 10SM CLR M03/M08 A2987 1120 71 -800 190/03 RMK AO2 TSNO $
94908KDBQ DBQ20060223003510802/23/06 00:35:31  5-MIN KDBQ 230635Z AUTO 19005KT 10SM CLR M03/M08 A2987 1120 71 -800 190/05 RMK AO2 TSNO $
94908KDBQ DBQ20060223004010802/23/06 00:40:31  5-MIN KDBQ 230640Z AUTO 19005KT 10SM CLR M03/M08 A2987 1120 71 -800 190/05 RMK AO2 TSNO $
94908KDBQ DBQ20060223004510802/23/06 00:45:31  5-MIN KDBQ 230645Z AUTO 19005KT 10SM CLR M04/M08 A2987 1120 74 -800 190/05 RMK AO2 TSNO $
94908KDBQ DBQ20060223005012502/23/06 00:50:31  5-MIN KDBQ 230650Z AUTO 20004KT 10SM CLR M04/M08 A2988 1120 71 -800 200/04 RMK AO2 SLP129 T10391083 TSNO $
94908KDBQ DBQ20060223005512502/23/06 00:55:31  5-MIN KDBQ 230655Z AUTO 21005KT 10SM CLR M04/M08 A2987 1120 74 -900 200/05 RMK AO2 SLP129 T10441083 TSNO $
94908KDBQ DBQ20060223010010802/23/06 01:00:31  5-MIN KDBQ 230700Z AUTO 21005KT 10SM CLR M04/M08 A2987 1120 74 -900 210/05 RMK AO2 TSNO $
94908KDBQ DBQ20060223010510802/23/06 01:05:31  5-MIN KDBQ 230705Z AUTO 21005KT 10SM CLR M04/M08 A2987 1120 74 -900 210/05 RMK AO2 TSNO $
94908KDBQ DBQ20060223011010802/23/06 01:10:31  5-MIN KDBQ 230710Z AUTO 21004KT 10SM CLR M04/M08 A2987 1120 74 -900 210/04 RMK AO2 TSNO $
94908KDBQ DBQ20060223011510802/23/06 01:15:31  5-MIN KDBQ 230715Z AUTO 20004KT 10SM CLR M04/M08 A2987 1120 74 -900 200/04 RMK AO2 TSNO $
94908KDBQ DBQ20060223012010802/23/06 01:20:31  5-MIN KDBQ 230720Z AUTO 20005KT 10SM CLR M04/M08 A2987 1120 74 -900 190/05 RMK AO2 TSNO $
94908KDBQ DBQ20060223012510802/23/06 01:25:31  5-MIN KDBQ 230725Z AUTO 20005KT 10SM CLR M04/M08 A2987 1120 74 -900 190/05 RMK AO2 TSNO $
94908KDBQ DBQ20060223013010902/23/06 01:30:31  5-MIN KDBQ 230730Z AUTO 20006KT 10SM CLR M06/M09 A2988 1120 77 -1100 200/06 RMK AO2 TSNO $
94908KDBQ DBQ20060223013510902/23/06 01:35:31  5-MIN KDBQ 230735Z AUTO 21006KT 10SM CLR M06/M09 A2988 1120 77 -1100 210/06 RMK AO2 TSNO $
94908KDBQ DBQ20060223014010902/23/06 01:40:31  5-MIN KDBQ 230740Z AUTO 21005KT 10SM CLR M05/M09 A2988 1120 74 -1000 210/05 RMK AO2 TSNO $
94908KDBQ DBQ20060223014510902/23/06 01:45:31  5-MIN KDBQ 230745Z AUTO 21006KT 10SM CLR M06/M09 A2988 1120 81 -1100 210/06 RMK AO2 TSNO $
94908KDBQ DBQ20060223015012602/23/06 01:50:31  5-MIN KDBQ 230750Z AUTO 21006KT 10SM CLR M06/M09 A2988 1120 77 -1100 210/06 RMK AO2 SLP131 T10611094 TSNO $
94908KDBQ DBQ20060223015512602/23/06 01:55:31  5-MIN KDBQ 230755Z AUTO 21006KT 10SM CLR M06/M09 A2988 1120 77 -1100 210/06 RMK AO2 SLP131 T10611094 TSNO $
94908KDBQ DBQ20060223020010902/23/06 02:00:31  5-MIN KDBQ 230800Z AUTO 21006KT 10SM CLR M06/M09 A2988 1110 77 -1100 210/06 RMK AO2 TSNO $
94908KDBQ DBQ20060223020510902/23/06 02:05:31  5-MIN KDBQ 230805Z AUTO 21006KT 10SM CLR M06/M09 A2988 1110 77 -1100 210/06 RMK AO2 TSNO $
94908KDBQ DBQ20060223021010902/23/06 02:10:31  5-MIN KDBQ 230810Z AUTO 21006KT 10SM CLR M06/M09 A2988 1120 81 -1100 210/06 RMK AO2 TSNO $
94908KDBQ DBQ20060223021510902/23/06 02:15:31  5-MIN KDBQ 230815Z AUTO 22006KT 10SM CLR M06/M09 A2988 1120 77 -1100 220/06 RMK AO2 TSNO $
94908KDBQ DBQ20060223022010902/23/06 02:20:31  5-MIN KDBQ 230820Z AUTO 22006KT 10SM CLR M06/M09 A2988 1120 77 -1100 220/06 RMK AO2 TSNO $
94908KDBQ DBQ20060223022510902/23/06 02:25:31  5-MIN KDBQ 230825Z AUTO 23006KT 10SM CLR M06/M09 A2988 1110 81 -1100 230/06 RMK AO2 TSNO $
94908KDBQ DBQ20060223023010902/23/06 02:30:31  5-MIN KDBQ 230830Z AUTO 23006KT 10SM CLR M06/M09 A2988 1110 81 -1100 220/06 RMK AO2 TSNO $
94908KDBQ DBQ20060223023510902/23/06 02:35:31  5-MIN KDBQ 230835Z AUTO 22006KT 10SM CLR M06/M09 A2988 1110 77 -1100 220/06 RMK AO2 TSNO $
94908KDBQ DBQ20060223024010902/23/06 02:40:31  5-MIN KDBQ 230840Z AUTO 22006KT 10SM CLR M06/M09 A2988 1120 77 -1100 220/06 RMK AO2 TSNO $
94908KDBQ DBQ20060223024510902/23/06 02:45:31  5-MIN KDBQ 230845Z AUTO 22006KT 10SM CLR M06/M09 A2988 1120 81 -1100 220/06 RMK AO2 TSNO $
94908KDBQ DBQ20060223025013202/23/06 02:50:31  5-MIN KDBQ 230850Z AUTO 22006KT 10SM CLR M06/M09 A2988 1120 77 -1100 220/06 RMK AO2 SLP130 T10561089 53006 TSNO $
94908KDBQ DBQ20060223025513202/23/06 02:55:31  5-MIN KDBQ 230855Z AUTO 22006KT 10SM CLR M06/M09 A2988 1120 81 -1100 220/06 RMK AO2 SLP130 T10611089 50004 TSNO $
94908KDBQ DBQ20060223030010902/23/06 03:00:31  5-MIN KDBQ 230900Z AUTO 22006KT 10SM CLR M06/M09 A2988 1120 77 -1100 220/06 RMK AO2 TSNO $
94908KDBQ DBQ20060223030510902/23/06 03:05:31  5-MIN KDBQ 230905Z AUTO 22006KT 10SM CLR M06/M08 A2988 1120 81 -1100 220/06 RMK AO2 TSNO $
94908KDBQ DBQ20060223031010902/23/06 03:10:31  5-MIN KDBQ 230910Z AUTO 22006KT 10SM CLR M06/M08 A2987 1120 81 -1100 220/06 RMK AO2 TSNO $
94908KDBQ DBQ20060223031510902/23/06 03:15:31  5-MIN KDBQ 230915Z AUTO 21006KT 10SM CLR M06/M08 A2987 1120 81 -1000 210/06 RMK AO2 TSNO $
94908KDBQ DBQ20060223032010902/23/06 03:20:31  5-MIN KDBQ 230920Z AUTO 21006KT 10SM CLR M06/M09 A2987 1130 81 -1100 210/06 RMK AO2 TSNO $
94908KDBQ DBQ20060223032510902/23/06 03:25:31  5-MIN KDBQ 230925Z AUTO 22006KT 10SM CLR M06/M09 A2987 1130 81 -1100 220/06 RMK AO2 TSNO $
94908KDBQ DBQ20060223033010902/23/06 03:30:31  5-MIN KDBQ 230930Z AUTO 21006KT 10SM CLR M06/M09 A2987 1130 81 -1100 210/06 RMK AO2 TSNO $
94908KDBQ DBQ20060223033510902/23/06 03:35:31  5-MIN KDBQ 230935Z AUTO 22005KT 10SM CLR M06/M09 A2987 1130 81 -1100 210/05 RMK AO2 TSNO $
94908KDBQ DBQ20060223034010902/23/06 03:40:31  5-MIN KDBQ 230940Z AUTO 21005KT 10SM CLR M06/M09 A2986 1130 81 -1100 210/05 RMK AO2 TSNO $
94908KDBQ DBQ20060223034510902/23/06 03:45:31  5-MIN KDBQ 230945Z AUTO 21005KT 10SM CLR M06/M08 A2986 1130 81 -1000 210/05 RMK AO2 TSNO $
94908KDBQ DBQ20060223035012602/23/06 03:50:31  5-MIN KDBQ 230950Z AUTO 21006KT 10SM CLR M06/M08 A2986 1130 81 -1000 210/06 RMK AO2 SLP125 T10561083 TSNO $
94908KDBQ DBQ20060223035512602/23/06 03:55:31  5-MIN KDBQ 230955Z AUTO 21006KT 10SM CLR M06/M09 A2986 1130 81 -1100 210/06 RMK AO2 SLP125 T10611089 TSNO $
94908KDBQ DBQ20060223040010902/23/06 04:00:31  5-MIN KDBQ 231000Z AUTO 21006KT 10SM CLR M06/M09 A2986 1130 81 -1100 210/06 RMK AO2 TSNO $
94908KDBQ DBQ20060223040510902/23/06 04:05:31  5-MIN KDBQ 231005Z AUTO 20006KT 10SM CLR M06/M09 A2986 1130 81 -1100 200/06 RMK AO2 TSNO $
94908KDBQ DBQ20060223041010902/23/06 04:10:31  5-MIN KDBQ 231010Z AUTO 21006KT 10SM CLR M06/M09 A2986 1130 81 -1100 210/06 RMK AO2 TSNO $
94908KDBQ DBQ20060223041510902/23/06 04:15:31  5-MIN KDBQ 231015Z AUTO 21006KT 10SM CLR M06/M09 A2986 1130 81 -1100 210/06 RMK AO2 TSNO $
94908KDBQ DBQ20060223042010902/23/06 04:20:31  5-MIN KDBQ 231020Z AUTO 21006KT 10SM CLR M07/M09 A2986 1130 84 -1300 210/06 RMK AO2 TSNO $
94908KDBQ DBQ20060223042510902/23/06 04:25:31  5-MIN KDBQ 231025Z AUTO 21007KT 10SM CLR M07/M09 A2987 1130 84 -1200 210/07 RMK AO2 TSNO $
94908KDBQ DBQ20060223043010902/23/06 04:30:31  5-MIN KDBQ 231030Z AUTO 22007KT 10SM CLR M06/M09 A2987 1120 81 -1100 220/07 RMK AO2 TSNO $
94908KDBQ DBQ20060223043510902/23/06 04:35:31  5-MIN KDBQ 231035Z AUTO 22007KT 10SM CLR M07/M09 A2987 1120 88 -1300 220/07 RMK AO2 TSNO $
94908KDBQ DBQ20060223044010902/23/06 04:40:31  5-MIN KDBQ 231040Z AUTO 22006KT 10SM CLR M07/M09 A2988 1120 84 -1200 220/06 RMK AO2 TSNO $
94908KDBQ DBQ20060223044510902/23/06 04:45:31  5-MIN KDBQ 231045Z AUTO 22006KT 10SM CLR M07/M09 A2988 1120 84 -1200 220/06 RMK AO2 TSNO $
94908KDBQ DBQ20060223045012602/23/06 04:50:31  5-MIN KDBQ 231050Z AUTO 22006KT 10SM CLR M07/M09 A2989 1110 84 -1200 220/06 RMK AO2 SLP133 T10671089 TSNO $
94908KDBQ DBQ20060223045512602/23/06 04:55:31  5-MIN KDBQ 231055Z AUTO 25005KT 10SM CLR M07/M09 A2989 1110 84 -1200 250/05 RMK AO2 SLP135 T10671089 TSNO $
94908KDBQ DBQ20060223050010902/23/06 05:00:31  5-MIN KDBQ 231100Z AUTO 23006KT 10SM CLR M07/M09 A2989 1110 84 -1300 230/06 RMK AO2 TSNO $
94908KDBQ DBQ20060223050510902/23/06 05:05:31  5-MIN KDBQ 231105Z AUTO 23004KT 10SM CLR M06/M09 A2989 1110 81 -1100 230/04 RMK AO2 TSNO $
94908KDBQ DBQ20060223051010902/23/06 05:10:31  5-MIN KDBQ 231110Z AUTO 24006KT 10SM CLR M06/M08 A2989 1110 84 -1100 240/06 RMK AO2 TSNO $
94908KDBQ DBQ20060223051510902/23/06 05:15:31  5-MIN KDBQ 231115Z AUTO 26007KT 10SM CLR M06/M09 A2990 1100 81 -1100 260/07 RMK AO2 TSNO $
94908KDBQ DBQ20060223052010902/23/06 05:20:31  5-MIN KDBQ 231120Z AUTO 26009KT 10SM CLR M06/M09 A2990 1100 81 -1100 260/09 RMK AO2 TSNO $
94908KDBQ DBQ20060223052510802/23/06 05:25:31  5-MIN KDBQ 231125Z AUTO 26010KT 10SM CLR M04/M08 A2990 1100 78 -900 260/10 RMK AO2 TSNO $
94908KDBQ DBQ20060223053010802/23/06 05:30:31  5-MIN KDBQ 231130Z AUTO 26009KT 10SM CLR M03/M07 A2990 1100 74 -800 260/09 RMK AO2 TSNO $
94908KDBQ DBQ20060223053510802/23/06 05:35:31  5-MIN KDBQ 231135Z AUTO 26009KT 10SM CLR M03/M07 A2990 1100 74 -800 260/09 RMK AO2 TSNO $
94908KDBQ DBQ20060223054010802/23/06 05:40:31  5-MIN KDBQ 231140Z AUTO 26009KT 10SM CLR M04/M07 A2990 1100 78 -900 260/09 RMK AO2 TSNO $
94908KDBQ DBQ20060223054510802/23/06 05:45:31  5-MIN KDBQ 231145Z AUTO 26008KT 10SM CLR M04/M07 A2990 1100 78 -900 260/08 RMK AO2 TSNO $
94908KDBQ DBQ20060223055014302/23/06 05:50:31  5-MIN KDBQ 231150Z AUTO 27009KT 10SM CLR M03/M07 A2990 1100 74 -800 270/09 RMK AO2 SLP137 T10331072 11033 21072 50004 TSNO $
94908KDBQ DBQ20060223055514302/23/06 05:55:31  5-MIN KDBQ 231155Z AUTO 26009KT 10SM CLR M03/M07 A2990 1100 74 -800 260/09 RMK AO2 SLP137 T10331072 11033 21072 53007 TSNO $
94908KDBQ DBQ20060223060010802/23/06 06:00:31  5-MIN KDBQ 231200Z AUTO 27010KT 10SM CLR M03/M07 A2990 1090 74 -800 270/10 RMK AO2 TSNO $
94908KDBQ DBQ20060223060509802/23/06 06:05:31  5-MIN KDBQ 231205Z 27010KT 10SM CLR M03/M07 A2991 1090 74 -800 270/10 RMK AO2 $
94908KDBQ DBQ20060223061009802/23/06 06:10:31  5-MIN KDBQ 231210Z 28010KT 10SM CLR M03/M07 A2991 1090 75 -700 280/10 RMK AO2 $
94908KDBQ DBQ20060223061509802/23/06 06:15:31  5-MIN KDBQ 231215Z 28012KT 10SM CLR M03/M07 A2991 1090 75 -700 280/12 RMK AO2 $
94908KDBQ DBQ20060223062009802/23/06 06:20:31  5-MIN KDBQ 231220Z 29010KT 10SM CLR M03/M07 A2991 1080 71 -700 290/10 RMK AO2 $
94908KDBQ DBQ20060223062509802/23/06 06:25:31  5-MIN KDBQ 231225Z 29010KT 10SM CLR M03/M07 A2991 1080 71 -700 290/10 RMK AO2 $
94908KDBQ DBQ20060223063009802/23/06 06:30:31  5-MIN KDBQ 231230Z 29009KT 10SM CLR M03/M07 A2992 1080 71 -800 290/09 RMK AO2 $
94908KDBQ DBQ20060223063509802/23/06 06:35:31  5-MIN KDBQ 231235Z 30009KT 10SM CLR M03/M07 A2993 1070 71 -800 300/09 RMK AO2 $
94908KDBQ DBQ20060223064009802/23/06 06:40:31  5-MIN KDBQ 231240Z 30009KT 10SM CLR M03/M07 A2993 1070 74 -800 300/09 RMK AO2 $
94908KDBQ DBQ20060223064509802/23/06 06:45:31  5-MIN KDBQ 231245Z 30008KT 10SM CLR M03/M07 A2994 1060 74 -800 300/08 RMK AO2 $
94908KDBQ DBQ20060223065011502/23/06 06:50:31  5-MIN KDBQ 231250Z 31010KT 10SM CLR M03/M07 A2994 1060 78 -800 310/10 RMK AO2 SLP152 T10331067 $
94908KDBQ DBQ20060223065511502/23/06 06:55:31  5-MIN KDBQ 231255Z 31009KT 10SM CLR M03/M07 A2994 1060 74 -800 310/09 RMK AO2 SLP153 T10331072 $
94908KDBQ DBQ20060223070010102/23/06 07:00:31  5-MIN KDBQ 231300Z 31010KT 10SM FEW110 M03/M07 A2994 1060 78 -800 310/10 RMK AO2 $
94908KDBQ DBQ20060223070510102/23/06 07:05:31  5-MIN KDBQ 231305Z 32009KT 10SM FEW110 M03/M07 A2995 1050 75 -800 310/09 RMK AO2 $
94908KDBQ DBQ20060223071010102/23/06 07:10:31  5-MIN KDBQ 231310Z 32009KT 10SM SCT110 M03/M07 A2995 1050 75 -800 320/09 RMK AO2 $
94908KDBQ DBQ20060223071510102/23/06 07:15:31  5-MIN KDBQ 231315Z 32010KT 10SM FEW110 M03/M06 A2995 1050 78 -800 320/10 RMK AO2 $
94908KDBQ DBQ20060223072010102/23/06 07:20:31  5-MIN KDBQ 231320Z 33009KT 10SM FEW110 M03/M07 A2995 1050 75 -800 330/09 RMK AO2 $
94908KDBQ DBQ20060223072510102/23/06 07:25:31  5-MIN KDBQ 231325Z 34008KT 10SM FEW110 M03/M07 A2996 1050 75 -800 330/08 RMK AO2 $
94908KDBQ DBQ20060223073010802/23/06 07:30:31  5-MIN KDBQ 231330Z 34007KT 10SM FEW029 SCT110 M03/M07 A2996 1040 78 -900 330/07 RMK AO2 $
94908KDBQ DBQ20060223073510102/23/06 07:35:31  5-MIN KDBQ 231335Z 34007KT 10SM SCT110 M03/M06 A2996 1050 78 -800 340/07 RMK AO2 $
94908KDBQ DBQ20060223074010102/23/06 07:40:31  5-MIN KDBQ 231340Z 34006KT 10SM SCT110 M03/M06 A2996 1040 78 -800 340/06 RMK AO2 $
94908KDBQ DBQ20060223074509902/23/06 07:45:31  5-MIN KDBQ 231345Z 33005KT 10SM FEW110 M03/M06 A2996 1040 78 -800 330/05 RMK AO2
94908KDBQ DBQ20060223075011602/23/06 07:50:31  5-MIN KDBQ 231350Z 33005KT 10SM FEW110 M03/M06 A2996 1040 78 -800 330/05 RMK AO2 SLP160 T10281061
94908KDBQ DBQ20060223075511602/23/06 07:55:31  5-MIN KDBQ 231355Z 33004KT 10SM FEW110 M03/M06 A2996 1040 78 -800 330/04 RMK AO2 SLP160 T10281061
94908KDBQ DBQ20060223080009902/23/06 08:00:31  5-MIN KDBQ 231400Z 33004KT 10SM FEW110 M03/M06 A2997 1040 81 -800 330/04 RMK AO2
94908KDBQ DBQ20060223080509602/23/06 08:05:31  5-MIN KDBQ 231405Z 33004KT 10SM CLR M02/M06 A2997 1040 78 -700 330/04 RMK AO2
94908KDBQ DBQ20060223081009602/23/06 08:10:31  5-MIN KDBQ 231410Z 34005KT 10SM CLR M02/M06 A2997 1030 78 -700 340/05 RMK AO2
94908KDBQ DBQ20060223081509902/23/06 08:15:31  5-MIN KDBQ 231415Z 34005KT 10SM FEW070 M02/M06 A2997 1030 75 -700 340/05 RMK AO2
94908KDBQ DBQ20060223082009902/23/06 08:20:31  5-MIN KDBQ 231420Z 34007KT 10SM FEW070 M01/M05 A2997 1040 75 -600 340/07 RMK AO2
94908KDBQ DBQ20060223082510602/23/06 08:25:31  5-MIN KDBQ 231425Z 35009KT 10SM FEW070 SCT100 M01/M05 A2997 1030 75 -600 350/09 RMK AO2
94908KDBQ DBQ20060223083010602/23/06 08:30:31  5-MIN KDBQ 231430Z 34010KT 10SM FEW070 SCT095 M01/M04 A2997 1030 75 -500 340/10 RMK AO2
94908KDBQ DBQ20060223083510602/23/06 08:35:31  5-MIN KDBQ 231435Z 34011KT 10SM FEW070 BKN095 M01/M04 A2998 1030 78 -600 340/11 RMK AO2
94908KDBQ DBQ20060223084010602/23/06 08:40:31  5-MIN KDBQ 231440Z 34009KT 10SM FEW070 BKN095 M01/M04 A2997 1030 78 -600 340/09 RMK AO2
94908KDBQ DBQ20060223084510602/23/06 08:45:31  5-MIN KDBQ 231445Z 34009KT 10SM FEW075 BKN090 M01/M04 A2998 1020 78 -600 340/09 RMK AO2
94908KDBQ DBQ20060223085012902/23/06 08:50:31  5-MIN KDBQ 231450Z 34008KT 10SM FEW075 OVC090 M01/M04 A2998 1020 78 -600 340/08 RMK AO2 SLP167 T10111044 53007
94908KDBQ DBQ20060223085512902/23/06 08:55:31  5-MIN KDBQ 231455Z 34010KT 10SM FEW075 OVC090 M01/M04 A2999 1010 78 -600 340/10 RMK AO2 SLP169 T10111044 51030
94908KDBQ DBQ20060223090010602/23/06 09:00:31  5-MIN KDBQ 231500Z 34012KT 10SM FEW016 OVC085 M01/M04 A2999 1010 78 -600 340/12 RMK AO2
94908KDBQ DBQ20060223090511902/23/06 09:05:31  5-MIN KDBQ 231505Z 34017G21KT 10SM FEW016 BKN075 OVC090 M01/M04 A3000 1010 78 -600 340/17G21 RMK AO2
94908KDBQ DBQ20060223091011302/23/06 09:10:31  5-MIN KDBQ 231510Z 34016KT 10SM FEW016 SCT075 BKN090 M01/M04 A3000 1010 78 -600 340/16 RMK AO2
94908KDBQ DBQ20060223091511302/23/06 09:15:31  5-MIN KDBQ 231515Z 34014KT 10SM FEW016 SCT075 BKN090 M01/M04 A3000 1000 78 -600 340/14 RMK AO2
94908KDBQ DBQ20060223092010502/23/06 09:20:31  5-MIN KDBQ 231520Z 34012KT 10SM FEW016 BKN090 00/M03 A3000 1000 78 -500 340/12 RMK AO2
94908KDBQ DBQ20060223092510602/23/06 09:25:31  5-MIN KDBQ 231525Z 34015KT 10SM FEW016 BKN090 M01/M04 A3000 1000 78 -600 340/15 RMK AO2
94908KDBQ DBQ20060223093010602/23/06 09:30:31  5-MIN KDBQ 231530Z 34014KT 10SM FEW016 BKN090 M01/M04 A3000 1000 75 -600 340/14 RMK AO2
94908KDBQ DBQ20060223093510602/23/06 09:35:31  5-MIN KDBQ 231535Z 35015KT 10SM FEW080 BKN100 M01/M05 A3001 1000 72 -600 350/15 RMK AO2
94908KDBQ DBQ20060223094010502/23/06 09:40:31  5-MIN KDBQ 231540Z 32017KT 10SM SCT080 OVC100 M01/M05 A3001 990 72 -600 320/17 RMK AO2
94908KDBQ DBQ20060223094510502/23/06 09:45:31  5-MIN KDBQ 231545Z 34014KT 10SM BKN080 OVC100 M01/M05 A3002 990 72 -600 340/14 RMK AO2
94908KDBQ DBQ20060223095012202/23/06 09:50:31  5-MIN KDBQ 231550Z 34013KT 10SM BKN080 BKN100 M01/M05 A3002 990 72 -600 340/13 RMK AO2 SLP180 T10061050
94908KDBQ DBQ20060223095511502/23/06 09:55:31  5-MIN KDBQ 231555Z 34015KT 10SM BKN090 M01/M06 A3002 980 69 -600 340/15 RMK AO2 SLP181 T10061056
94908KDBQ DBQ20060223100010502/23/06 10:00:31  5-MIN KDBQ 231600Z 34014KT 10SM FEW080 BKN095 M01/M06 A3003 980 69 -600 340/14 RMK AO2
94908KDBQ DBQ20060223100510502/23/06 10:05:31  5-MIN KDBQ 231605Z 34013KT 10SM FEW080 BKN095 M01/M06 A3003 980 69 -600 340/13 RMK AO2
94908KDBQ DBQ20060223101009802/23/06 10:10:31  5-MIN KDBQ 231610Z 34014KT 10SM BKN095 M01/M06 A3004 970 66 -600 340/14 RMK AO2
94908KDBQ DBQ20060223101509802/23/06 10:15:31  5-MIN KDBQ 231615Z 33016KT 10SM BKN100 M01/M07 A3004 970 63 -600 330/16 RMK AO2
94908KDBQ DBQ20060223102009802/23/06 10:20:31  5-MIN KDBQ 231620Z 34013KT 10SM BKN100 M01/M07 A3004 970 63 -600 340/13 RMK AO2
94908KDBQ DBQ20060223102509802/23/06 10:25:31  5-MIN KDBQ 231625Z 32015KT 10SM BKN100 M01/M06 A3005 960 66 -600 320/15 RMK AO2
94908KDBQ DBQ20060223103009802/23/06 10:30:31  5-MIN KDBQ 231630Z 33014KT 10SM SCT100 M01/M06 A3005 960 66 -600 330/14 RMK AO2
94908KDBQ DBQ20060223103509802/23/06 10:35:31  5-MIN KDBQ 231635Z 33011KT 10SM SCT100 M01/M07 A3005 960 63 -600 330/11 RMK AO2
94908KDBQ DBQ20060223104009702/23/06 10:40:31  5-MIN KDBQ 231640Z 34013KT 10SM BKN100 00/M07 A3005 960 61 -600 340/13 RMK AO2
94908KDBQ DBQ20060223104509702/23/06 10:45:31  5-MIN KDBQ 231645Z 33012KT 10SM BKN100 00/M07 A3005 960 61 -600 320/12 RMK AO2
94908KDBQ DBQ20060223105011502/23/06 10:50:31  5-MIN KDBQ 231650Z 32015KT 10SM BKN100 M01/M07 A3006 950 61 -600 320/15 RMK AO2 SLP191 T10061072
94908KDBQ DBQ20060223105511502/23/06 10:55:31  5-MIN KDBQ 231655Z 33013KT 10SM BKN095 M01/M07 A3006 950 63 -600 330/13 RMK AO2 SLP193 T10061067
94908KDBQ DBQ20060223110009702/23/06 11:00:31  5-MIN KDBQ 231700Z 32015KT 10SM BKN100 00/M07 A3006 950 61 -600 320/15 RMK AO2
94908KDBQ DBQ20060223110509702/23/06 11:05:31  5-MIN KDBQ 231705Z 34012KT 10SM BKN095 00/M07 A3006 950 61 -600 330/12 RMK AO2
94908KDBQ DBQ20060223111009702/23/06 11:10:31  5-MIN KDBQ 231710Z 33012KT 10SM SCT095 00/M07 A3006 950 61 -600 330/12 RMK AO2
94908KDBQ DBQ20060223111509702/23/06 11:15:31  5-MIN KDBQ 231715Z 35012KT 10SM SCT095 00/M07 A3006 950 58 -600 350/12 RMK AO2
94908KDBQ DBQ20060223112009702/23/06 11:20:31  5-MIN KDBQ 231720Z 35012KT 10SM FEW095 00/M08 A3006 950 56 -600 350/12 RMK AO2
94908KDBQ DBQ20060223112509702/23/06 11:25:31  5-MIN KDBQ 231725Z 33014KT 10SM FEW095 00/M07 A3006 950 58 -600 330/14 RMK AO2
94908KDBQ DBQ20060223113009402/23/06 11:30:31  5-MIN KDBQ 231730Z 34013KT 10SM CLR 00/M08 A3007 940 53 -600 340/13 RMK AO2
94908KDBQ DBQ20060223113509402/23/06 11:35:31  5-MIN KDBQ 231735Z 35011KT 10SM CLR 00/M08 A3007 940 53 -600 350/11 RMK AO2
94908KDBQ DBQ20060223114009402/23/06 11:40:31  5-MIN KDBQ 231740Z 34011KT 10SM CLR 00/M08 A3007 940 56 -600 340/11 RMK AO2
94908KDBQ DBQ20060223114509502/23/06 11:45:31  5-MIN KDBQ 231745Z 35011KT 10SM CLR M01/M08 A3008 930 56 -700 340/11 RMK AO2
94908KDBQ DBQ20060223115012902/23/06 11:50:31  5-MIN KDBQ 231750Z 34011KT 10SM CLR 00/M08 A3009 920 53 -600 340/11 RMK AO2 SLP202 T00001083 10000 21033 51030
94908KDBQ DBQ20060223115512902/23/06 11:55:31  5-MIN KDBQ 231755Z 33012KT 10SM CLR 00/M08 A3009 920 53 -600 330/12 RMK AO2 SLP203 T00001083 10000 21033 51033
94908KDBQ DBQ20060223120009402/23/06 12:00:31  5-MIN KDBQ 231800Z 34008KT 10SM CLR 00/M09 A3009 930 51 -600 330/08 RMK AO2
94908KDBQ DBQ20060223120509402/23/06 12:05:31  5-MIN KDBQ 231805Z 30013KT 10SM CLR 00/M08 A3009 920 53 -600 300/13 RMK AO2
94908KDBQ DBQ20060223121009402/23/06 12:10:31  5-MIN KDBQ 231810Z 30015KT 10SM CLR 00/M09 A3009 920 49 -600 290/15 RMK AO2
94908KDBQ DBQ20060223121509402/23/06 12:15:31  5-MIN KDBQ 231815Z 31016KT 10SM CLR 00/M10 A3010 920 47 -600 300/16 RMK AO2
94908KDBQ DBQ20060223122009402/23/06 12:20:31  5-MIN KDBQ 231820Z 32013KT 10SM CLR 00/M11 A3010 920 43 -600 320/13 RMK AO2
94908KDBQ DBQ20060223122509402/23/06 12:25:31  5-MIN KDBQ 231825Z 33014KT 10SM CLR 00/M11 A3010 920 43 -600 330/14 RMK AO2
94908KDBQ DBQ20060223123009402/23/06 12:30:31  5-MIN KDBQ 231830Z 33015KT 10SM CLR 00/M11 A3010 910 45 -600 330/15 RMK AO2
94908KDBQ DBQ20060223123509402/23/06 12:35:31  5-MIN KDBQ 231835Z 31013KT 10SM CLR 00/M10 A3010 920 47 -600 310/13 RMK AO2
94908KDBQ DBQ20060223124009402/23/06 12:40:31  5-MIN KDBQ 231840Z 31015KT 10SM CLR 00/M09 A3010 920 51 -600 310/15 RMK AO2
94908KDBQ DBQ20060223124509402/23/06 12:45:31  5-MIN KDBQ 231845Z 30015KT 10SM CLR 00/M09 A3009 920 51 -600 300/15 RMK AO2
94908KDBQ DBQ20060223125011102/23/06 12:50:31  5-MIN KDBQ 231850Z 29016KT 10SM CLR 00/M09 A3009 920 49 -600 290/16 RMK AO2 SLP204 T00001094
94908KDBQ DBQ20060223125511102/23/06 12:55:31  5-MIN KDBQ 231855Z 31013KT 10SM CLR 00/M10 A3010 920 47 -600 310/13 RMK AO2 SLP206 T00001100
94908KDBQ DBQ20060223130009502/23/06 13:00:31  5-MIN KDBQ 231900Z 30016KT 10SM CLR M01/M09 A3009 920 51 -700 300/16 RMK AO2
94908KDBQ DBQ20060223130509502/23/06 13:05:31  5-MIN KDBQ 231905Z 31012KT 10SM CLR M01/M09 A3010 920 51 -700 310/12 RMK AO2
94908KDBQ DBQ20060223131010002/23/06 13:10:31  5-MIN KDBQ 231910Z 32013G21KT 10SM CLR 00/M09 A3010 920 49 -600 320/13G21 RMK AO2
94908KDBQ DBQ20060223131510002/23/06 13:15:31  5-MIN KDBQ 231915Z 31013G21KT 10SM CLR 00/M09 A3009 920 49 -600 300/13G21 RMK AO2
94908KDBQ DBQ20060223132009502/23/06 13:20:31  5-MIN KDBQ 231920Z 31015KT 10SM CLR M01/M10 A3010 920 49 -700 310/15 RMK AO2
94908KDBQ DBQ20060223132509502/23/06 13:25:31  5-MIN KDBQ 231925Z 30016KT 10SM CLR M01/M11 A3010 910 47 -700 300/16 RMK AO2
94908KDBQ DBQ20060223133009502/23/06 13:30:31  5-MIN KDBQ 231930Z 30014KT 10SM CLR M01/M11 A3011 910 45 -700 300/14 RMK AO2
94908KDBQ DBQ20060223133509502/23/06 13:35:31  5-MIN KDBQ 231935Z 32012KT 10SM CLR M01/M11 A3010 910 45 -700 320/12 RMK AO2
94908KDBQ DBQ20060223134009502/23/06 13:40:31  5-MIN KDBQ 231940Z 31012KT 10SM CLR M01/M11 A3010 910 47 -700 300/12 RMK AO2
94908KDBQ DBQ20060223134509502/23/06 13:45:31  5-MIN KDBQ 231945Z 29014KT 10SM CLR M01/M10 A3011 910 49 -700 290/14 RMK AO2
94908KDBQ DBQ20060223135011202/23/06 13:50:31  5-MIN KDBQ 231950Z 29015KT 10SM CLR M01/M11 A3011 900 47 -700 290/15 RMK AO2 SLP212 T10061106
94908KDBQ DBQ20060223135511202/23/06 13:55:31  5-MIN KDBQ 231955Z 30014KT 10SM CLR M01/M11 A3011 900 47 -700 300/14 RMK AO2 SLP213 T10061106
94908KDBQ DBQ20060223140009502/23/06 14:00:31  5-MIN KDBQ 232000Z 30015KT 10SM CLR M01/M11 A3011 900 47 -700 300/15 RMK AO2
94908KDBQ DBQ20060223140509502/23/06 14:05:31  5-MIN KDBQ 232005Z 30016KT 10SM CLR M01/M11 A3011 900 47 -700 300/16 RMK AO2
94908KDBQ DBQ20060223141009502/23/06 14:10:31  5-MIN KDBQ 232010Z 30014KT 10SM CLR M01/M10 A3012 900 49 -700 300/14 RMK AO2
94908KDBQ DBQ20060223141509502/23/06 14:15:31  5-MIN KDBQ 232015Z 30013KT 10SM CLR M01/M10 A3011 900 49 -700 300/13 RMK AO2
94908KDBQ DBQ20060223142009502/23/06 14:20:31  5-MIN KDBQ 232020Z 30014KT 10SM CLR M01/M10 A3011 900 49 -700 300/14 RMK AO2
94908KDBQ DBQ20060223142509502/23/06 14:25:31  5-MIN KDBQ 232025Z 30014KT 10SM CLR M01/M10 A3011 900 49 -700 300/14 RMK AO2
94908KDBQ DBQ20060223143009502/23/06 14:30:31  5-MIN KDBQ 232030Z 30013KT 10SM CLR M01/M10 A3011 900 49 -700 300/13 RMK AO2
94908KDBQ DBQ20060223143509502/23/06 14:35:31  5-MIN KDBQ 232035Z 29013KT 10SM CLR M01/M10 A3011 900 49 -700 290/13 RMK AO2
94908KDBQ DBQ20060223144009502/23/06 14:40:31  5-MIN KDBQ 232040Z 30014KT 10SM CLR M01/M10 A3011 900 49 -700 300/14 RMK AO2
94908KDBQ DBQ20060223144509502/23/06 14:45:31  5-MIN KDBQ 232045Z 29013KT 10SM CLR M01/M10 A3012 900 49 -700 280/13 RMK AO2
94908KDBQ DBQ20060223145011802/23/06 14:50:31  5-MIN KDBQ 232050Z 29014KT 10SM CLR M01/M10 A3012 900 49 -700 290/14 RMK AO2 SLP213 T10061100 51033
94908KDBQ DBQ20060223145511802/23/06 14:55:31  5-MIN KDBQ 232055Z 29014KT 10SM CLR M01/M10 A3012 890 49 -700 290/14 RMK AO2 SLP215 T10061100 51010
94908KDBQ DBQ20060223150009502/23/06 15:00:31  5-MIN KDBQ 232100Z 30015KT 10SM CLR M01/M10 A3012 890 49 -700 300/15 RMK AO2
94908KDBQ DBQ20060223150509502/23/06 15:05:31  5-MIN KDBQ 232105Z 30015KT 10SM CLR M01/M10 A3013 890 49 -700 300/15 RMK AO2
94908KDBQ DBQ20060223151009502/23/06 15:10:31  5-MIN KDBQ 232110Z 30016KT 10SM CLR M01/M11 A3013 880 47 -700 300/16 RMK AO2
94908KDBQ DBQ20060223151509502/23/06 15:15:31  5-MIN KDBQ 232115Z 31015KT 10SM CLR M01/M11 A3014 880 49 -800 310/15 RMK AO2
94908KDBQ DBQ20060223152009502/23/06 15:20:31  5-MIN KDBQ 232120Z 31013KT 10SM CLR M01/M10 A3014 880 51 -800 310/13 RMK AO2
94908KDBQ DBQ20060223152509502/23/06 15:25:31  5-MIN KDBQ 232125Z 30014KT 10SM CLR M01/M10 A3015 870 51 -800 300/14 RMK AO2
94908KDBQ DBQ20060223153009502/23/06 15:30:31  5-MIN KDBQ 232130Z 30011KT 10SM CLR M01/M10 A3015 870 49 -700 300/11 RMK AO2
94908KDBQ DBQ20060223153509502/23/06 15:35:31  5-MIN KDBQ 232135Z 30015KT 10SM CLR M01/M11 A3015 870 45 -700 300/15 RMK AO2
94908KDBQ DBQ20060223154009502/23/06 15:40:31  5-MIN KDBQ 232140Z 31014KT 10SM CLR M01/M11 A3015 870 47 -800 310/14 RMK AO2
94908KDBQ DBQ20060223154509502/23/06 15:45:31  5-MIN KDBQ 232145Z 31011KT 10SM CLR M01/M11 A3015 860 49 -800 310/11 RMK AO2
94908KDBQ DBQ20060223155011202/23/06 15:50:31  5-MIN KDBQ 232150Z 31012KT 10SM CLR M01/M10 A3015 860 51 -800 310/12 RMK AO2 SLP226 T10111100
94908KDBQ DBQ20060223155511202/23/06 15:55:31  5-MIN KDBQ 232155Z 31013KT 10SM CLR M01/M10 A3015 860 51 -800 310/13 RMK AO2 SLP226 T10111100
94908KDBQ DBQ20060223160009502/23/06 16:00:31  5-MIN KDBQ 232200Z 31012KT 10SM CLR M01/M10 A3016 860 51 -800 310/12 RMK AO2
94908KDBQ DBQ20060223160509502/23/06 16:05:31  5-MIN KDBQ 232205Z 31013KT 10SM CLR M01/M09 A3016 860 53 -800 310/13 RMK AO2
94908KDBQ DBQ20060223161009502/23/06 16:10:31  5-MIN KDBQ 232210Z 30013KT 10SM CLR M01/M09 A3016 860 53 -800 300/13 RMK AO2
94908KDBQ DBQ20060223161509502/23/06 16:15:31  5-MIN KDBQ 232215Z 30012KT 10SM CLR M01/M09 A3016 850 53 -800 300/12 RMK AO2
94908KDBQ DBQ20060223162009502/23/06 16:20:31  5-MIN KDBQ 232220Z 31013KT 10SM CLR M01/M10 A3017 850 51 -800 300/13 RMK AO2
94908KDBQ DBQ20060223162509502/23/06 16:25:31  5-MIN KDBQ 232225Z 31013KT 10SM CLR M01/M11 A3017 850 47 -800 310/13 RMK AO2
94908KDBQ DBQ20060223163009502/23/06 16:30:31  5-MIN KDBQ 232230Z 31012KT 10SM CLR M01/M11 A3017 850 47 -800 310/12 RMK AO2
94908KDBQ DBQ20060223163509502/23/06 16:35:31  5-MIN KDBQ 232235Z 31012KT 10SM CLR M01/M11 A3017 850 47 -800 310/12 RMK AO2
94908KDBQ DBQ20060223164009502/23/06 16:40:31  5-MIN KDBQ 232240Z 31010KT 10SM CLR M01/M11 A3017 850 47 -800 310/10 RMK AO2
94908KDBQ DBQ20060223164509502/23/06 16:45:31  5-MIN KDBQ 232245Z 32011KT 10SM CLR M01/M11 A3017 850 49 -800 310/11 RMK AO2
94908KDBQ DBQ20060223165011202/23/06 16:50:31  5-MIN KDBQ 232250Z 31010KT 10SM CLR M02/M10 A3017 850 53 -900 310/10 RMK AO2 SLP234 T10171100
94908KDBQ DBQ20060223165511202/23/06 16:55:31  5-MIN KDBQ 232255Z 31010KT 10SM CLR M02/M10 A3018 840 53 -900 310/10 RMK AO2 SLP235 T10171100
94908KDBQ DBQ20060223170009502/23/06 17:00:31  5-MIN KDBQ 232300Z 30010KT 10SM CLR M02/M10 A3018 840 53 -900 300/10 RMK AO2
94908KDBQ DBQ20060223170509502/23/06 17:05:31  5-MIN KDBQ 232305Z 31012KT 10SM CLR M02/M10 A3018 840 53 -900 310/12 RMK AO2
94908KDBQ DBQ20060223171009502/23/06 17:10:31  5-MIN KDBQ 232310Z 31013KT 10SM CLR M02/M11 A3018 830 51 -900 310/13 RMK AO2
94908KDBQ DBQ20060223171509602/23/06 17:15:31  5-MIN KDBQ 232315Z 31013KT 10SM CLR M02/M11 A3018 840 53 -1000 300/13 RMK AO2
94908KDBQ DBQ20060223172009602/23/06 17:20:31  5-MIN KDBQ 232320Z 30013KT 10SM CLR M02/M11 A3019 830 53 -1000 300/13 RMK AO2
94908KDBQ DBQ20060223172509602/23/06 17:25:31  5-MIN KDBQ 232325Z 30012KT 10SM CLR M02/M11 A3019 830 53 -1000 300/12 RMK AO2
94908KDBQ DBQ20060223173009602/23/06 17:30:31  5-MIN KDBQ 232330Z 31011KT 10SM CLR M03/M11 A3019 830 55 -1100 300/11 RMK AO2
94908KDBQ DBQ20060223173509602/23/06 17:35:31  5-MIN KDBQ 232335Z 30011KT 10SM CLR M03/M11 A3019 830 55 -1100 300/11 RMK AO2
94908KDBQ DBQ20060223174009602/23/06 17:40:31  5-MIN KDBQ 232340Z 31010KT 10SM CLR M03/M11 A3019 830 53 -1100 310/10 RMK AO2
94908KDBQ DBQ20060223174509602/23/06 17:45:31  5-MIN KDBQ 232345Z 32009KT 10SM CLR M03/M11 A3019 830 55 -1100 320/09 RMK AO2
94908KDBQ DBQ20060223175013102/23/06 17:50:31  5-MIN KDBQ 232350Z 32009KT 10SM CLR M03/M12 A3019 830 53 -1100 320/09 RMK AO2 SLP240 T10331117 10000 21033 51010
94908KDBQ DBQ20060223175513102/23/06 17:55:31  5-MIN KDBQ 232355Z 32009KT 10SM CLR M03/M12 A3019 830 53 -1100 320/09 RMK AO2 SLP240 T10331117 10000 21033 51024
94908KDBQ DBQ20060223180009602/23/06 18:00:31  5-MIN KDBQ 240000Z 32008KT 10SM CLR M04/M12 A3020 820 55 -1200 320/08 RMK AO2
94908KDBQ DBQ20060223180509602/23/06 18:05:31  5-MIN KDBQ 240005Z 33008KT 10SM CLR M04/M12 A3020 820 55 -1200 330/08 RMK AO2
94908KDBQ DBQ20060223181009602/23/06 18:10:31  5-MIN KDBQ 240010Z 32008KT 10SM CLR M04/M12 A3020 820 57 -1300 320/08 RMK AO2
94908KDBQ DBQ20060223181509602/23/06 18:15:31  5-MIN KDBQ 240015Z 33009KT 10SM CLR M04/M12 A3020 820 57 -1300 320/09 RMK AO2
94908KDBQ DBQ20060223182009602/23/06 18:20:31  5-MIN KDBQ 240020Z 32009KT 10SM CLR M04/M12 A3021 810 57 -1300 320/09 RMK AO2
94908KDBQ DBQ20060223182509602/23/06 18:25:31  5-MIN KDBQ 240025Z 31008KT 10SM CLR M04/M12 A3021 810 57 -1300 310/08 RMK AO2
94908KDBQ DBQ20060223183010302/23/06 18:30:31  5-MIN KDBQ 240030Z 30008KT 10SM CLR M04/M12 A3022 800 57 -1300 300/08 RMK AO2 PRESRR
94908KDBQ DBQ20060223183509602/23/06 18:35:31  5-MIN KDBQ 240035Z 31007KT 10SM CLR M04/M12 A3022 800 57 -1300 310/07 RMK AO2
94908KDBQ DBQ20060223184009602/23/06 18:40:31  5-MIN KDBQ 240040Z 31007KT 10SM CLR M05/M12 A3022 800 60 -1400 310/07 RMK AO2
94908KDBQ DBQ20060223184509602/23/06 18:45:31  5-MIN KDBQ 240045Z 31007KT 10SM CLR M05/M12 A3023 790 60 -1400 300/07 RMK AO2
94908KDBQ DBQ20060223185011302/23/06 18:50:31  5-MIN KDBQ 240050Z 30007KT 10SM CLR M06/M12 A3023 790 62 -1500 300/07 RMK AO2 SLP254 T10561117
94908KDBQ DBQ20060223185511302/23/06 18:55:31  5-MIN KDBQ 240055Z 30007KT 10SM CLR M06/M12 A3024 790 62 -1500 300/07 RMK AO2 SLP255 T10561117
94908KDBQ DBQ20060223190009602/23/06 19:00:31  5-MIN KDBQ 240100Z 32007KT 10SM CLR M06/M12 A3024 790 59 -1500 310/07 RMK AO2
94908KDBQ DBQ20060223190509602/23/06 19:05:31  5-MIN KDBQ 240105Z 32007KT 10SM CLR M06/M12 A3024 790 62 -1500 320/07 RMK AO2
94908KDBQ DBQ20060223191009602/23/06 19:10:31  5-MIN KDBQ 240110Z 32007KT 10SM CLR M06/M12 A3024 790 59 -1500 320/07 RMK AO2
94908KDBQ DBQ20060223191509602/23/06 19:15:31  5-MIN KDBQ 240115Z 32007KT 10SM CLR M06/M12 A3023 790 59 -1500 320/07 RMK AO2
94908KDBQ DBQ20060223192009602/23/06 19:20:31  5-MIN KDBQ 240120Z 33008KT 10SM CLR M06/M12 A3023 790 62 -1500 330/08 RMK AO2
94908KDBQ DBQ20060223192509602/23/06 19:25:31  5-MIN KDBQ 240125Z 34007KT 10SM CLR M06/M12 A3023 790 62 -1500 340/07 RMK AO2
94908KDBQ DBQ20060223193009602/23/06 19:30:31  5-MIN KDBQ 240130Z 34007KT 10SM CLR M06/M12 A3023 790 62 -1500 330/07 RMK AO2
94908KDBQ DBQ20060223193509602/23/06 19:35:31  5-MIN KDBQ 240135Z 33007KT 10SM CLR M06/M12 A3023 790 62 -1500 330/07 RMK AO2
94908KDBQ DBQ20060223194009602/23/06 19:40:31  5-MIN KDBQ 240140Z 33007KT 10SM CLR M07/M12 A3023 790 65 -1600 330/07 RMK AO2
94908KDBQ DBQ20060223194509602/23/06 19:45:31  5-MIN KDBQ 240145Z 33007KT 10SM CLR M07/M12 A3023 790 65 -1600 330/07 RMK AO2
94908KDBQ DBQ20060223195011302/23/06 19:50:31  5-MIN KDBQ 240150Z 33007KT 10SM CLR M07/M12 A3023 790 65 -1600 330/07 RMK AO2 SLP253 T10671122
94908KDBQ DBQ20060223195511302/23/06 19:55:31  5-MIN KDBQ 240155Z 33007KT 10SM CLR M07/M12 A3023 790 65 -1600 330/07 RMK AO2 SLP253 T10671122
94908KDBQ DBQ20060223200010602/23/06 20:00:31  5-MIN KDBQ 240200Z AUTO 34007KT 10SM CLR M07/M12 A3023 790 65 -1600 330/07 RMK AO2 TSNO
94908KDBQ DBQ20060223200510602/23/06 20:05:31  5-MIN KDBQ 240205Z AUTO 34008KT 10SM CLR M07/M12 A3024 790 68 -1700 340/08 RMK AO2 TSNO
94908KDBQ DBQ20060223201010602/23/06 20:10:31  5-MIN KDBQ 240210Z AUTO 34008KT 10SM CLR M07/M13 A3023 790 65 -1700 340/08 RMK AO2 TSNO
94908KDBQ DBQ20060223201510602/23/06 20:15:31  5-MIN KDBQ 240215Z AUTO 34008KT 10SM CLR M07/M13 A3024 790 65 -1700 340/08 RMK AO2 TSNO
94908KDBQ DBQ20060223202010602/23/06 20:20:31  5-MIN KDBQ 240220Z AUTO 34008KT 10SM CLR M07/M13 A3024 780 65 -1700 340/08 RMK AO2 TSNO
94908KDBQ DBQ20060223202510602/23/06 20:25:31  5-MIN KDBQ 240225Z AUTO 33008KT 10SM CLR M07/M12 A3024 780 65 -1600 330/08 RMK AO2 TSNO
94908KDBQ DBQ20060223203010602/23/06 20:30:31  5-MIN KDBQ 240230Z AUTO 33008KT 10SM CLR M07/M12 A3024 790 65 -1600 330/08 RMK AO2 TSNO
94908KDBQ DBQ20060223203510602/23/06 20:35:31  5-MIN KDBQ 240235Z AUTO 33009KT 10SM CLR M07/M12 A3023 790 65 -1600 330/09 RMK AO2 TSNO
94908KDBQ DBQ20060223204010602/23/06 20:40:31  5-MIN KDBQ 240240Z AUTO 34008KT 10SM CLR M07/M12 A3023 790 65 -1600 340/08 RMK AO2 TSNO
94908KDBQ DBQ20060223204510602/23/06 20:45:31  5-MIN KDBQ 240245Z AUTO 34007KT 10SM CLR M07/M12 A3024 790 68 -1700 340/07 RMK AO2 TSNO
94908KDBQ DBQ20060223205012902/23/06 20:50:31  5-MIN KDBQ 240250Z AUTO 34007KT 10SM CLR M07/M12 A3024 780 68 -1700 340/07 RMK AO2 SLP256 T10721122 51024 TSNO
94908KDBQ DBQ20060223205512902/23/06 20:55:31  5-MIN KDBQ 240255Z AUTO 33007KT 10SM CLR M07/M13 A3024 780 65 -1700 330/07 RMK AO2 SLP257 T10721128 51016 TSNO
94908KDBQ DBQ20060223210010602/23/06 21:00:31  5-MIN KDBQ 240300Z AUTO 33007KT 10SM CLR M07/M12 A3025 780 68 -1700 330/07 RMK AO2 TSNO
94908KDBQ DBQ20060223210510602/23/06 21:05:31  5-MIN KDBQ 240305Z AUTO 31006KT 10SM CLR M07/M12 A3025 770 68 -1700 310/06 RMK AO2 TSNO
94908KDBQ DBQ20060223211010602/23/06 21:10:31  5-MIN KDBQ 240310Z AUTO 31006KT 10SM CLR M07/M12 A3025 770 68 -1700 310/06 RMK AO2 TSNO
94908KDBQ DBQ20060223211510602/23/06 21:15:31  5-MIN KDBQ 240315Z AUTO 31008KT 10SM CLR M07/M12 A3026 770 65 -1600 310/08 RMK AO2 TSNO
94908KDBQ DBQ20060223212010602/23/06 21:20:31  5-MIN KDBQ 240320Z AUTO 31008KT 10SM CLR M06/M12 A3026 760 62 -1600 310/08 RMK AO2 TSNO
94908KDBQ DBQ20060223212510602/23/06 21:25:31  5-MIN KDBQ 240325Z AUTO 32007KT 10SM CLR M06/M12 A3026 760 62 -1600 310/07 RMK AO2 TSNO
94908KDBQ DBQ20060223213010602/23/06 21:30:31  5-MIN KDBQ 240330Z AUTO 32007KT 10SM CLR M07/M12 A3027 760 65 -1600 320/07 RMK AO2 TSNO
94908KDBQ DBQ20060223213510602/23/06 21:35:31  5-MIN KDBQ 240335Z AUTO 31006KT 10SM CLR M07/M12 A3027 760 65 -1700 310/06 RMK AO2 TSNO
94908KDBQ DBQ20060223214010602/23/06 21:40:31  5-MIN KDBQ 240340Z AUTO 32006KT 10SM CLR M07/M12 A3027 760 65 -1700 320/06 RMK AO2 TSNO
94908KDBQ DBQ20060223214510602/23/06 21:45:31  5-MIN KDBQ 240345Z AUTO 32006KT 10SM CLR M07/M12 A3027 760 68 -1700 320/06 RMK AO2 TSNO
94908KDBQ DBQ20060223215012302/23/06 21:50:31  5-MIN KDBQ 240350Z AUTO 32005KT 10SM CLR M07/M12 A3027 750 68 -1700 320/05 RMK AO2 SLP267 T10721122 TSNO
94908KDBQ DBQ20060223215512302/23/06 21:55:31  5-MIN KDBQ 240355Z AUTO 00000KT 10SM CLR M07/M12 A3028 750 68 -1700 000/00 RMK AO2 SLP269 T10721122 TSNO
94908KDBQ DBQ20060223220010602/23/06 22:00:31  5-MIN KDBQ 240400Z AUTO 00000KT 10SM CLR M07/M13 A3028 750 65 -1700 000/00 RMK AO2 TSNO
94908KDBQ DBQ20060223220510602/23/06 22:05:31  5-MIN KDBQ 240405Z AUTO 25003KT 10SM CLR M07/M13 A3029 740 65 -1700 250/03 RMK AO2 TSNO
94908KDBQ DBQ20060223221010602/23/06 22:10:31  5-MIN KDBQ 240410Z AUTO 24003KT 10SM CLR M08/M13 A3029 740 67 -1800 230/03 RMK AO2 TSNO
94908KDBQ DBQ20060223221510602/23/06 22:15:31  5-MIN KDBQ 240415Z AUTO 00000KT 10SM CLR M08/M12 A3029 740 71 -1800 000/00 RMK AO2 TSNO
94908KDBQ DBQ20060223222010602/23/06 22:20:31  5-MIN KDBQ 240420Z AUTO 00000KT 10SM CLR M08/M13 A3029 740 67 -1800 000/00 RMK AO2 TSNO
94908KDBQ DBQ20060223222510602/23/06 22:25:31  5-MIN KDBQ 240425Z AUTO 00000KT 10SM CLR M07/M12 A3029 730 68 -1800 000/00 RMK AO2 TSNO
94908KDBQ DBQ20060223223010602/23/06 22:30:31  5-MIN KDBQ 240430Z AUTO 00000KT 10SM CLR M07/M12 A3030 730 68 -1800 000/00 RMK AO2 TSNO
94908KDBQ DBQ20060223223510602/23/06 22:35:31  5-MIN KDBQ 240435Z AUTO 00000KT 10SM CLR M07/M12 A3029 730 68 -1800 000/00 RMK AO2 TSNO
94908KDBQ DBQ20060223224010602/23/06 22:40:31  5-MIN KDBQ 240440Z AUTO 00000KT 10SM CLR M07/M12 A3029 740 68 -1700 000/00 RMK AO2 TSNO
94908KDBQ DBQ20060223224510602/23/06 22:45:31  5-MIN KDBQ 240445Z AUTO 00000KT 10SM CLR M07/M12 A3029 740 65 -1700 000/00 RMK AO2 TSNO
94908KDBQ DBQ20060223225012302/23/06 22:50:31  5-MIN KDBQ 240450Z AUTO 33006KT 10SM CLR M07/M12 A3029 740 68 -1700 320/06 RMK AO2 SLP274 T10721122 TSNO
94908KDBQ DBQ20060223225512302/23/06 22:55:31  5-MIN KDBQ 240455Z AUTO 33005KT 10SM CLR M08/M12 A3029 740 71 -1800 330/05 RMK AO2 SLP273 T10781122 TSNO
94908KDBQ DBQ20060223230010602/23/06 23:00:31  5-MIN KDBQ 240500Z AUTO 34005KT 10SM CLR M08/M12 A3029 740 71 -1800 340/05 RMK AO2 TSNO
94908KDBQ DBQ20060223230510902/23/06 23:05:31  5-MIN KDBQ 240505Z AUTO 35004KT 10SM SCT120 M08/M12 A3029 740 71 -1800 350/04 RMK AO2 TSNO
94908KDBQ DBQ20060223231010902/23/06 23:10:31  5-MIN KDBQ 240510Z AUTO 36005KT 10SM SCT110 M08/M12 A3029 740 71 -1800 360/05 RMK AO2 TSNO
94908KDBQ DBQ20060223231510902/23/06 23:15:31  5-MIN KDBQ 240515Z AUTO 01005KT 10SM BKN110 M07/M12 A3029 730 68 -1800 010/05 RMK AO2 TSNO
94908KDBQ DBQ20060223232010902/23/06 23:20:31  5-MIN KDBQ 240520Z AUTO 03004KT 10SM BKN110 M07/M12 A3029 740 65 -1700 030/04 RMK AO2 TSNO
94908KDBQ DBQ20060223232510902/23/06 23:25:31  5-MIN KDBQ 240525Z AUTO 05004KT 10SM OVC110 M07/M12 A3028 740 65 -1700 050/04 RMK AO2 TSNO
94908KDBQ DBQ20060223233010902/23/06 23:30:31  5-MIN KDBQ 240530Z AUTO 05003KT 10SM BKN110 M07/M12 A3029 740 65 -1700 050/03 RMK AO2 TSNO
94908KDBQ DBQ20060223233510902/23/06 23:35:31  5-MIN KDBQ 240535Z AUTO 00000KT 10SM BKN110 M06/M12 A3029 740 65 -1600 000/00 RMK AO2 TSNO
94908KDBQ DBQ20060223234010902/23/06 23:40:31  5-MIN KDBQ 240540Z AUTO 02003KT 10SM BKN110 M06/M12 A3029 740 65 -1600 020/03 RMK AO2 TSNO
94908KDBQ DBQ20060223234510902/23/06 23:45:31  5-MIN KDBQ 240545Z AUTO 01005KT 10SM BKN110 M06/M12 A3029 740 65 -1600 010/05 RMK AO2 TSNO
94908KDBQ DBQ20060223235015402/23/06 23:50:31  5-MIN KDBQ 240550Z AUTO 36005KT 10SM BKN110 M06/M12 A3028 740 65 -1600 360/05 RMK AO2 SLP270 T10611117 11033 21078 400001078 51016 TSNO
94908KDBQ DBQ20060223235515402/23/06 23:55:31  5-MIN KDBQ 240555Z AUTO 36005KT 10SM BKN110 M07/M12 A3029 740 68 -1700 360/05 RMK AO2 SLP271 T10721122 11033 21078 400001078 50014 TSNO
94908KDBQ DBQ20060224000010902/24/06 00:00:38  5-MIN KDBQ 240600Z AUTO 01006KT 10SM BKN110 M07/M12 A3028 740 65 -1700 010/06 RMK AO2 TSNO
94908KDBQ DBQ20060224000510902/24/06 00:05:31  5-MIN KDBQ 240605Z AUTO 02006KT 10SM BKN110 M07/M12 A3028 740 68 -1700 010/06 RMK AO2 TSNO
94908KDBQ DBQ20060224001010902/24/06 00:10:31  5-MIN KDBQ 240610Z AUTO 01005KT 10SM OVC110 M07/M12 A3028 740 65 -1700 360/05 RMK AO2 TSNO
94908KDBQ DBQ20060224001510902/24/06 00:15:32  5-MIN KDBQ 240615Z AUTO 36005KT 10SM OVC100 M07/M12 A3028 740 68 -1700 360/05 RMK AO2 TSNO
94908KDBQ DBQ20060224002010902/24/06 00:20:31  5-MIN KDBQ 240620Z AUTO 36006KT 10SM OVC100 M07/M12 A3028 750 68 -1700 360/06 RMK AO2 TSNO
94908KDBQ DBQ20060224002510902/24/06 00:25:31  5-MIN KDBQ 240625Z AUTO 01006KT 10SM OVC100 M07/M12 A3027 750 68 -1700 010/06 RMK AO2 TSNO
94908KDBQ DBQ20060224003010902/24/06 00:30:31  5-MIN KDBQ 240630Z AUTO 02006KT 10SM OVC100 M07/M12 A3027 760 68 -1700 020/06 RMK AO2 TSNO
94908KDBQ DBQ20060224003511602/24/06 00:35:31  5-MIN KDBQ 240635Z AUTO 02007KT 10SM OVC100 M07/M12 A3026 760 68 -1600 020/07 RMK AO2 PRESFR TSNO
94908KDBQ DBQ20060224004010902/24/06 00:40:31  5-MIN KDBQ 240640Z AUTO 03007KT 10SM OVC100 M07/M12 A3026 760 68 -1600 020/07 RMK AO2 TSNO
94908KDBQ DBQ20060224004510902/24/06 00:45:31  5-MIN KDBQ 240645Z AUTO 03008KT 10SM OVC100 M07/M12 A3026 760 68 -1600 030/08 RMK AO2 TSNO
94908KDBQ DBQ20060224005012602/24/06 00:50:31  5-MIN KDBQ 240650Z AUTO 03007KT 10SM OVC100 M07/M12 A3027 760 68 -1600 030/07 RMK AO2 SLP264 T10671117 TSNO
94908KDBQ DBQ20060224005512602/24/06 00:55:31  5-MIN KDBQ 240655Z AUTO 04007KT 10SM OVC100 M07/M12 A3027 760 68 -1600 040/07 RMK AO2 SLP264 T10671117 TSNO
94908KDBQ DBQ20060224010010902/24/06 01:00:31  5-MIN KDBQ 240700Z AUTO 04006KT 10SM OVC095 M07/M12 A3027 760 68 -1600 040/06 RMK AO2 TSNO
94908KDBQ DBQ20060224010510902/24/06 01:05:31  5-MIN KDBQ 240705Z AUTO 04006KT 10SM OVC100 M07/M12 A3027 760 68 -1600 040/06 RMK AO2 TSNO
94908KDBQ DBQ20060224011010902/24/06 01:10:31  5-MIN KDBQ 240710Z AUTO 05005KT 10SM OVC095 M07/M11 A3027 760 71 -1700 050/05 RMK AO2 TSNO
94908KDBQ DBQ20060224011510902/24/06 01:15:31  5-MIN KDBQ 240715Z AUTO 04005KT 10SM OVC095 M07/M11 A3027 760 71 -1700 040/05 RMK AO2 TSNO
94908KDBQ DBQ20060224012010902/24/06 01:20:31  5-MIN KDBQ 240720Z AUTO 03005KT 10SM OVC090 M07/M11 A3027 750 71 -1700 030/05 RMK AO2 TSNO
94908KDBQ DBQ20060224012510902/24/06 01:25:31  5-MIN KDBQ 240725Z AUTO 03005KT 10SM OVC090 M07/M11 A3028 750 71 -1700 030/05 RMK AO2 TSNO
94908KDBQ DBQ20060224013011602/24/06 01:30:31  5-MIN KDBQ 240730Z AUTO 04004KT 10SM BKN080 OVC095 M07/M11 A3028 750 71 -1700 040/04 RMK AO2 TSNO
94908KDBQ DBQ20060224013511602/24/06 01:35:31  5-MIN KDBQ 240735Z AUTO 03003KT 10SM BKN075 OVC095 M07/M11 A3028 740 71 -1700 030/03 RMK AO2 TSNO
94908KDBQ DBQ20060224014011602/24/06 01:40:31  5-MIN KDBQ 240740Z AUTO 04003KT 10SM BKN075 OVC095 M07/M11 A3028 750 71 -1700 040/03 RMK AO2 TSNO
94908KDBQ DBQ20060224014511602/24/06 01:45:31  5-MIN KDBQ 240745Z AUTO 00000KT 10SM BKN080 OVC090 M07/M11 A3029 740 71 -1700 000/00 RMK AO2 TSNO
94908KDBQ DBQ20060224015013302/24/06 01:50:31  5-MIN KDBQ 240750Z AUTO 00000KT 10SM BKN080 OVC090 M07/M11 A3028 740 74 -1700 000/00 RMK AO2 SLP271 T10671106 TSNO
94908KDBQ DBQ20060224015513302/24/06 01:55:31  5-MIN KDBQ 240755Z AUTO 00000KT 10SM BKN080 OVC095 M07/M11 A3028 740 74 -1700 000/00 RMK AO2 SLP271 T10671106 TSNO
94908KDBQ DBQ20060224020010902/24/06 02:00:31  5-MIN KDBQ 240800Z AUTO 00000KT 10SM OVC085 M07/M11 A3029 740 74 -1700 000/00 RMK AO2 TSNO
94908KDBQ DBQ20060224020510902/24/06 02:05:31  5-MIN KDBQ 240805Z AUTO 00000KT 10SM OVC085 M06/M11 A3029 740 71 -1600 000/00 RMK AO2 TSNO
94908KDBQ DBQ20060224021010902/24/06 02:10:31  5-MIN KDBQ 240810Z AUTO 00000KT 10SM OVC085 M07/M11 A3029 740 74 -1700 000/00 RMK AO2 TSNO
94908KDBQ DBQ20060224021510902/24/06 02:15:31  5-MIN KDBQ 240815Z AUTO 00000KT 10SM OVC085 M07/M11 A3029 740 74 -1700 000/00 RMK AO2 TSNO
94908KDBQ DBQ20060224022010902/24/06 02:20:31  5-MIN KDBQ 240820Z AUTO 00000KT 10SM OVC085 M07/M10 A3028 740 77 -1700 000/00 RMK AO2 TSNO
94908KDBQ DBQ20060224022510902/24/06 02:25:31  5-MIN KDBQ 240825Z AUTO 11003KT 10SM OVC085 M07/M11 A3028 750 74 -1700 110/03 RMK AO2 TSNO
94908KDBQ DBQ20060224023010902/24/06 02:30:31  5-MIN KDBQ 240830Z AUTO 11003KT 10SM OVC090 M07/M10 A3028 750 77 -1700 100/03 RMK AO2 TSNO
94908KDBQ DBQ20060224023510902/24/06 02:35:31  5-MIN KDBQ 240835Z AUTO 11003KT 10SM OVC085 M07/M11 A3028 750 74 -1700 110/03 RMK AO2 TSNO
94908KDBQ DBQ20060224024010902/24/06 02:40:31  5-MIN KDBQ 240840Z AUTO 09004KT 10SM OVC085 M06/M10 A3027 750 74 -1600 090/04 RMK AO2 TSNO
94908KDBQ DBQ20060224024510902/24/06 02:45:31  5-MIN KDBQ 240845Z AUTO 08005KT 10SM OVC085 M06/M10 A3028 750 74 -1600 070/05 RMK AO2 TSNO
94908KDBQ DBQ20060224025013202/24/06 02:50:31  5-MIN KDBQ 240850Z AUTO 08005KT 10SM OVC085 M06/M10 A3027 760 74 -1600 080/05 RMK AO2 SLP265 T10611100 50014 TSNO
94908KDBQ DBQ20060224025513202/24/06 02:55:31  5-MIN KDBQ 240855Z AUTO 07004KT 10SM OVC085 M06/M11 A3027 760 71 -1600 070/04 RMK AO2 SLP265 T10611106 56005 TSNO
94908KDBQ DBQ20060224030011602/24/06 03:00:31  5-MIN KDBQ 240900Z AUTO 05005KT 10SM BKN070 OVC090 M06/M11 A3027 760 71 -1600 050/05 RMK AO2 TSNO
94908KDBQ DBQ20060224030511602/24/06 03:05:31  5-MIN KDBQ 240905Z AUTO 06005KT 10SM BKN065 OVC085 M06/M11 A3026 760 71 -1600 060/05 RMK AO2 TSNO
94908KDBQ DBQ20060224031011602/24/06 03:10:31  5-MIN KDBQ 240910Z AUTO 06005KT 10SM BKN060 OVC085 M06/M11 A3026 760 65 -1500 060/05 RMK AO2 TSNO
94908KDBQ DBQ20060224031511602/24/06 03:15:31  5-MIN KDBQ 240915Z AUTO 07005KT 10SM BKN060 OVC080 M06/M11 A3026 760 65 -1500 070/05 RMK AO2 TSNO
94908KDBQ DBQ20060224032011602/24/06 03:20:31  5-MIN KDBQ 240920Z AUTO 10004KT 10SM BKN060 OVC080 M06/M11 A3026 760 65 -1500 100/04 RMK AO2 TSNO
94908KDBQ DBQ20060224032511602/24/06 03:25:31  5-MIN KDBQ 240925Z AUTO 00000KT 10SM SCT060 OVC075 M06/M11 A3027 760 71 -1600 000/00 RMK AO2 TSNO
94908KDBQ DBQ20060224033011602/24/06 03:30:31  5-MIN KDBQ 240930Z AUTO 11004KT 10SM SCT060 OVC075 M06/M11 A3026 770 68 -1500 110/04 RMK AO2 TSNO
94908KDBQ DBQ20060224033511602/24/06 03:35:31  5-MIN KDBQ 240935Z AUTO 09003KT 10SM FEW060 OVC075 M06/M11 A3026 760 71 -1600 090/03 RMK AO2 TSNO
94908KDBQ DBQ20060224034010902/24/06 03:40:31  5-MIN KDBQ 240940Z AUTO 12005KT 10SM OVC075 M06/M11 A3026 760 71 -1600 120/05 RMK AO2 TSNO
94908KDBQ DBQ20060224034510902/24/06 03:45:31  5-MIN KDBQ 240945Z AUTO 11003KT 10SM OVC075 M06/M11 A3027 760 71 -1600 110/03 RMK AO2 TSNO
94908KDBQ DBQ20060224035012602/24/06 03:50:31  5-MIN KDBQ 240950Z AUTO 12003KT 10SM OVC075 M06/M11 A3026 760 71 -1600 120/03 RMK AO2 SLP263 T10611106 TSNO
94908KDBQ DBQ20060224035512602/24/06 03:55:31  5-MIN KDBQ 240955Z AUTO 12005KT 10SM OVC075 M06/M11 A3026 760 71 -1600 120/05 RMK AO2 SLP263 T10611106 TSNO
94908KDBQ DBQ20060224040010902/24/06 04:00:31  5-MIN KDBQ 241000Z AUTO 14004KT 10SM OVC075 M06/M11 A3026 760 71 -1600 140/04 RMK AO2 TSNO
94908KDBQ DBQ20060224040510902/24/06 04:05:31  5-MIN KDBQ 241005Z AUTO 15005KT 10SM OVC075 M06/M11 A3026 770 71 -1600 150/05 RMK AO2 TSNO
94908KDBQ DBQ20060224041011602/24/06 04:10:31  5-MIN KDBQ 241010Z AUTO 14004KT 10SM SCT055 OVC075 M06/M11 A3027 760 71 -1600 140/04 RMK AO2 TSNO
94908KDBQ DBQ20060224041511602/24/06 04:15:31  5-MIN KDBQ 241015Z AUTO 13003KT 10SM BKN050 OVC075 M06/M11 A3026 760 71 -1600 130/03 RMK AO2 TSNO
94908KDBQ DBQ20060224042011602/24/06 04:20:31  5-MIN KDBQ 241020Z AUTO 13004KT 10SM BKN048 OVC075 M06/M11 A3026 760 71 -1600 130/04 RMK AO2 TSNO
94908KDBQ DBQ20060224042511602/24/06 04:25:31  5-MIN KDBQ 241025Z AUTO 15006KT 10SM BKN044 OVC075 M06/M11 A3027 760 71 -1600 150/06 RMK AO2 TSNO
94908KDBQ DBQ20060224043010902/24/06 04:30:31  5-MIN KDBQ 241030Z AUTO 13006KT 10SM OVC044 M06/M11 A3026 760 71 -1600 130/06 RMK AO2 TSNO
94908KDBQ DBQ20060224043510902/24/06 04:35:31  5-MIN KDBQ 241035Z AUTO 14005KT 10SM OVC042 M06/M11 A3026 770 71 -1600 140/05 RMK AO2 TSNO
94908KDBQ DBQ20060224044010902/24/06 04:40:31  5-MIN KDBQ 241040Z AUTO 13005KT 10SM OVC040 M06/M11 A3025 770 71 -1600 130/05 RMK AO2 TSNO
94908KDBQ DBQ20060224044510902/24/06 04:45:31  5-MIN KDBQ 241045Z AUTO 12005KT 10SM OVC036 M06/M11 A3025 770 71 -1600 120/05 RMK AO2 TSNO
94908KDBQ DBQ20060224045012602/24/06 04:50:31  5-MIN KDBQ 241050Z AUTO 11004KT 10SM OVC038 M06/M11 A3025 770 68 -1500 100/04 RMK AO2 SLP260 T10561106 TSNO
94908KDBQ DBQ20060224045513302/24/06 04:55:31  5-MIN KDBQ 241055Z AUTO 10005KT 10SM BKN040 OVC090 M06/M11 A3025 770 68 -1500 100/05 RMK AO2 SLP260 T10561106 TSNO
94908KDBQ DBQ20060224050011602/24/06 05:00:31  5-MIN KDBQ 241100Z AUTO 11004KT 10SM BKN045 OVC090 M06/M11 A3025 770 68 -1500 110/04 RMK AO2 TSNO
94908KDBQ DBQ20060224050512302/24/06 05:05:31  5-MIN KDBQ 241105Z AUTO 13005KT 10SM SCT045 BKN090 OVC110 M06/M11 A3025 770 68 -1500 130/05 RMK AO2 TSNO
94908KDBQ DBQ20060224051012302/24/06 05:10:31  5-MIN KDBQ 241110Z AUTO 13005KT 10SM SCT045 SCT075 OVC110 M06/M11 A3025 780 71 -1600 130/05 RMK AO2 TSNO
94908KDBQ DBQ20060224051512302/24/06 05:15:31  5-MIN KDBQ 241115Z AUTO 14005KT 10SM FEW060 SCT090 OVC110 M06/M11 A3025 780 71 -1600 140/05 RMK AO2 TSNO
94908KDBQ DBQ20060224052011602/24/06 05:20:31  5-MIN KDBQ 241120Z AUTO VRB05KT 10SM BKN100 OVC120 M06/M11 A3025 780 71 -1600 VRB/05 RMK AO2 TSNO
94908KDBQ DBQ20060224052511602/24/06 05:25:31  5-MIN KDBQ 241125Z AUTO 14005KT 10SM BKN100 OVC120 M06/M11 A3024 780 71 -1600 140/05 RMK AO2 TSNO
94908KDBQ DBQ20060224053012302/24/06 05:30:31  5-MIN KDBQ 241130Z AUTO 14005KT 10SM FEW075 BKN100 OVC120 M06/M11 A3024 780 68 -1500 140/05 RMK AO2 TSNO
94908KDBQ DBQ20060224053512302/24/06 05:35:31  5-MIN KDBQ 241135Z AUTO 14008KT 10SM SCT075 BKN100 OVC120 M06/M11 A3024 780 68 -1500 140/08 RMK AO2 TSNO
94908KDBQ DBQ20060224054011602/24/06 05:40:31  5-MIN KDBQ 241140Z AUTO 14008KT 10SM BKN085 OVC110 M06/M11 A3024 780 68 -1500 140/08 RMK AO2 TSNO
94908KDBQ DBQ20060224054510902/24/06 05:45:31  5-MIN KDBQ 241145Z AUTO 14008KT 10SM OVC090 M06/M11 A3025 780 68 -1500 140/08 RMK AO2 TSNO
94908KDBQ DBQ20060224055014402/24/06 05:50:31  5-MIN KDBQ 241150Z AUTO 14009KT 10SM OVC085 M06/M11 A3025 780 68 -1500 140/09 RMK AO2 SLP260 T10561106 11056 21072 56005 TSNO
94908KDBQ DBQ20060224055514102/24/06 05:55:31  5-MIN KDBQ 241155Z 14009KT 10SM BKN080 OVC100 M06/M11 A3025 780 68 -1500 140/09 RMK AO2 SLP259 T10561106 11056 21072 56007
94908KDBQ DBQ20060224060009902/24/06 06:00:31  5-MIN KDBQ 241200Z 15010KT 10SM OVC090 M06/M11 A3024 780 68 -1500 150/10 RMK AO2
94908KDBQ DBQ20060224060509902/24/06 06:05:31  5-MIN KDBQ 241205Z 15008KT 10SM OVC095 M06/M11 A3024 780 68 -1500 150/08 RMK AO2
94908KDBQ DBQ20060224061009902/24/06 06:10:31  5-MIN KDBQ 241210Z 15011KT 10SM OVC100 M06/M11 A3025 780 68 -1500 150/11 RMK AO2
94908KDBQ DBQ20060224061509902/24/06 06:15:31  5-MIN KDBQ 241215Z 15011KT 10SM OVC100 M06/M11 A3024 780 65 -1500 150/11 RMK AO2
94908KDBQ DBQ20060224062009902/24/06 06:20:31  5-MIN KDBQ 241220Z 15011KT 10SM OVC100 M06/M11 A3024 780 65 -1500 150/11 RMK AO2
94908KDBQ DBQ20060224062509902/24/06 06:25:31  5-MIN KDBQ 241225Z 15011KT 10SM OVC095 M06/M11 A3024 790 68 -1500 150/11 RMK AO2
94908KDBQ DBQ20060224063009902/24/06 06:30:31  5-MIN KDBQ 241230Z 15012KT 10SM OVC100 M06/M11 A3024 790 68 -1500 150/12 RMK AO2
94908KDBQ DBQ20060224063509902/24/06 06:35:31  5-MIN KDBQ 241235Z 15010KT 10SM OVC100 M06/M11 A3024 790 68 -1500 150/10 RMK AO2
94908KDBQ DBQ20060224064009902/24/06 06:40:31  5-MIN KDBQ 241240Z 15011KT 10SM BKN100 M06/M11 A3023 790 68 -1500 150/11 RMK AO2
94908KDBQ DBQ20060224064509902/24/06 06:45:31  5-MIN KDBQ 241245Z 16010KT 10SM BKN095 M06/M11 A3024 790 68 -1500 160/10 RMK AO2
94908KDBQ DBQ20060224065011602/24/06 06:50:31  5-MIN KDBQ 241250Z 16011KT 10SM BKN100 M06/M11 A3024 790 71 -1500 160/11 RMK AO2 SLP257 T10611106
94908KDBQ DBQ20060224065511602/24/06 06:55:31  5-MIN KDBQ 241255Z 16010KT 10SM BKN100 M06/M11 A3023 790 71 -1500 160/10 RMK AO2 SLP257 T10611106
94908KDBQ DBQ20060224070009902/24/06 07:00:31  5-MIN KDBQ 241300Z 16011KT 10SM BKN100 M06/M11 A3023 790 71 -1500 160/11 RMK AO2
94908KDBQ DBQ20060224070509902/24/06 07:05:31  5-MIN KDBQ 241305Z 16013KT 10SM BKN100 M06/M11 A3022 800 71 -1500 160/13 RMK AO2
94908KDBQ DBQ20060224071009902/24/06 07:10:31  5-MIN KDBQ 241310Z 16012KT 10SM BKN100 M06/M11 A3023 790 68 -1500 160/12 RMK AO2
94908KDBQ DBQ20060224071509902/24/06 07:15:31  5-MIN KDBQ 241315Z 16013KT 10SM BKN100 M06/M11 A3023 790 68 -1500 150/13 RMK AO2
94908KDBQ DBQ20060224072009902/24/06 07:20:31  5-MIN KDBQ 241320Z 16012KT 10SM SCT100 M06/M11 A3023 790 68 -1500 150/12 RMK AO2
94908KDBQ DBQ20060224072509902/24/06 07:25:31  5-MIN KDBQ 241325Z 16011KT 10SM BKN100 M06/M11 A3024 790 68 -1500 160/11 RMK AO2
94908KDBQ DBQ20060224073009902/24/06 07:30:31  5-MIN KDBQ 241330Z 16013KT 10SM BKN110 M06/M11 A3023 790 68 -1500 160/13 RMK AO2
94908KDBQ DBQ20060224073509902/24/06 07:35:31  5-MIN KDBQ 241335Z 16015KT 10SM BKN100 M06/M11 A3023 800 68 -1500 160/15 RMK AO2
94908KDBQ DBQ20060224074009902/24/06 07:40:31  5-MIN KDBQ 241340Z 15015KT 10SM BKN100 M06/M11 A3022 800 68 -1500 150/15 RMK AO2
94908KDBQ DBQ20060224074510602/24/06 07:45:31  5-MIN KDBQ 241345Z 15015KT 10SM OVC100 M06/M11 A3021 810 68 -1400 150/15 RMK AO2 PRESFR
94908KDBQ DBQ20060224075011602/24/06 07:50:31  5-MIN KDBQ 241350Z 16012KT 10SM OVC100 M05/M11 A3023 790 65 -1400 160/12 RMK AO2 SLP255 T10501106
94908KDBQ DBQ20060224075511602/24/06 07:55:31  5-MIN KDBQ 241355Z 15013KT 10SM OVC100 M05/M11 A3023 790 65 -1400 150/13 RMK AO2 SLP255 T10501106
94908KDBQ DBQ20060224080009902/24/06 08:00:31  5-MIN KDBQ 241400Z 16013KT 10SM OVC100 M05/M11 A3023 800 65 -1400 160/13 RMK AO2
94908KDBQ DBQ20060224080509902/24/06 08:05:31  5-MIN KDBQ 241405Z 16013KT 10SM OVC100 M05/M11 A3022 800 65 -1400 160/13 RMK AO2
94908KDBQ DBQ20060224081009902/24/06 08:10:31  5-MIN KDBQ 241410Z 16015KT 10SM OVC100 M05/M11 A3021 810 65 -1400 160/15 RMK AO2
94908KDBQ DBQ20060224081509902/24/06 08:15:31  5-MIN KDBQ 241415Z 15016KT 10SM OVC100 M05/M11 A3021 810 65 -1400 150/16 RMK AO2
94908KDBQ DBQ20060224082010502/24/06 08:20:31  5-MIN KDBQ 241420Z 15014G20KT 10SM OVC100 M04/M11 A3022 810 62 -1300 150/14G20 RMK AO2
94908KDBQ DBQ20060224082509902/24/06 08:25:31  5-MIN KDBQ 241425Z 16017KT 10SM BKN100 M04/M11 A3021 810 60 -1300 160/17 RMK AO2
94908KDBQ DBQ20060224083009902/24/06 08:30:31  5-MIN KDBQ 241430Z 16016KT 10SM BKN100 M04/M11 A3021 810 60 -1300 160/16 RMK AO2
94908KDBQ DBQ20060224083509902/24/06 08:35:31  5-MIN KDBQ 241435Z 16019KT 10SM SCT100 M04/M11 A3021 810 57 -1200 160/19 RMK AO2
94908KDBQ DBQ20060224084009902/24/06 08:40:31  5-MIN KDBQ 241440Z 16018KT 10SM SCT100 M04/M11 A3021 810 60 -1200 150/18 RMK AO2
94908KDBQ DBQ20060224084509902/24/06 08:45:31  5-MIN KDBQ 241445Z 16017KT 10SM BKN100 M04/M11 A3021 810 60 -1200 160/17 RMK AO2
94908KDBQ DBQ20060224085012202/24/06 08:50:31  5-MIN KDBQ 241450Z 16015KT 10SM SCT100 M04/M11 A3020 820 60 -1200 160/15 RMK AO2 SLP246 T10391106 56007
94908KDBQ DBQ20060224085512202/24/06 08:55:31  5-MIN KDBQ 241455Z 16016KT 10SM BKN100 M04/M11 A3020 820 60 -1200 160/16 RMK AO2 SLP246 T10391106 58015
94908KDBQ DBQ20060224090010502/24/06 09:00:31  5-MIN KDBQ 241500Z 16015G22KT 10SM BKN100 M03/M11 A3020 820 57 -1100 160/15G22 RMK AO2
94908KDBQ DBQ20060224090510502/24/06 09:05:31  5-MIN KDBQ 241505Z 16019G24KT 10SM BKN100 M03/M11 A3020 820 57 -1100 160/19G24 RMK AO2
94908KDBQ DBQ20060224091010502/24/06 09:10:31  5-MIN KDBQ 241510Z 16019G24KT 10SM SCT100 M03/M11 A3019 830 57 -1100 160/19G24 RMK AO2
94908KDBQ DBQ20060224091509902/24/06 09:15:31  5-MIN KDBQ 241515Z 16020KT 10SM SCT100 M03/M11 A3019 830 57 -1100 160/20 RMK AO2
94908KDBQ DBQ20060224092009902/24/06 09:20:31  5-MIN KDBQ 241520Z 16018KT 10SM FEW100 M03/M11 A3019 830 57 -1100 160/18 RMK AO2
94908KDBQ DBQ20060224092510502/24/06 09:25:31  5-MIN KDBQ 241525Z 16017G24KT 10SM FEW100 M03/M11 A3018 840 55 -1100 160/17G24 RMK AO2
94908KDBQ DBQ20060224093010202/24/06 09:30:31  5-MIN KDBQ 241530Z 17019G24KT 10SM CLR M03/M11 A3018 840 57 -1100 160/19G24 RMK AO2
94908KDBQ DBQ20060224093510202/24/06 09:35:31  5-MIN KDBQ 241535Z 16018G23KT 10SM CLR M03/M11 A3018 840 55 -1100 160/18G23 RMK AO2
94908KDBQ DBQ20060224094009602/24/06 09:40:31  5-MIN KDBQ 241540Z 16017KT 10SM CLR M03/M10 A3018 840 58 -1000 160/17 RMK AO2
94908KDBQ DBQ20060224094509602/24/06 09:45:31  5-MIN KDBQ 241545Z 16018KT 10SM CLR M02/M10 A3017 840 55 -1000 160/18 RMK AO2
94908KDBQ DBQ20060224095011302/24/06 09:50:31  5-MIN KDBQ 241550Z 16018KT 10SM CLR M02/M10 A3017 850 55 -1000 160/18 RMK AO2 SLP233 T10221100
94908KDBQ DBQ20060224095511202/24/06 09:55:31  5-MIN KDBQ 241555Z 17017KT 10SM CLR M02/M09 A3017 850 55 -900 170/17 RMK AO2 SLP233 T10171094
94908KDBQ DBQ20060224100009502/24/06 10:00:31  5-MIN KDBQ 241600Z 17020KT 10SM CLR M02/M10 A3017 850 53 -900 170/20 RMK AO2
94908KDBQ DBQ20060224100509502/24/06 10:05:31  5-MIN KDBQ 241605Z 17019KT 10SM CLR M02/M10 A3016 860 53 -900 170/19 RMK AO2
94908KDBQ DBQ20060224101010102/24/06 10:10:31  5-MIN KDBQ 241610Z 16016G24KT 10SM CLR M02/M09 A3016 860 55 -900 160/16G24 RMK AO2
94908KDBQ DBQ20060224101510102/24/06 10:15:31  5-MIN KDBQ 241615Z 17019G24KT 10SM CLR M02/M09 A3015 860 55 -900 160/19G24 RMK AO2
94908KDBQ DBQ20060224102010102/24/06 10:20:31  5-MIN KDBQ 241620Z 16016G24KT 10SM CLR M02/M09 A3015 860 55 -900 160/16G24 RMK AO2
94908KDBQ DBQ20060224102509502/24/06 10:25:31  5-MIN KDBQ 241625Z 16017KT 10SM CLR M02/M09 A3015 870 55 -900 160/17 RMK AO2
94908KDBQ DBQ20060224103009802/24/06 10:30:31  5-MIN KDBQ 241630Z 16016KT 10SM FEW120 M02/M09 A3015 870 58 -900 160/16 RMK AO2
94908KDBQ DBQ20060224103509802/24/06 10:35:31  5-MIN KDBQ 241635Z 16017KT 10SM SCT120 M01/M09 A3014 870 55 -800 160/17 RMK AO2
94908KDBQ DBQ20060224104009802/24/06 10:40:31  5-MIN KDBQ 241640Z 16018KT 10SM SCT110 M01/M09 A3014 880 55 -800 160/18 RMK AO2
94908KDBQ DBQ20060224104509802/24/06 10:45:31  5-MIN KDBQ 241645Z 17017KT 10SM FEW120 M01/M09 A3014 880 55 -800 160/17 RMK AO2
94908KDBQ DBQ20060224105011502/24/06 10:50:31  5-MIN KDBQ 241650Z 16018KT 10SM FEW120 M01/M08 A3013 880 56 -700 160/18 RMK AO2 SLP220 T10061083
94908KDBQ DBQ20060224105512002/24/06 10:55:31  5-MIN KDBQ 241655Z 17020G25KT 10SM FEW120 00/M09 A3013 890 51 -600 170/20G25 RMK AO2 SLP218 T00001089
94908KDBQ DBQ20060224110010302/24/06 11:00:31  5-MIN KDBQ 241700Z 17019G25KT 10SM FEW110 00/M09 A3012 890 51 -600 160/19G25 RMK AO2
94908KDBQ DBQ20060224110509402/24/06 11:05:31  5-MIN KDBQ 241705Z 17019KT 10SM CLR 00/M09 A3012 900 51 -600 170/19 RMK AO2
94908KDBQ DBQ20060224111010702/24/06 11:10:31  5-MIN KDBQ 241710Z 17019G23KT 10SM CLR 01/M08 A3011 900 51 -500 160/19G23 RMK AO2 PRESFR
94908KDBQ DBQ20060224111511802/24/06 11:15:31  5-MIN KDBQ 241715Z 16021G26KT 10SM CLR 01/M09 A3011 910 49 -500 160/21G26 RMK AO2 PK WND 17026/1715
94908KDBQ DBQ20060224112011802/24/06 11:20:31  5-MIN KDBQ 241720Z 16020G26KT 10SM CLR 01/M09 A3010 910 49 -500 160/20G26 RMK AO2 PK WND 17026/1715
94908KDBQ DBQ20060224112511802/24/06 11:25:31  5-MIN KDBQ 241725Z 16021G25KT 10SM CLR 01/M08 A3010 920 51 -500 160/21G25 RMK AO2 PK WND 17026/1715
94908KDBQ DBQ20060224113012102/24/06 11:30:31  5-MIN KDBQ 241730Z 16020G25KT 10SM SCT080 01/M08 A3009 920 51 -500 160/20G25 RMK AO2 PK WND 17026/1715
94908KDBQ DBQ20060224113512102/24/06 11:35:31  5-MIN KDBQ 241735Z 17018G25KT 10SM BKN085 01/M08 A3009 920 49 -500 170/18G25 RMK AO2 PK WND 17026/1715
94908KDBQ DBQ20060224114012102/24/06 11:40:31  5-MIN KDBQ 241740Z 16020G25KT 10SM BKN085 01/M08 A3009 920 51 -500 160/20G25 RMK AO2 PK WND 17026/1715
94908KDBQ DBQ20060224114511502/24/06 11:45:31  5-MIN KDBQ 241745Z 16018KT 10SM BKN085 01/M08 A3008 930 49 -400 160/18 RMK AO2 PK WND 17026/1715
94908KDBQ DBQ20060224115015002/24/06 11:50:31  5-MIN KDBQ 241750Z 16018KT 10SM BKN085 01/M08 A3008 940 51 -400 160/18 RMK AO2 PK WND 17026/1715 SLP198 T00111078 10011 21061 58015
94908KDBQ DBQ20060224115515002/24/06 11:55:31  5-MIN KDBQ 241755Z 16017KT 10SM BKN085 02/M07 A3007 940 52 -400 160/17 RMK AO2 PK WND 17026/1715 SLP199 T00171072 10017 21061 58043
94908KDBQ DBQ20060224120011002/24/06 12:00:31  5-MIN KDBQ 241800Z 16020G23KT 10SM BKN085 02/M07 A3006 950 52 -400 160/20G23 RMK AO2 PRESFR
94908KDBQ DBQ20060224120510302/24/06 12:05:31  5-MIN KDBQ 241805Z 16019G24KT 10SM SCT085 02/M07 A3006 950 52 -400 160/19G24 RMK AO2
94908KDBQ DBQ20060224121012102/24/06 12:10:31  5-MIN KDBQ 241810Z 16017G27KT 10SM BKN085 02/M08 A3006 950 49 -400 160/17G27 RMK AO2 PK WND 16027/1806
94908KDBQ DBQ20060224121512102/24/06 12:15:31  5-MIN KDBQ 241815Z 17021G27KT 10SM BKN085 02/M07 A3005 960 52 -300 170/21G27 RMK AO2 PK WND 16027/1806
94908KDBQ DBQ20060224122012102/24/06 12:20:31  5-MIN KDBQ 241820Z 17021G24KT 10SM BKN085 02/M07 A3005 960 52 -300 170/21G24 RMK AO2 PK WND 16027/1806
94908KDBQ DBQ20060224122512102/24/06 12:25:31  5-MIN KDBQ 241825Z 17022G26KT 10SM BKN085 02/M07 A3005 960 50 -300 170/22G26 RMK AO2 PK WND 16027/1806
94908KDBQ DBQ20060224123012102/24/06 12:30:31  5-MIN KDBQ 241830Z 17018G26KT 10SM OVC085 02/M07 A3004 970 52 -300 170/18G26 RMK AO2 PK WND 16027/1806
94908KDBQ DBQ20060224123511502/24/06 12:35:31  5-MIN KDBQ 241835Z 17018KT 10SM OVC080 02/M07 A3004 970 52 -300 170/18 RMK AO2 PK WND 16027/1806
94908KDBQ DBQ20060224124011502/24/06 12:40:31  5-MIN KDBQ 241840Z 18018KT 10SM OVC080 02/M07 A3004 970 52 -300 170/18 RMK AO2 PK WND 16027/1806
94908KDBQ DBQ20060224124511502/24/06 12:45:31  5-MIN KDBQ 241845Z 17018KT 10SM OVC080 02/M07 A3003 980 52 -200 170/18 RMK AO2 PK WND 16027/1806
94908KDBQ DBQ20060224125013202/24/06 12:50:31  5-MIN KDBQ 241850Z 17019KT 10SM OVC080 03/M07 A3002 980 50 -200 170/19 RMK AO2 PK WND 16027/1806 SLP181 T00281067
94908KDBQ DBQ20060224125513902/24/06 12:55:31  5-MIN KDBQ 241855Z 17015KT 10SM OVC080 03/M06 A3002 990 54 -200 170/15 RMK AO2 PK WND 16027/1806 PRESFR SLP178 T00281056
94908KDBQ DBQ20060224130010502/24/06 13:00:31  5-MIN KDBQ 241900Z 17017KT 10SM OVC080 03/M06 A3001 1000 52 -200 170/17 RMK AO2 PRESFR
94908KDBQ DBQ20060224130509802/24/06 13:05:31  5-MIN KDBQ 241905Z 17019KT 10SM OVC080 03/M06 A3001 1000 52 -100 170/19 RMK AO2
94908KDBQ DBQ20060224131011102/24/06 13:10:31  5-MIN KDBQ 241910Z 18020G24KT 10SM OVC075 03/M06 A3000 1010 50 -100 170/20G24 RMK AO2 PRESFR
94908KDBQ DBQ20060224131510402/24/06 13:15:31  5-MIN KDBQ 241915Z 17018G24KT 10SM OVC075 03/M06 A2999 1010 50 -100 170/18G24 RMK AO2
94908KDBQ DBQ20060224132011102/24/06 13:20:31  5-MIN KDBQ 241920Z 17019G24KT 10SM OVC075 03/M06 A2999 1020 50 -100 170/19G24 RMK AO2 PRESFR
94908KDBQ DBQ20060224132510402/24/06 13:25:31  5-MIN KDBQ 241925Z 18016G24KT 10SM OVC070 03/M06 A2998 1020 52 -100 180/16G24 RMK AO2
94908KDBQ DBQ20060224133010202/24/06 13:30:31  5-MIN KDBQ 241930Z 18018KT 10SM OVC070 03/M06 A2997 1030 52 0 180/18 RMK AO2 PRESFR
94908KDBQ DBQ20060224133509502/24/06 13:35:31  5-MIN KDBQ 241935Z 18016KT 10SM OVC070 04/M06 A2997 1030 50 0 180/16 RMK AO2
94908KDBQ DBQ20060224134009502/24/06 13:40:31  5-MIN KDBQ 241940Z 18016KT 10SM OVC070 04/M05 A2997 1040 52 0 170/16 RMK AO2
94908KDBQ DBQ20060224134510202/24/06 13:45:31  5-MIN KDBQ 241945Z 18018KT 10SM OVC070 04/M06 A2996 1050 50 0 180/18 RMK AO2 PRESFR
94908KDBQ DBQ20060224135011802/24/06 13:50:31  5-MIN KDBQ 241950Z 18019G24KT 10SM OVC070 04/M06 A2995 1050 50 0 180/19G24 RMK AO2 SLP155 T00391056
94908KDBQ DBQ20060224135512502/24/06 13:55:31  5-MIN KDBQ 241955Z 18017G24KT 10SM OVC070 04/M05 A2994 1060 52 0 170/17G24 RMK AO2 PRESFR SLP152 T00391050
94908KDBQ DBQ20060224140010402/24/06 14:00:31  5-MIN KDBQ 242000Z 18017KT 10SM BKN070 04/M04 A2994 1060 52 100 180/17 RMK AO2 PRESFR
94908KDBQ DBQ20060224140510402/24/06 14:05:31  5-MIN KDBQ 242005Z 18019KT 10SM BKN070 04/M05 A2992 1080 50 100 180/19 RMK AO2 PRESFR
94908KDBQ DBQ20060224141012102/24/06 14:10:31  5-MIN KDBQ 242010Z 18021G26KT 10SM SCT065 05/M05 A2992 1080 48 200 170/21G26 RMK AO2 PK WND 18026/2008
94908KDBQ DBQ20060224141512102/24/06 14:15:31  5-MIN KDBQ 242015Z 18021G27KT 10SM SCT065 05/M04 A2992 1080 50 200 180/21G27 RMK AO2 PK WND 18027/2013
94908KDBQ DBQ20060224142012802/24/06 14:20:31  5-MIN KDBQ 242020Z 18022G27KT 10SM FEW065 05/M04 A2990 1090 50 200 180/22G27 RMK AO2 PK WND 18027/2013 PRESFR
94908KDBQ DBQ20060224142512202/24/06 14:25:31  5-MIN KDBQ 242025Z 17022KT 10SM FEW065 05/M05 A2990 1100 48 200 170/22 RMK AO2 PK WND 18027/2013 PRESFR
94908KDBQ DBQ20060224143012102/24/06 14:30:31  5-MIN KDBQ 242030Z 18022G29KT 10SM FEW055 04/M04 A2990 1100 52 100 180/22G29 RMK AO2 PK WND 18029/2026
94908KDBQ DBQ20060224143512102/24/06 14:35:31  5-MIN KDBQ 242035Z 17020G29KT 10SM SCT050 05/M04 A2989 1100 50 200 170/20G29 RMK AO2 PK WND 18029/2026
94908KDBQ DBQ20060224144011502/24/06 14:40:31  5-MIN KDBQ 242040Z 17021KT 10SM SCT050 05/M04 A2989 1110 50 200 170/21 RMK AO2 PK WND 18029/2026
94908KDBQ DBQ20060224144512102/24/06 14:45:31  5-MIN KDBQ 242045Z 19022G27KT 10SM SCT050 04/M04 A2989 1110 52 100 190/22G27 RMK AO2 PK WND 18029/2026
94908KDBQ DBQ20060224145014402/24/06 14:50:31  5-MIN KDBQ 242050Z 19022G28KT 10SM SCT050 05/M04 A2988 1110 50 200 190/22G28 RMK AO2 PK WND 18029/2026 SLP132 T00501044 58043
94908KDBQ DBQ20060224145514402/24/06 14:55:31  5-MIN KDBQ 242055Z 17020G28KT 10SM SCT050 05/M04 A2988 1120 52 200 170/20G28 RMK AO2 PK WND 18029/2026 SLP130 T00501039 58064
94908KDBQ DBQ20060224150010302/24/06 15:00:31  5-MIN KDBQ 242100Z 17016G25KT 10SM FEW050 05/M04 A2988 1110 52 200 170/16G25 RMK AO2
94908KDBQ DBQ20060224150511802/24/06 15:05:31  5-MIN KDBQ 242105Z 18019G26KT 10SM CLR 06/M04 A2989 1110 50 300 180/19G26 RMK AO2 PK WND 18026/2102
94908KDBQ DBQ20060224151011802/24/06 15:10:31  5-MIN KDBQ 242110Z 18020G26KT 10SM CLR 06/M04 A2989 1110 50 300 180/20G26 RMK AO2 PK WND 18026/2102
94908KDBQ DBQ20060224151511802/24/06 15:15:31  5-MIN KDBQ 242115Z 19018G23KT 10SM CLR 06/M04 A2988 1120 50 300 190/18G23 RMK AO2 PK WND 18026/2102
94908KDBQ DBQ20060224152011802/24/06 15:20:31  5-MIN KDBQ 242120Z 19019G24KT 10SM CLR 06/M04 A2988 1120 50 300 190/19G24 RMK AO2 PK WND 18026/2102
94908KDBQ DBQ20060224152511802/24/06 15:25:31  5-MIN KDBQ 242125Z 20021G25KT 10SM CLR 06/M04 A2987 1120 50 300 200/21G25 RMK AO2 PK WND 18026/2102
94908KDBQ DBQ20060224153011802/24/06 15:30:31  5-MIN KDBQ 242130Z 19020G25KT 10SM CLR 06/M04 A2987 1130 50 300 190/20G25 RMK AO2 PK WND 18026/2102
94908KDBQ DBQ20060224153511802/24/06 15:35:31  5-MIN KDBQ 242135Z 18020G25KT 10SM CLR 06/M04 A2987 1130 50 300 180/20G25 RMK AO2 PK WND 18026/2102
94908KDBQ DBQ20060224154011202/24/06 15:40:31  5-MIN KDBQ 242140Z 18018KT 10SM CLR 06/M04 A2987 1130 48 400 180/18 RMK AO2 PK WND 18026/2102
94908KDBQ DBQ20060224154511202/24/06 15:45:31  5-MIN KDBQ 242145Z 18016KT 10SM CLR 06/M04 A2987 1130 48 400 180/16 RMK AO2 PK WND 18026/2102
94908KDBQ DBQ20060224155012902/24/06 15:50:31  5-MIN KDBQ 242150Z 19017KT 10SM CLR 06/M03 A2986 1130 51 400 180/17 RMK AO2 PK WND 18026/2102 SLP123 T00611033
94908KDBQ DBQ20060224155513502/24/06 15:55:31  5-MIN KDBQ 242155Z 18017G22KT 10SM CLR 06/M03 A2986 1140 51 400 180/17G22 RMK AO2 PK WND 18026/2102 SLP121 T00611033
94908KDBQ DBQ20060224160010002/24/06 16:00:31  5-MIN KDBQ 242200Z 19017G22KT 10SM CLR 06/M03 A2986 1140 51 400 190/17G22 RMK AO2
94908KDBQ DBQ20060224160510002/24/06 16:05:31  5-MIN KDBQ 242205Z 20016G22KT 10SM CLR 06/M03 A2987 1120 51 400 190/16G22 RMK AO2
94908KDBQ DBQ20060224161009402/24/06 16:10:31  5-MIN KDBQ 242210Z 20014KT 10SM CLR 06/M03 A2988 1120 51 400 200/14 RMK AO2
94908KDBQ DBQ20060224161509402/24/06 16:15:31  5-MIN KDBQ 242215Z 20014KT 10SM CLR 06/M03 A2988 1120 51 400 200/14 RMK AO2
94908KDBQ DBQ20060224162009402/24/06 16:20:31  5-MIN KDBQ 242220Z 20012KT 10SM CLR 06/M03 A2988 1110 51 300 200/12 RMK AO2
94908KDBQ DBQ20060224162509402/24/06 16:25:31  5-MIN KDBQ 242225Z 20012KT 10SM CLR 06/M03 A2988 1120 53 400 200/12 RMK AO2
94908KDBQ DBQ20060224163009402/24/06 16:30:31  5-MIN KDBQ 242230Z 19013KT 10SM CLR 06/M03 A2987 1120 51 400 190/13 RMK AO2
94908KDBQ DBQ20060224163509402/24/06 16:35:31  5-MIN KDBQ 242235Z 20013KT 10SM CLR 06/M03 A2987 1130 51 400 200/13 RMK AO2
94908KDBQ DBQ20060224164009402/24/06 16:40:31  5-MIN KDBQ 242240Z 20014KT 10SM CLR 06/M03 A2987 1130 51 400 200/14 RMK AO2
94908KDBQ DBQ20060224164509402/24/06 16:45:31  5-MIN KDBQ 242245Z 20014KT 10SM CLR 06/M03 A2987 1130 53 400 200/14 RMK AO2
94908KDBQ DBQ20060224165011102/24/06 16:50:31  5-MIN KDBQ 242250Z 20013KT 10SM CLR 06/M03 A2986 1130 51 400 200/13 RMK AO2 SLP124 T00611033
94908KDBQ DBQ20060224165511102/24/06 16:55:31  5-MIN KDBQ 242255Z 19013KT 10SM CLR 06/M03 A2987 1130 51 400 190/13 RMK AO2 SLP125 T00611033
94908KDBQ DBQ20060224170009402/24/06 17:00:31  5-MIN KDBQ 242300Z 19013KT 10SM CLR 06/M03 A2987 1130 53 400 190/13 RMK AO2
94908KDBQ DBQ20060224170509402/24/06 17:05:31  5-MIN KDBQ 242305Z 19012KT 10SM CLR 06/M03 A2987 1130 53 400 190/12 RMK AO2
94908KDBQ DBQ20060224171009402/24/06 17:10:31  5-MIN KDBQ 242310Z 19011KT 10SM CLR 06/M03 A2986 1130 53 400 190/11 RMK AO2
94908KDBQ DBQ20060224171509402/24/06 17:15:31  5-MIN KDBQ 242315Z 19012KT 10SM CLR 06/M03 A2986 1130 55 300 190/12 RMK AO2
94908KDBQ DBQ20060224172009402/24/06 17:20:31  5-MIN KDBQ 242320Z 19012KT 10SM CLR 06/M03 A2986 1130 55 300 190/12 RMK AO2
94908KDBQ DBQ20060224172509402/24/06 17:25:31  5-MIN KDBQ 242325Z 19013KT 10SM CLR 06/M03 A2986 1140 55 300 190/13 RMK AO2
94908KDBQ DBQ20060224173009402/24/06 17:30:31  5-MIN KDBQ 242330Z 19013KT 10SM CLR 06/M03 A2985 1140 55 300 190/13 RMK AO2
94908KDBQ DBQ20060224173509402/24/06 17:35:31  5-MIN KDBQ 242335Z 20012KT 10SM CLR 05/M03 A2986 1140 57 200 190/12 RMK AO2
94908KDBQ DBQ20060224174009402/24/06 17:40:31  5-MIN KDBQ 242340Z 20011KT 10SM CLR 05/M03 A2986 1140 57 200 190/11 RMK AO2
94908KDBQ DBQ20060224174509402/24/06 17:45:31  5-MIN KDBQ 242345Z 20011KT 10SM CLR 04/M03 A2986 1140 59 200 200/11 RMK AO2
94908KDBQ DBQ20060224175012902/24/06 17:50:31  5-MIN KDBQ 242350Z 20011KT 10SM CLR 04/M03 A2985 1140 59 200 200/11 RMK AO2 SLP122 T00441028 10061 20017 58064
94908KDBQ DBQ20060224175512902/24/06 17:55:31  5-MIN KDBQ 242355Z 20011KT 10SM CLR 04/M03 A2985 1140 59 200 190/11 RMK AO2 SLP121 T00441028 10061 20017 56009
94908KDBQ DBQ20060224180009402/24/06 18:00:31  5-MIN KDBQ 250000Z 19013KT 10SM CLR 04/M03 A2985 1140 59 200 190/13 RMK AO2
94908KDBQ DBQ20060224180509402/24/06 18:05:31  5-MIN KDBQ 250005Z 19013KT 10SM CLR 05/M03 A2985 1150 57 300 190/13 RMK AO2
94908KDBQ DBQ20060224181009402/24/06 18:10:31  5-MIN KDBQ 250010Z 18014KT 10SM CLR 05/M03 A2984 1150 57 300 180/14 RMK AO2
94908KDBQ DBQ20060224181509402/24/06 18:15:31  5-MIN KDBQ 250015Z 18013KT 10SM CLR 05/M03 A2984 1150 57 300 180/13 RMK AO2
94908KDBQ DBQ20060224182009402/24/06 18:20:31  5-MIN KDBQ 250020Z 18013KT 10SM CLR 05/M03 A2984 1150 57 300 180/13 RMK AO2
94908KDBQ DBQ20060224182509402/24/06 18:25:31  5-MIN KDBQ 250025Z 19013KT 10SM CLR 05/M03 A2984 1150 57 300 180/13 RMK AO2
94908KDBQ DBQ20060224183009402/24/06 18:30:31  5-MIN KDBQ 250030Z 19013KT 10SM CLR 05/M03 A2984 1150 57 300 180/13 RMK AO2
94908KDBQ DBQ20060224183509402/24/06 18:35:31  5-MIN KDBQ 250035Z 19013KT 10SM CLR 04/M03 A2984 1150 59 200 190/13 RMK AO2
94908KDBQ DBQ20060224184009402/24/06 18:40:31  5-MIN KDBQ 250040Z 19012KT 10SM CLR 04/M03 A2984 1150 59 200 190/12 RMK AO2
94908KDBQ DBQ20060224184509402/24/06 18:45:31  5-MIN KDBQ 250045Z 20012KT 10SM CLR 04/M02 A2984 1150 62 200 200/12 RMK AO2
94908KDBQ DBQ20060224185012102/24/06 18:50:31  5-MIN KDBQ 250050Z AUTO 20011KT 10SM CLR 04/M02 A2984 1150 64 100 200/11 RMK AO2 SLP118 T00391022 TSNO
94908KDBQ DBQ20060224185512102/24/06 18:55:31  5-MIN KDBQ 250055Z AUTO 21010KT 10SM CLR 04/M02 A2984 1150 64 100 210/10 RMK AO2 SLP118 T00391022 TSNO
94908KDBQ DBQ20060224190010402/24/06 19:00:31  5-MIN KDBQ 250100Z AUTO 21010KT 10SM CLR 03/M02 A2984 1150 67 100 210/10 RMK AO2 TSNO
94908KDBQ DBQ20060224190510402/24/06 19:05:31  5-MIN KDBQ 250105Z AUTO 21011KT 10SM CLR 04/M02 A2984 1150 64 100 210/11 RMK AO2 TSNO
94908KDBQ DBQ20060224191010402/24/06 19:10:31  5-MIN KDBQ 250110Z AUTO 21011KT 10SM CLR 04/M02 A2984 1150 64 100 210/11 RMK AO2 TSNO
94908KDBQ DBQ20060224191510402/24/06 19:15:31  5-MIN KDBQ 250115Z AUTO 20012KT 10SM CLR 04/M02 A2984 1150 64 100 200/12 RMK AO2 TSNO
94908KDBQ DBQ20060224192010402/24/06 19:20:31  5-MIN KDBQ 250120Z AUTO 20012KT 10SM CLR 04/M02 A2984 1150 64 100 200/12 RMK AO2 TSNO
94908KDBQ DBQ20060224192510402/24/06 19:25:31  5-MIN KDBQ 250125Z AUTO 20013KT 10SM CLR 04/M02 A2984 1150 64 100 200/13 RMK AO2 TSNO
94908KDBQ DBQ20060224193010402/24/06 19:30:31  5-MIN KDBQ 250130Z AUTO 20012KT 10SM CLR 04/M02 A2984 1150 64 100 200/12 RMK AO2 TSNO
94908KDBQ DBQ20060224193510402/24/06 19:35:31  5-MIN KDBQ 250135Z AUTO 21011KT 10SM CLR 04/M02 A2984 1150 64 100 210/11 RMK AO2 TSNO
94908KDBQ DBQ20060224194010402/24/06 19:40:31  5-MIN KDBQ 250140Z AUTO 22008KT 10SM CLR 04/M02 A2985 1150 64 100 220/08 RMK AO2 TSNO
94908KDBQ DBQ20060224194510402/24/06 19:45:31  5-MIN KDBQ 250145Z AUTO 23009KT 10SM CLR 04/M03 A2985 1150 59 200 220/09 RMK AO2 TSNO
94908KDBQ DBQ20060224195012102/24/06 19:50:31  5-MIN KDBQ 250150Z AUTO 22011KT 10SM CLR 04/M03 A2985 1140 59 200 220/11 RMK AO2 SLP120 T00441028 TSNO
94908KDBQ DBQ20060224195512102/24/06 19:55:31  5-MIN KDBQ 250155Z AUTO 23010KT 10SM CLR 04/M03 A2986 1140 62 100 230/10 RMK AO2 SLP123 T00391028 TSNO
94908KDBQ DBQ20060224200010402/24/06 20:00:31  5-MIN KDBQ 250200Z AUTO 22012KT 10SM CLR 04/M03 A2986 1130 62 100 220/12 RMK AO2 TSNO
94908KDBQ DBQ20060224200510402/24/06 20:05:31  5-MIN KDBQ 250205Z AUTO 23010KT 10SM CLR 04/M03 A2986 1130 59 200 230/10 RMK AO2 TSNO
94908KDBQ DBQ20060224201010402/24/06 20:10:31  5-MIN KDBQ 250210Z AUTO 23012KT 10SM CLR 04/M03 A2987 1130 59 200 230/12 RMK AO2 TSNO
94908KDBQ DBQ20060224201510402/24/06 20:15:31  5-MIN KDBQ 250215Z AUTO 25010KT 10SM CLR 04/M02 A2987 1120 64 100 240/10 RMK AO2 TSNO
94908KDBQ DBQ20060224202010402/24/06 20:20:31  5-MIN KDBQ 250220Z AUTO 26011KT 10SM CLR 04/M03 A2988 1120 59 200 260/11 RMK AO2 TSNO
94908KDBQ DBQ20060224202510402/24/06 20:25:31  5-MIN KDBQ 250225Z AUTO 25011KT 10SM CLR 04/M03 A2988 1120 59 200 250/11 RMK AO2 TSNO
94908KDBQ DBQ20060224203010402/24/06 20:30:31  5-MIN KDBQ 250230Z AUTO 27011KT 10SM CLR 04/M03 A2988 1120 62 100 270/11 RMK AO2 TSNO
94908KDBQ DBQ20060224203510402/24/06 20:35:31  5-MIN KDBQ 250235Z AUTO 25013KT 10SM CLR 04/M03 A2988 1120 59 100 250/13 RMK AO2 TSNO
94908KDBQ DBQ20060224204010402/24/06 20:40:31  5-MIN KDBQ 250240Z AUTO 25011KT 10SM CLR 04/M02 A2989 1110 62 100 250/11 RMK AO2 TSNO
94908KDBQ DBQ20060224204510402/24/06 20:45:31  5-MIN KDBQ 250245Z AUTO 25010KT 10SM CLR 04/M02 A2989 1110 64 100 250/10 RMK AO2 TSNO
94908KDBQ DBQ20060224205012502/24/06 20:50:31  5-MIN KDBQ 250250Z AUTO 25010KT 10SM CLR 03/M03 A2989 1110 64 0 250/10 RMK AO2 SLP132 T00331028 56009 TSNO
94908KDBQ DBQ20060224205512502/24/06 20:55:31  5-MIN KDBQ 250255Z AUTO 26010KT 10SM CLR 03/M03 A2989 1110 64 0 260/10 RMK AO2 SLP132 T00331028 53012 TSNO
94908KDBQ DBQ20060224210010402/24/06 21:00:31  5-MIN KDBQ 250300Z AUTO 26010KT 10SM CLR 04/M03 A2989 1110 62 100 260/10 RMK AO2 TSNO
94908KDBQ DBQ20060224210510402/24/06 21:05:31  5-MIN KDBQ 250305Z AUTO 26010KT 10SM CLR 04/M03 A2989 1110 62 100 260/10 RMK AO2 TSNO
94908KDBQ DBQ20060224211010402/24/06 21:10:31  5-MIN KDBQ 250310Z AUTO 27010KT 10SM CLR 04/M02 A2989 1110 62 100 270/10 RMK AO2 TSNO
94908KDBQ DBQ20060224211510402/24/06 21:15:31  5-MIN KDBQ 250315Z AUTO 28011KT 10SM CLR 05/M02 A2989 1100 59 200 280/11 RMK AO2 TSNO
94908KDBQ DBQ20060224212010402/24/06 21:20:31  5-MIN KDBQ 250320Z AUTO 29011KT 10SM CLR 05/M02 A2989 1100 59 200 280/11 RMK AO2 TSNO
94908KDBQ DBQ20060224212510402/24/06 21:25:31  5-MIN KDBQ 250325Z AUTO 29012KT 10SM CLR 05/M02 A2989 1100 59 200 290/12 RMK AO2 TSNO
94908KDBQ DBQ20060224213010402/24/06 21:30:31  5-MIN KDBQ 250330Z AUTO 30013KT 10SM CLR 05/M02 A2989 1100 62 200 300/13 RMK AO2 TSNO
94908KDBQ DBQ20060224213510402/24/06 21:35:31  5-MIN KDBQ 250335Z AUTO 29013KT 10SM CLR 05/M02 A2990 1100 62 200 290/13 RMK AO2 TSNO
94908KDBQ DBQ20060224214010402/24/06 21:40:31  5-MIN KDBQ 250340Z AUTO 30013KT 10SM CLR 05/M02 A2990 1100 62 200 300/13 RMK AO2 TSNO
94908KDBQ DBQ20060224214511002/24/06 21:45:31  5-MIN KDBQ 250345Z AUTO 30016G20KT 10SM CLR 05/M02 A2990 1100 62 200 300/16G20 RMK AO2 TSNO
94908KDBQ DBQ20060224215012102/24/06 21:50:31  5-MIN KDBQ 250350Z AUTO 30015KT 10SM CLR 05/M01 A2990 1090 64 200 300/15 RMK AO2 SLP137 T00501011 TSNO
94908KDBQ DBQ20060224215512102/24/06 21:55:31  5-MIN KDBQ 250355Z AUTO 31018KT 10SM CLR 06/M01 A2991 1090 62 200 300/18 RMK AO2 SLP138 T00561011 TSNO
94908KDBQ DBQ20060224220010402/24/06 22:00:31  5-MIN KDBQ 250400Z AUTO 31015KT 10SM CLR 05/M01 A2991 1090 64 200 310/15 RMK AO2 TSNO
94908KDBQ DBQ20060224220510402/24/06 22:05:31  5-MIN KDBQ 250405Z AUTO 31016KT 10SM CLR 05/M01 A2991 1080 64 200 310/16 RMK AO2 TSNO
94908KDBQ DBQ20060224221010402/24/06 22:10:31  5-MIN KDBQ 250410Z AUTO 31015KT 10SM CLR 05/M01 A2992 1080 64 200 310/15 RMK AO2 TSNO
94908KDBQ DBQ20060224221510402/24/06 22:15:31  5-MIN KDBQ 250415Z AUTO 31015KT 10SM CLR 05/M01 A2992 1080 64 200 310/15 RMK AO2 TSNO
94908KDBQ DBQ20060224222010402/24/06 22:20:31  5-MIN KDBQ 250420Z AUTO 31013KT 10SM CLR 04/M01 A2992 1080 67 100 310/13 RMK AO2 TSNO
94908KDBQ DBQ20060224222510402/24/06 22:25:31  5-MIN KDBQ 250425Z AUTO 31015KT 10SM CLR 04/M01 A2992 1080 67 100 300/15 RMK AO2 TSNO
94908KDBQ DBQ20060224223010402/24/06 22:30:31  5-MIN KDBQ 250430Z AUTO 31014KT 10SM CLR 04/M01 A2993 1070 67 100 310/14 RMK AO2 TSNO
94908KDBQ DBQ20060224223510402/24/06 22:35:31  5-MIN KDBQ 250435Z AUTO 31013KT 10SM CLR 04/M01 A2993 1070 67 100 310/13 RMK AO2 TSNO
94908KDBQ DBQ20060224224010402/24/06 22:40:31  5-MIN KDBQ 250440Z AUTO 31012KT 10SM CLR 04/M01 A2993 1070 67 100 310/12 RMK AO2 TSNO
94908KDBQ DBQ20060224224510202/24/06 22:45:31  5-MIN KDBQ 250445Z AUTO 32014KT 10SM CLR 04/M01 A2993 1070 70 0 310/14 RMK AO2 TSNO
94908KDBQ DBQ20060224225011902/24/06 22:50:31  5-MIN KDBQ 250450Z AUTO 32013KT 10SM CLR 04/M01 A2993 1070 70 0 320/13 RMK AO2 SLP144 T00391011 TSNO
94908KDBQ DBQ20060224225512702/24/06 22:55:31  5-MIN KDBQ 250455Z AUTO 32016G21KT 10SM CLR 04/M01 A2993 1070 67 100 320/16G21 RMK AO2 SLP144 T00441011 TSNO
94908KDBQ DBQ20060224230010802/24/06 23:00:31  5-MIN KDBQ 250500Z AUTO 32016G21KT 10SM CLR 04/M01 A2993 1070 70 0 320/16G21 RMK AO2 TSNO
94908KDBQ DBQ20060224230510802/24/06 23:05:31  5-MIN KDBQ 250505Z AUTO 32012G21KT 10SM CLR 04/M01 A2993 1070 70 0 320/12G21 RMK AO2 TSNO
94908KDBQ DBQ20060224231010202/24/06 23:10:31  5-MIN KDBQ 250510Z AUTO 31012KT 10SM CLR 04/M01 A2994 1060 70 0 310/12 RMK AO2 TSNO
94908KDBQ DBQ20060224231510802/24/06 23:15:31  5-MIN KDBQ 250515Z AUTO 31015G22KT 10SM CLR 04/M01 A2994 1060 70 0 310/15G22 RMK AO2 TSNO
94908KDBQ DBQ20060224232010802/24/06 23:20:31  5-MIN KDBQ 250520Z AUTO 31017G22KT 10SM CLR 04/M01 A2995 1060 70 0 310/17G22 RMK AO2 TSNO
94908KDBQ DBQ20060224232510802/24/06 23:25:31  5-MIN KDBQ 250525Z AUTO 32019G24KT 10SM CLR 04/M02 A2995 1050 67 0 320/19G24 RMK AO2 TSNO
94908KDBQ DBQ20060224233012602/24/06 23:30:31  5-MIN KDBQ 250530Z AUTO 32022G28KT 10SM CLR 03/M02 A2995 1050 70 0 320/22G28 RMK AO2 PK WND 30028/0527 TSNO
94908KDBQ DBQ20060224233512602/24/06 23:35:31  5-MIN KDBQ 250535Z AUTO 31016G28KT 10SM CLR 03/M02 A2995 1050 70 0 310/16G28 RMK AO2 PK WND 30028/0527 TSNO
94908KDBQ DBQ20060224234012602/24/06 23:40:31  5-MIN KDBQ 250540Z AUTO 32018G23KT 10SM CLR 03/M02 A2996 1040 70 0 320/18G23 RMK AO2 PK WND 30028/0527 TSNO
94908KDBQ DBQ20060224234512302/24/06 23:45:31  5-MIN KDBQ 250545Z AUTO 31015KT 10SM CLR 03/M02 A2996 1040 69 -100 310/15 RMK AO2 PK WND 30028/0527 TSNO
94908KDBQ DBQ20060224235016802/24/06 23:50:31  5-MIN KDBQ 250550Z AUTO 32015KT 10SM CLR 03/M02 A2997 1040 69 -100 320/15 RMK AO2 PK WND 30028/0527 SLP157 T00281022 10056 20028 400611072 53012 TSNO
94908KDBQ DBQ20060224235516802/24/06 23:55:31  5-MIN KDBQ 250555Z AUTO 33018KT 10SM CLR 02/M02 A2997 1030 75 -200 330/18 RMK AO2 PK WND 30028/0527 SLP159 T00221017 10056 20022 400611072 53028 TSNO
94908KDBQ DBQ20060225000012102/25/06 00:00:38  5-MIN KDBQ 250600Z AUTO 33018G24KT 10SM FEW020 02/M02 A2998 1020 75 -200 330/18G24 RMK AO2 PRESRR TSNO
94908KDBQ DBQ20060225000511402/25/06 00:05:31  5-MIN KDBQ 250605Z AUTO 32018G24KT 10SM FEW020 02/M02 A2999 1020 72 -200 320/18G24 RMK AO2 TSNO
94908KDBQ DBQ20060225001012102/25/06 00:10:31  5-MIN KDBQ 250610Z AUTO 33021G25KT 10SM FEW020 02/M03 A2999 1010 72 -300 330/21G25 RMK AO2 PRESRR TSNO
94908KDBQ DBQ20060225001513202/25/06 00:15:32  5-MIN KDBQ 250615Z AUTO 32019G27KT 10SM FEW020 02/M03 A3000 1010 69 -300 320/19G27 RMK AO2 PK WND 31027/0613 TSNO
94908KDBQ DBQ20060225002013902/25/06 00:20:31  5-MIN KDBQ 250620Z AUTO 33021G27KT 10SM FEW020 01/M03 A3000 1000 72 -400 320/21G27 RMK AO2 PK WND 31027/0613 PRESRR TSNO
94908KDBQ DBQ20060225002513202/25/06 00:25:31  5-MIN KDBQ 250625Z AUTO 32021G29KT 10SM FEW023 01/M03 A3001 1000 72 -400 320/21G29 RMK AO2 PK WND 32029/0624 TSNO
94908KDBQ DBQ20060225003013102/25/06 00:30:31  5-MIN KDBQ 250630Z AUTO 32019G29KT 10SM FEW023 01/M03 A3001 990 72 -400 320/19G29 RMK AO2 PK WND 32029/0624 TSNO
94908KDBQ DBQ20060225003512502/25/06 00:35:31  5-MIN KDBQ 250635Z AUTO 32017KT 10SM SCT023 01/M03 A3002 990 72 -400 320/17 RMK AO2 PK WND 32029/0624 TSNO
94908KDBQ DBQ20060225004013102/25/06 00:40:31  5-MIN KDBQ 250640Z AUTO 33015G25KT 10SM BKN025 01/M03 A3002 980 72 -400 330/15G25 RMK AO2 PK WND 32029/0624 TSNO
94908KDBQ DBQ20060225004513102/25/06 00:45:31  5-MIN KDBQ 250645Z AUTO 32014G25KT 10SM BKN025 01/M03 A3003 980 72 -400 320/14G25 RMK AO2 PK WND 32029/0624 TSNO
94908KDBQ DBQ20060225005014202/25/06 00:50:31  5-MIN KDBQ 250650Z AUTO 33016KT 10SM BKN025 01/M03 A3003 980 72 -400 330/16 RMK AO2 PK WND 32029/0624 SLP179 T00111033 TSNO
94908KDBQ DBQ20060225005514802/25/06 00:55:31  5-MIN KDBQ 250655Z AUTO 32019G23KT 10SM BKN025 01/M04 A3003 980 69 -400 320/19G23 RMK AO2 PK WND 32029/0624 SLP180 T00111039 TSNO
94908KDBQ DBQ20060225010011302/25/06 01:00:31  5-MIN KDBQ 250700Z AUTO 33019G23KT 10SM OVC025 01/M03 A3003 970 75 -500 330/19G23 RMK AO2 TSNO
94908KDBQ DBQ20060225010510702/25/06 01:05:31  5-MIN KDBQ 250705Z AUTO 33018KT 10SM OVC025 01/M03 A3004 970 72 -400 330/18 RMK AO2 TSNO
94908KDBQ DBQ20060225011010702/25/06 01:10:31  5-MIN KDBQ 250710Z AUTO 33019KT 10SM OVC025 01/M04 A3004 960 69 -400 330/19 RMK AO2 TSNO
94908KDBQ DBQ20060225011513102/25/06 01:15:31  5-MIN KDBQ 250715Z AUTO 34021G28KT 10SM BKN025 01/M04 A3004 960 69 -500 340/21G28 RMK AO2 PK WND 34028/0714 TSNO
94908KDBQ DBQ20060225012013102/25/06 01:20:31  5-MIN KDBQ 250720Z AUTO 35020G28KT 10SM BKN025 01/M04 A3005 960 69 -500 350/20G28 RMK AO2 PK WND 34028/0714 TSNO
94908KDBQ DBQ20060225012513102/25/06 01:25:31  5-MIN KDBQ 250725Z AUTO 34017G25KT 10SM BKN025 01/M05 A3005 960 66 -500 340/17G25 RMK AO2 PK WND 34028/0714 TSNO
94908KDBQ DBQ20060225013013102/25/06 01:30:31  5-MIN KDBQ 250730Z AUTO 34017G25KT 10SM BKN025 00/M05 A3005 960 69 -500 340/17G25 RMK AO2 PK WND 34028/0714 TSNO
94908KDBQ DBQ20060225013512502/25/06 01:35:31  5-MIN KDBQ 250735Z AUTO 34018KT 10SM SCT025 00/M06 A3005 950 66 -600 340/18 RMK AO2 PK WND 34028/0714 TSNO
94908KDBQ DBQ20060225014012502/25/06 01:40:31  5-MIN KDBQ 250740Z AUTO 34022KT 10SM SCT025 00/M06 A3006 950 63 -600 340/22 RMK AO2 PK WND 34028/0714 TSNO
94908KDBQ DBQ20060225014513202/25/06 01:45:31  5-MIN KDBQ 250745Z AUTO 34021KT 10SM FEW025 SCT110 00/M06 A3006 950 63 -600 330/21 RMK AO2 PK WND 34028/0714 TSNO
94908KDBQ DBQ20060225015015602/25/06 01:50:31  5-MIN KDBQ 250750Z AUTO 34016G24KT 10SM FEW027 SCT110 M01/M06 A3006 950 66 -600 340/16G24 RMK AO2 PK WND 34028/0714 SLP191 T10061061 TSNO
94908KDBQ DBQ20060225015514902/25/06 01:55:31  5-MIN KDBQ 250755Z AUTO 33021G24KT 10SM FEW110 M01/M06 A3007 940 66 -600 330/21G24 RMK AO2 PK WND 34028/0714 SLP192 T10061061 TSNO
94908KDBQ DBQ20060225020010802/25/06 02:00:31  5-MIN KDBQ 250800Z AUTO 34016KT 10SM FEW110 M01/M06 A3007 940 66 -600 340/16 RMK AO2 TSNO
94908KDBQ DBQ20060225020510802/25/06 02:05:31  5-MIN KDBQ 250805Z AUTO 34016KT 10SM FEW110 M01/M06 A3007 940 69 -700 340/16 RMK AO2 TSNO
94908KDBQ DBQ20060225021011402/25/06 02:10:31  5-MIN KDBQ 250810Z AUTO 34017G25KT 10SM FEW110 M01/M06 A3008 930 69 -700 340/17G25 RMK AO2 TSNO
94908KDBQ DBQ20060225021511102/25/06 02:15:31  5-MIN KDBQ 250815Z AUTO 34017G25KT 10SM CLR M01/M07 A3008 930 66 -700 340/17G25 RMK AO2 TSNO
94908KDBQ DBQ20060225022010502/25/06 02:20:31  5-MIN KDBQ 250820Z AUTO 34013KT 10SM CLR M01/M06 A3009 930 69 -700 340/13 RMK AO2 TSNO
94908KDBQ DBQ20060225022510502/25/06 02:25:31  5-MIN KDBQ 250825Z AUTO 34016KT 10SM CLR M02/M07 A3009 920 69 -800 340/16 RMK AO2 TSNO
94908KDBQ DBQ20060225023011102/25/06 02:30:31  5-MIN KDBQ 250830Z AUTO 34014G21KT 10SM CLR M02/M07 A3009 920 69 -800 340/14G21 RMK AO2 TSNO
94908KDBQ DBQ20060225023511102/25/06 02:35:31  5-MIN KDBQ 250835Z AUTO 34018G22KT 10SM CLR M02/M07 A3009 920 69 -800 340/18G22 RMK AO2 TSNO
94908KDBQ DBQ20060225024011102/25/06 02:40:31  5-MIN KDBQ 250840Z AUTO 34018G22KT 10SM CLR M02/M07 A3009 920 69 -800 330/18G22 RMK AO2 TSNO
94908KDBQ DBQ20060225024510502/25/06 02:45:31  5-MIN KDBQ 250845Z AUTO 34018KT 10SM CLR M02/M07 A3010 910 72 -900 340/18 RMK AO2 TSNO
94908KDBQ DBQ20060225025012802/25/06 02:50:31  5-MIN KDBQ 250850Z AUTO 34016KT 10SM CLR M02/M07 A3011 910 72 -900 340/16 RMK AO2 SLP206 T10221067 53028 TSNO
94908KDBQ DBQ20060225025512802/25/06 02:55:31  5-MIN KDBQ 250855Z AUTO 34016KT 10SM CLR M02/M07 A3010 910 69 -900 340/16 RMK AO2 SLP205 T10221072 51043 TSNO
94908KDBQ DBQ20060225030010502/25/06 03:00:31  5-MIN KDBQ 250900Z AUTO 35018KT 10SM CLR M02/M07 A3011 900 69 -900 350/18 RMK AO2 TSNO
94908KDBQ DBQ20060225030512902/25/06 03:05:31  5-MIN KDBQ 250905Z AUTO 34022G26KT 10SM CLR M02/M07 A3012 900 69 -900 340/22G26 RMK AO2 PK WND 34026/0904 TSNO
94908KDBQ DBQ20060225031012902/25/06 03:10:31  5-MIN KDBQ 250910Z AUTO 35023G27KT 10SM CLR M02/M08 A3012 900 66 -900 350/23G27 RMK AO2 PK WND 34027/0909 TSNO
94908KDBQ DBQ20060225031512902/25/06 03:15:31  5-MIN KDBQ 250915Z AUTO 35021G27KT 10SM CLR M02/M08 A3012 890 66 -900 350/21G27 RMK AO2 PK WND 35027/0912 TSNO
94908KDBQ DBQ20060225032013002/25/06 03:20:31  5-MIN KDBQ 250920Z AUTO 35020G27KT 10SM CLR M03/M08 A3013 890 66 -1000 350/20G27 RMK AO2 PK WND 35027/0912 TSNO
94908KDBQ DBQ20060225032513002/25/06 03:25:31  5-MIN KDBQ 250925Z AUTO 34023G27KT 10SM CLR M03/M08 A3013 890 66 -1000 340/23G27 RMK AO2 PK WND 33027/0924 TSNO
94908KDBQ DBQ20060225033013002/25/06 03:30:31  5-MIN KDBQ 250930Z AUTO 34019G29KT 10SM CLR M03/M08 A3013 890 66 -1000 340/19G29 RMK AO2 PK WND 35029/0927 TSNO
94908KDBQ DBQ20060225033513002/25/06 03:35:31  5-MIN KDBQ 250935Z AUTO 35022G29KT 10SM CLR M03/M08 A3013 880 68 -1100 340/22G29 RMK AO2 PK WND 35029/0927 TSNO
94908KDBQ DBQ20060225034013002/25/06 03:40:31  5-MIN KDBQ 250940Z AUTO 35022G29KT 10SM CLR M03/M08 A3014 880 68 -1100 350/22G29 RMK AO2 PK WND 34029/0937 TSNO
94908KDBQ DBQ20060225034513002/25/06 03:45:31  5-MIN KDBQ 250945Z AUTO 35018G29KT 10SM CLR M03/M08 A3014 880 68 -1100 350/18G29 RMK AO2 PK WND 34029/0937 TSNO
94908KDBQ DBQ20060225035014702/25/06 03:50:31  5-MIN KDBQ 250950Z AUTO 35021G26KT 10SM CLR M04/M08 A3015 870 71 -1200 350/21G26 RMK AO2 PK WND 34029/0937 SLP219 T10391083 TSNO
94908KDBQ DBQ20060225035514702/25/06 03:55:31  5-MIN KDBQ 250955Z AUTO 35019G26KT 10SM CLR M04/M09 A3015 870 68 -1200 350/19G26 RMK AO2 PK WND 34029/0937 SLP220 T10391089 TSNO
94908KDBQ DBQ20060225040011202/25/06 04:00:31  5-MIN KDBQ 251000Z AUTO 35022G25KT 10SM CLR M04/M09 A3015 860 68 -1200 350/22G25 RMK AO2 TSNO
94908KDBQ DBQ20060225040513002/25/06 04:05:31  5-MIN KDBQ 251005Z AUTO 35020G27KT 10SM CLR M04/M09 A3016 860 68 -1200 350/20G27 RMK AO2 PK WND 35027/1004 TSNO
94908KDBQ DBQ20060225041013002/25/06 04:10:31  5-MIN KDBQ 251010Z AUTO 35019G27KT 10SM CLR M04/M09 A3016 860 68 -1200 350/19G27 RMK AO2 PK WND 35027/1004 TSNO
94908KDBQ DBQ20060225041513002/25/06 04:15:31  5-MIN KDBQ 251015Z AUTO 35018G26KT 10SM CLR M04/M09 A3016 850 68 -1200 350/18G26 RMK AO2 PK WND 35027/1004 TSNO
94908KDBQ DBQ20060225042012402/25/06 04:20:31  5-MIN KDBQ 251020Z AUTO 36016KT 10SM CLR M04/M09 A3017 850 68 -1200 360/16 RMK AO2 PK WND 35027/1004 TSNO
94908KDBQ DBQ20060225042512402/25/06 04:25:31  5-MIN KDBQ 251025Z AUTO 36015KT 10SM CLR M04/M09 A3018 840 71 -1300 360/15 RMK AO2 PK WND 35027/1004 TSNO
94908KDBQ DBQ20060225043013002/25/06 04:30:31  5-MIN KDBQ 251030Z AUTO 36018G25KT 10SM CLR M04/M09 A3018 840 68 -1200 360/18G25 RMK AO2 PK WND 35027/1004 TSNO
94908KDBQ DBQ20060225043513702/25/06 04:35:31  5-MIN KDBQ 251035Z AUTO 01018G25KT 10SM CLR M04/M09 A3019 830 68 -1200 360/18G25 RMK AO2 PK WND 35027/1004 PRESRR TSNO
94908KDBQ DBQ20060225044013702/25/06 04:40:31  5-MIN KDBQ 251040Z AUTO 36017G24KT 10SM CLR M04/M09 A3020 820 68 -1300 360/17G24 RMK AO2 PK WND 35027/1004 PRESRR TSNO
94908KDBQ DBQ20060225044513702/25/06 04:45:31  5-MIN KDBQ 251045Z AUTO 01020G28KT 10SM CLR M04/M09 A3020 820 68 -1300 360/20G28 RMK AO2 PK WND 01028/1041 PRESRR TSNO
94908KDBQ DBQ20060225045015402/25/06 04:50:31  5-MIN KDBQ 251050Z AUTO 01019G28KT 10SM CLR M04/M10 A3021 810 65 -1300 360/19G28 RMK AO2 PK WND 01028/1041 PRESRR SLP241 T10441100 TSNO
94908KDBQ DBQ20060225045514102/25/06 04:55:31  5-MIN KDBQ 251055Z AUTO 01017KT 10SM CLR M04/M10 A3021 810 65 -1300 010/17 RMK AO2 PK WND 01028/1041 SLP241 T10441100 TSNO
94908KDBQ DBQ20060225050011902/25/06 05:00:31  5-MIN KDBQ 251100Z AUTO 01017G25KT 10SM CLR M04/M10 A3022 800 65 -1300 010/17G25 RMK AO2 PRESRR TSNO
94908KDBQ DBQ20060225050511902/25/06 05:05:31  5-MIN KDBQ 251105Z AUTO 01016G25KT 10SM CLR M05/M11 A3023 800 65 -1400 010/16G25 RMK AO2 PRESRR TSNO
94908KDBQ DBQ20060225051010902/25/06 05:10:31  5-MIN KDBQ 251110Z 01014G23KT 10SM CLR M05/M11 A3023 790 65 -1400 010/14G23 RMK AO2 PRESRR
94908KDBQ DBQ20060225051510202/25/06 05:15:31  5-MIN KDBQ 251115Z 36014G22KT 10SM CLR M05/M11 A3024 790 65 -1400 360/14G22 RMK AO2
94908KDBQ DBQ20060225052010202/25/06 05:20:31  5-MIN KDBQ 251120Z 36018G24KT 10SM CLR M05/M11 A3024 790 65 -1400 360/18G24 RMK AO2
94908KDBQ DBQ20060225052510202/25/06 05:25:31  5-MIN KDBQ 251125Z 01014G24KT 10SM CLR M05/M11 A3024 780 65 -1400 010/14G24 RMK AO2
94908KDBQ DBQ20060225053009602/25/06 05:30:31  5-MIN KDBQ 251130Z 01018KT 10SM CLR M05/M11 A3024 780 65 -1400 010/18 RMK AO2
94908KDBQ DBQ20060225053509602/25/06 05:35:31  5-MIN KDBQ 251135Z 01015KT 10SM CLR M05/M11 A3025 780 65 -1400 010/15 RMK AO2
94908KDBQ DBQ20060225054010202/25/06 05:40:31  5-MIN KDBQ 251140Z 01014G20KT 10SM CLR M05/M11 A3025 770 65 -1400 010/14G20 RMK AO2
94908KDBQ DBQ20060225054510202/25/06 05:45:31  5-MIN KDBQ 251145Z 01015G23KT 10SM CLR M05/M11 A3025 770 65 -1400 010/15G23 RMK AO2
94908KDBQ DBQ20060225055013702/25/06 05:50:31  5-MIN KDBQ 251150Z 01014G23KT 10SM CLR M06/M11 A3026 770 68 -1500 010/14G23 RMK AO2 SLP259 T10561106 10022 21056 51043
94908KDBQ DBQ20060225055513702/25/06 05:55:31  5-MIN KDBQ 251155Z 01013G19KT 10SM CLR M06/M11 A3026 770 68 -1500 010/13G19 RMK AO2 SLP260 T10561106 10022 21056 53051
94908KDBQ DBQ20060225060010202/25/06 06:00:31  5-MIN KDBQ 251200Z 01016G20KT 10SM CLR M06/M11 A3026 760 68 -1500 010/16G20 RMK AO2
94908KDBQ DBQ20060225060509602/25/06 06:05:31  5-MIN KDBQ 251205Z 01015KT 10SM CLR M06/M11 A3027 760 68 -1500 010/15 RMK AO2
94908KDBQ DBQ20060225061009602/25/06 06:10:31  5-MIN KDBQ 251210Z 01015KT 10SM CLR M06/M11 A3027 760 68 -1500 010/15 RMK AO2
94908KDBQ DBQ20060225061509602/25/06 06:15:31  5-MIN KDBQ 251215Z 01017KT 10SM CLR M06/M11 A3028 750 65 -1500 010/17 RMK AO2
94908KDBQ DBQ20060225062010302/25/06 06:20:31  5-MIN KDBQ 251220Z 01014KT 10SM CLR M06/M11 A3028 740 68 -1500 010/14 RMK AO2 PRESRR
94908KDBQ DBQ20060225062510202/25/06 06:25:31  5-MIN KDBQ 251225Z 36015G19KT 10SM CLR M06/M11 A3029 740 68 -1500 360/15G19 RMK AO2
94908KDBQ DBQ20060225063009602/25/06 06:30:31  5-MIN KDBQ 251230Z 36013KT 10SM CLR M06/M11 A3029 740 71 -1600 360/13 RMK AO2
94908KDBQ DBQ20060225063509602/25/06 06:35:31  5-MIN KDBQ 251235Z 36015KT 10SM CLR M06/M11 A3029 730 71 -1600 360/15 RMK AO2
94908KDBQ DBQ20060225064009602/25/06 06:40:31  5-MIN KDBQ 251240Z 36015KT 10SM CLR M06/M11 A3030 730 71 -1600 360/15 RMK AO2
94908KDBQ DBQ20060225064509602/25/06 06:45:31  5-MIN KDBQ 251245Z 01014KT 10SM CLR M06/M11 A3030 730 68 -1500 010/14 RMK AO2
94908KDBQ DBQ20060225065011302/25/06 06:50:31  5-MIN KDBQ 251250Z 36013KT 10SM CLR M06/M11 A3030 730 71 -1600 360/13 RMK AO2 SLP274 T10611106
94908KDBQ DBQ20060225065511302/25/06 06:55:31  5-MIN KDBQ 251255Z 01013KT 10SM CLR M06/M11 A3031 720 71 -1600 010/13 RMK AO2 SLP277 T10611106
94908KDBQ DBQ20060225070009602/25/06 07:00:31  5-MIN KDBQ 251300Z 01012KT 10SM CLR M06/M11 A3031 720 71 -1600 010/12 RMK AO2
94908KDBQ DBQ20060225070509602/25/06 07:05:31  5-MIN KDBQ 251305Z 01013KT 10SM CLR M06/M11 A3032 710 71 -1600 010/13 RMK AO2
94908KDBQ DBQ20060225071009602/25/06 07:10:31  5-MIN KDBQ 251310Z 36014KT 10SM CLR M06/M11 A3032 710 71 -1600 360/14 RMK AO2
94908KDBQ DBQ20060225071510202/25/06 07:15:31  5-MIN KDBQ 251315Z 01014G18KT 10SM CLR M06/M11 A3032 710 71 -1600 010/14G18 RMK AO2
94908KDBQ DBQ20060225072010202/25/06 07:20:31  5-MIN KDBQ 251320Z 01010G18KT 10SM CLR M06/M11 A3033 710 71 -1600 010/10G18 RMK AO2
94908KDBQ DBQ20060225072509602/25/06 07:25:31  5-MIN KDBQ 251325Z 36011KT 10SM CLR M06/M11 A3033 700 71 -1600 360/11 RMK AO2
94908KDBQ DBQ20060225073009602/25/06 07:30:31  5-MIN KDBQ 251330Z 36010KT 10SM CLR M06/M11 A3033 700 68 -1600 360/10 RMK AO2
94908KDBQ DBQ20060225073509602/25/06 07:35:31  5-MIN KDBQ 251335Z 36010KT 10SM CLR M06/M11 A3034 690 71 -1700 360/10 RMK AO2
94908KDBQ DBQ20060225074009602/25/06 07:40:31  5-MIN KDBQ 251340Z 36012KT 10SM CLR M06/M11 A3034 690 68 -1600 360/12 RMK AO2
94908KDBQ DBQ20060225074509602/25/06 07:45:31  5-MIN KDBQ 251345Z 36011KT 10SM CLR M06/M11 A3034 690 68 -1600 360/11 RMK AO2
94908KDBQ DBQ20060225075011302/25/06 07:50:31  5-MIN KDBQ 251350Z 36012KT 10SM CLR M06/M11 A3035 690 68 -1600 360/12 RMK AO2 SLP290 T10561106
94908KDBQ DBQ20060225075511302/25/06 07:55:31  5-MIN KDBQ 251355Z 36012KT 10SM CLR M06/M11 A3035 680 68 -1600 360/12 RMK AO2 SLP292 T10561106
94908KDBQ DBQ20060225080009602/25/06 08:00:31  5-MIN KDBQ 251400Z 36011KT 10SM CLR M06/M10 A3036 680 71 -1600 360/11 RMK AO2
94908KDBQ DBQ20060225080510202/25/06 08:05:31  5-MIN KDBQ 251405Z 36013G20KT 10SM CLR M06/M10 A3036 670 71 -1600 360/13G20 RMK AO2
94908KDBQ DBQ20060225081010202/25/06 08:10:31  5-MIN KDBQ 251410Z 36014G20KT 10SM CLR M06/M10 A3036 670 71 -1600 360/14G20 RMK AO2
94908KDBQ DBQ20060225081510202/25/06 08:15:31  5-MIN KDBQ 251415Z 36011G21KT 10SM CLR M06/M11 A3036 670 68 -1600 360/11G21 RMK AO2
94908KDBQ DBQ20060225082010202/25/06 08:20:31  5-MIN KDBQ 251420Z 36011G21KT 10SM CLR M05/M10 A3037 670 68 -1500 360/11G21 RMK AO2
94908KDBQ DBQ20060225082509602/25/06 08:25:31  5-MIN KDBQ 251425Z 36012KT 10SM CLR M05/M10 A3037 660 68 -1600 360/12 RMK AO2
94908KDBQ DBQ20060225083009602/25/06 08:30:31  5-MIN KDBQ 251430Z 36014KT 10SM CLR M05/M10 A3037 660 68 -1600 360/14 RMK AO2
94908KDBQ DBQ20060225083509602/25/06 08:35:31  5-MIN KDBQ 251435Z 36015KT 10SM CLR M05/M10 A3038 660 68 -1600 360/15 RMK AO2
94908KDBQ DBQ20060225084009602/25/06 08:40:31  5-MIN KDBQ 251440Z 01014KT 10SM CLR M05/M10 A3037 660 68 -1600 010/14 RMK AO2
94908KDBQ DBQ20060225084509602/25/06 08:45:31  5-MIN KDBQ 251445Z 01011KT 10SM CLR M05/M10 A3038 660 68 -1600 360/11 RMK AO2
94908KDBQ DBQ20060225085012502/25/06 08:50:31  5-MIN KDBQ 251450Z 01015G19KT 10SM CLR M05/M10 A3038 660 68 -1600 010/15G19 RMK AO2 SLP301 T10501100 53051
94908KDBQ DBQ20060225085512502/25/06 08:55:31  5-MIN KDBQ 251455Z 01014G19KT 10SM CLR M05/M10 A3038 660 68 -1600 010/14G19 RMK AO2 SLP301 T10501100 51039
94908KDBQ DBQ20060225090010202/25/06 09:00:31  5-MIN KDBQ 251500Z 01012G19KT 10SM CLR M05/M10 A3038 650 68 -1600 010/12G19 RMK AO2
94908KDBQ DBQ20060225090510202/25/06 09:05:31  5-MIN KDBQ 251505Z 02014G19KT 10SM CLR M04/M10 A3039 650 65 -1500 020/14G19 RMK AO2
94908KDBQ DBQ20060225091010202/25/06 09:10:31  5-MIN KDBQ 251510Z 36012G18KT 10SM CLR M04/M09 A3039 650 68 -1500 360/12G18 RMK AO2
94908KDBQ DBQ20060225091509602/25/06 09:15:31  5-MIN KDBQ 251515Z 36011KT 10SM CLR M04/M09 A3039 640 68 -1500 350/11 RMK AO2
94908KDBQ DBQ20060225092009602/25/06 09:20:31  5-MIN KDBQ 251520Z 35011KT 10SM CLR M04/M09 A3040 640 68 -1500 350/11 RMK AO2
94908KDBQ DBQ20060225092509602/25/06 09:25:31  5-MIN KDBQ 251525Z 35009KT 10SM CLR M04/M09 A3040 640 65 -1400 350/09 RMK AO2
94908KDBQ DBQ20060225093009602/25/06 09:30:31  5-MIN KDBQ 251530Z 36011KT 10SM CLR M04/M10 A3040 640 63 -1400 360/11 RMK AO2
94908KDBQ DBQ20060225093509602/25/06 09:35:31  5-MIN KDBQ 251535Z 02012KT 10SM CLR M04/M10 A3040 640 63 -1400 010/12 RMK AO2
94908KDBQ DBQ20060225094009602/25/06 09:40:31  5-MIN KDBQ 251540Z 35010KT 10SM CLR M04/M09 A3040 640 65 -1400 350/10 RMK AO2
94908KDBQ DBQ20060225094509602/25/06 09:45:31  5-MIN KDBQ 251545Z 36011KT 10SM CLR M04/M09 A3040 640 65 -1400 360/11 RMK AO2
94908KDBQ DBQ20060225095011302/25/06 09:50:31  5-MIN KDBQ 251550Z 35013KT 10SM CLR M03/M09 A3040 640 63 -1400 350/13 RMK AO2 SLP306 T10331094
94908KDBQ DBQ20060225095511302/25/06 09:55:31  5-MIN KDBQ 251555Z 35012KT 10SM CLR M04/M09 A3040 640 65 -1400 350/12 RMK AO2 SLP306 T10391094
94908KDBQ DBQ20060225100009602/25/06 10:00:31  5-MIN KDBQ 251600Z 36009KT 10SM CLR M03/M10 A3040 640 60 -1400 360/09 RMK AO2
94908KDBQ DBQ20060225100509602/25/06 10:05:31  5-MIN KDBQ 251605Z 36011KT 10SM CLR M03/M10 A3040 640 60 -1400 360/11 RMK AO2
94908KDBQ DBQ20060225101009602/25/06 10:10:31  5-MIN KDBQ 251610Z 36010KT 10SM CLR M03/M10 A3041 630 58 -1300 360/10 RMK AO2
94908KDBQ DBQ20060225101510202/25/06 10:15:31  5-MIN KDBQ 251615Z 01012G18KT 10SM CLR M03/M10 A3041 630 58 -1300 010/12G18 RMK AO2
94908KDBQ DBQ20060225102010202/25/06 10:20:31  5-MIN KDBQ 251620Z 36010G18KT 10SM CLR M03/M11 A3041 630 55 -1300 360/10G18 RMK AO2
94908KDBQ DBQ20060225102509602/25/06 10:25:31  5-MIN KDBQ 251625Z 35011KT 10SM CLR M03/M10 A3042 620 58 -1300 350/11 RMK AO2
94908KDBQ DBQ20060225103009602/25/06 10:30:31  5-MIN KDBQ 251630Z 01011KT 10SM CLR M03/M10 A3042 620 58 -1300 010/11 RMK AO2
94908KDBQ DBQ20060225103510202/25/06 10:35:31  5-MIN KDBQ 251635Z 01012G19KT 10SM CLR M03/M11 A3042 620 53 -1300 010/12G19 RMK AO2
94908KDBQ DBQ20060225104010202/25/06 10:40:31  5-MIN KDBQ 251640Z 36009G19KT 10SM CLR M03/M11 A3043 610 55 -1300 360/09G19 RMK AO2
94908KDBQ DBQ20060225104510202/25/06 10:45:31  5-MIN KDBQ 251645Z 35011G16KT 10SM CLR M02/M11 A3043 610 53 -1300 350/11G16 RMK AO2
94908KDBQ DBQ20060225105011902/25/06 10:50:31  5-MIN KDBQ 251650Z 35013G16KT 10SM CLR M03/M11 A3043 610 55 -1300 350/13G16 RMK AO2 SLP318 T10281106
94908KDBQ DBQ20060225105511902/25/06 10:55:31  5-MIN KDBQ 251655Z 01011G17KT 10SM CLR M03/M11 A3044 610 53 -1300 010/11G17 RMK AO2 SLP318 T10281111
94908KDBQ DBQ20060225110010202/25/06 11:00:31  5-MIN KDBQ 251700Z 02010G17KT 10SM CLR M03/M11 A3044 600 53 -1300 020/10G17 RMK AO2
94908KDBQ DBQ20060225110511202/25/06 11:05:31  5-MIN KDBQ 251705Z 01010KT 340V040 10SM CLR M02/M12 A3044 600 48 -1300 010/10 340V040 RMK AO2
94908KDBQ DBQ20060225111009602/25/06 11:10:31  5-MIN KDBQ 251710Z 35012KT 10SM CLR M02/M11 A3044 600 53 -1300 350/12 RMK AO2
94908KDBQ DBQ20060225111509602/25/06 11:15:31  5-MIN KDBQ 251715Z 36010KT 10SM CLR M02/M11 A3045 600 51 -1300 350/10 RMK AO2
94908KDBQ DBQ20060225112009602/25/06 11:20:31  5-MIN KDBQ 251720Z 36011KT 10SM CLR M02/M11 A3045 590 51 -1300 360/11 RMK AO2
94908KDBQ DBQ20060225112509602/25/06 11:25:31  5-MIN KDBQ 251725Z 35013KT 10SM CLR M02/M11 A3045 590 51 -1300 350/13 RMK AO2
94908KDBQ DBQ20060225113009602/25/06 11:30:31  5-MIN KDBQ 251730Z 01011KT 10SM CLR M02/M11 A3045 590 51 -1300 010/11 RMK AO2
94908KDBQ DBQ20060225113509602/25/06 11:35:31  5-MIN KDBQ 251735Z 36012KT 10SM CLR M02/M11 A3045 590 51 -1300 360/12 RMK AO2
94908KDBQ DBQ20060225114009602/25/06 11:40:31  5-MIN KDBQ 251740Z 34010KT 10SM CLR M02/M12 A3045 590 48 -1300 340/10 RMK AO2
94908KDBQ DBQ20060225114509602/25/06 11:45:31  5-MIN KDBQ 251745Z 36011KT 10SM CLR M02/M11 A3045 590 49 -1200 360/11 RMK AO2
94908KDBQ DBQ20060225115013102/25/06 11:50:31  5-MIN KDBQ 251750Z 36009KT 10SM CLR M02/M11 A3045 590 49 -1200 360/09 RMK AO2 SLP326 T10171111 11017 21061 51039
94908KDBQ DBQ20060225115513102/25/06 11:55:31  5-MIN KDBQ 251755Z 35013KT 10SM CLR M02/M12 A3046 590 46 -1200 350/13 RMK AO2 SLP326 T10171117 11017 21061 51025
94908KDBQ DBQ20060225120009602/25/06 12:00:31  5-MIN KDBQ 251800Z 36013KT 10SM CLR M02/M12 A3046 580 44 -1200 360/13 RMK AO2
94908KDBQ DBQ20060225120509602/25/06 12:05:31  5-MIN KDBQ 251805Z 36012KT 10SM CLR M02/M13 A3046 580 42 -1200 350/12 RMK AO2
94908KDBQ DBQ20060225121009602/25/06 12:10:31  5-MIN KDBQ 251810Z 34012KT 10SM CLR M02/M13 A3047 580 42 -1200 340/12 RMK AO2
94908KDBQ DBQ20060225121509602/25/06 12:15:31  5-MIN KDBQ 251815Z 35011KT 10SM CLR M02/M12 A3047 580 46 -1200 340/11 RMK AO2
94908KDBQ DBQ20060225122009602/25/06 12:20:31  5-MIN KDBQ 251820Z 35009KT 10SM CLR M02/M11 A3047 570 49 -1200 350/09 RMK AO2
94908KDBQ DBQ20060225122509602/25/06 12:25:31  5-MIN KDBQ 251825Z 33013KT 10SM CLR M02/M11 A3047 570 49 -1200 330/13 RMK AO2
94908KDBQ DBQ20060225123009602/25/06 12:30:31  5-MIN KDBQ 251830Z 32012KT 10SM CLR M02/M11 A3047 570 49 -1200 320/12 RMK AO2
94908KDBQ DBQ20060225123509602/25/06 12:35:31  5-MIN KDBQ 251835Z 33013KT 10SM CLR M02/M11 A3047 570 49 -1200 320/13 RMK AO2
94908KDBQ DBQ20060225124009602/25/06 12:40:31  5-MIN KDBQ 251840Z 35011KT 10SM CLR M02/M12 A3047 570 46 -1200 350/11 RMK AO2
94908KDBQ DBQ20060225124509602/25/06 12:45:31  5-MIN KDBQ 251845Z 32013KT 10SM CLR M02/M12 A3047 570 44 -1200 320/13 RMK AO2
94908KDBQ DBQ20060225125011302/25/06 12:50:31  5-MIN KDBQ 251850Z 33012KT 10SM CLR M02/M13 A3047 570 42 -1200 330/12 RMK AO2 SLP332 T10171128
94908KDBQ DBQ20060225125511302/25/06 12:55:31  5-MIN KDBQ 251855Z 35015KT 10SM CLR M02/M12 A3047 570 44 -1200 350/15 RMK AO2 SLP331 T10171122
94908KDBQ DBQ20060225130009602/25/06 13:00:31  5-MIN KDBQ 251900Z 36012KT 10SM CLR M02/M14 A3047 570 39 -1200 360/12 RMK AO2
94908KDBQ DBQ20060225130509602/25/06 13:05:31  5-MIN KDBQ 251905Z 34013KT 10SM CLR M02/M13 A3047 570 41 -1200 340/13 RMK AO2
94908KDBQ DBQ20060225131009602/25/06 13:10:31  5-MIN KDBQ 251910Z 34014KT 10SM CLR M02/M12 A3047 570 44 -1200 340/14 RMK AO2
94908KDBQ DBQ20060225131509602/25/06 13:15:31  5-MIN KDBQ 251915Z 33015KT 10SM CLR M02/M13 A3048 570 42 -1200 330/15 RMK AO2
94908KDBQ DBQ20060225132009602/25/06 13:20:31  5-MIN KDBQ 251920Z 32014KT 10SM CLR M02/M14 A3048 570 39 -1200 320/14 RMK AO2
94908KDBQ DBQ20060225132509602/25/06 13:25:31  5-MIN KDBQ 251925Z 34014KT 10SM CLR M02/M13 A3048 570 41 -1200 340/14 RMK AO2
94908KDBQ DBQ20060225133009602/25/06 13:30:31  5-MIN KDBQ 251930Z 33013KT 10SM CLR M02/M13 A3048 560 41 -1300 330/13 RMK AO2
94908KDBQ DBQ20060225133509602/25/06 13:35:31  5-MIN KDBQ 251935Z 35013KT 10SM CLR M01/M14 A3048 560 37 -1200 350/13 RMK AO2
94908KDBQ DBQ20060225134009602/25/06 13:40:31  5-MIN KDBQ 251940Z 34014KT 10SM CLR M01/M14 A3048 560 36 -1200 340/14 RMK AO2
94908KDBQ DBQ20060225134509602/25/06 13:45:31  5-MIN KDBQ 251945Z 34013KT 10SM CLR M01/M14 A3048 560 37 -1200 340/13 RMK AO2
94908KDBQ DBQ20060225135011302/25/06 13:50:31  5-MIN KDBQ 251950Z 34012KT 10SM CLR M01/M14 A3048 560 36 -1200 340/12 RMK AO2 SLP336 T10111144
94908KDBQ DBQ20060225135511302/25/06 13:55:31  5-MIN KDBQ 251955Z 34011KT 10SM CLR M01/M14 A3048 560 37 -1200 340/11 RMK AO2 SLP336 T10111139
94908KDBQ DBQ20060225140009602/25/06 14:00:31  5-MIN KDBQ 252000Z 34014KT 10SM CLR M01/M14 A3048 560 37 -1200 340/14 RMK AO2
94908KDBQ DBQ20060225140509602/25/06 14:05:31  5-MIN KDBQ 252005Z 32008KT 10SM CLR M02/M15 A3049 560 35 -1300 320/08 RMK AO2
94908KDBQ DBQ20060225141010202/25/06 14:10:31  5-MIN KDBQ 252010Z 33013G16KT 10SM CLR M01/M14 A3048 560 36 -1200 330/13G16 RMK AO2
94908KDBQ DBQ20060225141509602/25/06 14:15:31  5-MIN KDBQ 252015Z 33013KT 10SM CLR M02/M15 A3048 560 35 -1300 330/13 RMK AO2
94908KDBQ DBQ20060225142009602/25/06 14:20:31  5-MIN KDBQ 252020Z 32015KT 10SM CLR M01/M14 A3048 560 36 -1200 320/15 RMK AO2
94908KDBQ DBQ20060225142509602/25/06 14:25:31  5-MIN KDBQ 252025Z 33013KT 10SM CLR M02/M15 A3049 560 35 -1300 330/13 RMK AO2
94908KDBQ DBQ20060225143009602/25/06 14:30:31  5-MIN KDBQ 252030Z 34014KT 10SM CLR M02/M16 A3049 560 32 -1300 340/14 RMK AO2
94908KDBQ DBQ20060225143509602/25/06 14:35:31  5-MIN KDBQ 252035Z 35013KT 10SM CLR M02/M17 A3049 560 31 -1300 350/13 RMK AO2
94908KDBQ DBQ20060225144009602/25/06 14:40:31  5-MIN KDBQ 252040Z 36013KT 10SM CLR M02/M16 A3049 560 32 -1300 360/13 RMK AO2
94908KDBQ DBQ20060225144509602/25/06 14:45:31  5-MIN KDBQ 252045Z 36012KT 10SM CLR M02/M17 A3049 560 31 -1300 360/12 RMK AO2
94908KDBQ DBQ20060225145011902/25/06 14:50:31  5-MIN KDBQ 252050Z 35012KT 10SM CLR M01/M16 A3049 560 33 -1200 350/12 RMK AO2 SLP339 T10111156 51025
94908KDBQ DBQ20060225145511902/25/06 14:55:31  5-MIN KDBQ 252055Z 36014KT 10SM CLR M02/M16 A3049 560 34 -1300 360/14 RMK AO2 SLP339 T10171156 51011
94908KDBQ DBQ20060225150009602/25/06 15:00:31  5-MIN KDBQ 252100Z 34010KT 10SM CLR M01/M14 A3049 560 36 -1200 340/10 RMK AO2
94908KDBQ DBQ20060225150509602/25/06 15:05:31  5-MIN KDBQ 252105Z 35011KT 10SM CLR M01/M14 A3049 560 36 -1200 340/11 RMK AO2
94908KDBQ DBQ20060225151009602/25/06 15:10:31  5-MIN KDBQ 252110Z 36011KT 10SM CLR M02/M16 A3049 550 34 -1300 360/11 RMK AO2
94908KDBQ DBQ20060225151509602/25/06 15:15:31  5-MIN KDBQ 252115Z 33012KT 10SM CLR M02/M15 A3050 550 35 -1300 330/12 RMK AO2
94908KDBQ DBQ20060225152009602/25/06 15:20:31  5-MIN KDBQ 252120Z 35009KT 10SM CLR M02/M14 A3050 550 37 -1300 340/09 RMK AO2
94908KDBQ DBQ20060225152509602/25/06 15:25:31  5-MIN KDBQ 252125Z 36010KT 10SM CLR M02/M15 A3050 550 35 -1300 350/10 RMK AO2
94908KDBQ DBQ20060225153009602/25/06 15:30:31  5-MIN KDBQ 252130Z 01012KT 10SM CLR M02/M16 A3050 550 32 -1300 360/12 RMK AO2
94908KDBQ DBQ20060225153509602/25/06 15:35:31  5-MIN KDBQ 252135Z 35009KT 10SM CLR M02/M16 A3050 550 34 -1300 350/09 RMK AO2
94908KDBQ DBQ20060225154009602/25/06 15:40:31  5-MIN KDBQ 252140Z 33009KT 10SM CLR M02/M16 A3050 550 34 -1300 330/09 RMK AO2
94908KDBQ DBQ20060225154509602/25/06 15:45:31  5-MIN KDBQ 252145Z 35009KT 10SM CLR M02/M15 A3050 550 35 -1300 350/09 RMK AO2
94908KDBQ DBQ20060225155011302/25/06 15:50:31  5-MIN KDBQ 252150Z 01008KT 10SM CLR M02/M15 A3050 550 35 -1300 360/08 RMK AO2 SLP345 T10171150
94908KDBQ DBQ20060225155511302/25/06 15:55:31  5-MIN KDBQ 252155Z 36009KT 10SM CLR M02/M15 A3050 540 35 -1300 360/09 RMK AO2 SLP345 T10171150
94908KDBQ DBQ20060225160009602/25/06 16:00:31  5-MIN KDBQ 252200Z 36009KT 10SM CLR M02/M15 A3050 550 35 -1300 350/09 RMK AO2
94908KDBQ DBQ20060225160509602/25/06 16:05:31  5-MIN KDBQ 252205Z 01009KT 10SM CLR M02/M15 A3050 540 35 -1300 360/09 RMK AO2
94908KDBQ DBQ20060225161009602/25/06 16:10:31  5-MIN KDBQ 252210Z 35006KT 10SM CLR M02/M15 A3050 550 35 -1300 350/06 RMK AO2
94908KDBQ DBQ20060225161509602/25/06 16:15:31  5-MIN KDBQ 252215Z 36006KT 10SM CLR M02/M15 A3050 550 35 -1300 360/06 RMK AO2
94908KDBQ DBQ20060225162009602/25/06 16:20:31  5-MIN KDBQ 252220Z 36007KT 10SM CLR M02/M14 A3050 550 37 -1300 360/07 RMK AO2
94908KDBQ DBQ20060225162509602/25/06 16:25:31  5-MIN KDBQ 252225Z 36010KT 10SM CLR M02/M14 A3050 550 37 -1300 360/10 RMK AO2
94908KDBQ DBQ20060225163009602/25/06 16:30:31  5-MIN KDBQ 252230Z 36008KT 10SM CLR M02/M14 A3050 550 37 -1300 360/08 RMK AO2
94908KDBQ DBQ20060225163509602/25/06 16:35:31  5-MIN KDBQ 252235Z 35008KT 10SM CLR M02/M15 A3050 550 37 -1300 350/08 RMK AO2
94908KDBQ DBQ20060225164009602/25/06 16:40:31  5-MIN KDBQ 252240Z 35008KT 10SM CLR M02/M14 A3050 550 40 -1300 350/08 RMK AO2
94908KDBQ DBQ20060225164509602/25/06 16:45:31  5-MIN KDBQ 252245Z 36008KT 10SM CLR M02/M14 A3050 540 39 -1300 360/08 RMK AO2
94908KDBQ DBQ20060225165011302/25/06 16:50:31  5-MIN KDBQ 252250Z 36009KT 10SM CLR M02/M14 A3050 540 40 -1300 360/09 RMK AO2 SLP345 T10221139
94908KDBQ DBQ20060225165511302/25/06 16:55:31  5-MIN KDBQ 252255Z 36008KT 10SM CLR M02/M14 A3050 540 39 -1300 360/08 RMK AO2 SLP345 T10221144
94908KDBQ DBQ20060225170009602/25/06 17:00:31  5-MIN KDBQ 252300Z 36010KT 10SM CLR M02/M14 A3050 540 40 -1300 360/10 RMK AO2
94908KDBQ DBQ20060225170509602/25/06 17:05:31  5-MIN KDBQ 252305Z 35010KT 10SM CLR M02/M14 A3050 540 39 -1400 350/10 RMK AO2
94908KDBQ DBQ20060225171009602/25/06 17:10:31  5-MIN KDBQ 252310Z 35010KT 10SM CLR M03/M14 A3050 540 40 -1400 350/10 RMK AO2
94908KDBQ DBQ20060225171509602/25/06 17:15:31  5-MIN KDBQ 252315Z 34010KT 10SM CLR M03/M14 A3051 540 42 -1400 340/10 RMK AO2
94908KDBQ DBQ20060225172009602/25/06 17:20:31  5-MIN KDBQ 252320Z 35008KT 10SM CLR M03/M14 A3051 540 40 -1400 340/08 RMK AO2
94908KDBQ DBQ20060225172509602/25/06 17:25:31  5-MIN KDBQ 252325Z 35007KT 10SM CLR M03/M14 A3050 540 44 -1500 350/07 RMK AO2
94908KDBQ DBQ20060225173009602/25/06 17:30:31  5-MIN KDBQ 252330Z 35006KT 10SM CLR M03/M14 A3051 540 44 -1500 350/06 RMK AO2
94908KDBQ DBQ20060225173509602/25/06 17:35:31  5-MIN KDBQ 252335Z 34009KT 10SM CLR M03/M14 A3051 540 42 -1500 340/09 RMK AO2
94908KDBQ DBQ20060225174009602/25/06 17:40:31  5-MIN KDBQ 252340Z 35008KT 10SM CLR M03/M14 A3051 540 42 -1500 350/08 RMK AO2
94908KDBQ DBQ20060225174509602/25/06 17:45:31  5-MIN KDBQ 252345Z 35007KT 10SM CLR M04/M14 A3051 540 46 -1600 350/07 RMK AO2
94908KDBQ DBQ20060225175013102/25/06 17:50:31  5-MIN KDBQ 252350Z 36007KT 10SM CLR M05/M13 A3051 540 52 -1700 360/07 RMK AO2 SLP350 T10501133 11011 21050 51011
94908KDBQ DBQ20060225175513102/25/06 17:55:31  5-MIN KDBQ 252355Z 35006KT 10SM CLR M05/M14 A3051 540 50 -1700 350/06 RMK AO2 SLP350 T10501139 11011 21050 51007
94908KDBQ DBQ20060225180009602/25/06 18:00:31  5-MIN KDBQ 260000Z 35007KT 10SM CLR M05/M14 A3051 540 50 -1700 350/07 RMK AO2
94908KDBQ DBQ20060225180509602/25/06 18:05:31  5-MIN KDBQ 260005Z 35007KT 10SM CLR M05/M14 A3051 540 48 -1700 350/07 RMK AO2
94908KDBQ DBQ20060225181009602/25/06 18:10:31  5-MIN KDBQ 260010Z 35007KT 10SM CLR M05/M14 A3051 530 48 -1700 350/07 RMK AO2
94908KDBQ DBQ20060225181509602/25/06 18:15:31  5-MIN KDBQ 260015Z 35008KT 10SM CLR M05/M14 A3051 530 48 -1700 350/08 RMK AO2
94908KDBQ DBQ20060225182009602/25/06 18:20:31  5-MIN KDBQ 260020Z 35008KT 10SM CLR M05/M14 A3051 530 48 -1700 350/08 RMK AO2
94908KDBQ DBQ20060225182509602/25/06 18:25:31  5-MIN KDBQ 260025Z 35008KT 10SM CLR M05/M14 A3051 530 48 -1700 350/08 RMK AO2
94908KDBQ DBQ20060225183009602/25/06 18:30:31  5-MIN KDBQ 260030Z 35007KT 10SM CLR M06/M15 A3051 530 48 -1800 350/07 RMK AO2
94908KDBQ DBQ20060225183509602/25/06 18:35:31  5-MIN KDBQ 260035Z 36006KT 10SM CLR M06/M15 A3052 530 48 -1800 360/06 RMK AO2
94908KDBQ DBQ20060225184009602/25/06 18:40:31  5-MIN KDBQ 260040Z 36007KT 10SM CLR M06/M15 A3052 530 50 -1900 360/07 RMK AO2
94908KDBQ DBQ20060225184509602/25/06 18:45:31  5-MIN KDBQ 260045Z 36007KT 10SM CLR M06/M15 A3052 530 48 -1800 360/07 RMK AO2
94908KDBQ DBQ20060225185012302/25/06 18:50:31  5-MIN KDBQ 260050Z AUTO 36007KT 10SM CLR M06/M15 A3052 530 50 -1900 360/07 RMK AO2 SLP355 T10611150 TSNO
94908KDBQ DBQ20060225185512302/25/06 18:55:31  5-MIN KDBQ 260055Z AUTO 01007KT 10SM CLR M06/M16 A3052 530 45 -1800 010/07 RMK AO2 SLP355 T10561156 TSNO
94908KDBQ DBQ20060225190010602/25/06 19:00:31  5-MIN KDBQ 260100Z AUTO 01007KT 10SM CLR M05/M16 A3052 530 42 -1700 360/07 RMK AO2 TSNO
94908KDBQ DBQ20060225190510602/25/06 19:05:31  5-MIN KDBQ 260105Z AUTO 01007KT 10SM CLR M06/M16 A3052 530 45 -1800 010/07 RMK AO2 TSNO
94908KDBQ DBQ20060225191010602/25/06 19:10:31  5-MIN KDBQ 260110Z AUTO 36007KT 10SM CLR M06/M16 A3052 530 43 -1800 360/07 RMK AO2 TSNO
94908KDBQ DBQ20060225191510602/25/06 19:15:31  5-MIN KDBQ 260115Z AUTO 36007KT 10SM CLR M06/M16 A3052 530 43 -1800 360/07 RMK AO2 TSNO
94908KDBQ DBQ20060225192010602/25/06 19:20:31  5-MIN KDBQ 260120Z AUTO 36008KT 10SM CLR M06/M16 A3052 530 45 -1900 360/08 RMK AO2 TSNO
94908KDBQ DBQ20060225192510602/25/06 19:25:31  5-MIN KDBQ 260125Z AUTO 01008KT 10SM CLR M06/M16 A3052 530 45 -1900 360/08 RMK AO2 TSNO
94908KDBQ DBQ20060225193010602/25/06 19:30:31  5-MIN KDBQ 260130Z AUTO 36008KT 10SM CLR M06/M16 A3052 530 45 -1900 360/08 RMK AO2 TSNO
94908KDBQ DBQ20060225193510602/25/06 19:35:31  5-MIN KDBQ 260135Z AUTO 01007KT 10SM CLR M06/M16 A3052 530 45 -1900 010/07 RMK AO2 TSNO
94908KDBQ DBQ20060225194010602/25/06 19:40:31  5-MIN KDBQ 260140Z AUTO 01007KT 10SM CLR M06/M16 A3052 530 45 -1900 010/07 RMK AO2 TSNO
94908KDBQ DBQ20060225194510602/25/06 19:45:31  5-MIN KDBQ 260145Z AUTO 36006KT 10SM CLR M06/M16 A3052 530 45 -1900 360/06 RMK AO2 TSNO
94908KDBQ DBQ20060225195012302/25/06 19:50:31  5-MIN KDBQ 260150Z AUTO 01006KT 10SM CLR M06/M17 A3052 530 43 -1900 010/06 RMK AO2 SLP355 T10611167 TSNO
94908KDBQ DBQ20060225195512302/25/06 19:55:31  5-MIN KDBQ 260155Z AUTO 01006KT 10SM CLR M06/M17 A3052 530 41 -1800 010/06 RMK AO2 SLP354 T10561167 TSNO
94908KDBQ DBQ20060225200010602/25/06 20:00:31  5-MIN KDBQ 260200Z AUTO 01008KT 10SM CLR M06/M17 A3052 530 41 -1800 010/08 RMK AO2 TSNO
94908KDBQ DBQ20060225200510602/25/06 20:05:31  5-MIN KDBQ 260205Z AUTO 01008KT 10SM CLR M06/M17 A3052 530 43 -1900 360/08 RMK AO2 TSNO
94908KDBQ DBQ20060225201010602/25/06 20:10:31  5-MIN KDBQ 260210Z AUTO 01009KT 10SM CLR M06/M17 A3052 530 41 -1800 010/09 RMK AO2 TSNO
94908KDBQ DBQ20060225201510602/25/06 20:15:31  5-MIN KDBQ 260215Z AUTO 01008KT 10SM CLR M06/M17 A3052 530 41 -1800 010/08 RMK AO2 TSNO
94908KDBQ DBQ20060225202010602/25/06 20:20:31  5-MIN KDBQ 260220Z AUTO 01008KT 10SM CLR M06/M17 A3052 530 41 -1800 010/08 RMK AO2 TSNO
94908KDBQ DBQ20060225202510602/25/06 20:25:31  5-MIN KDBQ 260225Z AUTO 01010KT 10SM CLR M06/M17 A3052 530 41 -1800 010/10 RMK AO2 TSNO
94908KDBQ DBQ20060225203010602/25/06 20:30:31  5-MIN KDBQ 260230Z AUTO 01008KT 10SM CLR M06/M17 A3052 530 41 -1800 010/08 RMK AO2 TSNO
94908KDBQ DBQ20060225203510602/25/06 20:35:31  5-MIN KDBQ 260235Z AUTO 01009KT 10SM CLR M06/M17 A3052 530 41 -1800 010/09 RMK AO2 TSNO
94908KDBQ DBQ20060225204010602/25/06 20:40:31  5-MIN KDBQ 260240Z AUTO 01010KT 10SM CLR M06/M17 A3052 530 41 -1800 010/10 RMK AO2 TSNO
94908KDBQ DBQ20060225204510602/25/06 20:45:31  5-MIN KDBQ 260245Z AUTO 01009KT 10SM CLR M06/M17 A3052 530 41 -1800 010/09 RMK AO2 TSNO
94908KDBQ DBQ20060225205012902/25/06 20:50:31  5-MIN KDBQ 260250Z AUTO 02008KT 10SM CLR M06/M17 A3052 530 43 -1900 020/08 RMK AO2 SLP353 T10611167 51007 TSNO
94908KDBQ DBQ20060225205512902/25/06 20:55:31  5-MIN KDBQ 260255Z AUTO 02009KT 10SM CLR M06/M17 A3052 530 43 -1900 020/09 RMK AO2 SLP354 T10611167 51003 TSNO
94908KDBQ DBQ20060225210010602/25/06 21:00:31  5-MIN KDBQ 260300Z AUTO 01009KT 10SM CLR M06/M17 A3052 530 43 -1900 010/09 RMK AO2 TSNO
94908KDBQ DBQ20060225210510602/25/06 21:05:31  5-MIN KDBQ 260305Z AUTO 01009KT 10SM CLR M06/M17 A3052 520 43 -1900 010/09 RMK AO2 TSNO
94908KDBQ DBQ20060225211010602/25/06 21:10:31  5-MIN KDBQ 260310Z AUTO 01008KT 10SM CLR M06/M17 A3053 520 43 -1900 010/08 RMK AO2 TSNO
94908KDBQ DBQ20060225211510602/25/06 21:15:31  5-MIN KDBQ 260315Z AUTO 01008KT 10SM CLR M06/M17 A3053 520 43 -1900 010/08 RMK AO2 TSNO
94908KDBQ DBQ20060225212010602/25/06 21:20:31  5-MIN KDBQ 260320Z AUTO 01009KT 10SM CLR M06/M17 A3053 520 43 -1900 010/09 RMK AO2 TSNO
94908KDBQ DBQ20060225212510602/25/06 21:25:31  5-MIN KDBQ 260325Z AUTO 01008KT 10SM CLR M06/M17 A3053 520 43 -1900 010/08 RMK AO2 TSNO
94908KDBQ DBQ20060225213010602/25/06 21:30:31  5-MIN KDBQ 260330Z AUTO 01008KT 10SM CLR M06/M17 A3053 520 43 -1900 010/08 RMK AO2 TSNO
94908KDBQ DBQ20060225213510602/25/06 21:35:31  5-MIN KDBQ 260335Z AUTO 01007KT 10SM CLR M07/M17 A3053 520 45 -2000 010/07 RMK AO2 TSNO
94908KDBQ DBQ20060225214010602/25/06 21:40:31  5-MIN KDBQ 260340Z AUTO 01007KT 10SM CLR M07/M17 A3053 520 45 -2000 010/07 RMK AO2 TSNO
94908KDBQ DBQ20060225214510602/25/06 21:45:31  5-MIN KDBQ 260345Z AUTO 02008KT 10SM CLR M07/M17 A3053 520 45 -2000 010/08 RMK AO2 TSNO
94908KDBQ DBQ20060225215012302/25/06 21:50:31  5-MIN KDBQ 260350Z AUTO 01007KT 10SM CLR M07/M17 A3053 520 45 -2000 010/07 RMK AO2 SLP358 T10671167 TSNO
94908KDBQ DBQ20060225215512302/25/06 21:55:31  5-MIN KDBQ 260355Z AUTO 01007KT 10SM CLR M07/M17 A3053 510 45 -2000 010/07 RMK AO2 SLP358 T10671167 TSNO
94908KDBQ DBQ20060225220010602/25/06 22:00:31  5-MIN KDBQ 260400Z AUTO 01007KT 10SM CLR M07/M17 A3054 510 45 -2000 010/07 RMK AO2 TSNO
94908KDBQ DBQ20060225220510602/25/06 22:05:31  5-MIN KDBQ 260405Z AUTO 01007KT 10SM CLR M07/M17 A3054 510 45 -2000 010/07 RMK AO2 TSNO
94908KDBQ DBQ20060225221010602/25/06 22:10:31  5-MIN KDBQ 260410Z AUTO 01006KT 10SM CLR M07/M17 A3054 510 45 -2000 010/06 RMK AO2 TSNO
94908KDBQ DBQ20060225221510602/25/06 22:15:31  5-MIN KDBQ 260415Z AUTO 01006KT 10SM CLR M07/M17 A3054 510 45 -2000 010/06 RMK AO2 TSNO
94908KDBQ DBQ20060225222010602/25/06 22:20:31  5-MIN KDBQ 260420Z AUTO 01005KT 10SM CLR M07/M17 A3054 510 45 -2000 010/05 RMK AO2 TSNO
94908KDBQ DBQ20060225222510602/25/06 22:25:31  5-MIN KDBQ 260425Z AUTO 01006KT 10SM CLR M07/M17 A3054 510 45 -2000 010/06 RMK AO2 TSNO
94908KDBQ DBQ20060225223010602/25/06 22:30:31  5-MIN KDBQ 260430Z AUTO 01007KT 10SM CLR M07/M17 A3054 510 45 -2000 010/07 RMK AO2 TSNO
94908KDBQ DBQ20060225223510602/25/06 22:35:31  5-MIN KDBQ 260435Z AUTO 02007KT 10SM CLR M07/M17 A3054 510 45 -2000 010/07 RMK AO2 TSNO
94908KDBQ DBQ20060225224010602/25/06 22:40:31  5-MIN KDBQ 260440Z AUTO 01008KT 10SM CLR M08/M17 A3054 510 47 -2100 010/08 RMK AO2 TSNO
94908KDBQ DBQ20060225224510602/25/06 22:45:31  5-MIN KDBQ 260445Z AUTO 02008KT 10SM CLR M08/M17 A3054 510 47 -2100 020/08 RMK AO2 TSNO
94908KDBQ DBQ20060225225012302/25/06 22:50:31  5-MIN KDBQ 260450Z AUTO 02008KT 10SM CLR M08/M17 A3054 510 47 -2100 020/08 RMK AO2 SLP360 T10781172 TSNO
94908KDBQ DBQ20060225225512302/25/06 22:55:31  5-MIN KDBQ 260455Z AUTO 02006KT 10SM CLR M08/M17 A3054 510 47 -2100 020/06 RMK AO2 SLP360 T10781172 TSNO
94908KDBQ DBQ20060225230010602/25/06 23:00:31  5-MIN KDBQ 260500Z AUTO 02005KT 10SM CLR M08/M17 A3054 510 47 -2100 020/05 RMK AO2 TSNO
94908KDBQ DBQ20060225230510602/25/06 23:05:31  5-MIN KDBQ 260505Z AUTO 01006KT 10SM CLR M08/M17 A3054 510 47 -2100 010/06 RMK AO2 TSNO
94908KDBQ DBQ20060225231010602/25/06 23:10:31  5-MIN KDBQ 260510Z AUTO 01006KT 10SM CLR M08/M17 A3054 510 49 -2200 010/06 RMK AO2 TSNO
94908KDBQ DBQ20060225231510602/25/06 23:15:31  5-MIN KDBQ 260515Z AUTO 01006KT 10SM CLR M08/M18 A3054 510 45 -2100 010/06 RMK AO2 TSNO
94908KDBQ DBQ20060225232010602/25/06 23:20:31  5-MIN KDBQ 260520Z AUTO 01006KT 10SM CLR M08/M18 A3054 510 47 -2200 010/06 RMK AO2 TSNO
94908KDBQ DBQ20060225232510602/25/06 23:25:31  5-MIN KDBQ 260525Z AUTO 01006KT 10SM CLR M08/M18 A3054 510 47 -2200 010/06 RMK AO2 TSNO
94908KDBQ DBQ20060225233010602/25/06 23:30:31  5-MIN KDBQ 260530Z AUTO 01005KT 10SM CLR M08/M18 A3054 510 45 -2100 010/05 RMK AO2 TSNO
94908KDBQ DBQ20060225233510602/25/06 23:35:31  5-MIN KDBQ 260535Z AUTO 01005KT 10SM CLR M08/M18 A3054 510 45 -2100 360/05 RMK AO2 TSNO
94908KDBQ DBQ20060225234010602/25/06 23:40:31  5-MIN KDBQ 260540Z AUTO 36005KT 10SM CLR M08/M18 A3054 510 45 -2100 360/05 RMK AO2 TSNO
94908KDBQ DBQ20060225234510602/25/06 23:45:31  5-MIN KDBQ 260545Z AUTO 01004KT 10SM CLR M08/M18 A3054 510 47 -2200 010/04 RMK AO2 TSNO
94908KDBQ DBQ20060225235015102/25/06 23:50:31  5-MIN KDBQ 260550Z AUTO 01003KT 10SM CLR M09/M18 A3054 510 49 -2300 010/03 RMK AO2 SLP361 T10891178 11050 21089 400221089 51003 TSNO
94908KDBQ DBQ20060225235515102/25/06 23:55:31  5-MIN KDBQ 260555Z AUTO 01003KT 10SM CLR M09/M18 A3054 510 51 -2300 010/03 RMK AO2 SLP362 T10941178 11050 21094 400221094 51007 TSNO
94908KDBQ DBQ20060226000010602/26/06 00:00:38  5-MIN KDBQ 260600Z AUTO 00000KT 10SM CLR M11/M17 A3054 510 58 -2500 000/00 RMK AO2 TSNO
94908KDBQ DBQ20060226000510602/26/06 00:05:31  5-MIN KDBQ 260605Z AUTO 00000KT 10SM CLR M11/M17 A3054 510 58 -2500 000/00 RMK AO2 TSNO
94908KDBQ DBQ20060226001010602/26/06 00:10:31  5-MIN KDBQ 260610Z AUTO 00000KT 10SM CLR M11/M17 A3054 510 58 -2500 000/00 RMK AO2 TSNO
94908KDBQ DBQ20060226001510602/26/06 00:15:32  5-MIN KDBQ 260615Z AUTO 00000KT 10SM CLR M11/M17 A3054 510 61 -2500 000/00 RMK AO2 TSNO
94908KDBQ DBQ20060226002010602/26/06 00:20:31  5-MIN KDBQ 260620Z AUTO 00000KT 10SM CLR M11/M17 A3054 510 61 -2500 000/00 RMK AO2 TSNO
94908KDBQ DBQ20060226002510602/26/06 00:25:31  5-MIN KDBQ 260625Z AUTO 00000KT 10SM CLR M11/M17 A3054 510 61 -2500 000/00 RMK AO2 TSNO
94908KDBQ DBQ20060226003010602/26/06 00:30:31  5-MIN KDBQ 260630Z AUTO 34003KT 10SM CLR M10/M17 A3055 510 56 -2400 340/03 RMK AO2 TSNO
94908KDBQ DBQ20060226003510602/26/06 00:35:31  5-MIN KDBQ 260635Z AUTO 33004KT 10SM CLR M09/M17 A3055 500 56 -2300 330/04 RMK AO2 TSNO
94908KDBQ DBQ20060226004010602/26/06 00:40:31  5-MIN KDBQ 260640Z AUTO 34004KT 10SM CLR M11/M17 A3055 500 58 -2500 340/04 RMK AO2 TSNO
94908KDBQ DBQ20060226004510602/26/06 00:45:31  5-MIN KDBQ 260645Z AUTO 34005KT 10SM CLR M10/M17 A3055 500 56 -2400 340/05 RMK AO2 TSNO
94908KDBQ DBQ20060226005012302/26/06 00:50:31  5-MIN KDBQ 260650Z AUTO 35005KT 10SM CLR M10/M18 A3055 500 53 -2400 350/05 RMK AO2 SLP363 T11001178 TSNO
94908KDBQ DBQ20060226005512302/26/06 00:55:31  5-MIN KDBQ 260655Z AUTO 34005KT 10SM CLR M09/M18 A3055 500 49 -2300 340/05 RMK AO2 SLP363 T10891178 TSNO
94908KDBQ DBQ20060226010010602/26/06 01:00:31  5-MIN KDBQ 260700Z AUTO 34005KT 10SM CLR M09/M18 A3055 500 49 -2300 340/05 RMK AO2 TSNO
94908KDBQ DBQ20060226010510602/26/06 01:05:31  5-MIN KDBQ 260705Z AUTO 34005KT 10SM CLR M09/M18 A3055 500 49 -2300 340/05 RMK AO2 TSNO
94908KDBQ DBQ20060226011010602/26/06 01:10:31  5-MIN KDBQ 260710Z AUTO 34005KT 10SM CLR M09/M18 A3055 500 51 -2300 340/05 RMK AO2 TSNO
94908KDBQ DBQ20060226011510602/26/06 01:15:31  5-MIN KDBQ 260715Z AUTO 35005KT 10SM CLR M09/M18 A3055 500 49 -2300 350/05 RMK AO2 TSNO
94908KDBQ DBQ20060226012010602/26/06 01:20:31  5-MIN KDBQ 260720Z AUTO 36004KT 10SM CLR M09/M18 A3055 500 49 -2300 360/04 RMK AO2 TSNO
94908KDBQ DBQ20060226012510602/26/06 01:25:31  5-MIN KDBQ 260725Z AUTO 01005KT 10SM CLR M11/M18 A3055 500 55 -2600 010/05 RMK AO2 TSNO
94908KDBQ DBQ20060226013010602/26/06 01:30:31  5-MIN KDBQ 260730Z AUTO 02004KT 10SM CLR M11/M18 A3055 500 55 -2600 020/04 RMK AO2 TSNO
94908KDBQ DBQ20060226013510602/26/06 01:35:31  5-MIN KDBQ 260735Z AUTO 02004KT 10SM CLR M09/M18 A3055 500 49 -2300 020/04 RMK AO2 TSNO
94908KDBQ DBQ20060226014010602/26/06 01:40:31  5-MIN KDBQ 260740Z AUTO 01005KT 10SM CLR M08/M18 A3055 500 45 -2200 010/05 RMK AO2 TSNO
94908KDBQ DBQ20060226014510602/26/06 01:45:31  5-MIN KDBQ 260745Z AUTO 36005KT 10SM CLR M09/M18 A3055 500 47 -2300 360/05 RMK AO2 TSNO
94908KDBQ DBQ20060226015012302/26/06 01:50:31  5-MIN KDBQ 260750Z AUTO 01006KT 10SM CLR M10/M18 A3055 500 51 -2400 010/06 RMK AO2 SLP364 T11001183 TSNO
94908KDBQ DBQ20060226015512302/26/06 01:55:31  5-MIN KDBQ 260755Z AUTO 01006KT 10SM CLR M11/M18 A3055 500 53 -2500 010/06 RMK AO2 SLP364 T11061183 TSNO
94908KDBQ DBQ20060226020010602/26/06 02:00:31  5-MIN KDBQ 260800Z AUTO 01006KT 10SM CLR M11/M19 A3055 500 53 -2600 010/06 RMK AO2 TSNO
94908KDBQ DBQ20060226020510602/26/06 02:05:31  5-MIN KDBQ 260805Z AUTO 01006KT 10SM CLR M11/M19 A3055 500 53 -2600 010/06 RMK AO2 TSNO
94908KDBQ DBQ20060226021010602/26/06 02:10:31  5-MIN KDBQ 260810Z AUTO 01006KT 10SM CLR M09/M18 A3055 500 49 -2300 010/06 RMK AO2 TSNO
94908KDBQ DBQ20060226021510602/26/06 02:15:31  5-MIN KDBQ 260815Z AUTO 01005KT 10SM CLR M10/M18 A3055 500 51 -2400 360/05 RMK AO2 TSNO
94908KDBQ DBQ20060226022010602/26/06 02:20:31  5-MIN KDBQ 260820Z AUTO 01005KT 10SM CLR M12/M19 A3055 500 55 -2600 010/05 RMK AO2 TSNO
94908KDBQ DBQ20060226022510602/26/06 02:25:31  5-MIN KDBQ 260825Z AUTO 02003KT 10SM CLR M11/M19 A3055 500 51 -2500 020/03 RMK AO2 TSNO
94908KDBQ DBQ20060226023010602/26/06 02:30:31  5-MIN KDBQ 260830Z AUTO 01003KT 10SM CLR M11/M19 A3055 500 51 -2500 010/03 RMK AO2 TSNO
94908KDBQ DBQ20060226023510602/26/06 02:35:31  5-MIN KDBQ 260835Z AUTO 01004KT 10SM CLR M11/M19 A3055 500 53 -2600 010/04 RMK AO2 TSNO
94908KDBQ DBQ20060226024010602/26/06 02:40:31  5-MIN KDBQ 260840Z AUTO 36003KT 10SM CLR M11/M19 A3055 500 51 -2500 360/03 RMK AO2 TSNO
94908KDBQ DBQ20060226024510602/26/06 02:45:31  5-MIN KDBQ 260845Z AUTO 01004KT 10SM CLR M09/M18 A3055 500 49 -2300 010/04 RMK AO2 TSNO
94908KDBQ DBQ20060226025012902/26/06 02:50:31  5-MIN KDBQ 260850Z AUTO 01003KT 10SM CLR M10/M19 A3054 510 49 -2400 010/03 RMK AO2 SLP363 T11001189 51007 TSNO
94908KDBQ DBQ20060226025512902/26/06 02:55:31  5-MIN KDBQ 260855Z AUTO 00000KT 10SM CLR M12/M19 A3054 510 55 -2600 000/00 RMK AO2 SLP363 T11171189 50001 TSNO
94908KDBQ DBQ20060226030010602/26/06 03:00:31  5-MIN KDBQ 260900Z AUTO 00000KT 10SM CLR M13/M18 A3054 510 63 -2800 000/00 RMK AO2 TSNO
94908KDBQ DBQ20060226030510602/26/06 03:05:31  5-MIN KDBQ 260905Z AUTO 00000KT 10SM CLR M12/M18 A3054 510 61 -2700 000/00 RMK AO2 TSNO
94908KDBQ DBQ20060226031010602/26/06 03:10:31  5-MIN KDBQ 260910Z AUTO 00000KT 10SM CLR M13/M18 A3054 510 63 -2800 000/00 RMK AO2 TSNO
94908KDBQ DBQ20060226031510602/26/06 03:15:31  5-MIN KDBQ 260915Z AUTO 00000KT 10SM CLR M12/M18 A3054 510 61 -2700 000/00 RMK AO2 TSNO
94908KDBQ DBQ20060226032010602/26/06 03:20:31  5-MIN KDBQ 260920Z AUTO 00000KT 10SM CLR M12/M18 A3054 510 61 -2700 000/00 RMK AO2 TSNO
94908KDBQ DBQ20060226032510602/26/06 03:25:31  5-MIN KDBQ 260925Z AUTO 01003KT 10SM CLR M12/M19 A3054 510 58 -2700 010/03 RMK AO2 TSNO
94908KDBQ DBQ20060226033010602/26/06 03:30:31  5-MIN KDBQ 260930Z AUTO 02003KT 10SM CLR M14/M19 A3054 510 63 -2900 020/03 RMK AO2 TSNO
94908KDBQ DBQ20060226033510602/26/06 03:35:31  5-MIN KDBQ 260935Z AUTO 02003KT 10SM CLR M14/M19 A3054 510 63 -2900 020/03 RMK AO2 TSNO
94908KDBQ DBQ20060226034010602/26/06 03:40:31  5-MIN KDBQ 260940Z AUTO 36003KT 10SM CLR M14/M19 A3054 510 63 -2900 360/03 RMK AO2 TSNO
94908KDBQ DBQ20060226034510602/26/06 03:45:31  5-MIN KDBQ 260945Z AUTO 01004KT 10SM CLR M14/M19 A3054 510 66 -3000 360/04 RMK AO2 TSNO
94908KDBQ DBQ20060226035012302/26/06 03:50:31  5-MIN KDBQ 260950Z AUTO 01004KT 10SM CLR M13/M19 A3054 510 60 -2800 010/04 RMK AO2 SLP361 T11281189 TSNO
94908KDBQ DBQ20060226035512302/26/06 03:55:31  5-MIN KDBQ 260955Z AUTO 00000KT 10SM CLR M13/M18 A3054 510 66 -2800 000/00 RMK AO2 SLP361 T11331183 TSNO
94908KDBQ DBQ20060226040010602/26/06 04:00:31  5-MIN KDBQ 261000Z AUTO 00000KT 10SM CLR M13/M18 A3054 510 66 -2800 000/00 RMK AO2 TSNO
94908KDBQ DBQ20060226040510602/26/06 04:05:31  5-MIN KDBQ 261005Z AUTO 00000KT 10SM CLR M13/M18 A3054 510 63 -2800 000/00 RMK AO2 TSNO
94908KDBQ DBQ20060226041010602/26/06 04:10:31  5-MIN KDBQ 261010Z AUTO 00000KT 10SM CLR M13/M19 A3054 510 63 -2800 000/00 RMK AO2 TSNO
94908KDBQ DBQ20060226041510602/26/06 04:15:31  5-MIN KDBQ 261015Z AUTO 01003KT 10SM CLR M12/M19 A3054 510 58 -2700 360/03 RMK AO2 TSNO
94908KDBQ DBQ20060226042010602/26/06 04:20:31  5-MIN KDBQ 261020Z AUTO 36003KT 10SM CLR M12/M18 A3054 510 61 -2700 360/03 RMK AO2 TSNO
94908KDBQ DBQ20060226042510602/26/06 04:25:31  5-MIN KDBQ 261025Z AUTO 36003KT 10SM CLR M12/M19 A3054 510 58 -2700 360/03 RMK AO2 TSNO
94908KDBQ DBQ20060226043010602/26/06 04:30:31  5-MIN KDBQ 261030Z AUTO 00000KT 10SM CLR M16/M19 A3054 510 76 -3100 000/00 RMK AO2 TSNO
94908KDBQ DBQ20060226043510602/26/06 04:35:31  5-MIN KDBQ 261035Z AUTO 03003KT 10SM CLR M14/M19 A3054 510 66 -2900 030/03 RMK AO2 TSNO
94908KDBQ DBQ20060226044010602/26/06 04:40:31  5-MIN KDBQ 261040Z AUTO 00000KT 10SM CLR M12/M19 A3054 510 58 -2700 000/00 RMK AO2 TSNO
94908KDBQ DBQ20060226044510602/26/06 04:45:31  5-MIN KDBQ 261045Z AUTO 00000KT 10SM CLR M13/M19 A3054 510 63 -2800 000/00 RMK AO2 TSNO
94908KDBQ DBQ20060226045012302/26/06 04:50:31  5-MIN KDBQ 261050Z AUTO 00000KT 10SM CLR M15/M19 A3054 510 69 -3100 000/00 RMK AO2 SLP363 T11501194 TSNO
94908KDBQ DBQ20060226045512302/26/06 04:55:31  5-MIN KDBQ 261055Z AUTO 00000KT 10SM CLR M15/M19 A3054 510 69 -3100 000/00 RMK AO2 SLP363 T11501194 TSNO
94908KDBQ DBQ20060226050010602/26/06 05:00:31  5-MIN KDBQ 261100Z AUTO 00000KT 10SM CLR M15/M19 A3054 510 69 -3100 000/00 RMK AO2 TSNO
94908KDBQ DBQ20060226050510602/26/06 05:05:31  5-MIN KDBQ 261105Z AUTO 00000KT 10SM CLR M14/M19 A3054 510 66 -3000 000/00 RMK AO2 TSNO
94908KDBQ DBQ20060226051010602/26/06 05:10:31  5-MIN KDBQ 261110Z AUTO 00000KT 10SM CLR M14/M19 A3054 510 63 -2900 000/00 RMK AO2 TSNO
94908KDBQ DBQ20060226051510602/26/06 05:15:31  5-MIN KDBQ 261115Z AUTO 00000KT 10SM CLR M14/M19 A3054 510 66 -3000 000/00 RMK AO2 TSNO
94908KDBQ DBQ20060226052010602/26/06 05:20:31  5-MIN KDBQ 261120Z AUTO 00000KT 10SM CLR M14/M19 A3054 510 66 -3000 000/00 RMK AO2 TSNO
94908KDBQ DBQ20060226052510602/26/06 05:25:31  5-MIN KDBQ 261125Z AUTO 00000KT 10SM CLR M14/M19 A3055 510 66 -3000 000/00 RMK AO2 TSNO
94908KDBQ DBQ20060226053010602/26/06 05:30:31  5-MIN KDBQ 261130Z AUTO 00000KT 10SM CLR M13/M19 A3055 500 60 -2800 000/00 RMK AO2 TSNO
94908KDBQ DBQ20060226053510602/26/06 05:35:31  5-MIN KDBQ 261135Z AUTO 00000KT 10SM CLR M13/M19 A3055 500 60 -2800 000/00 RMK AO2 TSNO
94908KDBQ DBQ20060226054010602/26/06 05:40:31  5-MIN KDBQ 261140Z AUTO 00000KT 10SM CLR M14/M19 A3055 500 63 -2900 000/00 RMK AO2 TSNO
94908KDBQ DBQ20060226054509602/26/06 05:45:31  5-MIN KDBQ 261145Z 00000KT 10SM CLR M14/M19 A3055 500 66 -2900 000/00 RMK AO2
94908KDBQ DBQ20060226055013102/26/06 05:50:31  5-MIN KDBQ 261150Z 00000KT 10SM CLR M14/M19 A3055 500 69 -3000 000/00 RMK AO2 SLP366 T11441189 11083 21156 50001
94908KDBQ DBQ20060226055513102/26/06 05:55:31  5-MIN KDBQ 261155Z 00000KT 10SM CLR M15/M19 A3055 510 69 -3100 000/00 RMK AO2 SLP367 T11501194 11083 21156 53001
94908KDBQ DBQ20060226060009602/26/06 06:00:31  5-MIN KDBQ 261200Z 00000KT 10SM CLR M15/M19 A3055 500 69 -3100 000/00 RMK AO2
94908KDBQ DBQ20060226060509602/26/06 06:05:31  5-MIN KDBQ 261205Z 00000KT 10SM CLR M15/M19 A3055 500 69 -3100 000/00 RMK AO2
94908KDBQ DBQ20060226061009602/26/06 06:10:31  5-MIN KDBQ 261210Z 00000KT 10SM CLR M14/M19 A3055 500 66 -3000 000/00 RMK AO2
94908KDBQ DBQ20060226061509602/26/06 06:15:31  5-MIN KDBQ 261215Z 00000KT 10SM CLR M14/M19 A3055 500 66 -3000 000/00 RMK AO2
94908KDBQ DBQ20060226062009602/26/06 06:20:31  5-MIN KDBQ 261220Z 00000KT 10SM CLR M14/M19 A3055 500 66 -3000 000/00 RMK AO2
94908KDBQ DBQ20060226062509602/26/06 06:25:31  5-MIN KDBQ 261225Z 00000KT 10SM CLR M14/M19 A3055 500 66 -3000 000/00 RMK AO2
94908KDBQ DBQ20060226063009602/26/06 06:30:31  5-MIN KDBQ 261230Z 00000KT 10SM CLR M16/M19 A3055 500 72 -3100 000/00 RMK AO2
94908KDBQ DBQ20060226063509602/26/06 06:35:31  5-MIN KDBQ 261235Z 00000KT 10SM CLR M16/M19 A3055 500 76 -3200 000/00 RMK AO2
94908KDBQ DBQ20060226064009602/26/06 06:40:31  5-MIN KDBQ 261240Z 00000KT 10SM CLR M16/M19 A3055 500 76 -3100 000/00 RMK AO2
94908KDBQ DBQ20060226064509602/26/06 06:45:31  5-MIN KDBQ 261245Z 00000KT 10SM CLR M16/M19 A3054 510 76 -3100 000/00 RMK AO2
94908KDBQ DBQ20060226065011302/26/06 06:50:31  5-MIN KDBQ 261250Z 00000KT 10SM CLR M16/M19 A3054 510 76 -3100 000/00 RMK AO2 SLP366 T11561189
94908KDBQ DBQ20060226065511302/26/06 06:55:31  5-MIN KDBQ 261255Z 00000KT 10SM CLR M15/M19 A3054 510 72 -3100 000/00 RMK AO2 SLP366 T11501189
94908KDBQ DBQ20060226070009602/26/06 07:00:31  5-MIN KDBQ 261300Z 00000KT 10SM CLR M15/M19 A3054 510 72 -3100 000/00 RMK AO2
94908KDBQ DBQ20060226070509602/26/06 07:05:31  5-MIN KDBQ 261305Z 00000KT 10SM CLR M15/M19 A3054 510 72 -3100 000/00 RMK AO2
94908KDBQ DBQ20060226071009602/26/06 07:10:31  5-MIN KDBQ 261310Z 00000KT 10SM CLR M14/M19 A3054 510 69 -3000 000/00 RMK AO2
94908KDBQ DBQ20060226071509602/26/06 07:15:31  5-MIN KDBQ 261315Z 00000KT 10SM CLR M14/M19 A3054 510 69 -3000 000/00 RMK AO2
94908KDBQ DBQ20060226072009602/26/06 07:20:31  5-MIN KDBQ 261320Z 00000KT 10SM CLR M14/M18 A3054 510 69 -2900 000/00 RMK AO2
94908KDBQ DBQ20060226072509602/26/06 07:25:31  5-MIN KDBQ 261325Z 00000KT 10SM CLR M14/M18 A3054 510 69 -2900 000/00 RMK AO2
94908KDBQ DBQ20060226073009602/26/06 07:30:31  5-MIN KDBQ 261330Z 00000KT 10SM CLR M13/M18 A3054 510 66 -2800 000/00 RMK AO2
94908KDBQ DBQ20060226073509602/26/06 07:35:31  5-MIN KDBQ 261335Z 00000KT 10SM CLR M14/M17 A3054 510 76 -2900 000/00 RMK AO2
94908KDBQ DBQ20060226074009602/26/06 07:40:31  5-MIN KDBQ 261340Z 00000KT 10SM CLR M13/M17 A3054 510 76 -2800 000/00 RMK AO2
94908KDBQ DBQ20060226074509602/26/06 07:45:31  5-MIN KDBQ 261345Z 00000KT 10SM CLR M13/M16 A3054 510 80 -2800 000/00 RMK AO2
94908KDBQ DBQ20060226075011302/26/06 07:50:31  5-MIN KDBQ 261350Z 00000KT 10SM CLR M13/M16 A3054 510 76 -2800 000/00 RMK AO2 SLP365 T11281161
94908KDBQ DBQ20060226075511302/26/06 07:55:31  5-MIN KDBQ 261355Z 00000KT 10SM CLR M12/M16 A3054 510 73 -2700 000/00 RMK AO2 SLP365 T11221161
94908KDBQ DBQ20060226080009602/26/06 08:00:31  5-MIN KDBQ 261400Z 00000KT 10SM CLR M12/M16 A3054 510 70 -2600 000/00 RMK AO2
94908KDBQ DBQ20060226080509602/26/06 08:05:31  5-MIN KDBQ 261405Z 00000KT 10SM CLR M12/M16 A3055 500 70 -2600 000/00 RMK AO2
94908KDBQ DBQ20060226081009602/26/06 08:10:31  5-MIN KDBQ 261410Z 00000KT 10SM CLR M11/M16 A3055 500 70 -2600 000/00 RMK AO2
94908KDBQ DBQ20060226081509602/26/06 08:15:31  5-MIN KDBQ 261415Z 00000KT 10SM CLR M11/M16 A3055 500 67 -2600 000/00 RMK AO2
94908KDBQ DBQ20060226082009602/26/06 08:20:31  5-MIN KDBQ 261420Z 00000KT 10SM CLR M11/M16 A3055 500 64 -2500 000/00 RMK AO2
94908KDBQ DBQ20060226082509602/26/06 08:25:31  5-MIN KDBQ 261425Z 00000KT 10SM CLR M11/M16 A3055 500 67 -2500 000/00 RMK AO2
94908KDBQ DBQ20060226083009602/26/06 08:30:31  5-MIN KDBQ 261430Z 00000KT 10SM CLR M11/M16 A3055 500 67 -2500 000/00 RMK AO2
94908KDBQ DBQ20060226083509602/26/06 08:35:31  5-MIN KDBQ 261435Z 00000KT 10SM CLR M10/M15 A3055 500 67 -2400 000/00 RMK AO2
94908KDBQ DBQ20060226084009602/26/06 08:40:31  5-MIN KDBQ 261440Z 00000KT 10SM CLR M09/M14 A3055 500 67 -2300 000/00 RMK AO2
94908KDBQ DBQ20060226084509602/26/06 08:45:31  5-MIN KDBQ 261445Z 00000KT 10SM CLR M09/M14 A3055 500 67 -2300 000/00 RMK AO2
94908KDBQ DBQ20060226085011902/26/06 08:50:31  5-MIN KDBQ 261450Z 19003KT 10SM CLR M08/M14 A3055 500 64 -2200 190/03 RMK AO2 SLP364 T10831139 53001
94908KDBQ DBQ20060226085511902/26/06 08:55:31  5-MIN KDBQ 261455Z 20003KT 10SM CLR M08/M15 A3055 500 59 -2200 200/03 RMK AO2 SLP364 T10831150 55000
94908KDBQ DBQ20060226090009602/26/06 09:00:31  5-MIN KDBQ 261500Z 00000KT 10SM CLR M08/M15 A3054 510 56 -2100 000/00 RMK AO2
94908KDBQ DBQ20060226090509602/26/06 09:05:31  5-MIN KDBQ 261505Z 19005KT 10SM CLR M08/M16 A3054 510 51 -2100 190/05 RMK AO2
94908KDBQ DBQ20060226091009602/26/06 09:10:31  5-MIN KDBQ 261510Z 20005KT 10SM CLR M07/M16 A3054 510 49 -2000 190/05 RMK AO2
94908KDBQ DBQ20060226091509602/26/06 09:15:31  5-MIN KDBQ 261515Z 21007KT 10SM CLR M07/M16 A3054 510 49 -2000 210/07 RMK AO2
94908KDBQ DBQ20060226092009602/26/06 09:20:31  5-MIN KDBQ 261520Z 21008KT 10SM CLR M07/M16 A3054 510 49 -2000 210/08 RMK AO2
94908KDBQ DBQ20060226092509602/26/06 09:25:31  5-MIN KDBQ 261525Z 20009KT 10SM CLR M07/M16 A3053 520 49 -2000 200/09 RMK AO2
94908KDBQ DBQ20060226093009602/26/06 09:30:31  5-MIN KDBQ 261530Z 20009KT 10SM CLR M07/M16 A3053 520 49 -1900 200/09 RMK AO2
94908KDBQ DBQ20060226093509602/26/06 09:35:31  5-MIN KDBQ 261535Z 20011KT 10SM CLR M07/M16 A3052 520 47 -1900 200/11 RMK AO2
94908KDBQ DBQ20060226094009602/26/06 09:40:31  5-MIN KDBQ 261540Z 22011KT 10SM CLR M06/M16 A3052 530 47 -1900 210/11 RMK AO2
94908KDBQ DBQ20060226094509602/26/06 09:45:31  5-MIN KDBQ 261545Z 22011KT 10SM CLR M06/M16 A3052 530 45 -1900 220/11 RMK AO2
94908KDBQ DBQ20060226095011302/26/06 09:50:31  5-MIN KDBQ 261550Z 21011KT 10SM CLR M06/M16 A3051 530 45 -1900 210/11 RMK AO2 SLP352 T10611161
94908KDBQ DBQ20060226095511302/26/06 09:55:31  5-MIN KDBQ 261555Z 21011KT 10SM CLR M06/M16 A3051 540 45 -1800 210/11 RMK AO2 SLP351 T10561156
94908KDBQ DBQ20060226100009602/26/06 10:00:31  5-MIN KDBQ 261600Z 21010KT 10SM CLR M06/M16 A3051 540 47 -1900 210/10 RMK AO2
94908KDBQ DBQ20060226100509602/26/06 10:05:31  5-MIN KDBQ 261605Z 21010KT 10SM CLR M06/M15 A3051 540 48 -1800 210/10 RMK AO2
94908KDBQ DBQ20060226101009602/26/06 10:10:31  5-MIN KDBQ 261610Z 21011KT 10SM CLR M06/M14 A3051 540 50 -1800 210/11 RMK AO2
94908KDBQ DBQ20060226101509602/26/06 10:15:31  5-MIN KDBQ 261615Z 21009KT 10SM CLR M05/M15 A3051 540 46 -1700 210/09 RMK AO2
94908KDBQ DBQ20060226102009602/26/06 10:20:31  5-MIN KDBQ 261620Z 22011KT 10SM CLR M05/M15 A3050 540 46 -1700 220/11 RMK AO2
94908KDBQ DBQ20060226102509602/26/06 10:25:31  5-MIN KDBQ 261625Z 24012KT 10SM CLR M04/M15 A3050 550 44 -1600 240/12 RMK AO2
94908KDBQ DBQ20060226103009602/26/06 10:30:31  5-MIN KDBQ 261630Z 21011KT 10SM CLR M04/M15 A3049 550 44 -1600 210/11 RMK AO2
94908KDBQ DBQ20060226103509602/26/06 10:35:31  5-MIN KDBQ 261635Z 23012KT 10SM CLR M04/M15 A3049 550 44 -1600 220/12 RMK AO2
94908KDBQ DBQ20060226104009602/26/06 10:40:31  5-MIN KDBQ 261640Z 22012KT 10SM CLR M04/M15 A3049 560 44 -1600 220/12 RMK AO2
94908KDBQ DBQ20060226104509602/26/06 10:45:31  5-MIN KDBQ 261645Z 22011KT 10SM CLR M04/M15 A3048 560 42 -1500 220/11 RMK AO2
94908KDBQ DBQ20060226105011302/26/06 10:50:31  5-MIN KDBQ 261650Z 25011KT 10SM CLR M04/M15 A3048 570 42 -1500 250/11 RMK AO2 SLP340 T10391150
94908KDBQ DBQ20060226105511302/26/06 10:55:31  5-MIN KDBQ 261655Z 23011KT 10SM CLR M04/M16 A3048 560 40 -1500 230/11 RMK AO2 SLP340 T10391156
94908KDBQ DBQ20060226110009602/26/06 11:00:31  5-MIN KDBQ 261700Z 24009KT 10SM CLR M04/M16 A3048 570 40 -1500 240/09 RMK AO2
94908KDBQ DBQ20060226110509602/26/06 11:05:31  5-MIN KDBQ 261705Z 25011KT 10SM CLR M04/M15 A3047 570 42 -1500 250/11 RMK AO2
94908KDBQ DBQ20060226111009602/26/06 11:10:31  5-MIN KDBQ 261710Z 26011KT 10SM CLR M03/M14 A3047 570 42 -1500 260/11 RMK AO2
94908KDBQ DBQ20060226111509602/26/06 11:15:31  5-MIN KDBQ 261715Z 25013KT 10SM CLR M03/M14 A3047 570 42 -1500 250/13 RMK AO2
94908KDBQ DBQ20060226112009602/26/06 11:20:31  5-MIN KDBQ 261720Z 25011KT 10SM CLR M03/M15 A3047 570 40 -1500 250/11 RMK AO2
94908KDBQ DBQ20060226112509602/26/06 11:25:31  5-MIN KDBQ 261725Z 26010KT 10SM CLR M03/M14 A3047 570 42 -1500 260/10 RMK AO2
94908KDBQ DBQ20060226113009602/26/06 11:30:31  5-MIN KDBQ 261730Z 25009KT 10SM CLR M03/M14 A3047 570 42 -1500 250/09 RMK AO2
94908KDBQ DBQ20060226113509602/26/06 11:35:31  5-MIN KDBQ 261735Z 25012KT 10SM CLR M03/M14 A3047 580 42 -1400 250/12 RMK AO2
94908KDBQ DBQ20060226114009602/26/06 11:40:31  5-MIN KDBQ 261740Z 26011KT 10SM CLR M03/M14 A3046 580 42 -1400 260/11 RMK AO2
94908KDBQ DBQ20060226114509602/26/06 11:45:31  5-MIN KDBQ 261745Z 25010KT 10SM CLR M03/M15 A3046 580 39 -1400 250/10 RMK AO2
94908KDBQ DBQ20060226115013102/26/06 11:50:31  5-MIN KDBQ 261750Z 23011KT 10SM CLR M03/M14 A3046 590 40 -1400 230/11 RMK AO2 SLP332 T10281144 11028 21161 55000
94908KDBQ DBQ20060226115513102/26/06 11:55:31  5-MIN KDBQ 261755Z 24012KT 10SM CLR M02/M14 A3045 590 39 -1300 240/12 RMK AO2 SLP332 T10221144 11022 21161 56030
94908KDBQ DBQ20060226120009602/26/06 12:00:31  5-MIN KDBQ 261800Z 26011KT 10SM CLR M03/M14 A3045 590 40 -1400 250/11 RMK AO2
94908KDBQ DBQ20060226120509602/26/06 12:05:31  5-MIN KDBQ 261805Z 23009KT 10SM CLR M02/M15 A3045 590 37 -1300 230/09 RMK AO2
94908KDBQ DBQ20060226121009902/26/06 12:10:31  5-MIN KDBQ 261810Z 23010KT 10SM FEW080 M02/M14 A3045 590 40 -1300 230/10 RMK AO2
94908KDBQ DBQ20060226121509902/26/06 12:15:31  5-MIN KDBQ 261815Z 25008KT 10SM SCT080 M02/M14 A3044 600 39 -1300 250/08 RMK AO2
94908KDBQ DBQ20060226122009902/26/06 12:20:31  5-MIN KDBQ 261820Z 25010KT 10SM BKN080 M02/M15 A3044 600 37 -1300 250/10 RMK AO2
94908KDBQ DBQ20060226122509902/26/06 12:25:31  5-MIN KDBQ 261825Z 26009KT 10SM BKN080 M02/M15 A3044 600 37 -1300 260/09 RMK AO2
94908KDBQ DBQ20060226123009902/26/06 12:30:31  5-MIN KDBQ 261830Z 26009KT 10SM BKN080 M02/M14 A3043 610 39 -1300 260/09 RMK AO2
94908KDBQ DBQ20060226123509902/26/06 12:35:31  5-MIN KDBQ 261835Z 25009KT 10SM OVC080 M02/M14 A3043 610 40 -1300 250/09 RMK AO2
94908KDBQ DBQ20060226124009902/26/06 12:40:31  5-MIN KDBQ 261840Z 24008KT 10SM OVC080 M02/M14 A3042 620 39 -1300 240/08 RMK AO2
94908KDBQ DBQ20060226124509902/26/06 12:45:31  5-MIN KDBQ 261845Z 26008KT 10SM OVC080 M02/M15 A3042 620 37 -1300 260/08 RMK AO2
94908KDBQ DBQ20060226125011602/26/06 12:50:31  5-MIN KDBQ 261850Z 26009KT 10SM OVC080 M02/M15 A3042 620 35 -1200 260/09 RMK AO2 SLP319 T10171150
94908KDBQ DBQ20060226125511602/26/06 12:55:31  5-MIN KDBQ 261855Z 23008KT 10SM OVC080 M02/M14 A3041 620 37 -1200 230/08 RMK AO2 SLP317 T10171144
94908KDBQ DBQ20060226130009902/26/06 13:00:31  5-MIN KDBQ 261900Z 24008KT 10SM OVC080 M02/M14 A3041 630 37 -1200 240/08 RMK AO2
94908KDBQ DBQ20060226130509902/26/06 13:05:31  5-MIN KDBQ 261905Z 26009KT 10SM OVC080 M02/M14 A3040 630 37 -1200 260/09 RMK AO2
94908KDBQ DBQ20060226131009902/26/06 13:10:31  5-MIN KDBQ 261910Z 25010KT 10SM OVC080 M02/M14 A3040 640 37 -1200 250/10 RMK AO2
94908KDBQ DBQ20060226131509902/26/06 13:15:31  5-MIN KDBQ 261915Z 25009KT 10SM OVC080 M02/M14 A3040 640 37 -1200 250/09 RMK AO2
94908KDBQ DBQ20060226132009902/26/06 13:20:31  5-MIN KDBQ 261920Z 26009KT 10SM OVC075 M02/M14 A3040 640 39 -1200 260/09 RMK AO2
94908KDBQ DBQ20060226132509902/26/06 13:25:31  5-MIN KDBQ 261925Z 23007KT 10SM OVC075 M02/M15 A3039 640 35 -1200 230/07 RMK AO2
94908KDBQ DBQ20060226133009902/26/06 13:30:31  5-MIN KDBQ 261930Z 26009KT 10SM OVC080 M01/M14 A3039 640 37 -1100 260/09 RMK AO2
94908KDBQ DBQ20060226133509902/26/06 13:35:31  5-MIN KDBQ 261935Z 25010KT 10SM OVC075 M01/M14 A3039 650 37 -1100 250/10 RMK AO2
94908KDBQ DBQ20060226134009902/26/06 13:40:31  5-MIN KDBQ 261940Z 26007KT 10SM OVC080 M01/M14 A3039 650 36 -1100 260/07 RMK AO2
94908KDBQ DBQ20060226134509902/26/06 13:45:31  5-MIN KDBQ 261945Z 28009KT 10SM OVC080 M01/M14 A3038 650 37 -1100 280/09 RMK AO2
94908KDBQ DBQ20060226135011602/26/06 13:50:31  5-MIN KDBQ 261950Z 25009KT 10SM OVC080 M01/M14 A3038 650 37 -1100 250/09 RMK AO2 SLP308 T10111139
94908KDBQ DBQ20060226135511602/26/06 13:55:31  5-MIN KDBQ 261955Z 28006KT 10SM OVC080 M01/M14 A3038 660 36 -1100 280/06 RMK AO2 SLP306 T10111144
94908KDBQ DBQ20060226140009902/26/06 14:00:31  5-MIN KDBQ 262000Z 25009KT 10SM OVC075 M01/M14 A3037 660 36 -1100 250/09 RMK AO2
94908KDBQ DBQ20060226140510602/26/06 14:05:31  5-MIN KDBQ 262005Z 26005KT 10SM BKN070 OVC080 M01/M14 A3037 660 36 -1100 260/05 RMK AO2
94908KDBQ DBQ20060226141010602/26/06 14:10:31  5-MIN KDBQ 262010Z 27006KT 10SM BKN070 OVC080 M01/M14 A3037 670 36 -1100 270/06 RMK AO2
94908KDBQ DBQ20060226141510602/26/06 14:15:31  5-MIN KDBQ 262015Z 26007KT 10SM BKN070 OVC080 M01/M14 A3036 670 37 -1000 260/07 RMK AO2
94908KDBQ DBQ20060226142010602/26/06 14:20:31  5-MIN KDBQ 262020Z 22007KT 10SM BKN070 OVC080 M01/M14 A3036 680 36 -1000 220/07 RMK AO2
94908KDBQ DBQ20060226142509902/26/06 14:25:31  5-MIN KDBQ 262025Z 23009KT 10SM OVC070 M01/M14 A3035 680 36 -1000 230/09 RMK AO2
94908KDBQ DBQ20060226143009902/26/06 14:30:31  5-MIN KDBQ 262030Z 25010KT 10SM OVC070 M01/M14 A3035 680 36 -1000 250/10 RMK AO2
94908KDBQ DBQ20060226143509902/26/06 14:35:31  5-MIN KDBQ 262035Z 24008KT 10SM OVC070 M01/M14 A3035 680 37 -1000 240/08 RMK AO2
94908KDBQ DBQ20060226144009902/26/06 14:40:31  5-MIN KDBQ 262040Z 26009KT 10SM OVC070 M01/M13 A3035 690 39 -1000 260/09 RMK AO2
94908KDBQ DBQ20060226144509902/26/06 14:45:31  5-MIN KDBQ 262045Z 25007KT 10SM OVC075 M01/M14 A3034 690 37 -1000 250/07 RMK AO2
94908KDBQ DBQ20060226145012202/26/06 14:50:31  5-MIN KDBQ 262050Z 24010KT 10SM OVC075 M01/M13 A3034 690 39 -1000 240/10 RMK AO2 SLP292 T10111133 56030
94908KDBQ DBQ20060226145512202/26/06 14:55:31  5-MIN KDBQ 262055Z 24009KT 10SM OVC075 M01/M13 A3034 700 39 -1000 240/09 RMK AO2 SLP291 T10111133 58039
94908KDBQ DBQ20060226150009802/26/06 15:00:31  5-MIN KDBQ 262100Z 25006KT 10SM OVC075 M01/M13 A3033 700 37 -900 250/06 RMK AO2
94908KDBQ DBQ20060226150509802/26/06 15:05:31  5-MIN KDBQ 262105Z 25007KT 10SM OVC075 M01/M14 A3032 710 36 -900 250/07 RMK AO2
94908KDBQ DBQ20060226151010502/26/06 15:10:31  5-MIN KDBQ 262110Z 26008KT 10SM BKN075 OVC120 M01/M14 A3032 710 36 -900 260/08 RMK AO2
94908KDBQ DBQ20060226151509802/26/06 15:15:31  5-MIN KDBQ 262115Z 24007KT 10SM BKN070 M01/M14 A3032 710 36 -900 240/07 RMK AO2
94908KDBQ DBQ20060226152009802/26/06 15:20:31  5-MIN KDBQ 262120Z 24010KT 10SM SCT075 M01/M14 A3031 720 36 -900 240/10 RMK AO2
94908KDBQ DBQ20060226152509802/26/06 15:25:31  5-MIN KDBQ 262125Z 23009KT 10SM SCT070 M01/M14 A3031 720 36 -900 230/09 RMK AO2
94908KDBQ DBQ20060226153009702/26/06 15:30:31  5-MIN KDBQ 262130Z 22008KT 10SM FEW070 00/M13 A3031 720 38 -800 220/08 RMK AO2
94908KDBQ DBQ20060226153509802/26/06 15:35:31  5-MIN KDBQ 262135Z 23007KT 10SM FEW070 M01/M13 A3031 720 37 -900 230/07 RMK AO2
94908KDBQ DBQ20060226154009502/26/06 15:40:31  5-MIN KDBQ 262140Z 23007KT 10SM CLR M01/M14 A3031 720 36 -900 230/07 RMK AO2
94908KDBQ DBQ20060226154509402/26/06 15:45:31  5-MIN KDBQ 262145Z 24009KT 10SM CLR 00/M13 A3031 720 36 -800 240/09 RMK AO2
94908KDBQ DBQ20060226155011102/26/06 15:50:31  5-MIN KDBQ 262150Z 23007KT 10SM CLR 00/M13 A3030 720 36 -800 230/07 RMK AO2 SLP281 T00001133
94908KDBQ DBQ20060226155511102/26/06 15:55:31  5-MIN KDBQ 262155Z 21008KT 10SM CLR 00/M14 A3031 720 34 -800 210/08 RMK AO2 SLP282 T00001139
94908KDBQ DBQ20060226160009402/26/06 16:00:31  5-MIN KDBQ 262200Z 23008KT 10SM CLR 00/M13 A3030 730 36 -800 230/08 RMK AO2
94908KDBQ DBQ20060226160509402/26/06 16:05:31  5-MIN KDBQ 262205Z 23009KT 10SM CLR 00/M13 A3030 730 36 -800 230/09 RMK AO2
94908KDBQ DBQ20060226161009702/26/06 16:10:31  5-MIN KDBQ 262210Z 24007KT 10SM FEW075 00/M13 A3030 730 36 -800 240/07 RMK AO2
94908KDBQ DBQ20060226161509802/26/06 16:15:31  5-MIN KDBQ 262215Z 23007KT 10SM FEW075 M01/M13 A3030 730 37 -900 230/07 RMK AO2
94908KDBQ DBQ20060226162009702/26/06 16:20:31  5-MIN KDBQ 262220Z 22010KT 10SM FEW075 00/M13 A3029 740 38 -800 220/10 RMK AO2
94908KDBQ DBQ20060226162509802/26/06 16:25:31  5-MIN KDBQ 262225Z 26011KT 10SM FEW075 M01/M13 A3029 740 39 -900 260/11 RMK AO2
94908KDBQ DBQ20060226163009802/26/06 16:30:31  5-MIN KDBQ 262230Z 26009KT 10SM FEW075 M01/M13 A3029 740 39 -900 260/09 RMK AO2
94908KDBQ DBQ20060226163509802/26/06 16:35:31  5-MIN KDBQ 262235Z 24008KT 10SM FEW070 M01/M13 A3029 740 39 -900 240/08 RMK AO2
94908KDBQ DBQ20060226164009802/26/06 16:40:31  5-MIN KDBQ 262240Z 24007KT 10SM FEW070 M01/M12 A3028 740 43 -900 240/07 RMK AO2
94908KDBQ DBQ20060226164509802/26/06 16:45:31  5-MIN KDBQ 262245Z 24009KT 10SM FEW070 M01/M12 A3028 750 41 -900 240/09 RMK AO2
94908KDBQ DBQ20060226165011202/26/06 16:50:31  5-MIN KDBQ 262250Z 24008KT 10SM CLR M01/M13 A3028 750 37 -900 240/08 RMK AO2 SLP273 T10061133
94908KDBQ DBQ20060226165511202/26/06 16:55:31  5-MIN KDBQ 262255Z 24008KT 10SM CLR M01/M13 A3027 750 39 -900 240/08 RMK AO2 SLP272 T10061128
94908KDBQ DBQ20060226170009502/26/06 17:00:31  5-MIN KDBQ 262300Z 23006KT 10SM CLR M01/M12 A3027 760 43 -900 230/06 RMK AO2
94908KDBQ DBQ20060226170509502/26/06 17:05:31  5-MIN KDBQ 262305Z 22005KT 10SM CLR M01/M12 A3027 760 43 -900 220/05 RMK AO2
94908KDBQ DBQ20060226171009502/26/06 17:10:31  5-MIN KDBQ 262310Z 23005KT 10SM CLR M01/M12 A3027 760 45 -900 230/05 RMK AO2
94908KDBQ DBQ20060226171509502/26/06 17:15:31  5-MIN KDBQ 262315Z 22005KT 10SM CLR M01/M12 A3026 760 43 -900 220/05 RMK AO2
94908KDBQ DBQ20060226172009502/26/06 17:20:31  5-MIN KDBQ 262320Z 22005KT 10SM CLR M01/M12 A3026 770 43 -900 220/05 RMK AO2
94908KDBQ DBQ20060226172509602/26/06 17:25:31  5-MIN KDBQ 262325Z 22005KT 10SM CLR M02/M12 A3026 770 44 -1000 220/05 RMK AO2
94908KDBQ DBQ20060226173009602/26/06 17:30:31  5-MIN KDBQ 262330Z 22005KT 10SM CLR M02/M13 A3026 770 42 -1000 220/05 RMK AO2
94908KDBQ DBQ20060226173509602/26/06 17:35:31  5-MIN KDBQ 262335Z 20004KT 10SM CLR M02/M13 A3026 770 42 -1000 200/04 RMK AO2
94908KDBQ DBQ20060226174009602/26/06 17:40:31  5-MIN KDBQ 262340Z 19005KT 10SM CLR M02/M12 A3026 770 46 -1100 190/05 RMK AO2
94908KDBQ DBQ20060226174509602/26/06 17:45:31  5-MIN KDBQ 262345Z 19005KT 10SM CLR M02/M12 A3025 770 46 -1100 190/05 RMK AO2
94908KDBQ DBQ20060226175013102/26/06 17:50:31  5-MIN KDBQ 262350Z 19006KT 10SM CLR M03/M12 A3025 780 48 -1100 190/06 RMK AO2 SLP264 T10281122 10000 21028 58039
94908KDBQ DBQ20060226175513102/26/06 17:55:31  5-MIN KDBQ 262355Z 19006KT 10SM CLR M03/M12 A3025 780 48 -1100 190/06 RMK AO2 SLP264 T10281122 10000 21028 56029
94908KDBQ DBQ20060226180009602/26/06 18:00:31  5-MIN KDBQ 270000Z 19006KT 10SM CLR M03/M12 A3025 780 50 -1200 190/06 RMK AO2
94908KDBQ DBQ20060226180509602/26/06 18:05:31  5-MIN KDBQ 270005Z 19005KT 10SM CLR M03/M12 A3025 780 50 -1200 190/05 RMK AO2
94908KDBQ DBQ20060226181009602/26/06 18:10:31  5-MIN KDBQ 270010Z 19005KT 10SM CLR M03/M12 A3025 780 53 -1200 190/05 RMK AO2
94908KDBQ DBQ20060226181509602/26/06 18:15:31  5-MIN KDBQ 270015Z 20004KT 10SM CLR M03/M12 A3025 780 50 -1200 200/04 RMK AO2
94908KDBQ DBQ20060226182009602/26/06 18:20:31  5-MIN KDBQ 270020Z 20004KT 10SM CLR M03/M13 A3025 780 48 -1200 190/04 RMK AO2
94908KDBQ DBQ20060226182509602/26/06 18:25:31  5-MIN KDBQ 270025Z 20004KT 10SM CLR M03/M13 A3024 780 48 -1200 200/04 RMK AO2
94908KDBQ DBQ20060226183009602/26/06 18:30:31  5-MIN KDBQ 270030Z 20005KT 10SM CLR M03/M13 A3024 780 48 -1200 200/05 RMK AO2
94908KDBQ DBQ20060226183509602/26/06 18:35:31  5-MIN KDBQ 270035Z 19005KT 10SM CLR M04/M13 A3024 790 50 -1300 190/05 RMK AO2
94908KDBQ DBQ20060226184009602/26/06 18:40:31  5-MIN KDBQ 270040Z 18005KT 10SM CLR M04/M13 A3024 790 50 -1300 180/05 RMK AO2
94908KDBQ DBQ20060226184509602/26/06 18:45:31  5-MIN KDBQ 270045Z 18005KT 10SM CLR M04/M12 A3023 790 52 -1300 180/05 RMK AO2
94908KDBQ DBQ20060226185011302/26/06 18:50:31  5-MIN KDBQ 270050Z 18005KT 10SM CLR M04/M12 A3023 790 55 -1300 180/05 RMK AO2 SLP259 T10391117
94908KDBQ DBQ20060226185511302/26/06 18:55:31  5-MIN KDBQ 270055Z 17005KT 10SM CLR M04/M12 A3023 790 52 -1200 170/05 RMK AO2 SLP258 T10391122
94908KDBQ DBQ20060226190009602/26/06 19:00:31  5-MIN KDBQ 270100Z 17005KT 10SM CLR M04/M12 A3023 790 55 -1200 170/05 RMK AO2
94908KDBQ DBQ20060226190509602/26/06 19:05:31  5-MIN KDBQ 270105Z 16005KT 10SM CLR M04/M12 A3023 790 55 -1200 160/05 RMK AO2
94908KDBQ DBQ20060226191009602/26/06 19:10:31  5-MIN KDBQ 270110Z 16005KT 10SM CLR M04/M12 A3023 790 57 -1300 160/05 RMK AO2
94908KDBQ DBQ20060226191509602/26/06 19:15:31  5-MIN KDBQ 270115Z 16005KT 10SM CLR M04/M12 A3023 790 55 -1300 160/05 RMK AO2
94908KDBQ DBQ20060226192009602/26/06 19:20:31  5-MIN KDBQ 270120Z 17005KT 10SM CLR M04/M12 A3023 800 55 -1300 170/05 RMK AO2
94908KDBQ DBQ20060226192510902/26/06 19:25:31  5-MIN KDBQ 270125Z AUTO 17004KT 10SM FEW120 M04/M12 A3023 790 55 -1300 170/04 RMK AO2 TSNO
94908KDBQ DBQ20060226195013302/26/06 19:50:31  5-MIN KDBQ 270150Z AUTO 17004KT 10SM BKN100 BKN120 M05/M12 A3022 810 60 -1400 170/04 RMK AO2 SLP254 T10501117 TSNO
94908KDBQ DBQ20060226195512602/26/06 19:55:31  5-MIN KDBQ 270155Z AUTO 18004KT 10SM BKN110 M04/M12 A3022 810 57 -1300 180/04 RMK AO2 SLP252 T10441117 TSNO
94908KDBQ DBQ20060226200011602/26/06 20:00:31  5-MIN KDBQ 270200Z AUTO 17004KT 10SM SCT095 OVC110 M04/M12 A3021 810 57 -1300 170/04 RMK AO2 TSNO
94908KDBQ DBQ20060226200511602/26/06 20:05:31  5-MIN KDBQ 270205Z AUTO 17004KT 10SM SCT095 OVC120 M05/M12 A3021 810 60 -1400 170/04 RMK AO2 TSNO
94908KDBQ DBQ20060226201011602/26/06 20:10:31  5-MIN KDBQ 270210Z AUTO 17006KT 10SM FEW090 OVC110 M04/M12 A3021 810 57 -1300 160/06 RMK AO2 TSNO
94908KDBQ DBQ20060226201510902/26/06 20:15:31  5-MIN KDBQ 270215Z AUTO 17006KT 10SM OVC110 M04/M12 A3021 820 52 -1200 170/06 RMK AO2 TSNO
94908KDBQ DBQ20060226202010902/26/06 20:20:31  5-MIN KDBQ 270220Z AUTO 17007KT 10SM OVC110 M04/M12 A3020 820 55 -1200 170/07 RMK AO2 TSNO
94908KDBQ DBQ20060226202510902/26/06 20:25:31  5-MIN KDBQ 270225Z AUTO 17008KT 10SM OVC110 M04/M12 A3020 820 55 -1200 170/08 RMK AO2 TSNO
94908KDBQ DBQ20060226203010902/26/06 20:30:31  5-MIN KDBQ 270230Z AUTO 17008KT 10SM OVC110 M04/M12 A3019 830 55 -1200 170/08 RMK AO2 TSNO
94908KDBQ DBQ20060226203510902/26/06 20:35:31  5-MIN KDBQ 270235Z AUTO 17006KT 10SM OVC110 M04/M12 A3019 830 55 -1200 170/06 RMK AO2 TSNO
94908KDBQ DBQ20060226204010902/26/06 20:40:31  5-MIN KDBQ 270240Z AUTO 17006KT 10SM OVC110 M04/M12 A3019 830 55 -1200 170/06 RMK AO2 TSNO
94908KDBQ DBQ20060226204510902/26/06 20:45:31  5-MIN KDBQ 270245Z AUTO 17006KT 10SM OVC100 M04/M12 A3019 830 55 -1200 170/06 RMK AO2 TSNO
94908KDBQ DBQ20060226205013202/26/06 20:50:31  5-MIN KDBQ 270250Z AUTO 16008KT 10SM OVC100 M04/M12 A3019 830 55 -1200 160/08 RMK AO2 SLP240 T10391117 56029 TSNO
94908KDBQ DBQ20060226205513202/26/06 20:55:31  5-MIN KDBQ 270255Z AUTO 16008KT 10SM OVC100 M03/M12 A3018 830 53 -1100 160/08 RMK AO2 SLP240 T10331117 58020 TSNO
94908KDBQ DBQ20060226210010902/26/06 21:00:31  5-MIN KDBQ 270300Z AUTO 16007KT 10SM OVC100 M03/M12 A3018 840 53 -1100 160/07 RMK AO2 TSNO
94908KDBQ DBQ20060226210510902/26/06 21:05:31  5-MIN KDBQ 270305Z AUTO 16008KT 10SM BKN100 M03/M12 A3018 840 53 -1100 160/08 RMK AO2 TSNO
94908KDBQ DBQ20060226211010902/26/06 21:10:31  5-MIN KDBQ 270310Z AUTO 16008KT 10SM BKN100 M03/M12 A3018 840 53 -1100 160/08 RMK AO2 TSNO
94908KDBQ DBQ20060226211510902/26/06 21:15:31  5-MIN KDBQ 270315Z AUTO 16008KT 10SM BKN100 M03/M12 A3018 840 53 -1100 160/08 RMK AO2 TSNO
94908KDBQ DBQ20060226212010902/26/06 21:20:31  5-MIN KDBQ 270320Z AUTO 16008KT 10SM BKN100 M03/M11 A3017 840 55 -1100 160/08 RMK AO2 TSNO
94908KDBQ DBQ20060226212510902/26/06 21:25:31  5-MIN KDBQ 270325Z AUTO 16007KT 10SM BKN100 M03/M11 A3017 850 55 -1100 160/07 RMK AO2 TSNO
94908KDBQ DBQ20060226213010902/26/06 21:30:31  5-MIN KDBQ 270330Z AUTO 16008KT 10SM BKN100 M03/M11 A3017 850 55 -1100 160/08 RMK AO2 TSNO
94908KDBQ DBQ20060226213510902/26/06 21:35:31  5-MIN KDBQ 270335Z AUTO 17008KT 10SM OVC100 M03/M11 A3017 850 55 -1100 170/08 RMK AO2 TSNO
94908KDBQ DBQ20060226214010902/26/06 21:40:31  5-MIN KDBQ 270340Z AUTO 17008KT 10SM OVC100 M03/M11 A3016 850 55 -1100 170/08 RMK AO2 TSNO
94908KDBQ DBQ20060226214510902/26/06 21:45:31  5-MIN KDBQ 270345Z AUTO 17007KT 10SM OVC100 M03/M11 A3016 860 57 -1100 170/07 RMK AO2 TSNO
94908KDBQ DBQ20060226215012602/26/06 21:50:31  5-MIN KDBQ 270350Z AUTO 19006KT 10SM OVC100 M03/M11 A3016 860 57 -1100 180/06 RMK AO2 SLP229 T10331106 TSNO
94908KDBQ DBQ20060226215512602/26/06 21:55:31  5-MIN KDBQ 270355Z AUTO 20006KT 10SM OVC100 M03/M10 A3015 860 60 -1100 200/06 RMK AO2 SLP227 T10331100 TSNO
94908KDBQ DBQ20060226220010902/26/06 22:00:31  5-MIN KDBQ 270400Z AUTO 19006KT 10SM OVC100 M03/M10 A3015 860 60 -1100 190/06 RMK AO2 TSNO
94908KDBQ DBQ20060226220510902/26/06 22:05:31  5-MIN KDBQ 270405Z AUTO 18005KT 10SM BKN100 M03/M10 A3015 860 60 -1100 180/05 RMK AO2 TSNO
94908KDBQ DBQ20060226221010902/26/06 22:10:31  5-MIN KDBQ 270410Z AUTO 19005KT 10SM BKN100 M03/M10 A3015 870 60 -1100 190/05 RMK AO2 TSNO
94908KDBQ DBQ20060226221510902/26/06 22:15:31  5-MIN KDBQ 270415Z AUTO 18006KT 10SM SCT100 M03/M10 A3015 870 60 -1100 180/06 RMK AO2 TSNO
94908KDBQ DBQ20060226222010902/26/06 22:20:31  5-MIN KDBQ 270420Z AUTO 18007KT 10SM FEW100 M03/M11 A3015 870 55 -1000 180/07 RMK AO2 TSNO
94908KDBQ DBQ20060226222510902/26/06 22:25:31  5-MIN KDBQ 270425Z AUTO 18007KT 10SM FEW100 M03/M10 A3014 870 58 -1000 180/07 RMK AO2 TSNO
94908KDBQ DBQ20060226223010602/26/06 22:30:31  5-MIN KDBQ 270430Z AUTO 19006KT 10SM CLR M03/M10 A3014 870 60 -1100 180/06 RMK AO2 TSNO
94908KDBQ DBQ20060226223510602/26/06 22:35:31  5-MIN KDBQ 270435Z AUTO 19007KT 10SM CLR M03/M10 A3014 870 60 -1100 190/07 RMK AO2 TSNO
94908KDBQ DBQ20060226224010602/26/06 22:40:31  5-MIN KDBQ 270440Z AUTO 19007KT 10SM CLR M03/M10 A3014 880 60 -1100 190/07 RMK AO2 TSNO
94908KDBQ DBQ20060226224510602/26/06 22:45:31  5-MIN KDBQ 270445Z AUTO 19007KT 10SM CLR M03/M10 A3013 880 60 -1100 190/07 RMK AO2 TSNO
94908KDBQ DBQ20060226225012302/26/06 22:50:31  5-MIN KDBQ 270450Z AUTO 19008KT 10SM CLR M03/M11 A3013 880 57 -1100 190/08 RMK AO2 SLP218 T10331106 TSNO
94908KDBQ DBQ20060226225512302/26/06 22:55:31  5-MIN KDBQ 270455Z AUTO 18008KT 10SM CLR M03/M11 A3013 880 57 -1100 180/08 RMK AO2 SLP218 T10331106 TSNO
94908KDBQ DBQ20060226230010602/26/06 23:00:31  5-MIN KDBQ 270500Z AUTO 18008KT 10SM CLR M03/M11 A3013 890 57 -1100 180/08 RMK AO2 TSNO
94908KDBQ DBQ20060226230510602/26/06 23:05:31  5-MIN KDBQ 270505Z AUTO 19006KT 10SM CLR M04/M11 A3013 890 60 -1100 190/06 RMK AO2 TSNO
94908KDBQ DBQ20060226231010902/26/06 23:10:31  5-MIN KDBQ 270510Z AUTO 19007KT 10SM FEW100 M04/M11 A3012 890 62 -1200 190/07 RMK AO2 TSNO
94908KDBQ DBQ20060226231510902/26/06 23:15:31  5-MIN KDBQ 270515Z AUTO 19007KT 10SM SCT100 M05/M11 A3012 890 65 -1300 190/07 RMK AO2 TSNO
94908KDBQ DBQ20060226232010902/26/06 23:20:31  5-MIN KDBQ 270520Z AUTO 20007KT 10SM BKN110 M05/M11 A3012 890 65 -1300 200/07 RMK AO2 TSNO
94908KDBQ DBQ20060226232510902/26/06 23:25:31  5-MIN KDBQ 270525Z AUTO 19008KT 10SM BKN100 M04/M11 A3012 900 60 -1200 190/08 RMK AO2 TSNO
94908KDBQ DBQ20060226233010902/26/06 23:30:31  5-MIN KDBQ 270530Z AUTO 19007KT 10SM BKN100 M04/M11 A3011 900 60 -1200 190/07 RMK AO2 TSNO
94908KDBQ DBQ20060226233510902/26/06 23:35:31  5-MIN KDBQ 270535Z AUTO 19007KT 10SM OVC100 M04/M11 A3011 900 57 -1100 190/07 RMK AO2 TSNO
94908KDBQ DBQ20060226234010902/26/06 23:40:31  5-MIN KDBQ 270540Z AUTO 19007KT 10SM OVC100 M04/M11 A3011 900 57 -1100 190/07 RMK AO2 TSNO
94908KDBQ DBQ20060226234510902/26/06 23:45:31  5-MIN KDBQ 270545Z AUTO 19007KT 10SM OVC100 M04/M11 A3011 910 60 -1200 190/07 RMK AO2 TSNO
94908KDBQ DBQ20060226235015402/26/06 23:50:31  5-MIN KDBQ 270550Z AUTO 19008KT 10SM OVC100 M04/M11 A3010 910 60 -1200 190/08 RMK AO2 SLP208 T10441111 11028 21050 400001161 58020 TSNO
94908KDBQ DBQ20060226235515402/26/06 23:55:31  5-MIN KDBQ 270555Z AUTO 19008KT 10SM OVC100 M04/M11 A3010 920 60 -1200 190/08 RMK AO2 SLP207 T10441111 11028 21050 400001161 58029 TSNO
94908KDBQ DBQ20060227000010902/27/06 00:00:38  5-MIN KDBQ 270600Z AUTO 19008KT 10SM OVC100 M04/M11 A3009 920 60 -1200 190/08 RMK AO2 TSNO
94908KDBQ DBQ20060227000510902/27/06 00:05:31  5-MIN KDBQ 270605Z AUTO 19008KT 10SM OVC100 M04/M11 A3009 920 60 -1200 190/08 RMK AO2 TSNO
94908KDBQ DBQ20060227001010902/27/06 00:10:31  5-MIN KDBQ 270610Z AUTO 19008KT 10SM OVC100 M04/M11 A3009 920 57 -1100 190/08 RMK AO2 TSNO
94908KDBQ DBQ20060227001510902/27/06 00:15:31  5-MIN KDBQ 270615Z AUTO 19007KT 10SM OVC100 M04/M11 A3009 920 57 -1100 190/07 RMK AO2 TSNO
94908KDBQ DBQ20060227002010902/27/06 00:20:31  5-MIN KDBQ 270620Z AUTO 19007KT 10SM OVC100 M04/M11 A3009 930 62 -1200 190/07 RMK AO2 TSNO
94908KDBQ DBQ20060227002510902/27/06 00:25:31  5-MIN KDBQ 270625Z AUTO 19007KT 10SM OVC100 M04/M11 A3008 930 62 -1200 190/07 RMK AO2 TSNO
94908KDBQ DBQ20060227003010902/27/06 00:30:31  5-MIN KDBQ 270630Z AUTO 19008KT 10SM OVC110 M04/M11 A3008 930 62 -1100 190/08 RMK AO2 TSNO
94908KDBQ DBQ20060227003510902/27/06 00:35:31  5-MIN KDBQ 270635Z AUTO 19008KT 10SM OVC110 M04/M11 A3008 930 60 -1100 190/08 RMK AO2 TSNO
94908KDBQ DBQ20060227004010902/27/06 00:40:31  5-MIN KDBQ 270640Z AUTO 19008KT 10SM OVC110 M04/M11 A3008 930 60 -1100 190/08 RMK AO2 TSNO
94908KDBQ DBQ20060227004510902/27/06 00:45:31  5-MIN KDBQ 270645Z AUTO 19008KT 10SM OVC110 M04/M11 A3008 930 60 -1100 190/08 RMK AO2 TSNO
94908KDBQ DBQ20060227005012602/27/06 00:50:31  5-MIN KDBQ 270650Z AUTO 19008KT 10SM OVC110 M04/M11 A3008 930 60 -1100 190/08 RMK AO2 SLP200 T10391106 TSNO
94908KDBQ DBQ20060227005512602/27/06 00:55:31  5-MIN KDBQ 270655Z AUTO 19008KT 10SM OVC110 M04/M11 A3008 930 60 -1100 190/08 RMK AO2 SLP200 T10391106 TSNO
94908KDBQ DBQ20060227010010902/27/06 01:00:31  5-MIN KDBQ 270700Z AUTO 19008KT 10SM OVC110 M03/M11 A3007 940 57 -1000 190/08 RMK AO2 TSNO
94908KDBQ DBQ20060227010510902/27/06 01:05:31  5-MIN KDBQ 270705Z AUTO 19008KT 10SM OVC110 M03/M11 A3007 940 57 -1000 190/08 RMK AO2 TSNO
94908KDBQ DBQ20060227011010902/27/06 01:10:31  5-MIN KDBQ 270710Z AUTO 19008KT 10SM OVC120 M03/M10 A3007 940 60 -1000 190/08 RMK AO2 TSNO
94908KDBQ DBQ20060227011510902/27/06 01:15:31  5-MIN KDBQ 270715Z AUTO 18009KT 10SM OVC120 M03/M10 A3007 940 60 -1000 180/09 RMK AO2 TSNO
94908KDBQ DBQ20060227012010802/27/06 01:20:31  5-MIN KDBQ 270720Z AUTO 19009KT 10SM OVC120 M03/M10 A3007 940 58 -900 190/09 RMK AO2 TSNO
94908KDBQ DBQ20060227012510802/27/06 01:25:31  5-MIN KDBQ 270725Z AUTO 18009KT 10SM OVC120 M03/M10 A3007 940 58 -900 180/09 RMK AO2 TSNO
94908KDBQ DBQ20060227013010802/27/06 01:30:31  5-MIN KDBQ 270730Z AUTO 18010KT 10SM OVC120 M03/M10 A3006 950 58 -900 180/10 RMK AO2 TSNO
94908KDBQ DBQ20060227013510802/27/06 01:35:31  5-MIN KDBQ 270735Z AUTO 19009KT 10SM OVC120 M03/M10 A3006 950 58 -900 190/09 RMK AO2 TSNO
94908KDBQ DBQ20060227014010802/27/06 01:40:31  5-MIN KDBQ 270740Z AUTO 18009KT 10SM OVC120 M03/M10 A3006 950 58 -900 180/09 RMK AO2 TSNO
94908KDBQ DBQ20060227014510802/27/06 01:45:31  5-MIN KDBQ 270745Z AUTO 18009KT 10SM OVC120 M03/M10 A3006 950 58 -900 180/09 RMK AO2 TSNO
94908KDBQ DBQ20060227015012502/27/06 01:50:31  5-MIN KDBQ 270750Z AUTO 18009KT 10SM OVC120 M03/M10 A3006 950 58 -900 180/09 RMK AO2 SLP193 T10281100 TSNO
94908KDBQ DBQ20060227015512502/27/06 01:55:31  5-MIN KDBQ 270755Z AUTO 18009KT 10SM OVC120 M02/M10 A3006 950 55 -800 180/09 RMK AO2 SLP192 T10221100 TSNO
94908KDBQ DBQ20060227020010802/27/06 02:00:31  5-MIN KDBQ 270800Z AUTO 19008KT 10SM BKN120 M03/M10 A3006 950 58 -900 180/08 RMK AO2 TSNO
94908KDBQ DBQ20060227020510802/27/06 02:05:31  5-MIN KDBQ 270805Z AUTO 19008KT 10SM BKN120 M03/M10 A3006 950 58 -900 190/08 RMK AO2 TSNO
94908KDBQ DBQ20060227021010802/27/06 02:10:31  5-MIN KDBQ 270810Z AUTO 19008KT 10SM BKN120 M03/M10 A3005 950 58 -900 190/08 RMK AO2 TSNO
94908KDBQ DBQ20060227021510802/27/06 02:15:31  5-MIN KDBQ 270815Z AUTO 19008KT 10SM BKN120 M03/M10 A3005 960 58 -900 190/08 RMK AO2 TSNO
94908KDBQ DBQ20060227022010802/27/06 02:20:31  5-MIN KDBQ 270820Z AUTO 19008KT 10SM BKN120 M03/M09 A3005 960 60 -900 180/08 RMK AO2 TSNO
94908KDBQ DBQ20060227022510802/27/06 02:25:31  5-MIN KDBQ 270825Z AUTO 19007KT 10SM BKN120 M03/M09 A3004 960 60 -900 180/07 RMK AO2 TSNO
94908KDBQ DBQ20060227023011502/27/06 02:30:31  5-MIN KDBQ 270830Z AUTO 19007KT 10SM FEW100 BKN120 M03/M09 A3004 960 60 -900 190/07 RMK AO2 TSNO
94908KDBQ DBQ20060227023511502/27/06 02:35:31  5-MIN KDBQ 270835Z AUTO 19008KT 10SM FEW100 BKN120 M03/M09 A3004 970 60 -900 190/08 RMK AO2 TSNO
94908KDBQ DBQ20060227024011502/27/06 02:40:31  5-MIN KDBQ 270840Z AUTO 19007KT 10SM FEW100 BKN120 M03/M09 A3004 970 60 -900 190/07 RMK AO2 TSNO
94908KDBQ DBQ20060227024511502/27/06 02:45:31  5-MIN KDBQ 270845Z AUTO 19007KT 10SM FEW100 OVC120 M03/M09 A3003 970 60 -900 190/07 RMK AO2 TSNO
94908KDBQ DBQ20060227025013802/27/06 02:50:31  5-MIN KDBQ 270850Z AUTO 19006KT 10SM FEW100 OVC120 M03/M09 A3003 980 60 -900 190/06 RMK AO2 SLP183 T10281094 58029 TSNO
94908KDBQ DBQ20060227025513802/27/06 02:55:31  5-MIN KDBQ 270855Z AUTO 19006KT 10SM FEW100 OVC120 M03/M09 A3003 980 60 -900 190/06 RMK AO2 SLP183 T10281094 58022 TSNO
94908KDBQ DBQ20060227030010802/27/06 03:00:31  5-MIN KDBQ 270900Z AUTO 19005KT 10SM OVC120 M03/M09 A3003 980 60 -900 180/05 RMK AO2 TSNO
94908KDBQ DBQ20060227030510802/27/06 03:05:31  5-MIN KDBQ 270905Z AUTO 18006KT 10SM OVC120 M03/M09 A3002 980 63 -900 180/06 RMK AO2 TSNO
94908KDBQ DBQ20060227031010802/27/06 03:10:31  5-MIN KDBQ 270910Z AUTO 19006KT 10SM OVC120 M03/M09 A3002 990 60 -900 190/06 RMK AO2 TSNO
94908KDBQ DBQ20060227031510802/27/06 03:15:31  5-MIN KDBQ 270915Z AUTO 18006KT 10SM OVC120 M03/M09 A3002 990 63 -900 180/06 RMK AO2 TSNO
94908KDBQ DBQ20060227032010802/27/06 03:20:31  5-MIN KDBQ 270920Z AUTO 18006KT 10SM OVC120 M03/M09 A3001 990 63 -900 180/06 RMK AO2 TSNO
94908KDBQ DBQ20060227032510902/27/06 03:25:31  5-MIN KDBQ 270925Z AUTO 18007KT 10SM OVC120 M03/M09 A3001 1000 60 -900 180/07 RMK AO2 TSNO
94908KDBQ DBQ20060227033010902/27/06 03:30:31  5-MIN KDBQ 270930Z AUTO 18007KT 10SM OVC120 M03/M09 A3001 1000 60 -800 180/07 RMK AO2 TSNO
94908KDBQ DBQ20060227033510902/27/06 03:35:31  5-MIN KDBQ 270935Z AUTO 18007KT 10SM OVC120 M03/M09 A3000 1000 63 -800 180/07 RMK AO2 TSNO
94908KDBQ DBQ20060227034010902/27/06 03:40:31  5-MIN KDBQ 270940Z AUTO 18007KT 10SM OVC120 M03/M09 A3000 1000 60 -800 180/07 RMK AO2 TSNO
94908KDBQ DBQ20060227034510902/27/06 03:45:31  5-MIN KDBQ 270945Z AUTO 18007KT 10SM OVC120 M03/M09 A3000 1010 60 -800 170/07 RMK AO2 TSNO
94908KDBQ DBQ20060227035012602/27/06 03:50:31  5-MIN KDBQ 270950Z AUTO 18008KT 10SM OVC120 M03/M09 A2999 1010 60 -800 170/08 RMK AO2 SLP170 T10281094 TSNO
94908KDBQ DBQ20060227035512602/27/06 03:55:31  5-MIN KDBQ 270955Z AUTO 18007KT 10SM OVC120 M03/M09 A2999 1010 60 -800 180/07 RMK AO2 SLP169 T10281094 TSNO
94908KDBQ DBQ20060227040010902/27/06 04:00:31  5-MIN KDBQ 271000Z AUTO 18007KT 10SM OVC110 M03/M09 A2999 1010 60 -800 180/07 RMK AO2 TSNO
94908KDBQ DBQ20060227040510902/27/06 04:05:31  5-MIN KDBQ 271005Z AUTO 18007KT 10SM OVC110 M03/M09 A2999 1020 60 -800 180/07 RMK AO2 TSNO
94908KDBQ DBQ20060227041010902/27/06 04:10:31  5-MIN KDBQ 271010Z AUTO 18007KT 10SM OVC110 M03/M09 A2998 1020 60 -800 180/07 RMK AO2 TSNO
94908KDBQ DBQ20060227041510902/27/06 04:15:31  5-MIN KDBQ 271015Z AUTO 18006KT 10SM OVC110 M03/M09 A2998 1020 60 -800 170/06 RMK AO2 TSNO
94908KDBQ DBQ20060227042010902/27/06 04:20:31  5-MIN KDBQ 271020Z AUTO 17006KT 10SM OVC110 M02/M09 A2998 1020 58 -700 170/06 RMK AO2 TSNO
94908KDBQ DBQ20060227042510902/27/06 04:25:31  5-MIN KDBQ 271025Z AUTO 17006KT 10SM BKN110 M02/M09 A2998 1020 58 -700 170/06 RMK AO2 TSNO
94908KDBQ DBQ20060227043010902/27/06 04:30:31  5-MIN KDBQ 271030Z AUTO 17005KT 10SM BKN110 M02/M09 A2998 1030 58 -700 170/05 RMK AO2 TSNO
94908KDBQ DBQ20060227043510902/27/06 04:35:31  5-MIN KDBQ 271035Z AUTO 18006KT 10SM BKN120 M02/M09 A2998 1030 58 -700 170/06 RMK AO2 TSNO
94908KDBQ DBQ20060227044010902/27/06 04:40:31  5-MIN KDBQ 271040Z AUTO 17006KT 10SM BKN120 M02/M09 A2998 1030 55 -700 170/06 RMK AO2 TSNO
94908KDBQ DBQ20060227044510902/27/06 04:45:31  5-MIN KDBQ 271045Z AUTO 17006KT 10SM BKN120 M02/M09 A2997 1030 55 -700 170/06 RMK AO2 TSNO
94908KDBQ DBQ20060227045012602/27/06 04:50:31  5-MIN KDBQ 271050Z AUTO 17006KT 10SM BKN120 M02/M09 A2997 1030 55 -700 170/06 RMK AO2 SLP162 T10171094 TSNO
94908KDBQ DBQ20060227045512602/27/06 04:55:31  5-MIN KDBQ 271055Z AUTO 17006KT 10SM BKN120 M02/M09 A2997 1030 55 -700 170/06 RMK AO2 SLP163 T10171094 TSNO
94908KDBQ DBQ20060227050010902/27/06 05:00:31  5-MIN KDBQ 271100Z AUTO 17004KT 10SM SCT120 M02/M09 A2997 1030 55 -700 170/04 RMK AO2 TSNO
94908KDBQ DBQ20060227050510902/27/06 05:05:31  5-MIN KDBQ 271105Z AUTO 17003KT 10SM BKN120 M02/M09 A2998 1030 55 -700 170/03 RMK AO2 TSNO
94908KDBQ DBQ20060227051010902/27/06 05:10:31  5-MIN KDBQ 271110Z AUTO 07003KT 10SM BKN120 M02/M09 A2998 1020 55 -700 070/03 RMK AO2 TSNO
94908KDBQ DBQ20060227051510902/27/06 05:15:31  5-MIN KDBQ 271115Z AUTO 04007KT 10SM BKN120 M02/M09 A2998 1020 58 -700 040/07 RMK AO2 TSNO
94908KDBQ DBQ20060227052010902/27/06 05:20:31  5-MIN KDBQ 271120Z AUTO 06005KT 10SM BKN120 M02/M09 A2998 1020 55 -700 060/05 RMK AO2 TSNO
94908KDBQ DBQ20060227052510902/27/06 05:25:31  5-MIN KDBQ 271125Z AUTO 03009KT 10SM OVC120 M02/M09 A2998 1020 58 -800 030/09 RMK AO2 TSNO
94908KDBQ DBQ20060227053010902/27/06 05:30:31  5-MIN KDBQ 271130Z AUTO 04009KT 10SM OVC120 M02/M09 A2998 1020 60 -700 040/09 RMK AO2 TSNO
94908KDBQ DBQ20060227053510902/27/06 05:35:31  5-MIN KDBQ 271135Z AUTO 04007KT 10SM OVC120 M03/M09 A2998 1020 63 -800 040/07 RMK AO2 TSNO
94908KDBQ DBQ20060227054010902/27/06 05:40:31  5-MIN KDBQ 271140Z AUTO 04007KT 10SM OVC120 M03/M09 A2998 1030 63 -800 040/07 RMK AO2 TSNO
94908KDBQ DBQ20060227054510902/27/06 05:45:31  5-MIN KDBQ 271145Z AUTO 04007KT 10SM OVC120 M03/M09 A2998 1020 63 -800 040/07 RMK AO2 TSNO
94908KDBQ DBQ20060227055014402/27/06 05:50:31  5-MIN KDBQ 271150Z AUTO 04008KT 10SM OVC120 M03/M09 A2998 1030 63 -800 040/08 RMK AO2 SLP166 T10281089 11017 21044 58022 TSNO
94908KDBQ DBQ20060227055514402/27/06 05:55:31  5-MIN KDBQ 271155Z AUTO 05007KT 10SM OVC120 M03/M09 A2998 1030 63 -800 050/07 RMK AO2 SLP166 T10281089 11017 21044 55018 TSNO
94908KDBQ DBQ20060227060010902/27/06 06:00:31  5-MIN KDBQ 271200Z AUTO 06006KT 10SM OVC110 M03/M09 A2998 1030 63 -800 060/06 RMK AO2 TSNO
94908KDBQ DBQ20060227060509902/27/06 06:05:31  5-MIN KDBQ 271205Z 06006KT 10SM OVC110 M03/M09 A2997 1030 63 -800 060/06 RMK AO2
94908KDBQ DBQ20060227061009902/27/06 06:10:31  5-MIN KDBQ 271210Z 05006KT 10SM OVC110 M03/M09 A2998 1020 63 -800 050/06 RMK AO2
94908KDBQ DBQ20060227061509902/27/06 06:15:31  5-MIN KDBQ 271215Z 05008KT 10SM OVC110 M03/M09 A2998 1030 63 -800 050/08 RMK AO2
94908KDBQ DBQ20060227062009902/27/06 06:20:31  5-MIN KDBQ 271220Z 06007KT 10SM OVC110 M03/M09 A2998 1030 60 -800 060/07 RMK AO2
94908KDBQ DBQ20060227062509902/27/06 06:25:31  5-MIN KDBQ 271225Z 06008KT 10SM OVC110 M03/M09 A2997 1030 60 -800 060/08 RMK AO2
94908KDBQ DBQ20060227063009902/27/06 06:30:31  5-MIN KDBQ 271230Z 06008KT 10SM OVC110 M03/M09 A2998 1030 60 -800 060/08 RMK AO2
94908KDBQ DBQ20060227063509902/27/06 06:35:31  5-MIN KDBQ 271235Z 04008KT 10SM OVC110 M03/M09 A2998 1030 60 -800 040/08 RMK AO2
94908KDBQ DBQ20060227064009902/27/06 06:40:31  5-MIN KDBQ 271240Z 04009KT 10SM BKN110 M03/M09 A2997 1030 60 -800 040/09 RMK AO2
94908KDBQ DBQ20060227064509902/27/06 06:45:31  5-MIN KDBQ 271245Z 04009KT 10SM BKN110 M03/M09 A2997 1030 63 -900 040/09 RMK AO2
94908KDBQ DBQ20060227065011602/27/06 06:50:31  5-MIN KDBQ 271250Z 04010KT 10SM BKN110 M03/M09 A2997 1030 65 -900 040/10 RMK AO2 SLP164 T10331089
94908KDBQ DBQ20060227065511602/27/06 06:55:31  5-MIN KDBQ 271255Z 04010KT 10SM BKN110 M03/M09 A2997 1030 65 -900 040/10 RMK AO2 SLP163 T10331089
94908KDBQ DBQ20060227070009902/27/06 07:00:31  5-MIN KDBQ 271300Z 04009KT 10SM BKN110 M03/M09 A2997 1030 65 -900 040/09 RMK AO2
94908KDBQ DBQ20060227070509902/27/06 07:05:31  5-MIN KDBQ 271305Z 05009KT 10SM BKN110 M03/M09 A2997 1030 65 -900 050/09 RMK AO2
94908KDBQ DBQ20060227071009902/27/06 07:10:31  5-MIN KDBQ 271310Z 05009KT 10SM BKN110 M03/M09 A2997 1030 65 -900 050/09 RMK AO2
94908KDBQ DBQ20060227071509902/27/06 07:15:31  5-MIN KDBQ 271315Z 05009KT 10SM BKN110 M03/M09 A2997 1030 65 -900 050/09 RMK AO2
94908KDBQ DBQ20060227072009902/27/06 07:20:31  5-MIN KDBQ 271320Z 05009KT 10SM BKN110 M03/M09 A2997 1030 65 -900 050/09 RMK AO2
94908KDBQ DBQ20060227072509902/27/06 07:25:31  5-MIN KDBQ 271325Z 05010KT 10SM SCT110 M03/M09 A2998 1030 65 -900 040/10 RMK AO2
94908KDBQ DBQ20060227073009902/27/06 07:30:31  5-MIN KDBQ 271330Z 05010KT 10SM SCT110 M03/M09 A2997 1030 65 -900 050/10 RMK AO2
94908KDBQ DBQ20060227073509902/27/06 07:35:31  5-MIN KDBQ 271335Z 05010KT 10SM SCT110 M03/M09 A2998 1030 65 -900 040/10 RMK AO2
94908KDBQ DBQ20060227074009902/27/06 07:40:31  5-MIN KDBQ 271340Z 05010KT 10SM FEW110 M03/M09 A2997 1030 65 -900 050/10 RMK AO2
94908KDBQ DBQ20060227074509602/27/06 07:45:31  5-MIN KDBQ 271345Z 05009KT 10SM CLR M03/M09 A2997 1030 65 -900 050/09 RMK AO2
94908KDBQ DBQ20060227075011302/27/06 07:50:31  5-MIN KDBQ 271350Z 06009KT 10SM CLR M03/M09 A2997 1030 63 -800 050/09 RMK AO2 SLP165 T10281089
94908KDBQ DBQ20060227075511302/27/06 07:55:31  5-MIN KDBQ 271355Z 06011KT 10SM CLR M03/M09 A2997 1030 63 -800 060/11 RMK AO2 SLP164 T10281089
94908KDBQ DBQ20060227080009602/27/06 08:00:31  5-MIN KDBQ 271400Z 06009KT 10SM CLR M03/M09 A2997 1030 60 -800 060/09 RMK AO2
94908KDBQ DBQ20060227080509602/27/06 08:05:31  5-MIN KDBQ 271405Z 07010KT 10SM CLR M03/M09 A2997 1030 63 -800 060/10 RMK AO2
94908KDBQ DBQ20060227081009602/27/06 08:10:31  5-MIN KDBQ 271410Z 07011KT 10SM CLR M03/M09 A2998 1030 63 -800 070/11 RMK AO2
94908KDBQ DBQ20060227081509602/27/06 08:15:31  5-MIN KDBQ 271415Z 07010KT 10SM CLR M03/M09 A2997 1030 60 -800 070/10 RMK AO2
94908KDBQ DBQ20060227082009602/27/06 08:20:31  5-MIN KDBQ 271420Z 07009KT 10SM CLR M03/M09 A2998 1030 60 -800 070/09 RMK AO2
94908KDBQ DBQ20060227082509902/27/06 08:25:31  5-MIN KDBQ 271425Z 06010KT 10SM FEW120 M03/M09 A2998 1020 60 -800 060/10 RMK AO2
94908KDBQ DBQ20060227083009602/27/06 08:30:31  5-MIN KDBQ 271430Z 06009KT 10SM CLR M02/M09 A2998 1020 58 -800 050/09 RMK AO2
94908KDBQ DBQ20060227083509602/27/06 08:35:31  5-MIN KDBQ 271435Z 06010KT 10SM CLR M02/M09 A2998 1020 58 -700 060/10 RMK AO2
94908KDBQ DBQ20060227084009602/27/06 08:40:31  5-MIN KDBQ 271440Z 06011KT 10SM CLR M02/M09 A2998 1020 58 -700 060/11 RMK AO2
94908KDBQ DBQ20060227084509602/27/06 08:45:31  5-MIN KDBQ 271445Z 06011KT 10SM CLR M02/M09 A2998 1020 55 -700 060/11 RMK AO2
94908KDBQ DBQ20060227085011902/27/06 08:50:31  5-MIN KDBQ 271450Z 07012KT 10SM CLR M02/M09 A2998 1030 55 -700 070/12 RMK AO2 SLP166 T10171094 55018
94908KDBQ DBQ20060227085511902/27/06 08:55:31  5-MIN KDBQ 271455Z 06011KT 10SM CLR M02/M09 A2998 1020 55 -700 060/11 RMK AO2 SLP165 T10171094 53001
94908KDBQ DBQ20060227090009602/27/06 09:00:31  5-MIN KDBQ 271500Z 07011KT 10SM CLR M02/M09 A2998 1020 55 -700 070/11 RMK AO2
94908KDBQ DBQ20060227090509602/27/06 09:05:31  5-MIN KDBQ 271505Z 07012KT 10SM CLR M01/M10 A2998 1030 51 -600 070/12 RMK AO2
94908KDBQ DBQ20060227091009902/27/06 09:10:31  5-MIN KDBQ 271510Z 07011KT 10SM FEW110 M01/M09 A2998 1030 53 -600 070/11 RMK AO2
94908KDBQ DBQ20060227091509902/27/06 09:15:31  5-MIN KDBQ 271515Z 07011KT 10SM FEW110 M01/M09 A2997 1030 53 -600 070/11 RMK AO2
94908KDBQ DBQ20060227092009902/27/06 09:20:31  5-MIN KDBQ 271520Z 07010KT 10SM FEW110 M01/M09 A2997 1030 53 -600 070/10 RMK AO2
94908KDBQ DBQ20060227092509902/27/06 09:25:31  5-MIN KDBQ 271525Z 07011KT 10SM FEW110 M01/M09 A2997 1040 53 -600 070/11 RMK AO2
94908KDBQ DBQ20060227093009902/27/06 09:30:31  5-MIN KDBQ 271530Z 07009KT 10SM FEW110 M01/M09 A2997 1040 53 -600 070/09 RMK AO2
94908KDBQ DBQ20060227093509902/27/06 09:35:31  5-MIN KDBQ 271535Z 08008KT 10SM FEW110 M01/M09 A2996 1040 53 -500 070/08 RMK AO2
94908KDBQ DBQ20060227094009602/27/06 09:40:31  5-MIN KDBQ 271540Z 08010KT 10SM CLR M01/M09 A2996 1040 51 -500 080/10 RMK AO2
94908KDBQ DBQ20060227094509602/27/06 09:45:31  5-MIN KDBQ 271545Z 08009KT 10SM CLR M01/M09 A2996 1040 51 -500 080/09 RMK AO2
94908KDBQ DBQ20060227095011302/27/06 09:50:31  5-MIN KDBQ 271550Z 07009KT 10SM CLR M01/M09 A2996 1040 51 -500 070/09 RMK AO2 SLP158 T10061094
94908KDBQ DBQ20060227095511202/27/06 09:55:31  5-MIN KDBQ 271555Z 07008KT 10SM CLR 00/M09 A2995 1050 49 -400 070/08 RMK AO2 SLP157 T00001094
94908KDBQ DBQ20060227100009502/27/06 10:00:31  5-MIN KDBQ 271600Z 08009KT 10SM CLR 00/M09 A2995 1050 49 -400 080/09 RMK AO2
94908KDBQ DBQ20060227100509502/27/06 10:05:31  5-MIN KDBQ 271605Z 07010KT 10SM CLR 00/M09 A2995 1050 49 -400 070/10 RMK AO2
94908KDBQ DBQ20060227101009502/27/06 10:10:31  5-MIN KDBQ 271610Z 07011KT 10SM CLR 00/M09 A2995 1050 51 -400 070/11 RMK AO2
94908KDBQ DBQ20060227101509502/27/06 10:15:31  5-MIN KDBQ 271615Z 08010KT 10SM CLR 00/M09 A2995 1060 49 -400 080/10 RMK AO2
94908KDBQ DBQ20060227102009502/27/06 10:20:31  5-MIN KDBQ 271620Z 08011KT 10SM CLR 00/M09 A2994 1060 51 -400 070/11 RMK AO2
94908KDBQ DBQ20060227102509502/27/06 10:25:31  5-MIN KDBQ 271625Z 07010KT 10SM CLR 01/M09 A2994 1060 49 -400 070/10 RMK AO2
94908KDBQ DBQ20060227103009502/27/06 10:30:31  5-MIN KDBQ 271630Z 06011KT 10SM CLR 01/M09 A2994 1060 49 -400 060/11 RMK AO2
94908KDBQ DBQ20060227103509502/27/06 10:35:31  5-MIN KDBQ 271635Z 06011KT 10SM CLR 01/M09 A2995 1050 49 -400 060/11 RMK AO2
94908KDBQ DBQ20060227104009502/27/06 10:40:31  5-MIN KDBQ 271640Z 05012KT 10SM CLR 01/M09 A2995 1050 49 -400 050/12 RMK AO2
94908KDBQ DBQ20060227104509502/27/06 10:45:31  5-MIN KDBQ 271645Z 05011KT 10SM CLR 01/M09 A2995 1050 49 -400 050/11 RMK AO2
94908KDBQ DBQ20060227105011202/27/06 10:50:31  5-MIN KDBQ 271650Z 05010KT 10SM CLR 01/M08 A2995 1050 51 -400 050/10 RMK AO2 SLP154 T00061083
94908KDBQ DBQ20060227105511202/27/06 10:55:31  5-MIN KDBQ 271655Z 05011KT 10SM CLR 01/M08 A2995 1050 51 -400 040/11 RMK AO2 SLP154 T00061083
94908KDBQ DBQ20060227110009502/27/06 11:00:31  5-MIN KDBQ 271700Z 05011KT 10SM CLR 01/M08 A2995 1060 51 -400 050/11 RMK AO2
94908KDBQ DBQ20060227110509502/27/06 11:05:31  5-MIN KDBQ 271705Z 07010KT 10SM CLR 01/M08 A2994 1060 51 -300 070/10 RMK AO2
94908KDBQ DBQ20060227111009502/27/06 11:10:31  5-MIN KDBQ 271710Z 08008KT 10SM CLR 01/M08 A2994 1060 49 -300 080/08 RMK AO2
94908KDBQ DBQ20060227111509502/27/06 11:15:31  5-MIN KDBQ 271715Z 07010KT 10SM CLR 02/M08 A2994 1060 49 -200 070/10 RMK AO2
94908KDBQ DBQ20060227112009502/27/06 11:20:31  5-MIN KDBQ 271720Z 08011KT 10SM CLR 01/M08 A2994 1060 49 -300 080/11 RMK AO2
94908KDBQ DBQ20060227112509502/27/06 11:25:31  5-MIN KDBQ 271725Z 07011KT 10SM CLR 01/M08 A2994 1060 51 -300 070/11 RMK AO2
94908KDBQ DBQ20060227113009502/27/06 11:30:31  5-MIN KDBQ 271730Z 06010KT 10SM CLR 01/M08 A2994 1060 51 -300 060/10 RMK AO2
94908KDBQ DBQ20060227113509502/27/06 11:35:31  5-MIN KDBQ 271735Z 06010KT 10SM CLR 02/M08 A2994 1060 49 -200 060/10 RMK AO2
94908KDBQ DBQ20060227114009502/27/06 11:40:31  5-MIN KDBQ 271740Z 06011KT 10SM CLR 02/M08 A2994 1060 49 -200 060/11 RMK AO2
94908KDBQ DBQ20060227114509502/27/06 11:45:31  5-MIN KDBQ 271745Z 06013KT 10SM CLR 02/M07 A2994 1060 52 -200 060/13 RMK AO2
94908KDBQ DBQ20060227115013002/27/06 11:50:31  5-MIN KDBQ 271750Z 06011KT 10SM CLR 02/M08 A2994 1060 49 -200 060/11 RMK AO2 SLP151 T00171078 10017 21033 53001
94908KDBQ DBQ20060227115513002/27/06 11:55:31  5-MIN KDBQ 271755Z 06009KT 10SM CLR 02/M08 A2994 1060 49 -200 060/09 RMK AO2 SLP150 T00171078 10017 21033 56014
94908KDBQ DBQ20060227120009502/27/06 12:00:31  5-MIN KDBQ 271800Z 06013KT 10SM CLR 02/M07 A2994 1060 52 -200 060/13 RMK AO2
94908KDBQ DBQ20060227120509502/27/06 12:05:31  5-MIN KDBQ 271805Z 06011KT 10SM CLR 02/M07 A2994 1060 52 -200 050/11 RMK AO2
94908KDBQ DBQ20060227121009502/27/06 12:10:31  5-MIN KDBQ 271810Z 05013KT 10SM CLR 02/M07 A2994 1060 54 -200 050/13 RMK AO2
94908KDBQ DBQ20060227121509502/27/06 12:15:31  5-MIN KDBQ 271815Z 04013KT 10SM CLR 02/M07 A2994 1060 54 -200 040/13 RMK AO2
94908KDBQ DBQ20060227122009502/27/06 12:20:31  5-MIN KDBQ 271820Z 05013KT 10SM CLR 02/M07 A2994 1060 54 -200 050/13 RMK AO2
94908KDBQ DBQ20060227122509502/27/06 12:25:31  5-MIN KDBQ 271825Z 05014KT 10SM CLR 02/M07 A2994 1060 54 -200 050/14 RMK AO2
94908KDBQ DBQ20060227123009502/27/06 12:30:31  5-MIN KDBQ 271830Z 04012KT 10SM CLR 01/M07 A2994 1060 56 -300 040/12 RMK AO2
94908KDBQ DBQ20060227123509502/27/06 12:35:31  5-MIN KDBQ 271835Z 05015KT 10SM CLR 01/M07 A2994 1060 56 -300 050/15 RMK AO2
94908KDBQ DBQ20060227124009502/27/06 12:40:31  5-MIN KDBQ 271840Z 06014KT 10SM CLR 02/M07 A2994 1060 54 -200 060/14 RMK AO2
94908KDBQ DBQ20060227124509502/27/06 12:45:31  5-MIN KDBQ 271845Z 06012KT 10SM CLR 02/M07 A2994 1060 54 -200 060/12 RMK AO2
94908KDBQ DBQ20060227125011202/27/06 12:50:31  5-MIN KDBQ 271850Z 05015KT 10SM CLR 02/M06 A2994 1060 56 -200 050/15 RMK AO2 SLP150 T00171061
94908KDBQ DBQ20060227125511202/27/06 12:55:31  5-MIN KDBQ 271855Z 05013KT 10SM CLR 02/M06 A2993 1070 56 -200 040/13 RMK AO2 SLP149 T00171061
94908KDBQ DBQ20060227130009502/27/06 13:00:31  5-MIN KDBQ 271900Z 05014KT 10SM CLR 02/M06 A2993 1070 56 -200 050/14 RMK AO2
94908KDBQ DBQ20060227130509502/27/06 13:05:31  5-MIN KDBQ 271905Z 05013KT 10SM CLR 02/M06 A2993 1070 56 -200 050/13 RMK AO2
94908KDBQ DBQ20060227131009502/27/06 13:10:31  5-MIN KDBQ 271910Z 06014KT 10SM CLR 02/M06 A2993 1070 56 -200 060/14 RMK AO2
94908KDBQ DBQ20060227131509502/27/06 13:15:31  5-MIN KDBQ 271915Z 06011KT 10SM CLR 02/M06 A2992 1080 56 -200 060/11 RMK AO2
94908KDBQ DBQ20060227132009502/27/06 13:20:31  5-MIN KDBQ 271920Z 06012KT 10SM CLR 02/M06 A2992 1080 54 -100 060/12 RMK AO2
94908KDBQ DBQ20060227132509502/27/06 13:25:31  5-MIN KDBQ 271925Z 05012KT 10SM CLR 02/M06 A2992 1080 54 -100 050/12 RMK AO2
94908KDBQ DBQ20060227133009502/27/06 13:30:31  5-MIN KDBQ 271930Z 05012KT 10SM CLR 02/M06 A2992 1080 54 -100 050/12 RMK AO2
94908KDBQ DBQ20060227133509502/27/06 13:35:31  5-MIN KDBQ 271935Z 05013KT 10SM CLR 02/M06 A2992 1080 54 -100 050/13 RMK AO2
94908KDBQ DBQ20060227134009502/27/06 13:40:31  5-MIN KDBQ 271940Z 05013KT 10SM CLR 02/M06 A2992 1080 56 -200 050/13 RMK AO2
94908KDBQ DBQ20060227134509502/27/06 13:45:31  5-MIN KDBQ 271945Z 05014KT 10SM CLR 02/M06 A2992 1080 56 -100 050/14 RMK AO2
94908KDBQ DBQ20060227135011202/27/06 13:50:31  5-MIN KDBQ 271950Z 07013KT 10SM CLR 02/M06 A2993 1070 59 -200 060/13 RMK AO2 SLP146 T00171056
94908KDBQ DBQ20060227135511202/27/06 13:55:31  5-MIN KDBQ 271955Z 05014KT 10SM CLR 02/M06 A2993 1070 59 -200 040/14 RMK AO2 SLP145 T00171056
94908KDBQ DBQ20060227140009502/27/06 14:00:31  5-MIN KDBQ 272000Z 06013KT 10SM CLR 02/M06 A2992 1080 59 -200 060/13 RMK AO2
94908KDBQ DBQ20060227140509502/27/06 14:05:31  5-MIN KDBQ 272005Z 05012KT 10SM CLR 02/M05 A2992 1080 61 -200 050/12 RMK AO2
94908KDBQ DBQ20060227141009502/27/06 14:10:31  5-MIN KDBQ 272010Z 06011KT 10SM CLR 02/M05 A2992 1080 61 -200 060/11 RMK AO2
94908KDBQ DBQ20060227141509502/27/06 14:15:31  5-MIN KDBQ 272015Z 06011KT 10SM CLR 02/M05 A2992 1080 59 -100 060/11 RMK AO2
94908KDBQ DBQ20060227142009502/27/06 14:20:31  5-MIN KDBQ 272020Z 06013KT 10SM CLR 02/M05 A2992 1080 59 -100 050/13 RMK AO2
94908KDBQ DBQ20060227142509502/27/06 14:25:31  5-MIN KDBQ 272025Z 05014KT 10SM CLR 02/M05 A2992 1080 61 -200 050/14 RMK AO2
94908KDBQ DBQ20060227143009502/27/06 14:30:31  5-MIN KDBQ 272030Z 04013KT 10SM CLR 02/M05 A2993 1070 61 -200 040/13 RMK AO2
94908KDBQ DBQ20060227143509502/27/06 14:35:31  5-MIN KDBQ 272035Z 05013KT 10SM CLR 02/M05 A2993 1070 61 -200 050/13 RMK AO2
94908KDBQ DBQ20060227144009502/27/06 14:40:31  5-MIN KDBQ 272040Z 05016KT 10SM CLR 02/M05 A2993 1070 61 -200 050/16 RMK AO2
94908KDBQ DBQ20060227144509502/27/06 14:45:31  5-MIN KDBQ 272045Z 05013KT 10SM CLR 02/M05 A2993 1070 61 -200 050/13 RMK AO2
94908KDBQ DBQ20060227145011802/27/06 14:50:31  5-MIN KDBQ 272050Z 05014KT 10SM CLR 02/M05 A2993 1070 61 -200 050/14 RMK AO2 SLP149 T00171050 56014
94908KDBQ DBQ20060227145511802/27/06 14:55:31  5-MIN KDBQ 272055Z 05015KT 10SM CLR 02/M05 A2993 1060 61 -200 050/15 RMK AO2 SLP149 T00171050 55000
94908KDBQ DBQ20060227150009502/27/06 15:00:31  5-MIN KDBQ 272100Z 06014KT 10SM CLR 02/M05 A2993 1070 61 -200 060/14 RMK AO2
94908KDBQ DBQ20060227150510102/27/06 15:05:31  5-MIN KDBQ 272105Z 05013G19KT 10SM CLR 02/M05 A2994 1060 61 -200 050/13G19 RMK AO2
94908KDBQ DBQ20060227151010102/27/06 15:10:31  5-MIN KDBQ 272110Z 06014G19KT 10SM CLR 02/M04 A2993 1060 64 -200 060/14G19 RMK AO2
94908KDBQ DBQ20060227151509402/27/06 15:15:31  5-MIN KDBQ 272115Z 05014KT 9SM CLR 02/M04 A2993 1070 64 -200 050/14 RMK AO2
94908KDBQ DBQ20060227152009402/27/06 15:20:31  5-MIN KDBQ 272120Z 05014KT 9SM CLR 01/M05 A2994 1060 64 -300 050/14 RMK AO2
94908KDBQ DBQ20060227152509402/27/06 15:25:31  5-MIN KDBQ 272125Z 05013KT 9SM CLR 02/M04 A2994 1060 64 -200 050/13 RMK AO2
94908KDBQ DBQ20060227153009402/27/06 15:30:31  5-MIN KDBQ 272130Z 06015KT 9SM CLR 01/M05 A2994 1060 64 -300 050/15 RMK AO2
94908KDBQ DBQ20060227153509402/27/06 15:35:31  5-MIN KDBQ 272135Z 05014KT 9SM CLR 01/M05 A2995 1050 64 -300 050/14 RMK AO2
94908KDBQ DBQ20060227154009402/27/06 15:40:31  5-MIN KDBQ 272140Z 05014KT 9SM CLR 01/M05 A2995 1050 64 -300 050/14 RMK AO2
94908KDBQ DBQ20060227154509402/27/06 15:45:31  5-MIN KDBQ 272145Z 05012KT 9SM CLR 01/M05 A2995 1050 64 -300 050/12 RMK AO2
94908KDBQ DBQ20060227155011102/27/06 15:50:31  5-MIN KDBQ 272150Z 05015KT 9SM CLR 01/M05 A2996 1050 64 -300 050/15 RMK AO2 SLP156 T00111050
94908KDBQ DBQ20060227155511102/27/06 15:55:31  5-MIN KDBQ 272155Z 05013KT 9SM CLR 01/M05 A2995 1050 64 -300 050/13 RMK AO2 SLP156 T00111050
94908KDBQ DBQ20060227160009402/27/06 16:00:31  5-MIN KDBQ 272200Z 04014KT 9SM CLR 01/M05 A2996 1050 64 -300 040/14 RMK AO2
94908KDBQ DBQ20060227160509402/27/06 16:05:31  5-MIN KDBQ 272205Z 04011KT 9SM CLR 01/M04 A2996 1040 66 -300 040/11 RMK AO2
94908KDBQ DBQ20060227161009402/27/06 16:10:31  5-MIN KDBQ 272210Z 05014KT 9SM CLR 01/M05 A2996 1040 64 -300 050/14 RMK AO2
94908KDBQ DBQ20060227161509402/27/06 16:15:31  5-MIN KDBQ 272215Z 06014KT 9SM CLR 01/M05 A2997 1040 64 -300 060/14 RMK AO2
94908KDBQ DBQ20060227162009402/27/06 16:20:31  5-MIN KDBQ 272220Z 06012KT 9SM CLR 01/M05 A2997 1030 64 -300 060/12 RMK AO2
94908KDBQ DBQ20060227162509402/27/06 16:25:31  5-MIN KDBQ 272225Z 07010KT 9SM CLR 01/M05 A2997 1030 64 -300 070/10 RMK AO2
94908KDBQ DBQ20060227163009402/27/06 16:30:31  5-MIN KDBQ 272230Z 07011KT 9SM CLR 01/M05 A2997 1030 64 -300 070/11 RMK AO2
94908KDBQ DBQ20060227163509402/27/06 16:35:31  5-MIN KDBQ 272235Z 05008KT 9SM CLR 01/M05 A2997 1030 64 -300 050/08 RMK AO2
94908KDBQ DBQ20060227164009402/27/06 16:40:31  5-MIN KDBQ 272240Z 05010KT 9SM CLR 01/M05 A2997 1040 66 -400 050/10 RMK AO2
94908KDBQ DBQ20060227164509502/27/06 16:45:31  5-MIN KDBQ 272245Z 05012KT 10SM CLR 01/M05 A2997 1030 66 -400 050/12 RMK AO2
94908KDBQ DBQ20060227165011202/27/06 16:50:31  5-MIN KDBQ 272250Z 06011KT 10SM CLR 01/M05 A2997 1030 66 -400 060/11 RMK AO2 SLP162 T00061050
94908KDBQ DBQ20060227165511202/27/06 16:55:31  5-MIN KDBQ 272255Z 04013KT 10SM CLR 00/M06 A2998 1030 66 -500 040/13 RMK AO2 SLP164 T00001056
94908KDBQ DBQ20060227170009502/27/06 17:00:31  5-MIN KDBQ 272300Z 05012KT 10SM CLR 00/M06 A2998 1020 66 -500 050/12 RMK AO2
94908KDBQ DBQ20060227170509502/27/06 17:05:31  5-MIN KDBQ 272305Z 05011KT 10SM CLR 00/M06 A2998 1020 66 -500 040/11 RMK AO2
94908KDBQ DBQ20060227171009602/27/06 17:10:31  5-MIN KDBQ 272310Z 04013KT 10SM CLR M01/M06 A2998 1020 69 -500 040/13 RMK AO2
94908KDBQ DBQ20060227171509602/27/06 17:15:31  5-MIN KDBQ 272315Z 05013KT 10SM CLR M01/M06 A2998 1020 69 -500 050/13 RMK AO2
94908KDBQ DBQ20060227172009602/27/06 17:20:31  5-MIN KDBQ 272320Z 05014KT 10SM CLR M01/M06 A2998 1020 69 -500 050/14 RMK AO2
94908KDBQ DBQ20060227172509602/27/06 17:25:31  5-MIN KDBQ 272325Z 06014KT 10SM CLR M01/M06 A2998 1020 69 -500 050/14 RMK AO2
94908KDBQ DBQ20060227173009602/27/06 17:30:31  5-MIN KDBQ 272330Z 06014KT 10SM CLR M01/M06 A2999 1020 69 -500 050/14 RMK AO2
94908KDBQ DBQ20060227173509602/27/06 17:35:31  5-MIN KDBQ 272335Z 05014KT 10SM CLR M01/M06 A2999 1020 69 -500 050/14 RMK AO2
94908KDBQ DBQ20060227174009602/27/06 17:40:31  5-MIN KDBQ 272340Z 05012KT 10SM CLR M01/M06 A2999 1020 72 -600 050/12 RMK AO2
94908KDBQ DBQ20060227174509602/27/06 17:45:31  5-MIN KDBQ 272345Z 05011KT 10SM CLR M01/M06 A2999 1020 72 -600 040/11 RMK AO2
94908KDBQ DBQ20060227175013102/27/06 17:50:31  5-MIN KDBQ 272350Z 06013KT 10SM CLR M01/M06 A2999 1020 72 -600 050/13 RMK AO2 SLP168 T10111056 10022 21011 55000
94908KDBQ DBQ20060227175513102/27/06 17:55:31  5-MIN KDBQ 272355Z 05013KT 10SM CLR M01/M06 A2999 1010 72 -600 050/13 RMK AO2 SLP169 T10111056 10022 21011 51018
94908KDBQ DBQ20060227180009602/27/06 18:00:31  5-MIN KDBQ 280000Z 05013KT 10SM CLR M02/M06 A2999 1010 72 -700 050/13 RMK AO2
94908KDBQ DBQ20060227180509602/27/06 18:05:31  5-MIN KDBQ 280005Z 05012KT 10SM CLR M02/M06 A2999 1010 72 -700 050/12 RMK AO2
94908KDBQ DBQ20060227181009602/27/06 18:10:31  5-MIN KDBQ 280010Z 05014KT 10SM CLR M02/M06 A2999 1010 72 -700 050/14 RMK AO2
94908KDBQ DBQ20060227181509602/27/06 18:15:31  5-MIN KDBQ 280015Z 06015KT 10SM CLR M02/M06 A2999 1010 72 -700 060/15 RMK AO2
94908KDBQ DBQ20060227182009602/27/06 18:20:31  5-MIN KDBQ 280020Z 05013KT 10SM CLR M02/M06 A2999 1010 72 -700 050/13 RMK AO2
94908KDBQ DBQ20060227182509602/27/06 18:25:31  5-MIN KDBQ 280025Z 05011KT 10SM CLR M02/M06 A3000 1010 72 -700 050/11 RMK AO2
94908KDBQ DBQ20060227183009602/27/06 18:30:31  5-MIN KDBQ 280030Z 05011KT 10SM CLR M02/M06 A3000 1010 75 -800 050/11 RMK AO2
94908KDBQ DBQ20060227183509602/27/06 18:35:31  5-MIN KDBQ 280035Z 05014KT 10SM CLR M02/M06 A3000 1000 72 -700 050/14 RMK AO2
94908KDBQ DBQ20060227184009602/27/06 18:40:31  5-MIN KDBQ 280040Z 05013KT 10SM CLR M02/M06 A3000 1000 75 -800 050/13 RMK AO2
94908KDBQ DBQ20060227184509602/27/06 18:45:31  5-MIN KDBQ 280045Z 05014KT 10SM CLR M02/M06 A3000 1000 75 -800 050/14 RMK AO2
94908KDBQ DBQ20060227185011302/27/06 18:50:31  5-MIN KDBQ 280050Z 05013KT 10SM CLR M02/M06 A3000 1000 75 -800 050/13 RMK AO2 SLP175 T10221061
94908KDBQ DBQ20060227185511302/27/06 18:55:31  5-MIN KDBQ 280055Z 05014KT 10SM CLR M02/M06 A3001 1000 75 -800 050/14 RMK AO2 SLP175 T10221061
94908KDBQ DBQ20060227190009602/27/06 19:00:31  5-MIN KDBQ 280100Z 05013KT 10SM CLR M02/M06 A3001 1000 75 -800 050/13 RMK AO2
94908KDBQ DBQ20060227190510602/27/06 19:05:31  5-MIN KDBQ 280105Z AUTO 05013KT 10SM CLR M02/M06 A3001 1000 75 -800 050/13 RMK AO2 TSNO
94908KDBQ DBQ20060227191010602/27/06 19:10:31  5-MIN KDBQ 280110Z AUTO 05012KT 10SM CLR M02/M06 A3001 1000 75 -800 050/12 RMK AO2 TSNO
94908KDBQ DBQ20060227191510602/27/06 19:15:31  5-MIN KDBQ 280115Z AUTO 06013KT 10SM CLR M03/M06 A3001 1000 78 -900 060/13 RMK AO2 TSNO
94908KDBQ DBQ20060227192010602/27/06 19:20:31  5-MIN KDBQ 280120Z AUTO 06013KT 10SM CLR M03/M06 A3001 1000 78 -900 060/13 RMK AO2 TSNO
94908KDBQ DBQ20060227192510602/27/06 19:25:31  5-MIN KDBQ 280125Z AUTO 06017KT 10SM CLR M03/M07 A3001 1000 75 -900 060/17 RMK AO2 TSNO
94908KDBQ DBQ20060227193010602/27/06 19:30:31  5-MIN KDBQ 280130Z AUTO 06017KT 10SM CLR M03/M07 A3001 1000 75 -900 060/17 RMK AO2 TSNO
94908KDBQ DBQ20060227193510602/27/06 19:35:31  5-MIN KDBQ 280135Z AUTO 06015KT 10SM CLR M03/M07 A3001 1000 75 -900 060/15 RMK AO2 TSNO
94908KDBQ DBQ20060227194010502/27/06 19:40:31  5-MIN KDBQ 280140Z AUTO 06016KT 10SM CLR M03/M07 A3001 990 75 -900 060/16 RMK AO2 TSNO
94908KDBQ DBQ20060227194510502/27/06 19:45:31  5-MIN KDBQ 280145Z AUTO 06014KT 10SM CLR M03/M07 A3002 990 75 -900 050/14 RMK AO2 TSNO
94908KDBQ DBQ20060227195012202/27/06 19:50:31  5-MIN KDBQ 280150Z AUTO 06012KT 10SM CLR M03/M07 A3002 990 75 -900 050/12 RMK AO2 SLP180 T10281067 TSNO
94908KDBQ DBQ20060227195512202/27/06 19:55:31  5-MIN KDBQ 280155Z AUTO 06011KT 10SM CLR M03/M07 A3002 980 75 -900 050/11 RMK AO2 SLP181 T10281067 TSNO
94908KDBQ DBQ20060227200010502/27/06 20:00:31  5-MIN KDBQ 280200Z AUTO 05014KT 10SM CLR M03/M07 A3003 980 75 -900 050/14 RMK AO2 TSNO
94908KDBQ DBQ20060227200510502/27/06 20:05:31  5-MIN KDBQ 280205Z AUTO 05014KT 10SM CLR M03/M07 A3003 980 71 -900 050/14 RMK AO2 TSNO
94908KDBQ DBQ20060227201010502/27/06 20:10:31  5-MIN KDBQ 280210Z AUTO 05012KT 10SM CLR M03/M07 A3003 980 74 -900 050/12 RMK AO2 TSNO
94908KDBQ DBQ20060227201510502/27/06 20:15:31  5-MIN KDBQ 280215Z AUTO 06014KT 10SM CLR M03/M07 A3003 980 74 -900 050/14 RMK AO2 TSNO
94908KDBQ DBQ20060227202010502/27/06 20:20:31  5-MIN KDBQ 280220Z AUTO 05014KT 10SM CLR M03/M07 A3003 980 74 -900 050/14 RMK AO2 TSNO
94908KDBQ DBQ20060227202510502/27/06 20:25:31  5-MIN KDBQ 280225Z AUTO 05015KT 10SM CLR M03/M07 A3002 980 74 -900 050/15 RMK AO2 TSNO
94908KDBQ DBQ20060227203010502/27/06 20:30:31  5-MIN KDBQ 280230Z AUTO 06012KT 10SM CLR M03/M07 A3002 980 74 -900 060/12 RMK AO2 TSNO
94908KDBQ DBQ20060227203510502/27/06 20:35:31  5-MIN KDBQ 280235Z AUTO 06014KT 10SM CLR M03/M07 A3002 980 74 -900 060/14 RMK AO2 TSNO
94908KDBQ DBQ20060227204010502/27/06 20:40:31  5-MIN KDBQ 280240Z AUTO 06012KT 10SM CLR M03/M07 A3003 980 74 -900 060/12 RMK AO2 TSNO
94908KDBQ DBQ20060227204510502/27/06 20:45:31  5-MIN KDBQ 280245Z AUTO 05012KT 10SM CLR M03/M07 A3003 980 74 -900 050/12 RMK AO2 TSNO
94908KDBQ DBQ20060227205012902/27/06 20:50:31  5-MIN KDBQ 280250Z AUTO 06011KT 10SM CLR M04/M07 A3003 980 78 -1000 060/11 RMK AO2 SLP183 T10391072 51018 TSNO
94908KDBQ DBQ20060227205512902/27/06 20:55:31  5-MIN KDBQ 280255Z AUTO 05013KT 10SM CLR M04/M08 A3003 980 74 -1000 050/13 RMK AO2 SLP183 T10391078 51012 TSNO
94908KDBQ DBQ20060227210010602/27/06 21:00:31  5-MIN KDBQ 280300Z AUTO 05012KT 10SM CLR M04/M08 A3003 980 74 -1000 050/12 RMK AO2 TSNO
94908KDBQ DBQ20060227210510602/27/06 21:05:31  5-MIN KDBQ 280305Z AUTO 06011KT 10SM CLR M04/M08 A3003 980 74 -1000 060/11 RMK AO2 TSNO
94908KDBQ DBQ20060227211010602/27/06 21:10:31  5-MIN KDBQ 280310Z AUTO 06013KT 10SM CLR M04/M08 A3003 980 74 -1000 060/13 RMK AO2 TSNO
94908KDBQ DBQ20060227211510602/27/06 21:15:31  5-MIN KDBQ 280315Z AUTO 06012KT 10SM CLR M04/M08 A3003 980 74 -1000 060/12 RMK AO2 TSNO
94908KDBQ DBQ20060227212010602/27/06 21:20:31  5-MIN KDBQ 280320Z AUTO 06011KT 10SM CLR M04/M08 A3003 980 74 -1000 050/11 RMK AO2 TSNO
94908KDBQ DBQ20060227212510602/27/06 21:25:31  5-MIN KDBQ 280325Z AUTO 06012KT 10SM CLR M04/M08 A3003 980 74 -1000 060/12 RMK AO2 TSNO
94908KDBQ DBQ20060227213010602/27/06 21:30:31  5-MIN KDBQ 280330Z AUTO 06010KT 10SM CLR M04/M08 A3003 980 74 -1000 060/10 RMK AO2 TSNO
94908KDBQ DBQ20060227213510602/27/06 21:35:31  5-MIN KDBQ 280335Z AUTO 06009KT 10SM CLR M04/M08 A3002 980 74 -1000 060/09 RMK AO2 TSNO
94908KDBQ DBQ20060227214010602/27/06 21:40:31  5-MIN KDBQ 280340Z AUTO 06011KT 10SM CLR M04/M08 A3002 980 74 -1000 060/11 RMK AO2 TSNO
94908KDBQ DBQ20060227214510602/27/06 21:45:31  5-MIN KDBQ 280345Z AUTO 06010KT 10SM CLR M04/M08 A3003 980 74 -1000 060/10 RMK AO2 TSNO
94908KDBQ DBQ20060227215012302/27/06 21:50:31  5-MIN KDBQ 280350Z AUTO 06012KT 10SM CLR M04/M08 A3003 980 71 -1000 060/12 RMK AO2 SLP183 T10391083 TSNO
94908KDBQ DBQ20060227215512302/27/06 21:55:31  5-MIN KDBQ 280355Z AUTO 06010KT 10SM CLR M04/M08 A3004 970 71 -1000 060/10 RMK AO2 SLP185 T10391083 TSNO
94908KDBQ DBQ20060227220010602/27/06 22:00:31  5-MIN KDBQ 280400Z AUTO 06009KT 10SM CLR M04/M08 A3004 960 71 -1000 060/09 RMK AO2 TSNO
94908KDBQ DBQ20060227220510602/27/06 22:05:31  5-MIN KDBQ 280405Z AUTO 06011KT 10SM CLR M04/M08 A3004 960 71 -1000 060/11 RMK AO2 TSNO
94908KDBQ DBQ20060227221010602/27/06 22:10:31  5-MIN KDBQ 280410Z AUTO 06009KT 10SM CLR M04/M08 A3004 970 74 -1100 060/09 RMK AO2 TSNO
94908KDBQ DBQ20060227221510602/27/06 22:15:31  5-MIN KDBQ 280415Z AUTO 07011KT 10SM CLR M04/M08 A3004 970 74 -1100 070/11 RMK AO2 TSNO
94908KDBQ DBQ20060227222010602/27/06 22:20:31  5-MIN KDBQ 280420Z AUTO 07009KT 10SM CLR M04/M09 A3004 970 71 -1100 070/09 RMK AO2 TSNO
94908KDBQ DBQ20060227222510602/27/06 22:25:31  5-MIN KDBQ 280425Z AUTO 07010KT 10SM CLR M04/M09 A3004 970 71 -1100 070/10 RMK AO2 TSNO
94908KDBQ DBQ20060227223010602/27/06 22:30:31  5-MIN KDBQ 280430Z AUTO 07009KT 10SM CLR M04/M09 A3003 970 71 -1100 070/09 RMK AO2 TSNO
94908KDBQ DBQ20060227223510602/27/06 22:35:31  5-MIN KDBQ 280435Z AUTO 07012KT 10SM CLR M04/M09 A3003 970 71 -1100 070/12 RMK AO2 TSNO
94908KDBQ DBQ20060227224010602/27/06 22:40:31  5-MIN KDBQ 280440Z AUTO 07009KT 10SM CLR M04/M09 A3003 970 71 -1100 070/09 RMK AO2 TSNO
94908KDBQ DBQ20060227224510602/27/06 22:45:31  5-MIN KDBQ 280445Z AUTO 06010KT 10SM CLR M04/M09 A3004 970 68 -1100 060/10 RMK AO2 TSNO
94908KDBQ DBQ20060227225012302/27/06 22:50:31  5-MIN KDBQ 280450Z AUTO 06011KT 10SM CLR M04/M09 A3004 970 68 -1100 060/11 RMK AO2 SLP185 T10441094 TSNO
94908KDBQ DBQ20060227225512302/27/06 22:55:31  5-MIN KDBQ 280455Z AUTO 07009KT 10SM CLR M04/M09 A3004 970 68 -1100 070/09 RMK AO2 SLP185 T10441094 TSNO
94908KDBQ DBQ20060227230010602/27/06 23:00:31  5-MIN KDBQ 280500Z AUTO 07009KT 10SM CLR M04/M09 A3003 970 68 -1100 070/09 RMK AO2 TSNO
94908KDBQ DBQ20060227230510602/27/06 23:05:31  5-MIN KDBQ 280505Z AUTO 07009KT 10SM CLR M04/M09 A3003 970 68 -1100 070/09 RMK AO2 TSNO
94908KDBQ DBQ20060227231010602/27/06 23:10:31  5-MIN KDBQ 280510Z AUTO 07009KT 10SM CLR M04/M09 A3003 970 68 -1100 060/09 RMK AO2 TSNO
94908KDBQ DBQ20060227231510602/27/06 23:15:31  5-MIN KDBQ 280515Z AUTO 07011KT 10SM CLR M04/M09 A3003 980 68 -1100 070/11 RMK AO2 TSNO
94908KDBQ DBQ20060227232010602/27/06 23:20:31  5-MIN KDBQ 280520Z AUTO 07009KT 10SM CLR M04/M09 A3003 970 68 -1100 070/09 RMK AO2 TSNO
94908KDBQ DBQ20060227232510602/27/06 23:25:31  5-MIN KDBQ 280525Z AUTO 06008KT 10SM CLR M04/M09 A3004 970 68 -1100 060/08 RMK AO2 TSNO
94908KDBQ DBQ20060227233010602/27/06 23:30:31  5-MIN KDBQ 280530Z AUTO 06007KT 10SM CLR M04/M09 A3004 970 68 -1100 060/07 RMK AO2 TSNO
94908KDBQ DBQ20060227233510602/27/06 23:35:31  5-MIN KDBQ 280535Z AUTO 06010KT 10SM CLR M04/M09 A3004 970 68 -1100 060/10 RMK AO2 TSNO
94908KDBQ DBQ20060227234010602/27/06 23:40:31  5-MIN KDBQ 280540Z AUTO 05009KT 10SM CLR M04/M09 A3003 970 68 -1100 050/09 RMK AO2 TSNO
94908KDBQ DBQ20060227234510602/27/06 23:45:31  5-MIN KDBQ 280545Z AUTO 06008KT 10SM CLR M04/M09 A3003 970 68 -1100 060/08 RMK AO2 TSNO
94908KDBQ DBQ20060227235015402/27/06 23:50:31  5-MIN KDBQ 280550Z AUTO 06009KT 10SM SCT120 M04/M10 A3003 970 65 -1100 060/09 RMK AO2 SLP183 T10441100 11011 21044 400221044 51012 TSNO
94908KDBQ DBQ20060227235515402/27/06 23:55:31  5-MIN KDBQ 280555Z AUTO 07009KT 10SM SCT120 M04/M10 A3003 980 65 -1100 070/09 RMK AO2 SLP181 T10441100 11011 21044 400221044 50000 TSNO
94908KDBQ DBQ20060228000010902/28/06 00:00:38  5-MIN KDBQ 280600Z AUTO 07008KT 10SM BKN120 M05/M10 A3002 980 68 -1200 070/08 RMK AO2 TSNO
94908KDBQ DBQ20060228000510902/28/06 00:05:31  5-MIN KDBQ 280605Z AUTO 08006KT 10SM BKN120 M05/M10 A3002 990 68 -1100 080/06 RMK AO2 TSNO
94908KDBQ DBQ20060228001010902/28/06 00:10:31  5-MIN KDBQ 280610Z AUTO 07008KT 10SM BKN120 M05/M10 A3002 980 68 -1200 070/08 RMK AO2 TSNO
94908KDBQ DBQ20060228001510902/28/06 00:15:31  5-MIN KDBQ 280615Z AUTO 06006KT 10SM SCT120 M05/M10 A3003 980 68 -1200 060/06 RMK AO2 TSNO
94908KDBQ DBQ20060228002010902/28/06 00:20:31  5-MIN KDBQ 280620Z AUTO 07004KT 10SM SCT120 M05/M10 A3002 980 68 -1200 070/04 RMK AO2 TSNO
94908KDBQ DBQ20060228002510902/28/06 00:25:31  5-MIN KDBQ 280625Z AUTO 07006KT 10SM FEW120 M05/M10 A3002 990 68 -1100 070/06 RMK AO2 TSNO
94908KDBQ DBQ20060228003011002/28/06 00:30:31  5-MIN KDBQ 280630Z AUTO 08008KT 10SM FEW120 M05/M10 A3001 1000 68 -1100 070/08 RMK AO2 TSNO
94908KDBQ DBQ20060228003510702/28/06 00:35:31  5-MIN KDBQ 280635Z AUTO 07008KT 10SM CLR M05/M09 A3001 1000 71 -1100 060/08 RMK AO2 TSNO
94908KDBQ DBQ20060228004010702/28/06 00:40:31  5-MIN KDBQ 280640Z AUTO 07007KT 10SM CLR M05/M09 A3001 1000 71 -1100 070/07 RMK AO2 TSNO
94908KDBQ DBQ20060228004510602/28/06 00:45:31  5-MIN KDBQ 280645Z AUTO 06008KT 10SM CLR M05/M09 A3001 990 71 -1100 060/08 RMK AO2 TSNO
94908KDBQ DBQ20060228005012302/28/06 00:50:31  5-MIN KDBQ 280650Z AUTO 06008KT 10SM CLR M05/M09 A3002 990 71 -1100 060/08 RMK AO2 SLP179 T10501094 TSNO
94908KDBQ DBQ20060228005512302/28/06 00:55:31  5-MIN KDBQ 280655Z AUTO 06007KT 10SM CLR M05/M09 A3002 990 71 -1100 060/07 RMK AO2 SLP179 T10501094 TSNO
94908KDBQ DBQ20060228010010602/28/06 01:00:31  5-MIN KDBQ 280700Z AUTO 06008KT 10SM CLR M05/M10 A3002 990 68 -1100 060/08 RMK AO2 TSNO
94908KDBQ DBQ20060228010510602/28/06 01:05:31  5-MIN KDBQ 280705Z AUTO 06008KT 10SM CLR M06/M10 A3001 990 71 -1200 060/08 RMK AO2 TSNO
94908KDBQ DBQ20060228011010702/28/06 01:10:31  5-MIN KDBQ 280710Z AUTO 07006KT 10SM CLR M06/M10 A3001 1000 71 -1200 070/06 RMK AO2 TSNO
94908KDBQ DBQ20060228011510702/28/06 01:15:31  5-MIN KDBQ 280715Z AUTO 07007KT 10SM CLR M06/M10 A3001 1000 71 -1200 070/07 RMK AO2 TSNO
94908KDBQ DBQ20060228012010702/28/06 01:20:31  5-MIN KDBQ 280720Z AUTO 08008KT 10SM CLR M06/M10 A3001 1000 71 -1200 080/08 RMK AO2 TSNO
94908KDBQ DBQ20060228012510702/28/06 01:25:31  5-MIN KDBQ 280725Z AUTO 06009KT 10SM CLR M06/M10 A3001 1000 71 -1200 060/09 RMK AO2 TSNO
94908KDBQ DBQ20060228013010702/28/06 01:30:31  5-MIN KDBQ 280730Z AUTO 07007KT 10SM CLR M06/M10 A3000 1000 71 -1200 070/07 RMK AO2 TSNO
94908KDBQ DBQ20060228013510702/28/06 01:35:31  5-MIN KDBQ 280735Z AUTO 08008KT 10SM CLR M06/M10 A3000 1010 71 -1200 080/08 RMK AO2 TSNO
94908KDBQ DBQ20060228014010702/28/06 01:40:31  5-MIN KDBQ 280740Z AUTO 08006KT 10SM CLR M06/M09 A3000 1000 74 -1200 080/06 RMK AO2 TSNO
94908KDBQ DBQ20060228014510702/28/06 01:45:31  5-MIN KDBQ 280745Z AUTO 08007KT 10SM CLR M06/M09 A3000 1010 74 -1200 080/07 RMK AO2 TSNO
94908KDBQ DBQ20060228015012402/28/06 01:50:31  5-MIN KDBQ 280750Z AUTO 08008KT 10SM CLR M06/M10 A3000 1000 71 -1200 080/08 RMK AO2 SLP172 T10561100 TSNO
94908KDBQ DBQ20060228015512402/28/06 01:55:31  5-MIN KDBQ 280755Z AUTO 07008KT 10SM CLR M06/M10 A3000 1010 71 -1200 070/08 RMK AO2 SLP171 T10561100 TSNO
94908KDBQ DBQ20060228020010702/28/06 02:00:31  5-MIN KDBQ 280800Z AUTO 07007KT 10SM CLR M06/M10 A2999 1010 71 -1200 070/07 RMK AO2 TSNO
94908KDBQ DBQ20060228020510702/28/06 02:05:31  5-MIN KDBQ 280805Z AUTO 08007KT 10SM CLR M06/M10 A2999 1010 71 -1200 080/07 RMK AO2 TSNO
94908KDBQ DBQ20060228021010702/28/06 02:10:31  5-MIN KDBQ 280810Z AUTO 09007KT 10SM CLR M06/M09 A2999 1010 74 -1200 090/07 RMK AO2 TSNO
94908KDBQ DBQ20060228021510702/28/06 02:15:31  5-MIN KDBQ 280815Z AUTO 09007KT 10SM CLR M06/M09 A2999 1010 74 -1200 090/07 RMK AO2 TSNO
94908KDBQ DBQ20060228022010702/28/06 02:20:31  5-MIN KDBQ 280820Z AUTO 09007KT 10SM CLR M05/M09 A2999 1010 71 -1100 090/07 RMK AO2 TSNO
94908KDBQ DBQ20060228022510702/28/06 02:25:31  5-MIN KDBQ 280825Z AUTO 07007KT 10SM CLR M06/M09 A3000 1010 74 -1200 070/07 RMK AO2 TSNO
94908KDBQ DBQ20060228023010702/28/06 02:30:31  5-MIN KDBQ 280830Z AUTO 09006KT 10SM CLR M06/M09 A2999 1010 74 -1200 090/06 RMK AO2 TSNO
94908KDBQ DBQ20060228023510702/28/06 02:35:31  5-MIN KDBQ 280835Z AUTO 08008KT 10SM CLR M06/M09 A2999 1010 74 -1200 080/08 RMK AO2 TSNO
94908KDBQ DBQ20060228024010702/28/06 02:40:31  5-MIN KDBQ 280840Z AUTO 07008KT 10SM CLR M06/M09 A2999 1010 74 -1200 070/08 RMK AO2 TSNO
94908KDBQ DBQ20060228024510702/28/06 02:45:31  5-MIN KDBQ 280845Z AUTO 06007KT 10SM CLR M06/M09 A3000 1000 74 -1200 060/07 RMK AO2 TSNO
94908KDBQ DBQ20060228025013002/28/06 02:50:31  5-MIN KDBQ 280850Z AUTO 07006KT 10SM CLR M06/M09 A3000 1000 74 -1200 070/06 RMK AO2 SLP173 T10561094 50000 TSNO
94908KDBQ DBQ20060228025513002/28/06 02:55:31  5-MIN KDBQ 280855Z AUTO 08006KT 10SM CLR M06/M09 A3001 1000 74 -1200 080/06 RMK AO2 SLP174 T10561094 55007 TSNO
94908KDBQ DBQ20060228030010702/28/06 03:00:31  5-MIN KDBQ 280900Z AUTO 07006KT 10SM CLR M06/M09 A3000 1000 74 -1200 070/06 RMK AO2 TSNO
94908KDBQ DBQ20060228030510702/28/06 03:05:31  5-MIN KDBQ 280905Z AUTO 07005KT 10SM CLR M06/M09 A3001 1000 74 -1200 070/05 RMK AO2 TSNO
94908KDBQ DBQ20060228031010702/28/06 03:10:31  5-MIN KDBQ 280910Z AUTO 08006KT 10SM CLR M06/M09 A3000 1000 74 -1200 080/06 RMK AO2 TSNO
94908KDBQ DBQ20060228031510702/28/06 03:15:31  5-MIN KDBQ 280915Z AUTO 07006KT 10SM CLR M05/M09 A3001 1000 71 -1100 070/06 RMK AO2 TSNO
94908KDBQ DBQ20060228032010702/28/06 03:20:31  5-MIN KDBQ 280920Z AUTO 06008KT 10SM CLR M06/M09 A3001 1000 74 -1200 060/08 RMK AO2 TSNO
94908KDBQ DBQ20060228032510702/28/06 03:25:31  5-MIN KDBQ 280925Z AUTO 06007KT 10SM CLR M06/M09 A3001 1000 74 -1200 060/07 RMK AO2 TSNO
94908KDBQ DBQ20060228033010702/28/06 03:30:31  5-MIN KDBQ 280930Z AUTO 05008KT 10SM CLR M06/M09 A3001 1000 74 -1200 050/08 RMK AO2 TSNO
94908KDBQ DBQ20060228033510702/28/06 03:35:31  5-MIN KDBQ 280935Z AUTO 06006KT 10SM CLR M06/M09 A3001 1000 74 -1200 060/06 RMK AO2 TSNO
94908KDBQ DBQ20060228034010702/28/06 03:40:31  5-MIN KDBQ 280940Z AUTO 06008KT 10SM CLR M06/M09 A3001 1000 74 -1200 060/08 RMK AO2 TSNO
94908KDBQ DBQ20060228034510702/28/06 03:45:31  5-MIN KDBQ 280945Z AUTO 07007KT 10SM CLR M06/M09 A3001 1000 74 -1200 060/07 RMK AO2 TSNO
94908KDBQ DBQ20060228035012402/28/06 03:50:31  5-MIN KDBQ 280950Z AUTO 07005KT 10SM CLR M06/M09 A3001 1000 77 -1200 070/05 RMK AO2 SLP175 T10561089 TSNO
94908KDBQ DBQ20060228035512302/28/06 03:55:31  5-MIN KDBQ 280955Z AUTO 06007KT 10SM CLR M06/M09 A3001 990 74 -1200 060/07 RMK AO2 SLP176 T10561094 TSNO
94908KDBQ DBQ20060228040010602/28/06 04:00:31  5-MIN KDBQ 281000Z AUTO 07006KT 10SM CLR M05/M09 A3002 990 71 -1100 070/06 RMK AO2 TSNO
94908KDBQ DBQ20060228040510602/28/06 04:05:31  5-MIN KDBQ 281005Z AUTO 06005KT 10SM CLR M05/M09 A3002 990 71 -1200 060/05 RMK AO2 TSNO
94908KDBQ DBQ20060228041010602/28/06 04:10:31  5-MIN KDBQ 281010Z AUTO 06007KT 10SM CLR M05/M09 A3002 990 71 -1100 050/07 RMK AO2 TSNO
94908KDBQ DBQ20060228041510602/28/06 04:15:31  5-MIN KDBQ 281015Z AUTO 06007KT 10SM CLR M06/M09 A3002 990 77 -1200 060/07 RMK AO2 TSNO
94908KDBQ DBQ20060228042010602/28/06 04:20:31  5-MIN KDBQ 281020Z AUTO 07007KT 10SM CLR M06/M09 A3001 990 77 -1200 070/07 RMK AO2 TSNO
94908KDBQ DBQ20060228042510602/28/06 04:25:31  5-MIN KDBQ 281025Z AUTO 07008KT 10SM CLR M06/M09 A3002 990 77 -1200 070/08 RMK AO2 TSNO
94908KDBQ DBQ20060228043010602/28/06 04:30:31  5-MIN KDBQ 281030Z AUTO 07007KT 10SM CLR M06/M09 A3002 990 74 -1200 070/07 RMK AO2 TSNO
94908KDBQ DBQ20060228043510602/28/06 04:35:31  5-MIN KDBQ 281035Z AUTO 07008KT 10SM CLR M06/M09 A3001 990 77 -1200 070/08 RMK AO2 TSNO
94908KDBQ DBQ20060228044010602/28/06 04:40:31  5-MIN KDBQ 281040Z AUTO 08008KT 10SM CLR M05/M09 A3001 990 71 -1100 080/08 RMK AO2 TSNO
94908KDBQ DBQ20060228044510602/28/06 04:45:31  5-MIN KDBQ 281045Z AUTO 09008KT 10SM CLR M06/M09 A3001 990 77 -1200 090/08 RMK AO2 TSNO
94908KDBQ DBQ20060228045012302/28/06 04:50:31  5-MIN KDBQ 281050Z AUTO 09007KT 10SM CLR M06/M09 A3002 990 77 -1200 090/07 RMK AO2 SLP178 T10561089 TSNO
94908KDBQ DBQ20060228045512302/28/06 04:55:31  5-MIN KDBQ 281055Z AUTO 08007KT 10SM CLR M06/M09 A3002 990 77 -1200 080/07 RMK AO2 SLP180 T10561089 TSNO
94908KDBQ DBQ20060228050010602/28/06 05:00:31  5-MIN KDBQ 281100Z AUTO 09007KT 10SM CLR M06/M09 A3001 990 74 -1200 090/07 RMK AO2 TSNO
94908KDBQ DBQ20060228050510602/28/06 05:05:31  5-MIN KDBQ 281105Z AUTO 09007KT 10SM CLR M06/M09 A3002 990 74 -1200 080/07 RMK AO2 TSNO
94908KDBQ DBQ20060228051010602/28/06 05:10:31  5-MIN KDBQ 281110Z AUTO 09007KT 10SM CLR M06/M09 A3001 990 74 -1200 090/07 RMK AO2 TSNO
94908KDBQ DBQ20060228051510602/28/06 05:15:31  5-MIN KDBQ 281115Z AUTO 09007KT 10SM CLR M06/M09 A3001 990 74 -1200 090/07 RMK AO2 TSNO
94908KDBQ DBQ20060228052010602/28/06 05:20:31  5-MIN KDBQ 281120Z AUTO 08006KT 10SM CLR M06/M09 A3002 990 74 -1200 080/06 RMK AO2 TSNO
94908KDBQ DBQ20060228052510602/28/06 05:25:31  5-MIN KDBQ 281125Z AUTO 08007KT 10SM CLR M06/M09 A3001 990 74 -1200 080/07 RMK AO2 TSNO
94908KDBQ DBQ20060228053010602/28/06 05:30:31  5-MIN KDBQ 281130Z AUTO 08007KT 10SM CLR M06/M09 A3002 990 74 -1200 070/07 RMK AO2 TSNO
94908KDBQ DBQ20060228053510602/28/06 05:35:31  5-MIN KDBQ 281135Z AUTO 07007KT 10SM CLR M06/M09 A3002 980 74 -1200 070/07 RMK AO2 TSNO
94908KDBQ DBQ20060228054010602/28/06 05:40:31  5-MIN KDBQ 281140Z AUTO 06006KT 10SM CLR M06/M09 A3002 980 74 -1200 060/06 RMK AO2 TSNO
94908KDBQ DBQ20060228054510602/28/06 05:45:31  5-MIN KDBQ 281145Z AUTO 05006KT 10SM CLR M06/M09 A3002 990 74 -1200 050/06 RMK AO2 TSNO
94908KDBQ DBQ20060228055013102/28/06 05:50:31  5-MIN KDBQ 281150Z 04008KT 10SM CLR M06/M09 A3002 980 77 -1300 040/08 RMK AO2 SLP181 T10611094 11044 21061 55007
94908KDBQ DBQ20060228055513102/28/06 05:55:31  5-MIN KDBQ 281155Z 05006KT 10SM CLR M06/M09 A3002 990 77 -1300 050/06 RMK AO2 SLP179 T10611094 11044 21061 50004
94908KDBQ DBQ20060228060009602/28/06 06:00:31  5-MIN KDBQ 281200Z 05006KT 10SM CLR M06/M09 A3001 990 77 -1300 050/06 RMK AO2
94908KDBQ DBQ20060228060509602/28/06 06:05:31  5-MIN KDBQ 281205Z 05006KT 10SM CLR M06/M09 A3001 990 77 -1300 050/06 RMK AO2
94908KDBQ DBQ20060228061009602/28/06 06:10:31  5-MIN KDBQ 281210Z 05007KT 10SM CLR M07/M09 A3001 990 81 -1400 050/07 RMK AO2
94908KDBQ DBQ20060228061509602/28/06 06:15:31  5-MIN KDBQ 281215Z 05005KT 10SM CLR M07/M09 A3001 990 81 -1400 050/05 RMK AO2
94908KDBQ DBQ20060228062009602/28/06 06:20:31  5-MIN KDBQ 281220Z 05005KT 10SM CLR M07/M09 A3001 990 81 -1400 050/05 RMK AO2
94908KDBQ DBQ20060228062509602/28/06 06:25:31  5-MIN KDBQ 281225Z 07004KT 10SM CLR M07/M09 A3001 990 81 -1400 070/04 RMK AO2
94908KDBQ DBQ20060228063009602/28/06 06:30:31  5-MIN KDBQ 281230Z 08004KT 10SM CLR M07/M09 A3001 990 81 -1400 080/04 RMK AO2
94908KDBQ DBQ20060228063509602/28/06 06:35:31  5-MIN KDBQ 281235Z 08006KT 10SM CLR M07/M09 A3001 990 81 -1400 080/06 RMK AO2
94908KDBQ DBQ20060228064009702/28/06 06:40:31  5-MIN KDBQ 281240Z 07006KT 10SM CLR M07/M09 A3001 1000 81 -1400 070/06 RMK AO2
94908KDBQ DBQ20060228064509702/28/06 06:45:31  5-MIN KDBQ 281245Z 08006KT 10SM CLR M07/M09 A3001 1000 81 -1400 080/06 RMK AO2
94908KDBQ DBQ20060228065011402/28/06 06:50:31  5-MIN KDBQ 281250Z 07006KT 10SM CLR M06/M09 A3001 1000 77 -1300 070/06 RMK AO2 SLP177 T10611094
94908KDBQ DBQ20060228065511302/28/06 06:55:31  5-MIN KDBQ 281255Z 07007KT 10SM CLR M07/M09 A3001 990 81 -1400 070/07 RMK AO2 SLP179 T10671094
94908KDBQ DBQ20060228070009602/28/06 07:00:31  5-MIN KDBQ 281300Z 06007KT 10SM CLR M06/M09 A3002 990 77 -1300 050/07 RMK AO2
94908KDBQ DBQ20060228070509602/28/06 07:05:31  5-MIN KDBQ 281305Z 05006KT 10SM CLR M06/M09 A3002 990 77 -1300 050/06 RMK AO2
94908KDBQ DBQ20060228071009602/28/06 07:10:31  5-MIN KDBQ 281310Z 05005KT 10SM CLR M07/M09 A3002 980 81 -1400 040/05 RMK AO2
94908KDBQ DBQ20060228071509602/28/06 07:15:31  5-MIN KDBQ 281315Z 04006KT 10SM CLR M07/M09 A3002 980 81 -1400 040/06 RMK AO2
94908KDBQ DBQ20060228072009602/28/06 07:20:31  5-MIN KDBQ 281320Z 05005KT 10SM CLR M07/M09 A3002 990 81 -1400 050/05 RMK AO2
94908KDBQ DBQ20060228072509602/28/06 07:25:31  5-MIN KDBQ 281325Z 06005KT 10SM CLR M07/M09 A3001 990 81 -1400 060/05 RMK AO2
94908KDBQ DBQ20060228073009602/28/06 07:30:31  5-MIN KDBQ 281330Z 07005KT 10SM CLR M06/M09 A3001 990 77 -1300 070/05 RMK AO2
94908KDBQ DBQ20060228073509602/28/06 07:35:31  5-MIN KDBQ 281335Z 08005KT 10SM CLR M06/M09 A3002 990 77 -1200 080/05 RMK AO2
94908KDBQ DBQ20060228074009602/28/06 07:40:31  5-MIN KDBQ 281340Z 09005KT 10SM CLR M06/M09 A3002 990 74 -1200 090/05 RMK AO2
94908KDBQ DBQ20060228074509602/28/06 07:45:31  5-MIN KDBQ 281345Z 10004KT 10SM CLR M06/M09 A3002 990 74 -1200 100/04 RMK AO2
94908KDBQ DBQ20060228075011302/28/06 07:50:31  5-MIN KDBQ 281350Z 11005KT 10SM CLR M06/M09 A3002 990 77 -1200 110/05 RMK AO2 SLP180 T10561089
94908KDBQ DBQ20060228075511302/28/06 07:55:31  5-MIN KDBQ 281355Z 11004KT 10SM CLR M06/M09 A3002 990 77 -1200 100/04 RMK AO2 SLP180 T10561089
94908KDBQ DBQ20060228080009602/28/06 08:00:31  5-MIN KDBQ 281400Z 10006KT 10SM CLR M05/M09 A3001 990 74 -1100 100/06 RMK AO2
94908KDBQ DBQ20060228080509602/28/06 08:05:31  5-MIN KDBQ 281405Z 10007KT 10SM CLR M05/M09 A3001 990 74 -1100 100/07 RMK AO2
94908KDBQ DBQ20060228081009602/28/06 08:10:31  5-MIN KDBQ 281410Z 12006KT 10SM CLR M04/M09 A3001 990 71 -1100 110/06 RMK AO2
94908KDBQ DBQ20060228081509602/28/06 08:15:31  5-MIN KDBQ 281415Z 12006KT 10SM CLR M04/M08 A3001 990 74 -1100 120/06 RMK AO2
94908KDBQ DBQ20060228082009602/28/06 08:20:31  5-MIN KDBQ 281420Z 10007KT 10SM CLR M04/M08 A3001 990 74 -1100 100/07 RMK AO2
94908KDBQ DBQ20060228082509602/28/06 08:25:31  5-MIN KDBQ 281425Z 10009KT 10SM CLR M04/M08 A3001 990 71 -1000 100/09 RMK AO2
94908KDBQ DBQ20060228083009702/28/06 08:30:31  5-MIN KDBQ 281430Z 11008KT 10SM CLR M04/M08 A3001 1000 71 -1000 110/08 RMK AO2
94908KDBQ DBQ20060228083509702/28/06 08:35:31  5-MIN KDBQ 281435Z 12008KT 10SM CLR M04/M08 A3001 1000 71 -1000 120/08 RMK AO2
94908KDBQ DBQ20060228084009602/28/06 08:40:31  5-MIN KDBQ 281440Z 12009KT 10SM CLR M03/M08 A3001 1000 71 -900 120/09 RMK AO2
94908KDBQ DBQ20060228084509602/28/06 08:45:31  5-MIN KDBQ 281445Z 12008KT 10SM CLR M03/M08 A3001 1000 71 -900 120/08 RMK AO2
94908KDBQ DBQ20060228085011902/28/06 08:50:31  5-MIN KDBQ 281450Z 12009KT 10SM CLR M03/M08 A3000 1000 68 -800 120/09 RMK AO2 SLP175 T10281078 50004
94908KDBQ DBQ20060228085511902/28/06 08:55:31  5-MIN KDBQ 281455Z 11013KT 10SM CLR M03/M08 A3000 1000 68 -800 110/13 RMK AO2 SLP174 T10281078 58005
94908KDBQ DBQ20060228090009602/28/06 09:00:31  5-MIN KDBQ 281500Z 11012KT 10SM CLR M03/M08 A3000 1010 68 -800 110/12 RMK AO2
94908KDBQ DBQ20060228090509602/28/06 09:05:31  5-MIN KDBQ 281505Z 11011KT 10SM CLR M03/M08 A3000 1010 68 -800 110/11 RMK AO2
94908KDBQ DBQ20060228091009602/28/06 09:10:31  5-MIN KDBQ 281510Z 11011KT 10SM CLR M03/M08 A3000 1010 68 -800 110/11 RMK AO2
94908KDBQ DBQ20060228091509602/28/06 09:15:31  5-MIN KDBQ 281515Z 12011KT 10SM CLR M02/M08 A3000 1010 66 -800 120/11 RMK AO2
94908KDBQ DBQ20060228092009602/28/06 09:20:31  5-MIN KDBQ 281520Z 12009KT 10SM CLR M02/M08 A2999 1010 66 -800 120/09 RMK AO2
94908KDBQ DBQ20060228092509602/28/06 09:25:31  5-MIN KDBQ 281525Z 11010KT 10SM CLR M02/M08 A2999 1010 66 -800 110/10 RMK AO2
94908KDBQ DBQ20060228093009602/28/06 09:30:31  5-MIN KDBQ 281530Z 12011KT 10SM CLR M02/M08 A2999 1020 63 -700 120/11 RMK AO2
94908KDBQ DBQ20060228093509602/28/06 09:35:31  5-MIN KDBQ 281535Z 12011KT 10SM CLR M02/M08 A2998 1020 63 -700 110/11 RMK AO2
94908KDBQ DBQ20060228094009602/28/06 09:40:31  5-MIN KDBQ 281540Z 12010KT 10SM CLR M02/M08 A2999 1020 60 -700 120/10 RMK AO2
94908KDBQ DBQ20060228094509602/28/06 09:45:31  5-MIN KDBQ 281545Z 11010KT 10SM CLR M02/M08 A2999 1020 63 -700 110/10 RMK AO2
94908KDBQ DBQ20060228095011302/28/06 09:50:31  5-MIN KDBQ 281550Z 10010KT 10SM CLR M01/M07 A2999 1020 63 -600 100/10 RMK AO2 SLP168 T10111072
94908KDBQ DBQ20060228095511302/28/06 09:55:31  5-MIN KDBQ 281555Z 12011KT 10SM CLR M01/M08 A2999 1020 60 -600 120/11 RMK AO2 SLP167 T10111078
94908KDBQ DBQ20060228100009602/28/06 10:00:31  5-MIN KDBQ 281600Z 11010KT 10SM CLR M01/M08 A2998 1020 60 -600 110/10 RMK AO2
94908KDBQ DBQ20060228100509602/28/06 10:05:31  5-MIN KDBQ 281605Z 12011KT 10SM CLR M01/M08 A2998 1020 60 -600 120/11 RMK AO2
94908KDBQ DBQ20060228101009602/28/06 10:10:31  5-MIN KDBQ 281610Z 11010KT 10SM CLR M01/M08 A2998 1020 60 -600 110/10 RMK AO2
94908KDBQ DBQ20060228101509602/28/06 10:15:31  5-MIN KDBQ 281615Z 11010KT 10SM CLR M01/M08 A2998 1020 58 -500 110/10 RMK AO2
94908KDBQ DBQ20060228102009602/28/06 10:20:31  5-MIN KDBQ 281620Z 12008KT 10SM CLR M01/M08 A2998 1020 58 -500 120/08 RMK AO2
94908KDBQ DBQ20060228102509602/28/06 10:25:31  5-MIN KDBQ 281625Z 11011KT 10SM CLR M01/M08 A2998 1030 58 -500 110/11 RMK AO2
94908KDBQ DBQ20060228103009502/28/06 10:30:31  5-MIN KDBQ 281630Z 10008KT 10SM CLR 00/M07 A2998 1030 58 -500 100/08 RMK AO2
94908KDBQ DBQ20060228103509502/28/06 10:35:31  5-MIN KDBQ 281635Z 10009KT 10SM CLR 00/M08 A2997 1030 56 -500 100/09 RMK AO2
94908KDBQ DBQ20060228104009502/28/06 10:40:31  5-MIN KDBQ 281640Z 11009KT 10SM CLR 00/M07 A2997 1030 58 -500 110/09 RMK AO2
94908KDBQ DBQ20060228104509502/28/06 10:45:31  5-MIN KDBQ 281645Z 10008KT 10SM CLR 00/M07 A2997 1040 58 -500 100/08 RMK AO2
94908KDBQ DBQ20060228105011202/28/06 10:50:31  5-MIN KDBQ 281650Z 10008KT 10SM CLR 01/M07 A2997 1040 56 -400 100/08 RMK AO2 SLP161 T00061072
94908KDBQ DBQ20060228105511202/28/06 10:55:31  5-MIN KDBQ 281655Z 10009KT 10SM CLR 01/M07 A2997 1040 56 -400 090/09 RMK AO2 SLP161 T00061072
94908KDBQ DBQ20060228110009502/28/06 11:00:31  5-MIN KDBQ 281700Z 10010KT 10SM CLR 01/M07 A2997 1040 56 -400 100/10 RMK AO2
94908KDBQ DBQ20060228110509502/28/06 11:05:31  5-MIN KDBQ 281705Z 10009KT 10SM CLR 01/M07 A2997 1040 56 -400 100/09 RMK AO2
94908KDBQ DBQ20060228111009502/28/06 11:10:31  5-MIN KDBQ 281710Z 10009KT 10SM CLR 01/M07 A2996 1040 56 -400 100/09 RMK AO2
94908KDBQ DBQ20060228111509502/28/06 11:15:31  5-MIN KDBQ 281715Z 10009KT 10SM CLR 01/M07 A2996 1040 56 -400 100/09 RMK AO2
94908KDBQ DBQ20060228112009502/28/06 11:20:31  5-MIN KDBQ 281720Z 10008KT 10SM CLR 01/M07 A2996 1040 56 -300 100/08 RMK AO2
94908KDBQ DBQ20060228112509502/28/06 11:25:31  5-MIN KDBQ 281725Z 09008KT 10SM CLR 01/M07 A2996 1040 56 -300 090/08 RMK AO2
94908KDBQ DBQ20060228113009502/28/06 11:30:31  5-MIN KDBQ 281730Z 10007KT 10SM CLR 01/M07 A2996 1040 56 -300 100/07 RMK AO2
94908KDBQ DBQ20060228113509502/28/06 11:35:31  5-MIN KDBQ 281735Z 10007KT 10SM CLR 01/M07 A2996 1040 56 -300 100/07 RMK AO2
94908KDBQ DBQ20060228114009502/28/06 11:40:31  5-MIN KDBQ 281740Z 10010KT 10SM CLR 01/M07 A2995 1050 56 -300 100/10 RMK AO2
94908KDBQ DBQ20060228114509502/28/06 11:45:31  5-MIN KDBQ 281745Z 10008KT 10SM CLR 01/M07 A2995 1050 56 -300 100/08 RMK AO2
94908KDBQ DBQ20060228115013002/28/06 11:50:31  5-MIN KDBQ 281750Z 11010KT 10SM CLR 01/M07 A2995 1050 56 -300 100/10 RMK AO2 SLP156 T00111067 10011 21067 58005
94908KDBQ DBQ20060228115513002/28/06 11:55:31  5-MIN KDBQ 281755Z 10009KT 10SM CLR 02/M06 A2995 1050 56 -200 100/09 RMK AO2 SLP154 T00171061 10017 21067 58017
94908KDBQ DBQ20060228120009502/28/06 12:00:31  5-MIN KDBQ 281800Z 11008KT 10SM CLR 02/M07 A2994 1060 54 -200 110/08 RMK AO2
94908KDBQ DBQ20060228120509502/28/06 12:05:31  5-MIN KDBQ 281805Z 09008KT 10SM CLR 02/M07 A2995 1050 54 -200 090/08 RMK AO2
94908KDBQ DBQ20060228121009502/28/06 12:10:31  5-MIN KDBQ 281810Z 09008KT 10SM CLR 02/M06 A2995 1050 54 -200 090/08 RMK AO2
94908KDBQ DBQ20060228121509502/28/06 12:15:31  5-MIN KDBQ 281815Z 09006KT 10SM CLR 02/M07 A2995 1060 52 -200 090/06 RMK AO2
94908KDBQ DBQ20060228122009502/28/06 12:20:31  5-MIN KDBQ 281820Z 10007KT 10SM CLR 02/M06 A2994 1060 54 -100 100/07 RMK AO2
94908KDBQ DBQ20060228122509502/28/06 12:25:31  5-MIN KDBQ 281825Z 10008KT 10SM CLR 02/M07 A2994 1060 52 -100 100/08 RMK AO2
94908KDBQ DBQ20060228123009502/28/06 12:30:31  5-MIN KDBQ 281830Z 11009KT 10SM CLR 02/M07 A2994 1060 52 -100 100/09 RMK AO2
94908KDBQ DBQ20060228123509502/28/06 12:35:31  5-MIN KDBQ 281835Z 10008KT 10SM CLR 02/M07 A2993 1070 52 -100 100/08 RMK AO2
94908KDBQ DBQ20060228124009502/28/06 12:40:31  5-MIN KDBQ 281840Z 10007KT 10SM CLR 03/M06 A2993 1070 52 -100 100/07 RMK AO2
94908KDBQ DBQ20060228124509502/28/06 12:45:31  5-MIN KDBQ 281845Z 10010KT 10SM CLR 03/M06 A2993 1070 52 -100 100/10 RMK AO2
94908KDBQ DBQ20060228125011202/28/06 12:50:31  5-MIN KDBQ 281850Z 11007KT 10SM CLR 03/M06 A2992 1080 52 -100 110/07 RMK AO2 SLP144 T00281061
94908KDBQ DBQ20060228125511202/28/06 12:55:31  5-MIN KDBQ 281855Z 11009KT 10SM CLR 03/M06 A2992 1080 52 -100 110/09 RMK AO2 SLP143 T00281061
94908KDBQ DBQ20060228130009202/28/06 13:00:31  5-MIN KDBQ 281900Z 10009KT 10SM CLR 03/M06 A2992 1080 52 0 100/09 RMK AO2
94908KDBQ DBQ20060228130509202/28/06 13:05:31  5-MIN KDBQ 281905Z 11007KT 10SM CLR 03/M06 A2992 1080 52 0 110/07 RMK AO2
94908KDBQ DBQ20060228131009202/28/06 13:10:31  5-MIN KDBQ 281910Z 09006KT 10SM CLR 03/M06 A2991 1080 50 0 090/06 RMK AO2
94908KDBQ DBQ20060228131509202/28/06 13:15:31  5-MIN KDBQ 281915Z 09008KT 10SM CLR 03/M06 A2992 1080 50 0 090/08 RMK AO2
94908KDBQ DBQ20060228132009202/28/06 13:20:31  5-MIN KDBQ 281920Z 10006KT 10SM CLR 03/M06 A2991 1080 50 0 100/06 RMK AO2
94908KDBQ DBQ20060228132509202/28/06 13:25:31  5-MIN KDBQ 281925Z 08007KT 10SM CLR 03/M06 A2992 1080 50 0 080/07 RMK AO2
94908KDBQ DBQ20060228133009202/28/06 13:30:31  5-MIN KDBQ 281930Z 09008KT 10SM CLR 03/M06 A2991 1080 50 0 080/08 RMK AO2
94908KDBQ DBQ20060228133509202/28/06 13:35:31  5-MIN KDBQ 281935Z 10009KT 10SM CLR 03/M06 A2991 1090 50 0 100/09 RMK AO2
94908KDBQ DBQ20060228134009202/28/06 13:40:31  5-MIN KDBQ 281940Z 10006KT 10SM CLR 03/M06 A2991 1090 50 0 100/06 RMK AO2
94908KDBQ DBQ20060228134509202/28/06 13:45:31  5-MIN KDBQ 281945Z 10007KT 10SM CLR 03/M06 A2990 1090 50 0 100/07 RMK AO2
94908KDBQ DBQ20060228135010902/28/06 13:50:31  5-MIN KDBQ 281950Z 11006KT 10SM CLR 03/M06 A2990 1090 50 0 110/06 RMK AO2 SLP139 T00331061
94908KDBQ DBQ20060228135511102/28/06 13:55:31  5-MIN KDBQ 281955Z 08006KT 10SM CLR 04/M06 A2990 1100 48 100 080/06 RMK AO2 SLP138 T00391061
94908KDBQ DBQ20060228140009402/28/06 14:00:31  5-MIN KDBQ 282000Z 09007KT 10SM CLR 04/M06 A2990 1100 50 100 090/07 RMK AO2
94908KDBQ DBQ20060228140509402/28/06 14:05:31  5-MIN KDBQ 282005Z 12006KT 10SM CLR 04/M06 A2990 1100 50 100 110/06 RMK AO2
94908KDBQ DBQ20060228141009202/28/06 14:10:31  5-MIN KDBQ 282010Z 10006KT 10SM CLR 03/M06 A2990 1100 50 0 100/06 RMK AO2
94908KDBQ DBQ20060228141509402/28/06 14:15:31  5-MIN KDBQ 282015Z 09007KT 10SM CLR 04/M06 A2989 1100 50 100 090/07 RMK AO2
94908KDBQ DBQ20060228142009402/28/06 14:20:31  5-MIN KDBQ 282020Z 08006KT 10SM CLR 04/M06 A2989 1100 50 100 070/06 RMK AO2
94908KDBQ DBQ20060228142509402/28/06 14:25:31  5-MIN KDBQ 282025Z 09007KT 10SM CLR 04/M06 A2989 1110 50 100 090/07 RMK AO2
94908KDBQ DBQ20060228143009402/28/06 14:30:31  5-MIN KDBQ 282030Z 10005KT 10SM CLR 04/M06 A2989 1100 48 100 090/05 RMK AO2
94908KDBQ DBQ20060228143509402/28/06 14:35:31  5-MIN KDBQ 282035Z 09008KT 10SM CLR 04/M06 A2989 1100 50 100 090/08 RMK AO2
94908KDBQ DBQ20060228144009402/28/06 14:40:31  5-MIN KDBQ 282040Z 11006KT 10SM CLR 04/M06 A2989 1110 50 100 110/06 RMK AO2
94908KDBQ DBQ20060228144509402/28/06 14:45:31  5-MIN KDBQ 282045Z 10007KT 10SM CLR 04/M06 A2989 1110 50 100 100/07 RMK AO2
94908KDBQ DBQ20060228145011702/28/06 14:50:31  5-MIN KDBQ 282050Z 09006KT 10SM CLR 04/M06 A2989 1110 50 100 090/06 RMK AO2 SLP134 T00391056 58017
94908KDBQ DBQ20060228145511702/28/06 14:55:31  5-MIN KDBQ 282055Z 09005KT 10SM CLR 04/M06 A2989 1110 50 100 090/05 RMK AO2 SLP133 T00391056 56020
94908KDBQ DBQ20060228150009402/28/06 15:00:31  5-MIN KDBQ 282100Z 09007KT 10SM CLR 04/M06 A2989 1110 50 100 090/07 RMK AO2
94908KDBQ DBQ20060228150509402/28/06 15:05:31  5-MIN KDBQ 282105Z 10007KT 10SM CLR 04/M06 A2988 1110 50 100 100/07 RMK AO2
94908KDBQ DBQ20060228151009402/28/06 15:10:31  5-MIN KDBQ 282110Z 10006KT 10SM CLR 04/M06 A2988 1110 48 100 100/06 RMK AO2
94908KDBQ DBQ20060228151509402/28/06 15:15:31  5-MIN KDBQ 282115Z 10006KT 10SM CLR 04/M06 A2988 1110 50 100 100/06 RMK AO2
94908KDBQ DBQ20060228152009402/28/06 15:20:31  5-MIN KDBQ 282120Z 12007KT 10SM CLR 04/M06 A2988 1110 50 100 120/07 RMK AO2
94908KDBQ DBQ20060228152509402/28/06 15:25:31  5-MIN KDBQ 282125Z 11005KT 10SM CLR 04/M05 A2988 1110 52 100 110/05 RMK AO2
94908KDBQ DBQ20060228153009402/28/06 15:30:31  5-MIN KDBQ 282130Z 10004KT 10SM CLR 04/M06 A2988 1110 50 100 100/04 RMK AO2
94908KDBQ DBQ20060228153509402/28/06 15:35:31  5-MIN KDBQ 282135Z 11005KT 10SM CLR 04/M06 A2988 1110 48 100 110/05 RMK AO2
94908KDBQ DBQ20060228154009402/28/06 15:40:31  5-MIN KDBQ 282140Z 13005KT 10SM CLR 04/M05 A2988 1110 52 100 130/05 RMK AO2
94908KDBQ DBQ20060228154509402/28/06 15:45:31  5-MIN KDBQ 282145Z 10004KT 10SM CLR 04/M05 A2988 1110 52 100 100/04 RMK AO2
94908KDBQ DBQ20060228155011102/28/06 15:50:31  5-MIN KDBQ 282150Z 11004KT 10SM CLR 04/M05 A2987 1120 50 200 110/04 RMK AO2 SLP128 T00441050
94908KDBQ DBQ20060228155511102/28/06 15:55:31  5-MIN KDBQ 282155Z 13006KT 10SM CLR 04/M05 A2987 1120 50 200 130/06 RMK AO2 SLP128 T00441050
94908KDBQ DBQ20060228160009402/28/06 16:00:31  5-MIN KDBQ 282200Z 13006KT 10SM CLR 04/M05 A2987 1120 50 200 130/06 RMK AO2
94908KDBQ DBQ20060228160509402/28/06 16:05:31  5-MIN KDBQ 282205Z 11005KT 10SM CLR 04/M05 A2987 1120 50 200 100/05 RMK AO2
94908KDBQ DBQ20060228161009402/28/06 16:10:31  5-MIN KDBQ 282210Z 12005KT 10SM CLR 04/M05 A2987 1120 50 200 110/05 RMK AO2
94908KDBQ DBQ20060228161509402/28/06 16:15:31  5-MIN KDBQ 282215Z 13004KT 10SM CLR 04/M05 A2987 1130 50 200 130/04 RMK AO2
94908KDBQ DBQ20060228162009402/28/06 16:20:31  5-MIN KDBQ 282220Z 12005KT 10SM CLR 04/M04 A2986 1130 54 100 120/05 RMK AO2
94908KDBQ DBQ20060228162509402/28/06 16:25:31  5-MIN KDBQ 282225Z 12005KT 10SM CLR 04/M05 A2986 1130 52 100 110/05 RMK AO2
94908KDBQ DBQ20060228163009402/28/06 16:30:31  5-MIN KDBQ 282230Z 12005KT 10SM CLR 04/M04 A2986 1140 54 100 120/05 RMK AO2
94908KDBQ DBQ20060228163509402/28/06 16:35:31  5-MIN KDBQ 282235Z 13004KT 10SM CLR 04/M04 A2985 1140 54 100 130/04 RMK AO2
94908KDBQ DBQ20060228164009402/28/06 16:40:31  5-MIN KDBQ 282240Z 13005KT 10SM CLR 04/M04 A2985 1140 54 100 130/05 RMK AO2
94908KDBQ DBQ20060228164509402/28/06 16:45:31  5-MIN KDBQ 282245Z 13007KT 10SM CLR 04/M06 A2985 1140 48 200 130/07 RMK AO2
94908KDBQ DBQ20060228165011102/28/06 16:50:31  5-MIN KDBQ 282250Z 13006KT 10SM CLR 04/M06 A2985 1140 50 100 130/06 RMK AO2 SLP121 T00391056
94908KDBQ DBQ20060228165511102/28/06 16:55:31  5-MIN KDBQ 282255Z 12006KT 10SM CLR 04/M05 A2986 1140 52 100 120/06 RMK AO2 SLP123 T00391050
94908KDBQ DBQ20060228170009402/28/06 17:00:31  5-MIN KDBQ 282300Z 12003KT 10SM CLR 04/M05 A2987 1120 52 100 120/03 RMK AO2
94908KDBQ DBQ20060228170509402/28/06 17:05:31  5-MIN KDBQ 282305Z 11005KT 10SM CLR 04/M05 A2986 1130 52 100 110/05 RMK AO2
94908KDBQ DBQ20060228171009402/28/06 17:10:31  5-MIN KDBQ 282310Z 10006KT 10SM CLR 04/M04 A2986 1140 54 100 100/06 RMK AO2
94908KDBQ DBQ20060228171509202/28/06 17:15:31  5-MIN KDBQ 282315Z 10006KT 10SM CLR 03/M04 A2985 1140 57 0 100/06 RMK AO2
94908KDBQ DBQ20060228172009202/28/06 17:20:31  5-MIN KDBQ 282320Z 10006KT 10SM CLR 03/M04 A2985 1140 57 0 100/06 RMK AO2
94908KDBQ DBQ20060228172509202/28/06 17:25:31  5-MIN KDBQ 282325Z 10005KT 10SM CLR 03/M04 A2985 1140 57 0 090/05 RMK AO2
94908KDBQ DBQ20060228173009202/28/06 17:30:31  5-MIN KDBQ 282330Z 08006KT 10SM CLR 03/M04 A2985 1140 57 0 080/06 RMK AO2
94908KDBQ DBQ20060228173509402/28/06 17:35:31  5-MIN KDBQ 282335Z 08006KT 10SM CLR 03/M05 A2985 1150 54 100 080/06 RMK AO2
94908KDBQ DBQ20060228174009402/28/06 17:40:31  5-MIN KDBQ 282340Z 09006KT 10SM CLR 03/M05 A2984 1150 54 100 090/06 RMK AO2
94908KDBQ DBQ20060228174509202/28/06 17:45:31  5-MIN KDBQ 282345Z 09005KT 10SM CLR 03/M05 A2984 1150 56 0 090/05 RMK AO2
94908KDBQ DBQ20060228175012702/28/06 17:50:31  5-MIN KDBQ 282350Z 08004KT 10SM CLR 03/M05 A2984 1150 56 0 080/04 RMK AO2 SLP119 T00281050 10044 20017 56020
94908KDBQ DBQ20060228175512902/28/06 17:55:31  5-MIN KDBQ 282355Z 11003KT 10SM CLR 03/M06 A2984 1150 52 100 110/03 RMK AO2 SLP118 T00331056 10044 20017 57014
94908KDBQ DBQ20060228180009202/28/06 18:00:31  5-MIN KDBQ 010000Z 00000KT 10SM CLR 02/M05 A2984 1150 59 0 000/00 RMK AO2
94908KDBQ DBQ20060228180509202/28/06 18:05:31  5-MIN KDBQ 010005Z 00000KT 10SM CLR 02/M04 A2984 1150 61 0 000/00 RMK AO2
94908KDBQ DBQ20060228181009502/28/06 18:10:31  5-MIN KDBQ 010010Z 00000KT 10SM CLR 02/M04 A2984 1150 64 -100 000/00 RMK AO2
94908KDBQ DBQ20060228181509202/28/06 18:15:31  5-MIN KDBQ 010015Z 08003KT 10SM CLR 02/M05 A2984 1160 59 0 080/03 RMK AO2
94908KDBQ DBQ20060228182009502/28/06 18:20:31  5-MIN KDBQ 010020Z 08003KT 10SM CLR 01/M04 A2984 1150 69 -200 080/03 RMK AO2
94908KDBQ DBQ20060228182509502/28/06 18:25:31  5-MIN KDBQ 010025Z 05003KT 10SM CLR 01/M04 A2984 1150 69 -200 050/03 RMK AO2
94908KDBQ DBQ20060228183009502/28/06 18:30:31  5-MIN KDBQ 010030Z 04004KT 10SM CLR 01/M04 A2984 1150 72 -200 040/04 RMK AO2
94908KDBQ DBQ20060228183509502/28/06 18:35:31  5-MIN KDBQ 010035Z 04005KT 10SM CLR 01/M04 A2984 1150 72 -200 040/05 RMK AO2
94908KDBQ DBQ20060228184009502/28/06 18:40:31  5-MIN KDBQ 010040Z 05005KT 10SM CLR 01/M04 A2984 1150 72 -200 050/05 RMK AO2
94908KDBQ DBQ20060228184509502/28/06 18:45:31  5-MIN KDBQ 010045Z 04005KT 10SM CLR 01/M04 A2984 1150 69 -200 040/05 RMK AO2
94908KDBQ DBQ20060228185011202/28/06 18:50:31  5-MIN KDBQ 010050Z 04005KT 10SM CLR 01/M04 A2985 1150 72 -200 040/05 RMK AO2 SLP121 T00061039
94908KDBQ DBQ20060228185511702/28/06 18:55:31  5-MIN KDBQ 010055Z AUTO 03006KT 10SM CLR 01/M04 A2985 1140 72 -200 030/06 RMK AO2 SLP122 T00061039
94908KDBQ DBQ20060228190009502/28/06 19:00:31  5-MIN KDBQ 010100Z 03006KT 10SM CLR 01/M04 A2985 1140 72 -200 030/06 RMK AO2
94908KDBQ DBQ20060228190509502/28/06 19:05:31  5-MIN KDBQ 010105Z 04006KT 10SM CLR 01/M04 A2985 1140 72 -300 040/06 RMK AO2
94908KDBQ DBQ20060228191009502/28/06 19:10:31  5-MIN KDBQ 010110Z 04007KT 10SM CLR 01/M04 A2985 1140 72 -300 030/07 RMK AO2
94908KDBQ DBQ20060228191509502/28/06 19:15:31  5-MIN KDBQ 010115Z 04007KT 10SM CLR 01/M04 A2985 1140 72 -300 040/07 RMK AO2
94908KDBQ DBQ20060228192009502/28/06 19:20:31  5-MIN KDBQ 010120Z 04007KT 10SM CLR 01/M04 A2985 1140 72 -300 040/07 RMK AO2
94908KDBQ DBQ20060228192509502/28/06 19:25:31  5-MIN KDBQ 010125Z 04007KT 10SM CLR 01/M04 A2986 1140 72 -300 040/07 RMK AO2
94908KDBQ DBQ20060228193009502/28/06 19:30:31  5-MIN KDBQ 010130Z 04007KT 10SM CLR 01/M04 A2986 1140 72 -300 040/07 RMK AO2
94908KDBQ DBQ20060228193509502/28/06 19:35:31  5-MIN KDBQ 010135Z 04007KT 10SM CLR 00/M04 A2986 1140 75 -300 040/07 RMK AO2
94908KDBQ DBQ20060228194009502/28/06 19:40:31  5-MIN KDBQ 010140Z 04006KT 10SM CLR 00/M04 A2986 1140 75 -300 040/06 RMK AO2
94908KDBQ DBQ20060228194509502/28/06 19:45:31  5-MIN KDBQ 010145Z 03007KT 10SM CLR 00/M04 A2986 1130 75 -300 030/07 RMK AO2
94908KDBQ DBQ20060228195012202/28/06 19:50:31  5-MIN KDBQ 010150Z AUTO 04007KT 10SM CLR 00/M04 A2986 1130 75 -300 030/07 RMK AO2 SLP127 T00001039 TSNO
94908KDBQ DBQ20060228195512202/28/06 19:55:31  5-MIN KDBQ 010155Z AUTO 04007KT 10SM CLR 00/M04 A2986 1130 72 -300 040/07 RMK AO2 SLP127 T00001044 TSNO
94908KDBQ DBQ20060228200010502/28/06 20:00:31  5-MIN KDBQ 010200Z AUTO 04007KT 10SM CLR 00/M04 A2986 1130 72 -300 040/07 RMK AO2 TSNO
94908KDBQ DBQ20060228200510602/28/06 20:05:31  5-MIN KDBQ 010205Z AUTO 04007KT 10SM CLR M01/M04 A2986 1130 75 -400 040/07 RMK AO2 TSNO
94908KDBQ DBQ20060228201010602/28/06 20:10:31  5-MIN KDBQ 010210Z AUTO 04008KT 10SM CLR M01/M04 A2986 1130 75 -400 040/08 RMK AO2 TSNO
94908KDBQ DBQ20060228201510602/28/06 20:15:31  5-MIN KDBQ 010215Z AUTO 04007KT 10SM CLR M01/M04 A2986 1130 75 -400 040/07 RMK AO2 TSNO
94908KDBQ DBQ20060228202010602/28/06 20:20:31  5-MIN KDBQ 010220Z AUTO 04007KT 10SM CLR M01/M04 A2986 1130 75 -400 040/07 RMK AO2 TSNO
94908KDBQ DBQ20060228202510602/28/06 20:25:31  5-MIN KDBQ 010225Z AUTO 04007KT 10SM CLR M01/M04 A2986 1130 75 -400 040/07 RMK AO2 TSNO
94908KDBQ DBQ20060228203010602/28/06 20:30:31  5-MIN KDBQ 010230Z AUTO 04007KT 10SM CLR M01/M04 A2986 1130 75 -400 040/07 RMK AO2 TSNO
94908KDBQ DBQ20060228203510602/28/06 20:35:31  5-MIN KDBQ 010235Z AUTO 05007KT 10SM CLR M01/M04 A2986 1130 75 -400 050/07 RMK AO2 TSNO
94908KDBQ DBQ20060228204010602/28/06 20:40:31  5-MIN KDBQ 010240Z AUTO 05006KT 10SM CLR M01/M04 A2987 1130 75 -400 050/06 RMK AO2 TSNO
94908KDBQ DBQ20060228204510602/28/06 20:45:31  5-MIN KDBQ 010245Z AUTO 06005KT 10SM CLR M01/M04 A2987 1130 75 -400 050/05 RMK AO2 TSNO
94908KDBQ DBQ20060228205012902/28/06 20:50:31  5-MIN KDBQ 010250Z AUTO 06005KT 10SM CLR M01/M04 A2987 1130 78 -500 060/05 RMK AO2 SLP128 T10111044 57014 TSNO
94908KDBQ DBQ20060228205512902/28/06 20:55:31  5-MIN KDBQ 010255Z AUTO 06006KT 10SM CLR M01/M05 A2987 1120 72 -400 060/06 RMK AO2 SLP129 T10061050 53010 TSNO
94908KDBQ DBQ20060228210010602/28/06 21:00:31  5-MIN KDBQ 010300Z AUTO 06005KT 10SM CLR M01/M05 A2987 1120 72 -400 060/05 RMK AO2 TSNO
94908KDBQ DBQ20060228210510602/28/06 21:05:31  5-MIN KDBQ 010305Z AUTO 05006KT 10SM CLR M01/M04 A2987 1120 78 -500 050/06 RMK AO2 TSNO
94908KDBQ DBQ20060228211010602/28/06 21:10:31  5-MIN KDBQ 010310Z AUTO 06006KT 10SM CLR M01/M05 A2988 1120 75 -500 060/06 RMK AO2 TSNO
94908KDBQ DBQ20060228211510602/28/06 21:15:31  5-MIN KDBQ 010315Z AUTO 06006KT 10SM CLR M01/M05 A2988 1120 75 -500 060/06 RMK AO2 TSNO
94908KDBQ DBQ20060228212010602/28/06 21:20:31  5-MIN KDBQ 010320Z AUTO 06006KT 10SM CLR M01/M05 A2988 1120 75 -500 060/06 RMK AO2 TSNO
94908KDBQ DBQ20060228212510602/28/06 21:25:31  5-MIN KDBQ 010325Z AUTO 05006KT 10SM CLR M01/M05 A2988 1120 75 -500 050/06 RMK AO2 TSNO
94908KDBQ DBQ20060228213010602/28/06 21:30:31  5-MIN KDBQ 010330Z AUTO 04007KT 10SM CLR M01/M05 A2988 1120 75 -500 040/07 RMK AO2 TSNO
94908KDBQ DBQ20060228213510602/28/06 21:35:31  5-MIN KDBQ 010335Z AUTO 05007KT 10SM CLR M01/M05 A2987 1120 75 -500 050/07 RMK AO2 TSNO
94908KDBQ DBQ20060228214010602/28/06 21:40:31  5-MIN KDBQ 010340Z AUTO 05007KT 10SM CLR M01/M05 A2987 1120 75 -500 050/07 RMK AO2 TSNO
94908KDBQ DBQ20060228214510602/28/06 21:45:31  5-MIN KDBQ 010345Z AUTO 05007KT 10SM CLR M01/M05 A2987 1120 75 -500 050/07 RMK AO2 TSNO
94908KDBQ DBQ20060228215012302/28/06 21:50:31  5-MIN KDBQ 010350Z AUTO 05007KT 10SM CLR M01/M05 A2987 1120 75 -500 050/07 RMK AO2 SLP128 T10111050 TSNO
94908KDBQ DBQ20060228215512302/28/06 21:55:31  5-MIN KDBQ 010355Z AUTO 04007KT 10SM CLR M01/M05 A2987 1130 75 -500 040/07 RMK AO2 SLP127 T10111050 TSNO
94908KDBQ DBQ20060228220010602/28/06 22:00:31  5-MIN KDBQ 010400Z AUTO 04005KT 10SM CLR M01/M05 A2987 1120 75 -500 040/05 RMK AO2 TSNO
94908KDBQ DBQ20060228220510602/28/06 22:05:31  5-MIN KDBQ 010405Z AUTO 03006KT 10SM CLR M01/M05 A2987 1120 75 -500 030/06 RMK AO2 TSNO
94908KDBQ DBQ20060228221010602/28/06 22:10:31  5-MIN KDBQ 010410Z AUTO 04006KT 10SM CLR M01/M05 A2987 1120 75 -500 040/06 RMK AO2 TSNO
94908KDBQ DBQ20060228221510602/28/06 22:15:31  5-MIN KDBQ 010415Z AUTO 05006KT 10SM CLR M01/M05 A2987 1120 75 -500 040/06 RMK AO2 TSNO
94908KDBQ DBQ20060228222010602/28/06 22:20:31  5-MIN KDBQ 010420Z AUTO 05007KT 10SM CLR M01/M05 A2987 1120 75 -500 050/07 RMK AO2 TSNO
94908KDBQ DBQ20060228222510602/28/06 22:25:31  5-MIN KDBQ 010425Z AUTO 05007KT 10SM CLR M01/M05 A2987 1120 75 -500 050/07 RMK AO2 TSNO
94908KDBQ DBQ20060228223010602/28/06 22:30:31  5-MIN KDBQ 010430Z AUTO 05008KT 10SM CLR M01/M05 A2987 1120 75 -500 050/08 RMK AO2 TSNO
94908KDBQ DBQ20060228223510602/28/06 22:35:31  5-MIN KDBQ 010435Z AUTO 05009KT 10SM CLR M01/M05 A2987 1130 72 -400 050/09 RMK AO2 TSNO
94908KDBQ DBQ20060228224010602/28/06 22:40:31  5-MIN KDBQ 010440Z AUTO 04009KT 10SM CLR M01/M04 A2987 1130 75 -400 040/09 RMK AO2 TSNO
94908KDBQ DBQ20060228224510602/28/06 22:45:31  5-MIN KDBQ 010445Z AUTO 05009KT 10SM CLR M01/M05 A2987 1130 75 -500 040/09 RMK AO2 TSNO
94908KDBQ DBQ20060228225012302/28/06 22:50:31  5-MIN KDBQ 010450Z AUTO 05009KT 10SM CLR M01/M05 A2986 1130 75 -500 050/09 RMK AO2 SLP123 T10111050 TSNO
94908KDBQ DBQ20060228225512302/28/06 22:55:31  5-MIN KDBQ 010455Z AUTO 05008KT 10SM CLR M01/M05 A2986 1130 75 -500 050/08 RMK AO2 SLP123 T10111050 TSNO
94908KDBQ DBQ20060228230010602/28/06 23:00:31  5-MIN KDBQ 010500Z AUTO 05008KT 10SM CLR M01/M05 A2986 1140 75 -500 050/08 RMK AO2 TSNO
94908KDBQ DBQ20060228230510602/28/06 23:05:31  5-MIN KDBQ 010505Z AUTO 06009KT 10SM CLR M01/M05 A2986 1140 72 -400 060/09 RMK AO2 TSNO
94908KDBQ DBQ20060228231010602/28/06 23:10:31  5-MIN KDBQ 010510Z AUTO 07008KT 10SM CLR M01/M05 A2986 1140 72 -400 070/08 RMK AO2 TSNO
94908KDBQ DBQ20060228231510602/28/06 23:15:31  5-MIN KDBQ 010515Z AUTO 07010KT 10SM CLR M01/M05 A2986 1140 72 -400 070/10 RMK AO2 TSNO
94908KDBQ DBQ20060228232010602/28/06 23:20:31  5-MIN KDBQ 010520Z AUTO 07008KT 10SM CLR M01/M05 A2986 1140 72 -400 070/08 RMK AO2 TSNO
94908KDBQ DBQ20060228232510502/28/06 23:25:31  5-MIN KDBQ 010525Z AUTO VRB06KT 10SM CLR 00/M06 A2987 1130 66 -300 VRB/06 RMK AO2 TSNO
94908KDBQ DBQ20060228233010502/28/06 23:30:31  5-MIN KDBQ 010530Z AUTO 08004KT 10SM CLR 00/M06 A2987 1120 66 -300 080/04 RMK AO2 TSNO
94908KDBQ DBQ20060228233510502/28/06 23:35:31  5-MIN KDBQ 010535Z AUTO 08005KT 10SM CLR 00/M06 A2987 1120 66 -300 080/05 RMK AO2 TSNO
94908KDBQ DBQ20060228234010502/28/06 23:40:31  5-MIN KDBQ 010540Z AUTO 08005KT 10SM CLR 00/M06 A2988 1120 66 -300 080/05 RMK AO2 TSNO
94908KDBQ DBQ20060228234510502/28/06 23:45:31  5-MIN KDBQ 010545Z AUTO 08005KT 10SM CLR 00/M06 A2988 1120 66 -400 080/05 RMK AO2 TSNO
94908KDBQ DBQ20060228235015002/28/06 23:50:31  5-MIN KDBQ 010550Z AUTO 08005KT 10SM CLR 00/M06 A2988 1120 66 -400 070/05 RMK AO2 SLP130 T00001056 10033 21011 400441067 53010 TSNO
94908KDBQ DBQ20060228235515002/28/06 23:55:31  5-MIN KDBQ 010555Z AUTO 07005KT 10SM CLR 00/M06 A2988 1110 66 -400 060/05 RMK AO2 SLP129 T00001056 10033 21011 400441067 53003 TSNO
