94908KDBQ DBQ20070501000010405/01/07 00:00:49  5-MIN KDBQ 010600Z AUTO VRB03KT 10SM CLR 13/06 A2983 1170 63 1200 VRB/03 RMK AO2 TSNO
94908KDBQ DBQ20070501000510405/01/07 00:05:31  5-MIN KDBQ 010605Z AUTO 16003KT 10SM CLR 13/06 A2983 1170 61 1200 150/03 RMK AO2 TSNO
94908KDBQ DBQ20070501001010405/01/07 00:10:31  5-MIN KDBQ 010610Z AUTO 18004KT 10SM CLR 13/06 A2982 1170 61 1200 180/04 RMK AO2 TSNO
94908KDBQ DBQ20070501001510405/01/07 00:15:31  5-MIN KDBQ 010615Z AUTO 18004KT 10SM CLR 12/06 A2982 1170 63 1200 180/04 RMK AO2 TSNO
94908KDBQ DBQ20070501002010405/01/07 00:20:31  5-MIN KDBQ 010620Z AUTO 19004KT 10SM CLR 12/06 A2982 1170 63 1200 190/04 RMK AO2 TSNO
94908KDBQ DBQ20070501002510405/01/07 00:25:31  5-MIN KDBQ 010625Z AUTO 21004KT 10SM CLR 12/06 A2982 1170 63 1200 210/04 RMK AO2 TSNO
94908KDBQ DBQ20070501003010405/01/07 00:30:31  5-MIN KDBQ 010630Z AUTO 18005KT 10SM CLR 12/06 A2982 1180 63 1200 180/05 RMK AO2 TSNO
94908KDBQ DBQ20070501003510405/01/07 00:35:31  5-MIN KDBQ 010635Z AUTO 17005KT 10SM CLR 12/06 A2982 1170 63 1200 160/05 RMK AO2 TSNO
94908KDBQ DBQ20070501004010405/01/07 00:40:31  5-MIN KDBQ 010640Z AUTO VRB05KT 10SM CLR 12/06 A2982 1170 63 1200 VRB/05 RMK AO2 TSNO
94908KDBQ DBQ20070501004510405/01/07 00:45:31  5-MIN KDBQ 010645Z AUTO 18005KT 10SM CLR 12/06 A2982 1170 63 1200 180/05 RMK AO2 TSNO
94908KDBQ DBQ20070501005012105/01/07 00:50:31  5-MIN KDBQ 010650Z AUTO 19004KT 10SM CLR 12/06 A2982 1170 63 1200 190/04 RMK AO2 SLP094 T01220056 TSNO
94908KDBQ DBQ20070501005512105/01/07 00:55:31  5-MIN KDBQ 010655Z AUTO VRB04KT 10SM CLR 12/06 A2982 1180 66 1100 VRB/04 RMK AO2 SLP094 T01170056 TSNO
94908KDBQ DBQ20070501010010405/01/07 01:00:31  5-MIN KDBQ 010700Z AUTO 17005KT 10SM CLR 12/06 A2981 1180 66 1200 170/05 RMK AO2 TSNO
94908KDBQ DBQ20070501010510405/01/07 01:05:31  5-MIN KDBQ 010705Z AUTO 16006KT 10SM CLR 12/06 A2981 1180 63 1200 160/06 RMK AO2 TSNO
94908KDBQ DBQ20070501011010405/01/07 01:10:31  5-MIN KDBQ 010710Z AUTO 16008KT 10SM CLR 12/06 A2981 1180 63 1200 160/08 RMK AO2 TSNO
94908KDBQ DBQ20070501011510405/01/07 01:15:31  5-MIN KDBQ 010715Z AUTO 15010KT 10SM CLR 12/06 A2981 1180 66 1200 150/10 RMK AO2 TSNO
94908KDBQ DBQ20070501012010405/01/07 01:20:31  5-MIN KDBQ 010720Z AUTO 15010KT 10SM CLR 12/06 A2981 1180 66 1200 150/10 RMK AO2 TSNO
94908KDBQ DBQ20070501012510405/01/07 01:25:31  5-MIN KDBQ 010725Z AUTO 15010KT 10SM CLR 12/06 A2981 1180 66 1200 150/10 RMK AO2 TSNO
94908KDBQ DBQ20070501013010405/01/07 01:30:31  5-MIN KDBQ 010730Z AUTO 15011KT 10SM CLR 12/06 A2981 1190 66 1200 150/11 RMK AO2 TSNO
94908KDBQ DBQ20070501013511005/01/07 01:35:31  5-MIN KDBQ 010735Z AUTO 16007G15KT 10SM CLR 12/06 A2980 1190 66 1200 160/07G15 RMK AO2 TSNO
94908KDBQ DBQ20070501014010405/01/07 01:40:31  5-MIN KDBQ 010740Z AUTO 17006KT 10SM CLR 12/06 A2980 1190 66 1200 170/06 RMK AO2 TSNO
94908KDBQ DBQ20070501014510405/01/07 01:45:31  5-MIN KDBQ 010745Z AUTO VRB06KT 10SM CLR 12/06 A2980 1190 68 1100 VRB/06 RMK AO2 TSNO
94908KDBQ DBQ20070501015012105/01/07 01:50:31  5-MIN KDBQ 010750Z AUTO 17008KT 10SM CLR 12/06 A2980 1190 66 1200 170/08 RMK AO2 SLP088 T01220061 TSNO
94908KDBQ DBQ20070501015512105/01/07 01:55:31  5-MIN KDBQ 010755Z AUTO 17009KT 10SM CLR 12/06 A2980 1190 66 1200 170/09 RMK AO2 SLP088 T01220061 TSNO
94908KDBQ DBQ20070501020010405/01/07 02:00:31  5-MIN KDBQ 010800Z AUTO VRB06KT 10SM CLR 12/07 A2980 1190 68 1200 VRB/06 RMK AO2 TSNO
94908KDBQ DBQ20070501020510405/01/07 02:05:31  5-MIN KDBQ 010805Z AUTO 18005KT 10SM CLR 12/07 A2980 1190 71 1100 180/05 RMK AO2 TSNO
94908KDBQ DBQ20070501021010405/01/07 02:10:31  5-MIN KDBQ 010810Z AUTO 20008KT 10SM CLR 12/07 A2980 1190 71 1100 200/08 RMK AO2 TSNO
94908KDBQ DBQ20070501021510405/01/07 02:15:31  5-MIN KDBQ 010815Z AUTO 18007KT 10SM CLR 12/07 A2980 1190 68 1200 180/07 RMK AO2 TSNO
94908KDBQ DBQ20070501022010405/01/07 02:20:31  5-MIN KDBQ 010820Z AUTO 19009KT 10SM CLR 12/07 A2979 1200 68 1200 180/09 RMK AO2 TSNO
94908KDBQ DBQ20070501022510405/01/07 02:25:31  5-MIN KDBQ 010825Z AUTO 18009KT 10SM CLR 12/07 A2979 1200 68 1200 170/09 RMK AO2 TSNO
94908KDBQ DBQ20070501023010405/01/07 02:30:31  5-MIN KDBQ 010830Z AUTO 21008KT 10SM CLR 12/07 A2980 1190 71 1100 210/08 RMK AO2 TSNO
94908KDBQ DBQ20070501023510405/01/07 02:35:31  5-MIN KDBQ 010835Z AUTO 19007KT 10SM CLR 12/07 A2979 1200 68 1200 190/07 RMK AO2 TSNO
94908KDBQ DBQ20070501024010405/01/07 02:40:31  5-MIN KDBQ 010840Z AUTO 20006KT 10SM CLR 12/07 A2979 1200 71 1100 200/06 RMK AO2 TSNO
94908KDBQ DBQ20070501024510405/01/07 02:45:31  5-MIN KDBQ 010845Z AUTO 21008KT 10SM CLR 12/07 A2979 1200 71 1100 210/08 RMK AO2 TSNO
94908KDBQ DBQ20070501025012705/01/07 02:50:31  5-MIN KDBQ 010850Z AUTO 19011KT 10SM CLR 12/07 A2979 1200 71 1100 190/11 RMK AO2 SLP084 T01170067 58010 TSNO
94908KDBQ DBQ20070501025512705/01/07 02:55:31  5-MIN KDBQ 010855Z AUTO 17011KT 10SM CLR 12/07 A2979 1200 68 1200 170/11 RMK AO2 SLP084 T01220067 58012 TSNO
94908KDBQ DBQ20070501030010405/01/07 03:00:31  5-MIN KDBQ 010900Z AUTO 19008KT 10SM CLR 12/07 A2979 1200 71 1100 190/08 RMK AO2 TSNO
94908KDBQ DBQ20070501030510405/01/07 03:05:31  5-MIN KDBQ 010905Z AUTO 18008KT 10SM CLR 12/07 A2979 1200 71 1100 180/08 RMK AO2 TSNO
94908KDBQ DBQ20070501031010405/01/07 03:10:31  5-MIN KDBQ 010910Z AUTO 17010KT 10SM CLR 12/07 A2978 1210 71 1100 170/10 RMK AO2 TSNO
94908KDBQ DBQ20070501031510405/01/07 03:15:31  5-MIN KDBQ 010915Z AUTO 19009KT 10SM CLR 12/07 A2978 1210 71 1100 190/09 RMK AO2 TSNO
94908KDBQ DBQ20070501032010705/01/07 03:20:31  5-MIN KDBQ 010920Z AUTO 19009KT 10SM FEW080 12/07 A2978 1210 71 1100 190/09 RMK AO2 TSNO
94908KDBQ DBQ20070501032510705/01/07 03:25:31  5-MIN KDBQ 010925Z AUTO 19008KT 10SM FEW080 12/07 A2978 1210 74 1100 190/08 RMK AO2 TSNO
94908KDBQ DBQ20070501033010705/01/07 03:30:31  5-MIN KDBQ 010930Z AUTO 18009KT 10SM FEW080 12/07 A2978 1210 71 1200 180/09 RMK AO2 TSNO
94908KDBQ DBQ20070501033510705/01/07 03:35:31  5-MIN KDBQ 010935Z AUTO 18009KT 10SM SCT080 12/07 A2978 1210 71 1200 180/09 RMK AO2 TSNO
94908KDBQ DBQ20070501034010705/01/07 03:40:31  5-MIN KDBQ 010940Z AUTO 18007KT 10SM SCT080 12/07 A2978 1210 74 1100 180/07 RMK AO2 TSNO
94908KDBQ DBQ20070501034510705/01/07 03:45:31  5-MIN KDBQ 010945Z AUTO 19009KT 10SM SCT080 12/08 A2978 1210 74 1200 190/09 RMK AO2 TSNO
94908KDBQ DBQ20070501035012405/01/07 03:50:31  5-MIN KDBQ 010950Z AUTO 19009KT 10SM SCT080 12/08 A2977 1220 74 1200 180/09 RMK AO2 SLP078 T01220078 TSNO
94908KDBQ DBQ20070501035512405/01/07 03:55:31  5-MIN KDBQ 010955Z AUTO 19008KT 10SM FEW080 12/08 A2977 1220 74 1200 190/08 RMK AO2 SLP077 T01220078 TSNO
94908KDBQ DBQ20070501040010705/01/07 04:00:31  5-MIN KDBQ 011000Z AUTO 19009KT 10SM FEW080 12/08 A2977 1220 77 1200 190/09 RMK AO2 TSNO
94908KDBQ DBQ20070501040510705/01/07 04:05:31  5-MIN KDBQ 011005Z AUTO 18009KT 10SM FEW080 12/08 A2977 1220 74 1200 180/09 RMK AO2 TSNO
94908KDBQ DBQ20070501041010705/01/07 04:10:31  5-MIN KDBQ 011010Z AUTO 18009KT 10SM FEW080 12/08 A2977 1220 74 1200 180/09 RMK AO2 TSNO
94908KDBQ DBQ20070501041510405/01/07 04:15:31  5-MIN KDBQ 011015Z AUTO 19008KT 10SM CLR 12/08 A2977 1220 77 1200 180/08 RMK AO2 TSNO
94908KDBQ DBQ20070501042010405/01/07 04:20:31  5-MIN KDBQ 011020Z AUTO 18009KT 10SM CLR 12/08 A2977 1220 77 1200 180/09 RMK AO2 TSNO
94908KDBQ DBQ20070501042510405/01/07 04:25:31  5-MIN KDBQ 011025Z AUTO 19008KT 10SM CLR 12/08 A2977 1220 77 1200 190/08 RMK AO2 TSNO
94908KDBQ DBQ20070501043010405/01/07 04:30:31  5-MIN KDBQ 011030Z AUTO 19009KT 10SM CLR 12/08 A2977 1220 77 1200 190/09 RMK AO2 TSNO
94908KDBQ DBQ20070501043510405/01/07 04:35:31  5-MIN KDBQ 011035Z AUTO 19008KT 10SM CLR 13/09 A2977 1220 77 1300 180/08 RMK AO2 TSNO
94908KDBQ DBQ20070501044010405/01/07 04:40:31  5-MIN KDBQ 011040Z AUTO 19008KT 10SM CLR 12/08 A2977 1220 77 1200 190/08 RMK AO2 TSNO
94908KDBQ DBQ20070501044510405/01/07 04:45:31  5-MIN KDBQ 011045Z AUTO 19009KT 10SM CLR 12/09 A2977 1220 80 1200 190/09 RMK AO2 TSNO
94908KDBQ DBQ20070501045012105/01/07 04:50:31  5-MIN KDBQ 011050Z AUTO 19009KT 10SM CLR 13/09 A2977 1220 77 1300 190/09 RMK AO2 SLP077 T01280089 TSNO
94908KDBQ DBQ20070501045511105/01/07 04:55:31  5-MIN KDBQ 011055Z 18008KT 10SM CLR 13/09 A2977 1220 77 1300 180/08 RMK AO2 SLP077 T01280089
94908KDBQ DBQ20070501050009405/01/07 05:00:31  5-MIN KDBQ 011100Z 20006KT 10SM CLR 12/09 A2977 1220 80 1200 200/06 RMK AO2
94908KDBQ DBQ20070501050509405/01/07 05:05:31  5-MIN KDBQ 011105Z 20006KT 10SM CLR 12/09 A2977 1220 80 1200 200/06 RMK AO2
94908KDBQ DBQ20070501051009405/01/07 05:10:31  5-MIN KDBQ 011110Z 19005KT 10SM CLR 12/09 A2977 1220 80 1200 190/05 RMK AO2
94908KDBQ DBQ20070501051509405/01/07 05:15:31  5-MIN KDBQ 011115Z 18006KT 10SM CLR 12/09 A2977 1220 80 1200 180/06 RMK AO2
94908KDBQ DBQ20070501052009405/01/07 05:20:31  5-MIN KDBQ 011120Z 19006KT 10SM CLR 12/09 A2977 1220 83 1200 190/06 RMK AO2
94908KDBQ DBQ20070501052509405/01/07 05:25:31  5-MIN KDBQ 011125Z 19007KT 10SM CLR 13/09 A2976 1230 80 1300 190/07 RMK AO2
94908KDBQ DBQ20070501053009405/01/07 05:30:31  5-MIN KDBQ 011130Z 19007KT 10SM CLR 13/09 A2976 1230 80 1300 190/07 RMK AO2
94908KDBQ DBQ20070501053509405/01/07 05:35:31  5-MIN KDBQ 011135Z 20007KT 10SM CLR 13/10 A2976 1230 83 1300 200/07 RMK AO2
94908KDBQ DBQ20070501054009305/01/07 05:40:31  5-MIN KDBQ 011140Z 20008KT 9SM CLR 13/10 A2976 1230 80 1400 200/08 RMK AO2
94908KDBQ DBQ20070501054509305/01/07 05:45:31  5-MIN KDBQ 011145Z 21008KT 9SM CLR 13/11 A2976 1230 83 1400 210/08 RMK AO2
94908KDBQ DBQ20070501055012805/01/07 05:50:31  5-MIN KDBQ 011150Z 21007KT 9SM CLR 14/11 A2976 1220 80 1400 210/07 RMK AO2 SLP076 T01390106 10139 20117 58012
94908KDBQ DBQ20070501055512805/01/07 05:55:31  5-MIN KDBQ 011155Z 21007KT 9SM CLR 14/11 A2977 1220 80 1400 200/07 RMK AO2 SLP076 T01390106 10139 20117 56007
94908KDBQ DBQ20070501060009305/01/07 06:00:31  5-MIN KDBQ 011200Z 21005KT 9SM CLR 14/11 A2977 1220 83 1400 210/05 RMK AO2
94908KDBQ DBQ20070501060509305/01/07 06:05:31  5-MIN KDBQ 011205Z 21005KT 9SM CLR 14/11 A2977 1220 80 1500 210/05 RMK AO2
94908KDBQ DBQ20070501061009305/01/07 06:10:31  5-MIN KDBQ 011210Z 20005KT 8SM CLR 14/11 A2977 1220 80 1500 200/05 RMK AO2
94908KDBQ DBQ20070501061509305/01/07 06:15:31  5-MIN KDBQ 011215Z 20006KT 9SM CLR 14/11 A2977 1220 80 1500 200/06 RMK AO2
94908KDBQ DBQ20070501062009305/01/07 06:20:31  5-MIN KDBQ 011220Z 21005KT 9SM CLR 14/12 A2977 1220 83 1500 210/05 RMK AO2
94908KDBQ DBQ20070501062509305/01/07 06:25:31  5-MIN KDBQ 011225Z 21005KT 9SM CLR 15/12 A2977 1220 80 1500 210/05 RMK AO2
94908KDBQ DBQ20070501063009305/01/07 06:30:31  5-MIN KDBQ 011230Z 22007KT 9SM CLR 16/12 A2977 1220 80 1600 220/07 RMK AO2
94908KDBQ DBQ20070501063509305/01/07 06:35:31  5-MIN KDBQ 011235Z 23006KT 9SM CLR 16/12 A2977 1220 80 1600 230/06 RMK AO2
94908KDBQ DBQ20070501064009305/01/07 06:40:31  5-MIN KDBQ 011240Z 22007KT 9SM CLR 16/12 A2977 1210 80 1600 220/07 RMK AO2
94908KDBQ DBQ20070501064509305/01/07 06:45:31  5-MIN KDBQ 011245Z 22007KT 9SM CLR 16/12 A2977 1210 77 1700 220/07 RMK AO2
94908KDBQ DBQ20070501065011005/01/07 06:50:31  5-MIN KDBQ 011250Z 23005KT 9SM CLR 16/13 A2978 1210 80 1700 230/05 RMK AO2 SLP080 T01610128
94908KDBQ DBQ20070501065511005/01/07 06:55:31  5-MIN KDBQ 011255Z 24004KT 8SM CLR 16/13 A2978 1210 80 1700 230/04 RMK AO2 SLP080 T01610128
94908KDBQ DBQ20070501070009305/01/07 07:00:31  5-MIN KDBQ 011300Z 23006KT 9SM CLR 17/13 A2977 1210 80 1700 230/06 RMK AO2
94908KDBQ DBQ20070501070509305/01/07 07:05:31  5-MIN KDBQ 011305Z 22006KT 9SM CLR 17/13 A2978 1210 78 1800 220/06 RMK AO2
94908KDBQ DBQ20070501071009305/01/07 07:10:31  5-MIN KDBQ 011310Z 23004KT 8SM CLR 17/14 A2978 1210 80 1800 230/04 RMK AO2
94908KDBQ DBQ20070501071509305/01/07 07:15:31  5-MIN KDBQ 011315Z 22003KT 8SM CLR 17/14 A2978 1210 80 1800 220/03 RMK AO2
94908KDBQ DBQ20070501072009305/01/07 07:20:31  5-MIN KDBQ 011320Z 25007KT 8SM CLR 18/14 A2978 1210 78 1900 250/07 RMK AO2
94908KDBQ DBQ20070501072509305/01/07 07:25:31  5-MIN KDBQ 011325Z 26009KT 8SM CLR 19/15 A2977 1210 78 2000 260/09 RMK AO2
94908KDBQ DBQ20070501073009305/01/07 07:30:31  5-MIN KDBQ 011330Z 26010KT 8SM CLR 19/14 A2977 1210 72 2100 260/10 RMK AO2
94908KDBQ DBQ20070501073509305/01/07 07:35:31  5-MIN KDBQ 011335Z 27009KT 8SM CLR 19/15 A2978 1210 75 2000 270/09 RMK AO2
94908KDBQ DBQ20070501074009305/01/07 07:40:31  5-MIN KDBQ 011340Z 28007KT 8SM CLR 19/15 A2978 1210 75 2000 280/07 RMK AO2
94908KDBQ DBQ20070501074509305/01/07 07:45:31  5-MIN KDBQ 011345Z 29007KT 8SM CLR 20/15 A2978 1210 72 2100 290/07 RMK AO2
94908KDBQ DBQ20070501075011005/01/07 07:50:31  5-MIN KDBQ 011350Z 29009KT 8SM CLR 20/16 A2978 1210 75 2100 290/09 RMK AO2 SLP082 T02000156
94908KDBQ DBQ20070501075511005/01/07 07:55:31  5-MIN KDBQ 011355Z 30009KT 8SM CLR 20/15 A2978 1200 72 2100 300/09 RMK AO2 SLP082 T02000150
94908KDBQ DBQ20070501080009305/01/07 08:00:31  5-MIN KDBQ 011400Z 30012KT 9SM CLR 21/15 A2979 1200 70 2200 300/12 RMK AO2
94908KDBQ DBQ20070501080509905/01/07 08:05:31  5-MIN KDBQ 011405Z 31012G18KT 9SM CLR 21/14 A2979 1200 67 2200 310/12G18 RMK AO2
94908KDBQ DBQ20070501081009405/01/07 08:10:31  5-MIN KDBQ 011410Z 31012KT 10SM CLR 21/14 A2979 1200 67 2200 310/12 RMK AO2
94908KDBQ DBQ20070501081510005/01/07 08:15:31  5-MIN KDBQ 011415Z 32013G19KT 10SM CLR 21/15 A2979 1200 70 2200 320/13G19 RMK AO2
94908KDBQ DBQ20070501082010005/01/07 08:20:31  5-MIN KDBQ 011420Z 31014G19KT 10SM CLR 21/14 A2979 1190 67 2200 310/14G19 RMK AO2
94908KDBQ DBQ20070501082510005/01/07 08:25:31  5-MIN KDBQ 011425Z 32013G19KT 10SM CLR 21/14 A2980 1190 67 2200 320/13G19 RMK AO2
94908KDBQ DBQ20070501083009405/01/07 08:30:31  5-MIN KDBQ 011430Z 32016KT 10SM CLR 21/14 A2980 1190 67 2200 320/16 RMK AO2
94908KDBQ DBQ20070501083509405/01/07 08:35:31  5-MIN KDBQ 011435Z 31014KT 10SM CLR 21/14 A2980 1190 67 2100 310/14 RMK AO2
94908KDBQ DBQ20070501084009405/01/07 08:40:31  5-MIN KDBQ 011440Z 34014KT 10SM CLR 21/14 A2980 1190 65 2200 330/14 RMK AO2
94908KDBQ DBQ20070501084510005/01/07 08:45:31  5-MIN KDBQ 011445Z 34016G21KT 10SM CLR 21/14 A2981 1190 65 2100 340/16G21 RMK AO2
94908KDBQ DBQ20070501085011705/01/07 08:50:31  5-MIN KDBQ 011450Z 34016KT 10SM CLR 21/14 A2981 1180 65 2100 330/16 RMK AO2 SLP091 T02060139 56007
94908KDBQ DBQ20070501085511705/01/07 08:55:31  5-MIN KDBQ 011455Z 33018KT 10SM CLR 21/14 A2981 1180 65 2100 330/18 RMK AO2 SLP092 T02060139 53015
94908KDBQ DBQ20070501090010005/01/07 09:00:31  5-MIN KDBQ 011500Z 33013G21KT 10SM CLR 21/13 A2981 1180 63 2100 330/13G21 RMK AO2
94908KDBQ DBQ20070501090509405/01/07 09:05:31  5-MIN KDBQ 011505Z 34015KT 10SM CLR 20/13 A2982 1170 65 2100 340/15 RMK AO2
94908KDBQ DBQ20070501091009405/01/07 09:10:31  5-MIN KDBQ 011510Z 32017KT 10SM CLR 20/13 A2982 1170 63 2100 320/17 RMK AO2
94908KDBQ DBQ20070501091509405/01/07 09:15:31  5-MIN KDBQ 011515Z 34014KT 10SM CLR 20/13 A2982 1170 65 2100 340/14 RMK AO2
94908KDBQ DBQ20070501092010005/01/07 09:20:31  5-MIN KDBQ 011520Z 34014G19KT 10SM CLR 20/13 A2982 1170 65 2100 340/14G19 RMK AO2
94908KDBQ DBQ20070501092510005/01/07 09:25:31  5-MIN KDBQ 011525Z 34015G21KT 10SM CLR 20/13 A2982 1170 63 2100 340/15G21 RMK AO2
94908KDBQ DBQ20070501093010005/01/07 09:30:31  5-MIN KDBQ 011530Z 35017G21KT 10SM CLR 20/13 A2982 1170 63 2100 350/17G21 RMK AO2
94908KDBQ DBQ20070501093509405/01/07 09:35:31  5-MIN KDBQ 011535Z 34015KT 10SM CLR 20/13 A2983 1170 63 2100 340/15 RMK AO2
94908KDBQ DBQ20070501094009405/01/07 09:40:31  5-MIN KDBQ 011540Z 35014KT 10SM CLR 19/12 A2983 1160 62 2000 350/14 RMK AO2
94908KDBQ DBQ20070501094509405/01/07 09:45:31  5-MIN KDBQ 011545Z 34016KT 10SM CLR 20/12 A2983 1160 60 2000 340/16 RMK AO2
94908KDBQ DBQ20070501095011705/01/07 09:50:31  5-MIN KDBQ 011550Z 34015G20KT 10SM CLR 20/12 A2984 1150 60 2000 340/15G20 RMK AO2 SLP101 T02000122
94908KDBQ DBQ20070501095511105/01/07 09:55:31  5-MIN KDBQ 011555Z 35015KT 10SM CLR 20/12 A2984 1150 58 2000 350/15 RMK AO2 SLP102 T02000117
94908KDBQ DBQ20070501100010005/01/07 10:00:31  5-MIN KDBQ 011600Z 35014G19KT 10SM CLR 20/12 A2984 1150 58 2000 350/14G19 RMK AO2
94908KDBQ DBQ20070501100509405/01/07 10:05:31  5-MIN KDBQ 011605Z 35011KT 10SM CLR 20/12 A2984 1150 58 2000 340/11 RMK AO2
94908KDBQ DBQ20070501101010005/01/07 10:10:31  5-MIN KDBQ 011610Z 34010G18KT 10SM CLR 20/12 A2984 1150 58 2000 340/10G18 RMK AO2
94908KDBQ DBQ20070501101510005/01/07 10:15:31  5-MIN KDBQ 011615Z 36010G18KT 10SM CLR 20/12 A2985 1150 60 2000 350/10G18 RMK AO2
94908KDBQ DBQ20070501102009405/01/07 10:20:31  5-MIN KDBQ 011620Z 35013KT 10SM CLR 21/12 A2985 1140 56 2100 350/13 RMK AO2
94908KDBQ DBQ20070501102509405/01/07 10:25:31  5-MIN KDBQ 011625Z 35009KT 10SM CLR 20/12 A2985 1140 58 2000 350/09 RMK AO2
94908KDBQ DBQ20070501103010005/01/07 10:30:31  5-MIN KDBQ 011630Z 33010G17KT 10SM CLR 20/12 A2985 1140 58 2000 330/10G17 RMK AO2
94908KDBQ DBQ20070501103510005/01/07 10:35:31  5-MIN KDBQ 011635Z 33010G17KT 10SM CLR 20/12 A2985 1140 58 2000 330/10G17 RMK AO2
94908KDBQ DBQ20070501104009405/01/07 10:40:31  5-MIN KDBQ 011640Z 33013KT 10SM CLR 20/12 A2986 1140 58 2000 330/13 RMK AO2
94908KDBQ DBQ20070501104509405/01/07 10:45:31  5-MIN KDBQ 011645Z 32008KT 10SM CLR 20/11 A2986 1130 56 2000 320/08 RMK AO2
94908KDBQ DBQ20070501105011105/01/07 10:50:31  5-MIN KDBQ 011650Z 32009KT 10SM CLR 20/12 A2986 1130 58 2000 310/09 RMK AO2 SLP110 T02000117
94908KDBQ DBQ20070501105511105/01/07 10:55:31  5-MIN KDBQ 011655Z 32010KT 10SM CLR 20/11 A2986 1130 56 2000 320/10 RMK AO2 SLP110 T02000111
94908KDBQ DBQ20070501110009405/01/07 11:00:31  5-MIN KDBQ 011700Z 31009KT 10SM CLR 20/11 A2986 1130 56 2000 310/09 RMK AO2
94908KDBQ DBQ20070501110509405/01/07 11:05:31  5-MIN KDBQ 011705Z 32012KT 10SM CLR 21/12 A2987 1130 56 2100 320/12 RMK AO2
94908KDBQ DBQ20070501111009405/01/07 11:10:31  5-MIN KDBQ 011710Z 34009KT 10SM CLR 21/12 A2987 1130 56 2100 340/09 RMK AO2
94908KDBQ DBQ20070501111510005/01/07 11:15:31  5-MIN KDBQ 011715Z 34012G17KT 10SM CLR 21/12 A2987 1130 56 2100 340/12G17 RMK AO2
94908KDBQ DBQ20070501112009405/01/07 11:20:31  5-MIN KDBQ 011720Z 33012KT 10SM CLR 21/12 A2987 1130 54 2100 330/12 RMK AO2
94908KDBQ DBQ20070501112509405/01/07 11:25:31  5-MIN KDBQ 011725Z 34012KT 10SM CLR 21/11 A2987 1130 52 2100 340/12 RMK AO2
94908KDBQ DBQ20070501113009405/01/07 11:30:31  5-MIN KDBQ 011730Z 35012KT 10SM CLR 21/11 A2987 1130 54 2100 350/12 RMK AO2
94908KDBQ DBQ20070501113509405/01/07 11:35:31  5-MIN KDBQ 011735Z 35011KT 10SM CLR 22/12 A2987 1130 52 2200 350/11 RMK AO2
94908KDBQ DBQ20070501114009405/01/07 11:40:31  5-MIN KDBQ 011740Z 36013KT 10SM CLR 21/12 A2987 1130 54 2100 360/13 RMK AO2
94908KDBQ DBQ20070501114509405/01/07 11:45:31  5-MIN KDBQ 011745Z 34009KT 10SM CLR 22/12 A2987 1130 52 2200 340/09 RMK AO2
94908KDBQ DBQ20070501115012905/01/07 11:50:31  5-MIN KDBQ 011750Z 33010KT 10SM CLR 22/12 A2987 1130 54 2200 330/10 RMK AO2 SLP112 T02170122 10217 20139 53015
94908KDBQ DBQ20070501115512905/01/07 11:55:31  5-MIN KDBQ 011755Z 35012KT 10SM CLR 22/12 A2987 1130 52 2200 350/12 RMK AO2 SLP111 T02170117 10217 20139 51018
94908KDBQ DBQ20070501120009405/01/07 12:00:31  5-MIN KDBQ 011800Z 35010KT 10SM CLR 22/12 A2987 1130 52 2300 350/10 RMK AO2
94908KDBQ DBQ20070501120510005/01/07 12:05:31  5-MIN KDBQ 011805Z 32014G18KT 10SM CLR 22/12 A2987 1130 52 2300 320/14G18 RMK AO2
94908KDBQ DBQ20070501121010005/01/07 12:10:31  5-MIN KDBQ 011810Z 34014G18KT 10SM CLR 22/12 A2987 1130 51 2300 340/14G18 RMK AO2
94908KDBQ DBQ20070501121509405/01/07 12:15:31  5-MIN KDBQ 011815Z 34013KT 10SM CLR 22/12 A2987 1130 52 2300 340/13 RMK AO2
94908KDBQ DBQ20070501122009405/01/07 12:20:31  5-MIN KDBQ 011820Z 32012KT 10SM CLR 22/12 A2986 1130 52 2300 320/12 RMK AO2
94908KDBQ DBQ20070501122510005/01/07 12:25:31  5-MIN KDBQ 011825Z 33012G16KT 10SM CLR 23/12 A2987 1130 51 2300 330/12G16 RMK AO2
94908KDBQ DBQ20070501123010005/01/07 12:30:31  5-MIN KDBQ 011830Z 34011G16KT 10SM CLR 23/12 A2986 1130 51 2300 340/11G16 RMK AO2
94908KDBQ DBQ20070501123509405/01/07 12:35:31  5-MIN KDBQ 011835Z 35012KT 10SM CLR 23/12 A2986 1130 51 2300 350/12 RMK AO2
94908KDBQ DBQ20070501124009405/01/07 12:40:31  5-MIN KDBQ 011840Z 33012KT 10SM CLR 23/12 A2986 1130 51 2300 330/12 RMK AO2
94908KDBQ DBQ20070501124509405/01/07 12:45:31  5-MIN KDBQ 011845Z 35011KT 10SM CLR 23/12 A2986 1130 51 2300 350/11 RMK AO2
94908KDBQ DBQ20070501125011105/01/07 12:50:31  5-MIN KDBQ 011850Z 33012KT 10SM CLR 23/12 A2986 1130 51 2300 320/12 RMK AO2 SLP110 T02280122
94908KDBQ DBQ20070501125511105/01/07 12:55:31  5-MIN KDBQ 011855Z 35014KT 10SM CLR 23/12 A2986 1130 51 2300 350/14 RMK AO2 SLP109 T02280122
94908KDBQ DBQ20070501130009405/01/07 13:00:31  5-MIN KDBQ 011900Z 35009KT 10SM CLR 23/12 A2986 1130 49 2400 350/09 RMK AO2
94908KDBQ DBQ20070501130510005/01/07 13:05:31  5-MIN KDBQ 011905Z 34011G18KT 10SM CLR 23/13 A2987 1130 51 2400 340/11G18 RMK AO2
94908KDBQ DBQ20070501131010005/01/07 13:10:31  5-MIN KDBQ 011910Z 35009G18KT 10SM CLR 23/12 A2986 1140 49 2400 340/09G18 RMK AO2
94908KDBQ DBQ20070501131510005/01/07 13:15:31  5-MIN KDBQ 011915Z 35011G17KT 10SM CLR 23/13 A2987 1130 51 2400 350/11G17 RMK AO2
94908KDBQ DBQ20070501132010005/01/07 13:20:31  5-MIN KDBQ 011920Z 34010G15KT 10SM CLR 23/12 A2987 1130 49 2400 340/10G15 RMK AO2
94908KDBQ DBQ20070501132509405/01/07 13:25:31  5-MIN KDBQ 011925Z 36009KT 10SM CLR 23/13 A2986 1130 51 2400 360/09 RMK AO2
94908KDBQ DBQ20070501133010005/01/07 13:30:31  5-MIN KDBQ 011930Z 33011G16KT 10SM CLR 24/12 A2986 1130 47 2500 330/11G16 RMK AO2
94908KDBQ DBQ20070501133510005/01/07 13:35:31  5-MIN KDBQ 011935Z 33011G16KT 10SM CLR 23/12 A2987 1130 49 2400 330/11G16 RMK AO2
94908KDBQ DBQ20070501134010005/01/07 13:40:31  5-MIN KDBQ 011940Z 35011G15KT 10SM CLR 24/13 A2986 1130 49 2500 350/11G15 RMK AO2
94908KDBQ DBQ20070501134509405/01/07 13:45:31  5-MIN KDBQ 011945Z 36012KT 10SM CLR 24/13 A2986 1130 49 2500 360/12 RMK AO2
94908KDBQ DBQ20070501135011605/01/07 13:50:31  5-MIN KDBQ 011950Z AUTO 36011KT 10SM CLR 24/13 A2987 1130 47 2500 350/11 RMK AO2 SLP110 T02440128
94908KDBQ DBQ20070501135512105/01/07 13:55:31  5-MIN KDBQ 011955Z AUTO 35010KT 10SM CLR 24/12 A2986 1130 47 2500 350/10 RMK AO2 SLP109 T02390122 TSNO
94908KDBQ DBQ20070501140010005/01/07 14:00:31  5-MIN KDBQ 012000Z 34009G17KT 10SM CLR 24/13 A2986 1130 49 2500 340/09G17 RMK AO2
94908KDBQ DBQ20070501140510005/01/07 14:05:31  5-MIN KDBQ 012005Z 33011G17KT 10SM CLR 24/12 A2986 1130 46 2500 330/11G17 RMK AO2
94908KDBQ DBQ20070501141010005/01/07 14:10:31  5-MIN KDBQ 012010Z 33011G18KT 10SM CLR 24/13 A2986 1130 49 2500 330/11G18 RMK AO2
94908KDBQ DBQ20070501141510005/01/07 14:15:31  5-MIN KDBQ 012015Z 33007G18KT 10SM CLR 24/12 A2986 1130 47 2500 330/07G18 RMK AO2
94908KDBQ DBQ20070501142010005/01/07 14:20:31  5-MIN KDBQ 012020Z 35011G15KT 10SM CLR 24/12 A2986 1130 46 2500 350/11G15 RMK AO2
94908KDBQ DBQ20070501142510005/01/07 14:25:31  5-MIN KDBQ 012025Z 35011G19KT 10SM CLR 24/12 A2987 1130 46 2500 350/11G19 RMK AO2
94908KDBQ DBQ20070501143010005/01/07 14:30:31  5-MIN KDBQ 012030Z 34007G19KT 10SM CLR 24/13 A2986 1130 47 2500 340/07G19 RMK AO2
94908KDBQ DBQ20070501143509405/01/07 14:35:31  5-MIN KDBQ 012035Z 31008KT 10SM CLR 24/13 A2986 1130 47 2500 310/08 RMK AO2
94908KDBQ DBQ20070501144010005/01/07 14:40:31  5-MIN KDBQ 012040Z 34009G15KT 10SM CLR 24/12 A2986 1130 46 2500 340/09G15 RMK AO2
94908KDBQ DBQ20070501144510005/01/07 14:45:31  5-MIN KDBQ 012045Z 34005G15KT 10SM CLR 24/12 A2986 1130 46 2500 340/05G15 RMK AO2
94908KDBQ DBQ20070501145011705/01/07 14:50:31  5-MIN KDBQ 012050Z 33008KT 10SM CLR 24/13 A2986 1140 47 2500 330/08 RMK AO2 SLP107 T02440128 51018
94908KDBQ DBQ20070501145511705/01/07 14:55:31  5-MIN KDBQ 012055Z 34009KT 10SM CLR 24/13 A2986 1140 49 2500 340/09 RMK AO2 SLP107 T02440133 57003
94908KDBQ DBQ20070501150009405/01/07 15:00:31  5-MIN KDBQ 012100Z 31008KT 10SM CLR 24/12 A2986 1140 46 2500 310/08 RMK AO2
94908KDBQ DBQ20070501150510005/01/07 15:05:31  5-MIN KDBQ 012105Z 33005G14KT 10SM CLR 24/12 A2986 1130 46 2500 320/05G14 RMK AO2
94908KDBQ DBQ20070501151010005/01/07 15:10:31  5-MIN KDBQ 012110Z 30007G14KT 10SM CLR 24/12 A2986 1140 44 2500 300/07G14 RMK AO2
94908KDBQ DBQ20070501151510005/01/07 15:15:31  5-MIN KDBQ 012115Z 30011G15KT 10SM CLR 25/11 A2986 1140 41 2600 300/11G15 RMK AO2
94908KDBQ DBQ20070501152010005/01/07 15:20:31  5-MIN KDBQ 012120Z 30016G19KT 10SM CLR 24/10 A2986 1140 39 2500 290/16G19 RMK AO2
94908KDBQ DBQ20070501152509405/01/07 15:25:31  5-MIN KDBQ 012125Z 30013KT 10SM CLR 24/10 A2986 1140 39 2500 300/13 RMK AO2
94908KDBQ DBQ20070501153009405/01/07 15:30:31  5-MIN KDBQ 012130Z 32011KT 10SM CLR 24/10 A2986 1140 39 2500 310/11 RMK AO2
94908KDBQ DBQ20070501153509405/01/07 15:35:31  5-MIN KDBQ 012135Z 32009KT 10SM CLR 24/10 A2986 1140 39 2500 320/09 RMK AO2
94908KDBQ DBQ20070501154009405/01/07 15:40:31  5-MIN KDBQ 012140Z 32012KT 10SM CLR 25/10 A2986 1140 38 2600 320/12 RMK AO2
94908KDBQ DBQ20070501154510005/01/07 15:45:31  5-MIN KDBQ 012145Z 33013G16KT 10SM CLR 24/09 A2986 1130 38 2500 330/13G16 RMK AO2
94908KDBQ DBQ20070501155011105/01/07 15:50:31  5-MIN KDBQ 012150Z 33014KT 10SM CLR 24/09 A2986 1130 38 2500 320/14 RMK AO2 SLP108 T02440094
94908KDBQ DBQ20070501155511105/01/07 15:55:31  5-MIN KDBQ 012155Z 32012KT 10SM CLR 24/09 A2987 1130 36 2500 320/12 RMK AO2 SLP110 T02440089
94908KDBQ DBQ20070501160009405/01/07 16:00:31  5-MIN KDBQ 012200Z 31013KT 10SM CLR 24/08 A2986 1130 35 2500 310/13 RMK AO2
94908KDBQ DBQ20070501160510005/01/07 16:05:31  5-MIN KDBQ 012205Z 32012G19KT 10SM CLR 24/08 A2986 1130 34 2500 320/12G19 RMK AO2
94908KDBQ DBQ20070501161009405/01/07 16:10:31  5-MIN KDBQ 012210Z 32012KT 10SM CLR 24/08 A2986 1130 34 2500 320/12 RMK AO2
94908KDBQ DBQ20070501161509405/01/07 16:15:31  5-MIN KDBQ 012215Z 32011KT 10SM CLR 24/08 A2986 1130 34 2500 320/11 RMK AO2
94908KDBQ DBQ20070501162009405/01/07 16:20:31  5-MIN KDBQ 012220Z 33010KT 10SM CLR 24/08 A2986 1130 34 2500 330/10 RMK AO2
94908KDBQ DBQ20070501162509405/01/07 16:25:31  5-MIN KDBQ 012225Z 31009KT 10SM CLR 24/09 A2987 1130 36 2500 300/09 RMK AO2
94908KDBQ DBQ20070501163010005/01/07 16:30:31  5-MIN KDBQ 012230Z 32012G17KT 10SM CLR 24/08 A2986 1130 34 2500 320/12G17 RMK AO2
94908KDBQ DBQ20070501163509405/01/07 16:35:31  5-MIN KDBQ 012235Z 33016KT 10SM CLR 24/08 A2986 1130 36 2500 330/16 RMK AO2
94908KDBQ DBQ20070501164009405/01/07 16:40:31  5-MIN KDBQ 012240Z 34014KT 10SM CLR 23/08 A2986 1130 38 2400 340/14 RMK AO2
94908KDBQ DBQ20070501164509405/01/07 16:45:31  5-MIN KDBQ 012245Z 34014KT 10SM CLR 23/08 A2986 1130 38 2400 340/14 RMK AO2
94908KDBQ DBQ20070501165011105/01/07 16:50:31  5-MIN KDBQ 012250Z 34015KT 10SM CLR 23/08 A2986 1130 37 2300 340/15 RMK AO2 SLP109 T02280078
94908KDBQ DBQ20070501165511105/01/07 16:55:31  5-MIN KDBQ 012255Z 34016KT 10SM CLR 23/08 A2987 1130 37 2300 340/16 RMK AO2 SLP111 T02280078
94908KDBQ DBQ20070501170009405/01/07 17:00:31  5-MIN KDBQ 012300Z 34015KT 10SM CLR 23/08 A2987 1130 37 2300 340/15 RMK AO2
94908KDBQ DBQ20070501170509405/01/07 17:05:31  5-MIN KDBQ 012305Z 34014KT 10SM CLR 22/07 A2987 1130 37 2300 340/14 RMK AO2
94908KDBQ DBQ20070501171009405/01/07 17:10:31  5-MIN KDBQ 012310Z 33014KT 10SM CLR 22/07 A2987 1120 37 2300 330/14 RMK AO2
94908KDBQ DBQ20070501171509405/01/07 17:15:31  5-MIN KDBQ 012315Z 34014KT 10SM CLR 22/07 A2987 1120 37 2200 340/14 RMK AO2
94908KDBQ DBQ20070501172010005/01/07 17:20:31  5-MIN KDBQ 012320Z 34011G19KT 10SM CLR 21/07 A2987 1120 40 2100 340/11G19 RMK AO2
94908KDBQ DBQ20070501172509405/01/07 17:25:31  5-MIN KDBQ 012325Z 33013KT 10SM CLR 22/07 A2987 1120 37 2200 330/13 RMK AO2
94908KDBQ DBQ20070501173009405/01/07 17:30:31  5-MIN KDBQ 012330Z 34013KT 10SM CLR 22/06 A2988 1120 36 2200 340/13 RMK AO2
94908KDBQ DBQ20070501173509405/01/07 17:35:31  5-MIN KDBQ 012335Z 34011KT 10SM CLR 21/07 A2988 1120 38 2100 340/11 RMK AO2
94908KDBQ DBQ20070501174009405/01/07 17:40:31  5-MIN KDBQ 012340Z 34012KT 10SM CLR 21/07 A2987 1120 38 2100 340/12 RMK AO2
94908KDBQ DBQ20070501174509405/01/07 17:45:31  5-MIN KDBQ 012345Z 34011KT 10SM CLR 21/07 A2988 1120 38 2100 340/11 RMK AO2
94908KDBQ DBQ20070501175012905/01/07 17:50:31  5-MIN KDBQ 012350Z 34010KT 10SM CLR 21/07 A2988 1120 40 2100 340/10 RMK AO2 SLP115 T02060067 10250 20206 57003
94908KDBQ DBQ20070501175512905/01/07 17:55:31  5-MIN KDBQ 012355Z 34013KT 10SM CLR 21/06 A2988 1120 38 2100 340/13 RMK AO2 SLP115 T02060061 10250 20206 52006
94908KDBQ DBQ20070501180009405/01/07 18:00:31  5-MIN KDBQ 020000Z 35011KT 10SM CLR 21/06 A2988 1120 37 2100 350/11 RMK AO2
94908KDBQ DBQ20070501180509405/01/07 18:05:31  5-MIN KDBQ 020005Z 34010KT 10SM CLR 20/06 A2988 1110 40 2000 340/10 RMK AO2
94908KDBQ DBQ20070501181009405/01/07 18:10:31  5-MIN KDBQ 020010Z 34011KT 10SM CLR 20/06 A2988 1120 38 2000 340/11 RMK AO2
94908KDBQ DBQ20070501181509405/01/07 18:15:31  5-MIN KDBQ 020015Z 34010KT 10SM CLR 19/06 A2988 1110 40 1900 340/10 RMK AO2
94908KDBQ DBQ20070501182009405/01/07 18:20:31  5-MIN KDBQ 020020Z 34011KT 10SM CLR 20/05 A2988 1110 37 2000 340/11 RMK AO2
94908KDBQ DBQ20070501182509405/01/07 18:25:31  5-MIN KDBQ 020025Z 34010KT 10SM CLR 19/06 A2989 1110 40 1900 340/10 RMK AO2
94908KDBQ DBQ20070501183009405/01/07 18:30:31  5-MIN KDBQ 020030Z 34010KT 10SM CLR 19/06 A2989 1110 41 1900 340/10 RMK AO2
94908KDBQ DBQ20070501183509405/01/07 18:35:31  5-MIN KDBQ 020035Z 34008KT 10SM CLR 18/06 A2989 1100 42 1800 340/08 RMK AO2
94908KDBQ DBQ20070501184009405/01/07 18:40:31  5-MIN KDBQ 020040Z 34008KT 10SM CLR 18/06 A2989 1100 42 1800 340/08 RMK AO2
94908KDBQ DBQ20070501184509405/01/07 18:45:31  5-MIN KDBQ 020045Z 34009KT 10SM CLR 18/06 A2990 1100 42 1800 340/09 RMK AO2
94908KDBQ DBQ20070501185011105/01/07 18:50:31  5-MIN KDBQ 020050Z 34009KT 10SM CLR 18/06 A2990 1100 44 1700 340/09 RMK AO2 SLP122 T01780056
94908KDBQ DBQ20070501185511105/01/07 18:55:31  5-MIN KDBQ 020055Z 34008KT 10SM CLR 18/06 A2990 1100 44 1700 340/08 RMK AO2 SLP122 T01780056
94908KDBQ DBQ20070501190010405/01/07 19:00:31  5-MIN KDBQ 020100Z AUTO 34009KT 10SM CLR 17/06 A2990 1100 46 1700 340/09 RMK AO2 TSNO
94908KDBQ DBQ20070501190510405/01/07 19:05:31  5-MIN KDBQ 020105Z AUTO 34008KT 10SM CLR 17/06 A2990 1100 47 1600 340/08 RMK AO2 TSNO
94908KDBQ DBQ20070501191010405/01/07 19:10:31  5-MIN KDBQ 020110Z AUTO 33007KT 10SM CLR 17/06 A2990 1090 47 1600 330/07 RMK AO2 TSNO
94908KDBQ DBQ20070501191510405/01/07 19:15:31  5-MIN KDBQ 020115Z AUTO 34006KT 10SM CLR 17/06 A2990 1090 47 1600 330/06 RMK AO2 TSNO
94908KDBQ DBQ20070501192010405/01/07 19:20:31  5-MIN KDBQ 020120Z AUTO 34005KT 10SM CLR 17/06 A2991 1090 47 1600 340/05 RMK AO2 TSNO
94908KDBQ DBQ20070501192510405/01/07 19:25:31  5-MIN KDBQ 020125Z AUTO 33005KT 10SM CLR 17/05 A2991 1090 45 1600 330/05 RMK AO2 TSNO
94908KDBQ DBQ20070501193010405/01/07 19:30:31  5-MIN KDBQ 020130Z AUTO 33006KT 10SM CLR 17/05 A2991 1080 45 1600 320/06 RMK AO2 TSNO
94908KDBQ DBQ20070501193510405/01/07 19:35:31  5-MIN KDBQ 020135Z AUTO 33007KT 10SM CLR 16/05 A2992 1080 47 1500 330/07 RMK AO2 TSNO
94908KDBQ DBQ20070501194010405/01/07 19:40:31  5-MIN KDBQ 020140Z AUTO 34008KT 10SM CLR 16/05 A2992 1080 49 1400 330/08 RMK AO2 TSNO
94908KDBQ DBQ20070501194510405/01/07 19:45:31  5-MIN KDBQ 020145Z AUTO 34008KT 10SM CLR 15/05 A2992 1080 51 1400 340/08 RMK AO2 TSNO
94908KDBQ DBQ20070501195012105/01/07 19:50:31  5-MIN KDBQ 020150Z AUTO 33008KT 10SM CLR 16/05 A2992 1080 49 1400 330/08 RMK AO2 SLP129 T01560050 TSNO
94908KDBQ DBQ20070501195512105/01/07 19:55:31  5-MIN KDBQ 020155Z AUTO 34008KT 10SM CLR 16/05 A2992 1080 49 1400 340/08 RMK AO2 SLP130 T01560050 TSNO
94908KDBQ DBQ20070501200010405/01/07 20:00:31  5-MIN KDBQ 020200Z AUTO 34008KT 10SM CLR 15/05 A2992 1070 51 1400 340/08 RMK AO2 TSNO
94908KDBQ DBQ20070501200510405/01/07 20:05:31  5-MIN KDBQ 020205Z AUTO 34009KT 10SM CLR 15/04 A2993 1070 49 1400 340/09 RMK AO2 TSNO
94908KDBQ DBQ20070501201010405/01/07 20:10:31  5-MIN KDBQ 020210Z AUTO 34009KT 10SM CLR 15/04 A2993 1070 49 1400 340/09 RMK AO2 TSNO
94908KDBQ DBQ20070501201510405/01/07 20:15:31  5-MIN KDBQ 020215Z AUTO 34010KT 10SM CLR 15/05 A2993 1070 51 1400 340/10 RMK AO2 TSNO
94908KDBQ DBQ20070501202010405/01/07 20:20:31  5-MIN KDBQ 020220Z AUTO 34010KT 10SM CLR 15/05 A2993 1070 51 1400 340/10 RMK AO2 TSNO
94908KDBQ DBQ20070501202510405/01/07 20:25:31  5-MIN KDBQ 020225Z AUTO 34010KT 10SM CLR 15/04 A2993 1070 49 1400 340/10 RMK AO2 TSNO
94908KDBQ DBQ20070501203010405/01/07 20:30:31  5-MIN KDBQ 020230Z AUTO 35009KT 10SM CLR 15/04 A2993 1070 49 1400 350/09 RMK AO2 TSNO
94908KDBQ DBQ20070501203510405/01/07 20:35:31  5-MIN KDBQ 020235Z AUTO 35010KT 10SM CLR 15/04 A2993 1070 49 1400 350/10 RMK AO2 TSNO
94908KDBQ DBQ20070501204010405/01/07 20:40:31  5-MIN KDBQ 020240Z AUTO 35010KT 10SM CLR 16/04 A2993 1070 47 1400 350/10 RMK AO2 TSNO
94908KDBQ DBQ20070501204510405/01/07 20:45:31  5-MIN KDBQ 020245Z AUTO 35011KT 10SM CLR 16/04 A2994 1060 47 1400 340/11 RMK AO2 TSNO
94908KDBQ DBQ20070501205012705/01/07 20:50:31  5-MIN KDBQ 020250Z AUTO 35010KT 10SM CLR 16/04 A2994 1060 47 1400 350/10 RMK AO2 SLP134 T01560044 52006 TSNO
94908KDBQ DBQ20070501205512705/01/07 20:55:31  5-MIN KDBQ 020255Z AUTO 35009KT 10SM CLR 16/04 A2994 1060 47 1400 350/09 RMK AO2 SLP135 T01560044 51020 TSNO
94908KDBQ DBQ20070501210010405/01/07 21:00:31  5-MIN KDBQ 020300Z AUTO 35009KT 10SM CLR 15/04 A2994 1060 49 1300 350/09 RMK AO2 TSNO
94908KDBQ DBQ20070501210510405/01/07 21:05:31  5-MIN KDBQ 020305Z AUTO 35009KT 10SM CLR 15/04 A2994 1060 49 1300 350/09 RMK AO2 TSNO
94908KDBQ DBQ20070501211010405/01/07 21:10:31  5-MIN KDBQ 020310Z AUTO 35009KT 10SM CLR 15/04 A2995 1050 49 1300 350/09 RMK AO2 TSNO
94908KDBQ DBQ20070501211510405/01/07 21:15:31  5-MIN KDBQ 020315Z AUTO 35008KT 10SM CLR 14/04 A2995 1050 51 1300 350/08 RMK AO2 TSNO
94908KDBQ DBQ20070501212010405/01/07 21:20:31  5-MIN KDBQ 020320Z AUTO 36008KT 10SM CLR 14/04 A2995 1050 51 1300 360/08 RMK AO2 TSNO
94908KDBQ DBQ20070501212510405/01/07 21:25:31  5-MIN KDBQ 020325Z AUTO 36009KT 10SM CLR 14/04 A2995 1050 51 1300 360/09 RMK AO2 TSNO
94908KDBQ DBQ20070501213010405/01/07 21:30:31  5-MIN KDBQ 020330Z AUTO 36010KT 10SM CLR 14/04 A2995 1050 51 1300 360/10 RMK AO2 TSNO
94908KDBQ DBQ20070501213510405/01/07 21:35:31  5-MIN KDBQ 020335Z AUTO 35010KT 10SM CLR 14/04 A2995 1050 52 1200 350/10 RMK AO2 TSNO
94908KDBQ DBQ20070501214010405/01/07 21:40:31  5-MIN KDBQ 020340Z AUTO 35010KT 10SM CLR 14/04 A2996 1040 52 1200 350/10 RMK AO2 TSNO
94908KDBQ DBQ20070501214510405/01/07 21:45:31  5-MIN KDBQ 020345Z AUTO 35010KT 10SM CLR 14/04 A2996 1040 52 1200 350/10 RMK AO2 TSNO
94908KDBQ DBQ20070501215012105/01/07 21:50:31  5-MIN KDBQ 020350Z AUTO 35011KT 10SM CLR 14/04 A2996 1040 52 1200 350/11 RMK AO2 SLP143 T01390044 TSNO
94908KDBQ DBQ20070501215512105/01/07 21:55:31  5-MIN KDBQ 020355Z AUTO 36011KT 10SM CLR 14/04 A2996 1040 51 1300 360/11 RMK AO2 SLP143 T01440044 TSNO
94908KDBQ DBQ20070501220010405/01/07 22:00:31  5-MIN KDBQ 020400Z AUTO 36011KT 10SM CLR 14/04 A2996 1040 52 1200 360/11 RMK AO2 TSNO
94908KDBQ DBQ20070501220510405/01/07 22:05:31  5-MIN KDBQ 020405Z AUTO 36011KT 10SM CLR 14/04 A2996 1040 51 1300 360/11 RMK AO2 TSNO
94908KDBQ DBQ20070501221010405/01/07 22:10:31  5-MIN KDBQ 020410Z AUTO 36011KT 10SM CLR 14/04 A2996 1040 51 1300 360/11 RMK AO2 TSNO
94908KDBQ DBQ20070501221510405/01/07 22:15:31  5-MIN KDBQ 020415Z AUTO 36010KT 10SM CLR 14/04 A2996 1040 51 1300 360/10 RMK AO2 TSNO
94908KDBQ DBQ20070501222010405/01/07 22:20:31  5-MIN KDBQ 020420Z AUTO 01007KT 10SM CLR 14/04 A2996 1040 51 1300 360/07 RMK AO2 TSNO
94908KDBQ DBQ20070501222510405/01/07 22:25:31  5-MIN KDBQ 020425Z AUTO 01007KT 10SM CLR 14/04 A2996 1040 51 1300 360/07 RMK AO2 TSNO
94908KDBQ DBQ20070501223010405/01/07 22:30:31  5-MIN KDBQ 020430Z AUTO 36007KT 10SM CLR 14/04 A2997 1030 51 1300 360/07 RMK AO2 TSNO
94908KDBQ DBQ20070501223510405/01/07 22:35:31  5-MIN KDBQ 020435Z AUTO 01007KT 10SM CLR 14/04 A2997 1030 51 1200 010/07 RMK AO2 TSNO
94908KDBQ DBQ20070501224010405/01/07 22:40:31  5-MIN KDBQ 020440Z AUTO 01009KT 10SM CLR 14/04 A2997 1030 51 1200 010/09 RMK AO2 TSNO
94908KDBQ DBQ20070501224510405/01/07 22:45:31  5-MIN KDBQ 020445Z AUTO 01010KT 10SM CLR 15/04 A2997 1040 49 1300 010/10 RMK AO2 TSNO
94908KDBQ DBQ20070501225012105/01/07 22:50:31  5-MIN KDBQ 020450Z AUTO 02007KT 10SM CLR 14/04 A2997 1030 51 1200 020/07 RMK AO2 SLP146 T01440044 TSNO
94908KDBQ DBQ20070501225512105/01/07 22:55:31  5-MIN KDBQ 020455Z AUTO 01008KT 10SM CLR 14/04 A2997 1040 51 1300 010/08 RMK AO2 SLP146 T01440044 TSNO
94908KDBQ DBQ20070501230010405/01/07 23:00:31  5-MIN KDBQ 020500Z AUTO 01008KT 10SM CLR 14/04 A2997 1040 52 1200 010/08 RMK AO2 TSNO
94908KDBQ DBQ20070501230510405/01/07 23:05:31  5-MIN KDBQ 020505Z AUTO 02006KT 10SM CLR 14/04 A2997 1030 52 1200 020/06 RMK AO2 TSNO
94908KDBQ DBQ20070501231010405/01/07 23:10:31  5-MIN KDBQ 020510Z AUTO 01009KT 10SM CLR 14/04 A2997 1030 51 1200 010/09 RMK AO2 TSNO
94908KDBQ DBQ20070501231510405/01/07 23:15:31  5-MIN KDBQ 020515Z AUTO 01010KT 10SM CLR 14/04 A2997 1030 51 1200 010/10 RMK AO2 TSNO
94908KDBQ DBQ20070501232010405/01/07 23:20:31  5-MIN KDBQ 020520Z AUTO 02008KT 10SM CLR 14/04 A2997 1030 49 1200 020/08 RMK AO2 TSNO
94908KDBQ DBQ20070501232510405/01/07 23:25:31  5-MIN KDBQ 020525Z AUTO 01008KT 10SM CLR 14/04 A2998 1030 51 1200 010/08 RMK AO2 TSNO
94908KDBQ DBQ20070501233010405/01/07 23:30:31  5-MIN KDBQ 020530Z AUTO 02008KT 10SM CLR 14/04 A2998 1030 52 1200 020/08 RMK AO2 TSNO
94908KDBQ DBQ20070501233510405/01/07 23:35:31  5-MIN KDBQ 020535Z AUTO 03007KT 10SM CLR 14/04 A2998 1020 52 1200 030/07 RMK AO2 TSNO
94908KDBQ DBQ20070501234010405/01/07 23:40:31  5-MIN KDBQ 020540Z AUTO 02006KT 10SM CLR 13/04 A2998 1020 54 1100 020/06 RMK AO2 TSNO
94908KDBQ DBQ20070501234510405/01/07 23:45:31  5-MIN KDBQ 020545Z AUTO 02007KT 10SM CLR 13/04 A2998 1020 54 1100 020/07 RMK AO2 TSNO
94908KDBQ DBQ20070501235014905/01/07 23:50:31  5-MIN KDBQ 020550Z AUTO 03009KT 10SM CLR 13/04 A2998 1020 54 1100 020/09 RMK AO2 SLP150 T01330044 10206 20133 402500117 51020 TSNO
94908KDBQ DBQ20070501235514905/01/07 23:55:31  5-MIN KDBQ 020555Z AUTO 02008KT 10SM CLR 13/04 A2998 1020 54 1100 020/08 RMK AO2 SLP149 T01330044 10206 20133 402500117 51014 TSNO
94908KDBQ DBQ20070502000010405/02/07 00:00:38  5-MIN KDBQ 020600Z AUTO 02007KT 10SM CLR 13/04 A2998 1020 54 1100 020/07 RMK AO2 TSNO
94908KDBQ DBQ20070502000510405/02/07 00:05:31  5-MIN KDBQ 020605Z AUTO 02007KT 10SM CLR 13/04 A2998 1020 54 1100 020/07 RMK AO2 TSNO
94908KDBQ DBQ20070502001010405/02/07 00:10:31  5-MIN KDBQ 020610Z AUTO 02008KT 10SM CLR 13/04 A2998 1020 56 1000 020/08 RMK AO2 TSNO
94908KDBQ DBQ20070502001510405/02/07 00:15:31  5-MIN KDBQ 020615Z AUTO 02008KT 10SM CLR 13/04 A2998 1020 56 1000 020/08 RMK AO2 TSNO
94908KDBQ DBQ20070502002010405/02/07 00:20:31  5-MIN KDBQ 020620Z AUTO 02008KT 10SM CLR 13/04 A2998 1020 54 1100 020/08 RMK AO2 TSNO
94908KDBQ DBQ20070502002510405/02/07 00:25:31  5-MIN KDBQ 020625Z AUTO 03008KT 10SM CLR 13/04 A2999 1020 54 1000 030/08 RMK AO2 TSNO
94908KDBQ DBQ20070502003010405/02/07 00:30:31  5-MIN KDBQ 020630Z AUTO 03007KT 10SM CLR 13/04 A2999 1020 54 1000 030/07 RMK AO2 TSNO
94908KDBQ DBQ20070502003510405/02/07 00:35:31  5-MIN KDBQ 020635Z AUTO 03007KT 10SM CLR 12/04 A2999 1020 56 1000 030/07 RMK AO2 TSNO
94908KDBQ DBQ20070502004010405/02/07 00:40:31  5-MIN KDBQ 020640Z AUTO 03006KT 10SM CLR 13/04 A2999 1020 54 1000 030/06 RMK AO2 TSNO
94908KDBQ DBQ20070502004510405/02/07 00:45:31  5-MIN KDBQ 020645Z AUTO 03007KT 10SM CLR 12/04 A2999 1010 56 1000 030/07 RMK AO2 TSNO
94908KDBQ DBQ20070502005012105/02/07 00:50:31  5-MIN KDBQ 020650Z AUTO 03006KT 10SM CLR 12/04 A2999 1010 56 1000 030/06 RMK AO2 SLP153 T01220039 TSNO
94908KDBQ DBQ20070502005512105/02/07 00:55:31  5-MIN KDBQ 020655Z AUTO 03006KT 10SM CLR 12/04 A3000 1010 56 1000 030/06 RMK AO2 SLP155 T01220039 TSNO
94908KDBQ DBQ20070502010010405/02/07 01:00:31  5-MIN KDBQ 020700Z AUTO 03006KT 10SM CLR 12/04 A3000 1010 56 1000 030/06 RMK AO2 TSNO
94908KDBQ DBQ20070502010510305/02/07 01:05:31  5-MIN KDBQ 020705Z AUTO 03007KT 10SM CLR 12/04 A2999 1010 58 900 030/07 RMK AO2 TSNO
94908KDBQ DBQ20070502011010305/02/07 01:10:31  5-MIN KDBQ 020710Z AUTO 04006KT 10SM CLR 12/04 A2999 1010 58 900 040/06 RMK AO2 TSNO
94908KDBQ DBQ20070502011510305/02/07 01:15:31  5-MIN KDBQ 020715Z AUTO 04006KT 10SM CLR 12/04 A3000 1010 58 900 040/06 RMK AO2 TSNO
94908KDBQ DBQ20070502012010305/02/07 01:20:31  5-MIN KDBQ 020720Z AUTO 04006KT 10SM CLR 12/04 A3000 1010 58 900 040/06 RMK AO2 TSNO
94908KDBQ DBQ20070502012510305/02/07 01:25:31  5-MIN KDBQ 020725Z AUTO 03007KT 10SM CLR 12/04 A2999 1010 58 900 030/07 RMK AO2 TSNO
94908KDBQ DBQ20070502013010305/02/07 01:30:31  5-MIN KDBQ 020730Z AUTO 04007KT 10SM CLR 12/04 A3000 1010 58 900 040/07 RMK AO2 TSNO
94908KDBQ DBQ20070502013510305/02/07 01:35:31  5-MIN KDBQ 020735Z AUTO 04007KT 10SM CLR 12/04 A3000 1010 58 900 040/07 RMK AO2 TSNO
94908KDBQ DBQ20070502014010305/02/07 01:40:31  5-MIN KDBQ 020740Z AUTO 04007KT 10SM CLR 11/04 A3000 1000 61 800 040/07 RMK AO2 TSNO
94908KDBQ DBQ20070502014510305/02/07 01:45:31  5-MIN KDBQ 020745Z AUTO 04006KT 10SM CLR 11/04 A3000 1000 61 800 040/06 RMK AO2 TSNO
94908KDBQ DBQ20070502015012005/02/07 01:50:31  5-MIN KDBQ 020750Z AUTO 04008KT 10SM CLR 12/04 A3000 1000 58 900 040/08 RMK AO2 SLP156 T01170039 TSNO
94908KDBQ DBQ20070502015512005/02/07 01:55:31  5-MIN KDBQ 020755Z AUTO 03009KT 10SM CLR 12/04 A3000 1000 58 900 030/09 RMK AO2 SLP157 T01170039 TSNO
94908KDBQ DBQ20070502020010305/02/07 02:00:31  5-MIN KDBQ 020800Z AUTO 04008KT 10SM CLR 12/04 A3000 1000 58 900 030/08 RMK AO2 TSNO
94908KDBQ DBQ20070502020510305/02/07 02:05:31  5-MIN KDBQ 020805Z AUTO 04009KT 10SM CLR 12/04 A3000 1000 58 900 030/09 RMK AO2 TSNO
94908KDBQ DBQ20070502021010305/02/07 02:10:31  5-MIN KDBQ 020810Z AUTO 04009KT 10SM CLR 12/04 A3001 1000 58 900 040/09 RMK AO2 TSNO
94908KDBQ DBQ20070502021510305/02/07 02:15:31  5-MIN KDBQ 020815Z AUTO 04009KT 10SM CLR 12/04 A3001 1000 58 900 030/09 RMK AO2 TSNO
94908KDBQ DBQ20070502022010305/02/07 02:20:31  5-MIN KDBQ 020820Z AUTO 04010KT 10SM CLR 11/04 A3001 1000 61 800 040/10 RMK AO2 TSNO
94908KDBQ DBQ20070502022510205/02/07 02:25:31  5-MIN KDBQ 020825Z AUTO 04009KT 10SM CLR 12/04 A3001 990 58 900 040/09 RMK AO2 TSNO
94908KDBQ DBQ20070502023010205/02/07 02:30:31  5-MIN KDBQ 020830Z AUTO 04009KT 10SM CLR 12/04 A3001 990 58 900 040/09 RMK AO2 TSNO
94908KDBQ DBQ20070502023510205/02/07 02:35:31  5-MIN KDBQ 020835Z AUTO 04009KT 10SM CLR 12/04 A3001 990 58 900 040/09 RMK AO2 TSNO
94908KDBQ DBQ20070502024010205/02/07 02:40:31  5-MIN KDBQ 020840Z AUTO 04011KT 10SM CLR 12/04 A3001 990 58 900 040/11 RMK AO2 TSNO
94908KDBQ DBQ20070502024510205/02/07 02:45:31  5-MIN KDBQ 020845Z AUTO 04010KT 10SM CLR 12/04 A3002 990 58 900 040/10 RMK AO2 TSNO
94908KDBQ DBQ20070502025012505/02/07 02:50:31  5-MIN KDBQ 020850Z AUTO 04011KT 10SM CLR 12/04 A3002 990 61 900 040/11 RMK AO2 SLP162 T01170044 51014 TSNO
94908KDBQ DBQ20070502025512505/02/07 02:55:31  5-MIN KDBQ 020855Z AUTO 04012KT 10SM CLR 11/04 A3002 990 63 800 040/12 RMK AO2 SLP162 T01110044 51013 TSNO
94908KDBQ DBQ20070502030010205/02/07 03:00:31  5-MIN KDBQ 020900Z AUTO 04011KT 10SM CLR 11/05 A3002 990 66 800 040/11 RMK AO2 TSNO
94908KDBQ DBQ20070502030510205/02/07 03:05:31  5-MIN KDBQ 020905Z AUTO 04011KT 10SM CLR 11/05 A3002 990 66 800 040/11 RMK AO2 TSNO
94908KDBQ DBQ20070502031010205/02/07 03:10:31  5-MIN KDBQ 020910Z AUTO 05013KT 10SM CLR 11/06 A3002 990 68 800 040/13 RMK AO2 TSNO
94908KDBQ DBQ20070502031510205/02/07 03:15:31  5-MIN KDBQ 020915Z AUTO 04011KT 10SM CLR 11/06 A3002 990 68 800 040/11 RMK AO2 TSNO
94908KDBQ DBQ20070502032010205/02/07 03:20:31  5-MIN KDBQ 020920Z AUTO 04012KT 10SM CLR 11/06 A3002 990 71 700 040/12 RMK AO2 TSNO
94908KDBQ DBQ20070502032510205/02/07 03:25:31  5-MIN KDBQ 020925Z AUTO 05012KT 10SM CLR 11/06 A3002 980 74 700 050/12 RMK AO2 TSNO
94908KDBQ DBQ20070502033010505/02/07 03:30:31  5-MIN KDBQ 020930Z AUTO 04012KT 10SM FEW013 11/06 A3002 980 74 700 040/12 RMK AO2 TSNO
94908KDBQ DBQ20070502033510505/02/07 03:35:31  5-MIN KDBQ 020935Z AUTO 04012KT 10SM SCT013 11/07 A3003 980 74 800 040/12 RMK AO2 TSNO
94908KDBQ DBQ20070502034010505/02/07 03:40:31  5-MIN KDBQ 020940Z AUTO 04009KT 10SM BKN013 11/07 A3003 980 77 700 040/09 RMK AO2 TSNO
94908KDBQ DBQ20070502034510505/02/07 03:45:31  5-MIN KDBQ 020945Z AUTO 04011KT 10SM BKN013 11/07 A3003 980 77 700 040/11 RMK AO2 TSNO
94908KDBQ DBQ20070502035010505/02/07 03:50:31  5-MIN KDBQ 020950Z AUTO 04010KT 10SM SCT013 11/07 A3003 980 77 700 040/10 RMK AO2 TSNO
94908KDBQ DBQ20070502035512205/02/07 03:55:31  5-MIN KDBQ 020955Z AUTO 04010KT 10SM SCT013 10/07 A3003 980 80 700 040/10 RMK AO2 SLP167 T01000067 TSNO
94908KDBQ DBQ20070502040010505/02/07 04:00:31  5-MIN KDBQ 021000Z AUTO 04010KT 10SM SCT013 10/07 A3003 980 80 700 040/10 RMK AO2 TSNO
94908KDBQ DBQ20070502040510505/02/07 04:05:31  5-MIN KDBQ 021005Z AUTO 04009KT 10SM FEW013 10/07 A3003 980 80 600 040/09 RMK AO2 TSNO
94908KDBQ DBQ20070502041010205/02/07 04:10:31  5-MIN KDBQ 021010Z AUTO 04010KT 10SM CLR 10/07 A3003 970 80 600 040/10 RMK AO2 TSNO
94908KDBQ DBQ20070502041510205/02/07 04:15:31  5-MIN KDBQ 021015Z AUTO 04010KT 10SM CLR 10/07 A3003 970 83 600 040/10 RMK AO2 TSNO
94908KDBQ DBQ20070502042010205/02/07 04:20:31  5-MIN KDBQ 021020Z AUTO 04010KT 10SM CLR 10/07 A3004 970 83 600 040/10 RMK AO2 TSNO
94908KDBQ DBQ20070502042510205/02/07 04:25:31  5-MIN KDBQ 021025Z AUTO 03010KT 10SM CLR 10/07 A3004 970 83 600 030/10 RMK AO2 TSNO
94908KDBQ DBQ20070502043010205/02/07 04:30:31  5-MIN KDBQ 021030Z AUTO 04010KT 10SM CLR 10/07 A3004 970 83 600 040/10 RMK AO2 TSNO
94908KDBQ DBQ20070502043509205/02/07 04:35:31  5-MIN KDBQ 021035Z 04011KT 10SM CLR 10/07 A3004 970 83 600 040/11 RMK AO2
94908KDBQ DBQ20070502044009205/02/07 04:40:31  5-MIN KDBQ 021040Z 04009KT 10SM CLR 10/07 A3004 960 83 600 040/09 RMK AO2
94908KDBQ DBQ20070502044509105/02/07 04:45:31  5-MIN KDBQ 021045Z 04010KT 9SM CLR 09/07 A3005 960 86 600 040/10 RMK AO2
94908KDBQ DBQ20070502045010805/02/07 04:50:31  5-MIN KDBQ 021050Z 04010KT 9SM CLR 09/07 A3005 960 86 600 040/10 RMK AO2 SLP175 T00940072
94908KDBQ DBQ20070502045510805/02/07 04:55:31  5-MIN KDBQ 021055Z 04010KT 9SM CLR 09/07 A3005 960 86 600 040/10 RMK AO2 SLP176 T00940072
94908KDBQ DBQ20070502050009105/02/07 05:00:31  5-MIN KDBQ 021100Z 04010KT 9SM CLR 09/07 A3006 950 86 600 040/10 RMK AO2
94908KDBQ DBQ20070502050509105/02/07 05:05:31  5-MIN KDBQ 021105Z 04010KT 9SM CLR 10/07 A3006 950 80 600 040/10 RMK AO2
94908KDBQ DBQ20070502051009105/02/07 05:10:31  5-MIN KDBQ 021110Z 05010KT 9SM CLR 09/07 A3006 950 83 500 050/10 RMK AO2
94908KDBQ DBQ20070502051509105/02/07 05:15:31  5-MIN KDBQ 021115Z 05009KT 9SM CLR 09/07 A3006 950 83 500 050/09 RMK AO2
94908KDBQ DBQ20070502052009105/02/07 05:20:31  5-MIN KDBQ 021120Z 04009KT 9SM CLR 09/07 A3006 950 83 500 040/09 RMK AO2
94908KDBQ DBQ20070502052509105/02/07 05:25:31  5-MIN KDBQ 021125Z 05008KT 9SM CLR 09/07 A3007 940 83 500 050/08 RMK AO2
94908KDBQ DBQ20070502053009105/02/07 05:30:31  5-MIN KDBQ 021130Z 04009KT 9SM CLR 09/07 A3007 940 83 500 040/09 RMK AO2
94908KDBQ DBQ20070502053509105/02/07 05:35:31  5-MIN KDBQ 021135Z 04010KT 9SM CLR 09/07 A3007 940 83 500 040/10 RMK AO2
94908KDBQ DBQ20070502054009105/02/07 05:40:31  5-MIN KDBQ 021140Z 04010KT 9SM CLR 09/07 A3007 940 83 500 040/10 RMK AO2
94908KDBQ DBQ20070502054509105/02/07 05:45:31  5-MIN KDBQ 021145Z 04010KT 9SM CLR 09/07 A3007 940 83 500 040/10 RMK AO2
94908KDBQ DBQ20070502055012605/02/07 05:50:31  5-MIN KDBQ 021150Z 04008KT 9SM CLR 10/07 A3008 930 83 600 040/08 RMK AO2 SLP185 T01000072 10133 20094 51013
94908KDBQ DBQ20070502055512605/02/07 05:55:31  5-MIN KDBQ 021155Z 04008KT 9SM CLR 10/07 A3008 930 83 600 040/08 RMK AO2 SLP185 T01000072 10133 20094 53017
94908KDBQ DBQ20070502060009105/02/07 06:00:31  5-MIN KDBQ 021200Z 05011KT 9SM CLR 10/07 A3008 930 83 600 040/11 RMK AO2
94908KDBQ DBQ20070502060509105/02/07 06:05:31  5-MIN KDBQ 021205Z 04011KT 9SM CLR 10/07 A3008 930 83 600 040/11 RMK AO2
94908KDBQ DBQ20070502061009105/02/07 06:10:31  5-MIN KDBQ 021210Z 04009KT 9SM CLR 10/07 A3008 930 83 600 040/09 RMK AO2
94908KDBQ DBQ20070502061509105/02/07 06:15:31  5-MIN KDBQ 021215Z 05008KT 9SM CLR 10/07 A3009 920 83 600 050/08 RMK AO2
94908KDBQ DBQ20070502062009105/02/07 06:20:31  5-MIN KDBQ 021220Z 04009KT 9SM CLR 10/07 A3009 920 83 600 040/09 RMK AO2
94908KDBQ DBQ20070502062509105/02/07 06:25:31  5-MIN KDBQ 021225Z 04008KT 9SM CLR 10/07 A3009 920 83 600 040/08 RMK AO2
94908KDBQ DBQ20070502063009105/02/07 06:30:31  5-MIN KDBQ 021230Z 04010KT 9SM CLR 10/07 A3009 920 83 600 040/10 RMK AO2
94908KDBQ DBQ20070502063509205/02/07 06:35:31  5-MIN KDBQ 021235Z 05009KT 10SM CLR 11/07 A3009 920 80 600 050/09 RMK AO2
94908KDBQ DBQ20070502064009205/02/07 06:40:31  5-MIN KDBQ 021240Z 06011KT 10SM CLR 11/07 A3010 920 80 600 060/11 RMK AO2
94908KDBQ DBQ20070502064509205/02/07 06:45:31  5-MIN KDBQ 021245Z 05010KT 10SM CLR 11/07 A3010 910 80 600 050/10 RMK AO2
94908KDBQ DBQ20070502065010905/02/07 06:50:31  5-MIN KDBQ 021250Z 04010KT 10SM CLR 11/07 A3010 910 80 600 040/10 RMK AO2 SLP193 T01060072
94908KDBQ DBQ20070502065510905/02/07 06:55:31  5-MIN KDBQ 021255Z 05011KT 10SM CLR 11/07 A3010 910 80 600 050/11 RMK AO2 SLP193 T01060072
94908KDBQ DBQ20070502070009205/02/07 07:00:31  5-MIN KDBQ 021300Z 05009KT 10SM CLR 11/07 A3010 910 80 600 050/09 RMK AO2
94908KDBQ DBQ20070502070509205/02/07 07:05:31  5-MIN KDBQ 021305Z 04009KT 10SM CLR 11/07 A3010 910 77 700 040/09 RMK AO2
94908KDBQ DBQ20070502071009205/02/07 07:10:31  5-MIN KDBQ 021310Z 05012KT 10SM CLR 11/07 A3010 910 74 700 050/12 RMK AO2
94908KDBQ DBQ20070502071509805/02/07 07:15:31  5-MIN KDBQ 021315Z 06012G18KT 10SM CLR 11/07 A3011 910 74 700 050/12G18 RMK AO2
94908KDBQ DBQ20070502072009805/02/07 07:20:31  5-MIN KDBQ 021320Z 07011G18KT 10SM CLR 11/07 A3011 910 74 700 070/11G18 RMK AO2
94908KDBQ DBQ20070502072509805/02/07 07:25:31  5-MIN KDBQ 021325Z 06011G18KT 10SM CLR 12/07 A3011 910 74 800 060/11G18 RMK AO2
94908KDBQ DBQ20070502073009205/02/07 07:30:31  5-MIN KDBQ 021330Z 06014KT 10SM CLR 12/07 A3011 910 71 800 060/14 RMK AO2
94908KDBQ DBQ20070502073509205/02/07 07:35:31  5-MIN KDBQ 021335Z 05015KT 10SM CLR 12/07 A3011 910 71 800 050/15 RMK AO2
94908KDBQ DBQ20070502074009205/02/07 07:40:31  5-MIN KDBQ 021340Z 07011KT 10SM CLR 12/07 A3011 910 71 800 070/11 RMK AO2
94908KDBQ DBQ20070502074509205/02/07 07:45:31  5-MIN KDBQ 021345Z 07012KT 10SM CLR 12/07 A3011 910 71 800 070/12 RMK AO2
94908KDBQ DBQ20070502075010905/02/07 07:50:31  5-MIN KDBQ 021350Z 06012KT 10SM CLR 12/07 A3011 910 71 800 050/12 RMK AO2 SLP196 T01170067
94908KDBQ DBQ20070502075510905/02/07 07:55:31  5-MIN KDBQ 021355Z 06011KT 10SM CLR 12/07 A3011 910 68 800 050/11 RMK AO2 SLP196 T01220067
94908KDBQ DBQ20070502080009205/02/07 08:00:31  5-MIN KDBQ 021400Z 07011KT 10SM CLR 12/07 A3011 910 68 800 070/11 RMK AO2
94908KDBQ DBQ20070502080509205/02/07 08:05:31  5-MIN KDBQ 021405Z 07011KT 10SM CLR 12/07 A3011 910 68 800 070/11 RMK AO2
94908KDBQ DBQ20070502081009805/02/07 08:10:31  5-MIN KDBQ 021410Z 06011G17KT 10SM CLR 13/07 A3011 910 69 900 060/11G17 RMK AO2
94908KDBQ DBQ20070502081509205/02/07 08:15:31  5-MIN KDBQ 021415Z 07011KT 10SM CLR 13/07 A3011 910 69 900 060/11 RMK AO2
94908KDBQ DBQ20070502082009205/02/07 08:20:31  5-MIN KDBQ 021420Z 04009KT 10SM CLR 13/07 A3011 910 69 900 040/09 RMK AO2
94908KDBQ DBQ20070502082509805/02/07 08:25:31  5-MIN KDBQ 021425Z 06010G16KT 10SM CLR 13/07 A3011 900 69 900 050/10G16 RMK AO2
94908KDBQ DBQ20070502083009205/02/07 08:30:31  5-MIN KDBQ 021430Z 08009KT 10SM CLR 13/07 A3011 910 66 900 080/09 RMK AO2
94908KDBQ DBQ20070502083509305/02/07 08:35:31  5-MIN KDBQ 021435Z 07011KT 10SM CLR 13/07 A3011 900 66 1000 070/11 RMK AO2
94908KDBQ DBQ20070502084009205/02/07 08:40:31  5-MIN KDBQ 021440Z 05009KT 10SM CLR 13/07 A3011 910 66 900 050/09 RMK AO2
94908KDBQ DBQ20070502084509305/02/07 08:45:31  5-MIN KDBQ 021445Z 05008KT 10SM CLR 13/07 A3011 900 66 1000 050/08 RMK AO2
94908KDBQ DBQ20070502085011605/02/07 08:50:31  5-MIN KDBQ 021450Z 08010KT 10SM CLR 13/07 A3011 900 66 1000 080/10 RMK AO2 SLP196 T01330072 53017
94908KDBQ DBQ20070502085511605/02/07 08:55:31  5-MIN KDBQ 021455Z 06010KT 10SM CLR 13/07 A3011 900 64 1000 060/10 RMK AO2 SLP197 T01330067 51010
94908KDBQ DBQ20070502090009905/02/07 09:00:31  5-MIN KDBQ 021500Z 06009G16KT 10SM CLR 13/07 A3011 900 64 1000 060/09G16 RMK AO2
94908KDBQ DBQ20070502090509905/02/07 09:05:31  5-MIN KDBQ 021505Z 04011G16KT 10SM CLR 14/07 A3011 900 64 1000 040/11G16 RMK AO2
94908KDBQ DBQ20070502091009305/02/07 09:10:31  5-MIN KDBQ 021510Z 05011KT 10SM CLR 14/07 A3011 900 64 1000 050/11 RMK AO2
94908KDBQ DBQ20070502091509305/02/07 09:15:31  5-MIN KDBQ 021515Z 05009KT 10SM CLR 14/07 A3011 900 64 1000 050/09 RMK AO2
94908KDBQ DBQ20070502092009305/02/07 09:20:31  5-MIN KDBQ 021520Z 06006KT 10SM CLR 14/07 A3011 900 61 1100 060/06 RMK AO2
94908KDBQ DBQ20070502092509305/02/07 09:25:31  5-MIN KDBQ 021525Z 06010KT 10SM CLR 14/08 A3011 900 64 1100 060/10 RMK AO2
94908KDBQ DBQ20070502093009305/02/07 09:30:31  5-MIN KDBQ 021530Z 04008KT 10SM CLR 14/07 A3011 900 61 1100 040/08 RMK AO2
94908KDBQ DBQ20070502093509305/02/07 09:35:31  5-MIN KDBQ 021535Z 03010KT 10SM CLR 14/07 A3011 900 61 1100 030/10 RMK AO2
94908KDBQ DBQ20070502094009305/02/07 09:40:31  5-MIN KDBQ 021540Z 06010KT 10SM CLR 15/08 A3011 900 62 1200 060/10 RMK AO2
94908KDBQ DBQ20070502094509305/02/07 09:45:31  5-MIN KDBQ 021545Z 05010KT 10SM CLR 15/07 A3011 900 59 1200 050/10 RMK AO2
94908KDBQ DBQ20070502095011005/02/07 09:50:31  5-MIN KDBQ 021550Z 05010KT 10SM CLR 15/07 A3011 900 59 1200 050/10 RMK AO2 SLP196 T01500072
94908KDBQ DBQ20070502095511005/02/07 09:55:31  5-MIN KDBQ 021555Z 07006KT 10SM CLR 14/07 A3011 900 59 1100 070/06 RMK AO2 SLP196 T01440067
94908KDBQ DBQ20070502100009305/02/07 10:00:31  5-MIN KDBQ 021600Z 06011KT 10SM CLR 16/07 A3011 900 57 1200 060/11 RMK AO2
94908KDBQ DBQ20070502100509305/02/07 10:05:31  5-MIN KDBQ 021605Z 05010KT 10SM CLR 16/07 A3011 900 57 1200 050/10 RMK AO2
94908KDBQ DBQ20070502101009905/02/07 10:10:31  5-MIN KDBQ 021610Z 05012G17KT 10SM CLR 15/07 A3011 910 57 1200 050/12G17 RMK AO2
94908KDBQ DBQ20070502101509905/02/07 10:15:31  5-MIN KDBQ 021615Z 05009G17KT 10SM CLR 16/07 A3011 900 55 1200 040/09G17 RMK AO2
94908KDBQ DBQ20070502102009305/02/07 10:20:31  5-MIN KDBQ 021620Z 05010KT 10SM CLR 16/07 A3011 900 55 1200 050/10 RMK AO2
94908KDBQ DBQ20070502102509905/02/07 10:25:31  5-MIN KDBQ 021625Z 05010G16KT 10SM CLR 16/07 A3011 900 55 1200 050/10G16 RMK AO2
94908KDBQ DBQ20070502103009305/02/07 10:30:31  5-MIN KDBQ 021630Z 05011KT 10SM CLR 15/07 A3011 900 57 1200 050/11 RMK AO2
94908KDBQ DBQ20070502103509305/02/07 10:35:31  5-MIN KDBQ 021635Z 05010KT 10SM CLR 16/07 A3011 900 55 1200 040/10 RMK AO2
94908KDBQ DBQ20070502104009305/02/07 10:40:31  5-MIN KDBQ 021640Z 05009KT 10SM CLR 16/07 A3011 900 55 1200 040/09 RMK AO2
94908KDBQ DBQ20070502104509305/02/07 10:45:31  5-MIN KDBQ 021645Z 06012KT 10SM CLR 16/07 A3011 910 55 1300 060/12 RMK AO2
94908KDBQ DBQ20070502105011005/02/07 10:50:31  5-MIN KDBQ 021650Z 07008KT 10SM CLR 16/07 A3011 900 55 1200 070/08 RMK AO2 SLP197 T01560067
94908KDBQ DBQ20070502105511005/02/07 10:55:31  5-MIN KDBQ 021655Z 06011KT 10SM CLR 16/07 A3011 900 53 1300 050/11 RMK AO2 SLP195 T01610067
94908KDBQ DBQ20070502110009305/02/07 11:00:31  5-MIN KDBQ 021700Z 05012KT 10SM CLR 16/07 A3011 910 55 1300 050/12 RMK AO2
94908KDBQ DBQ20070502110509305/02/07 11:05:31  5-MIN KDBQ 021705Z 04012KT 10SM CLR 17/07 A3011 910 53 1400 040/12 RMK AO2
94908KDBQ DBQ20070502111009305/02/07 11:10:31  5-MIN KDBQ 021710Z 03013KT 10SM CLR 16/07 A3010 910 53 1300 030/13 RMK AO2
94908KDBQ DBQ20070502111509305/02/07 11:15:31  5-MIN KDBQ 021715Z 05012KT 10SM CLR 17/07 A3010 910 51 1400 050/12 RMK AO2
94908KDBQ DBQ20070502112009905/02/07 11:20:31  5-MIN KDBQ 021720Z 06012G17KT 10SM CLR 17/07 A3010 910 53 1400 060/12G17 RMK AO2
94908KDBQ DBQ20070502112509905/02/07 11:25:31  5-MIN KDBQ 021725Z 05012G17KT 10SM CLR 17/07 A3010 910 51 1400 050/12G17 RMK AO2
94908KDBQ DBQ20070502113009905/02/07 11:30:31  5-MIN KDBQ 021730Z 06014G18KT 10SM CLR 17/07 A3010 910 51 1400 060/14G18 RMK AO2
94908KDBQ DBQ20070502113509905/02/07 11:35:31  5-MIN KDBQ 021735Z 09012G18KT 10SM CLR 17/06 A3010 910 49 1400 090/12G18 RMK AO2
94908KDBQ DBQ20070502114009905/02/07 11:40:31  5-MIN KDBQ 021740Z 09011G17KT 10SM CLR 17/06 A3010 910 49 1400 090/11G17 RMK AO2
94908KDBQ DBQ20070502114509905/02/07 11:45:31  5-MIN KDBQ 021745Z 04009G17KT 10SM CLR 17/07 A3010 910 53 1400 040/09G17 RMK AO2
94908KDBQ DBQ20070502115013405/02/07 11:50:31  5-MIN KDBQ 021750Z 05014G18KT 10SM CLR 17/07 A3010 910 51 1400 050/14G18 RMK AO2 SLP192 T01720072 10172 20100 51010
94908KDBQ DBQ20070502115513405/02/07 11:55:31  5-MIN KDBQ 021755Z 05010G18KT 10SM CLR 17/07 A3010 920 51 1400 050/10G18 RMK AO2 SLP192 T01670067 10172 20100 58005
94908KDBQ DBQ20070502120009905/02/07 12:00:31  5-MIN KDBQ 021800Z 04011G18KT 10SM CLR 17/07 A3009 920 53 1400 040/11G18 RMK AO2
94908KDBQ DBQ20070502120509905/02/07 12:05:31  5-MIN KDBQ 021805Z 04011G18KT 10SM CLR 17/07 A3010 920 51 1400 040/11G18 RMK AO2
94908KDBQ DBQ20070502121009305/02/07 12:10:31  5-MIN KDBQ 021810Z 09014KT 10SM CLR 17/06 A3010 920 47 1400 090/14 RMK AO2
94908KDBQ DBQ20070502121509905/02/07 12:15:31  5-MIN KDBQ 021815Z 07012G17KT 10SM CLR 17/06 A3010 920 47 1400 070/12G17 RMK AO2
94908KDBQ DBQ20070502122009905/02/07 12:20:31  5-MIN KDBQ 021820Z 08009G17KT 10SM CLR 17/06 A3009 920 47 1400 080/09G17 RMK AO2
94908KDBQ DBQ20070502122509305/02/07 12:25:31  5-MIN KDBQ 021825Z 06008KT 10SM CLR 17/06 A3010 920 49 1400 060/08 RMK AO2
94908KDBQ DBQ20070502123009305/02/07 12:30:31  5-MIN KDBQ 021830Z 08010KT 10SM CLR 17/06 A3010 920 49 1400 080/10 RMK AO2
94908KDBQ DBQ20070502123509305/02/07 12:35:31  5-MIN KDBQ 021835Z 07008KT 10SM CLR 17/06 A3009 920 49 1400 070/08 RMK AO2
94908KDBQ DBQ20070502124009305/02/07 12:40:31  5-MIN KDBQ 021840Z 06009KT 10SM CLR 17/07 A3009 920 49 1400 060/09 RMK AO2
94908KDBQ DBQ20070502124509305/02/07 12:45:31  5-MIN KDBQ 021845Z 06009KT 10SM CLR 17/06 A3009 920 47 1400 060/09 RMK AO2
94908KDBQ DBQ20070502125011605/02/07 12:50:31  5-MIN KDBQ 021850Z 06010G16KT 10SM CLR 18/07 A3009 920 49 1500 060/10G16 RMK AO2 SLP190 T01780072
94908KDBQ DBQ20070502125511605/02/07 12:55:31  5-MIN KDBQ 021855Z 07012G16KT 10SM CLR 18/07 A3009 920 48 1500 070/12G16 RMK AO2 SLP190 T01780067
94908KDBQ DBQ20070502130009905/02/07 13:00:31  5-MIN KDBQ 021900Z 06011G17KT 10SM CLR 18/07 A3009 920 48 1500 060/11G17 RMK AO2
94908KDBQ DBQ20070502130509905/02/07 13:05:31  5-MIN KDBQ 021905Z 09010G17KT 10SM CLR 18/07 A3009 920 48 1500 080/10G17 RMK AO2
94908KDBQ DBQ20070502131009905/02/07 13:10:31  5-MIN KDBQ 021910Z 08010G17KT 10SM CLR 18/06 A3009 920 44 1500 080/10G17 RMK AO2
94908KDBQ DBQ20070502131509305/02/07 13:15:31  5-MIN KDBQ 021915Z 06013KT 10SM CLR 18/06 A3009 920 46 1500 060/13 RMK AO2
94908KDBQ DBQ20070502132009305/02/07 13:20:31  5-MIN KDBQ 021920Z 07012KT 10SM CLR 18/07 A3009 920 46 1600 070/12 RMK AO2
94908KDBQ DBQ20070502132509305/02/07 13:25:31  5-MIN KDBQ 021925Z 04011KT 10SM CLR 18/06 A3009 920 44 1600 040/11 RMK AO2
94908KDBQ DBQ20070502133009305/02/07 13:30:31  5-MIN KDBQ 021930Z 05010KT 10SM CLR 18/06 A3009 920 46 1500 050/10 RMK AO2
94908KDBQ DBQ20070502133510905/02/07 13:35:31  5-MIN KDBQ 021935Z AUTO 08012G18KT 10SM CLR 18/07 A3009 920 46 1600 080/12G18 RMK AO2 TSNO
94908KDBQ DBQ20070502134009905/02/07 13:40:31  5-MIN KDBQ 021940Z 05011G18KT 10SM CLR 18/07 A3009 930 46 1600 050/11G18 RMK AO2
94908KDBQ DBQ20070502134509905/02/07 13:45:31  5-MIN KDBQ 021945Z 07011G17KT 10SM CLR 18/06 A3009 930 44 1600 070/11G17 RMK AO2
94908KDBQ DBQ20070502135011605/02/07 13:50:31  5-MIN KDBQ 021950Z 03012G17KT 10SM CLR 18/06 A3009 930 44 1600 030/12G17 RMK AO2 SLP188 T01830061
94908KDBQ DBQ20070502135511005/02/07 13:55:31  5-MIN KDBQ 021955Z 07009KT 10SM CLR 18/07 A3008 930 46 1600 070/09 RMK AO2 SLP187 T01830067
94908KDBQ DBQ20070502140009905/02/07 14:00:31  5-MIN KDBQ 022000Z 06010G17KT 10SM CLR 18/06 A3008 930 44 1500 060/10G17 RMK AO2
94908KDBQ DBQ20070502140510205/02/07 14:05:31  5-MIN KDBQ 022005Z 06013G17KT 10SM FEW110 18/07 A3008 930 46 1600 060/13G17 RMK AO2
94908KDBQ DBQ20070502141009905/02/07 14:10:31  5-MIN KDBQ 022010Z 05010G17KT 10SM CLR 18/06 A3008 930 44 1600 050/10G17 RMK AO2
94908KDBQ DBQ20070502141509305/02/07 14:15:31  5-MIN KDBQ 022015Z 07010KT 10SM CLR 19/07 A3008 930 44 1600 070/10 RMK AO2
94908KDBQ DBQ20070502142009905/02/07 14:20:31  5-MIN KDBQ 022020Z 05015G18KT 10SM CLR 18/06 A3008 930 44 1600 050/15G18 RMK AO2
94908KDBQ DBQ20070502142509905/02/07 14:25:31  5-MIN KDBQ 022025Z 05014G20KT 10SM CLR 19/07 A3008 930 44 1600 050/14G20 RMK AO2
94908KDBQ DBQ20070502143009905/02/07 14:30:31  5-MIN KDBQ 022030Z 04010G20KT 10SM CLR 19/07 A3008 940 46 1600 040/10G20 RMK AO2
94908KDBQ DBQ20070502161009305/02/07 16:10:31  5-MIN KDBQ 022210Z 05013KT 10SM CLR 18/06 A3006 950 44 1600 040/13 RMK AO2
94908KDBQ DBQ20070502161509305/02/07 16:15:31  5-MIN KDBQ 022215Z 07011KT 10SM CLR 18/06 A3006 950 42 1600 070/11 RMK AO2
94908KDBQ DBQ20070502162009905/02/07 16:20:31  5-MIN KDBQ 022220Z 07015G20KT 10SM CLR 18/06 A3006 950 44 1600 070/15G20 RMK AO2
94908KDBQ DBQ20070502162509805/02/07 16:25:31  5-MIN KDBQ 022225Z 06009G20KT 9SM CLR 18/06 A3006 950 44 1600 060/09G20 RMK AO2
94908KDBQ DBQ20070502163009205/02/07 16:30:31  5-MIN KDBQ 022230Z 08010KT 9SM CLR 19/07 A3007 940 44 1700 080/10 RMK AO2
94908KDBQ DBQ20070502163509905/02/07 16:35:31  5-MIN KDBQ 022235Z 06011G16KT 10SM CLR 18/06 A3007 940 44 1600 050/11G16 RMK AO2
94908KDBQ DBQ20070502164009905/02/07 16:40:31  5-MIN KDBQ 022240Z 06010G17KT 10SM CLR 18/07 A3006 950 46 1600 060/10G17 RMK AO2
94908KDBQ DBQ20070502164509905/02/07 16:45:31  5-MIN KDBQ 022245Z 07009G17KT 10SM CLR 18/06 A3006 940 42 1600 060/09G17 RMK AO2
94908KDBQ DBQ20070502165011605/02/07 16:50:31  5-MIN KDBQ 022250Z 06014G19KT 10SM CLR 18/06 A3006 950 44 1600 060/14G19 RMK AO2 SLP182 T01830061
94908KDBQ DBQ20070502165511605/02/07 16:55:31  5-MIN KDBQ 022255Z 07011G19KT 10SM CLR 18/06 A3006 950 44 1600 070/11G19 RMK AO2 SLP182 T01830061
94908KDBQ DBQ20070502170009305/02/07 17:00:31  5-MIN KDBQ 022300Z 07012KT 10SM CLR 18/06 A3006 950 44 1600 070/12 RMK AO2
94908KDBQ DBQ20070502170509905/02/07 17:05:31  5-MIN KDBQ 022305Z 07012G18KT 10SM CLR 18/06 A3006 950 44 1600 070/12G18 RMK AO2
94908KDBQ DBQ20070502171009905/02/07 17:10:31  5-MIN KDBQ 022310Z 06012G18KT 10SM CLR 18/06 A3006 950 44 1600 060/12G18 RMK AO2
94908KDBQ DBQ20070502171509305/02/07 17:15:31  5-MIN KDBQ 022315Z 07011KT 10SM CLR 18/06 A3006 950 44 1600 070/11 RMK AO2
94908KDBQ DBQ20070502172009905/02/07 17:20:31  5-MIN KDBQ 022320Z 07013G18KT 10SM CLR 18/06 A3006 950 44 1600 070/13G18 RMK AO2
94908KDBQ DBQ20070502172509905/02/07 17:25:31  5-MIN KDBQ 022325Z 07011G18KT 10SM CLR 18/06 A3007 940 44 1500 070/11G18 RMK AO2
94908KDBQ DBQ20070502173009305/02/07 17:30:31  5-MIN KDBQ 022330Z 06009KT 10SM CLR 18/06 A3007 940 46 1500 050/09 RMK AO2
94908KDBQ DBQ20070502173509305/02/07 17:35:31  5-MIN KDBQ 022335Z 06012KT 10SM CLR 18/06 A3007 940 46 1500 060/12 RMK AO2
94908KDBQ DBQ20070502174009905/02/07 17:40:31  5-MIN KDBQ 022340Z 06010G18KT 10SM CLR 18/06 A3007 940 46 1500 060/10G18 RMK AO2
94908KDBQ DBQ20070502174509905/02/07 17:45:31  5-MIN KDBQ 022345Z 06011G18KT 10SM CLR 17/06 A3006 950 47 1500 060/11G18 RMK AO2
94908KDBQ DBQ20070502175013405/02/07 17:50:31  5-MIN KDBQ 022350Z 06013G17KT 10SM CLR 17/06 A3007 940 47 1500 060/13G17 RMK AO2 SLP183 T01720061 10194 20167 58008
94908KDBQ DBQ20070502175513405/02/07 17:55:31  5-MIN KDBQ 022355Z 08011G17KT 10SM CLR 17/06 A3007 940 47 1500 070/11G17 RMK AO2 SLP183 T01720061 10194 20167 55001
94908KDBQ DBQ20070502180009305/02/07 18:00:31  5-MIN KDBQ 030000Z 08011KT 10SM CLR 17/06 A3007 940 47 1500 080/11 RMK AO2
94908KDBQ DBQ20070502180509305/02/07 18:05:31  5-MIN KDBQ 030005Z 07010KT 10SM CLR 17/06 A3007 940 47 1500 070/10 RMK AO2
94908KDBQ DBQ20070502181009305/02/07 18:10:31  5-MIN KDBQ 030010Z 07011KT 10SM CLR 17/06 A3007 940 47 1500 070/11 RMK AO2
94908KDBQ DBQ20070502181509305/02/07 18:15:31  5-MIN KDBQ 030015Z 07011KT 10SM CLR 17/06 A3007 940 47 1400 060/11 RMK AO2
94908KDBQ DBQ20070502182009305/02/07 18:20:31  5-MIN KDBQ 030020Z 06010KT 10SM CLR 17/06 A3007 940 47 1400 060/10 RMK AO2
94908KDBQ DBQ20070502182509305/02/07 18:25:31  5-MIN KDBQ 030025Z 07009KT 10SM CLR 17/06 A3007 940 47 1400 070/09 RMK AO2
94908KDBQ DBQ20070502183009305/02/07 18:30:31  5-MIN KDBQ 030030Z 07010KT 10SM CLR 16/06 A3007 940 49 1300 060/10 RMK AO2
94908KDBQ DBQ20070502183509305/02/07 18:35:31  5-MIN KDBQ 030035Z 07012KT 10SM CLR 16/06 A3007 940 49 1300 070/12 RMK AO2
94908KDBQ DBQ20070502184009305/02/07 18:40:31  5-MIN KDBQ 030040Z 07013KT 10SM CLR 16/06 A3007 940 49 1300 070/13 RMK AO2
94908KDBQ DBQ20070502184509905/02/07 18:45:31  5-MIN KDBQ 030045Z 08014G18KT 10SM CLR 16/06 A3007 940 49 1300 070/14G18 RMK AO2
94908KDBQ DBQ20070502185011005/02/07 18:50:31  5-MIN KDBQ 030050Z 07011KT 10SM CLR 16/06 A3007 940 49 1300 070/11 RMK AO2 SLP186 T01610056
94908KDBQ DBQ20070502185511005/02/07 18:55:31  5-MIN KDBQ 030055Z 08011KT 10SM CLR 16/06 A3008 940 51 1300 070/11 RMK AO2 SLP186 T01560056
94908KDBQ DBQ20070502190010305/02/07 19:00:31  5-MIN KDBQ 030100Z AUTO 08010KT 10SM CLR 16/06 A3008 930 51 1300 070/10 RMK AO2 TSNO
94908KDBQ DBQ20070502190510305/02/07 19:05:31  5-MIN KDBQ 030105Z AUTO 08011KT 10SM CLR 16/06 A3008 930 51 1300 070/11 RMK AO2 TSNO
94908KDBQ DBQ20070502191010305/02/07 19:10:31  5-MIN KDBQ 030110Z AUTO 07011KT 10SM CLR 16/06 A3008 930 53 1300 070/11 RMK AO2 TSNO
94908KDBQ DBQ20070502191510305/02/07 19:15:31  5-MIN KDBQ 030115Z AUTO 08009KT 10SM CLR 15/06 A3008 930 55 1200 080/09 RMK AO2 TSNO
94908KDBQ DBQ20070502192010305/02/07 19:20:31  5-MIN KDBQ 030120Z AUTO 08009KT 10SM CLR 15/06 A3009 930 55 1200 080/09 RMK AO2 TSNO
94908KDBQ DBQ20070502192510305/02/07 19:25:31  5-MIN KDBQ 030125Z AUTO 08010KT 10SM CLR 15/06 A3009 930 55 1200 080/10 RMK AO2 TSNO
94908KDBQ DBQ20070502193010305/02/07 19:30:31  5-MIN KDBQ 030130Z AUTO 08008KT 10SM CLR 14/06 A3009 920 57 1100 080/08 RMK AO2 TSNO
94908KDBQ DBQ20070502193510305/02/07 19:35:31  5-MIN KDBQ 030135Z AUTO 09009KT 10SM CLR 14/07 A3009 920 59 1100 090/09 RMK AO2 TSNO
94908KDBQ DBQ20070502194010305/02/07 19:40:31  5-MIN KDBQ 030140Z AUTO 08011KT 10SM CLR 14/07 A3010 920 59 1100 080/11 RMK AO2 TSNO
94908KDBQ DBQ20070502194510305/02/07 19:45:31  5-MIN KDBQ 030145Z AUTO 08012KT 10SM CLR 14/07 A3010 910 59 1100 080/12 RMK AO2 TSNO
94908KDBQ DBQ20070502195012005/02/07 19:50:31  5-MIN KDBQ 030150Z AUTO 08011KT 10SM CLR 14/07 A3010 910 59 1100 080/11 RMK AO2 SLP194 T01440067 TSNO
94908KDBQ DBQ20070502195512005/02/07 19:55:31  5-MIN KDBQ 030155Z AUTO 09010KT 10SM CLR 14/07 A3010 910 61 1000 080/10 RMK AO2 SLP194 T01390067 TSNO
94908KDBQ DBQ20070502200010305/02/07 20:00:31  5-MIN KDBQ 030200Z AUTO 08010KT 10SM CLR 14/07 A3010 910 61 1000 080/10 RMK AO2 TSNO
94908KDBQ DBQ20070502200510305/02/07 20:05:31  5-MIN KDBQ 030205Z AUTO 08010KT 10SM CLR 14/07 A3010 910 61 1000 080/10 RMK AO2 TSNO
94908KDBQ DBQ20070502201010905/02/07 20:10:31  5-MIN KDBQ 030210Z AUTO 08012G17KT 10SM CLR 14/07 A3011 910 61 1000 080/12G17 RMK AO2 TSNO
94908KDBQ DBQ20070502201510305/02/07 20:15:31  5-MIN KDBQ 030215Z AUTO 07012KT 10SM CLR 14/07 A3011 910 61 1000 070/12 RMK AO2 TSNO
94908KDBQ DBQ20070502202010905/02/07 20:20:31  5-MIN KDBQ 030220Z AUTO 07014G19KT 10SM CLR 14/07 A3011 900 61 1000 070/14G19 RMK AO2 TSNO
94908KDBQ DBQ20070502202510905/02/07 20:25:31  5-MIN KDBQ 030225Z AUTO 07010G19KT 10SM CLR 14/07 A3011 900 61 1000 070/10G19 RMK AO2 TSNO
94908KDBQ DBQ20070502203010305/02/07 20:30:31  5-MIN KDBQ 030230Z AUTO 08012KT 10SM CLR 13/07 A3011 900 64 1000 070/12 RMK AO2 TSNO
94908KDBQ DBQ20070502203510305/02/07 20:35:31  5-MIN KDBQ 030235Z AUTO 07009KT 10SM CLR 13/07 A3011 900 64 1000 070/09 RMK AO2 TSNO
94908KDBQ DBQ20070502204010305/02/07 20:40:31  5-MIN KDBQ 030240Z AUTO 07012KT 10SM CLR 13/07 A3011 900 64 1000 070/12 RMK AO2 TSNO
94908KDBQ DBQ20070502204510905/02/07 20:45:31  5-MIN KDBQ 030245Z AUTO 08013G17KT 10SM CLR 13/06 A3011 900 61 1000 080/13G17 RMK AO2 TSNO
94908KDBQ DBQ20070502205012505/02/07 20:50:31  5-MIN KDBQ 030250Z AUTO 07012KT 10SM CLR 13/06 A3011 900 63 900 070/12 RMK AO2 SLP199 T01280061 55001 TSNO
94908KDBQ DBQ20070502205512505/02/07 20:55:31  5-MIN KDBQ 030255Z AUTO 07011KT 10SM CLR 13/06 A3012 900 63 900 070/11 RMK AO2 SLP199 T01280061 53016 TSNO
94908KDBQ DBQ20070502210010205/02/07 21:00:31  5-MIN KDBQ 030300Z AUTO 07013KT 10SM CLR 13/06 A3012 900 63 900 070/13 RMK AO2 TSNO
94908KDBQ DBQ20070502210510205/02/07 21:05:31  5-MIN KDBQ 030305Z AUTO 07010KT 10SM CLR 13/06 A3012 890 63 900 070/10 RMK AO2 TSNO
94908KDBQ DBQ20070502211010205/02/07 21:10:31  5-MIN KDBQ 030310Z AUTO 08012KT 10SM CLR 13/06 A3012 900 63 900 070/12 RMK AO2 TSNO
94908KDBQ DBQ20070502211510205/02/07 21:15:31  5-MIN KDBQ 030315Z AUTO 06012KT 10SM CLR 13/06 A3012 890 63 900 060/12 RMK AO2 TSNO
94908KDBQ DBQ20070502212010205/02/07 21:20:31  5-MIN KDBQ 030320Z AUTO 07012KT 10SM CLR 13/06 A3012 890 63 900 070/12 RMK AO2 TSNO
94908KDBQ DBQ20070502212510205/02/07 21:25:31  5-MIN KDBQ 030325Z AUTO 07010KT 10SM CLR 12/06 A3012 890 66 800 070/10 RMK AO2 TSNO
94908KDBQ DBQ20070502213010205/02/07 21:30:31  5-MIN KDBQ 030330Z AUTO 07013KT 10SM CLR 12/06 A3012 890 66 800 070/13 RMK AO2 TSNO
94908KDBQ DBQ20070502213510805/02/07 21:35:31  5-MIN KDBQ 030335Z AUTO 06011G16KT 10SM CLR 12/06 A3012 890 66 800 060/11G16 RMK AO2 TSNO
94908KDBQ DBQ20070502214010805/02/07 21:40:31  5-MIN KDBQ 030340Z AUTO 06010G18KT 10SM CLR 12/06 A3012 900 66 800 060/10G18 RMK AO2 TSNO
94908KDBQ DBQ20070502214510805/02/07 21:45:31  5-MIN KDBQ 030345Z AUTO 06015G20KT 10SM CLR 12/06 A3012 900 68 700 060/15G20 RMK AO2 TSNO
94908KDBQ DBQ20070502215012505/02/07 21:50:31  5-MIN KDBQ 030350Z AUTO 06014G20KT 10SM CLR 12/06 A3012 900 68 700 060/14G20 RMK AO2 SLP201 T01170061 TSNO
94908KDBQ DBQ20070502215511905/02/07 21:55:31  5-MIN KDBQ 030355Z AUTO 06012KT 10SM CLR 12/06 A3012 900 68 700 060/12 RMK AO2 SLP201 T01170061 TSNO
94908KDBQ DBQ20070502220010205/02/07 22:00:31  5-MIN KDBQ 030400Z AUTO 07010KT 10SM CLR 12/06 A3012 900 68 700 060/10 RMK AO2 TSNO
94908KDBQ DBQ20070502220510805/02/07 22:05:31  5-MIN KDBQ 030405Z AUTO 07010G16KT 10SM CLR 11/07 A3012 900 74 700 070/10G16 RMK AO2 TSNO
94908KDBQ DBQ20070502221010205/02/07 22:10:31  5-MIN KDBQ 030410Z AUTO 07010KT 10SM CLR 11/07 A3012 900 74 700 060/10 RMK AO2 TSNO
94908KDBQ DBQ20070502221510205/02/07 22:15:31  5-MIN KDBQ 030415Z AUTO 07011KT 10SM CLR 11/07 A3012 900 74 700 070/11 RMK AO2 TSNO
94908KDBQ DBQ20070502222010205/02/07 22:20:31  5-MIN KDBQ 030420Z AUTO 07011KT 10SM CLR 11/06 A3012 890 71 700 070/11 RMK AO2 TSNO
94908KDBQ DBQ20070502222510205/02/07 22:25:31  5-MIN KDBQ 030425Z AUTO 06010KT 10SM CLR 11/07 A3012 890 74 700 060/10 RMK AO2 TSNO
94908KDBQ DBQ20070502223010205/02/07 22:30:31  5-MIN KDBQ 030430Z AUTO 06011KT 10SM CLR 11/06 A3012 890 71 700 060/11 RMK AO2 TSNO
94908KDBQ DBQ20070502223510205/02/07 22:35:31  5-MIN KDBQ 030435Z AUTO 06010KT 10SM CLR 11/06 A3012 900 71 700 060/10 RMK AO2 TSNO
94908KDBQ DBQ20070502224010205/02/07 22:40:31  5-MIN KDBQ 030440Z AUTO 06010KT 10SM CLR 11/06 A3012 900 71 700 060/10 RMK AO2 TSNO
94908KDBQ DBQ20070502224510205/02/07 22:45:31  5-MIN KDBQ 030445Z AUTO 06011KT 10SM CLR 11/06 A3012 900 71 700 060/11 RMK AO2 TSNO
94908KDBQ DBQ20070502225011905/02/07 22:50:31  5-MIN KDBQ 030450Z AUTO 06010KT 10SM CLR 11/06 A3012 900 71 700 060/10 RMK AO2 SLP200 T01110061 TSNO
94908KDBQ DBQ20070502225511905/02/07 22:55:31  5-MIN KDBQ 030455Z AUTO 06009KT 10SM CLR 11/06 A3012 890 74 600 060/09 RMK AO2 SLP201 T01060061 TSNO
94908KDBQ DBQ20070502230010205/02/07 23:00:31  5-MIN KDBQ 030500Z AUTO 06009KT 10SM CLR 11/06 A3012 890 74 600 060/09 RMK AO2 TSNO
94908KDBQ DBQ20070502230510205/02/07 23:05:31  5-MIN KDBQ 030505Z AUTO 06010KT 10SM CLR 11/06 A3012 890 74 600 060/10 RMK AO2 TSNO
94908KDBQ DBQ20070502231010205/02/07 23:10:31  5-MIN KDBQ 030510Z AUTO 06011KT 10SM CLR 11/06 A3012 890 74 600 060/11 RMK AO2 TSNO
94908KDBQ DBQ20070502231510205/02/07 23:15:31  5-MIN KDBQ 030515Z AUTO 07009KT 10SM CLR 11/06 A3012 890 74 600 070/09 RMK AO2 TSNO
94908KDBQ DBQ20070502232010205/02/07 23:20:31  5-MIN KDBQ 030520Z AUTO 06009KT 10SM CLR 10/06 A3012 890 77 500 060/09 RMK AO2 TSNO
94908KDBQ DBQ20070502232510205/02/07 23:25:31  5-MIN KDBQ 030525Z AUTO 07009KT 10SM CLR 10/06 A3012 890 77 500 070/09 RMK AO2 TSNO
94908KDBQ DBQ20070502233010205/02/07 23:30:31  5-MIN KDBQ 030530Z AUTO 07009KT 10SM CLR 10/06 A3012 890 77 500 070/09 RMK AO2 TSNO
94908KDBQ DBQ20070502233510205/02/07 23:35:31  5-MIN KDBQ 030535Z AUTO 07009KT 10SM CLR 10/06 A3012 890 77 500 070/09 RMK AO2 TSNO
94908KDBQ DBQ20070502234010205/02/07 23:40:31  5-MIN KDBQ 030540Z AUTO 07009KT 10SM CLR 10/06 A3012 900 77 500 070/09 RMK AO2 TSNO
94908KDBQ DBQ20070502234510205/02/07 23:45:31  5-MIN KDBQ 030545Z AUTO 07012KT 10SM CLR 10/06 A3012 900 77 600 070/12 RMK AO2 TSNO
94908KDBQ DBQ20070502235014705/02/07 23:50:31  5-MIN KDBQ 030550Z AUTO 07011KT 10SM CLR 10/06 A3012 900 77 600 070/11 RMK AO2 SLP199 T01000061 10172 20100 401940094 53016 TSNO
94908KDBQ DBQ20070502235514705/02/07 23:55:31  5-MIN KDBQ 030555Z AUTO 07012KT 10SM CLR 10/06 A3011 900 74 600 070/12 RMK AO2 SLP199 T01000056 10172 20100 401940094 58000 TSNO
94908KDBQ DBQ20070503000010805/03/07 00:00:38  5-MIN KDBQ 030600Z AUTO 07013G19KT 10SM CLR 10/06 A3012 900 74 600 070/13G19 RMK AO2 TSNO
94908KDBQ DBQ20070503000510805/03/07 00:05:31  5-MIN KDBQ 030605Z AUTO 08011G19KT 10SM CLR 10/06 A3012 900 74 600 070/11G19 RMK AO2 TSNO
94908KDBQ DBQ20070503001010805/03/07 00:10:31  5-MIN KDBQ 030610Z AUTO 07013G18KT 10SM CLR 10/06 A3012 890 74 500 070/13G18 RMK AO2 TSNO
94908KDBQ DBQ20070503001510805/03/07 00:15:32  5-MIN KDBQ 030615Z AUTO 07011G18KT 10SM CLR 10/05 A3012 900 71 600 070/11G18 RMK AO2 TSNO
94908KDBQ DBQ20070503002010205/03/07 00:20:31  5-MIN KDBQ 030620Z AUTO 08011KT 10SM CLR 10/05 A3012 890 71 500 080/11 RMK AO2 TSNO
94908KDBQ DBQ20070503002510205/03/07 00:25:31  5-MIN KDBQ 030625Z AUTO 08010KT 10SM CLR 10/05 A3012 890 71 500 070/10 RMK AO2 TSNO
94908KDBQ DBQ20070503003010505/03/07 00:30:31  5-MIN KDBQ 030630Z AUTO 08011KT 10SM FEW050 10/05 A3012 900 71 600 080/11 RMK AO2 TSNO
94908KDBQ DBQ20070503003510505/03/07 00:35:31  5-MIN KDBQ 030635Z AUTO 08011KT 10SM FEW055 10/05 A3012 900 71 600 080/11 RMK AO2 TSNO
94908KDBQ DBQ20070503004010505/03/07 00:40:31  5-MIN KDBQ 030640Z AUTO 07011KT 10SM FEW050 09/05 A3012 900 74 500 070/11 RMK AO2 TSNO
94908KDBQ DBQ20070503004510505/03/07 00:45:31  5-MIN KDBQ 030645Z AUTO 07008KT 10SM FEW050 09/06 A3012 900 76 500 070/08 RMK AO2 TSNO
94908KDBQ DBQ20070503005012205/03/07 00:50:31  5-MIN KDBQ 030650Z AUTO 07010KT 10SM FEW037 09/05 A3012 900 74 500 070/10 RMK AO2 SLP200 T00940050 TSNO
94908KDBQ DBQ20070503005512905/03/07 00:55:31  5-MIN KDBQ 030655Z AUTO 07008KT 10SM SCT037 SCT055 09/06 A3012 900 76 500 070/08 RMK AO2 SLP199 T00940056 TSNO
94908KDBQ DBQ20070503010010505/03/07 01:00:31  5-MIN KDBQ 030700Z AUTO 07010KT 10SM SCT035 09/06 A3011 900 76 500 070/10 RMK AO2 TSNO
94908KDBQ DBQ20070503010510505/03/07 01:05:31  5-MIN KDBQ 030705Z AUTO 06009KT 10SM BKN035 10/06 A3011 900 74 600 060/09 RMK AO2 TSNO
94908KDBQ DBQ20070503011010505/03/07 01:10:31  5-MIN KDBQ 030710Z AUTO 07010KT 10SM BKN035 10/06 A3011 900 74 600 070/10 RMK AO2 TSNO
94908KDBQ DBQ20070503011511205/03/07 01:15:31  5-MIN KDBQ 030715Z AUTO 06008KT 10SM BKN033 BKN055 09/06 A3011 910 76 500 060/08 RMK AO2 TSNO
94908KDBQ DBQ20070503012011905/03/07 01:20:31  5-MIN KDBQ 030720Z AUTO 07008KT 10SM BKN033 BKN042 BKN050 09/06 A3011 910 76 500 070/08 RMK AO2 TSNO
94908KDBQ DBQ20070503012511905/03/07 01:25:31  5-MIN KDBQ 030725Z AUTO 07006KT 10SM BKN033 BKN042 OVC050 09/06 A3010 910 76 500 070/06 RMK AO2 TSNO
94908KDBQ DBQ20070503013011905/03/07 01:30:31  5-MIN KDBQ 030730Z AUTO 05007KT 10SM BKN035 BKN041 OVC050 09/06 A3010 910 76 500 050/07 RMK AO2 TSNO
94908KDBQ DBQ20070503013511905/03/07 01:35:31  5-MIN KDBQ 030735Z AUTO 07007KT 10SM BKN035 BKN041 OVC050 09/06 A3010 910 76 500 060/07 RMK AO2 TSNO
94908KDBQ DBQ20070503014011205/03/07 01:40:31  5-MIN KDBQ 030740Z AUTO 06007KT 10SM BKN033 OVC041 09/06 A3010 910 76 500 060/07 RMK AO2 TSNO
94908KDBQ DBQ20070503014511205/03/07 01:45:31  5-MIN KDBQ 030745Z AUTO 06008KT 10SM BKN033 OVC041 09/06 A3010 910 76 500 060/08 RMK AO2 TSNO
94908KDBQ DBQ20070503015012905/03/07 01:50:31  5-MIN KDBQ 030750Z AUTO 06009KT 10SM BKN033 OVC041 09/06 A3010 910 76 500 060/09 RMK AO2 SLP194 T00940056 TSNO
94908KDBQ DBQ20070503015512205/03/07 01:55:31  5-MIN KDBQ 030755Z AUTO 06008KT 10SM OVC033 09/06 A3010 910 76 500 060/08 RMK AO2 SLP193 T00940056 TSNO
94908KDBQ DBQ20070503020010505/03/07 02:00:31  5-MIN KDBQ 030800Z AUTO 06009KT 10SM OVC033 09/06 A3010 920 76 500 060/09 RMK AO2 TSNO
94908KDBQ DBQ20070503020510505/03/07 02:05:31  5-MIN KDBQ 030805Z AUTO 06010KT 10SM OVC033 10/06 A3010 920 74 600 060/10 RMK AO2 TSNO
94908KDBQ DBQ20070503021010505/03/07 02:10:31  5-MIN KDBQ 030810Z AUTO 06011KT 10SM OVC033 10/06 A3009 920 74 600 060/11 RMK AO2 TSNO
94908KDBQ DBQ20070503021510505/03/07 02:15:31  5-MIN KDBQ 030815Z AUTO 06009KT 10SM OVC033 10/05 A3009 920 71 600 060/09 RMK AO2 TSNO
94908KDBQ DBQ20070503022010505/03/07 02:20:31  5-MIN KDBQ 030820Z AUTO 06009KT 10SM OVC033 10/06 A3009 920 74 600 060/09 RMK AO2 TSNO
94908KDBQ DBQ20070503022510505/03/07 02:25:31  5-MIN KDBQ 030825Z AUTO 06008KT 10SM OVC033 10/06 A3010 920 74 600 050/08 RMK AO2 TSNO
94908KDBQ DBQ20070503023010505/03/07 02:30:31  5-MIN KDBQ 030830Z AUTO 06009KT 10SM OVC033 10/06 A3010 920 74 600 060/09 RMK AO2 TSNO
94908KDBQ DBQ20070503023510505/03/07 02:35:31  5-MIN KDBQ 030835Z AUTO 05008KT 10SM OVC035 10/06 A3010 920 74 600 050/08 RMK AO2 TSNO
94908KDBQ DBQ20070503024010505/03/07 02:40:31  5-MIN KDBQ 030840Z AUTO 05007KT 10SM OVC037 10/06 A3010 910 74 600 050/07 RMK AO2 TSNO
94908KDBQ DBQ20070503024510505/03/07 02:45:31  5-MIN KDBQ 030845Z AUTO 05009KT 10SM OVC037 10/06 A3010 920 74 600 050/09 RMK AO2 TSNO
94908KDBQ DBQ20070503025012805/03/07 02:50:31  5-MIN KDBQ 030850Z AUTO 05008KT 10SM OVC037 10/06 A3010 920 74 600 050/08 RMK AO2 SLP191 T01000056 58000 TSNO
94908KDBQ DBQ20070503025512805/03/07 02:55:31  5-MIN KDBQ 030855Z AUTO 06009KT 10SM OVC037 10/06 A3010 920 74 600 060/09 RMK AO2 SLP191 T01000056 58006 TSNO
94908KDBQ DBQ20070503030010505/03/07 03:00:31  5-MIN KDBQ 030900Z AUTO 06007KT 10SM OVC037 10/06 A3010 920 74 600 060/07 RMK AO2 TSNO
94908KDBQ DBQ20070503030510505/03/07 03:05:31  5-MIN KDBQ 030905Z AUTO 06008KT 10SM OVC039 10/06 A3009 920 74 600 060/08 RMK AO2 TSNO
94908KDBQ DBQ20070503031010505/03/07 03:10:31  5-MIN KDBQ 030910Z AUTO 06007KT 10SM OVC039 10/06 A3009 920 74 600 060/07 RMK AO2 TSNO
94908KDBQ DBQ20070503031510505/03/07 03:15:31  5-MIN KDBQ 030915Z AUTO 07007KT 10SM OVC039 10/06 A3009 920 74 600 070/07 RMK AO2 TSNO
94908KDBQ DBQ20070503032010505/03/07 03:20:31  5-MIN KDBQ 030920Z AUTO 08010KT 10SM OVC039 11/06 A3009 920 71 600 070/10 RMK AO2 TSNO
94908KDBQ DBQ20070503032510505/03/07 03:25:31  5-MIN KDBQ 030925Z AUTO 07008KT 10SM OVC039 11/06 A3009 920 71 600 070/08 RMK AO2 TSNO
94908KDBQ DBQ20070503033010505/03/07 03:30:31  5-MIN KDBQ 030930Z AUTO 07011KT 10SM OVC039 11/06 A3009 920 71 600 070/11 RMK AO2 TSNO
94908KDBQ DBQ20070503033510505/03/07 03:35:31  5-MIN KDBQ 030935Z AUTO 08009KT 10SM OVC039 11/06 A3009 920 71 600 080/09 RMK AO2 TSNO
94908KDBQ DBQ20070503034010505/03/07 03:40:31  5-MIN KDBQ 030940Z AUTO 08010KT 10SM OVC037 11/06 A3009 920 71 600 080/10 RMK AO2 TSNO
94908KDBQ DBQ20070503034510505/03/07 03:45:31  5-MIN KDBQ 030945Z AUTO 08012KT 10SM OVC037 11/06 A3009 920 71 600 080/12 RMK AO2 TSNO
94908KDBQ DBQ20070503035012205/03/07 03:50:31  5-MIN KDBQ 030950Z AUTO 08011KT 10SM OVC037 11/06 A3009 920 71 600 080/11 RMK AO2 SLP190 T01060056 TSNO
94908KDBQ DBQ20070503035512205/03/07 03:55:31  5-MIN KDBQ 030955Z AUTO 09011KT 10SM OVC035 11/06 A3009 920 71 600 090/11 RMK AO2 SLP190 T01060056 TSNO
94908KDBQ DBQ20070503040010505/03/07 04:00:31  5-MIN KDBQ 031000Z AUTO 08011KT 10SM OVC035 11/06 A3009 920 71 600 080/11 RMK AO2 TSNO
94908KDBQ DBQ20070503040510505/03/07 04:05:31  5-MIN KDBQ 031005Z AUTO 07010KT 10SM OVC035 11/06 A3009 920 71 600 070/10 RMK AO2 TSNO
94908KDBQ DBQ20070503041010505/03/07 04:10:31  5-MIN KDBQ 031010Z AUTO 08010KT 10SM OVC035 11/06 A3009 920 71 600 080/10 RMK AO2 TSNO
94908KDBQ DBQ20070503041510505/03/07 04:15:31  5-MIN KDBQ 031015Z AUTO 08010KT 10SM OVC035 11/06 A3009 920 71 600 080/10 RMK AO2 TSNO
94908KDBQ DBQ20070503042010505/03/07 04:20:31  5-MIN KDBQ 031020Z AUTO 07010KT 10SM OVC035 11/06 A3009 920 71 600 070/10 RMK AO2 TSNO
94908KDBQ DBQ20070503042510505/03/07 04:25:31  5-MIN KDBQ 031025Z AUTO 07012KT 10SM OVC035 11/06 A3009 920 71 600 070/12 RMK AO2 TSNO
94908KDBQ DBQ20070503043010505/03/07 04:30:31  5-MIN KDBQ 031030Z AUTO 07011KT 10SM OVC035 11/06 A3009 920 71 600 070/11 RMK AO2 TSNO
94908KDBQ DBQ20070503043510505/03/07 04:35:31  5-MIN KDBQ 031035Z AUTO 07010KT 10SM OVC035 11/06 A3010 920 71 600 070/10 RMK AO2 TSNO
94908KDBQ DBQ20070503044009505/03/07 04:40:31  5-MIN KDBQ 031040Z 08011KT 10SM OVC035 11/06 A3010 920 68 700 080/11 RMK AO2
94908KDBQ DBQ20070503044509505/03/07 04:45:31  5-MIN KDBQ 031045Z 08011KT 10SM OVC035 11/06 A3010 910 68 700 080/11 RMK AO2
94908KDBQ DBQ20070503045011205/03/07 04:50:31  5-MIN KDBQ 031050Z 07010KT 10SM OVC035 11/06 A3010 910 68 700 070/10 RMK AO2 SLP192 T01110056
94908KDBQ DBQ20070503045511205/03/07 04:55:31  5-MIN KDBQ 031055Z 08010KT 10SM OVC035 11/06 A3010 910 68 700 080/10 RMK AO2 SLP193 T01110056
94908KDBQ DBQ20070503050009505/03/07 05:00:31  5-MIN KDBQ 031100Z 08012KT 10SM OVC035 11/06 A3010 910 68 700 080/12 RMK AO2
94908KDBQ DBQ20070503050509505/03/07 05:05:31  5-MIN KDBQ 031105Z 08010KT 10SM OVC035 11/06 A3010 910 71 700 080/10 RMK AO2
94908KDBQ DBQ20070503051009405/03/07 05:10:31  5-MIN KDBQ 031110Z 09013KT 9SM OVC035 11/06 A3010 910 71 700 090/13 RMK AO2
94908KDBQ DBQ20070503051509405/03/07 05:15:31  5-MIN KDBQ 031115Z 09010KT 9SM OVC035 11/06 A3010 910 71 700 090/10 RMK AO2
94908KDBQ DBQ20070503052009405/03/07 05:20:31  5-MIN KDBQ 031120Z 09011KT 9SM OVC035 11/06 A3010 910 71 700 090/11 RMK AO2
94908KDBQ DBQ20070503052509405/03/07 05:25:31  5-MIN KDBQ 031125Z 09011KT 8SM OVC037 11/06 A3011 910 74 600 090/11 RMK AO2
94908KDBQ DBQ20070503053009405/03/07 05:30:31  5-MIN KDBQ 031130Z 09010KT 8SM OVC037 11/06 A3011 910 74 600 090/10 RMK AO2
94908KDBQ DBQ20070503053509405/03/07 05:35:31  5-MIN KDBQ 031135Z 08010KT 8SM OVC037 11/06 A3011 910 71 700 080/10 RMK AO2
94908KDBQ DBQ20070503054009405/03/07 05:40:31  5-MIN KDBQ 031140Z 08012KT 8SM OVC037 11/06 A3011 910 71 700 080/12 RMK AO2
94908KDBQ DBQ20070503054509405/03/07 05:45:31  5-MIN KDBQ 031145Z 08011KT 8SM OVC037 11/06 A3011 910 71 700 080/11 RMK AO2
94908KDBQ DBQ20070503055012905/03/07 05:50:31  5-MIN KDBQ 031150Z 08011KT 8SM OVC039 11/07 A3011 910 74 700 080/11 RMK AO2 SLP195 T01110067 10111 20094 58006
94908KDBQ DBQ20070503055512905/03/07 05:55:31  5-MIN KDBQ 031155Z 08012KT 7SM OVC039 11/06 A3011 910 71 700 080/12 RMK AO2 SLP195 T01110061 10111 20094 53003
94908KDBQ DBQ20070503060009405/03/07 06:00:31  5-MIN KDBQ 031200Z 08011KT 7SM BKN041 11/07 A3011 900 74 700 080/11 RMK AO2
94908KDBQ DBQ20070503060509405/03/07 06:05:31  5-MIN KDBQ 031205Z 08011KT 7SM OVC041 11/07 A3011 900 74 700 080/11 RMK AO2
94908KDBQ DBQ20070503061009405/03/07 06:10:31  5-MIN KDBQ 031210Z 07011KT 7SM OVC041 11/07 A3011 900 74 700 070/11 RMK AO2
94908KDBQ DBQ20070503061509405/03/07 06:15:31  5-MIN KDBQ 031215Z 07010KT 7SM OVC041 11/07 A3012 900 74 700 070/10 RMK AO2
94908KDBQ DBQ20070503062009405/03/07 06:20:31  5-MIN KDBQ 031220Z 08009KT 7SM OVC041 11/07 A3012 900 74 700 080/09 RMK AO2
94908KDBQ DBQ20070503062511805/03/07 06:25:31  5-MIN KDBQ 031225Z 08011G29KT 7SM OVC041 11/07 A3012 900 74 700 080/11G29 RMK AO2 PK WND 35029/1223
94908KDBQ DBQ20070503063011805/03/07 06:30:31  5-MIN KDBQ 031230Z 08012G29KT 7SM OVC041 11/07 A3012 900 74 700 080/12G29 RMK AO2 PK WND 35029/1223
94908KDBQ DBQ20070503063511205/03/07 06:35:31  5-MIN KDBQ 031235Z 08012KT 7SM OVC041 11/07 A3012 900 74 700 080/12 RMK AO2 PK WND 35029/1223
94908KDBQ DBQ20070503064011505/03/07 06:40:31  5-MIN KDBQ 031240Z 09012KT 6SM HZ OVC039 11/07 A3012 890 77 700 090/12 RMK AO2 PK WND 35029/1223
94908KDBQ DBQ20070503064511505/03/07 06:45:31  5-MIN KDBQ 031245Z 08010KT 6SM HZ OVC039 11/07 A3012 890 77 700 080/10 RMK AO2 PK WND 35029/1223
94908KDBQ DBQ20070503065013205/03/07 06:50:31  5-MIN KDBQ 031250Z 09011KT 6SM HZ OVC039 11/07 A3012 890 77 700 090/11 RMK AO2 PK WND 35029/1223 SLP202 T01110072
94908KDBQ DBQ20070503065513205/03/07 06:55:31  5-MIN KDBQ 031255Z 09011KT 6SM HZ OVC039 11/07 A3013 890 77 700 090/11 RMK AO2 PK WND 35029/1223 SLP203 T01110072
94908KDBQ DBQ20070503070009705/03/07 07:00:31  5-MIN KDBQ 031300Z 09011KT 6SM HZ OVC039 11/07 A3013 890 74 700 090/11 RMK AO2
94908KDBQ DBQ20070503070510305/03/07 07:05:31  5-MIN KDBQ 031305Z 09009G15KT 6SM HZ OVC039 12/07 A3013 890 74 700 090/09G15 RMK AO2
94908KDBQ DBQ20070503071010305/03/07 07:10:31  5-MIN KDBQ 031310Z 09011G15KT 6SM HZ OVC041 12/07 A3013 890 71 700 090/11G15 RMK AO2
94908KDBQ DBQ20070503071510405/03/07 07:15:31  5-MIN KDBQ 031315Z 09009KT 6SM HZ BKN041 OVC065 12/07 A3013 890 71 700 090/09 RMK AO2
94908KDBQ DBQ20070503072010405/03/07 07:20:31  5-MIN KDBQ 031320Z 09008KT 6SM HZ BKN041 OVC065 12/07 A3013 890 71 700 090/08 RMK AO2
94908KDBQ DBQ20070503072510405/03/07 07:25:31  5-MIN KDBQ 031325Z 08009KT 6SM HZ BKN041 OVC065 12/07 A3013 890 71 700 080/09 RMK AO2
94908KDBQ DBQ20070503073010405/03/07 07:30:31  5-MIN KDBQ 031330Z 08009KT 6SM HZ SCT043 OVC060 12/07 A3013 880 71 700 080/09 RMK AO2
94908KDBQ DBQ20070503073510405/03/07 07:35:31  5-MIN KDBQ 031335Z 07009KT 6SM HZ FEW043 OVC060 12/07 A3013 890 71 800 070/09 RMK AO2
94908KDBQ DBQ20070503074010405/03/07 07:40:31  5-MIN KDBQ 031340Z 08010KT 6SM HZ FEW043 OVC065 12/07 A3013 890 68 800 080/10 RMK AO2
94908KDBQ DBQ20070503074509705/03/07 07:45:31  5-MIN KDBQ 031345Z 08009KT 6SM HZ OVC060 12/07 A3013 890 68 800 080/09 RMK AO2
94908KDBQ DBQ20070503075012005/03/07 07:50:31  5-MIN KDBQ 031350Z 09010G15KT 6SM HZ OVC060 12/07 A3013 890 68 800 090/10G15 RMK AO2 SLP204 T01220067
94908KDBQ DBQ20070503075511405/03/07 07:55:31  5-MIN KDBQ 031355Z 09009KT 6SM HZ OVC060 12/07 A3013 880 68 800 090/09 RMK AO2 SLP204 T01220067
94908KDBQ DBQ20070503080009705/03/07 08:00:31  5-MIN KDBQ 031400Z 09009KT 6SM HZ OVC060 12/07 A3013 880 68 800 080/09 RMK AO2
94908KDBQ DBQ20070503080509405/03/07 08:05:31  5-MIN KDBQ 031405Z 09009KT 7SM OVC060 12/07 A3013 890 68 800 080/09 RMK AO2
94908KDBQ DBQ20070503081010705/03/07 08:10:31  5-MIN KDBQ 031410Z 10009G16KT 7SM FEW045 OVC060 12/07 A3013 890 68 800 100/09G16 RMK AO2
94908KDBQ DBQ20070503081510105/03/07 08:15:31  5-MIN KDBQ 031415Z 10012KT 7SM SCT045 OVC060 13/07 A3013 890 66 900 100/12 RMK AO2
94908KDBQ DBQ20070503082010705/03/07 08:20:31  5-MIN KDBQ 031420Z 09014G18KT 7SM SCT045 OVC060 13/07 A3013 890 66 900 090/14G18 RMK AO2
94908KDBQ DBQ20070503082510705/03/07 08:25:31  5-MIN KDBQ 031425Z 10012G19KT 7SM SCT045 OVC060 13/07 A3013 890 66 900 100/12G19 RMK AO2
94908KDBQ DBQ20070503083010705/03/07 08:30:31  5-MIN KDBQ 031430Z 10012G20KT 7SM BKN045 OVC060 13/07 A3013 890 66 900 100/12G20 RMK AO2
94908KDBQ DBQ20070503083510705/03/07 08:35:31  5-MIN KDBQ 031435Z 10011G20KT 7SM BKN045 OVC060 13/07 A3013 880 66 900 100/11G20 RMK AO2
94908KDBQ DBQ20070503084010705/03/07 08:40:31  5-MIN KDBQ 031440Z 11009G18KT 7SM BKN045 OVC060 13/07 A3013 880 64 900 110/09G18 RMK AO2
94908KDBQ DBQ20070503084510005/03/07 08:45:31  5-MIN KDBQ 031445Z 11012G17KT 7SM OVC045 13/07 A3013 880 64 900 110/12G17 RMK AO2
94908KDBQ DBQ20070503085012305/03/07 08:50:31  5-MIN KDBQ 031450Z 11011G18KT 8SM OVC045 13/07 A3013 890 64 900 110/11G18 RMK AO2 SLP204 T01330067 53003
94908KDBQ DBQ20070503085511705/03/07 08:55:31  5-MIN KDBQ 031455Z 11014KT 8SM OVC045 13/07 A3013 890 64 900 110/14 RMK AO2 SLP204 T01330067 50008
94908KDBQ DBQ20070503090009405/03/07 09:00:31  5-MIN KDBQ 031500Z 11013KT 8SM OVC045 13/07 A3013 890 64 900 110/13 RMK AO2
94908KDBQ DBQ20070503090510005/03/07 09:05:31  5-MIN KDBQ 031505Z 11014G19KT 8SM OVC045 13/07 A3013 880 64 900 110/14G19 RMK AO2
94908KDBQ DBQ20070503091010005/03/07 09:10:31  5-MIN KDBQ 031510Z 11016G21KT 8SM OVC045 13/07 A3013 880 64 900 110/16G21 RMK AO2
94908KDBQ DBQ20070503091510005/03/07 09:15:31  5-MIN KDBQ 031515Z 11014G21KT 8SM OVC045 13/07 A3013 880 64 900 110/14G21 RMK AO2
94908KDBQ DBQ20070503092009505/03/07 09:20:31  5-MIN KDBQ 031520Z 10013KT 8SM OVC045 14/07 A3013 880 61 1000 100/13 RMK AO2
94908KDBQ DBQ20070503092509505/03/07 09:25:31  5-MIN KDBQ 031525Z 10013KT 8SM OVC045 14/07 A3013 880 61 1000 100/13 RMK AO2
94908KDBQ DBQ20070503093009505/03/07 09:30:31  5-MIN KDBQ 031530Z 10013KT 8SM OVC045 14/07 A3013 880 61 1000 100/13 RMK AO2
94908KDBQ DBQ20070503093509505/03/07 09:35:31  5-MIN KDBQ 031535Z 10011KT 8SM OVC045 14/07 A3013 890 61 1100 100/11 RMK AO2
94908KDBQ DBQ20070503094009505/03/07 09:40:31  5-MIN KDBQ 031540Z 09012KT 8SM OVC045 14/07 A3013 890 61 1100 090/12 RMK AO2
94908KDBQ DBQ20070503094509505/03/07 09:45:31  5-MIN KDBQ 031545Z 09011KT 8SM OVC045 14/07 A3013 890 61 1100 090/11 RMK AO2
94908KDBQ DBQ20070503095011205/03/07 09:50:31  5-MIN KDBQ 031550Z 10012KT 8SM OVC045 15/07 A3013 890 59 1100 090/12 RMK AO2 SLP203 T01500072
94908KDBQ DBQ20070503095512505/03/07 09:55:31  5-MIN KDBQ 031555Z 09010G20KT 9SM BKN045 OVC060 15/07 A3012 890 59 1100 090/10G20 RMK AO2 SLP202 T01500072
94908KDBQ DBQ20070503100010805/03/07 10:00:31  5-MIN KDBQ 031600Z 10013G20KT 9SM BKN045 OVC060 16/08 A3013 890 59 1200 090/13G20 RMK AO2
94908KDBQ DBQ20070503100510805/03/07 10:05:31  5-MIN KDBQ 031605Z 09014G19KT 9SM SCT045 OVC060 16/07 A3012 890 57 1200 090/14G19 RMK AO2
94908KDBQ DBQ20070503101010205/03/07 10:10:31  5-MIN KDBQ 031610Z 10014KT 9SM SCT045 OVC060 16/08 A3012 890 59 1200 100/14 RMK AO2
94908KDBQ DBQ20070503101510805/03/07 10:15:31  5-MIN KDBQ 031615Z 09013G18KT 9SM FEW045 OVC060 16/08 A3013 890 57 1300 090/13G18 RMK AO2
94908KDBQ DBQ20070503102010205/03/07 10:20:31  5-MIN KDBQ 031620Z 11009G17KT 10SM OVC060 16/07 A3012 890 55 1300 110/09G17 RMK AO2
94908KDBQ DBQ20070503102510205/03/07 10:25:31  5-MIN KDBQ 031625Z 10014G18KT 10SM OVC060 17/08 A3012 890 55 1300 100/14G18 RMK AO2
94908KDBQ DBQ20070503103010205/03/07 10:30:31  5-MIN KDBQ 031630Z 11015G20KT 10SM OVC060 16/07 A3012 890 55 1300 110/15G20 RMK AO2
94908KDBQ DBQ20070503103510205/03/07 10:35:31  5-MIN KDBQ 031635Z 11016G20KT 10SM OVC060 17/07 A3012 890 53 1300 110/16G20 RMK AO2
94908KDBQ DBQ20070503104010205/03/07 10:40:31  5-MIN KDBQ 031640Z 10015G24KT 10SM OVC060 17/07 A3012 890 51 1300 100/15G24 RMK AO2
94908KDBQ DBQ20070503104510205/03/07 10:45:31  5-MIN KDBQ 031645Z 11014G24KT 10SM OVC060 17/07 A3012 890 53 1300 110/14G24 RMK AO2
94908KDBQ DBQ20070503105011905/03/07 10:50:31  5-MIN KDBQ 031650Z 10014G20KT 10SM OVC060 17/07 A3012 890 53 1300 100/14G20 RMK AO2 SLP201 T01670072
94908KDBQ DBQ20070503105511905/03/07 10:55:31  5-MIN KDBQ 031655Z 10014G21KT 10SM OVC060 17/07 A3012 900 51 1300 100/14G21 RMK AO2 SLP201 T01670067
94908KDBQ DBQ20070503110010205/03/07 11:00:31  5-MIN KDBQ 031700Z 11011G21KT 10SM OVC060 17/07 A3012 900 51 1400 110/11G21 RMK AO2
94908KDBQ DBQ20070503110510205/03/07 11:05:31  5-MIN KDBQ 031705Z 11013G17KT 10SM OVC060 17/08 A3012 900 53 1400 110/13G17 RMK AO2
94908KDBQ DBQ20070503111010205/03/07 11:10:31  5-MIN KDBQ 031710Z 11010G19KT 10SM OVC060 17/07 A3011 900 51 1400 110/10G19 RMK AO2
94908KDBQ DBQ20070503111510205/03/07 11:15:31  5-MIN KDBQ 031715Z 12015G19KT 10SM OVC060 18/08 A3011 900 51 1500 120/15G19 RMK AO2
94908KDBQ DBQ20070503112010205/03/07 11:20:31  5-MIN KDBQ 031720Z 12015G20KT 10SM OVC060 17/07 A3011 900 51 1400 120/15G20 RMK AO2
94908KDBQ DBQ20070503112510205/03/07 11:25:31  5-MIN KDBQ 031725Z 10012G21KT 10SM OVC060 18/07 A3011 910 49 1500 100/12G21 RMK AO2
94908KDBQ DBQ20070503113010205/03/07 11:30:31  5-MIN KDBQ 031730Z 12016G21KT 10SM OVC060 18/07 A3011 910 49 1500 120/16G21 RMK AO2
94908KDBQ DBQ20070503113510205/03/07 11:35:31  5-MIN KDBQ 031735Z 11015G24KT 10SM OVC060 18/07 A3011 910 49 1500 100/15G24 RMK AO2
94908KDBQ DBQ20070503114010205/03/07 11:40:31  5-MIN KDBQ 031740Z 09014G24KT 10SM OVC060 18/07 A3011 910 49 1500 090/14G24 RMK AO2
94908KDBQ DBQ20070503114510205/03/07 11:45:31  5-MIN KDBQ 031745Z 11013G19KT 10SM OVC060 18/08 A3010 910 50 1500 110/13G19 RMK AO2
94908KDBQ DBQ20070503115013705/03/07 11:50:31  5-MIN KDBQ 031750Z 11016G23KT 10SM OVC060 18/07 A3010 910 48 1600 110/16G23 RMK AO2 SLP194 T01830072 10183 20111 50008
94908KDBQ DBQ20070503115513705/03/07 11:55:31  5-MIN KDBQ 031755Z 11013G23KT 10SM OVC060 18/07 A3010 910 48 1500 110/13G23 RMK AO2 SLP194 T01830072 10183 20111 58008
94908KDBQ DBQ20070503120010205/03/07 12:00:31  5-MIN KDBQ 031800Z 12018G24KT 10SM OVC060 18/08 A3010 910 50 1600 120/18G24 RMK AO2
94908KDBQ DBQ20070503120510205/03/07 12:05:31  5-MIN KDBQ 031805Z 10013G24KT 10SM BKN060 18/07 A3010 910 48 1600 100/13G24 RMK AO2
94908KDBQ DBQ20070503121009605/03/07 12:10:31  5-MIN KDBQ 031810Z 09013KT 10SM SCT060 19/08 A3010 910 46 1700 090/13 RMK AO2
94908KDBQ DBQ20070503121510205/03/07 12:15:31  5-MIN KDBQ 031815Z 11012G19KT 10SM SCT060 19/08 A3010 910 46 1700 110/12G19 RMK AO2
94908KDBQ DBQ20070503122010205/03/07 12:20:31  5-MIN KDBQ 031820Z 11016G23KT 10SM FEW065 19/08 A3010 910 46 1700 110/16G23 RMK AO2
94908KDBQ DBQ20070503122509905/03/07 12:25:31  5-MIN KDBQ 031825Z 11015G23KT 10SM CLR 19/07 A3009 920 44 1700 110/15G23 RMK AO2
94908KDBQ DBQ20070503123009905/03/07 12:30:31  5-MIN KDBQ 031830Z 12015G25KT 10SM CLR 19/07 A3010 920 46 1600 120/15G25 RMK AO2
94908KDBQ DBQ20070503123509905/03/07 12:35:31  5-MIN KDBQ 031835Z 11017G25KT 10SM CLR 19/07 A3010 920 44 1700 110/17G25 RMK AO2
94908KDBQ DBQ20070503124009905/03/07 12:40:31  5-MIN KDBQ 031840Z 10016G24KT 10SM CLR 19/07 A3009 920 43 1700 100/16G24 RMK AO2
94908KDBQ DBQ20070503124509905/03/07 12:45:31  5-MIN KDBQ 031845Z 12015G23KT 10SM CLR 19/06 A3009 920 41 1700 120/15G23 RMK AO2
94908KDBQ DBQ20070503125011605/03/07 12:50:31  5-MIN KDBQ 031850Z 09015G23KT 10SM CLR 19/06 A3009 920 41 1700 090/15G23 RMK AO2 SLP190 T01940061
94908KDBQ DBQ20070503125511605/03/07 12:55:31  5-MIN KDBQ 031855Z 10018G24KT 10SM CLR 19/06 A3009 920 41 1700 100/18G24 RMK AO2 SLP189 T01940061
94908KDBQ DBQ20070503130009905/03/07 13:00:31  5-MIN KDBQ 031900Z 10018G24KT 10SM CLR 19/06 A3009 930 40 1700 100/18G24 RMK AO2
94908KDBQ DBQ20070503130509905/03/07 13:05:31  5-MIN KDBQ 031905Z 11016G24KT 10SM CLR 20/06 A3009 930 40 1800 110/16G24 RMK AO2
94908KDBQ DBQ20070503131009905/03/07 13:10:31  5-MIN KDBQ 031910Z 11014G21KT 10SM CLR 20/06 A3009 930 38 1800 110/14G21 RMK AO2
94908KDBQ DBQ20070503131509905/03/07 13:15:31  5-MIN KDBQ 031915Z 11019G24KT 10SM CLR 20/05 A3008 930 37 1800 110/19G24 RMK AO2
94908KDBQ DBQ20070503132009905/03/07 13:20:31  5-MIN KDBQ 031920Z 11018G24KT 10SM CLR 20/05 A3008 930 37 1800 110/18G24 RMK AO2
94908KDBQ DBQ20070503132509905/03/07 13:25:31  5-MIN KDBQ 031925Z 11015G23KT 10SM CLR 19/05 A3008 930 38 1700 110/15G23 RMK AO2
94908KDBQ DBQ20070503133009905/03/07 13:30:31  5-MIN KDBQ 031930Z 11017G22KT 10SM CLR 20/05 A3008 930 37 1800 110/17G22 RMK AO2
94908KDBQ DBQ20070503133509905/03/07 13:35:31  5-MIN KDBQ 031935Z 12013G22KT 10SM CLR 20/06 A3008 930 38 1800 120/13G22 RMK AO2
94908KDBQ DBQ20070503134009905/03/07 13:40:31  5-MIN KDBQ 031940Z 12016G21KT 10SM CLR 19/05 A3008 930 38 1700 120/16G21 RMK AO2
94908KDBQ DBQ20070503134509905/03/07 13:45:31  5-MIN KDBQ 031945Z 10013G21KT 10SM CLR 20/06 A3008 930 38 1800 100/13G21 RMK AO2
94908KDBQ DBQ20070503135011605/03/07 13:50:31  5-MIN KDBQ 031950Z 11012G22KT 10SM CLR 20/06 A3008 930 38 1800 110/12G22 RMK AO2 SLP185 T02000056
94908KDBQ DBQ20070503135511605/03/07 13:55:31  5-MIN KDBQ 031955Z 11015G24KT 10SM CLR 20/05 A3007 940 37 1800 110/15G24 RMK AO2 SLP184 T02000050
94908KDBQ DBQ20070503140009905/03/07 14:00:31  5-MIN KDBQ 032000Z 11017G24KT 10SM CLR 20/05 A3007 940 37 1800 110/17G24 RMK AO2
94908KDBQ DBQ20070503140510205/03/07 14:05:31  5-MIN KDBQ 032005Z 12015G22KT 10SM SCT065 19/05 A3007 940 39 1600 120/15G22 RMK AO2
94908KDBQ DBQ20070503141009605/03/07 14:10:31  5-MIN KDBQ 032010Z 12016KT 10SM BKN065 19/05 A3007 940 38 1700 120/16 RMK AO2
94908KDBQ DBQ20070503141510205/03/07 14:15:31  5-MIN KDBQ 032015Z 10016G21KT 10SM BKN065 19/04 A3007 940 37 1700 100/16G21 RMK AO2
94908KDBQ DBQ20070503142010205/03/07 14:20:31  5-MIN KDBQ 032020Z 12014G21KT 10SM BKN065 19/04 A3007 940 35 1700 120/14G21 RMK AO2
94908KDBQ DBQ20070503142510205/03/07 14:25:31  5-MIN KDBQ 032025Z 11011G22KT 10SM BKN065 19/04 A3007 940 37 1700 110/11G22 RMK AO2
94908KDBQ DBQ20070503143010205/03/07 14:30:31  5-MIN KDBQ 032030Z 09017G22KT 10SM OVC065 20/04 A3007 940 35 1800 090/17G22 RMK AO2
94908KDBQ DBQ20070503143510205/03/07 14:35:31  5-MIN KDBQ 032035Z 11016G21KT 10SM BKN065 21/04 A3006 950 33 1900 110/16G21 RMK AO2
94908KDBQ DBQ20070503144010205/03/07 14:40:31  5-MIN KDBQ 032040Z 12016G22KT 10SM BKN065 19/03 A3006 950 33 1700 120/16G22 RMK AO2
94908KDBQ DBQ20070503144509605/03/07 14:45:31  5-MIN KDBQ 032045Z 10018KT 10SM BKN070 19/03 A3006 950 34 1700 090/18 RMK AO2
94908KDBQ DBQ20070503145013205/03/07 14:50:31  5-MIN KDBQ 032050Z 10015G22KT 10SM BKN070 BKN110 19/04 A3006 950 35 1700 100/15G22 RMK AO2 SLP179 T01940039 58008
94908KDBQ DBQ20070503145513205/03/07 14:55:31  5-MIN KDBQ 032055Z 11016G22KT 10SM BKN070 BKN110 19/03 A3006 950 33 1700 100/16G22 RMK AO2 SLP179 T01940028 58015
94908KDBQ DBQ20070503150010905/03/07 15:00:31  5-MIN KDBQ 032100Z 10016G22KT 10SM SCT070 BKN110 19/03 A3006 950 33 1700 100/16G22 RMK AO2
94908KDBQ DBQ20070503150510905/03/07 15:05:31  5-MIN KDBQ 032105Z 10012G22KT 10SM SCT070 OVC110 19/03 A3006 950 34 1700 100/12G22 RMK AO2
94908KDBQ DBQ20070503151010905/03/07 15:10:31  5-MIN KDBQ 032110Z 11014G21KT 10SM SCT065 OVC110 19/03 A3006 950 34 1700 110/14G21 RMK AO2
94908KDBQ DBQ20070503151510905/03/07 15:15:31  5-MIN KDBQ 032115Z 10016G21KT 10SM BKN060 OVC110 19/03 A3006 950 34 1700 100/16G21 RMK AO2
94908KDBQ DBQ20070503152010905/03/07 15:20:31  5-MIN KDBQ 032120Z 11016G21KT 10SM BKN060 OVC110 19/03 A3005 950 34 1700 110/16G21 RMK AO2
94908KDBQ DBQ20070503152510905/03/07 15:25:31  5-MIN KDBQ 032125Z 10015G20KT 10SM BKN060 OVC110 19/03 A3005 960 33 1700 100/15G20 RMK AO2
94908KDBQ DBQ20070503153009605/03/07 15:30:31  5-MIN KDBQ 032130Z 10013KT 10SM OVC060 19/03 A3005 960 34 1700 100/13 RMK AO2
94908KDBQ DBQ20070503153510205/03/07 15:35:31  5-MIN KDBQ 032135Z 11014G22KT 10SM OVC060 19/03 A3005 960 35 1700 110/14G22 RMK AO2
94908KDBQ DBQ20070503154010205/03/07 15:40:31  5-MIN KDBQ 032140Z 11011G22KT 10SM OVC060 19/03 A3005 960 35 1700 110/11G22 RMK AO2
94908KDBQ DBQ20070503154509605/03/07 15:45:31  5-MIN KDBQ 032145Z 11013KT 10SM OVC060 19/03 A3005 960 35 1700 110/13 RMK AO2
94908KDBQ DBQ20070503155011905/03/07 15:50:31  5-MIN KDBQ 032150Z 10013G21KT 10SM OVC060 19/04 A3005 960 36 1700 100/13G21 RMK AO2 SLP176 T01890039
94908KDBQ DBQ20070503155511905/03/07 15:55:31  5-MIN KDBQ 032155Z 11013G21KT 10SM OVC060 19/04 A3005 960 36 1700 110/13G21 RMK AO2 SLP175 T01890039
94908KDBQ DBQ20070503160010205/03/07 16:00:31  5-MIN KDBQ 032200Z 12013G21KT 10SM OVC060 19/03 A3005 960 35 1700 120/13G21 RMK AO2
94908KDBQ DBQ20070503160509605/03/07 16:05:31  5-MIN KDBQ 032205Z 11011KT 10SM OVC060 19/03 A3005 960 35 1700 110/11 RMK AO2
94908KDBQ DBQ20070503161009605/03/07 16:10:31  5-MIN KDBQ 032210Z 11014KT 10SM OVC060 18/03 A3005 960 36 1600 110/14 RMK AO2
94908KDBQ DBQ20070503161509605/03/07 16:15:31  5-MIN KDBQ 032215Z 11016KT 10SM OVC060 18/03 A3005 960 36 1600 110/16 RMK AO2
94908KDBQ DBQ20070503162010205/03/07 16:20:31  5-MIN KDBQ 032220Z 11014G20KT 10SM OVC060 18/03 A3005 960 36 1600 110/14G20 RMK AO2
94908KDBQ DBQ20070503162509605/03/07 16:25:31  5-MIN KDBQ 032225Z 09012KT 10SM OVC060 18/03 A3005 960 36 1600 090/12 RMK AO2
94908KDBQ DBQ20070503163010205/03/07 16:30:31  5-MIN KDBQ 032230Z 09012G20KT 10SM OVC060 18/03 A3004 960 35 1600 090/12G20 RMK AO2
94908KDBQ DBQ20070503163510205/03/07 16:35:31  5-MIN KDBQ 032235Z 09015G22KT 10SM OVC055 18/03 A3004 970 35 1600 090/15G22 RMK AO2
94908KDBQ DBQ20070503164010205/03/07 16:40:31  5-MIN KDBQ 032240Z 10016G22KT 10SM OVC055 18/03 A3004 960 35 1600 100/16G22 RMK AO2
94908KDBQ DBQ20070503164510205/03/07 16:45:31  5-MIN KDBQ 032245Z 10012G20KT 10SM OVC055 18/02 A3005 960 34 1600 100/12G20 RMK AO2
94908KDBQ DBQ20070503165011905/03/07 16:50:31  5-MIN KDBQ 032250Z 10012G19KT 10SM OVC055 18/02 A3005 960 32 1600 100/12G19 RMK AO2 SLP175 T01830017
94908KDBQ DBQ20070503165511305/03/07 16:55:31  5-MIN KDBQ 032255Z 09011KT 10SM OVC060 18/02 A3005 960 34 1600 090/11 RMK AO2 SLP175 T01830022
94908KDBQ DBQ20070503170010205/03/07 17:00:31  5-MIN KDBQ 032300Z 10012G20KT 10SM OVC060 18/02 A3005 960 34 1600 100/12G20 RMK AO2
94908KDBQ DBQ20070503170510205/03/07 17:05:31  5-MIN KDBQ 032305Z 10010G20KT 10SM OVC060 18/02 A3005 960 35 1600 100/10G20 RMK AO2
94908KDBQ DBQ20070503171009605/03/07 17:10:31  5-MIN KDBQ 032310Z 09013KT 10SM OVC060 18/02 A3004 970 35 1600 090/13 RMK AO2
94908KDBQ DBQ20070503171510205/03/07 17:15:31  5-MIN KDBQ 032315Z 10013G17KT 10SM OVC060 18/02 A3005 960 35 1600 090/13G17 RMK AO2
94908KDBQ DBQ20070503172009605/03/07 17:20:31  5-MIN KDBQ 032320Z 09010KT 10SM OVC060 18/02 A3005 960 35 1500 090/10 RMK AO2
94908KDBQ DBQ20070503172509605/03/07 17:25:31  5-MIN KDBQ 032325Z 09012KT 10SM OVC060 18/03 A3005 960 36 1600 090/12 RMK AO2
94908KDBQ DBQ20070503173009605/03/07 17:30:31  5-MIN KDBQ 032330Z 09011KT 10SM OVC060 18/03 A3005 960 36 1600 090/11 RMK AO2
94908KDBQ DBQ20070503173509605/03/07 17:35:31  5-MIN KDBQ 032335Z 09013KT 10SM OVC060 18/03 A3005 960 36 1600 080/13 RMK AO2
94908KDBQ DBQ20070503174009605/03/07 17:40:31  5-MIN KDBQ 032340Z 09010KT 10SM OVC060 18/03 A3004 960 36 1600 090/10 RMK AO2
94908KDBQ DBQ20070503174510205/03/07 17:45:31  5-MIN KDBQ 032345Z 09014G21KT 10SM OVC060 18/03 A3004 960 36 1600 090/14G21 RMK AO2
94908KDBQ DBQ20070503175013705/03/07 17:50:31  5-MIN KDBQ 032350Z 09011G21KT 10SM OVC055 18/03 A3004 960 36 1600 090/11G21 RMK AO2 SLP174 T01780028 10206 20178 58015
94908KDBQ DBQ20070503175513705/03/07 17:55:31  5-MIN KDBQ 032355Z 08013G19KT 10SM OVC055 18/03 A3004 970 36 1600 080/13G19 RMK AO2 SLP174 T01780028 10206 20178 56005
94908KDBQ DBQ20070503180010205/03/07 18:00:31  5-MIN KDBQ 040000Z 09012G19KT 10SM OVC055 18/03 A3004 970 36 1600 090/12G19 RMK AO2
94908KDBQ DBQ20070503180510205/03/07 18:05:31  5-MIN KDBQ 040005Z 09012G21KT 10SM OVC055 18/03 A3004 970 36 1600 090/12G21 RMK AO2
94908KDBQ DBQ20070503181010205/03/07 18:10:31  5-MIN KDBQ 040010Z 09013G21KT 10SM OVC055 18/03 A3004 970 36 1600 090/13G21 RMK AO2
94908KDBQ DBQ20070503181510205/03/07 18:15:31  5-MIN KDBQ 040015Z 09012G19KT 10SM OVC060 17/03 A3004 970 39 1500 090/12G19 RMK AO2
94908KDBQ DBQ20070503182009605/03/07 18:20:31  5-MIN KDBQ 040020Z 09011KT 10SM OVC060 17/03 A3004 970 39 1500 090/11 RMK AO2
94908KDBQ DBQ20070503182509605/03/07 18:25:31  5-MIN KDBQ 040025Z 08011KT 10SM OVC060 17/03 A3004 970 39 1500 080/11 RMK AO2
94908KDBQ DBQ20070503183009605/03/07 18:30:31  5-MIN KDBQ 040030Z 08013KT 10SM OVC055 17/03 A3004 970 39 1500 080/13 RMK AO2
94908KDBQ DBQ20070503183509605/03/07 18:35:31  5-MIN KDBQ 040035Z 09011KT 10SM OVC055 17/03 A3004 970 39 1500 090/11 RMK AO2
94908KDBQ DBQ20070503184009605/03/07 18:40:31  5-MIN KDBQ 040040Z 08013KT 10SM OVC055 17/03 A3004 970 39 1500 080/13 RMK AO2
94908KDBQ DBQ20070503184509605/03/07 18:45:31  5-MIN KDBQ 040045Z 09012KT 10SM OVC055 17/03 A3004 970 39 1500 090/12 RMK AO2
94908KDBQ DBQ20070503185012005/03/07 18:50:31  5-MIN KDBQ 040050Z 08011KT 10SM BKN055 OVC090 17/03 A3004 970 39 1500 080/11 RMK AO2 SLP172 T01720033
94908KDBQ DBQ20070503185512705/03/07 18:55:31  5-MIN KDBQ 040055Z 09012KT 10SM SCT045 BKN055 OVC090 17/04 A3004 970 42 1400 090/12 RMK AO2 SLP173 T01670039
94908KDBQ DBQ20070503190011305/03/07 19:00:31  5-MIN KDBQ 040100Z AUTO 08011KT 10SM BKN045 OVC055 17/04 A3004 970 41 1500 080/11 RMK AO2 TSNO
94908KDBQ DBQ20070503190511305/03/07 19:05:31  5-MIN KDBQ 040105Z AUTO 08012KT 10SM BKN045 OVC055 17/04 A3004 970 42 1400 080/12 RMK AO2 TSNO
94908KDBQ DBQ20070503191011305/03/07 19:10:31  5-MIN KDBQ 040110Z AUTO 09010KT 10SM BKN045 OVC055 17/04 A3004 970 42 1400 090/10 RMK AO2 TSNO
94908KDBQ DBQ20070503191511205/03/07 19:15:31  5-MIN KDBQ 040115Z AUTO 08010G17KT 10SM OVC045 17/04 A3004 970 42 1400 080/10G17 RMK AO2 TSNO
94908KDBQ DBQ20070503192010605/03/07 19:20:31  5-MIN KDBQ 040120Z AUTO 09010KT 10SM OVC045 17/04 A3004 970 42 1400 090/10 RMK AO2 TSNO
94908KDBQ DBQ20070503192510605/03/07 19:25:31  5-MIN KDBQ 040125Z AUTO 08012KT 10SM OVC045 17/04 A3004 970 44 1400 080/12 RMK AO2 TSNO
94908KDBQ DBQ20070503193010605/03/07 19:30:31  5-MIN KDBQ 040130Z AUTO 09012KT 10SM OVC045 17/04 A3004 970 44 1400 080/12 RMK AO2 TSNO
94908KDBQ DBQ20070503193511205/03/07 19:35:31  5-MIN KDBQ 040135Z AUTO 08016G20KT 10SM OVC045 17/04 A3004 970 42 1400 080/16G20 RMK AO2 TSNO
94908KDBQ DBQ20070503194011905/03/07 19:40:31  5-MIN KDBQ 040140Z AUTO 09014G20KT 10SM BKN045 OVC090 17/04 A3004 970 44 1400 080/14G20 RMK AO2 TSNO
94908KDBQ DBQ20070503194511305/03/07 19:45:31  5-MIN KDBQ 040145Z AUTO 08012KT 10SM BKN045 OVC090 17/04 A3004 970 44 1400 080/12 RMK AO2 TSNO
94908KDBQ DBQ20070503195013005/03/07 19:50:31  5-MIN KDBQ 040150Z AUTO 09011KT 10SM BKN045 OVC090 17/04 A3004 970 44 1400 090/11 RMK AO2 SLP172 T01670044 TSNO
94908KDBQ DBQ20070503195513605/03/07 19:55:31  5-MIN KDBQ 040155Z AUTO 09013G19KT 10SM BKN045 OVC090 16/04 A3004 970 45 1400 090/13G19 RMK AO2 SLP172 T01610044 TSNO
94908KDBQ DBQ20070503200011905/03/07 20:00:31  5-MIN KDBQ 040200Z AUTO 08012G22KT 10SM BKN045 OVC090 16/04 A3004 970 44 1400 080/12G22 RMK AO2 TSNO
94908KDBQ DBQ20070503200511905/03/07 20:05:31  5-MIN KDBQ 040205Z AUTO 09013G22KT 10SM BKN045 OVC090 16/04 A3004 970 44 1400 090/13G22 RMK AO2 TSNO
94908KDBQ DBQ20070503201011305/03/07 20:10:31  5-MIN KDBQ 040210Z AUTO 09013KT 10SM BKN045 OVC090 16/04 A3004 970 44 1400 090/13 RMK AO2 TSNO
94908KDBQ DBQ20070503201511905/03/07 20:15:31  5-MIN KDBQ 040215Z AUTO 10013G19KT 10SM BKN045 OVC085 16/04 A3004 970 44 1400 090/13G19 RMK AO2 TSNO
94908KDBQ DBQ20070503202011905/03/07 20:20:31  5-MIN KDBQ 040220Z AUTO 09013G19KT 10SM BKN045 BKN085 16/04 A3004 970 44 1400 090/13G19 RMK AO2 TSNO
94908KDBQ DBQ20070503202511305/03/07 20:25:31  5-MIN KDBQ 040225Z AUTO 10012KT 10SM BKN045 BKN085 16/04 A3004 970 44 1400 100/12 RMK AO2 TSNO
94908KDBQ DBQ20070503203011305/03/07 20:30:31  5-MIN KDBQ 040230Z AUTO 10013KT 10SM BKN045 BKN085 16/03 A3004 960 42 1400 100/13 RMK AO2 TSNO
94908KDBQ DBQ20070503203511305/03/07 20:35:31  5-MIN KDBQ 040235Z AUTO 10013KT 10SM BKN045 BKN085 16/03 A3004 960 42 1400 100/13 RMK AO2 TSNO
94908KDBQ DBQ20070503204011305/03/07 20:40:31  5-MIN KDBQ 040240Z AUTO 10012KT 10SM BKN045 BKN085 16/04 A3004 960 45 1300 100/12 RMK AO2 TSNO
94908KDBQ DBQ20070503204510605/03/07 20:45:31  5-MIN KDBQ 040245Z AUTO 09013KT 10SM BKN045 16/04 A3004 960 44 1400 090/13 RMK AO2 TSNO
94908KDBQ DBQ20070503205012905/03/07 20:50:31  5-MIN KDBQ 040250Z AUTO 09011KT 10SM OVC045 16/04 A3004 960 44 1400 090/11 RMK AO2 SLP174 T01610039 56005 TSNO
94908KDBQ DBQ20070503205512905/03/07 20:55:31  5-MIN KDBQ 040255Z AUTO 09013KT 10SM OVC045 16/04 A3004 960 44 1400 090/13 RMK AO2 SLP174 T01610039 53000 TSNO
94908KDBQ DBQ20070503210010605/03/07 21:00:31  5-MIN KDBQ 040300Z AUTO 10014KT 10SM OVC045 16/04 A3004 970 44 1400 090/14 RMK AO2 TSNO
94908KDBQ DBQ20070503210510605/03/07 21:05:31  5-MIN KDBQ 040305Z AUTO 09013KT 10SM OVC045 16/04 A3004 960 44 1400 090/13 RMK AO2 TSNO
94908KDBQ DBQ20070503211010605/03/07 21:10:31  5-MIN KDBQ 040310Z AUTO 09015KT 10SM OVC047 16/04 A3004 960 44 1400 090/15 RMK AO2 TSNO
94908KDBQ DBQ20070503211510605/03/07 21:15:31  5-MIN KDBQ 040315Z AUTO 10012KT 10SM OVC047 16/04 A3004 960 44 1400 090/12 RMK AO2 TSNO
94908KDBQ DBQ20070503212011205/03/07 21:20:31  5-MIN KDBQ 040320Z AUTO 09014G21KT 10SM OVC047 16/04 A3004 960 44 1400 090/14G21 RMK AO2 TSNO
94908KDBQ DBQ20070503212511205/03/07 21:25:31  5-MIN KDBQ 040325Z AUTO 10014G21KT 10SM OVC045 16/04 A3004 970 44 1400 090/14G21 RMK AO2 TSNO
94908KDBQ DBQ20070503213010605/03/07 21:30:31  5-MIN KDBQ 040330Z AUTO 09012KT 10SM OVC045 16/04 A3004 970 44 1400 090/12 RMK AO2 TSNO
94908KDBQ DBQ20070503213510605/03/07 21:35:31  5-MIN KDBQ 040335Z AUTO 09014KT 10SM OVC047 16/04 A3004 970 44 1400 090/14 RMK AO2 TSNO
94908KDBQ DBQ20070503214011205/03/07 21:40:31  5-MIN KDBQ 040340Z AUTO 10012G20KT 10SM OVC047 16/04 A3004 970 44 1400 100/12G20 RMK AO2 TSNO
94908KDBQ DBQ20070503214511205/03/07 21:45:31  5-MIN KDBQ 040345Z AUTO 09015G20KT 10SM OVC047 16/03 A3004 970 42 1400 090/15G20 RMK AO2 TSNO
94908KDBQ DBQ20070503215012905/03/07 21:50:31  5-MIN KDBQ 040350Z AUTO 10013G20KT 10SM OVC047 16/03 A3004 970 42 1400 100/13G20 RMK AO2 SLP172 T01610033 TSNO
94908KDBQ DBQ20070503215512905/03/07 21:55:31  5-MIN KDBQ 040355Z AUTO 09013G20KT 10SM OVC049 16/04 A3004 970 44 1400 090/13G20 RMK AO2 SLP171 T01610039 TSNO
94908KDBQ DBQ20070503220012005/03/07 22:00:31  5-MIN KDBQ 040400Z AUTO 09012KT 10SM BKN049 BKN055 OVC080 16/03 A3004 970 42 1400 090/12 RMK AO2 TSNO
94908KDBQ DBQ20070503220511305/03/07 22:05:31  5-MIN KDBQ 040405Z AUTO 10014KT 10SM BKN049 OVC060 16/03 A3004 970 43 1300 100/14 RMK AO2 TSNO
94908KDBQ DBQ20070503221010605/03/07 22:10:31  5-MIN KDBQ 040410Z AUTO 10014KT 10SM OVC055 16/04 A3004 970 45 1300 090/14 RMK AO2 TSNO
94908KDBQ DBQ20070503221511905/03/07 22:15:31  5-MIN KDBQ 040415Z AUTO 09013G19KT 10SM SCT049 OVC060 16/04 A3004 970 45 1300 090/13G19 RMK AO2 TSNO
94908KDBQ DBQ20070503222011905/03/07 22:20:31  5-MIN KDBQ 040420Z AUTO 09012G20KT 10SM BKN049 OVC060 16/04 A3004 970 45 1300 090/12G20 RMK AO2 TSNO
94908KDBQ DBQ20070503222511905/03/07 22:25:31  5-MIN KDBQ 040425Z AUTO 09014G20KT 10SM BKN047 OVC060 16/04 A3004 970 45 1300 090/14G20 RMK AO2 TSNO
94908KDBQ DBQ20070503223011905/03/07 22:30:31  5-MIN KDBQ 040430Z AUTO 09013G22KT 10SM BKN047 OVC060 16/04 A3004 970 45 1300 090/13G22 RMK AO2 TSNO
94908KDBQ DBQ20070503223511205/03/07 22:35:31  5-MIN KDBQ 040435Z AUTO 09013G22KT 10SM OVC047 16/04 A3004 970 45 1300 090/13G22 RMK AO2 TSNO
94908KDBQ DBQ20070503224010605/03/07 22:40:31  5-MIN KDBQ 040440Z AUTO 10012KT 10SM OVC047 16/04 A3004 970 45 1300 100/12 RMK AO2 TSNO
94908KDBQ DBQ20070503224511205/03/07 22:45:31  5-MIN KDBQ 040445Z AUTO 09015G21KT 10SM OVC047 16/04 A3004 970 45 1300 090/15G21 RMK AO2 TSNO
94908KDBQ DBQ20070503225012905/03/07 22:50:31  5-MIN KDBQ 040450Z AUTO 09015G21KT 10SM OVC047 16/04 A3004 970 45 1300 090/15G21 RMK AO2 SLP170 T01560039 TSNO
94908KDBQ DBQ20070503225512905/03/07 22:55:31  5-MIN KDBQ 040455Z AUTO 09013G21KT 10SM OVC049 16/04 A3004 970 45 1300 090/13G21 RMK AO2 SLP170 T01560039 TSNO
94908KDBQ DBQ20070503230011205/03/07 23:00:31  5-MIN KDBQ 040500Z AUTO 09014G20KT 10SM OVC049 16/04 A3004 970 45 1300 090/14G20 RMK AO2 TSNO
94908KDBQ DBQ20070503230511205/03/07 23:05:31  5-MIN KDBQ 040505Z AUTO 10015G21KT 10SM OVC049 15/04 A3004 970 47 1200 090/15G21 RMK AO2 TSNO
94908KDBQ DBQ20070503231011205/03/07 23:10:31  5-MIN KDBQ 040510Z AUTO 09015G21KT 10SM OVC049 15/04 A3004 970 47 1200 090/15G21 RMK AO2 TSNO
94908KDBQ DBQ20070503231510605/03/07 23:15:31  5-MIN KDBQ 040515Z AUTO 10015KT 10SM OVC049 15/04 A3004 970 47 1200 100/15 RMK AO2 TSNO
94908KDBQ DBQ20070503232011905/03/07 23:20:31  5-MIN KDBQ 040520Z AUTO 09014G21KT 10SM BKN049 OVC085 15/04 A3004 970 47 1200 090/14G21 RMK AO2 TSNO
94908KDBQ DBQ20070503232511905/03/07 23:25:31  5-MIN KDBQ 040525Z AUTO 10015G21KT 10SM BKN049 OVC085 15/04 A3004 970 47 1200 100/15G21 RMK AO2 TSNO
94908KDBQ DBQ20070503233012605/03/07 23:30:31  5-MIN KDBQ 040530Z AUTO 10015G20KT 10SM FEW045 BKN049 OVC085 15/04 A3004 970 47 1200 100/15G20 RMK AO2 TSNO
94908KDBQ DBQ20070504030012005/04/07 03:00:31  5-MIN KDBQ 040900Z AUTO 10011KT 10SM BKN046 BKN055 OVC080 14/04 A3002 980 49 1200 100/11 RMK AO2 TSNO
94908KDBQ DBQ20070504030511305/04/07 03:05:31  5-MIN KDBQ 040905Z AUTO 10012KT 10SM BKN046 OVC060 14/04 A3002 980 50 1100 100/12 RMK AO2 TSNO
94908KDBQ DBQ20070504031011305/04/07 03:10:31  5-MIN KDBQ 040910Z AUTO 10012KT 10SM BKN048 OVC060 14/04 A3002 990 49 1200 100/12 RMK AO2 TSNO
94908KDBQ DBQ20070504031511305/04/07 03:15:31  5-MIN KDBQ 040915Z AUTO 10011KT 10SM SCT045 OVC060 14/04 A3002 990 50 1100 100/11 RMK AO2 TSNO
94908KDBQ DBQ20070504032011305/04/07 03:20:31  5-MIN KDBQ 040920Z AUTO 10011KT 10SM SCT045 OVC060 14/04 A3002 990 50 1100 100/11 RMK AO2 TSNO
94908KDBQ DBQ20070504032511305/04/07 03:25:31  5-MIN KDBQ 040925Z AUTO 10011KT 10SM FEW045 OVC060 14/04 A3002 990 50 1100 100/11 RMK AO2 TSNO
94908KDBQ DBQ20070504033011305/04/07 03:30:31  5-MIN KDBQ 040930Z AUTO 10011KT 10SM BKN050 OVC065 14/04 A3002 990 50 1100 100/11 RMK AO2 TSNO
94908KDBQ DBQ20070504033511305/04/07 03:35:31  5-MIN KDBQ 040935Z AUTO 11009KT 10SM SCT050 OVC065 14/04 A3002 990 50 1100 110/09 RMK AO2 TSNO
94908KDBQ DBQ20070504034011905/04/07 03:40:31  5-MIN KDBQ 040940Z AUTO 11012G17KT 10SM SCT050 OVC065 14/04 A3002 990 50 1100 110/12G17 RMK AO2 TSNO
94908KDBQ DBQ20070504034511905/04/07 03:45:31  5-MIN KDBQ 040945Z AUTO 11011G17KT 10SM BKN048 OVC065 14/04 A3002 990 50 1100 110/11G17 RMK AO2 TSNO
94908KDBQ DBQ20070504035013005/04/07 03:50:31  5-MIN KDBQ 040950Z AUTO 11012KT 10SM BKN046 OVC065 14/04 A3002 990 50 1100 110/12 RMK AO2 SLP164 T01390039 TSNO
94908KDBQ DBQ20070504035512905/04/07 03:55:31  5-MIN KDBQ 040955Z AUTO 11011G17KT 10SM OVC046 14/04 A3002 990 50 1100 110/11G17 RMK AO2 SLP164 T01390039 TSNO
94908KDBQ DBQ20070504040010605/04/07 04:00:31  5-MIN KDBQ 041000Z AUTO 11009KT 10SM OVC046 14/04 A3002 990 50 1100 110/09 RMK AO2 TSNO
94908KDBQ DBQ20070504040510605/04/07 04:05:31  5-MIN KDBQ 041005Z AUTO 11011KT 10SM OVC046 14/04 A3002 990 50 1100 110/11 RMK AO2 TSNO
94908KDBQ DBQ20070504041010605/04/07 04:10:31  5-MIN KDBQ 041010Z AUTO 11010KT 10SM OVC046 14/04 A3002 990 50 1100 100/10 RMK AO2 TSNO
94908KDBQ DBQ20070504041510605/04/07 04:15:31  5-MIN KDBQ 041015Z AUTO 11009KT 10SM OVC046 14/04 A3002 990 50 1100 110/09 RMK AO2 TSNO
94908KDBQ DBQ20070504042010605/04/07 04:20:31  5-MIN KDBQ 041020Z AUTO 11009KT 10SM OVC044 14/04 A3002 990 50 1100 110/09 RMK AO2 TSNO
94908KDBQ DBQ20070504042510605/04/07 04:25:31  5-MIN KDBQ 041025Z AUTO 11011KT 10SM OVC044 14/04 A3002 980 50 1100 110/11 RMK AO2 TSNO
94908KDBQ DBQ20070504043010605/04/07 04:30:31  5-MIN KDBQ 041030Z AUTO 11011KT 10SM OVC044 14/04 A3002 980 50 1100 110/11 RMK AO2 TSNO
94908KDBQ DBQ20070504043510605/04/07 04:35:31  5-MIN KDBQ 041035Z AUTO 10009KT 10SM OVC044 14/04 A3002 980 50 1100 100/09 RMK AO2 TSNO
94908KDBQ DBQ20070504044010605/04/07 04:40:31  5-MIN KDBQ 041040Z AUTO 10009KT 10SM OVC042 14/04 A3002 990 50 1100 100/09 RMK AO2 TSNO
94908KDBQ DBQ20070504044510605/04/07 04:45:31  5-MIN KDBQ 041045Z AUTO 10012KT 10SM OVC042 14/04 A3002 990 50 1100 100/12 RMK AO2 TSNO
94908KDBQ DBQ20070504045013005/04/07 04:50:31  5-MIN KDBQ 041050Z AUTO 10011KT 10SM BKN044 OVC050 14/03 A3002 980 48 1100 100/11 RMK AO2 SLP165 T01390033 TSNO
94908KDBQ DBQ20070504045512005/04/07 04:55:31  5-MIN KDBQ 041055Z 10010KT 10SM BKN044 OVC055 14/03 A3002 990 48 1100 100/10 RMK AO2 SLP165 T01390033
94908KDBQ DBQ20070504050010305/04/07 05:00:31  5-MIN KDBQ 041100Z 10010KT 10SM SCT044 OVC055 13/03 A3002 980 50 1100 100/10 RMK AO2
94908KDBQ DBQ20070504050510305/04/07 05:05:31  5-MIN KDBQ 041105Z 10011KT 10SM SCT044 OVC055 13/03 A3002 980 50 1100 100/11 RMK AO2
94908KDBQ DBQ20070504051010305/04/07 05:10:31  5-MIN KDBQ 041110Z 10012KT 10SM FEW044 OVC055 13/03 A3003 980 50 1100 100/12 RMK AO2
94908KDBQ DBQ20070504051510305/04/07 05:15:31  5-MIN KDBQ 041115Z 10011KT 10SM FEW044 OVC055 13/03 A3003 980 50 1100 100/11 RMK AO2
94908KDBQ DBQ20070504052009605/04/07 05:20:31  5-MIN KDBQ 041120Z 09013KT 10SM OVC055 13/03 A3002 980 50 1100 090/13 RMK AO2
94908KDBQ DBQ20070504052509605/04/07 05:25:31  5-MIN KDBQ 041125Z 10011KT 10SM OVC055 13/03 A3003 980 50 1100 100/11 RMK AO2
94908KDBQ DBQ20070504053009605/04/07 05:30:31  5-MIN KDBQ 041130Z 10012KT 10SM OVC060 13/03 A3003 980 50 1000 100/12 RMK AO2
94908KDBQ DBQ20070504053510205/04/07 05:35:31  5-MIN KDBQ 041135Z 10011G17KT 10SM OVC055 13/03 A3003 980 48 1000 100/11G17 RMK AO2
94908KDBQ DBQ20070504054009605/04/07 05:40:31  5-MIN KDBQ 041140Z 11010KT 10SM OVC055 13/03 A3003 970 48 1000 110/10 RMK AO2
94908KDBQ DBQ20070504054510305/04/07 05:45:31  5-MIN KDBQ 041145Z 11010KT 10SM BKN050 OVC060 13/03 A3004 970 48 1000 110/10 RMK AO2
94908KDBQ DBQ20070504055013805/04/07 05:50:31  5-MIN KDBQ 041150Z 11009KT 10SM BKN050 OVC060 13/03 A3004 970 48 1000 110/09 RMK AO2 SLP170 T01330028 10150 20133 56006
94908KDBQ DBQ20070504055514405/04/07 05:55:31  5-MIN KDBQ 041155Z 11010G16KT 10SM BKN050 OVC060 13/03 A3004 970 48 1000 110/10G16 RMK AO2 SLP171 T01330028 10150 20133 53004
94908KDBQ DBQ20070504060010205/04/07 06:00:31  5-MIN KDBQ 041200Z 11011G17KT 10SM OVC050 13/03 A3004 970 48 1000 110/11G17 RMK AO2
94908KDBQ DBQ20070504060510205/04/07 06:05:31  5-MIN KDBQ 041205Z 11010G17KT 10SM OVC050 13/03 A3004 970 48 1000 110/10G17 RMK AO2
94908KDBQ DBQ20070504061010205/04/07 06:10:31  5-MIN KDBQ 041210Z 11009G15KT 10SM OVC050 13/03 A3005 960 48 1000 110/09G15 RMK AO2
94908KDBQ DBQ20070504061510205/04/07 06:15:31  5-MIN KDBQ 041215Z 11008G15KT 10SM OVC050 13/03 A3005 960 48 1000 110/08G15 RMK AO2
94908KDBQ DBQ20070504062009605/04/07 06:20:31  5-MIN KDBQ 041220Z 11011KT 10SM OVC050 13/03 A3005 960 48 1000 110/11 RMK AO2
94908KDBQ DBQ20070504062509605/04/07 06:25:31  5-MIN KDBQ 041225Z 11008KT 10SM OVC050 13/03 A3005 960 50 1000 110/08 RMK AO2
94908KDBQ DBQ20070504063009605/04/07 06:30:31  5-MIN KDBQ 041230Z 11011KT 10SM OVC050 13/03 A3005 960 50 1000 110/11 RMK AO2
94908KDBQ DBQ20070504063510305/04/07 06:35:31  5-MIN KDBQ 041235Z 11011KT 10SM FEW036 OVC050 13/03 A3005 960 50 1000 110/11 RMK AO2
94908KDBQ DBQ20070504064010905/04/07 06:40:31  5-MIN KDBQ 041240Z 11013G18KT 10SM SCT036 OVC050 13/03 A3005 960 50 1000 110/13G18 RMK AO2
94908KDBQ DBQ20070504064510905/04/07 06:45:31  5-MIN KDBQ 041245Z 10012G18KT 10SM BKN036 OVC050 13/03 A3005 960 50 1000 100/12G18 RMK AO2
94908KDBQ DBQ20070504065012605/04/07 06:50:31  5-MIN KDBQ 041250Z 11007G18KT 10SM BKN036 OVC050 13/03 A3005 960 50 1000 110/07G18 RMK AO2 SLP174 T01280028
94908KDBQ DBQ20070504065512005/04/07 06:55:31  5-MIN KDBQ 041255Z 11010KT 10SM BKN036 OVC050 13/03 A3004 960 50 1000 110/10 RMK AO2 SLP174 T01280028
94908KDBQ DBQ20070504070009605/04/07 07:00:31  5-MIN KDBQ 041300Z 11011KT 10SM OVC034 13/03 A3004 960 50 1000 110/11 RMK AO2
94908KDBQ DBQ20070504070509605/04/07 07:05:31  5-MIN KDBQ 041305Z 11008KT 10SM OVC034 13/03 A3004 960 50 1000 110/08 RMK AO2
94908KDBQ DBQ20070504071009605/04/07 07:10:31  5-MIN KDBQ 041310Z 10012KT 10SM OVC034 13/03 A3004 960 50 1000 100/12 RMK AO2
94908KDBQ DBQ20070504071511205/04/07 07:15:31  5-MIN KDBQ 041315Z 11009KT 10SM -RA OVC032 13/03 A3005 960 52 1000 110/09 RMK AO2 RAB12 P0000
94908KDBQ DBQ20070504072011205/04/07 07:20:31  5-MIN KDBQ 041320Z 11009KT 10SM -RA OVC032 13/03 A3005 960 50 1000 110/09 RMK AO2 RAB12 P0000
94908KDBQ DBQ20070504072512405/04/07 07:25:31  5-MIN KDBQ 041325Z 11013G17KT 10SM BKN032 OVC070 13/03 A3004 960 50 1000 110/13G17 RMK AO2 RAB12E22 P0000
94908KDBQ DBQ20070504073011805/04/07 07:30:31  5-MIN KDBQ 041330Z 11012KT 10SM BKN032 OVC070 13/03 A3004 960 50 1000 110/12 RMK AO2 RAB12E22 P0000
94908KDBQ DBQ20070504073511805/04/07 07:35:31  5-MIN KDBQ 041335Z 10011KT 10SM SCT032 OVC070 13/03 A3004 960 50 1000 100/11 RMK AO2 RAB12E22 P0000
94908KDBQ DBQ20070504074012405/04/07 07:40:31  5-MIN KDBQ 041340Z 11011G17KT 10SM FEW032 OVC070 13/03 A3004 960 50 1000 100/11G17 RMK AO2 RAB12E22 P0000
94908KDBQ DBQ20070504074512405/04/07 07:45:31  5-MIN KDBQ 041345Z 10010G17KT 10SM FEW032 OVC070 13/03 A3004 960 52 1000 100/10G17 RMK AO2 RAB12E22 P0000
94908KDBQ DBQ20070504075013505/04/07 07:50:31  5-MIN KDBQ 041350Z 11010KT 10SM FEW032 OVC075 13/03 A3004 960 52 1000 100/10 RMK AO2 RAB12E22 SLP174 P0000 T01280033
94908KDBQ DBQ20070504075513505/04/07 07:55:31  5-MIN KDBQ 041355Z 10009KT 10SM FEW032 OVC070 13/03 A3004 960 52 1000 100/09 RMK AO2 RAB12E22 SLP174 P0000 T01280033
94908KDBQ DBQ20070504080010305/04/07 08:00:31  5-MIN KDBQ 041400Z 10010KT 10SM FEW032 OVC070 13/04 A3004 970 52 1000 090/10 RMK AO2
94908KDBQ DBQ20070504080510305/04/07 08:05:31  5-MIN KDBQ 041405Z 10009KT 10SM FEW032 OVC070 13/04 A3004 970 54 1000 100/09 RMK AO2
94908KDBQ DBQ20070504081010305/04/07 08:10:31  5-MIN KDBQ 041410Z 10009KT 10SM FEW032 OVC070 13/04 A3004 970 54 1000 100/09 RMK AO2
94908KDBQ DBQ20070504081510305/04/07 08:15:31  5-MIN KDBQ 041415Z 11012KT 10SM FEW032 OVC070 13/04 A3004 960 54 1000 110/12 RMK AO2
94908KDBQ DBQ20070504082010805/04/07 08:20:31  5-MIN KDBQ 041420Z 11013G18KT 10SM FEW030 OVC070 12/04 A3004 960 56 900 110/13G18 RMK AO2
94908KDBQ DBQ20070504082510805/04/07 08:25:31  5-MIN KDBQ 041425Z 10010G18KT 10SM SCT030 OVC070 12/04 A3004 960 59 900 100/10G18 RMK AO2
94908KDBQ DBQ20070504083010105/04/07 08:30:31  5-MIN KDBQ 041430Z 11011KT 9SM BKN028 OVC070 12/04 A3004 960 59 900 100/11 RMK AO2
94908KDBQ DBQ20070504083510105/04/07 08:35:31  5-MIN KDBQ 041435Z 09008KT 9SM BKN028 OVC070 12/05 A3004 960 61 900 090/08 RMK AO2
94908KDBQ DBQ20070504084010105/04/07 08:40:31  5-MIN KDBQ 041440Z 10010KT 9SM BKN028 OVC070 12/04 A3004 960 59 900 100/10 RMK AO2
94908KDBQ DBQ20070504084509405/04/07 08:45:31  5-MIN KDBQ 041445Z 09010KT 9SM OVC028 12/05 A3004 970 63 800 090/10 RMK AO2
94908KDBQ DBQ20070504085013905/04/07 08:50:31  5-MIN KDBQ 041450Z 09010KT 8SM -RA OVC026 12/05 A3004 970 63 800 090/10 RMK AO2 RAB49 SLP173 P0000 60000 T01170050 53004
94908KDBQ DBQ20070504085514605/04/07 08:55:31  5-MIN KDBQ 041455Z 09009KT 8SM -RA BKN026 OVC034 12/05 A3004 970 63 800 090/09 RMK AO2 RAB49 SLP172 P0000 60000 T01170050 58000
94908KDBQ DBQ20070504090011105/04/07 09:00:31  5-MIN KDBQ 041500Z 09009KT 9SM -RA BKN026 OVC034 12/06 A3004 970 66 800 090/09 RMK AO2 P0000
94908KDBQ DBQ20070504090512105/04/07 09:05:31  5-MIN KDBQ 041505Z 09010KT 10SM BKN026 BKN034 OVC060 12/06 A3004 970 66 800 090/10 RMK AO2 RAE01 P0000
94908KDBQ DBQ20070504091012105/04/07 09:10:31  5-MIN KDBQ 041510Z 10009KT 10SM BKN026 BKN034 OVC080 12/06 A3004 970 63 900 100/09 RMK AO2 RAE01 P0000
94908KDBQ DBQ20070504091512105/04/07 09:15:31  5-MIN KDBQ 041515Z 09010KT 10SM SCT023 SCT028 BKN033 12/06 A3003 970 63 900 080/10 RMK AO2 RAE01 P0000
94908KDBQ DBQ20070504092012205/04/07 09:20:31  5-MIN KDBQ 041520Z 08011KT 10SM SCT023 BKN032 OVC060 13/06 A3003 970 61 1000 080/11 RMK AO2 RAE01 P0000
94908KDBQ DBQ20070504092512205/04/07 09:25:31  5-MIN KDBQ 041525Z 08009KT 10SM SCT023 BKN032 OVC060 13/06 A3003 980 61 1000 080/09 RMK AO2 RAE01 P0000
94908KDBQ DBQ20070504093012205/04/07 09:30:31  5-MIN KDBQ 041530Z 08013KT 10SM FEW023 BKN032 BKN060 13/06 A3003 980 59 1000 080/13 RMK AO2 RAE01 P0000
94908KDBQ DBQ20070504093512205/04/07 09:35:31  5-MIN KDBQ 041535Z 09011KT 10SM FEW023 SCT032 BKN065 13/05 A3003 980 59 1000 090/11 RMK AO2 RAE01 P0000
94908KDBQ DBQ20070504094012205/04/07 09:40:31  5-MIN KDBQ 041540Z 09013KT 10SM FEW023 SCT032 BKN060 13/05 A3003 980 57 1100 090/13 RMK AO2 RAE01 P0000
94908KDBQ DBQ20070504094512205/04/07 09:45:31  5-MIN KDBQ 041545Z 09011KT 10SM FEW031 BKN060 BKN070 13/05 A3003 980 57 1000 090/11 RMK AO2 RAE01 P0000
94908KDBQ DBQ20070504095013905/04/07 09:50:31  5-MIN KDBQ 041550Z 08013KT 10SM FEW031 BKN055 BKN070 13/05 A3003 980 57 1100 080/13 RMK AO2 RAE01 SLP168 P0000 T01330050
94908KDBQ DBQ20070504095513205/04/07 09:55:31  5-MIN KDBQ 041555Z 09013KT 10SM BKN055 BKN070 13/05 A3003 980 57 1100 080/13 RMK AO2 RAE01 SLP168 P0000 T01330050
94908KDBQ DBQ20070504100010905/04/07 10:00:31  5-MIN KDBQ 041600Z 08014G19KT 10SM BKN055 OVC070 13/06 A3002 980 59 1100 080/14G19 RMK AO2
94908KDBQ DBQ20070504100510205/04/07 10:05:31  5-MIN KDBQ 041605Z 07009G19KT 10SM OVC055 13/06 A3002 980 59 1100 070/09G19 RMK AO2
94908KDBQ DBQ20070504101010205/04/07 10:10:31  5-MIN KDBQ 041610Z 08008G16KT 10SM OVC055 13/06 A3002 980 59 1100 080/08G16 RMK AO2
94908KDBQ DBQ20070504101509605/04/07 10:15:31  5-MIN KDBQ 041615Z 08010KT 10SM OVC050 13/06 A3002 980 61 1100 080/10 RMK AO2
94908KDBQ DBQ20070504102009605/04/07 10:20:31  5-MIN KDBQ 041620Z 07008KT 10SM OVC050 14/06 A3002 990 59 1100 070/08 RMK AO2
94908KDBQ DBQ20070504102510205/04/07 10:25:31  5-MIN KDBQ 041625Z 09012G16KT 10SM OVC050 14/06 A3002 980 59 1100 080/12G16 RMK AO2
94908KDBQ DBQ20070504103010205/04/07 10:30:31  5-MIN KDBQ 041630Z 08008G16KT 10SM OVC050 14/06 A3002 980 59 1100 080/08G16 RMK AO2
94908KDBQ DBQ20070504103509605/04/07 10:35:31  5-MIN KDBQ 041635Z 08009KT 10SM OVC050 14/06 A3002 980 59 1100 080/09 RMK AO2
94908KDBQ DBQ20070504104009605/04/07 10:40:31  5-MIN KDBQ 041640Z 08009KT 10SM OVC050 14/07 A3002 980 59 1200 080/09 RMK AO2
94908KDBQ DBQ20070504104509605/04/07 10:45:31  5-MIN KDBQ 041645Z 08010KT 10SM OVC050 14/07 A3002 990 59 1200 080/10 RMK AO2
94908KDBQ DBQ20070504105012005/04/07 10:50:31  5-MIN KDBQ 041650Z 07012KT 10SM FEW027 OVC050 14/07 A3002 980 59 1200 070/12 RMK AO2 SLP167 T01440067
94908KDBQ DBQ20070504105512005/04/07 10:55:31  5-MIN KDBQ 041655Z 08010KT 10SM SCT029 OVC050 14/07 A3002 990 59 1200 080/10 RMK AO2 SLP165 T01440067
94908KDBQ DBQ20070504110010305/04/07 11:00:31  5-MIN KDBQ 041700Z 08010KT 10SM BKN029 OVC050 15/07 A3002 990 57 1300 080/10 RMK AO2
94908KDBQ DBQ20070504110510305/04/07 11:05:31  5-MIN KDBQ 041705Z 09010KT 10SM BKN029 OVC050 15/07 A3002 990 57 1300 090/10 RMK AO2
94908KDBQ DBQ20070504111009605/04/07 11:10:31  5-MIN KDBQ 041710Z 08012KT 10SM OVC027 15/07 A3002 990 57 1300 080/12 RMK AO2
94908KDBQ DBQ20070504111509605/04/07 11:15:31  5-MIN KDBQ 041715Z 10011KT 10SM OVC027 15/07 A3002 990 57 1300 100/11 RMK AO2
94908KDBQ DBQ20070504112009605/04/07 11:20:31  5-MIN KDBQ 041720Z 09012KT 10SM OVC029 15/07 A3002 990 57 1300 090/12 RMK AO2
94908KDBQ DBQ20070504112510305/04/07 11:25:31  5-MIN KDBQ 041725Z 10011KT 10SM BKN029 OVC065 16/07 A3001 990 55 1300 100/11 RMK AO2
94908KDBQ DBQ20070504113011705/04/07 11:30:31  5-MIN KDBQ 041730Z 08013G17KT 10SM BKN027 BKN032 OVC065 16/07 A3001 1000 55 1400 080/13G17 RMK AO2
94908KDBQ DBQ20070504113511005/04/07 11:35:31  5-MIN KDBQ 041735Z 09014G18KT 10SM BKN027 OVC033 16/08 A3001 1000 57 1400 080/14G18 RMK AO2
94908KDBQ DBQ20070504114010405/04/07 11:40:31  5-MIN KDBQ 041740Z 08012KT 10SM BKN027 OVC032 16/08 A3001 1000 57 1400 080/12 RMK AO2
94908KDBQ DBQ20070504114510405/04/07 11:45:31  5-MIN KDBQ 041745Z 09012KT 10SM BKN027 OVC032 16/08 A3000 1000 57 1400 090/12 RMK AO2
94908KDBQ DBQ20070504115014505/04/07 11:50:31  5-MIN KDBQ 041750Z 08011KT 10SM BKN025 OVC032 17/08 A3000 1000 55 1500 080/11 RMK AO2 SLP159 60000 T01670078 10167 20117 58000
94908KDBQ DBQ20070504115514505/04/07 11:55:31  5-MIN KDBQ 041755Z 09013KT 10SM BKN025 OVC032 17/08 A3000 1000 55 1500 090/13 RMK AO2 SLP158 60000 T01670078 10167 20117 58012
94908KDBQ DBQ20070504120009705/04/07 12:00:31  5-MIN KDBQ 041800Z 09013KT 10SM OVC027 17/08 A3000 1000 55 1500 090/13 RMK AO2
94908KDBQ DBQ20070504120509705/04/07 12:05:31  5-MIN KDBQ 041805Z 11011KT 10SM OVC027 16/08 A3000 1000 57 1400 110/11 RMK AO2
94908KDBQ DBQ20070504121010405/04/07 12:10:31  5-MIN KDBQ 041810Z 10011KT 10SM BKN024 OVC029 17/08 A3000 1010 55 1500 100/11 RMK AO2
94908KDBQ DBQ20070504121511005/04/07 12:15:31  5-MIN KDBQ 041815Z 10013G16KT 10SM BKN026 OVC035 16/08 A3000 1010 57 1400 100/13G16 RMK AO2
94908KDBQ DBQ20070504122010405/04/07 12:20:31  5-MIN KDBQ 041820Z 10012KT 10SM BKN026 OVC035 17/08 A2999 1010 55 1500 100/12 RMK AO2
94908KDBQ DBQ20070504122509705/04/07 12:25:31  5-MIN KDBQ 041825Z 10011KT 10SM BKN026 17/08 A2999 1010 57 1500 100/11 RMK AO2
94908KDBQ DBQ20070504123009705/04/07 12:30:31  5-MIN KDBQ 041830Z 10010KT 10SM BKN026 17/08 A2999 1010 57 1500 100/10 RMK AO2
94908KDBQ DBQ20070504123509705/04/07 12:35:31  5-MIN KDBQ 041835Z 09013KT 10SM SCT026 17/08 A2999 1010 57 1500 090/13 RMK AO2
94908KDBQ DBQ20070504124010205/04/07 12:40:31  5-MIN KDBQ 041840Z 09010G17KT 9SM BKN026 17/09 A2999 1010 60 1500 090/10G17 RMK AO2
94908KDBQ DBQ20070504124511905/04/07 12:45:31  5-MIN KDBQ 041845Z 10010KT 9SM -RA SCT023 BKN028 17/09 A2999 1010 60 1500 100/10 RMK AO2 RAB42 P0000
94908KDBQ DBQ20070504125013605/04/07 12:50:31  5-MIN KDBQ 041850Z 08012KT 10SM SCT023 BKN028 17/09 A2999 1020 62 1500 080/12 RMK AO2 RAB42E50 SLP154 P0000 T01670094
94908KDBQ DBQ20070504125512905/04/07 12:55:31  5-MIN KDBQ 041855Z 09009KT 10SM SCT023 17/09 A2999 1020 62 1500 090/09 RMK AO2 RAB42E50 SLP153 P0000 T01670094
94908KDBQ DBQ20070504130011405/04/07 13:00:31  5-MIN KDBQ 041900Z 09010KT 8SM -RA SCT023 17/10 A2998 1020 64 1500 090/10 RMK AO2 RAB1859 P0000
94908KDBQ DBQ20070504130511405/04/07 13:05:31  5-MIN KDBQ 041905Z 09012KT 9SM -RA SCT023 16/09 A2999 1020 64 1400 090/12 RMK AO2 RAB1859 P0000
94908KDBQ DBQ20070504131011305/04/07 13:10:31  5-MIN KDBQ 041910Z 09010KT 8SM FEW023 16/10 A2999 1020 67 1400 090/10 RMK AO2 RAB1859E08 P0000
94908KDBQ DBQ20070504131511405/04/07 13:15:31  5-MIN KDBQ 041915Z 09011KT 7SM -RA FEW025 16/10 A2999 1020 67 1400 090/11 RMK AO2 RAB1859 P0000
94908KDBQ DBQ20070504132011405/04/07 13:20:31  5-MIN KDBQ 041920Z 09010KT 7SM -RA FEW027 16/10 A2998 1020 67 1400 080/10 RMK AO2 RAB1859 P0000
94908KDBQ DBQ20070504132511405/04/07 13:25:31  5-MIN KDBQ 041925Z 09010KT 8SM -RA FEW029 16/11 A2998 1020 69 1400 090/10 RMK AO2 RAB1859 P0000
94908KDBQ DBQ20070504133011405/04/07 13:30:31  5-MIN KDBQ 041930Z 09010KT 8SM -RA FEW031 16/11 A2998 1020 69 1400 090/10 RMK AO2 RAB1859 P0000
94908KDBQ DBQ20070504133511405/04/07 13:35:31  5-MIN KDBQ 041935Z 09009KT 8SM -RA SCT029 17/11 A2998 1020 69 1500 090/09 RMK AO2 RAB1859 P0000
94908KDBQ DBQ20070504134012105/04/07 13:40:31  5-MIN KDBQ 041940Z 09009KT 7SM -RA SCT029 SCT037 17/11 A2998 1020 69 1500 090/09 RMK AO2 RAB1859 P0000
94908KDBQ DBQ20070504134512105/04/07 13:45:31  5-MIN KDBQ 041945Z 09007KT 7SM -RA FEW029 SCT034 17/11 A2999 1020 69 1500 090/07 RMK AO2 RAB1859 P0000
94908KDBQ DBQ20070504135013805/04/07 13:50:31  5-MIN KDBQ 041950Z 09009KT 7SM -RA FEW027 SCT035 17/11 A2999 1020 69 1500 090/09 RMK AO2 RAB1859 SLP153 P0000 T01670111
94908KDBQ DBQ20070504135513805/04/07 13:55:31  5-MIN KDBQ 041955Z 09008KT 7SM -RA FEW027 SCT035 17/12 A2998 1020 72 1500 090/08 RMK AO2 RAB1859 SLP153 P0000 T01670117
94908KDBQ DBQ20070504140010605/04/07 14:00:31  5-MIN KDBQ 042000Z 08008KT 7SM -RA SCT025 17/12 A2998 1020 72 1500 080/08 RMK AO2 P0000
94908KDBQ DBQ20070504140511305/04/07 14:05:31  5-MIN KDBQ 042005Z 09011KT 7SM -RA FEW027 SCT035 17/12 A2998 1020 69 1600 090/11 RMK AO2 P0000
94908KDBQ DBQ20070504141011505/04/07 14:10:31  5-MIN KDBQ 042010Z 09010KT 8SM FEW027 SCT035 17/12 A2998 1020 69 1600 090/10 RMK AO2 RAE09 P0000
94908KDBQ DBQ20070504141511505/04/07 14:15:31  5-MIN KDBQ 042015Z 09012KT 7SM FEW027 SCT035 17/12 A2998 1020 69 1600 090/12 RMK AO2 RAE09 P0000
94908KDBQ DBQ20070504142011505/04/07 14:20:31  5-MIN KDBQ 042020Z 10009KT 7SM FEW027 SCT035 17/12 A2998 1020 69 1600 090/09 RMK AO2 RAE09 P0000
94908KDBQ DBQ20070504142511505/04/07 14:25:31  5-MIN KDBQ 042025Z 10010KT 8SM FEW027 SCT035 17/12 A2998 1020 69 1600 100/10 RMK AO2 RAE09 P0000
94908KDBQ DBQ20070504143011505/04/07 14:30:31  5-MIN KDBQ 042030Z 10009KT 9SM FEW027 SCT035 17/11 A2998 1020 67 1600 100/09 RMK AO2 RAE09 P0000
94908KDBQ DBQ20070504143512205/04/07 14:35:31  5-MIN KDBQ 042035Z 09012KT 9SM FEW022 SCT029 BKN095 17/11 A2998 1020 67 1600 090/12 RMK AO2 RAE09 P0000
94908KDBQ DBQ20070504144012205/04/07 14:40:31  5-MIN KDBQ 042040Z 09013KT 9SM SCT022 SCT029 BKN090 17/11 A2998 1030 67 1600 090/13 RMK AO2 RAE09 P0000
94908KDBQ DBQ20070504144511505/04/07 14:45:31  5-MIN KDBQ 042045Z 09011KT 9SM SCT022 BKN090 17/11 A2998 1030 67 1600 090/11 RMK AO2 RAE09 P0000
94908KDBQ DBQ20070504145014405/04/07 14:50:31  5-MIN KDBQ 042050Z 10012KT 8SM SCT022 BKN090 17/11 A2998 1030 67 1600 100/12 RMK AO2 RAE09 SLP150 P0000 60000 T01720111 58012
94908KDBQ DBQ20070504145514405/04/07 14:55:31  5-MIN KDBQ 042055Z 10008KT 8SM BKN022 BKN090 17/12 A2998 1030 72 1500 100/08 RMK AO2 RAE09 SLP150 P0000 60000 T01670117 56008
94908KDBQ DBQ20070504150012705/04/07 15:00:31  5-MIN KDBQ 042100Z 10014G18KT 7SM -RA BKN022 OVC090 17/11 A2998 1030 69 1500 100/14G18 RMK AO2 RAB2057 P0000
94908KDBQ DBQ20070504150513405/04/07 15:05:31  5-MIN KDBQ 042105Z 10010G18KT 8SM -RA BKN022 BKN035 OVC090 16/11 A2997 1030 72 1400 090/10G18 RMK AO2 RAB2057 P0000
94908KDBQ DBQ20070504151012705/04/07 15:10:31  5-MIN KDBQ 042110Z 10011KT 8SM BKN022 BKN035 OVC090 16/11 A2997 1030 72 1400 100/11 RMK AO2 RAB2057E09 P0000
94908KDBQ DBQ20070504151512805/04/07 15:15:31  5-MIN KDBQ 042115Z 11011KT 6SM -RA BKN022 BKN035 OVC090 16/11 A2997 1030 72 1400 110/11 RMK AO2 RAB2057 P0000
94908KDBQ DBQ20070504152012805/04/07 15:20:31  5-MIN KDBQ 042120Z 09008KT 6SM -RA BKN022 BKN035 OVC090 16/11 A2997 1030 74 1400 090/08 RMK AO2 RAB2057 P0000
94908KDBQ DBQ20070504152512805/04/07 15:25:31  5-MIN KDBQ 042125Z 09008KT 6SM -RA BKN022 BKN035 OVC090 16/11 A2997 1030 72 1400 090/08 RMK AO2 RAB2057 P0000
94908KDBQ DBQ20070504153012805/04/07 15:30:31  5-MIN KDBQ 042130Z 10009KT 6SM -RA BKN022 BKN035 OVC090 16/11 A2997 1030 72 1400 100/09 RMK AO2 RAB2057 P0000
94908KDBQ DBQ20070504153512805/04/07 15:35:31  5-MIN KDBQ 042135Z 09008KT 7SM -RA BKN022 BKN035 OVC090 16/11 A2997 1030 72 1400 090/08 RMK AO2 RAB2057 P0000
94908KDBQ DBQ20070504154012705/04/07 15:40:31  5-MIN KDBQ 042140Z 09007KT 8SM BKN022 BKN035 OVC090 16/11 A2997 1030 72 1400 090/07 RMK AO2 RAB2057E37 P0000
94908KDBQ DBQ20070504154512705/04/07 15:45:31  5-MIN KDBQ 042145Z 09009KT 9SM BKN022 BKN035 OVC090 16/11 A2997 1030 72 1400 090/09 RMK AO2 RAB2057E37 P0000
94908KDBQ DBQ20070504155014405/04/07 15:50:31  5-MIN KDBQ 042150Z 09010KT 9SM BKN028 BKN035 OVC060 17/11 A2997 1030 67 1500 090/10 RMK AO2 RAB2057E37 SLP147 P0000 T01670106
94908KDBQ DBQ20070504155514405/04/07 15:55:31  5-MIN KDBQ 042155Z 08009KT 9SM BKN028 BKN035 BKN060 17/11 A2997 1030 69 1500 080/09 RMK AO2 RAB2057E37 SLP147 P0000 T01670111
94908KDBQ DBQ20070504160010305/04/07 16:00:31  5-MIN KDBQ 042200Z 09009KT 9SM BKN028 BKN060 17/11 A2997 1030 69 1500 090/09 RMK AO2
94908KDBQ DBQ20070504160510305/04/07 16:05:31  5-MIN KDBQ 042205Z 10007KT 9SM BKN028 BKN060 17/11 A2997 1030 67 1500 090/07 RMK AO2
94908KDBQ DBQ20070504161010405/04/07 16:10:31  5-MIN KDBQ 042210Z 09009KT 10SM BKN028 BKN060 17/11 A2997 1030 67 1500 090/09 RMK AO2
94908KDBQ DBQ20070504161510405/04/07 16:15:31  5-MIN KDBQ 042215Z 09010KT 10SM BKN028 BKN060 17/11 A2997 1030 67 1500 090/10 RMK AO2
94908KDBQ DBQ20070504162011005/04/07 16:20:31  5-MIN KDBQ 042220Z 10011G16KT 10SM BKN028 BKN060 17/10 A2997 1030 64 1500 100/11G16 RMK AO2
94908KDBQ DBQ20070504162510405/04/07 16:25:31  5-MIN KDBQ 042225Z 10009KT 10SM BKN028 BKN060 17/09 A2997 1030 62 1500 100/09 RMK AO2
94908KDBQ DBQ20070504163010405/04/07 16:30:31  5-MIN KDBQ 042230Z 10009KT 10SM BKN028 BKN060 17/10 A2997 1030 64 1500 100/09 RMK AO2
94908KDBQ DBQ20070504163510405/04/07 16:35:31  5-MIN KDBQ 042235Z 10009KT 10SM BKN028 BKN060 17/09 A2997 1030 62 1500 100/09 RMK AO2
94908KDBQ DBQ20070504164010405/04/07 16:40:31  5-MIN KDBQ 042240Z 10008KT 10SM BKN028 BKN060 17/10 A2997 1030 64 1500 100/08 RMK AO2
94908KDBQ DBQ20070504164510405/04/07 16:45:31  5-MIN KDBQ 042245Z 10009KT 10SM BKN028 BKN060 17/09 A2997 1030 62 1500 100/09 RMK AO2
94908KDBQ DBQ20070504165011905/04/07 16:50:31  5-MIN KDBQ 042250Z 10009KT 8SM -RA BKN030 OVC080 17/10 A2997 1030 64 1500 100/09 RMK AO2 RAB48 P0000
94908KDBQ DBQ20070504165513605/04/07 16:55:31  5-MIN KDBQ 042255Z 09009KT 8SM -RA BKN030 OVC080 16/11 A2997 1040 69 1400 090/09 RMK AO2 RAB48 SLP148 P0000 T01610106
94908KDBQ DBQ20070504170012005/04/07 17:00:31  5-MIN KDBQ 042300Z 09009KT 9SM -RA SCT030 SCT050 OVC080 16/11 A2997 1040 69 1400 090/09 RMK AO2 P0000
94908KDBQ DBQ20070504170512005/04/07 17:05:31  5-MIN KDBQ 042305Z 10009KT 8SM -RA SCT033 SCT060 OVC080 16/11 A2996 1040 69 1400 100/09 RMK AO2 P0000
94908KDBQ DBQ20070504171012005/04/07 17:10:31  5-MIN KDBQ 042310Z 10007KT 8SM -RA FEW035 BKN065 OVC080 16/11 A2997 1040 69 1400 100/07 RMK AO2 P0000
94908KDBQ DBQ20070504171512205/04/07 17:15:31  5-MIN KDBQ 042315Z 10008KT 8SM FEW033 BKN070 OVC080 16/11 A2997 1040 69 1400 100/08 RMK AO2 RAE14 P0000
94908KDBQ DBQ20070504172011505/04/07 17:20:31  5-MIN KDBQ 042320Z 09008KT 8SM FEW035 OVC075 16/11 A2997 1040 72 1400 090/08 RMK AO2 RAE14 P0000
94908KDBQ DBQ20070504172511505/04/07 17:25:31  5-MIN KDBQ 042325Z 09007KT 7SM FEW048 OVC075 16/11 A2997 1040 72 1400 090/07 RMK AO2 RAE14 P0000
94908KDBQ DBQ20070504173011505/04/07 17:30:31  5-MIN KDBQ 042330Z 09010KT 7SM FEW060 OVC075 16/11 A2997 1040 69 1400 090/10 RMK AO2 RAE14 P0000
94908KDBQ DBQ20070504173511505/04/07 17:35:31  5-MIN KDBQ 042335Z 10010KT 8SM FEW047 BKN075 16/11 A2997 1040 69 1400 090/10 RMK AO2 RAE14 P0000
94908KDBQ DBQ20070504174011505/04/07 17:40:31  5-MIN KDBQ 042340Z 09009KT 7SM FEW047 BKN075 16/11 A2996 1040 72 1400 090/09 RMK AO2 RAE14 P0000
94908KDBQ DBQ20070504174511505/04/07 17:45:31  5-MIN KDBQ 042345Z 09010KT 7SM SCT049 OVC070 16/11 A2996 1040 72 1400 090/10 RMK AO2 RAE14 P0000
94908KDBQ DBQ20070504175016305/04/07 17:50:31  5-MIN KDBQ 042350Z 09009KT 7SM -RA BKN049 OVC070 16/11 A2996 1040 72 1400 090/09 RMK AO2 RAE14B48 SLP146 P0000 60000 T01560106 10172 20156 56008
94908KDBQ DBQ20070504175516305/04/07 17:55:31  5-MIN KDBQ 042355Z 08008KT 6SM -RA BKN047 OVC070 16/11 A2997 1040 72 1400 080/08 RMK AO2 RAE14B48 SLP147 P0000 60000 T01560106 10172 20156 58001
94908KDBQ DBQ20070504180012005/04/07 18:00:31  5-MIN KDBQ 050000Z 09007KT 6SM -RA FEW033 BKN042 OVC070 16/11 A2997 1030 72 1400 090/07 RMK AO2 P0000
94908KDBQ DBQ20070504180512005/04/07 18:05:31  5-MIN KDBQ 050005Z 09007KT 6SM -RA FEW031 BKN040 OVC049 15/11 A2997 1030 74 1300 080/07 RMK AO2 P0000
94908KDBQ DBQ20070504181011305/04/07 18:10:31  5-MIN KDBQ 050010Z 09007KT 6SM -RA BKN038 OVC049 15/11 A2996 1040 77 1300 080/07 RMK AO2 P0000
94908KDBQ DBQ20070504181511305/04/07 18:15:31  5-MIN KDBQ 050015Z 08008KT 6SM -RA BKN035 OVC045 14/11 A2997 1040 80 1300 080/08 RMK AO2 P0000
94908KDBQ DBQ20070504182011805/04/07 18:20:31  5-MIN KDBQ 050020Z 08008KT 6SM HZ BKN035 OVC043 14/11 A2997 1040 80 1300 080/08 RMK AO2 RAE17 P0000
94908KDBQ DBQ20070504182510605/04/07 18:25:31  5-MIN KDBQ 050025Z 08008KT 5SM -RA OVC037 14/11 A2997 1040 80 1300 080/08 RMK AO2 P0000
94908KDBQ DBQ20070504183010605/04/07 18:30:31  5-MIN KDBQ 050030Z 09010KT 6SM -RA OVC035 14/11 A2996 1040 80 1300 090/10 RMK AO2 P0000
94908KDBQ DBQ20070504183511305/04/07 18:35:31  5-MIN KDBQ 050035Z 08009KT 6SM -RA BKN037 OVC048 14/11 A2996 1040 77 1300 080/09 RMK AO2 P0000
94908KDBQ DBQ20070504184011305/04/07 18:40:31  5-MIN KDBQ 050040Z 08009KT 6SM -RA BKN035 OVC050 14/11 A2996 1040 80 1300 080/09 RMK AO2 P0000
94908KDBQ DBQ20070504184512805/04/07 18:45:31  5-MIN KDBQ 050045Z AUTO 07009KT 6SM HZ BKN035 OVC050 14/11 A2996 1040 80 1300 070/09 RMK AO2 RAE41 P0001 TSNO
94908KDBQ DBQ20070504185014505/04/07 18:50:31  5-MIN KDBQ 050050Z AUTO 07009KT 6SM HZ SCT035 OVC050 14/11 A2996 1050 77 1300 070/09 RMK AO2 RAE41 SLP145 P0001 T01440106 TSNO
94908KDBQ DBQ20070504185514505/04/07 18:55:31  5-MIN KDBQ 050055Z AUTO 07009KT 6SM HZ FEW035 OVC050 14/11 A2996 1040 77 1300 070/09 RMK AO2 RAE41 SLP145 P0001 T01440106 TSNO
94908KDBQ DBQ20070504190011605/04/07 19:00:31  5-MIN KDBQ 050100Z AUTO 07009KT 6SM HZ FEW026 OVC050 14/11 A2996 1040 80 1200 070/09 RMK AO2 TSNO
94908KDBQ DBQ20070504190511605/04/07 19:05:31  5-MIN KDBQ 050105Z AUTO 07007KT 6SM HZ BKN026 OVC050 14/11 A2996 1040 83 1200 070/07 RMK AO2 TSNO
94908KDBQ DBQ20070504191011605/04/07 19:10:31  5-MIN KDBQ 050110Z AUTO 07009KT 6SM HZ BKN026 OVC050 14/11 A2996 1050 83 1200 070/09 RMK AO2 TSNO
94908KDBQ DBQ20070504191511305/04/07 19:15:31  5-MIN KDBQ 050115Z AUTO 08009KT 7SM BKN026 OVC050 14/11 A2996 1050 83 1200 080/09 RMK AO2 TSNO
94908KDBQ DBQ20070504192010605/04/07 19:20:31  5-MIN KDBQ 050120Z AUTO 09009KT 7SM OVC028 14/11 A2996 1040 83 1200 080/09 RMK AO2 TSNO
94908KDBQ DBQ20070504192510605/04/07 19:25:31  5-MIN KDBQ 050125Z AUTO 09008KT 8SM OVC028 14/11 A2996 1040 83 1200 080/08 RMK AO2 TSNO
94908KDBQ DBQ20070504193010605/04/07 19:30:31  5-MIN KDBQ 050130Z AUTO 09008KT 8SM OVC028 14/11 A2996 1040 83 1200 090/08 RMK AO2 TSNO
94908KDBQ DBQ20070504193510605/04/07 19:35:31  5-MIN KDBQ 050135Z AUTO 09007KT 8SM OVC028 14/11 A2996 1040 80 1300 090/07 RMK AO2 TSNO
94908KDBQ DBQ20070504194010605/04/07 19:40:31  5-MIN KDBQ 050140Z AUTO 09009KT 8SM OVC030 14/11 A2996 1040 80 1300 090/09 RMK AO2 TSNO
94908KDBQ DBQ20070504194511305/04/07 19:45:31  5-MIN KDBQ 050145Z AUTO 10009KT 8SM BKN030 OVC039 14/11 A2996 1040 80 1300 090/09 RMK AO2 TSNO
94908KDBQ DBQ20070504195013005/04/07 19:50:31  5-MIN KDBQ 050150Z AUTO 10010KT 8SM BKN030 OVC039 14/11 A2996 1040 80 1300 100/10 RMK AO2 SLP148 T01440111 TSNO
94908KDBQ DBQ20070504195513705/04/07 19:55:31  5-MIN KDBQ 050155Z AUTO 09010KT 7SM SCT030 BKN039 OVC049 14/11 A2996 1040 80 1300 090/10 RMK AO2 SLP148 T01440111 TSNO
94908KDBQ DBQ20070504200011305/04/07 20:00:31  5-MIN KDBQ 050200Z AUTO 09010KT 7SM BKN035 OVC049 14/11 A2996 1040 80 1300 090/10 RMK AO2 TSNO
94908KDBQ DBQ20070504200511305/04/07 20:05:31  5-MIN KDBQ 050205Z AUTO 09010KT 7SM BKN035 OVC047 14/11 A2996 1040 80 1300 090/10 RMK AO2 TSNO
94908KDBQ DBQ20070504201011305/04/07 20:10:31  5-MIN KDBQ 050210Z AUTO 09010KT 7SM BKN037 OVC047 14/11 A2996 1040 80 1300 090/10 RMK AO2 TSNO
94908KDBQ DBQ20070504201511305/04/07 20:15:31  5-MIN KDBQ 050215Z AUTO 09009KT 7SM BKN037 OVC047 14/11 A2997 1040 80 1300 090/09 RMK AO2 TSNO
94908KDBQ DBQ20070504202011305/04/07 20:20:31  5-MIN KDBQ 050220Z AUTO 09010KT 7SM BKN037 OVC045 14/11 A2997 1040 80 1300 090/10 RMK AO2 TSNO
94908KDBQ DBQ20070504202511605/04/07 20:25:31  5-MIN KDBQ 050225Z AUTO 09009KT 6SM HZ BKN037 OVC045 14/11 A2997 1040 80 1300 090/09 RMK AO2 TSNO
94908KDBQ DBQ20070504203011605/04/07 20:30:31  5-MIN KDBQ 050230Z AUTO 09009KT 6SM HZ BKN037 OVC045 14/11 A2997 1030 80 1200 090/09 RMK AO2 TSNO
94908KDBQ DBQ20070504203511605/04/07 20:35:31  5-MIN KDBQ 050235Z AUTO 09008KT 6SM HZ BKN035 OVC045 14/11 A2997 1030 80 1200 090/08 RMK AO2 TSNO
94908KDBQ DBQ20070504204011605/04/07 20:40:31  5-MIN KDBQ 050240Z AUTO 09009KT 6SM HZ BKN035 OVC042 14/11 A2997 1030 80 1200 090/09 RMK AO2 TSNO
94908KDBQ DBQ20070504204510905/04/07 20:45:31  5-MIN KDBQ 050245Z AUTO 09009KT 6SM HZ OVC038 14/11 A2997 1030 80 1200 090/09 RMK AO2 TSNO
94908KDBQ DBQ20070504205013805/04/07 20:50:31  5-MIN KDBQ 050250Z AUTO 09010KT 5SM HZ OVC039 14/11 A2997 1030 80 1200 090/10 RMK AO2 SLP150 60001 T01440111 58001 TSNO
94908KDBQ DBQ20070504205515805/04/07 20:55:31  5-MIN KDBQ 050255Z AUTO 10009KT 4SM -RA BKN037 OVC045 14/12 A2997 1030 83 1200 090/09 RMK AO2 RAB52 SLP150 P0000 60001 T01440117 53002 TSNO
94908KDBQ DBQ20070504210012605/04/07 21:00:31  5-MIN KDBQ 050300Z AUTO 10008KT 3SM -RA BR BKN034 OVC043 14/12 A2997 1030 86 1200 100/08 RMK AO2 P0000 TSNO
94908KDBQ DBQ20070504210512605/04/07 21:05:31  5-MIN KDBQ 050305Z AUTO 10010KT 3SM -RA BR BKN031 OVC041 14/12 A2997 1030 86 1200 100/10 RMK AO2 P0000 TSNO
94908KDBQ DBQ20070504211013505/04/07 21:10:31  5-MIN KDBQ 050310Z AUTO 10010KT 4SM BR BKN028 BKN033 OVC043 14/12 A2997 1030 86 1200 100/10 RMK AO2 RAE09 P0000 TSNO
94908KDBQ DBQ20070504211512805/04/07 21:15:31  5-MIN KDBQ 050315Z AUTO 10009KT 5SM BR BKN024 OVC032 14/12 A2997 1030 86 1200 100/09 RMK AO2 RAE09 P0000 TSNO
94908KDBQ DBQ20070504212012805/04/07 21:20:31  5-MIN KDBQ 050320Z AUTO 09009KT 5SM BR BKN024 OVC032 14/12 A2997 1030 86 1200 090/09 RMK AO2 RAE09 P0000 TSNO
94908KDBQ DBQ20070504212512805/04/07 21:25:31  5-MIN KDBQ 050325Z AUTO 09007KT 5SM BR BKN024 OVC030 14/12 A2997 1030 86 1200 090/07 RMK AO2 RAE09 P0000 TSNO
94908KDBQ DBQ20070504213012105/04/07 21:30:31  5-MIN KDBQ 050330Z AUTO 09008KT 5SM BR OVC022 14/12 A2997 1030 86 1200 090/08 RMK AO2 RAE09 P0000 TSNO
94908KDBQ DBQ20070504213512105/04/07 21:35:31  5-MIN KDBQ 050335Z AUTO 08008KT 5SM HZ OVC020 14/12 A2997 1030 83 1200 080/08 RMK AO2 RAE09 P0000 TSNO
94908KDBQ DBQ20070504214012105/04/07 21:40:31  5-MIN KDBQ 050340Z AUTO 09009KT 5SM HZ OVC020 14/12 A2997 1030 83 1200 080/09 RMK AO2 RAE09 P0000 TSNO
94908KDBQ DBQ20070504214512105/04/07 21:45:31  5-MIN KDBQ 050345Z AUTO 08009KT 5SM HZ OVC020 14/12 A2997 1030 83 1200 080/09 RMK AO2 RAE09 P0000 TSNO
94908KDBQ DBQ20070505003011605/05/07 00:30:31  5-MIN KDBQ 050630Z AUTO 09010KT 4SM BR BKN019 OVC030 14/13 A2996 1040 90 1300 090/10 RMK AO2 TSNO
94908KDBQ DBQ20070505003512305/05/07 00:35:31  5-MIN KDBQ 050635Z AUTO 09010KT 4SM BR BKN019 BKN030 OVC036 14/13 A2996 1050 90 1300 090/10 RMK AO2 TSNO
94908KDBQ DBQ20070505004012305/05/07 00:40:31  5-MIN KDBQ 050640Z AUTO 09010KT 4SM BR BKN019 BKN027 OVC036 14/13 A2995 1050 90 1300 090/10 RMK AO2 TSNO
94908KDBQ DBQ20070505004512305/05/07 00:45:31  5-MIN KDBQ 050645Z AUTO 09011KT 4SM BR SCT019 BKN029 OVC036 14/13 A2995 1050 90 1300 090/11 RMK AO2 TSNO
94908KDBQ DBQ20070505005012305/05/07 00:50:31  5-MIN KDBQ 050650Z AUTO 09009KT 4SM BR FEW019 SCT029 OVC036 14/13 A2996 1040 90 1300 090/09 RMK AO2 TSNO
94908KDBQ DBQ20070505005514005/05/07 00:55:31  5-MIN KDBQ 050655Z AUTO 09010KT 4SM BR FEW019 SCT027 OVC036 14/13 A2996 1040 90 1300 090/10 RMK AO2 SLP145 T01440128 TSNO
94908KDBQ DBQ20070505010012305/05/07 01:00:31  5-MIN KDBQ 050700Z AUTO 09008KT 4SM BR SCT016 BKN028 OVC036 15/13 A2996 1040 86 1300 080/08 RMK AO2 TSNO
94908KDBQ DBQ20070505010512305/05/07 01:05:31  5-MIN KDBQ 050705Z AUTO 08007KT 4SM BR BKN016 BKN028 OVC036 14/13 A2996 1040 90 1300 080/07 RMK AO2 TSNO
94908KDBQ DBQ20070505011012305/05/07 01:10:31  5-MIN KDBQ 050710Z AUTO 08006KT 4SM BR BKN016 BKN028 OVC036 14/13 A2996 1040 90 1300 080/06 RMK AO2 TSNO
94908KDBQ DBQ20070505011512305/05/07 01:15:31  5-MIN KDBQ 050715Z AUTO 09010KT 4SM BR BKN016 BKN028 OVC038 14/13 A2996 1040 90 1300 080/10 RMK AO2 TSNO
94908KDBQ DBQ20070505012011605/05/07 01:20:31  5-MIN KDBQ 050720Z AUTO 09008KT 4SM BR BKN016 OVC028 14/12 A2996 1040 86 1300 090/08 RMK AO2 TSNO
94908KDBQ DBQ20070505012511605/05/07 01:25:31  5-MIN KDBQ 050725Z AUTO 09008KT 4SM BR BKN016 OVC028 14/12 A2996 1040 86 1300 090/08 RMK AO2 TSNO
94908KDBQ DBQ20070505013012305/05/07 01:30:31  5-MIN KDBQ 050730Z AUTO 09008KT 4SM BR BKN014 BKN028 OVC036 14/12 A2996 1040 86 1300 080/08 RMK AO2 TSNO
94908KDBQ DBQ20070505013511605/05/07 01:35:31  5-MIN KDBQ 050735Z AUTO 09006KT 4SM BR BKN014 OVC028 14/12 A2996 1040 86 1300 090/06 RMK AO2 TSNO
94908KDBQ DBQ20070505014011605/05/07 01:40:31  5-MIN KDBQ 050740Z AUTO 08007KT 4SM BR BKN014 OVC026 14/12 A2996 1040 86 1300 080/07 RMK AO2 TSNO
94908KDBQ DBQ20070505014511605/05/07 01:45:31  5-MIN KDBQ 050745Z AUTO 08008KT 4SM BR SCT014 OVC026 14/12 A2996 1040 86 1300 080/08 RMK AO2 TSNO
94908KDBQ DBQ20070505015013305/05/07 01:50:31  5-MIN KDBQ 050750Z AUTO 09007KT 4SM BR BKN012 OVC026 14/12 A2996 1040 86 1300 090/07 RMK AO2 SLP146 T01440122 TSNO
94908KDBQ DBQ20070505015513305/05/07 01:55:31  5-MIN KDBQ 050755Z AUTO 09007KT 4SM BR BKN012 OVC026 14/12 A2996 1040 86 1300 090/07 RMK AO2 SLP145 T01440122 TSNO
94908KDBQ DBQ20070505020011605/05/07 02:00:31  5-MIN KDBQ 050800Z AUTO 09008KT 4SM HZ BKN012 OVC026 14/12 A2996 1040 83 1300 090/08 RMK AO2 TSNO
94908KDBQ DBQ20070505020511605/05/07 02:05:31  5-MIN KDBQ 050805Z AUTO 09007KT 4SM HZ BKN012 OVC026 14/12 A2996 1040 83 1300 090/07 RMK AO2 TSNO
94908KDBQ DBQ20070505021010905/05/07 02:10:31  5-MIN KDBQ 050810Z AUTO 09007KT 4SM HZ OVC012 14/12 A2997 1040 83 1300 090/07 RMK AO2 TSNO
94908KDBQ DBQ20070505021511605/05/07 02:15:31  5-MIN KDBQ 050815Z AUTO 09007KT 4SM HZ BKN012 OVC027 14/12 A2996 1040 83 1300 090/07 RMK AO2 TSNO
94908KDBQ DBQ20070505022011605/05/07 02:20:31  5-MIN KDBQ 050820Z AUTO 09007KT 4SM HZ BKN012 OVC027 14/12 A2996 1040 83 1300 090/07 RMK AO2 TSNO
94908KDBQ DBQ20070505022512305/05/07 02:25:31  5-MIN KDBQ 050825Z AUTO 08008KT 4SM HZ BKN014 BKN018 OVC027 14/12 A2996 1040 83 1300 080/08 RMK AO2 TSNO
94908KDBQ DBQ20070505023011605/05/07 02:30:31  5-MIN KDBQ 050830Z AUTO 08008KT 4SM HZ BKN014 OVC027 14/12 A2996 1040 83 1300 080/08 RMK AO2 TSNO
94908KDBQ DBQ20070505023511605/05/07 02:35:31  5-MIN KDBQ 050835Z AUTO 09007KT 4SM HZ BKN014 OVC027 14/12 A2996 1040 83 1300 090/07 RMK AO2 TSNO
94908KDBQ DBQ20070505024011605/05/07 02:40:31  5-MIN KDBQ 050840Z AUTO 09009KT 4SM HZ BKN014 OVC027 14/12 A2996 1040 83 1300 090/09 RMK AO2 TSNO
94908KDBQ DBQ20070505024511605/05/07 02:45:31  5-MIN KDBQ 050845Z AUTO 09007KT 4SM HZ BKN016 OVC027 14/12 A2996 1040 83 1300 090/07 RMK AO2 TSNO
94908KDBQ DBQ20070505025014605/05/07 02:50:31  5-MIN KDBQ 050850Z AUTO 09007KT 4SM HZ SCT014 BKN019 OVC029 14/12 A2996 1040 83 1300 090/07 RMK AO2 SLP145 T01440117 55002 TSNO
94908KDBQ DBQ20070505025514605/05/07 02:55:31  5-MIN KDBQ 050855Z AUTO 09008KT 4SM HZ FEW011 BKN019 OVC029 14/12 A2996 1040 83 1300 090/08 RMK AO2 SLP145 T01440117 51001 TSNO
94908KDBQ DBQ20070505030012305/05/07 03:00:31  5-MIN KDBQ 050900Z AUTO 09009KT 4SM HZ FEW011 BKN017 OVC029 14/12 A2996 1040 83 1300 090/09 RMK AO2 TSNO
94908KDBQ DBQ20070505030512305/05/07 03:05:31  5-MIN KDBQ 050905Z AUTO 09010KT 4SM HZ SCT009 BKN015 OVC029 14/12 A2995 1050 83 1300 090/10 RMK AO2 TSNO
94908KDBQ DBQ20070505031012305/05/07 03:10:31  5-MIN KDBQ 050910Z AUTO 09008KT 4SM HZ SCT009 BKN015 OVC031 14/12 A2995 1050 83 1300 090/08 RMK AO2 TSNO
94908KDBQ DBQ20070505031512305/05/07 03:15:31  5-MIN KDBQ 050915Z AUTO 09009KT 4SM HZ BKN009 BKN015 OVC031 14/12 A2995 1050 83 1300 090/09 RMK AO2 TSNO
94908KDBQ DBQ20070505032012305/05/07 03:20:31  5-MIN KDBQ 050920Z AUTO 09009KT 4SM HZ BKN009 BKN015 OVC031 14/12 A2994 1060 83 1300 090/09 RMK AO2 TSNO
94908KDBQ DBQ20070505032511605/05/07 03:25:31  5-MIN KDBQ 050925Z AUTO 09010KT 4SM HZ BKN009 OVC015 14/12 A2994 1060 83 1300 090/10 RMK AO2 TSNO
94908KDBQ DBQ20070505033010905/05/07 03:30:31  5-MIN KDBQ 050930Z AUTO 09010KT 4SM HZ OVC009 14/12 A2994 1060 83 1300 090/10 RMK AO2 TSNO
94908KDBQ DBQ20070505033510905/05/07 03:35:31  5-MIN KDBQ 050935Z AUTO 10009KT 4SM HZ OVC009 14/12 A2994 1060 83 1300 090/09 RMK AO2 TSNO
94908KDBQ DBQ20070505034010905/05/07 03:40:31  5-MIN KDBQ 050940Z AUTO 10009KT 4SM HZ OVC009 14/11 A2994 1060 80 1300 100/09 RMK AO2 TSNO
94908KDBQ DBQ20070505034510905/05/07 03:45:31  5-MIN KDBQ 050945Z AUTO 11009KT 5SM HZ OVC009 14/11 A2994 1060 80 1300 100/09 RMK AO2 TSNO
94908KDBQ DBQ20070505035012605/05/07 03:50:31  5-MIN KDBQ 050950Z AUTO 11007KT 5SM HZ OVC009 14/11 A2995 1050 80 1300 110/07 RMK AO2 SLP140 T01440111 TSNO
94908KDBQ DBQ20070505035512605/05/07 03:55:31  5-MIN KDBQ 050955Z AUTO 10008KT 5SM HZ OVC009 14/11 A2995 1050 80 1300 100/08 RMK AO2 SLP142 T01440111 TSNO
94908KDBQ DBQ20070505040010905/05/07 04:00:31  5-MIN KDBQ 051000Z AUTO 11008KT 5SM HZ OVC009 14/11 A2995 1050 80 1300 100/08 RMK AO2 TSNO
94908KDBQ DBQ20070505040510905/05/07 04:05:31  5-MIN KDBQ 051005Z AUTO 10007KT 5SM HZ OVC009 14/11 A2996 1040 80 1300 100/07 RMK AO2 TSNO
94908KDBQ DBQ20070505041010905/05/07 04:10:31  5-MIN KDBQ 051010Z AUTO 10008KT 5SM HZ OVC009 14/11 A2996 1040 80 1300 100/08 RMK AO2 TSNO
94908KDBQ DBQ20070505041510905/05/07 04:15:31  5-MIN KDBQ 051015Z AUTO 11008KT 5SM HZ OVC009 14/11 A2996 1040 80 1300 100/08 RMK AO2 TSNO
94908KDBQ DBQ20070505042010905/05/07 04:20:31  5-MIN KDBQ 051020Z AUTO 11008KT 5SM HZ OVC009 14/11 A2996 1040 80 1300 110/08 RMK AO2 TSNO
94908KDBQ DBQ20070505042510905/05/07 04:25:31  5-MIN KDBQ 051025Z AUTO 10008KT 5SM HZ OVC011 14/11 A2996 1040 80 1300 100/08 RMK AO2 TSNO
94908KDBQ DBQ20070505043010905/05/07 04:30:31  5-MIN KDBQ 051030Z AUTO 10009KT 5SM HZ OVC011 14/11 A2996 1040 80 1300 100/09 RMK AO2 TSNO
94908KDBQ DBQ20070505043510905/05/07 04:35:31  5-MIN KDBQ 051035Z AUTO 10011KT 5SM HZ OVC011 14/11 A2996 1040 80 1300 100/11 RMK AO2 TSNO
94908KDBQ DBQ20070505044010905/05/07 04:40:31  5-MIN KDBQ 051040Z AUTO 10011KT 5SM HZ OVC011 14/11 A2996 1040 77 1300 100/11 RMK AO2 TSNO
94908KDBQ DBQ20070505044510905/05/07 04:45:31  5-MIN KDBQ 051045Z AUTO 10009KT 5SM HZ OVC011 14/11 A2996 1040 77 1300 100/09 RMK AO2 TSNO
94908KDBQ DBQ20070505045012605/05/07 04:50:31  5-MIN KDBQ 051050Z AUTO 10008KT 5SM HZ OVC011 14/11 A2996 1040 77 1300 100/08 RMK AO2 SLP146 T01440106 TSNO
94908KDBQ DBQ20070505045511605/05/07 04:55:31  5-MIN KDBQ 051055Z 10008KT 5SM HZ OVC011 14/11 A2997 1030 77 1200 100/08 RMK AO2 SLP147 T01440106
94908KDBQ DBQ20070505050009905/05/07 05:00:31  5-MIN KDBQ 051100Z 10008KT 5SM HZ OVC011 14/11 A2997 1030 77 1200 100/08 RMK AO2
94908KDBQ DBQ20070505050509905/05/07 05:05:31  5-MIN KDBQ 051105Z 10010KT 5SM HZ OVC011 14/11 A2997 1030 77 1200 100/10 RMK AO2
94908KDBQ DBQ20070505051009905/05/07 05:10:31  5-MIN KDBQ 051110Z 10009KT 4SM HZ OVC011 14/11 A2997 1030 77 1200 100/09 RMK AO2
94908KDBQ DBQ20070505051509905/05/07 05:15:31  5-MIN KDBQ 051115Z 10009KT 4SM HZ OVC011 14/11 A2997 1030 77 1200 100/09 RMK AO2
94908KDBQ DBQ20070505052009905/05/07 05:20:31  5-MIN KDBQ 051120Z 10010KT 4SM HZ OVC011 14/10 A2998 1030 74 1200 100/10 RMK AO2
94908KDBQ DBQ20070505052509905/05/07 05:25:31  5-MIN KDBQ 051125Z 10010KT 5SM HZ OVC011 14/10 A2997 1030 74 1200 090/10 RMK AO2
94908KDBQ DBQ20070505053009905/05/07 05:30:31  5-MIN KDBQ 051130Z 10011KT 5SM HZ OVC013 14/10 A2997 1030 74 1200 100/11 RMK AO2
94908KDBQ DBQ20070505053509905/05/07 05:35:31  5-MIN KDBQ 051135Z 09011KT 5SM HZ OVC013 14/10 A2997 1030 74 1200 090/11 RMK AO2
94908KDBQ DBQ20070505054009905/05/07 05:40:31  5-MIN KDBQ 051140Z 10011KT 6SM HZ OVC013 14/09 A2997 1030 72 1200 100/11 RMK AO2
94908KDBQ DBQ20070505054509905/05/07 05:45:31  5-MIN KDBQ 051145Z 10010KT 6SM HZ OVC013 14/09 A2997 1030 72 1200 100/10 RMK AO2
94908KDBQ DBQ20070505055014005/05/07 05:50:31  5-MIN KDBQ 051150Z 09010KT 6SM HZ OVC013 14/09 A2998 1030 72 1200 090/10 RMK AO2 SLP151 70001 T01440094 10150 20144 51001
94908KDBQ DBQ20070505055514005/05/07 05:55:31  5-MIN KDBQ 051155Z 09008KT 6SM HZ OVC013 14/09 A2998 1020 72 1200 090/08 RMK AO2 SLP153 70001 T01440094 10150 20144 53006
94908KDBQ DBQ20070505060009605/05/07 06:00:31  5-MIN KDBQ 051200Z 10009KT 7SM OVC013 14/09 A2999 1020 72 1200 100/09 RMK AO2
94908KDBQ DBQ20070505060509605/05/07 06:05:31  5-MIN KDBQ 051205Z 10010KT 7SM OVC015 14/09 A2999 1010 72 1200 100/10 RMK AO2
94908KDBQ DBQ20070505061009605/05/07 06:10:31  5-MIN KDBQ 051210Z 10009KT 7SM OVC015 14/09 A2999 1010 72 1200 100/09 RMK AO2
94908KDBQ DBQ20070505061509605/05/07 06:15:31  5-MIN KDBQ 051215Z 10010KT 7SM OVC015 14/09 A2999 1010 69 1200 100/10 RMK AO2
94908KDBQ DBQ20070505062009605/05/07 06:20:31  5-MIN KDBQ 051220Z 09011KT 8SM OVC015 14/09 A3000 1010 69 1200 090/11 RMK AO2
94908KDBQ DBQ20070505062509605/05/07 06:25:31  5-MIN KDBQ 051225Z 10010KT 8SM OVC015 14/09 A2999 1010 69 1200 100/10 RMK AO2
94908KDBQ DBQ20070505063009605/05/07 06:30:31  5-MIN KDBQ 051230Z 10010KT 9SM OVC015 14/09 A2999 1010 69 1200 100/10 RMK AO2
94908KDBQ DBQ20070505063509605/05/07 06:35:31  5-MIN KDBQ 051235Z 10009KT 9SM OVC015 14/08 A3000 1010 66 1200 100/09 RMK AO2
94908KDBQ DBQ20070505064009605/05/07 06:40:31  5-MIN KDBQ 051240Z 10010KT 9SM OVC015 14/08 A3000 1010 66 1200 100/10 RMK AO2
94908KDBQ DBQ20070505064509705/05/07 06:45:31  5-MIN KDBQ 051245Z 10008KT 10SM OVC015 14/08 A3000 1010 66 1200 100/08 RMK AO2
94908KDBQ DBQ20070505065011405/05/07 06:50:31  5-MIN KDBQ 051250Z 10010KT 10SM OVC015 14/08 A3000 1010 66 1200 100/10 RMK AO2 SLP158 T01440083
94908KDBQ DBQ20070505065511405/05/07 06:55:31  5-MIN KDBQ 051255Z 10009KT 10SM OVC015 14/08 A3000 1000 66 1200 100/09 RMK AO2 SLP159 T01440083
94908KDBQ DBQ20070505070009705/05/07 07:00:31  5-MIN KDBQ 051300Z 10010KT 10SM OVC015 15/08 A3000 1000 64 1300 100/10 RMK AO2
94908KDBQ DBQ20070505070509705/05/07 07:05:31  5-MIN KDBQ 051305Z 11010KT 10SM OVC015 15/08 A3000 1000 64 1300 110/10 RMK AO2
94908KDBQ DBQ20070505071010405/05/07 07:10:31  5-MIN KDBQ 051310Z 10008KT 10SM BKN015 OVC020 15/08 A3000 1000 64 1300 100/08 RMK AO2
94908KDBQ DBQ20070505071509705/05/07 07:15:31  5-MIN KDBQ 051315Z 10010KT 10SM OVC015 15/08 A3000 1000 64 1300 100/10 RMK AO2
94908KDBQ DBQ20070505072009705/05/07 07:20:31  5-MIN KDBQ 051320Z 10010KT 10SM OVC015 15/08 A3000 1000 64 1300 100/10 RMK AO2
94908KDBQ DBQ20070505072509705/05/07 07:25:31  5-MIN KDBQ 051325Z 10010KT 10SM OVC015 15/08 A3001 1000 62 1300 100/10 RMK AO2
94908KDBQ DBQ20070505073009705/05/07 07:30:31  5-MIN KDBQ 051330Z 10011KT 10SM OVC015 15/08 A3000 1000 62 1300 100/11 RMK AO2
94908KDBQ DBQ20070505073509705/05/07 07:35:31  5-MIN KDBQ 051335Z 11011KT 10SM OVC015 15/08 A3001 1000 62 1300 100/11 RMK AO2
94908KDBQ DBQ20070505074009705/05/07 07:40:31  5-MIN KDBQ 051340Z 10011KT 10SM OVC017 15/08 A3001 1000 62 1300 100/11 RMK AO2
94908KDBQ DBQ20070505074509705/05/07 07:45:31  5-MIN KDBQ 051345Z 10013KT 10SM OVC017 15/08 A3001 1000 62 1300 100/13 RMK AO2
94908KDBQ DBQ20070505075011405/05/07 07:50:31  5-MIN KDBQ 051350Z 10011KT 10SM OVC017 15/08 A3001 1000 62 1300 100/11 RMK AO2 SLP162 T01500078
94908KDBQ DBQ20070505075511405/05/07 07:55:31  5-MIN KDBQ 051355Z 10012KT 10SM OVC019 15/08 A3001 1000 62 1300 100/12 RMK AO2 SLP162 T01500078
94908KDBQ DBQ20070505080009705/05/07 08:00:31  5-MIN KDBQ 051400Z 09012KT 10SM OVC019 15/07 A3001 1000 59 1300 090/12 RMK AO2
94908KDBQ DBQ20070505080509705/05/07 08:05:31  5-MIN KDBQ 051405Z 10010KT 10SM OVC021 15/07 A3001 1000 59 1300 100/10 RMK AO2
94908KDBQ DBQ20070505081009705/05/07 08:10:31  5-MIN KDBQ 051410Z 09012KT 10SM OVC021 15/08 A3000 1000 62 1300 090/12 RMK AO2
94908KDBQ DBQ20070505081509705/05/07 08:15:31  5-MIN KDBQ 051415Z 09013KT 10SM OVC021 15/07 A3000 1000 59 1300 090/13 RMK AO2
94908KDBQ DBQ20070505082009705/05/07 08:20:31  5-MIN KDBQ 051420Z 09014KT 10SM OVC021 15/07 A3001 1000 59 1300 090/14 RMK AO2
94908KDBQ DBQ20070505082510305/05/07 08:25:31  5-MIN KDBQ 051425Z 10008G16KT 10SM OVC021 15/07 A3001 1000 59 1300 100/08G16 RMK AO2
94908KDBQ DBQ20070505083009705/05/07 08:30:31  5-MIN KDBQ 051430Z 09010KT 10SM OVC019 16/07 A3001 1000 57 1300 090/10 RMK AO2
94908KDBQ DBQ20070505083509705/05/07 08:35:31  5-MIN KDBQ 051435Z 10010KT 10SM OVC019 16/08 A3001 1000 59 1300 100/10 RMK AO2
94908KDBQ DBQ20070505084009705/05/07 08:40:31  5-MIN KDBQ 051440Z 09009KT 10SM OVC019 16/08 A3001 1000 59 1300 090/09 RMK AO2
94908KDBQ DBQ20070505084509705/05/07 08:45:31  5-MIN KDBQ 051445Z 09010KT 10SM OVC017 16/08 A3001 1000 57 1400 090/10 RMK AO2
94908KDBQ DBQ20070505085012005/05/07 08:50:31  5-MIN KDBQ 051450Z 10011KT 10SM OVC017 17/08 A3000 1000 55 1500 100/11 RMK AO2 SLP159 T01670078 53006
94908KDBQ DBQ20070505085512605/05/07 08:55:31  5-MIN KDBQ 051455Z 09013G18KT 10SM BKN017 17/08 A3000 1010 57 1500 080/13G18 RMK AO2 SLP158 T01670083 50006
94908KDBQ DBQ20070505090009705/05/07 09:00:31  5-MIN KDBQ 051500Z 08013KT 10SM BKN017 17/08 A3000 1010 55 1500 080/13 RMK AO2
94908KDBQ DBQ20070505090509705/05/07 09:05:31  5-MIN KDBQ 051505Z 09011KT 10SM SCT017 17/08 A3000 1000 57 1500 090/11 RMK AO2
94908KDBQ DBQ20070505091009705/05/07 09:10:31  5-MIN KDBQ 051510Z 09010KT 10SM FEW017 17/08 A3000 1000 57 1500 090/10 RMK AO2
94908KDBQ DBQ20070505091509705/05/07 09:15:31  5-MIN KDBQ 051515Z 09013KT 10SM FEW017 17/08 A3000 1010 57 1500 090/13 RMK AO2
94908KDBQ DBQ20070505092009405/05/07 09:20:31  5-MIN KDBQ 051520Z 09011KT 10SM CLR 17/08 A3000 1000 57 1500 090/11 RMK AO2
94908KDBQ DBQ20070505092509405/05/07 09:25:31  5-MIN KDBQ 051525Z 09011KT 10SM CLR 17/08 A3001 1000 55 1500 090/11 RMK AO2
94908KDBQ DBQ20070505093009605/05/07 09:30:31  5-MIN KDBQ 051530Z 08012KT 10SM FEW018 17/08 A3001 990 55 1500 080/12 RMK AO2
94908KDBQ DBQ20070505093509705/05/07 09:35:31  5-MIN KDBQ 051535Z 09011KT 10SM SCT018 17/09 A3001 1000 57 1500 090/11 RMK AO2
94908KDBQ DBQ20070505094009705/05/07 09:40:31  5-MIN KDBQ 051540Z 09011KT 10SM SCT018 17/09 A3001 1000 57 1500 090/11 RMK AO2
94908KDBQ DBQ20070505094509705/05/07 09:45:31  5-MIN KDBQ 051545Z 09010KT 10SM BKN018 17/09 A3000 1000 57 1500 090/10 RMK AO2
94908KDBQ DBQ20070505095011405/05/07 09:50:31  5-MIN KDBQ 051550Z 09011KT 10SM BKN018 18/09 A3000 1000 55 1600 090/11 RMK AO2 SLP159 T01780089
94908KDBQ DBQ20070505095511405/05/07 09:55:31  5-MIN KDBQ 051555Z 09012KT 10SM SCT018 18/09 A3000 1000 58 1600 090/12 RMK AO2 SLP158 T01780094
94908KDBQ DBQ20070505100009705/05/07 10:00:31  5-MIN KDBQ 051600Z 08013KT 10SM SCT018 18/09 A3000 1010 58 1600 080/13 RMK AO2
94908KDBQ DBQ20070505100509705/05/07 10:05:31  5-MIN KDBQ 051605Z 08014KT 10SM FEW018 18/10 A3000 1010 58 1700 080/14 RMK AO2
94908KDBQ DBQ20070505101009705/05/07 10:10:31  5-MIN KDBQ 051610Z 08014KT 10SM FEW018 18/10 A3000 1010 58 1700 080/14 RMK AO2
94908KDBQ DBQ20070505101510005/05/07 10:15:31  5-MIN KDBQ 051615Z 08012G19KT 10SM CLR 18/10 A3000 1010 58 1700 080/12G19 RMK AO2
94908KDBQ DBQ20070505102010005/05/07 10:20:31  5-MIN KDBQ 051620Z 08014G19KT 10SM CLR 18/10 A3000 1000 58 1700 080/14G19 RMK AO2
94908KDBQ DBQ20070505102510005/05/07 10:25:31  5-MIN KDBQ 051625Z 07012G19KT 10SM CLR 18/10 A3001 1000 58 1700 070/12G19 RMK AO2
94908KDBQ DBQ20070505103010005/05/07 10:30:31  5-MIN KDBQ 051630Z 07013G18KT 10SM CLR 19/10 A3001 1000 56 1700 070/13G18 RMK AO2
94908KDBQ DBQ20070505103509305/05/07 10:35:31  5-MIN KDBQ 051635Z 08013KT 10SM CLR 19/11 A3001 990 58 1700 080/13 RMK AO2
94908KDBQ DBQ20070505104009305/05/07 10:40:31  5-MIN KDBQ 051640Z 08011KT 10SM CLR 19/11 A3002 990 56 1800 080/11 RMK AO2
94908KDBQ DBQ20070505104509305/05/07 10:45:31  5-MIN KDBQ 051645Z 10012KT 10SM CLR 19/11 A3002 980 58 1700 090/12 RMK AO2
94908KDBQ DBQ20070505105011605/05/07 10:50:31  5-MIN KDBQ 051650Z 09013G18KT 10SM CLR 19/11 A3003 980 60 1700 090/13G18 RMK AO2 SLP167 T01890111
94908KDBQ DBQ20070505105511605/05/07 10:55:31  5-MIN KDBQ 051655Z 09010G18KT 10SM CLR 19/11 A3003 970 58 1800 090/10G18 RMK AO2 SLP168 T01940111
94908KDBQ DBQ20070505110009305/05/07 11:00:31  5-MIN KDBQ 051700Z 09010KT 10SM CLR 19/11 A3003 970 56 1800 090/10 RMK AO2
94908KDBQ DBQ20070505110509305/05/07 11:05:31  5-MIN KDBQ 051705Z 08008KT 10SM CLR 19/11 A3004 970 56 1800 080/08 RMK AO2
94908KDBQ DBQ20070505111009305/05/07 11:10:31  5-MIN KDBQ 051710Z 08010KT 10SM CLR 19/11 A3004 970 56 1800 080/10 RMK AO2
94908KDBQ DBQ20070505111509305/05/07 11:15:31  5-MIN KDBQ 051715Z 07009KT 10SM CLR 19/11 A3003 970 58 1800 070/09 RMK AO2
94908KDBQ DBQ20070505112009305/05/07 11:20:31  5-MIN KDBQ 051720Z 08012KT 10SM CLR 19/11 A3003 980 56 1800 080/12 RMK AO2
94908KDBQ DBQ20070505112509805/05/07 11:25:31  5-MIN KDBQ 051725Z 09012G17KT 9SM CLR 19/11 A3003 970 58 1800 090/12G17 RMK AO2
94908KDBQ DBQ20070505113009805/05/07 11:30:31  5-MIN KDBQ 051730Z 11010G17KT 9SM CLR 19/11 A3004 970 58 1800 100/10G17 RMK AO2
94908KDBQ DBQ20070505113509205/05/07 11:35:31  5-MIN KDBQ 051735Z 11011KT 8SM CLR 19/11 A3004 970 58 1800 110/11 RMK AO2
94908KDBQ DBQ20070505114009205/05/07 11:40:31  5-MIN KDBQ 051740Z 08011KT 9SM CLR 20/11 A3004 970 56 1800 080/11 RMK AO2
94908KDBQ DBQ20070505114509805/05/07 11:45:31  5-MIN KDBQ 051745Z 07012G15KT 9SM CLR 19/11 A3003 980 58 1800 070/12G15 RMK AO2
94908KDBQ DBQ20070505115013305/05/07 11:50:31  5-MIN KDBQ 051750Z 09011G16KT 9SM CLR 19/11 A3003 980 58 1800 090/11G16 RMK AO2 SLP168 T01940111 10200 20144 50006
94908KDBQ DBQ20070505115512705/05/07 11:55:31  5-MIN KDBQ 051755Z 09009KT 9SM CLR 19/11 A3003 980 56 1800 090/09 RMK AO2 SLP167 T01940106 10200 20144 50010
94908KDBQ DBQ20070505120009305/05/07 12:00:31  5-MIN KDBQ 051800Z 06012KT 10SM CLR 20/11 A3003 980 56 1800 060/12 RMK AO2
94908KDBQ DBQ20070505120509305/05/07 12:05:31  5-MIN KDBQ 051805Z 06012KT 10SM CLR 20/11 A3003 980 56 1800 060/12 RMK AO2
94908KDBQ DBQ20070505121009305/05/07 12:10:31  5-MIN KDBQ 051810Z 07011KT 10SM CLR 20/11 A3003 980 56 1800 070/11 RMK AO2
94908KDBQ DBQ20070505121509305/05/07 12:15:31  5-MIN KDBQ 051815Z 07014KT 10SM CLR 20/11 A3003 980 56 1800 070/14 RMK AO2
94908KDBQ DBQ20070505122009305/05/07 12:20:31  5-MIN KDBQ 051820Z 07015KT 10SM CLR 19/11 A3003 980 58 1700 070/15 RMK AO2
94908KDBQ DBQ20070505122509305/05/07 12:25:31  5-MIN KDBQ 051825Z 08012KT 10SM CLR 19/11 A3003 980 58 1800 080/12 RMK AO2
94908KDBQ DBQ20070505123009305/05/07 12:30:31  5-MIN KDBQ 051830Z 07015KT 10SM CLR 21/11 A3003 980 54 1900 070/15 RMK AO2
94908KDBQ DBQ20070505123509905/05/07 12:35:31  5-MIN KDBQ 051835Z 09013G19KT 10SM CLR 20/11 A3003 980 56 1800 090/13G19 RMK AO2
94908KDBQ DBQ20070505124009905/05/07 12:40:31  5-MIN KDBQ 051840Z 08013G19KT 10SM CLR 20/11 A3003 980 56 1800 080/13G19 RMK AO2
94908KDBQ DBQ20070505124509905/05/07 12:45:31  5-MIN KDBQ 051845Z 07016G20KT 10SM CLR 19/11 A3003 980 56 1800 070/16G20 RMK AO2
94908KDBQ DBQ20070505125011605/05/07 12:50:31  5-MIN KDBQ 051850Z 08015G20KT 10SM CLR 19/10 A3003 980 56 1700 080/15G20 RMK AO2 SLP168 T01890100
94908KDBQ DBQ20070505125511005/05/07 12:55:31  5-MIN KDBQ 051855Z 07016KT 10SM CLR 19/11 A3003 970 56 1800 070/16 RMK AO2 SLP168 T01940106
94908KDBQ DBQ20070505130009305/05/07 13:00:31  5-MIN KDBQ 051900Z 07014KT 10SM CLR 19/11 A3003 970 58 1700 070/14 RMK AO2
94908KDBQ DBQ20070505130509305/05/07 13:05:31  5-MIN KDBQ 051905Z 08013KT 10SM CLR 19/11 A3003 970 58 1700 080/13 RMK AO2
94908KDBQ DBQ20070505131009305/05/07 13:10:31  5-MIN KDBQ 051910Z 07014KT 10SM CLR 19/11 A3004 970 58 1700 070/14 RMK AO2
94908KDBQ DBQ20070505131509305/05/07 13:15:31  5-MIN KDBQ 051915Z 07013KT 10SM CLR 19/11 A3004 970 58 1700 070/13 RMK AO2
94908KDBQ DBQ20070505132009205/05/07 13:20:31  5-MIN KDBQ 051920Z 07013KT 9SM CLR 19/11 A3004 970 60 1700 070/13 RMK AO2
94908KDBQ DBQ20070505132509905/05/07 13:25:31  5-MIN KDBQ 051925Z 08016G21KT 10SM CLR 19/11 A3004 970 58 1800 080/16G21 RMK AO2
94908KDBQ DBQ20070505133009905/05/07 13:30:31  5-MIN KDBQ 051930Z 08011G21KT 10SM CLR 20/11 A3004 970 56 1800 080/11G21 RMK AO2
94908KDBQ DBQ20070505133509305/05/07 13:35:31  5-MIN KDBQ 051935Z 08013KT 10SM CLR 20/11 A3004 970 56 1800 080/13 RMK AO2
94908KDBQ DBQ20070505134009605/05/07 13:40:31  5-MIN KDBQ 051940Z 09014KT 10SM FEW025 21/11 A3004 970 54 1900 090/14 RMK AO2
94908KDBQ DBQ20070505134509605/05/07 13:45:31  5-MIN KDBQ 051945Z 09012KT 10SM SCT025 20/11 A3004 970 54 1800 090/12 RMK AO2
94908KDBQ DBQ20070505135011905/05/07 13:50:31  5-MIN KDBQ 051950Z 09013G23KT 10SM FEW025 20/11 A3004 970 54 1800 090/13G23 RMK AO2 SLP171 T02000106
94908KDBQ DBQ20070505135511905/05/07 13:55:31  5-MIN KDBQ 051955Z 08012G23KT 10SM SCT025 21/11 A3004 970 54 1900 080/12G23 RMK AO2 SLP171 T02060111
94908KDBQ DBQ20070505140010205/05/07 14:00:31  5-MIN KDBQ 052000Z 08015G20KT 10SM SCT025 21/11 A3004 970 54 1900 070/15G20 RMK AO2
94908KDBQ DBQ20070505140510205/05/07 14:05:31  5-MIN KDBQ 052005Z 07016G20KT 10SM BKN025 20/11 A3004 960 56 1800 070/16G20 RMK AO2
94908KDBQ DBQ20070505141009605/05/07 14:10:31  5-MIN KDBQ 052010Z 09014KT 10SM SCT025 20/11 A3004 960 54 1800 090/14 RMK AO2
94908KDBQ DBQ20070505141510205/05/07 14:15:31  5-MIN KDBQ 052015Z 09016G21KT 10SM SCT025 20/10 A3005 960 52 1800 090/16G21 RMK AO2
94908KDBQ DBQ20070505142010205/05/07 14:20:31  5-MIN KDBQ 052020Z 10016G21KT 10SM SCT025 20/11 A3005 960 54 1800 100/16G21 RMK AO2
94908KDBQ DBQ20070505142510205/05/07 14:25:31  5-MIN KDBQ 052025Z 09014G21KT 10SM SCT025 20/10 A3005 960 52 1800 090/14G21 RMK AO2
94908KDBQ DBQ20070505143010205/05/07 14:30:31  5-MIN KDBQ 052030Z 10015G20KT 10SM SCT025 20/10 A3005 960 52 1800 100/15G20 RMK AO2
94908KDBQ DBQ20070505143510205/05/07 14:35:31  5-MIN KDBQ 052035Z 09016G20KT 10SM SCT025 19/10 A3005 960 54 1700 090/16G20 RMK AO2
94908KDBQ DBQ20070505144010205/05/07 14:40:31  5-MIN KDBQ 052040Z 09013G21KT 10SM SCT025 19/09 A3005 960 52 1700 090/13G21 RMK AO2
94908KDBQ DBQ20070505144510205/05/07 14:45:31  5-MIN KDBQ 052045Z 08014G21KT 10SM SCT025 19/10 A3006 950 54 1700 080/14G21 RMK AO2
94908KDBQ DBQ20070505145011905/05/07 14:50:31  5-MIN KDBQ 052050Z 09014KT 10SM OVC031 19/09 A3006 950 52 1700 090/14 RMK AO2 SLP176 T01940094 50010
94908KDBQ DBQ20070505145511905/05/07 14:55:31  5-MIN KDBQ 052055Z 08015KT 10SM OVC033 20/09 A3006 950 50 1800 080/15 RMK AO2 SLP176 T02000094 53008
94908KDBQ DBQ20070505150009605/05/07 15:00:31  5-MIN KDBQ 052100Z 09016KT 10SM OVC033 20/09 A3006 950 50 1800 090/16 RMK AO2
94908KDBQ DBQ20070505150510205/05/07 15:05:31  5-MIN KDBQ 052105Z 09014G20KT 10SM BKN033 20/09 A3005 960 50 1800 090/14G20 RMK AO2
94908KDBQ DBQ20070505151010205/05/07 15:10:31  5-MIN KDBQ 052110Z 09011G20KT 10SM BKN033 21/10 A3005 960 50 1900 090/11G20 RMK AO2
94908KDBQ DBQ20070505151510205/05/07 15:15:31  5-MIN KDBQ 052115Z 08014G22KT 10SM SCT033 21/10 A3005 960 50 1900 080/14G22 RMK AO2
94908KDBQ DBQ20070505152010205/05/07 15:20:31  5-MIN KDBQ 052120Z 08014G22KT 10SM SCT033 21/10 A3006 950 48 1900 080/14G22 RMK AO2
94908KDBQ DBQ20070505152509605/05/07 15:25:31  5-MIN KDBQ 052125Z 09013KT 10SM FEW033 21/11 A3005 950 50 1900 090/13 RMK AO2
94908KDBQ DBQ20070505153009905/05/07 15:30:31  5-MIN KDBQ 052130Z 09016G22KT 10SM CLR 21/10 A3005 950 48 1900 090/16G22 RMK AO2
94908KDBQ DBQ20070505153509905/05/07 15:35:31  5-MIN KDBQ 052135Z 09015G23KT 10SM CLR 21/11 A3005 960 50 1900 090/15G23 RMK AO2
94908KDBQ DBQ20070505154009905/05/07 15:40:31  5-MIN KDBQ 052140Z 10017G23KT 10SM CLR 21/10 A3005 960 48 1900 100/17G23 RMK AO2
94908KDBQ DBQ20070505154509905/05/07 15:45:31  5-MIN KDBQ 052145Z 10014G24KT 10SM CLR 21/10 A3005 960 48 1900 100/14G24 RMK AO2
94908KDBQ DBQ20070505155011605/05/07 15:50:31  5-MIN KDBQ 052150Z 10015G24KT 10SM CLR 21/10 A3005 960 50 1900 090/15G24 RMK AO2 SLP173 T02060100
94908KDBQ DBQ20070505155511605/05/07 15:55:31  5-MIN KDBQ 052155Z 09015G21KT 10SM CLR 21/10 A3005 960 48 1900 090/15G21 RMK AO2 SLP174 T02110100
94908KDBQ DBQ20070505160009905/05/07 16:00:31  5-MIN KDBQ 052200Z 10014G21KT 10SM CLR 21/09 A3005 960 48 1900 100/14G21 RMK AO2
94908KDBQ DBQ20070505160509905/05/07 16:05:31  5-MIN KDBQ 052205Z 11014G21KT 10SM CLR 21/09 A3005 960 48 1900 100/14G21 RMK AO2
94908KDBQ DBQ20070505161009905/05/07 16:10:31  5-MIN KDBQ 052210Z 10015G22KT 10SM CLR 20/09 A3005 960 48 1800 100/15G22 RMK AO2
94908KDBQ DBQ20070505161509905/05/07 16:15:31  5-MIN KDBQ 052215Z 10017G22KT 10SM CLR 20/09 A3006 950 48 1800 100/17G22 RMK AO2
94908KDBQ DBQ20070505162009905/05/07 16:20:31  5-MIN KDBQ 052220Z 09016G23KT 10SM CLR 20/09 A3006 950 48 1800 090/16G23 RMK AO2
94908KDBQ DBQ20070505162509905/05/07 16:25:31  5-MIN KDBQ 052225Z 10014G23KT 10SM CLR 20/09 A3006 950 48 1800 100/14G23 RMK AO2
94908KDBQ DBQ20070505163009905/05/07 16:30:31  5-MIN KDBQ 052230Z 10014G23KT 10SM CLR 20/09 A3006 950 48 1800 100/14G23 RMK AO2
94908KDBQ DBQ20070505163509905/05/07 16:35:31  5-MIN KDBQ 052235Z 10018G23KT 10SM CLR 20/09 A3006 950 48 1800 100/18G23 RMK AO2
94908KDBQ DBQ20070505164009905/05/07 16:40:31  5-MIN KDBQ 052240Z 09017G24KT 10SM CLR 20/08 A3006 950 46 1800 090/17G24 RMK AO2
94908KDBQ DBQ20070505164509905/05/07 16:45:31  5-MIN KDBQ 052245Z 10015G24KT 10SM CLR 20/08 A3007 940 46 1800 100/15G24 RMK AO2
94908KDBQ DBQ20070505165011605/05/07 16:50:31  5-MIN KDBQ 052250Z 10014G21KT 10SM CLR 20/09 A3007 940 48 1800 090/14G21 RMK AO2 SLP180 T02000089
94908KDBQ DBQ20070505165511605/05/07 16:55:31  5-MIN KDBQ 052255Z 10012G19KT 10SM CLR 20/09 A3007 940 48 1800 100/12G19 RMK AO2 SLP180 T02000089
94908KDBQ DBQ20070505170009905/05/07 17:00:31  5-MIN KDBQ 052300Z 10015G20KT 10SM CLR 20/09 A3007 940 48 1800 090/15G20 RMK AO2
94908KDBQ DBQ20070505170509905/05/07 17:05:31  5-MIN KDBQ 052305Z 09017G21KT 10SM CLR 20/09 A3007 940 48 1800 090/17G21 RMK AO2
94908KDBQ DBQ20070505171009905/05/07 17:10:31  5-MIN KDBQ 052310Z 10015G22KT 10SM CLR 20/09 A3007 940 48 1800 100/15G22 RMK AO2
94908KDBQ DBQ20070505171509905/05/07 17:15:31  5-MIN KDBQ 052315Z 09013G22KT 10SM CLR 20/09 A3007 940 48 1800 090/13G22 RMK AO2
94908KDBQ DBQ20070505172009905/05/07 17:20:31  5-MIN KDBQ 052320Z 09015G19KT 10SM CLR 19/09 A3007 940 50 1700 090/15G19 RMK AO2
94908KDBQ DBQ20070505172509905/05/07 17:25:31  5-MIN KDBQ 052325Z 09015G22KT 10SM CLR 19/09 A3007 940 50 1700 090/15G22 RMK AO2
94908KDBQ DBQ20070505173009905/05/07 17:30:31  5-MIN KDBQ 052330Z 08020G23KT 10SM CLR 19/09 A3007 940 50 1700 080/20G23 RMK AO2
94908KDBQ DBQ20070505173509905/05/07 17:35:31  5-MIN KDBQ 052335Z 10016G24KT 10SM CLR 19/08 A3006 950 48 1700 100/16G24 RMK AO2
94908KDBQ DBQ20070505174009905/05/07 17:40:31  5-MIN KDBQ 052340Z 09016G24KT 10SM CLR 19/08 A3007 940 50 1700 090/16G24 RMK AO2
94908KDBQ DBQ20070505174511705/05/07 17:45:31  5-MIN KDBQ 052345Z 09020G26KT 10SM CLR 19/08 A3007 940 48 1700 090/20G26 RMK AO2 PK WND 09026/2344
94908KDBQ DBQ20070505175016205/05/07 17:50:31  5-MIN KDBQ 052350Z AUTO 09017G26KT 10SM CLR 19/08 A3007 940 48 1600 090/17G26 RMK AO2 PK WND 09026/2344 SLP182 T01890078 10211 20189 53008 TSNO
94908KDBQ DBQ20070505175516205/05/07 17:55:31  5-MIN KDBQ 052355Z AUTO 09016G24KT 10SM CLR 19/08 A3007 940 48 1700 090/16G24 RMK AO2 PK WND 09026/2344 SLP181 T01890078 10211 20189 53005 TSNO
94908KDBQ DBQ20070505180010905/05/07 18:00:31  5-MIN KDBQ 060000Z AUTO 09014G22KT 10SM CLR 19/08 A3007 940 48 1600 090/14G22 RMK AO2 TSNO
94908KDBQ DBQ20070505180510905/05/07 18:05:31  5-MIN KDBQ 060005Z AUTO 09018G22KT 10SM CLR 19/08 A3008 930 48 1600 090/18G22 RMK AO2 TSNO
94908KDBQ DBQ20070505181010905/05/07 18:10:31  5-MIN KDBQ 060010Z AUTO 09018G23KT 10SM CLR 19/07 A3008 930 46 1600 090/18G23 RMK AO2 TSNO
94908KDBQ DBQ20070505181510905/05/07 18:15:31  5-MIN KDBQ 060015Z AUTO 09018G25KT 10SM CLR 19/07 A3008 930 46 1600 090/18G25 RMK AO2 TSNO
94908KDBQ DBQ20070505182010905/05/07 18:20:31  5-MIN KDBQ 060020Z AUTO 10019G25KT 10SM CLR 18/07 A3008 930 46 1600 090/19G25 RMK AO2 TSNO
94908KDBQ DBQ20070505182510905/05/07 18:25:31  5-MIN KDBQ 060025Z AUTO 09017G24KT 10SM CLR 18/07 A3008 930 46 1600 090/17G24 RMK AO2 TSNO
94908KDBQ DBQ20070505183010905/05/07 18:30:31  5-MIN KDBQ 060030Z AUTO 09014G24KT 10SM CLR 18/07 A3008 930 46 1600 090/14G24 RMK AO2 TSNO
94908KDBQ DBQ20070505183510905/05/07 18:35:31  5-MIN KDBQ 060035Z AUTO 09012G22KT 10SM CLR 18/07 A3009 930 46 1600 090/12G22 RMK AO2 TSNO
94908KDBQ DBQ20070505184010905/05/07 18:40:31  5-MIN KDBQ 060040Z AUTO 10014G22KT 10SM CLR 18/07 A3009 930 46 1600 100/14G22 RMK AO2 TSNO
94908KDBQ DBQ20070505184510905/05/07 18:45:31  5-MIN KDBQ 060045Z AUTO 10018G24KT 10SM CLR 18/06 A3009 920 44 1600 100/18G24 RMK AO2 TSNO
94908KDBQ DBQ20070505185012605/05/07 18:50:31  5-MIN KDBQ 060050Z AUTO 10017G24KT 10SM CLR 18/06 A3009 920 44 1600 100/17G24 RMK AO2 SLP188 T01830061 TSNO
94908KDBQ DBQ20070505185512605/05/07 18:55:31  5-MIN KDBQ 060055Z AUTO 11019G25KT 10SM CLR 18/06 A3009 920 42 1600 100/19G25 RMK AO2 SLP188 T01830056 TSNO
94908KDBQ DBQ20070505190012705/05/07 19:00:31  5-MIN KDBQ 060100Z AUTO 10020G29KT 10SM CLR 18/06 A3009 920 44 1500 100/20G29 RMK AO2 PK WND 10029/0100 TSNO
94908KDBQ DBQ20070505190512705/05/07 19:05:31  5-MIN KDBQ 060105Z AUTO 10017G29KT 10SM CLR 18/05 A3009 920 42 1500 100/17G29 RMK AO2 PK WND 10029/0100 TSNO
94908KDBQ DBQ20070505191012705/05/07 19:10:31  5-MIN KDBQ 060110Z AUTO 10014G25KT 10SM CLR 18/05 A3009 920 42 1500 100/14G25 RMK AO2 PK WND 10029/0100 TSNO
94908KDBQ DBQ20070505191512705/05/07 19:15:31  5-MIN KDBQ 060115Z AUTO 10021G28KT 10SM CLR 18/04 A3009 920 41 1500 100/21G28 RMK AO2 PK WND 10029/0100 TSNO
94908KDBQ DBQ20070505192012705/05/07 19:20:31  5-MIN KDBQ 060120Z AUTO 11018G28KT 10SM CLR 18/04 A3009 920 41 1500 110/18G28 RMK AO2 PK WND 10029/0100 TSNO
94908KDBQ DBQ20070505192512705/05/07 19:25:31  5-MIN KDBQ 060125Z AUTO 11014G26KT 10SM CLR 18/04 A3010 920 41 1500 110/14G26 RMK AO2 PK WND 10029/0100 TSNO
94908KDBQ DBQ20070505193012705/05/07 19:30:31  5-MIN KDBQ 060130Z AUTO 11016G22KT 10SM CLR 18/04 A3010 910 41 1500 110/16G22 RMK AO2 PK WND 10029/0100 TSNO
94908KDBQ DBQ20070505193512705/05/07 19:35:31  5-MIN KDBQ 060135Z AUTO 10017G24KT 10SM CLR 18/04 A3010 910 39 1500 100/17G24 RMK AO2 PK WND 10029/0100 TSNO
94908KDBQ DBQ20070505194012705/05/07 19:40:31  5-MIN KDBQ 060140Z AUTO 11015G24KT 10SM CLR 18/04 A3011 900 39 1500 110/15G24 RMK AO2 PK WND 10029/0100 TSNO
94908KDBQ DBQ20070505194512705/05/07 19:45:31  5-MIN KDBQ 060145Z AUTO 11013G23KT 10SM CLR 18/04 A3011 900 39 1500 110/13G23 RMK AO2 PK WND 10029/0100 TSNO
94908KDBQ DBQ20070505195014405/05/07 19:50:31  5-MIN KDBQ 060150Z AUTO 11016G22KT 10SM CLR 17/04 A3011 900 41 1400 110/16G22 RMK AO2 PK WND 10029/0100 SLP197 T01720039 TSNO
94908KDBQ DBQ20070505195514405/05/07 19:55:31  5-MIN KDBQ 060155Z AUTO 11016G22KT 10SM CLR 18/04 A3012 900 39 1500 110/16G22 RMK AO2 PK WND 10029/0100 SLP197 T01780039 TSNO
94908KDBQ DBQ20070505200010905/05/07 20:00:31  5-MIN KDBQ 060200Z AUTO 11018G25KT 10SM CLR 18/04 A3012 890 39 1500 110/18G25 RMK AO2 TSNO
94908KDBQ DBQ20070505200510905/05/07 20:05:31  5-MIN KDBQ 060205Z AUTO 11017G25KT 10SM CLR 17/03 A3012 890 39 1400 110/17G25 RMK AO2 TSNO
94908KDBQ DBQ20070505201010905/05/07 20:10:31  5-MIN KDBQ 060210Z AUTO 11014G24KT 10SM CLR 17/03 A3013 890 39 1400 110/14G24 RMK AO2 TSNO
94908KDBQ DBQ20070505201510905/05/07 20:15:31  5-MIN KDBQ 060215Z AUTO 11017G23KT 10SM CLR 17/03 A3013 890 39 1400 110/17G23 RMK AO2 TSNO
94908KDBQ DBQ20070505202012705/05/07 20:20:31  5-MIN KDBQ 060220Z AUTO 11017G27KT 10SM CLR 17/03 A3013 880 39 1400 110/17G27 RMK AO2 PK WND 12027/0216 TSNO
94908KDBQ DBQ20070505202512705/05/07 20:25:31  5-MIN KDBQ 060225Z AUTO 11016G27KT 10SM CLR 17/03 A3013 890 39 1400 110/16G27 RMK AO2 PK WND 12027/0216 TSNO
94908KDBQ DBQ20070505203012705/05/07 20:30:31  5-MIN KDBQ 060230Z AUTO 11014G23KT 10SM CLR 17/03 A3013 890 39 1400 110/14G23 RMK AO2 PK WND 12027/0216 TSNO
94908KDBQ DBQ20070505203512105/05/07 20:35:31  5-MIN KDBQ 060235Z AUTO 11015KT 10SM CLR 17/04 A3013 890 41 1400 110/15 RMK AO2 PK WND 12027/0216 TSNO
94908KDBQ DBQ20070505204012705/05/07 20:40:31  5-MIN KDBQ 060240Z AUTO 11017G21KT 10SM CLR 17/04 A3013 890 41 1400 110/17G21 RMK AO2 PK WND 12027/0216 TSNO
94908KDBQ DBQ20070505204512705/05/07 20:45:31  5-MIN KDBQ 060245Z AUTO 11017G25KT 10SM CLR 17/04 A3012 890 41 1400 110/17G25 RMK AO2 PK WND 12027/0216 TSNO
94908KDBQ DBQ20070505205015005/05/07 20:50:31  5-MIN KDBQ 060250Z AUTO 11017G25KT 10SM CLR 17/04 A3012 890 41 1400 110/17G25 RMK AO2 PK WND 12027/0216 SLP199 T01720039 53005 TSNO
94908KDBQ DBQ20070505205515005/05/07 20:55:31  5-MIN KDBQ 060255Z AUTO 11014G22KT 10SM CLR 17/04 A3012 900 42 1300 110/14G22 RMK AO2 PK WND 12027/0216 SLP197 T01670039 51016 TSNO
94908KDBQ DBQ20070505210010905/05/07 21:00:31  5-MIN KDBQ 060300Z AUTO 11016G24KT 10SM CLR 17/04 A3011 900 42 1300 110/16G24 RMK AO2 TSNO
94908KDBQ DBQ20070505210510905/05/07 21:05:31  5-MIN KDBQ 060305Z AUTO 11016G24KT 10SM CLR 17/04 A3012 900 42 1300 110/16G24 RMK AO2 TSNO
94908KDBQ DBQ20070505211010905/05/07 21:10:31  5-MIN KDBQ 060310Z AUTO 11015G21KT 10SM CLR 17/04 A3012 890 42 1300 110/15G21 RMK AO2 TSNO
94908KDBQ DBQ20070505211510905/05/07 21:15:31  5-MIN KDBQ 060315Z AUTO 11013G22KT 10SM CLR 17/04 A3013 890 42 1300 110/13G22 RMK AO2 TSNO
94908KDBQ DBQ20070505212010905/05/07 21:20:31  5-MIN KDBQ 060320Z AUTO 11013G22KT 10SM CLR 17/04 A3013 890 42 1300 110/13G22 RMK AO2 TSNO
94908KDBQ DBQ20070505212510905/05/07 21:25:31  5-MIN KDBQ 060325Z AUTO 11011G19KT 10SM CLR 17/04 A3013 880 42 1300 110/11G19 RMK AO2 TSNO
94908KDBQ DBQ20070505213010905/05/07 21:30:31  5-MIN KDBQ 060330Z AUTO 11012G20KT 10SM CLR 17/04 A3014 880 42 1300 110/12G20 RMK AO2 TSNO
94908KDBQ DBQ20070505213510905/05/07 21:35:31  5-MIN KDBQ 060335Z AUTO 11016G25KT 10SM CLR 16/04 A3014 880 44 1200 100/16G25 RMK AO2 TSNO
94908KDBQ DBQ20070505214010905/05/07 21:40:31  5-MIN KDBQ 060340Z AUTO 11011G25KT 10SM CLR 16/04 A3014 870 44 1200 110/11G25 RMK AO2 TSNO
94908KDBQ DBQ20070505214510905/05/07 21:45:31  5-MIN KDBQ 060345Z AUTO 10013G20KT 10SM CLR 16/04 A3014 870 44 1200 100/13G20 RMK AO2 TSNO
94908KDBQ DBQ20070505215012605/05/07 21:50:31  5-MIN KDBQ 060350Z AUTO 11014G20KT 10SM CLR 16/04 A3014 870 44 1200 110/14G20 RMK AO2 SLP206 T01610039 TSNO
94908KDBQ DBQ20070505215512005/05/07 21:55:31  5-MIN KDBQ 060355Z AUTO 11013KT 10SM CLR 16/04 A3015 860 44 1200 110/13 RMK AO2 SLP209 T01610039 TSNO
94908KDBQ DBQ20070505220010305/05/07 22:00:31  5-MIN KDBQ 060400Z AUTO 11014KT 10SM CLR 16/03 A3016 860 42 1200 110/14 RMK AO2 TSNO
94908KDBQ DBQ20070505220510905/05/07 22:05:31  5-MIN KDBQ 060405Z AUTO 11011G19KT 10SM CLR 16/04 A3016 860 44 1200 110/11G19 RMK AO2 TSNO
94908KDBQ DBQ20070505221010905/05/07 22:10:31  5-MIN KDBQ 060410Z AUTO 11010G19KT 10SM CLR 16/03 A3016 850 42 1200 110/10G19 RMK AO2 TSNO
94908KDBQ DBQ20070505221510905/05/07 22:15:31  5-MIN KDBQ 060415Z AUTO 11012G18KT 10SM CLR 16/03 A3017 850 42 1200 110/12G18 RMK AO2 TSNO
94908KDBQ DBQ20070505222010905/05/07 22:20:31  5-MIN KDBQ 060420Z AUTO 11014G19KT 10SM CLR 16/03 A3017 850 42 1200 110/14G19 RMK AO2 TSNO
94908KDBQ DBQ20070505222510905/05/07 22:25:31  5-MIN KDBQ 060425Z AUTO 11013G21KT 10SM CLR 16/03 A3017 850 42 1200 110/13G21 RMK AO2 TSNO
94908KDBQ DBQ20070505223010905/05/07 22:30:31  5-MIN KDBQ 060430Z AUTO 11014G21KT 10SM CLR 16/03 A3017 850 42 1200 110/14G21 RMK AO2 TSNO
94908KDBQ DBQ20070505223510305/05/07 22:35:31  5-MIN KDBQ 060435Z AUTO 11011KT 10SM CLR 16/03 A3017 840 43 1100 110/11 RMK AO2 TSNO
94908KDBQ DBQ20070505224010905/05/07 22:40:31  5-MIN KDBQ 060440Z AUTO 11012G18KT 10SM CLR 16/03 A3018 840 43 1100 110/12G18 RMK AO2 TSNO
94908KDBQ DBQ20070505224510305/05/07 22:45:31  5-MIN KDBQ 060445Z AUTO 11010KT 10SM CLR 16/04 A3018 840 45 1100 110/10 RMK AO2 TSNO
94908KDBQ DBQ20070505225012005/05/07 22:50:31  5-MIN KDBQ 060450Z AUTO 11010KT 10SM CLR 16/04 A3018 830 45 1100 110/10 RMK AO2 SLP220 T01560039 TSNO
94908KDBQ DBQ20070505225512605/05/07 22:55:31  5-MIN KDBQ 060455Z AUTO 11013G22KT 10SM CLR 16/04 A3019 830 45 1100 110/13G22 RMK AO2 SLP219 T01560039 TSNO
94908KDBQ DBQ20070505230010905/05/07 23:00:31  5-MIN KDBQ 060500Z AUTO 11012G22KT 10SM CLR 15/04 A3018 840 47 1100 110/12G22 RMK AO2 TSNO
94908KDBQ DBQ20070505230510305/05/07 23:05:31  5-MIN KDBQ 060505Z AUTO 11012KT 10SM CLR 15/04 A3018 840 47 1100 110/12 RMK AO2 TSNO
94908KDBQ DBQ20070505231010905/05/07 23:10:31  5-MIN KDBQ 060510Z AUTO 11014G19KT 10SM CLR 15/03 A3017 840 45 1100 110/14G19 RMK AO2 TSNO
94908KDBQ DBQ20070505231510905/05/07 23:15:31  5-MIN KDBQ 060515Z AUTO 11015G22KT 10SM CLR 15/03 A3017 850 45 1100 110/15G22 RMK AO2 TSNO
94908KDBQ DBQ20070505232010905/05/07 23:20:31  5-MIN KDBQ 060520Z AUTO 11014G22KT 10SM CLR 15/03 A3017 850 45 1100 100/14G22 RMK AO2 TSNO
94908KDBQ DBQ20070505232510905/05/07 23:25:31  5-MIN KDBQ 060525Z AUTO 11014G20KT 10SM CLR 15/03 A3017 850 45 1100 110/14G20 RMK AO2 TSNO
94908KDBQ DBQ20070505233010905/05/07 23:30:31  5-MIN KDBQ 060530Z AUTO 10013G22KT 10SM CLR 15/03 A3016 850 45 1100 100/13G22 RMK AO2 TSNO
94908KDBQ DBQ20070505233510905/05/07 23:35:31  5-MIN KDBQ 060535Z AUTO 10013G22KT 10SM CLR 15/03 A3016 850 45 1100 100/13G22 RMK AO2 TSNO
94908KDBQ DBQ20070505234010305/05/07 23:40:31  5-MIN KDBQ 060540Z AUTO 10012KT 10SM CLR 14/04 A3017 850 49 1000 100/12 RMK AO2 TSNO
94908KDBQ DBQ20070505234510305/05/07 23:45:31  5-MIN KDBQ 060545Z AUTO 10012KT 10SM CLR 14/04 A3016 850 49 1000 100/12 RMK AO2 TSNO
94908KDBQ DBQ20070505235014805/05/07 23:50:31  5-MIN KDBQ 060550Z AUTO 10014KT 10SM CLR 14/04 A3016 850 50 1000 100/14 RMK AO2 SLP213 T01390039 10189 20139 402110139 51016 TSNO
94908KDBQ DBQ20070505235514805/05/07 23:55:31  5-MIN KDBQ 060555Z AUTO 10014KT 10SM CLR 14/04 A3017 850 50 1000 100/14 RMK AO2 SLP213 T01390039 10189 20139 402110139 50016 TSNO
94908KDBQ DBQ20070506000010905/06/07 00:00:38  5-MIN KDBQ 060600Z AUTO 09014G22KT 10SM CLR 14/04 A3016 860 50 1000 090/14G22 RMK AO2 TSNO
94908KDBQ DBQ20070506000510905/06/07 00:05:31  5-MIN KDBQ 060605Z AUTO 09014G22KT 10SM CLR 14/04 A3016 860 50 1000 090/14G22 RMK AO2 TSNO
94908KDBQ DBQ20070506001010805/06/07 00:10:31  5-MIN KDBQ 060610Z AUTO 09015G21KT 10SM CLR 13/04 A3015 860 52 900 090/15G21 RMK AO2 TSNO
94908KDBQ DBQ20070506001510805/06/07 00:15:32  5-MIN KDBQ 060615Z AUTO 10013G21KT 10SM CLR 13/04 A3016 860 52 900 100/13G21 RMK AO2 TSNO
94908KDBQ DBQ20070506002010805/06/07 00:20:31  5-MIN KDBQ 060620Z AUTO 10011G20KT 10SM CLR 13/04 A3016 860 52 900 090/11G20 RMK AO2 TSNO
94908KDBQ DBQ20070506002510805/06/07 00:25:31  5-MIN KDBQ 060625Z AUTO 10013G19KT 10SM CLR 13/04 A3016 860 54 800 090/13G19 RMK AO2 TSNO
94908KDBQ DBQ20070506003010805/06/07 00:30:31  5-MIN KDBQ 060630Z AUTO 10014G20KT 10SM CLR 13/04 A3015 860 54 800 100/14G20 RMK AO2 TSNO
94908KDBQ DBQ20070506003510805/06/07 00:35:31  5-MIN KDBQ 060635Z AUTO 10013G20KT 10SM CLR 13/04 A3015 870 54 800 100/13G20 RMK AO2 TSNO
94908KDBQ DBQ20070506004010805/06/07 00:40:31  5-MIN KDBQ 060640Z AUTO 10016G22KT 10SM CLR 13/04 A3014 870 54 900 100/16G22 RMK AO2 TSNO
94908KDBQ DBQ20070506004510805/06/07 00:45:31  5-MIN KDBQ 060645Z AUTO 10014G22KT 10SM CLR 13/04 A3014 870 54 900 100/14G22 RMK AO2 TSNO
94908KDBQ DBQ20070506005012505/06/07 00:50:31  5-MIN KDBQ 060650Z AUTO 10015G23KT 10SM CLR 13/04 A3014 870 54 900 100/15G23 RMK AO2 SLP206 T01280039 TSNO
94908KDBQ DBQ20070506005512505/06/07 00:55:31  5-MIN KDBQ 060655Z AUTO 10017G23KT 10SM CLR 13/03 A3014 870 52 900 100/17G23 RMK AO2 SLP207 T01280033 TSNO
94908KDBQ DBQ20070506010010805/06/07 01:00:31  5-MIN KDBQ 060700Z AUTO 10015G21KT 10SM CLR 13/03 A3014 870 52 900 100/15G21 RMK AO2 TSNO
94908KDBQ DBQ20070506010510205/06/07 01:05:31  5-MIN KDBQ 060705Z AUTO 10015KT 10SM CLR 12/03 A3014 870 54 800 100/15 RMK AO2 TSNO
94908KDBQ DBQ20070506011010205/06/07 01:10:31  5-MIN KDBQ 060710Z AUTO 10015KT 10SM CLR 12/03 A3014 870 54 800 100/15 RMK AO2 TSNO
94908KDBQ DBQ20070506011510805/06/07 01:15:31  5-MIN KDBQ 060715Z AUTO 10013G21KT 10SM CLR 12/03 A3015 870 54 800 100/13G21 RMK AO2 TSNO
94908KDBQ DBQ20070506012010805/06/07 01:20:31  5-MIN KDBQ 060720Z AUTO 10014G21KT 10SM CLR 12/03 A3015 860 54 800 100/14G21 RMK AO2 TSNO
94908KDBQ DBQ20070506012510205/06/07 01:25:31  5-MIN KDBQ 060725Z AUTO 10013KT 10SM CLR 12/03 A3016 860 54 800 100/13 RMK AO2 TSNO
94908KDBQ DBQ20070506013010805/06/07 01:30:31  5-MIN KDBQ 060730Z AUTO 10015G20KT 10SM CLR 12/03 A3015 860 54 800 100/15G20 RMK AO2 TSNO
94908KDBQ DBQ20070506013510205/06/07 01:35:31  5-MIN KDBQ 060735Z AUTO 10013KT 10SM CLR 12/03 A3016 860 54 800 100/13 RMK AO2 TSNO
94908KDBQ DBQ20070506014010805/06/07 01:40:31  5-MIN KDBQ 060740Z AUTO 10015G21KT 10SM CLR 12/03 A3017 850 54 800 100/15G21 RMK AO2 TSNO
94908KDBQ DBQ20070506014510805/06/07 01:45:31  5-MIN KDBQ 060745Z AUTO 11011G21KT 10SM CLR 12/03 A3018 840 54 700 110/11G21 RMK AO2 TSNO
94908KDBQ DBQ20070506015013205/06/07 01:50:31  5-MIN KDBQ 060750Z AUTO 11013G22KT 10SM CLR 13/03 A3019 830 52 800 110/13G22 RMK AO2 PRESRR SLP221 T01280033 TSNO
94908KDBQ DBQ20070506015512505/06/07 01:55:31  5-MIN KDBQ 060755Z AUTO 10012G22KT 10SM CLR 12/03 A3019 830 54 700 100/12G22 RMK AO2 SLP222 T01220033 TSNO
94908KDBQ DBQ20070506020010205/06/07 02:00:31  5-MIN KDBQ 060800Z AUTO 11012KT 10SM CLR 12/03 A3019 830 54 700 110/12 RMK AO2 TSNO
94908KDBQ DBQ20070506020510205/06/07 02:05:31  5-MIN KDBQ 060805Z AUTO 11013KT 10SM CLR 13/03 A3019 830 52 800 110/13 RMK AO2 TSNO
94908KDBQ DBQ20070506021010205/06/07 02:10:31  5-MIN KDBQ 060810Z AUTO 11013KT 10SM CLR 13/03 A3019 830 52 800 110/13 RMK AO2 TSNO
94908KDBQ DBQ20070506021510205/06/07 02:15:31  5-MIN KDBQ 060815Z AUTO 11011KT 10SM CLR 13/03 A3020 820 52 800 110/11 RMK AO2 TSNO
94908KDBQ DBQ20070506022010805/06/07 02:20:31  5-MIN KDBQ 060820Z AUTO 11013G19KT 10SM CLR 13/03 A3019 830 52 800 110/13G19 RMK AO2 TSNO
94908KDBQ DBQ20070506022510805/06/07 02:25:31  5-MIN KDBQ 060825Z AUTO 11016G21KT 10SM CLR 13/03 A3019 830 52 800 110/16G21 RMK AO2 TSNO
94908KDBQ DBQ20070506023010205/06/07 02:30:31  5-MIN KDBQ 060830Z AUTO 11015KT 10SM CLR 13/03 A3018 840 52 800 100/15 RMK AO2 TSNO
94908KDBQ DBQ20070506023510805/06/07 02:35:31  5-MIN KDBQ 060835Z AUTO 11014G22KT 10SM CLR 13/03 A3018 840 50 800 110/14G22 RMK AO2 TSNO
94908KDBQ DBQ20070506024010805/06/07 02:40:31  5-MIN KDBQ 060840Z AUTO 11015G22KT 10SM CLR 13/03 A3018 840 50 800 110/15G22 RMK AO2 TSNO
94908KDBQ DBQ20070506024510805/06/07 02:45:31  5-MIN KDBQ 060845Z AUTO 11014G22KT 10SM CLR 13/03 A3018 840 50 800 100/14G22 RMK AO2 TSNO
94908KDBQ DBQ20070506025013105/06/07 02:50:31  5-MIN KDBQ 060850Z AUTO 11015G25KT 10SM CLR 13/03 A3018 840 50 800 110/15G25 RMK AO2 SLP218 T01280028 50016 TSNO
94908KDBQ DBQ20070506025513105/06/07 02:55:31  5-MIN KDBQ 060855Z AUTO 11014G25KT 10SM CLR 13/03 A3018 840 50 800 110/14G25 RMK AO2 SLP217 T01280028 53003 TSNO
94908KDBQ DBQ20070506030012605/06/07 03:00:31  5-MIN KDBQ 060900Z AUTO 11016G26KT 10SM CLR 13/03 A3018 840 50 800 110/16G26 RMK AO2 PK WND 11026/0858 TSNO
94908KDBQ DBQ20070506030512605/06/07 03:05:31  5-MIN KDBQ 060905Z AUTO 11015G26KT 10SM CLR 13/03 A3019 830 50 800 110/15G26 RMK AO2 PK WND 11026/0858 TSNO
94908KDBQ DBQ20070506031013305/06/07 03:10:31  5-MIN KDBQ 060910Z AUTO 11014G23KT 10SM CLR 13/03 A3020 820 50 800 110/14G23 RMK AO2 PK WND 11026/0858 PRESRR TSNO
94908KDBQ DBQ20070506031512605/06/07 03:15:31  5-MIN KDBQ 060915Z AUTO 11016G23KT 10SM CLR 12/03 A3020 820 52 700 110/16G23 RMK AO2 PK WND 11026/0858 TSNO
94908KDBQ DBQ20070506032012605/06/07 03:20:31  5-MIN KDBQ 060920Z AUTO 11017G22KT 10SM CLR 12/03 A3019 830 52 700 110/17G22 RMK AO2 PK WND 11026/0858 TSNO
94908KDBQ DBQ20070506032512605/06/07 03:25:31  5-MIN KDBQ 060925Z AUTO 11015G22KT 10SM CLR 12/03 A3019 830 52 700 110/15G22 RMK AO2 PK WND 11026/0858 TSNO
94908KDBQ DBQ20070506033012605/06/07 03:30:31  5-MIN KDBQ 060930Z AUTO 11016G22KT 10SM CLR 12/03 A3019 830 52 700 110/16G22 RMK AO2 PK WND 11026/0858 TSNO
94908KDBQ DBQ20070506033512605/06/07 03:35:31  5-MIN KDBQ 060935Z AUTO 11014G22KT 10SM CLR 12/03 A3019 830 52 700 110/14G22 RMK AO2 PK WND 11026/0858 TSNO
94908KDBQ DBQ20070506034012605/06/07 03:40:31  5-MIN KDBQ 060940Z AUTO 11015G23KT 10SM CLR 12/03 A3019 830 52 700 110/15G23 RMK AO2 PK WND 11026/0858 TSNO
94908KDBQ DBQ20070506034512605/06/07 03:45:31  5-MIN KDBQ 060945Z AUTO 11015G23KT 10SM CLR 12/03 A3019 830 52 700 110/15G23 RMK AO2 PK WND 11026/0858 TSNO
94908KDBQ DBQ20070506035014305/06/07 03:50:31  5-MIN KDBQ 060950Z AUTO 11015G22KT 10SM CLR 12/03 A3020 820 54 700 110/15G22 RMK AO2 PK WND 11026/0858 SLP225 T01170028 TSNO
94908KDBQ DBQ20070506035514305/06/07 03:55:31  5-MIN KDBQ 060955Z AUTO 11012G22KT 10SM CLR 12/03 A3021 820 54 700 110/12G22 RMK AO2 PK WND 11026/0858 SLP227 T01170028 TSNO
94908KDBQ DBQ20070506040010805/06/07 04:00:31  5-MIN KDBQ 061000Z AUTO 12014G23KT 10SM CLR 12/03 A3021 810 54 600 110/14G23 RMK AO2 TSNO
94908KDBQ DBQ20070506040511505/06/07 04:05:31  5-MIN KDBQ 061005Z AUTO 12011G23KT 10SM CLR 12/03 A3022 800 54 600 120/11G23 RMK AO2 PRESRR TSNO
94908KDBQ DBQ20070506041010805/06/07 04:10:31  5-MIN KDBQ 061010Z AUTO 11013G22KT 10SM CLR 12/03 A3022 800 54 600 110/13G22 RMK AO2 TSNO
94908KDBQ DBQ20070506041510805/06/07 04:15:31  5-MIN KDBQ 061015Z AUTO 12014G22KT 10SM CLR 12/03 A3021 810 54 600 120/14G22 RMK AO2 TSNO
94908KDBQ DBQ20070506042010805/06/07 04:20:31  5-MIN KDBQ 061020Z AUTO 11016G25KT 10SM CLR 12/03 A3020 820 54 700 110/16G25 RMK AO2 TSNO
94908KDBQ DBQ20070506042510805/06/07 04:25:31  5-MIN KDBQ 061025Z AUTO 11016G25KT 10SM CLR 12/03 A3020 820 54 700 110/16G25 RMK AO2 TSNO
94908KDBQ DBQ20070506043010805/06/07 04:30:31  5-MIN KDBQ 061030Z AUTO 11015G25KT 10SM CLR 12/03 A3020 820 54 700 110/15G25 RMK AO2 TSNO
94908KDBQ DBQ20070506043510805/06/07 04:35:31  5-MIN KDBQ 061035Z AUTO 11016G21KT 10SM CLR 12/03 A3019 830 54 700 110/16G21 RMK AO2 TSNO
94908KDBQ DBQ20070506044010805/06/07 04:40:31  5-MIN KDBQ 061040Z AUTO 11018G23KT 10SM CLR 12/03 A3019 830 54 700 110/18G23 RMK AO2 TSNO
94908KDBQ DBQ20070506044510805/06/07 04:45:31  5-MIN KDBQ 061045Z AUTO 12017G24KT 10SM CLR 12/03 A3018 840 54 700 110/17G24 RMK AO2 TSNO
94908KDBQ DBQ20070506045012505/06/07 04:50:31  5-MIN KDBQ 061050Z AUTO 11016G25KT 10SM CLR 12/03 A3018 840 54 700 110/16G25 RMK AO2 SLP219 T01170028 TSNO
94908KDBQ DBQ20070506045514305/06/07 04:55:31  5-MIN KDBQ 061055Z AUTO 12018G27KT 10SM CLR 12/03 A3018 840 54 700 120/18G27 RMK AO2 PK WND 12027/1052 SLP221 T01170028 TSNO
94908KDBQ DBQ20070506050009805/06/07 05:00:31  5-MIN KDBQ 061100Z 12015G27KT 10SM CLR 12/03 A3019 830 54 700 120/15G27 RMK AO2
94908KDBQ DBQ20070506050511605/06/07 05:05:31  5-MIN KDBQ 061105Z 12017G26KT 10SM CLR 12/02 A3019 830 52 700 120/17G26 RMK AO2 PK WND 12026/1103
94908KDBQ DBQ20070506051011605/06/07 05:10:31  5-MIN KDBQ 061110Z 12018G28KT 10SM CLR 12/02 A3020 820 52 700 120/18G28 RMK AO2 PK WND 12028/1107
94908KDBQ DBQ20070506051512305/06/07 05:15:31  5-MIN KDBQ 061115Z 12019G28KT 10SM CLR 12/02 A3021 810 52 600 120/19G28 RMK AO2 PK WND 12028/1107 PRESRR
94908KDBQ DBQ20070506052011605/06/07 05:20:31  5-MIN KDBQ 061120Z 12019G28KT 10SM CLR 12/02 A3021 820 52 700 120/19G28 RMK AO2 PK WND 13028/1120
94908KDBQ DBQ20070506052511605/06/07 05:25:31  5-MIN KDBQ 061125Z 12019G29KT 10SM CLR 12/02 A3020 820 52 700 120/19G29 RMK AO2 PK WND 12029/1125
94908KDBQ DBQ20070506053011605/06/07 05:30:31  5-MIN KDBQ 061130Z 12019G30KT 10SM CLR 12/02 A3020 820 52 700 120/19G30 RMK AO2 PK WND 12030/1128
94908KDBQ DBQ20070506053511605/06/07 05:35:31  5-MIN KDBQ 061135Z 13017G30KT 10SM CLR 12/02 A3021 810 52 600 120/17G30 RMK AO2 PK WND 12030/1128
94908KDBQ DBQ20070506054011605/06/07 05:40:31  5-MIN KDBQ 061140Z 13014G25KT 10SM CLR 12/02 A3023 800 52 600 130/14G25 RMK AO2 PK WND 12030/1128
94908KDBQ DBQ20070506054512305/06/07 05:45:31  5-MIN KDBQ 061145Z 13016G25KT 10SM CLR 12/02 A3023 790 52 600 130/16G25 RMK AO2 PK WND 12030/1128 PRESRR
94908KDBQ DBQ20070506055015805/06/07 05:50:31  5-MIN KDBQ 061150Z 14013G23KT 10SM CLR 12/02 A3024 780 52 600 140/13G23 RMK AO2 PK WND 12030/1128 PRESRR SLP240 T01170022 10139 20117 53003
94908KDBQ DBQ20070506055515105/06/07 05:55:31  5-MIN KDBQ 061155Z 13016G23KT 10SM CLR 12/02 A3024 780 52 600 130/16G23 RMK AO2 PK WND 12030/1128 SLP240 T01170022 10139 20117 53021
94908KDBQ DBQ20070506060011605/06/07 06:00:31  5-MIN KDBQ 061200Z 13019G27KT 10SM CLR 12/02 A3024 790 52 600 120/19G27 RMK AO2 PK WND 12027/1200
94908KDBQ DBQ20070506060511605/06/07 06:05:31  5-MIN KDBQ 061205Z 13018G27KT 10SM CLR 12/02 A3024 790 50 600 120/18G27 RMK AO2 PK WND 12027/1200
94908KDBQ DBQ20070506061011605/06/07 06:10:31  5-MIN KDBQ 061210Z 13020G30KT 10SM CLR 12/02 A3023 790 50 600 130/20G30 RMK AO2 PK WND 13030/1210
94908KDBQ DBQ20070506061511605/06/07 06:15:31  5-MIN KDBQ 061215Z 13019G30KT 10SM CLR 12/02 A3023 800 50 600 120/19G30 RMK AO2 PK WND 13030/1210
94908KDBQ DBQ20070506062011605/06/07 06:20:31  5-MIN KDBQ 061220Z 13017G26KT 10SM CLR 12/02 A3023 790 50 600 130/17G26 RMK AO2 PK WND 13030/1210
94908KDBQ DBQ20070506062511605/06/07 06:25:31  5-MIN KDBQ 061225Z 13017G26KT 10SM CLR 12/02 A3024 790 50 600 130/17G26 RMK AO2 PK WND 13030/1210
94908KDBQ DBQ20070506063011605/06/07 06:30:31  5-MIN KDBQ 061230Z 12017G27KT 10SM CLR 12/02 A3024 790 50 600 120/17G27 RMK AO2 PK WND 13030/1210
94908KDBQ DBQ20070506063511605/06/07 06:35:31  5-MIN KDBQ 061235Z 12019G27KT 10SM CLR 12/02 A3023 790 50 600 120/19G27 RMK AO2 PK WND 13030/1210
94908KDBQ DBQ20070506064011605/06/07 06:40:31  5-MIN KDBQ 061240Z 12017G26KT 10SM CLR 12/02 A3022 800 50 600 120/17G26 RMK AO2 PK WND 13030/1210
94908KDBQ DBQ20070506064511605/06/07 06:45:31  5-MIN KDBQ 061245Z 12019G28KT 10SM CLR 12/02 A3023 800 50 600 120/19G28 RMK AO2 PK WND 13030/1210
94908KDBQ DBQ20070506065013305/06/07 06:50:31  5-MIN KDBQ 061250Z 12020G31KT 10SM CLR 12/02 A3023 800 50 600 120/20G31 RMK AO2 PK WND 11031/1247 SLP236 T01170017
94908KDBQ DBQ20070506065513305/06/07 06:55:31  5-MIN KDBQ 061255Z 12019G31KT 10SM CLR 12/02 A3022 800 50 600 120/19G31 RMK AO2 PK WND 11031/1247 SLP235 T01170017
94908KDBQ DBQ20070506070011605/06/07 07:00:31  5-MIN KDBQ 061300Z 12020G29KT 10SM CLR 12/02 A3023 800 50 600 120/20G29 RMK AO2 PK WND 12028/1300
94908KDBQ DBQ20070506070511605/06/07 07:05:31  5-MIN KDBQ 061305Z 12018G28KT 10SM CLR 12/01 A3023 800 48 600 120/18G28 RMK AO2 PK WND 12028/1300
94908KDBQ DBQ20070506071011605/06/07 07:10:31  5-MIN KDBQ 061310Z 12022G28KT 10SM CLR 12/01 A3022 800 48 600 120/22G28 RMK AO2 PK WND 12028/1310
94908KDBQ DBQ20070506071511605/06/07 07:15:31  5-MIN KDBQ 061315Z 12021G28KT 10SM CLR 12/01 A3022 810 48 600 120/21G28 RMK AO2 PK WND 12028/1313
94908KDBQ DBQ20070506072011605/06/07 07:20:31  5-MIN KDBQ 061320Z 12019G30KT 10SM CLR 12/01 A3021 810 46 700 120/19G30 RMK AO2 PK WND 12030/1316
94908KDBQ DBQ20070506072511605/06/07 07:25:31  5-MIN KDBQ 061325Z 12021G30KT 10SM CLR 12/01 A3022 800 46 700 120/21G30 RMK AO2 PK WND 12030/1316
94908KDBQ DBQ20070506073011605/06/07 07:30:31  5-MIN KDBQ 061330Z 13018G30KT 10SM CLR 12/01 A3023 790 44 700 120/18G30 RMK AO2 PK WND 12030/1327
94908KDBQ DBQ20070506073512305/06/07 07:35:31  5-MIN KDBQ 061335Z 12019G30KT 10SM CLR 12/01 A3024 780 44 700 120/19G30 RMK AO2 PK WND 12030/1327 PRESRR
94908KDBQ DBQ20070506074011605/06/07 07:40:31  5-MIN KDBQ 061340Z 12019G27KT 10SM CLR 12/01 A3024 780 44 700 120/19G27 RMK AO2 PK WND 12030/1327
94908KDBQ DBQ20070506074511605/06/07 07:45:31  5-MIN KDBQ 061345Z 13018G28KT 10SM CLR 12/01 A3024 780 44 700 130/18G28 RMK AO2 PK WND 12030/1327
94908KDBQ DBQ20070506075013305/06/07 07:50:31  5-MIN KDBQ 061350Z 13015G28KT 10SM CLR 12/01 A3025 780 44 700 120/15G28 RMK AO2 PK WND 12030/1327 SLP243 T01220006
94908KDBQ DBQ20070506075513305/06/07 07:55:31  5-MIN KDBQ 061355Z 13017G25KT 10SM CLR 12/00 A3025 770 43 700 130/17G25 RMK AO2 PK WND 12030/1327 SLP244 T01220000
94908KDBQ DBQ20070506080009805/06/07 08:00:31  5-MIN KDBQ 061400Z 13016G25KT 10SM CLR 12/00 A3026 770 43 700 130/16G25 RMK AO2
94908KDBQ DBQ20070506080509805/06/07 08:05:31  5-MIN KDBQ 061405Z 13015G24KT 10SM CLR 12/00 A3026 770 43 700 130/15G24 RMK AO2
94908KDBQ DBQ20070506081009805/06/07 08:10:31  5-MIN KDBQ 061410Z 13014G24KT 10SM CLR 13/00 A3026 760 41 700 130/14G24 RMK AO2
94908KDBQ DBQ20070506081509805/06/07 08:15:31  5-MIN KDBQ 061415Z 13013G21KT 10SM CLR 13/00 A3026 760 41 700 120/13G21 RMK AO2
94908KDBQ DBQ20070506082009805/06/07 08:20:31  5-MIN KDBQ 061420Z 12014G21KT 10SM CLR 13/00 A3026 760 41 700 120/14G21 RMK AO2
94908KDBQ DBQ20070506082509805/06/07 08:25:31  5-MIN KDBQ 061425Z 12012G21KT 10SM CLR 13/00 A3027 760 41 700 120/12G21 RMK AO2
94908KDBQ DBQ20070506083009805/06/07 08:30:31  5-MIN KDBQ 061430Z 12014G21KT 10SM CLR 13/00 A3027 760 41 700 120/14G21 RMK AO2
94908KDBQ DBQ20070506083509905/06/07 08:35:31  5-MIN KDBQ 061435Z 13013G21KT 10SM CLR 13/M01 A3027 750 39 700 120/13G21 RMK AO2
94908KDBQ DBQ20070506084009905/06/07 08:40:31  5-MIN KDBQ 061440Z 13013G17KT 10SM CLR 13/M01 A3027 760 39 700 130/13G17 RMK AO2
94908KDBQ DBQ20070506084509905/06/07 08:45:31  5-MIN KDBQ 061445Z 12013G20KT 10SM CLR 13/M01 A3026 760 39 700 120/13G20 RMK AO2
94908KDBQ DBQ20070506085012205/06/07 08:50:31  5-MIN KDBQ 061450Z 13013G20KT 10SM CLR 13/M01 A3027 760 39 700 120/13G20 RMK AO2 SLP250 T01281006 53021
94908KDBQ DBQ20070506085512205/06/07 08:55:31  5-MIN KDBQ 061455Z 12013G22KT 10SM CLR 13/M01 A3026 760 38 700 120/13G22 RMK AO2 SLP248 T01281011 53007
94908KDBQ DBQ20070506090009905/06/07 09:00:31  5-MIN KDBQ 061500Z 12015G22KT 10SM CLR 13/M01 A3026 770 36 800 120/15G22 RMK AO2
94908KDBQ DBQ20070506090509905/06/07 09:05:31  5-MIN KDBQ 061505Z 12009G21KT 10SM CLR 13/M01 A3026 760 38 800 120/09G21 RMK AO2
94908KDBQ DBQ20070506091009905/06/07 09:10:31  5-MIN KDBQ 061510Z 12014G20KT 10SM CLR 13/M01 A3026 760 36 800 120/14G20 RMK AO2
94908KDBQ DBQ20070506091509905/06/07 09:15:31  5-MIN KDBQ 061515Z 12015G20KT 10SM CLR 13/M01 A3026 770 36 800 120/15G20 RMK AO2
94908KDBQ DBQ20070506092009905/06/07 09:20:31  5-MIN KDBQ 061520Z 13012G20KT 10SM CLR 13/M01 A3026 770 36 800 120/12G20 RMK AO2
94908KDBQ DBQ20070506092509905/06/07 09:25:31  5-MIN KDBQ 061525Z 12013G20KT 10SM CLR 13/M01 A3026 760 36 800 120/13G20 RMK AO2
94908KDBQ DBQ20070506093009905/06/07 09:30:31  5-MIN KDBQ 061530Z 12015G22KT 10SM CLR 13/M01 A3026 770 36 800 120/15G22 RMK AO2
94908KDBQ DBQ20070506093509905/06/07 09:35:31  5-MIN KDBQ 061535Z 11016G22KT 10SM CLR 13/M01 A3026 770 36 800 110/16G22 RMK AO2
94908KDBQ DBQ20070506094009905/06/07 09:40:31  5-MIN KDBQ 061540Z 12012G21KT 10SM CLR 13/M01 A3025 770 36 800 120/12G21 RMK AO2
94908KDBQ DBQ20070506094509905/06/07 09:45:31  5-MIN KDBQ 061545Z 11016G22KT 10SM CLR 13/M01 A3026 770 38 800 110/16G22 RMK AO2
94908KDBQ DBQ20070506095011605/06/07 09:50:31  5-MIN KDBQ 061550Z 12015G22KT 10SM CLR 13/M01 A3025 770 36 800 120/15G22 RMK AO2 SLP246 T01331011
94908KDBQ DBQ20070506095511605/06/07 09:55:31  5-MIN KDBQ 061555Z 12015G21KT 10SM CLR 13/M01 A3026 770 36 800 120/15G21 RMK AO2 SLP246 T01331011
94908KDBQ DBQ20070506100009905/06/07 10:00:31  5-MIN KDBQ 061600Z 12013G23KT 10SM CLR 14/M01 A3026 770 35 900 120/13G23 RMK AO2
94908KDBQ DBQ20070506100509905/06/07 10:05:31  5-MIN KDBQ 061605Z 11018G24KT 10SM CLR 14/M01 A3026 770 35 900 110/18G24 RMK AO2
94908KDBQ DBQ20070506101009905/06/07 10:10:31  5-MIN KDBQ 061610Z 12014G24KT 10SM CLR 14/M01 A3026 770 35 900 120/14G24 RMK AO2
94908KDBQ DBQ20070506101509905/06/07 10:15:31  5-MIN KDBQ 061615Z 12016G22KT 10SM CLR 14/M01 A3026 760 35 900 120/16G22 RMK AO2
94908KDBQ DBQ20070506102009905/06/07 10:20:31  5-MIN KDBQ 061620Z 12012G22KT 10SM CLR 14/M01 A3027 760 35 800 120/12G22 RMK AO2
94908KDBQ DBQ20070506102509905/06/07 10:25:31  5-MIN KDBQ 061625Z 12009G16KT 10SM CLR 14/M01 A3027 750 37 800 120/09G16 RMK AO2
94908KDBQ DBQ20070506103009905/06/07 10:30:31  5-MIN KDBQ 061630Z 12012G16KT 10SM CLR 14/M01 A3027 750 35 800 120/12G16 RMK AO2
94908KDBQ DBQ20070506103509305/06/07 10:35:31  5-MIN KDBQ 061635Z 12012KT 10SM CLR 14/M01 A3028 750 35 800 120/12 RMK AO2
94908KDBQ DBQ20070506104009305/06/07 10:40:31  5-MIN KDBQ 061640Z 12009KT 10SM CLR 14/M01 A3028 750 35 800 120/09 RMK AO2
94908KDBQ DBQ20070506104509905/06/07 10:45:31  5-MIN KDBQ 061645Z 12013G18KT 10SM CLR 14/M01 A3027 760 35 900 120/13G18 RMK AO2
94908KDBQ DBQ20070506105011605/06/07 10:50:31  5-MIN KDBQ 061650Z 11013G18KT 10SM CLR 14/M01 A3026 770 35 900 110/13G18 RMK AO2 SLP247 T01441006
94908KDBQ DBQ20070506105511705/06/07 10:55:31  5-MIN KDBQ 061655Z 10014KT 10SM CLR 14/M01 A3025 770 35 900 100/14 RMK AO2 PRESFR SLP245 T01441006
94908KDBQ DBQ20070506110009405/06/07 11:00:31  5-MIN KDBQ 061700Z 11015KT 10SM CLR 15/M01 A3025 770 33 1000 110/15 RMK AO2
94908KDBQ DBQ20070506110509405/06/07 11:05:31  5-MIN KDBQ 061705Z 12011KT 10SM CLR 15/M01 A3026 760 34 1000 110/11 RMK AO2
94908KDBQ DBQ20070506111010005/06/07 11:10:31  5-MIN KDBQ 061710Z 12012G18KT 10SM CLR 15/M01 A3026 760 34 1000 120/12G18 RMK AO2
94908KDBQ DBQ20070506111510005/06/07 11:15:31  5-MIN KDBQ 061715Z 11013G18KT 10SM CLR 16/M01 A3026 770 33 1000 110/13G18 RMK AO2
94908KDBQ DBQ20070506112009405/06/07 11:20:31  5-MIN KDBQ 061720Z 12013KT 10SM CLR 16/M01 A3026 760 33 1000 110/13 RMK AO2
94908KDBQ DBQ20070506112509905/06/07 11:25:31  5-MIN KDBQ 061725Z 12012G18KT 10SM CLR 16/00 A3026 760 34 1000 120/12G18 RMK AO2
94908KDBQ DBQ20070506113009905/06/07 11:30:31  5-MIN KDBQ 061730Z 12012G17KT 10SM CLR 16/00 A3026 760 34 1000 110/12G17 RMK AO2
94908KDBQ DBQ20070506113509305/06/07 11:35:31  5-MIN KDBQ 061735Z 12013KT 10SM CLR 16/00 A3026 760 34 1000 120/13 RMK AO2
94908KDBQ DBQ20070506114009405/06/07 11:40:31  5-MIN KDBQ 061740Z 12012KT 10SM CLR 16/M01 A3027 760 33 1000 120/12 RMK AO2
94908KDBQ DBQ20070506114510005/06/07 11:45:31  5-MIN KDBQ 061745Z 12012G19KT 10SM CLR 16/M01 A3027 760 33 1000 120/12G19 RMK AO2
94908KDBQ DBQ20070506115013505/06/07 11:50:31  5-MIN KDBQ 061750Z 11015G19KT 10SM CLR 16/M01 A3026 770 32 1100 110/15G19 RMK AO2 SLP248 T01611006 10161 20117 53007
94908KDBQ DBQ20070506115513505/06/07 11:55:31  5-MIN KDBQ 061755Z 11014G20KT 10SM CLR 16/M01 A3025 770 30 1100 110/14G20 RMK AO2 SLP245 T01611011 10161 20117 55003
94908KDBQ DBQ20070506120010005/06/07 12:00:31  5-MIN KDBQ 061800Z 11015G20KT 10SM CLR 16/M01 A3025 770 32 1100 110/15G20 RMK AO2
94908KDBQ DBQ20070506120510005/06/07 12:05:31  5-MIN KDBQ 061805Z 11015G20KT 10SM CLR 16/M01 A3024 780 32 1100 110/15G20 RMK AO2
94908KDBQ DBQ20070506121010005/06/07 12:10:31  5-MIN KDBQ 061810Z 11012G21KT 10SM CLR 16/M01 A3025 780 32 1100 110/12G21 RMK AO2
94908KDBQ DBQ20070506121510005/06/07 12:15:31  5-MIN KDBQ 061815Z 12015G22KT 10SM CLR 17/M01 A3026 770 31 1200 120/15G22 RMK AO2
94908KDBQ DBQ20070506122010005/06/07 12:20:31  5-MIN KDBQ 061820Z 11012G22KT 10SM CLR 17/M01 A3026 770 31 1200 110/12G22 RMK AO2
94908KDBQ DBQ20070506122509905/06/07 12:25:31  5-MIN KDBQ 061825Z 13013G20KT 10SM CLR 17/00 A3026 760 32 1200 130/13G20 RMK AO2
94908KDBQ DBQ20070506123009305/06/07 12:30:31  5-MIN KDBQ 061830Z 12012KT 10SM CLR 17/00 A3027 760 32 1200 120/12 RMK AO2
94908KDBQ DBQ20070506123509405/06/07 12:35:31  5-MIN KDBQ 061835Z 12015KT 10SM CLR 17/M01 A3026 760 31 1200 120/15 RMK AO2
94908KDBQ DBQ20070506124009905/06/07 12:40:31  5-MIN KDBQ 061840Z 12015G20KT 10SM CLR 17/00 A3026 770 31 1200 120/15G20 RMK AO2
94908KDBQ DBQ20070506124509405/06/07 12:45:31  5-MIN KDBQ 061845Z 12013KT 10SM CLR 17/M01 A3026 770 29 1200 120/13 RMK AO2
94908KDBQ DBQ20070506125011605/06/07 12:50:31  5-MIN KDBQ 061850Z 13010G19KT 10SM CLR 17/01 A3026 760 32 1200 130/10G19 RMK AO2 SLP248 T01720006
94908KDBQ DBQ20070506125511005/06/07 12:55:31  5-MIN KDBQ 061855Z 12011KT 10SM CLR 17/00 A3027 760 31 1200 120/11 RMK AO2 SLP251 T01720000
94908KDBQ DBQ20070506130009305/06/07 13:00:31  5-MIN KDBQ 061900Z 13008KT 10SM CLR 17/00 A3028 750 31 1200 120/08 RMK AO2
94908KDBQ DBQ20070506130509305/06/07 13:05:31  5-MIN KDBQ 061905Z 13007KT 10SM CLR 17/00 A3028 750 31 1200 130/07 RMK AO2
94908KDBQ DBQ20070506131009405/06/07 13:10:31  5-MIN KDBQ 061910Z 13008KT 10SM CLR 18/M01 A3028 750 28 1300 130/08 RMK AO2
94908KDBQ DBQ20070506131509405/06/07 13:15:31  5-MIN KDBQ 061915Z 13009KT 10SM CLR 17/M01 A3028 750 29 1200 120/09 RMK AO2
94908KDBQ DBQ20070506132009405/06/07 13:20:31  5-MIN KDBQ 061920Z 15007KT 10SM CLR 17/M01 A3028 740 28 1200 150/07 RMK AO2
94908KDBQ DBQ20070506132509405/06/07 13:25:31  5-MIN KDBQ 061925Z 14006KT 10SM CLR 17/M01 A3028 740 28 1200 140/06 RMK AO2
94908KDBQ DBQ20070506133009405/06/07 13:30:31  5-MIN KDBQ 061930Z 16006KT 10SM CLR 17/M01 A3028 750 29 1200 160/06 RMK AO2
94908KDBQ DBQ20070506133509305/06/07 13:35:31  5-MIN KDBQ 061935Z 15007KT 10SM CLR 18/00 A3028 750 30 1300 150/07 RMK AO2
94908KDBQ DBQ20070506134009405/06/07 13:40:31  5-MIN KDBQ 061940Z 16009KT 10SM CLR 18/M01 A3028 750 28 1300 150/09 RMK AO2
94908KDBQ DBQ20070506134509405/06/07 13:45:31  5-MIN KDBQ 061945Z 16010KT 10SM CLR 18/M01 A3028 740 28 1300 160/10 RMK AO2
94908KDBQ DBQ20070506135011105/06/07 13:50:31  5-MIN KDBQ 061950Z 15010KT 10SM CLR 18/M01 A3028 750 27 1300 150/10 RMK AO2 SLP253 T01781011
94908KDBQ DBQ20070506135511105/06/07 13:55:31  5-MIN KDBQ 061955Z 16007KT 10SM CLR 18/M01 A3028 750 27 1300 160/07 RMK AO2 SLP255 T01781011
94908KDBQ DBQ20070506140010405/06/07 14:00:31  5-MIN KDBQ 062000Z AUTO 15010KT 10SM CLR 18/M01 A3028 750 27 1300 150/10 RMK AO2 TSNO
94908KDBQ DBQ20070506140509405/06/07 14:05:31  5-MIN KDBQ 062005Z 16010KT 10SM CLR 18/M01 A3028 750 27 1300 160/10 RMK AO2
94908KDBQ DBQ20070506141009405/06/07 14:10:31  5-MIN KDBQ 062010Z 16010KT 10SM CLR 18/M01 A3028 750 27 1300 160/10 RMK AO2
94908KDBQ DBQ20070506141509405/06/07 14:15:31  5-MIN KDBQ 062015Z 15008KT 10SM CLR 18/M01 A3027 750 27 1300 150/08 RMK AO2
94908KDBQ DBQ20070506142009405/06/07 14:20:31  5-MIN KDBQ 062020Z 16008KT 10SM CLR 18/M01 A3027 750 28 1300 160/08 RMK AO2
94908KDBQ DBQ20070506142509405/06/07 14:25:31  5-MIN KDBQ 062025Z 17008KT 10SM CLR 18/M01 A3027 750 28 1300 170/08 RMK AO2
94908KDBQ DBQ20070506143009405/06/07 14:30:31  5-MIN KDBQ 062030Z 17010KT 10SM CLR 18/M01 A3027 760 28 1300 170/10 RMK AO2
94908KDBQ DBQ20070506143509405/06/07 14:35:31  5-MIN KDBQ 062035Z 17009KT 10SM CLR 18/M01 A3026 760 28 1300 170/09 RMK AO2
94908KDBQ DBQ20070506144009405/06/07 14:40:31  5-MIN KDBQ 062040Z 16008KT 10SM CLR 18/M01 A3026 770 28 1300 160/08 RMK AO2
94908KDBQ DBQ20070506144509305/06/07 14:45:31  5-MIN KDBQ 062045Z 16010KT 10SM CLR 18/00 A3025 770 30 1300 160/10 RMK AO2
94908KDBQ DBQ20070506145012005/06/07 14:50:31  5-MIN KDBQ 062050Z 17010KT 10SM FEW090 18/M01 A3025 770 27 1400 170/10 RMK AO2 SLP243 T01831006 55003
94908KDBQ DBQ20070506145512005/06/07 14:55:31  5-MIN KDBQ 062055Z 17012KT 10SM FEW095 18/M01 A3024 780 27 1400 170/12 RMK AO2 SLP241 T01831006 58003
94908KDBQ DBQ20070506150009605/06/07 15:00:31  5-MIN KDBQ 062100Z 16010KT 10SM FEW090 18/00 A3024 790 29 1400 160/10 RMK AO2
94908KDBQ DBQ20070506150509605/06/07 15:05:31  5-MIN KDBQ 062105Z 17013KT 10SM FEW090 18/00 A3023 790 29 1400 170/13 RMK AO2
94908KDBQ DBQ20070506151010305/06/07 15:10:31  5-MIN KDBQ 062110Z 17012KT 10SM FEW090 18/00 A3023 800 29 1400 170/12 RMK AO2 PRESFR
94908KDBQ DBQ20070506151510305/06/07 15:15:31  5-MIN KDBQ 062115Z 17013KT 10SM FEW090 18/00 A3022 800 29 1400 170/13 RMK AO2 PRESFR
94908KDBQ DBQ20070506152009305/06/07 15:20:31  5-MIN KDBQ 062120Z 17013KT 10SM CLR 18/00 A3022 800 29 1400 160/13 RMK AO2
94908KDBQ DBQ20070506152509905/06/07 15:25:31  5-MIN KDBQ 062125Z 17015G19KT 10SM CLR 18/00 A3022 810 30 1400 170/15G19 RMK AO2
94908KDBQ DBQ20070506153009905/06/07 15:30:31  5-MIN KDBQ 062130Z 17011G19KT 10SM CLR 18/00 A3021 810 30 1400 160/11G19 RMK AO2
94908KDBQ DBQ20070506153509305/06/07 15:35:31  5-MIN KDBQ 062135Z 17013KT 10SM CLR 18/01 A3021 810 31 1400 170/13 RMK AO2
94908KDBQ DBQ20070506154009305/06/07 15:40:31  5-MIN KDBQ 062140Z 17013KT 10SM CLR 18/01 A3021 810 31 1400 160/13 RMK AO2
94908KDBQ DBQ20070506154509305/06/07 15:45:31  5-MIN KDBQ 062145Z 17015KT 10SM CLR 18/01 A3021 810 31 1400 170/15 RMK AO2
94908KDBQ DBQ20070506155011005/06/07 15:50:31  5-MIN KDBQ 062150Z 17011KT 10SM CLR 18/01 A3020 820 32 1400 160/11 RMK AO2 SLP226 T01780011
94908KDBQ DBQ20070506155511005/06/07 15:55:31  5-MIN KDBQ 062155Z 17014KT 10SM CLR 18/01 A3019 830 32 1400 160/14 RMK AO2 SLP225 T01780011
94908KDBQ DBQ20070506160009305/06/07 16:00:31  5-MIN KDBQ 062200Z 16014KT 10SM CLR 18/01 A3019 830 32 1400 160/14 RMK AO2
94908KDBQ DBQ20070506160509305/06/07 16:05:31  5-MIN KDBQ 062205Z 16014KT 10SM CLR 18/02 A3018 840 33 1400 160/14 RMK AO2
94908KDBQ DBQ20070506161009305/06/07 16:10:31  5-MIN KDBQ 062210Z 16016KT 10SM CLR 18/02 A3018 840 35 1400 160/16 RMK AO2
94908KDBQ DBQ20070506161509305/06/07 16:15:31  5-MIN KDBQ 062215Z 16015KT 10SM CLR 18/02 A3017 850 35 1400 160/15 RMK AO2
94908KDBQ DBQ20070506162010005/06/07 16:20:31  5-MIN KDBQ 062220Z 16016KT 10SM CLR 18/02 A3016 850 34 1500 150/16 RMK AO2 PRESFR
94908KDBQ DBQ20070506162510305/06/07 16:25:31  5-MIN KDBQ 062225Z 15017KT 10SM FEW100 18/02 A3015 870 35 1400 150/17 RMK AO2 PRESFR
94908KDBQ DBQ20070506163010905/06/07 16:30:31  5-MIN KDBQ 062230Z 15019G24KT 10SM FEW100 18/02 A3014 870 32 1500 150/19G24 RMK AO2 PRESFR
94908KDBQ DBQ20070506163510205/06/07 16:35:31  5-MIN KDBQ 062235Z 15018G24KT 10SM FEW100 18/02 A3014 880 32 1500 150/18G24 RMK AO2
94908KDBQ DBQ20070506164012005/06/07 16:40:31  5-MIN KDBQ 062240Z 15021G28KT 10SM FEW100 18/02 A3013 880 32 1500 150/21G28 RMK AO2 PK WND 15028/2240
94908KDBQ DBQ20070506164512705/06/07 16:45:31  5-MIN KDBQ 062245Z 15021G28KT 10SM FEW100 18/01 A3012 890 31 1500 150/21G28 RMK AO2 PK WND 16028/2244 PRESFR
94908KDBQ DBQ20070506165014405/06/07 16:50:31  5-MIN KDBQ 062250Z 15021G29KT 10SM FEW100 18/01 A3012 900 31 1500 150/21G29 RMK AO2 PK WND 16029/2246 PRESFR SLP199 T01830011
94908KDBQ DBQ20070506165513405/06/07 16:55:31  5-MIN KDBQ 062255Z 15021G29KT 10SM CLR 18/01 A3012 900 30 1500 150/21G29 RMK AO2 PK WND 16029/2246 SLP198 T01830006
94908KDBQ DBQ20070506170012405/06/07 17:00:31  5-MIN KDBQ 062300Z 15023G29KT 10SM CLR 19/01 A3011 910 29 1600 150/23G29 RMK AO2 PK WND 15029/2259 PRESFR
94908KDBQ DBQ20070506170512405/06/07 17:05:31  5-MIN KDBQ 062305Z 15023G31KT 10SM CLR 19/00 A3010 910 28 1600 150/23G31 RMK AO2 PK WND 15031/2305 PRESFR
94908KDBQ DBQ20070506171011705/06/07 17:10:31  5-MIN KDBQ 062310Z 16026G32KT 10SM CLR 19/00 A3010 910 28 1600 150/26G32 RMK AO2 PK WND 15032/2310
94908KDBQ DBQ20070506171511705/06/07 17:15:31  5-MIN KDBQ 062315Z 16023G32KT 10SM CLR 19/00 A3010 910 28 1600 160/23G32 RMK AO2 PK WND 16032/2312
94908KDBQ DBQ20070506172011705/06/07 17:20:31  5-MIN KDBQ 062320Z 16022G32KT 10SM CLR 19/00 A3010 910 28 1600 160/22G32 RMK AO2 PK WND 16032/2312
94908KDBQ DBQ20070506172511705/06/07 17:25:31  5-MIN KDBQ 062325Z 16023G30KT 10SM CLR 19/00 A3010 910 28 1600 160/23G30 RMK AO2 PK WND 16032/2312
94908KDBQ DBQ20070506173011705/06/07 17:30:31  5-MIN KDBQ 062330Z 16025G32KT 10SM CLR 19/00 A3010 910 28 1600 160/25G32 RMK AO2 PK WND 15032/2330
94908KDBQ DBQ20070506173511705/06/07 17:35:31  5-MIN KDBQ 062335Z 16025G32KT 10SM CLR 19/00 A3009 920 28 1600 150/25G32 RMK AO2 PK WND 15032/2330
94908KDBQ DBQ20070506210011105/06/07 21:00:31  5-MIN KDBQ 070300Z AUTO 16009KT 10SM CLR 17/M02 A3016 860 28 1300 160/09 RMK AO2 PRESRR TSNO
94908KDBQ DBQ20070506210510405/06/07 21:05:31  5-MIN KDBQ 070305Z AUTO 16008KT 10SM CLR 17/M02 A3016 860 27 1400 160/08 RMK AO2 TSNO
94908KDBQ DBQ20070506211010405/06/07 21:10:31  5-MIN KDBQ 070310Z AUTO 16008KT 10SM CLR 17/M02 A3016 850 28 1300 160/08 RMK AO2 TSNO
94908KDBQ DBQ20070506211510405/06/07 21:15:31  5-MIN KDBQ 070315Z AUTO 15008KT 10SM CLR 17/M02 A3016 850 28 1300 150/08 RMK AO2 TSNO
94908KDBQ DBQ20070506212010405/06/07 21:20:31  5-MIN KDBQ 070320Z AUTO 15007KT 10SM CLR 17/M02 A3017 850 28 1300 150/07 RMK AO2 TSNO
94908KDBQ DBQ20070506212510405/06/07 21:25:31  5-MIN KDBQ 070325Z AUTO 15008KT 10SM CLR 16/M01 A3017 850 30 1200 150/08 RMK AO2 TSNO
94908KDBQ DBQ20070506213011005/06/07 21:30:31  5-MIN KDBQ 070330Z AUTO 15009G16KT 10SM CLR 16/M01 A3017 850 30 1200 150/09G16 RMK AO2 TSNO
94908KDBQ DBQ20070506213511005/06/07 21:35:31  5-MIN KDBQ 070335Z AUTO 14010G16KT 10SM CLR 17/M01 A3017 850 29 1300 140/10G16 RMK AO2 TSNO
94908KDBQ DBQ20070506214010405/06/07 21:40:31  5-MIN KDBQ 070340Z AUTO 14011KT 10SM CLR 17/M01 A3017 850 29 1300 140/11 RMK AO2 TSNO
94908KDBQ DBQ20070506214510405/06/07 21:45:31  5-MIN KDBQ 070345Z AUTO 15011KT 10SM CLR 17/M01 A3017 850 29 1300 140/11 RMK AO2 TSNO
94908KDBQ DBQ20070506215012105/06/07 21:50:31  5-MIN KDBQ 070350Z AUTO 14012KT 10SM CLR 16/M01 A3017 850 30 1200 140/12 RMK AO2 SLP217 T01611011 TSNO
94908KDBQ DBQ20070506215512105/06/07 21:55:31  5-MIN KDBQ 070355Z AUTO 15010KT 10SM CLR 16/M01 A3017 850 30 1200 150/10 RMK AO2 SLP218 T01611011 TSNO
94908KDBQ DBQ20070506220010405/06/07 22:00:31  5-MIN KDBQ 070400Z AUTO 15010KT 10SM CLR 17/M01 A3017 850 29 1300 150/10 RMK AO2 TSNO
94908KDBQ DBQ20070506220510405/06/07 22:05:31  5-MIN KDBQ 070405Z AUTO 15011KT 10SM CLR 17/M01 A3017 850 29 1300 150/11 RMK AO2 TSNO
94908KDBQ DBQ20070506221010405/06/07 22:10:31  5-MIN KDBQ 070410Z AUTO 14010KT 10SM CLR 16/M01 A3017 850 32 1200 140/10 RMK AO2 TSNO
94908KDBQ DBQ20070506221510405/06/07 22:15:31  5-MIN KDBQ 070415Z AUTO 14011KT 10SM CLR 16/M01 A3017 850 32 1200 140/11 RMK AO2 TSNO
94908KDBQ DBQ20070506222010405/06/07 22:20:31  5-MIN KDBQ 070420Z AUTO 14011KT 10SM CLR 16/M01 A3017 850 32 1200 140/11 RMK AO2 TSNO
94908KDBQ DBQ20070506222510405/06/07 22:25:31  5-MIN KDBQ 070425Z AUTO 14012KT 10SM CLR 16/M01 A3017 850 33 1200 140/12 RMK AO2 TSNO
94908KDBQ DBQ20070506223010405/06/07 22:30:31  5-MIN KDBQ 070430Z AUTO 14012KT 10SM CLR 16/M01 A3017 850 33 1200 140/12 RMK AO2 TSNO
94908KDBQ DBQ20070506223510405/06/07 22:35:31  5-MIN KDBQ 070435Z AUTO 14011KT 10SM CLR 16/M01 A3017 850 33 1200 140/11 RMK AO2 TSNO
94908KDBQ DBQ20070506224010405/06/07 22:40:31  5-MIN KDBQ 070440Z AUTO 14012KT 10SM CLR 16/M01 A3017 850 33 1200 140/12 RMK AO2 TSNO
94908KDBQ DBQ20070506224510705/06/07 22:45:31  5-MIN KDBQ 070445Z AUTO 15013KT 10SM FEW055 16/M01 A3017 850 33 1200 140/13 RMK AO2 TSNO
94908KDBQ DBQ20070506225012405/06/07 22:50:31  5-MIN KDBQ 070450Z AUTO 14014KT 10SM SCT055 16/M01 A3017 850 32 1200 140/14 RMK AO2 SLP215 T01611006 TSNO
94908KDBQ DBQ20070506225513005/06/07 22:55:31  5-MIN KDBQ 070455Z AUTO 14013G20KT 10SM BKN055 16/M01 A3017 850 32 1200 140/13G20 RMK AO2 SLP216 T01611006 TSNO
94908KDBQ DBQ20070506230011305/06/07 23:00:31  5-MIN KDBQ 070500Z AUTO 14013G23KT 10SM BKN055 16/M01 A3017 850 32 1200 140/13G23 RMK AO2 TSNO
94908KDBQ DBQ20070506230511305/06/07 23:05:31  5-MIN KDBQ 070505Z AUTO 14014G23KT 10SM BKN055 16/M01 A3016 860 32 1200 140/14G23 RMK AO2 TSNO
94908KDBQ DBQ20070506231011305/06/07 23:10:31  5-MIN KDBQ 070510Z AUTO 14016G21KT 10SM BKN055 16/M01 A3016 860 32 1200 140/16G21 RMK AO2 TSNO
94908KDBQ DBQ20070506231511305/06/07 23:15:31  5-MIN KDBQ 070515Z AUTO 14014G21KT 10SM BKN055 16/M01 A3016 860 33 1200 140/14G21 RMK AO2 TSNO
94908KDBQ DBQ20070506232010605/06/07 23:20:31  5-MIN KDBQ 070520Z AUTO 14015KT 10SM SCT055 16/00 A3016 860 34 1200 140/15 RMK AO2 TSNO
94908KDBQ DBQ20070506232511305/06/07 23:25:31  5-MIN KDBQ 070525Z AUTO 14016G22KT 10SM FEW055 16/M01 A3015 870 33 1200 140/16G22 RMK AO2 TSNO
94908KDBQ DBQ20070506233011305/06/07 23:30:31  5-MIN KDBQ 070530Z AUTO 14015G22KT 10SM FEW055 16/M01 A3015 870 33 1200 140/15G22 RMK AO2 TSNO
94908KDBQ DBQ20070506233511005/06/07 23:35:31  5-MIN KDBQ 070535Z AUTO 14015G22KT 10SM CLR 17/M01 A3015 870 31 1300 140/15G22 RMK AO2 TSNO
94908KDBQ DBQ20070506234011005/06/07 23:40:31  5-MIN KDBQ 070540Z AUTO 14016G22KT 10SM CLR 16/M01 A3015 870 33 1200 140/16G22 RMK AO2 TSNO
94908KDBQ DBQ20070506234511005/06/07 23:45:31  5-MIN KDBQ 070545Z AUTO 14015G22KT 10SM CLR 16/M01 A3014 870 33 1200 140/15G22 RMK AO2 TSNO
94908KDBQ DBQ20070506235014905/06/07 23:50:31  5-MIN KDBQ 070550Z AUTO 14015KT 10SM CLR 16/M01 A3014 880 33 1200 130/15 RMK AO2 SLP205 T01561006 10189 20156 401890117 51019 TSNO
94908KDBQ DBQ20070506235515505/06/07 23:55:31  5-MIN KDBQ 070555Z AUTO 13016G23KT 10SM CLR 16/M01 A3013 880 33 1200 130/16G23 RMK AO2 SLP204 T01561006 10189 20156 401890117 58003 TSNO
94908KDBQ DBQ20070507000011005/07/07 00:00:38  5-MIN KDBQ 070600Z AUTO 13019G24KT 10SM CLR 16/M01 A3013 890 33 1200 130/19G24 RMK AO2 TSNO
94908KDBQ DBQ20070507000511005/07/07 00:05:31  5-MIN KDBQ 070605Z AUTO 13017G24KT 10SM CLR 16/M01 A3012 890 33 1200 130/17G24 RMK AO2 TSNO
94908KDBQ DBQ20070507001011705/07/07 00:10:31  5-MIN KDBQ 070610Z AUTO 13017G23KT 10SM CLR 16/M01 A3011 900 31 1200 130/17G23 RMK AO2 PRESFR TSNO
94908KDBQ DBQ20070507001511705/07/07 00:15:32  5-MIN KDBQ 070615Z AUTO 13017G23KT 10SM CLR 16/M01 A3011 900 31 1200 130/17G23 RMK AO2 PRESFR TSNO
94908KDBQ DBQ20070507002011705/07/07 00:20:31  5-MIN KDBQ 070620Z AUTO 13017G24KT 10SM CLR 16/M01 A3010 910 31 1200 130/17G24 RMK AO2 PRESFR TSNO
94908KDBQ DBQ20070507002511005/07/07 00:25:31  5-MIN KDBQ 070625Z AUTO 13018G24KT 10SM CLR 16/M01 A3010 910 31 1200 130/18G24 RMK AO2 TSNO
94908KDBQ DBQ20070507003012805/07/07 00:30:31  5-MIN KDBQ 070630Z AUTO 13018G27KT 10SM CLR 16/M01 A3010 910 31 1200 130/18G27 RMK AO2 PK WND 13027/0630 TSNO
94908KDBQ DBQ20070507003512805/07/07 00:35:31  5-MIN KDBQ 070635Z AUTO 13015G27KT 10SM CLR 16/M01 A3010 910 33 1200 130/15G27 RMK AO2 PK WND 13027/0630 TSNO
94908KDBQ DBQ20070507004012805/07/07 00:40:31  5-MIN KDBQ 070640Z AUTO 13015G22KT 10SM CLR 16/M01 A3011 900 33 1200 130/15G22 RMK AO2 PK WND 13027/0630 TSNO
94908KDBQ DBQ20070507004513505/07/07 00:45:31  5-MIN KDBQ 070645Z AUTO 14011G22KT 10SM CLR 15/M01 A3013 890 34 1100 140/11G22 RMK AO2 PK WND 13027/0630 PRESRR TSNO
94908KDBQ DBQ20070507005014605/07/07 00:50:31  5-MIN KDBQ 070650Z AUTO 15012KT 10SM CLR 15/M01 A3014 880 34 1100 150/12 RMK AO2 PK WND 13027/0630 PRESRR SLP206 T01501006 TSNO
94908KDBQ DBQ20070507005514505/07/07 00:55:31  5-MIN KDBQ 070655Z AUTO 16013G20KT 10SM CLR 15/M01 A3014 870 34 1100 160/13G20 RMK AO2 PK WND 13027/0630 SLP207 T01501006 TSNO
94908KDBQ DBQ20070507010011005/07/07 01:00:31  5-MIN KDBQ 070700Z AUTO 16014G20KT 10SM CLR 16/M01 A3015 870 33 1200 160/14G20 RMK AO2 TSNO
94908KDBQ DBQ20070507010510405/07/07 01:05:31  5-MIN KDBQ 070705Z AUTO 16012KT 10SM CLR 15/M01 A3015 870 34 1100 160/12 RMK AO2 TSNO
94908KDBQ DBQ20070507011010405/07/07 01:10:31  5-MIN KDBQ 070710Z AUTO 16014KT 10SM CLR 16/M01 A3015 870 33 1200 160/14 RMK AO2 TSNO
94908KDBQ DBQ20070507011511005/07/07 01:15:31  5-MIN KDBQ 070715Z AUTO 15014G20KT 10SM CLR 16/M01 A3014 870 33 1200 150/14G20 RMK AO2 TSNO
94908KDBQ DBQ20070507012011005/07/07 01:20:31  5-MIN KDBQ 070720Z AUTO 16013G20KT 10SM CLR 15/M01 A3015 870 34 1100 150/13G20 RMK AO2 TSNO
94908KDBQ DBQ20070507012510405/07/07 01:25:31  5-MIN KDBQ 070725Z AUTO 15014KT 10SM CLR 15/M01 A3015 870 34 1100 150/14 RMK AO2 TSNO
94908KDBQ DBQ20070507013010705/07/07 01:30:31  5-MIN KDBQ 070730Z AUTO 16014KT 10SM FEW120 15/M01 A3015 870 34 1100 160/14 RMK AO2 TSNO
94908KDBQ DBQ20070507013510705/07/07 01:35:31  5-MIN KDBQ 070735Z AUTO 16014KT 10SM FEW120 15/M01 A3015 870 34 1100 150/14 RMK AO2 TSNO
94908KDBQ DBQ20070507014010705/07/07 01:40:31  5-MIN KDBQ 070740Z AUTO 16013KT 10SM FEW120 15/M01 A3015 860 34 1100 150/13 RMK AO2 TSNO
94908KDBQ DBQ20070507014510705/07/07 01:45:31  5-MIN KDBQ 070745Z AUTO 15013KT 10SM FEW120 15/M01 A3016 860 34 1100 150/13 RMK AO2 TSNO
94908KDBQ DBQ20070507015013005/07/07 01:50:31  5-MIN KDBQ 070750Z AUTO 16014G19KT 10SM FEW120 15/M01 A3016 860 34 1100 160/14G19 RMK AO2 SLP211 T01501006 TSNO
94908KDBQ DBQ20070507015513005/07/07 01:55:31  5-MIN KDBQ 070755Z AUTO 15013G19KT 10SM SCT120 15/M01 A3016 860 34 1100 150/13G19 RMK AO2 SLP211 T01501006 TSNO
94908KDBQ DBQ20070507020011305/07/07 02:00:31  5-MIN KDBQ 070800Z AUTO 15011G18KT 10SM BKN120 15/M01 A3016 860 34 1100 150/11G18 RMK AO2 TSNO
94908KDBQ DBQ20070507020511305/07/07 02:05:31  5-MIN KDBQ 070805Z AUTO 15013G20KT 10SM BKN120 15/M01 A3016 860 34 1100 150/13G20 RMK AO2 TSNO
94908KDBQ DBQ20070507021011305/07/07 02:10:31  5-MIN KDBQ 070810Z AUTO 15013G20KT 10SM BKN120 15/M01 A3016 860 34 1100 150/13G20 RMK AO2 TSNO
94908KDBQ DBQ20070507021511305/07/07 02:15:31  5-MIN KDBQ 070815Z AUTO 15012G18KT 10SM SCT120 15/M01 A3015 870 34 1100 150/12G18 RMK AO2 TSNO
94908KDBQ DBQ20070507022010705/07/07 02:20:31  5-MIN KDBQ 070820Z AUTO 15014KT 10SM SCT120 15/M01 A3014 870 34 1100 150/14 RMK AO2 TSNO
94908KDBQ DBQ20070507022510605/07/07 02:25:31  5-MIN KDBQ 070825Z AUTO 15012KT 10SM FEW120 14/00 A3014 870 37 1100 140/12 RMK AO2 TSNO
94908KDBQ DBQ20070507023010605/07/07 02:30:31  5-MIN KDBQ 070830Z AUTO 15013KT 10SM FEW120 14/00 A3015 870 37 1000 150/13 RMK AO2 TSNO
94908KDBQ DBQ20070507023510305/07/07 02:35:31  5-MIN KDBQ 070835Z AUTO 15014KT 10SM CLR 14/00 A3015 870 37 1000 150/14 RMK AO2 TSNO
94908KDBQ DBQ20070507024010305/07/07 02:40:31  5-MIN KDBQ 070840Z AUTO 15012KT 10SM CLR 14/00 A3015 870 37 1000 150/12 RMK AO2 TSNO
94908KDBQ DBQ20070507024510305/07/07 02:45:31  5-MIN KDBQ 070845Z AUTO 15013KT 10SM CLR 14/00 A3015 870 37 1000 140/13 RMK AO2 TSNO
94908KDBQ DBQ20070507025012605/07/07 02:50:31  5-MIN KDBQ 070850Z AUTO 15013KT 10SM CLR 14/00 A3014 870 37 1100 140/13 RMK AO2 SLP206 T01440000 58003 TSNO
94908KDBQ DBQ20070507025512605/07/07 02:55:31  5-MIN KDBQ 070855Z AUTO 15012KT 10SM CLR 14/00 A3014 870 37 1000 150/12 RMK AO2 SLP206 T01440000 50003 TSNO
94908KDBQ DBQ20070507030010305/07/07 03:00:31  5-MIN KDBQ 070900Z AUTO 15013KT 10SM CLR 14/00 A3015 870 37 1000 150/13 RMK AO2 TSNO
94908KDBQ DBQ20070507030510905/07/07 03:05:31  5-MIN KDBQ 070905Z AUTO 16012G18KT 10SM CLR 14/00 A3016 860 37 1000 150/12G18 RMK AO2 TSNO
94908KDBQ DBQ20070507031010305/07/07 03:10:31  5-MIN KDBQ 070910Z AUTO 15011KT 10SM CLR 14/00 A3015 860 37 1000 150/11 RMK AO2 TSNO
94908KDBQ DBQ20070507031510305/07/07 03:15:31  5-MIN KDBQ 070915Z AUTO 15012KT 10SM CLR 14/00 A3016 860 37 1000 150/12 RMK AO2 TSNO
94908KDBQ DBQ20070507032010305/07/07 03:20:31  5-MIN KDBQ 070920Z AUTO 15013KT 10SM CLR 14/00 A3015 860 37 1000 150/13 RMK AO2 TSNO
94908KDBQ DBQ20070507032510305/07/07 03:25:31  5-MIN KDBQ 070925Z AUTO 15013KT 10SM CLR 14/00 A3015 870 38 1000 150/13 RMK AO2 TSNO
94908KDBQ DBQ20070507033010305/07/07 03:30:31  5-MIN KDBQ 070930Z AUTO 15014KT 10SM CLR 14/00 A3015 870 38 1000 150/14 RMK AO2 TSNO
94908KDBQ DBQ20070507033510605/07/07 03:35:31  5-MIN KDBQ 070935Z AUTO 15013KT 10SM FEW060 14/00 A3015 870 38 1000 150/13 RMK AO2 TSNO
94908KDBQ DBQ20070507034010605/07/07 03:40:31  5-MIN KDBQ 070940Z AUTO 15015KT 10SM SCT065 14/00 A3015 860 38 1000 150/15 RMK AO2 TSNO
94908KDBQ DBQ20070507034510605/07/07 03:45:31  5-MIN KDBQ 070945Z AUTO 16014KT 10SM BKN065 14/00 A3016 860 38 1000 160/14 RMK AO2 TSNO
94908KDBQ DBQ20070507035012305/07/07 03:50:31  5-MIN KDBQ 070950Z AUTO 16012KT 10SM BKN065 14/00 A3017 850 38 1000 160/12 RMK AO2 SLP214 T01390000 TSNO
94908KDBQ DBQ20070507035512305/07/07 03:55:31  5-MIN KDBQ 070955Z AUTO 16012KT 10SM BKN065 14/01 A3017 850 40 1000 160/12 RMK AO2 SLP215 T01390006 TSNO
94908KDBQ DBQ20070507040010605/07/07 04:00:31  5-MIN KDBQ 071000Z AUTO 16014KT 10SM OVC065 14/01 A3017 850 40 1000 160/14 RMK AO2 TSNO
94908KDBQ DBQ20070507040510605/07/07 04:05:31  5-MIN KDBQ 071005Z AUTO 16013KT 10SM OVC070 14/01 A3016 850 40 1000 160/13 RMK AO2 TSNO
94908KDBQ DBQ20070507041012005/07/07 04:10:31  5-MIN KDBQ 071010Z AUTO 17012KT 10SM FEW038 BKN070 OVC090 14/01 A3017 850 40 1000 170/12 RMK AO2 TSNO
94908KDBQ DBQ20070507041511205/07/07 04:15:31  5-MIN KDBQ 071015Z AUTO 17012KT 10SM SCT038 OVC070 13/01 A3017 850 41 900 170/12 RMK AO2 TSNO
94908KDBQ DBQ20070507042011205/07/07 04:20:31  5-MIN KDBQ 071020Z AUTO 17011KT 10SM BKN040 OVC070 13/01 A3018 840 41 900 170/11 RMK AO2 TSNO
94908KDBQ DBQ20070507042511905/07/07 04:25:31  5-MIN KDBQ 071025Z AUTO 17011KT 10SM BKN040 BKN049 BKN070 13/01 A3017 840 43 900 170/11 RMK AO2 TSNO
94908KDBQ DBQ20070507043011905/07/07 04:30:31  5-MIN KDBQ 071030Z AUTO 18009KT 10SM BKN040 BKN049 BKN070 13/01 A3018 840 43 900 180/09 RMK AO2 TSNO
94908KDBQ DBQ20070507043511205/07/07 04:35:31  5-MIN KDBQ 071035Z AUTO 19008KT 10SM BKN040 BKN049 13/01 A3019 830 43 900 190/08 RMK AO2 TSNO
94908KDBQ DBQ20070507044011905/07/07 04:40:31  5-MIN KDBQ 071040Z AUTO 17009KT 10SM BKN040 BKN049 BKN070 13/01 A3017 840 43 900 160/09 RMK AO2 TSNO
94908KDBQ DBQ20070507044510905/07/07 04:45:31  5-MIN KDBQ 071045Z 17009KT 10SM BKN040 BKN049 OVC070 13/01 A3017 850 44 800 170/09 RMK AO2
94908KDBQ DBQ20070507045011905/07/07 04:50:31  5-MIN KDBQ 071050Z 16007KT 10SM BKN040 BKN070 13/01 A3017 840 44 800 160/07 RMK AO2 SLP218 T01280011
94908KDBQ DBQ20070507045512605/07/07 04:55:31  5-MIN KDBQ 071055Z 15008KT 10SM SCT040 BKN070 BKN080 13/01 A3017 850 44 800 150/08 RMK AO2 SLP214 T01280011
94908KDBQ DBQ20070507050010905/07/07 05:00:31  5-MIN KDBQ 071100Z 16010KT 10SM SCT040 BKN070 BKN085 13/01 A3017 850 44 800 160/10 RMK AO2
94908KDBQ DBQ20070507050510905/07/07 05:05:31  5-MIN KDBQ 071105Z 16010KT 10SM SCT040 BKN075 BKN110 13/02 A3016 860 46 800 150/10 RMK AO2
94908KDBQ DBQ20070507051010905/07/07 05:10:31  5-MIN KDBQ 071110Z 15010KT 10SM SCT038 SCT050 BKN070 13/01 A3015 860 44 800 150/10 RMK AO2
94908KDBQ DBQ20070507051510905/07/07 05:15:31  5-MIN KDBQ 071115Z 15009KT 10SM SCT038 BKN050 BKN080 13/01 A3016 860 44 800 150/09 RMK AO2
94908KDBQ DBQ20070507052010905/07/07 05:20:31  5-MIN KDBQ 071120Z 15012KT 10SM BKN040 BKN050 BKN080 13/01 A3015 860 43 900 150/12 RMK AO2
94908KDBQ DBQ20070507052510905/07/07 05:25:31  5-MIN KDBQ 071125Z 15012KT 10SM FEW037 BKN044 OVC090 13/01 A3015 870 43 900 150/12 RMK AO2
94908KDBQ DBQ20070507053010205/07/07 05:30:31  5-MIN KDBQ 071130Z 15011KT 10SM BKN042 OVC050 13/01 A3015 870 43 900 150/11 RMK AO2
94908KDBQ DBQ20070507053510205/07/07 05:35:31  5-MIN KDBQ 071135Z 15012KT 10SM BKN042 OVC050 13/02 A3015 870 45 900 150/12 RMK AO2
94908KDBQ DBQ20070507054009505/07/07 05:40:31  5-MIN KDBQ 071140Z 15012KT 10SM OVC046 13/02 A3015 870 45 900 150/12 RMK AO2
94908KDBQ DBQ20070507054511005/07/07 05:45:31  5-MIN KDBQ 071145Z 15012KT 8SM -RA OVC048 13/02 A3015 870 45 900 150/12 RMK AO2 RAB45 P0000
94908KDBQ DBQ20070507055017105/07/07 05:50:31  5-MIN KDBQ 071150Z 15010KT 7SM -RA FEW027 BKN048 OVC060 12/03 A3014 870 54 800 150/10 RMK AO2 RAB45 SLP206 P0001 60001 70001 T01220033 10156 20122 50003
94908KDBQ DBQ20070507055517005/07/07 05:55:31  5-MIN KDBQ 071155Z 16012G16KT 8SM -RA BKN048 OVC060 12/03 A3014 880 54 800 160/12G16 RMK AO2 RAB45 SLP205 P0001 60001 70001 T01220033 10156 20122 58002
94908KDBQ DBQ20070507060012505/07/07 06:00:31  5-MIN KDBQ 071200Z 15012G16KT 10SM -RA BKN046 BKN060 BKN075 12/03 A3013 890 54 800 150/12G16 RMK AO2 P0000
94908KDBQ DBQ20070507060512105/07/07 06:05:31  5-MIN KDBQ 071205Z 16012KT 10SM FEW041 SCT050 BKN060 12/03 A3013 880 54 800 160/12 RMK AO2 RAE01 P0000
94908KDBQ DBQ20070507061012805/07/07 06:10:31  5-MIN KDBQ 071210Z 15014KT 10SM FEW047 SCT060 SCT075 13/03 A3012 900 52 900 150/14 RMK AO2 RAE01 PRESFR P0000
94908KDBQ DBQ20070507061511405/07/07 06:15:31  5-MIN KDBQ 071215Z 15014KT 10SM FEW044 SCT080 13/03 A3012 890 50 900 150/14 RMK AO2 RAE01 P0000
94908KDBQ DBQ20070507062011405/07/07 06:20:31  5-MIN KDBQ 071220Z 15014KT 10SM FEW048 SCT070 13/03 A3012 890 50 900 150/14 RMK AO2 RAE01 P0000
94908KDBQ DBQ20070507062510705/07/07 06:25:31  5-MIN KDBQ 071225Z 15015KT 10SM FEW065 13/03 A3012 890 50 900 150/15 RMK AO2 RAE01 P0000
94908KDBQ DBQ20070507063011305/07/07 06:30:31  5-MIN KDBQ 071230Z 16015G19KT 10SM FEW065 13/03 A3012 900 50 900 150/15G19 RMK AO2 RAE01 P0000
94908KDBQ DBQ20070507063511405/07/07 06:35:31  5-MIN KDBQ 071235Z 15016G21KT 10SM SCT065 13/03 A3011 900 48 1000 150/16G21 RMK AO2 RAE01 P0000
94908KDBQ DBQ20070507064010805/07/07 06:40:31  5-MIN KDBQ 071240Z 15017KT 10SM SCT065 13/03 A3011 900 48 1000 150/17 RMK AO2 RAE01 P0000
94908KDBQ DBQ20070507064511405/07/07 06:45:31  5-MIN KDBQ 071245Z 15014G22KT 10SM SCT065 13/03 A3011 900 48 1000 150/14G22 RMK AO2 RAE01 P0000
94908KDBQ DBQ20070507065013105/07/07 06:50:31  5-MIN KDBQ 071250Z 15015G21KT 10SM FEW065 13/03 A3011 900 48 1000 150/15G21 RMK AO2 RAE01 SLP197 P0000 T01330028
94908KDBQ DBQ20070507065512505/07/07 06:55:31  5-MIN KDBQ 071255Z 15014KT 10SM FEW065 13/03 A3011 900 48 1000 150/14 RMK AO2 RAE01 SLP197 P0000 T01330028
94908KDBQ DBQ20070507070009505/07/07 07:00:31  5-MIN KDBQ 071300Z 16013KT 10SM FEW065 13/03 A3012 890 48 900 160/13 RMK AO2
94908KDBQ DBQ20070507070510205/07/07 07:05:31  5-MIN KDBQ 071305Z 16018G22KT 10SM FEW070 14/03 A3012 900 47 1000 160/18G22 RMK AO2
94908KDBQ DBQ20070507071010205/07/07 07:10:31  5-MIN KDBQ 071310Z 16014G22KT 10SM FEW070 14/03 A3011 900 48 1000 160/14G22 RMK AO2
94908KDBQ DBQ20070507071510205/07/07 07:15:31  5-MIN KDBQ 071315Z 16019G23KT 10SM FEW070 14/03 A3011 900 47 1000 160/19G23 RMK AO2
94908KDBQ DBQ20070507072010205/07/07 07:20:31  5-MIN KDBQ 071320Z 16018G23KT 10SM FEW075 14/03 A3011 900 45 1100 160/18G23 RMK AO2
94908KDBQ DBQ20070507072509605/07/07 07:25:31  5-MIN KDBQ 071325Z 16020KT 10SM FEW075 14/03 A3011 900 45 1100 160/20 RMK AO2
94908KDBQ DBQ20070507073010205/07/07 07:30:31  5-MIN KDBQ 071330Z 16019G24KT 10SM FEW075 14/03 A3011 900 45 1100 160/19G24 RMK AO2
94908KDBQ DBQ20070507073510205/07/07 07:35:31  5-MIN KDBQ 071335Z 16017G24KT 10SM FEW075 14/03 A3011 900 45 1100 160/17G24 RMK AO2
94908KDBQ DBQ20070507074009605/07/07 07:40:31  5-MIN KDBQ 071340Z 16017KT 10SM FEW075 14/03 A3011 900 45 1100 160/17 RMK AO2
94908KDBQ DBQ20070507074509605/07/07 07:45:31  5-MIN KDBQ 071345Z 16015KT 10SM FEW080 14/03 A3011 900 47 1100 160/15 RMK AO2
94908KDBQ DBQ20070507075011605/07/07 07:50:31  5-MIN KDBQ 071350Z 17017G22KT 10SM CLR 15/03 A3011 900 45 1200 170/17G22 RMK AO2 SLP195 T01500033
94908KDBQ DBQ20070507075511605/07/07 07:55:31  5-MIN KDBQ 071355Z 16016G22KT 10SM CLR 16/03 A3011 900 43 1200 160/16G22 RMK AO2 SLP195 T01560033
94908KDBQ DBQ20070507080009905/07/07 08:00:31  5-MIN KDBQ 071400Z 17019G25KT 10SM CLR 16/03 A3011 910 43 1200 170/19G25 RMK AO2
94908KDBQ DBQ20070507080509905/07/07 08:05:31  5-MIN KDBQ 071405Z 17018G25KT 10SM CLR 16/03 A3011 900 43 1200 160/18G25 RMK AO2
94908KDBQ DBQ20070507081009905/07/07 08:10:31  5-MIN KDBQ 071410Z 17017G22KT 10SM CLR 16/03 A3011 910 43 1200 170/17G22 RMK AO2
94908KDBQ DBQ20070507081509905/07/07 08:15:31  5-MIN KDBQ 071415Z 17017G22KT 10SM CLR 16/03 A3011 910 42 1200 170/17G22 RMK AO2
94908KDBQ DBQ20070507082009905/07/07 08:20:31  5-MIN KDBQ 071420Z 17013G21KT 10SM CLR 16/03 A3010 910 42 1200 170/13G21 RMK AO2
94908KDBQ DBQ20070507082509905/07/07 08:25:31  5-MIN KDBQ 071425Z 17016G20KT 10SM CLR 16/03 A3010 910 43 1200 170/16G20 RMK AO2
94908KDBQ DBQ20070507083009905/07/07 08:30:31  5-MIN KDBQ 071430Z 17017G20KT 10SM CLR 16/03 A3010 910 42 1300 170/17G20 RMK AO2
94908KDBQ DBQ20070507083509305/07/07 08:35:31  5-MIN KDBQ 071435Z 18015KT 10SM CLR 17/04 A3010 910 42 1400 180/15 RMK AO2
94908KDBQ DBQ20070507084009905/07/07 08:40:31  5-MIN KDBQ 071440Z 18018G23KT 10SM CLR 17/04 A3010 910 42 1400 180/18G23 RMK AO2
94908KDBQ DBQ20070507084509905/07/07 08:45:31  5-MIN KDBQ 071445Z 17020G24KT 10SM CLR 17/04 A3010 910 41 1400 170/20G24 RMK AO2
94908KDBQ DBQ20070507085012805/07/07 08:50:31  5-MIN KDBQ 071450Z 18017G24KT 10SM CLR 17/04 A3010 910 41 1400 180/17G24 RMK AO2 SLP190 60000 T01720039 58002
94908KDBQ DBQ20070507085512805/07/07 08:55:31  5-MIN KDBQ 071455Z 17016G22KT 10SM CLR 17/04 A3010 910 41 1400 170/16G22 RMK AO2 SLP190 60000 T01720039 56012
94908KDBQ DBQ20070507210510205/07/07 21:05:31  5-MIN KDBQ 080305Z AUTO 21003KT 7SM CLR 14/12 A3005 960 86 1200 200/03 RMK AO2 TSNO
94908KDBQ DBQ20070507211010205/07/07 21:10:31  5-MIN KDBQ 080310Z AUTO 20003KT 7SM CLR 14/12 A3005 960 83 1200 200/03 RMK AO2 TSNO
94908KDBQ DBQ20070507211510205/07/07 21:15:31  5-MIN KDBQ 080315Z AUTO 20003KT 7SM CLR 16/13 A3004 960 83 1300 200/03 RMK AO2 TSNO
94908KDBQ DBQ20070507212010205/07/07 21:20:31  5-MIN KDBQ 080320Z AUTO 20003KT 7SM CLR 16/13 A3004 960 83 1300 200/03 RMK AO2 TSNO
94908KDBQ DBQ20070507212510505/07/07 21:25:31  5-MIN KDBQ 080325Z AUTO 21003KT 6SM HZ CLR 16/13 A3005 960 83 1300 210/03 RMK AO2 TSNO
94908KDBQ DBQ20070507213010505/07/07 21:30:31  5-MIN KDBQ 080330Z AUTO 00000KT 6SM BR CLR 15/13 A3005 960 86 1200 000/00 RMK AO2 TSNO
94908KDBQ DBQ20070507213510505/07/07 21:35:31  5-MIN KDBQ 080335Z AUTO 23003KT 6SM BR CLR 15/13 A3005 960 86 1200 230/03 RMK AO2 TSNO
94908KDBQ DBQ20070507214010505/07/07 21:40:31  5-MIN KDBQ 080340Z AUTO 23003KT 6SM BR CLR 15/13 A3005 960 86 1200 230/03 RMK AO2 TSNO
94908KDBQ DBQ20070507214510505/07/07 21:45:31  5-MIN KDBQ 080345Z AUTO 22003KT 6SM BR CLR 14/13 A3005 960 90 1200 220/03 RMK AO2 TSNO
94908KDBQ DBQ20070507215012205/07/07 21:50:31  5-MIN KDBQ 080350Z AUTO 21004KT 6SM BR CLR 15/13 A3005 960 86 1200 210/04 RMK AO2 SLP173 T01500128 TSNO
94908KDBQ DBQ20070507215512205/07/07 21:55:31  5-MIN KDBQ 080355Z AUTO 20005KT 6SM BR CLR 14/12 A3004 960 86 1200 200/05 RMK AO2 SLP172 T01440122 TSNO
94908KDBQ DBQ20070507220010505/07/07 22:00:31  5-MIN KDBQ 080400Z AUTO 20005KT 5SM BR CLR 14/13 A3004 960 90 1200 200/05 RMK AO2 TSNO
94908KDBQ DBQ20070507220510505/07/07 22:05:31  5-MIN KDBQ 080405Z AUTO 20005KT 5SM BR CLR 15/13 A3004 960 86 1200 200/05 RMK AO2 TSNO
94908KDBQ DBQ20070507221010505/07/07 22:10:31  5-MIN KDBQ 080410Z AUTO 20005KT 5SM BR CLR 15/13 A3005 960 86 1200 200/05 RMK AO2 TSNO
94908KDBQ DBQ20070507221510505/07/07 22:15:31  5-MIN KDBQ 080415Z AUTO 20005KT 5SM BR CLR 14/13 A3005 960 90 1200 200/05 RMK AO2 TSNO
94908KDBQ DBQ20070507222010505/07/07 22:20:31  5-MIN KDBQ 080420Z AUTO 21006KT 5SM BR CLR 14/12 A3005 960 90 1100 210/06 RMK AO2 TSNO
94908KDBQ DBQ20070507222510505/07/07 22:25:31  5-MIN KDBQ 080425Z AUTO 21005KT 5SM BR CLR 13/12 A3005 960 93 1000 210/05 RMK AO2 TSNO
94908KDBQ DBQ20070507223010505/07/07 22:30:31  5-MIN KDBQ 080430Z AUTO 23004KT 5SM BR CLR 13/12 A3005 960 89 1000 220/04 RMK AO2 TSNO
94908KDBQ DBQ20070507223510505/07/07 22:35:31  5-MIN KDBQ 080435Z AUTO 23003KT 4SM BR CLR 13/12 A3005 960 89 1000 230/03 RMK AO2 TSNO
94908KDBQ DBQ20070507224010505/07/07 22:40:31  5-MIN KDBQ 080440Z AUTO 23003KT 4SM BR CLR 13/12 A3005 960 93 1000 230/03 RMK AO2 TSNO
94908KDBQ DBQ20070507224510505/07/07 22:45:31  5-MIN KDBQ 080445Z AUTO 00000KT 4SM BR CLR 14/12 A3005 960 90 1100 000/00 RMK AO2 TSNO
94908KDBQ DBQ20070507225012205/07/07 22:50:31  5-MIN KDBQ 080450Z AUTO 21003KT 4SM BR CLR 14/13 A3005 960 90 1200 210/03 RMK AO2 SLP174 T01440128 TSNO
94908KDBQ DBQ20070507225512205/07/07 22:55:31  5-MIN KDBQ 080455Z AUTO 21003KT 4SM BR CLR 14/12 A3005 960 90 1100 210/03 RMK AO2 SLP174 T01390122 TSNO
94908KDBQ DBQ20070507230010505/07/07 23:00:31  5-MIN KDBQ 080500Z AUTO 21003KT 4SM BR CLR 14/12 A3005 960 90 1100 210/03 RMK AO2 TSNO
94908KDBQ DBQ20070507230510505/07/07 23:05:31  5-MIN KDBQ 080505Z AUTO 21004KT 4SM BR CLR 14/12 A3005 960 90 1100 210/04 RMK AO2 TSNO
94908KDBQ DBQ20070507231010505/07/07 23:10:31  5-MIN KDBQ 080510Z AUTO 21004KT 4SM BR CLR 14/12 A3005 960 90 1100 210/04 RMK AO2 TSNO
94908KDBQ DBQ20070507231510505/07/07 23:15:31  5-MIN KDBQ 080515Z AUTO 22004KT 4SM BR CLR 14/12 A3005 960 90 1100 220/04 RMK AO2 TSNO
94908KDBQ DBQ20070507232010505/07/07 23:20:31  5-MIN KDBQ 080520Z AUTO 21004KT 4SM BR CLR 14/12 A3005 960 90 1100 210/04 RMK AO2 TSNO
94908KDBQ DBQ20070507232510505/07/07 23:25:31  5-MIN KDBQ 080525Z AUTO 22003KT 4SM BR CLR 13/12 A3005 960 93 1000 220/03 RMK AO2 TSNO
94908KDBQ DBQ20070507233010505/07/07 23:30:31  5-MIN KDBQ 080530Z AUTO 23003KT 3SM BR CLR 14/12 A3005 960 90 1100 220/03 RMK AO2 TSNO
94908KDBQ DBQ20070507233510505/07/07 23:35:31  5-MIN KDBQ 080535Z AUTO 22003KT 3SM BR CLR 14/13 A3004 960 93 1100 220/03 RMK AO2 TSNO
94908KDBQ DBQ20070507234010505/07/07 23:40:31  5-MIN KDBQ 080540Z AUTO 22003KT 3SM BR CLR 14/13 A3004 970 93 1100 220/03 RMK AO2 TSNO
94908KDBQ DBQ20070507234510505/07/07 23:45:31  5-MIN KDBQ 080545Z AUTO 22003KT 3SM BR CLR 14/13 A3004 970 93 1100 220/03 RMK AO2 TSNO
94908KDBQ DBQ20070507235015005/07/07 23:50:31  5-MIN KDBQ 080550Z AUTO 22004KT 3SM BR CLR 14/12 A3004 970 90 1100 220/04 RMK AO2 SLP169 T01390122 10211 20133 402440122 50002 TSNO
94908KDBQ DBQ20070507235515005/07/07 23:55:31  5-MIN KDBQ 080555Z AUTO 22004KT 3SM BR CLR 13/12 A3004 970 93 1000 220/04 RMK AO2 SLP170 T01330122 10211 20133 402440122 58002 TSNO
94908KDBQ DBQ20070508000010505/08/07 00:00:38  5-MIN KDBQ 080600Z AUTO 21005KT 3SM BR CLR 13/12 A3004 970 93 1000 210/05 RMK AO2 TSNO
94908KDBQ DBQ20070508000510905/08/07 00:05:31  5-MIN KDBQ 080605Z AUTO 20005KT 2 1/2SM BR CLR 13/12 A3004 970 93 1000 200/05 RMK AO2 TSNO
94908KDBQ DBQ20070508001010905/08/07 00:10:31  5-MIN KDBQ 080610Z AUTO 21004KT 2 1/2SM BR CLR 13/12 A3004 970 93 1000 200/04 RMK AO2 TSNO
94908KDBQ DBQ20070508001510505/08/07 00:15:32  5-MIN KDBQ 080615Z AUTO 21004KT 3SM BR CLR 13/12 A3004 970 93 1000 210/04 RMK AO2 TSNO
94908KDBQ DBQ20070508002010505/08/07 00:20:31  5-MIN KDBQ 080620Z AUTO 21003KT 3SM BR CLR 13/12 A3004 960 93 1000 200/03 RMK AO2 TSNO
94908KDBQ DBQ20070508002510505/08/07 00:25:31  5-MIN KDBQ 080625Z AUTO 20003KT 3SM BR CLR 14/12 A3005 960 90 1100 200/03 RMK AO2 TSNO
94908KDBQ DBQ20070508003010505/08/07 00:30:31  5-MIN KDBQ 080630Z AUTO 20003KT 4SM BR CLR 14/12 A3005 960 90 1100 200/03 RMK AO2 TSNO
94908KDBQ DBQ20070508003510505/08/07 00:35:31  5-MIN KDBQ 080635Z AUTO 22003KT 4SM BR CLR 14/12 A3005 960 90 1100 210/03 RMK AO2 TSNO
94908KDBQ DBQ20070508004010505/08/07 00:40:31  5-MIN KDBQ 080640Z AUTO 21003KT 4SM BR CLR 14/13 A3005 960 93 1100 210/03 RMK AO2 TSNO
94908KDBQ DBQ20070508004510505/08/07 00:45:31  5-MIN KDBQ 080645Z AUTO 21003KT 4SM BR CLR 14/13 A3005 960 93 1100 210/03 RMK AO2 TSNO
94908KDBQ DBQ20070508005012205/08/07 00:50:31  5-MIN KDBQ 080650Z AUTO 20003KT 4SM BR CLR 14/12 A3004 960 90 1100 200/03 RMK AO2 SLP171 T01390122 TSNO
94908KDBQ DBQ20070508005512205/08/07 00:55:31  5-MIN KDBQ 080655Z AUTO 20003KT 4SM BR CLR 14/13 A3004 970 93 1100 190/03 RMK AO2 SLP170 T01390128 TSNO
94908KDBQ DBQ20070508010010505/08/07 01:00:31  5-MIN KDBQ 080700Z AUTO 20004KT 4SM BR CLR 13/12 A3004 960 93 1000 200/04 RMK AO2 TSNO
94908KDBQ DBQ20070508010510505/08/07 01:05:31  5-MIN KDBQ 080705Z AUTO 20004KT 4SM BR CLR 14/12 A3005 960 90 1100 200/04 RMK AO2 TSNO
94908KDBQ DBQ20070508011010505/08/07 01:10:31  5-MIN KDBQ 080710Z AUTO 21004KT 4SM BR CLR 14/12 A3005 960 90 1100 210/04 RMK AO2 TSNO
94908KDBQ DBQ20070508011510505/08/07 01:15:31  5-MIN KDBQ 080715Z AUTO 21004KT 4SM BR CLR 13/12 A3005 960 93 1000 210/04 RMK AO2 TSNO
94908KDBQ DBQ20070508012010505/08/07 01:20:31  5-MIN KDBQ 080720Z AUTO 21004KT 3SM BR CLR 13/12 A3005 960 93 1000 210/04 RMK AO2 TSNO
94908KDBQ DBQ20070508012510505/08/07 01:25:31  5-MIN KDBQ 080725Z AUTO 21003KT 3SM BR CLR 14/12 A3005 960 90 1100 210/03 RMK AO2 TSNO
94908KDBQ DBQ20070508013010505/08/07 01:30:31  5-MIN KDBQ 080730Z AUTO 21003KT 3SM BR CLR 14/13 A3005 960 93 1100 210/03 RMK AO2 TSNO
94908KDBQ DBQ20070508013510505/08/07 01:35:31  5-MIN KDBQ 080735Z AUTO 21003KT 3SM BR CLR 14/13 A3005 960 93 1100 210/03 RMK AO2 TSNO
94908KDBQ DBQ20070508014010505/08/07 01:40:31  5-MIN KDBQ 080740Z AUTO 21003KT 3SM BR CLR 14/13 A3005 960 93 1100 210/03 RMK AO2 TSNO
94908KDBQ DBQ20070508014510905/08/07 01:45:31  5-MIN KDBQ 080745Z AUTO 21003KT 2 1/2SM BR CLR 14/13 A3005 960 93 1100 210/03 RMK AO2 TSNO
94908KDBQ DBQ20070508015012205/08/07 01:50:31  5-MIN KDBQ 080750Z AUTO 21003KT 3SM BR CLR 14/13 A3005 960 93 1100 200/03 RMK AO2 SLP173 T01390128 TSNO
94908KDBQ DBQ20070508015512205/08/07 01:55:31  5-MIN KDBQ 080755Z AUTO 00000KT 3SM BR CLR 14/13 A3005 960 93 1100 000/00 RMK AO2 SLP174 T01390128 TSNO
94908KDBQ DBQ20070508020010505/08/07 02:00:31  5-MIN KDBQ 080800Z AUTO 20003KT 3SM BR CLR 14/13 A3005 960 93 1100 200/03 RMK AO2 TSNO
94908KDBQ DBQ20070508020510505/08/07 02:05:31  5-MIN KDBQ 080805Z AUTO 20003KT 3SM BR CLR 14/13 A3005 960 93 1100 200/03 RMK AO2 TSNO
94908KDBQ DBQ20070508021010905/08/07 02:10:31  5-MIN KDBQ 080810Z AUTO 21003KT 2 1/2SM BR CLR 14/13 A3005 960 93 1100 200/03 RMK AO2 TSNO
94908KDBQ DBQ20070508021510905/08/07 02:15:31  5-MIN KDBQ 080815Z AUTO 19003KT 2 1/2SM BR CLR 14/13 A3005 960 93 1100 190/03 RMK AO2 TSNO
94908KDBQ DBQ20070508022010505/08/07 02:20:31  5-MIN KDBQ 080820Z AUTO 18003KT 2SM BR CLR 13/13 A3005 960 96 1000 180/03 RMK AO2 TSNO
94908KDBQ DBQ20070508022510505/08/07 02:25:31  5-MIN KDBQ 080825Z AUTO 18003KT 2SM BR CLR 13/13 A3005 960 96 1000 180/03 RMK AO2 TSNO
94908KDBQ DBQ20070508023010505/08/07 02:30:31  5-MIN KDBQ 080830Z AUTO 18003KT 2SM BR CLR 13/12 A3005 960 93 1000 180/03 RMK AO2 TSNO
94908KDBQ DBQ20070508023510505/08/07 02:35:31  5-MIN KDBQ 080835Z AUTO 00000KT 2SM BR CLR 13/13 A3005 960 96 1000 000/00 RMK AO2 TSNO
94908KDBQ DBQ20070508024010505/08/07 02:40:31  5-MIN KDBQ 080840Z AUTO 19003KT 2SM BR CLR 14/13 A3005 960 93 1100 190/03 RMK AO2 TSNO
94908KDBQ DBQ20070508024510505/08/07 02:45:31  5-MIN KDBQ 080845Z AUTO 18003KT 2SM BR CLR 13/13 A3005 960 96 1000 180/03 RMK AO2 TSNO
94908KDBQ DBQ20070508025012805/08/07 02:50:31  5-MIN KDBQ 080850Z AUTO 19003KT 2SM BR CLR 14/13 A3005 960 93 1100 180/03 RMK AO2 SLP173 T01390128 58002 TSNO
94908KDBQ DBQ20070508025512805/08/07 02:55:31  5-MIN KDBQ 080855Z AUTO 20004KT 2SM BR CLR 13/13 A3005 960 96 1000 200/04 RMK AO2 SLP173 T01330128 50003 TSNO
94908KDBQ DBQ20070508030010905/08/07 03:00:31  5-MIN KDBQ 080900Z AUTO 20003KT 2 1/2SM BR CLR 14/13 A3005 960 93 1100 200/03 RMK AO2 TSNO
94908KDBQ DBQ20070508030510905/08/07 03:05:31  5-MIN KDBQ 080905Z AUTO 19003KT 2 1/2SM BR CLR 14/13 A3005 960 93 1100 190/03 RMK AO2 TSNO
94908KDBQ DBQ20070508031010905/08/07 03:10:31  5-MIN KDBQ 080910Z AUTO 00000KT 2 1/2SM BR CLR 14/13 A3005 960 96 1100 000/00 RMK AO2 TSNO
94908KDBQ DBQ20070508031510905/08/07 03:15:31  5-MIN KDBQ 080915Z AUTO 00000KT 2 1/2SM BR CLR 14/13 A3005 960 96 1100 000/00 RMK AO2 TSNO
94908KDBQ DBQ20070508032010505/08/07 03:20:31  5-MIN KDBQ 080920Z AUTO 00000KT 3SM BR CLR 14/13 A3005 960 96 1100 000/00 RMK AO2 TSNO
94908KDBQ DBQ20070508032510505/08/07 03:25:31  5-MIN KDBQ 080925Z AUTO 00000KT 3SM BR CLR 14/13 A3005 960 93 1200 000/00 RMK AO2 TSNO
94908KDBQ DBQ20070508033010905/08/07 03:30:31  5-MIN KDBQ 080930Z AUTO 00000KT 2 1/2SM BR CLR 14/13 A3005 960 93 1200 000/00 RMK AO2 TSNO
94908KDBQ DBQ20070508033510905/08/07 03:35:31  5-MIN KDBQ 080935Z AUTO 21003KT 2 1/2SM BR CLR 14/13 A3004 960 96 1100 200/03 RMK AO2 TSNO
94908KDBQ DBQ20070508034010505/08/07 03:40:31  5-MIN KDBQ 080940Z AUTO 20004KT 2SM BR CLR 13/13 A3004 960 96 1000 200/04 RMK AO2 TSNO
94908KDBQ DBQ20070508034510905/08/07 03:45:31  5-MIN KDBQ 080945Z AUTO 21004KT 1 3/4SM BR CLR 13/13 A3005 960 96 1000 210/04 RMK AO2 TSNO
94908KDBQ DBQ20070508035010505/08/07 03:50:31  5-MIN KDBQ 080950Z AUTO 22004KT 2SM BR CLR 13/13 A3005 960 96 1000 220/04 RMK AO2 TSNO
94908KDBQ DBQ20070508035512205/08/07 03:55:31  5-MIN KDBQ 080955Z AUTO 22003KT 2SM BR CLR 14/13 A3005 960 96 1100 220/03 RMK AO2 SLP173 T01390133 TSNO
94908KDBQ DBQ20070508040010905/08/07 04:00:31  5-MIN KDBQ 081000Z AUTO 23003KT 1 1/2SM BR CLR 13/12 A3005 960 96 1000 230/03 RMK AO2 TSNO
94908KDBQ DBQ20070508040510705/08/07 04:05:31  5-MIN KDBQ 081005Z AUTO 00000KT 3/4SM BR CLR 13/12 A3005 960 96 1000 000/00 RMK AO2 TSNO
94908KDBQ DBQ20070508041010905/08/07 04:10:31  5-MIN KDBQ 081010Z AUTO 22003KT 1/4SM FG VV001 13/12 A3006 950 93 1000 220/03 RMK AO2 TSNO
94908KDBQ DBQ20070508041510805/08/07 04:15:31  5-MIN KDBQ 081015Z AUTO 20003KT 1/4SM FG VV001 12/12 A3006 950 96 900 200/03 RMK AO2 TSNO
94908KDBQ DBQ20070508042010805/08/07 04:20:31  5-MIN KDBQ 081020Z AUTO 00000KT 1/4SM FG VV001 12/12 A3006 950 96 900 000/00 RMK AO2 TSNO
94908KDBQ DBQ20070508042510805/08/07 04:25:31  5-MIN KDBQ 081025Z AUTO 00000KT 1/4SM FG VV001 12/12 A3006 950 96 900 000/00 RMK AO2 TSNO
94908KDBQ DBQ20070508043010905/08/07 04:30:31  5-MIN KDBQ 081030Z AUTO 00000KT 1/4SM FG VV001 13/12 A3006 950 93 1000 000/00 RMK AO2 TSNO
94908KDBQ DBQ20070508043509905/08/07 04:35:31  5-MIN KDBQ 081035Z 00000KT 1/4SM FG VV001 13/13 A3006 950 96 1000 000/00 RMK AO2
94908KDBQ DBQ20070508044009905/08/07 04:40:31  5-MIN KDBQ 081040Z 00000KT 1/4SM FG VV001 14/13 A3006 950 93 1100 000/00 RMK AO2
94908KDBQ DBQ20070508044509905/08/07 04:45:31  5-MIN KDBQ 081045Z 00000KT 1/4SM FG VV001 14/13 A3006 950 93 1100 000/00 RMK AO2
94908KDBQ DBQ20070508045011605/08/07 04:50:31  5-MIN KDBQ 081050Z 00000KT 1/4SM FG VV001 14/13 A3006 950 96 1100 000/00 RMK AO2 SLP175 T01390133
94908KDBQ DBQ20070508045511605/08/07 04:55:31  5-MIN KDBQ 081055Z 00000KT 1/4SM FG VV001 14/13 A3005 960 93 1200 000/00 RMK AO2 SLP174 T01440133
94908KDBQ DBQ20070508050009905/08/07 05:00:31  5-MIN KDBQ 081100Z 00000KT 1/2SM FG VV001 14/13 A3006 950 96 1100 000/00 RMK AO2
94908KDBQ DBQ20070508050509705/08/07 05:05:31  5-MIN KDBQ 081105Z 00000KT 1/2SM FG CLR 13/13 A3006 950 96 1000 000/00 RMK AO2
94908KDBQ DBQ20070508051009705/08/07 05:10:31  5-MIN KDBQ 081110Z 00000KT 1/4SM FG CLR 12/12 A3007 940 100 800 000/00 RMK AO2
94908KDBQ DBQ20070508051509905/08/07 05:15:31  5-MIN KDBQ 081115Z 00000KT M1/4SM FG VV001 11/11 A3007 940 96 700 000/00 RMK AO2
94908KDBQ DBQ20070508052009905/08/07 05:20:31  5-MIN KDBQ 081120Z 00000KT M1/4SM FG VV001 11/11 A3007 940 96 700 000/00 RMK AO2
94908KDBQ DBQ20070508052509905/08/07 05:25:31  5-MIN KDBQ 081125Z 00000KT M1/4SM FG VV001 11/11 A3007 940 96 700 000/00 RMK AO2
94908KDBQ DBQ20070508053009905/08/07 05:30:31  5-MIN KDBQ 081130Z 00000KT M1/4SM FG VV001 12/12 A3008 940 96 900 000/00 RMK AO2
94908KDBQ DBQ20070508053509905/08/07 05:35:31  5-MIN KDBQ 081135Z 00000KT M1/4SM FG VV001 12/12 A3008 930 96 900 000/00 RMK AO2
94908KDBQ DBQ20070508054010005/08/07 05:40:31  5-MIN KDBQ 081140Z 00000KT M1/4SM FG VV001 12/12 A3008 930 100 800 000/00 RMK AO2
94908KDBQ DBQ20070508054509905/08/07 05:45:31  5-MIN KDBQ 081145Z 21003KT M1/4SM FG VV002 12/11 A3008 930 96 800 210/03 RMK AO2
94908KDBQ DBQ20070508055013405/08/07 05:50:31  5-MIN KDBQ 081150Z 00000KT M1/4SM FG VV002 12/11 A3008 930 96 800 000/00 RMK AO2 SLP185 T01170111 10144 20111 50003
94908KDBQ DBQ20070508055513505/08/07 05:55:31  5-MIN KDBQ 081155Z 00000KT M1/4SM FG OVC002 12/11 A3008 930 96 800 000/00 RMK AO2 SLP185 T01170111 10144 20111 53012
94908KDBQ DBQ20070508060010005/08/07 06:00:31  5-MIN KDBQ 081200Z 19003KT M1/4SM FG OVC002 12/12 A3009 930 96 900 190/03 RMK AO2
94908KDBQ DBQ20070508060510105/08/07 06:05:31  5-MIN KDBQ 081205Z 20003KT M1/4SM FG OVC002 12/12 A3009 920 100 900 200/03 RMK AO2
94908KDBQ DBQ20070508061010005/08/07 06:10:31  5-MIN KDBQ 081210Z 00000KT M1/4SM FG OVC002 13/12 A3009 920 96 900 000/00 RMK AO2
94908KDBQ DBQ20070508061510005/08/07 06:15:31  5-MIN KDBQ 081215Z 00000KT M1/4SM FG OVC002 13/12 A3009 920 96 900 000/00 RMK AO2
94908KDBQ DBQ20070508062010005/08/07 06:20:31  5-MIN KDBQ 081220Z 00000KT M1/4SM FG OVC002 13/12 A3009 920 96 900 000/00 RMK AO2
94908KDBQ DBQ20070508062510005/08/07 06:25:31  5-MIN KDBQ 081225Z 00000KT M1/4SM FG VV002 13/13 A3009 920 100 900 000/00 RMK AO2
94908KDBQ DBQ20070508063010005/08/07 06:30:31  5-MIN KDBQ 081230Z 00000KT M1/4SM FG VV002 13/13 A3009 920 96 1000 000/00 RMK AO2
94908KDBQ DBQ20070508063509905/08/07 06:35:31  5-MIN KDBQ 081235Z 00000KT 1/4SM FG VV002 14/13 A3009 920 96 1000 000/00 RMK AO2
94908KDBQ DBQ20070508064009905/08/07 06:40:31  5-MIN KDBQ 081240Z 00000KT 1/4SM FG VV002 14/14 A3009 920 96 1100 000/00 RMK AO2
94908KDBQ DBQ20070508064509905/08/07 06:45:31  5-MIN KDBQ 081245Z 00000KT 1/2SM FG VV002 15/14 A3009 920 96 1200 000/00 RMK AO2
94908KDBQ DBQ20070508065009805/08/07 06:50:31  5-MIN KDBQ 081250Z 00000KT 1SM BR VV002 15/15 A3009 920 100 1200 000/00 RMK AO2
94908KDBQ DBQ20070508065511505/08/07 06:55:31  5-MIN KDBQ 081255Z 00000KT 3SM BR SCT002 16/15 A3009 920 96 1200 000/00 RMK AO2 SLP189 T01560150
94908KDBQ DBQ20070508070009805/08/07 07:00:31  5-MIN KDBQ 081300Z 00000KT 3SM BR FEW002 16/15 A3010 920 96 1200 000/00 RMK AO2
94908KDBQ DBQ20070508070509805/08/07 07:05:31  5-MIN KDBQ 081305Z 00000KT 3SM BR FEW002 16/16 A3010 920 96 1300 000/00 RMK AO2
94908KDBQ DBQ20070508071009505/08/07 07:10:31  5-MIN KDBQ 081310Z 00000KT 3SM BR CLR 16/16 A3010 910 96 1300 000/00 RMK AO2
94908KDBQ DBQ20070508071509505/08/07 07:15:31  5-MIN KDBQ 081315Z 00000KT 4SM BR CLR 17/16 A3010 910 93 1400 000/00 RMK AO2
94908KDBQ DBQ20070508072009505/08/07 07:20:31  5-MIN KDBQ 081320Z 28004KT 5SM BR CLR 17/16 A3010 920 96 1400 280/04 RMK AO2
94908KDBQ DBQ20070508072509205/08/07 07:25:31  5-MIN KDBQ 081325Z 30004KT 7SM CLR 17/16 A3010 910 90 1400 300/04 RMK AO2
94908KDBQ DBQ20070508073009205/08/07 07:30:31  5-MIN KDBQ 081330Z 30004KT 8SM CLR 17/16 A3010 910 93 1400 300/04 RMK AO2
94908KDBQ DBQ20070508073509205/08/07 07:35:31  5-MIN KDBQ 081335Z 29003KT 8SM CLR 18/16 A3010 910 87 1500 290/03 RMK AO2
94908KDBQ DBQ20070508074009205/08/07 07:40:31  5-MIN KDBQ 081340Z VRB03KT 8SM CLR 18/16 A3010 910 87 1500 VRB/03 RMK AO2
94908KDBQ DBQ20070508074509205/08/07 07:45:31  5-MIN KDBQ 081345Z 27004KT 9SM CLR 18/16 A3010 910 87 1600 270/04 RMK AO2
94908KDBQ DBQ20070508075010905/08/07 07:50:31  5-MIN KDBQ 081350Z 00000KT 9SM CLR 19/16 A3010 910 81 1600 000/00 RMK AO2 SLP190 T01890156
94908KDBQ DBQ20070508075511005/08/07 07:55:31  5-MIN KDBQ 081355Z 28003KT 10SM CLR 19/16 A3010 910 84 1600 280/03 RMK AO2 SLP190 T01890161
94908KDBQ DBQ20070508080009305/08/07 08:00:31  5-MIN KDBQ 081400Z 26004KT 10SM CLR 19/16 A3010 910 81 1700 250/04 RMK AO2
94908KDBQ DBQ20070508080509305/08/07 08:05:31  5-MIN KDBQ 081405Z 00000KT 10SM CLR 19/16 A3010 910 78 1700 000/00 RMK AO2
94908KDBQ DBQ20070508081009305/08/07 08:10:31  5-MIN KDBQ 081410Z 27003KT 10SM CLR 19/16 A3010 910 78 1700 270/03 RMK AO2
94908KDBQ DBQ20070508081509305/08/07 08:15:31  5-MIN KDBQ 081415Z 27004KT 10SM CLR 20/16 A3010 910 75 1700 270/04 RMK AO2
94908KDBQ DBQ20070508082009305/08/07 08:20:31  5-MIN KDBQ 081420Z 30006KT 10SM CLR 20/15 A3010 910 72 1700 300/06 RMK AO2
94908KDBQ DBQ20070508082509305/08/07 08:25:31  5-MIN KDBQ 081425Z 30007KT 10SM CLR 20/15 A3010 910 72 1700 300/07 RMK AO2
94908KDBQ DBQ20070508083009305/08/07 08:30:31  5-MIN KDBQ 081430Z 30006KT 10SM CLR 20/15 A3010 910 72 1700 300/06 RMK AO2
94908KDBQ DBQ20070508083509305/08/07 08:35:31  5-MIN KDBQ 081435Z 29008KT 10SM CLR 20/15 A3010 910 72 1700 290/08 RMK AO2
94908KDBQ DBQ20070508084009305/08/07 08:40:31  5-MIN KDBQ 081440Z 28008KT 10SM CLR 20/16 A3010 910 75 1700 280/08 RMK AO2
94908KDBQ DBQ20070508084509305/08/07 08:45:31  5-MIN KDBQ 081445Z 26007KT 10SM CLR 20/16 A3011 910 75 1700 260/07 RMK AO2
94908KDBQ DBQ20070508085011605/08/07 08:50:31  5-MIN KDBQ 081450Z 28006KT 10SM CLR 20/16 A3010 910 75 1700 280/06 RMK AO2 SLP192 T02000156 53012
94908KDBQ DBQ20070508085511605/08/07 08:55:31  5-MIN KDBQ 081455Z 31005KT 10SM CLR 20/16 A3011 910 75 1700 310/05 RMK AO2 SLP192 T02000156 51007
94908KDBQ DBQ20070508090009305/08/07 09:00:31  5-MIN KDBQ 081500Z 27004KT 10SM CLR 21/16 A3011 910 73 1800 270/04 RMK AO2
94908KDBQ DBQ20070508090511205/08/07 09:05:31  5-MIN KDBQ 081505Z 28008KT 250V320 10SM FEW017 20/16 A3010 910 75 1700 280/08 250V320 RMK AO2
94908KDBQ DBQ20070508091009605/08/07 09:10:31  5-MIN KDBQ 081510Z 27008KT 10SM SCT019 20/15 A3010 910 72 1700 270/08 RMK AO2
94908KDBQ DBQ20070508091509605/08/07 09:15:31  5-MIN KDBQ 081515Z 29007KT 10SM SCT019 20/16 A3010 910 75 1700 290/07 RMK AO2
94908KDBQ DBQ20070508092009605/08/07 09:20:31  5-MIN KDBQ 081520Z 28007KT 10SM SCT019 20/15 A3010 910 72 1700 280/07 RMK AO2
94908KDBQ DBQ20070508092509605/08/07 09:25:31  5-MIN KDBQ 081525Z 27006KT 10SM FEW019 21/15 A3010 910 70 1800 270/06 RMK AO2
94908KDBQ DBQ20070508093009605/08/07 09:30:31  5-MIN KDBQ 081530Z 26007KT 10SM FEW019 21/16 A3010 910 73 1800 260/07 RMK AO2
94908KDBQ DBQ20070508093509605/08/07 09:35:31  5-MIN KDBQ 081535Z 28007KT 10SM FEW019 20/15 A3010 910 72 1700 280/07 RMK AO2
94908KDBQ DBQ20070508094009605/08/07 09:40:31  5-MIN KDBQ 081540Z 27005KT 10SM FEW019 20/15 A3010 910 72 1700 270/05 RMK AO2
94908KDBQ DBQ20070508094509305/08/07 09:45:31  5-MIN KDBQ 081545Z 28006KT 10SM CLR 21/15 A3011 910 70 1800 280/06 RMK AO2
94908KDBQ DBQ20070508095011005/08/07 09:50:31  5-MIN KDBQ 081550Z VRB04KT 10SM CLR 21/16 A3010 910 73 1800 VRB/04 RMK AO2 SLP192 T02060156
94908KDBQ DBQ20070508095512605/08/07 09:55:31  5-MIN KDBQ 081555Z 29007KT 250V310 10SM CLR 21/15 A3010 910 70 1800 290/07 250V310 RMK AO2 SLP192 T02060150
94908KDBQ DBQ20070508100009305/08/07 10:00:31  5-MIN KDBQ 081600Z 25006KT 10SM CLR 21/14 A3011 910 67 1800 250/06 RMK AO2
94908KDBQ DBQ20070508100509305/08/07 10:05:31  5-MIN KDBQ 081605Z VRB04KT 10SM CLR 20/14 A3010 910 70 1700 VRB/04 RMK AO2
94908KDBQ DBQ20070508101009305/08/07 10:10:31  5-MIN KDBQ 081610Z 21004KT 10SM CLR 20/14 A3010 910 70 1700 210/04 RMK AO2
94908KDBQ DBQ20070508101509305/08/07 10:15:31  5-MIN KDBQ 081615Z VRB04KT 10SM CLR 21/14 A3010 910 67 1800 VRB/04 RMK AO2
94908KDBQ DBQ20070508102009605/08/07 10:20:31  5-MIN KDBQ 081620Z VRB03KT 10SM FEW022 21/14 A3010 910 67 1800 VRB/03 RMK AO2
94908KDBQ DBQ20070508102509605/08/07 10:25:31  5-MIN KDBQ 081625Z VRB04KT 10SM FEW022 21/15 A3009 920 70 1800 VRB/04 RMK AO2
94908KDBQ DBQ20070508103009305/08/07 10:30:31  5-MIN KDBQ 081630Z 28003KT 10SM CLR 21/15 A3009 920 68 1900 280/03 RMK AO2
94908KDBQ DBQ20070508103509305/08/07 10:35:31  5-MIN KDBQ 081635Z 06003KT 10SM CLR 21/14 A3009 920 65 1900 060/03 RMK AO2
94908KDBQ DBQ20070508104009305/08/07 10:40:31  5-MIN KDBQ 081640Z 00000KT 10SM CLR 21/14 A3009 920 65 1900 000/00 RMK AO2
94908KDBQ DBQ20070508104509305/08/07 10:45:31  5-MIN KDBQ 081645Z 27004KT 10SM CLR 22/15 A3009 920 65 1900 270/04 RMK AO2
94908KDBQ DBQ20070508105011005/08/07 10:50:31  5-MIN KDBQ 081650Z 00000KT 10SM CLR 21/14 A3009 920 65 1900 000/00 RMK AO2 SLP188 T02110144
94908KDBQ DBQ20070508105511005/08/07 10:55:31  5-MIN KDBQ 081655Z VRB03KT 10SM CLR 22/14 A3009 920 63 1900 VRB/03 RMK AO2 SLP187 T02170144
94908KDBQ DBQ20070508110009305/08/07 11:00:31  5-MIN KDBQ 081700Z 24006KT 10SM CLR 22/14 A3009 920 63 1900 240/06 RMK AO2
94908KDBQ DBQ20070508110509305/08/07 11:05:31  5-MIN KDBQ 081705Z 22004KT 10SM CLR 22/15 A3009 920 65 1900 220/04 RMK AO2
94908KDBQ DBQ20070508111009305/08/07 11:10:31  5-MIN KDBQ 081710Z 26006KT 10SM CLR 22/15 A3009 930 63 2000 260/06 RMK AO2
94908KDBQ DBQ20070508111509605/08/07 11:15:31  5-MIN KDBQ 081715Z 27003KT 10SM FEW032 22/15 A3009 920 63 2000 270/03 RMK AO2
94908KDBQ DBQ20070508112009605/08/07 11:20:31  5-MIN KDBQ 081720Z 22008KT 10SM SCT032 23/16 A3009 920 63 2100 220/08 RMK AO2
94908KDBQ DBQ20070508112509605/08/07 11:25:31  5-MIN KDBQ 081725Z 30004KT 10SM SCT032 23/15 A3008 930 61 2100 300/04 RMK AO2
94908KDBQ DBQ20070508113009605/08/07 11:30:31  5-MIN KDBQ 081730Z VRB03KT 10SM SCT032 23/16 A3009 930 63 2100 VRB/03 RMK AO2
94908KDBQ DBQ20070508113509605/08/07 11:35:31  5-MIN KDBQ 081735Z VRB03KT 10SM SCT032 23/15 A3008 930 61 2100 VRB/03 RMK AO2
94908KDBQ DBQ20070508114009605/08/07 11:40:31  5-MIN KDBQ 081740Z VRB04KT 10SM BKN034 23/14 A3008 930 59 2100 VRB/04 RMK AO2
94908KDBQ DBQ20070508114509605/08/07 11:45:31  5-MIN KDBQ 081745Z 27007KT 10SM SCT036 23/14 A3008 930 57 2200 270/07 RMK AO2
94908KDBQ DBQ20070508115013105/08/07 11:50:31  5-MIN KDBQ 081750Z 25006KT 10SM FEW034 23/14 A3008 930 57 2100 250/06 RMK AO2 SLP183 T02280139 10233 20122 51007
94908KDBQ DBQ20070508115513105/08/07 11:55:31  5-MIN KDBQ 081755Z 27004KT 10SM FEW036 23/14 A3007 940 57 2100 270/04 RMK AO2 SLP181 T02280139 10233 20122 58010
94908KDBQ DBQ20070508120010305/08/07 12:00:31  5-MIN KDBQ 081800Z 30006KT 10SM FEW036 SCT045 23/14 A3007 940 55 2200 300/06 RMK AO2
94908KDBQ DBQ20070508120510305/08/07 12:05:31  5-MIN KDBQ 081805Z 30007KT 10SM FEW036 SCT047 23/13 A3007 940 55 2100 300/07 RMK AO2
94908KDBQ DBQ20070508121009605/08/07 12:10:31  5-MIN KDBQ 081810Z 26007KT 10SM SCT047 24/14 A3007 940 53 2200 260/07 RMK AO2
94908KDBQ DBQ20070508121509605/08/07 12:15:31  5-MIN KDBQ 081815Z 30009KT 10SM SCT045 23/14 A3007 940 55 2200 300/09 RMK AO2
94908KDBQ DBQ20070508122009605/08/07 12:20:31  5-MIN KDBQ 081820Z 29007KT 10SM BKN045 23/14 A3007 940 55 2200 290/07 RMK AO2
94908KDBQ DBQ20070508122509605/08/07 12:25:31  5-MIN KDBQ 081825Z 27009KT 10SM BKN045 23/14 A3007 940 55 2200 270/09 RMK AO2
94908KDBQ DBQ20070508123009605/08/07 12:30:31  5-MIN KDBQ 081830Z VRB04KT 10SM BKN045 24/14 A3007 940 53 2200 VRB/04 RMK AO2
94908KDBQ DBQ20070508123509605/08/07 12:35:31  5-MIN KDBQ 081835Z 25003KT 10SM BKN045 24/13 A3007 940 51 2200 240/03 RMK AO2
94908KDBQ DBQ20070508124010205/08/07 12:40:31  5-MIN KDBQ 081840Z 26012G15KT 10SM BKN045 24/14 A3006 950 53 2200 260/12G15 RMK AO2
94908KDBQ DBQ20070508124509605/08/07 12:45:31  5-MIN KDBQ 081845Z 25011KT 10SM SCT047 24/13 A3007 940 49 2200 250/11 RMK AO2
94908KDBQ DBQ20070508125011305/08/07 12:50:31  5-MIN KDBQ 081850Z 24008KT 10SM SCT047 24/13 A3007 940 49 2200 240/08 RMK AO2 SLP179 T02390128
94908KDBQ DBQ20070508125511305/08/07 12:55:31  5-MIN KDBQ 081855Z 30006KT 10SM BKN049 23/13 A3007 940 53 2200 300/06 RMK AO2 SLP180 T02330133
94908KDBQ DBQ20070508130010205/08/07 13:00:31  5-MIN KDBQ 081900Z 26008G16KT 10SM BKN049 24/13 A3006 950 49 2300 260/08G16 RMK AO2
94908KDBQ DBQ20070508130510205/08/07 13:05:31  5-MIN KDBQ 081905Z 28008G16KT 10SM SCT049 25/13 A3006 940 48 2400 280/08G16 RMK AO2
94908KDBQ DBQ20070508131009605/08/07 13:10:31  5-MIN KDBQ 081910Z 25007KT 10SM FEW049 24/13 A3006 950 49 2300 250/07 RMK AO2
94908KDBQ DBQ20070508131510205/08/07 13:15:31  5-MIN KDBQ 081915Z 28012G15KT 10SM SCT049 25/13 A3006 950 48 2400 280/12G15 RMK AO2
94908KDBQ DBQ20070508132010205/08/07 13:20:31  5-MIN KDBQ 081920Z 28013G16KT 10SM SCT049 24/13 A3006 950 49 2200 280/13G16 RMK AO2
94908KDBQ DBQ20070508132510205/08/07 13:25:31  5-MIN KDBQ 081925Z 28010G16KT 10SM FEW049 24/13 A3007 940 47 2300 280/10G16 RMK AO2
94908KDBQ DBQ20070508133009605/08/07 13:30:31  5-MIN KDBQ 081930Z 27008KT 10SM FEW049 25/13 A3006 950 48 2400 270/08 RMK AO2
94908KDBQ DBQ20070508133509605/08/07 13:35:31  5-MIN KDBQ 081935Z 29008KT 10SM FEW049 25/13 A3007 940 46 2400 290/08 RMK AO2
94908KDBQ DBQ20070508134009605/08/07 13:40:31  5-MIN KDBQ 081940Z 27010KT 10SM FEW049 25/13 A3006 950 46 2400 270/10 RMK AO2
94908KDBQ DBQ20070508134510205/08/07 13:45:31  5-MIN KDBQ 081945Z 30012G15KT 10SM FEW049 25/13 A3006 950 46 2400 300/12G15 RMK AO2
94908KDBQ DBQ20070508135011905/08/07 13:50:31  5-MIN KDBQ 081950Z 28011G16KT 10SM FEW055 24/12 A3006 950 46 2300 280/11G16 RMK AO2 SLP176 T02440122
94908KDBQ DBQ20070508135511905/08/07 13:55:31  5-MIN KDBQ 081955Z 28012G16KT 10SM FEW055 24/12 A3006 950 46 2300 280/12G16 RMK AO2 SLP176 T02440122
94908KDBQ DBQ20070508140009305/08/07 14:00:31  5-MIN KDBQ 082000Z 27009KT 10SM CLR 25/12 A3006 950 44 2400 270/09 RMK AO2
94908KDBQ DBQ20070508140509305/08/07 14:05:31  5-MIN KDBQ 082005Z 27009KT 10SM CLR 24/12 A3005 950 46 2300 260/09 RMK AO2
94908KDBQ DBQ20070508141009305/08/07 14:10:31  5-MIN KDBQ 082010Z 28012KT 10SM CLR 24/12 A3005 960 46 2200 280/12 RMK AO2
94908KDBQ DBQ20070508141509305/08/07 14:15:31  5-MIN KDBQ 082015Z 26009KT 10SM CLR 24/12 A3006 950 47 2200 260/09 RMK AO2
94908KDBQ DBQ20070508142009305/08/07 14:20:31  5-MIN KDBQ 082020Z 27007KT 10SM CLR 24/12 A3005 960 46 2300 270/07 RMK AO2
94908KDBQ DBQ20070508142509305/08/07 14:25:31  5-MIN KDBQ 082025Z 26008KT 10SM CLR 24/11 A3005 960 42 2300 260/08 RMK AO2
94908KDBQ DBQ20070508143009305/08/07 14:30:31  5-MIN KDBQ 082030Z 28009KT 10SM CLR 24/11 A3005 960 44 2200 280/09 RMK AO2
94908KDBQ DBQ20070508143509305/08/07 14:35:31  5-MIN KDBQ 082035Z 30006KT 10SM CLR 24/11 A3005 960 44 2300 300/06 RMK AO2
94908KDBQ DBQ20070508144009305/08/07 14:40:31  5-MIN KDBQ 082040Z 26009KT 10SM CLR 24/12 A3004 970 44 2300 260/09 RMK AO2
94908KDBQ DBQ20070508144509305/08/07 14:45:31  5-MIN KDBQ 082045Z 25008KT 10SM CLR 24/12 A3004 970 46 2300 250/08 RMK AO2
94908KDBQ DBQ20070508145012205/08/07 14:50:31  5-MIN KDBQ 082050Z 27011G15KT 10SM CLR 24/11 A3004 970 42 2300 260/11G15 RMK AO2 SLP169 T02440111 58010
94908KDBQ DBQ20070508145512205/08/07 14:55:31  5-MIN KDBQ 082055Z 26008G15KT 10SM CLR 24/11 A3004 970 42 2300 250/08G15 RMK AO2 SLP169 T02440111 58011
94908KDBQ DBQ20070508150009305/08/07 15:00:31  5-MIN KDBQ 082100Z 27007KT 10SM CLR 24/11 A3004 970 42 2300 270/07 RMK AO2
94908KDBQ DBQ20070508150509905/08/07 15:05:31  5-MIN KDBQ 082105Z 27010G15KT 10SM CLR 24/12 A3004 970 44 2300 270/10G15 RMK AO2
94908KDBQ DBQ20070508151009905/08/07 15:10:31  5-MIN KDBQ 082110Z 27003G15KT 10SM CLR 24/11 A3004 970 42 2300 270/03G15 RMK AO2
94908KDBQ DBQ20070508151509905/08/07 15:15:31  5-MIN KDBQ 082115Z 29010G15KT 10SM CLR 25/11 A3004 970 39 2400 290/10G15 RMK AO2
94908KDBQ DBQ20070508152009905/08/07 15:20:31  5-MIN KDBQ 082120Z 28011G15KT 10SM CLR 25/11 A3003 970 39 2400 280/11G15 RMK AO2
94908KDBQ DBQ20070508152509305/08/07 15:25:31  5-MIN KDBQ 082125Z 27011KT 10SM CLR 24/11 A3004 970 41 2300 270/11 RMK AO2
94908KDBQ DBQ20070508153009305/08/07 15:30:31  5-MIN KDBQ 082130Z 25009KT 10SM CLR 24/11 A3003 970 41 2300 250/09 RMK AO2
94908KDBQ DBQ20070508153511505/08/07 15:35:31  5-MIN KDBQ 082135Z 28012G17KT 230V310 10SM CLR 24/11 A3003 980 42 2300 280/12G17 230V310 RMK AO2
94908KDBQ DBQ20070508154009905/08/07 15:40:31  5-MIN KDBQ 082140Z 26010G17KT 10SM CLR 24/11 A3003 980 41 2300 260/10G17 RMK AO2
94908KDBQ DBQ20070508154509305/08/07 15:45:31  5-MIN KDBQ 082145Z 27006KT 10SM CLR 24/11 A3003 980 41 2300 270/06 RMK AO2
94908KDBQ DBQ20070508155011005/08/07 15:50:31  5-MIN KDBQ 082150Z 27011KT 10SM CLR 25/11 A3003 980 41 2400 270/11 RMK AO2 SLP165 T02500111
94908KDBQ DBQ20070508155511605/08/07 15:55:31  5-MIN KDBQ 082155Z 28008G18KT 10SM CLR 24/12 A3003 980 44 2300 280/08G18 RMK AO2 SLP165 T02440117
94908KDBQ DBQ20070508160009905/08/07 16:00:31  5-MIN KDBQ 082200Z 29010G18KT 10SM CLR 25/11 A3003 980 41 2400 290/10G18 RMK AO2
94908KDBQ DBQ20070508160509305/08/07 16:05:31  5-MIN KDBQ 082205Z 28010KT 10SM CLR 24/11 A3003 980 42 2300 280/10 RMK AO2
94908KDBQ DBQ20070508161009605/08/07 16:10:31  5-MIN KDBQ 082210Z 26006KT 10SM FEW060 24/12 A3003 980 44 2300 260/06 RMK AO2
94908KDBQ DBQ20070508161509605/08/07 16:15:31  5-MIN KDBQ 082215Z 29009KT 10SM FEW060 24/11 A3003 980 42 2300 290/09 RMK AO2
94908KDBQ DBQ20070508162009305/08/07 16:20:31  5-MIN KDBQ 082220Z 29007KT 10SM CLR 24/11 A3003 980 42 2300 290/07 RMK AO2
94908KDBQ DBQ20070508162509305/08/07 16:25:31  5-MIN KDBQ 082225Z 28011KT 10SM CLR 24/11 A3002 980 41 2300 280/11 RMK AO2
94908KDBQ DBQ20070508163009305/08/07 16:30:31  5-MIN KDBQ 082230Z 27010KT 10SM CLR 24/11 A3002 990 41 2300 260/10 RMK AO2
94908KDBQ DBQ20070508163509305/08/07 16:35:31  5-MIN KDBQ 082235Z 27007KT 10SM CLR 24/11 A3002 980 42 2300 270/07 RMK AO2
94908KDBQ DBQ20070508164009305/08/07 16:40:31  5-MIN KDBQ 082240Z 26006KT 10SM CLR 24/11 A3002 980 41 2300 260/06 RMK AO2
94908KDBQ DBQ20070508164509305/08/07 16:45:31  5-MIN KDBQ 082245Z 31009KT 10SM CLR 24/11 A3002 980 42 2300 310/09 RMK AO2
94908KDBQ DBQ20070508165011005/08/07 16:50:31  5-MIN KDBQ 082250Z 29007KT 10SM CLR 23/11 A3003 980 45 2200 280/07 RMK AO2 SLP165 T02330111
94908KDBQ DBQ20070508165511005/08/07 16:55:31  5-MIN KDBQ 082255Z 27006KT 10SM CLR 23/11 A3003 980 47 2100 270/06 RMK AO2 SLP165 T02280111
94908KDBQ DBQ20070508170009605/08/07 17:00:31  5-MIN KDBQ 082300Z 31006KT 10SM FEW065 24/11 A3002 980 44 2300 310/06 RMK AO2
94908KDBQ DBQ20070508170509605/08/07 17:05:31  5-MIN KDBQ 082305Z 30009KT 10SM SCT065 24/12 A3002 980 46 2300 300/09 RMK AO2
94908KDBQ DBQ20070508171009605/08/07 17:10:31  5-MIN KDBQ 082310Z 31009KT 10SM BKN065 23/11 A3002 980 45 2200 310/09 RMK AO2
94908KDBQ DBQ20070508171509605/08/07 17:15:31  5-MIN KDBQ 082315Z 30005KT 10SM BKN065 23/12 A3002 980 49 2200 300/05 RMK AO2
94908KDBQ DBQ20070508172009605/08/07 17:20:31  5-MIN KDBQ 082320Z 30007KT 10SM SCT065 22/12 A3002 990 51 2100 300/07 RMK AO2
94908KDBQ DBQ20070508172509605/08/07 17:25:31  5-MIN KDBQ 082325Z 31007KT 10SM BKN065 22/12 A3002 990 51 2100 310/07 RMK AO2
94908KDBQ DBQ20070508173009605/08/07 17:30:31  5-MIN KDBQ 082330Z 31006KT 10SM BKN060 23/12 A3002 990 49 2200 310/06 RMK AO2
94908KDBQ DBQ20070508173509605/08/07 17:35:31  5-MIN KDBQ 082335Z 31008KT 10SM SCT060 23/12 A3002 990 49 2200 310/08 RMK AO2
94908KDBQ DBQ20070508174009605/08/07 17:40:31  5-MIN KDBQ 082340Z 32008KT 10SM SCT060 23/11 A3002 990 45 2200 320/08 RMK AO2
94908KDBQ DBQ20070508174509605/08/07 17:45:31  5-MIN KDBQ 082345Z 31008KT 10SM SCT060 23/11 A3001 990 45 2200 310/08 RMK AO2
94908KDBQ DBQ20070508175013105/08/07 17:50:31  5-MIN KDBQ 082350Z 31009KT 10SM SCT060 23/11 A3002 990 47 2200 310/09 RMK AO2 SLP164 T02280111 10250 20222 58011
94908KDBQ DBQ20070508175513105/08/07 17:55:31  5-MIN KDBQ 082355Z 31006KT 10SM FEW060 22/12 A3002 990 51 2100 310/06 RMK AO2 SLP162 T02220117 10250 20222 57007
94908KDBQ DBQ20070508180009605/08/07 18:00:31  5-MIN KDBQ 090000Z 31008KT 10SM FEW060 22/11 A3002 990 49 2100 310/08 RMK AO2
94908KDBQ DBQ20070508180509605/08/07 18:05:31  5-MIN KDBQ 090005Z 31007KT 10SM FEW060 22/11 A3002 990 49 2100 310/07 RMK AO2
94908KDBQ DBQ20070508181009305/08/07 18:10:31  5-MIN KDBQ 090010Z 30006KT 10SM CLR 22/11 A3002 990 49 2100 290/06 RMK AO2
94908KDBQ DBQ20070508181509605/08/07 18:15:31  5-MIN KDBQ 090015Z 30007KT 10SM FEW120 22/11 A3002 980 50 2000 300/07 RMK AO2
94908KDBQ DBQ20070508182009605/08/07 18:20:31  5-MIN KDBQ 090020Z 30005KT 10SM FEW120 22/11 A3002 990 49 2000 300/05 RMK AO2
94908KDBQ DBQ20070508182509605/08/07 18:25:31  5-MIN KDBQ 090025Z 29007KT 10SM SCT120 22/11 A3002 990 50 2000 290/07 RMK AO2
94908KDBQ DBQ20070508183009605/08/07 18:30:31  5-MIN KDBQ 090030Z 30005KT 10SM SCT120 22/11 A3002 990 49 2000 300/05 RMK AO2
94908KDBQ DBQ20070508183509605/08/07 18:35:31  5-MIN KDBQ 090035Z 30004KT 10SM BKN120 21/11 A3002 990 52 2000 300/04 RMK AO2
94908KDBQ DBQ20070508184009605/08/07 18:40:31  5-MIN KDBQ 090040Z 30004KT 10SM BKN120 21/11 A3001 990 50 2000 290/04 RMK AO2
94908KDBQ DBQ20070508184509605/08/07 18:45:31  5-MIN KDBQ 090045Z 29004KT 10SM BKN120 21/11 A3002 990 50 2000 290/04 RMK AO2
94908KDBQ DBQ20070508185011305/08/07 18:50:31  5-MIN KDBQ 090050Z 29005KT 10SM BKN120 21/11 A3002 990 50 2000 290/05 RMK AO2 SLP161 T02110106
94908KDBQ DBQ20070508185511305/08/07 18:55:31  5-MIN KDBQ 090055Z 29005KT 10SM BKN120 21/11 A3001 990 50 2000 290/05 RMK AO2 SLP160 T02110106
94908KDBQ DBQ20070508190010605/08/07 19:00:31  5-MIN KDBQ 090100Z AUTO 28005KT 10SM BKN120 21/11 A3001 990 50 2000 280/05 RMK AO2 TSNO
94908KDBQ DBQ20070508190510605/08/07 19:05:31  5-MIN KDBQ 090105Z AUTO 28005KT 10SM BKN120 21/11 A3001 990 50 2000 280/05 RMK AO2 TSNO
94908KDBQ DBQ20070508191010605/08/07 19:10:31  5-MIN KDBQ 090110Z AUTO 28004KT 10SM BKN120 21/11 A3001 990 52 1900 270/04 RMK AO2 TSNO
94908KDBQ DBQ20070508191510605/08/07 19:15:31  5-MIN KDBQ 090115Z AUTO 28004KT 10SM BKN120 21/11 A3002 990 52 1900 280/04 RMK AO2 TSNO
94908KDBQ DBQ20070508192010605/08/07 19:20:31  5-MIN KDBQ 090120Z AUTO 27004KT 10SM BKN120 20/11 A3001 990 56 1800 270/04 RMK AO2 TSNO
94908KDBQ DBQ20070508192510605/08/07 19:25:31  5-MIN KDBQ 090125Z AUTO 27004KT 10SM BKN120 20/11 A3002 990 54 1800 270/04 RMK AO2 TSNO
94908KDBQ DBQ20070508193010605/08/07 19:30:31  5-MIN KDBQ 090130Z AUTO 30004KT 10SM BKN120 19/11 A3002 990 58 1800 290/04 RMK AO2 TSNO
94908KDBQ DBQ20070508193510605/08/07 19:35:31  5-MIN KDBQ 090135Z AUTO 31004KT 10SM OVC120 19/11 A3002 990 58 1800 300/04 RMK AO2 TSNO
94908KDBQ DBQ20070508194010605/08/07 19:40:31  5-MIN KDBQ 090140Z AUTO 31003KT 10SM OVC120 19/11 A3002 990 58 1800 310/03 RMK AO2 TSNO
94908KDBQ DBQ20070508194510605/08/07 19:45:31  5-MIN KDBQ 090145Z AUTO 31004KT 10SM OVC120 19/11 A3002 990 58 1800 310/04 RMK AO2 TSNO
94908KDBQ DBQ20070508195012305/08/07 19:50:31  5-MIN KDBQ 090150Z AUTO 31006KT 10SM OVC120 19/11 A3002 990 56 1800 310/06 RMK AO2 SLP161 T01940106 TSNO
94908KDBQ DBQ20070508195512305/08/07 19:55:31  5-MIN KDBQ 090155Z AUTO 31003KT 10SM OVC120 19/11 A3002 990 58 1800 310/03 RMK AO2 SLP162 T01940111 TSNO
94908KDBQ DBQ20070508200010605/08/07 20:00:31  5-MIN KDBQ 090200Z AUTO 31004KT 10SM OVC120 19/11 A3002 990 58 1800 310/04 RMK AO2 TSNO
94908KDBQ DBQ20070508200510605/08/07 20:05:31  5-MIN KDBQ 090205Z AUTO 31003KT 10SM BKN120 19/11 A3002 980 58 1800 310/03 RMK AO2 TSNO
94908KDBQ DBQ20070508201010605/08/07 20:10:31  5-MIN KDBQ 090210Z AUTO 30003KT 10SM SCT120 19/11 A3002 980 56 1800 300/03 RMK AO2 TSNO
94908KDBQ DBQ20070508201510605/08/07 20:15:31  5-MIN KDBQ 090215Z AUTO 24003KT 10SM SCT120 19/11 A3003 980 60 1700 240/03 RMK AO2 TSNO
94908KDBQ DBQ20070508202010605/08/07 20:20:31  5-MIN KDBQ 090220Z AUTO 00000KT 10SM FEW120 19/12 A3002 980 62 1700 000/00 RMK AO2 TSNO
94908KDBQ DBQ20070508202510605/08/07 20:25:31  5-MIN KDBQ 090225Z AUTO 00000KT 10SM FEW120 19/11 A3002 990 58 1800 000/00 RMK AO2 TSNO
94908KDBQ DBQ20070508203010305/08/07 20:30:31  5-MIN KDBQ 090230Z AUTO 00000KT 10SM CLR 18/12 A3002 990 65 1600 000/00 RMK AO2 TSNO
94908KDBQ DBQ20070508203510305/08/07 20:35:31  5-MIN KDBQ 090235Z AUTO 24003KT 10SM CLR 18/12 A3002 980 65 1600 240/03 RMK AO2 TSNO
94908KDBQ DBQ20070508204010605/08/07 20:40:31  5-MIN KDBQ 090240Z AUTO 00000KT 10SM FEW120 18/12 A3002 990 67 1600 000/00 RMK AO2 TSNO
94908KDBQ DBQ20070508230510905/08/07 23:05:31  5-MIN KDBQ 090505Z AUTO 00000KT 3SM HZ FEW100 18/11 A3000 1000 64 1600 000/00 RMK AO2 TSNO
94908KDBQ DBQ20070508231010905/08/07 23:10:31  5-MIN KDBQ 090510Z AUTO 18003KT 3SM HZ FEW095 18/11 A3000 1010 60 1700 180/03 RMK AO2 TSNO
94908KDBQ DBQ20070508231511605/08/07 23:15:31  5-MIN KDBQ 090515Z AUTO 15003KT 3SM HZ FEW090 18/11 A2999 1010 60 1700 150/03 RMK AO2 PRESFR TSNO
94908KDBQ DBQ20070508232010905/08/07 23:20:31  5-MIN KDBQ 090520Z AUTO 16003KT 4SM HZ FEW090 18/11 A2999 1020 60 1700 160/03 RMK AO2 TSNO
94908KDBQ DBQ20070508232510905/08/07 23:25:31  5-MIN KDBQ 090525Z AUTO 16003KT 6SM HZ FEW090 18/11 A2999 1020 60 1700 160/03 RMK AO2 TSNO
94908KDBQ DBQ20070508233010605/08/07 23:30:31  5-MIN KDBQ 090530Z AUTO 14004KT 8SM FEW090 18/11 A2998 1020 60 1700 140/04 RMK AO2 TSNO
94908KDBQ DBQ20070508233510305/08/07 23:35:31  5-MIN KDBQ 090535Z AUTO 13003KT 9SM CLR 18/11 A2998 1020 60 1700 130/03 RMK AO2 TSNO
94908KDBQ DBQ20070508234010405/08/07 23:40:31  5-MIN KDBQ 090540Z AUTO 00000KT 10SM CLR 18/11 A2999 1010 62 1600 000/00 RMK AO2 TSNO
94908KDBQ DBQ20070508234510405/08/07 23:45:31  5-MIN KDBQ 090545Z AUTO 26003KT 10SM CLR 17/12 A3000 1000 72 1500 250/03 RMK AO2 TSNO
94908KDBQ DBQ20070508235015105/08/07 23:50:31  5-MIN KDBQ 090550Z AUTO 00000KT 8SM FEW110 16/12 A2999 1010 75 1400 000/00 RMK AO2 SLP151 T01610117 10228 20161 402500111 58001 TSNO
94908KDBQ DBQ20070508235515405/08/07 23:55:31  5-MIN KDBQ 090555Z AUTO 00000KT 6SM HZ SCT110 16/12 A2999 1010 77 1400 000/00 RMK AO2 SLP153 T01610122 10228 20161 402500111 58006 TSNO
94908KDBQ DBQ20070509000010905/09/07 00:00:38  5-MIN KDBQ 090600Z AUTO 00000KT 6SM HZ SCT110 17/12 A2999 1010 69 1500 000/00 RMK AO2 TSNO
94908KDBQ DBQ20070509000510605/09/07 00:05:31  5-MIN KDBQ 090605Z AUTO 00000KT 8SM BKN110 17/12 A3000 1010 69 1500 000/00 RMK AO2 TSNO
94908KDBQ DBQ20070509001010605/09/07 00:10:31  5-MIN KDBQ 090610Z AUTO 00000KT 9SM BKN110 17/12 A2999 1010 69 1500 000/00 RMK AO2 TSNO
94908KDBQ DBQ20070509001510705/09/07 00:15:32  5-MIN KDBQ 090615Z AUTO 24004KT 10SM BKN110 17/12 A3000 1000 72 1500 240/04 RMK AO2 TSNO
94908KDBQ DBQ20070509002010705/09/07 00:20:31  5-MIN KDBQ 090620Z AUTO 24004KT 10SM BKN110 16/12 A3000 1000 75 1400 240/04 RMK AO2 TSNO
94908KDBQ DBQ20070509002510705/09/07 00:25:31  5-MIN KDBQ 090625Z AUTO 21005KT 10SM BKN110 16/12 A3000 1010 75 1400 210/05 RMK AO2 TSNO
94908KDBQ DBQ20070509003010705/09/07 00:30:31  5-MIN KDBQ 090630Z AUTO 19003KT 10SM BKN120 16/12 A3000 1010 75 1400 190/03 RMK AO2 TSNO
94908KDBQ DBQ20070509003510705/09/07 00:35:31  5-MIN KDBQ 090635Z AUTO 21003KT 10SM SCT120 16/12 A3000 1010 75 1400 210/03 RMK AO2 TSNO
94908KDBQ DBQ20070509004010705/09/07 00:40:31  5-MIN KDBQ 090640Z AUTO 00000KT 10SM FEW110 17/12 A2999 1010 72 1500 000/00 RMK AO2 TSNO
94908KDBQ DBQ20070509004510705/09/07 00:45:31  5-MIN KDBQ 090645Z AUTO 00000KT 10SM FEW120 17/11 A2999 1010 69 1500 000/00 RMK AO2 TSNO
94908KDBQ DBQ20070509005012405/09/07 00:50:31  5-MIN KDBQ 090650Z AUTO 00000KT 10SM FEW120 17/12 A2999 1010 72 1500 000/00 RMK AO2 SLP151 T01670117 TSNO
94908KDBQ DBQ20070509005512405/09/07 00:55:31  5-MIN KDBQ 090655Z AUTO 00000KT 10SM FEW120 17/11 A2999 1010 69 1500 000/00 RMK AO2 SLP152 T01670111 TSNO
94908KDBQ DBQ20070509010010405/09/07 01:00:31  5-MIN KDBQ 090700Z AUTO 00000KT 10SM CLR 16/11 A2999 1010 72 1400 000/00 RMK AO2 TSNO
94908KDBQ DBQ20070509010510405/09/07 01:05:31  5-MIN KDBQ 090705Z AUTO 00000KT 10SM CLR 17/11 A2999 1010 69 1500 000/00 RMK AO2 TSNO
94908KDBQ DBQ20070509011010405/09/07 01:10:31  5-MIN KDBQ 090710Z AUTO 00000KT 10SM CLR 17/11 A2999 1010 69 1500 000/00 RMK AO2 TSNO
94908KDBQ DBQ20070509011510405/09/07 01:15:31  5-MIN KDBQ 090715Z AUTO 22003KT 10SM CLR 16/12 A2999 1010 75 1400 220/03 RMK AO2 TSNO
94908KDBQ DBQ20070509012010405/09/07 01:20:31  5-MIN KDBQ 090720Z AUTO 22003KT 10SM CLR 16/12 A3000 1010 75 1400 220/03 RMK AO2 TSNO
94908KDBQ DBQ20070509012510405/09/07 01:25:31  5-MIN KDBQ 090725Z AUTO 21003KT 10SM CLR 16/12 A2999 1010 75 1400 210/03 RMK AO2 TSNO
94908KDBQ DBQ20070509013010405/09/07 01:30:31  5-MIN KDBQ 090730Z AUTO 21004KT 10SM CLR 16/12 A3000 1010 75 1400 210/04 RMK AO2 TSNO
94908KDBQ DBQ20070509013510405/09/07 01:35:31  5-MIN KDBQ 090735Z AUTO 22004KT 10SM CLR 16/12 A3000 1010 77 1300 220/04 RMK AO2 TSNO
94908KDBQ DBQ20070509014010405/09/07 01:40:31  5-MIN KDBQ 090740Z AUTO 21004KT 10SM CLR 15/11 A3000 1010 77 1300 210/04 RMK AO2 TSNO
94908KDBQ DBQ20070509014510405/09/07 01:45:31  5-MIN KDBQ 090745Z AUTO 22004KT 10SM CLR 16/11 A3000 1000 74 1300 220/04 RMK AO2 TSNO
94908KDBQ DBQ20070509015012105/09/07 01:50:31  5-MIN KDBQ 090750Z AUTO 23004KT 10SM CLR 15/11 A3000 1000 77 1300 230/04 RMK AO2 SLP155 T01500111 TSNO
94908KDBQ DBQ20070509015512105/09/07 01:55:31  5-MIN KDBQ 090755Z AUTO 24004KT 10SM CLR 15/12 A3000 1000 80 1300 240/04 RMK AO2 SLP155 T01500117 TSNO
94908KDBQ DBQ20070509020010405/09/07 02:00:31  5-MIN KDBQ 090800Z AUTO 23004KT 10SM CLR 15/11 A3000 1000 77 1300 230/04 RMK AO2 TSNO
94908KDBQ DBQ20070509020510405/09/07 02:05:31  5-MIN KDBQ 090805Z AUTO 23003KT 10SM CLR 15/11 A3000 1000 77 1300 230/03 RMK AO2 TSNO
94908KDBQ DBQ20070509021010405/09/07 02:10:31  5-MIN KDBQ 090810Z AUTO 22004KT 10SM CLR 15/11 A3000 1010 77 1300 220/04 RMK AO2 TSNO
94908KDBQ DBQ20070509021510405/09/07 02:15:31  5-MIN KDBQ 090815Z AUTO 22004KT 10SM CLR 14/11 A3000 1010 77 1200 220/04 RMK AO2 TSNO
94908KDBQ DBQ20070509022010405/09/07 02:20:31  5-MIN KDBQ 090820Z AUTO 22003KT 10SM CLR 14/11 A3000 1010 77 1200 220/03 RMK AO2 TSNO
94908KDBQ DBQ20070509022510405/09/07 02:25:31  5-MIN KDBQ 090825Z AUTO 21003KT 10SM CLR 14/11 A3000 1000 77 1200 210/03 RMK AO2 TSNO
94908KDBQ DBQ20070509023010405/09/07 02:30:31  5-MIN KDBQ 090830Z AUTO 23003KT 10SM CLR 15/11 A3000 1000 74 1300 230/03 RMK AO2 TSNO
94908KDBQ DBQ20070509023510405/09/07 02:35:31  5-MIN KDBQ 090835Z AUTO 23004KT 10SM CLR 15/11 A3000 1000 74 1300 230/04 RMK AO2 TSNO
94908KDBQ DBQ20070509024010405/09/07 02:40:31  5-MIN KDBQ 090840Z AUTO 22003KT 10SM CLR 14/11 A3000 1000 77 1200 220/03 RMK AO2 TSNO
94908KDBQ DBQ20070509024510405/09/07 02:45:31  5-MIN KDBQ 090845Z AUTO 21004KT 10SM CLR 14/11 A3000 1010 77 1200 210/04 RMK AO2 TSNO
94908KDBQ DBQ20070509025012705/09/07 02:50:31  5-MIN KDBQ 090850Z AUTO 21004KT 10SM CLR 14/11 A3000 1000 77 1200 210/04 RMK AO2 SLP156 T01440106 58006 TSNO
94908KDBQ DBQ20070509025512705/09/07 02:55:31  5-MIN KDBQ 090855Z AUTO 21004KT 10SM CLR 14/11 A3000 1000 80 1100 210/04 RMK AO2 SLP155 T01390106 53003 TSNO
94908KDBQ DBQ20070509030010405/09/07 03:00:31  5-MIN KDBQ 090900Z AUTO 22003KT 10SM CLR 14/11 A3000 1000 80 1100 220/03 RMK AO2 TSNO
94908KDBQ DBQ20070509030510405/09/07 03:05:31  5-MIN KDBQ 090905Z AUTO 22003KT 10SM CLR 14/11 A3000 1010 80 1100 220/03 RMK AO2 TSNO
94908KDBQ DBQ20070509031010405/09/07 03:10:31  5-MIN KDBQ 090910Z AUTO 21003KT 10SM CLR 14/11 A3000 1010 80 1100 210/03 RMK AO2 TSNO
94908KDBQ DBQ20070509031510405/09/07 03:15:31  5-MIN KDBQ 090915Z AUTO 21003KT 10SM CLR 14/11 A3000 1010 80 1100 210/03 RMK AO2 TSNO
94908KDBQ DBQ20070509032010405/09/07 03:20:31  5-MIN KDBQ 090920Z AUTO 21003KT 10SM CLR 14/11 A3000 1010 80 1100 210/03 RMK AO2 TSNO
94908KDBQ DBQ20070509032510405/09/07 03:25:31  5-MIN KDBQ 090925Z AUTO 21004KT 10SM CLR 14/11 A3000 1010 80 1100 210/04 RMK AO2 TSNO
94908KDBQ DBQ20070509033010405/09/07 03:30:31  5-MIN KDBQ 090930Z AUTO 22004KT 10SM CLR 14/11 A3000 1000 80 1100 220/04 RMK AO2 TSNO
94908KDBQ DBQ20070509033510405/09/07 03:35:31  5-MIN KDBQ 090935Z AUTO 21003KT 10SM CLR 13/11 A3000 1000 83 1100 210/03 RMK AO2 TSNO
94908KDBQ DBQ20070509034010405/09/07 03:40:31  5-MIN KDBQ 090940Z AUTO 21003KT 10SM CLR 13/10 A3000 1000 80 1100 210/03 RMK AO2 TSNO
94908KDBQ DBQ20070509034510405/09/07 03:45:31  5-MIN KDBQ 090945Z AUTO 22003KT 10SM CLR 13/11 A3000 1000 83 1100 220/03 RMK AO2 TSNO
94908KDBQ DBQ20070509035012105/09/07 03:50:31  5-MIN KDBQ 090950Z AUTO 22003KT 10SM CLR 14/11 A3000 1000 80 1100 220/03 RMK AO2 SLP155 T01390106 TSNO
94908KDBQ DBQ20070509035512105/09/07 03:55:31  5-MIN KDBQ 090955Z AUTO 21003KT 10SM CLR 14/11 A3000 1000 80 1100 210/03 RMK AO2 SLP155 T01390106 TSNO
94908KDBQ DBQ20070509040010405/09/07 04:00:31  5-MIN KDBQ 091000Z AUTO 00000KT 10SM CLR 13/11 A3000 1000 83 1100 000/00 RMK AO2 TSNO
94908KDBQ DBQ20070509040510405/09/07 04:05:31  5-MIN KDBQ 091005Z AUTO 00000KT 10SM CLR 13/11 A3000 1010 83 1100 000/00 RMK AO2 TSNO
94908KDBQ DBQ20070509041010405/09/07 04:10:31  5-MIN KDBQ 091010Z AUTO 22003KT 10SM CLR 13/11 A3000 1010 83 1100 220/03 RMK AO2 TSNO
94908KDBQ DBQ20070509041510405/09/07 04:15:31  5-MIN KDBQ 091015Z AUTO 23003KT 10SM CLR 13/11 A3000 1010 83 1100 230/03 RMK AO2 TSNO
94908KDBQ DBQ20070509042010405/09/07 04:20:31  5-MIN KDBQ 091020Z AUTO 22003KT 10SM CLR 13/11 A3000 1010 83 1100 220/03 RMK AO2 TSNO
94908KDBQ DBQ20070509042510405/09/07 04:25:31  5-MIN KDBQ 091025Z AUTO 22003KT 10SM CLR 13/10 A3000 1010 83 1000 210/03 RMK AO2 TSNO
94908KDBQ DBQ20070509043010405/09/07 04:30:31  5-MIN KDBQ 091030Z AUTO 22003KT 10SM CLR 13/10 A3000 1010 83 1000 220/03 RMK AO2 TSNO
94908KDBQ DBQ20070509043510405/09/07 04:35:31  5-MIN KDBQ 091035Z AUTO 22003KT 10SM CLR 13/10 A3000 1010 83 1000 210/03 RMK AO2 TSNO
94908KDBQ DBQ20070509044010405/09/07 04:40:31  5-MIN KDBQ 091040Z AUTO 22003KT 10SM CLR 13/11 A3000 1010 86 1000 220/03 RMK AO2 TSNO
94908KDBQ DBQ20070509044509405/09/07 04:45:31  5-MIN KDBQ 091045Z 22003KT 10SM CLR 13/11 A3000 1010 86 1000 220/03 RMK AO2
94908KDBQ DBQ20070509045011105/09/07 04:50:31  5-MIN KDBQ 091050Z 21003KT 10SM CLR 13/10 A3000 1010 83 1000 210/03 RMK AO2 SLP155 T01280100
94908KDBQ DBQ20070509045511105/09/07 04:55:31  5-MIN KDBQ 091055Z 22003KT 10SM CLR 13/10 A3000 1010 83 1000 220/03 RMK AO2 SLP154 T01280100
94908KDBQ DBQ20070509050009405/09/07 05:00:31  5-MIN KDBQ 091100Z 22003KT 10SM CLR 13/10 A3000 1010 83 1000 220/03 RMK AO2
94908KDBQ DBQ20070509050509405/09/07 05:05:31  5-MIN KDBQ 091105Z 21004KT 10SM CLR 12/10 A3000 1010 86 1000 210/04 RMK AO2
94908KDBQ DBQ20070509051009405/09/07 05:10:31  5-MIN KDBQ 091110Z 21004KT 10SM CLR 12/10 A3000 1010 86 1000 210/04 RMK AO2
94908KDBQ DBQ20070509051509405/09/07 05:15:31  5-MIN KDBQ 091115Z 21004KT 10SM CLR 12/10 A3000 1010 86 1000 210/04 RMK AO2
94908KDBQ DBQ20070509052009405/09/07 05:20:31  5-MIN KDBQ 091120Z 22004KT 10SM CLR 12/10 A3000 1010 86 1000 210/04 RMK AO2
94908KDBQ DBQ20070509052509305/09/07 05:25:31  5-MIN KDBQ 091125Z 22004KT 10SM CLR 12/10 A3000 1000 86 900 220/04 RMK AO2
94908KDBQ DBQ20070509053009305/09/07 05:30:31  5-MIN KDBQ 091130Z 22004KT 10SM CLR 12/10 A3000 1000 86 900 220/04 RMK AO2
94908KDBQ DBQ20070509053509405/09/07 05:35:31  5-MIN KDBQ 091135Z 21003KT 10SM CLR 13/11 A3000 1000 86 1000 210/03 RMK AO2
94908KDBQ DBQ20070509054009405/09/07 05:40:31  5-MIN KDBQ 091140Z 20003KT 10SM CLR 13/11 A3000 1000 86 1000 200/03 RMK AO2
94908KDBQ DBQ20070509054509405/09/07 05:45:31  5-MIN KDBQ 091145Z 21003KT 10SM CLR 13/11 A3000 1000 83 1100 210/03 RMK AO2
94908KDBQ DBQ20070509055012905/09/07 05:50:31  5-MIN KDBQ 091150Z 21003KT 10SM CLR 13/11 A3001 1000 86 1100 210/03 RMK AO2 SLP158 T01330111 10172 20122 53003
94908KDBQ DBQ20070509055512905/09/07 05:55:31  5-MIN KDBQ 091155Z 21004KT 10SM CLR 13/11 A3001 1000 86 1100 210/04 RMK AO2 SLP158 T01330111 10172 20122 53002
94908KDBQ DBQ20070509060009405/09/07 06:00:31  5-MIN KDBQ 091200Z 21005KT 10SM CLR 14/11 A3001 1000 83 1100 210/05 RMK AO2
94908KDBQ DBQ20070509060509405/09/07 06:05:31  5-MIN KDBQ 091205Z 23004KT 10SM CLR 14/12 A3001 1000 83 1200 230/04 RMK AO2
94908KDBQ DBQ20070509061009305/09/07 06:10:31  5-MIN KDBQ 091210Z 23005KT 10SM CLR 14/12 A3001 990 83 1200 220/05 RMK AO2
94908KDBQ DBQ20070509061509305/09/07 06:15:31  5-MIN KDBQ 091215Z 23005KT 10SM CLR 14/12 A3001 990 83 1200 230/05 RMK AO2
94908KDBQ DBQ20070509062009305/09/07 06:20:31  5-MIN KDBQ 091220Z 23005KT 10SM CLR 15/12 A3001 990 80 1300 230/05 RMK AO2
94908KDBQ DBQ20070509062509305/09/07 06:25:31  5-MIN KDBQ 091225Z 22005KT 10SM CLR 15/12 A3001 990 80 1300 220/05 RMK AO2
94908KDBQ DBQ20070509063009305/09/07 06:30:31  5-MIN KDBQ 091230Z 24005KT 10SM CLR 16/12 A3002 990 80 1300 240/05 RMK AO2
94908KDBQ DBQ20070509063509305/09/07 06:35:31  5-MIN KDBQ 091235Z 26008KT 10SM CLR 16/12 A3002 990 77 1400 260/08 RMK AO2
94908KDBQ DBQ20070509064009305/09/07 06:40:31  5-MIN KDBQ 091240Z 27007KT 10SM CLR 17/11 A3001 990 67 1500 260/07 RMK AO2
94908KDBQ DBQ20070509064509305/09/07 06:45:31  5-MIN KDBQ 091245Z 27009KT 10SM CLR 17/11 A3001 990 67 1500 270/09 RMK AO2
94908KDBQ DBQ20070509065011005/09/07 06:50:31  5-MIN KDBQ 091250Z 27008KT 10SM CLR 17/11 A3001 990 67 1500 260/08 RMK AO2 SLP160 T01720111
94908KDBQ DBQ20070509065511005/09/07 06:55:31  5-MIN KDBQ 091255Z 27009KT 10SM CLR 17/11 A3001 990 67 1500 270/09 RMK AO2 SLP160 T01720111
94908KDBQ DBQ20070509070009305/09/07 07:00:31  5-MIN KDBQ 091300Z 27009KT 10SM CLR 18/11 A3001 990 64 1600 260/09 RMK AO2
94908KDBQ DBQ20070509070509305/09/07 07:05:31  5-MIN KDBQ 091305Z 26008KT 10SM CLR 18/12 A3001 990 67 1600 260/08 RMK AO2
94908KDBQ DBQ20070509071009305/09/07 07:10:31  5-MIN KDBQ 091310Z 27009KT 10SM CLR 18/12 A3001 990 65 1700 260/09 RMK AO2
94908KDBQ DBQ20070509071509305/09/07 07:15:31  5-MIN KDBQ 091315Z 27010KT 10SM CLR 18/11 A3002 990 62 1600 270/10 RMK AO2
94908KDBQ DBQ20070509072009305/09/07 07:20:31  5-MIN KDBQ 091320Z 28010KT 10SM CLR 18/11 A3002 990 62 1600 280/10 RMK AO2
94908KDBQ DBQ20070509072509305/09/07 07:25:31  5-MIN KDBQ 091325Z 28009KT 10SM CLR 18/11 A3002 990 62 1600 280/09 RMK AO2
94908KDBQ DBQ20070509073009305/09/07 07:30:31  5-MIN KDBQ 091330Z 28008KT 10SM CLR 19/12 A3002 990 62 1700 280/08 RMK AO2
94908KDBQ DBQ20070509073509305/09/07 07:35:31  5-MIN KDBQ 091335Z 28007KT 10SM CLR 19/12 A3002 990 60 1800 280/07 RMK AO2
94908KDBQ DBQ20070509074009305/09/07 07:40:31  5-MIN KDBQ 091340Z 28009KT 10SM CLR 19/12 A3002 990 60 1800 280/09 RMK AO2
94908KDBQ DBQ20070509074509305/09/07 07:45:31  5-MIN KDBQ 091345Z 29009KT 10SM CLR 19/12 A3002 990 60 1800 280/09 RMK AO2
94908KDBQ DBQ20070509075011005/09/07 07:50:31  5-MIN KDBQ 091350Z 30008KT 10SM CLR 20/12 A3002 990 58 1800 290/08 RMK AO2 SLP162 T02000117
94908KDBQ DBQ20070509075511005/09/07 07:55:31  5-MIN KDBQ 091355Z 29008KT 10SM CLR 20/12 A3002 990 60 1800 290/08 RMK AO2 SLP161 T02000122
94908KDBQ DBQ20070509080009305/09/07 08:00:31  5-MIN KDBQ 091400Z 29009KT 10SM CLR 20/12 A3002 990 58 1800 290/09 RMK AO2
94908KDBQ DBQ20070509080509305/09/07 08:05:31  5-MIN KDBQ 091405Z 30006KT 10SM CLR 21/12 A3002 980 58 1900 300/06 RMK AO2
94908KDBQ DBQ20070509081009305/09/07 08:10:31  5-MIN KDBQ 091410Z 30009KT 10SM CLR 21/12 A3002 990 58 1900 300/09 RMK AO2
94908KDBQ DBQ20070509081509305/09/07 08:15:31  5-MIN KDBQ 091415Z 31008KT 10SM CLR 21/12 A3002 980 56 1900 310/08 RMK AO2
94908KDBQ DBQ20070509082009305/09/07 08:20:31  5-MIN KDBQ 091420Z 30009KT 10SM CLR 21/12 A3002 990 54 2000 300/09 RMK AO2
94908KDBQ DBQ20070509082509305/09/07 08:25:31  5-MIN KDBQ 091425Z 30008KT 10SM CLR 21/12 A3002 990 54 2000 300/08 RMK AO2
94908KDBQ DBQ20070509083009305/09/07 08:30:31  5-MIN KDBQ 091430Z 32009KT 10SM CLR 21/12 A3002 990 54 2000 320/09 RMK AO2
94908KDBQ DBQ20070509083509305/09/07 08:35:31  5-MIN KDBQ 091435Z 31010KT 10SM CLR 21/12 A3002 980 54 2000 310/10 RMK AO2
94908KDBQ DBQ20070509084009305/09/07 08:40:31  5-MIN KDBQ 091440Z 30011KT 10SM CLR 21/12 A3002 980 54 2000 300/11 RMK AO2
94908KDBQ DBQ20070509084509305/09/07 08:45:31  5-MIN KDBQ 091445Z 30007KT 10SM CLR 21/11 A3002 980 52 2000 300/07 RMK AO2
94908KDBQ DBQ20070509085011605/09/07 08:50:31  5-MIN KDBQ 091450Z 31008KT 10SM CLR 22/12 A3002 980 52 2000 310/08 RMK AO2 SLP162 T02170117 53002
94908KDBQ DBQ20070509085511605/09/07 08:55:31  5-MIN KDBQ 091455Z 30010KT 10SM CLR 22/12 A3002 990 52 2000 300/10 RMK AO2 SLP162 T02170117 51004
94908KDBQ DBQ20070509090009305/09/07 09:00:31  5-MIN KDBQ 091500Z 29010KT 10SM CLR 22/12 A3002 980 52 2000 290/10 RMK AO2
94908KDBQ DBQ20070509090509305/09/07 09:05:31  5-MIN KDBQ 091505Z 31011KT 10SM CLR 22/12 A3002 990 51 2100 300/11 RMK AO2
94908KDBQ DBQ20070509091009305/09/07 09:10:31  5-MIN KDBQ 091510Z 31008KT 10SM CLR 22/12 A3002 980 51 2100 310/08 RMK AO2
94908KDBQ DBQ20070509091509305/09/07 09:15:31  5-MIN KDBQ 091515Z 30008KT 10SM CLR 22/12 A3002 990 51 2100 300/08 RMK AO2
94908KDBQ DBQ20070509092009305/09/07 09:20:31  5-MIN KDBQ 091520Z 30009KT 10SM CLR 23/12 A3002 980 49 2200 300/09 RMK AO2
94908KDBQ DBQ20070509092509305/09/07 09:25:31  5-MIN KDBQ 091525Z 30009KT 10SM CLR 22/11 A3002 990 47 2100 300/09 RMK AO2
94908KDBQ DBQ20070509093009305/09/07 09:30:31  5-MIN KDBQ 091530Z 29012KT 10SM CLR 23/11 A3002 990 45 2200 290/12 RMK AO2
94908KDBQ DBQ20070509093509905/09/07 09:35:31  5-MIN KDBQ 091535Z 31009G16KT 10SM CLR 23/11 A3002 990 47 2200 310/09G16 RMK AO2
94908KDBQ DBQ20070509094009305/09/07 09:40:31  5-MIN KDBQ 091540Z 29008KT 10SM CLR 23/11 A3002 990 45 2200 290/08 RMK AO2
94908KDBQ DBQ20070509094509305/09/07 09:45:31  5-MIN KDBQ 091545Z 31011KT 10SM CLR 23/10 A3002 990 44 2200 310/11 RMK AO2
94908KDBQ DBQ20070509095011005/09/07 09:50:31  5-MIN KDBQ 091550Z 32011KT 10SM CLR 23/10 A3002 990 44 2200 320/11 RMK AO2 SLP160 T02280100
94908KDBQ DBQ20070509095511005/09/07 09:55:31  5-MIN KDBQ 091555Z 29011KT 10SM CLR 23/09 A3001 990 42 2200 290/11 RMK AO2 SLP159 T02280094
94908KDBQ DBQ20070509100009305/09/07 10:00:31  5-MIN KDBQ 091600Z 31007KT 10SM CLR 23/11 A3002 990 45 2200 310/07 RMK AO2
94908KDBQ DBQ20070509100509305/09/07 10:05:31  5-MIN KDBQ 091605Z 32006KT 10SM CLR 23/11 A3001 990 44 2200 320/06 RMK AO2
94908KDBQ DBQ20070509101009305/09/07 10:10:31  5-MIN KDBQ 091610Z 30010KT 10SM CLR 23/09 A3002 990 42 2200 300/10 RMK AO2
94908KDBQ DBQ20070509101509305/09/07 10:15:31  5-MIN KDBQ 091615Z 32010KT 10SM CLR 23/10 A3002 990 44 2200 320/10 RMK AO2
94908KDBQ DBQ20070509102009305/09/07 10:20:31  5-MIN KDBQ 091620Z 31009KT 10SM CLR 23/09 A3001 990 42 2200 310/09 RMK AO2
94908KDBQ DBQ20070509102509305/09/07 10:25:31  5-MIN KDBQ 091625Z 28008KT 10SM CLR 23/09 A3002 990 41 2200 280/08 RMK AO2
94908KDBQ DBQ20070509103009305/09/07 10:30:31  5-MIN KDBQ 091630Z 30005KT 10SM CLR 23/09 A3001 990 42 2200 300/05 RMK AO2
94908KDBQ DBQ20070509103509305/09/07 10:35:31  5-MIN KDBQ 091635Z 29006KT 10SM CLR 23/10 A3001 990 42 2200 290/06 RMK AO2
94908KDBQ DBQ20070509104009605/09/07 10:40:31  5-MIN KDBQ 091640Z 30009KT 10SM FEW065 23/10 A3001 990 42 2200 300/09 RMK AO2
94908KDBQ DBQ20070509104509605/09/07 10:45:31  5-MIN KDBQ 091645Z 30008KT 10SM FEW065 23/11 A3001 990 44 2200 300/08 RMK AO2
94908KDBQ DBQ20070509105012005/09/07 10:50:31  5-MIN KDBQ 091650Z 28013G17KT 10SM FEW070 23/09 A3001 1000 41 2200 280/13G17 RMK AO2 SLP157 T02330094
94908KDBQ DBQ20070509105512005/09/07 10:55:31  5-MIN KDBQ 091655Z 26013G17KT 10SM FEW070 24/10 A3001 1000 41 2300 260/13G17 RMK AO2 SLP156 T02390100
94908KDBQ DBQ20070509110010305/09/07 11:00:31  5-MIN KDBQ 091700Z 31007G17KT 10SM FEW065 23/10 A3000 1000 42 2200 310/07G17 RMK AO2
94908KDBQ DBQ20070509110510305/09/07 11:05:31  5-MIN KDBQ 091705Z 27013G21KT 10SM FEW065 24/09 A3000 1010 39 2300 270/13G21 RMK AO2
94908KDBQ DBQ20070509111010305/09/07 11:10:31  5-MIN KDBQ 091710Z 29009G21KT 10SM FEW070 24/10 A3000 1000 41 2300 290/09G21 RMK AO2
94908KDBQ DBQ20070509111509405/09/07 11:15:31  5-MIN KDBQ 091715Z 27010KT 10SM CLR 24/10 A3000 1000 41 2300 270/10 RMK AO2
94908KDBQ DBQ20070509112010305/09/07 11:20:31  5-MIN KDBQ 091720Z 27009G15KT 10SM FEW065 24/10 A3000 1000 41 2300 270/09G15 RMK AO2
94908KDBQ DBQ20070509112510305/09/07 11:25:31  5-MIN KDBQ 091725Z 26013G16KT 10SM FEW065 24/09 A3000 1010 39 2300 260/13G16 RMK AO2
94908KDBQ DBQ20070509113009405/09/07 11:30:31  5-MIN KDBQ 091730Z 27010KT 10SM CLR 24/09 A3000 1000 39 2300 270/10 RMK AO2
94908KDBQ DBQ20070509113509405/09/07 11:35:31  5-MIN KDBQ 091735Z 30013KT 10SM CLR 24/11 A3000 1010 42 2300 300/13 RMK AO2
94908KDBQ DBQ20070509114009705/09/07 11:40:31  5-MIN KDBQ 091740Z 29007KT 10SM FEW065 23/10 A2999 1010 42 2200 290/07 RMK AO2
94908KDBQ DBQ20070509114510305/09/07 11:45:31  5-MIN KDBQ 091745Z 26014G18KT 10SM SCT065 24/10 A2999 1010 41 2300 260/14G18 RMK AO2
94908KDBQ DBQ20070509115013805/09/07 11:50:31  5-MIN KDBQ 091750Z 28013G18KT 10SM SCT065 24/09 A2999 1010 39 2300 270/13G18 RMK AO2 SLP153 T02390094 10244 20133 51004
94908KDBQ DBQ20070509115513805/09/07 11:55:31  5-MIN KDBQ 091755Z 27013G19KT 10SM FEW065 24/10 A2999 1010 39 2400 270/13G19 RMK AO2 SLP151 T02440100 10244 20133 58010
94908KDBQ DBQ20070509120010305/09/07 12:00:31  5-MIN KDBQ 091800Z 26013G19KT 10SM FEW065 24/10 A2999 1020 39 2400 260/13G19 RMK AO2
94908KDBQ DBQ20070509120510305/09/07 12:05:31  5-MIN KDBQ 091805Z 29011G18KT 10SM SCT065 24/09 A2999 1020 38 2400 290/11G18 RMK AO2
94908KDBQ DBQ20070509121010305/09/07 12:10:31  5-MIN KDBQ 091810Z 30010G19KT 10SM SCT070 24/09 A2999 1020 38 2400 300/10G19 RMK AO2
94908KDBQ DBQ20070509121510305/09/07 12:15:31  5-MIN KDBQ 091815Z 27012G16KT 10SM SCT070 24/09 A2999 1020 38 2400 270/12G16 RMK AO2
94908KDBQ DBQ20070509122010305/09/07 12:20:31  5-MIN KDBQ 091820Z 27012G17KT 10SM SCT065 24/09 A2999 1020 39 2300 270/12G17 RMK AO2
94908KDBQ DBQ20070509122510305/09/07 12:25:31  5-MIN KDBQ 091825Z 25015G20KT 10SM BKN065 24/09 A2998 1020 39 2300 250/15G20 RMK AO2
94908KDBQ DBQ20070509123010305/09/07 12:30:31  5-MIN KDBQ 091830Z 29009G20KT 10SM BKN065 23/09 A2998 1020 41 2300 290/09G20 RMK AO2
94908KDBQ DBQ20070509123510305/09/07 12:35:31  5-MIN KDBQ 091835Z 29013G23KT 10SM BKN070 24/09 A2998 1020 38 2400 290/13G23 RMK AO2
94908KDBQ DBQ20070509124010305/09/07 12:40:31  5-MIN KDBQ 091840Z 27011G23KT 10SM BKN070 24/09 A2998 1020 38 2300 270/11G23 RMK AO2
94908KDBQ DBQ20070509124510305/09/07 12:45:31  5-MIN KDBQ 091845Z 29012G19KT 10SM BKN070 24/09 A2998 1020 38 2400 290/12G19 RMK AO2
94908KDBQ DBQ20070509125012005/09/07 12:50:31  5-MIN KDBQ 091850Z 28012G19KT 10SM SCT070 25/09 A2998 1030 37 2500 270/12G19 RMK AO2 SLP146 T02500094
94908KDBQ DBQ20070509125511405/09/07 12:55:31  5-MIN KDBQ 091855Z 28013KT 10SM BKN070 24/09 A2998 1020 38 2400 280/13 RMK AO2 SLP147 T02440094
94908KDBQ DBQ20070509130009705/09/07 13:00:31  5-MIN KDBQ 091900Z 27014KT 10SM BKN070 24/09 A2998 1020 38 2400 270/14 RMK AO2
94908KDBQ DBQ20070509130509705/09/07 13:05:31  5-MIN KDBQ 091905Z 29009KT 10SM BKN070 24/10 A2998 1030 41 2300 290/09 RMK AO2
94908KDBQ DBQ20070509131009705/09/07 13:10:31  5-MIN KDBQ 091910Z 26008KT 10SM SCT070 24/10 A2998 1030 39 2400 260/08 RMK AO2
94908KDBQ DBQ20070509131509705/09/07 13:15:31  5-MIN KDBQ 091915Z 26013KT 10SM SCT070 24/10 A2997 1030 39 2400 260/13 RMK AO2
94908KDBQ DBQ20070509132009705/09/07 13:20:31  5-MIN KDBQ 091920Z 30012KT 10SM BKN070 24/09 A2997 1030 38 2400 300/12 RMK AO2
94908KDBQ DBQ20070509132509705/09/07 13:25:31  5-MIN KDBQ 091925Z 26010KT 10SM BKN070 25/10 A2997 1030 38 2500 260/10 RMK AO2
94908KDBQ DBQ20070509133009705/09/07 13:30:31  5-MIN KDBQ 091930Z 30010KT 10SM SCT070 25/10 A2997 1030 38 2500 300/10 RMK AO2
94908KDBQ DBQ20070509133509705/09/07 13:35:31  5-MIN KDBQ 091935Z 31010KT 10SM SCT070 24/09 A2997 1030 38 2400 310/10 RMK AO2
94908KDBQ DBQ20070509134010305/09/07 13:40:31  5-MIN KDBQ 091940Z 31009G15KT 10SM BKN070 24/10 A2997 1030 39 2400 310/09G15 RMK AO2
94908KDBQ DBQ20070509134510305/09/07 13:45:31  5-MIN KDBQ 091945Z 31009G14KT 10SM BKN070 25/10 A2997 1030 38 2500 310/09G14 RMK AO2
94908KDBQ DBQ20070509135012005/09/07 13:50:31  5-MIN KDBQ 091950Z 30006G14KT 10SM BKN070 24/09 A2997 1040 39 2300 300/06G14 RMK AO2 SLP144 T02390094
94908KDBQ DBQ20070509135511405/09/07 13:55:31  5-MIN KDBQ 091955Z 29010KT 10SM BKN070 25/11 A2996 1040 39 2500 290/10 RMK AO2 SLP143 T02500106
94908KDBQ DBQ20070509140009705/09/07 14:00:31  5-MIN KDBQ 092000Z 31013KT 10SM SCT070 25/10 A2997 1040 38 2500 310/13 RMK AO2
94908KDBQ DBQ20070509140509705/09/07 14:05:31  5-MIN KDBQ 092005Z 31010KT 10SM SCT070 24/10 A2996 1040 39 2400 310/10 RMK AO2
94908KDBQ DBQ20070509141010305/09/07 14:10:31  5-MIN KDBQ 092010Z 31010G16KT 10SM FEW070 25/10 A2996 1040 38 2500 310/10G16 RMK AO2
94908KDBQ DBQ20070509141510305/09/07 14:15:31  5-MIN KDBQ 092015Z 31009G16KT 10SM FEW070 25/10 A2996 1040 38 2500 310/09G16 RMK AO2
94908KDBQ DBQ20070509142009705/09/07 14:20:31  5-MIN KDBQ 092020Z 29009KT 10SM FEW070 24/09 A2996 1040 39 2300 290/09 RMK AO2
94908KDBQ DBQ20070509142509705/09/07 14:25:31  5-MIN KDBQ 092025Z 31012KT 10SM FEW070 25/10 A2996 1040 38 2500 300/12 RMK AO2
94908KDBQ DBQ20070509143009705/09/07 14:30:31  5-MIN KDBQ 092030Z 30008KT 10SM FEW070 25/10 A2995 1050 38 2500 300/08 RMK AO2
94908KDBQ DBQ20070509143509705/09/07 14:35:31  5-MIN KDBQ 092035Z 31010KT 10SM FEW070 25/10 A2995 1050 38 2500 310/10 RMK AO2
94908KDBQ DBQ20070509144009705/09/07 14:40:31  5-MIN KDBQ 092040Z 31012KT 10SM FEW070 25/10 A2995 1050 38 2500 310/12 RMK AO2
94908KDBQ DBQ20070509144509705/09/07 14:45:31  5-MIN KDBQ 092045Z 29011KT 10SM FEW070 24/09 A2995 1050 38 2400 290/11 RMK AO2
94908KDBQ DBQ20070509145012005/09/07 14:50:31  5-MIN KDBQ 092050Z 31008KT 10SM FEW070 25/10 A2995 1050 38 2500 310/08 RMK AO2 SLP137 T02500100 58010
94908KDBQ DBQ20070509145512605/09/07 14:55:31  5-MIN KDBQ 092055Z 28013G18KT 10SM FEW070 26/11 A2995 1060 38 2600 280/13G18 RMK AO2 SLP136 T02560106 58015
94908KDBQ DBQ20070509150010305/09/07 15:00:31  5-MIN KDBQ 092100Z 28010G18KT 10SM FEW070 25/09 A2995 1050 37 2500 280/10G18 RMK AO2
94908KDBQ DBQ20070509150509705/09/07 15:05:31  5-MIN KDBQ 092105Z 29009KT 10SM FEW070 24/09 A2994 1060 38 2400 280/09 RMK AO2
94908KDBQ DBQ20070509151009705/09/07 15:10:31  5-MIN KDBQ 092110Z 31006KT 10SM FEW070 24/09 A2994 1060 38 2400 310/06 RMK AO2
94908KDBQ DBQ20070509151509705/09/07 15:15:31  5-MIN KDBQ 092115Z 30010KT 10SM FEW075 24/11 A2994 1060 41 2400 300/10 RMK AO2
94908KDBQ DBQ20070509152009705/09/07 15:20:31  5-MIN KDBQ 092120Z 28010KT 10SM FEW075 25/10 A2994 1060 38 2500 280/10 RMK AO2
94908KDBQ DBQ20070509152509705/09/07 15:25:31  5-MIN KDBQ 092125Z 26007KT 10SM FEW075 24/09 A2994 1060 38 2400 260/07 RMK AO2
94908KDBQ DBQ20070509153009705/09/07 15:30:31  5-MIN KDBQ 092130Z 31010KT 10SM FEW075 24/10 A2994 1060 39 2400 310/10 RMK AO2
94908KDBQ DBQ20070509153509705/09/07 15:35:31  5-MIN KDBQ 092135Z 30010KT 10SM FEW075 25/09 A2994 1060 37 2500 300/10 RMK AO2
94908KDBQ DBQ20070509154009705/09/07 15:40:31  5-MIN KDBQ 092140Z 31007KT 10SM FEW075 24/10 A2994 1060 41 2400 310/07 RMK AO2
94908KDBQ DBQ20070509154509705/09/07 15:45:31  5-MIN KDBQ 092145Z 31008KT 10SM FEW075 24/09 A2994 1060 39 2400 310/08 RMK AO2
94908KDBQ DBQ20070509155012005/09/07 15:50:31  5-MIN KDBQ 092150Z 32012G19KT 10SM FEW075 25/10 A2993 1060 38 2500 320/12G19 RMK AO2 SLP133 T02500100
94908KDBQ DBQ20070509155512005/09/07 15:55:31  5-MIN KDBQ 092155Z 31009G19KT 10SM FEW075 24/10 A2993 1070 39 2400 310/09G19 RMK AO2 SLP133 T02440100
94908KDBQ DBQ20070509160009705/09/07 16:00:31  5-MIN KDBQ 092200Z 30009KT 10SM FEW075 24/10 A2994 1060 39 2400 300/09 RMK AO2
94908KDBQ DBQ20070509160509705/09/07 16:05:31  5-MIN KDBQ 092205Z 30008KT 10SM FEW075 24/10 A2994 1060 39 2400 300/08 RMK AO2
94908KDBQ DBQ20070509161009705/09/07 16:10:31  5-MIN KDBQ 092210Z 30010KT 10SM FEW075 24/10 A2994 1060 39 2400 300/10 RMK AO2
94908KDBQ DBQ20070509161510005/09/07 16:15:31  5-MIN KDBQ 092215Z 29007G16KT 10SM CLR 24/09 A2993 1070 38 2400 290/07G16 RMK AO2
94908KDBQ DBQ20070509162009405/09/07 16:20:31  5-MIN KDBQ 092220Z 32006KT 10SM CLR 25/10 A2993 1070 38 2500 310/06 RMK AO2
94908KDBQ DBQ20070509162509405/09/07 16:25:31  5-MIN KDBQ 092225Z 33010KT 10SM CLR 25/11 A2993 1070 39 2500 330/10 RMK AO2
94908KDBQ DBQ20070509163009405/09/07 16:30:31  5-MIN KDBQ 092230Z 33008KT 10SM CLR 24/10 A2993 1070 39 2400 330/08 RMK AO2
94908KDBQ DBQ20070509163509405/09/07 16:35:31  5-MIN KDBQ 092235Z 33010KT 10SM CLR 24/11 A2993 1070 41 2400 330/10 RMK AO2
94908KDBQ DBQ20070509164009405/09/07 16:40:31  5-MIN KDBQ 092240Z 33007KT 10SM CLR 24/11 A2993 1070 41 2400 330/07 RMK AO2
94908KDBQ DBQ20070509164509405/09/07 16:45:31  5-MIN KDBQ 092245Z 33010KT 10SM CLR 24/11 A2993 1070 41 2400 330/10 RMK AO2
94908KDBQ DBQ20070509165011105/09/07 16:50:31  5-MIN KDBQ 092250Z 33008KT 10SM CLR 24/10 A2993 1070 39 2400 330/08 RMK AO2 SLP132 T02440100
94908KDBQ DBQ20070509165511105/09/07 16:55:31  5-MIN KDBQ 092255Z 35007KT 10SM CLR 24/10 A2993 1070 39 2400 340/07 RMK AO2 SLP132 T02440100
94908KDBQ DBQ20070509170009405/09/07 17:00:31  5-MIN KDBQ 092300Z 34010KT 10SM CLR 24/10 A2993 1070 39 2400 340/10 RMK AO2
94908KDBQ DBQ20070509170509405/09/07 17:05:31  5-MIN KDBQ 092305Z 35007KT 10SM CLR 24/09 A2993 1070 38 2400 350/07 RMK AO2
94908KDBQ DBQ20070509171009405/09/07 17:10:31  5-MIN KDBQ 092310Z 34007KT 10SM CLR 24/10 A2993 1070 39 2400 340/07 RMK AO2
94908KDBQ DBQ20070509171509405/09/07 17:15:31  5-MIN KDBQ 092315Z 34008KT 10SM CLR 24/11 A2993 1070 42 2400 330/08 RMK AO2
94908KDBQ DBQ20070509172009405/09/07 17:20:31  5-MIN KDBQ 092320Z 35008KT 10SM CLR 24/11 A2993 1070 42 2400 340/08 RMK AO2
94908KDBQ DBQ20070509172509405/09/07 17:25:31  5-MIN KDBQ 092325Z 33008KT 10SM CLR 24/10 A2993 1070 41 2400 330/08 RMK AO2
94908KDBQ DBQ20070509173009405/09/07 17:30:31  5-MIN KDBQ 092330Z 35007KT 10SM CLR 24/11 A2992 1070 42 2400 340/07 RMK AO2
94908KDBQ DBQ20070509173509405/09/07 17:35:31  5-MIN KDBQ 092335Z 34008KT 10SM CLR 24/11 A2992 1070 42 2400 340/08 RMK AO2
94908KDBQ DBQ20070509174009405/09/07 17:40:31  5-MIN KDBQ 092340Z 33007KT 10SM CLR 24/11 A2992 1070 42 2400 330/07 RMK AO2
94908KDBQ DBQ20070509174509405/09/07 17:45:31  5-MIN KDBQ 092345Z 35004KT 10SM CLR 23/11 A2992 1070 45 2300 350/04 RMK AO2
94908KDBQ DBQ20070509175012905/09/07 17:50:31  5-MIN KDBQ 092350Z 35006KT 10SM CLR 24/12 A2992 1070 46 2400 350/06 RMK AO2 SLP130 T02390117 10256 20233 58015
94908KDBQ DBQ20070509175512905/09/07 17:55:31  5-MIN KDBQ 092355Z 35006KT 10SM CLR 23/11 A2993 1070 47 2300 350/06 RMK AO2 SLP131 T02280111 10256 20228 56006
94908KDBQ DBQ20070509180009405/09/07 18:00:31  5-MIN KDBQ 100000Z 35005KT 10SM CLR 23/11 A2993 1070 45 2300 350/05 RMK AO2
94908KDBQ DBQ20070509180509405/09/07 18:05:31  5-MIN KDBQ 100005Z 34005KT 10SM CLR 23/12 A2993 1070 49 2300 340/05 RMK AO2
94908KDBQ DBQ20070509181009405/09/07 18:10:31  5-MIN KDBQ 100010Z 35006KT 10SM CLR 23/12 A2993 1070 49 2300 350/06 RMK AO2
94908KDBQ DBQ20070509181509405/09/07 18:15:31  5-MIN KDBQ 100015Z 34006KT 10SM CLR 22/12 A2992 1070 51 2200 340/06 RMK AO2
94908KDBQ DBQ20070509182009405/09/07 18:20:31  5-MIN KDBQ 100020Z 35004KT 10SM CLR 22/11 A2993 1070 49 2200 350/04 RMK AO2
94908KDBQ DBQ20070509182509405/09/07 18:25:31  5-MIN KDBQ 100025Z 35004KT 10SM CLR 22/11 A2992 1070 49 2200 350/04 RMK AO2
94908KDBQ DBQ20070509183009405/09/07 18:30:31  5-MIN KDBQ 100030Z 35004KT 10SM CLR 22/11 A2992 1070 49 2200 350/04 RMK AO2
94908KDBQ DBQ20070509183509405/09/07 18:35:31  5-MIN KDBQ 100035Z 35004KT 10SM CLR 22/11 A2993 1070 50 2100 350/04 RMK AO2
94908KDBQ DBQ20070509184009405/09/07 18:40:31  5-MIN KDBQ 100040Z 35004KT 10SM CLR 22/11 A2993 1070 49 2100 350/04 RMK AO2
94908KDBQ DBQ20070509184509405/09/07 18:45:31  5-MIN KDBQ 100045Z 35004KT 10SM CLR 22/10 A2992 1080 47 2100 350/04 RMK AO2
94908KDBQ DBQ20070509185011105/09/07 18:50:31  5-MIN KDBQ 100050Z 35004KT 10SM CLR 21/10 A2993 1070 48 2100 350/04 RMK AO2 SLP130 T02110100
94908KDBQ DBQ20070509185512105/09/07 18:55:31  5-MIN KDBQ 100055Z AUTO 35004KT 10SM CLR 21/10 A2992 1080 48 2100 350/04 RMK AO2 SLP129 T02110100 TSNO
94908KDBQ DBQ20070509190010405/09/07 19:00:31  5-MIN KDBQ 100100Z AUTO 35004KT 10SM CLR 21/09 A2992 1080 47 2100 350/04 RMK AO2 TSNO
94908KDBQ DBQ20070509190509405/09/07 19:05:31  5-MIN KDBQ 100105Z 35005KT 10SM CLR 22/09 A2992 1080 45 2100 350/05 RMK AO2
94908KDBQ DBQ20070509191010405/09/07 19:10:31  5-MIN KDBQ 100110Z AUTO 35004KT 10SM CLR 21/09 A2992 1070 47 2100 350/04 RMK AO2 TSNO
94908KDBQ DBQ20070509191510405/09/07 19:15:31  5-MIN KDBQ 100115Z AUTO 35004KT 10SM CLR 21/09 A2993 1070 47 2100 350/04 RMK AO2 TSNO
94908KDBQ DBQ20070509192010405/09/07 19:20:31  5-MIN KDBQ 100120Z AUTO 35003KT 10SM CLR 21/09 A2993 1070 47 2100 350/03 RMK AO2 TSNO
94908KDBQ DBQ20070509192510405/09/07 19:25:31  5-MIN KDBQ 100125Z AUTO 34004KT 10SM CLR 21/09 A2993 1070 45 2100 340/04 RMK AO2 TSNO
94908KDBQ DBQ20070509193010405/09/07 19:30:31  5-MIN KDBQ 100130Z AUTO 34003KT 10SM CLR 21/09 A2993 1070 45 2100 340/03 RMK AO2 TSNO
94908KDBQ DBQ20070509193510405/09/07 19:35:31  5-MIN KDBQ 100135Z AUTO 33003KT 10SM CLR 21/09 A2993 1070 45 2100 330/03 RMK AO2 TSNO
94908KDBQ DBQ20070509194010405/09/07 19:40:31  5-MIN KDBQ 100140Z AUTO 33003KT 10SM CLR 20/09 A2993 1070 48 1900 330/03 RMK AO2 TSNO
94908KDBQ DBQ20070509194510405/09/07 19:45:31  5-MIN KDBQ 100145Z AUTO 00000KT 10SM CLR 20/09 A2993 1070 48 1900 000/00 RMK AO2 TSNO
94908KDBQ DBQ20070509195012105/09/07 19:50:31  5-MIN KDBQ 100150Z AUTO 00000KT 10SM CLR 18/09 A2993 1070 55 1700 000/00 RMK AO2 SLP134 T01780089 TSNO
94908KDBQ DBQ20070509195512105/09/07 19:55:31  5-MIN KDBQ 100155Z AUTO 00000KT 10SM CLR 18/09 A2994 1060 54 1700 000/00 RMK AO2 SLP135 T01830089 TSNO
94908KDBQ DBQ20070509200010405/09/07 20:00:31  5-MIN KDBQ 100200Z AUTO 00000KT 10SM CLR 17/09 A2994 1060 60 1600 000/00 RMK AO2 TSNO
94908KDBQ DBQ20070509200510405/09/07 20:05:31  5-MIN KDBQ 100205Z AUTO 00000KT 10SM CLR 17/09 A2994 1060 60 1600 000/00 RMK AO2 TSNO
94908KDBQ DBQ20070509201010405/09/07 20:10:31  5-MIN KDBQ 100210Z AUTO 00000KT 10SM CLR 17/09 A2994 1060 60 1600 000/00 RMK AO2 TSNO
94908KDBQ DBQ20070509201510405/09/07 20:15:31  5-MIN KDBQ 100215Z AUTO 00000KT 10SM CLR 17/09 A2994 1060 62 1500 000/00 RMK AO2 TSNO
94908KDBQ DBQ20070509202010405/09/07 20:20:31  5-MIN KDBQ 100220Z AUTO 00000KT 10SM CLR 17/09 A2995 1050 57 1600 000/00 RMK AO2 TSNO
94908KDBQ DBQ20070509202510405/09/07 20:25:31  5-MIN KDBQ 100225Z AUTO 00000KT 10SM CLR 18/09 A2995 1050 55 1700 000/00 RMK AO2 TSNO
94908KDBQ DBQ20070509203010405/09/07 20:30:31  5-MIN KDBQ 100230Z AUTO 00000KT 10SM CLR 17/09 A2995 1050 60 1500 000/00 RMK AO2 TSNO
94908KDBQ DBQ20070509203510405/09/07 20:35:31  5-MIN KDBQ 100235Z AUTO 00000KT 10SM CLR 16/09 A2995 1050 62 1500 000/00 RMK AO2 TSNO
94908KDBQ DBQ20070509204010405/09/07 20:40:31  5-MIN KDBQ 100240Z AUTO 00000KT 10SM CLR 16/09 A2995 1050 62 1500 000/00 RMK AO2 TSNO
94908KDBQ DBQ20070509204510405/09/07 20:45:31  5-MIN KDBQ 100245Z AUTO 00000KT 10SM CLR 16/09 A2996 1050 62 1500 000/00 RMK AO2 TSNO
94908KDBQ DBQ20070509205012705/09/07 20:50:31  5-MIN KDBQ 100250Z AUTO 00000KT 10SM CLR 16/09 A2996 1040 62 1500 000/00 RMK AO2 SLP142 T01610089 56006 TSNO
94908KDBQ DBQ20070509205512705/09/07 20:55:31  5-MIN KDBQ 100255Z AUTO 00000KT 10SM CLR 17/09 A2996 1040 60 1500 000/00 RMK AO2 SLP141 T01670089 53011 TSNO
94908KDBQ DBQ20070509210010405/09/07 21:00:31  5-MIN KDBQ 100300Z AUTO 00000KT 10SM CLR 16/09 A2996 1040 62 1500 000/00 RMK AO2 TSNO
94908KDBQ DBQ20070509210510405/09/07 21:05:31  5-MIN KDBQ 100305Z AUTO 00000KT 10SM CLR 16/08 A2996 1040 59 1400 000/00 RMK AO2 TSNO
94908KDBQ DBQ20070509211010405/09/07 21:10:31  5-MIN KDBQ 100310Z AUTO 00000KT 10SM CLR 16/09 A2997 1040 64 1400 000/00 RMK AO2 TSNO
94908KDBQ DBQ20070509211510405/09/07 21:15:31  5-MIN KDBQ 100315Z AUTO 00000KT 10SM CLR 16/09 A2996 1040 62 1400 000/00 RMK AO2 TSNO
94908KDBQ DBQ20070509212010405/09/07 21:20:31  5-MIN KDBQ 100320Z AUTO 00000KT 10SM CLR 16/09 A2996 1040 62 1500 000/00 RMK AO2 TSNO
94908KDBQ DBQ20070509212510405/09/07 21:25:31  5-MIN KDBQ 100325Z AUTO 00000KT 10SM CLR 16/09 A2997 1040 64 1400 000/00 RMK AO2 TSNO
94908KDBQ DBQ20070509213010405/09/07 21:30:31  5-MIN KDBQ 100330Z AUTO 00000KT 10SM CLR 15/08 A2997 1040 64 1300 000/00 RMK AO2 TSNO
94908KDBQ DBQ20070509213510405/09/07 21:35:31  5-MIN KDBQ 100335Z AUTO 00000KT 10SM CLR 15/09 A2996 1040 66 1300 000/00 RMK AO2 TSNO
94908KDBQ DBQ20070509214010405/09/07 21:40:31  5-MIN KDBQ 100340Z AUTO 00000KT 10SM CLR 14/09 A2996 1040 71 1200 000/00 RMK AO2 TSNO
94908KDBQ DBQ20070509214510405/09/07 21:45:31  5-MIN KDBQ 100345Z AUTO 00000KT 10SM CLR 14/09 A2997 1040 69 1300 000/00 RMK AO2 TSNO
94908KDBQ DBQ20070509215012105/09/07 21:50:31  5-MIN KDBQ 100350Z AUTO 00000KT 10SM CLR 14/09 A2997 1030 69 1300 000/00 RMK AO2 SLP145 T01440089 TSNO
94908KDBQ DBQ20070509215512105/09/07 21:55:31  5-MIN KDBQ 100355Z AUTO 23003KT 10SM CLR 14/09 A2997 1040 69 1300 230/03 RMK AO2 SLP144 T01440089 TSNO
94908KDBQ DBQ20070509220010405/09/07 22:00:31  5-MIN KDBQ 100400Z AUTO 00000KT 10SM CLR 14/09 A2997 1030 69 1200 000/00 RMK AO2 TSNO
94908KDBQ DBQ20070509220510405/09/07 22:05:31  5-MIN KDBQ 100405Z AUTO 00000KT 10SM CLR 14/09 A2997 1030 69 1200 000/00 RMK AO2 TSNO
94908KDBQ DBQ20070509221010405/09/07 22:10:31  5-MIN KDBQ 100410Z AUTO 00000KT 10SM CLR 15/09 A2997 1030 66 1300 000/00 RMK AO2 TSNO
94908KDBQ DBQ20070509221510405/09/07 22:15:31  5-MIN KDBQ 100415Z AUTO 00000KT 10SM CLR 14/09 A2997 1030 69 1200 000/00 RMK AO2 TSNO
94908KDBQ DBQ20070509222010405/09/07 22:20:31  5-MIN KDBQ 100420Z AUTO 00000KT 10SM CLR 15/09 A2997 1030 66 1300 000/00 RMK AO2 TSNO
94908KDBQ DBQ20070509222510405/09/07 22:25:31  5-MIN KDBQ 100425Z AUTO 00000KT 10SM CLR 15/08 A2997 1030 64 1300 000/00 RMK AO2 TSNO
94908KDBQ DBQ20070509223010405/09/07 22:30:31  5-MIN KDBQ 100430Z AUTO 00000KT 10SM CLR 15/08 A2997 1030 64 1300 000/00 RMK AO2 TSNO
94908KDBQ DBQ20070509223510405/09/07 22:35:31  5-MIN KDBQ 100435Z AUTO 00000KT 10SM CLR 16/08 A2996 1040 62 1400 000/00 RMK AO2 TSNO
94908KDBQ DBQ20070509224010405/09/07 22:40:31  5-MIN KDBQ 100440Z AUTO 00000KT 10SM CLR 16/08 A2997 1040 62 1400 000/00 RMK AO2 TSNO
94908KDBQ DBQ20070509224510405/09/07 22:45:31  5-MIN KDBQ 100445Z AUTO 00000KT 10SM CLR 15/08 A2997 1030 64 1300 000/00 RMK AO2 TSNO
94908KDBQ DBQ20070509225012105/09/07 22:50:31  5-MIN KDBQ 100450Z AUTO 00000KT 10SM CLR 14/08 A2997 1040 66 1300 000/00 RMK AO2 SLP144 T01440083 TSNO
94908KDBQ DBQ20070509225512105/09/07 22:55:31  5-MIN KDBQ 100455Z AUTO 00000KT 10SM CLR 15/09 A2997 1040 66 1300 000/00 RMK AO2 SLP144 T01500089 TSNO
94908KDBQ DBQ20070509230010405/09/07 23:00:31  5-MIN KDBQ 100500Z AUTO 00000KT 10SM CLR 15/08 A2997 1040 64 1300 000/00 RMK AO2 TSNO
94908KDBQ DBQ20070509230510405/09/07 23:05:31  5-MIN KDBQ 100505Z AUTO 00000KT 10SM CLR 14/08 A2997 1040 66 1300 000/00 RMK AO2 TSNO
94908KDBQ DBQ20070509231010405/09/07 23:10:31  5-MIN KDBQ 100510Z AUTO 00000KT 10SM CLR 14/08 A2997 1040 66 1300 000/00 RMK AO2 TSNO
94908KDBQ DBQ20070509231510405/09/07 23:15:31  5-MIN KDBQ 100515Z AUTO 00000KT 10SM CLR 14/08 A2997 1040 66 1300 000/00 RMK AO2 TSNO
94908KDBQ DBQ20070509232010405/09/07 23:20:31  5-MIN KDBQ 100520Z AUTO 00000KT 10SM CLR 15/08 A2997 1040 64 1300 000/00 RMK AO2 TSNO
94908KDBQ DBQ20070509232510405/09/07 23:25:31  5-MIN KDBQ 100525Z AUTO 00000KT 10SM CLR 16/08 A2996 1040 62 1400 000/00 RMK AO2 TSNO
94908KDBQ DBQ20070509233010405/09/07 23:30:31  5-MIN KDBQ 100530Z AUTO 00000KT 10SM CLR 14/08 A2996 1040 69 1200 000/00 RMK AO2 TSNO
94908KDBQ DBQ20070509233510405/09/07 23:35:31  5-MIN KDBQ 100535Z AUTO 00000KT 10SM CLR 13/08 A2996 1040 71 1100 000/00 RMK AO2 TSNO
94908KDBQ DBQ20070509234010405/09/07 23:40:31  5-MIN KDBQ 100540Z AUTO 00000KT 10SM CLR 14/08 A2997 1040 66 1300 000/00 RMK AO2 TSNO
94908KDBQ DBQ20070509234510405/09/07 23:45:31  5-MIN KDBQ 100545Z AUTO 25003KT 10SM CLR 13/08 A2996 1040 71 1100 250/03 RMK AO2 TSNO
94908KDBQ DBQ20070509235014905/09/07 23:50:31  5-MIN KDBQ 100550Z AUTO 00000KT 10SM CLR 13/08 A2996 1040 74 1100 000/00 RMK AO2 SLP144 T01280083 10228 20128 402560122 53011 TSNO
94908KDBQ DBQ20070509235514905/09/07 23:55:31  5-MIN KDBQ 100555Z AUTO 00000KT 10SM CLR 13/09 A2996 1040 74 1100 000/00 RMK AO2 SLP143 T01330089 10228 20128 402560122 50001 TSNO
94908KDBQ DBQ20070510000010405/10/07 00:00:38  5-MIN KDBQ 100600Z AUTO 00000KT 10SM CLR 14/09 A2996 1040 71 1200 000/00 RMK AO2 TSNO
94908KDBQ DBQ20070510000510405/10/07 00:05:31  5-MIN KDBQ 100605Z AUTO 00000KT 10SM CLR 13/08 A2996 1040 69 1100 000/00 RMK AO2 TSNO
94908KDBQ DBQ20070510001010405/10/07 00:10:31  5-MIN KDBQ 100610Z AUTO 00000KT 10SM CLR 13/08 A2996 1040 71 1100 000/00 RMK AO2 TSNO
94908KDBQ DBQ20070510001510405/10/07 00:15:31  5-MIN KDBQ 100615Z AUTO 00000KT 10SM CLR 14/08 A2996 1040 69 1200 000/00 RMK AO2 TSNO
94908KDBQ DBQ20070510002010405/10/07 00:20:31  5-MIN KDBQ 100620Z AUTO 00000KT 10SM CLR 12/08 A2996 1040 77 1000 000/00 RMK AO2 TSNO
94908KDBQ DBQ20070510002510405/10/07 00:25:31  5-MIN KDBQ 100625Z AUTO 00000KT 10SM CLR 12/08 A2996 1040 77 1000 000/00 RMK AO2 TSNO
94908KDBQ DBQ20070510003010405/10/07 00:30:31  5-MIN KDBQ 100630Z AUTO 00000KT 10SM CLR 13/08 A2996 1040 71 1100 000/00 RMK AO2 TSNO
94908KDBQ DBQ20070510003510405/10/07 00:35:31  5-MIN KDBQ 100635Z AUTO 00000KT 10SM CLR 13/08 A2996 1040 71 1100 000/00 RMK AO2 TSNO
94908KDBQ DBQ20070510004010405/10/07 00:40:31  5-MIN KDBQ 100640Z AUTO 00000KT 10SM CLR 13/08 A2996 1040 71 1100 000/00 RMK AO2 TSNO
94908KDBQ DBQ20070510004510405/10/07 00:45:31  5-MIN KDBQ 100645Z AUTO 00000KT 10SM CLR 14/08 A2996 1040 69 1200 000/00 RMK AO2 TSNO
94908KDBQ DBQ20070510005012105/10/07 00:50:31  5-MIN KDBQ 100650Z AUTO 00000KT 10SM CLR 14/08 A2996 1040 69 1200 000/00 RMK AO2 SLP141 T01390083 TSNO
94908KDBQ DBQ20070510005512105/10/07 00:55:31  5-MIN KDBQ 100655Z AUTO 00000KT 10SM CLR 14/08 A2996 1040 69 1200 000/00 RMK AO2 SLP141 T01390083 TSNO
94908KDBQ DBQ20070510010010405/10/07 01:00:31  5-MIN KDBQ 100700Z AUTO 00000KT 10SM CLR 14/08 A2996 1040 69 1200 000/00 RMK AO2 TSNO
94908KDBQ DBQ20070510010510405/10/07 01:05:31  5-MIN KDBQ 100705Z AUTO 00000KT 10SM CLR 14/08 A2996 1050 69 1200 000/00 RMK AO2 TSNO
94908KDBQ DBQ20070510011010405/10/07 01:10:31  5-MIN KDBQ 100710Z AUTO 00000KT 10SM CLR 14/08 A2996 1050 69 1200 000/00 RMK AO2 TSNO
94908KDBQ DBQ20070510011510405/10/07 01:15:31  5-MIN KDBQ 100715Z AUTO 00000KT 10SM CLR 13/08 A2995 1050 71 1100 000/00 RMK AO2 TSNO
94908KDBQ DBQ20070510012010405/10/07 01:20:31  5-MIN KDBQ 100720Z AUTO 00000KT 10SM CLR 13/08 A2995 1050 74 1100 000/00 RMK AO2 TSNO
94908KDBQ DBQ20070510012510405/10/07 01:25:31  5-MIN KDBQ 100725Z AUTO 00000KT 10SM CLR 13/08 A2995 1050 74 1100 000/00 RMK AO2 TSNO
94908KDBQ DBQ20070510013010405/10/07 01:30:31  5-MIN KDBQ 100730Z AUTO 00000KT 10SM CLR 12/08 A2995 1050 77 1000 000/00 RMK AO2 TSNO
94908KDBQ DBQ20070510013510405/10/07 01:35:31  5-MIN KDBQ 100735Z AUTO 00000KT 10SM CLR 12/08 A2995 1050 77 1000 000/00 RMK AO2 TSNO
94908KDBQ DBQ20070510014010405/10/07 01:40:31  5-MIN KDBQ 100740Z AUTO 00000KT 10SM CLR 12/08 A2995 1050 77 1000 000/00 RMK AO2 TSNO
94908KDBQ DBQ20070510014510405/10/07 01:45:31  5-MIN KDBQ 100745Z AUTO 00000KT 10SM CLR 13/08 A2995 1050 69 1100 000/00 RMK AO2 TSNO
94908KDBQ DBQ20070510015012105/10/07 01:50:31  5-MIN KDBQ 100750Z AUTO 00000KT 10SM CLR 12/08 A2995 1050 77 1000 000/00 RMK AO2 SLP138 T01220083 TSNO
94908KDBQ DBQ20070510015512005/10/07 01:55:31  5-MIN KDBQ 100755Z AUTO 00000KT 10SM CLR 12/08 A2995 1050 77 900 000/00 RMK AO2 SLP138 T01170078 TSNO
94908KDBQ DBQ20070510020010305/10/07 02:00:31  5-MIN KDBQ 100800Z AUTO 00000KT 10SM CLR 11/08 A2994 1060 80 900 000/00 RMK AO2 TSNO
94908KDBQ DBQ20070510020510305/10/07 02:05:31  5-MIN KDBQ 100805Z AUTO 00000KT 10SM CLR 11/08 A2995 1050 80 900 000/00 RMK AO2 TSNO
94908KDBQ DBQ20070510021010305/10/07 02:10:31  5-MIN KDBQ 100810Z AUTO 00000KT 10SM CLR 11/08 A2995 1050 80 900 000/00 RMK AO2 TSNO
94908KDBQ DBQ20070510021510305/10/07 02:15:31  5-MIN KDBQ 100815Z AUTO 00000KT 10SM CLR 12/08 A2995 1050 77 900 000/00 RMK AO2 TSNO
94908KDBQ DBQ20070510022010305/10/07 02:20:31  5-MIN KDBQ 100820Z AUTO 00000KT 10SM CLR 12/08 A2995 1050 77 900 000/00 RMK AO2 TSNO
94908KDBQ DBQ20070510022510405/10/07 02:25:31  5-MIN KDBQ 100825Z AUTO 00000KT 10SM CLR 12/08 A2995 1050 74 1000 000/00 RMK AO2 TSNO
94908KDBQ DBQ20070510023010405/10/07 02:30:31  5-MIN KDBQ 100830Z AUTO 00000KT 10SM CLR 12/08 A2995 1050 74 1000 000/00 RMK AO2 TSNO
94908KDBQ DBQ20070510023510405/10/07 02:35:31  5-MIN KDBQ 100835Z AUTO 00000KT 10SM CLR 12/08 A2995 1050 74 1000 000/00 RMK AO2 TSNO
94908KDBQ DBQ20070510024010405/10/07 02:40:31  5-MIN KDBQ 100840Z AUTO 00000KT 10SM CLR 12/08 A2995 1050 74 1000 000/00 RMK AO2 TSNO
94908KDBQ DBQ20070510024510405/10/07 02:45:31  5-MIN KDBQ 100845Z AUTO 00000KT 10SM CLR 12/08 A2995 1050 74 1000 000/00 RMK AO2 TSNO
94908KDBQ DBQ20070510025012705/10/07 02:50:31  5-MIN KDBQ 100850Z AUTO 00000KT 10SM CLR 12/08 A2995 1050 74 1000 000/00 RMK AO2 SLP139 T01220078 50001 TSNO
94908KDBQ DBQ20070510025512605/10/07 02:55:31  5-MIN KDBQ 100855Z AUTO 00000KT 10SM CLR 12/08 A2995 1050 77 900 000/00 RMK AO2 SLP139 T01170078 55004 TSNO
94908KDBQ DBQ20070510030010305/10/07 03:00:31  5-MIN KDBQ 100900Z AUTO 00000KT 10SM CLR 12/08 A2995 1050 77 900 000/00 RMK AO2 TSNO
94908KDBQ DBQ20070510030510305/10/07 03:05:31  5-MIN KDBQ 100905Z AUTO 00000KT 10SM CLR 12/08 A2995 1050 77 900 000/00 RMK AO2 TSNO
94908KDBQ DBQ20070510031010405/10/07 03:10:31  5-MIN KDBQ 100910Z AUTO 00000KT 10SM CLR 12/08 A2994 1060 74 1000 000/00 RMK AO2 TSNO
94908KDBQ DBQ20070510031510305/10/07 03:15:31  5-MIN KDBQ 100915Z AUTO 00000KT 10SM CLR 12/08 A2995 1050 77 900 000/00 RMK AO2 TSNO
94908KDBQ DBQ20070510032010305/10/07 03:20:31  5-MIN KDBQ 100920Z AUTO 00000KT 10SM CLR 12/08 A2995 1050 77 900 000/00 RMK AO2 TSNO
94908KDBQ DBQ20070510032510405/10/07 03:25:31  5-MIN KDBQ 100925Z AUTO 00000KT 10SM CLR 12/08 A2995 1050 74 1000 000/00 RMK AO2 TSNO
94908KDBQ DBQ20070510033010405/10/07 03:30:31  5-MIN KDBQ 100930Z AUTO 00000KT 10SM CLR 12/08 A2995 1050 77 1000 000/00 RMK AO2 TSNO
94908KDBQ DBQ20070510033510405/10/07 03:35:31  5-MIN KDBQ 100935Z AUTO 00000KT 10SM CLR 13/08 A2995 1050 71 1100 000/00 RMK AO2 TSNO
94908KDBQ DBQ20070510034010305/10/07 03:40:31  5-MIN KDBQ 100940Z AUTO 00000KT 10SM CLR 11/07 A2995 1050 80 800 000/00 RMK AO2 TSNO
94908KDBQ DBQ20070510034510305/10/07 03:45:31  5-MIN KDBQ 100945Z AUTO 00000KT 10SM CLR 11/08 A2995 1050 83 800 000/00 RMK AO2 TSNO
94908KDBQ DBQ20070510035012005/10/07 03:50:31  5-MIN KDBQ 100950Z AUTO 00000KT 10SM CLR 10/07 A2995 1050 80 700 000/00 RMK AO2 SLP140 T01000067 TSNO
94908KDBQ DBQ20070510035512005/10/07 03:55:31  5-MIN KDBQ 100955Z AUTO 00000KT 10SM CLR 10/07 A2995 1050 80 700 000/00 RMK AO2 SLP141 T01000067 TSNO
94908KDBQ DBQ20070510040010305/10/07 04:00:31  5-MIN KDBQ 101000Z AUTO 00000KT 10SM CLR 10/07 A2995 1050 80 700 000/00 RMK AO2 TSNO
94908KDBQ DBQ20070510040510305/10/07 04:05:31  5-MIN KDBQ 101005Z AUTO 00000KT 10SM CLR 10/07 A2995 1050 83 700 000/00 RMK AO2 TSNO
94908KDBQ DBQ20070510041010305/10/07 04:10:31  5-MIN KDBQ 101010Z AUTO 00000KT 10SM CLR 11/07 A2995 1050 80 800 000/00 RMK AO2 TSNO
94908KDBQ DBQ20070510041510305/10/07 04:15:31  5-MIN KDBQ 101015Z AUTO 00000KT 10SM CLR 11/07 A2995 1050 77 900 000/00 RMK AO2 TSNO
94908KDBQ DBQ20070510042010305/10/07 04:20:31  5-MIN KDBQ 101020Z AUTO 00000KT 10SM CLR 11/07 A2995 1050 80 800 000/00 RMK AO2 TSNO
94908KDBQ DBQ20070510042510305/10/07 04:25:31  5-MIN KDBQ 101025Z AUTO 00000KT 10SM CLR 11/07 A2995 1050 77 900 000/00 RMK AO2 TSNO
94908KDBQ DBQ20070510043010305/10/07 04:30:31  5-MIN KDBQ 101030Z AUTO 00000KT 10SM CLR 11/07 A2996 1040 80 800 000/00 RMK AO2 TSNO
94908KDBQ DBQ20070510043510305/10/07 04:35:31  5-MIN KDBQ 101035Z AUTO 00000KT 10SM CLR 11/07 A2996 1040 77 900 000/00 RMK AO2 TSNO
94908KDBQ DBQ20070510044010205/10/07 04:40:31  5-MIN KDBQ 101040Z AUTO 00000KT 9SM CLR 11/07 A2996 1040 77 900 000/00 RMK AO2 TSNO
94908KDBQ DBQ20070510050509405/10/07 05:05:31  5-MIN KDBQ 101105Z 00000KT 10SM CLR 13/08 A2996 1040 74 1100 000/00 RMK AO2
94908KDBQ DBQ20070510051009405/10/07 05:10:31  5-MIN KDBQ 101110Z 00000KT 10SM CLR 13/08 A2996 1040 71 1100 000/00 RMK AO2
94908KDBQ DBQ20070510051509405/10/07 05:15:31  5-MIN KDBQ 101115Z 00000KT 10SM CLR 13/08 A2996 1040 71 1100 000/00 RMK AO2
94908KDBQ DBQ20070510052009405/10/07 05:20:31  5-MIN KDBQ 101120Z 00000KT 10SM CLR 13/08 A2996 1040 71 1100 000/00 RMK AO2
94908KDBQ DBQ20070510052509405/10/07 05:25:31  5-MIN KDBQ 101125Z 00000KT 10SM CLR 13/08 A2996 1040 74 1100 000/00 RMK AO2
94908KDBQ DBQ20070510053009405/10/07 05:30:31  5-MIN KDBQ 101130Z 00000KT 10SM CLR 13/08 A2996 1040 74 1100 000/00 RMK AO2
94908KDBQ DBQ20070510053509405/10/07 05:35:31  5-MIN KDBQ 101135Z 00000KT 10SM CLR 13/08 A2997 1040 74 1100 000/00 RMK AO2
94908KDBQ DBQ20070510054009405/10/07 05:40:31  5-MIN KDBQ 101140Z 00000KT 10SM CLR 13/08 A2997 1040 71 1100 000/00 RMK AO2
94908KDBQ DBQ20070510054509405/10/07 05:45:31  5-MIN KDBQ 101145Z 00000KT 10SM CLR 14/09 A2997 1030 71 1200 000/00 RMK AO2
94908KDBQ DBQ20070510055012905/10/07 05:50:31  5-MIN KDBQ 101150Z 00000KT 10SM CLR 14/09 A2997 1030 72 1200 000/00 RMK AO2 SLP145 T01440094 10144 20100 55004
94908KDBQ DBQ20070510055512905/10/07 05:55:31  5-MIN KDBQ 101155Z 00000KT 10SM CLR 14/09 A2997 1030 72 1200 000/00 RMK AO2 SLP147 T01440094 10144 20100 53007
94908KDBQ DBQ20070510060009405/10/07 06:00:31  5-MIN KDBQ 101200Z 00000KT 10SM CLR 15/10 A2997 1030 72 1300 000/00 RMK AO2
94908KDBQ DBQ20070510060509405/10/07 06:05:31  5-MIN KDBQ 101205Z 00000KT 10SM CLR 15/11 A2998 1030 74 1300 000/00 RMK AO2
94908KDBQ DBQ20070510061009405/10/07 06:10:31  5-MIN KDBQ 101210Z 00000KT 10SM CLR 16/11 A2998 1020 72 1400 000/00 RMK AO2
94908KDBQ DBQ20070510061509405/10/07 06:15:31  5-MIN KDBQ 101215Z 00000KT 10SM CLR 16/10 A2998 1020 67 1400 000/00 RMK AO2
94908KDBQ DBQ20070510062009405/10/07 06:20:31  5-MIN KDBQ 101220Z 00000KT 10SM CLR 16/11 A2998 1020 69 1400 000/00 RMK AO2
94908KDBQ DBQ20070510062509405/10/07 06:25:31  5-MIN KDBQ 101225Z 00000KT 10SM CLR 17/11 A2998 1020 69 1500 000/00 RMK AO2
94908KDBQ DBQ20070510063009405/10/07 06:30:31  5-MIN KDBQ 101230Z 00000KT 10SM CLR 17/11 A2998 1020 69 1500 000/00 RMK AO2
94908KDBQ DBQ20070510063509405/10/07 06:35:31  5-MIN KDBQ 101235Z 00000KT 10SM CLR 17/11 A2998 1020 67 1600 000/00 RMK AO2
94908KDBQ DBQ20070510064009405/10/07 06:40:31  5-MIN KDBQ 101240Z 00000KT 10SM CLR 18/12 A2998 1020 67 1600 000/00 RMK AO2
94908KDBQ DBQ20070510064509405/10/07 06:45:31  5-MIN KDBQ 101245Z 00000KT 10SM CLR 18/11 A2998 1020 62 1700 000/00 RMK AO2
94908KDBQ DBQ20070510065011105/10/07 06:50:31  5-MIN KDBQ 101250Z 00000KT 10SM CLR 19/12 A2999 1020 62 1700 000/00 RMK AO2 SLP150 T01890117
94908KDBQ DBQ20070510065511105/10/07 06:55:31  5-MIN KDBQ 101255Z 00000KT 10SM CLR 19/11 A2999 1020 58 1800 000/00 RMK AO2 SLP150 T01940111
94908KDBQ DBQ20070510070009405/10/07 07:00:31  5-MIN KDBQ 101300Z 00000KT 10SM CLR 20/12 A2999 1020 60 1900 000/00 RMK AO2
94908KDBQ DBQ20070510070509405/10/07 07:05:31  5-MIN KDBQ 101305Z 00000KT 10SM CLR 19/13 A2998 1020 65 1800 000/00 RMK AO2
94908KDBQ DBQ20070510071009405/10/07 07:10:31  5-MIN KDBQ 101310Z 00000KT 10SM CLR 20/13 A2998 1020 63 1900 000/00 RMK AO2
94908KDBQ DBQ20070510071509405/10/07 07:15:31  5-MIN KDBQ 101315Z 00000KT 10SM CLR 20/13 A2999 1020 63 1900 000/00 RMK AO2
94908KDBQ DBQ20070510072009405/10/07 07:20:31  5-MIN KDBQ 101320Z 00000KT 10SM CLR 21/13 A2999 1020 63 1900 000/00 RMK AO2
94908KDBQ DBQ20070510072509405/10/07 07:25:31  5-MIN KDBQ 101325Z 00000KT 10SM CLR 21/13 A2999 1020 58 2000 000/00 RMK AO2
94908KDBQ DBQ20070510073009405/10/07 07:30:31  5-MIN KDBQ 101330Z 00000KT 10SM CLR 22/13 A2999 1020 58 2100 000/00 RMK AO2
94908KDBQ DBQ20070510073509405/10/07 07:35:31  5-MIN KDBQ 101335Z 00000KT 10SM CLR 22/12 A2999 1020 52 2100 000/00 RMK AO2
94908KDBQ DBQ20070510074009405/10/07 07:40:31  5-MIN KDBQ 101340Z 00000KT 10SM CLR 22/12 A2999 1020 52 2100 000/00 RMK AO2
94908KDBQ DBQ20070510074509405/10/07 07:45:31  5-MIN KDBQ 101345Z 00000KT 10SM CLR 23/12 A2998 1020 49 2200 000/00 RMK AO2
94908KDBQ DBQ20070510075011105/10/07 07:50:31  5-MIN KDBQ 101350Z 00000KT 10SM CLR 23/11 A2999 1020 47 2200 000/00 RMK AO2 SLP150 T02280111
94908KDBQ DBQ20070510075511105/10/07 07:55:31  5-MIN KDBQ 101355Z 31003KT 10SM CLR 23/12 A2998 1020 49 2200 310/03 RMK AO2 SLP149 T02280117
94908KDBQ DBQ20070510080009405/10/07 08:00:31  5-MIN KDBQ 101400Z 30004KT 10SM CLR 23/12 A2999 1020 47 2300 300/04 RMK AO2
94908KDBQ DBQ20070510080509405/10/07 08:05:31  5-MIN KDBQ 101405Z 31005KT 10SM CLR 23/12 A2999 1020 47 2300 310/05 RMK AO2
94908KDBQ DBQ20070510081009405/10/07 08:10:31  5-MIN KDBQ 101410Z 32005KT 10SM CLR 23/12 A2999 1020 47 2300 320/05 RMK AO2
94908KDBQ DBQ20070510081509405/10/07 08:15:31  5-MIN KDBQ 101415Z 30005KT 10SM CLR 23/12 A2999 1020 47 2300 300/05 RMK AO2
94908KDBQ DBQ20070510082009405/10/07 08:20:31  5-MIN KDBQ 101420Z 30004KT 10SM CLR 23/11 A2999 1020 45 2300 300/04 RMK AO2
94908KDBQ DBQ20070510082509405/10/07 08:25:31  5-MIN KDBQ 101425Z 31003KT 10SM CLR 23/12 A2999 1010 47 2300 310/03 RMK AO2
94908KDBQ DBQ20070510083009405/10/07 08:30:31  5-MIN KDBQ 101430Z 32006KT 10SM CLR 23/12 A2999 1010 49 2300 310/06 RMK AO2
94908KDBQ DBQ20070510083509405/10/07 08:35:31  5-MIN KDBQ 101435Z 31008KT 10SM CLR 23/12 A2999 1010 47 2200 310/08 RMK AO2
94908KDBQ DBQ20070510084009405/10/07 08:40:31  5-MIN KDBQ 101440Z 36006KT 10SM CLR 23/12 A2999 1010 49 2300 360/06 RMK AO2
94908KDBQ DBQ20070510084509405/10/07 08:45:31  5-MIN KDBQ 101445Z 02004KT 10SM CLR 24/14 A2999 1010 53 2300 020/04 RMK AO2
94908KDBQ DBQ20070510085011705/10/07 08:50:31  5-MIN KDBQ 101450Z VRB03KT 10SM CLR 23/13 A2999 1010 53 2300 VRB/03 RMK AO2 SLP152 T02330133 53007
94908KDBQ DBQ20070510085511705/10/07 08:55:31  5-MIN KDBQ 101455Z 00000KT 10SM CLR 24/13 A2999 1010 51 2300 000/00 RMK AO2 SLP152 T02390133 51007
94908KDBQ DBQ20070510090009405/10/07 09:00:31  5-MIN KDBQ 101500Z VRB04KT 10SM CLR 24/13 A2999 1010 47 2400 VRB/04 RMK AO2
94908KDBQ DBQ20070510090509405/10/07 09:05:31  5-MIN KDBQ 101505Z 31005KT 10SM CLR 24/13 A2999 1010 47 2400 310/05 RMK AO2
94908KDBQ DBQ20070510091009405/10/07 09:10:31  5-MIN KDBQ 101510Z 31005KT 10SM CLR 24/12 A2999 1010 46 2400 310/05 RMK AO2
94908KDBQ DBQ20070510091509405/10/07 09:15:31  5-MIN KDBQ 101515Z 33006KT 10SM CLR 24/12 A2999 1010 46 2400 330/06 RMK AO2
94908KDBQ DBQ20070510092009405/10/07 09:20:31  5-MIN KDBQ 101520Z 33009KT 10SM CLR 24/12 A2999 1010 46 2300 330/09 RMK AO2
94908KDBQ DBQ20070510092511005/10/07 09:25:31  5-MIN KDBQ 101525Z 32008KT 280V350 10SM CLR 24/12 A2999 1010 44 2400 320/08 280V350 RMK AO2
94908KDBQ DBQ20070510093009405/10/07 09:30:31  5-MIN KDBQ 101530Z 33006KT 10SM CLR 24/12 A2999 1010 46 2400 320/06 RMK AO2
94908KDBQ DBQ20070510093509405/10/07 09:35:31  5-MIN KDBQ 101535Z 34005KT 10SM CLR 24/12 A2999 1010 46 2400 340/05 RMK AO2
94908KDBQ DBQ20070510094009405/10/07 09:40:31  5-MIN KDBQ 101540Z VRB05KT 10SM CLR 24/12 A3000 1010 44 2400 VRB/05 RMK AO2
94908KDBQ DBQ20070510094509405/10/07 09:45:31  5-MIN KDBQ 101545Z 32007KT 10SM CLR 24/12 A2999 1010 46 2400 320/07 RMK AO2
94908KDBQ DBQ20070510095011105/10/07 09:50:31  5-MIN KDBQ 101550Z 34007KT 10SM CLR 24/12 A2999 1010 44 2400 340/07 RMK AO2 SLP153 T02440117
94908KDBQ DBQ20070510095511105/10/07 09:55:31  5-MIN KDBQ 101555Z 34006KT 10SM CLR 24/12 A2999 1010 46 2400 340/06 RMK AO2 SLP153 T02440122
94908KDBQ DBQ20070510100009405/10/07 10:00:31  5-MIN KDBQ 101600Z 32004KT 10SM CLR 25/12 A2999 1010 44 2400 320/04 RMK AO2
94908KDBQ DBQ20070510100509405/10/07 10:05:31  5-MIN KDBQ 101605Z 34007KT 10SM CLR 25/12 A2999 1010 44 2400 340/07 RMK AO2
94908KDBQ DBQ20070510101009405/10/07 10:10:31  5-MIN KDBQ 101610Z 33006KT 10SM CLR 25/12 A2999 1010 44 2400 320/06 RMK AO2
94908KDBQ DBQ20070510101509405/10/07 10:15:31  5-MIN KDBQ 101615Z 00000KT 10SM CLR 25/12 A2999 1010 43 2400 000/00 RMK AO2
94908KDBQ DBQ20070510102009405/10/07 10:20:31  5-MIN KDBQ 101620Z 32005KT 10SM CLR 25/12 A2999 1010 44 2400 320/05 RMK AO2
94908KDBQ DBQ20070510102509405/10/07 10:25:31  5-MIN KDBQ 101625Z 33007KT 10SM CLR 26/12 A2999 1010 43 2500 330/07 RMK AO2
94908KDBQ DBQ20070510103009405/10/07 10:30:31  5-MIN KDBQ 101630Z 00000KT 10SM CLR 25/11 A2999 1020 41 2400 000/00 RMK AO2
94908KDBQ DBQ20070510103509405/10/07 10:35:31  5-MIN KDBQ 101635Z 31005KT 10SM CLR 26/12 A2999 1020 43 2500 310/05 RMK AO2
94908KDBQ DBQ20070510104009405/10/07 10:40:31  5-MIN KDBQ 101640Z 36006KT 10SM CLR 26/12 A2999 1020 41 2600 360/06 RMK AO2
94908KDBQ DBQ20070510104509405/10/07 10:45:31  5-MIN KDBQ 101645Z 34006KT 10SM CLR 26/11 A2999 1020 38 2500 340/06 RMK AO2
94908KDBQ DBQ20070510105011105/10/07 10:50:31  5-MIN KDBQ 101650Z 30006KT 10SM CLR 26/10 A2999 1020 37 2500 300/06 RMK AO2 SLP150 T02560100
94908KDBQ DBQ20070510105511105/10/07 10:55:31  5-MIN KDBQ 101655Z 29004KT 10SM CLR 26/11 A2998 1020 38 2500 290/04 RMK AO2 SLP149 T02560106
94908KDBQ DBQ20070510110009405/10/07 11:00:31  5-MIN KDBQ 101700Z VRB04KT 10SM CLR 26/12 A2998 1020 40 2600 VRB/04 RMK AO2
94908KDBQ DBQ20070510110509705/10/07 11:05:31  5-MIN KDBQ 101705Z 32006KT 10SM FEW070 26/11 A2998 1020 37 2600 320/06 RMK AO2
94908KDBQ DBQ20070510111009705/10/07 11:10:31  5-MIN KDBQ 101710Z 34006KT 10SM FEW070 25/11 A2998 1020 39 2400 340/06 RMK AO2
94908KDBQ DBQ20070510111509705/10/07 11:15:31  5-MIN KDBQ 101715Z 02004KT 10SM FEW070 26/09 A2998 1020 34 2600 020/04 RMK AO2
94908KDBQ DBQ20070510112009705/10/07 11:20:31  5-MIN KDBQ 101720Z 36006KT 10SM FEW070 26/11 A2998 1020 38 2600 360/06 RMK AO2
94908KDBQ DBQ20070510112509705/10/07 11:25:31  5-MIN KDBQ 101725Z 34003KT 10SM FEW070 26/10 A2998 1020 37 2500 340/03 RMK AO2
94908KDBQ DBQ20070510113009705/10/07 11:30:31  5-MIN KDBQ 101730Z 34005KT 10SM FEW070 26/11 A2998 1020 38 2600 330/05 RMK AO2
94908KDBQ DBQ20070510113509705/10/07 11:35:31  5-MIN KDBQ 101735Z 35008KT 10SM FEW070 26/11 A2998 1030 38 2600 350/08 RMK AO2
94908KDBQ DBQ20070510114009705/10/07 11:40:31  5-MIN KDBQ 101740Z 33008KT 10SM FEW070 26/10 A2998 1030 36 2600 320/08 RMK AO2
94908KDBQ DBQ20070510114509705/10/07 11:45:31  5-MIN KDBQ 101745Z 33004KT 10SM FEW070 26/10 A2998 1030 37 2500 330/04 RMK AO2
94908KDBQ DBQ20070510115012905/10/07 11:50:31  5-MIN KDBQ 101750Z 00000KT 10SM CLR 26/10 A2998 1030 36 2600 000/00 RMK AO2 SLP147 T02610100 10261 20150 51007
94908KDBQ DBQ20070510115512905/10/07 11:55:31  5-MIN KDBQ 101755Z 00000KT 10SM CLR 26/09 A2997 1030 34 2600 000/00 RMK AO2 SLP146 T02610094 10261 20150 58006
94908KDBQ DBQ20070510120009405/10/07 12:00:31  5-MIN KDBQ 101800Z 33008KT 10SM CLR 26/09 A2998 1030 34 2600 330/08 RMK AO2
94908KDBQ DBQ20070510120509405/10/07 12:05:31  5-MIN KDBQ 101805Z 36005KT 10SM CLR 26/10 A2997 1030 37 2500 360/05 RMK AO2
94908KDBQ DBQ20070510121009405/10/07 12:10:31  5-MIN KDBQ 101810Z 00000KT 10SM CLR 26/09 A2997 1030 34 2500 000/00 RMK AO2
94908KDBQ DBQ20070510121509405/10/07 12:15:31  5-MIN KDBQ 101815Z 00000KT 10SM CLR 26/08 A2997 1030 32 2600 000/00 RMK AO2
94908KDBQ DBQ20070510122009405/10/07 12:20:31  5-MIN KDBQ 101820Z 27003KT 10SM CLR 26/10 A2997 1030 36 2600 270/03 RMK AO2
94908KDBQ DBQ20070510122509405/10/07 12:25:31  5-MIN KDBQ 101825Z 00000KT 10SM CLR 26/09 A2997 1030 33 2600 000/00 RMK AO2
94908KDBQ DBQ20070510123009405/10/07 12:30:31  5-MIN KDBQ 101830Z 32004KT 10SM CLR 27/09 A2997 1040 33 2700 320/04 RMK AO2
94908KDBQ DBQ20070510123509405/10/07 12:35:31  5-MIN KDBQ 101835Z VRB04KT 10SM CLR 26/11 A2997 1030 37 2600 VRB/04 RMK AO2
94908KDBQ DBQ20070510124009405/10/07 12:40:31  5-MIN KDBQ 101840Z 32007KT 10SM CLR 27/11 A2997 1030 37 2700 320/07 RMK AO2
94908KDBQ DBQ20070510124509405/10/07 12:45:31  5-MIN KDBQ 101845Z 34006KT 10SM CLR 26/10 A2997 1030 36 2600 340/06 RMK AO2
94908KDBQ DBQ20070510125011105/10/07 12:50:31  5-MIN KDBQ 101850Z VRB04KT 10SM CLR 26/10 A2997 1030 36 2600 VRB/04 RMK AO2 SLP145 T02610100
94908KDBQ DBQ20070510125511105/10/07 12:55:31  5-MIN KDBQ 101855Z 34009KT 10SM CLR 27/11 A2997 1030 36 2700 340/09 RMK AO2 SLP144 T02670106
94908KDBQ DBQ20070510130009405/10/07 13:00:31  5-MIN KDBQ 101900Z 35004KT 10SM CLR 26/11 A2997 1030 37 2600 350/04 RMK AO2
94908KDBQ DBQ20070510130509405/10/07 13:05:31  5-MIN KDBQ 101905Z 34005KT 10SM CLR 27/09 A2997 1030 33 2700 340/05 RMK AO2
94908KDBQ DBQ20070510131009405/10/07 13:10:31  5-MIN KDBQ 101910Z 01006KT 10SM CLR 27/11 A2997 1040 37 2700 010/06 RMK AO2
94908KDBQ DBQ20070510131509405/10/07 13:15:31  5-MIN KDBQ 101915Z VRB03KT 10SM CLR 27/11 A2997 1030 37 2700 VRB/03 RMK AO2
94908KDBQ DBQ20070510132009405/10/07 13:20:31  5-MIN KDBQ 101920Z 02005KT 10SM CLR 27/09 A2997 1040 33 2700 020/05 RMK AO2
94908KDBQ DBQ20070510132509405/10/07 13:25:31  5-MIN KDBQ 101925Z 02004KT 10SM CLR 27/11 A2996 1040 34 2700 020/04 RMK AO2
94908KDBQ DBQ20070510133009405/10/07 13:30:31  5-MIN KDBQ 101930Z 35006KT 10SM CLR 27/10 A2996 1040 33 2700 350/06 RMK AO2
94908KDBQ DBQ20070510133509405/10/07 13:35:31  5-MIN KDBQ 101935Z 34006KT 10SM CLR 27/10 A2996 1040 33 2700 340/06 RMK AO2
94908KDBQ DBQ20070510134009405/10/07 13:40:31  5-MIN KDBQ 101940Z VRB04KT 10SM CLR 27/09 A2996 1040 32 2700 VRB/04 RMK AO2
94908KDBQ DBQ20070510134509405/10/07 13:45:31  5-MIN KDBQ 101945Z 02004KT 10SM CLR 27/11 A2996 1040 36 2700 020/04 RMK AO2
94908KDBQ DBQ20070510135011105/10/07 13:50:31  5-MIN KDBQ 101950Z 34009KT 10SM CLR 27/11 A2996 1050 36 2700 340/09 RMK AO2 SLP140 T02670106
94908KDBQ DBQ20070510135511105/10/07 13:55:31  5-MIN KDBQ 101955Z 36010KT 10SM CLR 27/11 A2995 1050 34 2700 360/10 RMK AO2 SLP140 T02720106
94908KDBQ DBQ20070510140009405/10/07 14:00:31  5-MIN KDBQ 102000Z 34008KT 10SM CLR 27/11 A2995 1050 34 2700 330/08 RMK AO2
94908KDBQ DBQ20070510140509405/10/07 14:05:31  5-MIN KDBQ 102005Z 33004KT 10SM CLR 27/10 A2995 1050 34 2700 330/04 RMK AO2
94908KDBQ DBQ20070510141010005/10/07 14:10:31  5-MIN KDBQ 102010Z 01007G14KT 10SM CLR 26/11 A2995 1050 37 2600 010/07G14 RMK AO2
94908KDBQ DBQ20070510141510005/10/07 14:15:31  5-MIN KDBQ 102015Z 35006G14KT 10SM CLR 27/09 A2995 1050 33 2700 350/06G14 RMK AO2
94908KDBQ DBQ20070510142009405/10/07 14:20:31  5-MIN KDBQ 102020Z VRB03KT 10SM CLR 27/10 A2994 1060 33 2700 VRB/03 RMK AO2
94908KDBQ DBQ20070510142509405/10/07 14:25:31  5-MIN KDBQ 102025Z 36009KT 10SM CLR 27/11 A2994 1060 36 2700 360/09 RMK AO2
94908KDBQ DBQ20070510143009405/10/07 14:30:31  5-MIN KDBQ 102030Z 36008KT 10SM CLR 27/11 A2994 1060 36 2700 360/08 RMK AO2
94908KDBQ DBQ20070510143509405/10/07 14:35:31  5-MIN KDBQ 102035Z 35008KT 10SM CLR 27/11 A2994 1060 36 2700 350/08 RMK AO2
94908KDBQ DBQ20070510144009405/10/07 14:40:31  5-MIN KDBQ 102040Z 36003KT 10SM CLR 27/11 A2994 1060 34 2700 360/03 RMK AO2
94908KDBQ DBQ20070510144509405/10/07 14:45:31  5-MIN KDBQ 102045Z 32010KT 10SM CLR 28/11 A2994 1060 33 2800 320/10 RMK AO2
94908KDBQ DBQ20070510145011705/10/07 14:50:31  5-MIN KDBQ 102050Z 32004KT 10SM CLR 27/09 A2994 1060 32 2700 310/04 RMK AO2 SLP134 T02720094 58006
94908KDBQ DBQ20070510145513305/10/07 14:55:31  5-MIN KDBQ 102055Z 34008KT 280V010 10SM CLR 28/10 A2994 1060 32 2800 340/08 280V010 RMK AO2 SLP134 T02780100 58012
94908KDBQ DBQ20070510150009405/10/07 15:00:31  5-MIN KDBQ 102100Z 34009KT 10SM CLR 27/09 A2994 1060 32 2700 340/09 RMK AO2
94908KDBQ DBQ20070510150509405/10/07 15:05:31  5-MIN KDBQ 102105Z 33010KT 10SM CLR 27/10 A2993 1070 33 2800 330/10 RMK AO2
94908KDBQ DBQ20070510151009405/10/07 15:10:31  5-MIN KDBQ 102110Z 35008KT 10SM CLR 27/09 A2993 1070 32 2800 350/08 RMK AO2
94908KDBQ DBQ20070510151509405/10/07 15:15:31  5-MIN KDBQ 102115Z VRB03KT 10SM CLR 28/09 A2993 1070 31 2800 VRB/03 RMK AO2
94908KDBQ DBQ20070510152009405/10/07 15:20:31  5-MIN KDBQ 102120Z 30009KT 10SM CLR 27/09 A2993 1070 31 2800 290/09 RMK AO2
94908KDBQ DBQ20070510152509405/10/07 15:25:31  5-MIN KDBQ 102125Z 30003KT 10SM CLR 27/09 A2993 1070 32 2700 300/03 RMK AO2
94908KDBQ DBQ20070510153009405/10/07 15:30:31  5-MIN KDBQ 102130Z 34008KT 10SM CLR 28/09 A2993 1070 30 2800 340/08 RMK AO2
94908KDBQ DBQ20070510153509405/10/07 15:35:31  5-MIN KDBQ 102135Z 34005KT 10SM CLR 27/09 A2993 1070 31 2800 340/05 RMK AO2
94908KDBQ DBQ20070510154009405/10/07 15:40:31  5-MIN KDBQ 102140Z 33008KT 10SM CLR 28/10 A2993 1070 32 2800 330/08 RMK AO2
94908KDBQ DBQ20070510154509405/10/07 15:45:31  5-MIN KDBQ 102145Z 34009KT 10SM CLR 27/09 A2993 1070 32 2800 340/09 RMK AO2
94908KDBQ DBQ20070510155011105/10/07 15:50:31  5-MIN KDBQ 102150Z 35008KT 10SM CLR 27/10 A2993 1070 33 2800 350/08 RMK AO2 SLP131 T02720100
94908KDBQ DBQ20070510155511105/10/07 15:55:31  5-MIN KDBQ 102155Z 34010KT 10SM CLR 27/09 A2993 1070 32 2800 340/10 RMK AO2 SLP131 T02720094
94908KDBQ DBQ20070510160009405/10/07 16:00:31  5-MIN KDBQ 102200Z 34006KT 10SM CLR 27/09 A2993 1070 32 2800 340/06 RMK AO2
94908KDBQ DBQ20070510160509405/10/07 16:05:31  5-MIN KDBQ 102205Z 33005KT 10SM CLR 27/10 A2992 1080 33 2800 330/05 RMK AO2
94908KDBQ DBQ20070510161009405/10/07 16:10:31  5-MIN KDBQ 102210Z VRB05KT 10SM CLR 28/11 A2992 1080 33 2800 VRB/05 RMK AO2
94908KDBQ DBQ20070510161509405/10/07 16:15:31  5-MIN KDBQ 102215Z 01005KT 10SM CLR 28/11 A2992 1080 33 2800 010/05 RMK AO2
94908KDBQ DBQ20070510162009405/10/07 16:20:31  5-MIN KDBQ 102220Z 02005KT 10SM CLR 28/11 A2992 1080 33 2800 020/05 RMK AO2
94908KDBQ DBQ20070510162509405/10/07 16:25:31  5-MIN KDBQ 102225Z 00000KT 10SM CLR 28/10 A2992 1080 32 2800 000/00 RMK AO2
94908KDBQ DBQ20070510163009405/10/07 16:30:31  5-MIN KDBQ 102230Z 01004KT 10SM CLR 28/11 A2992 1080 35 2800 010/04 RMK AO2
94908KDBQ DBQ20070510163509405/10/07 16:35:31  5-MIN KDBQ 102235Z 33005KT 10SM CLR 27/11 A2992 1080 36 2800 330/05 RMK AO2
94908KDBQ DBQ20070510164009405/10/07 16:40:31  5-MIN KDBQ 102240Z 26004KT 10SM CLR 27/11 A2992 1080 37 2700 260/04 RMK AO2
94908KDBQ DBQ20070510164509405/10/07 16:45:31  5-MIN KDBQ 102245Z 00000KT 10SM CLR 27/09 A2992 1080 33 2700 000/00 RMK AO2
94908KDBQ DBQ20070510165011105/10/07 16:50:31  5-MIN KDBQ 102250Z 30005KT 10SM CLR 27/10 A2992 1080 33 2800 300/05 RMK AO2 SLP129 T02720100
94908KDBQ DBQ20070510165511105/10/07 16:55:31  5-MIN KDBQ 102255Z 35008KT 10SM CLR 27/11 A2992 1080 36 2700 350/08 RMK AO2 SLP128 T02670106
94908KDBQ DBQ20070510170009405/10/07 17:00:31  5-MIN KDBQ 102300Z 33006KT 10SM CLR 27/11 A2992 1080 37 2700 330/06 RMK AO2
94908KDBQ DBQ20070510202510405/10/07 20:25:31  5-MIN KDBQ 110225Z AUTO 19003KT 10SM CLR 19/11 A2994 1060 58 1800 190/03 RMK AO2 TSNO
94908KDBQ DBQ20070510203010405/10/07 20:30:31  5-MIN KDBQ 110230Z AUTO 18003KT 10SM CLR 19/10 A2994 1060 54 1900 180/03 RMK AO2 TSNO
94908KDBQ DBQ20070510203510405/10/07 20:35:31  5-MIN KDBQ 110235Z AUTO 00000KT 10SM CLR 19/10 A2994 1060 56 1800 000/00 RMK AO2 TSNO
94908KDBQ DBQ20070510204010405/10/07 20:40:31  5-MIN KDBQ 110240Z AUTO 00000KT 10SM CLR 19/09 A2995 1050 54 1800 000/00 RMK AO2 TSNO
94908KDBQ DBQ20070510204510405/10/07 20:45:31  5-MIN KDBQ 110245Z AUTO 00000KT 10SM CLR 19/09 A2995 1050 54 1800 000/00 RMK AO2 TSNO
94908KDBQ DBQ20070510205013005/10/07 20:50:31  5-MIN KDBQ 110250Z AUTO 00000KT 10SM FEW090 19/09 A2995 1050 54 1800 000/00 RMK AO2 SLP137 T01890094 56008 TSNO
94908KDBQ DBQ20070510205513005/10/07 20:55:31  5-MIN KDBQ 110255Z AUTO 20003KT 10SM SCT090 19/09 A2995 1050 54 1800 200/03 RMK AO2 SLP137 T01890094 53013 TSNO
94908KDBQ DBQ20070510210010705/10/07 21:00:31  5-MIN KDBQ 110300Z AUTO 19003KT 10SM BKN090 19/09 A2996 1050 54 1800 190/03 RMK AO2 TSNO
94908KDBQ DBQ20070510210510705/10/07 21:05:31  5-MIN KDBQ 110305Z AUTO 17003KT 10SM BKN090 19/10 A2996 1050 56 1800 170/03 RMK AO2 TSNO
94908KDBQ DBQ20070510211010705/10/07 21:10:31  5-MIN KDBQ 110310Z AUTO 00000KT 10SM SCT090 19/09 A2995 1050 54 1800 000/00 RMK AO2 TSNO
94908KDBQ DBQ20070510211510705/10/07 21:15:31  5-MIN KDBQ 110315Z AUTO 19003KT 10SM SCT090 19/09 A2996 1040 54 1800 190/03 RMK AO2 TSNO
94908KDBQ DBQ20070510212010705/10/07 21:20:31  5-MIN KDBQ 110320Z AUTO 21003KT 10SM SCT090 19/09 A2996 1040 54 1800 210/03 RMK AO2 TSNO
94908KDBQ DBQ20070510212510705/10/07 21:25:31  5-MIN KDBQ 110325Z AUTO 21003KT 10SM FEW090 18/10 A2996 1050 58 1700 210/03 RMK AO2 TSNO
94908KDBQ DBQ20070510213010705/10/07 21:30:31  5-MIN KDBQ 110330Z AUTO 20003KT 10SM FEW090 18/11 A2996 1040 62 1700 190/03 RMK AO2 TSNO
94908KDBQ DBQ20070510213510705/10/07 21:35:31  5-MIN KDBQ 110335Z AUTO 19003KT 10SM FEW090 18/11 A2996 1040 60 1700 190/03 RMK AO2 TSNO
94908KDBQ DBQ20070510214010705/10/07 21:40:31  5-MIN KDBQ 110340Z AUTO 00000KT 10SM FEW090 18/10 A2996 1040 60 1700 000/00 RMK AO2 TSNO
94908KDBQ DBQ20070510214510705/10/07 21:45:31  5-MIN KDBQ 110345Z AUTO 20003KT 10SM FEW090 18/10 A2996 1040 58 1700 200/03 RMK AO2 TSNO
94908KDBQ DBQ20070510215012105/10/07 21:50:31  5-MIN KDBQ 110350Z AUTO 19003KT 10SM CLR 18/09 A2996 1040 56 1700 190/03 RMK AO2 SLP139 T01830094 TSNO
94908KDBQ DBQ20070510215512105/10/07 21:55:31  5-MIN KDBQ 110355Z AUTO 19003KT 10SM CLR 18/10 A2996 1040 58 1700 190/03 RMK AO2 SLP138 T01830100 TSNO
94908KDBQ DBQ20070510220010405/10/07 22:00:31  5-MIN KDBQ 110400Z AUTO 20003KT 10SM CLR 18/10 A2995 1050 60 1700 200/03 RMK AO2 TSNO
94908KDBQ DBQ20070510220510405/10/07 22:05:31  5-MIN KDBQ 110405Z AUTO 21003KT 10SM CLR 18/10 A2996 1040 60 1700 200/03 RMK AO2 TSNO
94908KDBQ DBQ20070510221010405/10/07 22:10:31  5-MIN KDBQ 110410Z AUTO 20003KT 10SM CLR 17/10 A2996 1040 62 1600 200/03 RMK AO2 TSNO
94908KDBQ DBQ20070510221510405/10/07 22:15:31  5-MIN KDBQ 110415Z AUTO 19003KT 10SM CLR 17/10 A2996 1050 62 1600 190/03 RMK AO2 TSNO
94908KDBQ DBQ20070510222010405/10/07 22:20:31  5-MIN KDBQ 110420Z AUTO 20003KT 10SM CLR 17/10 A2996 1050 62 1600 200/03 RMK AO2 TSNO
94908KDBQ DBQ20070510222510705/10/07 22:25:31  5-MIN KDBQ 110425Z AUTO 00000KT 10SM FEW090 17/10 A2996 1040 62 1600 000/00 RMK AO2 TSNO
94908KDBQ DBQ20070510223010705/10/07 22:30:31  5-MIN KDBQ 110430Z AUTO 20003KT 10SM FEW090 18/10 A2996 1040 58 1700 200/03 RMK AO2 TSNO
94908KDBQ DBQ20070510223510705/10/07 22:35:31  5-MIN KDBQ 110435Z AUTO 21003KT 10SM SCT090 18/10 A2996 1040 60 1600 210/03 RMK AO2 TSNO
94908KDBQ DBQ20070510224010705/10/07 22:40:31  5-MIN KDBQ 110440Z AUTO 00000KT 10SM SCT090 17/10 A2996 1040 62 1600 000/00 RMK AO2 TSNO
94908KDBQ DBQ20070510224510705/10/07 22:45:31  5-MIN KDBQ 110445Z AUTO 23003KT 10SM SCT090 17/10 A2996 1040 62 1600 230/03 RMK AO2 TSNO
94908KDBQ DBQ20070510225012405/10/07 22:50:31  5-MIN KDBQ 110450Z AUTO 23003KT 10SM SCT090 17/10 A2996 1040 62 1600 230/03 RMK AO2 SLP140 T01720100 TSNO
94908KDBQ DBQ20070510225512405/10/07 22:55:31  5-MIN KDBQ 110455Z AUTO 23003KT 10SM SCT090 17/10 A2996 1040 62 1600 230/03 RMK AO2 SLP139 T01720100 TSNO
94908KDBQ DBQ20070510230010705/10/07 23:00:31  5-MIN KDBQ 110500Z AUTO 00000KT 10SM FEW090 17/10 A2996 1040 64 1500 000/00 RMK AO2 TSNO
94908KDBQ DBQ20070510230510705/10/07 23:05:31  5-MIN KDBQ 110505Z AUTO 00000KT 10SM FEW090 17/10 A2996 1040 64 1500 000/00 RMK AO2 TSNO
94908KDBQ DBQ20070510231010705/10/07 23:10:31  5-MIN KDBQ 110510Z AUTO 23003KT 10SM FEW090 17/10 A2996 1040 62 1600 230/03 RMK AO2 TSNO
94908KDBQ DBQ20070510231510405/10/07 23:15:31  5-MIN KDBQ 110515Z AUTO 23003KT 10SM CLR 17/10 A2996 1040 62 1600 230/03 RMK AO2 TSNO
94908KDBQ DBQ20070510232010405/10/07 23:20:31  5-MIN KDBQ 110520Z AUTO 00000KT 10SM CLR 17/10 A2996 1040 64 1500 000/00 RMK AO2 TSNO
94908KDBQ DBQ20070510232510405/10/07 23:25:31  5-MIN KDBQ 110525Z AUTO 21003KT 10SM CLR 17/10 A2996 1040 64 1500 210/03 RMK AO2 TSNO
94908KDBQ DBQ20070510233010405/10/07 23:30:31  5-MIN KDBQ 110530Z AUTO 21003KT 10SM CLR 17/10 A2996 1040 64 1500 210/03 RMK AO2 TSNO
94908KDBQ DBQ20070510233510405/10/07 23:35:31  5-MIN KDBQ 110535Z AUTO 21003KT 10SM CLR 17/09 A2996 1040 60 1600 210/03 RMK AO2 TSNO
94908KDBQ DBQ20070510234010405/10/07 23:40:31  5-MIN KDBQ 110540Z AUTO 21004KT 10SM CLR 17/09 A2996 1040 60 1600 210/04 RMK AO2 TSNO
94908KDBQ DBQ20070510234510405/10/07 23:45:31  5-MIN KDBQ 110545Z AUTO 21003KT 10SM CLR 17/09 A2996 1040 62 1500 210/03 RMK AO2 TSNO
94908KDBQ DBQ20070510235014905/10/07 23:50:31  5-MIN KDBQ 110550Z AUTO 21004KT 10SM CLR 17/09 A2996 1040 60 1600 210/04 RMK AO2 SLP140 T01720094 10261 20167 402780100 53013 TSNO
94908KDBQ DBQ20070510235514905/10/07 23:55:31  5-MIN KDBQ 110555Z AUTO 21003KT 10SM CLR 17/09 A2996 1040 62 1500 210/03 RMK AO2 SLP140 T01670094 10261 20167 402780100 51003 TSNO
94908KDBQ DBQ20070511000010405/11/07 00:00:38  5-MIN KDBQ 110600Z AUTO 21004KT 10SM CLR 17/09 A2996 1040 62 1500 210/04 RMK AO2 TSNO
94908KDBQ DBQ20070511000510405/11/07 00:05:31  5-MIN KDBQ 110605Z AUTO 21005KT 10SM CLR 16/09 A2996 1040 64 1500 210/05 RMK AO2 TSNO
94908KDBQ DBQ20070511001010405/11/07 00:10:31  5-MIN KDBQ 110610Z AUTO 21005KT 10SM CLR 16/09 A2996 1040 64 1500 210/05 RMK AO2 TSNO
94908KDBQ DBQ20070511001510405/11/07 00:15:31  5-MIN KDBQ 110615Z AUTO 21004KT 10SM CLR 16/10 A2996 1040 67 1500 210/04 RMK AO2 TSNO
94908KDBQ DBQ20070511002010405/11/07 00:20:31  5-MIN KDBQ 110620Z AUTO 21005KT 10SM CLR 16/10 A2996 1040 67 1500 210/05 RMK AO2 TSNO
94908KDBQ DBQ20070511002510405/11/07 00:25:31  5-MIN KDBQ 110625Z AUTO 22004KT 10SM CLR 16/10 A2996 1040 67 1500 220/04 RMK AO2 TSNO
94908KDBQ DBQ20070511003010405/11/07 00:30:31  5-MIN KDBQ 110630Z AUTO 21004KT 10SM CLR 16/10 A2996 1040 69 1400 210/04 RMK AO2 TSNO
94908KDBQ DBQ20070511003510405/11/07 00:35:31  5-MIN KDBQ 110635Z AUTO 21004KT 10SM CLR 16/10 A2996 1050 69 1400 210/04 RMK AO2 TSNO
94908KDBQ DBQ20070511004010405/11/07 00:40:31  5-MIN KDBQ 110640Z AUTO 21005KT 10SM CLR 16/10 A2996 1050 69 1400 210/05 RMK AO2 TSNO
94908KDBQ DBQ20070511004510405/11/07 00:45:31  5-MIN KDBQ 110645Z AUTO 22004KT 10SM CLR 16/10 A2996 1050 69 1400 220/04 RMK AO2 TSNO
94908KDBQ DBQ20070511005012105/11/07 00:50:31  5-MIN KDBQ 110650Z AUTO 21004KT 10SM CLR 16/10 A2995 1050 69 1400 210/04 RMK AO2 SLP138 T01560100 TSNO
94908KDBQ DBQ20070511005512105/11/07 00:55:31  5-MIN KDBQ 110655Z AUTO 21004KT 10SM CLR 15/10 A2995 1050 72 1300 210/04 RMK AO2 SLP138 T01500100 TSNO
94908KDBQ DBQ20070511010010405/11/07 01:00:31  5-MIN KDBQ 110700Z AUTO 21005KT 10SM CLR 15/10 A2995 1050 72 1300 210/05 RMK AO2 TSNO
94908KDBQ DBQ20070511010510405/11/07 01:05:31  5-MIN KDBQ 110705Z AUTO 22005KT 10SM CLR 14/10 A2995 1050 74 1300 220/05 RMK AO2 TSNO
94908KDBQ DBQ20070511011010405/11/07 01:10:31  5-MIN KDBQ 110710Z AUTO 22006KT 10SM CLR 14/10 A2995 1050 77 1200 220/06 RMK AO2 TSNO
94908KDBQ DBQ20070511011510405/11/07 01:15:31  5-MIN KDBQ 110715Z AUTO 21004KT 10SM CLR 14/10 A2995 1050 74 1300 210/04 RMK AO2 TSNO
94908KDBQ DBQ20070511012010405/11/07 01:20:31  5-MIN KDBQ 110720Z AUTO 21004KT 10SM CLR 14/10 A2995 1050 74 1300 210/04 RMK AO2 TSNO
94908KDBQ DBQ20070511012510405/11/07 01:25:31  5-MIN KDBQ 110725Z AUTO 21004KT 10SM CLR 14/09 A2994 1060 72 1300 210/04 RMK AO2 TSNO
94908KDBQ DBQ20070511013010405/11/07 01:30:31  5-MIN KDBQ 110730Z AUTO 21005KT 10SM CLR 14/09 A2994 1060 72 1300 210/05 RMK AO2 TSNO
94908KDBQ DBQ20070511013510405/11/07 01:35:31  5-MIN KDBQ 110735Z AUTO 21005KT 10SM CLR 15/10 A2994 1060 72 1300 210/05 RMK AO2 TSNO
94908KDBQ DBQ20070511014010405/11/07 01:40:31  5-MIN KDBQ 110740Z AUTO 21005KT 10SM CLR 14/09 A2994 1060 72 1300 210/05 RMK AO2 TSNO
94908KDBQ DBQ20070511014510405/11/07 01:45:31  5-MIN KDBQ 110745Z AUTO 21005KT 10SM CLR 14/10 A2995 1050 74 1300 210/05 RMK AO2 TSNO
94908KDBQ DBQ20070511015012105/11/07 01:50:31  5-MIN KDBQ 110750Z AUTO 21005KT 10SM CLR 15/10 A2995 1050 72 1300 210/05 RMK AO2 SLP136 T01500100 TSNO
94908KDBQ DBQ20070511015512105/11/07 01:55:31  5-MIN KDBQ 110755Z AUTO 22005KT 10SM CLR 15/10 A2995 1050 72 1300 220/05 RMK AO2 SLP136 T01500100 TSNO
94908KDBQ DBQ20070511020010405/11/07 02:00:31  5-MIN KDBQ 110800Z AUTO 22005KT 10SM CLR 14/10 A2995 1050 74 1300 220/05 RMK AO2 TSNO
94908KDBQ DBQ20070511020510405/11/07 02:05:31  5-MIN KDBQ 110805Z AUTO 21003KT 10SM CLR 14/10 A2995 1050 77 1200 210/03 RMK AO2 TSNO
94908KDBQ DBQ20070511021010405/11/07 02:10:31  5-MIN KDBQ 110810Z AUTO 21004KT 10SM CLR 14/10 A2995 1050 74 1300 200/04 RMK AO2 TSNO
94908KDBQ DBQ20070511021510405/11/07 02:15:31  5-MIN KDBQ 110815Z AUTO 21003KT 10SM CLR 15/10 A2995 1050 72 1300 210/03 RMK AO2 TSNO
94908KDBQ DBQ20070511022010405/11/07 02:20:31  5-MIN KDBQ 110820Z AUTO 21003KT 10SM CLR 16/10 A2995 1050 69 1400 210/03 RMK AO2 TSNO
94908KDBQ DBQ20070511022510405/11/07 02:25:31  5-MIN KDBQ 110825Z AUTO 21003KT 10SM CLR 16/10 A2995 1050 67 1500 210/03 RMK AO2 TSNO
94908KDBQ DBQ20070511023010405/11/07 02:30:31  5-MIN KDBQ 110830Z AUTO 22005KT 10SM CLR 16/10 A2995 1050 69 1400 220/05 RMK AO2 TSNO
94908KDBQ DBQ20070511023510405/11/07 02:35:31  5-MIN KDBQ 110835Z AUTO 22005KT 10SM CLR 15/10 A2995 1050 72 1300 220/05 RMK AO2 TSNO
94908KDBQ DBQ20070511024010405/11/07 02:40:31  5-MIN KDBQ 110840Z AUTO 23005KT 10SM CLR 14/10 A2995 1050 74 1300 230/05 RMK AO2 TSNO
94908KDBQ DBQ20070511024510405/11/07 02:45:31  5-MIN KDBQ 110845Z AUTO 24003KT 10SM CLR 14/10 A2995 1050 77 1200 240/03 RMK AO2 TSNO
94908KDBQ DBQ20070511025012705/11/07 02:50:31  5-MIN KDBQ 110850Z AUTO 00000KT 10SM CLR 14/10 A2996 1050 74 1300 000/00 RMK AO2 SLP139 T01440100 51003 TSNO
94908KDBQ DBQ20070511025512705/11/07 02:55:31  5-MIN KDBQ 110855Z AUTO 21003KT 10SM CLR 15/10 A2995 1050 72 1300 210/03 RMK AO2 SLP138 T01500100 55002 TSNO
94908KDBQ DBQ20070511030010405/11/07 03:00:31  5-MIN KDBQ 110900Z AUTO 00000KT 10SM CLR 15/10 A2996 1050 72 1300 000/00 RMK AO2 TSNO
94908KDBQ DBQ20070511030510405/11/07 03:05:31  5-MIN KDBQ 110905Z AUTO 00000KT 10SM CLR 15/10 A2996 1050 72 1300 000/00 RMK AO2 TSNO
94908KDBQ DBQ20070511031010405/11/07 03:10:31  5-MIN KDBQ 110910Z AUTO 00000KT 10SM CLR 15/10 A2996 1050 72 1300 000/00 RMK AO2 TSNO
94908KDBQ DBQ20070511031510405/11/07 03:15:31  5-MIN KDBQ 110915Z AUTO 21003KT 10SM CLR 15/10 A2995 1050 72 1300 210/03 RMK AO2 TSNO
94908KDBQ DBQ20070511032010405/11/07 03:20:31  5-MIN KDBQ 110920Z AUTO 21003KT 10SM CLR 15/10 A2995 1050 72 1300 210/03 RMK AO2 TSNO
94908KDBQ DBQ20070511032510405/11/07 03:25:31  5-MIN KDBQ 110925Z AUTO 00000KT 10SM CLR 15/10 A2996 1050 72 1300 000/00 RMK AO2 TSNO
94908KDBQ DBQ20070511033010405/11/07 03:30:31  5-MIN KDBQ 110930Z AUTO 00000KT 10SM CLR 15/10 A2996 1040 72 1300 000/00 RMK AO2 TSNO
94908KDBQ DBQ20070511033510405/11/07 03:35:31  5-MIN KDBQ 110935Z AUTO 27003KT 10SM CLR 14/10 A2996 1040 74 1300 270/03 RMK AO2 TSNO
94908KDBQ DBQ20070511034010405/11/07 03:40:31  5-MIN KDBQ 110940Z AUTO 00000KT 10SM CLR 15/10 A2996 1040 72 1300 000/00 RMK AO2 TSNO
94908KDBQ DBQ20070511034510405/11/07 03:45:31  5-MIN KDBQ 110945Z AUTO 00000KT 10SM CLR 15/10 A2996 1040 72 1300 000/00 RMK AO2 TSNO
94908KDBQ DBQ20070511035012105/11/07 03:50:31  5-MIN KDBQ 110950Z AUTO 00000KT 10SM CLR 16/10 A2996 1040 67 1500 000/00 RMK AO2 SLP141 T01610100 TSNO
94908KDBQ DBQ20070511035512105/11/07 03:55:31  5-MIN KDBQ 110955Z AUTO 00000KT 10SM CLR 16/10 A2996 1040 67 1400 000/00 RMK AO2 SLP141 T01610100 TSNO
94908KDBQ DBQ20070511040010405/11/07 04:00:31  5-MIN KDBQ 111000Z AUTO 00000KT 10SM CLR 17/10 A2996 1040 64 1500 000/00 RMK AO2 TSNO
94908KDBQ DBQ20070511040510405/11/07 04:05:31  5-MIN KDBQ 111005Z AUTO 00000KT 10SM CLR 17/10 A2996 1040 64 1500 000/00 RMK AO2 TSNO
94908KDBQ DBQ20070511041010405/11/07 04:10:31  5-MIN KDBQ 111010Z AUTO 00000KT 10SM CLR 14/10 A2996 1040 74 1300 000/00 RMK AO2 TSNO
94908KDBQ DBQ20070511041510405/11/07 04:15:31  5-MIN KDBQ 111015Z AUTO 00000KT 10SM CLR 15/10 A2996 1040 72 1300 000/00 RMK AO2 TSNO
94908KDBQ DBQ20070511042010405/11/07 04:20:31  5-MIN KDBQ 111020Z AUTO 00000KT 10SM CLR 14/09 A2996 1040 72 1300 000/00 RMK AO2 TSNO
94908KDBQ DBQ20070511042510405/11/07 04:25:31  5-MIN KDBQ 111025Z AUTO 01005KT 10SM CLR 16/09 A2996 1040 67 1400 010/05 RMK AO2 TSNO
94908KDBQ DBQ20070511043010405/11/07 04:30:31  5-MIN KDBQ 111030Z AUTO 36006KT 10SM CLR 16/09 A2997 1040 64 1400 360/06 RMK AO2 TSNO
94908KDBQ DBQ20070511043510405/11/07 04:35:31  5-MIN KDBQ 111035Z AUTO 36006KT 10SM CLR 16/09 A2997 1030 64 1400 360/06 RMK AO2 TSNO
94908KDBQ DBQ20070511044010405/11/07 04:40:31  5-MIN KDBQ 111040Z AUTO 36006KT 10SM CLR 16/09 A2997 1040 64 1400 360/06 RMK AO2 TSNO
94908KDBQ DBQ20070511044510405/11/07 04:45:31  5-MIN KDBQ 111045Z AUTO 01006KT 10SM CLR 16/09 A2997 1030 67 1400 010/06 RMK AO2 TSNO
94908KDBQ DBQ20070511045012105/11/07 04:50:31  5-MIN KDBQ 111050Z AUTO 36008KT 10SM CLR 16/10 A2997 1030 67 1400 360/08 RMK AO2 SLP144 T01610100 TSNO
94908KDBQ DBQ20070511045512105/11/07 04:55:31  5-MIN KDBQ 111055Z AUTO 01007KT 10SM CLR 16/10 A2997 1030 69 1400 010/07 RMK AO2 SLP145 T01560100 TSNO
94908KDBQ DBQ20070511050009405/11/07 05:00:31  5-MIN KDBQ 111100Z 01008KT 10SM CLR 16/10 A2998 1030 67 1400 010/08 RMK AO2
94908KDBQ DBQ20070511050509405/11/07 05:05:31  5-MIN KDBQ 111105Z 01008KT 10SM CLR 16/10 A2997 1030 67 1400 010/08 RMK AO2
94908KDBQ DBQ20070511051009405/11/07 05:10:31  5-MIN KDBQ 111110Z 36009KT 10SM CLR 16/10 A2998 1020 67 1400 360/09 RMK AO2
94908KDBQ DBQ20070511051509405/11/07 05:15:31  5-MIN KDBQ 111115Z 01008KT 10SM CLR 17/10 A2998 1020 64 1500 010/08 RMK AO2
94908KDBQ DBQ20070511052009405/11/07 05:20:31  5-MIN KDBQ 111120Z 01009KT 10SM CLR 17/10 A2998 1020 64 1500 360/09 RMK AO2
94908KDBQ DBQ20070511052509405/11/07 05:25:31  5-MIN KDBQ 111125Z 01010KT 10SM CLR 17/10 A2998 1020 64 1500 010/10 RMK AO2
94908KDBQ DBQ20070511053009405/11/07 05:30:31  5-MIN KDBQ 111130Z 01009KT 10SM CLR 16/11 A2998 1020 69 1400 010/09 RMK AO2
94908KDBQ DBQ20070511053509405/11/07 05:35:31  5-MIN KDBQ 111135Z 01009KT 10SM CLR 16/11 A2998 1020 69 1400 010/09 RMK AO2
94908KDBQ DBQ20070511054009405/11/07 05:40:31  5-MIN KDBQ 111140Z 01010KT 10SM CLR 16/11 A2999 1020 69 1400 010/10 RMK AO2
94908KDBQ DBQ20070511054509405/11/07 05:45:31  5-MIN KDBQ 111145Z 01010KT 10SM CLR 16/11 A2999 1010 69 1400 010/10 RMK AO2
94908KDBQ DBQ20070511055012905/11/07 05:50:31  5-MIN KDBQ 111150Z 01010KT 10SM CLR 17/10 A2999 1010 64 1500 010/10 RMK AO2 SLP150 T01670100 10167 20139 55002
94908KDBQ DBQ20070511055512905/11/07 05:55:31  5-MIN KDBQ 111155Z 01010KT 10SM CLR 16/10 A2999 1010 67 1400 010/10 RMK AO2 SLP151 T01610100 10167 20139 53012
94908KDBQ DBQ20070511060009405/11/07 06:00:31  5-MIN KDBQ 111200Z 01011KT 10SM CLR 17/10 A3000 1010 64 1500 010/11 RMK AO2
94908KDBQ DBQ20070511060509405/11/07 06:05:31  5-MIN KDBQ 111205Z 01011KT 10SM CLR 16/11 A3000 1010 69 1400 010/11 RMK AO2
94908KDBQ DBQ20070511061009405/11/07 06:10:31  5-MIN KDBQ 111210Z 01010KT 10SM CLR 16/11 A3000 1010 69 1400 010/10 RMK AO2
94908KDBQ DBQ20070511061509405/11/07 06:15:31  5-MIN KDBQ 111215Z 01010KT 10SM CLR 17/11 A3000 1010 67 1500 010/10 RMK AO2
94908KDBQ DBQ20070511062009405/11/07 06:20:31  5-MIN KDBQ 111220Z 01011KT 10SM CLR 17/11 A3000 1000 67 1500 010/11 RMK AO2
94908KDBQ DBQ20070511062509405/11/07 06:25:31  5-MIN KDBQ 111225Z 01011KT 10SM CLR 17/11 A3000 1000 67 1500 010/11 RMK AO2
94908KDBQ DBQ20070511063009405/11/07 06:30:31  5-MIN KDBQ 111230Z 01010KT 10SM CLR 18/11 A3001 1000 64 1600 010/10 RMK AO2
94908KDBQ DBQ20070511063509405/11/07 06:35:31  5-MIN KDBQ 111235Z 01011KT 10SM CLR 18/11 A3000 1000 64 1600 010/11 RMK AO2
94908KDBQ DBQ20070511064009405/11/07 06:40:31  5-MIN KDBQ 111240Z 02013KT 10SM CLR 18/11 A3001 1000 64 1600 020/13 RMK AO2
94908KDBQ DBQ20070511064509405/11/07 06:45:31  5-MIN KDBQ 111245Z 02014KT 10SM CLR 18/11 A3001 1000 62 1700 020/14 RMK AO2
94908KDBQ DBQ20070511065011005/11/07 06:50:31  5-MIN KDBQ 111250Z 01014KT 10SM CLR 18/11 A3001 990 62 1700 010/14 RMK AO2 SLP157 T01830111
94908KDBQ DBQ20070511065511005/11/07 06:55:31  5-MIN KDBQ 111255Z 02013KT 10SM CLR 18/11 A3001 990 62 1700 020/13 RMK AO2 SLP157 T01830111
94908KDBQ DBQ20070511070009405/11/07 07:00:31  5-MIN KDBQ 111300Z 02013KT 10SM CLR 18/11 A3001 1000 62 1700 010/13 RMK AO2
94908KDBQ DBQ20070511070509305/11/07 07:05:31  5-MIN KDBQ 111305Z 02012KT 10SM CLR 19/12 A3001 990 62 1700 020/12 RMK AO2
94908KDBQ DBQ20070511071009305/11/07 07:10:31  5-MIN KDBQ 111310Z 01012KT 10SM CLR 19/12 A3002 990 62 1700 010/12 RMK AO2
94908KDBQ DBQ20070511071509305/11/07 07:15:31  5-MIN KDBQ 111315Z 01014KT 10SM CLR 19/12 A3002 990 62 1700 010/14 RMK AO2
94908KDBQ DBQ20070511072009305/11/07 07:20:31  5-MIN KDBQ 111320Z 01014KT 10SM CLR 19/11 A3002 990 60 1700 010/14 RMK AO2
94908KDBQ DBQ20070511072509305/11/07 07:25:31  5-MIN KDBQ 111325Z 02014KT 10SM CLR 19/11 A3001 990 60 1700 020/14 RMK AO2
94908KDBQ DBQ20070511073009305/11/07 07:30:31  5-MIN KDBQ 111330Z 02014KT 10SM CLR 19/11 A3002 990 60 1700 020/14 RMK AO2
94908KDBQ DBQ20070511073509305/11/07 07:35:31  5-MIN KDBQ 111335Z 01016KT 10SM CLR 19/11 A3002 990 60 1700 010/16 RMK AO2
94908KDBQ DBQ20070511074009905/11/07 07:40:31  5-MIN KDBQ 111340Z 01012G20KT 10SM CLR 19/12 A3002 990 62 1700 010/12G20 RMK AO2
94908KDBQ DBQ20070511074509305/11/07 07:45:31  5-MIN KDBQ 111345Z 02014KT 10SM CLR 19/12 A3002 980 60 1800 020/14 RMK AO2
94908KDBQ DBQ20070511075011005/11/07 07:50:31  5-MIN KDBQ 111350Z 03015KT 10SM CLR 19/12 A3002 990 60 1800 020/15 RMK AO2 SLP160 T01940117
94908KDBQ DBQ20070511075511605/11/07 07:55:31  5-MIN KDBQ 111355Z 02011G18KT 10SM CLR 19/12 A3002 980 60 1800 020/11G18 RMK AO2 SLP163 T01940117
94908KDBQ DBQ20070511080009305/11/07 08:00:31  5-MIN KDBQ 111400Z 03013KT 10SM CLR 20/12 A3002 990 60 1800 030/13 RMK AO2
94908KDBQ DBQ20070511080509305/11/07 08:05:31  5-MIN KDBQ 111405Z 03011KT 10SM CLR 20/12 A3003 980 58 1800 030/11 RMK AO2
94908KDBQ DBQ20070511081009305/11/07 08:10:31  5-MIN KDBQ 111410Z 02011KT 10SM CLR 20/12 A3003 980 58 1800 020/11 RMK AO2
94908KDBQ DBQ20070511081509305/11/07 08:15:31  5-MIN KDBQ 111415Z 04010KT 10SM CLR 20/12 A3002 990 58 1800 040/10 RMK AO2
94908KDBQ DBQ20070511082009305/11/07 08:20:31  5-MIN KDBQ 111420Z 03009KT 10SM CLR 20/12 A3003 980 60 1800 030/09 RMK AO2
94908KDBQ DBQ20070511082509305/11/07 08:25:31  5-MIN KDBQ 111425Z 04011KT 10SM CLR 20/12 A3003 980 60 1800 040/11 RMK AO2
94908KDBQ DBQ20070511083009305/11/07 08:30:31  5-MIN KDBQ 111430Z 04009KT 10SM CLR 20/12 A3003 980 60 1800 040/09 RMK AO2
94908KDBQ DBQ20070511083509305/11/07 08:35:31  5-MIN KDBQ 111435Z 04009KT 10SM CLR 21/12 A3003 980 58 1900 040/09 RMK AO2
94908KDBQ DBQ20070511084009305/11/07 08:40:31  5-MIN KDBQ 111440Z 03008KT 10SM CLR 21/13 A3003 980 60 1900 030/08 RMK AO2
94908KDBQ DBQ20070511084509305/11/07 08:45:31  5-MIN KDBQ 111445Z 02012KT 10SM CLR 21/13 A3003 980 60 1900 020/12 RMK AO2
94908KDBQ DBQ20070511085012205/11/07 08:50:31  5-MIN KDBQ 111450Z 01012G17KT 10SM CLR 21/13 A3003 970 60 1900 010/12G17 RMK AO2 SLP166 T02060128 53012
94908KDBQ DBQ20070511085512205/11/07 08:55:31  5-MIN KDBQ 111455Z 02015G19KT 10SM CLR 21/12 A3004 970 58 1900 020/15G19 RMK AO2 SLP167 T02060122 51015
94908KDBQ DBQ20070511090009305/11/07 09:00:31  5-MIN KDBQ 111500Z 02014KT 10SM CLR 21/12 A3004 970 56 1900 020/14 RMK AO2
94908KDBQ DBQ20070511090509905/11/07 09:05:31  5-MIN KDBQ 111505Z 03011G17KT 10SM CLR 21/12 A3004 970 56 1900 030/11G17 RMK AO2
94908KDBQ DBQ20070511091009905/11/07 09:10:31  5-MIN KDBQ 111510Z 02011G17KT 10SM CLR 21/12 A3004 970 56 1900 010/11G17 RMK AO2
94908KDBQ DBQ20070511091509305/11/07 09:15:31  5-MIN KDBQ 111515Z 02013KT 10SM CLR 21/12 A3004 970 56 1900 020/13 RMK AO2
94908KDBQ DBQ20070511092009905/11/07 09:20:31  5-MIN KDBQ 111520Z 04013G18KT 10SM CLR 21/12 A3004 970 56 1900 040/13G18 RMK AO2
94908KDBQ DBQ20070511092509905/11/07 09:25:31  5-MIN KDBQ 111525Z 05015G18KT 10SM CLR 22/12 A3004 970 52 2000 050/15G18 RMK AO2
94908KDBQ DBQ20070511093009305/11/07 09:30:31  5-MIN KDBQ 111530Z 05012KT 10SM CLR 21/12 A3004 970 54 1900 050/12 RMK AO2
94908KDBQ DBQ20070511093509905/11/07 09:35:31  5-MIN KDBQ 111535Z 04011G18KT 10SM CLR 22/12 A3004 970 54 2000 040/11G18 RMK AO2
94908KDBQ DBQ20070511094009905/11/07 09:40:31  5-MIN KDBQ 111540Z 04012G17KT 10SM CLR 22/12 A3005 960 52 2000 040/12G17 RMK AO2
94908KDBQ DBQ20070511094509305/11/07 09:45:31  5-MIN KDBQ 111545Z 05011KT 10SM CLR 22/12 A3004 960 52 2000 050/11 RMK AO2
94908KDBQ DBQ20070511095011005/11/07 09:50:31  5-MIN KDBQ 111550Z 05011KT 10SM CLR 22/12 A3005 960 52 2000 050/11 RMK AO2 SLP172 T02170117
94908KDBQ DBQ20070511095511005/11/07 09:55:31  5-MIN KDBQ 111555Z 05012KT 10SM CLR 22/12 A3005 960 52 2000 050/12 RMK AO2 SLP173 T02170117
94908KDBQ DBQ20070511100009905/11/07 10:00:31  5-MIN KDBQ 111600Z 03015G19KT 10SM CLR 22/12 A3006 950 51 2100 030/15G19 RMK AO2
94908KDBQ DBQ20070511100509905/11/07 10:05:31  5-MIN KDBQ 111605Z 05011G19KT 10SM CLR 22/12 A3005 960 52 2100 050/11G19 RMK AO2
94908KDBQ DBQ20070511101009905/11/07 10:10:31  5-MIN KDBQ 111610Z 04014G18KT 10SM CLR 22/12 A3005 950 52 2100 040/14G18 RMK AO2
94908KDBQ DBQ20070511101509305/11/07 10:15:31  5-MIN KDBQ 111615Z 05012KT 10SM CLR 22/12 A3005 960 52 2100 050/12 RMK AO2
94908KDBQ DBQ20070511102009905/11/07 10:20:31  5-MIN KDBQ 111620Z 05013G18KT 10SM CLR 22/12 A3006 950 52 2100 050/13G18 RMK AO2
94908KDBQ DBQ20070511102509905/11/07 10:25:31  5-MIN KDBQ 111625Z 04012G18KT 10SM CLR 22/12 A3005 960 52 2100 040/12G18 RMK AO2
94908KDBQ DBQ20070511103009905/11/07 10:30:31  5-MIN KDBQ 111630Z 02013G19KT 10SM CLR 22/12 A3005 950 52 2100 020/13G19 RMK AO2
94908KDBQ DBQ20070511103509905/11/07 10:35:31  5-MIN KDBQ 111635Z 03011G20KT 10SM CLR 23/13 A3005 950 53 2100 030/11G20 RMK AO2
94908KDBQ DBQ20070511104009905/11/07 10:40:31  5-MIN KDBQ 111640Z 03014G20KT 10SM CLR 23/13 A3006 950 53 2100 030/14G20 RMK AO2
94908KDBQ DBQ20070511104509905/11/07 10:45:31  5-MIN KDBQ 111645Z 03012G19KT 10SM CLR 23/12 A3006 950 51 2100 030/12G19 RMK AO2
94908KDBQ DBQ20070511105011005/11/07 10:50:31  5-MIN KDBQ 111650Z 03013KT 10SM CLR 23/12 A3006 950 51 2100 030/13 RMK AO2 SLP174 T02280122
94908KDBQ DBQ20070511105511005/11/07 10:55:31  5-MIN KDBQ 111655Z 04012KT 10SM CLR 23/12 A3006 950 49 2100 030/12 RMK AO2 SLP175 T02280117
94908KDBQ DBQ20070511110009305/11/07 11:00:31  5-MIN KDBQ 111700Z 04012KT 10SM CLR 23/12 A3006 950 49 2100 040/12 RMK AO2
94908KDBQ DBQ20070511110509905/11/07 11:05:31  5-MIN KDBQ 111705Z 05013G18KT 10SM CLR 23/12 A3006 950 49 2100 050/13G18 RMK AO2
94908KDBQ DBQ20070511111009905/11/07 11:10:31  5-MIN KDBQ 111710Z 05013G18KT 10SM CLR 23/12 A3006 950 47 2200 050/13G18 RMK AO2
94908KDBQ DBQ20070511111509305/11/07 11:15:31  5-MIN KDBQ 111715Z 04012KT 10SM CLR 23/12 A3006 950 49 2100 040/12 RMK AO2
94908KDBQ DBQ20070511112009305/11/07 11:20:31  5-MIN KDBQ 111720Z 05011KT 10SM CLR 23/12 A3006 950 47 2200 050/11 RMK AO2
94908KDBQ DBQ20070511112509905/11/07 11:25:31  5-MIN KDBQ 111725Z 04012G18KT 10SM CLR 23/12 A3006 950 47 2200 040/12G18 RMK AO2
94908KDBQ DBQ20070511113009905/11/07 11:30:31  5-MIN KDBQ 111730Z 04013G18KT 10SM CLR 23/12 A3005 960 47 2200 030/13G18 RMK AO2
94908KDBQ DBQ20070511113509905/11/07 11:35:31  5-MIN KDBQ 111735Z 03013G18KT 10SM CLR 24/12 A3005 960 46 2200 030/13G18 RMK AO2
94908KDBQ DBQ20070511114009905/11/07 11:40:31  5-MIN KDBQ 111740Z 02011G20KT 10SM CLR 23/12 A3006 950 47 2200 020/11G20 RMK AO2
94908KDBQ DBQ20070511114509905/11/07 11:45:31  5-MIN KDBQ 111745Z 03012G20KT 10SM CLR 23/12 A3006 950 47 2200 020/12G20 RMK AO2
94908KDBQ DBQ20070511115013405/11/07 11:50:31  5-MIN KDBQ 111750Z 02010G19KT 10SM CLR 23/11 A3006 950 45 2200 020/10G19 RMK AO2 SLP174 T02330111 10239 20161 51015
94908KDBQ DBQ20070511115513405/11/07 11:55:31  5-MIN KDBQ 111755Z 02015G19KT 10SM CLR 23/12 A3005 950 47 2200 020/15G19 RMK AO2 SLP174 T02330117 10239 20161 50006
94908KDBQ DBQ20070511120009305/11/07 12:00:31  5-MIN KDBQ 111800Z 03014KT 10SM CLR 23/11 A3005 950 45 2200 020/14 RMK AO2
94908KDBQ DBQ20070511120509905/11/07 12:05:31  5-MIN KDBQ 111805Z 04013G20KT 10SM CLR 23/12 A3006 950 47 2200 040/13G20 RMK AO2
94908KDBQ DBQ20070511121009905/11/07 12:10:31  5-MIN KDBQ 111810Z 06011G20KT 10SM CLR 23/11 A3006 950 45 2200 060/11G20 RMK AO2
94908KDBQ DBQ20070511121509905/11/07 12:15:31  5-MIN KDBQ 111815Z 02015G18KT 10SM CLR 23/11 A3006 950 45 2200 020/15G18 RMK AO2
94908KDBQ DBQ20070511122009905/11/07 12:20:31  5-MIN KDBQ 111820Z 03012G20KT 10SM CLR 23/11 A3006 950 45 2200 020/12G20 RMK AO2
94908KDBQ DBQ20070511122509905/11/07 12:25:31  5-MIN KDBQ 111825Z 04010G20KT 10SM CLR 23/11 A3006 950 45 2200 040/10G20 RMK AO2
94908KDBQ DBQ20070511123009905/11/07 12:30:31  5-MIN KDBQ 111830Z 03010G18KT 10SM CLR 24/12 A3006 950 46 2200 030/10G18 RMK AO2
94908KDBQ DBQ20070511123509905/11/07 12:35:31  5-MIN KDBQ 111835Z 03012G18KT 10SM CLR 24/11 A3006 950 44 2200 030/12G18 RMK AO2
94908KDBQ DBQ20070511124009905/11/07 12:40:31  5-MIN KDBQ 111840Z 03013G19KT 10SM CLR 24/11 A3006 950 44 2200 030/13G19 RMK AO2
94908KDBQ DBQ20070511124509905/11/07 12:45:31  5-MIN KDBQ 111845Z 03011G19KT 10SM CLR 24/11 A3006 950 44 2200 030/11G19 RMK AO2
94908KDBQ DBQ20070511125011605/11/07 12:50:31  5-MIN KDBQ 111850Z 04014G18KT 10SM CLR 24/12 A3006 950 46 2300 040/14G18 RMK AO2 SLP176 T02440122
94908KDBQ DBQ20070511125511605/11/07 12:55:31  5-MIN KDBQ 111855Z 05011G16KT 10SM CLR 24/12 A3006 950 46 2200 050/11G16 RMK AO2 SLP175 T02390117
94908KDBQ DBQ20070511130009305/11/07 13:00:31  5-MIN KDBQ 111900Z 05010KT 10SM CLR 24/12 A3006 950 44 2300 050/10 RMK AO2
94908KDBQ DBQ20070511130509305/11/07 13:05:31  5-MIN KDBQ 111905Z 06010KT 10SM CLR 25/12 A3006 950 43 2400 060/10 RMK AO2
94908KDBQ DBQ20070511131009905/11/07 13:10:31  5-MIN KDBQ 111910Z 06012G17KT 10SM CLR 24/11 A3006 950 42 2300 060/12G17 RMK AO2
94908KDBQ DBQ20070511131509905/11/07 13:15:31  5-MIN KDBQ 111915Z 06015G22KT 10SM CLR 24/11 A3006 950 42 2300 060/15G22 RMK AO2
94908KDBQ DBQ20070511132009905/11/07 13:20:31  5-MIN KDBQ 111920Z 07011G22KT 10SM CLR 24/11 A3006 950 42 2300 070/11G22 RMK AO2
94908KDBQ DBQ20070511132509905/11/07 13:25:31  5-MIN KDBQ 111925Z 05013G18KT 10SM CLR 24/12 A3006 950 44 2300 050/13G18 RMK AO2
94908KDBQ DBQ20070511133009305/11/07 13:30:31  5-MIN KDBQ 111930Z 06013KT 10SM CLR 25/12 A3006 950 43 2400 060/13 RMK AO2
94908KDBQ DBQ20070511133509305/11/07 13:35:31  5-MIN KDBQ 111935Z 08012KT 10SM CLR 24/11 A3006 950 42 2300 070/12 RMK AO2
94908KDBQ DBQ20070511134009905/11/07 13:40:31  5-MIN KDBQ 111940Z 05012G16KT 10SM CLR 25/11 A3006 950 41 2400 050/12G16 RMK AO2
94908KDBQ DBQ20070511140009305/11/07 14:00:31  5-MIN KDBQ 112000Z 02011KT 10SM CLR 25/12 A3005 960 43 2400 020/11 RMK AO2
94908KDBQ DBQ20070511140509905/11/07 14:05:31  5-MIN KDBQ 112005Z 06014G18KT 10SM CLR 25/12 A3006 950 43 2400 060/14G18 RMK AO2
94908KDBQ DBQ20070511141009905/11/07 14:10:31  5-MIN KDBQ 112010Z 05014G18KT 10SM CLR 25/11 A3006 950 41 2400 050/14G18 RMK AO2
94908KDBQ DBQ20070511141509905/11/07 14:15:31  5-MIN KDBQ 112015Z 05013G19KT 10SM CLR 25/12 A3006 950 43 2400 050/13G19 RMK AO2
94908KDBQ DBQ20070511142009905/11/07 14:20:31  5-MIN KDBQ 112020Z 04010G19KT 10SM CLR 25/12 A3005 950 43 2400 040/10G19 RMK AO2
94908KDBQ DBQ20070511142509905/11/07 14:25:31  5-MIN KDBQ 112025Z 07012G18KT 10SM CLR 25/11 A3005 960 41 2400 070/12G18 RMK AO2
94908KDBQ DBQ20070511143009905/11/07 14:30:31  5-MIN KDBQ 112030Z 03013G20KT 10SM CLR 25/12 A3005 960 43 2400 030/13G20 RMK AO2
94908KDBQ DBQ20070511143509905/11/07 14:35:31  5-MIN KDBQ 112035Z 03012G20KT 10SM CLR 25/12 A3005 960 43 2400 030/12G20 RMK AO2
94908KDBQ DBQ20070511144009305/11/07 14:40:31  5-MIN KDBQ 112040Z 04012KT 10SM CLR 25/12 A3005 960 43 2400 040/12 RMK AO2
94908KDBQ DBQ20070511144509305/11/07 14:45:31  5-MIN KDBQ 112045Z 05011KT 10SM CLR 25/12 A3005 960 43 2400 050/11 RMK AO2
94908KDBQ DBQ20070511145011605/11/07 14:50:31  5-MIN KDBQ 112050Z 03012KT 10SM CLR 25/12 A3005 960 43 2400 030/12 RMK AO2 SLP173 T02500117 50006
94908KDBQ DBQ20070511145511605/11/07 14:55:31  5-MIN KDBQ 112055Z 04013KT 10SM CLR 25/11 A3005 960 41 2400 040/13 RMK AO2 SLP173 T02500111 58001
94908KDBQ DBQ20070511150009305/11/07 15:00:31  5-MIN KDBQ 112100Z 04014KT 10SM CLR 25/11 A3005 960 41 2400 040/14 RMK AO2
94908KDBQ DBQ20070511150509305/11/07 15:05:31  5-MIN KDBQ 112105Z 04011KT 10SM CLR 25/12 A3005 960 43 2400 040/11 RMK AO2
94908KDBQ DBQ20070511151009905/11/07 15:10:31  5-MIN KDBQ 112110Z 06011G19KT 10SM CLR 25/11 A3005 960 41 2400 060/11G19 RMK AO2
94908KDBQ DBQ20070511151509905/11/07 15:15:31  5-MIN KDBQ 112115Z 03012G19KT 10SM CLR 25/12 A3005 950 43 2400 030/12G19 RMK AO2
94908KDBQ DBQ20070511152009905/11/07 15:20:31  5-MIN KDBQ 112120Z 06014G18KT 10SM CLR 25/12 A3005 960 43 2400 050/14G18 RMK AO2
94908KDBQ DBQ20070511152509305/11/07 15:25:31  5-MIN KDBQ 112125Z 05011KT 10SM CLR 25/11 A3005 960 41 2400 050/11 RMK AO2
94908KDBQ DBQ20070511153009305/11/07 15:30:31  5-MIN KDBQ 112130Z 03011KT 10SM CLR 25/12 A3005 950 43 2400 020/11 RMK AO2
94908KDBQ DBQ20070511153509305/11/07 15:35:31  5-MIN KDBQ 112135Z 05010KT 10SM CLR 25/12 A3005 960 43 2400 050/10 RMK AO2
94908KDBQ DBQ20070511154009305/11/07 15:40:31  5-MIN KDBQ 112140Z 04011KT 10SM CLR 25/11 A3005 960 41 2400 040/11 RMK AO2
94908KDBQ DBQ20070511154509905/11/07 15:45:31  5-MIN KDBQ 112145Z 04011G18KT 10SM CLR 25/12 A3005 960 43 2400 040/11G18 RMK AO2
94908KDBQ DBQ20070511155011605/11/07 15:50:31  5-MIN KDBQ 112150Z 02015G18KT 10SM CLR 24/11 A3005 960 42 2300 020/15G18 RMK AO2 SLP171 T02440111
94908KDBQ DBQ20070511155511605/11/07 15:55:31  5-MIN KDBQ 112155Z 05011G18KT 10SM CLR 24/12 A3005 960 44 2300 050/11G18 RMK AO2 SLP172 T02440117
94908KDBQ DBQ20070511160009905/11/07 16:00:31  5-MIN KDBQ 112200Z 06013G19KT 10SM CLR 25/11 A3005 960 41 2400 060/13G19 RMK AO2
94908KDBQ DBQ20070511160509905/11/07 16:05:31  5-MIN KDBQ 112205Z 04010G19KT 10SM CLR 24/11 A3005 960 42 2300 040/10G19 RMK AO2
94908KDBQ DBQ20070511161009305/11/07 16:10:31  5-MIN KDBQ 112210Z 03010KT 10SM CLR 25/12 A3005 960 43 2400 030/10 RMK AO2
94908KDBQ DBQ20070511161509305/11/07 16:15:31  5-MIN KDBQ 112215Z 05009KT 10SM CLR 24/12 A3005 960 44 2300 050/09 RMK AO2
94908KDBQ DBQ20070511162009305/11/07 16:20:31  5-MIN KDBQ 112220Z 03012KT 10SM CLR 24/11 A3005 960 42 2300 030/12 RMK AO2
94908KDBQ DBQ20070511162509305/11/07 16:25:31  5-MIN KDBQ 112225Z 06009KT 10SM CLR 24/11 A3005 960 42 2300 060/09 RMK AO2
94908KDBQ DBQ20070511163009305/11/07 16:30:31  5-MIN KDBQ 112230Z 06008KT 10SM CLR 25/12 A3005 960 43 2400 060/08 RMK AO2
94908KDBQ DBQ20070511163509905/11/07 16:35:31  5-MIN KDBQ 112235Z 06009G15KT 10SM CLR 24/12 A3006 950 44 2300 060/09G15 RMK AO2
94908KDBQ DBQ20070511164009305/11/07 16:40:31  5-MIN KDBQ 112240Z 08011KT 10SM CLR 24/11 A3005 950 42 2300 080/11 RMK AO2
94908KDBQ DBQ20070511164509305/11/07 16:45:31  5-MIN KDBQ 112245Z 05012KT 10SM CLR 24/12 A3006 950 44 2300 050/12 RMK AO2
94908KDBQ DBQ20070511165011005/11/07 16:50:31  5-MIN KDBQ 112250Z 08013KT 10SM CLR 24/11 A3005 960 44 2200 080/13 RMK AO2 SLP173 T02390111
94908KDBQ DBQ20070511165511005/11/07 16:55:31  5-MIN KDBQ 112255Z 07011KT 10SM CLR 24/11 A3005 950 44 2200 070/11 RMK AO2 SLP174 T02390111
94908KDBQ DBQ20070511170009305/11/07 17:00:31  5-MIN KDBQ 112300Z 07009KT 10SM CLR 24/11 A3005 950 44 2200 070/09 RMK AO2
94908KDBQ DBQ20070511170509305/11/07 17:05:31  5-MIN KDBQ 112305Z 08012KT 10SM CLR 24/11 A3005 950 44 2200 080/12 RMK AO2
94908KDBQ DBQ20070511171009305/11/07 17:10:31  5-MIN KDBQ 112310Z 06011KT 10SM CLR 24/11 A3005 950 44 2200 060/11 RMK AO2
94908KDBQ DBQ20070511171509305/11/07 17:15:31  5-MIN KDBQ 112315Z 07013KT 10SM CLR 23/11 A3005 950 45 2200 070/13 RMK AO2
94908KDBQ DBQ20070511172009305/11/07 17:20:31  5-MIN KDBQ 112320Z 05011KT 10SM CLR 23/11 A3005 950 45 2200 050/11 RMK AO2
94908KDBQ DBQ20070511172509305/11/07 17:25:31  5-MIN KDBQ 112325Z 07010KT 10SM CLR 23/11 A3006 950 45 2200 070/10 RMK AO2
94908KDBQ DBQ20070511173009305/11/07 17:30:31  5-MIN KDBQ 112330Z 06009KT 10SM CLR 23/11 A3006 950 44 2200 060/09 RMK AO2
94908KDBQ DBQ20070511173509305/11/07 17:35:31  5-MIN KDBQ 112335Z 06011KT 10SM CLR 23/11 A3006 950 44 2200 060/11 RMK AO2
94908KDBQ DBQ20070511174009305/11/07 17:40:31  5-MIN KDBQ 112340Z 07009KT 10SM CLR 23/11 A3006 950 45 2100 070/09 RMK AO2
94908KDBQ DBQ20070511174509305/11/07 17:45:31  5-MIN KDBQ 112345Z 07009KT 10SM CLR 23/11 A3006 950 45 2100 070/09 RMK AO2
94908KDBQ DBQ20070511175012805/11/07 17:50:31  5-MIN KDBQ 112350Z 06011KT 10SM CLR 23/11 A3006 950 45 2100 060/11 RMK AO2 SLP176 T02280106 10250 20228 58001
94908KDBQ DBQ20070511175512805/11/07 17:55:31  5-MIN KDBQ 112355Z 06009KT 10SM CLR 23/11 A3006 950 45 2100 060/09 RMK AO2 SLP175 T02280106 10250 20228 53002
94908KDBQ DBQ20070511180009305/11/07 18:00:31  5-MIN KDBQ 120000Z 07010KT 10SM CLR 23/11 A3006 950 45 2100 070/10 RMK AO2
94908KDBQ DBQ20070511180509305/11/07 18:05:31  5-MIN KDBQ 120005Z 08011KT 10SM CLR 22/10 A3006 950 45 2000 070/11 RMK AO2
94908KDBQ DBQ20070511181009305/11/07 18:10:31  5-MIN KDBQ 120010Z 07010KT 10SM CLR 22/10 A3006 950 45 2000 070/10 RMK AO2
94908KDBQ DBQ20070511181509305/11/07 18:15:31  5-MIN KDBQ 120015Z 08011KT 10SM CLR 22/10 A3007 940 45 2000 080/11 RMK AO2
94908KDBQ DBQ20070511182009305/11/07 18:20:31  5-MIN KDBQ 120020Z 07008KT 10SM CLR 22/10 A3007 940 45 2000 070/08 RMK AO2
94908KDBQ DBQ20070511182509305/11/07 18:25:31  5-MIN KDBQ 120025Z 07008KT 10SM CLR 22/10 A3007 940 47 2000 070/08 RMK AO2
94908KDBQ DBQ20070511183009305/11/07 18:30:31  5-MIN KDBQ 120030Z 07008KT 10SM CLR 22/10 A3007 940 47 2000 070/08 RMK AO2
94908KDBQ DBQ20070511183509305/11/07 18:35:31  5-MIN KDBQ 120035Z 07009KT 10SM CLR 21/11 A3007 940 50 1900 070/09 RMK AO2
94908KDBQ DBQ20070511184010305/11/07 18:40:31  5-MIN KDBQ 120040Z AUTO 08010KT 10SM CLR 21/10 A3008 940 48 1900 080/10 RMK AO2 TSNO
94908KDBQ DBQ20070511184510305/11/07 18:45:31  5-MIN KDBQ 120045Z AUTO 07009KT 10SM CLR 21/10 A3008 930 50 1800 070/09 RMK AO2 TSNO
94908KDBQ DBQ20070511185012005/11/07 18:50:31  5-MIN KDBQ 120050Z AUTO 06008KT 10SM CLR 21/10 A3008 930 50 1800 060/08 RMK AO2 SLP183 T02060100 TSNO
94908KDBQ DBQ20070511185512005/11/07 18:55:31  5-MIN KDBQ 120055Z AUTO 06007KT 10SM CLR 20/10 A3008 930 52 1800 060/07 RMK AO2 SLP183 T02000100 TSNO
94908KDBQ DBQ20070511190010305/11/07 19:00:31  5-MIN KDBQ 120100Z AUTO 06008KT 10SM CLR 20/09 A3009 930 50 1800 060/08 RMK AO2 TSNO
94908KDBQ DBQ20070511190510305/11/07 19:05:31  5-MIN KDBQ 120105Z AUTO 06009KT 10SM CLR 20/09 A3008 930 50 1800 060/09 RMK AO2 TSNO
94908KDBQ DBQ20070511191010305/11/07 19:10:31  5-MIN KDBQ 120110Z AUTO 06008KT 10SM CLR 19/09 A3009 920 52 1700 060/08 RMK AO2 TSNO
94908KDBQ DBQ20070511191510305/11/07 19:15:31  5-MIN KDBQ 120115Z AUTO 07008KT 10SM CLR 19/09 A3009 920 50 1700 070/08 RMK AO2 TSNO
94908KDBQ DBQ20070511192010305/11/07 19:20:31  5-MIN KDBQ 120120Z AUTO 07007KT 10SM CLR 19/09 A3009 920 50 1700 070/07 RMK AO2 TSNO
94908KDBQ DBQ20070511192510305/11/07 19:25:31  5-MIN KDBQ 120125Z AUTO 07007KT 10SM CLR 19/09 A3009 920 52 1600 070/07 RMK AO2 TSNO
94908KDBQ DBQ20070511193010305/11/07 19:30:31  5-MIN KDBQ 120130Z AUTO 07007KT 10SM CLR 19/09 A3010 920 52 1600 070/07 RMK AO2 TSNO
94908KDBQ DBQ20070511193510305/11/07 19:35:31  5-MIN KDBQ 120135Z AUTO 06007KT 10SM CLR 18/09 A3009 920 54 1600 060/07 RMK AO2 TSNO
94908KDBQ DBQ20070511194010305/11/07 19:40:31  5-MIN KDBQ 120140Z AUTO 07008KT 10SM CLR 19/09 A3010 910 52 1600 070/08 RMK AO2 TSNO
94908KDBQ DBQ20070511194510305/11/07 19:45:31  5-MIN KDBQ 120145Z AUTO 06007KT 10SM CLR 19/08 A3010 910 50 1600 060/07 RMK AO2 TSNO
94908KDBQ DBQ20070511195012005/11/07 19:50:31  5-MIN KDBQ 120150Z AUTO 07009KT 10SM CLR 18/08 A3010 910 52 1600 070/09 RMK AO2 SLP191 T01830083 TSNO
94908KDBQ DBQ20070511195512005/11/07 19:55:31  5-MIN KDBQ 120155Z AUTO 07008KT 10SM CLR 18/08 A3010 910 50 1600 070/08 RMK AO2 SLP191 T01830078 TSNO
94908KDBQ DBQ20070511200010305/11/07 20:00:31  5-MIN KDBQ 120200Z AUTO 07007KT 10SM CLR 18/08 A3011 910 50 1500 060/07 RMK AO2 TSNO
94908KDBQ DBQ20070511200510305/11/07 20:05:31  5-MIN KDBQ 120205Z AUTO 06008KT 10SM CLR 18/07 A3011 910 48 1500 060/08 RMK AO2 TSNO
94908KDBQ DBQ20070511201010305/11/07 20:10:31  5-MIN KDBQ 120210Z AUTO 05006KT 10SM CLR 18/08 A3011 900 51 1500 050/06 RMK AO2 TSNO
94908KDBQ DBQ20070511201510305/11/07 20:15:31  5-MIN KDBQ 120215Z AUTO 06006KT 10SM CLR 18/08 A3012 900 51 1500 060/06 RMK AO2 TSNO
94908KDBQ DBQ20070511202010305/11/07 20:20:31  5-MIN KDBQ 120220Z AUTO 06007KT 10SM CLR 17/07 A3012 900 51 1400 060/07 RMK AO2 TSNO
94908KDBQ DBQ20070511202510305/11/07 20:25:31  5-MIN KDBQ 120225Z AUTO 07008KT 10SM CLR 18/07 A3012 900 49 1500 070/08 RMK AO2 TSNO
94908KDBQ DBQ20070511203010305/11/07 20:30:31  5-MIN KDBQ 120230Z AUTO 07008KT 10SM CLR 17/07 A3012 900 51 1400 060/08 RMK AO2 TSNO
94908KDBQ DBQ20070511203510305/11/07 20:35:31  5-MIN KDBQ 120235Z AUTO 06009KT 10SM CLR 17/07 A3012 890 51 1400 060/09 RMK AO2 TSNO
94908KDBQ DBQ20070511204010305/11/07 20:40:31  5-MIN KDBQ 120240Z AUTO 06009KT 10SM CLR 17/07 A3012 890 51 1400 060/09 RMK AO2 TSNO
94908KDBQ DBQ20070511204510305/11/07 20:45:31  5-MIN KDBQ 120245Z AUTO 06009KT 10SM CLR 17/07 A3012 890 51 1400 060/09 RMK AO2 TSNO
94908KDBQ DBQ20070511205012605/11/07 20:50:31  5-MIN KDBQ 120250Z AUTO 06009KT 10SM CLR 17/07 A3012 890 51 1400 060/09 RMK AO2 SLP198 T01720072 53002 TSNO
94908KDBQ DBQ20070511205512605/11/07 20:55:31  5-MIN KDBQ 120255Z AUTO 07008KT 10SM CLR 17/07 A3012 890 53 1300 070/08 RMK AO2 SLP198 T01670072 52022 TSNO
94908KDBQ DBQ20070511210010305/11/07 21:00:31  5-MIN KDBQ 120300Z AUTO 07010KT 10SM CLR 17/07 A3012 890 49 1400 070/10 RMK AO2 TSNO
94908KDBQ DBQ20070511210510305/11/07 21:05:31  5-MIN KDBQ 120305Z AUTO 07009KT 10SM CLR 17/07 A3012 890 51 1300 070/09 RMK AO2 TSNO
94908KDBQ DBQ20070511211010305/11/07 21:10:31  5-MIN KDBQ 120310Z AUTO 07010KT 10SM CLR 17/07 A3012 890 51 1300 070/10 RMK AO2 TSNO
94908KDBQ DBQ20070511211510305/11/07 21:15:31  5-MIN KDBQ 120315Z AUTO 05009KT 10SM CLR 17/07 A3013 890 51 1300 050/09 RMK AO2 TSNO
94908KDBQ DBQ20070511212010305/11/07 21:20:31  5-MIN KDBQ 120320Z AUTO 06010KT 10SM CLR 17/06 A3013 890 49 1300 060/10 RMK AO2 TSNO
94908KDBQ DBQ20070511212510305/11/07 21:25:31  5-MIN KDBQ 120325Z AUTO 06010KT 10SM CLR 17/06 A3013 880 49 1300 060/10 RMK AO2 TSNO
94908KDBQ DBQ20070511213010305/11/07 21:30:31  5-MIN KDBQ 120330Z AUTO 06009KT 10SM CLR 17/06 A3013 890 49 1300 060/09 RMK AO2 TSNO
94908KDBQ DBQ20070511213510305/11/07 21:35:31  5-MIN KDBQ 120335Z AUTO 05009KT 10SM CLR 16/06 A3014 880 51 1300 050/09 RMK AO2 TSNO
94908KDBQ DBQ20070511214010305/11/07 21:40:31  5-MIN KDBQ 120340Z AUTO 05008KT 10SM CLR 16/06 A3013 880 49 1300 040/08 RMK AO2 TSNO
94908KDBQ DBQ20070511214510305/11/07 21:45:31  5-MIN KDBQ 120345Z AUTO 05010KT 10SM CLR 16/06 A3014 880 49 1300 050/10 RMK AO2 TSNO
94908KDBQ DBQ20070511215012005/11/07 21:50:31  5-MIN KDBQ 120350Z AUTO 05009KT 10SM CLR 16/06 A3014 880 51 1200 050/09 RMK AO2 SLP202 T01560056 TSNO
94908KDBQ DBQ20070511215512005/11/07 21:55:31  5-MIN KDBQ 120355Z AUTO 05009KT 10SM CLR 16/05 A3014 880 49 1200 050/09 RMK AO2 SLP203 T01560050 TSNO
94908KDBQ DBQ20070511220010305/11/07 22:00:31  5-MIN KDBQ 120400Z AUTO 06009KT 10SM CLR 16/05 A3013 880 49 1200 060/09 RMK AO2 TSNO
94908KDBQ DBQ20070511220510305/11/07 22:05:31  5-MIN KDBQ 120405Z AUTO 05009KT 10SM CLR 16/05 A3014 880 49 1200 050/09 RMK AO2 TSNO
94908KDBQ DBQ20070511221010305/11/07 22:10:31  5-MIN KDBQ 120410Z AUTO 05010KT 10SM CLR 16/04 A3014 880 47 1200 050/10 RMK AO2 TSNO
94908KDBQ DBQ20070511221510305/11/07 22:15:31  5-MIN KDBQ 120415Z AUTO 06010KT 10SM CLR 16/04 A3014 880 45 1200 060/10 RMK AO2 TSNO
94908KDBQ DBQ20070511222010305/11/07 22:20:31  5-MIN KDBQ 120420Z AUTO 06008KT 10SM CLR 15/04 A3014 880 47 1100 060/08 RMK AO2 TSNO
94908KDBQ DBQ20070511222510305/11/07 22:25:31  5-MIN KDBQ 120425Z AUTO 06010KT 10SM CLR 15/04 A3014 880 47 1100 060/10 RMK AO2 TSNO
94908KDBQ DBQ20070511223010305/11/07 22:30:31  5-MIN KDBQ 120430Z AUTO 07010KT 10SM CLR 15/03 A3014 880 45 1100 070/10 RMK AO2 TSNO
94908KDBQ DBQ20070511223510305/11/07 22:35:31  5-MIN KDBQ 120435Z AUTO 06009KT 10SM CLR 15/04 A3013 880 47 1100 060/09 RMK AO2 TSNO
94908KDBQ DBQ20070511224010305/11/07 22:40:31  5-MIN KDBQ 120440Z AUTO 06011KT 10SM CLR 15/03 A3014 880 45 1100 060/11 RMK AO2 TSNO
94908KDBQ DBQ20070511224510305/11/07 22:45:31  5-MIN KDBQ 120445Z AUTO 06011KT 10SM CLR 14/03 A3013 880 47 1100 060/11 RMK AO2 TSNO
94908KDBQ DBQ20070511225012005/11/07 22:50:31  5-MIN KDBQ 120450Z AUTO 06011KT 10SM CLR 14/03 A3014 880 47 1100 060/11 RMK AO2 SLP203 T01440033 TSNO
94908KDBQ DBQ20070511225512005/11/07 22:55:31  5-MIN KDBQ 120455Z AUTO 06009KT 10SM CLR 14/03 A3014 880 48 1000 060/09 RMK AO2 SLP204 T01390033 TSNO
94908KDBQ DBQ20070511230010305/11/07 23:00:31  5-MIN KDBQ 120500Z AUTO 05010KT 10SM CLR 14/03 A3015 870 47 1000 050/10 RMK AO2 TSNO
94908KDBQ DBQ20070511230510305/11/07 23:05:31  5-MIN KDBQ 120505Z AUTO 05009KT 10SM CLR 14/03 A3014 870 48 1000 050/09 RMK AO2 TSNO
94908KDBQ DBQ20070511231010305/11/07 23:10:31  5-MIN KDBQ 120510Z AUTO 06008KT 10SM CLR 14/03 A3014 870 48 1000 060/08 RMK AO2 TSNO
94908KDBQ DBQ20070511231510305/11/07 23:15:31  5-MIN KDBQ 120515Z AUTO 06008KT 10SM CLR 14/03 A3014 870 48 1000 060/08 RMK AO2 TSNO
94908KDBQ DBQ20070511232010305/11/07 23:20:31  5-MIN KDBQ 120520Z AUTO 07010KT 10SM CLR 14/03 A3014 870 48 1000 070/10 RMK AO2 TSNO
94908KDBQ DBQ20070511232510305/11/07 23:25:31  5-MIN KDBQ 120525Z AUTO 06009KT 10SM CLR 14/03 A3015 870 47 1000 060/09 RMK AO2 TSNO
94908KDBQ DBQ20070511233010305/11/07 23:30:31  5-MIN KDBQ 120530Z AUTO 07009KT 10SM CLR 14/03 A3014 870 47 1000 060/09 RMK AO2 TSNO
94908KDBQ DBQ20070511233510205/11/07 23:35:31  5-MIN KDBQ 120535Z AUTO 06010KT 10SM CLR 13/03 A3014 870 48 900 060/10 RMK AO2 TSNO
94908KDBQ DBQ20070511234010205/11/07 23:40:31  5-MIN KDBQ 120540Z AUTO 06009KT 10SM CLR 13/03 A3014 880 48 900 060/09 RMK AO2 TSNO
94908KDBQ DBQ20070511234510205/11/07 23:45:31  5-MIN KDBQ 120545Z AUTO 06011KT 10SM CLR 13/03 A3014 880 48 900 060/11 RMK AO2 TSNO
94908KDBQ DBQ20070511235014705/11/07 23:50:31  5-MIN KDBQ 120550Z AUTO 07008KT 10SM CLR 13/03 A3014 880 48 900 070/08 RMK AO2 SLP203 T01330028 10228 20133 402500133 52022 TSNO
94908KDBQ DBQ20070511235514705/11/07 23:55:31  5-MIN KDBQ 120555Z AUTO 06008KT 10SM CLR 13/03 A3014 880 50 900 050/08 RMK AO2 SLP204 T01280028 10228 20128 402500128 51005 TSNO
94908KDBQ DBQ20070512000010205/12/07 00:00:38  5-MIN KDBQ 120600Z AUTO 05008KT 10SM CLR 13/03 A3014 870 50 900 050/08 RMK AO2 TSNO
94908KDBQ DBQ20070512000510205/12/07 00:05:31  5-MIN KDBQ 120605Z AUTO 06008KT 10SM CLR 13/03 A3014 880 50 900 050/08 RMK AO2 TSNO
94908KDBQ DBQ20070512001010205/12/07 00:10:31  5-MIN KDBQ 120610Z AUTO 05007KT 10SM CLR 12/03 A3014 870 52 800 050/07 RMK AO2 TSNO
94908KDBQ DBQ20070512001510205/12/07 00:15:31  5-MIN KDBQ 120615Z AUTO 04008KT 10SM CLR 13/03 A3015 870 50 800 040/08 RMK AO2 TSNO
94908KDBQ DBQ20070512002010205/12/07 00:20:31  5-MIN KDBQ 120620Z AUTO 04007KT 10SM CLR 12/03 A3015 870 56 700 040/07 RMK AO2 TSNO
94908KDBQ DBQ20070512002510205/12/07 00:25:31  5-MIN KDBQ 120625Z AUTO 05007KT 10SM CLR 12/03 A3015 870 56 700 050/07 RMK AO2 TSNO
94908KDBQ DBQ20070512003010205/12/07 00:30:31  5-MIN KDBQ 120630Z AUTO 04007KT 10SM CLR 12/03 A3015 870 54 700 040/07 RMK AO2 TSNO
94908KDBQ DBQ20070512003510205/12/07 00:35:31  5-MIN KDBQ 120635Z AUTO 04010KT 10SM CLR 12/03 A3015 870 54 700 040/10 RMK AO2 TSNO
94908KDBQ DBQ20070512004010205/12/07 00:40:31  5-MIN KDBQ 120640Z AUTO 04008KT 10SM CLR 12/03 A3015 860 54 700 040/08 RMK AO2 TSNO
94908KDBQ DBQ20070512004510205/12/07 00:45:31  5-MIN KDBQ 120645Z AUTO 04007KT 10SM CLR 11/03 A3015 870 58 600 040/07 RMK AO2 TSNO
94908KDBQ DBQ20070512005011905/12/07 00:50:31  5-MIN KDBQ 120650Z AUTO 05008KT 10SM CLR 11/03 A3015 870 58 600 040/08 RMK AO2 SLP207 T01110033 TSNO
94908KDBQ DBQ20070512005511905/12/07 00:55:31  5-MIN KDBQ 120655Z AUTO 05007KT 10SM CLR 11/03 A3015 870 58 600 050/07 RMK AO2 SLP207 T01110033 TSNO
94908KDBQ DBQ20070512010010205/12/07 01:00:31  5-MIN KDBQ 120700Z AUTO 05007KT 10SM CLR 11/03 A3015 870 56 600 050/07 RMK AO2 TSNO
94908KDBQ DBQ20070512010510205/12/07 01:05:31  5-MIN KDBQ 120705Z AUTO 04008KT 10SM CLR 11/03 A3015 860 56 600 040/08 RMK AO2 TSNO
94908KDBQ DBQ20070512011010205/12/07 01:10:31  5-MIN KDBQ 120710Z AUTO 04007KT 10SM CLR 11/03 A3015 870 58 600 040/07 RMK AO2 TSNO
94908KDBQ DBQ20070512011510205/12/07 01:15:31  5-MIN KDBQ 120715Z AUTO 05006KT 10SM CLR 11/03 A3015 870 58 600 050/06 RMK AO2 TSNO
94908KDBQ DBQ20070512012010205/12/07 01:20:31  5-MIN KDBQ 120720Z AUTO 04007KT 10SM CLR 11/03 A3015 870 58 600 040/07 RMK AO2 TSNO
94908KDBQ DBQ20070512012510205/12/07 01:25:31  5-MIN KDBQ 120725Z AUTO 04007KT 10SM CLR 11/03 A3015 870 58 600 040/07 RMK AO2 TSNO
94908KDBQ DBQ20070512013010205/12/07 01:30:31  5-MIN KDBQ 120730Z AUTO 04007KT 10SM CLR 10/03 A3015 870 60 500 040/07 RMK AO2 TSNO
94908KDBQ DBQ20070512013510205/12/07 01:35:31  5-MIN KDBQ 120735Z AUTO 04007KT 10SM CLR 10/03 A3015 870 60 500 040/07 RMK AO2 TSNO
94908KDBQ DBQ20070512014010205/12/07 01:40:31  5-MIN KDBQ 120740Z AUTO 04007KT 10SM CLR 10/03 A3015 870 63 500 040/07 RMK AO2 TSNO
94908KDBQ DBQ20070512014510205/12/07 01:45:31  5-MIN KDBQ 120745Z AUTO 04006KT 10SM CLR 10/03 A3015 870 63 500 040/06 RMK AO2 TSNO
94908KDBQ DBQ20070512015011905/12/07 01:50:31  5-MIN KDBQ 120750Z AUTO 04006KT 10SM CLR 09/03 A3015 870 65 400 040/06 RMK AO2 SLP209 T00940033 TSNO
94908KDBQ DBQ20070512015511905/12/07 01:55:31  5-MIN KDBQ 120755Z AUTO 05005KT 10SM CLR 09/03 A3015 870 65 400 040/05 RMK AO2 SLP208 T00940033 TSNO
94908KDBQ DBQ20070512020010205/12/07 02:00:31  5-MIN KDBQ 120800Z AUTO 06005KT 10SM CLR 09/03 A3015 870 65 400 050/05 RMK AO2 TSNO
94908KDBQ DBQ20070512020510205/12/07 02:05:31  5-MIN KDBQ 120805Z AUTO 05005KT 10SM CLR 09/03 A3015 860 63 400 050/05 RMK AO2 TSNO
94908KDBQ DBQ20070512021010205/12/07 02:10:31  5-MIN KDBQ 120810Z AUTO 04005KT 10SM CLR 09/03 A3015 860 63 400 040/05 RMK AO2 TSNO
94908KDBQ DBQ20070512021510205/12/07 02:15:31  5-MIN KDBQ 120815Z AUTO 04005KT 10SM CLR 09/03 A3015 870 68 400 040/05 RMK AO2 TSNO
94908KDBQ DBQ20070512022010205/12/07 02:20:31  5-MIN KDBQ 120820Z AUTO 04005KT 10SM CLR 09/03 A3015 870 63 400 040/05 RMK AO2 TSNO
94908KDBQ DBQ20070512022510205/12/07 02:25:31  5-MIN KDBQ 120825Z AUTO 05005KT 10SM CLR 09/03 A3015 870 65 400 050/05 RMK AO2 TSNO
94908KDBQ DBQ20070512023010205/12/07 02:30:31  5-MIN KDBQ 120830Z AUTO 04006KT 10SM CLR 09/03 A3015 870 65 400 040/06 RMK AO2 TSNO
94908KDBQ DBQ20070512023510205/12/07 02:35:31  5-MIN KDBQ 120835Z AUTO 04006KT 10SM CLR 09/03 A3015 860 68 400 040/06 RMK AO2 TSNO
94908KDBQ DBQ20070512024010205/12/07 02:40:31  5-MIN KDBQ 120840Z AUTO 03005KT 10SM CLR 09/03 A3015 860 68 400 030/05 RMK AO2 TSNO
94908KDBQ DBQ20070512024510205/12/07 02:45:31  5-MIN KDBQ 120845Z AUTO 03005KT 10SM CLR 08/03 A3015 860 70 300 030/05 RMK AO2 TSNO
94908KDBQ DBQ20070512025012505/12/07 02:50:31  5-MIN KDBQ 120850Z AUTO 04004KT 10SM CLR 08/03 A3015 860 70 300 040/04 RMK AO2 SLP209 T00830033 51005 TSNO
94908KDBQ DBQ20070512025512505/12/07 02:55:31  5-MIN KDBQ 120855Z AUTO 06003KT 10SM CLR 09/03 A3015 870 65 400 050/03 RMK AO2 SLP209 T00890028 51004 TSNO
94908KDBQ DBQ20070512030010205/12/07 03:00:31  5-MIN KDBQ 120900Z AUTO 05005KT 10SM CLR 09/03 A3015 870 63 400 050/05 RMK AO2 TSNO
94908KDBQ DBQ20070512030510205/12/07 03:05:31  5-MIN KDBQ 120905Z AUTO 05005KT 10SM CLR 08/03 A3015 870 68 300 050/05 RMK AO2 TSNO
94908KDBQ DBQ20070512031010205/12/07 03:10:31  5-MIN KDBQ 120910Z AUTO 06004KT 10SM CLR 09/03 A3015 870 65 400 060/04 RMK AO2 TSNO
94908KDBQ DBQ20070512031510205/12/07 03:15:31  5-MIN KDBQ 120915Z AUTO 06006KT 10SM CLR 09/03 A3015 860 63 400 060/06 RMK AO2 TSNO
94908KDBQ DBQ20070512032010205/12/07 03:20:31  5-MIN KDBQ 120920Z AUTO 05005KT 10SM CLR 09/03 A3015 860 65 400 050/05 RMK AO2 TSNO
94908KDBQ DBQ20070512032510205/12/07 03:25:31  5-MIN KDBQ 120925Z AUTO 04005KT 10SM CLR 09/03 A3015 860 65 400 040/05 RMK AO2 TSNO
94908KDBQ DBQ20070512033010205/12/07 03:30:31  5-MIN KDBQ 120930Z AUTO 04005KT 10SM CLR 08/03 A3016 860 68 300 040/05 RMK AO2 TSNO
94908KDBQ DBQ20070512033510205/12/07 03:35:31  5-MIN KDBQ 120935Z AUTO 04005KT 10SM CLR 08/03 A3016 860 70 300 040/05 RMK AO2 TSNO
94908KDBQ DBQ20070512034010205/12/07 03:40:31  5-MIN KDBQ 120940Z AUTO 04006KT 10SM CLR 08/03 A3016 860 73 200 040/06 RMK AO2 TSNO
94908KDBQ DBQ20070512034510205/12/07 03:45:31  5-MIN KDBQ 120945Z AUTO 04007KT 10SM CLR 08/03 A3016 860 73 200 030/07 RMK AO2 TSNO
94908KDBQ DBQ20070512035011905/12/07 03:50:31  5-MIN KDBQ 120950Z AUTO 03007KT 10SM CLR 08/03 A3016 860 73 200 030/07 RMK AO2 SLP213 T00780033 TSNO
94908KDBQ DBQ20070512035511905/12/07 03:55:31  5-MIN KDBQ 120955Z AUTO 03008KT 10SM CLR 08/03 A3016 860 70 300 030/08 RMK AO2 SLP212 T00830033 TSNO
94908KDBQ DBQ20070512040010205/12/07 04:00:31  5-MIN KDBQ 121000Z AUTO 04008KT 10SM CLR 08/03 A3016 850 68 300 040/08 RMK AO2 TSNO
94908KDBQ DBQ20070512040510205/12/07 04:05:31  5-MIN KDBQ 121005Z AUTO 04007KT 10SM CLR 08/03 A3017 850 68 300 040/07 RMK AO2 TSNO
94908KDBQ DBQ20070512041010205/12/07 04:10:31  5-MIN KDBQ 121010Z AUTO 04007KT 10SM CLR 08/03 A3017 850 68 300 040/07 RMK AO2 TSNO
94908KDBQ DBQ20070512041510205/12/07 04:15:31  5-MIN KDBQ 121015Z AUTO 04007KT 10SM CLR 08/03 A3017 850 68 300 040/07 RMK AO2 TSNO
94908KDBQ DBQ20070512042010205/12/07 04:20:31  5-MIN KDBQ 121020Z AUTO 04008KT 10SM CLR 08/03 A3017 850 68 300 040/08 RMK AO2 TSNO
94908KDBQ DBQ20070512042510205/12/07 04:25:31  5-MIN KDBQ 121025Z AUTO 04008KT 10SM CLR 08/02 A3017 850 65 300 040/08 RMK AO2 TSNO
94908KDBQ DBQ20070512043010205/12/07 04:30:31  5-MIN KDBQ 121030Z AUTO 04008KT 10SM CLR 08/02 A3017 850 65 300 040/08 RMK AO2 TSNO
94908KDBQ DBQ20070512043510205/12/07 04:35:31  5-MIN KDBQ 121035Z AUTO 04009KT 10SM CLR 08/03 A3017 850 68 300 040/09 RMK AO2 TSNO
94908KDBQ DBQ20070512044010205/12/07 04:40:31  5-MIN KDBQ 121040Z AUTO 03008KT 10SM CLR 08/03 A3017 850 68 300 030/08 RMK AO2 TSNO
94908KDBQ DBQ20070512044510205/12/07 04:45:31  5-MIN KDBQ 121045Z AUTO 04008KT 10SM CLR 08/03 A3018 840 70 200 040/08 RMK AO2 TSNO
94908KDBQ DBQ20070512045011905/12/07 04:50:31  5-MIN KDBQ 121050Z AUTO 03009KT 10SM CLR 08/03 A3018 840 68 300 030/09 RMK AO2 SLP219 T00830028 TSNO
94908KDBQ DBQ20070512045510905/12/07 04:55:31  5-MIN KDBQ 121055Z 04008KT 10SM CLR 08/02 A3018 840 68 200 030/08 RMK AO2 SLP220 T00780022
94908KDBQ DBQ20070512050009205/12/07 05:00:31  5-MIN KDBQ 121100Z 04009KT 10SM CLR 08/02 A3018 840 68 200 040/09 RMK AO2
94908KDBQ DBQ20070512050509205/12/07 05:05:31  5-MIN KDBQ 121105Z 04008KT 10SM CLR 08/02 A3018 830 68 200 040/08 RMK AO2
94908KDBQ DBQ20070512051009205/12/07 05:10:31  5-MIN KDBQ 121110Z 04008KT 10SM CLR 08/02 A3018 830 68 200 040/08 RMK AO2
94908KDBQ DBQ20070512051509205/12/07 05:15:31  5-MIN KDBQ 121115Z 04008KT 10SM CLR 08/02 A3019 830 68 200 040/08 RMK AO2
94908KDBQ DBQ20070512052009205/12/07 05:20:31  5-MIN KDBQ 121120Z 04007KT 10SM CLR 08/02 A3019 830 65 200 040/07 RMK AO2
94908KDBQ DBQ20070512052509205/12/07 05:25:31  5-MIN KDBQ 121125Z 04008KT 10SM CLR 08/02 A3019 830 68 200 040/08 RMK AO2
94908KDBQ DBQ20070512053009205/12/07 05:30:31  5-MIN KDBQ 121130Z 04008KT 10SM CLR 08/02 A3019 830 68 200 040/08 RMK AO2
94908KDBQ DBQ20070512053509205/12/07 05:35:31  5-MIN KDBQ 121135Z 04008KT 10SM CLR 08/02 A3019 830 68 200 040/08 RMK AO2
94908KDBQ DBQ20070512054009205/12/07 05:40:31  5-MIN KDBQ 121140Z 04009KT 10SM CLR 08/02 A3020 820 65 300 040/09 RMK AO2
94908KDBQ DBQ20070512054509205/12/07 05:45:31  5-MIN KDBQ 121145Z 04009KT 10SM CLR 08/02 A3020 820 65 300 040/09 RMK AO2
94908KDBQ DBQ20070512055012705/12/07 05:50:31  5-MIN KDBQ 121150Z 04008KT 10SM CLR 08/02 A3021 820 65 200 040/08 RMK AO2 SLP228 T00830022 10133 20078 51004
94908KDBQ DBQ20070512055512705/12/07 05:55:31  5-MIN KDBQ 121155Z 04011KT 10SM CLR 08/02 A3021 810 65 200 030/11 RMK AO2 SLP229 T00830022 10133 20078 53019
94908KDBQ DBQ20070512060009205/12/07 06:00:31  5-MIN KDBQ 121200Z 04012KT 10SM CLR 08/02 A3021 810 65 200 040/12 RMK AO2
94908KDBQ DBQ20070512060509205/12/07 06:05:31  5-MIN KDBQ 121205Z 04012KT 10SM CLR 09/02 A3021 820 63 300 040/12 RMK AO2
94908KDBQ DBQ20070512061009205/12/07 06:10:31  5-MIN KDBQ 121210Z 04009KT 10SM CLR 09/02 A3021 820 63 300 040/09 RMK AO2
94908KDBQ DBQ20070512061509205/12/07 06:15:31  5-MIN KDBQ 121215Z 04010KT 10SM CLR 09/02 A3021 810 63 300 040/10 RMK AO2
94908KDBQ DBQ20070512062009205/12/07 06:20:31  5-MIN KDBQ 121220Z 04011KT 10SM CLR 09/02 A3021 810 63 300 040/11 RMK AO2
94908KDBQ DBQ20070512062509205/12/07 06:25:31  5-MIN KDBQ 121225Z 04011KT 10SM CLR 09/02 A3021 810 63 300 040/11 RMK AO2
94908KDBQ DBQ20070512063009205/12/07 06:30:31  5-MIN KDBQ 121230Z 04013KT 10SM CLR 09/02 A3021 810 60 400 030/13 RMK AO2
94908KDBQ DBQ20070512063509205/12/07 06:35:31  5-MIN KDBQ 121235Z 03014KT 10SM CLR 09/02 A3022 810 58 400 030/14 RMK AO2
94908KDBQ DBQ20070512064009205/12/07 06:40:31  5-MIN KDBQ 121240Z 04014KT 10SM CLR 09/02 A3022 800 60 400 040/14 RMK AO2
94908KDBQ DBQ20070512064509205/12/07 06:45:31  5-MIN KDBQ 121245Z 04014KT 10SM CLR 09/02 A3022 810 60 400 040/14 RMK AO2
94908KDBQ DBQ20070512065010905/12/07 06:50:31  5-MIN KDBQ 121250Z 04013KT 10SM CLR 09/02 A3021 810 60 400 040/13 RMK AO2 SLP232 T00940022
94908KDBQ DBQ20070512065510905/12/07 06:55:31  5-MIN KDBQ 121255Z 04013KT 10SM CLR 10/02 A3021 810 58 400 040/13 RMK AO2 SLP231 T01000022
94908KDBQ DBQ20070512070009205/12/07 07:00:31  5-MIN KDBQ 121300Z 04013KT 10SM CLR 10/02 A3021 810 58 400 040/13 RMK AO2
94908KDBQ DBQ20070512070509205/12/07 07:05:31  5-MIN KDBQ 121305Z 05013KT 10SM CLR 10/02 A3021 810 58 400 050/13 RMK AO2
94908KDBQ DBQ20070512071009205/12/07 07:10:31  5-MIN KDBQ 121310Z 05011KT 10SM CLR 10/02 A3020 820 58 500 050/11 RMK AO2
94908KDBQ DBQ20070512071509205/12/07 07:15:31  5-MIN KDBQ 121315Z 04013KT 10SM CLR 11/03 A3021 820 58 500 040/13 RMK AO2
94908KDBQ DBQ20070512072009205/12/07 07:20:31  5-MIN KDBQ 121320Z 05010KT 10SM CLR 11/03 A3020 820 58 500 050/10 RMK AO2
94908KDBQ DBQ20070512072509205/12/07 07:25:31  5-MIN KDBQ 121325Z 04010KT 10SM CLR 11/03 A3021 810 58 500 040/10 RMK AO2
94908KDBQ DBQ20070512073009205/12/07 07:30:31  5-MIN KDBQ 121330Z 04012KT 10SM CLR 11/03 A3022 810 58 500 040/12 RMK AO2
94908KDBQ DBQ20070512073509205/12/07 07:35:31  5-MIN KDBQ 121335Z 03012KT 10SM CLR 11/03 A3022 800 56 600 030/12 RMK AO2
94908KDBQ DBQ20070512074009205/12/07 07:40:31  5-MIN KDBQ 121340Z 03012KT 10SM CLR 11/03 A3022 800 58 600 030/12 RMK AO2
94908KDBQ DBQ20070512074509205/12/07 07:45:31  5-MIN KDBQ 121345Z 03013KT 10SM CLR 11/03 A3022 800 58 600 030/13 RMK AO2
94908KDBQ DBQ20070512075010905/12/07 07:50:31  5-MIN KDBQ 121350Z 04012KT 10SM CLR 12/03 A3022 800 56 600 040/12 RMK AO2 SLP235 T01170033
94908KDBQ DBQ20070512075510905/12/07 07:55:31  5-MIN KDBQ 121355Z 05012KT 10SM CLR 12/03 A3022 800 56 600 040/12 RMK AO2 SLP235 T01170033
94908KDBQ DBQ20070512080009205/12/07 08:00:31  5-MIN KDBQ 121400Z 04011KT 10SM CLR 12/03 A3023 800 56 600 040/11 RMK AO2
94908KDBQ DBQ20070512080509205/12/07 08:05:31  5-MIN KDBQ 121405Z 04010KT 10SM CLR 12/04 A3023 790 56 700 040/10 RMK AO2
94908KDBQ DBQ20070512081009205/12/07 08:10:31  5-MIN KDBQ 121410Z 04011KT 10SM CLR 13/04 A3023 790 54 800 040/11 RMK AO2
94908KDBQ DBQ20070512081509205/12/07 08:15:31  5-MIN KDBQ 121415Z 05011KT 10SM CLR 12/03 A3023 800 54 700 040/11 RMK AO2
94908KDBQ DBQ20070512082009205/12/07 08:20:31  5-MIN KDBQ 121420Z 04013KT 10SM CLR 13/03 A3022 800 52 800 040/13 RMK AO2
94908KDBQ DBQ20070512082509205/12/07 08:25:31  5-MIN KDBQ 121425Z 04011KT 10SM CLR 13/04 A3023 800 54 800 040/11 RMK AO2
94908KDBQ DBQ20070512083009205/12/07 08:30:31  5-MIN KDBQ 121430Z 02009KT 10SM CLR 13/04 A3023 790 54 800 020/09 RMK AO2
94908KDBQ DBQ20070512083509205/12/07 08:35:31  5-MIN KDBQ 121435Z 03010KT 10SM CLR 13/04 A3023 790 54 800 030/10 RMK AO2
94908KDBQ DBQ20070512084009205/12/07 08:40:31  5-MIN KDBQ 121440Z 03008KT 10SM CLR 13/04 A3023 800 54 800 030/08 RMK AO2
94908KDBQ DBQ20070512084509205/12/07 08:45:31  5-MIN KDBQ 121445Z 03008KT 10SM CLR 13/04 A3023 790 54 800 030/08 RMK AO2
94908KDBQ DBQ20070512085011505/12/07 08:50:31  5-MIN KDBQ 121450Z 03007KT 10SM CLR 14/05 A3023 790 55 900 030/07 RMK AO2 SLP237 T01390050 53019
94908KDBQ DBQ20070512085511505/12/07 08:55:31  5-MIN KDBQ 121455Z 04008KT 10SM CLR 14/05 A3024 790 53 900 040/08 RMK AO2 SLP238 T01440050 53009
94908KDBQ DBQ20070512090009205/12/07 09:00:31  5-MIN KDBQ 121500Z 03007KT 10SM CLR 14/04 A3024 790 51 900 030/07 RMK AO2
94908KDBQ DBQ20070512090509205/12/07 09:05:31  5-MIN KDBQ 121505Z VRB06KT 10SM CLR 14/05 A3023 790 53 900 VRB/06 RMK AO2
94908KDBQ DBQ20070512091009305/12/07 09:10:31  5-MIN KDBQ 121510Z 04009KT 10SM CLR 15/05 A3023 790 51 1000 040/09 RMK AO2
94908KDBQ DBQ20070512091509305/12/07 09:15:31  5-MIN KDBQ 121515Z 06008KT 10SM CLR 15/05 A3023 790 51 1000 050/08 RMK AO2
94908KDBQ DBQ20070512092009305/12/07 09:20:31  5-MIN KDBQ 121520Z 05008KT 10SM CLR 15/05 A3024 790 51 1000 050/08 RMK AO2
94908KDBQ DBQ20070512092509305/12/07 09:25:31  5-MIN KDBQ 121525Z 05009KT 10SM CLR 16/05 A3024 790 49 1100 050/09 RMK AO2
94908KDBQ DBQ20070512093009305/12/07 09:30:31  5-MIN KDBQ 121530Z 05007KT 10SM CLR 16/05 A3023 790 49 1100 050/07 RMK AO2
94908KDBQ DBQ20070512093509305/12/07 09:35:31  5-MIN KDBQ 121535Z 04009KT 10SM CLR 16/06 A3023 800 51 1100 040/09 RMK AO2
94908KDBQ DBQ20070512094009305/12/07 09:40:31  5-MIN KDBQ 121540Z 03005KT 10SM CLR 16/06 A3023 790 49 1200 030/05 RMK AO2
94908KDBQ DBQ20070512094509305/12/07 09:45:31  5-MIN KDBQ 121545Z 02007KT 10SM CLR 16/06 A3023 790 49 1100 020/07 RMK AO2
94908KDBQ DBQ20070512095011005/12/07 09:50:31  5-MIN KDBQ 121550Z 04007KT 10SM CLR 16/06 A3023 790 49 1100 040/07 RMK AO2 SLP238 T01610056
94908KDBQ DBQ20070512095511005/12/07 09:55:31  5-MIN KDBQ 121555Z 06008KT 10SM CLR 17/06 A3023 790 47 1200 060/08 RMK AO2 SLP237 T01670056
94908KDBQ DBQ20070512100009305/12/07 10:00:31  5-MIN KDBQ 121600Z 03006KT 10SM CLR 17/06 A3023 790 47 1200 030/06 RMK AO2
94908KDBQ DBQ20070512100509305/12/07 10:05:31  5-MIN KDBQ 121605Z 05006KT 10SM CLR 17/06 A3023 790 47 1200 050/06 RMK AO2
94908KDBQ DBQ20070512101009305/12/07 10:10:31  5-MIN KDBQ 121610Z 06004KT 10SM CLR 17/06 A3023 790 47 1200 060/04 RMK AO2
94908KDBQ DBQ20070512101509305/12/07 10:15:31  5-MIN KDBQ 121615Z 05006KT 10SM CLR 17/06 A3023 790 46 1300 050/06 RMK AO2
94908KDBQ DBQ20070512102009305/12/07 10:20:31  5-MIN KDBQ 121620Z 05009KT 10SM CLR 17/06 A3023 800 46 1300 050/09 RMK AO2
94908KDBQ DBQ20070512102509305/12/07 10:25:31  5-MIN KDBQ 121625Z 04008KT 10SM CLR 18/06 A3023 800 44 1300 040/08 RMK AO2
94908KDBQ DBQ20070512103009305/12/07 10:30:31  5-MIN KDBQ 121630Z 05008KT 10SM CLR 18/06 A3023 800 44 1300 050/08 RMK AO2
94908KDBQ DBQ20070512103509305/12/07 10:35:31  5-MIN KDBQ 121635Z 06007KT 10SM CLR 18/06 A3023 790 44 1300 060/07 RMK AO2
94908KDBQ DBQ20070512104009305/12/07 10:40:31  5-MIN KDBQ 121640Z 06008KT 10SM CLR 18/07 A3023 790 46 1400 060/08 RMK AO2
94908KDBQ DBQ20070512104509305/12/07 10:45:31  5-MIN KDBQ 121645Z 04008KT 10SM CLR 18/07 A3023 790 46 1400 030/08 RMK AO2
94908KDBQ DBQ20070512105011005/12/07 10:50:31  5-MIN KDBQ 121650Z 04009KT 10SM CLR 19/07 A3023 790 44 1500 040/09 RMK AO2 SLP235 T01890067
94908KDBQ DBQ20070512105511005/12/07 10:55:31  5-MIN KDBQ 121655Z 03008KT 10SM CLR 19/06 A3023 800 43 1500 030/08 RMK AO2 SLP234 T01890061
94908KDBQ DBQ20070512110009305/12/07 11:00:31  5-MIN KDBQ 121700Z 05009KT 10SM CLR 19/06 A3022 800 43 1500 050/09 RMK AO2
94908KDBQ DBQ20070512110509305/12/07 11:05:31  5-MIN KDBQ 121705Z 06007KT 10SM CLR 19/06 A3022 800 43 1500 060/07 RMK AO2
94908KDBQ DBQ20070512111009305/12/07 11:10:31  5-MIN KDBQ 121710Z 05008KT 10SM CLR 19/06 A3022 800 43 1500 040/08 RMK AO2
94908KDBQ DBQ20070512111509305/12/07 11:15:31  5-MIN KDBQ 121715Z 07009KT 10SM CLR 19/06 A3023 800 41 1500 060/09 RMK AO2
94908KDBQ DBQ20070512112009305/12/07 11:20:31  5-MIN KDBQ 121720Z 06007KT 10SM CLR 19/04 A3022 800 38 1500 060/07 RMK AO2
94908KDBQ DBQ20070512112509305/12/07 11:25:31  5-MIN KDBQ 121725Z 05008KT 10SM CLR 19/06 A3022 800 40 1500 050/08 RMK AO2
94908KDBQ DBQ20070512113009305/12/07 11:30:31  5-MIN KDBQ 121730Z 05010KT 10SM CLR 20/06 A3022 800 38 1600 050/10 RMK AO2
94908KDBQ DBQ20070512113509305/12/07 11:35:31  5-MIN KDBQ 121735Z 07007KT 10SM CLR 19/06 A3022 800 40 1500 070/07 RMK AO2
94908KDBQ DBQ20070512114009305/12/07 11:40:31  5-MIN KDBQ 121740Z 05007KT 10SM CLR 20/06 A3022 810 38 1600 050/07 RMK AO2
94908KDBQ DBQ20070512114509305/12/07 11:45:31  5-MIN KDBQ 121745Z 05008KT 10SM CLR 20/06 A3022 800 40 1600 050/08 RMK AO2
94908KDBQ DBQ20070512115012805/12/07 11:50:31  5-MIN KDBQ 121750Z 03007KT 10SM CLR 20/06 A3022 810 40 1600 030/07 RMK AO2 SLP231 T02000061 10200 20083 53009
94908KDBQ DBQ20070512115512805/12/07 11:55:31  5-MIN KDBQ 121755Z 03009KT 10SM CLR 21/06 A3021 810 38 1700 030/09 RMK AO2 SLP230 T02060061 10206 20083 58007
94908KDBQ DBQ20070512120009305/12/07 12:00:31  5-MIN KDBQ 121800Z 04007KT 10SM CLR 21/06 A3021 810 38 1700 040/07 RMK AO2
94908KDBQ DBQ20070512120509305/12/07 12:05:31  5-MIN KDBQ 121805Z 05008KT 10SM CLR 21/07 A3021 810 40 1700 050/08 RMK AO2
94908KDBQ DBQ20070512121009305/12/07 12:10:31  5-MIN KDBQ 121810Z 06006KT 10SM CLR 21/06 A3021 810 37 1700 060/06 RMK AO2
94908KDBQ DBQ20070512121510905/12/07 12:15:31  5-MIN KDBQ 121815Z 07008KT 020V100 10SM CLR 21/06 A3021 810 37 1800 070/08 020V100 RMK AO2
94908KDBQ DBQ20070512122009305/12/07 12:20:31  5-MIN KDBQ 121820Z 06007KT 10SM CLR 21/06 A3021 820 37 1800 060/07 RMK AO2
94908KDBQ DBQ20070512122510905/12/07 12:25:31  5-MIN KDBQ 121825Z 10007KT 070V130 10SM CLR 21/06 A3021 820 37 1800 100/07 070V130 RMK AO2
94908KDBQ DBQ20070512123009305/12/07 12:30:31  5-MIN KDBQ 121830Z 10010KT 10SM CLR 21/04 A3020 820 33 1800 100/10 RMK AO2
94908KDBQ DBQ20070512123509305/12/07 12:35:31  5-MIN KDBQ 121835Z 10008KT 10SM CLR 21/04 A3020 820 34 1700 100/08 RMK AO2
94908KDBQ DBQ20070512124009905/12/07 12:40:31  5-MIN KDBQ 121840Z 10010G15KT 10SM CLR 22/05 A3021 820 33 1800 100/10G15 RMK AO2
94908KDBQ DBQ20070515215013705/15/07 21:50:31  5-MIN KDBQ 160350Z AUTO 34010KT 10SM BKN026 BKN030 BKN060 12/08 A3000 1000 80 900 340/10 RMK AO2 SLP161 T01170083 TSNO
94908KDBQ DBQ20070515215513705/15/07 21:55:31  5-MIN KDBQ 160355Z AUTO 33011KT 10SM BKN026 BKN032 BKN060 12/08 A3000 1000 77 900 330/11 RMK AO2 SLP161 T01170078 TSNO
94908KDBQ DBQ20070515220011305/15/07 22:00:31  5-MIN KDBQ 160400Z AUTO 34011KT 10SM SCT026 BKN032 11/08 A3000 1000 80 800 340/11 RMK AO2 TSNO
94908KDBQ DBQ20070515220512005/15/07 22:05:31  5-MIN KDBQ 160405Z AUTO 34014KT 10SM SCT026 BKN032 BKN065 11/08 A3000 1000 80 800 340/14 RMK AO2 TSNO
94908KDBQ DBQ20070515221012005/15/07 22:10:31  5-MIN KDBQ 160410Z AUTO 34012KT 10SM SCT026 SCT034 BKN065 12/08 A3000 1000 77 900 340/12 RMK AO2 TSNO
94908KDBQ DBQ20070515221511905/15/07 22:15:31  5-MIN KDBQ 160415Z AUTO 34011G18KT 10SM FEW026 BKN065 12/07 A3000 1000 74 900 340/11G18 RMK AO2 TSNO
94908KDBQ DBQ20070515222011305/15/07 22:20:31  5-MIN KDBQ 160420Z AUTO 34013KT 10SM FEW028 BKN065 12/07 A3000 1000 74 900 340/13 RMK AO2 TSNO
94908KDBQ DBQ20070515222510605/15/07 22:25:31  5-MIN KDBQ 160425Z AUTO 35011KT 10SM BKN065 12/07 A3001 1000 74 900 340/11 RMK AO2 TSNO
94908KDBQ DBQ20070515223010605/15/07 22:30:31  5-MIN KDBQ 160430Z AUTO 35009KT 10SM BKN065 11/07 A3001 1000 77 800 350/09 RMK AO2 TSNO
94908KDBQ DBQ20070515223510505/15/07 22:35:31  5-MIN KDBQ 160435Z AUTO 35009KT 10SM BKN065 11/07 A3001 990 77 800 340/09 RMK AO2 TSNO
94908KDBQ DBQ20070515224010505/15/07 22:40:31  5-MIN KDBQ 160440Z AUTO 35010KT 10SM SCT065 11/07 A3001 990 77 800 340/10 RMK AO2 TSNO
94908KDBQ DBQ20070515224510505/15/07 22:45:31  5-MIN KDBQ 160445Z AUTO 34010KT 10SM SCT060 11/07 A3002 990 80 700 340/10 RMK AO2 TSNO
94908KDBQ DBQ20070515225012205/15/07 22:50:31  5-MIN KDBQ 160450Z AUTO 34011KT 10SM SCT065 11/07 A3002 990 77 800 340/11 RMK AO2 SLP165 T01110072 TSNO
94908KDBQ DBQ20070515225512205/15/07 22:55:31  5-MIN KDBQ 160455Z AUTO 34009KT 10SM FEW065 11/07 A3002 990 80 700 340/09 RMK AO2 SLP166 T01060072 TSNO
94908KDBQ DBQ20070515230010505/15/07 23:00:31  5-MIN KDBQ 160500Z AUTO 34011KT 10SM FEW060 11/07 A3002 990 80 700 340/11 RMK AO2 TSNO
94908KDBQ DBQ20070515230510505/15/07 23:05:31  5-MIN KDBQ 160505Z AUTO 34011KT 10SM FEW060 11/07 A3002 990 80 700 330/11 RMK AO2 TSNO
94908KDBQ DBQ20070515231010505/15/07 23:10:31  5-MIN KDBQ 160510Z AUTO 34009KT 10SM FEW060 11/07 A3002 990 80 700 340/09 RMK AO2 TSNO
94908KDBQ DBQ20070515231510205/15/07 23:15:31  5-MIN KDBQ 160515Z AUTO 34011KT 10SM CLR 11/07 A3002 980 80 700 340/11 RMK AO2 TSNO
94908KDBQ DBQ20070515232010205/15/07 23:20:31  5-MIN KDBQ 160520Z AUTO 34012KT 10SM CLR 11/07 A3002 980 80 700 340/12 RMK AO2 TSNO
94908KDBQ DBQ20070515232510205/15/07 23:25:31  5-MIN KDBQ 160525Z AUTO 34011KT 10SM CLR 10/07 A3003 980 83 700 340/11 RMK AO2 TSNO
94908KDBQ DBQ20070515233010205/15/07 23:30:31  5-MIN KDBQ 160530Z AUTO 34010KT 10SM CLR 10/07 A3003 980 83 700 340/10 RMK AO2 TSNO
94908KDBQ DBQ20070515233510205/15/07 23:35:31  5-MIN KDBQ 160535Z AUTO 34010KT 10SM CLR 10/07 A3003 980 83 700 340/10 RMK AO2 TSNO
94908KDBQ DBQ20070515234010205/15/07 23:40:31  5-MIN KDBQ 160540Z AUTO 34009KT 10SM CLR 10/07 A3003 980 83 600 340/09 RMK AO2 TSNO
94908KDBQ DBQ20070515234510205/15/07 23:45:31  5-MIN KDBQ 160545Z AUTO 34010KT 10SM CLR 10/07 A3003 980 83 600 340/10 RMK AO2 TSNO
94908KDBQ DBQ20070515235014705/15/07 23:50:31  5-MIN KDBQ 160550Z AUTO 35010KT 10SM CLR 10/07 A3003 970 83 600 340/10 RMK AO2 SLP172 T01000072 10139 20100 402220100 51013 TSNO
94908KDBQ DBQ20070515235514705/15/07 23:55:31  5-MIN KDBQ 160555Z AUTO 34009KT 10SM CLR 10/07 A3004 970 83 600 340/09 RMK AO2 SLP173 T01000072 10139 20100 402220100 53011 TSNO
94908KDBQ DBQ20070516000010205/16/07 00:00:38  5-MIN KDBQ 160600Z AUTO 34010KT 10SM CLR 10/07 A3004 970 83 600 340/10 RMK AO2 TSNO
94908KDBQ DBQ20070516000510205/16/07 00:05:31  5-MIN KDBQ 160605Z AUTO 34009KT 10SM CLR 10/07 A3004 970 83 600 340/09 RMK AO2 TSNO
94908KDBQ DBQ20070516001010205/16/07 00:10:31  5-MIN KDBQ 160610Z AUTO 35009KT 10SM CLR 09/07 A3004 970 86 600 340/09 RMK AO2 TSNO
94908KDBQ DBQ20070516001510205/16/07 00:15:33  5-MIN KDBQ 160615Z AUTO 35008KT 10SM CLR 09/07 A3004 970 83 600 350/08 RMK AO2 TSNO
94908KDBQ DBQ20070516002010205/16/07 00:20:31  5-MIN KDBQ 160620Z AUTO 35008KT 10SM CLR 09/07 A3004 970 83 600 340/08 RMK AO2 TSNO
94908KDBQ DBQ20070516002510205/16/07 00:25:31  5-MIN KDBQ 160625Z AUTO 34008KT 10SM CLR 09/07 A3004 970 83 600 340/08 RMK AO2 TSNO
94908KDBQ DBQ20070516003010205/16/07 00:30:31  5-MIN KDBQ 160630Z AUTO 35009KT 10SM CLR 09/07 A3004 970 83 600 350/09 RMK AO2 TSNO
94908KDBQ DBQ20070516003510205/16/07 00:35:31  5-MIN KDBQ 160635Z AUTO 35009KT 10SM CLR 09/07 A3004 970 83 600 350/09 RMK AO2 TSNO
94908KDBQ DBQ20070516004010205/16/07 00:40:31  5-MIN KDBQ 160640Z AUTO 35009KT 10SM CLR 09/07 A3004 970 86 500 340/09 RMK AO2 TSNO
94908KDBQ DBQ20070516004510805/16/07 00:45:31  5-MIN KDBQ 160645Z AUTO 34013G16KT 10SM CLR 09/07 A3003 970 83 600 340/13G16 RMK AO2 TSNO
94908KDBQ DBQ20070516005012505/16/07 00:50:31  5-MIN KDBQ 160650Z AUTO 35011G17KT 10SM CLR 10/06 A3003 970 77 600 350/11G17 RMK AO2 SLP172 T01000061 TSNO
94908KDBQ DBQ20070516005511905/16/07 00:55:31  5-MIN KDBQ 160655Z AUTO 35011KT 10SM CLR 09/06 A3003 980 79 600 350/11 RMK AO2 SLP172 T00940061 TSNO
94908KDBQ DBQ20070516010010505/16/07 01:00:31  5-MIN KDBQ 160700Z AUTO 34008KT 10SM FEW020 09/07 A3003 970 83 600 340/08 RMK AO2 TSNO
94908KDBQ DBQ20070516010510505/16/07 01:05:31  5-MIN KDBQ 160705Z AUTO 33007KT 10SM FEW020 09/07 A3003 980 86 500 330/07 RMK AO2 TSNO
94908KDBQ DBQ20070516011011205/16/07 01:10:31  5-MIN KDBQ 160710Z AUTO 33007KT 10SM FEW020 SCT025 09/07 A3003 970 86 500 330/07 RMK AO2 TSNO
94908KDBQ DBQ20070516011510505/16/07 01:15:31  5-MIN KDBQ 160715Z AUTO 32007KT 10SM SCT020 09/07 A3004 970 89 500 320/07 RMK AO2 TSNO
94908KDBQ DBQ20070516012010505/16/07 01:20:31  5-MIN KDBQ 160720Z AUTO 33009KT 10SM SCT020 09/07 A3004 970 86 600 330/09 RMK AO2 TSNO
94908KDBQ DBQ20070516012510505/16/07 01:25:31  5-MIN KDBQ 160725Z AUTO 34009KT 10SM SCT020 09/07 A3004 970 86 500 340/09 RMK AO2 TSNO
94908KDBQ DBQ20070516013010505/16/07 01:30:31  5-MIN KDBQ 160730Z AUTO 34010KT 10SM FEW022 09/07 A3004 970 86 500 340/10 RMK AO2 TSNO
94908KDBQ DBQ20070516013510505/16/07 01:35:31  5-MIN KDBQ 160735Z AUTO 35010KT 10SM FEW022 09/07 A3004 970 86 500 340/10 RMK AO2 TSNO
94908KDBQ DBQ20070516014010505/16/07 01:40:31  5-MIN KDBQ 160740Z AUTO 35010KT 10SM FEW022 09/07 A3004 970 86 500 350/10 RMK AO2 TSNO
94908KDBQ DBQ20070516014510205/16/07 01:45:31  5-MIN KDBQ 160745Z AUTO 35009KT 10SM CLR 09/07 A3004 970 86 500 350/09 RMK AO2 TSNO
94908KDBQ DBQ20070516015011905/16/07 01:50:31  5-MIN KDBQ 160750Z AUTO 35009KT 10SM CLR 08/07 A3004 970 89 400 350/09 RMK AO2 SLP175 T00830067 TSNO
94908KDBQ DBQ20070516015511905/16/07 01:55:31  5-MIN KDBQ 160755Z AUTO 34009KT 10SM CLR 08/07 A3004 970 89 400 340/09 RMK AO2 SLP175 T00830067 TSNO
94908KDBQ DBQ20070516020010205/16/07 02:00:31  5-MIN KDBQ 160800Z AUTO 35009KT 10SM CLR 08/06 A3004 970 86 400 350/09 RMK AO2 TSNO
94908KDBQ DBQ20070516020510205/16/07 02:05:31  5-MIN KDBQ 160805Z AUTO 36009KT 10SM CLR 08/06 A3004 970 86 400 360/09 RMK AO2 TSNO
94908KDBQ DBQ20070516021010205/16/07 02:10:31  5-MIN KDBQ 160810Z AUTO 36009KT 10SM CLR 08/06 A3004 970 82 400 360/09 RMK AO2 TSNO
94908KDBQ DBQ20070516021510205/16/07 02:15:31  5-MIN KDBQ 160815Z AUTO 36009KT 10SM CLR 08/06 A3004 960 82 400 360/09 RMK AO2 TSNO
94908KDBQ DBQ20070516022010205/16/07 02:20:31  5-MIN KDBQ 160820Z AUTO 36010KT 10SM CLR 08/05 A3004 960 79 400 360/10 RMK AO2 TSNO
94908KDBQ DBQ20070516022510205/16/07 02:25:31  5-MIN KDBQ 160825Z AUTO 36010KT 10SM CLR 08/05 A3004 960 82 400 360/10 RMK AO2 TSNO
94908KDBQ DBQ20070516023010205/16/07 02:30:31  5-MIN KDBQ 160830Z AUTO 36010KT 10SM CLR 08/05 A3004 970 82 400 360/10 RMK AO2 TSNO
94908KDBQ DBQ20070516023510205/16/07 02:35:31  5-MIN KDBQ 160835Z AUTO 36010KT 10SM CLR 08/04 A3004 960 79 400 360/10 RMK AO2 TSNO
94908KDBQ DBQ20070516024010205/16/07 02:40:31  5-MIN KDBQ 160840Z AUTO 36010KT 10SM CLR 08/04 A3004 960 79 400 360/10 RMK AO2 TSNO
94908KDBQ DBQ20070516024510205/16/07 02:45:31  5-MIN KDBQ 160845Z AUTO 36009KT 10SM CLR 07/04 A3005 960 82 300 360/09 RMK AO2 TSNO
94908KDBQ DBQ20070516025012505/16/07 02:50:31  5-MIN KDBQ 160850Z AUTO 36008KT 10SM CLR 07/04 A3005 960 82 300 360/08 RMK AO2 SLP177 T00720044 53011 TSNO
94908KDBQ DBQ20070516025512505/16/07 02:55:31  5-MIN KDBQ 160855Z AUTO 36008KT 10SM CLR 07/04 A3005 960 82 300 350/08 RMK AO2 SLP178 T00720044 53004 TSNO
94908KDBQ DBQ20070516030010205/16/07 03:00:31  5-MIN KDBQ 160900Z AUTO 36007KT 10SM CLR 07/04 A3005 960 86 200 350/07 RMK AO2 TSNO
94908KDBQ DBQ20070516030510205/16/07 03:05:31  5-MIN KDBQ 160905Z AUTO 35007KT 10SM CLR 07/04 A3005 960 86 200 350/07 RMK AO2 TSNO
94908KDBQ DBQ20070516031010205/16/07 03:10:31  5-MIN KDBQ 160910Z AUTO 35007KT 10SM CLR 07/04 A3005 960 86 200 350/07 RMK AO2 TSNO
94908KDBQ DBQ20070516031510205/16/07 03:15:31  5-MIN KDBQ 160915Z AUTO 35008KT 10SM CLR 07/04 A3005 960 86 200 350/08 RMK AO2 TSNO
94908KDBQ DBQ20070516032010205/16/07 03:20:31  5-MIN KDBQ 160920Z AUTO 35007KT 10SM CLR 07/04 A3005 960 86 200 350/07 RMK AO2 TSNO
94908KDBQ DBQ20070516032510205/16/07 03:25:31  5-MIN KDBQ 160925Z AUTO 35007KT 10SM CLR 06/04 A3005 960 89 200 350/07 RMK AO2 TSNO
94908KDBQ DBQ20070516033010205/16/07 03:30:31  5-MIN KDBQ 160930Z AUTO 34007KT 10SM CLR 06/04 A3006 950 89 200 340/07 RMK AO2 TSNO
94908KDBQ DBQ20070516033510205/16/07 03:35:31  5-MIN KDBQ 160935Z AUTO 34008KT 10SM CLR 07/04 A3006 950 86 200 340/08 RMK AO2 TSNO
94908KDBQ DBQ20070516034010205/16/07 03:40:31  5-MIN KDBQ 160940Z AUTO 34008KT 10SM CLR 07/04 A3006 950 86 200 340/08 RMK AO2 TSNO
94908KDBQ DBQ20070516034510205/16/07 03:45:31  5-MIN KDBQ 160945Z AUTO 34008KT 10SM CLR 07/04 A3006 950 86 200 340/08 RMK AO2 TSNO
94908KDBQ DBQ20070516035011905/16/07 03:50:31  5-MIN KDBQ 160950Z AUTO 35009KT 10SM CLR 07/04 A3006 950 86 200 350/09 RMK AO2 SLP183 T00670044 TSNO
94908KDBQ DBQ20070516035511905/16/07 03:55:31  5-MIN KDBQ 160955Z AUTO 35009KT 10SM CLR 07/04 A3006 950 86 200 350/09 RMK AO2 SLP183 T00670044 TSNO
94908KDBQ DBQ20070516040010205/16/07 04:00:31  5-MIN KDBQ 161000Z AUTO 35007KT 10SM CLR 06/04 A3006 950 86 100 350/07 RMK AO2 TSNO
94908KDBQ DBQ20070516040510205/16/07 04:05:31  5-MIN KDBQ 161005Z AUTO 35006KT 10SM CLR 06/04 A3006 950 86 100 350/06 RMK AO2 TSNO
94908KDBQ DBQ20070516041010205/16/07 04:10:31  5-MIN KDBQ 161010Z AUTO 35006KT 10SM CLR 06/04 A3006 950 86 100 350/06 RMK AO2 TSNO
94908KDBQ DBQ20070516041510205/16/07 04:15:31  5-MIN KDBQ 161015Z AUTO 34007KT 10SM CLR 06/04 A3007 940 86 100 340/07 RMK AO2 TSNO
94908KDBQ DBQ20070516042010205/16/07 04:20:31  5-MIN KDBQ 161020Z AUTO 34007KT 10SM CLR 06/04 A3007 940 86 100 340/07 RMK AO2 TSNO
94908KDBQ DBQ20070516042510205/16/07 04:25:31  5-MIN KDBQ 161025Z AUTO 34007KT 10SM CLR 06/04 A3007 940 86 100 340/07 RMK AO2 TSNO
94908KDBQ DBQ20070516043010205/16/07 04:30:31  5-MIN KDBQ 161030Z AUTO 34008KT 10SM CLR 06/04 A3008 930 86 100 340/08 RMK AO2 TSNO
94908KDBQ DBQ20070516043510205/16/07 04:35:31  5-MIN KDBQ 161035Z AUTO 34007KT 10SM CLR 06/04 A3008 930 89 100 340/07 RMK AO2 TSNO
94908KDBQ DBQ20070516044009205/16/07 04:40:31  5-MIN KDBQ 161040Z 34006KT 10SM CLR 06/04 A3008 930 86 100 340/06 RMK AO2
94908KDBQ DBQ20070516044509205/16/07 04:45:31  5-MIN KDBQ 161045Z 34006KT 10SM CLR 06/04 A3008 930 86 100 340/06 RMK AO2
94908KDBQ DBQ20070516045010905/16/07 04:50:31  5-MIN KDBQ 161050Z 34008KT 10SM CLR 06/04 A3008 930 86 100 340/08 RMK AO2 SLP190 T00610039
94908KDBQ DBQ20070516045510905/16/07 04:55:31  5-MIN KDBQ 161055Z 34008KT 10SM CLR 07/04 A3008 930 82 200 340/08 RMK AO2 SLP191 T00670039
94908KDBQ DBQ20070516050009205/16/07 05:00:31  5-MIN KDBQ 161100Z 34008KT 10SM CLR 07/04 A3008 930 82 200 340/08 RMK AO2
94908KDBQ DBQ20070516050509205/16/07 05:05:31  5-MIN KDBQ 161105Z 34007KT 10SM CLR 06/04 A3009 930 86 100 340/07 RMK AO2
94908KDBQ DBQ20070516051009205/16/07 05:10:31  5-MIN KDBQ 161110Z 34007KT 10SM CLR 06/04 A3009 920 86 100 340/07 RMK AO2
94908KDBQ DBQ20070516051509205/16/07 05:15:31  5-MIN KDBQ 161115Z 35006KT 10SM CLR 06/04 A3009 930 86 100 350/06 RMK AO2
94908KDBQ DBQ20070516052009205/16/07 05:20:31  5-MIN KDBQ 161120Z 35005KT 10SM CLR 06/04 A3009 930 86 100 350/05 RMK AO2
94908KDBQ DBQ20070516052509205/16/07 05:25:31  5-MIN KDBQ 161125Z 35006KT 10SM CLR 06/04 A3009 920 86 100 340/06 RMK AO2
94908KDBQ DBQ20070516053009205/16/07 05:30:31  5-MIN KDBQ 161130Z 35005KT 10SM CLR 06/04 A3009 920 89 100 340/05 RMK AO2
94908KDBQ DBQ20070516053509205/16/07 05:35:31  5-MIN KDBQ 161135Z 34005KT 10SM CLR 07/04 A3009 920 86 200 340/05 RMK AO2
94908KDBQ DBQ20070516054009205/16/07 05:40:31  5-MIN KDBQ 161140Z 34005KT 10SM CLR 07/04 A3009 920 86 200 340/05 RMK AO2
94908KDBQ DBQ20070516054509205/16/07 05:45:31  5-MIN KDBQ 161145Z 34004KT 10SM CLR 07/05 A3010 920 89 200 340/04 RMK AO2
94908KDBQ DBQ20070516055013305/16/07 05:50:31  5-MIN KDBQ 161150Z 34004KT 10SM CLR 07/06 A3010 920 89 200 330/04 RMK AO2 SLP195 70023 T00720056 10100 20061 53004
94908KDBQ DBQ20070516055513305/16/07 05:55:31  5-MIN KDBQ 161155Z 33004KT 10SM CLR 07/06 A3010 920 89 200 330/04 RMK AO2 SLP195 70023 T00720056 10100 20061 51017
94908KDBQ DBQ20070516060009205/16/07 06:00:31  5-MIN KDBQ 161200Z 34004KT 10SM CLR 08/06 A3010 920 86 300 340/04 RMK AO2
94908KDBQ DBQ20070516060509205/16/07 06:05:31  5-MIN KDBQ 161205Z 34005KT 10SM CLR 08/06 A3010 920 86 300 340/05 RMK AO2
94908KDBQ DBQ20070516061009205/16/07 06:10:31  5-MIN KDBQ 161210Z 33006KT 10SM CLR 08/06 A3010 920 86 300 330/06 RMK AO2
94908KDBQ DBQ20070516061509205/16/07 06:15:31  5-MIN KDBQ 161215Z 33008KT 10SM CLR 08/06 A3010 920 86 300 330/08 RMK AO2
94908KDBQ DBQ20070516062009205/16/07 06:20:31  5-MIN KDBQ 161220Z 34008KT 10SM CLR 08/06 A3010 920 82 400 340/08 RMK AO2
94908KDBQ DBQ20070516062509205/16/07 06:25:31  5-MIN KDBQ 161225Z 34010KT 10SM CLR 08/06 A3010 910 86 400 340/10 RMK AO2
94908KDBQ DBQ20070516063009205/16/07 06:30:31  5-MIN KDBQ 161230Z 34010KT 10SM CLR 08/06 A3009 920 82 400 340/10 RMK AO2
94908KDBQ DBQ20070516063509205/16/07 06:35:31  5-MIN KDBQ 161235Z 35008KT 10SM CLR 08/06 A3009 920 82 400 350/08 RMK AO2
94908KDBQ DBQ20070516064009205/16/07 06:40:31  5-MIN KDBQ 161240Z 35009KT 10SM CLR 09/06 A3010 920 83 400 350/09 RMK AO2
94908KDBQ DBQ20070516064509205/16/07 06:45:31  5-MIN KDBQ 161245Z 35008KT 10SM CLR 09/06 A3009 920 79 400 350/08 RMK AO2
94908KDBQ DBQ20070516065010905/16/07 06:50:31  5-MIN KDBQ 161250Z 35009KT 10SM CLR 09/06 A3010 920 79 400 350/09 RMK AO2 SLP195 T00890056
94908KDBQ DBQ20070516065510905/16/07 06:55:31  5-MIN KDBQ 161255Z 35008KT 10SM CLR 09/06 A3010 910 79 400 350/08 RMK AO2 SLP196 T00890056
94908KDBQ DBQ20070516070009205/16/07 07:00:31  5-MIN KDBQ 161300Z 34009KT 10SM CLR 09/06 A3010 910 79 500 340/09 RMK AO2
94908KDBQ DBQ20070516070509205/16/07 07:05:31  5-MIN KDBQ 161305Z 34008KT 10SM CLR 09/06 A3010 910 79 500 340/08 RMK AO2
94908KDBQ DBQ20070516071009205/16/07 07:10:31  5-MIN KDBQ 161310Z 35007KT 10SM CLR 09/06 A3011 910 76 500 350/07 RMK AO2
94908KDBQ DBQ20070516071509205/16/07 07:15:31  5-MIN KDBQ 161315Z 34007KT 10SM CLR 09/06 A3011 910 76 500 340/07 RMK AO2
94908KDBQ DBQ20070516072009205/16/07 07:20:31  5-MIN KDBQ 161320Z 34006KT 10SM CLR 09/06 A3011 910 79 500 340/06 RMK AO2
94908KDBQ DBQ20070516072509205/16/07 07:25:31  5-MIN KDBQ 161325Z 32006KT 10SM CLR 10/06 A3011 900 77 600 320/06 RMK AO2
94908KDBQ DBQ20070516073009205/16/07 07:30:31  5-MIN KDBQ 161330Z 32004KT 10SM CLR 10/06 A3011 910 77 600 320/04 RMK AO2
94908KDBQ DBQ20070516073509205/16/07 07:35:31  5-MIN KDBQ 161335Z 32005KT 10SM CLR 10/06 A3011 910 77 600 320/05 RMK AO2
94908KDBQ DBQ20070516074009205/16/07 07:40:31  5-MIN KDBQ 161340Z 34005KT 10SM CLR 10/06 A3011 910 77 600 340/05 RMK AO2
94908KDBQ DBQ20070516074509205/16/07 07:45:31  5-MIN KDBQ 161345Z 33004KT 10SM CLR 11/06 A3010 910 74 600 330/04 RMK AO2
94908KDBQ DBQ20070516075010905/16/07 07:50:31  5-MIN KDBQ 161350Z 31004KT 10SM CLR 11/06 A3010 910 74 600 310/04 RMK AO2 SLP196 T01060061
94908KDBQ DBQ20070516075511205/16/07 07:55:31  5-MIN KDBQ 161355Z 34005KT 10SM FEW100 11/06 A3010 910 71 600 330/05 RMK AO2 SLP196 T01060056
94908KDBQ DBQ20070516080009505/16/07 08:00:31  5-MIN KDBQ 161400Z 33003KT 10SM SCT100 11/06 A3010 910 71 700 330/03 RMK AO2
94908KDBQ DBQ20070516080509505/16/07 08:05:31  5-MIN KDBQ 161405Z 31005KT 10SM BKN095 11/06 A3010 910 68 700 310/05 RMK AO2
94908KDBQ DBQ20070516081009505/16/07 08:10:31  5-MIN KDBQ 161410Z 32005KT 10SM BKN095 11/05 A3010 910 66 700 320/05 RMK AO2
94908KDBQ DBQ20070516081509505/16/07 08:15:31  5-MIN KDBQ 161415Z 34004KT 10SM SCT100 11/05 A3010 910 66 700 340/04 RMK AO2
94908KDBQ DBQ20070516082009505/16/07 08:20:31  5-MIN KDBQ 161420Z 31004KT 10SM SCT095 12/05 A3010 910 63 800 310/04 RMK AO2
94908KDBQ DBQ20070516082509505/16/07 08:25:31  5-MIN KDBQ 161425Z VRB04KT 10SM SCT100 12/06 A3010 910 66 800 VRB/04 RMK AO2
94908KDBQ DBQ20070516083009505/16/07 08:30:31  5-MIN KDBQ 161430Z 34004KT 10SM FEW100 12/06 A3010 910 63 800 340/04 RMK AO2
94908KDBQ DBQ20070516083509505/16/07 08:35:31  5-MIN KDBQ 161435Z 36004KT 10SM FEW100 12/06 A3010 910 63 800 360/04 RMK AO2
94908KDBQ DBQ20070516084009505/16/07 08:40:31  5-MIN KDBQ 161440Z 00000KT 10SM FEW100 13/06 A3010 910 63 900 000/00 RMK AO2
94908KDBQ DBQ20070516084509505/16/07 08:45:31  5-MIN KDBQ 161445Z VRB03KT 10SM FEW100 13/06 A3010 910 61 900 VRB/03 RMK AO2
94908KDBQ DBQ20070516085011805/16/07 08:50:31  5-MIN KDBQ 161450Z 00000KT 10SM SCT100 12/05 A3010 920 61 800 000/00 RMK AO2 SLP194 T01220050 51017
94908KDBQ DBQ20070516085511805/16/07 08:55:31  5-MIN KDBQ 161455Z 00000KT 10SM SCT100 13/06 A3010 910 61 900 000/00 RMK AO2 SLP194 T01280056 50000
94908KDBQ DBQ20070516090009505/16/07 09:00:31  5-MIN KDBQ 161500Z 00000KT 10SM SCT100 13/06 A3010 920 63 900 000/00 RMK AO2
94908KDBQ DBQ20070516090509605/16/07 09:05:31  5-MIN KDBQ 161505Z 29003KT 10SM FEW100 13/06 A3010 920 61 1000 280/03 RMK AO2
94908KDBQ DBQ20070516091009605/16/07 09:10:31  5-MIN KDBQ 161510Z 00000KT 10SM FEW100 13/06 A3009 920 61 1000 000/00 RMK AO2
94908KDBQ DBQ20070516091509605/16/07 09:15:31  5-MIN KDBQ 161515Z 23003KT 10SM FEW100 14/07 A3009 920 64 1000 230/03 RMK AO2
94908KDBQ DBQ20070516092009605/16/07 09:20:31  5-MIN KDBQ 161520Z 00000KT 10SM FEW110 14/07 A3009 920 61 1000 000/00 RMK AO2
94908KDBQ DBQ20070516092509305/16/07 09:25:31  5-MIN KDBQ 161525Z 00000KT 10SM CLR 14/06 A3010 920 59 1000 000/00 RMK AO2
94908KDBQ DBQ20070516093009305/16/07 09:30:31  5-MIN KDBQ 161530Z 24004KT 10SM CLR 14/07 A3009 920 61 1000 240/04 RMK AO2
94908KDBQ DBQ20070516093509305/16/07 09:35:31  5-MIN KDBQ 161535Z 26004KT 10SM CLR 14/07 A3009 920 61 1000 260/04 RMK AO2
94908KDBQ DBQ20070516094009305/16/07 09:40:31  5-MIN KDBQ 161540Z VRB03KT 10SM CLR 14/06 A3009 920 57 1000 VRB/03 RMK AO2
94908KDBQ DBQ20070516094509305/16/07 09:45:31  5-MIN KDBQ 161545Z 28004KT 10SM CLR 14/07 A3009 920 59 1100 280/04 RMK AO2
94908KDBQ DBQ20070516095511005/16/07 09:55:31  5-MIN KDBQ 161555Z 21005KT 10SM CLR 14/07 A3009 920 59 1100 210/05 RMK AO2 SLP191 T01440067
94908KDBQ DBQ20070516100009305/16/07 10:00:31  5-MIN KDBQ 161600Z 28006KT 10SM CLR 14/07 A3009 920 59 1100 280/06 RMK AO2
94908KDBQ DBQ20070516100509605/16/07 10:05:31  5-MIN KDBQ 161605Z VRB06KT 10SM FEW095 14/07 A3009 920 59 1100 VRB/06 RMK AO2
94908KDBQ DBQ20070516101009605/16/07 10:10:31  5-MIN KDBQ 161610Z 25006KT 10SM FEW095 15/07 A3009 920 59 1200 250/06 RMK AO2
94908KDBQ DBQ20070516101509305/16/07 10:15:31  5-MIN KDBQ 161615Z 27006KT 10SM CLR 15/07 A3009 920 57 1200 270/06 RMK AO2
94908KDBQ DBQ20070516102009305/16/07 10:20:31  5-MIN KDBQ 161620Z 31005KT 10SM CLR 16/07 A3009 920 57 1200 310/05 RMK AO2
94908KDBQ DBQ20070516102509605/16/07 10:25:31  5-MIN KDBQ 161625Z 26005KT 10SM FEW110 15/07 A3009 920 59 1200 260/05 RMK AO2
94908KDBQ DBQ20070516103009605/16/07 10:30:31  5-MIN KDBQ 161630Z VRB03KT 10SM SCT110 15/07 A3009 920 57 1200 VRB/03 RMK AO2
94908KDBQ DBQ20070516103509605/16/07 10:35:31  5-MIN KDBQ 161635Z 27006KT 10SM SCT110 15/07 A3009 920 59 1200 270/06 RMK AO2
94908KDBQ DBQ20070516104009605/16/07 10:40:31  5-MIN KDBQ 161640Z 28006KT 10SM SCT110 16/08 A3009 920 59 1200 280/06 RMK AO2
94908KDBQ DBQ20070516104509605/16/07 10:45:31  5-MIN KDBQ 161645Z 26010KT 10SM SCT110 16/08 A3009 920 59 1200 260/10 RMK AO2
94908KDBQ DBQ20070516105011305/16/07 10:50:31  5-MIN KDBQ 161650Z 25007KT 10SM SCT110 16/08 A3009 920 62 1200 250/07 RMK AO2 SLP192 T01560083
94908KDBQ DBQ20070516105511305/16/07 10:55:31  5-MIN KDBQ 161655Z 30009KT 10SM FEW110 16/08 A3009 920 59 1300 300/09 RMK AO2 SLP191 T01610083
94908KDBQ DBQ20070516110009605/16/07 11:00:31  5-MIN KDBQ 161700Z 29008KT 10SM FEW110 16/08 A3009 920 57 1300 290/08 RMK AO2
94908KDBQ DBQ20070516110509605/16/07 11:05:31  5-MIN KDBQ 161705Z 29010KT 10SM FEW100 16/08 A3009 920 57 1300 290/10 RMK AO2
94908KDBQ DBQ20070516111009905/16/07 11:10:31  5-MIN KDBQ 161710Z 26011G15KT 10SM CLR 16/08 A3008 930 57 1300 260/11G15 RMK AO2
94908KDBQ DBQ20070516111509305/16/07 11:15:31  5-MIN KDBQ 161715Z 28007KT 10SM CLR 17/08 A3008 930 57 1400 280/07 RMK AO2
94908KDBQ DBQ20070516112009305/16/07 11:20:31  5-MIN KDBQ 161720Z 28009KT 10SM CLR 16/08 A3008 930 59 1300 280/09 RMK AO2
94908KDBQ DBQ20070516112509305/16/07 11:25:31  5-MIN KDBQ 161725Z 27007KT 10SM CLR 17/09 A3008 930 57 1500 270/07 RMK AO2
94908KDBQ DBQ20070516113009305/16/07 11:30:31  5-MIN KDBQ 161730Z 28009KT 10SM CLR 17/09 A3007 940 57 1500 280/09 RMK AO2
94908KDBQ DBQ20070516113509905/16/07 11:35:31  5-MIN KDBQ 161735Z 29010G15KT 10SM CLR 17/08 A3007 940 55 1500 280/10G15 RMK AO2
94908KDBQ DBQ20070516114009305/16/07 11:40:31  5-MIN KDBQ 161740Z 28009KT 10SM CLR 17/08 A3007 940 55 1500 270/09 RMK AO2
94908KDBQ DBQ20070516114509305/16/07 11:45:31  5-MIN KDBQ 161745Z 26011KT 10SM CLR 17/08 A3007 940 55 1500 260/11 RMK AO2
94908KDBQ DBQ20070516115013405/16/07 11:50:31  5-MIN KDBQ 161750Z 26006G14KT 10SM CLR 17/08 A3006 950 55 1500 250/06G14 RMK AO2 SLP182 T01720083 10172 20072 50000
94908KDBQ DBQ20070516115513405/16/07 11:55:31  5-MIN KDBQ 161755Z 27012G16KT 10SM CLR 18/09 A3007 940 55 1500 270/12G16 RMK AO2 SLP182 T01780089 10178 20072 58010
94908KDBQ DBQ20070516120009905/16/07 12:00:31  5-MIN KDBQ 161800Z 27009G18KT 10SM CLR 18/08 A3006 950 53 1500 270/09G18 RMK AO2
94908KDBQ DBQ20070516120510205/16/07 12:05:31  5-MIN KDBQ 161805Z 28008G18KT 10SM FEW046 17/08 A3006 950 53 1500 280/08G18 RMK AO2
94908KDBQ DBQ20070516121009605/16/07 12:10:31  5-MIN KDBQ 161810Z 27013KT 10SM FEW046 18/08 A3006 950 53 1500 270/13 RMK AO2
94908KDBQ DBQ20070516121509605/16/07 12:15:31  5-MIN KDBQ 161815Z 28009KT 10SM FEW044 18/08 A3005 950 52 1600 280/09 RMK AO2
94908KDBQ DBQ20070516122010205/16/07 12:20:31  5-MIN KDBQ 161820Z 30012G17KT 10SM FEW046 19/08 A3005 960 50 1700 300/12G17 RMK AO2
94908KDBQ DBQ20070516122510205/16/07 12:25:31  5-MIN KDBQ 161825Z 28008G17KT 10SM FEW046 18/08 A3005 960 51 1500 280/08G17 RMK AO2
94908KDBQ DBQ20070516123010905/16/07 12:30:31  5-MIN KDBQ 161830Z 29010G15KT 10SM FEW046 SCT060 18/07 A3005 960 48 1600 290/10G15 RMK AO2
94908KDBQ DBQ20070516123510205/16/07 12:35:31  5-MIN KDBQ 161835Z 30007G14KT 10SM FEW047 19/07 A3005 960 46 1700 290/07G14 RMK AO2
94908KDBQ DBQ20070516124010205/16/07 12:40:31  5-MIN KDBQ 161840Z 29009G15KT 10SM FEW050 19/07 A3004 960 46 1700 290/09G15 RMK AO2
94908KDBQ DBQ20070516124511605/16/07 12:45:31  5-MIN KDBQ 161845Z 29013G17KT 10SM FEW050 SCT060 SCT100 19/06 A3004 960 43 1700 290/13G17 RMK AO2
94908KDBQ DBQ20070516125013305/16/07 12:50:31  5-MIN KDBQ 161850Z 31009G17KT 10SM FEW060 SCT070 BKN100 18/07 A3004 970 46 1600 310/09G17 RMK AO2 SLP174 T01830067
94908KDBQ DBQ20070516125512605/16/07 12:55:31  5-MIN KDBQ 161855Z 32013G17KT 10SM SCT060 BKN100 19/07 A3004 970 44 1700 320/13G17 RMK AO2 SLP173 T01890067
94908KDBQ DBQ20070516130010905/16/07 13:00:31  5-MIN KDBQ 161900Z 31011G17KT 10SM SCT060 BKN100 18/06 A3004 970 46 1600 310/11G17 RMK AO2
94908KDBQ DBQ20070516130511605/16/07 13:05:31  5-MIN KDBQ 161905Z 29015G20KT 10SM FEW060 SCT075 BKN100 18/05 A3004 970 42 1600 290/15G20 RMK AO2
94908KDBQ DBQ20070516131011605/16/07 13:10:31  5-MIN KDBQ 161910Z 29011G20KT 10SM SCT060 SCT075 OVC100 18/05 A3004 970 41 1600 290/11G20 RMK AO2
94908KDBQ DBQ20070516131511605/16/07 13:15:31  5-MIN KDBQ 161915Z 31014G18KT 10SM FEW055 SCT070 BKN110 19/06 A3004 970 41 1700 310/14G18 RMK AO2
94908KDBQ DBQ20070516132011605/16/07 13:20:31  5-MIN KDBQ 161920Z 30013G18KT 10SM FEW055 SCT070 BKN110 18/04 A3004 970 39 1600 300/13G18 RMK AO2
94908KDBQ DBQ20070516132510305/16/07 13:25:31  5-MIN KDBQ 161925Z 31011KT 10SM FEW070 BKN100 18/05 A3004 970 42 1600 310/11 RMK AO2
94908KDBQ DBQ20070516133010905/16/07 13:30:31  5-MIN KDBQ 161930Z 30016G20KT 10SM SCT070 BKN100 18/05 A3004 960 42 1600 300/16G20 RMK AO2
94908KDBQ DBQ20070516133510905/16/07 13:35:31  5-MIN KDBQ 161935Z 30014G20KT 10SM SCT065 BKN100 18/05 A3004 970 42 1600 300/14G20 RMK AO2
94908KDBQ DBQ20070516134010305/16/07 13:40:31  5-MIN KDBQ 161940Z 31011KT 10SM FEW065 BKN100 18/06 A3004 970 44 1600 310/11 RMK AO2
94908KDBQ DBQ20070516134511605/16/07 13:45:31  5-MIN KDBQ 161945Z 31013G19KT 10SM FEW065 BKN100 BKN110 18/06 A3004 970 42 1600 310/13G19 RMK AO2
94908KDBQ DBQ20070516135012605/16/07 13:50:31  5-MIN KDBQ 161950Z 30014G19KT 10SM FEW065 BKN100 19/06 A3004 970 43 1700 300/14G19 RMK AO2 SLP172 T01890061
94908KDBQ DBQ20070516135512605/16/07 13:55:31  5-MIN KDBQ 161955Z 30014G21KT 10SM FEW065 SCT100 19/06 A3003 980 41 1700 300/14G21 RMK AO2 SLP170 T01890056
94908KDBQ DBQ20070516140010205/16/07 14:00:31  5-MIN KDBQ 162000Z 29014G22KT 10SM FEW100 19/06 A3003 980 41 1700 290/14G22 RMK AO2
94908KDBQ DBQ20070516140512005/16/07 14:05:31  5-MIN KDBQ 162005Z 30018G27KT 10SM FEW100 19/05 A3003 980 38 1800 290/18G27 RMK AO2 PK WND 29027/2002
94908KDBQ DBQ20070516141012005/16/07 14:10:31  5-MIN KDBQ 162010Z 31016G27KT 10SM FEW100 19/05 A3002 980 38 1800 300/16G27 RMK AO2 PK WND 29027/2002
94908KDBQ DBQ20070516141511705/16/07 14:15:31  5-MIN KDBQ 162015Z 30017G26KT 10SM CLR 19/04 A3002 980 36 1700 290/17G26 RMK AO2 PK WND 29027/2002
94908KDBQ DBQ20070516142012005/16/07 14:20:31  5-MIN KDBQ 162020Z 29022G29KT 10SM FEW100 18/03 A3002 980 35 1600 290/22G29 RMK AO2 PK WND 29029/2018
94908KDBQ DBQ20070516142512005/16/07 14:25:31  5-MIN KDBQ 162025Z 29015G29KT 10SM FEW100 19/03 A3002 990 34 1700 290/15G29 RMK AO2 PK WND 29029/2018
94908KDBQ DBQ20070516143012005/16/07 14:30:31  5-MIN KDBQ 162030Z 30017G26KT 10SM SCT100 18/02 A3002 990 34 1600 300/17G26 RMK AO2 PK WND 29029/2018
94908KDBQ DBQ20070516143512005/16/07 14:35:31  5-MIN KDBQ 162035Z 30016G25KT 10SM SCT100 19/03 A3002 990 33 1800 300/16G25 RMK AO2 PK WND 29029/2018
94908KDBQ DBQ20070516144012005/16/07 14:40:31  5-MIN KDBQ 162040Z 30019G27KT 10SM FEW100 19/02 A3002 990 32 1700 300/19G27 RMK AO2 PK WND 29029/2018
94908KDBQ DBQ20070516144512005/16/07 14:45:31  5-MIN KDBQ 162045Z 31019G29KT 10SM SCT095 19/02 A3002 990 31 1800 310/19G29 RMK AO2 PK WND 32029/2042
94908KDBQ DBQ20070516145014305/16/07 14:50:31  5-MIN KDBQ 162050Z 32019G29KT 10SM SCT090 19/02 A3002 990 31 1800 310/19G29 RMK AO2 PK WND 32029/2042 SLP166 T01940022 58010
94908KDBQ DBQ20070516145514305/16/07 14:55:31  5-MIN KDBQ 162055Z 31020G25KT 10SM FEW090 19/02 A3002 990 30 1800 310/20G25 RMK AO2 PK WND 32029/2042 SLP166 T01940017 56016
94908KDBQ DBQ20070516150010205/16/07 15:00:31  5-MIN KDBQ 162100Z 31016G24KT 10SM FEW090 19/02 A3002 990 31 1800 310/16G24 RMK AO2
94908KDBQ DBQ20070516150510205/16/07 15:05:31  5-MIN KDBQ 162105Z 30018G23KT 10SM FEW085 20/02 A3002 990 29 1800 300/18G23 RMK AO2
94908KDBQ DBQ20070516151010205/16/07 15:10:31  5-MIN KDBQ 162110Z 31018G25KT 10SM FEW085 19/02 A3002 990 30 1800 310/18G25 RMK AO2
94908KDBQ DBQ20070516151511705/16/07 15:15:31  5-MIN KDBQ 162115Z 32019G29KT 10SM CLR 19/00 A3002 990 27 1800 320/19G29 RMK AO2 PK WND 32029/2113
94908KDBQ DBQ20070516152011705/16/07 15:20:31  5-MIN KDBQ 162120Z 29023G29KT 10SM CLR 19/00 A3001 990 27 1800 290/23G29 RMK AO2 PK WND 32029/2113
94908KDBQ DBQ20070516152511705/16/07 15:25:31  5-MIN KDBQ 162125Z 29018G28KT 10SM CLR 19/00 A3001 990 27 1800 290/18G28 RMK AO2 PK WND 32029/2113
94908KDBQ DBQ20070516153011705/16/07 15:30:31  5-MIN KDBQ 162130Z 30016G25KT 10SM CLR 19/00 A3001 990 27 1800 300/16G25 RMK AO2 PK WND 32029/2113
94908KDBQ DBQ20070516153511705/16/07 15:35:31  5-MIN KDBQ 162135Z 29017G28KT 10SM CLR 19/00 A3001 990 27 1800 280/17G28 RMK AO2 PK WND 32029/2113
94908KDBQ DBQ20070516154011705/16/07 15:40:31  5-MIN KDBQ 162140Z 32019G28KT 10SM CLR 19/00 A3002 990 27 1800 320/19G28 RMK AO2 PK WND 32029/2113
94908KDBQ DBQ20070516154511805/16/07 15:45:31  5-MIN KDBQ 162145Z 32016G24KT 10SM CLR 19/M01 A3001 990 26 1700 320/16G24 RMK AO2 PK WND 32029/2113
94908KDBQ DBQ20070516155013505/16/07 15:50:31  5-MIN KDBQ 162150Z 32018G24KT 10SM CLR 19/M01 A3001 990 26 1700 310/18G24 RMK AO2 PK WND 32029/2113 SLP166 T01891006
94908KDBQ DBQ20070516155513405/16/07 15:55:31  5-MIN KDBQ 162155Z 32015G24KT 10SM CLR 19/00 A3001 990 28 1700 310/15G24 RMK AO2 PK WND 32029/2113 SLP166 T01890000
94908KDBQ DBQ20070516160010005/16/07 16:00:31  5-MIN KDBQ 162200Z 32017G24KT 10SM CLR 19/M01 A3002 990 26 1700 320/17G24 RMK AO2
94908KDBQ DBQ20070516160509905/16/07 16:05:31  5-MIN KDBQ 162205Z 31015G24KT 10SM CLR 19/00 A3001 990 28 1700 310/15G24 RMK AO2
94908KDBQ DBQ20070516161010005/16/07 16:10:31  5-MIN KDBQ 162210Z 32018G24KT 10SM CLR 19/M01 A3002 990 26 1700 320/18G24 RMK AO2
94908KDBQ DBQ20070516161511805/16/07 16:15:31  5-MIN KDBQ 162215Z 32018G26KT 10SM CLR 19/M01 A3002 990 26 1700 320/18G26 RMK AO2 PK WND 32026/2215
94908KDBQ DBQ20070516162011805/16/07 16:20:31  5-MIN KDBQ 162220Z 32017G26KT 10SM CLR 18/M01 A3002 990 26 1600 320/17G26 RMK AO2 PK WND 32026/2215
94908KDBQ DBQ20070516162511805/16/07 16:25:31  5-MIN KDBQ 162225Z 32012G24KT 10SM CLR 18/M01 A3002 990 27 1600 320/12G24 RMK AO2 PK WND 32026/2215
94908KDBQ DBQ20070516163011805/16/07 16:30:31  5-MIN KDBQ 162230Z 31018G23KT 10SM CLR 19/M01 A3002 990 26 1700 310/18G23 RMK AO2 PK WND 32026/2215
94908KDBQ DBQ20070516163511805/16/07 16:35:31  5-MIN KDBQ 162235Z 31015G23KT 10SM CLR 18/M01 A3002 990 26 1600 310/15G23 RMK AO2 PK WND 32026/2215
94908KDBQ DBQ20070516164011805/16/07 16:40:31  5-MIN KDBQ 162240Z 33016G22KT 10SM CLR 18/M01 A3002 990 27 1600 330/16G22 RMK AO2 PK WND 32026/2215
94908KDBQ DBQ20070516164511805/16/07 16:45:31  5-MIN KDBQ 162245Z 31017G23KT 10SM CLR 18/M01 A3002 990 27 1600 310/17G23 RMK AO2 PK WND 32026/2215
94908KDBQ DBQ20070516165013505/16/07 16:50:31  5-MIN KDBQ 162250Z 32017G23KT 10SM CLR 18/M01 A3002 990 27 1600 320/17G23 RMK AO2 PK WND 32026/2215 SLP168 T01831006
94908KDBQ DBQ20070516165513405/16/07 16:55:31  5-MIN KDBQ 162255Z 33015G20KT 10SM CLR 18/00 A3002 990 29 1600 330/15G20 RMK AO2 PK WND 32026/2215 SLP168 T01830000
94908KDBQ DBQ20070516170010005/16/07 17:00:31  5-MIN KDBQ 162300Z 33017G23KT 10SM CLR 18/M01 A3002 980 28 1600 320/17G23 RMK AO2
94908KDBQ DBQ20070516170510005/16/07 17:05:31  5-MIN KDBQ 162305Z 33019G24KT 10SM CLR 18/M01 A3002 980 28 1600 330/19G24 RMK AO2
94908KDBQ DBQ20070516171011805/16/07 17:10:31  5-MIN KDBQ 162310Z 33017G26KT 10SM CLR 18/M01 A3002 980 27 1600 320/17G26 RMK AO2 PK WND 32026/2306
94908KDBQ DBQ20070516171512105/16/07 17:15:31  5-MIN KDBQ 162315Z 32017G26KT 10SM FEW095 18/M01 A3002 980 27 1600 320/17G26 RMK AO2 PK WND 32026/2306
94908KDBQ DBQ20070516172012105/16/07 17:20:31  5-MIN KDBQ 162320Z 33014G24KT 10SM FEW095 17/M01 A3002 980 29 1500 330/14G24 RMK AO2 PK WND 32026/2306
94908KDBQ DBQ20070516172511705/16/07 17:25:31  5-MIN KDBQ 162325Z 33015G24KT 10SM CLR 17/00 A3003 980 31 1500 320/15G24 RMK AO2 PK WND 32026/2306
94908KDBQ DBQ20070516173011805/16/07 17:30:31  5-MIN KDBQ 162330Z 32017G25KT 10SM CLR 17/M01 A3003 980 29 1500 320/17G25 RMK AO2 PK WND 32026/2306
94908KDBQ DBQ20070516173511805/16/07 17:35:31  5-MIN KDBQ 162335Z 33019G25KT 10SM CLR 17/M01 A3003 980 31 1400 330/19G25 RMK AO2 PK WND 32026/2306
94908KDBQ DBQ20070516174011805/16/07 17:40:31  5-MIN KDBQ 162340Z 33017G24KT 10SM CLR 17/M01 A3003 980 31 1400 330/17G24 RMK AO2 PK WND 32026/2306
94908KDBQ DBQ20070516174511705/16/07 17:45:31  5-MIN KDBQ 162345Z 33018G23KT 10SM CLR 17/00 A3003 980 32 1400 330/18G23 RMK AO2 PK WND 32026/2306
94908KDBQ DBQ20070516175015205/16/07 17:50:31  5-MIN KDBQ 162350Z 34014G22KT 10SM CLR 16/00 A3004 970 34 1300 340/14G22 RMK AO2 PK WND 32026/2306 SLP173 T01560000 10200 20156 56016
94908KDBQ DBQ20070516175514905/16/07 17:55:31  5-MIN KDBQ 162355Z 34015KT 10SM FEW090 16/00 A3004 970 33 1400 340/15 RMK AO2 PK WND 32026/2306 SLP173 T01610000 10200 20156 53006
94908KDBQ DBQ20070516180010205/16/07 18:00:31  5-MIN KDBQ 170000Z 35015G20KT 10SM FEW090 16/01 A3004 970 36 1300 350/15G20 RMK AO2
94908KDBQ DBQ20070516180510205/16/07 18:05:31  5-MIN KDBQ 170005Z 36016G23KT 10SM SCT090 16/01 A3004 970 36 1400 360/16G23 RMK AO2
94908KDBQ DBQ20070516181010205/16/07 18:10:31  5-MIN KDBQ 170010Z 36018G23KT 10SM BKN085 15/04 A3005 960 47 1200 360/18G23 RMK AO2
94908KDBQ DBQ20070516181510205/16/07 18:15:31  5-MIN KDBQ 170015Z 01014G22KT 10SM BKN090 14/04 A3005 960 51 1200 010/14G22 RMK AO2
94908KDBQ DBQ20070516182010205/16/07 18:20:31  5-MIN KDBQ 170020Z 01017G23KT 10SM BKN090 14/05 A3005 950 53 1200 010/17G23 RMK AO2
94908KDBQ DBQ20070516182510205/16/07 18:25:31  5-MIN KDBQ 170025Z 01011G23KT 10SM BKN085 14/05 A3006 950 53 1100 010/11G23 RMK AO2
94908KDBQ DBQ20070516183010205/16/07 18:30:31  5-MIN KDBQ 170030Z 01017G22KT 10SM BKN085 14/04 A3006 950 52 1100 010/17G22 RMK AO2
94908KDBQ DBQ20070516183510205/16/07 18:35:31  5-MIN KDBQ 170035Z 01012G22KT 10SM BKN085 14/04 A3006 950 52 1100 010/12G22 RMK AO2
94908KDBQ DBQ20070516184010205/16/07 18:40:31  5-MIN KDBQ 170040Z 36012G21KT 10SM OVC090 14/04 A3007 940 52 1100 360/12G21 RMK AO2
94908KDBQ DBQ20070516184510205/16/07 18:45:31  5-MIN KDBQ 170045Z 01014G22KT 10SM BKN090 13/04 A3007 940 52 1000 010/14G22 RMK AO2
94908KDBQ DBQ20070516185011805/16/07 18:50:31  5-MIN KDBQ 170050Z 01012G22KT 10SM BKN090 13/04 A3007 940 54 900 360/12G22 RMK AO2 SLP187 T01280039
94908KDBQ DBQ20070516185513505/16/07 18:55:31  5-MIN KDBQ 170055Z AUTO 01015G21KT 10SM FEW055 BKN090 13/04 A3008 930 54 900 360/15G21 RMK AO2 SLP188 T01280039 TSNO
94908KDBQ DBQ20070516190011805/16/07 19:00:31  5-MIN KDBQ 170100Z AUTO 36016G22KT 10SM FEW055 BKN090 13/04 A3008 930 54 900 360/16G22 RMK AO2 TSNO
94908KDBQ DBQ20070516190511805/16/07 19:05:31  5-MIN KDBQ 170105Z AUTO 35018G22KT 10SM FEW050 BKN090 13/04 A3009 920 54 900 350/18G22 RMK AO2 TSNO
94908KDBQ DBQ20070516191012505/16/07 19:10:31  5-MIN KDBQ 170110Z AUTO 36017G22KT 10SM FEW044 SCT055 BKN090 13/04 A3009 920 54 900 360/17G22 RMK AO2 TSNO
94908KDBQ DBQ20070516191512505/16/07 19:15:31  5-MIN KDBQ 170115Z AUTO 01015G22KT 10SM SCT044 BKN055 BKN090 13/04 A3009 920 54 900 360/15G22 RMK AO2 TSNO
94908KDBQ DBQ20070516192011905/16/07 19:20:31  5-MIN KDBQ 170120Z AUTO 36013KT 10SM FEW044 BKN060 BKN090 12/04 A3010 920 56 800 360/13 RMK AO2 TSNO
94908KDBQ DBQ20070516192512505/16/07 19:25:31  5-MIN KDBQ 170125Z AUTO 01013G19KT 10SM FEW044 BKN060 OVC085 12/04 A3010 910 56 800 010/13G19 RMK AO2 TSNO
94908KDBQ DBQ20070516193012505/16/07 19:30:31  5-MIN KDBQ 170130Z AUTO 01013G23KT 10SM FEW044 SCT055 OVC085 12/03 A3010 910 54 800 010/13G23 RMK AO2 TSNO
94908KDBQ DBQ20070516193512505/16/07 19:35:31  5-MIN KDBQ 170135Z AUTO 01015G23KT 10SM FEW044 SCT060 OVC085 12/03 A3010 910 56 800 010/15G23 RMK AO2 TSNO
94908KDBQ DBQ20070516194011805/16/07 19:40:31  5-MIN KDBQ 170140Z AUTO 36013G22KT 10SM FEW055 OVC090 12/03 A3011 910 56 800 360/13G22 RMK AO2 TSNO
94908KDBQ DBQ20070516194511805/16/07 19:45:31  5-MIN KDBQ 170145Z AUTO 36010G19KT 10SM FEW060 OVC090 12/03 A3011 900 54 800 360/10G19 RMK AO2 TSNO
94908KDBQ DBQ20070516195012205/16/07 19:50:31  5-MIN KDBQ 170150Z AUTO 01011KT 10SM BKN090 11/03 A3011 900 56 700 010/11 RMK AO2 SLP201 T01110028 TSNO
94908KDBQ DBQ20070516195512205/16/07 19:55:31  5-MIN KDBQ 170155Z AUTO 01012KT 10SM BKN090 11/02 A3012 900 54 700 010/12 RMK AO2 SLP202 T01110022 TSNO
94908KDBQ DBQ20070516200011105/16/07 20:00:31  5-MIN KDBQ 170200Z AUTO 36011G19KT 10SM SCT090 11/02 A3012 900 56 600 360/11G19 RMK AO2 TSNO
94908KDBQ DBQ20070516200511105/16/07 20:05:31  5-MIN KDBQ 170205Z AUTO 36014G19KT 10SM SCT095 11/02 A3012 890 56 600 360/14G19 RMK AO2 TSNO
94908KDBQ DBQ20070516201010505/16/07 20:10:31  5-MIN KDBQ 170210Z AUTO 36013KT 10SM FEW090 10/02 A3012 890 58 500 360/13 RMK AO2 TSNO
94908KDBQ DBQ20070516201510505/16/07 20:15:31  5-MIN KDBQ 170215Z AUTO 36013KT 10SM FEW095 10/02 A3013 890 56 500 360/13 RMK AO2 TSNO
94908KDBQ DBQ20070516202010805/16/07 20:20:31  5-MIN KDBQ 170220Z AUTO 36013G19KT 10SM CLR 10/02 A3013 880 56 500 360/13G19 RMK AO2 TSNO
94908KDBQ DBQ20070516202510805/16/07 20:25:31  5-MIN KDBQ 170225Z AUTO 35011G19KT 10SM CLR 10/02 A3013 880 56 500 350/11G19 RMK AO2 TSNO
94908KDBQ DBQ20070516203010805/16/07 20:30:31  5-MIN KDBQ 170230Z AUTO 35014G22KT 10SM CLR 09/02 A3014 880 58 500 350/14G22 RMK AO2 TSNO
94908KDBQ DBQ20070516203510805/16/07 20:35:31  5-MIN KDBQ 170235Z AUTO 35014G22KT 10SM CLR 09/02 A3014 880 58 500 350/14G22 RMK AO2 TSNO
94908KDBQ DBQ20070516204010205/16/07 20:40:31  5-MIN KDBQ 170240Z AUTO 36013KT 10SM CLR 09/02 A3014 870 58 500 360/13 RMK AO2 TSNO
94908KDBQ DBQ20070516204510205/16/07 20:45:31  5-MIN KDBQ 170245Z AUTO 35011KT 10SM CLR 09/02 A3014 870 58 500 350/11 RMK AO2 TSNO
94908KDBQ DBQ20070516205012505/16/07 20:50:31  5-MIN KDBQ 170250Z AUTO 36011KT 10SM CLR 09/02 A3015 870 63 400 360/11 RMK AO2 SLP213 T00890022 53006 TSNO
94908KDBQ DBQ20070516205512505/16/07 20:55:31  5-MIN KDBQ 170255Z AUTO 35011KT 10SM CLR 09/02 A3015 870 60 400 350/11 RMK AO2 SLP214 T00940022 51038 TSNO
94908KDBQ DBQ20070516210010205/16/07 21:00:31  5-MIN KDBQ 170300Z AUTO 35009KT 10SM CLR 09/02 A3015 860 63 400 350/09 RMK AO2 TSNO
94908KDBQ DBQ20070516210510205/16/07 21:05:31  5-MIN KDBQ 170305Z AUTO 36010KT 10SM CLR 09/02 A3015 860 63 400 360/10 RMK AO2 TSNO
94908KDBQ DBQ20070516211010205/16/07 21:10:31  5-MIN KDBQ 170310Z AUTO 36010KT 10SM CLR 08/02 A3015 860 65 300 360/10 RMK AO2 TSNO
94908KDBQ DBQ20070516211510205/16/07 21:15:31  5-MIN KDBQ 170315Z AUTO 36010KT 10SM CLR 08/02 A3016 860 65 300 360/10 RMK AO2 TSNO
94908KDBQ DBQ20070516212010405/16/07 21:20:31  5-MIN KDBQ 170320Z AUTO 36010KT 10SM CLR 09/02 A3016 860 63 400 350/10 RMK AO2 TSNO $
94908KDBQ DBQ20070516212510205/16/07 21:25:31  5-MIN KDBQ 170325Z AUTO 35008KT 10SM CLR 08/02 A3016 860 65 300 350/08 RMK AO2 TSNO
94908KDBQ DBQ20070516213010205/16/07 21:30:31  5-MIN KDBQ 170330Z AUTO 35008KT 10SM CLR 08/03 A3016 850 70 200 340/08 RMK AO2 TSNO
94908KDBQ DBQ20070516213510205/16/07 21:35:31  5-MIN KDBQ 170335Z AUTO 35007KT 10SM CLR 08/03 A3016 850 70 200 350/07 RMK AO2 TSNO
94908KDBQ DBQ20070516214010205/16/07 21:40:31  5-MIN KDBQ 170340Z AUTO 34009KT 10SM CLR 08/03 A3017 850 70 200 340/09 RMK AO2 TSNO
94908KDBQ DBQ20070516214510205/16/07 21:45:31  5-MIN KDBQ 170345Z AUTO 35008KT 10SM CLR 08/03 A3017 850 68 300 350/08 RMK AO2 TSNO
94908KDBQ DBQ20070516215011905/16/07 21:50:31  5-MIN KDBQ 170350Z AUTO 35009KT 10SM CLR 08/03 A3017 850 70 200 350/09 RMK AO2 SLP219 T00780028 TSNO
94908KDBQ DBQ20070516221010205/16/07 22:10:31  5-MIN KDBQ 170410Z AUTO 36008KT 10SM CLR 07/03 A3016 850 73 200 360/08 RMK AO2 TSNO
94908KDBQ DBQ20070516221510205/16/07 22:15:31  5-MIN KDBQ 170415Z AUTO 36008KT 10SM CLR 07/03 A3016 850 73 200 360/08 RMK AO2 TSNO
94908KDBQ DBQ20070516222010205/16/07 22:20:31  5-MIN KDBQ 170420Z AUTO 36008KT 10SM CLR 07/03 A3017 850 73 200 350/08 RMK AO2 TSNO
94908KDBQ DBQ20070516222510205/16/07 22:25:31  5-MIN KDBQ 170425Z AUTO 35008KT 10SM CLR 07/03 A3017 850 73 200 350/08 RMK AO2 TSNO
94908KDBQ DBQ20070516223010205/16/07 22:30:31  5-MIN KDBQ 170430Z AUTO 34009KT 10SM CLR 07/03 A3017 850 73 200 340/09 RMK AO2 TSNO
94908KDBQ DBQ20070516223510205/16/07 22:35:31  5-MIN KDBQ 170435Z AUTO 34009KT 10SM CLR 08/03 A3017 850 70 200 340/09 RMK AO2 TSNO
94908KDBQ DBQ20070516224010205/16/07 22:40:31  5-MIN KDBQ 170440Z AUTO 34009KT 10SM CLR 08/03 A3017 850 70 200 340/09 RMK AO2 TSNO
94908KDBQ DBQ20070516224510205/16/07 22:45:31  5-MIN KDBQ 170445Z AUTO 34009KT 10SM CLR 08/03 A3017 850 70 200 340/09 RMK AO2 TSNO
94908KDBQ DBQ20070516225012105/16/07 22:50:31  5-MIN KDBQ 170450Z AUTO 34009KT 10SM CLR 08/03 A3017 850 70 200 340/09 RMK AO2 SLP220 T00780028 TSNO $
94908KDBQ DBQ20070516225511905/16/07 22:55:31  5-MIN KDBQ 170455Z AUTO 34009KT 10SM CLR 08/03 A3017 840 70 200 340/09 RMK AO2 SLP220 T00780028 TSNO
94908KDBQ DBQ20070516230010205/16/07 23:00:31  5-MIN KDBQ 170500Z AUTO 34008KT 10SM CLR 07/03 A3018 840 76 100 340/08 RMK AO2 TSNO
94908KDBQ DBQ20070516230510205/16/07 23:05:31  5-MIN KDBQ 170505Z AUTO 34008KT 10SM CLR 07/03 A3018 840 76 100 340/08 RMK AO2 TSNO
94908KDBQ DBQ20070516231010205/16/07 23:10:31  5-MIN KDBQ 170510Z AUTO 35009KT 10SM CLR 07/03 A3018 840 76 100 340/09 RMK AO2 TSNO
94908KDBQ DBQ20070516231510205/16/07 23:15:31  5-MIN KDBQ 170515Z AUTO 35009KT 10SM CLR 07/03 A3018 840 76 100 340/09 RMK AO2 TSNO
94908KDBQ DBQ20070516232010205/16/07 23:20:31  5-MIN KDBQ 170520Z AUTO 34008KT 10SM CLR 07/03 A3018 840 76 100 340/08 RMK AO2 TSNO
94908KDBQ DBQ20070516232510205/16/07 23:25:31  5-MIN KDBQ 170525Z AUTO 35008KT 10SM CLR 07/03 A3018 840 76 100 350/08 RMK AO2 TSNO
94908KDBQ DBQ20070516233010205/16/07 23:30:31  5-MIN KDBQ 170530Z AUTO 35008KT 10SM CLR 07/03 A3018 840 76 100 350/08 RMK AO2 TSNO
94908KDBQ DBQ20070516233510205/16/07 23:35:31  5-MIN KDBQ 170535Z AUTO 35007KT 10SM CLR 07/03 A3018 840 76 100 340/07 RMK AO2 TSNO
94908KDBQ DBQ20070516234010205/16/07 23:40:31  5-MIN KDBQ 170540Z AUTO 34008KT 10SM CLR 07/03 A3018 840 76 100 340/08 RMK AO2 TSNO
94908KDBQ DBQ20070516234510205/16/07 23:45:31  5-MIN KDBQ 170545Z AUTO 34008KT 10SM CLR 07/03 A3018 830 76 100 340/08 RMK AO2 TSNO
94908KDBQ DBQ20070516235014705/16/07 23:50:31  5-MIN KDBQ 170550Z AUTO 34008KT 10SM CLR 07/03 A3019 830 76 100 340/08 RMK AO2 SLP225 T00720033 10161 20072 402000061 51038 TSNO
94908KDBQ DBQ20070516235514705/16/07 23:55:31  5-MIN KDBQ 170555Z AUTO 35008KT 10SM CLR 07/03 A3019 830 76 100 340/08 RMK AO2 SLP225 T00720033 10161 20072 402000061 51012 TSNO
94908KDBQ DBQ20070517000010205/17/07 00:00:38  5-MIN KDBQ 170600Z AUTO 34007KT 10SM CLR 07/03 A3019 830 79 100 340/07 RMK AO2 TSNO
94908KDBQ DBQ20070517000510205/17/07 00:05:31  5-MIN KDBQ 170605Z AUTO 35007KT 10SM CLR 07/03 A3019 830 79 100 340/07 RMK AO2 TSNO
94908KDBQ DBQ20070517001010205/17/07 00:10:31  5-MIN KDBQ 170610Z AUTO 35007KT 10SM CLR 07/03 A3019 830 79 100 340/07 RMK AO2 TSNO
94908KDBQ DBQ20070517001510205/17/07 00:15:31  5-MIN KDBQ 170615Z AUTO 34008KT 10SM CLR 07/03 A3019 830 79 100 340/08 RMK AO2 TSNO
94908KDBQ DBQ20070517002010205/17/07 00:20:31  5-MIN KDBQ 170620Z AUTO 34007KT 10SM CLR 07/03 A3019 830 79 100 340/07 RMK AO2 TSNO
94908KDBQ DBQ20070517002510205/17/07 00:25:31  5-MIN KDBQ 170625Z AUTO 34007KT 10SM CLR 07/03 A3019 830 79 100 340/07 RMK AO2 TSNO
94908KDBQ DBQ20070517003010205/17/07 00:30:31  5-MIN KDBQ 170630Z AUTO 34008KT 10SM CLR 07/03 A3020 820 79 100 340/08 RMK AO2 TSNO
94908KDBQ DBQ20070517003510205/17/07 00:35:31  5-MIN KDBQ 170635Z AUTO 34007KT 10SM CLR 07/03 A3020 820 79 100 340/07 RMK AO2 TSNO
94908KDBQ DBQ20070517004010005/17/07 00:40:31  5-MIN KDBQ 170640Z AUTO 34007KT 10SM CLR 07/03 A3020 820 79 0 340/07 RMK AO2 TSNO
94908KDBQ DBQ20070517004510005/17/07 00:45:31  5-MIN KDBQ 170645Z AUTO 35007KT 10SM CLR 07/03 A3021 810 79 0 340/07 RMK AO2 TSNO
94908KDBQ DBQ20070517005011705/17/07 00:50:31  5-MIN KDBQ 170650Z AUTO 35006KT 10SM CLR 07/03 A3021 810 79 0 350/06 RMK AO2 SLP232 T00670033 TSNO
94908KDBQ DBQ20070517005511705/17/07 00:55:31  5-MIN KDBQ 170655Z AUTO 36006KT 10SM CLR 06/03 A3021 810 82 0 360/06 RMK AO2 SLP233 T00610033 TSNO
94908KDBQ DBQ20070517010010005/17/07 01:00:31  5-MIN KDBQ 170700Z AUTO 36008KT 10SM CLR 06/03 A3021 810 82 0 360/08 RMK AO2 TSNO
94908KDBQ DBQ20070517010510005/17/07 01:05:31  5-MIN KDBQ 170705Z AUTO 36007KT 10SM CLR 07/03 A3021 810 79 0 360/07 RMK AO2 TSNO
94908KDBQ DBQ20070517011010005/17/07 01:10:31  5-MIN KDBQ 170710Z AUTO 01007KT 10SM CLR 07/03 A3021 810 79 0 010/07 RMK AO2 TSNO
94908KDBQ DBQ20070517011510005/17/07 01:15:31  5-MIN KDBQ 170715Z AUTO 01007KT 10SM CLR 07/03 A3022 810 79 0 010/07 RMK AO2 TSNO
94908KDBQ DBQ20070517012010005/17/07 01:20:31  5-MIN KDBQ 170720Z AUTO 01006KT 10SM CLR 07/03 A3022 810 79 0 010/06 RMK AO2 TSNO
94908KDBQ DBQ20070517012510005/17/07 01:25:31  5-MIN KDBQ 170725Z AUTO 01006KT 10SM CLR 07/03 A3022 800 79 0 010/06 RMK AO2 TSNO
94908KDBQ DBQ20070517013010305/17/07 01:30:31  5-MIN KDBQ 170730Z AUTO 01007KT 10SM SCT023 07/03 A3022 800 79 0 010/07 RMK AO2 TSNO
94908KDBQ DBQ20070517013510505/17/07 01:35:31  5-MIN KDBQ 170735Z AUTO 36006KT 10SM BKN021 07/03 A3022 800 76 100 360/06 RMK AO2 TSNO
94908KDBQ DBQ20070517014010505/17/07 01:40:31  5-MIN KDBQ 170740Z AUTO 01007KT 10SM BKN021 08/04 A3022 800 76 200 010/07 RMK AO2 TSNO
94908KDBQ DBQ20070517014510505/17/07 01:45:31  5-MIN KDBQ 170745Z AUTO 01007KT 10SM BKN021 08/04 A3023 800 76 200 010/07 RMK AO2 TSNO
94908KDBQ DBQ20070517015012205/17/07 01:50:31  5-MIN KDBQ 170750Z AUTO 02007KT 10SM OVC019 08/04 A3023 790 76 200 020/07 RMK AO2 SLP238 T00780039 TSNO
94908KDBQ DBQ20070517015512205/17/07 01:55:31  5-MIN KDBQ 170755Z AUTO 02009KT 10SM OVC019 08/04 A3023 790 73 200 010/09 RMK AO2 SLP239 T00830039 TSNO
94908KDBQ DBQ20070517020010505/17/07 02:00:31  5-MIN KDBQ 170800Z AUTO 03008KT 10SM OVC019 08/04 A3024 790 73 200 030/08 RMK AO2 TSNO
94908KDBQ DBQ20070517020510505/17/07 02:05:31  5-MIN KDBQ 170805Z AUTO 03008KT 10SM OVC019 08/04 A3024 790 76 200 030/08 RMK AO2 TSNO
94908KDBQ DBQ20070517021010505/17/07 02:10:31  5-MIN KDBQ 170810Z AUTO 03009KT 10SM BKN019 08/04 A3024 780 76 100 030/09 RMK AO2 TSNO
94908KDBQ DBQ20070517021510505/17/07 02:15:31  5-MIN KDBQ 170815Z AUTO 04008KT 10SM BKN017 07/04 A3024 790 79 100 030/08 RMK AO2 TSNO
94908KDBQ DBQ20070517022010505/17/07 02:20:31  5-MIN KDBQ 170820Z AUTO 03006KT 10SM SCT017 07/04 A3024 790 79 100 030/06 RMK AO2 TSNO
94908KDBQ DBQ20070517022510305/17/07 02:25:31  5-MIN KDBQ 170825Z AUTO 03006KT 10SM SCT017 07/04 A3024 780 82 0 030/06 RMK AO2 TSNO
94908KDBQ DBQ20070517023010305/17/07 02:30:31  5-MIN KDBQ 170830Z AUTO 03006KT 10SM FEW017 06/04 A3024 780 86 0 030/06 RMK AO2 TSNO
94908KDBQ DBQ20070517023510005/17/07 02:35:31  5-MIN KDBQ 170835Z AUTO 03005KT 10SM CLR 06/04 A3025 780 86 0 030/05 RMK AO2 TSNO
94908KDBQ DBQ20070517024010005/17/07 02:40:31  5-MIN KDBQ 170840Z AUTO 02005KT 10SM CLR 06/04 A3025 780 86 0 020/05 RMK AO2 TSNO
94908KDBQ DBQ20070517024510305/17/07 02:45:31  5-MIN KDBQ 170845Z AUTO 03006KT 10SM CLR 06/03 A3025 780 85 -100 030/06 RMK AO2 TSNO
94908KDBQ DBQ20070517025012605/17/07 02:50:31  5-MIN KDBQ 170850Z AUTO 03006KT 10SM CLR 06/03 A3025 780 85 -100 030/06 RMK AO2 SLP246 T00560033 51012 TSNO
94908KDBQ DBQ20070517025512605/17/07 02:55:31  5-MIN KDBQ 170855Z AUTO 03006KT 10SM CLR 06/03 A3025 780 85 -100 030/06 RMK AO2 SLP246 T00560033 51020 TSNO
94908KDBQ DBQ20070517030010305/17/07 03:00:31  5-MIN KDBQ 170900Z AUTO 03006KT 10SM CLR 06/03 A3025 770 85 -100 020/06 RMK AO2 TSNO
94908KDBQ DBQ20070517030510305/17/07 03:05:31  5-MIN KDBQ 170905Z AUTO 03006KT 10SM CLR 06/03 A3025 770 85 -100 030/06 RMK AO2 TSNO
94908KDBQ DBQ20070517031010305/17/07 03:10:31  5-MIN KDBQ 170910Z AUTO 03006KT 10SM CLR 06/03 A3026 770 85 -100 030/06 RMK AO2 TSNO
94908KDBQ DBQ20070517031510305/17/07 03:15:31  5-MIN KDBQ 170915Z AUTO 02005KT 10SM CLR 05/03 A3026 770 89 -200 020/05 RMK AO2 TSNO
94908KDBQ DBQ20070517032010305/17/07 03:20:31  5-MIN KDBQ 170920Z AUTO 02006KT 10SM CLR 05/03 A3026 770 85 -200 010/06 RMK AO2 TSNO
94908KDBQ DBQ20070517032510305/17/07 03:25:31  5-MIN KDBQ 170925Z AUTO 02006KT 10SM CLR 05/03 A3026 760 85 -200 020/06 RMK AO2 TSNO
94908KDBQ DBQ20070517033010305/17/07 03:30:31  5-MIN KDBQ 170930Z AUTO 01006KT 10SM CLR 05/03 A3026 760 85 -200 010/06 RMK AO2 TSNO
94908KDBQ DBQ20070517033510305/17/07 03:35:31  5-MIN KDBQ 170935Z AUTO 01006KT 10SM CLR 05/03 A3027 760 85 -200 010/06 RMK AO2 TSNO
94908KDBQ DBQ20070517034010305/17/07 03:40:31  5-MIN KDBQ 170940Z AUTO 02006KT 10SM CLR 04/03 A3027 760 89 -200 020/06 RMK AO2 TSNO
94908KDBQ DBQ20070517034510305/17/07 03:45:31  5-MIN KDBQ 170945Z AUTO 02005KT 10SM CLR 05/03 A3027 760 85 -200 010/05 RMK AO2 TSNO
94908KDBQ DBQ20070517035012005/17/07 03:50:31  5-MIN KDBQ 170950Z AUTO 02005KT 10SM CLR 04/03 A3027 760 89 -200 020/05 RMK AO2 SLP253 T00440028 TSNO
94908KDBQ DBQ20070517035512005/17/07 03:55:31  5-MIN KDBQ 170955Z AUTO 03005KT 10SM CLR 04/03 A3027 750 89 -300 020/05 RMK AO2 SLP254 T00440028 TSNO
94908KDBQ DBQ20070517040010305/17/07 04:00:31  5-MIN KDBQ 171000Z AUTO 03005KT 10SM CLR 05/03 A3027 750 85 -200 030/05 RMK AO2 TSNO
94908KDBQ DBQ20070517040510305/17/07 04:05:31  5-MIN KDBQ 171005Z AUTO 04005KT 10SM CLR 04/03 A3028 750 89 -300 040/05 RMK AO2 TSNO
94908KDBQ DBQ20070517041010305/17/07 04:10:31  5-MIN KDBQ 171010Z AUTO 04005KT 10SM CLR 04/03 A3028 750 89 -300 030/05 RMK AO2 TSNO
94908KDBQ DBQ20070517041510305/17/07 04:15:31  5-MIN KDBQ 171015Z AUTO 04005KT 10SM CLR 04/02 A3028 750 89 -300 040/05 RMK AO2 TSNO
94908KDBQ DBQ20070517042010305/17/07 04:20:31  5-MIN KDBQ 171020Z AUTO 01005KT 10SM CLR 04/02 A3028 750 89 -300 010/05 RMK AO2 TSNO
94908KDBQ DBQ20070517042510305/17/07 04:25:31  5-MIN KDBQ 171025Z AUTO 02005KT 10SM CLR 04/02 A3028 750 89 -300 020/05 RMK AO2 TSNO
94908KDBQ DBQ20070517043010305/17/07 04:30:31  5-MIN KDBQ 171030Z AUTO 02004KT 10SM CLR 04/02 A3028 740 89 -300 020/04 RMK AO2 TSNO
94908KDBQ DBQ20070517043510305/17/07 04:35:31  5-MIN KDBQ 171035Z AUTO 01004KT 10SM CLR 04/02 A3029 740 89 -300 010/04 RMK AO2 TSNO
94908KDBQ DBQ20070517044010305/17/07 04:40:31  5-MIN KDBQ 171040Z AUTO 01004KT 10SM CLR 04/03 A3029 740 89 -300 010/04 RMK AO2 TSNO
94908KDBQ DBQ20070517044510305/17/07 04:45:31  5-MIN KDBQ 171045Z AUTO 01005KT 10SM CLR 04/02 A3029 740 89 -300 360/05 RMK AO2 TSNO
94908KDBQ DBQ20070517045011005/17/07 04:50:31  5-MIN KDBQ 171050Z 36005KT 10SM CLR 04/02 A3029 740 89 -300 360/05 RMK AO2 SLP262 T00390022
94908KDBQ DBQ20070517045511005/17/07 04:55:31  5-MIN KDBQ 171055Z 36005KT 10SM CLR 04/03 A3029 730 92 -300 360/05 RMK AO2 SLP262 T00390028
94908KDBQ DBQ20070517050009305/17/07 05:00:31  5-MIN KDBQ 171100Z 35006KT 10SM CLR 04/02 A3030 730 89 -300 350/06 RMK AO2
94908KDBQ DBQ20070517050509305/17/07 05:05:31  5-MIN KDBQ 171105Z 34006KT 10SM CLR 04/02 A3030 730 89 -400 340/06 RMK AO2
94908KDBQ DBQ20070517051009305/17/07 05:10:31  5-MIN KDBQ 171110Z 34006KT 10SM CLR 04/02 A3030 730 89 -400 340/06 RMK AO2
94908KDBQ DBQ20070517051509305/17/07 05:15:31  5-MIN KDBQ 171115Z 34005KT 10SM CLR 04/03 A3030 730 92 -400 340/05 RMK AO2
94908KDBQ DBQ20070517052009305/17/07 05:20:31  5-MIN KDBQ 171120Z 35006KT 10SM CLR 04/03 A3031 720 89 -300 340/06 RMK AO2
94908KDBQ DBQ20070517052509305/17/07 05:25:31  5-MIN KDBQ 171125Z 34005KT 10SM CLR 04/03 A3031 720 89 -300 340/05 RMK AO2
94908KDBQ DBQ20070517053009305/17/07 05:30:31  5-MIN KDBQ 171130Z 35004KT 10SM CLR 05/03 A3031 720 89 -200 350/04 RMK AO2
94908KDBQ DBQ20070517053509305/17/07 05:35:31  5-MIN KDBQ 171135Z 35004KT 10SM CLR 05/03 A3031 720 89 -200 350/04 RMK AO2
94908KDBQ DBQ20070517054009305/17/07 05:40:31  5-MIN KDBQ 171140Z 36004KT 10SM CLR 06/04 A3031 720 89 -200 360/04 RMK AO2
94908KDBQ DBQ20070517054509305/17/07 05:45:31  5-MIN KDBQ 171145Z 36004KT 10SM CLR 06/04 A3031 720 86 -100 360/04 RMK AO2
94908KDBQ DBQ20070517055012805/17/07 05:50:31  5-MIN KDBQ 171150Z 36004KT 10SM CLR 06/04 A3032 710 89 -100 360/04 RMK AO2 SLP270 T00610044 10083 20033 51020
94908KDBQ DBQ20070517055512505/17/07 05:55:31  5-MIN KDBQ 171155Z 01005KT 10SM CLR 07/04 A3032 710 86 0 010/05 RMK AO2 SLP269 T00670044 10083 20033 52022
94908KDBQ DBQ20070517060009005/17/07 06:00:31  5-MIN KDBQ 171200Z 01005KT 10SM CLR 07/04 A3032 710 86 0 010/05 RMK AO2
94908KDBQ DBQ20070517060509005/17/07 06:05:31  5-MIN KDBQ 171205Z 01006KT 10SM CLR 07/04 A3032 710 86 0 360/06 RMK AO2
94908KDBQ DBQ20070517061009005/17/07 06:10:31  5-MIN KDBQ 171210Z 36006KT 10SM CLR 07/04 A3032 710 86 0 350/06 RMK AO2
94908KDBQ DBQ20070517061509005/17/07 06:15:31  5-MIN KDBQ 171215Z 36007KT 10SM CLR 07/04 A3032 710 82 0 360/07 RMK AO2
94908KDBQ DBQ20070517062009005/17/07 06:20:31  5-MIN KDBQ 171220Z 36007KT 10SM CLR 07/04 A3033 700 82 0 360/07 RMK AO2
94908KDBQ DBQ20070517062509005/17/07 06:25:31  5-MIN KDBQ 171225Z 36005KT 10SM CLR 07/04 A3033 700 82 0 360/05 RMK AO2
94908KDBQ DBQ20070517063009005/17/07 06:30:31  5-MIN KDBQ 171230Z 36005KT 10SM CLR 07/05 A3033 700 86 0 360/05 RMK AO2
94908KDBQ DBQ20070517063509005/17/07 06:35:31  5-MIN KDBQ 171235Z 36006KT 10SM CLR 08/05 A3033 700 82 0 360/06 RMK AO2
94908KDBQ DBQ20070517064009005/17/07 06:40:31  5-MIN KDBQ 171240Z 36005KT 10SM CLR 08/04 A3033 700 79 0 360/05 RMK AO2
94908KDBQ DBQ20070517064509005/17/07 06:45:31  5-MIN KDBQ 171245Z 36006KT 10SM CLR 08/05 A3033 700 82 0 360/06 RMK AO2
94908KDBQ DBQ20070517065010705/17/07 06:50:31  5-MIN KDBQ 171250Z 36006KT 10SM CLR 08/05 A3033 700 82 0 360/06 RMK AO2 SLP276 T00780050
94908KDBQ DBQ20070517065510905/17/07 06:55:31  5-MIN KDBQ 171255Z 36005KT 10SM CLR 08/05 A3034 700 79 100 360/05 RMK AO2 SLP277 T00830050
94908KDBQ DBQ20070517070009205/17/07 07:00:31  5-MIN KDBQ 171300Z 36005KT 10SM CLR 08/05 A3034 690 79 100 350/05 RMK AO2
94908KDBQ DBQ20070517070509205/17/07 07:05:31  5-MIN KDBQ 171305Z 01006KT 10SM CLR 08/05 A3034 690 79 100 010/06 RMK AO2
94908KDBQ DBQ20070517071009205/17/07 07:10:31  5-MIN KDBQ 171310Z 36009KT 10SM CLR 09/05 A3035 690 76 200 360/09 RMK AO2
94908KDBQ DBQ20070517071509205/17/07 07:15:31  5-MIN KDBQ 171315Z 01008KT 10SM CLR 09/04 A3034 690 73 200 010/08 RMK AO2
94908KDBQ DBQ20070517072009205/17/07 07:20:31  5-MIN KDBQ 171320Z 01011KT 10SM CLR 09/04 A3034 690 71 200 010/11 RMK AO2
94908KDBQ DBQ20070517072509205/17/07 07:25:31  5-MIN KDBQ 171325Z 03010KT 10SM CLR 09/04 A3034 690 71 200 030/10 RMK AO2
94908KDBQ DBQ20070517073009205/17/07 07:30:31  5-MIN KDBQ 171330Z 02010KT 10SM CLR 10/04 A3035 690 68 300 020/10 RMK AO2
94908KDBQ DBQ20070517073509205/17/07 07:35:31  5-MIN KDBQ 171335Z 01011KT 10SM CLR 10/04 A3035 690 65 300 010/11 RMK AO2
94908KDBQ DBQ20070517074009205/17/07 07:40:31  5-MIN KDBQ 171340Z 04010KT 10SM CLR 10/04 A3035 680 65 300 040/10 RMK AO2
94908KDBQ DBQ20070517074509205/17/07 07:45:31  5-MIN KDBQ 171345Z 03009KT 10SM CLR 10/04 A3035 680 65 300 030/09 RMK AO2
94908KDBQ DBQ20070517075010905/17/07 07:50:31  5-MIN KDBQ 171350Z 02009KT 10SM CLR 11/04 A3035 680 63 400 020/09 RMK AO2 SLP282 T01060039
94908KDBQ DBQ20070517075510905/17/07 07:55:31  5-MIN KDBQ 171355Z 03008KT 10SM CLR 11/04 A3035 680 63 300 030/08 RMK AO2 SLP283 T01060039
94908KDBQ DBQ20070517080009805/17/07 08:00:31  5-MIN KDBQ 171400Z 03013G17KT 10SM CLR 11/03 A3035 680 61 400 030/13G17 RMK AO2
94908KDBQ DBQ20070517080509805/17/07 08:05:31  5-MIN KDBQ 171405Z 03010G17KT 10SM CLR 11/02 A3035 680 56 300 030/10G17 RMK AO2
94908KDBQ DBQ20070517081009205/17/07 08:10:31  5-MIN KDBQ 171410Z 03011KT 10SM CLR 11/03 A3036 680 56 400 030/11 RMK AO2
94908KDBQ DBQ20070517081509205/17/07 08:15:31  5-MIN KDBQ 171415Z 03010KT 10SM CLR 11/03 A3036 680 56 400 030/10 RMK AO2
94908KDBQ DBQ20070517082009205/17/07 08:20:31  5-MIN KDBQ 171420Z 04011KT 10SM CLR 11/03 A3036 680 56 400 040/11 RMK AO2
94908KDBQ DBQ20070517082509205/17/07 08:25:31  5-MIN KDBQ 171425Z 01010KT 10SM CLR 11/03 A3036 670 56 400 010/10 RMK AO2
94908KDBQ DBQ20070517083009205/17/07 08:30:31  5-MIN KDBQ 171430Z 02011KT 10SM CLR 11/02 A3036 670 54 400 020/11 RMK AO2
94908KDBQ DBQ20070517083509205/17/07 08:35:31  5-MIN KDBQ 171435Z 01010KT 10SM CLR 12/03 A3036 670 54 500 010/10 RMK AO2
94908KDBQ DBQ20070517084009805/17/07 08:40:31  5-MIN KDBQ 171440Z 01013G19KT 10SM CLR 12/03 A3036 670 54 500 010/13G19 RMK AO2
94908KDBQ DBQ20070517084509805/17/07 08:45:31  5-MIN KDBQ 171445Z 03010G19KT 10SM CLR 12/03 A3036 680 54 500 030/10G19 RMK AO2
94908KDBQ DBQ20070517085011505/17/07 08:50:31  5-MIN KDBQ 171450Z 03011KT 10SM CLR 12/03 A3036 670 54 500 030/11 RMK AO2 SLP285 T01170028 52022
94908KDBQ DBQ20070517085512105/17/07 08:55:31  5-MIN KDBQ 171455Z 04008G15KT 10SM CLR 12/02 A3036 670 52 500 030/08G15 RMK AO2 SLP285 T01170022 51014
94908KDBQ DBQ20070517090009205/17/07 09:00:31  5-MIN KDBQ 171500Z 05009KT 10SM CLR 12/03 A3036 680 52 500 050/09 RMK AO2
94908KDBQ DBQ20070517090509805/17/07 09:05:31  5-MIN KDBQ 171505Z 01011G18KT 10SM CLR 12/02 A3036 670 50 500 010/11G18 RMK AO2
94908KDBQ DBQ20070517091009805/17/07 09:10:31  5-MIN KDBQ 171510Z 01009G18KT 10SM CLR 12/02 A3036 670 50 500 010/09G18 RMK AO2
94908KDBQ DBQ20070517091509205/17/07 09:15:31  5-MIN KDBQ 171515Z 02009KT 10SM CLR 13/02 A3036 670 48 600 020/09 RMK AO2
94908KDBQ DBQ20070517092009205/17/07 09:20:31  5-MIN KDBQ 171520Z VRB04KT 10SM CLR 13/02 A3036 670 48 600 VRB/04 RMK AO2
94908KDBQ DBQ20070517092509805/17/07 09:25:31  5-MIN KDBQ 171525Z 03009G14KT 10SM CLR 13/03 A3036 670 48 700 030/09G14 RMK AO2
94908KDBQ DBQ20070517093009205/17/07 09:30:31  5-MIN KDBQ 171530Z 02010KT 10SM CLR 13/02 A3037 670 48 600 020/10 RMK AO2
94908KDBQ DBQ20070517093509805/17/07 09:35:31  5-MIN KDBQ 171535Z 04008G14KT 10SM CLR 13/03 A3037 670 48 700 040/08G14 RMK AO2
94908KDBQ DBQ20070517094009205/17/07 09:40:31  5-MIN KDBQ 171540Z 06009KT 10SM CLR 13/02 A3037 670 46 700 060/09 RMK AO2
94908KDBQ DBQ20070517094509205/17/07 09:45:31  5-MIN KDBQ 171545Z 09010KT 10SM CLR 13/02 A3037 670 45 700 080/10 RMK AO2
94908KDBQ DBQ20070517095010905/17/07 09:50:31  5-MIN KDBQ 171550Z 03010KT 10SM CLR 14/02 A3037 670 45 700 030/10 RMK AO2 SLP288 T01390022
94908KDBQ DBQ20070517095510905/17/07 09:55:31  5-MIN KDBQ 171555Z 05011KT 10SM CLR 14/02 A3037 660 45 700 050/11 RMK AO2 SLP289 T01390022
94908KDBQ DBQ20070517100009205/17/07 10:00:31  5-MIN KDBQ 171600Z 05004KT 10SM CLR 13/02 A3037 660 46 700 050/04 RMK AO2
94908KDBQ DBQ20070517100509805/17/07 10:05:31  5-MIN KDBQ 171605Z 05009G14KT 10SM CLR 14/03 A3037 660 47 700 050/09G14 RMK AO2
94908KDBQ DBQ20070517133509305/17/07 13:35:31  5-MIN KDBQ 171935Z 06007KT 10SM CLR 17/02 A3036 670 36 1100 050/07 RMK AO2
94908KDBQ DBQ20070517134011505/17/07 13:40:31  5-MIN KDBQ 171940Z 01009G16KT 320V060 10SM CLR 16/01 A3036 680 34 1000 010/09G16 320V060 RMK AO2
94908KDBQ DBQ20070517134509905/17/07 13:45:31  5-MIN KDBQ 171945Z 06010G16KT 10SM CLR 17/01 A3036 670 34 1100 060/10G16 RMK AO2
94908KDBQ DBQ20070517135011005/17/07 13:50:31  5-MIN KDBQ 171950Z VRB04KT 10SM CLR 17/01 A3036 680 34 1100 VRB/04 RMK AO2 SLP283 T01670011
94908KDBQ DBQ20070517135511005/17/07 13:55:31  5-MIN KDBQ 171955Z VRB04KT 10SM CLR 17/01 A3035 680 33 1100 VRB/04 RMK AO2 SLP282 T01670006
94908KDBQ DBQ20070517140009905/17/07 14:00:31  5-MIN KDBQ 172000Z 09010G14KT 10SM CLR 17/00 A3036 680 32 1100 090/10G14 RMK AO2
94908KDBQ DBQ20070517140509905/17/07 14:05:31  5-MIN KDBQ 172005Z 07006G14KT 10SM CLR 17/00 A3036 680 32 1100 070/06G14 RMK AO2
94908KDBQ DBQ20070517141009305/17/07 14:10:31  5-MIN KDBQ 172010Z VRB06KT 10SM CLR 17/00 A3035 680 32 1100 VRB/06 RMK AO2
94908KDBQ DBQ20070517141511505/17/07 14:15:31  5-MIN KDBQ 172015Z 03009G14KT 340V060 10SM CLR 17/01 A3035 680 33 1100 030/09G14 340V060 RMK AO2
94908KDBQ DBQ20070517142009905/17/07 14:20:31  5-MIN KDBQ 172020Z VRB03G14KT 10SM CLR 17/01 A3035 680 34 1100 VRB/03G14 RMK AO2
94908KDBQ DBQ20070517142509305/17/07 14:25:31  5-MIN KDBQ 172025Z VRB05KT 10SM CLR 17/02 A3035 680 35 1100 VRB/05 RMK AO2
94908KDBQ DBQ20070517143009305/17/07 14:30:31  5-MIN KDBQ 172030Z 00000KT 10SM CLR 16/00 A3035 690 33 1000 000/00 RMK AO2
94908KDBQ DBQ20070517143509305/17/07 14:35:31  5-MIN KDBQ 172035Z 04008KT 10SM CLR 17/01 A3035 690 33 1100 040/08 RMK AO2
94908KDBQ DBQ20070517144009305/17/07 14:40:31  5-MIN KDBQ 172040Z VRB03KT 10SM CLR 17/00 A3034 690 31 1100 VRB/03 RMK AO2
94908KDBQ DBQ20070517144509305/17/07 14:45:31  5-MIN KDBQ 172045Z 05007KT 10SM CLR 17/01 A3034 690 32 1200 050/07 RMK AO2
94908KDBQ DBQ20070517145011705/17/07 14:50:31  5-MIN KDBQ 172050Z VRB05KT 10SM CLR 17/M01 A3034 690 31 1100 VRB/05 RMK AO2 SLP278 T01671006 51004
94908KDBQ DBQ20070517145511605/17/07 14:55:31  5-MIN KDBQ 172055Z 04008KT 10SM CLR 17/00 A3034 690 32 1100 040/08 RMK AO2 SLP278 T01670000 58010
94908KDBQ DBQ20070517150009405/17/07 15:00:31  5-MIN KDBQ 172100Z 04007KT 10SM CLR 17/M01 A3034 690 29 1200 040/07 RMK AO2
94908KDBQ DBQ20070517150509305/17/07 15:05:31  5-MIN KDBQ 172105Z 07006KT 10SM CLR 17/01 A3034 690 32 1200 070/06 RMK AO2
94908KDBQ DBQ20070517151009405/17/07 15:10:31  5-MIN KDBQ 172110Z 05004KT 10SM CLR 17/M01 A3034 700 31 1100 050/04 RMK AO2
94908KDBQ DBQ20070517151509305/17/07 15:15:31  5-MIN KDBQ 172115Z 05008KT 10SM CLR 17/01 A3033 700 32 1200 050/08 RMK AO2
94908KDBQ DBQ20070517152009305/17/07 15:20:31  5-MIN KDBQ 172120Z 03005KT 10SM CLR 17/01 A3033 700 32 1200 030/05 RMK AO2
94908KDBQ DBQ20070517152509305/17/07 15:25:31  5-MIN KDBQ 172125Z VRB03KT 10SM CLR 17/01 A3033 700 32 1200 VRB/03 RMK AO2
94908KDBQ DBQ20070517153009305/17/07 15:30:31  5-MIN KDBQ 172130Z VRB04KT 10SM CLR 17/01 A3033 700 32 1200 VRB/04 RMK AO2
94908KDBQ DBQ20070517153509305/17/07 15:35:31  5-MIN KDBQ 172135Z VRB03KT 10SM CLR 17/00 A3032 710 31 1200 VRB/03 RMK AO2
94908KDBQ DBQ20070517154009305/17/07 15:40:31  5-MIN KDBQ 172140Z 00000KT 10SM CLR 17/00 A3032 710 31 1200 000/00 RMK AO2
94908KDBQ DBQ20070517154509305/17/07 15:45:31  5-MIN KDBQ 172145Z 06003KT 10SM CLR 17/00 A3032 710 31 1200 060/03 RMK AO2
94908KDBQ DBQ20070517155011005/17/07 15:50:31  5-MIN KDBQ 172150Z 08008KT 10SM CLR 17/01 A3032 710 32 1200 070/08 RMK AO2 SLP272 T01720006
94908KDBQ DBQ20070517155511105/17/07 15:55:31  5-MIN KDBQ 172155Z 06006KT 10SM CLR 17/M01 A3032 710 31 1100 060/06 RMK AO2 SLP272 T01671006
94908KDBQ DBQ20070517160009305/17/07 16:00:31  5-MIN KDBQ 172200Z VRB03KT 10SM CLR 17/00 A3032 710 32 1100 VRB/03 RMK AO2
94908KDBQ DBQ20070517160509305/17/07 16:05:31  5-MIN KDBQ 172205Z 08008KT 10SM CLR 17/01 A3032 710 33 1200 070/08 RMK AO2
94908KDBQ DBQ20070517161009405/17/07 16:10:31  5-MIN KDBQ 172210Z 10006KT 10SM CLR 17/M01 A3032 710 29 1200 090/06 RMK AO2
94908KDBQ DBQ20070517161509405/17/07 16:15:31  5-MIN KDBQ 172215Z 00000KT 10SM CLR 17/M01 A3032 710 29 1100 000/00 RMK AO2
94908KDBQ DBQ20070517162009405/17/07 16:20:31  5-MIN KDBQ 172220Z 08005KT 10SM CLR 17/M01 A3032 710 31 1100 080/05 RMK AO2
94908KDBQ DBQ20070517162509405/17/07 16:25:31  5-MIN KDBQ 172225Z 09005KT 10SM CLR 17/M01 A3031 720 29 1200 090/05 RMK AO2
94908KDBQ DBQ20070517163009305/17/07 16:30:31  5-MIN KDBQ 172230Z 09006KT 10SM CLR 17/00 A3031 720 31 1200 090/06 RMK AO2
94908KDBQ DBQ20070517163509405/17/07 16:35:31  5-MIN KDBQ 172235Z VRB03KT 10SM CLR 17/M01 A3031 720 31 1100 VRB/03 RMK AO2
94908KDBQ DBQ20070517164009405/17/07 16:40:31  5-MIN KDBQ 172240Z 00000KT 10SM CLR 17/M01 A3032 710 29 1100 000/00 RMK AO2
94908KDBQ DBQ20070517164509305/17/07 16:45:31  5-MIN KDBQ 172245Z 00000KT 10SM CLR 17/00 A3032 710 31 1200 000/00 RMK AO2
94908KDBQ DBQ20070517165011005/17/07 16:50:31  5-MIN KDBQ 172250Z 00000KT 10SM CLR 17/01 A3032 710 33 1200 000/00 RMK AO2 SLP270 T01720011
94908KDBQ DBQ20070517165511005/17/07 16:55:31  5-MIN KDBQ 172255Z 00000KT 10SM CLR 17/00 A3031 720 32 1100 000/00 RMK AO2 SLP269 T01670000
94908KDBQ DBQ20070517170009305/17/07 17:00:31  5-MIN KDBQ 172300Z 20003KT 10SM CLR 17/00 A3031 720 32 1100 200/03 RMK AO2
94908KDBQ DBQ20070517170509305/17/07 17:05:31  5-MIN KDBQ 172305Z 00000KT 10SM CLR 17/00 A3031 720 32 1100 000/00 RMK AO2
94908KDBQ DBQ20070517171009405/17/07 17:10:31  5-MIN KDBQ 172310Z 00000KT 10SM CLR 17/M01 A3031 720 31 1100 000/00 RMK AO2
94908KDBQ DBQ20070517171509405/17/07 17:15:31  5-MIN KDBQ 172315Z 09004KT 10SM CLR 17/M01 A3031 720 29 1200 090/04 RMK AO2
94908KDBQ DBQ20070517172009405/17/07 17:20:31  5-MIN KDBQ 172320Z VRB03KT 10SM CLR 17/M01 A3031 720 29 1100 VRB/03 RMK AO2
94908KDBQ DBQ20070517172509305/17/07 17:25:31  5-MIN KDBQ 172325Z 08005KT 10SM CLR 17/01 A3031 720 33 1100 070/05 RMK AO2
94908KDBQ DBQ20070517173009405/17/07 17:30:31  5-MIN KDBQ 172330Z 09004KT 10SM CLR 17/M01 A3031 720 31 1100 090/04 RMK AO2
94908KDBQ DBQ20070517173509405/17/07 17:35:31  5-MIN KDBQ 172335Z 00000KT 10SM CLR 17/M01 A3031 720 29 1100 000/00 RMK AO2
94908KDBQ DBQ20070517174009405/17/07 17:40:31  5-MIN KDBQ 172340Z 09003KT 10SM CLR 17/M01 A3031 720 29 1100 090/03 RMK AO2
94908KDBQ DBQ20070517174509405/17/07 17:45:31  5-MIN KDBQ 172345Z 12004KT 10SM CLR 17/M01 A3030 730 31 1100 120/04 RMK AO2
94908KDBQ DBQ20070517175012905/17/07 17:50:31  5-MIN KDBQ 172350Z 10005KT 10SM CLR 17/M01 A3030 720 31 1100 100/05 RMK AO2 SLP265 T01671006 10172 20150 58010
94908KDBQ DBQ20070517175512905/17/07 17:55:31  5-MIN KDBQ 172355Z 08003KT 10SM CLR 17/M01 A3030 730 29 1100 070/03 RMK AO2 SLP264 T01671011 10172 20150 56012
94908KDBQ DBQ20070517180009405/17/07 18:00:31  5-MIN KDBQ 180000Z 04004KT 10SM CLR 17/M01 A3030 730 31 1100 040/04 RMK AO2
94908KDBQ DBQ20070517180509305/17/07 18:05:31  5-MIN KDBQ 180005Z 00000KT 10SM CLR 16/01 A3030 730 36 1100 000/00 RMK AO2
94908KDBQ DBQ20070517181009405/17/07 18:10:31  5-MIN KDBQ 180010Z 00000KT 10SM CLR 17/M01 A3031 720 31 1100 000/00 RMK AO2
94908KDBQ DBQ20070517181509405/17/07 18:15:31  5-MIN KDBQ 180015Z 10003KT 10SM CLR 16/M01 A3030 720 32 1100 100/03 RMK AO2
94908KDBQ DBQ20070517182009405/17/07 18:20:31  5-MIN KDBQ 180020Z 00000KT 10SM CLR 16/M01 A3030 720 32 1100 000/00 RMK AO2
94908KDBQ DBQ20070517182509405/17/07 18:25:31  5-MIN KDBQ 180025Z 12003KT 10SM CLR 16/M01 A3031 720 32 1100 120/03 RMK AO2
94908KDBQ DBQ20070517183009405/17/07 18:30:31  5-MIN KDBQ 180030Z 11004KT 10SM CLR 16/M01 A3031 720 33 1000 110/04 RMK AO2
94908KDBQ DBQ20070517183509405/17/07 18:35:31  5-MIN KDBQ 180035Z 10003KT 10SM CLR 16/M01 A3031 720 33 1000 100/03 RMK AO2
94908KDBQ DBQ20070517184009405/17/07 18:40:31  5-MIN KDBQ 180040Z 00000KT 10SM CLR 16/M01 A3030 720 32 1100 000/00 RMK AO2
94908KDBQ DBQ20070517184509305/17/07 18:45:31  5-MIN KDBQ 180045Z 00000KT 10SM CLR 16/00 A3030 730 34 1000 000/00 RMK AO2
94908KDBQ DBQ20070517185011005/17/07 18:50:31  5-MIN KDBQ 180050Z 00000KT 10SM CLR 16/00 A3030 730 34 1000 000/00 RMK AO2 SLP265 T01560000
94908KDBQ DBQ20070517185510905/17/07 18:55:31  5-MIN KDBQ 180055Z 00000KT 10SM CLR 15/01 A3030 730 37 900 000/00 RMK AO2 SLP264 T01500006
94908KDBQ DBQ20070517190009205/17/07 19:00:31  5-MIN KDBQ 180100Z 14003KT 10SM CLR 15/01 A3030 730 37 900 140/03 RMK AO2
94908KDBQ DBQ20070517190509205/17/07 19:05:31  5-MIN KDBQ 180105Z 15003KT 10SM CLR 14/01 A3030 730 38 900 140/03 RMK AO2
94908KDBQ DBQ20070517191009205/17/07 19:10:31  5-MIN KDBQ 180110Z 15003KT 10SM CLR 14/01 A3030 730 38 900 150/03 RMK AO2
94908KDBQ DBQ20070517191509205/17/07 19:15:31  5-MIN KDBQ 180115Z 14003KT 10SM CLR 14/01 A3030 730 38 900 140/03 RMK AO2
94908KDBQ DBQ20070517192009205/17/07 19:20:31  5-MIN KDBQ 180120Z 14003KT 10SM CLR 14/01 A3030 730 40 800 140/03 RMK AO2
94908KDBQ DBQ20070517192509205/17/07 19:25:31  5-MIN KDBQ 180125Z 14003KT 10SM CLR 13/01 A3030 730 41 700 140/03 RMK AO2
94908KDBQ DBQ20070517193009205/17/07 19:30:31  5-MIN KDBQ 180130Z 14003KT 10SM CLR 13/00 A3030 730 41 700 140/03 RMK AO2
94908KDBQ DBQ20070517193509205/17/07 19:35:31  5-MIN KDBQ 180135Z 15003KT 10SM CLR 13/00 A3030 730 41 700 150/03 RMK AO2
94908KDBQ DBQ20070517194009205/17/07 19:40:31  5-MIN KDBQ 180140Z 15003KT 10SM CLR 12/00 A3030 730 43 600 150/03 RMK AO2
94908KDBQ DBQ20070517194509205/17/07 19:45:31  5-MIN KDBQ 180145Z 15003KT 10SM CLR 12/00 A3030 730 43 600 150/03 RMK AO2
94908KDBQ DBQ20070517195010905/17/07 19:50:31  5-MIN KDBQ 180150Z 00000KT 10SM CLR 12/01 A3030 730 46 500 000/00 RMK AO2 SLP263 T01170006
94908KDBQ DBQ20070517195510905/17/07 19:55:31  5-MIN KDBQ 180155Z 00000KT 10SM CLR 11/01 A3030 730 50 400 000/00 RMK AO2 SLP263 T01060006
94908KDBQ DBQ20070517200009205/17/07 20:00:31  5-MIN KDBQ 180200Z 00000KT 10SM CLR 11/01 A3030 730 48 500 000/00 RMK AO2
94908KDBQ DBQ20070517200509205/17/07 20:05:31  5-MIN KDBQ 180205Z 00000KT 10SM CLR 11/01 A3030 730 50 400 000/00 RMK AO2
94908KDBQ DBQ20070517201009205/17/07 20:10:31  5-MIN KDBQ 180210Z 00000KT 10SM CLR 11/01 A3030 730 50 400 000/00 RMK AO2
94908KDBQ DBQ20070517201509205/17/07 20:15:31  5-MIN KDBQ 180215Z 00000KT 10SM CLR 10/00 A3031 720 49 300 000/00 RMK AO2
94908KDBQ DBQ20070517202009205/17/07 20:20:31  5-MIN KDBQ 180220Z 00000KT 10SM CLR 10/00 A3031 720 49 300 000/00 RMK AO2
94908KDBQ DBQ20070517202509205/17/07 20:25:31  5-MIN KDBQ 180225Z 00000KT 10SM CLR 10/00 A3031 720 49 300 000/00 RMK AO2
94908KDBQ DBQ20070517203009205/17/07 20:30:31  5-MIN KDBQ 180230Z 00000KT 10SM CLR 11/00 A3031 720 48 400 000/00 RMK AO2
94908KDBQ DBQ20070517203509205/17/07 20:35:31  5-MIN KDBQ 180235Z 00000KT 10SM CLR 11/00 A3031 720 48 400 000/00 RMK AO2
94908KDBQ DBQ20070517204009205/17/07 20:40:31  5-MIN KDBQ 180240Z 00000KT 10SM CLR 11/00 A3031 720 48 400 000/00 RMK AO2
94908KDBQ DBQ20070517204509205/17/07 20:45:31  5-MIN KDBQ 180245Z 00000KT 10SM CLR 11/00 A3031 720 48 400 000/00 RMK AO2
94908KDBQ DBQ20070517205011505/17/07 20:50:31  5-MIN KDBQ 180250Z 00000KT 10SM CLR 10/00 A3031 720 49 300 000/00 RMK AO2 SLP267 T01000000 56012
94908KDBQ DBQ20070517205511505/17/07 20:55:31  5-MIN KDBQ 180255Z 00000KT 10SM CLR 09/00 A3031 720 51 300 000/00 RMK AO2 SLP268 T00940000 53003
94908KDBQ DBQ20070517210009205/17/07 21:00:31  5-MIN KDBQ 180300Z 00000KT 10SM CLR 09/00 A3031 720 51 300 000/00 RMK AO2
94908KDBQ DBQ20070517210509205/17/07 21:05:31  5-MIN KDBQ 180305Z 00000KT 10SM CLR 09/01 A3031 720 53 300 000/00 RMK AO2
94908KDBQ DBQ20070517211009205/17/07 21:10:31  5-MIN KDBQ 180310Z 00000KT 10SM CLR 10/01 A3031 720 52 300 000/00 RMK AO2
94908KDBQ DBQ20070517211509705/17/07 21:15:31  5-MIN KDBQ 180315Z AUTO 00000KT 10SM CLR 09/00 A3031 720 53 200 000/00 RMK AO2
94908KDBQ DBQ20070517212010205/17/07 21:20:31  5-MIN KDBQ 180320Z AUTO 00000KT 10SM CLR 09/00 A3031 720 51 300 000/00 RMK AO2 TSNO
94908KDBQ DBQ20070517212510205/17/07 21:25:31  5-MIN KDBQ 180325Z AUTO 00000KT 10SM CLR 09/00 A3032 710 53 200 000/00 RMK AO2 TSNO
94908KDBQ DBQ20070517213010205/17/07 21:30:31  5-MIN KDBQ 180330Z AUTO 00000KT 10SM CLR 09/00 A3032 710 51 300 000/00 RMK AO2 TSNO
94908KDBQ DBQ20070517213510205/17/07 21:35:31  5-MIN KDBQ 180335Z AUTO 00000KT 10SM CLR 09/00 A3032 710 51 300 000/00 RMK AO2 TSNO
94908KDBQ DBQ20070517214010205/17/07 21:40:31  5-MIN KDBQ 180340Z AUTO 00000KT 10SM CLR 09/00 A3032 710 51 300 000/00 RMK AO2 TSNO
94908KDBQ DBQ20070517214510205/17/07 21:45:31  5-MIN KDBQ 180345Z AUTO 00000KT 10SM CLR 09/00 A3032 710 53 200 000/00 RMK AO2 TSNO
94908KDBQ DBQ20070517215011905/17/07 21:50:31  5-MIN KDBQ 180350Z AUTO 00000KT 10SM CLR 09/00 A3032 710 53 200 000/00 RMK AO2 SLP269 T00890000 TSNO
94908KDBQ DBQ20070517215511905/17/07 21:55:31  5-MIN KDBQ 180355Z AUTO 00000KT 10SM CLR 09/00 A3032 710 51 300 000/00 RMK AO2 SLP269 T00940000 TSNO
94908KDBQ DBQ20070517220010205/17/07 22:00:31  5-MIN KDBQ 180400Z AUTO 00000KT 10SM CLR 09/00 A3032 710 53 200 000/00 RMK AO2 TSNO
94908KDBQ DBQ20070517220510205/17/07 22:05:31  5-MIN KDBQ 180405Z AUTO 00000KT 10SM CLR 08/00 A3032 710 55 100 000/00 RMK AO2 TSNO
94908KDBQ DBQ20070517221010205/17/07 22:10:31  5-MIN KDBQ 180410Z AUTO 00000KT 10SM CLR 08/00 A3032 710 55 100 000/00 RMK AO2 TSNO
94908KDBQ DBQ20070517221510205/17/07 22:15:31  5-MIN KDBQ 180415Z AUTO 00000KT 10SM CLR 08/00 A3032 710 55 100 000/00 RMK AO2 TSNO
94908KDBQ DBQ20070517222010205/17/07 22:20:31  5-MIN KDBQ 180420Z AUTO 00000KT 10SM CLR 08/00 A3032 710 55 100 000/00 RMK AO2 TSNO
94908KDBQ DBQ20070517222510205/17/07 22:25:31  5-MIN KDBQ 180425Z AUTO 00000KT 10SM CLR 08/00 A3032 710 55 100 000/00 RMK AO2 TSNO
94908KDBQ DBQ20070517223010205/17/07 22:30:31  5-MIN KDBQ 180430Z AUTO 00000KT 10SM CLR 08/00 A3032 710 58 100 000/00 RMK AO2 TSNO
94908KDBQ DBQ20070517223510005/17/07 22:35:31  5-MIN KDBQ 180435Z AUTO 00000KT 10SM CLR 07/00 A3032 710 62 0 000/00 RMK AO2 TSNO
94908KDBQ DBQ20070517224010205/17/07 22:40:31  5-MIN KDBQ 180440Z AUTO 00000KT 10SM CLR 08/00 A3032 710 58 100 000/00 RMK AO2 TSNO
94908KDBQ DBQ20070517224510205/17/07 22:45:31  5-MIN KDBQ 180445Z AUTO 00000KT 10SM CLR 08/00 A3032 710 55 100 000/00 RMK AO2 TSNO
94908KDBQ DBQ20070517225011905/17/07 22:50:31  5-MIN KDBQ 180450Z AUTO 00000KT 10SM CLR 09/00 A3032 710 53 200 000/00 RMK AO2 SLP270 T00890000 TSNO
94908KDBQ DBQ20070517225511905/17/07 22:55:31  5-MIN KDBQ 180455Z AUTO 00000KT 10SM CLR 08/00 A3032 710 55 100 000/00 RMK AO2 SLP270 T00830000 TSNO
94908KDBQ DBQ20070517230010005/17/07 23:00:31  5-MIN KDBQ 180500Z AUTO 00000KT 10SM CLR 07/00 A3032 710 60 0 000/00 RMK AO2 TSNO
94908KDBQ DBQ20070517230510205/17/07 23:05:31  5-MIN KDBQ 180505Z AUTO 00000KT 10SM CLR 08/00 A3032 710 58 100 000/00 RMK AO2 TSNO
94908KDBQ DBQ20070517231010205/17/07 23:10:31  5-MIN KDBQ 180510Z AUTO 00000KT 10SM CLR 08/00 A3032 710 58 100 000/00 RMK AO2 TSNO
94908KDBQ DBQ20070517231510205/17/07 23:15:31  5-MIN KDBQ 180515Z AUTO 00000KT 10SM CLR 08/00 A3032 710 58 100 000/00 RMK AO2 TSNO
94908KDBQ DBQ20070517232010205/17/07 23:20:31  5-MIN KDBQ 180520Z AUTO 00000KT 10SM CLR 08/00 A3032 710 55 100 000/00 RMK AO2 TSNO
94908KDBQ DBQ20070517232510105/17/07 23:25:31  5-MIN KDBQ 180525Z AUTO 00000KT 10SM CLR 08/M01 A3032 710 55 0 000/00 RMK AO2 TSNO
94908KDBQ DBQ20070517233010105/17/07 23:30:31  5-MIN KDBQ 180530Z AUTO 00000KT 10SM CLR 08/M01 A3032 710 55 0 000/00 RMK AO2 TSNO
94908KDBQ DBQ20070517233510305/17/07 23:35:31  5-MIN KDBQ 180535Z AUTO 00000KT 10SM CLR 08/M01 A3032 710 53 100 000/00 RMK AO2 TSNO
94908KDBQ DBQ20070517234010105/17/07 23:40:31  5-MIN KDBQ 180540Z AUTO 00000KT 10SM CLR 08/M01 A3032 710 55 0 000/00 RMK AO2 TSNO
94908KDBQ DBQ20070517234510105/17/07 23:45:31  5-MIN KDBQ 180545Z AUTO 00000KT 10SM CLR 08/M01 A3032 710 55 0 000/00 RMK AO2 TSNO
94908KDBQ DBQ20070517235014605/17/07 23:50:31  5-MIN KDBQ 180550Z AUTO 00000KT 10SM CLR 07/M01 A3032 710 60 0 000/00 RMK AO2 SLP272 T00671006 10167 20067 401720033 53003 TSNO
94908KDBQ DBQ20070517235514605/17/07 23:55:31  5-MIN KDBQ 180555Z AUTO 00000KT 10SM CLR 07/M01 A3032 710 60 0 000/00 RMK AO2 SLP272 T00671006 10167 20067 401720033 51004 TSNO
94908KDBQ DBQ20070518000010405/18/07 00:00:38  5-MIN KDBQ 180600Z AUTO 00000KT 10SM CLR 06/M01 A3032 710 62 -100 000/00 RMK AO2 TSNO
94908KDBQ DBQ20070518000510105/18/07 00:05:31  5-MIN KDBQ 180605Z AUTO 00000KT 10SM CLR 07/M01 A3032 710 60 0 000/00 RMK AO2 TSNO
94908KDBQ DBQ20070518001010105/18/07 00:10:31  5-MIN KDBQ 180610Z AUTO 00000KT 10SM CLR 07/M01 A3032 710 57 0 000/00 RMK AO2 TSNO
94908KDBQ DBQ20070518001510105/18/07 00:15:31  5-MIN KDBQ 180615Z AUTO 00000KT 10SM CLR 07/M01 A3032 710 57 0 000/00 RMK AO2 TSNO
94908KDBQ DBQ20070518002010405/18/07 00:20:31  5-MIN KDBQ 180620Z AUTO 00000KT 10SM CLR 06/M01 A3032 710 62 -100 000/00 RMK AO2 TSNO
94908KDBQ DBQ20070518002510405/18/07 00:25:31  5-MIN KDBQ 180625Z AUTO 00000KT 10SM CLR 06/M01 A3032 710 62 -100 000/00 RMK AO2 TSNO
94908KDBQ DBQ20070518003010405/18/07 00:30:31  5-MIN KDBQ 180630Z AUTO 18003KT 10SM CLR 06/M01 A3032 710 65 -200 180/03 RMK AO2 TSNO
94908KDBQ DBQ20070518003510105/18/07 00:35:31  5-MIN KDBQ 180635Z AUTO 19004KT 10SM CLR 07/M01 A3032 710 60 0 190/04 RMK AO2 TSNO
94908KDBQ DBQ20070518004010405/18/07 00:40:31  5-MIN KDBQ 180640Z AUTO 19003KT 10SM CLR 06/M01 A3032 720 65 -200 190/03 RMK AO2 TSNO
94908KDBQ DBQ20070518004510405/18/07 00:45:31  5-MIN KDBQ 180645Z AUTO 00000KT 10SM CLR 05/M01 A3032 710 67 -200 000/00 RMK AO2 TSNO
94908KDBQ DBQ20070518005012105/18/07 00:50:31  5-MIN KDBQ 180650Z AUTO 00000KT 10SM CLR 06/M01 A3032 710 65 -200 000/00 RMK AO2 SLP269 T00561006 TSNO
94908KDBQ DBQ20070518005512105/18/07 00:55:31  5-MIN KDBQ 180655Z AUTO 00000KT 10SM CLR 06/M01 A3031 720 65 -200 000/00 RMK AO2 SLP269 T00561006 TSNO
94908KDBQ DBQ20070518010010405/18/07 01:00:31  5-MIN KDBQ 180700Z AUTO 00000KT 10SM CLR 06/M01 A3031 720 62 -100 000/00 RMK AO2 TSNO
94908KDBQ DBQ20070518010510405/18/07 01:05:31  5-MIN KDBQ 180705Z AUTO 00000KT 10SM CLR 06/M01 A3032 710 62 -100 000/00 RMK AO2 TSNO
94908KDBQ DBQ20070518011010405/18/07 01:10:31  5-MIN KDBQ 180710Z AUTO 00000KT 10SM CLR 06/M01 A3032 710 62 -100 000/00 RMK AO2 TSNO
94908KDBQ DBQ20070518011510105/18/07 01:15:31  5-MIN KDBQ 180715Z AUTO 00000KT 10SM CLR 07/M01 A3032 710 60 0 000/00 RMK AO2 TSNO
94908KDBQ DBQ20070518012010105/18/07 01:20:31  5-MIN KDBQ 180720Z AUTO 00000KT 10SM CLR 07/M01 A3032 710 60 0 000/00 RMK AO2 TSNO
94908KDBQ DBQ20070518012510405/18/07 01:25:31  5-MIN KDBQ 180725Z AUTO 00000KT 10SM CLR 06/M01 A3031 720 62 -100 000/00 RMK AO2 TSNO
94908KDBQ DBQ20070518013010405/18/07 01:30:31  5-MIN KDBQ 180730Z AUTO 00000KT 10SM CLR 06/M01 A3032 710 62 -100 000/00 RMK AO2 TSNO
94908KDBQ DBQ20070518013510405/18/07 01:35:31  5-MIN KDBQ 180735Z AUTO 00000KT 10SM CLR 05/M01 A3032 720 67 -200 000/00 RMK AO2 TSNO
94908KDBQ DBQ20070518014010405/18/07 01:40:31  5-MIN KDBQ 180740Z AUTO 00000KT 10SM CLR 06/M01 A3032 710 65 -200 000/00 RMK AO2 TSNO
94908KDBQ DBQ20070518014510405/18/07 01:45:31  5-MIN KDBQ 180745Z AUTO 00000KT 10SM CLR 06/M01 A3032 710 65 -200 000/00 RMK AO2 TSNO
94908KDBQ DBQ20070518015012105/18/07 01:50:31  5-MIN KDBQ 180750Z AUTO 00000KT 10SM CLR 06/M01 A3032 710 65 -200 000/00 RMK AO2 SLP270 T00561006 TSNO
94908KDBQ DBQ20070518015512105/18/07 01:55:31  5-MIN KDBQ 180755Z AUTO 00000KT 10SM CLR 06/M01 A3031 720 65 -200 000/00 RMK AO2 SLP269 T00561006 TSNO
94908KDBQ DBQ20070518020010405/18/07 02:00:31  5-MIN KDBQ 180800Z AUTO 00000KT 10SM CLR 06/M01 A3031 720 65 -200 000/00 RMK AO2 TSNO
94908KDBQ DBQ20070518020510405/18/07 02:05:31  5-MIN KDBQ 180805Z AUTO 00000KT 10SM CLR 06/M01 A3032 710 65 -200 000/00 RMK AO2 TSNO
94908KDBQ DBQ20070518021010405/18/07 02:10:31  5-MIN KDBQ 180810Z AUTO 00000KT 10SM CLR 06/M01 A3032 710 65 -200 000/00 RMK AO2 TSNO
94908KDBQ DBQ20070518021510405/18/07 02:15:31  5-MIN KDBQ 180815Z AUTO 00000KT 10SM CLR 06/M01 A3032 710 65 -200 000/00 RMK AO2 TSNO
94908KDBQ DBQ20070518022010405/18/07 02:20:31  5-MIN KDBQ 180820Z AUTO 17003KT 10SM CLR 06/M01 A3032 710 65 -200 170/03 RMK AO2 TSNO
94908KDBQ DBQ20070518022510405/18/07 02:25:31  5-MIN KDBQ 180825Z AUTO 00000KT 10SM CLR 04/M01 A3032 710 67 -300 000/00 RMK AO2 TSNO
94908KDBQ DBQ20070518023010405/18/07 02:30:31  5-MIN KDBQ 180830Z AUTO 00000KT 10SM CLR 04/M01 A3032 710 70 -300 000/00 RMK AO2 TSNO
94908KDBQ DBQ20070518023510405/18/07 02:35:31  5-MIN KDBQ 180835Z AUTO 00000KT 10SM CLR 04/M01 A3032 710 70 -300 000/00 RMK AO2 TSNO
94908KDBQ DBQ20070518024010405/18/07 02:40:31  5-MIN KDBQ 180840Z AUTO 18003KT 10SM CLR 04/M01 A3032 710 67 -300 180/03 RMK AO2 TSNO
94908KDBQ DBQ20070518024510405/18/07 02:45:31  5-MIN KDBQ 180845Z AUTO 00000KT 10SM CLR 04/M01 A3032 720 67 -300 000/00 RMK AO2 TSNO
94908KDBQ DBQ20070518025012705/18/07 02:50:31  5-MIN KDBQ 180850Z AUTO 17003KT 10SM CLR 05/M01 A3031 720 64 -200 170/03 RMK AO2 SLP269 T00501011 51004 TSNO
94908KDBQ DBQ20070518025512705/18/07 02:55:31  5-MIN KDBQ 180855Z AUTO 00000KT 10SM CLR 05/M01 A3032 710 64 -200 000/00 RMK AO2 SLP270 T00501011 55003 TSNO
94908KDBQ DBQ20070518030010405/18/07 03:00:31  5-MIN KDBQ 180900Z AUTO 00000KT 10SM CLR 06/M01 A3031 720 62 -200 000/00 RMK AO2 TSNO
94908KDBQ DBQ20070518030510405/18/07 03:05:31  5-MIN KDBQ 180905Z AUTO 18003KT 10SM CLR 06/M01 A3031 720 60 -100 180/03 RMK AO2 TSNO
94908KDBQ DBQ20070518031010405/18/07 03:10:31  5-MIN KDBQ 180910Z AUTO 00000KT 10SM CLR 06/M01 A3031 720 62 -200 000/00 RMK AO2 TSNO
94908KDBQ DBQ20070518031510405/18/07 03:15:31  5-MIN KDBQ 180915Z AUTO 00000KT 10SM CLR 06/M01 A3031 720 62 -200 000/00 RMK AO2 TSNO
94908KDBQ DBQ20070518032010405/18/07 03:20:31  5-MIN KDBQ 180920Z AUTO 00000KT 10SM CLR 05/M01 A3031 720 64 -200 000/00 RMK AO2 TSNO
94908KDBQ DBQ20070518032510405/18/07 03:25:31  5-MIN KDBQ 180925Z AUTO 00000KT 10SM CLR 06/M01 A3031 720 62 -200 000/00 RMK AO2 TSNO
94908KDBQ DBQ20070518033010405/18/07 03:30:31  5-MIN KDBQ 180930Z AUTO 18003KT 10SM CLR 06/M01 A3031 720 60 -100 180/03 RMK AO2 TSNO
94908KDBQ DBQ20070518033510405/18/07 03:35:31  5-MIN KDBQ 180935Z AUTO 20004KT 10SM CLR 06/M01 A3031 720 62 -200 200/04 RMK AO2 TSNO
94908KDBQ DBQ20070518034010405/18/07 03:40:31  5-MIN KDBQ 180940Z AUTO 20004KT 10SM CLR 05/M01 A3031 720 64 -200 200/04 RMK AO2 TSNO
94908KDBQ DBQ20070518034510405/18/07 03:45:31  5-MIN KDBQ 180945Z AUTO 19004KT 10SM CLR 04/M01 A3032 710 67 -300 190/04 RMK AO2 TSNO
94908KDBQ DBQ20070518035012105/18/07 03:50:31  5-MIN KDBQ 180950Z AUTO 19003KT 10SM CLR 04/M01 A3032 710 70 -400 190/03 RMK AO2 SLP270 T00391011 TSNO
94908KDBQ DBQ20070518035512105/18/07 03:55:31  5-MIN KDBQ 180955Z AUTO 19003KT 10SM CLR 04/M01 A3032 710 67 -300 190/03 RMK AO2 SLP270 T00441011 TSNO
94908KDBQ DBQ20070518040010405/18/07 04:00:31  5-MIN KDBQ 181000Z AUTO 19003KT 10SM CLR 04/M01 A3032 710 67 -300 190/03 RMK AO2 TSNO
94908KDBQ DBQ20070518040510405/18/07 04:05:31  5-MIN KDBQ 181005Z AUTO 19003KT 10SM CLR 05/M01 A3032 710 64 -200 190/03 RMK AO2 TSNO
94908KDBQ DBQ20070518041010405/18/07 04:10:31  5-MIN KDBQ 181010Z AUTO 19005KT 10SM CLR 05/M01 A3032 710 64 -200 190/05 RMK AO2 TSNO
94908KDBQ DBQ20070518041510405/18/07 04:15:31  5-MIN KDBQ 181015Z AUTO 18004KT 10SM CLR 05/M01 A3031 720 64 -200 180/04 RMK AO2 TSNO
94908KDBQ DBQ20070518042010405/18/07 04:20:31  5-MIN KDBQ 181020Z AUTO 18005KT 10SM CLR 06/M01 A3031 720 60 -100 180/05 RMK AO2 TSNO
94908KDBQ DBQ20070518042510405/18/07 04:25:31  5-MIN KDBQ 181025Z AUTO 19004KT 10SM CLR 05/M01 A3031 720 64 -200 190/04 RMK AO2 TSNO
94908KDBQ DBQ20070518043010405/18/07 04:30:31  5-MIN KDBQ 181030Z AUTO 20003KT 10SM CLR 05/M01 A3031 720 64 -200 200/03 RMK AO2 TSNO
94908KDBQ DBQ20070518043510405/18/07 04:35:31  5-MIN KDBQ 181035Z AUTO 21003KT 10SM CLR 04/M01 A3031 720 67 -300 210/03 RMK AO2 TSNO
94908KDBQ DBQ20070518044010405/18/07 04:40:31  5-MIN KDBQ 181040Z AUTO 19003KT 10SM CLR 04/M01 A3032 710 67 -300 190/03 RMK AO2 TSNO
94908KDBQ DBQ20070518044510405/18/07 04:45:31  5-MIN KDBQ 181045Z AUTO 00000KT 10SM CLR 06/M01 A3032 720 62 -200 000/00 RMK AO2 TSNO
94908KDBQ DBQ20070518045012105/18/07 04:50:31  5-MIN KDBQ 181050Z AUTO 22003KT 10SM CLR 06/M01 A3032 710 62 -200 220/03 RMK AO2 SLP269 T00561011 TSNO
94908KDBQ DBQ20070518045511605/18/07 04:55:31  5-MIN KDBQ 181055Z 21003KT 10SM CLR 05/M01 A3032 710 64 -200 210/03 RMK AO2 SLP270 T00501011 TSNO
94908KDBQ DBQ20070518050009405/18/07 05:00:31  5-MIN KDBQ 181100Z 21003KT 10SM CLR 04/M01 A3032 710 67 -300 210/03 RMK AO2
94908KDBQ DBQ20070518050509405/18/07 05:05:31  5-MIN KDBQ 181105Z 20003KT 10SM CLR 04/M01 A3032 710 67 -300 200/03 RMK AO2
94908KDBQ DBQ20070518051009405/18/07 05:10:31  5-MIN KDBQ 181110Z 00000KT 10SM CLR 05/M01 A3032 710 64 -200 000/00 RMK AO2
94908KDBQ DBQ20070518051509405/18/07 05:15:31  5-MIN KDBQ 181115Z 17004KT 10SM CLR 06/M01 A3031 720 62 -200 170/04 RMK AO2
94908KDBQ DBQ20070518052009405/18/07 05:20:31  5-MIN KDBQ 181120Z 17005KT 10SM CLR 06/M01 A3032 720 65 -200 170/05 RMK AO2
94908KDBQ DBQ20070518052509405/18/07 05:25:31  5-MIN KDBQ 181125Z 18005KT 10SM CLR 05/M01 A3032 710 67 -200 170/05 RMK AO2
94908KDBQ DBQ20070518053009305/18/07 05:30:31  5-MIN KDBQ 181130Z 18005KT 10SM CLR 06/00 A3032 710 67 -200 170/05 RMK AO2
94908KDBQ DBQ20070518053509305/18/07 05:35:31  5-MIN KDBQ 181135Z 18005KT 10SM CLR 06/00 A3031 720 67 -200 180/05 RMK AO2
94908KDBQ DBQ20070518054009305/18/07 05:40:31  5-MIN KDBQ 181140Z 19005KT 10SM CLR 06/01 A3032 710 70 -200 190/05 RMK AO2
94908KDBQ DBQ20070518054509305/18/07 05:45:31  5-MIN KDBQ 181145Z 19004KT 10SM CLR 06/01 A3032 710 67 -100 190/04 RMK AO2
94908KDBQ DBQ20070518055012805/18/07 05:50:31  5-MIN KDBQ 181150Z 18004KT 10SM CLR 06/01 A3032 710 70 -100 180/04 RMK AO2 SLP269 T00610011 10072 20039 55003
94908KDBQ DBQ20070518055512505/18/07 05:55:31  5-MIN KDBQ 181155Z 19005KT 10SM CLR 07/02 A3032 710 70 0 190/05 RMK AO2 SLP270 T00670017 10072 20039 53001
94908KDBQ DBQ20070518060009005/18/07 06:00:31  5-MIN KDBQ 181200Z 19006KT 10SM CLR 07/02 A3032 710 70 0 190/06 RMK AO2
94908KDBQ DBQ20070518060509205/18/07 06:05:31  5-MIN KDBQ 181205Z 20006KT 10SM CLR 08/02 A3032 710 68 100 190/06 RMK AO2
94908KDBQ DBQ20070518061009205/18/07 06:10:31  5-MIN KDBQ 181210Z 20007KT 10SM CLR 08/03 A3032 710 68 100 190/07 RMK AO2
94908KDBQ DBQ20070518061509205/18/07 06:15:31  5-MIN KDBQ 181215Z 20006KT 10SM CLR 08/03 A3032 710 68 100 200/06 RMK AO2
94908KDBQ DBQ20070518062009205/18/07 06:20:31  5-MIN KDBQ 181220Z 20007KT 10SM CLR 09/03 A3032 710 68 200 200/07 RMK AO2
94908KDBQ DBQ20070518062509205/18/07 06:25:31  5-MIN KDBQ 181225Z 20007KT 10SM CLR 09/03 A3032 710 68 200 200/07 RMK AO2
94908KDBQ DBQ20070518063009205/18/07 06:30:31  5-MIN KDBQ 181230Z 20007KT 10SM CLR 09/03 A3032 710 68 200 200/07 RMK AO2
94908KDBQ DBQ20070518063509205/18/07 06:35:31  5-MIN KDBQ 181235Z 20008KT 10SM CLR 09/03 A3032 710 65 300 200/08 RMK AO2
94908KDBQ DBQ20070518064009205/18/07 06:40:31  5-MIN KDBQ 181240Z 20007KT 10SM CLR 09/03 A3032 710 65 300 200/07 RMK AO2
94908KDBQ DBQ20070518064508205/18/07 06:45:31  5-MIN KDBQ 181245Z 10SM CLR 10/03 A3032 710 63 300 M /M RMK AO2
94908KDBQ DBQ20070518065010105/18/07 06:50:31  5-MIN KDBQ 181250Z 10SM CLR 11/04 A3032 710 63 400 M /M RMK AO2 SLP269 T01060039 $
94908KDBQ DBQ20070518065510105/18/07 06:55:31  5-MIN KDBQ 181255Z 10SM CLR 11/04 A3032 710 63 400 M /M RMK AO2 SLP269 T01060039 $
94908KDBQ DBQ20070518070008405/18/07 07:00:31  5-MIN KDBQ 181300Z 10SM CLR 11/04 A3032 710 63 400 M /M RMK AO2 $
94908KDBQ DBQ20070518070509405/18/07 07:05:31  5-MIN KDBQ 181305Z 22009KT 10SM CLR 11/04 A3031 720 63 400 220/09 RMK AO2 $
94908KDBQ DBQ20070518071009405/18/07 07:10:31  5-MIN KDBQ 181310Z 22009KT 10SM CLR 11/04 A3031 720 61 500 220/09 RMK AO2 $
94908KDBQ DBQ20070518071509405/18/07 07:15:31  5-MIN KDBQ 181315Z 21011KT 10SM CLR 11/03 A3031 720 58 500 210/11 RMK AO2 $
94908KDBQ DBQ20070518072009405/18/07 07:20:31  5-MIN KDBQ 181320Z 21011KT 10SM CLR 12/04 A3032 710 58 500 210/11 RMK AO2 $
94908KDBQ DBQ20070518072509405/18/07 07:25:31  5-MIN KDBQ 181325Z 21011KT 10SM CLR 12/03 A3032 710 56 500 210/11 RMK AO2 $
94908KDBQ DBQ20070518073009405/18/07 07:30:31  5-MIN KDBQ 181330Z 21008KT 10SM CLR 12/04 A3032 710 58 500 210/08 RMK AO2 $
94908KDBQ DBQ20070518073509405/18/07 07:35:31  5-MIN KDBQ 181335Z 22008KT 10SM CLR 12/04 A3032 710 56 600 220/08 RMK AO2 $
94908KDBQ DBQ20070518074009405/18/07 07:40:31  5-MIN KDBQ 181340Z 22009KT 10SM CLR 12/04 A3032 710 59 600 220/09 RMK AO2 $
94908KDBQ DBQ20070518074509405/18/07 07:45:31  5-MIN KDBQ 181345Z 22011KT 10SM CLR 12/04 A3032 710 59 600 220/11 RMK AO2 $
94908KDBQ DBQ20070518075011105/18/07 07:50:31  5-MIN KDBQ 181350Z 21012KT 10SM CLR 13/04 A3032 710 54 700 210/12 RMK AO2 SLP270 T01280039 $
94908KDBQ DBQ20070518103509505/18/07 10:35:31  5-MIN KDBQ 181635Z 21013KT 10SM CLR 18/01 A3029 740 32 1300 210/13 RMK AO2 $
94908KDBQ DBQ20070518104010105/18/07 10:40:31  5-MIN KDBQ 181640Z 21014G20KT 10SM CLR 18/02 A3029 740 35 1300 210/14G20 RMK AO2 $
94908KDBQ DBQ20070518104510105/18/07 10:45:31  5-MIN KDBQ 181645Z 20014G21KT 10SM CLR 18/02 A3029 740 35 1300 200/14G21 RMK AO2 $
94908KDBQ DBQ20070518105011805/18/07 10:50:31  5-MIN KDBQ 181650Z 20013G21KT 10SM CLR 18/02 A3028 740 32 1300 200/13G21 RMK AO2 SLP257 T01830017 $
94908KDBQ DBQ20070518105511805/18/07 10:55:31  5-MIN KDBQ 181655Z 19013G20KT 10SM CLR 18/02 A3029 740 34 1300 190/13G20 RMK AO2 SLP257 T01830022 $
94908KDBQ DBQ20070518110009505/18/07 11:00:31  5-MIN KDBQ 181700Z 23014KT 10SM CLR 18/02 A3028 740 32 1300 230/14 RMK AO2 $
94908KDBQ DBQ20070518110510105/18/07 11:05:31  5-MIN KDBQ 181705Z 20016G21KT 10SM CLR 18/02 A3028 750 32 1300 200/16G21 RMK AO2 $
94908KDBQ DBQ20070518111010105/18/07 11:10:31  5-MIN KDBQ 181710Z 21012G21KT 10SM CLR 18/01 A3028 750 31 1300 210/12G21 RMK AO2 $
94908KDBQ DBQ20070518111510105/18/07 11:15:31  5-MIN KDBQ 181715Z 23014G18KT 10SM CLR 18/02 A3028 750 32 1400 230/14G18 RMK AO2 $
94908KDBQ DBQ20070518112009505/18/07 11:20:31  5-MIN KDBQ 181720Z 20013KT 10SM CLR 19/02 A3028 750 32 1400 200/13 RMK AO2 $
94908KDBQ DBQ20070518112509505/18/07 11:25:31  5-MIN KDBQ 181725Z 23013KT 10SM CLR 19/02 A3027 750 32 1400 230/13 RMK AO2 $
94908KDBQ DBQ20070518113009505/18/07 11:30:31  5-MIN KDBQ 181730Z 23012KT 10SM CLR 19/02 A3027 750 32 1400 230/12 RMK AO2 $
94908KDBQ DBQ20070518113509505/18/07 11:35:31  5-MIN KDBQ 181735Z 21012KT 10SM CLR 18/02 A3027 750 34 1400 210/12 RMK AO2 $
94908KDBQ DBQ20070518114010105/18/07 11:40:31  5-MIN KDBQ 181740Z 19015G20KT 10SM CLR 19/02 A3027 760 31 1400 190/15G20 RMK AO2 $
94908KDBQ DBQ20070518114510105/18/07 11:45:31  5-MIN KDBQ 181745Z 20011G20KT 10SM CLR 19/02 A3027 760 31 1400 200/11G20 RMK AO2 $
94908KDBQ DBQ20070518115013605/18/07 11:50:31  5-MIN KDBQ 181750Z 22014G21KT 10SM CLR 19/02 A3026 760 30 1500 220/14G21 RMK AO2 SLP250 T01940017 10194 20067 58004 $
94908KDBQ DBQ20070518115513605/18/07 11:55:31  5-MIN KDBQ 181755Z 22012G21KT 10SM CLR 19/02 A3026 760 31 1400 210/12G21 RMK AO2 SLP251 T01890017 10194 20067 58013 $
94908KDBQ DBQ20070518120009505/18/07 12:00:31  5-MIN KDBQ 181800Z 22012KT 10SM CLR 19/03 A3026 770 33 1500 210/12 RMK AO2 $
94908KDBQ DBQ20070518120509505/18/07 12:05:31  5-MIN KDBQ 181805Z 24012KT 10SM CLR 19/03 A3025 770 33 1500 240/12 RMK AO2 $
94908KDBQ DBQ20070518121010105/18/07 12:10:31  5-MIN KDBQ 181810Z 21012G19KT 10SM CLR 19/03 A3025 770 33 1500 210/12G19 RMK AO2 $
94908KDBQ DBQ20070518121510105/18/07 12:15:31  5-MIN KDBQ 181815Z 21011G19KT 10SM CLR 19/02 A3025 780 31 1500 210/11G19 RMK AO2 $
94908KDBQ DBQ20070518122010105/18/07 12:20:31  5-MIN KDBQ 181820Z 20013G18KT 10SM CLR 19/02 A3025 770 31 1500 200/13G18 RMK AO2 $
94908KDBQ DBQ20070518122510105/18/07 12:25:31  5-MIN KDBQ 181825Z 19016G20KT 10SM CLR 20/02 A3025 780 29 1600 190/16G20 RMK AO2 $
94908KDBQ DBQ20070518123010105/18/07 12:30:31  5-MIN KDBQ 181830Z 20013G20KT 10SM CLR 19/02 A3025 780 30 1500 200/13G20 RMK AO2 $
94908KDBQ DBQ20070518123510105/18/07 12:35:31  5-MIN KDBQ 181835Z 20016G21KT 10SM CLR 19/01 A3024 780 29 1500 200/16G21 RMK AO2 $
94908KDBQ DBQ20070518124010105/18/07 12:40:31  5-MIN KDBQ 181840Z 21012G21KT 10SM CLR 20/02 A3024 780 29 1600 210/12G21 RMK AO2 $
94908KDBQ DBQ20070518124510105/18/07 12:45:31  5-MIN KDBQ 181845Z 20017G22KT 10SM CLR 20/02 A3024 780 29 1600 200/17G22 RMK AO2 $
94908KDBQ DBQ20070518125011805/18/07 12:50:31  5-MIN KDBQ 181850Z 21012G22KT 10SM CLR 20/02 A3024 780 30 1600 200/12G22 RMK AO2 SLP243 T02000022 $
94908KDBQ DBQ20070518125511805/18/07 12:55:31  5-MIN KDBQ 181855Z 20015G19KT 10SM CLR 20/02 A3024 790 30 1600 200/15G19 RMK AO2 SLP242 T02000022 $
94908KDBQ DBQ20070518130011705/18/07 13:00:31  5-MIN KDBQ 181900Z 21011G19KT 170V230 10SM CLR 20/01 A3024 790 28 1600 210/11G19 170V230 RMK AO2 $
94908KDBQ DBQ20070518130510105/18/07 13:05:31  5-MIN KDBQ 181905Z 20016G21KT 10SM CLR 21/02 A3023 790 28 1700 200/16G21 RMK AO2 $
94908KDBQ DBQ20070518131010105/18/07 13:10:31  5-MIN KDBQ 181910Z 22012G21KT 10SM CLR 21/03 A3023 790 30 1700 220/12G21 RMK AO2 $
94908KDBQ DBQ20070518131510105/18/07 13:15:31  5-MIN KDBQ 181915Z 21015G21KT 10SM CLR 21/03 A3023 790 30 1700 210/15G21 RMK AO2 $
94908KDBQ DBQ20070518132010105/18/07 13:20:31  5-MIN KDBQ 181920Z 20013G21KT 10SM CLR 21/02 A3023 790 28 1700 200/13G21 RMK AO2 $
94908KDBQ DBQ20070518132510105/18/07 13:25:31  5-MIN KDBQ 181925Z 19015G21KT 10SM CLR 21/02 A3023 790 29 1700 190/15G21 RMK AO2 $
94908KDBQ DBQ20070518133010105/18/07 13:30:31  5-MIN KDBQ 181930Z 21014G21KT 10SM CLR 21/02 A3023 790 28 1700 200/14G21 RMK AO2 $
94908KDBQ DBQ20070518133509905/18/07 13:35:31  5-MIN KDBQ 181935Z 22010G17KT 10SM CLR 21/02 A3023 790 29 1700 220/10G17 RMK AO2
94908KDBQ DBQ20070518134009905/18/07 13:40:31  5-MIN KDBQ 181940Z 20012G18KT 10SM CLR 21/02 A3023 800 28 1700 200/12G18 RMK AO2
94908KDBQ DBQ20070518134509905/18/07 13:45:31  5-MIN KDBQ 181945Z 20014G18KT 10SM CLR 21/02 A3023 800 27 1700 200/14G18 RMK AO2
94908KDBQ DBQ20070518135011605/18/07 13:50:31  5-MIN KDBQ 181950Z 22014G18KT 10SM CLR 21/02 A3022 800 28 1700 220/14G18 RMK AO2 SLP236 T02110022
94908KDBQ DBQ20070518135511605/18/07 13:55:31  5-MIN KDBQ 181955Z 22015G20KT 10SM CLR 21/01 A3022 800 26 1700 220/15G20 RMK AO2 SLP236 T02110011
94908KDBQ DBQ20070518140009905/18/07 14:00:31  5-MIN KDBQ 182000Z 22011G20KT 10SM CLR 21/01 A3022 800 26 1700 210/11G20 RMK AO2
94908KDBQ DBQ20070518140509305/18/07 14:05:31  5-MIN KDBQ 182005Z 23009KT 10SM CLR 21/02 A3022 800 27 1700 230/09 RMK AO2
94908KDBQ DBQ20070518141009905/18/07 14:10:31  5-MIN KDBQ 182010Z 21013G20KT 10SM CLR 21/01 A3022 810 26 1700 210/13G20 RMK AO2
94908KDBQ DBQ20070518141509905/18/07 14:15:31  5-MIN KDBQ 182015Z 19014G21KT 10SM CLR 21/01 A3021 810 26 1700 190/14G21 RMK AO2
94908KDBQ DBQ20070518142009905/18/07 14:20:31  5-MIN KDBQ 182020Z 22015G21KT 10SM CLR 21/02 A3021 810 27 1800 220/15G21 RMK AO2
94908KDBQ DBQ20070518142509905/18/07 14:25:31  5-MIN KDBQ 182025Z 20010G20KT 10SM CLR 21/01 A3021 810 26 1800 200/10G20 RMK AO2
94908KDBQ DBQ20070518143009905/18/07 14:30:31  5-MIN KDBQ 182030Z 22014G19KT 10SM CLR 21/01 A3020 820 26 1800 220/14G19 RMK AO2
94908KDBQ DBQ20070518143509905/18/07 14:35:31  5-MIN KDBQ 182035Z 22016G19KT 10SM CLR 21/01 A3020 820 25 1800 220/16G19 RMK AO2
94908KDBQ DBQ20070518144009905/18/07 14:40:31  5-MIN KDBQ 182040Z 21017G21KT 10SM CLR 21/01 A3020 820 25 1800 210/17G21 RMK AO2
94908KDBQ DBQ20070518144509305/18/07 14:45:31  5-MIN KDBQ 182045Z 22016KT 10SM CLR 21/01 A3019 830 25 1800 210/16 RMK AO2
94908KDBQ DBQ20070518145011605/18/07 14:50:31  5-MIN KDBQ 182050Z 21014KT 10SM CLR 22/01 A3019 830 24 1800 210/14 RMK AO2 SLP224 T02170006 58013
94908KDBQ DBQ20070518145511605/18/07 14:55:31  5-MIN KDBQ 182055Z 20013KT 10SM CLR 22/01 A3019 830 25 1800 200/13 RMK AO2 SLP225 T02170011 58024
94908KDBQ DBQ20070518150009305/18/07 15:00:31  5-MIN KDBQ 182100Z 20018KT 10SM CLR 22/01 A3019 830 24 1800 200/18 RMK AO2
94908KDBQ DBQ20070518150509905/18/07 15:05:31  5-MIN KDBQ 182105Z 20013G20KT 10SM CLR 21/01 A3019 830 25 1800 200/13G20 RMK AO2
94908KDBQ DBQ20070518151009305/18/07 15:10:31  5-MIN KDBQ 182110Z 21013KT 10SM CLR 22/01 A3019 830 25 1800 210/13 RMK AO2
94908KDBQ DBQ20070518151509305/18/07 15:15:31  5-MIN KDBQ 182115Z 21012KT 10SM CLR 22/01 A3019 830 25 1800 210/12 RMK AO2
94908KDBQ DBQ20070518152009305/18/07 15:20:31  5-MIN KDBQ 182120Z 20016KT 10SM CLR 22/02 A3019 830 26 1800 200/16 RMK AO2
94908KDBQ DBQ20070518152509905/18/07 15:25:31  5-MIN KDBQ 182125Z 22013G19KT 10SM CLR 22/01 A3019 830 25 1800 220/13G19 RMK AO2
94908KDBQ DBQ20070518153009905/18/07 15:30:31  5-MIN KDBQ 182130Z 21010G19KT 10SM CLR 21/01 A3019 830 26 1800 210/10G19 RMK AO2
94908KDBQ DBQ20070518153509905/18/07 15:35:31  5-MIN KDBQ 182135Z 21013G17KT 10SM CLR 22/01 A3019 830 25 1800 210/13G17 RMK AO2
94908KDBQ DBQ20070518154009305/18/07 15:40:31  5-MIN KDBQ 182140Z 20011KT 10SM CLR 22/01 A3018 840 25 1800 190/11 RMK AO2
94908KDBQ DBQ20070518154509905/18/07 15:45:31  5-MIN KDBQ 182145Z 20011G18KT 10SM CLR 22/01 A3018 840 25 1800 200/11G18 RMK AO2
94908KDBQ DBQ20070518155011605/18/07 15:50:31  5-MIN KDBQ 182150Z 21014G21KT 10SM CLR 22/01 A3018 840 25 1800 210/14G21 RMK AO2 SLP222 T02170011
94908KDBQ DBQ20070518155511605/18/07 15:55:31  5-MIN KDBQ 182155Z 20015G21KT 10SM CLR 22/01 A3018 840 25 1800 200/15G21 RMK AO2 SLP222 T02170011
94908KDBQ DBQ20070518160009305/18/07 16:00:31  5-MIN KDBQ 182200Z 21013KT 10SM CLR 22/01 A3018 840 25 1800 210/13 RMK AO2
94908KDBQ DBQ20070518160509305/18/07 16:05:31  5-MIN KDBQ 182205Z 20016KT 10SM CLR 21/01 A3018 840 26 1800 200/16 RMK AO2
94908KDBQ DBQ20070518161009305/18/07 16:10:31  5-MIN KDBQ 182210Z 22015KT 10SM CLR 22/01 A3018 840 24 1900 220/15 RMK AO2
94908KDBQ DBQ20070518161509305/18/07 16:15:31  5-MIN KDBQ 182215Z 21013KT 10SM CLR 21/01 A3018 840 25 1800 210/13 RMK AO2
94908KDBQ DBQ20070518162009305/18/07 16:20:31  5-MIN KDBQ 182220Z 21015KT 10SM CLR 21/01 A3018 840 25 1800 210/15 RMK AO2
94908KDBQ DBQ20070518162509305/18/07 16:25:31  5-MIN KDBQ 182225Z 20010KT 10SM CLR 21/01 A3017 840 25 1800 200/10 RMK AO2
94908KDBQ DBQ20070518163009905/18/07 16:30:31  5-MIN KDBQ 182230Z 20018G21KT 10SM CLR 21/01 A3017 850 25 1800 200/18G21 RMK AO2
94908KDBQ DBQ20070518163509905/18/07 16:35:31  5-MIN KDBQ 182235Z 20015G21KT 10SM CLR 21/00 A3017 850 24 1800 200/15G21 RMK AO2
94908KDBQ DBQ20070518164009905/18/07 16:40:31  5-MIN KDBQ 182240Z 20012G20KT 10SM CLR 21/01 A3017 850 25 1800 200/12G20 RMK AO2
94908KDBQ DBQ20070518164509305/18/07 16:45:31  5-MIN KDBQ 182245Z 22014KT 10SM CLR 21/01 A3017 850 25 1800 220/14 RMK AO2
94908KDBQ DBQ20070518165011005/18/07 16:50:31  5-MIN KDBQ 182250Z 21013KT 10SM CLR 21/01 A3017 850 25 1800 210/13 RMK AO2 SLP218 T02110006
94908KDBQ DBQ20070518165511005/18/07 16:55:31  5-MIN KDBQ 182255Z 20014KT 10SM CLR 21/00 A3017 850 24 1800 200/14 RMK AO2 SLP217 T02110000
94908KDBQ DBQ20070518170009305/18/07 17:00:31  5-MIN KDBQ 182300Z 21013KT 10SM CLR 21/01 A3017 850 25 1800 200/13 RMK AO2
94908KDBQ DBQ20070518170509905/18/07 17:05:31  5-MIN KDBQ 182305Z 22014G20KT 10SM CLR 21/00 A3016 850 24 1800 210/14G20 RMK AO2
94908KDBQ DBQ20070518171009905/18/07 17:10:31  5-MIN KDBQ 182310Z 21014G20KT 10SM CLR 21/01 A3016 850 25 1800 210/14G20 RMK AO2
94908KDBQ DBQ20070518171509305/18/07 17:15:31  5-MIN KDBQ 182315Z 22014KT 10SM CLR 21/00 A3016 850 25 1700 210/14 RMK AO2
94908KDBQ DBQ20070518172009905/18/07 17:20:31  5-MIN KDBQ 182320Z 21016G21KT 10SM CLR 21/00 A3016 860 24 1800 210/16G21 RMK AO2
94908KDBQ DBQ20070518172509905/18/07 17:25:31  5-MIN KDBQ 182325Z 21015G21KT 10SM CLR 21/00 A3016 860 25 1700 210/15G21 RMK AO2
94908KDBQ DBQ20070518173009905/18/07 17:30:31  5-MIN KDBQ 182330Z 21012G20KT 10SM CLR 21/01 A3016 860 26 1700 210/12G20 RMK AO2
94908KDBQ DBQ20070518173509305/18/07 17:35:31  5-MIN KDBQ 182335Z 21014KT 10SM CLR 21/01 A3016 860 26 1700 210/14 RMK AO2
94908KDBQ DBQ20070518174009305/18/07 17:40:31  5-MIN KDBQ 182340Z 21013KT 10SM CLR 21/01 A3015 860 26 1700 210/13 RMK AO2
94908KDBQ DBQ20070518174509305/18/07 17:45:31  5-MIN KDBQ 182345Z 20013KT 10SM CLR 21/01 A3016 860 26 1700 200/13 RMK AO2
94908KDBQ DBQ20070518175013405/18/07 17:50:31  5-MIN KDBQ 182350Z 21010G18KT 10SM CLR 21/01 A3015 860 26 1700 210/10G18 RMK AO2 SLP213 T02060006 10217 20189 58024
94908KDBQ DBQ20070518175512805/18/07 17:55:31  5-MIN KDBQ 182355Z 21011KT 10SM CLR 20/01 A3015 860 28 1700 210/11 RMK AO2 SLP212 T02000011 10217 20189 58012
94908KDBQ DBQ20070518180009305/18/07 18:00:31  5-MIN KDBQ 190000Z 21010KT 10SM CLR 20/01 A3015 860 28 1700 210/10 RMK AO2
94908KDBQ DBQ20070518180509305/18/07 18:05:31  5-MIN KDBQ 190005Z 21012KT 10SM CLR 20/02 A3015 860 29 1700 210/12 RMK AO2
94908KDBQ DBQ20070518181009305/18/07 18:10:31  5-MIN KDBQ 190010Z 21012KT 10SM CLR 20/01 A3015 860 28 1700 210/12 RMK AO2
94908KDBQ DBQ20070518181509305/18/07 18:15:31  5-MIN KDBQ 190015Z 21012KT 10SM CLR 19/02 A3015 860 30 1600 210/12 RMK AO2
94908KDBQ DBQ20070518182009305/18/07 18:20:31  5-MIN KDBQ 190020Z 21011KT 10SM CLR 19/02 A3016 860 30 1600 210/11 RMK AO2
94908KDBQ DBQ20070518182509305/18/07 18:25:31  5-MIN KDBQ 190025Z 21009KT 10SM CLR 19/02 A3016 860 31 1600 210/09 RMK AO2
94908KDBQ DBQ20070518183009305/18/07 18:30:31  5-MIN KDBQ 190030Z 22008KT 10SM CLR 19/02 A3016 860 32 1600 220/08 RMK AO2
94908KDBQ DBQ20070518183509305/18/07 18:35:31  5-MIN KDBQ 190035Z 22007KT 10SM CLR 18/03 A3016 860 35 1500 220/07 RMK AO2
94908KDBQ DBQ20070518184009805/18/07 18:40:31  5-MIN KDBQ 190040Z AUTO 21007KT 10SM CLR 18/03 A3016 860 36 1400 210/07 RMK AO2
94908KDBQ DBQ20070518184510305/18/07 18:45:31  5-MIN KDBQ 190045Z AUTO 21007KT 10SM CLR 17/03 A3016 860 39 1400 210/07 RMK AO2 TSNO
94908KDBQ DBQ20070518185012005/18/07 18:50:31  5-MIN KDBQ 190050Z AUTO 21008KT 10SM CLR 17/03 A3016 860 37 1400 210/08 RMK AO2 SLP214 T01720028 TSNO
94908KDBQ DBQ20070518185512005/18/07 18:55:31  5-MIN KDBQ 190055Z AUTO 21008KT 10SM CLR 17/03 A3016 860 37 1400 210/08 RMK AO2 SLP214 T01720028 TSNO
94908KDBQ DBQ20070518190010305/18/07 19:00:31  5-MIN KDBQ 190100Z AUTO 21008KT 10SM CLR 17/02 A3016 860 37 1300 210/08 RMK AO2 TSNO
94908KDBQ DBQ20070518190510305/18/07 19:05:31  5-MIN KDBQ 190105Z AUTO 21008KT 10SM CLR 17/02 A3016 860 37 1300 210/08 RMK AO2 TSNO
94908KDBQ DBQ20070518191010305/18/07 19:10:31  5-MIN KDBQ 190110Z AUTO 22007KT 10SM CLR 16/02 A3016 860 39 1200 220/07 RMK AO2 TSNO
94908KDBQ DBQ20070518191510305/18/07 19:15:31  5-MIN KDBQ 190115Z AUTO 22006KT 10SM CLR 16/03 A3016 860 42 1200 220/06 RMK AO2 TSNO
94908KDBQ DBQ20070518192010305/18/07 19:20:31  5-MIN KDBQ 190120Z AUTO 21007KT 10SM CLR 15/02 A3016 860 42 1100 210/07 RMK AO2 TSNO
94908KDBQ DBQ20070518192510305/18/07 19:25:31  5-MIN KDBQ 190125Z AUTO 21009KT 10SM CLR 15/02 A3016 860 42 1100 210/09 RMK AO2 TSNO
94908KDBQ DBQ20070518193010305/18/07 19:30:31  5-MIN KDBQ 190130Z AUTO 21009KT 10SM CLR 15/02 A3016 860 42 1100 210/09 RMK AO2 TSNO
94908KDBQ DBQ20070518193510305/18/07 19:35:31  5-MIN KDBQ 190135Z AUTO 21008KT 10SM CLR 15/02 A3016 860 40 1100 210/08 RMK AO2 TSNO
94908KDBQ DBQ20070518194010305/18/07 19:40:31  5-MIN KDBQ 190140Z AUTO 21009KT 10SM CLR 15/02 A3016 860 40 1100 210/09 RMK AO2 TSNO
94908KDBQ DBQ20070518194510305/18/07 19:45:31  5-MIN KDBQ 190145Z AUTO 21009KT 10SM CLR 15/02 A3016 860 40 1100 210/09 RMK AO2 TSNO
94908KDBQ DBQ20070518195012005/18/07 19:50:31  5-MIN KDBQ 190150Z AUTO 21008KT 10SM CLR 14/02 A3016 860 41 1000 210/08 RMK AO2 SLP215 T01440017 TSNO
94908KDBQ DBQ20070518195512005/18/07 19:55:31  5-MIN KDBQ 190155Z AUTO 21009KT 10SM CLR 14/02 A3016 850 41 1000 210/09 RMK AO2 SLP216 T01440017 TSNO
94908KDBQ DBQ20070518200010305/18/07 20:00:31  5-MIN KDBQ 190200Z AUTO 21008KT 10SM CLR 14/02 A3016 850 41 1000 210/08 RMK AO2 TSNO
94908KDBQ DBQ20070518200510305/18/07 20:05:31  5-MIN KDBQ 190205Z AUTO 21008KT 10SM CLR 14/02 A3017 850 41 1000 210/08 RMK AO2 TSNO
94908KDBQ DBQ20070518201010305/18/07 20:10:31  5-MIN KDBQ 190210Z AUTO 21008KT 10SM CLR 14/02 A3017 850 43 1000 210/08 RMK AO2 TSNO
94908KDBQ DBQ20070518201510305/18/07 20:15:31  5-MIN KDBQ 190215Z AUTO 21008KT 10SM CLR 14/02 A3017 850 43 1000 210/08 RMK AO2 TSNO
94908KDBQ DBQ20070518202010305/18/07 20:20:31  5-MIN KDBQ 190220Z AUTO 20008KT 10SM CLR 14/02 A3017 850 43 1000 200/08 RMK AO2 TSNO
94908KDBQ DBQ20070518202510305/18/07 20:25:31  5-MIN KDBQ 190225Z AUTO 20009KT 10SM CLR 14/02 A3017 850 43 1000 200/09 RMK AO2 TSNO
94908KDBQ DBQ20070518203010205/18/07 20:30:31  5-MIN KDBQ 190230Z AUTO 21009KT 10SM CLR 13/02 A3017 850 46 900 210/09 RMK AO2 TSNO
94908KDBQ DBQ20070518203510205/18/07 20:35:31  5-MIN KDBQ 190235Z AUTO 21009KT 10SM CLR 13/02 A3017 850 46 900 210/09 RMK AO2 TSNO
94908KDBQ DBQ20070518204010305/18/07 20:40:31  5-MIN KDBQ 190240Z AUTO 21009KT 10SM CLR 14/02 A3017 850 45 1000 210/09 RMK AO2 TSNO
94908KDBQ DBQ20070518204510305/18/07 20:45:31  5-MIN KDBQ 190245Z AUTO 21009KT 10SM CLR 14/02 A3017 850 45 1000 210/09 RMK AO2 TSNO
94908KDBQ DBQ20070518205012505/18/07 20:50:31  5-MIN KDBQ 190250Z AUTO 21009KT 10SM CLR 13/02 A3017 850 46 900 210/09 RMK AO2 SLP218 T01330022 58012 TSNO
94908KDBQ DBQ20070518205512505/18/07 20:55:31  5-MIN KDBQ 190255Z AUTO 21009KT 10SM CLR 13/02 A3017 850 46 900 210/09 RMK AO2 SLP218 T01330022 53006 TSNO
94908KDBQ DBQ20070518210010205/18/07 21:00:31  5-MIN KDBQ 190300Z AUTO 20009KT 10SM CLR 13/02 A3017 850 46 900 200/09 RMK AO2 TSNO
94908KDBQ DBQ20070518210510205/18/07 21:05:31  5-MIN KDBQ 190305Z AUTO 20009KT 10SM CLR 13/02 A3017 850 46 900 200/09 RMK AO2 TSNO
94908KDBQ DBQ20070518211010205/18/07 21:10:31  5-MIN KDBQ 190310Z AUTO 21009KT 10SM CLR 13/02 A3017 850 48 800 200/09 RMK AO2 TSNO
94908KDBQ DBQ20070518211510205/18/07 21:15:31  5-MIN KDBQ 190315Z AUTO 20009KT 10SM CLR 13/02 A3017 850 48 800 200/09 RMK AO2 TSNO
94908KDBQ DBQ20070518212010205/18/07 21:20:31  5-MIN KDBQ 190320Z AUTO 21009KT 10SM CLR 13/02 A3017 850 48 800 200/09 RMK AO2 TSNO
94908KDBQ DBQ20070518212510205/18/07 21:25:31  5-MIN KDBQ 190325Z AUTO 21009KT 10SM CLR 13/02 A3017 850 48 800 200/09 RMK AO2 TSNO
94908KDBQ DBQ20070518213010205/18/07 21:30:31  5-MIN KDBQ 190330Z AUTO 21009KT 10SM CLR 13/02 A3017 850 48 800 210/09 RMK AO2 TSNO
94908KDBQ DBQ20070518213510205/18/07 21:35:31  5-MIN KDBQ 190335Z AUTO 20009KT 10SM CLR 13/02 A3017 850 48 800 200/09 RMK AO2 TSNO
94908KDBQ DBQ20070518214010205/18/07 21:40:31  5-MIN KDBQ 190340Z AUTO 20009KT 10SM CLR 13/02 A3017 850 48 800 200/09 RMK AO2 TSNO
94908KDBQ DBQ20070518214510205/18/07 21:45:31  5-MIN KDBQ 190345Z AUTO 20008KT 10SM CLR 13/02 A3017 850 48 800 200/08 RMK AO2 TSNO
94908KDBQ DBQ20070518215011905/18/07 21:50:31  5-MIN KDBQ 190350Z AUTO 20009KT 10SM CLR 12/02 A3017 850 50 800 200/09 RMK AO2 SLP216 T01220022 TSNO
94908KDBQ DBQ20070518215511905/18/07 21:55:31  5-MIN KDBQ 190355Z AUTO 20009KT 10SM CLR 12/03 A3017 850 52 800 200/09 RMK AO2 SLP215 T01220028 TSNO
94908KDBQ DBQ20070518220010205/18/07 22:00:31  5-MIN KDBQ 190400Z AUTO 20009KT 10SM CLR 12/03 A3017 850 54 700 200/09 RMK AO2 TSNO
94908KDBQ DBQ20070518220510205/18/07 22:05:31  5-MIN KDBQ 190405Z AUTO 21008KT 10SM CLR 12/03 A3017 850 52 800 200/08 RMK AO2 TSNO
94908KDBQ DBQ20070518221010205/18/07 22:10:31  5-MIN KDBQ 190410Z AUTO 20008KT 10SM CLR 12/03 A3017 850 54 700 200/08 RMK AO2 TSNO
94908KDBQ DBQ20070518221510205/18/07 22:15:31  5-MIN KDBQ 190415Z AUTO 20008KT 10SM CLR 12/03 A3017 850 54 700 200/08 RMK AO2 TSNO
94908KDBQ DBQ20070518222010205/18/07 22:20:31  5-MIN KDBQ 190420Z AUTO 21009KT 10SM CLR 11/03 A3016 850 56 600 210/09 RMK AO2 TSNO
94908KDBQ DBQ20070518222510205/18/07 22:25:31  5-MIN KDBQ 190425Z AUTO 21009KT 10SM CLR 12/03 A3016 850 54 700 210/09 RMK AO2 TSNO
94908KDBQ DBQ20070518223010205/18/07 22:30:31  5-MIN KDBQ 190430Z AUTO 21009KT 10SM CLR 12/03 A3016 860 52 800 210/09 RMK AO2 TSNO
94908KDBQ DBQ20070520210510505/20/07 21:05:31  5-MIN KDBQ 210305Z AUTO 08006KT 10SM CLR 14/09 A3004 970 72 1200 080/06 RMK AO2 TSNO $
94908KDBQ DBQ20070520211010505/20/07 21:10:31  5-MIN KDBQ 210310Z AUTO 10006KT 10SM CLR 15/09 A3004 970 69 1200 100/06 RMK AO2 TSNO $
94908KDBQ DBQ20070520211510505/20/07 21:15:31  5-MIN KDBQ 210315Z AUTO 10006KT 10SM CLR 14/09 A3004 970 72 1200 100/06 RMK AO2 TSNO $
94908KDBQ DBQ20070520212010505/20/07 21:20:31  5-MIN KDBQ 210320Z AUTO 10005KT 10SM CLR 14/09 A3004 970 72 1200 100/05 RMK AO2 TSNO $
94908KDBQ DBQ20070520212510505/20/07 21:25:31  5-MIN KDBQ 210325Z AUTO 09005KT 10SM CLR 14/09 A3004 970 72 1200 090/05 RMK AO2 TSNO $
94908KDBQ DBQ20070520213010505/20/07 21:30:31  5-MIN KDBQ 210330Z AUTO 09004KT 10SM CLR 14/09 A3004 970 72 1200 090/04 RMK AO2 TSNO $
94908KDBQ DBQ20070520213510505/20/07 21:35:31  5-MIN KDBQ 210335Z AUTO 09004KT 10SM CLR 14/09 A3004 970 74 1100 090/04 RMK AO2 TSNO $
94908KDBQ DBQ20070520214010505/20/07 21:40:31  5-MIN KDBQ 210340Z AUTO 09004KT 10SM CLR 14/09 A3004 970 74 1100 090/04 RMK AO2 TSNO $
94908KDBQ DBQ20070520214510505/20/07 21:45:31  5-MIN KDBQ 210345Z AUTO 10004KT 10SM CLR 14/09 A3004 970 74 1100 100/04 RMK AO2 TSNO $
94908KDBQ DBQ20070520215012205/20/07 21:50:31  5-MIN KDBQ 210350Z AUTO 10004KT 10SM CLR 14/09 A3004 970 74 1100 100/04 RMK AO2 SLP170 T01390094 TSNO $
94908KDBQ DBQ20070520215512205/20/07 21:55:31  5-MIN KDBQ 210355Z AUTO 11005KT 10SM CLR 14/09 A3004 970 74 1100 100/05 RMK AO2 SLP170 T01390094 TSNO $
94908KDBQ DBQ20070520220010505/20/07 22:00:31  5-MIN KDBQ 210400Z AUTO 10006KT 10SM CLR 13/09 A3004 970 77 1000 100/06 RMK AO2 TSNO $
94908KDBQ DBQ20070520220510505/20/07 22:05:31  5-MIN KDBQ 210405Z AUTO 10004KT 10SM CLR 13/09 A3004 970 77 1000 100/04 RMK AO2 TSNO $
94908KDBQ DBQ20070520221010505/20/07 22:10:31  5-MIN KDBQ 210410Z AUTO 11006KT 10SM CLR 13/09 A3004 970 77 1000 110/06 RMK AO2 TSNO $
94908KDBQ DBQ20070520221510505/20/07 22:15:31  5-MIN KDBQ 210415Z AUTO 10006KT 10SM CLR 13/09 A3004 970 77 1000 100/06 RMK AO2 TSNO $
94908KDBQ DBQ20070520222010505/20/07 22:20:31  5-MIN KDBQ 210420Z AUTO 11005KT 10SM CLR 13/09 A3004 970 77 1000 110/05 RMK AO2 TSNO $
94908KDBQ DBQ20070520222510505/20/07 22:25:31  5-MIN KDBQ 210425Z AUTO 12005KT 10SM CLR 13/09 A3004 970 77 1000 110/05 RMK AO2 TSNO $
94908KDBQ DBQ20070520223010505/20/07 22:30:31  5-MIN KDBQ 210430Z AUTO 12006KT 10SM CLR 13/09 A3004 970 77 1000 110/06 RMK AO2 TSNO $
94908KDBQ DBQ20070520223510505/20/07 22:35:31  5-MIN KDBQ 210435Z AUTO 13004KT 10SM CLR 13/09 A3004 970 77 1000 130/04 RMK AO2 TSNO $
94908KDBQ DBQ20070520224010505/20/07 22:40:31  5-MIN KDBQ 210440Z AUTO 12004KT 10SM CLR 13/09 A3004 960 77 1000 110/04 RMK AO2 TSNO $
94908KDBQ DBQ20070520224510505/20/07 22:45:31  5-MIN KDBQ 210445Z AUTO 11005KT 10SM CLR 13/09 A3005 960 80 1000 110/05 RMK AO2 TSNO $
94908KDBQ DBQ20070520225012205/20/07 22:50:31  5-MIN KDBQ 210450Z AUTO 11004KT 10SM CLR 13/09 A3004 960 80 1000 110/04 RMK AO2 SLP172 T01280094 TSNO $
94908KDBQ DBQ20070520225512205/20/07 22:55:31  5-MIN KDBQ 210455Z AUTO 11005KT 10SM CLR 13/09 A3004 960 80 1000 110/05 RMK AO2 SLP171 T01280094 TSNO $
94908KDBQ DBQ20070520230010505/20/07 23:00:31  5-MIN KDBQ 210500Z AUTO 12005KT 10SM CLR 13/09 A3005 960 77 1000 120/05 RMK AO2 TSNO $
94908KDBQ DBQ20070520230510505/20/07 23:05:31  5-MIN KDBQ 210505Z AUTO 11005KT 10SM CLR 13/09 A3005 960 77 1000 110/05 RMK AO2 TSNO $
94908KDBQ DBQ20070520231010505/20/07 23:10:31  5-MIN KDBQ 210510Z AUTO 11005KT 10SM CLR 13/09 A3005 960 77 1000 110/05 RMK AO2 TSNO $
94908KDBQ DBQ20070520231510505/20/07 23:15:31  5-MIN KDBQ 210515Z AUTO 12006KT 10SM CLR 13/09 A3005 960 77 1000 120/06 RMK AO2 TSNO $
94908KDBQ DBQ20070520232010505/20/07 23:20:31  5-MIN KDBQ 210520Z AUTO 12005KT 10SM CLR 13/09 A3005 960 77 1000 120/05 RMK AO2 TSNO $
94908KDBQ DBQ20070520232510405/20/07 23:25:31  5-MIN KDBQ 210525Z AUTO 11006KT 10SM CLR 12/09 A3005 960 80 900 110/06 RMK AO2 TSNO $
94908KDBQ DBQ20070520233010405/20/07 23:30:31  5-MIN KDBQ 210530Z AUTO 12005KT 10SM CLR 12/09 A3005 960 80 900 110/05 RMK AO2 TSNO $
94908KDBQ DBQ20070520233510405/20/07 23:35:31  5-MIN KDBQ 210535Z AUTO 12006KT 10SM CLR 12/09 A3005 960 80 900 110/06 RMK AO2 TSNO $
94908KDBQ DBQ20070520234010405/20/07 23:40:31  5-MIN KDBQ 210540Z AUTO 12006KT 10SM CLR 12/09 A3005 960 80 900 110/06 RMK AO2 TSNO $
94908KDBQ DBQ20070520234510405/20/07 23:45:31  5-MIN KDBQ 210545Z AUTO 12007KT 10SM CLR 12/09 A3005 960 80 900 120/07 RMK AO2 TSNO $
94908KDBQ DBQ20070520235014905/20/07 23:50:31  5-MIN KDBQ 210550Z AUTO 12005KT 10SM CLR 12/09 A3005 960 80 900 120/05 RMK AO2 SLP173 T01220089 10206 20122 402500122 53012 TSNO $
94908KDBQ DBQ20070520235514905/20/07 23:55:31  5-MIN KDBQ 210555Z AUTO 11005KT 10SM CLR 12/09 A3005 960 83 800 110/05 RMK AO2 SLP174 T01170089 10206 20117 402500117 53005 TSNO $
94908KDBQ DBQ20070521000010405/21/07 00:00:38  5-MIN KDBQ 210600Z AUTO 11005KT 10SM CLR 12/08 A3005 960 80 800 110/05 RMK AO2 TSNO $
94908KDBQ DBQ20070521000510405/21/07 00:05:31  5-MIN KDBQ 210605Z AUTO 12005KT 10SM CLR 12/08 A3005 960 80 800 120/05 RMK AO2 TSNO $
94908KDBQ DBQ20070521001010405/21/07 00:10:31  5-MIN KDBQ 210610Z AUTO 12006KT 10SM CLR 12/08 A3005 960 80 800 120/06 RMK AO2 TSNO $
94908KDBQ DBQ20070521001510405/21/07 00:15:31  5-MIN KDBQ 210615Z AUTO 12005KT 10SM CLR 12/08 A3005 960 80 800 120/05 RMK AO2 TSNO $
94908KDBQ DBQ20070521002010405/21/07 00:20:31  5-MIN KDBQ 210620Z AUTO 12006KT 10SM CLR 12/08 A3005 960 80 800 120/06 RMK AO2 TSNO $
94908KDBQ DBQ20070521002510405/21/07 00:25:31  5-MIN KDBQ 210625Z AUTO 13006KT 10SM CLR 12/08 A3005 960 80 800 130/06 RMK AO2 TSNO $
94908KDBQ DBQ20070521003010405/21/07 00:30:31  5-MIN KDBQ 210630Z AUTO 12005KT 10SM CLR 11/08 A3005 960 83 800 120/05 RMK AO2 TSNO $
94908KDBQ DBQ20070521003510405/21/07 00:35:31  5-MIN KDBQ 210635Z AUTO 12005KT 10SM CLR 11/08 A3005 960 83 800 120/05 RMK AO2 TSNO $
94908KDBQ DBQ20070521004010405/21/07 00:40:31  5-MIN KDBQ 210640Z AUTO 12004KT 10SM CLR 11/08 A3005 960 83 800 120/04 RMK AO2 TSNO $
94908KDBQ DBQ20070521004510405/21/07 00:45:31  5-MIN KDBQ 210645Z AUTO 12006KT 10SM CLR 11/08 A3005 960 83 800 110/06 RMK AO2 TSNO $
94908KDBQ DBQ20070521005012105/21/07 00:50:31  5-MIN KDBQ 210650Z AUTO 12005KT 10SM CLR 11/08 A3005 960 83 800 120/05 RMK AO2 SLP174 T01110083 TSNO $
94908KDBQ DBQ20070521005512105/21/07 00:55:31  5-MIN KDBQ 210655Z AUTO 12004KT 10SM CLR 11/08 A3005 960 83 800 110/04 RMK AO2 SLP174 T01110083 TSNO $
94908KDBQ DBQ20070521010010405/21/07 01:00:31  5-MIN KDBQ 210700Z AUTO 12003KT 10SM CLR 11/08 A3005 950 86 700 120/03 RMK AO2 TSNO $
94908KDBQ DBQ20070521010510405/21/07 01:05:31  5-MIN KDBQ 210705Z AUTO 12005KT 10SM CLR 11/08 A3005 950 83 800 120/05 RMK AO2 TSNO $
94908KDBQ DBQ20070521011010405/21/07 01:10:31  5-MIN KDBQ 210710Z AUTO 12005KT 10SM CLR 11/08 A3006 950 83 700 120/05 RMK AO2 TSNO $
94908KDBQ DBQ20070521011510405/21/07 01:15:31  5-MIN KDBQ 210715Z AUTO 12005KT 10SM CLR 11/08 A3006 950 83 700 120/05 RMK AO2 TSNO $
94908KDBQ DBQ20070521012010405/21/07 01:20:31  5-MIN KDBQ 210720Z AUTO 11005KT 10SM CLR 11/08 A3006 950 83 700 110/05 RMK AO2 TSNO $
94908KDBQ DBQ20070521012510405/21/07 01:25:31  5-MIN KDBQ 210725Z AUTO 12005KT 10SM CLR 11/08 A3005 950 83 700 120/05 RMK AO2 TSNO $
94908KDBQ DBQ20070521013010405/21/07 01:30:31  5-MIN KDBQ 210730Z AUTO 12005KT 10SM CLR 11/08 A3005 950 83 700 120/05 RMK AO2 TSNO $
94908KDBQ DBQ20070521013510405/21/07 01:35:31  5-MIN KDBQ 210735Z AUTO 12004KT 10SM CLR 11/08 A3006 950 83 700 120/04 RMK AO2 TSNO $
94908KDBQ DBQ20070521014010305/21/07 01:40:31  5-MIN KDBQ 210740Z AUTO 12006KT 9SM CLR 11/08 A3006 950 83 700 120/06 RMK AO2 TSNO $
94908KDBQ DBQ20070521014510605/21/07 01:45:31  5-MIN KDBQ 210745Z AUTO 13004KT 9SM SCT060 11/08 A3005 950 83 700 130/04 RMK AO2 TSNO $
94908KDBQ DBQ20070521015012305/21/07 01:50:31  5-MIN KDBQ 210750Z AUTO 12004KT 9SM SCT060 11/08 A3005 960 83 700 120/04 RMK AO2 SLP175 T01060078 TSNO $
94908KDBQ DBQ20070521015512305/21/07 01:55:31  5-MIN KDBQ 210755Z AUTO 12003KT 9SM FEW055 11/08 A3005 960 83 700 120/03 RMK AO2 SLP175 T01060078 TSNO $
94908KDBQ DBQ20070521020010605/21/07 02:00:31  5-MIN KDBQ 210800Z AUTO 12005KT 9SM FEW055 11/08 A3005 960 83 700 120/05 RMK AO2 TSNO $
94908KDBQ DBQ20070521020510605/21/07 02:05:31  5-MIN KDBQ 210805Z AUTO 13004KT 9SM SCT055 11/08 A3005 960 83 700 130/04 RMK AO2 TSNO $
94908KDBQ DBQ20070521021010605/21/07 02:10:31  5-MIN KDBQ 210810Z AUTO 12004KT 9SM SCT055 11/08 A3005 960 83 700 120/04 RMK AO2 TSNO $
94908KDBQ DBQ20070521021510605/21/07 02:15:31  5-MIN KDBQ 210815Z AUTO 13004KT 9SM SCT055 11/08 A3005 960 83 700 130/04 RMK AO2 TSNO $
94908KDBQ DBQ20070521022010605/21/07 02:20:31  5-MIN KDBQ 210820Z AUTO 13004KT 9SM BKN055 11/08 A3005 960 83 700 130/04 RMK AO2 TSNO $
94908KDBQ DBQ20070521022510605/21/07 02:25:31  5-MIN KDBQ 210825Z AUTO 13005KT 9SM BKN055 11/08 A3005 960 83 700 130/05 RMK AO2 TSNO $
94908KDBQ DBQ20070521023010605/21/07 02:30:31  5-MIN KDBQ 210830Z AUTO 14004KT 9SM SCT055 11/08 A3005 960 83 700 130/04 RMK AO2 TSNO $
94908KDBQ DBQ20070521023510605/21/07 02:35:31  5-MIN KDBQ 210835Z AUTO VRB04KT 9SM SCT055 11/08 A3005 960 83 700 VRB/04 RMK AO2 TSNO $
94908KDBQ DBQ20070521024011305/21/07 02:40:31  5-MIN KDBQ 210840Z AUTO 14004KT 9SM BKN055 BKN070 11/08 A3004 960 83 700 140/04 RMK AO2 TSNO $
94908KDBQ DBQ20070521024512005/21/07 02:45:31  5-MIN KDBQ 210845Z AUTO 13004KT 9SM SCT060 BKN070 BKN100 11/08 A3004 970 83 700 130/04 RMK AO2 TSNO $
94908KDBQ DBQ20070521025014305/21/07 02:50:31  5-MIN KDBQ 210850Z AUTO 15004KT 9SM SCT060 SCT070 SCT100 10/08 A3004 960 86 600 150/04 RMK AO2 SLP172 T01000078 53005 TSNO $
94908KDBQ DBQ20070521025512905/21/07 02:55:31  5-MIN KDBQ 210855Z AUTO 14005KT 9SM BKN060 10/07 A3004 960 83 600 140/05 RMK AO2 SLP172 T01000072 58002 TSNO $
94908KDBQ DBQ20070521030012005/21/07 03:00:31  5-MIN KDBQ 210900Z AUTO 15005KT 9SM BKN055 BKN070 BKN095 10/08 A3004 960 86 600 150/05 RMK AO2 TSNO $
94908KDBQ DBQ20070521030512005/21/07 03:05:31  5-MIN KDBQ 210905Z AUTO 15005KT 9SM SCT055 BKN070 BKN090 10/07 A3004 970 83 600 150/05 RMK AO2 TSNO $
94908KDBQ DBQ20070521031012005/21/07 03:10:31  5-MIN KDBQ 210910Z AUTO 15006KT 9SM SCT055 SCT070 BKN090 10/07 A3004 960 83 600 150/06 RMK AO2 TSNO $
94908KDBQ DBQ20070521031511305/21/07 03:15:31  5-MIN KDBQ 210915Z AUTO 15007KT 9SM SCT060 BKN090 10/07 A3004 960 83 600 150/07 RMK AO2 TSNO $
94908KDBQ DBQ20070521032011305/21/07 03:20:31  5-MIN KDBQ 210920Z AUTO 15005KT 9SM BKN060 BKN090 10/07 A3005 960 83 600 150/05 RMK AO2 TSNO $
94908KDBQ DBQ20070521032511305/21/07 03:25:31  5-MIN KDBQ 210925Z AUTO 15005KT 9SM BKN060 BKN090 10/07 A3005 960 83 600 150/05 RMK AO2 TSNO $
94908KDBQ DBQ20070521033011305/21/07 03:30:31  5-MIN KDBQ 210930Z AUTO 15006KT 9SM SCT055 BKN070 10/07 A3005 960 83 600 140/06 RMK AO2 TSNO $
94908KDBQ DBQ20070521033512005/21/07 03:35:31  5-MIN KDBQ 210935Z AUTO 14004KT 9SM SCT055 SCT070 BKN095 10/07 A3005 960 83 600 140/04 RMK AO2 TSNO $
94908KDBQ DBQ20070521034011305/21/07 03:40:31  5-MIN KDBQ 210940Z AUTO 14005KT 9SM SCT060 BKN095 10/07 A3005 960 83 600 140/05 RMK AO2 TSNO $
94908KDBQ DBQ20070521034511305/21/07 03:45:31  5-MIN KDBQ 210945Z AUTO 15004KT 9SM SCT060 BKN095 10/07 A3005 960 83 600 150/04 RMK AO2 TSNO $
94908KDBQ DBQ20070521035013005/21/07 03:50:31  5-MIN KDBQ 210950Z AUTO 14005KT 9SM FEW060 BKN095 10/07 A3005 960 83 600 140/05 RMK AO2 SLP175 T01000072 TSNO $
94908KDBQ DBQ20070521035513005/21/07 03:55:31  5-MIN KDBQ 210955Z AUTO 15005KT 9SM FEW060 SCT095 10/07 A3005 950 83 600 150/05 RMK AO2 SLP176 T01000072 TSNO $
94908KDBQ DBQ20070521040011305/21/07 04:00:31  5-MIN KDBQ 211000Z AUTO 15005KT 9SM FEW060 BKN095 10/07 A3006 950 83 600 150/05 RMK AO2 TSNO $
94908KDBQ DBQ20070521040511305/21/07 04:05:31  5-MIN KDBQ 211005Z AUTO 14004KT 9SM FEW060 BKN095 10/07 A3006 950 83 600 140/04 RMK AO2 TSNO $
94908KDBQ DBQ20070521041011305/21/07 04:10:31  5-MIN KDBQ 211010Z AUTO 13003KT 9SM SCT060 BKN095 10/07 A3006 950 83 600 130/03 RMK AO2 TSNO $
94908KDBQ DBQ20070521041511305/21/07 04:15:31  5-MIN KDBQ 211015Z AUTO 13003KT 9SM FEW060 SCT095 10/07 A3006 950 83 600 130/03 RMK AO2 TSNO $
94908KDBQ DBQ20070521042011305/21/07 04:20:31  5-MIN KDBQ 211020Z AUTO 00000KT 9SM FEW060 SCT095 10/07 A3006 950 83 600 000/00 RMK AO2 TSNO $
94908KDBQ DBQ20070521042510605/21/07 04:25:31  5-MIN KDBQ 211025Z AUTO 13003KT 9SM FEW060 10/07 A3006 950 83 600 130/03 RMK AO2 TSNO $
94908KDBQ DBQ20070521043011305/21/07 04:30:31  5-MIN KDBQ 211030Z AUTO 14003KT 9SM FEW060 SCT095 10/07 A3006 950 83 600 140/03 RMK AO2 TSNO $
94908KDBQ DBQ20070521043511305/21/07 04:35:31  5-MIN KDBQ 211035Z AUTO 00000KT 8SM FEW065 BKN095 10/07 A3006 950 83 600 000/00 RMK AO2 TSNO $
94908KDBQ DBQ20070521044010305/21/07 04:40:31  5-MIN KDBQ 211040Z 15004KT 8SM FEW065 BKN090 10/07 A3006 950 83 600 150/04 RMK AO2 $
94908KDBQ DBQ20070521044510305/21/07 04:45:31  5-MIN KDBQ 211045Z 16003KT 8SM FEW065 BKN090 10/07 A3006 950 83 600 160/03 RMK AO2 $
94908KDBQ DBQ20070521045012005/21/07 04:50:31  5-MIN KDBQ 211050Z 15004KT 8SM FEW065 BKN095 09/07 A3006 950 86 600 150/04 RMK AO2 SLP177 T00940072 $
94908KDBQ DBQ20070521045512005/21/07 04:55:31  5-MIN KDBQ 211055Z 15004KT 8SM FEW065 BKN095 10/07 A3006 950 83 600 150/04 RMK AO2 SLP178 T01000072 $
94908KDBQ DBQ20070521050010305/21/07 05:00:31  5-MIN KDBQ 211100Z 00000KT 8SM FEW065 OVC095 10/07 A3006 950 83 600 000/00 RMK AO2 $
94908KDBQ DBQ20070521050509605/21/07 05:05:31  5-MIN KDBQ 211105Z 00000KT 8SM OVC095 10/07 A3006 950 83 600 000/00 RMK AO2 $
94908KDBQ DBQ20070521051009605/21/07 05:10:31  5-MIN KDBQ 211110Z 17004KT 8SM OVC095 10/07 A3006 950 83 600 170/04 RMK AO2 $
94908KDBQ DBQ20070521051509605/21/07 05:15:31  5-MIN KDBQ 211115Z 17006KT 8SM BKN095 10/07 A3005 960 83 600 170/06 RMK AO2 $
94908KDBQ DBQ20070521052009605/21/07 05:20:31  5-MIN KDBQ 211120Z 16006KT 8SM BKN095 10/07 A3005 960 83 600 160/06 RMK AO2 $
94908KDBQ DBQ20070521052509605/21/07 05:25:31  5-MIN KDBQ 211125Z 17007KT 8SM BKN095 10/07 A3005 960 83 600 160/07 RMK AO2 $
94908KDBQ DBQ20070521053009605/21/07 05:30:31  5-MIN KDBQ 211130Z 16007KT 8SM BKN095 10/07 A3006 950 83 600 160/07 RMK AO2 $
94908KDBQ DBQ20070521053509605/21/07 05:35:31  5-MIN KDBQ 211135Z 16006KT 9SM OVC095 10/07 A3006 950 83 600 160/06 RMK AO2 $
94908KDBQ DBQ20070521054009605/21/07 05:40:31  5-MIN KDBQ 211140Z 16005KT 9SM BKN095 11/07 A3006 950 80 700 160/05 RMK AO2 $
94908KDBQ DBQ20070521054509605/21/07 05:45:31  5-MIN KDBQ 211145Z 16005KT 9SM BKN095 11/07 A3006 950 80 700 160/05 RMK AO2 $
94908KDBQ DBQ20070521055013105/21/07 05:50:31  5-MIN KDBQ 211150Z 16006KT 9SM BKN090 11/07 A3006 950 80 700 160/06 RMK AO2 SLP179 T01060072 10117 20094 58002 $
94908KDBQ DBQ20070521055513105/21/07 05:55:31  5-MIN KDBQ 211155Z 16004KT 9SM SCT090 11/08 A3006 950 83 700 160/04 RMK AO2 SLP178 T01060078 10117 20094 51005 $
94908KDBQ DBQ20070521060009605/21/07 06:00:31  5-MIN KDBQ 211200Z 16004KT 9SM FEW090 11/08 A3006 950 80 700 160/04 RMK AO2 $
94908KDBQ DBQ20070521060509605/21/07 06:05:31  5-MIN KDBQ 211205Z 16004KT 9SM FEW090 11/08 A3006 950 80 700 160/04 RMK AO2 $
94908KDBQ DBQ20070521061009105/21/07 06:10:31  5-MIN KDBQ 211210Z 17004KT 9SM CLR 11/08 A3006 950 80 800 160/04 RMK AO2
94908KDBQ DBQ20070521061509205/21/07 06:15:31  5-MIN KDBQ 211215Z 15004KT 10SM CLR 11/08 A3006 950 80 800 150/04 RMK AO2
94908KDBQ DBQ20070521062009205/21/07 06:20:31  5-MIN KDBQ 211220Z 17006KT 10SM CLR 12/08 A3006 950 77 800 170/06 RMK AO2
94908KDBQ DBQ20070521062509205/21/07 06:25:31  5-MIN KDBQ 211225Z 15008KT 10SM CLR 12/08 A3006 950 77 800 150/08 RMK AO2
94908KDBQ DBQ20070521063009205/21/07 06:30:31  5-MIN KDBQ 211230Z 16008KT 10SM CLR 12/08 A3006 950 77 800 160/08 RMK AO2
94908KDBQ DBQ20070521063509205/21/07 06:35:31  5-MIN KDBQ 211235Z 15007KT 10SM CLR 12/08 A3006 950 74 900 150/07 RMK AO2
94908KDBQ DBQ20070521064009205/21/07 06:40:31  5-MIN KDBQ 211240Z 15010KT 10SM CLR 12/08 A3006 950 74 900 150/10 RMK AO2
94908KDBQ DBQ20070521064509305/21/07 06:45:31  5-MIN KDBQ 211245Z 16009KT 10SM CLR 13/08 A3006 950 71 1000 160/09 RMK AO2
94908KDBQ DBQ20070521065011005/21/07 06:50:31  5-MIN KDBQ 211250Z 16008KT 10SM CLR 13/08 A3006 950 74 1000 160/08 RMK AO2 SLP177 T01280083
94908KDBQ DBQ20070521065511005/21/07 06:55:31  5-MIN KDBQ 211255Z 16007KT 10SM CLR 13/08 A3006 950 71 1000 160/07 RMK AO2 SLP177 T01330083
94908KDBQ DBQ20070521070009305/21/07 07:00:31  5-MIN KDBQ 211300Z 16008KT 10SM CLR 13/08 A3006 950 71 1000 160/08 RMK AO2
94908KDBQ DBQ20070521070509305/21/07 07:05:31  5-MIN KDBQ 211305Z 16007KT 10SM CLR 14/08 A3006 950 69 1100 160/07 RMK AO2
94908KDBQ DBQ20070521071009305/21/07 07:10:31  5-MIN KDBQ 211310Z 16009KT 10SM CLR 14/08 A3006 950 69 1100 150/09 RMK AO2
94908KDBQ DBQ20070521071509305/21/07 07:15:31  5-MIN KDBQ 211315Z 18007KT 10SM CLR 14/08 A3005 950 69 1100 180/07 RMK AO2
94908KDBQ DBQ20070521072009305/21/07 07:20:31  5-MIN KDBQ 211320Z 17007KT 10SM CLR 14/09 A3006 950 69 1200 170/07 RMK AO2
94908KDBQ DBQ20070521072509305/21/07 07:25:31  5-MIN KDBQ 211325Z 17006KT 10SM CLR 14/09 A3005 950 69 1200 170/06 RMK AO2
94908KDBQ DBQ20070521073009305/21/07 07:30:31  5-MIN KDBQ 211330Z 17008KT 10SM CLR 15/09 A3005 950 66 1200 170/08 RMK AO2
94908KDBQ DBQ20070521073509305/21/07 07:35:31  5-MIN KDBQ 211335Z 16008KT 10SM CLR 15/09 A3005 950 66 1200 160/08 RMK AO2
94908KDBQ DBQ20070521074009305/21/07 07:40:31  5-MIN KDBQ 211340Z 19008KT 10SM CLR 16/09 A3006 950 64 1300 180/08 RMK AO2
94908KDBQ DBQ20070521074509305/21/07 07:45:31  5-MIN KDBQ 211345Z 18008KT 10SM CLR 16/09 A3006 950 64 1300 170/08 RMK AO2
94908KDBQ DBQ20070521075011005/21/07 07:50:31  5-MIN KDBQ 211350Z 17009KT 10SM CLR 16/09 A3005 960 62 1300 170/09 RMK AO2 SLP175 T01610089
94908KDBQ DBQ20070521075511005/21/07 07:55:31  5-MIN KDBQ 211355Z 17008KT 10SM CLR 16/09 A3005 960 64 1300 170/08 RMK AO2 SLP176 T01610094
94908KDBQ DBQ20070521080009305/21/07 08:00:31  5-MIN KDBQ 211400Z 17008KT 10SM CLR 16/09 A3005 960 64 1300 170/08 RMK AO2
94908KDBQ DBQ20070521080509305/21/07 08:05:31  5-MIN KDBQ 211405Z 17008KT 10SM CLR 17/09 A3005 960 62 1400 170/08 RMK AO2
94908KDBQ DBQ20070521081009305/21/07 08:10:31  5-MIN KDBQ 211410Z 18008KT 10SM CLR 17/09 A3005 960 62 1400 180/08 RMK AO2
94908KDBQ DBQ20070521081509305/21/07 08:15:31  5-MIN KDBQ 211415Z 19007KT 10SM CLR 17/10 A3005 960 62 1500 190/07 RMK AO2
94908KDBQ DBQ20070521082009305/21/07 08:20:31  5-MIN KDBQ 211420Z 18008KT 10SM CLR 17/10 A3005 960 62 1500 180/08 RMK AO2
94908KDBQ DBQ20070521082509305/21/07 08:25:31  5-MIN KDBQ 211425Z 18008KT 10SM CLR 18/10 A3005 960 60 1500 180/08 RMK AO2
94908KDBQ DBQ20070521083009305/21/07 08:30:31  5-MIN KDBQ 211430Z 18008KT 10SM CLR 18/10 A3005 960 58 1600 180/08 RMK AO2
94908KDBQ DBQ20070521083509305/21/07 08:35:31  5-MIN KDBQ 211435Z 16008KT 10SM CLR 19/10 A3005 960 56 1700 150/08 RMK AO2
94908KDBQ DBQ20070521084009305/21/07 08:40:31  5-MIN KDBQ 211440Z 18009KT 10SM CLR 19/10 A3005 960 56 1700 180/09 RMK AO2
94908KDBQ DBQ20070521084509305/21/07 08:45:31  5-MIN KDBQ 211445Z 17008KT 10SM CLR 19/10 A3005 960 56 1700 170/08 RMK AO2
94908KDBQ DBQ20070521085011605/21/07 08:50:31  5-MIN KDBQ 211450Z 18007KT 10SM CLR 20/11 A3005 960 54 1800 180/07 RMK AO2 SLP173 T02000106 51005
94908KDBQ DBQ20070521085511605/21/07 08:55:31  5-MIN KDBQ 211455Z 18008KT 10SM CLR 20/11 A3005 960 54 1800 180/08 RMK AO2 SLP172 T02000106 58004
94908KDBQ DBQ20070521090009305/21/07 09:00:31  5-MIN KDBQ 211500Z 17009KT 10SM CLR 20/10 A3005 960 52 1800 170/09 RMK AO2
94908KDBQ DBQ20070521090509305/21/07 09:05:31  5-MIN KDBQ 211505Z 18008KT 10SM CLR 20/11 A3004 960 54 1800 180/08 RMK AO2
94908KDBQ DBQ20070521091009305/21/07 09:10:31  5-MIN KDBQ 211510Z 18008KT 10SM CLR 21/11 A3004 970 54 1900 180/08 RMK AO2
94908KDBQ DBQ20070521091509305/21/07 09:15:31  5-MIN KDBQ 211515Z 17010KT 10SM CLR 21/11 A3004 970 52 1900 170/10 RMK AO2
94908KDBQ DBQ20070521092009305/21/07 09:20:31  5-MIN KDBQ 211520Z 16009KT 10SM CLR 21/11 A3004 970 50 1900 160/09 RMK AO2
94908KDBQ DBQ20070521092509305/21/07 09:25:31  5-MIN KDBQ 211525Z 18008KT 10SM CLR 21/11 A3004 970 50 1900 180/08 RMK AO2
94908KDBQ DBQ20070521093009305/21/07 09:30:31  5-MIN KDBQ 211530Z 17008KT 10SM CLR 21/11 A3004 970 52 1900 170/08 RMK AO2
94908KDBQ DBQ20070521093509305/21/07 09:35:31  5-MIN KDBQ 211535Z 17008KT 10SM CLR 22/11 A3004 970 50 2000 170/08 RMK AO2
94908KDBQ DBQ20070521094009305/21/07 09:40:31  5-MIN KDBQ 211540Z 18007KT 10SM CLR 22/11 A3004 970 50 2000 180/07 RMK AO2
94908KDBQ DBQ20070521094509305/21/07 09:45:31  5-MIN KDBQ 211545Z 19009KT 10SM CLR 22/12 A3004 970 51 2100 180/09 RMK AO2
94908KDBQ DBQ20070521095011005/21/07 09:50:31  5-MIN KDBQ 211550Z 17007KT 10SM CLR 22/11 A3004 960 50 2000 170/07 RMK AO2 SLP171 T02170111
94908KDBQ DBQ20070521095511005/21/07 09:55:31  5-MIN KDBQ 211555Z 18009KT 10SM CLR 22/11 A3004 970 50 2000 180/09 RMK AO2 SLP171 T02170111
94908KDBQ DBQ20070521100009305/21/07 10:00:31  5-MIN KDBQ 211600Z 16010KT 10SM CLR 22/11 A3004 970 49 2100 160/10 RMK AO2
94908KDBQ DBQ20070521100509305/21/07 10:05:31  5-MIN KDBQ 211605Z 17008KT 10SM CLR 23/11 A3004 970 47 2100 170/08 RMK AO2
94908KDBQ DBQ20070521101009305/21/07 10:10:31  5-MIN KDBQ 211610Z 19009KT 10SM CLR 23/11 A3004 970 47 2100 180/09 RMK AO2
94908KDBQ DBQ20070521101509305/21/07 10:15:31  5-MIN KDBQ 211615Z 17009KT 10SM CLR 23/12 A3004 970 47 2200 170/09 RMK AO2
94908KDBQ DBQ20070521102009305/21/07 10:20:31  5-MIN KDBQ 211620Z 16010KT 10SM CLR 23/11 A3004 970 45 2200 160/10 RMK AO2
94908KDBQ DBQ20070521102509305/21/07 10:25:31  5-MIN KDBQ 211625Z 17010KT 10SM CLR 23/11 A3004 970 44 2200 170/10 RMK AO2
94908KDBQ DBQ20070521103009305/21/07 10:30:31  5-MIN KDBQ 211630Z 18011KT 10SM CLR 24/12 A3004 970 46 2300 180/11 RMK AO2
94908KDBQ DBQ20070521103509305/21/07 10:35:31  5-MIN KDBQ 211635Z 19012KT 10SM CLR 24/11 A3004 970 44 2300 190/12 RMK AO2
94908KDBQ DBQ20070521104009305/21/07 10:40:31  5-MIN KDBQ 211640Z 18013KT 10SM CLR 24/11 A3003 980 42 2300 180/13 RMK AO2
94908KDBQ DBQ20070521104509305/21/07 10:45:31  5-MIN KDBQ 211645Z 18010KT 10SM CLR 24/11 A3003 980 44 2300 170/10 RMK AO2
94908KDBQ DBQ20070521105011605/21/07 10:50:31  5-MIN KDBQ 211650Z 20011G19KT 10SM CLR 24/11 A3003 980 41 2300 200/11G19 RMK AO2 SLP166 T02440106
94908KDBQ DBQ20070521105511005/21/07 10:55:31  5-MIN KDBQ 211655Z 19014KT 10SM CLR 24/11 A3003 980 41 2300 190/14 RMK AO2 SLP165 T02440106
94908KDBQ DBQ20070521110009905/21/07 11:00:31  5-MIN KDBQ 211700Z 18012G17KT 10SM CLR 24/11 A3003 980 41 2300 180/12G17 RMK AO2
94908KDBQ DBQ20070521110509305/21/07 11:05:31  5-MIN KDBQ 211705Z 18014KT 10SM CLR 25/11 A3002 990 39 2400 180/14 RMK AO2
94908KDBQ DBQ20070521111009905/21/07 11:10:31  5-MIN KDBQ 211710Z 17011G16KT 10SM CLR 25/11 A3002 980 41 2400 170/11G16 RMK AO2
94908KDBQ DBQ20070521111509905/21/07 11:15:31  5-MIN KDBQ 211715Z 17014G18KT 10SM CLR 26/11 A3002 990 38 2500 170/14G18 RMK AO2
94908KDBQ DBQ20070521112009905/21/07 11:20:31  5-MIN KDBQ 211720Z 19014G20KT 10SM CLR 25/10 A3002 990 38 2400 190/14G20 RMK AO2
94908KDBQ DBQ20070521112509905/21/07 11:25:31  5-MIN KDBQ 211725Z 19013G22KT 10SM CLR 26/10 A3002 990 37 2500 190/13G22 RMK AO2
94908KDBQ DBQ20070521113009905/21/07 11:30:31  5-MIN KDBQ 211730Z 20011G23KT 10SM CLR 25/11 A3002 990 39 2400 200/11G23 RMK AO2
94908KDBQ DBQ20070521113509905/21/07 11:35:31  5-MIN KDBQ 211735Z 18012G23KT 10SM CLR 26/10 A3001 990 37 2500 180/12G23 RMK AO2
94908KDBQ DBQ20070521114009905/21/07 11:40:31  5-MIN KDBQ 211740Z 19011G18KT 10SM CLR 26/10 A3002 990 37 2500 190/11G18 RMK AO2
94908KDBQ DBQ20070521114509905/21/07 11:45:31  5-MIN KDBQ 211745Z 17010G18KT 10SM CLR 26/10 A3001 990 37 2500 170/10G18 RMK AO2
94908KDBQ DBQ20070521115013405/21/07 11:50:31  5-MIN KDBQ 211750Z 19009G19KT 10SM CLR 26/11 A3001 990 37 2500 190/09G19 RMK AO2 SLP159 T02610106 10261 20111 58004
94908KDBQ DBQ20070521115513505/21/07 11:55:31  5-MIN KDBQ 211755Z 18011G19KT 10SM CLR 26/10 A3001 1000 36 2500 180/11G19 RMK AO2 SLP160 T02610100 10261 20111 58012
94908KDBQ DBQ20070521120010005/21/07 12:00:31  5-MIN KDBQ 211800Z 17012G19KT 10SM CLR 26/09 A3001 1000 34 2500 170/12G19 RMK AO2
94908KDBQ DBQ20070521120510005/21/07 12:05:31  5-MIN KDBQ 211805Z 19019G23KT 10SM CLR 27/08 A3001 1000 31 2600 190/19G23 RMK AO2
94908KDBQ DBQ20070521121010005/21/07 12:10:31  5-MIN KDBQ 211810Z 19016G23KT 10SM CLR 27/08 A3000 1000 29 2600 190/16G23 RMK AO2
94908KDBQ DBQ20070521121510005/21/07 12:15:31  5-MIN KDBQ 211815Z 19013G23KT 10SM CLR 27/09 A3000 1000 32 2600 190/13G23 RMK AO2
94908KDBQ DBQ20070521122010005/21/07 12:20:31  5-MIN KDBQ 211820Z 19017G21KT 10SM CLR 27/09 A3000 1000 32 2600 190/17G21 RMK AO2
94908KDBQ DBQ20070521122510005/21/07 12:25:31  5-MIN KDBQ 211825Z 17013G19KT 10SM CLR 27/09 A3000 1010 32 2600 170/13G19 RMK AO2
94908KDBQ DBQ20070521123010005/21/07 12:30:31  5-MIN KDBQ 211830Z 20012G18KT 10SM CLR 27/08 A3000 1010 31 2600 200/12G18 RMK AO2
94908KDBQ DBQ20070521123510005/21/07 12:35:31  5-MIN KDBQ 211835Z 18014G20KT 10SM CLR 27/09 A2999 1010 32 2600 170/14G20 RMK AO2
94908KDBQ DBQ20070521124010005/21/07 12:40:31  5-MIN KDBQ 211840Z 18012G20KT 10SM CLR 27/09 A2999 1010 32 2600 180/12G20 RMK AO2
94908KDBQ DBQ20070521124510005/21/07 12:45:31  5-MIN KDBQ 211845Z 20014G21KT 10SM CLR 27/08 A2999 1010 30 2700 190/14G21 RMK AO2
94908KDBQ DBQ20070521125011705/21/07 12:50:31  5-MIN KDBQ 211850Z 21014G21KT 10SM CLR 27/09 A2999 1010 31 2700 210/14G21 RMK AO2 SLP152 T02720089
94908KDBQ DBQ20070521125511705/21/07 12:55:31  5-MIN KDBQ 211855Z 18013G20KT 10SM CLR 27/09 A2999 1010 31 2700 180/13G20 RMK AO2 SLP152 T02720089
94908KDBQ DBQ20070521130010005/21/07 13:00:31  5-MIN KDBQ 211900Z 19015G21KT 10SM CLR 28/08 A2999 1010 29 2800 190/15G21 RMK AO2
94908KDBQ DBQ20070521130510005/21/07 13:05:31  5-MIN KDBQ 211905Z 20016G21KT 10SM CLR 27/08 A2999 1010 30 2700 200/16G21 RMK AO2
94908KDBQ DBQ20070521131010005/21/07 13:10:31  5-MIN KDBQ 211910Z 19019G25KT 10SM CLR 28/08 A2999 1020 29 2800 190/19G25 RMK AO2
94908KDBQ DBQ20070521131510005/21/07 13:15:31  5-MIN KDBQ 211915Z 20014G25KT 10SM CLR 28/08 A2999 1010 28 2800 200/14G25 RMK AO2
94908KDBQ DBQ20070521132010005/21/07 13:20:31  5-MIN KDBQ 211920Z 18016G21KT 10SM CLR 28/08 A2998 1020 29 2800 180/16G21 RMK AO2
94908KDBQ DBQ20070521132509405/21/07 13:25:31  5-MIN KDBQ 211925Z 19016KT 10SM CLR 28/08 A2999 1020 28 2800 190/16 RMK AO2
94908KDBQ DBQ20070521133010005/21/07 13:30:31  5-MIN KDBQ 211930Z 20015G21KT 10SM CLR 27/08 A2999 1020 29 2700 200/15G21 RMK AO2
94908KDBQ DBQ20070521133510005/21/07 13:35:31  5-MIN KDBQ 211935Z 19015G23KT 10SM CLR 27/08 A2998 1020 29 2700 190/15G23 RMK AO2
94908KDBQ DBQ20070521134010005/21/07 13:40:31  5-MIN KDBQ 211940Z 21018G23KT 10SM CLR 28/08 A2998 1020 28 2800 210/18G23 RMK AO2
94908KDBQ DBQ20070521134510005/21/07 13:45:31  5-MIN KDBQ 211945Z 19018G23KT 10SM CLR 28/08 A2998 1020 28 2800 190/18G23 RMK AO2
94908KDBQ DBQ20070521135011705/21/07 13:50:31  5-MIN KDBQ 211950Z 21017G24KT 10SM CLR 28/07 A2998 1030 27 2800 210/17G24 RMK AO2 SLP147 T02780072
94908KDBQ DBQ20070521135511705/21/07 13:55:31  5-MIN KDBQ 211955Z 19014G24KT 10SM CLR 28/08 A2998 1030 28 2800 190/14G24 RMK AO2 SLP147 T02780078
94908KDBQ DBQ20070521140010005/21/07 14:00:31  5-MIN KDBQ 212000Z 19015G21KT 10SM CLR 28/08 A2998 1030 28 2800 190/15G21 RMK AO2
94908KDBQ DBQ20070521140510005/21/07 14:05:31  5-MIN KDBQ 212005Z 18014G21KT 10SM CLR 28/07 A2998 1030 26 2800 170/14G21 RMK AO2
94908KDBQ DBQ20070521141010005/21/07 14:10:31  5-MIN KDBQ 212010Z 19015G21KT 10SM CLR 28/07 A2997 1030 26 2800 190/15G21 RMK AO2
94908KDBQ DBQ20070521141509405/21/07 14:15:31  5-MIN KDBQ 212015Z 19013KT 10SM CLR 28/07 A2997 1030 26 2800 190/13 RMK AO2
94908KDBQ DBQ20070521142010005/21/07 14:20:31  5-MIN KDBQ 212020Z 19016G21KT 10SM CLR 28/06 A2997 1040 24 2800 190/16G21 RMK AO2
94908KDBQ DBQ20070521142510005/21/07 14:25:31  5-MIN KDBQ 212025Z 21015G22KT 10SM CLR 28/07 A2996 1040 26 2800 210/15G22 RMK AO2
94908KDBQ DBQ20070521143010005/21/07 14:30:31  5-MIN KDBQ 212030Z 19017G22KT 10SM CLR 28/07 A2996 1040 26 2800 190/17G22 RMK AO2
94908KDBQ DBQ20070521143510005/21/07 14:35:31  5-MIN KDBQ 212035Z 20014G22KT 10SM CLR 28/07 A2997 1040 26 2800 200/14G22 RMK AO2
94908KDBQ DBQ20070521144010005/21/07 14:40:31  5-MIN KDBQ 212040Z 20013G22KT 10SM CLR 28/07 A2997 1040 26 2800 200/13G22 RMK AO2
94908KDBQ DBQ20070521144510005/21/07 14:45:31  5-MIN KDBQ 212045Z 21014G22KT 10SM CLR 28/07 A2996 1040 26 2800 210/14G22 RMK AO2
94908KDBQ DBQ20070521145012305/21/07 14:50:31  5-MIN KDBQ 212050Z 21014G21KT 10SM CLR 28/07 A2996 1040 27 2800 210/14G21 RMK AO2 SLP142 T02780072 58012
94908KDBQ DBQ20070521145512305/21/07 14:55:31  5-MIN KDBQ 212055Z 20017G23KT 10SM CLR 28/07 A2996 1050 27 2800 190/17G23 RMK AO2 SLP141 T02780072 58018
94908KDBQ DBQ20070521150010005/21/07 15:00:31  5-MIN KDBQ 212100Z 19012G23KT 10SM CLR 28/07 A2996 1040 26 2800 190/12G23 RMK AO2
94908KDBQ DBQ20070521150510005/21/07 15:05:31  5-MIN KDBQ 212105Z 20013G20KT 10SM CLR 28/07 A2996 1050 27 2800 200/13G20 RMK AO2
94908KDBQ DBQ20070521151010005/21/07 15:10:31  5-MIN KDBQ 212110Z 20018G23KT 10SM CLR 28/07 A2995 1050 26 2900 200/18G23 RMK AO2
94908KDBQ DBQ20070521151510005/21/07 15:15:31  5-MIN KDBQ 212115Z 19015G23KT 10SM CLR 28/07 A2995 1050 26 2900 190/15G23 RMK AO2
94908KDBQ DBQ20070521152010005/21/07 15:20:31  5-MIN KDBQ 212120Z 18010G22KT 10SM CLR 28/07 A2996 1050 27 2800 180/10G22 RMK AO2
94908KDBQ DBQ20070521152510005/21/07 15:25:31  5-MIN KDBQ 212125Z 19009G18KT 10SM CLR 28/06 A2995 1050 25 2800 190/09G18 RMK AO2
94908KDBQ DBQ20070521153010005/21/07 15:30:31  5-MIN KDBQ 212130Z 20017G20KT 10SM CLR 28/07 A2995 1050 26 2900 200/17G20 RMK AO2
94908KDBQ DBQ20070521153510005/21/07 15:35:31  5-MIN KDBQ 212135Z 20014G20KT 10SM CLR 28/07 A2995 1050 27 2800 200/14G20 RMK AO2
94908KDBQ DBQ20070521154010005/21/07 15:40:31  5-MIN KDBQ 212140Z 20017G21KT 10SM CLR 28/07 A2994 1060 26 2800 200/17G21 RMK AO2
94908KDBQ DBQ20070521154510005/21/07 15:45:31  5-MIN KDBQ 212145Z 20016G21KT 10SM CLR 28/07 A2994 1060 27 2800 200/16G21 RMK AO2
94908KDBQ DBQ20070521155011705/21/07 15:50:31  5-MIN KDBQ 212150Z 20015G20KT 10SM CLR 28/07 A2994 1060 27 2800 200/15G20 RMK AO2 SLP136 T02780072
94908KDBQ DBQ20070521155511105/21/07 15:55:31  5-MIN KDBQ 212155Z 20014KT 10SM CLR 28/07 A2994 1060 27 2800 200/14 RMK AO2 SLP136 T02780072
94908KDBQ DBQ20070521160010005/21/07 16:00:31  5-MIN KDBQ 212200Z 21011G20KT 10SM CLR 27/07 A2994 1060 27 2700 210/11G20 RMK AO2
94908KDBQ DBQ20070521160510005/21/07 16:05:31  5-MIN KDBQ 212205Z 21015G21KT 10SM CLR 28/07 A2994 1060 27 2800 200/15G21 RMK AO2
94908KDBQ DBQ20070521161009405/21/07 16:10:31  5-MIN KDBQ 212210Z 19014KT 10SM CLR 28/07 A2993 1070 26 2800 190/14 RMK AO2
94908KDBQ DBQ20070521161509405/21/07 16:15:31  5-MIN KDBQ 212215Z 19013KT 10SM CLR 27/07 A2993 1070 26 2800 180/13 RMK AO2
94908KDBQ DBQ20070521162010005/21/07 16:20:31  5-MIN KDBQ 212220Z 18014G20KT 10SM CLR 27/07 A2993 1070 26 2800 180/14G20 RMK AO2
94908KDBQ DBQ20070521162510005/21/07 16:25:31  5-MIN KDBQ 212225Z 19011G19KT 10SM CLR 28/06 A2993 1070 25 2800 190/11G19 RMK AO2
94908KDBQ DBQ20070521163009405/21/07 16:30:31  5-MIN KDBQ 212230Z 18012KT 10SM CLR 28/07 A2993 1070 26 2800 180/12 RMK AO2
94908KDBQ DBQ20070521163509405/21/07 16:35:31  5-MIN KDBQ 212235Z 19012KT 10SM CLR 28/07 A2993 1070 26 2800 190/12 RMK AO2
94908KDBQ DBQ20070521164010005/21/07 16:40:31  5-MIN KDBQ 212240Z 19015G20KT 10SM CLR 27/06 A2993 1070 25 2800 190/15G20 RMK AO2
94908KDBQ DBQ20070521164510005/21/07 16:45:31  5-MIN KDBQ 212245Z 20016G20KT 10SM CLR 27/06 A2993 1070 25 2800 200/16G20 RMK AO2
94908KDBQ DBQ20070521165011705/21/07 16:50:31  5-MIN KDBQ 212250Z 20011G20KT 10SM CLR 27/06 A2993 1070 26 2700 200/11G20 RMK AO2 SLP134 T02670061
94908KDBQ DBQ20070521165511705/21/07 16:55:31  5-MIN KDBQ 212255Z 20013G19KT 10SM CLR 27/06 A2993 1070 25 2800 200/13G19 RMK AO2 SLP134 T02720061
94908KDBQ DBQ20070521170010005/21/07 17:00:31  5-MIN KDBQ 212300Z 20012G19KT 10SM CLR 27/07 A2993 1070 28 2700 200/12G19 RMK AO2
94908KDBQ DBQ20070521170509405/21/07 17:05:31  5-MIN KDBQ 212305Z 20012KT 10SM CLR 27/07 A2993 1070 27 2700 200/12 RMK AO2
94908KDBQ DBQ20070521171009405/21/07 17:10:31  5-MIN KDBQ 212310Z 21011KT 10SM CLR 27/07 A2993 1070 28 2700 200/11 RMK AO2
94908KDBQ DBQ20070521171509405/21/07 17:15:31  5-MIN KDBQ 212315Z 20013KT 10SM CLR 27/07 A2993 1070 27 2700 200/13 RMK AO2
94908KDBQ DBQ20070521172009405/21/07 17:20:31  5-MIN KDBQ 212320Z 19012KT 10SM CLR 27/07 A2993 1070 27 2700 190/12 RMK AO2
94908KDBQ DBQ20070521172509405/21/07 17:25:31  5-MIN KDBQ 212325Z 21011KT 10SM CLR 27/07 A2993 1070 27 2700 200/11 RMK AO2
94908KDBQ DBQ20070521173009405/21/07 17:30:31  5-MIN KDBQ 212330Z 21010KT 10SM CLR 26/07 A2993 1070 28 2600 200/10 RMK AO2
94908KDBQ DBQ20070521173509405/21/07 17:35:31  5-MIN KDBQ 212335Z 21010KT 10SM CLR 26/07 A2993 1070 29 2600 200/10 RMK AO2
94908KDBQ DBQ20070521174009405/21/07 17:40:31  5-MIN KDBQ 212340Z 20012KT 10SM CLR 26/07 A2993 1070 28 2600 200/12 RMK AO2
94908KDBQ DBQ20070521174509405/21/07 17:45:31  5-MIN KDBQ 212345Z 21011KT 10SM CLR 26/07 A2993 1070 28 2600 210/11 RMK AO2
94908KDBQ DBQ20070521175012905/21/07 17:50:31  5-MIN KDBQ 212350Z 21011KT 10SM CLR 26/07 A2993 1070 29 2600 210/11 RMK AO2 SLP134 T02560067 10283 20256 58018
94908KDBQ DBQ20070521175512905/21/07 17:55:31  5-MIN KDBQ 212355Z 21011KT 10SM CLR 26/07 A2993 1070 29 2600 200/11 RMK AO2 SLP134 T02560067 10283 20256 56007
94908KDBQ DBQ20070521180008605/21/07 18:00:31  5-MIN KDBQ 220000Z 10SM CLR 26/07 A2993 1070 29 2600 M /M RMK AO2 $
94908KDBQ DBQ20070521180508605/21/07 18:05:31  5-MIN KDBQ 220005Z 10SM CLR 25/08 A2994 1060 33 2500 M /M RMK AO2 $
94908KDBQ DBQ20070521181008605/21/07 18:10:31  5-MIN KDBQ 220010Z 10SM CLR 25/07 A2993 1070 31 2500 M /M RMK AO2 $
94908KDBQ DBQ20070521181508605/21/07 18:15:31  5-MIN KDBQ 220015Z 10SM CLR 25/07 A2993 1070 30 2500 M /M RMK AO2 $
94908KDBQ DBQ20070521182009605/21/07 18:20:31  5-MIN KDBQ 220020Z 19008KT 10SM CLR 25/07 A2993 1070 30 2500 190/08 RMK AO2 $
94908KDBQ DBQ20070521182509605/21/07 18:25:31  5-MIN KDBQ 220025Z 20007KT 10SM CLR 24/07 A2993 1070 33 2400 190/07 RMK AO2 $
94908KDBQ DBQ20070521183009605/21/07 18:30:31  5-MIN KDBQ 220030Z 20008KT 10SM CLR 24/07 A2994 1060 34 2400 200/08 RMK AO2 $
94908KDBQ DBQ20070521183509605/21/07 18:35:31  5-MIN KDBQ 220035Z 20007KT 10SM CLR 23/08 A2994 1060 36 2300 200/07 RMK AO2 $
94908KDBQ DBQ20070521184009605/21/07 18:40:31  5-MIN KDBQ 220040Z 20007KT 10SM CLR 23/07 A2994 1060 35 2300 200/07 RMK AO2 $
94908KDBQ DBQ20070521184509605/21/07 18:45:31  5-MIN KDBQ 220045Z 20007KT 10SM CLR 23/07 A2994 1060 36 2200 200/07 RMK AO2 $
94908KDBQ DBQ20070521185012305/21/07 18:50:31  5-MIN KDBQ 220050Z AUTO 20007KT 10SM CLR 23/07 A2994 1060 36 2200 190/07 RMK AO2 SLP136 T02280072 TSNO $
94908KDBQ DBQ20070521185512305/21/07 18:55:31  5-MIN KDBQ 220055Z AUTO 19007KT 10SM CLR 22/07 A2994 1060 37 2200 190/07 RMK AO2 SLP136 T02220072 TSNO $
94908KDBQ DBQ20070521190010605/21/07 19:00:31  5-MIN KDBQ 220100Z AUTO 19006KT 10SM CLR 22/07 A2994 1060 37 2200 190/06 RMK AO2 TSNO $
94908KDBQ DBQ20070521190510605/21/07 19:05:31  5-MIN KDBQ 220105Z AUTO 19006KT 10SM CLR 22/07 A2995 1050 37 2200 190/06 RMK AO2 TSNO $
94908KDBQ DBQ20070521191010605/21/07 19:10:31  5-MIN KDBQ 220110Z AUTO 19006KT 10SM CLR 22/07 A2995 1050 37 2100 190/06 RMK AO2 TSNO $
94908KDBQ DBQ20070521191510305/21/07 19:15:31  5-MIN KDBQ 220115Z AUTO 19006KT 9SM CLR 22/07 A2995 1050 37 2100 190/06 RMK AO2 TSNO
94908KDBQ DBQ20070521192010305/21/07 19:20:31  5-MIN KDBQ 220120Z AUTO VRB05KT 9SM CLR 22/07 A2995 1050 37 2100 VRB/05 RMK AO2 TSNO
94908KDBQ DBQ20070521192510405/21/07 19:25:31  5-MIN KDBQ 220125Z AUTO 18005KT 10SM CLR 22/07 A2995 1050 37 2100 180/05 RMK AO2 TSNO
94908KDBQ DBQ20070521193010405/21/07 19:30:31  5-MIN KDBQ 220130Z AUTO 18006KT 10SM CLR 21/07 A2995 1050 38 2000 180/06 RMK AO2 TSNO
94908KDBQ DBQ20070521193510405/21/07 19:35:31  5-MIN KDBQ 220135Z AUTO 18006KT 10SM CLR 21/07 A2995 1050 40 2000 180/06 RMK AO2 TSNO
94908KDBQ DBQ20070521194010405/21/07 19:40:31  5-MIN KDBQ 220140Z AUTO 17005KT 10SM CLR 21/07 A2995 1050 40 2000 170/05 RMK AO2 TSNO
94908KDBQ DBQ20070521194510405/21/07 19:45:31  5-MIN KDBQ 220145Z AUTO 16005KT 10SM CLR 21/07 A2996 1050 40 2000 160/05 RMK AO2 TSNO
94908KDBQ DBQ20070521195012105/21/07 19:50:31  5-MIN KDBQ 220150Z AUTO 15006KT 10SM CLR 21/07 A2996 1040 40 2000 150/06 RMK AO2 SLP141 T02060067 TSNO
94908KDBQ DBQ20070522000010405/22/07 00:00:38  5-MIN KDBQ 220600Z AUTO 17009KT 10SM CLR 17/07 A2998 1030 49 1600 170/09 RMK AO2 TSNO
94908KDBQ DBQ20070522000510405/22/07 00:05:31  5-MIN KDBQ 220605Z AUTO 17009KT 10SM CLR 17/07 A2997 1030 49 1600 170/09 RMK AO2 TSNO
94908KDBQ DBQ20070522001010405/22/07 00:10:31  5-MIN KDBQ 220610Z AUTO 17009KT 10SM CLR 18/07 A2997 1030 48 1600 170/09 RMK AO2 TSNO
94908KDBQ DBQ20070522001510405/22/07 00:15:31  5-MIN KDBQ 220615Z AUTO 17010KT 10SM CLR 18/07 A2997 1030 48 1600 170/10 RMK AO2 TSNO
94908KDBQ DBQ20070522002010405/22/07 00:20:31  5-MIN KDBQ 220620Z AUTO 17010KT 10SM CLR 18/07 A2997 1030 48 1600 170/10 RMK AO2 TSNO
94908KDBQ DBQ20070522002510405/22/07 00:25:31  5-MIN KDBQ 220625Z AUTO 17010KT 10SM CLR 18/07 A2997 1030 48 1600 170/10 RMK AO2 TSNO
94908KDBQ DBQ20070522003010405/22/07 00:30:31  5-MIN KDBQ 220630Z AUTO 17010KT 10SM CLR 18/07 A2997 1030 48 1600 170/10 RMK AO2 TSNO
94908KDBQ DBQ20070522003510405/22/07 00:35:31  5-MIN KDBQ 220635Z AUTO 17010KT 10SM CLR 18/07 A2997 1030 48 1600 170/10 RMK AO2 TSNO
94908KDBQ DBQ20070522004010405/22/07 00:40:31  5-MIN KDBQ 220640Z AUTO 17011KT 10SM CLR 18/07 A2997 1030 48 1600 170/11 RMK AO2 TSNO
94908KDBQ DBQ20070522004510405/22/07 00:45:31  5-MIN KDBQ 220645Z AUTO 17009KT 10SM CLR 18/07 A2997 1040 48 1600 160/09 RMK AO2 TSNO
94908KDBQ DBQ20070522005012105/22/07 00:50:31  5-MIN KDBQ 220650Z AUTO 16009KT 10SM CLR 18/07 A2997 1040 48 1600 160/09 RMK AO2 SLP141 T01780067 TSNO
94908KDBQ DBQ20070522005512105/22/07 00:55:31  5-MIN KDBQ 220655Z AUTO 16010KT 10SM CLR 17/07 A2996 1040 49 1600 160/10 RMK AO2 SLP141 T01720067 TSNO
94908KDBQ DBQ20070522010010405/22/07 01:00:31  5-MIN KDBQ 220700Z AUTO 16011KT 10SM CLR 17/07 A2996 1040 49 1600 160/11 RMK AO2 TSNO
94908KDBQ DBQ20070522010510405/22/07 01:05:31  5-MIN KDBQ 220705Z AUTO 16011KT 10SM CLR 17/07 A2996 1040 49 1600 160/11 RMK AO2 TSNO
94908KDBQ DBQ20070522011010405/22/07 01:10:31  5-MIN KDBQ 220710Z AUTO 16012KT 10SM CLR 17/07 A2996 1040 49 1600 160/12 RMK AO2 TSNO
94908KDBQ DBQ20070522011510405/22/07 01:15:31  5-MIN KDBQ 220715Z AUTO 16012KT 10SM CLR 17/07 A2996 1040 49 1600 160/12 RMK AO2 TSNO
94908KDBQ DBQ20070522012010405/22/07 01:20:31  5-MIN KDBQ 220720Z AUTO 16011KT 10SM CLR 17/07 A2996 1040 49 1600 160/11 RMK AO2 TSNO
94908KDBQ DBQ20070522012510405/22/07 01:25:31  5-MIN KDBQ 220725Z AUTO 16010KT 10SM CLR 17/07 A2996 1040 49 1600 160/10 RMK AO2 TSNO
94908KDBQ DBQ20070522013010405/22/07 01:30:31  5-MIN KDBQ 220730Z AUTO 16010KT 10SM CLR 17/07 A2996 1040 49 1600 160/10 RMK AO2 TSNO
94908KDBQ DBQ20070522013510405/22/07 01:35:31  5-MIN KDBQ 220735Z AUTO 16011KT 10SM CLR 17/07 A2996 1040 49 1600 160/11 RMK AO2 TSNO
94908KDBQ DBQ20070522014010405/22/07 01:40:31  5-MIN KDBQ 220740Z AUTO 16010KT 10SM CLR 17/07 A2996 1040 49 1600 160/10 RMK AO2 TSNO
94908KDBQ DBQ20070522014510405/22/07 01:45:31  5-MIN KDBQ 220745Z AUTO 16010KT 10SM CLR 17/07 A2996 1040 53 1500 160/10 RMK AO2 TSNO
94908KDBQ DBQ20070522015012105/22/07 01:50:31  5-MIN KDBQ 220750Z AUTO 17010KT 10SM CLR 17/07 A2996 1040 53 1500 160/10 RMK AO2 SLP141 T01670072 TSNO
94908KDBQ DBQ20070522015512105/22/07 01:55:31  5-MIN KDBQ 220755Z AUTO 17008KT 10SM CLR 17/07 A2997 1040 53 1500 170/08 RMK AO2 SLP142 T01670072 TSNO
94908KDBQ DBQ20070522020010405/22/07 02:00:31  5-MIN KDBQ 220800Z AUTO 17008KT 10SM CLR 17/07 A2997 1040 53 1500 170/08 RMK AO2 TSNO
94908KDBQ DBQ20070522020510405/22/07 02:05:31  5-MIN KDBQ 220805Z AUTO 17008KT 10SM CLR 17/07 A2997 1030 53 1500 170/08 RMK AO2 TSNO
94908KDBQ DBQ20070522021010405/22/07 02:10:31  5-MIN KDBQ 220810Z AUTO 17008KT 10SM CLR 16/07 A2997 1030 55 1400 170/08 RMK AO2 TSNO
94908KDBQ DBQ20070522021510405/22/07 02:15:31  5-MIN KDBQ 220815Z AUTO 17009KT 10SM CLR 16/07 A2997 1030 55 1400 170/09 RMK AO2 TSNO
94908KDBQ DBQ20070522022010405/22/07 02:20:31  5-MIN KDBQ 220820Z AUTO 18009KT 10SM CLR 16/07 A2997 1030 55 1400 180/09 RMK AO2 TSNO
94908KDBQ DBQ20070522022510405/22/07 02:25:31  5-MIN KDBQ 220825Z AUTO 18009KT 10SM CLR 16/07 A2998 1030 55 1400 180/09 RMK AO2 TSNO
94908KDBQ DBQ20070522023010405/22/07 02:30:31  5-MIN KDBQ 220830Z AUTO 17010KT 10SM CLR 16/07 A2998 1030 55 1400 170/10 RMK AO2 TSNO
94908KDBQ DBQ20070522023510405/22/07 02:35:31  5-MIN KDBQ 220835Z AUTO 17010KT 10SM CLR 16/07 A2998 1020 57 1400 170/10 RMK AO2 TSNO
94908KDBQ DBQ20070522024010405/22/07 02:40:31  5-MIN KDBQ 220840Z AUTO 17010KT 10SM CLR 16/07 A2998 1020 57 1400 170/10 RMK AO2 TSNO
94908KDBQ DBQ20070522024510405/22/07 02:45:31  5-MIN KDBQ 220845Z AUTO 17010KT 10SM CLR 16/07 A2998 1020 57 1400 170/10 RMK AO2 TSNO
94908KDBQ DBQ20070522025012705/22/07 02:50:31  5-MIN KDBQ 220850Z AUTO 17010KT 10SM CLR 16/07 A2998 1020 57 1400 170/10 RMK AO2 SLP146 T01560072 50001 TSNO
94908KDBQ DBQ20070522025512705/22/07 02:55:31  5-MIN KDBQ 220855Z AUTO 17010KT 10SM CLR 16/07 A2998 1020 57 1400 160/10 RMK AO2 SLP146 T01560072 53000 TSNO
94908KDBQ DBQ20070522030010405/22/07 03:00:31  5-MIN KDBQ 220900Z AUTO 17010KT 10SM CLR 16/07 A2998 1020 57 1400 160/10 RMK AO2 TSNO
94908KDBQ DBQ20070522030510405/22/07 03:05:31  5-MIN KDBQ 220905Z AUTO 17010KT 10SM CLR 16/07 A2998 1020 55 1400 160/10 RMK AO2 TSNO
94908KDBQ DBQ20070522031010405/22/07 03:10:31  5-MIN KDBQ 220910Z AUTO 17010KT 10SM CLR 16/07 A2998 1020 57 1400 170/10 RMK AO2 TSNO
94908KDBQ DBQ20070522031510405/22/07 03:15:31  5-MIN KDBQ 220915Z AUTO 17010KT 10SM CLR 16/07 A2999 1020 57 1400 170/10 RMK AO2 TSNO
94908KDBQ DBQ20070522032010405/22/07 03:20:31  5-MIN KDBQ 220920Z AUTO 17009KT 10SM CLR 16/07 A2999 1020 57 1400 160/09 RMK AO2 TSNO
94908KDBQ DBQ20070522032510405/22/07 03:25:31  5-MIN KDBQ 220925Z AUTO 17011KT 10SM CLR 16/07 A2999 1020 55 1400 170/11 RMK AO2 TSNO
94908KDBQ DBQ20070522033010405/22/07 03:30:31  5-MIN KDBQ 220930Z AUTO 17010KT 10SM CLR 16/07 A2999 1020 55 1400 160/10 RMK AO2 TSNO
94908KDBQ DBQ20070522033510405/22/07 03:35:31  5-MIN KDBQ 220935Z AUTO 17011KT 10SM CLR 16/07 A2999 1020 55 1400 160/11 RMK AO2 TSNO
94908KDBQ DBQ20070522034010405/22/07 03:40:31  5-MIN KDBQ 220940Z AUTO 17011KT 10SM CLR 16/07 A2999 1010 55 1400 160/11 RMK AO2 TSNO
94908KDBQ DBQ20070522034510405/22/07 03:45:31  5-MIN KDBQ 220945Z AUTO 17011KT 10SM CLR 16/07 A2999 1010 57 1400 160/11 RMK AO2 TSNO
94908KDBQ DBQ20070522035012105/22/07 03:50:31  5-MIN KDBQ 220950Z AUTO 16011KT 10SM CLR 16/07 A2999 1010 55 1400 160/11 RMK AO2 SLP150 T01610072 TSNO
94908KDBQ DBQ20070522035512105/22/07 03:55:31  5-MIN KDBQ 220955Z AUTO 17010KT 10SM CLR 16/08 A2999 1010 59 1400 170/10 RMK AO2 SLP151 T01560078 TSNO
94908KDBQ DBQ20070522040010405/22/07 04:00:31  5-MIN KDBQ 221000Z AUTO 16010KT 10SM CLR 16/08 A2999 1010 59 1400 160/10 RMK AO2 TSNO
94908KDBQ DBQ20070522040510405/22/07 04:05:31  5-MIN KDBQ 221005Z AUTO 16009KT 10SM CLR 16/08 A2999 1010 59 1300 160/09 RMK AO2 TSNO
94908KDBQ DBQ20070522041010405/22/07 04:10:31  5-MIN KDBQ 221010Z AUTO 16009KT 10SM CLR 16/08 A3000 1010 59 1300 160/09 RMK AO2 TSNO
94908KDBQ DBQ20070522041510405/22/07 04:15:31  5-MIN KDBQ 221015Z AUTO 16009KT 10SM CLR 16/08 A3000 1010 59 1300 160/09 RMK AO2 TSNO
94908KDBQ DBQ20070522042010405/22/07 04:20:31  5-MIN KDBQ 221020Z AUTO 16009KT 10SM CLR 16/08 A3000 1010 59 1300 160/09 RMK AO2 TSNO
94908KDBQ DBQ20070522042510405/22/07 04:25:31  5-MIN KDBQ 221025Z AUTO 16010KT 10SM CLR 16/08 A3000 1010 59 1300 160/10 RMK AO2 TSNO
94908KDBQ DBQ20070522043010405/22/07 04:30:31  5-MIN KDBQ 221030Z AUTO 16010KT 10SM CLR 16/08 A3000 1010 59 1300 160/10 RMK AO2 TSNO
94908KDBQ DBQ20070522043510405/22/07 04:35:31  5-MIN KDBQ 221035Z AUTO 16010KT 10SM CLR 16/08 A3000 1010 59 1300 160/10 RMK AO2 TSNO
94908KDBQ DBQ20070522044010405/22/07 04:40:31  5-MIN KDBQ 221040Z AUTO 16012KT 10SM CLR 16/08 A3000 1010 59 1300 160/12 RMK AO2 TSNO
94908KDBQ DBQ20070522044510405/22/07 04:45:31  5-MIN KDBQ 221045Z AUTO 16012KT 10SM CLR 16/08 A3000 1010 59 1300 160/12 RMK AO2 TSNO
94908KDBQ DBQ20070522045011405/22/07 04:50:31  5-MIN KDBQ 221050Z 16011KT 10SM FEW060 16/08 A3000 1010 59 1300 160/11 RMK AO2 SLP153 T01560078
94908KDBQ DBQ20070522045511405/22/07 04:55:31  5-MIN KDBQ 221055Z 16012KT 10SM FEW060 16/08 A3000 1010 59 1300 160/12 RMK AO2 SLP153 T01560078
94908KDBQ DBQ20070522050009705/22/07 05:00:31  5-MIN KDBQ 221100Z 16012KT 10SM FEW060 16/08 A3000 1000 57 1400 160/12 RMK AO2
94908KDBQ DBQ20070522050509705/22/07 05:05:31  5-MIN KDBQ 221105Z 16011KT 10SM FEW060 16/08 A3000 1000 57 1400 160/11 RMK AO2
94908KDBQ DBQ20070522051009705/22/07 05:10:31  5-MIN KDBQ 221110Z 16011KT 10SM FEW060 16/08 A3000 1000 57 1400 160/11 RMK AO2
94908KDBQ DBQ20070522051509705/22/07 05:15:31  5-MIN KDBQ 221115Z 16012KT 10SM FEW060 16/08 A3000 1000 57 1400 160/12 RMK AO2
94908KDBQ DBQ20070522052009405/22/07 05:20:31  5-MIN KDBQ 221120Z 16012KT 10SM CLR 16/08 A3000 1000 57 1400 160/12 RMK AO2
94908KDBQ DBQ20070522052509405/22/07 05:25:31  5-MIN KDBQ 221125Z 16012KT 10SM CLR 16/08 A3000 1000 57 1400 160/12 RMK AO2
94908KDBQ DBQ20070522053009405/22/07 05:30:31  5-MIN KDBQ 221130Z 16013KT 10SM CLR 17/08 A3000 1000 55 1500 160/13 RMK AO2
94908KDBQ DBQ20070522053509405/22/07 05:35:31  5-MIN KDBQ 221135Z 16012KT 10SM CLR 17/08 A3000 1000 55 1500 160/12 RMK AO2
94908KDBQ DBQ20070522054009405/22/07 05:40:31  5-MIN KDBQ 221140Z 16011KT 10SM CLR 17/08 A3000 1000 55 1500 160/11 RMK AO2
94908KDBQ DBQ20070522054509405/22/07 05:45:31  5-MIN KDBQ 221145Z 16012KT 10SM CLR 17/08 A3000 1000 53 1500 160/12 RMK AO2
94908KDBQ DBQ20070522055012905/22/07 05:50:31  5-MIN KDBQ 221150Z 16012KT 10SM CLR 17/08 A3000 1000 53 1500 160/12 RMK AO2 SLP154 T01720078 10178 20156 53000
94908KDBQ DBQ20070522055512905/22/07 05:55:31  5-MIN KDBQ 221155Z 16011KT 10SM CLR 17/08 A3000 1000 53 1500 160/11 RMK AO2 SLP154 T01720078 10178 20156 51007
94908KDBQ DBQ20070522060009405/22/07 06:00:31  5-MIN KDBQ 221200Z 16011KT 10SM CLR 17/08 A3000 1000 55 1500 160/11 RMK AO2
94908KDBQ DBQ20070522060509405/22/07 06:05:31  5-MIN KDBQ 221205Z 16011KT 10SM CLR 18/08 A3000 1000 53 1600 160/11 RMK AO2
94908KDBQ DBQ20070522061009405/22/07 06:10:31  5-MIN KDBQ 221210Z 16012KT 10SM CLR 18/08 A3000 1000 53 1600 160/12 RMK AO2
94908KDBQ DBQ20070522061509405/22/07 06:15:31  5-MIN KDBQ 221215Z 16012KT 10SM CLR 18/08 A3000 1000 53 1600 160/12 RMK AO2
94908KDBQ DBQ20070522062009405/22/07 06:20:31  5-MIN KDBQ 221220Z 17012KT 10SM CLR 18/08 A3000 1000 52 1700 160/12 RMK AO2
94908KDBQ DBQ20070522062509405/22/07 06:25:31  5-MIN KDBQ 221225Z 16011KT 10SM CLR 18/08 A3000 1000 52 1700 160/11 RMK AO2
94908KDBQ DBQ20070522063009405/22/07 06:30:31  5-MIN KDBQ 221230Z 16013KT 10SM CLR 18/09 A3001 1000 54 1700 160/13 RMK AO2
94908KDBQ DBQ20070522063509405/22/07 06:35:31  5-MIN KDBQ 221235Z 17013KT 10SM CLR 19/09 A3001 1000 52 1700 160/13 RMK AO2
94908KDBQ DBQ20070522064009405/22/07 06:40:31  5-MIN KDBQ 221240Z 17011KT 10SM CLR 19/09 A3001 1000 52 1700 170/11 RMK AO2
94908KDBQ DBQ20070522064509405/22/07 06:45:31  5-MIN KDBQ 221245Z 17011KT 10SM CLR 19/09 A3000 1000 52 1700 170/11 RMK AO2
94908KDBQ DBQ20070522065011105/22/07 06:50:31  5-MIN KDBQ 221250Z 17011KT 10SM CLR 19/09 A3001 1000 50 1800 170/11 RMK AO2 SLP156 T01940089
94908KDBQ DBQ20070522065511105/22/07 06:55:31  5-MIN KDBQ 221255Z 17013KT 10SM CLR 19/09 A3000 1000 52 1800 170/13 RMK AO2 SLP156 T01940094
94908KDBQ DBQ20070522070009405/22/07 07:00:31  5-MIN KDBQ 221300Z 17011KT 10SM CLR 19/09 A3001 1000 52 1800 170/11 RMK AO2
94908KDBQ DBQ20070522070510005/22/07 07:05:31  5-MIN KDBQ 221305Z 17013G19KT 10SM CLR 20/10 A3001 1000 52 1900 170/13G19 RMK AO2
94908KDBQ DBQ20070522071010005/22/07 07:10:31  5-MIN KDBQ 221310Z 17014G19KT 10SM CLR 20/10 A3001 1000 52 1900 170/14G19 RMK AO2
94908KDBQ DBQ20070522071510005/22/07 07:15:31  5-MIN KDBQ 221315Z 17015G19KT 10SM CLR 21/10 A3001 1000 50 1900 170/15G19 RMK AO2
94908KDBQ DBQ20070522072010005/22/07 07:20:31  5-MIN KDBQ 221320Z 17015G19KT 10SM CLR 21/11 A3001 1000 52 1900 170/15G19 RMK AO2
94908KDBQ DBQ20070522072510005/22/07 07:25:31  5-MIN KDBQ 221325Z 17014G19KT 10SM CLR 21/11 A3001 1000 52 1900 170/14G19 RMK AO2
94908KDBQ DBQ20070522073009405/22/07 07:30:31  5-MIN KDBQ 221330Z 18014KT 10SM CLR 21/11 A3001 1000 50 2000 170/14 RMK AO2
94908KDBQ DBQ20070522073509405/22/07 07:35:31  5-MIN KDBQ 221335Z 17013KT 10SM CLR 21/11 A3001 1000 52 2000 170/13 RMK AO2
94908KDBQ DBQ20070522074009405/22/07 07:40:31  5-MIN KDBQ 221340Z 17014KT 10SM CLR 22/11 A3001 1000 50 2000 170/14 RMK AO2
94908KDBQ DBQ20070522074510005/22/07 07:45:31  5-MIN KDBQ 221345Z 17017G20KT 10SM CLR 22/11 A3001 1000 50 2000 170/17G20 RMK AO2
94908KDBQ DBQ20070522075011105/22/07 07:50:31  5-MIN KDBQ 221350Z 18015KT 10SM CLR 22/11 A3001 1000 50 2000 180/15 RMK AO2 SLP156 T02170111
94908KDBQ DBQ20070522075511705/22/07 07:55:31  5-MIN KDBQ 221355Z 17018G22KT 10SM CLR 22/12 A3000 1000 51 2100 170/18G22 RMK AO2 SLP154 T02220117
94908KDBQ DBQ20070522080010005/22/07 08:00:31  5-MIN KDBQ 221400Z 18018G23KT 10SM CLR 22/12 A3000 1000 51 2100 180/18G23 RMK AO2
94908KDBQ DBQ20070522080510005/22/07 08:05:31  5-MIN KDBQ 221405Z 17013G23KT 10SM CLR 22/12 A3000 1000 51 2100 170/13G23 RMK AO2
94908KDBQ DBQ20070522081010005/22/07 08:10:31  5-MIN KDBQ 221410Z 18015G22KT 10SM CLR 23/12 A3000 1000 51 2200 180/15G22 RMK AO2
94908KDBQ DBQ20070522081510005/22/07 08:15:31  5-MIN KDBQ 221415Z 18014G22KT 10SM CLR 23/12 A3000 1000 51 2200 180/14G22 RMK AO2
94908KDBQ DBQ20070522082010005/22/07 08:20:31  5-MIN KDBQ 221420Z 17015G22KT 10SM CLR 23/12 A3000 1010 51 2200 170/15G22 RMK AO2
94908KDBQ DBQ20070522082510005/22/07 08:25:31  5-MIN KDBQ 221425Z 17017G21KT 10SM CLR 23/12 A3000 1010 51 2200 160/17G21 RMK AO2
94908KDBQ DBQ20070522083009405/22/07 08:30:31  5-MIN KDBQ 221430Z 17017KT 10SM CLR 23/12 A3000 1010 49 2200 170/17 RMK AO2
94908KDBQ DBQ20070522083510005/22/07 08:35:31  5-MIN KDBQ 221435Z 18015G23KT 10SM CLR 23/12 A3000 1010 49 2200 180/15G23 RMK AO2
94908KDBQ DBQ20070522084010005/22/07 08:40:31  5-MIN KDBQ 221440Z 17013G23KT 10SM CLR 24/13 A3000 1010 49 2300 170/13G23 RMK AO2
94908KDBQ DBQ20070522084510005/22/07 08:45:31  5-MIN KDBQ 221445Z 18018G24KT 10SM CLR 24/13 A2999 1010 49 2300 180/18G24 RMK AO2
94908KDBQ DBQ20070522085012305/22/07 08:50:31  5-MIN KDBQ 221450Z 18016G24KT 10SM CLR 24/13 A2999 1010 49 2300 180/16G24 RMK AO2 SLP151 T02390128 51007
94908KDBQ DBQ20070522085512305/22/07 08:55:31  5-MIN KDBQ 221455Z 18015G24KT 10SM CLR 24/13 A3000 1010 47 2400 180/15G24 RMK AO2 SLP152 T02440128 58002
94908KDBQ DBQ20070522090010005/22/07 09:00:31  5-MIN KDBQ 221500Z 18018G24KT 10SM CLR 24/13 A2999 1010 47 2400 170/18G24 RMK AO2
94908KDBQ DBQ20070522090511805/22/07 09:05:31  5-MIN KDBQ 221505Z 18019G26KT 10SM CLR 24/13 A2999 1010 47 2400 180/19G26 RMK AO2 PK WND 19026/1504
94908KDBQ DBQ20070522091011805/22/07 09:10:31  5-MIN KDBQ 221510Z 18019G27KT 10SM CLR 24/13 A2999 1010 47 2400 180/19G27 RMK AO2 PK WND 18027/1506
94908KDBQ DBQ20070522091511705/22/07 09:15:31  5-MIN KDBQ 221515Z 18017G27KT 9SM CLR 24/13 A2999 1010 47 2400 180/17G27 RMK AO2 PK WND 18027/1506
94908KDBQ DBQ20070522092011705/22/07 09:20:31  5-MIN KDBQ 221520Z 18017G26KT 9SM CLR 25/13 A2999 1010 46 2400 180/17G26 RMK AO2 PK WND 18027/1506
94908KDBQ DBQ20070522092511805/22/07 09:25:31  5-MIN KDBQ 221525Z 18019G26KT 10SM CLR 25/13 A2999 1010 46 2400 180/19G26 RMK AO2 PK WND 18027/1506
94908KDBQ DBQ20070522093011805/22/07 09:30:31  5-MIN KDBQ 221530Z 19021G25KT 10SM CLR 25/13 A2999 1020 46 2400 190/21G25 RMK AO2 PK WND 18027/1506
94908KDBQ DBQ20070522093511805/22/07 09:35:31  5-MIN KDBQ 221535Z 19019G25KT 10SM CLR 26/13 A2999 1020 44 2500 190/19G25 RMK AO2 PK WND 18027/1506
94908KDBQ DBQ20070522094011805/22/07 09:40:31  5-MIN KDBQ 221540Z 18022G28KT 10SM CLR 26/13 A2999 1020 44 2500 180/22G28 RMK AO2 PK WND 19028/1539
94908KDBQ DBQ20070522094511805/22/07 09:45:31  5-MIN KDBQ 221545Z 19018G28KT 10SM CLR 26/13 A2999 1020 43 2600 190/18G28 RMK AO2 PK WND 19028/1539
94908KDBQ DBQ20070522095013505/22/07 09:50:31  5-MIN KDBQ 221550Z 18019G28KT 10SM CLR 26/12 A2998 1020 43 2500 180/19G28 RMK AO2 PK WND 18028/1548 SLP148 T02560122
94908KDBQ DBQ20070522095513505/22/07 09:55:31  5-MIN KDBQ 221555Z 18020G28KT 10SM CLR 26/13 A2998 1020 43 2600 180/20G28 RMK AO2 PK WND 18028/1548 SLP147 T02610128
94908KDBQ DBQ20070522100011805/22/07 10:00:31  5-MIN KDBQ 221600Z 19019G29KT 10SM CLR 26/13 A2998 1020 43 2600 190/19G29 RMK AO2 PK WND 19029/1558
94908KDBQ DBQ20070522100511805/22/07 10:05:31  5-MIN KDBQ 221605Z 19021G29KT 10SM CLR 26/13 A2998 1020 43 2600 190/21G29 RMK AO2 PK WND 19029/1558
94908KDBQ DBQ20070522101011805/22/07 10:10:31  5-MIN KDBQ 221610Z 19018G26KT 10SM CLR 26/13 A2998 1020 43 2600 190/18G26 RMK AO2 PK WND 19029/1558
94908KDBQ DBQ20070522101511805/22/07 10:15:31  5-MIN KDBQ 221615Z 18018G27KT 10SM CLR 27/13 A2998 1020 41 2600 180/18G27 RMK AO2 PK WND 19029/1558
94908KDBQ DBQ20070522102011805/22/07 10:20:31  5-MIN KDBQ 221620Z 20022G27KT 10SM CLR 27/13 A2998 1020 41 2600 200/22G27 RMK AO2 PK WND 19029/1558
94908KDBQ DBQ20070522102511805/22/07 10:25:31  5-MIN KDBQ 221625Z 19019G29KT 10SM CLR 27/13 A2998 1020 41 2600 190/19G29 RMK AO2 PK WND 20029/1621
94908KDBQ DBQ20070522103011805/22/07 10:30:31  5-MIN KDBQ 221630Z 17019G29KT 10SM CLR 27/13 A2998 1020 40 2700 170/19G29 RMK AO2 PK WND 20029/1621
94908KDBQ DBQ20070522103511805/22/07 10:35:31  5-MIN KDBQ 221635Z 19021G26KT 10SM CLR 27/12 A2998 1020 39 2700 190/21G26 RMK AO2 PK WND 20029/1621
94908KDBQ DBQ20070522104011805/22/07 10:40:31  5-MIN KDBQ 221640Z 19019G29KT 10SM CLR 27/13 A2998 1030 40 2700 190/19G29 RMK AO2 PK WND 19029/1640
94908KDBQ DBQ20070522104511805/22/07 10:45:31  5-MIN KDBQ 221645Z 19019G30KT 10SM CLR 27/12 A2998 1030 40 2600 190/19G30 RMK AO2 PK WND 19030/1641
94908KDBQ DBQ20070522105013505/22/07 10:50:31  5-MIN KDBQ 221650Z 17021G31KT 10SM CLR 27/12 A2998 1030 39 2700 170/21G31 RMK AO2 PK WND 17031/1649 SLP145 T02720122
94908KDBQ DBQ20070522105513505/22/07 10:55:31  5-MIN KDBQ 221655Z 20021G31KT 10SM CLR 27/12 A2998 1030 39 2700 190/21G31 RMK AO2 PK WND 17031/1649 SLP145 T02720122
94908KDBQ DBQ20070522110011805/22/07 11:00:31  5-MIN KDBQ 221700Z 19020G36KT 10SM CLR 27/12 A2998 1020 40 2600 190/20G36 RMK AO2 PK WND 19036/1656
94908KDBQ DBQ20070522110512005/22/07 11:05:31  5-MIN KDBQ 221705Z 20020G36KT 9SM FEW060 27/13 A2998 1020 41 2600 200/20G36 RMK AO2 PK WND 19036/1656
94908KDBQ DBQ20070522111012105/22/07 11:10:31  5-MIN KDBQ 221710Z 19022G30KT 10SM SCT060 27/13 A2998 1030 41 2600 190/22G30 RMK AO2 PK WND 19036/1656
94908KDBQ DBQ20070522111512105/22/07 11:15:31  5-MIN KDBQ 221715Z 19022G30KT 10SM SCT060 27/13 A2998 1020 40 2700 190/22G30 RMK AO2 PK WND 19036/1656
94908KDBQ DBQ20070522112012105/22/07 11:20:31  5-MIN KDBQ 221720Z 18018G27KT 10SM FEW060 28/13 A2998 1020 39 2800 180/18G27 RMK AO2 PK WND 19036/1656
94908KDBQ DBQ20070522112512105/22/07 11:25:31  5-MIN KDBQ 221725Z 19021G31KT 10SM FEW060 28/13 A2997 1030 39 2800 180/21G31 RMK AO2 PK WND 19036/1656
94908KDBQ DBQ20070522113012105/22/07 11:30:31  5-MIN KDBQ 221730Z 18020G31KT 10SM FEW060 27/13 A2997 1030 40 2700 180/20G31 RMK AO2 PK WND 19036/1656
94908KDBQ DBQ20070522113512005/22/07 11:35:31  5-MIN KDBQ 221735Z 19020G26KT 9SM SCT060 27/13 A2997 1030 40 2700 190/20G26 RMK AO2 PK WND 19036/1656
94908KDBQ DBQ20070522114012005/22/07 11:40:31  5-MIN KDBQ 221740Z 19022G30KT 9SM SCT060 27/12 A2997 1040 39 2700 190/22G30 RMK AO2 PK WND 19036/1656
94908KDBQ DBQ20070522114512105/22/07 11:45:31  5-MIN KDBQ 221745Z 18021G31KT 10SM SCT060 28/12 A2997 1040 37 2800 180/21G31 RMK AO2 PK WND 19036/1656
94908KDBQ DBQ20070522115015605/22/07 11:50:31  5-MIN KDBQ 221750Z 18022G31KT 10SM SCT060 27/12 A2997 1040 39 2700 180/22G31 RMK AO2 PK WND 19036/1656 SLP142 T02720122 10278 20172 58002
94908KDBQ DBQ20070522115515605/22/07 11:55:31  5-MIN KDBQ 221755Z 18018G30KT 10SM SCT065 28/12 A2996 1040 37 2800 180/18G30 RMK AO2 PK WND 19036/1656 SLP140 T02780122 10278 20172 58011
94908KDBQ DBQ20070522120012105/22/07 12:00:31  5-MIN KDBQ 221800Z 19022G30KT 10SM SCT065 28/12 A2996 1040 36 2800 180/22G30 RMK AO2 PK WND 18028/1758
94908KDBQ DBQ20070522120512105/22/07 12:05:31  5-MIN KDBQ 221805Z 19020G28KT 10SM SCT065 28/12 A2997 1040 36 2800 190/20G28 RMK AO2 PK WND 18028/1758
94908KDBQ DBQ20070522121012105/22/07 12:10:31  5-MIN KDBQ 221810Z 19026G33KT 10SM SCT065 28/12 A2996 1040 36 2800 190/26G33 RMK AO2 PK WND 19033/1808
94908KDBQ DBQ20070522121512105/22/07 12:15:31  5-MIN KDBQ 221815Z 19024G33KT 10SM SCT070 28/12 A2996 1040 36 2800 190/24G33 RMK AO2 PK WND 19033/1808
94908KDBQ DBQ20070522122012105/22/07 12:20:31  5-MIN KDBQ 221820Z 20022G29KT 10SM SCT070 28/12 A2996 1040 36 2800 200/22G29 RMK AO2 PK WND 19033/1808
94908KDBQ DBQ20070522122512005/22/07 12:25:31  5-MIN KDBQ 221825Z 19022G31KT 9SM BKN065 28/12 A2996 1040 37 2800 190/22G31 RMK AO2 PK WND 19033/1808
94908KDBQ DBQ20070522123012005/22/07 12:30:31  5-MIN KDBQ 221830Z 18020G31KT 9SM SCT065 28/12 A2996 1040 35 2800 180/20G31 RMK AO2 PK WND 19033/1808
94908KDBQ DBQ20070522123512105/22/07 12:35:31  5-MIN KDBQ 221835Z 18021G31KT 10SM SCT065 29/12 A2996 1040 35 2900 180/21G31 RMK AO2 PK WND 19033/1808
94908KDBQ DBQ20070522124012105/22/07 12:40:31  5-MIN KDBQ 221840Z 19025G30KT 10SM SCT065 28/12 A2996 1040 36 2800 190/25G30 RMK AO2 PK WND 19033/1808
94908KDBQ DBQ20070522124512105/22/07 12:45:31  5-MIN KDBQ 221845Z 19026G32KT 10SM SCT065 29/12 A2996 1050 35 2900 190/26G32 RMK AO2 PK WND 19033/1808
94908KDBQ DBQ20070522125013805/22/07 12:50:31  5-MIN KDBQ 221850Z 19024G32KT 10SM FEW065 28/12 A2996 1040 35 2800 180/24G32 RMK AO2 PK WND 19033/1808 SLP139 T02830117
94908KDBQ DBQ20070522125513805/22/07 12:55:31  5-MIN KDBQ 221855Z 19023G30KT 10SM FEW070 29/12 A2996 1040 34 2900 190/23G30 RMK AO2 PK WND 19033/1808 SLP139 T02890117
94908KDBQ DBQ20070522130012105/22/07 13:00:31  5-MIN KDBQ 221900Z 18025G30KT 10SM FEW070 28/11 A2996 1040 33 2800 180/25G30 RMK AO2 PK WND 18030/1900
94908KDBQ DBQ20070522130512705/22/07 13:05:31  5-MIN KDBQ 221905Z 18022G30KT 9SM FEW070 SCT090 28/11 A2996 1040 35 2800 180/22G30 RMK AO2 PK WND 18030/1900
94908KDBQ DBQ20070522131012705/22/07 13:10:31  5-MIN KDBQ 221910Z 19022G29KT 9SM SCT070 SCT085 27/11 A2996 1040 34 2700 190/22G29 RMK AO2 PK WND 18030/1900
94908KDBQ DBQ20070522131512705/22/07 13:15:31  5-MIN KDBQ 221915Z 19020G29KT 9SM SCT070 BKN090 27/11 A2997 1030 36 2700 190/20G29 RMK AO2 PK WND 18030/1900
94908KDBQ DBQ20070522132012705/22/07 13:20:31  5-MIN KDBQ 221920Z 18022G28KT 9SM FEW065 BKN080 27/11 A2997 1040 36 2700 180/22G28 RMK AO2 PK WND 18030/1900
94908KDBQ DBQ20070522132512005/22/07 13:25:31  5-MIN KDBQ 221925Z 18020G28KT 9SM BKN080 27/11 A2997 1030 37 2700 180/20G28 RMK AO2 PK WND 18030/1900
94908KDBQ DBQ20070522133012705/22/07 13:30:31  5-MIN KDBQ 221930Z 18019G28KT 9SM SCT070 BKN085 27/11 A2997 1040 37 2700 180/19G28 RMK AO2 PK WND 18030/1900
94908KDBQ DBQ20070522133512805/22/07 13:35:31  5-MIN KDBQ 221935Z 19022G29KT 10SM FEW070 BKN085 27/11 A2996 1040 36 2700 180/22G29 RMK AO2 PK WND 18030/1900
94908KDBQ DBQ20070522134012105/22/07 13:40:31  5-MIN KDBQ 221940Z 19024G29KT 10SM BKN080 27/11 A2996 1040 36 2700 190/24G29 RMK AO2 PK WND 18030/1900
94908KDBQ DBQ20070522134512105/22/07 13:45:31  5-MIN KDBQ 221945Z 19022G30KT 10SM BKN080 27/11 A2997 1040 36 2700 190/22G30 RMK AO2 PK WND 19030/1944
94908KDBQ DBQ20070522135013705/22/07 13:50:31  5-MIN KDBQ 221950Z 19020G30KT 9SM BKN085 27/11 A2997 1040 36 2700 190/20G30 RMK AO2 PK WND 19030/1944 SLP142 T02720111
94908KDBQ DBQ20070522135513805/22/07 13:55:31  5-MIN KDBQ 221955Z 19021G29KT 10SM BKN085 27/11 A2997 1030 36 2700 190/21G29 RMK AO2 PK WND 19030/1944 SLP142 T02720111
94908KDBQ DBQ20070522140012105/22/07 14:00:31  5-MIN KDBQ 222000Z 19021G29KT 10SM BKN090 27/11 A2997 1030 37 2700 190/21G29 RMK AO2 PK WND 20026/1958
94908KDBQ DBQ20070522140512105/22/07 14:05:31  5-MIN KDBQ 222005Z 20017G26KT 10SM BKN090 27/11 A2997 1030 37 2700 200/17G26 RMK AO2 PK WND 20026/1958
94908KDBQ DBQ20070522141012105/22/07 14:10:31  5-MIN KDBQ 222010Z 21019G24KT 10SM BKN090 27/12 A2997 1030 38 2600 200/19G24 RMK AO2 PK WND 20026/1958
94908KDBQ DBQ20070522141512005/22/07 14:15:31  5-MIN KDBQ 222015Z 20021G27KT 9SM BKN090 26/11 A2997 1030 38 2600 200/21G27 RMK AO2 PK WND 19027/2014
94908KDBQ DBQ20070522142012005/22/07 14:20:31  5-MIN KDBQ 222020Z 19018G28KT 9SM BKN090 26/11 A2997 1030 38 2600 190/18G28 RMK AO2 PK WND 21028/2017
94908KDBQ DBQ20070522142512005/22/07 14:25:31  5-MIN KDBQ 222025Z 19015G28KT 9SM BKN090 26/12 A2997 1030 40 2600 190/15G28 RMK AO2 PK WND 21028/2017
94908KDBQ DBQ20070522143012005/22/07 14:30:31  5-MIN KDBQ 222030Z 19017G22KT 9SM BKN090 27/12 A2997 1030 38 2600 190/17G22 RMK AO2 PK WND 21028/2017
94908KDBQ DBQ20070522143512105/22/07 14:35:31  5-MIN KDBQ 222035Z 20019G24KT 10SM BKN090 27/12 A2997 1030 38 2700 200/19G24 RMK AO2 PK WND 21028/2017
94908KDBQ DBQ20070522144012105/22/07 14:40:31  5-MIN KDBQ 222040Z 20019G25KT 10SM BKN090 27/12 A2997 1040 37 2700 200/19G25 RMK AO2 PK WND 21028/2017
94908KDBQ DBQ20070522144512105/22/07 14:45:31  5-MIN KDBQ 222045Z 21016G25KT 10SM SCT090 27/12 A2997 1040 40 2700 210/16G25 RMK AO2 PK WND 21028/2017
94908KDBQ DBQ20070522145014305/22/07 14:50:31  5-MIN KDBQ 222050Z 21019G22KT 9SM SCT090 27/12 A2997 1040 40 2700 210/19G22 RMK AO2 PK WND 21028/2017 SLP142 T02670122 58011
94908KDBQ DBQ20070522145514305/22/07 14:55:31  5-MIN KDBQ 222055Z 21016G23KT 9SM FEW090 27/12 A2997 1030 40 2700 210/16G23 RMK AO2 PK WND 21028/2017 SLP143 T02670122 52002
94908KDBQ DBQ20070522150010205/22/07 15:00:31  5-MIN KDBQ 222100Z 21012G23KT 9SM FEW090 26/12 A2997 1030 41 2600 210/12G23 RMK AO2
94908KDBQ DBQ20070522150510205/22/07 15:05:31  5-MIN KDBQ 222105Z 21018G22KT 9SM FEW090 26/12 A2997 1030 41 2600 200/18G22 RMK AO2
94908KDBQ DBQ20070522151010205/22/07 15:10:31  5-MIN KDBQ 222110Z 20016G22KT 9SM FEW090 26/13 A2997 1030 44 2500 200/16G22 RMK AO2
94908KDBQ DBQ20070522151510205/22/07 15:15:31  5-MIN KDBQ 222115Z 20016G23KT 9SM SCT090 26/12 A2997 1030 43 2500 200/16G23 RMK AO2
94908KDBQ DBQ20070522152010205/22/07 15:20:31  5-MIN KDBQ 222120Z 21016G23KT 9SM BKN090 26/12 A2998 1030 43 2500 210/16G23 RMK AO2
94908KDBQ DBQ20070522152510205/22/07 15:25:31  5-MIN KDBQ 222125Z 21013G20KT 8SM BKN090 25/13 A2998 1030 46 2500 210/13G20 RMK AO2
94908KDBQ DBQ20070522153010205/22/07 15:30:31  5-MIN KDBQ 222130Z 21015G20KT 8SM BKN090 25/13 A2998 1030 46 2500 210/15G20 RMK AO2
94908KDBQ DBQ20070522153509605/22/07 15:35:31  5-MIN KDBQ 222135Z 20013KT 8SM BKN090 25/13 A2998 1030 46 2500 200/13 RMK AO2
94908KDBQ DBQ20070522154009605/22/07 15:40:31  5-MIN KDBQ 222140Z 20013KT 8SM BKN090 25/13 A2997 1030 46 2500 200/13 RMK AO2
94908KDBQ DBQ20070522154509605/22/07 15:45:31  5-MIN KDBQ 222145Z 20013KT 8SM BKN090 25/13 A2997 1030 46 2500 200/13 RMK AO2
94908KDBQ DBQ20070522155011305/22/07 15:50:31  5-MIN KDBQ 222150Z 19012KT 8SM SCT090 25/13 A2997 1030 46 2500 190/12 RMK AO2 SLP145 T02500128
94908KDBQ DBQ20070522155511305/22/07 15:55:31  5-MIN KDBQ 222155Z 19015KT 9SM SCT090 25/12 A2997 1030 44 2500 180/15 RMK AO2 SLP145 T02500122
94908KDBQ DBQ20070522160010205/22/07 16:00:31  5-MIN KDBQ 222200Z 19012G19KT 9SM SCT100 25/12 A2997 1030 44 2500 180/12G19 RMK AO2
94908KDBQ DBQ20070522160510305/22/07 16:05:31  5-MIN KDBQ 222205Z 19012KT 9SM FEW090 SCT110 26/12 A2997 1030 43 2500 190/12 RMK AO2
94908KDBQ DBQ20070522161009605/22/07 16:10:31  5-MIN KDBQ 222210Z 18013KT 9SM FEW090 26/12 A2997 1030 43 2500 180/13 RMK AO2
94908KDBQ DBQ20070522161509605/22/07 16:15:31  5-MIN KDBQ 222215Z 18011KT 9SM FEW090 26/12 A2997 1030 43 2500 180/11 RMK AO2
94908KDBQ DBQ20070522162009605/22/07 16:20:31  5-MIN KDBQ 222220Z 18012KT 9SM FEW120 26/12 A2997 1030 43 2500 180/12 RMK AO2
94908KDBQ DBQ20070522162509605/22/07 16:25:31  5-MIN KDBQ 222225Z 18010KT 9SM FEW110 26/12 A2997 1030 43 2500 180/10 RMK AO2
94908KDBQ DBQ20070522163009605/22/07 16:30:31  5-MIN KDBQ 222230Z 18010KT 8SM SCT100 26/12 A2997 1040 43 2500 180/10 RMK AO2
94908KDBQ DBQ20070522163509605/22/07 16:35:31  5-MIN KDBQ 222235Z 18011KT 8SM SCT100 26/12 A2997 1030 43 2500 180/11 RMK AO2
94908KDBQ DBQ20070522164009605/22/07 16:40:31  5-MIN KDBQ 222240Z 17012KT 9SM SCT100 26/12 A2997 1040 43 2500 170/12 RMK AO2
94908KDBQ DBQ20070522164509605/22/07 16:45:31  5-MIN KDBQ 222245Z 18014KT 9SM BKN095 26/12 A2997 1040 43 2500 180/14 RMK AO2
94908KDBQ DBQ20070522165012005/22/07 16:50:31  5-MIN KDBQ 222250Z 18013KT 8SM BKN090 BKN100 26/12 A2997 1040 43 2500 180/13 RMK AO2 SLP143 T02560122
94908KDBQ DBQ20070522165512005/22/07 16:55:31  5-MIN KDBQ 222255Z 18013KT 8SM SCT080 BKN100 26/12 A2997 1040 43 2500 180/13 RMK AO2 SLP143 T02560122
94908KDBQ DBQ20070522170010305/22/07 17:00:31  5-MIN KDBQ 222300Z 18013KT 8SM BKN085 BKN100 26/12 A2997 1040 43 2500 180/13 RMK AO2
94908KDBQ DBQ20070522170509605/22/07 17:05:31  5-MIN KDBQ 222305Z 19013KT 8SM BKN085 26/12 A2997 1040 43 2500 190/13 RMK AO2
94908KDBQ DBQ20070522171010305/22/07 17:10:31  5-MIN KDBQ 222310Z 19011KT 8SM BKN085 BKN100 26/12 A2997 1040 43 2500 180/11 RMK AO2
94908KDBQ DBQ20070522171510305/22/07 17:15:31  5-MIN KDBQ 222315Z 19012KT 8SM BKN085 BKN100 26/12 A2997 1030 43 2500 190/12 RMK AO2
94908KDBQ DBQ20070522172010205/22/07 17:20:31  5-MIN KDBQ 222320Z 19015G19KT 8SM BKN085 26/12 A2996 1040 43 2500 190/15G19 RMK AO2
94908KDBQ DBQ20070522172510205/22/07 17:25:31  5-MIN KDBQ 222325Z 19010G19KT 8SM BKN085 26/12 A2997 1040 43 2500 190/10G19 RMK AO2
94908KDBQ DBQ20070522173010305/22/07 17:30:31  5-MIN KDBQ 222330Z 19013KT 8SM BKN085 BKN110 26/12 A2996 1040 43 2500 190/13 RMK AO2
94908KDBQ DBQ20070522173510305/22/07 17:35:31  5-MIN KDBQ 222335Z 19013KT 8SM SCT085 BKN110 26/12 A2996 1040 43 2500 180/13 RMK AO2
94908KDBQ DBQ20070522174010305/22/07 17:40:31  5-MIN KDBQ 222340Z 19015KT 8SM SCT090 SCT120 26/12 A2996 1040 43 2500 190/15 RMK AO2
94908KDBQ DBQ20070522174510305/22/07 17:45:31  5-MIN KDBQ 222345Z 19016KT 8SM FEW090 SCT110 26/12 A2997 1040 43 2500 190/16 RMK AO2
94908KDBQ DBQ20070522175014405/22/07 17:50:31  5-MIN KDBQ 222350Z 19014G20KT 8SM FEW085 SCT110 26/12 A2997 1030 43 2500 190/14G20 RMK AO2 SLP142 T02560122 10289 20250 52002
94908KDBQ DBQ20070522175513705/22/07 17:55:31  5-MIN KDBQ 222355Z 19014G20KT 8SM SCT110 26/12 A2997 1030 43 2500 190/14G20 RMK AO2 SLP142 T02560122 10289 20250 50000
94908KDBQ DBQ20070522180009605/22/07 18:00:31  5-MIN KDBQ 230000Z 19011KT 8SM FEW110 25/12 A2997 1030 44 2500 190/11 RMK AO2
94908KDBQ DBQ20070522192509305/22/07 19:25:31  5-MIN KDBQ 230125Z 21007KT 8SM CLR 22/13 A2998 1020 56 2100 210/07 RMK AO2
94908KDBQ DBQ20070522193009305/22/07 19:30:31  5-MIN KDBQ 230130Z 20007KT 8SM CLR 22/14 A2998 1020 61 2100 200/07 RMK AO2
94908KDBQ DBQ20070522193509305/22/07 19:35:31  5-MIN KDBQ 230135Z 20006KT 8SM CLR 22/13 A2998 1020 56 2100 190/06 RMK AO2
94908KDBQ DBQ20070522194009305/22/07 19:40:31  5-MIN KDBQ 230140Z 20007KT 8SM CLR 22/13 A2998 1020 58 2100 200/07 RMK AO2
94908KDBQ DBQ20070522194509305/22/07 19:45:31  5-MIN KDBQ 230145Z 19006KT 9SM CLR 22/14 A2998 1020 61 2100 190/06 RMK AO2
94908KDBQ DBQ20070522195011005/22/07 19:50:31  5-MIN KDBQ 230150Z 19007KT 9SM CLR 22/14 A2999 1020 61 2100 190/07 RMK AO2 SLP148 T02170139
94908KDBQ DBQ20070522195511005/22/07 19:55:31  5-MIN KDBQ 230155Z 19007KT 9SM CLR 22/14 A2999 1020 61 2100 190/07 RMK AO2 SLP149 T02170139
94908KDBQ DBQ20070522200009305/22/07 20:00:31  5-MIN KDBQ 230200Z 20007KT 9SM CLR 22/14 A2999 1010 61 2100 190/07 RMK AO2
94908KDBQ DBQ20070522200509305/22/07 20:05:31  5-MIN KDBQ 230205Z 19007KT 9SM CLR 22/14 A2999 1010 61 2100 190/07 RMK AO2
94908KDBQ DBQ20070522201009605/22/07 20:10:31  5-MIN KDBQ 230210Z 19007KT 9SM FEW120 22/14 A2999 1010 61 2100 190/07 RMK AO2
94908KDBQ DBQ20070522201509605/22/07 20:15:31  5-MIN KDBQ 230215Z 19007KT 9SM FEW120 22/14 A2999 1010 61 2100 190/07 RMK AO2
94908KDBQ DBQ20070522202009605/22/07 20:20:31  5-MIN KDBQ 230220Z 18008KT 9SM FEW120 22/14 A2999 1010 61 2100 180/08 RMK AO2
94908KDBQ DBQ20070522202509605/22/07 20:25:31  5-MIN KDBQ 230225Z 18007KT 9SM FEW110 22/14 A2999 1010 59 2100 180/07 RMK AO2
94908KDBQ DBQ20070522203009605/22/07 20:30:31  5-MIN KDBQ 230230Z 18007KT 9SM FEW120 22/14 A2999 1010 59 2100 180/07 RMK AO2
94908KDBQ DBQ20070522203509605/22/07 20:35:31  5-MIN KDBQ 230235Z 18007KT 9SM SCT110 22/14 A2999 1010 59 2100 180/07 RMK AO2
94908KDBQ DBQ20070522204009605/22/07 20:40:31  5-MIN KDBQ 230240Z 18008KT 9SM BKN110 22/14 A2999 1010 59 2100 180/08 RMK AO2
94908KDBQ DBQ20070522204509605/22/07 20:45:31  5-MIN KDBQ 230245Z 18008KT 9SM BKN110 22/14 A2999 1010 59 2100 180/08 RMK AO2
94908KDBQ DBQ20070522205011905/22/07 20:50:31  5-MIN KDBQ 230250Z 18008KT 9SM BKN110 22/14 A2999 1010 59 2100 170/08 RMK AO2 SLP150 T02220139 50000
94908KDBQ DBQ20070522205511905/22/07 20:55:31  5-MIN KDBQ 230255Z 17008KT 9SM BKN110 22/14 A2999 1010 61 2100 170/08 RMK AO2 SLP150 T02170139 51008
94908KDBQ DBQ20070522210009605/22/07 21:00:31  5-MIN KDBQ 230300Z 18009KT 9SM BKN110 22/14 A2999 1010 59 2100 180/09 RMK AO2
94908KDBQ DBQ20070522210509605/22/07 21:05:31  5-MIN KDBQ 230305Z 17008KT 9SM SCT110 22/14 A2999 1010 59 2100 170/08 RMK AO2
94908KDBQ DBQ20070522211009605/22/07 21:10:31  5-MIN KDBQ 230310Z 18008KT 9SM SCT120 22/14 A2999 1010 59 2100 180/08 RMK AO2
94908KDBQ DBQ20070522211510105/22/07 21:15:31  5-MIN KDBQ 230315Z AUTO 17008KT 8SM FEW120 22/14 A2999 1010 59 2100 170/08 RMK AO2
94908KDBQ DBQ20070522212010605/22/07 21:20:31  5-MIN KDBQ 230320Z AUTO 17008KT 8SM FEW120 22/14 A2999 1010 61 2100 170/08 RMK AO2 TSNO
94908KDBQ DBQ20070522212510305/22/07 21:25:31  5-MIN KDBQ 230325Z AUTO 17008KT 8SM CLR 22/14 A2999 1010 61 2100 170/08 RMK AO2 TSNO
94908KDBQ DBQ20070522213010305/22/07 21:30:31  5-MIN KDBQ 230330Z AUTO 17008KT 8SM CLR 21/14 A2999 1010 63 2000 170/08 RMK AO2 TSNO
94908KDBQ DBQ20070522213510305/22/07 21:35:31  5-MIN KDBQ 230335Z AUTO 17008KT 9SM CLR 21/14 A3000 1010 63 2000 170/08 RMK AO2 TSNO
94908KDBQ DBQ20070522214010305/22/07 21:40:31  5-MIN KDBQ 230340Z AUTO 17008KT 9SM CLR 21/13 A2999 1010 61 2000 170/08 RMK AO2 TSNO
94908KDBQ DBQ20070522214510305/22/07 21:45:31  5-MIN KDBQ 230345Z AUTO 17009KT 8SM CLR 21/13 A2999 1010 61 2000 170/09 RMK AO2 TSNO
94908KDBQ DBQ20070522215012005/22/07 21:50:31  5-MIN KDBQ 230350Z AUTO 17009KT 8SM CLR 21/13 A2999 1010 61 2000 170/09 RMK AO2 SLP150 T02110133 TSNO
94908KDBQ DBQ20070522215512005/22/07 21:55:31  5-MIN KDBQ 230355Z AUTO 17009KT 8SM CLR 21/13 A3000 1010 61 2000 170/09 RMK AO2 SLP151 T02110133 TSNO
94908KDBQ DBQ20070522220010305/22/07 22:00:31  5-MIN KDBQ 230400Z AUTO 17009KT 8SM CLR 21/13 A3000 1010 63 1900 160/09 RMK AO2 TSNO
94908KDBQ DBQ20070522220510305/22/07 22:05:31  5-MIN KDBQ 230405Z AUTO 17010KT 8SM CLR 21/13 A3000 1010 63 1900 170/10 RMK AO2 TSNO
94908KDBQ DBQ20070522221010305/22/07 22:10:31  5-MIN KDBQ 230410Z AUTO 16010KT 8SM CLR 21/13 A3000 1010 61 2000 160/10 RMK AO2 TSNO
94908KDBQ DBQ20070522221510305/22/07 22:15:31  5-MIN KDBQ 230415Z AUTO 17011KT 8SM CLR 21/13 A3000 1010 61 2000 170/11 RMK AO2 TSNO
94908KDBQ DBQ20070522222010305/22/07 22:20:31  5-MIN KDBQ 230420Z AUTO 17010KT 8SM CLR 21/14 A3000 1010 63 2000 170/10 RMK AO2 TSNO
94908KDBQ DBQ20070522222510305/22/07 22:25:31  5-MIN KDBQ 230425Z AUTO 17011KT 8SM CLR 21/14 A3000 1010 63 2000 170/11 RMK AO2 TSNO
94908KDBQ DBQ20070522223010305/22/07 22:30:31  5-MIN KDBQ 230430Z AUTO 17014KT 8SM CLR 22/13 A3000 1010 58 2100 170/14 RMK AO2 TSNO
94908KDBQ DBQ20070522223510305/22/07 22:35:31  5-MIN KDBQ 230435Z AUTO 18014KT 9SM CLR 22/13 A2999 1010 56 2100 180/14 RMK AO2 TSNO
94908KDBQ DBQ20070522224010305/22/07 22:40:31  5-MIN KDBQ 230440Z AUTO 18013KT 9SM CLR 22/13 A3000 1010 54 2100 180/13 RMK AO2 TSNO
94908KDBQ DBQ20070522224510305/22/07 22:45:31  5-MIN KDBQ 230445Z AUTO 18014KT 9SM CLR 22/13 A2999 1010 54 2100 170/14 RMK AO2 TSNO
94908KDBQ DBQ20070522225012605/22/07 22:50:31  5-MIN KDBQ 230450Z AUTO 18014G21KT 9SM CLR 22/13 A2999 1010 54 2100 180/14G21 RMK AO2 SLP149 T02220128 TSNO
94908KDBQ DBQ20070522225512605/22/07 22:55:31  5-MIN KDBQ 230455Z AUTO 18013G21KT 9SM CLR 22/13 A3000 1010 54 2100 180/13G21 RMK AO2 SLP150 T02220128 TSNO
94908KDBQ DBQ20070522230010305/22/07 23:00:31  5-MIN KDBQ 230500Z AUTO 18014KT 9SM CLR 22/13 A2999 1010 54 2100 180/14 RMK AO2 TSNO
94908KDBQ DBQ20070522230510905/22/07 23:05:31  5-MIN KDBQ 230505Z AUTO 18015G21KT 9SM CLR 22/13 A2999 1010 54 2100 180/15G21 RMK AO2 TSNO
94908KDBQ DBQ20070522231010905/22/07 23:10:31  5-MIN KDBQ 230510Z AUTO 18015G21KT 9SM CLR 22/13 A2999 1010 54 2100 180/15G21 RMK AO2 TSNO
94908KDBQ DBQ20070522231510905/22/07 23:15:31  5-MIN KDBQ 230515Z AUTO 19016G21KT 9SM CLR 22/12 A2999 1010 52 2100 180/16G21 RMK AO2 TSNO
94908KDBQ DBQ20070522232010305/22/07 23:20:31  5-MIN KDBQ 230520Z AUTO 19014KT 9SM CLR 22/12 A2999 1010 54 2100 190/14 RMK AO2 TSNO
94908KDBQ DBQ20070522232510305/22/07 23:25:31  5-MIN KDBQ 230525Z AUTO 19013KT 9SM CLR 22/12 A3000 1010 54 2100 190/13 RMK AO2 TSNO
94908KDBQ DBQ20070522233010305/22/07 23:30:31  5-MIN KDBQ 230530Z AUTO 19015KT 9SM CLR 22/12 A3000 1010 54 2100 190/15 RMK AO2 TSNO
94908KDBQ DBQ20070522233510305/22/07 23:35:31  5-MIN KDBQ 230535Z AUTO 19013KT 9SM CLR 22/12 A3000 1010 54 2100 190/13 RMK AO2 TSNO
94908KDBQ DBQ20070522234010305/22/07 23:40:31  5-MIN KDBQ 230540Z AUTO 19013KT 9SM CLR 22/12 A3000 1000 54 2100 190/13 RMK AO2 TSNO
94908KDBQ DBQ20070522234510305/22/07 23:45:31  5-MIN KDBQ 230545Z AUTO 19012KT 9SM CLR 22/12 A3000 1000 54 2100 190/12 RMK AO2 TSNO
94908KDBQ DBQ20070522235014805/22/07 23:50:31  5-MIN KDBQ 230550Z AUTO 19012KT 9SM CLR 22/12 A3000 1000 54 2000 190/12 RMK AO2 SLP151 T02170122 10256 20206 402890156 51008 TSNO
94908KDBQ DBQ20070522235514805/22/07 23:55:31  5-MIN KDBQ 230555Z AUTO 19012KT 9SM CLR 22/12 A3000 1000 54 2000 180/12 RMK AO2 SLP152 T02170122 10256 20206 402890156 53003 TSNO
94908KDBQ DBQ20070523000010605/23/07 00:00:38  5-MIN KDBQ 230600Z AUTO 18010KT 9SM FEW120 22/12 A3000 1000 54 2000 180/10 RMK AO2 TSNO
94908KDBQ DBQ20070523000510605/23/07 00:05:31  5-MIN KDBQ 230605Z AUTO 18010KT 9SM FEW120 22/13 A3000 1000 56 2000 180/10 RMK AO2 TSNO
94908KDBQ DBQ20070523001011305/23/07 00:10:31  5-MIN KDBQ 230610Z AUTO 18010KT 9SM FEW090 SCT120 21/13 A3000 1000 58 2000 180/10 RMK AO2 TSNO
94908KDBQ DBQ20070523001511305/23/07 00:15:32  5-MIN KDBQ 230615Z AUTO 18010KT 8SM SCT090 BKN120 21/13 A3000 1000 58 2000 180/10 RMK AO2 TSNO
94908KDBQ DBQ20070523002011305/23/07 00:20:31  5-MIN KDBQ 230620Z AUTO 18011KT 8SM BKN090 BKN120 21/13 A3000 1000 58 2000 180/11 RMK AO2 TSNO
94908KDBQ DBQ20070523002511305/23/07 00:25:31  5-MIN KDBQ 230625Z AUTO 18010KT 8SM BKN085 BKN120 21/13 A3000 1000 58 2000 180/10 RMK AO2 TSNO
94908KDBQ DBQ20070523003010605/23/07 00:30:31  5-MIN KDBQ 230630Z AUTO 18009KT 8SM BKN085 21/13 A3000 1000 61 2000 180/09 RMK AO2 TSNO
94908KDBQ DBQ20070523003510605/23/07 00:35:31  5-MIN KDBQ 230635Z AUTO 18009KT 8SM OVC085 21/13 A3000 1000 61 2000 180/09 RMK AO2 TSNO
94908KDBQ DBQ20070523004010605/23/07 00:40:31  5-MIN KDBQ 230640Z AUTO 18008KT 8SM OVC090 21/13 A3000 1000 61 2000 180/08 RMK AO2 TSNO
94908KDBQ DBQ20070523004510605/23/07 00:45:31  5-MIN KDBQ 230645Z AUTO 18009KT 8SM OVC085 21/13 A3000 1000 61 2000 180/09 RMK AO2 TSNO
94908KDBQ DBQ20070523005013005/23/07 00:50:31  5-MIN KDBQ 230650Z AUTO 18007KT 8SM BKN085 OVC110 21/13 A3000 1000 61 2000 180/07 RMK AO2 SLP152 T02110133 TSNO
94908KDBQ DBQ20070523005513005/23/07 00:55:31  5-MIN KDBQ 230655Z AUTO 18009KT 8SM BKN090 OVC110 21/13 A3000 1000 61 2000 180/09 RMK AO2 SLP152 T02110133 TSNO
94908KDBQ DBQ20070523010011305/23/07 01:00:31  5-MIN KDBQ 230700Z AUTO 18008KT 8SM BKN090 OVC110 21/13 A3000 1000 61 2000 170/08 RMK AO2 TSNO
94908KDBQ DBQ20070523010510605/23/07 01:05:31  5-MIN KDBQ 230705Z AUTO 17008KT 8SM OVC090 21/13 A3000 1000 63 1900 170/08 RMK AO2 TSNO
94908KDBQ DBQ20070523011010605/23/07 01:10:31  5-MIN KDBQ 230710Z AUTO 17009KT 8SM OVC095 21/13 A3000 1000 63 1900 170/09 RMK AO2 TSNO
94908KDBQ DBQ20070523011511305/23/07 01:15:31  5-MIN KDBQ 230715Z AUTO 17011KT 8SM FEW070 OVC100 21/13 A3000 1010 61 2000 170/11 RMK AO2 TSNO
94908KDBQ DBQ20070523012011305/23/07 01:20:31  5-MIN KDBQ 230720Z AUTO 16009KT 8SM SCT070 OVC100 21/13 A3000 1010 61 2000 160/09 RMK AO2 TSNO
94908KDBQ DBQ20070523012511305/23/07 01:25:31  5-MIN KDBQ 230725Z AUTO 16009KT 8SM BKN070 OVC095 21/13 A3000 1010 63 1900 160/09 RMK AO2 TSNO
94908KDBQ DBQ20070523013011305/23/07 01:30:31  5-MIN KDBQ 230730Z AUTO 17011KT 8SM BKN070 OVC100 21/13 A3000 1010 63 1900 160/11 RMK AO2 TSNO
94908KDBQ DBQ20070523013512005/23/07 01:35:31  5-MIN KDBQ 230735Z AUTO 17011KT 8SM BKN070 BKN080 OVC100 21/13 A3000 1010 63 1900 170/11 RMK AO2 TSNO
94908KDBQ DBQ20070523014011905/23/07 01:40:31  5-MIN KDBQ 230740Z AUTO 18012G19KT 8SM BKN070 OVC080 21/13 A3000 1000 63 1900 180/12G19 RMK AO2 TSNO
94908KDBQ DBQ20070523014511905/23/07 01:45:31  5-MIN KDBQ 230745Z AUTO 19013G21KT 8SM BKN070 OVC085 21/13 A3000 1010 58 2000 190/13G21 RMK AO2 TSNO
94908KDBQ DBQ20070523015014305/23/07 01:50:31  5-MIN KDBQ 230750Z AUTO 20015G21KT 8SM SCT070 BKN085 OVC100 21/13 A3000 1010 58 2000 200/15G21 RMK AO2 SLP151 T02110128 TSNO
94908KDBQ DBQ20070523015515305/23/07 01:55:31  5-MIN KDBQ 230755Z AUTO 19013KT 8SM -RA SCT070 BKN085 OVC100 21/13 A3000 1000 58 2000 190/13 RMK AO2 RAB53 SLP152 P0000 T02110128 TSNO
94908KDBQ DBQ20070523020012305/23/07 02:00:31  5-MIN KDBQ 230800Z AUTO 20011KT 9SM -RA BKN075 OVC095 21/13 A3001 1000 60 1900 200/11 RMK AO2 P0000 TSNO
94908KDBQ DBQ20070523020511705/23/07 02:05:31  5-MIN KDBQ 230805Z AUTO 20011KT 9SM OVC085 21/13 A3001 990 63 1900 200/11 RMK AO2 RAE02 P0000 TSNO
94908KDBQ DBQ20070523021012505/23/07 02:10:31  5-MIN KDBQ 230810Z AUTO 19008KT 8SM BKN080 OVC100 21/13 A3001 1000 63 1900 180/08 RMK AO2 RAE02 P0000 TSNO
94908KDBQ DBQ20070523021512505/23/07 02:15:31  5-MIN KDBQ 230815Z AUTO 18007KT 8SM BKN080 OVC100 21/13 A3001 1000 63 1900 180/07 RMK AO2 RAE02 P0000 TSNO
94908KDBQ DBQ20070523022012505/23/07 02:20:31  5-MIN KDBQ 230820Z AUTO 20010KT 8SM BKN090 OVC110 21/13 A3000 1000 63 1900 200/10 RMK AO2 RAE02 P0000 TSNO
94908KDBQ DBQ20070523022512505/23/07 02:25:31  5-MIN KDBQ 230825Z AUTO 19012KT 9SM BKN090 OVC110 21/12 A3001 1000 56 2000 190/12 RMK AO2 RAE02 P0000 TSNO
94908KDBQ DBQ20070523023012505/23/07 02:30:31  5-MIN KDBQ 230830Z AUTO 18011KT 9SM SCT080 OVC100 21/12 A3001 1000 54 2000 180/11 RMK AO2 RAE02 P0000 TSNO
94908KDBQ DBQ20070523023512505/23/07 02:35:31  5-MIN KDBQ 230835Z AUTO 17009KT 9SM FEW080 OVC100 21/12 A3001 1000 58 1900 170/09 RMK AO2 RAE02 P0000 TSNO
94908KDBQ DBQ20070523024011805/23/07 02:40:31  5-MIN KDBQ 230840Z AUTO 16008KT 9SM OVC100 20/13 A3001 1000 63 1900 160/08 RMK AO2 RAE02 P0000 TSNO
94908KDBQ DBQ20070523024511805/23/07 02:45:31  5-MIN KDBQ 230845Z AUTO 16009KT 8SM OVC100 20/13 A3001 1000 65 1800 160/09 RMK AO2 RAE02 P0000 TSNO
94908KDBQ DBQ20070523025014705/23/07 02:50:31  5-MIN KDBQ 230850Z AUTO 16010KT 8SM BKN100 20/13 A3001 1000 65 1900 160/10 RMK AO2 RAE02 SLP155 P0000 60000 T02000133 53003 TSNO
94908KDBQ DBQ20070523025514705/23/07 02:55:31  5-MIN KDBQ 230855Z AUTO 16009KT 7SM OVC110 20/13 A3001 1000 65 1800 160/09 RMK AO2 RAE02 SLP155 P0000 60000 T02000133 53002 TSNO
94908KDBQ DBQ20070523030010605/23/07 03:00:31  5-MIN KDBQ 230900Z AUTO 16010KT 7SM OVC110 20/13 A3001 1000 65 1800 160/10 RMK AO2 TSNO
94908KDBQ DBQ20070523030510505/23/07 03:05:31  5-MIN KDBQ 230905Z AUTO 17010KT 7SM BKN110 20/13 A3001 990 65 1800 170/10 RMK AO2 TSNO
94908KDBQ DBQ20070523031011205/23/07 03:10:31  5-MIN KDBQ 230910Z AUTO 17010KT 7SM SCT095 OVC120 20/13 A3001 990 65 1800 170/10 RMK AO2 TSNO
94908KDBQ DBQ20070523031511205/23/07 03:15:31  5-MIN KDBQ 230915Z AUTO 18010KT 7SM BKN095 OVC120 20/13 A3001 990 65 1800 170/10 RMK AO2 TSNO
94908KDBQ DBQ20070523032011205/23/07 03:20:31  5-MIN KDBQ 230920Z AUTO 18010KT 7SM BKN095 OVC120 20/13 A3002 990 65 1800 170/10 RMK AO2 TSNO
94908KDBQ DBQ20070523032511205/23/07 03:25:31  5-MIN KDBQ 230925Z AUTO 17010KT 7SM BKN095 OVC120 20/13 A3002 990 65 1800 170/10 RMK AO2 TSNO
94908KDBQ DBQ20070523033011205/23/07 03:30:31  5-MIN KDBQ 230930Z AUTO 18010KT 7SM BKN095 OVC120 20/13 A3002 990 65 1800 170/10 RMK AO2 TSNO
94908KDBQ DBQ20070523033510505/23/07 03:35:31  5-MIN KDBQ 230935Z AUTO 17010KT 7SM OVC095 20/13 A3002 990 65 1800 170/10 RMK AO2 TSNO
94908KDBQ DBQ20070523034010505/23/07 03:40:31  5-MIN KDBQ 230940Z AUTO 18009KT 7SM BKN095 20/13 A3002 990 65 1800 170/09 RMK AO2 TSNO
94908KDBQ DBQ20070523034511205/23/07 03:45:31  5-MIN KDBQ 230945Z AUTO 17010KT 7SM BKN100 BKN120 20/13 A3002 990 65 1800 170/10 RMK AO2 TSNO
94908KDBQ DBQ20070523035013605/23/07 03:50:31  5-MIN KDBQ 230950Z AUTO 18010KT 7SM FEW040 BKN100 OVC120 20/13 A3002 990 65 1800 170/10 RMK AO2 SLP159 T02000133 TSNO
94908KDBQ DBQ20070523035513605/23/07 03:55:31  5-MIN KDBQ 230955Z AUTO 17010KT 7SM FEW055 BKN100 OVC110 20/13 A3002 990 65 1800 170/10 RMK AO2 SLP159 T02000133 TSNO
94908KDBQ DBQ20070523040011205/23/07 04:00:31  5-MIN KDBQ 231000Z AUTO 17010KT 7SM FEW060 BKN100 19/13 A3002 990 67 1800 170/10 RMK AO2 TSNO
94908KDBQ DBQ20070523040511905/23/07 04:05:31  5-MIN KDBQ 231005Z AUTO 17010KT 7SM FEW050 BKN100 BKN120 19/13 A3002 990 67 1800 170/10 RMK AO2 TSNO
94908KDBQ DBQ20070523041011205/23/07 04:10:31  5-MIN KDBQ 231010Z AUTO 17011KT 7SM FEW050 BKN100 19/13 A3002 990 67 1800 170/11 RMK AO2 TSNO
94908KDBQ DBQ20070523041510505/23/07 04:15:31  5-MIN KDBQ 231015Z AUTO 16011KT 8SM SCT100 19/13 A3002 990 67 1800 160/11 RMK AO2 TSNO
94908KDBQ DBQ20070523042010505/23/07 04:20:31  5-MIN KDBQ 231020Z AUTO 17014KT 8SM SCT100 20/13 A3001 990 65 1800 170/14 RMK AO2 TSNO
94908KDBQ DBQ20070523042510505/23/07 04:25:31  5-MIN KDBQ 231025Z AUTO 16011KT 8SM FEW100 20/13 A3002 990 65 1800 160/11 RMK AO2 TSNO
94908KDBQ DBQ20070523043010505/23/07 04:30:31  5-MIN KDBQ 231030Z AUTO 17012KT 8SM FEW100 20/13 A3002 990 65 1800 170/12 RMK AO2 TSNO
94908KDBQ DBQ20070523043510205/23/07 04:35:31  5-MIN KDBQ 231035Z AUTO 17011KT 8SM CLR 20/13 A3002 990 65 1800 170/11 RMK AO2 TSNO
94908KDBQ DBQ20070523044010205/23/07 04:40:31  5-MIN KDBQ 231040Z AUTO 17012KT 8SM CLR 20/13 A3002 990 65 1800 170/12 RMK AO2 TSNO
94908KDBQ DBQ20070523044510205/23/07 04:45:31  5-MIN KDBQ 231045Z AUTO 17012KT 7SM CLR 20/13 A3002 990 65 1800 170/12 RMK AO2 TSNO
94908KDBQ DBQ20070523045010905/23/07 04:50:31  5-MIN KDBQ 231050Z 17012KT 7SM CLR 19/13 A3002 990 67 1800 170/12 RMK AO2 SLP160 T01940133
94908KDBQ DBQ20070523045511205/23/07 04:55:31  5-MIN KDBQ 231055Z 17013KT 6SM HZ CLR 20/13 A3002 990 65 1800 170/13 RMK AO2 SLP160 T02000133
94908KDBQ DBQ20070523050009505/23/07 05:00:31  5-MIN KDBQ 231100Z 17012KT 6SM HZ CLR 20/13 A3002 980 65 1800 170/12 RMK AO2
94908KDBQ DBQ20070523050509505/23/07 05:05:31  5-MIN KDBQ 231105Z 17012KT 6SM HZ CLR 19/13 A3002 980 67 1800 170/12 RMK AO2
94908KDBQ DBQ20070523051009505/23/07 05:10:31  5-MIN KDBQ 231110Z 17012KT 6SM HZ CLR 19/13 A3002 980 67 1800 170/12 RMK AO2
94908KDBQ DBQ20070523051509505/23/07 05:15:31  5-MIN KDBQ 231115Z 16010KT 6SM HZ CLR 19/13 A3002 980 67 1800 160/10 RMK AO2
94908KDBQ DBQ20070523052009505/23/07 05:20:31  5-MIN KDBQ 231120Z 16012KT 6SM HZ CLR 20/13 A3003 980 65 1800 160/12 RMK AO2
94908KDBQ DBQ20070523052509505/23/07 05:25:31  5-MIN KDBQ 231125Z 16011KT 6SM HZ CLR 20/13 A3003 980 65 1800 160/11 RMK AO2
94908KDBQ DBQ20070523053009505/23/07 05:30:31  5-MIN KDBQ 231130Z 16011KT 6SM HZ CLR 20/13 A3003 980 65 1800 160/11 RMK AO2
94908KDBQ DBQ20070523053509505/23/07 05:35:31  5-MIN KDBQ 231135Z 16012KT 6SM HZ CLR 20/13 A3003 980 65 1800 160/12 RMK AO2
94908KDBQ DBQ20070523054009505/23/07 05:40:31  5-MIN KDBQ 231140Z 17013KT 6SM HZ CLR 20/13 A3003 980 65 1800 160/13 RMK AO2
94908KDBQ DBQ20070523054509505/23/07 05:45:31  5-MIN KDBQ 231145Z 17012KT 6SM HZ CLR 20/13 A3003 970 65 1800 170/12 RMK AO2
94908KDBQ DBQ20070523055013305/23/07 05:50:31  5-MIN KDBQ 231150Z 17013KT 7SM CLR 20/13 A3003 970 65 1800 160/13 RMK AO2 SLP165 60000 T02000133 10217 20194 53002
94908KDBQ DBQ20070523055513305/23/07 05:55:31  5-MIN KDBQ 231155Z 17013KT 7SM CLR 20/13 A3004 970 65 1800 160/13 RMK AO2 SLP165 60000 T02000133 10217 20194 53008
94908KDBQ DBQ20070523060009205/23/07 06:00:31  5-MIN KDBQ 231200Z 17013KT 7SM CLR 20/13 A3004 970 65 1800 170/13 RMK AO2
94908KDBQ DBQ20070523060509205/23/07 06:05:31  5-MIN KDBQ 231205Z 16013KT 7SM CLR 21/13 A3004 970 63 1900 160/13 RMK AO2
94908KDBQ DBQ20070523061009205/23/07 06:10:31  5-MIN KDBQ 231210Z 17014KT 7SM CLR 21/13 A3004 970 63 1900 170/14 RMK AO2
94908KDBQ DBQ20070523061509205/23/07 06:15:31  5-MIN KDBQ 231215Z 17014KT 7SM CLR 21/13 A3004 970 63 1900 170/14 RMK AO2
94908KDBQ DBQ20070523062009205/23/07 06:20:31  5-MIN KDBQ 231220Z 17014KT 7SM CLR 21/13 A3004 970 63 1900 170/14 RMK AO2
94908KDBQ DBQ20070523062509205/23/07 06:25:31  5-MIN KDBQ 231225Z 17013KT 7SM CLR 21/13 A3004 970 61 1900 170/13 RMK AO2
94908KDBQ DBQ20070523063009205/23/07 06:30:31  5-MIN KDBQ 231230Z 17015KT 7SM CLR 21/13 A3004 970 61 1900 170/15 RMK AO2
94908KDBQ DBQ20070523063509205/23/07 06:35:31  5-MIN KDBQ 231235Z 17016KT 7SM CLR 21/13 A3004 970 61 1900 170/16 RMK AO2
94908KDBQ DBQ20070523064009205/23/07 06:40:31  5-MIN KDBQ 231240Z 17016KT 7SM CLR 22/13 A3004 970 58 2000 170/16 RMK AO2
94908KDBQ DBQ20070523064509205/23/07 06:45:31  5-MIN KDBQ 231245Z 17017KT 8SM CLR 22/13 A3004 970 58 2000 170/17 RMK AO2
94908KDBQ DBQ20070523065011505/23/07 06:50:31  5-MIN KDBQ 231250Z 17018G23KT 8SM CLR 22/13 A3004 970 56 2100 170/18G23 RMK AO2 SLP166 T02220133
94908KDBQ DBQ20070523065511505/23/07 06:55:31  5-MIN KDBQ 231255Z 18016G23KT 8SM CLR 22/13 A3004 970 56 2100 180/16G23 RMK AO2 SLP167 T02220133
94908KDBQ DBQ20070523070009805/23/07 07:00:31  5-MIN KDBQ 231300Z 18016G22KT 8SM CLR 22/13 A3004 970 56 2100 180/16G22 RMK AO2
94908KDBQ DBQ20070523070509805/23/07 07:05:31  5-MIN KDBQ 231305Z 18017G23KT 8SM CLR 23/13 A3004 960 55 2100 180/17G23 RMK AO2
94908KDBQ DBQ20070523071011605/23/07 07:10:31  5-MIN KDBQ 231310Z 18017G26KT 8SM CLR 23/13 A3004 970 53 2100 180/17G26 RMK AO2 PK WND 18026/1310
94908KDBQ DBQ20070523071511605/23/07 07:15:31  5-MIN KDBQ 231315Z 18018G26KT 8SM CLR 23/13 A3004 970 53 2100 180/18G26 RMK AO2 PK WND 18026/1310
94908KDBQ DBQ20070523072011605/23/07 07:20:31  5-MIN KDBQ 231320Z 18020G26KT 9SM CLR 23/13 A3004 970 53 2100 170/20G26 RMK AO2 PK WND 18026/1320
94908KDBQ DBQ20070523072511605/23/07 07:25:31  5-MIN KDBQ 231325Z 18020G26KT 9SM CLR 23/13 A3004 970 51 2200 180/20G26 RMK AO2 PK WND 18026/1320
94908KDBQ DBQ20070523073011605/23/07 07:30:31  5-MIN KDBQ 231330Z 18018G25KT 9SM CLR 23/13 A3004 970 53 2200 180/18G25 RMK AO2 PK WND 18026/1320
94908KDBQ DBQ20070523073511605/23/07 07:35:31  5-MIN KDBQ 231335Z 18018G25KT 9SM CLR 23/13 A3003 970 53 2200 180/18G25 RMK AO2 PK WND 18026/1320
94908KDBQ DBQ20070523074011605/23/07 07:40:31  5-MIN KDBQ 231340Z 18019G25KT 9SM CLR 24/13 A3003 980 51 2300 180/19G25 RMK AO2 PK WND 18026/1320
94908KDBQ DBQ20070523074511605/23/07 07:45:31  5-MIN KDBQ 231345Z 18021G28KT 9SM CLR 24/13 A3003 980 51 2300 180/21G28 RMK AO2 PK WND 17028/1343
94908KDBQ DBQ20070523075013305/23/07 07:50:31  5-MIN KDBQ 231350Z 18019G28KT 9SM CLR 24/13 A3003 970 51 2300 180/19G28 RMK AO2 PK WND 17028/1343 SLP164 T02390133
94908KDBQ DBQ20070523075513305/23/07 07:55:31  5-MIN KDBQ 231355Z 18019G26KT 9SM CLR 24/13 A3003 970 51 2300 180/19G26 RMK AO2 PK WND 17028/1343 SLP164 T02390133
94908KDBQ DBQ20070523080011605/23/07 08:00:31  5-MIN KDBQ 231400Z 18020G27KT 9SM CLR 24/13 A3003 980 51 2300 180/20G27 RMK AO2 PK WND 18027/1358
94908KDBQ DBQ20070523080511605/23/07 08:05:31  5-MIN KDBQ 231405Z 18020G27KT 9SM CLR 24/13 A3003 980 51 2300 180/20G27 RMK AO2 PK WND 18027/1402
94908KDBQ DBQ20070523081011605/23/07 08:10:31  5-MIN KDBQ 231410Z 19023G28KT 9SM CLR 24/13 A3003 980 49 2300 190/23G28 RMK AO2 PK WND 19028/1410
94908KDBQ DBQ20070523081511705/23/07 08:15:31  5-MIN KDBQ 231415Z 18020G29KT 10SM CLR 24/13 A3003 980 49 2300 180/20G29 RMK AO2 PK WND 19029/1411
94908KDBQ DBQ20070523082011705/23/07 08:20:31  5-MIN KDBQ 231420Z 19022G29KT 10SM CLR 24/13 A3003 970 49 2300 190/22G29 RMK AO2 PK WND 19029/1411
94908KDBQ DBQ20070523082511705/23/07 08:25:31  5-MIN KDBQ 231425Z 19022G29KT 10SM CLR 25/13 A3003 970 48 2400 190/22G29 RMK AO2 PK WND 20029/1424
94908KDBQ DBQ20070523083011705/23/07 08:30:31  5-MIN KDBQ 231430Z 19025G31KT 10SM CLR 25/13 A3003 980 46 2400 190/25G31 RMK AO2 PK WND 19031/1430
94908KDBQ DBQ20070523083511705/23/07 08:35:31  5-MIN KDBQ 231435Z 19019G31KT 10SM CLR 25/13 A3003 980 46 2400 180/19G31 RMK AO2 PK WND 19031/1430
94908KDBQ DBQ20070523084011705/23/07 08:40:31  5-MIN KDBQ 231440Z 18025G31KT 10SM CLR 25/13 A3003 980 48 2400 180/25G31 RMK AO2 PK WND 18031/1439
94908KDBQ DBQ20070523084511705/23/07 08:45:31  5-MIN KDBQ 231445Z 19023G31KT 10SM CLR 25/13 A3003 970 46 2400 190/23G31 RMK AO2 PK WND 18031/1439
94908KDBQ DBQ20070523085014005/23/07 08:50:31  5-MIN KDBQ 231450Z 19020G29KT 10SM CLR 26/13 A3003 980 44 2500 190/20G29 RMK AO2 PK WND 18031/1439 SLP163 T02560128 53008
94908KDBQ DBQ20070523085514005/23/07 08:55:31  5-MIN KDBQ 231455Z 19018G28KT 10SM CLR 26/14 A3003 980 46 2500 190/18G28 RMK AO2 PK WND 18031/1439 SLP163 T02610139 58002
94908KDBQ DBQ20070523090012005/23/07 09:00:31  5-MIN KDBQ 231500Z 19020G27KT 10SM FEW080 26/13 A3003 970 44 2500 190/20G27 RMK AO2 PK WND 19027/1457
94908KDBQ DBQ20070523090512005/23/07 09:05:31  5-MIN KDBQ 231505Z 19021G28KT 10SM FEW080 26/13 A3003 980 44 2500 190/21G28 RMK AO2 PK WND 19028/1504
94908KDBQ DBQ20070523091012005/23/07 09:10:31  5-MIN KDBQ 231510Z 20021G28KT 10SM FEW080 26/13 A3004 970 46 2500 200/21G28 RMK AO2 PK WND 20028/1506
94908KDBQ DBQ20070523091512005/23/07 09:15:31  5-MIN KDBQ 231515Z 18025G29KT 10SM FEW080 26/13 A3003 980 44 2500 180/25G29 RMK AO2 PK WND 18029/1514
94908KDBQ DBQ20070523092012005/23/07 09:20:31  5-MIN KDBQ 231520Z 19022G30KT 10SM FEW080 26/13 A3003 980 44 2500 190/22G30 RMK AO2 PK WND 20030/1518
94908KDBQ DBQ20070523092512005/23/07 09:25:31  5-MIN KDBQ 231525Z 20022G30KT 10SM FEW080 26/13 A3003 970 44 2500 200/22G30 RMK AO2 PK WND 20030/1518
94908KDBQ DBQ20070523093011705/23/07 09:30:31  5-MIN KDBQ 231530Z 20019G30KT 10SM CLR 26/13 A3003 980 44 2500 200/19G30 RMK AO2 PK WND 19030/1528
94908KDBQ DBQ20070523093511705/23/07 09:35:31  5-MIN KDBQ 231535Z 20025G30KT 10SM CLR 27/14 A3003 980 45 2600 200/25G30 RMK AO2 PK WND 19030/1528
94908KDBQ DBQ20070523094011705/23/07 09:40:31  5-MIN KDBQ 231540Z 21024G31KT 10SM CLR 27/13 A3003 980 43 2600 210/24G31 RMK AO2 PK WND 21031/1537
94908KDBQ DBQ20070523094511705/23/07 09:45:31  5-MIN KDBQ 231545Z 19024G31KT 10SM CLR 27/14 A3002 980 45 2600 190/24G31 RMK AO2 PK WND 19031/1545
94908KDBQ DBQ20070523095013405/23/07 09:50:31  5-MIN KDBQ 231550Z 20024G31KT 10SM CLR 27/14 A3002 980 45 2600 200/24G31 RMK AO2 PK WND 20031/1550 SLP160 T02670139
94908KDBQ DBQ20070523095513405/23/07 09:55:31  5-MIN KDBQ 231555Z 19021G31KT 10SM CLR 27/14 A3002 980 45 2600 190/21G31 RMK AO2 PK WND 20031/1550 SLP160 T02670139
94908KDBQ DBQ20070523100011705/23/07 10:00:31  5-MIN KDBQ 231600Z 20025G30KT 10SM CLR 27/14 A3002 990 43 2700 200/25G30 RMK AO2 PK WND 20030/1558
94908KDBQ DBQ20070523100511705/23/07 10:05:31  5-MIN KDBQ 231605Z 21022G30KT 10SM CLR 27/14 A3002 980 43 2700 210/22G30 RMK AO2 PK WND 20030/1603
94908KDBQ DBQ20070523101011705/23/07 10:10:31  5-MIN KDBQ 231610Z 20023G30KT 10SM CLR 27/13 A3002 980 42 2700 200/23G30 RMK AO2 PK WND 20030/1610
94908KDBQ DBQ20070523101511705/23/07 10:15:31  5-MIN KDBQ 231615Z 20019G30KT 10SM CLR 27/14 A3002 980 43 2700 200/19G30 RMK AO2 PK WND 20030/1610
94908KDBQ DBQ20070523102011705/23/07 10:20:31  5-MIN KDBQ 231620Z 19024G32KT 10SM CLR 28/13 A3002 990 40 2700 190/24G32 RMK AO2 PK WND 19032/1619
94908KDBQ DBQ20070523102511705/23/07 10:25:31  5-MIN KDBQ 231625Z 19019G32KT 10SM CLR 27/13 A3002 990 42 2700 190/19G32 RMK AO2 PK WND 19032/1619
94908KDBQ DBQ20070523103011705/23/07 10:30:31  5-MIN KDBQ 231630Z 18023G31KT 10SM CLR 28/13 A3002 990 40 2700 180/23G31 RMK AO2 PK WND 19032/1619
94908KDBQ DBQ20070523103511705/23/07 10:35:31  5-MIN KDBQ 231635Z 20020G30KT 10SM CLR 28/14 A3002 990 42 2700 200/20G30 RMK AO2 PK WND 19032/1619
94908KDBQ DBQ20070523104011705/23/07 10:40:31  5-MIN KDBQ 231640Z 20021G28KT 10SM CLR 28/14 A3002 980 40 2800 200/21G28 RMK AO2 PK WND 19032/1619
94908KDBQ DBQ20070523104511705/23/07 10:45:31  5-MIN KDBQ 231645Z 21023G30KT 10SM CLR 28/14 A3001 990 42 2700 210/23G30 RMK AO2 PK WND 19032/1619
94908KDBQ DBQ20070523105013405/23/07 10:50:31  5-MIN KDBQ 231650Z 20024G32KT 10SM CLR 28/14 A3002 980 42 2700 200/24G32 RMK AO2 PK WND 19032/1650 SLP159 T02780139
94908KDBQ DBQ20070523105513405/23/07 10:55:31  5-MIN KDBQ 231655Z 20024G32KT 10SM CLR 27/13 A3002 990 42 2700 200/24G32 RMK AO2 PK WND 19032/1650 SLP158 T02720133
94908KDBQ DBQ20070523110011705/23/07 11:00:31  5-MIN KDBQ 231700Z 19022G31KT 10SM CLR 28/14 A3002 990 42 2700 190/22G31 RMK AO2 PK WND 20029/1656
94908KDBQ DBQ20070523110511705/23/07 11:05:31  5-MIN KDBQ 231705Z 20024G30KT 10SM CLR 27/13 A3002 990 42 2700 200/24G30 RMK AO2 PK WND 19030/1704
94908KDBQ DBQ20070523111011705/23/07 11:10:31  5-MIN KDBQ 231710Z 19023G30KT 10SM CLR 28/13 A3002 990 40 2700 190/23G30 RMK AO2 PK WND 19030/1704
94908KDBQ DBQ20070523111511705/23/07 11:15:31  5-MIN KDBQ 231715Z 19020G29KT 10SM CLR 27/13 A3002 990 42 2700 190/20G29 RMK AO2 PK WND 19030/1704
94908KDBQ DBQ20070523112011705/23/07 11:20:31  5-MIN KDBQ 231720Z 21022G29KT 10SM CLR 28/14 A3001 990 42 2700 210/22G29 RMK AO2 PK WND 19030/1704
94908KDBQ DBQ20070523112511705/23/07 11:25:31  5-MIN KDBQ 231725Z 20021G29KT 10SM CLR 28/14 A3002 990 40 2800 200/21G29 RMK AO2 PK WND 19030/1704
94908KDBQ DBQ20070523113011705/23/07 11:30:31  5-MIN KDBQ 231730Z 20020G28KT 10SM CLR 28/14 A3001 990 40 2800 200/20G28 RMK AO2 PK WND 19030/1704
94908KDBQ DBQ20070523113511705/23/07 11:35:31  5-MIN KDBQ 231735Z 19019G28KT 10SM CLR 28/13 A3001 990 39 2800 190/19G28 RMK AO2 PK WND 19030/1704
94908KDBQ DBQ20070523114011705/23/07 11:40:31  5-MIN KDBQ 231740Z 19016G26KT 10SM CLR 29/14 A3002 990 39 2800 190/16G26 RMK AO2 PK WND 19030/1704
94908KDBQ DBQ20070523114511805/23/07 11:45:31  5-MIN KDBQ 231745Z 21027G33KT 10SM CLR 29/13 A3001 1000 38 2900 210/27G33 RMK AO2 PK WND 21033/1744
94908KDBQ DBQ20070523115015205/23/07 11:50:31  5-MIN KDBQ 231750Z 20023G33KT 10SM CLR 29/13 A3002 990 38 2800 190/23G33 RMK AO2 PK WND 21033/1744 SLP156 T02890133 10294 20200 58002
94908KDBQ DBQ20070523115515205/23/07 11:55:31  5-MIN KDBQ 231755Z 20024G35KT 10SM CLR 29/13 A3002 990 36 2800 200/24G35 RMK AO2 PK WND 20035/1751 SLP157 T02890128 10294 20200 56004
94908KDBQ DBQ20070523120011705/23/07 12:00:31  5-MIN KDBQ 231800Z 21024G35KT 10SM CLR 28/13 A3001 990 37 2800 210/24G35 RMK AO2 PK WND 19034/1756
94908KDBQ DBQ20070523120511705/23/07 12:05:31  5-MIN KDBQ 231805Z 21024G34KT 10SM CLR 28/13 A3002 990 39 2800 210/24G34 RMK AO2 PK WND 19034/1756
94908KDBQ DBQ20070523121011705/23/07 12:10:31  5-MIN KDBQ 231810Z 21025G32KT 10SM CLR 28/13 A3001 990 39 2800 210/25G32 RMK AO2 PK WND 19034/1756
94908KDBQ DBQ20070523121511705/23/07 12:15:31  5-MIN KDBQ 231815Z 21023G32KT 10SM CLR 29/13 A3002 990 38 2800 210/23G32 RMK AO2 PK WND 19034/1756
94908KDBQ DBQ20070523122011705/23/07 12:20:31  5-MIN KDBQ 231820Z 21023G31KT 10SM CLR 28/13 A3001 990 39 2800 210/23G31 RMK AO2 PK WND 19034/1756
94908KDBQ DBQ20070523122511705/23/07 12:25:31  5-MIN KDBQ 231825Z 21024G31KT 10SM CLR 28/13 A3002 990 39 2800 210/24G31 RMK AO2 PK WND 19034/1756
94908KDBQ DBQ20070523123011705/23/07 12:30:31  5-MIN KDBQ 231830Z 20021G31KT 10SM CLR 28/13 A3002 990 39 2800 200/21G31 RMK AO2 PK WND 19034/1756
94908KDBQ DBQ20070523123511705/23/07 12:35:31  5-MIN KDBQ 231835Z 19024G29KT 10SM CLR 29/13 A3002 990 38 2800 190/24G29 RMK AO2 PK WND 19034/1756
94908KDBQ DBQ20070523124011705/23/07 12:40:31  5-MIN KDBQ 231840Z 20023G33KT 10SM CLR 29/13 A3002 990 36 2800 190/23G33 RMK AO2 PK WND 19034/1756
94908KDBQ DBQ20070523124511705/23/07 12:45:31  5-MIN KDBQ 231845Z 20020G33KT 10SM CLR 29/13 A3001 990 38 2800 200/20G33 RMK AO2 PK WND 19034/1756
94908KDBQ DBQ20070523125013405/23/07 12:50:31  5-MIN KDBQ 231850Z 21024G32KT 10SM CLR 29/13 A3001 990 38 2800 210/24G32 RMK AO2 PK WND 19034/1756 SLP155 T02890133
94908KDBQ DBQ20070523125513405/23/07 12:55:31  5-MIN KDBQ 231855Z 20022G32KT 10SM CLR 29/13 A3002 990 38 2800 200/22G32 RMK AO2 PK WND 19034/1756 SLP157 T02890133
94908KDBQ DBQ20070523130011805/23/07 13:00:31  5-MIN KDBQ 231900Z 21017G27KT 10SM CLR 29/13 A3001 1000 38 2900 210/17G27 RMK AO2 PK WND 20026/1856
94908KDBQ DBQ20070523130511705/23/07 13:05:31  5-MIN KDBQ 231905Z 20021G26KT 10SM CLR 29/13 A3001 990 38 2800 200/21G26 RMK AO2 PK WND 20026/1903
94908KDBQ DBQ20070523131011705/23/07 13:10:31  5-MIN KDBQ 231910Z 19017G26KT 10SM CLR 29/13 A3001 990 38 2800 190/17G26 RMK AO2 PK WND 20026/1903
94908KDBQ DBQ20070523131511705/23/07 13:15:31  5-MIN KDBQ 231915Z 21021G27KT 10SM CLR 29/13 A3001 990 38 2900 200/21G27 RMK AO2 PK WND 20027/1915
94908KDBQ DBQ20070523132011805/23/07 13:20:31  5-MIN KDBQ 231920Z 20022G28KT 10SM CLR 29/13 A3001 1000 36 2900 200/22G28 RMK AO2 PK WND 20028/1916
94908KDBQ DBQ20070523132511805/23/07 13:25:31  5-MIN KDBQ 231925Z 18022G28KT 10SM CLR 29/13 A3001 1000 36 2900 180/22G28 RMK AO2 PK WND 18028/1925
94908KDBQ DBQ20070523133011805/23/07 13:30:31  5-MIN KDBQ 231930Z 19020G28KT 10SM CLR 29/13 A3000 1000 35 2900 190/20G28 RMK AO2 PK WND 18028/1925
94908KDBQ DBQ20070523133511805/23/07 13:35:31  5-MIN KDBQ 231935Z 20023G29KT 10SM CLR 29/13 A3000 1000 36 2900 200/23G29 RMK AO2 PK WND 20029/1932
94908KDBQ DBQ20070523134011805/23/07 13:40:31  5-MIN KDBQ 231940Z 19023G30KT 10SM CLR 30/13 A3000 1000 34 3000 190/23G30 RMK AO2 PK WND 19030/1940
94908KDBQ DBQ20070523134511805/23/07 13:45:31  5-MIN KDBQ 231945Z 19024G31KT 10SM CLR 30/13 A3000 1000 34 3000 190/24G31 RMK AO2 PK WND 20031/1945
94908KDBQ DBQ20070523135013505/23/07 13:50:31  5-MIN KDBQ 231950Z 19022G31KT 10SM CLR 29/13 A3000 1010 35 2900 190/22G31 RMK AO2 PK WND 18031/1950 SLP150 T02940128
94908KDBQ DBQ20070523135513505/23/07 13:55:31  5-MIN KDBQ 231955Z 19022G31KT 10SM CLR 30/13 A3000 1010 34 3000 190/22G31 RMK AO2 PK WND 18031/1950 SLP151 T03000128
94908KDBQ DBQ20070523140011805/23/07 14:00:31  5-MIN KDBQ 232000Z 19020G30KT 10SM CLR 30/13 A3000 1010 34 3000 190/20G30 RMK AO2 PK WND 19029/1958
94908KDBQ DBQ20070523140511805/23/07 14:05:31  5-MIN KDBQ 232005Z 19020G29KT 10SM CLR 30/13 A2999 1010 34 3000 190/20G29 RMK AO2 PK WND 19029/1958
94908KDBQ DBQ20070523141011805/23/07 14:10:31  5-MIN KDBQ 232010Z 20022G29KT 10SM CLR 30/13 A3000 1010 34 3000 200/22G29 RMK AO2 PK WND 18029/2010
94908KDBQ DBQ20070523141511805/23/07 14:15:31  5-MIN KDBQ 232015Z 19022G30KT 10SM CLR 30/12 A3000 1010 33 3000 190/22G30 RMK AO2 PK WND 19030/2012
94908KDBQ DBQ20070523142011805/23/07 14:20:31  5-MIN KDBQ 232020Z 19021G30KT 10SM CLR 29/12 A2999 1010 34 2900 190/21G30 RMK AO2 PK WND 19030/2016
94908KDBQ DBQ20070523142511805/23/07 14:25:31  5-MIN KDBQ 232025Z 19023G30KT 10SM CLR 30/12 A2999 1010 33 3000 190/23G30 RMK AO2 PK WND 19030/2016
94908KDBQ DBQ20070523143011805/23/07 14:30:31  5-MIN KDBQ 232030Z 19024G30KT 10SM CLR 29/12 A2999 1010 33 2900 190/24G30 RMK AO2 PK WND 19030/2030
94908KDBQ DBQ20070523143511805/23/07 14:35:31  5-MIN KDBQ 232035Z 19022G30KT 10SM CLR 29/12 A2999 1020 33 2900 190/22G30 RMK AO2 PK WND 19030/2031
94908KDBQ DBQ20070523144011805/23/07 14:40:31  5-MIN KDBQ 232040Z 21023G30KT 10SM CLR 30/12 A2999 1020 33 3000 210/23G30 RMK AO2 PK WND 19030/2031
94908KDBQ DBQ20070523144511805/23/07 14:45:31  5-MIN KDBQ 232045Z 19022G27KT 10SM CLR 29/12 A2998 1020 33 2900 190/22G27 RMK AO2 PK WND 19030/2031
94908KDBQ DBQ20070523145014105/23/07 14:50:31  5-MIN KDBQ 232050Z 20024G29KT 10SM CLR 29/12 A2998 1020 34 2900 200/24G29 RMK AO2 PK WND 19030/2031 SLP145 T02940122 56004
94908KDBQ DBQ20070523145514105/23/07 14:55:31  5-MIN KDBQ 232055Z 20017G29KT 10SM CLR 30/12 A2999 1020 33 3000 190/17G29 RMK AO2 PK WND 19030/2031 SLP146 T03000122 58010
94908KDBQ DBQ20070523150011805/23/07 15:00:31  5-MIN KDBQ 232100Z 20022G28KT 10SM CLR 30/12 A2998 1020 33 3000 190/22G28 RMK AO2 PK WND 20028/2100
94908KDBQ DBQ20070523150511805/23/07 15:05:31  5-MIN KDBQ 232105Z 20020G28KT 10SM CLR 30/12 A2998 1020 33 3000 200/20G28 RMK AO2 PK WND 20028/2100
94908KDBQ DBQ20070523151011805/23/07 15:10:31  5-MIN KDBQ 232110Z 19023G29KT 10SM CLR 30/12 A2998 1020 31 3000 190/23G29 RMK AO2 PK WND 18029/2110
94908KDBQ DBQ20070523151511805/23/07 15:15:31  5-MIN KDBQ 232115Z 20024G29KT 10SM CLR 30/12 A2998 1020 31 3000 200/24G29 RMK AO2 PK WND 19029/2115
94908KDBQ DBQ20070523152011805/23/07 15:20:31  5-MIN KDBQ 232120Z 19021G29KT 10SM CLR 29/11 A2998 1020 31 2900 190/21G29 RMK AO2 PK WND 19029/2115
94908KDBQ DBQ20070523152511805/23/07 15:25:31  5-MIN KDBQ 232125Z 19023G29KT 10SM CLR 29/12 A2998 1020 33 2900 190/23G29 RMK AO2 PK WND 19029/2124
94908KDBQ DBQ20070523153011805/23/07 15:30:31  5-MIN KDBQ 232130Z 20024G29KT 10SM CLR 29/11 A2998 1020 31 2900 200/24G29 RMK AO2 PK WND 18029/2126
94908KDBQ DBQ20070523153511805/23/07 15:35:31  5-MIN KDBQ 232135Z 20024G31KT 10SM CLR 29/12 A2998 1020 33 2900 200/24G31 RMK AO2 PK WND 20031/2133
94908KDBQ DBQ20070523154011805/23/07 15:40:31  5-MIN KDBQ 232140Z 20022G31KT 10SM CLR 29/12 A2998 1020 33 2900 200/22G31 RMK AO2 PK WND 20031/2133
94908KDBQ DBQ20070523154512105/23/07 15:45:31  5-MIN KDBQ 232145Z 19022G31KT 10SM FEW070 29/12 A2998 1020 33 2900 190/22G31 RMK AO2 PK WND 20031/2143
94908KDBQ DBQ20070523155013805/23/07 15:50:31  5-MIN KDBQ 232150Z 18022G31KT 10SM FEW070 29/12 A2998 1020 34 2900 180/22G31 RMK AO2 PK WND 20031/2143 SLP146 T02890117
94908KDBQ DBQ20070523155513505/23/07 15:55:31  5-MIN KDBQ 232155Z 18019G29KT 10SM CLR 29/12 A2999 1020 35 2900 180/19G29 RMK AO2 PK WND 20031/2143 SLP146 T02890122
94908KDBQ DBQ20070523160011805/23/07 16:00:31  5-MIN KDBQ 232200Z 19025G31KT 10SM CLR 28/12 A2998 1020 36 2800 190/25G31 RMK AO2 PK WND 19031/2158
94908KDBQ DBQ20070523160511805/23/07 16:05:31  5-MIN KDBQ 232205Z 18021G31KT 10SM CLR 28/12 A2998 1020 36 2800 180/21G31 RMK AO2 PK WND 19031/2158
94908KDBQ DBQ20070523161011805/23/07 16:10:31  5-MIN KDBQ 232210Z 18020G28KT 10SM CLR 29/12 A2999 1020 35 2900 180/20G28 RMK AO2 PK WND 19031/2158
94908KDBQ DBQ20070523161511805/23/07 16:15:31  5-MIN KDBQ 232215Z 18023G31KT 10SM CLR 29/13 A2998 1020 36 2900 180/23G31 RMK AO2 PK WND 18031/2214
94908KDBQ DBQ20070523162011805/23/07 16:20:31  5-MIN KDBQ 232220Z 19022G31KT 10SM CLR 29/13 A2998 1020 36 2900 190/22G31 RMK AO2 PK WND 18031/2214
94908KDBQ DBQ20070523162511805/23/07 16:25:31  5-MIN KDBQ 232225Z 19024G31KT 10SM CLR 29/13 A2998 1020 36 2900 190/24G31 RMK AO2 PK WND 19031/2224
94908KDBQ DBQ20070523163011805/23/07 16:30:31  5-MIN KDBQ 232230Z 20022G31KT 10SM CLR 29/13 A2998 1020 38 2900 200/22G31 RMK AO2 PK WND 19031/2224
94908KDBQ DBQ20070523163511805/23/07 16:35:31  5-MIN KDBQ 232235Z 18022G29KT 10SM CLR 29/13 A2998 1020 36 2900 180/22G29 RMK AO2 PK WND 19031/2224
94908KDBQ DBQ20070523164012105/23/07 16:40:31  5-MIN KDBQ 232240Z 18023G29KT 10SM FEW065 29/13 A2998 1020 36 2900 180/23G29 RMK AO2 PK WND 19031/2224
94908KDBQ DBQ20070523164512105/23/07 16:45:31  5-MIN KDBQ 232245Z 18020G29KT 10SM FEW065 29/13 A2998 1020 38 2900 180/20G29 RMK AO2 PK WND 19031/2224
94908KDBQ DBQ20070523165013805/23/07 16:50:31  5-MIN KDBQ 232250Z 19020G29KT 10SM FEW065 28/13 A2998 1020 39 2800 190/20G29 RMK AO2 PK WND 19031/2224 SLP146 T02830133
94908KDBQ DBQ20070523165513505/23/07 16:55:31  5-MIN KDBQ 232255Z 18020G26KT 10SM CLR 28/13 A2998 1020 39 2800 180/20G26 RMK AO2 PK WND 19031/2224 SLP145 T02830133
94908KDBQ DBQ20070523170012105/23/07 17:00:31  5-MIN KDBQ 232300Z 19020G27KT 10SM FEW065 28/13 A2998 1020 39 2800 180/20G27 RMK AO2 PK WND 18027/2258
94908KDBQ DBQ20070523170512105/23/07 17:05:31  5-MIN KDBQ 232305Z 18021G30KT 10SM FEW065 28/13 A2998 1020 39 2800 180/21G30 RMK AO2 PK WND 18030/2302
94908KDBQ DBQ20070523171012105/23/07 17:10:31  5-MIN KDBQ 232310Z 19023G30KT 10SM FEW070 29/13 A2998 1020 38 2900 190/23G30 RMK AO2 PK WND 18030/2302
94908KDBQ DBQ20070523171512105/23/07 17:15:31  5-MIN KDBQ 232315Z 19022G31KT 10SM SCT065 28/13 A2998 1020 39 2800 190/22G31 RMK AO2 PK WND 19031/2311
94908KDBQ DBQ20070523172012105/23/07 17:20:31  5-MIN KDBQ 232320Z 18020G31KT 10SM SCT065 28/14 A2998 1020 40 2800 180/20G31 RMK AO2 PK WND 19031/2311
94908KDBQ DBQ20070523172512105/23/07 17:25:31  5-MIN KDBQ 232325Z 19023G29KT 10SM SCT065 28/14 A2998 1030 42 2800 180/23G29 RMK AO2 PK WND 19031/2311
94908KDBQ DBQ20070523173012105/23/07 17:30:31  5-MIN KDBQ 232330Z 19022G29KT 10SM SCT065 28/14 A2998 1030 40 2800 190/22G29 RMK AO2 PK WND 19031/2311
94908KDBQ DBQ20070523173512105/23/07 17:35:31  5-MIN KDBQ 232335Z 19025G33KT 10SM SCT065 28/14 A2998 1020 42 2800 190/25G33 RMK AO2 PK WND 19033/2331
94908KDBQ DBQ20070523174012105/23/07 17:40:31  5-MIN KDBQ 232340Z 19024G33KT 10SM SCT065 28/14 A2998 1020 42 2800 190/24G33 RMK AO2 PK WND 19033/2331
94908KDBQ DBQ20070523174512105/23/07 17:45:31  5-MIN KDBQ 232345Z 19022G31KT 10SM SCT065 28/14 A2998 1020 42 2800 180/22G31 RMK AO2 PK WND 19033/2331
94908KDBQ DBQ20070523175015605/23/07 17:50:31  5-MIN KDBQ 232350Z 19020G28KT 10SM FEW070 28/14 A2998 1020 42 2800 190/20G28 RMK AO2 PK WND 19033/2331 SLP146 T02780139 10306 20278 58010
94908KDBQ DBQ20070523175515605/23/07 17:55:31  5-MIN KDBQ 232355Z 19018G26KT 10SM FEW070 28/14 A2998 1020 43 2800 190/18G26 RMK AO2 PK WND 19033/2331 SLP145 T02780144 10306 20278 58002
94908KDBQ DBQ20070523180010305/23/07 18:00:31  5-MIN KDBQ 240000Z 18019G24KT 10SM FEW070 27/14 A2998 1030 43 2700 180/19G24 RMK AO2
94908KDBQ DBQ20070523180512105/23/07 18:05:31  5-MIN KDBQ 240005Z 19021G29KT 10SM FEW070 27/14 A2998 1020 43 2700 190/21G29 RMK AO2 PK WND 19029/0003
94908KDBQ DBQ20070523181012105/23/07 18:10:31  5-MIN KDBQ 240010Z 19021G29KT 10SM SCT070 27/14 A2999 1010 43 2700 190/21G29 RMK AO2 PK WND 19029/0003
94908KDBQ DBQ20070523181512105/23/07 18:15:31  5-MIN KDBQ 240015Z 19021G28KT 10SM BKN070 27/14 A2999 1010 43 2700 190/21G28 RMK AO2 PK WND 19029/0003
94908KDBQ DBQ20070523182012105/23/07 18:20:31  5-MIN KDBQ 240020Z 19017G28KT 10SM BKN065 27/14 A2999 1020 45 2600 190/17G28 RMK AO2 PK WND 19029/0003
94908KDBQ DBQ20070523182512105/23/07 18:25:31  5-MIN KDBQ 240025Z 19018G26KT 10SM SCT070 27/14 A2999 1010 45 2600 190/18G26 RMK AO2 PK WND 19029/0003
94908KDBQ DBQ20070523183012105/23/07 18:30:31  5-MIN KDBQ 240030Z 19016G24KT 10SM SCT070 27/14 A2999 1010 45 2600 190/16G24 RMK AO2 PK WND 19029/0003
94908KDBQ DBQ20070523183512105/23/07 18:35:31  5-MIN KDBQ 240035Z 19018G25KT 10SM SCT065 26/14 A2999 1010 46 2600 180/18G25 RMK AO2 PK WND 19029/0003
94908KDBQ DBQ20070523184012105/23/07 18:40:31  5-MIN KDBQ 240040Z 19019G25KT 10SM FEW065 26/13 A3000 1010 44 2600 190/19G25 RMK AO2 PK WND 19029/0003
94908KDBQ DBQ20070523184511805/23/07 18:45:31  5-MIN KDBQ 240045Z 19020G25KT 10SM CLR 26/13 A3000 1010 44 2600 190/20G25 RMK AO2 PK WND 19029/0003
94908KDBQ DBQ20070523185013505/23/07 18:50:31  5-MIN KDBQ 240050Z 18018G25KT 10SM CLR 26/13 A3000 1010 44 2600 180/18G25 RMK AO2 PK WND 19029/0003 SLP150 T02610133
94908KDBQ DBQ20070523185513505/23/07 18:55:31  5-MIN KDBQ 240055Z 19019G25KT 10SM CLR 26/13 A3000 1010 44 2600 190/19G25 RMK AO2 PK WND 19029/0003 SLP150 T02610133
94908KDBQ DBQ20070523190010405/23/07 19:00:31  5-MIN KDBQ 240100Z AUTO 19017KT 10SM CLR 26/13 A3000 1010 46 2500 190/17 RMK AO2 TSNO
94908KDBQ DBQ20070523190512805/23/07 19:05:31  5-MIN KDBQ 240105Z AUTO 20020G26KT 10SM CLR 26/13 A3000 1010 44 2600 190/20G26 RMK AO2 PK WND 20026/0104 TSNO
94908KDBQ DBQ20070523191012805/23/07 19:10:31  5-MIN KDBQ 240110Z AUTO 20019G26KT 10SM CLR 26/13 A3000 1000 46 2500 200/19G26 RMK AO2 PK WND 20026/0104 TSNO
94908KDBQ DBQ20070523191512805/23/07 19:15:31  5-MIN KDBQ 240115Z AUTO 20019G25KT 10SM CLR 26/13 A3000 1000 44 2500 190/19G25 RMK AO2 PK WND 20026/0104 TSNO
94908KDBQ DBQ20070523192012805/23/07 19:20:31  5-MIN KDBQ 240120Z AUTO 20020G26KT 10SM CLR 26/13 A3000 1000 44 2500 190/20G26 RMK AO2 PK WND 20026/0120 TSNO
94908KDBQ DBQ20070523192512805/23/07 19:25:31  5-MIN KDBQ 240125Z AUTO 20018G26KT 10SM CLR 26/13 A3000 1000 44 2500 200/18G26 RMK AO2 PK WND 20026/0120 TSNO
94908KDBQ DBQ20070523193012805/23/07 19:30:31  5-MIN KDBQ 240130Z AUTO 20021G27KT 10SM CLR 25/12 A3000 1010 44 2400 200/21G27 RMK AO2 PK WND 20027/0130 TSNO
94908KDBQ DBQ20070523193512805/23/07 19:35:31  5-MIN KDBQ 240135Z AUTO 20019G27KT 10SM CLR 26/12 A3000 1010 43 2500 200/19G27 RMK AO2 PK WND 20027/0130 TSNO
94908KDBQ DBQ20070523194012205/23/07 19:40:31  5-MIN KDBQ 240140Z AUTO 20018KT 10SM CLR 25/12 A3000 1000 44 2400 200/18 RMK AO2 PK WND 20027/0130 TSNO
94908KDBQ DBQ20070523194512205/23/07 19:45:31  5-MIN KDBQ 240145Z AUTO 20018KT 10SM CLR 25/13 A3001 1000 46 2400 200/18 RMK AO2 PK WND 20027/0130 TSNO
94908KDBQ DBQ20070523195014505/23/07 19:50:31  5-MIN KDBQ 240150Z AUTO 20016G24KT 10SM CLR 25/13 A3001 1000 46 2400 200/16G24 RMK AO2 PK WND 20027/0130 SLP153 T02500128 TSNO
94908KDBQ DBQ20070523195513905/23/07 19:55:31  5-MIN KDBQ 240155Z AUTO 20015KT 10SM CLR 24/13 A3000 1000 47 2400 200/15 RMK AO2 PK WND 20027/0130 SLP153 T02440128 TSNO
94908KDBQ DBQ20070523200010405/23/07 20:00:31  5-MIN KDBQ 240200Z AUTO 20015KT 10SM CLR 24/13 A3001 1000 47 2400 200/15 RMK AO2 TSNO
94908KDBQ DBQ20070523200510305/23/07 20:05:31  5-MIN KDBQ 240205Z AUTO 20014KT 10SM CLR 24/13 A3002 990 49 2300 200/14 RMK AO2 TSNO
94908KDBQ DBQ20070523201010305/23/07 20:10:31  5-MIN KDBQ 240210Z AUTO 20013KT 10SM CLR 24/13 A3002 980 47 2300 200/13 RMK AO2 TSNO
94908KDBQ DBQ20070523201511005/23/07 20:15:31  5-MIN KDBQ 240215Z AUTO 20015KT 10SM CLR 24/13 A3003 980 49 2300 200/15 RMK AO2 PRESRR TSNO
94908KDBQ DBQ20070523202010305/23/07 20:20:31  5-MIN KDBQ 240220Z AUTO 20015KT 10SM CLR 24/13 A3003 980 47 2300 200/15 RMK AO2 TSNO
94908KDBQ DBQ20070523202510305/23/07 20:25:31  5-MIN KDBQ 240225Z AUTO 20014KT 10SM CLR 24/13 A3003 970 49 2300 200/14 RMK AO2 TSNO
94908KDBQ DBQ20070523203010305/23/07 20:30:31  5-MIN KDBQ 240230Z AUTO 20013KT 10SM CLR 24/13 A3004 970 51 2300 200/13 RMK AO2 TSNO
94908KDBQ DBQ20070523203510305/23/07 20:35:31  5-MIN KDBQ 240235Z AUTO 20013KT 10SM CLR 24/13 A3004 960 51 2300 200/13 RMK AO2 TSNO
94908KDBQ DBQ20070523204010305/23/07 20:40:31  5-MIN KDBQ 240240Z AUTO 20014KT 10SM CLR 24/13 A3005 960 49 2300 200/14 RMK AO2 TSNO
94908KDBQ DBQ20070523204511005/23/07 20:45:31  5-MIN KDBQ 240245Z AUTO 20012KT 10SM CLR 24/13 A3006 950 51 2200 200/12 RMK AO2 PRESRR TSNO
94908KDBQ DBQ20070523205012605/23/07 20:50:31  5-MIN KDBQ 240250Z AUTO 19013KT 10SM CLR 24/13 A3006 950 51 2200 190/13 RMK AO2 SLP170 T02390133 58002 TSNO
94908KDBQ DBQ20070523205512905/23/07 20:55:31  5-MIN KDBQ 240255Z AUTO 19011KT 10SM FEW070 24/13 A3006 950 51 2200 190/11 RMK AO2 SLP170 T02390133 53025 TSNO
94908KDBQ DBQ20070523210010605/23/07 21:00:31  5-MIN KDBQ 240300Z AUTO 19012KT 10SM SCT070 24/13 A3006 950 51 2200 190/12 RMK AO2 TSNO
94908KDBQ DBQ20070523210511305/23/07 21:05:31  5-MIN KDBQ 240305Z AUTO 19012KT 10SM FEW070 SCT090 24/13 A3006 950 51 2200 190/12 RMK AO2 TSNO
94908KDBQ DBQ20070523211011305/23/07 21:10:31  5-MIN KDBQ 240310Z AUTO 19012KT 10SM SCT075 BKN090 24/13 A3006 950 51 2200 190/12 RMK AO2 TSNO
94908KDBQ DBQ20070523211511305/23/07 21:15:31  5-MIN KDBQ 240315Z AUTO 19012KT 10SM SCT075 BKN095 24/13 A3006 950 51 2200 190/12 RMK AO2 TSNO
94908KDBQ DBQ20070523212011305/23/07 21:20:31  5-MIN KDBQ 240320Z AUTO 19012KT 10SM SCT070 BKN090 24/13 A3006 950 49 2300 180/12 RMK AO2 TSNO
94908KDBQ DBQ20070523212511305/23/07 21:25:31  5-MIN KDBQ 240325Z AUTO 18014KT 10SM BKN070 BKN090 24/13 A3006 950 47 2300 180/14 RMK AO2 TSNO
94908KDBQ DBQ20070523213011305/23/07 21:30:31  5-MIN KDBQ 240330Z AUTO 18014KT 10SM SCT070 BKN085 24/13 A3006 950 47 2300 180/14 RMK AO2 TSNO
94908KDBQ DBQ20070523213511305/23/07 21:35:31  5-MIN KDBQ 240335Z AUTO 19012KT 10SM FEW070 OVC090 24/13 A3006 950 47 2300 190/12 RMK AO2 TSNO
94908KDBQ DBQ20070523214011305/23/07 21:40:31  5-MIN KDBQ 240340Z AUTO 18012KT 10SM FEW070 OVC095 24/13 A3006 950 49 2200 180/12 RMK AO2 TSNO
94908KDBQ DBQ20070523214512005/23/07 21:45:31  5-MIN KDBQ 240345Z AUTO 18013KT 10SM FEW070 BKN090 OVC110 24/13 A3006 950 47 2300 180/13 RMK AO2 TSNO
94908KDBQ DBQ20070523215014305/23/07 21:50:31  5-MIN KDBQ 240350Z AUTO 18012G19KT 10SM FEW070 BKN090 BKN110 24/13 A3006 950 49 2200 180/12G19 RMK AO2 SLP172 T02390128 TSNO
94908KDBQ DBQ20070523215513005/23/07 21:55:31  5-MIN KDBQ 240355Z AUTO 19011KT 10SM SCT090 BKN110 24/13 A3006 950 49 2200 190/11 RMK AO2 SLP173 T02390128 TSNO
94908KDBQ DBQ20070523220011305/23/07 22:00:31  5-MIN KDBQ 240400Z AUTO 19011KT 10SM BKN090 BKN110 24/13 A3007 940 49 2200 190/11 RMK AO2 TSNO
94908KDBQ DBQ20070523220512005/23/07 22:05:31  5-MIN KDBQ 240405Z AUTO 20010KT 10SM FEW070 BKN090 BKN110 23/13 A3007 940 51 2200 200/10 RMK AO2 TSNO
94908KDBQ DBQ20070523221011305/23/07 22:10:31  5-MIN KDBQ 240410Z AUTO 20009KT 10SM SCT070 BKN100 23/13 A3007 940 51 2200 200/09 RMK AO2 TSNO
94908KDBQ DBQ20070523221511305/23/07 22:15:31  5-MIN KDBQ 240415Z AUTO 22008KT 10SM BKN070 BKN090 23/13 A3007 940 51 2200 220/08 RMK AO2 TSNO
94908KDBQ DBQ20070523222011305/23/07 22:20:31  5-MIN KDBQ 240420Z AUTO 22006KT 10SM BKN065 BKN090 23/13 A3008 930 55 2100 220/06 RMK AO2 TSNO
94908KDBQ DBQ20070523222511305/23/07 22:25:31  5-MIN KDBQ 240425Z AUTO 22006KT 10SM BKN065 OVC095 23/13 A3008 940 55 2100 210/06 RMK AO2 TSNO
94908KDBQ DBQ20070523223010605/23/07 22:30:31  5-MIN KDBQ 240430Z AUTO 21006KT 10SM OVC070 23/13 A3008 930 55 2100 200/06 RMK AO2 TSNO
94908KDBQ DBQ20070523223511305/23/07 22:35:31  5-MIN KDBQ 240435Z AUTO 20006KT 10SM BKN070 OVC095 23/13 A3008 930 55 2100 200/06 RMK AO2 TSNO
94908KDBQ DBQ20070523224011305/23/07 22:40:31  5-MIN KDBQ 240440Z AUTO 19006KT 10SM BKN070 BKN090 22/13 A3008 930 56 2000 190/06 RMK AO2 TSNO
94908KDBQ DBQ20070523224511305/23/07 22:45:31  5-MIN KDBQ 240445Z AUTO 19007KT 10SM BKN070 BKN095 22/13 A3008 930 56 2000 190/07 RMK AO2 TSNO
94908KDBQ DBQ20070523225013005/23/07 22:50:31  5-MIN KDBQ 240450Z AUTO 19008KT 10SM BKN070 BKN095 22/13 A3008 930 56 2000 190/08 RMK AO2 SLP177 T02220133 TSNO
94908KDBQ DBQ20070523225513005/23/07 22:55:31  5-MIN KDBQ 240455Z AUTO 18009KT 10SM BKN070 BKN095 22/13 A3007 940 54 2000 180/09 RMK AO2 SLP176 T02220128 TSNO
94908KDBQ DBQ20070523230011305/23/07 23:00:31  5-MIN KDBQ 240500Z AUTO 18009KT 10SM BKN070 BKN095 22/13 A3007 940 56 2000 180/09 RMK AO2 TSNO
94908KDBQ DBQ20070523230511305/23/07 23:05:31  5-MIN KDBQ 240505Z AUTO 18009KT 10SM SCT070 BKN095 22/13 A3007 940 54 2000 180/09 RMK AO2 TSNO
94908KDBQ DBQ20070523231011305/23/07 23:10:31  5-MIN KDBQ 240510Z AUTO 18009KT 10SM SCT070 BKN100 23/13 A3007 940 53 2100 180/09 RMK AO2 TSNO
94908KDBQ DBQ20070523231511305/23/07 23:15:31  5-MIN KDBQ 240515Z AUTO 18008KT 10SM FEW070 SCT095 22/13 A3007 940 54 2000 170/08 RMK AO2 TSNO
94908KDBQ DBQ20070523232011305/23/07 23:20:31  5-MIN KDBQ 240520Z AUTO 18009KT 10SM FEW070 SCT095 22/13 A3007 940 54 2000 180/09 RMK AO2 TSNO
94908KDBQ DBQ20070523232510605/23/07 23:25:31  5-MIN KDBQ 240525Z AUTO 18010KT 10SM FEW070 22/13 A3007 940 54 2000 180/10 RMK AO2 TSNO
94908KDBQ DBQ20070523233010605/23/07 23:30:31  5-MIN KDBQ 240530Z AUTO 18011KT 10SM FEW100 22/13 A3007 940 54 2000 180/11 RMK AO2 TSNO
94908KDBQ DBQ20070523233510605/23/07 23:35:31  5-MIN KDBQ 240535Z AUTO 17010KT 10SM FEW095 22/13 A3007 940 56 2000 170/10 RMK AO2 TSNO
94908KDBQ DBQ20070523234010605/23/07 23:40:31  5-MIN KDBQ 240540Z AUTO 18009KT 10SM SCT095 22/13 A3007 940 56 2000 180/09 RMK AO2 TSNO
94908KDBQ DBQ20070523234510605/23/07 23:45:31  5-MIN KDBQ 240545Z AUTO 18009KT 10SM SCT090 22/13 A3007 940 56 2000 180/09 RMK AO2 TSNO
94908KDBQ DBQ20070523235015805/23/07 23:50:31  5-MIN KDBQ 240550Z AUTO 19009KT 10SM FEW070 BKN095 22/13 A3008 940 56 2000 190/09 RMK AO2 SLP177 T02220133 10272 20222 403060194 53025 TSNO
94908KDBQ DBQ20070523235516505/23/07 23:55:31  5-MIN KDBQ 240555Z AUTO 18009KT 10SM FEW060 SCT070 BKN095 22/13 A3007 940 56 2000 180/09 RMK AO2 SLP176 T02220133 10272 20222 403060194 51006 TSNO
94908KDBQ DBQ20070524000011305/24/07 00:00:38  5-MIN KDBQ 240600Z AUTO 18010KT 10SM BKN070 BKN095 22/13 A3007 940 56 2000 180/10 RMK AO2 TSNO
94908KDBQ DBQ20070524000511305/24/07 00:05:31  5-MIN KDBQ 240605Z AUTO 18010KT 10SM BKN070 OVC095 22/13 A3007 940 56 2000 180/10 RMK AO2 TSNO
94908KDBQ DBQ20070524001011305/24/07 00:10:31  5-MIN KDBQ 240610Z AUTO 18009KT 10SM BKN070 OVC090 22/13 A3007 940 56 2000 180/09 RMK AO2 TSNO
94908KDBQ DBQ20070524001511305/24/07 00:15:32  5-MIN KDBQ 240615Z AUTO 18010KT 10SM BKN070 OVC085 22/13 A3007 940 56 2000 180/10 RMK AO2 TSNO
94908KDBQ DBQ20070524002011305/24/07 00:20:31  5-MIN KDBQ 240620Z AUTO 18010KT 10SM BKN070 OVC085 22/13 A3007 940 56 2000 180/10 RMK AO2 TSNO
94908KDBQ DBQ20070524002510605/24/07 00:25:31  5-MIN KDBQ 240625Z AUTO 18009KT 10SM OVC070 22/13 A3007 940 56 2000 180/09 RMK AO2 TSNO
94908KDBQ DBQ20070524003010605/24/07 00:30:31  5-MIN KDBQ 240630Z AUTO 18009KT 10SM OVC070 22/13 A3007 940 56 2000 180/09 RMK AO2 TSNO
94908KDBQ DBQ20070524003510605/24/07 00:35:31  5-MIN KDBQ 240635Z AUTO 18009KT 10SM OVC070 22/13 A3007 940 56 2000 180/09 RMK AO2 TSNO
94908KDBQ DBQ20070524004010605/24/07 00:40:31  5-MIN KDBQ 240640Z AUTO 18009KT 10SM OVC070 22/13 A3007 940 56 2000 180/09 RMK AO2 TSNO
94908KDBQ DBQ20070524004510605/24/07 00:45:31  5-MIN KDBQ 240645Z AUTO 18009KT 10SM OVC065 22/13 A3007 940 56 2000 180/09 RMK AO2 TSNO
94908KDBQ DBQ20070524005013005/24/07 00:50:31  5-MIN KDBQ 240650Z AUTO 18009KT 10SM BKN065 OVC080 22/13 A3007 940 56 2000 180/09 RMK AO2 SLP174 T02220133 TSNO
94908KDBQ DBQ20070524005512305/24/07 00:55:31  5-MIN KDBQ 240655Z AUTO 18011KT 10SM OVC065 22/13 A3007 940 56 2000 180/11 RMK AO2 SLP174 T02220133 TSNO
94908KDBQ DBQ20070524010011305/24/07 01:00:31  5-MIN KDBQ 240700Z AUTO 18010KT 10SM BKN060 OVC075 22/13 A3007 940 56 2000 180/10 RMK AO2 TSNO
94908KDBQ DBQ20070524010511305/24/07 01:05:31  5-MIN KDBQ 240705Z AUTO 18009KT 10SM BKN065 OVC075 22/13 A3007 940 56 2000 180/09 RMK AO2 TSNO
94908KDBQ DBQ20070524011012005/24/07 01:10:31  5-MIN KDBQ 240710Z AUTO 18010KT 10SM BKN065 BKN075 OVC090 22/13 A3007 940 56 2000 180/10 RMK AO2 TSNO
94908KDBQ DBQ20070524011511305/24/07 01:15:31  5-MIN KDBQ 240715Z AUTO 18011KT 10SM BKN065 OVC080 22/13 A3007 940 56 2000 180/11 RMK AO2 TSNO
94908KDBQ DBQ20070524012011305/24/07 01:20:31  5-MIN KDBQ 240720Z AUTO 18010KT 10SM BKN065 OVC080 22/13 A3007 940 56 2000 180/10 RMK AO2 TSNO
94908KDBQ DBQ20070524012511305/24/07 01:25:31  5-MIN KDBQ 240725Z AUTO 18010KT 10SM BKN065 OVC080 22/13 A3007 940 56 2000 180/10 RMK AO2 TSNO
94908KDBQ DBQ20070524013011305/24/07 01:30:31  5-MIN KDBQ 240730Z AUTO 18010KT 10SM BKN065 OVC080 22/13 A3007 940 56 2000 180/10 RMK AO2 TSNO
94908KDBQ DBQ20070524013511305/24/07 01:35:31  5-MIN KDBQ 240735Z AUTO 18011KT 10SM BKN070 OVC080 22/13 A3007 940 56 2000 180/11 RMK AO2 TSNO
94908KDBQ DBQ20070524014010605/24/07 01:40:31  5-MIN KDBQ 240740Z AUTO 18011KT 10SM OVC070 22/13 A3007 940 56 2000 180/11 RMK AO2 TSNO
94908KDBQ DBQ20070524014511305/24/07 01:45:31  5-MIN KDBQ 240745Z AUTO 18011KT 10SM BKN070 OVC080 22/13 A3007 940 56 2000 180/11 RMK AO2 TSNO
94908KDBQ DBQ20070524015013005/24/07 01:50:31  5-MIN KDBQ 240750Z AUTO 18011KT 10SM BKN070 OVC100 22/13 A3007 940 58 2000 180/11 RMK AO2 SLP175 T02170133 TSNO
94908KDBQ DBQ20070524015512305/24/07 01:55:31  5-MIN KDBQ 240755Z AUTO 18010KT 10SM OVC070 22/13 A3007 940 58 2000 180/10 RMK AO2 SLP174 T02170133 TSNO
94908KDBQ DBQ20070524020010605/24/07 02:00:31  5-MIN KDBQ 240800Z AUTO 18009KT 10SM OVC070 22/13 A3007 940 58 2000 180/09 RMK AO2 TSNO
94908KDBQ DBQ20070524020511305/24/07 02:05:31  5-MIN KDBQ 240805Z AUTO 18009KT 10SM BKN070 OVC100 22/13 A3007 940 58 2000 180/09 RMK AO2 TSNO
94908KDBQ DBQ20070524021011305/24/07 02:10:31  5-MIN KDBQ 240810Z AUTO 18010KT 10SM BKN075 OVC100 22/13 A3007 940 58 2000 180/10 RMK AO2 TSNO
94908KDBQ DBQ20070524021510605/24/07 02:15:31  5-MIN KDBQ 240815Z AUTO 18010KT 10SM OVC075 22/13 A3007 940 58 2000 180/10 RMK AO2 TSNO
94908KDBQ DBQ20070524022010605/24/07 02:20:31  5-MIN KDBQ 240820Z AUTO 18011KT 10SM OVC075 22/13 A3007 940 58 2000 180/11 RMK AO2 TSNO
94908KDBQ DBQ20070524022510605/24/07 02:25:31  5-MIN KDBQ 240825Z AUTO 18010KT 10SM BKN080 22/13 A3007 940 58 2000 180/10 RMK AO2 TSNO
94908KDBQ DBQ20070524023011305/24/07 02:30:31  5-MIN KDBQ 240830Z AUTO 18010KT 10SM BKN080 BKN100 22/13 A3007 940 58 2000 180/10 RMK AO2 TSNO
94908KDBQ DBQ20070524023511305/24/07 02:35:31  5-MIN KDBQ 240835Z AUTO 18010KT 10SM BKN080 OVC100 22/13 A3007 940 58 2000 180/10 RMK AO2 TSNO
94908KDBQ DBQ20070524024011305/24/07 02:40:31  5-MIN KDBQ 240840Z AUTO 18011KT 10SM BKN080 OVC100 22/13 A3007 940 58 2000 180/11 RMK AO2 TSNO
94908KDBQ DBQ20070524024511305/24/07 02:45:31  5-MIN KDBQ 240845Z AUTO 18010KT 10SM BKN085 OVC110 22/13 A3007 940 58 2000 180/10 RMK AO2 TSNO
94908KDBQ DBQ20070524025013605/24/07 02:50:31  5-MIN KDBQ 240850Z AUTO 18010KT 10SM SCT085 BKN110 21/13 A3007 940 61 1900 180/10 RMK AO2 SLP174 T02110133 51006 TSNO
94908KDBQ DBQ20070524025513605/24/07 02:55:31  5-MIN KDBQ 240855Z AUTO 18010KT 10SM SCT090 BKN110 21/13 A3007 940 61 1900 180/10 RMK AO2 SLP175 T02110133 56002 TSNO
94908KDBQ DBQ20070524030010605/24/07 03:00:31  5-MIN KDBQ 240900Z AUTO 18009KT 10SM OVC100 21/13 A3007 940 61 1900 180/09 RMK AO2 TSNO
94908KDBQ DBQ20070524030511305/24/07 03:05:31  5-MIN KDBQ 240905Z AUTO 18009KT 10SM FEW090 BKN110 21/13 A3006 950 61 1900 180/09 RMK AO2 TSNO
94908KDBQ DBQ20070524031010605/24/07 03:10:31  5-MIN KDBQ 240910Z AUTO 18010KT 10SM BKN100 21/13 A3006 950 61 1900 180/10 RMK AO2 TSNO
94908KDBQ DBQ20070524031510605/24/07 03:15:31  5-MIN KDBQ 240915Z AUTO 18011KT 10SM BKN100 21/13 A3006 950 61 1900 180/11 RMK AO2 TSNO
94908KDBQ DBQ20070524032010605/24/07 03:20:31  5-MIN KDBQ 240920Z AUTO 18011KT 10SM BKN100 21/13 A3007 940 61 1900 180/11 RMK AO2 TSNO
94908KDBQ DBQ20070524032511305/24/07 03:25:31  5-MIN KDBQ 240925Z AUTO 18011KT 10SM FEW090 BKN110 21/13 A3007 940 61 1900 180/11 RMK AO2 TSNO
94908KDBQ DBQ20070524033011305/24/07 03:30:31  5-MIN KDBQ 240930Z AUTO 18011KT 10SM FEW085 BKN110 21/13 A3007 940 61 1900 180/11 RMK AO2 TSNO
94908KDBQ DBQ20070524033511305/24/07 03:35:31  5-MIN KDBQ 240935Z AUTO 18010KT 10SM SCT085 BKN110 21/13 A3006 950 61 1900 180/10 RMK AO2 TSNO
94908KDBQ DBQ20070524034011305/24/07 03:40:31  5-MIN KDBQ 240940Z AUTO 18012KT 10SM SCT085 OVC110 21/13 A3006 950 61 1900 180/12 RMK AO2 TSNO
94908KDBQ DBQ20070524034511305/24/07 03:45:31  5-MIN KDBQ 240945Z AUTO 18012KT 10SM SCT085 OVC110 21/13 A3006 950 61 1900 180/12 RMK AO2 TSNO
94908KDBQ DBQ20070524035013005/24/07 03:50:31  5-MIN KDBQ 240950Z AUTO 18012KT 10SM SCT085 OVC100 21/14 A3006 950 63 1900 180/12 RMK AO2 SLP172 T02110139 TSNO
94908KDBQ DBQ20070524035513005/24/07 03:55:31  5-MIN KDBQ 240955Z AUTO 18012KT 10SM SCT085 OVC110 21/14 A3006 950 63 1900 180/12 RMK AO2 SLP172 T02110139 TSNO
94908KDBQ DBQ20070524040011305/24/07 04:00:31  5-MIN KDBQ 241000Z AUTO 18011KT 10SM FEW085 BKN110 21/13 A3006 950 61 1900 180/11 RMK AO2 TSNO
94908KDBQ DBQ20070524040511305/24/07 04:05:31  5-MIN KDBQ 241005Z AUTO 18012KT 10SM FEW090 BKN110 21/13 A3006 950 61 1900 180/12 RMK AO2 TSNO
94908KDBQ DBQ20070524041011305/24/07 04:10:31  5-MIN KDBQ 241010Z AUTO 18012KT 10SM FEW090 BKN110 21/13 A3006 950 61 1900 180/12 RMK AO2 TSNO
94908KDBQ DBQ20070524041511905/24/07 04:15:31  5-MIN KDBQ 241015Z AUTO 18012G19KT 10SM FEW090 BKN110 21/13 A3006 950 61 1900 170/12G19 RMK AO2 TSNO
94908KDBQ DBQ20070524042011205/24/07 04:20:31  5-MIN KDBQ 241020Z AUTO 18013G19KT 10SM SCT110 21/13 A3006 950 61 1900 180/13G19 RMK AO2 TSNO
94908KDBQ DBQ20070524042510505/24/07 04:25:31  5-MIN KDBQ 241025Z AUTO 18013KT 9SM SCT100 21/13 A3006 950 61 1900 180/13 RMK AO2 TSNO
94908KDBQ DBQ20070524043010505/24/07 04:30:31  5-MIN KDBQ 241030Z AUTO 18013KT 9SM SCT100 21/13 A3006 950 61 1900 180/13 RMK AO2 TSNO
94908KDBQ DBQ20070524043510505/24/07 04:35:31  5-MIN KDBQ 241035Z AUTO 18012KT 9SM FEW100 21/13 A3006 950 63 1900 180/12 RMK AO2 TSNO
94908KDBQ DBQ20070524044010505/24/07 04:40:31  5-MIN KDBQ 241040Z AUTO 18012KT 9SM FEW100 21/14 A3006 950 65 1900 180/12 RMK AO2 TSNO
94908KDBQ DBQ20070524044509505/24/07 04:45:31  5-MIN KDBQ 241045Z 18013KT 9SM FEW100 21/14 A3006 950 65 1900 180/13 RMK AO2
94908KDBQ DBQ20070524045012505/24/07 04:50:31  5-MIN KDBQ 241050Z 18013G19KT 9SM FEW090 SCT110 21/14 A3006 950 63 1900 180/13G19 RMK AO2 SLP173 T02110139
94908KDBQ DBQ20070524045512505/24/07 04:55:31  5-MIN KDBQ 241055Z 18013G20KT 8SM FEW085 SCT110 21/14 A3006 950 63 1900 180/13G20 RMK AO2 SLP172 T02110139
94908KDBQ DBQ20070524050009505/24/07 05:00:31  5-MIN KDBQ 241100Z 18013KT 8SM SCT100 21/14 A3006 950 63 1900 180/13 RMK AO2
94908KDBQ DBQ20070524050508405/24/07 05:05:31  5-MIN KDBQ 241105Z 18014KT 8SM BKN100 21/14 A3006 950 63 190K AO2
94908KDBQ DBQ20070524053509505/24/07 05:35:31  5-MIN KDBQ 241135Z 18015KT 9SM BKN100 22/14 A3006 950 61 2000 180/15 RMK AO2
94908KDBQ DBQ20070524054010105/24/07 05:40:31  5-MIN KDBQ 241140Z 18016G21KT 9SM BKN100 22/14 A3006 950 59 2100 180/16G21 RMK AO2
94908KDBQ DBQ20070524054510105/24/07 05:45:31  5-MIN KDBQ 241145Z 18013G22KT 9SM OVC100 22/14 A3006 950 59 2000 180/13G22 RMK AO2
94908KDBQ DBQ20070524055008605/24/07 05:50:31  5-MIN KDBQ 241150Z 18016G23KT 9SM OVC100 22/14 A3006 950 61 2MK AO2
94908KDBQ DBQ20070524064009805/24/07 06:40:31  5-MIN KDBQ 241240Z 18017G21KT 8SM CLR 22/14 A3006 950 59 2000 180/17G21 RMK AO2
94908KDBQ DBQ20070524064509805/24/07 06:45:31  5-MIN KDBQ 241245Z 18016G22KT 8SM CLR 22/14 A3006 950 59 2000 180/16G22 RMK AO2
94908KDBQ DBQ20070524065011505/24/07 06:50:31  5-MIN KDBQ 241250Z 18014G22KT 8SM CLR 22/14 A3005 950 59 2100 180/14G22 RMK AO2 SLP170 T02220139
94908KDBQ DBQ20070524065511505/24/07 06:55:31  5-MIN KDBQ 241255Z 18016G22KT 8SM CLR 22/14 A3005 960 59 2100 180/16G22 RMK AO2 SLP169 T02220139
94908KDBQ DBQ20070524070009205/24/07 07:00:31  5-MIN KDBQ 241300Z 18017KT 8SM CLR 22/14 A3005 960 59 2100 180/17 RMK AO2
94908KDBQ DBQ20070524070509805/24/07 07:05:31  5-MIN KDBQ 241305Z 18017G24KT 8SM CLR 22/14 A3005 960 59 2100 180/17G24 RMK AO2
94908KDBQ DBQ20070524071009805/24/07 07:10:31  5-MIN KDBQ 241310Z 18016G24KT 8SM CLR 23/14 A3005 960 57 2100 180/16G24 RMK AO2
94908KDBQ DBQ20070524071509805/24/07 07:15:31  5-MIN KDBQ 241315Z 18018G25KT 8SM CLR 23/14 A3005 960 59 2100 180/18G25 RMK AO2
94908KDBQ DBQ20070524072009805/24/07 07:20:31  5-MIN KDBQ 241320Z 19016G25KT 8SM CLR 23/14 A3005 960 59 2100 180/16G25 RMK AO2
94908KDBQ DBQ20070524072509805/24/07 07:25:31  5-MIN KDBQ 241325Z 18016G25KT 9SM CLR 23/14 A3005 960 57 2200 180/16G25 RMK AO2
94908KDBQ DBQ20070524073009805/24/07 07:30:31  5-MIN KDBQ 241330Z 18017G24KT 9SM CLR 24/14 A3005 960 55 2300 180/17G24 RMK AO2
94908KDBQ DBQ20070524073509805/24/07 07:35:31  5-MIN KDBQ 241335Z 18019G24KT 9SM CLR 24/14 A3004 960 55 2300 180/19G24 RMK AO2
94908KDBQ DBQ20070524074011605/24/07 07:40:31  5-MIN KDBQ 241340Z 18020G26KT 9SM CLR 24/14 A3004 970 53 2300 180/20G26 RMK AO2 PK WND 19026/1338
94908KDBQ DBQ20070524074511605/24/07 07:45:31  5-MIN KDBQ 241345Z 18019G26KT 9SM CLR 24/14 A3004 970 55 2300 180/19G26 RMK AO2 PK WND 19026/1338
94908KDBQ DBQ20070524075013305/24/07 07:50:31  5-MIN KDBQ 241350Z 18021G29KT 9SM CLR 24/14 A3004 970 51 2300 180/21G29 RMK AO2 PK WND 18029/1350 SLP164 T02440139
94908KDBQ DBQ20070524075513305/24/07 07:55:31  5-MIN KDBQ 241355Z 19023G29KT 9SM CLR 24/14 A3004 970 51 2300 190/23G29 RMK AO2 PK WND 19029/1354 SLP166 T02440139
94908KDBQ DBQ20070524080011605/24/07 08:00:31  5-MIN KDBQ 241400Z 19021G29KT 9SM CLR 24/14 A3004 970 51 2300 190/21G29 RMK AO2 PK WND 19027/1400
94908KDBQ DBQ20070524080511605/24/07 08:05:31  5-MIN KDBQ 241405Z 19023G27KT 9SM CLR 24/14 A3004 970 51 2300 190/23G27 RMK AO2 PK WND 20027/1404
94908KDBQ DBQ20070524081011605/24/07 08:10:31  5-MIN KDBQ 241410Z 19021G27KT 9SM CLR 24/14 A3004 970 51 2300 180/21G27 RMK AO2 PK WND 18027/1410
94908KDBQ DBQ20070524081511605/24/07 08:15:31  5-MIN KDBQ 241415Z 19019G27KT 9SM CLR 24/14 A3004 970 53 2300 180/19G27 RMK AO2 PK WND 18027/1410
94908KDBQ DBQ20070524082011605/24/07 08:20:31  5-MIN KDBQ 241420Z 19019G25KT 8SM CLR 25/14 A3004 970 49 2400 190/19G25 RMK AO2 PK WND 18027/1410
94908KDBQ DBQ20070524082511605/24/07 08:25:31  5-MIN KDBQ 241425Z 19024G31KT 9SM CLR 25/14 A3003 970 49 2400 190/24G31 RMK AO2 PK WND 20031/1425
94908KDBQ DBQ20070524083011605/24/07 08:30:31  5-MIN KDBQ 241430Z 19020G31KT 9SM CLR 25/14 A3004 970 49 2400 180/20G31 RMK AO2 PK WND 20031/1425
94908KDBQ DBQ20070524083511605/24/07 08:35:31  5-MIN KDBQ 241435Z 18021G29KT 9SM CLR 25/14 A3003 980 51 2400 180/21G29 RMK AO2 PK WND 20031/1425
94908KDBQ DBQ20070524084011605/24/07 08:40:31  5-MIN KDBQ 241440Z 19021G29KT 9SM CLR 26/14 A3003 970 49 2500 190/21G29 RMK AO2 PK WND 20031/1425
94908KDBQ DBQ20070524084511605/24/07 08:45:31  5-MIN KDBQ 241445Z 19026G32KT 9SM CLR 26/14 A3003 980 49 2500 190/26G32 RMK AO2 PK WND 20032/1444
94908KDBQ DBQ20070524085013905/24/07 08:50:31  5-MIN KDBQ 241450Z 19027G32KT 9SM CLR 26/14 A3002 980 49 2500 190/27G32 RMK AO2 PK WND 19032/1449 SLP159 T02560144 56003
94908KDBQ DBQ20070524085513905/24/07 08:55:31  5-MIN KDBQ 241455Z 19024G36KT 9SM CLR 26/14 A3003 980 48 2500 190/24G36 RMK AO2 PK WND 19036/1452 SLP160 T02560139 58010
94908KDBQ DBQ20070524090011605/24/07 09:00:31  5-MIN KDBQ 241500Z 19021G36KT 9SM CLR 26/14 A3003 980 49 2500 190/21G36 RMK AO2 PK WND 18029/1458
94908KDBQ DBQ20070524090511605/24/07 09:05:31  5-MIN KDBQ 241505Z 19023G37KT 9SM CLR 26/14 A3002 990 48 2500 180/23G37 RMK AO2 PK WND 18037/1502
94908KDBQ DBQ20070524091011605/24/07 09:10:31  5-MIN KDBQ 241510Z 19024G37KT 9SM CLR 26/14 A3002 980 46 2500 190/24G37 RMK AO2 PK WND 18037/1502
94908KDBQ DBQ20070524091511605/24/07 09:15:31  5-MIN KDBQ 241515Z 19024G36KT 9SM CLR 26/14 A3002 990 46 2500 180/24G36 RMK AO2 PK WND 18037/1502
94908KDBQ DBQ20070524092011605/24/07 09:20:31  5-MIN KDBQ 241520Z 19026G36KT 9SM CLR 26/14 A3002 990 46 2500 190/26G36 RMK AO2 PK WND 18037/1502
94908KDBQ DBQ20070524092511605/24/07 09:25:31  5-MIN KDBQ 241525Z 18029G38KT 9SM CLR 26/14 A3002 990 46 2500 180/29G38 RMK AO2 PK WND 19038/1521
94908KDBQ DBQ20070524093011605/24/07 09:30:31  5-MIN KDBQ 241530Z 19027G38KT 9SM CLR 26/14 A3002 990 46 2500 190/27G38 RMK AO2 PK WND 19038/1521
94908KDBQ DBQ20070524093511605/24/07 09:35:31  5-MIN KDBQ 241535Z 20026G35KT 9SM CLR 26/14 A3001 990 46 2500 200/26G35 RMK AO2 PK WND 19038/1521
94908KDBQ DBQ20070524094011605/24/07 09:40:31  5-MIN KDBQ 241540Z 19028G35KT 9SM CLR 26/14 A3002 990 46 2500 190/28G35 RMK AO2 PK WND 19038/1521
94908KDBQ DBQ20070524094511705/24/07 09:45:31  5-MIN KDBQ 241545Z 18027G35KT 10SM CLR 26/14 A3001 990 46 2500 180/27G35 RMK AO2 PK WND 19038/1521
94908KDBQ DBQ20070524095013505/24/07 09:50:31  5-MIN KDBQ 241550Z 19025G35KT 10SM CLR 26/14 A3000 1000 46 2500 190/25G35 RMK AO2 PK WND 19038/1521 SLP152 T02610139
94908KDBQ DBQ20070524095513505/24/07 09:55:31  5-MIN KDBQ 241555Z 19026G34KT 10SM CLR 27/14 A3001 1000 45 2600 190/26G34 RMK AO2 PK WND 19038/1521 SLP154 T02670139
94908KDBQ DBQ20070524100011805/24/07 10:00:31  5-MIN KDBQ 241600Z 19028G39KT 10SM CLR 27/13 A3000 1010 43 2600 190/28G39 RMK AO2 PK WND 19039/1557
94908KDBQ DBQ20070524100511805/24/07 10:05:31  5-MIN KDBQ 241605Z 18027G39KT 10SM CLR 27/13 A3000 1010 43 2600 180/27G39 RMK AO2 PK WND 19039/1557
94908KDBQ DBQ20070524101011805/24/07 10:10:31  5-MIN KDBQ 241610Z 19026G37KT 10SM CLR 27/13 A3000 1010 42 2700 190/26G37 RMK AO2 PK WND 19039/1557
94908KDBQ DBQ20070524101511805/24/07 10:15:31  5-MIN KDBQ 241615Z 18025G36KT 10SM CLR 28/13 A2999 1010 40 2700 180/25G36 RMK AO2 PK WND 19039/1557
94908KDBQ DBQ20070524102011805/24/07 10:20:31  5-MIN KDBQ 241620Z 19033G40KT 10SM CLR 28/13 A2999 1010 40 2700 190/33G40 RMK AO2 PK WND 18040/1619
94908KDBQ DBQ20070524102511805/24/07 10:25:31  5-MIN KDBQ 241625Z 19029G40KT 10SM CLR 28/13 A2999 1020 40 2800 190/29G40 RMK AO2 PK WND 18040/1619
94908KDBQ DBQ20070524103011805/24/07 10:30:31  5-MIN KDBQ 241630Z 19027G38KT 10SM CLR 28/13 A2999 1010 40 2700 190/27G38 RMK AO2 PK WND 18040/1619
94908KDBQ DBQ20070524103511805/24/07 10:35:31  5-MIN KDBQ 241635Z 18026G36KT 10SM CLR 28/13 A2998 1020 40 2800 180/26G36 RMK AO2 PK WND 18040/1619
94908KDBQ DBQ20070524104012105/24/07 10:40:31  5-MIN KDBQ 241640Z 18026G36KT 10SM FEW055 28/13 A2999 1020 40 2800 180/26G36 RMK AO2 PK WND 18040/1619
94908KDBQ DBQ20070524104512105/24/07 10:45:31  5-MIN KDBQ 241645Z 18026G37KT 10SM FEW055 28/14 A2998 1020 42 2800 180/26G37 RMK AO2 PK WND 18040/1619
94908KDBQ DBQ20070524105013805/24/07 10:50:31  5-MIN KDBQ 241650Z 19024G37KT 10SM SCT055 28/14 A2998 1020 42 2800 190/24G37 RMK AO2 PK WND 18040/1619 SLP145 T02780139
94908KDBQ DBQ20070524105513805/24/07 10:55:31  5-MIN KDBQ 241655Z 19025G34KT 10SM SCT055 28/14 A2998 1020 42 2800 190/25G34 RMK AO2 PK WND 18040/1619 SLP144 T02830144
94908KDBQ DBQ20070524110012105/24/07 11:00:31  5-MIN KDBQ 241700Z 19025G36KT 10SM SCT055 28/14 A2998 1020 40 2800 190/25G36 RMK AO2 PK WND 20036/1657
94908KDBQ DBQ20070524110512105/24/07 11:05:31  5-MIN KDBQ 241705Z 19026G36KT 10SM SCT055 27/14 A2998 1030 43 2700 190/26G36 RMK AO2 PK WND 20036/1657
94908KDBQ DBQ20070524111012105/24/07 11:10:31  5-MIN KDBQ 241710Z 19026G34KT 10SM SCT055 28/14 A2998 1030 40 2800 190/26G34 RMK AO2 PK WND 20036/1657
94908KDBQ DBQ20070524111512105/24/07 11:15:31  5-MIN KDBQ 241715Z 19027G40KT 10SM SCT055 28/14 A2997 1030 40 2800 190/27G40 RMK AO2 PK WND 20040/1713
94908KDBQ DBQ20070524112012805/24/07 11:20:31  5-MIN KDBQ 241720Z 18029G40KT 10SM FEW055 SCT070 28/14 A2997 1030 40 2800 180/29G40 RMK AO2 PK WND 20040/1713
94908KDBQ DBQ20070524112512105/24/07 11:25:31  5-MIN KDBQ 241725Z 19026G34KT 10SM FEW055 28/14 A2997 1030 42 2800 190/26G34 RMK AO2 PK WND 20040/1713
94908KDBQ DBQ20070524113012805/24/07 11:30:31  5-MIN KDBQ 241730Z 20025G34KT 10SM FEW055 SCT070 28/14 A2997 1030 42 2800 200/25G34 RMK AO2 PK WND 20040/1713
94908KDBQ DBQ20070524113512805/24/07 11:35:31  5-MIN KDBQ 241735Z 19023G34KT 10SM FEW060 SCT075 28/14 A2997 1030 42 2800 190/23G34 RMK AO2 PK WND 20040/1713
94908KDBQ DBQ20070524114012805/24/07 11:40:31  5-MIN KDBQ 241740Z 20024G31KT 10SM FEW060 SCT075 27/14 A2997 1030 45 2600 200/24G31 RMK AO2 PK WND 20040/1713
94908KDBQ DBQ20070524114513505/24/07 11:45:31  5-MIN KDBQ 241745Z 20025G34KT 10SM FEW060 BKN075 BKN085 27/13 A2997 1030 43 2700 200/25G34 RMK AO2 PK WND 20040/1713
94908KDBQ DBQ20070524115016305/24/07 11:50:31  5-MIN KDBQ 241750Z 18025G34KT 10SM FEW060 BKN075 27/13 A2996 1040 43 2700 180/25G34 RMK AO2 PK WND 20040/1713 SLP139 T02670133 10283 20217 58010
94908KDBQ DBQ20070524115516305/24/07 11:55:31  5-MIN KDBQ 241755Z 19024G31KT 10SM FEW060 BKN075 27/13 A2997 1030 42 2700 190/24G31 RMK AO2 PK WND 20040/1713 SLP141 T02720133 10283 20217 56019
94908KDBQ DBQ20070524120012805/24/07 12:00:31  5-MIN KDBQ 241800Z 18025G33KT 10SM SCT060 OVC075 27/13 A2996 1040 42 2700 180/25G33 RMK AO2 PK WND 19033/1800
94908KDBQ DBQ20070524120512805/24/07 12:05:31  5-MIN KDBQ 241805Z 19022G33KT 10SM SCT060 BKN080 27/13 A2996 1040 43 2700 190/22G33 RMK AO2 PK WND 19033/1800
94908KDBQ DBQ20070524121012805/24/07 12:10:31  5-MIN KDBQ 241810Z 19027G32KT 10SM SCT060 BKN075 27/13 A2996 1040 43 2700 190/27G32 RMK AO2 PK WND 19033/1800
94908KDBQ DBQ20070524121512805/24/07 12:15:31  5-MIN KDBQ 241815Z 19027G36KT 10SM BKN060 OVC080 27/13 A2996 1050 43 2700 190/27G36 RMK AO2 PK WND 20036/1813
94908KDBQ DBQ20070524122012805/24/07 12:20:31  5-MIN KDBQ 241820Z 20031G38KT 10SM BKN060 OVC080 27/13 A2995 1050 43 2700 200/31G38 RMK AO2 PK WND 20038/1820
94908KDBQ DBQ20070524122512805/24/07 12:25:31  5-MIN KDBQ 241825Z 21033G41KT 10SM BKN060 OVC080 26/13 A2997 1030 44 2600 210/33G41 RMK AO2 PK WND 23041/1825
94908KDBQ DBQ20070524123014905/24/07 12:30:31  5-MIN KDBQ 241830Z 24027G41KT 5SM RA FEW042 BKN060 OVC080 22/15 A2998 1020 65 2100 240/27G41 RMK AO2 PK WND 23041/1825 RAB30 P0000
94908KDBQ DBQ20070524123519305/24/07 12:35:31  5-MIN KDBQ 241835Z 24022G39KT 3SM TSRA FEW043 BKN055 OVC065 19/17 A3000 1010 84 1800 240/22G39 RMK AO2 PK WND 23041/1825 WSHFT 1820 TSB33RAB30 PRESRR TSTMS OVHD MOV NNE P0003
94908KDBQ DBQ20070524124018905/24/07 12:40:31  5-MIN KDBQ 241840Z 23021G33KT 3SM TSRA BR FEW033 SCT045 OVC055 19/18 A2999 1010 90 1800 230/21G33 RMK AO2 PK WND 23041/1825 WSHFT 1820 TSB33RAB30 TSTMS OVHD MOV NNE P0004
94908KDBQ DBQ20070524124518905/24/07 12:45:31  5-MIN KDBQ 241845Z 20025G32KT 3SM TSRA BR SCT026 SCT043 OVC055 19/18 A3000 1010 90 1800 200/25G32 RMK AO2 PK WND 23041/1825 WSHFT 1820 TSB33RAB30 TSTMS OVHD MOV NNE P0004
94908KDBQ DBQ20070524125020305/24/07 12:50:31  5-MIN KDBQ 241850Z 18020G32KT 4SM -TSRA BR BKN023 BKN043 OVC055 20/18 A2999 1010 90 1900 180/20G32 RMK AO2 PK WND 23041/1825 WSHFT 1820 TSB33RAB30 TSTMS NE-SE MOV NNE OCCNL LTGCG P0006
94908KDBQ DBQ20070524125521705/24/07 12:55:31  5-MIN KDBQ 241855Z 19019G32KT 7SM -TSRA BKN023 BKN043 OVC050 20/18 A2999 1020 90 1900 190/19G32 RMK AO2 PK WND 23041/1825 WSHFT 1820 TSB33RAB30 SLP150 TSTMS NE-SE MOV NNE OCCNL LTGCG P0006 T02000183
94908KDBQ DBQ20070524130013905/24/07 13:00:31  5-MIN KDBQ 241900Z 19015G24KT 9SM -TSRA BKN023 BKN047 BKN055 21/19 A2999 1020 90 1900 190/15G24 RMK AO2 WSHFT 1842 P0000
94908KDBQ DBQ20070524130515605/24/07 13:05:31  5-MIN KDBQ 241905Z 20015G22KT 10SM -TSRA SCT028 BKN050 21/19 A2999 1010 93 1900 200/15G22 RMK AO2 WSHFT 1842 TSTMS DSTNT NE-E MOV E P0000
94908KDBQ DBQ20070524131014605/24/07 13:10:31  5-MIN KDBQ 241910Z 20014KT 10SM TS BKN042 21/20 A3000 1010 93 2000 200/14 RMK AO2 WSHFT 1842 RAE06 TSTMS DSTNT NE-E MOV E P0000
94908KDBQ DBQ20070524131515405/24/07 13:15:31  5-MIN KDBQ 241915Z 23014G21KT 10SM SCT050 21/19 A3000 1000 90 2000 230/14G21 RMK AO2 WSHFT 1842 TSE14RAE06 TSTMS DSTNT NE-E MOV E P0000
94908KDBQ DBQ20070524132016005/24/07 13:20:31  5-MIN KDBQ 241920Z 22015G21KT 9SM SCT055 BKN110 21/19 A3000 1010 93 1900 220/15G21 RMK AO2 WSHFT 1842 TSE14RAE06 TSTMS DSTNT NE-E MOV E P0000
94908KDBQ DBQ20070524132516805/24/07 13:25:31  5-MIN KDBQ 241925Z 22014G21KT 10SM SCT055 SCT085 BKN120 21/19 A3000 1010 90 2000 220/14G21 RMK AO2 WSHFT 1842 TSE14RAE06 TSTMS DSTNT NE-E MOV E P0000
94908KDBQ DBQ20070524133015505/24/07 13:30:31  5-MIN KDBQ 241930Z 22015KT 10SM BKN055 BKN090 21/19 A3000 1010 90 2000 220/15 RMK AO2 WSHFT 1842 TSE14RAE06 TSTMS DSTNT NE-E MOV E P0000
94908KDBQ DBQ20070524133516205/24/07 13:35:31  5-MIN KDBQ 241935Z 22013KT 10SM SCT049 BKN060 BKN110 21/19 A3000 1010 90 2000 220/13 RMK AO2 WSHFT 1842 TSE14RAE06 TSTMS DSTNT NE-E MOV E P0000
94908KDBQ DBQ20070524134015505/24/07 13:40:31  5-MIN KDBQ 241940Z 22013KT 10SM SCT049 BKN055 22/20 A2999 1010 90 2100 220/13 RMK AO2 WSHFT 1842 TSE14RAE06 TSTMS DSTNT NE-E MOV E P0000
94908KDBQ DBQ20070524134515505/24/07 13:45:31  5-MIN KDBQ 241945Z 22012KT 10SM SCT049 BKN060 22/20 A3000 1010 90 2100 220/12 RMK AO2 WSHFT 1842 TSE14RAE06 TSTMS DSTNT NE-E MOV E P0000
94908KDBQ DBQ20070524135014805/24/07 13:50:31  5-MIN KDBQ 241950Z 22013KT 9SM BKN047 OVC060 22/20 A2999 1020 90 2100 220/13 RMK AO2 WSHFT 1842 TSE14RAE06 SLP149 P0000 T02170200
94908KDBQ DBQ20070524135515405/24/07 13:55:31  5-MIN KDBQ 241955Z 22015G22KT 9SM BKN047 OVC060 22/19 A2999 1010 87 2100 220/15G22 RMK AO2 WSHFT 1842 TSE14RAE06 SLP150 P0000 T02170194
94908KDBQ DBQ20070524140010905/24/07 14:00:31  5-MIN KDBQ 242000Z 22017G22KT 9SM BKN045 OVC060 22/19 A2999 1010 87 2100 220/17G22 RMK AO2
94908KDBQ DBQ20070524140510905/24/07 14:05:31  5-MIN KDBQ 242005Z 22016G22KT 9SM BKN045 OVC060 21/19 A3000 1010 90 2000 220/16G22 RMK AO2
94908KDBQ DBQ20070524141009605/24/07 14:10:31  5-MIN KDBQ 242010Z 21017KT 9SM OVC045 22/19 A3000 1010 87 2100 210/17 RMK AO2
94908KDBQ DBQ20070524141512505/24/07 14:15:31  5-MIN KDBQ 242015Z 21014G21KT 8SM -RA BKN045 OVC060 22/19 A2999 1020 87 2100 210/14G21 RMK AO2 RAB13 P0000
94908KDBQ DBQ20070524142012505/24/07 14:20:31  5-MIN KDBQ 242020Z 20017G22KT 8SM -RA BKN045 OVC075 22/20 A2998 1020 87 2100 200/17G22 RMK AO2 RAB13 P0000
94908KDBQ DBQ20070524142511905/24/07 14:25:31  5-MIN KDBQ 242025Z 20018KT 10SM SCT045 BKN075 22/21 A2998 1020 90 2100 200/18 RMK AO2 RAB13E22 P0000
94908KDBQ DBQ20070524143012505/24/07 14:30:31  5-MIN KDBQ 242030Z 21019G24KT 10SM SCT045 BKN080 23/21 A2998 1020 87 2200 210/19G24 RMK AO2 RAB13E22 P0000
94908KDBQ DBQ20070524143512505/24/07 14:35:31  5-MIN KDBQ 242035Z 21018G24KT 10SM FEW043 SCT075 23/21 A2998 1020 87 2200 210/18G24 RMK AO2 RAB13E22 P0000
94908KDBQ DBQ20070524144011805/24/07 14:40:31  5-MIN KDBQ 242040Z 21020G25KT 10SM SCT075 23/20 A2998 1020 84 2200 210/20G25 RMK AO2 RAB13E22 P0000
94908KDBQ DBQ20070524144513605/24/07 14:45:31  5-MIN KDBQ 242045Z 21020G29KT 10SM FEW080 23/20 A2998 1030 81 2300 210/20G29 RMK AO2 PK WND 22029/2043 RAB13E22 P0000
94908KDBQ DBQ20070524145016505/24/07 14:50:31  5-MIN KDBQ 242050Z 22020G29KT 10SM FEW080 23/20 A2998 1020 81 2300 220/20G29 RMK AO2 PK WND 22029/2050 RAB13E22 SLP146 P0000 60006 T02330200 56019
94908KDBQ DBQ20070524145516205/24/07 14:55:31  5-MIN KDBQ 242055Z 22024G29KT 10SM CLR 23/20 A2998 1020 81 2300 220/24G29 RMK AO2 PK WND 22029/2050 RAB13E22 SLP146 P0000 60006 T02330200 50004
94908KDBQ DBQ20070524150012105/24/07 15:00:31  5-MIN KDBQ 242100Z 22018G28KT 10SM FEW075 23/19 A2998 1030 78 2300 220/18G28 RMK AO2 PK WND 23026/2056
94908KDBQ DBQ20070524150512805/24/07 15:05:31  5-MIN KDBQ 242105Z 22018G25KT 10SM FEW060 SCT075 23/19 A2998 1020 78 2300 220/18G25 RMK AO2 PK WND 23026/2056
94908KDBQ DBQ20070524151012105/24/07 15:10:31  5-MIN KDBQ 242110Z 22020G26KT 10SM FEW060 24/18 A2998 1020 71 2300 220/20G26 RMK AO2 PK WND 21026/2109
94908KDBQ DBQ20070524151512105/24/07 15:15:31  5-MIN KDBQ 242115Z 22019G27KT 10SM FEW060 24/18 A2998 1020 68 2300 210/19G27 RMK AO2 PK WND 21027/2114
94908KDBQ DBQ20070524152012805/24/07 15:20:31  5-MIN KDBQ 242120Z 23022G28KT 10SM SCT060 SCT075 23/18 A2998 1020 70 2300 220/22G28 RMK AO2 PK WND 22028/2120
94908KDBQ DBQ20070524152512805/24/07 15:25:31  5-MIN KDBQ 242125Z 22019G28KT 10SM BKN055 BKN075 23/17 A2998 1020 70 2200 220/19G28 RMK AO2 PK WND 22028/2120
94908KDBQ DBQ20070524153012105/24/07 15:30:31  5-MIN KDBQ 242130Z 21020G28KT 10SM BKN055 23/17 A2998 1020 70 2200 210/20G28 RMK AO2 PK WND 22028/2126
94908KDBQ DBQ20070524153512805/24/07 15:35:31  5-MIN KDBQ 242135Z 21021G28KT 10SM BKN055 BKN070 23/17 A2999 1010 70 2200 210/21G28 RMK AO2 PK WND 20028/2135
94908KDBQ DBQ20070524154012805/24/07 15:40:31  5-MIN KDBQ 242140Z 22021G32KT 10SM BKN060 BKN070 22/17 A2999 1010 70 2100 220/21G32 RMK AO2 PK WND 22032/2136
94908KDBQ DBQ20070524154514205/24/07 15:45:31  5-MIN KDBQ 242145Z 22020G32KT 10SM FEW047 BKN060 OVC070 22/17 A3000 1000 70 2100 210/20G32 RMK AO2 PK WND 22032/2136 PRESRR
94908KDBQ DBQ20070524155015805/24/07 15:50:31  5-MIN KDBQ 242150Z 22022G30KT 7SM SCT048 BKN060 OVC110 22/17 A3001 1000 70 2100 220/22G30 RMK AO2 PK WND 22032/2136 PRESRR SLP156 T02220167
94908KDBQ DBQ20070524155518005/24/07 15:55:31  5-MIN KDBQ 242155Z 26022G30KT 2 1/2SM +RA BR SCT018 BKN050 OVC075 19/17 A3003 980 87 1800 250/22G30 RMK AO2 PK WND 22032/2136 RAB52 PRESRR SLP164 P0004 T01940172
94908KDBQ DBQ20070524160016805/24/07 16:00:31  5-MIN KDBQ 242200Z 27018G30KT 2 1/2SM RA BR FEW009 BKN022 OVC075 18/16 A3004 970 90 1600 270/18G30 RMK AO2 PK WND 27026/2156 VIS 1 1/4V4 PRESRR P0001
94908KDBQ DBQ20070524160515605/24/07 16:05:31  5-MIN KDBQ 242205Z 28020G26KT 3SM RA BR SCT014 BKN045 OVC075 17/16 A3004 960 93 1400 270/20G26 RMK AO2 PK WND 27026/2156 WSHFT 2149 P0002
94908KDBQ DBQ20070524161015605/24/07 16:10:31  5-MIN KDBQ 242210Z 28016G24KT 3SM RA BR SCT016 BKN045 OVC070 16/14 A3005 960 90 1400 280/16G24 RMK AO2 PK WND 27026/2156 WSHFT 2149 P0003
94908KDBQ DBQ20070524161515705/24/07 16:15:31  5-MIN KDBQ 242215Z 28015G23KT 3SM -RA BR FEW014 SCT031 BKN065 15/14 A3005 960 93 1200 280/15G23 RMK AO2 PK WND 27026/2156 WSHFT 2149 P0004
94908KDBQ DBQ20070524162015705/24/07 16:20:31  5-MIN KDBQ 242220Z 28013G22KT 10SM FEW014 SCT040 BKN065 15/14 A3005 960 93 1200 280/13G22 RMK AO2 PK WND 27026/2156 WSHFT 2149 RAE19 P0004
94908KDBQ DBQ20070524162515105/24/07 16:25:31  5-MIN KDBQ 242225Z 28011KT 10SM FEW009 SCT065 BKN080 15/13 A3006 950 90 1200 280/11 RMK AO2 PK WND 27026/2156 WSHFT 2149 RAE19 P0004
94908KDBQ DBQ20070524163015105/24/07 16:30:31  5-MIN KDBQ 242230Z 27011KT 10SM FEW050 BKN080 BKN100 15/13 A3006 950 90 1200 270/11 RMK AO2 PK WND 27026/2156 WSHFT 2149 RAE19 P0004
94908KDBQ DBQ20070524163515105/24/07 16:35:31  5-MIN KDBQ 242235Z 27012KT 10SM FEW065 BKN080 15/13 A3007 940 90 1200 270/12 RMK AO2 PK WND 27026/2156 WSHFT 2149 RAE19 PRESRR P0004
94908KDBQ DBQ20070524164015105/24/07 16:40:31  5-MIN KDBQ 242240Z 27012KT 10SM FEW007 BKN080 15/13 A3008 930 90 1200 270/12 RMK AO2 PK WND 27026/2156 WSHFT 2149 RAE19 PRESRR P0004
94908KDBQ DBQ20070524164515105/24/07 16:45:31  5-MIN KDBQ 242245Z 28012KT 10SM SCT007 BKN085 15/13 A3008 930 90 1200 280/12 RMK AO2 PK WND 27026/2156 WSHFT 2149 RAE19 PRESRR P0004
94908KDBQ DBQ20070524165015105/24/07 16:50:31  5-MIN KDBQ 242250Z 29014KT 10SM BKN007 OVC090 15/13 A3009 920 90 1200 290/14 RMK AO2 PK WND 27026/2156 WSHFT 2149 RAE19 PRESRR P0004
94908KDBQ DBQ20070524165517505/24/07 16:55:31  5-MIN KDBQ 242255Z 29013KT 10SM BKN007 BKN011 OVC085 14/13 A3010 910 90 1100 290/13 RMK AO2 PK WND 27026/2156 WSHFT 2149 RAE19 PRESRR SLP191 P0004 T01440128
94908KDBQ DBQ20070524170011605/24/07 17:00:31  5-MIN KDBQ 242300Z 29012G20KT 10SM BKN009 BKN013 OVC085 14/13 A3010 910 90 1100 290/12G20 RMK AO2
94908KDBQ DBQ20070524170511605/24/07 17:05:31  5-MIN KDBQ 242305Z 29011G20KT 10SM BKN009 BKN070 OVC090 14/13 A3011 910 90 1100 290/11G20 RMK AO2
94908KDBQ DBQ20070524171012205/24/07 17:10:31  5-MIN KDBQ 242310Z 30008KT 10SM BKN009 BKN012 OVC090 14/13 A3010 910 90 1100 290/08 RMK AO2 CIG 006V011
94908KDBQ DBQ20070524171512205/24/07 17:15:31  5-MIN KDBQ 242315Z 30010KT 10SM BKN009 BKN065 OVC090 14/13 A3010 910 90 1100 300/10 RMK AO2 CIG 006V013
94908KDBQ DBQ20070524172012805/24/07 17:20:31  5-MIN KDBQ 242320Z 30010G15KT 10SM BKN009 BKN060 OVC090 14/12 A3010 910 86 1100 300/10G15 RMK AO2 CIG 008V013
94908KDBQ DBQ20070524172511005/24/07 17:25:31  5-MIN KDBQ 242325Z 30010KT 10SM SCT009 BKN060 OVC090 14/12 A3010 910 86 1100 300/10 RMK AO2
94908KDBQ DBQ20070524173011005/24/07 17:30:31  5-MIN KDBQ 242330Z 31010KT 10SM SCT009 BKN070 OVC090 14/12 A3011 910 86 1100 300/10 RMK AO2
94908KDBQ DBQ20070524173511005/24/07 17:35:31  5-MIN KDBQ 242335Z 29010KT 10SM SCT009 BKN041 OVC090 14/12 A3011 900 86 1100 290/10 RMK AO2
94908KDBQ DBQ20070524174011005/24/07 17:40:31  5-MIN KDBQ 242340Z 28009KT 10SM SCT009 BKN041 OVC090 14/12 A3011 900 90 1000 280/09 RMK AO2
94908KDBQ DBQ20070524174511005/24/07 17:45:31  5-MIN KDBQ 242345Z 28007KT 10SM SCT009 BKN050 OVC090 14/12 A3011 900 86 1100 280/07 RMK AO2
94908KDBQ DBQ20070524175015105/24/07 17:50:31  5-MIN KDBQ 242350Z 29010KT 10SM FEW009 BKN050 OVC090 14/12 A3012 900 86 1100 290/10 RMK AO2 SLP196 60014 T01440122 10272 20139 50004
94908KDBQ DBQ20070524175515105/24/07 17:55:31  5-MIN KDBQ 242355Z 30008KT 10SM FEW009 BKN050 OVC080 14/12 A3012 890 86 1100 300/08 RMK AO2 SLP197 60014 T01440122 10272 20139 51046
94908KDBQ DBQ20070524180011005/24/07 18:00:31  5-MIN KDBQ 250000Z 29008KT 10SM SCT009 BKN048 OVC100 14/12 A3012 890 83 1100 290/08 RMK AO2
94908KDBQ DBQ20070524180511005/24/07 18:05:31  5-MIN KDBQ 250005Z 30009KT 10SM FEW011 BKN048 OVC090 14/12 A3012 890 83 1100 300/09 RMK AO2
94908KDBQ DBQ20070524181011005/24/07 18:10:31  5-MIN KDBQ 250010Z 28008KT 10SM FEW011 BKN060 OVC090 14/12 A3013 890 83 1100 280/08 RMK AO2
94908KDBQ DBQ20070524181511005/24/07 18:15:31  5-MIN KDBQ 250015Z 27007KT 10SM FEW011 BKN090 OVC100 14/12 A3013 890 83 1100 270/07 RMK AO2
94908KDBQ DBQ20070524182011005/24/07 18:20:31  5-MIN KDBQ 250020Z 28006KT 10SM FEW011 BKN090 OVC110 14/12 A3013 890 83 1100 280/06 RMK AO2
94908KDBQ DBQ20070524182511005/24/07 18:25:31  5-MIN KDBQ 250025Z 27007KT 10SM FEW011 BKN090 OVC110 14/12 A3013 880 86 1100 270/07 RMK AO2
94908KDBQ DBQ20070524183011005/24/07 18:30:31  5-MIN KDBQ 250030Z 28008KT 10SM FEW011 SCT085 BKN100 14/12 A3014 880 86 1000 280/08 RMK AO2
94908KDBQ DBQ20070524183511005/24/07 18:35:31  5-MIN KDBQ 250035Z 28008KT 10SM FEW011 SCT085 BKN100 14/12 A3014 870 86 1000 280/08 RMK AO2
94908KDBQ DBQ20070524184011005/24/07 18:40:31  5-MIN KDBQ 250040Z 29008KT 10SM FEW011 BKN085 OVC100 14/12 A3014 870 86 1000 290/08 RMK AO2
94908KDBQ DBQ20070524184511005/24/07 18:45:31  5-MIN KDBQ 250045Z 29009KT 10SM SCT013 BKN085 OVC110 14/12 A3014 870 86 1000 290/09 RMK AO2
94908KDBQ DBQ20070524185012705/24/07 18:50:31  5-MIN KDBQ 250050Z 30009KT 10SM SCT013 BKN070 OVC100 14/12 A3014 870 86 1000 300/09 RMK AO2 SLP205 T01390117
94908KDBQ DBQ20070524185512705/24/07 18:55:31  5-MIN KDBQ 250055Z 30010KT 10SM SCT015 BKN070 OVC085 14/12 A3015 870 86 1000 300/10 RMK AO2 SLP206 T01390117
94908KDBQ DBQ20070524190011005/24/07 19:00:31  5-MIN KDBQ 250100Z 30008KT 10SM FEW015 BKN070 OVC085 14/12 A3015 870 86 1000 300/08 RMK AO2
94908KDBQ DBQ20070524190510305/24/07 19:05:31  5-MIN KDBQ 250105Z 31008KT 10SM SCT015 OVC070 14/12 A3015 870 86 1000 310/08 RMK AO2
94908KDBQ DBQ20070524191010305/24/07 19:10:31  5-MIN KDBQ 250110Z 31006KT 10SM SCT015 OVC070 14/12 A3015 860 86 1000 310/06 RMK AO2
94908KDBQ DBQ20070524191510905/24/07 19:15:31  5-MIN KDBQ 250115Z 30006KT 10SM FEW015 BKN070 BKN085 13/12 A3016 860 89 900 300/06 RMK AO2
94908KDBQ DBQ20070524192010905/24/07 19:20:31  5-MIN KDBQ 250120Z 30005KT 10SM SCT015 BKN070 BKN085 13/12 A3016 860 89 900 300/05 RMK AO2
94908KDBQ DBQ20070524192510905/24/07 19:25:31  5-MIN KDBQ 250125Z 30007KT 10SM SCT015 BKN070 BKN085 13/12 A3016 860 89 900 300/07 RMK AO2
94908KDBQ DBQ20070524193010905/24/07 19:30:31  5-MIN KDBQ 250130Z 29006KT 10SM SCT015 BKN070 BKN085 13/11 A3017 850 86 900 290/06 RMK AO2
94908KDBQ DBQ20070524193510205/24/07 19:35:31  5-MIN KDBQ 250135Z 30008KT 10SM FEW015 SCT085 13/11 A3017 850 86 900 300/08 RMK AO2
94908KDBQ DBQ20070524194010205/24/07 19:40:31  5-MIN KDBQ 250140Z 30008KT 10SM FEW015 SCT080 13/11 A3017 850 86 900 300/08 RMK AO2
94908KDBQ DBQ20070524194509505/24/07 19:45:31  5-MIN KDBQ 250145Z 31008KT 10SM FEW015 13/11 A3017 840 86 800 300/08 RMK AO2
94908KDBQ DBQ20070524195011205/24/07 19:50:31  5-MIN KDBQ 250150Z 31007KT 10SM FEW015 13/11 A3017 840 86 800 310/07 RMK AO2 SLP216 T01280106
94908KDBQ DBQ20070524195510905/24/07 19:55:31  5-MIN KDBQ 250155Z 31008KT 10SM CLR 13/11 A3018 840 86 800 310/08 RMK AO2 SLP217 T01280106
94908KDBQ DBQ20070524200009205/24/07 20:00:31  5-MIN KDBQ 250200Z 31007KT 10SM CLR 13/11 A3018 840 86 800 310/07 RMK AO2
94908KDBQ DBQ20070524200509205/24/07 20:05:31  5-MIN KDBQ 250205Z 30007KT 10SM CLR 12/11 A3018 840 89 700 300/07 RMK AO2
94908KDBQ DBQ20070524201009205/24/07 20:10:31  5-MIN KDBQ 250210Z 31007KT 10SM CLR 12/11 A3018 840 89 700 300/07 RMK AO2
94908KDBQ DBQ20070524201509205/24/07 20:15:31  5-MIN KDBQ 250215Z 30006KT 10SM CLR 12/11 A3019 830 89 700 300/06 RMK AO2
94908KDBQ DBQ20070524202009205/24/07 20:20:31  5-MIN KDBQ 250220Z 30006KT 10SM CLR 12/11 A3019 830 89 700 300/06 RMK AO2
94908KDBQ DBQ20070524202509205/24/07 20:25:31  5-MIN KDBQ 250225Z 31005KT 10SM CLR 12/10 A3019 830 86 700 310/05 RMK AO2
94908KDBQ DBQ20070524203009205/24/07 20:30:31  5-MIN KDBQ 250230Z 30005KT 10SM CLR 12/10 A3019 830 86 700 300/05 RMK AO2
94908KDBQ DBQ20070524203509205/24/07 20:35:31  5-MIN KDBQ 250235Z 31005KT 10SM CLR 12/10 A3020 820 89 700 310/05 RMK AO2
94908KDBQ DBQ20070524205511505/24/07 20:55:31  5-MIN KDBQ 250255Z 31004KT 10SM CLR 12/10 A3021 810 89 600 310/04 RMK AO2 SLP226 T01170100 53028
94908KDBQ DBQ20070524210009205/24/07 21:00:31  5-MIN KDBQ 250300Z 30003KT 10SM CLR 11/09 A3021 810 89 600 300/03 RMK AO2
94908KDBQ DBQ20070524210509205/24/07 21:05:31  5-MIN KDBQ 250305Z 31003KT 10SM CLR 12/09 A3021 810 86 600 310/03 RMK AO2
94908KDBQ DBQ20070524211009205/24/07 21:10:31  5-MIN KDBQ 250310Z 30003KT 10SM CLR 12/09 A3021 810 86 600 300/03 RMK AO2
94908KDBQ DBQ20070524211509705/24/07 21:15:31  5-MIN KDBQ 250315Z AUTO 30004KT 10SM CLR 11/09 A3021 810 89 600 300/04 RMK AO2
94908KDBQ DBQ20070524212010205/24/07 21:20:31  5-MIN KDBQ 250320Z AUTO 30004KT 10SM CLR 11/09 A3022 810 89 600 290/04 RMK AO2 TSNO
94908KDBQ DBQ20070524212510205/24/07 21:25:31  5-MIN KDBQ 250325Z AUTO 30006KT 10SM CLR 11/09 A3022 800 86 600 300/06 RMK AO2 TSNO
94908KDBQ DBQ20070524213010205/24/07 21:30:31  5-MIN KDBQ 250330Z AUTO 30005KT 10SM CLR 11/09 A3022 800 89 600 300/05 RMK AO2 TSNO
94908KDBQ DBQ20070524213510205/24/07 21:35:31  5-MIN KDBQ 250335Z AUTO 31005KT 10SM CLR 11/09 A3022 800 86 600 310/05 RMK AO2 TSNO
94908KDBQ DBQ20070524214010205/24/07 21:40:31  5-MIN KDBQ 250340Z AUTO 31005KT 10SM CLR 11/09 A3022 800 86 600 310/05 RMK AO2 TSNO
94908KDBQ DBQ20070524214510205/24/07 21:45:31  5-MIN KDBQ 250345Z AUTO 31005KT 10SM CLR 11/09 A3022 800 86 600 300/05 RMK AO2 TSNO
94908KDBQ DBQ20070524215011905/24/07 21:50:31  5-MIN KDBQ 250350Z AUTO 30004KT 10SM CLR 11/09 A3022 800 86 600 300/04 RMK AO2 SLP233 T01110089 TSNO
94908KDBQ DBQ20070524215511905/24/07 21:55:31  5-MIN KDBQ 250355Z AUTO 30004KT 10SM CLR 11/09 A3023 800 86 600 300/04 RMK AO2 SLP233 T01110089 TSNO
94908KDBQ DBQ20070524220010205/24/07 22:00:31  5-MIN KDBQ 250400Z AUTO 30003KT 10SM CLR 11/09 A3023 800 89 500 300/03 RMK AO2 TSNO
94908KDBQ DBQ20070524220510205/24/07 22:05:31  5-MIN KDBQ 250405Z AUTO 00000KT 10SM CLR 11/09 A3023 790 89 500 000/00 RMK AO2 TSNO
94908KDBQ DBQ20070524221010205/24/07 22:10:31  5-MIN KDBQ 250410Z AUTO 00000KT 10SM CLR 11/09 A3023 800 89 500 000/00 RMK AO2 TSNO
94908KDBQ DBQ20070524221510205/24/07 22:15:31  5-MIN KDBQ 250415Z AUTO 00000KT 10SM CLR 11/09 A3023 790 89 500 000/00 RMK AO2 TSNO
94908KDBQ DBQ20070524222010205/24/07 22:20:31  5-MIN KDBQ 250420Z AUTO 00000KT 10SM CLR 11/09 A3023 790 89 500 000/00 RMK AO2 TSNO
94908KDBQ DBQ20070524222510205/24/07 22:25:31  5-MIN KDBQ 250425Z AUTO 00000KT 10SM CLR 10/08 A3023 790 89 400 000/00 RMK AO2 TSNO
94908KDBQ DBQ20070524223010205/24/07 22:30:31  5-MIN KDBQ 250430Z AUTO 30003KT 10SM CLR 10/08 A3023 790 89 400 300/03 RMK AO2 TSNO
94908KDBQ DBQ20070524223510205/24/07 22:35:31  5-MIN KDBQ 250435Z AUTO 31004KT 10SM CLR 10/08 A3023 790 89 400 300/04 RMK AO2 TSNO
94908KDBQ DBQ20070524224010205/24/07 22:40:31  5-MIN KDBQ 250440Z AUTO 31005KT 10SM CLR 10/08 A3023 790 89 400 310/05 RMK AO2 TSNO
94908KDBQ DBQ20070524224510205/24/07 22:45:31  5-MIN KDBQ 250445Z AUTO 32006KT 10SM CLR 09/08 A3023 800 89 400 320/06 RMK AO2 TSNO
94908KDBQ DBQ20070524225011905/24/07 22:50:31  5-MIN KDBQ 250450Z AUTO 32005KT 10SM CLR 09/08 A3023 800 89 400 320/05 RMK AO2 SLP233 T00940078 TSNO
94908KDBQ DBQ20070524225511905/24/07 22:55:31  5-MIN KDBQ 250455Z AUTO 32005KT 10SM CLR 09/08 A3023 800 89 400 320/05 RMK AO2 SLP233 T00940078 TSNO
94908KDBQ DBQ20070524230010205/24/07 23:00:31  5-MIN KDBQ 250500Z AUTO 32004KT 10SM CLR 10/08 A3023 800 89 400 320/04 RMK AO2 TSNO
94908KDBQ DBQ20070524230510205/24/07 23:05:31  5-MIN KDBQ 250505Z AUTO 32005KT 10SM CLR 10/08 A3023 790 89 400 320/05 RMK AO2 TSNO
94908KDBQ DBQ20070524231010205/24/07 23:10:31  5-MIN KDBQ 250510Z AUTO 33004KT 10SM CLR 10/08 A3023 800 89 400 320/04 RMK AO2 TSNO
94908KDBQ DBQ20070524231510205/24/07 23:15:31  5-MIN KDBQ 250515Z AUTO 33006KT 10SM CLR 10/08 A3023 800 89 400 330/06 RMK AO2 TSNO
94908KDBQ DBQ20070524232010205/24/07 23:20:31  5-MIN KDBQ 250520Z AUTO 33006KT 10SM CLR 09/07 A3023 800 89 300 320/06 RMK AO2 TSNO
94908KDBQ DBQ20070524232510205/24/07 23:25:31  5-MIN KDBQ 250525Z AUTO 33006KT 10SM CLR 09/08 A3023 800 93 300 330/06 RMK AO2 TSNO
94908KDBQ DBQ20070524233010205/24/07 23:30:31  5-MIN KDBQ 250530Z AUTO 33006KT 10SM CLR 09/08 A3023 800 89 400 330/06 RMK AO2 TSNO
94908KDBQ DBQ20070524233510205/24/07 23:35:31  5-MIN KDBQ 250535Z AUTO 33005KT 10SM CLR 09/08 A3023 800 93 300 330/05 RMK AO2 TSNO
94908KDBQ DBQ20070524234010205/24/07 23:40:31  5-MIN KDBQ 250540Z AUTO 32004KT 10SM CLR 09/08 A3023 800 89 400 320/04 RMK AO2 TSNO
94908KDBQ DBQ20070524234510205/24/07 23:45:31  5-MIN KDBQ 250545Z AUTO 32003KT 10SM CLR 10/08 A3023 790 89 400 320/03 RMK AO2 TSNO
94908KDBQ DBQ20070524235014705/24/07 23:50:31  5-MIN KDBQ 250550Z AUTO 32003KT 10SM CLR 11/08 A3023 790 86 500 320/03 RMK AO2 SLP234 T01060083 10144 20089 402830089 53028 TSNO
94908KDBQ DBQ20070524235514705/24/07 23:55:31  5-MIN KDBQ 250555Z AUTO 32004KT 10SM CLR 11/08 A3023 790 86 500 320/04 RMK AO2 SLP234 T01060083 10144 20089 402830089 51007 TSNO
94908KDBQ DBQ20070525000010205/25/07 00:00:38  5-MIN KDBQ 250600Z AUTO 32004KT 10SM CLR 11/08 A3023 800 86 500 320/04 RMK AO2 TSNO
94908KDBQ DBQ20070525000510205/25/07 00:05:31  5-MIN KDBQ 250605Z AUTO 32003KT 10SM CLR 10/08 A3023 790 89 400 320/03 RMK AO2 TSNO
94908KDBQ DBQ20070525001010205/25/07 00:10:31  5-MIN KDBQ 250610Z AUTO 31003KT 10SM CLR 09/08 A3023 790 93 300 310/03 RMK AO2 TSNO
94908KDBQ DBQ20070525001510205/25/07 00:15:36  5-MIN KDBQ 250615Z AUTO 00000KT 10SM CLR 09/08 A3023 790 89 400 000/00 RMK AO2 TSNO
94908KDBQ DBQ20070525002010205/25/07 00:20:31  5-MIN KDBQ 250620Z AUTO 32003KT 10SM CLR 09/08 A3023 790 89 400 320/03 RMK AO2 TSNO
94908KDBQ DBQ20070525002510205/25/07 00:25:31  5-MIN KDBQ 250625Z AUTO 00000KT 10SM CLR 09/08 A3023 790 89 400 000/00 RMK AO2 TSNO
94908KDBQ DBQ20070525003010205/25/07 00:30:31  5-MIN KDBQ 250630Z AUTO 30003KT 10SM CLR 10/08 A3024 790 86 400 300/03 RMK AO2 TSNO
94908KDBQ DBQ20070525003510205/25/07 00:35:31  5-MIN KDBQ 250635Z AUTO 30003KT 10SM CLR 09/08 A3023 790 89 400 300/03 RMK AO2 TSNO
94908KDBQ DBQ20070525004010205/25/07 00:40:31  5-MIN KDBQ 250640Z AUTO 00000KT 10SM CLR 09/07 A3024 790 89 300 000/00 RMK AO2 TSNO
94908KDBQ DBQ20070525004510205/25/07 00:45:31  5-MIN KDBQ 250645Z AUTO 00000KT 10SM CLR 08/07 A3024 790 93 200 000/00 RMK AO2 TSNO
94908KDBQ DBQ20070525005011905/25/07 00:50:31  5-MIN KDBQ 250650Z AUTO 00000KT 10SM CLR 09/07 A3024 780 89 300 000/00 RMK AO2 SLP240 T00890072 TSNO
94908KDBQ DBQ20070525005511905/25/07 00:55:31  5-MIN KDBQ 250655Z AUTO 00000KT 10SM CLR 09/07 A3024 780 89 300 000/00 RMK AO2 SLP241 T00890072 TSNO
94908KDBQ DBQ20070525010010205/25/07 01:00:31  5-MIN KDBQ 250700Z AUTO 00000KT 10SM CLR 08/07 A3024 780 93 200 000/00 RMK AO2 TSNO
94908KDBQ DBQ20070525010510205/25/07 01:05:31  5-MIN KDBQ 250705Z AUTO 00000KT 10SM CLR 08/07 A3024 780 93 200 000/00 RMK AO2 TSNO
94908KDBQ DBQ20070525011010205/25/07 01:10:31  5-MIN KDBQ 250710Z AUTO 00000KT 10SM CLR 08/07 A3024 780 93 200 000/00 RMK AO2 TSNO
94908KDBQ DBQ20070525011510205/25/07 01:15:31  5-MIN KDBQ 250715Z AUTO 00000KT 10SM CLR 08/07 A3025 780 93 200 000/00 RMK AO2 TSNO
94908KDBQ DBQ20070525012010205/25/07 01:20:31  5-MIN KDBQ 250720Z AUTO 00000KT 10SM CLR 08/07 A3024 780 89 200 000/00 RMK AO2 TSNO
94908KDBQ DBQ20070525012510205/25/07 01:25:31  5-MIN KDBQ 250725Z AUTO 00000KT 10SM CLR 08/07 A3025 780 93 100 000/00 RMK AO2 TSNO
94908KDBQ DBQ20070525013010105/25/07 01:30:31  5-MIN KDBQ 250730Z AUTO 00000KT 9SM CLR 08/06 A3025 780 89 100 000/00 RMK AO2 TSNO
94908KDBQ DBQ20070525013510105/25/07 01:35:31  5-MIN KDBQ 250735Z AUTO 00000KT 9SM CLR 08/07 A3024 780 93 100 000/00 RMK AO2 TSNO
94908KDBQ DBQ20070525014010205/25/07 01:40:31  5-MIN KDBQ 250740Z AUTO 00000KT 10SM CLR 08/07 A3024 780 93 100 000/00 RMK AO2 TSNO
94908KDBQ DBQ20070525014510205/25/07 01:45:31  5-MIN KDBQ 250745Z AUTO 00000KT 10SM CLR 08/07 A3024 780 93 100 000/00 RMK AO2 TSNO
94908KDBQ DBQ20070525015011905/25/07 01:50:31  5-MIN KDBQ 250750Z AUTO 29003KT 10SM CLR 08/07 A3024 780 93 100 290/03 RMK AO2 SLP242 T00780067 TSNO
94908KDBQ DBQ20070525015511905/25/07 01:55:31  5-MIN KDBQ 250755Z AUTO 30003KT 10SM CLR 08/07 A3024 780 96 100 300/03 RMK AO2 SLP242 T00780072 TSNO
94908KDBQ DBQ20070525020010205/25/07 02:00:31  5-MIN KDBQ 250800Z AUTO 00000KT 10SM CLR 08/07 A3024 780 96 100 000/00 RMK AO2 TSNO
94908KDBQ DBQ20070525020510005/25/07 02:05:31  5-MIN KDBQ 250805Z AUTO 00000KT 9SM CLR 07/07 A3025 780 100 0 000/00 RMK AO2 TSNO
94908KDBQ DBQ20070525021010105/25/07 02:10:31  5-MIN KDBQ 250810Z AUTO 30003KT 7SM CLR 07/06 A3025 780 93 100 300/03 RMK AO2 TSNO
94908KDBQ DBQ20070525021509905/25/07 02:15:31  5-MIN KDBQ 250815Z AUTO 31004KT 7SM CLR 07/06 A3025 780 93 0 310/04 RMK AO2 TSNO
94908KDBQ DBQ20070525022009905/25/07 02:20:31  5-MIN KDBQ 250820Z AUTO 30003KT 9SM CLR 07/06 A3025 770 93 0 300/03 RMK AO2 TSNO
94908KDBQ DBQ20070525022510005/25/07 02:25:31  5-MIN KDBQ 250825Z AUTO 30003KT 10SM CLR 07/06 A3025 770 93 0 300/03 RMK AO2 TSNO
94908KDBQ DBQ20070525023010205/25/07 02:30:31  5-MIN KDBQ 250830Z AUTO 30004KT 10SM CLR 07/06 A3026 770 89 100 300/04 RMK AO2 TSNO
94908KDBQ DBQ20070525023510205/25/07 02:35:31  5-MIN KDBQ 250835Z AUTO 32007KT 10SM CLR 07/06 A3026 770 93 100 320/07 RMK AO2 TSNO
94908KDBQ DBQ20070525024010805/25/07 02:40:31  5-MIN KDBQ 250840Z AUTO 35010G15KT 10SM CLR 09/07 A3026 770 89 300 350/10G15 RMK AO2 TSNO
94908KDBQ DBQ20070525024510205/25/07 02:45:31  5-MIN KDBQ 250845Z AUTO 35008KT 10SM CLR 10/08 A3026 760 86 400 350/08 RMK AO2 TSNO
94908KDBQ DBQ20070525025012505/25/07 02:50:31  5-MIN KDBQ 250850Z AUTO 35007KT 10SM CLR 09/08 A3027 760 89 300 350/07 RMK AO2 SLP248 T00940078 51007 TSNO
94908KDBQ DBQ20070525025512505/25/07 02:55:31  5-MIN KDBQ 250855Z AUTO 34008KT 10SM CLR 09/07 A3027 760 86 300 340/08 RMK AO2 SLP248 T00940072 53013 TSNO
94908KDBQ DBQ20070525030010205/25/07 03:00:31  5-MIN KDBQ 250900Z AUTO 34008KT 10SM CLR 09/08 A3027 760 89 300 340/08 RMK AO2 TSNO
94908KDBQ DBQ20070525030510205/25/07 03:05:31  5-MIN KDBQ 250905Z AUTO 34008KT 10SM CLR 09/08 A3028 750 89 300 340/08 RMK AO2 TSNO
94908KDBQ DBQ20070525031010205/25/07 03:10:31  5-MIN KDBQ 250910Z AUTO 34008KT 10SM CLR 09/07 A3028 750 86 300 340/08 RMK AO2 TSNO
94908KDBQ DBQ20070525031510205/25/07 03:15:31  5-MIN KDBQ 250915Z AUTO 34008KT 10SM CLR 09/07 A3028 750 89 200 340/08 RMK AO2 TSNO
94908KDBQ DBQ20070525032010205/25/07 03:20:31  5-MIN KDBQ 250920Z AUTO 34007KT 10SM CLR 09/07 A3028 750 89 200 340/07 RMK AO2 TSNO
94908KDBQ DBQ20070525032510205/25/07 03:25:31  5-MIN KDBQ 250925Z AUTO 34007KT 10SM CLR 09/07 A3028 750 89 200 340/07 RMK AO2 TSNO
94908KDBQ DBQ20070525033010205/25/07 03:30:31  5-MIN KDBQ 250930Z AUTO 34007KT 10SM CLR 08/07 A3028 740 93 200 340/07 RMK AO2 TSNO
94908KDBQ DBQ20070525033510205/25/07 03:35:31  5-MIN KDBQ 250935Z AUTO 34006KT 10SM CLR 08/07 A3028 740 89 200 340/06 RMK AO2 TSNO
94908KDBQ DBQ20070525034010205/25/07 03:40:31  5-MIN KDBQ 250940Z AUTO 34006KT 10SM CLR 08/07 A3029 740 89 200 340/06 RMK AO2 TSNO
94908KDBQ DBQ20070525034510205/25/07 03:45:31  5-MIN KDBQ 250945Z AUTO 35006KT 10SM CLR 08/07 A3029 740 89 200 350/06 RMK AO2 TSNO
94908KDBQ DBQ20070525035011905/25/07 03:50:31  5-MIN KDBQ 250950Z AUTO 35006KT 10SM CLR 08/06 A3028 740 89 100 350/06 RMK AO2 SLP256 T00780061 TSNO
94908KDBQ DBQ20070525035511705/25/07 03:55:31  5-MIN KDBQ 250955Z AUTO 35006KT 10SM CLR 07/06 A3028 740 93 0 350/06 RMK AO2 SLP257 T00720061 TSNO
94908KDBQ DBQ20070525040010005/25/07 04:00:31  5-MIN KDBQ 251000Z AUTO 35005KT 10SM CLR 07/06 A3028 750 93 0 350/05 RMK AO2 TSNO
94908KDBQ DBQ20070525040510005/25/07 04:05:31  5-MIN KDBQ 251005Z AUTO 35004KT 10SM CLR 07/06 A3028 740 93 0 350/04 RMK AO2 TSNO
94908KDBQ DBQ20070525041010005/25/07 04:10:31  5-MIN KDBQ 251010Z AUTO 35004KT 10SM CLR 07/06 A3029 740 89 0 350/04 RMK AO2 TSNO
94908KDBQ DBQ20070525041510205/25/07 04:15:31  5-MIN KDBQ 251015Z AUTO 01004KT 10SM CLR 08/06 A3029 740 89 100 010/04 RMK AO2 TSNO
94908KDBQ DBQ20070525042010205/25/07 04:20:31  5-MIN KDBQ 251020Z AUTO 01003KT 10SM CLR 08/06 A3029 740 89 100 010/03 RMK AO2 TSNO
94908KDBQ DBQ20070525042510205/25/07 04:25:31  5-MIN KDBQ 251025Z AUTO 01003KT 10SM CLR 08/07 A3029 740 89 200 010/03 RMK AO2 TSNO
94908KDBQ DBQ20070525043010205/25/07 04:30:31  5-MIN KDBQ 251030Z AUTO 01003KT 10SM CLR 08/07 A3029 740 89 200 010/03 RMK AO2 TSNO
94908KDBQ DBQ20070525043510205/25/07 04:35:31  5-MIN KDBQ 251035Z AUTO 36004KT 10SM CLR 08/07 A3029 740 89 200 360/04 RMK AO2 TSNO
94908KDBQ DBQ20070525044010205/25/07 04:40:31  5-MIN KDBQ 251040Z AUTO 36004KT 10SM CLR 08/07 A3029 740 89 200 360/04 RMK AO2 TSNO
94908KDBQ DBQ20070525044510205/25/07 04:45:31  5-MIN KDBQ 251045Z AUTO 36004KT 10SM CLR 08/06 A3029 740 89 100 360/04 RMK AO2 TSNO
94908KDBQ DBQ20070525045011905/25/07 04:50:31  5-MIN KDBQ 251050Z AUTO 01005KT 10SM CLR 08/06 A3029 740 89 100 360/05 RMK AO2 SLP260 T00780061 TSNO
94908KDBQ DBQ20070525045511705/25/07 04:55:31  5-MIN KDBQ 251055Z AUTO 01004KT 10SM CLR 07/06 A3029 740 89 0 010/04 RMK AO2 SLP261 T00720056 TSNO
94908KDBQ DBQ20070525050010005/25/07 05:00:31  5-MIN KDBQ 251100Z AUTO 01004KT 10SM CLR 07/06 A3029 730 93 0 010/04 RMK AO2 TSNO
94908KDBQ DBQ20070525050510005/25/07 05:05:31  5-MIN KDBQ 251105Z AUTO 02004KT 10SM CLR 07/06 A3029 730 93 0 020/04 RMK AO2 TSNO
94908KDBQ DBQ20070525051010005/25/07 05:10:31  5-MIN KDBQ 251110Z AUTO 01004KT 10SM CLR 07/06 A3029 730 89 0 010/04 RMK AO2 TSNO
94908KDBQ DBQ20070525051510205/25/07 05:15:31  5-MIN KDBQ 251115Z AUTO 01004KT 10SM CLR 08/06 A3029 730 86 100 010/04 RMK AO2 TSNO
94908KDBQ DBQ20070525052010205/25/07 05:20:31  5-MIN KDBQ 251120Z AUTO 01004KT 10SM CLR 08/06 A3029 730 89 100 010/04 RMK AO2 TSNO
94908KDBQ DBQ20070525052510205/25/07 05:25:31  5-MIN KDBQ 251125Z AUTO 01004KT 10SM CLR 08/06 A3030 730 86 100 010/04 RMK AO2 TSNO
94908KDBQ DBQ20070525053010205/25/07 05:30:31  5-MIN KDBQ 251130Z AUTO 02003KT 10SM CLR 08/07 A3030 730 89 100 020/03 RMK AO2 TSNO
94908KDBQ DBQ20070525053510205/25/07 05:35:31  5-MIN KDBQ 251135Z AUTO 02003KT 10SM CLR 09/07 A3030 730 86 200 020/03 RMK AO2 TSNO
94908KDBQ DBQ20070525054010205/25/07 05:40:31  5-MIN KDBQ 251140Z AUTO 02003KT 10SM CLR 09/07 A3030 730 86 200 020/03 RMK AO2 TSNO
94908KDBQ DBQ20070525054510205/25/07 05:45:31  5-MIN KDBQ 251145Z AUTO 02004KT 10SM CLR 09/07 A3030 730 86 200 020/04 RMK AO2 TSNO
94908KDBQ DBQ20070525055014305/25/07 05:50:31  5-MIN KDBQ 251150Z AUTO 02003KT 10SM CLR 09/07 A3030 730 86 300 020/03 RMK AO2 SLP262 70014 T00940072 10106 20067 53013 TSNO
94908KDBQ DBQ20070525055513805/25/07 05:55:31  5-MIN KDBQ 251155Z 00000KT 10SM CLR 10/07 A3030 730 83 300 000/00 RMK AO2 SLP263 70014 T01000072 10106 20067 51011 TSNO
94908KDBQ DBQ20070525060009205/25/07 06:00:31  5-MIN KDBQ 251200Z 00000KT 10SM CLR 10/07 A3030 730 83 300 000/00 RMK AO2
94908KDBQ DBQ20070525060509205/25/07 06:05:31  5-MIN KDBQ 251205Z 00000KT 10SM CLR 10/07 A3031 720 83 300 000/00 RMK AO2
94908KDBQ DBQ20070525061009205/25/07 06:10:31  5-MIN KDBQ 251210Z 00000KT 10SM CLR 11/08 A3031 720 83 400 000/00 RMK AO2
94908KDBQ DBQ20070525061509205/25/07 06:15:31  5-MIN KDBQ 251215Z VRB04KT 10SM CLR 11/08 A3031 720 80 500 VRB/04 RMK AO2
94908KDBQ DBQ20070525062008405/25/07 06:20:31  5-MIN KDBQ 251220Z 10SM CLR 11/07 A3031 720 77 500 M /M RMK AO2 $
94908KDBQ DBQ20070525062508405/25/07 06:25:31  5-MIN KDBQ 251225Z 10SM CLR 11/07 A3031 720 77 500 M /M RMK AO2 $
94908KDBQ DBQ20070525063008405/25/07 06:30:31  5-MIN KDBQ 251230Z 10SM CLR 11/07 A3031 720 77 500 M /M RMK AO2 $
94908KDBQ DBQ20070525063508405/25/07 06:35:31  5-MIN KDBQ 251235Z 10SM CLR 11/08 A3031 720 80 500 M /M RMK AO2 $
94908KDBQ DBQ20070525064009405/25/07 06:40:31  5-MIN KDBQ 251240Z 04004KT 10SM CLR 11/07 A3031 720 74 500 040/04 RMK AO2 $
94908KDBQ DBQ20070525064509405/25/07 06:45:31  5-MIN KDBQ 251245Z 05004KT 10SM CLR 11/07 A3031 720 74 500 050/04 RMK AO2 $
94908KDBQ DBQ20070525065011105/25/07 06:50:31  5-MIN KDBQ 251250Z 04004KT 10SM CLR 12/07 A3032 710 74 500 040/04 RMK AO2 SLP270 T01170072 $
94908KDBQ DBQ20070525065511105/25/07 06:55:31  5-MIN KDBQ 251255Z 04004KT 10SM CLR 12/07 A3032 710 71 500 040/04 RMK AO2 SLP271 T01170067 $
94908KDBQ DBQ20070525070009405/25/07 07:00:31  5-MIN KDBQ 251300Z 03005KT 10SM CLR 12/07 A3032 710 74 500 030/05 RMK AO2 $
94908KDBQ DBQ20070525070509405/25/07 07:05:31  5-MIN KDBQ 251305Z 04005KT 10SM CLR 12/07 A3032 710 71 500 040/05 RMK AO2 $
94908KDBQ DBQ20070525071009405/25/07 07:10:31  5-MIN KDBQ 251310Z 04005KT 10SM CLR 12/07 A3032 710 71 500 040/05 RMK AO2 $
94908KDBQ DBQ20070525071509405/25/07 07:15:31  5-MIN KDBQ 251315Z 05005KT 10SM CLR 12/07 A3032 710 71 500 050/05 RMK AO2 $
94908KDBQ DBQ20070525072009405/25/07 07:20:31  5-MIN KDBQ 251320Z 04005KT 10SM CLR 12/06 A3032 710 68 500 040/05 RMK AO2 $
94908KDBQ DBQ20070525072509405/25/07 07:25:31  5-MIN KDBQ 251325Z 05007KT 10SM CLR 12/07 A3032 710 68 600 050/07 RMK AO2 $
94908KDBQ DBQ20070525073009405/25/07 07:30:31  5-MIN KDBQ 251330Z 04006KT 10SM CLR 12/06 A3032 710 66 600 040/06 RMK AO2 $
94908KDBQ DBQ20070525073509405/25/07 07:35:31  5-MIN KDBQ 251335Z 03007KT 10SM CLR 12/06 A3032 710 66 600 030/07 RMK AO2 $
94908KDBQ DBQ20070525074009205/25/07 07:40:31  5-MIN KDBQ 251340Z 04008KT 10SM CLR 12/06 A3032 710 63 600 040/08 RMK AO2
94908KDBQ DBQ20070525074509205/25/07 07:45:31  5-MIN KDBQ 251345Z 04008KT 10SM CLR 13/06 A3032 710 61 700 040/08 RMK AO2
94908KDBQ DBQ20070525075010905/25/07 07:50:31  5-MIN KDBQ 251350Z 03006KT 10SM CLR 13/06 A3032 710 61 700 030/06 RMK AO2 SLP269 T01280056
94908KDBQ DBQ20070525075510905/25/07 07:55:31  5-MIN KDBQ 251355Z 03008KT 10SM CLR 13/05 A3032 710 59 700 020/08 RMK AO2 SLP269 T01280050
94908KDBQ DBQ20070525080008405/25/07 08:00:31  5-MIN KDBQ 251400Z 10SM CLR 13/05 A3032 710 59 700 M /M RMK AO2 $
94908KDBQ DBQ20070525080508405/25/07 08:05:31  5-MIN KDBQ 251405Z 10SM CLR 13/04 A3032 710 54 700 M /M RMK AO2 $
94908KDBQ DBQ20070525081009405/25/07 08:10:31  5-MIN KDBQ 251410Z 04006KT 10SM CLR 13/04 A3032 710 54 700 040/06 RMK AO2 $
94908KDBQ DBQ20070525081509405/25/07 08:15:31  5-MIN KDBQ 251415Z 05007KT 10SM CLR 13/04 A3032 710 52 700 050/07 RMK AO2 $
94908KDBQ DBQ20070525082009405/25/07 08:20:31  5-MIN KDBQ 251420Z 05004KT 10SM CLR 13/04 A3032 710 54 700 050/04 RMK AO2 $
94908KDBQ DBQ20070525082509405/25/07 08:25:31  5-MIN KDBQ 251425Z 06005KT 10SM CLR 13/04 A3032 710 52 700 060/05 RMK AO2 $
94908KDBQ DBQ20070525083009405/25/07 08:30:31  5-MIN KDBQ 251430Z 05008KT 10SM CLR 14/04 A3032 710 52 800 050/08 RMK AO2 $
94908KDBQ DBQ20070525083509405/25/07 08:35:31  5-MIN KDBQ 251435Z 04006KT 10SM CLR 13/04 A3033 700 54 700 040/06 RMK AO2 $
94908KDBQ DBQ20070525084009405/25/07 08:40:31  5-MIN KDBQ 251440Z VRB04KT 10SM CLR 14/05 A3033 700 55 800 VRB/04 RMK AO2 $
94908KDBQ DBQ20070525084509405/25/07 08:45:31  5-MIN KDBQ 251445Z 05003KT 10SM CLR 13/04 A3033 700 54 700 050/03 RMK AO2 $
94908KDBQ DBQ20070525085011705/25/07 08:50:31  5-MIN KDBQ 251450Z 07005KT 10SM CLR 14/06 A3033 700 55 800 070/05 RMK AO2 SLP272 T01440056 51011 $
94908KDBQ DBQ20070525120009305/25/07 12:00:31  5-MIN KDBQ 251800Z 01006KT 10SM CLR 18/07 A3029 740 46 1300 010/06 RMK AO2
94908KDBQ DBQ20070525120509305/25/07 12:05:31  5-MIN KDBQ 251805Z 04006KT 10SM CLR 18/07 A3029 740 48 1300 040/06 RMK AO2
94908KDBQ DBQ20070525121009305/25/07 12:10:31  5-MIN KDBQ 251810Z VRB03KT 10SM CLR 18/06 A3028 740 46 1300 VRB/03 RMK AO2
94908KDBQ DBQ20070525121509305/25/07 12:15:31  5-MIN KDBQ 251815Z VRB05KT 10SM CLR 18/07 A3028 740 46 1300 VRB/05 RMK AO2
94908KDBQ DBQ20070525122010905/25/07 12:20:31  5-MIN KDBQ 251820Z 03007KT 010V080 10SM CLR 18/06 A3028 740 46 1300 030/07 010V080 RMK AO2
94908KDBQ DBQ20070525122509305/25/07 12:25:31  5-MIN KDBQ 251825Z 02005KT 10SM CLR 18/06 A3028 750 44 1300 020/05 RMK AO2
94908KDBQ DBQ20070525123009305/25/07 12:30:31  5-MIN KDBQ 251830Z 00000KT 10SM CLR 18/06 A3028 750 44 1300 000/00 RMK AO2
94908KDBQ DBQ20070525123509305/25/07 12:35:31  5-MIN KDBQ 251835Z VRB05KT 10SM CLR 18/06 A3028 750 44 1400 VRB/05 RMK AO2
94908KDBQ DBQ20070525124009305/25/07 12:40:31  5-MIN KDBQ 251840Z 03006KT 10SM CLR 18/06 A3028 750 44 1400 030/06 RMK AO2
94908KDBQ DBQ20070525124509305/25/07 12:45:31  5-MIN KDBQ 251845Z 00000KT 10SM CLR 18/05 A3028 750 42 1300 000/00 RMK AO2
94908KDBQ DBQ20070525125011005/25/07 12:50:31  5-MIN KDBQ 251850Z 00000KT 10SM CLR 18/05 A3028 750 42 1300 000/00 RMK AO2 SLP254 T01780050
94908KDBQ DBQ20070525125511005/25/07 12:55:31  5-MIN KDBQ 251855Z 36004KT 10SM CLR 19/06 A3027 750 43 1400 360/04 RMK AO2 SLP254 T01890061
94908KDBQ DBQ20070525130009305/25/07 13:00:31  5-MIN KDBQ 251900Z 05008KT 10SM CLR 19/06 A3027 750 43 1400 050/08 RMK AO2
94908KDBQ DBQ20070525130509305/25/07 13:05:31  5-MIN KDBQ 251905Z 35005KT 10SM CLR 19/06 A3027 760 43 1400 350/05 RMK AO2
94908KDBQ DBQ20070525131009305/25/07 13:10:31  5-MIN KDBQ 251910Z 09005KT 10SM CLR 19/06 A3026 760 43 1400 090/05 RMK AO2
94908KDBQ DBQ20070525131509305/25/07 13:15:31  5-MIN KDBQ 251915Z 00000KT 10SM CLR 18/05 A3026 760 41 1400 000/00 RMK AO2
94908KDBQ DBQ20070525132009305/25/07 13:20:31  5-MIN KDBQ 251920Z 05004KT 10SM CLR 18/06 A3026 770 42 1400 050/04 RMK AO2
94908KDBQ DBQ20070525132509305/25/07 13:25:31  5-MIN KDBQ 251925Z VRB05KT 10SM CLR 19/06 A3026 770 41 1400 VRB/05 RMK AO2
94908KDBQ DBQ20070525133009305/25/07 13:30:31  5-MIN KDBQ 251930Z 06003KT 10SM CLR 19/06 A3026 770 43 1400 060/03 RMK AO2
94908KDBQ DBQ20070525133509305/25/07 13:35:31  5-MIN KDBQ 251935Z VRB03KT 10SM CLR 19/06 A3025 770 43 1400 VRB/03 RMK AO2
94908KDBQ DBQ20070525134009305/25/07 13:40:31  5-MIN KDBQ 251940Z VRB03KT 10SM CLR 19/06 A3025 780 41 1500 VRB/03 RMK AO2
94908KDBQ DBQ20070525134509305/25/07 13:45:31  5-MIN KDBQ 251945Z VRB05KT 10SM CLR 19/06 A3025 780 41 1500 VRB/05 RMK AO2
94908KDBQ DBQ20070525135011005/25/07 13:50:31  5-MIN KDBQ 251950Z 12005KT 10SM CLR 19/06 A3025 780 40 1500 120/05 RMK AO2 SLP245 T01940056
94908KDBQ DBQ20070525135511005/25/07 13:55:31  5-MIN KDBQ 251955Z VRB03KT 10SM CLR 19/06 A3025 780 41 1500 VRB/03 RMK AO2 SLP244 T01890056
94908KDBQ DBQ20070525140009305/25/07 14:00:31  5-MIN KDBQ 252000Z 03005KT 10SM CLR 20/07 A3025 780 41 1600 030/05 RMK AO2
94908KDBQ DBQ20070525140509305/25/07 14:05:31  5-MIN KDBQ 252005Z 10004KT 10SM CLR 19/07 A3024 780 43 1500 100/04 RMK AO2
94908KDBQ DBQ20070525141009305/25/07 14:10:31  5-MIN KDBQ 252010Z 08007KT 10SM CLR 19/07 A3024 780 43 1500 080/07 RMK AO2
94908KDBQ DBQ20070525141509305/25/07 14:15:31  5-MIN KDBQ 252015Z 09008KT 10SM CLR 20/07 A3024 780 41 1600 080/08 RMK AO2
94908KDBQ DBQ20070525142009305/25/07 14:20:31  5-MIN KDBQ 252020Z VRB04KT 10SM CLR 19/05 A3024 790 38 1500 VRB/04 RMK AO2
94908KDBQ DBQ20070525142509305/25/07 14:25:31  5-MIN KDBQ 252025Z 07004KT 10SM CLR 19/06 A3024 790 40 1500 070/04 RMK AO2
94908KDBQ DBQ20070525143009305/25/07 14:30:31  5-MIN KDBQ 252030Z 10006KT 10SM CLR 20/07 A3024 790 41 1600 100/06 RMK AO2
94908KDBQ DBQ20070525143509305/25/07 14:35:31  5-MIN KDBQ 252035Z 08005KT 10SM CLR 20/06 A3024 790 40 1600 080/05 RMK AO2
94908KDBQ DBQ20070525144009305/25/07 14:40:31  5-MIN KDBQ 252040Z VRB03KT 10SM CLR 20/06 A3023 790 38 1600 VRB/03 RMK AO2
94908KDBQ DBQ20070525144509305/25/07 14:45:31  5-MIN KDBQ 252045Z VRB05KT 10SM CLR 19/06 A3023 790 40 1500 VRB/05 RMK AO2
94908KDBQ DBQ20070525145011605/25/07 14:50:31  5-MIN KDBQ 252050Z VRB03KT 10SM CLR 20/06 A3023 800 40 1600 VRB/03 RMK AO2 SLP236 T02000061 58012
94908KDBQ DBQ20070525145512105/25/07 14:55:31  5-MIN KDBQ 252055Z AUTO VRB03KT 10SM CLR 20/06 A3023 800 40 1600 VRB/03 RMK AO2 SLP236 T02000061 58021
94908KDBQ DBQ20070525150009305/25/07 15:00:31  5-MIN KDBQ 252100Z 10004KT 10SM CLR 20/06 A3022 800 38 1600 100/04 RMK AO2
94908KDBQ DBQ20070525150509305/25/07 15:05:31  5-MIN KDBQ 252105Z 06007KT 10SM CLR 20/07 A3022 800 41 1600 060/07 RMK AO2
94908KDBQ DBQ20070525151009305/25/07 15:10:31  5-MIN KDBQ 252110Z 00000KT 10SM CLR 20/07 A3022 800 41 1600 000/00 RMK AO2
94908KDBQ DBQ20070525151509305/25/07 15:15:31  5-MIN KDBQ 252115Z 08005KT 10SM CLR 21/07 A3022 800 40 1700 080/05 RMK AO2
94908KDBQ DBQ20070525152009305/25/07 15:20:31  5-MIN KDBQ 252120Z 06005KT 10SM CLR 21/06 A3022 800 38 1700 060/05 RMK AO2
94908KDBQ DBQ20070525152509305/25/07 15:25:31  5-MIN KDBQ 252125Z 04005KT 10SM CLR 21/07 A3022 800 40 1700 040/05 RMK AO2
94908KDBQ DBQ20070525153009305/25/07 15:30:31  5-MIN KDBQ 252130Z VRB03KT 10SM CLR 21/07 A3021 810 40 1700 VRB/03 RMK AO2
94908KDBQ DBQ20070525153509305/25/07 15:35:31  5-MIN KDBQ 252135Z VRB05KT 10SM CLR 21/07 A3021 810 40 1700 VRB/05 RMK AO2
94908KDBQ DBQ20070525154009305/25/07 15:40:31  5-MIN KDBQ 252140Z VRB05KT 10SM CLR 21/07 A3021 810 40 1700 VRB/05 RMK AO2
94908KDBQ DBQ20070525154509305/25/07 15:45:31  5-MIN KDBQ 252145Z 06004KT 10SM CLR 21/06 A3021 810 37 1700 060/04 RMK AO2
94908KDBQ DBQ20070525155011005/25/07 15:50:31  5-MIN KDBQ 252150Z 00000KT 10SM CLR 21/06 A3021 810 38 1700 000/00 RMK AO2 SLP231 T02060061
94908KDBQ DBQ20070525155511005/25/07 15:55:31  5-MIN KDBQ 252155Z 00000KT 10SM CLR 20/06 A3021 810 38 1600 000/00 RMK AO2 SLP232 T02000056
94908KDBQ DBQ20070525160009305/25/07 16:00:31  5-MIN KDBQ 252200Z 03003KT 10SM CLR 21/07 A3021 810 40 1700 030/03 RMK AO2
94908KDBQ DBQ20070525160509305/25/07 16:05:31  5-MIN KDBQ 252205Z 02004KT 10SM CLR 21/07 A3021 810 40 1800 020/04 RMK AO2
94908KDBQ DBQ20070525161009305/25/07 16:10:31  5-MIN KDBQ 252210Z 05004KT 10SM CLR 21/07 A3021 810 40 1700 050/04 RMK AO2
94908KDBQ DBQ20070525161509305/25/07 16:15:31  5-MIN KDBQ 252215Z 03006KT 10SM CLR 21/07 A3020 820 38 1800 030/06 RMK AO2
94908KDBQ DBQ20070525162009305/25/07 16:20:31  5-MIN KDBQ 252220Z 06004KT 10SM CLR 21/07 A3020 820 40 1800 060/04 RMK AO2
94908KDBQ DBQ20070525162509305/25/07 16:25:31  5-MIN KDBQ 252225Z 08006KT 10SM CLR 21/06 A3020 820 37 1800 080/06 RMK AO2
94908KDBQ DBQ20070525163009305/25/07 16:30:31  5-MIN KDBQ 252230Z 09006KT 10SM CLR 21/06 A3020 820 37 1700 090/06 RMK AO2
94908KDBQ DBQ20070525163509305/25/07 16:35:31  5-MIN KDBQ 252235Z 10004KT 10SM CLR 21/06 A3020 820 37 1700 100/04 RMK AO2
94908KDBQ DBQ20070525164009305/25/07 16:40:31  5-MIN KDBQ 252240Z 09006KT 10SM CLR 21/06 A3020 820 37 1700 090/06 RMK AO2
94908KDBQ DBQ20070525164509305/25/07 16:45:31  5-MIN KDBQ 252245Z 06006KT 10SM CLR 21/06 A3020 820 37 1700 060/06 RMK AO2
94908KDBQ DBQ20070525165011005/25/07 16:50:31  5-MIN KDBQ 252250Z 07006KT 10SM CLR 21/06 A3019 830 38 1700 060/06 RMK AO2 SLP225 T02060061
94908KDBQ DBQ20070525165511005/25/07 16:55:31  5-MIN KDBQ 252255Z 05007KT 10SM CLR 21/06 A3019 830 38 1700 050/07 RMK AO2 SLP226 T02060061
94908KDBQ DBQ20070525170009305/25/07 17:00:31  5-MIN KDBQ 252300Z 09005KT 10SM CLR 21/06 A3019 830 37 1700 090/05 RMK AO2
94908KDBQ DBQ20070525170509305/25/07 17:05:31  5-MIN KDBQ 252305Z 11003KT 10SM CLR 20/04 A3019 830 35 1600 110/03 RMK AO2
94908KDBQ DBQ20070525171009305/25/07 17:10:31  5-MIN KDBQ 252310Z VRB05KT 10SM CLR 21/05 A3019 830 35 1700 VRB/05 RMK AO2
94908KDBQ DBQ20070525171509305/25/07 17:15:31  5-MIN KDBQ 252315Z 07003KT 10SM CLR 20/06 A3019 830 40 1600 070/03 RMK AO2
94908KDBQ DBQ20070525172009305/25/07 17:20:31  5-MIN KDBQ 252320Z VRB03KT 10SM CLR 20/07 A3019 830 41 1600 VRB/03 RMK AO2
94908KDBQ DBQ20070525172509305/25/07 17:25:31  5-MIN KDBQ 252325Z 13004KT 10SM CLR 21/07 A3019 830 40 1700 130/04 RMK AO2
94908KDBQ DBQ20070525173009305/25/07 17:30:31  5-MIN KDBQ 252330Z 09006KT 10SM CLR 20/07 A3020 830 41 1600 090/06 RMK AO2
94908KDBQ DBQ20070525173509305/25/07 17:35:31  5-MIN KDBQ 252335Z 08007KT 10SM CLR 20/07 A3019 830 43 1600 080/07 RMK AO2
94908KDBQ DBQ20070525174009305/25/07 17:40:31  5-MIN KDBQ 252340Z 12007KT 10SM CLR 20/07 A3019 830 43 1600 120/07 RMK AO2
94908KDBQ DBQ20070525174509305/25/07 17:45:31  5-MIN KDBQ 252345Z 12006KT 10SM CLR 20/07 A3020 820 41 1600 120/06 RMK AO2
94908KDBQ DBQ20070525175012805/25/07 17:50:31  5-MIN KDBQ 252350Z 09007KT 10SM CLR 20/07 A3019 830 41 1600 090/07 RMK AO2 SLP225 T02000067 10211 20178 58021
94908KDBQ DBQ20070525175512805/25/07 17:55:31  5-MIN KDBQ 252355Z 11006KT 10SM CLR 20/07 A3019 830 41 1600 110/06 RMK AO2 SLP225 T02000067 10211 20178 55010
94908KDBQ DBQ20070525180009305/25/07 18:00:31  5-MIN KDBQ 260000Z 10003KT 10SM CLR 20/07 A3019 830 41 1600 100/03 RMK AO2
94908KDBQ DBQ20070525180509305/25/07 18:05:31  5-MIN KDBQ 260005Z VRB04KT 10SM CLR 20/07 A3019 830 41 1600 VRB/04 RMK AO2
94908KDBQ DBQ20070525181009305/25/07 18:10:31  5-MIN KDBQ 260010Z 12006KT 10SM CLR 20/06 A3019 830 40 1600 120/06 RMK AO2
94908KDBQ DBQ20070525181509305/25/07 18:15:31  5-MIN KDBQ 260015Z 10004KT 10SM CLR 20/06 A3019 830 40 1600 100/04 RMK AO2
94908KDBQ DBQ20070525182009305/25/07 18:20:31  5-MIN KDBQ 260020Z 11004KT 10SM CLR 20/06 A3019 830 40 1700 110/04 RMK AO2
94908KDBQ DBQ20070525182509305/25/07 18:25:31  5-MIN KDBQ 260025Z 12004KT 10SM CLR 19/07 A3018 840 43 1600 120/04 RMK AO2
94908KDBQ DBQ20070525183009305/25/07 18:30:31  5-MIN KDBQ 260030Z 11005KT 10SM CLR 19/07 A3018 840 43 1600 110/05 RMK AO2
94908KDBQ DBQ20070525183509305/25/07 18:35:31  5-MIN KDBQ 260035Z 11004KT 10SM CLR 19/07 A3018 840 43 1600 110/04 RMK AO2
94908KDBQ DBQ20070525184009305/25/07 18:40:31  5-MIN KDBQ 260040Z 11005KT 10SM CLR 19/07 A3018 840 44 1500 110/05 RMK AO2
94908KDBQ DBQ20070525184509305/25/07 18:45:31  5-MIN KDBQ 260045Z 10004KT 10SM CLR 19/07 A3018 840 46 1500 100/04 RMK AO2
94908KDBQ DBQ20070525185012005/25/07 18:50:31  5-MIN KDBQ 260050Z AUTO 11004KT 10SM CLR 19/07 A3018 840 46 1500 110/04 RMK AO2 SLP220 T01890072 TSNO
94908KDBQ DBQ20070525185512005/25/07 18:55:31  5-MIN KDBQ 260055Z AUTO 10003KT 10SM CLR 19/07 A3018 840 44 1500 100/03 RMK AO2 SLP220 T01890067 TSNO
94908KDBQ DBQ20070525190010305/25/07 19:00:31  5-MIN KDBQ 260100Z AUTO 08004KT 10SM CLR 18/08 A3018 840 50 1500 080/04 RMK AO2 TSNO
94908KDBQ DBQ20070525190510305/25/07 19:05:31  5-MIN KDBQ 260105Z AUTO 09004KT 10SM CLR 18/08 A3018 840 52 1500 080/04 RMK AO2 TSNO
94908KDBQ DBQ20070525191010305/25/07 19:10:31  5-MIN KDBQ 260110Z AUTO 08004KT 10SM CLR 18/08 A3018 840 50 1500 080/04 RMK AO2 TSNO
94908KDBQ DBQ20070525191510305/25/07 19:15:31  5-MIN KDBQ 260115Z AUTO 08004KT 10SM CLR 18/09 A3018 840 55 1400 080/04 RMK AO2 TSNO
94908KDBQ DBQ20070525192010605/25/07 19:20:31  5-MIN KDBQ 260120Z AUTO 08003KT 10SM FEW090 18/09 A3018 840 55 1400 080/03 RMK AO2 TSNO
94908KDBQ DBQ20070525192510605/25/07 19:25:31  5-MIN KDBQ 260125Z AUTO 08003KT 10SM SCT090 17/08 A3018 840 55 1300 080/03 RMK AO2 TSNO
94908KDBQ DBQ20070525193010605/25/07 19:30:31  5-MIN KDBQ 260130Z AUTO 07004KT 10SM SCT090 17/08 A3018 840 55 1300 070/04 RMK AO2 TSNO
94908KDBQ DBQ20070525193510605/25/07 19:35:31  5-MIN KDBQ 260135Z AUTO 07004KT 10SM FEW090 17/08 A3018 840 57 1300 070/04 RMK AO2 TSNO
94908KDBQ DBQ20070525194010605/25/07 19:40:31  5-MIN KDBQ 260140Z AUTO 07004KT 10SM FEW090 17/08 A3018 840 57 1300 070/04 RMK AO2 TSNO
94908KDBQ DBQ20070525194510605/25/07 19:45:31  5-MIN KDBQ 260145Z AUTO 05003KT 10SM SCT090 17/08 A3018 840 55 1300 050/03 RMK AO2 TSNO
94908KDBQ DBQ20070525195012305/25/07 19:50:31  5-MIN KDBQ 260150Z AUTO 07003KT 10SM SCT090 17/08 A3018 840 55 1300 070/03 RMK AO2 SLP219 T01670078 TSNO
94908KDBQ DBQ20070525195512305/25/07 19:55:31  5-MIN KDBQ 260155Z AUTO 08003KT 10SM FEW090 17/08 A3017 850 55 1300 070/03 RMK AO2 SLP218 T01670078 TSNO
94908KDBQ DBQ20070525200010605/25/07 20:00:31  5-MIN KDBQ 260200Z AUTO 09004KT 10SM FEW095 17/08 A3017 840 55 1300 090/04 RMK AO2 TSNO
94908KDBQ DBQ20070525200510605/25/07 20:05:31  5-MIN KDBQ 260205Z AUTO 10004KT 10SM FEW095 17/08 A3018 840 55 1300 090/04 RMK AO2 TSNO
94908KDBQ DBQ20070525201010605/25/07 20:10:31  5-MIN KDBQ 260210Z AUTO 10003KT 10SM FEW095 16/08 A3018 840 59 1200 100/03 RMK AO2 TSNO
94908KDBQ DBQ20070525201510605/25/07 20:15:31  5-MIN KDBQ 260215Z AUTO 10004KT 10SM FEW095 16/08 A3018 840 59 1200 100/04 RMK AO2 TSNO
94908KDBQ DBQ20070525202010605/25/07 20:20:31  5-MIN KDBQ 260220Z AUTO 10004KT 10SM FEW095 16/08 A3018 840 59 1200 100/04 RMK AO2 TSNO
94908KDBQ DBQ20070525202510605/25/07 20:25:31  5-MIN KDBQ 260225Z AUTO 09004KT 10SM FEW095 16/08 A3018 840 59 1200 090/04 RMK AO2 TSNO
94908KDBQ DBQ20070525203010305/25/07 20:30:31  5-MIN KDBQ 260230Z AUTO 08004KT 10SM CLR 15/09 A3018 840 66 1100 080/04 RMK AO2 TSNO
94908KDBQ DBQ20070525203510605/25/07 20:35:31  5-MIN KDBQ 260235Z AUTO 08005KT 10SM FEW110 16/08 A3018 840 57 1200 080/05 RMK AO2 TSNO
94908KDBQ DBQ20070525204011305/25/07 20:40:31  5-MIN KDBQ 260240Z AUTO 07005KT 10SM FEW085 SCT110 16/08 A3017 840 59 1200 070/05 RMK AO2 TSNO
94908KDBQ DBQ20070525204511305/25/07 20:45:31  5-MIN KDBQ 260245Z AUTO 07004KT 10SM SCT085 BKN100 16/08 A3017 850 59 1200 070/04 RMK AO2 TSNO
94908KDBQ DBQ20070525205013605/25/07 20:50:31  5-MIN KDBQ 260250Z AUTO 08004KT 10SM BKN085 BKN100 17/08 A3017 850 57 1300 080/04 RMK AO2 SLP217 T01670083 55010 TSNO
94908KDBQ DBQ20070525205513605/25/07 20:55:31  5-MIN KDBQ 260255Z AUTO 09005KT 10SM BKN085 BKN110 17/08 A3018 840 57 1300 090/05 RMK AO2 SLP218 T01670083 55006 TSNO
94908KDBQ DBQ20070525210011305/25/07 21:00:31  5-MIN KDBQ 260300Z AUTO 07005KT 10SM BKN090 OVC100 17/09 A3018 840 60 1300 070/05 RMK AO2 TSNO
94908KDBQ DBQ20070525210511305/25/07 21:05:31  5-MIN KDBQ 260305Z AUTO 07006KT 10SM BKN085 OVC100 17/09 A3018 840 60 1300 070/06 RMK AO2 TSNO
94908KDBQ DBQ20070525211011305/25/07 21:10:31  5-MIN KDBQ 260310Z AUTO 07007KT 10SM BKN080 OVC100 17/08 A3018 840 57 1300 070/07 RMK AO2 TSNO
94908KDBQ DBQ20070525211511305/25/07 21:15:31  5-MIN KDBQ 260315Z AUTO 06006KT 10SM BKN075 OVC100 17/08 A3018 840 53 1300 060/06 RMK AO2 TSNO
94908KDBQ DBQ20070525212011305/25/07 21:20:31  5-MIN KDBQ 260320Z AUTO 06006KT 10SM BKN075 OVC100 17/08 A3018 840 53 1300 060/06 RMK AO2 TSNO
94908KDBQ DBQ20070525212511305/25/07 21:25:31  5-MIN KDBQ 260325Z AUTO 06005KT 10SM BKN070 OVC090 17/08 A3018 840 53 1300 060/05 RMK AO2 TSNO
94908KDBQ DBQ20070525213011305/25/07 21:30:31  5-MIN KDBQ 260330Z AUTO 07006KT 10SM BKN070 OVC090 17/08 A3018 840 55 1300 070/06 RMK AO2 TSNO
94908KDBQ DBQ20070525213510605/25/07 21:35:31  5-MIN KDBQ 260335Z AUTO 08006KT 10SM OVC070 17/08 A3017 840 55 1300 080/06 RMK AO2 TSNO
94908KDBQ DBQ20070525214010605/25/07 21:40:31  5-MIN KDBQ 260340Z AUTO 08008KT 10SM OVC065 17/08 A3017 840 55 1300 080/08 RMK AO2 TSNO
94908KDBQ DBQ20070525214510605/25/07 21:45:31  5-MIN KDBQ 260345Z AUTO 09007KT 10SM OVC060 17/08 A3017 840 53 1300 080/07 RMK AO2 TSNO
94908KDBQ DBQ20070525215012305/25/07 21:50:31  5-MIN KDBQ 260350Z AUTO 08008KT 10SM OVC060 17/08 A3017 850 53 1300 080/08 RMK AO2 SLP217 T01720078 TSNO
94908KDBQ DBQ20070525215512305/25/07 21:55:31  5-MIN KDBQ 260355Z AUTO 07007KT 10SM OVC060 17/08 A3017 850 53 1300 070/07 RMK AO2 SLP216 T01720078 TSNO
94908KDBQ DBQ20070525220010605/25/07 22:00:31  5-MIN KDBQ 260400Z AUTO 07009KT 10SM OVC055 17/08 A3017 850 53 1400 070/09 RMK AO2 TSNO
94908KDBQ DBQ20070525220510605/25/07 22:05:31  5-MIN KDBQ 260405Z AUTO 08008KT 10SM OVC055 18/07 A3017 850 49 1400 080/08 RMK AO2 TSNO
94908KDBQ DBQ20070525221010605/25/07 22:10:31  5-MIN KDBQ 260410Z AUTO 09008KT 10SM OVC055 17/08 A3016 850 53 1400 090/08 RMK AO2 TSNO
94908KDBQ DBQ20070525221510605/25/07 22:15:31  5-MIN KDBQ 260415Z AUTO 09007KT 10SM OVC050 17/08 A3016 860 53 1400 080/07 RMK AO2 TSNO
94908KDBQ DBQ20070525222011305/25/07 22:20:31  5-MIN KDBQ 260420Z AUTO 08006KT 10SM BKN050 OVC070 17/08 A3016 850 53 1400 080/06 RMK AO2 TSNO
94908KDBQ DBQ20070525222511305/25/07 22:25:31  5-MIN KDBQ 260425Z AUTO 07006KT 10SM BKN050 OVC070 17/08 A3016 860 53 1400 070/06 RMK AO2 TSNO
94908KDBQ DBQ20070525223011305/25/07 22:30:31  5-MIN KDBQ 260430Z AUTO 07007KT 10SM BKN050 OVC070 17/07 A3016 860 51 1400 070/07 RMK AO2 TSNO
94908KDBQ DBQ20070525223511305/25/07 22:35:31  5-MIN KDBQ 260435Z AUTO 07007KT 10SM BKN050 OVC070 17/08 A3016 860 55 1300 070/07 RMK AO2 TSNO
94908KDBQ DBQ20070525224011305/25/07 22:40:31  5-MIN KDBQ 260440Z AUTO 07007KT 10SM BKN050 OVC065 17/07 A3016 860 53 1300 070/07 RMK AO2 TSNO
94908KDBQ DBQ20070525224511305/25/07 22:45:31  5-MIN KDBQ 260445Z AUTO 08006KT 10SM SCT050 OVC070 17/08 A3015 860 55 1300 070/06 RMK AO2 TSNO
94908KDBQ DBQ20070525225013005/25/07 22:50:31  5-MIN KDBQ 260450Z AUTO 08006KT 10SM SCT050 OVC070 17/08 A3015 870 55 1300 080/06 RMK AO2 SLP209 T01670078 TSNO
94908KDBQ DBQ20070525225513005/25/07 22:55:31  5-MIN KDBQ 260455Z AUTO 09005KT 10SM FEW050 OVC070 16/08 A3015 870 57 1200 090/05 RMK AO2 SLP210 T01610078 TSNO
94908KDBQ DBQ20070525230012005/25/07 23:00:31  5-MIN KDBQ 260500Z AUTO 09004KT 10SM FEW050 BKN070 BKN110 16/08 A3015 860 57 1200 090/04 RMK AO2 TSNO
94908KDBQ DBQ20070525230511305/25/07 23:05:31  5-MIN KDBQ 260505Z AUTO 00000KT 10SM BKN070 BKN110 16/08 A3016 860 57 1200 000/00 RMK AO2 TSNO
94908KDBQ DBQ20070525231012005/25/07 23:10:31  5-MIN KDBQ 260510Z AUTO 08003KT 10SM FEW060 SCT075 BKN110 16/08 A3016 850 62 1200 080/03 RMK AO2 TSNO
94908KDBQ DBQ20070525231512005/25/07 23:15:31  5-MIN KDBQ 260515Z AUTO 11003KT 10SM SCT060 BKN075 BKN110 15/08 A3016 850 64 1100 110/03 RMK AO2 TSNO
94908KDBQ DBQ20070525232012005/25/07 23:20:31  5-MIN KDBQ 260520Z AUTO 00000KT 10SM SCT060 BKN075 BKN110 16/08 A3016 850 62 1200 000/00 RMK AO2 TSNO
94908KDBQ DBQ20070525232511305/25/07 23:25:31  5-MIN KDBQ 260525Z AUTO 11003KT 10SM BKN060 BKN110 16/08 A3016 850 62 1200 110/03 RMK AO2 TSNO
94908KDBQ DBQ20070525233010605/25/07 23:30:31  5-MIN KDBQ 260530Z AUTO 13003KT 10SM BKN060 16/08 A3017 850 62 1200 130/03 RMK AO2 TSNO
94908KDBQ DBQ20070525233511305/25/07 23:35:31  5-MIN KDBQ 260535Z AUTO 00000KT 10SM FEW046 BKN060 16/08 A3017 850 62 1200 000/00 RMK AO2 TSNO
94908KDBQ DBQ20070525234011305/25/07 23:40:31  5-MIN KDBQ 260540Z AUTO 00000KT 10SM FEW046 BKN060 16/09 A3017 850 64 1200 000/00 RMK AO2 TSNO
94908KDBQ DBQ20070525234511305/25/07 23:45:31  5-MIN KDBQ 260545Z AUTO 00000KT 10SM BKN060 BKN095 16/08 A3017 850 59 1200 000/00 RMK AO2 TSNO
94908KDBQ DBQ20070525235015805/25/07 23:50:31  5-MIN KDBQ 260550Z AUTO 00000KT 10SM BKN060 OVC090 16/09 A3017 850 64 1200 000/00 RMK AO2 SLP214 T01560089 10200 20150 402110067 55006 TSNO
94908KDBQ DBQ20070525235515105/25/07 23:55:31  5-MIN KDBQ 260555Z AUTO 00000KT 10SM BKN055 16/09 A3017 850 62 1200 000/00 RMK AO2 SLP214 T01610089 10200 20150 402110067 55003 TSNO
94908KDBQ DBQ20070526000010605/26/07 00:00:38  5-MIN KDBQ 260600Z AUTO 12003KT 10SM OVC060 16/09 A3017 850 62 1200 120/03 RMK AO2 TSNO
94908KDBQ DBQ20070526000510605/26/07 00:05:31  5-MIN KDBQ 260605Z AUTO 10004KT 10SM OVC060 16/09 A3017 850 64 1200 100/04 RMK AO2 TSNO
94908KDBQ DBQ20070526001011305/26/07 00:10:31  5-MIN KDBQ 260610Z AUTO 10005KT 10SM FEW041 OVC055 16/09 A3017 850 64 1200 100/05 RMK AO2 TSNO
94908KDBQ DBQ20070526001511305/26/07 00:15:31  5-MIN KDBQ 260615Z AUTO 10004KT 10SM SCT041 OVC055 16/09 A3016 850 64 1200 100/04 RMK AO2 TSNO
94908KDBQ DBQ20070526002011305/26/07 00:20:31  5-MIN KDBQ 260620Z AUTO 11003KT 10SM BKN041 OVC060 16/09 A3017 850 64 1200 110/03 RMK AO2 TSNO
94908KDBQ DBQ20070526002511305/26/07 00:25:31  5-MIN KDBQ 260625Z AUTO 11003KT 10SM BKN039 OVC060 16/09 A3017 850 64 1200 110/03 RMK AO2 TSNO
94908KDBQ DBQ20070526003011305/26/07 00:30:31  5-MIN KDBQ 260630Z AUTO 12003KT 10SM BKN039 OVC055 16/10 A3016 850 67 1200 120/03 RMK AO2 TSNO
94908KDBQ DBQ20070526003510605/26/07 00:35:31  5-MIN KDBQ 260635Z AUTO 00000KT 10SM OVC039 16/10 A3016 850 67 1200 000/00 RMK AO2 TSNO
94908KDBQ DBQ20070526004010605/26/07 00:40:31  5-MIN KDBQ 260640Z AUTO 13003KT 10SM OVC039 16/10 A3016 860 67 1200 130/03 RMK AO2 TSNO
94908KDBQ DBQ20070526004510605/26/07 00:45:31  5-MIN KDBQ 260645Z AUTO 00000KT 10SM OVC037 16/10 A3016 860 67 1200 000/00 RMK AO2 TSNO
94908KDBQ DBQ20070526005012305/26/07 00:50:31  5-MIN KDBQ 260650Z AUTO 14003KT 10SM OVC037 16/10 A3016 860 67 1200 140/03 RMK AO2 SLP212 T01610100 TSNO
94908KDBQ DBQ20070526005512305/26/07 00:55:31  5-MIN KDBQ 260655Z AUTO 14004KT 10SM OVC037 16/11 A3016 860 69 1200 140/04 RMK AO2 SLP211 T01610106 TSNO
94908KDBQ DBQ20070526010010605/26/07 01:00:31  5-MIN KDBQ 260700Z AUTO 14004KT 10SM OVC037 16/11 A3016 860 69 1200 140/04 RMK AO2 TSNO
94908KDBQ DBQ20070526010510605/26/07 01:05:31  5-MIN KDBQ 260705Z AUTO 14004KT 10SM OVC037 16/11 A3016 860 69 1200 140/04 RMK AO2 TSNO
94908KDBQ DBQ20070526011010605/26/07 01:10:31  5-MIN KDBQ 260710Z AUTO 15005KT 10SM OVC037 16/11 A3016 860 72 1200 150/05 RMK AO2 TSNO
94908KDBQ DBQ20070526011510605/26/07 01:15:31  5-MIN KDBQ 260715Z AUTO 15005KT 10SM OVC039 16/11 A3016 860 72 1200 150/05 RMK AO2 TSNO
94908KDBQ DBQ20070526012010605/26/07 01:20:31  5-MIN KDBQ 260720Z AUTO 15004KT 10SM OVC039 16/11 A3016 860 72 1200 140/04 RMK AO2 TSNO
94908KDBQ DBQ20070526012510605/26/07 01:25:31  5-MIN KDBQ 260725Z AUTO 14006KT 10SM OVC039 16/12 A3016 860 75 1200 140/06 RMK AO2 TSNO
94908KDBQ DBQ20070526013010605/26/07 01:30:31  5-MIN KDBQ 260730Z AUTO 15005KT 10SM OVC039 16/12 A3015 860 75 1200 140/05 RMK AO2 TSNO
94908KDBQ DBQ20070526013510605/26/07 01:35:31  5-MIN KDBQ 260735Z AUTO 15006KT 10SM OVC039 16/12 A3015 860 75 1200 150/06 RMK AO2 TSNO
94908KDBQ DBQ20070526014010605/26/07 01:40:31  5-MIN KDBQ 260740Z AUTO 14006KT 10SM OVC039 16/12 A3015 860 77 1200 140/06 RMK AO2 TSNO
94908KDBQ DBQ20070526014510605/26/07 01:45:31  5-MIN KDBQ 260745Z AUTO 14006KT 10SM OVC039 16/12 A3015 870 77 1200 140/06 RMK AO2 TSNO
94908KDBQ DBQ20070526015012305/26/07 01:50:31  5-MIN KDBQ 260750Z AUTO 14006KT 10SM OVC039 16/12 A3015 870 77 1200 140/06 RMK AO2 SLP207 T01610122 TSNO
94908KDBQ DBQ20070526015512305/26/07 01:55:31  5-MIN KDBQ 260755Z AUTO 14007KT 10SM OVC039 16/12 A3015 870 77 1200 140/07 RMK AO2 SLP207 T01610122 TSNO
94908KDBQ DBQ20070526020010505/26/07 02:00:31  5-MIN KDBQ 260800Z AUTO 14006KT 9SM OVC037 16/13 A3015 870 80 1200 140/06 RMK AO2 TSNO
94908KDBQ DBQ20070526020510505/26/07 02:05:31  5-MIN KDBQ 260805Z AUTO 14006KT 9SM OVC037 16/13 A3015 870 80 1200 140/06 RMK AO2 TSNO
94908KDBQ DBQ20070526021010505/26/07 02:10:31  5-MIN KDBQ 260810Z AUTO 14007KT 8SM OVC037 16/13 A3015 870 80 1200 140/07 RMK AO2 TSNO
94908KDBQ DBQ20070526021510505/26/07 02:15:31  5-MIN KDBQ 260815Z AUTO 13007KT 8SM OVC037 16/13 A3015 870 80 1200 130/07 RMK AO2 TSNO
94908KDBQ DBQ20070526022010505/26/07 02:20:31  5-MIN KDBQ 260820Z AUTO 14006KT 8SM OVC035 16/13 A3015 870 83 1200 130/06 RMK AO2 TSNO
94908KDBQ DBQ20070526022510505/26/07 02:25:31  5-MIN KDBQ 260825Z AUTO 14007KT 7SM OVC035 16/13 A3015 870 83 1200 140/07 RMK AO2 TSNO
94908KDBQ DBQ20070526023011205/26/07 02:30:31  5-MIN KDBQ 260830Z AUTO 15007KT 7SM FEW013 OVC035 16/13 A3014 870 83 1200 150/07 RMK AO2 TSNO
94908KDBQ DBQ20070526023511905/26/07 02:35:31  5-MIN KDBQ 260835Z AUTO 14006KT 7SM FEW013 SCT021 OVC035 16/13 A3014 870 83 1200 140/06 RMK AO2 TSNO
94908KDBQ DBQ20070526024011905/26/07 02:40:31  5-MIN KDBQ 260840Z AUTO 14007KT 7SM SCT013 SCT021 OVC033 16/13 A3014 870 83 1200 130/07 RMK AO2 TSNO
94908KDBQ DBQ20070526024512205/26/07 02:45:31  5-MIN KDBQ 260845Z AUTO 14007KT 6SM BR SCT013 BKN033 OVC042 16/14 A3014 870 86 1200 140/07 RMK AO2 TSNO
94908KDBQ DBQ20070526025012205/26/07 02:50:31  5-MIN KDBQ 260850Z AUTO 13007KT 6SM BR SCT013 BKN021 BKN033 16/14 A3014 880 90 1200 130/07 RMK AO2 TSNO
94908KDBQ DBQ20070526025514505/26/07 02:55:31  5-MIN KDBQ 260855Z AUTO 13006KT 6SM BR BKN015 BKN021 BKN033 16/14 A3014 880 90 1200 130/06 RMK AO2 SLP203 T01560139 56007 TSNO
94908KDBQ DBQ20070526030011505/26/07 03:00:31  5-MIN KDBQ 260900Z AUTO 13007KT 6SM BR BKN015 BKN031 16/14 A3014 880 86 1300 130/07 RMK AO2 TSNO
94908KDBQ DBQ20070526030511505/26/07 03:05:31  5-MIN KDBQ 260905Z AUTO 13008KT 5SM BR BKN015 BKN031 16/14 A3014 880 86 1300 130/08 RMK AO2 TSNO
94908KDBQ DBQ20070526031012205/26/07 03:10:31  5-MIN KDBQ 260910Z AUTO 13006KT 5SM BR FEW006 BKN013 OVC018 16/14 A3014 880 86 1300 130/06 RMK AO2 TSNO
94908KDBQ DBQ20070526031512205/26/07 03:15:31  5-MIN KDBQ 260915Z AUTO 13007KT 5SM BR SCT006 BKN013 OVC018 16/14 A3014 880 86 1300 130/07 RMK AO2 TSNO
94908KDBQ DBQ20070526032011505/26/07 03:20:31  5-MIN KDBQ 260920Z AUTO 13007KT 5SM BR SCT006 OVC013 16/14 A3014 870 90 1200 130/07 RMK AO2 TSNO
94908KDBQ DBQ20070526032511505/26/07 03:25:31  5-MIN KDBQ 260925Z AUTO 13007KT 4SM BR BKN006 OVC013 16/14 A3014 870 90 1200 120/07 RMK AO2 TSNO
94908KDBQ DBQ20070526033011505/26/07 03:30:31  5-MIN KDBQ 260930Z AUTO 13009KT 4SM BR BKN006 OVC013 16/14 A3014 880 90 1200 130/09 RMK AO2 TSNO
94908KDBQ DBQ20070526033511505/26/07 03:35:31  5-MIN KDBQ 260935Z AUTO 13008KT 4SM BR BKN006 OVC011 16/14 A3014 880 90 1200 130/08 RMK AO2 TSNO
94908KDBQ DBQ20070526034011505/26/07 03:40:31  5-MIN KDBQ 260940Z AUTO 13008KT 4SM BR BKN006 OVC018 16/14 A3014 880 90 1200 130/08 RMK AO2 TSNO
94908KDBQ DBQ20070526034511505/26/07 03:45:31  5-MIN KDBQ 260945Z AUTO 13009KT 5SM BR BKN006 OVC016 16/14 A3014 880 90 1200 130/09 RMK AO2 TSNO
94908KDBQ DBQ20070526035011505/26/07 03:50:31  5-MIN KDBQ 260950Z AUTO 13009KT 5SM BR SCT006 OVC016 16/13 A3014 880 86 1200 130/09 RMK AO2 TSNO
94908KDBQ DBQ20070526035515005/26/07 03:55:31  5-MIN KDBQ 260955Z AUTO 13008G15KT 5SM BR BKN006 OVC014 16/13 A3014 880 86 1200 130/08G15 RMK AO2 CIG 004V011 SLP204 T01560133 TSNO
94908KDBQ DBQ20070526040012705/26/07 04:00:31  5-MIN KDBQ 261000Z AUTO 13008KT 4SM BR BKN006 OVC014 16/13 A3014 880 86 1200 130/08 RMK AO2 CIG 005V011 TSNO
94908KDBQ DBQ20070526040512705/26/07 04:05:31  5-MIN KDBQ 261005Z AUTO 13007KT 4SM BR BKN008 OVC014 15/13 A3013 880 90 1100 130/07 RMK AO2 CIG 005V011 TSNO
94908KDBQ DBQ20070526041012205/26/07 04:10:31  5-MIN KDBQ 261010Z AUTO 13006KT 3SM BR SCT005 BKN008 OVC014 15/13 A3013 880 90 1100 130/06 RMK AO2 TSNO
94908KDBQ DBQ20070526041513405/26/07 04:15:31  5-MIN KDBQ 261015Z AUTO 12008KT 3SM BR BKN005 BKN008 OVC014 15/13 A3013 880 90 1100 120/08 RMK AO2 CIG 004V008 TSNO
94908KDBQ DBQ20070526042011505/26/07 04:20:31  5-MIN KDBQ 261020Z AUTO 13010KT 3SM BR SCT005 OVC011 15/13 A3013 880 90 1100 130/10 RMK AO2 TSNO
94908KDBQ DBQ20070526042511505/26/07 04:25:31  5-MIN KDBQ 261025Z AUTO 12009KT 4SM BR SCT005 OVC011 14/12 A3013 890 86 1100 120/09 RMK AO2 TSNO
94908KDBQ DBQ20070526043011505/26/07 04:30:31  5-MIN KDBQ 261030Z AUTO 13008KT 4SM BR FEW005 OVC013 14/12 A3013 880 86 1100 130/08 RMK AO2 TSNO
94908KDBQ DBQ20070526043511505/26/07 04:35:31  5-MIN KDBQ 261035Z AUTO 13009KT 4SM BR SCT005 OVC013 14/12 A3013 880 86 1100 130/09 RMK AO2 TSNO
94908KDBQ DBQ20070526044011505/26/07 04:40:31  5-MIN KDBQ 261040Z AUTO 13008KT 4SM BR BKN005 OVC013 14/12 A3013 880 90 1000 130/08 RMK AO2 TSNO
94908KDBQ DBQ20070526044511505/26/07 04:45:31  5-MIN KDBQ 261045Z AUTO 13006KT 4SM BR BKN005 OVC013 14/12 A3013 880 90 1000 130/06 RMK AO2 TSNO
94908KDBQ DBQ20070526045013205/26/07 04:50:31  5-MIN KDBQ 261050Z AUTO 12007KT 4SM BR BKN005 OVC013 14/12 A3013 880 90 1000 120/07 RMK AO2 SLP203 T01390122 TSNO
94908KDBQ DBQ20070526045512205/26/07 04:55:31  5-MIN KDBQ 261055Z 12008KT 3SM BR BKN005 OVC013 14/12 A3013 880 90 1000 120/08 RMK AO2 SLP202 T01390122
94908KDBQ DBQ20070526050009805/26/07 05:00:31  5-MIN KDBQ 261100Z 13007KT 3SM BR OVC005 14/12 A3013 880 90 1000 130/07 RMK AO2
94908KDBQ DBQ20070526050509805/26/07 05:05:31  5-MIN KDBQ 261105Z 13009KT 3SM BR OVC005 14/12 A3013 880 90 1000 130/09 RMK AO2
94908KDBQ DBQ20070526051010205/26/07 05:10:31  5-MIN KDBQ 261110Z 13007KT 2 1/2SM BR OVC005 14/12 A3014 880 90 1000 130/07 RMK AO2
94908KDBQ DBQ20070526051509805/26/07 05:15:31  5-MIN KDBQ 261115Z 13007KT 2SM BR OVC005 14/12 A3014 880 90 1000 130/07 RMK AO2
94908KDBQ DBQ20070526052010105/26/07 05:20:31  5-MIN KDBQ 261120Z 13007KT 1 1/2SM BR OVC005 13/12 A3014 880 93 900 130/07 RMK AO2
94908KDBQ DBQ20070526052511305/26/07 05:25:31  5-MIN KDBQ 261125Z 13006KT 1 1/2SM BR OVC007 13/12 A3014 880 93 900 130/06 RMK AO2 CIG 005V010
94908KDBQ DBQ20070526053011305/26/07 05:30:31  5-MIN KDBQ 261130Z 12006KT 1 1/2SM BR OVC007 13/12 A3014 880 93 900 120/06 RMK AO2 CIG 005V010
94908KDBQ DBQ20070526053511305/26/07 05:35:31  5-MIN KDBQ 261135Z 13007KT 1 1/4SM BR OVC007 13/12 A3014 880 93 900 120/07 RMK AO2 CIG 005V008
94908KDBQ DBQ20070526054011305/26/07 05:40:31  5-MIN KDBQ 261140Z 13005KT 1 1/4SM BR OVC007 13/12 A3014 880 93 900 120/05 RMK AO2 CIG 004V008
94908KDBQ DBQ20070526054511305/26/07 05:45:31  5-MIN KDBQ 261145Z 12006KT 1 1/4SM BR OVC005 13/12 A3014 880 93 900 120/06 RMK AO2 CIG 003V008
94908KDBQ DBQ20070526055014405/26/07 05:50:31  5-MIN KDBQ 261150Z 11005KT 1SM BR OVC005 13/12 A3014 880 93 900 110/05 RMK AO2 CIG 003V008 SLP205 T01330122 10161 20133 56007
94908KDBQ DBQ20070526060511305/26/07 06:05:31  5-MIN KDBQ 261205Z 09007KT 1 1/4SM BR OVC003 13/12 A3013 880 93 900 090/07 RMK AO2 CIG 002V007
94908KDBQ DBQ20070526061011305/26/07 06:10:31  5-MIN KDBQ 261210Z 07003KT 1 1/4SM BR OVC003 13/12 A3013 880 93 900 070/03 RMK AO2 CIG 002V006
94908KDBQ DBQ20070526061510105/26/07 06:15:31  5-MIN KDBQ 261215Z 10004KT 1 1/4SM BR OVC003 13/12 A3013 880 93 900 090/04 RMK AO2
94908KDBQ DBQ20070526062010105/26/07 06:20:31  5-MIN KDBQ 261220Z VRB03KT 1 1/4SM BR OVC003 13/12 A3014 880 93 900 VRB/03 RMK AO2
94908KDBQ DBQ20070526062510105/26/07 06:25:31  5-MIN KDBQ 261225Z VRB05KT 1 1/4SM BR OVC003 13/12 A3013 880 93 900 VRB/05 RMK AO2
94908KDBQ DBQ20070526063010105/26/07 06:30:31  5-MIN KDBQ 261230Z 12005KT 1 1/4SM BR OVC003 13/12 A3013 880 96 900 120/05 RMK AO2
94908KDBQ DBQ20070526063510105/26/07 06:35:31  5-MIN KDBQ 261235Z 12005KT 1 1/4SM BR OVC003 13/12 A3013 880 96 900 120/05 RMK AO2
94908KDBQ DBQ20070526064010105/26/07 06:40:31  5-MIN KDBQ 261240Z 11005KT 1 1/4SM BR OVC003 13/12 A3013 880 93 900 110/05 RMK AO2
94908KDBQ DBQ20070526064510105/26/07 06:45:31  5-MIN KDBQ 261245Z 12006KT 1 1/4SM BR OVC003 13/12 A3013 880 93 900 110/06 RMK AO2
94908KDBQ DBQ20070526065011405/26/07 06:50:31  5-MIN KDBQ 261250Z 13006KT 1SM BR OVC003 13/12 A3013 880 93 900 120/06 RMK AO2 SLP203 T01330122
94908KDBQ DBQ20070526065511405/26/07 06:55:31  5-MIN KDBQ 261255Z 12007KT 1SM BR OVC003 13/12 A3013 890 93 900 120/07 RMK AO2 SLP202 T01330122
94908KDBQ DBQ20070526070009705/26/07 07:00:31  5-MIN KDBQ 261300Z 12007KT 1SM BR OVC003 13/12 A3013 890 93 900 120/07 RMK AO2
94908KDBQ DBQ20070526070509705/26/07 07:05:31  5-MIN KDBQ 261305Z 13008KT 1SM BR OVC003 13/12 A3013 890 93 900 130/08 RMK AO2
94908KDBQ DBQ20070526071009705/26/07 07:10:31  5-MIN KDBQ 261310Z 13008KT 1SM BR OVC003 13/12 A3012 890 96 900 130/08 RMK AO2
94908KDBQ DBQ20070526071510105/26/07 07:15:31  5-MIN KDBQ 261315Z 12009KT 1 1/4SM BR OVC003 13/12 A3012 900 96 900 120/09 RMK AO2
94908KDBQ DBQ20070526072010205/26/07 07:20:31  5-MIN KDBQ 261320Z 13009KT 1 1/4SM BR OVC003 13/12 A3012 900 93 1000 130/09 RMK AO2
94908KDBQ DBQ20070526072510205/26/07 07:25:31  5-MIN KDBQ 261325Z 13008KT 1 1/4SM BR OVC003 13/12 A3011 900 93 1000 130/08 RMK AO2
94908KDBQ DBQ20070526073009805/26/07 07:30:31  5-MIN KDBQ 261330Z 13009KT 1SM BR OVC003 13/12 A3011 900 93 1000 130/09 RMK AO2
94908KDBQ DBQ20070526073509805/26/07 07:35:31  5-MIN KDBQ 261335Z 14012KT 1SM BR OVC003 13/12 A3011 900 93 1000 140/12 RMK AO2
94908KDBQ DBQ20070526074009805/26/07 07:40:31  5-MIN KDBQ 261340Z 14009KT 1SM BR OVC003 13/12 A3011 910 93 1000 140/09 RMK AO2
94908KDBQ DBQ20070526074509805/26/07 07:45:31  5-MIN KDBQ 261345Z 14010KT 1SM BR OVC003 13/12 A3011 910 93 1000 140/10 RMK AO2
94908KDBQ DBQ20070526075011505/26/07 07:50:31  5-MIN KDBQ 261350Z 13010KT 1SM BR OVC003 13/12 A3010 910 93 1000 130/10 RMK AO2 SLP194 T01330122
94908KDBQ DBQ20070526075511905/26/07 07:55:31  5-MIN KDBQ 261355Z 13010KT 1 1/4SM BR OVC003 13/12 A3010 910 93 1000 130/10 RMK AO2 SLP194 T01330122
94908KDBQ DBQ20070526080010205/26/07 08:00:31  5-MIN KDBQ 261400Z 13008KT 1 1/4SM BR OVC003 13/12 A3010 910 93 1000 130/08 RMK AO2
94908KDBQ DBQ20070526080510205/26/07 08:05:31  5-MIN KDBQ 261405Z 14009KT 1 1/4SM BR OVC003 13/12 A3011 900 93 1000 140/09 RMK AO2
94908KDBQ DBQ20070526081010205/26/07 08:10:31  5-MIN KDBQ 261410Z 14009KT 1 1/2SM BR OVC003 13/12 A3011 900 93 1000 140/09 RMK AO2
94908KDBQ DBQ20070526081510205/26/07 08:15:31  5-MIN KDBQ 261415Z 15006KT 1 1/2SM BR OVC003 13/12 A3011 900 93 1000 150/06 RMK AO2
94908KDBQ DBQ20070526082010205/26/07 08:20:31  5-MIN KDBQ 261420Z 14009KT 1 1/2SM BR OVC003 13/12 A3011 900 93 1000 140/09 RMK AO2
94908KDBQ DBQ20070526082510205/26/07 08:25:31  5-MIN KDBQ 261425Z 14008KT 1 1/4SM BR OVC003 13/12 A3011 900 93 1000 140/08 RMK AO2
94908KDBQ DBQ20070526083009805/26/07 08:30:31  5-MIN KDBQ 261430Z 16008KT 1SM BR OVC003 13/12 A3011 900 93 1000 150/08 RMK AO2
94908KDBQ DBQ20070526083510005/26/07 08:35:31  5-MIN KDBQ 261435Z 15008KT 3/4SM BR OVC003 13/13 A3011 900 96 1000 150/08 RMK AO2
94908KDBQ DBQ20070526084010005/26/07 08:40:31  5-MIN KDBQ 261440Z 15008KT 3/4SM BR OVC003 13/13 A3011 910 96 1000 150/08 RMK AO2
94908KDBQ DBQ20070526084509805/26/07 08:45:31  5-MIN KDBQ 261445Z 15011KT 1SM BR OVC003 13/13 A3010 910 96 1000 150/11 RMK AO2
94908KDBQ DBQ20070526085012105/26/07 08:50:31  5-MIN KDBQ 261450Z 14010KT 1SM BR OVC003 13/13 A3010 910 96 1000 140/10 RMK AO2 SLP193 T01330128 56012
94908KDBQ DBQ20070526085512105/26/07 08:55:31  5-MIN KDBQ 261455Z 14011KT 1SM BR OVC003 13/13 A3010 910 96 1000 140/11 RMK AO2 SLP193 T01330128 56010
94908KDBQ DBQ20070526090009805/26/07 09:00:31  5-MIN KDBQ 261500Z 15009KT 1SM BR OVC003 13/12 A3010 910 93 1000 150/09 RMK AO2
94908KDBQ DBQ20070526090509805/26/07 09:05:31  5-MIN KDBQ 261505Z 14010KT 1SM BR OVC003 13/13 A3010 910 96 1000 140/10 RMK AO2
94908KDBQ DBQ20070526091009805/26/07 09:10:31  5-MIN KDBQ 261510Z 15009KT 1SM BR OVC003 13/13 A3010 910 96 1000 150/09 RMK AO2
94908KDBQ DBQ20070526091510205/26/07 09:15:31  5-MIN KDBQ 261515Z 15010KT 1 1/4SM BR OVC003 14/13 A3010 910 93 1000 150/10 RMK AO2
94908KDBQ DBQ20070526092010205/26/07 09:20:31  5-MIN KDBQ 261520Z 15011KT 1 1/4SM BR OVC003 14/13 A3010 910 93 1000 150/11 RMK AO2
94908KDBQ DBQ20070526092510205/26/07 09:25:31  5-MIN KDBQ 261525Z 15011KT 1 1/4SM BR OVC003 14/13 A3010 910 93 1000 150/11 RMK AO2
94908KDBQ DBQ20070526093010205/26/07 09:30:31  5-MIN KDBQ 261530Z 15008KT 1 1/4SM BR OVC003 14/13 A3010 910 93 1000 150/08 RMK AO2
94908KDBQ DBQ20070526093510205/26/07 09:35:31  5-MIN KDBQ 261535Z 16011KT 1 1/4SM BR OVC003 14/13 A3010 910 93 1000 160/11 RMK AO2
94908KDBQ DBQ20070526094010205/26/07 09:40:31  5-MIN KDBQ 261540Z 16012KT 1 1/4SM BR OVC003 14/13 A3011 910 93 1000 150/12 RMK AO2
94908KDBQ DBQ20070526094510805/26/07 09:45:31  5-MIN KDBQ 261545Z 16012G17KT 1 1/4SM BR OVC003 14/13 A3010 910 93 1000 160/12G17 RMK AO2
94908KDBQ DBQ20070526095011905/26/07 09:50:31  5-MIN KDBQ 261550Z 15010KT 1 1/2SM BR OVC003 14/13 A3010 910 93 1000 150/10 RMK AO2 SLP193 T01390128
94908KDBQ DBQ20070526095511905/26/07 09:55:31  5-MIN KDBQ 261555Z 15011KT 1 1/2SM BR OVC003 14/13 A3010 910 93 1000 150/11 RMK AO2 SLP193 T01390128
94908KDBQ DBQ20070526100010205/26/07 10:00:31  5-MIN KDBQ 261600Z 16012KT 1 1/4SM BR OVC003 14/13 A3010 910 93 1000 160/12 RMK AO2
94908KDBQ DBQ20070526100510205/26/07 10:05:31  5-MIN KDBQ 261605Z 16010KT 1 1/4SM BR OVC003 14/13 A3010 910 93 1000 160/10 RMK AO2
94908KDBQ DBQ20070526101010205/26/07 10:10:31  5-MIN KDBQ 261610Z 16012KT 1 1/4SM BR OVC003 14/13 A3010 910 93 1000 160/12 RMK AO2
94908KDBQ DBQ20070526101510205/26/07 10:15:31  5-MIN KDBQ 261615Z 16013KT 1 1/4SM BR OVC003 14/13 A3009 920 93 1000 150/13 RMK AO2
94908KDBQ DBQ20070526102010205/26/07 10:20:31  5-MIN KDBQ 261620Z 16011KT 1 1/4SM BR OVC003 14/13 A3009 920 93 1000 150/11 RMK AO2
94908KDBQ DBQ20070526102510205/26/07 10:25:31  5-MIN KDBQ 261625Z 16010KT 1 1/4SM BR OVC003 14/13 A3010 920 93 1100 160/10 RMK AO2
94908KDBQ DBQ20070526103010205/26/07 10:30:31  5-MIN KDBQ 261630Z 16011KT 1 1/2SM BR OVC003 14/13 A3010 920 93 1000 160/11 RMK AO2
94908KDBQ DBQ20070526103510205/26/07 10:35:31  5-MIN KDBQ 261635Z 17010KT 1 3/4SM BR OVC003 14/13 A3010 910 93 1100 170/10 RMK AO2
94908KDBQ DBQ20070526104009805/26/07 10:40:31  5-MIN KDBQ 261640Z 18011KT 2SM BR OVC003 14/13 A3010 910 93 1100 180/11 RMK AO2
94908KDBQ DBQ20070526104509805/26/07 10:45:31  5-MIN KDBQ 261645Z 17012KT 2SM BR OVC003 14/13 A3010 920 93 1100 170/12 RMK AO2
94908KDBQ DBQ20070526105011505/26/07 10:50:31  5-MIN KDBQ 261650Z 16010KT 2SM BR OVC003 14/13 A3008 930 93 1100 160/10 RMK AO2 SLP187 T01440133
94908KDBQ DBQ20070526105513805/26/07 10:55:31  5-MIN KDBQ 261655Z 15011KT 2SM -RA BR OVC003 14/13 A3007 940 93 1100 150/11 RMK AO2 RAB52 PRESFR SLP182 P0000 T01440133
94908KDBQ DBQ20070526110011505/26/07 11:00:31  5-MIN KDBQ 261700Z 15011KT 2SM -RA BR OVC003 15/14 A3006 940 93 1200 150/11 RMK AO2 PRESFR P0001
94908KDBQ DBQ20070526110510805/26/07 11:05:31  5-MIN KDBQ 261705Z 16009KT 2SM -RA BR OVC003 15/14 A3007 940 93 1200 150/09 RMK AO2 P0001
94908KDBQ DBQ20070526111010805/26/07 11:10:31  5-MIN KDBQ 261710Z 15009KT 2SM -RA BR OVC003 15/14 A3007 940 93 1200 150/09 RMK AO2 P0002
94908KDBQ DBQ20070526111510805/26/07 11:15:31  5-MIN KDBQ 261715Z 15010KT 2SM -RA BR OVC003 15/14 A3007 940 93 1200 140/10 RMK AO2 P0002
94908KDBQ DBQ20070526112011205/26/07 11:20:31  5-MIN KDBQ 261720Z 15009KT 2 1/2SM -RA BR OVC003 15/14 A3006 950 93 1200 150/09 RMK AO2 P0002
94908KDBQ DBQ20070526112511405/26/07 11:25:31  5-MIN KDBQ 261725Z 15010KT 2 1/2SM BR OVC003 16/14 A3006 950 93 1300 150/10 RMK AO2 RAE25 P0002
94908KDBQ DBQ20070526113011405/26/07 11:30:31  5-MIN KDBQ 261730Z 15010KT 2 1/2SM BR OVC003 16/14 A3006 950 93 1300 150/10 RMK AO2 RAE25 P0002
94908KDBQ DBQ20070526113511405/26/07 11:35:31  5-MIN KDBQ 261735Z 15011KT 2 1/2SM BR OVC003 16/14 A3006 950 93 1300 150/11 RMK AO2 RAE25 P0002
94908KDBQ DBQ20070526114011805/26/07 11:40:31  5-MIN KDBQ 261740Z 15011G16KT 2 1/2SM -RA BR OVC003 16/14 A3006 950 93 1300 150/11G16 RMK AO2 P0002
94908KDBQ DBQ20070526114511405/26/07 11:45:31  5-MIN KDBQ 261745Z 16012G16KT 3SM -RA BR OVC003 16/14 A3006 950 93 1300 160/12G16 RMK AO2 P0002
94908KDBQ DBQ20070526115010805/26/07 11:50:31  5-MIN KDBQ 261750Z 17011KT 3SM -RA BR OVC003 16/15 A3006 950 93 1300 170/11 RMK AO2 P0003
94908KDBQ DBQ20070526115515505/26/07 11:55:31  5-MIN KDBQ 261755Z 17015G18KT 3SM -RA BR OVC003 16/15 A3006 950 93 1300 170/15G18 RMK AO2 SLP177 P0003 60003 T01610150 10161 20128 56015
94908KDBQ DBQ20070526120011405/26/07 12:00:31  5-MIN KDBQ 261800Z 17013G19KT 3SM -RA BR OVC003 16/15 A3005 960 93 1400 170/13G19 RMK AO2 P0000
94908KDBQ DBQ20070526120511605/26/07 12:05:31  5-MIN KDBQ 261805Z 18012G20KT 3SM BR OVC003 16/15 A3005 960 93 1400 180/12G20 RMK AO2 RAE03 P0000
94908KDBQ DBQ20070526121011605/26/07 12:10:31  5-MIN KDBQ 261810Z 18013G20KT 3SM BR OVC003 16/15 A3006 950 93 1300 170/13G20 RMK AO2 RAE03 P0000
94908KDBQ DBQ20070526121511605/26/07 12:15:31  5-MIN KDBQ 261815Z 17013G19KT 3SM BR OVC003 16/15 A3005 960 93 1300 170/13G19 RMK AO2 RAE03 P0000
94908KDBQ DBQ20070526122012205/26/07 12:20:31  5-MIN KDBQ 261820Z 18013KT 3SM BR OVC003 16/15 A3005 960 93 1300 170/13 RMK AO2 RAE03 CIG 003V008 P0000
94908KDBQ DBQ20070526122511005/26/07 12:25:31  5-MIN KDBQ 261825Z 20010KT 3SM BR OVC003 17/16 A3007 940 93 1400 200/10 RMK AO2 RAE03 P0000
94908KDBQ DBQ20070526123011005/26/07 12:30:31  5-MIN KDBQ 261830Z 25006KT 3SM BR OVC003 16/15 A3007 940 93 1300 250/06 RMK AO2 RAE03 P0000
94908KDBQ DBQ20070526123512105/26/07 12:35:31  5-MIN KDBQ 261835Z 19008KT 2 1/2SM -RA BR OVC003 16/15 A3005 960 93 1400 190/08 RMK AO2 RAE03B35 P0000
94908KDBQ DBQ20070526124013405/26/07 12:40:31  5-MIN KDBQ 261840Z 18009KT 2 1/2SM RA BR BKN005 BKN009 OVC055 17/15 A3004 970 90 1400 180/09 RMK AO2 RAE03B35 P0002
94908KDBQ DBQ20070526124513505/26/07 12:45:31  5-MIN KDBQ 261845Z 17010KT 2 1/2SM -RA BR BKN005 OVC055 17/16 A3003 980 93 1400 170/10 RMK AO2 RAE03B35 PRESFR P0002
94908KDBQ DBQ20070526125012405/26/07 12:50:31  5-MIN KDBQ 261850Z 17011KT 3SM -RA BR SCT005 BKN050 17/16 A3003 980 90 1500 170/11 RMK AO2 RAE03B35 P0002
94908KDBQ DBQ20070526125514805/26/07 12:55:31  5-MIN KDBQ 261855Z 16012KT 4SM -RA BR FEW005 SCT047 BKN055 18/17 A3003 980 93 1600 160/12 RMK AO2 RAE03B35 SLP166 P0003 T01780167
94908KDBQ DBQ20070526130011505/26/07 13:00:31  5-MIN KDBQ 261900Z 17011KT 4SM -RA BR FEW007 SCT055 17/16 A3003 980 93 1500 170/11 RMK AO2 P0000
94908KDBQ DBQ20070526130511705/26/07 13:05:31  5-MIN KDBQ 261905Z 16010KT 4SM BR SCT009 BKN055 18/16 A3002 990 90 1600 160/10 RMK AO2 RAE01 P0000
94908KDBQ DBQ20070526131011505/26/07 13:10:31  5-MIN KDBQ 261910Z 17011KT 4SM -RA BR SCT009 BKN055 18/17 A3002 990 90 1700 170/11 RMK AO2 P0000
94908KDBQ DBQ20070526131511505/26/07 13:15:31  5-MIN KDBQ 261915Z 16012KT 5SM -RA BR SCT009 BKN055 18/17 A3001 990 90 1700 160/12 RMK AO2 P0000
94908KDBQ DBQ20070526132012205/26/07 13:20:31  5-MIN KDBQ 261920Z 17011KT 5SM BR BKN009 19/17 A3001 990 90 1700 170/11 RMK AO2 RAE17 CIG 005V013 P0000
94908KDBQ DBQ20070526132511705/26/07 13:25:31  5-MIN KDBQ 261925Z 17012KT 6SM BR BKN007 BKN011 19/17 A3001 990 90 1700 170/12 RMK AO2 RAE17 P0000
94908KDBQ DBQ20070526133011805/26/07 13:30:31  5-MIN KDBQ 261930Z 17013KT 6SM BR BKN007 BKN011 19/17 A3000 1000 87 1800 160/13 RMK AO2 RAE17 P0000
94908KDBQ DBQ20070526133512205/26/07 13:35:31  5-MIN KDBQ 261935Z 17013KT 7SM BKN009 BKN014 OVC020 19/17 A3000 1010 87 1800 170/13 RMK AO2 RAE17 P0000
94908KDBQ DBQ20070526134012205/26/07 13:40:31  5-MIN KDBQ 261940Z 18012KT 8SM FEW007 BKN014 BKN020 20/17 A3000 1010 84 1900 180/12 RMK AO2 RAE17 P0000
94908KDBQ DBQ20070526134512205/26/07 13:45:31  5-MIN KDBQ 261945Z 18014KT 9SM FEW009 BKN014 OVC020 21/17 A2999 1010 81 1900 180/14 RMK AO2 RAE17 P0000
94908KDBQ DBQ20070526135013205/26/07 13:50:31  5-MIN KDBQ 261950Z 17012KT 9SM BKN014 OVC020 20/17 A2999 1020 81 1900 170/12 RMK AO2 RAE17 SLP152 P0000 T02000167
94908KDBQ DBQ20070526135513905/26/07 13:55:31  5-MIN KDBQ 261955Z 18013KT 9SM BKN014 BKN020 BKN025 21/17 A2998 1020 81 1900 180/13 RMK AO2 RAE17 SLP150 P0000 T02060172
94908KDBQ DBQ20070526140011005/26/07 14:00:31  5-MIN KDBQ 262000Z 18014KT 9SM BKN014 BKN019 BKN023 20/17 A2998 1020 81 1900 180/14 RMK AO2
94908KDBQ DBQ20070526140511005/26/07 14:05:31  5-MIN KDBQ 262005Z 18013KT 8SM BKN014 BKN019 BKN023 20/17 A2999 1020 84 1900 180/13 RMK AO2
94908KDBQ DBQ20070526141011005/26/07 14:10:31  5-MIN KDBQ 262010Z 18014KT 8SM BKN014 BKN019 BKN023 20/17 A2999 1020 81 1900 180/14 RMK AO2
94908KDBQ DBQ20070526141511005/26/07 14:15:31  5-MIN KDBQ 262015Z 18010KT 8SM BKN014 BKN019 BKN023 20/17 A2998 1020 81 1900 180/10 RMK AO2
94908KDBQ DBQ20070526142010305/26/07 14:20:31  5-MIN KDBQ 262020Z 19011KT 8SM BKN014 BKN021 20/17 A2999 1020 84 1900 190/11 RMK AO2
94908KDBQ DBQ20070526142510305/26/07 14:25:31  5-MIN KDBQ 262025Z 19012KT 8SM BKN014 BKN021 21/17 A2999 1010 81 1900 190/12 RMK AO2
94908KDBQ DBQ20070526143010305/26/07 14:30:31  5-MIN KDBQ 262030Z 19014KT 9SM BKN014 BKN021 21/17 A2999 1010 78 2000 190/14 RMK AO2
94908KDBQ DBQ20070526143510305/26/07 14:35:31  5-MIN KDBQ 262035Z 20013KT 9SM BKN014 BKN021 21/17 A2999 1010 78 1900 200/13 RMK AO2
94908KDBQ DBQ20070526144010305/26/07 14:40:31  5-MIN KDBQ 262040Z 20012KT 8SM BKN014 BKN021 21/17 A2999 1010 81 1900 200/12 RMK AO2
94908KDBQ DBQ20070526144510305/26/07 14:45:31  5-MIN KDBQ 262045Z 20010KT 8SM BKN014 BKN021 21/17 A2999 1010 81 1900 190/10 RMK AO2
94908KDBQ DBQ20070526145011005/26/07 14:50:31  5-MIN KDBQ 262050Z 18010KT 8SM SCT017 BKN024 BKN050 21/18 A2999 1010 81 2000 180/10 RMK AO2
94908KDBQ DBQ20070526145513905/26/07 14:55:31  5-MIN KDBQ 262055Z 18013KT 8SM FEW015 SCT021 BKN026 21/17 A2999 1010 78 2000 180/13 RMK AO2 SLP153 60003 T02110172 55011
94908KDBQ DBQ20070526150011005/26/07 15:00:31  5-MIN KDBQ 262100Z 18011KT 8SM SCT017 BKN026 BKN050 21/17 A3000 1010 81 1900 180/11 RMK AO2
94908KDBQ DBQ20070526150511005/26/07 15:05:31  5-MIN KDBQ 262105Z 18009KT 8SM BKN017 BKN026 BKN050 21/17 A2999 1010 81 1900 180/09 RMK AO2
94908KDBQ DBQ20070526151011005/26/07 15:10:31  5-MIN KDBQ 262110Z 18012KT 8SM SCT017 BKN021 BKN026 21/17 A2999 1010 81 1900 180/12 RMK AO2
94908KDBQ DBQ20070526151511005/26/07 15:15:31  5-MIN KDBQ 262115Z 18011KT 8SM BKN017 BKN028 OVC080 21/17 A2999 1010 81 1900 180/11 RMK AO2
94908KDBQ DBQ20070526152011005/26/07 15:20:31  5-MIN KDBQ 262120Z 18013KT 8SM BKN017 BKN026 BKN080 21/17 A2999 1010 81 1900 170/13 RMK AO2
94908KDBQ DBQ20070526152511005/26/07 15:25:31  5-MIN KDBQ 262125Z 18011KT 7SM BKN017 BKN026 OVC080 21/17 A2999 1010 81 1900 180/11 RMK AO2
94908KDBQ DBQ20070526153010305/26/07 15:30:31  5-MIN KDBQ 262130Z 19012KT 7SM BKN017 BKN080 21/17 A2999 1010 81 1900 190/12 RMK AO2
94908KDBQ DBQ20070526153511905/26/07 15:35:31  5-MIN KDBQ 262135Z 19011KT 7SM -RA SCT017 BKN033 21/17 A2999 1020 81 1900 190/11 RMK AO2 RAB35 P0000
94908KDBQ DBQ20070526154011905/26/07 15:40:31  5-MIN KDBQ 262140Z 19009KT 6SM -RA BKN017 BKN033 20/17 A2998 1020 84 1900 190/09 RMK AO2 RAB35 P0000
94908KDBQ DBQ20070526154512205/26/07 15:45:31  5-MIN KDBQ 262145Z 19012KT 6SM -RA BR BKN017 BKN033 20/18 A2998 1030 87 1900 180/12 RMK AO2 RAB35 P0000
94908KDBQ DBQ20070526155013205/26/07 15:50:31  5-MIN KDBQ 262150Z 18010KT 6SM -RA BR BKN017 20/18 A2998 1030 87 1900 180/10 RMK AO2 RAB35 SLP148 P0000 T02000178
94908KDBQ DBQ20070526155512905/26/07 15:55:31  5-MIN KDBQ 262155Z 18008KT 6SM -RA SCT017 20/17 A2997 1030 84 1900 180/08 RMK AO2 RAB35 SLP146 P0000 T02000172
94908KDBQ DBQ20070526160010905/26/07 16:00:31  5-MIN KDBQ 262200Z 18007KT 6SM -RA BR SCT017 20/18 A2999 1020 87 1900 180/07 RMK AO2 P0001
94908KDBQ DBQ20070526160510905/26/07 16:05:31  5-MIN KDBQ 262205Z 18008KT 6SM -RA BR SCT017 20/18 A2999 1020 87 1900 180/08 RMK AO2 P0001
94908KDBQ DBQ20070526161010905/26/07 16:10:31  5-MIN KDBQ 262210Z 18009KT 5SM -RA BR SCT017 20/18 A2998 1020 87 1900 180/09 RMK AO2 P0001
94908KDBQ DBQ20070526161510805/26/07 16:15:31  5-MIN KDBQ 262215Z 19009KT 4SM RA BR SCT017 19/18 A2998 1020 90 1800 180/09 RMK AO2 P0002
94908KDBQ DBQ20070526162010905/26/07 16:20:31  5-MIN KDBQ 262220Z 18010KT 4SM -RA BR SCT017 19/18 A2998 1020 90 1800 180/10 RMK AO2 P0002
94908KDBQ DBQ20070526162510905/26/07 16:25:31  5-MIN KDBQ 262225Z 18011KT 4SM -RA BR SCT017 19/18 A2998 1020 90 1800 180/11 RMK AO2 P0002
94908KDBQ DBQ20070526163012305/26/07 16:30:31  5-MIN KDBQ 262230Z 18009KT 4SM -RA BR SCT017 BKN026 OVC085 19/18 A2998 1020 90 1800 180/09 RMK AO2 P0003
94908KDBQ DBQ20070526163512305/26/07 16:35:31  5-MIN KDBQ 262235Z 18009KT 4SM -RA BR SCT017 BKN032 OVC085 19/18 A2998 1020 90 1800 180/09 RMK AO2 P0003
94908KDBQ DBQ20070526164012305/26/07 16:40:31  5-MIN KDBQ 262240Z 18010KT 4SM -RA BR SCT019 BKN029 OVC085 19/18 A2998 1020 90 1800 180/10 RMK AO2 P0003
94908KDBQ DBQ20070526164512305/26/07 16:45:31  5-MIN KDBQ 262245Z 18009KT 4SM -RA BR FEW011 BKN035 OVC090 19/18 A2998 1020 90 1800 180/09 RMK AO2 P0004
94908KDBQ DBQ20070526165012305/26/07 16:50:31  5-MIN KDBQ 262250Z 17008KT 4SM -RA BR SCT011 BKN019 OVC065 19/18 A2998 1030 90 1800 170/08 RMK AO2 P0004
94908KDBQ DBQ20070526165514005/26/07 16:55:31  5-MIN KDBQ 262255Z 17008KT 5SM -RA BR BKN011 BKN021 OVC065 19/18 A2998 1030 90 1800 170/08 RMK AO2 SLP149 P0004 T01940178
94908KDBQ DBQ20070526170012105/26/07 17:00:31  5-MIN KDBQ 262300Z 18008KT 5SM BR BKN011 BKN019 OVC065 19/18 A2997 1030 90 1800 180/08 RMK AO2 RAE2256
94908KDBQ DBQ20070526170512105/26/07 17:05:31  5-MIN KDBQ 262305Z 18007KT 6SM BR BKN011 BKN031 BKN060 19/18 A2997 1030 90 1800 180/07 RMK AO2 RAE2256
94908KDBQ DBQ20070526171012605/26/07 17:10:31  5-MIN KDBQ 262310Z 19008KT 6SM BR BKN011 BKN060 19/18 A2998 1030 90 1800 190/08 RMK AO2 RAE2256 CIG 007V013
94908KDBQ DBQ20070526171512105/26/07 17:15:31  5-MIN KDBQ 262315Z 20008KT 6SM BR FEW007 BKN011 BKN060 19/18 A2998 1020 90 1800 200/08 RMK AO2 RAE2256
94908KDBQ DBQ20070526172012305/26/07 17:20:31  5-MIN KDBQ 262320Z 20007KT 7SM BKN009 OVC055 19/18 A2998 1030 90 1800 200/07 RMK AO2 RAE2256 CIG 007V013
94908KDBQ DBQ20070526172512305/26/07 17:25:31  5-MIN KDBQ 262325Z 21007KT 7SM BKN009 OVC055 19/18 A2998 1020 90 1800 210/07 RMK AO2 RAE2256 CIG 007V013
94908KDBQ DBQ20070526173012305/26/07 17:30:31  5-MIN KDBQ 262330Z 22007KT 7SM BKN009 OVC055 19/18 A2998 1030 90 1800 210/07 RMK AO2 RAE2256 CIG 006V013
94908KDBQ DBQ20070526173511605/26/07 17:35:31  5-MIN KDBQ 262335Z 21007KT 7SM OVC007 19/18 A2998 1020 90 1800 210/07 RMK AO2 RAE2256 CIG 005V013
94908KDBQ DBQ20070526174012605/26/07 17:40:31  5-MIN KDBQ 262340Z 20008KT 6SM BR BKN007 OVC011 19/18 A2998 1030 90 1800 200/08 RMK AO2 RAE2256 CIG 005V009
94908KDBQ DBQ20070526174511905/26/07 17:45:31  5-MIN KDBQ 262345Z 20007KT 6SM BR OVC007 19/18 A2998 1030 90 1800 200/07 RMK AO2 RAE2256 CIG 004V009
94908KDBQ DBQ20070526175016005/26/07 17:50:31  5-MIN KDBQ 262350Z 20009KT 6SM BR OVC007 19/18 A2997 1030 90 1800 200/09 RMK AO2 RAE2256 CIG 004V011 SLP148 60007 T01940178 10211 20161 55011
94908KDBQ DBQ20070526175516405/26/07 17:55:31  5-MIN KDBQ 262355Z 20009KT 7SM BKN007 OVC055 19/18 A2998 1030 90 1800 200/09 RMK AO2 RAE2256 CIG 004V009 SLP149 60007 T01940178 10211 20161 56005
94908KDBQ DBQ20070526180011505/26/07 18:00:31  5-MIN KDBQ 270000Z 20010KT 8SM BKN007 OVC014 19/18 A2998 1030 90 1800 200/10 RMK AO2 CIG 004V009
94908KDBQ DBQ20070526180511505/26/07 18:05:31  5-MIN KDBQ 270005Z 20010KT 9SM BKN007 OVC014 19/18 A2997 1030 90 1800 200/10 RMK AO2 CIG 004V010
94908KDBQ DBQ20070526181011505/26/07 18:10:31  5-MIN KDBQ 270010Z 21007KT 9SM BKN007 OVC014 19/18 A2997 1030 90 1800 210/07 RMK AO2 CIG 004V010
94908KDBQ DBQ20070526181511505/26/07 18:15:31  5-MIN KDBQ 270015Z 22010KT 9SM BKN007 OVC014 19/18 A2997 1030 90 1800 210/10 RMK AO2 CIG 005V010
94908KDBQ DBQ20070526182011505/26/07 18:20:31  5-MIN KDBQ 270020Z 22008KT 9SM BKN007 BKN014 19/18 A2997 1030 93 1800 220/08 RMK AO2 CIG 005V010
94908KDBQ DBQ20070526182510905/26/07 18:25:31  5-MIN KDBQ 270025Z 23010KT 10SM BKN007 19/18 A2997 1030 90 1800 230/10 RMK AO2 CIG 005V010
94908KDBQ DBQ20070526183010905/26/07 18:30:31  5-MIN KDBQ 270030Z 22008KT 10SM BKN007 19/17 A2997 1030 90 1800 220/08 RMK AO2 CIG 005V010
94908KDBQ DBQ20070526183509705/26/07 18:35:31  5-MIN KDBQ 270035Z 23008KT 10SM SCT007 19/17 A2997 1030 87 1800 230/08 RMK AO2
94908KDBQ DBQ20070526184009705/26/07 18:40:31  5-MIN KDBQ 270040Z 22006KT 10SM FEW007 19/17 A2997 1030 90 1800 220/06 RMK AO2
94908KDBQ DBQ20070526184509705/26/07 18:45:31  5-MIN KDBQ 270045Z 22008KT 10SM FEW007 19/17 A2998 1030 90 1800 220/08 RMK AO2
94908KDBQ DBQ20070526185011105/26/07 18:50:31  5-MIN KDBQ 270050Z 22007KT 10SM CLR 19/17 A2998 1030 87 1800 220/07 RMK AO2 SLP150 T01890167
94908KDBQ DBQ20070526185512105/26/07 18:55:31  5-MIN KDBQ 270055Z AUTO 23007KT 10SM CLR 18/17 A2998 1030 90 1700 220/07 RMK AO2 SLP150 T01830167 TSNO
94908KDBQ DBQ20070526190010405/26/07 19:00:31  5-MIN KDBQ 270100Z AUTO 22009KT 10SM CLR 18/17 A2998 1020 90 1700 220/09 RMK AO2 TSNO
94908KDBQ DBQ20070526190510705/26/07 19:05:31  5-MIN KDBQ 270105Z AUTO 22009KT 10SM FEW036 18/17 A2998 1020 90 1700 210/09 RMK AO2 TSNO
94908KDBQ DBQ20070526191010705/26/07 19:10:31  5-MIN KDBQ 270110Z AUTO 20006KT 10SM FEW036 18/17 A2998 1020 90 1700 200/06 RMK AO2 TSNO
94908KDBQ DBQ20070526191511405/26/07 19:15:31  5-MIN KDBQ 270115Z AUTO 21008KT 10SM FEW036 SCT080 18/17 A2998 1020 90 1700 210/08 RMK AO2 TSNO
94908KDBQ DBQ20070526192011305/26/07 19:20:31  5-MIN KDBQ 270120Z AUTO 21007KT 9SM FEW036 SCT080 18/17 A2998 1020 90 1700 210/07 RMK AO2 TSNO
94908KDBQ DBQ20070526192510605/26/07 19:25:31  5-MIN KDBQ 270125Z AUTO 20007KT 9SM FEW036 18/17 A2998 1020 93 1600 200/07 RMK AO2 TSNO
94908KDBQ DBQ20070526193010605/26/07 19:30:31  5-MIN KDBQ 270130Z AUTO 20006KT 9SM FEW036 18/17 A2998 1020 93 1600 200/06 RMK AO2 TSNO
94908KDBQ DBQ20070526193510605/26/07 19:35:31  5-MIN KDBQ 270135Z AUTO 20008KT 9SM FEW080 18/17 A2998 1020 93 1600 200/08 RMK AO2 TSNO
94908KDBQ DBQ20070526194010605/26/07 19:40:31  5-MIN KDBQ 270140Z AUTO 20008KT 9SM FEW080 17/16 A2998 1020 93 1600 200/08 RMK AO2 TSNO
94908KDBQ DBQ20070526194510305/26/07 19:45:31  5-MIN KDBQ 270145Z AUTO 20007KT 9SM CLR 17/16 A2998 1020 93 1600 200/07 RMK AO2 TSNO
94908KDBQ DBQ20070526195012105/26/07 19:50:31  5-MIN KDBQ 270150Z AUTO 20008KT 10SM CLR 17/16 A2998 1020 93 1600 200/08 RMK AO2 SLP151 T01720161 TSNO
94908KDBQ DBQ20070526195512105/26/07 19:55:31  5-MIN KDBQ 270155Z AUTO 20008KT 10SM CLR 17/16 A2998 1020 93 1600 200/08 RMK AO2 SLP151 T01720161 TSNO
94908KDBQ DBQ20070526200010405/26/07 20:00:31  5-MIN KDBQ 270200Z AUTO 21008KT 10SM CLR 17/16 A2998 1020 93 1600 200/08 RMK AO2 TSNO
94908KDBQ DBQ20070526200510405/26/07 20:05:31  5-MIN KDBQ 270205Z AUTO 20009KT 10SM CLR 17/16 A2998 1020 93 1600 200/09 RMK AO2 TSNO
94908KDBQ DBQ20070526201010305/26/07 20:10:31  5-MIN KDBQ 270210Z AUTO 20009KT 9SM CLR 17/16 A2998 1020 93 1600 200/09 RMK AO2 TSNO
94908KDBQ DBQ20070526201510305/26/07 20:15:31  5-MIN KDBQ 270215Z AUTO 20008KT 9SM CLR 17/16 A2998 1020 93 1600 200/08 RMK AO2 TSNO
94908KDBQ DBQ20070526202010605/26/07 20:20:31  5-MIN KDBQ 270220Z AUTO 20009KT 9SM SCT075 17/16 A2999 1020 93 1600 200/09 RMK AO2 TSNO
94908KDBQ DBQ20070526202510605/26/07 20:25:31  5-MIN KDBQ 270225Z AUTO 20008KT 8SM SCT075 17/16 A2999 1020 93 1600 200/08 RMK AO2 TSNO
94908KDBQ DBQ20070526203010605/26/07 20:30:31  5-MIN KDBQ 270230Z AUTO 20008KT 8SM SCT070 18/17 A2999 1020 93 1600 200/08 RMK AO2 TSNO
94908KDBQ DBQ20070526203510605/26/07 20:35:31  5-MIN KDBQ 270235Z AUTO 21008KT 8SM BKN070 18/17 A2999 1020 93 1600 210/08 RMK AO2 TSNO
94908KDBQ DBQ20070526204010605/26/07 20:40:31  5-MIN KDBQ 270240Z AUTO 21008KT 8SM BKN070 18/17 A2999 1010 93 1600 200/08 RMK AO2 TSNO
94908KDBQ DBQ20070526204510605/26/07 20:45:31  5-MIN KDBQ 270245Z AUTO 21009KT 7SM SCT070 18/17 A2999 1010 93 1600 210/09 RMK AO2 TSNO
94908KDBQ DBQ20070526205012905/26/07 20:50:31  5-MIN KDBQ 270250Z AUTO 21008KT 7SM FEW070 18/17 A2999 1010 93 1600 210/08 RMK AO2 SLP155 T01780167 56005 TSNO
94908KDBQ DBQ20070526205512905/26/07 20:55:31  5-MIN KDBQ 270255Z AUTO 21010KT 8SM SCT070 18/17 A2999 1010 93 1600 210/10 RMK AO2 SLP155 T01780167 53005 TSNO
94908KDBQ DBQ20070526210010605/26/07 21:00:31  5-MIN KDBQ 270300Z AUTO 21008KT 8SM BKN070 18/17 A2999 1010 93 1600 210/08 RMK AO2 TSNO
94908KDBQ DBQ20070526210510605/26/07 21:05:31  5-MIN KDBQ 270305Z AUTO 21009KT 8SM SCT070 18/17 A2999 1010 93 1600 210/09 RMK AO2 TSNO
94908KDBQ DBQ20070526211010605/26/07 21:10:31  5-MIN KDBQ 270310Z AUTO 21008KT 8SM SCT070 17/16 A3000 1010 93 1500 210/08 RMK AO2 TSNO
94908KDBQ DBQ20070526211510605/26/07 21:15:31  5-MIN KDBQ 270315Z AUTO 21008KT 8SM FEW070 17/16 A3000 1000 93 1500 210/08 RMK AO2 TSNO
94908KDBQ DBQ20070526212010605/26/07 21:20:31  5-MIN KDBQ 270320Z AUTO 21008KT 8SM FEW070 17/16 A3000 1000 93 1500 210/08 RMK AO2 TSNO
94908KDBQ DBQ20070526212510605/26/07 21:25:31  5-MIN KDBQ 270325Z AUTO 21008KT 8SM FEW070 17/16 A3000 1000 93 1500 210/08 RMK AO2 TSNO
94908KDBQ DBQ20070526213010305/26/07 21:30:31  5-MIN KDBQ 270330Z AUTO 21007KT 8SM CLR 17/16 A3000 1000 93 1500 210/07 RMK AO2 TSNO
94908KDBQ DBQ20070526213510305/26/07 21:35:31  5-MIN KDBQ 270335Z AUTO 21008KT 8SM CLR 17/16 A3000 1000 93 1500 210/08 RMK AO2 TSNO
94908KDBQ DBQ20070526214010305/26/07 21:40:31  5-MIN KDBQ 270340Z AUTO 22008KT 8SM CLR 17/16 A3000 1000 93 1500 220/08 RMK AO2 TSNO
94908KDBQ DBQ20070526214510305/26/07 21:45:31  5-MIN KDBQ 270345Z AUTO 22007KT 8SM CLR 17/16 A3001 1000 93 1500 220/07 RMK AO2 TSNO
94908KDBQ DBQ20070526215012005/26/07 21:50:31  5-MIN KDBQ 270350Z AUTO 23006KT 7SM CLR 17/16 A3001 1000 93 1500 230/06 RMK AO2 SLP160 T01720161 TSNO
94908KDBQ DBQ20070526215512005/26/07 21:55:31  5-MIN KDBQ 270355Z AUTO 23006KT 7SM CLR 17/16 A3001 1000 96 1500 230/06 RMK AO2 SLP160 T01670161 TSNO
94908KDBQ DBQ20070526220010305/26/07 22:00:31  5-MIN KDBQ 270400Z AUTO 23006KT 7SM CLR 17/16 A3000 1000 93 1500 230/06 RMK AO2 TSNO
94908KDBQ DBQ20070526220510305/26/07 22:05:31  5-MIN KDBQ 270405Z AUTO 23007KT 7SM CLR 17/16 A3000 1000 93 1500 230/07 RMK AO2 TSNO
94908KDBQ DBQ20070526221010305/26/07 22:10:31  5-MIN KDBQ 270410Z AUTO 23006KT 7SM CLR 17/16 A3000 1000 93 1500 230/06 RMK AO2 TSNO
94908KDBQ DBQ20070526221510305/26/07 22:15:31  5-MIN KDBQ 270415Z AUTO 24006KT 7SM CLR 17/16 A3000 1000 93 1500 240/06 RMK AO2 TSNO
94908KDBQ DBQ20070526222010305/26/07 22:20:31  5-MIN KDBQ 270420Z AUTO 24006KT 7SM CLR 17/16 A3000 1000 93 1500 240/06 RMK AO2 TSNO
94908KDBQ DBQ20070526222510305/26/07 22:25:31  5-MIN KDBQ 270425Z AUTO 24007KT 7SM CLR 17/16 A3000 1000 93 1500 240/07 RMK AO2 TSNO
94908KDBQ DBQ20070526223010305/26/07 22:30:31  5-MIN KDBQ 270430Z AUTO 25007KT 7SM CLR 17/16 A3000 1010 93 1500 250/07 RMK AO2 TSNO
94908KDBQ DBQ20070526223510305/26/07 22:35:31  5-MIN KDBQ 270435Z AUTO 25007KT 8SM CLR 17/16 A3000 1010 90 1500 250/07 RMK AO2 TSNO
94908KDBQ DBQ20070526224010305/26/07 22:40:31  5-MIN KDBQ 270440Z AUTO 26008KT 8SM CLR 17/16 A3000 1000 93 1500 260/08 RMK AO2 TSNO
94908KDBQ DBQ20070526224510305/26/07 22:45:31  5-MIN KDBQ 270445Z AUTO 26011KT 8SM CLR 17/16 A3000 1000 90 1500 260/11 RMK AO2 TSNO
94908KDBQ DBQ20070526225012005/26/07 22:50:31  5-MIN KDBQ 270450Z AUTO 26008KT 9SM CLR 17/15 A3000 1000 87 1500 260/08 RMK AO2 SLP158 T01720150 TSNO
94908KDBQ DBQ20070526225512105/26/07 22:55:31  5-MIN KDBQ 270455Z AUTO 26008KT 10SM CLR 17/15 A3000 1000 87 1500 260/08 RMK AO2 SLP159 T01720150 TSNO
94908KDBQ DBQ20070526230010305/26/07 23:00:31  5-MIN KDBQ 270500Z AUTO 26008KT 9SM CLR 17/15 A3001 1000 87 1500 260/08 RMK AO2 TSNO
94908KDBQ DBQ20070526230510305/26/07 23:05:31  5-MIN KDBQ 270505Z AUTO 26008KT 9SM CLR 17/15 A3001 1000 90 1500 260/08 RMK AO2 TSNO
94908KDBQ DBQ20070526231010305/26/07 23:10:31  5-MIN KDBQ 270510Z AUTO 27009KT 9SM CLR 17/14 A3001 1000 86 1500 260/09 RMK AO2 TSNO
94908KDBQ DBQ20070526231510405/26/07 23:15:31  5-MIN KDBQ 270515Z AUTO 27009KT 10SM CLR 17/14 A3001 1000 86 1500 270/09 RMK AO2 TSNO
94908KDBQ DBQ20070526232010405/26/07 23:20:31  5-MIN KDBQ 270520Z AUTO 28009KT 10SM CLR 17/14 A3001 1000 83 1500 270/09 RMK AO2 TSNO
94908KDBQ DBQ20070526232510305/26/07 23:25:31  5-MIN KDBQ 270525Z AUTO 28010KT 10SM CLR 16/13 A3001 990 83 1400 280/10 RMK AO2 TSNO
94908KDBQ DBQ20070526233010305/26/07 23:30:31  5-MIN KDBQ 270530Z AUTO 28009KT 10SM CLR 16/13 A3001 990 80 1400 280/09 RMK AO2 TSNO
94908KDBQ DBQ20070526233510305/26/07 23:35:31  5-MIN KDBQ 270535Z AUTO 28008KT 10SM CLR 16/13 A3001 990 80 1400 280/08 RMK AO2 TSNO
94908KDBQ DBQ20070526234010305/26/07 23:40:31  5-MIN KDBQ 270540Z AUTO 29006KT 10SM CLR 16/12 A3001 990 80 1300 290/06 RMK AO2 TSNO
94908KDBQ DBQ20070526234510605/26/07 23:45:31  5-MIN KDBQ 270545Z AUTO 28007KT 10SM FEW041 16/12 A3002 990 80 1300 280/07 RMK AO2 TSNO
94908KDBQ DBQ20070526235015105/26/07 23:50:31  5-MIN KDBQ 270550Z AUTO 29006KT 10SM FEW041 16/12 A3002 990 80 1300 290/06 RMK AO2 SLP164 T01560122 10194 20156 402110128 53005 TSNO
94908KDBQ DBQ20070526235515105/26/07 23:55:31  5-MIN KDBQ 270555Z AUTO 29006KT 10SM FEW041 15/12 A3002 990 83 1300 290/06 RMK AO2 SLP163 T01500122 10194 20150 402110128 51008 TSNO
94908KDBQ DBQ20070527000010605/27/07 00:00:38  5-MIN KDBQ 270600Z AUTO 29006KT 10SM FEW041 14/12 A3002 990 83 1200 290/06 RMK AO2 TSNO
94908KDBQ DBQ20070527000510605/27/07 00:05:31  5-MIN KDBQ 270605Z AUTO 29006KT 10SM FEW041 14/12 A3001 990 83 1200 290/06 RMK AO2 TSNO
94908KDBQ DBQ20070527001010605/27/07 00:10:31  5-MIN KDBQ 270610Z AUTO 30006KT 10SM FEW041 14/11 A3002 990 80 1200 300/06 RMK AO2 TSNO
94908KDBQ DBQ20070527001510305/27/07 00:15:33  5-MIN KDBQ 270615Z AUTO 30006KT 10SM CLR 14/11 A3002 990 80 1100 300/06 RMK AO2 TSNO
94908KDBQ DBQ20070527002010305/27/07 00:20:31  5-MIN KDBQ 270620Z AUTO 30006KT 10SM CLR 14/10 A3002 990 77 1100 300/06 RMK AO2 TSNO
94908KDBQ DBQ20070527002510305/27/07 00:25:31  5-MIN KDBQ 270625Z AUTO 30005KT 10SM CLR 14/10 A3002 990 77 1100 300/05 RMK AO2 TSNO
94908KDBQ DBQ20070527003010305/27/07 00:30:31  5-MIN KDBQ 270630Z AUTO 30005KT 10SM CLR 13/10 A3002 990 80 1100 300/05 RMK AO2 TSNO
94908KDBQ DBQ20070527003510305/27/07 00:35:31  5-MIN KDBQ 270635Z AUTO 30006KT 10SM CLR 13/09 A3002 980 77 1100 300/06 RMK AO2 TSNO
94908KDBQ DBQ20070527004010305/27/07 00:40:31  5-MIN KDBQ 270640Z AUTO 30006KT 10SM CLR 13/09 A3002 980 77 1100 300/06 RMK AO2 TSNO
94908KDBQ DBQ20070527004510305/27/07 00:45:31  5-MIN KDBQ 270645Z AUTO 31006KT 10SM CLR 13/09 A3002 980 80 1000 310/06 RMK AO2 TSNO
94908KDBQ DBQ20070527005012005/27/07 00:50:31  5-MIN KDBQ 270650Z AUTO 32004KT 10SM CLR 13/09 A3002 980 80 1000 310/04 RMK AO2 SLP166 T01280094 TSNO
94908KDBQ DBQ20070527005511905/27/07 00:55:31  5-MIN KDBQ 270655Z AUTO 32004KT 10SM CLR 12/09 A3002 990 83 900 320/04 RMK AO2 SLP166 T01220094 TSNO
94908KDBQ DBQ20070527010010205/27/07 01:00:31  5-MIN KDBQ 270700Z AUTO 33004KT 10SM CLR 12/09 A3002 990 83 900 330/04 RMK AO2 TSNO
94908KDBQ DBQ20070527010510205/27/07 01:05:31  5-MIN KDBQ 270705Z AUTO 32005KT 10SM CLR 12/09 A3002 990 80 900 320/05 RMK AO2 TSNO
94908KDBQ DBQ20070527011010205/27/07 01:10:31  5-MIN KDBQ 270710Z AUTO 32006KT 10SM CLR 12/09 A3002 980 80 900 320/06 RMK AO2 TSNO
94908KDBQ DBQ20070527011510205/27/07 01:15:31  5-MIN KDBQ 270715Z AUTO 32006KT 10SM CLR 12/08 A3002 980 77 900 320/06 RMK AO2 TSNO
94908KDBQ DBQ20070527012010905/27/07 01:20:31  5-MIN KDBQ 270720Z AUTO 32011G15KT 10SM CLR 13/08 A3002 980 74 1000 320/11G15 RMK AO2 TSNO
94908KDBQ DBQ20070527012510205/27/07 01:25:31  5-MIN KDBQ 270725Z AUTO 32009KT 10SM CLR 12/08 A3003 980 74 900 320/09 RMK AO2 TSNO
94908KDBQ DBQ20070527013010205/27/07 01:30:31  5-MIN KDBQ 270730Z AUTO 32011KT 10SM CLR 12/08 A3003 980 74 900 320/11 RMK AO2 TSNO
94908KDBQ DBQ20070527013510205/27/07 01:35:31  5-MIN KDBQ 270735Z AUTO 32011KT 10SM CLR 12/08 A3003 980 74 900 320/11 RMK AO2 TSNO
94908KDBQ DBQ20070527014010205/27/07 01:40:31  5-MIN KDBQ 270740Z AUTO 32009KT 10SM CLR 12/08 A3003 980 74 900 320/09 RMK AO2 TSNO
94908KDBQ DBQ20070527014510205/27/07 01:45:31  5-MIN KDBQ 270745Z AUTO 32010KT 10SM CLR 12/08 A3003 970 77 800 320/10 RMK AO2 TSNO
94908KDBQ DBQ20070527015011905/27/07 01:50:31  5-MIN KDBQ 270750Z AUTO 32009KT 10SM CLR 12/07 A3004 970 74 800 320/09 RMK AO2 SLP170 T01170072 TSNO
94908KDBQ DBQ20070527015511905/27/07 01:55:31  5-MIN KDBQ 270755Z AUTO 32007KT 10SM CLR 12/07 A3004 970 74 800 320/07 RMK AO2 SLP170 T01170072 TSNO
94908KDBQ DBQ20070527020010205/27/07 02:00:31  5-MIN KDBQ 270800Z AUTO 32008KT 10SM CLR 11/07 A3004 970 77 800 320/08 RMK AO2 TSNO
94908KDBQ DBQ20070527020510205/27/07 02:05:31  5-MIN KDBQ 270805Z AUTO 32007KT 10SM CLR 11/07 A3004 970 77 800 320/07 RMK AO2 TSNO
94908KDBQ DBQ20070527021010205/27/07 02:10:31  5-MIN KDBQ 270810Z AUTO 32008KT 10SM CLR 11/07 A3004 970 77 800 320/08 RMK AO2 TSNO
94908KDBQ DBQ20070527021510205/27/07 02:15:31  5-MIN KDBQ 270815Z AUTO 32010KT 10SM CLR 11/07 A3004 970 77 800 320/10 RMK AO2 TSNO
94908KDBQ DBQ20070527022010205/27/07 02:20:31  5-MIN KDBQ 270820Z AUTO 32010KT 10SM CLR 11/07 A3004 970 77 800 320/10 RMK AO2 TSNO
94908KDBQ DBQ20070527022510205/27/07 02:25:31  5-MIN KDBQ 270825Z AUTO 32009KT 10SM CLR 11/07 A3004 970 77 800 320/09 RMK AO2 TSNO
94908KDBQ DBQ20070527023010205/27/07 02:30:31  5-MIN KDBQ 270830Z AUTO 33010KT 10SM CLR 11/07 A3004 960 77 800 330/10 RMK AO2 TSNO
94908KDBQ DBQ20070527023510205/27/07 02:35:31  5-MIN KDBQ 270835Z AUTO 33008KT 10SM CLR 11/07 A3004 970 77 700 330/08 RMK AO2 TSNO
94908KDBQ DBQ20070527024010205/27/07 02:40:31  5-MIN KDBQ 270840Z AUTO 34009KT 10SM CLR 11/07 A3004 960 77 700 340/09 RMK AO2 TSNO
94908KDBQ DBQ20070527024510805/27/07 02:45:31  5-MIN KDBQ 270845Z AUTO 33014G17KT 10SM CLR 11/06 A3005 960 74 700 330/14G17 RMK AO2 TSNO
94908KDBQ DBQ20070527025013105/27/07 02:50:31  5-MIN KDBQ 270850Z AUTO 33012G17KT 10SM CLR 11/06 A3005 960 74 700 330/12G17 RMK AO2 SLP174 T01060061 51008 TSNO
94908KDBQ DBQ20070527025512505/27/07 02:55:31  5-MIN KDBQ 270855Z AUTO 33013KT 10SM CLR 11/06 A3005 960 74 700 330/13 RMK AO2 SLP174 T01060061 53010 TSNO
94908KDBQ DBQ20070527030010205/27/07 03:00:31  5-MIN KDBQ 270900Z AUTO 33012KT 10SM CLR 11/06 A3005 960 71 700 330/12 RMK AO2 TSNO
94908KDBQ DBQ20070527030510205/27/07 03:05:31  5-MIN KDBQ 270905Z AUTO 33011KT 10SM CLR 10/06 A3005 960 74 600 330/11 RMK AO2 TSNO
94908KDBQ DBQ20070527031010205/27/07 03:10:31  5-MIN KDBQ 270910Z AUTO 33010KT 10SM CLR 10/06 A3005 960 74 600 330/10 RMK AO2 TSNO
94908KDBQ DBQ20070527031510205/27/07 03:15:31  5-MIN KDBQ 270915Z AUTO 33008KT 10SM CLR 10/06 A3006 950 74 600 330/08 RMK AO2 TSNO
94908KDBQ DBQ20070527032010205/27/07 03:20:31  5-MIN KDBQ 270920Z AUTO 33007KT 10SM CLR 09/06 A3006 950 76 600 330/07 RMK AO2 TSNO
94908KDBQ DBQ20070527032510205/27/07 03:25:31  5-MIN KDBQ 270925Z AUTO 33011KT 10SM CLR 10/05 A3006 950 71 600 330/11 RMK AO2 TSNO
94908KDBQ DBQ20070527033010205/27/07 03:30:31  5-MIN KDBQ 270930Z AUTO 32008KT 10SM CLR 09/05 A3006 950 74 600 320/08 RMK AO2 TSNO
94908KDBQ DBQ20070527033510205/27/07 03:35:31  5-MIN KDBQ 270935Z AUTO 33009KT 10SM CLR 09/05 A3006 950 74 600 330/09 RMK AO2 TSNO
94908KDBQ DBQ20070527034010205/27/07 03:40:31  5-MIN KDBQ 270940Z AUTO 33008KT 10SM CLR 09/05 A3006 950 74 500 330/08 RMK AO2 TSNO
94908KDBQ DBQ20070527034510205/27/07 03:45:31  5-MIN KDBQ 270945Z AUTO 33011KT 10SM CLR 09/04 A3006 950 71 500 330/11 RMK AO2 TSNO
94908KDBQ DBQ20070527035011905/27/07 03:50:31  5-MIN KDBQ 270950Z AUTO 33009KT 10SM CLR 09/04 A3006 950 71 500 330/09 RMK AO2 SLP181 T00940044 TSNO
94908KDBQ DBQ20070527035511905/27/07 03:55:31  5-MIN KDBQ 270955Z AUTO 34008KT 10SM CLR 09/04 A3006 950 71 500 340/08 RMK AO2 SLP181 T00940044 TSNO
94908KDBQ DBQ20070527040010205/27/07 04:00:31  5-MIN KDBQ 271000Z AUTO 34007KT 10SM CLR 09/04 A3007 940 73 500 340/07 RMK AO2 TSNO
94908KDBQ DBQ20070527040510205/27/07 04:05:31  5-MIN KDBQ 271005Z AUTO 33007KT 10SM CLR 09/04 A3007 940 71 500 330/07 RMK AO2 TSNO
94908KDBQ DBQ20070527041010205/27/07 04:10:31  5-MIN KDBQ 271010Z AUTO 33008KT 10SM CLR 09/04 A3007 940 73 500 330/08 RMK AO2 TSNO
94908KDBQ DBQ20070527041510205/27/07 04:15:31  5-MIN KDBQ 271015Z AUTO 34008KT 10SM CLR 09/04 A3007 940 73 500 330/08 RMK AO2 TSNO
94908KDBQ DBQ20070527042010205/27/07 04:20:31  5-MIN KDBQ 271020Z AUTO 34006KT 10SM CLR 09/04 A3007 940 73 500 340/06 RMK AO2 TSNO
94908KDBQ DBQ20070527042510205/27/07 04:25:31  5-MIN KDBQ 271025Z AUTO 34007KT 10SM CLR 09/04 A3007 940 73 500 340/07 RMK AO2 TSNO
94908KDBQ DBQ20070527043010205/27/07 04:30:31  5-MIN KDBQ 271030Z AUTO 34007KT 10SM CLR 09/04 A3007 940 73 500 340/07 RMK AO2 TSNO
94908KDBQ DBQ20070527043509205/27/07 04:35:31  5-MIN KDBQ 271035Z 34007KT 10SM CLR 09/04 A3008 930 73 500 340/07 RMK AO2
94908KDBQ DBQ20070527044009205/27/07 04:40:31  5-MIN KDBQ 271040Z 34009KT 10SM CLR 08/04 A3008 930 76 400 340/09 RMK AO2
94908KDBQ DBQ20070527051009205/27/07 05:10:31  5-MIN KDBQ 271110Z 34007KT 10SM CLR 09/04 A3009 920 73 400 340/07 RMK AO2
94908KDBQ DBQ20070527051509205/27/07 05:15:31  5-MIN KDBQ 271115Z 34005KT 10SM CLR 09/04 A3009 920 73 400 340/05 RMK AO2
94908KDBQ DBQ20070527052009205/27/07 05:20:31  5-MIN KDBQ 271120Z 33005KT 10SM CLR 09/04 A3009 920 73 400 330/05 RMK AO2
94908KDBQ DBQ20070527052509205/27/07 05:25:31  5-MIN KDBQ 271125Z 33005KT 10SM CLR 09/04 A3010 920 73 400 330/05 RMK AO2
94908KDBQ DBQ20070527053009205/27/07 05:30:31  5-MIN KDBQ 271130Z 33004KT 10SM CLR 09/04 A3010 920 73 400 330/04 RMK AO2
94908KDBQ DBQ20070527053509205/27/07 05:35:31  5-MIN KDBQ 271135Z 33007KT 10SM CLR 09/05 A3010 910 74 500 330/07 RMK AO2
94908KDBQ DBQ20070527054009205/27/07 05:40:31  5-MIN KDBQ 271140Z 33009KT 10SM CLR 09/04 A3010 920 71 500 330/09 RMK AO2
94908KDBQ DBQ20070527054509205/27/07 05:45:31  5-MIN KDBQ 271145Z 33009KT 10SM CLR 09/04 A3010 920 71 500 330/09 RMK AO2
94908KDBQ DBQ20070527055013305/27/07 05:50:31  5-MIN KDBQ 271150Z 33009KT 10SM CLR 09/04 A3010 920 71 500 330/09 RMK AO2 SLP192 70010 T00940044 10150 20083 53010
94908KDBQ DBQ20070527055513305/27/07 05:55:31  5-MIN KDBQ 271155Z 32008KT 10SM CLR 10/04 A3010 920 68 600 320/08 RMK AO2 SLP192 70010 T01000044 10150 20083 51016
94908KDBQ DBQ20070527060009205/27/07 06:00:31  5-MIN KDBQ 271200Z 33007KT 10SM CLR 10/05 A3010 910 71 600 330/07 RMK AO2
94908KDBQ DBQ20070527060509205/27/07 06:05:31  5-MIN KDBQ 271205Z 33008KT 10SM CLR 10/04 A3010 910 68 600 330/08 RMK AO2
94908KDBQ DBQ20070527061009205/27/07 06:10:31  5-MIN KDBQ 271210Z 33007KT 10SM CLR 10/05 A3010 910 71 600 330/07 RMK AO2
94908KDBQ DBQ20070527061509205/27/07 06:15:31  5-MIN KDBQ 271215Z 33008KT 10SM CLR 10/05 A3010 910 71 600 330/08 RMK AO2
94908KDBQ DBQ20070527062009205/27/07 06:20:31  5-MIN KDBQ 271220Z 33009KT 10SM CLR 10/05 A3010 910 71 600 330/09 RMK AO2
94908KDBQ DBQ20070527062509205/27/07 06:25:31  5-MIN KDBQ 271225Z 33007KT 10SM CLR 11/05 A3010 910 68 600 320/07 RMK AO2
94908KDBQ DBQ20070527063009205/27/07 06:30:31  5-MIN KDBQ 271230Z 33010KT 10SM CLR 11/05 A3011 910 68 600 330/10 RMK AO2
94908KDBQ DBQ20070527063509205/27/07 06:35:31  5-MIN KDBQ 271235Z 32008KT 10SM CLR 11/05 A3011 910 68 600 320/08 RMK AO2
94908KDBQ DBQ20070527064009205/27/07 06:40:31  5-MIN KDBQ 271240Z 33007KT 10SM CLR 11/05 A3011 910 68 600 330/07 RMK AO2
94908KDBQ DBQ20070527064509205/27/07 06:45:31  5-MIN KDBQ 271245Z 33008KT 10SM CLR 11/05 A3011 910 66 700 330/08 RMK AO2
94908KDBQ DBQ20070527065010905/27/07 06:50:31  5-MIN KDBQ 271250Z 33008KT 10SM CLR 11/05 A3011 900 66 700 330/08 RMK AO2 SLP197 T01110050
94908KDBQ DBQ20070527065510905/27/07 06:55:31  5-MIN KDBQ 271255Z 32009KT 10SM CLR 11/05 A3011 900 66 700 320/09 RMK AO2 SLP197 T01110050
94908KDBQ DBQ20070527070009205/27/07 07:00:31  5-MIN KDBQ 271300Z 31008KT 10SM CLR 11/05 A3011 900 66 700 310/08 RMK AO2
94908KDBQ DBQ20070527070509205/27/07 07:05:31  5-MIN KDBQ 271305Z 33009KT 10SM CLR 11/05 A3011 900 66 700 330/09 RMK AO2
94908KDBQ DBQ20070527071009205/27/07 07:10:31  5-MIN KDBQ 271310Z 33009KT 10SM CLR 12/05 A3011 900 63 800 330/09 RMK AO2
94908KDBQ DBQ20070527071509205/27/07 07:15:31  5-MIN KDBQ 271315Z 32007KT 10SM CLR 12/05 A3011 900 63 800 320/07 RMK AO2
94908KDBQ DBQ20070527072009205/27/07 07:20:31  5-MIN KDBQ 271320Z 31007KT 10SM CLR 12/06 A3011 900 63 800 310/07 RMK AO2
94908KDBQ DBQ20070527072509205/27/07 07:25:31  5-MIN KDBQ 271325Z 31008KT 10SM CLR 12/05 A3011 900 61 800 310/08 RMK AO2
94908KDBQ DBQ20070527073009205/27/07 07:30:31  5-MIN KDBQ 271330Z 32010KT 10SM CLR 12/05 A3011 900 61 800 320/10 RMK AO2
94908KDBQ DBQ20070527073509205/27/07 07:35:31  5-MIN KDBQ 271335Z 33010KT 10SM CLR 12/05 A3012 900 61 800 330/10 RMK AO2
94908KDBQ DBQ20070527074009205/27/07 07:40:31  5-MIN KDBQ 271340Z 33008KT 10SM CLR 12/05 A3012 900 61 800 330/08 RMK AO2
94908KDBQ DBQ20070527074509205/27/07 07:45:31  5-MIN KDBQ 271345Z 31008KT 10SM CLR 13/06 A3012 900 61 900 310/08 RMK AO2
94908KDBQ DBQ20070527075010905/27/07 07:50:31  5-MIN KDBQ 271350Z 32011KT 10SM CLR 13/06 A3012 900 61 900 320/11 RMK AO2 SLP199 T01280056
94908KDBQ DBQ20070527075510905/27/07 07:55:31  5-MIN KDBQ 271355Z 32009KT 10SM CLR 13/05 A3012 900 59 900 320/09 RMK AO2 SLP199 T01280050
94908KDBQ DBQ20070527080009205/27/07 08:00:31  5-MIN KDBQ 271400Z 32007KT 10SM CLR 13/05 A3012 900 59 900 320/07 RMK AO2
94908KDBQ DBQ20070527080509205/27/07 08:05:31  5-MIN KDBQ 271405Z 33010KT 10SM CLR 13/06 A3012 900 59 900 330/10 RMK AO2
94908KDBQ DBQ20070527081009305/27/07 08:10:31  5-MIN KDBQ 271410Z 34008KT 10SM CLR 13/05 A3012 900 57 1000 340/08 RMK AO2
94908KDBQ DBQ20070527081509305/27/07 08:15:31  5-MIN KDBQ 271415Z 32009KT 10SM CLR 13/05 A3011 900 57 1000 320/09 RMK AO2
94908KDBQ DBQ20070527082009305/27/07 08:20:31  5-MIN KDBQ 271420Z 30010KT 10SM CLR 13/05 A3012 900 57 1000 300/10 RMK AO2
94908KDBQ DBQ20070527082509205/27/07 08:25:31  5-MIN KDBQ 271425Z 31009KT 10SM CLR 13/05 A3012 900 57 900 310/09 RMK AO2
94908KDBQ DBQ20070527083009305/27/07 08:30:31  5-MIN KDBQ 271430Z 33010KT 10SM CLR 14/05 A3012 900 55 1000 330/10 RMK AO2
94908KDBQ DBQ20070527083509305/27/07 08:35:31  5-MIN KDBQ 271435Z 33008KT 10SM CLR 14/05 A3012 900 55 1000 330/08 RMK AO2
94908KDBQ DBQ20070527084009305/27/07 08:40:31  5-MIN KDBQ 271440Z 31007KT 10SM CLR 14/06 A3012 900 55 1100 310/07 RMK AO2
94908KDBQ DBQ20070527084509305/27/07 08:45:31  5-MIN KDBQ 271445Z 31010KT 10SM CLR 14/05 A3012 890 53 1100 310/10 RMK AO2
94908KDBQ DBQ20070527085011605/27/07 08:50:31  5-MIN KDBQ 271450Z 33010KT 10SM CLR 14/04 A3012 890 51 1100 330/10 RMK AO2 SLP199 T01440044 51016
94908KDBQ DBQ20070527085511605/27/07 08:55:31  5-MIN KDBQ 271455Z 33012KT 10SM CLR 14/04 A3012 890 49 1100 330/12 RMK AO2 SLP200 T01440039 51008
94908KDBQ DBQ20070527090009305/27/07 09:00:31  5-MIN KDBQ 271500Z 33010KT 10SM CLR 14/04 A3012 890 51 1100 330/10 RMK AO2
94908KDBQ DBQ20070527090509305/27/07 09:05:31  5-MIN KDBQ 271505Z 31007KT 10SM CLR 14/04 A3012 890 51 1100 310/07 RMK AO2
94908KDBQ DBQ20070527091009305/27/07 09:10:31  5-MIN KDBQ 271510Z 30008KT 10SM CLR 15/05 A3012 890 51 1100 300/08 RMK AO2
94908KDBQ DBQ20070527091509305/27/07 09:15:31  5-MIN KDBQ 271515Z 29009KT 10SM CLR 15/05 A3012 900 51 1100 290/09 RMK AO2
94908KDBQ DBQ20070527092009305/27/07 09:20:31  5-MIN KDBQ 271520Z 30008KT 10SM CLR 15/04 A3012 890 49 1100 300/08 RMK AO2
94908KDBQ DBQ20070527092509305/27/07 09:25:31  5-MIN KDBQ 271525Z 30009KT 10SM CLR 15/04 A3012 890 49 1100 300/09 RMK AO2
94908KDBQ DBQ20070527093009305/27/07 09:30:31  5-MIN KDBQ 271530Z 30007KT 10SM CLR 15/04 A3012 890 49 1100 300/07 RMK AO2
94908KDBQ DBQ20070527093509305/27/07 09:35:31  5-MIN KDBQ 271535Z 29007KT 10SM CLR 15/05 A3012 890 51 1100 290/07 RMK AO2
94908KDBQ DBQ20070527094009305/27/07 09:40:31  5-MIN KDBQ 271540Z 30007KT 10SM CLR 15/05 A3012 890 51 1100 300/07 RMK AO2
94908KDBQ DBQ20070527094509305/27/07 09:45:31  5-MIN KDBQ 271545Z VRB05KT 10SM CLR 16/05 A3012 890 49 1200 VRB/05 RMK AO2
94908KDBQ DBQ20070527095011005/27/07 09:50:31  5-MIN KDBQ 271550Z 29008KT 10SM CLR 16/05 A3012 890 49 1200 290/08 RMK AO2 SLP198 T01560050
94908KDBQ DBQ20070527095511005/27/07 09:55:31  5-MIN KDBQ 271555Z 28008KT 10SM CLR 16/05 A3012 890 47 1300 280/08 RMK AO2 SLP199 T01610050
94908KDBQ DBQ20070527100009305/27/07 10:00:31  5-MIN KDBQ 271600Z 32008KT 10SM CLR 16/04 A3012 890 45 1300 310/08 RMK AO2
94908KDBQ DBQ20070527100509305/27/07 10:05:31  5-MIN KDBQ 271605Z 31009KT 10SM CLR 17/05 A3012 890 45 1300 310/09 RMK AO2
94908KDBQ DBQ20070527101009305/27/07 10:10:31  5-MIN KDBQ 271610Z 28006KT 10SM CLR 17/05 A3012 890 45 1300 280/06 RMK AO2
94908KDBQ DBQ20070527101509305/27/07 10:15:31  5-MIN KDBQ 271615Z 27009KT 10SM CLR 16/05 A3012 890 47 1300 270/09 RMK AO2
94908KDBQ DBQ20070527102009305/27/07 10:20:31  5-MIN KDBQ 271620Z 27010KT 10SM CLR 17/05 A3012 890 45 1300 270/10 RMK AO2
94908KDBQ DBQ20070527102509905/27/07 10:25:31  5-MIN KDBQ 271625Z 31007G17KT 10SM CLR 17/05 A3012 890 45 1300 310/07G17 RMK AO2
94908KDBQ DBQ20070527103009905/27/07 10:30:31  5-MIN KDBQ 271630Z 30008G17KT 10SM CLR 17/05 A3012 890 44 1400 300/08G17 RMK AO2
94908KDBQ DBQ20070527103509305/27/07 10:35:31  5-MIN KDBQ 271635Z 28009KT 10SM CLR 17/04 A3012 890 42 1400 280/09 RMK AO2
94908KDBQ DBQ20070527104009305/27/07 10:40:31  5-MIN KDBQ 271640Z 30010KT 10SM CLR 17/04 A3012 890 42 1400 300/10 RMK AO2
94908KDBQ DBQ20070527104509305/27/07 10:45:31  5-MIN KDBQ 271645Z 29009KT 10SM CLR 17/03 A3012 890 39 1400 290/09 RMK AO2
94908KDBQ DBQ20070527105011005/27/07 10:50:31  5-MIN KDBQ 271650Z 30008KT 10SM CLR 17/04 A3012 900 42 1400 300/08 RMK AO2 SLP197 T01720044
94908KDBQ DBQ20070527105511005/27/07 10:55:31  5-MIN KDBQ 271655Z 27008KT 10SM CLR 18/04 A3012 890 41 1500 270/08 RMK AO2 SLP197 T01780044
94908KDBQ DBQ20070527110009905/27/07 11:00:31  5-MIN KDBQ 271700Z 28010G14KT 10SM CLR 17/04 A3012 890 42 1400 280/10G14 RMK AO2
94908KDBQ DBQ20070527110509905/27/07 11:05:31  5-MIN KDBQ 271705Z 30007G14KT 10SM CLR 17/04 A3012 900 42 1400 290/07G14 RMK AO2
94908KDBQ DBQ20070527111009305/27/07 11:10:31  5-MIN KDBQ 271710Z 27009KT 10SM CLR 18/05 A3012 890 42 1500 270/09 RMK AO2
94908KDBQ DBQ20070527111509305/27/07 11:15:31  5-MIN KDBQ 271715Z 31007KT 10SM CLR 18/05 A3012 890 42 1500 310/07 RMK AO2
94908KDBQ DBQ20070527112009305/27/07 11:20:31  5-MIN KDBQ 271720Z 27010KT 10SM CLR 18/05 A3012 900 42 1500 270/10 RMK AO2
94908KDBQ DBQ20070527112509305/27/07 11:25:31  5-MIN KDBQ 271725Z 27012KT 10SM CLR 18/05 A3012 890 42 1500 270/12 RMK AO2
94908KDBQ DBQ20070527113009305/27/07 11:30:31  5-MIN KDBQ 271730Z 27011KT 10SM CLR 18/05 A3012 890 42 1500 270/11 RMK AO2
94908KDBQ DBQ20070527113510905/27/07 11:35:31  5-MIN KDBQ 271735Z 27009KT 240V320 10SM CLR 18/06 A3012 890 42 1500 270/09 240V320 RMK AO2
94908KDBQ DBQ20070527114009305/27/07 11:40:31  5-MIN KDBQ 271740Z 29008KT 10SM CLR 19/04 A3012 890 38 1600 290/08 RMK AO2
94908KDBQ DBQ20070527114510905/27/07 11:45:31  5-MIN KDBQ 271745Z 27007KT 250V310 10SM CLR 18/06 A3012 890 42 1500 270/07 250V310 RMK AO2
94908KDBQ DBQ20070527115013405/27/07 11:50:31  5-MIN KDBQ 271750Z 27013G18KT 10SM CLR 19/06 A3012 900 43 1600 270/13G18 RMK AO2 SLP197 T01890061 10189 20100 51008
94908KDBQ DBQ20070527115513405/27/07 11:55:31  5-MIN KDBQ 271755Z 27010G18KT 10SM CLR 19/06 A3012 900 43 1600 270/10G18 RMK AO2 SLP197 T01890061 10189 20100 58002
94908KDBQ DBQ20070527120009305/27/07 12:00:31  5-MIN KDBQ 271800Z 25009KT 10SM CLR 18/06 A3011 900 44 1500 250/09 RMK AO2
94908KDBQ DBQ20070527120509305/27/07 12:05:31  5-MIN KDBQ 271805Z 30010KT 10SM CLR 19/06 A3012 900 43 1600 300/10 RMK AO2
94908KDBQ DBQ20070527121009305/27/07 12:10:31  5-MIN KDBQ 271810Z 27008KT 10SM CLR 19/05 A3012 900 39 1600 270/08 RMK AO2
94908KDBQ DBQ20070527121509905/27/07 12:15:31  5-MIN KDBQ 271815Z 29010G16KT 10SM CLR 19/05 A3012 900 39 1600 290/10G16 RMK AO2
94908KDBQ DBQ20070527122009905/27/07 12:20:31  5-MIN KDBQ 271820Z 27010G16KT 10SM CLR 19/05 A3012 900 38 1700 270/10G16 RMK AO2
94908KDBQ DBQ20070527122509305/27/07 12:25:31  5-MIN KDBQ 271825Z 28008KT 10SM CLR 19/06 A3012 890 40 1700 280/08 RMK AO2
94908KDBQ DBQ20070527123009905/27/07 12:30:31  5-MIN KDBQ 271830Z 27012G17KT 10SM CLR 19/06 A3012 900 40 1700 270/12G17 RMK AO2
94908KDBQ DBQ20070527123509905/27/07 12:35:31  5-MIN KDBQ 271835Z 31009G17KT 10SM CLR 20/06 A3012 900 38 1700 310/09G17 RMK AO2
94908KDBQ DBQ20070527124009305/27/07 12:40:31  5-MIN KDBQ 271840Z 29011KT 10SM CLR 19/05 A3011 900 38 1700 290/11 RMK AO2
94908KDBQ DBQ20070527124509305/27/07 12:45:31  5-MIN KDBQ 271845Z 30012KT 10SM CLR 20/05 A3011 900 37 1700 300/12 RMK AO2
94908KDBQ DBQ20070527125011005/27/07 12:50:31  5-MIN KDBQ 271850Z 29009KT 10SM CLR 19/04 A3011 900 37 1700 290/09 RMK AO2 SLP197 T01940044
94908KDBQ DBQ20070527125511005/27/07 12:55:31  5-MIN KDBQ 271855Z 30011KT 10SM CLR 20/05 A3011 900 37 1700 300/11 RMK AO2 SLP197 T02000050
94908KDBQ DBQ20070527130009905/27/07 13:00:31  5-MIN KDBQ 271900Z 26008G15KT 10SM CLR 19/05 A3011 900 38 1700 260/08G15 RMK AO2
94908KDBQ DBQ20070527130509305/27/07 13:05:31  5-MIN KDBQ 271905Z 30011KT 10SM CLR 20/04 A3011 900 35 1700 300/11 RMK AO2
94908KDBQ DBQ20070527131009305/27/07 13:10:31  5-MIN KDBQ 271910Z 30010KT 10SM CLR 21/05 A3011 900 35 1800 300/10 RMK AO2
94908KDBQ DBQ20070527131509305/27/07 13:15:31  5-MIN KDBQ 271915Z 31011KT 10SM CLR 20/03 A3011 900 33 1700 310/11 RMK AO2
94908KDBQ DBQ20070527132009905/27/07 13:20:31  5-MIN KDBQ 271920Z 29007G17KT 10SM CLR 21/03 A3011 900 30 1800 290/07G17 RMK AO2
94908KDBQ DBQ20070527132509905/27/07 13:25:31  5-MIN KDBQ 271925Z 28010G17KT 10SM CLR 21/04 A3012 900 34 1800 280/10G17 RMK AO2
94908KDBQ DBQ20070527133009905/27/07 13:30:31  5-MIN KDBQ 271930Z 29013G16KT 10SM CLR 21/05 A3012 900 35 1800 290/13G16 RMK AO2
94908KDBQ DBQ20070527133509305/27/07 13:35:31  5-MIN KDBQ 271935Z 28012KT 10SM CLR 21/03 A3012 900 30 1800 280/12 RMK AO2
94908KDBQ DBQ20070527134009305/27/07 13:40:31  5-MIN KDBQ 271940Z 29011KT 10SM CLR 20/03 A3012 900 31 1700 290/11 RMK AO2
94908KDBQ DBQ20070527134509305/27/07 13:45:31  5-MIN KDBQ 271945Z 31012KT 10SM CLR 21/04 A3012 900 33 1800 310/12 RMK AO2
94908KDBQ DBQ20070527135011605/27/07 13:50:31  5-MIN KDBQ 271950Z 29008G16KT 10SM CLR 21/04 A3011 900 33 1900 290/08G16 RMK AO2 SLP196 T02110044
94908KDBQ DBQ20070527135511005/27/07 13:55:31  5-MIN KDBQ 271955Z 29009KT 10SM CLR 21/04 A3011 900 33 1900 290/09 RMK AO2 SLP196 T02110044
94908KDBQ DBQ20070527140009305/27/07 14:00:31  5-MIN KDBQ 272000Z 29010KT 10SM CLR 21/04 A3011 900 34 1800 290/10 RMK AO2
94908KDBQ DBQ20070527140509305/27/07 14:05:31  5-MIN KDBQ 272005Z 27011KT 10SM CLR 21/05 A3011 900 34 1900 270/11 RMK AO2
94908KDBQ DBQ20070527141009305/27/07 14:10:31  5-MIN KDBQ 272010Z 27008KT 10SM CLR 21/04 A3011 900 34 1800 270/08 RMK AO2
94908KDBQ DBQ20070527141509905/27/07 14:15:31  5-MIN KDBQ 272015Z 29012G16KT 10SM CLR 21/04 A3011 900 32 1900 290/12G16 RMK AO2
94908KDBQ DBQ20070527142009905/27/07 14:20:31  5-MIN KDBQ 272020Z 31009G16KT 10SM CLR 21/04 A3011 900 32 1900 300/09G16 RMK AO2
94908KDBQ DBQ20070527142509905/27/07 14:25:31  5-MIN KDBQ 272025Z 28007G14KT 10SM CLR 21/04 A3011 900 34 1800 280/07G14 RMK AO2
94908KDBQ DBQ20070527143009905/27/07 14:30:31  5-MIN KDBQ 272030Z 28010G15KT 10SM CLR 21/04 A3011 900 33 1900 280/10G15 RMK AO2
94908KDBQ DBQ20070527143509305/27/07 14:35:31  5-MIN KDBQ 272035Z 28012KT 10SM CLR 21/05 A3011 900 34 1900 270/12 RMK AO2
94908KDBQ DBQ20070527144009905/27/07 14:40:31  5-MIN KDBQ 272040Z 28009G16KT 10SM CLR 21/04 A3010 910 33 1900 280/09G16 RMK AO2
94908KDBQ DBQ20070527144509905/27/07 14:45:31  5-MIN KDBQ 272045Z 30011G14KT 10SM CLR 21/04 A3010 910 32 1900 300/11G14 RMK AO2
94908KDBQ DBQ20070527145012205/27/07 14:50:31  5-MIN KDBQ 272050Z 27014G17KT 10SM CLR 21/03 A3010 910 30 1900 270/14G17 RMK AO2 SLP193 T02110033 58002
94908KDBQ DBQ20070527145512205/27/07 14:55:31  5-MIN KDBQ 272055Z 28010G17KT 10SM CLR 21/04 A3010 920 33 1900 280/10G17 RMK AO2 SLP191 T02110044 58007
94908KDBQ DBQ20070527150009305/27/07 15:00:31  5-MIN KDBQ 272100Z 28011KT 10SM CLR 21/04 A3010 920 33 1900 280/11 RMK AO2
94908KDBQ DBQ20070527150509305/27/07 15:05:31  5-MIN KDBQ 272105Z 27010KT 10SM CLR 21/03 A3010 920 29 1900 260/10 RMK AO2
94908KDBQ DBQ20070527151009305/27/07 15:10:31  5-MIN KDBQ 272110Z 27009KT 10SM CLR 21/04 A3010 920 32 1900 270/09 RMK AO2
94908KDBQ DBQ20070527151509305/27/07 15:15:31  5-MIN KDBQ 272115Z 27011KT 10SM CLR 21/03 A3010 920 30 1900 270/11 RMK AO2
94908KDBQ DBQ20070527152009905/27/07 15:20:31  5-MIN KDBQ 272120Z 28013G16KT 10SM CLR 21/03 A3009 920 30 1900 270/13G16 RMK AO2
94908KDBQ DBQ20070527152509305/27/07 15:25:31  5-MIN KDBQ 272125Z 28010KT 10SM CLR 21/03 A3010 920 30 1900 280/10 RMK AO2
94908KDBQ DBQ20070527153009305/27/07 15:30:31  5-MIN KDBQ 272130Z 28010KT 10SM CLR 21/04 A3010 920 32 1900 280/10 RMK AO2
94908KDBQ DBQ20070527153509305/27/07 15:35:31  5-MIN KDBQ 272135Z 30012KT 10SM CLR 22/03 A3009 920 29 1900 290/12 RMK AO2
94908KDBQ DBQ20070527154009305/27/07 15:40:31  5-MIN KDBQ 272140Z 29009KT 10SM CLR 21/04 A3009 920 32 1900 290/09 RMK AO2
94908KDBQ DBQ20070527154509305/27/07 15:45:31  5-MIN KDBQ 272145Z 30011KT 10SM CLR 21/04 A3009 920 33 1900 300/11 RMK AO2
94908KDBQ DBQ20070527155011005/27/07 15:50:31  5-MIN KDBQ 272150Z 28011KT 10SM CLR 21/04 A3009 920 33 1900 280/11 RMK AO2 SLP189 T02110044
94908KDBQ DBQ20070527155511005/27/07 15:55:31  5-MIN KDBQ 272155Z 27008KT 10SM CLR 21/04 A3009 920 33 1900 270/08 RMK AO2 SLP189 T02110044
94908KDBQ DBQ20070527160009305/27/07 16:00:31  5-MIN KDBQ 272200Z 28010KT 10SM CLR 21/04 A3009 920 32 1900 280/10 RMK AO2
94908KDBQ DBQ20070527160509305/27/07 16:05:31  5-MIN KDBQ 272205Z 27011KT 10SM CLR 21/04 A3009 920 32 1900 270/11 RMK AO2
94908KDBQ DBQ20070527161009305/27/07 16:10:31  5-MIN KDBQ 272210Z 28008KT 10SM CLR 21/04 A3009 930 32 1900 280/08 RMK AO2
94908KDBQ DBQ20070527161509305/27/07 16:15:31  5-MIN KDBQ 272215Z 28007KT 10SM CLR 21/04 A3009 920 32 1900 280/07 RMK AO2
94908KDBQ DBQ20070527162009305/27/07 16:20:31  5-MIN KDBQ 272220Z 27009KT 10SM CLR 21/04 A3009 920 33 1900 270/09 RMK AO2
94908KDBQ DBQ20070527162509305/27/07 16:25:31  5-MIN KDBQ 272225Z 29009KT 10SM CLR 21/04 A3008 930 32 1900 290/09 RMK AO2
94908KDBQ DBQ20070527163009305/27/07 16:30:31  5-MIN KDBQ 272230Z 27011KT 10SM CLR 21/04 A3008 930 33 1900 270/11 RMK AO2
94908KDBQ DBQ20070527163509305/27/07 16:35:31  5-MIN KDBQ 272235Z 26009KT 10SM CLR 21/04 A3008 930 33 1800 260/09 RMK AO2
94908KDBQ DBQ20070527164009305/27/07 16:40:31  5-MIN KDBQ 272240Z 27010KT 10SM CLR 21/03 A3008 930 32 1800 270/10 RMK AO2
94908KDBQ DBQ20070527164509305/27/07 16:45:31  5-MIN KDBQ 272245Z 28009KT 10SM CLR 21/04 A3008 930 32 1900 280/09 RMK AO2
94908KDBQ DBQ20070527165011005/27/07 16:50:31  5-MIN KDBQ 272250Z 27008KT 10SM CLR 21/03 A3009 930 32 1800 270/08 RMK AO2 SLP189 T02060033
94908KDBQ DBQ20070527165511005/27/07 16:55:31  5-MIN KDBQ 272255Z 27008KT 10SM CLR 21/04 A3009 930 33 1800 270/08 RMK AO2 SLP188 T02060039
94908KDBQ DBQ20070527170009305/27/07 17:00:31  5-MIN KDBQ 272300Z 28007KT 10SM CLR 21/04 A3008 930 32 1900 280/07 RMK AO2
94908KDBQ DBQ20070527170509305/27/07 17:05:31  5-MIN KDBQ 272305Z 27006KT 10SM CLR 21/04 A3008 930 33 1900 270/06 RMK AO2
94908KDBQ DBQ20070527171009305/27/07 17:10:31  5-MIN KDBQ 272310Z 28008KT 10SM CLR 21/04 A3008 930 33 1900 280/08 RMK AO2
94908KDBQ DBQ20070527171509305/27/07 17:15:31  5-MIN KDBQ 272315Z 30007KT 10SM CLR 21/04 A3008 930 33 1900 300/07 RMK AO2
94908KDBQ DBQ20070527172009305/27/07 17:20:31  5-MIN KDBQ 272320Z 27006KT 10SM CLR 21/04 A3008 930 33 1900 270/06 RMK AO2
94908KDBQ DBQ20070527172509305/27/07 17:25:31  5-MIN KDBQ 272325Z 28008KT 10SM CLR 21/04 A3009 930 34 1800 280/08 RMK AO2
94908KDBQ DBQ20070527173009305/27/07 17:30:31  5-MIN KDBQ 272330Z 28006KT 10SM CLR 21/04 A3008 930 34 1800 280/06 RMK AO2
94908KDBQ DBQ20070527173509305/27/07 17:35:31  5-MIN KDBQ 272335Z 29005KT 10SM CLR 21/04 A3008 930 34 1800 290/05 RMK AO2
94908KDBQ DBQ20070527174009305/27/07 17:40:31  5-MIN KDBQ 272340Z 31006KT 10SM CLR 21/04 A3008 930 33 1800 310/06 RMK AO2
94908KDBQ DBQ20070527174509305/27/07 17:45:31  5-MIN KDBQ 272345Z 30006KT 10SM CLR 21/04 A3009 930 34 1800 300/06 RMK AO2
94908KDBQ DBQ20070527175012805/27/07 17:50:31  5-MIN KDBQ 272350Z 30006KT 10SM CLR 21/05 A3009 920 35 1800 300/06 RMK AO2 SLP189 T02060050 10217 20183 58007
94908KDBQ DBQ20070527175512805/27/07 17:55:31  5-MIN KDBQ 272355Z 30006KT 10SM CLR 20/04 A3009 920 35 1800 300/06 RMK AO2 SLP189 T02000044 10217 20183 55003
94908KDBQ DBQ20070527180009305/27/07 18:00:31  5-MIN KDBQ 280000Z 29006KT 10SM CLR 20/04 A3009 920 35 1800 290/06 RMK AO2
94908KDBQ DBQ20070527180509305/27/07 18:05:31  5-MIN KDBQ 280005Z 29005KT 10SM CLR 20/04 A3009 920 35 1800 290/05 RMK AO2
94908KDBQ DBQ20070527181009305/27/07 18:10:31  5-MIN KDBQ 280010Z 27004KT 10SM CLR 20/04 A3009 920 35 1800 260/04 RMK AO2
94908KDBQ DBQ20070527181509305/27/07 18:15:31  5-MIN KDBQ 280015Z 27005KT 10SM CLR 19/05 A3009 920 38 1700 270/05 RMK AO2
94908KDBQ DBQ20070527182009305/27/07 18:20:31  5-MIN KDBQ 280020Z 28004KT 10SM CLR 19/06 A3009 920 40 1700 280/04 RMK AO2
94908KDBQ DBQ20070527182509305/27/07 18:25:31  5-MIN KDBQ 280025Z 27003KT 10SM CLR 19/06 A3009 920 40 1700 270/03 RMK AO2
94908KDBQ DBQ20070527183009305/27/07 18:30:31  5-MIN KDBQ 280030Z 27003KT 10SM CLR 19/06 A3010 920 43 1600 270/03 RMK AO2
94908KDBQ DBQ20070527183509305/27/07 18:35:31  5-MIN KDBQ 280035Z 27004KT 10SM CLR 19/06 A3010 920 43 1600 270/04 RMK AO2
94908KDBQ DBQ20070527184009305/27/07 18:40:31  5-MIN KDBQ 280040Z 26003KT 10SM CLR 18/06 A3009 920 44 1600 260/03 RMK AO2
94908KDBQ DBQ20070527184509305/27/07 18:45:31  5-MIN KDBQ 280045Z 26003KT 10SM CLR 18/06 A3010 920 44 1600 260/03 RMK AO2
94908KDBQ DBQ20070527185011505/27/07 18:50:31  5-MIN KDBQ 280050Z AUTO 27003KT 10SM CLR 18/06 A3010 920 42 1600 260/03 RMK AO2 SLP192 T01830056
94908KDBQ DBQ20070527185512005/27/07 18:55:31  5-MIN KDBQ 280055Z AUTO 26003KT 10SM CLR 18/06 A3010 920 42 1600 260/03 RMK AO2 SLP192 T01830056 TSNO
94908KDBQ DBQ20070527190010305/27/07 19:00:31  5-MIN KDBQ 280100Z AUTO 00000KT 10SM CLR 18/06 A3010 920 44 1500 000/00 RMK AO2 TSNO
94908KDBQ DBQ20070527190510305/27/07 19:05:31  5-MIN KDBQ 280105Z AUTO 00000KT 10SM CLR 18/06 A3010 920 44 1500 000/00 RMK AO2 TSNO
94908KDBQ DBQ20070527191010305/27/07 19:10:31  5-MIN KDBQ 280110Z AUTO 00000KT 10SM CLR 18/05 A3010 910 41 1600 000/00 RMK AO2 TSNO
94908KDBQ DBQ20070527191510305/27/07 19:15:31  5-MIN KDBQ 280115Z AUTO 00000KT 10SM CLR 18/06 A3010 910 44 1500 000/00 RMK AO2 TSNO
94908KDBQ DBQ20070527192010305/27/07 19:20:31  5-MIN KDBQ 280120Z AUTO 00000KT 10SM CLR 18/06 A3010 910 46 1500 000/00 RMK AO2 TSNO
94908KDBQ DBQ20070527192510305/27/07 19:25:31  5-MIN KDBQ 280125Z AUTO 20003KT 10SM CLR 18/06 A3010 910 46 1500 200/03 RMK AO2 TSNO
94908KDBQ DBQ20070527193010305/27/07 19:30:31  5-MIN KDBQ 280130Z AUTO 00000KT 10SM CLR 17/06 A3010 910 49 1400 000/00 RMK AO2 TSNO
94908KDBQ DBQ20070527193510305/27/07 19:35:31  5-MIN KDBQ 280135Z AUTO 00000KT 10SM CLR 17/06 A3010 910 47 1400 000/00 RMK AO2 TSNO
94908KDBQ DBQ20070527194010305/27/07 19:40:31  5-MIN KDBQ 280140Z AUTO 00000KT 10SM CLR 17/06 A3011 910 47 1400 000/00 RMK AO2 TSNO
94908KDBQ DBQ20070527194510305/27/07 19:45:31  5-MIN KDBQ 280145Z AUTO 00000KT 10SM CLR 17/06 A3011 910 47 1400 000/00 RMK AO2 TSNO
94908KDBQ DBQ20070527195012005/27/07 19:50:31  5-MIN KDBQ 280150Z AUTO 00000KT 10SM CLR 16/05 A3011 910 47 1300 000/00 RMK AO2 SLP196 T01610050 TSNO
94908KDBQ DBQ20070527195512005/27/07 19:55:31  5-MIN KDBQ 280155Z AUTO 00000KT 10SM CLR 16/05 A3011 910 47 1300 000/00 RMK AO2 SLP196 T01610050 TSNO
94908KDBQ DBQ20070527200010305/27/07 20:00:31  5-MIN KDBQ 280200Z AUTO 00000KT 10SM CLR 16/05 A3011 910 49 1200 000/00 RMK AO2 TSNO
94908KDBQ DBQ20070527200510305/27/07 20:05:31  5-MIN KDBQ 280205Z AUTO 00000KT 10SM CLR 16/05 A3011 910 49 1200 000/00 RMK AO2 TSNO
94908KDBQ DBQ20070527201010305/27/07 20:10:31  5-MIN KDBQ 280210Z AUTO 00000KT 10SM CLR 15/05 A3011 900 51 1200 000/00 RMK AO2 TSNO
94908KDBQ DBQ20070527201510305/27/07 20:15:31  5-MIN KDBQ 280215Z AUTO 00000KT 10SM CLR 15/04 A3011 900 49 1200 000/00 RMK AO2 TSNO
94908KDBQ DBQ20070527202010305/27/07 20:20:31  5-MIN KDBQ 280220Z AUTO 00000KT 10SM CLR 15/04 A3011 900 49 1200 000/00 RMK AO2 TSNO
94908KDBQ DBQ20070527202510305/27/07 20:25:31  5-MIN KDBQ 280225Z AUTO 00000KT 10SM CLR 14/04 A3011 900 51 1100 000/00 RMK AO2 TSNO
94908KDBQ DBQ20070527203010305/27/07 20:30:31  5-MIN KDBQ 280230Z AUTO 00000KT 10SM CLR 14/04 A3011 900 51 1100 000/00 RMK AO2 TSNO
94908KDBQ DBQ20070527203510305/27/07 20:35:31  5-MIN KDBQ 280235Z AUTO 00000KT 10SM CLR 14/04 A3011 900 51 1100 000/00 RMK AO2 TSNO
94908KDBQ DBQ20070527204010305/27/07 20:40:31  5-MIN KDBQ 280240Z AUTO 00000KT 10SM CLR 14/04 A3011 900 52 1000 000/00 RMK AO2 TSNO
94908KDBQ DBQ20070527204510305/27/07 20:45:31  5-MIN KDBQ 280245Z AUTO 00000KT 10SM CLR 13/04 A3011 900 54 1000 000/00 RMK AO2 TSNO
94908KDBQ DBQ20070527205012505/27/07 20:50:31  5-MIN KDBQ 280250Z AUTO 00000KT 10SM CLR 13/05 A3011 900 59 900 000/00 RMK AO2 SLP198 T01280050 55003 TSNO
94908KDBQ DBQ20070527205512505/27/07 20:55:31  5-MIN KDBQ 280255Z AUTO 00000KT 10SM CLR 13/04 A3011 900 56 900 000/00 RMK AO2 SLP198 T01280044 51008 TSNO
94908KDBQ DBQ20070527210010205/27/07 21:00:31  5-MIN KDBQ 280300Z AUTO 00000KT 10SM CLR 12/05 A3011 900 61 800 000/00 RMK AO2 TSNO
94908KDBQ DBQ20070527210510205/27/07 21:05:31  5-MIN KDBQ 280305Z AUTO 00000KT 10SM CLR 12/05 A3011 900 61 800 000/00 RMK AO2 TSNO
94908KDBQ DBQ20070527211010205/27/07 21:10:31  5-MIN KDBQ 280310Z AUTO 00000KT 10SM CLR 13/05 A3012 900 59 900 000/00 RMK AO2 TSNO
94908KDBQ DBQ20070527211510205/27/07 21:15:31  5-MIN KDBQ 280315Z AUTO 00000KT 10SM CLR 12/04 A3011 900 59 800 000/00 RMK AO2 TSNO
94908KDBQ DBQ20070527212010205/27/07 21:20:31  5-MIN KDBQ 280320Z AUTO 00000KT 10SM CLR 13/04 A3012 900 56 900 000/00 RMK AO2 TSNO
94908KDBQ DBQ20070527212510205/27/07 21:25:31  5-MIN KDBQ 280325Z AUTO 00000KT 10SM CLR 13/04 A3012 900 54 900 000/00 RMK AO2 TSNO
94908KDBQ DBQ20070527213010205/27/07 21:30:31  5-MIN KDBQ 280330Z AUTO 00000KT 10SM CLR 13/05 A3012 900 59 900 000/00 RMK AO2 TSNO
94908KDBQ DBQ20070527213510205/27/07 21:35:31  5-MIN KDBQ 280335Z AUTO 00000KT 10SM CLR 13/06 A3012 900 61 900 000/00 RMK AO2 TSNO
94908KDBQ DBQ20070527214010305/27/07 21:40:31  5-MIN KDBQ 280340Z AUTO 00000KT 10SM CLR 14/05 A3012 900 55 1000 000/00 RMK AO2 TSNO
94908KDBQ DBQ20070527214510205/27/07 21:45:31  5-MIN KDBQ 280345Z AUTO 00000KT 10SM CLR 13/04 A3012 900 54 900 000/00 RMK AO2 TSNO
94908KDBQ DBQ20070527215011905/27/07 21:50:31  5-MIN KDBQ 280350Z AUTO 00000KT 10SM CLR 12/06 A3012 900 66 800 000/00 RMK AO2 SLP200 T01170056 TSNO
94908KDBQ DBQ20070527215511905/27/07 21:55:31  5-MIN KDBQ 280355Z AUTO 20003KT 10SM CLR 11/06 A3012 900 68 700 200/03 RMK AO2 SLP200 T01110056 TSNO
94908KDBQ DBQ20070527220010205/27/07 22:00:31  5-MIN KDBQ 280400Z AUTO 00000KT 10SM CLR 11/06 A3012 900 71 600 000/00 RMK AO2 TSNO
94908KDBQ DBQ20070527220510205/27/07 22:05:31  5-MIN KDBQ 280405Z AUTO 00000KT 10SM CLR 11/06 A3012 900 68 700 000/00 RMK AO2 TSNO
94908KDBQ DBQ20070527221010205/27/07 22:10:31  5-MIN KDBQ 280410Z AUTO 00000KT 10SM CLR 11/06 A3012 900 68 700 000/00 RMK AO2 TSNO
94908KDBQ DBQ20070527221510205/27/07 22:15:31  5-MIN KDBQ 280415Z AUTO 00000KT 10SM CLR 11/05 A3012 900 66 700 000/00 RMK AO2 TSNO
94908KDBQ DBQ20070527222010205/27/07 22:20:31  5-MIN KDBQ 280420Z AUTO 00000KT 10SM CLR 11/05 A3012 900 66 700 000/00 RMK AO2 TSNO
94908KDBQ DBQ20070527222510205/27/07 22:25:31  5-MIN KDBQ 280425Z AUTO 00000KT 10SM CLR 12/05 A3012 900 61 800 000/00 RMK AO2 TSNO
94908KDBQ DBQ20070527223010205/27/07 22:30:31  5-MIN KDBQ 280430Z AUTO 00000KT 10SM CLR 11/06 A3012 890 68 700 000/00 RMK AO2 TSNO
94908KDBQ DBQ20070527223510205/27/07 22:35:31  5-MIN KDBQ 280435Z AUTO 00000KT 10SM CLR 12/05 A3012 900 63 700 000/00 RMK AO2 TSNO
94908KDBQ DBQ20070527224010205/27/07 22:40:31  5-MIN KDBQ 280440Z AUTO 00000KT 10SM CLR 12/05 A3012 900 63 700 000/00 RMK AO2 TSNO
94908KDBQ DBQ20070527224510205/27/07 22:45:31  5-MIN KDBQ 280445Z AUTO 00000KT 10SM CLR 10/06 A3012 890 74 500 000/00 RMK AO2 TSNO
94908KDBQ DBQ20070527225011905/27/07 22:50:31  5-MIN KDBQ 280450Z AUTO 00000KT 10SM CLR 10/06 A3012 890 74 500 000/00 RMK AO2 SLP201 T01000056 TSNO
94908KDBQ DBQ20070527225511905/27/07 22:55:31  5-MIN KDBQ 280455Z AUTO 00000KT 10SM CLR 10/06 A3012 890 74 500 000/00 RMK AO2 SLP202 T01000056 TSNO
94908KDBQ DBQ20070527230010205/27/07 23:00:31  5-MIN KDBQ 280500Z AUTO 00000KT 10SM CLR 11/06 A3012 890 71 600 000/00 RMK AO2 TSNO
94908KDBQ DBQ20070527230510205/27/07 23:05:31  5-MIN KDBQ 280505Z AUTO 00000KT 10SM CLR 10/06 A3012 890 74 500 000/00 RMK AO2 TSNO
94908KDBQ DBQ20070527231010205/27/07 23:10:31  5-MIN KDBQ 280510Z AUTO 00000KT 10SM CLR 11/06 A3012 890 71 600 000/00 RMK AO2 TSNO
94908KDBQ DBQ20070527231510205/27/07 23:15:31  5-MIN KDBQ 280515Z AUTO 00000KT 10SM CLR 11/05 A3012 890 68 600 000/00 RMK AO2 TSNO
94908KDBQ DBQ20070527232010205/27/07 23:20:31  5-MIN KDBQ 280520Z AUTO 00000KT 10SM CLR 11/05 A3012 890 66 700 000/00 RMK AO2 TSNO
94908KDBQ DBQ20070527232510205/27/07 23:25:31  5-MIN KDBQ 280525Z AUTO 00000KT 10SM CLR 11/05 A3012 890 68 600 000/00 RMK AO2 TSNO
94908KDBQ DBQ20070527233010205/27/07 23:30:31  5-MIN KDBQ 280530Z AUTO 00000KT 10SM CLR 11/05 A3012 890 66 700 000/00 RMK AO2 TSNO
94908KDBQ DBQ20070527233510205/27/07 23:35:31  5-MIN KDBQ 280535Z AUTO 00000KT 10SM CLR 11/05 A3012 890 68 600 000/00 RMK AO2 TSNO
94908KDBQ DBQ20070527234010205/27/07 23:40:31  5-MIN KDBQ 280540Z AUTO 00000KT 10SM CLR 11/05 A3012 890 68 600 000/00 RMK AO2 TSNO
94908KDBQ DBQ20070527234510205/27/07 23:45:31  5-MIN KDBQ 280545Z AUTO 00000KT 10SM CLR 11/05 A3012 890 66 700 000/00 RMK AO2 TSNO
94908KDBQ DBQ20070527235014705/27/07 23:50:31  5-MIN KDBQ 280550Z AUTO 00000KT 10SM CLR 12/04 A3012 890 61 700 000/00 RMK AO2 SLP200 T01170044 10200 20094 402170083 51008 TSNO
94908KDBQ DBQ20070527235514705/27/07 23:55:31  5-MIN KDBQ 280555Z AUTO 00000KT 10SM CLR 12/04 A3012 890 61 700 000/00 RMK AO2 SLP200 T01170044 10200 20094 402170083 51003 TSNO
94908KDBQ DBQ20070528000010205/28/07 00:00:38  5-MIN KDBQ 280600Z AUTO 00000KT 10SM CLR 12/04 A3012 890 61 700 000/00 RMK AO2 TSNO
94908KDBQ DBQ20070528000510205/28/07 00:05:31  5-MIN KDBQ 280605Z AUTO 00000KT 10SM CLR 12/04 A3012 890 61 700 000/00 RMK AO2 TSNO
94908KDBQ DBQ20070528001010205/28/07 00:10:31  5-MIN KDBQ 280610Z AUTO 00000KT 10SM CLR 11/04 A3012 890 63 700 000/00 RMK AO2 TSNO
94908KDBQ DBQ20070528001510205/28/07 00:15:31  5-MIN KDBQ 280615Z AUTO 00000KT 10SM CLR 11/05 A3013 890 68 600 000/00 RMK AO2 TSNO
94908KDBQ DBQ20070528002010205/28/07 00:20:31  5-MIN KDBQ 280620Z AUTO 00000KT 10SM CLR 11/05 A3013 890 68 600 000/00 RMK AO2 TSNO
94908KDBQ DBQ20070528002510205/28/07 00:25:31  5-MIN KDBQ 280625Z AUTO 00000KT 10SM CLR 11/05 A3013 890 66 700 000/00 RMK AO2 TSNO
94908KDBQ DBQ20070528003010205/28/07 00:30:31  5-MIN KDBQ 280630Z AUTO 00000KT 10SM CLR 11/04 A3013 890 63 700 000/00 RMK AO2 TSNO
94908KDBQ DBQ20070528003510205/28/07 00:35:31  5-MIN KDBQ 280635Z AUTO 00000KT 10SM CLR 11/04 A3012 890 63 700 000/00 RMK AO2 TSNO
94908KDBQ DBQ20070528004010205/28/07 00:40:31  5-MIN KDBQ 280640Z AUTO 00000KT 10SM CLR 11/04 A3012 890 63 700 000/00 RMK AO2 TSNO
94908KDBQ DBQ20070528004510205/28/07 00:45:31  5-MIN KDBQ 280645Z AUTO 00000KT 10SM CLR 12/04 A3012 890 61 700 000/00 RMK AO2 TSNO
94908KDBQ DBQ20070528005011905/28/07 00:50:31  5-MIN KDBQ 280650Z AUTO 00000KT 10SM CLR 11/04 A3012 890 63 700 000/00 RMK AO2 SLP200 T01110044 TSNO
94908KDBQ DBQ20070528005511905/28/07 00:55:31  5-MIN KDBQ 280655Z AUTO 00000KT 10SM CLR 11/04 A3012 890 63 700 000/00 RMK AO2 SLP199 T01110044 TSNO
94908KDBQ DBQ20070528010010205/28/07 01:00:31  5-MIN KDBQ 280700Z AUTO 00000KT 10SM CLR 12/04 A3012 890 61 700 000/00 RMK AO2 TSNO
94908KDBQ DBQ20070528010510205/28/07 01:05:31  5-MIN KDBQ 280705Z AUTO 00000KT 10SM CLR 12/04 A3012 890 61 700 000/00 RMK AO2 TSNO
94908KDBQ DBQ20070528011010205/28/07 01:10:31  5-MIN KDBQ 280710Z AUTO 00000KT 10SM CLR 12/04 A3012 890 56 800 000/00 RMK AO2 TSNO
94908KDBQ DBQ20070528011510505/28/07 01:15:31  5-MIN KDBQ 280715Z AUTO 00000KT 10SM FEW060 12/04 A3012 900 58 700 000/00 RMK AO2 TSNO
94908KDBQ DBQ20070528012010505/28/07 01:20:31  5-MIN KDBQ 280720Z AUTO 00000KT 10SM SCT060 12/04 A3012 890 61 700 000/00 RMK AO2 TSNO
94908KDBQ DBQ20070528012510505/28/07 01:25:31  5-MIN KDBQ 280725Z AUTO 00000KT 10SM SCT060 12/04 A3012 900 61 700 000/00 RMK AO2 TSNO
94908KDBQ DBQ20070528013010505/28/07 01:30:31  5-MIN KDBQ 280730Z AUTO 00000KT 10SM SCT060 13/04 A3012 900 54 900 000/00 RMK AO2 TSNO
94908KDBQ DBQ20070528013510505/28/07 01:35:31  5-MIN KDBQ 280735Z AUTO 00000KT 10SM FEW060 12/04 A3011 900 61 800 000/00 RMK AO2 TSNO
94908KDBQ DBQ20070528014010505/28/07 01:40:31  5-MIN KDBQ 280740Z AUTO 00000KT 10SM FEW060 12/04 A3011 900 59 800 000/00 RMK AO2 TSNO
94908KDBQ DBQ20070528014510505/28/07 01:45:31  5-MIN KDBQ 280745Z AUTO 00000KT 10SM FEW060 12/04 A3011 900 59 800 000/00 RMK AO2 TSNO
94908KDBQ DBQ20070528015012205/28/07 01:50:31  5-MIN KDBQ 280750Z AUTO 00000KT 10SM FEW060 11/05 A3011 900 68 600 000/00 RMK AO2 SLP197 T01060050 TSNO
94908KDBQ DBQ20070528015511905/28/07 01:55:31  5-MIN KDBQ 280755Z AUTO 00000KT 10SM CLR 12/05 A3011 900 63 800 000/00 RMK AO2 SLP196 T01170050 TSNO
94908KDBQ DBQ20070528020010205/28/07 02:00:31  5-MIN KDBQ 280800Z AUTO 00000KT 10SM CLR 12/05 A3012 900 61 800 000/00 RMK AO2 TSNO
94908KDBQ DBQ20070528020510205/28/07 02:05:31  5-MIN KDBQ 280805Z AUTO 00000KT 10SM CLR 12/05 A3012 900 61 800 000/00 RMK AO2 TSNO
94908KDBQ DBQ20070528021010205/28/07 02:10:31  5-MIN KDBQ 280810Z AUTO 00000KT 10SM CLR 13/04 A3012 900 56 900 000/00 RMK AO2 TSNO
94908KDBQ DBQ20070528021510205/28/07 02:15:31  5-MIN KDBQ 280815Z AUTO 00000KT 10SM CLR 13/05 A3012 890 59 900 000/00 RMK AO2 TSNO
94908KDBQ DBQ20070528022010205/28/07 02:20:31  5-MIN KDBQ 280820Z AUTO 00000KT 10SM CLR 13/05 A3012 890 59 900 000/00 RMK AO2 TSNO
94908KDBQ DBQ20070528022510205/28/07 02:25:31  5-MIN KDBQ 280825Z AUTO 00000KT 10SM CLR 12/06 A3012 890 66 700 000/00 RMK AO2 TSNO
94908KDBQ DBQ20070528023010205/28/07 02:30:31  5-MIN KDBQ 280830Z AUTO 00000KT 10SM CLR 12/06 A3012 890 68 700 000/00 RMK AO2 TSNO
94908KDBQ DBQ20070528023510205/28/07 02:35:31  5-MIN KDBQ 280835Z AUTO 00000KT 10SM CLR 12/05 A3012 900 61 800 000/00 RMK AO2 TSNO
94908KDBQ DBQ20070528024010505/28/07 02:40:31  5-MIN KDBQ 280840Z AUTO 00000KT 10SM FEW049 13/05 A3012 900 59 900 000/00 RMK AO2 TSNO
94908KDBQ DBQ20070528024510505/28/07 02:45:31  5-MIN KDBQ 280845Z AUTO 12003KT 10SM FEW049 12/06 A3012 900 63 800 120/03 RMK AO2 TSNO
94908KDBQ DBQ20070528025012505/28/07 02:50:31  5-MIN KDBQ 280850Z AUTO 11003KT 10SM CLR 12/06 A3012 900 68 800 110/03 RMK AO2 SLP197 T01170061 51003 TSNO
94908KDBQ DBQ20070528025512805/28/07 02:55:31  5-MIN KDBQ 280855Z AUTO 00000KT 10SM FEW050 12/06 A3012 900 66 800 000/00 RMK AO2 SLP197 T01170056 55002 TSNO
94908KDBQ DBQ20070528030010505/28/07 03:00:31  5-MIN KDBQ 280900Z AUTO 11003KT 10SM SCT050 13/05 A3012 900 59 900 110/03 RMK AO2 TSNO
94908KDBQ DBQ20070528030510605/28/07 03:05:31  5-MIN KDBQ 280905Z AUTO 11004KT 10SM BKN050 14/06 A3012 900 57 1000 110/04 RMK AO2 TSNO
94908KDBQ DBQ20070528031010605/28/07 03:10:31  5-MIN KDBQ 280910Z AUTO 11005KT 10SM BKN050 14/05 A3012 900 53 1100 100/05 RMK AO2 TSNO
94908KDBQ DBQ20070528031510605/28/07 03:15:31  5-MIN KDBQ 280915Z AUTO 11005KT 10SM BKN050 14/06 A3012 900 55 1100 110/05 RMK AO2 TSNO
94908KDBQ DBQ20070528032010605/28/07 03:20:31  5-MIN KDBQ 280920Z AUTO 10004KT 10SM OVC050 15/05 A3012 900 51 1100 100/04 RMK AO2 TSNO
94908KDBQ DBQ20070528032510605/28/07 03:25:31  5-MIN KDBQ 280925Z AUTO 11003KT 10SM OVC050 15/06 A3012 890 53 1100 110/03 RMK AO2 TSNO
94908KDBQ DBQ20070528033010605/28/07 03:30:31  5-MIN KDBQ 280930Z AUTO 11003KT 10SM OVC050 15/06 A3012 890 53 1100 100/03 RMK AO2 TSNO
94908KDBQ DBQ20070528033510605/28/07 03:35:31  5-MIN KDBQ 280935Z AUTO 00000KT 10SM OVC050 15/06 A3012 890 53 1100 000/00 RMK AO2 TSNO
94908KDBQ DBQ20070528034010605/28/07 03:40:31  5-MIN KDBQ 280940Z AUTO 00000KT 10SM OVC048 15/06 A3012 890 55 1100 000/00 RMK AO2 TSNO
94908KDBQ DBQ20070528034510605/28/07 03:45:31  5-MIN KDBQ 280945Z AUTO 14003KT 10SM OVC048 15/06 A3013 890 53 1100 140/03 RMK AO2 TSNO
94908KDBQ DBQ20070528035012305/28/07 03:50:31  5-MIN KDBQ 280950Z AUTO 00000KT 10SM OVC048 16/05 A3013 890 49 1200 000/00 RMK AO2 SLP199 T01560050 TSNO
94908KDBQ DBQ20070528035512305/28/07 03:55:31  5-MIN KDBQ 280955Z AUTO 14004KT 10SM OVC048 16/06 A3013 890 51 1200 130/04 RMK AO2 SLP199 T01560056 TSNO
94908KDBQ DBQ20070528040010605/28/07 04:00:31  5-MIN KDBQ 281000Z AUTO 14005KT 10SM OVC048 16/05 A3013 890 49 1200 140/05 RMK AO2 TSNO
94908KDBQ DBQ20070528040510605/28/07 04:05:31  5-MIN KDBQ 281005Z AUTO 13006KT 10SM OVC048 16/04 A3013 890 47 1200 130/06 RMK AO2 TSNO
94908KDBQ DBQ20070528041010605/28/07 04:10:31  5-MIN KDBQ 281010Z AUTO 12004KT 10SM OVC048 16/05 A3013 890 49 1200 120/04 RMK AO2 TSNO
94908KDBQ DBQ20070528041510605/28/07 04:15:31  5-MIN KDBQ 281015Z AUTO 12005KT 10SM OVC048 16/05 A3013 880 49 1200 120/05 RMK AO2 TSNO
94908KDBQ DBQ20070528042010605/28/07 04:20:31  5-MIN KDBQ 281020Z AUTO 12004KT 10SM OVC048 16/05 A3013 880 47 1300 120/04 RMK AO2 TSNO
94908KDBQ DBQ20070528042510605/28/07 04:25:31  5-MIN KDBQ 281025Z AUTO 12005KT 10SM OVC046 16/06 A3013 880 51 1200 120/05 RMK AO2 TSNO
94908KDBQ DBQ20070528043010605/28/07 04:30:31  5-MIN KDBQ 281030Z AUTO 13005KT 10SM OVC044 16/06 A3013 880 53 1200 130/05 RMK AO2 TSNO
94908KDBQ DBQ20070528043510605/28/07 04:35:31  5-MIN KDBQ 281035Z AUTO 13007KT 10SM OVC044 16/06 A3014 880 51 1300 130/07 RMK AO2 TSNO
94908KDBQ DBQ20070528044010605/28/07 04:40:31  5-MIN KDBQ 281040Z AUTO 13007KT 10SM OVC046 16/06 A3014 880 51 1300 130/07 RMK AO2 TSNO
94908KDBQ DBQ20070528044511305/28/07 04:45:31  5-MIN KDBQ 281045Z AUTO 13006KT 10SM FEW032 OVC046 16/06 A3014 880 49 1300 130/06 RMK AO2 TSNO
94908KDBQ DBQ20070528045012005/28/07 04:50:31  5-MIN KDBQ 281050Z 12005KT 10SM SCT032 OVC046 16/06 A3014 880 49 1300 120/05 RMK AO2 SLP204 T01610056
94908KDBQ DBQ20070528045512005/28/07 04:55:31  5-MIN KDBQ 281055Z 13005KT 10SM BKN036 OVC047 16/06 A3014 870 49 1200 130/05 RMK AO2 SLP204 T01610056
94908KDBQ DBQ20070528050011005/28/07 05:00:31  5-MIN KDBQ 281100Z 13006KT 10SM SCT034 BKN042 OVC049 16/06 A3014 870 49 1200 130/06 RMK AO2
94908KDBQ DBQ20070528050511005/28/07 05:05:31  5-MIN KDBQ 281105Z 14005KT 10SM SCT032 BKN040 OVC049 16/06 A3014 870 49 1200 140/05 RMK AO2
94908KDBQ DBQ20070528051011005/28/07 05:10:31  5-MIN KDBQ 281110Z 14005KT 10SM FEW028 BKN035 OVC049 16/06 A3014 870 49 1200 140/05 RMK AO2
94908KDBQ DBQ20070528051511005/28/07 05:15:31  5-MIN KDBQ 281115Z 13007KT 10SM BKN028 BKN038 OVC049 16/06 A3014 870 49 1200 130/07 RMK AO2
94908KDBQ DBQ20070528052011005/28/07 05:20:31  5-MIN KDBQ 281120Z 14006KT 10SM BKN028 BKN036 OVC049 16/06 A3015 870 49 1200 140/06 RMK AO2
94908KDBQ DBQ20070528052511005/28/07 05:25:31  5-MIN KDBQ 281125Z 14005KT 10SM BKN028 BKN036 OVC049 16/06 A3015 870 51 1200 140/05 RMK AO2
94908KDBQ DBQ20070528053010305/28/07 05:30:31  5-MIN KDBQ 281130Z 13005KT 10SM BKN028 OVC048 16/06 A3015 870 51 1200 130/05 RMK AO2
94908KDBQ DBQ20070528053509605/28/07 05:35:31  5-MIN KDBQ 281135Z 14005KT 10SM OVC028 16/06 A3015 860 51 1200 140/05 RMK AO2
94908KDBQ DBQ20070528054010305/28/07 05:40:31  5-MIN KDBQ 281140Z 14006KT 10SM BKN028 OVC046 16/06 A3015 870 51 1200 140/06 RMK AO2
94908KDBQ DBQ20070528054510305/28/07 05:45:31  5-MIN KDBQ 281145Z 13007KT 10SM BKN028 OVC048 16/06 A3015 860 49 1200 130/07 RMK AO2
94908KDBQ DBQ20070528055010305/28/07 05:50:31  5-MIN KDBQ 281150Z 13007KT 10SM SCT028 OVC048 16/06 A3015 860 49 1200 130/07 RMK AO2
94908KDBQ DBQ20070528055513805/28/07 05:55:31  5-MIN KDBQ 281155Z 14007KT 10SM SCT028 OVC050 16/06 A3015 860 49 1200 130/07 RMK AO2 SLP209 T01610056 10161 20106 53013
94908KDBQ DBQ20070528060011005/28/07 06:00:31  5-MIN KDBQ 281200Z 13007KT 10SM SCT028 SCT033 OVC050 16/06 A3015 860 49 1200 130/07 RMK AO2
94908KDBQ DBQ20070528060510305/28/07 06:05:31  5-MIN KDBQ 281205Z 13006KT 10SM SCT028 OVC050 16/06 A3015 860 51 1200 130/06 RMK AO2
94908KDBQ DBQ20070528061010305/28/07 06:10:31  5-MIN KDBQ 281210Z 12006KT 10SM FEW028 OVC050 16/06 A3016 860 51 1200 120/06 RMK AO2
94908KDBQ DBQ20070528061510305/28/07 06:15:31  5-MIN KDBQ 281215Z 12005KT 10SM FEW028 OVC050 16/06 A3016 860 51 1200 120/05 RMK AO2
94908KDBQ DBQ20070528062010305/28/07 06:20:31  5-MIN KDBQ 281220Z 13006KT 10SM FEW028 OVC050 16/06 A3016 860 51 1200 130/06 RMK AO2
94908KDBQ DBQ20070528062510305/28/07 06:25:31  5-MIN KDBQ 281225Z 13005KT 10SM FEW028 OVC050 16/06 A3016 860 51 1200 130/05 RMK AO2
94908KDBQ DBQ20070528063010305/28/07 06:30:31  5-MIN KDBQ 281230Z 13006KT 10SM FEW026 OVC050 16/07 A3016 860 53 1200 130/06 RMK AO2
94908KDBQ DBQ20070528063510305/28/07 06:35:31  5-MIN KDBQ 281235Z 13006KT 10SM FEW026 OVC050 17/06 A3016 860 49 1300 130/06 RMK AO2
94908KDBQ DBQ20070528064010305/28/07 06:40:31  5-MIN KDBQ 281240Z 13006KT 10SM FEW026 OVC050 17/06 A3016 860 49 1300 130/06 RMK AO2
94908KDBQ DBQ20070528064510305/28/07 06:45:31  5-MIN KDBQ 281245Z 14006KT 10SM FEW026 OVC050 17/06 A3016 860 49 1300 130/06 RMK AO2
94908KDBQ DBQ20070528065012005/28/07 06:50:31  5-MIN KDBQ 281250Z 14007KT 10SM FEW026 OVC050 17/06 A3016 860 49 1300 140/07 RMK AO2 SLP211 T01670061
94908KDBQ DBQ20070528065512005/28/07 06:55:31  5-MIN KDBQ 281255Z 13009KT 10SM FEW026 OVC050 17/06 A3016 860 49 1300 130/09 RMK AO2 SLP211 T01670061
94908KDBQ DBQ20070528070010305/28/07 07:00:31  5-MIN KDBQ 281300Z 14008KT 10SM FEW024 OVC050 17/06 A3016 850 47 1300 140/08 RMK AO2
94908KDBQ DBQ20070528070510305/28/07 07:05:31  5-MIN KDBQ 281305Z 13008KT 10SM SCT024 OVC055 17/06 A3016 850 49 1300 130/08 RMK AO2
94908KDBQ DBQ20070528071010305/28/07 07:10:31  5-MIN KDBQ 281310Z 14007KT 10SM BKN024 OVC055 17/06 A3016 860 49 1300 140/07 RMK AO2
94908KDBQ DBQ20070528071510305/28/07 07:15:31  5-MIN KDBQ 281315Z 15008KT 10SM BKN024 OVC055 17/06 A3016 850 47 1400 150/08 RMK AO2
94908KDBQ DBQ20070528072010305/28/07 07:20:31  5-MIN KDBQ 281320Z 15009KT 10SM BKN024 OVC055 17/07 A3017 850 49 1300 150/09 RMK AO2
94908KDBQ DBQ20070528072509605/28/07 07:25:31  5-MIN KDBQ 281325Z 15009KT 10SM OVC024 17/07 A3017 850 51 1300 150/09 RMK AO2
94908KDBQ DBQ20070528073009605/28/07 07:30:31  5-MIN KDBQ 281330Z 14008KT 10SM OVC024 17/07 A3017 850 49 1300 140/08 RMK AO2
94908KDBQ DBQ20070528073510305/28/07 07:35:31  5-MIN KDBQ 281335Z 14008KT 10SM BKN024 BKN060 17/07 A3017 850 51 1300 140/08 RMK AO2
94908KDBQ DBQ20070528074010905/28/07 07:40:31  5-MIN KDBQ 281340Z 15010G15KT 10SM BKN024 BKN060 18/07 A3017 850 49 1400 150/10G15 RMK AO2
94908KDBQ DBQ20070528074511605/28/07 07:45:31  5-MIN KDBQ 281345Z 15010G15KT 10SM BKN024 BKN029 OVC060 18/07 A3017 850 48 1400 150/10G15 RMK AO2
94908KDBQ DBQ20070528075012705/28/07 07:50:31  5-MIN KDBQ 281350Z 15012KT 10SM BKN024 BKN029 OVC060 18/07 A3017 850 48 1400 150/12 RMK AO2 SLP214 T01780067
94908KDBQ DBQ20070528075512705/28/07 07:55:31  5-MIN KDBQ 281355Z 14011KT 10SM BKN024 BKN029 OVC060 17/07 A3017 850 51 1400 140/11 RMK AO2 SLP214 T01720072
94908KDBQ DBQ20070528080011005/28/07 08:00:31  5-MIN KDBQ 281400Z 15010KT 10SM BKN024 BKN029 OVC060 17/08 A3017 850 53 1300 150/10 RMK AO2
94908KDBQ DBQ20070528080509605/28/07 08:05:31  5-MIN KDBQ 281405Z 15012KT 10SM OVC024 18/08 A3017 850 51 1400 150/12 RMK AO2
94908KDBQ DBQ20070528081010205/28/07 08:10:31  5-MIN KDBQ 281410Z 14011G17KT 10SM OVC024 17/08 A3017 850 53 1300 140/11G17 RMK AO2
94908KDBQ DBQ20070528081510205/28/07 08:15:31  5-MIN KDBQ 281415Z 13009G17KT 10SM OVC024 18/07 A3017 850 49 1400 130/09G17 RMK AO2
94908KDBQ DBQ20070528082009605/28/07 08:20:31  5-MIN KDBQ 281420Z 13010KT 10SM OVC024 18/08 A3017 850 51 1400 130/10 RMK AO2
94908KDBQ DBQ20070528082510305/28/07 08:25:31  5-MIN KDBQ 281425Z 13009KT 10SM BKN024 OVC041 18/08 A3017 850 51 1400 130/09 RMK AO2
94908KDBQ DBQ20070528083010305/28/07 08:30:31  5-MIN KDBQ 281430Z 13011KT 10SM BKN024 OVC039 18/08 A3017 850 50 1500 130/11 RMK AO2
94908KDBQ DBQ20070528083510305/28/07 08:35:31  5-MIN KDBQ 281435Z 14011KT 10SM SCT024 OVC037 18/08 A3017 850 50 1500 140/11 RMK AO2
94908KDBQ DBQ20070528084010905/28/07 08:40:31  5-MIN KDBQ 281440Z 14012G17KT 10SM SCT024 OVC037 18/08 A3017 850 50 1500 140/12G17 RMK AO2
94908KDBQ DBQ20070528084510905/28/07 08:45:31  5-MIN KDBQ 281445Z 13011G17KT 10SM FEW024 OVC037 18/08 A3017 850 50 1500 130/11G17 RMK AO2
94908KDBQ DBQ20070528085013905/28/07 08:50:31  5-MIN KDBQ 281450Z 14009G16KT 10SM FEW024 BKN037 BKN048 19/09 A3017 850 52 1500 140/09G16 RMK AO2 SLP215 T01890089 53013
94908KDBQ DBQ20070528085513205/28/07 08:55:31  5-MIN KDBQ 281455Z 14016G19KT 10SM BKN037 BKN046 19/08 A3016 850 50 1500 140/16G19 RMK AO2 SLP214 T01890083 50003
94908KDBQ DBQ20070528090011005/28/07 09:00:31  5-MIN KDBQ 281500Z 15013KT 10SM SCT035 BKN046 BKN070 19/09 A3016 850 52 1500 150/13 RMK AO2
94908KDBQ DBQ20070528090511605/28/07 09:05:31  5-MIN KDBQ 281505Z 14013G18KT 10SM FEW035 SCT046 BKN065 19/09 A3016 850 50 1600 140/13G18 RMK AO2
94908KDBQ DBQ20070528091011605/28/07 09:10:31  5-MIN KDBQ 281510Z 14014G19KT 10SM FEW035 SCT046 BKN065 19/09 A3017 850 52 1600 130/14G19 RMK AO2
94908KDBQ DBQ20070528091510905/28/07 09:15:31  5-MIN KDBQ 281515Z 15014G21KT 10SM SCT050 BKN065 20/09 A3017 850 50 1700 150/14G21 RMK AO2
94908KDBQ DBQ20070528092011605/28/07 09:20:31  5-MIN KDBQ 281520Z 15016G21KT 10SM FEW021 BKN050 BKN070 19/09 A3016 850 52 1600 140/16G21 RMK AO2
94908KDBQ DBQ20070528092510905/28/07 09:25:31  5-MIN KDBQ 281525Z 14014G20KT 10SM FEW021 BKN060 19/09 A3016 860 54 1500 140/14G20 RMK AO2
94908KDBQ DBQ20070528093010205/28/07 09:30:31  5-MIN KDBQ 281530Z 15012G20KT 10SM BKN060 19/09 A3016 860 54 1500 150/12G20 RMK AO2
94908KDBQ DBQ20070528093510205/28/07 09:35:31  5-MIN KDBQ 281535Z 14013G19KT 10SM BKN060 19/10 A3016 860 54 1600 140/13G19 RMK AO2
94908KDBQ DBQ20070528094010905/28/07 09:40:31  5-MIN KDBQ 281540Z 15014G18KT 10SM FEW021 BKN065 19/10 A3016 860 54 1600 150/14G18 RMK AO2
94908KDBQ DBQ20070528094510905/28/07 09:45:31  5-MIN KDBQ 281545Z 14014G18KT 10SM FEW021 BKN065 19/10 A3016 860 54 1600 140/14G18 RMK AO2
94908KDBQ DBQ20070528095011305/28/07 09:50:31  5-MIN KDBQ 281550Z 14013KT 10SM BKN065 19/10 A3016 860 54 1600 140/13 RMK AO2 SLP213 T01940100
94908KDBQ DBQ20070528095512605/28/07 09:55:31  5-MIN KDBQ 281555Z 14013G20KT 10SM FEW018 BKN070 19/10 A3016 860 54 1600 140/13G20 RMK AO2 SLP213 T01940100
94908KDBQ DBQ20070528100010905/28/07 10:00:31  5-MIN KDBQ 281600Z 14014G20KT 10SM FEW016 BKN070 19/10 A3016 860 54 1600 140/14G20 RMK AO2
94908KDBQ DBQ20070528100510905/28/07 10:05:31  5-MIN KDBQ 281605Z 15015G19KT 10SM FEW016 BKN070 19/11 A3016 860 56 1600 140/15G19 RMK AO2
94908KDBQ DBQ20070528101010305/28/07 10:10:31  5-MIN KDBQ 281610Z 15014KT 10SM FEW016 BKN070 21/11 A3016 860 54 1700 150/14 RMK AO2
94908KDBQ DBQ20070528101510905/28/07 10:15:31  5-MIN KDBQ 281615Z 15014G21KT 10SM FEW016 SCT070 21/11 A3016 860 54 1700 150/14G21 RMK AO2
94908KDBQ DBQ20070528102010905/28/07 10:20:31  5-MIN KDBQ 281620Z 15013G21KT 10SM FEW016 SCT075 21/12 A3016 860 54 1800 150/13G21 RMK AO2
94908KDBQ DBQ20070528102509605/28/07 10:25:31  5-MIN KDBQ 281625Z 17014KT 10SM FEW016 21/12 A3016 850 56 1800 170/14 RMK AO2
94908KDBQ DBQ20070528103009605/28/07 10:30:31  5-MIN KDBQ 281630Z 16013KT 10SM FEW075 22/12 A3016 850 54 1900 150/13 RMK AO2
94908KDBQ DBQ20070528103510205/28/07 10:35:31  5-MIN KDBQ 281635Z 15010G16KT 10SM FEW065 22/12 A3016 850 54 1900 150/10G16 RMK AO2
94908KDBQ DBQ20070528104010205/28/07 10:40:31  5-MIN KDBQ 281640Z 15012G18KT 10SM FEW065 22/12 A3016 860 54 1900 150/12G18 RMK AO2
94908KDBQ DBQ20070528104510205/28/07 10:45:31  5-MIN KDBQ 281645Z 16014G18KT 10SM FEW060 22/13 A3016 860 56 1900 160/14G18 RMK AO2
94908KDBQ DBQ20070528105012605/28/07 10:50:31  5-MIN KDBQ 281650Z 14010G17KT 10SM FEW055 SCT075 21/13 A3016 860 58 1800 140/10G17 RMK AO2 SLP213 T02110128
94908KDBQ DBQ20070528105512005/28/07 10:55:31  5-MIN KDBQ 281655Z 16011KT 10SM FEW060 BKN075 21/12 A3016 860 56 1800 160/11 RMK AO2 SLP213 T02110122
94908KDBQ DBQ20070528110010305/28/07 11:00:31  5-MIN KDBQ 281700Z 14009KT 10SM FEW060 BKN075 21/13 A3016 860 58 1800 140/09 RMK AO2
94908KDBQ DBQ20070528110510305/28/07 11:05:31  5-MIN KDBQ 281705Z 16009KT 10SM FEW050 SCT075 21/13 A3016 860 58 1800 150/09 RMK AO2
94908KDBQ DBQ20070528111010305/28/07 11:10:31  5-MIN KDBQ 281710Z 15011KT 10SM FEW050 BKN080 22/13 A3016 860 56 1900 150/11 RMK AO2
94908KDBQ DBQ20070528111510305/28/07 11:15:31  5-MIN KDBQ 281715Z 14011KT 10SM FEW055 BKN080 22/13 A3016 860 56 1900 140/11 RMK AO2
94908KDBQ DBQ20070528112011005/28/07 11:20:31  5-MIN KDBQ 281720Z 16011KT 10SM SCT046 SCT055 BKN080 22/13 A3016 860 58 1900 160/11 RMK AO2
94908KDBQ DBQ20070528112510305/28/07 11:25:31  5-MIN KDBQ 281725Z 16014KT 10SM SCT046 BKN080 22/13 A3016 860 56 1900 160/14 RMK AO2
94908KDBQ DBQ20070528113010305/28/07 11:30:31  5-MIN KDBQ 281730Z 16014KT 10SM BKN046 BKN080 22/14 A3015 860 59 1900 160/14 RMK AO2
94908KDBQ DBQ20070528113511605/28/07 11:35:31  5-MIN KDBQ 281735Z 17011G17KT 10SM SCT046 SCT070 BKN080 23/14 A3015 860 57 2000 170/11G17 RMK AO2
94908KDBQ DBQ20070528114010905/28/07 11:40:31  5-MIN KDBQ 281740Z 16010G17KT 10SM SCT046 BKN070 22/14 A3015 860 59 1900 160/10G17 RMK AO2
94908KDBQ DBQ20070528114510905/28/07 11:45:31  5-MIN KDBQ 281745Z 17011G17KT 10SM SCT046 BKN070 23/14 A3015 870 59 2000 170/11G17 RMK AO2
94908KDBQ DBQ20070528115015105/28/07 11:50:31  5-MIN KDBQ 281750Z 17012G17KT 10SM SCT042 SCT049 SCT065 22/14 A3015 860 61 1900 160/12G17 RMK AO2 SLP209 T02170139 10228 20161 50003
94908KDBQ DBQ20070528115514505/28/07 11:55:31  5-MIN KDBQ 281755Z 16014KT 10SM SCT040 BKN049 BKN070 22/14 A3015 860 63 1900 160/14 RMK AO2 SLP209 T02170144 10228 20161 58003
94908KDBQ DBQ20070528120010305/28/07 12:00:31  5-MIN KDBQ 281800Z 16012KT 10SM BKN040 BKN070 21/14 A3015 870 65 1800 160/12 RMK AO2
94908KDBQ DBQ20070528120510305/28/07 12:05:31  5-MIN KDBQ 281805Z 17014KT 10SM BKN040 BKN070 22/14 A3015 870 63 1900 170/14 RMK AO2
94908KDBQ DBQ20070528121010305/28/07 12:10:31  5-MIN KDBQ 281810Z 17010KT 10SM BKN040 BKN050 21/14 A3014 870 65 1800 160/10 RMK AO2
94908KDBQ DBQ20070528121511005/28/07 12:15:31  5-MIN KDBQ 281815Z 16012KT 10SM BKN040 BKN055 OVC090 21/14 A3014 870 67 1800 160/12 RMK AO2
94908KDBQ DBQ20070528122011005/28/07 12:20:31  5-MIN KDBQ 281820Z 17012KT 10SM BKN040 BKN055 OVC090 21/15 A3014 870 68 1800 170/12 RMK AO2
94908KDBQ DBQ20070528122510905/28/07 12:25:31  5-MIN KDBQ 281825Z 17011G16KT 10SM BKN042 BKN060 21/15 A3014 870 68 1800 170/11G16 RMK AO2
94908KDBQ DBQ20070528123010905/28/07 12:30:31  5-MIN KDBQ 281830Z 16011G16KT 10SM BKN042 BKN055 21/15 A3014 870 68 1800 150/11G16 RMK AO2
94908KDBQ DBQ20070528123510905/28/07 12:35:31  5-MIN KDBQ 281835Z 16010G18KT 10SM SCT042 OVC060 21/14 A3014 880 65 1800 160/10G18 RMK AO2
94908KDBQ DBQ20070528124010905/28/07 12:40:31  5-MIN KDBQ 281840Z 17012G18KT 10SM FEW042 OVC060 21/15 A3014 880 68 1800 160/12G18 RMK AO2
94908KDBQ DBQ20070528124510305/28/07 12:45:31  5-MIN KDBQ 281845Z 16012KT 10SM FEW042 BKN060 22/15 A3014 880 65 1900 160/12 RMK AO2
94908KDBQ DBQ20070528125012005/28/07 12:50:31  5-MIN KDBQ 281850Z 17011KT 10SM FEW042 BKN060 22/15 A3013 880 63 2000 160/11 RMK AO2 SLP203 T02220150
94908KDBQ DBQ20070528125511305/28/07 12:55:31  5-MIN KDBQ 281855Z 18012KT 10SM SCT060 23/16 A3013 880 63 2000 180/12 RMK AO2 SLP203 T02280156
94908KDBQ DBQ20070528130010305/28/07 13:00:31  5-MIN KDBQ 281900Z 19013KT 10SM FEW060 SCT075 22/16 A3013 880 65 2000 180/13 RMK AO2
94908KDBQ DBQ20070528130510205/28/07 13:05:31  5-MIN KDBQ 281905Z 18012G17KT 10SM FEW060 22/16 A3013 880 65 2000 180/12G17 RMK AO2
94908KDBQ DBQ20070528131010205/28/07 13:10:31  5-MIN KDBQ 281910Z 17013G17KT 10SM FEW100 22/15 A3013 890 63 2000 170/13G17 RMK AO2
94908KDBQ DBQ20070528131509605/28/07 13:15:31  5-MIN KDBQ 281915Z 17012KT 10SM FEW100 22/15 A3013 890 65 1900 170/12 RMK AO2
94908KDBQ DBQ20070528132009605/28/07 13:20:31  5-MIN KDBQ 281920Z 17014KT 10SM FEW100 22/15 A3013 890 65 1900 170/14 RMK AO2
94908KDBQ DBQ20070528132509605/28/07 13:25:31  5-MIN KDBQ 281925Z 19012KT 10SM FEW095 22/16 A3013 890 65 2000 180/12 RMK AO2
94908KDBQ DBQ20070528133010205/28/07 13:30:31  5-MIN KDBQ 281930Z 17013G17KT 10SM FEW090 22/15 A3013 880 63 2000 170/13G17 RMK AO2
94908KDBQ DBQ20070528133510205/28/07 13:35:31  5-MIN KDBQ 281935Z 17011G17KT 10SM FEW095 22/16 A3013 880 68 1900 170/11G17 RMK AO2
94908KDBQ DBQ20070528134009505/28/07 13:40:31  5-MIN KDBQ 281940Z 18010KT 9SM FEW080 22/16 A3013 880 65 2000 180/10 RMK AO2
94908KDBQ DBQ20070528134509505/28/07 13:45:31  5-MIN KDBQ 281945Z 16013KT 9SM SCT075 22/16 A3013 890 65 2000 160/13 RMK AO2
94908KDBQ DBQ20070528135011205/28/07 13:50:31  5-MIN KDBQ 281950Z 17010KT 9SM SCT080 22/16 A3013 890 65 2000 170/10 RMK AO2 SLP201 T02220156
94908KDBQ DBQ20070528135511205/28/07 13:55:31  5-MIN KDBQ 281955Z 17011KT 9SM SCT080 22/16 A3013 890 65 2000 170/11 RMK AO2 SLP200 T02220156
94908KDBQ DBQ20070528140009505/28/07 14:00:31  5-MIN KDBQ 282000Z 17011KT 9SM BKN024 22/16 A3012 890 68 2000 170/11 RMK AO2
94908KDBQ DBQ20070528140509505/28/07 14:05:31  5-MIN KDBQ 282005Z 17011KT 9SM BKN024 23/16 A3012 890 65 2000 170/11 RMK AO2
94908KDBQ DBQ20070528141009505/28/07 14:10:31  5-MIN KDBQ 282010Z 16011KT 9SM BKN024 22/16 A3012 900 68 2000 160/11 RMK AO2
94908KDBQ DBQ20070528141509505/28/07 14:15:31  5-MIN KDBQ 282015Z 17011KT 9SM BKN024 22/16 A3012 900 68 2000 160/11 RMK AO2
94908KDBQ DBQ20070528142009505/28/07 14:20:31  5-MIN KDBQ 282020Z 17009KT 9SM BKN024 22/16 A3012 900 68 2000 170/09 RMK AO2
94908KDBQ DBQ20070528142509505/28/07 14:25:31  5-MIN KDBQ 282025Z 18009KT 9SM BKN024 23/17 A3012 900 68 2000 180/09 RMK AO2
94908KDBQ DBQ20070528143009505/28/07 14:30:31  5-MIN KDBQ 282030Z 15010KT 9SM BKN024 23/17 A3012 900 68 2000 150/10 RMK AO2
94908KDBQ DBQ20070528143509505/28/07 14:35:31  5-MIN KDBQ 282035Z 15011KT 9SM BKN024 23/17 A3012 900 66 2100 150/11 RMK AO2
94908KDBQ DBQ20070528144009605/28/07 14:40:31  5-MIN KDBQ 282040Z 16010KT 10SM BKN024 23/17 A3012 900 66 2100 150/10 RMK AO2
94908KDBQ DBQ20070528144509505/28/07 14:45:31  5-MIN KDBQ 282045Z 18007KT 9SM BKN024 23/17 A3011 900 66 2100 180/07 RMK AO2
94908KDBQ DBQ20070528145011905/28/07 14:50:31  5-MIN KDBQ 282050Z 14010KT 10SM BKN024 24/17 A3011 900 66 2200 140/10 RMK AO2 SLP194 T02390172 58003
94908KDBQ DBQ20070528145511905/28/07 14:55:31  5-MIN KDBQ 282055Z 17010KT 10SM BKN022 23/17 A3011 900 66 2100 170/10 RMK AO2 SLP194 T02330167 56013
94908KDBQ DBQ20070528150009505/28/07 15:00:31  5-MIN KDBQ 282100Z 17007KT 9SM BKN022 23/16 A3011 900 65 2000 170/07 RMK AO2
94908KDBQ DBQ20070528150509505/28/07 15:05:31  5-MIN KDBQ 282105Z 18006KT 9SM BKN022 23/17 A3011 900 66 2100 180/06 RMK AO2
94908KDBQ DBQ20070528151009505/28/07 15:10:31  5-MIN KDBQ 282110Z 18009KT 9SM BKN022 23/17 A3011 900 66 2100 170/09 RMK AO2
94908KDBQ DBQ20070528151509505/28/07 15:15:31  5-MIN KDBQ 282115Z 17006KT 9SM BKN022 23/17 A3011 900 66 2100 170/06 RMK AO2
94908KDBQ DBQ20070528152009505/28/07 15:20:31  5-MIN KDBQ 282120Z 19007KT 9SM BKN022 23/17 A3011 910 66 2100 190/07 RMK AO2
94908KDBQ DBQ20070528152509505/28/07 15:25:31  5-MIN KDBQ 282125Z 18008KT 9SM BKN022 23/17 A3011 910 66 2100 180/08 RMK AO2
94908KDBQ DBQ20070528153009505/28/07 15:30:31  5-MIN KDBQ 282130Z 17011KT 9SM BKN022 23/17 A3011 910 66 2100 170/11 RMK AO2
94908KDBQ DBQ20070528153509505/28/07 15:35:31  5-MIN KDBQ 282135Z 16010KT 9SM BKN022 23/17 A3011 910 66 2100 160/10 RMK AO2
94908KDBQ DBQ20070528154009505/28/07 15:40:31  5-MIN KDBQ 282140Z 18009KT 9SM BKN022 23/17 A3010 910 66 2100 180/09 RMK AO2
94908KDBQ DBQ20070528154510205/28/07 15:45:31  5-MIN KDBQ 282145Z 17012KT 9SM FEW026 BKN033 23/17 A3010 910 66 2100 170/12 RMK AO2
94908KDBQ DBQ20070528155011305/28/07 15:50:31  5-MIN KDBQ 282150Z 17007KT 10SM BKN033 23/17 A3010 910 66 2100 170/07 RMK AO2 SLP189 T02330167
94908KDBQ DBQ20070528155512005/28/07 15:55:31  5-MIN KDBQ 282155Z 16009KT 10SM SCT030 BKN037 23/17 A3010 920 66 2100 160/09 RMK AO2 SLP188 T02330167
94908KDBQ DBQ20070528160010305/28/07 16:00:31  5-MIN KDBQ 282200Z 17012KT 10SM SCT029 SCT035 24/17 A3010 920 63 2200 170/12 RMK AO2
94908KDBQ DBQ20070528160509605/28/07 16:05:31  5-MIN KDBQ 282205Z 16009KT 10SM FEW031 23/16 A3010 920 63 2100 160/09 RMK AO2
94908KDBQ DBQ20070528161009605/28/07 16:10:31  5-MIN KDBQ 282210Z 17009KT 10SM FEW029 24/16 A3010 920 61 2200 170/09 RMK AO2
94908KDBQ DBQ20070528161509605/28/07 16:15:31  5-MIN KDBQ 282215Z 18008KT 10SM FEW029 23/16 A3009 920 63 2100 170/08 RMK AO2
94908KDBQ DBQ20070528162009605/28/07 16:20:31  5-MIN KDBQ 282220Z 16009KT 10SM FEW045 23/16 A3009 920 63 2100 160/09 RMK AO2
94908KDBQ DBQ20070528162510305/28/07 16:25:31  5-MIN KDBQ 282225Z 16010KT 10SM FEW045 SCT110 23/16 A3009 920 63 2100 160/10 RMK AO2
94908KDBQ DBQ20070528163009605/28/07 16:30:31  5-MIN KDBQ 282230Z 17008KT 10SM FEW045 23/16 A3009 920 63 2100 170/08 RMK AO2
94908KDBQ DBQ20070528163509605/28/07 16:35:31  5-MIN KDBQ 282235Z 17011KT 10SM FEW045 23/16 A3009 920 63 2100 160/11 RMK AO2
94908KDBQ DBQ20070528164009605/28/07 16:40:31  5-MIN KDBQ 282240Z 16009KT 10SM FEW045 24/17 A3009 920 63 2200 160/09 RMK AO2
94908KDBQ DBQ20070528164509605/28/07 16:45:31  5-MIN KDBQ 282245Z 15009KT 10SM FEW110 24/17 A3009 920 63 2200 150/09 RMK AO2
94908KDBQ DBQ20070528165011305/28/07 16:50:31  5-MIN KDBQ 282250Z 14012KT 10SM FEW110 24/17 A3009 920 63 2200 140/12 RMK AO2 SLP186 T02390167
94908KDBQ DBQ20070528165511005/28/07 16:55:31  5-MIN KDBQ 282255Z 15010KT 10SM CLR 24/17 A3009 920 63 2200 150/10 RMK AO2 SLP185 T02390167
94908KDBQ DBQ20070528170009305/28/07 17:00:31  5-MIN KDBQ 282300Z 16009KT 10SM CLR 24/17 A3009 930 63 2200 160/09 RMK AO2
94908KDBQ DBQ20070528170509305/28/07 17:05:31  5-MIN KDBQ 282305Z 15009KT 10SM CLR 23/16 A3009 920 63 2100 150/09 RMK AO2
94908KDBQ DBQ20070528171009305/28/07 17:10:31  5-MIN KDBQ 282310Z 16009KT 10SM CLR 23/16 A3009 920 63 2100 160/09 RMK AO2
94908KDBQ DBQ20070528171509305/28/07 17:15:31  5-MIN KDBQ 282315Z 15009KT 10SM CLR 23/16 A3009 930 63 2100 150/09 RMK AO2
94908KDBQ DBQ20070528172009305/28/07 17:20:31  5-MIN KDBQ 282320Z 15007KT 10SM CLR 23/16 A3009 930 63 2100 150/07 RMK AO2
94908KDBQ DBQ20070528172509605/28/07 17:25:31  5-MIN KDBQ 282325Z 15009KT 10SM FEW110 23/16 A3008 930 63 2100 150/09 RMK AO2
94908KDBQ DBQ20070528173009605/28/07 17:30:31  5-MIN KDBQ 282330Z 15008KT 10SM FEW110 23/16 A3008 930 63 2100 150/08 RMK AO2
94908KDBQ DBQ20070528173509605/28/07 17:35:31  5-MIN KDBQ 282335Z 16008KT 10SM FEW110 23/16 A3008 930 63 2100 150/08 RMK AO2
94908KDBQ DBQ20070528174009605/28/07 17:40:31  5-MIN KDBQ 282340Z 15007KT 10SM FEW110 23/16 A3008 930 63 2100 150/07 RMK AO2
94908KDBQ DBQ20070528174509605/28/07 17:45:31  5-MIN KDBQ 282345Z 14007KT 10SM FEW110 23/17 A3009 930 66 2100 140/07 RMK AO2
94908KDBQ DBQ20070528175013105/28/07 17:50:31  5-MIN KDBQ 282350Z 13009KT 10SM FEW110 23/17 A3008 930 66 2100 130/09 RMK AO2 SLP184 T02330167 10239 20206 56013
94908KDBQ DBQ20070528175513105/28/07 17:55:31  5-MIN KDBQ 282355Z 14006KT 10SM FEW110 23/17 A3008 930 66 2100 130/06 RMK AO2 SLP184 T02330167 10239 20206 56009
94908KDBQ DBQ20070528180009605/28/07 18:00:31  5-MIN KDBQ 290000Z 14008KT 10SM FEW110 23/17 A3008 930 66 2100 140/08 RMK AO2
94908KDBQ DBQ20070528180509305/28/07 18:05:31  5-MIN KDBQ 290005Z 14006KT 10SM CLR 23/17 A3008 930 66 2100 140/06 RMK AO2
94908KDBQ DBQ20070528181009305/28/07 18:10:31  5-MIN KDBQ 290010Z 14008KT 10SM CLR 23/17 A3008 930 66 2100 140/08 RMK AO2
94908KDBQ DBQ20070528181509305/28/07 18:15:31  5-MIN KDBQ 290015Z 12008KT 10SM CLR 24/17 A3008 930 63 2200 120/08 RMK AO2
94908KDBQ DBQ20070528182009305/28/07 18:20:31  5-MIN KDBQ 290020Z 13009KT 10SM CLR 23/17 A3008 930 66 2100 130/09 RMK AO2
94908KDBQ DBQ20070528182510305/28/07 18:25:31  5-MIN KDBQ 290025Z AUTO 12008KT 10SM CLR 23/17 A3008 930 66 2100 120/08 RMK AO2 TSNO
94908KDBQ DBQ20070528183010305/28/07 18:30:31  5-MIN KDBQ 290030Z AUTO 12009KT 10SM CLR 23/17 A3008 930 66 2100 120/09 RMK AO2 TSNO
94908KDBQ DBQ20070528183510305/28/07 18:35:31  5-MIN KDBQ 290035Z AUTO 13008KT 10SM CLR 23/17 A3008 930 66 2100 130/08 RMK AO2 TSNO
94908KDBQ DBQ20070528184010305/28/07 18:40:31  5-MIN KDBQ 290040Z AUTO 13007KT 10SM CLR 23/17 A3008 930 66 2100 120/07 RMK AO2 TSNO
94908KDBQ DBQ20070528184510305/28/07 18:45:31  5-MIN KDBQ 290045Z AUTO 13007KT 10SM CLR 23/17 A3008 930 68 2100 130/07 RMK AO2 TSNO
94908KDBQ DBQ20070528185012005/28/07 18:50:31  5-MIN KDBQ 290050Z AUTO 13007KT 10SM CLR 23/17 A3008 930 68 2100 120/07 RMK AO2 SLP182 T02280167 TSNO
94908KDBQ DBQ20070528185512005/28/07 18:55:31  5-MIN KDBQ 290055Z AUTO 12007KT 10SM CLR 23/17 A3008 930 70 2100 120/07 RMK AO2 SLP182 T02280172 TSNO
94908KDBQ DBQ20070528190010305/28/07 19:00:31  5-MIN KDBQ 290100Z AUTO 13007KT 10SM CLR 23/17 A3008 930 70 2100 130/07 RMK AO2 TSNO
94908KDBQ DBQ20070528190510205/28/07 19:05:31  5-MIN KDBQ 290105Z AUTO 13006KT 9SM CLR 22/17 A3008 930 73 2000 120/06 RMK AO2 TSNO
94908KDBQ DBQ20070528191010205/28/07 19:10:31  5-MIN KDBQ 290110Z AUTO 13006KT 9SM CLR 22/17 A3008 930 73 2000 120/06 RMK AO2 TSNO
94908KDBQ DBQ20070528191510205/28/07 19:15:31  5-MIN KDBQ 290115Z AUTO 13006KT 9SM CLR 22/17 A3008 930 73 2000 130/06 RMK AO2 TSNO
94908KDBQ DBQ20070528192010205/28/07 19:20:31  5-MIN KDBQ 290120Z AUTO 13006KT 9SM CLR 22/17 A3008 930 70 2000 130/06 RMK AO2 TSNO
94908KDBQ DBQ20070528192510205/28/07 19:25:31  5-MIN KDBQ 290125Z AUTO 14005KT 9SM CLR 22/17 A3008 930 73 2000 130/05 RMK AO2 TSNO
94908KDBQ DBQ20070528193010205/28/07 19:30:31  5-MIN KDBQ 290130Z AUTO 13005KT 8SM CLR 22/17 A3008 930 73 2000 130/05 RMK AO2 TSNO
94908KDBQ DBQ20070528193510205/28/07 19:35:31  5-MIN KDBQ 290135Z AUTO 13006KT 8SM CLR 22/17 A3008 930 73 2000 130/06 RMK AO2 TSNO
94908KDBQ DBQ20070528194010205/28/07 19:40:31  5-MIN KDBQ 290140Z AUTO 13005KT 8SM CLR 22/17 A3008 930 73 2000 130/05 RMK AO2 TSNO
94908KDBQ DBQ20070528194510205/28/07 19:45:31  5-MIN KDBQ 290145Z AUTO 13006KT 8SM CLR 22/17 A3008 930 73 2000 130/06 RMK AO2 TSNO
94908KDBQ DBQ20070528195011905/28/07 19:50:31  5-MIN KDBQ 290150Z AUTO 13006KT 9SM CLR 21/17 A3008 930 75 1900 130/06 RMK AO2 SLP183 T02110167 TSNO
94908KDBQ DBQ20070528195511905/28/07 19:55:31  5-MIN KDBQ 290155Z AUTO 13006KT 9SM CLR 21/17 A3008 930 75 1900 130/06 RMK AO2 SLP184 T02110167 TSNO
94908KDBQ DBQ20070528200010205/28/07 20:00:31  5-MIN KDBQ 290200Z AUTO 13006KT 9SM CLR 21/17 A3009 930 75 1900 130/06 RMK AO2 TSNO
94908KDBQ DBQ20070528200510205/28/07 20:05:31  5-MIN KDBQ 290205Z AUTO 13006KT 9SM CLR 21/17 A3009 920 75 1900 130/06 RMK AO2 TSNO
94908KDBQ DBQ20070528201010205/28/07 20:10:31  5-MIN KDBQ 290210Z AUTO 13007KT 9SM CLR 21/17 A3009 930 75 1900 130/07 RMK AO2 TSNO
94908KDBQ DBQ20070528201510205/28/07 20:15:31  5-MIN KDBQ 290215Z AUTO 14006KT 9SM CLR 21/17 A3009 920 78 1800 140/06 RMK AO2 TSNO
94908KDBQ DBQ20070528202010205/28/07 20:20:31  5-MIN KDBQ 290220Z AUTO 14006KT 9SM CLR 21/17 A3009 920 78 1800 140/06 RMK AO2 TSNO
94908KDBQ DBQ20070528202510205/28/07 20:25:31  5-MIN KDBQ 290225Z AUTO 14006KT 9SM CLR 21/17 A3009 920 78 1800 140/06 RMK AO2 TSNO
94908KDBQ DBQ20070528203010205/28/07 20:30:31  5-MIN KDBQ 290230Z AUTO 14006KT 9SM CLR 21/17 A3009 920 78 1800 140/06 RMK AO2 TSNO
94908KDBQ DBQ20070528203510205/28/07 20:35:31  5-MIN KDBQ 290235Z AUTO 14006KT 9SM CLR 21/17 A3010 920 78 1800 140/06 RMK AO2 TSNO
94908KDBQ DBQ20070528204010205/28/07 20:40:31  5-MIN KDBQ 290240Z AUTO 14007KT 9SM CLR 21/17 A3010 920 78 1800 140/07 RMK AO2 TSNO
94908KDBQ DBQ20070528204510205/28/07 20:45:31  5-MIN KDBQ 290245Z AUTO 14007KT 8SM CLR 20/17 A3010 920 81 1800 140/07 RMK AO2 TSNO
94908KDBQ DBQ20070528205012505/28/07 20:50:31  5-MIN KDBQ 290250Z AUTO 14008KT 8SM CLR 20/17 A3010 920 81 1800 140/08 RMK AO2 SLP188 T02000167 56009 TSNO
94908KDBQ DBQ20070528205512505/28/07 20:55:31  5-MIN KDBQ 290255Z AUTO 14008KT 8SM CLR 20/17 A3010 920 81 1800 140/08 RMK AO2 SLP188 T02000167 53004 TSNO
94908KDBQ DBQ20070528210010205/28/07 21:00:31  5-MIN KDBQ 290300Z AUTO 14009KT 8SM CLR 20/17 A3010 920 81 1700 140/09 RMK AO2 TSNO
94908KDBQ DBQ20070528210510205/28/07 21:05:31  5-MIN KDBQ 290305Z AUTO 14007KT 8SM CLR 20/17 A3010 920 81 1800 140/07 RMK AO2 TSNO
94908KDBQ DBQ20070528211010205/28/07 21:10:31  5-MIN KDBQ 290310Z AUTO 14008KT 8SM CLR 20/17 A3010 920 81 1800 140/08 RMK AO2 TSNO
94908KDBQ DBQ20070528211510205/28/07 21:15:31  5-MIN KDBQ 290315Z AUTO 14009KT 7SM CLR 20/17 A3010 920 81 1800 140/09 RMK AO2 TSNO
94908KDBQ DBQ20070528212010205/28/07 21:20:31  5-MIN KDBQ 290320Z AUTO 14008KT 7SM CLR 21/17 A3010 920 78 1800 140/08 RMK AO2 TSNO
94908KDBQ DBQ20070528212510205/28/07 21:25:31  5-MIN KDBQ 290325Z AUTO 15008KT 7SM CLR 20/17 A3010 910 81 1700 140/08 RMK AO2 TSNO
94908KDBQ DBQ20070528213010205/28/07 21:30:31  5-MIN KDBQ 290330Z AUTO 14009KT 7SM CLR 20/17 A3010 920 81 1700 140/09 RMK AO2 TSNO
94908KDBQ DBQ20070528213510205/28/07 21:35:31  5-MIN KDBQ 290335Z AUTO 14008KT 7SM CLR 21/17 A3010 910 78 1800 140/08 RMK AO2 TSNO
94908KDBQ DBQ20070528214010205/28/07 21:40:31  5-MIN KDBQ 290340Z AUTO 15009KT 7SM CLR 20/17 A3010 910 81 1700 150/09 RMK AO2 TSNO
94908KDBQ DBQ20070528214510205/28/07 21:45:31  5-MIN KDBQ 290345Z AUTO 15008KT 7SM CLR 20/17 A3010 910 81 1700 150/08 RMK AO2 TSNO
94908KDBQ DBQ20070528215012205/28/07 21:50:31  5-MIN KDBQ 290350Z AUTO 15008KT 7SM FEW043 20/17 A3010 910 81 1700 150/08 RMK AO2 SLP189 T02000167 TSNO
94908KDBQ DBQ20070528215512205/28/07 21:55:31  5-MIN KDBQ 290355Z AUTO 15007KT 7SM SCT043 21/17 A3010 910 78 1800 150/07 RMK AO2 SLP189 T02060167 TSNO
94908KDBQ DBQ20070528220010505/28/07 22:00:31  5-MIN KDBQ 290400Z AUTO 15007KT 7SM BKN043 21/17 A3010 910 78 1800 150/07 RMK AO2 TSNO
94908KDBQ DBQ20070528220511205/28/07 22:05:31  5-MIN KDBQ 290405Z AUTO 16009KT 7SM SCT040 BKN048 21/17 A3010 910 78 1800 150/09 RMK AO2 TSNO
94908KDBQ DBQ20070528221011205/28/07 22:10:31  5-MIN KDBQ 290410Z AUTO 16009KT 7SM FEW036 BKN048 21/17 A3010 910 75 1900 160/09 RMK AO2 TSNO
94908KDBQ DBQ20070528221511905/28/07 22:15:31  5-MIN KDBQ 290415Z AUTO 16010KT 7SM FEW036 BKN045 BKN050 21/17 A3010 920 78 1800 160/10 RMK AO2 TSNO
94908KDBQ DBQ20070528222011205/28/07 22:20:31  5-MIN KDBQ 290420Z AUTO 16010KT 7SM FEW036 SCT047 21/17 A3009 920 78 1800 150/10 RMK AO2 TSNO
94908KDBQ DBQ20070528222511505/28/07 22:25:31  5-MIN KDBQ 290425Z AUTO 16009KT 6SM HZ FEW038 SCT049 21/17 A3010 920 78 1800 160/09 RMK AO2 TSNO
94908KDBQ DBQ20070528223010805/28/07 22:30:31  5-MIN KDBQ 290430Z AUTO 16009KT 6SM HZ FEW035 21/17 A3009 920 78 1800 160/09 RMK AO2 TSNO
94908KDBQ DBQ20070528223510505/28/07 22:35:31  5-MIN KDBQ 290435Z AUTO 16010KT 6SM HZ CLR 21/17 A3009 920 78 1800 160/10 RMK AO2 TSNO
94908KDBQ DBQ20070528224010505/28/07 22:40:31  5-MIN KDBQ 290440Z AUTO 16010KT 6SM HZ CLR 21/17 A3009 920 78 1800 150/10 RMK AO2 TSNO
94908KDBQ DBQ20070528224510505/28/07 22:45:31  5-MIN KDBQ 290445Z AUTO 16010KT 6SM HZ CLR 21/17 A3009 920 78 1800 160/10 RMK AO2 TSNO
94908KDBQ DBQ20070528225012205/28/07 22:50:31  5-MIN KDBQ 290450Z AUTO 16011KT 6SM HZ CLR 20/17 A3009 920 81 1800 160/11 RMK AO2 SLP185 T02000167 TSNO
94908KDBQ DBQ20070528225512205/28/07 22:55:31  5-MIN KDBQ 290455Z AUTO 16010KT 6SM HZ CLR 21/17 A3009 920 78 1800 160/10 RMK AO2 SLP185 T02060167 TSNO
94908KDBQ DBQ20070528230010505/28/07 23:00:31  5-MIN KDBQ 290500Z AUTO 16010KT 6SM HZ CLR 21/17 A3009 920 78 1800 150/10 RMK AO2 TSNO
94908KDBQ DBQ20070528230510505/28/07 23:05:31  5-MIN KDBQ 290505Z AUTO 16009KT 6SM HZ CLR 20/17 A3009 920 81 1800 160/09 RMK AO2 TSNO
94908KDBQ DBQ20070528231010505/28/07 23:10:31  5-MIN KDBQ 290510Z AUTO 16010KT 6SM HZ CLR 20/17 A3009 920 81 1800 160/10 RMK AO2 TSNO
94908KDBQ DBQ20070528231510505/28/07 23:15:31  5-MIN KDBQ 290515Z AUTO 16009KT 6SM HZ CLR 20/17 A3009 920 81 1800 160/09 RMK AO2 TSNO
94908KDBQ DBQ20070528232010505/28/07 23:20:31  5-MIN KDBQ 290520Z AUTO 16009KT 6SM HZ CLR 20/17 A3009 920 81 1800 160/09 RMK AO2 TSNO
94908KDBQ DBQ20070528232510505/28/07 23:25:31  5-MIN KDBQ 290525Z AUTO 16010KT 6SM HZ CLR 20/17 A3009 920 81 1800 160/10 RMK AO2 TSNO
94908KDBQ DBQ20070528233010505/28/07 23:30:31  5-MIN KDBQ 290530Z AUTO 16009KT 6SM HZ CLR 20/17 A3009 920 81 1800 160/09 RMK AO2 TSNO
94908KDBQ DBQ20070528233510505/28/07 23:35:31  5-MIN KDBQ 290535Z AUTO 16009KT 6SM HZ CLR 20/17 A3009 920 81 1800 160/09 RMK AO2 TSNO
94908KDBQ DBQ20070528234010505/28/07 23:40:31  5-MIN KDBQ 290540Z AUTO 16009KT 6SM HZ CLR 20/17 A3009 920 81 1800 160/09 RMK AO2 TSNO
94908KDBQ DBQ20070528234510505/28/07 23:45:31  5-MIN KDBQ 290545Z AUTO 16009KT 6SM HZ CLR 20/17 A3010 920 81 1800 160/09 RMK AO2 TSNO
94908KDBQ DBQ20070528235015005/28/07 23:50:31  5-MIN KDBQ 290550Z AUTO 16009KT 5SM HZ CLR 20/17 A3009 920 81 1800 160/09 RMK AO2 SLP186 T02000167 10239 20200 402390106 53004 TSNO
94908KDBQ DBQ20070528235515005/28/07 23:55:31  5-MIN KDBQ 290555Z AUTO 16009KT 5SM HZ CLR 19/17 A3009 920 84 1700 160/09 RMK AO2 SLP186 T01940167 10239 20194 402390106 58001 TSNO
94908KDBQ DBQ20070529000010505/29/07 00:00:38  5-MIN KDBQ 290600Z AUTO 16009KT 5SM HZ CLR 19/17 A3009 920 84 1700 150/09 RMK AO2 TSNO
94908KDBQ DBQ20070529000510505/29/07 00:05:31  5-MIN KDBQ 290605Z AUTO 15008KT 5SM HZ CLR 19/17 A3009 920 84 1700 150/08 RMK AO2 TSNO
94908KDBQ DBQ20070529001010505/29/07 00:10:31  5-MIN KDBQ 290610Z AUTO 16009KT 5SM HZ CLR 19/17 A3009 920 84 1700 160/09 RMK AO2 TSNO
94908KDBQ DBQ20070529001510505/29/07 00:15:32  5-MIN KDBQ 290615Z AUTO 16008KT 5SM HZ CLR 19/17 A3009 920 84 1700 160/08 RMK AO2 TSNO
94908KDBQ DBQ20070529002010505/29/07 00:20:31  5-MIN KDBQ 290620Z AUTO 16009KT 5SM HZ CLR 19/17 A3009 920 84 1700 160/09 RMK AO2 TSNO
94908KDBQ DBQ20070529002510505/29/07 00:25:31  5-MIN KDBQ 290625Z AUTO 15009KT 5SM HZ CLR 19/17 A3009 920 84 1700 150/09 RMK AO2 TSNO
94908KDBQ DBQ20070529003010505/29/07 00:30:31  5-MIN KDBQ 290630Z AUTO 15009KT 5SM HZ CLR 19/17 A3009 920 84 1700 150/09 RMK AO2 TSNO
94908KDBQ DBQ20070529003510505/29/07 00:35:31  5-MIN KDBQ 290635Z AUTO 16010KT 5SM HZ CLR 19/17 A3009 920 84 1700 160/10 RMK AO2 TSNO
94908KDBQ DBQ20070529004010505/29/07 00:40:31  5-MIN KDBQ 290640Z AUTO 16009KT 5SM HZ CLR 19/17 A3009 920 84 1700 160/09 RMK AO2 TSNO
94908KDBQ DBQ20070529004510505/29/07 00:45:31  5-MIN KDBQ 290645Z AUTO 16008KT 5SM HZ CLR 19/17 A3009 920 84 1700 160/08 RMK AO2 TSNO
94908KDBQ DBQ20070529005012205/29/07 00:50:31  5-MIN KDBQ 290650Z AUTO 17008KT 5SM HZ CLR 19/17 A3009 920 84 1700 160/08 RMK AO2 SLP184 T01940167 TSNO
94908KDBQ DBQ20070529005512205/29/07 00:55:31  5-MIN KDBQ 290655Z AUTO 16009KT 5SM HZ CLR 19/17 A3009 920 84 1700 160/09 RMK AO2 SLP184 T01940167 TSNO
94908KDBQ DBQ20070529010010505/29/07 01:00:31  5-MIN KDBQ 290700Z AUTO 17009KT 5SM HZ CLR 19/17 A3009 930 84 1700 160/09 RMK AO2 TSNO
94908KDBQ DBQ20070529010510505/29/07 01:05:31  5-MIN KDBQ 290705Z AUTO 17009KT 5SM BR CLR 19/17 A3009 920 87 1600 170/09 RMK AO2 TSNO
94908KDBQ DBQ20070529011010505/29/07 01:10:31  5-MIN KDBQ 290710Z AUTO 17009KT 5SM BR CLR 19/17 A3009 920 87 1600 170/09 RMK AO2 TSNO
94908KDBQ DBQ20070529011510505/29/07 01:15:31  5-MIN KDBQ 290715Z AUTO 16008KT 5SM BR CLR 19/17 A3009 920 87 1600 160/08 RMK AO2 TSNO
94908KDBQ DBQ20070529012010505/29/07 01:20:31  5-MIN KDBQ 290720Z AUTO 16009KT 5SM BR CLR 19/17 A3009 920 87 1600 160/09 RMK AO2 TSNO
94908KDBQ DBQ20070529012510505/29/07 01:25:31  5-MIN KDBQ 290725Z AUTO 16009KT 5SM BR CLR 19/17 A3009 930 87 1600 160/09 RMK AO2 TSNO
94908KDBQ DBQ20070529013010505/29/07 01:30:31  5-MIN KDBQ 290730Z AUTO 16009KT 5SM BR CLR 19/17 A3008 930 87 1600 160/09 RMK AO2 TSNO
94908KDBQ DBQ20070529013510505/29/07 01:35:31  5-MIN KDBQ 290735Z AUTO 16009KT 5SM BR CLR 19/17 A3008 930 87 1600 160/09 RMK AO2 TSNO
94908KDBQ DBQ20070529014010505/29/07 01:40:31  5-MIN KDBQ 290740Z AUTO 16009KT 5SM BR CLR 19/17 A3008 930 87 1600 160/09 RMK AO2 TSNO
94908KDBQ DBQ20070529014510505/29/07 01:45:31  5-MIN KDBQ 290745Z AUTO 16009KT 5SM BR CLR 19/17 A3008 930 87 1600 160/09 RMK AO2 TSNO
94908KDBQ DBQ20070529015012205/29/07 01:50:31  5-MIN KDBQ 290750Z AUTO 16008KT 5SM BR CLR 19/17 A3008 930 87 1600 160/08 RMK AO2 SLP181 T01890167 TSNO
94908KDBQ DBQ20070529015512205/29/07 01:55:31  5-MIN KDBQ 290755Z AUTO 16008KT 5SM BR CLR 19/17 A3008 930 87 1600 160/08 RMK AO2 SLP182 T01890167 TSNO
94908KDBQ DBQ20070529020010505/29/07 02:00:31  5-MIN KDBQ 290800Z AUTO 16009KT 5SM BR CLR 19/17 A3008 930 87 1600 160/09 RMK AO2 TSNO
94908KDBQ DBQ20070529020510505/29/07 02:05:31  5-MIN KDBQ 290805Z AUTO 16008KT 5SM BR CLR 19/17 A3008 930 87 1600 160/08 RMK AO2 TSNO
94908KDBQ DBQ20070529021010505/29/07 02:10:31  5-MIN KDBQ 290810Z AUTO 16008KT 5SM BR CLR 19/17 A3008 930 87 1600 160/08 RMK AO2 TSNO
94908KDBQ DBQ20070529021510505/29/07 02:15:31  5-MIN KDBQ 290815Z AUTO 16009KT 5SM BR CLR 19/17 A3008 930 87 1600 160/09 RMK AO2 TSNO
94908KDBQ DBQ20070529022010505/29/07 02:20:31  5-MIN KDBQ 290820Z AUTO 16009KT 5SM BR CLR 19/17 A3008 930 87 1600 160/09 RMK AO2 TSNO
94908KDBQ DBQ20070529022510505/29/07 02:25:31  5-MIN KDBQ 290825Z AUTO 16008KT 5SM BR CLR 19/17 A3008 930 87 1600 150/08 RMK AO2 TSNO
94908KDBQ DBQ20070529023010505/29/07 02:30:31  5-MIN KDBQ 290830Z AUTO 16009KT 5SM BR CLR 19/17 A3008 930 87 1600 160/09 RMK AO2 TSNO
94908KDBQ DBQ20070529023510505/29/07 02:35:31  5-MIN KDBQ 290835Z AUTO 16009KT 5SM BR CLR 19/17 A3008 930 87 1600 160/09 RMK AO2 TSNO
94908KDBQ DBQ20070529024010505/29/07 02:40:31  5-MIN KDBQ 290840Z AUTO 16008KT 5SM BR CLR 19/17 A3008 930 87 1600 160/08 RMK AO2 TSNO
94908KDBQ DBQ20070529024510505/29/07 02:45:31  5-MIN KDBQ 290845Z AUTO 16008KT 5SM BR CLR 19/17 A3008 940 87 1600 160/08 RMK AO2 TSNO
94908KDBQ DBQ20070529025012805/29/07 02:50:31  5-MIN KDBQ 290850Z AUTO 16008KT 5SM BR CLR 19/17 A3008 930 87 1600 160/08 RMK AO2 SLP180 T01890167 58001 TSNO
94908KDBQ DBQ20070529025512805/29/07 02:55:31  5-MIN KDBQ 290855Z AUTO 16008KT 5SM BR CLR 19/17 A3008 930 87 1600 160/08 RMK AO2 SLP181 T01890167 56005 TSNO
94908KDBQ DBQ20070529030010505/29/07 03:00:31  5-MIN KDBQ 290900Z AUTO 16008KT 5SM BR CLR 18/17 A3008 930 90 1600 160/08 RMK AO2 TSNO
94908KDBQ DBQ20070529030510505/29/07 03:05:31  5-MIN KDBQ 290905Z AUTO 16008KT 5SM BR CLR 18/17 A3008 930 90 1600 160/08 RMK AO2 TSNO
94908KDBQ DBQ20070529031010505/29/07 03:10:31  5-MIN KDBQ 290910Z AUTO 16009KT 5SM BR CLR 18/17 A3008 930 90 1600 160/09 RMK AO2 TSNO
94908KDBQ DBQ20070529031510505/29/07 03:15:31  5-MIN KDBQ 290915Z AUTO 16009KT 5SM BR CLR 18/17 A3008 930 90 1600 160/09 RMK AO2 TSNO
94908KDBQ DBQ20070529032010505/29/07 03:20:31  5-MIN KDBQ 290920Z AUTO 16009KT 5SM BR CLR 18/17 A3008 930 90 1600 160/09 RMK AO2 TSNO
94908KDBQ DBQ20070529032510505/29/07 03:25:31  5-MIN KDBQ 290925Z AUTO 16009KT 5SM BR CLR 18/17 A3008 930 90 1600 160/09 RMK AO2 TSNO
94908KDBQ DBQ20070529033010505/29/07 03:30:31  5-MIN KDBQ 290930Z AUTO 16008KT 5SM BR CLR 18/17 A3008 930 90 1600 160/08 RMK AO2 TSNO
94908KDBQ DBQ20070529033510505/29/07 03:35:31  5-MIN KDBQ 290935Z AUTO 16008KT 5SM BR CLR 18/17 A3008 930 90 1600 160/08 RMK AO2 TSNO
94908KDBQ DBQ20070529034010505/29/07 03:40:31  5-MIN KDBQ 290940Z AUTO 16009KT 4SM BR CLR 18/16 A3008 930 87 1600 160/09 RMK AO2 TSNO
94908KDBQ DBQ20070529034510505/29/07 03:45:31  5-MIN KDBQ 290945Z AUTO 16010KT 4SM BR CLR 18/16 A3008 930 87 1600 160/10 RMK AO2 TSNO
94908KDBQ DBQ20070529035012205/29/07 03:50:31  5-MIN KDBQ 290950Z AUTO 16009KT 4SM BR CLR 18/16 A3008 930 87 1600 160/09 RMK AO2 SLP182 T01830161 TSNO
94908KDBQ DBQ20070529035512205/29/07 03:55:31  5-MIN KDBQ 290955Z AUTO 16009KT 4SM BR CLR 18/16 A3008 930 87 1600 160/09 RMK AO2 SLP183 T01830161 TSNO
94908KDBQ DBQ20070529040010505/29/07 04:00:31  5-MIN KDBQ 291000Z AUTO 16009KT 4SM BR CLR 18/16 A3008 930 90 1500 160/09 RMK AO2 TSNO
94908KDBQ DBQ20070529040510505/29/07 04:05:31  5-MIN KDBQ 291005Z AUTO 16009KT 4SM BR CLR 18/16 A3008 930 90 1500 160/09 RMK AO2 TSNO
94908KDBQ DBQ20070529041010505/29/07 04:10:31  5-MIN KDBQ 291010Z AUTO 16009KT 4SM BR CLR 18/16 A3009 930 90 1500 150/09 RMK AO2 TSNO
94908KDBQ DBQ20070529041510505/29/07 04:15:31  5-MIN KDBQ 291015Z AUTO 16010KT 4SM BR CLR 18/16 A3009 930 90 1500 160/10 RMK AO2 TSNO
94908KDBQ DBQ20070529042010505/29/07 04:20:31  5-MIN KDBQ 291020Z AUTO 16009KT 4SM BR CLR 18/16 A3009 930 90 1500 160/09 RMK AO2 TSNO
94908KDBQ DBQ20070529042510505/29/07 04:25:31  5-MIN KDBQ 291025Z AUTO 16010KT 4SM BR CLR 18/16 A3009 920 90 1500 160/10 RMK AO2 TSNO
94908KDBQ DBQ20070529043010505/29/07 04:30:31  5-MIN KDBQ 291030Z AUTO 16008KT 3SM BR CLR 18/16 A3009 920 90 1500 160/08 RMK AO2 TSNO
94908KDBQ DBQ20070529043510505/29/07 04:35:31  5-MIN KDBQ 291035Z AUTO 16008KT 3SM BR CLR 18/16 A3009 920 90 1500 160/08 RMK AO2 TSNO
94908KDBQ DBQ20070529044009505/29/07 04:40:31  5-MIN KDBQ 291040Z 16007KT 3SM BR CLR 18/16 A3009 920 90 1500 160/07 RMK AO2
94908KDBQ DBQ20070529044509505/29/07 04:45:31  5-MIN KDBQ 291045Z 16007KT 3SM BR CLR 18/16 A3010 920 90 1500 160/07 RMK AO2
94908KDBQ DBQ20070529045011205/29/07 04:50:31  5-MIN KDBQ 291050Z 17006KT 3SM BR CLR 18/16 A3010 910 90 1500 170/06 RMK AO2 SLP188 T01780161
94908KDBQ DBQ20070529045511205/29/07 04:55:31  5-MIN KDBQ 291055Z 18006KT 3SM BR CLR 18/16 A3010 910 90 1500 180/06 RMK AO2 SLP189 T01780161
94908KDBQ DBQ20070529050009505/29/07 05:00:31  5-MIN KDBQ 291100Z 19005KT 3SM BR CLR 18/16 A3010 910 90 1500 190/05 RMK AO2
94908KDBQ DBQ20070529050509505/29/07 05:05:31  5-MIN KDBQ 291105Z 19004KT 3SM BR CLR 18/16 A3011 910 90 1500 190/04 RMK AO2
94908KDBQ DBQ20070529051009505/29/07 05:10:31  5-MIN KDBQ 291110Z 19005KT 3SM BR CLR 18/16 A3011 910 90 1500 190/05 RMK AO2
94908KDBQ DBQ20070529051509505/29/07 05:15:31  5-MIN KDBQ 291115Z 20005KT 3SM BR CLR 18/16 A3011 910 90 1500 190/05 RMK AO2
94908KDBQ DBQ20070529052009505/29/07 05:20:31  5-MIN KDBQ 291120Z 19005KT 3SM BR CLR 18/16 A3011 900 90 1500 190/05 RMK AO2
94908KDBQ DBQ20070529052509505/29/07 05:25:31  5-MIN KDBQ 291125Z 20005KT 3SM BR CLR 18/16 A3011 900 90 1500 200/05 RMK AO2
94908KDBQ DBQ20070529053009505/29/07 05:30:31  5-MIN KDBQ 291130Z 19005KT 3SM BR CLR 18/16 A3011 900 87 1500 190/05 RMK AO2
94908KDBQ DBQ20070529053509505/29/07 05:35:31  5-MIN KDBQ 291135Z 18006KT 3SM BR CLR 18/16 A3012 900 87 1500 180/06 RMK AO2
94908KDBQ DBQ20070529054009505/29/07 05:40:31  5-MIN KDBQ 291140Z 17007KT 3SM BR CLR 18/16 A3012 900 87 1500 170/07 RMK AO2
94908KDBQ DBQ20070529054509505/29/07 05:45:31  5-MIN KDBQ 291145Z 17007KT 3SM BR CLR 18/17 A3012 900 90 1500 170/07 RMK AO2
94908KDBQ DBQ20070529055013005/29/07 05:50:31  5-MIN KDBQ 291150Z 17007KT 3SM BR CLR 19/17 A3012 900 87 1600 170/07 RMK AO2 SLP194 T01890167 10194 20178 56005
94908KDBQ DBQ20070529055513005/29/07 05:55:31  5-MIN KDBQ 291155Z 18006KT 4SM BR CLR 19/17 A3012 890 87 1600 180/06 RMK AO2 SLP195 T01890167 10194 20178 53014
94908KDBQ DBQ20070529060009505/29/07 06:00:31  5-MIN KDBQ 291200Z 18007KT 4SM BR CLR 19/17 A3012 890 87 1600 180/07 RMK AO2
94908KDBQ DBQ20070529060509505/29/07 06:05:31  5-MIN KDBQ 291205Z 18007KT 4SM BR CLR 19/17 A3012 890 87 1600 170/07 RMK AO2
94908KDBQ DBQ20070529061009505/29/07 06:10:31  5-MIN KDBQ 291210Z 18007KT 4SM HZ CLR 19/17 A3012 890 84 1700 180/07 RMK AO2
94908KDBQ DBQ20070529061509505/29/07 06:15:31  5-MIN KDBQ 291215Z 17009KT 4SM HZ CLR 19/17 A3012 890 84 1700 170/09 RMK AO2
94908KDBQ DBQ20070529062009505/29/07 06:20:31  5-MIN KDBQ 291220Z 17007KT 4SM HZ CLR 19/17 A3012 890 84 1700 170/07 RMK AO2
94908KDBQ DBQ20070529062509505/29/07 06:25:31  5-MIN KDBQ 291225Z 18008KT 4SM HZ CLR 20/17 A3013 890 81 1700 180/08 RMK AO2
94908KDBQ DBQ20070529063009505/29/07 06:30:31  5-MIN KDBQ 291230Z 18007KT 4SM HZ CLR 20/17 A3013 890 84 1700 180/07 RMK AO2
94908KDBQ DBQ20070529063509505/29/07 06:35:31  5-MIN KDBQ 291235Z 19011KT 5SM HZ CLR 20/17 A3013 890 81 1700 190/11 RMK AO2
94908KDBQ DBQ20070529064009505/29/07 06:40:31  5-MIN KDBQ 291240Z 19008KT 5SM HZ CLR 21/17 A3013 880 81 1800 190/08 RMK AO2
94908KDBQ DBQ20070529064509505/29/07 06:45:31  5-MIN KDBQ 291245Z 18007KT 5SM HZ CLR 21/17 A3013 880 81 1800 180/07 RMK AO2
94908KDBQ DBQ20070529065011205/29/07 06:50:31  5-MIN KDBQ 291250Z 19009KT 5SM HZ CLR 21/17 A3013 880 81 1800 180/09 RMK AO2 SLP198 T02060172
94908KDBQ DBQ20070529065511205/29/07 06:55:31  5-MIN KDBQ 291255Z 19009KT 5SM HZ CLR 21/17 A3013 880 78 1800 190/09 RMK AO2 SLP198 T02110172
94908KDBQ DBQ20070529070009505/29/07 07:00:31  5-MIN KDBQ 291300Z 19012KT 5SM HZ CLR 21/17 A3013 890 78 1800 190/12 RMK AO2
94908KDBQ DBQ20070529070509505/29/07 07:05:31  5-MIN KDBQ 291305Z 19010KT 6SM HZ CLR 21/17 A3013 880 78 1800 190/10 RMK AO2
94908KDBQ DBQ20070529071009505/29/07 07:10:31  5-MIN KDBQ 291310Z 19011KT 6SM HZ CLR 22/17 A3013 880 75 1900 190/11 RMK AO2
94908KDBQ DBQ20070529071509505/29/07 07:15:31  5-MIN KDBQ 291315Z 20013KT 6SM HZ CLR 22/17 A3013 880 75 1900 190/13 RMK AO2
94908KDBQ DBQ20070529072009805/29/07 07:20:31  5-MIN KDBQ 291320Z 19012KT 6SM HZ FEW060 22/17 A3013 880 73 2000 190/12 RMK AO2
94908KDBQ DBQ20070529072509805/29/07 07:25:31  5-MIN KDBQ 291325Z 20013KT 6SM HZ FEW060 22/17 A3013 880 73 2000 190/13 RMK AO2
94908KDBQ DBQ20070529073009805/29/07 07:30:31  5-MIN KDBQ 291330Z 19012KT 6SM HZ FEW060 22/17 A3013 890 73 2000 190/12 RMK AO2
94908KDBQ DBQ20070529073509505/29/07 07:35:31  5-MIN KDBQ 291335Z 19011KT 6SM HZ CLR 22/17 A3013 880 73 2000 190/11 RMK AO2
94908KDBQ DBQ20070529074009205/29/07 07:40:31  5-MIN KDBQ 291340Z 19011KT 7SM CLR 22/17 A3013 880 73 2000 190/11 RMK AO2
94908KDBQ DBQ20070529074509205/29/07 07:45:31  5-MIN KDBQ 291345Z 19011KT 7SM CLR 23/17 A3013 890 70 2000 190/11 RMK AO2
94908KDBQ DBQ20070529075010905/29/07 07:50:31  5-MIN KDBQ 291350Z 19011KT 8SM CLR 23/17 A3013 890 70 2000 190/11 RMK AO2 SLP197 T02280172
94908KDBQ DBQ20070529075510905/29/07 07:55:31  5-MIN KDBQ 291355Z 19011KT 8SM CLR 23/17 A3013 890 70 2000 190/11 RMK AO2 SLP197 T02280172
94908KDBQ DBQ20070529080009205/29/07 08:00:31  5-MIN KDBQ 291400Z 19010KT 7SM CLR 23/17 A3013 890 68 2100 190/10 RMK AO2
94908KDBQ DBQ20070529080509205/29/07 08:05:31  5-MIN KDBQ 291405Z 19011KT 8SM CLR 23/17 A3013 890 68 2100 190/11 RMK AO2
94908KDBQ DBQ20070529081009205/29/07 08:10:31  5-MIN KDBQ 291410Z 19010KT 8SM CLR 23/17 A3013 890 68 2100 190/10 RMK AO2
94908KDBQ DBQ20070529081509205/29/07 08:15:31  5-MIN KDBQ 291415Z 20008KT 8SM CLR 24/17 A3013 890 66 2200 200/08 RMK AO2
94908KDBQ DBQ20070529082009205/29/07 08:20:31  5-MIN KDBQ 291420Z 20009KT 8SM CLR 24/18 A3012 890 66 2200 200/09 RMK AO2
94908KDBQ DBQ20070529082509205/29/07 08:25:31  5-MIN KDBQ 291425Z 20011KT 8SM CLR 24/18 A3013 890 66 2200 200/11 RMK AO2
94908KDBQ DBQ20070529083009205/29/07 08:30:31  5-MIN KDBQ 291430Z 19010KT 8SM CLR 24/18 A3012 890 66 2200 190/10 RMK AO2
94908KDBQ DBQ20070529083509205/29/07 08:35:31  5-MIN KDBQ 291435Z 19010KT 8SM CLR 24/17 A3012 890 63 2200 190/10 RMK AO2
94908KDBQ DBQ20070529084009205/29/07 08:40:31  5-MIN KDBQ 291440Z 21011KT 8SM CLR 24/17 A3012 890 63 2200 210/11 RMK AO2
94908KDBQ DBQ20070529084509205/29/07 08:45:31  5-MIN KDBQ 291445Z 20012KT 8SM CLR 25/18 A3012 890 64 2300 200/12 RMK AO2
94908KDBQ DBQ20070529085011505/29/07 08:50:31  5-MIN KDBQ 291450Z 19011KT 8SM CLR 25/18 A3012 890 64 2300 190/11 RMK AO2 SLP195 T02500178 53014
94908KDBQ DBQ20070529085511505/29/07 08:55:31  5-MIN KDBQ 291455Z 20011KT 8SM CLR 25/18 A3012 890 64 2300 200/11 RMK AO2 SLP194 T02500178 50000
94908KDBQ DBQ20070529090009205/29/07 09:00:31  5-MIN KDBQ 291500Z 19013KT 8SM CLR 26/18 A3012 890 61 2400 190/13 RMK AO2
94908KDBQ DBQ20070529090509205/29/07 09:05:31  5-MIN KDBQ 291505Z 19012KT 8SM CLR 26/18 A3012 890 61 2400 190/12 RMK AO2
94908KDBQ DBQ20070529091009205/29/07 09:10:31  5-MIN KDBQ 291510Z 20011KT 8SM CLR 26/18 A3012 890 61 2400 200/11 RMK AO2
94908KDBQ DBQ20070529091509205/29/07 09:15:31  5-MIN KDBQ 291515Z 19010KT 8SM CLR 26/18 A3012 890 61 2400 190/10 RMK AO2
94908KDBQ DBQ20070529092009805/29/07 09:20:31  5-MIN KDBQ 291520Z 19013G17KT 8SM CLR 26/18 A3012 890 59 2400 190/13G17 RMK AO2
94908KDBQ DBQ20070529092509205/29/07 09:25:31  5-MIN KDBQ 291525Z 20014KT 9SM CLR 26/17 A3012 900 57 2400 200/14 RMK AO2
94908KDBQ DBQ20070529093009805/29/07 09:30:31  5-MIN KDBQ 291530Z 21010G19KT 9SM CLR 26/18 A3012 890 59 2400 210/10G19 RMK AO2
94908KDBQ DBQ20070529093509805/29/07 09:35:31  5-MIN KDBQ 291535Z 19011G19KT 9SM CLR 27/18 A3012 890 57 2500 190/11G19 RMK AO2
94908KDBQ DBQ20070529094009205/29/07 09:40:31  5-MIN KDBQ 291540Z 19012KT 9SM CLR 27/18 A3012 890 57 2500 190/12 RMK AO2
94908KDBQ DBQ20070529094509205/29/07 09:45:31  5-MIN KDBQ 291545Z 20013KT 9SM CLR 27/18 A3012 890 57 2500 200/13 RMK AO2
94908KDBQ DBQ20070529095010905/29/07 09:50:31  5-MIN KDBQ 291550Z 18012KT 9SM CLR 26/17 A3012 890 57 2400 180/12 RMK AO2 SLP194 T02610172
94908KDBQ DBQ20070529095510905/29/07 09:55:31  5-MIN KDBQ 291555Z 19012KT 9SM CLR 26/17 A3012 890 57 2400 190/12 RMK AO2 SLP193 T02610172
94908KDBQ DBQ20070529100009205/29/07 10:00:31  5-MIN KDBQ 291600Z 18013KT 9SM CLR 27/17 A3012 890 55 2500 180/13 RMK AO2
94908KDBQ DBQ20070529100509205/29/07 10:05:31  5-MIN KDBQ 291605Z 19013KT 9SM CLR 27/17 A3012 890 54 2500 190/13 RMK AO2
94908KDBQ DBQ20070529101009805/29/07 10:10:31  5-MIN KDBQ 291610Z 21014G19KT 9SM CLR 28/17 A3012 890 50 2600 210/14G19 RMK AO2
94908KDBQ DBQ20070529101509205/29/07 10:15:31  5-MIN KDBQ 291615Z 22014KT 9SM CLR 27/17 A3012 900 52 2500 220/14 RMK AO2
94908KDBQ DBQ20070529102009805/29/07 10:20:31  5-MIN KDBQ 291620Z 22014G25KT 9SM CLR 27/17 A3012 900 52 2500 220/14G25 RMK AO2
94908KDBQ DBQ20070529102509805/29/07 10:25:31  5-MIN KDBQ 291625Z 19015G25KT 9SM CLR 27/17 A3012 900 52 2500 190/15G25 RMK AO2
94908KDBQ DBQ20070529103009805/29/07 10:30:31  5-MIN KDBQ 291630Z 20012G19KT 9SM CLR 27/17 A3012 900 53 2500 200/12G19 RMK AO2
94908KDBQ DBQ20070529121010105/29/07 12:10:31  5-MIN KDBQ 291810Z 21018G24KT 9SM FEW050 29/15 A3009 920 42 2800 210/18G24 RMK AO2
94908KDBQ DBQ20070529121510105/29/07 12:15:31  5-MIN KDBQ 291815Z 21015G24KT 9SM FEW050 29/15 A3009 920 42 2800 200/15G24 RMK AO2
94908KDBQ DBQ20070529122010105/29/07 12:20:31  5-MIN KDBQ 291820Z 19015G22KT 9SM FEW055 29/15 A3009 920 42 2800 190/15G22 RMK AO2
94908KDBQ DBQ20070529122509805/29/07 12:25:31  5-MIN KDBQ 291825Z 19018G23KT 9SM CLR 29/15 A3009 920 41 2800 190/18G23 RMK AO2
94908KDBQ DBQ20070529123009805/29/07 12:30:31  5-MIN KDBQ 291830Z 19017G23KT 9SM CLR 29/14 A3009 930 39 2800 190/17G23 RMK AO2
94908KDBQ DBQ20070529123509205/29/07 12:35:31  5-MIN KDBQ 291835Z 21017KT 9SM CLR 29/14 A3009 920 39 2800 200/17 RMK AO2
94908KDBQ DBQ20070529124009205/29/07 12:40:31  5-MIN KDBQ 291840Z 19014KT 9SM CLR 29/15 A3009 930 41 2800 190/14 RMK AO2
94908KDBQ DBQ20070529124509905/29/07 12:45:31  5-MIN KDBQ 291845Z 21014G24KT 10SM CLR 29/16 A3008 930 42 2800 210/14G24 RMK AO2
94908KDBQ DBQ20070529125011505/29/07 12:50:31  5-MIN KDBQ 291850Z 20013G24KT 9SM CLR 29/16 A3008 930 42 2800 200/13G24 RMK AO2 SLP179 T02940156
94908KDBQ DBQ20070529125511805/29/07 12:55:31  5-MIN KDBQ 291855Z 21012G21KT 9SM FEW050 28/16 A3008 930 45 2700 210/12G21 RMK AO2 SLP180 T02830156
94908KDBQ DBQ20070529130010105/29/07 13:00:31  5-MIN KDBQ 291900Z 18014G19KT 9SM FEW050 29/16 A3008 930 42 2800 180/14G19 RMK AO2
94908KDBQ DBQ20070529130509505/29/07 13:05:31  5-MIN KDBQ 291905Z 19011KT 9SM FEW050 28/16 A3008 930 47 2700 190/11 RMK AO2
94908KDBQ DBQ20070529131009505/29/07 13:10:31  5-MIN KDBQ 291910Z 19013KT 9SM FEW055 29/16 A3008 930 44 2800 190/13 RMK AO2
94908KDBQ DBQ20070529131510105/29/07 13:15:31  5-MIN KDBQ 291915Z 18016G19KT 9SM FEW055 29/16 A3007 940 44 2800 180/16G19 RMK AO2
94908KDBQ DBQ20070529132010105/29/07 13:20:31  5-MIN KDBQ 291920Z 17016G20KT 9SM SCT055 29/16 A3007 940 42 2800 160/16G20 RMK AO2
94908KDBQ DBQ20070529132510105/29/07 13:25:31  5-MIN KDBQ 291925Z 19015G21KT 8SM FEW055 29/16 A3007 940 44 2800 190/15G21 RMK AO2
94908KDBQ DBQ20070529133010805/29/07 13:30:31  5-MIN KDBQ 291930Z 20010G21KT 7SM FEW055 SCT070 28/16 A3007 940 45 2700 200/10G21 RMK AO2
94908KDBQ DBQ20070529133510605/29/07 13:35:31  5-MIN KDBQ 291935Z AUTO 19014G18KT 8SM FEW055 29/16 A3007 940 42 2800 190/14G18 RMK AO2
94908KDBQ DBQ20070529134010505/29/07 13:40:31  5-MIN KDBQ 291940Z AUTO 21015KT 9SM FEW055 29/16 A3006 950 42 2900 210/15 RMK AO2 TSNO
94908KDBQ DBQ20070529134510105/29/07 13:45:31  5-MIN KDBQ 291945Z 20015G21KT 9SM FEW055 30/16 A3006 950 41 2900 200/15G21 RMK AO2
94908KDBQ DBQ20070529135011505/29/07 13:50:31  5-MIN KDBQ 291950Z 18011G21KT 9SM CLR 30/16 A3006 950 41 2900 180/11G21 RMK AO2 SLP173 T03000156
94908KDBQ DBQ20070529135511805/29/07 13:55:31  5-MIN KDBQ 291955Z 19015G21KT 9SM FEW060 30/15 A3006 950 39 2900 190/15G21 RMK AO2 SLP171 T03000150
94908KDBQ DBQ20070529140010105/29/07 14:00:31  5-MIN KDBQ 292000Z 20016G21KT 9SM FEW060 30/14 A3006 950 38 2900 200/16G21 RMK AO2
94908KDBQ DBQ20070529140509505/29/07 14:05:31  5-MIN KDBQ 292005Z 19012KT 9SM FEW060 30/14 A3006 950 38 2900 190/12 RMK AO2
94908KDBQ DBQ20070529141010105/29/07 14:10:31  5-MIN KDBQ 292010Z 21017G21KT 9SM FEW060 31/15 A3005 950 38 3000 210/17G21 RMK AO2
94908KDBQ DBQ20070529141510105/29/07 14:15:31  5-MIN KDBQ 292015Z 21013G21KT 9SM FEW060 30/14 A3005 960 38 2900 210/13G21 RMK AO2
94908KDBQ DBQ20070529142010105/29/07 14:20:31  5-MIN KDBQ 292020Z 20013G19KT 9SM FEW060 30/14 A3005 960 38 2900 200/13G19 RMK AO2
94908KDBQ DBQ20070529142510105/29/07 14:25:31  5-MIN KDBQ 292025Z 22015G19KT 9SM FEW060 29/15 A3005 960 41 2900 220/15G19 RMK AO2
94908KDBQ DBQ20070529143009805/29/07 14:30:31  5-MIN KDBQ 292030Z 20013G21KT 8SM CLR 29/14 A3005 960 39 2900 200/13G21 RMK AO2
94908KDBQ DBQ20070529143510105/29/07 14:35:31  5-MIN KDBQ 292035Z 20014G21KT 8SM FEW110 29/14 A3005 960 39 2800 200/14G21 RMK AO2
94908KDBQ DBQ20070529144009505/29/07 14:40:31  5-MIN KDBQ 292040Z 18016KT 8SM FEW110 28/14 A3005 960 40 2800 170/16 RMK AO2
94908KDBQ DBQ20070529144509505/29/07 14:45:31  5-MIN KDBQ 292045Z 17012KT 8SM FEW110 28/14 A3005 960 40 2700 170/12 RMK AO2
94908KDBQ DBQ20070529145011805/29/07 14:50:31  5-MIN KDBQ 292050Z 18012KT 7SM FEW110 28/14 A3005 960 42 2700 180/12 RMK AO2 SLP168 T02830144 58008
94908KDBQ DBQ20070529145511805/29/07 14:55:31  5-MIN KDBQ 292055Z 18013KT 7SM FEW110 28/14 A3005 960 42 2700 180/13 RMK AO2 SLP168 T02830144 56017
94908KDBQ DBQ20070529150009505/29/07 15:00:31  5-MIN KDBQ 292100Z 19014KT 8SM FEW110 29/15 A3005 960 41 2900 190/14 RMK AO2
94908KDBQ DBQ20070529150509805/29/07 15:05:31  5-MIN KDBQ 292105Z 18014G21KT 8SM CLR 29/15 A3004 970 41 2900 180/14G21 RMK AO2
94908KDBQ DBQ20070529151009805/29/07 15:10:31  5-MIN KDBQ 292110Z 19014G21KT 8SM CLR 29/14 A3004 970 40 2800 190/14G21 RMK AO2
94908KDBQ DBQ20070529151509805/29/07 15:15:31  5-MIN KDBQ 292115Z 18011G19KT 8SM CLR 29/14 A3004 960 40 2800 180/11G19 RMK AO2
94908KDBQ DBQ20070529152009805/29/07 15:20:31  5-MIN KDBQ 292120Z 17015G20KT 8SM CLR 29/15 A3004 970 42 2800 170/15G20 RMK AO2
94908KDBQ DBQ20070529152509805/29/07 15:25:31  5-MIN KDBQ 292125Z 17013G20KT 8SM CLR 29/14 A3004 970 40 2800 170/13G20 RMK AO2
94908KDBQ DBQ20070529153009205/29/07 15:30:31  5-MIN KDBQ 292130Z 19015KT 7SM CLR 29/14 A3004 970 40 2800 190/15 RMK AO2
94908KDBQ DBQ20070529153509205/29/07 15:35:31  5-MIN KDBQ 292135Z 18014KT 7SM CLR 28/15 A3004 970 43 2800 180/14 RMK AO2
94908KDBQ DBQ20070529154009205/29/07 15:40:31  5-MIN KDBQ 292140Z 17014KT 7SM CLR 29/15 A3004 970 42 2800 170/14 RMK AO2
94908KDBQ DBQ20070529154509205/29/07 15:45:31  5-MIN KDBQ 292145Z 18013KT 8SM CLR 29/15 A3004 970 42 2800 180/13 RMK AO2
94908KDBQ DBQ20070529155010905/29/07 15:50:31  5-MIN KDBQ 292150Z 18013KT 8SM CLR 29/14 A3004 970 40 2800 170/13 RMK AO2 SLP165 T02890144
94908KDBQ DBQ20070529155510905/29/07 15:55:31  5-MIN KDBQ 292155Z 19013KT 8SM CLR 28/14 A3004 970 40 2800 190/13 RMK AO2 SLP166 T02830139
94908KDBQ DBQ20070529160009505/29/07 16:00:31  5-MIN KDBQ 292200Z 19010KT 7SM FEW110 28/14 A3004 970 43 2700 190/10 RMK AO2
94908KDBQ DBQ20070529160509505/29/07 16:05:31  5-MIN KDBQ 292205Z 20012KT 7SM FEW110 28/14 A3004 970 43 2700 190/12 RMK AO2
94908KDBQ DBQ20070529161009205/29/07 16:10:31  5-MIN KDBQ 292210Z 20012KT 7SM CLR 28/15 A3004 970 45 2700 200/12 RMK AO2
94908KDBQ DBQ20070529161509205/29/07 16:15:31  5-MIN KDBQ 292215Z 20011KT 7SM CLR 28/15 A3004 970 45 2700 200/11 RMK AO2
94908KDBQ DBQ20070529162009505/29/07 16:20:31  5-MIN KDBQ 292220Z 21010KT 7SM FEW090 28/15 A3003 970 45 2700 210/10 RMK AO2
94908KDBQ DBQ20070529162510105/29/07 16:25:31  5-MIN KDBQ 292225Z 19014G18KT 7SM FEW090 28/16 A3004 970 46 2700 190/14G18 RMK AO2
94908KDBQ DBQ20070529163010105/29/07 16:30:31  5-MIN KDBQ 292230Z 21012G21KT 7SM FEW050 27/16 A3004 970 48 2600 210/12G21 RMK AO2
94908KDBQ DBQ20070529163510105/29/07 16:35:31  5-MIN KDBQ 292235Z 18012G21KT 7SM FEW050 27/15 A3004 970 48 2600 180/12G21 RMK AO2
94908KDBQ DBQ20070529164010205/29/07 16:40:31  5-MIN KDBQ 292240Z 16010KT 7SM FEW070 SCT110 27/15 A3003 970 46 2600 160/10 RMK AO2
94908KDBQ DBQ20070529164510205/29/07 16:45:31  5-MIN KDBQ 292245Z 16008KT 7SM FEW070 SCT110 27/15 A3003 970 48 2600 160/08 RMK AO2
94908KDBQ DBQ20070529165011205/29/07 16:50:31  5-MIN KDBQ 292250Z 17008KT 7SM FEW060 27/14 A3003 980 46 2600 170/08 RMK AO2 SLP164 T02670144
94908KDBQ DBQ20070529165511205/29/07 16:55:31  5-MIN KDBQ 292255Z 17008KT 8SM FEW060 27/14 A3003 980 46 2600 170/08 RMK AO2 SLP164 T02670144
94908KDBQ DBQ20070529170009505/29/07 17:00:31  5-MIN KDBQ 292300Z 18007KT 7SM FEW100 27/14 A3003 980 45 2600 180/07 RMK AO2
94908KDBQ DBQ20070529170509505/29/07 17:05:31  5-MIN KDBQ 292305Z 19007KT 7SM SCT100 27/15 A3003 980 46 2600 190/07 RMK AO2
94908KDBQ DBQ20070529171009505/29/07 17:10:31  5-MIN KDBQ 292310Z 20009KT 7SM SCT110 27/15 A3003 980 46 2600 200/09 RMK AO2
94908KDBQ DBQ20070529171509505/29/07 17:15:31  5-MIN KDBQ 292315Z 19008KT 8SM FEW110 27/16 A3003 980 48 2600 190/08 RMK AO2
94908KDBQ DBQ20070529172009505/29/07 17:20:31  5-MIN KDBQ 292320Z 21010KT 8SM FEW110 27/15 A3002 980 46 2600 200/10 RMK AO2
94908KDBQ DBQ20070529172509505/29/07 17:25:31  5-MIN KDBQ 292325Z 20008KT 8SM FEW110 27/16 A3003 980 50 2600 200/08 RMK AO2
94908KDBQ DBQ20070529173009505/29/07 17:30:31  5-MIN KDBQ 292330Z 20010KT 7SM FEW110 27/15 A3003 980 48 2600 200/10 RMK AO2
94908KDBQ DBQ20070529173509505/29/07 17:35:31  5-MIN KDBQ 292335Z 20010KT 7SM FEW110 27/16 A3002 980 50 2600 200/10 RMK AO2
94908KDBQ DBQ20070529174009205/29/07 17:40:31  5-MIN KDBQ 292340Z 20009KT 8SM CLR 27/15 A3002 980 48 2600 200/09 RMK AO2
94908KDBQ DBQ20070529174509205/29/07 17:45:31  5-MIN KDBQ 292345Z 20008KT 8SM CLR 26/16 A3002 980 51 2500 200/08 RMK AO2
94908KDBQ DBQ20070529175012705/29/07 17:50:31  5-MIN KDBQ 292350Z 21009KT 8SM CLR 27/16 A3002 980 50 2600 210/09 RMK AO2 SLP161 T02670156 10306 20261 56017
94908KDBQ DBQ20070529175512705/29/07 17:55:31  5-MIN KDBQ 292355Z 20008KT 8SM CLR 27/16 A3002 980 50 2600 200/08 RMK AO2 SLP161 T02670156 10306 20261 58008
94908KDBQ DBQ20070529180009205/29/07 18:00:31  5-MIN KDBQ 300000Z 20007KT 8SM CLR 27/16 A3002 980 50 2600 200/07 RMK AO2
94908KDBQ DBQ20070529180509205/29/07 18:05:31  5-MIN KDBQ 300005Z 20007KT 8SM CLR 26/16 A3002 980 51 2500 200/07 RMK AO2
94908KDBQ DBQ20070529181009205/29/07 18:10:31  5-MIN KDBQ 300010Z 20007KT 8SM CLR 26/16 A3002 980 51 2500 200/07 RMK AO2
94908KDBQ DBQ20070529181509205/29/07 18:15:31  5-MIN KDBQ 300015Z 19007KT 8SM CLR 26/16 A3002 980 51 2500 190/07 RMK AO2
94908KDBQ DBQ20070529182009205/29/07 18:20:31  5-MIN KDBQ 300020Z 19007KT 7SM CLR 26/16 A3002 980 51 2500 190/07 RMK AO2
94908KDBQ DBQ20070529182509205/29/07 18:25:31  5-MIN KDBQ 300025Z 19006KT 7SM CLR 26/16 A3002 980 51 2500 190/06 RMK AO2
94908KDBQ DBQ20070529183009205/29/07 18:30:31  5-MIN KDBQ 300030Z 18005KT 7SM CLR 26/16 A3002 980 53 2500 180/05 RMK AO2
94908KDBQ DBQ20070529183509205/29/07 18:35:31  5-MIN KDBQ 300035Z 17005KT 7SM CLR 26/16 A3002 980 53 2500 170/05 RMK AO2
94908KDBQ DBQ20070529184009205/29/07 18:40:31  5-MIN KDBQ 300040Z 17006KT 7SM CLR 26/16 A3002 980 53 2500 170/06 RMK AO2
94908KDBQ DBQ20070529184509205/29/07 18:45:31  5-MIN KDBQ 300045Z 17005KT 7SM CLR 26/16 A3002 980 53 2500 170/05 RMK AO2
94908KDBQ DBQ20070529185010905/29/07 18:50:31  5-MIN KDBQ 300050Z 17006KT 7SM CLR 26/16 A3003 980 53 2500 170/06 RMK AO2 SLP161 T02560156
94908KDBQ DBQ20070529185510905/29/07 18:55:31  5-MIN KDBQ 300055Z 16005KT 7SM CLR 25/16 A3003 980 55 2400 160/05 RMK AO2 SLP161 T02500156
94908KDBQ DBQ20070529190010205/29/07 19:00:31  5-MIN KDBQ 300100Z AUTO 16005KT 7SM CLR 25/16 A3003 980 55 2400 160/05 RMK AO2 TSNO
94908KDBQ DBQ20070529190510205/29/07 19:05:31  5-MIN KDBQ 300105Z AUTO 15005KT 7SM CLR 25/16 A3003 980 55 2400 150/05 RMK AO2 TSNO
94908KDBQ DBQ20070529191010205/29/07 19:10:31  5-MIN KDBQ 300110Z AUTO 15005KT 7SM CLR 24/16 A3003 980 57 2300 150/05 RMK AO2 TSNO
94908KDBQ DBQ20070529191510205/29/07 19:15:31  5-MIN KDBQ 300115Z AUTO 16006KT 7SM CLR 24/16 A3003 980 59 2300 160/06 RMK AO2 TSNO
94908KDBQ DBQ20070529192010205/29/07 19:20:31  5-MIN KDBQ 300120Z AUTO 16006KT 7SM CLR 24/16 A3003 980 59 2300 160/06 RMK AO2 TSNO
94908KDBQ DBQ20070529192510205/29/07 19:25:31  5-MIN KDBQ 300125Z AUTO 16006KT 7SM CLR 24/16 A3003 980 59 2300 160/06 RMK AO2 TSNO
94908KDBQ DBQ20070529193010205/29/07 19:30:31  5-MIN KDBQ 300130Z AUTO 16006KT 7SM CLR 24/16 A3003 980 59 2300 160/06 RMK AO2 TSNO
94908KDBQ DBQ20070529193510205/29/07 19:35:31  5-MIN KDBQ 300135Z AUTO 16006KT 7SM CLR 24/16 A3003 980 61 2300 150/06 RMK AO2 TSNO
94908KDBQ DBQ20070529194010205/29/07 19:40:31  5-MIN KDBQ 300140Z AUTO 16007KT 7SM CLR 23/16 A3003 980 63 2200 150/07 RMK AO2 TSNO
94908KDBQ DBQ20070529194510205/29/07 19:45:31  5-MIN KDBQ 300145Z AUTO 16007KT 7SM CLR 23/16 A3003 980 63 2200 160/07 RMK AO2 TSNO
94908KDBQ DBQ20070529195011905/29/07 19:50:31  5-MIN KDBQ 300150Z AUTO 16007KT 7SM CLR 23/16 A3003 980 63 2200 160/07 RMK AO2 SLP163 T02330161 TSNO
94908KDBQ DBQ20070529195511905/29/07 19:55:31  5-MIN KDBQ 300155Z AUTO 16007KT 8SM CLR 23/16 A3003 970 61 2200 160/07 RMK AO2 SLP163 T02330156 TSNO
94908KDBQ DBQ20070529200010205/29/07 20:00:31  5-MIN KDBQ 300200Z AUTO 16007KT 8SM CLR 23/16 A3003 970 61 2200 160/07 RMK AO2 TSNO
94908KDBQ DBQ20070529200510205/29/07 20:05:31  5-MIN KDBQ 300205Z AUTO 16007KT 8SM CLR 23/16 A3003 970 61 2200 160/07 RMK AO2 TSNO
94908KDBQ DBQ20070529201010205/29/07 20:10:31  5-MIN KDBQ 300210Z AUTO 16008KT 8SM CLR 23/15 A3004 970 59 2200 160/08 RMK AO2 TSNO
94908KDBQ DBQ20070529201510205/29/07 20:15:31  5-MIN KDBQ 300215Z AUTO 16008KT 8SM CLR 23/15 A3004 970 59 2200 160/08 RMK AO2 TSNO
94908KDBQ DBQ20070529202010205/29/07 20:20:31  5-MIN KDBQ 300220Z AUTO 16008KT 9SM CLR 23/15 A3004 960 59 2200 160/08 RMK AO2 TSNO
94908KDBQ DBQ20070529202510205/29/07 20:25:31  5-MIN KDBQ 300225Z AUTO 16008KT 9SM CLR 23/15 A3004 960 61 2100 160/08 RMK AO2 TSNO
94908KDBQ DBQ20070529203010205/29/07 20:30:31  5-MIN KDBQ 300230Z AUTO 16008KT 9SM CLR 23/14 A3004 960 59 2100 160/08 RMK AO2 TSNO
94908KDBQ DBQ20070529203510205/29/07 20:35:31  5-MIN KDBQ 300235Z AUTO 16008KT 9SM CLR 23/14 A3005 960 59 2100 160/08 RMK AO2 TSNO
94908KDBQ DBQ20070529204010205/29/07 20:40:31  5-MIN KDBQ 300240Z AUTO 17008KT 9SM CLR 23/14 A3005 960 57 2100 160/08 RMK AO2 TSNO
94908KDBQ DBQ20070529204510305/29/07 20:45:31  5-MIN KDBQ 300245Z AUTO 17008KT 10SM CLR 23/14 A3004 960 59 2100 170/08 RMK AO2 TSNO
94908KDBQ DBQ20070529205012605/29/07 20:50:31  5-MIN KDBQ 300250Z AUTO 17009KT 10SM CLR 23/14 A3004 960 59 2100 170/09 RMK AO2 SLP167 T02280144 58008 TSNO
94908KDBQ DBQ20070529205512505/29/07 20:55:31  5-MIN KDBQ 300255Z AUTO 17009KT 9SM CLR 22/14 A3005 960 59 2100 170/09 RMK AO2 SLP168 T02220139 53007 TSNO
94908KDBQ DBQ20070529210010205/29/07 21:00:31  5-MIN KDBQ 300300Z AUTO 17008KT 9SM CLR 22/14 A3005 960 59 2100 170/08 RMK AO2 TSNO
94908KDBQ DBQ20070529210510505/29/07 21:05:31  5-MIN KDBQ 300305Z AUTO 17009KT 9SM FEW070 22/14 A3005 960 59 2100 170/09 RMK AO2 TSNO
94908KDBQ DBQ20070529211010605/29/07 21:10:31  5-MIN KDBQ 300310Z AUTO 17009KT 10SM SCT070 22/14 A3005 960 59 2100 160/09 RMK AO2 TSNO
94908KDBQ DBQ20070529211510605/29/07 21:15:31  5-MIN KDBQ 300315Z AUTO 17008KT 10SM BKN070 23/14 A3005 960 57 2100 160/08 RMK AO2 TSNO
94908KDBQ DBQ20070529212010605/29/07 21:20:31  5-MIN KDBQ 300320Z AUTO 16007KT 10SM SCT070 23/14 A3005 960 57 2100 160/07 RMK AO2 TSNO
94908KDBQ DBQ20070529212510605/29/07 21:25:31  5-MIN KDBQ 300325Z AUTO 16008KT 10SM SCT070 23/14 A3005 960 57 2100 160/08 RMK AO2 TSNO
94908KDBQ DBQ20070529213010605/29/07 21:30:31  5-MIN KDBQ 300330Z AUTO 16008KT 10SM SCT070 23/14 A3005 960 57 2100 160/08 RMK AO2 TSNO
94908KDBQ DBQ20070529213510605/29/07 21:35:31  5-MIN KDBQ 300335Z AUTO 16009KT 10SM SCT070 23/14 A3005 960 57 2100 160/09 RMK AO2 TSNO
94908KDBQ DBQ20070529214010605/29/07 21:40:31  5-MIN KDBQ 300340Z AUTO 16008KT 10SM FEW070 23/13 A3005 960 55 2100 160/08 RMK AO2 TSNO
94908KDBQ DBQ20070529214510305/29/07 21:45:31  5-MIN KDBQ 300345Z AUTO 17008KT 10SM CLR 23/14 A3005 960 57 2100 160/08 RMK AO2 TSNO
94908KDBQ DBQ20070529215012005/29/07 21:50:31  5-MIN KDBQ 300350Z AUTO 17008KT 10SM CLR 22/14 A3005 960 59 2100 170/08 RMK AO2 SLP168 T02220139 TSNO
94908KDBQ DBQ20070529215512005/29/07 21:55:31  5-MIN KDBQ 300355Z AUTO 17008KT 10SM CLR 22/14 A3005 960 59 2100 170/08 RMK AO2 SLP168 T02220139 TSNO
94908KDBQ DBQ20070529220010305/29/07 22:00:31  5-MIN KDBQ 300400Z AUTO 17008KT 10SM CLR 22/14 A3005 960 59 2100 170/08 RMK AO2 TSNO
94908KDBQ DBQ20070529220510305/29/07 22:05:31  5-MIN KDBQ 300405Z AUTO 17008KT 10SM CLR 22/14 A3005 960 61 2000 170/08 RMK AO2 TSNO
94908KDBQ DBQ20070529221010305/29/07 22:10:31  5-MIN KDBQ 300410Z AUTO 17007KT 10SM CLR 22/14 A3005 960 61 2000 170/07 RMK AO2 TSNO
94908KDBQ DBQ20070529221510305/29/07 22:15:31  5-MIN KDBQ 300415Z AUTO 17007KT 10SM CLR 22/14 A3005 960 61 2000 170/07 RMK AO2 TSNO
94908KDBQ DBQ20070529222010305/29/07 22:20:31  5-MIN KDBQ 300420Z AUTO 16008KT 10SM CLR 22/14 A3005 960 61 2000 160/08 RMK AO2 TSNO
94908KDBQ DBQ20070529222510305/29/07 22:25:31  5-MIN KDBQ 300425Z AUTO 17009KT 10SM CLR 22/14 A3005 960 61 2000 170/09 RMK AO2 TSNO
94908KDBQ DBQ20070529223010305/29/07 22:30:31  5-MIN KDBQ 300430Z AUTO 17008KT 10SM CLR 22/14 A3005 960 61 2000 170/08 RMK AO2 TSNO
94908KDBQ DBQ20070529223510305/29/07 22:35:31  5-MIN KDBQ 300435Z AUTO 17008KT 10SM CLR 22/14 A3005 960 61 2000 170/08 RMK AO2 TSNO
94908KDBQ DBQ20070529224010305/29/07 22:40:31  5-MIN KDBQ 300440Z AUTO 17008KT 10SM CLR 22/14 A3005 960 61 2000 170/08 RMK AO2 TSNO
94908KDBQ DBQ20070529224510305/29/07 22:45:31  5-MIN KDBQ 300445Z AUTO 17008KT 10SM CLR 22/14 A3005 960 61 2000 170/08 RMK AO2 TSNO
94908KDBQ DBQ20070529225012005/29/07 22:50:31  5-MIN KDBQ 300450Z AUTO 17007KT 10SM CLR 22/14 A3005 960 61 2000 170/07 RMK AO2 SLP169 T02170139 TSNO
94908KDBQ DBQ20070529225511905/29/07 22:55:31  5-MIN KDBQ 300455Z AUTO 17007KT 9SM CLR 22/14 A3005 960 61 2000 170/07 RMK AO2 SLP169 T02170139 TSNO
94908KDBQ DBQ20070529230010205/29/07 23:00:31  5-MIN KDBQ 300500Z AUTO 17007KT 9SM CLR 22/14 A3005 960 61 2000 170/07 RMK AO2 TSNO
94908KDBQ DBQ20070529230510205/29/07 23:05:31  5-MIN KDBQ 300505Z AUTO 17007KT 9SM CLR 22/14 A3006 950 61 2000 170/07 RMK AO2 TSNO
94908KDBQ DBQ20070529231010205/29/07 23:10:31  5-MIN KDBQ 300510Z AUTO 17006KT 9SM CLR 21/14 A3006 950 63 1900 170/06 RMK AO2 TSNO
94908KDBQ DBQ20070529231510205/29/07 23:15:31  5-MIN KDBQ 300515Z AUTO 17005KT 9SM CLR 21/14 A3006 950 63 1900 170/05 RMK AO2 TSNO
94908KDBQ DBQ20070529232010205/29/07 23:20:31  5-MIN KDBQ 300520Z AUTO 16006KT 9SM CLR 21/14 A3006 950 63 1900 160/06 RMK AO2 TSNO
94908KDBQ DBQ20070529232510205/29/07 23:25:31  5-MIN KDBQ 300525Z AUTO 17006KT 9SM CLR 21/14 A3006 950 63 1900 160/06 RMK AO2 TSNO
94908KDBQ DBQ20070529233010205/29/07 23:30:31  5-MIN KDBQ 300530Z AUTO 17006KT 9SM CLR 21/14 A3005 950 63 1900 170/06 RMK AO2 TSNO
94908KDBQ DBQ20070529233510205/29/07 23:35:31  5-MIN KDBQ 300535Z AUTO 17006KT 9SM CLR 21/14 A3005 960 63 1900 160/06 RMK AO2 TSNO
94908KDBQ DBQ20070529234010205/29/07 23:40:31  5-MIN KDBQ 300540Z AUTO 17005KT 9SM CLR 21/14 A3005 960 63 1900 170/05 RMK AO2 TSNO
94908KDBQ DBQ20070529234510205/29/07 23:45:31  5-MIN KDBQ 300545Z AUTO 17005KT 9SM CLR 21/14 A3005 960 67 1900 170/05 RMK AO2 TSNO
94908KDBQ DBQ20070529235014705/29/07 23:50:31  5-MIN KDBQ 300550Z AUTO 18004KT 9SM CLR 20/14 A3005 950 70 1800 180/04 RMK AO2 SLP170 T02000144 10267 20200 403060178 53007 TSNO
94908KDBQ DBQ20070529235514705/29/07 23:55:31  5-MIN KDBQ 300555Z AUTO 17005KT 9SM CLR 20/14 A3005 960 70 1800 170/05 RMK AO2 SLP169 T02000144 10267 20200 403060178 51003 TSNO
94908KDBQ DBQ20070530000010205/30/07 00:00:38  5-MIN KDBQ 300600Z AUTO 16008KT 9SM CLR 21/14 A3005 960 65 1900 160/08 RMK AO2 TSNO
94908KDBQ DBQ20070530000510205/30/07 00:05:31  5-MIN KDBQ 300605Z AUTO 16008KT 9SM CLR 21/14 A3005 960 65 1900 160/08 RMK AO2 TSNO
94908KDBQ DBQ20070530001010205/30/07 00:10:31  5-MIN KDBQ 300610Z AUTO 16008KT 9SM CLR 21/14 A3005 960 67 1900 160/08 RMK AO2 TSNO
94908KDBQ DBQ20070530001510205/30/07 00:15:31  5-MIN KDBQ 300615Z AUTO 16007KT 9SM CLR 21/14 A3005 960 65 1900 160/07 RMK AO2 TSNO
94908KDBQ DBQ20070530002010205/30/07 00:20:31  5-MIN KDBQ 300620Z AUTO 16007KT 9SM CLR 21/14 A3005 960 67 1900 160/07 RMK AO2 TSNO
94908KDBQ DBQ20070530002510205/30/07 00:25:31  5-MIN KDBQ 300625Z AUTO 17005KT 9SM CLR 21/14 A3005 960 67 1900 170/05 RMK AO2 TSNO
94908KDBQ DBQ20070530003010205/30/07 00:30:31  5-MIN KDBQ 300630Z AUTO 21004KT 9SM CLR 20/14 A3005 960 70 1800 210/04 RMK AO2 TSNO
94908KDBQ DBQ20070530003510205/30/07 00:35:31  5-MIN KDBQ 300635Z AUTO 22003KT 8SM CLR 20/14 A3005 960 70 1800 220/03 RMK AO2 TSNO
94908KDBQ DBQ20070530004010205/30/07 00:40:31  5-MIN KDBQ 300640Z AUTO 22004KT 8SM CLR 20/14 A3005 960 70 1800 220/04 RMK AO2 TSNO
94908KDBQ DBQ20070530004510205/30/07 00:45:31  5-MIN KDBQ 300645Z AUTO 21005KT 8SM CLR 20/14 A3005 960 70 1800 210/05 RMK AO2 TSNO
94908KDBQ DBQ20070530005011905/30/07 00:50:31  5-MIN KDBQ 300650Z AUTO 22005KT 8SM CLR 20/14 A3005 960 70 1800 220/05 RMK AO2 SLP167 T02000144 TSNO
94908KDBQ DBQ20070530005511905/30/07 00:55:31  5-MIN KDBQ 300655Z AUTO 20005KT 8SM CLR 21/14 A3005 960 67 1900 200/05 RMK AO2 SLP167 T02060144 TSNO
94908KDBQ DBQ20070530010010205/30/07 01:00:31  5-MIN KDBQ 300700Z AUTO 20005KT 8SM CLR 21/14 A3005 960 67 1900 200/05 RMK AO2 TSNO
94908KDBQ DBQ20070530010510205/30/07 01:05:31  5-MIN KDBQ 300705Z AUTO 20005KT 8SM CLR 20/14 A3004 960 70 1800 200/05 RMK AO2 TSNO
94908KDBQ DBQ20070530011010205/30/07 01:10:31  5-MIN KDBQ 300710Z AUTO 19006KT 8SM CLR 19/14 A3004 960 72 1700 190/06 RMK AO2 TSNO
94908KDBQ DBQ20070530011510205/30/07 01:15:31  5-MIN KDBQ 300715Z AUTO 19005KT 8SM CLR 19/14 A3004 970 72 1700 190/05 RMK AO2 TSNO
94908KDBQ DBQ20070530012010205/30/07 01:20:31  5-MIN KDBQ 300720Z AUTO 19004KT 8SM CLR 19/14 A3004 970 72 1700 190/04 RMK AO2 TSNO
94908KDBQ DBQ20070530012510205/30/07 01:25:31  5-MIN KDBQ 300725Z AUTO 19004KT 8SM CLR 20/14 A3004 970 70 1800 190/04 RMK AO2 TSNO
94908KDBQ DBQ20070530013010205/30/07 01:30:31  5-MIN KDBQ 300730Z AUTO 20004KT 8SM CLR 20/14 A3004 970 70 1800 200/04 RMK AO2 TSNO
94908KDBQ DBQ20070530013510205/30/07 01:35:31  5-MIN KDBQ 300735Z AUTO 19004KT 8SM CLR 20/14 A3004 970 70 1800 190/04 RMK AO2 TSNO
94908KDBQ DBQ20070530014010205/30/07 01:40:31  5-MIN KDBQ 300740Z AUTO 18005KT 8SM CLR 20/14 A3004 970 70 1800 180/05 RMK AO2 TSNO
94908KDBQ DBQ20070530014510205/30/07 01:45:31  5-MIN KDBQ 300745Z AUTO 19004KT 8SM CLR 19/14 A3004 970 72 1800 190/04 RMK AO2 TSNO
94908KDBQ DBQ20070530015011905/30/07 01:50:31  5-MIN KDBQ 300750Z AUTO 17004KT 8SM CLR 19/14 A3004 970 75 1700 170/04 RMK AO2 SLP164 T01890144 TSNO
94908KDBQ DBQ20070530015511905/30/07 01:55:31  5-MIN KDBQ 300755Z AUTO 17006KT 8SM CLR 19/14 A3004 970 72 1800 170/06 RMK AO2 SLP164 T01940144 TSNO
94908KDBQ DBQ20070530020010205/30/07 02:00:31  5-MIN KDBQ 300800Z AUTO 18005KT 8SM CLR 19/14 A3004 970 72 1800 180/05 RMK AO2 TSNO
94908KDBQ DBQ20070530020510205/30/07 02:05:31  5-MIN KDBQ 300805Z AUTO 18005KT 8SM CLR 19/14 A3004 970 72 1800 180/05 RMK AO2 TSNO
94908KDBQ DBQ20070530021010205/30/07 02:10:31  5-MIN KDBQ 300810Z AUTO 19003KT 7SM CLR 19/14 A3004 970 75 1700 190/03 RMK AO2 TSNO
94908KDBQ DBQ20070530021510205/30/07 02:15:31  5-MIN KDBQ 300815Z AUTO 21004KT 7SM CLR 18/14 A3004 970 78 1600 210/04 RMK AO2 TSNO
94908KDBQ DBQ20070530022010205/30/07 02:20:31  5-MIN KDBQ 300820Z AUTO 20004KT 7SM CLR 19/14 A3004 970 75 1700 190/04 RMK AO2 TSNO
94908KDBQ DBQ20070530022510205/30/07 02:25:31  5-MIN KDBQ 300825Z AUTO 19004KT 7SM CLR 19/14 A3004 970 72 1800 190/04 RMK AO2 TSNO
94908KDBQ DBQ20070530023010205/30/07 02:30:31  5-MIN KDBQ 300830Z AUTO 19004KT 7SM CLR 19/14 A3003 970 75 1700 180/04 RMK AO2 TSNO
94908KDBQ DBQ20070530023510205/30/07 02:35:31  5-MIN KDBQ 300835Z AUTO 20004KT 7SM CLR 18/14 A3004 970 78 1600 200/04 RMK AO2 TSNO
94908KDBQ DBQ20070530024010205/30/07 02:40:31  5-MIN KDBQ 300840Z AUTO 20003KT 7SM CLR 18/14 A3004 970 78 1600 200/03 RMK AO2 TSNO
94908KDBQ DBQ20070530024510205/30/07 02:45:31  5-MIN KDBQ 300845Z AUTO 19004KT 7SM CLR 19/14 A3003 970 75 1700 190/04 RMK AO2 TSNO
94908KDBQ DBQ20070530025012505/30/07 02:50:31  5-MIN KDBQ 300850Z AUTO 19004KT 7SM CLR 18/14 A3003 970 78 1600 180/04 RMK AO2 SLP164 T01830144 51003 TSNO
94908KDBQ DBQ20070530025512505/30/07 02:55:31  5-MIN KDBQ 300855Z AUTO 18003KT 7SM CLR 19/14 A3003 970 75 1700 180/03 RMK AO2 SLP163 T01890144 56007 TSNO
94908KDBQ DBQ20070530030010205/30/07 03:00:31  5-MIN KDBQ 300900Z AUTO 00000KT 7SM CLR 19/14 A3003 970 75 1700 000/00 RMK AO2 TSNO
94908KDBQ DBQ20070530030510205/30/07 03:05:31  5-MIN KDBQ 300905Z AUTO 20003KT 7SM CLR 19/14 A3003 970 75 1700 200/03 RMK AO2 TSNO
94908KDBQ DBQ20070530031010205/30/07 03:10:31  5-MIN KDBQ 300910Z AUTO 20004KT 7SM CLR 18/14 A3003 970 78 1600 200/04 RMK AO2 TSNO
94908KDBQ DBQ20070530031510205/30/07 03:15:31  5-MIN KDBQ 300915Z AUTO 20004KT 7SM CLR 18/14 A3003 980 78 1600 200/04 RMK AO2 TSNO
94908KDBQ DBQ20070530032010205/30/07 03:20:31  5-MIN KDBQ 300920Z AUTO 18004KT 7SM CLR 18/14 A3003 970 78 1600 180/04 RMK AO2 TSNO
94908KDBQ DBQ20070530032510205/30/07 03:25:31  5-MIN KDBQ 300925Z AUTO 19003KT 7SM CLR 18/14 A3004 970 78 1600 180/03 RMK AO2 TSNO
94908KDBQ DBQ20070530033010205/30/07 03:30:31  5-MIN KDBQ 300930Z AUTO 20003KT 7SM CLR 18/14 A3004 970 81 1600 200/03 RMK AO2 TSNO
94908KDBQ DBQ20070530033510505/30/07 03:35:31  5-MIN KDBQ 300935Z AUTO 20003KT 6SM HZ CLR 18/14 A3004 970 81 1600 200/03 RMK AO2 TSNO
94908KDBQ DBQ20070530034010505/30/07 03:40:31  5-MIN KDBQ 300940Z AUTO 20003KT 6SM HZ CLR 18/14 A3004 970 78 1600 200/03 RMK AO2 TSNO
94908KDBQ DBQ20070530034510505/30/07 03:45:31  5-MIN KDBQ 300945Z AUTO VRB03KT 6SM HZ CLR 18/14 A3004 970 78 1600 VRB/03 RMK AO2 TSNO
94908KDBQ DBQ20070530035012205/30/07 03:50:31  5-MIN KDBQ 300950Z AUTO 20003KT 6SM HZ CLR 18/14 A3004 970 78 1600 200/03 RMK AO2 SLP165 T01830144 TSNO
94908KDBQ DBQ20070530035512205/30/07 03:55:31  5-MIN KDBQ 300955Z AUTO 20003KT 6SM HZ CLR 18/14 A3004 970 78 1600 200/03 RMK AO2 SLP165 T01830144 TSNO
94908KDBQ DBQ20070530040010505/30/07 04:00:31  5-MIN KDBQ 301000Z AUTO 00000KT 6SM HZ CLR 18/14 A3004 970 78 1600 000/00 RMK AO2 TSNO
94908KDBQ DBQ20070530040510505/30/07 04:05:31  5-MIN KDBQ 301005Z AUTO 18003KT 6SM HZ CLR 18/14 A3004 970 78 1600 180/03 RMK AO2 TSNO
94908KDBQ DBQ20070530041010505/30/07 04:10:31  5-MIN KDBQ 301010Z AUTO 17005KT 6SM HZ CLR 18/14 A3004 970 78 1600 170/05 RMK AO2 TSNO
94908KDBQ DBQ20070530041510505/30/07 04:15:31  5-MIN KDBQ 301015Z AUTO 17004KT 6SM HZ CLR 18/14 A3004 970 78 1600 170/04 RMK AO2 TSNO
94908KDBQ DBQ20070530042010505/30/07 04:20:31  5-MIN KDBQ 301020Z AUTO 16006KT 6SM HZ CLR 19/14 A3004 970 75 1700 160/06 RMK AO2 TSNO
94908KDBQ DBQ20070530042510505/30/07 04:25:31  5-MIN KDBQ 301025Z AUTO 15008KT 6SM HZ CLR 19/14 A3004 970 75 1700 150/08 RMK AO2 TSNO
94908KDBQ DBQ20070530043010505/30/07 04:30:31  5-MIN KDBQ 301030Z AUTO 16006KT 6SM HZ CLR 19/14 A3004 970 75 1700 160/06 RMK AO2 TSNO
94908KDBQ DBQ20070530043510505/30/07 04:35:31  5-MIN KDBQ 301035Z AUTO 16007KT 5SM HZ CLR 19/14 A3004 970 75 1700 160/07 RMK AO2 TSNO
94908KDBQ DBQ20070530044010505/30/07 04:40:31  5-MIN KDBQ 301040Z AUTO 18005KT 5SM HZ CLR 19/14 A3004 970 75 1700 180/05 RMK AO2 TSNO
94908KDBQ DBQ20070530044509505/30/07 04:45:31  5-MIN KDBQ 301045Z 16008KT 5SM HZ CLR 19/14 A3004 960 75 1700 160/08 RMK AO2
94908KDBQ DBQ20070530045011505/30/07 04:50:31  5-MIN KDBQ 301050Z 16007KT 5SM HZ FEW080 19/14 A3005 960 75 1700 160/07 RMK AO2 SLP169 T01890144
94908KDBQ DBQ20070530045511505/30/07 04:55:31  5-MIN KDBQ 301055Z 18004KT 5SM HZ FEW080 19/14 A3005 960 75 1700 170/04 RMK AO2 SLP169 T01890144
94908KDBQ DBQ20070530050009805/30/07 05:00:31  5-MIN KDBQ 301100Z 16005KT 5SM HZ FEW080 18/14 A3005 960 78 1600 160/05 RMK AO2
94908KDBQ DBQ20070530050509505/30/07 05:05:31  5-MIN KDBQ 301105Z 15006KT 5SM HZ CLR 18/14 A3005 960 78 1600 150/06 RMK AO2
94908KDBQ DBQ20070530051009505/30/07 05:10:31  5-MIN KDBQ 301110Z 16007KT 5SM HZ CLR 19/14 A3005 960 75 1700 150/07 RMK AO2
94908KDBQ DBQ20070530051509505/30/07 05:15:31  5-MIN KDBQ 301115Z 16006KT 5SM HZ CLR 19/14 A3005 960 75 1700 160/06 RMK AO2
94908KDBQ DBQ20070530052009505/30/07 05:20:31  5-MIN KDBQ 301120Z 17005KT 5SM HZ CLR 19/14 A3005 950 75 1700 170/05 RMK AO2
94908KDBQ DBQ20070530052509805/30/07 05:25:31  5-MIN KDBQ 301125Z VRB03KT 5SM HZ FEW110 18/14 A3006 950 78 1600 VRB/03 RMK AO2
94908KDBQ DBQ20070530053009805/30/07 05:30:31  5-MIN KDBQ 301130Z 00000KT 4SM HZ FEW110 18/15 A3006 950 83 1500 000/00 RMK AO2
94908KDBQ DBQ20070530053509505/30/07 05:35:31  5-MIN KDBQ 301135Z 24003KT 4SM HZ CLR 18/15 A3006 950 81 1600 240/03 RMK AO2
94908KDBQ DBQ20070530054009505/30/07 05:40:31  5-MIN KDBQ 301140Z 20004KT 4SM HZ CLR 19/15 A3006 950 78 1700 200/04 RMK AO2
94908KDBQ DBQ20070530054509505/30/07 05:45:31  5-MIN KDBQ 301145Z 18003KT 5SM HZ CLR 19/15 A3006 950 78 1700 180/03 RMK AO2
94908KDBQ DBQ20070530055013005/30/07 05:50:31  5-MIN KDBQ 301150Z 19004KT 5SM HZ CLR 19/15 A3006 950 75 1700 190/04 RMK AO2 SLP171 T01940150 10211 20178 56007
94908KDBQ DBQ20070530055513005/30/07 05:55:31  5-MIN KDBQ 301155Z 19004KT 5SM HZ CLR 19/15 A3006 950 75 1700 190/04 RMK AO2 SLP171 T01940150 10211 20178 53007
94908KDBQ DBQ20070530060009505/30/07 06:00:31  5-MIN KDBQ 301200Z 20005KT 5SM HZ CLR 19/15 A3006 950 75 1700 200/05 RMK AO2
94908KDBQ DBQ20070530060509505/30/07 06:05:31  5-MIN KDBQ 301205Z 20004KT 5SM HZ CLR 20/16 A3006 950 75 1800 190/04 RMK AO2
94908KDBQ DBQ20070530061009505/30/07 06:10:31  5-MIN KDBQ 301210Z 19005KT 5SM HZ CLR 20/16 A3006 950 75 1800 190/05 RMK AO2
94908KDBQ DBQ20070530061509505/30/07 06:15:31  5-MIN KDBQ 301215Z 18007KT 5SM HZ CLR 21/16 A3006 950 73 1900 180/07 RMK AO2
94908KDBQ DBQ20070530062009505/30/07 06:20:31  5-MIN KDBQ 301220Z 19007KT 5SM HZ CLR 21/16 A3006 950 73 1900 190/07 RMK AO2
94908KDBQ DBQ20070530062509505/30/07 06:25:31  5-MIN KDBQ 301225Z 20008KT 5SM HZ CLR 21/16 A3006 950 73 1900 200/08 RMK AO2
94908KDBQ DBQ20070530063009505/30/07 06:30:31  5-MIN KDBQ 301230Z 21008KT 5SM HZ CLR 21/16 A3006 950 73 1900 200/08 RMK AO2
94908KDBQ DBQ20070530063509505/30/07 06:35:31  5-MIN KDBQ 301235Z 21009KT 5SM HZ CLR 21/16 A3006 950 73 1900 210/09 RMK AO2
94908KDBQ DBQ20070530064009505/30/07 06:40:31  5-MIN KDBQ 301240Z 21010KT 5SM HZ CLR 21/16 A3006 950 70 1900 210/10 RMK AO2
94908KDBQ DBQ20070530064509505/30/07 06:45:31  5-MIN KDBQ 301245Z 21010KT 5SM HZ CLR 21/16 A3006 950 70 1900 210/10 RMK AO2
94908KDBQ DBQ20070530065011205/30/07 06:50:31  5-MIN KDBQ 301250Z 20009KT 5SM HZ CLR 21/16 A3006 950 70 1900 200/09 RMK AO2 SLP173 T02110156
94908KDBQ DBQ20070530065511205/30/07 06:55:31  5-MIN KDBQ 301255Z 21009KT 5SM HZ CLR 21/16 A3006 950 73 1900 210/09 RMK AO2 SLP174 T02110161
94908KDBQ DBQ20070530070009505/30/07 07:00:31  5-MIN KDBQ 301300Z 21008KT 5SM HZ CLR 21/16 A3006 950 73 1900 210/08 RMK AO2
94908KDBQ DBQ20070530070509505/30/07 07:05:31  5-MIN KDBQ 301305Z 22008KT 5SM HZ CLR 22/16 A3006 950 70 2000 210/08 RMK AO2
94908KDBQ DBQ20070530071009505/30/07 07:10:31  5-MIN KDBQ 301310Z 22009KT 5SM HZ CLR 22/16 A3006 950 70 2000 220/09 RMK AO2
94908KDBQ DBQ20070530071509505/30/07 07:15:31  5-MIN KDBQ 301315Z 21010KT 6SM HZ CLR 22/16 A3006 950 70 2000 210/10 RMK AO2
94908KDBQ DBQ20070530072009505/30/07 07:20:31  5-MIN KDBQ 301320Z 22010KT 6SM HZ CLR 22/17 A3006 950 73 2000 220/10 RMK AO2
94908KDBQ DBQ20070530072509505/30/07 07:25:31  5-MIN KDBQ 301325Z 24015KT 6SM HZ CLR 22/17 A3006 950 73 2000 240/15 RMK AO2
94908KDBQ DBQ20070530073010105/30/07 07:30:31  5-MIN KDBQ 301330Z 23011G17KT 6SM HZ CLR 22/17 A3006 950 73 2000 230/11G17 RMK AO2
94908KDBQ DBQ20070530073509505/30/07 07:35:31  5-MIN KDBQ 301335Z 22011KT 6SM HZ CLR 22/17 A3006 950 73 2000 220/11 RMK AO2
94908KDBQ DBQ20070530074009505/30/07 07:40:31  5-MIN KDBQ 301340Z 23011KT 6SM HZ CLR 22/17 A3006 950 70 2000 230/11 RMK AO2
94908KDBQ DBQ20070530074509205/30/07 07:45:31  5-MIN KDBQ 301345Z 22011KT 7SM CLR 22/17 A3006 950 70 2000 220/11 RMK AO2
94908KDBQ DBQ20070530075011205/30/07 07:50:31  5-MIN KDBQ 301350Z 24010KT 7SM FEW070 22/17 A3006 950 70 2000 240/10 RMK AO2 SLP175 T02220167
94908KDBQ DBQ20070530075511205/30/07 07:55:31  5-MIN KDBQ 301355Z 24011KT 7SM FEW070 22/17 A3006 950 70 2000 240/11 RMK AO2 SLP174 T02220167
94908KDBQ DBQ20070530080009205/30/07 08:00:31  5-MIN KDBQ 301400Z 23010KT 7SM CLR 22/17 A3006 950 70 2000 230/10 RMK AO2
94908KDBQ DBQ20070530080509205/30/07 08:05:31  5-MIN KDBQ 301405Z 24011KT 7SM CLR 22/17 A3006 950 70 2000 230/11 RMK AO2
94908KDBQ DBQ20070530081009205/30/07 08:10:31  5-MIN KDBQ 301410Z 21011KT 7SM CLR 23/17 A3006 950 68 2100 210/11 RMK AO2
94908KDBQ DBQ20070530081509205/30/07 08:15:31  5-MIN KDBQ 301415Z 22009KT 7SM CLR 23/17 A3006 950 68 2100 220/09 RMK AO2
94908KDBQ DBQ20070530082009205/30/07 08:20:31  5-MIN KDBQ 301420Z 22009KT 7SM CLR 23/17 A3006 950 68 2100 210/09 RMK AO2
94908KDBQ DBQ20070530082509205/30/07 08:25:31  5-MIN KDBQ 301425Z 22008KT 8SM CLR 23/17 A3006 950 68 2100 220/08 RMK AO2
94908KDBQ DBQ20070530083009205/30/07 08:30:31  5-MIN KDBQ 301430Z 21008KT 8SM CLR 23/17 A3006 950 68 2200 200/08 RMK AO2
94908KDBQ DBQ20070530083509205/30/07 08:35:31  5-MIN KDBQ 301435Z 21009KT 8SM CLR 23/17 A3006 950 68 2200 210/09 RMK AO2
94908KDBQ DBQ20070530084009205/30/07 08:40:31  5-MIN KDBQ 301440Z 21009KT 8SM CLR 24/17 A3006 950 63 2200 210/09 RMK AO2
94908KDBQ DBQ20070530085011505/30/07 08:50:31  5-MIN KDBQ 301450Z 17007KT 9SM CLR 24/17 A3005 960 61 2300 170/07 RMK AO2 SLP169 T02440167 53007
94908KDBQ DBQ20070530085511505/30/07 08:55:31  5-MIN KDBQ 301455Z 19006KT 9SM CLR 24/17 A3005 960 61 2300 180/06 RMK AO2 SLP168 T02440167 58003
94908KDBQ DBQ20070530090009205/30/07 09:00:31  5-MIN KDBQ 301500Z 18006KT 9SM CLR 24/17 A3005 960 63 2300 180/06 RMK AO2
94908KDBQ DBQ20070530090509205/30/07 09:05:31  5-MIN KDBQ 301505Z 18006KT 9SM CLR 25/17 A3004 960 59 2400 180/06 RMK AO2
94908KDBQ DBQ20070530091009205/30/07 09:10:31  5-MIN KDBQ 301510Z 16006KT 9SM CLR 25/17 A3004 970 59 2400 160/06 RMK AO2
94908KDBQ DBQ20070530091509805/30/07 09:15:31  5-MIN KDBQ 301515Z 17009G15KT 9SM CLR 26/16 A3004 970 55 2400 170/09G15 RMK AO2
94908KDBQ DBQ20070530092009305/30/07 09:20:31  5-MIN KDBQ 301520Z 19008KT 10SM CLR 26/16 A3004 970 53 2400 180/08 RMK AO2
94908KDBQ DBQ20070530092509905/30/07 09:25:31  5-MIN KDBQ 301525Z 17010G17KT 10SM CLR 26/16 A3004 970 53 2400 160/10G17 RMK AO2
94908KDBQ DBQ20070530093009905/30/07 09:30:31  5-MIN KDBQ 301530Z 17010G17KT 10SM CLR 26/16 A3004 970 53 2400 170/10G17 RMK AO2
94908KDBQ DBQ20070530093509305/30/07 09:35:31  5-MIN KDBQ 301535Z 18010KT 10SM CLR 26/16 A3004 970 53 2400 180/10 RMK AO2
94908KDBQ DBQ20070530094009305/30/07 09:40:31  5-MIN KDBQ 301540Z 16013KT 10SM CLR 26/16 A3004 970 51 2500 160/13 RMK AO2
94908KDBQ DBQ20070530094509305/30/07 09:45:31  5-MIN KDBQ 301545Z 17012KT 10SM CLR 26/16 A3004 970 51 2500 170/12 RMK AO2
94908KDBQ DBQ20070530095011605/30/07 09:50:31  5-MIN KDBQ 301550Z 18012G17KT 10SM CLR 26/16 A3004 970 51 2500 180/12G17 RMK AO2 SLP165 T02610156
94908KDBQ DBQ20070530095511605/30/07 09:55:31  5-MIN KDBQ 301555Z 19014G20KT 10SM CLR 26/15 A3004 970 51 2400 180/14G20 RMK AO2 SLP166 T02560150
94908KDBQ DBQ20070530100009905/30/07 10:00:31  5-MIN KDBQ 301600Z 18014G20KT 10SM CLR 26/15 A3004 970 50 2500 180/14G20 RMK AO2
94908KDBQ DBQ20070530100509305/30/07 10:05:31  5-MIN KDBQ 301605Z 19015KT 10SM CLR 26/15 A3004 970 51 2400 190/15 RMK AO2
94908KDBQ DBQ20070530101009905/30/07 10:10:31  5-MIN KDBQ 301610Z 18011G19KT 10SM CLR 26/15 A3004 970 51 2400 180/11G19 RMK AO2
94908KDBQ DBQ20070530101509905/30/07 10:15:31  5-MIN KDBQ 301615Z 18014G18KT 10SM CLR 26/15 A3004 970 51 2400 180/14G18 RMK AO2
94908KDBQ DBQ20070530102009905/30/07 10:20:31  5-MIN KDBQ 301620Z 18014G18KT 10SM CLR 26/16 A3003 970 51 2500 180/14G18 RMK AO2
94908KDBQ DBQ20070530102509905/30/07 10:25:31  5-MIN KDBQ 301625Z 17015G21KT 10SM CLR 27/16 A3003 970 50 2600 170/15G21 RMK AO2
94908KDBQ DBQ20070530103009905/30/07 10:30:31  5-MIN KDBQ 301630Z 19014G21KT 10SM CLR 27/16 A3003 970 50 2600 190/14G21 RMK AO2
94908KDBQ DBQ20070530103510205/30/07 10:35:31  5-MIN KDBQ 301635Z 18014G21KT 10SM FEW045 27/16 A3003 970 50 2600 180/14G21 RMK AO2
94908KDBQ DBQ20070530104009605/30/07 10:40:31  5-MIN KDBQ 301640Z 19016KT 10SM FEW045 27/15 A3003 980 48 2600 190/16 RMK AO2
94908KDBQ DBQ20070530104509905/30/07 10:45:31  5-MIN KDBQ 301645Z 18016G21KT 10SM CLR 27/14 A3003 980 45 2600 180/16G21 RMK AO2
94908KDBQ DBQ20070530105011605/30/07 10:50:31  5-MIN KDBQ 301650Z 18016G21KT 10SM CLR 27/14 A3003 980 45 2600 180/16G21 RMK AO2 SLP161 T02720144
94908KDBQ DBQ20070530105511305/30/07 10:55:31  5-MIN KDBQ 301655Z 18017KT 10SM FEW047 27/14 A3003 980 45 2600 180/17 RMK AO2 SLP161 T02720144
94908KDBQ DBQ20070530110010205/30/07 11:00:31  5-MIN KDBQ 301700Z 19016G22KT 10SM FEW049 27/14 A3003 980 46 2600 190/16G22 RMK AO2
94908KDBQ DBQ20070530110510305/30/07 11:05:31  5-MIN KDBQ 301705Z 18017KT 10SM FEW049 SCT060 27/14 A3003 980 45 2600 180/17 RMK AO2
94908KDBQ DBQ20070530111010205/30/07 11:10:31  5-MIN KDBQ 301710Z 19013G21KT 10SM SCT049 27/14 A3003 980 46 2600 190/13G21 RMK AO2
94908KDBQ DBQ20070530111510905/30/07 11:15:31  5-MIN KDBQ 301715Z 17016G22KT 10SM SCT055 SCT075 26/14 A3002 980 46 2500 170/16G22 RMK AO2
94908KDBQ DBQ20070530112010905/30/07 11:20:31  5-MIN KDBQ 301720Z 17016G22KT 10SM SCT050 SCT075 27/14 A3003 980 45 2600 170/16G22 RMK AO2
94908KDBQ DBQ20070530112512005/30/07 11:25:31  5-MIN KDBQ 301725Z 19017G26KT 10SM FEW050 28/14 A3002 980 43 2700 190/17G26 RMK AO2 PK WND 20026/1725
94908KDBQ DBQ20070530113012005/30/07 11:30:31  5-MIN KDBQ 301730Z 19018G26KT 10SM FEW050 28/14 A3002 990 43 2700 190/18G26 RMK AO2 PK WND 20026/1725
94908KDBQ DBQ20070530113512005/30/07 11:35:31  5-MIN KDBQ 301735Z 19020G28KT 10SM FEW050 27/14 A3002 990 43 2700 190/20G28 RMK AO2 PK WND 20028/1733
94908KDBQ DBQ20070530114012005/30/07 11:40:31  5-MIN KDBQ 301740Z 19020G28KT 10SM FEW075 27/14 A3002 990 45 2700 190/20G28 RMK AO2 PK WND 20028/1733
94908KDBQ DBQ20070530114512005/30/07 11:45:31  5-MIN KDBQ 301745Z 19020G26KT 10SM SCT070 27/14 A3002 980 46 2600 190/20G26 RMK AO2 PK WND 20028/1733
94908KDBQ DBQ20070530115016105/30/07 11:50:31  5-MIN KDBQ 301750Z 18020G26KT 9SM FEW048 SCT070 26/14 A3002 980 46 2500 180/20G26 RMK AO2 PK WND 20028/1733 SLP160 T02610139 10278 20194 58003
94908KDBQ DBQ20070530115516105/30/07 11:55:31  5-MIN KDBQ 301755Z 18016G25KT 9SM FEW048 BKN065 25/14 A3003 980 51 2400 180/16G25 RMK AO2 PK WND 20028/1733 SLP162 T02500144 10278 20194 56006
94908KDBQ DBQ20070530120010905/30/07 12:00:31  5-MIN KDBQ 301800Z 18015KT 9SM FEW048 BKN060 BKN075 25/14 A3003 980 51 2400 180/15 RMK AO2
94908KDBQ DBQ20070530120511505/30/07 12:05:31  5-MIN KDBQ 301805Z 18019G23KT 9SM FEW048 BKN060 BKN075 25/14 A3003 980 49 2400 180/19G23 RMK AO2
94908KDBQ DBQ20070530121013305/30/07 12:10:31  5-MIN KDBQ 301810Z 18022G26KT 9SM FEW048 BKN060 OVC070 24/14 A3003 980 51 2300 180/22G26 RMK AO2 PK WND 19026/1810
94908KDBQ DBQ20070530121512005/30/07 12:15:31  5-MIN KDBQ 301815Z 20020KT 9SM FEW048 OVC060 24/14 A3003 980 53 2300 200/20 RMK AO2 PK WND 19026/1810
94908KDBQ DBQ20070530122012605/30/07 12:20:31  5-MIN KDBQ 301820Z 19017G25KT 9SM FEW050 OVC060 24/14 A3003 980 53 2300 190/17G25 RMK AO2 PK WND 19026/1810
94908KDBQ DBQ20070530122511305/30/07 12:25:31  5-MIN KDBQ 301825Z 20016KT 9SM OVC060 24/14 A3003 980 53 2300 200/16 RMK AO2 PK WND 19026/1810
94908KDBQ DBQ20070530123011905/30/07 12:30:31  5-MIN KDBQ 301830Z 18015G19KT 9SM OVC060 24/15 A3003 980 55 2300 180/15G19 RMK AO2 PK WND 19026/1810
94908KDBQ DBQ20070530123511905/30/07 12:35:31  5-MIN KDBQ 301835Z 18013G19KT 9SM OVC060 24/14 A3003 980 53 2300 180/13G19 RMK AO2 PK WND 19026/1810
94908KDBQ DBQ20070530124011905/30/07 12:40:31  5-MIN KDBQ 301840Z 18013G21KT 9SM OVC060 25/15 A3003 980 53 2400 180/13G21 RMK AO2 PK WND 19026/1810
94908KDBQ DBQ20070530124512605/30/07 12:45:31  5-MIN KDBQ 301845Z 19015G21KT 9SM BKN060 BKN070 26/15 A3002 980 50 2500 190/15G21 RMK AO2 PK WND 19026/1810
94908KDBQ DBQ20070530125014405/30/07 12:50:31  5-MIN KDBQ 301850Z 18015G21KT 10SM BKN060 BKN075 26/16 A3003 980 51 2500 180/15G21 RMK AO2 PK WND 19026/1810 SLP161 T02610156
94908KDBQ DBQ20070530125513605/30/07 12:55:31  5-MIN KDBQ 301855Z 17017G21KT 9SM BKN060 26/16 A3002 980 51 2500 170/17G21 RMK AO2 PK WND 19026/1810 SLP161 T02610156
94908KDBQ DBQ20070530130010105/30/07 13:00:31  5-MIN KDBQ 301900Z 18017G24KT 9SM BKN065 26/15 A3002 980 51 2500 180/17G24 RMK AO2
94908KDBQ DBQ20070530130512605/30/07 13:05:31  5-MIN KDBQ 301905Z 19024G29KT 9SM FEW042 BKN065 26/15 A3003 980 51 2500 190/24G29 RMK AO2 PK WND 19029/1905
94908KDBQ DBQ20070530131013305/30/07 13:10:31  5-MIN KDBQ 301910Z 19017G29KT 9SM FEW042 SCT055 BKN070 26/15 A3002 980 51 2500 190/17G29 RMK AO2 PK WND 19029/1905
94908KDBQ DBQ20070530131513305/30/07 13:15:31  5-MIN KDBQ 301915Z 18018G26KT 9SM FEW042 SCT050 BKN065 26/16 A3002 990 53 2500 180/18G26 RMK AO2 PK WND 19029/1905
94908KDBQ DBQ20070530132013305/30/07 13:20:31  5-MIN KDBQ 301920Z 18020G31KT 9SM FEW042 BKN050 BKN065 26/15 A3002 990 51 2500 180/20G31 RMK AO2 PK WND 18031/1920
94908KDBQ DBQ20070530132512605/30/07 13:25:31  5-MIN KDBQ 301925Z 19019G31KT 9SM FEW042 BKN055 25/15 A3002 990 53 2400 190/19G31 RMK AO2 PK WND 18031/1920
94908KDBQ DBQ20070530133012605/30/07 13:30:31  5-MIN KDBQ 301930Z 18018G28KT 8SM FEW042 BKN060 25/15 A3002 990 53 2400 180/18G28 RMK AO2 PK WND 18031/1920
94908KDBQ DBQ20070530133513305/30/07 13:35:31  5-MIN KDBQ 301935Z 18017G26KT 9SM FEW040 SCT050 BKN065 26/16 A3002 990 53 2500 180/17G26 RMK AO2 PK WND 18031/1920
94908KDBQ DBQ20070530134013305/30/07 13:40:31  5-MIN KDBQ 301940Z 19016G24KT 9SM FEW040 SCT050 BKN065 25/16 A3001 990 55 2400 190/16G24 RMK AO2 PK WND 18031/1920
94908KDBQ DBQ20070530134511905/30/07 13:45:31  5-MIN KDBQ 301945Z 17017G23KT 9SM SCT060 26/16 A3001 990 53 2500 170/17G23 RMK AO2 PK WND 18031/1920
94908KDBQ DBQ20070530135013605/30/07 13:50:31  5-MIN KDBQ 301950Z 18018G21KT 9SM SCT060 25/16 A3001 990 55 2400 180/18G21 RMK AO2 PK WND 18031/1920 SLP157 T02500156
94908KDBQ DBQ20070530135513705/30/07 13:55:31  5-MIN KDBQ 301955Z 18015G21KT 9SM FEW065 25/16 A3001 1000 55 2400 180/15G21 RMK AO2 PK WND 18031/1920 SLP156 T02500156
94908KDBQ DBQ20070530140009905/30/07 14:00:31  5-MIN KDBQ 302000Z 18016G21KT 9SM CLR 26/16 A3001 1000 53 2500 180/16G21 RMK AO2
94908KDBQ DBQ20070530140509905/30/07 14:05:31  5-MIN KDBQ 302005Z 19019G23KT 9SM CLR 25/16 A3000 1000 55 2400 190/19G23 RMK AO2
94908KDBQ DBQ20070530141009905/30/07 14:10:31  5-MIN KDBQ 302010Z 18015G23KT 9SM CLR 25/16 A3000 1000 55 2400 180/15G23 RMK AO2
94908KDBQ DBQ20070530141509905/30/07 14:15:31  5-MIN KDBQ 302015Z 19015G23KT 9SM CLR 26/16 A3000 1000 55 2500 180/15G23 RMK AO2
94908KDBQ DBQ20070530142010205/30/07 14:20:31  5-MIN KDBQ 302020Z 17018G24KT 9SM FEW040 26/16 A3000 1010 53 2500 170/18G24 RMK AO2
94908KDBQ DBQ20070530142510005/30/07 14:25:31  5-MIN KDBQ 302025Z 18016G24KT 10SM CLR 27/16 A2999 1010 52 2600 180/16G24 RMK AO2
94908KDBQ DBQ20070530143010005/30/07 14:30:31  5-MIN KDBQ 302030Z 18016G23KT 10SM CLR 26/16 A2999 1010 51 2600 180/16G23 RMK AO2
94908KDBQ DBQ20070530143510305/30/07 14:35:31  5-MIN KDBQ 302035Z 17017G24KT 10SM FEW041 27/16 A2999 1010 50 2600 170/17G24 RMK AO2
94908KDBQ DBQ20070530144010905/30/07 14:40:31  5-MIN KDBQ 302040Z 18018G24KT 9SM FEW041 SCT050 26/16 A2999 1010 51 2600 180/18G24 RMK AO2
94908KDBQ DBQ20070530144512705/30/07 14:45:31  5-MIN KDBQ 302045Z 19020G27KT 9SM SCT043 SCT050 26/16 A2999 1010 51 2600 190/20G27 RMK AO2 PK WND 19027/2043
94908KDBQ DBQ20070530145015005/30/07 14:50:31  5-MIN KDBQ 302050Z 18018G27KT 9SM SCT043 BKN050 26/16 A2999 1020 51 2600 180/18G27 RMK AO2 PK WND 19027/2043 SLP149 T02610156 56006
94908KDBQ DBQ20070530145515005/30/07 14:55:31  5-MIN KDBQ 302055Z 17019G25KT 9SM SCT041 BKN050 27/16 A2999 1020 50 2600 170/19G25 RMK AO2 PK WND 19027/2043 SLP149 T02670156 58013
94908KDBQ DBQ20070530150012705/30/07 15:00:31  5-MIN KDBQ 302100Z 17017G26KT 9SM SCT041 BKN050 26/16 A2999 1020 51 2600 170/17G26 RMK AO2 PK WND 16026/2056
94908KDBQ DBQ20070530150512705/30/07 15:05:31  5-MIN KDBQ 302105Z 17018G26KT 8SM BKN046 BKN055 26/16 A2998 1020 53 2500 170/18G26 RMK AO2 PK WND 16026/2056
94908KDBQ DBQ20070530151012705/30/07 15:10:31  5-MIN KDBQ 302110Z 16018G26KT 9SM SCT043 BKN050 27/16 A2998 1030 52 2600 160/18G26 RMK AO2 PK WND 17026/2107
94908KDBQ DBQ20070530151512705/30/07 15:15:31  5-MIN KDBQ 302115Z 18018G26KT 9SM BKN041 BKN050 26/16 A2997 1030 51 2600 180/18G26 RMK AO2 PK WND 17026/2107
94908KDBQ DBQ20070530152012705/30/07 15:20:31  5-MIN KDBQ 302120Z 18017G25KT 9SM SCT041 BKN050 27/16 A2998 1030 50 2600 170/17G25 RMK AO2 PK WND 17026/2107
94908KDBQ DBQ20070530152512705/30/07 15:25:31  5-MIN KDBQ 302125Z 17017G25KT 9SM SCT041 SCT050 27/16 A2997 1030 50 2600 170/17G25 RMK AO2 PK WND 17026/2107
94908KDBQ DBQ20070530153012705/30/07 15:30:31  5-MIN KDBQ 302130Z 16020G28KT 9SM FEW041 SCT050 27/16 A2997 1030 50 2700 160/20G28 RMK AO2 PK WND 16028/2130
94908KDBQ DBQ20070530153512005/30/07 15:35:31  5-MIN KDBQ 302135Z 18016G28KT 9SM FEW039 27/16 A2997 1040 50 2700 180/16G28 RMK AO2 PK WND 16028/2130
94908KDBQ DBQ20070530154012005/30/07 15:40:31  5-MIN KDBQ 302140Z 17021G26KT 9SM FEW039 27/16 A2996 1040 50 2700 170/21G26 RMK AO2 PK WND 16028/2130
94908KDBQ DBQ20070530154512005/30/07 15:45:31  5-MIN KDBQ 302145Z 17019G26KT 9SM FEW039 27/15 A2996 1040 48 2700 170/19G26 RMK AO2 PK WND 16028/2130
94908KDBQ DBQ20070530155013405/30/07 15:50:31  5-MIN KDBQ 302150Z 18022G28KT 9SM CLR 27/16 A2996 1040 50 2700 180/22G28 RMK AO2 PK WND 18028/2150 SLP139 T02670156
94908KDBQ DBQ20070530155513405/30/07 15:55:31  5-MIN KDBQ 302155Z 17023G30KT 9SM CLR 27/15 A2995 1050 48 2700 170/23G30 RMK AO2 PK WND 17030/2153 SLP137 T02670150
94908KDBQ DBQ20070530160011705/30/07 16:00:31  5-MIN KDBQ 302200Z 18020G30KT 9SM CLR 27/16 A2995 1050 50 2700 180/20G30 RMK AO2 PK WND 18027/2156
94908KDBQ DBQ20070530160512005/30/07 16:05:31  5-MIN KDBQ 302205Z 18018G27KT 9SM FEW043 27/16 A2995 1050 50 2700 180/18G27 RMK AO2 PK WND 18027/2156
94908KDBQ DBQ20070530161012005/30/07 16:10:31  5-MIN KDBQ 302210Z 16021G25KT 9SM FEW043 27/16 A2995 1050 50 2700 160/21G25 RMK AO2 PK WND 18027/2156
94908KDBQ DBQ20070530161512005/30/07 16:15:31  5-MIN KDBQ 302215Z 17018G26KT 9SM FEW043 27/16 A2995 1050 50 2700 170/18G26 RMK AO2 PK WND 18027/2156
94908KDBQ DBQ20070530162012005/30/07 16:20:31  5-MIN KDBQ 302220Z 17019G27KT 9SM FEW043 27/16 A2994 1060 48 2700 160/19G27 RMK AO2 PK WND 17027/2217
94908KDBQ DBQ20070530162512005/30/07 16:25:31  5-MIN KDBQ 302225Z 15018G27KT 8SM FEW043 27/16 A2994 1060 52 2700 150/18G27 RMK AO2 PK WND 17027/2217
94908KDBQ DBQ20070530163012005/30/07 16:30:31  5-MIN KDBQ 302230Z 17020G27KT 8SM FEW043 26/16 A2994 1060 51 2600 170/20G27 RMK AO2 PK WND 15027/2228
94908KDBQ DBQ20070530163512005/30/07 16:35:31  5-MIN KDBQ 302235Z 16023G28KT 8SM FEW043 26/16 A2994 1060 51 2600 160/23G28 RMK AO2 PK WND 16028/2235
94908KDBQ DBQ20070530164012005/30/07 16:40:31  5-MIN KDBQ 302240Z 17020G28KT 8SM FEW043 27/16 A2993 1070 50 2700 170/20G28 RMK AO2 PK WND 16028/2235
94908KDBQ DBQ20070530164511705/30/07 16:45:31  5-MIN KDBQ 302245Z 16020G26KT 8SM CLR 27/16 A2993 1070 50 2700 160/20G26 RMK AO2 PK WND 16028/2235
94908KDBQ DBQ20070530165013405/30/07 16:50:31  5-MIN KDBQ 302250Z 17018G26KT 8SM CLR 26/16 A2993 1070 51 2600 170/18G26 RMK AO2 PK WND 16028/2235 SLP128 T02610156
94908KDBQ DBQ20070530165513405/30/07 16:55:31  5-MIN KDBQ 302255Z 18020G29KT 8SM CLR 26/16 A2993 1070 51 2600 180/20G29 RMK AO2 PK WND 18029/2251 SLP128 T02610156
94908KDBQ DBQ20070530170010205/30/07 17:00:31  5-MIN KDBQ 302300Z 18017G29KT 8SM FEW041 26/16 A2993 1070 51 2600 180/17G29 RMK AO2
94908KDBQ DBQ20070530170510205/30/07 17:05:31  5-MIN KDBQ 302305Z 16017G25KT 8SM FEW041 26/16 A2993 1070 53 2600 160/17G25 RMK AO2
94908KDBQ DBQ20070530171010205/30/07 17:10:31  5-MIN KDBQ 302310Z 17017G23KT 8SM FEW041 26/16 A2993 1070 53 2600 170/17G23 RMK AO2
94908KDBQ DBQ20070530171510205/30/07 17:15:31  5-MIN KDBQ 302315Z 17021G25KT 8SM FEW041 26/16 A2992 1070 51 2600 170/21G25 RMK AO2
94908KDBQ DBQ20070530172010205/30/07 17:20:31  5-MIN KDBQ 302320Z 17020G25KT 8SM FEW041 26/16 A2993 1070 51 2600 170/20G25 RMK AO2
94908KDBQ DBQ20070530172509605/30/07 17:25:31  5-MIN KDBQ 302325Z 17019KT 8SM FEW041 26/16 A2993 1070 51 2600 170/19 RMK AO2
94908KDBQ DBQ20070530173010205/30/07 17:30:31  5-MIN KDBQ 302330Z 18016G23KT 8SM FEW041 26/16 A2993 1070 51 2600 180/16G23 RMK AO2
94908KDBQ DBQ20070530173509905/30/07 17:35:31  5-MIN KDBQ 302335Z 17017G23KT 8SM CLR 26/16 A2993 1070 51 2600 170/17G23 RMK AO2
94908KDBQ DBQ20070530174010205/30/07 17:40:31  5-MIN KDBQ 302340Z 17017G22KT 8SM FEW110 26/16 A2993 1070 51 2600 170/17G22 RMK AO2
94908KDBQ DBQ20070530174510205/30/07 17:45:31  5-MIN KDBQ 302345Z 17017G22KT 8SM FEW110 26/15 A2993 1070 51 2600 170/17G22 RMK AO2
94908KDBQ DBQ20070530175013105/30/07 17:50:31  5-MIN KDBQ 302350Z 17018KT 8SM FEW110 26/15 A2993 1070 50 2600 170/18 RMK AO2 SLP130 T02610150 10272 20244 58013
94908KDBQ DBQ20070530175513105/30/07 17:55:31  5-MIN KDBQ 302355Z 17013KT 8SM FEW110 26/16 A2993 1060 51 2600 170/13 RMK AO2 SLP131 T02610156 10272 20244 55017
94908KDBQ DBQ20070530180010205/30/07 18:00:31  5-MIN KDBQ 310000Z 17016G23KT 8SM SCT100 26/16 A2994 1060 51 2600 170/16G23 RMK AO2
94908KDBQ DBQ20070530180510205/30/07 18:05:31  5-MIN KDBQ 310005Z 17016G23KT 8SM BKN100 26/15 A2994 1060 51 2600 170/16G23 RMK AO2
94908KDBQ DBQ20070530181010205/30/07 18:10:31  5-MIN KDBQ 310010Z 18016G23KT 8SM BKN100 26/15 A2994 1060 51 2600 170/16G23 RMK AO2
94908KDBQ DBQ20070530181510205/30/07 18:15:31  5-MIN KDBQ 310015Z 18014G23KT 8SM BKN100 26/15 A2994 1060 51 2600 170/14G23 RMK AO2
94908KDBQ DBQ20070530182010305/30/07 18:20:31  5-MIN KDBQ 310020Z 17015KT 8SM FEW045 BKN100 26/15 A2994 1060 51 2600 170/15 RMK AO2
94908KDBQ DBQ20070530182510305/30/07 18:25:31  5-MIN KDBQ 310025Z 17015KT 8SM FEW045 BKN100 26/15 A2994 1060 51 2600 170/15 RMK AO2
94908KDBQ DBQ20070530183010905/30/07 18:30:31  5-MIN KDBQ 310030Z 17014G22KT 8SM FEW045 BKN100 25/15 A2994 1060 53 2500 170/14G22 RMK AO2
94908KDBQ DBQ20070530183510905/30/07 18:35:31  5-MIN KDBQ 310035Z 17013G23KT 7SM FEW045 BKN100 25/15 A2994 1060 53 2500 170/13G23 RMK AO2
94908KDBQ DBQ20070530184010905/30/07 18:40:31  5-MIN KDBQ 310040Z 18013G23KT 7SM FEW045 BKN110 25/14 A2994 1060 51 2500 180/13G23 RMK AO2
94908KDBQ DBQ20070530184510305/30/07 18:45:31  5-MIN KDBQ 310045Z 18012KT 7SM FEW045 BKN110 25/15 A2994 1060 53 2500 180/12 RMK AO2
94908KDBQ DBQ20070530185012005/30/07 18:50:31  5-MIN KDBQ 310050Z 18013KT 7SM SCT047 BKN110 25/15 A2994 1060 53 2500 180/13 RMK AO2 SLP133 T02500150
94908KDBQ DBQ20070530185512605/30/07 18:55:31  5-MIN KDBQ 310055Z 17010G19KT 7SM SCT047 BKN110 25/15 A2995 1060 53 2500 170/10G19 RMK AO2 SLP134 T02500150
94908KDBQ DBQ20070530190011305/30/07 19:00:31  5-MIN KDBQ 310100Z AUTO 17012KT 7SM SCT047 BKN110 24/15 A2995 1050 55 2400 170/12 RMK AO2 TSNO
94908KDBQ DBQ20070530190511305/30/07 19:05:31  5-MIN KDBQ 310105Z AUTO 17010KT 7SM BKN045 BKN110 24/15 A2995 1050 55 2400 170/10 RMK AO2 TSNO
94908KDBQ DBQ20070530191012005/30/07 19:10:31  5-MIN KDBQ 310110Z AUTO 17012KT 7SM BKN045 BKN055 BKN110 24/16 A2995 1050 57 2400 160/12 RMK AO2 TSNO
94908KDBQ DBQ20070530191512005/30/07 19:15:31  5-MIN KDBQ 310115Z AUTO 17013KT 7SM SCT045 BKN055 OVC110 24/15 A2995 1060 55 2400 170/13 RMK AO2 TSNO
94908KDBQ DBQ20070530192012605/30/07 19:20:31  5-MIN KDBQ 310120Z AUTO 17013G21KT 8SM SCT045 BKN055 OVC110 24/15 A2995 1060 55 2400 170/13G21 RMK AO2 TSNO
94908KDBQ DBQ20070530192512605/30/07 19:25:31  5-MIN KDBQ 310125Z AUTO 17019G25KT 8SM SCT043 BKN055 OVC110 24/15 A2995 1050 55 2400 170/19G25 RMK AO2 TSNO
94908KDBQ DBQ20070530193012605/30/07 19:30:31  5-MIN KDBQ 310130Z AUTO 17017G25KT 9SM SCT043 BKN055 BKN120 24/14 A2995 1050 53 2400 170/17G25 RMK AO2 TSNO
94908KDBQ DBQ20070530193512605/30/07 19:35:31  5-MIN KDBQ 310135Z AUTO 18017G24KT 9SM FEW043 SCT050 BKN120 24/15 A2995 1050 55 2400 180/17G24 RMK AO2 TSNO
94908KDBQ DBQ20070530194011905/30/07 19:40:31  5-MIN KDBQ 310140Z AUTO 18014G24KT 9SM FEW043 BKN120 24/15 A2995 1050 57 2400 180/14G24 RMK AO2 TSNO
94908KDBQ DBQ20070530194511905/30/07 19:45:31  5-MIN KDBQ 310145Z AUTO 18017G22KT 9SM FEW043 SCT120 24/15 A2995 1050 57 2400 180/17G22 RMK AO2 TSNO
94908KDBQ DBQ20070530195013605/30/07 19:50:31  5-MIN KDBQ 310150Z AUTO 18013G22KT 9SM FEW043 SCT110 24/15 A2995 1050 57 2400 180/13G22 RMK AO2 SLP135 T02390150 TSNO
94908KDBQ DBQ20070530195512905/30/07 19:55:31  5-MIN KDBQ 310155Z AUTO 18016G20KT 9SM SCT110 24/15 A2995 1050 57 2400 180/16G20 RMK AO2 SLP134 T02390150 TSNO
94908KDBQ DBQ20070530200011205/30/07 20:00:31  5-MIN KDBQ 310200Z AUTO 18014G21KT 9SM BKN120 23/15 A2995 1050 59 2300 180/14G21 RMK AO2 TSNO
94908KDBQ DBQ20070530200511205/30/07 20:05:31  5-MIN KDBQ 310205Z AUTO 18015G21KT 9SM BKN110 23/16 A2995 1050 61 2300 180/15G21 RMK AO2 TSNO
94908KDBQ DBQ20070530201011205/30/07 20:10:31  5-MIN KDBQ 310210Z AUTO 19015G20KT 9SM SCT110 23/16 A2995 1050 61 2300 180/15G20 RMK AO2 TSNO
94908KDBQ DBQ20070530201510605/30/07 20:15:31  5-MIN KDBQ 310215Z AUTO 18014KT 9SM SCT120 23/16 A2995 1050 61 2300 180/14 RMK AO2 TSNO
94908KDBQ DBQ20070530202010605/30/07 20:20:31  5-MIN KDBQ 310220Z AUTO 18012KT 9SM SCT120 23/16 A2995 1050 61 2300 180/12 RMK AO2 TSNO
94908KDBQ DBQ20070530202511205/30/07 20:25:31  5-MIN KDBQ 310225Z AUTO 18009G17KT 9SM FEW120 23/16 A2995 1050 61 2300 180/09G17 RMK AO2 TSNO
94908KDBQ DBQ20070530203011205/30/07 20:30:31  5-MIN KDBQ 310230Z AUTO 18012G17KT 9SM FEW120 23/16 A2995 1050 63 2200 180/12G17 RMK AO2 TSNO
94908KDBQ DBQ20070530203510305/30/07 20:35:31  5-MIN KDBQ 310235Z AUTO 18011KT 9SM CLR 23/16 A2996 1050 63 2200 180/11 RMK AO2 TSNO
94908KDBQ DBQ20070530204010305/30/07 20:40:31  5-MIN KDBQ 310240Z AUTO 18011KT 9SM CLR 23/16 A2996 1050 63 2200 170/11 RMK AO2 TSNO
94908KDBQ DBQ20070530204510305/30/07 20:45:31  5-MIN KDBQ 310245Z AUTO 17010KT 9SM CLR 23/16 A2996 1040 63 2200 170/10 RMK AO2 TSNO
94908KDBQ DBQ20070530223012105/30/07 22:30:31  5-MIN KDBQ 310430Z AUTO 18014KT 10SM SCT065 SCT080 BKN100 22/16 A2996 1050 65 2200 170/14 RMK AO2 TSNO
94908KDBQ DBQ20070530223512705/30/07 22:35:31  5-MIN KDBQ 310435Z AUTO 18016G22KT 10SM FEW049 BKN070 BKN100 22/16 A2996 1050 65 2200 170/16G22 RMK AO2 TSNO
94908KDBQ DBQ20070530224014205/30/07 22:40:31  5-MIN KDBQ 310440Z AUTO 18018G25KT 7SM -RA SCT049 BKN065 BKN100 22/16 A2995 1050 70 2100 180/18G25 RMK AO2 RAB40 P0000 TSNO
94908KDBQ DBQ20070530224515905/30/07 22:45:31  5-MIN KDBQ 310445Z AUTO 19017G29KT 5SM RA FEW012 BKN049 BKN070 21/17 A2995 1050 78 2000 180/17G29 RMK AO2 PK WND 18029/0441 RAB40 P0002 TSNO
94908KDBQ DBQ20070530225017705/30/07 22:50:31  5-MIN KDBQ 310450Z AUTO 18012G29KT 7SM -RA FEW012 BKN049 OVC070 21/17 A2996 1050 75 2000 180/12G29 RMK AO2 PK WND 18029/0441 RAB40 SLP136 P0002 T02110167 TSNO
94908KDBQ DBQ20070530225517705/30/07 22:55:31  5-MIN KDBQ 310455Z AUTO 18014G20KT 10SM BKN049 BKN070 OVC090 21/16 A2995 1050 73 2000 170/14G20 RMK AO2 PK WND 18029/0441 RAB40E53 SLP136 P0002 T02110161 TSNO
94908KDBQ DBQ20070530230012605/30/07 23:00:31  5-MIN KDBQ 310500Z AUTO 17020G25KT 9SM BKN049 BKN065 OVC090 21/17 A2995 1050 78 2000 170/20G25 RMK AO2 TSNO
94908KDBQ DBQ20070530230514205/30/07 23:05:31  5-MIN KDBQ 310505Z AUTO 18016G25KT 7SM -RA FEW046 BKN055 OVC090 20/17 A2995 1050 81 1900 180/16G25 RMK AO2 RAB01 P0000 TSNO
94908KDBQ DBQ20070530231014205/30/07 23:10:31  5-MIN KDBQ 310510Z AUTO 19015G25KT 7SM -RA FEW038 BKN050 OVC090 20/17 A2995 1050 84 1900 190/15G25 RMK AO2 RAB01 P0000 TSNO
94908KDBQ DBQ20070530231514205/30/07 23:15:31  5-MIN KDBQ 310515Z AUTO 19012G21KT 9SM -RA SCT036 BKN050 OVC090 19/17 A2996 1050 87 1800 190/12G21 RMK AO2 RAB01 P0001 TSNO
94908KDBQ DBQ20070530232013605/30/07 23:20:31  5-MIN KDBQ 310520Z AUTO 21011KT 8SM -RA BKN034 BKN043 OVC090 19/17 A2996 1040 87 1800 210/11 RMK AO2 RAB01 P0001 TSNO
94908KDBQ DBQ20070530232513805/30/07 23:25:31  5-MIN KDBQ 310525Z AUTO 20012KT 5SM RA BR BKN034 BKN040 OVC060 19/17 A2996 1040 87 1800 200/12 RMK AO2 RAB01 P0002 TSNO
94908KDBQ DBQ20070530233013605/30/07 23:30:31  5-MIN KDBQ 310530Z AUTO 20010KT 5SM -RA BKN034 BKN041 OVC060 21/17 A2995 1050 81 2000 200/10 RMK AO2 RAB01 P0003 TSNO
94908KDBQ DBQ20070530233512205/30/07 23:35:31  5-MIN KDBQ 310535Z AUTO 21010KT 8SM -RA OVC034 19/17 A2996 1050 87 1800 200/10 RMK AO2 RAB01 P0003 TSNO
94908KDBQ DBQ20070530234012905/30/07 23:40:31  5-MIN KDBQ 310540Z AUTO 21011KT 7SM -RA FEW021 OVC034 19/17 A2996 1040 87 1800 210/11 RMK AO2 RAB01 P0003 TSNO
94908KDBQ DBQ20070530234514205/30/07 23:45:31  5-MIN KDBQ 310545Z AUTO 24014G25KT 7SM -RA SCT014 SCT022 OVC032 19/17 A2996 1040 84 1800 240/14G25 RMK AO2 RAB01 P0004 TSNO
94908KDBQ DBQ20070530235015205/30/07 23:50:31  5-MIN KDBQ 310550Z AUTO 25011G25KT 9SM -RA FEW012 BKN020 OVC032 18/16 A2997 1040 87 1700 250/11G25 RMK AO2 RAB01 P0004 402780178 TSNO
94908KDBQ DBQ20070530235519005/30/07 23:55:31  5-MIN KDBQ 310555Z AUTO 25011KT 4SM +RA BR FEW012 BKN020 OVC035 18/16 A2997 1030 90 1600 250/11 RMK AO2 RAB01 SLP142 P0005 60007 T01780161 10261 20178 402780178 53003 TSNO
94908KDBQ DBQ20070531000013305/31/07 00:00:38  5-MIN KDBQ 310600Z AUTO 25009KT 2SM +RA BR FEW012 BKN020 OVC030 18/16 A2997 1030 90 1600 250/09 RMK AO2 P0005 TSNO
94908KDBQ DBQ20070531000513305/31/07 00:05:31  5-MIN KDBQ 310605Z AUTO 25008KT 2SM +RA BR FEW012 BKN020 OVC030 18/17 A2997 1030 93 1600 250/08 RMK AO2 P0015 TSNO
94908KDBQ DBQ20070531001013305/31/07 00:10:31  5-MIN KDBQ 310610Z AUTO 24007KT 3SM -RA BR FEW012 SCT020 OVC027 18/17 A2997 1030 93 1600 240/07 RMK AO2 P0018 TSNO
94908KDBQ DBQ20070531001513205/31/07 00:15:32  5-MIN KDBQ 310615Z AUTO 24007KT 4SM RA BR SCT021 BKN027 OVC032 18/17 A2997 1030 93 1600 240/07 RMK AO2 P0019 TSNO
94908KDBQ DBQ20070531002013205/31/07 00:20:31  5-MIN KDBQ 310620Z AUTO 25007KT 5SM RA BR FEW021 SCT027 OVC032 18/17 A2997 1030 93 1600 250/07 RMK AO2 P0021 TSNO
94908KDBQ DBQ20070531002513305/31/07 00:25:31  5-MIN KDBQ 310625Z AUTO 23007KT 5SM -RA BR FEW013 SCT024 OVC034 18/17 A2998 1030 93 1600 230/07 RMK AO2 P0021 TSNO
94908KDBQ DBQ20070531003013305/31/07 00:30:31  5-MIN KDBQ 310630Z AUTO 23005KT 3SM +RA BR FEW013 BKN034 OVC044 18/17 A2997 1030 93 1600 230/05 RMK AO2 P0026 TSNO
94908KDBQ DBQ20070531003513305/31/07 00:35:31  5-MIN KDBQ 310635Z AUTO 22006KT 3SM +RA BR FEW015 BKN034 OVC044 17/17 A2998 1030 96 1600 220/06 RMK AO2 P0029 TSNO
94908KDBQ DBQ20070531004012605/31/07 00:40:31  5-MIN KDBQ 310640Z AUTO 23007KT 5SM -RA BR SCT034 OVC044 17/17 A2997 1030 96 1600 230/07 RMK AO2 P0030 TSNO
94908KDBQ DBQ20070531004512205/31/07 00:45:31  5-MIN KDBQ 310645Z AUTO 24005KT 8SM RA FEW034 OVC044 17/16 A2997 1030 93 1600 240/05 RMK AO2 P0031 TSNO
94908KDBQ DBQ20070531005014005/31/07 00:50:31  5-MIN KDBQ 310650Z AUTO 21006KT 9SM -RA FEW034 OVC044 17/17 A2997 1030 96 1600 210/06 RMK AO2 SLP144 P0031 T01720167 TSNO
94908KDBQ DBQ20070531005513305/31/07 00:55:31  5-MIN KDBQ 310655Z AUTO 22006KT 9SM -RA OVC046 17/17 A2997 1030 96 1600 220/06 RMK AO2 SLP144 P0031 T01720167 TSNO
94908KDBQ DBQ20070531010012305/31/07 01:00:31  5-MIN KDBQ 310700Z AUTO 22006KT 8SM -RA BKN046 OVC060 17/16 A2997 1040 93 1600 220/06 RMK AO2 P0000 TSNO
94908KDBQ DBQ20070531010512405/31/07 01:05:31  5-MIN KDBQ 310705Z AUTO 22005KT 10SM -RA BKN046 OVC060 17/16 A2996 1040 93 1600 220/05 RMK AO2 P0000 TSNO
94908KDBQ DBQ20070531011012605/31/07 01:10:31  5-MIN KDBQ 310710Z AUTO 21004KT 10SM SCT046 OVC060 17/16 A2996 1040 93 1600 210/04 RMK AO2 RAE07 P0000 TSNO
94908KDBQ DBQ20070531011512605/31/07 01:15:31  5-MIN KDBQ 310715Z AUTO 21005KT 10SM FEW048 OVC065 17/16 A2996 1040 93 1600 210/05 RMK AO2 RAE07 P0000 TSNO
94908KDBQ DBQ20070531012012605/31/07 01:20:31  5-MIN KDBQ 310720Z AUTO 21006KT 10SM FEW050 OVC065 17/16 A2997 1040 93 1600 210/06 RMK AO2 RAE07 P0000 TSNO
94908KDBQ DBQ20070531012511905/31/07 01:25:31  5-MIN KDBQ 310725Z AUTO 21006KT 10SM OVC065 17/16 A2997 1030 93 1600 210/06 RMK AO2 RAE07 P0000 TSNO
94908KDBQ DBQ20070531013011905/31/07 01:30:31  5-MIN KDBQ 310730Z AUTO 21005KT 10SM OVC070 17/16 A2997 1030 93 1600 210/05 RMK AO2 RAE07 P0000 TSNO
94908KDBQ DBQ20070531013512605/31/07 01:35:31  5-MIN KDBQ 310735Z AUTO 21005KT 10SM FEW039 OVC070 17/16 A2997 1040 93 1600 210/05 RMK AO2 RAE07 P0000 TSNO
94908KDBQ DBQ20070531014012605/31/07 01:40:31  5-MIN KDBQ 310740Z AUTO 21005KT 10SM FEW039 OVC070 17/16 A2997 1040 93 1600 210/05 RMK AO2 RAE07 P0000 TSNO
94908KDBQ DBQ20070531014512605/31/07 01:45:31  5-MIN KDBQ 310745Z AUTO 20005KT 10SM FEW039 OVC075 17/16 A2996 1040 93 1600 200/05 RMK AO2 RAE07 P0000 TSNO
94908KDBQ DBQ20070531015015005/31/07 01:50:31  5-MIN KDBQ 310750Z AUTO 20005KT 10SM FEW039 BKN075 OVC110 17/16 A2996 1040 93 1600 200/05 RMK AO2 RAE07 SLP142 P0000 T01720161 TSNO
94908KDBQ DBQ20070531015515005/31/07 01:55:31  5-MIN KDBQ 310755Z AUTO 20006KT 10SM FEW039 BKN075 OVC095 17/16 A2997 1040 93 1600 200/06 RMK AO2 RAE07 SLP142 P0000 T01720161 TSNO
94908KDBQ DBQ20070531020012105/31/07 02:00:31  5-MIN KDBQ 310800Z AUTO 21006KT 10SM FEW039 BKN080 OVC090 17/16 A2997 1040 93 1600 210/06 RMK AO2 TSNO
94908KDBQ DBQ20070531020512105/31/07 02:05:31  5-MIN KDBQ 310805Z AUTO 21006KT 10SM FEW039 BKN080 OVC090 17/16 A2997 1030 93 1600 210/06 RMK AO2 TSNO
94908KDBQ DBQ20070531021013605/31/07 02:10:31  5-MIN KDBQ 310810Z AUTO 20005KT 8SM -RA SCT041 BKN080 OVC090 17/16 A2997 1040 93 1600 200/05 RMK AO2 RAB06 P0001 TSNO
94908KDBQ DBQ20070531021513605/31/07 02:15:31  5-MIN KDBQ 310815Z AUTO 20006KT 8SM -RA BKN036 BKN090 OVC110 17/16 A2996 1040 93 1600 200/06 RMK AO2 RAB06 P0002 TSNO
94908KDBQ DBQ20070531022013705/31/07 02:20:31  5-MIN KDBQ 310820Z AUTO 19007KT 10SM -RA BKN043 BKN085 OVC110 17/16 A2997 1040 93 1600 190/07 RMK AO2 RAB06 P0002 TSNO
94908KDBQ DBQ20070531022513705/31/07 02:25:31  5-MIN KDBQ 310825Z AUTO 19008KT 10SM -RA BKN043 BKN085 OVC110 17/16 A2997 1030 93 1600 190/08 RMK AO2 RAB06 P0002 TSNO
94908KDBQ DBQ20070531023013705/31/07 02:30:31  5-MIN KDBQ 310830Z AUTO 20007KT 10SM -RA BKN041 BKN090 OVC110 17/16 A2997 1040 93 1600 200/07 RMK AO2 RAB06 P0002 TSNO
94908KDBQ DBQ20070531023513705/31/07 02:35:31  5-MIN KDBQ 310835Z AUTO 19007KT 10SM -RA BKN041 BKN090 OVC110 17/16 A2997 1040 93 1600 190/07 RMK AO2 RAB06 P0003 TSNO
94908KDBQ DBQ20070531024012905/31/07 02:40:31  5-MIN KDBQ 310840Z AUTO 20009KT 9SM -RA SCT041 OVC100 17/16 A2997 1030 93 1600 190/09 RMK AO2 RAB06 P0003 TSNO
94908KDBQ DBQ20070531024513705/31/07 02:45:31  5-MIN KDBQ 310845Z AUTO 19008KT 10SM -RA FEW005 SCT046 OVC100 17/16 A2997 1030 93 1600 190/08 RMK AO2 RAB06 P0003 TSNO
94908KDBQ DBQ20070531025013705/31/07 02:50:31  5-MIN KDBQ 310850Z AUTO 19008KT 10SM -RA FEW006 BKN090 OVC110 17/16 A2998 1030 93 1600 190/08 RMK AO2 RAB06 P0003 TSNO
94908KDBQ DBQ20070531025516505/31/07 02:55:31  5-MIN KDBQ 310855Z AUTO 19009KT 10SM SCT006 BKN014 OVC090 17/16 A2997 1030 93 1600 190/09 RMK AO2 RAB06E53 SLP144 P0003 60034 T01720161 53001 TSNO
94908KDBQ DBQ20070531030013905/31/07 03:00:31  5-MIN KDBQ 310900Z AUTO 19010KT 10SM -RA SCT006 BKN014 OVC090 17/16 A2997 1030 93 1600 190/10 RMK AO2 RAB0856 P0001 TSNO
94908KDBQ DBQ20070531030513905/31/07 03:05:31  5-MIN KDBQ 310905Z AUTO 19011KT 10SM -RA SCT006 BKN014 OVC090 17/16 A2997 1030 93 1600 190/11 RMK AO2 RAB0856 P0001 TSNO
94908KDBQ DBQ20070531031013905/31/07 03:10:31  5-MIN KDBQ 310910Z AUTO 19010KT 10SM -RA SCT006 BKN014 OVC047 17/16 A2997 1030 93 1600 190/10 RMK AO2 RAB0856 P0001 TSNO
94908KDBQ DBQ20070531031515105/31/07 03:15:31  5-MIN KDBQ 310915Z AUTO 19009KT 10SM -RA BKN006 BKN014 OVC045 17/16 A2997 1030 93 1600 190/09 RMK AO2 RAB0856 CIG 004V009 P0001 TSNO
94908KDBQ DBQ20070531032015105/31/07 03:20:31  5-MIN KDBQ 310920Z AUTO 19009KT 10SM -RA BKN006 BKN014 OVC047 17/16 A2997 1040 93 1600 190/09 RMK AO2 RAB0856 CIG 004V010 P0001 TSNO
94908KDBQ DBQ20070531032514305/31/07 03:25:31  5-MIN KDBQ 310925Z AUTO 19010KT 10SM BKN006 OVC045 17/16 A2997 1040 93 1600 190/10 RMK AO2 RAB0856E24 CIG 004V012 P0001 TSNO
94908KDBQ DBQ20070531033014305/31/07 03:30:31  5-MIN KDBQ 310930Z AUTO 20010KT 10SM BKN006 OVC045 17/16 A2996 1040 93 1600 200/10 RMK AO2 RAB0856E24 CIG 004V012 P0001 TSNO
94908KDBQ DBQ20070531033513905/31/07 03:35:31  5-MIN KDBQ 310935Z AUTO 20012KT 10SM -RA SCT006 SCT012 OVC043 17/16 A2997 1040 93 1600 200/12 RMK AO2 RAB0856 P0001 TSNO
94908KDBQ DBQ20070531034013905/31/07 03:40:31  5-MIN KDBQ 310940Z AUTO 20011KT 10SM -RA SCT006 BKN012 OVC043 17/16 A2997 1040 93 1600 200/11 RMK AO2 RAB0856 P0001 TSNO
94908KDBQ DBQ20070531034513905/31/07 03:45:31  5-MIN KDBQ 310945Z AUTO 20010KT 10SM -RA FEW006 BKN012 OVC045 17/16 A2996 1040 93 1600 200/10 RMK AO2 RAB0856 P0001 TSNO
94908KDBQ DBQ20070531035013205/31/07 03:50:31  5-MIN KDBQ 310950Z AUTO 19011KT 10SM -RA FEW006 OVC047 17/16 A2996 1040 93 1600 190/11 RMK AO2 RAB0856 P0001 TSNO
94908KDBQ DBQ20070531035514805/31/07 03:55:31  5-MIN KDBQ 310955Z AUTO 20010KT 8SM -RA FEW012 OVC047 17/16 A2996 1040 93 1600 200/10 RMK AO2 RAB0856 SLP140 P0002 T01720161 TSNO
94908KDBQ DBQ20070531040012305/31/07 04:00:31  5-MIN KDBQ 311000Z AUTO 19008KT 9SM -RA FEW012 OVC049 17/16 A2996 1040 93 1600 190/08 RMK AO2 P0000 TSNO
94908KDBQ DBQ20070531040512405/31/07 04:05:31  5-MIN KDBQ 311005Z AUTO 19011KT 10SM -RA FEW012 OVC055 17/16 A2996 1040 93 1600 190/11 RMK AO2 P0000 TSNO
94908KDBQ DBQ20070531041011905/31/07 04:10:31  5-MIN KDBQ 311010Z AUTO 19011KT 10SM OVC055 17/16 A2996 1040 93 1600 190/11 RMK AO2 RAE06 P0000 TSNO
94908KDBQ DBQ20070531041511905/31/07 04:15:31  5-MIN KDBQ 311015Z AUTO 21010KT 10SM OVC060 17/16 A2996 1040 93 1600 200/10 RMK AO2 RAE06 P0000 TSNO
94908KDBQ DBQ20070531042011705/31/07 04:20:31  5-MIN KDBQ 311020Z AUTO 21010KT 10SM -RA OVC060 17/16 A2996 1040 93 1600 210/10 RMK AO2 P0000 TSNO
94908KDBQ DBQ20070531042511605/31/07 04:25:31  5-MIN KDBQ 311025Z AUTO 20010KT 9SM -RA OVC060 17/16 A2997 1040 93 1600 200/10 RMK AO2 P0000 TSNO
94908KDBQ DBQ20070531043012405/31/07 04:30:31  5-MIN KDBQ 311030Z AUTO 21009KT 10SM -RA FEW006 OVC060 17/16 A2997 1030 93 1600 210/09 RMK AO2 P0001 TSNO
94908KDBQ DBQ20070531043512405/31/07 04:35:31  5-MIN KDBQ 311035Z AUTO 22008KT 10SM -RA FEW006 OVC065 17/16 A2997 1030 96 1500 220/08 RMK AO2 P0001 TSNO
94908KDBQ DBQ20070531044012405/31/07 04:40:31  5-MIN KDBQ 311040Z AUTO 22008KT 10SM -RA FEW006 OVC065 17/16 A2997 1030 96 1500 220/08 RMK AO2 P0001 TSNO
94908KDBQ DBQ20070531044512005/31/07 04:45:31  5-MIN KDBQ 311045Z 21008KT 9SM -RA FEW006 BKN065 OVC080 17/16 A2998 1030 96 1500 210/08 RMK AO2 P0001
94908KDBQ DBQ20070531045013705/31/07 04:50:31  5-MIN KDBQ 311050Z 22007KT 9SM -RA FEW006 BKN065 OVC080 17/16 A2997 1030 96 1500 220/07 RMK AO2 SLP143 P0001 T01670161
94908KDBQ DBQ20070531045513705/31/07 04:55:31  5-MIN KDBQ 311055Z 22007KT 9SM -RA FEW006 SCT060 OVC080 17/16 A2997 1030 93 1500 220/07 RMK AO2 SLP142 P0002 T01670156
94908KDBQ DBQ20070531050012105/31/07 05:00:31  5-MIN KDBQ 311100Z 21008KT 10SM -RA FEW006 BKN085 OVC100 17/16 A2997 1030 93 1500 210/08 RMK AO2 P0000
94908KDBQ DBQ20070531050512105/31/07 05:05:31  5-MIN KDBQ 311105Z 21006KT 10SM -RA FEW006 BKN085 OVC100 17/16 A2997 1030 93 1500 210/06 RMK AO2 P0000
94908KDBQ DBQ20070531051010905/31/07 05:10:31  5-MIN KDBQ 311110Z 21006KT 10SM OVC090 17/16 A2997 1030 93 1500 210/06 RMK AO2 RAE06 P0000
94908KDBQ DBQ20070531051510905/31/07 05:15:31  5-MIN KDBQ 311115Z 22006KT 10SM OVC095 17/16 A2997 1030 93 1500 220/06 RMK AO2 RAE06 P0000
94908KDBQ DBQ20070531052011405/31/07 05:20:31  5-MIN KDBQ 311120Z 20004KT 10SM -RA FEW065 OVC100 17/16 A2997 1030 93 1500 200/04 RMK AO2 P0000
94908KDBQ DBQ20070531052512105/31/07 05:25:31  5-MIN KDBQ 311125Z 20005KT 10SM -RA FEW049 SCT070 OVC095 17/16 A2997 1030 93 1500 200/05 RMK AO2 P0000
94908KDBQ DBQ20070531053011305/31/07 05:30:31  5-MIN KDBQ 311130Z 21005KT 9SM -RA FEW042 OVC095 17/16 A2998 1030 96 1500 200/05 RMK AO2 P0001
94908KDBQ DBQ20070531053511305/31/07 05:35:31  5-MIN KDBQ 311135Z 20003KT 9SM -RA FEW035 OVC095 17/16 A2997 1030 96 1500 200/03 RMK AO2 P0001
94908KDBQ DBQ20070531054011305/31/07 05:40:31  5-MIN KDBQ 311140Z 00000KT 9SM -RA SCT033 OVC095 17/16 A2997 1030 96 1500 000/00 RMK AO2 P0002
94908KDBQ DBQ20070531054511305/31/07 05:45:31  5-MIN KDBQ 311145Z 00000KT 9SM -RA SCT033 OVC100 17/16 A2996 1040 93 1500 000/00 RMK AO2 P0002
94908KDBQ DBQ20070531055016805/31/07 05:50:31  5-MIN KDBQ 311150Z 06006KT 10SM -RA SCT028 OVC100 17/16 A2995 1050 90 1600 060/06 RMK AO2 PRESFR SLP135 P0002 60040 70047 T01720156 10178 20167 53001
94908KDBQ DBQ20070531055516305/31/07 05:55:31  5-MIN KDBQ 311155Z 06006KT 10SM FEW034 BKN100 17/16 A2994 1060 90 1600 060/06 RMK AO2 RAE55 SLP134 P0002 60040 70047 T01720156 10178 20167 58005
94908KDBQ DBQ20070531060010405/31/07 06:00:31  5-MIN KDBQ 311200Z 05003KT 10SM SCT040 BKN100 17/16 A2995 1050 93 1600 050/03 RMK AO2
94908KDBQ DBQ20070531060510405/31/07 06:05:31  5-MIN KDBQ 311205Z 00000KT 10SM FEW042 BKN100 17/16 A2995 1050 93 1600 000/00 RMK AO2
94908KDBQ DBQ20070531061010405/31/07 06:10:31  5-MIN KDBQ 311210Z 00000KT 10SM FEW055 BKN100 17/16 A2996 1040 90 1600 000/00 RMK AO2
94908KDBQ DBQ20070531061509705/31/07 06:15:31  5-MIN KDBQ 311215Z 00000KT 10SM BKN100 17/16 A2997 1040 93 1600 000/00 RMK AO2
94908KDBQ DBQ20070531062011105/31/07 06:20:31  5-MIN KDBQ 311220Z 23004KT 10SM FEW005 BKN100 17/16 A2997 1030 93 1600 230/04 RMK AO2 PRESRR
94908KDBQ DBQ20070531062511105/31/07 06:25:31  5-MIN KDBQ 311225Z 23005KT 10SM FEW005 BKN100 17/16 A2998 1020 93 1600 230/05 RMK AO2 PRESRR
94908KDBQ DBQ20070531063010405/31/07 06:30:31  5-MIN KDBQ 311230Z 23006KT 10SM SCT005 BKN100 17/16 A2998 1020 93 1600 230/06 RMK AO2
94908KDBQ DBQ20070531063510405/31/07 06:35:31  5-MIN KDBQ 311235Z 22008KT 10SM SCT007 OVC100 17/16 A2999 1020 93 1600 220/08 RMK AO2
94908KDBQ DBQ20070531064010405/31/07 06:40:31  5-MIN KDBQ 311240Z 21007KT 10SM SCT007 BKN100 17/16 A2999 1020 93 1600 210/07 RMK AO2
94908KDBQ DBQ20070531064511105/31/07 06:45:31  5-MIN KDBQ 311245Z 22008KT 10SM SCT005 SCT009 BKN110 17/16 A2999 1010 93 1600 220/08 RMK AO2
94908KDBQ DBQ20070531065011105/31/07 06:50:31  5-MIN KDBQ 311250Z 23008KT 10SM BKN007 BKN012 BKN110 17/16 A2999 1010 93 1600 230/08 RMK AO2
94908KDBQ DBQ20070531065512805/31/07 06:55:31  5-MIN KDBQ 311255Z 23011KT 10SM BKN007 BKN012 BKN110 17/16 A3000 1010 93 1500 230/11 RMK AO2 SLP153 T01720161
94908KDBQ DBQ20070531070011705/31/07 07:00:31  5-MIN KDBQ 311300Z 24010G17KT 10SM FEW007 BKN010 BKN014 17/16 A3000 1010 90 1500 230/10G17 RMK AO2
94908KDBQ DBQ20070531070511105/31/07 07:05:31  5-MIN KDBQ 311305Z 24010KT 10SM BKN007 BKN012 BKN110 17/16 A3000 1010 93 1500 240/10 RMK AO2
94908KDBQ DBQ20070531071011105/31/07 07:10:31  5-MIN KDBQ 311310Z 24012KT 10SM BKN007 BKN012 BKN110 18/16 A3001 1000 90 1600 240/12 RMK AO2
94908KDBQ DBQ20070531071511105/31/07 07:15:31  5-MIN KDBQ 311315Z 25009KT 10SM BKN007 BKN012 BKN110 18/16 A3001 1000 87 1600 240/09 RMK AO2
94908KDBQ DBQ20070531072011105/31/07 07:20:31  5-MIN KDBQ 311320Z 25010KT 10SM BKN007 BKN012 BKN110 18/16 A3001 1000 87 1600 250/10 RMK AO2
94908KDBQ DBQ20070531072511105/31/07 07:25:31  5-MIN KDBQ 311325Z 24007KT 10SM BKN007 BKN012 BKN110 18/16 A3000 1000 87 1600 240/07 RMK AO2
94908KDBQ DBQ20070531073009705/31/07 07:30:31  5-MIN KDBQ 311330Z 23005KT 10SM FEW010 18/16 A3000 1000 90 1600 230/05 RMK AO2
94908KDBQ DBQ20070531073509705/31/07 07:35:31  5-MIN KDBQ 311335Z 25004KT 10SM FEW010 18/16 A3000 1010 87 1600 250/04 RMK AO2
94908KDBQ DBQ20070531074009405/31/07 07:40:31  5-MIN KDBQ 311340Z 21005KT 10SM CLR 18/16 A2999 1010 87 1700 210/05 RMK AO2
94908KDBQ DBQ20070531074509405/31/07 07:45:31  5-MIN KDBQ 311345Z 22004KT 10SM CLR 18/16 A3000 1010 87 1600 220/04 RMK AO2
94908KDBQ DBQ20070531075011105/31/07 07:50:31  5-MIN KDBQ 311350Z 21004KT 10SM CLR 18/16 A2999 1010 84 1700 210/04 RMK AO2 SLP152 T01830156
94908KDBQ DBQ20070531075511105/31/07 07:55:31  5-MIN KDBQ 311355Z 21004KT 10SM CLR 18/16 A3000 1010 84 1700 210/04 RMK AO2 SLP154 T01830156
94908KDBQ DBQ20070531080009405/31/07 08:00:31  5-MIN KDBQ 311400Z 21006KT 10SM CLR 18/16 A3000 1000 84 1700 210/06 RMK AO2
94908KDBQ DBQ20070531080509405/31/07 08:05:31  5-MIN KDBQ 311405Z 17005KT 10SM CLR 18/16 A3000 1010 84 1700 170/05 RMK AO2
94908KDBQ DBQ20070531081009405/31/07 08:10:31  5-MIN KDBQ 311410Z 16005KT 10SM CLR 18/16 A3000 1010 84 1700 160/05 RMK AO2
94908KDBQ DBQ20070531081509405/31/07 08:15:31  5-MIN KDBQ 311415Z 19005KT 10SM CLR 18/16 A3000 1000 84 1700 190/05 RMK AO2
94908KDBQ DBQ20070531082009405/31/07 08:20:31  5-MIN KDBQ 311420Z 21007KT 10SM CLR 19/16 A3001 1000 81 1700 210/07 RMK AO2
94908KDBQ DBQ20070531082509605/31/07 08:25:31  5-MIN KDBQ 311425Z 22008KT 10SM FEW009 18/16 A3001 990 84 1700 220/08 RMK AO2
94908KDBQ DBQ20070531083009605/31/07 08:30:31  5-MIN KDBQ 311430Z 23010KT 10SM SCT009 18/16 A3002 990 84 1600 230/10 RMK AO2
94908KDBQ DBQ20070531083510305/31/07 08:35:31  5-MIN KDBQ 311435Z 23005KT 10SM SCT011 SCT020 18/16 A3001 990 84 1700 230/05 RMK AO2
94908KDBQ DBQ20070531084010405/31/07 08:40:31  5-MIN KDBQ 311440Z 23005KT 10SM FEW011 SCT016 18/16 A3001 1000 84 1700 230/05 RMK AO2
94908KDBQ DBQ20070531084510305/31/07 08:45:31  5-MIN KDBQ 311445Z 23006KT 10SM FEW011 SCT019 18/16 A3002 990 84 1600 230/06 RMK AO2
94908KDBQ DBQ20070531085011905/31/07 08:50:31  5-MIN KDBQ 311450Z 21007KT 10SM SCT011 18/16 A3002 990 84 1600 210/07 RMK AO2 SLP160 T01830156 58005
94908KDBQ DBQ20070531085511905/31/07 08:55:31  5-MIN KDBQ 311455Z 21007KT 10SM BKN011 19/16 A3002 990 81 1700 210/07 RMK AO2 SLP160 T01890156 53008
94908KDBQ DBQ20070531090009605/31/07 09:00:31  5-MIN KDBQ 311500Z 21004KT 10SM SCT013 19/16 A3002 990 81 1700 210/04 RMK AO2
94908KDBQ DBQ20070531090510305/31/07 09:05:31  5-MIN KDBQ 311505Z 22007KT 10SM SCT013 SCT110 19/16 A3002 990 81 1700 220/07 RMK AO2
94908KDBQ DBQ20070531091010305/31/07 09:10:31  5-MIN KDBQ 311510Z 20004KT 10SM FEW013 BKN110 19/16 A3002 990 81 1700 200/04 RMK AO2
94908KDBQ DBQ20070531091510305/31/07 09:15:31  5-MIN KDBQ 311515Z 20005KT 10SM FEW013 BKN100 19/16 A3002 980 81 1700 200/05 RMK AO2
94908KDBQ DBQ20070531092010305/31/07 09:20:31  5-MIN KDBQ 311520Z 23006KT 10SM FEW013 BKN100 19/16 A3002 980 81 1700 230/06 RMK AO2
94908KDBQ DBQ20070531092510305/31/07 09:25:31  5-MIN KDBQ 311525Z 23005KT 10SM FEW013 BKN100 19/16 A3003 980 81 1700 230/05 RMK AO2
94908KDBQ DBQ20070531093010305/31/07 09:30:31  5-MIN KDBQ 311530Z 23006KT 10SM SCT015 BKN100 19/16 A3003 980 81 1700 220/06 RMK AO2
94908KDBQ DBQ20070531093510305/31/07 09:35:31  5-MIN KDBQ 311535Z 22005KT 10SM BKN015 OVC100 19/16 A3002 980 81 1700 220/05 RMK AO2
94908KDBQ DBQ20070531094011005/31/07 09:40:31  5-MIN KDBQ 311540Z 20004KT 10SM BKN015 BKN019 OVC100 19/16 A3003 980 81 1700 200/04 RMK AO2
94908KDBQ DBQ20070531094511005/31/07 09:45:31  5-MIN KDBQ 311545Z 21005KT 10SM SCT015 BKN019 BKN100 19/16 A3003 980 78 1800 210/05 RMK AO2
94908KDBQ DBQ20070531095012005/31/07 09:50:31  5-MIN KDBQ 311550Z 21006KT 10SM BKN015 BKN100 19/16 A3003 980 81 1800 210/06 RMK AO2 SLP165 T01940161
94908KDBQ DBQ20070531095512005/31/07 09:55:31  5-MIN KDBQ 311555Z 22005KT 10SM BKN015 OVC020 19/16 A3003 970 81 1800 220/05 RMK AO2 SLP166 T01940161
94908KDBQ DBQ20070531100010305/31/07 10:00:31  5-MIN KDBQ 311600Z 20005KT 10SM BKN015 BKN020 19/16 A3003 970 81 1800 200/05 RMK AO2
94908KDBQ DBQ20070531100510305/31/07 10:05:31  5-MIN KDBQ 311605Z 22004KT 10SM BKN015 BKN024 19/16 A3003 980 81 1800 220/04 RMK AO2
94908KDBQ DBQ20070531101011005/31/07 10:10:31  5-MIN KDBQ 311610Z 25004KT 10SM BKN013 BKN020 BKN024 20/17 A3003 980 81 1800 250/04 RMK AO2
94908KDBQ DBQ20070531101510305/31/07 10:15:31  5-MIN KDBQ 311615Z 19004KT 10SM BKN013 BKN022 20/17 A3003 980 81 1800 190/04 RMK AO2
94908KDBQ DBQ20070531102010305/31/07 10:20:31  5-MIN KDBQ 311620Z 19005KT 10SM BKN015 BKN022 20/17 A3003 980 81 1800 190/05 RMK AO2
94908KDBQ DBQ20070531102510305/31/07 10:25:31  5-MIN KDBQ 311625Z VRB06KT 10SM BKN013 BKN022 21/17 A3003 980 78 1900 VRB/06 RMK AO2
94908KDBQ DBQ20070531103011005/31/07 10:30:31  5-MIN KDBQ 311630Z 23007KT 10SM SCT015 BKN022 BKN070 21/17 A3003 980 75 2000 220/07 RMK AO2
94908KDBQ DBQ20070531103511005/31/07 10:35:31  5-MIN KDBQ 311635Z VRB03KT 10SM SCT015 BKN022 BKN070 21/17 A3003 980 75 2000 VRB/03 RMK AO2
94908KDBQ DBQ20070531104010305/31/07 10:40:31  5-MIN KDBQ 311640Z 22006KT 10SM SCT015 BKN022 22/17 A3003 980 75 2000 220/06 RMK AO2
94908KDBQ DBQ20070531104510305/31/07 10:45:31  5-MIN KDBQ 311645Z VRB05KT 10SM BKN017 BKN021 21/17 A3003 980 75 2000 VRB/05 RMK AO2
94908KDBQ DBQ20070531105012705/31/07 10:50:31  5-MIN KDBQ 311650Z 28007KT 10SM SCT017 BKN023 BKN070 22/17 A3003 980 70 2100 280/07 RMK AO2 SLP162 T02220167
94908KDBQ DBQ20070531105512705/31/07 10:55:31  5-MIN KDBQ 311655Z 25008KT 10SM SCT017 BKN023 BKN070 21/16 A3003 980 73 2000 250/08 RMK AO2 SLP163 T02110161
94908KDBQ DBQ20070531110011005/31/07 11:00:31  5-MIN KDBQ 311700Z 26008KT 10SM SCT019 SCT025 BKN070 22/16 A3003 980 68 2100 260/08 RMK AO2
94908KDBQ DBQ20070531110511005/31/07 11:05:31  5-MIN KDBQ 311705Z 24005KT 10SM FEW017 SCT022 BKN070 22/16 A3003 980 70 2000 240/05 RMK AO2
94908KDBQ DBQ20070531111011005/31/07 11:10:31  5-MIN KDBQ 311710Z 26006KT 10SM FEW019 BKN023 BKN070 22/16 A3003 980 70 2000 260/06 RMK AO2
94908KDBQ DBQ20070531111511005/31/07 11:15:31  5-MIN KDBQ 311715Z 24006KT 10SM SCT021 BKN037 BKN050 22/16 A3003 980 70 2000 240/06 RMK AO2
94908KDBQ DBQ20070531112010305/31/07 11:20:31  5-MIN KDBQ 311720Z 22005KT 10SM FEW021 SCT070 22/16 A3002 980 70 2000 210/05 RMK AO2
94908KDBQ DBQ20070531112509605/31/07 11:25:31  5-MIN KDBQ 311725Z VRB04KT 10SM FEW021 22/16 A3002 990 68 2100 VRB/04 RMK AO2
94908KDBQ DBQ20070531113010305/31/07 11:30:31  5-MIN KDBQ 311730Z 25007KT 10SM SCT021 SCT036 22/16 A3002 990 68 2100 240/07 RMK AO2
94908KDBQ DBQ20070531113511905/31/07 11:35:31  5-MIN KDBQ 311735Z 25007KT 200V280 10SM SCT021 BKN034 22/16 A3002 990 68 2000 250/07 200V280 RMK AO2
94908KDBQ DBQ20070531114011905/31/07 11:40:31  5-MIN KDBQ 311740Z 27007KT 250V310 10SM FEW023 BKN034 22/16 A3002 990 68 2000 270/07 250V310 RMK AO2
94908KDBQ DBQ20070531114511005/31/07 11:45:31  5-MIN KDBQ 311745Z 24007KT 10SM FEW023 SCT034 BKN050 22/16 A3002 990 65 2100 240/07 RMK AO2
94908KDBQ DBQ20070531115014505/31/07 11:50:31  5-MIN KDBQ 311750Z 25009KT 10SM FEW023 BKN037 BKN050 22/16 A3002 990 68 2100 250/09 RMK AO2 SLP161 T02220161 10222 20172 53008
94908KDBQ DBQ20070531115514505/31/07 11:55:31  5-MIN KDBQ 311755Z 26006KT 10SM FEW023 BKN037 BKN050 23/16 A3002 990 65 2200 260/06 RMK AO2 SLP160 T02280161 10228 20172 50001
94908KDBQ DBQ20070531120010305/31/07 12:00:31  5-MIN KDBQ 311800Z 24004KT 10SM FEW035 SCT050 23/16 A3002 990 65 2200 240/04 RMK AO2
94908KDBQ DBQ20070531120510305/31/07 12:05:31  5-MIN KDBQ 311805Z VRB05KT 10SM FEW037 SCT050 23/16 A3002 990 63 2200 VRB/05 RMK AO2
94908KDBQ DBQ20070531121010305/31/07 12:10:31  5-MIN KDBQ 311810Z VRB04KT 10SM FEW029 SCT050 23/16 A3002 990 65 2200 VRB/04 RMK AO2
94908KDBQ DBQ20070531121511005/31/07 12:15:31  5-MIN KDBQ 311815Z 23007KT 10SM FEW029 SCT041 BKN050 23/16 A3001 990 63 2200 230/07 RMK AO2
94908KDBQ DBQ20070531122011105/31/07 12:20:31  5-MIN KDBQ 311820Z 18006KT 10SM FEW034 SCT040 SCT047 24/16 A3001 1000 59 2300 180/06 RMK AO2
94908KDBQ DBQ20070531122510405/31/07 12:25:31  5-MIN KDBQ 311825Z 18005KT 10SM SCT035 SCT041 23/15 A3001 1000 59 2200 180/05 RMK AO2
94908KDBQ DBQ20070531123011105/31/07 12:30:31  5-MIN KDBQ 311830Z 24007KT 10SM BKN033 BKN040 BKN046 23/15 A3001 1000 61 2200 240/07 RMK AO2
94908KDBQ DBQ20070531123510405/31/07 12:35:31  5-MIN KDBQ 311835Z 25003KT 10SM BKN033 BKN046 23/15 A3001 1000 61 2200 240/03 RMK AO2
94908KDBQ DBQ20070531124010405/31/07 12:40:31  5-MIN KDBQ 311840Z 21007KT 10SM BKN033 BKN044 23/16 A3000 1000 61 2200 210/07 RMK AO2
94908KDBQ DBQ20070531124510405/31/07 12:45:31  5-MIN KDBQ 311845Z 19005KT 10SM SCT033 SCT044 23/15 A3000 1000 61 2200 190/05 RMK AO2
94908KDBQ DBQ20070531125011405/31/07 12:50:31  5-MIN KDBQ 311850Z 19004KT 10SM SCT033 23/16 A3000 1000 61 2200 190/04 RMK AO2 SLP154 T02330156
94908KDBQ DBQ20070531125511405/31/07 12:55:31  5-MIN KDBQ 311855Z 20007KT 10SM SCT033 24/16 A3000 1000 61 2300 200/07 RMK AO2 SLP154 T02390161
94908KDBQ DBQ20070531130009705/31/07 13:00:31  5-MIN KDBQ 311900Z 17004KT 10SM FEW033 24/16 A3000 1000 59 2300 170/04 RMK AO2
94908KDBQ DBQ20070531130509705/31/07 13:05:31  5-MIN KDBQ 311905Z 23007KT 10SM FEW033 23/16 A3000 1010 63 2200 220/07 RMK AO2
94908KDBQ DBQ20070531131009705/31/07 13:10:31  5-MIN KDBQ 311910Z 22007KT 10SM FEW060 24/16 A3000 1010 59 2300 220/07 RMK AO2
94908KDBQ DBQ20070531131509705/31/07 13:15:31  5-MIN KDBQ 311915Z 23005KT 10SM FEW035 23/15 A3000 1010 59 2200 230/05 RMK AO2
94908KDBQ DBQ20070531132009705/31/07 13:20:31  5-MIN KDBQ 311920Z 27008KT 10SM FEW033 23/16 A2999 1010 63 2200 270/08 RMK AO2
94908KDBQ DBQ20070531132510405/31/07 13:25:31  5-MIN KDBQ 311925Z 26007KT 10SM SCT033 SCT080 23/17 A2999 1010 66 2200 260/07 RMK AO2
94908KDBQ DBQ20070531133010405/31/07 13:30:31  5-MIN KDBQ 311930Z 00000KT 10SM SCT033 SCT080 24/16 A2999 1010 61 2300 000/00 RMK AO2
94908KDBQ DBQ20070531133509705/31/07 13:35:31  5-MIN KDBQ 311935Z 27003KT 10SM SCT033 24/17 A2999 1010 63 2300 270/03 RMK AO2
94908KDBQ DBQ20070531134009705/31/07 13:40:31  5-MIN KDBQ 311940Z VRB04KT 10SM SCT033 23/16 A2999 1020 63 2300 VRB/04 RMK AO2
94908KDBQ DBQ20070531134510405/31/07 13:45:31  5-MIN KDBQ 311945Z VRB03KT 10SM SCT033 SCT039 23/16 A2999 1020 63 2300 VRB/03 RMK AO2
94908KDBQ DBQ20070531135012105/31/07 13:50:31  5-MIN KDBQ 311950Z VRB03KT 10SM SCT031 BKN037 23/16 A2999 1020 63 2300 VRB/03 RMK AO2 SLP150 T02330161
94908KDBQ DBQ20070531135512105/31/07 13:55:31  5-MIN KDBQ 311955Z 20006KT 10SM SCT031 BKN037 23/16 A2999 1020 63 2300 200/06 RMK AO2 SLP150 T02330161
94908KDBQ DBQ20070531140011105/31/07 14:00:31  5-MIN KDBQ 312000Z 20003KT 10SM FEW031 SCT037 SCT055 23/15 A2999 1020 59 2300 200/03 RMK AO2
94908KDBQ DBQ20070531140511105/31/07 14:05:31  5-MIN KDBQ 312005Z 22006KT 10SM FEW030 SCT035 BKN055 23/16 A2999 1020 61 2300 220/06 RMK AO2
94908KDBQ DBQ20070531141011105/31/07 14:10:31  5-MIN KDBQ 312010Z 20006KT 10SM FEW030 SCT035 BKN050 23/16 A2999 1020 61 2300 200/06 RMK AO2
94908KDBQ DBQ20070531141511105/31/07 14:15:31  5-MIN KDBQ 312015Z 20006KT 10SM FEW030 SCT035 BKN046 23/16 A2999 1020 63 2300 200/06 RMK AO2
94908KDBQ DBQ20070531142011105/31/07 14:20:31  5-MIN KDBQ 312020Z 18006KT 10SM SCT033 BKN046 BKN055 23/16 A2999 1020 63 2300 180/06 RMK AO2
94908KDBQ DBQ20070531142511105/31/07 14:25:31  5-MIN KDBQ 312025Z 19006KT 10SM SCT033 BKN042 BKN050 23/16 A2999 1020 63 2300 190/06 RMK AO2
94908KDBQ DBQ20070531143011105/31/07 14:30:31  5-MIN KDBQ 312030Z 20008KT 10SM SCT033 BKN042 OVC050 23/16 A2998 1020 63 2300 200/08 RMK AO2
94908KDBQ DBQ20070531143511105/31/07 14:35:31  5-MIN KDBQ 312035Z 19006KT 10SM SCT033 BKN042 BKN050 24/17 A2998 1020 63 2300 180/06 RMK AO2
94908KDBQ DBQ20070531144011105/31/07 14:40:31  5-MIN KDBQ 312040Z 21007KT 10SM SCT033 BKN042 BKN049 24/16 A2998 1020 61 2300 210/07 RMK AO2
94908KDBQ DBQ20070531144511105/31/07 14:45:31  5-MIN KDBQ 312045Z 20006KT 10SM FEW033 SCT042 BKN049 23/16 A2998 1020 63 2300 190/06 RMK AO2
94908KDBQ DBQ20070531145012005/31/07 14:50:31  5-MIN KDBQ 312050Z 21005KT 10SM FEW033 23/16 A2998 1020 65 2200 200/05 RMK AO2 SLP149 T02280161 50001
94908KDBQ DBQ20070531145512005/31/07 14:55:31  5-MIN KDBQ 312055Z 21005KT 10SM FEW035 23/16 A2998 1020 63 2300 210/05 RMK AO2 SLP147 T02330161 56013
94908KDBQ DBQ20070531150009705/31/07 15:00:31  5-MIN KDBQ 312100Z 20005KT 10SM FEW042 24/17 A2998 1030 63 2300 200/05 RMK AO2
94908KDBQ DBQ20070531150509705/31/07 15:05:31  5-MIN KDBQ 312105Z VRB03KT 10SM FEW042 24/17 A2998 1020 61 2400 VRB/03 RMK AO2
94908KDBQ DBQ20070531151009705/31/07 15:10:31  5-MIN KDBQ 312110Z 21003KT 10SM FEW085 24/16 A2998 1030 61 2300 210/03 RMK AO2
94908KDBQ DBQ20070531151509705/31/07 15:15:31  5-MIN KDBQ 312115Z VRB03KT 10SM FEW085 24/16 A2998 1030 61 2300 VRB/03 RMK AO2
94908KDBQ DBQ20070531152009705/31/07 15:20:31  5-MIN KDBQ 312120Z 21004KT 10SM FEW085 24/16 A2998 1030 57 2400 210/04 RMK AO2
94908KDBQ DBQ20070531152509705/31/07 15:25:31  5-MIN KDBQ 312125Z 22007KT 10SM FEW085 24/16 A2997 1030 59 2400 220/07 RMK AO2
94908KDBQ DBQ20070531153009405/31/07 15:30:31  5-MIN KDBQ 312130Z 24006KT 10SM CLR 24/16 A2997 1030 61 2300 230/06 RMK AO2
94908KDBQ DBQ20070531153509405/31/07 15:35:31  5-MIN KDBQ 312135Z 23007KT 10SM CLR 24/17 A2997 1030 61 2400 230/07 RMK AO2
94908KDBQ DBQ20070531154009405/31/07 15:40:31  5-MIN KDBQ 312140Z 23006KT 10SM CLR 24/16 A2997 1030 61 2300 230/06 RMK AO2
94908KDBQ DBQ20070531154509405/31/07 15:45:31  5-MIN KDBQ 312145Z 21005KT 10SM CLR 24/16 A2997 1030 59 2400 210/05 RMK AO2
94908KDBQ DBQ20070531155011105/31/07 15:50:31  5-MIN KDBQ 312150Z VRB06KT 10SM CLR 24/17 A2997 1030 61 2400 VRB/06 RMK AO2 SLP144 T02440167
94908KDBQ DBQ20070531155511105/31/07 15:55:31  5-MIN KDBQ 312155Z 25006KT 10SM CLR 24/17 A2997 1030 63 2300 250/06 RMK AO2 SLP144 T02390167
94908KDBQ DBQ20070531160009405/31/07 16:00:31  5-MIN KDBQ 312200Z 24005KT 10SM CLR 23/17 A2997 1030 68 2200 240/05 RMK AO2
94908KDBQ DBQ20070531160509405/31/07 16:05:31  5-MIN KDBQ 312205Z 22004KT 10SM CLR 24/17 A2997 1030 61 2400 220/04 RMK AO2
94908KDBQ DBQ20070531161009405/31/07 16:10:31  5-MIN KDBQ 312210Z 22006KT 10SM CLR 24/16 A2997 1030 59 2400 220/06 RMK AO2
94908KDBQ DBQ20070531161509405/31/07 16:15:31  5-MIN KDBQ 312215Z 24005KT 10SM CLR 24/16 A2997 1030 57 2400 240/05 RMK AO2
94908KDBQ DBQ20070531162009405/31/07 16:20:31  5-MIN KDBQ 312220Z 25005KT 10SM CLR 24/16 A2997 1030 61 2300 250/05 RMK AO2
94908KDBQ DBQ20070531162509405/31/07 16:25:31  5-MIN KDBQ 312225Z 19006KT 10SM CLR 24/16 A2997 1030 59 2400 190/06 RMK AO2
94908KDBQ DBQ20070531163009405/31/07 16:30:31  5-MIN KDBQ 312230Z 21005KT 10SM CLR 23/15 A2997 1030 59 2300 210/05 RMK AO2
94908KDBQ DBQ20070531163509405/31/07 16:35:31  5-MIN KDBQ 312235Z 19005KT 10SM CLR 24/15 A2997 1030 57 2300 190/05 RMK AO2
94908KDBQ DBQ20070531164009405/31/07 16:40:31  5-MIN KDBQ 312240Z 22004KT 10SM CLR 24/16 A2997 1030 59 2300 220/04 RMK AO2
94908KDBQ DBQ20070531164509405/31/07 16:45:31  5-MIN KDBQ 312245Z 22005KT 10SM CLR 24/16 A2997 1030 59 2300 220/05 RMK AO2
94908KDBQ DBQ20070531165011105/31/07 16:50:31  5-MIN KDBQ 312250Z 18004KT 10SM CLR 24/16 A2997 1030 61 2300 180/04 RMK AO2 SLP143 T02390161
94908KDBQ DBQ20070531165511105/31/07 16:55:31  5-MIN KDBQ 312255Z 17004KT 10SM CLR 24/16 A2997 1030 61 2300 170/04 RMK AO2 SLP143 T02390161
94908KDBQ DBQ20070531170009405/31/07 17:00:31  5-MIN KDBQ 312300Z 18004KT 10SM CLR 24/16 A2997 1030 61 2300 180/04 RMK AO2
94908KDBQ DBQ20070531170509405/31/07 17:05:31  5-MIN KDBQ 312305Z 19004KT 10SM CLR 23/16 A2997 1030 63 2300 190/04 RMK AO2
94908KDBQ DBQ20070531171009405/31/07 17:10:31  5-MIN KDBQ 312310Z 20004KT 10SM CLR 23/16 A2997 1030 63 2300 200/04 RMK AO2
94908KDBQ DBQ20070531171509405/31/07 17:15:31  5-MIN KDBQ 312315Z 21004KT 10SM CLR 24/17 A2997 1030 63 2300 210/04 RMK AO2
94908KDBQ DBQ20070531172009405/31/07 17:20:31  5-MIN KDBQ 312320Z 22004KT 10SM CLR 24/17 A2997 1040 63 2300 220/04 RMK AO2
94908KDBQ DBQ20070531172509405/31/07 17:25:31  5-MIN KDBQ 312325Z 21004KT 10SM CLR 24/16 A2997 1040 61 2300 210/04 RMK AO2
94908KDBQ DBQ20070531173009405/31/07 17:30:31  5-MIN KDBQ 312330Z 20005KT 10SM CLR 24/16 A2997 1040 61 2300 200/05 RMK AO2
94908KDBQ DBQ20070531173509405/31/07 17:35:31  5-MIN KDBQ 312335Z 22005KT 10SM CLR 23/16 A2996 1040 63 2300 220/05 RMK AO2
94908KDBQ DBQ20070531174009405/31/07 17:40:31  5-MIN KDBQ 312340Z 22005KT 10SM CLR 23/16 A2997 1040 63 2300 220/05 RMK AO2
94908KDBQ DBQ20070531174509405/31/07 17:45:31  5-MIN KDBQ 312345Z 21004KT 10SM CLR 23/16 A2997 1040 65 2200 210/04 RMK AO2
94908KDBQ DBQ20070531175012905/31/07 17:50:31  5-MIN KDBQ 312350Z 21004KT 10SM CLR 23/16 A2997 1040 65 2200 210/04 RMK AO2 SLP143 T02280161 10244 20228 56013
94908KDBQ DBQ20070531175512905/31/07 17:55:31  5-MIN KDBQ 312355Z 22005KT 10SM CLR 23/16 A2997 1040 65 2200 220/05 RMK AO2 SLP144 T02280161 10244 20228 56004
94908KDBQ DBQ20070531180009405/31/07 18:00:31  5-MIN KDBQ 010000Z 22003KT 10SM CLR 23/17 A2997 1040 68 2200 220/03 RMK AO2
94908KDBQ DBQ20070531180509405/31/07 18:05:31  5-MIN KDBQ 010005Z 00000KT 10SM CLR 23/17 A2996 1040 66 2300 000/00 RMK AO2
94908KDBQ DBQ20070531181009405/31/07 18:10:31  5-MIN KDBQ 010010Z 00000KT 10SM CLR 24/16 A2996 1040 61 2300 000/00 RMK AO2
94908KDBQ DBQ20070531181509405/31/07 18:15:31  5-MIN KDBQ 010015Z 00000KT 10SM CLR 24/16 A2996 1040 61 2300 000/00 RMK AO2
94908KDBQ DBQ20070531182009405/31/07 18:20:31  5-MIN KDBQ 010020Z 21003KT 10SM CLR 24/16 A2996 1040 61 2300 210/03 RMK AO2
94908KDBQ DBQ20070531182509405/31/07 18:25:31  5-MIN KDBQ 010025Z 22005KT 10SM CLR 23/16 A2996 1040 63 2300 220/05 RMK AO2
94908KDBQ DBQ20070531183009405/31/07 18:30:31  5-MIN KDBQ 010030Z 19004KT 10SM CLR 23/16 A2997 1040 65 2200 190/04 RMK AO2
94908KDBQ DBQ20070531183509405/31/07 18:35:31  5-MIN KDBQ 010035Z 17007KT 10SM CLR 23/16 A2997 1040 63 2300 160/07 RMK AO2
94908KDBQ DBQ20070531184009405/31/07 18:40:31  5-MIN KDBQ 010040Z 17005KT 10SM CLR 23/17 A2997 1040 68 2200 170/05 RMK AO2
94908KDBQ DBQ20070531184509405/31/07 18:45:31  5-MIN KDBQ 010045Z 16004KT 10SM CLR 23/17 A2997 1040 68 2200 160/04 RMK AO2
94908KDBQ DBQ20070531185011105/31/07 18:50:31  5-MIN KDBQ 010050Z 16004KT 10SM CLR 23/17 A2997 1040 68 2200 160/04 RMK AO2 SLP144 T02280167
94908KDBQ DBQ20070531185511105/31/07 18:55:31  5-MIN KDBQ 010055Z 17005KT 10SM CLR 22/17 A2997 1040 70 2200 160/05 RMK AO2 SLP143 T02220167
94908KDBQ DBQ20070531190010405/31/07 19:00:31  5-MIN KDBQ 010100Z AUTO 17006KT 10SM CLR 22/17 A2997 1040 70 2200 170/06 RMK AO2 TSNO
94908KDBQ DBQ20070531190510405/31/07 19:05:31  5-MIN KDBQ 010105Z AUTO 18005KT 10SM CLR 22/17 A2997 1040 70 2200 180/05 RMK AO2 TSNO
94908KDBQ DBQ20070531191010405/31/07 19:10:31  5-MIN KDBQ 010110Z AUTO 18004KT 10SM CLR 22/17 A2997 1030 73 2100 180/04 RMK AO2 TSNO
94908KDBQ DBQ20070531191510405/31/07 19:15:31  5-MIN KDBQ 010115Z AUTO 17004KT 10SM CLR 22/17 A2997 1030 75 2100 170/04 RMK AO2 TSNO
94908KDBQ DBQ20070531192010405/31/07 19:20:31  5-MIN KDBQ 010120Z AUTO 16004KT 10SM CLR 22/17 A2997 1030 75 2100 160/04 RMK AO2 TSNO
94908KDBQ DBQ20070531192510405/31/07 19:25:31  5-MIN KDBQ 010125Z AUTO 17005KT 10SM CLR 21/17 A2997 1030 78 2000 170/05 RMK AO2 TSNO
94908KDBQ DBQ20070531193010405/31/07 19:30:31  5-MIN KDBQ 010130Z AUTO 17005KT 10SM CLR 21/17 A2997 1030 75 2000 170/05 RMK AO2 TSNO
94908KDBQ DBQ20070531193510405/31/07 19:35:31  5-MIN KDBQ 010135Z AUTO 17005KT 10SM CLR 21/17 A2998 1030 78 2000 170/05 RMK AO2 TSNO
94908KDBQ DBQ20070531194010405/31/07 19:40:31  5-MIN KDBQ 010140Z AUTO 17005KT 10SM CLR 21/17 A2998 1020 75 2000 170/05 RMK AO2 TSNO
94908KDBQ DBQ20070531194510405/31/07 19:45:31  5-MIN KDBQ 010145Z AUTO 16004KT 10SM CLR 21/17 A2998 1020 75 2000 160/04 RMK AO2 TSNO
94908KDBQ DBQ20070531195012105/31/07 19:50:31  5-MIN KDBQ 010150Z AUTO 15004KT 10SM CLR 21/17 A2998 1020 78 1900 150/04 RMK AO2 SLP149 T02060167 TSNO
94908KDBQ DBQ20070531195512105/31/07 19:55:31  5-MIN KDBQ 010155Z AUTO 16004KT 10SM CLR 21/17 A2998 1020 78 1900 160/04 RMK AO2 SLP149 T02060167 TSNO
94908KDBQ DBQ20070531200010705/31/07 20:00:31  5-MIN KDBQ 010200Z AUTO 16004KT 10SM FEW038 20/17 A2998 1020 81 1900 160/04 RMK AO2 TSNO
94908KDBQ DBQ20070531200510705/31/07 20:05:31  5-MIN KDBQ 010205Z AUTO 16003KT 10SM FEW038 20/17 A2999 1020 81 1900 160/03 RMK AO2 TSNO
94908KDBQ DBQ20070531201010705/31/07 20:10:31  5-MIN KDBQ 010210Z AUTO 15003KT 10SM FEW038 20/17 A2999 1020 81 1900 150/03 RMK AO2 TSNO
94908KDBQ DBQ20070531201510705/31/07 20:15:31  5-MIN KDBQ 010215Z AUTO 00000KT 10SM FEW038 20/17 A2999 1020 81 1900 000/00 RMK AO2 TSNO
94908KDBQ DBQ20070531202010705/31/07 20:20:31  5-MIN KDBQ 010220Z AUTO 00000KT 10SM FEW038 19/17 A2999 1010 84 1800 000/00 RMK AO2 TSNO
94908KDBQ DBQ20070531202510705/31/07 20:25:31  5-MIN KDBQ 010225Z AUTO 00000KT 10SM FEW038 19/17 A2999 1010 87 1700 000/00 RMK AO2 TSNO
94908KDBQ DBQ20070531203010705/31/07 20:30:31  5-MIN KDBQ 010230Z AUTO 00000KT 10SM FEW040 19/17 A2999 1010 87 1700 000/00 RMK AO2 TSNO
94908KDBQ DBQ20070531203510705/31/07 20:35:31  5-MIN KDBQ 010235Z AUTO 00000KT 10SM SCT045 19/17 A2999 1010 84 1800 000/00 RMK AO2 TSNO
94908KDBQ DBQ20070531204010705/31/07 20:40:31  5-MIN KDBQ 010240Z AUTO 00000KT 10SM BKN045 19/17 A2999 1010 84 1800 000/00 RMK AO2 TSNO
94908KDBQ DBQ20070531204510705/31/07 20:45:31  5-MIN KDBQ 010245Z AUTO 00000KT 10SM SCT045 20/17 A2999 1010 81 1900 000/00 RMK AO2 TSNO
94908KDBQ DBQ20070531205013005/31/07 20:50:31  5-MIN KDBQ 010250Z AUTO 00000KT 10SM SCT045 20/17 A2999 1010 81 1900 000/00 RMK AO2 SLP152 T02000167 56004 TSNO
94908KDBQ DBQ20070531205513005/31/07 20:55:31  5-MIN KDBQ 010255Z AUTO 00000KT 10SM FEW045 19/17 A2999 1010 84 1800 000/00 RMK AO2 SLP153 T01940167 53009 TSNO
94908KDBQ DBQ20070531210011405/31/07 21:00:31  5-MIN KDBQ 010300Z AUTO 18003KT 10SM FEW045 SCT055 19/16 A3000 1010 84 1700 170/03 RMK AO2 TSNO
94908KDBQ DBQ20070531210511405/31/07 21:05:31  5-MIN KDBQ 010305Z AUTO 00000KT 10SM FEW047 SCT060 19/16 A3000 1010 84 1700 000/00 RMK AO2 TSNO
94908KDBQ DBQ20070531211010705/31/07 21:10:31  5-MIN KDBQ 010310Z AUTO 00000KT 10SM FEW055 19/16 A3000 1010 84 1700 000/00 RMK AO2 TSNO
94908KDBQ DBQ20070531211510705/31/07 21:15:31  5-MIN KDBQ 010315Z AUTO 18003KT 10SM FEW055 19/16 A3000 1010 84 1700 180/03 RMK AO2 TSNO
94908KDBQ DBQ20070531212010705/31/07 21:20:31  5-MIN KDBQ 010320Z AUTO 00000KT 10SM SCT060 19/16 A3000 1010 81 1800 000/00 RMK AO2 TSNO
94908KDBQ DBQ20070531212510705/31/07 21:25:31  5-MIN KDBQ 010325Z AUTO 19003KT 10SM BKN060 19/16 A3000 1010 84 1700 180/03 RMK AO2 TSNO
94908KDBQ DBQ20070531213010705/31/07 21:30:31  5-MIN KDBQ 010330Z AUTO 19003KT 10SM BKN060 19/17 A3000 1010 84 1800 190/03 RMK AO2 TSNO
94908KDBQ DBQ20070531213511405/31/07 21:35:31  5-MIN KDBQ 010335Z AUTO 00000KT 10SM FEW047 BKN060 19/17 A3000 1010 84 1800 000/00 RMK AO2 TSNO
94908KDBQ DBQ20070531214011405/31/07 21:40:31  5-MIN KDBQ 010340Z AUTO 00000KT 10SM FEW047 BKN060 19/17 A3000 1010 84 1800 000/00 RMK AO2 TSNO
94908KDBQ DBQ20070531214511405/31/07 21:45:31  5-MIN KDBQ 010345Z AUTO 00000KT 10SM FEW047 BKN060 19/16 A2999 1010 81 1800 000/00 RMK AO2 TSNO
94908KDBQ DBQ20070531215013105/31/07 21:50:31  5-MIN KDBQ 010350Z AUTO 19003KT 10SM FEW047 BKN060 20/16 A2999 1010 78 1900 190/03 RMK AO2 SLP153 T02000161 TSNO
94908KDBQ DBQ20070531215513105/31/07 21:55:31  5-MIN KDBQ 010355Z AUTO 18003KT 10SM FEW047 SCT060 19/16 A2999 1010 81 1800 180/03 RMK AO2 SLP152 T01940161 TSNO
94908KDBQ DBQ20070531220010705/31/07 22:00:31  5-MIN KDBQ 010400Z AUTO 18003KT 10SM FEW047 19/16 A2999 1010 81 1800 180/03 RMK AO2 TSNO
94908KDBQ DBQ20070531220510705/31/07 22:05:31  5-MIN KDBQ 010405Z AUTO 18003KT 10SM FEW065 19/16 A2999 1010 84 1700 180/03 RMK AO2 TSNO
94908KDBQ DBQ20070531221010705/31/07 22:10:31  5-MIN KDBQ 010410Z AUTO 00000KT 10SM FEW065 19/16 A2999 1010 84 1700 000/00 RMK AO2 TSNO
94908KDBQ DBQ20070531221510705/31/07 22:15:31  5-MIN KDBQ 010415Z AUTO 20003KT 10SM FEW065 18/16 A2999 1020 87 1700 200/03 RMK AO2 TSNO
94908KDBQ DBQ20070531222010405/31/07 22:20:31  5-MIN KDBQ 010420Z AUTO 00000KT 10SM CLR 18/16 A2999 1020 87 1700 000/00 RMK AO2 TSNO
94908KDBQ DBQ20070531222510405/31/07 22:25:31  5-MIN KDBQ 010425Z AUTO 00000KT 10SM CLR 18/16 A2999 1020 87 1700 000/00 RMK AO2 TSNO
94908KDBQ DBQ20070531223010405/31/07 22:30:31  5-MIN KDBQ 010430Z AUTO 27003KT 10SM CLR 17/16 A2999 1020 90 1600 270/03 RMK AO2 TSNO
94908KDBQ DBQ20070531223510405/31/07 22:35:31  5-MIN KDBQ 010435Z AUTO 00000KT 10SM CLR 18/16 A2999 1020 87 1600 000/00 RMK AO2 TSNO
94908KDBQ DBQ20070531224010405/31/07 22:40:31  5-MIN KDBQ 010440Z AUTO 00000KT 10SM CLR 17/16 A2999 1020 90 1600 000/00 RMK AO2 TSNO
94908KDBQ DBQ20070531224510405/31/07 22:45:31  5-MIN KDBQ 010445Z AUTO 28003KT 10SM CLR 18/16 A2999 1020 87 1600 280/03 RMK AO2 TSNO
94908KDBQ DBQ20070531225012105/31/07 22:50:31  5-MIN KDBQ 010450Z AUTO 25003KT 10SM CLR 17/16 A2999 1020 90 1600 250/03 RMK AO2 SLP151 T01720156 TSNO
94908KDBQ DBQ20070531225512105/31/07 22:55:31  5-MIN KDBQ 010455Z AUTO 00000KT 10SM CLR 18/16 A2999 1020 87 1600 000/00 RMK AO2 SLP151 T01780156 TSNO
94908KDBQ DBQ20070531230010405/31/07 23:00:31  5-MIN KDBQ 010500Z AUTO 00000KT 10SM CLR 18/16 A2999 1020 87 1600 000/00 RMK AO2 TSNO
94908KDBQ DBQ20070531230510405/31/07 23:05:31  5-MIN KDBQ 010505Z AUTO 00000KT 10SM CLR 18/16 A2999 1020 87 1600 000/00 RMK AO2 TSNO
94908KDBQ DBQ20070531231010405/31/07 23:10:31  5-MIN KDBQ 010510Z AUTO 00000KT 10SM CLR 18/16 A2999 1020 87 1600 000/00 RMK AO2 TSNO
94908KDBQ DBQ20070531231510405/31/07 23:15:31  5-MIN KDBQ 010515Z AUTO 00000KT 10SM CLR 18/16 A2998 1020 90 1600 000/00 RMK AO2 TSNO
94908KDBQ DBQ20070531232010305/31/07 23:20:31  5-MIN KDBQ 010520Z AUTO 00000KT 9SM CLR 18/16 A2998 1020 87 1600 000/00 RMK AO2 TSNO
94908KDBQ DBQ20070531232510305/31/07 23:25:31  5-MIN KDBQ 010525Z AUTO 16003KT 9SM CLR 18/16 A2998 1020 87 1600 160/03 RMK AO2 TSNO
94908KDBQ DBQ20070531233010305/31/07 23:30:31  5-MIN KDBQ 010530Z AUTO 17003KT 8SM CLR 17/16 A2998 1020 90 1600 170/03 RMK AO2 TSNO
94908KDBQ DBQ20070531233510305/31/07 23:35:31  5-MIN KDBQ 010535Z AUTO 00000KT 8SM CLR 17/16 A2998 1020 90 1600 000/00 RMK AO2 TSNO
94908KDBQ DBQ20070531234010305/31/07 23:40:31  5-MIN KDBQ 010540Z AUTO 00000KT 8SM CLR 17/16 A2998 1020 90 1600 000/00 RMK AO2 TSNO
94908KDBQ DBQ20070531234510305/31/07 23:45:31  5-MIN KDBQ 010545Z AUTO 19003KT 8SM CLR 17/15 A2998 1020 90 1500 190/03 RMK AO2 TSNO
94908KDBQ DBQ20070531235014805/31/07 23:50:31  5-MIN KDBQ 010550Z AUTO 19003KT 8SM CLR 17/15 A2998 1020 87 1600 190/03 RMK AO2 SLP150 T01720150 10239 20167 402440167 53009 TSNO
94908KDBQ DBQ20070531235514805/31/07 23:55:31  5-MIN KDBQ 010555Z AUTO 18003KT 8SM CLR 17/16 A2998 1020 90 1600 180/03 RMK AO2 SLP149 T01720156 10239 20167 402440167 58004 TSNO
