94908KDBQ DBQ20030701000010307/01/03 00:00:31  5-MIN KDBQ 010600Z AUTO 00000KT 10SM CLR 17/14 A3014 880 83 1300 000/00 RMK AO2 TSNO
94908KDBQ DBQ20030701000510307/01/03 00:05:31  5-MIN KDBQ 010605Z AUTO 00000KT 10SM CLR 17/14 A3014 880 80 1400 000/00 RMK AO2 TSNO
94908KDBQ DBQ20030701001010307/01/03 00:10:31  5-MIN KDBQ 010610Z AUTO 00000KT 10SM CLR 17/14 A3014 880 80 1400 000/00 RMK AO2 TSNO
94908KDBQ DBQ20030701001510307/01/03 00:15:31  5-MIN KDBQ 010615Z AUTO 00000KT 10SM CLR 17/14 A3014 880 80 1400 000/00 RMK AO2 TSNO
94908KDBQ DBQ20030701002010307/01/03 00:20:31  5-MIN KDBQ 010620Z AUTO 00000KT 10SM CLR 17/14 A3013 880 80 1400 000/00 RMK AO2 TSNO
94908KDBQ DBQ20030701002510307/01/03 00:25:31  5-MIN KDBQ 010625Z AUTO 00000KT 10SM CLR 17/14 A3013 880 80 1400 000/00 RMK AO2 TSNO
94908KDBQ DBQ20030701003010307/01/03 00:30:31  5-MIN KDBQ 010630Z AUTO 00000KT 10SM CLR 17/13 A3013 880 80 1300 000/00 RMK AO2 TSNO
94908KDBQ DBQ20030701003510307/01/03 00:35:31  5-MIN KDBQ 010635Z AUTO 00000KT 10SM CLR 17/14 A3013 880 83 1300 000/00 RMK AO2 TSNO
94908KDBQ DBQ20030701004010307/01/03 00:40:31  5-MIN KDBQ 010640Z AUTO 00000KT 10SM CLR 17/14 A3013 880 83 1300 000/00 RMK AO2 TSNO
94908KDBQ DBQ20030701004510307/01/03 00:45:31  5-MIN KDBQ 010645Z AUTO 00000KT 10SM CLR 17/14 A3013 880 83 1300 000/00 RMK AO2 TSNO
94908KDBQ DBQ20030701005012007/01/03 00:50:31  5-MIN KDBQ 010650Z AUTO 00000KT 10SM CLR 17/14 A3013 890 83 1300 000/00 RMK AO2 SLP197 T01670139 TSNO
94908KDBQ DBQ20030701005512007/01/03 00:55:31  5-MIN KDBQ 010655Z AUTO 00000KT 10SM CLR 17/14 A3013 890 83 1300 000/00 RMK AO2 SLP197 T01670139 TSNO
94908KDBQ DBQ20030701010010307/01/03 01:00:31  5-MIN KDBQ 010700Z AUTO 00000KT 10SM CLR 17/13 A3013 890 80 1300 000/00 RMK AO2 TSNO
94908KDBQ DBQ20030701010510307/01/03 01:05:31  5-MIN KDBQ 010705Z AUTO 00000KT 10SM CLR 17/13 A3013 890 80 1300 000/00 RMK AO2 TSNO
94908KDBQ DBQ20030701011010307/01/03 01:10:31  5-MIN KDBQ 010710Z AUTO 00000KT 10SM CLR 17/13 A3013 890 80 1300 000/00 RMK AO2 TSNO
94908KDBQ DBQ20030701011510307/01/03 01:15:31  5-MIN KDBQ 010715Z AUTO 00000KT 10SM CLR 16/13 A3013 890 83 1300 000/00 RMK AO2 TSNO
94908KDBQ DBQ20030701012010307/01/03 01:20:31  5-MIN KDBQ 010720Z AUTO 00000KT 10SM CLR 16/13 A3013 890 83 1300 000/00 RMK AO2 TSNO
94908KDBQ DBQ20030701012510307/01/03 01:25:31  5-MIN KDBQ 010725Z AUTO 00000KT 10SM CLR 17/13 A3013 890 80 1300 000/00 RMK AO2 TSNO
94908KDBQ DBQ20030701013010307/01/03 01:30:31  5-MIN KDBQ 010730Z AUTO 00000KT 10SM CLR 17/13 A3012 890 78 1400 000/00 RMK AO2 TSNO
94908KDBQ DBQ20030701013510307/01/03 01:35:31  5-MIN KDBQ 010735Z AUTO 00000KT 10SM CLR 17/13 A3012 890 80 1300 000/00 RMK AO2 TSNO
94908KDBQ DBQ20030701014010307/01/03 01:40:31  5-MIN KDBQ 010740Z AUTO 00000KT 10SM CLR 17/13 A3012 890 77 1300 000/00 RMK AO2 TSNO
94908KDBQ DBQ20030701014510307/01/03 01:45:31  5-MIN KDBQ 010745Z AUTO 00000KT 10SM CLR 17/13 A3012 890 77 1300 000/00 RMK AO2 TSNO
94908KDBQ DBQ20030701015012007/01/03 01:50:31  5-MIN KDBQ 010750Z AUTO 00000KT 10SM CLR 17/13 A3012 890 77 1300 000/00 RMK AO2 SLP195 T01670128 TSNO
94908KDBQ DBQ20030701015512007/01/03 01:55:31  5-MIN KDBQ 010755Z AUTO 00000KT 10SM CLR 16/13 A3012 890 80 1300 000/00 RMK AO2 SLP195 T01610128 TSNO
94908KDBQ DBQ20030701020010307/01/03 02:00:31  5-MIN KDBQ 010800Z AUTO 00000KT 10SM CLR 16/13 A3012 890 86 1200 000/00 RMK AO2 TSNO
94908KDBQ DBQ20030701020510307/01/03 02:05:31  5-MIN KDBQ 010805Z AUTO 00000KT 10SM CLR 16/13 A3012 890 83 1200 000/00 RMK AO2 TSNO
94908KDBQ DBQ20030701021010307/01/03 02:10:31  5-MIN KDBQ 010810Z AUTO 00000KT 10SM CLR 16/13 A3012 900 83 1200 000/00 RMK AO2 TSNO
94908KDBQ DBQ20030701021510307/01/03 02:15:31  5-MIN KDBQ 010815Z AUTO 00000KT 10SM CLR 16/13 A3012 900 83 1200 000/00 RMK AO2 TSNO
94908KDBQ DBQ20030701022010307/01/03 02:20:31  5-MIN KDBQ 010820Z AUTO 00000KT 10SM CLR 16/13 A3012 900 80 1300 000/00 RMK AO2 TSNO
94908KDBQ DBQ20030701022510307/01/03 02:25:31  5-MIN KDBQ 010825Z AUTO 17003KT 10SM CLR 16/13 A3012 900 83 1200 170/03 RMK AO2 TSNO
94908KDBQ DBQ20030701023010307/01/03 02:30:31  5-MIN KDBQ 010830Z AUTO 00000KT 10SM CLR 14/13 A3012 900 90 1100 000/00 RMK AO2 TSNO
94908KDBQ DBQ20030701023510307/01/03 02:35:31  5-MIN KDBQ 010835Z AUTO 00000KT 10SM CLR 14/12 A3012 900 86 1100 000/00 RMK AO2 TSNO
94908KDBQ DBQ20030701024010307/01/03 02:40:31  5-MIN KDBQ 010840Z AUTO 00000KT 10SM CLR 14/12 A3012 900 90 1000 000/00 RMK AO2 TSNO
94908KDBQ DBQ20030701024510307/01/03 02:45:31  5-MIN KDBQ 010845Z AUTO 00000KT 10SM CLR 15/13 A3012 900 86 1100 000/00 RMK AO2 TSNO
94908KDBQ DBQ20030701025012607/01/03 02:50:31  5-MIN KDBQ 010850Z AUTO 00000KT 10SM CLR 15/13 A3012 900 86 1100 000/00 RMK AO2 SLP193 T01500128 51002 TSNO
94908KDBQ DBQ20030701025512607/01/03 02:55:31  5-MIN KDBQ 010855Z AUTO 00000KT 10SM CLR 15/13 A3012 900 86 1100 000/00 RMK AO2 SLP194 T01500128 56007 TSNO
94908KDBQ DBQ20030701030010307/01/03 03:00:31  5-MIN KDBQ 010900Z AUTO 00000KT 10SM CLR 15/13 A3012 900 86 1100 000/00 RMK AO2 TSNO
94908KDBQ DBQ20030701030510307/01/03 03:05:31  5-MIN KDBQ 010905Z AUTO 00000KT 10SM CLR 16/13 A3012 900 83 1300 000/00 RMK AO2 TSNO
94908KDBQ DBQ20030701031010307/01/03 03:10:31  5-MIN KDBQ 010910Z AUTO 00000KT 10SM CLR 16/13 A3012 900 83 1300 000/00 RMK AO2 TSNO
94908KDBQ DBQ20030701031510307/01/03 03:15:31  5-MIN KDBQ 010915Z AUTO 00000KT 10SM CLR 16/13 A3012 900 80 1300 000/00 RMK AO2 TSNO
94908KDBQ DBQ20030701032010307/01/03 03:20:31  5-MIN KDBQ 010920Z AUTO 00000KT 10SM CLR 16/12 A3012 900 80 1200 000/00 RMK AO2 TSNO
94908KDBQ DBQ20030701032510307/01/03 03:25:31  5-MIN KDBQ 010925Z AUTO 00000KT 10SM CLR 16/12 A3012 900 80 1200 000/00 RMK AO2 TSNO
94908KDBQ DBQ20030701033010307/01/03 03:30:31  5-MIN KDBQ 010930Z AUTO 00000KT 10SM CLR 16/12 A3012 900 80 1200 000/00 RMK AO2 TSNO
94908KDBQ DBQ20030701033510307/01/03 03:35:31  5-MIN KDBQ 010935Z AUTO 00000KT 10SM CLR 16/13 A3012 900 83 1200 000/00 RMK AO2 TSNO
94908KDBQ DBQ20030701034010307/01/03 03:40:31  5-MIN KDBQ 010940Z AUTO 00000KT 10SM CLR 16/13 A3012 900 83 1200 000/00 RMK AO2 TSNO
94908KDBQ DBQ20030701034510307/01/03 03:45:31  5-MIN KDBQ 010945Z AUTO 00000KT 10SM CLR 16/12 A3012 890 80 1200 000/00 RMK AO2 TSNO
94908KDBQ DBQ20030701035012007/01/03 03:50:31  5-MIN KDBQ 010950Z AUTO 00000KT 10SM CLR 16/12 A3012 890 80 1200 000/00 RMK AO2 SLP194 T01560122 TSNO
94908KDBQ DBQ20030701035512007/01/03 03:55:31  5-MIN KDBQ 010955Z AUTO 00000KT 10SM CLR 15/12 A3012 890 83 1100 000/00 RMK AO2 SLP195 T01500122 TSNO
94908KDBQ DBQ20030701040010307/01/03 04:00:31  5-MIN KDBQ 011000Z AUTO 00000KT 10SM CLR 15/12 A3012 890 83 1100 000/00 RMK AO2 TSNO
94908KDBQ DBQ20030701040510307/01/03 04:05:31  5-MIN KDBQ 011005Z AUTO 00000KT 10SM CLR 16/12 A3012 890 80 1200 000/00 RMK AO2 TSNO
94908KDBQ DBQ20030701041010307/01/03 04:10:31  5-MIN KDBQ 011010Z AUTO 00000KT 10SM CLR 15/12 A3012 890 83 1100 000/00 RMK AO2 TSNO
94908KDBQ DBQ20030701041510307/01/03 04:15:31  5-MIN KDBQ 011015Z AUTO 00000KT 10SM CLR 14/12 A3012 890 86 1100 000/00 RMK AO2 TSNO
94908KDBQ DBQ20030701042010307/01/03 04:20:31  5-MIN KDBQ 011020Z AUTO 00000KT 10SM CLR 15/12 A3012 890 83 1100 000/00 RMK AO2 TSNO
94908KDBQ DBQ20030701042510307/01/03 04:25:31  5-MIN KDBQ 011025Z AUTO 00000KT 10SM CLR 14/12 A3012 890 86 1100 000/00 RMK AO2 TSNO
94908KDBQ DBQ20030701043010307/01/03 04:30:31  5-MIN KDBQ 011030Z AUTO 00000KT 10SM CLR 15/12 A3012 890 83 1100 000/00 RMK AO2 TSNO
94908KDBQ DBQ20030701043510307/01/03 04:35:31  5-MIN KDBQ 011035Z AUTO 00000KT 10SM CLR 14/12 A3012 890 86 1100 000/00 RMK AO2 TSNO
94908KDBQ DBQ20030701044010307/01/03 04:40:31  5-MIN KDBQ 011040Z AUTO 00000KT 10SM CLR 14/12 A3012 890 86 1100 000/00 RMK AO2 TSNO
94908KDBQ DBQ20030701044510307/01/03 04:45:31  5-MIN KDBQ 011045Z AUTO 00000KT 10SM CLR 15/12 A3012 890 83 1100 000/00 RMK AO2 TSNO
94908KDBQ DBQ20030701045010907/01/03 04:50:31  5-MIN KDBQ 011050Z 00000KT 9SM CLR 14/13 A3013 890 90 1100 000/00 RMK AO2 SLP197 T01440128
94908KDBQ DBQ20030701045510907/01/03 04:55:31  5-MIN KDBQ 011055Z 00000KT 9SM CLR 15/12 A3013 890 83 1100 000/00 RMK AO2 SLP197 T01500122
94908KDBQ DBQ20030701050009307/01/03 05:00:31  5-MIN KDBQ 011100Z 00000KT 10SM CLR 15/12 A3013 890 83 1100 000/00 RMK AO2
94908KDBQ DBQ20030701050509307/01/03 05:05:31  5-MIN KDBQ 011105Z 00000KT 10SM CLR 15/12 A3013 890 83 1100 000/00 RMK AO2
94908KDBQ DBQ20030701051009307/01/03 05:10:31  5-MIN KDBQ 011110Z 00000KT 10SM CLR 16/12 A3013 890 80 1200 000/00 RMK AO2
94908KDBQ DBQ20030701051509307/01/03 05:15:31  5-MIN KDBQ 011115Z 00000KT 10SM CLR 16/12 A3013 890 77 1300 000/00 RMK AO2
94908KDBQ DBQ20030701052009307/01/03 05:20:31  5-MIN KDBQ 011120Z 00000KT 10SM CLR 16/12 A3013 890 77 1300 000/00 RMK AO2
94908KDBQ DBQ20030701052509307/01/03 05:25:31  5-MIN KDBQ 011125Z 00000KT 10SM CLR 17/13 A3013 880 80 1300 000/00 RMK AO2
94908KDBQ DBQ20030701053009307/01/03 05:30:31  5-MIN KDBQ 011130Z 00000KT 10SM CLR 17/13 A3013 890 75 1400 000/00 RMK AO2
94908KDBQ DBQ20030701053509307/01/03 05:35:31  5-MIN KDBQ 011135Z 00000KT 10SM CLR 17/13 A3013 880 78 1400 000/00 RMK AO2
94908KDBQ DBQ20030701054009307/01/03 05:40:31  5-MIN KDBQ 011140Z 00000KT 10SM CLR 18/13 A3013 890 75 1500 000/00 RMK AO2
94908KDBQ DBQ20030701054509307/01/03 05:45:31  5-MIN KDBQ 011145Z 00000KT 10SM CLR 18/14 A3013 880 78 1500 000/00 RMK AO2
94908KDBQ DBQ20030701055012807/01/03 05:50:31  5-MIN KDBQ 011150Z 00000KT 10SM CLR 18/14 A3013 880 75 1500 000/00 RMK AO2 SLP198 T01830139 10183 20139 56007
94908KDBQ DBQ20030701055512807/01/03 05:55:31  5-MIN KDBQ 011155Z 00000KT 10SM CLR 18/14 A3013 880 78 1500 000/00 RMK AO2 SLP199 T01830144 10183 20139 53006
94908KDBQ DBQ20030701060009307/01/03 06:00:31  5-MIN KDBQ 011200Z 00000KT 10SM CLR 18/14 A3014 880 75 1500 000/00 RMK AO2
94908KDBQ DBQ20030701060509307/01/03 06:05:31  5-MIN KDBQ 011205Z 00000KT 10SM CLR 19/14 A3013 880 75 1600 000/00 RMK AO2
94908KDBQ DBQ20030701061009307/01/03 06:10:31  5-MIN KDBQ 011210Z 00000KT 10SM CLR 19/16 A3013 880 81 1600 000/00 RMK AO2
94908KDBQ DBQ20030701061509307/01/03 06:15:31  5-MIN KDBQ 011215Z 00000KT 10SM CLR 19/14 A3013 880 72 1600 000/00 RMK AO2
94908KDBQ DBQ20030701062009307/01/03 06:20:31  5-MIN KDBQ 011220Z 00000KT 10SM CLR 20/14 A3014 880 70 1700 000/00 RMK AO2
94908KDBQ DBQ20030701062509307/01/03 06:25:31  5-MIN KDBQ 011225Z 00000KT 10SM CLR 21/14 A3013 880 67 1800 000/00 RMK AO2
94908KDBQ DBQ20030701063009307/01/03 06:30:31  5-MIN KDBQ 011230Z 00000KT 10SM CLR 21/14 A3013 880 65 1800 000/00 RMK AO2
94908KDBQ DBQ20030701063509307/01/03 06:35:31  5-MIN KDBQ 011235Z 00000KT 10SM CLR 22/14 A3013 880 63 1900 000/00 RMK AO2
94908KDBQ DBQ20030701064009307/01/03 06:40:31  5-MIN KDBQ 011240Z 00000KT 10SM CLR 22/15 A3013 880 65 1900 000/00 RMK AO2
94908KDBQ DBQ20030701064509307/01/03 06:45:31  5-MIN KDBQ 011245Z 00000KT 10SM CLR 22/16 A3013 880 70 1900 000/00 RMK AO2
94908KDBQ DBQ20030701065011007/01/03 06:50:31  5-MIN KDBQ 011250Z 00000KT 10SM CLR 22/16 A3013 880 65 2000 000/00 RMK AO2 SLP197 T02220156
94908KDBQ DBQ20030701065511007/01/03 06:55:31  5-MIN KDBQ 011255Z 00000KT 10SM CLR 22/14 A3013 880 59 2000 000/00 RMK AO2 SLP197 T02220139
94908KDBQ DBQ20030701070009307/01/03 07:00:31  5-MIN KDBQ 011300Z 00000KT 10SM CLR 23/14 A3013 880 59 2000 000/00 RMK AO2
94908KDBQ DBQ20030701070509307/01/03 07:05:31  5-MIN KDBQ 011305Z 00000KT 10SM CLR 23/14 A3013 890 59 2000 000/00 RMK AO2
94908KDBQ DBQ20030701071009307/01/03 07:10:31  5-MIN KDBQ 011310Z 00000KT 10SM CLR 23/15 A3013 880 61 2000 000/00 RMK AO2
94908KDBQ DBQ20030701071509307/01/03 07:15:31  5-MIN KDBQ 011315Z 17003KT 10SM CLR 23/14 A3013 880 55 2100 170/03 RMK AO2
94908KDBQ DBQ20030701072009307/01/03 07:20:31  5-MIN KDBQ 011320Z 15003KT 10SM CLR 23/14 A3013 880 57 2000 150/03 RMK AO2
94908KDBQ DBQ20030701072509307/01/03 07:25:31  5-MIN KDBQ 011325Z 00000KT 10SM CLR 23/14 A3013 890 55 2100 000/00 RMK AO2
94908KDBQ DBQ20030701073009307/01/03 07:30:31  5-MIN KDBQ 011330Z 00000KT 10SM CLR 23/14 A3013 890 55 2100 000/00 RMK AO2
94908KDBQ DBQ20030701073509307/01/03 07:35:31  5-MIN KDBQ 011335Z 00000KT 10SM CLR 24/14 A3013 890 53 2200 000/00 RMK AO2
94908KDBQ DBQ20030701074009307/01/03 07:40:31  5-MIN KDBQ 011340Z 00000KT 10SM CLR 23/14 A3013 890 55 2100 000/00 RMK AO2
94908KDBQ DBQ20030701074509307/01/03 07:45:31  5-MIN KDBQ 011345Z 00000KT 10SM CLR 23/14 A3013 880 55 2100 000/00 RMK AO2
94908KDBQ DBQ20030701075011007/01/03 07:50:31  5-MIN KDBQ 011350Z 00000KT 10SM CLR 24/14 A3013 880 55 2200 000/00 RMK AO2 SLP197 T02390144
94908KDBQ DBQ20030701075511007/01/03 07:55:31  5-MIN KDBQ 011355Z 00000KT 10SM CLR 24/14 A3013 880 53 2200 000/00 RMK AO2 SLP197 T02390139
94908KDBQ DBQ20030701080009307/01/03 08:00:31  5-MIN KDBQ 011400Z 15003KT 10SM CLR 24/14 A3013 880 53 2200 150/03 RMK AO2
94908KDBQ DBQ20030701080509307/01/03 08:05:31  5-MIN KDBQ 011405Z 00000KT 10SM CLR 24/14 A3013 880 55 2200 000/00 RMK AO2
94908KDBQ DBQ20030701081009307/01/03 08:10:31  5-MIN KDBQ 011410Z 00000KT 10SM CLR 24/14 A3013 880 53 2200 000/00 RMK AO2
94908KDBQ DBQ20030701081509307/01/03 08:15:31  5-MIN KDBQ 011415Z 00000KT 10SM CLR 24/14 A3013 880 53 2200 000/00 RMK AO2
94908KDBQ DBQ20030701082009307/01/03 08:20:31  5-MIN KDBQ 011420Z 18003KT 10SM CLR 24/14 A3013 880 53 2200 180/03 RMK AO2
94908KDBQ DBQ20030701082509307/01/03 08:25:31  5-MIN KDBQ 011425Z 00000KT 10SM CLR 24/14 A3013 890 53 2200 000/00 RMK AO2
94908KDBQ DBQ20030701083009307/01/03 08:30:31  5-MIN KDBQ 011430Z 00000KT 10SM CLR 24/14 A3013 890 53 2200 000/00 RMK AO2
94908KDBQ DBQ20030701083509307/01/03 08:35:31  5-MIN KDBQ 011435Z 17003KT 10SM CLR 25/15 A3013 890 53 2300 170/03 RMK AO2
94908KDBQ DBQ20030701084009307/01/03 08:40:31  5-MIN KDBQ 011440Z VRB03KT 10SM CLR 25/15 A3012 890 53 2300 VRB/03 RMK AO2
94908KDBQ DBQ20030701084509307/01/03 08:45:31  5-MIN KDBQ 011445Z 15004KT 10SM CLR 25/14 A3012 890 49 2300 150/04 RMK AO2
94908KDBQ DBQ20030701085011607/01/03 08:50:31  5-MIN KDBQ 011450Z 11004KT 10SM CLR 25/14 A3012 890 51 2300 110/04 RMK AO2 SLP195 T02500144 53006
94908KDBQ DBQ20030701085511607/01/03 08:55:31  5-MIN KDBQ 011455Z 14004KT 10SM CLR 25/14 A3012 890 51 2300 140/04 RMK AO2 SLP195 T02500144 58004
94908KDBQ DBQ20030701090009307/01/03 09:00:31  5-MIN KDBQ 011500Z 16003KT 10SM CLR 25/14 A3012 890 49 2300 160/03 RMK AO2
94908KDBQ DBQ20030701090509307/01/03 09:05:31  5-MIN KDBQ 011505Z 15004KT 10SM CLR 25/14 A3012 890 51 2300 150/04 RMK AO2
94908KDBQ DBQ20030701091009307/01/03 09:10:31  5-MIN KDBQ 011510Z 13003KT 10SM CLR 26/14 A3012 890 49 2400 130/03 RMK AO2
94908KDBQ DBQ20030701091509607/01/03 09:15:31  5-MIN KDBQ 011515Z 16005KT 10SM FEW100 26/16 A3012 900 53 2400 160/05 RMK AO2
94908KDBQ DBQ20030701092009307/01/03 09:20:31  5-MIN KDBQ 011520Z 18004KT 10SM CLR 26/16 A3012 900 53 2400 180/04 RMK AO2
94908KDBQ DBQ20030701092509307/01/03 09:25:31  5-MIN KDBQ 011525Z 16007KT 10SM CLR 25/16 A3012 900 55 2300 160/07 RMK AO2
94908KDBQ DBQ20030701093009307/01/03 09:30:31  5-MIN KDBQ 011530Z 16003KT 10SM CLR 25/16 A3012 900 55 2300 160/03 RMK AO2
94908KDBQ DBQ20030701093509307/01/03 09:35:31  5-MIN KDBQ 011535Z 16004KT 10SM CLR 25/16 A3012 900 55 2300 160/04 RMK AO2
94908KDBQ DBQ20030701094009307/01/03 09:40:31  5-MIN KDBQ 011540Z 18004KT 10SM CLR 25/14 A3012 900 51 2300 180/04 RMK AO2
94908KDBQ DBQ20030701094509307/01/03 09:45:31  5-MIN KDBQ 011545Z 14004KT 10SM CLR 25/14 A3012 900 51 2300 140/04 RMK AO2
94908KDBQ DBQ20030701095011007/01/03 09:50:31  5-MIN KDBQ 011550Z VRB04KT 10SM CLR 26/14 A3011 900 49 2400 VRB/04 RMK AO2 SLP192 T02560144
94908KDBQ DBQ20030701095511007/01/03 09:55:31  5-MIN KDBQ 011555Z VRB05KT 10SM CLR 26/14 A3011 900 49 2400 VRB/05 RMK AO2 SLP191 T02560144
94908KDBQ DBQ20030701100009307/01/03 10:00:31  5-MIN KDBQ 011600Z 14005KT 10SM CLR 26/14 A3011 900 49 2400 140/05 RMK AO2
94908KDBQ DBQ20030701100509307/01/03 10:05:31  5-MIN KDBQ 011605Z 12005KT 10SM CLR 26/14 A3011 900 48 2400 120/05 RMK AO2
94908KDBQ DBQ20030701101009307/01/03 10:10:31  5-MIN KDBQ 011610Z VRB05KT 10SM CLR 26/15 A3011 900 50 2400 VRB/05 RMK AO2
94908KDBQ DBQ20030701101509307/01/03 10:15:31  5-MIN KDBQ 011615Z VRB04KT 10SM CLR 26/15 A3011 910 50 2400 VRB/04 RMK AO2
94908KDBQ DBQ20030701102009607/01/03 10:20:31  5-MIN KDBQ 011620Z 13006KT 10SM FEW049 26/14 A3011 910 48 2400 130/06 RMK AO2
94908KDBQ DBQ20030701102509607/01/03 10:25:31  5-MIN KDBQ 011625Z 17008KT 10SM FEW049 26/14 A3011 910 46 2400 170/08 RMK AO2
94908KDBQ DBQ20030701103009607/01/03 10:30:31  5-MIN KDBQ 011630Z 13008KT 10SM FEW049 26/13 A3010 910 43 2400 130/08 RMK AO2
94908KDBQ DBQ20030701103509607/01/03 10:35:31  5-MIN KDBQ 011635Z 11007KT 10SM FEW049 26/12 A3011 910 40 2400 110/07 RMK AO2
94908KDBQ DBQ20030701104009607/01/03 10:40:31  5-MIN KDBQ 011640Z 08005KT 10SM FEW049 26/12 A3010 910 40 2400 080/05 RMK AO2
94908KDBQ DBQ20030701104509607/01/03 10:45:31  5-MIN KDBQ 011645Z 09006KT 10SM FEW049 27/12 A3010 910 38 2500 080/06 RMK AO2
94908KDBQ DBQ20030701105011007/01/03 10:50:31  5-MIN KDBQ 011650Z 09009KT 10SM CLR 27/12 A3010 910 40 2500 090/09 RMK AO2 SLP188 T02670122
94908KDBQ DBQ20030701105511007/01/03 10:55:31  5-MIN KDBQ 011655Z 11005KT 10SM CLR 27/13 A3010 910 41 2500 110/05 RMK AO2 SLP188 T02670128
94908KDBQ DBQ20030701110009607/01/03 11:00:31  5-MIN KDBQ 011700Z 12007KT 10SM FEW055 27/13 A3010 910 41 2500 120/07 RMK AO2
94908KDBQ DBQ20030701110509607/01/03 11:05:31  5-MIN KDBQ 011705Z VRB05KT 10SM FEW055 26/13 A3010 910 44 2400 VRB/05 RMK AO2
94908KDBQ DBQ20030701111009607/01/03 11:10:31  5-MIN KDBQ 011710Z 16007KT 10SM FEW055 27/14 A3010 910 45 2500 160/07 RMK AO2
94908KDBQ DBQ20030701111509607/01/03 11:15:31  5-MIN KDBQ 011715Z 13009KT 10SM FEW055 27/14 A3009 920 45 2500 130/09 RMK AO2
94908KDBQ DBQ20030701112009607/01/03 11:20:31  5-MIN KDBQ 011720Z 15005KT 10SM FEW055 27/14 A3009 920 45 2500 150/05 RMK AO2
94908KDBQ DBQ20030701112509607/01/03 11:25:31  5-MIN KDBQ 011725Z VRB04KT 10SM FEW055 27/13 A3010 920 43 2500 VRB/04 RMK AO2
94908KDBQ DBQ20030701113009307/01/03 11:30:31  5-MIN KDBQ 011730Z 11007KT 10SM CLR 27/13 A3009 920 41 2500 110/07 RMK AO2
94908KDBQ DBQ20030701113509307/01/03 11:35:31  5-MIN KDBQ 011735Z 13007KT 10SM CLR 27/13 A3009 920 41 2500 130/07 RMK AO2
94908KDBQ DBQ20030701114009307/01/03 11:40:31  5-MIN KDBQ 011740Z 17006KT 10SM CLR 26/12 A3009 920 41 2400 170/06 RMK AO2
94908KDBQ DBQ20030701114509307/01/03 11:45:31  5-MIN KDBQ 011745Z 11006KT 10SM CLR 27/13 A3009 920 41 2500 110/06 RMK AO2
94908KDBQ DBQ20030701115012807/01/03 11:50:31  5-MIN KDBQ 011750Z 11005KT 10SM CLR 27/13 A3009 920 43 2500 110/05 RMK AO2 SLP183 T02670133 10272 20183 58004
94908KDBQ DBQ20030701115513107/01/03 11:55:31  5-MIN KDBQ 011755Z VRB04KT 10SM FEW060 27/13 A3009 930 42 2600 VRB/04 RMK AO2 SLP183 T02720133 10272 20183 58012
94908KDBQ DBQ20030701120009607/01/03 12:00:31  5-MIN KDBQ 011800Z 19005KT 10SM FEW060 27/14 A3009 930 43 2600 190/05 RMK AO2
94908KDBQ DBQ20030701120509307/01/03 12:05:31  5-MIN KDBQ 011805Z 17008KT 10SM CLR 27/14 A3008 930 43 2600 170/08 RMK AO2
94908KDBQ DBQ20030701121009307/01/03 12:10:31  5-MIN KDBQ 011810Z VRB04KT 10SM CLR 27/14 A3008 930 43 2600 VRB/04 RMK AO2
94908KDBQ DBQ20030701121509307/01/03 12:15:31  5-MIN KDBQ 011815Z 16007KT 10SM CLR 27/13 A3008 930 42 2600 160/07 RMK AO2
94908KDBQ DBQ20030701122009307/01/03 12:20:31  5-MIN KDBQ 011820Z VRB06KT 10SM CLR 27/13 A3008 930 41 2500 VRB/06 RMK AO2
94908KDBQ DBQ20030701122509307/01/03 12:25:31  5-MIN KDBQ 011825Z VRB04KT 10SM CLR 27/12 A3008 930 40 2500 VRB/04 RMK AO2
94908KDBQ DBQ20030701123009307/01/03 12:30:31  5-MIN KDBQ 011830Z 17005KT 10SM CLR 27/12 A3008 930 39 2600 170/05 RMK AO2
94908KDBQ DBQ20030701123509307/01/03 12:35:31  5-MIN KDBQ 011835Z VRB06KT 10SM CLR 27/13 A3008 930 42 2600 VRB/06 RMK AO2
94908KDBQ DBQ20030701124009307/01/03 12:40:31  5-MIN KDBQ 011840Z 00000KT 10SM CLR 27/12 A3008 930 39 2600 000/00 RMK AO2
94908KDBQ DBQ20030701124509307/01/03 12:45:31  5-MIN KDBQ 011845Z VRB05KT 10SM CLR 27/13 A3007 940 42 2600 VRB/05 RMK AO2
94908KDBQ DBQ20030701125011007/01/03 12:50:31  5-MIN KDBQ 011850Z VRB03KT 10SM CLR 27/13 A3007 940 40 2600 VRB/03 RMK AO2 SLP178 T02720128
94908KDBQ DBQ20030701125511007/01/03 12:55:31  5-MIN KDBQ 011855Z 00000KT 10SM CLR 27/13 A3007 940 43 2500 000/00 RMK AO2 SLP178 T02670133
94908KDBQ DBQ20030701130009307/01/03 13:00:31  5-MIN KDBQ 011900Z 18005KT 10SM CLR 27/14 A3007 940 45 2500 180/05 RMK AO2
94908KDBQ DBQ20030701130509307/01/03 13:05:31  5-MIN KDBQ 011905Z VRB03KT 10SM CLR 27/13 A3007 940 43 2500 VRB/03 RMK AO2
94908KDBQ DBQ20030701131009307/01/03 13:10:31  5-MIN KDBQ 011910Z 18006KT 10SM CLR 27/14 A3007 940 46 2500 180/06 RMK AO2
94908KDBQ DBQ20030701131509307/01/03 13:15:31  5-MIN KDBQ 011915Z VRB05KT 10SM CLR 27/14 A3007 940 45 2500 VRB/05 RMK AO2
94908KDBQ DBQ20030701132009307/01/03 13:20:31  5-MIN KDBQ 011920Z 14004KT 10SM CLR 27/13 A3007 940 43 2500 130/04 RMK AO2
94908KDBQ DBQ20030701132509307/01/03 13:25:31  5-MIN KDBQ 011925Z 00000KT 10SM CLR 27/13 A3007 940 42 2600 000/00 RMK AO2
94908KDBQ DBQ20030701133009307/01/03 13:30:31  5-MIN KDBQ 011930Z 16004KT 10SM CLR 27/14 A3007 940 45 2500 160/04 RMK AO2
94908KDBQ DBQ20030701133509607/01/03 13:35:31  5-MIN KDBQ 011935Z 14005KT 10SM FEW060 27/14 A3006 950 45 2500 140/05 RMK AO2
94908KDBQ DBQ20030701134009607/01/03 13:40:31  5-MIN KDBQ 011940Z 14005KT 10SM SCT060 27/14 A3006 950 45 2500 140/05 RMK AO2
94908KDBQ DBQ20030701134509607/01/03 13:45:31  5-MIN KDBQ 011945Z 00000KT 10SM FEW060 27/13 A3006 950 42 2600 000/00 RMK AO2
94908KDBQ DBQ20030701135011807/01/03 13:50:31  5-MIN KDBQ 011950Z AUTO 22003KT 10SM FEW060 27/14 A3006 950 45 2500 220/03 RMK AO2 SLP173 T02670139
94908KDBQ DBQ20030701135511307/01/03 13:55:31  5-MIN KDBQ 011955Z 00000KT 10SM FEW060 27/14 A3005 960 43 2600 000/00 RMK AO2 SLP171 T02720139
94908KDBQ DBQ20030701140009607/01/03 14:00:31  5-MIN KDBQ 012000Z VRB03KT 10SM FEW060 28/14 A3005 960 42 2700 VRB/03 RMK AO2
94908KDBQ DBQ20030701140509607/01/03 14:05:31  5-MIN KDBQ 012005Z VRB03KT 10SM FEW060 28/14 A3005 960 42 2700 VRB/03 RMK AO2
94908KDBQ DBQ20030701141009607/01/03 14:10:31  5-MIN KDBQ 012010Z VRB03KT 10SM FEW060 28/13 A3005 960 39 2700 VRB/03 RMK AO2
94908KDBQ DBQ20030701141509607/01/03 14:15:31  5-MIN KDBQ 012015Z 00000KT 10SM FEW060 28/13 A3004 960 40 2700 000/00 RMK AO2
94908KDBQ DBQ20030701142009307/01/03 14:20:31  5-MIN KDBQ 012020Z 19005KT 10SM CLR 28/14 A3004 960 43 2700 190/05 RMK AO2
94908KDBQ DBQ20030701142509607/01/03 14:25:31  5-MIN KDBQ 012025Z 19008KT 10SM FEW060 28/14 A3004 970 43 2700 190/08 RMK AO2
94908KDBQ DBQ20030701143009607/01/03 14:30:31  5-MIN KDBQ 012030Z VRB05KT 10SM FEW060 28/16 A3004 970 46 2700 VRB/05 RMK AO2
94908KDBQ DBQ20030701143509607/01/03 14:35:31  5-MIN KDBQ 012035Z VRB03KT 10SM FEW060 27/14 A3004 970 45 2600 VRB/03 RMK AO2
94908KDBQ DBQ20030701144009607/01/03 14:40:31  5-MIN KDBQ 012040Z VRB05KT 10SM FEW060 28/15 A3003 970 45 2700 VRB/05 RMK AO2
94908KDBQ DBQ20030701144509607/01/03 14:45:31  5-MIN KDBQ 012045Z 16005KT 10SM FEW060 28/14 A3003 970 42 2700 160/05 RMK AO2
94908KDBQ DBQ20030701145011907/01/03 14:50:31  5-MIN KDBQ 012050Z 17005KT 10SM FEW060 28/14 A3003 980 43 2700 170/05 RMK AO2 SLP164 T02780144 58012
94908KDBQ DBQ20030701145511907/01/03 14:55:31  5-MIN KDBQ 012055Z 20004KT 10SM FEW060 28/14 A3003 980 43 2700 200/04 RMK AO2 SLP163 T02780144 58019
94908KDBQ DBQ20030701150009307/01/03 15:00:31  5-MIN KDBQ 012100Z 18003KT 10SM CLR 28/14 A3003 980 43 2700 180/03 RMK AO2
94908KDBQ DBQ20030701150509307/01/03 15:05:31  5-MIN KDBQ 012105Z 18005KT 10SM CLR 28/14 A3003 980 43 2700 170/05 RMK AO2
94908KDBQ DBQ20030701151009307/01/03 15:10:31  5-MIN KDBQ 012110Z 21005KT 10SM CLR 28/16 A3003 980 46 2700 210/05 RMK AO2
94908KDBQ DBQ20030701151509307/01/03 15:15:31  5-MIN KDBQ 012115Z 00000KT 10SM CLR 28/14 A3003 980 43 2700 000/00 RMK AO2
94908KDBQ DBQ20030701152009307/01/03 15:20:31  5-MIN KDBQ 012120Z 00000KT 10SM CLR 28/14 A3003 980 42 2800 000/00 RMK AO2
94908KDBQ DBQ20030701152509307/01/03 15:25:31  5-MIN KDBQ 012125Z 21004KT 10SM CLR 28/15 A3002 980 45 2700 210/04 RMK AO2
94908KDBQ DBQ20030701153009307/01/03 15:30:31  5-MIN KDBQ 012130Z 18004KT 10SM CLR 27/14 A3002 990 45 2700 180/04 RMK AO2
94908KDBQ DBQ20030701153509307/01/03 15:35:31  5-MIN KDBQ 012135Z 17004KT 10SM CLR 27/14 A3002 990 43 2700 170/04 RMK AO2
94908KDBQ DBQ20030701154009307/01/03 15:40:31  5-MIN KDBQ 012140Z 18004KT 10SM CLR 28/14 A3002 990 43 2700 170/04 RMK AO2
94908KDBQ DBQ20030701154509607/01/03 15:45:31  5-MIN KDBQ 012145Z 00000KT 10SM FEW065 28/14 A3002 990 42 2700 000/00 RMK AO2
94908KDBQ DBQ20030701155011307/01/03 15:50:31  5-MIN KDBQ 012150Z 00000KT 10SM SCT065 28/14 A3002 990 40 2800 000/00 RMK AO2 SLP159 T02830139
94908KDBQ DBQ20030701155511307/01/03 15:55:31  5-MIN KDBQ 012155Z 00000KT 10SM FEW065 28/14 A3001 990 42 2800 000/00 RMK AO2 SLP158 T02830144
94908KDBQ DBQ20030701160009607/01/03 16:00:31  5-MIN KDBQ 012200Z 00000KT 10SM FEW065 28/14 A3001 990 42 2800 000/00 RMK AO2
94908KDBQ DBQ20030701160509707/01/03 16:05:31  5-MIN KDBQ 012205Z 00000KT 10SM SCT060 28/14 A3001 1000 42 2800 000/00 RMK AO2
94908KDBQ DBQ20030701161009607/01/03 16:10:31  5-MIN KDBQ 012210Z 01004KT 10SM BKN060 28/14 A3001 990 42 2800 010/04 RMK AO2
94908KDBQ DBQ20030701161509707/01/03 16:15:31  5-MIN KDBQ 012215Z 25004KT 10SM BKN060 28/16 A3001 1000 46 2700 250/04 RMK AO2
94908KDBQ DBQ20030701162009707/01/03 16:20:31  5-MIN KDBQ 012220Z 21003KT 10SM BKN060 28/16 A3001 1000 46 2700 210/03 RMK AO2
94908KDBQ DBQ20030701162509707/01/03 16:25:31  5-MIN KDBQ 012225Z 23006KT 10SM SCT060 28/15 A3001 1000 45 2700 230/06 RMK AO2
94908KDBQ DBQ20030701163009707/01/03 16:30:31  5-MIN KDBQ 012230Z 26005KT 10SM SCT060 28/14 A3001 1000 43 2700 250/05 RMK AO2
94908KDBQ DBQ20030701163509707/01/03 16:35:31  5-MIN KDBQ 012235Z 25004KT 10SM SCT060 28/14 A3001 1000 43 2700 250/04 RMK AO2
94908KDBQ DBQ20030701164009707/01/03 16:40:31  5-MIN KDBQ 012240Z 24004KT 10SM FEW060 28/14 A3000 1000 42 2700 230/04 RMK AO2
94908KDBQ DBQ20030701164509407/01/03 16:45:31  5-MIN KDBQ 012245Z 00000KT 10SM CLR 28/14 A3000 1000 40 2800 000/00 RMK AO2
94908KDBQ DBQ20030701165011107/01/03 16:50:31  5-MIN KDBQ 012250Z 00000KT 10SM CLR 28/14 A3001 1000 40 2800 000/00 RMK AO2 SLP155 T02830139
94908KDBQ DBQ20030701165511107/01/03 16:55:31  5-MIN KDBQ 012255Z 00000KT 10SM CLR 28/13 A3000 1000 39 2800 000/00 RMK AO2 SLP154 T02830133
94908KDBQ DBQ20030701170009407/01/03 17:00:31  5-MIN KDBQ 012300Z 31003KT 10SM CLR 28/15 A3000 1000 43 2800 310/03 RMK AO2
94908KDBQ DBQ20030701170509407/01/03 17:05:31  5-MIN KDBQ 012305Z 35003KT 10SM CLR 28/15 A3000 1000 43 2800 340/03 RMK AO2
94908KDBQ DBQ20030701171009707/01/03 17:10:31  5-MIN KDBQ 012310Z 00000KT 10SM FEW060 28/15 A3000 1000 43 2800 000/00 RMK AO2
94908KDBQ DBQ20030701171509707/01/03 17:15:31  5-MIN KDBQ 012315Z 07005KT 10SM SCT060 28/14 A3000 1010 43 2700 070/05 RMK AO2
94908KDBQ DBQ20030701172009707/01/03 17:20:31  5-MIN KDBQ 012320Z VRB06KT 10SM SCT055 28/15 A3000 1010 45 2700 VRB/06 RMK AO2
94908KDBQ DBQ20030701172509707/01/03 17:25:31  5-MIN KDBQ 012325Z 04005KT 10SM BKN055 27/16 A3000 1010 48 2700 040/05 RMK AO2
94908KDBQ DBQ20030701173009707/01/03 17:30:31  5-MIN KDBQ 012330Z 04006KT 10SM BKN055 27/16 A3000 1010 48 2700 030/06 RMK AO2
94908KDBQ DBQ20030701173509707/01/03 17:35:31  5-MIN KDBQ 012335Z 04006KT 10SM SCT055 27/16 A2999 1010 48 2700 040/06 RMK AO2
94908KDBQ DBQ20030701174009707/01/03 17:40:31  5-MIN KDBQ 012340Z 06006KT 10SM SCT055 27/16 A2999 1010 50 2700 050/06 RMK AO2
94908KDBQ DBQ20030701174509707/01/03 17:45:31  5-MIN KDBQ 012345Z 08006KT 10SM FEW055 27/16 A2999 1010 48 2700 080/06 RMK AO2
94908KDBQ DBQ20030701175013207/01/03 17:50:31  5-MIN KDBQ 012350Z 08005KT 10SM FEW055 27/15 A2999 1010 46 2700 080/05 RMK AO2 SLP150 T02720150 10283 20267 58019
94908KDBQ DBQ20030701175512907/01/03 17:55:31  5-MIN KDBQ 012355Z 08006KT 10SM CLR 27/14 A2999 1010 45 2700 080/06 RMK AO2 SLP150 T02720144 10283 20267 56013
94908KDBQ DBQ20030701180009407/01/03 18:00:31  5-MIN KDBQ 020000Z 07006KT 10SM CLR 27/15 A2999 1020 46 2700 070/06 RMK AO2
94908KDBQ DBQ20030701180509407/01/03 18:05:31  5-MIN KDBQ 020005Z 08005KT 10SM CLR 27/16 A2999 1010 48 2700 080/05 RMK AO2
94908KDBQ DBQ20030701181009407/01/03 18:10:31  5-MIN KDBQ 020010Z 10005KT 10SM CLR 27/16 A2999 1020 48 2700 100/05 RMK AO2
94908KDBQ DBQ20030701181509407/01/03 18:15:31  5-MIN KDBQ 020015Z 11005KT 10SM CLR 27/16 A2999 1020 50 2600 100/05 RMK AO2
94908KDBQ DBQ20030701182009407/01/03 18:20:31  5-MIN KDBQ 020020Z 11006KT 10SM CLR 27/16 A2999 1020 50 2600 110/06 RMK AO2
94908KDBQ DBQ20030701182509407/01/03 18:25:31  5-MIN KDBQ 020025Z 10005KT 10SM CLR 27/16 A2999 1020 52 2600 100/05 RMK AO2
94908KDBQ DBQ20030701183009407/01/03 18:30:31  5-MIN KDBQ 020030Z 11005KT 10SM CLR 26/16 A2998 1020 53 2600 110/05 RMK AO2
94908KDBQ DBQ20030701183510407/01/03 18:35:31  5-MIN KDBQ 020035Z AUTO 11005KT 10SM CLR 26/17 A2998 1020 55 2600 110/05 RMK AO2 TSNO
94908KDBQ DBQ20030701184010407/01/03 18:40:31  5-MIN KDBQ 020040Z AUTO 11005KT 10SM CLR 26/17 A2998 1020 55 2600 110/05 RMK AO2 TSNO
94908KDBQ DBQ20030701184510407/01/03 18:45:31  5-MIN KDBQ 020045Z AUTO 11005KT 10SM CLR 26/17 A2998 1020 57 2500 110/05 RMK AO2 TSNO
94908KDBQ DBQ20030701185012107/01/03 18:50:31  5-MIN KDBQ 020050Z AUTO 11005KT 10SM CLR 26/17 A2998 1020 59 2500 110/05 RMK AO2 SLP147 T02560172 TSNO
94908KDBQ DBQ20030701185512107/01/03 18:55:31  5-MIN KDBQ 020055Z AUTO 12005KT 10SM CLR 25/17 A2998 1020 61 2400 120/05 RMK AO2 SLP146 T02500172 TSNO
94908KDBQ DBQ20030701190010407/01/03 19:00:31  5-MIN KDBQ 020100Z AUTO 11004KT 10SM CLR 25/17 A2998 1020 61 2400 110/04 RMK AO2 TSNO
94908KDBQ DBQ20030701190510407/01/03 19:05:31  5-MIN KDBQ 020105Z AUTO 12005KT 10SM CLR 25/17 A2998 1020 61 2400 110/05 RMK AO2 TSNO
94908KDBQ DBQ20030701191010407/01/03 19:10:31  5-MIN KDBQ 020110Z AUTO 12004KT 10SM CLR 24/17 A2998 1020 63 2400 120/04 RMK AO2 TSNO
94908KDBQ DBQ20030701191510407/01/03 19:15:31  5-MIN KDBQ 020115Z AUTO 13004KT 10SM CLR 24/17 A2998 1020 63 2400 130/04 RMK AO2 TSNO
94908KDBQ DBQ20030701192010407/01/03 19:20:31  5-MIN KDBQ 020120Z AUTO 13004KT 10SM CLR 24/18 A2998 1030 68 2300 130/04 RMK AO2 TSNO
94908KDBQ DBQ20030701192510407/01/03 19:25:31  5-MIN KDBQ 020125Z AUTO 13003KT 10SM CLR 23/17 A2998 1030 68 2300 130/03 RMK AO2 TSNO
94908KDBQ DBQ20030701193010407/01/03 19:30:31  5-MIN KDBQ 020130Z AUTO 13004KT 10SM CLR 23/17 A2998 1030 68 2300 130/04 RMK AO2 TSNO
94908KDBQ DBQ20030701193510407/01/03 19:35:31  5-MIN KDBQ 020135Z AUTO 13004KT 10SM CLR 23/17 A2998 1030 66 2300 130/04 RMK AO2 TSNO
94908KDBQ DBQ20030701194010407/01/03 19:40:31  5-MIN KDBQ 020140Z AUTO 13005KT 10SM CLR 23/17 A2998 1030 68 2300 130/05 RMK AO2 TSNO
94908KDBQ DBQ20030701194510407/01/03 19:45:31  5-MIN KDBQ 020145Z AUTO 13005KT 10SM CLR 23/17 A2997 1030 70 2200 130/05 RMK AO2 TSNO
94908KDBQ DBQ20030701195012107/01/03 19:50:31  5-MIN KDBQ 020150Z AUTO 13004KT 10SM CLR 23/17 A2998 1030 70 2200 130/04 RMK AO2 SLP144 T02280172 TSNO
94908KDBQ DBQ20030701195512107/01/03 19:55:31  5-MIN KDBQ 020155Z AUTO 13004KT 10SM CLR 23/17 A2998 1030 68 2200 130/04 RMK AO2 SLP144 T02280167 TSNO
94908KDBQ DBQ20030701200010407/01/03 20:00:31  5-MIN KDBQ 020200Z AUTO 13004KT 10SM CLR 23/17 A2998 1030 68 2200 130/04 RMK AO2 TSNO
94908KDBQ DBQ20030701200510307/01/03 20:05:31  5-MIN KDBQ 020205Z AUTO 13004KT 9SM CLR 23/17 A2997 1030 68 2200 130/04 RMK AO2 TSNO
94908KDBQ DBQ20030701201010407/01/03 20:10:31  5-MIN KDBQ 020210Z AUTO 13004KT 10SM CLR 22/17 A2997 1030 70 2100 130/04 RMK AO2 TSNO
94908KDBQ DBQ20030701201510407/01/03 20:15:31  5-MIN KDBQ 020215Z AUTO 13004KT 10SM CLR 22/16 A2998 1030 68 2100 130/04 RMK AO2 TSNO
94908KDBQ DBQ20030701202010407/01/03 20:20:31  5-MIN KDBQ 020220Z AUTO 13004KT 10SM CLR 22/16 A2998 1020 68 2100 130/04 RMK AO2 TSNO
94908KDBQ DBQ20030701202510407/01/03 20:25:31  5-MIN KDBQ 020225Z AUTO 13003KT 10SM CLR 22/16 A2998 1020 68 2100 130/03 RMK AO2 TSNO
94908KDBQ DBQ20030701203010407/01/03 20:30:31  5-MIN KDBQ 020230Z AUTO 00000KT 10SM CLR 21/16 A2998 1020 75 1900 000/00 RMK AO2 TSNO
94908KDBQ DBQ20030701203510407/01/03 20:35:31  5-MIN KDBQ 020235Z AUTO 00000KT 10SM CLR 20/16 A2998 1020 78 1900 000/00 RMK AO2 TSNO
94908KDBQ DBQ20030701204010407/01/03 20:40:31  5-MIN KDBQ 020240Z AUTO 14003KT 10SM CLR 21/16 A2998 1020 73 2000 140/03 RMK AO2 TSNO
94908KDBQ DBQ20030701204510407/01/03 20:45:31  5-MIN KDBQ 020245Z AUTO 13003KT 10SM CLR 21/16 A2998 1020 73 2000 130/03 RMK AO2 TSNO
94908KDBQ DBQ20030701205012707/01/03 20:50:31  5-MIN KDBQ 020250Z AUTO 12003KT 10SM CLR 21/16 A2998 1020 75 1900 120/03 RMK AO2 SLP147 T02060161 56013 TSNO
94908KDBQ DBQ20030701205512707/01/03 20:55:31  5-MIN KDBQ 020255Z AUTO 12003KT 10SM CLR 21/16 A2998 1020 75 1900 120/03 RMK AO2 SLP147 T02060161 55002 TSNO
94908KDBQ DBQ20030701210010407/01/03 21:00:31  5-MIN KDBQ 020300Z AUTO 12003KT 10SM CLR 22/16 A2998 1020 70 2100 120/03 RMK AO2 TSNO
94908KDBQ DBQ20030701210510407/01/03 21:05:31  5-MIN KDBQ 020305Z AUTO 13003KT 10SM CLR 21/16 A2998 1020 73 2000 120/03 RMK AO2 TSNO
94908KDBQ DBQ20030701211010407/01/03 21:10:31  5-MIN KDBQ 020310Z AUTO 00000KT 10SM CLR 21/16 A2998 1020 73 2000 000/00 RMK AO2 TSNO
94908KDBQ DBQ20030701211510407/01/03 21:15:31  5-MIN KDBQ 020315Z AUTO 00000KT 10SM CLR 21/16 A2998 1020 73 2000 000/00 RMK AO2 TSNO
94908KDBQ DBQ20030701212010407/01/03 21:20:31  5-MIN KDBQ 020320Z AUTO 00000KT 10SM CLR 21/16 A2998 1020 70 2000 000/00 RMK AO2 TSNO
94908KDBQ DBQ20030701212510407/01/03 21:25:31  5-MIN KDBQ 020325Z AUTO 00000KT 10SM CLR 21/16 A2998 1020 70 2000 000/00 RMK AO2 TSNO
94908KDBQ DBQ20030701213010407/01/03 21:30:31  5-MIN KDBQ 020330Z AUTO 14003KT 10SM CLR 20/16 A2998 1020 75 1900 140/03 RMK AO2 TSNO
94908KDBQ DBQ20030701213510407/01/03 21:35:31  5-MIN KDBQ 020335Z AUTO 15003KT 10SM CLR 20/16 A2998 1020 75 1900 150/03 RMK AO2 TSNO
94908KDBQ DBQ20030701214010407/01/03 21:40:31  5-MIN KDBQ 020340Z AUTO 00000KT 10SM CLR 21/16 A2998 1020 73 1900 000/00 RMK AO2 TSNO
94908KDBQ DBQ20030701214510407/01/03 21:45:31  5-MIN KDBQ 020345Z AUTO 00000KT 10SM CLR 21/16 A2999 1020 73 1900 000/00 RMK AO2 TSNO
94908KDBQ DBQ20030701215012107/01/03 21:50:31  5-MIN KDBQ 020350Z AUTO 00000KT 10SM CLR 21/16 A2999 1020 73 1900 000/00 RMK AO2 SLP148 T02060156 TSNO
94908KDBQ DBQ20030701215512107/01/03 21:55:31  5-MIN KDBQ 020355Z AUTO 00000KT 10SM CLR 20/16 A2999 1020 75 1900 000/00 RMK AO2 SLP148 T02000156 TSNO
94908KDBQ DBQ20030701220010407/01/03 22:00:31  5-MIN KDBQ 020400Z AUTO 00000KT 10SM CLR 20/15 A2999 1020 72 1900 000/00 RMK AO2 TSNO
94908KDBQ DBQ20030701220510407/01/03 22:05:31  5-MIN KDBQ 020405Z AUTO 00000KT 10SM CLR 19/15 A2999 1020 78 1700 000/00 RMK AO2 TSNO
94908KDBQ DBQ20030701221010407/01/03 22:10:31  5-MIN KDBQ 020410Z AUTO 00000KT 10SM CLR 19/15 A2999 1020 75 1800 000/00 RMK AO2 TSNO
94908KDBQ DBQ20030701221510407/01/03 22:15:31  5-MIN KDBQ 020415Z AUTO 00000KT 10SM CLR 20/15 A2999 1020 72 1900 000/00 RMK AO2 TSNO
94908KDBQ DBQ20030701222010407/01/03 22:20:31  5-MIN KDBQ 020420Z AUTO 12003KT 10SM CLR 20/16 A2999 1020 75 1900 120/03 RMK AO2 TSNO
94908KDBQ DBQ20030701222510407/01/03 22:25:31  5-MIN KDBQ 020425Z AUTO 12003KT 10SM CLR 19/16 A2999 1010 78 1800 120/03 RMK AO2 TSNO
94908KDBQ DBQ20030701223010407/01/03 22:30:31  5-MIN KDBQ 020430Z AUTO 00000KT 10SM CLR 20/16 A2999 1020 75 1900 000/00 RMK AO2 TSNO
94908KDBQ DBQ20030701223510407/01/03 22:35:31  5-MIN KDBQ 020435Z AUTO 00000KT 10SM CLR 20/16 A2999 1010 75 1900 000/00 RMK AO2 TSNO
94908KDBQ DBQ20030701224010407/01/03 22:40:31  5-MIN KDBQ 020440Z AUTO 00000KT 10SM CLR 19/15 A2999 1010 75 1800 000/00 RMK AO2 TSNO
94908KDBQ DBQ20030701224510407/01/03 22:45:31  5-MIN KDBQ 020445Z AUTO 12003KT 10SM CLR 20/15 A2999 1010 72 1900 120/03 RMK AO2 TSNO
94908KDBQ DBQ20030701225012107/01/03 22:50:31  5-MIN KDBQ 020450Z AUTO 11003KT 10SM CLR 19/15 A2999 1010 75 1800 110/03 RMK AO2 SLP149 T01940150 TSNO
94908KDBQ DBQ20030701225512107/01/03 22:55:31  5-MIN KDBQ 020455Z AUTO 12003KT 10SM CLR 19/15 A2999 1020 75 1800 120/03 RMK AO2 SLP148 T01940150 TSNO
94908KDBQ DBQ20030701230010407/01/03 23:00:31  5-MIN KDBQ 020500Z AUTO 12003KT 10SM CLR 20/15 A2999 1020 72 1900 120/03 RMK AO2 TSNO
94908KDBQ DBQ20030701230510407/01/03 23:05:31  5-MIN KDBQ 020505Z AUTO 13003KT 10SM CLR 20/15 A2999 1020 72 1900 130/03 RMK AO2 TSNO
94908KDBQ DBQ20030701231010407/01/03 23:10:31  5-MIN KDBQ 020510Z AUTO 12003KT 10SM CLR 20/15 A2999 1020 72 1900 120/03 RMK AO2 TSNO
94908KDBQ DBQ20030701231510407/01/03 23:15:31  5-MIN KDBQ 020515Z AUTO 11003KT 10SM CLR 20/15 A2999 1020 72 1900 110/03 RMK AO2 TSNO
94908KDBQ DBQ20030701232010407/01/03 23:20:31  5-MIN KDBQ 020520Z AUTO 12003KT 10SM CLR 20/14 A2999 1020 70 1900 110/03 RMK AO2 TSNO
94908KDBQ DBQ20030701232510407/01/03 23:25:31  5-MIN KDBQ 020525Z AUTO 13003KT 10SM CLR 20/14 A2999 1020 70 1900 130/03 RMK AO2 TSNO
94908KDBQ DBQ20030701233010407/01/03 23:30:31  5-MIN KDBQ 020530Z AUTO 14003KT 10SM CLR 19/14 A2999 1020 72 1800 140/03 RMK AO2 TSNO
94908KDBQ DBQ20030701233510407/01/03 23:35:31  5-MIN KDBQ 020535Z AUTO 13003KT 10SM CLR 19/14 A2998 1020 75 1700 130/03 RMK AO2 TSNO
94908KDBQ DBQ20030701234010407/01/03 23:40:31  5-MIN KDBQ 020540Z AUTO 00000KT 10SM CLR 19/14 A2998 1020 72 1800 000/00 RMK AO2 TSNO
94908KDBQ DBQ20030701234510407/01/03 23:45:31  5-MIN KDBQ 020545Z AUTO 00000KT 10SM CLR 19/14 A2998 1020 72 1800 000/00 RMK AO2 TSNO
94908KDBQ DBQ20030701235014907/01/03 23:50:31  5-MIN KDBQ 020550Z AUTO 00000KT 10SM CLR 19/14 A2998 1020 75 1800 000/00 RMK AO2 SLP146 T01890144 10272 20189 402830139 55002 TSNO
94908KDBQ DBQ20030701235514907/01/03 23:55:31  5-MIN KDBQ 020555Z AUTO 00000KT 10SM CLR 19/14 A2998 1020 72 1800 000/00 RMK AO2 SLP145 T01940144 10272 20189 402830139 58002 TSNO
94908KDBQ DBQ20030702000010407/02/03 00:00:31  5-MIN KDBQ 020600Z AUTO 14003KT 10SM CLR 19/14 A2998 1030 72 1800 140/03 RMK AO2 TSNO
94908KDBQ DBQ20030702000510407/02/03 00:05:31  5-MIN KDBQ 020605Z AUTO 14003KT 10SM CLR 20/14 A2998 1030 70 1900 140/03 RMK AO2 TSNO
94908KDBQ DBQ20030702001010407/02/03 00:10:31  5-MIN KDBQ 020610Z AUTO 14003KT 10SM CLR 21/14 A2998 1030 67 1900 140/03 RMK AO2 TSNO
94908KDBQ DBQ20030702001510407/02/03 00:15:31  5-MIN KDBQ 020615Z AUTO 14003KT 10SM CLR 21/14 A2998 1030 67 1900 140/03 RMK AO2 TSNO
94908KDBQ DBQ20030702002010407/02/03 00:20:31  5-MIN KDBQ 020620Z AUTO 13003KT 10SM CLR 21/14 A2998 1030 67 2000 130/03 RMK AO2 TSNO
94908KDBQ DBQ20030702002510407/02/03 00:25:31  5-MIN KDBQ 020625Z AUTO 00000KT 10SM CLR 20/14 A2998 1030 70 1900 000/00 RMK AO2 TSNO
94908KDBQ DBQ20030702003010407/02/03 00:30:31  5-MIN KDBQ 020630Z AUTO 00000KT 10SM CLR 19/14 A2997 1030 70 1800 000/00 RMK AO2 TSNO
94908KDBQ DBQ20030702003510407/02/03 00:35:31  5-MIN KDBQ 020635Z AUTO 13003KT 10SM CLR 19/14 A2997 1030 70 1800 130/03 RMK AO2 TSNO
94908KDBQ DBQ20030702004010407/02/03 00:40:31  5-MIN KDBQ 020640Z AUTO 13003KT 10SM CLR 19/14 A2997 1030 70 1800 130/03 RMK AO2 TSNO
94908KDBQ DBQ20030702004510407/02/03 00:45:31  5-MIN KDBQ 020645Z AUTO 12003KT 10SM CLR 20/14 A2997 1030 67 1900 120/03 RMK AO2 TSNO
94908KDBQ DBQ20030702005012107/02/03 00:50:31  5-MIN KDBQ 020650Z AUTO 12004KT 10SM CLR 20/14 A2997 1030 67 1900 120/04 RMK AO2 SLP142 T02000139 TSNO
94908KDBQ DBQ20030702005512107/02/03 00:55:31  5-MIN KDBQ 020655Z AUTO 13003KT 10SM CLR 20/14 A2997 1030 67 1900 130/03 RMK AO2 SLP142 T02000139 TSNO
94908KDBQ DBQ20030702010010407/02/03 01:00:31  5-MIN KDBQ 020700Z AUTO VRB03KT 10SM CLR 20/14 A2997 1030 67 1900 VRB/03 RMK AO2 TSNO
94908KDBQ DBQ20030702010510407/02/03 01:05:31  5-MIN KDBQ 020705Z AUTO 14003KT 10SM CLR 20/14 A2997 1030 67 1900 130/03 RMK AO2 TSNO
94908KDBQ DBQ20030702011010407/02/03 01:10:31  5-MIN KDBQ 020710Z AUTO 00000KT 10SM CLR 19/14 A2997 1030 70 1800 000/00 RMK AO2 TSNO
94908KDBQ DBQ20030702011510407/02/03 01:15:31  5-MIN KDBQ 020715Z AUTO 13003KT 10SM CLR 20/14 A2997 1030 67 1900 130/03 RMK AO2 TSNO
94908KDBQ DBQ20030702012010407/02/03 01:20:31  5-MIN KDBQ 020720Z AUTO 13003KT 10SM CLR 20/14 A2997 1030 67 1900 130/03 RMK AO2 TSNO
94908KDBQ DBQ20030702012510407/02/03 01:25:31  5-MIN KDBQ 020725Z AUTO 13003KT 10SM CLR 20/14 A2997 1030 67 1900 130/03 RMK AO2 TSNO
94908KDBQ DBQ20030702013010407/02/03 01:30:31  5-MIN KDBQ 020730Z AUTO 00000KT 10SM CLR 20/14 A2997 1030 67 1900 000/00 RMK AO2 TSNO
94908KDBQ DBQ20030702013510407/02/03 01:35:31  5-MIN KDBQ 020735Z AUTO 00000KT 10SM CLR 19/14 A2997 1040 70 1800 000/00 RMK AO2 TSNO
94908KDBQ DBQ20030702014010407/02/03 01:40:31  5-MIN KDBQ 020740Z AUTO 00000KT 10SM CLR 18/14 A2996 1040 75 1700 000/00 RMK AO2 TSNO
94908KDBQ DBQ20030702014510407/02/03 01:45:31  5-MIN KDBQ 020745Z AUTO 00000KT 10SM CLR 18/14 A2996 1040 75 1700 000/00 RMK AO2 TSNO
94908KDBQ DBQ20030702015012107/02/03 01:50:31  5-MIN KDBQ 020750Z AUTO 13003KT 10SM CLR 19/14 A2996 1040 72 1800 130/03 RMK AO2 SLP141 T01890139 TSNO
94908KDBQ DBQ20030702015512107/02/03 01:55:31  5-MIN KDBQ 020755Z AUTO VRB03KT 10SM CLR 20/14 A2997 1040 67 1900 VRB/03 RMK AO2 SLP141 T02000139 TSNO
94908KDBQ DBQ20030702020010407/02/03 02:00:31  5-MIN KDBQ 020800Z AUTO 00000KT 10SM CLR 19/14 A2996 1040 70 1800 000/00 RMK AO2 TSNO
94908KDBQ DBQ20030702020510407/02/03 02:05:31  5-MIN KDBQ 020805Z AUTO 00000KT 10SM CLR 19/14 A2996 1040 72 1800 000/00 RMK AO2 TSNO
94908KDBQ DBQ20030702021010407/02/03 02:10:31  5-MIN KDBQ 020810Z AUTO 00000KT 10SM CLR 19/14 A2996 1040 70 1800 000/00 RMK AO2 TSNO
94908KDBQ DBQ20030702021510407/02/03 02:15:31  5-MIN KDBQ 020815Z AUTO 00000KT 10SM CLR 19/14 A2996 1040 70 1800 000/00 RMK AO2 TSNO
94908KDBQ DBQ20030702022010407/02/03 02:20:31  5-MIN KDBQ 020820Z AUTO 00000KT 10SM CLR 19/14 A2996 1040 70 1800 000/00 RMK AO2 TSNO
94908KDBQ DBQ20030702022510407/02/03 02:25:31  5-MIN KDBQ 020825Z AUTO 00000KT 10SM CLR 19/14 A2996 1040 72 1800 000/00 RMK AO2 TSNO
94908KDBQ DBQ20030702023010407/02/03 02:30:31  5-MIN KDBQ 020830Z AUTO 00000KT 10SM CLR 19/14 A2996 1040 72 1800 000/00 RMK AO2 TSNO
94908KDBQ DBQ20030702023510407/02/03 02:35:31  5-MIN KDBQ 020835Z AUTO 00000KT 10SM CLR 18/14 A2996 1040 75 1700 000/00 RMK AO2 TSNO
94908KDBQ DBQ20030702024010407/02/03 02:40:31  5-MIN KDBQ 020840Z AUTO 00000KT 10SM CLR 18/14 A2996 1040 75 1700 000/00 RMK AO2 TSNO
94908KDBQ DBQ20030702024510407/02/03 02:45:31  5-MIN KDBQ 020845Z AUTO 00000KT 10SM CLR 18/14 A2996 1040 75 1700 000/00 RMK AO2 TSNO
94908KDBQ DBQ20030702025012707/02/03 02:50:31  5-MIN KDBQ 020850Z AUTO 21003KT 10SM CLR 18/14 A2996 1040 78 1700 210/03 RMK AO2 SLP139 T01780139 58002 TSNO
94908KDBQ DBQ20030702025512707/02/03 02:55:31  5-MIN KDBQ 020855Z AUTO 22003KT 10SM CLR 18/14 A2996 1040 75 1700 220/03 RMK AO2 SLP138 T01830139 58007 TSNO
94908KDBQ DBQ20030702030010407/02/03 03:00:31  5-MIN KDBQ 020900Z AUTO 21003KT 10SM CLR 18/14 A2996 1040 78 1700 210/03 RMK AO2 TSNO
94908KDBQ DBQ20030702030510407/02/03 03:05:31  5-MIN KDBQ 020905Z AUTO 20003KT 10SM CLR 17/14 A2996 1040 80 1600 200/03 RMK AO2 TSNO
94908KDBQ DBQ20030702031010407/02/03 03:10:31  5-MIN KDBQ 020910Z AUTO 00000KT 10SM CLR 18/14 A2996 1050 78 1700 000/00 RMK AO2 TSNO
94908KDBQ DBQ20030702031510407/02/03 03:15:31  5-MIN KDBQ 020915Z AUTO 00000KT 10SM CLR 18/14 A2995 1050 75 1700 000/00 RMK AO2 TSNO
94908KDBQ DBQ20030702032010407/02/03 03:20:31  5-MIN KDBQ 020920Z AUTO 00000KT 10SM CLR 18/14 A2995 1050 75 1700 000/00 RMK AO2 TSNO
94908KDBQ DBQ20030702032510407/02/03 03:25:31  5-MIN KDBQ 020925Z AUTO 00000KT 10SM CLR 18/14 A2995 1050 75 1700 000/00 RMK AO2 TSNO
94908KDBQ DBQ20030702033010407/02/03 03:30:31  5-MIN KDBQ 020930Z AUTO 00000KT 10SM CLR 18/14 A2995 1050 75 1700 000/00 RMK AO2 TSNO
94908KDBQ DBQ20030702033510407/02/03 03:35:31  5-MIN KDBQ 020935Z AUTO 00000KT 10SM CLR 18/14 A2995 1050 75 1700 000/00 RMK AO2 TSNO
94908KDBQ DBQ20030702034010407/02/03 03:40:31  5-MIN KDBQ 020940Z AUTO VRB04KT 10SM CLR 18/14 A2995 1050 78 1700 VRB/04 RMK AO2 TSNO
94908KDBQ DBQ20030702034510407/02/03 03:45:31  5-MIN KDBQ 020945Z AUTO 00000KT 10SM CLR 18/14 A2995 1050 78 1700 000/00 RMK AO2 TSNO
94908KDBQ DBQ20030702035012107/02/03 03:50:31  5-MIN KDBQ 020950Z AUTO 00000KT 10SM CLR 18/14 A2995 1050 75 1700 000/00 RMK AO2 SLP136 T01830139 TSNO
94908KDBQ DBQ20030702035512107/02/03 03:55:31  5-MIN KDBQ 020955Z AUTO 22003KT 10SM CLR 18/14 A2995 1050 75 1700 210/03 RMK AO2 SLP136 T01830139 TSNO
94908KDBQ DBQ20030702040010407/02/03 04:00:31  5-MIN KDBQ 021000Z AUTO 21004KT 10SM CLR 17/13 A2995 1050 80 1500 210/04 RMK AO2 TSNO
94908KDBQ DBQ20030702040510407/02/03 04:05:31  5-MIN KDBQ 021005Z AUTO 21004KT 10SM CLR 17/14 A2995 1050 80 1600 210/04 RMK AO2 TSNO
94908KDBQ DBQ20030702041010407/02/03 04:10:31  5-MIN KDBQ 021010Z AUTO 20005KT 10SM CLR 18/14 A2995 1050 78 1700 200/05 RMK AO2 TSNO
94908KDBQ DBQ20030702041510407/02/03 04:15:31  5-MIN KDBQ 021015Z AUTO 20005KT 10SM CLR 18/14 A2995 1050 75 1700 200/05 RMK AO2 TSNO
94908KDBQ DBQ20030702042010407/02/03 04:20:31  5-MIN KDBQ 021020Z AUTO 19006KT 10SM CLR 18/14 A2995 1050 78 1700 190/06 RMK AO2 TSNO
94908KDBQ DBQ20030702042510407/02/03 04:25:31  5-MIN KDBQ 021025Z AUTO 20005KT 10SM CLR 18/14 A2995 1050 78 1700 190/05 RMK AO2 TSNO
94908KDBQ DBQ20030702043010407/02/03 04:30:31  5-MIN KDBQ 021030Z AUTO 20005KT 10SM CLR 18/14 A2995 1050 78 1700 200/05 RMK AO2 TSNO
94908KDBQ DBQ20030702043510407/02/03 04:35:31  5-MIN KDBQ 021035Z AUTO 20005KT 10SM CLR 18/14 A2995 1050 78 1700 200/05 RMK AO2 TSNO
94908KDBQ DBQ20030702044009307/02/03 04:40:31  5-MIN KDBQ 021040Z 21004KT 9SM CLR 17/14 A2995 1050 80 1600 210/04 RMK AO2
94908KDBQ DBQ20030702044509307/02/03 04:45:31  5-MIN KDBQ 021045Z 21005KT 9SM CLR 17/14 A2995 1050 80 1600 210/05 RMK AO2
94908KDBQ DBQ20030702045011007/02/03 04:50:31  5-MIN KDBQ 021050Z 20006KT 9SM CLR 17/14 A2995 1050 80 1600 200/06 RMK AO2 SLP135 T01720139
94908KDBQ DBQ20030702045511007/02/03 04:55:31  5-MIN KDBQ 021055Z 20005KT 9SM CLR 18/14 A2995 1050 81 1700 200/05 RMK AO2 SLP134 T01780144
94908KDBQ DBQ20030702050009307/02/03 05:00:31  5-MIN KDBQ 021100Z 20005KT 8SM CLR 18/14 A2995 1050 78 1700 200/05 RMK AO2
94908KDBQ DBQ20030702050509307/02/03 05:05:31  5-MIN KDBQ 021105Z 19003KT 8SM CLR 17/14 A2995 1050 80 1600 190/03 RMK AO2
94908KDBQ DBQ20030702051009307/02/03 05:10:31  5-MIN KDBQ 021110Z VRB04KT 8SM CLR 18/14 A2994 1060 81 1700 VRB/04 RMK AO2
94908KDBQ DBQ20030702051509307/02/03 05:15:31  5-MIN KDBQ 021115Z 19003KT 8SM CLR 18/14 A2995 1050 78 1700 190/03 RMK AO2
94908KDBQ DBQ20030702052009307/02/03 05:20:31  5-MIN KDBQ 021120Z 21003KT 8SM CLR 18/14 A2995 1050 81 1700 210/03 RMK AO2
94908KDBQ DBQ20030702052509307/02/03 05:25:31  5-MIN KDBQ 021125Z 20003KT 8SM CLR 18/15 A2995 1050 83 1700 200/03 RMK AO2
94908KDBQ DBQ20030702053009307/02/03 05:30:31  5-MIN KDBQ 021130Z 21003KT 8SM CLR 18/15 A2995 1050 81 1700 210/03 RMK AO2
94908KDBQ DBQ20030702053509307/02/03 05:35:31  5-MIN KDBQ 021135Z 22003KT 8SM CLR 18/15 A2995 1050 81 1700 220/03 RMK AO2
94908KDBQ DBQ20030702054009307/02/03 05:40:31  5-MIN KDBQ 021140Z 00000KT 8SM CLR 18/16 A2995 1050 84 1700 000/00 RMK AO2
94908KDBQ DBQ20030702054509307/02/03 05:45:31  5-MIN KDBQ 021145Z 00000KT 8SM CLR 19/16 A2995 1050 81 1800 000/00 RMK AO2
94908KDBQ DBQ20030702055012807/02/03 05:50:31  5-MIN KDBQ 021150Z 21003KT 8SM CLR 19/16 A2995 1050 81 1800 210/03 RMK AO2 SLP134 T01890156 10206 20167 58007
94908KDBQ DBQ20030702055512807/02/03 05:55:31  5-MIN KDBQ 021155Z 00000KT 8SM CLR 19/16 A2994 1060 81 1800 000/00 RMK AO2 SLP133 T01890156 10206 20167 56004
94908KDBQ DBQ20030702060009307/02/03 06:00:31  5-MIN KDBQ 021200Z 00000KT 8SM CLR 19/16 A2995 1050 78 1900 000/00 RMK AO2
94908KDBQ DBQ20030702060509307/02/03 06:05:31  5-MIN KDBQ 021205Z 00000KT 8SM CLR 19/16 A2995 1050 81 1900 000/00 RMK AO2
94908KDBQ DBQ20030702061009307/02/03 06:10:31  5-MIN KDBQ 021210Z 00000KT 7SM CLR 19/16 A2995 1050 81 1900 000/00 RMK AO2
94908KDBQ DBQ20030702061509307/02/03 06:15:31  5-MIN KDBQ 021215Z 00000KT 8SM CLR 20/16 A2995 1050 78 1900 000/00 RMK AO2
94908KDBQ DBQ20030702062009307/02/03 06:20:31  5-MIN KDBQ 021220Z 23003KT 8SM CLR 20/16 A2995 1050 78 1900 220/03 RMK AO2
94908KDBQ DBQ20030702062509307/02/03 06:25:31  5-MIN KDBQ 021225Z 23003KT 7SM CLR 20/16 A2995 1050 78 1900 230/03 RMK AO2
94908KDBQ DBQ20030702063009307/02/03 06:30:31  5-MIN KDBQ 021230Z 22003KT 7SM CLR 21/17 A2995 1050 78 2000 220/03 RMK AO2
94908KDBQ DBQ20030702063509307/02/03 06:35:31  5-MIN KDBQ 021235Z 21003KT 7SM CLR 21/17 A2995 1050 78 2000 210/03 RMK AO2
94908KDBQ DBQ20030702064009307/02/03 06:40:31  5-MIN KDBQ 021240Z 22004KT 8SM CLR 21/17 A2995 1050 78 2000 220/04 RMK AO2
94908KDBQ DBQ20030702064509307/02/03 06:45:31  5-MIN KDBQ 021245Z 22004KT 8SM CLR 21/17 A2995 1050 78 2000 220/04 RMK AO2
94908KDBQ DBQ20030702065011007/02/03 06:50:31  5-MIN KDBQ 021250Z 22003KT 8SM CLR 21/17 A2995 1050 75 2000 220/03 RMK AO2 SLP136 T02110167
94908KDBQ DBQ20030702065511007/02/03 06:55:31  5-MIN KDBQ 021255Z 22003KT 8SM CLR 22/17 A2995 1050 75 2100 220/03 RMK AO2 SLP137 T02170172
94908KDBQ DBQ20030702070009307/02/03 07:00:31  5-MIN KDBQ 021300Z 22003KT 8SM CLR 22/17 A2996 1050 75 2100 220/03 RMK AO2
94908KDBQ DBQ20030702070509307/02/03 07:05:31  5-MIN KDBQ 021305Z 22004KT 8SM CLR 22/17 A2995 1050 73 2200 220/04 RMK AO2
94908KDBQ DBQ20030702071009307/02/03 07:10:31  5-MIN KDBQ 021310Z 23004KT 9SM CLR 22/17 A2995 1050 73 2200 230/04 RMK AO2
94908KDBQ DBQ20030702071509307/02/03 07:15:31  5-MIN KDBQ 021315Z 22004KT 9SM CLR 22/17 A2995 1050 73 2200 210/04 RMK AO2
94908KDBQ DBQ20030702072009307/02/03 07:20:31  5-MIN KDBQ 021320Z 20006KT 9SM CLR 23/17 A2995 1050 68 2300 200/06 RMK AO2
94908KDBQ DBQ20030702072509407/02/03 07:25:31  5-MIN KDBQ 021325Z 20006KT 10SM CLR 23/17 A2995 1050 68 2300 200/06 RMK AO2
94908KDBQ DBQ20030702073009407/02/03 07:30:31  5-MIN KDBQ 021330Z 20007KT 10SM CLR 23/17 A2995 1050 66 2300 200/07 RMK AO2
94908KDBQ DBQ20030702073509407/02/03 07:35:31  5-MIN KDBQ 021335Z 21007KT 10SM CLR 23/17 A2995 1050 66 2300 210/07 RMK AO2
94908KDBQ DBQ20030702074009407/02/03 07:40:31  5-MIN KDBQ 021340Z 20007KT 10SM CLR 24/17 A2995 1050 66 2400 200/07 RMK AO2
94908KDBQ DBQ20030702074509407/02/03 07:45:31  5-MIN KDBQ 021345Z 20007KT 10SM CLR 24/17 A2995 1050 63 2400 200/07 RMK AO2
94908KDBQ DBQ20030702075011107/02/03 07:50:31  5-MIN KDBQ 021350Z 20008KT 10SM CLR 24/17 A2995 1050 63 2400 200/08 RMK AO2 SLP135 T02390167
94908KDBQ DBQ20030702075511107/02/03 07:55:31  5-MIN KDBQ 021355Z 20007KT 10SM CLR 24/17 A2995 1050 63 2400 200/07 RMK AO2 SLP135 T02440172
94908KDBQ DBQ20030702080009407/02/03 08:00:31  5-MIN KDBQ 021400Z 21006KT 10SM CLR 24/17 A2995 1050 63 2400 210/06 RMK AO2
94908KDBQ DBQ20030702080509407/02/03 08:05:31  5-MIN KDBQ 021405Z 20007KT 10SM CLR 24/17 A2995 1050 63 2400 200/07 RMK AO2
94908KDBQ DBQ20030702081009407/02/03 08:10:31  5-MIN KDBQ 021410Z 20007KT 10SM CLR 25/17 A2995 1050 61 2500 190/07 RMK AO2
94908KDBQ DBQ20030702081509407/02/03 08:15:31  5-MIN KDBQ 021415Z 22008KT 10SM CLR 25/18 A2995 1050 64 2500 220/08 RMK AO2
94908KDBQ DBQ20030702082009407/02/03 08:20:31  5-MIN KDBQ 021420Z 19008KT 10SM CLR 25/18 A2995 1050 64 2500 190/08 RMK AO2
94908KDBQ DBQ20030702082509407/02/03 08:25:31  5-MIN KDBQ 021425Z 19008KT 10SM CLR 26/18 A2995 1050 61 2500 190/08 RMK AO2
94908KDBQ DBQ20030702083009407/02/03 08:30:31  5-MIN KDBQ 021430Z 20009KT 10SM CLR 26/18 A2995 1050 61 2500 200/09 RMK AO2
94908KDBQ DBQ20030702083509407/02/03 08:35:31  5-MIN KDBQ 021435Z 21008KT 10SM CLR 25/17 A2995 1050 61 2500 200/08 RMK AO2
94908KDBQ DBQ20030702084009407/02/03 08:40:31  5-MIN KDBQ 021440Z 21008KT 10SM CLR 26/18 A2995 1050 61 2600 210/08 RMK AO2
94908KDBQ DBQ20030702084509407/02/03 08:45:31  5-MIN KDBQ 021445Z 21008KT 10SM CLR 26/18 A2995 1050 64 2600 210/08 RMK AO2
94908KDBQ DBQ20030702085011707/02/03 08:50:31  5-MIN KDBQ 021450Z 19007KT 10SM CLR 26/18 A2995 1050 59 2600 190/07 RMK AO2 SLP135 T02610178 56004
94908KDBQ DBQ20030702085511707/02/03 08:55:31  5-MIN KDBQ 021455Z 19007KT 10SM CLR 26/18 A2995 1050 62 2600 190/07 RMK AO2 SLP137 T02610183 51003
94908KDBQ DBQ20030702090009407/02/03 09:00:31  5-MIN KDBQ 021500Z 22009KT 10SM CLR 26/18 A2996 1050 62 2600 220/09 RMK AO2
94908KDBQ DBQ20030702090509407/02/03 09:05:31  5-MIN KDBQ 021505Z 22008KT 10SM CLR 26/19 A2996 1040 64 2600 220/08 RMK AO2
94908KDBQ DBQ20030702091009407/02/03 09:10:31  5-MIN KDBQ 021510Z 22008KT 10SM CLR 26/18 A2996 1050 62 2600 220/08 RMK AO2
94908KDBQ DBQ20030702091509407/02/03 09:15:31  5-MIN KDBQ 021515Z 22008KT 10SM CLR 26/19 A2996 1050 64 2600 220/08 RMK AO2
94908KDBQ DBQ20030702092009407/02/03 09:20:31  5-MIN KDBQ 021520Z 22009KT 10SM CLR 26/18 A2995 1050 62 2600 220/09 RMK AO2
94908KDBQ DBQ20030702092509407/02/03 09:25:31  5-MIN KDBQ 021525Z 23008KT 10SM CLR 26/19 A2995 1050 64 2600 230/08 RMK AO2
94908KDBQ DBQ20030702093009407/02/03 09:30:31  5-MIN KDBQ 021530Z 22009KT 10SM CLR 27/19 A2995 1050 62 2700 220/09 RMK AO2
94908KDBQ DBQ20030702093509407/02/03 09:35:31  5-MIN KDBQ 021535Z 22008KT 10SM CLR 27/19 A2995 1050 62 2700 220/08 RMK AO2
94908KDBQ DBQ20030702094009407/02/03 09:40:31  5-MIN KDBQ 021540Z 19009KT 10SM CLR 27/19 A2995 1050 62 2700 190/09 RMK AO2
94908KDBQ DBQ20030702094509407/02/03 09:45:31  5-MIN KDBQ 021545Z 21008KT 10SM CLR 27/19 A2995 1050 62 2700 210/08 RMK AO2
94908KDBQ DBQ20030702095011107/02/03 09:50:31  5-MIN KDBQ 021550Z 22005KT 10SM CLR 27/18 A2995 1050 60 2700 220/05 RMK AO2 SLP136 T02670183
94908KDBQ DBQ20030702095511107/02/03 09:55:31  5-MIN KDBQ 021555Z 21006KT 10SM CLR 27/19 A2995 1050 60 2700 210/06 RMK AO2 SLP136 T02720189
94908KDBQ DBQ20030702100009407/02/03 10:00:31  5-MIN KDBQ 021600Z VRB05KT 10SM CLR 27/19 A2995 1050 62 2700 VRB/05 RMK AO2
94908KDBQ DBQ20030702100509707/02/03 10:05:31  5-MIN KDBQ 021605Z 21009KT 10SM FEW036 27/19 A2995 1050 62 2700 210/09 RMK AO2
94908KDBQ DBQ20030702101009707/02/03 10:10:31  5-MIN KDBQ 021610Z 19008KT 10SM FEW036 27/19 A2995 1050 60 2700 190/08 RMK AO2
94908KDBQ DBQ20030702101509407/02/03 10:15:31  5-MIN KDBQ 021615Z 17006KT 10SM CLR 27/18 A2995 1050 58 2700 170/06 RMK AO2
94908KDBQ DBQ20030702102011307/02/03 10:20:31  5-MIN KDBQ 021620Z 23007KT 200V260 10SM FEW037 27/19 A2995 1050 60 2700 230/07 200V260 RMK AO2
94908KDBQ DBQ20030702102509707/02/03 10:25:31  5-MIN KDBQ 021625Z 20008KT 10SM FEW037 28/19 A2995 1050 58 2800 200/08 RMK AO2
94908KDBQ DBQ20030702103009707/02/03 10:30:31  5-MIN KDBQ 021630Z 20008KT 10SM SCT037 27/19 A2995 1050 60 2700 200/08 RMK AO2
94908KDBQ DBQ20030702103509707/02/03 10:35:31  5-MIN KDBQ 021635Z 22006KT 10SM SCT039 27/19 A2995 1050 60 2700 220/06 RMK AO2
94908KDBQ DBQ20030702104009607/02/03 10:40:31  5-MIN KDBQ 021640Z 21008KT 9SM FEW039 28/19 A2995 1050 58 2800 210/08 RMK AO2
94908KDBQ DBQ20030702104509607/02/03 10:45:31  5-MIN KDBQ 021645Z 22007KT 9SM FEW039 27/19 A2995 1050 60 2700 220/07 RMK AO2
94908KDBQ DBQ20030702105011307/02/03 10:50:31  5-MIN KDBQ 021650Z 23007KT 9SM SCT039 27/19 A2995 1050 60 2700 230/07 RMK AO2 SLP134 T02720189
94908KDBQ DBQ20030702105511307/02/03 10:55:31  5-MIN KDBQ 021655Z 24007KT 9SM SCT039 28/19 A2995 1050 58 2800 230/07 RMK AO2 SLP134 T02780189
94908KDBQ DBQ20030702110009607/02/03 11:00:31  5-MIN KDBQ 021700Z 21008KT 9SM SCT039 28/19 A2995 1050 58 2800 210/08 RMK AO2
94908KDBQ DBQ20030702110509607/02/03 11:05:31  5-MIN KDBQ 021705Z 22009KT 9SM FEW041 28/19 A2994 1060 58 2800 220/09 RMK AO2
94908KDBQ DBQ20030702111009607/02/03 11:10:31  5-MIN KDBQ 021710Z 21008KT 9SM FEW041 28/19 A2994 1060 58 2800 200/08 RMK AO2
94908KDBQ DBQ20030702111509607/02/03 11:15:31  5-MIN KDBQ 021715Z 21007KT 9SM FEW041 28/18 A2994 1060 56 2800 210/07 RMK AO2
94908KDBQ DBQ20030702112009607/02/03 11:20:31  5-MIN KDBQ 021720Z 23009KT 8SM FEW041 27/18 A2994 1060 58 2700 230/09 RMK AO2
94908KDBQ DBQ20030702112509607/02/03 11:25:31  5-MIN KDBQ 021725Z 22007KT 8SM FEW043 27/19 A2994 1060 60 2700 210/07 RMK AO2
94908KDBQ DBQ20030702113009607/02/03 11:30:31  5-MIN KDBQ 021730Z 20006KT 9SM FEW043 28/19 A2994 1060 58 2800 200/06 RMK AO2
94908KDBQ DBQ20030702113509607/02/03 11:35:31  5-MIN KDBQ 021735Z 23008KT 8SM FEW043 27/18 A2994 1060 58 2700 230/08 RMK AO2
94908KDBQ DBQ20030702114009607/02/03 11:40:31  5-MIN KDBQ 021740Z 23007KT 8SM FEW043 27/18 A2994 1060 56 2700 230/07 RMK AO2
94908KDBQ DBQ20030702114509607/02/03 11:45:31  5-MIN KDBQ 021745Z 23005KT 8SM SCT043 27/18 A2994 1060 58 2700 230/05 RMK AO2
94908KDBQ DBQ20030702115013107/02/03 11:50:31  5-MIN KDBQ 021750Z VRB06KT 8SM SCT043 28/18 A2994 1060 54 2900 VRB/06 RMK AO2 SLP130 T02830183 10283 20194 51003
94908KDBQ DBQ20030702115513107/02/03 11:55:31  5-MIN KDBQ 021755Z 22008KT 9SM FEW043 28/19 A2993 1070 56 2900 220/08 RMK AO2 SLP130 T02830189 10283 20194 58007
94908KDBQ DBQ20030702120009607/02/03 12:00:31  5-MIN KDBQ 021800Z 21006KT 8SM SCT043 28/19 A2994 1060 58 2800 210/06 RMK AO2
94908KDBQ DBQ20030702120509607/02/03 12:05:31  5-MIN KDBQ 021805Z VRB05KT 8SM SCT043 28/19 A2993 1070 56 2900 VRB/05 RMK AO2
94908KDBQ DBQ20030702121009607/02/03 12:10:31  5-MIN KDBQ 021810Z 25005KT 8SM SCT045 27/19 A2993 1070 60 2800 250/05 RMK AO2
94908KDBQ DBQ20030702121511007/02/03 12:15:31  5-MIN KDBQ 021815Z 24008KT 8SM SCT045 SCT060 BKN080 28/19 A2993 1070 58 2800 240/08 RMK AO2
94908KDBQ DBQ20030702122010307/02/03 12:20:31  5-MIN KDBQ 021820Z 25007KT 8SM SCT045 SCT080 28/19 A2993 1070 58 2800 250/07 RMK AO2
94908KDBQ DBQ20030702122509607/02/03 12:25:31  5-MIN KDBQ 021825Z VRB06KT 8SM SCT045 28/19 A2993 1070 56 2900 VRB/06 RMK AO2
94908KDBQ DBQ20030702123009607/02/03 12:30:31  5-MIN KDBQ 021830Z 18004KT 8SM FEW045 28/19 A2993 1070 56 2900 180/04 RMK AO2
94908KDBQ DBQ20030702123509607/02/03 12:35:31  5-MIN KDBQ 021835Z VRB04KT 8SM FEW045 28/19 A2993 1070 56 2900 VRB/04 RMK AO2
94908KDBQ DBQ20030702124009607/02/03 12:40:31  5-MIN KDBQ 021840Z 22007KT 8SM FEW043 28/18 A2993 1070 54 2900 220/07 RMK AO2
94908KDBQ DBQ20030702124509607/02/03 12:45:31  5-MIN KDBQ 021845Z 22006KT 8SM FEW043 28/18 A2993 1070 54 2900 220/06 RMK AO2
94908KDBQ DBQ20030702125011007/02/03 12:50:31  5-MIN KDBQ 021850Z 20007KT 9SM CLR 29/19 A2993 1070 54 2900 200/07 RMK AO2 SLP126 T02890189
94908KDBQ DBQ20030702125511007/02/03 12:55:31  5-MIN KDBQ 021855Z 21006KT 9SM CLR 29/18 A2992 1080 52 2900 210/06 RMK AO2 SLP125 T02890183
94908KDBQ DBQ20030702130009307/02/03 13:00:31  5-MIN KDBQ 021900Z VRB05KT 8SM CLR 28/19 A2992 1080 56 2900 VRB/05 RMK AO2
94908KDBQ DBQ20030702130509307/02/03 13:05:31  5-MIN KDBQ 021905Z 21004KT 8SM CLR 28/19 A2992 1080 56 2900 210/04 RMK AO2
94908KDBQ DBQ20030702131009307/02/03 13:10:31  5-MIN KDBQ 021910Z VRB05KT 8SM CLR 29/18 A2992 1080 52 3000 VRB/05 RMK AO2
94908KDBQ DBQ20030702131509307/02/03 13:15:31  5-MIN KDBQ 021915Z 23005KT 8SM CLR 28/19 A2992 1080 56 2900 230/05 RMK AO2
94908KDBQ DBQ20030702132009307/02/03 13:20:31  5-MIN KDBQ 021920Z 00000KT 8SM CLR 29/18 A2992 1080 52 3000 000/00 RMK AO2
94908KDBQ DBQ20030702132509307/02/03 13:25:31  5-MIN KDBQ 021925Z VRB03KT 8SM CLR 29/18 A2992 1080 52 3000 VRB/03 RMK AO2
94908KDBQ DBQ20030702133009307/02/03 13:30:31  5-MIN KDBQ 021930Z 22007KT 8SM CLR 29/18 A2992 1080 52 3000 220/07 RMK AO2
94908KDBQ DBQ20030702133509307/02/03 13:35:31  5-MIN KDBQ 021935Z 00000KT 8SM CLR 28/18 A2992 1080 52 2900 000/00 RMK AO2
94908KDBQ DBQ20030702134010607/02/03 13:40:31  5-MIN KDBQ 021940Z AUTO VRB04KT 8SM FEW048 29/18 A2992 1080 50 3000 VRB/04 RMK AO2 TSNO
94908KDBQ DBQ20030702134511307/02/03 13:45:31  5-MIN KDBQ 021945Z AUTO 00000KT 8SM FEW048 SCT070 29/18 A2992 1080 50 3000 000/00 RMK AO2 TSNO
94908KDBQ DBQ20030702135013007/02/03 13:50:31  5-MIN KDBQ 021950Z AUTO 24008KT 9SM FEW048 SCT075 29/19 A2991 1080 54 3000 240/08 RMK AO2 SLP122 T02940194 TSNO
94908KDBQ DBQ20030702135511307/02/03 13:55:31  5-MIN KDBQ 021955Z VRB05KT 9SM FEW048 29/18 A2991 1090 50 3000 VRB/05 RMK AO2 SLP120 T02890178
94908KDBQ DBQ20030702140009607/02/03 14:00:31  5-MIN KDBQ 022000Z 26004KT 9SM FEW048 29/18 A2991 1090 49 3000 260/04 RMK AO2
94908KDBQ DBQ20030702140510307/02/03 14:05:31  5-MIN KDBQ 022005Z 20006KT 9SM FEW048 SCT085 29/19 A2991 1090 52 3000 200/06 RMK AO2
94908KDBQ DBQ20030702141009607/02/03 14:10:31  5-MIN KDBQ 022010Z 22006KT 9SM FEW050 29/18 A2990 1090 50 3000 210/06 RMK AO2
94908KDBQ DBQ20030702141509607/02/03 14:15:31  5-MIN KDBQ 022015Z 23008KT 9SM FEW050 29/18 A2990 1100 52 3000 230/08 RMK AO2
94908KDBQ DBQ20030702142009307/02/03 14:20:31  5-MIN KDBQ 022020Z 26006KT 9SM CLR 29/18 A2989 1100 50 3000 250/06 RMK AO2
94908KDBQ DBQ20030702142509607/02/03 14:25:31  5-MIN KDBQ 022025Z 22008KT 9SM FEW050 29/19 A2989 1100 54 3000 220/08 RMK AO2
94908KDBQ DBQ20030702143009607/02/03 14:30:31  5-MIN KDBQ 022030Z 23008KT 8SM FEW050 29/19 A2989 1110 54 3000 230/08 RMK AO2
94908KDBQ DBQ20030702143509607/02/03 14:35:31  5-MIN KDBQ 022035Z 22007KT 8SM FEW050 29/19 A2989 1110 54 3000 220/07 RMK AO2
94908KDBQ DBQ20030702144009607/02/03 14:40:31  5-MIN KDBQ 022040Z 22008KT 8SM FEW050 29/19 A2989 1110 54 3000 220/08 RMK AO2
94908KDBQ DBQ20030702144509607/02/03 14:45:31  5-MIN KDBQ 022045Z 22009KT 8SM FEW050 29/19 A2989 1110 54 3000 220/09 RMK AO2
94908KDBQ DBQ20030702145011907/02/03 14:50:31  5-MIN KDBQ 022050Z 22009KT 8SM FEW048 29/19 A2988 1110 52 3100 220/09 RMK AO2 SLP113 T02940189 58007
94908KDBQ DBQ20030702145511907/02/03 14:55:31  5-MIN KDBQ 022055Z 18008KT 9SM FEW048 29/19 A2988 1110 52 3100 180/08 RMK AO2 SLP112 T02940189 58017
94908KDBQ DBQ20030702150009607/02/03 15:00:31  5-MIN KDBQ 022100Z 20008KT 9SM FEW060 29/19 A2988 1110 52 3100 200/08 RMK AO2
94908KDBQ DBQ20030702150509307/02/03 15:05:31  5-MIN KDBQ 022105Z 19009KT 8SM CLR 29/18 A2988 1120 52 3000 180/09 RMK AO2
94908KDBQ DBQ20030702151009307/02/03 15:10:31  5-MIN KDBQ 022110Z 19007KT 8SM CLR 28/18 A2988 1120 54 2900 180/07 RMK AO2
94908KDBQ DBQ20030702151509307/02/03 15:15:31  5-MIN KDBQ 022115Z 20005KT 8SM CLR 29/18 A2988 1120 52 3000 190/05 RMK AO2
94908KDBQ DBQ20030702152009607/02/03 15:20:31  5-MIN KDBQ 022120Z 19007KT 8SM FEW055 29/18 A2988 1120 50 3100 190/07 RMK AO2
94908KDBQ DBQ20030702152509607/02/03 15:25:31  5-MIN KDBQ 022125Z 21007KT 9SM SCT060 29/19 A2988 1110 52 3100 210/07 RMK AO2
94908KDBQ DBQ20030702153011207/02/03 15:30:31  5-MIN KDBQ 022130Z 23007KT 190V260 8SM SCT060 29/19 A2988 1110 52 3100 230/07 190V260 RMK AO2
94908KDBQ DBQ20030702153510307/02/03 15:35:31  5-MIN KDBQ 022135Z VRB05KT 8SM SCT050 SCT065 29/18 A2988 1110 50 3100 VRB/05 RMK AO2
94908KDBQ DBQ20030702154010307/02/03 15:40:31  5-MIN KDBQ 022140Z 19006KT 9SM BKN050 BKN065 29/18 A2988 1110 50 3100 190/06 RMK AO2
94908KDBQ DBQ20030702154510307/02/03 15:45:31  5-MIN KDBQ 022145Z 19005KT 8SM BKN050 BKN065 29/18 A2988 1110 52 3000 190/05 RMK AO2
94908KDBQ DBQ20030702155012007/02/03 15:50:31  5-MIN KDBQ 022150Z 19005KT 8SM BKN050 BKN065 29/18 A2988 1110 52 3000 190/05 RMK AO2 SLP113 T02890183
94908KDBQ DBQ20030702155512007/02/03 15:55:31  5-MIN KDBQ 022155Z 17005KT 8SM BKN050 BKN070 29/19 A2988 1110 52 3100 170/05 RMK AO2 SLP112 T02940189
94908KDBQ DBQ20030702160011007/02/03 16:00:31  5-MIN KDBQ 022200Z 20006KT 8SM BKN050 BKN060 BKN075 29/18 A2988 1120 50 3100 200/06 RMK AO2
94908KDBQ DBQ20030702160511007/02/03 16:05:31  5-MIN KDBQ 022205Z 19007KT 8SM BKN050 BKN065 OVC080 29/19 A2988 1120 52 3100 190/07 RMK AO2
94908KDBQ DBQ20030702161011007/02/03 16:10:31  5-MIN KDBQ 022210Z 19007KT 8SM BKN050 BKN060 OVC075 29/18 A2988 1120 50 3100 180/07 RMK AO2
94908KDBQ DBQ20030702161511007/02/03 16:15:31  5-MIN KDBQ 022215Z 19006KT 8SM BKN050 BKN070 OVC085 29/18 A2988 1120 50 3100 190/06 RMK AO2
94908KDBQ DBQ20030702162010307/02/03 16:20:31  5-MIN KDBQ 022220Z 19005KT 8SM SCT055 BKN080 29/18 A2988 1120 50 3000 180/05 RMK AO2
94908KDBQ DBQ20030702162511007/02/03 16:25:31  5-MIN KDBQ 022225Z 19009KT 8SM SCT050 SCT070 BKN085 29/18 A2987 1120 50 3100 190/09 RMK AO2
94908KDBQ DBQ20030702163010307/02/03 16:30:31  5-MIN KDBQ 022230Z 18006KT 8SM SCT050 SCT085 29/18 A2987 1130 50 3100 170/06 RMK AO2
94908KDBQ DBQ20030702163510307/02/03 16:35:31  5-MIN KDBQ 022235Z 21006KT 8SM FEW050 SCT085 29/18 A2987 1130 50 3100 210/06 RMK AO2
94908KDBQ DBQ20030702164010307/02/03 16:40:31  5-MIN KDBQ 022240Z 23005KT 8SM FEW055 SCT085 29/18 A2987 1130 52 3000 220/05 RMK AO2
94908KDBQ DBQ20030702164509607/02/03 16:45:31  5-MIN KDBQ 022245Z 20007KT 8SM FEW055 29/18 A2986 1130 50 3000 200/07 RMK AO2
94908KDBQ DBQ20030702165011307/02/03 16:50:31  5-MIN KDBQ 022250Z 21009KT 8SM FEW055 29/19 A2986 1140 54 3000 210/09 RMK AO2 SLP103 T02890189
94908KDBQ DBQ20030702165511307/02/03 16:55:31  5-MIN KDBQ 022255Z 20009KT 8SM FEW055 29/18 A2986 1140 52 3000 200/09 RMK AO2 SLP103 T02890183
94908KDBQ DBQ20030702170009307/02/03 17:00:31  5-MIN KDBQ 022300Z 20008KT 9SM CLR 29/18 A2985 1140 52 3000 200/08 RMK AO2
94908KDBQ DBQ20030702170509307/02/03 17:05:31  5-MIN KDBQ 022305Z 20008KT 9SM CLR 29/18 A2985 1140 52 3000 200/08 RMK AO2
94908KDBQ DBQ20030702171009307/02/03 17:10:31  5-MIN KDBQ 022310Z 20010KT 9SM CLR 29/18 A2984 1150 50 3000 200/10 RMK AO2
94908KDBQ DBQ20030702171509307/02/03 17:15:31  5-MIN KDBQ 022315Z 21008KT 9SM CLR 29/18 A2985 1150 52 3000 200/08 RMK AO2
94908KDBQ DBQ20030702172009307/02/03 17:20:31  5-MIN KDBQ 022320Z 21008KT 9SM CLR 28/18 A2984 1150 54 3000 200/08 RMK AO2
94908KDBQ DBQ20030702172509307/02/03 17:25:31  5-MIN KDBQ 022325Z 21007KT 8SM CLR 28/19 A2984 1150 56 3000 200/07 RMK AO2
94908KDBQ DBQ20030702173009307/02/03 17:30:31  5-MIN KDBQ 022330Z 20008KT 8SM CLR 28/19 A2984 1150 56 3000 200/08 RMK AO2
94908KDBQ DBQ20030702173509307/02/03 17:35:31  5-MIN KDBQ 022335Z 20009KT 8SM CLR 28/19 A2984 1160 56 3000 200/09 RMK AO2
94908KDBQ DBQ20030702174009307/02/03 17:40:31  5-MIN KDBQ 022340Z 20009KT 8SM CLR 28/19 A2984 1160 56 3000 200/09 RMK AO2
94908KDBQ DBQ20030702174509307/02/03 17:45:31  5-MIN KDBQ 022345Z 21008KT 8SM CLR 28/19 A2984 1150 58 3000 210/08 RMK AO2
94908KDBQ DBQ20030702175012807/02/03 17:50:31  5-MIN KDBQ 022350Z 20008KT 8SM CLR 28/19 A2984 1160 58 3000 200/08 RMK AO2 SLP096 T02830194 10294 20272 58017
94908KDBQ DBQ20030702175512807/02/03 17:55:31  5-MIN KDBQ 022355Z 20008KT 8SM CLR 28/19 A2983 1160 56 3000 200/08 RMK AO2 SLP096 T02830189 10294 20272 58015
94908KDBQ DBQ20030702180009307/02/03 18:00:31  5-MIN KDBQ 030000Z 20007KT 8SM CLR 28/19 A2984 1160 60 2900 200/07 RMK AO2
94908KDBQ DBQ20030702180509307/02/03 18:05:31  5-MIN KDBQ 030005Z 20009KT 8SM CLR 28/19 A2983 1160 60 2900 200/09 RMK AO2
94908KDBQ DBQ20030702181009307/02/03 18:10:31  5-MIN KDBQ 030010Z 20008KT 7SM CLR 28/19 A2983 1160 58 2900 200/08 RMK AO2
94908KDBQ DBQ20030702181509307/02/03 18:15:31  5-MIN KDBQ 030015Z 20008KT 7SM CLR 27/19 A2983 1160 62 2900 200/08 RMK AO2
94908KDBQ DBQ20030702182009307/02/03 18:20:31  5-MIN KDBQ 030020Z 20006KT 7SM CLR 28/19 A2984 1160 58 2900 200/06 RMK AO2
94908KDBQ DBQ20030702182509307/02/03 18:25:31  5-MIN KDBQ 030025Z 20006KT 7SM CLR 27/19 A2983 1160 62 2900 200/06 RMK AO2
94908KDBQ DBQ20030702183009307/02/03 18:30:31  5-MIN KDBQ 030030Z 20005KT 7SM CLR 27/19 A2983 1160 62 2900 200/05 RMK AO2
94908KDBQ DBQ20030702183509307/02/03 18:35:31  5-MIN KDBQ 030035Z 19005KT 7SM CLR 27/20 A2983 1160 64 2900 190/05 RMK AO2
94908KDBQ DBQ20030702184009307/02/03 18:40:31  5-MIN KDBQ 030040Z 20005KT 7SM CLR 27/20 A2983 1160 66 2800 200/05 RMK AO2
94908KDBQ DBQ20030702184509307/02/03 18:45:31  5-MIN KDBQ 030045Z 20004KT 7SM CLR 27/20 A2983 1160 66 2800 200/04 RMK AO2
94908KDBQ DBQ20030702185011307/02/03 18:50:31  5-MIN KDBQ 030050Z 20004KT 6SM HZ CLR 27/20 A2983 1160 66 2800 200/04 RMK AO2 SLP094 T02670200
94908KDBQ DBQ20030702185512307/02/03 18:55:31  5-MIN KDBQ 030055Z AUTO 20004KT 6SM HZ CLR 26/21 A2983 1160 71 2700 200/04 RMK AO2 SLP094 T02610206 TSNO
94908KDBQ DBQ20030702190010607/02/03 19:00:31  5-MIN KDBQ 030100Z AUTO 21004KT 6SM HZ CLR 26/21 A2983 1160 71 2700 210/04 RMK AO2 TSNO
94908KDBQ DBQ20030702190510607/02/03 19:05:31  5-MIN KDBQ 030105Z AUTO 21005KT 6SM HZ CLR 26/20 A2983 1160 68 2700 210/05 RMK AO2 TSNO
94908KDBQ DBQ20030702191010307/02/03 19:10:31  5-MIN KDBQ 030110Z AUTO 21004KT 7SM CLR 26/20 A2983 1160 68 2700 210/04 RMK AO2 TSNO
94908KDBQ DBQ20030702191510307/02/03 19:15:31  5-MIN KDBQ 030115Z AUTO 21003KT 7SM CLR 26/20 A2983 1160 68 2700 210/03 RMK AO2 TSNO
94908KDBQ DBQ20030702192010607/02/03 19:20:31  5-MIN KDBQ 030120Z AUTO 20003KT 6SM HZ CLR 26/20 A2984 1160 71 2700 200/03 RMK AO2 TSNO
94908KDBQ DBQ20030702192510607/02/03 19:25:31  5-MIN KDBQ 030125Z AUTO 00000KT 6SM HZ CLR 26/20 A2984 1160 71 2700 000/00 RMK AO2 TSNO
94908KDBQ DBQ20030702193010607/02/03 19:30:31  5-MIN KDBQ 030130Z AUTO 00000KT 6SM HZ CLR 26/20 A2984 1160 71 2700 000/00 RMK AO2 TSNO
94908KDBQ DBQ20030702193510607/02/03 19:35:31  5-MIN KDBQ 030135Z AUTO 00000KT 6SM HZ CLR 25/20 A2983 1160 73 2600 000/00 RMK AO2 TSNO
94908KDBQ DBQ20030702194010607/02/03 19:40:31  5-MIN KDBQ 030140Z AUTO 21003KT 6SM HZ CLR 25/20 A2983 1160 73 2600 210/03 RMK AO2 TSNO
94908KDBQ DBQ20030702194510607/02/03 19:45:31  5-MIN KDBQ 030145Z AUTO 21003KT 6SM HZ CLR 24/20 A2983 1160 76 2600 210/03 RMK AO2 TSNO
94908KDBQ DBQ20030702195012307/02/03 19:50:31  5-MIN KDBQ 030150Z AUTO 21003KT 5SM HZ CLR 24/20 A2983 1160 78 2500 210/03 RMK AO2 SLP096 T02390200 TSNO
94908KDBQ DBQ20030702195512307/02/03 19:55:31  5-MIN KDBQ 030155Z AUTO 00000KT 5SM HZ CLR 24/20 A2984 1160 78 2500 000/00 RMK AO2 SLP095 T02390200 TSNO
94908KDBQ DBQ20030702200010607/02/03 20:00:31  5-MIN KDBQ 030200Z AUTO 00000KT 5SM HZ CLR 24/20 A2984 1150 78 2500 000/00 RMK AO2 TSNO
94908KDBQ DBQ20030702200510607/02/03 20:05:31  5-MIN KDBQ 030205Z AUTO 00000KT 6SM HZ CLR 23/19 A2984 1150 78 2400 000/00 RMK AO2 TSNO
94908KDBQ DBQ20030702201010307/02/03 20:10:31  5-MIN KDBQ 030210Z AUTO 00000KT 7SM CLR 23/19 A2984 1150 78 2400 000/00 RMK AO2 TSNO
94908KDBQ DBQ20030702201510307/02/03 20:15:31  5-MIN KDBQ 030215Z AUTO 00000KT 7SM CLR 23/19 A2984 1150 78 2400 000/00 RMK AO2 TSNO
94908KDBQ DBQ20030702202010307/02/03 20:20:31  5-MIN KDBQ 030220Z AUTO 00000KT 7SM CLR 23/19 A2984 1150 78 2400 000/00 RMK AO2 TSNO
94908KDBQ DBQ20030702202510307/02/03 20:25:31  5-MIN KDBQ 030225Z AUTO 18003KT 7SM CLR 23/19 A2984 1150 78 2400 180/03 RMK AO2 TSNO
94908KDBQ DBQ20030702203010307/02/03 20:30:31  5-MIN KDBQ 030230Z AUTO 18003KT 7SM CLR 23/19 A2984 1150 78 2400 180/03 RMK AO2 TSNO
94908KDBQ DBQ20030702203510607/02/03 20:35:31  5-MIN KDBQ 030235Z AUTO 18004KT 6SM HZ CLR 23/19 A2984 1150 78 2400 180/04 RMK AO2 TSNO
94908KDBQ DBQ20030702204010607/02/03 20:40:31  5-MIN KDBQ 030240Z AUTO 19004KT 6SM HZ CLR 23/19 A2984 1150 78 2400 190/04 RMK AO2 TSNO
94908KDBQ DBQ20030702204510607/02/03 20:45:31  5-MIN KDBQ 030245Z AUTO 17004KT 6SM HZ CLR 22/19 A2984 1150 81 2300 170/04 RMK AO2 TSNO
94908KDBQ DBQ20030702205012907/02/03 20:50:31  5-MIN KDBQ 030250Z AUTO 17004KT 6SM HZ CLR 22/19 A2984 1150 81 2300 170/04 RMK AO2 SLP098 T02220189 58015 TSNO
94908KDBQ DBQ20030702205512907/02/03 20:55:31  5-MIN KDBQ 030255Z AUTO 17004KT 6SM HZ CLR 22/19 A2984 1150 81 2300 170/04 RMK AO2 SLP097 T02220189 53002 TSNO
94908KDBQ DBQ20030702210010607/02/03 21:00:31  5-MIN KDBQ 030300Z AUTO 17003KT 6SM HZ CLR 22/19 A2984 1150 81 2300 170/03 RMK AO2 TSNO
94908KDBQ DBQ20030702210510607/02/03 21:05:31  5-MIN KDBQ 030305Z AUTO 15003KT 6SM HZ CLR 22/19 A2984 1150 81 2300 150/03 RMK AO2 TSNO
94908KDBQ DBQ20030702211010607/02/03 21:10:31  5-MIN KDBQ 030310Z AUTO 17004KT 6SM HZ CLR 22/19 A2984 1150 81 2300 170/04 RMK AO2 TSNO
94908KDBQ DBQ20030702211510307/02/03 21:15:31  5-MIN KDBQ 030315Z AUTO 17005KT 7SM CLR 22/18 A2984 1150 78 2300 170/05 RMK AO2 TSNO
94908KDBQ DBQ20030702212010607/02/03 21:20:31  5-MIN KDBQ 030320Z AUTO 17004KT 6SM HZ CLR 22/18 A2984 1150 81 2200 170/04 RMK AO2 TSNO
94908KDBQ DBQ20030702212510607/02/03 21:25:31  5-MIN KDBQ 030325Z AUTO 17005KT 6SM HZ CLR 22/18 A2984 1150 81 2200 170/05 RMK AO2 TSNO
94908KDBQ DBQ20030702213010607/02/03 21:30:31  5-MIN KDBQ 030330Z AUTO 20003KT 6SM HZ CLR 22/18 A2984 1150 81 2200 200/03 RMK AO2 TSNO
94908KDBQ DBQ20030702213510607/02/03 21:35:31  5-MIN KDBQ 030335Z AUTO 20003KT 6SM HZ CLR 21/18 A2984 1150 84 2200 200/03 RMK AO2 TSNO
94908KDBQ DBQ20030702214010607/02/03 21:40:31  5-MIN KDBQ 030340Z AUTO 00000KT 6SM HZ CLR 21/18 A2984 1150 84 2200 000/00 RMK AO2 TSNO
94908KDBQ DBQ20030702214510607/02/03 21:45:31  5-MIN KDBQ 030345Z AUTO 00000KT 6SM HZ CLR 22/18 A2984 1150 81 2200 000/00 RMK AO2 TSNO
94908KDBQ DBQ20030702215012307/02/03 21:50:31  5-MIN KDBQ 030350Z AUTO 00000KT 6SM HZ CLR 22/18 A2984 1150 81 2200 000/00 RMK AO2 SLP097 T02170183 TSNO
94908KDBQ DBQ20030702215512307/02/03 21:55:31  5-MIN KDBQ 030355Z AUTO 00000KT 6SM HZ CLR 22/18 A2984 1150 81 2200 000/00 RMK AO2 SLP098 T02170183 TSNO
94908KDBQ DBQ20030702220010607/02/03 22:00:31  5-MIN KDBQ 030400Z AUTO 00000KT 6SM HZ CLR 22/18 A2985 1150 81 2200 000/00 RMK AO2 TSNO
94908KDBQ DBQ20030702220510607/02/03 22:05:31  5-MIN KDBQ 030405Z AUTO 17004KT 6SM HZ CLR 22/18 A2985 1150 81 2200 170/04 RMK AO2 TSNO
94908KDBQ DBQ20030702221010607/02/03 22:10:31  5-MIN KDBQ 030410Z AUTO 17004KT 6SM HZ CLR 22/18 A2985 1150 81 2200 170/04 RMK AO2 TSNO
94908KDBQ DBQ20030702221510607/02/03 22:15:31  5-MIN KDBQ 030415Z AUTO 20004KT 6SM HZ CLR 21/18 A2985 1150 84 2200 190/04 RMK AO2 TSNO
94908KDBQ DBQ20030702222010607/02/03 22:20:31  5-MIN KDBQ 030420Z AUTO 00000KT 6SM HZ CLR 21/18 A2985 1150 84 2200 000/00 RMK AO2 TSNO
94908KDBQ DBQ20030702222510607/02/03 22:25:31  5-MIN KDBQ 030425Z AUTO 20003KT 6SM HZ CLR 21/18 A2985 1150 84 2200 200/03 RMK AO2 TSNO
94908KDBQ DBQ20030702223010607/02/03 22:30:31  5-MIN KDBQ 030430Z AUTO 18003KT 6SM HZ CLR 22/18 A2985 1140 81 2200 180/03 RMK AO2 TSNO
94908KDBQ DBQ20030702223510607/02/03 22:35:31  5-MIN KDBQ 030435Z AUTO 17004KT 6SM HZ CLR 21/18 A2985 1140 84 2200 170/04 RMK AO2 TSNO
94908KDBQ DBQ20030702224010607/02/03 22:40:31  5-MIN KDBQ 030440Z AUTO 17004KT 6SM HZ CLR 21/18 A2985 1140 84 2200 170/04 RMK AO2 TSNO
94908KDBQ DBQ20030702224510607/02/03 22:45:31  5-MIN KDBQ 030445Z AUTO 17005KT 6SM HZ CLR 21/18 A2985 1140 84 2200 170/05 RMK AO2 TSNO
94908KDBQ DBQ20030702225012307/02/03 22:50:31  5-MIN KDBQ 030450Z AUTO 17005KT 6SM HZ CLR 21/18 A2985 1140 84 2200 170/05 RMK AO2 SLP100 T02110183 TSNO
94908KDBQ DBQ20030702225512307/02/03 22:55:31  5-MIN KDBQ 030455Z AUTO 16005KT 6SM HZ CLR 21/18 A2985 1150 84 2200 160/05 RMK AO2 SLP099 T02110183 TSNO
94908KDBQ DBQ20030702230010607/02/03 23:00:31  5-MIN KDBQ 030500Z AUTO 16005KT 6SM BR CLR 21/18 A2985 1150 87 2100 160/05 RMK AO2 TSNO
94908KDBQ DBQ20030702230510607/02/03 23:05:31  5-MIN KDBQ 030505Z AUTO 16004KT 6SM HZ CLR 21/18 A2984 1150 84 2200 160/04 RMK AO2 TSNO
94908KDBQ DBQ20030702231010607/02/03 23:10:31  5-MIN KDBQ 030510Z AUTO 17005KT 6SM HZ CLR 21/18 A2984 1150 84 2200 160/05 RMK AO2 TSNO
94908KDBQ DBQ20030702231510607/02/03 23:15:31  5-MIN KDBQ 030515Z AUTO 17005KT 6SM HZ CLR 21/18 A2984 1150 84 2200 170/05 RMK AO2 TSNO
94908KDBQ DBQ20030702232010607/02/03 23:20:31  5-MIN KDBQ 030520Z AUTO 17004KT 6SM HZ CLR 21/18 A2984 1160 84 2200 170/04 RMK AO2 TSNO
94908KDBQ DBQ20030702232510607/02/03 23:25:31  5-MIN KDBQ 030525Z AUTO 19004KT 6SM HZ CLR 21/18 A2983 1160 84 2200 190/04 RMK AO2 TSNO
94908KDBQ DBQ20030702233010607/02/03 23:30:31  5-MIN KDBQ 030530Z AUTO 19004KT 6SM HZ CLR 21/18 A2983 1160 84 2200 190/04 RMK AO2 TSNO
94908KDBQ DBQ20030702233510607/02/03 23:35:31  5-MIN KDBQ 030535Z AUTO 19004KT 6SM HZ CLR 21/18 A2983 1160 84 2200 180/04 RMK AO2 TSNO
94908KDBQ DBQ20030702234010607/02/03 23:40:31  5-MIN KDBQ 030540Z AUTO 19003KT 6SM HZ CLR 21/18 A2983 1160 84 2100 190/03 RMK AO2 TSNO
94908KDBQ DBQ20030702234510607/02/03 23:45:31  5-MIN KDBQ 030545Z AUTO 20004KT 6SM BR CLR 21/18 A2984 1160 87 2100 200/04 RMK AO2 TSNO
94908KDBQ DBQ20030702235015107/02/03 23:50:31  5-MIN KDBQ 030550Z AUTO 19004KT 6SM BR CLR 21/18 A2983 1160 87 2100 190/04 RMK AO2 SLP095 T02060183 10283 20206 402940167 53002 TSNO
94908KDBQ DBQ20030702235515107/02/03 23:55:31  5-MIN KDBQ 030555Z AUTO 20004KT 6SM BR CLR 21/18 A2983 1160 87 2100 200/04 RMK AO2 SLP095 T02060183 10283 20206 402940167 58002 TSNO
94908KDBQ DBQ20030703000010607/03/03 00:00:31  5-MIN KDBQ 030600Z AUTO 20003KT 5SM BR CLR 21/18 A2983 1160 87 2100 200/03 RMK AO2 TSNO
94908KDBQ DBQ20030703000510607/03/03 00:05:31  5-MIN KDBQ 030605Z AUTO 19004KT 5SM BR CLR 21/18 A2983 1160 87 2100 190/04 RMK AO2 TSNO
94908KDBQ DBQ20030703001010607/03/03 00:10:31  5-MIN KDBQ 030610Z AUTO 18006KT 5SM BR CLR 21/18 A2983 1160 87 2100 180/06 RMK AO2 TSNO
94908KDBQ DBQ20030703001510607/03/03 00:15:31  5-MIN KDBQ 030615Z AUTO 18006KT 5SM BR CLR 21/18 A2983 1160 87 2100 180/06 RMK AO2 TSNO
94908KDBQ DBQ20030703002010607/03/03 00:20:31  5-MIN KDBQ 030620Z AUTO 18006KT 5SM BR CLR 21/18 A2983 1160 87 2100 180/06 RMK AO2 TSNO
94908KDBQ DBQ20030703002510607/03/03 00:25:31  5-MIN KDBQ 030625Z AUTO 18005KT 5SM BR CLR 21/19 A2983 1160 90 2100 180/05 RMK AO2 TSNO
94908KDBQ DBQ20030703003010607/03/03 00:30:31  5-MIN KDBQ 030630Z AUTO 19004KT 5SM BR CLR 21/19 A2983 1160 90 2100 190/04 RMK AO2 TSNO
94908KDBQ DBQ20030703003510607/03/03 00:35:31  5-MIN KDBQ 030635Z AUTO 20005KT 4SM BR CLR 21/19 A2983 1160 90 2100 200/05 RMK AO2 TSNO
94908KDBQ DBQ20030703004010607/03/03 00:40:31  5-MIN KDBQ 030640Z AUTO 18006KT 4SM BR CLR 21/19 A2983 1160 90 2100 180/06 RMK AO2 TSNO
94908KDBQ DBQ20030703004510607/03/03 00:45:31  5-MIN KDBQ 030645Z AUTO 18006KT 4SM BR CLR 21/19 A2983 1160 90 2100 180/06 RMK AO2 TSNO
94908KDBQ DBQ20030703005012307/03/03 00:50:31  5-MIN KDBQ 030650Z AUTO 18005KT 4SM BR CLR 21/19 A2983 1160 90 2100 180/05 RMK AO2 SLP093 T02060189 TSNO
94908KDBQ DBQ20030703005512307/03/03 00:55:31  5-MIN KDBQ 030655Z AUTO 18006KT 4SM BR CLR 21/19 A2983 1160 90 2100 180/06 RMK AO2 SLP093 T02060189 TSNO
94908KDBQ DBQ20030703010010607/03/03 01:00:31  5-MIN KDBQ 030700Z AUTO 18006KT 4SM BR CLR 21/19 A2983 1160 90 2100 180/06 RMK AO2 TSNO
94908KDBQ DBQ20030703010510607/03/03 01:05:31  5-MIN KDBQ 030705Z AUTO 19005KT 4SM BR CLR 21/19 A2983 1160 90 2100 180/05 RMK AO2 TSNO
94908KDBQ DBQ20030703011010607/03/03 01:10:31  5-MIN KDBQ 030710Z AUTO 18006KT 4SM BR CLR 21/19 A2983 1160 90 2100 180/06 RMK AO2 TSNO
94908KDBQ DBQ20030703011510607/03/03 01:15:31  5-MIN KDBQ 030715Z AUTO 18005KT 4SM BR CLR 21/19 A2983 1160 90 2100 180/05 RMK AO2 TSNO
94908KDBQ DBQ20030703012010607/03/03 01:20:31  5-MIN KDBQ 030720Z AUTO 18006KT 4SM BR CLR 21/19 A2983 1160 90 2100 180/06 RMK AO2 TSNO
94908KDBQ DBQ20030703012510607/03/03 01:25:31  5-MIN KDBQ 030725Z AUTO 18006KT 4SM BR CLR 21/19 A2983 1170 90 2100 180/06 RMK AO2 TSNO
94908KDBQ DBQ20030703013010607/03/03 01:30:31  5-MIN KDBQ 030730Z AUTO 19005KT 4SM BR CLR 21/19 A2982 1170 90 2100 190/05 RMK AO2 TSNO
94908KDBQ DBQ20030703013510607/03/03 01:35:31  5-MIN KDBQ 030735Z AUTO 21004KT 4SM BR CLR 20/18 A2982 1170 90 2100 210/04 RMK AO2 TSNO
94908KDBQ DBQ20030703014010607/03/03 01:40:31  5-MIN KDBQ 030740Z AUTO 20004KT 4SM BR CLR 20/18 A2983 1160 90 2100 200/04 RMK AO2 TSNO
94908KDBQ DBQ20030703014510607/03/03 01:45:31  5-MIN KDBQ 030745Z AUTO 20003KT 4SM BR CLR 19/18 A2983 1170 93 2000 200/03 RMK AO2 TSNO
94908KDBQ DBQ20030703015012307/03/03 01:50:31  5-MIN KDBQ 030750Z AUTO 00000KT 4SM BR CLR 20/18 A2983 1170 90 2100 000/00 RMK AO2 SLP092 T02000183 TSNO
94908KDBQ DBQ20030703015512307/03/03 01:55:31  5-MIN KDBQ 030755Z AUTO 00000KT 4SM BR CLR 20/19 A2982 1170 93 2100 000/00 RMK AO2 SLP091 T02000189 TSNO
94908KDBQ DBQ20030703020010607/03/03 02:00:31  5-MIN KDBQ 030800Z AUTO 18004KT 3SM BR CLR 20/18 A2982 1170 90 2100 180/04 RMK AO2 TSNO
94908KDBQ DBQ20030703020510607/03/03 02:05:31  5-MIN KDBQ 030805Z AUTO 19004KT 3SM BR CLR 20/18 A2982 1170 90 2100 190/04 RMK AO2 TSNO
94908KDBQ DBQ20030703021010607/03/03 02:10:31  5-MIN KDBQ 030810Z AUTO 18005KT 3SM BR CLR 20/18 A2983 1170 90 2100 180/05 RMK AO2 TSNO
94908KDBQ DBQ20030703021510607/03/03 02:15:31  5-MIN KDBQ 030815Z AUTO 19005KT 3SM BR CLR 19/18 A2982 1170 93 2000 190/05 RMK AO2 TSNO
94908KDBQ DBQ20030703022010607/03/03 02:20:31  5-MIN KDBQ 030820Z AUTO 21003KT 3SM BR CLR 20/18 A2982 1170 90 2100 200/03 RMK AO2 TSNO
94908KDBQ DBQ20030703022510607/03/03 02:25:31  5-MIN KDBQ 030825Z AUTO 22004KT 3SM BR CLR 19/18 A2983 1170 93 2000 220/04 RMK AO2 TSNO
94908KDBQ DBQ20030703023010607/03/03 02:30:31  5-MIN KDBQ 030830Z AUTO 21004KT 3SM BR CLR 20/18 A2982 1170 90 2100 200/04 RMK AO2 TSNO
94908KDBQ DBQ20030703023510607/03/03 02:35:31  5-MIN KDBQ 030835Z AUTO 20004KT 3SM BR CLR 20/19 A2982 1170 93 2100 200/04 RMK AO2 TSNO
94908KDBQ DBQ20030703024010607/03/03 02:40:31  5-MIN KDBQ 030840Z AUTO 19004KT 3SM BR CLR 20/19 A2982 1170 93 2100 190/04 RMK AO2 TSNO
94908KDBQ DBQ20030703024510607/03/03 02:45:31  5-MIN KDBQ 030845Z AUTO 19004KT 3SM BR CLR 20/19 A2982 1170 93 2100 190/04 RMK AO2 TSNO
94908KDBQ DBQ20030703025012907/03/03 02:50:31  5-MIN KDBQ 030850Z AUTO 19004KT 3SM BR CLR 20/18 A2982 1170 90 2100 190/04 RMK AO2 SLP090 T02000183 58002 TSNO
94908KDBQ DBQ20030703025512907/03/03 02:55:31  5-MIN KDBQ 030855Z AUTO 19004KT 3SM BR CLR 20/18 A2982 1170 90 2100 190/04 RMK AO2 SLP090 T02000183 56004 TSNO
94908KDBQ DBQ20030703030010607/03/03 03:00:31  5-MIN KDBQ 030900Z AUTO 19004KT 3SM BR CLR 20/18 A2982 1170 90 2100 190/04 RMK AO2 TSNO
94908KDBQ DBQ20030703030510607/03/03 03:05:31  5-MIN KDBQ 030905Z AUTO 20004KT 3SM BR CLR 20/18 A2982 1170 90 2100 200/04 RMK AO2 TSNO
94908KDBQ DBQ20030703031010607/03/03 03:10:31  5-MIN KDBQ 030910Z AUTO 20005KT 3SM BR CLR 20/18 A2982 1170 90 2100 200/05 RMK AO2 TSNO
94908KDBQ DBQ20030703031510607/03/03 03:15:31  5-MIN KDBQ 030915Z AUTO 18005KT 3SM BR CLR 20/19 A2982 1170 93 2100 180/05 RMK AO2 TSNO
94908KDBQ DBQ20030703032010607/03/03 03:20:31  5-MIN KDBQ 030920Z AUTO 18006KT 3SM BR CLR 20/19 A2981 1180 93 2100 180/06 RMK AO2 TSNO
94908KDBQ DBQ20030703032510607/03/03 03:25:31  5-MIN KDBQ 030925Z AUTO 17009KT 3SM BR CLR 20/19 A2981 1180 93 2100 170/09 RMK AO2 TSNO
94908KDBQ DBQ20030703033010607/03/03 03:30:31  5-MIN KDBQ 030930Z AUTO 17007KT 3SM BR CLR 21/19 A2981 1180 93 2100 170/07 RMK AO2 TSNO
94908KDBQ DBQ20030703033510607/03/03 03:35:31  5-MIN KDBQ 030935Z AUTO 17007KT 3SM BR CLR 21/19 A2981 1180 93 2100 170/07 RMK AO2 TSNO
94908KDBQ DBQ20030703034010607/03/03 03:40:31  5-MIN KDBQ 030940Z AUTO 20006KT 3SM BR CLR 21/19 A2981 1180 93 2100 200/06 RMK AO2 TSNO
94908KDBQ DBQ20030703034511007/03/03 03:45:31  5-MIN KDBQ 030945Z AUTO 19006KT 2 1/2SM BR CLR 21/19 A2981 1180 90 2100 190/06 RMK AO2 TSNO
94908KDBQ DBQ20030703035012307/03/03 03:50:31  5-MIN KDBQ 030950Z AUTO 21006KT 3SM BR CLR 21/19 A2981 1180 93 2100 200/06 RMK AO2 SLP087 T02060194 TSNO
94908KDBQ DBQ20030703035512307/03/03 03:55:31  5-MIN KDBQ 030955Z AUTO 23005KT 3SM BR CLR 20/19 A2982 1170 93 2100 230/05 RMK AO2 SLP089 T02000189 TSNO
94908KDBQ DBQ20030703040010607/03/03 04:00:31  5-MIN KDBQ 031000Z AUTO 21006KT 3SM BR CLR 21/19 A2982 1180 90 2100 200/06 RMK AO2 TSNO
94908KDBQ DBQ20030703040510607/03/03 04:05:31  5-MIN KDBQ 031005Z AUTO 20006KT 3SM BR CLR 21/19 A2981 1180 93 2100 200/06 RMK AO2 TSNO
94908KDBQ DBQ20030703041010607/03/03 04:10:31  5-MIN KDBQ 031010Z AUTO 19008KT 3SM BR CLR 21/19 A2981 1180 93 2100 190/08 RMK AO2 TSNO
94908KDBQ DBQ20030703041510607/03/03 04:15:31  5-MIN KDBQ 031015Z AUTO 18009KT 3SM BR CLR 21/19 A2980 1190 93 2100 180/09 RMK AO2 TSNO
94908KDBQ DBQ20030703042010607/03/03 04:20:31  5-MIN KDBQ 031020Z AUTO 19008KT 3SM BR CLR 21/19 A2980 1190 93 2200 190/08 RMK AO2 TSNO
94908KDBQ DBQ20030703042510607/03/03 04:25:31  5-MIN KDBQ 031025Z AUTO 18009KT 3SM BR CLR 21/19 A2979 1200 93 2200 180/09 RMK AO2 TSNO
94908KDBQ DBQ20030703043010607/03/03 04:30:31  5-MIN KDBQ 031030Z AUTO 20009KT 3SM BR CLR 21/19 A2980 1190 93 2100 200/09 RMK AO2 TSNO
94908KDBQ DBQ20030703043510507/03/03 04:35:31  5-MIN KDBQ 031035Z 23010KT 2 1/2SM BR CLR 20/19 A2981 1180 93 2100 230/10 RMK AO2 TSNO
94908KDBQ DBQ20030703044009607/03/03 04:40:31  5-MIN KDBQ 031040Z 21010KT 2SM BR CLR 20/19 A2982 1180 93 2100 210/10 RMK AO2
94908KDBQ DBQ20030703044510707/03/03 04:45:31  5-MIN KDBQ 031045Z 22009KT 1 3/4SM BR CLR 21/19 A2983 1160 93 2100 220/09 RMK AO2 PRESRR
94908KDBQ DBQ20030703045011307/03/03 04:50:31  5-MIN KDBQ 031050Z 22008KT 2SM BR CLR 21/19 A2983 1160 93 2100 220/08 RMK AO2 SLP095 T02060194
94908KDBQ DBQ20030703045511307/03/03 04:55:31  5-MIN KDBQ 031055Z 21008KT 2SM BR CLR 21/19 A2983 1160 93 2100 210/08 RMK AO2 SLP093 T02060194
94908KDBQ DBQ20030703050009607/03/03 05:00:31  5-MIN KDBQ 031100Z 19006KT 2SM BR CLR 21/19 A2983 1170 93 2100 190/06 RMK AO2
94908KDBQ DBQ20030703050510007/03/03 05:05:31  5-MIN KDBQ 031105Z 17007KT 1 3/4SM BR CLR 21/19 A2982 1180 93 2100 170/07 RMK AO2
94908KDBQ DBQ20030703051010007/03/03 05:10:31  5-MIN KDBQ 031110Z 18008KT 1 3/4SM BR CLR 21/19 A2981 1180 93 2100 180/08 RMK AO2
94908KDBQ DBQ20030703051511007/03/03 05:15:31  5-MIN KDBQ 031115Z 16012KT 1 3/4SM BR FEW060 21/19 A2979 1200 93 2200 160/12 RMK AO2 PRESFR
94908KDBQ DBQ20030703052012607/03/03 05:20:31  5-MIN KDBQ 031120Z 21010KT 1 3/4SM -RA BR SCT039 SCT065 21/19 A2981 1180 93 2100 210/10 RMK AO2 RAB17 P0000
94908KDBQ DBQ20030703052512607/03/03 05:25:31  5-MIN KDBQ 031125Z 22009KT 1 3/4SM -RA BR SCT034 SCT065 21/19 A2982 1170 90 2200 220/09 RMK AO2 RAB17 P0000
94908KDBQ DBQ20030703053012207/03/03 05:30:31  5-MIN KDBQ 031130Z 22010KT 2SM -RA BR FEW038 SCT065 21/19 A2982 1170 90 2200 220/10 RMK AO2 RAB17 P0000
94908KDBQ DBQ20030703053512107/03/03 05:35:31  5-MIN KDBQ 031135Z 21010KT 2SM BR FEW038 SCT065 21/20 A2982 1170 93 2200 210/10 RMK AO2 RAB17E32 P0000
94908KDBQ DBQ20030703054011407/03/03 05:40:31  5-MIN KDBQ 031140Z 20010KT 2SM BR FEW038 21/20 A2982 1170 93 2200 200/10 RMK AO2 RAB17E32 P0000
94908KDBQ DBQ20030703054511807/03/03 05:45:31  5-MIN KDBQ 031145Z 20010KT 2 1/2SM BR FEW043 22/20 A2982 1170 90 2300 200/10 RMK AO2 RAB17E32 P0000
94908KDBQ DBQ20030703055015907/03/03 05:50:31  5-MIN KDBQ 031150Z 18008KT 2 1/2SM BR FEW095 22/20 A2982 1170 90 2300 180/08 RMK AO2 RAB17E32 SLP089 P0000 60000 T02170200 10217 20194 56004
94908KDBQ DBQ20030703055517307/03/03 05:55:31  5-MIN KDBQ 031155Z 21008KT 2 1/2SM -RA BR FEW065 SCT100 22/20 A2983 1160 90 2200 210/08 RMK AO2 RAB17E32B53 SLP092 P0000 60000 T02170200 10217 20194 53002
94908KDBQ DBQ20030703060012007/03/03 06:00:31  5-MIN KDBQ 031200Z 17007KT 2 1/2SM -RA BR SCT060 SCT110 21/20 A2982 1170 93 2200 170/07 RMK AO2 P0000
94908KDBQ DBQ20030703060511607/03/03 06:05:31  5-MIN KDBQ 031205Z 17006KT 2SM -RA BR FEW065 BKN120 21/20 A2983 1170 93 2200 160/06 RMK AO2 P0001
94908KDBQ DBQ20030703061011607/03/03 06:10:31  5-MIN KDBQ 031210Z 15004KT 2SM -RA BR FEW065 BKN120 21/20 A2984 1150 93 2200 140/04 RMK AO2 P0001
94908KDBQ DBQ20030703061512507/03/03 06:15:31  5-MIN KDBQ 031215Z 02007KT 2SM BR FEW060 BKN110 21/20 A2988 1120 93 2100 020/07 RMK AO2 RAE13 PRESRR P0001
94908KDBQ DBQ20030703062012507/03/03 06:20:31  5-MIN KDBQ 031220Z 36013KT 2SM BR FEW055 OVC110 21/20 A2990 1090 93 2100 360/13 RMK AO2 RAE13 PRESRR P0001
94908KDBQ DBQ20030703062512507/03/03 06:25:31  5-MIN KDBQ 031225Z 36010KT 2SM BR SCT055 BKN110 21/20 A2991 1090 93 2100 360/10 RMK AO2 RAE13 PRESRR P0001
94908KDBQ DBQ20030703063012907/03/03 06:30:31  5-MIN KDBQ 031230Z 34005KT 2 1/2SM BR FEW055 BKN100 OVC120 22/20 A2991 1090 90 2200 340/05 RMK AO2 RAE13 P0001
94908KDBQ DBQ20030703063512907/03/03 06:35:31  5-MIN KDBQ 031235Z VRB03KT 2 1/2SM BR FEW050 BKN080 OVC110 22/20 A2990 1090 90 2200 VRB/03 RMK AO2 RAE13 P0002
94908KDBQ DBQ20030703064013407/03/03 06:40:31  5-MIN KDBQ 031240Z VRB04KT 3/4SM +RA BR SCT023 BKN060 OVC110 22/20 A2988 1110 90 2200 VRB/04 RMK AO2 RAE13B36 P0019
94908KDBQ DBQ20030703064513407/03/03 06:45:31  5-MIN KDBQ 031245Z VRB04KT 1/2SM +RA FG BKN016 BKN055 OVC100 22/20 A2988 1120 90 2200 VRB/04 RMK AO2 RAE13B36 P0025
94908KDBQ DBQ20030703065014907/03/03 06:50:31  5-MIN KDBQ 031250Z 10004KT 1SM +RA BR BKN018 BKN055 OVC090 21/20 A2989 1110 93 2100 100/04 RMK AO2 RAE13B36 SLP114 P0027 T02110200
94908KDBQ DBQ20030703065514607/03/03 06:55:31  5-MIN KDBQ 031255Z 06004KT 1 3/4SM -RA BR BKN025 BKN090 21/20 A2988 1110 93 2100 060/04 RMK AO2 RAE13B36 SLP113 P0027 T02110200
94908KDBQ DBQ20030703070012307/03/03 07:00:31  5-MIN KDBQ 031300Z 36004KT 3SM -RA BR BKN042 BKN085 BKN110 21/20 A2989 1110 93 2100 360/04 RMK AO2 P0000
94908KDBQ DBQ20030703070512007/03/03 07:05:31  5-MIN KDBQ 031305Z 00000KT 2 1/2SM -RA BR BKN036 OVC110 21/20 A2988 1110 97 2100 000/00 RMK AO2 P0002
94908KDBQ DBQ20030703073012907/03/03 07:30:31  5-MIN KDBQ 031330Z 16007KT 2 1/2SM BR FEW032 BKN085 OVC110 22/21 A2986 1140 93 2200 160/07 RMK AO2 RAE21 P0002
94908KDBQ DBQ20030703073512507/03/03 07:35:31  5-MIN KDBQ 031335Z 15007KT 3SM BR FEW065 BKN085 OVC110 22/21 A2985 1140 93 2200 150/07 RMK AO2 RAE21 P0002
94908KDBQ DBQ20030703074011507/03/03 07:40:31  5-MIN KDBQ 031340Z 15008KT 2 1/2SM BR BKN090 22/21 A2985 1140 93 2200 150/08 RMK AO2 RAE21 P0002
94908KDBQ DBQ20030703074512207/03/03 07:45:31  5-MIN KDBQ 031345Z 15008KT 2 1/2SM BR BKN085 22/21 A2983 1160 90 2300 150/08 RMK AO2 RAE21 PRESFR P0002
94908KDBQ DBQ20030703075013207/03/03 07:50:31  5-MIN KDBQ 031350Z 17009KT 2 1/2SM BR BKN085 22/21 A2984 1150 90 2300 170/09 RMK AO2 RAE21 SLP097 P0002 T02220206
94908KDBQ DBQ20030703075513207/03/03 07:55:31  5-MIN KDBQ 031355Z 17008KT 2 1/2SM BR SCT085 22/21 A2984 1160 90 2300 160/08 RMK AO2 RAE21 SLP096 P0002 T02220206
94908KDBQ DBQ20030703080010307/03/03 08:00:31  5-MIN KDBQ 031400Z 17010KT 2 1/2SM BR SCT090 22/21 A2983 1160 90 2300 170/10 RMK AO2
94908KDBQ DBQ20030703080510307/03/03 08:05:31  5-MIN KDBQ 031405Z 17011KT 2 1/2SM BR FEW090 22/21 A2983 1170 90 2300 170/11 RMK AO2
94908KDBQ DBQ20030703081009907/03/03 08:10:31  5-MIN KDBQ 031410Z 17010KT 3SM BR FEW085 22/21 A2982 1170 90 2300 170/10 RMK AO2
94908KDBQ DBQ20030703081509607/03/03 08:15:31  5-MIN KDBQ 031415Z 18010KT 3SM BR CLR 22/21 A2982 1170 90 2300 180/10 RMK AO2
94908KDBQ DBQ20030703082009607/03/03 08:20:31  5-MIN KDBQ 031420Z 18010KT 3SM BR CLR 23/21 A2982 1180 90 2400 180/10 RMK AO2
94908KDBQ DBQ20030703082509607/03/03 08:25:31  5-MIN KDBQ 031425Z 18012KT 4SM BR CLR 23/21 A2981 1180 90 2400 180/12 RMK AO2
94908KDBQ DBQ20030703083009607/03/03 08:30:31  5-MIN KDBQ 031430Z 18011KT 4SM BR CLR 23/21 A2981 1180 87 2500 180/11 RMK AO2
94908KDBQ DBQ20030703083509607/03/03 08:35:31  5-MIN KDBQ 031435Z 18011KT 5SM BR CLR 23/21 A2981 1180 87 2500 180/11 RMK AO2
94908KDBQ DBQ20030703084009607/03/03 08:40:31  5-MIN KDBQ 031440Z 19012KT 5SM HZ CLR 24/21 A2981 1180 84 2500 180/12 RMK AO2
94908KDBQ DBQ20030703084509607/03/03 08:45:31  5-MIN KDBQ 031445Z 19012KT 5SM HZ CLR 24/21 A2980 1190 84 2500 190/12 RMK AO2
94908KDBQ DBQ20030703085012507/03/03 08:50:31  5-MIN KDBQ 031450Z 19012KT 6SM HZ CLR 24/21 A2980 1190 81 2600 180/12 RMK AO2 SLP084 60029 T02440211 53002
94908KDBQ DBQ20030703085512507/03/03 08:55:31  5-MIN KDBQ 031455Z 19013KT 6SM HZ CLR 24/21 A2980 1190 81 2600 190/13 RMK AO2 SLP083 60029 T02440211 58010
94908KDBQ DBQ20030703090009607/03/03 09:00:31  5-MIN KDBQ 031500Z 19013KT 6SM HZ CLR 25/22 A2980 1190 81 2700 190/13 RMK AO2
94908KDBQ DBQ20030703090509307/03/03 09:05:31  5-MIN KDBQ 031505Z 19013KT 7SM CLR 26/22 A2979 1200 79 2700 190/13 RMK AO2
94908KDBQ DBQ20030703091009907/03/03 09:10:31  5-MIN KDBQ 031510Z 20017G20KT 8SM CLR 26/21 A2979 1200 76 2700 190/17G20 RMK AO2
94908KDBQ DBQ20030703091509307/03/03 09:15:31  5-MIN KDBQ 031515Z 20014KT 8SM CLR 26/21 A2979 1200 76 2700 200/14 RMK AO2
94908KDBQ DBQ20030703092009307/03/03 09:20:31  5-MIN KDBQ 031520Z 20016KT 8SM CLR 26/22 A2979 1200 76 2800 200/16 RMK AO2
94908KDBQ DBQ20030703092510207/03/03 09:25:31  5-MIN KDBQ 031525Z 20015G20KT 9SM FEW090 26/21 A2978 1200 73 2800 190/15G20 RMK AO2
94908KDBQ DBQ20030703093010307/03/03 09:30:31  5-MIN KDBQ 031530Z 19013G20KT 10SM SCT085 26/21 A2978 1200 73 2800 190/13G20 RMK AO2
94908KDBQ DBQ20030703093509707/03/03 09:35:31  5-MIN KDBQ 031535Z 20016KT 10SM BKN080 26/21 A2978 1210 73 2800 200/16 RMK AO2
94908KDBQ DBQ20030703094009707/03/03 09:40:31  5-MIN KDBQ 031540Z 19014KT 10SM BKN080 27/22 A2978 1210 73 2900 190/14 RMK AO2
94908KDBQ DBQ20030703094510307/03/03 09:45:31  5-MIN KDBQ 031545Z 19016G20KT 10SM BKN080 27/22 A2978 1210 71 2900 190/16G20 RMK AO2
94908KDBQ DBQ20030703095011407/03/03 09:50:31  5-MIN KDBQ 031550Z 19016KT 10SM BKN080 27/22 A2978 1210 71 2900 190/16 RMK AO2 SLP075 T02720217
94908KDBQ DBQ20030703095511407/03/03 09:55:31  5-MIN KDBQ 031555Z 20017KT 10SM BKN080 27/21 A2977 1210 69 2900 200/17 RMK AO2 SLP074 T02720211
94908KDBQ DBQ20030703100009707/03/03 10:00:31  5-MIN KDBQ 031600Z 19014KT 10SM BKN075 27/21 A2977 1220 69 2900 190/14 RMK AO2
94908KDBQ DBQ20030703100509707/03/03 10:05:31  5-MIN KDBQ 031605Z 20018KT 10SM BKN070 27/21 A2977 1220 69 2900 200/18 RMK AO2
94908KDBQ DBQ20030703101009707/03/03 10:10:31  5-MIN KDBQ 031610Z 19016KT 10SM SCT070 28/22 A2977 1220 69 3000 190/16 RMK AO2
94908KDBQ DBQ20030703101510307/03/03 10:15:31  5-MIN KDBQ 031615Z 19015G22KT 10SM SCT070 28/22 A2977 1220 69 3000 190/15G22 RMK AO2
94908KDBQ DBQ20030703102010307/03/03 10:20:31  5-MIN KDBQ 031620Z 19015G22KT 10SM FEW070 28/21 A2977 1220 64 3100 190/15G22 RMK AO2
94908KDBQ DBQ20030703102509707/03/03 10:25:31  5-MIN KDBQ 031625Z 19016KT 10SM FEW070 28/22 A2977 1220 66 3100 190/16 RMK AO2
94908KDBQ DBQ20030703103009707/03/03 10:30:31  5-MIN KDBQ 031630Z 19017KT 10SM FEW070 28/21 A2977 1210 64 3100 190/17 RMK AO2
94908KDBQ DBQ20030703103509407/03/03 10:35:31  5-MIN KDBQ 031635Z 20017KT 10SM CLR 28/21 A2978 1210 64 3100 200/17 RMK AO2
94908KDBQ DBQ20030703104009707/03/03 10:40:31  5-MIN KDBQ 031640Z 19016KT 10SM FEW065 28/21 A2978 1210 64 3100 190/16 RMK AO2
94908KDBQ DBQ20030703104510307/03/03 10:45:31  5-MIN KDBQ 031645Z 19015G22KT 10SM FEW065 29/22 A2977 1210 64 3100 190/15G22 RMK AO2
94908KDBQ DBQ20030703105012007/03/03 10:50:31  5-MIN KDBQ 031650Z 20015G22KT 10SM FEW065 29/22 A2977 1220 64 3100 200/15G22 RMK AO2 SLP074 T02890217
94908KDBQ DBQ20030703105512007/03/03 10:55:31  5-MIN KDBQ 031655Z 19018G21KT 10SM FEW065 29/22 A2977 1220 64 3100 190/18G21 RMK AO2 SLP073 T02890217
94908KDBQ DBQ20030703110009707/03/03 11:00:31  5-MIN KDBQ 031700Z 19019KT 10SM FEW065 29/22 A2976 1220 62 3200 190/19 RMK AO2
94908KDBQ DBQ20030703110509707/03/03 11:05:31  5-MIN KDBQ 031705Z 19019KT 10SM FEW065 29/22 A2976 1220 62 3200 190/19 RMK AO2
94908KDBQ DBQ20030703111009407/03/03 11:10:31  5-MIN KDBQ 031710Z 19014KT 10SM CLR 29/22 A2977 1220 62 3200 190/14 RMK AO2
94908KDBQ DBQ20030703111509407/03/03 11:15:31  5-MIN KDBQ 031715Z 19014KT 10SM CLR 29/23 A2977 1220 67 3200 190/14 RMK AO2
94908KDBQ DBQ20030703112009407/03/03 11:20:31  5-MIN KDBQ 031720Z 20017KT 10SM CLR 29/22 A2977 1220 64 3200 190/17 RMK AO2
94908KDBQ DBQ20030703112509707/03/03 11:25:31  5-MIN KDBQ 031725Z 20016KT 10SM FEW100 29/22 A2977 1210 64 3100 200/16 RMK AO2
94908KDBQ DBQ20030703113009707/03/03 11:30:31  5-MIN KDBQ 031730Z 20013KT 10SM FEW100 29/22 A2977 1210 67 3100 200/13 RMK AO2
94908KDBQ DBQ20030703113509707/03/03 11:35:31  5-MIN KDBQ 031735Z 21016KT 10SM FEW100 29/22 A2978 1210 64 3200 210/16 RMK AO2
94908KDBQ DBQ20030703114009707/03/03 11:40:31  5-MIN KDBQ 031740Z 21014KT 10SM FEW100 30/22 A2978 1210 62 3200 210/14 RMK AO2
94908KDBQ DBQ20030703114510307/03/03 11:45:31  5-MIN KDBQ 031745Z 22016G20KT 10SM FEW100 30/22 A2978 1210 62 3200 220/16G20 RMK AO2
94908KDBQ DBQ20030703115014407/03/03 11:50:31  5-MIN KDBQ 031750Z 21017G20KT 10SM FEW100 30/22 A2978 1210 62 3200 210/17G20 RMK AO2 SLP076 60029 T03000222 10300 20206 58010
94908KDBQ DBQ20030703115514107/03/03 11:55:31  5-MIN KDBQ 031755Z 22019G24KT 10SM CLR 30/22 A2977 1220 62 3200 220/19G24 RMK AO2 SLP073 60029 T03000222 10300 20206 55008
94908KDBQ DBQ20030703120010007/03/03 12:00:31  5-MIN KDBQ 031800Z 22015G24KT 10SM CLR 30/22 A2977 1220 62 3200 220/15G24 RMK AO2
94908KDBQ DBQ20030703120509407/03/03 12:05:31  5-MIN KDBQ 031805Z 22018KT 10SM CLR 29/22 A2978 1210 64 3200 220/18 RMK AO2
94908KDBQ DBQ20030703121009407/03/03 12:10:31  5-MIN KDBQ 031810Z 21020KT 10SM CLR 30/22 A2977 1220 62 3200 210/20 RMK AO2
94908KDBQ DBQ20030703121510007/03/03 12:15:31  5-MIN KDBQ 031815Z 22019G23KT 10SM CLR 30/23 A2977 1210 65 3200 220/19G23 RMK AO2
94908KDBQ DBQ20030703122010307/03/03 12:20:31  5-MIN KDBQ 031820Z 21015G23KT 10SM FEW040 30/23 A2977 1220 65 3200 200/15G23 RMK AO2
94908KDBQ DBQ20030703122509707/03/03 12:25:31  5-MIN KDBQ 031825Z 22016KT 10SM FEW036 30/23 A2977 1220 65 3200 220/16 RMK AO2
94908KDBQ DBQ20030703123009707/03/03 12:30:31  5-MIN KDBQ 031830Z 21017KT 10SM FEW034 30/23 A2977 1210 65 3200 210/17 RMK AO2
94908KDBQ DBQ20030703123510307/03/03 12:35:31  5-MIN KDBQ 031835Z 22013G21KT 10SM FEW034 30/23 A2977 1220 65 3200 220/13G21 RMK AO2
94908KDBQ DBQ20030703124010307/03/03 12:40:31  5-MIN KDBQ 031840Z 22013G21KT 10SM FEW034 30/23 A2976 1220 67 3300 220/13G21 RMK AO2
94908KDBQ DBQ20030703124510307/03/03 12:45:31  5-MIN KDBQ 031845Z 22017G22KT 10SM FEW034 31/23 A2977 1220 62 3300 220/17G22 RMK AO2
94908KDBQ DBQ20030703125012007/03/03 12:50:31  5-MIN KDBQ 031850Z 23017G22KT 10SM FEW034 30/23 A2977 1220 65 3200 230/17G22 RMK AO2 SLP072 T03000228
94908KDBQ DBQ20030703125511407/03/03 12:55:31  5-MIN KDBQ 031855Z 23015KT 10SM FEW034 31/23 A2977 1220 65 3300 230/15 RMK AO2 SLP073 T03060233
94908KDBQ DBQ20030703130010207/03/03 13:00:31  5-MIN KDBQ 031900Z 23014G21KT 9SM SCT034 30/23 A2977 1220 67 3200 230/14G21 RMK AO2
94908KDBQ DBQ20030703130510207/03/03 13:05:31  5-MIN KDBQ 031905Z 23016G21KT 9SM SCT034 30/23 A2977 1220 67 3200 230/16G21 RMK AO2
94908KDBQ DBQ20030703131010307/03/03 13:10:31  5-MIN KDBQ 031910Z 22012G21KT 10SM SCT034 30/23 A2977 1220 65 3200 220/12G21 RMK AO2
94908KDBQ DBQ20030703131509707/03/03 13:15:31  5-MIN KDBQ 031915Z 22012KT 10SM SCT034 31/24 A2977 1220 67 3300 220/12 RMK AO2
94908KDBQ DBQ20030703132009707/03/03 13:20:31  5-MIN KDBQ 031920Z 21014KT 10SM SCT034 31/23 A2977 1220 65 3300 210/14 RMK AO2
94908KDBQ DBQ20030703132509707/03/03 13:25:31  5-MIN KDBQ 031925Z 22013KT 10SM SCT034 30/23 A2977 1220 67 3200 210/13 RMK AO2
94908KDBQ DBQ20030703133010407/03/03 13:30:31  5-MIN KDBQ 031930Z 23012KT 10SM SCT037 SCT045 31/24 A2977 1220 67 3300 230/12 RMK AO2
94908KDBQ DBQ20030703133510307/03/03 13:35:31  5-MIN KDBQ 031935Z 22012KT 9SM SCT035 BKN045 30/24 A2977 1220 69 3200 220/12 RMK AO2
94908KDBQ DBQ20030703134009607/03/03 13:40:31  5-MIN KDBQ 031940Z 22014KT 9SM BKN035 30/23 A2977 1220 67 3200 220/14 RMK AO2
94908KDBQ DBQ20030703134509607/03/03 13:45:31  5-MIN KDBQ 031945Z 23012KT 9SM BKN035 31/23 A2977 1220 65 3300 230/12 RMK AO2
94908KDBQ DBQ20030703135012107/03/03 13:50:31  5-MIN KDBQ 031950Z 24013KT 10SM BKN037 BKN044 31/24 A2977 1210 67 3300 230/13 RMK AO2 SLP074 T03060239
94908KDBQ DBQ20030703135512007/03/03 13:55:31  5-MIN KDBQ 031955Z 23011KT 9SM BKN037 BKN044 31/24 A2978 1210 67 3300 230/11 RMK AO2 SLP075 T03060239
94908KDBQ DBQ20030703140010307/03/03 14:00:31  5-MIN KDBQ 032000Z 23012KT 9SM BKN037 BKN044 31/24 A2977 1210 67 3300 230/12 RMK AO2
94908KDBQ DBQ20030703140510307/03/03 14:05:31  5-MIN KDBQ 032005Z 23010KT 9SM BKN037 BKN046 31/24 A2977 1210 67 3300 230/10 RMK AO2
94908KDBQ DBQ20030703141009707/03/03 14:10:31  5-MIN KDBQ 032010Z 23012KT 10SM BKN039 31/24 A2977 1220 67 3400 230/12 RMK AO2
94908KDBQ DBQ20030703141510407/03/03 14:15:31  5-MIN KDBQ 032015Z 23011KT 10SM SCT038 SCT047 31/24 A2977 1220 67 3300 220/11 RMK AO2
94908KDBQ DBQ20030703142009707/03/03 14:20:31  5-MIN KDBQ 032020Z 23013KT 10SM FEW038 31/24 A2977 1220 65 3400 230/13 RMK AO2
94908KDBQ DBQ20030703142509707/03/03 14:25:31  5-MIN KDBQ 032025Z 22014KT 10SM FEW038 31/24 A2977 1220 67 3400 220/14 RMK AO2
94908KDBQ DBQ20030703143009707/03/03 14:30:31  5-MIN KDBQ 032030Z 24012KT 10SM FEW040 31/24 A2977 1220 65 3400 240/12 RMK AO2
94908KDBQ DBQ20030703143509607/03/03 14:35:31  5-MIN KDBQ 032035Z 23012KT 9SM FEW037 31/24 A2977 1220 67 3300 230/12 RMK AO2
94908KDBQ DBQ20030703144009607/03/03 14:40:31  5-MIN KDBQ 032040Z 23010KT 9SM SCT037 31/24 A2977 1220 67 3300 220/10 RMK AO2
94908KDBQ DBQ20030703144509607/03/03 14:45:31  5-MIN KDBQ 032045Z 22011KT 9SM SCT037 31/24 A2977 1220 65 3400 220/11 RMK AO2
94908KDBQ DBQ20030703145011907/03/03 14:50:31  5-MIN KDBQ 032050Z 23012KT 9SM SCT037 31/24 A2976 1220 65 3400 230/12 RMK AO2 SLP071 T03110239 55008
94908KDBQ DBQ20030703145511907/03/03 14:55:31  5-MIN KDBQ 032055Z 24009KT 9SM SCT037 31/24 A2977 1220 65 3400 240/09 RMK AO2 SLP071 T03110239 58002
94908KDBQ DBQ20030703150009607/03/03 15:00:31  5-MIN KDBQ 032100Z 24009KT 9SM SCT037 31/24 A2976 1220 65 3400 240/09 RMK AO2
94908KDBQ DBQ20030703150509607/03/03 15:05:31  5-MIN KDBQ 032105Z 24009KT 9SM SCT035 31/24 A2976 1230 65 3400 240/09 RMK AO2
94908KDBQ DBQ20030703151009607/03/03 15:10:31  5-MIN KDBQ 032110Z 23010KT 9SM SCT035 32/24 A2976 1230 65 3400 220/10 RMK AO2
94908KDBQ DBQ20030703151509607/03/03 15:15:31  5-MIN KDBQ 032115Z 23010KT 9SM FEW035 32/24 A2976 1220 65 3400 230/10 RMK AO2
94908KDBQ DBQ20030703152009607/03/03 15:20:31  5-MIN KDBQ 032120Z 25011KT 9SM FEW035 31/24 A2976 1220 67 3400 250/11 RMK AO2
94908KDBQ DBQ20030703152509607/03/03 15:25:31  5-MIN KDBQ 032125Z 24011KT 9SM FEW035 31/24 A2976 1220 67 3400 240/11 RMK AO2
94908KDBQ DBQ20030703153009607/03/03 15:30:31  5-MIN KDBQ 032130Z 24011KT 9SM FEW035 31/24 A2976 1230 65 3400 240/11 RMK AO2
94908KDBQ DBQ20030703153509307/03/03 15:35:31  5-MIN KDBQ 032135Z 23011KT 9SM CLR 31/24 A2976 1230 65 3400 230/11 RMK AO2
94908KDBQ DBQ20030703154009307/03/03 15:40:31  5-MIN KDBQ 032140Z 24009KT 8SM CLR 31/24 A2976 1220 65 3400 240/09 RMK AO2
94908KDBQ DBQ20030703154509607/03/03 15:45:31  5-MIN KDBQ 032145Z 24009KT 8SM FEW038 31/24 A2976 1220 67 3400 240/09 RMK AO2
94908KDBQ DBQ20030703155011307/03/03 15:50:31  5-MIN KDBQ 032150Z 25010KT 8SM FEW038 32/24 A2977 1220 65 3400 250/10 RMK AO2 SLP070 T03170244
94908KDBQ DBQ20030703155511307/03/03 15:55:31  5-MIN KDBQ 032155Z 24010KT 8SM FEW040 31/24 A2977 1220 67 3400 240/10 RMK AO2 SLP072 T03110244
94908KDBQ DBQ20030703160009607/03/03 16:00:31  5-MIN KDBQ 032200Z 24008KT 8SM FEW040 31/24 A2977 1220 67 3300 240/08 RMK AO2
94908KDBQ DBQ20030703160510307/03/03 16:05:31  5-MIN KDBQ 032205Z 23008KT 8SM SCT040 SCT048 32/24 A2977 1220 65 3400 230/08 RMK AO2
94908KDBQ DBQ20030703161010307/03/03 16:10:31  5-MIN KDBQ 032210Z 24008KT 8SM SCT040 SCT048 32/24 A2976 1220 65 3400 240/08 RMK AO2
94908KDBQ DBQ20030703161510307/03/03 16:15:31  5-MIN KDBQ 032215Z 25009KT 8SM SCT038 SCT048 32/24 A2976 1220 63 3400 250/09 RMK AO2
94908KDBQ DBQ20030703162009607/03/03 16:20:31  5-MIN KDBQ 032220Z 25009KT 8SM FEW038 31/24 A2976 1220 67 3400 250/09 RMK AO2
94908KDBQ DBQ20030703162509607/03/03 16:25:31  5-MIN KDBQ 032225Z 24009KT 8SM FEW038 31/24 A2977 1220 67 3400 240/09 RMK AO2
94908KDBQ DBQ20030703163009607/03/03 16:30:31  5-MIN KDBQ 032230Z 26008KT 8SM FEW038 32/24 A2977 1220 65 3400 260/08 RMK AO2
94908KDBQ DBQ20030703163509607/03/03 16:35:31  5-MIN KDBQ 032235Z 26008KT 9SM FEW037 32/24 A2977 1220 65 3400 250/08 RMK AO2
94908KDBQ DBQ20030703164009607/03/03 16:40:31  5-MIN KDBQ 032240Z 26007KT 9SM FEW035 31/24 A2977 1220 67 3400 260/07 RMK AO2
94908KDBQ DBQ20030703164509307/03/03 16:45:31  5-MIN KDBQ 032245Z 26006KT 9SM CLR 32/24 A2977 1220 65 3400 260/06 RMK AO2
94908KDBQ DBQ20030703165011307/03/03 16:50:31  5-MIN KDBQ 032250Z 25008KT 9SM FEW040 32/24 A2977 1220 65 3400 250/08 RMK AO2 SLP072 T03170244
94908KDBQ DBQ20030703165511307/03/03 16:55:31  5-MIN KDBQ 032255Z 25007KT 8SM FEW040 31/24 A2977 1220 67 3400 250/07 RMK AO2 SLP072 T03110244
94908KDBQ DBQ20030703170009607/03/03 17:00:31  5-MIN KDBQ 032300Z 25006KT 8SM FEW041 31/24 A2977 1220 67 3400 250/06 RMK AO2
94908KDBQ DBQ20030703170509607/03/03 17:05:31  5-MIN KDBQ 032305Z 25005KT 8SM FEW041 31/24 A2977 1220 67 3400 250/05 RMK AO2
94908KDBQ DBQ20030703171009607/03/03 17:10:31  5-MIN KDBQ 032310Z 26005KT 8SM FEW041 31/24 A2977 1220 67 3400 250/05 RMK AO2
94908KDBQ DBQ20030703171509607/03/03 17:15:31  5-MIN KDBQ 032315Z 25006KT 9SM FEW041 31/24 A2977 1220 67 3400 250/06 RMK AO2
94908KDBQ DBQ20030703172009607/03/03 17:20:31  5-MIN KDBQ 032320Z 26005KT 9SM FEW041 31/24 A2977 1220 67 3400 260/05 RMK AO2
94908KDBQ DBQ20030703172509307/03/03 17:25:31  5-MIN KDBQ 032325Z 26006KT 9SM CLR 31/24 A2977 1220 67 3400 260/06 RMK AO2
94908KDBQ DBQ20030703173009307/03/03 17:30:31  5-MIN KDBQ 032330Z 27007KT 9SM CLR 31/24 A2977 1220 65 3400 270/07 RMK AO2
94908KDBQ DBQ20030703173509307/03/03 17:35:31  5-MIN KDBQ 032335Z 27006KT 9SM CLR 31/24 A2977 1220 67 3400 260/06 RMK AO2
94908KDBQ DBQ20030703174009307/03/03 17:40:31  5-MIN KDBQ 032340Z 26006KT 9SM CLR 31/24 A2977 1220 65 3400 260/06 RMK AO2
94908KDBQ DBQ20030703174509307/03/03 17:45:31  5-MIN KDBQ 032345Z 26005KT 9SM CLR 31/24 A2977 1220 67 3400 260/05 RMK AO2
94908KDBQ DBQ20030703175012807/03/03 17:50:31  5-MIN KDBQ 032350Z 26005KT 9SM CLR 31/24 A2977 1220 67 3400 260/05 RMK AO2 SLP071 T03110244 10317 20294 58002
94908KDBQ DBQ20030703175512807/03/03 17:55:31  5-MIN KDBQ 032355Z 26004KT 9SM CLR 31/24 A2976 1220 67 3400 260/04 RMK AO2 SLP070 T03110244 10317 20294 58000
94908KDBQ DBQ20030703180009307/03/03 18:00:31  5-MIN KDBQ 040000Z 25004KT 9SM CLR 31/24 A2976 1220 67 3400 250/04 RMK AO2
94908KDBQ DBQ20030703180509307/03/03 18:05:31  5-MIN KDBQ 040005Z 25004KT 9SM CLR 31/24 A2977 1220 69 3300 250/04 RMK AO2
94908KDBQ DBQ20030703181009307/03/03 18:10:31  5-MIN KDBQ 040010Z 24004KT 9SM CLR 31/25 A2977 1220 72 3300 240/04 RMK AO2
94908KDBQ DBQ20030703181509307/03/03 18:15:31  5-MIN KDBQ 040015Z 25004KT 8SM CLR 31/25 A2977 1220 72 3300 250/04 RMK AO2
94908KDBQ DBQ20030703182009307/03/03 18:20:31  5-MIN KDBQ 040020Z 25003KT 8SM CLR 31/25 A2977 1220 72 3300 250/03 RMK AO2
94908KDBQ DBQ20030703182509307/03/03 18:25:31  5-MIN KDBQ 040025Z 00000KT 8SM CLR 31/25 A2977 1220 72 3300 000/00 RMK AO2
94908KDBQ DBQ20030703183009307/03/03 18:30:31  5-MIN KDBQ 040030Z 00000KT 8SM CLR 31/25 A2977 1220 72 3300 000/00 RMK AO2
94908KDBQ DBQ20030703183509307/03/03 18:35:31  5-MIN KDBQ 040035Z 23003KT 8SM CLR 31/25 A2977 1220 72 3300 230/03 RMK AO2
94908KDBQ DBQ20030703184009307/03/03 18:40:31  5-MIN KDBQ 040040Z 22003KT 8SM CLR 30/25 A2977 1220 74 3200 220/03 RMK AO2
94908KDBQ DBQ20030703184509307/03/03 18:45:31  5-MIN KDBQ 040045Z 19003KT 8SM CLR 30/26 A2977 1220 77 3200 190/03 RMK AO2
94908KDBQ DBQ20030703185011007/03/03 18:50:31  5-MIN KDBQ 040050Z 19003KT 8SM CLR 30/26 A2977 1220 77 3200 180/03 RMK AO2 SLP072 T03000256
94908KDBQ DBQ20030703185511007/03/03 18:55:31  5-MIN KDBQ 040055Z 18003KT 7SM CLR 29/26 A2977 1220 82 3200 180/03 RMK AO2 SLP072 T02940261
94908KDBQ DBQ20030703190010307/03/03 19:00:31  5-MIN KDBQ 040100Z AUTO 18003KT 7SM CLR 29/26 A2977 1220 79 3200 180/03 RMK AO2 TSNO
94908KDBQ DBQ20030703190510307/03/03 19:05:31  5-MIN KDBQ 040105Z AUTO 19003KT 7SM CLR 29/26 A2977 1220 79 3200 190/03 RMK AO2 TSNO
94908KDBQ DBQ20030703191010307/03/03 19:10:31  5-MIN KDBQ 040110Z AUTO 21004KT 7SM CLR 29/26 A2977 1220 79 3200 210/04 RMK AO2 TSNO
94908KDBQ DBQ20030703191510307/03/03 19:15:31  5-MIN KDBQ 040115Z AUTO 21003KT 7SM CLR 29/26 A2977 1220 82 3100 210/03 RMK AO2 TSNO
94908KDBQ DBQ20030703192010307/03/03 19:20:31  5-MIN KDBQ 040120Z AUTO 00000KT 7SM CLR 29/26 A2977 1220 79 3200 000/00 RMK AO2 TSNO
94908KDBQ DBQ20030703192510307/03/03 19:25:31  5-MIN KDBQ 040125Z AUTO VRB03KT 7SM CLR 28/26 A2977 1220 85 3100 VRB/03 RMK AO2 TSNO
94908KDBQ DBQ20030709111009707/09/03 11:10:31  5-MIN KDBQ 091710Z 13012KT 10SM SCT012 21/17 A2993 1070 81 2000 130/12 RMK AO2
94908KDBQ DBQ20030709111510407/09/03 11:15:31  5-MIN KDBQ 091715Z 12009KT 10SM SCT012 20/17 A2994 1060 84 1900 110/09 RMK AO2 PRESRR
94908KDBQ DBQ20030709112009707/09/03 11:20:31  5-MIN KDBQ 091720Z 13009KT 10SM BKN012 20/17 A2994 1060 84 1900 130/09 RMK AO2
94908KDBQ DBQ20030709112509707/09/03 11:25:31  5-MIN KDBQ 091725Z 14011KT 10SM BKN012 20/17 A2994 1060 84 1900 130/11 RMK AO2
94908KDBQ DBQ20030709113009707/09/03 11:30:31  5-MIN KDBQ 091730Z 13008KT 10SM BKN012 20/17 A2994 1060 84 1900 130/08 RMK AO2
94908KDBQ DBQ20030709113509707/09/03 11:35:31  5-MIN KDBQ 091735Z 12009KT 10SM BKN012 20/17 A2994 1060 84 1900 120/09 RMK AO2
94908KDBQ DBQ20030709114009707/09/03 11:40:31  5-MIN KDBQ 091740Z 11008KT 10SM OVC014 21/17 A2994 1060 81 2000 110/08 RMK AO2
94908KDBQ DBQ20030709114509707/09/03 11:45:31  5-MIN KDBQ 091745Z 11006KT 10SM OVC014 21/18 A2994 1060 84 2000 110/06 RMK AO2
94908KDBQ DBQ20030709115013807/09/03 11:50:31  5-MIN KDBQ 091750Z 11009KT 10SM OVC014 21/18 A2994 1060 84 2000 110/09 RMK AO2 SLP134 60014 T02060178 10206 20167 53008
94908KDBQ DBQ20030709115513807/09/03 11:55:31  5-MIN KDBQ 091755Z 13008KT 10SM BKN014 21/17 A2994 1060 81 2000 130/08 RMK AO2 SLP135 60014 T02060172 10206 20167 55025
94908KDBQ DBQ20030709120009707/09/03 12:00:31  5-MIN KDBQ 091800Z 12008KT 10SM BKN014 21/18 A2994 1060 84 2000 120/08 RMK AO2
94908KDBQ DBQ20030709120509707/09/03 12:05:31  5-MIN KDBQ 091805Z 12008KT 10SM OVC014 21/18 A2994 1060 84 2000 120/08 RMK AO2
94908KDBQ DBQ20030709121009707/09/03 12:10:31  5-MIN KDBQ 091810Z 11007KT 10SM OVC014 21/18 A2994 1060 84 2000 110/07 RMK AO2
94908KDBQ DBQ20030709121509707/09/03 12:15:31  5-MIN KDBQ 091815Z 11007KT 10SM OVC014 20/18 A2995 1050 87 1900 110/07 RMK AO2
94908KDBQ DBQ20030709122009707/09/03 12:20:31  5-MIN KDBQ 091820Z 12008KT 10SM OVC014 20/18 A2994 1060 87 1900 120/08 RMK AO2
94908KDBQ DBQ20030709122509707/09/03 12:25:31  5-MIN KDBQ 091825Z 10007KT 10SM OVC014 20/18 A2994 1060 87 1900 100/07 RMK AO2
94908KDBQ DBQ20030709123009707/09/03 12:30:31  5-MIN KDBQ 091830Z 09008KT 10SM OVC014 21/18 A2993 1070 84 2000 090/08 RMK AO2
94908KDBQ DBQ20030709123509707/09/03 12:35:31  5-MIN KDBQ 091835Z 08008KT 10SM OVC014 21/18 A2993 1070 81 2100 080/08 RMK AO2
94908KDBQ DBQ20030709124009707/09/03 12:40:31  5-MIN KDBQ 091840Z 09008KT 10SM OVC014 21/18 A2993 1070 81 2100 080/08 RMK AO2
94908KDBQ DBQ20030709124509707/09/03 12:45:31  5-MIN KDBQ 091845Z 10010KT 10SM OVC014 21/18 A2993 1070 81 2100 100/10 RMK AO2
94908KDBQ DBQ20030709125011407/09/03 12:50:31  5-MIN KDBQ 091850Z 10009KT 10SM OVC014 21/18 A2993 1070 84 2000 100/09 RMK AO2 SLP132 T02060178
94908KDBQ DBQ20030709125511407/09/03 12:55:31  5-MIN KDBQ 091855Z 10008KT 10SM OVC014 21/18 A2993 1070 84 2000 100/08 RMK AO2 SLP133 T02060178
94908KDBQ DBQ20030709130009707/09/03 13:00:31  5-MIN KDBQ 091900Z 10008KT 10SM OVC014 21/18 A2994 1060 84 2000 100/08 RMK AO2
94908KDBQ DBQ20030709130509707/09/03 13:05:31  5-MIN KDBQ 091905Z 10007KT 10SM OVC014 21/18 A2994 1060 84 2000 100/07 RMK AO2
94908KDBQ DBQ20030709131009707/09/03 13:10:31  5-MIN KDBQ 091910Z 08007KT 10SM OVC014 21/18 A2994 1060 84 2000 080/07 RMK AO2
94908KDBQ DBQ20030709131509707/09/03 13:15:31  5-MIN KDBQ 091915Z 08007KT 10SM OVC014 21/18 A2993 1070 84 2000 080/07 RMK AO2
94908KDBQ DBQ20030709132009707/09/03 13:20:31  5-MIN KDBQ 091920Z 08008KT 10SM OVC014 21/18 A2993 1070 84 2000 080/08 RMK AO2
94908KDBQ DBQ20030709132509707/09/03 13:25:31  5-MIN KDBQ 091925Z 07008KT 10SM OVC014 21/18 A2993 1070 84 2000 070/08 RMK AO2
94908KDBQ DBQ20030709133009707/09/03 13:30:31  5-MIN KDBQ 091930Z 07008KT 10SM OVC014 21/18 A2993 1070 84 2000 070/08 RMK AO2
94908KDBQ DBQ20030709133509707/09/03 13:35:31  5-MIN KDBQ 091935Z 08006KT 10SM OVC014 21/18 A2993 1070 84 2000 080/06 RMK AO2
94908KDBQ DBQ20030709134010707/09/03 13:40:31  5-MIN KDBQ 091940Z AUTO 07006KT 10SM OVC014 21/18 A2993 1070 84 2000 070/06 RMK AO2 TSNO
94908KDBQ DBQ20030709134510707/09/03 13:45:31  5-MIN KDBQ 091945Z AUTO 06007KT 10SM OVC014 21/18 A2992 1080 87 2000 060/07 RMK AO2 TSNO
94908KDBQ DBQ20030709135011407/09/03 13:50:31  5-MIN KDBQ 091950Z 06008KT 10SM OVC014 21/18 A2992 1080 87 2000 060/08 RMK AO2 SLP128 T02060183
94908KDBQ DBQ20030709135511407/09/03 13:55:31  5-MIN KDBQ 091955Z 04006KT 10SM OVC014 21/18 A2992 1080 87 2000 040/06 RMK AO2 SLP128 T02060183
94908KDBQ DBQ20030709140009707/09/03 14:00:31  5-MIN KDBQ 092000Z 06009KT 10SM OVC014 21/18 A2992 1080 87 2000 060/09 RMK AO2
94908KDBQ DBQ20030709140509707/09/03 14:05:31  5-MIN KDBQ 092005Z 07007KT 10SM OVC014 21/18 A2991 1080 84 2000 070/07 RMK AO2
94908KDBQ DBQ20030709141009707/09/03 14:10:31  5-MIN KDBQ 092010Z 05008KT 10SM OVC014 21/18 A2991 1090 87 2000 050/08 RMK AO2
94908KDBQ DBQ20030709141509707/09/03 14:15:31  5-MIN KDBQ 092015Z 06008KT 10SM OVC014 21/18 A2991 1090 84 2000 060/08 RMK AO2
94908KDBQ DBQ20030709142009707/09/03 14:20:31  5-MIN KDBQ 092020Z 06008KT 10SM OVC012 21/18 A2991 1080 87 2000 060/08 RMK AO2
94908KDBQ DBQ20030709142509707/09/03 14:25:31  5-MIN KDBQ 092025Z 05006KT 10SM OVC012 21/18 A2992 1080 84 2100 050/06 RMK AO2
94908KDBQ DBQ20030709143009707/09/03 14:30:31  5-MIN KDBQ 092030Z 08005KT 10SM OVC012 21/18 A2992 1080 84 2100 080/05 RMK AO2
94908KDBQ DBQ20030709143509707/09/03 14:35:31  5-MIN KDBQ 092035Z 08006KT 10SM OVC012 21/18 A2992 1080 84 2000 080/06 RMK AO2
94908KDBQ DBQ20030709144009707/09/03 14:40:31  5-MIN KDBQ 092040Z 07007KT 10SM OVC012 21/18 A2993 1070 84 2000 070/07 RMK AO2
94908KDBQ DBQ20030709144509707/09/03 14:45:31  5-MIN KDBQ 092045Z 08008KT 10SM OVC012 21/18 A2992 1080 84 2000 070/08 RMK AO2
94908KDBQ DBQ20030709145012007/09/03 14:50:31  5-MIN KDBQ 092050Z 07007KT 10SM OVC012 21/18 A2992 1080 84 2000 070/07 RMK AO2 SLP130 T02060178 55025
94908KDBQ DBQ20030709145512007/09/03 14:55:31  5-MIN KDBQ 092055Z 08006KT 10SM OVC012 21/18 A2992 1080 84 2000 080/06 RMK AO2 SLP130 T02060178 55005
94908KDBQ DBQ20030709150009707/09/03 15:00:31  5-MIN KDBQ 092100Z 08007KT 10SM OVC012 21/18 A2992 1080 84 2000 080/07 RMK AO2
94908KDBQ DBQ20030709150509707/09/03 15:05:31  5-MIN KDBQ 092105Z 08006KT 10SM OVC012 21/18 A2992 1080 84 2000 080/06 RMK AO2
94908KDBQ DBQ20030709151009707/09/03 15:10:31  5-MIN KDBQ 092110Z 09004KT 10SM OVC012 21/18 A2992 1080 87 2000 090/04 RMK AO2
94908KDBQ DBQ20030709151509707/09/03 15:15:31  5-MIN KDBQ 092115Z 08006KT 10SM OVC012 21/18 A2992 1080 84 2100 080/06 RMK AO2
94908KDBQ DBQ20030709152009707/09/03 15:20:31  5-MIN KDBQ 092120Z 10006KT 10SM OVC012 21/18 A2992 1080 84 2100 100/06 RMK AO2
94908KDBQ DBQ20030709152509707/09/03 15:25:31  5-MIN KDBQ 092125Z 09007KT 10SM OVC012 21/18 A2993 1070 84 2100 090/07 RMK AO2
94908KDBQ DBQ20030709153009707/09/03 15:30:31  5-MIN KDBQ 092130Z 09007KT 10SM OVC012 21/18 A2993 1070 84 2100 090/07 RMK AO2
94908KDBQ DBQ20030709153509707/09/03 15:35:31  5-MIN KDBQ 092135Z 10007KT 10SM OVC012 21/18 A2992 1070 84 2100 100/07 RMK AO2
94908KDBQ DBQ20030709154009707/09/03 15:40:31  5-MIN KDBQ 092140Z 11007KT 10SM OVC012 21/18 A2992 1080 84 2100 110/07 RMK AO2
94908KDBQ DBQ20030709154509707/09/03 15:45:31  5-MIN KDBQ 092145Z 11008KT 10SM OVC012 21/18 A2992 1080 84 2100 110/08 RMK AO2
94908KDBQ DBQ20030709155011407/09/03 15:50:31  5-MIN KDBQ 092150Z 10008KT 10SM OVC012 21/18 A2991 1090 84 2100 100/08 RMK AO2 SLP125 T02110183
94908KDBQ DBQ20030709155511407/09/03 15:55:31  5-MIN KDBQ 092155Z 10007KT 10SM OVC012 21/19 A2991 1090 87 2100 100/07 RMK AO2 SLP123 T02110189
94908KDBQ DBQ20030709160009707/09/03 16:00:31  5-MIN KDBQ 092200Z 09007KT 10SM OVC012 21/18 A2991 1090 84 2100 090/07 RMK AO2
94908KDBQ DBQ20030709160509707/09/03 16:05:31  5-MIN KDBQ 092205Z 09007KT 10SM OVC012 21/18 A2990 1090 84 2100 080/07 RMK AO2
94908KDBQ DBQ20030709161009707/09/03 16:10:31  5-MIN KDBQ 092210Z 08008KT 10SM OVC012 21/18 A2990 1100 84 2100 080/08 RMK AO2
94908KDBQ DBQ20030709161509707/09/03 16:15:31  5-MIN KDBQ 092215Z 09009KT 10SM OVC012 21/18 A2990 1100 84 2100 090/09 RMK AO2
94908KDBQ DBQ20030709162009707/09/03 16:20:31  5-MIN KDBQ 092220Z 09008KT 10SM OVC012 21/18 A2990 1100 84 2100 090/08 RMK AO2
94908KDBQ DBQ20030709162509707/09/03 16:25:31  5-MIN KDBQ 092225Z 10008KT 10SM OVC012 21/18 A2989 1100 84 2100 100/08 RMK AO2
94908KDBQ DBQ20030709163009707/09/03 16:30:31  5-MIN KDBQ 092230Z 10009KT 10SM OVC012 21/18 A2990 1100 84 2100 100/09 RMK AO2
94908KDBQ DBQ20030709163509707/09/03 16:35:31  5-MIN KDBQ 092235Z 10008KT 10SM OVC014 21/18 A2990 1100 84 2100 100/08 RMK AO2
94908KDBQ DBQ20030709164009707/09/03 16:40:31  5-MIN KDBQ 092240Z 08009KT 10SM OVC014 21/18 A2990 1100 84 2100 080/09 RMK AO2
94908KDBQ DBQ20030709164509707/09/03 16:45:31  5-MIN KDBQ 092245Z 09010KT 10SM OVC014 21/18 A2989 1110 84 2100 090/10 RMK AO2
94908KDBQ DBQ20030709165011407/09/03 16:50:31  5-MIN KDBQ 092250Z 09010KT 10SM OVC014 21/18 A2988 1110 84 2100 090/10 RMK AO2 SLP116 T02110183
94908KDBQ DBQ20030709165512107/09/03 16:55:31  5-MIN KDBQ 092255Z 09010KT 10SM OVC016 21/18 A2988 1120 84 2100 090/10 RMK AO2 PRESFR SLP113 T02110183
94908KDBQ DBQ20030709170010407/09/03 17:00:31  5-MIN KDBQ 092300Z 09010KT 10SM OVC016 21/18 A2987 1130 84 2100 090/10 RMK AO2 PRESFR
94908KDBQ DBQ20030709170510407/09/03 17:05:31  5-MIN KDBQ 092305Z 09009KT 10SM OVC016 21/18 A2986 1130 84 2100 090/09 RMK AO2 PRESFR
94908KDBQ DBQ20030709171009707/09/03 17:10:31  5-MIN KDBQ 092310Z 10011KT 10SM OVC016 21/18 A2986 1140 84 2100 100/11 RMK AO2
94908KDBQ DBQ20030709171509707/09/03 17:15:31  5-MIN KDBQ 092315Z 10011KT 10SM OVC016 21/18 A2986 1140 84 2200 100/11 RMK AO2
94908KDBQ DBQ20030709172009707/09/03 17:20:31  5-MIN KDBQ 092320Z 09008KT 10SM OVC018 21/18 A2985 1140 84 2200 090/08 RMK AO2
94908KDBQ DBQ20030709172509707/09/03 17:25:31  5-MIN KDBQ 092325Z 08010KT 10SM OVC018 21/18 A2986 1140 84 2200 080/10 RMK AO2
94908KDBQ DBQ20030709173009707/09/03 17:30:31  5-MIN KDBQ 092330Z 09010KT 10SM OVC018 21/18 A2986 1130 84 2100 090/10 RMK AO2
94908KDBQ DBQ20030709173509707/09/03 17:35:31  5-MIN KDBQ 092335Z 09008KT 10SM OVC018 21/18 A2987 1120 84 2100 080/08 RMK AO2
94908KDBQ DBQ20030709174009707/09/03 17:40:31  5-MIN KDBQ 092340Z 07006KT 10SM OVC018 21/18 A2988 1120 84 2100 070/06 RMK AO2
94908KDBQ DBQ20030709174509707/09/03 17:45:31  5-MIN KDBQ 092345Z 07007KT 10SM OVC018 21/18 A2987 1130 84 2100 070/07 RMK AO2
94908KDBQ DBQ20030709175013207/09/03 17:50:31  5-MIN KDBQ 092350Z 07005KT 10SM OVC018 21/18 A2987 1130 84 2100 070/05 RMK AO2 SLP110 T02110183 10211 20200 55005
94908KDBQ DBQ20030709175513207/09/03 17:55:31  5-MIN KDBQ 092355Z 08005KT 10SM OVC018 21/18 A2986 1130 84 2100 080/05 RMK AO2 SLP108 T02110183 10211 20200 56020
94908KDBQ DBQ20030709180009707/09/03 18:00:31  5-MIN KDBQ 100000Z 08005KT 10SM OVC018 21/18 A2986 1130 87 2100 080/05 RMK AO2
94908KDBQ DBQ20030709180509707/09/03 18:05:31  5-MIN KDBQ 100005Z 08005KT 10SM OVC016 21/18 A2985 1140 87 2100 080/05 RMK AO2
94908KDBQ DBQ20030709181010407/09/03 18:10:31  5-MIN KDBQ 100010Z 08005KT 10SM OVC016 21/18 A2984 1150 87 2100 080/05 RMK AO2 PRESFR
94908KDBQ DBQ20030709181509707/09/03 18:15:31  5-MIN KDBQ 100015Z 09008KT 10SM OVC016 21/18 A2984 1150 87 2100 090/08 RMK AO2
94908KDBQ DBQ20030709182009707/09/03 18:20:31  5-MIN KDBQ 100020Z 08006KT 10SM OVC016 21/18 A2984 1160 87 2100 080/06 RMK AO2
94908KDBQ DBQ20030709182509707/09/03 18:25:31  5-MIN KDBQ 100025Z 08008KT 10SM OVC016 21/18 A2983 1160 87 2100 080/08 RMK AO2
94908KDBQ DBQ20030709183009707/09/03 18:30:31  5-MIN KDBQ 100030Z 07008KT 10SM OVC016 21/18 A2983 1160 87 2100 070/08 RMK AO2
94908KDBQ DBQ20030709183509707/09/03 18:35:31  5-MIN KDBQ 100035Z 07006KT 10SM OVC016 21/18 A2984 1160 87 2100 070/06 RMK AO2
94908KDBQ DBQ20030709184009707/09/03 18:40:31  5-MIN KDBQ 100040Z 06008KT 10SM OVC018 21/18 A2983 1160 87 2100 050/08 RMK AO2
94908KDBQ DBQ20030709184509707/09/03 18:45:31  5-MIN KDBQ 100045Z 06008KT 10SM OVC018 21/18 A2983 1160 87 2100 060/08 RMK AO2
94908KDBQ DBQ20030709185011407/09/03 18:50:31  5-MIN KDBQ 100050Z 06009KT 10SM OVC018 21/18 A2982 1170 87 2100 060/09 RMK AO2 SLP096 T02060183
94908KDBQ DBQ20030709185511407/09/03 18:55:31  5-MIN KDBQ 100055Z 06009KT 10SM OVC018 20/18 A2982 1170 90 2100 060/09 RMK AO2 SLP095 T02000183
94908KDBQ DBQ20030709190010707/09/03 19:00:31  5-MIN KDBQ 100100Z AUTO 07008KT 10SM OVC018 21/18 A2982 1170 87 2100 070/08 RMK AO2 TSNO
94908KDBQ DBQ20030709190510707/09/03 19:05:31  5-MIN KDBQ 100105Z AUTO 07007KT 10SM OVC018 20/18 A2983 1160 90 2100 060/07 RMK AO2 TSNO
94908KDBQ DBQ20030709191010707/09/03 19:10:31  5-MIN KDBQ 100110Z AUTO 08008KT 10SM OVC018 21/18 A2982 1170 87 2100 080/08 RMK AO2 TSNO
94908KDBQ DBQ20030709191510707/09/03 19:15:31  5-MIN KDBQ 100115Z AUTO 08009KT 10SM OVC018 21/18 A2982 1170 87 2100 080/09 RMK AO2 TSNO
94908KDBQ DBQ20030709192010707/09/03 19:20:31  5-MIN KDBQ 100120Z AUTO 09009KT 10SM OVC018 21/18 A2981 1180 87 2100 090/09 RMK AO2 TSNO
94908KDBQ DBQ20030709192510707/09/03 19:25:31  5-MIN KDBQ 100125Z AUTO 08007KT 10SM OVC018 20/18 A2982 1170 90 2100 080/07 RMK AO2 TSNO
94908KDBQ DBQ20030709193010707/09/03 19:30:31  5-MIN KDBQ 100130Z AUTO 09008KT 10SM OVC018 20/18 A2983 1160 90 2100 090/08 RMK AO2 TSNO
94908KDBQ DBQ20030709193510707/09/03 19:35:31  5-MIN KDBQ 100135Z AUTO 10010KT 10SM OVC018 20/18 A2983 1160 90 2100 100/10 RMK AO2 TSNO
94908KDBQ DBQ20030709194010707/09/03 19:40:31  5-MIN KDBQ 100140Z AUTO 10009KT 10SM OVC018 20/18 A2983 1160 87 2100 100/09 RMK AO2 TSNO
94908KDBQ DBQ20030709194510707/09/03 19:45:31  5-MIN KDBQ 100145Z AUTO 09009KT 10SM OVC018 20/18 A2984 1150 90 2000 090/09 RMK AO2 TSNO
94908KDBQ DBQ20030709195013107/09/03 19:50:31  5-MIN KDBQ 100150Z AUTO 09006KT 10SM BKN020 OVC100 20/18 A2984 1150 87 2000 090/06 RMK AO2 SLP102 T02000178 TSNO
94908KDBQ DBQ20030709195513107/09/03 19:55:31  5-MIN KDBQ 100155Z AUTO 09008KT 10SM BKN020 OVC100 20/18 A2983 1160 87 2100 080/08 RMK AO2 SLP098 T02000178 TSNO
94908KDBQ DBQ20030709200011407/09/03 20:00:31  5-MIN KDBQ 100200Z AUTO 10009KT 10SM SCT020 BKN100 20/18 A2983 1160 87 2000 100/09 RMK AO2 TSNO
94908KDBQ DBQ20030709200511407/09/03 20:05:31  5-MIN KDBQ 100205Z AUTO 11006KT 10SM BKN020 BKN100 20/18 A2983 1160 87 2100 100/06 RMK AO2 TSNO
94908KDBQ DBQ20030709201011407/09/03 20:10:31  5-MIN KDBQ 100210Z AUTO 09011KT 10SM BKN020 BKN100 20/18 A2982 1170 87 2100 090/11 RMK AO2 TSNO
94908KDBQ DBQ20030709201511407/09/03 20:15:31  5-MIN KDBQ 100215Z AUTO 10009KT 10SM FEW020 SCT100 20/18 A2983 1170 87 2100 090/09 RMK AO2 TSNO
94908KDBQ DBQ20030709202011407/09/03 20:20:31  5-MIN KDBQ 100220Z AUTO 10007KT 10SM FEW020 SCT100 20/18 A2983 1170 87 2100 090/07 RMK AO2 TSNO
94908KDBQ DBQ20030709202510707/09/03 20:25:31  5-MIN KDBQ 100225Z AUTO 10009KT 10SM SCT020 20/18 A2982 1170 87 2100 100/09 RMK AO2 TSNO
94908KDBQ DBQ20030709203010707/09/03 20:30:31  5-MIN KDBQ 100230Z AUTO 09008KT 10SM SCT020 20/18 A2983 1170 87 2100 090/08 RMK AO2 TSNO
94908KDBQ DBQ20030709203510707/09/03 20:35:31  5-MIN KDBQ 100235Z AUTO 08007KT 10SM BKN020 20/18 A2983 1170 87 2100 080/07 RMK AO2 TSNO
94908KDBQ DBQ20030709204010607/09/03 20:40:31  5-MIN KDBQ 100240Z AUTO 09008KT 9SM BKN020 20/18 A2983 1160 87 2100 090/08 RMK AO2 TSNO
94908KDBQ DBQ20030709204510607/09/03 20:45:31  5-MIN KDBQ 100245Z AUTO 09008KT 9SM BKN020 20/18 A2983 1160 87 2100 090/08 RMK AO2 TSNO
94908KDBQ DBQ20030709205012907/09/03 20:50:31  5-MIN KDBQ 100250Z AUTO 09008KT 9SM OVC020 20/18 A2983 1160 87 2000 090/08 RMK AO2 SLP099 T02000178 56020 TSNO
94908KDBQ DBQ20030709205512907/09/03 20:55:31  5-MIN KDBQ 100255Z AUTO 09008KT 9SM OVC020 20/18 A2984 1150 87 2000 090/08 RMK AO2 SLP102 T02000178 55007 TSNO
94908KDBQ DBQ20030709210010607/09/03 21:00:31  5-MIN KDBQ 100300Z AUTO 09008KT 9SM OVC020 21/18 A2984 1150 81 2200 090/08 RMK AO2 TSNO
94908KDBQ DBQ20030709210510607/09/03 21:05:31  5-MIN KDBQ 100305Z AUTO 08007KT 9SM OVC020 20/18 A2984 1150 87 2000 070/07 RMK AO2 TSNO
94908KDBQ DBQ20030709211010607/09/03 21:10:31  5-MIN KDBQ 100310Z AUTO 06007KT 9SM OVC020 20/18 A2984 1150 87 2000 060/07 RMK AO2 TSNO
94908KDBQ DBQ20030709211510707/09/03 21:15:31  5-MIN KDBQ 100315Z AUTO 06007KT 10SM OVC020 20/18 A2984 1150 87 2000 060/07 RMK AO2 TSNO
94908KDBQ DBQ20030709212010707/09/03 21:20:31  5-MIN KDBQ 100320Z AUTO 07006KT 10SM OVC020 20/18 A2984 1150 87 2000 060/06 RMK AO2 TSNO
94908KDBQ DBQ20030709212510707/09/03 21:25:31  5-MIN KDBQ 100325Z AUTO 07006KT 10SM OVC020 20/18 A2984 1160 87 2000 070/06 RMK AO2 TSNO
94908KDBQ DBQ20030709213010707/09/03 21:30:31  5-MIN KDBQ 100330Z AUTO 07006KT 10SM OVC020 20/18 A2984 1150 87 2000 070/06 RMK AO2 TSNO
94908KDBQ DBQ20030709213510607/09/03 21:35:31  5-MIN KDBQ 100335Z AUTO 07005KT 9SM OVC020 20/18 A2983 1160 87 2100 070/05 RMK AO2 TSNO
94908KDBQ DBQ20030709214010607/09/03 21:40:31  5-MIN KDBQ 100340Z AUTO 08005KT 9SM OVC020 20/18 A2982 1170 87 2100 080/05 RMK AO2 TSNO
94908KDBQ DBQ20030709214510607/09/03 21:45:31  5-MIN KDBQ 100345Z AUTO 08006KT 9SM OVC020 20/18 A2982 1170 87 2100 080/06 RMK AO2 TSNO
94908KDBQ DBQ20030709215012307/09/03 21:50:31  5-MIN KDBQ 100350Z AUTO 08006KT 9SM OVC018 20/18 A2982 1170 87 2100 080/06 RMK AO2 SLP093 T02000178 TSNO
94908KDBQ DBQ20030709215512307/09/03 21:55:31  5-MIN KDBQ 100355Z AUTO 07005KT 8SM OVC018 20/18 A2982 1170 87 2100 070/05 RMK AO2 SLP094 T02000178 TSNO
94908KDBQ DBQ20030709220010607/09/03 22:00:31  5-MIN KDBQ 100400Z AUTO 09004KT 8SM OVC018 20/18 A2981 1180 87 2100 090/04 RMK AO2 TSNO
94908KDBQ DBQ20030709220511307/09/03 22:05:31  5-MIN KDBQ 100405Z AUTO 09005KT 8SM FEW012 OVC018 20/18 A2981 1180 87 2100 090/05 RMK AO2 TSNO
94908KDBQ DBQ20030709221011307/09/03 22:10:31  5-MIN KDBQ 100410Z AUTO 09005KT 8SM SCT012 OVC018 20/18 A2981 1180 87 2100 090/05 RMK AO2 TSNO
94908KDBQ DBQ20030709221511307/09/03 22:15:31  5-MIN KDBQ 100415Z AUTO 10007KT 8SM SCT012 OVC018 19/18 A2980 1190 90 2000 100/07 RMK AO2 TSNO
94908KDBQ DBQ20030709222011307/09/03 22:20:31  5-MIN KDBQ 100420Z AUTO 12006KT 7SM FEW012 OVC018 19/18 A2980 1190 90 2000 110/06 RMK AO2 TSNO
94908KDBQ DBQ20030709222511307/09/03 22:25:31  5-MIN KDBQ 100425Z AUTO 13008KT 7SM FEW012 OVC020 19/18 A2981 1180 90 2000 130/08 RMK AO2 TSNO
94908KDBQ DBQ20030709223012007/09/03 22:30:31  5-MIN KDBQ 100430Z AUTO 13008KT 7SM FEW012 BKN020 OVC029 19/18 A2980 1190 90 2000 130/08 RMK AO2 TSNO
94908KDBQ DBQ20030709223512307/09/03 22:35:31  5-MIN KDBQ 100435Z AUTO 14006KT 6SM BR FEW012 BKN020 OVC032 19/18 A2980 1190 90 2000 140/06 RMK AO2 TSNO
94908KDBQ DBQ20030709224012307/09/03 22:40:31  5-MIN KDBQ 100440Z AUTO 14005KT 6SM BR SCT019 BKN025 OVC030 19/18 A2980 1190 93 2000 140/05 RMK AO2 TSNO
94908KDBQ DBQ20030709224512307/09/03 22:45:31  5-MIN KDBQ 100445Z AUTO VRB05KT 6SM BR FEW020 BKN025 OVC030 19/18 A2980 1190 93 2000 VRB/05 RMK AO2 TSNO
94908KDBQ DBQ20030709225014007/09/03 22:50:31  5-MIN KDBQ 100450Z AUTO 14007KT 6SM BR FEW011 BKN022 OVC034 19/18 A2980 1190 93 2000 140/07 RMK AO2 SLP087 T01940183 TSNO
94908KDBQ DBQ20030709225514007/09/03 22:55:31  5-MIN KDBQ 100455Z AUTO 15008KT 6SM BR SCT011 BKN022 OVC034 19/18 A2979 1200 93 2000 150/08 RMK AO2 SLP085 T01940183 TSNO
94908KDBQ DBQ20030709230012307/09/03 23:00:31  5-MIN KDBQ 100500Z AUTO 14010KT 6SM BR BKN011 BKN024 OVC034 19/18 A2979 1200 93 2000 140/10 RMK AO2 TSNO
94908KDBQ DBQ20030709230513007/09/03 23:05:31  5-MIN KDBQ 100505Z AUTO 15009KT 6SM BR BKN011 BKN024 OVC034 19/18 A2978 1210 93 2000 140/09 RMK AO2 PRESFR TSNO
94908KDBQ DBQ20030709231013007/09/03 23:10:31  5-MIN KDBQ 100510Z AUTO 13011KT 5SM BR BKN011 BKN035 OVC070 19/18 A2977 1220 93 2100 130/11 RMK AO2 PRESFR TSNO
94908KDBQ DBQ20030709231512307/09/03 23:15:31  5-MIN KDBQ 100515Z AUTO 13007KT 5SM BR BKN011 BKN035 BKN070 19/18 A2978 1210 93 2000 130/07 RMK AO2 TSNO
94908KDBQ DBQ20030709232012307/09/03 23:20:31  5-MIN KDBQ 100520Z AUTO 13005KT 5SM BR BKN011 BKN036 OVC075 19/18 A2979 1200 93 2000 130/05 RMK AO2 TSNO
94908KDBQ DBQ20030709232512307/09/03 23:25:31  5-MIN KDBQ 100525Z AUTO 12008KT 5SM BR BKN009 BKN046 OVC070 19/18 A2978 1210 93 2000 120/08 RMK AO2 TSNO
94908KDBQ DBQ20030709233012307/09/03 23:30:31  5-MIN KDBQ 100530Z AUTO 12006KT 4SM BR BKN009 BKN046 OVC075 19/18 A2978 1210 93 2000 120/06 RMK AO2 TSNO
94908KDBQ DBQ20030709233512307/09/03 23:35:31  5-MIN KDBQ 100535Z AUTO 13006KT 4SM BR BKN009 BKN046 OVC075 19/18 A2979 1200 93 2000 130/06 RMK AO2 TSNO
94908KDBQ DBQ20030709234011607/09/03 23:40:31  5-MIN KDBQ 100540Z AUTO 11006KT 4SM BR BKN009 BKN046 19/18 A2979 1200 93 2000 110/06 RMK AO2 TSNO
94908KDBQ DBQ20030709234511607/09/03 23:45:31  5-MIN KDBQ 100545Z AUTO 12005KT 4SM BR BKN009 OVC046 19/18 A2979 1200 93 2000 120/05 RMK AO2 TSNO
94908KDBQ DBQ20030709235015407/09/03 23:50:31  5-MIN KDBQ 100550Z AUTO 12004KT 4SM BR OVC009 19/18 A2979 1200 93 2000 120/04 RMK AO2 SLP085 T01940183 10211 20194 402110167 55007 TSNO
94908KDBQ DBQ20030709235515407/09/03 23:55:31  5-MIN KDBQ 100555Z AUTO 14006KT 4SM BR OVC007 19/18 A2979 1200 93 2000 130/06 RMK AO2 SLP084 T01940183 10211 20194 402110167 56016 TSNO
94908KDBQ DBQ20030710000010907/10/03 00:00:31  5-MIN KDBQ 100600Z AUTO 13004KT 4SM BR OVC007 19/18 A2979 1200 93 2000 130/04 RMK AO2 TSNO
94908KDBQ DBQ20030710000510907/10/03 00:05:31  5-MIN KDBQ 100605Z AUTO 14005KT 4SM BR OVC007 19/18 A2979 1200 93 2000 130/05 RMK AO2 TSNO
94908KDBQ DBQ20030710001010907/10/03 00:10:31  5-MIN KDBQ 100610Z AUTO 15005KT 4SM BR OVC007 19/18 A2979 1200 93 2000 150/05 RMK AO2 TSNO
94908KDBQ DBQ20030710001510907/10/03 00:15:31  5-MIN KDBQ 100615Z AUTO 15007KT 4SM BR OVC007 19/18 A2978 1210 93 2000 150/07 RMK AO2 TSNO
94908KDBQ DBQ20030710002010907/10/03 00:20:31  5-MIN KDBQ 100620Z AUTO 14008KT 4SM BR OVC007 19/18 A2978 1210 93 2000 140/08 RMK AO2 TSNO
94908KDBQ DBQ20030710002510907/10/03 00:25:31  5-MIN KDBQ 100625Z AUTO 14008KT 4SM BR OVC005 19/18 A2978 1210 93 2100 140/08 RMK AO2 TSNO
94908KDBQ DBQ20030710003010907/10/03 00:30:31  5-MIN KDBQ 100630Z AUTO 14008KT 3SM BR OVC005 19/18 A2977 1210 93 2100 140/08 RMK AO2 TSNO
94908KDBQ DBQ20030710003510907/10/03 00:35:31  5-MIN KDBQ 100635Z AUTO 15009KT 3SM BR OVC005 19/18 A2977 1220 93 2100 140/09 RMK AO2 TSNO
94908KDBQ DBQ20030710004010907/10/03 00:40:31  5-MIN KDBQ 100640Z AUTO 14009KT 3SM BR OVC005 19/19 A2977 1220 97 2100 140/09 RMK AO2 TSNO
94908KDBQ DBQ20030710004510907/10/03 00:45:31  5-MIN KDBQ 100645Z AUTO 16010KT 3SM BR OVC005 19/19 A2976 1220 97 2100 150/10 RMK AO2 TSNO
94908KDBQ DBQ20030710005012607/10/03 00:50:31  5-MIN KDBQ 100650Z AUTO 16011KT 3SM BR OVC005 19/19 A2976 1230 97 2100 160/11 RMK AO2 SLP074 T01940189 TSNO
94908KDBQ DBQ20030710005513007/10/03 00:55:31  5-MIN KDBQ 100655Z AUTO 16009KT 2 1/2SM BR OVC005 19/19 A2976 1230 97 2100 160/09 RMK AO2 SLP073 T01940189 TSNO
94908KDBQ DBQ20030710010011307/10/03 01:00:31  5-MIN KDBQ 100700Z AUTO 17011KT 2 1/2SM BR OVC005 19/19 A2976 1230 97 2100 170/11 RMK AO2 TSNO
94908KDBQ DBQ20030710010511307/10/03 01:05:31  5-MIN KDBQ 100705Z AUTO 16009KT 2 1/2SM BR OVC003 19/19 A2975 1230 97 2100 160/09 RMK AO2 TSNO
94908KDBQ DBQ20030710011011307/10/03 01:10:31  5-MIN KDBQ 100710Z AUTO 17009KT 2 1/2SM BR OVC003 19/19 A2975 1240 97 2100 170/09 RMK AO2 TSNO
94908KDBQ DBQ20030710011511307/10/03 01:15:31  5-MIN KDBQ 100715Z AUTO 16010KT 2 1/2SM BR OVC003 19/19 A2974 1240 97 2100 160/10 RMK AO2 TSNO
94908KDBQ DBQ20030710012010907/10/03 01:20:31  5-MIN KDBQ 100720Z AUTO 16012KT 2SM BR OVC003 19/19 A2974 1250 97 2100 160/12 RMK AO2 TSNO
94908KDBQ DBQ20030710012512507/10/03 01:25:31  5-MIN KDBQ 100725Z AUTO 17010KT 1 3/4SM BR OVC003 19/19 A2974 1240 97 2100 170/10 RMK AO2 CIG 001V006 TSNO
94908KDBQ DBQ20030710013012507/10/03 01:30:31  5-MIN KDBQ 100730Z AUTO 17008KT 1 3/4SM BR OVC003 19/19 A2974 1240 97 2100 170/08 RMK AO2 CIG 001V005 TSNO
94908KDBQ DBQ20030710013511307/10/03 01:35:31  5-MIN KDBQ 100735Z AUTO 18006KT 1 1/2SM BR OVC001 19/19 A2974 1240 97 2100 180/06 RMK AO2 TSNO
94908KDBQ DBQ20030710014011307/10/03 01:40:31  5-MIN KDBQ 100740Z AUTO 18007KT 1 1/2SM BR OVC001 19/19 A2974 1240 97 2100 180/07 RMK AO2 TSNO
94908KDBQ DBQ20030710014511407/10/03 01:45:31  5-MIN KDBQ 100745Z AUTO 19008KT 1 1/2SM BR OVC001 19/19 A2974 1240 100 2100 190/08 RMK AO2 TSNO
94908KDBQ DBQ20030710015013107/10/03 01:50:31  5-MIN KDBQ 100750Z AUTO 19007KT 1 3/4SM BR OVC001 19/19 A2974 1250 100 2100 190/07 RMK AO2 SLP065 T01940194 TSNO
94908KDBQ DBQ20030710015513107/10/03 01:55:31  5-MIN KDBQ 100755Z AUTO 19007KT 1 3/4SM BR OVC001 19/19 A2973 1250 100 2100 190/07 RMK AO2 SLP064 T01940194 TSNO
94908KDBQ DBQ20030710020011407/10/03 02:00:31  5-MIN KDBQ 100800Z AUTO 19007KT 1 3/4SM BR OVC001 19/19 A2973 1250 100 2100 190/07 RMK AO2 TSNO
94908KDBQ DBQ20030710020511307/10/03 02:05:31  5-MIN KDBQ 100805Z AUTO 21007KT 1 3/4SM BR OVC001 20/19 A2973 1250 97 2200 210/07 RMK AO2 TSNO
94908KDBQ DBQ20030710021011307/10/03 02:10:31  5-MIN KDBQ 100810Z AUTO 20008KT 1 1/2SM BR OVC001 20/19 A2973 1250 97 2200 200/08 RMK AO2 TSNO
94908KDBQ DBQ20030710021511307/10/03 02:15:31  5-MIN KDBQ 100815Z AUTO 20008KT 1 1/2SM BR OVC001 20/19 A2973 1250 97 2200 200/08 RMK AO2 TSNO
94908KDBQ DBQ20030710022011307/10/03 02:20:31  5-MIN KDBQ 100820Z AUTO 19008KT 1 1/4SM BR OVC001 20/19 A2973 1250 97 2200 190/08 RMK AO2 TSNO
94908KDBQ DBQ20030710022511107/10/03 02:25:31  5-MIN KDBQ 100825Z AUTO 20011KT 3/4SM BR OVC001 20/19 A2973 1250 97 2200 200/11 RMK AO2 TSNO
94908KDBQ DBQ20030710023011007/10/03 02:30:31  5-MIN KDBQ 100830Z AUTO 20009KT 1/2SM FG VV001 20/19 A2973 1260 97 2200 200/09 RMK AO2 TSNO
94908KDBQ DBQ20030710023511007/10/03 02:35:31  5-MIN KDBQ 100835Z AUTO 20010KT 1/2SM FG VV001 20/19 A2973 1260 97 2200 200/10 RMK AO2 TSNO
94908KDBQ DBQ20030710024011007/10/03 02:40:31  5-MIN KDBQ 100840Z AUTO 20011KT 1/2SM FG VV001 20/19 A2973 1260 97 2200 200/11 RMK AO2 TSNO
94908KDBQ DBQ20030710024511007/10/03 02:45:31  5-MIN KDBQ 100845Z AUTO 20010KT 3/4SM BR VV001 20/19 A2973 1260 97 2200 200/10 RMK AO2 TSNO
94908KDBQ DBQ20030710025013307/10/03 02:50:31  5-MIN KDBQ 100850Z AUTO 21010KT 3/4SM BR VV001 20/19 A2972 1260 97 2200 200/10 RMK AO2 SLP060 T02000194 56016 TSNO
94908KDBQ DBQ20030710025513407/10/03 02:55:31  5-MIN KDBQ 100855Z AUTO 20009KT 3/4SM BR VV001 20/20 A2972 1260 100 2200 200/09 RMK AO2 SLP059 T02000200 56024 TSNO
94908KDBQ DBQ20030710030011107/10/03 03:00:31  5-MIN KDBQ 100900Z AUTO 20010KT 3/4SM BR VV001 20/20 A2972 1260 100 2200 200/10 RMK AO2 TSNO
94908KDBQ DBQ20030710030511107/10/03 03:05:31  5-MIN KDBQ 100905Z AUTO 21009KT 3/4SM BR VV001 20/20 A2972 1270 100 2200 210/09 RMK AO2 TSNO
94908KDBQ DBQ20030710031011107/10/03 03:10:31  5-MIN KDBQ 100910Z AUTO 21011KT 3/4SM BR VV001 20/20 A2972 1260 100 2200 210/11 RMK AO2 TSNO
94908KDBQ DBQ20030710031511107/10/03 03:15:31  5-MIN KDBQ 100915Z AUTO 21010KT 1/2SM FG VV001 20/20 A2972 1260 100 2200 210/10 RMK AO2 TSNO
94908KDBQ DBQ20030710032011107/10/03 03:20:31  5-MIN KDBQ 100920Z AUTO 22010KT 1/2SM FG VV001 20/20 A2972 1260 100 2200 220/10 RMK AO2 TSNO
94908KDBQ DBQ20030710032511007/10/03 03:25:31  5-MIN KDBQ 100925Z AUTO 22011KT 1/2SM FG VV001 21/20 A2972 1270 97 2200 220/11 RMK AO2 TSNO
94908KDBQ DBQ20030710033011007/10/03 03:30:31  5-MIN KDBQ 100930Z AUTO 22011KT 1/2SM FG VV001 21/20 A2972 1270 97 2200 220/11 RMK AO2 TSNO
94908KDBQ DBQ20030710033510807/10/03 03:35:31  5-MIN KDBQ 100935Z AUTO 22010KT 1SM BR VV001 21/20 A2972 1270 97 2200 220/10 RMK AO2 TSNO
94908KDBQ DBQ20030710034011307/10/03 03:40:31  5-MIN KDBQ 100940Z AUTO 21012KT 1 3/4SM BR OVC001 21/20 A2972 1270 97 2200 210/12 RMK AO2 TSNO
94908KDBQ DBQ20030710034511607/10/03 03:45:31  5-MIN KDBQ 100945Z AUTO 21013KT 3SM BR BKN001 OVC005 21/20 A2972 1270 97 2200 210/13 RMK AO2 TSNO
94908KDBQ DBQ20030710035012607/10/03 03:50:31  5-MIN KDBQ 100950Z AUTO 21010KT 4SM BR OVC003 21/20 A2972 1270 97 2200 210/10 RMK AO2 SLP058 T02060200 TSNO
94908KDBQ DBQ20030710035512607/10/03 03:55:31  5-MIN KDBQ 100955Z AUTO 22010KT 4SM BR OVC003 21/20 A2972 1260 97 2200 220/10 RMK AO2 SLP059 T02060200 TSNO
94908KDBQ DBQ20030710040012107/10/03 04:00:31  5-MIN KDBQ 101000Z AUTO 21010KT 4SM BR OVC003 21/20 A2972 1260 97 2200 210/10 RMK AO2 CIG 001V006 TSNO
94908KDBQ DBQ20030710040512107/10/03 04:05:31  5-MIN KDBQ 101005Z AUTO 21010KT 4SM BR OVC003 21/20 A2972 1260 97 2200 210/10 RMK AO2 CIG 002V006 TSNO
94908KDBQ DBQ20030710041012507/10/03 04:10:31  5-MIN KDBQ 101010Z AUTO 21011KT 2 1/2SM BR OVC003 21/20 A2972 1260 97 2200 210/11 RMK AO2 CIG 001V005 TSNO
94908KDBQ DBQ20030710041512507/10/03 04:15:31  5-MIN KDBQ 101015Z AUTO 21010KT 1 3/4SM BR OVC003 21/20 A2972 1260 97 2200 210/10 RMK AO2 CIG 001V005 TSNO
94908KDBQ DBQ20030710042011407/10/03 04:20:31  5-MIN KDBQ 101020Z AUTO 22010KT 1 1/2SM BR OVC001 20/20 A2972 1270 100 2200 220/10 RMK AO2 TSNO
94908KDBQ DBQ20030710042511407/10/03 04:25:31  5-MIN KDBQ 101025Z AUTO 22013KT 1 3/4SM BR OVC001 20/20 A2972 1260 100 2200 220/13 RMK AO2 TSNO
94908KDBQ DBQ20030710043010907/10/03 04:30:31  5-MIN KDBQ 101030Z AUTO 22012KT 2SM BR OVC001 21/20 A2972 1260 97 2200 220/12 RMK AO2 TSNO
94908KDBQ DBQ20030710043510907/10/03 04:35:31  5-MIN KDBQ 101035Z AUTO 21012KT 3SM BR OVC001 21/20 A2972 1260 97 2200 210/12 RMK AO2 TSNO
94908KDBQ DBQ20030710044009907/10/03 04:40:31  5-MIN KDBQ 101040Z 22011KT 3SM BR OVC001 21/20 A2972 1260 97 2200 210/11 RMK AO2
94908KDBQ DBQ20030710044509907/10/03 04:45:31  5-MIN KDBQ 101045Z 21013KT 3SM BR OVC001 21/20 A2972 1260 97 2200 210/13 RMK AO2
94908KDBQ DBQ20030710045011607/10/03 04:50:31  5-MIN KDBQ 101050Z 21011KT 3SM BR OVC001 21/20 A2972 1260 97 2200 210/11 RMK AO2 SLP059 T02060200
94908KDBQ DBQ20030710045511607/10/03 04:55:31  5-MIN KDBQ 101055Z 21011KT 4SM BR OVC003 21/20 A2972 1260 97 2200 210/11 RMK AO2 SLP059 T02060200
94908KDBQ DBQ20030710050009907/10/03 05:00:31  5-MIN KDBQ 101100Z 22013KT 3SM BR OVC003 21/20 A2972 1260 97 2200 220/13 RMK AO2
94908KDBQ DBQ20030710050510307/10/03 05:05:31  5-MIN KDBQ 101105Z 22011KT 2 1/2SM BR OVC003 20/19 A2972 1270 97 2200 220/11 RMK AO2
94908KDBQ DBQ20030710051010307/10/03 05:10:31  5-MIN KDBQ 101110Z 22012KT 2 1/2SM BR OVC003 20/19 A2972 1260 97 2200 210/12 RMK AO2
94908KDBQ DBQ20030710051510307/10/03 05:15:31  5-MIN KDBQ 101115Z 22013KT 2 1/2SM BR OVC003 20/19 A2972 1260 97 2200 220/13 RMK AO2
94908KDBQ DBQ20030710052010307/10/03 05:20:31  5-MIN KDBQ 101120Z 22011KT 2 1/2SM BR OVC003 20/19 A2972 1260 97 2200 220/11 RMK AO2
94908KDBQ DBQ20030710052510307/10/03 05:25:31  5-MIN KDBQ 101125Z 22011KT 2 1/2SM BR OVC003 20/19 A2972 1260 97 2200 220/11 RMK AO2
94908KDBQ DBQ20030710053010307/10/03 05:30:31  5-MIN KDBQ 101130Z 22011KT 2 1/2SM BR OVC003 20/19 A2972 1260 97 2200 220/11 RMK AO2
94908KDBQ DBQ20030710053509907/10/03 05:35:31  5-MIN KDBQ 101135Z 22011KT 2SM BR OVC003 20/19 A2972 1260 97 2200 220/11 RMK AO2
94908KDBQ DBQ20030710054009907/10/03 05:40:31  5-MIN KDBQ 101140Z 22010KT 2SM BR OVC003 20/19 A2972 1260 97 2200 220/10 RMK AO2
94908KDBQ DBQ20030710054510307/10/03 05:45:31  5-MIN KDBQ 101145Z 22010KT 2 1/2SM BR OVC003 20/19 A2972 1260 97 2200 220/10 RMK AO2
94908KDBQ DBQ20030710055014407/10/03 05:50:31  5-MIN KDBQ 101150Z 22009KT 2 1/2SM BR OVC003 21/19 A2972 1260 93 2200 220/09 RMK AO2 SLP060 70014 T02060194 10206 20194 56024
94908KDBQ DBQ20030710055514407/10/03 05:55:31  5-MIN KDBQ 101155Z 22010KT 2 1/2SM BR OVC003 21/20 A2972 1260 97 2200 220/10 RMK AO2 SLP059 70014 T02060200 10206 20194 54000
94908KDBQ DBQ20030710060010307/10/03 06:00:31  5-MIN KDBQ 101200Z 23010KT 2 1/2SM BR OVC003 21/20 A2972 1260 97 2200 230/10 RMK AO2
94908KDBQ DBQ20030710060510307/10/03 06:05:31  5-MIN KDBQ 101205Z 23009KT 2 1/2SM BR OVC003 21/20 A2972 1260 97 2200 230/09 RMK AO2
94908KDBQ DBQ20030710061011507/10/03 06:10:31  5-MIN KDBQ 101210Z 24010KT 2 1/2SM BR OVC003 21/20 A2972 1260 97 2200 240/10 RMK AO2 CIG 002V006
94908KDBQ DBQ20030710061512207/10/03 06:15:31  5-MIN KDBQ 101215Z 25011KT 2 1/2SM BR BKN003 OVC008 21/20 A2972 1260 97 2200 240/11 RMK AO2 CIG 002V006
94908KDBQ DBQ20030710062011107/10/03 06:20:31  5-MIN KDBQ 101220Z 26009KT 3SM BR OVC006 21/20 A2972 1260 97 2200 260/09 RMK AO2 CIG 003V011
94908KDBQ DBQ20030710062512507/10/03 06:25:31  5-MIN KDBQ 101225Z 27011KT 3SM BR BKN006 BKN009 OVC012 21/20 A2972 1260 93 2300 270/11 RMK AO2 CIG 003V006
94908KDBQ DBQ20030710063012507/10/03 06:30:31  5-MIN KDBQ 101230Z 27013KT 4SM BR FEW004 BKN007 OVC023 21/19 A2973 1260 90 2300 270/13 RMK AO2 CIG 005V011
94908KDBQ DBQ20030710063511307/10/03 06:35:31  5-MIN KDBQ 101235Z 28014KT 6SM BR SCT007 BKN013 OVC023 21/19 A2973 1260 87 2300 280/14 RMK AO2
94908KDBQ DBQ20030710064011007/10/03 06:40:31  5-MIN KDBQ 101240Z 28012KT 7SM SCT007 BKN015 OVC021 21/19 A2973 1260 90 2200 280/12 RMK AO2
94908KDBQ DBQ20030710064511007/10/03 06:45:31  5-MIN KDBQ 101245Z 28013KT 7SM FEW007 BKN015 BKN021 21/19 A2973 1260 90 2200 270/13 RMK AO2
94908KDBQ DBQ20030710065012007/10/03 06:50:31  5-MIN KDBQ 101250Z 28014KT 7SM BKN015 BKN021 21/19 A2973 1260 87 2300 280/14 RMK AO2 SLP062 T02110189
94908KDBQ DBQ20030710065512007/10/03 06:55:31  5-MIN KDBQ 101255Z 28016KT 7SM BKN015 BKN022 21/18 A2973 1260 87 2200 270/16 RMK AO2 SLP062 T02060183
94908KDBQ DBQ20030710070009607/10/03 07:00:31  5-MIN KDBQ 101300Z 28015KT 7SM BKN015 21/18 A2973 1250 87 2200 280/15 RMK AO2
94908KDBQ DBQ20030710070509607/10/03 07:05:31  5-MIN KDBQ 101305Z 28013KT 7SM BKN013 21/18 A2973 1250 87 2200 280/13 RMK AO2
94908KDBQ DBQ20030710071009607/10/03 07:10:31  5-MIN KDBQ 101310Z 29011KT 8SM BKN013 21/18 A2973 1250 84 2300 290/11 RMK AO2
94908KDBQ DBQ20030710071509607/10/03 07:15:31  5-MIN KDBQ 101315Z 28014KT 8SM BKN015 21/18 A2974 1250 84 2300 280/14 RMK AO2
94908KDBQ DBQ20030710072010307/10/03 07:20:31  5-MIN KDBQ 101320Z 29012KT 8SM BKN013 BKN018 21/18 A2974 1250 84 2300 290/12 RMK AO2
94908KDBQ DBQ20030710072510907/10/03 07:25:31  5-MIN KDBQ 101325Z 30012G19KT 8SM BKN013 BKN018 21/18 A2974 1250 84 2300 290/12G19 RMK AO2
94908KDBQ DBQ20030710073010907/10/03 07:30:31  5-MIN KDBQ 101330Z 28013G19KT 9SM BKN013 OVC018 21/18 A2974 1250 84 2200 280/13G19 RMK AO2
94908KDBQ DBQ20030710073510307/10/03 07:35:31  5-MIN KDBQ 101335Z 28013KT 9SM BKN013 OVC018 21/18 A2974 1250 84 2200 280/13 RMK AO2
94908KDBQ DBQ20030710074009707/10/03 07:40:31  5-MIN KDBQ 101340Z 27012KT 10SM OVC013 21/18 A2974 1240 84 2200 270/12 RMK AO2
94908KDBQ DBQ20030710074510307/10/03 07:45:31  5-MIN KDBQ 101345Z 29015G19KT 10SM OVC013 21/18 A2974 1240 84 2200 290/15G19 RMK AO2
94908KDBQ DBQ20030710075012707/10/03 07:50:31  5-MIN KDBQ 101350Z 30014G20KT 10SM BKN013 OVC018 21/17 A2974 1250 81 2200 300/14G20 RMK AO2 SLP066 T02060172
94908KDBQ DBQ20030710075512707/10/03 07:55:31  5-MIN KDBQ 101355Z 29013G20KT 10SM SCT013 OVC019 21/18 A2974 1250 81 2300 290/13G20 RMK AO2 SLP066 T02110178
94908KDBQ DBQ20030710080010407/10/03 08:00:31  5-MIN KDBQ 101400Z 30015KT 10SM SCT013 BKN019 21/18 A2974 1240 81 2300 300/15 RMK AO2
94908KDBQ DBQ20030710080511607/10/03 08:05:31  5-MIN KDBQ 101405Z 29013KT 10SM BKN017 BKN040 21/18 A2974 1240 81 2300 290/13 RMK AO2 CIG 011V023
94908KDBQ DBQ20030710081011107/10/03 08:10:31  5-MIN KDBQ 101410Z 27012KT 10SM FEW015 BKN019 OVC040 21/18 A2975 1240 84 2200 270/12 RMK AO2
94908KDBQ DBQ20030710081509707/10/03 08:15:31  5-MIN KDBQ 101415Z 28012KT 10SM BKN019 21/17 A2975 1240 81 2200 280/12 RMK AO2
94908KDBQ DBQ20030710082010407/10/03 08:20:31  5-MIN KDBQ 101420Z 30013KT 10SM BKN019 BKN039 21/18 A2975 1240 81 2300 300/13 RMK AO2
94908KDBQ DBQ20030710082511107/10/03 08:25:31  5-MIN KDBQ 101425Z 29014KT 10SM FEW015 BKN021 BKN039 21/18 A2975 1240 81 2300 290/14 RMK AO2
94908KDBQ DBQ20030710083011107/10/03 08:30:31  5-MIN KDBQ 101430Z 28012KT 10SM BKN018 BKN022 OVC039 21/18 A2975 1240 84 2200 280/12 RMK AO2
94908KDBQ DBQ20030710083511107/10/03 08:35:31  5-MIN KDBQ 101435Z 29014KT 10SM SCT015 BKN021 OVC036 20/17 A2975 1240 84 2100 290/14 RMK AO2
94908KDBQ DBQ20030710084011107/10/03 08:40:31  5-MIN KDBQ 101440Z 30012KT 10SM FEW015 BKN021 BKN027 21/17 A2974 1240 81 2200 300/12 RMK AO2
94908KDBQ DBQ20030710084511107/10/03 08:45:31  5-MIN KDBQ 101445Z 29014KT 10SM FEW017 SCT024 BKN043 21/18 A2974 1240 81 2300 290/14 RMK AO2
94908KDBQ DBQ20030710085013407/10/03 08:50:31  5-MIN KDBQ 101450Z 29014KT 10SM FEW015 SCT037 BKN047 22/17 A2974 1240 75 2300 290/14 RMK AO2 SLP067 T02170172 54000
94908KDBQ DBQ20030710085513407/10/03 08:55:31  5-MIN KDBQ 101455Z 31013KT 10SM FEW015 SCT021 SCT037 22/17 A2974 1240 75 2300 310/13 RMK AO2 SLP067 T02170172 51008
94908KDBQ DBQ20030710090011107/10/03 09:00:31  5-MIN KDBQ 101500Z 28016KT 10SM FEW017 SCT022 BKN047 22/17 A2974 1240 75 2300 280/16 RMK AO2
94908KDBQ DBQ20030710090511107/10/03 09:05:31  5-MIN KDBQ 101505Z 29013KT 10SM FEW017 SCT022 BKN048 21/17 A2974 1240 78 2200 290/13 RMK AO2
94908KDBQ DBQ20030710091010407/10/03 09:10:31  5-MIN KDBQ 101510Z 29015KT 10SM FEW019 BKN050 21/17 A2975 1240 81 2200 290/15 RMK AO2
94908KDBQ DBQ20030710091510407/10/03 09:15:31  5-MIN KDBQ 101515Z 29012KT 10SM SCT019 BKN050 21/17 A2975 1240 81 2200 290/12 RMK AO2
94908KDBQ DBQ20030710092011007/10/03 09:20:31  5-MIN KDBQ 101520Z 29014G18KT 10SM SCT019 OVC050 21/17 A2975 1240 81 2200 290/14G18 RMK AO2
94908KDBQ DBQ20030710092511007/10/03 09:25:31  5-MIN KDBQ 101525Z 28012G18KT 10SM SCT019 OVC050 21/17 A2975 1240 81 2200 280/12G18 RMK AO2
94908KDBQ DBQ20030710093011107/10/03 09:30:31  5-MIN KDBQ 101530Z 28011KT 10SM SCT017 SCT021 OVC050 21/17 A2975 1240 81 2200 280/11 RMK AO2
94908KDBQ DBQ20030710093511107/10/03 09:35:31  5-MIN KDBQ 101535Z 28012KT 10SM SCT017 BKN021 OVC050 21/17 A2975 1230 81 2200 280/12 RMK AO2
94908KDBQ DBQ20030710094011107/10/03 09:40:31  5-MIN KDBQ 101540Z 27012KT 10SM SCT017 BKN023 OVC050 21/17 A2975 1230 81 2200 270/12 RMK AO2
94908KDBQ DBQ20030710094511107/10/03 09:45:31  5-MIN KDBQ 101545Z 28014KT 10SM SCT017 BKN023 OVC048 21/17 A2975 1230 81 2200 280/14 RMK AO2
94908KDBQ DBQ20030710095012807/10/03 09:50:31  5-MIN KDBQ 101550Z 27012KT 10SM SCT017 BKN023 OVC050 21/17 A2976 1230 78 2300 270/12 RMK AO2 SLP071 T02110172
94908KDBQ DBQ20030710095512107/10/03 09:55:31  5-MIN KDBQ 101555Z 27012KT 10SM BKN019 OVC050 21/17 A2976 1230 81 2200 270/12 RMK AO2 SLP071 T02060172
94908KDBQ DBQ20030710100011107/10/03 10:00:31  5-MIN KDBQ 101600Z 28013KT 10SM BKN019 BKN024 OVC047 21/17 A2976 1230 81 2200 280/13 RMK AO2
94908KDBQ DBQ20030710100511107/10/03 10:05:31  5-MIN KDBQ 101605Z 28011KT 10SM BKN019 BKN024 OVC047 21/17 A2976 1230 81 2200 280/11 RMK AO2
94908KDBQ DBQ20030710101010407/10/03 10:10:31  5-MIN KDBQ 101610Z 28015KT 10SM BKN019 OVC024 20/17 A2976 1220 81 2100 280/15 RMK AO2
94908KDBQ DBQ20030710101511107/10/03 10:15:31  5-MIN KDBQ 101615Z 28012KT 10SM BKN017 BKN022 OVC055 20/17 A2977 1220 81 2100 280/12 RMK AO2
94908KDBQ DBQ20030710102011107/10/03 10:20:31  5-MIN KDBQ 101620Z 28013KT 10SM BKN017 BKN024 OVC055 21/17 A2977 1220 81 2200 280/13 RMK AO2
94908KDBQ DBQ20030710102511107/10/03 10:25:31  5-MIN KDBQ 101625Z 28012KT 10SM BKN017 BKN024 OVC041 21/17 A2977 1220 78 2200 280/12 RMK AO2
94908KDBQ DBQ20030710103011707/10/03 10:30:31  5-MIN KDBQ 101630Z 29014G19KT 10SM BKN019 BKN027 OVC041 21/17 A2977 1220 78 2200 290/14G19 RMK AO2
94908KDBQ DBQ20030710103511107/10/03 10:35:31  5-MIN KDBQ 101635Z 29014KT 10SM BKN019 BKN027 OVC055 21/17 A2977 1220 78 2200 290/14 RMK AO2
94908KDBQ DBQ20030710104011107/10/03 10:40:31  5-MIN KDBQ 101640Z 29017KT 10SM SCT018 BKN025 OVC050 21/17 A2977 1220 78 2200 290/17 RMK AO2
94908KDBQ DBQ20030710104511107/10/03 10:45:31  5-MIN KDBQ 101645Z 30015KT 10SM FEW018 BKN042 OVC060 21/17 A2977 1220 75 2300 300/15 RMK AO2
94908KDBQ DBQ20030710105012807/10/03 10:50:31  5-MIN KDBQ 101650Z 28014KT 10SM SCT020 BKN045 OVC060 22/17 A2977 1220 75 2300 280/14 RMK AO2 SLP074 T02170172
94908KDBQ DBQ20030710105512807/10/03 10:55:31  5-MIN KDBQ 101655Z 28014KT 10SM SCT020 BKN045 OVC060 21/17 A2977 1220 75 2300 280/14 RMK AO2 SLP074 T02110167
94908KDBQ DBQ20030710110011107/10/03 11:00:31  5-MIN KDBQ 101700Z 29015KT 10SM SCT020 BKN047 OVC060 21/17 A2977 1220 75 2300 290/15 RMK AO2
94908KDBQ DBQ20030710110511707/10/03 11:05:31  5-MIN KDBQ 101705Z 28018G22KT 10SM SCT020 BKN025 OVC060 21/17 A2977 1220 78 2200 280/18G22 RMK AO2
94908KDBQ DBQ20030710111011707/10/03 11:10:31  5-MIN KDBQ 101710Z 28017G22KT 10SM SCT017 BKN022 OVC060 21/17 A2977 1220 78 2200 280/17G22 RMK AO2
94908KDBQ DBQ20030710111511107/10/03 11:15:31  5-MIN KDBQ 101715Z 29019KT 10SM BKN019 BKN028 OVC060 20/17 A2977 1210 81 2100 290/19 RMK AO2
94908KDBQ DBQ20030710112011707/10/03 11:20:31  5-MIN KDBQ 101720Z 29015G22KT 10SM FEW015 BKN027 OVC060 20/17 A2977 1220 81 2100 290/15G22 RMK AO2
94908KDBQ DBQ20030710112511107/10/03 11:25:31  5-MIN KDBQ 101725Z 28016KT 10SM SCT014 BKN019 OVC060 20/17 A2978 1210 81 2100 280/16 RMK AO2
94908KDBQ DBQ20030710113011707/10/03 11:30:31  5-MIN KDBQ 101730Z 28016G21KT 10SM SCT014 BKN019 OVC060 19/17 A2978 1210 87 2000 280/16G21 RMK AO2
94908KDBQ DBQ20030710113511707/10/03 11:35:31  5-MIN KDBQ 101735Z 28014G21KT 10SM SCT012 BKN032 OVC055 20/17 A2978 1210 84 2100 280/14G21 RMK AO2
94908KDBQ DBQ20030710114011707/10/03 11:40:31  5-MIN KDBQ 101740Z 28016G20KT 10SM SCT014 BKN038 OVC055 20/17 A2978 1210 84 2100 280/16G20 RMK AO2
94908KDBQ DBQ20030710114511707/10/03 11:45:31  5-MIN KDBQ 101745Z 28015G22KT 10SM BKN014 BKN021 OVC055 19/17 A2978 1210 84 2000 280/15G22 RMK AO2
94908KDBQ DBQ20030710115015207/10/03 11:50:31  5-MIN KDBQ 101750Z 27017G22KT 10SM BKN014 BKN024 OVC049 19/17 A2978 1210 84 2000 270/17G22 RMK AO2 SLP080 T01940167 10217 20194 51008
94908KDBQ DBQ20030710115515207/10/03 11:55:31  5-MIN KDBQ 101755Z 28015G22KT 10SM BKN014 BKN022 OVC060 20/17 A2978 1210 84 2100 280/15G22 RMK AO2 SLP081 T02000172 10217 20194 53012
94908KDBQ DBQ20030710120011107/10/03 12:00:31  5-MIN KDBQ 101800Z 28014KT 10SM SCT014 BKN020 OVC060 21/17 A2978 1210 81 2200 280/14 RMK AO2
94908KDBQ DBQ20030710120511707/10/03 12:05:31  5-MIN KDBQ 101805Z 28015G20KT 10SM SCT014 BKN020 OVC060 21/17 A2978 1210 78 2200 280/15G20 RMK AO2
94908KDBQ DBQ20030710121011707/10/03 12:10:31  5-MIN KDBQ 101810Z 29015G20KT 10SM SCT014 BKN020 OVC028 21/18 A2978 1210 81 2200 290/15G20 RMK AO2
94908KDBQ DBQ20030710121511707/10/03 12:15:31  5-MIN KDBQ 101815Z 28014G22KT 10SM SCT016 BKN020 OVC028 21/17 A2978 1210 78 2200 270/14G22 RMK AO2
94908KDBQ DBQ20030710122011707/10/03 12:20:31  5-MIN KDBQ 101820Z 29018G22KT 10SM BKN017 BKN025 BKN060 21/17 A2978 1210 81 2200 280/18G22 RMK AO2
94908KDBQ DBQ20030710122511707/10/03 12:25:31  5-MIN KDBQ 101825Z 28015G22KT 10SM SCT014 BKN019 BKN025 21/17 A2979 1200 78 2200 280/15G22 RMK AO2
94908KDBQ DBQ20030710123010407/10/03 12:30:31  5-MIN KDBQ 101830Z 27016KT 10SM BKN016 BKN025 21/17 A2979 1200 78 2200 270/16 RMK AO2
94908KDBQ DBQ20030710123511007/10/03 12:35:31  5-MIN KDBQ 101835Z 28017G21KT 10SM BKN016 BKN021 21/17 A2979 1200 81 2200 280/17G21 RMK AO2
94908KDBQ DBQ20030710124011007/10/03 12:40:31  5-MIN KDBQ 101840Z 29018G22KT 10SM BKN016 BKN023 21/17 A2979 1200 78 2200 290/18G22 RMK AO2
94908KDBQ DBQ20030710124511007/10/03 12:45:31  5-MIN KDBQ 101845Z 27016G22KT 10SM BKN016 BKN023 21/17 A2979 1200 78 2200 270/16G22 RMK AO2
94908KDBQ DBQ20030710125012107/10/03 12:50:31  5-MIN KDBQ 101850Z 27014KT 10SM BKN016 OVC023 20/17 A2979 1200 81 2100 270/14 RMK AO2 SLP082 T02000167
94908KDBQ DBQ20030710125511407/10/03 12:55:31  5-MIN KDBQ 101855Z 28013KT 10SM OVC016 19/17 A2979 1200 84 2000 270/13 RMK AO2 SLP083 T01940167
94908KDBQ DBQ20030710130009707/10/03 13:00:31  5-MIN KDBQ 101900Z 27015KT 10SM OVC016 19/17 A2979 1200 84 2000 270/15 RMK AO2
94908KDBQ DBQ20030710130511007/10/03 13:05:31  5-MIN KDBQ 101905Z 28013G20KT 10SM BKN016 OVC032 20/17 A2979 1200 84 2100 280/13G20 RMK AO2
94908KDBQ DBQ20030710131010407/10/03 13:10:31  5-MIN KDBQ 101910Z 28015KT 10SM BKN016 OVC022 20/17 A2979 1200 81 2100 280/15 RMK AO2
94908KDBQ DBQ20030710131510407/10/03 13:15:31  5-MIN KDBQ 101915Z 27017KT 10SM BKN016 OVC022 20/17 A2979 1200 81 2100 270/17 RMK AO2
94908KDBQ DBQ20030710132010407/10/03 13:20:31  5-MIN KDBQ 101920Z 28017KT 10SM BKN016 OVC022 19/16 A2979 1200 81 2000 280/17 RMK AO2
94908KDBQ DBQ20030710132510407/10/03 13:25:31  5-MIN KDBQ 101925Z 28013KT 10SM BKN016 OVC022 19/17 A2979 1200 84 2000 280/13 RMK AO2
94908KDBQ DBQ20030710133011107/10/03 13:30:31  5-MIN KDBQ 101930Z 27014KT 10SM BKN016 BKN022 OVC027 19/17 A2979 1200 84 2000 270/14 RMK AO2
94908KDBQ DBQ20030710133511107/10/03 13:35:31  5-MIN KDBQ 101935Z 27013KT 10SM BKN016 BKN022 OVC027 19/17 A2979 1200 84 2000 270/13 RMK AO2
94908KDBQ DBQ20030710134011107/10/03 13:40:31  5-MIN KDBQ 101940Z 28013KT 10SM FEW014 BKN029 OVC034 20/17 A2979 1200 81 2100 280/13 RMK AO2
94908KDBQ DBQ20030710134510407/10/03 13:45:31  5-MIN KDBQ 101945Z 28014KT 10SM BKN018 OVC029 20/17 A2979 1200 81 2100 270/14 RMK AO2
94908KDBQ DBQ20030710135012107/10/03 13:50:31  5-MIN KDBQ 101950Z 27015KT 10SM BKN018 OVC029 20/17 A2979 1200 81 2100 270/15 RMK AO2 SLP084 T02000167
94908KDBQ DBQ20030710135512807/10/03 13:55:31  5-MIN KDBQ 101955Z 27017KT 10SM FEW015 BKN020 OVC029 19/16 A2979 1200 81 2000 270/17 RMK AO2 SLP084 T01940161
94908KDBQ DBQ20030710140011107/10/03 14:00:31  5-MIN KDBQ 102000Z 28015KT 10SM BKN018 BKN024 OVC029 19/16 A2979 1200 81 2000 280/15 RMK AO2
94908KDBQ DBQ20030710140511007/10/03 14:05:31  5-MIN KDBQ 102005Z 28017G22KT 10SM BKN018 OVC024 19/17 A2979 1200 84 2000 280/17G22 RMK AO2
94908KDBQ DBQ20030710141011007/10/03 14:10:31  5-MIN KDBQ 102010Z 28014G22KT 10SM BKN018 OVC024 20/17 A2979 1200 81 2100 280/14G22 RMK AO2
94908KDBQ DBQ20030710141511007/10/03 14:15:31  5-MIN KDBQ 102015Z 28018G24KT 10SM BKN018 OVC026 19/16 A2979 1200 81 2000 280/18G24 RMK AO2
94908KDBQ DBQ20030710142011007/10/03 14:20:31  5-MIN KDBQ 102020Z 29019G24KT 10SM BKN018 OVC026 19/16 A2979 1200 81 2000 290/19G24 RMK AO2
94908KDBQ DBQ20030710142511707/10/03 14:25:31  5-MIN KDBQ 102025Z 28015G23KT 10SM BKN016 BKN026 OVC036 19/17 A2979 1200 84 2000 280/15G23 RMK AO2
94908KDBQ DBQ20030710143011707/10/03 14:30:31  5-MIN KDBQ 102030Z 28016G21KT 10SM BKN016 BKN026 OVC032 19/16 A2979 1200 81 2000 280/16G21 RMK AO2
94908KDBQ DBQ20030710143511007/10/03 14:35:31  5-MIN KDBQ 102035Z 28017G25KT 10SM BKN016 OVC026 19/16 A2980 1190 81 2000 280/17G25 RMK AO2
94908KDBQ DBQ20030710144011007/10/03 14:40:31  5-MIN KDBQ 102040Z 28018G25KT 10SM BKN016 OVC026 19/16 A2980 1190 81 2000 270/18G25 RMK AO2
94908KDBQ DBQ20030710144511007/10/03 14:45:31  5-MIN KDBQ 102045Z 29014G23KT 10SM BKN016 OVC028 19/16 A2980 1190 81 2000 290/14G23 RMK AO2
94908KDBQ DBQ20030710145012607/10/03 14:50:31  5-MIN KDBQ 102050Z 27012G20KT 10SM OVC016 19/16 A2980 1190 81 2000 270/12G20 RMK AO2 SLP087 T01890156 53012
94908KDBQ DBQ20030710145512007/10/03 14:55:31  5-MIN KDBQ 102055Z 27018KT 10SM OVC016 18/16 A2980 1190 84 1900 270/18 RMK AO2 SLP086 T01830156 53005
94908KDBQ DBQ20030710150009707/10/03 15:00:31  5-MIN KDBQ 102100Z 28018KT 10SM OVC016 18/16 A2980 1190 84 1900 280/18 RMK AO2
94908KDBQ DBQ20030710150510307/10/03 15:05:31  5-MIN KDBQ 102105Z 28018G24KT 10SM OVC016 18/16 A2980 1190 84 1900 270/18G24 RMK AO2
94908KDBQ DBQ20030710151011007/10/03 15:10:31  5-MIN KDBQ 102110Z 29017G24KT 10SM BKN014 OVC020 18/16 A2980 1190 84 1900 280/17G24 RMK AO2
94908KDBQ DBQ20030710151510307/10/03 15:15:31  5-MIN KDBQ 102115Z 29015G21KT 10SM OVC017 18/16 A2980 1190 84 1900 290/15G21 RMK AO2
94908KDBQ DBQ20030710152010307/10/03 15:20:31  5-MIN KDBQ 102120Z 29015G20KT 10SM OVC017 19/16 A2980 1190 81 2000 290/15G20 RMK AO2
94908KDBQ DBQ20030710152510307/10/03 15:25:31  5-MIN KDBQ 102125Z 28018G23KT 10SM OVC017 18/16 A2981 1190 84 1900 280/18G23 RMK AO2
94908KDBQ DBQ20030710153010307/10/03 15:30:31  5-MIN KDBQ 102130Z 29016G23KT 10SM OVC015 18/16 A2981 1180 87 1800 280/16G23 RMK AO2
94908KDBQ DBQ20030710153509707/10/03 15:35:31  5-MIN KDBQ 102135Z 29014KT 10SM OVC015 18/16 A2981 1180 84 1900 290/14 RMK AO2
94908KDBQ DBQ20030710154010307/10/03 15:40:31  5-MIN KDBQ 102140Z 29018G25KT 10SM OVC015 18/16 A2981 1180 84 1900 290/18G25 RMK AO2
94908KDBQ DBQ20030710154510307/10/03 15:45:31  5-MIN KDBQ 102145Z 30017G25KT 10SM OVC015 18/15 A2981 1180 81 1900 300/17G25 RMK AO2
94908KDBQ DBQ20030710155012007/10/03 15:50:31  5-MIN KDBQ 102150Z 29017G21KT 10SM OVC015 18/15 A2981 1180 83 1800 290/17G21 RMK AO2 SLP089 T01780150
94908KDBQ DBQ20030710155513807/10/03 15:55:31  5-MIN KDBQ 102155Z 29019G27KT 10SM OVC013 18/15 A2981 1180 83 1800 290/19G27 RMK AO2 PK WND 29027/2151 SLP090 T01780150
94908KDBQ DBQ20030710160010307/10/03 16:00:31  5-MIN KDBQ 102200Z 30017G27KT 10SM OVC013 18/15 A2981 1180 83 1800 300/17G27 RMK AO2
94908KDBQ DBQ20030710160510307/10/03 16:05:31  5-MIN KDBQ 102205Z 29014G22KT 10SM OVC015 18/15 A2981 1180 83 1800 290/14G22 RMK AO2
94908KDBQ DBQ20030710161010307/10/03 16:10:31  5-MIN KDBQ 102210Z 29015G21KT 10SM OVC015 18/15 A2981 1180 83 1800 290/15G21 RMK AO2
94908KDBQ DBQ20030710161510307/10/03 16:15:31  5-MIN KDBQ 102215Z 30017G21KT 10SM OVC015 18/15 A2981 1180 83 1800 300/17G21 RMK AO2
94908KDBQ DBQ20030710162010307/10/03 16:20:31  5-MIN KDBQ 102220Z 31018G25KT 10SM OVC015 18/14 A2981 1180 81 1800 310/18G25 RMK AO2
94908KDBQ DBQ20030710162511007/10/03 16:25:31  5-MIN KDBQ 102225Z 30013G25KT 10SM BKN017 OVC033 18/14 A2981 1180 81 1800 300/13G25 RMK AO2
94908KDBQ DBQ20030710163009707/10/03 16:30:31  5-MIN KDBQ 102230Z 29015KT 10SM OVC017 18/15 A2981 1180 81 1900 290/15 RMK AO2
94908KDBQ DBQ20030710163511007/10/03 16:35:31  5-MIN KDBQ 102235Z 30017G23KT 10SM BKN017 OVC023 18/14 A2981 1180 78 1900 300/17G23 RMK AO2
94908KDBQ DBQ20030710164011707/10/03 16:40:31  5-MIN KDBQ 102240Z 30016G23KT 10SM BKN018 BKN023 OVC029 18/14 A2981 1180 78 1900 300/16G23 RMK AO2
94908KDBQ DBQ20030710164510407/10/03 16:45:31  5-MIN KDBQ 102245Z 30015KT 10SM BKN021 OVC033 18/14 A2981 1180 78 1900 300/15 RMK AO2
94908KDBQ DBQ20030710165012107/10/03 16:50:31  5-MIN KDBQ 102250Z 30015KT 10SM BKN021 OVC033 18/14 A2981 1180 78 1900 300/15 RMK AO2 SLP089 T01830144
94908KDBQ DBQ20030710165512707/10/03 16:55:31  5-MIN KDBQ 102255Z 30019G22KT 10SM SCT021 OVC033 18/14 A2981 1190 75 1900 300/19G22 RMK AO2 SLP089 T01830139
94908KDBQ DBQ20030710170011007/10/03 17:00:31  5-MIN KDBQ 102300Z 31015G22KT 10SM SCT021 OVC033 18/14 A2981 1180 75 1900 300/15G22 RMK AO2
94908KDBQ DBQ20030710170510407/10/03 17:05:31  5-MIN KDBQ 102305Z 31015KT 10SM FEW021 OVC033 19/14 A2981 1180 75 2000 310/15 RMK AO2
94908KDBQ DBQ20030710171010407/10/03 17:10:31  5-MIN KDBQ 102310Z 30014KT 10SM FEW021 OVC035 19/14 A2980 1190 75 2000 300/14 RMK AO2
94908KDBQ DBQ20030710171510307/10/03 17:15:31  5-MIN KDBQ 102315Z 30014G20KT 10SM BKN035 19/14 A2980 1190 72 2000 300/14G20 RMK AO2
94908KDBQ DBQ20030710172010307/10/03 17:20:31  5-MIN KDBQ 102320Z 29014G20KT 10SM BKN035 19/14 A2980 1190 72 2000 290/14G20 RMK AO2
94908KDBQ DBQ20030710172509707/10/03 17:25:31  5-MIN KDBQ 102325Z 30011KT 10SM BKN035 19/14 A2981 1180 75 2000 300/11 RMK AO2
94908KDBQ DBQ20030710173010407/10/03 17:30:31  5-MIN KDBQ 102330Z 30017KT 10SM SCT030 BKN037 19/14 A2981 1180 75 1900 300/17 RMK AO2
94908KDBQ DBQ20030710173511007/10/03 17:35:31  5-MIN KDBQ 102335Z 29015G21KT 10SM SCT028 BKN037 19/14 A2981 1180 70 2000 290/15G21 RMK AO2
94908KDBQ DBQ20030710174011007/10/03 17:40:31  5-MIN KDBQ 102340Z 30017G21KT 10SM FEW028 BKN037 19/14 A2981 1180 70 2000 290/17G21 RMK AO2
94908KDBQ DBQ20030710174509707/10/03 17:45:31  5-MIN KDBQ 102345Z 30015KT 10SM OVC035 19/14 A2981 1180 70 2000 300/15 RMK AO2
94908KDBQ DBQ20030710175014507/10/03 17:50:31  5-MIN KDBQ 102350Z 30016G22KT 10SM BKN035 OVC043 19/14 A2981 1180 72 2000 300/16G22 RMK AO2 SLP089 T01890139 10211 20178 53005
94908KDBQ DBQ20030710175515207/10/03 17:55:31  5-MIN KDBQ 102355Z 31019G23KT 10SM FEW028 BKN037 OVC043 19/13 A2981 1180 67 2000 310/19G23 RMK AO2 SLP089 T01940133 10211 20178 51002
94908KDBQ DBQ20030710180011007/10/03 18:00:31  5-MIN KDBQ 110000Z 30017G23KT 10SM SCT037 OVC045 20/14 A2981 1180 67 2100 300/17G23 RMK AO2
94908KDBQ DBQ20030710180511007/10/03 18:05:31  5-MIN KDBQ 110005Z 31018G21KT 10SM SCT037 BKN045 20/14 A2981 1180 67 2100 310/18G21 RMK AO2
94908KDBQ DBQ20030710181011007/10/03 18:10:31  5-MIN KDBQ 110010Z 30013G21KT 10SM FEW035 BKN047 19/14 A2981 1180 70 2000 300/13G21 RMK AO2
94908KDBQ DBQ20030710181510407/10/03 18:15:31  5-MIN KDBQ 110015Z 30015KT 10SM FEW035 BKN047 19/14 A2981 1180 70 2000 300/15 RMK AO2
94908KDBQ DBQ20030710182010407/10/03 18:20:31  5-MIN KDBQ 110020Z 30014KT 10SM FEW034 BKN047 19/14 A2981 1180 70 2000 300/14 RMK AO2
94908KDBQ DBQ20030710182509707/10/03 18:25:31  5-MIN KDBQ 110025Z 29012KT 10SM BKN047 19/14 A2981 1180 72 2000 290/12 RMK AO2
94908KDBQ DBQ20030710183009707/10/03 18:30:31  5-MIN KDBQ 110030Z 30015KT 10SM SCT049 19/14 A2981 1180 70 2000 290/15 RMK AO2
94908KDBQ DBQ20030710183509707/10/03 18:35:31  5-MIN KDBQ 110035Z 30012KT 10SM SCT049 19/14 A2981 1180 70 2000 300/12 RMK AO2
94908KDBQ DBQ20030710184009707/10/03 18:40:31  5-MIN KDBQ 110040Z 30013KT 10SM FEW049 19/14 A2981 1180 70 2000 300/13 RMK AO2
94908KDBQ DBQ20030710184510307/10/03 18:45:31  5-MIN KDBQ 110045Z 30010G18KT 10SM FEW049 19/14 A2981 1180 75 1900 300/10G18 RMK AO2
94908KDBQ DBQ20030710185011107/10/03 18:50:31  5-MIN KDBQ 110050Z 30010KT 10SM CLR 19/14 A2981 1180 72 1900 300/10 RMK AO2 SLP090 T01890139
94908KDBQ DBQ20030710185511107/10/03 18:55:31  5-MIN KDBQ 110055Z 31010KT 10SM CLR 19/14 A2981 1180 72 1900 300/10 RMK AO2 SLP090 T01890139
94908KDBQ DBQ20030710190010407/10/03 19:00:31  5-MIN KDBQ 110100Z AUTO 31010KT 10SM CLR 19/14 A2981 1180 72 1900 310/10 RMK AO2 TSNO
94908KDBQ DBQ20030710190510407/10/03 19:05:31  5-MIN KDBQ 110105Z AUTO 30010KT 10SM CLR 19/14 A2981 1180 72 1900 300/10 RMK AO2 TSNO
94908KDBQ DBQ20030710191010407/10/03 19:10:31  5-MIN KDBQ 110110Z AUTO 30009KT 10SM CLR 18/14 A2981 1180 75 1900 300/09 RMK AO2 TSNO
94908KDBQ DBQ20030710191510407/10/03 19:15:31  5-MIN KDBQ 110115Z AUTO 30009KT 10SM CLR 18/14 A2981 1180 75 1900 290/09 RMK AO2 TSNO
94908KDBQ DBQ20030710192010407/10/03 19:20:31  5-MIN KDBQ 110120Z AUTO 29009KT 10SM CLR 18/14 A2981 1180 75 1900 290/09 RMK AO2 TSNO
94908KDBQ DBQ20030710192510407/10/03 19:25:31  5-MIN KDBQ 110125Z AUTO 30008KT 10SM CLR 18/14 A2981 1180 75 1900 300/08 RMK AO2 TSNO
94908KDBQ DBQ20030710193010407/10/03 19:30:31  5-MIN KDBQ 110130Z AUTO 30011KT 10SM CLR 18/13 A2981 1180 72 1900 300/11 RMK AO2 TSNO
94908KDBQ DBQ20030710193510407/10/03 19:35:31  5-MIN KDBQ 110135Z AUTO 31010KT 10SM CLR 18/13 A2982 1180 72 1900 300/10 RMK AO2 TSNO
94908KDBQ DBQ20030710194010407/10/03 19:40:31  5-MIN KDBQ 110140Z AUTO 31009KT 10SM CLR 18/13 A2982 1170 75 1800 310/09 RMK AO2 TSNO
94908KDBQ DBQ20030710194510407/10/03 19:45:31  5-MIN KDBQ 110145Z AUTO 31011KT 10SM CLR 18/13 A2982 1170 75 1800 310/11 RMK AO2 TSNO
94908KDBQ DBQ20030710195012107/10/03 19:50:31  5-MIN KDBQ 110150Z AUTO 31008KT 10SM CLR 18/13 A2982 1170 75 1800 310/08 RMK AO2 SLP093 T01780133 TSNO
94908KDBQ DBQ20030710195512107/10/03 19:55:31  5-MIN KDBQ 110155Z AUTO 30009KT 10SM CLR 18/13 A2982 1170 72 1800 300/09 RMK AO2 SLP094 T01780128 TSNO
94908KDBQ DBQ20030710200010407/10/03 20:00:31  5-MIN KDBQ 110200Z AUTO 31010KT 10SM CLR 18/13 A2982 1170 72 1800 310/10 RMK AO2 TSNO
94908KDBQ DBQ20030710200510407/10/03 20:05:31  5-MIN KDBQ 110205Z AUTO 31010KT 10SM CLR 18/13 A2982 1170 72 1800 310/10 RMK AO2 TSNO
94908KDBQ DBQ20030710201010407/10/03 20:10:31  5-MIN KDBQ 110210Z AUTO 31009KT 10SM CLR 18/13 A2982 1170 72 1800 310/09 RMK AO2 TSNO
94908KDBQ DBQ20030710201510407/10/03 20:15:31  5-MIN KDBQ 110215Z AUTO 30008KT 10SM CLR 18/13 A2982 1170 72 1800 300/08 RMK AO2 TSNO
94908KDBQ DBQ20030710202010407/10/03 20:20:31  5-MIN KDBQ 110220Z AUTO 30009KT 10SM CLR 17/13 A2983 1170 75 1700 300/09 RMK AO2 TSNO
94908KDBQ DBQ20030710202510407/10/03 20:25:31  5-MIN KDBQ 110225Z AUTO 30009KT 10SM CLR 17/13 A2983 1160 75 1700 300/09 RMK AO2 TSNO
94908KDBQ DBQ20030710203010707/10/03 20:30:31  5-MIN KDBQ 110230Z AUTO 30009KT 10SM FEW041 17/13 A2983 1160 75 1700 300/09 RMK AO2 TSNO
94908KDBQ DBQ20030710203510707/10/03 20:35:31  5-MIN KDBQ 110235Z AUTO 30009KT 10SM SCT041 18/13 A2983 1160 72 1800 300/09 RMK AO2 TSNO
94908KDBQ DBQ20030710204010707/10/03 20:40:31  5-MIN KDBQ 110240Z AUTO 29008KT 10SM FEW041 17/13 A2983 1160 78 1700 290/08 RMK AO2 TSNO
94908KDBQ DBQ20030710204510707/10/03 20:45:31  5-MIN KDBQ 110245Z AUTO 29007KT 10SM SCT039 17/13 A2983 1160 78 1700 290/07 RMK AO2 TSNO
94908KDBQ DBQ20030710205013007/10/03 20:50:31  5-MIN KDBQ 110250Z AUTO 29007KT 10SM BKN039 17/13 A2983 1160 78 1700 290/07 RMK AO2 SLP098 T01720133 51002 TSNO
94908KDBQ DBQ20030710205513007/10/03 20:55:31  5-MIN KDBQ 110255Z AUTO 29006KT 10SM BKN039 17/13 A2983 1160 80 1700 290/06 RMK AO2 SLP098 T01670133 53008 TSNO
94908KDBQ DBQ20030710210010707/10/03 21:00:31  5-MIN KDBQ 110300Z AUTO 29006KT 10SM FEW039 17/13 A2983 1160 80 1700 280/06 RMK AO2 TSNO
94908KDBQ DBQ20030710210510707/10/03 21:05:31  5-MIN KDBQ 110305Z AUTO 29005KT 10SM FEW039 17/13 A2984 1160 80 1700 290/05 RMK AO2 TSNO
94908KDBQ DBQ20030710211010707/10/03 21:10:31  5-MIN KDBQ 110310Z AUTO 28007KT 10SM FEW039 17/13 A2984 1160 80 1700 280/07 RMK AO2 TSNO
94908KDBQ DBQ20030710211510707/10/03 21:15:31  5-MIN KDBQ 110315Z AUTO 28006KT 10SM SCT039 17/13 A2984 1160 80 1700 280/06 RMK AO2 TSNO
94908KDBQ DBQ20030710212010707/10/03 21:20:31  5-MIN KDBQ 110320Z AUTO 28007KT 10SM SCT039 17/13 A2984 1150 80 1700 280/07 RMK AO2 TSNO
94908KDBQ DBQ20030710212510707/10/03 21:25:31  5-MIN KDBQ 110325Z AUTO 28006KT 10SM BKN037 17/14 A2984 1150 83 1700 280/06 RMK AO2 TSNO
94908KDBQ DBQ20030710213010707/10/03 21:30:31  5-MIN KDBQ 110330Z AUTO 28006KT 10SM BKN037 17/14 A2984 1150 83 1700 280/06 RMK AO2 TSNO
94908KDBQ DBQ20030710213510707/10/03 21:35:31  5-MIN KDBQ 110335Z AUTO 29006KT 10SM BKN037 17/14 A2984 1150 83 1700 280/06 RMK AO2 TSNO
94908KDBQ DBQ20030710214010707/10/03 21:40:31  5-MIN KDBQ 110340Z AUTO 28006KT 10SM BKN037 17/14 A2984 1150 83 1700 280/06 RMK AO2 TSNO
94908KDBQ DBQ20030710214510707/10/03 21:45:31  5-MIN KDBQ 110345Z AUTO 28007KT 10SM BKN035 17/14 A2984 1150 83 1700 270/07 RMK AO2 TSNO
94908KDBQ DBQ20030710215012407/10/03 21:50:31  5-MIN KDBQ 110350Z AUTO 27006KT 10SM BKN035 16/14 A2984 1150 86 1600 270/06 RMK AO2 SLP101 T01610139 TSNO
94908KDBQ DBQ20030710215513107/10/03 21:55:31  5-MIN KDBQ 110355Z AUTO 27006KT 10SM SCT035 BKN055 16/14 A2984 1150 86 1600 270/06 RMK AO2 SLP102 T01610139 TSNO
94908KDBQ DBQ20030710220011407/10/03 22:00:31  5-MIN KDBQ 110400Z AUTO 27005KT 10SM FEW035 BKN055 16/14 A2984 1150 90 1600 270/05 RMK AO2 TSNO
94908KDBQ DBQ20030710220511407/10/03 22:05:31  5-MIN KDBQ 110405Z AUTO 28006KT 10SM FEW033 BKN060 17/14 A2984 1150 86 1700 280/06 RMK AO2 TSNO
94908KDBQ DBQ20030710221010707/10/03 22:10:31  5-MIN KDBQ 110410Z AUTO 28007KT 10SM BKN055 17/14 A2984 1150 86 1700 280/07 RMK AO2 TSNO
94908KDBQ DBQ20030710221510707/10/03 22:15:31  5-MIN KDBQ 110415Z AUTO 28008KT 10SM BKN055 17/14 A2984 1150 83 1700 280/08 RMK AO2 TSNO
94908KDBQ DBQ20030710222011407/10/03 22:20:31  5-MIN KDBQ 110420Z AUTO 29007KT 10SM BKN049 OVC055 17/14 A2984 1150 83 1700 280/07 RMK AO2 TSNO
94908KDBQ DBQ20030710222511407/10/03 22:25:31  5-MIN KDBQ 110425Z AUTO 29009KT 10SM BKN047 OVC060 17/14 A2984 1150 83 1700 290/09 RMK AO2 TSNO
94908KDBQ DBQ20030710223011407/10/03 22:30:31  5-MIN KDBQ 110430Z AUTO 29008KT 10SM BKN047 OVC055 17/14 A2984 1150 83 1700 290/08 RMK AO2 TSNO
94908KDBQ DBQ20030710223511407/10/03 22:35:31  5-MIN KDBQ 110435Z AUTO 29009KT 10SM BKN047 OVC055 17/14 A2985 1150 80 1700 290/09 RMK AO2 TSNO
94908KDBQ DBQ20030710224012107/10/03 22:40:31  5-MIN KDBQ 110440Z AUTO 30009KT 10SM FEW037 BKN046 OVC055 17/14 A2985 1150 83 1700 300/09 RMK AO2 TSNO
94908KDBQ DBQ20030710224512107/10/03 22:45:31  5-MIN KDBQ 110445Z AUTO 30009KT 10SM SCT040 BKN048 OVC060 17/14 A2985 1150 80 1700 300/09 RMK AO2 TSNO
94908KDBQ DBQ20030710225013807/10/03 22:50:31  5-MIN KDBQ 110450Z AUTO 30008KT 10SM SCT040 BKN047 OVC065 17/14 A2985 1140 83 1700 300/08 RMK AO2 SLP104 T01720144 TSNO
94908KDBQ DBQ20030710225513807/10/03 22:55:31  5-MIN KDBQ 110455Z AUTO 29008KT 10SM FEW040 BKN055 OVC065 17/14 A2985 1140 80 1700 290/08 RMK AO2 SLP103 T01720139 TSNO
94908KDBQ DBQ20030710230012107/10/03 23:00:31  5-MIN KDBQ 110500Z AUTO 29008KT 10SM SCT040 SCT048 BKN060 17/14 A2985 1140 83 1600 290/08 RMK AO2 TSNO
94908KDBQ DBQ20030710230511407/10/03 23:05:31  5-MIN KDBQ 110505Z AUTO 29007KT 10SM FEW037 BKN060 17/14 A2985 1140 83 1600 290/07 RMK AO2 TSNO
94908KDBQ DBQ20030710231011407/10/03 23:10:31  5-MIN KDBQ 110510Z AUTO 29006KT 10SM FEW037 SCT065 16/14 A2985 1140 86 1600 290/06 RMK AO2 TSNO
94908KDBQ DBQ20030710231510707/10/03 23:15:31  5-MIN KDBQ 110515Z AUTO 30006KT 10SM FEW065 16/14 A2985 1150 86 1600 300/06 RMK AO2 TSNO
94908KDBQ DBQ20030710232010407/10/03 23:20:31  5-MIN KDBQ 110520Z AUTO 29006KT 10SM CLR 16/14 A2985 1150 86 1600 290/06 RMK AO2 TSNO
94908KDBQ DBQ20030710232510407/10/03 23:25:31  5-MIN KDBQ 110525Z AUTO 30006KT 10SM CLR 16/14 A2985 1140 90 1500 290/06 RMK AO2 TSNO
94908KDBQ DBQ20030710233010407/10/03 23:30:31  5-MIN KDBQ 110530Z AUTO 29007KT 10SM CLR 16/14 A2985 1140 90 1500 290/07 RMK AO2 TSNO
94908KDBQ DBQ20030710233510407/10/03 23:35:31  5-MIN KDBQ 110535Z AUTO 30007KT 10SM CLR 16/14 A2985 1140 90 1500 300/07 RMK AO2 TSNO
94908KDBQ DBQ20030710234010407/10/03 23:40:31  5-MIN KDBQ 110540Z AUTO 29007KT 10SM CLR 16/14 A2985 1140 90 1500 290/07 RMK AO2 TSNO
94908KDBQ DBQ20030710234510407/10/03 23:45:31  5-MIN KDBQ 110545Z AUTO 29007KT 10SM CLR 16/14 A2985 1140 90 1500 290/07 RMK AO2 TSNO
94908KDBQ DBQ20030710235014907/10/03 23:50:31  5-MIN KDBQ 110550Z AUTO 30007KT 10SM CLR 16/14 A2985 1140 90 1500 290/07 RMK AO2 SLP106 T01560139 10200 20156 402170156 53008 TSNO
94908KDBQ DBQ20030710235514907/10/03 23:55:31  5-MIN KDBQ 110555Z AUTO 29008KT 10SM CLR 16/14 A2985 1140 90 1500 290/08 RMK AO2 SLP105 T01560139 10200 20156 402170156 51006 TSNO
94908KDBQ DBQ20030711000010407/11/03 00:00:31  5-MIN KDBQ 110600Z AUTO 29008KT 10SM CLR 16/14 A2985 1140 90 1500 290/08 RMK AO2 TSNO
94908KDBQ DBQ20030711000510407/11/03 00:05:31  5-MIN KDBQ 110605Z AUTO 29009KT 10SM CLR 16/14 A2985 1150 90 1500 290/09 RMK AO2 TSNO
94908KDBQ DBQ20030711001010407/11/03 00:10:31  5-MIN KDBQ 110610Z AUTO 29010KT 10SM CLR 16/14 A2985 1150 90 1500 290/10 RMK AO2 TSNO
94908KDBQ DBQ20030711001510407/11/03 00:15:31  5-MIN KDBQ 110615Z AUTO 29009KT 10SM CLR 16/14 A2985 1150 90 1500 290/09 RMK AO2 TSNO
94908KDBQ DBQ20030711002010407/11/03 00:20:31  5-MIN KDBQ 110620Z AUTO 29009KT 10SM CLR 16/14 A2985 1150 90 1500 290/09 RMK AO2 TSNO
94908KDBQ DBQ20030711002510407/11/03 00:25:31  5-MIN KDBQ 110625Z AUTO 29009KT 10SM CLR 15/14 A2985 1150 93 1500 290/09 RMK AO2 TSNO
94908KDBQ DBQ20030711003010407/11/03 00:30:31  5-MIN KDBQ 110630Z AUTO 28008KT 10SM CLR 15/14 A2985 1150 93 1500 280/08 RMK AO2 TSNO
94908KDBQ DBQ20030711003510407/11/03 00:35:31  5-MIN KDBQ 110635Z AUTO 28009KT 10SM CLR 15/14 A2985 1150 93 1500 280/09 RMK AO2 TSNO
94908KDBQ DBQ20030711004010407/11/03 00:40:31  5-MIN KDBQ 110640Z AUTO 28008KT 10SM CLR 15/13 A2985 1150 90 1500 280/08 RMK AO2 TSNO
94908KDBQ DBQ20030711004510407/11/03 00:45:31  5-MIN KDBQ 110645Z AUTO 28008KT 10SM CLR 15/13 A2985 1150 90 1500 280/08 RMK AO2 TSNO
94908KDBQ DBQ20030711005012407/11/03 00:50:31  5-MIN KDBQ 110650Z AUTO 29009KT 10SM FEW029 15/13 A2985 1150 90 1500 280/09 RMK AO2 SLP104 T01500133 TSNO
94908KDBQ DBQ20030711005512407/11/03 00:55:31  5-MIN KDBQ 110655Z AUTO 29010KT 10SM FEW029 15/13 A2985 1150 90 1500 290/10 RMK AO2 SLP104 T01500133 TSNO
94908KDBQ DBQ20030711010010707/11/03 01:00:31  5-MIN KDBQ 110700Z AUTO 29011KT 10SM FEW029 15/13 A2984 1150 90 1500 290/11 RMK AO2 TSNO
94908KDBQ DBQ20030711010510707/11/03 01:05:31  5-MIN KDBQ 110705Z AUTO 29011KT 10SM FEW029 15/13 A2985 1150 90 1500 290/11 RMK AO2 TSNO
94908KDBQ DBQ20030711011010707/11/03 01:10:31  5-MIN KDBQ 110710Z AUTO 29010KT 10SM FEW029 15/13 A2985 1150 86 1500 290/10 RMK AO2 TSNO
94908KDBQ DBQ20030711011510707/11/03 01:15:31  5-MIN KDBQ 110715Z AUTO 29010KT 10SM FEW029 15/13 A2984 1150 86 1500 290/10 RMK AO2 TSNO
94908KDBQ DBQ20030711012010407/11/03 01:20:31  5-MIN KDBQ 110720Z AUTO 28010KT 10SM CLR 14/13 A2984 1150 90 1400 280/10 RMK AO2 TSNO
94908KDBQ DBQ20030711012510407/11/03 01:25:31  5-MIN KDBQ 110725Z AUTO 29009KT 10SM CLR 14/13 A2985 1150 90 1400 290/09 RMK AO2 TSNO
94908KDBQ DBQ20030711013010407/11/03 01:30:31  5-MIN KDBQ 110730Z AUTO 29009KT 10SM CLR 14/13 A2984 1150 90 1400 280/09 RMK AO2 TSNO
94908KDBQ DBQ20030711013510407/11/03 01:35:31  5-MIN KDBQ 110735Z AUTO 28009KT 10SM CLR 14/13 A2984 1150 90 1400 280/09 RMK AO2 TSNO
94908KDBQ DBQ20030711014010407/11/03 01:40:31  5-MIN KDBQ 110740Z AUTO 28010KT 10SM CLR 14/13 A2984 1150 90 1400 280/10 RMK AO2 TSNO
94908KDBQ DBQ20030711014510407/11/03 01:45:31  5-MIN KDBQ 110745Z AUTO 28009KT 10SM CLR 14/13 A2984 1150 90 1400 280/09 RMK AO2 TSNO
94908KDBQ DBQ20030711015012107/11/03 01:50:31  5-MIN KDBQ 110750Z AUTO 28009KT 10SM CLR 14/13 A2984 1150 90 1400 280/09 RMK AO2 SLP104 T01440128 TSNO
94908KDBQ DBQ20030711015512107/11/03 01:55:31  5-MIN KDBQ 110755Z AUTO 28008KT 10SM CLR 14/13 A2985 1150 90 1400 280/08 RMK AO2 SLP104 T01440128 TSNO
94908KDBQ DBQ20030711020010407/11/03 02:00:31  5-MIN KDBQ 110800Z AUTO 29009KT 10SM CLR 14/13 A2985 1150 90 1400 280/09 RMK AO2 TSNO
94908KDBQ DBQ20030711020510407/11/03 02:05:31  5-MIN KDBQ 110805Z AUTO 29007KT 10SM CLR 14/13 A2984 1150 90 1400 290/07 RMK AO2 TSNO
94908KDBQ DBQ20030711021010407/11/03 02:10:31  5-MIN KDBQ 110810Z AUTO 29006KT 10SM CLR 14/13 A2984 1150 90 1400 290/06 RMK AO2 TSNO
94908KDBQ DBQ20030711021510407/11/03 02:15:31  5-MIN KDBQ 110815Z AUTO 29006KT 10SM CLR 14/13 A2984 1150 93 1300 290/06 RMK AO2 TSNO
94908KDBQ DBQ20030711022010407/11/03 02:20:31  5-MIN KDBQ 110820Z AUTO 29006KT 10SM CLR 14/13 A2985 1150 93 1300 290/06 RMK AO2 TSNO
94908KDBQ DBQ20030711022510407/11/03 02:25:31  5-MIN KDBQ 110825Z AUTO 29005KT 10SM CLR 14/13 A2985 1150 93 1300 290/05 RMK AO2 TSNO
94908KDBQ DBQ20030711023010407/11/03 02:30:31  5-MIN KDBQ 110830Z AUTO 29006KT 10SM CLR 14/13 A2985 1150 93 1300 290/06 RMK AO2 TSNO
94908KDBQ DBQ20030711023510407/11/03 02:35:31  5-MIN KDBQ 110835Z AUTO 29006KT 10SM CLR 14/13 A2984 1150 93 1300 290/06 RMK AO2 TSNO
94908KDBQ DBQ20030711024010407/11/03 02:40:31  5-MIN KDBQ 110840Z AUTO 29006KT 10SM CLR 14/13 A2984 1150 93 1300 290/06 RMK AO2 TSNO
94908KDBQ DBQ20030711024510407/11/03 02:45:31  5-MIN KDBQ 110845Z AUTO 30006KT 10SM CLR 14/13 A2984 1150 93 1300 290/06 RMK AO2 TSNO
94908KDBQ DBQ20030711025012707/11/03 02:50:31  5-MIN KDBQ 110850Z AUTO 29008KT 10SM CLR 14/13 A2984 1150 93 1300 290/08 RMK AO2 SLP104 T01390128 51006 TSNO
94908KDBQ DBQ20030711025512707/11/03 02:55:31  5-MIN KDBQ 110855Z AUTO 29006KT 10SM CLR 14/13 A2984 1150 93 1300 290/06 RMK AO2 SLP104 T01390128 56003 TSNO
94908KDBQ DBQ20030711030010407/11/03 03:00:31  5-MIN KDBQ 110900Z AUTO 29007KT 10SM CLR 14/13 A2984 1150 93 1300 290/07 RMK AO2 TSNO
94908KDBQ DBQ20030711030510407/11/03 03:05:31  5-MIN KDBQ 110905Z AUTO 29008KT 10SM CLR 14/13 A2984 1150 93 1300 290/08 RMK AO2 TSNO
94908KDBQ DBQ20030711031010407/11/03 03:10:31  5-MIN KDBQ 110910Z AUTO 29008KT 10SM CLR 14/13 A2984 1150 93 1300 290/08 RMK AO2 TSNO
94908KDBQ DBQ20030711031510407/11/03 03:15:31  5-MIN KDBQ 110915Z AUTO 29009KT 10SM CLR 14/13 A2984 1150 93 1300 290/09 RMK AO2 TSNO
94908KDBQ DBQ20030711032010407/11/03 03:20:31  5-MIN KDBQ 110920Z AUTO 29008KT 10SM CLR 14/13 A2985 1150 93 1300 290/08 RMK AO2 TSNO
94908KDBQ DBQ20030711032510407/11/03 03:25:31  5-MIN KDBQ 110925Z AUTO 29007KT 10SM CLR 14/13 A2984 1150 93 1300 290/07 RMK AO2 TSNO
94908KDBQ DBQ20030711033010407/11/03 03:30:31  5-MIN KDBQ 110930Z AUTO 29006KT 10SM CLR 14/13 A2985 1150 93 1300 290/06 RMK AO2 TSNO
94908KDBQ DBQ20030711033510407/11/03 03:35:31  5-MIN KDBQ 110935Z AUTO 29006KT 10SM CLR 13/12 A2984 1150 93 1300 290/06 RMK AO2 TSNO
94908KDBQ DBQ20030711034010407/11/03 03:40:31  5-MIN KDBQ 110940Z AUTO 29005KT 10SM CLR 13/12 A2984 1150 93 1300 290/05 RMK AO2 TSNO
94908KDBQ DBQ20030711034510407/11/03 03:45:31  5-MIN KDBQ 110945Z AUTO 29007KT 10SM CLR 14/12 A2984 1150 90 1300 290/07 RMK AO2 TSNO
94908KDBQ DBQ20030711035012107/11/03 03:50:31  5-MIN KDBQ 110950Z AUTO 30008KT 10SM CLR 14/12 A2985 1150 90 1300 300/08 RMK AO2 SLP106 T01390122 TSNO
94908KDBQ DBQ20030711035512107/11/03 03:55:31  5-MIN KDBQ 110955Z AUTO 29007KT 10SM CLR 14/12 A2985 1150 90 1300 290/07 RMK AO2 SLP106 T01390122 TSNO
94908KDBQ DBQ20030711040010407/11/03 04:00:31  5-MIN KDBQ 111000Z AUTO 29007KT 10SM CLR 14/12 A2985 1140 90 1300 290/07 RMK AO2 TSNO
94908KDBQ DBQ20030711040510407/11/03 04:05:31  5-MIN KDBQ 111005Z AUTO 29006KT 10SM CLR 14/12 A2985 1140 90 1300 290/06 RMK AO2 TSNO
94908KDBQ DBQ20030711041010407/11/03 04:10:31  5-MIN KDBQ 111010Z AUTO 29007KT 10SM CLR 14/12 A2985 1140 90 1300 290/07 RMK AO2 TSNO
94908KDBQ DBQ20030711041510407/11/03 04:15:31  5-MIN KDBQ 111015Z AUTO 29006KT 10SM CLR 14/12 A2986 1140 90 1300 290/06 RMK AO2 TSNO
94908KDBQ DBQ20030711042010407/11/03 04:20:31  5-MIN KDBQ 111020Z AUTO 29006KT 10SM CLR 13/12 A2986 1140 93 1200 290/06 RMK AO2 TSNO
94908KDBQ DBQ20030711042510407/11/03 04:25:31  5-MIN KDBQ 111025Z AUTO 29005KT 10SM CLR 13/12 A2986 1140 93 1200 290/05 RMK AO2 TSNO
94908KDBQ DBQ20030711043010407/11/03 04:30:31  5-MIN KDBQ 111030Z AUTO 29005KT 10SM CLR 13/12 A2986 1140 93 1200 290/05 RMK AO2 TSNO
94908KDBQ DBQ20030711043510407/11/03 04:35:31  5-MIN KDBQ 111035Z AUTO 29005KT 10SM CLR 13/12 A2986 1140 93 1200 290/05 RMK AO2 TSNO
94908KDBQ DBQ20030711044009407/11/03 04:40:31  5-MIN KDBQ 111040Z 29007KT 10SM CLR 13/12 A2986 1130 93 1200 290/07 RMK AO2
94908KDBQ DBQ20030711044509407/11/03 04:45:31  5-MIN KDBQ 111045Z 29007KT 10SM CLR 13/12 A2986 1130 93 1200 290/07 RMK AO2
94908KDBQ DBQ20030711045011107/11/03 04:50:31  5-MIN KDBQ 111050Z 29008KT 10SM CLR 13/12 A2986 1130 93 1200 290/08 RMK AO2 SLP111 T01330122
94908KDBQ DBQ20030711045511107/11/03 04:55:31  5-MIN KDBQ 111055Z 29008KT 10SM CLR 14/12 A2986 1130 90 1300 290/08 RMK AO2 SLP110 T01390122
94908KDBQ DBQ20030711050009407/11/03 05:00:31  5-MIN KDBQ 111100Z 29007KT 10SM CLR 14/12 A2986 1130 90 1300 290/07 RMK AO2
94908KDBQ DBQ20030711050509407/11/03 05:05:31  5-MIN KDBQ 111105Z 29008KT 10SM CLR 14/12 A2986 1130 90 1300 280/08 RMK AO2
94908KDBQ DBQ20030711051009407/11/03 05:10:31  5-MIN KDBQ 111110Z 28009KT 10SM CLR 14/13 A2987 1130 93 1300 280/09 RMK AO2
94908KDBQ DBQ20030711051509407/11/03 05:15:31  5-MIN KDBQ 111115Z 28010KT 10SM CLR 14/13 A2987 1130 93 1300 280/10 RMK AO2
94908KDBQ DBQ20030711052009407/11/03 05:20:31  5-MIN KDBQ 111120Z 28009KT 10SM CLR 14/13 A2987 1120 93 1300 270/09 RMK AO2
94908KDBQ DBQ20030711052509407/11/03 05:25:31  5-MIN KDBQ 111125Z 27010KT 10SM CLR 14/13 A2987 1120 93 1300 270/10 RMK AO2
94908KDBQ DBQ20030711053009407/11/03 05:30:31  5-MIN KDBQ 111130Z 28010KT 10SM CLR 14/13 A2987 1120 93 1300 280/10 RMK AO2
94908KDBQ DBQ20030711053509407/11/03 05:35:31  5-MIN KDBQ 111135Z 28010KT 10SM CLR 14/13 A2988 1120 93 1300 280/10 RMK AO2
94908KDBQ DBQ20030711054009407/11/03 05:40:31  5-MIN KDBQ 111140Z 28010KT 10SM CLR 14/13 A2988 1120 93 1400 280/10 RMK AO2
94908KDBQ DBQ20030711054509407/11/03 05:45:31  5-MIN KDBQ 111145Z 28011KT 10SM CLR 14/13 A2988 1120 93 1400 280/11 RMK AO2
94908KDBQ DBQ20030711055012907/11/03 05:50:31  5-MIN KDBQ 111150Z 28011KT 10SM CLR 14/13 A2988 1120 93 1300 280/11 RMK AO2 SLP116 T01440133 10156 20133 56003
94908KDBQ DBQ20030711055512907/11/03 05:55:31  5-MIN KDBQ 111155Z 28011KT 10SM CLR 14/13 A2988 1110 93 1300 280/11 RMK AO2 SLP117 T01440133 10156 20133 53013
94908KDBQ DBQ20030711060009407/11/03 06:00:31  5-MIN KDBQ 111200Z 29011KT 10SM CLR 15/13 A2989 1110 90 1400 280/11 RMK AO2
94908KDBQ DBQ20030711060509407/11/03 06:05:31  5-MIN KDBQ 111205Z 28012KT 10SM CLR 15/13 A2988 1110 90 1400 280/12 RMK AO2
94908KDBQ DBQ20030711061009407/11/03 06:10:31  5-MIN KDBQ 111210Z 29010KT 10SM CLR 15/13 A2989 1110 90 1400 290/10 RMK AO2
94908KDBQ DBQ20030711061509407/11/03 06:15:31  5-MIN KDBQ 111215Z 28010KT 10SM CLR 15/13 A2989 1110 90 1400 280/10 RMK AO2
94908KDBQ DBQ20030711062009407/11/03 06:20:31  5-MIN KDBQ 111220Z 29011KT 10SM CLR 16/13 A2989 1110 86 1500 290/11 RMK AO2
94908KDBQ DBQ20030711062509407/11/03 06:25:31  5-MIN KDBQ 111225Z 28011KT 10SM CLR 16/13 A2989 1110 86 1500 280/11 RMK AO2
94908KDBQ DBQ20030711063009407/11/03 06:30:31  5-MIN KDBQ 111230Z 29009KT 10SM CLR 16/13 A2989 1100 86 1500 290/09 RMK AO2
94908KDBQ DBQ20030711063509407/11/03 06:35:31  5-MIN KDBQ 111235Z 29010KT 10SM CLR 16/13 A2989 1100 83 1500 290/10 RMK AO2
94908KDBQ DBQ20030711064009407/11/03 06:40:31  5-MIN KDBQ 111240Z 29012KT 10SM CLR 16/13 A2990 1100 83 1500 290/12 RMK AO2
94908KDBQ DBQ20030711064509407/11/03 06:45:31  5-MIN KDBQ 111245Z 29011KT 10SM CLR 16/13 A2990 1100 83 1500 290/11 RMK AO2
94908KDBQ DBQ20030711065011107/11/03 06:50:31  5-MIN KDBQ 111250Z 28010KT 10SM CLR 16/14 A2990 1100 86 1500 280/10 RMK AO2 SLP122 T01610139
94908KDBQ DBQ20030711065511107/11/03 06:55:31  5-MIN KDBQ 111255Z 28011KT 10SM CLR 17/13 A2990 1090 80 1600 280/11 RMK AO2 SLP123 T01670133
94908KDBQ DBQ20030711070009407/11/03 07:00:31  5-MIN KDBQ 111300Z 28010KT 10SM CLR 17/14 A2991 1090 83 1600 280/10 RMK AO2
94908KDBQ DBQ20030711070509407/11/03 07:05:31  5-MIN KDBQ 111305Z 29009KT 10SM CLR 17/14 A2991 1090 83 1600 290/09 RMK AO2
94908KDBQ DBQ20030711071009407/11/03 07:10:31  5-MIN KDBQ 111310Z 28011KT 10SM CLR 17/14 A2991 1090 83 1600 280/11 RMK AO2
94908KDBQ DBQ20030711071509407/11/03 07:15:31  5-MIN KDBQ 111315Z 28009KT 10SM CLR 17/14 A2991 1090 80 1600 270/09 RMK AO2
94908KDBQ DBQ20030711072009407/11/03 07:20:31  5-MIN KDBQ 111320Z 29010KT 10SM CLR 17/14 A2991 1090 80 1600 290/10 RMK AO2
94908KDBQ DBQ20030711072509407/11/03 07:25:31  5-MIN KDBQ 111325Z 29011KT 10SM CLR 17/14 A2991 1090 80 1600 290/11 RMK AO2
94908KDBQ DBQ20030711073009707/11/03 07:30:31  5-MIN KDBQ 111330Z 29010KT 10SM FEW070 17/14 A2991 1090 80 1600 290/10 RMK AO2
94908KDBQ DBQ20030711073509707/11/03 07:35:31  5-MIN KDBQ 111335Z 29010KT 10SM SCT070 17/14 A2991 1090 80 1600 290/10 RMK AO2
94908KDBQ DBQ20030711074010307/11/03 07:40:31  5-MIN KDBQ 111340Z 29012G16KT 10SM SCT065 17/13 A2991 1090 78 1600 290/12G16 RMK AO2
94908KDBQ DBQ20030711074510407/11/03 07:45:31  5-MIN KDBQ 111345Z 29009KT 10SM SCT065 SCT100 18/14 A2991 1090 78 1700 290/09 RMK AO2
94908KDBQ DBQ20030711075012107/11/03 07:50:31  5-MIN KDBQ 111350Z 29009KT 10SM FEW065 SCT100 18/14 A2991 1090 78 1800 290/09 RMK AO2 SLP125 T01830144
94908KDBQ DBQ20030711075512107/11/03 07:55:31  5-MIN KDBQ 111355Z 30008KT 10SM FEW065 SCT100 18/14 A2991 1090 78 1800 300/08 RMK AO2 SLP124 T01830144
94908KDBQ DBQ20030711080010407/11/03 08:00:31  5-MIN KDBQ 111400Z 29010KT 10SM FEW065 SCT100 19/14 A2991 1090 75 1800 290/10 RMK AO2
94908KDBQ DBQ20030711080509707/11/03 08:05:31  5-MIN KDBQ 111405Z 30012KT 10SM FEW065 19/14 A2991 1090 72 1800 300/12 RMK AO2
94908KDBQ DBQ20030711081009707/11/03 08:10:31  5-MIN KDBQ 111410Z 30010KT 10SM FEW100 19/14 A2991 1090 75 1800 290/10 RMK AO2
94908KDBQ DBQ20030711081509407/11/03 08:15:31  5-MIN KDBQ 111415Z 30012KT 10SM CLR 19/14 A2991 1090 72 1800 300/12 RMK AO2
94908KDBQ DBQ20030711082009407/11/03 08:20:31  5-MIN KDBQ 111420Z 30013KT 10SM CLR 19/14 A2991 1090 72 1900 300/13 RMK AO2
94908KDBQ DBQ20030711082509407/11/03 08:25:31  5-MIN KDBQ 111425Z 30012KT 10SM CLR 19/14 A2991 1090 70 1900 300/12 RMK AO2
94908KDBQ DBQ20030711083009407/11/03 08:30:31  5-MIN KDBQ 111430Z 29011KT 10SM CLR 19/14 A2991 1090 72 1900 290/11 RMK AO2
94908KDBQ DBQ20030711083509407/11/03 08:35:31  5-MIN KDBQ 111435Z 28012KT 10SM CLR 19/14 A2991 1090 72 1900 280/12 RMK AO2
94908KDBQ DBQ20030711084009407/11/03 08:40:31  5-MIN KDBQ 111440Z 29014KT 10SM CLR 19/14 A2991 1090 72 1900 290/14 RMK AO2
94908KDBQ DBQ20030711084510007/11/03 08:45:31  5-MIN KDBQ 111445Z 28010G18KT 10SM CLR 20/14 A2991 1090 70 2000 280/10G18 RMK AO2
94908KDBQ DBQ20030711085012307/11/03 08:50:31  5-MIN KDBQ 111450Z 29013G16KT 10SM CLR 20/15 A2991 1090 72 2000 290/13G16 RMK AO2 SLP124 T02000150 53013
94908KDBQ DBQ20030711085512307/11/03 08:55:31  5-MIN KDBQ 111455Z 29012G16KT 10SM CLR 20/14 A2991 1090 70 2000 290/12G16 RMK AO2 SLP124 T02000144 51007
94908KDBQ DBQ20030711090009407/11/03 09:00:31  5-MIN KDBQ 111500Z 29012KT 10SM CLR 20/15 A2991 1090 72 2000 290/12 RMK AO2
94908KDBQ DBQ20030711090509407/11/03 09:05:31  5-MIN KDBQ 111505Z 29009KT 10SM CLR 20/15 A2991 1090 72 2000 290/09 RMK AO2
94908KDBQ DBQ20030711091009707/11/03 09:10:31  5-MIN KDBQ 111510Z 29010KT 10SM FEW024 21/16 A2991 1090 70 2100 280/10 RMK AO2
94908KDBQ DBQ20030711091509707/11/03 09:15:31  5-MIN KDBQ 111515Z 28012KT 10SM FEW024 21/16 A2990 1090 73 2000 280/12 RMK AO2
94908KDBQ DBQ20030711092009707/11/03 09:20:31  5-MIN KDBQ 111520Z 28012KT 10SM FEW026 21/16 A2990 1090 73 2000 270/12 RMK AO2
94908KDBQ DBQ20030711092510407/11/03 09:25:31  5-MIN KDBQ 111525Z 27013KT 10SM FEW026 SCT055 21/16 A2990 1100 70 2100 270/13 RMK AO2
94908KDBQ DBQ20030711093010407/11/03 09:30:31  5-MIN KDBQ 111530Z 28012KT 10SM FEW026 BKN055 21/16 A2990 1090 73 2000 280/12 RMK AO2
94908KDBQ DBQ20030711093510407/11/03 09:35:31  5-MIN KDBQ 111535Z 29013KT 10SM FEW026 BKN055 21/15 A2990 1090 70 2000 280/13 RMK AO2
94908KDBQ DBQ20030711094010407/11/03 09:40:31  5-MIN KDBQ 111540Z 27012KT 10SM FEW026 BKN055 21/16 A2991 1090 70 2100 270/12 RMK AO2
94908KDBQ DBQ20030711094511007/11/03 09:45:31  5-MIN KDBQ 111545Z 27014G18KT 10SM FEW029 BKN055 21/16 A2990 1090 70 2100 270/14G18 RMK AO2
94908KDBQ DBQ20030711095012807/11/03 09:50:31  5-MIN KDBQ 111550Z 26013KT 10SM FEW029 SCT055 BKN070 22/16 A2990 1090 70 2200 260/13 RMK AO2 SLP123 T02170161
94908KDBQ DBQ20030711095512807/11/03 09:55:31  5-MIN KDBQ 111555Z 27015KT 10SM FEW029 SCT035 BKN055 21/16 A2991 1090 70 2100 270/15 RMK AO2 SLP124 T02110156
94908KDBQ DBQ20030711100011107/11/03 10:00:31  5-MIN KDBQ 111600Z 27012KT 10SM FEW027 SCT032 BKN049 21/15 A2990 1100 70 2000 260/12 RMK AO2
94908KDBQ DBQ20030711100511107/11/03 10:05:31  5-MIN KDBQ 111605Z 28010KT 10SM FEW029 SCT038 BKN049 22/16 A2990 1100 70 2200 280/10 RMK AO2
94908KDBQ DBQ20030711101011107/11/03 10:10:31  5-MIN KDBQ 111610Z 28012KT 10SM FEW027 BKN037 BKN050 22/16 A2990 1090 68 2200 280/12 RMK AO2
94908KDBQ DBQ20030711101511707/11/03 10:15:31  5-MIN KDBQ 111615Z 26015G20KT 10SM FEW028 SCT037 BKN050 22/16 A2990 1100 70 2200 260/15G20 RMK AO2
94908KDBQ DBQ20030711102011707/11/03 10:20:31  5-MIN KDBQ 111620Z 27014G20KT 10SM FEW028 SCT037 SCT080 22/16 A2990 1100 65 2200 270/14G20 RMK AO2
94908KDBQ DBQ20030711102511107/11/03 10:25:31  5-MIN KDBQ 111625Z 27014KT 10SM FEW028 SCT040 SCT080 22/16 A2990 1100 65 2200 270/14 RMK AO2
94908KDBQ DBQ20030711103011707/11/03 10:30:31  5-MIN KDBQ 111630Z 27016G19KT 10SM FEW030 SCT037 SCT080 22/16 A2990 1100 65 2200 270/16G19 RMK AO2
94908KDBQ DBQ20030711103510407/11/03 10:35:31  5-MIN KDBQ 111635Z 28013KT 10SM SCT034 SCT080 22/16 A2990 1100 65 2200 280/13 RMK AO2
94908KDBQ DBQ20030711104010407/11/03 10:40:31  5-MIN KDBQ 111640Z 28013KT 10SM SCT034 SCT080 22/16 A2990 1100 68 2200 270/13 RMK AO2
94908KDBQ DBQ20030711104510407/11/03 10:45:31  5-MIN KDBQ 111645Z 26015KT 10SM SCT034 SCT080 22/16 A2990 1100 65 2200 260/15 RMK AO2
94908KDBQ DBQ20030711105012107/11/03 10:50:31  5-MIN KDBQ 111650Z 28013KT 10SM SCT034 SCT080 23/16 A2990 1100 63 2300 280/13 RMK AO2 SLP120 T02280156
94908KDBQ DBQ20030711105511407/11/03 10:55:31  5-MIN KDBQ 111655Z 27013KT 10SM SCT034 23/16 A2990 1100 65 2300 270/13 RMK AO2 SLP120 T02280161
94908KDBQ DBQ20030711110009707/11/03 11:00:31  5-MIN KDBQ 111700Z 28015KT 10SM SCT034 23/16 A2990 1100 65 2300 270/15 RMK AO2
94908KDBQ DBQ20030711110510407/11/03 11:05:31  5-MIN KDBQ 111705Z 27014KT 10SM SCT036 SCT042 23/16 A2989 1110 65 2300 270/14 RMK AO2
94908KDBQ DBQ20030711111010307/11/03 11:10:31  5-MIN KDBQ 111710Z 27012G19KT 10SM SCT038 23/16 A2989 1100 65 2300 270/12G19 RMK AO2
94908KDBQ DBQ20030711111510307/11/03 11:15:31  5-MIN KDBQ 111715Z 26013G19KT 10SM SCT038 23/16 A2989 1110 65 2300 260/13G19 RMK AO2
94908KDBQ DBQ20030711112009707/11/03 11:20:31  5-MIN KDBQ 111720Z 28013KT 10SM SCT035 22/16 A2989 1110 68 2200 280/13 RMK AO2
94908KDBQ DBQ20030711112511007/11/03 11:25:31  5-MIN KDBQ 111725Z 28014G20KT 10SM FEW030 SCT037 23/16 A2988 1110 65 2300 280/14G20 RMK AO2
94908KDBQ DBQ20030711113010407/11/03 11:30:31  5-MIN KDBQ 111730Z 28013KT 10SM SCT035 SCT042 23/16 A2989 1110 65 2300 280/13 RMK AO2
94908KDBQ DBQ20030711113511007/11/03 11:35:31  5-MIN KDBQ 111735Z 26015G20KT 10SM SCT035 BKN042 23/16 A2989 1110 65 2300 260/15G20 RMK AO2
94908KDBQ DBQ20030711114010307/11/03 11:40:31  5-MIN KDBQ 111740Z 27015G21KT 10SM SCT035 23/16 A2989 1110 65 2300 270/15G21 RMK AO2
94908KDBQ DBQ20030711114511007/11/03 11:45:31  5-MIN KDBQ 111745Z 28014G21KT 10SM SCT035 SCT043 24/17 A2989 1110 66 2400 280/14G21 RMK AO2
94908KDBQ DBQ20030711115014507/11/03 11:50:31  5-MIN KDBQ 111750Z 28015G21KT 10SM SCT035 SCT043 23/16 A2989 1110 63 2400 280/15G21 RMK AO2 SLP118 T02330161 10239 20150 51007
94908KDBQ DBQ20030711115513807/11/03 11:55:31  5-MIN KDBQ 111755Z 28016G22KT 10SM BKN037 23/16 A2989 1110 63 2300 280/16G22 RMK AO2 SLP117 T02280156 10239 20150 58006
94908KDBQ DBQ20030711120011007/11/03 12:00:31  5-MIN KDBQ 111800Z 28013G22KT 10SM SCT037 BKN049 24/16 A2988 1110 61 2400 280/13G22 RMK AO2
94908KDBQ DBQ20030711120511007/11/03 12:05:31  5-MIN KDBQ 111805Z 27015G21KT 10SM SCT037 BKN046 23/17 A2988 1110 66 2400 270/15G21 RMK AO2
94908KDBQ DBQ20030711121011007/11/03 12:10:31  5-MIN KDBQ 111810Z 29017G23KT 10SM SCT037 BKN046 24/17 A2988 1110 63 2400 290/17G23 RMK AO2
94908KDBQ DBQ20030711121511007/11/03 12:15:31  5-MIN KDBQ 111815Z 28017G23KT 10SM SCT040 BKN050 22/15 A2989 1110 63 2200 280/17G23 RMK AO2
94908KDBQ DBQ20030711122011007/11/03 12:20:31  5-MIN KDBQ 111820Z 28018G23KT 10SM SCT041 BKN050 23/16 A2989 1110 61 2400 280/18G23 RMK AO2
94908KDBQ DBQ20030711122511007/11/03 12:25:31  5-MIN KDBQ 111825Z 30019G23KT 10SM SCT041 BKN050 24/16 A2988 1110 61 2400 290/19G23 RMK AO2
94908KDBQ DBQ20030711123011007/11/03 12:30:31  5-MIN KDBQ 111830Z 30021G24KT 10SM SCT041 SCT050 24/16 A2988 1110 59 2400 300/21G24 RMK AO2
94908KDBQ DBQ20030711123511707/11/03 12:35:31  5-MIN KDBQ 111835Z 31016G24KT 10SM FEW041 SCT047 SCT080 23/16 A2988 1110 61 2400 310/16G24 RMK AO2
94908KDBQ DBQ20030711124011107/11/03 12:40:31  5-MIN KDBQ 111840Z 30017KT 10SM FEW041 SCT048 SCT060 23/16 A2988 1110 61 2400 300/17 RMK AO2
94908KDBQ DBQ20030711124510307/11/03 12:45:31  5-MIN KDBQ 111845Z 30017G23KT 10SM FEW041 24/16 A2988 1110 59 2400 300/17G23 RMK AO2
94908KDBQ DBQ20030711125012007/11/03 12:50:31  5-MIN KDBQ 111850Z 29015G22KT 10SM FEW041 24/16 A2988 1110 59 2400 290/15G22 RMK AO2 SLP115 T02390156
94908KDBQ DBQ20030711125512007/11/03 12:55:31  5-MIN KDBQ 111855Z 29016G22KT 10SM FEW048 24/16 A2988 1110 57 2500 290/16G22 RMK AO2 SLP115 T02440156
94908KDBQ DBQ20030711130010307/11/03 13:00:31  5-MIN KDBQ 111900Z 29019G25KT 10SM SCT048 24/15 A2988 1110 57 2400 290/19G25 RMK AO2
94908KDBQ DBQ20030711130511007/11/03 13:05:31  5-MIN KDBQ 111905Z 29018G25KT 10SM SCT046 SCT060 24/15 A2988 1110 57 2400 290/18G25 RMK AO2
94908KDBQ DBQ20030711131011007/11/03 13:10:31  5-MIN KDBQ 111910Z 31018G23KT 10SM SCT045 SCT055 24/16 A2988 1120 57 2500 310/18G23 RMK AO2
94908KDBQ DBQ20030711131511007/11/03 13:15:31  5-MIN KDBQ 111915Z 30018G22KT 10SM FEW043 SCT050 24/15 A2988 1120 57 2400 300/18G22 RMK AO2
94908KDBQ DBQ20030711132011007/11/03 13:20:31  5-MIN KDBQ 111920Z 30016G22KT 10SM FEW043 BKN055 24/15 A2988 1120 57 2400 300/16G22 RMK AO2
94908KDBQ DBQ20030711132511007/11/03 13:25:31  5-MIN KDBQ 111925Z 30017G22KT 10SM BKN047 BKN060 24/16 A2988 1120 59 2400 290/17G22 RMK AO2
94908KDBQ DBQ20030711133010407/11/03 13:30:31  5-MIN KDBQ 111930Z 30016KT 10SM SCT047 BKN065 24/16 A2988 1120 59 2400 300/16 RMK AO2
94908KDBQ DBQ20030711133511007/11/03 13:35:31  5-MIN KDBQ 111935Z 30016G20KT 10SM SCT043 SCT050 24/16 A2988 1120 57 2500 300/16G20 RMK AO2
94908KDBQ DBQ20030711134011307/11/03 13:40:31  5-MIN KDBQ 111940Z AUTO 31017G22KT 10SM SCT046 24/15 A2988 1120 57 2400 310/17G22 RMK AO2 TSNO
94908KDBQ DBQ20030711134512007/11/03 13:45:31  5-MIN KDBQ 111945Z AUTO 30016G22KT 10SM SCT047 SCT060 24/15 A2987 1120 55 2500 300/16G22 RMK AO2 TSNO
94908KDBQ DBQ20030711135013007/11/03 13:50:31  5-MIN KDBQ 111950Z AUTO 30016G21KT 10SM FEW044 25/15 A2987 1120 53 2600 300/16G21 RMK AO2 SLP112 T02500150 TSNO
94908KDBQ DBQ20030711135512407/11/03 13:55:31  5-MIN KDBQ 111955Z AUTO 30012KT 10SM FEW044 25/16 A2987 1120 55 2600 300/12 RMK AO2 SLP112 T02500156 TSNO
94908KDBQ DBQ20030711140009707/11/03 14:00:31  5-MIN KDBQ 112000Z 29013KT 10SM FEW055 25/16 A2987 1130 55 2600 290/13 RMK AO2
94908KDBQ DBQ20030711140511007/11/03 14:05:31  5-MIN KDBQ 112005Z 29015G20KT 10SM FEW045 SCT075 25/16 A2987 1120 55 2600 290/15G20 RMK AO2
94908KDBQ DBQ20030711141010307/11/03 14:10:31  5-MIN KDBQ 112010Z 29019G23KT 10SM FEW045 25/15 A2987 1130 53 2600 290/19G23 RMK AO2
94908KDBQ DBQ20030711141510007/11/03 14:15:31  5-MIN KDBQ 112015Z 30014G23KT 10SM CLR 24/15 A2987 1130 55 2500 300/14G23 RMK AO2
94908KDBQ DBQ20030711142009407/11/03 14:20:31  5-MIN KDBQ 112020Z 30015KT 10SM CLR 24/16 A2987 1120 57 2500 300/15 RMK AO2
94908KDBQ DBQ20030711142510407/11/03 14:25:31  5-MIN KDBQ 112025Z 30015KT 10SM FEW047 SCT095 25/15 A2987 1120 53 2600 300/15 RMK AO2
94908KDBQ DBQ20030711143011007/11/03 14:30:31  5-MIN KDBQ 112030Z 29015G21KT 10SM FEW049 SCT095 25/15 A2987 1120 53 2600 290/15G21 RMK AO2
94908KDBQ DBQ20030711143511107/11/03 14:35:31  5-MIN KDBQ 112035Z 29016KT 10SM SCT049 SCT065 SCT095 25/15 A2987 1130 53 2600 290/16 RMK AO2
94908KDBQ DBQ20030711144011707/11/03 14:40:31  5-MIN KDBQ 112040Z 29010G20KT 10SM FEW049 SCT065 BKN095 24/15 A2987 1120 57 2400 290/10G20 RMK AO2
94908KDBQ DBQ20030711144511107/11/03 14:45:31  5-MIN KDBQ 112045Z 31010KT 10SM FEW049 SCT060 BKN095 24/14 A2987 1120 55 2400 310/10 RMK AO2
94908KDBQ DBQ20030711145013407/11/03 14:50:31  5-MIN KDBQ 112050Z 31013KT 10SM SCT049 BKN060 BKN095 24/15 A2987 1120 55 2500 310/13 RMK AO2 SLP111 T02440150 58006
94908KDBQ DBQ20030711145513407/11/03 14:55:31  5-MIN KDBQ 112055Z 31009KT 10SM BKN049 BKN065 BKN095 24/14 A2987 1130 55 2500 310/09 RMK AO2 SLP111 T02390144 56007
94908KDBQ DBQ20030711150011107/11/03 15:00:31  5-MIN KDBQ 112100Z 35009KT 10SM BKN049 BKN065 BKN090 23/16 A2987 1120 65 2300 350/09 RMK AO2
94908KDBQ DBQ20030711150510407/11/03 15:05:31  5-MIN KDBQ 112105Z 36008KT 10SM BKN049 BKN090 23/16 A2987 1130 65 2300 360/08 RMK AO2
94908KDBQ DBQ20030711151009707/11/03 15:10:31  5-MIN KDBQ 112110Z 35006KT 10SM BKN049 22/16 A2987 1130 68 2300 350/06 RMK AO2
94908KDBQ DBQ20030711151509707/11/03 15:15:31  5-MIN KDBQ 112115Z 33006KT 10SM BKN049 23/16 A2987 1130 63 2300 330/06 RMK AO2
94908KDBQ DBQ20030711152011107/11/03 15:20:31  5-MIN KDBQ 112120Z 32007KT 10SM BKN049 BKN060 OVC100 24/16 A2987 1130 61 2500 310/07 RMK AO2
94908KDBQ DBQ20030711152511107/11/03 15:25:31  5-MIN KDBQ 112125Z 31008KT 10SM BKN049 BKN060 BKN100 24/17 A2987 1130 61 2500 310/08 RMK AO2
94908KDBQ DBQ20030711153011907/11/03 15:30:31  5-MIN KDBQ 112130Z 30014KT 10SM SCT049 26/16 A2987 1130 55 2600 300/14 RMK AO2 TSTMS DSTNT NE MOV SE
94908KDBQ DBQ20030711153513207/11/03 15:35:31  5-MIN KDBQ 112135Z 31015G21KT 10SM SCT049 BKN070 25/15 A2987 1130 53 2600 310/15G21 RMK AO2 TSTMS DSTNT NE MOV SE
94908KDBQ DBQ20030711154013207/11/03 15:40:31  5-MIN KDBQ 112140Z 31013G21KT 10SM BKN050 BKN070 24/14 A2987 1130 55 2500 310/13G21 RMK AO2 TSTMS DSTNT NE MOV SE
94908KDBQ DBQ20030711154513307/11/03 15:45:31  5-MIN KDBQ 112145Z 31011KT 10SM SCT050 BKN070 BKN090 24/15 A2987 1130 57 2500 300/11 RMK AO2 TSTMS DSTNT NE MOV SE
94908KDBQ DBQ20030711155015007/11/03 15:50:31  5-MIN KDBQ 112150Z 31011KT 10SM SCT055 SCT070 BKN090 24/15 A2987 1120 57 2400 310/11 RMK AO2 SLP112 TSTMS DSTNT NE MOV SE T02390150
94908KDBQ DBQ20030711155514607/11/03 15:55:31  5-MIN KDBQ 112155Z 32010KT 10SM SCT055 BKN075 24/15 A2987 1130 57 2500 320/10 RMK AO2 SLP111 TSTMS DSTNT NW-NE MOV SE T02390150
94908KDBQ DBQ20030711160012807/11/03 16:00:31  5-MIN KDBQ 112200Z 36008KT 10SM SCT055 BKN070 24/16 A2987 1130 61 2500 360/08 RMK AO2 TSTMS DSTNT NW-E MOV SE
94908KDBQ DBQ20030711160511107/11/03 16:05:31  5-MIN KDBQ 112205Z 02010KT 10SM FEW050 BKN060 BKN075 23/17 A2986 1130 66 2400 020/10 RMK AO2
94908KDBQ DBQ20030711161011107/11/03 16:10:31  5-MIN KDBQ 112210Z 03010KT 10SM BKN055 BKN070 BKN090 22/17 A2986 1130 70 2300 030/10 RMK AO2
94908KDBQ DBQ20030711161510407/11/03 16:15:31  5-MIN KDBQ 112215Z 03009KT 10SM BKN055 BKN080 22/17 A2986 1130 73 2200 030/09 RMK AO2
94908KDBQ DBQ20030711162010407/11/03 16:20:31  5-MIN KDBQ 112220Z 02011KT 10SM BKN055 BKN075 21/17 A2987 1120 75 2100 020/11 RMK AO2
94908KDBQ DBQ20030711162516707/11/03 16:25:31  5-MIN KDBQ 112225Z 35031G42KT 1SM -TSRA SQ FEW014 BKN055 BKN080 19/17 A2992 1080 84 1900 350/31G42 RMK AO2 PK WND 34042/2224 TSB22RAB24 PRESRR P0019
94908KDBQ DBQ20030711163017807/11/03 16:30:31  5-MIN KDBQ 112230Z 01017G42KT 330V030 1/2SM +TSRA SQ SCT007 BKN055 OVC080 17/14 A2987 1120 83 1700 010/17G42 330V030 RMK AO2 PK WND 34042/2224 TSB22RAB24 P0035
94908KDBQ DBQ20030711163515907/11/03 16:35:31  5-MIN KDBQ 112235Z 35011G25KT 3/4SM -TSRA SCT019 BKN055 OVC075 19/14 A2988 1120 72 1900 350/11G25 RMK AO2 PK WND 34042/2224 TSB22RAB24 P0035
94908KDBQ DBQ20030711164015707/11/03 16:40:31  5-MIN KDBQ 112240Z 35005G18KT 5SM -TSRA SCT025 BKN060 BKN075 19/14 A2988 1120 75 1900 350/05G18 RMK AO2 PK WND 34042/2224 TSB22RAB24 P0035
94908KDBQ DBQ20030711164515207/11/03 16:45:31  5-MIN KDBQ 112245Z 35008KT 10SM TS SCT018 BKN055 OVC080 19/14 A2988 1120 72 1900 350/08 RMK AO2 PK WND 34042/2224 TSB22RAB24E44 P0035
94908KDBQ DBQ20030711165016907/11/03 16:50:31  5-MIN KDBQ 112250Z 35009KT 10SM -TSRA SCT018 BKN050 OVC080 19/14 A2988 1120 75 1900 350/09 RMK AO2 PK WND 34042/2224 TSB22RAB24 SLP117 P0036 T01890144
94908KDBQ DBQ20030711165520307/11/03 16:55:31  5-MIN KDBQ 112255Z 35008KT 8SM -TSRA FEW030 BKN050 OVC075 19/14 A2988 1110 75 1900 350/08 RMK AO2 PK WND 34042/2224 TSB22RAB24 SLP117 TSTMS NW-SE MOV SE OCCNL LGTICCCCG P0037 T01890144
94908KDBQ DBQ20030711170015607/11/03 17:00:31  5-MIN KDBQ 112300Z 36008KT 8SM -TSRA BKN055 BKN075 BKN110 19/16 A2988 1120 81 1900 360/08 RMK AO2 TSTMS NW-SE MOV SE OCNL LTGICCCCG P0000
94908KDBQ DBQ20030711170516007/11/03 17:05:31  5-MIN KDBQ 112305Z 01007KT 10SM TS FEW050 SCT060 BKN075 19/16 A2987 1120 81 1900 010/07 RMK AO2 RAE04 TSTMS NW-SE MOV SE OCNL LTGICCCCG P0000
94908KDBQ DBQ20030711171016007/11/03 17:10:31  5-MIN KDBQ 112310Z 36006KT 10SM TS SCT055 BKN075 BKN090 19/16 A2988 1120 81 1900 360/06 RMK AO2 RAE04 TSTMS NW-SE MOV SE OCNL LTGICCCCG P0000
94908KDBQ DBQ20030711171516007/11/03 17:15:31  5-MIN KDBQ 112315Z 01006KT 10SM TS FEW050 SCT075 BKN110 19/16 A2988 1120 84 1900 010/06 RMK AO2 RAE04 TSTMS NW-SE MOV SE OCNL LTGICCCCG P0000
94908KDBQ DBQ20030711172016007/11/03 17:20:31  5-MIN KDBQ 112320Z 03005KT 10SM TS FEW055 SCT080 BKN110 19/16 A2988 1120 84 1900 030/05 RMK AO2 RAE04 TSTMS NW-SE MOV SE OCNL LTGICCCCG P0000
94908KDBQ DBQ20030711172516007/11/03 17:25:31  5-MIN KDBQ 112325Z 02007KT 10SM TS FEW047 SCT060 BKN075 19/17 A2987 1120 87 1900 020/07 RMK AO2 RAE04 TSTMS NW-SE MOV SE OCNL LTGICCCCG P0000
94908KDBQ DBQ20030711173016007/11/03 17:30:31  5-MIN KDBQ 112330Z 01006KT 10SM TS FEW050 SCT070 BKN090 18/16 A2988 1120 87 1800 010/06 RMK AO2 RAE04 TSTMS NW-SE MOV SE OCNL LTGICCCCG P0000
94908KDBQ DBQ20030711173516007/11/03 17:35:31  5-MIN KDBQ 112335Z 35005KT 10SM TS FEW047 SCT055 BKN075 18/17 A2988 1110 90 1800 350/05 RMK AO2 RAE04 TSTMS NW-SE MOV SE OCNL LTGICCCCG P0000
94908KDBQ DBQ20030711174016607/11/03 17:40:31  5-MIN KDBQ 112340Z 26006KT 10SM -TSRA SCT047 BKN055 BKN075 18/17 A2989 1110 90 1800 260/06 RMK AO2 RAE04B38 TSTMS NW-SE MOV SE OCNL LTGICCCCG P0000
94908KDBQ DBQ20030711174516707/11/03 17:45:31  5-MIN KDBQ 112345Z 26004KT 4SM TSRA BR BKN047 BKN055 OVC110 18/17 A2989 1100 90 1800 260/04 RMK AO2 RAE04B38 TSTMS NW-SE MOV SE OCNL LTGICCCCG P0002
94908KDBQ DBQ20030711175020607/11/03 17:50:31  5-MIN KDBQ 112350Z 28004KT 4SM -TSRA BKN050 BKN070 OVC120 19/16 A2989 1110 84 1900 280/04 RMK AO2 RAE04B38 SLP119 TSTMS NW-SE MOV SE OCNL LTGICCCCG P0002 60039 T01890161 10256 20167 56007
94908KDBQ DBQ20030711175520607/11/03 17:55:31  5-MIN KDBQ 112355Z 28004KT 9SM -TSRA FEW046 BKN075 OVC120 19/16 A2989 1110 84 1900 280/04 RMK AO2 RAE04B38 SLP118 TSTMS NW-SE MOV SE OCNL LTGICCCCG P0002 60039 T01890161 10256 20167 53006
94908KDBQ DBQ20030711180016007/11/03 18:00:31  5-MIN KDBQ 120000Z 24011KT 10SM TS FEW043 BKN080 OVC095 19/17 A2989 1100 87 1900 240/11 RMK AO2 RAE00 TSTMS SE-SW MOV SE OCNL LTGICCCCG P0000
94908KDBQ DBQ20030711180516607/11/03 18:05:31  5-MIN KDBQ 120005Z 25015G18KT 10SM TS SCT050 BKN070 OVC090 18/17 A2989 1100 90 1800 250/15G18 RMK AO2 RAE00 TSTMS SE-SW MOV SE OCNL LTGICCCCG P0000
94908KDBQ DBQ20030711181016007/11/03 18:10:31  5-MIN KDBQ 120010Z 27010KT 10SM TS FEW055 BKN090 OVC120 18/16 A2989 1100 87 1800 270/10 RMK AO2 RAE00 TSTMS SE-SW MOV SE OCNL LTGICCCCG P0000
94908KDBQ DBQ20030711181516007/11/03 18:15:31  5-MIN KDBQ 120015Z 30006KT 10SM TS FEW050 BKN080 OVC120 19/16 A2990 1100 81 1900 300/06 RMK AO2 RAE00 TSTMS SE-SW MOV SE OCNL LTGICCCCG P0000
94908KDBQ DBQ20030711182016007/11/03 18:20:31  5-MIN KDBQ 120020Z 30005KT 10SM TS FEW050 SCT065 BKN095 19/16 A2989 1110 81 1900 300/05 RMK AO2 RAE00 TSTMS SE-SW MOV SE OCNL LTGICCCCG P0000
94908KDBQ DBQ20030711182516007/11/03 18:25:31  5-MIN KDBQ 120025Z 30003KT 10SM TS SCT060 SCT090 BKN120 19/16 A2988 1110 81 1900 300/03 RMK AO2 RAE00 TSTMS SE-SW MOV SE OCNL LTGICCCCG P0000
94908KDBQ DBQ20030711183016007/11/03 18:30:31  5-MIN KDBQ 120030Z 29003KT 10SM TS FEW055 SCT090 BKN120 19/16 A2988 1110 84 1900 290/03 RMK AO2 RAE00 TSTMS SE-SW MOV SE OCNL LTGICCCCG P0000
94908KDBQ DBQ20030711183515307/11/03 18:35:31  5-MIN KDBQ 120035Z 00000KT 10SM TS FEW065 SCT120 19/16 A2988 1120 81 1900 000/00 RMK AO2 RAE00 TSTMS SE-SW MOV SE OCNL LTGICCCCG P0000
94908KDBQ DBQ20030711184014607/11/03 18:40:31  5-MIN KDBQ 120040Z 28003KT 10SM TS FEW120 19/16 A2988 1110 81 1900 280/03 RMK AO2 RAE00 TSTMS SE-SW MOV SE OCNL LTGICCCCG P0000
94908KDBQ DBQ20030711184514607/11/03 18:45:31  5-MIN KDBQ 120045Z 00000KT 10SM TS FEW120 19/16 A2988 1110 78 1900 000/00 RMK AO2 RAE00 TSTMS SE-SW MOV SE OCNL LTGICCCCG P0000
94908KDBQ DBQ20030711192010407/11/03 19:20:31  5-MIN KDBQ 120120Z AUTO 29005KT 10SM CLR 18/16 A2990 1100 87 1700 290/05 RMK AO2 TSNO
94908KDBQ DBQ20030711192510407/11/03 19:25:31  5-MIN KDBQ 120125Z AUTO 29005KT 10SM CLR 18/16 A2990 1100 87 1700 290/05 RMK AO2 TSNO
94908KDBQ DBQ20030711193010407/11/03 19:30:31  5-MIN KDBQ 120130Z AUTO 28006KT 10SM CLR 18/16 A2990 1090 87 1700 280/06 RMK AO2 TSNO
94908KDBQ DBQ20030711193510407/11/03 19:35:31  5-MIN KDBQ 120135Z AUTO 29006KT 10SM CLR 18/15 A2991 1090 83 1700 290/06 RMK AO2 TSNO
94908KDBQ DBQ20030711194010407/11/03 19:40:31  5-MIN KDBQ 120140Z AUTO 30005KT 10SM CLR 18/15 A2991 1090 83 1700 300/05 RMK AO2 TSNO
94908KDBQ DBQ20030711194510407/11/03 19:45:31  5-MIN KDBQ 120145Z AUTO 29005KT 10SM CLR 17/15 A2991 1090 87 1600 290/05 RMK AO2 TSNO
94908KDBQ DBQ20030711195012107/11/03 19:50:31  5-MIN KDBQ 120150Z AUTO 30006KT 10SM CLR 17/15 A2991 1090 87 1600 300/06 RMK AO2 SLP125 T01720150 TSNO
94908KDBQ DBQ20030711195512107/11/03 19:55:31  5-MIN KDBQ 120155Z AUTO 31006KT 10SM CLR 17/15 A2991 1090 87 1600 310/06 RMK AO2 SLP125 T01720150 TSNO
94908KDBQ DBQ20030711200010407/11/03 20:00:31  5-MIN KDBQ 120200Z AUTO 30005KT 10SM CLR 17/15 A2991 1090 87 1600 300/05 RMK AO2 TSNO
94908KDBQ DBQ20030711200510407/11/03 20:05:31  5-MIN KDBQ 120205Z AUTO 29005KT 10SM CLR 17/15 A2991 1090 87 1600 290/05 RMK AO2 TSNO
94908KDBQ DBQ20030711201010407/11/03 20:10:31  5-MIN KDBQ 120210Z AUTO 29004KT 10SM CLR 17/15 A2991 1090 87 1600 290/04 RMK AO2 TSNO
94908KDBQ DBQ20030711201510407/11/03 20:15:31  5-MIN KDBQ 120215Z AUTO 31005KT 10SM CLR 17/15 A2991 1090 87 1600 310/05 RMK AO2 TSNO
94908KDBQ DBQ20030711202010707/11/03 20:20:31  5-MIN KDBQ 120220Z AUTO 31007KT 10SM SCT110 17/15 A2991 1090 87 1600 310/07 RMK AO2 TSNO
94908KDBQ DBQ20030711202510707/11/03 20:25:31  5-MIN KDBQ 120225Z AUTO 31007KT 10SM BKN110 17/15 A2991 1080 87 1600 300/07 RMK AO2 TSNO
94908KDBQ DBQ20030711203010707/11/03 20:30:31  5-MIN KDBQ 120230Z AUTO 30007KT 10SM BKN110 17/15 A2992 1080 87 1600 300/07 RMK AO2 TSNO
94908KDBQ DBQ20030711203510707/11/03 20:35:31  5-MIN KDBQ 120235Z AUTO 30007KT 10SM BKN110 18/15 A2992 1080 83 1700 290/07 RMK AO2 TSNO
94908KDBQ DBQ20030711204010707/11/03 20:40:31  5-MIN KDBQ 120240Z AUTO 30006KT 10SM BKN110 17/15 A2992 1080 87 1600 290/06 RMK AO2 TSNO
94908KDBQ DBQ20030711204510707/11/03 20:45:31  5-MIN KDBQ 120245Z AUTO 30007KT 10SM BKN110 17/15 A2992 1080 87 1600 300/07 RMK AO2 TSNO
94908KDBQ DBQ20030711205013607/11/03 20:50:31  5-MIN KDBQ 120250Z AUTO 30007KT 10SM BKN100 17/15 A2992 1080 87 1600 300/07 RMK AO2 SLP129 60000 T01720150 53006 TSNO
94908KDBQ DBQ20030711205513607/11/03 20:55:31  5-MIN KDBQ 120255Z AUTO 30006KT 10SM BKN100 17/15 A2992 1080 87 1600 300/06 RMK AO2 SLP130 60000 T01720150 53012 TSNO
94908KDBQ DBQ20030711210010707/11/03 21:00:31  5-MIN KDBQ 120300Z AUTO 30007KT 10SM SCT100 17/15 A2992 1080 87 1600 300/07 RMK AO2 TSNO
94908KDBQ DBQ20030711210510707/11/03 21:05:31  5-MIN KDBQ 120305Z AUTO 30008KT 10SM SCT100 17/15 A2992 1070 87 1600 300/08 RMK AO2 TSNO
94908KDBQ DBQ20030711211010707/11/03 21:10:31  5-MIN KDBQ 120310Z AUTO 30008KT 10SM FEW095 17/15 A2992 1070 87 1600 290/08 RMK AO2 TSNO
94908KDBQ DBQ20030711211510707/11/03 21:15:31  5-MIN KDBQ 120315Z AUTO 29008KT 10SM FEW095 17/15 A2993 1070 90 1600 290/08 RMK AO2 TSNO
94908KDBQ DBQ20030711212010407/11/03 21:20:31  5-MIN KDBQ 120320Z AUTO 30008KT 10SM CLR 17/15 A2993 1070 90 1600 300/08 RMK AO2 TSNO
94908KDBQ DBQ20030711212510407/11/03 21:25:31  5-MIN KDBQ 120325Z AUTO 29007KT 10SM CLR 17/15 A2993 1070 90 1600 290/07 RMK AO2 TSNO
94908KDBQ DBQ20030711213010407/11/03 21:30:31  5-MIN KDBQ 120330Z AUTO 30007KT 10SM CLR 17/15 A2993 1070 90 1600 300/07 RMK AO2 TSNO
94908KDBQ DBQ20030711213510407/11/03 21:35:31  5-MIN KDBQ 120335Z AUTO 30007KT 10SM CLR 17/14 A2993 1070 86 1600 300/07 RMK AO2 TSNO
94908KDBQ DBQ20030711214010407/11/03 21:40:31  5-MIN KDBQ 120340Z AUTO 31006KT 10SM CLR 17/14 A2993 1070 86 1600 310/06 RMK AO2 TSNO
94908KDBQ DBQ20030711214510407/11/03 21:45:31  5-MIN KDBQ 120345Z AUTO 31006KT 10SM CLR 17/14 A2993 1070 86 1600 310/06 RMK AO2 TSNO
94908KDBQ DBQ20030711215012107/11/03 21:50:31  5-MIN KDBQ 120350Z AUTO 31007KT 10SM CLR 17/14 A2993 1070 86 1600 310/07 RMK AO2 SLP132 T01670144 TSNO
94908KDBQ DBQ20030711215512107/11/03 21:55:31  5-MIN KDBQ 120355Z AUTO 31007KT 10SM CLR 17/14 A2993 1070 86 1600 310/07 RMK AO2 SLP133 T01670144 TSNO
94908KDBQ DBQ20030711220010407/11/03 22:00:31  5-MIN KDBQ 120400Z AUTO 31008KT 10SM CLR 17/14 A2993 1070 86 1500 310/08 RMK AO2 TSNO
94908KDBQ DBQ20030711220510407/11/03 22:05:31  5-MIN KDBQ 120405Z AUTO 31008KT 10SM CLR 17/14 A2994 1060 86 1500 310/08 RMK AO2 TSNO
94908KDBQ DBQ20030711221010407/11/03 22:10:31  5-MIN KDBQ 120410Z AUTO 31008KT 10SM CLR 17/14 A2994 1060 86 1500 310/08 RMK AO2 TSNO
94908KDBQ DBQ20030711221510407/11/03 22:15:31  5-MIN KDBQ 120415Z AUTO 31007KT 10SM CLR 17/14 A2994 1060 86 1500 310/07 RMK AO2 TSNO
94908KDBQ DBQ20030711222010407/11/03 22:20:31  5-MIN KDBQ 120420Z AUTO 30007KT 10SM CLR 16/14 A2994 1060 90 1500 300/07 RMK AO2 TSNO
94908KDBQ DBQ20030711222510407/11/03 22:25:31  5-MIN KDBQ 120425Z AUTO 31007KT 10SM CLR 16/14 A2994 1060 90 1500 310/07 RMK AO2 TSNO
94908KDBQ DBQ20030711223010407/11/03 22:30:31  5-MIN KDBQ 120430Z AUTO 32009KT 10SM CLR 17/14 A2994 1060 86 1500 320/09 RMK AO2 TSNO
94908KDBQ DBQ20030711223510407/11/03 22:35:31  5-MIN KDBQ 120435Z AUTO 32009KT 10SM CLR 17/14 A2994 1060 86 1500 320/09 RMK AO2 TSNO
94908KDBQ DBQ20030711224010407/11/03 22:40:31  5-MIN KDBQ 120440Z AUTO 31008KT 10SM CLR 17/14 A2994 1060 86 1500 310/08 RMK AO2 TSNO
94908KDBQ DBQ20030711224510407/11/03 22:45:31  5-MIN KDBQ 120445Z AUTO 32008KT 10SM CLR 17/14 A2994 1060 86 1500 320/08 RMK AO2 TSNO
94908KDBQ DBQ20030711225012107/11/03 22:50:31  5-MIN KDBQ 120450Z AUTO 31007KT 10SM CLR 17/14 A2994 1060 86 1500 310/07 RMK AO2 SLP135 T01670144 TSNO
94908KDBQ DBQ20030711225512107/11/03 22:55:31  5-MIN KDBQ 120455Z AUTO 31008KT 10SM CLR 17/14 A2994 1060 86 1500 310/08 RMK AO2 SLP135 T01670144 TSNO
94908KDBQ DBQ20030711230010407/11/03 23:00:31  5-MIN KDBQ 120500Z AUTO 32008KT 10SM CLR 17/14 A2994 1060 86 1500 320/08 RMK AO2 TSNO
94908KDBQ DBQ20030711230510407/11/03 23:05:31  5-MIN KDBQ 120505Z AUTO 32007KT 10SM CLR 17/14 A2994 1060 86 1500 320/07 RMK AO2 TSNO
94908KDBQ DBQ20030711231010407/11/03 23:10:31  5-MIN KDBQ 120510Z AUTO 33008KT 10SM CLR 17/14 A2994 1060 86 1500 330/08 RMK AO2 TSNO
94908KDBQ DBQ20030711231510407/11/03 23:15:31  5-MIN KDBQ 120515Z AUTO 32007KT 10SM CLR 17/14 A2995 1050 86 1500 320/07 RMK AO2 TSNO
94908KDBQ DBQ20030711232010407/11/03 23:20:31  5-MIN KDBQ 120520Z AUTO 32008KT 10SM CLR 17/14 A2995 1050 86 1500 320/08 RMK AO2 TSNO
94908KDBQ DBQ20030711232510407/11/03 23:25:31  5-MIN KDBQ 120525Z AUTO 32009KT 10SM CLR 17/14 A2995 1050 86 1500 320/09 RMK AO2 TSNO
94908KDBQ DBQ20030711233010407/11/03 23:30:31  5-MIN KDBQ 120530Z AUTO 32009KT 10SM CLR 17/14 A2995 1050 86 1500 320/09 RMK AO2 TSNO
94908KDBQ DBQ20030711233510407/11/03 23:35:31  5-MIN KDBQ 120535Z AUTO 32009KT 10SM CLR 17/14 A2995 1050 86 1500 320/09 RMK AO2 TSNO
94908KDBQ DBQ20030711234010407/11/03 23:40:31  5-MIN KDBQ 120540Z AUTO 32008KT 10SM CLR 17/14 A2995 1050 86 1500 320/08 RMK AO2 TSNO
94908KDBQ DBQ20030711234510407/11/03 23:45:31  5-MIN KDBQ 120545Z AUTO 32009KT 10SM CLR 17/14 A2995 1050 86 1500 320/09 RMK AO2 TSNO
94908KDBQ DBQ20030711235015507/11/03 23:50:31  5-MIN KDBQ 120550Z AUTO 32009KT 10SM CLR 17/14 A2995 1050 86 1500 320/09 RMK AO2 SLP138 60000 T01670144 10194 20161 402560133 53012 TSNO
94908KDBQ DBQ20030711235515507/11/03 23:55:31  5-MIN KDBQ 120555Z AUTO 32008KT 10SM CLR 17/14 A2995 1050 86 1500 320/08 RMK AO2 SLP138 60000 T01670144 10194 20161 402560133 51008 TSNO
94908KDBQ DBQ20030712000010407/12/03 00:00:31  5-MIN KDBQ 120600Z AUTO 32009KT 10SM CLR 17/14 A2995 1050 86 1500 320/09 RMK AO2 TSNO
94908KDBQ DBQ20030712000510407/12/03 00:05:31  5-MIN KDBQ 120605Z AUTO 32009KT 10SM CLR 17/14 A2995 1050 86 1500 320/09 RMK AO2 TSNO
94908KDBQ DBQ20030712001010407/12/03 00:10:31  5-MIN KDBQ 120610Z AUTO 32008KT 10SM CLR 17/14 A2995 1050 86 1500 320/08 RMK AO2 TSNO
94908KDBQ DBQ20030712001510407/12/03 00:15:31  5-MIN KDBQ 120615Z AUTO 33008KT 10SM CLR 16/14 A2995 1050 90 1500 330/08 RMK AO2 TSNO
94908KDBQ DBQ20030712002010407/12/03 00:20:31  5-MIN KDBQ 120620Z AUTO 33008KT 10SM CLR 16/14 A2995 1050 90 1500 320/08 RMK AO2 TSNO
94908KDBQ DBQ20030712002510407/12/03 00:25:31  5-MIN KDBQ 120625Z AUTO 32007KT 10SM CLR 16/14 A2995 1050 90 1500 320/07 RMK AO2 TSNO
94908KDBQ DBQ20030712003010407/12/03 00:30:31  5-MIN KDBQ 120630Z AUTO 32007KT 10SM CLR 16/14 A2995 1050 90 1500 320/07 RMK AO2 TSNO
94908KDBQ DBQ20030712003510407/12/03 00:35:31  5-MIN KDBQ 120635Z AUTO 31007KT 10SM CLR 16/14 A2995 1050 90 1500 310/07 RMK AO2 TSNO
94908KDBQ DBQ20030712004010407/12/03 00:40:31  5-MIN KDBQ 120640Z AUTO 32006KT 10SM CLR 16/14 A2995 1050 86 1500 320/06 RMK AO2 TSNO
94908KDBQ DBQ20030712004510407/12/03 00:45:31  5-MIN KDBQ 120645Z AUTO 31007KT 10SM CLR 16/14 A2995 1050 90 1400 310/07 RMK AO2 TSNO
94908KDBQ DBQ20030712005012107/12/03 00:50:31  5-MIN KDBQ 120650Z AUTO 32007KT 10SM CLR 16/14 A2995 1050 90 1400 320/07 RMK AO2 SLP139 T01560139 TSNO
94908KDBQ DBQ20030712005512107/12/03 00:55:31  5-MIN KDBQ 120655Z AUTO 33007KT 10SM CLR 16/14 A2995 1050 86 1500 330/07 RMK AO2 SLP137 T01610139 TSNO
94908KDBQ DBQ20030712010010407/12/03 01:00:31  5-MIN KDBQ 120700Z AUTO 33006KT 10SM CLR 16/14 A2995 1050 86 1500 330/06 RMK AO2 TSNO
94908KDBQ DBQ20030712010510407/12/03 01:05:31  5-MIN KDBQ 120705Z AUTO 33008KT 10SM CLR 16/14 A2995 1050 86 1500 330/08 RMK AO2 TSNO
94908KDBQ DBQ20030712011010407/12/03 01:10:31  5-MIN KDBQ 120710Z AUTO 34007KT 10SM CLR 16/14 A2995 1050 86 1500 340/07 RMK AO2 TSNO
94908KDBQ DBQ20030712011510407/12/03 01:15:31  5-MIN KDBQ 120715Z AUTO 35006KT 10SM CLR 16/14 A2995 1050 86 1500 350/06 RMK AO2 TSNO
94908KDBQ DBQ20030712012010407/12/03 01:20:31  5-MIN KDBQ 120720Z AUTO 35005KT 10SM CLR 16/14 A2995 1050 90 1400 350/05 RMK AO2 TSNO
94908KDBQ DBQ20030712012510407/12/03 01:25:31  5-MIN KDBQ 120725Z AUTO 34006KT 10SM CLR 16/14 A2996 1050 90 1400 340/06 RMK AO2 TSNO
94908KDBQ DBQ20030712013010407/12/03 01:30:31  5-MIN KDBQ 120730Z AUTO 34007KT 10SM CLR 16/14 A2995 1050 90 1400 340/07 RMK AO2 TSNO
94908KDBQ DBQ20030712013510407/12/03 01:35:31  5-MIN KDBQ 120735Z AUTO 35007KT 10SM CLR 16/14 A2996 1050 90 1400 340/07 RMK AO2 TSNO
94908KDBQ DBQ20030712014010407/12/03 01:40:31  5-MIN KDBQ 120740Z AUTO 34007KT 10SM CLR 16/14 A2995 1050 90 1400 340/07 RMK AO2 TSNO
94908KDBQ DBQ20030712014510407/12/03 01:45:31  5-MIN KDBQ 120745Z AUTO 35007KT 10SM CLR 16/14 A2996 1050 90 1400 350/07 RMK AO2 TSNO
94908KDBQ DBQ20030712015012107/12/03 01:50:31  5-MIN KDBQ 120750Z AUTO 34007KT 10SM CLR 16/14 A2996 1050 90 1400 340/07 RMK AO2 SLP139 T01560139 TSNO
94908KDBQ DBQ20030712015512107/12/03 01:55:31  5-MIN KDBQ 120755Z AUTO 34007KT 10SM CLR 16/14 A2996 1040 90 1400 340/07 RMK AO2 SLP139 T01560139 TSNO
94908KDBQ DBQ20030712020010407/12/03 02:00:31  5-MIN KDBQ 120800Z AUTO 35005KT 10SM CLR 16/14 A2996 1040 90 1400 350/05 RMK AO2 TSNO
94908KDBQ DBQ20030712020510407/12/03 02:05:31  5-MIN KDBQ 120805Z AUTO 36004KT 10SM CLR 15/14 A2996 1040 93 1300 360/04 RMK AO2 TSNO
94908KDBQ DBQ20030712021010407/12/03 02:10:31  5-MIN KDBQ 120810Z AUTO 01004KT 10SM CLR 15/14 A2996 1040 93 1300 360/04 RMK AO2 TSNO
94908KDBQ DBQ20030712021510407/12/03 02:15:31  5-MIN KDBQ 120815Z AUTO 01005KT 10SM CLR 15/14 A2996 1040 93 1300 010/05 RMK AO2 TSNO
94908KDBQ DBQ20030712022010407/12/03 02:20:31  5-MIN KDBQ 120820Z AUTO 35005KT 10SM CLR 15/13 A2996 1040 90 1300 350/05 RMK AO2 TSNO
94908KDBQ DBQ20030712022510407/12/03 02:25:31  5-MIN KDBQ 120825Z AUTO 01005KT 10SM CLR 14/13 A2997 1040 93 1300 010/05 RMK AO2 TSNO
94908KDBQ DBQ20030712023010407/12/03 02:30:31  5-MIN KDBQ 120830Z AUTO 01005KT 10SM CLR 15/14 A2996 1040 93 1300 010/05 RMK AO2 TSNO
94908KDBQ DBQ20030712023510407/12/03 02:35:31  5-MIN KDBQ 120835Z AUTO 01005KT 10SM CLR 15/14 A2996 1040 93 1300 010/05 RMK AO2 TSNO
94908KDBQ DBQ20030712024010407/12/03 02:40:31  5-MIN KDBQ 120840Z AUTO 01006KT 10SM CLR 15/14 A2997 1040 93 1300 010/06 RMK AO2 TSNO
94908KDBQ DBQ20030712024510407/12/03 02:45:31  5-MIN KDBQ 120845Z AUTO 36005KT 10SM CLR 15/14 A2997 1040 93 1300 360/05 RMK AO2 TSNO
94908KDBQ DBQ20030712025012707/12/03 02:50:31  5-MIN KDBQ 120850Z AUTO 36005KT 10SM CLR 15/14 A2997 1030 93 1300 360/05 RMK AO2 SLP144 T01500139 51008 TSNO
94908KDBQ DBQ20030712025512707/12/03 02:55:31  5-MIN KDBQ 120855Z AUTO 36004KT 10SM CLR 15/14 A2997 1030 93 1300 360/04 RMK AO2 SLP144 T01500139 53006 TSNO
94908KDBQ DBQ20030712030010407/12/03 03:00:31  5-MIN KDBQ 120900Z AUTO 01005KT 10SM CLR 14/13 A2997 1030 93 1200 360/05 RMK AO2 TSNO
94908KDBQ DBQ20030712030510407/12/03 03:05:31  5-MIN KDBQ 120905Z AUTO 36004KT 10SM CLR 14/13 A2997 1030 93 1300 360/04 RMK AO2 TSNO
94908KDBQ DBQ20030712031010407/12/03 03:10:31  5-MIN KDBQ 120910Z AUTO 36005KT 10SM CLR 14/13 A2997 1030 93 1200 360/05 RMK AO2 TSNO
94908KDBQ DBQ20030712031510407/12/03 03:15:31  5-MIN KDBQ 120915Z AUTO 36005KT 10SM CLR 14/13 A2997 1030 93 1200 360/05 RMK AO2 TSNO
94908KDBQ DBQ20030712032010407/12/03 03:20:31  5-MIN KDBQ 120920Z AUTO 36005KT 10SM CLR 14/13 A2997 1030 93 1200 360/05 RMK AO2 TSNO
94908KDBQ DBQ20030712032510407/12/03 03:25:31  5-MIN KDBQ 120925Z AUTO 36004KT 10SM CLR 14/13 A2997 1030 93 1200 360/04 RMK AO2 TSNO
94908KDBQ DBQ20030712033010407/12/03 03:30:31  5-MIN KDBQ 120930Z AUTO 36004KT 10SM CLR 14/13 A2997 1030 93 1200 360/04 RMK AO2 TSNO
94908KDBQ DBQ20030712033510407/12/03 03:35:31  5-MIN KDBQ 120935Z AUTO 36004KT 10SM CLR 14/13 A2998 1030 93 1200 360/04 RMK AO2 TSNO
94908KDBQ DBQ20030712034010407/12/03 03:40:31  5-MIN KDBQ 120940Z AUTO 01005KT 10SM CLR 14/13 A2998 1030 96 1200 010/05 RMK AO2 TSNO
94908KDBQ DBQ20030712034510307/12/03 03:45:31  5-MIN KDBQ 120945Z AUTO 01004KT 9SM CLR 14/13 A2998 1020 93 1200 360/04 RMK AO2 TSNO
94908KDBQ DBQ20030712035012007/12/03 03:50:31  5-MIN KDBQ 120950Z AUTO 01004KT 9SM CLR 14/13 A2998 1020 96 1200 010/04 RMK AO2 SLP149 T01390133 TSNO
94908KDBQ DBQ20030712035512007/12/03 03:55:31  5-MIN KDBQ 120955Z AUTO 01004KT 9SM CLR 14/13 A2998 1020 93 1200 010/04 RMK AO2 SLP150 T01390128 TSNO
94908KDBQ DBQ20030712040010307/12/03 04:00:31  5-MIN KDBQ 121000Z AUTO 36003KT 9SM CLR 14/13 A2998 1020 93 1200 360/03 RMK AO2 TSNO
94908KDBQ DBQ20030712040510307/12/03 04:05:31  5-MIN KDBQ 121005Z AUTO 36003KT 9SM CLR 14/13 A2998 1020 93 1200 360/03 RMK AO2 TSNO
94908KDBQ DBQ20030712041010307/12/03 04:10:31  5-MIN KDBQ 121010Z AUTO 36003KT 9SM CLR 14/13 A2999 1020 93 1200 360/03 RMK AO2 TSNO
94908KDBQ DBQ20030712041510307/12/03 04:15:31  5-MIN KDBQ 121015Z AUTO 36004KT 9SM CLR 14/13 A2999 1020 96 1200 360/04 RMK AO2 TSNO
94908KDBQ DBQ20030712042010307/12/03 04:20:31  5-MIN KDBQ 121020Z AUTO 01005KT 9SM CLR 14/13 A2999 1020 93 1200 360/05 RMK AO2 TSNO
94908KDBQ DBQ20030712042510307/12/03 04:25:31  5-MIN KDBQ 121025Z AUTO 36005KT 9SM CLR 14/13 A2999 1010 93 1200 360/05 RMK AO2 TSNO
94908KDBQ DBQ20030712043010307/12/03 04:30:31  5-MIN KDBQ 121030Z AUTO 36003KT 9SM CLR 14/13 A2999 1010 93 1200 360/03 RMK AO2 TSNO
94908KDBQ DBQ20030712043510307/12/03 04:35:31  5-MIN KDBQ 121035Z AUTO 00000KT 8SM CLR 14/13 A2999 1010 93 1200 000/00 RMK AO2 TSNO
94908KDBQ DBQ20030712044010307/12/03 04:40:31  5-MIN KDBQ 121040Z AUTO 00000KT 8SM CLR 14/13 A3000 1010 96 1200 000/00 RMK AO2 TSNO
94908KDBQ DBQ20030712044510307/12/03 04:45:31  5-MIN KDBQ 121045Z AUTO 00000KT 7SM CLR 14/13 A3000 1010 96 1200 000/00 RMK AO2 TSNO
94908KDBQ DBQ20030712045011307/12/03 04:50:31  5-MIN KDBQ 121050Z 00000KT 6SM BR CLR 13/12 A3000 1010 96 1000 000/00 RMK AO2 SLP157 T01280122
94908KDBQ DBQ20030712045511307/12/03 04:55:31  5-MIN KDBQ 121055Z 00000KT 5SM BR CLR 13/13 A3000 1010 96 1100 000/00 RMK AO2 SLP157 T01330128
94908KDBQ DBQ20030712050010207/12/03 05:00:31  5-MIN KDBQ 121100Z 00000KT 6SM BR CLR 14/13 A2999 1010 93 1200 000/00 RMK AO2 P0001
94908KDBQ DBQ20030712050510207/12/03 05:05:31  5-MIN KDBQ 121105Z 00000KT 6SM BR CLR 14/13 A3000 1010 93 1200 000/00 RMK AO2 P0001
94908KDBQ DBQ20030712051009907/12/03 05:10:31  5-MIN KDBQ 121110Z 00000KT 7SM CLR 14/13 A3000 1010 96 1100 000/00 RMK AO2 P0001
94908KDBQ DBQ20030712051509907/12/03 05:15:31  5-MIN KDBQ 121115Z 00000KT 7SM CLR 14/13 A3000 1010 93 1100 000/00 RMK AO2 P0001
94908KDBQ DBQ20030712052009907/12/03 05:20:31  5-MIN KDBQ 121120Z 00000KT 7SM CLR 14/13 A3000 1000 96 1100 000/00 RMK AO2 P0001
94908KDBQ DBQ20030712052510207/12/03 05:25:31  5-MIN KDBQ 121125Z 00000KT 6SM BR CLR 13/12 A3000 1000 93 1100 000/00 RMK AO2 P0001
94908KDBQ DBQ20030712053010207/12/03 05:30:31  5-MIN KDBQ 121130Z 00000KT 6SM BR CLR 13/12 A3001 1000 93 1100 000/00 RMK AO2 P0001
94908KDBQ DBQ20030712053510207/12/03 05:35:31  5-MIN KDBQ 121135Z 00000KT 6SM BR CLR 13/12 A3001 1000 93 1100 000/00 RMK AO2 P0001
94908KDBQ DBQ20030712054010207/12/03 05:40:31  5-MIN KDBQ 121140Z 00000KT 5SM BR CLR 14/13 A3001 1000 93 1100 000/00 RMK AO2 P0001
94908KDBQ DBQ20030712054510107/12/03 05:45:31  5-MIN KDBQ 121145Z 00000KT 6SM BR CLR 14/13 A3001 990 96 1100 000/00 RMK AO2 P0001
94908KDBQ DBQ20030712055014807/12/03 05:50:31  5-MIN KDBQ 121150Z 00000KT 6SM BR CLR 14/14 A3001 990 96 1200 000/00 RMK AO2 SLP161 P0001 60001 70040 T01440139 10167 20128 53006
94908KDBQ DBQ20030712055514807/12/03 05:55:31  5-MIN KDBQ 121155Z 00000KT 6SM BR CLR 15/14 A3001 990 93 1300 000/00 RMK AO2 SLP162 P0001 60001 70040 T01500139 10167 20128 53015
94908KDBQ DBQ20030712060009507/12/03 06:00:31  5-MIN KDBQ 121200Z 00000KT 6SM BR CLR 16/14 A3001 990 90 1300 000/00 RMK AO2
94908KDBQ DBQ20030712060509207/12/03 06:05:31  5-MIN KDBQ 121205Z 00000KT 7SM CLR 16/14 A3002 990 90 1400 000/00 RMK AO2
94908KDBQ DBQ20030712061009207/12/03 06:10:31  5-MIN KDBQ 121210Z 00000KT 9SM CLR 17/14 A3002 990 86 1500 000/00 RMK AO2
94908KDBQ DBQ20030712061509307/12/03 06:15:31  5-MIN KDBQ 121215Z 01004KT 10SM CLR 17/15 A3002 990 87 1500 360/04 RMK AO2
94908KDBQ DBQ20030712062009307/12/03 06:20:31  5-MIN KDBQ 121220Z 01005KT 10SM CLR 17/14 A3002 990 83 1500 010/05 RMK AO2
94908KDBQ DBQ20030712062509307/12/03 06:25:31  5-MIN KDBQ 121225Z 02005KT 10SM CLR 17/14 A3002 990 83 1500 020/05 RMK AO2
94908KDBQ DBQ20030712063009307/12/03 06:30:31  5-MIN KDBQ 121230Z 01005KT 10SM CLR 17/14 A3002 980 83 1500 010/05 RMK AO2
94908KDBQ DBQ20030712063509307/12/03 06:35:31  5-MIN KDBQ 121235Z 36006KT 10SM CLR 17/15 A3002 980 87 1500 360/06 RMK AO2
94908KDBQ DBQ20030712064009307/12/03 06:40:31  5-MIN KDBQ 121240Z 01006KT 10SM CLR 17/15 A3002 980 87 1500 010/06 RMK AO2
94908KDBQ DBQ20030712064509307/12/03 06:45:31  5-MIN KDBQ 121245Z 01006KT 10SM CLR 17/15 A3002 980 87 1500 010/06 RMK AO2
94908KDBQ DBQ20030712065011007/12/03 06:50:31  5-MIN KDBQ 121250Z 36005KT 10SM CLR 18/15 A3002 980 83 1600 360/05 RMK AO2 SLP165 T01780150
94908KDBQ DBQ20030712065511007/12/03 06:55:31  5-MIN KDBQ 121255Z 36005KT 10SM CLR 18/15 A3003 980 83 1600 360/05 RMK AO2 SLP165 T01780150
94908KDBQ DBQ20030712070009307/12/03 07:00:31  5-MIN KDBQ 121300Z 35005KT 10SM CLR 18/15 A3003 980 83 1600 350/05 RMK AO2
94908KDBQ DBQ20030712070509307/12/03 07:05:31  5-MIN KDBQ 121305Z 36005KT 10SM CLR 18/15 A3003 980 83 1600 350/05 RMK AO2
94908KDBQ DBQ20030712071009307/12/03 07:10:31  5-MIN KDBQ 121310Z 02005KT 10SM CLR 18/15 A3003 980 81 1600 020/05 RMK AO2
94908KDBQ DBQ20030712071509307/12/03 07:15:31  5-MIN KDBQ 121315Z 02006KT 10SM CLR 18/15 A3003 970 81 1600 010/06 RMK AO2
94908KDBQ DBQ20030712072009307/12/03 07:20:31  5-MIN KDBQ 121320Z 01006KT 10SM CLR 18/15 A3003 970 81 1600 010/06 RMK AO2
94908KDBQ DBQ20030712072509307/12/03 07:25:31  5-MIN KDBQ 121325Z 02006KT 10SM CLR 18/15 A3003 970 81 1600 010/06 RMK AO2
94908KDBQ DBQ20030712073009307/12/03 07:30:31  5-MIN KDBQ 121330Z 34004KT 10SM CLR 18/15 A3004 970 81 1600 340/04 RMK AO2
94908KDBQ DBQ20030712073509307/12/03 07:35:31  5-MIN KDBQ 121335Z 36003KT 10SM CLR 19/16 A3004 970 81 1700 360/03 RMK AO2
94908KDBQ DBQ20030712074009307/12/03 07:40:31  5-MIN KDBQ 121340Z 01003KT 10SM CLR 19/16 A3004 970 81 1700 010/03 RMK AO2
94908KDBQ DBQ20030712074509307/12/03 07:45:31  5-MIN KDBQ 121345Z 03004KT 10SM CLR 19/16 A3004 970 81 1700 030/04 RMK AO2
94908KDBQ DBQ20030712075011007/12/03 07:50:31  5-MIN KDBQ 121350Z 01003KT 10SM CLR 19/16 A3004 960 81 1700 010/03 RMK AO2 SLP171 T01890156
94908KDBQ DBQ20030712075511007/12/03 07:55:31  5-MIN KDBQ 121355Z 01003KT 10SM CLR 19/16 A3005 960 78 1700 010/03 RMK AO2 SLP172 T01940156
94908KDBQ DBQ20030712080009307/12/03 08:00:31  5-MIN KDBQ 121400Z 01004KT 10SM CLR 19/16 A3005 960 78 1700 010/04 RMK AO2
94908KDBQ DBQ20030712080509307/12/03 08:05:31  5-MIN KDBQ 121405Z VRB04KT 10SM CLR 19/16 A3005 960 81 1700 VRB/04 RMK AO2
94908KDBQ DBQ20030712081009307/12/03 08:10:31  5-MIN KDBQ 121410Z 34004KT 10SM CLR 19/16 A3005 960 78 1700 340/04 RMK AO2
94908KDBQ DBQ20030712081509307/12/03 08:15:31  5-MIN KDBQ 121415Z 34004KT 10SM CLR 20/16 A3005 960 75 1800 340/04 RMK AO2
94908KDBQ DBQ20030712082009307/12/03 08:20:31  5-MIN KDBQ 121420Z 01005KT 10SM CLR 20/16 A3005 960 75 1800 010/05 RMK AO2
94908KDBQ DBQ20030712082509307/12/03 08:25:31  5-MIN KDBQ 121425Z VRB04KT 10SM CLR 20/16 A3005 960 75 1800 VRB/04 RMK AO2
94908KDBQ DBQ20030712083009307/12/03 08:30:31  5-MIN KDBQ 121430Z 33004KT 10SM CLR 20/16 A3006 950 75 1800 330/04 RMK AO2
94908KDBQ DBQ20030712083509307/12/03 08:35:31  5-MIN KDBQ 121435Z 36004KT 10SM CLR 21/15 A3005 950 70 1900 360/04 RMK AO2
94908KDBQ DBQ20030712084009307/12/03 08:40:31  5-MIN KDBQ 121440Z 36004KT 10SM CLR 21/15 A3006 950 70 1900 360/04 RMK AO2
94908KDBQ DBQ20030712084509307/12/03 08:45:31  5-MIN KDBQ 121445Z 01004KT 10SM CLR 21/15 A3006 950 70 1900 010/04 RMK AO2
94908KDBQ DBQ20030712085011607/12/03 08:50:31  5-MIN KDBQ 121450Z VRB04KT 10SM CLR 21/16 A3006 950 70 1900 VRB/04 RMK AO2 SLP175 T02110156 53015
94908KDBQ DBQ20030712085511607/12/03 08:55:31  5-MIN KDBQ 121455Z 34003KT 10SM CLR 21/16 A3006 950 73 1900 340/03 RMK AO2 SLP176 T02060156 53015
94908KDBQ DBQ20030712090009307/12/03 09:00:31  5-MIN KDBQ 121500Z 00000KT 10SM CLR 21/16 A3006 950 70 1900 000/00 RMK AO2
94908KDBQ DBQ20030712090509307/12/03 09:05:31  5-MIN KDBQ 121505Z 00000KT 10SM CLR 22/15 A3006 950 65 2000 000/00 RMK AO2
94908KDBQ DBQ20030712091009307/12/03 09:10:31  5-MIN KDBQ 121510Z 00000KT 10SM CLR 22/14 A3006 950 61 2000 000/00 RMK AO2
94908KDBQ DBQ20030712091509307/12/03 09:15:31  5-MIN KDBQ 121515Z 03003KT 10SM CLR 22/14 A3006 950 63 2000 030/03 RMK AO2
94908KDBQ DBQ20030712092009307/12/03 09:20:31  5-MIN KDBQ 121520Z 00000KT 10SM CLR 21/15 A3007 940 68 1900 000/00 RMK AO2
94908KDBQ DBQ20030712092509307/12/03 09:25:31  5-MIN KDBQ 121525Z 00000KT 10SM CLR 22/16 A3007 940 70 2000 000/00 RMK AO2
94908KDBQ DBQ20030712093009307/12/03 09:30:31  5-MIN KDBQ 121530Z VRB03KT 10SM CLR 22/16 A3007 940 68 2000 VRB/03 RMK AO2
94908KDBQ DBQ20030712093509307/12/03 09:35:31  5-MIN KDBQ 121535Z VRB03KT 10SM CLR 22/15 A3007 940 63 2000 VRB/03 RMK AO2
94908KDBQ DBQ20030712094009307/12/03 09:40:31  5-MIN KDBQ 121540Z 00000KT 10SM CLR 22/14 A3007 940 61 2000 000/00 RMK AO2
94908KDBQ DBQ20030712094509307/12/03 09:45:31  5-MIN KDBQ 121545Z VRB04KT 10SM CLR 22/14 A3007 940 61 2000 VRB/04 RMK AO2
94908KDBQ DBQ20030712095011007/12/03 09:50:31  5-MIN KDBQ 121550Z 02003KT 10SM CLR 23/14 A3007 940 57 2100 020/03 RMK AO2 SLP179 T02280139
94908KDBQ DBQ20030712095511007/12/03 09:55:31  5-MIN KDBQ 121555Z 30005KT 10SM CLR 23/14 A3007 940 59 2100 300/05 RMK AO2 SLP180 T02280144
94908KDBQ DBQ20030712100009307/12/03 10:00:31  5-MIN KDBQ 121600Z 34006KT 10SM CLR 23/14 A3007 940 57 2100 340/06 RMK AO2
94908KDBQ DBQ20030712100509307/12/03 10:05:31  5-MIN KDBQ 121605Z 29005KT 10SM CLR 22/13 A3008 940 56 2000 290/05 RMK AO2
94908KDBQ DBQ20030712101009607/12/03 10:10:31  5-MIN KDBQ 121610Z 32005KT 10SM SCT032 22/14 A3007 940 59 2000 320/05 RMK AO2
94908KDBQ DBQ20030712101509607/12/03 10:15:31  5-MIN KDBQ 121615Z 36005KT 10SM SCT032 23/14 A3007 940 59 2100 360/05 RMK AO2
94908KDBQ DBQ20030712102009607/12/03 10:20:31  5-MIN KDBQ 121620Z VRB04KT 10SM SCT032 23/15 A3007 940 61 2100 VRB/04 RMK AO2
94908KDBQ DBQ20030712102509607/12/03 10:25:31  5-MIN KDBQ 121625Z 34004KT 10SM SCT032 23/15 A3008 930 61 2100 330/04 RMK AO2
94908KDBQ DBQ20030712103009607/12/03 10:30:31  5-MIN KDBQ 121630Z 00000KT 10SM SCT032 23/15 A3008 930 61 2100 000/00 RMK AO2
94908KDBQ DBQ20030712103509607/12/03 10:35:31  5-MIN KDBQ 121635Z 32004KT 10SM SCT032 23/15 A3008 930 59 2200 320/04 RMK AO2
94908KDBQ DBQ20030712104009607/12/03 10:40:31  5-MIN KDBQ 121640Z VRB04KT 10SM SCT032 23/14 A3008 930 57 2200 VRB/04 RMK AO2
94908KDBQ DBQ20030712104509607/12/03 10:45:31  5-MIN KDBQ 121645Z VRB04KT 10SM SCT032 23/14 A3008 930 55 2200 VRB/04 RMK AO2
94908KDBQ DBQ20030712105011307/12/03 10:50:31  5-MIN KDBQ 121650Z 01007KT 10SM SCT032 23/14 A3008 930 57 2100 010/07 RMK AO2 SLP182 T02280139
94908KDBQ DBQ20030712105511307/12/03 10:55:31  5-MIN KDBQ 121655Z 00000KT 10SM BKN039 22/14 A3008 930 59 2000 000/00 RMK AO2 SLP182 T02220139
94908KDBQ DBQ20030712110009607/12/03 11:00:31  5-MIN KDBQ 121700Z VRB03KT 10SM BKN039 23/14 A3008 930 59 2100 VRB/03 RMK AO2
94908KDBQ DBQ20030712110509607/12/03 11:05:31  5-MIN KDBQ 121705Z VRB03KT 10SM BKN039 23/14 A3008 930 59 2100 VRB/03 RMK AO2
94908KDBQ DBQ20030712111009607/12/03 11:10:31  5-MIN KDBQ 121710Z 28004KT 10SM BKN039 23/14 A3008 930 59 2100 280/04 RMK AO2
94908KDBQ DBQ20030712111509607/12/03 11:15:31  5-MIN KDBQ 121715Z VRB04KT 10SM SCT039 23/16 A3008 930 61 2200 VRB/04 RMK AO2
94908KDBQ DBQ20030712112009607/12/03 11:20:31  5-MIN KDBQ 121720Z VRB03KT 10SM SCT041 23/14 A3007 940 55 2200 VRB/03 RMK AO2
94908KDBQ DBQ20030712112509607/12/03 11:25:31  5-MIN KDBQ 121725Z 31003KT 10SM SCT041 23/14 A3008 940 59 2100 310/03 RMK AO2
94908KDBQ DBQ20030712113010307/12/03 11:30:31  5-MIN KDBQ 121730Z 01006KT 10SM SCT041 SCT048 23/14 A3008 940 57 2200 010/06 RMK AO2
94908KDBQ DBQ20030712113509607/12/03 11:35:31  5-MIN KDBQ 121735Z VRB03KT 10SM BKN043 23/14 A3007 940 57 2100 VRB/03 RMK AO2
94908KDBQ DBQ20030712114009607/12/03 11:40:31  5-MIN KDBQ 121740Z 00000KT 10SM BKN043 23/14 A3007 940 57 2200 000/00 RMK AO2
94908KDBQ DBQ20030712114510307/12/03 11:45:31  5-MIN KDBQ 121745Z 00000KT 10SM BKN041 BKN049 23/14 A3008 940 55 2200 000/00 RMK AO2
94908KDBQ DBQ20030712115013807/12/03 11:50:31  5-MIN KDBQ 121750Z VRB03KT 10SM SCT041 BKN049 23/14 A3007 940 57 2200 VRB/03 RMK AO2 SLP180 T02330144 10239 20150 53015
94908KDBQ DBQ20030712115513807/12/03 11:55:31  5-MIN KDBQ 121755Z 35007KT 10SM BKN045 BKN055 23/14 A3008 940 57 2100 350/07 RMK AO2 SLP181 T02280139 10239 20150 50005
94908KDBQ DBQ20030712120010307/12/03 12:00:31  5-MIN KDBQ 121800Z 34005KT 10SM SCT045 BKN055 23/14 A3008 940 57 2200 340/05 RMK AO2
94908KDBQ DBQ20030712120510307/12/03 12:05:31  5-MIN KDBQ 121805Z 33007KT 10SM SCT043 BKN055 23/14 A3007 940 57 2100 330/07 RMK AO2
94908KDBQ DBQ20030712121010307/12/03 12:10:31  5-MIN KDBQ 121810Z 31007KT 10SM FEW043 BKN050 22/14 A3008 940 61 2000 310/07 RMK AO2
94908KDBQ DBQ20030712121510307/12/03 12:15:31  5-MIN KDBQ 121815Z 29007KT 10SM FEW043 BKN050 24/15 A3007 940 57 2200 290/07 RMK AO2
94908KDBQ DBQ20030712122010307/12/03 12:20:31  5-MIN KDBQ 121820Z 31006KT 10SM FEW043 SCT055 24/15 A3007 940 57 2200 310/06 RMK AO2
94908KDBQ DBQ20030712122509607/12/03 12:25:31  5-MIN KDBQ 121825Z 32009KT 10SM FEW043 24/14 A3007 940 55 2200 320/09 RMK AO2
94908KDBQ DBQ20030712123009607/12/03 12:30:31  5-MIN KDBQ 121830Z VRB04KT 10SM FEW043 24/15 A3007 940 57 2200 VRB/04 RMK AO2
94908KDBQ DBQ20030712123509307/12/03 12:35:31  5-MIN KDBQ 121835Z VRB04KT 10SM CLR 24/14 A3007 940 51 2300 VRB/04 RMK AO2
94908KDBQ DBQ20030712124009307/12/03 12:40:31  5-MIN KDBQ 121840Z 36007KT 10SM CLR 24/14 A3007 940 55 2200 360/07 RMK AO2
94908KDBQ DBQ20030712124509607/12/03 12:45:31  5-MIN KDBQ 121845Z 32005KT 10SM FEW050 24/14 A3007 940 55 2200 320/05 RMK AO2
94908KDBQ DBQ20030712125011307/12/03 12:50:31  5-MIN KDBQ 121850Z 31005KT 10SM FEW045 23/14 A3007 940 59 2100 310/05 RMK AO2 SLP179 T02280144
94908KDBQ DBQ20030712125511307/12/03 12:55:31  5-MIN KDBQ 121855Z 31004KT 10SM FEW045 24/14 A3007 940 55 2200 310/04 RMK AO2 SLP178 T02390144
94908KDBQ DBQ20030712130010307/12/03 13:00:31  5-MIN KDBQ 121900Z VRB03KT 10SM FEW045 SCT055 24/14 A3007 940 55 2200 VRB/03 RMK AO2
94908KDBQ DBQ20030712130510307/12/03 13:05:31  5-MIN KDBQ 121905Z 00000KT 10SM SCT045 SCT055 24/14 A3007 940 53 2300 000/00 RMK AO2
94908KDBQ DBQ20030712131009607/12/03 13:10:31  5-MIN KDBQ 121910Z 00000KT 10SM SCT047 24/14 A3006 950 51 2300 000/00 RMK AO2
94908KDBQ DBQ20030712131509607/12/03 13:15:31  5-MIN KDBQ 121915Z VRB03KT 10SM SCT049 24/14 A3007 940 51 2300 VRB/03 RMK AO2
94908KDBQ DBQ20030712132010307/12/03 13:20:31  5-MIN KDBQ 121920Z VRB05KT 10SM FEW048 SCT060 25/16 A3006 950 55 2400 VRB/05 RMK AO2
94908KDBQ DBQ20030712132510307/12/03 13:25:31  5-MIN KDBQ 121925Z 29007KT 10SM FEW048 SCT080 24/14 A3006 950 53 2300 290/07 RMK AO2
94908KDBQ DBQ20030712133010307/12/03 13:30:31  5-MIN KDBQ 121930Z VRB05KT 10SM FEW048 SCT080 25/14 A3006 950 49 2400 VRB/05 RMK AO2
94908KDBQ DBQ20030712133509607/12/03 13:35:31  5-MIN KDBQ 121935Z 29006KT 10SM FEW048 24/14 A3007 940 53 2300 290/06 RMK AO2
94908KDBQ DBQ20030712134009607/12/03 13:40:31  5-MIN KDBQ 121940Z 32007KT 10SM FEW080 24/14 A3007 940 55 2200 320/07 RMK AO2
94908KDBQ DBQ20030712134509607/12/03 13:45:31  5-MIN KDBQ 121945Z VRB03KT 10SM FEW048 24/13 A3007 940 49 2300 VRB/03 RMK AO2
94908KDBQ DBQ20030712135012007/12/03 13:50:31  5-MIN KDBQ 121950Z 34006KT 10SM SCT050 SCT080 25/15 A3006 950 53 2400 330/06 RMK AO2 SLP176 T02500150
94908KDBQ DBQ20030712135512007/12/03 13:55:31  5-MIN KDBQ 121955Z 34004KT 10SM SCT050 BKN075 24/15 A3006 950 55 2300 330/04 RMK AO2 SLP177 T02440150
94908KDBQ DBQ20030712140010307/12/03 14:00:31  5-MIN KDBQ 122000Z 33004KT 10SM SCT050 BKN075 25/15 A3006 950 53 2400 330/04 RMK AO2
94908KDBQ DBQ20030712140510307/12/03 14:05:31  5-MIN KDBQ 122005Z 28007KT 10SM SCT050 SCT075 25/15 A3006 950 53 2400 280/07 RMK AO2
94908KDBQ DBQ20030712141010307/12/03 14:10:31  5-MIN KDBQ 122010Z 26006KT 10SM SCT050 SCT070 24/15 A3006 950 55 2300 260/06 RMK AO2
94908KDBQ DBQ20030712141510307/12/03 14:15:31  5-MIN KDBQ 122015Z 28005KT 10SM SCT050 BKN065 24/14 A3006 950 53 2300 280/05 RMK AO2
94908KDBQ DBQ20030712142010307/12/03 14:20:31  5-MIN KDBQ 122020Z 31008KT 10SM SCT055 BKN070 25/15 A3006 950 53 2400 310/08 RMK AO2
94908KDBQ DBQ20030712142510307/12/03 14:25:31  5-MIN KDBQ 122025Z 29007KT 10SM BKN055 BKN070 25/14 A3006 950 51 2400 280/07 RMK AO2
94908KDBQ DBQ20030712143009607/12/03 14:30:31  5-MIN KDBQ 122030Z 33005KT 10SM BKN060 24/15 A3006 950 57 2200 330/05 RMK AO2
94908KDBQ DBQ20030712143509607/12/03 14:35:31  5-MIN KDBQ 122035Z VRB03KT 10SM BKN055 24/14 A3006 950 53 2300 VRB/03 RMK AO2
94908KDBQ DBQ20030712144009607/12/03 14:40:31  5-MIN KDBQ 122040Z VRB04KT 10SM OVC055 25/14 A3006 950 51 2400 VRB/04 RMK AO2
94908KDBQ DBQ20030712144510307/12/03 14:45:31  5-MIN KDBQ 122045Z 31005KT 10SM BKN050 OVC080 25/14 A3006 950 51 2400 300/05 RMK AO2
94908KDBQ DBQ20030712145012607/12/03 14:50:31  5-MIN KDBQ 122050Z 32008KT 10SM SCT055 BKN080 24/14 A3006 950 53 2300 320/08 RMK AO2 SLP175 T02440144 50005
94908KDBQ DBQ20030712145512607/12/03 14:55:31  5-MIN KDBQ 122055Z 30005KT 10SM BKN050 BKN080 24/14 A3006 950 53 2200 300/05 RMK AO2 SLP175 T02390139 57006
94908KDBQ DBQ20030712150010307/12/03 15:00:31  5-MIN KDBQ 122100Z 28006KT 10SM SCT050 BKN080 24/16 A3006 950 57 2300 280/06 RMK AO2
94908KDBQ DBQ20030712150510307/12/03 15:05:31  5-MIN KDBQ 122105Z 26008KT 10SM FEW050 SCT080 25/16 A3006 950 55 2400 260/08 RMK AO2
94908KDBQ DBQ20030712151009607/12/03 15:10:31  5-MIN KDBQ 122110Z 26005KT 10SM FEW050 24/15 A3006 950 55 2300 260/05 RMK AO2
94908KDBQ DBQ20030712151509607/12/03 15:15:31  5-MIN KDBQ 122115Z 26003KT 10SM FEW050 24/14 A3006 950 53 2300 260/03 RMK AO2
94908KDBQ DBQ20030712152009607/12/03 15:20:31  5-MIN KDBQ 122120Z 31003KT 10SM FEW050 24/14 A3006 950 53 2300 310/03 RMK AO2
94908KDBQ DBQ20030712152509607/12/03 15:25:31  5-MIN KDBQ 122125Z 00000KT 10SM SCT060 24/14 A3005 950 53 2300 000/00 RMK AO2
94908KDBQ DBQ20030712153010307/12/03 15:30:31  5-MIN KDBQ 122130Z 00000KT 10SM FEW049 BKN060 26/14 A3005 960 49 2400 000/00 RMK AO2
94908KDBQ DBQ20030712153510307/12/03 15:35:31  5-MIN KDBQ 122135Z 33005KT 10SM SCT049 BKN060 26/14 A3005 960 49 2400 330/05 RMK AO2
94908KDBQ DBQ20030712154010307/12/03 15:40:31  5-MIN KDBQ 122140Z VRB03KT 10SM FEW049 SCT060 26/14 A3005 960 49 2400 VRB/03 RMK AO2
94908KDBQ DBQ20030712154509607/12/03 15:45:31  5-MIN KDBQ 122145Z VRB04KT 10SM SCT055 26/15 A3005 960 51 2400 VRB/04 RMK AO2
94908KDBQ DBQ20030712155011307/12/03 15:50:31  5-MIN KDBQ 122150Z 36007KT 10SM BKN055 26/16 A3005 960 53 2400 360/07 RMK AO2 SLP172 T02560156
94908KDBQ DBQ20030712155512007/12/03 15:55:31  5-MIN KDBQ 122155Z 36006KT 10SM SCT050 SCT070 25/16 A3005 960 55 2400 360/06 RMK AO2 SLP171 T02500156
94908KDBQ DBQ20030712160010307/12/03 16:00:31  5-MIN KDBQ 122200Z 35006KT 10SM FEW050 SCT070 25/15 A3005 960 53 2400 350/06 RMK AO2
94908KDBQ DBQ20030712160509607/12/03 16:05:31  5-MIN KDBQ 122205Z 36005KT 10SM FEW050 25/16 A3005 960 55 2400 350/05 RMK AO2
94908KDBQ DBQ20030712161010307/12/03 16:10:31  5-MIN KDBQ 122210Z 34004KT 10SM FEW050 SCT080 24/16 A3005 960 57 2300 340/04 RMK AO2
94908KDBQ DBQ20030712161510307/12/03 16:15:31  5-MIN KDBQ 122215Z 36005KT 10SM FEW050 SCT080 25/15 A3005 960 53 2400 360/05 RMK AO2
94908KDBQ DBQ20030712162009607/12/03 16:20:31  5-MIN KDBQ 122220Z 36006KT 10SM SCT075 26/15 A3004 960 51 2400 360/06 RMK AO2
94908KDBQ DBQ20030712162509607/12/03 16:25:31  5-MIN KDBQ 122225Z 35007KT 10SM FEW080 24/15 A3004 960 55 2300 350/07 RMK AO2
94908KDBQ DBQ20030712163009607/12/03 16:30:31  5-MIN KDBQ 122230Z 35005KT 10SM FEW080 23/15 A3004 970 59 2200 350/05 RMK AO2
94908KDBQ DBQ20030712163510307/12/03 16:35:31  5-MIN KDBQ 122235Z 36004KT 10SM FEW060 SCT080 23/16 A3004 970 63 2100 360/04 RMK AO2
94908KDBQ DBQ20030712164010307/12/03 16:40:31  5-MIN KDBQ 122240Z VRB04KT 10SM FEW060 SCT080 24/16 A3004 970 59 2300 VRB/04 RMK AO2
94908KDBQ DBQ20030712164509607/12/03 16:45:31  5-MIN KDBQ 122245Z 34005KT 10SM FEW085 25/14 A3004 970 51 2400 340/05 RMK AO2
94908KDBQ DBQ20030712165011307/12/03 16:50:31  5-MIN KDBQ 122250Z 33005KT 10SM FEW085 25/14 A3004 970 51 2400 330/05 RMK AO2 SLP170 T02500144
94908KDBQ DBQ20030712165511307/12/03 16:55:31  5-MIN KDBQ 122255Z 33007KT 10SM FEW085 25/15 A3004 970 53 2400 330/07 RMK AO2 SLP169 T02500150
94908KDBQ DBQ20030712170009607/12/03 17:00:31  5-MIN KDBQ 122300Z 33005KT 10SM FEW085 24/15 A3004 970 55 2300 330/05 RMK AO2
94908KDBQ DBQ20030712170509307/12/03 17:05:31  5-MIN KDBQ 122305Z 36006KT 10SM CLR 25/15 A3004 970 53 2400 360/06 RMK AO2
94908KDBQ DBQ20030712171009307/12/03 17:10:31  5-MIN KDBQ 122310Z 36003KT 10SM CLR 25/15 A3004 970 53 2400 360/03 RMK AO2
94908KDBQ DBQ20030712171509307/12/03 17:15:31  5-MIN KDBQ 122315Z 01003KT 10SM CLR 25/14 A3004 970 51 2400 010/03 RMK AO2
94908KDBQ DBQ20030712172009307/12/03 17:20:31  5-MIN KDBQ 122320Z 36004KT 10SM CLR 25/15 A3004 970 53 2400 360/04 RMK AO2
94908KDBQ DBQ20030712172509307/12/03 17:25:31  5-MIN KDBQ 122325Z 01004KT 10SM CLR 25/16 A3004 970 55 2400 010/04 RMK AO2
94908KDBQ DBQ20030712173009307/12/03 17:30:31  5-MIN KDBQ 122330Z 36005KT 10SM CLR 24/15 A3004 970 55 2300 360/05 RMK AO2
94908KDBQ DBQ20030712173509607/12/03 17:35:31  5-MIN KDBQ 122335Z 01005KT 10SM FEW049 25/15 A3004 970 53 2400 010/05 RMK AO2
94908KDBQ DBQ20030712174009607/12/03 17:40:31  5-MIN KDBQ 122340Z 36004KT 10SM FEW049 25/15 A3004 970 53 2400 360/04 RMK AO2
94908KDBQ DBQ20030712174509607/12/03 17:45:31  5-MIN KDBQ 122345Z 36004KT 10SM FEW049 24/16 A3004 970 57 2300 360/04 RMK AO2
94908KDBQ DBQ20030712175013107/12/03 17:50:31  5-MIN KDBQ 122350Z 01004KT 10SM FEW049 24/16 A3004 970 57 2300 010/04 RMK AO2 SLP169 T02440156 10256 20222 57006
94908KDBQ DBQ20030712175512807/12/03 17:55:31  5-MIN KDBQ 122355Z 36004KT 10SM CLR 24/15 A3004 970 55 2300 360/04 RMK AO2 SLP169 T02440150 10256 20222 55005
94908KDBQ DBQ20030712180009307/12/03 18:00:31  5-MIN KDBQ 130000Z 34004KT 10SM CLR 24/16 A3004 970 59 2300 340/04 RMK AO2
94908KDBQ DBQ20030712180509307/12/03 18:05:31  5-MIN KDBQ 130005Z 34005KT 10SM CLR 24/15 A3004 970 55 2300 340/05 RMK AO2
94908KDBQ DBQ20030712181009307/12/03 18:10:31  5-MIN KDBQ 130010Z 33006KT 10SM CLR 24/15 A3004 970 57 2300 330/06 RMK AO2
94908KDBQ DBQ20030712181509307/12/03 18:15:31  5-MIN KDBQ 130015Z 33005KT 10SM CLR 24/15 A3004 970 57 2300 330/05 RMK AO2
94908KDBQ DBQ20030712182009307/12/03 18:20:31  5-MIN KDBQ 130020Z 34005KT 10SM CLR 23/16 A3004 960 61 2200 330/05 RMK AO2
94908KDBQ DBQ20030712182509307/12/03 18:25:31  5-MIN KDBQ 130025Z 34005KT 10SM CLR 23/16 A3004 960 61 2200 340/05 RMK AO2
94908KDBQ DBQ20030712183010307/12/03 18:30:31  5-MIN KDBQ 130030Z AUTO 34005KT 10SM CLR 23/16 A3004 960 61 2200 340/05 RMK AO2 TSNO
94908KDBQ DBQ20030712183510307/12/03 18:35:31  5-MIN KDBQ 130035Z AUTO 33005KT 10SM CLR 23/15 A3005 960 59 2200 330/05 RMK AO2 TSNO
94908KDBQ DBQ20030712184010307/12/03 18:40:31  5-MIN KDBQ 130040Z AUTO 33005KT 10SM CLR 23/16 A3005 960 63 2100 330/05 RMK AO2 TSNO
94908KDBQ DBQ20030712184510307/12/03 18:45:31  5-MIN KDBQ 130045Z AUTO 32005KT 10SM CLR 23/15 A3005 960 61 2100 320/05 RMK AO2 TSNO
94908KDBQ DBQ20030712185012007/12/03 18:50:31  5-MIN KDBQ 130050Z AUTO 32004KT 10SM CLR 23/16 A3005 960 63 2100 310/04 RMK AO2 SLP171 T02280156 TSNO
94908KDBQ DBQ20030712185512007/12/03 18:55:31  5-MIN KDBQ 130055Z AUTO 32004KT 10SM CLR 22/16 A3005 960 68 2100 320/04 RMK AO2 SLP173 T02220161 TSNO
94908KDBQ DBQ20030712190010307/12/03 19:00:31  5-MIN KDBQ 130100Z AUTO 33003KT 10SM CLR 22/16 A3005 960 68 2100 330/03 RMK AO2 TSNO
94908KDBQ DBQ20030712190510307/12/03 19:05:31  5-MIN KDBQ 130105Z AUTO 33003KT 10SM CLR 23/16 A3005 960 63 2100 330/03 RMK AO2 TSNO
94908KDBQ DBQ20030712191010307/12/03 19:10:31  5-MIN KDBQ 130110Z AUTO 33003KT 10SM CLR 23/14 A3005 960 55 2200 330/03 RMK AO2 TSNO
94908KDBQ DBQ20030712191510307/12/03 19:15:31  5-MIN KDBQ 130115Z AUTO 34003KT 10SM CLR 23/14 A3005 960 55 2200 340/03 RMK AO2 TSNO
94908KDBQ DBQ20030712192010307/12/03 19:20:31  5-MIN KDBQ 130120Z AUTO 34003KT 10SM CLR 23/14 A3005 960 57 2100 330/03 RMK AO2 TSNO
94908KDBQ DBQ20030712192510307/12/03 19:25:31  5-MIN KDBQ 130125Z AUTO 33003KT 10SM CLR 22/14 A3005 960 59 2100 330/03 RMK AO2 TSNO
94908KDBQ DBQ20030712193010307/12/03 19:30:31  5-MIN KDBQ 130130Z AUTO 33003KT 10SM CLR 22/14 A3005 960 63 2000 330/03 RMK AO2 TSNO
94908KDBQ DBQ20030712193510307/12/03 19:35:31  5-MIN KDBQ 130135Z AUTO 33003KT 10SM CLR 21/15 A3005 950 68 1900 330/03 RMK AO2 TSNO
94908KDBQ DBQ20030712194010307/12/03 19:40:31  5-MIN KDBQ 130140Z AUTO 00000KT 10SM CLR 22/14 A3006 950 61 2000 000/00 RMK AO2 TSNO
94908KDBQ DBQ20030712194510307/12/03 19:45:31  5-MIN KDBQ 130145Z AUTO 00000KT 10SM CLR 22/14 A3006 950 61 2000 000/00 RMK AO2 TSNO
94908KDBQ DBQ20030712195012007/12/03 19:50:31  5-MIN KDBQ 130150Z AUTO 00000KT 10SM CLR 21/15 A3006 950 70 1900 000/00 RMK AO2 SLP174 T02060150 TSNO
94908KDBQ DBQ20030712195512007/12/03 19:55:31  5-MIN KDBQ 130155Z AUTO 00000KT 10SM CLR 20/16 A3006 950 75 1800 000/00 RMK AO2 SLP175 T02000156 TSNO
94908KDBQ DBQ20030712200010307/12/03 20:00:31  5-MIN KDBQ 130200Z AUTO 00000KT 10SM CLR 20/16 A3006 950 78 1800 000/00 RMK AO2 TSNO
94908KDBQ DBQ20030712200510307/12/03 20:05:31  5-MIN KDBQ 130205Z AUTO 00000KT 10SM CLR 19/16 A3006 950 81 1700 000/00 RMK AO2 TSNO
94908KDBQ DBQ20030712201010307/12/03 20:10:31  5-MIN KDBQ 130210Z AUTO 00000KT 10SM CLR 19/16 A3006 950 81 1700 000/00 RMK AO2 TSNO
94908KDBQ DBQ20030712201510307/12/03 20:15:31  5-MIN KDBQ 130215Z AUTO 00000KT 10SM CLR 19/16 A3007 940 81 1700 000/00 RMK AO2 TSNO
94908KDBQ DBQ20030712202010307/12/03 20:20:31  5-MIN KDBQ 130220Z AUTO 00000KT 10SM CLR 18/16 A3007 940 84 1600 000/00 RMK AO2 TSNO
94908KDBQ DBQ20030712202510307/12/03 20:25:31  5-MIN KDBQ 130225Z AUTO 00000KT 10SM CLR 18/16 A3007 940 87 1500 000/00 RMK AO2 TSNO
94908KDBQ DBQ20030712203010307/12/03 20:30:31  5-MIN KDBQ 130230Z AUTO 00000KT 10SM CLR 18/16 A3007 940 87 1500 000/00 RMK AO2 TSNO
94908KDBQ DBQ20030712203510307/12/03 20:35:31  5-MIN KDBQ 130235Z AUTO 00000KT 10SM CLR 18/16 A3007 940 84 1600 000/00 RMK AO2 TSNO
94908KDBQ DBQ20030712204010307/12/03 20:40:31  5-MIN KDBQ 130240Z AUTO 00000KT 10SM CLR 18/16 A3007 940 87 1600 000/00 RMK AO2 TSNO
94908KDBQ DBQ20030712204510307/12/03 20:45:31  5-MIN KDBQ 130245Z AUTO 00000KT 10SM CLR 18/16 A3008 930 84 1600 000/00 RMK AO2 TSNO
94908KDBQ DBQ20030712205012607/12/03 20:50:31  5-MIN KDBQ 130250Z AUTO 00000KT 10SM CLR 18/16 A3008 930 84 1600 000/00 RMK AO2 SLP181 T01830156 55005 TSNO
94908KDBQ DBQ20030712205512607/12/03 20:55:31  5-MIN KDBQ 130255Z AUTO 00000KT 10SM CLR 19/16 A3008 930 81 1600 000/00 RMK AO2 SLP181 T01890156 53012 TSNO
94908KDBQ DBQ20030712210010307/12/03 21:00:31  5-MIN KDBQ 130300Z AUTO 00000KT 10SM CLR 18/16 A3008 930 87 1500 000/00 RMK AO2 TSNO
94908KDBQ DBQ20030712210510307/12/03 21:05:31  5-MIN KDBQ 130305Z AUTO 00000KT 10SM CLR 17/15 A3008 930 87 1400 000/00 RMK AO2 TSNO
94908KDBQ DBQ20030712211010307/12/03 21:10:31  5-MIN KDBQ 130310Z AUTO 00000KT 10SM CLR 18/15 A3008 930 83 1500 000/00 RMK AO2 TSNO
94908KDBQ DBQ20030712211510307/12/03 21:15:31  5-MIN KDBQ 130315Z AUTO 00000KT 10SM CLR 18/16 A3008 930 87 1500 000/00 RMK AO2 TSNO
94908KDBQ DBQ20030712212010307/12/03 21:20:31  5-MIN KDBQ 130320Z AUTO 00000KT 10SM CLR 18/16 A3008 930 87 1500 000/00 RMK AO2 TSNO
94908KDBQ DBQ20030712212510307/12/03 21:25:31  5-MIN KDBQ 130325Z AUTO 00000KT 10SM CLR 18/16 A3008 930 87 1600 000/00 RMK AO2 TSNO
94908KDBQ DBQ20030712213010307/12/03 21:30:31  5-MIN KDBQ 130330Z AUTO 00000KT 10SM CLR 18/16 A3008 930 84 1600 000/00 RMK AO2 TSNO
94908KDBQ DBQ20030712213510307/12/03 21:35:31  5-MIN KDBQ 130335Z AUTO 00000KT 10SM CLR 18/15 A3008 930 83 1500 000/00 RMK AO2 TSNO
94908KDBQ DBQ20030712214010307/12/03 21:40:31  5-MIN KDBQ 130340Z AUTO 00000KT 10SM CLR 18/15 A3008 930 83 1500 000/00 RMK AO2 TSNO
94908KDBQ DBQ20030712214510307/12/03 21:45:31  5-MIN KDBQ 130345Z AUTO 00000KT 10SM CLR 17/15 A3008 930 90 1400 000/00 RMK AO2 TSNO
94908KDBQ DBQ20030712215012007/12/03 21:50:31  5-MIN KDBQ 130350Z AUTO 00000KT 10SM CLR 17/15 A3008 930 90 1400 000/00 RMK AO2 SLP184 T01670150 TSNO
94908KDBQ DBQ20030712215512007/12/03 21:55:31  5-MIN KDBQ 130355Z AUTO 00000KT 10SM CLR 16/15 A3008 930 93 1300 000/00 RMK AO2 SLP184 T01610150 TSNO
94908KDBQ DBQ20030712220010307/12/03 22:00:31  5-MIN KDBQ 130400Z AUTO 00000KT 10SM CLR 17/15 A3008 930 90 1400 000/00 RMK AO2 TSNO
94908KDBQ DBQ20030712220510307/12/03 22:05:31  5-MIN KDBQ 130405Z AUTO 00000KT 10SM CLR 17/15 A3009 930 90 1400 000/00 RMK AO2 TSNO
94908KDBQ DBQ20030712221010307/12/03 22:10:31  5-MIN KDBQ 130410Z AUTO 00000KT 10SM CLR 17/15 A3008 930 87 1400 000/00 RMK AO2 TSNO
94908KDBQ DBQ20030712221510307/12/03 22:15:31  5-MIN KDBQ 130415Z AUTO 00000KT 10SM CLR 17/15 A3009 920 90 1400 000/00 RMK AO2 TSNO
94908KDBQ DBQ20030712222010307/12/03 22:20:31  5-MIN KDBQ 130420Z AUTO 00000KT 10SM CLR 17/15 A3009 920 90 1400 000/00 RMK AO2 TSNO
94908KDBQ DBQ20030712222510307/12/03 22:25:31  5-MIN KDBQ 130425Z AUTO 00000KT 10SM CLR 17/15 A3009 920 90 1400 000/00 RMK AO2 TSNO
94908KDBQ DBQ20030712223010307/12/03 22:30:31  5-MIN KDBQ 130430Z AUTO 00000KT 10SM CLR 17/15 A3009 920 90 1400 000/00 RMK AO2 TSNO
94908KDBQ DBQ20030712223510307/12/03 22:35:31  5-MIN KDBQ 130435Z AUTO 00000KT 10SM CLR 16/15 A3009 920 93 1300 000/00 RMK AO2 TSNO
94908KDBQ DBQ20030712224010307/12/03 22:40:31  5-MIN KDBQ 130440Z AUTO 00000KT 10SM CLR 16/15 A3009 920 93 1300 000/00 RMK AO2 TSNO
94908KDBQ DBQ20030712224510307/12/03 22:45:31  5-MIN KDBQ 130445Z AUTO 00000KT 10SM CLR 17/15 A3009 920 90 1400 000/00 RMK AO2 TSNO
94908KDBQ DBQ20030712225012007/12/03 22:50:31  5-MIN KDBQ 130450Z AUTO 00000KT 10SM CLR 17/15 A3009 920 90 1400 000/00 RMK AO2 SLP186 T01670150 TSNO
94908KDBQ DBQ20030712225512007/12/03 22:55:31  5-MIN KDBQ 130455Z AUTO 00000KT 10SM CLR 17/15 A3009 920 90 1400 000/00 RMK AO2 SLP185 T01670150 TSNO
94908KDBQ DBQ20030712230010307/12/03 23:00:31  5-MIN KDBQ 130500Z AUTO 00000KT 10SM CLR 17/15 A3009 930 87 1400 000/00 RMK AO2 TSNO
94908KDBQ DBQ20030712230510307/12/03 23:05:31  5-MIN KDBQ 130505Z AUTO 00000KT 10SM CLR 17/14 A3009 920 83 1400 000/00 RMK AO2 TSNO
94908KDBQ DBQ20030712231010307/12/03 23:10:31  5-MIN KDBQ 130510Z AUTO 00000KT 10SM CLR 17/14 A3009 920 86 1400 000/00 RMK AO2 TSNO
94908KDBQ DBQ20030712231510307/12/03 23:15:31  5-MIN KDBQ 130515Z AUTO 00000KT 10SM CLR 16/14 A3009 930 90 1200 000/00 RMK AO2 TSNO
94908KDBQ DBQ20030712232010307/12/03 23:20:31  5-MIN KDBQ 130520Z AUTO 00000KT 10SM CLR 16/14 A3009 930 93 1200 000/00 RMK AO2 TSNO
94908KDBQ DBQ20030712232510307/12/03 23:25:31  5-MIN KDBQ 130525Z AUTO 00000KT 10SM CLR 16/14 A3008 930 90 1300 000/00 RMK AO2 TSNO
94908KDBQ DBQ20030712233010307/12/03 23:30:31  5-MIN KDBQ 130530Z AUTO 00000KT 10SM CLR 16/14 A3009 930 90 1300 000/00 RMK AO2 TSNO
94908KDBQ DBQ20030712233510307/12/03 23:35:31  5-MIN KDBQ 130535Z AUTO 00000KT 10SM CLR 16/14 A3009 930 90 1300 000/00 RMK AO2 TSNO
94908KDBQ DBQ20030712234010307/12/03 23:40:31  5-MIN KDBQ 130540Z AUTO 00000KT 10SM CLR 16/14 A3009 920 90 1300 000/00 RMK AO2 TSNO
94908KDBQ DBQ20030712234510307/12/03 23:45:31  5-MIN KDBQ 130545Z AUTO 00000KT 10SM CLR 16/14 A3009 920 90 1300 000/00 RMK AO2 TSNO
94908KDBQ DBQ20030712235014807/12/03 23:50:31  5-MIN KDBQ 130550Z AUTO 00000KT 10SM CLR 16/14 A3009 930 90 1300 000/00 RMK AO2 SLP185 T01610144 10244 20156 402560128 53012 TSNO
94908KDBQ DBQ20030712235514807/12/03 23:55:31  5-MIN KDBQ 130555Z AUTO 00000KT 10SM CLR 17/14 A3008 930 86 1400 000/00 RMK AO2 SLP184 T01670144 10244 20156 402560128 50002 TSNO
94908KDBQ DBQ20030713000010307/13/03 00:00:31  5-MIN KDBQ 130600Z AUTO 00000KT 10SM CLR 16/14 A3008 930 90 1300 000/00 RMK AO2 TSNO
94908KDBQ DBQ20030713000510307/13/03 00:05:31  5-MIN KDBQ 130605Z AUTO 00000KT 10SM CLR 16/14 A3008 930 90 1300 000/00 RMK AO2 TSNO
94908KDBQ DBQ20030713001010307/13/03 00:10:31  5-MIN KDBQ 130610Z AUTO 16003KT 10SM CLR 16/14 A3008 930 90 1200 160/03 RMK AO2 TSNO
94908KDBQ DBQ20030713001510307/13/03 00:15:31  5-MIN KDBQ 130615Z AUTO 00000KT 10SM CLR 15/14 A3008 930 93 1200 000/00 RMK AO2 TSNO
94908KDBQ DBQ20030713002010307/13/03 00:20:31  5-MIN KDBQ 130620Z AUTO 00000KT 10SM CLR 15/14 A3008 930 93 1200 000/00 RMK AO2 TSNO
94908KDBQ DBQ20030713002510307/13/03 00:25:31  5-MIN KDBQ 130625Z AUTO 00000KT 10SM CLR 15/14 A3008 930 93 1200 000/00 RMK AO2 TSNO
94908KDBQ DBQ20030713003010307/13/03 00:30:31  5-MIN KDBQ 130630Z AUTO 00000KT 10SM CLR 16/14 A3008 930 90 1300 000/00 RMK AO2 TSNO
94908KDBQ DBQ20030713003510307/13/03 00:35:31  5-MIN KDBQ 130635Z AUTO 00000KT 10SM CLR 16/13 A3008 930 83 1300 000/00 RMK AO2 TSNO
94908KDBQ DBQ20030713004010307/13/03 00:40:31  5-MIN KDBQ 130640Z AUTO 00000KT 10SM CLR 16/14 A3008 930 86 1300 000/00 RMK AO2 TSNO
94908KDBQ DBQ20030713004510307/13/03 00:45:31  5-MIN KDBQ 130645Z AUTO 00000KT 10SM CLR 16/13 A3008 930 86 1300 000/00 RMK AO2 TSNO
94908KDBQ DBQ20030713005012007/13/03 00:50:31  5-MIN KDBQ 130650Z AUTO 00000KT 10SM CLR 16/14 A3008 930 86 1300 000/00 RMK AO2 SLP183 T01610139 TSNO
94908KDBQ DBQ20030713005512007/13/03 00:55:31  5-MIN KDBQ 130655Z AUTO 00000KT 10SM CLR 16/14 A3008 930 86 1300 000/00 RMK AO2 SLP183 T01610139 TSNO
94908KDBQ DBQ20030713010010307/13/03 01:00:31  5-MIN KDBQ 130700Z AUTO 00000KT 10SM CLR 16/14 A3008 930 90 1300 000/00 RMK AO2 TSNO
94908KDBQ DBQ20030713010510307/13/03 01:05:31  5-MIN KDBQ 130705Z AUTO 00000KT 10SM CLR 16/14 A3008 930 90 1300 000/00 RMK AO2 TSNO
94908KDBQ DBQ20030713011010307/13/03 01:10:31  5-MIN KDBQ 130710Z AUTO 00000KT 10SM CLR 16/14 A3008 930 90 1300 000/00 RMK AO2 TSNO
94908KDBQ DBQ20030713011510307/13/03 01:15:31  5-MIN KDBQ 130715Z AUTO 00000KT 10SM CLR 16/14 A3008 930 90 1300 000/00 RMK AO2 TSNO
94908KDBQ DBQ20030713012010307/13/03 01:20:31  5-MIN KDBQ 130720Z AUTO 00000KT 10SM CLR 16/14 A3008 930 90 1300 000/00 RMK AO2 TSNO
94908KDBQ DBQ20030713012510307/13/03 01:25:31  5-MIN KDBQ 130725Z AUTO 00000KT 10SM CLR 16/14 A3008 930 90 1200 000/00 RMK AO2 TSNO
94908KDBQ DBQ20030713013010307/13/03 01:30:31  5-MIN KDBQ 130730Z AUTO 00000KT 10SM CLR 16/14 A3009 930 90 1200 000/00 RMK AO2 TSNO
94908KDBQ DBQ20030713013510307/13/03 01:35:31  5-MIN KDBQ 130735Z AUTO 00000KT 10SM CLR 16/14 A3009 930 90 1200 000/00 RMK AO2 TSNO
94908KDBQ DBQ20030713014010307/13/03 01:40:31  5-MIN KDBQ 130740Z AUTO 00000KT 10SM CLR 15/14 A3009 930 93 1200 000/00 RMK AO2 TSNO
94908KDBQ DBQ20030713014510307/13/03 01:45:31  5-MIN KDBQ 130745Z AUTO 00000KT 10SM CLR 15/14 A3009 930 93 1200 000/00 RMK AO2 TSNO
94908KDBQ DBQ20030713015012307/13/03 01:50:31  5-MIN KDBQ 130750Z AUTO 00000KT 10SM FEW090 15/14 A3009 930 93 1200 000/00 RMK AO2 SLP184 T01500139 TSNO
94908KDBQ DBQ20030713015512307/13/03 01:55:31  5-MIN KDBQ 130755Z AUTO 00000KT 10SM SCT090 15/14 A3009 930 93 1200 000/00 RMK AO2 SLP184 T01500139 TSNO
94908KDBQ DBQ20030713020010607/13/03 02:00:31  5-MIN KDBQ 130800Z AUTO 00000KT 10SM BKN085 16/14 A3009 930 90 1200 000/00 RMK AO2 TSNO
94908KDBQ DBQ20030713020510607/13/03 02:05:31  5-MIN KDBQ 130805Z AUTO 00000KT 10SM BKN090 16/14 A3009 930 86 1300 000/00 RMK AO2 TSNO
94908KDBQ DBQ20030713021010607/13/03 02:10:31  5-MIN KDBQ 130810Z AUTO 00000KT 10SM BKN090 16/14 A3008 930 90 1200 000/00 RMK AO2 TSNO
94908KDBQ DBQ20030713021510607/13/03 02:15:31  5-MIN KDBQ 130815Z AUTO 00000KT 10SM OVC090 16/14 A3008 930 90 1200 000/00 RMK AO2 TSNO
94908KDBQ DBQ20030713022010607/13/03 02:20:31  5-MIN KDBQ 130820Z AUTO 00000KT 10SM OVC090 16/14 A3008 930 90 1200 000/00 RMK AO2 TSNO
94908KDBQ DBQ20030713022510607/13/03 02:25:31  5-MIN KDBQ 130825Z AUTO 00000KT 10SM OVC090 16/14 A3008 930 93 1200 000/00 RMK AO2 TSNO
94908KDBQ DBQ20030713023010607/13/03 02:30:31  5-MIN KDBQ 130830Z AUTO 00000KT 10SM OVC090 16/14 A3008 930 93 1200 000/00 RMK AO2 TSNO
94908KDBQ DBQ20030713023510607/13/03 02:35:31  5-MIN KDBQ 130835Z AUTO 00000KT 10SM OVC090 16/14 A3008 930 90 1300 000/00 RMK AO2 TSNO
94908KDBQ DBQ20030713024010607/13/03 02:40:31  5-MIN KDBQ 130840Z AUTO 00000KT 10SM OVC090 16/14 A3008 930 93 1300 000/00 RMK AO2 TSNO
94908KDBQ DBQ20030713024510607/13/03 02:45:31  5-MIN KDBQ 130845Z AUTO 00000KT 10SM OVC090 16/14 A3008 930 90 1300 000/00 RMK AO2 TSNO
94908KDBQ DBQ20030713025012907/13/03 02:50:31  5-MIN KDBQ 130850Z AUTO 00000KT 10SM OVC090 16/14 A3008 930 90 1300 000/00 RMK AO2 SLP182 T01610144 50002 TSNO
94908KDBQ DBQ20030713025512907/13/03 02:55:31  5-MIN KDBQ 130855Z AUTO 00000KT 10SM BKN090 16/14 A3008 930 90 1300 000/00 RMK AO2 SLP183 T01610144 58001 TSNO
94908KDBQ DBQ20030713030010607/13/03 03:00:31  5-MIN KDBQ 130900Z AUTO 00000KT 10SM BKN090 16/14 A3008 930 90 1300 000/00 RMK AO2 TSNO
94908KDBQ DBQ20030713030510607/13/03 03:05:31  5-MIN KDBQ 130905Z AUTO 00000KT 10SM BKN090 16/14 A3008 930 90 1300 000/00 RMK AO2 TSNO
94908KDBQ DBQ20030713031010607/13/03 03:10:31  5-MIN KDBQ 130910Z AUTO 00000KT 10SM BKN090 16/14 A3008 930 90 1300 000/00 RMK AO2 TSNO
94908KDBQ DBQ20030713031510607/13/03 03:15:31  5-MIN KDBQ 130915Z AUTO 00000KT 10SM BKN090 16/14 A3008 930 90 1300 000/00 RMK AO2 TSNO
94908KDBQ DBQ20030713032010607/13/03 03:20:31  5-MIN KDBQ 130920Z AUTO 00000KT 10SM BKN090 16/14 A3008 930 90 1300 000/00 RMK AO2 TSNO
94908KDBQ DBQ20030713032510607/13/03 03:25:31  5-MIN KDBQ 130925Z AUTO 00000KT 10SM OVC090 16/14 A3008 930 90 1300 000/00 RMK AO2 TSNO
94908KDBQ DBQ20030713033010607/13/03 03:30:31  5-MIN KDBQ 130930Z AUTO 00000KT 10SM OVC090 16/14 A3008 930 90 1300 000/00 RMK AO2 TSNO
94908KDBQ DBQ20030713033510607/13/03 03:35:31  5-MIN KDBQ 130935Z AUTO 00000KT 10SM OVC090 16/14 A3008 930 93 1300 000/00 RMK AO2 TSNO
94908KDBQ DBQ20030713034010607/13/03 03:40:31  5-MIN KDBQ 130940Z AUTO 00000KT 10SM OVC090 16/14 A3008 930 93 1200 000/00 RMK AO2 TSNO
94908KDBQ DBQ20030713034510607/13/03 03:45:31  5-MIN KDBQ 130945Z AUTO 00000KT 10SM OVC090 16/14 A3008 930 90 1300 000/00 RMK AO2 TSNO
94908KDBQ DBQ20030713035012307/13/03 03:50:31  5-MIN KDBQ 130950Z AUTO 00000KT 10SM OVC090 16/15 A3008 930 93 1300 000/00 RMK AO2 SLP183 T01610150 TSNO
94908KDBQ DBQ20030713035512307/13/03 03:55:31  5-MIN KDBQ 130955Z AUTO 00000KT 10SM OVC090 16/15 A3008 930 93 1300 000/00 RMK AO2 SLP183 T01610150 TSNO
94908KDBQ DBQ20030713040510607/13/03 04:05:31  5-MIN KDBQ 131005Z AUTO 00000KT 10SM OVC090 16/15 A3009 930 93 1300 000/00 RMK AO2 TSNO
94908KDBQ DBQ20030713041010607/13/03 04:10:31  5-MIN KDBQ 131010Z AUTO 00000KT 10SM OVC090 16/14 A3009 920 90 1300 000/00 RMK AO2 TSNO
94908KDBQ DBQ20030713041510607/13/03 04:15:31  5-MIN KDBQ 131015Z AUTO 00000KT 10SM OVC090 16/14 A3009 920 90 1300 000/00 RMK AO2 TSNO
94908KDBQ DBQ20030713042010607/13/03 04:20:31  5-MIN KDBQ 131020Z AUTO 00000KT 10SM OVC090 17/14 A3009 920 86 1400 000/00 RMK AO2 TSNO
94908KDBQ DBQ20030713042510607/13/03 04:25:31  5-MIN KDBQ 131025Z AUTO 00000KT 10SM OVC095 16/14 A3009 930 90 1300 000/00 RMK AO2 TSNO
94908KDBQ DBQ20030713043010607/13/03 04:30:31  5-MIN KDBQ 131030Z AUTO 00000KT 10SM OVC095 17/14 A3009 930 86 1400 000/00 RMK AO2 TSNO
94908KDBQ DBQ20030713043510607/13/03 04:35:31  5-MIN KDBQ 131035Z AUTO 00000KT 10SM OVC095 17/14 A3009 930 86 1400 000/00 RMK AO2 TSNO
94908KDBQ DBQ20030713044010607/13/03 04:40:31  5-MIN KDBQ 131040Z AUTO 00000KT 10SM OVC095 16/15 A3009 920 93 1300 000/00 RMK AO2 TSNO
94908KDBQ DBQ20030713044510607/13/03 04:45:31  5-MIN KDBQ 131045Z AUTO 00000KT 10SM OVC095 16/15 A3009 920 93 1300 000/00 RMK AO2 TSNO
94908KDBQ DBQ20030713045012307/13/03 04:50:31  5-MIN KDBQ 131050Z AUTO 00000KT 10SM OVC095 16/14 A3009 920 90 1300 000/00 RMK AO2 SLP184 T01610144 TSNO
94908KDBQ DBQ20030713045511307/13/03 04:55:31  5-MIN KDBQ 131055Z 00000KT 10SM BKN095 17/15 A3009 920 90 1400 000/00 RMK AO2 SLP185 T01670150
94908KDBQ DBQ20030713050009607/13/03 05:00:31  5-MIN KDBQ 131100Z 00000KT 10SM BKN095 17/15 A3009 920 90 1400 000/00 RMK AO2
94908KDBQ DBQ20030713050509607/13/03 05:05:31  5-MIN KDBQ 131105Z 00000KT 10SM BKN095 17/15 A3009 920 90 1400 000/00 RMK AO2
94908KDBQ DBQ20030713051009607/13/03 05:10:31  5-MIN KDBQ 131110Z 00000KT 10SM SCT095 17/15 A3009 920 90 1400 000/00 RMK AO2
94908KDBQ DBQ20030713051509607/13/03 05:15:31  5-MIN KDBQ 131115Z 00000KT 10SM SCT095 16/15 A3009 920 93 1300 000/00 RMK AO2
94908KDBQ DBQ20030713052009607/13/03 05:20:31  5-MIN KDBQ 131120Z 00000KT 10SM BKN095 16/14 A3009 920 90 1300 000/00 RMK AO2
94908KDBQ DBQ20030713052509507/13/03 05:25:31  5-MIN KDBQ 131125Z 00000KT 9SM BKN095 16/14 A3009 920 90 1300 000/00 RMK AO2
94908KDBQ DBQ20030713053009507/13/03 05:30:31  5-MIN KDBQ 131130Z 00000KT 9SM BKN095 16/15 A3010 920 93 1300 000/00 RMK AO2
94908KDBQ DBQ20030713053509507/13/03 05:35:31  5-MIN KDBQ 131135Z 00000KT 9SM BKN090 17/16 A3010 920 90 1400 000/00 RMK AO2
94908KDBQ DBQ20030713054009507/13/03 05:40:31  5-MIN KDBQ 131140Z 00000KT 8SM OVC090 17/16 A3010 920 93 1400 000/00 RMK AO2
94908KDBQ DBQ20030713054509507/13/03 05:45:31  5-MIN KDBQ 131145Z 00000KT 8SM OVC090 17/16 A3010 920 93 1400 000/00 RMK AO2
94908KDBQ DBQ20030713055013007/13/03 05:50:31  5-MIN KDBQ 131150Z 00000KT 9SM OVC090 18/16 A3010 920 90 1500 000/00 RMK AO2 SLP187 T01780161 10178 20150 58001
94908KDBQ DBQ20030713055513107/13/03 05:55:31  5-MIN KDBQ 131155Z 00000KT 10SM OVC090 18/16 A3010 910 90 1500 000/00 RMK AO2 SLP187 T01780161 10178 20150 53005
94908KDBQ DBQ20030713060009607/13/03 06:00:31  5-MIN KDBQ 131200Z 00000KT 10SM BKN090 18/16 A3010 910 87 1600 000/00 RMK AO2
94908KDBQ DBQ20030713060509607/13/03 06:05:31  5-MIN KDBQ 131205Z 00000KT 10SM BKN090 18/16 A3010 910 87 1600 000/00 RMK AO2
94908KDBQ DBQ20030713061009607/13/03 06:10:31  5-MIN KDBQ 131210Z 00000KT 10SM SCT090 18/17 A3010 910 90 1600 000/00 RMK AO2
94908KDBQ DBQ20030713061509607/13/03 06:15:31  5-MIN KDBQ 131215Z 00000KT 10SM FEW090 19/17 A3010 910 87 1600 000/00 RMK AO2
94908KDBQ DBQ20030713062009607/13/03 06:20:31  5-MIN KDBQ 131220Z 00000KT 10SM FEW090 19/17 A3010 910 87 1600 000/00 RMK AO2
94908KDBQ DBQ20030713062509307/13/03 06:25:31  5-MIN KDBQ 131225Z 00000KT 10SM CLR 19/17 A3010 910 87 1600 000/00 RMK AO2
94908KDBQ DBQ20030713063009307/13/03 06:30:31  5-MIN KDBQ 131230Z 00000KT 10SM CLR 19/17 A3010 910 87 1700 000/00 RMK AO2
94908KDBQ DBQ20030713063509307/13/03 06:35:31  5-MIN KDBQ 131235Z 00000KT 10SM CLR 19/17 A3010 910 87 1700 000/00 RMK AO2
94908KDBQ DBQ20030713064009307/13/03 06:40:31  5-MIN KDBQ 131240Z 00000KT 10SM CLR 19/17 A3011 910 87 1700 000/00 RMK AO2
94908KDBQ DBQ20030713064509307/13/03 06:45:31  5-MIN KDBQ 131245Z 00000KT 10SM CLR 20/17 A3011 910 84 1700 000/00 RMK AO2
94908KDBQ DBQ20030713065011007/13/03 06:50:31  5-MIN KDBQ 131250Z 00000KT 10SM CLR 20/18 A3010 910 87 1700 000/00 RMK AO2 SLP189 T02000178
94908KDBQ DBQ20030713065511007/13/03 06:55:31  5-MIN KDBQ 131255Z 00000KT 10SM CLR 21/17 A3011 910 81 1800 000/00 RMK AO2 SLP189 T02060172
94908KDBQ DBQ20030713070009307/13/03 07:00:31  5-MIN KDBQ 131300Z 00000KT 10SM CLR 21/17 A3011 910 78 1800 000/00 RMK AO2
94908KDBQ DBQ20030713070509307/13/03 07:05:31  5-MIN KDBQ 131305Z 00000KT 10SM CLR 21/16 A3011 910 75 1800 000/00 RMK AO2
94908KDBQ DBQ20030713071009307/13/03 07:10:31  5-MIN KDBQ 131310Z 00000KT 10SM CLR 21/17 A3011 910 75 1900 000/00 RMK AO2
94908KDBQ DBQ20030713071509307/13/03 07:15:31  5-MIN KDBQ 131315Z 00000KT 10SM CLR 21/17 A3011 900 78 1900 000/00 RMK AO2
94908KDBQ DBQ20030713072009307/13/03 07:20:31  5-MIN KDBQ 131320Z 00000KT 10SM CLR 21/17 A3011 900 75 1900 000/00 RMK AO2
94908KDBQ DBQ20030713072509307/13/03 07:25:31  5-MIN KDBQ 131325Z 00000KT 10SM CLR 21/17 A3011 910 75 1900 000/00 RMK AO2
94908KDBQ DBQ20030713073009307/13/03 07:30:31  5-MIN KDBQ 131330Z 00000KT 10SM CLR 21/17 A3011 900 75 1900 000/00 RMK AO2
94908KDBQ DBQ20030713073509307/13/03 07:35:31  5-MIN KDBQ 131335Z 00000KT 10SM CLR 22/17 A3011 900 75 1900 000/00 RMK AO2
94908KDBQ DBQ20030713074009307/13/03 07:40:31  5-MIN KDBQ 131340Z 00000KT 10SM CLR 22/17 A3011 900 73 1900 000/00 RMK AO2
94908KDBQ DBQ20030713074509307/13/03 07:45:31  5-MIN KDBQ 131345Z 00000KT 10SM CLR 22/17 A3011 900 75 1900 000/00 RMK AO2
94908KDBQ DBQ20030713075011007/13/03 07:50:31  5-MIN KDBQ 131350Z 00000KT 10SM CLR 22/17 A3011 900 70 2000 000/00 RMK AO2 SLP191 T02220167
94908KDBQ DBQ20030713075511007/13/03 07:55:31  5-MIN KDBQ 131355Z 00000KT 10SM CLR 23/17 A3011 900 70 2100 000/00 RMK AO2 SLP191 T02280172
94908KDBQ DBQ20030713080009307/13/03 08:00:31  5-MIN KDBQ 131400Z 00000KT 10SM CLR 22/17 A3011 900 73 2000 000/00 RMK AO2
94908KDBQ DBQ20030713080509307/13/03 08:05:31  5-MIN KDBQ 131405Z 00000KT 10SM CLR 23/17 A3011 900 68 2000 000/00 RMK AO2
94908KDBQ DBQ20030713081009307/13/03 08:10:31  5-MIN KDBQ 131410Z 00000KT 10SM CLR 23/17 A3011 900 68 2000 000/00 RMK AO2
94908KDBQ DBQ20030713081509307/13/03 08:15:31  5-MIN KDBQ 131415Z VRB03KT 10SM CLR 23/17 A3011 900 70 2000 VRB/03 RMK AO2
94908KDBQ DBQ20030713082009307/13/03 08:20:31  5-MIN KDBQ 131420Z 00000KT 10SM CLR 23/17 A3012 900 68 2000 000/00 RMK AO2
94908KDBQ DBQ20030713082509307/13/03 08:25:31  5-MIN KDBQ 131425Z 00000KT 10SM CLR 23/17 A3012 900 70 2000 000/00 RMK AO2
94908KDBQ DBQ20030713083009307/13/03 08:30:31  5-MIN KDBQ 131430Z 22004KT 10SM CLR 23/18 A3012 900 73 2000 220/04 RMK AO2
94908KDBQ DBQ20030713083509307/13/03 08:35:31  5-MIN KDBQ 131435Z 23003KT 10SM CLR 23/17 A3012 900 68 2000 230/03 RMK AO2
94908KDBQ DBQ20030713084009307/13/03 08:40:31  5-MIN KDBQ 131440Z 23004KT 10SM CLR 23/16 A3012 900 65 2000 220/04 RMK AO2
94908KDBQ DBQ20030713084509307/13/03 08:45:31  5-MIN KDBQ 131445Z 00000KT 10SM CLR 23/17 A3012 890 68 2000 000/00 RMK AO2
94908KDBQ DBQ20030713085011607/13/03 08:50:31  5-MIN KDBQ 131450Z 22003KT 10SM CLR 23/17 A3012 890 66 2100 220/03 RMK AO2 SLP195 T02330167 53005
94908KDBQ DBQ20030713085511607/13/03 08:55:31  5-MIN KDBQ 131455Z 21004KT 10SM CLR 23/17 A3012 890 68 2100 210/04 RMK AO2 SLP195 T02330172 51007
94908KDBQ DBQ20030713090009307/13/03 09:00:31  5-MIN KDBQ 131500Z 20004KT 10SM CLR 23/17 A3012 900 68 2100 200/04 RMK AO2
94908KDBQ DBQ20030713090509307/13/03 09:05:31  5-MIN KDBQ 131505Z 23005KT 10SM CLR 23/17 A3012 900 66 2100 230/05 RMK AO2
94908KDBQ DBQ20030713091009307/13/03 09:10:31  5-MIN KDBQ 131510Z 00000KT 10SM CLR 23/17 A3012 900 66 2100 000/00 RMK AO2
94908KDBQ DBQ20030713091509307/13/03 09:15:31  5-MIN KDBQ 131515Z VRB03KT 10SM CLR 24/17 A3012 900 63 2200 VRB/03 RMK AO2
94908KDBQ DBQ20030713092009307/13/03 09:20:31  5-MIN KDBQ 131520Z VRB03KT 10SM CLR 24/17 A3012 900 66 2200 VRB/03 RMK AO2
94908KDBQ DBQ20030713092509307/13/03 09:25:31  5-MIN KDBQ 131525Z 21004KT 10SM CLR 24/16 A3012 900 61 2200 210/04 RMK AO2
94908KDBQ DBQ20030713093009307/13/03 09:30:31  5-MIN KDBQ 131530Z 25005KT 10SM CLR 24/17 A3012 900 63 2200 250/05 RMK AO2
94908KDBQ DBQ20030713093509307/13/03 09:35:31  5-MIN KDBQ 131535Z 19005KT 10SM CLR 24/17 A3012 900 63 2200 190/05 RMK AO2
94908KDBQ DBQ20030713094009307/13/03 09:40:31  5-MIN KDBQ 131540Z 24003KT 10SM CLR 24/17 A3012 900 63 2200 240/03 RMK AO2
94908KDBQ DBQ20030713094509307/13/03 09:45:31  5-MIN KDBQ 131545Z 20004KT 10SM CLR 24/16 A3012 900 61 2200 200/04 RMK AO2
94908KDBQ DBQ20030713095011007/13/03 09:50:31  5-MIN KDBQ 131550Z VRB06KT 10SM CLR 24/17 A3012 900 63 2200 VRB/06 RMK AO2 SLP194 T02390167
94908KDBQ DBQ20030713095511007/13/03 09:55:31  5-MIN KDBQ 131555Z 21004KT 10SM CLR 23/16 A3012 900 63 2100 210/04 RMK AO2 SLP195 T02330161
94908KDBQ DBQ20030713100009307/13/03 10:00:31  5-MIN KDBQ 131600Z 25006KT 10SM CLR 24/17 A3012 900 61 2200 250/06 RMK AO2
94908KDBQ DBQ20030713100509307/13/03 10:05:31  5-MIN KDBQ 131605Z 24006KT 10SM CLR 24/16 A3011 900 59 2200 240/06 RMK AO2
94908KDBQ DBQ20030713101009307/13/03 10:10:31  5-MIN KDBQ 131610Z 24004KT 10SM CLR 23/16 A3012 900 63 2100 240/04 RMK AO2
94908KDBQ DBQ20030713101509307/13/03 10:15:31  5-MIN KDBQ 131615Z 26005KT 10SM CLR 24/16 A3012 900 59 2200 250/05 RMK AO2
94908KDBQ DBQ20030713102009607/13/03 10:20:31  5-MIN KDBQ 131620Z 21006KT 10SM FEW039 25/17 A3011 900 59 2300 200/06 RMK AO2
94908KDBQ DBQ20030713102509607/13/03 10:25:31  5-MIN KDBQ 131625Z 20007KT 10SM FEW039 24/17 A3011 900 61 2200 200/07 RMK AO2
94908KDBQ DBQ20030713103009607/13/03 10:30:31  5-MIN KDBQ 131630Z 19007KT 10SM BKN039 24/16 A3011 900 59 2200 190/07 RMK AO2
94908KDBQ DBQ20030713103509607/13/03 10:35:31  5-MIN KDBQ 131635Z 19006KT 10SM BKN039 25/17 A3011 900 59 2300 190/06 RMK AO2
94908KDBQ DBQ20030713104009607/13/03 10:40:31  5-MIN KDBQ 131640Z 22007KT 10SM BKN039 24/16 A3011 910 59 2200 220/07 RMK AO2
94908KDBQ DBQ20030713104509607/13/03 10:45:31  5-MIN KDBQ 131645Z 24008KT 10SM BKN039 24/16 A3011 900 57 2200 240/08 RMK AO2
94908KDBQ DBQ20030713105011307/13/03 10:50:31  5-MIN KDBQ 131650Z 24006KT 10SM BKN039 24/16 A3011 900 59 2200 240/06 RMK AO2 SLP192 T02440161
94908KDBQ DBQ20030713105511307/13/03 10:55:31  5-MIN KDBQ 131655Z 25006KT 10SM SCT039 25/17 A3011 900 59 2300 250/06 RMK AO2 SLP192 T02500167
94908KDBQ DBQ20030713110009607/13/03 11:00:31  5-MIN KDBQ 131700Z 26005KT 10SM SCT039 25/17 A3011 910 59 2300 260/05 RMK AO2
94908KDBQ DBQ20030713110509607/13/03 11:05:31  5-MIN KDBQ 131705Z 19006KT 10SM SCT039 25/16 A3011 910 57 2300 190/06 RMK AO2
94908KDBQ DBQ20030713111011207/13/03 11:10:31  5-MIN KDBQ 131710Z 22007KT 180V250 10SM SCT039 25/17 A3011 910 59 2300 220/07 180V250 RMK AO2
94908KDBQ DBQ20030713111509607/13/03 11:15:31  5-MIN KDBQ 131715Z 22003KT 10SM SCT039 25/17 A3011 910 59 2300 220/03 RMK AO2
94908KDBQ DBQ20030713112009607/13/03 11:20:31  5-MIN KDBQ 131720Z 22006KT 10SM SCT039 24/17 A3011 910 61 2200 220/06 RMK AO2
94908KDBQ DBQ20030713112509607/13/03 11:25:31  5-MIN KDBQ 131725Z 20005KT 10SM SCT039 24/17 A3010 910 63 2200 200/05 RMK AO2
94908KDBQ DBQ20030713113009607/13/03 11:30:31  5-MIN KDBQ 131730Z 21004KT 10SM SCT039 25/16 A3010 910 57 2300 210/04 RMK AO2
94908KDBQ DBQ20030713113509607/13/03 11:35:31  5-MIN KDBQ 131735Z 24006KT 10SM SCT039 25/17 A3010 910 59 2300 240/06 RMK AO2
94908KDBQ DBQ20030713114009607/13/03 11:40:31  5-MIN KDBQ 131740Z 18004KT 10SM SCT039 24/16 A3010 910 59 2300 180/04 RMK AO2
94908KDBQ DBQ20030713114509607/13/03 11:45:31  5-MIN KDBQ 131745Z VRB04KT 10SM FEW039 25/16 A3010 910 55 2300 VRB/04 RMK AO2
94908KDBQ DBQ20030713115013807/13/03 11:50:31  5-MIN KDBQ 131750Z 21006KT 10SM FEW042 SCT050 25/17 A3010 910 61 2300 210/06 RMK AO2 SLP188 T02500172 10250 20178 51007
94908KDBQ DBQ20030713115513107/13/03 11:55:31  5-MIN KDBQ 131755Z 21007KT 10SM FEW042 26/16 A3010 920 55 2400 210/07 RMK AO2 SLP187 T02560161 10256 20178 58007
94908KDBQ DBQ20030713120009607/13/03 12:00:31  5-MIN KDBQ 131800Z 20006KT 10SM FEW042 26/16 A3010 910 55 2400 200/06 RMK AO2
94908KDBQ DBQ20030713120509607/13/03 12:05:31  5-MIN KDBQ 131805Z 21006KT 10SM FEW042 26/17 A3010 910 57 2400 210/06 RMK AO2
94908KDBQ DBQ20030713121009607/13/03 12:10:31  5-MIN KDBQ 131810Z 21006KT 10SM FEW042 26/16 A3010 910 55 2400 200/06 RMK AO2
94908KDBQ DBQ20030713121509307/13/03 12:15:31  5-MIN KDBQ 131815Z 23007KT 10SM CLR 26/16 A3010 910 55 2400 230/07 RMK AO2
94908KDBQ DBQ20030713122009307/13/03 12:20:31  5-MIN KDBQ 131820Z 23007KT 10SM CLR 26/16 A3010 910 55 2400 230/07 RMK AO2
94908KDBQ DBQ20030713122509307/13/03 12:25:31  5-MIN KDBQ 131825Z 21006KT 10SM CLR 26/16 A3010 910 55 2400 210/06 RMK AO2
94908KDBQ DBQ20030713123009307/13/03 12:30:31  5-MIN KDBQ 131830Z 24005KT 10SM CLR 26/16 A3010 920 55 2400 240/05 RMK AO2
94908KDBQ DBQ20030713123509307/13/03 12:35:31  5-MIN KDBQ 131835Z 26007KT 10SM CLR 26/16 A3009 920 55 2400 250/07 RMK AO2
94908KDBQ DBQ20030713124009307/13/03 12:40:31  5-MIN KDBQ 131840Z 24007KT 10SM CLR 26/17 A3009 920 55 2400 240/07 RMK AO2
94908KDBQ DBQ20030713124509307/13/03 12:45:31  5-MIN KDBQ 131845Z 21009KT 10SM CLR 26/17 A3010 920 57 2400 210/09 RMK AO2
94908KDBQ DBQ20030713125011007/13/03 12:50:31  5-MIN KDBQ 131850Z 22008KT 10SM CLR 26/17 A3010 920 57 2400 220/08 RMK AO2 SLP187 T02610172
94908KDBQ DBQ20030713125512607/13/03 12:55:31  5-MIN KDBQ 131855Z 22008KT 200V260 10SM CLR 26/17 A3010 920 55 2400 220/08 200V260 RMK AO2 SLP187 T02610167
94908KDBQ DBQ20030713130010907/13/03 13:00:31  5-MIN KDBQ 131900Z 21007KT 180V240 10SM CLR 26/16 A3010 920 55 2400 210/07 180V240 RMK AO2
94908KDBQ DBQ20030713130509307/13/03 13:05:31  5-MIN KDBQ 131905Z 22009KT 10SM CLR 26/17 A3010 920 57 2400 220/09 RMK AO2
94908KDBQ DBQ20030713131009307/13/03 13:10:31  5-MIN KDBQ 131910Z 20009KT 10SM CLR 26/17 A3010 920 57 2400 200/09 RMK AO2
94908KDBQ DBQ20030713131509307/13/03 13:15:31  5-MIN KDBQ 131915Z 19007KT 10SM CLR 26/17 A3010 920 55 2400 190/07 RMK AO2
94908KDBQ DBQ20030713132009307/13/03 13:20:31  5-MIN KDBQ 131920Z 22008KT 10SM CLR 26/17 A3010 920 57 2400 220/08 RMK AO2
94908KDBQ DBQ20030713132509607/13/03 13:25:31  5-MIN KDBQ 131925Z 21006KT 10SM FEW045 24/16 A3010 920 59 2300 210/06 RMK AO2
94908KDBQ DBQ20030713133010307/13/03 13:30:31  5-MIN KDBQ 131930Z 24006KT 10SM SCT045 SCT050 24/17 A3009 920 61 2300 240/06 RMK AO2
94908KDBQ DBQ20030713133511007/13/03 13:35:31  5-MIN KDBQ 131935Z 24005KT 10SM SCT045 BKN050 BKN070 24/17 A3009 920 63 2300 240/05 RMK AO2
94908KDBQ DBQ20030713134011007/13/03 13:40:31  5-MIN KDBQ 131940Z 24006KT 10SM SCT045 BKN050 BKN075 24/17 A3009 920 61 2300 240/06 RMK AO2
94908KDBQ DBQ20030713134511007/13/03 13:45:31  5-MIN KDBQ 131945Z 22007KT 10SM FEW045 SCT050 BKN075 26/17 A3009 920 59 2400 220/07 RMK AO2
94908KDBQ DBQ20030713135012707/13/03 13:50:31  5-MIN KDBQ 131950Z 24006KT 10SM FEW045 SCT050 SCT070 26/17 A3009 920 57 2500 240/06 RMK AO2 SLP184 T02610172
94908KDBQ DBQ20030713135512007/13/03 13:55:31  5-MIN KDBQ 131955Z 20006KT 10SM FEW045 SCT075 26/17 A3009 930 55 2500 200/06 RMK AO2 SLP184 T02610167
94908KDBQ DBQ20030713140009607/13/03 14:00:31  5-MIN KDBQ 132000Z 23006KT 10SM FEW045 26/17 A3008 930 57 2400 230/06 RMK AO2
94908KDBQ DBQ20030713140509607/13/03 14:05:31  5-MIN KDBQ 132005Z 23009KT 10SM FEW044 26/17 A3008 930 55 2500 230/09 RMK AO2
94908KDBQ DBQ20030713141009607/13/03 14:10:31  5-MIN KDBQ 132010Z 23008KT 10SM FEW044 26/17 A3008 930 57 2500 230/08 RMK AO2
94908KDBQ DBQ20030713141509307/13/03 14:15:31  5-MIN KDBQ 132015Z 21008KT 10SM CLR 26/17 A3008 930 55 2500 210/08 RMK AO2
94908KDBQ DBQ20030713142009307/13/03 14:20:31  5-MIN KDBQ 132020Z 21009KT 10SM CLR 26/17 A3008 930 55 2500 210/09 RMK AO2
94908KDBQ DBQ20030713142509307/13/03 14:25:31  5-MIN KDBQ 132025Z 21008KT 10SM CLR 26/17 A3008 930 55 2500 210/08 RMK AO2
94908KDBQ DBQ20030713143009607/13/03 14:30:31  5-MIN KDBQ 132030Z 17007KT 10SM FEW060 26/17 A3008 930 57 2500 170/07 RMK AO2
94908KDBQ DBQ20030713143509607/13/03 14:35:31  5-MIN KDBQ 132035Z 22006KT 10SM FEW060 26/17 A3008 930 55 2500 220/06 RMK AO2
94908KDBQ DBQ20030713144010307/13/03 14:40:31  5-MIN KDBQ 132040Z 20007KT 10SM FEW047 SCT070 26/17 A3008 930 57 2400 200/07 RMK AO2
94908KDBQ DBQ20030713144511007/13/03 14:45:31  5-MIN KDBQ 132045Z 20011KT 10SM SCT047 SCT060 BKN085 26/17 A3007 940 59 2400 190/11 RMK AO2
94908KDBQ DBQ20030713145013307/13/03 14:50:31  5-MIN KDBQ 132050Z 21010KT 10SM FEW047 SCT060 BKN080 26/17 A3007 940 55 2500 210/10 RMK AO2 SLP179 T02610167 58007
94908KDBQ DBQ20030713145513307/13/03 14:55:31  5-MIN KDBQ 132055Z 20009KT 10SM FEW047 SCT070 BKN085 26/17 A3007 940 55 2500 200/09 RMK AO2 SLP178 T02610167 58008
94908KDBQ DBQ20030713150010307/13/03 15:00:31  5-MIN KDBQ 132100Z 20009KT 10SM FEW047 SCT080 26/17 A3007 940 57 2500 200/09 RMK AO2
94908KDBQ DBQ20030713150510307/13/03 15:05:31  5-MIN KDBQ 132105Z 21008KT 10SM FEW047 SCT085 25/17 A3007 940 59 2300 210/08 RMK AO2
94908KDBQ DBQ20030713151009607/13/03 15:10:31  5-MIN KDBQ 132110Z 21009KT 10SM FEW049 25/16 A3007 940 57 2300 210/09 RMK AO2
94908KDBQ DBQ20030713151509607/13/03 15:15:31  5-MIN KDBQ 132115Z 22006KT 10SM FEW080 26/17 A3007 940 57 2400 220/06 RMK AO2
94908KDBQ DBQ20030713152009607/13/03 15:20:31  5-MIN KDBQ 132120Z 21007KT 10SM SCT100 26/17 A3007 940 55 2500 210/07 RMK AO2
94908KDBQ DBQ20030713152509607/13/03 15:25:31  5-MIN KDBQ 132125Z 20008KT 10SM FEW100 26/17 A3007 940 55 2500 200/08 RMK AO2
94908KDBQ DBQ20030713153009607/13/03 15:30:31  5-MIN KDBQ 132130Z 19008KT 10SM FEW055 26/17 A3007 940 55 2500 190/08 RMK AO2
94908KDBQ DBQ20030713153510307/13/03 15:35:31  5-MIN KDBQ 132135Z 20010KT 10SM SCT050 SCT100 26/17 A3006 950 57 2500 200/10 RMK AO2
94908KDBQ DBQ20030713154011007/13/03 15:40:31  5-MIN KDBQ 132140Z 22010KT 10SM SCT050 SCT060 BKN095 26/17 A3006 950 55 2500 220/10 RMK AO2
94908KDBQ DBQ20030713154511007/13/03 15:45:31  5-MIN KDBQ 132145Z 23009KT 10SM FEW050 SCT060 BKN085 25/17 A3006 950 59 2400 220/09 RMK AO2
94908KDBQ DBQ20030713155012007/13/03 15:50:31  5-MIN KDBQ 132150Z 22009KT 10SM FEW050 SCT080 26/16 A3006 950 55 2400 220/09 RMK AO2 SLP176 T02560161
94908KDBQ DBQ20030713155512007/13/03 15:55:31  5-MIN KDBQ 132155Z 22009KT 10SM FEW050 SCT080 26/16 A3006 950 53 2500 220/09 RMK AO2 SLP176 T02610161
94908KDBQ DBQ20030713160010307/13/03 16:00:31  5-MIN KDBQ 132200Z 25010KT 10SM FEW048 SCT080 26/17 A3006 950 55 2500 240/10 RMK AO2
94908KDBQ DBQ20030713160510307/13/03 16:05:31  5-MIN KDBQ 132205Z 24008KT 10SM FEW048 SCT080 26/17 A3006 950 55 2500 240/08 RMK AO2
94908KDBQ DBQ20030713161009607/13/03 16:10:31  5-MIN KDBQ 132210Z 22007KT 10SM FEW080 26/16 A3006 950 55 2400 220/07 RMK AO2
94908KDBQ DBQ20030713161509307/13/03 16:15:31  5-MIN KDBQ 132215Z 23007KT 10SM CLR 26/17 A3006 950 55 2500 230/07 RMK AO2
94908KDBQ DBQ20030713162009307/13/03 16:20:31  5-MIN KDBQ 132220Z 23008KT 10SM CLR 26/17 A3006 950 55 2500 230/08 RMK AO2
94908KDBQ DBQ20030713162509607/13/03 16:25:31  5-MIN KDBQ 132225Z 21011KT 10SM FEW060 26/17 A3006 950 55 2500 210/11 RMK AO2
94908KDBQ DBQ20030713163010307/13/03 16:30:31  5-MIN KDBQ 132230Z 22010KT 10SM FEW055 SCT075 26/16 A3005 950 53 2500 210/10 RMK AO2
94908KDBQ DBQ20030713163510307/13/03 16:35:31  5-MIN KDBQ 132235Z 22008KT 10SM FEW055 SCT075 26/16 A3005 960 53 2500 220/08 RMK AO2
94908KDBQ DBQ20030713164009607/13/03 16:40:31  5-MIN KDBQ 132240Z 22007KT 10SM FEW049 26/16 A3006 950 53 2500 220/07 RMK AO2
94908KDBQ DBQ20030713164510307/13/03 16:45:31  5-MIN KDBQ 132245Z 22009KT 10SM FEW049 SCT075 26/17 A3005 950 55 2500 220/09 RMK AO2
94908KDBQ DBQ20030713165012007/13/03 16:50:31  5-MIN KDBQ 132250Z 22009KT 10SM FEW049 SCT075 26/16 A3006 950 53 2500 220/09 RMK AO2 SLP173 T02610161
94908KDBQ DBQ20030713165511307/13/03 16:55:31  5-MIN KDBQ 132255Z 23006KT 10SM FEW049 26/17 A3005 950 59 2400 230/06 RMK AO2 SLP173 T02560172
94908KDBQ DBQ20030713170009607/13/03 17:00:31  5-MIN KDBQ 132300Z 22008KT 10SM FEW049 26/16 A3005 960 55 2400 220/08 RMK AO2
94908KDBQ DBQ20030713170509607/13/03 17:05:31  5-MIN KDBQ 132305Z 23008KT 10SM FEW049 26/17 A3005 960 57 2400 230/08 RMK AO2
94908KDBQ DBQ20030713171009307/13/03 17:10:31  5-MIN KDBQ 132310Z 22007KT 10SM CLR 25/17 A3005 960 59 2400 220/07 RMK AO2
94908KDBQ DBQ20030713171509307/13/03 17:15:31  5-MIN KDBQ 132315Z 22007KT 10SM CLR 25/17 A3005 960 59 2400 220/07 RMK AO2
94908KDBQ DBQ20030713172009307/13/03 17:20:31  5-MIN KDBQ 132320Z 21007KT 10SM CLR 26/16 A3005 960 55 2400 210/07 RMK AO2
94908KDBQ DBQ20030713172509607/13/03 17:25:31  5-MIN KDBQ 132325Z 22007KT 10SM FEW048 26/17 A3005 960 59 2400 220/07 RMK AO2
94908KDBQ DBQ20030713173010307/13/03 17:30:31  5-MIN KDBQ 132330Z 24007KT 10SM FEW048 SCT065 26/17 A3005 960 59 2400 230/07 RMK AO2
94908KDBQ DBQ20030713173510307/13/03 17:35:31  5-MIN KDBQ 132335Z 23006KT 10SM FEW048 SCT065 24/17 A3005 960 63 2300 230/06 RMK AO2
94908KDBQ DBQ20030713174011007/13/03 17:40:31  5-MIN KDBQ 132340Z 23004KT 10SM FEW048 SCT065 SCT080 24/18 A3005 960 68 2200 230/04 RMK AO2
94908KDBQ DBQ20030713174511007/13/03 17:45:31  5-MIN KDBQ 132345Z 22005KT 10SM FEW048 SCT065 SCT080 25/18 A3005 960 64 2400 220/05 RMK AO2
94908KDBQ DBQ20030713175014507/13/03 17:50:31  5-MIN KDBQ 132350Z 22006KT 10SM SCT048 SCT065 SCT080 25/17 A3005 960 61 2400 220/06 RMK AO2 SLP170 T02500172 10267 20239 58008
94908KDBQ DBQ20030713175513807/13/03 17:55:31  5-MIN KDBQ 132355Z 21007KT 10SM SCT048 SCT070 26/17 A3005 960 59 2400 210/07 RMK AO2 SLP170 T02560172 10267 20239 56007
94908KDBQ DBQ20030713180010307/13/03 18:00:31  5-MIN KDBQ 140000Z 20006KT 10SM FEW046 BKN075 25/17 A3005 960 61 2400 200/06 RMK AO2
94908KDBQ DBQ20030713180510307/13/03 18:05:31  5-MIN KDBQ 140005Z 20006KT 10SM FEW046 BKN075 25/18 A3005 960 64 2400 200/06 RMK AO2
94908KDBQ DBQ20030713181010307/13/03 18:10:31  5-MIN KDBQ 140010Z 21006KT 10SM FEW046 SCT075 25/17 A3005 960 61 2400 210/06 RMK AO2
94908KDBQ DBQ20030713181510307/13/03 18:15:31  5-MIN KDBQ 140015Z 21006KT 10SM FEW046 SCT075 25/17 A3005 960 61 2400 210/06 RMK AO2
94908KDBQ DBQ20030713182009607/13/03 18:20:31  5-MIN KDBQ 140020Z 23006KT 10SM FEW075 24/17 A3005 960 63 2300 230/06 RMK AO2
94908KDBQ DBQ20030713182509607/13/03 18:25:31  5-MIN KDBQ 140025Z 23006KT 10SM FEW080 24/17 A3005 960 63 2300 230/06 RMK AO2
94908KDBQ DBQ20030713183010307/13/03 18:30:31  5-MIN KDBQ 140030Z AUTO 22005KT 10SM CLR 24/17 A3005 960 66 2200 220/05 RMK AO2 TSNO
94908KDBQ DBQ20030713183510307/13/03 18:35:31  5-MIN KDBQ 140035Z AUTO 22004KT 10SM CLR 24/17 A3005 960 63 2300 220/04 RMK AO2 TSNO
94908KDBQ DBQ20030713184010307/13/03 18:40:31  5-MIN KDBQ 140040Z AUTO 22003KT 10SM CLR 24/18 A3005 960 68 2200 220/03 RMK AO2 TSNO
94908KDBQ DBQ20030713184510307/13/03 18:45:31  5-MIN KDBQ 140045Z AUTO 21003KT 10SM CLR 24/18 A3005 960 68 2200 210/03 RMK AO2 TSNO
94908KDBQ DBQ20030713185012007/13/03 18:50:31  5-MIN KDBQ 140050Z AUTO 19003KT 10SM CLR 24/18 A3005 960 68 2200 190/03 RMK AO2 SLP170 T02390178 TSNO
94908KDBQ DBQ20030713185512007/13/03 18:55:31  5-MIN KDBQ 140055Z AUTO 20004KT 10SM CLR 24/18 A3005 960 68 2200 200/04 RMK AO2 SLP170 T02390178 TSNO
94908KDBQ DBQ20030713190010307/13/03 19:00:31  5-MIN KDBQ 140100Z AUTO 20004KT 10SM CLR 23/18 A3005 960 73 2200 200/04 RMK AO2 TSNO
94908KDBQ DBQ20030713190510307/13/03 19:05:31  5-MIN KDBQ 140105Z AUTO 20003KT 10SM CLR 23/18 A3005 960 73 2200 200/03 RMK AO2 TSNO
94908KDBQ DBQ20030713191010307/13/03 19:10:31  5-MIN KDBQ 140110Z AUTO 00000KT 10SM CLR 23/18 A3005 960 76 2100 000/00 RMK AO2 TSNO
94908KDBQ DBQ20030713191510307/13/03 19:15:31  5-MIN KDBQ 140115Z AUTO 19003KT 10SM CLR 23/18 A3005 960 73 2200 190/03 RMK AO2 TSNO
94908KDBQ DBQ20030713192010307/13/03 19:20:31  5-MIN KDBQ 140120Z AUTO 19003KT 10SM CLR 23/18 A3005 960 76 2100 190/03 RMK AO2 TSNO
94908KDBQ DBQ20030713192510307/13/03 19:25:31  5-MIN KDBQ 140125Z AUTO 19003KT 10SM CLR 23/18 A3005 960 76 2100 190/03 RMK AO2 TSNO
94908KDBQ DBQ20030713193010307/13/03 19:30:31  5-MIN KDBQ 140130Z AUTO 19003KT 10SM CLR 22/18 A3005 960 78 2100 180/03 RMK AO2 TSNO
94908KDBQ DBQ20030713193510307/13/03 19:35:31  5-MIN KDBQ 140135Z AUTO 19003KT 10SM CLR 22/18 A3005 960 78 2100 190/03 RMK AO2 TSNO
94908KDBQ DBQ20030713194010307/13/03 19:40:31  5-MIN KDBQ 140140Z AUTO 19003KT 10SM CLR 22/18 A3005 960 81 2000 190/03 RMK AO2 TSNO
94908KDBQ DBQ20030713194510307/13/03 19:45:31  5-MIN KDBQ 140145Z AUTO 19003KT 10SM CLR 22/18 A3005 960 81 2000 180/03 RMK AO2 TSNO
94908KDBQ DBQ20030713195012007/13/03 19:50:31  5-MIN KDBQ 140150Z AUTO 18003KT 10SM CLR 22/18 A3005 960 78 2000 180/03 RMK AO2 SLP169 T02170178 TSNO
94908KDBQ DBQ20030713195512007/13/03 19:55:31  5-MIN KDBQ 140155Z AUTO 17004KT 10SM CLR 21/18 A3005 960 81 1900 170/04 RMK AO2 SLP169 T02110178 TSNO
94908KDBQ DBQ20030713200010307/13/03 20:00:31  5-MIN KDBQ 140200Z AUTO 17003KT 10SM CLR 21/18 A3005 960 81 1900 170/03 RMK AO2 TSNO
94908KDBQ DBQ20030713200510307/13/03 20:05:31  5-MIN KDBQ 140205Z AUTO 00000KT 10SM CLR 21/18 A3005 960 84 1900 000/00 RMK AO2 TSNO
94908KDBQ DBQ20030713201010307/13/03 20:10:31  5-MIN KDBQ 140210Z AUTO 00000KT 10SM CLR 21/17 A3005 960 81 1900 000/00 RMK AO2 TSNO
94908KDBQ DBQ20030713201510307/13/03 20:15:31  5-MIN KDBQ 140215Z AUTO 19003KT 10SM CLR 21/17 A3005 960 81 1900 190/03 RMK AO2 TSNO
94908KDBQ DBQ20030713202010307/13/03 20:20:31  5-MIN KDBQ 140220Z AUTO 19003KT 10SM CLR 21/18 A3005 960 84 1900 190/03 RMK AO2 TSNO
94908KDBQ DBQ20030713202510307/13/03 20:25:31  5-MIN KDBQ 140225Z AUTO 18004KT 10SM CLR 21/18 A3005 960 84 1900 180/04 RMK AO2 TSNO
94908KDBQ DBQ20030713203010307/13/03 20:30:31  5-MIN KDBQ 140230Z AUTO 17004KT 10SM CLR 21/18 A3005 960 84 1900 170/04 RMK AO2 TSNO
94908KDBQ DBQ20030713203510307/13/03 20:35:31  5-MIN KDBQ 140235Z AUTO 16003KT 10SM CLR 20/17 A3005 960 84 1800 160/03 RMK AO2 TSNO
94908KDBQ DBQ20030713204010307/13/03 20:40:31  5-MIN KDBQ 140240Z AUTO 16003KT 10SM CLR 21/17 A3005 960 81 1900 160/03 RMK AO2 TSNO
94908KDBQ DBQ20030713204510307/13/03 20:45:31  5-MIN KDBQ 140245Z AUTO 16003KT 10SM CLR 21/17 A3005 960 81 1900 160/03 RMK AO2 TSNO
94908KDBQ DBQ20030713205012607/13/03 20:50:31  5-MIN KDBQ 140250Z AUTO 00000KT 10SM CLR 20/17 A3006 950 84 1800 000/00 RMK AO2 SLP172 T02000172 56007 TSNO
94908KDBQ DBQ20030713205512607/13/03 20:55:31  5-MIN KDBQ 140255Z AUTO 00000KT 10SM CLR 20/17 A3006 950 84 1800 000/00 RMK AO2 SLP172 T02000172 53002 TSNO
94908KDBQ DBQ20030713210010307/13/03 21:00:31  5-MIN KDBQ 140300Z AUTO 00000KT 10SM CLR 20/17 A3006 950 84 1800 000/00 RMK AO2 TSNO
94908KDBQ DBQ20030713210510307/13/03 21:05:31  5-MIN KDBQ 140305Z AUTO 17003KT 10SM CLR 20/17 A3006 950 84 1800 170/03 RMK AO2 TSNO
94908KDBQ DBQ20030713211010307/13/03 21:10:31  5-MIN KDBQ 140310Z AUTO 18004KT 10SM CLR 20/17 A3006 950 84 1800 180/04 RMK AO2 TSNO
94908KDBQ DBQ20030713211510307/13/03 21:15:31  5-MIN KDBQ 140315Z AUTO 17003KT 10SM CLR 19/17 A3006 950 87 1700 170/03 RMK AO2 TSNO
94908KDBQ DBQ20030713212010307/13/03 21:20:31  5-MIN KDBQ 140320Z AUTO 00000KT 10SM CLR 19/17 A3006 950 87 1700 000/00 RMK AO2 TSNO
94908KDBQ DBQ20030713212510307/13/03 21:25:31  5-MIN KDBQ 140325Z AUTO 15004KT 10SM CLR 19/17 A3006 950 87 1700 150/04 RMK AO2 TSNO
94908KDBQ DBQ20030713213010307/13/03 21:30:31  5-MIN KDBQ 140330Z AUTO 16003KT 10SM CLR 19/17 A3006 950 84 1700 160/03 RMK AO2 TSNO
94908KDBQ DBQ20030713213510307/13/03 21:35:31  5-MIN KDBQ 140335Z AUTO 00000KT 10SM CLR 19/17 A3007 940 84 1700 000/00 RMK AO2 TSNO
94908KDBQ DBQ20030713214010207/13/03 21:40:31  5-MIN KDBQ 140340Z AUTO 00000KT 9SM CLR 19/17 A3006 950 87 1700 000/00 RMK AO2 TSNO
94908KDBQ DBQ20030713214510207/13/03 21:45:31  5-MIN KDBQ 140345Z AUTO 16004KT 9SM CLR 19/17 A3006 950 87 1700 150/04 RMK AO2 TSNO
94908KDBQ DBQ20030713215011907/13/03 21:50:31  5-MIN KDBQ 140350Z AUTO 16005KT 9SM CLR 19/17 A3006 950 84 1700 160/05 RMK AO2 SLP175 T01940167 TSNO
94908KDBQ DBQ20030713215512007/13/03 21:55:31  5-MIN KDBQ 140355Z AUTO VRB03KT 10SM CLR 19/17 A3006 950 87 1700 VRB/03 RMK AO2 SLP176 T01890167 TSNO
94908KDBQ DBQ20030713220010207/13/03 22:00:31  5-MIN KDBQ 140400Z AUTO 18003KT 9SM CLR 19/17 A3006 950 87 1700 180/03 RMK AO2 TSNO
94908KDBQ DBQ20030713220510307/13/03 22:05:31  5-MIN KDBQ 140405Z AUTO 18003KT 10SM CLR 19/17 A3006 950 84 1700 180/03 RMK AO2 TSNO
94908KDBQ DBQ20030713221010307/13/03 22:10:31  5-MIN KDBQ 140410Z AUTO 18004KT 10SM CLR 19/17 A3006 950 84 1700 180/04 RMK AO2 TSNO
94908KDBQ DBQ20030713221510307/13/03 22:15:31  5-MIN KDBQ 140415Z AUTO 19003KT 10SM CLR 19/17 A3006 950 87 1700 180/03 RMK AO2 TSNO
94908KDBQ DBQ20030713222010307/13/03 22:20:31  5-MIN KDBQ 140420Z AUTO 21003KT 10SM CLR 19/17 A3006 950 87 1700 200/03 RMK AO2 TSNO
94908KDBQ DBQ20030713222510207/13/03 22:25:31  5-MIN KDBQ 140425Z AUTO 21003KT 9SM CLR 19/17 A3007 940 87 1700 210/03 RMK AO2 TSNO
94908KDBQ DBQ20030713223010307/13/03 22:30:31  5-MIN KDBQ 140430Z AUTO 19004KT 10SM CLR 19/17 A3007 940 84 1700 190/04 RMK AO2 TSNO
94908KDBQ DBQ20030713223510307/13/03 22:35:31  5-MIN KDBQ 140435Z AUTO 19003KT 10SM CLR 19/17 A3007 940 87 1700 190/03 RMK AO2 TSNO
94908KDBQ DBQ20030713224010307/13/03 22:40:31  5-MIN KDBQ 140440Z AUTO 18004KT 10SM CLR 19/17 A3007 940 87 1700 180/04 RMK AO2 TSNO
94908KDBQ DBQ20030713224510307/13/03 22:45:31  5-MIN KDBQ 140445Z AUTO 18004KT 10SM CLR 19/17 A3007 940 87 1700 180/04 RMK AO2 TSNO
94908KDBQ DBQ20030713225012007/13/03 22:50:31  5-MIN KDBQ 140450Z AUTO 19004KT 10SM CLR 19/17 A3007 940 87 1700 190/04 RMK AO2 SLP176 T01890167 TSNO
94908KDBQ DBQ20030713225512007/13/03 22:55:31  5-MIN KDBQ 140455Z AUTO 19004KT 10SM CLR 19/17 A3007 940 87 1700 190/04 RMK AO2 SLP176 T01890167 TSNO
94908KDBQ DBQ20030713230010307/13/03 23:00:31  5-MIN KDBQ 140500Z AUTO 19003KT 10SM CLR 19/17 A3006 950 87 1700 190/03 RMK AO2 TSNO
94908KDBQ DBQ20030713230510307/13/03 23:05:31  5-MIN KDBQ 140505Z AUTO 20003KT 10SM CLR 18/17 A3007 940 90 1600 200/03 RMK AO2 TSNO
94908KDBQ DBQ20030713231010307/13/03 23:10:31  5-MIN KDBQ 140510Z AUTO 19004KT 10SM CLR 19/17 A3007 940 87 1700 190/04 RMK AO2 TSNO
94908KDBQ DBQ20030713231510307/13/03 23:15:31  5-MIN KDBQ 140515Z AUTO 20004KT 10SM CLR 18/16 A3007 940 87 1600 200/04 RMK AO2 TSNO
94908KDBQ DBQ20030713232010307/13/03 23:20:31  5-MIN KDBQ 140520Z AUTO 20004KT 10SM CLR 18/16 A3007 940 90 1500 200/04 RMK AO2 TSNO
94908KDBQ DBQ20030713232510207/13/03 23:25:31  5-MIN KDBQ 140525Z AUTO 22003KT 9SM CLR 18/16 A3007 940 90 1500 220/03 RMK AO2 TSNO
94908KDBQ DBQ20030713233010207/13/03 23:30:31  5-MIN KDBQ 140530Z AUTO 20004KT 9SM CLR 18/16 A3007 940 90 1500 200/04 RMK AO2 TSNO
94908KDBQ DBQ20030713233510207/13/03 23:35:31  5-MIN KDBQ 140535Z AUTO 19004KT 9SM CLR 18/16 A3007 940 90 1500 190/04 RMK AO2 TSNO
94908KDBQ DBQ20030713234010207/13/03 23:40:31  5-MIN KDBQ 140540Z AUTO 18003KT 9SM CLR 18/16 A3007 940 90 1500 180/03 RMK AO2 TSNO
94908KDBQ DBQ20030713234510207/13/03 23:45:31  5-MIN KDBQ 140545Z AUTO 19003KT 9SM CLR 18/16 A3007 940 87 1600 190/03 RMK AO2 TSNO
94908KDBQ DBQ20030713235014707/13/03 23:50:31  5-MIN KDBQ 140550Z AUTO 19004KT 9SM CLR 18/16 A3007 940 87 1600 190/04 RMK AO2 SLP176 T01830161 10256 20172 402670150 53002 TSNO
94908KDBQ DBQ20030713235514707/13/03 23:55:31  5-MIN KDBQ 140555Z AUTO 20003KT 9SM CLR 18/16 A3007 940 90 1500 200/03 RMK AO2 SLP177 T01780161 10256 20172 402670150 51005 TSNO
94908KDBQ DBQ20030714000010207/14/03 00:00:31  5-MIN KDBQ 140600Z AUTO 20003KT 9SM CLR 18/16 A3007 940 90 1500 190/03 RMK AO2 TSNO
94908KDBQ DBQ20030714000510207/14/03 00:05:31  5-MIN KDBQ 140605Z AUTO 19004KT 9SM CLR 18/16 A3007 940 90 1500 190/04 RMK AO2 TSNO
94908KDBQ DBQ20030714001010207/14/03 00:10:31  5-MIN KDBQ 140610Z AUTO 19004KT 9SM CLR 18/16 A3007 940 90 1500 190/04 RMK AO2 TSNO
94908KDBQ DBQ20030714001510207/14/03 00:15:31  5-MIN KDBQ 140615Z AUTO 20003KT 9SM CLR 17/16 A3007 940 93 1500 200/03 RMK AO2 TSNO
94908KDBQ DBQ20030714002010207/14/03 00:20:31  5-MIN KDBQ 140620Z AUTO 19004KT 9SM CLR 17/16 A3007 940 93 1500 190/04 RMK AO2 TSNO
94908KDBQ DBQ20030714002510207/14/03 00:25:31  5-MIN KDBQ 140625Z AUTO 20004KT 9SM CLR 18/16 A3007 940 90 1500 200/04 RMK AO2 TSNO
94908KDBQ DBQ20030714003010207/14/03 00:30:31  5-MIN KDBQ 140630Z AUTO 20004KT 9SM CLR 17/16 A3006 950 93 1500 200/04 RMK AO2 TSNO
94908KDBQ DBQ20030714003510207/14/03 00:35:31  5-MIN KDBQ 140635Z AUTO 18005KT 8SM CLR 18/16 A3006 950 90 1500 180/05 RMK AO2 TSNO
94908KDBQ DBQ20030714004010207/14/03 00:40:31  5-MIN KDBQ 140640Z AUTO 19004KT 8SM CLR 18/16 A3006 950 90 1500 190/04 RMK AO2 TSNO
94908KDBQ DBQ20030714004510207/14/03 00:45:31  5-MIN KDBQ 140645Z AUTO 19005KT 8SM CLR 18/16 A3006 950 90 1500 190/05 RMK AO2 TSNO
94908KDBQ DBQ20030714005011907/14/03 00:50:31  5-MIN KDBQ 140650Z AUTO 20004KT 8SM CLR 17/16 A3006 950 90 1500 200/04 RMK AO2 SLP172 T01720156 TSNO
94908KDBQ DBQ20030714005511907/14/03 00:55:31  5-MIN KDBQ 140655Z AUTO 20003KT 8SM CLR 17/16 A3006 950 93 1500 200/03 RMK AO2 SLP172 T01720161 TSNO
94908KDBQ DBQ20030714010010207/14/03 01:00:31  5-MIN KDBQ 140700Z AUTO 20004KT 8SM CLR 17/16 A3005 950 93 1500 190/04 RMK AO2 TSNO
94908KDBQ DBQ20030714010510207/14/03 01:05:31  5-MIN KDBQ 140705Z AUTO 22003KT 8SM CLR 17/16 A3006 950 93 1500 220/03 RMK AO2 TSNO
94908KDBQ DBQ20030714011010207/14/03 01:10:31  5-MIN KDBQ 140710Z AUTO 22004KT 8SM CLR 17/16 A3006 950 90 1500 220/04 RMK AO2 TSNO
94908KDBQ DBQ20030714011510207/14/03 01:15:31  5-MIN KDBQ 140715Z AUTO 21004KT 8SM CLR 17/16 A3006 950 90 1500 210/04 RMK AO2 TSNO
94908KDBQ DBQ20030714012010207/14/03 01:20:31  5-MIN KDBQ 140720Z AUTO 20004KT 9SM CLR 18/16 A3006 950 90 1500 200/04 RMK AO2 TSNO
94908KDBQ DBQ20030714012510207/14/03 01:25:31  5-MIN KDBQ 140725Z AUTO 20005KT 9SM CLR 18/16 A3006 950 90 1500 200/05 RMK AO2 TSNO
94908KDBQ DBQ20030714013010307/14/03 01:30:31  5-MIN KDBQ 140730Z AUTO 21005KT 10SM CLR 18/16 A3007 940 87 1500 210/05 RMK AO2 TSNO
94908KDBQ DBQ20030714013510307/14/03 01:35:31  5-MIN KDBQ 140735Z AUTO 20005KT 10SM CLR 17/16 A3007 940 90 1500 200/05 RMK AO2 TSNO
94908KDBQ DBQ20030714014010207/14/03 01:40:31  5-MIN KDBQ 140740Z AUTO 19005KT 9SM CLR 17/16 A3007 940 90 1500 190/05 RMK AO2 TSNO
94908KDBQ DBQ20030714014510207/14/03 01:45:31  5-MIN KDBQ 140745Z AUTO 18004KT 9SM CLR 17/16 A3007 940 90 1500 180/04 RMK AO2 TSNO
94908KDBQ DBQ20030714015011907/14/03 01:50:31  5-MIN KDBQ 140750Z AUTO 18004KT 9SM CLR 17/16 A3007 940 90 1500 180/04 RMK AO2 SLP178 T01720156 TSNO
94908KDBQ DBQ20030714015511907/14/03 01:55:31  5-MIN KDBQ 140755Z AUTO 19004KT 9SM CLR 17/16 A3007 940 90 1500 190/04 RMK AO2 SLP177 T01720156 TSNO
94908KDBQ DBQ20030714020010207/14/03 02:00:31  5-MIN KDBQ 140800Z AUTO 19004KT 8SM CLR 17/16 A3007 940 90 1500 190/04 RMK AO2 TSNO
94908KDBQ DBQ20030714020510207/14/03 02:05:31  5-MIN KDBQ 140805Z AUTO 19004KT 8SM CLR 17/16 A3007 940 90 1500 190/04 RMK AO2 TSNO
94908KDBQ DBQ20030714021010207/14/03 02:10:31  5-MIN KDBQ 140810Z AUTO 18004KT 9SM CLR 17/15 A3006 950 87 1500 180/04 RMK AO2 TSNO
94908KDBQ DBQ20030714021510207/14/03 02:15:31  5-MIN KDBQ 140815Z AUTO 16006KT 8SM CLR 17/16 A3006 950 90 1500 160/06 RMK AO2 TSNO
94908KDBQ DBQ20030714022010207/14/03 02:20:31  5-MIN KDBQ 140820Z AUTO 17006KT 9SM CLR 17/16 A3006 950 90 1500 160/06 RMK AO2 TSNO
94908KDBQ DBQ20030714022510207/14/03 02:25:31  5-MIN KDBQ 140825Z AUTO 17006KT 9SM CLR 18/16 A3006 950 87 1500 160/06 RMK AO2 TSNO
94908KDBQ DBQ20030714023010207/14/03 02:30:31  5-MIN KDBQ 140830Z AUTO 17005KT 9SM CLR 18/16 A3007 940 87 1500 170/05 RMK AO2 TSNO
94908KDBQ DBQ20030714023510207/14/03 02:35:31  5-MIN KDBQ 140835Z AUTO 23003KT 9SM CLR 17/15 A3007 940 90 1400 230/03 RMK AO2 TSNO
94908KDBQ DBQ20030714024010207/14/03 02:40:31  5-MIN KDBQ 140840Z AUTO 20003KT 8SM CLR 17/15 A3007 940 90 1400 200/03 RMK AO2 TSNO
94908KDBQ DBQ20030714024510207/14/03 02:45:31  5-MIN KDBQ 140845Z AUTO 19003KT 9SM CLR 17/15 A3007 940 87 1500 190/03 RMK AO2 TSNO
94908KDBQ DBQ20030714025012507/14/03 02:50:31  5-MIN KDBQ 140850Z AUTO 19004KT 9SM CLR 17/15 A3007 940 90 1400 190/04 RMK AO2 SLP177 T01670150 51005 TSNO
94908KDBQ DBQ20030714025512507/14/03 02:55:31  5-MIN KDBQ 140855Z AUTO 19004KT 9SM CLR 17/15 A3007 940 90 1400 190/04 RMK AO2 SLP177 T01670150 56000 TSNO
94908KDBQ DBQ20030714030010207/14/03 03:00:31  5-MIN KDBQ 140900Z AUTO 20004KT 9SM CLR 17/15 A3007 940 90 1400 200/04 RMK AO2 TSNO
94908KDBQ DBQ20030714030510207/14/03 03:05:31  5-MIN KDBQ 140905Z AUTO 21003KT 8SM CLR 16/14 A3008 930 90 1300 210/03 RMK AO2 TSNO
94908KDBQ DBQ20030714031010207/14/03 03:10:31  5-MIN KDBQ 140910Z AUTO 00000KT 9SM CLR 17/15 A3008 930 90 1400 000/00 RMK AO2 TSNO
94908KDBQ DBQ20030714031510207/14/03 03:15:31  5-MIN KDBQ 140915Z AUTO 20003KT 9SM CLR 17/15 A3008 930 90 1400 200/03 RMK AO2 TSNO
94908KDBQ DBQ20030714032010207/14/03 03:20:31  5-MIN KDBQ 140920Z AUTO 19003KT 9SM CLR 17/15 A3007 940 87 1500 180/03 RMK AO2 TSNO
94908KDBQ DBQ20030714032510207/14/03 03:25:31  5-MIN KDBQ 140925Z AUTO 19004KT 9SM CLR 17/15 A3007 940 87 1500 190/04 RMK AO2 TSNO
94908KDBQ DBQ20030714033010207/14/03 03:30:31  5-MIN KDBQ 140930Z AUTO 18004KT 8SM CLR 17/15 A3007 940 90 1400 180/04 RMK AO2 TSNO
94908KDBQ DBQ20030714033510207/14/03 03:35:31  5-MIN KDBQ 140935Z AUTO 17003KT 8SM CLR 17/15 A3007 940 90 1400 170/03 RMK AO2 TSNO
94908KDBQ DBQ20030714034010207/14/03 03:40:31  5-MIN KDBQ 140940Z AUTO 17004KT 8SM CLR 17/14 A3007 940 86 1400 170/04 RMK AO2 TSNO
94908KDBQ DBQ20030714034510207/14/03 03:45:31  5-MIN KDBQ 140945Z AUTO 19004KT 7SM CLR 16/14 A3007 940 90 1300 180/04 RMK AO2 TSNO
94908KDBQ DBQ20030714035011907/14/03 03:50:31  5-MIN KDBQ 140950Z AUTO 19003KT 8SM CLR 16/14 A3008 930 90 1300 190/03 RMK AO2 SLP181 T01610144 TSNO
94908KDBQ DBQ20030714035511907/14/03 03:55:31  5-MIN KDBQ 140955Z AUTO 20003KT 8SM CLR 16/14 A3008 930 90 1300 200/03 RMK AO2 SLP180 T01610144 TSNO
94908KDBQ DBQ20030714040010207/14/03 04:00:31  5-MIN KDBQ 141000Z AUTO 18003KT 8SM CLR 17/14 A3008 940 86 1400 180/03 RMK AO2 TSNO
94908KDBQ DBQ20030714040510207/14/03 04:05:31  5-MIN KDBQ 141005Z AUTO 18003KT 8SM CLR 16/14 A3007 940 90 1300 170/03 RMK AO2 TSNO
94908KDBQ DBQ20030714041010207/14/03 04:10:31  5-MIN KDBQ 141010Z AUTO 18005KT 8SM CLR 16/14 A3007 940 90 1300 180/05 RMK AO2 TSNO
94908KDBQ DBQ20030714041510207/14/03 04:15:31  5-MIN KDBQ 141015Z AUTO 17004KT 8SM CLR 16/14 A3007 940 90 1300 170/04 RMK AO2 TSNO
94908KDBQ DBQ20030714042010207/14/03 04:20:31  5-MIN KDBQ 141020Z AUTO 18005KT 8SM CLR 16/14 A3007 940 90 1300 180/05 RMK AO2 TSNO
94908KDBQ DBQ20030714042510207/14/03 04:25:31  5-MIN KDBQ 141025Z AUTO 22004KT 7SM CLR 16/14 A3007 940 90 1300 220/04 RMK AO2 TSNO
94908KDBQ DBQ20030714043010507/14/03 04:30:31  5-MIN KDBQ 141030Z AUTO 21004KT 6SM BR CLR 16/14 A3007 940 90 1300 210/04 RMK AO2 TSNO
94908KDBQ DBQ20030714043510507/14/03 04:35:31  5-MIN KDBQ 141035Z AUTO 21004KT 6SM BR CLR 16/14 A3006 950 90 1300 200/04 RMK AO2 TSNO
94908KDBQ DBQ20030714044010507/14/03 04:40:31  5-MIN KDBQ 141040Z AUTO 18004KT 6SM BR CLR 16/14 A3006 950 90 1300 180/04 RMK AO2 TSNO
94908KDBQ DBQ20030714044510507/14/03 04:45:31  5-MIN KDBQ 141045Z AUTO 20004KT 6SM BR CLR 16/14 A3006 950 90 1300 200/04 RMK AO2 TSNO
94908KDBQ DBQ20030714045011207/14/03 04:50:31  5-MIN KDBQ 141050Z 22004KT 6SM BR CLR 15/14 A3006 950 93 1200 220/04 RMK AO2 SLP176 T01500139
94908KDBQ DBQ20030714045510907/14/03 04:55:31  5-MIN KDBQ 141055Z 21003KT 8SM CLR 16/14 A3006 950 90 1300 210/03 RMK AO2 SLP175 T01560139
94908KDBQ DBQ20030714050009507/14/03 05:00:31  5-MIN KDBQ 141100Z 20003KT 5SM BR CLR 16/14 A3006 950 90 1300 200/03 RMK AO2
94908KDBQ DBQ20030714050509507/14/03 05:05:31  5-MIN KDBQ 141105Z 21003KT 6SM BR CLR 16/14 A3006 950 90 1300 210/03 RMK AO2
94908KDBQ DBQ20030714051009507/14/03 05:10:31  5-MIN KDBQ 141110Z 21004KT 6SM BR CLR 16/14 A3006 950 90 1300 210/04 RMK AO2
94908KDBQ DBQ20030714051509507/14/03 05:15:31  5-MIN KDBQ 141115Z 22004KT 6SM BR CLR 16/14 A3006 950 90 1300 210/04 RMK AO2
94908KDBQ DBQ20030714052009507/14/03 05:20:31  5-MIN KDBQ 141120Z 20004KT 6SM BR CLR 16/14 A3006 950 93 1300 190/04 RMK AO2
94908KDBQ DBQ20030714052509507/14/03 05:25:31  5-MIN KDBQ 141125Z 18004KT 6SM BR CLR 17/14 A3006 950 86 1400 180/04 RMK AO2
94908KDBQ DBQ20030714053009207/14/03 05:30:31  5-MIN KDBQ 141130Z 18005KT 7SM CLR 17/14 A3006 950 86 1400 180/05 RMK AO2
94908KDBQ DBQ20030714053509207/14/03 05:35:31  5-MIN KDBQ 141135Z 18005KT 7SM CLR 17/15 A3006 950 90 1400 180/05 RMK AO2
94908KDBQ DBQ20030714054009207/14/03 05:40:31  5-MIN KDBQ 141140Z 16007KT 8SM CLR 17/15 A3006 950 87 1500 160/07 RMK AO2
94908KDBQ DBQ20030714054509207/14/03 05:45:31  5-MIN KDBQ 141145Z 15008KT 8SM CLR 17/15 A3006 950 87 1500 150/08 RMK AO2
94908KDBQ DBQ20030714055012707/14/03 05:50:31  5-MIN KDBQ 141150Z 16008KT 8SM CLR 17/15 A3006 950 87 1500 160/08 RMK AO2 SLP175 T01720150 10178 20150 56000
94908KDBQ DBQ20030714055512707/14/03 05:55:31  5-MIN KDBQ 141155Z 16007KT 8SM CLR 17/15 A3006 950 87 1500 160/07 RMK AO2 SLP175 T01720150 10178 20150 58002
94908KDBQ DBQ20030714060009207/14/03 06:00:31  5-MIN KDBQ 141200Z 17007KT 9SM CLR 18/15 A3007 940 83 1500 160/07 RMK AO2
94908KDBQ DBQ20030714060509207/14/03 06:05:31  5-MIN KDBQ 141205Z 17007KT 9SM CLR 18/15 A3007 940 83 1500 170/07 RMK AO2
94908KDBQ DBQ20030714061009207/14/03 06:10:31  5-MIN KDBQ 141210Z 17007KT 9SM CLR 18/15 A3007 940 83 1500 170/07 RMK AO2
94908KDBQ DBQ20030714061509207/14/03 06:15:31  5-MIN KDBQ 141215Z 17008KT 9SM CLR 18/15 A3007 940 83 1500 170/08 RMK AO2
94908KDBQ DBQ20030714062009207/14/03 06:20:31  5-MIN KDBQ 141220Z 17008KT 9SM CLR 18/15 A3007 940 81 1600 170/08 RMK AO2
94908KDBQ DBQ20030714062509207/14/03 06:25:31  5-MIN KDBQ 141225Z 17009KT 9SM CLR 18/15 A3006 950 81 1600 170/09 RMK AO2
94908KDBQ DBQ20030714063009307/14/03 06:30:31  5-MIN KDBQ 141230Z 17008KT 10SM CLR 18/16 A3006 950 84 1600 160/08 RMK AO2
94908KDBQ DBQ20030714063509307/14/03 06:35:31  5-MIN KDBQ 141235Z 16008KT 10SM CLR 18/16 A3006 950 84 1600 160/08 RMK AO2
94908KDBQ DBQ20030714064009307/14/03 06:40:31  5-MIN KDBQ 141240Z 17009KT 10SM CLR 19/16 A3007 940 81 1700 170/09 RMK AO2
94908KDBQ DBQ20030714064509307/14/03 06:45:31  5-MIN KDBQ 141245Z 17008KT 10SM CLR 19/16 A3007 940 81 1700 170/08 RMK AO2
94908KDBQ DBQ20030714065011007/14/03 06:50:31  5-MIN KDBQ 141250Z 18007KT 10SM CLR 19/16 A3007 940 81 1700 180/07 RMK AO2 SLP177 T01890156
94908KDBQ DBQ20030714065511007/14/03 06:55:31  5-MIN KDBQ 141255Z 18008KT 10SM CLR 19/16 A3007 940 81 1700 180/08 RMK AO2 SLP177 T01890156
94908KDBQ DBQ20030714070009307/14/03 07:00:31  5-MIN KDBQ 141300Z 18007KT 10SM CLR 19/16 A3007 940 78 1700 170/07 RMK AO2
94908KDBQ DBQ20030714070509307/14/03 07:05:31  5-MIN KDBQ 141305Z 17006KT 10SM CLR 19/16 A3007 940 78 1700 170/06 RMK AO2
94908KDBQ DBQ20030714071009307/14/03 07:10:31  5-MIN KDBQ 141310Z 18009KT 10SM CLR 19/16 A3007 940 78 1700 180/09 RMK AO2
94908KDBQ DBQ20030714071509307/14/03 07:15:31  5-MIN KDBQ 141315Z 19007KT 10SM CLR 19/16 A3008 930 78 1700 190/07 RMK AO2
94908KDBQ DBQ20030714072009307/14/03 07:20:31  5-MIN KDBQ 141320Z 19007KT 10SM CLR 20/16 A3008 930 75 1800 190/07 RMK AO2
94908KDBQ DBQ20030714072509307/14/03 07:25:31  5-MIN KDBQ 141325Z 20006KT 10SM CLR 20/16 A3008 930 75 1800 200/06 RMK AO2
94908KDBQ DBQ20030714073009307/14/03 07:30:31  5-MIN KDBQ 141330Z 19008KT 10SM CLR 20/16 A3008 930 78 1800 190/08 RMK AO2
94908KDBQ DBQ20030714073509307/14/03 07:35:31  5-MIN KDBQ 141335Z 19009KT 10SM CLR 21/16 A3008 930 73 1800 190/09 RMK AO2
94908KDBQ DBQ20030714074009307/14/03 07:40:31  5-MIN KDBQ 141340Z 18010KT 10SM CLR 21/16 A3007 940 73 1800 180/10 RMK AO2
94908KDBQ DBQ20030714074510007/14/03 07:45:31  5-MIN KDBQ 141345Z 16012KT 10SM CLR 21/16 A3005 960 73 1900 160/12 RMK AO2 PRESFR
94908KDBQ DBQ20030714075011707/14/03 07:50:31  5-MIN KDBQ 141350Z 16013KT 10SM CLR 21/16 A3003 970 70 1900 160/13 RMK AO2 PRESFR SLP165 T02110156
94908KDBQ DBQ20030714075511707/14/03 07:55:31  5-MIN KDBQ 141355Z 16012KT 10SM CLR 21/16 A3003 980 70 2000 160/12 RMK AO2 PRESFR SLP164 T02110156
94908KDBQ DBQ20030714080009307/14/03 08:00:31  5-MIN KDBQ 141400Z 16011KT 10SM CLR 22/16 A3003 970 70 2000 160/11 RMK AO2
94908KDBQ DBQ20030714080509307/14/03 08:05:31  5-MIN KDBQ 141405Z 17010KT 10SM CLR 22/16 A3004 970 70 2000 170/10 RMK AO2
94908KDBQ DBQ20030714081009307/14/03 08:10:31  5-MIN KDBQ 141410Z 17015KT 10SM CLR 22/16 A3003 980 70 2000 170/15 RMK AO2
94908KDBQ DBQ20030714081509907/14/03 08:15:31  5-MIN KDBQ 141415Z 17013G18KT 10SM CLR 22/16 A3003 970 68 2000 170/13G18 RMK AO2
94908KDBQ DBQ20030714082009907/14/03 08:20:31  5-MIN KDBQ 141420Z 17012G18KT 10SM CLR 22/16 A3004 970 65 2100 170/12G18 RMK AO2
94908KDBQ DBQ20030714082509307/14/03 08:25:31  5-MIN KDBQ 141425Z 16012KT 10SM CLR 22/16 A3004 970 65 2100 160/12 RMK AO2
94908KDBQ DBQ20030714083009307/14/03 08:30:31  5-MIN KDBQ 141430Z 16012KT 10SM CLR 22/16 A3004 970 68 2100 160/12 RMK AO2
94908KDBQ DBQ20030714083509307/14/03 08:35:31  5-MIN KDBQ 141435Z 18011KT 10SM CLR 22/16 A3004 970 68 2100 170/11 RMK AO2
94908KDBQ DBQ20030714084009307/14/03 08:40:31  5-MIN KDBQ 141440Z 17012KT 10SM CLR 23/16 A3003 980 65 2100 170/12 RMK AO2
94908KDBQ DBQ20030714084509307/14/03 08:45:31  5-MIN KDBQ 141445Z 17011KT 10SM CLR 23/16 A3003 980 65 2100 170/11 RMK AO2
94908KDBQ DBQ20030714085012207/14/03 08:50:31  5-MIN KDBQ 141450Z 17011G17KT 10SM CLR 23/16 A3003 980 65 2100 170/11G17 RMK AO2 SLP164 T02280161 58002
94908KDBQ DBQ20030714085511607/14/03 08:55:31  5-MIN KDBQ 141455Z 19011KT 10SM CLR 23/17 A3003 970 66 2200 180/11 RMK AO2 SLP165 T02330167 55009
94908KDBQ DBQ20030714090009907/14/03 09:00:31  5-MIN KDBQ 141500Z 17014G19KT 10SM CLR 23/16 A3004 970 63 2100 160/14G19 RMK AO2
94908KDBQ DBQ20030714090509907/14/03 09:05:31  5-MIN KDBQ 141505Z 17014G19KT 10SM CLR 22/15 A3004 970 63 2100 170/14G19 RMK AO2
94908KDBQ DBQ20030714091009307/14/03 09:10:31  5-MIN KDBQ 141510Z 18011KT 10SM CLR 23/16 A3004 970 63 2200 170/11 RMK AO2
94908KDBQ DBQ20030714091509307/14/03 09:15:31  5-MIN KDBQ 141515Z 19012KT 10SM CLR 23/17 A3005 960 66 2200 190/12 RMK AO2
94908KDBQ DBQ20030714092009307/14/03 09:20:31  5-MIN KDBQ 141520Z 19013KT 10SM CLR 23/17 A3004 970 66 2200 190/13 RMK AO2
94908KDBQ DBQ20030714092509307/14/03 09:25:31  5-MIN KDBQ 141525Z 18012KT 10SM CLR 24/17 A3004 970 63 2300 180/12 RMK AO2
94908KDBQ DBQ20030714093009307/14/03 09:30:31  5-MIN KDBQ 141530Z 19014KT 10SM CLR 24/17 A3004 960 63 2300 190/14 RMK AO2
94908KDBQ DBQ20030714093509307/14/03 09:35:31  5-MIN KDBQ 141535Z 19015KT 10SM CLR 24/16 A3005 960 61 2200 190/15 RMK AO2
94908KDBQ DBQ20030714094009307/14/03 09:40:31  5-MIN KDBQ 141540Z 18013KT 10SM CLR 24/17 A3005 960 63 2200 180/13 RMK AO2
94908KDBQ DBQ20030714094509307/14/03 09:45:31  5-MIN KDBQ 141545Z 18014KT 10SM CLR 24/16 A3005 960 61 2200 180/14 RMK AO2
94908KDBQ DBQ20030714095011007/14/03 09:50:31  5-MIN KDBQ 141550Z 18012KT 10SM CLR 24/16 A3006 950 61 2200 180/12 RMK AO2 SLP174 T02390161
94908KDBQ DBQ20030714095511007/14/03 09:55:31  5-MIN KDBQ 141555Z 19012KT 10SM CLR 24/17 A3007 940 63 2200 190/12 RMK AO2 SLP176 T02390167
94908KDBQ DBQ20030714100010007/14/03 10:00:31  5-MIN KDBQ 141600Z 20015KT 10SM CLR 24/16 A3008 930 59 2300 200/15 RMK AO2 PRESRR
94908KDBQ DBQ20030714100509307/14/03 10:05:31  5-MIN KDBQ 141605Z 19014KT 10SM CLR 24/16 A3007 940 59 2300 190/14 RMK AO2
94908KDBQ DBQ20030714101009307/14/03 10:10:31  5-MIN KDBQ 141610Z 18013KT 10SM CLR 24/16 A3008 930 59 2300 180/13 RMK AO2
94908KDBQ DBQ20030714101509307/14/03 10:15:31  5-MIN KDBQ 141615Z 19009KT 10SM CLR 24/17 A3008 930 61 2300 180/09 RMK AO2
94908KDBQ DBQ20030714102009307/14/03 10:20:31  5-MIN KDBQ 141620Z 19013KT 10SM CLR 24/17 A3007 940 61 2300 190/13 RMK AO2
94908KDBQ DBQ20030714102509307/14/03 10:25:31  5-MIN KDBQ 141625Z 18011KT 10SM CLR 24/16 A3006 950 59 2300 180/11 RMK AO2
94908KDBQ DBQ20030714103009307/14/03 10:30:31  5-MIN KDBQ 141630Z 19014KT 10SM CLR 24/16 A3006 950 59 2300 190/14 RMK AO2
94908KDBQ DBQ20030714103509307/14/03 10:35:31  5-MIN KDBQ 141635Z 18012KT 10SM CLR 24/16 A3006 950 59 2300 180/12 RMK AO2
94908KDBQ DBQ20030714104009307/14/03 10:40:31  5-MIN KDBQ 141640Z 19011KT 10SM CLR 25/16 A3005 960 57 2400 190/11 RMK AO2
94908KDBQ DBQ20030714104510007/14/03 10:45:31  5-MIN KDBQ 141645Z 17012KT 10SM CLR 24/16 A3004 970 59 2300 170/12 RMK AO2 PRESFR
94908KDBQ DBQ20030714105011707/14/03 10:50:31  5-MIN KDBQ 141650Z 16017KT 10SM CLR 24/16 A3003 980 57 2300 160/17 RMK AO2 PRESFR SLP162 T02440156
94908KDBQ DBQ20030714105511607/14/03 10:55:31  5-MIN KDBQ 141655Z 16012G20KT 10SM CLR 24/16 A3003 980 57 2300 160/12G20 RMK AO2 SLP163 T02440156
94908KDBQ DBQ20030714110009907/14/03 11:00:31  5-MIN KDBQ 141700Z 17014G20KT 10SM CLR 24/16 A3002 980 57 2300 170/14G20 RMK AO2
94908KDBQ DBQ20030714110509907/14/03 11:05:31  5-MIN KDBQ 141705Z 17015G19KT 10SM CLR 25/16 A3003 980 55 2400 170/15G19 RMK AO2
94908KDBQ DBQ20030714111009307/14/03 11:10:31  5-MIN KDBQ 141710Z 16013KT 10SM CLR 25/16 A3003 980 57 2400 160/13 RMK AO2
94908KDBQ DBQ20030714111509307/14/03 11:15:31  5-MIN KDBQ 141715Z 16013KT 10SM CLR 25/16 A3004 970 57 2400 160/13 RMK AO2
94908KDBQ DBQ20030714112010007/14/03 11:20:31  5-MIN KDBQ 141720Z 17013KT 10SM CLR 25/16 A3005 960 55 2400 170/13 RMK AO2 PRESRR
94908KDBQ DBQ20030714112510007/14/03 11:25:31  5-MIN KDBQ 141725Z 17013KT 10SM CLR 25/16 A3006 950 55 2400 160/13 RMK AO2 PRESRR
94908KDBQ DBQ20030714113010007/14/03 11:30:31  5-MIN KDBQ 141730Z 19009KT 10SM CLR 25/16 A3007 940 57 2400 190/09 RMK AO2 PRESRR
94908KDBQ DBQ20030714113509307/14/03 11:35:31  5-MIN KDBQ 141735Z 20013KT 10SM CLR 26/16 A3007 940 53 2400 200/13 RMK AO2
94908KDBQ DBQ20030714114009307/14/03 11:40:31  5-MIN KDBQ 141740Z 18009KT 10SM CLR 25/16 A3007 940 55 2300 180/09 RMK AO2
94908KDBQ DBQ20030714114509907/14/03 11:45:31  5-MIN KDBQ 141745Z 18010G16KT 10SM CLR 26/16 A3006 950 53 2400 180/10G16 RMK AO2
94908KDBQ DBQ20030714115012807/14/03 11:50:31  5-MIN KDBQ 141750Z 18010KT 10SM CLR 26/16 A3007 940 55 2400 180/10 RMK AO2 SLP175 T02560161 10256 20178 55009
94908KDBQ DBQ20030714115512807/14/03 11:55:31  5-MIN KDBQ 141755Z 19013KT 10SM CLR 26/16 A3006 950 55 2400 190/13 RMK AO2 SLP175 T02560161 10261 20178 53009
94908KDBQ DBQ20030714120009907/14/03 12:00:31  5-MIN KDBQ 141800Z 17010G15KT 10SM CLR 26/16 A3006 950 53 2400 170/10G15 RMK AO2
94908KDBQ DBQ20030714120509307/14/03 12:05:31  5-MIN KDBQ 141805Z 18011KT 10SM CLR 26/16 A3006 950 53 2400 180/11 RMK AO2
94908KDBQ DBQ20030714121009307/14/03 12:10:31  5-MIN KDBQ 141810Z 17010KT 10SM CLR 26/16 A3006 950 53 2400 170/10 RMK AO2
94908KDBQ DBQ20030714121509307/14/03 12:15:31  5-MIN KDBQ 141815Z 18010KT 10SM CLR 26/16 A3005 950 53 2400 180/10 RMK AO2
94908KDBQ DBQ20030714122009307/14/03 12:20:31  5-MIN KDBQ 141820Z 18011KT 10SM CLR 26/16 A3005 960 53 2400 180/11 RMK AO2
94908KDBQ DBQ20030714122509307/14/03 12:25:31  5-MIN KDBQ 141825Z 16012KT 10SM CLR 26/16 A3006 950 53 2400 160/12 RMK AO2
94908KDBQ DBQ20030714123009307/14/03 12:30:31  5-MIN KDBQ 141830Z 19009KT 10SM CLR 26/16 A3005 960 55 2400 190/09 RMK AO2
94908KDBQ DBQ20030714123509307/14/03 12:35:31  5-MIN KDBQ 141835Z 16010KT 10SM CLR 26/16 A3005 960 53 2400 160/10 RMK AO2
94908KDBQ DBQ20030714124009307/14/03 12:40:31  5-MIN KDBQ 141840Z 17011KT 10SM CLR 26/16 A3005 960 53 2400 170/11 RMK AO2
94908KDBQ DBQ20030714124509307/14/03 12:45:31  5-MIN KDBQ 141845Z 17009KT 10SM CLR 26/15 A3004 970 51 2400 170/09 RMK AO2
94908KDBQ DBQ20030714125011007/14/03 12:50:31  5-MIN KDBQ 141850Z 17012KT 10SM CLR 26/16 A3004 970 53 2400 170/12 RMK AO2 SLP167 T02560156
94908KDBQ DBQ20030714125511007/14/03 12:55:31  5-MIN KDBQ 141855Z 17009KT 10SM CLR 26/16 A3004 970 55 2400 170/09 RMK AO2 SLP166 T02560161
94908KDBQ DBQ20030714130009307/14/03 13:00:31  5-MIN KDBQ 141900Z 17009KT 10SM CLR 26/16 A3004 970 55 2400 170/09 RMK AO2
94908KDBQ DBQ20030714130509307/14/03 13:05:31  5-MIN KDBQ 141905Z 15010KT 10SM CLR 26/16 A3003 980 55 2500 150/10 RMK AO2
94908KDBQ DBQ20030714131009307/14/03 13:10:31  5-MIN KDBQ 141910Z 15011KT 10SM CLR 26/16 A3003 970 53 2500 150/11 RMK AO2
94908KDBQ DBQ20030714131509307/14/03 13:15:31  5-MIN KDBQ 141915Z 16011KT 10SM CLR 26/16 A3003 980 53 2500 150/11 RMK AO2
94908KDBQ DBQ20030714132009307/14/03 13:20:31  5-MIN KDBQ 141920Z 16008KT 10SM CLR 26/16 A3003 980 55 2500 160/08 RMK AO2
94908KDBQ DBQ20030714132509307/14/03 13:25:31  5-MIN KDBQ 141925Z 16011KT 10SM CLR 26/16 A3002 980 55 2500 160/11 RMK AO2
94908KDBQ DBQ20030714133009307/14/03 13:30:31  5-MIN KDBQ 141930Z 16011KT 10SM CLR 25/16 A3002 990 55 2400 160/11 RMK AO2
94908KDBQ DBQ20030714133509407/14/03 13:35:31  5-MIN KDBQ 141935Z 16013KT 10SM CLR 25/16 A3001 1000 57 2400 160/13 RMK AO2
94908KDBQ DBQ20030714134010107/14/03 13:40:31  5-MIN KDBQ 141940Z 15011KT 10SM CLR 25/16 A3000 1010 57 2400 150/11 RMK AO2 PRESFR
94908KDBQ DBQ20030714134509407/14/03 13:45:31  5-MIN KDBQ 141945Z 15011KT 10SM CLR 25/16 A2999 1010 57 2400 150/11 RMK AO2
94908KDBQ DBQ20030714135011107/14/03 13:50:31  5-MIN KDBQ 141950Z 16009KT 10SM CLR 26/17 A3000 1000 57 2500 160/09 RMK AO2 SLP154 T02560167
94908KDBQ DBQ20030714135511107/14/03 13:55:31  5-MIN KDBQ 141955Z 15013KT 10SM CLR 26/17 A3000 1000 57 2500 150/13 RMK AO2 SLP153 T02560167
94908KDBQ DBQ20030714140009407/14/03 14:00:31  5-MIN KDBQ 142000Z 16010KT 10SM CLR 26/17 A3000 1010 57 2500 160/10 RMK AO2
94908KDBQ DBQ20030714140509407/14/03 14:05:31  5-MIN KDBQ 142005Z 16014KT 10SM CLR 26/16 A2998 1020 55 2500 160/14 RMK AO2
94908KDBQ DBQ20030714141009407/14/03 14:10:31  5-MIN KDBQ 142010Z 15013KT 10SM CLR 26/17 A2998 1030 57 2500 150/13 RMK AO2
94908KDBQ DBQ20030714141510007/14/03 14:15:31  5-MIN KDBQ 142015Z 15014G18KT 10SM CLR 26/17 A2999 1020 57 2500 140/14G18 RMK AO2
94908KDBQ DBQ20030714142010007/14/03 14:20:31  5-MIN KDBQ 142020Z 15012G19KT 10SM CLR 26/16 A2999 1010 55 2500 150/12G19 RMK AO2
94908KDBQ DBQ20030714142510007/14/03 14:25:31  5-MIN KDBQ 142025Z 15012G19KT 10SM CLR 26/17 A2999 1020 55 2600 140/12G19 RMK AO2
94908KDBQ DBQ20030714143010007/14/03 14:30:31  5-MIN KDBQ 142030Z 14015G18KT 10SM CLR 26/17 A2999 1020 55 2600 140/15G18 RMK AO2
94908KDBQ DBQ20030714143510007/14/03 14:35:31  5-MIN KDBQ 142035Z 15012G18KT 10SM CLR 26/16 A2999 1020 53 2600 150/12G18 RMK AO2
94908KDBQ DBQ20030714144009407/14/03 14:40:31  5-MIN KDBQ 142040Z 16013KT 10SM CLR 26/17 A2998 1030 55 2600 150/13 RMK AO2
94908KDBQ DBQ20030714144509407/14/03 14:45:31  5-MIN KDBQ 142045Z 14014KT 10SM CLR 26/17 A2997 1030 55 2600 140/14 RMK AO2
94908KDBQ DBQ20030714145012407/14/03 14:50:31  5-MIN KDBQ 142050Z 14014KT 10SM CLR 26/17 A2996 1040 55 2600 140/14 RMK AO2 PRESFR SLP140 T02610167 53009
94908KDBQ DBQ20030714145511707/14/03 14:55:31  5-MIN KDBQ 142055Z 14016KT 10SM CLR 26/17 A2996 1040 57 2500 140/16 RMK AO2 SLP142 T02560167 58033
94908KDBQ DBQ20030714150009407/14/03 15:00:31  5-MIN KDBQ 142100Z 14017KT 10SM CLR 26/16 A2996 1040 55 2500 140/17 RMK AO2
94908KDBQ DBQ20030714150509407/14/03 15:05:31  5-MIN KDBQ 142105Z 15013KT 10SM CLR 26/16 A2996 1040 55 2500 140/13 RMK AO2
94908KDBQ DBQ20030714151010007/14/03 15:10:31  5-MIN KDBQ 142110Z 14014G21KT 10SM CLR 26/16 A2996 1040 55 2500 140/14G21 RMK AO2
94908KDBQ DBQ20030714151510007/14/03 15:15:31  5-MIN KDBQ 142115Z 14011G21KT 10SM CLR 26/16 A2998 1020 55 2500 140/11G21 RMK AO2
94908KDBQ DBQ20030714152010007/14/03 15:20:31  5-MIN KDBQ 142120Z 16011G18KT 10SM CLR 26/16 A2998 1020 53 2600 160/11G18 RMK AO2
94908KDBQ DBQ20030714152510007/14/03 15:25:31  5-MIN KDBQ 142125Z 15014G18KT 10SM CLR 26/16 A2998 1030 53 2600 150/14G18 RMK AO2
94908KDBQ DBQ20030714153010007/14/03 15:30:31  5-MIN KDBQ 142130Z 16014G18KT 10SM CLR 26/17 A2999 1020 55 2600 160/14G18 RMK AO2
94908KDBQ DBQ20030714153510007/14/03 15:35:31  5-MIN KDBQ 142135Z 17011G18KT 10SM CLR 26/17 A3000 1010 55 2600 170/11G18 RMK AO2
94908KDBQ DBQ20030714154010007/14/03 15:40:31  5-MIN KDBQ 142140Z 18013G17KT 10SM CLR 26/17 A2999 1010 57 2600 180/13G17 RMK AO2
94908KDBQ DBQ20030714154510007/14/03 15:45:31  5-MIN KDBQ 142145Z 18014G17KT 10SM CLR 26/16 A2999 1010 53 2600 170/14G17 RMK AO2
94908KDBQ DBQ20030714155011107/14/03 15:50:31  5-MIN KDBQ 142150Z 16013KT 10SM CLR 26/16 A2999 1020 53 2600 160/13 RMK AO2 SLP149 T02610161
94908KDBQ DBQ20030714155511107/14/03 15:55:31  5-MIN KDBQ 142155Z 16011KT 10SM CLR 26/17 A2998 1020 55 2600 160/11 RMK AO2 SLP147 T02610167
94908KDBQ DBQ20030714160009407/14/03 16:00:31  5-MIN KDBQ 142200Z 16013KT 10SM CLR 26/17 A2998 1030 55 2600 160/13 RMK AO2
94908KDBQ DBQ20030714160509407/14/03 16:05:31  5-MIN KDBQ 142205Z 16012KT 10SM CLR 26/17 A2998 1020 55 2600 160/12 RMK AO2
94908KDBQ DBQ20030714161009407/14/03 16:10:31  5-MIN KDBQ 142210Z 17012KT 10SM CLR 26/17 A2997 1030 57 2500 170/12 RMK AO2
94908KDBQ DBQ20030714161509407/14/03 16:15:31  5-MIN KDBQ 142215Z 18013KT 10SM CLR 26/17 A2998 1020 57 2500 170/13 RMK AO2
94908KDBQ DBQ20030714162009407/14/03 16:20:31  5-MIN KDBQ 142220Z 17014KT 10SM CLR 26/17 A2998 1030 57 2500 170/14 RMK AO2
94908KDBQ DBQ20030714162510007/14/03 16:25:31  5-MIN KDBQ 142225Z 17014G19KT 10SM CLR 26/16 A2998 1020 53 2600 170/14G19 RMK AO2
94908KDBQ DBQ20030714163010007/14/03 16:30:31  5-MIN KDBQ 142230Z 17014G19KT 10SM CLR 26/16 A2998 1020 55 2500 170/14G19 RMK AO2
94908KDBQ DBQ20030714163509407/14/03 16:35:31  5-MIN KDBQ 142235Z 17014KT 10SM CLR 26/16 A2998 1020 55 2500 170/14 RMK AO2
94908KDBQ DBQ20030714164009407/14/03 16:40:31  5-MIN KDBQ 142240Z 17012KT 10SM CLR 26/16 A2998 1020 55 2500 170/12 RMK AO2
94908KDBQ DBQ20030714164509407/14/03 16:45:31  5-MIN KDBQ 142245Z 17011KT 10SM CLR 26/17 A2998 1020 57 2500 170/11 RMK AO2
94908KDBQ DBQ20030714165011107/14/03 16:50:31  5-MIN KDBQ 142250Z 17013KT 10SM CLR 26/17 A2998 1020 57 2500 170/13 RMK AO2 SLP147 T02560167
94908KDBQ DBQ20030714165511107/14/03 16:55:31  5-MIN KDBQ 142255Z 17013KT 10SM CLR 26/17 A2997 1030 57 2500 170/13 RMK AO2 SLP145 T02560167
94908KDBQ DBQ20030714170009407/14/03 17:00:31  5-MIN KDBQ 142300Z 18012KT 10SM CLR 26/17 A2997 1030 57 2500 180/12 RMK AO2
94908KDBQ DBQ20030714170509407/14/03 17:05:31  5-MIN KDBQ 142305Z 18011KT 10SM CLR 26/17 A2997 1030 57 2500 180/11 RMK AO2
94908KDBQ DBQ20030714171009407/14/03 17:10:31  5-MIN KDBQ 142310Z 17011KT 10SM CLR 26/17 A2997 1030 57 2500 170/11 RMK AO2
94908KDBQ DBQ20030714171510007/14/03 17:15:31  5-MIN KDBQ 142315Z 16012G17KT 10SM CLR 26/17 A2996 1040 57 2500 160/12G17 RMK AO2
94908KDBQ DBQ20030714172009407/14/03 17:20:31  5-MIN KDBQ 142320Z 17013KT 10SM CLR 26/17 A2996 1040 59 2500 170/13 RMK AO2
94908KDBQ DBQ20030714172509407/14/03 17:25:31  5-MIN KDBQ 142325Z 16011KT 10SM CLR 26/17 A2996 1050 57 2500 160/11 RMK AO2
94908KDBQ DBQ20030714173009407/14/03 17:30:31  5-MIN KDBQ 142330Z 16014KT 10SM CLR 25/17 A2996 1050 59 2500 160/14 RMK AO2
94908KDBQ DBQ20030714173509407/14/03 17:35:31  5-MIN KDBQ 142335Z 16013KT 10SM CLR 25/17 A2995 1050 59 2500 160/13 RMK AO2
94908KDBQ DBQ20030714174009407/14/03 17:40:31  5-MIN KDBQ 142340Z 16011KT 10SM CLR 25/17 A2995 1050 61 2500 160/11 RMK AO2
94908KDBQ DBQ20030714174510007/14/03 17:45:31  5-MIN KDBQ 142345Z 16013G18KT 10SM CLR 25/17 A2995 1050 61 2500 160/13G18 RMK AO2
94908KDBQ DBQ20030714175012907/14/03 17:50:31  5-MIN KDBQ 142350Z 16012KT 10SM CLR 25/17 A2995 1050 59 2500 160/12 RMK AO2 SLP137 T02500167 10261 20250 58033
94908KDBQ DBQ20030714175512907/14/03 17:55:31  5-MIN KDBQ 142355Z 16011KT 10SM CLR 24/17 A2995 1050 61 2400 160/11 RMK AO2 SLP137 T02440167 10261 20244 58004
94908KDBQ DBQ20030714180009407/14/03 18:00:31  5-MIN KDBQ 150000Z 16010KT 10SM CLR 24/17 A2995 1050 63 2400 160/10 RMK AO2
94908KDBQ DBQ20030714180509407/14/03 18:05:31  5-MIN KDBQ 150005Z 16008KT 10SM CLR 24/17 A2995 1050 66 2400 160/08 RMK AO2
94908KDBQ DBQ20030714181009407/14/03 18:10:31  5-MIN KDBQ 150010Z 16009KT 10SM CLR 24/17 A2995 1050 66 2400 160/09 RMK AO2
94908KDBQ DBQ20030714181509407/14/03 18:15:31  5-MIN KDBQ 150015Z 16009KT 10SM CLR 24/17 A2995 1060 66 2400 160/09 RMK AO2
94908KDBQ DBQ20030714182009407/14/03 18:20:31  5-MIN KDBQ 150020Z 16009KT 10SM CLR 24/17 A2994 1060 66 2400 160/09 RMK AO2
94908KDBQ DBQ20030714182509407/14/03 18:25:31  5-MIN KDBQ 150025Z 15010KT 10SM CLR 24/17 A2994 1060 66 2400 150/10 RMK AO2
94908KDBQ DBQ20030714183010407/14/03 18:30:31  5-MIN KDBQ 150030Z AUTO 15010KT 10SM CLR 24/18 A2993 1070 66 2400 150/10 RMK AO2 TSNO
94908KDBQ DBQ20030714183510407/14/03 18:35:31  5-MIN KDBQ 150035Z AUTO 15011KT 10SM CLR 24/17 A2993 1070 66 2400 150/11 RMK AO2 TSNO
94908KDBQ DBQ20030714184010407/14/03 18:40:31  5-MIN KDBQ 150040Z AUTO 15012KT 10SM CLR 24/17 A2993 1070 66 2400 150/12 RMK AO2 TSNO
94908KDBQ DBQ20030714184510407/14/03 18:45:31  5-MIN KDBQ 150045Z AUTO 15009KT 10SM CLR 24/17 A2992 1070 66 2400 150/09 RMK AO2 TSNO
94908KDBQ DBQ20030714185012107/14/03 18:50:31  5-MIN KDBQ 150050Z AUTO 15009KT 10SM CLR 23/17 A2992 1080 68 2300 150/09 RMK AO2 SLP128 T02330172 TSNO
94908KDBQ DBQ20030714185512107/14/03 18:55:31  5-MIN KDBQ 150055Z AUTO 15011KT 10SM CLR 23/17 A2992 1080 68 2300 150/11 RMK AO2 SLP126 T02330172 TSNO
94908KDBQ DBQ20030714190010407/14/03 19:00:31  5-MIN KDBQ 150100Z AUTO 15010KT 10SM CLR 23/17 A2992 1080 68 2300 150/10 RMK AO2 TSNO
94908KDBQ DBQ20030714190510407/14/03 19:05:31  5-MIN KDBQ 150105Z AUTO 15010KT 10SM CLR 23/17 A2992 1080 70 2300 150/10 RMK AO2 TSNO
94908KDBQ DBQ20030714191010407/14/03 19:10:31  5-MIN KDBQ 150110Z AUTO 15010KT 10SM CLR 23/17 A2992 1080 70 2300 150/10 RMK AO2 TSNO
94908KDBQ DBQ20030714191510407/14/03 19:15:31  5-MIN KDBQ 150115Z AUTO 15009KT 10SM CLR 23/17 A2992 1080 70 2300 150/09 RMK AO2 TSNO
94908KDBQ DBQ20030714192010407/14/03 19:20:31  5-MIN KDBQ 150120Z AUTO 15011KT 10SM CLR 23/17 A2992 1080 70 2300 150/11 RMK AO2 TSNO
94908KDBQ DBQ20030714192510407/14/03 19:25:31  5-MIN KDBQ 150125Z AUTO 15010KT 10SM CLR 23/17 A2991 1080 70 2300 150/10 RMK AO2 TSNO
94908KDBQ DBQ20030714193010407/14/03 19:30:31  5-MIN KDBQ 150130Z AUTO 15010KT 10SM CLR 23/17 A2991 1080 70 2300 150/10 RMK AO2 TSNO
94908KDBQ DBQ20030714193510407/14/03 19:35:31  5-MIN KDBQ 150135Z AUTO 15010KT 10SM CLR 23/17 A2991 1090 68 2300 150/10 RMK AO2 TSNO
94908KDBQ DBQ20030714194010707/14/03 19:40:31  5-MIN KDBQ 150140Z AUTO 16009KT 10SM FEW090 23/17 A2991 1080 68 2300 160/09 RMK AO2 TSNO
94908KDBQ DBQ20030714194512307/14/03 19:45:31  5-MIN KDBQ 150145Z AUTO 16010KT 10SM -RA FEW090 23/17 A2992 1080 68 2300 160/10 RMK AO2 RAB45 P0000 TSNO
94908KDBQ DBQ20030714195014007/14/03 19:50:31  5-MIN KDBQ 150150Z AUTO 15012KT 10SM -RA FEW080 22/17 A2990 1100 70 2200 150/12 RMK AO2 RAB45 SLP118 P0000 T02220167 TSNO
94908KDBQ DBQ20030714195513907/14/03 19:55:31  5-MIN KDBQ 150155Z AUTO 15012KT 10SM FEW075 22/17 A2989 1100 70 2200 150/12 RMK AO2 RAB45E54 SLP117 P0000 T02220167 TSNO
94908KDBQ DBQ20030714200010707/14/03 20:00:31  5-MIN KDBQ 150200Z AUTO 15011KT 10SM FEW070 22/17 A2989 1100 70 2200 150/11 RMK AO2 TSNO
94908KDBQ DBQ20030714200510707/14/03 20:05:31  5-MIN KDBQ 150205Z AUTO 15012KT 10SM FEW075 22/17 A2989 1100 70 2200 150/12 RMK AO2 TSNO
94908KDBQ DBQ20030714201010707/14/03 20:10:31  5-MIN KDBQ 150210Z AUTO 16010KT 10SM FEW070 22/17 A2990 1100 70 2200 160/10 RMK AO2 TSNO
94908KDBQ DBQ20030714201510707/14/03 20:15:31  5-MIN KDBQ 150215Z AUTO 17009KT 10SM FEW070 22/17 A2991 1090 70 2200 170/09 RMK AO2 TSNO
94908KDBQ DBQ20030714202010407/14/03 20:20:31  5-MIN KDBQ 150220Z AUTO 17009KT 10SM CLR 22/17 A2991 1090 73 2200 170/09 RMK AO2 TSNO
94908KDBQ DBQ20030714202510407/14/03 20:25:31  5-MIN KDBQ 150225Z AUTO 17011KT 10SM CLR 22/17 A2991 1090 73 2200 170/11 RMK AO2 TSNO
94908KDBQ DBQ20030714203010707/14/03 20:30:31  5-MIN KDBQ 150230Z AUTO 17010KT 10SM FEW120 22/17 A2991 1090 73 2200 170/10 RMK AO2 TSNO
94908KDBQ DBQ20030714203510407/14/03 20:35:31  5-MIN KDBQ 150235Z AUTO 17009KT 10SM CLR 21/17 A2991 1090 75 2100 170/09 RMK AO2 TSNO
94908KDBQ DBQ20030714204010407/14/03 20:40:31  5-MIN KDBQ 150240Z AUTO 17008KT 10SM CLR 21/17 A2992 1080 75 2100 170/08 RMK AO2 TSNO
94908KDBQ DBQ20030714204510407/14/03 20:45:31  5-MIN KDBQ 150245Z AUTO 17008KT 10SM CLR 21/17 A2992 1070 75 2100 170/08 RMK AO2 TSNO
94908KDBQ DBQ20030714205013307/14/03 20:50:31  5-MIN KDBQ 150250Z AUTO 17009KT 10SM CLR 21/17 A2992 1070 78 2100 170/09 RMK AO2 SLP128 60000 T02110172 58004 TSNO
94908KDBQ DBQ20030714205513307/14/03 20:55:31  5-MIN KDBQ 150255Z AUTO 17010KT 10SM CLR 21/17 A2991 1090 81 2000 170/10 RMK AO2 SLP123 60000 T02060172 55013 TSNO
94908KDBQ DBQ20030714210010407/14/03 21:00:31  5-MIN KDBQ 150300Z AUTO 18009KT 10SM CLR 21/17 A2991 1090 78 2000 180/09 RMK AO2 TSNO
94908KDBQ DBQ20030714210510407/14/03 21:05:31  5-MIN KDBQ 150305Z AUTO 18009KT 10SM CLR 21/17 A2992 1080 75 2100 180/09 RMK AO2 TSNO
94908KDBQ DBQ20030714211010407/14/03 21:10:31  5-MIN KDBQ 150310Z AUTO 19009KT 10SM CLR 21/17 A2992 1080 75 2100 180/09 RMK AO2 TSNO
94908KDBQ DBQ20030714211510407/14/03 21:15:31  5-MIN KDBQ 150315Z AUTO 18009KT 10SM CLR 21/17 A2992 1080 75 2100 180/09 RMK AO2 TSNO
94908KDBQ DBQ20030714212010407/14/03 21:20:31  5-MIN KDBQ 150320Z AUTO 17010KT 10SM CLR 21/17 A2991 1080 75 2100 170/10 RMK AO2 TSNO
94908KDBQ DBQ20030714212510407/14/03 21:25:31  5-MIN KDBQ 150325Z AUTO 17011KT 10SM CLR 21/17 A2990 1100 75 2100 170/11 RMK AO2 TSNO
94908KDBQ DBQ20030714213010407/14/03 21:30:31  5-MIN KDBQ 150330Z AUTO 16011KT 10SM CLR 21/17 A2990 1100 75 2100 160/11 RMK AO2 TSNO
94908KDBQ DBQ20030714213510407/14/03 21:35:31  5-MIN KDBQ 150335Z AUTO 16010KT 10SM CLR 21/17 A2990 1100 75 2100 160/10 RMK AO2 TSNO
94908KDBQ DBQ20030714214010407/14/03 21:40:31  5-MIN KDBQ 150340Z AUTO 16010KT 10SM CLR 21/17 A2990 1090 75 2100 160/10 RMK AO2 TSNO
94908KDBQ DBQ20030714214510707/14/03 21:45:31  5-MIN KDBQ 150345Z AUTO 16010KT 10SM FEW065 21/17 A2990 1100 75 2100 160/10 RMK AO2 TSNO
94908KDBQ DBQ20030714215012407/14/03 21:50:31  5-MIN KDBQ 150350Z AUTO 16011KT 10SM FEW065 21/17 A2990 1100 75 2100 160/11 RMK AO2 SLP118 T02110167 TSNO
94908KDBQ DBQ20030714215512407/14/03 21:55:31  5-MIN KDBQ 150355Z AUTO 16011KT 10SM FEW070 21/17 A2990 1100 75 2100 160/11 RMK AO2 SLP117 T02110167 TSNO
94908KDBQ DBQ20030714220010707/14/03 22:00:31  5-MIN KDBQ 150400Z AUTO 16012KT 10SM FEW070 22/17 A2990 1100 73 2200 160/12 RMK AO2 TSNO
94908KDBQ DBQ20030714220510707/14/03 22:05:31  5-MIN KDBQ 150405Z AUTO 17012KT 10SM FEW070 22/17 A2990 1100 73 2200 170/12 RMK AO2 TSNO
94908KDBQ DBQ20030714221010407/14/03 22:10:31  5-MIN KDBQ 150410Z AUTO 17013KT 10SM CLR 22/17 A2990 1100 73 2200 170/13 RMK AO2 TSNO
94908KDBQ DBQ20030714221510407/14/03 22:15:31  5-MIN KDBQ 150415Z AUTO 17012KT 10SM CLR 21/17 A2990 1100 75 2100 170/12 RMK AO2 TSNO
94908KDBQ DBQ20030714222010407/14/03 22:20:31  5-MIN KDBQ 150420Z AUTO 17011KT 10SM CLR 21/17 A2989 1100 75 2100 170/11 RMK AO2 TSNO
94908KDBQ DBQ20030714222510407/14/03 22:25:31  5-MIN KDBQ 150425Z AUTO 17013KT 10SM CLR 21/17 A2988 1110 75 2100 170/13 RMK AO2 TSNO
94908KDBQ DBQ20030714223010407/14/03 22:30:31  5-MIN KDBQ 150430Z AUTO 17013KT 10SM CLR 21/17 A2988 1110 75 2100 170/13 RMK AO2 TSNO
94908KDBQ DBQ20030714223510407/14/03 22:35:31  5-MIN KDBQ 150435Z AUTO 17012KT 10SM CLR 22/17 A2988 1120 75 2200 170/12 RMK AO2 TSNO
94908KDBQ DBQ20030714224010407/14/03 22:40:31  5-MIN KDBQ 150440Z AUTO 17012KT 10SM CLR 22/17 A2988 1110 75 2200 170/12 RMK AO2 TSNO
94908KDBQ DBQ20030714224510407/14/03 22:45:31  5-MIN KDBQ 150445Z AUTO 17013KT 10SM CLR 22/17 A2988 1120 75 2200 170/13 RMK AO2 TSNO
94908KDBQ DBQ20030714225012107/14/03 22:50:31  5-MIN KDBQ 150450Z AUTO 17012KT 10SM CLR 22/17 A2988 1120 75 2200 170/12 RMK AO2 SLP111 T02170172 TSNO
94908KDBQ DBQ20030714225512107/14/03 22:55:31  5-MIN KDBQ 150455Z AUTO 17012KT 10SM CLR 22/17 A2988 1120 75 2200 170/12 RMK AO2 SLP111 T02170172 TSNO
94908KDBQ DBQ20030714230010707/14/03 23:00:31  5-MIN KDBQ 150500Z AUTO 17013KT 10SM FEW070 22/17 A2987 1120 75 2200 170/13 RMK AO2 TSNO
94908KDBQ DBQ20030714230510707/14/03 23:05:31  5-MIN KDBQ 150505Z AUTO 17011KT 10SM FEW070 22/17 A2987 1120 75 2200 170/11 RMK AO2 TSNO
94908KDBQ DBQ20030714231010707/14/03 23:10:31  5-MIN KDBQ 150510Z AUTO 17013KT 10SM FEW060 22/17 A2986 1130 75 2200 170/13 RMK AO2 TSNO
94908KDBQ DBQ20030714231512107/14/03 23:15:31  5-MIN KDBQ 150515Z AUTO 17016KT 10SM FEW060 SCT070 22/17 A2985 1140 75 2200 170/16 RMK AO2 PRESFR TSNO
94908KDBQ DBQ20030714232011407/14/03 23:20:31  5-MIN KDBQ 150520Z AUTO 17015KT 10SM FEW060 22/17 A2984 1150 75 2200 170/15 RMK AO2 PRESFR TSNO
94908KDBQ DBQ20030714232511407/14/03 23:25:31  5-MIN KDBQ 150525Z AUTO 17016KT 10SM FEW055 22/17 A2982 1170 75 2300 170/16 RMK AO2 PRESFR TSNO
94908KDBQ DBQ20030714233012007/14/03 23:30:31  5-MIN KDBQ 150530Z AUTO 17018G24KT 10SM FEW060 22/17 A2979 1200 75 2300 170/18G24 RMK AO2 PRESFR TSNO
94908KDBQ DBQ20030714233512007/14/03 23:35:31  5-MIN KDBQ 150535Z AUTO 16018G24KT 10SM FEW060 22/17 A2976 1220 75 2300 160/18G24 RMK AO2 PRESFR TSNO
94908KDBQ DBQ20030714234011007/14/03 23:40:31  5-MIN KDBQ 150540Z AUTO 17017G23KT 10SM CLR 22/17 A2977 1220 75 2300 170/17G23 RMK AO2 TSNO
94908KDBQ DBQ20030714234511307/14/03 23:45:31  5-MIN KDBQ 150545Z AUTO 19016G22KT 10SM FEW047 22/17 A2981 1180 75 2300 190/16G22 RMK AO2 TSNO
94908KDBQ DBQ20030714235015807/14/03 23:50:31  5-MIN KDBQ 150550Z AUTO 19015KT 10SM SCT047 22/18 A2981 1180 75 2300 190/15 RMK AO2 SLP087 60000 T02220178 10244 20206 402610150 55013 TSNO
94908KDBQ DBQ20030714235517807/14/03 23:55:31  5-MIN KDBQ 150555Z AUTO 19017G22KT 10SM SCT047 SCT055 BKN070 22/18 A2981 1180 75 2300 190/17G22 RMK AO2 SLP088 60000 T02220178 10244 20206 402610150 58033 TSNO
94908KDBQ DBQ20030715000012107/15/03 00:00:31  5-MIN KDBQ 150600Z AUTO 19017KT 10SM FEW047 SCT060 BKN080 22/18 A2980 1190 75 2300 190/17 RMK AO2 TSNO
94908KDBQ DBQ20030715000512107/15/03 00:05:31  5-MIN KDBQ 150605Z AUTO 18017KT 10SM SCT049 BKN065 BKN080 23/18 A2979 1200 73 2400 180/17 RMK AO2 TSNO
94908KDBQ DBQ20030715001012107/15/03 00:10:31  5-MIN KDBQ 150610Z AUTO 19018KT 10SM SCT049 SCT060 BKN070 23/18 A2980 1190 73 2400 190/18 RMK AO2 TSNO
94908KDBQ DBQ20030715001512607/15/03 00:15:31  5-MIN KDBQ 150615Z AUTO 19015G22KT 9SM FEW049 SCT060 BKN090 23/18 A2980 1190 73 2400 190/15G22 RMK AO2 TSNO
94908KDBQ DBQ20030715002012007/15/03 00:20:31  5-MIN KDBQ 150620Z AUTO 19016KT 9SM FEW049 SCT080 SCT100 22/18 A2979 1200 75 2400 190/16 RMK AO2 TSNO
94908KDBQ DBQ20030715002510607/15/03 00:25:31  5-MIN KDBQ 150625Z AUTO 19017KT 9SM FEW049 23/18 A2978 1210 73 2400 190/17 RMK AO2 TSNO
94908KDBQ DBQ20030715003010607/15/03 00:30:31  5-MIN KDBQ 150630Z AUTO 20015KT 9SM FEW049 23/18 A2979 1200 73 2400 200/15 RMK AO2 TSNO
94908KDBQ DBQ20030715003512207/15/03 00:35:31  5-MIN KDBQ 150635Z AUTO 20014KT 8SM -RA SCT049 22/18 A2979 1200 78 2400 200/14 RMK AO2 RAB31 P0000 TSNO
94908KDBQ DBQ20030715004012907/15/03 00:40:31  5-MIN KDBQ 150640Z AUTO 20015KT 8SM -RA SCT049 SCT075 22/19 A2978 1210 81 2400 200/15 RMK AO2 RAB31 P0000 TSNO
94908KDBQ DBQ20030715004512907/15/03 00:45:31  5-MIN KDBQ 150645Z AUTO 21013KT 8SM -RA SCT049 BKN080 22/19 A2978 1210 84 2300 210/13 RMK AO2 RAB31 P0000 TSNO
94908KDBQ DBQ20030715005014507/15/03 00:50:31  5-MIN KDBQ 150650Z AUTO 21015KT 8SM SCT055 BKN085 22/19 A2978 1210 81 2400 210/15 RMK AO2 RAB31E50 SLP077 P0000 T02220189 TSNO
94908KDBQ DBQ20030715005515207/15/03 00:55:31  5-MIN KDBQ 150655Z AUTO 22012KT 8SM BKN050 BKN080 BKN100 22/19 A2979 1200 81 2400 220/12 RMK AO2 RAB31E50 SLP079 P0000 T02220189 TSNO
94908KDBQ DBQ20030715010012007/15/03 01:00:31  5-MIN KDBQ 150700Z AUTO 23010KT 8SM BKN055 BKN080 OVC100 22/19 A2979 1200 81 2300 230/10 RMK AO2 TSNO
94908KDBQ DBQ20030715010512007/15/03 01:05:31  5-MIN KDBQ 150705Z AUTO 23011KT 8SM SCT050 BKN060 OVC075 23/19 A2980 1190 78 2400 230/11 RMK AO2 TSNO
94908KDBQ DBQ20030715011012607/15/03 01:10:31  5-MIN KDBQ 150710Z AUTO 24014G17KT 8SM FEW040 BKN050 BKN070 23/19 A2980 1190 78 2400 230/14G17 RMK AO2 TSNO
94908KDBQ DBQ20030715011512007/15/03 01:15:31  5-MIN KDBQ 150715Z AUTO 23014KT 8SM FEW040 SCT050 BKN070 23/19 A2980 1190 81 2400 230/14 RMK AO2 TSNO
94908KDBQ DBQ20030715012012007/15/03 01:20:31  5-MIN KDBQ 150720Z AUTO 24015KT 8SM FEW042 SCT050 SCT075 23/19 A2980 1190 81 2400 240/15 RMK AO2 TSNO
94908KDBQ DBQ20030715012511307/15/03 01:25:31  5-MIN KDBQ 150725Z AUTO 24012KT 8SM FEW040 SCT075 23/19 A2979 1200 81 2400 240/12 RMK AO2 TSNO
94908KDBQ DBQ20030715013011207/15/03 01:30:31  5-MIN KDBQ 150730Z AUTO 25012G19KT 8SM FEW040 23/19 A2981 1180 81 2400 250/12G19 RMK AO2 TSNO
94908KDBQ DBQ20030715013513307/15/03 01:35:31  5-MIN KDBQ 150735Z AUTO 27014G19KT 7SM FEW037 SCT048 SCT070 23/19 A2984 1160 81 2400 270/14G19 RMK AO2 PRESRR TSNO
94908KDBQ DBQ20030715014013907/15/03 01:40:31  5-MIN KDBQ 150740Z AUTO 26014KT 3SM +RA BR FEW003 SCT040 SCT048 22/20 A2981 1180 87 2300 260/14 RMK AO2 RAB37 P0006 TSNO
94908KDBQ DBQ20030715014512507/15/03 01:45:31  5-MIN KDBQ 150745Z AUTO 25015KT 3SM -RA BR FEW003 22/20 A2981 1190 87 2300 250/15 RMK AO2 RAB37 P0006 TSNO
94908KDBQ DBQ20030715015014907/15/03 01:50:31  5-MIN KDBQ 150750Z AUTO 26012KT 6SM -RA BR FEW034 SCT047 22/20 A2982 1170 87 2300 260/12 RMK AO2 RAB37 SLP092 P0006 T02220200 TSNO
94908KDBQ DBQ20030715015513807/15/03 01:55:31  5-MIN KDBQ 150755Z AUTO 27010KT 7SM FEW030 22/20 A2982 1170 87 2300 270/10 RMK AO2 RAB37E54 SLP090 P0006 T02220200 TSNO
94908KDBQ DBQ20030715020010907/15/03 02:00:31  5-MIN KDBQ 150800Z AUTO 26012KT 6SM BR FEW030 22/20 A2982 1170 90 2300 260/12 RMK AO2 TSNO
94908KDBQ DBQ20030715020510907/15/03 02:05:31  5-MIN KDBQ 150805Z AUTO 27013KT 5SM BR FEW030 22/20 A2982 1170 90 2300 270/13 RMK AO2 TSNO
94908KDBQ DBQ20030715021011607/15/03 02:10:31  5-MIN KDBQ 150810Z AUTO 27010KT 5SM BR FEW028 SCT035 22/20 A2982 1170 90 2300 270/10 RMK AO2 TSNO
94908KDBQ DBQ20030715021511607/15/03 02:15:31  5-MIN KDBQ 150815Z AUTO 28009KT 5SM BR SCT028 BKN033 22/20 A2981 1180 90 2300 280/09 RMK AO2 TSNO
94908KDBQ DBQ20030715022010907/15/03 02:20:31  5-MIN KDBQ 150820Z AUTO 27009KT 5SM BR BKN031 22/21 A2982 1180 93 2300 270/09 RMK AO2 TSNO
94908KDBQ DBQ20030715022511607/15/03 02:25:31  5-MIN KDBQ 150825Z AUTO 27010KT 4SM BR BKN028 BKN033 22/21 A2981 1180 93 2300 270/10 RMK AO2 TSNO
94908KDBQ DBQ20030715023011607/15/03 02:30:31  5-MIN KDBQ 150830Z AUTO 27010KT 4SM BR BKN028 OVC033 22/21 A2981 1180 93 2300 260/10 RMK AO2 TSNO
94908KDBQ DBQ20030715023511607/15/03 02:35:31  5-MIN KDBQ 150835Z AUTO 26010KT 4SM BR BKN028 OVC033 22/20 A2981 1180 90 2300 260/10 RMK AO2 TSNO
94908KDBQ DBQ20030715024011607/15/03 02:40:31  5-MIN KDBQ 150840Z AUTO 27010KT 4SM BR BKN028 BKN033 22/20 A2981 1180 90 2300 260/10 RMK AO2 TSNO
94908KDBQ DBQ20030715024510907/15/03 02:45:31  5-MIN KDBQ 150845Z AUTO 27010KT 4SM BR SCT028 22/20 A2981 1180 90 2300 270/10 RMK AO2 TSNO
94908KDBQ DBQ20030715025013807/15/03 02:50:31  5-MIN KDBQ 150850Z AUTO 27009KT 4SM BR SCT028 21/20 A2981 1180 93 2200 270/09 RMK AO2 SLP088 60006 T02110200 58033 TSNO
94908KDBQ DBQ20030715025513807/15/03 02:55:31  5-MIN KDBQ 150855Z AUTO 27011KT 4SM BR FEW026 21/20 A2981 1180 93 2200 270/11 RMK AO2 SLP088 60006 T02110200 56000 TSNO
94908KDBQ DBQ20030715030010907/15/03 03:00:31  5-MIN KDBQ 150900Z AUTO 29009KT 4SM BR FEW024 21/20 A2981 1180 93 2200 290/09 RMK AO2 TSNO
94908KDBQ DBQ20030715030510607/15/03 03:05:31  5-MIN KDBQ 150905Z AUTO 29011KT 4SM BR CLR 22/20 A2981 1190 90 2300 290/11 RMK AO2 TSNO
94908KDBQ DBQ20030715031010607/15/03 03:10:31  5-MIN KDBQ 150910Z AUTO 30010KT 4SM BR CLR 21/20 A2981 1180 93 2200 300/10 RMK AO2 TSNO
94908KDBQ DBQ20030715031510607/15/03 03:15:31  5-MIN KDBQ 150915Z AUTO 29010KT 3SM BR CLR 21/20 A2981 1180 93 2200 290/10 RMK AO2 TSNO
94908KDBQ DBQ20030715032010607/15/03 03:20:31  5-MIN KDBQ 150920Z AUTO 30010KT 4SM BR CLR 22/20 A2981 1180 90 2300 300/10 RMK AO2 TSNO
94908KDBQ DBQ20030715032510607/15/03 03:25:31  5-MIN KDBQ 150925Z AUTO 30008KT 4SM BR CLR 21/20 A2981 1180 93 2200 300/08 RMK AO2 TSNO
94908KDBQ DBQ20030715033010607/15/03 03:30:31  5-MIN KDBQ 150930Z AUTO 29008KT 3SM BR CLR 21/20 A2982 1170 93 2200 290/08 RMK AO2 TSNO
94908KDBQ DBQ20030715033510607/15/03 03:35:31  5-MIN KDBQ 150935Z AUTO 30007KT 3SM BR CLR 21/20 A2983 1160 93 2200 300/07 RMK AO2 TSNO
94908KDBQ DBQ20030715034010607/15/03 03:40:31  5-MIN KDBQ 150940Z AUTO 30009KT 3SM BR CLR 21/20 A2983 1170 93 2200 300/09 RMK AO2 TSNO
94908KDBQ DBQ20030715034510607/15/03 03:45:31  5-MIN KDBQ 150945Z AUTO 30009KT 4SM BR CLR 22/20 A2983 1160 90 2200 300/09 RMK AO2 TSNO
94908KDBQ DBQ20030715035012307/15/03 03:50:31  5-MIN KDBQ 150950Z AUTO 29007KT 5SM BR CLR 22/20 A2983 1160 90 2200 290/07 RMK AO2 SLP095 T02170200 TSNO
94908KDBQ DBQ20030715035512307/15/03 03:55:31  5-MIN KDBQ 150955Z AUTO 29007KT 5SM BR CLR 22/20 A2983 1160 90 2200 290/07 RMK AO2 SLP095 T02170200 TSNO
94908KDBQ DBQ20030715040010607/15/03 04:00:31  5-MIN KDBQ 151000Z AUTO 29007KT 5SM BR CLR 21/20 A2983 1160 93 2200 290/07 RMK AO2 TSNO
94908KDBQ DBQ20030715040510607/15/03 04:05:31  5-MIN KDBQ 151005Z AUTO 29006KT 4SM BR CLR 21/20 A2984 1150 93 2200 290/06 RMK AO2 TSNO
94908KDBQ DBQ20030715041010607/15/03 04:10:31  5-MIN KDBQ 151010Z AUTO 28005KT 4SM BR CLR 21/20 A2984 1150 93 2200 280/05 RMK AO2 TSNO
94908KDBQ DBQ20030715041510607/15/03 04:15:31  5-MIN KDBQ 151015Z AUTO 28005KT 3SM BR CLR 21/20 A2985 1150 97 2100 280/05 RMK AO2 TSNO
94908KDBQ DBQ20030715042010607/15/03 04:20:31  5-MIN KDBQ 151020Z AUTO 28005KT 3SM BR CLR 21/19 A2985 1140 93 2100 270/05 RMK AO2 TSNO
94908KDBQ DBQ20030715042511007/15/03 04:25:31  5-MIN KDBQ 151025Z AUTO 27005KT 2 1/2SM BR CLR 21/19 A2985 1140 93 2100 270/05 RMK AO2 TSNO
94908KDBQ DBQ20030715043010607/15/03 04:30:31  5-MIN KDBQ 151030Z AUTO 27005KT 2SM BR CLR 20/19 A2986 1140 97 2000 270/05 RMK AO2 TSNO
94908KDBQ DBQ20030715043511007/15/03 04:35:31  5-MIN KDBQ 151035Z AUTO 27005KT 1 3/4SM BR CLR 20/19 A2986 1140 97 2000 270/05 RMK AO2 TSNO
94908KDBQ DBQ20030715044011007/15/03 04:40:31  5-MIN KDBQ 151040Z AUTO 27005KT 1 3/4SM BR CLR 20/19 A2986 1130 97 2000 270/05 RMK AO2 TSNO
94908KDBQ DBQ20030715044511007/15/03 04:45:31  5-MIN KDBQ 151045Z AUTO 28005KT 1 3/4SM BR CLR 20/19 A2986 1130 93 2000 280/05 RMK AO2 TSNO
94908KDBQ DBQ20030715045011307/15/03 04:50:31  5-MIN KDBQ 151050Z 29005KT 5SM BR CLR 20/19 A2986 1130 97 2000 290/05 RMK AO2 SLP107 T02000194
94908KDBQ DBQ20030715045511307/15/03 04:55:31  5-MIN KDBQ 151055Z 30005KT 5SM BR CLR 20/19 A2986 1130 97 2000 300/05 RMK AO2 SLP106 T02000194
94908KDBQ DBQ20030715050009607/15/03 05:00:31  5-MIN KDBQ 151100Z 30006KT 5SM BR CLR 20/19 A2986 1130 97 2000 300/06 RMK AO2
94908KDBQ DBQ20030715050509607/15/03 05:05:31  5-MIN KDBQ 151105Z 30007KT 5SM BR CLR 20/19 A2986 1130 97 2000 300/07 RMK AO2
94908KDBQ DBQ20030715051009607/15/03 05:10:31  5-MIN KDBQ 151110Z 31007KT 5SM BR CLR 20/19 A2986 1130 97 2000 310/07 RMK AO2
94908KDBQ DBQ20030715051509607/15/03 05:15:31  5-MIN KDBQ 151115Z 31006KT 5SM BR CLR 21/19 A2986 1130 93 2100 310/06 RMK AO2
94908KDBQ DBQ20030715052009607/15/03 05:20:31  5-MIN KDBQ 151120Z 32007KT 5SM BR CLR 21/19 A2986 1130 93 2100 310/07 RMK AO2
94908KDBQ DBQ20030715052509607/15/03 05:25:31  5-MIN KDBQ 151125Z 31007KT 5SM BR CLR 21/19 A2986 1130 93 2100 310/07 RMK AO2
94908KDBQ DBQ20030715053009607/15/03 05:30:31  5-MIN KDBQ 151130Z 31007KT 5SM BR CLR 21/19 A2986 1130 93 2100 310/07 RMK AO2
94908KDBQ DBQ20030715053509607/15/03 05:35:31  5-MIN KDBQ 151135Z 31007KT 5SM BR CLR 21/19 A2986 1130 93 2100 310/07 RMK AO2
94908KDBQ DBQ20030715054009607/15/03 05:40:31  5-MIN KDBQ 151140Z 30006KT 5SM BR CLR 21/20 A2987 1130 97 2100 300/06 RMK AO2
94908KDBQ DBQ20030715054509607/15/03 05:45:31  5-MIN KDBQ 151145Z 30005KT 5SM BR CLR 21/20 A2987 1130 97 2100 300/05 RMK AO2
94908KDBQ DBQ20030715055014307/15/03 05:50:31  5-MIN KDBQ 151150Z 31007KT 5SM BR CLR 21/20 A2987 1130 93 2100 310/07 RMK AO2 SLP107 60006 70006 T02110200 10228 20194 56000
94908KDBQ DBQ20030715055514307/15/03 05:55:31  5-MIN KDBQ 151155Z 31007KT 5SM BR CLR 21/20 A2987 1130 93 2100 310/07 RMK AO2 SLP108 60006 70006 T02110200 10228 20194 51018
94908KDBQ DBQ20030715060009607/15/03 06:00:31  5-MIN KDBQ 151200Z 31008KT 4SM BR CLR 21/20 A2987 1130 93 2100 310/08 RMK AO2
94908KDBQ DBQ20030715060509607/15/03 06:05:31  5-MIN KDBQ 151205Z 32007KT 4SM BR CLR 21/20 A2987 1130 93 2100 310/07 RMK AO2
94908KDBQ DBQ20030715061009607/15/03 06:10:31  5-MIN KDBQ 151210Z 31010KT 4SM BR CLR 22/20 A2987 1120 90 2200 310/10 RMK AO2
94908KDBQ DBQ20030715061509607/15/03 06:15:31  5-MIN KDBQ 151215Z 31009KT 5SM BR CLR 22/20 A2987 1130 90 2200 310/09 RMK AO2
94908KDBQ DBQ20030715062009607/15/03 06:20:31  5-MIN KDBQ 151220Z 32010KT 5SM BR CLR 22/20 A2987 1120 90 2200 310/10 RMK AO2
94908KDBQ DBQ20030715062509607/15/03 06:25:31  5-MIN KDBQ 151225Z 32009KT 5SM BR CLR 22/20 A2987 1120 90 2200 310/09 RMK AO2
94908KDBQ DBQ20030715063009607/15/03 06:30:31  5-MIN KDBQ 151230Z 32011KT 6SM BR CLR 22/20 A2988 1120 90 2200 320/11 RMK AO2
94908KDBQ DBQ20030715063509607/15/03 06:35:31  5-MIN KDBQ 151235Z 32012KT 6SM BR CLR 22/20 A2988 1110 87 2200 320/12 RMK AO2
94908KDBQ DBQ20030715064009307/15/03 06:40:31  5-MIN KDBQ 151240Z 32010KT 7SM CLR 22/20 A2989 1110 87 2200 320/10 RMK AO2
94908KDBQ DBQ20030715064509307/15/03 06:45:31  5-MIN KDBQ 151245Z 32012KT 8SM CLR 22/20 A2989 1110 87 2200 320/12 RMK AO2
94908KDBQ DBQ20030715065011007/15/03 06:50:31  5-MIN KDBQ 151250Z 33011KT 8SM CLR 23/20 A2989 1110 84 2300 330/11 RMK AO2 SLP115 T02280200
94908KDBQ DBQ20030715065511007/15/03 06:55:31  5-MIN KDBQ 151255Z 33013KT 8SM CLR 23/20 A2989 1100 84 2300 330/13 RMK AO2 SLP116 T02280200
94908KDBQ DBQ20030715070009307/15/03 07:00:31  5-MIN KDBQ 151300Z 33011KT 9SM CLR 23/20 A2990 1100 84 2300 330/11 RMK AO2
94908KDBQ DBQ20030715070509307/15/03 07:05:31  5-MIN KDBQ 151305Z 34010KT 9SM CLR 23/20 A2990 1090 84 2300 340/10 RMK AO2
94908KDBQ DBQ20030715071009307/15/03 07:10:31  5-MIN KDBQ 151310Z 33010KT 9SM CLR 23/20 A2990 1090 84 2300 330/10 RMK AO2
94908KDBQ DBQ20030715071509307/15/03 07:15:31  5-MIN KDBQ 151315Z 34009KT 9SM CLR 23/20 A2991 1090 81 2300 340/09 RMK AO2
94908KDBQ DBQ20030715072009307/15/03 07:20:31  5-MIN KDBQ 151320Z 33012KT 9SM CLR 23/20 A2991 1090 81 2300 330/12 RMK AO2
94908KDBQ DBQ20030715072509307/15/03 07:25:31  5-MIN KDBQ 151325Z 34013KT 9SM CLR 23/20 A2991 1090 81 2300 340/13 RMK AO2
94908KDBQ DBQ20030715073009407/15/03 07:30:31  5-MIN KDBQ 151330Z 34012KT 10SM CLR 23/20 A2991 1080 81 2300 340/12 RMK AO2
94908KDBQ DBQ20030715073509407/15/03 07:35:31  5-MIN KDBQ 151335Z 33009KT 10SM CLR 23/20 A2992 1080 81 2300 330/09 RMK AO2
94908KDBQ DBQ20030715074009407/15/03 07:40:31  5-MIN KDBQ 151340Z 33011KT 10SM CLR 23/20 A2992 1080 81 2300 330/11 RMK AO2
94908KDBQ DBQ20030715074509407/15/03 07:45:31  5-MIN KDBQ 151345Z 34010KT 10SM CLR 23/20 A2992 1080 81 2300 330/10 RMK AO2
94908KDBQ DBQ20030715075011107/15/03 07:50:31  5-MIN KDBQ 151350Z 34011KT 10SM CLR 24/20 A2992 1080 78 2400 340/11 RMK AO2 SLP124 T02390200
94908KDBQ DBQ20030715075511107/15/03 07:55:31  5-MIN KDBQ 151355Z 34007KT 10SM CLR 24/20 A2992 1080 78 2400 340/07 RMK AO2 SLP124 T02390200
94908KDBQ DBQ20030715080009407/15/03 08:00:31  5-MIN KDBQ 151400Z 33010KT 10SM CLR 24/20 A2992 1080 78 2400 330/10 RMK AO2
94908KDBQ DBQ20030715080509407/15/03 08:05:31  5-MIN KDBQ 151405Z 34009KT 10SM CLR 24/20 A2992 1080 78 2400 340/09 RMK AO2
94908KDBQ DBQ20030715081009407/15/03 08:10:31  5-MIN KDBQ 151410Z 34008KT 10SM CLR 24/20 A2992 1080 76 2500 340/08 RMK AO2
94908KDBQ DBQ20030715081509407/15/03 08:15:31  5-MIN KDBQ 151415Z 34009KT 10SM CLR 24/20 A2992 1080 76 2500 340/09 RMK AO2
94908KDBQ DBQ20030715082009407/15/03 08:20:31  5-MIN KDBQ 151420Z 32010KT 10SM CLR 24/20 A2992 1080 76 2500 320/10 RMK AO2
94908KDBQ DBQ20030715082509407/15/03 08:25:31  5-MIN KDBQ 151425Z 32010KT 10SM CLR 24/19 A2992 1080 73 2500 320/10 RMK AO2
94908KDBQ DBQ20030715083009407/15/03 08:30:31  5-MIN KDBQ 151430Z 33009KT 10SM CLR 24/19 A2992 1080 73 2500 330/09 RMK AO2
94908KDBQ DBQ20030715083509407/15/03 08:35:31  5-MIN KDBQ 151435Z 34011KT 10SM CLR 25/19 A2992 1080 71 2500 340/11 RMK AO2
94908KDBQ DBQ20030715084009407/15/03 08:40:31  5-MIN KDBQ 151440Z 33009KT 10SM CLR 25/19 A2992 1080 68 2500 320/09 RMK AO2
94908KDBQ DBQ20030715084509407/15/03 08:45:31  5-MIN KDBQ 151445Z 33011KT 10SM CLR 24/18 A2992 1080 68 2500 330/11 RMK AO2
94908KDBQ DBQ20030715085011707/15/03 08:50:31  5-MIN KDBQ 151450Z 33011KT 10SM CLR 25/18 A2992 1080 66 2500 330/11 RMK AO2 SLP125 T02500183 51018
94908KDBQ DBQ20030715085511707/15/03 08:55:31  5-MIN KDBQ 151455Z 32009KT 10SM CLR 25/19 A2992 1080 68 2500 320/09 RMK AO2 SLP126 T02500189 51018
94908KDBQ DBQ20030715090009407/15/03 09:00:31  5-MIN KDBQ 151500Z 33011KT 10SM CLR 25/19 A2992 1080 68 2500 330/11 RMK AO2
94908KDBQ DBQ20030715090509407/15/03 09:05:31  5-MIN KDBQ 151505Z 32011KT 10SM CLR 25/18 A2992 1080 66 2500 320/11 RMK AO2
94908KDBQ DBQ20030715091009407/15/03 09:10:31  5-MIN KDBQ 151510Z 33014KT 10SM CLR 25/18 A2992 1070 64 2500 330/14 RMK AO2
94908KDBQ DBQ20030715091509407/15/03 09:15:31  5-MIN KDBQ 151515Z 33012KT 10SM CLR 25/18 A2993 1070 64 2500 330/12 RMK AO2
94908KDBQ DBQ20030715092009407/15/03 09:20:31  5-MIN KDBQ 151520Z 33011KT 10SM CLR 25/18 A2993 1070 66 2500 330/11 RMK AO2
94908KDBQ DBQ20030715092509407/15/03 09:25:31  5-MIN KDBQ 151525Z 33009KT 10SM CLR 26/18 A2993 1070 64 2600 330/09 RMK AO2
94908KDBQ DBQ20030715093009407/15/03 09:30:31  5-MIN KDBQ 151530Z 33010KT 10SM CLR 26/18 A2993 1070 64 2600 320/10 RMK AO2
94908KDBQ DBQ20030715093509407/15/03 09:35:31  5-MIN KDBQ 151535Z 32012KT 10SM CLR 26/18 A2993 1070 64 2600 310/12 RMK AO2
94908KDBQ DBQ20030715094009407/15/03 09:40:31  5-MIN KDBQ 151540Z 33013KT 10SM CLR 26/18 A2993 1070 61 2600 320/13 RMK AO2
94908KDBQ DBQ20030715094509407/15/03 09:45:31  5-MIN KDBQ 151545Z 32011KT 10SM CLR 26/18 A2993 1070 61 2600 320/11 RMK AO2
94908KDBQ DBQ20030715095011107/15/03 09:50:31  5-MIN KDBQ 151550Z 33014KT 10SM CLR 26/18 A2993 1070 61 2600 320/14 RMK AO2 SLP130 T02560178
94908KDBQ DBQ20030715095511107/15/03 09:55:31  5-MIN KDBQ 151555Z 32012KT 10SM CLR 26/17 A2994 1060 59 2600 320/12 RMK AO2 SLP130 T02560172
94908KDBQ DBQ20030715100009407/15/03 10:00:31  5-MIN KDBQ 151600Z 33014KT 10SM CLR 26/18 A2994 1060 59 2600 330/14 RMK AO2
94908KDBQ DBQ20030715100509407/15/03 10:05:31  5-MIN KDBQ 151605Z 34014KT 10SM CLR 26/17 A2994 1060 55 2600 340/14 RMK AO2
94908KDBQ DBQ20030715101009407/15/03 10:10:31  5-MIN KDBQ 151610Z 33011KT 10SM CLR 26/17 A2994 1060 57 2600 330/11 RMK AO2
94908KDBQ DBQ20030715101509407/15/03 10:15:31  5-MIN KDBQ 151615Z 34011KT 10SM CLR 26/18 A2994 1060 59 2600 330/11 RMK AO2
94908KDBQ DBQ20030715102009407/15/03 10:20:31  5-MIN KDBQ 151620Z 34009KT 10SM CLR 26/18 A2994 1060 59 2600 340/09 RMK AO2
94908KDBQ DBQ20030715102509407/15/03 10:25:31  5-MIN KDBQ 151625Z 32010KT 10SM CLR 26/18 A2994 1060 59 2600 320/10 RMK AO2
94908KDBQ DBQ20030715103009407/15/03 10:30:31  5-MIN KDBQ 151630Z 31008KT 10SM CLR 26/18 A2994 1060 59 2600 310/08 RMK AO2
94908KDBQ DBQ20030715103509707/15/03 10:35:31  5-MIN KDBQ 151635Z 31007KT 10SM FEW040 27/18 A2994 1060 60 2700 310/07 RMK AO2
94908KDBQ DBQ20030715104011307/15/03 10:40:31  5-MIN KDBQ 151640Z 30010KT 270V330 10SM FEW040 27/18 A2995 1060 60 2700 300/10 270V330 RMK AO2
94908KDBQ DBQ20030715104509707/15/03 10:45:31  5-MIN KDBQ 151645Z 31012KT 10SM FEW042 27/19 A2995 1050 60 2700 310/12 RMK AO2
94908KDBQ DBQ20030715105011407/15/03 10:50:31  5-MIN KDBQ 151650Z 32013KT 10SM FEW042 27/17 A2995 1050 55 2700 320/13 RMK AO2 SLP134 T02670172
94908KDBQ DBQ20030715105511407/15/03 10:55:31  5-MIN KDBQ 151655Z 31010KT 10SM FEW042 27/17 A2995 1050 55 2700 310/10 RMK AO2 SLP134 T02670172
94908KDBQ DBQ20030715110009407/15/03 11:00:31  5-MIN KDBQ 151700Z 30013KT 10SM CLR 27/17 A2995 1050 53 2700 300/13 RMK AO2
94908KDBQ DBQ20030715110509407/15/03 11:05:31  5-MIN KDBQ 151705Z 31011KT 10SM CLR 27/17 A2995 1050 55 2700 310/11 RMK AO2
94908KDBQ DBQ20030715111009407/15/03 11:10:31  5-MIN KDBQ 151710Z 31012KT 10SM CLR 27/16 A2995 1050 52 2700 310/12 RMK AO2
94908KDBQ DBQ20030715111509407/15/03 11:15:31  5-MIN KDBQ 151715Z 30015KT 10SM CLR 27/16 A2995 1060 52 2700 300/15 RMK AO2
94908KDBQ DBQ20030715112009407/15/03 11:20:31  5-MIN KDBQ 151720Z 32013KT 10SM CLR 27/16 A2995 1050 52 2700 320/13 RMK AO2
94908KDBQ DBQ20030715112509407/15/03 11:25:31  5-MIN KDBQ 151725Z 31014KT 10SM CLR 27/17 A2995 1060 52 2700 310/14 RMK AO2
94908KDBQ DBQ20030715113009407/15/03 11:30:31  5-MIN KDBQ 151730Z 30013KT 10SM CLR 27/16 A2995 1060 52 2700 300/13 RMK AO2
94908KDBQ DBQ20030715113509407/15/03 11:35:31  5-MIN KDBQ 151735Z 31014KT 10SM CLR 27/16 A2995 1050 50 2700 310/14 RMK AO2
94908KDBQ DBQ20030715114009407/15/03 11:40:31  5-MIN KDBQ 151740Z 32015KT 10SM CLR 27/17 A2995 1050 52 2700 320/15 RMK AO2
94908KDBQ DBQ20030715114509407/15/03 11:45:31  5-MIN KDBQ 151745Z 31012KT 10SM CLR 27/17 A2995 1050 54 2700 310/12 RMK AO2
94908KDBQ DBQ20030715115012907/15/03 11:50:31  5-MIN KDBQ 151750Z 32014KT 10SM CLR 27/17 A2995 1050 52 2700 320/14 RMK AO2 SLP134 T02720167 10272 20211 51018
94908KDBQ DBQ20030715115512907/15/03 11:55:31  5-MIN KDBQ 151755Z 32014KT 10SM CLR 27/16 A2995 1050 50 2700 320/14 RMK AO2 SLP135 T02720161 10272 20211 51010
94908KDBQ DBQ20030715120009407/15/03 12:00:31  5-MIN KDBQ 151800Z 32015KT 10SM CLR 27/17 A2995 1050 52 2700 320/15 RMK AO2
94908KDBQ DBQ20030715120509407/15/03 12:05:31  5-MIN KDBQ 151805Z 32016KT 10SM CLR 27/17 A2995 1050 52 2700 320/16 RMK AO2
94908KDBQ DBQ20030715121009407/15/03 12:10:31  5-MIN KDBQ 151810Z 31016KT 10SM CLR 27/17 A2995 1050 52 2700 310/16 RMK AO2
94908KDBQ DBQ20030715121510007/15/03 12:15:31  5-MIN KDBQ 151815Z 31011G18KT 10SM CLR 27/17 A2995 1050 52 2700 310/11G18 RMK AO2
94908KDBQ DBQ20030715122010007/15/03 12:20:31  5-MIN KDBQ 151820Z 31013G18KT 10SM CLR 27/17 A2995 1050 54 2700 310/13G18 RMK AO2
94908KDBQ DBQ20030715122509407/15/03 12:25:31  5-MIN KDBQ 151825Z 30013KT 10SM CLR 27/17 A2995 1050 54 2700 300/13 RMK AO2
94908KDBQ DBQ20030715123009407/15/03 12:30:31  5-MIN KDBQ 151830Z 29015KT 10SM CLR 27/17 A2995 1050 54 2700 290/15 RMK AO2
94908KDBQ DBQ20030715123509407/15/03 12:35:31  5-MIN KDBQ 151835Z 28014KT 10SM CLR 27/18 A2995 1050 56 2700 280/14 RMK AO2
94908KDBQ DBQ20030715124009407/15/03 12:40:31  5-MIN KDBQ 151840Z 30015KT 10SM CLR 27/17 A2995 1050 54 2700 300/15 RMK AO2
94908KDBQ DBQ20030715124509707/15/03 12:45:31  5-MIN KDBQ 151845Z 28016KT 10SM FEW048 27/17 A2995 1050 54 2700 280/16 RMK AO2
94908KDBQ DBQ20030715125011407/15/03 12:50:31  5-MIN KDBQ 151850Z 30016KT 10SM FEW048 27/17 A2995 1050 52 2700 300/16 RMK AO2 SLP135 T02720167
94908KDBQ DBQ20030715125512007/15/03 12:55:31  5-MIN KDBQ 151855Z 31015G21KT 10SM FEW048 27/17 A2995 1050 54 2700 310/15G21 RMK AO2 SLP135 T02720172
94908KDBQ DBQ20030715130010307/15/03 13:00:31  5-MIN KDBQ 151900Z 31013G21KT 10SM FEW048 27/17 A2995 1050 52 2700 310/13G21 RMK AO2
94908KDBQ DBQ20030715130510307/15/03 13:05:31  5-MIN KDBQ 151905Z 30016G19KT 10SM FEW048 27/17 A2996 1040 54 2700 300/16G19 RMK AO2
94908KDBQ DBQ20030715131010307/15/03 13:10:31  5-MIN KDBQ 151910Z 29014G19KT 10SM FEW050 27/17 A2996 1050 52 2700 290/14G19 RMK AO2
94908KDBQ DBQ20030715131509707/15/03 13:15:31  5-MIN KDBQ 151915Z 29015KT 10SM SCT050 27/17 A2996 1040 52 2700 290/15 RMK AO2
94908KDBQ DBQ20030715132009707/15/03 13:20:31  5-MIN KDBQ 151920Z 30013KT 10SM SCT050 27/17 A2996 1040 52 2700 300/13 RMK AO2
94908KDBQ DBQ20030715132510307/15/03 13:25:31  5-MIN KDBQ 151925Z 30015G19KT 10SM BKN050 28/17 A2996 1040 52 2800 300/15G19 RMK AO2
94908KDBQ DBQ20030715133010307/15/03 13:30:31  5-MIN KDBQ 151930Z 32012G19KT 10SM BKN050 28/18 A2996 1040 54 2800 320/12G19 RMK AO2
94908KDBQ DBQ20030715133510307/15/03 13:35:31  5-MIN KDBQ 151935Z 33015G20KT 10SM BKN050 27/17 A2996 1040 54 2700 320/15G20 RMK AO2
94908KDBQ DBQ20030715134010307/15/03 13:40:31  5-MIN KDBQ 151940Z 32012G20KT 10SM BKN050 27/17 A2996 1040 55 2700 310/12G20 RMK AO2
94908KDBQ DBQ20030715134510407/15/03 13:45:31  5-MIN KDBQ 151945Z 32014KT 10SM BKN050 BKN060 28/18 A2996 1050 54 2800 320/14 RMK AO2
94908KDBQ DBQ20030715135013007/15/03 13:50:31  5-MIN KDBQ 151950Z AUTO 32009G17KT 10SM BKN050 28/18 A2996 1040 54 2800 320/09G17 RMK AO2 SLP137 T02780178 TSNO
94908KDBQ DBQ20030715135513007/15/03 13:55:31  5-MIN KDBQ 151955Z AUTO 31013G17KT 10SM BKN048 27/18 A2996 1050 57 2700 310/13G17 RMK AO2 SLP136 T02670178 TSNO
94908KDBQ DBQ20030715140010707/15/03 14:00:31  5-MIN KDBQ 152000Z AUTO 32014KT 10SM SCT048 27/18 A2996 1050 57 2700 320/14 RMK AO2 TSNO
94908KDBQ DBQ20030715140511407/15/03 14:05:31  5-MIN KDBQ 152005Z AUTO 31011KT 10SM SCT048 SCT055 27/18 A2996 1050 56 2700 300/11 RMK AO2 TSNO
94908KDBQ DBQ20030715141011407/15/03 14:10:31  5-MIN KDBQ 152010Z AUTO 29015KT 10SM SCT050 BKN055 27/17 A2996 1040 54 2700 290/15 RMK AO2 TSNO
94908KDBQ DBQ20030715141512007/15/03 14:15:31  5-MIN KDBQ 152015Z AUTO 29014G21KT 10SM SCT050 BKN055 27/18 A2996 1040 56 2700 290/14G21 RMK AO2 TSNO
94908KDBQ DBQ20030715142012007/15/03 14:20:31  5-MIN KDBQ 152020Z AUTO 31011G21KT 10SM SCT050 BKN055 28/18 A2996 1040 54 2800 300/11G21 RMK AO2 TSNO
94908KDBQ DBQ20030715142511407/15/03 14:25:31  5-MIN KDBQ 152025Z AUTO 32012KT 10SM BKN050 BKN055 27/18 A2996 1040 56 2700 320/12 RMK AO2 TSNO
94908KDBQ DBQ20030715143011407/15/03 14:30:31  5-MIN KDBQ 152030Z AUTO 33012KT 10SM BKN050 BKN055 27/18 A2996 1040 58 2700 330/12 RMK AO2 TSNO
94908KDBQ DBQ20030715143511407/15/03 14:35:31  5-MIN KDBQ 152035Z AUTO 32011KT 10SM BKN050 BKN055 27/18 A2996 1040 56 2700 320/11 RMK AO2 TSNO
94908KDBQ DBQ20030715144012007/15/03 14:40:31  5-MIN KDBQ 152040Z AUTO 29013G17KT 10SM BKN050 BKN060 27/18 A2996 1040 56 2700 290/13G17 RMK AO2 TSNO
94908KDBQ DBQ20030715144512007/15/03 14:45:31  5-MIN KDBQ 152045Z AUTO 30015G20KT 10SM SCT050 BKN060 27/17 A2996 1040 52 2700 300/15G20 RMK AO2 TSNO
94908KDBQ DBQ20030715145014307/15/03 14:50:31  5-MIN KDBQ 152050Z AUTO 30012G20KT 10SM FEW050 BKN060 27/17 A2996 1040 52 2700 290/12G20 RMK AO2 SLP139 T02720167 51010 TSNO
94908KDBQ DBQ20030715145513707/15/03 14:55:31  5-MIN KDBQ 152055Z AUTO 30014KT 10SM FEW050 SCT060 27/17 A2996 1040 52 2700 300/14 RMK AO2 SLP138 T02720167 53003 TSNO
94908KDBQ DBQ20030715150011407/15/03 15:00:31  5-MIN KDBQ 152100Z AUTO 32013KT 10SM FEW050 SCT060 27/17 A2996 1040 52 2700 320/13 RMK AO2 TSNO
94908KDBQ DBQ20030715150511307/15/03 15:05:31  5-MIN KDBQ 152105Z AUTO 32014G19KT 10SM SCT055 27/17 A2996 1040 54 2700 320/14G19 RMK AO2 TSNO
94908KDBQ DBQ20030715151011307/15/03 15:10:31  5-MIN KDBQ 152110Z AUTO 30015G19KT 10SM BKN055 28/18 A2996 1040 54 2800 300/15G19 RMK AO2 TSNO
94908KDBQ DBQ20030715151510707/15/03 15:15:31  5-MIN KDBQ 152115Z AUTO 29015KT 10SM SCT055 27/17 A2996 1040 54 2700 290/15 RMK AO2 TSNO
94908KDBQ DBQ20030715152010707/15/03 15:20:31  5-MIN KDBQ 152120Z AUTO 30016KT 10SM SCT055 27/17 A2997 1040 54 2700 300/16 RMK AO2 TSNO
94908KDBQ DBQ20030715152511407/15/03 15:25:31  5-MIN KDBQ 152125Z AUTO 31014KT 10SM FEW050 SCT060 27/17 A2996 1040 54 2700 300/14 RMK AO2 TSNO
94908KDBQ DBQ20030715153011407/15/03 15:30:31  5-MIN KDBQ 152130Z AUTO 32013KT 10SM FEW048 SCT060 27/18 A2997 1040 56 2700 320/13 RMK AO2 TSNO
94908KDBQ DBQ20030715153511407/15/03 15:35:31  5-MIN KDBQ 152135Z AUTO 31013KT 10SM FEW050 SCT060 27/18 A2997 1040 56 2700 310/13 RMK AO2 TSNO
94908KDBQ DBQ20030715154011407/15/03 15:40:31  5-MIN KDBQ 152140Z AUTO 33014KT 10SM FEW048 SCT060 27/18 A2997 1040 58 2700 330/14 RMK AO2 TSNO
94908KDBQ DBQ20030715154511407/15/03 15:45:31  5-MIN KDBQ 152145Z AUTO 33016KT 10SM SCT048 SCT060 27/17 A2997 1030 55 2600 330/16 RMK AO2 TSNO
94908KDBQ DBQ20030715155012107/15/03 15:50:31  5-MIN KDBQ 152150Z 32013KT 10SM SCT048 SCT055 27/17 A2997 1030 55 2600 320/13 RMK AO2 SLP142 T02670172
94908KDBQ DBQ20030715155512707/15/03 15:55:31  5-MIN KDBQ 152155Z 33016G20KT 10SM SCT048 BKN060 27/17 A2997 1030 55 2600 330/16G20 RMK AO2 SLP142 T02670172
94908KDBQ DBQ20030715160011007/15/03 16:00:31  5-MIN KDBQ 152200Z 33013G20KT 10SM SCT048 BKN055 26/17 A2998 1030 59 2500 330/13G20 RMK AO2
94908KDBQ DBQ20030715160510407/15/03 16:05:31  5-MIN KDBQ 152205Z 33015KT 10SM SCT048 SCT055 26/17 A2998 1030 55 2600 330/15 RMK AO2
94908KDBQ DBQ20030715161009707/15/03 16:10:31  5-MIN KDBQ 152210Z 32016KT 10SM FEW046 26/16 A2998 1030 53 2600 320/16 RMK AO2
94908KDBQ DBQ20030715161509707/15/03 16:15:31  5-MIN KDBQ 152215Z 31012KT 10SM FEW046 26/16 A2998 1030 53 2600 310/12 RMK AO2
94908KDBQ DBQ20030715162009707/15/03 16:20:31  5-MIN KDBQ 152220Z 32012KT 10SM FEW046 26/17 A2998 1020 55 2600 320/12 RMK AO2
94908KDBQ DBQ20030715162509707/15/03 16:25:31  5-MIN KDBQ 152225Z 33013KT 10SM FEW048 26/17 A2998 1020 55 2600 330/13 RMK AO2
94908KDBQ DBQ20030715163009707/15/03 16:30:31  5-MIN KDBQ 152230Z 34011KT 10SM SCT050 26/17 A2998 1020 57 2600 340/11 RMK AO2
94908KDBQ DBQ20030715163509707/15/03 16:35:31  5-MIN KDBQ 152235Z 32011KT 10SM SCT047 27/18 A2998 1020 57 2600 320/11 RMK AO2
94908KDBQ DBQ20030715164009707/15/03 16:40:31  5-MIN KDBQ 152240Z 31012KT 10SM BKN049 27/17 A2998 1020 55 2600 310/12 RMK AO2
94908KDBQ DBQ20030715164509707/15/03 16:45:31  5-MIN KDBQ 152245Z 34014KT 10SM BKN049 26/17 A2998 1020 57 2500 340/14 RMK AO2
94908KDBQ DBQ20030715165011407/15/03 16:50:31  5-MIN KDBQ 152250Z 33013KT 10SM BKN049 25/16 A2998 1020 57 2400 330/13 RMK AO2 SLP148 T02500161
94908KDBQ DBQ20030715165511407/15/03 16:55:31  5-MIN KDBQ 152255Z 33013KT 10SM BKN049 26/17 A2999 1020 55 2600 330/13 RMK AO2 SLP147 T02610167
94908KDBQ DBQ20030715170009707/15/03 17:00:31  5-MIN KDBQ 152300Z 33015KT 10SM BKN049 26/16 A2998 1020 55 2500 330/15 RMK AO2
94908KDBQ DBQ20030715170509707/15/03 17:05:31  5-MIN KDBQ 152305Z 31011KT 10SM SCT049 26/16 A2998 1020 55 2500 310/11 RMK AO2
94908KDBQ DBQ20030715171009707/15/03 17:10:31  5-MIN KDBQ 152310Z 33011KT 10SM SCT049 26/17 A2999 1020 57 2500 330/11 RMK AO2
94908KDBQ DBQ20030715171509707/15/03 17:15:31  5-MIN KDBQ 152315Z 32010KT 10SM SCT049 26/17 A2999 1020 57 2500 320/10 RMK AO2
94908KDBQ DBQ20030715172009707/15/03 17:20:31  5-MIN KDBQ 152320Z 33010KT 10SM SCT047 26/17 A2998 1020 57 2500 330/10 RMK AO2
94908KDBQ DBQ20030715172509707/15/03 17:25:31  5-MIN KDBQ 152325Z 34011KT 10SM SCT047 26/17 A2999 1020 57 2500 340/11 RMK AO2
94908KDBQ DBQ20030715173009707/15/03 17:30:31  5-MIN KDBQ 152330Z 34012KT 10SM SCT047 26/16 A2999 1010 55 2500 340/12 RMK AO2
94908KDBQ DBQ20030715173509707/15/03 17:35:31  5-MIN KDBQ 152335Z 34011KT 10SM BKN045 26/17 A2999 1010 57 2500 340/11 RMK AO2
94908KDBQ DBQ20030715174009707/15/03 17:40:31  5-MIN KDBQ 152340Z 34011KT 10SM BKN047 26/17 A2999 1010 57 2500 330/11 RMK AO2
94908KDBQ DBQ20030715174509707/15/03 17:45:31  5-MIN KDBQ 152345Z 33010KT 10SM BKN047 25/16 A2999 1010 57 2400 330/10 RMK AO2
94908KDBQ DBQ20030715175013207/15/03 17:50:31  5-MIN KDBQ 152350Z 34011KT 10SM SCT047 25/16 A2999 1010 57 2400 340/11 RMK AO2 SLP149 T02500161 10278 20250 53003
94908KDBQ DBQ20030715175513207/15/03 17:55:31  5-MIN KDBQ 152355Z 33011KT 10SM SCT047 25/16 A2999 1010 57 2400 330/11 RMK AO2 SLP149 T02500161 10278 20250 51009
94908KDBQ DBQ20030715180009707/15/03 18:00:31  5-MIN KDBQ 160000Z 34008KT 10SM FEW047 25/16 A2999 1010 57 2400 330/08 RMK AO2
94908KDBQ DBQ20030715180509707/15/03 18:05:31  5-MIN KDBQ 160005Z 34009KT 10SM FEW049 25/17 A2999 1020 59 2400 340/09 RMK AO2
94908KDBQ DBQ20030715181009407/15/03 18:10:31  5-MIN KDBQ 160010Z 35009KT 10SM CLR 24/16 A2999 1020 59 2400 350/09 RMK AO2
94908KDBQ DBQ20030715181509407/15/03 18:15:31  5-MIN KDBQ 160015Z 34009KT 10SM CLR 24/16 A2999 1020 59 2400 340/09 RMK AO2
94908KDBQ DBQ20030715182009407/15/03 18:20:31  5-MIN KDBQ 160020Z 34008KT 10SM CLR 24/16 A2999 1020 59 2400 340/08 RMK AO2
94908KDBQ DBQ20030715182509407/15/03 18:25:31  5-MIN KDBQ 160025Z 34009KT 10SM CLR 24/16 A2999 1020 59 2400 340/09 RMK AO2
94908KDBQ DBQ20030715183009407/15/03 18:30:31  5-MIN KDBQ 160030Z 34008KT 10SM CLR 24/16 A2999 1020 59 2400 340/08 RMK AO2
94908KDBQ DBQ20030715183509407/15/03 18:35:31  5-MIN KDBQ 160035Z 34009KT 10SM CLR 24/16 A2999 1020 61 2300 340/09 RMK AO2
94908KDBQ DBQ20030715184009407/15/03 18:40:31  5-MIN KDBQ 160040Z 34008KT 10SM CLR 24/16 A2999 1020 61 2300 340/08 RMK AO2
94908KDBQ DBQ20030715184509407/15/03 18:45:31  5-MIN KDBQ 160045Z 33009KT 10SM CLR 23/16 A2999 1020 63 2300 330/09 RMK AO2
94908KDBQ DBQ20030715185011107/15/03 18:50:31  5-MIN KDBQ 160050Z 33008KT 10SM CLR 23/16 A2999 1020 61 2300 330/08 RMK AO2 SLP148 T02330156
94908KDBQ DBQ20030715185511107/15/03 18:55:31  5-MIN KDBQ 160055Z 33008KT 10SM CLR 23/16 A2999 1020 61 2300 330/08 RMK AO2 SLP148 T02330156
94908KDBQ DBQ20030715190009407/15/03 19:00:31  5-MIN KDBQ 160100Z 33008KT 10SM CLR 23/16 A2999 1010 61 2300 330/08 RMK AO2
94908KDBQ DBQ20030715190509407/15/03 19:05:31  5-MIN KDBQ 160105Z 33008KT 10SM CLR 23/16 A2999 1010 65 2200 330/08 RMK AO2
94908KDBQ DBQ20030715191009407/15/03 19:10:31  5-MIN KDBQ 160110Z 33007KT 10SM CLR 22/16 A2999 1020 68 2100 330/07 RMK AO2
94908KDBQ DBQ20030715191509407/15/03 19:15:31  5-MIN KDBQ 160115Z 33007KT 10SM CLR 22/16 A2999 1010 68 2100 330/07 RMK AO2
94908KDBQ DBQ20030715192009407/15/03 19:20:31  5-MIN KDBQ 160120Z 32006KT 10SM CLR 22/16 A3000 1010 70 2100 320/06 RMK AO2
94908KDBQ DBQ20030715192509407/15/03 19:25:31  5-MIN KDBQ 160125Z 32007KT 10SM CLR 22/16 A3000 1010 70 2100 320/07 RMK AO2
94908KDBQ DBQ20030715193009407/15/03 19:30:31  5-MIN KDBQ 160130Z 32006KT 10SM CLR 21/16 A3000 1010 73 2000 320/06 RMK AO2
94908KDBQ DBQ20030715193509407/15/03 19:35:31  5-MIN KDBQ 160135Z 32006KT 10SM CLR 21/16 A3000 1010 73 2000 320/06 RMK AO2
94908KDBQ DBQ20030715194009407/15/03 19:40:31  5-MIN KDBQ 160140Z 32007KT 10SM CLR 21/16 A3000 1010 70 2000 320/07 RMK AO2
94908KDBQ DBQ20030715194509407/15/03 19:45:31  5-MIN KDBQ 160145Z 32006KT 10SM CLR 21/16 A3000 1010 75 1900 320/06 RMK AO2
94908KDBQ DBQ20030715195011107/15/03 19:50:31  5-MIN KDBQ 160150Z 33006KT 10SM CLR 21/16 A3000 1000 73 1900 320/06 RMK AO2 SLP153 T02060156
94908KDBQ DBQ20030715195511107/15/03 19:55:31  5-MIN KDBQ 160155Z 33006KT 10SM CLR 21/16 A3000 1000 73 1900 330/06 RMK AO2 SLP154 T02060156
94908KDBQ DBQ20030715200009407/15/03 20:00:31  5-MIN KDBQ 160200Z 33005KT 10SM CLR 20/16 A3000 1000 75 1900 330/05 RMK AO2
94908KDBQ DBQ20030715200509407/15/03 20:05:31  5-MIN KDBQ 160205Z 33006KT 10SM CLR 21/16 A3001 1000 73 1900 330/06 RMK AO2
94908KDBQ DBQ20030715201009407/15/03 20:10:31  5-MIN KDBQ 160210Z 33007KT 10SM CLR 20/16 A3001 1000 75 1800 330/07 RMK AO2
94908KDBQ DBQ20030715201509307/15/03 20:15:31  5-MIN KDBQ 160215Z 33007KT 10SM CLR 20/16 A3001 990 75 1800 330/07 RMK AO2
94908KDBQ DBQ20030715202009307/15/03 20:20:31  5-MIN KDBQ 160220Z 33007KT 10SM CLR 20/16 A3001 990 75 1800 330/07 RMK AO2
94908KDBQ DBQ20030715202509307/15/03 20:25:31  5-MIN KDBQ 160225Z 34007KT 10SM CLR 19/16 A3001 990 78 1800 340/07 RMK AO2
94908KDBQ DBQ20030715203009307/15/03 20:30:31  5-MIN KDBQ 160230Z 33007KT 10SM CLR 19/16 A3002 990 78 1800 330/07 RMK AO2
94908KDBQ DBQ20030715203509307/15/03 20:35:31  5-MIN KDBQ 160235Z 33007KT 10SM CLR 19/16 A3002 990 78 1800 330/07 RMK AO2
94908KDBQ DBQ20030715204009307/15/03 20:40:31  5-MIN KDBQ 160240Z 33007KT 10SM CLR 19/16 A3002 980 78 1800 330/07 RMK AO2
94908KDBQ DBQ20030715204509307/15/03 20:45:31  5-MIN KDBQ 160245Z 34007KT 10SM CLR 19/16 A3003 980 78 1800 340/07 RMK AO2
94908KDBQ DBQ20030715205011607/15/03 20:50:31  5-MIN KDBQ 160250Z 33008KT 10SM CLR 19/16 A3003 980 78 1800 330/08 RMK AO2 SLP163 T01940156 51009
94908KDBQ DBQ20030715205511607/15/03 20:55:31  5-MIN KDBQ 160255Z 33008KT 10SM CLR 21/16 A3003 980 73 1900 330/08 RMK AO2 SLP163 T02060156 53013
94908KDBQ DBQ20030715210009307/15/03 21:00:31  5-MIN KDBQ 160300Z 33008KT 10SM CLR 19/16 A3003 980 78 1800 330/08 RMK AO2
94908KDBQ DBQ20030715210509307/15/03 21:05:31  5-MIN KDBQ 160305Z 33008KT 10SM CLR 19/16 A3003 970 78 1800 330/08 RMK AO2
94908KDBQ DBQ20030715211009307/15/03 21:10:31  5-MIN KDBQ 160310Z 33007KT 10SM CLR 19/16 A3004 970 78 1800 330/07 RMK AO2
94908KDBQ DBQ20030715211509807/15/03 21:15:31  5-MIN KDBQ 160315Z AUTO 33007KT 10SM CLR 19/16 A3004 970 78 1800 330/07 RMK AO2
94908KDBQ DBQ20030715212010307/15/03 21:20:31  5-MIN KDBQ 160320Z AUTO 33007KT 10SM CLR 19/16 A3004 970 81 1700 330/07 RMK AO2 TSNO
94908KDBQ DBQ20030715212510307/15/03 21:25:31  5-MIN KDBQ 160325Z AUTO 33006KT 10SM CLR 19/16 A3004 970 81 1700 330/06 RMK AO2 TSNO
94908KDBQ DBQ20030715213010307/15/03 21:30:31  5-MIN KDBQ 160330Z AUTO 32006KT 10SM CLR 19/16 A3004 960 81 1700 320/06 RMK AO2 TSNO
94908KDBQ DBQ20030715213510307/15/03 21:35:31  5-MIN KDBQ 160335Z AUTO 32007KT 10SM CLR 19/16 A3004 970 81 1700 320/07 RMK AO2 TSNO
94908KDBQ DBQ20030715214010307/15/03 21:40:31  5-MIN KDBQ 160340Z AUTO 33006KT 10SM CLR 19/15 A3004 960 78 1700 330/06 RMK AO2 TSNO
94908KDBQ DBQ20030715214510307/15/03 21:45:31  5-MIN KDBQ 160345Z AUTO 33006KT 10SM CLR 19/15 A3004 960 78 1700 330/06 RMK AO2 TSNO
94908KDBQ DBQ20030715215012007/15/03 21:50:31  5-MIN KDBQ 160350Z AUTO 33006KT 10SM CLR 19/15 A3004 970 78 1700 330/06 RMK AO2 SLP167 T01890150 TSNO
94908KDBQ DBQ20030715215512007/15/03 21:55:31  5-MIN KDBQ 160355Z AUTO 33006KT 10SM CLR 18/15 A3004 960 81 1600 320/06 RMK AO2 SLP168 T01830150 TSNO
94908KDBQ DBQ20030715220010307/15/03 22:00:31  5-MIN KDBQ 160400Z AUTO 32006KT 10SM CLR 18/15 A3005 960 81 1600 320/06 RMK AO2 TSNO
94908KDBQ DBQ20030715220510307/15/03 22:05:31  5-MIN KDBQ 160405Z AUTO 32006KT 10SM CLR 18/15 A3005 960 81 1600 320/06 RMK AO2 TSNO
94908KDBQ DBQ20030715221010307/15/03 22:10:31  5-MIN KDBQ 160410Z AUTO 32006KT 10SM CLR 18/15 A3005 960 83 1500 320/06 RMK AO2 TSNO
94908KDBQ DBQ20030715221510307/15/03 22:15:31  5-MIN KDBQ 160415Z AUTO 33007KT 10SM CLR 18/15 A3005 960 83 1500 330/07 RMK AO2 TSNO
94908KDBQ DBQ20030715222010307/15/03 22:20:31  5-MIN KDBQ 160420Z AUTO 33007KT 10SM CLR 17/14 A3005 960 83 1500 330/07 RMK AO2 TSNO
94908KDBQ DBQ20030715222510307/15/03 22:25:31  5-MIN KDBQ 160425Z AUTO 33007KT 10SM CLR 18/15 A3005 960 83 1500 330/07 RMK AO2 TSNO
94908KDBQ DBQ20030715223010307/15/03 22:30:31  5-MIN KDBQ 160430Z AUTO 33005KT 10SM CLR 17/14 A3005 950 83 1500 330/05 RMK AO2 TSNO
94908KDBQ DBQ20030715223510307/15/03 22:35:31  5-MIN KDBQ 160435Z AUTO 32004KT 10SM CLR 18/14 A3006 950 81 1500 320/04 RMK AO2 TSNO
94908KDBQ DBQ20030715224010307/15/03 22:40:31  5-MIN KDBQ 160440Z AUTO 00000KT 10SM CLR 18/15 A3006 950 83 1500 000/00 RMK AO2 TSNO
94908KDBQ DBQ20030715224510307/15/03 22:45:31  5-MIN KDBQ 160445Z AUTO 00000KT 10SM CLR 18/15 A3006 950 81 1600 000/00 RMK AO2 TSNO
94908KDBQ DBQ20030715225012007/15/03 22:50:31  5-MIN KDBQ 160450Z AUTO 00000KT 10SM CLR 18/15 A3006 950 81 1600 000/00 RMK AO2 SLP174 T01830150 TSNO
94908KDBQ DBQ20030715225512007/15/03 22:55:31  5-MIN KDBQ 160455Z AUTO 00000KT 10SM CLR 18/14 A3006 950 78 1600 000/00 RMK AO2 SLP174 T01830144 TSNO
94908KDBQ DBQ20030715230010307/15/03 23:00:31  5-MIN KDBQ 160500Z AUTO 00000KT 10SM CLR 18/15 A3006 950 81 1600 000/00 RMK AO2 TSNO
94908KDBQ DBQ20030715230510307/15/03 23:05:31  5-MIN KDBQ 160505Z AUTO 03003KT 10SM CLR 18/14 A3006 950 78 1600 030/03 RMK AO2 TSNO
94908KDBQ DBQ20030715231010307/15/03 23:10:31  5-MIN KDBQ 160510Z AUTO 01003KT 10SM CLR 18/14 A3006 950 78 1600 010/03 RMK AO2 TSNO
94908KDBQ DBQ20030715231510307/15/03 23:15:31  5-MIN KDBQ 160515Z AUTO 36003KT 10SM CLR 19/14 A3006 950 75 1700 360/03 RMK AO2 TSNO
94908KDBQ DBQ20030715232010307/15/03 23:20:31  5-MIN KDBQ 160520Z AUTO 00000KT 10SM CLR 18/14 A3006 950 81 1500 000/00 RMK AO2 TSNO
94908KDBQ DBQ20030715232510307/15/03 23:25:31  5-MIN KDBQ 160525Z AUTO 00000KT 10SM CLR 18/14 A3007 940 81 1500 000/00 RMK AO2 TSNO
94908KDBQ DBQ20030715233010307/15/03 23:30:31  5-MIN KDBQ 160530Z AUTO 36003KT 10SM CLR 18/14 A3007 940 81 1500 360/03 RMK AO2 TSNO
94908KDBQ DBQ20030715233510307/15/03 23:35:31  5-MIN KDBQ 160535Z AUTO 00000KT 10SM CLR 18/14 A3007 940 81 1500 000/00 RMK AO2 TSNO
94908KDBQ DBQ20030715234010307/15/03 23:40:31  5-MIN KDBQ 160540Z AUTO 34003KT 10SM CLR 17/14 A3007 940 83 1400 340/03 RMK AO2 TSNO
94908KDBQ DBQ20030715234510307/15/03 23:45:31  5-MIN KDBQ 160545Z AUTO 00000KT 10SM CLR 15/13 A3007 940 86 1200 000/00 RMK AO2 TSNO
94908KDBQ DBQ20030715235014807/15/03 23:50:31  5-MIN KDBQ 160550Z AUTO 00000KT 10SM CLR 16/13 A3007 940 83 1300 000/00 RMK AO2 SLP177 T01610133 10250 20150 402780150 53013 TSNO
94908KDBQ DBQ20030715235514807/15/03 23:55:31  5-MIN KDBQ 160555Z AUTO 00000KT 10SM CLR 17/14 A3007 940 83 1400 000/00 RMK AO2 SLP177 T01670139 10250 20150 402780150 51014 TSNO
94908KDBQ DBQ20030716000010307/16/03 00:00:31  5-MIN KDBQ 160600Z AUTO 00000KT 10SM CLR 17/14 A3007 940 86 1400 000/00 RMK AO2 TSNO
94908KDBQ DBQ20030716000510307/16/03 00:05:31  5-MIN KDBQ 160605Z AUTO 00000KT 10SM CLR 18/14 A3007 940 81 1500 000/00 RMK AO2 TSNO
94908KDBQ DBQ20030716001010307/16/03 00:10:31  5-MIN KDBQ 160610Z AUTO 00000KT 10SM CLR 17/14 A3007 940 83 1400 000/00 RMK AO2 TSNO
94908KDBQ DBQ20030716001510307/16/03 00:15:31  5-MIN KDBQ 160615Z AUTO 00000KT 10SM CLR 17/14 A3007 940 83 1400 000/00 RMK AO2 TSNO
94908KDBQ DBQ20030716002010307/16/03 00:20:31  5-MIN KDBQ 160620Z AUTO 34003KT 10SM CLR 17/14 A3007 940 86 1400 340/03 RMK AO2 TSNO
94908KDBQ DBQ20030716002510307/16/03 00:25:31  5-MIN KDBQ 160625Z AUTO 00000KT 10SM CLR 17/14 A3007 940 83 1400 000/00 RMK AO2 TSNO
94908KDBQ DBQ20030716003010307/16/03 00:30:31  5-MIN KDBQ 160630Z AUTO 00000KT 10SM CLR 18/14 A3007 940 81 1500 000/00 RMK AO2 TSNO
94908KDBQ DBQ20030716003510307/16/03 00:35:31  5-MIN KDBQ 160635Z AUTO 00000KT 10SM CLR 17/14 A3007 940 83 1400 000/00 RMK AO2 TSNO
94908KDBQ DBQ20030716004010307/16/03 00:40:31  5-MIN KDBQ 160640Z AUTO 00000KT 10SM CLR 15/13 A3008 940 86 1200 000/00 RMK AO2 TSNO
94908KDBQ DBQ20030716004510307/16/03 00:45:31  5-MIN KDBQ 160645Z AUTO 00000KT 10SM CLR 16/14 A3008 930 86 1300 000/00 RMK AO2 TSNO
94908KDBQ DBQ20030716005012007/16/03 00:50:31  5-MIN KDBQ 160650Z AUTO 00000KT 10SM CLR 16/14 A3008 930 86 1300 000/00 RMK AO2 SLP180 T01610139 TSNO
94908KDBQ DBQ20030716005512007/16/03 00:55:31  5-MIN KDBQ 160655Z AUTO 00000KT 10SM CLR 16/14 A3008 930 86 1300 000/00 RMK AO2 SLP180 T01610139 TSNO
94908KDBQ DBQ20030716010010307/16/03 01:00:31  5-MIN KDBQ 160700Z AUTO 34003KT 10SM CLR 17/14 A3008 930 83 1400 340/03 RMK AO2 TSNO
94908KDBQ DBQ20030716010510307/16/03 01:05:31  5-MIN KDBQ 160705Z AUTO 34003KT 10SM CLR 17/14 A3008 930 83 1400 340/03 RMK AO2 TSNO
94908KDBQ DBQ20030716011010307/16/03 01:10:31  5-MIN KDBQ 160710Z AUTO 34003KT 10SM CLR 17/14 A3008 930 80 1400 340/03 RMK AO2 TSNO
94908KDBQ DBQ20030716011510307/16/03 01:15:31  5-MIN KDBQ 160715Z AUTO 00000KT 10SM CLR 15/13 A3009 930 90 1200 000/00 RMK AO2 TSNO
94908KDBQ DBQ20030716012010307/16/03 01:20:31  5-MIN KDBQ 160720Z AUTO 00000KT 10SM CLR 16/14 A3009 930 90 1200 000/00 RMK AO2 TSNO
94908KDBQ DBQ20030716012510307/16/03 01:25:31  5-MIN KDBQ 160725Z AUTO 00000KT 10SM CLR 16/14 A3009 930 90 1200 000/00 RMK AO2 TSNO
94908KDBQ DBQ20030716013010307/16/03 01:30:31  5-MIN KDBQ 160730Z AUTO 00000KT 10SM CLR 16/14 A3009 920 86 1300 000/00 RMK AO2 TSNO
94908KDBQ DBQ20030716013510307/16/03 01:35:31  5-MIN KDBQ 160735Z AUTO 00000KT 10SM CLR 16/13 A3009 920 86 1200 000/00 RMK AO2 TSNO
94908KDBQ DBQ20030716014010307/16/03 01:40:31  5-MIN KDBQ 160740Z AUTO 00000KT 10SM CLR 15/13 A3009 920 90 1200 000/00 RMK AO2 TSNO
94908KDBQ DBQ20030716014510307/16/03 01:45:31  5-MIN KDBQ 160745Z AUTO 00000KT 10SM CLR 15/13 A3009 920 90 1200 000/00 RMK AO2 TSNO
94908KDBQ DBQ20030716015012007/16/03 01:50:31  5-MIN KDBQ 160750Z AUTO 00000KT 10SM CLR 15/13 A3009 920 90 1200 000/00 RMK AO2 SLP184 T01500133 TSNO
94908KDBQ DBQ20030716015512007/16/03 01:55:31  5-MIN KDBQ 160755Z AUTO 00000KT 10SM CLR 15/13 A3009 920 90 1200 000/00 RMK AO2 SLP186 T01500133 TSNO
94908KDBQ DBQ20030716020010307/16/03 02:00:31  5-MIN KDBQ 160800Z AUTO 02003KT 10SM CLR 15/13 A3009 920 90 1200 020/03 RMK AO2 TSNO
94908KDBQ DBQ20030716020510307/16/03 02:05:31  5-MIN KDBQ 160805Z AUTO 01003KT 10SM CLR 14/13 A3009 920 90 1100 010/03 RMK AO2 TSNO
94908KDBQ DBQ20030716021010307/16/03 02:10:31  5-MIN KDBQ 160810Z AUTO 01004KT 10SM CLR 15/13 A3010 920 90 1200 010/04 RMK AO2 TSNO
94908KDBQ DBQ20030716021510307/16/03 02:15:31  5-MIN KDBQ 160815Z AUTO 02003KT 10SM CLR 13/12 A3010 910 93 1000 020/03 RMK AO2 TSNO
94908KDBQ DBQ20030716022010307/16/03 02:20:31  5-MIN KDBQ 160820Z AUTO 00000KT 10SM CLR 14/13 A3010 910 93 1100 000/00 RMK AO2 TSNO
94908KDBQ DBQ20030716022510307/16/03 02:25:31  5-MIN KDBQ 160825Z AUTO 00000KT 10SM CLR 14/13 A3010 910 93 1100 000/00 RMK AO2 TSNO
94908KDBQ DBQ20030716023010307/16/03 02:30:31  5-MIN KDBQ 160830Z AUTO 00000KT 10SM CLR 14/13 A3010 910 93 1100 000/00 RMK AO2 TSNO
94908KDBQ DBQ20030716023510307/16/03 02:35:31  5-MIN KDBQ 160835Z AUTO 00000KT 10SM CLR 14/13 A3010 910 93 1100 000/00 RMK AO2 TSNO
94908KDBQ DBQ20030716024010307/16/03 02:40:31  5-MIN KDBQ 160840Z AUTO 00000KT 10SM CLR 15/13 A3010 910 90 1200 000/00 RMK AO2 TSNO
94908KDBQ DBQ20030716024510307/16/03 02:45:31  5-MIN KDBQ 160845Z AUTO 00000KT 10SM CLR 15/13 A3011 910 90 1200 000/00 RMK AO2 TSNO
94908KDBQ DBQ20030716025012607/16/03 02:50:31  5-MIN KDBQ 160850Z AUTO 00000KT 10SM CLR 15/13 A3011 900 90 1200 000/00 RMK AO2 SLP191 T01500133 51014 TSNO
94908KDBQ DBQ20030716025512607/16/03 02:55:31  5-MIN KDBQ 160855Z AUTO 00000KT 10SM CLR 15/13 A3011 900 90 1200 000/00 RMK AO2 SLP192 T01500133 53013 TSNO
94908KDBQ DBQ20030716030010307/16/03 03:00:31  5-MIN KDBQ 160900Z AUTO 00000KT 10SM CLR 15/14 A3011 900 93 1200 000/00 RMK AO2 TSNO
94908KDBQ DBQ20030716030510307/16/03 03:05:31  5-MIN KDBQ 160905Z AUTO 00000KT 10SM CLR 14/13 A3011 910 93 1100 000/00 RMK AO2 TSNO
94908KDBQ DBQ20030716031010307/16/03 03:10:31  5-MIN KDBQ 160910Z AUTO 00000KT 10SM CLR 14/13 A3011 910 96 1000 000/00 RMK AO2 TSNO
94908KDBQ DBQ20030716031510307/16/03 03:15:31  5-MIN KDBQ 160915Z AUTO 00000KT 10SM CLR 14/13 A3011 900 93 1000 000/00 RMK AO2 TSNO
94908KDBQ DBQ20030716032010307/16/03 03:20:31  5-MIN KDBQ 160920Z AUTO 00000KT 10SM CLR 14/13 A3011 900 90 1100 000/00 RMK AO2 TSNO
94908KDBQ DBQ20030716032510307/16/03 03:25:31  5-MIN KDBQ 160925Z AUTO 00000KT 10SM CLR 14/13 A3012 900 93 1000 000/00 RMK AO2 TSNO
94908KDBQ DBQ20030716033010307/16/03 03:30:31  5-MIN KDBQ 160930Z AUTO 00000KT 10SM CLR 14/13 A3012 900 96 1000 000/00 RMK AO2 TSNO
94908KDBQ DBQ20030716033510307/16/03 03:35:31  5-MIN KDBQ 160935Z AUTO 00000KT 10SM CLR 14/13 A3012 900 93 1100 000/00 RMK AO2 TSNO
94908KDBQ DBQ20030716034010307/16/03 03:40:31  5-MIN KDBQ 160940Z AUTO 00000KT 10SM CLR 14/13 A3012 900 96 1000 000/00 RMK AO2 TSNO
94908KDBQ DBQ20030716034510307/16/03 03:45:31  5-MIN KDBQ 160945Z AUTO 00000KT 10SM CLR 14/13 A3012 900 93 1000 000/00 RMK AO2 TSNO
94908KDBQ DBQ20030716035012007/16/03 03:50:31  5-MIN KDBQ 160950Z AUTO 00000KT 10SM CLR 14/13 A3012 890 93 1000 000/00 RMK AO2 SLP196 T01390128 TSNO
94908KDBQ DBQ20030716035512007/16/03 03:55:31  5-MIN KDBQ 160955Z AUTO 00000KT 10SM CLR 14/13 A3012 890 93 1000 000/00 RMK AO2 SLP196 T01390128 TSNO
94908KDBQ DBQ20030716040010307/16/03 04:00:31  5-MIN KDBQ 161000Z AUTO 00000KT 10SM CLR 14/13 A3012 890 93 1000 000/00 RMK AO2 TSNO
94908KDBQ DBQ20030716040510307/16/03 04:05:31  5-MIN KDBQ 161005Z AUTO 00000KT 10SM CLR 14/13 A3013 890 93 1000 000/00 RMK AO2 TSNO
94908KDBQ DBQ20030716041010307/16/03 04:10:31  5-MIN KDBQ 161010Z AUTO 00000KT 10SM CLR 14/13 A3013 890 93 1000 000/00 RMK AO2 TSNO
94908KDBQ DBQ20030716041510107/16/03 04:15:31  5-MIN KDBQ 161015Z AUTO 00000KT 9SM CLR 13/13 A3013 890 96 900 000/00 RMK AO2 TSNO
94908KDBQ DBQ20030716042010207/16/03 04:20:31  5-MIN KDBQ 161020Z AUTO 00000KT 9SM CLR 14/13 A3013 890 93 1000 000/00 RMK AO2 TSNO
94908KDBQ DBQ20030716042510207/16/03 04:25:31  5-MIN KDBQ 161025Z AUTO 00000KT 9SM CLR 14/13 A3013 880 93 1000 000/00 RMK AO2 TSNO
94908KDBQ DBQ20030716043010107/16/03 04:30:31  5-MIN KDBQ 161030Z AUTO 00000KT 8SM CLR 13/13 A3014 880 96 900 000/00 RMK AO2 TSNO
94908KDBQ DBQ20030716043510107/16/03 04:35:31  5-MIN KDBQ 161035Z AUTO 00000KT 8SM CLR 13/12 A3014 880 93 900 000/00 RMK AO2 TSNO
94908KDBQ DBQ20030716044010107/16/03 04:40:31  5-MIN KDBQ 161040Z AUTO 00000KT 8SM CLR 13/12 A3014 880 93 900 000/00 RMK AO2 TSNO
94908KDBQ DBQ20030716044510107/16/03 04:45:31  5-MIN KDBQ 161045Z AUTO 00000KT 8SM CLR 13/12 A3014 880 93 900 000/00 RMK AO2 TSNO
94908KDBQ DBQ20030716045010807/16/03 04:50:31  5-MIN KDBQ 161050Z 00000KT 8SM CLR 13/12 A3014 880 93 900 000/00 RMK AO2 SLP202 T01330122
94908KDBQ DBQ20030716045510907/16/03 04:55:31  5-MIN KDBQ 161055Z 00000KT 9SM CLR 14/13 A3014 870 93 1000 000/00 RMK AO2 SLP204 T01390128
94908KDBQ DBQ20030716050009107/16/03 05:00:31  5-MIN KDBQ 161100Z 00000KT 8SM CLR 13/12 A3015 870 93 900 000/00 RMK AO2
94908KDBQ DBQ20030716050509107/16/03 05:05:31  5-MIN KDBQ 161105Z 00000KT 8SM CLR 13/12 A3015 870 93 900 000/00 RMK AO2
94908KDBQ DBQ20030716051009307/16/03 05:10:31  5-MIN KDBQ 161110Z 00000KT 10SM CLR 14/12 A3015 870 90 1000 000/00 RMK AO2
94908KDBQ DBQ20030716051509307/16/03 05:15:31  5-MIN KDBQ 161115Z 00000KT 10SM CLR 14/12 A3015 870 90 1000 000/00 RMK AO2
94908KDBQ DBQ20030716052009207/16/03 05:20:31  5-MIN KDBQ 161120Z 00000KT 9SM CLR 14/13 A3015 870 93 1000 000/00 RMK AO2
94908KDBQ DBQ20030716052509207/16/03 05:25:31  5-MIN KDBQ 161125Z 00000KT 9SM CLR 14/13 A3015 870 93 1000 000/00 RMK AO2
94908KDBQ DBQ20030716053009207/16/03 05:30:31  5-MIN KDBQ 161130Z 00000KT 9SM CLR 14/13 A3015 870 93 1000 000/00 RMK AO2
94908KDBQ DBQ20030716053509207/16/03 05:35:31  5-MIN KDBQ 161135Z 00000KT 8SM CLR 14/13 A3015 870 93 1000 000/00 RMK AO2
94908KDBQ DBQ20030716054009207/16/03 05:40:31  5-MIN KDBQ 161140Z 00000KT 7SM CLR 14/13 A3015 870 93 1000 000/00 RMK AO2
94908KDBQ DBQ20030716054509207/16/03 05:45:31  5-MIN KDBQ 161145Z 00000KT 7SM CLR 15/14 A3015 870 93 1100 000/00 RMK AO2
94908KDBQ DBQ20030716055012707/16/03 05:50:31  5-MIN KDBQ 161150Z 00000KT 7SM CLR 16/14 A3015 860 93 1200 000/00 RMK AO2 SLP206 T01560144 10178 20133 53013
94908KDBQ DBQ20030716055512707/16/03 05:55:31  5-MIN KDBQ 161155Z 00000KT 8SM CLR 16/14 A3015 870 93 1200 000/00 RMK AO2 SLP206 T01560144 10178 20133 51013
94908KDBQ DBQ20030716060009207/16/03 06:00:31  5-MIN KDBQ 161200Z 00000KT 7SM CLR 16/14 A3015 870 90 1200 000/00 RMK AO2
94908KDBQ DBQ20030716060509207/16/03 06:05:31  5-MIN KDBQ 161205Z 00000KT 7SM CLR 17/15 A3015 860 90 1300 000/00 RMK AO2
94908KDBQ DBQ20030716061009207/16/03 06:10:31  5-MIN KDBQ 161210Z 00000KT 7SM CLR 17/15 A3015 870 90 1300 000/00 RMK AO2
94908KDBQ DBQ20030716061509207/16/03 06:15:31  5-MIN KDBQ 161215Z 00000KT 8SM CLR 17/16 A3015 870 90 1400 000/00 RMK AO2
94908KDBQ DBQ20030716062009207/16/03 06:20:31  5-MIN KDBQ 161220Z 00000KT 8SM CLR 18/16 A3015 870 87 1400 000/00 RMK AO2
94908KDBQ DBQ20030716062509207/16/03 06:25:31  5-MIN KDBQ 161225Z 00000KT 8SM CLR 18/16 A3015 860 90 1400 000/00 RMK AO2
94908KDBQ DBQ20030716063009207/16/03 06:30:31  5-MIN KDBQ 161230Z 00000KT 8SM CLR 18/16 A3015 860 87 1500 000/00 RMK AO2
94908KDBQ DBQ20030716063509207/16/03 06:35:31  5-MIN KDBQ 161235Z 00000KT 8SM CLR 18/16 A3015 860 87 1500 000/00 RMK AO2
94908KDBQ DBQ20030716064009207/16/03 06:40:31  5-MIN KDBQ 161240Z 00000KT 9SM CLR 19/16 A3016 860 84 1600 000/00 RMK AO2
94908KDBQ DBQ20030716064509307/16/03 06:45:31  5-MIN KDBQ 161245Z 22003KT 10SM CLR 19/17 A3016 860 87 1600 220/03 RMK AO2
94908KDBQ DBQ20030716065011007/16/03 06:50:31  5-MIN KDBQ 161250Z 00000KT 10SM CLR 19/16 A3016 860 84 1600 000/00 RMK AO2 SLP208 T01890161
94908KDBQ DBQ20030716065511007/16/03 06:55:31  5-MIN KDBQ 161255Z 22003KT 10SM CLR 19/16 A3016 860 81 1600 220/03 RMK AO2 SLP207 T01940161
94908KDBQ DBQ20030716070009307/16/03 07:00:31  5-MIN KDBQ 161300Z 23004KT 10SM CLR 19/17 A3016 860 84 1600 230/04 RMK AO2
94908KDBQ DBQ20030716070509307/16/03 07:05:31  5-MIN KDBQ 161305Z 23004KT 10SM CLR 19/17 A3016 860 84 1600 230/04 RMK AO2
94908KDBQ DBQ20030716071009307/16/03 07:10:31  5-MIN KDBQ 161310Z 23004KT 10SM CLR 19/17 A3015 870 84 1600 230/04 RMK AO2
94908KDBQ DBQ20030716071509307/16/03 07:15:31  5-MIN KDBQ 161315Z 21004KT 10SM CLR 20/17 A3015 860 84 1700 210/04 RMK AO2
94908KDBQ DBQ20030716072009307/16/03 07:20:31  5-MIN KDBQ 161320Z 18006KT 10SM CLR 21/17 A3015 870 78 1800 180/06 RMK AO2
94908KDBQ DBQ20030716072509307/16/03 07:25:31  5-MIN KDBQ 161325Z 19006KT 10SM CLR 21/16 A3015 870 75 1800 190/06 RMK AO2
94908KDBQ DBQ20030716073009307/16/03 07:30:31  5-MIN KDBQ 161330Z 20006KT 10SM CLR 21/16 A3015 870 75 1800 200/06 RMK AO2
94908KDBQ DBQ20030716073509307/16/03 07:35:31  5-MIN KDBQ 161335Z 17004KT 10SM CLR 21/16 A3015 870 73 1800 170/04 RMK AO2
94908KDBQ DBQ20030716074009307/16/03 07:40:31  5-MIN KDBQ 161340Z 19004KT 10SM CLR 21/16 A3015 860 73 1800 190/04 RMK AO2
94908KDBQ DBQ20030716074509307/16/03 07:45:31  5-MIN KDBQ 161345Z 19005KT 10SM CLR 21/16 A3016 860 73 1800 190/05 RMK AO2
94908KDBQ DBQ20030716075011007/16/03 07:50:31  5-MIN KDBQ 161350Z 17005KT 10SM CLR 22/16 A3016 860 70 1900 170/05 RMK AO2 SLP208 T02170161
94908KDBQ DBQ20030716075511007/16/03 07:55:31  5-MIN KDBQ 161355Z 19004KT 10SM CLR 22/16 A3016 860 70 1900 190/04 RMK AO2 SLP208 T02170161
94908KDBQ DBQ20030716080009307/16/03 08:00:31  5-MIN KDBQ 161400Z 20006KT 10SM CLR 22/17 A3016 860 70 1900 200/06 RMK AO2
94908KDBQ DBQ20030716080509307/16/03 08:05:31  5-MIN KDBQ 161405Z 19005KT 10SM CLR 22/16 A3016 850 65 1900 190/05 RMK AO2
94908KDBQ DBQ20030716081009307/16/03 08:10:31  5-MIN KDBQ 161410Z 20006KT 10SM CLR 22/16 A3017 850 65 1900 200/06 RMK AO2
94908KDBQ DBQ20030716081509307/16/03 08:15:31  5-MIN KDBQ 161415Z 19006KT 10SM CLR 22/16 A3017 850 65 1900 190/06 RMK AO2
94908KDBQ DBQ20030716082009307/16/03 08:20:31  5-MIN KDBQ 161420Z 18006KT 10SM CLR 22/16 A3016 850 65 1900 180/06 RMK AO2
94908KDBQ DBQ20030716082509307/16/03 08:25:31  5-MIN KDBQ 161425Z 18006KT 10SM CLR 22/16 A3017 850 65 1900 180/06 RMK AO2
94908KDBQ DBQ20030716083009307/16/03 08:30:31  5-MIN KDBQ 161430Z 20006KT 10SM CLR 23/16 A3017 850 65 2000 200/06 RMK AO2
94908KDBQ DBQ20030716083509307/16/03 08:35:31  5-MIN KDBQ 161435Z 21005KT 10SM CLR 23/16 A3017 850 63 2000 210/05 RMK AO2
94908KDBQ DBQ20030716084009307/16/03 08:40:31  5-MIN KDBQ 161440Z 20005KT 10SM CLR 23/16 A3017 850 63 2000 200/05 RMK AO2
94908KDBQ DBQ20030716084509307/16/03 08:45:31  5-MIN KDBQ 161445Z 23004KT 10SM CLR 23/16 A3017 850 63 2000 230/04 RMK AO2
94908KDBQ DBQ20030716085011607/16/03 08:50:31  5-MIN KDBQ 161450Z 22006KT 10SM CLR 23/16 A3017 850 65 2000 220/06 RMK AO2 SLP212 T02280161 51013
94908KDBQ DBQ20030716085511607/16/03 08:55:31  5-MIN KDBQ 161455Z 19005KT 10SM CLR 23/17 A3017 850 66 2000 190/05 RMK AO2 SLP211 T02330167 53006
94908KDBQ DBQ20030716090010907/16/03 09:00:31  5-MIN KDBQ 161500Z 22007KT 170V240 10SM CLR 23/16 A3017 850 63 2000 220/07 170V240 RMK AO2
94908KDBQ DBQ20030716090509307/16/03 09:05:31  5-MIN KDBQ 161505Z 23006KT 10SM CLR 23/16 A3017 850 63 2000 230/06 RMK AO2
94908KDBQ DBQ20030716091009307/16/03 09:10:31  5-MIN KDBQ 161510Z 22006KT 10SM CLR 23/16 A3017 850 63 2000 220/06 RMK AO2
94908KDBQ DBQ20030716091509307/16/03 09:15:31  5-MIN KDBQ 161515Z 24005KT 10SM CLR 23/16 A3017 850 65 2000 240/05 RMK AO2
94908KDBQ DBQ20030716092009307/16/03 09:20:31  5-MIN KDBQ 161520Z 23007KT 10SM CLR 23/16 A3017 850 63 2000 230/07 RMK AO2
94908KDBQ DBQ20030716092509307/16/03 09:25:31  5-MIN KDBQ 161525Z 20006KT 10SM CLR 24/17 A3017 850 63 2100 200/06 RMK AO2
94908KDBQ DBQ20030716093009307/16/03 09:30:31  5-MIN KDBQ 161530Z 18006KT 10SM CLR 23/16 A3017 850 61 2100 180/06 RMK AO2
94908KDBQ DBQ20030716093509307/16/03 09:35:31  5-MIN KDBQ 161535Z 20006KT 10SM CLR 23/16 A3017 850 61 2100 200/06 RMK AO2
94908KDBQ DBQ20030716094009307/16/03 09:40:31  5-MIN KDBQ 161540Z 20006KT 10SM CLR 24/16 A3016 850 59 2100 200/06 RMK AO2
94908KDBQ DBQ20030716094509307/16/03 09:45:31  5-MIN KDBQ 161545Z 20005KT 10SM CLR 23/15 A3016 860 59 2100 200/05 RMK AO2
94908KDBQ DBQ20030716095011007/16/03 09:50:31  5-MIN KDBQ 161550Z 22005KT 10SM CLR 23/16 A3016 860 61 2100 220/05 RMK AO2 SLP209 T02330156
94908KDBQ DBQ20030716095511007/16/03 09:55:31  5-MIN KDBQ 161555Z VRB06KT 10SM CLR 23/16 A3016 850 61 2100 VRB/06 RMK AO2 SLP210 T02330156
94908KDBQ DBQ20030716100009307/16/03 10:00:31  5-MIN KDBQ 161600Z 23004KT 10SM CLR 23/16 A3017 850 61 2100 230/04 RMK AO2
94908KDBQ DBQ20030716100509307/16/03 10:05:31  5-MIN KDBQ 161605Z 22005KT 10SM CLR 24/16 A3017 850 59 2100 220/05 RMK AO2
94908KDBQ DBQ20030716101009307/16/03 10:10:31  5-MIN KDBQ 161610Z 26004KT 10SM CLR 24/16 A3017 850 59 2100 260/04 RMK AO2
94908KDBQ DBQ20030716101509307/16/03 10:15:31  5-MIN KDBQ 161615Z VRB03KT 10SM CLR 24/16 A3018 840 59 2100 VRB/03 RMK AO2
94908KDBQ DBQ20030716102009307/16/03 10:20:31  5-MIN KDBQ 161620Z VRB03KT 10SM CLR 24/16 A3018 830 59 2100 VRB/03 RMK AO2
94908KDBQ DBQ20030716102509307/16/03 10:25:31  5-MIN KDBQ 161625Z 00000KT 10SM CLR 24/16 A3018 840 59 2100 000/00 RMK AO2
94908KDBQ DBQ20030716103009607/16/03 10:30:31  5-MIN KDBQ 161630Z 00000KT 10SM FEW035 24/15 A3018 840 55 2200 000/00 RMK AO2
94908KDBQ DBQ20030716103509607/16/03 10:35:31  5-MIN KDBQ 161635Z VRB03KT 10SM SCT035 24/16 A3019 830 59 2100 VRB/03 RMK AO2
94908KDBQ DBQ20030716104009607/16/03 10:40:31  5-MIN KDBQ 161640Z 28004KT 10SM FEW035 24/16 A3019 830 61 2100 280/04 RMK AO2
94908KDBQ DBQ20030716104509607/16/03 10:45:31  5-MIN KDBQ 161645Z 26003KT 10SM FEW035 24/16 A3019 830 61 2100 260/03 RMK AO2
94908KDBQ DBQ20030716105011307/16/03 10:50:31  5-MIN KDBQ 161650Z 26006KT 10SM FEW035 24/17 A3018 840 63 2100 260/06 RMK AO2 SLP217 T02390167
94908KDBQ DBQ20030716105511307/16/03 10:55:31  5-MIN KDBQ 161655Z 27005KT 10SM FEW035 24/17 A3018 840 63 2100 270/05 RMK AO2 SLP214 T02390167
94908KDBQ DBQ20030716110009607/16/03 11:00:31  5-MIN KDBQ 161700Z 00000KT 10SM FEW035 24/16 A3017 840 59 2100 000/00 RMK AO2
94908KDBQ DBQ20030716110509307/16/03 11:05:31  5-MIN KDBQ 161705Z VRB03KT 10SM CLR 24/16 A3018 840 57 2200 VRB/03 RMK AO2
94908KDBQ DBQ20030716111009307/16/03 11:10:31  5-MIN KDBQ 161710Z 23005KT 10SM CLR 24/16 A3018 840 59 2200 230/05 RMK AO2
94908KDBQ DBQ20030716111509307/16/03 11:15:31  5-MIN KDBQ 161715Z VRB03KT 10SM CLR 24/16 A3018 840 59 2200 VRB/03 RMK AO2
94908KDBQ DBQ20030716112009607/16/03 11:20:31  5-MIN KDBQ 161720Z 00000KT 10SM FEW036 25/15 A3018 840 53 2200 000/00 RMK AO2
94908KDBQ DBQ20030716112509507/16/03 11:25:31  5-MIN KDBQ 161725Z 00000KT 9SM SCT036 24/16 A3017 840 57 2200 000/00 RMK AO2
94908KDBQ DBQ20030716113009607/16/03 11:30:31  5-MIN KDBQ 161730Z 21007KT 10SM SCT036 24/16 A3017 850 57 2200 210/07 RMK AO2
94908KDBQ DBQ20030716113509607/16/03 11:35:31  5-MIN KDBQ 161735Z 22004KT 10SM SCT036 24/15 A3017 850 57 2100 220/04 RMK AO2
94908KDBQ DBQ20030716114009607/16/03 11:40:31  5-MIN KDBQ 161740Z 22004KT 10SM FEW036 24/15 A3017 850 55 2200 220/04 RMK AO2
94908KDBQ DBQ20030716114509607/16/03 11:45:31  5-MIN KDBQ 161745Z 23004KT 10SM FEW036 24/16 A3017 850 57 2200 230/04 RMK AO2
94908KDBQ DBQ20030716115013107/16/03 11:50:31  5-MIN KDBQ 161750Z 21006KT 10SM FEW036 24/16 A3017 850 59 2200 210/06 RMK AO2 SLP211 T02440161 10250 20161 53006
94908KDBQ DBQ20030716115513107/16/03 11:55:31  5-MIN KDBQ 161755Z 22005KT 10SM FEW036 24/16 A3017 850 59 2200 220/05 RMK AO2 SLP212 T02440161 10250 20161 57001
94908KDBQ DBQ20030716120009307/16/03 12:00:31  5-MIN KDBQ 161800Z 21005KT 10SM CLR 24/16 A3017 850 59 2200 210/05 RMK AO2
94908KDBQ DBQ20030716120509307/16/03 12:05:31  5-MIN KDBQ 161805Z 23007KT 10SM CLR 24/16 A3017 850 59 2200 230/07 RMK AO2
94908KDBQ DBQ20030716121009307/16/03 12:10:31  5-MIN KDBQ 161810Z 20008KT 10SM CLR 24/16 A3017 850 59 2200 200/08 RMK AO2
94908KDBQ DBQ20030716121509307/16/03 12:15:31  5-MIN KDBQ 161815Z 24008KT 10SM CLR 24/16 A3017 840 61 2100 230/08 RMK AO2
94908KDBQ DBQ20030716122009307/16/03 12:20:31  5-MIN KDBQ 161820Z 22006KT 10SM CLR 24/16 A3017 850 61 2100 220/06 RMK AO2
94908KDBQ DBQ20030716122509307/16/03 12:25:31  5-MIN KDBQ 161825Z 22008KT 10SM CLR 24/16 A3017 850 59 2100 220/08 RMK AO2
94908KDBQ DBQ20030716123009307/16/03 12:30:31  5-MIN KDBQ 161830Z 22006KT 10SM CLR 24/16 A3017 850 59 2200 220/06 RMK AO2
94908KDBQ DBQ20030716123509307/16/03 12:35:31  5-MIN KDBQ 161835Z 23005KT 10SM CLR 25/16 A3016 850 57 2200 220/05 RMK AO2
94908KDBQ DBQ20030716124010007/16/03 12:40:31  5-MIN KDBQ 161840Z 19008KT 10SM CLR 25/17 A3015 870 59 2300 190/08 RMK AO2 PRESFR
94908KDBQ DBQ20030716124509307/16/03 12:45:31  5-MIN KDBQ 161845Z 17006KT 10SM CLR 25/17 A3014 870 59 2300 170/06 RMK AO2
94908KDBQ DBQ20030716125011007/16/03 12:50:31  5-MIN KDBQ 161850Z 25006KT 10SM CLR 25/17 A3015 870 59 2300 250/06 RMK AO2 SLP205 T02500167
94908KDBQ DBQ20030716125511007/16/03 12:55:31  5-MIN KDBQ 161855Z 22007KT 10SM CLR 25/17 A3016 860 59 2300 220/07 RMK AO2 SLP207 T02500167
94908KDBQ DBQ20030716130009307/16/03 13:00:31  5-MIN KDBQ 161900Z 24007KT 10SM CLR 26/17 A3015 860 59 2300 240/07 RMK AO2
94908KDBQ DBQ20030716130509307/16/03 13:05:31  5-MIN KDBQ 161905Z 23007KT 10SM CLR 26/17 A3015 870 59 2300 230/07 RMK AO2
94908KDBQ DBQ20030716131009307/16/03 13:10:31  5-MIN KDBQ 161910Z VRB04KT 10SM CLR 26/17 A3015 870 57 2300 VRB/04 RMK AO2
94908KDBQ DBQ20030716131509307/16/03 13:15:31  5-MIN KDBQ 161915Z 22007KT 10SM CLR 26/17 A3015 860 57 2300 220/07 RMK AO2
94908KDBQ DBQ20030716132009307/16/03 13:20:31  5-MIN KDBQ 161920Z 19007KT 10SM CLR 26/17 A3016 860 57 2300 190/07 RMK AO2
94908KDBQ DBQ20030716132509307/16/03 13:25:31  5-MIN KDBQ 161925Z 25005KT 10SM CLR 26/17 A3016 860 59 2300 250/05 RMK AO2
94908KDBQ DBQ20030716133009607/16/03 13:30:31  5-MIN KDBQ 161930Z VRB04KT 10SM FEW038 26/17 A3016 860 57 2300 VRB/04 RMK AO2
94908KDBQ DBQ20030716133509607/16/03 13:35:31  5-MIN KDBQ 161935Z VRB05KT 10SM FEW038 26/17 A3016 850 59 2300 VRB/05 RMK AO2
94908KDBQ DBQ20030716134009607/16/03 13:40:31  5-MIN KDBQ 161940Z VRB04KT 10SM SCT038 26/17 A3016 850 57 2300 VRB/04 RMK AO2
94908KDBQ DBQ20030716134509607/16/03 13:45:31  5-MIN KDBQ 161945Z VRB04KT 10SM SCT038 26/17 A3016 860 57 2300 VRB/04 RMK AO2
94908KDBQ DBQ20030716135011307/16/03 13:50:31  5-MIN KDBQ 161950Z VRB05KT 10SM FEW038 26/17 A3016 860 55 2400 VRB/05 RMK AO2 SLP207 T02610167
94908KDBQ DBQ20030716135511307/16/03 13:55:31  5-MIN KDBQ 161955Z 20006KT 10SM FEW038 26/17 A3016 860 57 2300 200/06 RMK AO2 SLP207 T02560167
94908KDBQ DBQ20030716140009607/16/03 14:00:31  5-MIN KDBQ 162000Z VRB06KT 10SM FEW038 26/17 A3016 860 57 2300 VRB/06 RMK AO2
94908KDBQ DBQ20030716140511207/16/03 14:05:31  5-MIN KDBQ 162005Z 23008KT 190V270 10SM FEW038 26/17 A3015 860 57 2400 230/08 190V270 RMK AO2
94908KDBQ DBQ20030716141009307/16/03 14:10:31  5-MIN KDBQ 162010Z 20006KT 10SM CLR 26/17 A3015 860 55 2400 200/06 RMK AO2
94908KDBQ DBQ20030716141509307/16/03 14:15:31  5-MIN KDBQ 162015Z VRB05KT 10SM CLR 26/17 A3016 860 55 2400 VRB/05 RMK AO2
94908KDBQ DBQ20030716142009307/16/03 14:20:31  5-MIN KDBQ 162020Z VRB05KT 10SM CLR 26/17 A3016 860 57 2300 VRB/05 RMK AO2
94908KDBQ DBQ20030716142509307/16/03 14:25:31  5-MIN KDBQ 162025Z 21005KT 10SM CLR 26/17 A3015 870 55 2400 210/05 RMK AO2
94908KDBQ DBQ20030716143009307/16/03 14:30:31  5-MIN KDBQ 162030Z 20006KT 10SM CLR 27/17 A3015 860 53 2400 200/06 RMK AO2
94908KDBQ DBQ20030716143509307/16/03 14:35:31  5-MIN KDBQ 162035Z 21007KT 10SM CLR 27/17 A3015 860 53 2400 210/07 RMK AO2
94908KDBQ DBQ20030716144009307/16/03 14:40:31  5-MIN KDBQ 162040Z 22006KT 10SM CLR 26/16 A3016 860 53 2400 220/06 RMK AO2
94908KDBQ DBQ20030716144509307/16/03 14:45:31  5-MIN KDBQ 162045Z VRB06KT 10SM CLR 26/17 A3015 870 55 2400 VRB/06 RMK AO2
94908KDBQ DBQ20030716145011607/16/03 14:50:31  5-MIN KDBQ 162050Z 21006KT 10SM CLR 26/17 A3015 870 55 2400 210/06 RMK AO2 SLP205 T02610167 57001
94908KDBQ DBQ20030716145511607/16/03 14:55:31  5-MIN KDBQ 162055Z 22008KT 10SM CLR 27/17 A3014 870 53 2500 220/08 RMK AO2 SLP204 T02670167 56008
94908KDBQ DBQ20030716150009307/16/03 15:00:31  5-MIN KDBQ 162100Z 22007KT 10SM CLR 26/17 A3015 870 55 2400 220/07 RMK AO2
94908KDBQ DBQ20030716150509307/16/03 15:05:31  5-MIN KDBQ 162105Z 21007KT 10SM CLR 27/17 A3015 870 53 2400 210/07 RMK AO2
94908KDBQ DBQ20030716151009307/16/03 15:10:31  5-MIN KDBQ 162110Z 20004KT 10SM CLR 27/17 A3015 870 53 2500 200/04 RMK AO2
94908KDBQ DBQ20030716151509307/16/03 15:15:31  5-MIN KDBQ 162115Z 25006KT 10SM CLR 27/17 A3015 870 55 2400 250/06 RMK AO2
94908KDBQ DBQ20030716152009307/16/03 15:20:31  5-MIN KDBQ 162120Z 24006KT 10SM CLR 26/17 A3015 870 57 2400 240/06 RMK AO2
94908KDBQ DBQ20030716152509307/16/03 15:25:31  5-MIN KDBQ 162125Z 22006KT 10SM CLR 27/17 A3015 870 55 2500 220/06 RMK AO2
94908KDBQ DBQ20030716153009307/16/03 15:30:31  5-MIN KDBQ 162130Z 26007KT 10SM CLR 26/17 A3015 870 57 2400 260/07 RMK AO2
94908KDBQ DBQ20030716153509307/16/03 15:35:31  5-MIN KDBQ 162135Z 22004KT 10SM CLR 26/17 A3015 870 57 2400 220/04 RMK AO2
94908KDBQ DBQ20030716154009307/16/03 15:40:31  5-MIN KDBQ 162140Z 23006KT 10SM CLR 27/17 A3015 870 55 2500 230/06 RMK AO2
94908KDBQ DBQ20030716154509307/16/03 15:45:31  5-MIN KDBQ 162145Z 23004KT 10SM CLR 26/17 A3014 870 57 2400 230/04 RMK AO2
94908KDBQ DBQ20030716155011007/16/03 15:50:31  5-MIN KDBQ 162150Z VRB03KT 10SM CLR 26/17 A3014 870 55 2400 VRB/03 RMK AO2 SLP204 T02610167
94908KDBQ DBQ20030716155511007/16/03 15:55:31  5-MIN KDBQ 162155Z 23006KT 10SM CLR 26/17 A3014 870 59 2300 230/06 RMK AO2 SLP204 T02560172
94908KDBQ DBQ20030716160009307/16/03 16:00:31  5-MIN KDBQ 162200Z 23006KT 10SM CLR 26/17 A3014 870 57 2400 220/06 RMK AO2
94908KDBQ DBQ20030716160509307/16/03 16:05:31  5-MIN KDBQ 162205Z VRB03KT 10SM CLR 26/17 A3014 870 55 2400 VRB/03 RMK AO2
94908KDBQ DBQ20030716161009307/16/03 16:10:31  5-MIN KDBQ 162210Z 21004KT 10SM CLR 26/17 A3014 880 57 2400 210/04 RMK AO2
94908KDBQ DBQ20030716161509307/16/03 16:15:31  5-MIN KDBQ 162215Z 25005KT 10SM CLR 26/17 A3014 870 59 2300 240/05 RMK AO2
94908KDBQ DBQ20030716162009307/16/03 16:20:31  5-MIN KDBQ 162220Z 25005KT 10SM CLR 25/17 A3014 870 61 2300 250/05 RMK AO2
94908KDBQ DBQ20030716162509307/16/03 16:25:31  5-MIN KDBQ 162225Z 24004KT 10SM CLR 25/18 A3014 870 64 2300 240/04 RMK AO2
94908KDBQ DBQ20030716163009307/16/03 16:30:31  5-MIN KDBQ 162230Z 24004KT 10SM CLR 25/18 A3015 870 66 2300 240/04 RMK AO2
94908KDBQ DBQ20030716163509307/16/03 16:35:31  5-MIN KDBQ 162235Z 21003KT 10SM CLR 25/18 A3014 870 66 2300 210/03 RMK AO2
94908KDBQ DBQ20030716164009307/16/03 16:40:31  5-MIN KDBQ 162240Z 22004KT 10SM CLR 26/18 A3014 870 61 2300 220/04 RMK AO2
94908KDBQ DBQ20030716164509307/16/03 16:45:31  5-MIN KDBQ 162245Z 21003KT 10SM CLR 26/18 A3014 870 61 2300 210/03 RMK AO2
94908KDBQ DBQ20030716165011007/16/03 16:50:31  5-MIN KDBQ 162250Z 24004KT 10SM CLR 26/18 A3015 870 61 2300 240/04 RMK AO2 SLP206 T02560178
94908KDBQ DBQ20030716165511007/16/03 16:55:31  5-MIN KDBQ 162255Z 24003KT 10SM CLR 25/19 A3015 870 68 2300 240/03 RMK AO2 SLP205 T02500189
94908KDBQ DBQ20030716170009307/16/03 17:00:31  5-MIN KDBQ 162300Z 23004KT 10SM CLR 25/19 A3014 870 68 2300 230/04 RMK AO2
94908KDBQ DBQ20030716170509307/16/03 17:05:31  5-MIN KDBQ 162305Z 21004KT 10SM CLR 25/18 A3014 870 66 2300 210/04 RMK AO2
94908KDBQ DBQ20030716171009307/16/03 17:10:31  5-MIN KDBQ 162310Z 20003KT 10SM CLR 25/18 A3014 870 66 2300 200/03 RMK AO2
94908KDBQ DBQ20030716171509307/16/03 17:15:31  5-MIN KDBQ 162315Z 21003KT 10SM CLR 25/18 A3015 870 66 2300 210/03 RMK AO2
94908KDBQ DBQ20030716172009307/16/03 17:20:31  5-MIN KDBQ 162320Z 00000KT 10SM CLR 25/18 A3014 870 66 2300 000/00 RMK AO2
94908KDBQ DBQ20030716172509307/16/03 17:25:31  5-MIN KDBQ 162325Z 20003KT 10SM CLR 24/19 A3014 870 71 2200 190/03 RMK AO2
94908KDBQ DBQ20030716173009307/16/03 17:30:31  5-MIN KDBQ 162330Z 20004KT 10SM CLR 24/19 A3014 870 71 2200 200/04 RMK AO2
94908KDBQ DBQ20030716173509307/16/03 17:35:31  5-MIN KDBQ 162335Z 20004KT 10SM CLR 24/19 A3014 870 71 2200 200/04 RMK AO2
94908KDBQ DBQ20030716174009307/16/03 17:40:31  5-MIN KDBQ 162340Z 21004KT 10SM CLR 24/19 A3015 870 71 2200 210/04 RMK AO2
94908KDBQ DBQ20030716174509307/16/03 17:45:31  5-MIN KDBQ 162345Z 20004KT 10SM CLR 24/19 A3014 870 71 2200 190/04 RMK AO2
94908KDBQ DBQ20030716175012807/16/03 17:50:31  5-MIN KDBQ 162350Z 20004KT 10SM CLR 24/19 A3014 870 71 2200 200/04 RMK AO2 SLP204 T02440189 10267 20239 56008
94908KDBQ DBQ20030716175512807/16/03 17:55:31  5-MIN KDBQ 162355Z 20003KT 10SM CLR 24/19 A3014 870 71 2200 200/03 RMK AO2 SLP204 T02440189 10267 20239 58000
94908KDBQ DBQ20030716180010307/16/03 18:00:31  5-MIN KDBQ 170000Z AUTO 22003KT 10SM CLR 24/19 A3015 870 71 2200 220/03 RMK AO2 TSNO
94908KDBQ DBQ20030716180510307/16/03 18:05:31  5-MIN KDBQ 170005Z AUTO 23003KT 10SM CLR 24/19 A3015 870 73 2100 220/03 RMK AO2 TSNO
94908KDBQ DBQ20030716181010307/16/03 18:10:31  5-MIN KDBQ 170010Z AUTO 00000KT 10SM CLR 24/19 A3015 870 76 2100 000/00 RMK AO2 TSNO
94908KDBQ DBQ20030716181510307/16/03 18:15:31  5-MIN KDBQ 170015Z AUTO 22003KT 10SM CLR 24/19 A3015 870 73 2100 220/03 RMK AO2 TSNO
94908KDBQ DBQ20030716182010307/16/03 18:20:31  5-MIN KDBQ 170020Z AUTO 22003KT 10SM CLR 24/19 A3015 870 73 2100 220/03 RMK AO2 TSNO
94908KDBQ DBQ20030716182510307/16/03 18:25:31  5-MIN KDBQ 170025Z AUTO 19003KT 10SM CLR 24/19 A3015 870 76 2100 190/03 RMK AO2 TSNO
94908KDBQ DBQ20030716183010307/16/03 18:30:31  5-MIN KDBQ 170030Z AUTO 19003KT 10SM CLR 24/19 A3015 870 76 2100 190/03 RMK AO2 TSNO
94908KDBQ DBQ20030716183510307/16/03 18:35:31  5-MIN KDBQ 170035Z AUTO 20003KT 10SM CLR 24/19 A3015 870 76 2100 200/03 RMK AO2 TSNO
94908KDBQ DBQ20030716184010307/16/03 18:40:31  5-MIN KDBQ 170040Z AUTO 20003KT 10SM CLR 24/19 A3015 860 76 2100 200/03 RMK AO2 TSNO
94908KDBQ DBQ20030716184510307/16/03 18:45:31  5-MIN KDBQ 170045Z AUTO 21003KT 10SM CLR 23/19 A3015 870 78 2100 210/03 RMK AO2 TSNO
94908KDBQ DBQ20030716185012007/16/03 18:50:31  5-MIN KDBQ 170050Z AUTO 20004KT 10SM CLR 23/19 A3015 870 78 2100 200/04 RMK AO2 SLP205 T02330194 TSNO
94908KDBQ DBQ20030716185512007/16/03 18:55:31  5-MIN KDBQ 170055Z AUTO 21003KT 10SM CLR 23/20 A3015 870 81 2100 210/03 RMK AO2 SLP205 T02330200 TSNO
94908KDBQ DBQ20030716190010307/16/03 19:00:31  5-MIN KDBQ 170100Z AUTO 23003KT 10SM CLR 23/20 A3015 860 84 2000 230/03 RMK AO2 TSNO
94908KDBQ DBQ20030716190510307/16/03 19:05:31  5-MIN KDBQ 170105Z AUTO 22003KT 10SM CLR 23/19 A3015 860 81 2000 220/03 RMK AO2 TSNO
94908KDBQ DBQ20030716191010307/16/03 19:10:31  5-MIN KDBQ 170110Z AUTO 00000KT 10SM CLR 23/19 A3015 860 81 2000 000/00 RMK AO2 TSNO
94908KDBQ DBQ20030716191510307/16/03 19:15:31  5-MIN KDBQ 170115Z AUTO 00000KT 10SM CLR 23/19 A3016 860 81 2000 000/00 RMK AO2 TSNO
94908KDBQ DBQ20030716192010307/16/03 19:20:31  5-MIN KDBQ 170120Z AUTO 00000KT 10SM CLR 23/20 A3016 860 84 2000 000/00 RMK AO2 TSNO
94908KDBQ DBQ20030716192510307/16/03 19:25:31  5-MIN KDBQ 170125Z AUTO 18004KT 10SM CLR 22/20 A3015 860 87 1900 180/04 RMK AO2 TSNO
94908KDBQ DBQ20030716193010307/16/03 19:30:31  5-MIN KDBQ 170130Z AUTO 18004KT 10SM CLR 22/19 A3015 870 84 1900 180/04 RMK AO2 TSNO
94908KDBQ DBQ20030716193510307/16/03 19:35:31  5-MIN KDBQ 170135Z AUTO 16004KT 10SM CLR 22/19 A3015 870 81 1900 160/04 RMK AO2 TSNO
94908KDBQ DBQ20030716194010307/16/03 19:40:31  5-MIN KDBQ 170140Z AUTO 17004KT 10SM CLR 22/19 A3015 870 84 1900 170/04 RMK AO2 TSNO
94908KDBQ DBQ20030716194510307/16/03 19:45:31  5-MIN KDBQ 170145Z AUTO 18005KT 10SM CLR 22/19 A3014 870 87 1900 170/05 RMK AO2 TSNO
94908KDBQ DBQ20030716195012007/16/03 19:50:31  5-MIN KDBQ 170150Z AUTO 18004KT 10SM CLR 22/19 A3015 870 87 1900 180/04 RMK AO2 SLP203 T02170194 TSNO
94908KDBQ DBQ20030716195512007/16/03 19:55:31  5-MIN KDBQ 170155Z AUTO 18003KT 10SM CLR 21/19 A3015 870 87 1800 180/03 RMK AO2 SLP203 T02110189 TSNO
94908KDBQ DBQ20030716200010307/16/03 20:00:31  5-MIN KDBQ 170200Z AUTO 17003KT 10SM CLR 21/19 A3014 870 87 1800 170/03 RMK AO2 TSNO
94908KDBQ DBQ20030716200510307/16/03 20:05:31  5-MIN KDBQ 170205Z AUTO 19004KT 10SM CLR 21/19 A3015 870 87 1800 190/04 RMK AO2 TSNO
94908KDBQ DBQ20030716204510307/16/03 20:45:31  5-MIN KDBQ 170245Z AUTO 16004KT 10SM CLR 21/18 A3014 870 84 1800 160/04 RMK AO2 TSNO
94908KDBQ DBQ20030716205012607/16/03 20:50:31  5-MIN KDBQ 170250Z AUTO 16003KT 10SM CLR 21/18 A3014 870 84 1800 160/03 RMK AO2 SLP202 T02060178 58000 TSNO
94908KDBQ DBQ20030716205512607/16/03 20:55:31  5-MIN KDBQ 170255Z AUTO 00000KT 10SM CLR 20/18 A3014 870 87 1700 000/00 RMK AO2 SLP202 T02000178 50000 TSNO
94908KDBQ DBQ20030716210010307/16/03 21:00:31  5-MIN KDBQ 170300Z AUTO 00000KT 10SM CLR 20/18 A3014 870 87 1700 000/00 RMK AO2 TSNO
94908KDBQ DBQ20030716210510307/16/03 21:05:31  5-MIN KDBQ 170305Z AUTO 00000KT 10SM CLR 19/18 A3014 870 90 1600 000/00 RMK AO2 TSNO
94908KDBQ DBQ20030716211010307/16/03 21:10:31  5-MIN KDBQ 170310Z AUTO 13004KT 10SM CLR 20/18 A3014 880 87 1700 130/04 RMK AO2 TSNO
94908KDBQ DBQ20030716211510307/16/03 21:15:31  5-MIN KDBQ 170315Z AUTO 13005KT 10SM CLR 21/18 A3014 880 84 1800 130/05 RMK AO2 TSNO
94908KDBQ DBQ20030716212010307/16/03 21:20:31  5-MIN KDBQ 170320Z AUTO 13005KT 10SM CLR 21/18 A3014 880 84 1800 130/05 RMK AO2 TSNO
94908KDBQ DBQ20030716212510307/16/03 21:25:31  5-MIN KDBQ 170325Z AUTO 12005KT 10SM CLR 21/18 A3014 880 84 1800 120/05 RMK AO2 TSNO
94908KDBQ DBQ20030716213010307/16/03 21:30:31  5-MIN KDBQ 170330Z AUTO 13004KT 10SM CLR 21/18 A3014 880 81 1800 130/04 RMK AO2 TSNO
94908KDBQ DBQ20030716213510307/16/03 21:35:31  5-MIN KDBQ 170335Z AUTO 13005KT 10SM CLR 21/18 A3014 880 84 1800 130/05 RMK AO2 TSNO
94908KDBQ DBQ20030716214010307/16/03 21:40:31  5-MIN KDBQ 170340Z AUTO 13006KT 10SM CLR 21/18 A3014 880 84 1800 130/06 RMK AO2 TSNO
94908KDBQ DBQ20030716214510307/16/03 21:45:31  5-MIN KDBQ 170345Z AUTO 13006KT 10SM CLR 21/18 A3013 880 84 1800 130/06 RMK AO2 TSNO
94908KDBQ DBQ20030716215012007/16/03 21:50:31  5-MIN KDBQ 170350Z AUTO 13006KT 10SM CLR 21/18 A3013 880 84 1800 130/06 RMK AO2 SLP198 T02060178 TSNO
94908KDBQ DBQ20030716215512007/16/03 21:55:31  5-MIN KDBQ 170355Z AUTO 12006KT 10SM CLR 21/18 A3013 880 84 1800 120/06 RMK AO2 SLP198 T02060178 TSNO
94908KDBQ DBQ20030716220010307/16/03 22:00:31  5-MIN KDBQ 170400Z AUTO 12006KT 10SM CLR 21/18 A3013 890 81 1800 120/06 RMK AO2 TSNO
94908KDBQ DBQ20030716220510307/16/03 22:05:31  5-MIN KDBQ 170405Z AUTO 12006KT 10SM CLR 21/18 A3012 890 81 1800 120/06 RMK AO2 TSNO
94908KDBQ DBQ20030716221010307/16/03 22:10:31  5-MIN KDBQ 170410Z AUTO 12007KT 10SM CLR 21/18 A3012 890 81 1900 120/07 RMK AO2 TSNO
94908KDBQ DBQ20030716221510307/16/03 22:15:31  5-MIN KDBQ 170415Z AUTO 13007KT 10SM CLR 21/18 A3012 900 81 1900 130/07 RMK AO2 TSNO
94908KDBQ DBQ20030716222010307/16/03 22:20:31  5-MIN KDBQ 170420Z AUTO 13007KT 10SM CLR 21/18 A3012 900 81 1900 130/07 RMK AO2 TSNO
94908KDBQ DBQ20030716222510307/16/03 22:25:31  5-MIN KDBQ 170425Z AUTO 12006KT 10SM CLR 21/18 A3011 900 81 1900 120/06 RMK AO2 TSNO
94908KDBQ DBQ20030716223010307/16/03 22:30:31  5-MIN KDBQ 170430Z AUTO 13006KT 10SM CLR 21/17 A3011 900 78 1900 130/06 RMK AO2 TSNO
94908KDBQ DBQ20030716223510307/16/03 22:35:31  5-MIN KDBQ 170435Z AUTO 14006KT 10SM CLR 21/17 A3011 900 78 1900 140/06 RMK AO2 TSNO
94908KDBQ DBQ20030716224010307/16/03 22:40:31  5-MIN KDBQ 170440Z AUTO 14006KT 10SM CLR 21/18 A3011 900 84 1800 140/06 RMK AO2 TSNO
94908KDBQ DBQ20030716224510307/16/03 22:45:31  5-MIN KDBQ 170445Z AUTO 13006KT 10SM CLR 21/18 A3012 900 84 1800 130/06 RMK AO2 TSNO
94908KDBQ DBQ20030716225012007/16/03 22:50:31  5-MIN KDBQ 170450Z AUTO 15005KT 10SM CLR 21/18 A3012 900 84 1800 150/05 RMK AO2 SLP194 T02060178 TSNO
94908KDBQ DBQ20030716225512007/16/03 22:55:31  5-MIN KDBQ 170455Z AUTO 16005KT 10SM CLR 20/18 A3012 890 87 1700 160/05 RMK AO2 SLP194 T02000178 TSNO
94908KDBQ DBQ20030716230010307/16/03 23:00:31  5-MIN KDBQ 170500Z AUTO 17003KT 10SM CLR 20/18 A3012 890 87 1700 170/03 RMK AO2 TSNO
94908KDBQ DBQ20030716230510307/16/03 23:05:31  5-MIN KDBQ 170505Z AUTO 19003KT 10SM CLR 19/17 A3012 890 87 1700 190/03 RMK AO2 TSNO
94908KDBQ DBQ20030716231010307/16/03 23:10:31  5-MIN KDBQ 170510Z AUTO 22003KT 10SM CLR 19/17 A3012 890 87 1700 210/03 RMK AO2 TSNO
94908KDBQ DBQ20030716231510307/16/03 23:15:31  5-MIN KDBQ 170515Z AUTO 20005KT 10SM CLR 19/17 A3013 890 90 1600 200/05 RMK AO2 TSNO
94908KDBQ DBQ20030716232010307/16/03 23:20:31  5-MIN KDBQ 170520Z AUTO 20005KT 10SM CLR 19/18 A3013 890 90 1700 200/05 RMK AO2 TSNO
94908KDBQ DBQ20030716232510307/16/03 23:25:31  5-MIN KDBQ 170525Z AUTO 22006KT 10SM CLR 19/17 A3013 880 90 1600 220/06 RMK AO2 TSNO
94908KDBQ DBQ20030716233010307/16/03 23:30:31  5-MIN KDBQ 170530Z AUTO 22007KT 10SM CLR 18/17 A3014 880 93 1500 220/07 RMK AO2 TSNO
94908KDBQ DBQ20030716233510307/16/03 23:35:31  5-MIN KDBQ 170535Z AUTO 19005KT 10SM CLR 19/17 A3013 880 90 1600 190/05 RMK AO2 TSNO
94908KDBQ DBQ20030716234010307/16/03 23:40:31  5-MIN KDBQ 170540Z AUTO 20004KT 10SM CLR 18/17 A3014 880 93 1500 200/04 RMK AO2 TSNO
94908KDBQ DBQ20030716234510307/16/03 23:45:31  5-MIN KDBQ 170545Z AUTO 20005KT 10SM CLR 18/17 A3014 880 93 1500 200/05 RMK AO2 TSNO
94908KDBQ DBQ20030716235014807/16/03 23:50:31  5-MIN KDBQ 170550Z AUTO 19005KT 10SM CLR 18/17 A3014 880 90 1500 180/05 RMK AO2 SLP200 T01830167 10244 20183 402670133 50000 TSNO
94908KDBQ DBQ20030716235514807/16/03 23:55:31  5-MIN KDBQ 170555Z AUTO 19006KT 10SM CLR 18/17 A3014 870 93 1400 190/06 RMK AO2 SLP203 T01780167 10244 20178 402670133 55000 TSNO
94908KDBQ DBQ20030717000010307/17/03 00:00:31  5-MIN KDBQ 170600Z AUTO 21006KT 10SM CLR 18/17 A3015 870 90 1500 210/06 RMK AO2 TSNO
94908KDBQ DBQ20030717000510307/17/03 00:05:31  5-MIN KDBQ 170605Z AUTO 19006KT 10SM CLR 18/17 A3015 870 90 1500 180/06 RMK AO2 TSNO
94908KDBQ DBQ20030717001010307/17/03 00:10:31  5-MIN KDBQ 170610Z AUTO 18006KT 10SM CLR 18/17 A3014 870 90 1500 180/06 RMK AO2 TSNO
94908KDBQ DBQ20030717001510307/17/03 00:15:31  5-MIN KDBQ 170615Z AUTO 18007KT 10SM CLR 18/17 A3014 870 93 1500 180/07 RMK AO2 TSNO
94908KDBQ DBQ20030717002010307/17/03 00:20:31  5-MIN KDBQ 170620Z AUTO 19006KT 10SM CLR 18/17 A3014 880 93 1400 190/06 RMK AO2 TSNO
94908KDBQ DBQ20030717002510307/17/03 00:25:31  5-MIN KDBQ 170625Z AUTO 20007KT 10SM CLR 18/17 A3014 880 90 1500 200/07 RMK AO2 TSNO
94908KDBQ DBQ20030717003010307/17/03 00:30:31  5-MIN KDBQ 170630Z AUTO 20008KT 10SM CLR 18/17 A3014 880 90 1500 200/08 RMK AO2 TSNO
94908KDBQ DBQ20030717003510307/17/03 00:35:31  5-MIN KDBQ 170635Z AUTO 19007KT 10SM CLR 18/17 A3013 880 93 1500 190/07 RMK AO2 TSNO
94908KDBQ DBQ20030717004010307/17/03 00:40:31  5-MIN KDBQ 170640Z AUTO 20007KT 10SM CLR 18/17 A3013 880 93 1500 200/07 RMK AO2 TSNO
94908KDBQ DBQ20030717004510307/17/03 00:45:31  5-MIN KDBQ 170645Z AUTO 19007KT 10SM CLR 18/17 A3013 880 93 1500 190/07 RMK AO2 TSNO
94908KDBQ DBQ20030717005012007/17/03 00:50:31  5-MIN KDBQ 170650Z AUTO 20007KT 10SM CLR 18/17 A3013 880 93 1500 200/07 RMK AO2 SLP198 T01830172 TSNO
94908KDBQ DBQ20030717005512007/17/03 00:55:31  5-MIN KDBQ 170655Z AUTO 21007KT 10SM CLR 19/17 A3013 880 90 1600 200/07 RMK AO2 SLP198 T01890172 TSNO
94908KDBQ DBQ20030717010010307/17/03 01:00:31  5-MIN KDBQ 170700Z AUTO 20007KT 10SM CLR 19/17 A3013 880 90 1600 200/07 RMK AO2 TSNO
94908KDBQ DBQ20030717010510307/17/03 01:05:31  5-MIN KDBQ 170705Z AUTO 20006KT 10SM CLR 19/17 A3013 890 90 1600 190/06 RMK AO2 TSNO
94908KDBQ DBQ20030717011010307/17/03 01:10:31  5-MIN KDBQ 170710Z AUTO 20006KT 10SM CLR 19/17 A3013 890 90 1600 200/06 RMK AO2 TSNO
94908KDBQ DBQ20030717011510307/17/03 01:15:31  5-MIN KDBQ 170715Z AUTO 19007KT 10SM CLR 19/17 A3013 890 90 1600 190/07 RMK AO2 TSNO
94908KDBQ DBQ20030717012010307/17/03 01:20:31  5-MIN KDBQ 170720Z AUTO 20007KT 10SM CLR 19/17 A3013 890 90 1600 190/07 RMK AO2 TSNO
94908KDBQ DBQ20030717012510307/17/03 01:25:31  5-MIN KDBQ 170725Z AUTO 19008KT 10SM CLR 19/17 A3012 890 87 1700 190/08 RMK AO2 TSNO
94908KDBQ DBQ20030717013010307/17/03 01:30:31  5-MIN KDBQ 170730Z AUTO 20008KT 10SM CLR 19/17 A3012 890 90 1600 200/08 RMK AO2 TSNO
94908KDBQ DBQ20030717013510307/17/03 01:35:31  5-MIN KDBQ 170735Z AUTO 21008KT 10SM CLR 19/17 A3012 890 90 1600 210/08 RMK AO2 TSNO
94908KDBQ DBQ20030717014010307/17/03 01:40:31  5-MIN KDBQ 170740Z AUTO 20008KT 10SM CLR 19/17 A3012 890 90 1600 200/08 RMK AO2 TSNO
94908KDBQ DBQ20030717014510207/17/03 01:45:31  5-MIN KDBQ 170745Z AUTO 21008KT 9SM CLR 19/17 A3012 890 90 1600 210/08 RMK AO2 TSNO
94908KDBQ DBQ20030717015011907/17/03 01:50:31  5-MIN KDBQ 170750Z AUTO 21007KT 9SM CLR 18/17 A3012 900 93 1500 200/07 RMK AO2 SLP194 T01830172 TSNO
94908KDBQ DBQ20030717015511907/17/03 01:55:31  5-MIN KDBQ 170755Z AUTO 20007KT 9SM CLR 19/17 A3012 900 90 1600 200/07 RMK AO2 SLP193 T01890172 TSNO
94908KDBQ DBQ20030717020010207/17/03 02:00:31  5-MIN KDBQ 170800Z AUTO 20008KT 9SM CLR 19/17 A3012 900 90 1600 200/08 RMK AO2 TSNO
94908KDBQ DBQ20030717020510307/17/03 02:05:31  5-MIN KDBQ 170805Z AUTO 20008KT 10SM CLR 19/17 A3012 890 90 1600 200/08 RMK AO2 TSNO
94908KDBQ DBQ20030717021010307/17/03 02:10:31  5-MIN KDBQ 170810Z AUTO 20009KT 10SM CLR 19/17 A3012 890 90 1600 200/09 RMK AO2 TSNO
94908KDBQ DBQ20030717021510307/17/03 02:15:31  5-MIN KDBQ 170815Z AUTO 20009KT 10SM CLR 19/17 A3012 890 90 1600 200/09 RMK AO2 TSNO
94908KDBQ DBQ20030717022010307/17/03 02:20:31  5-MIN KDBQ 170820Z AUTO 20009KT 10SM CLR 19/17 A3012 890 90 1600 200/09 RMK AO2 TSNO
94908KDBQ DBQ20030717022510307/17/03 02:25:31  5-MIN KDBQ 170825Z AUTO 20008KT 10SM CLR 19/17 A3012 890 90 1600 200/08 RMK AO2 TSNO
94908KDBQ DBQ20030717023010307/17/03 02:30:31  5-MIN KDBQ 170830Z AUTO 20008KT 10SM CLR 19/17 A3012 890 90 1600 200/08 RMK AO2 TSNO
94908KDBQ DBQ20030717023510307/17/03 02:35:31  5-MIN KDBQ 170835Z AUTO 19007KT 10SM CLR 19/17 A3012 890 90 1600 190/07 RMK AO2 TSNO
94908KDBQ DBQ20030717024010307/17/03 02:40:31  5-MIN KDBQ 170840Z AUTO 20008KT 10SM CLR 19/17 A3012 890 90 1600 200/08 RMK AO2 TSNO
94908KDBQ DBQ20030717024510307/17/03 02:45:31  5-MIN KDBQ 170845Z AUTO 19007KT 10SM CLR 19/17 A3012 890 90 1600 190/07 RMK AO2 TSNO
94908KDBQ DBQ20030717025012607/17/03 02:50:31  5-MIN KDBQ 170850Z AUTO 18006KT 10SM CLR 19/17 A3012 890 90 1600 180/06 RMK AO2 SLP194 T01890172 55000 TSNO
94908KDBQ DBQ20030717025512507/17/03 02:55:31  5-MIN KDBQ 170855Z AUTO 18006KT 9SM CLR 19/17 A3012 900 90 1600 170/06 RMK AO2 SLP194 T01890172 55008 TSNO
94908KDBQ DBQ20030717030010207/17/03 03:00:31  5-MIN KDBQ 170900Z AUTO 19006KT 9SM CLR 19/17 A3012 900 90 1600 190/06 RMK AO2 TSNO
94908KDBQ DBQ20030717030510207/17/03 03:05:31  5-MIN KDBQ 170905Z AUTO 19007KT 9SM CLR 18/17 A3012 900 93 1500 190/07 RMK AO2 TSNO
94908KDBQ DBQ20030717031010207/17/03 03:10:31  5-MIN KDBQ 170910Z AUTO 19006KT 9SM CLR 19/17 A3011 900 90 1600 190/06 RMK AO2 TSNO
94908KDBQ DBQ20030717031510207/17/03 03:15:31  5-MIN KDBQ 170915Z AUTO 19006KT 9SM CLR 19/17 A3011 900 90 1600 190/06 RMK AO2 TSNO
94908KDBQ DBQ20030717032010207/17/03 03:20:31  5-MIN KDBQ 170920Z AUTO 19006KT 9SM CLR 19/17 A3011 900 90 1600 190/06 RMK AO2 TSNO
94908KDBQ DBQ20030717032510207/17/03 03:25:31  5-MIN KDBQ 170925Z AUTO 20006KT 9SM CLR 18/17 A3011 900 93 1500 200/06 RMK AO2 TSNO
94908KDBQ DBQ20030717033010207/17/03 03:30:31  5-MIN KDBQ 170930Z AUTO 19007KT 9SM CLR 18/17 A3011 900 90 1500 190/07 RMK AO2 TSNO
94908KDBQ DBQ20030717033510207/17/03 03:35:31  5-MIN KDBQ 170935Z AUTO 21005KT 9SM CLR 18/17 A3011 900 93 1500 210/05 RMK AO2 TSNO
94908KDBQ DBQ20030717034010207/17/03 03:40:31  5-MIN KDBQ 170940Z AUTO 21006KT 8SM CLR 18/17 A3011 900 90 1500 210/06 RMK AO2 TSNO
94908KDBQ DBQ20030717034510207/17/03 03:45:31  5-MIN KDBQ 170945Z AUTO 21007KT 8SM CLR 18/17 A3011 900 93 1500 210/07 RMK AO2 TSNO
94908KDBQ DBQ20030717035011907/17/03 03:50:31  5-MIN KDBQ 170950Z AUTO 21008KT 8SM CLR 18/17 A3011 900 93 1500 210/08 RMK AO2 SLP192 T01780167 TSNO
94908KDBQ DBQ20030717035511907/17/03 03:55:31  5-MIN KDBQ 170955Z AUTO 20009KT 8SM CLR 18/17 A3012 900 93 1500 200/09 RMK AO2 SLP192 T01830172 TSNO
94908KDBQ DBQ20030717040010207/17/03 04:00:31  5-MIN KDBQ 171000Z AUTO 21008KT 8SM CLR 18/17 A3012 900 93 1500 200/08 RMK AO2 TSNO
94908KDBQ DBQ20030717040510207/17/03 04:05:31  5-MIN KDBQ 171005Z AUTO 21008KT 8SM CLR 19/17 A3012 900 90 1600 200/08 RMK AO2 TSNO
94908KDBQ DBQ20030717041010507/17/03 04:10:31  5-MIN KDBQ 171010Z AUTO 21008KT 8SM FEW080 19/17 A3012 900 90 1600 210/08 RMK AO2 TSNO
94908KDBQ DBQ20030717041510507/17/03 04:15:31  5-MIN KDBQ 171015Z AUTO 21008KT 8SM SCT080 19/17 A3012 900 90 1600 200/08 RMK AO2 TSNO
94908KDBQ DBQ20030717042010507/17/03 04:20:31  5-MIN KDBQ 171020Z AUTO 21008KT 8SM SCT080 19/17 A3012 900 90 1600 210/08 RMK AO2 TSNO
94908KDBQ DBQ20030717042510507/17/03 04:25:31  5-MIN KDBQ 171025Z AUTO 21008KT 9SM SCT080 19/18 A3012 900 93 1600 210/08 RMK AO2 TSNO
94908KDBQ DBQ20030717043010507/17/03 04:30:31  5-MIN KDBQ 171030Z AUTO 21009KT 9SM BKN080 19/18 A3011 900 90 1700 210/09 RMK AO2 TSNO
94908KDBQ DBQ20030717043510607/17/03 04:35:31  5-MIN KDBQ 171035Z AUTO 21008KT 10SM BKN080 19/18 A3012 900 90 1700 200/08 RMK AO2 TSNO
94908KDBQ DBQ20030717044009607/17/03 04:40:31  5-MIN KDBQ 171040Z 21008KT 10SM SCT080 19/18 A3012 890 90 1700 210/08 RMK AO2
94908KDBQ DBQ20030717044510207/17/03 04:45:31  5-MIN KDBQ 171045Z 21007KT 9SM SCT080 SCT110 19/18 A3012 890 90 1700 210/07 RMK AO2
94908KDBQ DBQ20030717045011907/17/03 04:50:31  5-MIN KDBQ 171050Z 21007KT 9SM SCT075 BKN110 19/18 A3012 890 90 1700 210/07 RMK AO2 SLP195 T01940178
94908KDBQ DBQ20030717045511907/17/03 04:55:31  5-MIN KDBQ 171055Z 21007KT 9SM SCT075 BKN095 19/18 A3013 890 90 1700 210/07 RMK AO2 SLP196 T01940178
94908KDBQ DBQ20030717050010907/17/03 05:00:31  5-MIN KDBQ 171100Z 21007KT 9SM FEW075 SCT090 SCT110 19/18 A3013 890 90 1700 200/07 RMK AO2
94908KDBQ DBQ20030717050510207/17/03 05:05:31  5-MIN KDBQ 171105Z 20006KT 8SM FEW075 SCT085 19/18 A3013 890 90 1700 200/06 RMK AO2
94908KDBQ DBQ20030717051009507/17/03 05:10:31  5-MIN KDBQ 171110Z 21006KT 8SM SCT080 19/18 A3013 890 90 1700 200/06 RMK AO2
94908KDBQ DBQ20030717051510207/17/03 05:15:31  5-MIN KDBQ 171115Z 21006KT 8SM SCT075 SCT095 19/18 A3013 890 90 1700 210/06 RMK AO2
94908KDBQ DBQ20030717052009507/17/03 05:20:31  5-MIN KDBQ 171120Z 20006KT 8SM FEW075 19/18 A3013 890 90 1700 200/06 RMK AO2
94908KDBQ DBQ20030717052509507/17/03 05:25:31  5-MIN KDBQ 171125Z 20005KT 8SM FEW075 19/18 A3012 890 93 1600 200/05 RMK AO2
94908KDBQ DBQ20030717053009507/17/03 05:30:31  5-MIN KDBQ 171130Z 20005KT 7SM FEW075 19/18 A3012 890 93 1600 190/05 RMK AO2
94908KDBQ DBQ20030717053509507/17/03 05:35:31  5-MIN KDBQ 171135Z 19005KT 7SM FEW075 19/18 A3012 890 93 1600 190/05 RMK AO2
94908KDBQ DBQ20030717054009207/17/03 05:40:31  5-MIN KDBQ 171140Z 20004KT 7SM CLR 19/18 A3012 890 93 1600 190/04 RMK AO2
94908KDBQ DBQ20030717054509207/17/03 05:45:31  5-MIN KDBQ 171145Z 20005KT 7SM CLR 19/18 A3012 900 93 1600 200/05 RMK AO2
94908KDBQ DBQ20030717055012707/17/03 05:50:31  5-MIN KDBQ 171150Z 19006KT 7SM CLR 19/18 A3012 900 90 1700 190/06 RMK AO2 SLP193 T01940178 10194 20178 55008
94908KDBQ DBQ20030717055512707/17/03 05:55:31  5-MIN KDBQ 171155Z 19005KT 8SM CLR 19/18 A3012 900 90 1700 190/05 RMK AO2 SLP193 T01940178 10194 20178 58001
94908KDBQ DBQ20030717060009207/17/03 06:00:31  5-MIN KDBQ 171200Z 19005KT 8SM CLR 20/18 A3012 900 90 1700 190/05 RMK AO2
94908KDBQ DBQ20030717060509207/17/03 06:05:31  5-MIN KDBQ 171205Z 19007KT 9SM CLR 20/18 A3011 900 90 1700 190/07 RMK AO2
94908KDBQ DBQ20030717061009207/17/03 06:10:31  5-MIN KDBQ 171210Z 19007KT 9SM CLR 21/18 A3012 900 87 1800 190/07 RMK AO2
94908KDBQ DBQ20030717061509307/17/03 06:15:31  5-MIN KDBQ 171215Z 19007KT 10SM CLR 21/18 A3012 900 87 1800 190/07 RMK AO2
94908KDBQ DBQ20030717062009307/17/03 06:20:31  5-MIN KDBQ 171220Z 18008KT 10SM CLR 21/18 A3012 900 87 1800 180/08 RMK AO2
94908KDBQ DBQ20030717062509307/17/03 06:25:31  5-MIN KDBQ 171225Z 20008KT 10SM CLR 21/18 A3012 900 84 1900 200/08 RMK AO2
94908KDBQ DBQ20030717063009307/17/03 06:30:31  5-MIN KDBQ 171230Z 20009KT 10SM CLR 21/19 A3012 900 87 1900 200/09 RMK AO2
94908KDBQ DBQ20030717063509307/17/03 06:35:31  5-MIN KDBQ 171235Z 20009KT 10SM CLR 21/19 A3012 900 87 1900 200/09 RMK AO2
94908KDBQ DBQ20030717064009307/17/03 06:40:31  5-MIN KDBQ 171240Z 20008KT 10SM CLR 22/19 A3012 900 84 1900 200/08 RMK AO2
94908KDBQ DBQ20030717064509307/17/03 06:45:31  5-MIN KDBQ 171245Z 19009KT 10SM CLR 22/19 A3011 900 84 1900 190/09 RMK AO2
94908KDBQ DBQ20030717065011007/17/03 06:50:31  5-MIN KDBQ 171250Z 20010KT 10SM CLR 22/19 A3011 900 84 1900 200/10 RMK AO2 SLP192 T02170189
94908KDBQ DBQ20030717065511007/17/03 06:55:31  5-MIN KDBQ 171255Z 20010KT 10SM CLR 22/19 A3011 900 81 2000 200/10 RMK AO2 SLP191 T02220189
94908KDBQ DBQ20030717070009307/17/03 07:00:31  5-MIN KDBQ 171300Z 20010KT 10SM CLR 22/19 A3011 900 84 2000 200/10 RMK AO2
94908KDBQ DBQ20030717070509307/17/03 07:05:31  5-MIN KDBQ 171305Z 20010KT 10SM CLR 22/19 A3011 900 84 2000 200/10 RMK AO2
94908KDBQ DBQ20030717071009307/17/03 07:10:31  5-MIN KDBQ 171310Z 20011KT 10SM CLR 23/19 A3011 900 81 2000 200/11 RMK AO2
94908KDBQ DBQ20030717071509307/17/03 07:15:31  5-MIN KDBQ 171315Z 20010KT 10SM CLR 23/19 A3011 900 81 2100 200/10 RMK AO2
94908KDBQ DBQ20030717072009307/17/03 07:20:31  5-MIN KDBQ 171320Z 20009KT 10SM CLR 23/19 A3011 900 81 2000 200/09 RMK AO2
94908KDBQ DBQ20030717072509307/17/03 07:25:31  5-MIN KDBQ 171325Z 19011KT 10SM CLR 23/19 A3012 900 81 2000 190/11 RMK AO2
94908KDBQ DBQ20030717073009307/17/03 07:30:31  5-MIN KDBQ 171330Z 20009KT 10SM CLR 23/19 A3012 900 78 2000 200/09 RMK AO2
94908KDBQ DBQ20030717073509307/17/03 07:35:31  5-MIN KDBQ 171335Z 19009KT 10SM CLR 23/19 A3011 900 78 2100 190/09 RMK AO2
94908KDBQ DBQ20030717074009307/17/03 07:40:31  5-MIN KDBQ 171340Z 19010KT 10SM CLR 23/19 A3012 900 78 2100 190/10 RMK AO2
94908KDBQ DBQ20030717074509307/17/03 07:45:31  5-MIN KDBQ 171345Z 20009KT 10SM CLR 23/19 A3012 890 78 2100 200/09 RMK AO2
94908KDBQ DBQ20030717075011007/17/03 07:50:31  5-MIN KDBQ 171350Z 20009KT 10SM CLR 24/19 A3012 890 76 2200 200/09 RMK AO2 SLP195 T02390194
94908KDBQ DBQ20030717075511007/17/03 07:55:31  5-MIN KDBQ 171355Z 20010KT 10SM CLR 24/19 A3012 890 76 2200 200/10 RMK AO2 SLP195 T02390194
94908KDBQ DBQ20030717080009607/17/03 08:00:31  5-MIN KDBQ 171400Z 20010KT 10SM FEW060 24/19 A3013 890 76 2200 200/10 RMK AO2
94908KDBQ DBQ20030717080509607/17/03 08:05:31  5-MIN KDBQ 171405Z 20011KT 10SM SCT060 24/19 A3013 890 76 2200 200/11 RMK AO2
94908KDBQ DBQ20030717081009607/17/03 08:10:31  5-MIN KDBQ 171410Z 20010KT 10SM BKN060 24/19 A3013 890 76 2200 200/10 RMK AO2
94908KDBQ DBQ20030717081510307/17/03 08:15:31  5-MIN KDBQ 171415Z 19010KT 10SM BKN060 BKN080 24/19 A3012 890 76 2200 190/10 RMK AO2
94908KDBQ DBQ20030717082010307/17/03 08:20:31  5-MIN KDBQ 171420Z 19009KT 10SM SCT060 BKN080 24/19 A3013 890 76 2200 190/09 RMK AO2
94908KDBQ DBQ20030717082510307/17/03 08:25:31  5-MIN KDBQ 171425Z 19008KT 10SM SCT060 BKN080 24/19 A3012 890 73 2200 190/08 RMK AO2
94908KDBQ DBQ20030717083010307/17/03 08:30:31  5-MIN KDBQ 171430Z 20009KT 10SM SCT060 BKN080 24/20 A3012 890 76 2200 200/09 RMK AO2
94908KDBQ DBQ20030717083510307/17/03 08:35:31  5-MIN KDBQ 171435Z 20009KT 10SM FEW060 SCT080 24/19 A3012 890 73 2200 200/09 RMK AO2
94908KDBQ DBQ20030717084009607/17/03 08:40:31  5-MIN KDBQ 171440Z 20009KT 10SM FEW080 24/20 A3012 890 76 2200 200/09 RMK AO2
94908KDBQ DBQ20030717084509607/17/03 08:45:31  5-MIN KDBQ 171445Z 19010KT 10SM FEW080 25/19 A3012 890 71 2300 190/10 RMK AO2
94908KDBQ DBQ20030717085011907/17/03 08:50:31  5-MIN KDBQ 171450Z 19008KT 10SM FEW080 25/20 A3012 890 73 2300 190/08 RMK AO2 SLP195 T02500200 58001
94908KDBQ DBQ20030717085511607/17/03 08:55:31  5-MIN KDBQ 171455Z 18008KT 10SM CLR 25/20 A3012 890 73 2300 180/08 RMK AO2 SLP194 T02500200 53001
94908KDBQ DBQ20030717090009307/17/03 09:00:31  5-MIN KDBQ 171500Z 19010KT 10SM CLR 25/19 A3012 900 71 2300 190/10 RMK AO2
94908KDBQ DBQ20030717090509307/17/03 09:05:31  5-MIN KDBQ 171505Z 18010KT 10SM CLR 25/20 A3011 900 73 2300 180/10 RMK AO2
94908KDBQ DBQ20030717091009307/17/03 09:10:31  5-MIN KDBQ 171510Z 19010KT 10SM CLR 26/20 A3011 900 71 2400 190/10 RMK AO2
94908KDBQ DBQ20030717091509307/17/03 09:15:31  5-MIN KDBQ 171515Z 17010KT 10SM CLR 26/20 A3011 900 71 2400 170/10 RMK AO2
94908KDBQ DBQ20030717092009307/17/03 09:20:31  5-MIN KDBQ 171520Z 20010KT 10SM CLR 26/20 A3011 900 68 2400 200/10 RMK AO2
94908KDBQ DBQ20030717092509307/17/03 09:25:31  5-MIN KDBQ 171525Z 19011KT 10SM CLR 26/20 A3011 900 68 2400 190/11 RMK AO2
94908KDBQ DBQ20030717093009307/17/03 09:30:31  5-MIN KDBQ 171530Z 20011KT 10SM CLR 26/20 A3011 900 68 2400 200/11 RMK AO2
94908KDBQ DBQ20030717093509307/17/03 09:35:31  5-MIN KDBQ 171535Z 21010KT 10SM CLR 26/21 A3011 900 71 2400 210/10 RMK AO2
94908KDBQ DBQ20030717094009307/17/03 09:40:31  5-MIN KDBQ 171540Z 21011KT 10SM CLR 27/21 A3011 910 69 2500 210/11 RMK AO2
94908KDBQ DBQ20030717094509307/17/03 09:45:31  5-MIN KDBQ 171545Z 21013KT 10SM CLR 27/21 A3011 900 69 2500 210/13 RMK AO2
94908KDBQ DBQ20030717095011007/17/03 09:50:31  5-MIN KDBQ 171550Z 22012KT 10SM CLR 27/21 A3011 910 69 2500 220/12 RMK AO2 SLP188 T02670206
94908KDBQ DBQ20030717095511007/17/03 09:55:31  5-MIN KDBQ 171555Z 20013KT 10SM CLR 27/21 A3011 910 69 2500 200/13 RMK AO2 SLP189 T02670206
94908KDBQ DBQ20030717100009307/17/03 10:00:31  5-MIN KDBQ 171600Z 21011KT 10SM CLR 27/21 A3011 900 69 2600 210/11 RMK AO2
94908KDBQ DBQ20030717100509307/17/03 10:05:31  5-MIN KDBQ 171605Z 20012KT 10SM CLR 27/21 A3011 900 69 2600 200/12 RMK AO2
94908KDBQ DBQ20030717101009307/17/03 10:10:31  5-MIN KDBQ 171610Z 20012KT 10SM CLR 27/21 A3011 900 69 2600 200/12 RMK AO2
94908KDBQ DBQ20030717101509307/17/03 10:15:31  5-MIN KDBQ 171615Z 20012KT 10SM CLR 27/21 A3011 900 69 2500 200/12 RMK AO2
94908KDBQ DBQ20030717102009307/17/03 10:20:31  5-MIN KDBQ 171620Z 21011KT 10SM CLR 27/21 A3011 900 69 2600 210/11 RMK AO2
94908KDBQ DBQ20030717102509307/17/03 10:25:31  5-MIN KDBQ 171625Z 20009KT 10SM CLR 27/21 A3011 900 69 2600 200/09 RMK AO2
94908KDBQ DBQ20030717103009307/17/03 10:30:31  5-MIN KDBQ 171630Z 21011KT 10SM CLR 28/21 A3011 900 66 2600 210/11 RMK AO2
94908KDBQ DBQ20030717103509307/17/03 10:35:31  5-MIN KDBQ 171635Z 23009KT 10SM CLR 27/21 A3011 900 69 2600 220/09 RMK AO2
94908KDBQ DBQ20030717104009307/17/03 10:40:31  5-MIN KDBQ 171640Z 20011KT 10SM CLR 28/22 A3011 900 69 2600 200/11 RMK AO2
94908KDBQ DBQ20030717104509307/17/03 10:45:31  5-MIN KDBQ 171645Z 23010KT 10SM CLR 28/22 A3011 900 69 2600 230/10 RMK AO2
94908KDBQ DBQ20030717105011007/17/03 10:50:31  5-MIN KDBQ 171650Z 22010KT 10SM CLR 28/22 A3011 900 69 2600 220/10 RMK AO2 SLP190 T02780217
94908KDBQ DBQ20030717105511007/17/03 10:55:31  5-MIN KDBQ 171655Z 21008KT 10SM CLR 28/22 A3011 900 71 2600 210/08 RMK AO2 SLP191 T02780222
94908KDBQ DBQ20030717110009307/17/03 11:00:31  5-MIN KDBQ 171700Z 22010KT 10SM CLR 28/22 A3011 900 69 2600 220/10 RMK AO2
94908KDBQ DBQ20030717110509307/17/03 11:05:31  5-MIN KDBQ 171705Z 21008KT 10SM CLR 28/22 A3011 910 69 2700 210/08 RMK AO2
94908KDBQ DBQ20030717111009307/17/03 11:10:31  5-MIN KDBQ 171710Z 21008KT 10SM CLR 28/22 A3011 910 69 2700 210/08 RMK AO2
94908KDBQ DBQ20030717111509607/17/03 11:15:31  5-MIN KDBQ 171715Z 22008KT 10SM FEW026 28/22 A3011 910 69 2700 220/08 RMK AO2
94908KDBQ DBQ20030717112009607/17/03 11:20:31  5-MIN KDBQ 171720Z 21009KT 10SM SCT026 29/23 A3010 910 69 2700 210/09 RMK AO2
94908KDBQ DBQ20030717112509607/17/03 11:25:31  5-MIN KDBQ 171725Z 21010KT 10SM FEW026 29/22 A3010 910 67 2800 210/10 RMK AO2
94908KDBQ DBQ20030717113009607/17/03 11:30:31  5-MIN KDBQ 171730Z 23010KT 10SM FEW026 29/22 A3010 910 67 2800 230/10 RMK AO2
94908KDBQ DBQ20030717113509607/17/03 11:35:31  5-MIN KDBQ 171735Z 24011KT 10SM FEW026 29/22 A3010 910 67 2800 240/11 RMK AO2
94908KDBQ DBQ20030717114009607/17/03 11:40:31  5-MIN KDBQ 171740Z 24009KT 10SM FEW026 28/22 A3010 910 69 2700 240/09 RMK AO2
94908KDBQ DBQ20030717114509607/17/03 11:45:31  5-MIN KDBQ 171745Z 22010KT 10SM FEW026 28/22 A3009 920 69 2700 220/10 RMK AO2
94908KDBQ DBQ20030717115013107/17/03 11:50:31  5-MIN KDBQ 171750Z 23010KT 10SM FEW026 28/22 A3009 920 69 2700 230/10 RMK AO2 SLP184 T02830222 10289 20194 53001
94908KDBQ DBQ20030717115513107/17/03 11:55:31  5-MIN KDBQ 171755Z 24009KT 10SM FEW026 29/22 A3009 920 67 2800 240/09 RMK AO2 SLP183 T02890222 10289 20194 58009
94908KDBQ DBQ20030717120009607/17/03 12:00:31  5-MIN KDBQ 171800Z 23009KT 10SM SCT026 29/23 A3009 920 69 2800 230/09 RMK AO2
94908KDBQ DBQ20030717120509607/17/03 12:05:31  5-MIN KDBQ 171805Z 22009KT 10SM SCT026 28/23 A3009 920 71 2700 220/09 RMK AO2
94908KDBQ DBQ20030717121009607/17/03 12:10:31  5-MIN KDBQ 171810Z 25008KT 10SM SCT026 28/23 A3009 920 71 2700 250/08 RMK AO2
94908KDBQ DBQ20030717121509607/17/03 12:15:31  5-MIN KDBQ 171815Z 22008KT 10SM BKN028 29/23 A3009 920 69 2800 220/08 RMK AO2
94908KDBQ DBQ20030717122009607/17/03 12:20:31  5-MIN KDBQ 171820Z 23009KT 10SM BKN028 28/22 A3009 920 69 2700 220/09 RMK AO2
94908KDBQ DBQ20030717122509607/17/03 12:25:31  5-MIN KDBQ 171825Z 24010KT 10SM BKN028 28/23 A3009 920 71 2700 240/10 RMK AO2
94908KDBQ DBQ20030717123009607/17/03 12:30:31  5-MIN KDBQ 171830Z 23008KT 10SM BKN028 28/23 A3009 930 71 2700 230/08 RMK AO2
94908KDBQ DBQ20030717123509607/17/03 12:35:31  5-MIN KDBQ 171835Z 23008KT 10SM BKN028 29/23 A3008 930 69 2800 220/08 RMK AO2
94908KDBQ DBQ20030717124009607/17/03 12:40:31  5-MIN KDBQ 171840Z 24008KT 10SM BKN028 29/23 A3008 930 69 2800 240/08 RMK AO2
94908KDBQ DBQ20030717124509607/17/03 12:45:31  5-MIN KDBQ 171845Z 23009KT 10SM BKN028 29/23 A3008 930 69 2800 230/09 RMK AO2
94908KDBQ DBQ20030717125011307/17/03 12:50:31  5-MIN KDBQ 171850Z 22008KT 10SM BKN028 29/23 A3008 930 69 2800 210/08 RMK AO2 SLP180 T02890228
94908KDBQ DBQ20030717125511307/17/03 12:55:31  5-MIN KDBQ 171855Z 21008KT 10SM BKN028 29/23 A3008 930 69 2800 210/08 RMK AO2 SLP179 T02890228
94908KDBQ DBQ20030717130009607/17/03 13:00:31  5-MIN KDBQ 171900Z 22009KT 10SM BKN028 29/23 A3008 930 69 2800 220/09 RMK AO2
94908KDBQ DBQ20030717130509607/17/03 13:05:31  5-MIN KDBQ 171905Z 23006KT 10SM BKN028 29/23 A3008 930 69 2800 230/06 RMK AO2
94908KDBQ DBQ20030717131009607/17/03 13:10:31  5-MIN KDBQ 171910Z 24007KT 10SM BKN028 29/23 A3007 940 69 2800 230/07 RMK AO2
94908KDBQ DBQ20030717131509607/17/03 13:15:31  5-MIN KDBQ 171915Z 25008KT 10SM BKN028 29/23 A3007 940 69 2800 250/08 RMK AO2
94908KDBQ DBQ20030717132009607/17/03 13:20:31  5-MIN KDBQ 171920Z 26008KT 10SM OVC028 29/23 A3007 940 69 2800 250/08 RMK AO2
94908KDBQ DBQ20030717132509607/17/03 13:25:31  5-MIN KDBQ 171925Z 25005KT 10SM OVC028 29/23 A3007 940 69 2800 250/05 RMK AO2
94908KDBQ DBQ20030717133009607/17/03 13:30:31  5-MIN KDBQ 171930Z 24007KT 10SM OVC028 29/23 A3007 940 71 2800 240/07 RMK AO2
94908KDBQ DBQ20030717133509607/17/03 13:35:31  5-MIN KDBQ 171935Z 25007KT 10SM OVC030 29/23 A3007 940 69 2800 250/07 RMK AO2
94908KDBQ DBQ20030717134009607/17/03 13:40:31  5-MIN KDBQ 171940Z 27005KT 10SM OVC030 29/23 A3007 940 69 2800 270/05 RMK AO2
94908KDBQ DBQ20030717134509607/17/03 13:45:31  5-MIN KDBQ 171945Z 26005KT 10SM OVC030 29/23 A3006 950 71 2800 260/05 RMK AO2
94908KDBQ DBQ20030717135011307/17/03 13:50:31  5-MIN KDBQ 171950Z 26005KT 10SM OVC030 29/23 A3006 950 71 2800 260/05 RMK AO2 SLP172 T02890233
94908KDBQ DBQ20030717135511307/17/03 13:55:31  5-MIN KDBQ 171955Z 24006KT 10SM OVC030 29/23 A3006 950 69 2800 240/06 RMK AO2 SLP171 T02890228
94908KDBQ DBQ20030717140009607/17/03 14:00:31  5-MIN KDBQ 172000Z 25006KT 10SM OVC030 29/23 A3006 950 71 2800 250/06 RMK AO2
94908KDBQ DBQ20030717140509607/17/03 14:05:31  5-MIN KDBQ 172005Z 28007KT 10SM OVC030 29/23 A3006 950 69 2900 280/07 RMK AO2
94908KDBQ DBQ20030717141009607/17/03 14:10:31  5-MIN KDBQ 172010Z 27007KT 10SM OVC030 29/23 A3006 950 69 2900 260/07 RMK AO2
94908KDBQ DBQ20030717141509607/17/03 14:15:31  5-MIN KDBQ 172015Z 26006KT 10SM OVC030 29/23 A3006 950 71 2800 260/06 RMK AO2
94908KDBQ DBQ20030717142009507/17/03 14:20:31  5-MIN KDBQ 172020Z 28005KT 9SM OVC030 29/23 A3006 950 71 2800 280/05 RMK AO2
94908KDBQ DBQ20030717142509507/17/03 14:25:31  5-MIN KDBQ 172025Z 24006KT 9SM BKN030 29/23 A3005 950 69 2900 240/06 RMK AO2
94908KDBQ DBQ20030717143009607/17/03 14:30:31  5-MIN KDBQ 172030Z 24007KT 10SM BKN030 30/24 A3005 960 69 2900 240/07 RMK AO2
94908KDBQ DBQ20030717143509607/17/03 14:35:31  5-MIN KDBQ 172035Z 26006KT 10SM BKN030 29/23 A3005 960 69 2900 260/06 RMK AO2
94908KDBQ DBQ20030717144009607/17/03 14:40:31  5-MIN KDBQ 172040Z 27007KT 10SM SCT032 30/24 A3006 950 69 2900 270/07 RMK AO2
94908KDBQ DBQ20030717144509507/17/03 14:45:31  5-MIN KDBQ 172045Z 27007KT 9SM SCT032 30/23 A3006 950 67 2900 270/07 RMK AO2
94908KDBQ DBQ20030717145011807/17/03 14:50:31  5-MIN KDBQ 172050Z 25007KT 9SM SCT032 30/23 A3006 950 67 2900 250/07 RMK AO2 SLP172 T03000233 58009
94908KDBQ DBQ20030717145511807/17/03 14:55:31  5-MIN KDBQ 172055Z 25008KT 9SM BKN032 29/23 A3006 950 69 2900 250/08 RMK AO2 SLP172 T02940233 55010
94908KDBQ DBQ20030717150009507/17/03 15:00:31  5-MIN KDBQ 172100Z 24008KT 9SM BKN034 29/23 A3005 950 69 2900 240/08 RMK AO2
94908KDBQ DBQ20030717150509607/17/03 15:05:31  5-MIN KDBQ 172105Z 25007KT 10SM BKN034 29/23 A3005 960 69 2900 240/07 RMK AO2
94908KDBQ DBQ20030717151009607/17/03 15:10:31  5-MIN KDBQ 172110Z 27007KT 10SM BKN034 30/24 A3005 960 69 2900 270/07 RMK AO2
94908KDBQ DBQ20030717151510307/17/03 15:15:31  5-MIN KDBQ 172115Z 26005KT 10SM FEW030 BKN037 29/23 A3005 960 69 2900 260/05 RMK AO2
94908KDBQ DBQ20030717152009607/17/03 15:20:31  5-MIN KDBQ 172120Z 26008KT 10SM BKN034 29/23 A3006 950 69 2900 260/08 RMK AO2
94908KDBQ DBQ20030717152510307/17/03 15:25:31  5-MIN KDBQ 172125Z 26006KT 10SM BKN036 BKN043 29/23 A3006 950 69 2900 260/06 RMK AO2
94908KDBQ DBQ20030717153010307/17/03 15:30:31  5-MIN KDBQ 172130Z 26005KT 10SM FEW029 BKN038 29/23 A3006 950 69 2900 260/05 RMK AO2
94908KDBQ DBQ20030717153510307/17/03 15:35:31  5-MIN KDBQ 172135Z 30007KT 10SM FEW029 OVC038 29/23 A3006 950 69 2900 300/07 RMK AO2
94908KDBQ DBQ20030717154010307/17/03 15:40:31  5-MIN KDBQ 172140Z 30007KT 10SM FEW029 OVC038 29/23 A3006 950 71 2800 300/07 RMK AO2
94908KDBQ DBQ20030717154510307/17/03 15:45:31  5-MIN KDBQ 172145Z 30006KT 10SM SCT031 OVC038 29/24 A3006 950 74 2800 300/06 RMK AO2
94908KDBQ DBQ20030717155012007/17/03 15:50:31  5-MIN KDBQ 172150Z 32005KT 10SM SCT031 OVC038 29/24 A3007 940 74 2800 320/05 RMK AO2 SLP175 T02890239
94908KDBQ DBQ20030717155512707/17/03 15:55:31  5-MIN KDBQ 172155Z 32006KT 10SM SCT031 BKN040 OVC047 29/24 A3006 950 71 2900 320/06 RMK AO2 SLP174 T02940239
94908KDBQ DBQ20030717160011007/17/03 16:00:31  5-MIN KDBQ 172200Z 32006KT 10SM FEW031 BKN038 OVC047 29/24 A3006 950 71 2900 320/06 RMK AO2
94908KDBQ DBQ20030717160510307/17/03 16:05:31  5-MIN KDBQ 172205Z 30005KT 10SM SCT034 BKN047 29/24 A3006 950 71 2900 300/05 RMK AO2
94908KDBQ DBQ20030717161010307/17/03 16:10:31  5-MIN KDBQ 172210Z 29006KT 10SM FEW030 BKN049 29/24 A3006 950 71 2900 280/06 RMK AO2
94908KDBQ DBQ20030717161510307/17/03 16:15:31  5-MIN KDBQ 172215Z 30006KT 10SM FEW038 BKN049 29/23 A3006 950 69 2900 300/06 RMK AO2
94908KDBQ DBQ20030717162009607/17/03 16:20:31  5-MIN KDBQ 172220Z 30006KT 10SM BKN049 29/24 A3006 950 71 2900 300/06 RMK AO2
94908KDBQ DBQ20030717162509607/17/03 16:25:31  5-MIN KDBQ 172225Z 30005KT 10SM BKN049 29/24 A3006 950 71 2900 300/05 RMK AO2
94908KDBQ DBQ20030717163009607/17/03 16:30:31  5-MIN KDBQ 172230Z 32004KT 10SM OVC049 29/24 A3006 950 71 2900 320/04 RMK AO2
94908KDBQ DBQ20030717163509607/17/03 16:35:31  5-MIN KDBQ 172235Z 33003KT 10SM OVC049 29/24 A3005 960 74 2900 330/03 RMK AO2
94908KDBQ DBQ20030717164009607/17/03 16:40:31  5-MIN KDBQ 172240Z 35005KT 10SM BKN049 29/24 A3005 960 74 2900 350/05 RMK AO2
94908KDBQ DBQ20030717164509607/17/03 16:45:31  5-MIN KDBQ 172245Z 34006KT 10SM BKN049 29/24 A3005 960 74 2800 340/06 RMK AO2
94908KDBQ DBQ20030717165011307/17/03 16:50:31  5-MIN KDBQ 172250Z 33006KT 10SM BKN049 29/24 A3005 950 74 2800 330/06 RMK AO2 SLP170 T02890239
94908KDBQ DBQ20030717165511307/17/03 16:55:31  5-MIN KDBQ 172255Z 33006KT 10SM BKN049 29/24 A3006 950 74 2800 330/06 RMK AO2 SLP171 T02890239
94908KDBQ DBQ20030717170009607/17/03 17:00:31  5-MIN KDBQ 172300Z 33005KT 10SM BKN049 29/24 A3006 950 74 2800 330/05 RMK AO2
94908KDBQ DBQ20030717170510307/17/03 17:05:31  5-MIN KDBQ 172305Z 32005KT 10SM FEW039 BKN049 28/24 A3006 950 76 2700 320/05 RMK AO2
94908KDBQ DBQ20030717171010207/17/03 17:10:31  5-MIN KDBQ 172310Z 33004KT 9SM SCT039 OVC049 28/24 A3006 950 79 2700 320/04 RMK AO2
94908KDBQ DBQ20030717171510207/17/03 17:15:31  5-MIN KDBQ 172315Z 32005KT 9SM SCT039 OVC055 28/24 A3006 950 79 2700 320/05 RMK AO2
94908KDBQ DBQ20030717172010207/17/03 17:20:31  5-MIN KDBQ 172320Z 32004KT 9SM FEW039 BKN055 28/24 A3006 950 79 2700 320/04 RMK AO2
94908KDBQ DBQ20030717172510207/17/03 17:25:31  5-MIN KDBQ 172325Z 32003KT 9SM FEW039 BKN055 28/24 A3006 950 79 2700 310/03 RMK AO2
94908KDBQ DBQ20030717173010207/17/03 17:30:31  5-MIN KDBQ 172330Z 31004KT 9SM FEW039 BKN055 28/24 A3006 950 79 2700 310/04 RMK AO2
94908KDBQ DBQ20030717173510207/17/03 17:35:31  5-MIN KDBQ 172335Z 31004KT 9SM FEW037 SCT055 28/24 A3006 950 79 2700 310/04 RMK AO2
94908KDBQ DBQ20030717174009507/17/03 17:40:31  5-MIN KDBQ 172340Z 31004KT 9SM SCT050 28/24 A3006 950 79 2700 310/04 RMK AO2
94908KDBQ DBQ20030717174509507/17/03 17:45:31  5-MIN KDBQ 172345Z 32003KT 9SM BKN055 28/24 A3007 940 79 2700 320/03 RMK AO2
94908KDBQ DBQ20030717175013007/17/03 17:50:31  5-MIN KDBQ 172350Z 32005KT 9SM BKN055 28/24 A3007 940 79 2700 320/05 RMK AO2 SLP175 T02830244 10300 20283 55010
94908KDBQ DBQ20030717175513007/17/03 17:55:31  5-MIN KDBQ 172355Z 33005KT 9SM BKN055 28/24 A3007 940 82 2700 330/05 RMK AO2 SLP176 T02780244 10300 20278 53003
94908KDBQ DBQ20030717180009507/17/03 18:00:31  5-MIN KDBQ 180000Z 33004KT 9SM BKN055 28/24 A3007 940 82 2700 330/04 RMK AO2
94908KDBQ DBQ20030717180509507/17/03 18:05:31  5-MIN KDBQ 180005Z 34004KT 9SM OVC055 28/24 A3007 940 82 2700 340/04 RMK AO2
94908KDBQ DBQ20030717181009507/17/03 18:10:31  5-MIN KDBQ 180010Z 35003KT 9SM OVC055 28/24 A3007 940 82 2700 350/03 RMK AO2
94908KDBQ DBQ20030717181509507/17/03 18:15:31  5-MIN KDBQ 180015Z 36004KT 9SM OVC055 28/24 A3006 950 82 2700 360/04 RMK AO2
94908KDBQ DBQ20030717182009507/17/03 18:20:31  5-MIN KDBQ 180020Z 01005KT 9SM BKN055 28/24 A3006 950 82 2700 360/05 RMK AO2
94908KDBQ DBQ20030717182509507/17/03 18:25:31  5-MIN KDBQ 180025Z 36004KT 9SM BKN055 28/24 A3007 940 82 2700 360/04 RMK AO2
94908KDBQ DBQ20030717183009507/17/03 18:30:31  5-MIN KDBQ 180030Z 36005KT 7SM OVC055 28/24 A3007 940 82 2700 360/05 RMK AO2
94908KDBQ DBQ20030717183510207/17/03 18:35:31  5-MIN KDBQ 180035Z 36006KT 8SM FEW047 OVC055 28/24 A3007 940 79 2700 360/06 RMK AO2
94908KDBQ DBQ20030717184009507/17/03 18:40:31  5-MIN KDBQ 180040Z 36005KT 9SM OVC055 28/24 A3007 940 79 2700 360/05 RMK AO2
94908KDBQ DBQ20030717184509507/17/03 18:45:31  5-MIN KDBQ 180045Z 35005KT 9SM OVC055 27/24 A3007 940 82 2600 350/05 RMK AO2
94908KDBQ DBQ20030717185011207/17/03 18:50:31  5-MIN KDBQ 180050Z 35004KT 9SM OVC055 27/24 A3007 940 82 2600 350/04 RMK AO2 SLP175 T02720239
94908KDBQ DBQ20030717185511207/17/03 18:55:31  5-MIN KDBQ 180055Z 01005KT 9SM OVC055 27/24 A3007 940 82 2600 360/05 RMK AO2 SLP173 T02720239
94908KDBQ DBQ20030717190010507/17/03 19:00:31  5-MIN KDBQ 180100Z AUTO 01006KT 9SM BKN055 27/24 A3006 950 82 2600 010/06 RMK AO2 TSNO
94908KDBQ DBQ20030717190510507/17/03 19:05:31  5-MIN KDBQ 180105Z AUTO 01005KT 9SM SCT055 27/24 A3006 950 82 2600 010/05 RMK AO2 TSNO
94908KDBQ DBQ20030717191010507/17/03 19:10:31  5-MIN KDBQ 180110Z AUTO 01005KT 8SM SCT050 27/24 A3006 950 82 2600 010/05 RMK AO2 TSNO
94908KDBQ DBQ20030717191510507/17/03 19:15:31  5-MIN KDBQ 180115Z AUTO 36004KT 8SM FEW050 27/23 A3005 950 79 2600 360/04 RMK AO2 TSNO
94908KDBQ DBQ20030717192010507/17/03 19:20:31  5-MIN KDBQ 180120Z AUTO 36003KT 8SM FEW060 27/23 A3005 960 82 2600 360/03 RMK AO2 TSNO
94908KDBQ DBQ20030717192510207/17/03 19:25:31  5-MIN KDBQ 180125Z AUTO 04004KT 8SM CLR 27/23 A3005 960 82 2600 040/04 RMK AO2 TSNO
94908KDBQ DBQ20030717193010207/17/03 19:30:31  5-MIN KDBQ 180130Z AUTO 07003KT 8SM CLR 27/23 A3005 960 82 2600 070/03 RMK AO2 TSNO
94908KDBQ DBQ20030717193510207/17/03 19:35:31  5-MIN KDBQ 180135Z AUTO 04003KT 8SM CLR 27/24 A3005 960 84 2600 040/03 RMK AO2 TSNO
94908KDBQ DBQ20030717194010207/17/03 19:40:31  5-MIN KDBQ 180140Z AUTO 04004KT 8SM CLR 26/23 A3005 960 84 2500 040/04 RMK AO2 TSNO
94908KDBQ DBQ20030717194510207/17/03 19:45:31  5-MIN KDBQ 180145Z AUTO 03005KT 8SM CLR 26/23 A3004 960 84 2500 030/05 RMK AO2 TSNO
94908KDBQ DBQ20030717195011907/17/03 19:50:31  5-MIN KDBQ 180150Z AUTO 04004KT 9SM CLR 26/23 A3004 970 87 2400 040/04 RMK AO2 SLP165 T02560233 TSNO
94908KDBQ DBQ20030717195511907/17/03 19:55:31  5-MIN KDBQ 180155Z AUTO 00000KT 9SM CLR 26/23 A3005 960 84 2500 000/00 RMK AO2 SLP167 T02610233 TSNO
94908KDBQ DBQ20030717200010207/17/03 20:00:31  5-MIN KDBQ 180200Z AUTO 00000KT 9SM CLR 26/23 A3004 970 84 2500 000/00 RMK AO2 TSNO
94908KDBQ DBQ20030717200510207/17/03 20:05:31  5-MIN KDBQ 180205Z AUTO 06003KT 9SM CLR 26/23 A3004 970 87 2400 050/03 RMK AO2 TSNO
94908KDBQ DBQ20030717201010207/17/03 20:10:31  5-MIN KDBQ 180210Z AUTO 07005KT 9SM CLR 26/23 A3003 980 84 2500 070/05 RMK AO2 TSNO
94908KDBQ DBQ20030717201510207/17/03 20:15:31  5-MIN KDBQ 180215Z AUTO 07003KT 9SM CLR 26/23 A3004 970 84 2500 070/03 RMK AO2 TSNO
94908KDBQ DBQ20030717202010207/17/03 20:20:31  5-MIN KDBQ 180220Z AUTO 00000KT 8SM CLR 26/23 A3004 970 87 2500 000/00 RMK AO2 TSNO
94908KDBQ DBQ20030717202510207/17/03 20:25:31  5-MIN KDBQ 180225Z AUTO 00000KT 7SM CLR 25/23 A3004 970 90 2400 000/00 RMK AO2 TSNO
94908KDBQ DBQ20030717203010207/17/03 20:30:31  5-MIN KDBQ 180230Z AUTO 00000KT 7SM CLR 25/23 A3004 970 87 2400 000/00 RMK AO2 TSNO
94908KDBQ DBQ20030717203510207/17/03 20:35:31  5-MIN KDBQ 180235Z AUTO 00000KT 7SM CLR 25/23 A3004 970 87 2400 000/00 RMK AO2 TSNO
94908KDBQ DBQ20030717204010207/17/03 20:40:31  5-MIN KDBQ 180240Z AUTO 00000KT 7SM CLR 25/23 A3004 970 90 2400 000/00 RMK AO2 TSNO
94908KDBQ DBQ20030717204510207/17/03 20:45:31  5-MIN KDBQ 180245Z AUTO 00000KT 7SM CLR 24/23 A3004 970 90 2300 000/00 RMK AO2 TSNO
94908KDBQ DBQ20030717205012507/17/03 20:50:31  5-MIN KDBQ 180250Z AUTO 23004KT 7SM CLR 24/23 A3004 970 90 2300 230/04 RMK AO2 SLP165 T02440228 53003 TSNO
94908KDBQ DBQ20030717205512807/17/03 20:55:31  5-MIN KDBQ 180255Z AUTO 25003KT 5SM BR CLR 23/23 A3004 960 97 2200 250/03 RMK AO2 SLP166 T02330228 56008 TSNO
94908KDBQ DBQ20030717210010507/17/03 21:00:31  5-MIN KDBQ 180300Z AUTO 00000KT 5SM BR CLR 24/23 A3004 960 93 2300 000/00 RMK AO2 TSNO
94908KDBQ DBQ20030717210510507/17/03 21:05:31  5-MIN KDBQ 180305Z AUTO 00000KT 5SM BR CLR 24/23 A3005 960 93 2300 000/00 RMK AO2 TSNO
94908KDBQ DBQ20030717211010507/17/03 21:10:31  5-MIN KDBQ 180310Z AUTO 33003KT 5SM BR CLR 23/23 A3005 960 97 2200 330/03 RMK AO2 TSNO
94908KDBQ DBQ20030717211510507/17/03 21:15:31  5-MIN KDBQ 180315Z AUTO 34004KT 5SM BR CLR 23/22 A3005 960 93 2200 340/04 RMK AO2 TSNO
94908KDBQ DBQ20030717212010507/17/03 21:20:31  5-MIN KDBQ 180320Z AUTO 35005KT 6SM BR CLR 23/22 A3005 960 93 2200 350/05 RMK AO2 TSNO
94908KDBQ DBQ20030717212510207/17/03 21:25:31  5-MIN KDBQ 180325Z AUTO 35005KT 7SM CLR 24/22 A3005 960 90 2200 350/05 RMK AO2 TSNO
94908KDBQ DBQ20030717213010207/17/03 21:30:31  5-MIN KDBQ 180330Z AUTO 01005KT 8SM CLR 24/23 A3005 960 90 2300 010/05 RMK AO2 TSNO
94908KDBQ DBQ20030717213510207/17/03 21:35:31  5-MIN KDBQ 180335Z AUTO 02006KT 8SM CLR 24/23 A3004 960 90 2300 020/06 RMK AO2 TSNO
94908KDBQ DBQ20030717214010207/17/03 21:40:31  5-MIN KDBQ 180340Z AUTO 02006KT 8SM CLR 24/23 A3004 970 90 2300 020/06 RMK AO2 TSNO
94908KDBQ DBQ20030717214510207/17/03 21:45:31  5-MIN KDBQ 180345Z AUTO 02006KT 7SM CLR 24/23 A3004 970 90 2300 020/06 RMK AO2 TSNO
94908KDBQ DBQ20030717215012507/17/03 21:50:31  5-MIN KDBQ 180350Z AUTO 03011G15KT 7SM CLR 24/23 A3005 960 90 2300 020/11G15 RMK AO2 SLP167 T02440228 TSNO
94908KDBQ DBQ20030717215512807/17/03 21:55:31  5-MIN KDBQ 180355Z AUTO 04013G17KT 7SM FEW007 24/23 A3005 960 90 2300 040/13G17 RMK AO2 SLP168 T02440228 TSNO
94908KDBQ DBQ20030717220010507/17/03 22:00:31  5-MIN KDBQ 180400Z AUTO 03014KT 7SM FEW007 23/22 A3006 950 90 2200 030/14 RMK AO2 TSNO
94908KDBQ DBQ20030717220510507/17/03 22:05:31  5-MIN KDBQ 180405Z AUTO 04013KT 8SM FEW007 23/22 A3006 950 90 2200 030/13 RMK AO2 TSNO
94908KDBQ DBQ20030717221010507/17/03 22:10:31  5-MIN KDBQ 180410Z AUTO 04014KT 8SM FEW007 23/21 A3005 960 90 2100 040/14 RMK AO2 TSNO
94908KDBQ DBQ20030717221510507/17/03 22:15:31  5-MIN KDBQ 180415Z AUTO 05015KT 8SM FEW007 23/21 A3004 970 87 2100 050/15 RMK AO2 TSNO
94908KDBQ DBQ20030717222010507/17/03 22:20:31  5-MIN KDBQ 180420Z AUTO 05015KT 9SM FEW007 23/20 A3004 970 84 2100 050/15 RMK AO2 TSNO
94908KDBQ DBQ20030717222510207/17/03 22:25:31  5-MIN KDBQ 180425Z AUTO 05013KT 9SM CLR 22/20 A3004 970 87 2100 050/13 RMK AO2 TSNO
94908KDBQ DBQ20030717223010207/17/03 22:30:31  5-MIN KDBQ 180430Z AUTO 04013KT 8SM CLR 22/20 A3004 970 87 2100 040/13 RMK AO2 TSNO
94908KDBQ DBQ20030717223510207/17/03 22:35:31  5-MIN KDBQ 180435Z AUTO 05014KT 8SM CLR 22/20 A3004 970 87 2100 040/14 RMK AO2 TSNO
94908KDBQ DBQ20030717224011107/17/03 22:40:31  5-MIN KDBQ 180440Z AUTO 04014G20KT 8SM SCT011 22/20 A3005 960 87 2100 040/14G20 RMK AO2 TSNO
94908KDBQ DBQ20030717224511107/17/03 22:45:31  5-MIN KDBQ 180445Z AUTO 04013G20KT 8SM BKN011 22/20 A3005 960 90 2000 040/13G20 RMK AO2 TSNO
94908KDBQ DBQ20030717225012207/17/03 22:50:31  5-MIN KDBQ 180450Z AUTO 06015KT 8SM BKN011 22/19 A3005 960 87 2000 060/15 RMK AO2 SLP168 T02170194 TSNO
94908KDBQ DBQ20030717225512207/17/03 22:55:31  5-MIN KDBQ 180455Z AUTO 05012KT 8SM BKN011 22/19 A3006 950 87 2000 050/12 RMK AO2 SLP172 T02170194 TSNO
94908KDBQ DBQ20030717230012507/17/03 23:00:31  5-MIN KDBQ 180500Z AUTO 04012G20KT 8SM BKN011 OVC017 22/19 A3008 930 84 2000 040/12G20 RMK AO2 PRESRR TSNO
94908KDBQ DBQ20030717230512507/17/03 23:05:31  5-MIN KDBQ 180505Z AUTO 05016G20KT 8SM BKN011 OVC017 21/19 A3008 930 87 1900 050/16G20 RMK AO2 PRESRR TSNO
94908KDBQ DBQ20030717231011207/17/03 23:10:31  5-MIN KDBQ 180510Z AUTO 04016KT 8SM BKN011 OVC017 21/18 A3009 920 84 1900 040/16 RMK AO2 TSNO
94908KDBQ DBQ20030717231511207/17/03 23:15:31  5-MIN KDBQ 180515Z AUTO 04016KT 8SM BKN011 OVC017 21/18 A3009 920 84 1900 040/16 RMK AO2 TSNO
94908KDBQ DBQ20030717232010507/17/03 23:20:31  5-MIN KDBQ 180520Z AUTO 05015KT 8SM OVC013 21/18 A3008 930 84 1900 050/15 RMK AO2 TSNO
94908KDBQ DBQ20030717232510507/17/03 23:25:31  5-MIN KDBQ 180525Z AUTO 05015KT 9SM OVC013 21/18 A3008 930 84 1900 050/15 RMK AO2 TSNO
94908KDBQ DBQ20030717233010507/17/03 23:30:31  5-MIN KDBQ 180530Z AUTO 06010KT 8SM OVC013 21/18 A3008 930 87 1800 050/10 RMK AO2 TSNO
94908KDBQ DBQ20030717233510507/17/03 23:35:31  5-MIN KDBQ 180535Z AUTO 06010KT 8SM OVC013 21/18 A3008 930 87 1800 060/10 RMK AO2 TSNO
94908KDBQ DBQ20030717234010507/17/03 23:40:31  5-MIN KDBQ 180540Z AUTO 06012KT 9SM OVC013 21/18 A3008 930 84 1800 060/12 RMK AO2 TSNO
94908KDBQ DBQ20030717234510507/17/03 23:45:31  5-MIN KDBQ 180545Z AUTO 05011KT 8SM OVC013 21/18 A3008 930 84 1800 050/11 RMK AO2 TSNO
94908KDBQ DBQ20030717235015007/17/03 23:50:31  5-MIN KDBQ 180550Z AUTO 06011KT 8SM OVC013 21/18 A3008 930 84 1800 060/11 RMK AO2 SLP179 T02060178 10278 20206 403000178 56008 TSNO
94908KDBQ DBQ20030717235515007/17/03 23:55:31  5-MIN KDBQ 180555Z AUTO 07010KT 8SM OVC013 20/18 A3007 940 87 1800 060/10 RMK AO2 SLP175 T02000178 10278 20200 403000178 53008 TSNO
94908KDBQ DBQ20030718000010507/18/03 00:00:31  5-MIN KDBQ 180600Z AUTO 06011KT 8SM OVC013 20/18 A3008 940 87 1800 060/11 RMK AO2 TSNO
94908KDBQ DBQ20030718000510507/18/03 00:05:31  5-MIN KDBQ 180605Z AUTO 06010KT 9SM BKN013 20/17 A3008 930 84 1800 060/10 RMK AO2 TSNO
94908KDBQ DBQ20030718001011207/18/03 00:10:31  5-MIN KDBQ 180610Z AUTO 05012KT 9SM BKN013 BKN022 20/17 A3009 920 84 1800 050/12 RMK AO2 TSNO
94908KDBQ DBQ20030718001511207/18/03 00:15:31  5-MIN KDBQ 180615Z AUTO 04011KT 9SM BKN013 OVC022 20/17 A3009 920 84 1800 040/11 RMK AO2 TSNO
94908KDBQ DBQ20030718002011307/18/03 00:20:31  5-MIN KDBQ 180620Z AUTO 05012KT 10SM BKN013 OVC022 19/17 A3009 920 84 1700 040/12 RMK AO2 TSNO
94908KDBQ DBQ20030718002511307/18/03 00:25:31  5-MIN KDBQ 180625Z AUTO 05011KT 10SM SCT013 BKN022 19/16 A3009 920 81 1700 050/11 RMK AO2 TSNO
94908KDBQ DBQ20030718003011307/18/03 00:30:31  5-MIN KDBQ 180630Z AUTO 06010KT 10SM FEW013 BKN022 19/16 A3008 930 81 1700 060/10 RMK AO2 TSNO
94908KDBQ DBQ20030718003511307/18/03 00:35:31  5-MIN KDBQ 180635Z AUTO 05013KT 10SM FEW013 BKN022 19/16 A3009 920 81 1600 050/13 RMK AO2 TSNO
94908KDBQ DBQ20030718004011307/18/03 00:40:31  5-MIN KDBQ 180640Z AUTO 05012KT 10SM FEW015 BKN022 19/16 A3009 920 81 1600 050/12 RMK AO2 TSNO
94908KDBQ DBQ20030718004510607/18/03 00:45:31  5-MIN KDBQ 180645Z AUTO 05012KT 10SM BKN022 19/16 A3009 920 81 1600 050/12 RMK AO2 TSNO
94908KDBQ DBQ20030718005012307/18/03 00:50:31  5-MIN KDBQ 180650Z AUTO 05012KT 10SM BKN022 19/15 A3009 920 78 1600 050/12 RMK AO2 SLP183 T01890150 TSNO
94908KDBQ DBQ20030718005512307/18/03 00:55:31  5-MIN KDBQ 180655Z AUTO 04012KT 10SM BKN022 19/14 A3010 920 75 1600 040/12 RMK AO2 SLP185 T01890144 TSNO
94908KDBQ DBQ20030718010011307/18/03 01:00:31  5-MIN KDBQ 180700Z AUTO 05011KT 10SM SCT022 BKN043 19/14 A3010 910 75 1600 050/11 RMK AO2 TSNO
94908KDBQ DBQ20030718010511307/18/03 01:05:31  5-MIN KDBQ 180705Z AUTO 05011KT 10SM SCT022 BKN043 19/14 A3009 920 72 1600 050/11 RMK AO2 TSNO
94908KDBQ DBQ20030718011011307/18/03 01:10:31  5-MIN KDBQ 180710Z AUTO 06011KT 10SM FEW022 BKN043 19/14 A3008 930 72 1600 060/11 RMK AO2 TSNO
94908KDBQ DBQ20030718011511307/18/03 01:15:31  5-MIN KDBQ 180715Z AUTO 06011KT 10SM FEW022 BKN043 19/13 A3009 920 70 1600 060/11 RMK AO2 TSNO
94908KDBQ DBQ20030718012010607/18/03 01:20:31  5-MIN KDBQ 180720Z AUTO 05010KT 10SM BKN043 19/13 A3009 920 70 1600 050/10 RMK AO2 TSNO
94908KDBQ DBQ20030718012510607/18/03 01:25:31  5-MIN KDBQ 180725Z AUTO 05012KT 10SM OVC043 19/13 A3009 920 70 1600 050/12 RMK AO2 TSNO
94908KDBQ DBQ20030718013011307/18/03 01:30:31  5-MIN KDBQ 180730Z AUTO 04012KT 10SM FEW013 OVC043 18/13 A3009 920 70 1600 040/12 RMK AO2 TSNO
94908KDBQ DBQ20030718013511307/18/03 01:35:31  5-MIN KDBQ 180735Z AUTO 04011KT 10SM SCT013 OVC043 18/13 A3009 920 70 1600 040/11 RMK AO2 TSNO
94908KDBQ DBQ20030718014011307/18/03 01:40:31  5-MIN KDBQ 180740Z AUTO 05010KT 10SM BKN013 OVC043 18/13 A3010 920 70 1600 050/10 RMK AO2 TSNO
94908KDBQ DBQ20030718014511307/18/03 01:45:31  5-MIN KDBQ 180745Z AUTO 05010KT 10SM BKN013 OVC043 18/13 A3009 920 72 1600 050/10 RMK AO2 TSNO
94908KDBQ DBQ20030718015013007/18/03 01:50:31  5-MIN KDBQ 180750Z AUTO 06007KT 10SM BKN013 OVC043 18/14 A3009 920 75 1600 060/07 RMK AO2 SLP182 T01830139 TSNO
94908KDBQ DBQ20030718015512307/18/03 01:55:31  5-MIN KDBQ 180755Z AUTO 05008KT 10SM OVC013 18/14 A3009 920 75 1600 050/08 RMK AO2 SLP183 T01830139 TSNO
94908KDBQ DBQ20030718020010607/18/03 02:00:31  5-MIN KDBQ 180800Z AUTO 05010KT 10SM OVC013 18/14 A3010 920 75 1600 050/10 RMK AO2 TSNO
94908KDBQ DBQ20030718020510607/18/03 02:05:31  5-MIN KDBQ 180805Z AUTO 05010KT 10SM OVC013 18/14 A3010 910 75 1600 050/10 RMK AO2 TSNO
94908KDBQ DBQ20030718021010607/18/03 02:10:31  5-MIN KDBQ 180810Z AUTO 04011KT 10SM OVC013 18/13 A3010 910 72 1600 040/11 RMK AO2 TSNO
94908KDBQ DBQ20030718021510607/18/03 02:15:31  5-MIN KDBQ 180815Z AUTO 05011KT 10SM OVC013 18/13 A3010 910 70 1600 050/11 RMK AO2 TSNO
94908KDBQ DBQ20030718022010607/18/03 02:20:31  5-MIN KDBQ 180820Z AUTO 05008KT 10SM OVC013 18/13 A3010 920 70 1600 050/08 RMK AO2 TSNO
94908KDBQ DBQ20030718022510607/18/03 02:25:31  5-MIN KDBQ 180825Z AUTO 05012KT 10SM OVC013 18/12 A3010 920 67 1600 050/12 RMK AO2 TSNO
94908KDBQ DBQ20030718023010607/18/03 02:30:31  5-MIN KDBQ 180830Z AUTO 06010KT 10SM OVC013 18/12 A3009 920 65 1600 060/10 RMK AO2 TSNO
94908KDBQ DBQ20030718023510607/18/03 02:35:31  5-MIN KDBQ 180835Z AUTO 06012KT 10SM OVC013 18/12 A3009 920 65 1600 060/12 RMK AO2 TSNO
94908KDBQ DBQ20030718024010607/18/03 02:40:31  5-MIN KDBQ 180840Z AUTO 05011KT 10SM OVC013 18/11 A3011 910 62 1500 040/11 RMK AO2 TSNO
94908KDBQ DBQ20030718024510607/18/03 02:45:31  5-MIN KDBQ 180845Z AUTO 05010KT 10SM OVC013 18/11 A3011 910 60 1500 050/10 RMK AO2 TSNO
94908KDBQ DBQ20030718025012907/18/03 02:50:31  5-MIN KDBQ 180850Z AUTO 05011KT 10SM OVC013 18/10 A3010 920 58 1600 050/11 RMK AO2 SLP184 T01830100 53008 TSNO
94908KDBQ DBQ20030718025512907/18/03 02:55:31  5-MIN KDBQ 180855Z AUTO 06010KT 10SM OVC015 18/10 A3009 920 58 1600 060/10 RMK AO2 SLP184 T01830100 51008 TSNO
94908KDBQ DBQ20030718030010607/18/03 03:00:31  5-MIN KDBQ 180900Z AUTO 05011KT 10SM OVC015 18/10 A3010 910 60 1500 050/11 RMK AO2 TSNO
94908KDBQ DBQ20030718030510607/18/03 03:05:31  5-MIN KDBQ 180905Z AUTO 04012KT 10SM OVC015 18/09 A3011 910 58 1500 040/12 RMK AO2 TSNO
94908KDBQ DBQ20030718031010607/18/03 03:10:31  5-MIN KDBQ 180910Z AUTO 05011KT 10SM OVC015 18/09 A3010 910 55 1500 050/11 RMK AO2 TSNO
94908KDBQ DBQ20030718031510607/18/03 03:15:31  5-MIN KDBQ 180915Z AUTO 05012KT 10SM OVC015 18/09 A3009 920 55 1500 050/12 RMK AO2 TSNO
94908KDBQ DBQ20030718032010607/18/03 03:20:31  5-MIN KDBQ 180920Z AUTO 06012KT 10SM OVC015 18/09 A3008 930 55 1500 060/12 RMK AO2 TSNO
94908KDBQ DBQ20030718032512007/18/03 03:25:31  5-MIN KDBQ 180925Z AUTO 06012KT 10SM BKN015 OVC024 18/09 A3008 930 55 1500 060/12 RMK AO2 PRESFR TSNO
94908KDBQ DBQ20030718033012007/18/03 03:30:31  5-MIN KDBQ 180930Z AUTO 05012KT 10SM BKN015 OVC024 18/09 A3007 940 55 1500 050/12 RMK AO2 PRESFR TSNO
94908KDBQ DBQ20030718033511307/18/03 03:35:31  5-MIN KDBQ 180935Z AUTO 05011KT 10SM SCT015 OVC026 18/08 A3007 940 53 1500 050/11 RMK AO2 TSNO
94908KDBQ DBQ20030718034011307/18/03 03:40:31  5-MIN KDBQ 180940Z AUTO 05012KT 10SM FEW015 OVC026 18/08 A3007 940 53 1500 050/12 RMK AO2 TSNO
94908KDBQ DBQ20030718034511307/18/03 03:45:31  5-MIN KDBQ 180945Z AUTO 05011KT 10SM SCT013 OVC026 18/08 A3007 940 53 1500 050/11 RMK AO2 TSNO
94908KDBQ DBQ20030718035013007/18/03 03:50:31  5-MIN KDBQ 180950Z AUTO 05012KT 10SM SCT013 OVC026 18/08 A3007 940 53 1500 050/12 RMK AO2 SLP177 T01780083 TSNO
94908KDBQ DBQ20030718035513007/18/03 03:55:31  5-MIN KDBQ 180955Z AUTO 05010KT 10SM BKN013 OVC026 18/09 A3008 930 55 1500 050/10 RMK AO2 SLP178 T01780089 TSNO
94908KDBQ DBQ20030718040011307/18/03 04:00:31  5-MIN KDBQ 181000Z AUTO 05011KT 10SM BKN013 OVC028 18/09 A3008 930 55 1500 050/11 RMK AO2 TSNO
94908KDBQ DBQ20030718040511307/18/03 04:05:31  5-MIN KDBQ 181005Z AUTO 05012KT 10SM BKN013 OVC026 17/09 A3008 940 57 1500 050/12 RMK AO2 TSNO
94908KDBQ DBQ20030718041010607/18/03 04:10:31  5-MIN KDBQ 181010Z AUTO 05012KT 10SM OVC013 17/09 A3008 930 57 1500 040/12 RMK AO2 TSNO
94908KDBQ DBQ20030718041510607/18/03 04:15:31  5-MIN KDBQ 181015Z AUTO 05011KT 10SM OVC013 17/09 A3008 930 57 1500 050/11 RMK AO2 TSNO
94908KDBQ DBQ20030718042010607/18/03 04:20:31  5-MIN KDBQ 181020Z AUTO 05013KT 10SM OVC013 17/08 A3008 930 55 1400 050/13 RMK AO2 TSNO
94908KDBQ DBQ20030718042510607/18/03 04:25:31  5-MIN KDBQ 181025Z AUTO 05012KT 10SM OVC015 17/08 A3008 930 55 1400 050/12 RMK AO2 TSNO
94908KDBQ DBQ20030718043010607/18/03 04:30:31  5-MIN KDBQ 181030Z AUTO 05010KT 10SM OVC015 17/09 A3008 930 57 1400 050/10 RMK AO2 TSNO
94908KDBQ DBQ20030718043510607/18/03 04:35:31  5-MIN KDBQ 181035Z AUTO 04013KT 10SM OVC015 17/09 A3008 930 57 1400 040/13 RMK AO2 TSNO
94908KDBQ DBQ20030718044009607/18/03 04:40:31  5-MIN KDBQ 181040Z 04013KT 10SM OVC015 17/09 A3008 930 57 1500 040/13 RMK AO2
94908KDBQ DBQ20030718044509607/18/03 04:45:31  5-MIN KDBQ 181045Z 04014KT 10SM OVC015 17/09 A3008 940 57 1500 040/14 RMK AO2
94908KDBQ DBQ20030718045011307/18/03 04:50:31  5-MIN KDBQ 181050Z 04015KT 10SM OVC015 17/09 A3007 940 57 1500 040/15 RMK AO2 SLP175 T01720089
94908KDBQ DBQ20030718045511307/18/03 04:55:31  5-MIN KDBQ 181055Z 04013KT 10SM OVC015 17/08 A3007 940 55 1500 040/13 RMK AO2 SLP177 T01720083
94908KDBQ DBQ20030718050009607/18/03 05:00:31  5-MIN KDBQ 181100Z 04014KT 10SM BKN015 17/08 A3008 930 57 1400 040/14 RMK AO2
94908KDBQ DBQ20030718050509607/18/03 05:05:31  5-MIN KDBQ 181105Z 04012KT 10SM BKN015 17/08 A3009 930 57 1400 040/12 RMK AO2
94908KDBQ DBQ20030718051010207/18/03 05:10:31  5-MIN KDBQ 181110Z 04014G19KT 10SM BKN017 17/08 A3009 920 57 1400 040/14G19 RMK AO2
94908KDBQ DBQ20030718051509607/18/03 05:15:31  5-MIN KDBQ 181115Z 04015KT 10SM BKN017 17/08 A3009 920 55 1400 040/15 RMK AO2
94908KDBQ DBQ20030718052009607/18/03 05:20:31  5-MIN KDBQ 181120Z 05013KT 10SM BKN017 17/08 A3009 920 55 1400 050/13 RMK AO2
94908KDBQ DBQ20030718052509607/18/03 05:25:31  5-MIN KDBQ 181125Z 05010KT 10SM BKN017 17/08 A3010 920 57 1400 050/10 RMK AO2
94908KDBQ DBQ20030718053009607/18/03 05:30:31  5-MIN KDBQ 181130Z 05012KT 10SM BKN017 17/08 A3010 910 57 1400 050/12 RMK AO2
94908KDBQ DBQ20030718053509607/18/03 05:35:31  5-MIN KDBQ 181135Z 05010KT 10SM BKN017 17/08 A3011 910 57 1400 040/10 RMK AO2
94908KDBQ DBQ20030718054009607/18/03 05:40:31  5-MIN KDBQ 181140Z 04010KT 10SM BKN017 17/08 A3011 900 57 1400 040/10 RMK AO2
94908KDBQ DBQ20030718054510307/18/03 05:45:31  5-MIN KDBQ 181145Z 06008KT 10SM BKN017 17/08 A3012 900 55 1400 060/08 RMK AO2 PRESRR
94908KDBQ DBQ20030718055013107/18/03 05:50:31  5-MIN KDBQ 181150Z 06009KT 10SM OVC017 17/08 A3012 890 53 1400 060/09 RMK AO2 SLP194 T01720078 10200 20167 51008
94908KDBQ DBQ20030718055513107/18/03 05:55:31  5-MIN KDBQ 181155Z 05010KT 10SM OVC017 17/08 A3011 900 55 1400 050/10 RMK AO2 SLP192 T01720083 10200 20167 53006
94908KDBQ DBQ20030718060009607/18/03 06:00:31  5-MIN KDBQ 181200Z 06011KT 10SM OVC017 17/08 A3011 900 53 1400 050/11 RMK AO2
94908KDBQ DBQ20030718060509607/18/03 06:05:31  5-MIN KDBQ 181205Z 05014KT 10SM OVC017 17/08 A3011 900 53 1400 050/14 RMK AO2
94908KDBQ DBQ20030718061009607/18/03 06:10:31  5-MIN KDBQ 181210Z 05013KT 10SM OVC017 17/08 A3010 910 53 1400 050/13 RMK AO2
94908KDBQ DBQ20030718061509607/18/03 06:15:31  5-MIN KDBQ 181215Z 05013KT 10SM OVC017 17/08 A3010 910 53 1400 050/13 RMK AO2
94908KDBQ DBQ20030718062009607/18/03 06:20:31  5-MIN KDBQ 181220Z 05011KT 10SM OVC017 17/08 A3011 910 53 1400 050/11 RMK AO2
94908KDBQ DBQ20030718062509607/18/03 06:25:31  5-MIN KDBQ 181225Z 05010KT 10SM BKN017 17/08 A3011 900 53 1400 050/10 RMK AO2
94908KDBQ DBQ20030718063009607/18/03 06:30:31  5-MIN KDBQ 181230Z 05011KT 10SM BKN017 17/08 A3011 900 53 1400 050/11 RMK AO2
94908KDBQ DBQ20030718063509607/18/03 06:35:31  5-MIN KDBQ 181235Z 06008KT 10SM BKN017 17/08 A3011 900 53 1400 060/08 RMK AO2
94908KDBQ DBQ20030718064009607/18/03 06:40:31  5-MIN KDBQ 181240Z 06010KT 10SM BKN017 17/08 A3011 900 53 1400 060/10 RMK AO2
94908KDBQ DBQ20030718064509607/18/03 06:45:31  5-MIN KDBQ 181245Z 06010KT 10SM BKN019 17/08 A3012 900 53 1400 060/10 RMK AO2
94908KDBQ DBQ20030718065011307/18/03 06:50:31  5-MIN KDBQ 181250Z 06008KT 10SM BKN019 17/08 A3012 900 55 1400 060/08 RMK AO2 SLP193 T01720083
94908KDBQ DBQ20030718065511307/18/03 06:55:31  5-MIN KDBQ 181255Z 06009KT 10SM BKN019 17/08 A3012 900 55 1400 060/09 RMK AO2 SLP193 T01720083
94908KDBQ DBQ20030718070009607/18/03 07:00:31  5-MIN KDBQ 181300Z 07008KT 10SM BKN021 18/08 A3012 890 53 1500 070/08 RMK AO2
94908KDBQ DBQ20030718070509607/18/03 07:05:31  5-MIN KDBQ 181305Z 08009KT 10SM OVC021 18/09 A3012 890 55 1500 070/09 RMK AO2
94908KDBQ DBQ20030718071009607/18/03 07:10:31  5-MIN KDBQ 181310Z 07008KT 10SM OVC021 18/09 A3012 890 55 1500 070/08 RMK AO2
94908KDBQ DBQ20030718071509607/18/03 07:15:31  5-MIN KDBQ 181315Z 06011KT 10SM OVC021 18/08 A3012 890 53 1500 060/11 RMK AO2
94908KDBQ DBQ20030718072009607/18/03 07:20:31  5-MIN KDBQ 181320Z 07009KT 10SM OVC021 18/09 A3012 890 54 1500 070/09 RMK AO2
94908KDBQ DBQ20030718072509607/18/03 07:25:31  5-MIN KDBQ 181325Z 07010KT 10SM BKN023 18/08 A3012 890 52 1500 070/10 RMK AO2
94908KDBQ DBQ20030718073009607/18/03 07:30:31  5-MIN KDBQ 181330Z 06011KT 10SM BKN023 18/08 A3012 890 52 1500 060/11 RMK AO2
94908KDBQ DBQ20030718073509607/18/03 07:35:31  5-MIN KDBQ 181335Z 07013KT 10SM BKN023 18/08 A3011 900 51 1500 070/13 RMK AO2
94908KDBQ DBQ20030718074009607/18/03 07:40:31  5-MIN KDBQ 181340Z 08011KT 10SM BKN025 18/08 A3012 900 50 1500 080/11 RMK AO2
94908KDBQ DBQ20030718074509607/18/03 07:45:31  5-MIN KDBQ 181345Z 08010KT 10SM BKN025 18/08 A3012 890 50 1500 070/10 RMK AO2
94908KDBQ DBQ20030718075011307/18/03 07:50:31  5-MIN KDBQ 181350Z 07012KT 10SM BKN027 18/08 A3012 890 50 1500 070/12 RMK AO2 SLP194 T01830078
94908KDBQ DBQ20030718075511307/18/03 07:55:31  5-MIN KDBQ 181355Z 07010KT 10SM BKN027 18/08 A3012 890 52 1500 070/10 RMK AO2 SLP195 T01830083
94908KDBQ DBQ20030718080009607/18/03 08:00:31  5-MIN KDBQ 181400Z 07010KT 10SM OVC027 19/08 A3013 890 50 1600 070/10 RMK AO2
94908KDBQ DBQ20030718080509607/18/03 08:05:31  5-MIN KDBQ 181405Z 07010KT 10SM OVC027 19/08 A3012 890 50 1600 070/10 RMK AO2
94908KDBQ DBQ20030718081009607/18/03 08:10:31  5-MIN KDBQ 181410Z 07011KT 10SM OVC029 19/08 A3012 890 50 1600 070/11 RMK AO2
94908KDBQ DBQ20030718081509607/18/03 08:15:31  5-MIN KDBQ 181415Z 07011KT 10SM OVC029 19/08 A3012 890 48 1600 060/11 RMK AO2
94908KDBQ DBQ20030718082009607/18/03 08:20:31  5-MIN KDBQ 181420Z 07013KT 10SM OVC029 19/08 A3012 900 48 1700 070/13 RMK AO2
94908KDBQ DBQ20030718082510207/18/03 08:25:31  5-MIN KDBQ 181425Z 07010G18KT 10SM BKN029 19/08 A3012 900 48 1700 070/10G18 RMK AO2
94908KDBQ DBQ20030718083009607/18/03 08:30:31  5-MIN KDBQ 181430Z 06011KT 10SM OVC029 19/08 A3012 890 48 1700 060/11 RMK AO2
94908KDBQ DBQ20030718083509607/18/03 08:35:31  5-MIN KDBQ 181435Z 06014KT 10SM BKN029 20/09 A3012 900 48 1700 060/14 RMK AO2
94908KDBQ DBQ20030718084009607/18/03 08:40:31  5-MIN KDBQ 181440Z 06014KT 10SM SCT029 19/09 A3012 900 50 1700 060/14 RMK AO2
94908KDBQ DBQ20030718084510307/18/03 08:45:31  5-MIN KDBQ 181445Z 06011KT 10SM SCT031 SCT040 19/09 A3012 900 50 1700 060/11 RMK AO2
94908KDBQ DBQ20030718085012607/18/03 08:50:31  5-MIN KDBQ 181450Z 05012KT 10SM FEW031 SCT040 20/09 A3011 900 50 1700 050/12 RMK AO2 SLP191 T02000094 53006
94908KDBQ DBQ20030718085511907/18/03 08:55:31  5-MIN KDBQ 181455Z 06011KT 10SM FEW031 20/09 A3011 900 48 1700 050/11 RMK AO2 SLP192 T02000089 50000
94908KDBQ DBQ20030718090009307/18/03 09:00:31  5-MIN KDBQ 181500Z 07015KT 10SM CLR 20/08 A3012 900 46 1700 070/15 RMK AO2
94908KDBQ DBQ20030718090509307/18/03 09:05:31  5-MIN KDBQ 181505Z 06012KT 10SM CLR 20/09 A3011 900 50 1700 060/12 RMK AO2
94908KDBQ DBQ20030718091009307/18/03 09:10:31  5-MIN KDBQ 181510Z 05011KT 10SM CLR 20/09 A3012 890 48 1700 050/11 RMK AO2
94908KDBQ DBQ20030718091509307/18/03 09:15:31  5-MIN KDBQ 181515Z 05013KT 10SM CLR 21/09 A3012 890 46 1800 050/13 RMK AO2
94908KDBQ DBQ20030718092009307/18/03 09:20:31  5-MIN KDBQ 181520Z 06013KT 10SM CLR 21/08 A3012 890 45 1800 060/13 RMK AO2
94908KDBQ DBQ20030718092509307/18/03 09:25:31  5-MIN KDBQ 181525Z 07012KT 10SM CLR 21/08 A3012 890 45 1800 070/12 RMK AO2
94908KDBQ DBQ20030718093009607/18/03 09:30:31  5-MIN KDBQ 181530Z 07010KT 10SM FEW037 21/09 A3013 880 46 1800 070/10 RMK AO2
94908KDBQ DBQ20030718093509607/18/03 09:35:31  5-MIN KDBQ 181535Z 05008KT 10SM SCT037 20/09 A3014 880 48 1700 050/08 RMK AO2
94908KDBQ DBQ20030718094009607/18/03 09:40:31  5-MIN KDBQ 181540Z 06011KT 10SM BKN037 20/09 A3014 880 50 1700 060/11 RMK AO2
94908KDBQ DBQ20030718094510207/18/03 09:45:31  5-MIN KDBQ 181545Z 07012G16KT 10SM BKN037 20/08 A3013 880 46 1700 070/12G16 RMK AO2
94908KDBQ DBQ20030718095011307/18/03 09:50:31  5-MIN KDBQ 181550Z 08010KT 10SM BKN037 20/08 A3013 890 46 1700 080/10 RMK AO2 SLP197 T02000083
94908KDBQ DBQ20030718095511307/18/03 09:55:31  5-MIN KDBQ 181555Z 07009KT 10SM OVC039 21/09 A3013 890 46 1800 060/09 RMK AO2 SLP197 T02060089
94908KDBQ DBQ20030718100009607/18/03 10:00:31  5-MIN KDBQ 181600Z 06010KT 10SM OVC039 21/09 A3013 890 46 1800 060/10 RMK AO2
94908KDBQ DBQ20030718100509607/18/03 10:05:31  5-MIN KDBQ 181605Z 07014KT 10SM OVC039 21/09 A3013 890 45 1800 070/14 RMK AO2
94908KDBQ DBQ20030718101009607/18/03 10:10:31  5-MIN KDBQ 181610Z 07011KT 10SM BKN041 22/09 A3013 880 43 1900 070/11 RMK AO2
94908KDBQ DBQ20030718101510207/18/03 10:15:31  5-MIN KDBQ 181615Z 07013G18KT 10SM BKN041 21/08 A3013 880 43 1800 070/13G18 RMK AO2
94908KDBQ DBQ20030718102010207/18/03 10:20:31  5-MIN KDBQ 181620Z 08011G18KT 10SM BKN041 21/08 A3013 880 43 1800 070/11G18 RMK AO2
94908KDBQ DBQ20030718102509607/18/03 10:25:31  5-MIN KDBQ 181625Z 08012KT 10SM BKN041 21/08 A3013 880 45 1800 080/12 RMK AO2
94908KDBQ DBQ20030718103009607/18/03 10:30:31  5-MIN KDBQ 181630Z 08009KT 10SM BKN041 22/09 A3013 880 45 1900 080/09 RMK AO2
94908KDBQ DBQ20030718103509607/18/03 10:35:31  5-MIN KDBQ 181635Z 06011KT 10SM BKN041 22/09 A3014 880 43 2000 060/11 RMK AO2
94908KDBQ DBQ20030718104009607/18/03 10:40:31  5-MIN KDBQ 181640Z 06009KT 10SM BKN041 22/09 A3013 880 45 1900 060/09 RMK AO2
94908KDBQ DBQ20030718104509607/18/03 10:45:31  5-MIN KDBQ 181645Z 07011KT 10SM BKN039 22/10 A3014 880 45 2000 070/11 RMK AO2
94908KDBQ DBQ20030718105011307/18/03 10:50:31  5-MIN KDBQ 181650Z 05013KT 10SM SCT041 22/09 A3014 880 43 2000 050/13 RMK AO2 SLP199 T02220094
94908KDBQ DBQ20030718105511307/18/03 10:55:31  5-MIN KDBQ 181655Z 06012KT 10SM FEW041 22/09 A3013 880 43 2000 060/12 RMK AO2 SLP199 T02220094
94908KDBQ DBQ20030718110009607/18/03 11:00:31  5-MIN KDBQ 181700Z 07009KT 10SM FEW041 22/09 A3014 880 43 2000 070/09 RMK AO2
94908KDBQ DBQ20030718110509607/18/03 11:05:31  5-MIN KDBQ 181705Z 07012KT 10SM FEW041 22/09 A3013 880 43 2000 070/12 RMK AO2
94908KDBQ DBQ20030718111009607/18/03 11:10:31  5-MIN KDBQ 181710Z 06010KT 10SM FEW041 23/10 A3013 880 44 2000 050/10 RMK AO2
94908KDBQ DBQ20030718111509607/18/03 11:15:31  5-MIN KDBQ 181715Z 06010KT 10SM FEW041 22/10 A3014 880 45 2000 060/10 RMK AO2
94908KDBQ DBQ20030718112009607/18/03 11:20:31  5-MIN KDBQ 181720Z 06010KT 10SM FEW041 22/10 A3014 880 45 2000 060/10 RMK AO2
94908KDBQ DBQ20030718112509607/18/03 11:25:31  5-MIN KDBQ 181725Z 07011KT 10SM SCT041 22/10 A3014 880 45 2000 060/11 RMK AO2
94908KDBQ DBQ20030718113009607/18/03 11:30:31  5-MIN KDBQ 181730Z 08010KT 10SM SCT041 22/10 A3013 880 45 2000 080/10 RMK AO2
94908KDBQ DBQ20030718113509607/18/03 11:35:31  5-MIN KDBQ 181735Z 05012KT 10SM SCT041 23/11 A3013 880 45 2000 050/12 RMK AO2
94908KDBQ DBQ20030718114009607/18/03 11:40:31  5-MIN KDBQ 181740Z 07010KT 10SM SCT041 22/11 A3013 880 47 2000 060/10 RMK AO2
94908KDBQ DBQ20030718114509607/18/03 11:45:31  5-MIN KDBQ 181745Z 07011KT 10SM SCT041 23/11 A3013 880 45 2000 060/11 RMK AO2
94908KDBQ DBQ20030718115013107/18/03 11:50:31  5-MIN KDBQ 181750Z 07011KT 10SM SCT041 22/11 A3013 880 47 2000 060/11 RMK AO2 SLP198 T02220106 10228 20172 50000
94908KDBQ DBQ20030718115513107/18/03 11:55:31  5-MIN KDBQ 181755Z 07011KT 10SM FEW041 23/10 A3013 880 44 2000 070/11 RMK AO2 SLP199 T02280100 10228 20172 51007
94908KDBQ DBQ20030718120009607/18/03 12:00:31  5-MIN KDBQ 181800Z 06009KT 10SM FEW041 22/10 A3013 880 45 2000 060/09 RMK AO2
94908KDBQ DBQ20030718120509607/18/03 12:05:31  5-MIN KDBQ 181805Z 08011KT 10SM FEW041 23/11 A3013 880 45 2100 080/11 RMK AO2
94908KDBQ DBQ20030718121009607/18/03 12:10:31  5-MIN KDBQ 181810Z 06011KT 10SM FEW041 23/11 A3013 880 44 2100 060/11 RMK AO2
94908KDBQ DBQ20030718121509607/18/03 12:15:31  5-MIN KDBQ 181815Z 06010KT 10SM FEW041 23/11 A3013 890 45 2100 060/10 RMK AO2
94908KDBQ DBQ20030718122009307/18/03 12:20:31  5-MIN KDBQ 181820Z 07009KT 10SM CLR 23/12 A3013 890 47 2100 070/09 RMK AO2
94908KDBQ DBQ20030718122509307/18/03 12:25:31  5-MIN KDBQ 181825Z 05009KT 10SM CLR 24/12 A3013 890 46 2200 040/09 RMK AO2
94908KDBQ DBQ20030718123009307/18/03 12:30:31  5-MIN KDBQ 181830Z 04010KT 10SM CLR 24/12 A3013 890 46 2200 040/10 RMK AO2
94908KDBQ DBQ20030718123509307/18/03 12:35:31  5-MIN KDBQ 181835Z 05008KT 10SM CLR 23/11 A3012 890 45 2100 050/08 RMK AO2
94908KDBQ DBQ20030718124009307/18/03 12:40:31  5-MIN KDBQ 181840Z 05009KT 10SM CLR 24/12 A3012 890 46 2200 040/09 RMK AO2
94908KDBQ DBQ20030718124509307/18/03 12:45:31  5-MIN KDBQ 181845Z 07006KT 10SM CLR 24/12 A3013 890 46 2200 070/06 RMK AO2
94908KDBQ DBQ20030718125011007/18/03 12:50:31  5-MIN KDBQ 181850Z 05012KT 10SM CLR 24/11 A3012 890 44 2200 050/12 RMK AO2 SLP194 T02390111
94908KDBQ DBQ20030718125511007/18/03 12:55:31  5-MIN KDBQ 181855Z 05009KT 10SM CLR 24/11 A3012 890 44 2200 040/09 RMK AO2 SLP195 T02390111
94908KDBQ DBQ20030718130009307/18/03 13:00:31  5-MIN KDBQ 181900Z 03011KT 10SM CLR 24/12 A3013 890 46 2200 030/11 RMK AO2
94908KDBQ DBQ20030718130509307/18/03 13:05:31  5-MIN KDBQ 181905Z 05011KT 10SM CLR 24/11 A3012 890 44 2200 050/11 RMK AO2
94908KDBQ DBQ20030718131009307/18/03 13:10:31  5-MIN KDBQ 181910Z 06010KT 10SM CLR 24/12 A3012 890 46 2200 060/10 RMK AO2
94908KDBQ DBQ20030718131509307/18/03 13:15:31  5-MIN KDBQ 181915Z 05010KT 10SM CLR 24/12 A3012 900 44 2200 050/10 RMK AO2
94908KDBQ DBQ20030718132009307/18/03 13:20:31  5-MIN KDBQ 181920Z 05011KT 10SM CLR 24/12 A3012 900 46 2200 050/11 RMK AO2
94908KDBQ DBQ20030718132509307/18/03 13:25:31  5-MIN KDBQ 181925Z 04010KT 10SM CLR 24/12 A3012 900 46 2200 040/10 RMK AO2
94908KDBQ DBQ20030718133009307/18/03 13:30:31  5-MIN KDBQ 181930Z 05010KT 10SM CLR 24/12 A3012 900 44 2200 050/10 RMK AO2
94908KDBQ DBQ20030718133509307/18/03 13:35:31  5-MIN KDBQ 181935Z 06011KT 10SM CLR 24/12 A3011 900 44 2200 060/11 RMK AO2
94908KDBQ DBQ20030718134009307/18/03 13:40:31  5-MIN KDBQ 181940Z 03010KT 10SM CLR 24/12 A3011 900 44 2200 030/10 RMK AO2
94908KDBQ DBQ20030718134509307/18/03 13:45:31  5-MIN KDBQ 181945Z 04011KT 10SM CLR 24/12 A3011 900 44 2200 040/11 RMK AO2
94908KDBQ DBQ20030718135011007/18/03 13:50:31  5-MIN KDBQ 181950Z 03011KT 10SM CLR 25/13 A3011 900 46 2300 030/11 RMK AO2 SLP191 T02500128
94908KDBQ DBQ20030718135511007/18/03 13:55:31  5-MIN KDBQ 181955Z 04010KT 10SM CLR 24/12 A3012 900 44 2200 040/10 RMK AO2 SLP192 T02440117
94908KDBQ DBQ20030718140009307/18/03 14:00:31  5-MIN KDBQ 182000Z 04011KT 10SM CLR 24/12 A3011 900 44 2200 040/11 RMK AO2
94908KDBQ DBQ20030718140509307/18/03 14:05:31  5-MIN KDBQ 182005Z 04010KT 10SM CLR 25/12 A3011 900 44 2300 040/10 RMK AO2
94908KDBQ DBQ20030718141009307/18/03 14:10:31  5-MIN KDBQ 182010Z 04011KT 10SM CLR 24/12 A3011 900 44 2200 040/11 RMK AO2
94908KDBQ DBQ20030718141509307/18/03 14:15:31  5-MIN KDBQ 182015Z 07010KT 10SM CLR 24/12 A3012 900 44 2200 060/10 RMK AO2
94908KDBQ DBQ20030718142009307/18/03 14:20:31  5-MIN KDBQ 182020Z 03010KT 10SM CLR 25/12 A3012 900 43 2300 030/10 RMK AO2
94908KDBQ DBQ20030718142509307/18/03 14:25:31  5-MIN KDBQ 182025Z 03011KT 10SM CLR 25/12 A3011 900 44 2300 030/11 RMK AO2
94908KDBQ DBQ20030718143009307/18/03 14:30:31  5-MIN KDBQ 182030Z 05010KT 10SM CLR 25/12 A3011 900 44 2300 040/10 RMK AO2
94908KDBQ DBQ20030718143509307/18/03 14:35:31  5-MIN KDBQ 182035Z 04010KT 10SM CLR 25/12 A3011 900 44 2300 040/10 RMK AO2
94908KDBQ DBQ20030718144009307/18/03 14:40:31  5-MIN KDBQ 182040Z 05011KT 10SM CLR 25/13 A3011 900 46 2300 040/11 RMK AO2
94908KDBQ DBQ20030718144509307/18/03 14:45:31  5-MIN KDBQ 182045Z 05009KT 10SM CLR 25/12 A3011 900 44 2300 050/09 RMK AO2
94908KDBQ DBQ20030718145011607/18/03 14:50:31  5-MIN KDBQ 182050Z 06010KT 10SM CLR 24/12 A3011 900 44 2200 060/10 RMK AO2 SLP191 T02440117 51007
94908KDBQ DBQ20030718145511607/18/03 14:55:31  5-MIN KDBQ 182055Z 06009KT 10SM CLR 24/12 A3011 910 46 2200 060/09 RMK AO2 SLP190 T02440122 56009
94908KDBQ DBQ20030718150009307/18/03 15:00:31  5-MIN KDBQ 182100Z 06009KT 10SM CLR 25/13 A3010 910 46 2300 060/09 RMK AO2
94908KDBQ DBQ20030718150509307/18/03 15:05:31  5-MIN KDBQ 182105Z 06011KT 10SM CLR 25/13 A3010 910 46 2300 060/11 RMK AO2
94908KDBQ DBQ20030718151009307/18/03 15:10:31  5-MIN KDBQ 182110Z 05010KT 10SM CLR 24/13 A3010 910 47 2300 050/10 RMK AO2
94908KDBQ DBQ20030718151509307/18/03 15:15:31  5-MIN KDBQ 182115Z 04010KT 10SM CLR 25/12 A3010 910 44 2300 030/10 RMK AO2
94908KDBQ DBQ20030718152009307/18/03 15:20:31  5-MIN KDBQ 182120Z 04011KT 10SM CLR 25/13 A3010 910 46 2300 040/11 RMK AO2
94908KDBQ DBQ20030718152509307/18/03 15:25:31  5-MIN KDBQ 182125Z 05011KT 10SM CLR 25/13 A3010 920 46 2300 050/11 RMK AO2
94908KDBQ DBQ20030718153009307/18/03 15:30:31  5-MIN KDBQ 182130Z 06009KT 10SM CLR 25/13 A3010 910 46 2300 050/09 RMK AO2
94908KDBQ DBQ20030718153509307/18/03 15:35:31  5-MIN KDBQ 182135Z 03011KT 10SM CLR 25/13 A3010 910 46 2300 030/11 RMK AO2
94908KDBQ DBQ20030718154009307/18/03 15:40:31  5-MIN KDBQ 182140Z 04012KT 10SM CLR 25/12 A3010 910 44 2300 030/12 RMK AO2
94908KDBQ DBQ20030718154509307/18/03 15:45:31  5-MIN KDBQ 182145Z 03012KT 10SM CLR 25/12 A3010 910 43 2300 030/12 RMK AO2
94908KDBQ DBQ20030718155011007/18/03 15:50:31  5-MIN KDBQ 182150Z 05010KT 10SM CLR 25/12 A3010 910 43 2300 050/10 RMK AO2 SLP188 T02500117
94908KDBQ DBQ20030718155511007/18/03 15:55:31  5-MIN KDBQ 182155Z 06010KT 10SM CLR 25/12 A3010 910 44 2300 060/10 RMK AO2 SLP188 T02500122
94908KDBQ DBQ20030718160009307/18/03 16:00:31  5-MIN KDBQ 182200Z 04011KT 10SM CLR 25/12 A3011 910 44 2300 040/11 RMK AO2
94908KDBQ DBQ20030718160509307/18/03 16:05:31  5-MIN KDBQ 182205Z 04009KT 10SM CLR 25/12 A3011 900 43 2300 040/09 RMK AO2
94908KDBQ DBQ20030718161009307/18/03 16:10:31  5-MIN KDBQ 182210Z 04010KT 10SM CLR 25/12 A3011 900 44 2300 040/10 RMK AO2
94908KDBQ DBQ20030718161509307/18/03 16:15:31  5-MIN KDBQ 182215Z 04007KT 10SM CLR 25/12 A3011 900 44 2300 040/07 RMK AO2
94908KDBQ DBQ20030718162009307/18/03 16:20:31  5-MIN KDBQ 182220Z 05007KT 10SM CLR 25/12 A3011 910 44 2300 050/07 RMK AO2
94908KDBQ DBQ20030718162509307/18/03 16:25:31  5-MIN KDBQ 182225Z 04008KT 10SM CLR 25/12 A3010 910 44 2300 040/08 RMK AO2
94908KDBQ DBQ20030718163009307/18/03 16:30:31  5-MIN KDBQ 182230Z 06008KT 10SM CLR 25/12 A3010 910 44 2300 060/08 RMK AO2
94908KDBQ DBQ20030718163509307/18/03 16:35:31  5-MIN KDBQ 182235Z 07008KT 10SM CLR 25/13 A3011 910 46 2300 070/08 RMK AO2
94908KDBQ DBQ20030718164009307/18/03 16:40:31  5-MIN KDBQ 182240Z 04008KT 10SM CLR 25/13 A3010 910 46 2300 040/08 RMK AO2
94908KDBQ DBQ20030718164509307/18/03 16:45:31  5-MIN KDBQ 182245Z 05007KT 10SM CLR 25/13 A3011 910 46 2300 050/07 RMK AO2
94908KDBQ DBQ20030718165011007/18/03 16:50:31  5-MIN KDBQ 182250Z 03008KT 10SM CLR 25/12 A3011 900 43 2300 030/08 RMK AO2 SLP192 T02500117
94908KDBQ DBQ20030718165511007/18/03 16:55:31  5-MIN KDBQ 182255Z 03010KT 10SM CLR 25/12 A3011 900 43 2300 020/10 RMK AO2 SLP192 T02500117
94908KDBQ DBQ20030718170009307/18/03 17:00:31  5-MIN KDBQ 182300Z 03010KT 10SM CLR 25/12 A3011 900 43 2300 030/10 RMK AO2
94908KDBQ DBQ20030718170509307/18/03 17:05:31  5-MIN KDBQ 182305Z 04007KT 10SM CLR 25/11 A3012 900 41 2300 040/07 RMK AO2
94908KDBQ DBQ20030718171009307/18/03 17:10:31  5-MIN KDBQ 182310Z 04007KT 10SM CLR 25/11 A3012 900 41 2300 040/07 RMK AO2
94908KDBQ DBQ20030718171509307/18/03 17:15:31  5-MIN KDBQ 182315Z 03009KT 10SM CLR 25/11 A3012 900 41 2300 030/09 RMK AO2
94908KDBQ DBQ20030718172009307/18/03 17:20:31  5-MIN KDBQ 182320Z 04007KT 10SM CLR 24/11 A3012 900 42 2200 040/07 RMK AO2
94908KDBQ DBQ20030718172509307/18/03 17:25:31  5-MIN KDBQ 182325Z 05007KT 10SM CLR 24/12 A3012 900 44 2200 050/07 RMK AO2
94908KDBQ DBQ20030718173009307/18/03 17:30:31  5-MIN KDBQ 182330Z 06008KT 10SM CLR 24/12 A3011 900 44 2200 060/08 RMK AO2
94908KDBQ DBQ20030718173509307/18/03 17:35:31  5-MIN KDBQ 182335Z 05008KT 10SM CLR 24/12 A3011 900 47 2200 050/08 RMK AO2
94908KDBQ DBQ20030718174009307/18/03 17:40:31  5-MIN KDBQ 182340Z 06008KT 10SM CLR 24/12 A3011 900 47 2200 060/08 RMK AO2
94908KDBQ DBQ20030718174509307/18/03 17:45:31  5-MIN KDBQ 182345Z 05008KT 10SM CLR 24/12 A3011 900 46 2200 050/08 RMK AO2
94908KDBQ DBQ20030718175012807/18/03 17:50:31  5-MIN KDBQ 182350Z 05008KT 10SM CLR 24/12 A3011 900 47 2200 050/08 RMK AO2 SLP192 T02390122 10256 20222 56009
94908KDBQ DBQ20030718175512807/18/03 17:55:31  5-MIN KDBQ 182355Z 05006KT 10SM CLR 24/12 A3011 900 47 2200 050/06 RMK AO2 SLP192 T02390122 10256 20222 53001
94908KDBQ DBQ20030718180009307/18/03 18:00:31  5-MIN KDBQ 190000Z 04008KT 10SM CLR 24/12 A3011 900 47 2200 040/08 RMK AO2
94908KDBQ DBQ20030718180509307/18/03 18:05:31  5-MIN KDBQ 190005Z 05007KT 10SM CLR 23/12 A3011 900 49 2100 050/07 RMK AO2
94908KDBQ DBQ20030718181009307/18/03 18:10:31  5-MIN KDBQ 190010Z 04008KT 10SM CLR 23/12 A3011 900 49 2100 040/08 RMK AO2
94908KDBQ DBQ20030718181509307/18/03 18:15:31  5-MIN KDBQ 190015Z 04006KT 10SM CLR 23/12 A3011 900 49 2100 040/06 RMK AO2
94908KDBQ DBQ20030718182009307/18/03 18:20:31  5-MIN KDBQ 190020Z 04007KT 10SM CLR 23/12 A3011 900 49 2100 040/07 RMK AO2
94908KDBQ DBQ20030718182509307/18/03 18:25:31  5-MIN KDBQ 190025Z 05006KT 10SM CLR 23/12 A3011 900 49 2000 050/06 RMK AO2
94908KDBQ DBQ20030718183009307/18/03 18:30:31  5-MIN KDBQ 190030Z 05007KT 10SM CLR 23/12 A3012 900 49 2000 050/07 RMK AO2
94908KDBQ DBQ20030718183509307/18/03 18:35:31  5-MIN KDBQ 190035Z 05007KT 10SM CLR 23/12 A3011 900 49 2100 050/07 RMK AO2
94908KDBQ DBQ20030718184009307/18/03 18:40:31  5-MIN KDBQ 190040Z 06006KT 10SM CLR 22/12 A3011 900 52 2000 060/06 RMK AO2
94908KDBQ DBQ20030718184509307/18/03 18:45:31  5-MIN KDBQ 190045Z 06006KT 10SM CLR 22/12 A3011 900 52 2000 060/06 RMK AO2
94908KDBQ DBQ20030718185011007/18/03 18:50:31  5-MIN KDBQ 190050Z 06005KT 10SM CLR 22/12 A3011 900 52 2000 060/05 RMK AO2 SLP194 T02220122
94908KDBQ DBQ20030718185511007/18/03 18:55:31  5-MIN KDBQ 190055Z 06005KT 10SM CLR 22/12 A3011 900 54 1900 060/05 RMK AO2 SLP194 T02170122
94908KDBQ DBQ20030718190010307/18/03 19:00:31  5-MIN KDBQ 190100Z AUTO 06006KT 10SM CLR 22/13 A3011 900 56 1900 060/06 RMK AO2 TSNO
94908KDBQ DBQ20030718190510307/18/03 19:05:31  5-MIN KDBQ 190105Z AUTO 07005KT 10SM CLR 22/13 A3011 900 56 1900 060/05 RMK AO2 TSNO
94908KDBQ DBQ20030718191010307/18/03 19:10:31  5-MIN KDBQ 190110Z AUTO 07005KT 10SM CLR 21/13 A3012 900 58 1900 060/05 RMK AO2 TSNO
94908KDBQ DBQ20030718191510307/18/03 19:15:31  5-MIN KDBQ 190115Z AUTO 06006KT 10SM CLR 21/12 A3012 900 58 1800 060/06 RMK AO2 TSNO
94908KDBQ DBQ20030718192010307/18/03 19:20:31  5-MIN KDBQ 190120Z AUTO 07007KT 10SM CLR 21/12 A3012 900 58 1800 070/07 RMK AO2 TSNO
94908KDBQ DBQ20030718192510307/18/03 19:25:31  5-MIN KDBQ 190125Z AUTO 06007KT 10SM CLR 20/12 A3012 900 58 1700 060/07 RMK AO2 TSNO
94908KDBQ DBQ20030718193010307/18/03 19:30:31  5-MIN KDBQ 190130Z AUTO 07007KT 10SM CLR 20/12 A3012 900 58 1700 060/07 RMK AO2 TSNO
94908KDBQ DBQ20030718193510307/18/03 19:35:31  5-MIN KDBQ 190135Z AUTO 07007KT 10SM CLR 20/12 A3012 900 58 1700 070/07 RMK AO2 TSNO
94908KDBQ DBQ20030718194010307/18/03 19:40:31  5-MIN KDBQ 190140Z AUTO 08005KT 10SM CLR 19/12 A3012 890 60 1700 080/05 RMK AO2 TSNO
94908KDBQ DBQ20030718194510307/18/03 19:45:31  5-MIN KDBQ 190145Z AUTO 09005KT 10SM CLR 19/12 A3012 900 62 1600 090/05 RMK AO2 TSNO
94908KDBQ DBQ20030718195012007/18/03 19:50:31  5-MIN KDBQ 190150Z AUTO 09005KT 10SM CLR 19/12 A3012 890 65 1600 090/05 RMK AO2 SLP197 T01890122 TSNO
94908KDBQ DBQ20030718195512007/18/03 19:55:31  5-MIN KDBQ 190155Z AUTO 08006KT 10SM CLR 19/12 A3012 890 65 1600 080/06 RMK AO2 SLP198 T01890122 TSNO
94908KDBQ DBQ20030718200010307/18/03 20:00:31  5-MIN KDBQ 190200Z AUTO 08006KT 10SM CLR 19/12 A3012 890 62 1600 080/06 RMK AO2 TSNO
94908KDBQ DBQ20030718200510307/18/03 20:05:31  5-MIN KDBQ 190205Z AUTO 08006KT 10SM CLR 19/12 A3013 890 62 1600 080/06 RMK AO2 TSNO
94908KDBQ DBQ20030718201010307/18/03 20:10:31  5-MIN KDBQ 190210Z AUTO 08007KT 10SM CLR 19/12 A3013 880 62 1600 080/07 RMK AO2 TSNO
94908KDBQ DBQ20030718201510307/18/03 20:15:31  5-MIN KDBQ 190215Z AUTO 08007KT 10SM CLR 18/12 A3013 890 65 1500 080/07 RMK AO2 TSNO
94908KDBQ DBQ20030718202010307/18/03 20:20:31  5-MIN KDBQ 190220Z AUTO 08007KT 10SM CLR 18/12 A3013 890 65 1500 080/07 RMK AO2 TSNO
94908KDBQ DBQ20030718202510307/18/03 20:25:31  5-MIN KDBQ 190225Z AUTO 09006KT 10SM CLR 18/12 A3013 880 67 1500 090/06 RMK AO2 TSNO
94908KDBQ DBQ20030718203010307/18/03 20:30:31  5-MIN KDBQ 190230Z AUTO 10005KT 10SM CLR 18/12 A3014 880 67 1400 100/05 RMK AO2 TSNO
94908KDBQ DBQ20030718203510307/18/03 20:35:31  5-MIN KDBQ 190235Z AUTO 10005KT 10SM CLR 17/12 A3014 880 72 1400 100/05 RMK AO2 TSNO
94908KDBQ DBQ20030718204010307/18/03 20:40:31  5-MIN KDBQ 190240Z AUTO 10005KT 10SM CLR 17/12 A3014 880 72 1400 100/05 RMK AO2 TSNO
94908KDBQ DBQ20030718204510307/18/03 20:45:31  5-MIN KDBQ 190245Z AUTO 09005KT 10SM CLR 17/12 A3014 870 69 1400 090/05 RMK AO2 TSNO
94908KDBQ DBQ20030718205012607/18/03 20:50:31  5-MIN KDBQ 190250Z AUTO 09003KT 10SM CLR 16/12 A3015 870 80 1200 090/03 RMK AO2 SLP206 T01560122 53001 TSNO
94908KDBQ DBQ20030718205512607/18/03 20:55:31  5-MIN KDBQ 190255Z AUTO 10003KT 10SM CLR 16/12 A3015 870 80 1200 100/03 RMK AO2 SLP206 T01560122 53012 TSNO
94908KDBQ DBQ20030718210010307/18/03 21:00:31  5-MIN KDBQ 190300Z AUTO 09005KT 10SM CLR 15/12 A3015 870 80 1100 090/05 RMK AO2 TSNO
94908KDBQ DBQ20030718210510307/18/03 21:05:31  5-MIN KDBQ 190305Z AUTO 09007KT 10SM CLR 17/12 A3015 870 75 1300 090/07 RMK AO2 TSNO
94908KDBQ DBQ20030718211010307/18/03 21:10:31  5-MIN KDBQ 190310Z AUTO 09007KT 10SM CLR 17/12 A3015 870 69 1400 090/07 RMK AO2 TSNO
94908KDBQ DBQ20030718211510307/18/03 21:15:31  5-MIN KDBQ 190315Z AUTO 08008KT 10SM CLR 17/12 A3015 870 69 1400 080/08 RMK AO2 TSNO
94908KDBQ DBQ20030718212010307/18/03 21:20:31  5-MIN KDBQ 190320Z AUTO 08007KT 10SM CLR 17/12 A3015 870 69 1400 080/07 RMK AO2 TSNO
94908KDBQ DBQ20030718212510307/18/03 21:25:31  5-MIN KDBQ 190325Z AUTO 08007KT 10SM CLR 17/11 A3015 870 67 1400 080/07 RMK AO2 TSNO
94908KDBQ DBQ20030718213010307/18/03 21:30:31  5-MIN KDBQ 190330Z AUTO 08007KT 10SM CLR 17/11 A3015 870 67 1400 080/07 RMK AO2 TSNO
94908KDBQ DBQ20030718213510307/18/03 21:35:31  5-MIN KDBQ 190335Z AUTO 09006KT 10SM CLR 17/11 A3015 870 67 1400 080/06 RMK AO2 TSNO
94908KDBQ DBQ20030718214010307/18/03 21:40:31  5-MIN KDBQ 190340Z AUTO 09006KT 10SM CLR 17/11 A3015 870 67 1400 090/06 RMK AO2 TSNO
94908KDBQ DBQ20030718214510307/18/03 21:45:31  5-MIN KDBQ 190345Z AUTO 09006KT 10SM CLR 17/11 A3015 870 67 1400 090/06 RMK AO2 TSNO
94908KDBQ DBQ20030718215012007/18/03 21:50:31  5-MIN KDBQ 190350Z AUTO 09007KT 10SM CLR 17/11 A3015 870 69 1300 090/07 RMK AO2 SLP206 T01670111 TSNO
94908KDBQ DBQ20030718215512007/18/03 21:55:31  5-MIN KDBQ 190355Z AUTO 10006KT 10SM CLR 17/11 A3014 870 69 1300 090/06 RMK AO2 SLP205 T01670111 TSNO
94908KDBQ DBQ20030718220010307/18/03 22:00:31  5-MIN KDBQ 190400Z AUTO 10006KT 10SM CLR 16/11 A3014 870 72 1200 100/06 RMK AO2 TSNO
94908KDBQ DBQ20030718220510307/18/03 22:05:31  5-MIN KDBQ 190405Z AUTO 11005KT 10SM CLR 16/11 A3014 870 74 1200 110/05 RMK AO2 TSNO
94908KDBQ DBQ20030718221010307/18/03 22:10:31  5-MIN KDBQ 190410Z AUTO 11006KT 10SM CLR 16/11 A3015 870 74 1200 110/06 RMK AO2 TSNO
94908KDBQ DBQ20030718221510307/18/03 22:15:31  5-MIN KDBQ 190415Z AUTO 10006KT 10SM CLR 16/11 A3014 870 72 1200 100/06 RMK AO2 TSNO
94908KDBQ DBQ20030718222010307/18/03 22:20:31  5-MIN KDBQ 190420Z AUTO 10006KT 10SM CLR 16/11 A3014 870 74 1200 100/06 RMK AO2 TSNO
94908KDBQ DBQ20030718222510307/18/03 22:25:31  5-MIN KDBQ 190425Z AUTO 11005KT 10SM CLR 16/11 A3014 870 74 1200 100/05 RMK AO2 TSNO
94908KDBQ DBQ20030718223010307/18/03 22:30:31  5-MIN KDBQ 190430Z AUTO 11005KT 10SM CLR 16/11 A3014 870 74 1200 110/05 RMK AO2 TSNO
94908KDBQ DBQ20030718223510307/18/03 22:35:31  5-MIN KDBQ 190435Z AUTO 11006KT 10SM CLR 16/11 A3014 870 74 1200 110/06 RMK AO2 TSNO
94908KDBQ DBQ20030718224010307/18/03 22:40:31  5-MIN KDBQ 190440Z AUTO 11006KT 10SM CLR 15/11 A3015 870 77 1100 110/06 RMK AO2 TSNO
94908KDBQ DBQ20030718224510307/18/03 22:45:31  5-MIN KDBQ 190445Z AUTO 11007KT 10SM CLR 16/11 A3014 870 74 1200 110/07 RMK AO2 TSNO
94908KDBQ DBQ20030718225012007/18/03 22:50:31  5-MIN KDBQ 190450Z AUTO 13004KT 10SM CLR 16/11 A3014 870 74 1200 130/04 RMK AO2 SLP205 T01560111 TSNO
94908KDBQ DBQ20030718225512007/18/03 22:55:31  5-MIN KDBQ 190455Z AUTO 13004KT 10SM CLR 16/11 A3014 870 72 1200 130/04 RMK AO2 SLP204 T01610111 TSNO
94908KDBQ DBQ20030718230010307/18/03 23:00:31  5-MIN KDBQ 190500Z AUTO 12003KT 10SM CLR 16/11 A3014 880 74 1200 120/03 RMK AO2 TSNO
94908KDBQ DBQ20030718230510307/18/03 23:05:31  5-MIN KDBQ 190505Z AUTO VRB03KT 10SM CLR 16/11 A3014 870 74 1200 VRB/03 RMK AO2 TSNO
94908KDBQ DBQ20030718231010307/18/03 23:10:31  5-MIN KDBQ 190510Z AUTO 12004KT 10SM CLR 16/11 A3014 880 74 1200 120/04 RMK AO2 TSNO
94908KDBQ DBQ20030718231510307/18/03 23:15:31  5-MIN KDBQ 190515Z AUTO 11005KT 10SM CLR 15/11 A3014 880 77 1100 110/05 RMK AO2 TSNO
94908KDBQ DBQ20030718232010307/18/03 23:20:31  5-MIN KDBQ 190520Z AUTO 11006KT 10SM CLR 15/11 A3014 880 77 1100 110/06 RMK AO2 TSNO
94908KDBQ DBQ20030718232510307/18/03 23:25:31  5-MIN KDBQ 190525Z AUTO 11005KT 10SM CLR 15/11 A3014 880 77 1100 110/05 RMK AO2 TSNO
94908KDBQ DBQ20030718233010307/18/03 23:30:31  5-MIN KDBQ 190530Z AUTO 12004KT 10SM CLR 15/11 A3014 880 77 1100 120/04 RMK AO2 TSNO
94908KDBQ DBQ20030718233510307/18/03 23:35:31  5-MIN KDBQ 190535Z AUTO 00000KT 10SM CLR 15/11 A3014 880 77 1100 000/00 RMK AO2 TSNO
94908KDBQ DBQ20030718234010307/18/03 23:40:31  5-MIN KDBQ 190540Z AUTO 00000KT 10SM CLR 15/11 A3014 880 77 1100 000/00 RMK AO2 TSNO
94908KDBQ DBQ20030718234510307/18/03 23:45:31  5-MIN KDBQ 190545Z AUTO 12003KT 10SM CLR 14/11 A3014 880 80 1100 120/03 RMK AO2 TSNO
94908KDBQ DBQ20030718235014807/18/03 23:50:31  5-MIN KDBQ 190550Z AUTO 12003KT 10SM CLR 14/11 A3014 880 80 1000 110/03 RMK AO2 SLP204 T01390106 10239 20139 402560139 53012 TSNO
94908KDBQ DBQ20030718235514807/18/03 23:55:31  5-MIN KDBQ 190555Z AUTO 10004KT 10SM CLR 14/11 A3014 880 77 1100 100/04 RMK AO2 SLP203 T01440106 10239 20139 402560139 58003 TSNO
94908KDBQ DBQ20030719000010307/19/03 00:00:31  5-MIN KDBQ 190600Z AUTO 09004KT 10SM CLR 14/11 A3014 880 77 1100 090/04 RMK AO2 TSNO
94908KDBQ DBQ20030719000510307/19/03 00:05:31  5-MIN KDBQ 190605Z AUTO 09005KT 10SM CLR 14/11 A3013 880 77 1100 090/05 RMK AO2 TSNO
94908KDBQ DBQ20030719001010307/19/03 00:10:31  5-MIN KDBQ 190610Z AUTO 09005KT 10SM CLR 14/11 A3013 880 77 1100 090/05 RMK AO2 TSNO
94908KDBQ DBQ20030719001510307/19/03 00:15:31  5-MIN KDBQ 190615Z AUTO 09005KT 10SM CLR 14/10 A3013 880 74 1100 090/05 RMK AO2 TSNO
94908KDBQ DBQ20030719002010207/19/03 00:20:31  5-MIN KDBQ 190620Z AUTO 09003KT 10SM CLR 13/10 A3014 880 80 900 090/03 RMK AO2 TSNO
94908KDBQ DBQ20030719002510207/19/03 00:25:31  5-MIN KDBQ 190625Z AUTO 09003KT 10SM CLR 13/10 A3014 880 80 900 090/03 RMK AO2 TSNO
94908KDBQ DBQ20030719003010307/19/03 00:30:31  5-MIN KDBQ 190630Z AUTO 09003KT 10SM CLR 14/10 A3013 880 77 1000 090/03 RMK AO2 TSNO
94908KDBQ DBQ20030719003510207/19/03 00:35:31  5-MIN KDBQ 190635Z AUTO 00000KT 10SM CLR 13/10 A3013 880 80 900 000/00 RMK AO2 TSNO
94908KDBQ DBQ20030719004010207/19/03 00:40:31  5-MIN KDBQ 190640Z AUTO 00000KT 10SM CLR 13/10 A3014 880 80 900 000/00 RMK AO2 TSNO
94908KDBQ DBQ20030719004510307/19/03 00:45:31  5-MIN KDBQ 190645Z AUTO 12003KT 10SM CLR 14/10 A3014 880 77 1000 120/03 RMK AO2 TSNO
94908KDBQ DBQ20030719005012007/19/03 00:50:31  5-MIN KDBQ 190650Z AUTO 00000KT 10SM CLR 14/10 A3013 880 74 1100 000/00 RMK AO2 SLP201 T01440100 TSNO
94908KDBQ DBQ20030719005511907/19/03 00:55:31  5-MIN KDBQ 190655Z AUTO 00000KT 10SM CLR 13/09 A3014 880 77 900 000/00 RMK AO2 SLP202 T01330094 TSNO
94908KDBQ DBQ20030719010010307/19/03 01:00:31  5-MIN KDBQ 190700Z AUTO 10004KT 10SM CLR 14/09 A3013 880 74 1000 100/04 RMK AO2 TSNO
94908KDBQ DBQ20030719010510307/19/03 01:05:31  5-MIN KDBQ 190705Z AUTO 10004KT 10SM CLR 14/09 A3013 880 74 1000 100/04 RMK AO2 TSNO
94908KDBQ DBQ20030719011010207/19/03 01:10:31  5-MIN KDBQ 190710Z AUTO 11003KT 10SM CLR 13/09 A3013 880 80 900 110/03 RMK AO2 TSNO
94908KDBQ DBQ20030719011510207/19/03 01:15:31  5-MIN KDBQ 190715Z AUTO 00000KT 10SM CLR 13/09 A3013 880 80 900 000/00 RMK AO2 TSNO
94908KDBQ DBQ20030719012010207/19/03 01:20:31  5-MIN KDBQ 190720Z AUTO 00000KT 10SM CLR 13/09 A3013 880 80 900 000/00 RMK AO2 TSNO
94908KDBQ DBQ20030719012510207/19/03 01:25:31  5-MIN KDBQ 190725Z AUTO 00000KT 10SM CLR 13/09 A3013 880 77 900 000/00 RMK AO2 TSNO
94908KDBQ DBQ20030719013010207/19/03 01:30:31  5-MIN KDBQ 190730Z AUTO 00000KT 10SM CLR 13/09 A3013 880 80 900 000/00 RMK AO2 TSNO
94908KDBQ DBQ20030719013510207/19/03 01:35:31  5-MIN KDBQ 190735Z AUTO 00000KT 10SM CLR 13/09 A3013 880 77 900 000/00 RMK AO2 TSNO
94908KDBQ DBQ20030719014010207/19/03 01:40:31  5-MIN KDBQ 190740Z AUTO 00000KT 10SM CLR 13/09 A3014 880 80 900 000/00 RMK AO2 TSNO
94908KDBQ DBQ20030719014510207/19/03 01:45:31  5-MIN KDBQ 190745Z AUTO 22004KT 10SM CLR 12/09 A3014 880 83 700 220/04 RMK AO2 TSNO
94908KDBQ DBQ20030719015011907/19/03 01:50:31  5-MIN KDBQ 190750Z AUTO 23003KT 10SM CLR 11/09 A3014 870 89 700 230/03 RMK AO2 SLP204 T01110094 TSNO
94908KDBQ DBQ20030719015511907/19/03 01:55:31  5-MIN KDBQ 190755Z AUTO 23003KT 10SM CLR 12/10 A3014 870 86 800 230/03 RMK AO2 SLP204 T01220100 TSNO
94908KDBQ DBQ20030719020010207/19/03 02:00:31  5-MIN KDBQ 190800Z AUTO 00000KT 10SM CLR 12/10 A3014 880 86 800 000/00 RMK AO2 TSNO
94908KDBQ DBQ20030719020510207/19/03 02:05:31  5-MIN KDBQ 190805Z AUTO 00000KT 10SM CLR 12/09 A3014 880 83 800 000/00 RMK AO2 TSNO
94908KDBQ DBQ20030719021010207/19/03 02:10:31  5-MIN KDBQ 190810Z AUTO 00000KT 10SM CLR 12/09 A3014 880 83 800 000/00 RMK AO2 TSNO
94908KDBQ DBQ20030719021510207/19/03 02:15:31  5-MIN KDBQ 190815Z AUTO 00000KT 10SM CLR 12/10 A3014 880 86 800 000/00 RMK AO2 TSNO
94908KDBQ DBQ20030719022010207/19/03 02:20:31  5-MIN KDBQ 190820Z AUTO 00000KT 10SM CLR 11/09 A3014 880 89 700 000/00 RMK AO2 TSNO
94908KDBQ DBQ20030719022510207/19/03 02:25:31  5-MIN KDBQ 190825Z AUTO 00000KT 10SM CLR 11/09 A3014 880 89 700 000/00 RMK AO2 TSNO
94908KDBQ DBQ20030719023010207/19/03 02:30:31  5-MIN KDBQ 190830Z AUTO 00000KT 10SM CLR 11/09 A3014 880 93 600 000/00 RMK AO2 TSNO
94908KDBQ DBQ20030719023510207/19/03 02:35:31  5-MIN KDBQ 190835Z AUTO 00000KT 10SM CLR 11/09 A3014 880 89 600 000/00 RMK AO2 TSNO
94908KDBQ DBQ20030719024010207/19/03 02:40:31  5-MIN KDBQ 190840Z AUTO 00000KT 10SM CLR 11/09 A3014 880 89 700 000/00 RMK AO2 TSNO
94908KDBQ DBQ20030719024510207/19/03 02:45:31  5-MIN KDBQ 190845Z AUTO 00000KT 10SM CLR 11/09 A3014 880 93 600 000/00 RMK AO2 TSNO
94908KDBQ DBQ20030719025012507/19/03 02:50:31  5-MIN KDBQ 190850Z AUTO 00000KT 10SM CLR 11/09 A3014 880 93 600 000/00 RMK AO2 SLP203 T01060094 58003 TSNO
94908KDBQ DBQ20030719025512507/19/03 02:55:31  5-MIN KDBQ 190855Z AUTO 00000KT 10SM CLR 11/09 A3014 880 93 600 000/00 RMK AO2 SLP203 T01060094 50000 TSNO
94908KDBQ DBQ20030719030010207/19/03 03:00:31  5-MIN KDBQ 190900Z AUTO 00000KT 10SM CLR 11/09 A3014 880 89 700 000/00 RMK AO2 TSNO
94908KDBQ DBQ20030719030510207/19/03 03:05:31  5-MIN KDBQ 190905Z AUTO 00000KT 10SM CLR 11/09 A3014 880 89 600 000/00 RMK AO2 TSNO
94908KDBQ DBQ20030719031010207/19/03 03:10:31  5-MIN KDBQ 190910Z AUTO 00000KT 10SM CLR 11/09 A3014 880 89 600 000/00 RMK AO2 TSNO
94908KDBQ DBQ20030719031510207/19/03 03:15:31  5-MIN KDBQ 190915Z AUTO 00000KT 10SM CLR 11/09 A3013 880 89 700 000/00 RMK AO2 TSNO
94908KDBQ DBQ20030719032010207/19/03 03:20:31  5-MIN KDBQ 190920Z AUTO 00000KT 10SM CLR 11/09 A3013 880 89 600 000/00 RMK AO2 TSNO
94908KDBQ DBQ20030719032510207/19/03 03:25:31  5-MIN KDBQ 190925Z AUTO 00000KT 10SM CLR 11/09 A3014 880 89 600 000/00 RMK AO2 TSNO
94908KDBQ DBQ20030719033010207/19/03 03:30:31  5-MIN KDBQ 190930Z AUTO 00000KT 10SM CLR 12/09 A3013 880 83 700 000/00 RMK AO2 TSNO
94908KDBQ DBQ20030719033510207/19/03 03:35:31  5-MIN KDBQ 190935Z AUTO 00000KT 10SM CLR 11/08 A3013 880 83 700 000/00 RMK AO2 TSNO
94908KDBQ DBQ20030719034010207/19/03 03:40:31  5-MIN KDBQ 190940Z AUTO 00000KT 10SM CLR 11/09 A3013 880 89 600 000/00 RMK AO2 TSNO
94908KDBQ DBQ20030719034510207/19/03 03:45:31  5-MIN KDBQ 190945Z AUTO 00000KT 10SM CLR 11/09 A3014 880 86 700 000/00 RMK AO2 TSNO
94908KDBQ DBQ20030719035011907/19/03 03:50:31  5-MIN KDBQ 190950Z AUTO 00000KT 10SM CLR 12/09 A3014 880 83 700 000/00 RMK AO2 SLP203 T01170089 TSNO
94908KDBQ DBQ20030719035511907/19/03 03:55:31  5-MIN KDBQ 190955Z AUTO 00000KT 10SM CLR 12/09 A3014 880 83 700 000/00 RMK AO2 SLP203 T01170089 TSNO
94908KDBQ DBQ20030719040010207/19/03 04:00:31  5-MIN KDBQ 191000Z AUTO 00000KT 10SM CLR 11/09 A3014 880 86 700 000/00 RMK AO2 TSNO
94908KDBQ DBQ20030719040510207/19/03 04:05:31  5-MIN KDBQ 191005Z AUTO 00000KT 10SM CLR 11/09 A3014 880 89 600 000/00 RMK AO2 TSNO
94908KDBQ DBQ20030719041010207/19/03 04:10:31  5-MIN KDBQ 191010Z AUTO 00000KT 10SM CLR 11/08 A3013 880 86 600 000/00 RMK AO2 TSNO
94908KDBQ DBQ20030719041510207/19/03 04:15:31  5-MIN KDBQ 191015Z AUTO 00000KT 10SM CLR 11/08 A3013 880 86 600 000/00 RMK AO2 TSNO
94908KDBQ DBQ20030719042010207/19/03 04:20:31  5-MIN KDBQ 191020Z AUTO 00000KT 10SM CLR 11/09 A3013 880 89 600 000/00 RMK AO2 TSNO
94908KDBQ DBQ20030719042510207/19/03 04:25:31  5-MIN KDBQ 191025Z AUTO 00000KT 10SM CLR 11/09 A3013 880 89 600 000/00 RMK AO2 TSNO
94908KDBQ DBQ20030719043010207/19/03 04:30:31  5-MIN KDBQ 191030Z AUTO 00000KT 10SM CLR 11/08 A3014 880 86 600 000/00 RMK AO2 TSNO
94908KDBQ DBQ20030719043510207/19/03 04:35:31  5-MIN KDBQ 191035Z AUTO 00000KT 10SM CLR 11/08 A3014 880 86 600 000/00 RMK AO2 TSNO
94908KDBQ DBQ20030719044010207/19/03 04:40:31  5-MIN KDBQ 191040Z AUTO 00000KT 10SM CLR 11/09 A3014 880 86 700 000/00 RMK AO2 TSNO
94908KDBQ DBQ20030719044510207/19/03 04:45:31  5-MIN KDBQ 191045Z AUTO 00000KT 10SM CLR 11/08 A3014 880 86 600 000/00 RMK AO2 TSNO
94908KDBQ DBQ20030719045010907/19/03 04:50:31  5-MIN KDBQ 191050Z 00000KT 10SM CLR 11/08 A3014 870 86 600 000/00 RMK AO2 SLP204 T01060083
94908KDBQ DBQ20030719045510907/19/03 04:55:31  5-MIN KDBQ 191055Z 00000KT 10SM CLR 11/08 A3014 870 86 600 000/00 RMK AO2 SLP205 T01060083
94908KDBQ DBQ20030719050009207/19/03 05:00:31  5-MIN KDBQ 191100Z 00000KT 10SM CLR 11/08 A3014 870 86 600 000/00 RMK AO2
94908KDBQ DBQ20030719050509207/19/03 05:05:31  5-MIN KDBQ 191105Z 00000KT 10SM CLR 11/08 A3015 870 86 600 000/00 RMK AO2
94908KDBQ DBQ20030719051009207/19/03 05:10:31  5-MIN KDBQ 191110Z 00000KT 10SM CLR 11/08 A3015 870 83 700 000/00 RMK AO2
94908KDBQ DBQ20030719051509207/19/03 05:15:31  5-MIN KDBQ 191115Z 00000KT 10SM CLR 11/08 A3015 870 83 700 000/00 RMK AO2
94908KDBQ DBQ20030719052009207/19/03 05:20:31  5-MIN KDBQ 191120Z 00000KT 10SM CLR 12/08 A3015 870 80 700 000/00 RMK AO2
94908KDBQ DBQ20030719052509207/19/03 05:25:31  5-MIN KDBQ 191125Z 00000KT 10SM CLR 12/09 A3014 870 80 800 000/00 RMK AO2
94908KDBQ DBQ20030719053009207/19/03 05:30:31  5-MIN KDBQ 191130Z 00000KT 10SM CLR 12/09 A3014 870 86 700 000/00 RMK AO2
94908KDBQ DBQ20030719053509207/19/03 05:35:31  5-MIN KDBQ 191135Z 00000KT 10SM CLR 11/09 A3014 870 89 700 000/00 RMK AO2
94908KDBQ DBQ20030719054009207/19/03 05:40:31  5-MIN KDBQ 191140Z 00000KT 10SM CLR 12/10 A3015 870 86 800 000/00 RMK AO2
94908KDBQ DBQ20030719054509207/19/03 05:45:31  5-MIN KDBQ 191145Z 00000KT 10SM CLR 13/10 A3015 870 80 900 000/00 RMK AO2
94908KDBQ DBQ20030719055012707/19/03 05:50:31  5-MIN KDBQ 191150Z 00000KT 10SM CLR 13/11 A3015 870 83 900 000/00 RMK AO2 SLP207 T01330106 10144 20100 50000
94908KDBQ DBQ20030719055512807/19/03 05:55:31  5-MIN KDBQ 191155Z 00000KT 10SM CLR 14/11 A3015 870 77 1000 000/00 RMK AO2 SLP206 T01440106 10144 20100 53004
94908KDBQ DBQ20030719060009307/19/03 06:00:31  5-MIN KDBQ 191200Z 00000KT 10SM CLR 16/11 A3015 870 72 1200 000/00 RMK AO2
94908KDBQ DBQ20030719060509307/19/03 06:05:31  5-MIN KDBQ 191205Z 00000KT 10SM CLR 16/11 A3015 870 74 1200 000/00 RMK AO2
94908KDBQ DBQ20030719061009307/19/03 06:10:31  5-MIN KDBQ 191210Z 00000KT 10SM CLR 16/11 A3015 860 72 1200 000/00 RMK AO2
94908KDBQ DBQ20030719061509307/19/03 06:15:31  5-MIN KDBQ 191215Z 00000KT 10SM CLR 16/11 A3016 860 69 1200 000/00 RMK AO2
94908KDBQ DBQ20030719062009307/19/03 06:20:31  5-MIN KDBQ 191220Z 02003KT 10SM CLR 17/11 A3016 860 67 1300 020/03 RMK AO2
94908KDBQ DBQ20030719062509307/19/03 06:25:31  5-MIN KDBQ 191225Z 02004KT 10SM CLR 17/10 A3016 850 64 1300 020/04 RMK AO2
94908KDBQ DBQ20030719063009307/19/03 06:30:31  5-MIN KDBQ 191230Z 02004KT 10SM CLR 17/11 A3016 850 67 1300 020/04 RMK AO2
94908KDBQ DBQ20030719063509307/19/03 06:35:31  5-MIN KDBQ 191235Z 02005KT 10SM CLR 16/11 A3016 850 69 1200 020/05 RMK AO2
94908KDBQ DBQ20030719064009307/19/03 06:40:31  5-MIN KDBQ 191240Z 03004KT 10SM CLR 16/10 A3016 850 67 1200 030/04 RMK AO2
94908KDBQ DBQ20030719064509307/19/03 06:45:31  5-MIN KDBQ 191245Z 03003KT 10SM CLR 17/10 A3016 850 64 1300 030/03 RMK AO2
94908KDBQ DBQ20030719065011007/19/03 06:50:31  5-MIN KDBQ 191250Z 04003KT 10SM CLR 17/09 A3016 850 62 1300 040/03 RMK AO2 SLP211 T01670094
94908KDBQ DBQ20030719065511007/19/03 06:55:31  5-MIN KDBQ 191255Z 03003KT 10SM CLR 17/09 A3016 860 60 1400 030/03 RMK AO2 SLP211 T01720094
94908KDBQ DBQ20030719070009307/19/03 07:00:31  5-MIN KDBQ 191300Z 00000KT 10SM CLR 17/09 A3016 850 60 1400 000/00 RMK AO2
94908KDBQ DBQ20030719070509307/19/03 07:05:31  5-MIN KDBQ 191305Z 00000KT 10SM CLR 17/10 A3017 850 62 1300 000/00 RMK AO2
94908KDBQ DBQ20030719071009307/19/03 07:10:31  5-MIN KDBQ 191310Z 00000KT 10SM CLR 18/09 A3017 850 55 1400 000/00 RMK AO2
94908KDBQ DBQ20030719071509307/19/03 07:15:31  5-MIN KDBQ 191315Z 00000KT 10SM CLR 18/09 A3017 850 54 1500 000/00 RMK AO2
94908KDBQ DBQ20030719072009307/19/03 07:20:31  5-MIN KDBQ 191320Z 00000KT 10SM CLR 18/09 A3017 850 56 1500 000/00 RMK AO2
94908KDBQ DBQ20030719072509307/19/03 07:25:31  5-MIN KDBQ 191325Z 00000KT 10SM CLR 19/09 A3017 850 54 1500 000/00 RMK AO2
94908KDBQ DBQ20030719073009307/19/03 07:30:31  5-MIN KDBQ 191330Z 00000KT 10SM CLR 19/09 A3017 840 52 1500 000/00 RMK AO2
94908KDBQ DBQ20030719073509307/19/03 07:35:31  5-MIN KDBQ 191335Z 00000KT 10SM CLR 19/09 A3017 850 54 1500 000/00 RMK AO2
94908KDBQ DBQ20030719074009307/19/03 07:40:31  5-MIN KDBQ 191340Z 05003KT 10SM CLR 19/11 A3017 850 56 1600 050/03 RMK AO2
94908KDBQ DBQ20030719074509307/19/03 07:45:31  5-MIN KDBQ 191345Z VRB03KT 10SM CLR 19/11 A3017 850 58 1600 VRB/03 RMK AO2
94908KDBQ DBQ20030719075011007/19/03 07:50:31  5-MIN KDBQ 191350Z 00000KT 10SM CLR 19/12 A3017 850 60 1600 000/00 RMK AO2 SLP213 T01940117
94908KDBQ DBQ20030719075511007/19/03 07:55:31  5-MIN KDBQ 191355Z 00000KT 10SM CLR 19/11 A3017 850 58 1600 000/00 RMK AO2 SLP212 T01940111
94908KDBQ DBQ20030719080009307/19/03 08:00:31  5-MIN KDBQ 191400Z 00000KT 10SM CLR 19/11 A3017 850 58 1600 000/00 RMK AO2
94908KDBQ DBQ20030719080509307/19/03 08:05:31  5-MIN KDBQ 191405Z VRB03KT 10SM CLR 20/10 A3016 850 52 1700 VRB/03 RMK AO2
94908KDBQ DBQ20030719081009307/19/03 08:10:31  5-MIN KDBQ 191410Z 11003KT 10SM CLR 21/07 A3017 850 40 1700 110/03 RMK AO2
94908KDBQ DBQ20030719081509307/19/03 08:15:31  5-MIN KDBQ 191415Z 10003KT 10SM CLR 21/07 A3017 850 40 1700 090/03 RMK AO2
94908KDBQ DBQ20030719082009307/19/03 08:20:31  5-MIN KDBQ 191420Z 14004KT 10SM CLR 21/06 A3016 850 37 1700 140/04 RMK AO2
94908KDBQ DBQ20030719082509307/19/03 08:25:31  5-MIN KDBQ 191425Z 12004KT 10SM CLR 21/06 A3016 860 38 1700 120/04 RMK AO2
94908KDBQ DBQ20030719083009307/19/03 08:30:31  5-MIN KDBQ 191430Z 15004KT 10SM CLR 21/06 A3016 860 37 1700 150/04 RMK AO2
94908KDBQ DBQ20030719083509307/19/03 08:35:31  5-MIN KDBQ 191435Z 11004KT 10SM CLR 21/06 A3016 860 38 1700 110/04 RMK AO2
94908KDBQ DBQ20030719084009307/19/03 08:40:31  5-MIN KDBQ 191440Z 13003KT 10SM CLR 21/05 A3016 860 35 1700 130/03 RMK AO2
94908KDBQ DBQ20030719084509307/19/03 08:45:31  5-MIN KDBQ 191445Z 00000KT 10SM CLR 21/05 A3016 860 35 1700 000/00 RMK AO2
94908KDBQ DBQ20030719085011607/19/03 08:50:31  5-MIN KDBQ 191450Z 13004KT 10SM CLR 21/06 A3016 860 36 1800 130/04 RMK AO2 SLP210 T02110056 53004
94908KDBQ DBQ20030719085511607/19/03 08:55:31  5-MIN KDBQ 191455Z VRB03KT 10SM CLR 21/04 A3016 860 33 1800 VRB/03 RMK AO2 SLP209 T02110044 50002
94908KDBQ DBQ20030719090009307/19/03 09:00:31  5-MIN KDBQ 191500Z 17004KT 10SM CLR 21/06 A3015 860 36 1800 170/04 RMK AO2
94908KDBQ DBQ20030719090509307/19/03 09:05:31  5-MIN KDBQ 191505Z 00000KT 10SM CLR 21/06 A3015 860 37 1800 000/00 RMK AO2
94908KDBQ DBQ20030719091009307/19/03 09:10:31  5-MIN KDBQ 191510Z 18004KT 10SM CLR 21/07 A3015 860 38 1800 180/04 RMK AO2
94908KDBQ DBQ20030719091509307/19/03 09:15:31  5-MIN KDBQ 191515Z VRB03KT 10SM CLR 21/07 A3015 860 40 1800 VRB/03 RMK AO2
94908KDBQ DBQ20030719092009307/19/03 09:20:31  5-MIN KDBQ 191520Z 00000KT 10SM CLR 22/07 A3016 860 37 1900 000/00 RMK AO2
94908KDBQ DBQ20030719092509307/19/03 09:25:31  5-MIN KDBQ 191525Z 00000KT 10SM CLR 22/07 A3015 870 37 1900 000/00 RMK AO2
94908KDBQ DBQ20030719093009307/19/03 09:30:31  5-MIN KDBQ 191530Z 15005KT 10SM CLR 22/08 A3014 870 40 1900 150/05 RMK AO2
94908KDBQ DBQ20030719093509307/19/03 09:35:31  5-MIN KDBQ 191535Z VRB03KT 10SM CLR 22/08 A3014 870 42 1900 VRB/03 RMK AO2
94908KDBQ DBQ20030719094009307/19/03 09:40:31  5-MIN KDBQ 191540Z 17007KT 10SM CLR 22/09 A3014 870 43 1900 170/07 RMK AO2
94908KDBQ DBQ20030719094509307/19/03 09:45:31  5-MIN KDBQ 191545Z VRB03KT 10SM CLR 22/08 A3014 880 42 1900 VRB/03 RMK AO2
94908KDBQ DBQ20030719095011007/19/03 09:50:31  5-MIN KDBQ 191550Z 19006KT 10SM CLR 22/08 A3014 870 42 1900 190/06 RMK AO2 SLP204 T02170083
94908KDBQ DBQ20030719095511007/19/03 09:55:31  5-MIN KDBQ 191555Z VRB04KT 10SM CLR 22/08 A3014 870 40 1900 VRB/04 RMK AO2 SLP204 T02170078
94908KDBQ DBQ20030719100009307/19/03 10:00:31  5-MIN KDBQ 191600Z 15006KT 10SM CLR 22/08 A3014 880 40 2000 150/06 RMK AO2
94908KDBQ DBQ20030719100509307/19/03 10:05:31  5-MIN KDBQ 191605Z 17007KT 10SM CLR 22/08 A3014 880 40 2000 170/07 RMK AO2
94908KDBQ DBQ20030719101009307/19/03 10:10:31  5-MIN KDBQ 191610Z 15004KT 10SM CLR 22/08 A3014 880 40 2000 150/04 RMK AO2
94908KDBQ DBQ20030719101509307/19/03 10:15:31  5-MIN KDBQ 191615Z 20004KT 10SM CLR 22/08 A3014 880 40 2000 200/04 RMK AO2
94908KDBQ DBQ20030719102009307/19/03 10:20:31  5-MIN KDBQ 191620Z 16007KT 10SM CLR 22/08 A3014 880 40 2000 160/07 RMK AO2
94908KDBQ DBQ20030719102509307/19/03 10:25:31  5-MIN KDBQ 191625Z VRB04KT 10SM CLR 23/08 A3014 880 39 2000 VRB/04 RMK AO2
94908KDBQ DBQ20030719103009307/19/03 10:30:31  5-MIN KDBQ 191630Z 17006KT 10SM CLR 23/08 A3014 880 39 2000 170/06 RMK AO2
94908KDBQ DBQ20030719103509307/19/03 10:35:31  5-MIN KDBQ 191635Z 18006KT 10SM CLR 23/09 A3014 880 40 2000 180/06 RMK AO2
94908KDBQ DBQ20030719104009307/19/03 10:40:31  5-MIN KDBQ 191640Z VRB06KT 10SM CLR 23/10 A3014 880 42 2100 VRB/06 RMK AO2
94908KDBQ DBQ20030719104509307/19/03 10:45:31  5-MIN KDBQ 191645Z 18006KT 10SM CLR 23/09 A3013 880 42 2000 170/06 RMK AO2
94908KDBQ DBQ20030719105011007/19/03 10:50:31  5-MIN KDBQ 191650Z VRB05KT 10SM CLR 23/10 A3013 880 42 2100 VRB/05 RMK AO2 SLP200 T02330100
94908KDBQ DBQ20030719105511007/19/03 10:55:31  5-MIN KDBQ 191655Z VRB05KT 10SM CLR 23/10 A3013 880 42 2100 VRB/05 RMK AO2 SLP201 T02330100
94908KDBQ DBQ20030719110009307/19/03 11:00:31  5-MIN KDBQ 191700Z 19005KT 10SM CLR 23/11 A3013 890 44 2100 190/05 RMK AO2
94908KDBQ DBQ20030719110510907/19/03 11:05:31  5-MIN KDBQ 191705Z 16007KT 130V190 10SM CLR 24/12 A3012 890 46 2200 160/07 130V190 RMK AO2
94908KDBQ DBQ20030719111009307/19/03 11:10:31  5-MIN KDBQ 191710Z 17006KT 10SM CLR 23/10 A3013 890 42 2100 160/06 RMK AO2
94908KDBQ DBQ20030719111509307/19/03 11:15:31  5-MIN KDBQ 191715Z 16005KT 10SM CLR 23/10 A3012 900 42 2100 160/05 RMK AO2
94908KDBQ DBQ20030719112009307/19/03 11:20:31  5-MIN KDBQ 191720Z 18009KT 10SM CLR 24/11 A3012 900 44 2200 180/09 RMK AO2
94908KDBQ DBQ20030719112509307/19/03 11:25:31  5-MIN KDBQ 191725Z 16005KT 10SM CLR 24/10 A3012 890 41 2200 160/05 RMK AO2
94908KDBQ DBQ20030719113009307/19/03 11:30:31  5-MIN KDBQ 191730Z 20005KT 10SM CLR 24/11 A3012 890 42 2200 200/05 RMK AO2
94908KDBQ DBQ20030719113509307/19/03 11:35:31  5-MIN KDBQ 191735Z 20006KT 10SM CLR 24/11 A3013 890 41 2200 200/06 RMK AO2
94908KDBQ DBQ20030719114009307/19/03 11:40:31  5-MIN KDBQ 191740Z 17007KT 10SM CLR 24/10 A3013 890 41 2200 170/07 RMK AO2
94908KDBQ DBQ20030719114509307/19/03 11:45:31  5-MIN KDBQ 191745Z 20006KT 10SM CLR 24/09 A3012 890 39 2200 200/06 RMK AO2
94908KDBQ DBQ20030719115012807/19/03 11:50:31  5-MIN KDBQ 191750Z 24007KT 10SM CLR 24/10 A3012 890 39 2200 230/07 RMK AO2 SLP197 T02440100 10244 20150 50002
94908KDBQ DBQ20030719115512807/19/03 11:55:31  5-MIN KDBQ 191755Z VRB04KT 10SM CLR 24/10 A3012 890 39 2200 VRB/04 RMK AO2 SLP196 T02440100 10244 20150 57011
94908KDBQ DBQ20030719120009307/19/03 12:00:31  5-MIN KDBQ 191800Z 21007KT 10SM CLR 24/10 A3012 890 39 2200 210/07 RMK AO2
94908KDBQ DBQ20030719120509307/19/03 12:05:31  5-MIN KDBQ 191805Z 15005KT 10SM CLR 24/11 A3012 890 41 2200 150/05 RMK AO2
94908KDBQ DBQ20030719121009307/19/03 12:10:31  5-MIN KDBQ 191810Z 25004KT 10SM CLR 24/10 A3013 890 39 2200 250/04 RMK AO2
94908KDBQ DBQ20030719121509307/19/03 12:15:31  5-MIN KDBQ 191815Z VRB04KT 10SM CLR 24/09 A3013 890 38 2200 VRB/04 RMK AO2
94908KDBQ DBQ20030719122009307/19/03 12:20:31  5-MIN KDBQ 191820Z 25006KT 10SM CLR 25/11 A3012 890 39 2300 250/06 RMK AO2
94908KDBQ DBQ20030719122509307/19/03 12:25:31  5-MIN KDBQ 191825Z VRB03KT 10SM CLR 24/10 A3013 890 39 2200 VRB/03 RMK AO2
94908KDBQ DBQ20030719123009307/19/03 12:30:31  5-MIN KDBQ 191830Z 20007KT 10SM CLR 25/11 A3013 890 39 2300 200/07 RMK AO2
94908KDBQ DBQ20030719123509307/19/03 12:35:31  5-MIN KDBQ 191835Z 20005KT 10SM CLR 24/10 A3012 890 39 2200 200/05 RMK AO2
94908KDBQ DBQ20030719124009307/19/03 12:40:31  5-MIN KDBQ 191840Z 23007KT 10SM CLR 26/10 A3012 890 37 2400 230/07 RMK AO2
94908KDBQ DBQ20030719124509307/19/03 12:45:31  5-MIN KDBQ 191845Z VRB05KT 10SM CLR 26/09 A3012 890 35 2400 VRB/05 RMK AO2
94908KDBQ DBQ20030719125011007/19/03 12:50:31  5-MIN KDBQ 191850Z 26004KT 10SM CLR 26/08 A3012 890 33 2400 260/04 RMK AO2 SLP197 T02560083
94908KDBQ DBQ20030719125511007/19/03 12:55:31  5-MIN KDBQ 191855Z VRB04KT 10SM CLR 25/09 A3012 890 35 2300 VRB/04 RMK AO2 SLP196 T02500089
94908KDBQ DBQ20030719130009307/19/03 13:00:31  5-MIN KDBQ 191900Z 00000KT 10SM CLR 25/08 A3012 900 34 2300 000/00 RMK AO2
94908KDBQ DBQ20030719130509307/19/03 13:05:31  5-MIN KDBQ 191905Z 17006KT 10SM CLR 25/10 A3012 900 38 2300 170/06 RMK AO2
94908KDBQ DBQ20030719131009307/19/03 13:10:31  5-MIN KDBQ 191910Z 22006KT 10SM CLR 26/11 A3011 900 40 2400 220/06 RMK AO2
94908KDBQ DBQ20030719131509307/19/03 13:15:31  5-MIN KDBQ 191915Z VRB03KT 10SM CLR 25/10 A3011 900 38 2300 VRB/03 RMK AO2
94908KDBQ DBQ20030719132009307/19/03 13:20:31  5-MIN KDBQ 191920Z 23007KT 10SM CLR 26/10 A3011 900 37 2400 220/07 RMK AO2
94908KDBQ DBQ20030719132509307/19/03 13:25:31  5-MIN KDBQ 191925Z 25005KT 10SM CLR 26/09 A3011 900 35 2400 250/05 RMK AO2
94908KDBQ DBQ20030719133009307/19/03 13:30:31  5-MIN KDBQ 191930Z 24007KT 10SM CLR 26/10 A3011 900 37 2400 240/07 RMK AO2
94908KDBQ DBQ20030719133509307/19/03 13:35:31  5-MIN KDBQ 191935Z 23006KT 10SM CLR 26/10 A3010 910 37 2400 230/06 RMK AO2
94908KDBQ DBQ20030719134009307/19/03 13:40:31  5-MIN KDBQ 191940Z VRB06KT 10SM CLR 26/10 A3010 910 37 2400 VRB/06 RMK AO2
94908KDBQ DBQ20030719134509307/19/03 13:45:31  5-MIN KDBQ 191945Z VRB04KT 10SM CLR 26/09 A3010 910 34 2400 VRB/04 RMK AO2
94908KDBQ DBQ20030719135011007/19/03 13:50:31  5-MIN KDBQ 191950Z 19004KT 10SM CLR 26/11 A3010 910 38 2400 190/04 RMK AO2 SLP190 T02560106
94908KDBQ DBQ20030719135511007/19/03 13:55:31  5-MIN KDBQ 191955Z 24006KT 10SM CLR 26/10 A3010 920 37 2400 240/06 RMK AO2 SLP189 T02560100
94908KDBQ DBQ20030719140009307/19/03 14:00:31  5-MIN KDBQ 192000Z 22007KT 10SM CLR 26/10 A3010 920 37 2400 220/07 RMK AO2
94908KDBQ DBQ20030719140509307/19/03 14:05:31  5-MIN KDBQ 192005Z 19006KT 10SM CLR 26/11 A3010 920 38 2400 190/06 RMK AO2
94908KDBQ DBQ20030719141009307/19/03 14:10:31  5-MIN KDBQ 192010Z 23006KT 10SM CLR 26/11 A3009 920 40 2400 230/06 RMK AO2
94908KDBQ DBQ20030719141509307/19/03 14:15:31  5-MIN KDBQ 192015Z 23009KT 10SM CLR 26/11 A3009 920 38 2500 230/09 RMK AO2
94908KDBQ DBQ20030719142009307/19/03 14:20:31  5-MIN KDBQ 192020Z 20007KT 10SM CLR 26/12 A3009 920 40 2500 200/07 RMK AO2
94908KDBQ DBQ20030719142509307/19/03 14:25:31  5-MIN KDBQ 192025Z 22008KT 10SM CLR 26/12 A3009 920 40 2500 220/08 RMK AO2
94908KDBQ DBQ20030719143009307/19/03 14:30:31  5-MIN KDBQ 192030Z 24005KT 10SM CLR 26/12 A3008 930 40 2500 240/05 RMK AO2
94908KDBQ DBQ20030719143509307/19/03 14:35:31  5-MIN KDBQ 192035Z VRB05KT 10SM CLR 26/12 A3008 930 40 2500 VRB/05 RMK AO2
94908KDBQ DBQ20030719144009307/19/03 14:40:31  5-MIN KDBQ 192040Z 23008KT 10SM CLR 26/12 A3008 930 40 2500 230/08 RMK AO2
94908KDBQ DBQ20030719144509307/19/03 14:45:31  5-MIN KDBQ 192045Z 25008KT 10SM CLR 27/12 A3008 930 40 2500 240/08 RMK AO2
94908KDBQ DBQ20030719145011607/19/03 14:50:31  5-MIN KDBQ 192050Z 20007KT 10SM CLR 26/12 A3008 930 41 2500 200/07 RMK AO2 SLP182 T02610122 57011
94908KDBQ DBQ20030719145511607/19/03 14:55:31  5-MIN KDBQ 192055Z 19006KT 10SM CLR 26/12 A3007 940 41 2500 190/06 RMK AO2 SLP182 T02610122 58015
94908KDBQ DBQ20030719150009307/19/03 15:00:31  5-MIN KDBQ 192100Z 18005KT 10SM CLR 26/12 A3007 940 43 2400 180/05 RMK AO2
94908KDBQ DBQ20030719150509307/19/03 15:05:31  5-MIN KDBQ 192105Z 17005KT 10SM CLR 26/13 A3007 940 43 2500 170/05 RMK AO2
94908KDBQ DBQ20030719151009307/19/03 15:10:31  5-MIN KDBQ 192110Z 18006KT 10SM CLR 26/13 A3007 940 44 2500 180/06 RMK AO2
94908KDBQ DBQ20030719151509307/19/03 15:15:31  5-MIN KDBQ 192115Z 22008KT 10SM CLR 27/13 A3007 940 43 2500 220/08 RMK AO2
94908KDBQ DBQ20030719152009307/19/03 15:20:31  5-MIN KDBQ 192120Z 20005KT 10SM CLR 26/12 A3007 940 43 2400 200/05 RMK AO2
94908KDBQ DBQ20030719152509307/19/03 15:25:31  5-MIN KDBQ 192125Z 25008KT 10SM CLR 26/12 A3006 950 40 2500 250/08 RMK AO2
94908KDBQ DBQ20030719153009307/19/03 15:30:31  5-MIN KDBQ 192130Z 23006KT 10SM CLR 26/12 A3006 950 40 2500 230/06 RMK AO2
94908KDBQ DBQ20030719153509307/19/03 15:35:31  5-MIN KDBQ 192135Z 22008KT 10SM CLR 26/12 A3006 950 41 2500 220/08 RMK AO2
94908KDBQ DBQ20030719154009307/19/03 15:40:31  5-MIN KDBQ 192140Z 23008KT 10SM CLR 26/13 A3006 950 43 2500 230/08 RMK AO2
94908KDBQ DBQ20030719154509307/19/03 15:45:31  5-MIN KDBQ 192145Z 23007KT 10SM CLR 26/12 A3006 950 41 2500 230/07 RMK AO2
94908KDBQ DBQ20030719155011007/19/03 15:50:31  5-MIN KDBQ 192150Z 21008KT 10SM CLR 27/12 A3005 950 40 2600 210/08 RMK AO2 SLP174 T02670122
94908KDBQ DBQ20030719155511007/19/03 15:55:31  5-MIN KDBQ 192155Z 20008KT 10SM CLR 26/12 A3005 960 41 2500 200/08 RMK AO2 SLP173 T02610122
94908KDBQ DBQ20030719160009307/19/03 16:00:31  5-MIN KDBQ 192200Z 20006KT 10SM CLR 26/12 A3005 960 41 2500 200/06 RMK AO2
94908KDBQ DBQ20030719160509307/19/03 16:05:31  5-MIN KDBQ 192205Z 20010KT 10SM CLR 26/13 A3005 960 43 2500 200/10 RMK AO2
94908KDBQ DBQ20030719161009307/19/03 16:10:31  5-MIN KDBQ 192210Z 23009KT 10SM CLR 26/12 A3005 960 41 2500 230/09 RMK AO2
94908KDBQ DBQ20030719161509307/19/03 16:15:31  5-MIN KDBQ 192215Z 20008KT 10SM CLR 26/12 A3004 960 41 2500 200/08 RMK AO2
94908KDBQ DBQ20030719162009307/19/03 16:20:31  5-MIN KDBQ 192220Z 21009KT 10SM CLR 26/12 A3004 960 41 2500 210/09 RMK AO2
94908KDBQ DBQ20030719162509307/19/03 16:25:31  5-MIN KDBQ 192225Z 20006KT 10SM CLR 26/12 A3004 960 41 2500 200/06 RMK AO2
94908KDBQ DBQ20030719163009307/19/03 16:30:31  5-MIN KDBQ 192230Z 22008KT 10SM CLR 26/12 A3004 970 41 2500 220/08 RMK AO2
94908KDBQ DBQ20030719163509307/19/03 16:35:31  5-MIN KDBQ 192235Z 22008KT 10SM CLR 26/13 A3004 970 43 2500 220/08 RMK AO2
94908KDBQ DBQ20030719164009307/19/03 16:40:31  5-MIN KDBQ 192240Z 21008KT 10SM CLR 26/12 A3004 970 41 2500 210/08 RMK AO2
94908KDBQ DBQ20030719164509307/19/03 16:45:31  5-MIN KDBQ 192245Z 21007KT 10SM CLR 26/13 A3004 970 43 2500 210/07 RMK AO2
94908KDBQ DBQ20030719165011007/19/03 16:50:31  5-MIN KDBQ 192250Z 22008KT 10SM CLR 26/11 A3004 970 38 2500 220/08 RMK AO2 SLP170 T02610111
94908KDBQ DBQ20030719165511007/19/03 16:55:31  5-MIN KDBQ 192255Z 20008KT 10SM CLR 26/12 A3004 970 43 2400 200/08 RMK AO2 SLP169 T02560122
94908KDBQ DBQ20030719170009307/19/03 17:00:31  5-MIN KDBQ 192300Z 21007KT 10SM CLR 26/13 A3004 970 44 2400 210/07 RMK AO2
94908KDBQ DBQ20030719170509307/19/03 17:05:31  5-MIN KDBQ 192305Z 21008KT 10SM CLR 26/13 A3004 970 44 2400 210/08 RMK AO2
94908KDBQ DBQ20030719171009307/19/03 17:10:31  5-MIN KDBQ 192310Z 21006KT 10SM CLR 26/13 A3004 970 44 2400 210/06 RMK AO2
94908KDBQ DBQ20030719171509307/19/03 17:15:31  5-MIN KDBQ 192315Z 20007KT 10SM CLR 26/13 A3004 970 46 2400 200/07 RMK AO2
94908KDBQ DBQ20030719172009307/19/03 17:20:31  5-MIN KDBQ 192320Z 19009KT 10SM CLR 26/13 A3004 970 46 2400 190/09 RMK AO2
94908KDBQ DBQ20030719172509307/19/03 17:25:31  5-MIN KDBQ 192325Z 19007KT 10SM CLR 26/13 A3004 970 46 2400 190/07 RMK AO2
94908KDBQ DBQ20030719173009307/19/03 17:30:31  5-MIN KDBQ 192330Z 21007KT 10SM CLR 26/14 A3004 970 48 2400 210/07 RMK AO2
94908KDBQ DBQ20030719173509307/19/03 17:35:31  5-MIN KDBQ 192335Z 21009KT 10SM CLR 26/13 A3003 970 46 2500 210/09 RMK AO2
94908KDBQ DBQ20030719174009307/19/03 17:40:31  5-MIN KDBQ 192340Z 21009KT 10SM CLR 25/12 A3003 980 44 2400 200/09 RMK AO2
94908KDBQ DBQ20030719174509307/19/03 17:45:31  5-MIN KDBQ 192345Z 20008KT 10SM CLR 25/12 A3003 980 43 2400 200/08 RMK AO2
94908KDBQ DBQ20030719175012807/19/03 17:50:31  5-MIN KDBQ 192350Z 21008KT 10SM CLR 25/12 A3003 970 44 2400 210/08 RMK AO2 SLP166 T02500122 10267 20244 58015
94908KDBQ DBQ20030719175512807/19/03 17:55:31  5-MIN KDBQ 192355Z 21008KT 10SM CLR 25/12 A3003 970 44 2400 210/08 RMK AO2 SLP166 T02500122 10267 20244 56014
94908KDBQ DBQ20030719180009307/19/03 18:00:31  5-MIN KDBQ 200000Z 21007KT 10SM CLR 24/13 A3003 980 47 2300 210/07 RMK AO2
94908KDBQ DBQ20030719180509307/19/03 18:05:31  5-MIN KDBQ 200005Z 21008KT 10SM CLR 24/13 A3003 980 47 2300 210/08 RMK AO2
94908KDBQ DBQ20030719181009307/19/03 18:10:31  5-MIN KDBQ 200010Z 20007KT 10SM CLR 24/13 A3002 990 47 2300 200/07 RMK AO2
94908KDBQ DBQ20030719181509307/19/03 18:15:31  5-MIN KDBQ 200015Z 21007KT 10SM CLR 24/13 A3002 990 51 2300 200/07 RMK AO2
94908KDBQ DBQ20030719182009307/19/03 18:20:31  5-MIN KDBQ 200020Z 20006KT 10SM CLR 24/14 A3002 990 53 2300 200/06 RMK AO2
94908KDBQ DBQ20030719182509307/19/03 18:25:31  5-MIN KDBQ 200025Z 20006KT 10SM CLR 24/14 A3001 990 53 2300 200/06 RMK AO2
94908KDBQ DBQ20030719183009407/19/03 18:30:31  5-MIN KDBQ 200030Z 19006KT 10SM CLR 23/14 A3001 1000 55 2200 190/06 RMK AO2
94908KDBQ DBQ20030719183510307/19/03 18:35:31  5-MIN KDBQ 200035Z AUTO 19006KT 10SM CLR 23/15 A3001 990 59 2200 190/06 RMK AO2 TSNO
94908KDBQ DBQ20030719184010307/19/03 18:40:31  5-MIN KDBQ 200040Z AUTO 19006KT 10SM CLR 23/15 A3001 990 61 2200 190/06 RMK AO2 TSNO
94908KDBQ DBQ20030719184510307/19/03 18:45:31  5-MIN KDBQ 200045Z AUTO 20005KT 10SM CLR 23/16 A3001 990 63 2200 200/05 RMK AO2 TSNO
94908KDBQ DBQ20030719185012007/19/03 18:50:31  5-MIN KDBQ 200050Z AUTO 21004KT 10SM CLR 23/16 A3001 990 63 2200 210/04 RMK AO2 SLP160 T02280156 TSNO
94908KDBQ DBQ20030719185512007/19/03 18:55:31  5-MIN KDBQ 200055Z AUTO 21004KT 10SM CLR 22/16 A3001 990 65 2100 210/04 RMK AO2 SLP159 T02220156 TSNO
94908KDBQ DBQ20030719190010407/19/03 19:00:31  5-MIN KDBQ 200100Z AUTO 20005KT 10SM CLR 23/15 A3001 1000 61 2200 200/05 RMK AO2 TSNO
94908KDBQ DBQ20030719190510407/19/03 19:05:31  5-MIN KDBQ 200105Z AUTO 20005KT 10SM CLR 22/16 A3000 1000 68 2000 190/05 RMK AO2 TSNO
94908KDBQ DBQ20030719191010407/19/03 19:10:31  5-MIN KDBQ 200110Z AUTO 20005KT 10SM CLR 22/16 A3000 1000 70 2000 200/05 RMK AO2 TSNO
94908KDBQ DBQ20030719191510407/19/03 19:15:31  5-MIN KDBQ 200115Z AUTO 19006KT 10SM CLR 21/16 A3000 1000 73 2000 190/06 RMK AO2 TSNO
94908KDBQ DBQ20030719192010407/19/03 19:20:31  5-MIN KDBQ 200120Z AUTO 19005KT 10SM CLR 21/16 A3000 1000 70 2000 190/05 RMK AO2 TSNO
94908KDBQ DBQ20030719192510407/19/03 19:25:31  5-MIN KDBQ 200125Z AUTO 20005KT 10SM CLR 21/16 A3001 1000 70 2000 200/05 RMK AO2 TSNO
94908KDBQ DBQ20030719193010407/19/03 19:30:31  5-MIN KDBQ 200130Z AUTO 21003KT 10SM CLR 21/15 A3001 1000 70 1900 210/03 RMK AO2 TSNO
94908KDBQ DBQ20030719193510407/19/03 19:35:31  5-MIN KDBQ 200135Z AUTO 20003KT 10SM CLR 21/15 A3001 1000 70 1900 200/03 RMK AO2 TSNO
94908KDBQ DBQ20030719194010407/19/03 19:40:31  5-MIN KDBQ 200140Z AUTO 00000KT 10SM CLR 21/16 A3001 1000 73 1900 000/00 RMK AO2 TSNO
94908KDBQ DBQ20030719194510307/19/03 19:45:31  5-MIN KDBQ 200145Z AUTO 00000KT 10SM CLR 20/16 A3001 990 75 1800 000/00 RMK AO2 TSNO
94908KDBQ DBQ20030719195012007/19/03 19:50:31  5-MIN KDBQ 200150Z AUTO 00000KT 10SM CLR 19/15 A3002 990 75 1800 000/00 RMK AO2 SLP162 T01940150 TSNO
94908KDBQ DBQ20030719195512007/19/03 19:55:31  5-MIN KDBQ 200155Z AUTO 00000KT 10SM CLR 19/15 A3002 990 78 1700 000/00 RMK AO2 SLP162 T01890150 TSNO
94908KDBQ DBQ20030719200010307/19/03 20:00:31  5-MIN KDBQ 200200Z AUTO 00000KT 10SM CLR 19/15 A3002 980 75 1800 000/00 RMK AO2 TSNO
94908KDBQ DBQ20030719200510307/19/03 20:05:31  5-MIN KDBQ 200205Z AUTO 00000KT 10SM CLR 20/15 A3002 980 72 1800 000/00 RMK AO2 TSNO
94908KDBQ DBQ20030719201010307/19/03 20:10:31  5-MIN KDBQ 200210Z AUTO 00000KT 10SM CLR 19/15 A3002 980 75 1800 000/00 RMK AO2 TSNO
94908KDBQ DBQ20030719201510307/19/03 20:15:31  5-MIN KDBQ 200215Z AUTO 00000KT 10SM CLR 18/15 A3003 980 81 1600 000/00 RMK AO2 TSNO
94908KDBQ DBQ20030719202010307/19/03 20:20:31  5-MIN KDBQ 200220Z AUTO 00000KT 10SM CLR 19/15 A3003 980 78 1700 000/00 RMK AO2 TSNO
94908KDBQ DBQ20030719202510307/19/03 20:25:31  5-MIN KDBQ 200225Z AUTO 00000KT 10SM CLR 18/15 A3002 980 81 1600 000/00 RMK AO2 TSNO
94908KDBQ DBQ20030719203010307/19/03 20:30:31  5-MIN KDBQ 200230Z AUTO 00000KT 10SM CLR 18/15 A3003 980 81 1600 000/00 RMK AO2 TSNO
94908KDBQ DBQ20030719203510307/19/03 20:35:31  5-MIN KDBQ 200235Z AUTO 00000KT 10SM CLR 18/15 A3003 980 81 1600 000/00 RMK AO2 TSNO
94908KDBQ DBQ20030719204010307/19/03 20:40:31  5-MIN KDBQ 200240Z AUTO 00000KT 10SM CLR 17/15 A3003 970 87 1500 000/00 RMK AO2 TSNO
94908KDBQ DBQ20030719204510307/19/03 20:45:31  5-MIN KDBQ 200245Z AUTO 00000KT 10SM CLR 18/14 A3003 970 81 1600 000/00 RMK AO2 TSNO
94908KDBQ DBQ20030719205012607/19/03 20:50:31  5-MIN KDBQ 200250Z AUTO 00000KT 10SM CLR 18/15 A3004 970 83 1600 000/00 RMK AO2 SLP168 T01780150 56014 TSNO
94908KDBQ DBQ20030719205512607/19/03 20:55:31  5-MIN KDBQ 200255Z AUTO 00000KT 10SM CLR 18/15 A3003 970 83 1600 000/00 RMK AO2 SLP167 T01780150 53000 TSNO
94908KDBQ DBQ20030719210010307/19/03 21:00:31  5-MIN KDBQ 200300Z AUTO 17004KT 10SM CLR 18/15 A3003 980 83 1600 160/04 RMK AO2 TSNO
94908KDBQ DBQ20030719210510307/19/03 21:05:31  5-MIN KDBQ 200305Z AUTO 18003KT 10SM CLR 17/15 A3003 980 87 1500 180/03 RMK AO2 TSNO
94908KDBQ DBQ20030719211010307/19/03 21:10:31  5-MIN KDBQ 200310Z AUTO 00000KT 10SM CLR 18/15 A3003 970 81 1600 000/00 RMK AO2 TSNO
94908KDBQ DBQ20030719211510307/19/03 21:15:31  5-MIN KDBQ 200315Z AUTO 00000KT 10SM CLR 18/14 A3003 970 81 1600 000/00 RMK AO2 TSNO
94908KDBQ DBQ20030719212010307/19/03 21:20:31  5-MIN KDBQ 200320Z AUTO 17003KT 10SM CLR 18/14 A3003 980 81 1600 170/03 RMK AO2 TSNO
94908KDBQ DBQ20030719212510307/19/03 21:25:31  5-MIN KDBQ 200325Z AUTO 18004KT 10SM CLR 17/14 A3003 980 83 1500 180/04 RMK AO2 TSNO
94908KDBQ DBQ20030719213010307/19/03 21:30:31  5-MIN KDBQ 200330Z AUTO 20003KT 10SM CLR 18/14 A3003 980 81 1600 200/03 RMK AO2 TSNO
94908KDBQ DBQ20030719213510307/19/03 21:35:31  5-MIN KDBQ 200335Z AUTO 20004KT 10SM CLR 18/14 A3002 980 81 1600 200/04 RMK AO2 TSNO
94908KDBQ DBQ20030719214010307/19/03 21:40:31  5-MIN KDBQ 200340Z AUTO 20005KT 10SM CLR 17/14 A3002 980 83 1500 200/05 RMK AO2 TSNO
94908KDBQ DBQ20030719214510307/19/03 21:45:31  5-MIN KDBQ 200345Z AUTO 20005KT 10SM CLR 17/14 A3002 980 86 1400 200/05 RMK AO2 TSNO
94908KDBQ DBQ20030719215012007/19/03 21:50:31  5-MIN KDBQ 200350Z AUTO 20005KT 10SM CLR 17/15 A3002 990 90 1500 200/05 RMK AO2 SLP162 T01670150 TSNO
94908KDBQ DBQ20030719215512007/19/03 21:55:31  5-MIN KDBQ 200355Z AUTO 20005KT 10SM CLR 16/15 A3001 990 93 1400 190/05 RMK AO2 SLP160 T01610150 TSNO
94908KDBQ DBQ20030719220010407/19/03 22:00:31  5-MIN KDBQ 200400Z AUTO 20005KT 10SM CLR 17/14 A3001 1000 86 1500 200/05 RMK AO2 TSNO
94908KDBQ DBQ20030719220510407/19/03 22:05:31  5-MIN KDBQ 200405Z AUTO 20006KT 10SM CLR 17/14 A3001 1000 83 1500 200/06 RMK AO2 TSNO
94908KDBQ DBQ20030719221010407/19/03 22:10:31  5-MIN KDBQ 200410Z AUTO 21005KT 10SM CLR 16/14 A3001 1000 90 1400 210/05 RMK AO2 TSNO
94908KDBQ DBQ20030719221510407/19/03 22:15:31  5-MIN KDBQ 200415Z AUTO 20006KT 10SM CLR 16/14 A3000 1000 90 1400 200/06 RMK AO2 TSNO
94908KDBQ DBQ20030719222010407/19/03 22:20:31  5-MIN KDBQ 200420Z AUTO 20005KT 10SM CLR 17/14 A3000 1000 86 1500 200/05 RMK AO2 TSNO
94908KDBQ DBQ20030719222510407/19/03 22:25:31  5-MIN KDBQ 200425Z AUTO 20005KT 10SM CLR 16/14 A3000 1010 86 1400 200/05 RMK AO2 TSNO
94908KDBQ DBQ20030719223010407/19/03 22:30:31  5-MIN KDBQ 200430Z AUTO 21006KT 10SM CLR 17/14 A3000 1000 83 1500 210/06 RMK AO2 TSNO
94908KDBQ DBQ20030719223510407/19/03 22:35:31  5-MIN KDBQ 200435Z AUTO 22005KT 10SM CLR 16/14 A3001 1000 90 1400 220/05 RMK AO2 TSNO
94908KDBQ DBQ20030719224010407/19/03 22:40:31  5-MIN KDBQ 200440Z AUTO 21005KT 10SM CLR 16/14 A3000 1000 90 1400 210/05 RMK AO2 TSNO
94908KDBQ DBQ20030719224510407/19/03 22:45:31  5-MIN KDBQ 200445Z AUTO 21005KT 10SM CLR 17/14 A3000 1010 86 1500 210/05 RMK AO2 TSNO
94908KDBQ DBQ20030719225012107/19/03 22:50:31  5-MIN KDBQ 200450Z AUTO 21006KT 10SM CLR 17/14 A3000 1010 83 1500 200/06 RMK AO2 SLP153 T01720144 TSNO
94908KDBQ DBQ20030719225512107/19/03 22:55:31  5-MIN KDBQ 200455Z AUTO 20006KT 10SM CLR 17/15 A2999 1010 87 1500 200/06 RMK AO2 SLP151 T01720150 TSNO
94908KDBQ DBQ20030719230010407/19/03 23:00:31  5-MIN KDBQ 200500Z AUTO 20008KT 10SM CLR 17/15 A2998 1020 87 1600 200/08 RMK AO2 TSNO
94908KDBQ DBQ20030719230511107/19/03 23:05:31  5-MIN KDBQ 200505Z AUTO 19010KT 10SM CLR 18/15 A2997 1030 81 1700 190/10 RMK AO2 PRESFR TSNO
94908KDBQ DBQ20030719231010407/19/03 23:10:31  5-MIN KDBQ 200510Z AUTO 19011KT 10SM CLR 18/15 A2997 1030 81 1700 190/11 RMK AO2 TSNO
94908KDBQ DBQ20030719231510407/19/03 23:15:31  5-MIN KDBQ 200515Z AUTO 20010KT 10SM CLR 18/15 A2997 1030 81 1700 190/10 RMK AO2 TSNO
94908KDBQ DBQ20030719232010407/19/03 23:20:31  5-MIN KDBQ 200520Z AUTO 19009KT 10SM CLR 18/15 A2996 1040 81 1700 190/09 RMK AO2 TSNO
94908KDBQ DBQ20030719232510407/19/03 23:25:31  5-MIN KDBQ 200525Z AUTO 20007KT 10SM CLR 18/15 A2997 1030 81 1700 200/07 RMK AO2 TSNO
94908KDBQ DBQ20030719233010407/19/03 23:30:31  5-MIN KDBQ 200530Z AUTO 22006KT 10SM CLR 18/15 A2998 1020 81 1700 220/06 RMK AO2 TSNO
94908KDBQ DBQ20030719233510407/19/03 23:35:31  5-MIN KDBQ 200535Z AUTO 21005KT 10SM CLR 18/15 A2998 1030 83 1600 210/05 RMK AO2 TSNO
94908KDBQ DBQ20030719234010407/19/03 23:40:31  5-MIN KDBQ 200540Z AUTO 20008KT 10SM CLR 18/15 A2997 1030 83 1600 200/08 RMK AO2 TSNO
94908KDBQ DBQ20030719234510407/19/03 23:45:31  5-MIN KDBQ 200545Z AUTO 20008KT 10SM CLR 18/15 A2997 1030 83 1600 200/08 RMK AO2 TSNO
94908KDBQ DBQ20030719235014907/19/03 23:50:31  5-MIN KDBQ 200550Z AUTO 21006KT 10SM CLR 18/15 A2998 1020 83 1600 210/06 RMK AO2 SLP148 T01780150 10250 20161 402670100 53000 TSNO
94908KDBQ DBQ20030719235514907/19/03 23:55:31  5-MIN KDBQ 200555Z AUTO 23004KT 10SM CLR 18/14 A2999 1010 81 1600 230/04 RMK AO2 SLP151 T01780144 10250 20161 402670100 56015 TSNO
94908KDBQ DBQ20030720000010407/20/03 00:00:31  5-MIN KDBQ 200600Z AUTO 21003KT 10SM CLR 17/14 A2999 1010 83 1500 210/03 RMK AO2 TSNO
94908KDBQ DBQ20030720000510407/20/03 00:05:31  5-MIN KDBQ 200605Z AUTO 20004KT 10SM CLR 17/14 A2999 1010 83 1500 200/04 RMK AO2 TSNO
94908KDBQ DBQ20030720001010407/20/03 00:10:31  5-MIN KDBQ 200610Z AUTO 21004KT 10SM CLR 17/14 A2999 1010 83 1500 200/04 RMK AO2 TSNO
94908KDBQ DBQ20030720001510407/20/03 00:15:31  5-MIN KDBQ 200615Z AUTO 22003KT 10SM CLR 17/14 A2999 1010 83 1500 220/03 RMK AO2 TSNO
94908KDBQ DBQ20030720002010407/20/03 00:20:31  5-MIN KDBQ 200620Z AUTO 22003KT 10SM CLR 17/14 A2999 1020 83 1600 220/03 RMK AO2 TSNO
94908KDBQ DBQ20030720002510407/20/03 00:25:31  5-MIN KDBQ 200625Z AUTO 21004KT 10SM CLR 17/14 A2999 1010 83 1500 210/04 RMK AO2 TSNO
94908KDBQ DBQ20030720003010407/20/03 00:30:31  5-MIN KDBQ 200630Z AUTO 00000KT 10SM CLR 17/14 A3000 1000 83 1500 000/00 RMK AO2 TSNO
94908KDBQ DBQ20030720003510407/20/03 00:35:31  5-MIN KDBQ 200635Z AUTO 00000KT 10SM CLR 17/14 A3000 1010 83 1500 000/00 RMK AO2 TSNO
94908KDBQ DBQ20030720004010407/20/03 00:40:31  5-MIN KDBQ 200640Z AUTO 00000KT 10SM CLR 17/14 A2999 1010 83 1500 000/00 RMK AO2 TSNO
94908KDBQ DBQ20030720004510407/20/03 00:45:31  5-MIN KDBQ 200645Z AUTO 21003KT 10SM CLR 17/14 A2999 1010 83 1500 210/03 RMK AO2 TSNO
94908KDBQ DBQ20030720005012107/20/03 00:50:31  5-MIN KDBQ 200650Z AUTO 21004KT 10SM CLR 16/14 A2999 1020 90 1400 210/04 RMK AO2 SLP150 T01610144 TSNO
94908KDBQ DBQ20030720005512107/20/03 00:55:31  5-MIN KDBQ 200655Z AUTO 22004KT 10SM CLR 16/14 A2999 1020 90 1400 220/04 RMK AO2 SLP150 T01610144 TSNO
94908KDBQ DBQ20030720010010407/20/03 01:00:31  5-MIN KDBQ 200700Z AUTO 21003KT 10SM CLR 17/14 A2999 1020 86 1500 200/03 RMK AO2 TSNO
94908KDBQ DBQ20030720010510407/20/03 01:05:31  5-MIN KDBQ 200705Z AUTO 00000KT 10SM CLR 17/14 A2999 1010 86 1500 000/00 RMK AO2 TSNO
94908KDBQ DBQ20030720011010407/20/03 01:10:31  5-MIN KDBQ 200710Z AUTO 19003KT 10SM CLR 17/14 A2999 1010 86 1500 190/03 RMK AO2 TSNO
94908KDBQ DBQ20030720011510407/20/03 01:15:31  5-MIN KDBQ 200715Z AUTO 21003KT 10SM CLR 17/14 A2999 1010 86 1500 200/03 RMK AO2 TSNO
94908KDBQ DBQ20030720012010707/20/03 01:20:31  5-MIN KDBQ 200720Z AUTO 00000KT 10SM FEW019 17/14 A2999 1010 83 1600 000/00 RMK AO2 TSNO
94908KDBQ DBQ20030720012510707/20/03 01:25:31  5-MIN KDBQ 200725Z AUTO 17004KT 10SM SCT019 17/14 A2999 1020 86 1500 170/04 RMK AO2 TSNO
94908KDBQ DBQ20030720013010707/20/03 01:30:31  5-MIN KDBQ 200730Z AUTO 19004KT 10SM SCT019 16/14 A2999 1020 90 1400 190/04 RMK AO2 TSNO
94908KDBQ DBQ20030720013510707/20/03 01:35:31  5-MIN KDBQ 200735Z AUTO 19004KT 10SM BKN021 17/14 A2998 1020 86 1500 190/04 RMK AO2 TSNO
94908KDBQ DBQ20030720014010707/20/03 01:40:31  5-MIN KDBQ 200740Z AUTO 19004KT 10SM BKN019 17/15 A2998 1020 90 1500 190/04 RMK AO2 TSNO
94908KDBQ DBQ20030720014510707/20/03 01:45:31  5-MIN KDBQ 200745Z AUTO 19004KT 10SM BKN019 17/15 A2998 1020 90 1500 190/04 RMK AO2 TSNO
94908KDBQ DBQ20030720015012407/20/03 01:50:31  5-MIN KDBQ 200750Z AUTO 21005KT 10SM BKN019 17/15 A2998 1020 90 1500 200/05 RMK AO2 SLP147 T01670150 TSNO
94908KDBQ DBQ20030720015513107/20/03 01:55:31  5-MIN KDBQ 200755Z AUTO 20005KT 10SM BKN019 BKN025 17/15 A2998 1020 87 1600 200/05 RMK AO2 SLP146 T01720150 TSNO
94908KDBQ DBQ20030720020011407/20/03 02:00:31  5-MIN KDBQ 200800Z AUTO 21004KT 10SM BKN019 BKN027 17/15 A2998 1020 90 1500 210/04 RMK AO2 TSNO
94908KDBQ DBQ20030720020511407/20/03 02:05:31  5-MIN KDBQ 200805Z AUTO 21003KT 10SM SCT019 BKN027 17/15 A2998 1020 90 1500 210/03 RMK AO2 TSNO
94908KDBQ DBQ20030720021011407/20/03 02:10:31  5-MIN KDBQ 200810Z AUTO 20003KT 10SM FEW019 BKN027 17/15 A2998 1030 87 1600 200/03 RMK AO2 TSNO
94908KDBQ DBQ20030720021511407/20/03 02:15:31  5-MIN KDBQ 200815Z AUTO 22004KT 10SM FEW019 OVC027 17/15 A2998 1030 87 1600 220/04 RMK AO2 TSNO
94908KDBQ DBQ20030720022011407/20/03 02:20:31  5-MIN KDBQ 200820Z AUTO 22006KT 10SM FEW019 OVC027 17/15 A2998 1030 87 1600 220/06 RMK AO2 TSNO
94908KDBQ DBQ20030720022510707/20/03 02:25:31  5-MIN KDBQ 200825Z AUTO 21006KT 10SM OVC027 17/15 A2997 1030 87 1600 210/06 RMK AO2 TSNO
94908KDBQ DBQ20030720023010707/20/03 02:30:31  5-MIN KDBQ 200830Z AUTO 22006KT 10SM BKN027 17/15 A2997 1030 87 1600 220/06 RMK AO2 TSNO
94908KDBQ DBQ20030720023510707/20/03 02:35:31  5-MIN KDBQ 200835Z AUTO 21005KT 10SM BKN027 17/15 A2997 1030 87 1600 210/05 RMK AO2 TSNO
94908KDBQ DBQ20030720024010707/20/03 02:40:31  5-MIN KDBQ 200840Z AUTO 21006KT 10SM SCT027 17/15 A2997 1040 87 1600 210/06 RMK AO2 TSNO
94908KDBQ DBQ20030720024510707/20/03 02:45:31  5-MIN KDBQ 200845Z AUTO 21005KT 10SM SCT027 17/15 A2997 1030 87 1600 210/05 RMK AO2 TSNO
94908KDBQ DBQ20030720025013007/20/03 02:50:31  5-MIN KDBQ 200850Z AUTO 20005KT 10SM SCT029 17/15 A2996 1040 87 1600 200/05 RMK AO2 SLP141 T01720150 56015 TSNO
94908KDBQ DBQ20030720025513007/20/03 02:55:31  5-MIN KDBQ 200855Z AUTO 20006KT 10SM SCT029 18/16 A2996 1040 87 1600 190/06 RMK AO2 SLP140 T01780156 58009 TSNO
94908KDBQ DBQ20030720030010707/20/03 03:00:31  5-MIN KDBQ 200900Z AUTO 19005KT 10SM BKN029 18/16 A2996 1040 87 1600 190/05 RMK AO2 TSNO
94908KDBQ DBQ20030720030510707/20/03 03:05:31  5-MIN KDBQ 200905Z AUTO 19005KT 10SM BKN029 18/16 A2996 1040 87 1600 190/05 RMK AO2 TSNO
94908KDBQ DBQ20030720031010707/20/03 03:10:31  5-MIN KDBQ 200910Z AUTO 18004KT 10SM BKN029 18/16 A2996 1050 87 1700 180/04 RMK AO2 TSNO
94908KDBQ DBQ20030720031510707/20/03 03:15:31  5-MIN KDBQ 200915Z AUTO 19005KT 10SM OVC029 18/16 A2996 1050 87 1700 190/05 RMK AO2 TSNO
94908KDBQ DBQ20030720032010707/20/03 03:20:31  5-MIN KDBQ 200920Z AUTO 19004KT 10SM OVC029 18/16 A2996 1040 87 1700 190/04 RMK AO2 TSNO
94908KDBQ DBQ20030720032510707/20/03 03:25:31  5-MIN KDBQ 200925Z AUTO 20005KT 10SM OVC029 18/16 A2996 1050 84 1700 200/05 RMK AO2 TSNO
94908KDBQ DBQ20030720033010707/20/03 03:30:31  5-MIN KDBQ 200930Z AUTO 19005KT 10SM OVC029 18/16 A2995 1050 87 1700 190/05 RMK AO2 TSNO
94908KDBQ DBQ20030720033510707/20/03 03:35:31  5-MIN KDBQ 200935Z AUTO 20005KT 10SM BKN029 18/16 A2995 1050 90 1700 190/05 RMK AO2 TSNO
94908KDBQ DBQ20030720034010707/20/03 03:40:31  5-MIN KDBQ 200940Z AUTO 19005KT 10SM BKN027 18/16 A2995 1050 90 1700 190/05 RMK AO2 TSNO
94908KDBQ DBQ20030720034510707/20/03 03:45:31  5-MIN KDBQ 200945Z AUTO 19005KT 10SM BKN027 18/16 A2995 1050 90 1700 190/05 RMK AO2 TSNO
94908KDBQ DBQ20030720035012407/20/03 03:50:31  5-MIN KDBQ 200950Z AUTO 20005KT 10SM BKN027 18/16 A2995 1050 90 1700 200/05 RMK AO2 SLP136 T01780161 TSNO
94908KDBQ DBQ20030720035512407/20/03 03:55:31  5-MIN KDBQ 200955Z AUTO 20005KT 10SM BKN027 18/16 A2995 1050 87 1700 200/05 RMK AO2 SLP136 T01830161 TSNO
94908KDBQ DBQ20030720040010707/20/03 04:00:31  5-MIN KDBQ 201000Z AUTO 19005KT 10SM BKN027 18/16 A2995 1050 87 1700 190/05 RMK AO2 TSNO
94908KDBQ DBQ20030720040511407/20/03 04:05:31  5-MIN KDBQ 201005Z AUTO 19005KT 10SM BKN027 BKN032 18/16 A2994 1060 90 1700 190/05 RMK AO2 TSNO
94908KDBQ DBQ20030720041011407/20/03 04:10:31  5-MIN KDBQ 201010Z AUTO 20005KT 10SM BKN027 BKN032 18/16 A2994 1060 90 1700 190/05 RMK AO2 TSNO
94908KDBQ DBQ20030720041510707/20/03 04:15:31  5-MIN KDBQ 201015Z AUTO 19005KT 10SM BKN027 18/16 A2994 1060 90 1700 190/05 RMK AO2 TSNO
94908KDBQ DBQ20030720042010707/20/03 04:20:31  5-MIN KDBQ 201020Z AUTO 19004KT 10SM SCT027 18/16 A2994 1060 90 1700 190/04 RMK AO2 TSNO
94908KDBQ DBQ20030720042510707/20/03 04:25:31  5-MIN KDBQ 201025Z AUTO 20005KT 10SM SCT027 18/16 A2994 1060 90 1700 200/05 RMK AO2 TSNO
94908KDBQ DBQ20030720043010607/20/03 04:30:31  5-MIN KDBQ 201030Z AUTO 20005KT 9SM FEW025 18/16 A2994 1060 90 1700 200/05 RMK AO2 TSNO
94908KDBQ DBQ20030720043510607/20/03 04:35:31  5-MIN KDBQ 201035Z AUTO 19005KT 9SM FEW030 18/16 A2994 1060 90 1700 190/05 RMK AO2 TSNO
94908KDBQ DBQ20030720044010607/20/03 04:40:31  5-MIN KDBQ 201040Z AUTO 19006KT 8SM FEW030 18/16 A2993 1070 90 1700 190/06 RMK AO2 TSNO
94908KDBQ DBQ20030720044510607/20/03 04:45:31  5-MIN KDBQ 201045Z AUTO 19007KT 7SM FEW030 18/16 A2993 1070 90 1700 190/07 RMK AO2 TSNO
94908KDBQ DBQ20030720045011807/20/03 04:50:31  5-MIN KDBQ 201050Z 20008KT 7SM FEW030 18/17 A2993 1070 93 1700 200/08 RMK AO2 SLP130 T01780167 TSNO
94908KDBQ DBQ20030720045511007/20/03 04:55:31  5-MIN KDBQ 201055Z 20008KT 7SM CLR 18/17 A2993 1070 93 1700 200/08 RMK AO2 SLP128 T01780167
94908KDBQ DBQ20030720050009307/20/03 05:00:31  5-MIN KDBQ 201100Z 21009KT 7SM CLR 18/17 A2993 1070 93 1700 210/09 RMK AO2
94908KDBQ DBQ20030720050509307/20/03 05:05:31  5-MIN KDBQ 201105Z 21008KT 7SM CLR 18/17 A2993 1070 93 1700 210/08 RMK AO2
94908KDBQ DBQ20030720051009307/20/03 05:10:31  5-MIN KDBQ 201110Z 22009KT 7SM CLR 18/17 A2993 1070 93 1700 210/09 RMK AO2
94908KDBQ DBQ20030720051509607/20/03 05:15:31  5-MIN KDBQ 201115Z 22008KT 6SM BR CLR 18/17 A2994 1060 90 1700 220/08 RMK AO2
94908KDBQ DBQ20030720052009607/20/03 05:20:31  5-MIN KDBQ 201120Z 23008KT 6SM BR CLR 18/17 A2994 1060 90 1700 220/08 RMK AO2
94908KDBQ DBQ20030720052509607/20/03 05:25:31  5-MIN KDBQ 201125Z 22008KT 6SM BR CLR 18/17 A2994 1060 93 1700 220/08 RMK AO2
94908KDBQ DBQ20030720053009607/20/03 05:30:31  5-MIN KDBQ 201130Z 23007KT 6SM BR CLR 18/17 A2994 1060 93 1700 230/07 RMK AO2
94908KDBQ DBQ20030720053509607/20/03 05:35:31  5-MIN KDBQ 201135Z 22007KT 5SM BR CLR 18/17 A2993 1070 96 1700 210/07 RMK AO2
94908KDBQ DBQ20030720054009607/20/03 05:40:31  5-MIN KDBQ 201140Z 21008KT 5SM BR CLR 18/17 A2993 1070 93 1700 210/08 RMK AO2
94908KDBQ DBQ20030720054509607/20/03 05:45:31  5-MIN KDBQ 201145Z 22008KT 5SM BR CLR 18/17 A2993 1070 93 1700 220/08 RMK AO2
94908KDBQ DBQ20030720055013107/20/03 05:50:31  5-MIN KDBQ 201150Z 22008KT 5SM BR CLR 18/17 A2993 1070 93 1700 220/08 RMK AO2 SLP130 T01830172 10183 20161 58009
94908KDBQ DBQ20030720055513107/20/03 05:55:31  5-MIN KDBQ 201155Z 22008KT 5SM BR CLR 18/18 A2993 1070 96 1700 220/08 RMK AO2 SLP130 T01830178 10183 20161 55010
94908KDBQ DBQ20030720060009607/20/03 06:00:31  5-MIN KDBQ 201200Z 22008KT 5SM BR CLR 19/18 A2993 1070 93 1800 220/08 RMK AO2
94908KDBQ DBQ20030720060509607/20/03 06:05:31  5-MIN KDBQ 201205Z 22008KT 4SM BR CLR 19/18 A2993 1070 93 1800 220/08 RMK AO2
94908KDBQ DBQ20030720061009607/20/03 06:10:31  5-MIN KDBQ 201210Z 22008KT 4SM BR CLR 19/18 A2993 1070 93 1900 220/08 RMK AO2
94908KDBQ DBQ20030720061509607/20/03 06:15:31  5-MIN KDBQ 201215Z 23010KT 4SM BR CLR 20/19 A2993 1070 93 1900 230/10 RMK AO2
94908KDBQ DBQ20030720062009607/20/03 06:20:31  5-MIN KDBQ 201220Z 23011KT 4SM BR CLR 21/19 A2992 1080 93 2000 220/11 RMK AO2
94908KDBQ DBQ20030720062509607/20/03 06:25:31  5-MIN KDBQ 201225Z 23011KT 4SM BR CLR 21/19 A2993 1070 93 2000 230/11 RMK AO2
94908KDBQ DBQ20030720063009607/20/03 06:30:31  5-MIN KDBQ 201230Z 23013KT 4SM BR CLR 21/19 A2993 1070 90 2100 220/13 RMK AO2
94908KDBQ DBQ20030720063509607/20/03 06:35:31  5-MIN KDBQ 201235Z 23010KT 4SM BR CLR 21/19 A2993 1070 90 2100 230/10 RMK AO2
94908KDBQ DBQ20030720064009607/20/03 06:40:31  5-MIN KDBQ 201240Z 23013KT 5SM BR CLR 21/19 A2993 1070 90 2100 230/13 RMK AO2
94908KDBQ DBQ20030720064509607/20/03 06:45:31  5-MIN KDBQ 201245Z 23012KT 5SM BR CLR 22/19 A2993 1070 87 2100 230/12 RMK AO2
94908KDBQ DBQ20030720065011607/20/03 06:50:31  5-MIN KDBQ 201250Z 23011KT 5SM BR FEW022 22/20 A2993 1070 90 2100 230/11 RMK AO2 SLP130 T02170200
94908KDBQ DBQ20030720065511607/20/03 06:55:31  5-MIN KDBQ 201255Z 23013KT 5SM BR SCT022 22/20 A2993 1070 90 2100 230/13 RMK AO2 SLP130 T02170200
94908KDBQ DBQ20030720070009907/20/03 07:00:31  5-MIN KDBQ 201300Z 23013KT 5SM BR BKN022 22/20 A2993 1070 90 2100 230/13 RMK AO2
94908KDBQ DBQ20030720070509907/20/03 07:05:31  5-MIN KDBQ 201305Z 24011KT 5SM BR BKN022 22/20 A2993 1060 90 2100 240/11 RMK AO2
94908KDBQ DBQ20030720071009907/20/03 07:10:31  5-MIN KDBQ 201310Z 23012KT 6SM BR BKN022 22/20 A2994 1060 87 2200 230/12 RMK AO2
94908KDBQ DBQ20030720071509907/20/03 07:15:31  5-MIN KDBQ 201315Z 24011KT 6SM BR OVC022 22/20 A2994 1060 87 2200 240/11 RMK AO2
94908KDBQ DBQ20030720072009907/20/03 07:20:31  5-MIN KDBQ 201320Z 23011KT 6SM BR OVC022 22/20 A2994 1060 87 2200 230/11 RMK AO2
94908KDBQ DBQ20030720072509907/20/03 07:25:31  5-MIN KDBQ 201325Z 23011KT 6SM BR OVC024 22/20 A2993 1070 87 2200 230/11 RMK AO2
94908KDBQ DBQ20030720073009907/20/03 07:30:31  5-MIN KDBQ 201330Z 23009KT 6SM BR OVC024 22/21 A2994 1060 90 2200 220/09 RMK AO2
94908KDBQ DBQ20030720073509907/20/03 07:35:31  5-MIN KDBQ 201335Z 24010KT 6SM BR OVC024 23/21 A2994 1060 87 2200 240/10 RMK AO2
94908KDBQ DBQ20030720074009907/20/03 07:40:31  5-MIN KDBQ 201340Z 24011KT 6SM BR OVC024 23/21 A2994 1060 87 2200 240/11 RMK AO2
94908KDBQ DBQ20030720074509907/20/03 07:45:31  5-MIN KDBQ 201345Z 24013KT 5SM BR OVC024 23/21 A2994 1060 87 2200 240/13 RMK AO2
94908KDBQ DBQ20030720075011607/20/03 07:50:31  5-MIN KDBQ 201350Z 24010KT 5SM HZ OVC024 23/20 A2994 1060 84 2200 240/10 RMK AO2 SLP133 T02280200
94908KDBQ DBQ20030720075511607/20/03 07:55:31  5-MIN KDBQ 201355Z 24010KT 5SM BR OVC024 23/21 A2994 1060 87 2200 240/10 RMK AO2 SLP133 T02280206
94908KDBQ DBQ20030720080009907/20/03 08:00:31  5-MIN KDBQ 201400Z 25009KT 5SM BR OVC024 23/21 A2994 1060 87 2200 240/09 RMK AO2
94908KDBQ DBQ20030720080510607/20/03 08:05:31  5-MIN KDBQ 201405Z 25008KT 5SM BR BKN024 OVC032 23/21 A2995 1060 87 2200 250/08 RMK AO2
94908KDBQ DBQ20030720081010607/20/03 08:10:31  5-MIN KDBQ 201410Z 26010KT 5SM HZ BKN024 OVC032 23/21 A2995 1050 84 2300 250/10 RMK AO2
94908KDBQ DBQ20030720081511307/20/03 08:15:31  5-MIN KDBQ 201415Z 26009KT 5SM HZ BKN024 OVC032 23/21 A2996 1040 84 2300 250/09 RMK AO2 PRESRR
94908KDBQ DBQ20030720082010607/20/03 08:20:31  5-MIN KDBQ 201420Z 26011KT 5SM HZ BKN026 OVC033 23/21 A2997 1040 84 2300 260/11 RMK AO2
94908KDBQ DBQ20030720082511307/20/03 08:25:31  5-MIN KDBQ 201425Z 27011KT 5SM HZ BKN026 OVC033 23/21 A2997 1030 84 2300 270/11 RMK AO2 PRESRR
94908KDBQ DBQ20030720083010607/20/03 08:30:31  5-MIN KDBQ 201430Z 27011KT 5SM BR BKN026 OVC033 23/21 A2998 1030 87 2200 270/11 RMK AO2
94908KDBQ DBQ20030720083510607/20/03 08:35:31  5-MIN KDBQ 201435Z 27010KT 5SM HZ FEW012 OVC026 23/21 A2997 1030 84 2300 270/10 RMK AO2
94908KDBQ DBQ20030720084010607/20/03 08:40:31  5-MIN KDBQ 201440Z 27010KT 5SM HZ BKN026 OVC035 23/21 A2997 1030 84 2300 270/10 RMK AO2
94908KDBQ DBQ20030720084510607/20/03 08:45:31  5-MIN KDBQ 201445Z 27009KT 5SM BR FEW013 OVC026 23/21 A2997 1030 87 2300 270/09 RMK AO2
94908KDBQ DBQ20030720085013607/20/03 08:50:31  5-MIN KDBQ 201450Z 26010KT 5SM BR FEW013 BKN024 OVC032 23/21 A2997 1030 87 2300 260/10 RMK AO2 SLP143 T02330211 55010
94908KDBQ DBQ20030720085513607/20/03 08:55:31  5-MIN KDBQ 201455Z 26010KT 5SM HZ FEW013 BKN024 BKN032 24/21 A2996 1040 84 2300 260/10 RMK AO2 SLP142 T02390211 53011
94908KDBQ DBQ20030720090011307/20/03 09:00:31  5-MIN KDBQ 201500Z 25011KT 5SM HZ FEW015 BKN024 BKN032 24/21 A2996 1040 84 2300 250/11 RMK AO2
94908KDBQ DBQ20030720090510607/20/03 09:05:31  5-MIN KDBQ 201505Z 25009KT 5SM HZ FEW015 SCT024 24/21 A2995 1050 84 2400 250/09 RMK AO2
94908KDBQ DBQ20030720091009907/20/03 09:10:31  5-MIN KDBQ 201510Z 26013KT 5SM HZ FEW015 24/21 A2995 1050 81 2400 260/13 RMK AO2
94908KDBQ DBQ20030720091509907/20/03 09:15:31  5-MIN KDBQ 201515Z 25010KT 5SM HZ FEW015 24/22 A2995 1050 84 2400 250/10 RMK AO2
94908KDBQ DBQ20030720092009907/20/03 09:20:31  5-MIN KDBQ 201520Z 25013KT 5SM HZ SCT015 24/22 A2995 1050 84 2400 250/13 RMK AO2
94908KDBQ DBQ20030720092509907/20/03 09:25:31  5-MIN KDBQ 201525Z 25015KT 5SM HZ BKN013 24/22 A2995 1060 84 2400 250/15 RMK AO2
94908KDBQ DBQ20030720093009907/20/03 09:30:31  5-MIN KDBQ 201530Z 26013KT 5SM HZ BKN013 24/22 A2994 1060 84 2400 260/13 RMK AO2
94908KDBQ DBQ20030720093509907/20/03 09:35:31  5-MIN KDBQ 201535Z 26013KT 5SM HZ BKN013 25/22 A2994 1060 81 2500 260/13 RMK AO2
94908KDBQ DBQ20030720094009907/20/03 09:40:31  5-MIN KDBQ 201540Z 27012KT 5SM HZ BKN013 25/22 A2994 1060 81 2500 260/12 RMK AO2
94908KDBQ DBQ20030720094509907/20/03 09:45:31  5-MIN KDBQ 201545Z 28012KT 5SM HZ BKN013 25/22 A2994 1060 81 2500 280/12 RMK AO2
94908KDBQ DBQ20030720095011607/20/03 09:50:31  5-MIN KDBQ 201550Z 27013KT 6SM HZ BKN013 26/22 A2994 1060 79 2600 270/13 RMK AO2 SLP134 T02560217
94908KDBQ DBQ20030720095511607/20/03 09:55:31  5-MIN KDBQ 201555Z 27009KT 6SM HZ SCT013 26/22 A2994 1060 81 2600 260/09 RMK AO2 SLP132 T02560222
94908KDBQ DBQ20030720100009907/20/03 10:00:31  5-MIN KDBQ 201600Z 27009KT 6SM HZ SCT013 26/22 A2994 1060 81 2600 270/09 RMK AO2
94908KDBQ DBQ20030720100509907/20/03 10:05:31  5-MIN KDBQ 201605Z 27011KT 6SM HZ FEW013 26/22 A2994 1060 79 2600 270/11 RMK AO2
94908KDBQ DBQ20030720101009907/20/03 10:10:31  5-MIN KDBQ 201610Z 27010KT 6SM HZ FEW013 26/22 A2994 1060 79 2600 270/10 RMK AO2
94908KDBQ DBQ20030720101509907/20/03 10:15:31  5-MIN KDBQ 201615Z 28010KT 6SM HZ FEW013 27/22 A2994 1060 76 2700 280/10 RMK AO2
94908KDBQ DBQ20030720102009607/20/03 10:20:31  5-MIN KDBQ 201620Z 27010KT 6SM HZ CLR 27/22 A2994 1060 76 2700 270/10 RMK AO2
94908KDBQ DBQ20030720102509907/20/03 10:25:31  5-MIN KDBQ 201625Z 28010KT 6SM HZ FEW015 26/22 A2995 1050 79 2600 280/10 RMK AO2
94908KDBQ DBQ20030720103009907/20/03 10:30:31  5-MIN KDBQ 201630Z 28010KT 6SM HZ FEW015 27/22 A2995 1050 76 2700 280/10 RMK AO2
94908KDBQ DBQ20030720103509907/20/03 10:35:31  5-MIN KDBQ 201635Z 28011KT 6SM HZ FEW017 27/22 A2995 1050 76 2700 280/11 RMK AO2
94908KDBQ DBQ20030720104009907/20/03 10:40:31  5-MIN KDBQ 201640Z 27011KT 6SM HZ SCT017 27/22 A2994 1060 76 2700 270/11 RMK AO2
94908KDBQ DBQ20030720104509907/20/03 10:45:31  5-MIN KDBQ 201645Z 27009KT 6SM HZ SCT017 27/22 A2994 1060 76 2700 270/09 RMK AO2
94908KDBQ DBQ20030720105011607/20/03 10:50:31  5-MIN KDBQ 201650Z 27007KT 6SM HZ SCT015 27/22 A2993 1070 76 2700 270/07 RMK AO2 SLP129 T02670222
94908KDBQ DBQ20030720105512307/20/03 10:55:31  5-MIN KDBQ 201655Z 27009KT 6SM HZ SCT015 SCT090 27/22 A2993 1070 76 2700 270/09 RMK AO2 SLP128 T02670222
94908KDBQ DBQ20030720110009907/20/03 11:00:31  5-MIN KDBQ 201700Z 29007KT 6SM HZ SCT017 27/22 A2992 1070 76 2700 290/07 RMK AO2
94908KDBQ DBQ20030720110509907/20/03 11:05:31  5-MIN KDBQ 201705Z 27007KT 6SM HZ SCT017 27/22 A2992 1080 76 2700 270/07 RMK AO2
94908KDBQ DBQ20030720111009907/20/03 11:10:31  5-MIN KDBQ 201710Z 27007KT 6SM HZ SCT017 27/23 A2992 1080 79 2700 270/07 RMK AO2
94908KDBQ DBQ20030720111509907/20/03 11:15:31  5-MIN KDBQ 201715Z 28008KT 6SM HZ SCT017 27/23 A2993 1070 76 2800 280/08 RMK AO2
94908KDBQ DBQ20030720112009907/20/03 11:20:31  5-MIN KDBQ 201720Z 28007KT 6SM HZ SCT017 27/23 A2992 1070 76 2800 280/07 RMK AO2
94908KDBQ DBQ20030720112509907/20/03 11:25:31  5-MIN KDBQ 201725Z 29008KT 6SM HZ SCT017 27/22 A2993 1070 76 2700 290/08 RMK AO2
94908KDBQ DBQ20030720113009907/20/03 11:30:31  5-MIN KDBQ 201730Z 30009KT 6SM HZ SCT017 27/22 A2993 1070 76 2700 300/09 RMK AO2
94908KDBQ DBQ20030720113509907/20/03 11:35:31  5-MIN KDBQ 201735Z 29008KT 6SM HZ SCT017 27/23 A2993 1070 76 2800 290/08 RMK AO2
94908KDBQ DBQ20030720114009607/20/03 11:40:31  5-MIN KDBQ 201740Z 28007KT 7SM SCT017 28/23 A2993 1070 74 2800 280/07 RMK AO2
94908KDBQ DBQ20030720114509607/20/03 11:45:31  5-MIN KDBQ 201745Z 30008KT 7SM SCT017 28/23 A2993 1070 74 2800 300/08 RMK AO2
94908KDBQ DBQ20030720115013107/20/03 11:50:31  5-MIN KDBQ 201750Z 29008KT 7SM BKN019 27/22 A2993 1070 74 2800 290/08 RMK AO2 SLP129 T02720222 10278 20189 53011
94908KDBQ DBQ20030720115513107/20/03 11:55:31  5-MIN KDBQ 201755Z 30009KT 7SM SCT019 28/23 A2993 1070 74 2800 300/09 RMK AO2 SLP130 T02780228 10278 20189 55011
94908KDBQ DBQ20030720120009607/20/03 12:00:31  5-MIN KDBQ 201800Z 29011KT 7SM SCT019 27/22 A2994 1060 74 2700 290/11 RMK AO2
94908KDBQ DBQ20030720120510307/20/03 12:05:31  5-MIN KDBQ 201805Z 29009KT 7SM BKN019 BKN026 27/22 A2993 1070 74 2800 290/09 RMK AO2
94908KDBQ DBQ20030720121009607/20/03 12:10:31  5-MIN KDBQ 201810Z 28009KT 7SM BKN019 27/23 A2993 1070 76 2800 280/09 RMK AO2
94908KDBQ DBQ20030720121509607/20/03 12:15:31  5-MIN KDBQ 201815Z 28010KT 7SM BKN021 28/23 A2993 1070 74 2800 280/10 RMK AO2
94908KDBQ DBQ20030720122009607/20/03 12:20:31  5-MIN KDBQ 201820Z 30011KT 7SM BKN021 28/23 A2993 1070 74 2800 290/11 RMK AO2
94908KDBQ DBQ20030720122509607/20/03 12:25:31  5-MIN KDBQ 201825Z 30010KT 8SM BKN021 28/23 A2993 1070 71 2900 300/10 RMK AO2
94908KDBQ DBQ20030720123009607/20/03 12:30:31  5-MIN KDBQ 201830Z 32009KT 8SM BKN023 28/22 A2993 1070 71 2800 320/09 RMK AO2
94908KDBQ DBQ20030720123509607/20/03 12:35:31  5-MIN KDBQ 201835Z 32009KT 9SM BKN023 29/22 A2992 1080 67 2900 320/09 RMK AO2
94908KDBQ DBQ20030720124009707/20/03 12:40:31  5-MIN KDBQ 201840Z 32008KT 10SM BKN023 29/22 A2992 1070 67 2900 320/08 RMK AO2
94908KDBQ DBQ20030720124509707/20/03 12:45:31  5-MIN KDBQ 201845Z 31013KT 10SM SCT023 29/22 A2992 1080 62 3000 310/13 RMK AO2
94908KDBQ DBQ20030720125011407/20/03 12:50:31  5-MIN KDBQ 201850Z 30009KT 10SM SCT023 28/22 A2992 1080 66 2900 300/09 RMK AO2 SLP126 T02830217
94908KDBQ DBQ20030720125511407/20/03 12:55:31  5-MIN KDBQ 201855Z 31009KT 10SM FEW025 28/22 A2992 1080 69 2800 310/09 RMK AO2 SLP125 T02780217
94908KDBQ DBQ20030720130009707/20/03 13:00:31  5-MIN KDBQ 201900Z 30010KT 10SM FEW025 28/21 A2991 1080 64 2900 300/10 RMK AO2
94908KDBQ DBQ20030720130509707/20/03 13:05:31  5-MIN KDBQ 201905Z 30007KT 10SM FEW027 28/21 A2991 1090 64 2900 300/07 RMK AO2
94908KDBQ DBQ20030720131009707/20/03 13:10:31  5-MIN KDBQ 201910Z 30009KT 10SM FEW027 28/21 A2991 1090 64 2900 300/09 RMK AO2
94908KDBQ DBQ20030720131509707/20/03 13:15:31  5-MIN KDBQ 201915Z 30011KT 10SM FEW027 28/21 A2992 1080 64 2900 300/11 RMK AO2
94908KDBQ DBQ20030720132009707/20/03 13:20:31  5-MIN KDBQ 201920Z 29010KT 10SM FEW027 28/21 A2991 1080 64 2900 290/10 RMK AO2
94908KDBQ DBQ20030720132509707/20/03 13:25:31  5-MIN KDBQ 201925Z 27008KT 10SM FEW027 28/22 A2991 1090 69 2800 270/08 RMK AO2
94908KDBQ DBQ20030720133009707/20/03 13:30:31  5-MIN KDBQ 201930Z 29009KT 10SM FEW027 28/21 A2991 1090 66 2800 290/09 RMK AO2
94908KDBQ DBQ20030720133509707/20/03 13:35:31  5-MIN KDBQ 201935Z 29009KT 10SM FEW027 27/21 A2990 1090 69 2800 280/09 RMK AO2
94908KDBQ DBQ20030720134010407/20/03 13:40:31  5-MIN KDBQ 201940Z 30004KT 10SM FEW027 27/21 A2988 1110 69 2800 300/04 RMK AO2 PRESFR
94908KDBQ DBQ20030720134510407/20/03 13:45:31  5-MIN KDBQ 201945Z 07003KT 10SM FEW027 28/21 A2986 1130 66 2900 070/03 RMK AO2 PRESFR
94908KDBQ DBQ20030720135011107/20/03 13:50:31  5-MIN KDBQ 201950Z 04003KT 10SM CLR 27/21 A2986 1130 69 2800 040/03 RMK AO2 SLP106 T02720211
94908KDBQ DBQ20030720135511107/20/03 13:55:31  5-MIN KDBQ 201955Z 02004KT 10SM CLR 27/21 A2986 1130 66 2800 010/04 RMK AO2 SLP107 T02720206
94908KDBQ DBQ20030720140009407/20/03 14:00:31  5-MIN KDBQ 202000Z 00000KT 10SM CLR 27/21 A2987 1120 66 2800 000/00 RMK AO2
94908KDBQ DBQ20030720140510007/20/03 14:05:31  5-MIN KDBQ 202005Z 28005KT 9SM CLR 27/21 A2989 1110 66 2800 280/05 RMK AO2 PRESRR
94908KDBQ DBQ20030720141010007/20/03 14:10:31  5-MIN KDBQ 202010Z 28006KT 9SM CLR 27/21 A2990 1100 69 2800 270/06 RMK AO2 PRESRR
94908KDBQ DBQ20030720141509307/20/03 14:15:31  5-MIN KDBQ 202015Z 26006KT 9SM CLR 27/21 A2990 1100 71 2700 260/06 RMK AO2
94908KDBQ DBQ20030720142009307/20/03 14:20:31  5-MIN KDBQ 202020Z 25004KT 9SM CLR 27/21 A2989 1110 71 2700 240/04 RMK AO2
94908KDBQ DBQ20030720142509307/20/03 14:25:31  5-MIN KDBQ 202025Z 23004KT 9SM CLR 27/21 A2988 1110 71 2700 230/04 RMK AO2
94908KDBQ DBQ20030720143009307/20/03 14:30:31  5-MIN KDBQ 202030Z 25004KT 9SM CLR 27/22 A2989 1110 73 2700 250/04 RMK AO2
94908KDBQ DBQ20030720143509607/20/03 14:35:31  5-MIN KDBQ 202035Z 25005KT 9SM FEW120 26/22 A2989 1100 76 2700 250/05 RMK AO2
94908KDBQ DBQ20030720144009607/20/03 14:40:31  5-MIN KDBQ 202040Z 26006KT 9SM FEW120 27/22 A2990 1100 76 2700 260/06 RMK AO2
94908KDBQ DBQ20030720144509607/20/03 14:45:31  5-MIN KDBQ 202045Z 24006KT 9SM FEW120 27/22 A2989 1110 76 2700 240/06 RMK AO2
94908KDBQ DBQ20030720145011907/20/03 14:50:31  5-MIN KDBQ 202050Z 24007KT 9SM FEW120 27/22 A2988 1110 74 2800 240/07 RMK AO2 SLP114 T02720222 55011
94908KDBQ DBQ20030720145511907/20/03 14:55:31  5-MIN KDBQ 202055Z 24009KT 9SM FEW120 27/22 A2988 1120 74 2800 240/09 RMK AO2 SLP112 T02720222 55017
94908KDBQ DBQ20030720150009607/20/03 15:00:31  5-MIN KDBQ 202100Z 23009KT 9SM FEW120 27/22 A2987 1120 71 2800 230/09 RMK AO2
94908KDBQ DBQ20030720150509307/20/03 15:05:31  5-MIN KDBQ 202105Z 23009KT 9SM CLR 27/22 A2987 1130 74 2800 220/09 RMK AO2
94908KDBQ DBQ20030720151009307/20/03 15:10:31  5-MIN KDBQ 202110Z 22012KT 9SM CLR 27/22 A2987 1130 71 2800 220/12 RMK AO2
94908KDBQ DBQ20030720151509307/20/03 15:15:31  5-MIN KDBQ 202115Z 23010KT 9SM CLR 27/22 A2986 1130 74 2800 230/10 RMK AO2
94908KDBQ DBQ20030720152009307/20/03 15:20:31  5-MIN KDBQ 202120Z 21011KT 8SM CLR 27/22 A2985 1140 74 2800 210/11 RMK AO2
94908KDBQ DBQ20030720152510007/20/03 15:25:31  5-MIN KDBQ 202125Z 21010KT 8SM CLR 27/22 A2985 1150 74 2900 210/10 RMK AO2 PRESFR
94908KDBQ DBQ20030720153009307/20/03 15:30:31  5-MIN KDBQ 202130Z 20009KT 8SM CLR 27/22 A2984 1150 76 2800 200/09 RMK AO2
94908KDBQ DBQ20030720153509307/20/03 15:35:31  5-MIN KDBQ 202135Z 20008KT 8SM CLR 27/22 A2984 1150 76 2800 200/08 RMK AO2
94908KDBQ DBQ20030720154010007/20/03 15:40:31  5-MIN KDBQ 202140Z 19008KT 8SM CLR 27/22 A2983 1160 76 2800 180/08 RMK AO2 PRESFR
94908KDBQ DBQ20030720154510007/20/03 15:45:31  5-MIN KDBQ 202145Z 17008KT 8SM CLR 27/22 A2982 1170 73 2800 170/08 RMK AO2 PRESFR
94908KDBQ DBQ20030720155011007/20/03 15:50:31  5-MIN KDBQ 202150Z 20005KT 8SM CLR 27/22 A2983 1160 76 2800 200/05 RMK AO2 SLP095 T02670222
94908KDBQ DBQ20030720155511007/20/03 15:55:31  5-MIN KDBQ 202155Z 19005KT 8SM CLR 27/22 A2983 1160 73 2800 190/05 RMK AO2 SLP096 T02670217
94908KDBQ DBQ20030720160009307/20/03 16:00:31  5-MIN KDBQ 202200Z 17005KT 8SM CLR 27/22 A2983 1160 73 2800 170/05 RMK AO2
94908KDBQ DBQ20030720160509307/20/03 16:05:31  5-MIN KDBQ 202205Z 17005KT 8SM CLR 27/22 A2983 1160 76 2800 170/05 RMK AO2
94908KDBQ DBQ20030720161009307/20/03 16:10:31  5-MIN KDBQ 202210Z 19004KT 8SM CLR 27/22 A2983 1160 76 2800 190/04 RMK AO2
94908KDBQ DBQ20030720161509307/20/03 16:15:31  5-MIN KDBQ 202215Z 18005KT 8SM CLR 27/22 A2983 1160 73 2800 180/05 RMK AO2
94908KDBQ DBQ20030720162009307/20/03 16:20:31  5-MIN KDBQ 202220Z 19006KT 8SM CLR 27/22 A2983 1160 73 2800 190/06 RMK AO2
94908KDBQ DBQ20030720162509307/20/03 16:25:31  5-MIN KDBQ 202225Z 19005KT 8SM CLR 27/22 A2983 1160 73 2800 190/05 RMK AO2
94908KDBQ DBQ20030720163009307/20/03 16:30:31  5-MIN KDBQ 202230Z 18005KT 8SM CLR 27/22 A2983 1170 76 2800 180/05 RMK AO2
94908KDBQ DBQ20030720163509307/20/03 16:35:31  5-MIN KDBQ 202235Z 18006KT 8SM CLR 27/22 A2982 1170 73 2800 180/06 RMK AO2
94908KDBQ DBQ20030720164009307/20/03 16:40:31  5-MIN KDBQ 202240Z 16004KT 8SM CLR 27/22 A2982 1180 73 2800 160/04 RMK AO2
94908KDBQ DBQ20030720164509307/20/03 16:45:31  5-MIN KDBQ 202245Z 16005KT 8SM CLR 27/22 A2981 1180 74 2900 160/05 RMK AO2
94908KDBQ DBQ20030720165011007/20/03 16:50:31  5-MIN KDBQ 202250Z 16004KT 8SM CLR 27/22 A2981 1180 73 2800 160/04 RMK AO2 SLP089 T02670217
94908KDBQ DBQ20030720165511007/20/03 16:55:31  5-MIN KDBQ 202255Z 15004KT 9SM CLR 27/22 A2981 1180 71 2900 150/04 RMK AO2 SLP088 T02720217
94908KDBQ DBQ20030720170009307/20/03 17:00:31  5-MIN KDBQ 202300Z 12004KT 9SM CLR 27/22 A2981 1180 71 2900 120/04 RMK AO2
94908KDBQ DBQ20030720170509307/20/03 17:05:31  5-MIN KDBQ 202305Z 00000KT 9SM CLR 27/21 A2981 1180 69 2900 000/00 RMK AO2
94908KDBQ DBQ20030720171009307/20/03 17:10:31  5-MIN KDBQ 202310Z VRB03KT 8SM CLR 27/21 A2981 1180 69 2900 VRB/03 RMK AO2
94908KDBQ DBQ20030720171509307/20/03 17:15:31  5-MIN KDBQ 202315Z 12003KT 9SM CLR 27/21 A2981 1180 66 2900 120/03 RMK AO2
94908KDBQ DBQ20030720172009307/20/03 17:20:31  5-MIN KDBQ 202320Z 00000KT 9SM CLR 27/21 A2981 1180 66 2900 000/00 RMK AO2
94908KDBQ DBQ20030720172509307/20/03 17:25:31  5-MIN KDBQ 202325Z 12003KT 9SM CLR 27/21 A2981 1180 69 2900 120/03 RMK AO2
94908KDBQ DBQ20030720173009307/20/03 17:30:31  5-MIN KDBQ 202330Z 00000KT 9SM CLR 27/21 A2982 1170 66 2900 000/00 RMK AO2
94908KDBQ DBQ20030720173509307/20/03 17:35:31  5-MIN KDBQ 202335Z 00000KT 9SM CLR 27/21 A2982 1170 66 2900 000/00 RMK AO2
94908KDBQ DBQ20030720174009307/20/03 17:40:31  5-MIN KDBQ 202340Z 19003KT 9SM CLR 27/21 A2983 1170 69 2900 190/03 RMK AO2
94908KDBQ DBQ20030720174509607/20/03 17:45:31  5-MIN KDBQ 202345Z 19004KT 9SM FEW100 27/21 A2983 1160 71 2800 190/04 RMK AO2
94908KDBQ DBQ20030720175013107/20/03 17:50:31  5-MIN KDBQ 202350Z 19006KT 9SM FEW110 26/22 A2983 1160 76 2700 190/06 RMK AO2 SLP095 T02610217 10294 20261 55017
94908KDBQ DBQ20030720175513107/20/03 17:55:31  5-MIN KDBQ 202355Z 22006KT 8SM SCT110 26/22 A2984 1160 76 2700 210/06 RMK AO2 SLP098 T02610217 10294 20261 55014
94908KDBQ DBQ20030720180009607/20/03 18:00:31  5-MIN KDBQ 210000Z 21005KT 8SM SCT110 26/22 A2983 1160 76 2700 210/05 RMK AO2
94908KDBQ DBQ20030720180509607/20/03 18:05:31  5-MIN KDBQ 210005Z 20005KT 8SM SCT100 26/22 A2983 1160 76 2700 200/05 RMK AO2
94908KDBQ DBQ20030720181009607/20/03 18:10:31  5-MIN KDBQ 210010Z 20004KT 7SM SCT110 26/22 A2983 1160 81 2700 200/04 RMK AO2
94908KDBQ DBQ20030720181511907/20/03 18:15:31  5-MIN KDBQ 210015Z 21004KT 6SM -RA FEW050 BKN110 26/23 A2983 1160 84 2700 210/04 RMK AO2 RAB12 P0000
94908KDBQ DBQ20030720182011907/20/03 18:20:31  5-MIN KDBQ 210020Z 00000KT 6SM -RA FEW060 BKN100 26/22 A2983 1160 81 2700 000/00 RMK AO2 RAB12 P0000
94908KDBQ DBQ20030720182512807/20/03 18:25:31  5-MIN KDBQ 210025Z AUTO 00000KT 7SM FEW070 BKN100 26/22 A2983 1160 81 2700 000/00 RMK AO2 RAB12E25 P0000 TSNO
94908KDBQ DBQ20030720183012807/20/03 18:30:31  5-MIN KDBQ 210030Z AUTO 00000KT 7SM FEW075 BKN100 26/23 A2983 1170 84 2700 000/00 RMK AO2 RAB12E25 P0000 TSNO
94908KDBQ DBQ20030720183512407/20/03 18:35:31  5-MIN KDBQ 210035Z AUTO 12004KT 6SM BR BKN100 25/23 A2982 1170 90 2600 120/04 RMK AO2 RAB12E25 P0000 TSNO
94908KDBQ DBQ20030720184013107/20/03 18:40:31  5-MIN KDBQ 210040Z AUTO 00000KT 6SM BR FEW090 BKN100 25/23 A2982 1170 87 2600 000/00 RMK AO2 RAB12E25 P0000 TSNO
94908KDBQ DBQ20030720184512407/20/03 18:45:31  5-MIN KDBQ 210045Z AUTO 00000KT 6SM BR BKN100 25/23 A2983 1160 90 2600 000/00 RMK AO2 RAB12E25 P0000 TSNO
94908KDBQ DBQ20030720185014107/20/03 18:50:31  5-MIN KDBQ 210050Z AUTO 00000KT 5SM BR BKN100 25/23 A2983 1160 90 2600 000/00 RMK AO2 RAB12E25 SLP094 P0000 T02500233 TSNO
94908KDBQ DBQ20030720185514107/20/03 18:55:31  5-MIN KDBQ 210055Z AUTO 00000KT 6SM BR BKN110 25/23 A2983 1170 90 2600 000/00 RMK AO2 RAB12E25 SLP093 P0000 T02500233 TSNO
94908KDBQ DBQ20030720190010907/20/03 19:00:31  5-MIN KDBQ 210100Z AUTO 00000KT 6SM BR OVC110 25/23 A2983 1170 87 2600 000/00 RMK AO2 TSNO
94908KDBQ DBQ20030720190510907/20/03 19:05:31  5-MIN KDBQ 210105Z AUTO 00000KT 6SM BR OVC110 26/23 A2983 1170 87 2700 000/00 RMK AO2 TSNO
94908KDBQ DBQ20030720191010907/20/03 19:10:31  5-MIN KDBQ 210110Z AUTO 00000KT 6SM BR OVC110 25/23 A2983 1160 90 2600 000/00 RMK AO2 TSNO
94908KDBQ DBQ20030720191510907/20/03 19:15:31  5-MIN KDBQ 210115Z AUTO 00000KT 5SM BR OVC110 25/23 A2983 1160 90 2600 000/00 RMK AO2 TSNO
94908KDBQ DBQ20030720192010907/20/03 19:20:31  5-MIN KDBQ 210120Z AUTO 00000KT 5SM BR OVC110 25/23 A2983 1160 87 2600 000/00 RMK AO2 TSNO
94908KDBQ DBQ20030720192510907/20/03 19:25:31  5-MIN KDBQ 210125Z AUTO 00000KT 5SM BR OVC110 24/23 A2984 1160 93 2600 000/00 RMK AO2 TSNO
94908KDBQ DBQ20030720193010907/20/03 19:30:31  5-MIN KDBQ 210130Z AUTO 00000KT 5SM BR OVC110 24/23 A2984 1150 90 2500 000/00 RMK AO2 TSNO
94908KDBQ DBQ20030720193510907/20/03 19:35:31  5-MIN KDBQ 210135Z AUTO 00000KT 5SM BR OVC110 24/23 A2984 1150 90 2500 000/00 RMK AO2 TSNO
94908KDBQ DBQ20030720194010907/20/03 19:40:31  5-MIN KDBQ 210140Z AUTO 00000KT 5SM BR BKN110 24/23 A2984 1150 90 2500 000/00 RMK AO2 TSNO
94908KDBQ DBQ20030720194510907/20/03 19:45:31  5-MIN KDBQ 210145Z AUTO 00000KT 6SM BR BKN110 24/23 A2983 1160 90 2600 000/00 RMK AO2 TSNO
94908KDBQ DBQ20030720195012307/20/03 19:50:31  5-MIN KDBQ 210150Z AUTO 00000KT 7SM BKN110 24/23 A2983 1160 90 2600 000/00 RMK AO2 SLP093 T02440228 TSNO
94908KDBQ DBQ20030720195512307/20/03 19:55:31  5-MIN KDBQ 210155Z AUTO 00000KT 7SM BKN110 24/23 A2982 1170 93 2500 000/00 RMK AO2 SLP091 T02390228 TSNO
94908KDBQ DBQ20030720200010907/20/03 20:00:31  5-MIN KDBQ 210200Z AUTO 10003KT 6SM BR BKN110 24/23 A2983 1170 93 2500 100/03 RMK AO2 TSNO
94908KDBQ DBQ20030720200510907/20/03 20:05:31  5-MIN KDBQ 210205Z AUTO 09003KT 6SM BR BKN120 24/23 A2982 1170 93 2500 090/03 RMK AO2 TSNO
94908KDBQ DBQ20030720201010907/20/03 20:10:31  5-MIN KDBQ 210210Z AUTO 09003KT 6SM BR BKN120 24/23 A2981 1180 93 2500 090/03 RMK AO2 TSNO
94908KDBQ DBQ20030720201510907/20/03 20:15:31  5-MIN KDBQ 210215Z AUTO 09004KT 6SM BR BKN120 24/22 A2980 1190 90 2500 090/04 RMK AO2 TSNO
94908KDBQ DBQ20030720202010907/20/03 20:20:31  5-MIN KDBQ 210220Z AUTO 09004KT 6SM BR BKN120 24/22 A2980 1190 90 2500 090/04 RMK AO2 TSNO
94908KDBQ DBQ20030720202510907/20/03 20:25:31  5-MIN KDBQ 210225Z AUTO 10005KT 6SM BR BKN120 24/22 A2979 1190 90 2500 090/05 RMK AO2 TSNO
94908KDBQ DBQ20030720203010907/20/03 20:30:31  5-MIN KDBQ 210230Z AUTO 09005KT 6SM BR BKN120 23/22 A2979 1200 93 2500 090/05 RMK AO2 TSNO
94908KDBQ DBQ20030720203510907/20/03 20:35:31  5-MIN KDBQ 210235Z AUTO 12003KT 6SM BR BKN120 23/22 A2980 1190 93 2500 120/03 RMK AO2 TSNO
94908KDBQ DBQ20030720204010907/20/03 20:40:31  5-MIN KDBQ 210240Z AUTO 12003KT 5SM BR BKN120 23/22 A2980 1190 93 2500 110/03 RMK AO2 TSNO
94908KDBQ DBQ20030720204510907/20/03 20:45:31  5-MIN KDBQ 210245Z AUTO 13004KT 6SM BR OVC120 23/22 A2979 1200 93 2500 130/04 RMK AO2 TSNO
94908KDBQ DBQ20030720205013807/20/03 20:50:31  5-MIN KDBQ 210250Z AUTO 12004KT 6SM BR BKN120 23/22 A2978 1210 93 2500 120/04 RMK AO2 SLP078 60000 T02330222 55014 TSNO
94908KDBQ DBQ20030720205514507/20/03 20:55:31  5-MIN KDBQ 210255Z AUTO 12005KT 6SM BR BKN120 23/22 A2977 1210 93 2500 120/05 RMK AO2 PRESFR SLP075 60000 T02330222 58021 TSNO
94908KDBQ DBQ20030720210010907/20/03 21:00:31  5-MIN KDBQ 210300Z AUTO 14005KT 6SM BR BKN120 23/22 A2979 1200 90 2500 140/05 RMK AO2 TSNO
94908KDBQ DBQ20030720210510607/20/03 21:05:31  5-MIN KDBQ 210305Z AUTO 13005KT 7SM BKN120 24/22 A2979 1200 87 2500 130/05 RMK AO2 TSNO
94908KDBQ DBQ20030720211010607/20/03 21:10:31  5-MIN KDBQ 210310Z AUTO 13004KT 7SM BKN120 24/22 A2980 1190 87 2500 130/04 RMK AO2 TSNO
94908KDBQ DBQ20030720211510607/20/03 21:15:31  5-MIN KDBQ 210315Z AUTO 13006KT 7SM BKN120 24/22 A2979 1200 90 2500 130/06 RMK AO2 TSNO
94908KDBQ DBQ20030720212010907/20/03 21:20:31  5-MIN KDBQ 210320Z AUTO 12005KT 6SM BR BKN120 24/22 A2978 1210 90 2600 120/05 RMK AO2 TSNO
94908KDBQ DBQ20030720212511607/20/03 21:25:31  5-MIN KDBQ 210325Z AUTO 12006KT 6SM BR BKN120 23/22 A2976 1220 93 2500 120/06 RMK AO2 PRESFR TSNO
94908KDBQ DBQ20030720213010907/20/03 21:30:31  5-MIN KDBQ 210330Z AUTO 12004KT 6SM BR SCT120 24/22 A2976 1230 90 2600 120/04 RMK AO2 TSNO
94908KDBQ DBQ20030720213510907/20/03 21:35:31  5-MIN KDBQ 210335Z AUTO 11005KT 6SM BR SCT120 24/22 A2975 1230 90 2600 100/05 RMK AO2 TSNO
94908KDBQ DBQ20030720214011607/20/03 21:40:31  5-MIN KDBQ 210340Z AUTO 10005KT 6SM BR FEW060 23/22 A2975 1240 93 2500 100/05 RMK AO2 PRESFR TSNO
94908KDBQ DBQ20030720214511607/20/03 21:45:31  5-MIN KDBQ 210345Z AUTO 08007KT 6SM BR FEW050 SCT060 23/22 A2975 1240 93 2500 080/07 RMK AO2 TSNO
94908KDBQ DBQ20030720215014007/20/03 21:50:31  5-MIN KDBQ 210350Z AUTO 07008KT 6SM BR SCT050 BKN060 24/22 A2973 1250 90 2600 070/08 RMK AO2 PRESFR SLP060 T02390222 TSNO
94908KDBQ DBQ20030720215514207/20/03 21:55:31  5-MIN KDBQ 210355Z AUTO 04007KT 6SM -RA BR BKN050 24/22 A2973 1260 90 2600 040/07 RMK AO2 RAB54 SLP058 P0000 T02390222 TSNO
94908KDBQ DBQ20030720220012307/20/03 22:00:31  5-MIN KDBQ 210400Z AUTO 06008KT 7SM -RA BKN050 24/22 A2972 1270 90 2600 060/08 RMK AO2 PRESFR P0001 TSNO
94908KDBQ DBQ20030720220511607/20/03 22:05:31  5-MIN KDBQ 210405Z AUTO 04007KT 7SM -RA BKN050 24/22 A2972 1270 90 2600 040/07 RMK AO2 P0001 TSNO
94908KDBQ DBQ20030720221011807/20/03 22:10:31  5-MIN KDBQ 210410Z AUTO 08004KT 7SM OVC050 23/22 A2973 1250 93 2500 070/04 RMK AO2 RAE06 P0001 TSNO
94908KDBQ DBQ20030720221511907/20/03 22:15:31  5-MIN KDBQ 210415Z AUTO 05003KT 6SM -RA BR OVC050 24/22 A2973 1250 90 2600 050/03 RMK AO2 P0001 TSNO
94908KDBQ DBQ20030720222013307/20/03 22:20:31  5-MIN KDBQ 210420Z AUTO 35008KT 6SM -RA BR FEW015 OVC050 23/22 A2976 1220 93 2500 350/08 RMK AO2 PRESRR P0001 TSNO
94908KDBQ DBQ20030720222512507/20/03 22:25:31  5-MIN KDBQ 210425Z AUTO 01009KT 4SM RA BR SCT015 OVC050 23/22 A2976 1230 93 2500 010/09 RMK AO2 P0005 TSNO
94908KDBQ DBQ20030720223013007/20/03 22:30:31  5-MIN KDBQ 210430Z AUTO 34010KT 2 1/2SM +RA BR BKN015 OVC050 23/22 A2977 1220 93 2500 340/10 RMK AO2 P0013 TSNO
94908KDBQ DBQ20030720223514307/20/03 22:35:31  5-MIN KDBQ 210435Z AUTO 31017G24KT 1 1/4SM +RA BR FEW006 BKN015 OVC055 22/22 A2980 1190 97 2300 300/17G24 RMK AO2 P0030 TSNO
94908KDBQ DBQ20030720224015907/20/03 22:40:31  5-MIN KDBQ 210440Z AUTO 25022G32KT 3/4SM +RA BR SCT002 BKN015 OVC055 21/20 A2983 1160 93 2200 250/22G32 RMK AO2 PK WND 24032/0440 P0056 TSNO
94908KDBQ DBQ20030720224517907/20/03 22:45:31  5-MIN KDBQ 210445Z AUTO 22009G32KT 180V240 1/2SM +RA FG SCT002 OVC015 21/19 A2982 1170 90 2100 210/09G32 180V240 RMK AO2 PK WND 24032/0440 WSHFT 0427 P0083 TSNO
94908KDBQ DBQ20030720225018007/20/03 22:50:31  5-MIN KDBQ 210450Z AUTO 15013G31KT 1/2SM +RA FG BKN002 OVC015 20/19 A2978 1210 97 2100 140/13G31 RMK AO2 PK WND 24032/0440 WSHFT 0427 SLP076 P0113 T02000194 TSNO
94908KDBQ DBQ20030720225518007/20/03 22:55:31  5-MIN KDBQ 210455Z AUTO 13015G20KT 3/4SM +RA BR BKN004 OVC015 20/19 A2976 1220 93 2100 130/15G20 RMK AO2 PK WND 24032/0440 WSHFT 0427 SLP072 P0129 T02000189 TSNO
94908KDBQ DBQ20030720230012907/20/03 23:00:31  5-MIN KDBQ 210500Z AUTO 13012G20KT 1 1/4SM +RA BR OVC008 20/18 A2977 1220 90 2100 130/12G20 RMK AO2 P0007 TSNO
94908KDBQ DBQ20030720230514807/20/03 23:05:31  5-MIN KDBQ 210505Z AUTO 12012KT 2 1/2SM +RA BR BKN010 OVC095 20/18 A2975 1240 90 2100 120/12 RMK AO2 WSHFT 0448 PRESFR P0009 TSNO
94908KDBQ DBQ20030720231015007/20/03 23:10:31  5-MIN KDBQ 210510Z AUTO 14009G18KT 5SM -RA BR BKN010 OVC090 21/18 A2974 1250 87 2200 140/09G18 RMK AO2 WSHFT 0448 PRESFR P0010 TSNO
94908KDBQ DBQ20030720231514907/20/03 23:15:31  5-MIN KDBQ 210515Z AUTO 11010KT 10SM -RA SCT010 BKN090 OVC120 20/18 A2972 1260 90 2200 110/10 RMK AO2 WSHFT 0448 PRESFR P0010 TSNO
94908KDBQ DBQ20030720232014907/20/03 23:20:31  5-MIN KDBQ 210520Z AUTO 14009KT 10SM -RA SCT014 BKN090 OVC120 19/18 A2972 1270 93 2100 140/09 RMK AO2 WSHFT 0448 PRESFR P0010 TSNO
94908KDBQ DBQ20030720232514407/20/03 23:25:31  5-MIN KDBQ 210525Z AUTO 14007KT 10SM FEW016 SCT090 BKN120 19/18 A2971 1270 93 2100 140/07 RMK AO2 WSHFT 0448 RAE23 P0010 TSNO
94908KDBQ DBQ20030720233013707/20/03 23:30:31  5-MIN KDBQ 210530Z AUTO VRB04KT 10SM FEW018 BKN120 20/19 A2971 1270 93 2200 VRB/04 RMK AO2 WSHFT 0448 RAE23 P0010 TSNO
94908KDBQ DBQ20030720233513707/20/03 23:35:31  5-MIN KDBQ 210535Z AUTO 10004KT 10SM FEW090 SCT120 20/19 A2970 1280 93 2200 100/04 RMK AO2 WSHFT 0448 RAE23 P0010 TSNO
94908KDBQ DBQ20030720234013007/20/03 23:40:31  5-MIN KDBQ 210540Z AUTO 10005KT 10SM SCT120 20/19 A2971 1280 93 2200 090/05 RMK AO2 WSHFT 0448 RAE23 P0010 TSNO
94908KDBQ DBQ20030720234513007/20/03 23:45:31  5-MIN KDBQ 210545Z AUTO 09004KT 10SM SCT120 20/19 A2972 1270 93 2200 090/04 RMK AO2 WSHFT 0448 RAE23 P0010 TSNO
94908KDBQ DBQ20030720235018107/20/03 23:50:31  5-MIN KDBQ 210550Z AUTO 12003KT 10SM SCT120 20/19 A2972 1260 93 2200 110/03 RMK AO2 WSHFT 0448 RAE23 SLP057 P0010 60139 T02000189 10261 20194 402940161 58021 TSNO
94908KDBQ DBQ20030720235518107/20/03 23:55:31  5-MIN KDBQ 210555Z AUTO 21003KT 10SM BKN110 20/19 A2972 1260 93 2200 210/03 RMK AO2 WSHFT 0448 RAE23 SLP057 P0010 60139 T02000189 10261 20194 402940161 56017 TSNO
94908KDBQ DBQ20030721000010707/21/03 00:00:31  5-MIN KDBQ 210600Z AUTO 18004KT 10SM BKN110 20/18 A2971 1270 90 2200 180/04 RMK AO2 TSNO
94908KDBQ DBQ20030721000510707/21/03 00:05:31  5-MIN KDBQ 210605Z AUTO 00000KT 10SM BKN110 20/19 A2971 1280 93 2200 000/00 RMK AO2 TSNO
94908KDBQ DBQ20030721001010707/21/03 00:10:31  5-MIN KDBQ 210610Z AUTO 00000KT 10SM BKN110 20/18 A2971 1280 90 2200 000/00 RMK AO2 TSNO
94908KDBQ DBQ20030721001510707/21/03 00:15:31  5-MIN KDBQ 210615Z AUTO 22004KT 10SM BKN100 19/18 A2971 1280 93 2100 220/04 RMK AO2 TSNO
94908KDBQ DBQ20030721002010707/21/03 00:20:31  5-MIN KDBQ 210620Z AUTO 20003KT 10SM BKN110 19/18 A2971 1270 93 2100 200/03 RMK AO2 TSNO
94908KDBQ DBQ20030721002510707/21/03 00:25:31  5-MIN KDBQ 210625Z AUTO 00000KT 10SM BKN110 20/18 A2971 1270 90 2200 000/00 RMK AO2 TSNO
94908KDBQ DBQ20030721003011407/21/03 00:30:31  5-MIN KDBQ 210630Z AUTO 00000KT 10SM FEW100 SCT120 20/18 A2970 1280 90 2200 000/00 RMK AO2 TSNO
94908KDBQ DBQ20030721003510707/21/03 00:35:31  5-MIN KDBQ 210635Z AUTO 00000KT 10SM SCT110 19/18 A2971 1270 93 2100 000/00 RMK AO2 TSNO
94908KDBQ DBQ20030721004010707/21/03 00:40:31  5-MIN KDBQ 210640Z AUTO 04005KT 10SM SCT110 19/18 A2971 1270 97 2100 040/05 RMK AO2 TSNO
94908KDBQ DBQ20030721004510707/21/03 00:45:31  5-MIN KDBQ 210645Z AUTO 01005KT 10SM FEW110 19/18 A2972 1260 93 2100 010/05 RMK AO2 TSNO
94908KDBQ DBQ20030721005012407/21/03 00:50:31  5-MIN KDBQ 210650Z AUTO 03008KT 10SM FEW110 19/18 A2971 1270 93 2100 030/08 RMK AO2 SLP054 T01940183 TSNO
94908KDBQ DBQ20030721005512407/21/03 00:55:31  5-MIN KDBQ 210655Z AUTO 03009KT 10SM FEW110 19/18 A2972 1270 93 2100 030/09 RMK AO2 SLP055 T01940183 TSNO
94908KDBQ DBQ20030721010010707/21/03 01:00:31  5-MIN KDBQ 210700Z AUTO 02006KT 10SM FEW110 19/18 A2971 1270 97 2100 020/06 RMK AO2 TSNO
94908KDBQ DBQ20030721010510707/21/03 01:05:31  5-MIN KDBQ 210705Z AUTO 01006KT 10SM FEW110 19/18 A2971 1270 97 2100 010/06 RMK AO2 TSNO
94908KDBQ DBQ20030721011010407/21/03 01:10:31  5-MIN KDBQ 210710Z AUTO 01004KT 10SM CLR 19/18 A2971 1280 97 2100 010/04 RMK AO2 TSNO
94908KDBQ DBQ20030721011510407/21/03 01:15:31  5-MIN KDBQ 210715Z AUTO 00000KT 10SM CLR 19/18 A2971 1270 93 2100 000/00 RMK AO2 TSNO
94908KDBQ DBQ20030721012010407/21/03 01:20:31  5-MIN KDBQ 210720Z AUTO 03003KT 10SM CLR 19/18 A2971 1270 93 2100 020/03 RMK AO2 TSNO
94908KDBQ DBQ20030721012510407/21/03 01:25:31  5-MIN KDBQ 210725Z AUTO 03003KT 10SM CLR 19/18 A2971 1270 97 2100 030/03 RMK AO2 TSNO
94908KDBQ DBQ20030721013010407/21/03 01:30:31  5-MIN KDBQ 210730Z AUTO 01004KT 10SM CLR 19/18 A2971 1270 97 2100 010/04 RMK AO2 TSNO
94908KDBQ DBQ20030721013510407/21/03 01:35:31  5-MIN KDBQ 210735Z AUTO 01003KT 10SM CLR 18/18 A2971 1270 96 2000 010/03 RMK AO2 TSNO
94908KDBQ DBQ20030721014010407/21/03 01:40:31  5-MIN KDBQ 210740Z AUTO 33003KT 10SM CLR 18/17 A2971 1270 96 1900 330/03 RMK AO2 TSNO
94908KDBQ DBQ20030721014510407/21/03 01:45:31  5-MIN KDBQ 210745Z AUTO 00000KT 10SM CLR 19/18 A2971 1270 93 2100 000/00 RMK AO2 TSNO
94908KDBQ DBQ20030721015012107/21/03 01:50:31  5-MIN KDBQ 210750Z AUTO 31003KT 10SM CLR 19/18 A2971 1270 97 2100 310/03 RMK AO2 SLP054 T01890183 TSNO
94908KDBQ DBQ20030721015512107/21/03 01:55:31  5-MIN KDBQ 210755Z AUTO 00000KT 10SM CLR 18/18 A2971 1270 96 2000 000/00 RMK AO2 SLP055 T01830178 TSNO
94908KDBQ DBQ20030721020010607/21/03 02:00:31  5-MIN KDBQ 210800Z AUTO 32003KT 5SM BR CLR 18/18 A2972 1270 96 2000 320/03 RMK AO2 TSNO
94908KDBQ DBQ20030721020510607/21/03 02:05:31  5-MIN KDBQ 210805Z AUTO 33005KT 5SM BR CLR 18/17 A2972 1270 93 2000 330/05 RMK AO2 TSNO
94908KDBQ DBQ20030721021010407/21/03 02:10:31  5-MIN KDBQ 210810Z AUTO 31003KT 10SM CLR 18/18 A2971 1270 96 2000 310/03 RMK AO2 TSNO
94908KDBQ DBQ20030721021510407/21/03 02:15:31  5-MIN KDBQ 210815Z AUTO 30003KT 10SM CLR 18/18 A2971 1270 96 2000 300/03 RMK AO2 TSNO
94908KDBQ DBQ20030721022010407/21/03 02:20:31  5-MIN KDBQ 210820Z AUTO 00000KT 10SM CLR 18/18 A2971 1270 96 2000 000/00 RMK AO2 TSNO
94908KDBQ DBQ20030721022510307/21/03 02:25:31  5-MIN KDBQ 210825Z AUTO 00000KT 9SM CLR 18/18 A2971 1270 96 2000 000/00 RMK AO2 TSNO
94908KDBQ DBQ20030721023010307/21/03 02:30:31  5-MIN KDBQ 210830Z AUTO 00000KT 9SM CLR 18/18 A2971 1280 96 2000 000/00 RMK AO2 TSNO
94908KDBQ DBQ20030721023510307/21/03 02:35:31  5-MIN KDBQ 210835Z AUTO 00000KT 8SM CLR 18/17 A2970 1280 96 1900 000/00 RMK AO2 TSNO
94908KDBQ DBQ20030721024010307/21/03 02:40:31  5-MIN KDBQ 210840Z AUTO 30003KT 8SM CLR 18/17 A2970 1280 96 1900 300/03 RMK AO2 TSNO
94908KDBQ DBQ20030721024510307/21/03 02:45:31  5-MIN KDBQ 210845Z AUTO 30003KT 9SM CLR 18/18 A2971 1280 96 2000 300/03 RMK AO2 TSNO
94908KDBQ DBQ20030721025012707/21/03 02:50:31  5-MIN KDBQ 210850Z AUTO 29003KT 10SM CLR 18/18 A2970 1280 96 2000 290/03 RMK AO2 SLP052 T01830178 56017 TSNO
94908KDBQ DBQ20030721025512707/21/03 02:55:31  5-MIN KDBQ 210855Z AUTO 00000KT 10SM CLR 18/18 A2970 1280 96 2000 000/00 RMK AO2 SLP052 T01830178 58006 TSNO
94908KDBQ DBQ20030721030010407/21/03 03:00:31  5-MIN KDBQ 210900Z AUTO 00000KT 10SM CLR 19/18 A2970 1280 93 2100 000/00 RMK AO2 TSNO
94908KDBQ DBQ20030721030510407/21/03 03:05:31  5-MIN KDBQ 210905Z AUTO 00000KT 10SM CLR 19/18 A2970 1280 93 2100 000/00 RMK AO2 TSNO
94908KDBQ DBQ20030721031010407/21/03 03:10:31  5-MIN KDBQ 210910Z AUTO 00000KT 10SM CLR 19/18 A2970 1280 93 2100 000/00 RMK AO2 TSNO
94908KDBQ DBQ20030721031510407/21/03 03:15:31  5-MIN KDBQ 210915Z AUTO 00000KT 10SM CLR 18/17 A2970 1280 93 2000 000/00 RMK AO2 TSNO
94908KDBQ DBQ20030721032010607/21/03 03:20:31  5-MIN KDBQ 210920Z AUTO 29005KT 9SM FEW026 18/17 A2970 1280 96 1900 290/05 RMK AO2 TSNO
94908KDBQ DBQ20030721032510607/21/03 03:25:31  5-MIN KDBQ 210925Z AUTO 26004KT 9SM SCT026 18/17 A2971 1280 96 1900 260/04 RMK AO2 TSNO
94908KDBQ DBQ20030721033010607/21/03 03:30:31  5-MIN KDBQ 210930Z AUTO 22004KT 9SM FEW028 18/17 A2970 1280 96 1900 220/04 RMK AO2 TSNO
94908KDBQ DBQ20030721033510607/21/03 03:35:31  5-MIN KDBQ 210935Z AUTO 21004KT 9SM FEW028 18/17 A2970 1280 96 1900 200/04 RMK AO2 TSNO
94908KDBQ DBQ20030721034010607/21/03 03:40:31  5-MIN KDBQ 210940Z AUTO VRB03KT 8SM FEW028 18/17 A2970 1280 93 2000 VRB/03 RMK AO2 TSNO
94908KDBQ DBQ20030721034510607/21/03 03:45:31  5-MIN KDBQ 210945Z AUTO 28004KT 8SM FEW028 18/17 A2970 1280 96 1900 280/04 RMK AO2 TSNO
94908KDBQ DBQ20030721035012007/21/03 03:50:31  5-MIN KDBQ 210950Z AUTO 30004KT 7SM CLR 18/18 A2970 1280 96 2000 300/04 RMK AO2 SLP052 T01830178 TSNO
94908KDBQ DBQ20030721035512307/21/03 03:55:31  5-MIN KDBQ 210955Z AUTO 29005KT 6SM BR CLR 19/18 A2970 1280 97 2100 290/05 RMK AO2 SLP052 T01890183 TSNO
94908KDBQ DBQ20030721040010607/21/03 04:00:31  5-MIN KDBQ 211000Z AUTO 29005KT 6SM BR CLR 19/18 A2970 1280 97 2100 290/05 RMK AO2 TSNO
94908KDBQ DBQ20030721040510307/21/03 04:05:31  5-MIN KDBQ 211005Z AUTO 29007KT 7SM CLR 19/18 A2970 1280 97 2100 290/07 RMK AO2 TSNO
94908KDBQ DBQ20030721041010307/21/03 04:10:31  5-MIN KDBQ 211010Z AUTO 29007KT 7SM CLR 19/18 A2970 1280 97 2100 290/07 RMK AO2 TSNO
94908KDBQ DBQ20030721041510307/21/03 04:15:31  5-MIN KDBQ 211015Z AUTO 30008KT 7SM CLR 19/18 A2970 1280 97 2100 300/08 RMK AO2 TSNO
94908KDBQ DBQ20030721042010307/21/03 04:20:31  5-MIN KDBQ 211020Z AUTO 30009KT 8SM CLR 19/18 A2971 1280 93 2100 300/09 RMK AO2 TSNO
94908KDBQ DBQ20030721042510307/21/03 04:25:31  5-MIN KDBQ 211025Z AUTO 30009KT 8SM CLR 19/18 A2970 1280 93 2100 300/09 RMK AO2 TSNO
94908KDBQ DBQ20030721043010307/21/03 04:30:31  5-MIN KDBQ 211030Z AUTO 30009KT 8SM CLR 19/18 A2970 1280 93 2100 300/09 RMK AO2 TSNO
94908KDBQ DBQ20030721043510307/21/03 04:35:31  5-MIN KDBQ 211035Z AUTO 30009KT 8SM CLR 19/18 A2971 1280 93 2100 300/09 RMK AO2 TSNO
94908KDBQ DBQ20030721044010307/21/03 04:40:31  5-MIN KDBQ 211040Z AUTO 31010KT 8SM CLR 19/18 A2971 1270 93 2100 310/10 RMK AO2 TSNO
94908KDBQ DBQ20030721044510307/21/03 04:45:31  5-MIN KDBQ 211045Z AUTO 31010KT 8SM CLR 19/18 A2971 1270 93 2100 310/10 RMK AO2 TSNO
94908KDBQ DBQ20030721045011007/21/03 04:50:31  5-MIN KDBQ 211050Z 31013KT 8SM CLR 19/18 A2972 1260 93 2100 310/13 RMK AO2 SLP057 T01940183
94908KDBQ DBQ20030721045511007/21/03 04:55:31  5-MIN KDBQ 211055Z 32012KT 9SM CLR 19/18 A2972 1270 93 2100 320/12 RMK AO2 SLP056 T01940183
94908KDBQ DBQ20030721050009307/21/03 05:00:31  5-MIN KDBQ 211100Z 32011KT 9SM CLR 19/18 A2972 1270 93 2100 320/11 RMK AO2
94908KDBQ DBQ20030721050509307/21/03 05:05:31  5-MIN KDBQ 211105Z 32010KT 8SM CLR 19/18 A2972 1270 93 2100 320/10 RMK AO2
94908KDBQ DBQ20030721051009307/21/03 05:10:31  5-MIN KDBQ 211110Z 32011KT 9SM CLR 19/18 A2972 1260 93 2100 320/11 RMK AO2
94908KDBQ DBQ20030721051509307/21/03 05:15:31  5-MIN KDBQ 211115Z 32012KT 9SM CLR 19/18 A2972 1260 93 2100 320/12 RMK AO2
94908KDBQ DBQ20030721052009307/21/03 05:20:31  5-MIN KDBQ 211120Z 33010KT 9SM CLR 19/18 A2972 1270 93 2100 330/10 RMK AO2
94908KDBQ DBQ20030721052509307/21/03 05:25:31  5-MIN KDBQ 211125Z 33011KT 9SM CLR 19/18 A2972 1260 93 2100 330/11 RMK AO2
94908KDBQ DBQ20030721053009307/21/03 05:30:31  5-MIN KDBQ 211130Z 32010KT 9SM CLR 20/18 A2972 1270 90 2200 320/10 RMK AO2
94908KDBQ DBQ20030721053509307/21/03 05:35:31  5-MIN KDBQ 211135Z 33011KT 9SM CLR 20/18 A2972 1270 90 2200 330/11 RMK AO2
94908KDBQ DBQ20030721054009307/21/03 05:40:31  5-MIN KDBQ 211140Z 33011KT 9SM CLR 20/18 A2972 1270 90 2200 330/11 RMK AO2
94908KDBQ DBQ20030721054509307/21/03 05:45:31  5-MIN KDBQ 211145Z 33009KT 9SM CLR 20/19 A2972 1260 93 2200 330/09 RMK AO2
94908KDBQ DBQ20030721055013407/21/03 05:50:31  5-MIN KDBQ 211150Z 33010KT 9SM CLR 20/19 A2973 1260 93 2200 330/10 RMK AO2 SLP059 70139 T02000189 10200 20178 58006
94908KDBQ DBQ20030721055513407/21/03 05:55:31  5-MIN KDBQ 211155Z 33012KT 9SM CLR 20/19 A2973 1260 93 2200 330/12 RMK AO2 SLP059 70139 T02000189 10200 20178 53008
94908KDBQ DBQ20030721060009307/21/03 06:00:31  5-MIN KDBQ 211200Z 33011KT 9SM CLR 20/19 A2973 1250 93 2200 330/11 RMK AO2
94908KDBQ DBQ20030721060509307/21/03 06:05:31  5-MIN KDBQ 211205Z 33012KT 9SM CLR 20/19 A2973 1260 93 2200 330/12 RMK AO2
94908KDBQ DBQ20030721061009307/21/03 06:10:31  5-MIN KDBQ 211210Z 33012KT 9SM CLR 20/19 A2973 1250 93 2200 330/12 RMK AO2
94908KDBQ DBQ20030721061509307/21/03 06:15:31  5-MIN KDBQ 211215Z 33011KT 9SM CLR 20/19 A2973 1260 93 2200 330/11 RMK AO2
94908KDBQ DBQ20030721062009307/21/03 06:20:31  5-MIN KDBQ 211220Z 33011KT 9SM CLR 21/19 A2973 1250 90 2200 330/11 RMK AO2
94908KDBQ DBQ20030721062509307/21/03 06:25:31  5-MIN KDBQ 211225Z 33011KT 9SM CLR 21/19 A2973 1250 90 2200 330/11 RMK AO2
94908KDBQ DBQ20030721063009307/21/03 06:30:31  5-MIN KDBQ 211230Z 33009KT 9SM CLR 21/19 A2974 1250 90 2200 330/09 RMK AO2
94908KDBQ DBQ20030721063509607/21/03 06:35:31  5-MIN KDBQ 211235Z 33010KT 9SM FEW010 21/19 A2974 1240 90 2200 330/10 RMK AO2
94908KDBQ DBQ20030721064009607/21/03 06:40:31  5-MIN KDBQ 211240Z 34010KT 9SM SCT010 21/19 A2974 1240 90 2200 340/10 RMK AO2
94908KDBQ DBQ20030721064509607/21/03 06:45:31  5-MIN KDBQ 211245Z 34009KT 9SM FEW010 21/19 A2974 1240 90 2200 340/09 RMK AO2
94908KDBQ DBQ20030721065011307/21/03 06:50:31  5-MIN KDBQ 211250Z 34010KT 9SM FEW010 21/19 A2974 1240 90 2200 340/10 RMK AO2 SLP065 T02060189
94908KDBQ DBQ20030721065511307/21/03 06:55:31  5-MIN KDBQ 211255Z 34010KT 9SM SCT010 21/19 A2974 1250 90 2200 340/10 RMK AO2 SLP064 T02060189
94908KDBQ DBQ20030721070009707/21/03 07:00:31  5-MIN KDBQ 211300Z 33011KT 10SM FEW010 21/19 A2974 1240 90 2200 330/11 RMK AO2
94908KDBQ DBQ20030721070509707/21/03 07:05:31  5-MIN KDBQ 211305Z 34011KT 10SM FEW010 21/19 A2974 1240 87 2300 340/11 RMK AO2
94908KDBQ DBQ20030721071009707/21/03 07:10:31  5-MIN KDBQ 211310Z 34013KT 10SM FEW010 21/19 A2975 1240 87 2300 340/13 RMK AO2
94908KDBQ DBQ20030721071509407/21/03 07:15:31  5-MIN KDBQ 211315Z 34012KT 10SM CLR 21/19 A2975 1240 87 2300 340/12 RMK AO2
94908KDBQ DBQ20030721072009407/21/03 07:20:31  5-MIN KDBQ 211320Z 34013KT 10SM CLR 21/19 A2975 1240 87 2300 340/13 RMK AO2
94908KDBQ DBQ20030721072509407/21/03 07:25:31  5-MIN KDBQ 211325Z 34013KT 10SM CLR 21/19 A2975 1240 87 2300 340/13 RMK AO2
94908KDBQ DBQ20030721073009407/21/03 07:30:31  5-MIN KDBQ 211330Z 34012KT 10SM CLR 21/18 A2975 1240 84 2300 340/12 RMK AO2
94908KDBQ DBQ20030721073509407/21/03 07:35:31  5-MIN KDBQ 211335Z 34012KT 10SM CLR 21/18 A2975 1230 84 2300 340/12 RMK AO2
94908KDBQ DBQ20030721074009407/21/03 07:40:31  5-MIN KDBQ 211340Z 36012KT 10SM CLR 22/18 A2975 1240 81 2300 360/12 RMK AO2
94908KDBQ DBQ20030721074509407/21/03 07:45:31  5-MIN KDBQ 211345Z 35009KT 10SM CLR 22/19 A2975 1230 84 2300 350/09 RMK AO2
94908KDBQ DBQ20030721075011107/21/03 07:50:31  5-MIN KDBQ 211350Z 34012KT 10SM CLR 22/18 A2975 1230 81 2300 340/12 RMK AO2 SLP068 T02170183
94908KDBQ DBQ20030721075511107/21/03 07:55:31  5-MIN KDBQ 211355Z 34010KT 10SM CLR 22/18 A2976 1230 78 2400 340/10 RMK AO2 SLP069 T02220183
94908KDBQ DBQ20030721080009407/21/03 08:00:31  5-MIN KDBQ 211400Z 36011KT 10SM CLR 22/18 A2975 1230 75 2400 360/11 RMK AO2
94908KDBQ DBQ20030721080509407/21/03 08:05:31  5-MIN KDBQ 211405Z 36012KT 10SM CLR 22/18 A2975 1240 75 2400 350/12 RMK AO2
94908KDBQ DBQ20030721081009407/21/03 08:10:31  5-MIN KDBQ 211410Z 35013KT 10SM CLR 22/18 A2975 1240 75 2400 350/13 RMK AO2
94908KDBQ DBQ20030721081509407/21/03 08:15:31  5-MIN KDBQ 211415Z 35011KT 10SM CLR 22/18 A2974 1240 78 2400 350/11 RMK AO2
94908KDBQ DBQ20030721082009407/21/03 08:20:31  5-MIN KDBQ 211420Z 35010KT 10SM CLR 23/18 A2975 1240 76 2500 350/10 RMK AO2
94908KDBQ DBQ20030721082509407/21/03 08:25:31  5-MIN KDBQ 211425Z 36011KT 10SM CLR 23/18 A2975 1230 76 2500 360/11 RMK AO2
94908KDBQ DBQ20030721083010007/21/03 08:30:31  5-MIN KDBQ 211430Z 35014G18KT 10SM CLR 23/17 A2976 1230 70 2500 350/14G18 RMK AO2
94908KDBQ DBQ20030721083510007/21/03 08:35:31  5-MIN KDBQ 211435Z 35013G18KT 10SM CLR 23/18 A2976 1220 73 2400 350/13G18 RMK AO2
94908KDBQ DBQ20030721084010007/21/03 08:40:31  5-MIN KDBQ 211440Z 35012G19KT 10SM CLR 22/17 A2976 1220 73 2400 350/12G19 RMK AO2
94908KDBQ DBQ20030721084510007/21/03 08:45:31  5-MIN KDBQ 211445Z 35012G19KT 10SM CLR 22/17 A2977 1220 73 2400 340/12G19 RMK AO2
94908KDBQ DBQ20030721085011707/21/03 08:50:31  5-MIN KDBQ 211450Z 34011KT 10SM CLR 23/18 A2977 1220 73 2400 340/11 RMK AO2 SLP073 T02280178 53008
94908KDBQ DBQ20030721085511707/21/03 08:55:31  5-MIN KDBQ 211455Z 35014KT 10SM CLR 23/17 A2977 1220 70 2400 340/14 RMK AO2 SLP073 T02280172 51013
94908KDBQ DBQ20030721090009407/21/03 09:00:31  5-MIN KDBQ 211500Z 36012KT 10SM CLR 23/17 A2977 1220 70 2400 360/12 RMK AO2
94908KDBQ DBQ20030721090509407/21/03 09:05:31  5-MIN KDBQ 211505Z 35013KT 10SM CLR 23/17 A2977 1210 68 2400 350/13 RMK AO2
94908KDBQ DBQ20030721091009407/21/03 09:10:31  5-MIN KDBQ 211510Z 35010KT 10SM CLR 23/17 A2977 1210 68 2400 350/10 RMK AO2
94908KDBQ DBQ20030721091509407/21/03 09:15:31  5-MIN KDBQ 211515Z 35011KT 10SM CLR 23/17 A2978 1210 68 2400 350/11 RMK AO2
94908KDBQ DBQ20030721092009407/21/03 09:20:31  5-MIN KDBQ 211520Z 34013KT 10SM CLR 23/17 A2978 1210 68 2400 340/13 RMK AO2
94908KDBQ DBQ20030721092509707/21/03 09:25:31  5-MIN KDBQ 211525Z 34014KT 10SM SCT032 23/16 A2978 1210 65 2400 340/14 RMK AO2
94908KDBQ DBQ20030721093009707/21/03 09:30:31  5-MIN KDBQ 211530Z 34014KT 10SM SCT032 23/16 A2978 1210 63 2500 340/14 RMK AO2
94908KDBQ DBQ20030721093509707/21/03 09:35:31  5-MIN KDBQ 211535Z 35013KT 10SM SCT032 23/16 A2978 1200 63 2500 350/13 RMK AO2
94908KDBQ DBQ20030721094009707/21/03 09:40:31  5-MIN KDBQ 211540Z 36012KT 10SM SCT032 23/16 A2978 1210 63 2500 360/12 RMK AO2
94908KDBQ DBQ20030721094509707/21/03 09:45:31  5-MIN KDBQ 211545Z 35011KT 10SM SCT032 24/17 A2978 1210 63 2500 350/11 RMK AO2
94908KDBQ DBQ20030721095011407/21/03 09:50:31  5-MIN KDBQ 211550Z 34011KT 10SM SCT032 24/16 A2978 1210 61 2500 340/11 RMK AO2 SLP078 T02390161
94908KDBQ DBQ20030721095511407/21/03 09:55:31  5-MIN KDBQ 211555Z 35012KT 10SM SCT032 24/16 A2979 1200 59 2500 350/12 RMK AO2 SLP079 T02390156
94908KDBQ DBQ20030721100009707/21/03 10:00:31  5-MIN KDBQ 211600Z 32014KT 10SM FEW034 23/16 A2979 1200 61 2500 320/14 RMK AO2
94908KDBQ DBQ20030721100509707/21/03 10:05:31  5-MIN KDBQ 211605Z 33015KT 10SM FEW034 24/15 A2979 1200 57 2500 330/15 RMK AO2
94908KDBQ DBQ20030721101009707/21/03 10:10:31  5-MIN KDBQ 211610Z 34013KT 10SM FEW036 24/16 A2979 1200 59 2500 340/13 RMK AO2
94908KDBQ DBQ20030721101509707/21/03 10:15:31  5-MIN KDBQ 211615Z 33012KT 10SM FEW034 24/16 A2979 1200 59 2500 330/12 RMK AO2
94908KDBQ DBQ20030721102009707/21/03 10:20:31  5-MIN KDBQ 211620Z 34016KT 10SM FEW034 24/15 A2979 1200 57 2500 340/16 RMK AO2
94908KDBQ DBQ20030721102510307/21/03 10:25:31  5-MIN KDBQ 211625Z 33015G22KT 10SM FEW034 24/15 A2979 1200 57 2500 330/15G22 RMK AO2
94908KDBQ DBQ20030721103010007/21/03 10:30:31  5-MIN KDBQ 211630Z 33015G22KT 10SM CLR 24/15 A2978 1200 57 2500 330/15G22 RMK AO2
94908KDBQ DBQ20030721103509407/21/03 10:35:31  5-MIN KDBQ 211635Z 35012KT 10SM CLR 24/15 A2979 1200 55 2600 350/12 RMK AO2
94908KDBQ DBQ20030721104010007/21/03 10:40:31  5-MIN KDBQ 211640Z 33016G19KT 10SM CLR 24/15 A2979 1200 55 2600 330/16G19 RMK AO2
94908KDBQ DBQ20030721104509407/21/03 10:45:31  5-MIN KDBQ 211645Z 33013KT 10SM CLR 24/14 A2979 1200 55 2500 330/13 RMK AO2
94908KDBQ DBQ20030721105011107/21/03 10:50:31  5-MIN KDBQ 211650Z 32013KT 10SM CLR 24/16 A2979 1200 57 2600 320/13 RMK AO2 SLP080 T02440156
94908KDBQ DBQ20030721105511107/21/03 10:55:31  5-MIN KDBQ 211655Z 33013KT 10SM CLR 24/15 A2979 1200 55 2600 330/13 RMK AO2 SLP080 T02440150
94908KDBQ DBQ20030721110009707/21/03 11:00:31  5-MIN KDBQ 211700Z 33010KT 10SM SCT034 24/16 A2979 1200 57 2600 330/10 RMK AO2
94908KDBQ DBQ20030721110509707/21/03 11:05:31  5-MIN KDBQ 211705Z 33012KT 10SM SCT034 25/16 A2979 1200 55 2700 330/12 RMK AO2
94908KDBQ DBQ20030721111009707/21/03 11:10:31  5-MIN KDBQ 211710Z 33012KT 10SM SCT034 25/14 A2979 1200 51 2700 330/12 RMK AO2
94908KDBQ DBQ20030721111510307/21/03 11:15:31  5-MIN KDBQ 211715Z 35014G17KT 10SM SCT034 25/14 A2979 1200 51 2700 350/14G17 RMK AO2
94908KDBQ DBQ20030721112009707/21/03 11:20:31  5-MIN KDBQ 211720Z 33013KT 10SM SCT034 24/14 A2979 1200 53 2600 330/13 RMK AO2
94908KDBQ DBQ20030721112509707/21/03 11:25:31  5-MIN KDBQ 211725Z 32010KT 10SM SCT034 23/15 A2979 1200 59 2500 310/10 RMK AO2
94908KDBQ DBQ20030721113009707/21/03 11:30:31  5-MIN KDBQ 211730Z 33011KT 10SM SCT034 24/15 A2978 1200 57 2500 330/11 RMK AO2
94908KDBQ DBQ20030721113509707/21/03 11:35:31  5-MIN KDBQ 211735Z 34011KT 10SM SCT034 25/16 A2978 1200 57 2700 340/11 RMK AO2
94908KDBQ DBQ20030721114009707/21/03 11:40:31  5-MIN KDBQ 211740Z 35011KT 10SM SCT034 26/16 A2979 1200 55 2700 350/11 RMK AO2
94908KDBQ DBQ20030721114509707/21/03 11:45:31  5-MIN KDBQ 211745Z 31012KT 10SM SCT034 24/15 A2979 1200 55 2600 310/12 RMK AO2
94908KDBQ DBQ20030721115013207/21/03 11:50:31  5-MIN KDBQ 211750Z 33011KT 10SM SCT034 24/15 A2979 1200 55 2600 330/11 RMK AO2 SLP082 T02440150 10256 20200 51013
94908KDBQ DBQ20030721115513207/21/03 11:55:31  5-MIN KDBQ 211755Z 33013KT 10SM SCT034 24/16 A2979 1200 57 2600 320/13 RMK AO2 SLP082 T02440156 10256 20200 51008
94908KDBQ DBQ20030721120009707/21/03 12:00:31  5-MIN KDBQ 211800Z 33012KT 10SM SCT042 24/15 A2980 1190 55 2600 330/12 RMK AO2
94908KDBQ DBQ20030721120509707/21/03 12:05:31  5-MIN KDBQ 211805Z 32014KT 10SM SCT042 25/16 A2980 1190 55 2700 320/14 RMK AO2
94908KDBQ DBQ20030721121009707/21/03 12:10:31  5-MIN KDBQ 211810Z 31012KT 10SM SCT042 25/15 A2980 1190 53 2700 310/12 RMK AO2
94908KDBQ DBQ20030721121509707/21/03 12:15:31  5-MIN KDBQ 211815Z 33015KT 10SM FEW042 25/15 A2980 1190 53 2700 330/15 RMK AO2
94908KDBQ DBQ20030721122009707/21/03 12:20:31  5-MIN KDBQ 211820Z 33011KT 10SM FEW046 24/14 A2980 1190 53 2600 330/11 RMK AO2
94908KDBQ DBQ20030721122509707/21/03 12:25:31  5-MIN KDBQ 211825Z 34013KT 10SM FEW046 24/14 A2980 1190 55 2500 340/13 RMK AO2
94908KDBQ DBQ20030721123009707/21/03 12:30:31  5-MIN KDBQ 211830Z 32011KT 10SM FEW046 25/16 A2979 1200 55 2700 320/11 RMK AO2
94908KDBQ DBQ20030721123509707/21/03 12:35:31  5-MIN KDBQ 211835Z 33011KT 10SM FEW046 25/15 A2980 1190 53 2700 330/11 RMK AO2
94908KDBQ DBQ20030721124009707/21/03 12:40:31  5-MIN KDBQ 211840Z 31011KT 10SM FEW046 25/16 A2980 1190 55 2700 310/11 RMK AO2
94908KDBQ DBQ20030721124509707/21/03 12:45:31  5-MIN KDBQ 211845Z 32010KT 10SM FEW046 25/16 A2980 1190 55 2700 310/10 RMK AO2
94908KDBQ DBQ20030721125011407/21/03 12:50:31  5-MIN KDBQ 211850Z 32012KT 10SM SCT044 25/15 A2980 1190 53 2700 320/12 RMK AO2 SLP084 T02500150
94908KDBQ DBQ20030721125511407/21/03 12:55:31  5-MIN KDBQ 211855Z 31014KT 10SM SCT042 25/16 A2980 1190 55 2700 310/14 RMK AO2 SLP084 T02500156
94908KDBQ DBQ20030721130009707/21/03 13:00:31  5-MIN KDBQ 211900Z 32010KT 10SM SCT042 25/16 A2980 1190 55 2700 320/10 RMK AO2
94908KDBQ DBQ20030721130509707/21/03 13:05:31  5-MIN KDBQ 211905Z 34011KT 10SM SCT042 25/15 A2980 1190 53 2700 340/11 RMK AO2
94908KDBQ DBQ20030721131010307/21/03 13:10:31  5-MIN KDBQ 211910Z 34012G17KT 10SM SCT042 25/14 A2980 1190 51 2700 330/12G17 RMK AO2
94908KDBQ DBQ20030721131509707/21/03 13:15:31  5-MIN KDBQ 211915Z 35011KT 10SM SCT042 25/14 A2980 1190 51 2700 350/11 RMK AO2
94908KDBQ DBQ20030721132009707/21/03 13:20:31  5-MIN KDBQ 211920Z 35011KT 10SM FEW042 25/14 A2980 1190 51 2700 350/11 RMK AO2
94908KDBQ DBQ20030721132510307/21/03 13:25:31  5-MIN KDBQ 211925Z 31013G17KT 10SM FEW042 26/16 A2980 1190 53 2700 310/13G17 RMK AO2
94908KDBQ DBQ20030721133010307/21/03 13:30:31  5-MIN KDBQ 211930Z 32013G17KT 10SM FEW042 25/15 A2980 1190 53 2700 320/13G17 RMK AO2
94908KDBQ DBQ20030721133509707/21/03 13:35:31  5-MIN KDBQ 211935Z 33012KT 10SM FEW042 26/15 A2979 1200 51 2700 330/12 RMK AO2
94908KDBQ DBQ20030721134009407/21/03 13:40:31  5-MIN KDBQ 211940Z 33011KT 10SM CLR 25/14 A2980 1190 51 2700 330/11 RMK AO2
94908KDBQ DBQ20030721134509407/21/03 13:45:31  5-MIN KDBQ 211945Z 34011KT 10SM CLR 26/14 A2980 1190 49 2700 340/11 RMK AO2
94908KDBQ DBQ20030721135011107/21/03 13:50:31  5-MIN KDBQ 211950Z 33013KT 10SM CLR 25/15 A2980 1190 53 2700 330/13 RMK AO2 SLP084 T02500150
94908KDBQ DBQ20030721135511407/21/03 13:55:31  5-MIN KDBQ 211955Z 34010KT 10SM FEW048 26/15 A2980 1190 51 2700 340/10 RMK AO2 SLP083 T02560150
94908KDBQ DBQ20030721140010307/21/03 14:00:31  5-MIN KDBQ 212000Z 33011G18KT 10SM FEW048 25/15 A2979 1200 53 2700 330/11G18 RMK AO2
94908KDBQ DBQ20030721140509707/21/03 14:05:31  5-MIN KDBQ 212005Z 33013KT 10SM FEW048 25/15 A2979 1200 53 2700 330/13 RMK AO2
94908KDBQ DBQ20030721141009707/21/03 14:10:31  5-MIN KDBQ 212010Z 32010KT 10SM FEW048 24/14 A2980 1190 53 2600 320/10 RMK AO2
94908KDBQ DBQ20030721141509707/21/03 14:15:31  5-MIN KDBQ 212015Z 34013KT 10SM FEW048 25/15 A2980 1190 53 2700 340/13 RMK AO2
94908KDBQ DBQ20030721142009707/21/03 14:20:31  5-MIN KDBQ 212020Z 34013KT 10SM FEW048 24/14 A2980 1190 53 2600 340/13 RMK AO2
94908KDBQ DBQ20030721142509707/21/03 14:25:31  5-MIN KDBQ 212025Z 33010KT 10SM SCT048 25/15 A2981 1180 53 2600 330/10 RMK AO2
94908KDBQ DBQ20030721143010407/21/03 14:30:31  5-MIN KDBQ 212030Z 33009KT 10SM SCT045 BKN050 24/15 A2981 1180 55 2600 330/09 RMK AO2
94908KDBQ DBQ20030721143511107/21/03 14:35:31  5-MIN KDBQ 212035Z 34013KT 10SM SCT045 BKN050 26/16 A2982 1170 53 2700 340/13 RMK AO2 PRESRR
94908KDBQ DBQ20030721144010407/21/03 14:40:31  5-MIN KDBQ 212040Z 35011KT 10SM FEW043 SCT050 24/15 A2982 1170 55 2600 350/11 RMK AO2
94908KDBQ DBQ20030721144510407/21/03 14:45:31  5-MIN KDBQ 212045Z 35012KT 10SM SCT042 BKN050 25/15 A2982 1170 53 2600 350/12 RMK AO2
94908KDBQ DBQ20030721145012707/21/03 14:50:31  5-MIN KDBQ 212050Z 34012KT 10SM SCT042 BKN050 24/14 A2982 1170 55 2500 340/12 RMK AO2 SLP094 T02390144 51008
94908KDBQ DBQ20030721145512707/21/03 14:55:31  5-MIN KDBQ 212055Z 35011KT 10SM SCT042 SCT050 24/15 A2982 1170 55 2600 340/11 RMK AO2 SLP092 T02440150 53009
94908KDBQ DBQ20030721150009707/21/03 15:00:31  5-MIN KDBQ 212100Z 33011KT 10SM FEW042 24/14 A2981 1180 53 2600 330/11 RMK AO2
94908KDBQ DBQ20030721150509707/21/03 15:05:31  5-MIN KDBQ 212105Z 34010KT 10SM FEW042 24/14 A2981 1180 55 2500 330/10 RMK AO2
94908KDBQ DBQ20030721151010407/21/03 15:10:31  5-MIN KDBQ 212110Z 34011KT 10SM SCT042 SCT050 25/16 A2980 1190 55 2700 340/11 RMK AO2
94908KDBQ DBQ20030721151511007/21/03 15:15:31  5-MIN KDBQ 212115Z 34011G15KT 10SM SCT042 SCT055 25/15 A2980 1190 53 2700 340/11G15 RMK AO2
94908KDBQ DBQ20030721152010307/21/03 15:20:31  5-MIN KDBQ 212120Z 02013G17KT 10SM SCT042 23/15 A2980 1190 59 2500 010/13G17 RMK AO2
94908KDBQ DBQ20030721152509707/21/03 15:25:31  5-MIN KDBQ 212125Z 01011KT 10SM SCT042 23/15 A2980 1190 61 2400 360/11 RMK AO2
94908KDBQ DBQ20030721153010407/21/03 15:30:31  5-MIN KDBQ 212130Z 36010KT 10SM SCT042 BKN065 23/15 A2981 1180 61 2400 360/10 RMK AO2
94908KDBQ DBQ20030721153510407/21/03 15:35:31  5-MIN KDBQ 212135Z 34012KT 10SM FEW042 BKN060 23/15 A2981 1180 61 2400 340/12 RMK AO2
94908KDBQ DBQ20030721154010407/21/03 15:40:31  5-MIN KDBQ 212140Z 35012KT 10SM FEW042 BKN065 23/16 A2982 1180 63 2400 350/12 RMK AO2
94908KDBQ DBQ20030721154510407/21/03 15:45:31  5-MIN KDBQ 212145Z 35013KT 10SM FEW042 OVC070 23/15 A2982 1170 61 2400 340/13 RMK AO2
94908KDBQ DBQ20030721155011407/21/03 15:50:31  5-MIN KDBQ 212150Z 35012KT 10SM OVC070 23/15 A2982 1170 61 2400 350/12 RMK AO2 SLP094 T02280150
94908KDBQ DBQ20030721155511407/21/03 15:55:31  5-MIN KDBQ 212155Z 36013KT 10SM OVC070 23/15 A2983 1170 59 2400 360/13 RMK AO2 SLP095 T02330150
94908KDBQ DBQ20030721160009707/21/03 16:00:31  5-MIN KDBQ 212200Z 36011KT 10SM BKN070 23/15 A2983 1160 59 2400 360/11 RMK AO2
94908KDBQ DBQ20030721160509707/21/03 16:05:31  5-MIN KDBQ 212205Z 36012KT 10SM BKN070 23/15 A2983 1160 59 2400 360/12 RMK AO2
94908KDBQ DBQ20030721161009707/21/03 16:10:31  5-MIN KDBQ 212210Z 35011KT 10SM SCT070 23/15 A2983 1160 59 2400 350/11 RMK AO2
94908KDBQ DBQ20030721161509707/21/03 16:15:31  5-MIN KDBQ 212215Z 34012KT 10SM FEW070 23/14 A2984 1150 57 2400 340/12 RMK AO2
94908KDBQ DBQ20030721162009707/21/03 16:20:31  5-MIN KDBQ 212220Z 36011KT 10SM FEW070 23/15 A2984 1150 59 2400 360/11 RMK AO2
94908KDBQ DBQ20030721162510007/21/03 16:25:31  5-MIN KDBQ 212225Z 36011G20KT 10SM CLR 23/14 A2984 1150 59 2400 360/11G20 RMK AO2
94908KDBQ DBQ20030721163010007/21/03 16:30:31  5-MIN KDBQ 212230Z 35011G20KT 10SM CLR 23/14 A2984 1150 59 2400 350/11G20 RMK AO2
94908KDBQ DBQ20030721163509407/21/03 16:35:31  5-MIN KDBQ 212235Z 34012KT 10SM CLR 23/14 A2984 1150 57 2400 340/12 RMK AO2
94908KDBQ DBQ20030721164009407/21/03 16:40:31  5-MIN KDBQ 212240Z 35010KT 10SM CLR 23/14 A2984 1150 57 2400 340/10 RMK AO2
94908KDBQ DBQ20030721164509407/21/03 16:45:31  5-MIN KDBQ 212245Z 36008KT 10SM CLR 23/14 A2984 1150 59 2400 350/08 RMK AO2
94908KDBQ DBQ20030721165011107/21/03 16:50:31  5-MIN KDBQ 212250Z 36011KT 10SM CLR 22/14 A2984 1150 61 2300 360/11 RMK AO2 SLP101 T02220144
94908KDBQ DBQ20030721165511107/21/03 16:55:31  5-MIN KDBQ 212255Z 36009KT 10SM CLR 22/14 A2984 1150 61 2300 360/09 RMK AO2 SLP101 T02220144
94908KDBQ DBQ20030721170009407/21/03 17:00:31  5-MIN KDBQ 212300Z 36009KT 10SM CLR 22/14 A2984 1150 61 2300 360/09 RMK AO2
94908KDBQ DBQ20030721170509407/21/03 17:05:31  5-MIN KDBQ 212305Z 36011KT 10SM CLR 22/14 A2984 1160 61 2300 360/11 RMK AO2
94908KDBQ DBQ20030721171009407/21/03 17:10:31  5-MIN KDBQ 212310Z 01010KT 10SM CLR 22/14 A2984 1160 61 2300 010/10 RMK AO2
94908KDBQ DBQ20030721171509407/21/03 17:15:31  5-MIN KDBQ 212315Z 01011KT 10SM CLR 22/14 A2984 1150 61 2300 010/11 RMK AO2
94908KDBQ DBQ20030721172009407/21/03 17:20:31  5-MIN KDBQ 212320Z 36009KT 10SM CLR 22/14 A2984 1150 61 2300 360/09 RMK AO2
94908KDBQ DBQ20030721172509407/21/03 17:25:31  5-MIN KDBQ 212325Z 36008KT 10SM CLR 22/15 A2984 1150 65 2200 360/08 RMK AO2
94908KDBQ DBQ20030721173009407/21/03 17:30:31  5-MIN KDBQ 212330Z 36007KT 10SM CLR 22/15 A2984 1160 65 2200 360/07 RMK AO2
94908KDBQ DBQ20030721173509407/21/03 17:35:31  5-MIN KDBQ 212335Z 35007KT 10SM CLR 22/15 A2984 1150 65 2200 350/07 RMK AO2
94908KDBQ DBQ20030721174009407/21/03 17:40:31  5-MIN KDBQ 212340Z 35008KT 10SM CLR 22/15 A2984 1150 65 2200 350/08 RMK AO2
94908KDBQ DBQ20030721174509407/21/03 17:45:31  5-MIN KDBQ 212345Z 35007KT 10SM CLR 22/16 A2984 1150 68 2200 350/07 RMK AO2
94908KDBQ DBQ20030721175012907/21/03 17:50:31  5-MIN KDBQ 212350Z 35006KT 10SM CLR 22/16 A2984 1150 68 2200 350/06 RMK AO2 SLP100 T02170156 10256 20217 53009
94908KDBQ DBQ20030721175512907/21/03 17:55:31  5-MIN KDBQ 212355Z 34006KT 10SM CLR 22/16 A2984 1150 68 2200 340/06 RMK AO2 SLP101 T02170156 10256 20217 51008
94908KDBQ DBQ20030721180009407/21/03 18:00:31  5-MIN KDBQ 220000Z 34008KT 10SM CLR 22/16 A2985 1150 68 2200 340/08 RMK AO2
94908KDBQ DBQ20030721180509407/21/03 18:05:31  5-MIN KDBQ 220005Z 34008KT 10SM CLR 22/15 A2985 1140 65 2200 340/08 RMK AO2
94908KDBQ DBQ20030721181009407/21/03 18:10:31  5-MIN KDBQ 220010Z 33005KT 10SM CLR 22/16 A2985 1140 68 2200 330/05 RMK AO2
94908KDBQ DBQ20030721181509407/21/03 18:15:31  5-MIN KDBQ 220015Z 33005KT 10SM CLR 21/16 A2985 1140 70 2200 330/05 RMK AO2
94908KDBQ DBQ20030721182009407/21/03 18:20:31  5-MIN KDBQ 220020Z 34006KT 10SM CLR 21/16 A2985 1140 70 2200 340/06 RMK AO2
94908KDBQ DBQ20030721182509407/21/03 18:25:31  5-MIN KDBQ 220025Z 35007KT 10SM CLR 21/16 A2985 1140 70 2200 350/07 RMK AO2
94908KDBQ DBQ20030721183009407/21/03 18:30:31  5-MIN KDBQ 220030Z 35006KT 10SM CLR 21/15 A2985 1140 68 2200 350/06 RMK AO2
94908KDBQ DBQ20030721183509407/21/03 18:35:31  5-MIN KDBQ 220035Z 35007KT 10SM CLR 21/16 A2985 1140 70 2200 340/07 RMK AO2
94908KDBQ DBQ20030721184010407/21/03 18:40:31  5-MIN KDBQ 220040Z AUTO 34006KT 10SM CLR 21/16 A2985 1140 70 2200 340/06 RMK AO2 TSNO
94908KDBQ DBQ20030721184510407/21/03 18:45:31  5-MIN KDBQ 220045Z AUTO 33007KT 10SM CLR 21/16 A2986 1140 73 2100 330/07 RMK AO2 TSNO
94908KDBQ DBQ20030721185012107/21/03 18:50:31  5-MIN KDBQ 220050Z AUTO 33007KT 10SM CLR 21/16 A2986 1130 73 2100 330/07 RMK AO2 SLP107 T02060156 TSNO
94908KDBQ DBQ20030721185512107/21/03 18:55:31  5-MIN KDBQ 220055Z AUTO 34006KT 10SM CLR 21/16 A2986 1140 73 2100 340/06 RMK AO2 SLP106 T02060156 TSNO
94908KDBQ DBQ20030721190010407/21/03 19:00:31  5-MIN KDBQ 220100Z AUTO 34005KT 10SM CLR 21/16 A2986 1140 73 2100 330/05 RMK AO2 TSNO
94908KDBQ DBQ20030721190510407/21/03 19:05:31  5-MIN KDBQ 220105Z AUTO 33005KT 10SM CLR 20/16 A2986 1140 75 2000 330/05 RMK AO2 TSNO
94908KDBQ DBQ20030721191010407/21/03 19:10:31  5-MIN KDBQ 220110Z AUTO 33005KT 10SM CLR 20/16 A2986 1140 75 2000 320/05 RMK AO2 TSNO
94908KDBQ DBQ20030721191510407/21/03 19:15:31  5-MIN KDBQ 220115Z AUTO 33005KT 10SM CLR 19/16 A2986 1140 78 2000 330/05 RMK AO2 TSNO
94908KDBQ DBQ20030721192010407/21/03 19:20:31  5-MIN KDBQ 220120Z AUTO 33005KT 10SM CLR 19/16 A2986 1140 78 2000 330/05 RMK AO2 TSNO
94908KDBQ DBQ20030721192510407/21/03 19:25:31  5-MIN KDBQ 220125Z AUTO 33005KT 10SM CLR 19/16 A2985 1140 78 2000 330/05 RMK AO2 TSNO
94908KDBQ DBQ20030721193010707/21/03 19:30:31  5-MIN KDBQ 220130Z AUTO 33005KT 10SM FEW080 19/16 A2985 1140 78 2000 330/05 RMK AO2 TSNO
94908KDBQ DBQ20030721193510707/21/03 19:35:31  5-MIN KDBQ 220135Z AUTO 34006KT 10SM FEW080 19/16 A2985 1140 78 2000 330/06 RMK AO2 TSNO
94908KDBQ DBQ20030721194010407/21/03 19:40:31  5-MIN KDBQ 220140Z AUTO 34006KT 10SM CLR 19/16 A2985 1140 81 2000 340/06 RMK AO2 TSNO
94908KDBQ DBQ20030721194510707/21/03 19:45:31  5-MIN KDBQ 220145Z AUTO 34006KT 10SM FEW044 19/16 A2985 1140 78 2000 330/06 RMK AO2 TSNO
94908KDBQ DBQ20030721195012407/21/03 19:50:31  5-MIN KDBQ 220150Z AUTO 34006KT 10SM FEW042 19/16 A2985 1140 81 1900 340/06 RMK AO2 SLP104 T01890156 TSNO
94908KDBQ DBQ20030721195512407/21/03 19:55:31  5-MIN KDBQ 220155Z AUTO 34006KT 10SM SCT042 19/16 A2985 1140 78 2000 340/06 RMK AO2 SLP104 T01940156 TSNO
94908KDBQ DBQ20030721200010707/21/03 20:00:31  5-MIN KDBQ 220200Z AUTO 34006KT 10SM SCT042 19/16 A2985 1140 84 1900 330/06 RMK AO2 TSNO
94908KDBQ DBQ20030721200511407/21/03 20:05:31  5-MIN KDBQ 220205Z AUTO 34006KT 10SM SCT042 BKN075 19/16 A2986 1140 81 2000 340/06 RMK AO2 TSNO
94908KDBQ DBQ20030721201011407/21/03 20:10:31  5-MIN KDBQ 220210Z AUTO 33006KT 10SM FEW042 BKN075 19/16 A2986 1140 81 1900 330/06 RMK AO2 TSNO
94908KDBQ DBQ20030721201511407/21/03 20:15:31  5-MIN KDBQ 220215Z AUTO 33007KT 10SM FEW042 BKN075 19/16 A2986 1140 78 2000 330/07 RMK AO2 TSNO
94908KDBQ DBQ20030721202011407/21/03 20:20:31  5-MIN KDBQ 220220Z AUTO 33007KT 10SM FEW040 BKN075 19/16 A2986 1130 78 2000 330/07 RMK AO2 TSNO
94908KDBQ DBQ20030721202510707/21/03 20:25:31  5-MIN KDBQ 220225Z AUTO 33007KT 10SM BKN080 19/16 A2986 1130 78 2000 330/07 RMK AO2 TSNO
94908KDBQ DBQ20030721203010707/21/03 20:30:31  5-MIN KDBQ 220230Z AUTO 33008KT 10SM BKN080 19/16 A2987 1130 81 1900 330/08 RMK AO2 TSNO
94908KDBQ DBQ20030721203510707/21/03 20:35:31  5-MIN KDBQ 220235Z AUTO 34007KT 10SM BKN080 19/16 A2987 1130 81 1900 340/07 RMK AO2 TSNO
94908KDBQ DBQ20030721204010707/21/03 20:40:31  5-MIN KDBQ 220240Z AUTO 34008KT 10SM SCT080 19/16 A2987 1130 81 1900 340/08 RMK AO2 TSNO
94908KDBQ DBQ20030721204510707/21/03 20:45:31  5-MIN KDBQ 220245Z AUTO 35007KT 10SM SCT080 19/16 A2987 1130 81 1900 350/07 RMK AO2 TSNO
94908KDBQ DBQ20030721205013007/21/03 20:50:31  5-MIN KDBQ 220250Z AUTO 36007KT 10SM FEW080 19/16 A2987 1130 81 1900 360/07 RMK AO2 SLP109 T01890156 51008 TSNO
94908KDBQ DBQ20030721205512707/21/03 20:55:31  5-MIN KDBQ 220255Z AUTO 36007KT 10SM CLR 20/16 A2987 1130 75 2000 360/07 RMK AO2 SLP109 T02000156 53008 TSNO
94908KDBQ DBQ20030721210010407/21/03 21:00:31  5-MIN KDBQ 220300Z AUTO 36008KT 10SM CLR 19/15 A2987 1120 78 1900 360/08 RMK AO2 TSNO
94908KDBQ DBQ20030721210510407/21/03 21:05:31  5-MIN KDBQ 220305Z AUTO 35007KT 10SM CLR 19/15 A2987 1120 78 1900 350/07 RMK AO2 TSNO
94908KDBQ DBQ20030721211010407/21/03 21:10:31  5-MIN KDBQ 220310Z AUTO 34006KT 10SM CLR 18/16 A2988 1120 84 1800 340/06 RMK AO2 TSNO
94908KDBQ DBQ20030721211510707/21/03 21:15:31  5-MIN KDBQ 220315Z AUTO 35006KT 10SM FEW080 18/16 A2988 1120 84 1800 350/06 RMK AO2 TSNO
94908KDBQ DBQ20030721212010707/21/03 21:20:31  5-MIN KDBQ 220320Z AUTO 35006KT 10SM FEW080 18/16 A2988 1120 84 1800 350/06 RMK AO2 TSNO
94908KDBQ DBQ20030721212510707/21/03 21:25:31  5-MIN KDBQ 220325Z AUTO 35007KT 10SM FEW080 19/16 A2988 1120 81 1900 350/07 RMK AO2 TSNO
94908KDBQ DBQ20030721213010707/21/03 21:30:31  5-MIN KDBQ 220330Z AUTO 35007KT 10SM FEW080 19/15 A2988 1120 78 1900 350/07 RMK AO2 TSNO
94908KDBQ DBQ20030721213510707/21/03 21:35:31  5-MIN KDBQ 220335Z AUTO 35008KT 10SM FEW080 19/15 A2988 1120 78 1900 350/08 RMK AO2 TSNO
94908KDBQ DBQ20030721214010707/21/03 21:40:31  5-MIN KDBQ 220340Z AUTO 34007KT 10SM FEW080 19/15 A2988 1110 78 1900 340/07 RMK AO2 TSNO
94908KDBQ DBQ20030721214510407/21/03 21:45:31  5-MIN KDBQ 220345Z AUTO 34006KT 10SM CLR 18/15 A2988 1120 81 1800 340/06 RMK AO2 TSNO
94908KDBQ DBQ20030721215012107/21/03 21:50:31  5-MIN KDBQ 220350Z AUTO 35006KT 10SM CLR 18/15 A2988 1110 81 1800 350/06 RMK AO2 SLP114 T01830150 TSNO
94908KDBQ DBQ20030721215512107/21/03 21:55:31  5-MIN KDBQ 220355Z AUTO 35005KT 10SM CLR 18/15 A2988 1110 81 1800 350/05 RMK AO2 SLP115 T01830150 TSNO
94908KDBQ DBQ20030721220010407/21/03 22:00:31  5-MIN KDBQ 220400Z AUTO 36007KT 10SM CLR 18/15 A2988 1110 81 1800 360/07 RMK AO2 TSNO
94908KDBQ DBQ20030721220510707/21/03 22:05:31  5-MIN KDBQ 220405Z AUTO 36008KT 10SM FEW080 19/15 A2989 1110 78 1900 350/08 RMK AO2 TSNO
94908KDBQ DBQ20030721221010707/21/03 22:10:31  5-MIN KDBQ 220410Z AUTO 35007KT 10SM FEW080 19/15 A2989 1110 78 1900 350/07 RMK AO2 TSNO
94908KDBQ DBQ20030721221510707/21/03 22:15:31  5-MIN KDBQ 220415Z AUTO 35007KT 10SM FEW080 18/15 A2989 1110 81 1800 350/07 RMK AO2 TSNO
94908KDBQ DBQ20030721222010707/21/03 22:20:31  5-MIN KDBQ 220420Z AUTO 35008KT 10SM FEW080 18/15 A2989 1110 81 1800 350/08 RMK AO2 TSNO
94908KDBQ DBQ20030721222510707/21/03 22:25:31  5-MIN KDBQ 220425Z AUTO 35007KT 10SM SCT080 18/15 A2989 1110 81 1800 350/07 RMK AO2 TSNO
94908KDBQ DBQ20030721223010707/21/03 22:30:31  5-MIN KDBQ 220430Z AUTO 35006KT 10SM SCT085 18/15 A2989 1110 81 1800 350/06 RMK AO2 TSNO
94908KDBQ DBQ20030721223510707/21/03 22:35:31  5-MIN KDBQ 220435Z AUTO 35008KT 10SM BKN085 19/15 A2989 1100 78 1900 350/08 RMK AO2 TSNO
94908KDBQ DBQ20030721224010707/21/03 22:40:31  5-MIN KDBQ 220440Z AUTO 35006KT 10SM BKN085 18/15 A2989 1100 81 1800 350/06 RMK AO2 TSNO
94908KDBQ DBQ20030721224510707/21/03 22:45:31  5-MIN KDBQ 220445Z AUTO 35007KT 10SM BKN085 18/15 A2989 1100 81 1800 350/07 RMK AO2 TSNO
94908KDBQ DBQ20030721225012407/21/03 22:50:31  5-MIN KDBQ 220450Z AUTO 36007KT 10SM BKN085 18/15 A2989 1100 81 1800 350/07 RMK AO2 SLP116 T01830150 TSNO
94908KDBQ DBQ20030721225512407/21/03 22:55:31  5-MIN KDBQ 220455Z AUTO 35007KT 10SM OVC085 18/15 A2989 1100 81 1800 350/07 RMK AO2 SLP116 T01830150 TSNO
94908KDBQ DBQ20030721230010707/21/03 23:00:31  5-MIN KDBQ 220500Z AUTO 35008KT 10SM OVC085 18/15 A2989 1110 81 1800 350/08 RMK AO2 TSNO
94908KDBQ DBQ20030721230510707/21/03 23:05:31  5-MIN KDBQ 220505Z AUTO 36008KT 10SM BKN085 18/15 A2989 1100 81 1800 360/08 RMK AO2 TSNO
94908KDBQ DBQ20030721231010707/21/03 23:10:31  5-MIN KDBQ 220510Z AUTO 36008KT 10SM BKN085 18/15 A2989 1100 81 1800 350/08 RMK AO2 TSNO
94908KDBQ DBQ20030721231510707/21/03 23:15:31  5-MIN KDBQ 220515Z AUTO 36007KT 10SM BKN085 18/15 A2990 1100 81 1800 360/07 RMK AO2 TSNO
94908KDBQ DBQ20030721232010707/21/03 23:20:31  5-MIN KDBQ 220520Z AUTO 36008KT 10SM BKN085 18/15 A2989 1100 81 1800 360/08 RMK AO2 TSNO
94908KDBQ DBQ20030721232510707/21/03 23:25:31  5-MIN KDBQ 220525Z AUTO 01009KT 10SM BKN085 18/14 A2989 1100 78 1800 010/09 RMK AO2 TSNO
94908KDBQ DBQ20030721233010707/21/03 23:30:31  5-MIN KDBQ 220530Z AUTO 01008KT 10SM SCT085 18/14 A2989 1100 78 1800 010/08 RMK AO2 TSNO
94908KDBQ DBQ20030721233510707/21/03 23:35:31  5-MIN KDBQ 220535Z AUTO 01008KT 10SM FEW085 18/14 A2989 1100 78 1800 010/08 RMK AO2 TSNO
94908KDBQ DBQ20030721234010707/21/03 23:40:31  5-MIN KDBQ 220540Z AUTO 01008KT 10SM FEW085 18/14 A2989 1100 78 1800 010/08 RMK AO2 TSNO
94908KDBQ DBQ20030721234510707/21/03 23:45:31  5-MIN KDBQ 220545Z AUTO 01010KT 10SM FEW085 18/14 A2989 1100 78 1800 010/10 RMK AO2 TSNO
94908KDBQ DBQ20030721235014907/21/03 23:50:31  5-MIN KDBQ 220550Z AUTO 01010KT 10SM CLR 18/14 A2989 1100 78 1800 010/10 RMK AO2 SLP117 T01830144 10217 20183 402560178 53008 TSNO
94908KDBQ DBQ20030721235514907/21/03 23:55:31  5-MIN KDBQ 220555Z AUTO 01010KT 10SM CLR 18/14 A2989 1100 75 1800 010/10 RMK AO2 SLP116 T01830139 10217 20183 402560178 51007 TSNO
94908KDBQ DBQ20030722000010407/22/03 00:00:31  5-MIN KDBQ 220600Z AUTO 02011KT 10SM CLR 18/14 A2989 1110 75 1800 020/11 RMK AO2 TSNO
94908KDBQ DBQ20030722000510407/22/03 00:05:31  5-MIN KDBQ 220605Z AUTO 02010KT 10SM CLR 18/14 A2989 1100 75 1800 020/10 RMK AO2 TSNO
94908KDBQ DBQ20030722001010407/22/03 00:10:31  5-MIN KDBQ 220610Z AUTO 01012KT 10SM CLR 18/14 A2990 1100 75 1800 010/12 RMK AO2 TSNO
94908KDBQ DBQ20030722001510407/22/03 00:15:31  5-MIN KDBQ 220615Z AUTO 03010KT 10SM CLR 18/14 A2990 1100 75 1800 030/10 RMK AO2 TSNO
94908KDBQ DBQ20030722002010407/22/03 00:20:31  5-MIN KDBQ 220620Z AUTO 03010KT 10SM CLR 18/14 A2990 1100 75 1800 030/10 RMK AO2 TSNO
94908KDBQ DBQ20030722002510407/22/03 00:25:31  5-MIN KDBQ 220625Z AUTO 02010KT 10SM CLR 18/14 A2990 1100 75 1800 020/10 RMK AO2 TSNO
94908KDBQ DBQ20030722003010407/22/03 00:30:31  5-MIN KDBQ 220630Z AUTO 03010KT 10SM CLR 18/14 A2990 1100 78 1700 020/10 RMK AO2 TSNO
94908KDBQ DBQ20030722003510407/22/03 00:35:31  5-MIN KDBQ 220635Z AUTO 02012KT 10SM CLR 18/14 A2990 1100 75 1800 010/12 RMK AO2 TSNO
94908KDBQ DBQ20030722004010407/22/03 00:40:31  5-MIN KDBQ 220640Z AUTO 03010KT 10SM CLR 18/14 A2990 1100 75 1800 030/10 RMK AO2 TSNO
94908KDBQ DBQ20030722004510407/22/03 00:45:31  5-MIN KDBQ 220645Z AUTO 03010KT 10SM CLR 18/14 A2990 1100 78 1700 030/10 RMK AO2 TSNO
94908KDBQ DBQ20030722005012107/22/03 00:50:31  5-MIN KDBQ 220650Z AUTO 02011KT 10SM CLR 18/14 A2989 1100 78 1700 020/11 RMK AO2 SLP117 T01780139 TSNO
94908KDBQ DBQ20030722005512107/22/03 00:55:31  5-MIN KDBQ 220655Z AUTO 03011KT 10SM CLR 18/14 A2990 1100 78 1700 030/11 RMK AO2 SLP118 T01780139 TSNO
94908KDBQ DBQ20030722010010407/22/03 01:00:31  5-MIN KDBQ 220700Z AUTO 01009KT 10SM CLR 18/14 A2990 1100 78 1700 010/09 RMK AO2 TSNO
94908KDBQ DBQ20030722010510407/22/03 01:05:31  5-MIN KDBQ 220705Z AUTO 02008KT 10SM CLR 18/14 A2989 1100 78 1700 020/08 RMK AO2 TSNO
94908KDBQ DBQ20030722011010407/22/03 01:10:31  5-MIN KDBQ 220710Z AUTO 01008KT 10SM CLR 17/14 A2990 1100 80 1700 010/08 RMK AO2 TSNO
94908KDBQ DBQ20030722011510407/22/03 01:15:31  5-MIN KDBQ 220715Z AUTO 02007KT 10SM CLR 17/14 A2990 1100 83 1700 010/07 RMK AO2 TSNO
94908KDBQ DBQ20030722012010407/22/03 01:20:31  5-MIN KDBQ 220720Z AUTO 36007KT 10SM CLR 17/14 A2990 1100 83 1700 360/07 RMK AO2 TSNO
94908KDBQ DBQ20030722012510407/22/03 01:25:31  5-MIN KDBQ 220725Z AUTO 01006KT 10SM CLR 17/14 A2990 1100 83 1700 010/06 RMK AO2 TSNO
94908KDBQ DBQ20030722013010407/22/03 01:30:31  5-MIN KDBQ 220730Z AUTO 01005KT 10SM CLR 17/14 A2990 1090 83 1600 010/05 RMK AO2 TSNO
94908KDBQ DBQ20030722013510407/22/03 01:35:31  5-MIN KDBQ 220735Z AUTO 01006KT 10SM CLR 17/14 A2990 1090 83 1600 010/06 RMK AO2 TSNO
94908KDBQ DBQ20030722014010407/22/03 01:40:31  5-MIN KDBQ 220740Z AUTO 36006KT 10SM CLR 17/14 A2990 1090 83 1600 360/06 RMK AO2 TSNO
94908KDBQ DBQ20030722014510407/22/03 01:45:31  5-MIN KDBQ 220745Z AUTO 01007KT 10SM CLR 17/14 A2990 1090 86 1600 360/07 RMK AO2 TSNO
94908KDBQ DBQ20030722015012107/22/03 01:50:31  5-MIN KDBQ 220750Z AUTO 01006KT 10SM CLR 17/14 A2991 1090 86 1600 010/06 RMK AO2 SLP122 T01670144 TSNO
94908KDBQ DBQ20030722015512107/22/03 01:55:31  5-MIN KDBQ 220755Z AUTO 01005KT 10SM CLR 17/14 A2991 1090 83 1600 010/05 RMK AO2 SLP123 T01670139 TSNO
94908KDBQ DBQ20030722020010407/22/03 02:00:31  5-MIN KDBQ 220800Z AUTO 36006KT 10SM CLR 17/14 A2991 1090 83 1600 360/06 RMK AO2 TSNO
94908KDBQ DBQ20030722020510407/22/03 02:05:31  5-MIN KDBQ 220805Z AUTO 01006KT 10SM CLR 17/14 A2991 1090 83 1600 360/06 RMK AO2 TSNO
94908KDBQ DBQ20030722021010407/22/03 02:10:31  5-MIN KDBQ 220810Z AUTO 36005KT 10SM CLR 16/14 A2991 1090 86 1500 360/05 RMK AO2 TSNO
94908KDBQ DBQ20030722021510407/22/03 02:15:31  5-MIN KDBQ 220815Z AUTO 36006KT 10SM CLR 16/14 A2991 1080 86 1500 360/06 RMK AO2 TSNO
94908KDBQ DBQ20030722022010407/22/03 02:20:31  5-MIN KDBQ 220820Z AUTO 36006KT 10SM CLR 16/14 A2991 1080 86 1500 360/06 RMK AO2 TSNO
94908KDBQ DBQ20030722022510407/22/03 02:25:31  5-MIN KDBQ 220825Z AUTO 36005KT 10SM CLR 16/14 A2991 1090 86 1500 360/05 RMK AO2 TSNO
94908KDBQ DBQ20030722023010407/22/03 02:30:31  5-MIN KDBQ 220830Z AUTO 35005KT 10SM CLR 16/14 A2992 1080 86 1500 350/05 RMK AO2 TSNO
94908KDBQ DBQ20030722023510407/22/03 02:35:31  5-MIN KDBQ 220835Z AUTO 35004KT 10SM CLR 16/14 A2992 1080 90 1400 350/04 RMK AO2 TSNO
94908KDBQ DBQ20030722024010407/22/03 02:40:31  5-MIN KDBQ 220840Z AUTO 34005KT 10SM CLR 15/14 A2992 1080 93 1400 340/05 RMK AO2 TSNO
94908KDBQ DBQ20030722024510407/22/03 02:45:31  5-MIN KDBQ 220845Z AUTO 33004KT 10SM CLR 15/14 A2992 1080 93 1400 330/04 RMK AO2 TSNO
94908KDBQ DBQ20030722025013007/22/03 02:50:31  5-MIN KDBQ 220850Z AUTO 34005KT 10SM FEW026 15/14 A2992 1080 93 1400 340/05 RMK AO2 SLP128 T01500139 51007 TSNO
94908KDBQ DBQ20030722025513007/22/03 02:55:31  5-MIN KDBQ 220855Z AUTO 33005KT 10SM SCT026 16/14 A2992 1080 90 1400 330/05 RMK AO2 SLP128 T01560139 53009 TSNO
94908KDBQ DBQ20030722030010707/22/03 03:00:31  5-MIN KDBQ 220900Z AUTO 33005KT 10SM BKN026 16/14 A2992 1080 90 1400 330/05 RMK AO2 TSNO
94908KDBQ DBQ20030722030510707/22/03 03:05:31  5-MIN KDBQ 220905Z AUTO 33005KT 10SM BKN026 16/14 A2992 1080 93 1400 330/05 RMK AO2 TSNO
94908KDBQ DBQ20030722031010707/22/03 03:10:31  5-MIN KDBQ 220910Z AUTO 34005KT 10SM BKN026 16/14 A2992 1070 93 1400 340/05 RMK AO2 TSNO
94908KDBQ DBQ20030722031510707/22/03 03:15:31  5-MIN KDBQ 220915Z AUTO 34006KT 10SM BKN026 16/14 A2993 1070 90 1400 340/06 RMK AO2 TSNO
94908KDBQ DBQ20030722032010707/22/03 03:20:31  5-MIN KDBQ 220920Z AUTO 34006KT 10SM BKN026 16/14 A2993 1070 90 1400 340/06 RMK AO2 TSNO
94908KDBQ DBQ20030722032510707/22/03 03:25:31  5-MIN KDBQ 220925Z AUTO 34005KT 10SM BKN026 16/14 A2993 1070 90 1400 340/05 RMK AO2 TSNO
94908KDBQ DBQ20030722033010707/22/03 03:30:31  5-MIN KDBQ 220930Z AUTO 33007KT 10SM BKN024 16/14 A2993 1070 93 1400 330/07 RMK AO2 TSNO
94908KDBQ DBQ20030722033510707/22/03 03:35:31  5-MIN KDBQ 220935Z AUTO 33007KT 10SM BKN024 16/14 A2993 1070 93 1400 330/07 RMK AO2 TSNO
94908KDBQ DBQ20030722034010707/22/03 03:40:31  5-MIN KDBQ 220940Z AUTO 32007KT 10SM BKN024 16/14 A2993 1070 93 1400 320/07 RMK AO2 TSNO
94908KDBQ DBQ20030722034510707/22/03 03:45:31  5-MIN KDBQ 220945Z AUTO 32006KT 10SM OVC024 16/14 A2994 1060 90 1400 320/06 RMK AO2 TSNO
94908KDBQ DBQ20030722035012407/22/03 03:50:31  5-MIN KDBQ 220950Z AUTO 32006KT 10SM OVC024 16/14 A2994 1060 90 1400 320/06 RMK AO2 SLP135 T01560139 TSNO
94908KDBQ DBQ20030722035512407/22/03 03:55:31  5-MIN KDBQ 220955Z AUTO 33006KT 10SM OVC024 16/14 A2994 1060 90 1400 330/06 RMK AO2 SLP135 T01560139 TSNO
94908KDBQ DBQ20030722040010707/22/03 04:00:31  5-MIN KDBQ 221000Z AUTO 34005KT 10SM OVC022 16/14 A2994 1060 90 1400 340/05 RMK AO2 TSNO
94908KDBQ DBQ20030722040510707/22/03 04:05:31  5-MIN KDBQ 221005Z AUTO 34006KT 10SM OVC022 15/13 A2994 1060 90 1300 340/06 RMK AO2 TSNO
94908KDBQ DBQ20030722041010707/22/03 04:10:31  5-MIN KDBQ 221010Z AUTO 34006KT 10SM BKN022 15/13 A2994 1060 90 1300 340/06 RMK AO2 TSNO
94908KDBQ DBQ20030722041510707/22/03 04:15:31  5-MIN KDBQ 221015Z AUTO 35005KT 10SM BKN022 15/13 A2994 1060 90 1300 350/05 RMK AO2 TSNO
94908KDBQ DBQ20030722042010707/22/03 04:20:31  5-MIN KDBQ 221020Z AUTO 36006KT 10SM OVC024 15/13 A2994 1060 90 1300 360/06 RMK AO2 TSNO
94908KDBQ DBQ20030722042510707/22/03 04:25:31  5-MIN KDBQ 221025Z AUTO 36005KT 10SM OVC024 15/13 A2994 1060 90 1300 360/05 RMK AO2 TSNO
94908KDBQ DBQ20030722043010707/22/03 04:30:31  5-MIN KDBQ 221030Z AUTO 36006KT 10SM OVC024 15/13 A2994 1060 90 1300 360/06 RMK AO2 TSNO
94908KDBQ DBQ20030722043510707/22/03 04:35:31  5-MIN KDBQ 221035Z AUTO 35006KT 10SM OVC024 15/13 A2995 1050 90 1300 350/06 RMK AO2 TSNO
94908KDBQ DBQ20030722044010707/22/03 04:40:31  5-MIN KDBQ 221040Z AUTO 35006KT 10SM OVC024 15/13 A2995 1050 90 1300 350/06 RMK AO2 TSNO
94908KDBQ DBQ20030722044509707/22/03 04:45:31  5-MIN KDBQ 221045Z 36007KT 10SM OVC024 15/13 A2995 1050 90 1300 350/07 RMK AO2
94908KDBQ DBQ20030722045011407/22/03 04:50:31  5-MIN KDBQ 221050Z 36007KT 10SM BKN024 14/13 A2995 1050 93 1300 360/07 RMK AO2 SLP140 T01440133
94908KDBQ DBQ20030722045511407/22/03 04:55:31  5-MIN KDBQ 221055Z 01007KT 10SM SCT024 14/13 A2995 1050 93 1300 010/07 RMK AO2 SLP140 T01440133
94908KDBQ DBQ20030722050009707/22/03 05:00:31  5-MIN KDBQ 221100Z 01008KT 10SM SCT024 14/13 A2995 1050 93 1300 010/08 RMK AO2
94908KDBQ DBQ20030722050509707/22/03 05:05:31  5-MIN KDBQ 221105Z 36007KT 10SM FEW022 14/13 A2995 1050 93 1300 360/07 RMK AO2
94908KDBQ DBQ20030722051009707/22/03 05:10:31  5-MIN KDBQ 221110Z 36007KT 10SM FEW022 14/13 A2995 1050 93 1300 360/07 RMK AO2
94908KDBQ DBQ20030722051509407/22/03 05:15:31  5-MIN KDBQ 221115Z 35008KT 10SM CLR 14/13 A2995 1050 93 1300 350/08 RMK AO2
94908KDBQ DBQ20030722052009407/22/03 05:20:31  5-MIN KDBQ 221120Z 36008KT 10SM CLR 14/13 A2996 1040 93 1300 350/08 RMK AO2
94908KDBQ DBQ20030722052509407/22/03 05:25:31  5-MIN KDBQ 221125Z 35007KT 10SM CLR 14/13 A2996 1040 93 1300 350/07 RMK AO2
94908KDBQ DBQ20030722053009407/22/03 05:30:31  5-MIN KDBQ 221130Z 36007KT 10SM CLR 14/13 A2996 1040 93 1300 350/07 RMK AO2
94908KDBQ DBQ20030722053509407/22/03 05:35:31  5-MIN KDBQ 221135Z 36007KT 10SM CLR 14/13 A2996 1040 93 1300 360/07 RMK AO2
94908KDBQ DBQ20030722054009407/22/03 05:40:31  5-MIN KDBQ 221140Z 35008KT 10SM CLR 14/13 A2996 1040 93 1300 350/08 RMK AO2
94908KDBQ DBQ20030722054509407/22/03 05:45:31  5-MIN KDBQ 221145Z 35008KT 10SM CLR 14/13 A2997 1040 93 1300 350/08 RMK AO2
94908KDBQ DBQ20030722055012907/22/03 05:50:31  5-MIN KDBQ 221150Z 35009KT 10SM CLR 14/13 A2997 1040 93 1300 350/09 RMK AO2 SLP145 T01440133 10183 20144 53009
94908KDBQ DBQ20030722055512907/22/03 05:55:31  5-MIN KDBQ 221155Z 35008KT 10SM CLR 14/13 A2997 1030 93 1200 350/08 RMK AO2 SLP145 T01440133 10183 20144 51016
94908KDBQ DBQ20030722060009707/22/03 06:00:31  5-MIN KDBQ 221200Z 35007KT 10SM BKN022 14/13 A2997 1030 93 1200 350/07 RMK AO2
94908KDBQ DBQ20030722060509707/22/03 06:05:31  5-MIN KDBQ 221205Z 35008KT 10SM BKN022 14/13 A2997 1030 93 1200 350/08 RMK AO2
94908KDBQ DBQ20030722061009707/22/03 06:10:31  5-MIN KDBQ 221210Z 36008KT 10SM BKN013 14/13 A2997 1030 93 1200 360/08 RMK AO2
94908KDBQ DBQ20030722061509707/22/03 06:15:31  5-MIN KDBQ 221215Z 36009KT 10SM BKN013 14/13 A2997 1030 93 1200 360/09 RMK AO2
94908KDBQ DBQ20030722062009707/22/03 06:20:31  5-MIN KDBQ 221220Z 36010KT 10SM BKN013 15/13 A2998 1030 90 1300 360/10 RMK AO2
94908KDBQ DBQ20030722062509707/22/03 06:25:31  5-MIN KDBQ 221225Z 36008KT 10SM OVC013 15/13 A2998 1030 90 1300 360/08 RMK AO2
94908KDBQ DBQ20030722063009707/22/03 06:30:31  5-MIN KDBQ 221230Z 01009KT 10SM OVC011 15/13 A2998 1030 90 1300 010/09 RMK AO2
94908KDBQ DBQ20030722063509707/22/03 06:35:31  5-MIN KDBQ 221235Z 36009KT 10SM OVC011 15/13 A2998 1020 90 1300 360/09 RMK AO2
94908KDBQ DBQ20030722064009707/22/03 06:40:31  5-MIN KDBQ 221240Z 36011KT 10SM OVC011 15/13 A2998 1020 90 1300 360/11 RMK AO2
94908KDBQ DBQ20030722064509707/22/03 06:45:31  5-MIN KDBQ 221245Z 36011KT 10SM OVC011 15/13 A2998 1020 90 1300 360/11 RMK AO2
94908KDBQ DBQ20030722065011407/22/03 06:50:31  5-MIN KDBQ 221250Z 01009KT 10SM OVC011 15/13 A2998 1020 90 1300 010/09 RMK AO2 SLP150 T01500133
94908KDBQ DBQ20030722065511407/22/03 06:55:31  5-MIN KDBQ 221255Z 01009KT 10SM OVC011 16/13 A2998 1020 86 1400 010/09 RMK AO2 SLP150 T01560133
94908KDBQ DBQ20030722070010407/22/03 07:00:31  5-MIN KDBQ 221300Z 36011KT 10SM BKN011 OVC019 16/13 A2999 1020 86 1400 360/11 RMK AO2
94908KDBQ DBQ20030722070510407/22/03 07:05:31  5-MIN KDBQ 221305Z 36011KT 10SM BKN011 OVC019 16/13 A2998 1020 86 1400 360/11 RMK AO2
94908KDBQ DBQ20030722071010407/22/03 07:10:31  5-MIN KDBQ 221310Z 01010KT 10SM BKN011 OVC019 16/13 A2999 1020 86 1400 360/10 RMK AO2
94908KDBQ DBQ20030722071510407/22/03 07:15:31  5-MIN KDBQ 221315Z 01009KT 10SM BKN011 OVC019 16/13 A2999 1010 86 1400 360/09 RMK AO2
94908KDBQ DBQ20030722072010407/22/03 07:20:31  5-MIN KDBQ 221320Z 36010KT 10SM BKN011 OVC019 16/13 A2999 1010 83 1400 360/10 RMK AO2
94908KDBQ DBQ20030722072510407/22/03 07:25:31  5-MIN KDBQ 221325Z 36008KT 10SM BKN011 OVC019 16/14 A2999 1010 86 1400 360/08 RMK AO2
94908KDBQ DBQ20030722073010407/22/03 07:30:31  5-MIN KDBQ 221330Z 01008KT 10SM BKN011 OVC021 16/14 A2999 1010 86 1400 010/08 RMK AO2
94908KDBQ DBQ20030722073510407/22/03 07:35:31  5-MIN KDBQ 221335Z 01009KT 10SM BKN011 OVC021 16/13 A2999 1010 83 1400 010/09 RMK AO2
94908KDBQ DBQ20030722074010407/22/03 07:40:31  5-MIN KDBQ 221340Z 36010KT 10SM BKN011 OVC021 17/14 A2999 1010 83 1500 350/10 RMK AO2
94908KDBQ DBQ20030722074510407/22/03 07:45:31  5-MIN KDBQ 221345Z 01010KT 10SM BKN011 OVC021 16/13 A3000 1010 83 1400 010/10 RMK AO2
94908KDBQ DBQ20030722075011407/22/03 07:50:31  5-MIN KDBQ 221350Z 01008KT 10SM OVC011 17/14 A3000 1010 83 1500 010/08 RMK AO2 SLP156 T01670139
94908KDBQ DBQ20030722075511407/22/03 07:55:31  5-MIN KDBQ 221355Z 01008KT 10SM OVC011 17/14 A3000 1000 83 1500 010/08 RMK AO2 SLP156 T01670139
94908KDBQ DBQ20030722080009707/22/03 08:00:31  5-MIN KDBQ 221400Z 02009KT 10SM OVC013 17/13 A3000 1000 80 1500 010/09 RMK AO2
94908KDBQ DBQ20030722080509707/22/03 08:05:31  5-MIN KDBQ 221405Z 02009KT 10SM OVC013 17/14 A3000 1000 80 1500 020/09 RMK AO2
94908KDBQ DBQ20030722081009707/22/03 08:10:31  5-MIN KDBQ 221410Z 02009KT 10SM OVC013 18/14 A3000 1000 78 1600 020/09 RMK AO2
94908KDBQ DBQ20030722081509707/22/03 08:15:31  5-MIN KDBQ 221415Z 02010KT 10SM BKN013 18/14 A3000 1000 78 1600 020/10 RMK AO2
94908KDBQ DBQ20030722082010407/22/03 08:20:31  5-MIN KDBQ 221420Z 03009KT 10SM BKN013 BKN028 18/14 A3000 1000 78 1600 030/09 RMK AO2
94908KDBQ DBQ20030722082510407/22/03 08:25:31  5-MIN KDBQ 221425Z 02009KT 10SM BKN015 BKN028 18/14 A3000 1000 78 1700 020/09 RMK AO2
94908KDBQ DBQ20030722083010407/22/03 08:30:31  5-MIN KDBQ 221430Z 03009KT 10SM BKN015 OVC028 18/14 A3000 1000 78 1600 030/09 RMK AO2
94908KDBQ DBQ20030722083510407/22/03 08:35:31  5-MIN KDBQ 221435Z 03009KT 10SM BKN015 OVC028 18/14 A3000 1000 78 1600 030/09 RMK AO2
94908KDBQ DBQ20030722084011107/22/03 08:40:31  5-MIN KDBQ 221440Z 03009KT 10SM BKN015 BKN028 OVC036 18/14 A3000 1000 78 1600 030/09 RMK AO2
94908KDBQ DBQ20030722084511107/22/03 08:45:31  5-MIN KDBQ 221445Z 03008KT 10SM BKN015 BKN028 OVC036 18/14 A3000 1000 75 1700 030/08 RMK AO2
94908KDBQ DBQ20030722085013407/22/03 08:50:31  5-MIN KDBQ 221450Z 02008KT 10SM BKN015 BKN028 OVC038 18/14 A3000 1000 78 1600 020/08 RMK AO2 SLP157 T01780139 51016
94908KDBQ DBQ20030722085513407/22/03 08:55:31  5-MIN KDBQ 221455Z 03009KT 10SM BKN017 BKN028 OVC038 18/14 A3000 1000 75 1700 030/09 RMK AO2 SLP156 T01830139 51011
94908KDBQ DBQ20030722090011107/22/03 09:00:31  5-MIN KDBQ 221500Z 03009KT 10SM BKN017 BKN030 OVC040 19/14 A3000 1000 75 1700 030/09 RMK AO2
94908KDBQ DBQ20030722090510407/22/03 09:05:31  5-MIN KDBQ 221505Z 02010KT 10SM BKN017 OVC040 19/14 A3000 1000 75 1700 020/10 RMK AO2
94908KDBQ DBQ20030722091010407/22/03 09:10:31  5-MIN KDBQ 221510Z 01009KT 10SM BKN017 OVC040 19/14 A3000 1000 72 1800 010/09 RMK AO2
94908KDBQ DBQ20030722091510407/22/03 09:15:31  5-MIN KDBQ 221515Z 35010KT 10SM BKN017 OVC040 19/14 A3000 1000 75 1700 350/10 RMK AO2
94908KDBQ DBQ20030722092010407/22/03 09:20:31  5-MIN KDBQ 221520Z 01010KT 10SM BKN017 OVC040 18/14 A3000 1000 75 1700 360/10 RMK AO2
94908KDBQ DBQ20030722092510407/22/03 09:25:31  5-MIN KDBQ 221525Z 35008KT 10SM BKN017 OVC040 18/14 A3001 1000 75 1700 350/08 RMK AO2
94908KDBQ DBQ20030722093010407/22/03 09:30:31  5-MIN KDBQ 221530Z 01009KT 10SM BKN017 OVC040 18/14 A3001 1000 75 1700 010/09 RMK AO2
94908KDBQ DBQ20030722093509707/22/03 09:35:31  5-MIN KDBQ 221535Z 36010KT 10SM OVC017 18/14 A3001 1000 75 1700 360/10 RMK AO2
94908KDBQ DBQ20030722094009707/22/03 09:40:31  5-MIN KDBQ 221540Z 36008KT 10SM OVC017 18/14 A3001 1000 75 1700 360/08 RMK AO2
94908KDBQ DBQ20030722094509707/22/03 09:45:31  5-MIN KDBQ 221545Z 36009KT 10SM OVC019 18/14 A3001 1000 75 1700 350/09 RMK AO2
94908KDBQ DBQ20030722095012107/22/03 09:50:31  5-MIN KDBQ 221550Z 02009KT 10SM BKN019 OVC024 18/14 A3001 1000 75 1700 020/09 RMK AO2 SLP158 T01830139
94908KDBQ DBQ20030722095512107/22/03 09:55:31  5-MIN KDBQ 221555Z 01011KT 10SM BKN019 OVC024 19/14 A3001 1000 72 1700 010/11 RMK AO2 SLP158 T01890139
94908KDBQ DBQ20030722100010407/22/03 10:00:31  5-MIN KDBQ 221600Z 03010KT 10SM BKN019 OVC026 19/14 A3001 1000 72 1800 030/10 RMK AO2
94908KDBQ DBQ20030722100510307/22/03 10:05:31  5-MIN KDBQ 221605Z 01009G15KT 10SM OVC019 19/14 A3001 1000 72 1700 010/09G15 RMK AO2
94908KDBQ DBQ20030722101010907/22/03 10:10:31  5-MIN KDBQ 221610Z 02009G15KT 10SM BKN021 OVC026 19/14 A3001 990 70 1800 020/09G15 RMK AO2
94908KDBQ DBQ20030722101510307/22/03 10:15:31  5-MIN KDBQ 221615Z 03010KT 10SM BKN021 OVC026 19/14 A3001 990 70 1800 030/10 RMK AO2
94908KDBQ DBQ20030722102010307/22/03 10:20:31  5-MIN KDBQ 221620Z 02010KT 10SM SCT021 OVC026 19/14 A3002 990 70 1800 020/10 RMK AO2
94908KDBQ DBQ20030722102510307/22/03 10:25:31  5-MIN KDBQ 221625Z 35011KT 10SM BKN021 OVC026 19/14 A3002 990 72 1700 350/11 RMK AO2
94908KDBQ DBQ20030722103009607/22/03 10:30:31  5-MIN KDBQ 221630Z 35010KT 10SM OVC023 19/14 A3002 990 72 1800 350/10 RMK AO2
94908KDBQ DBQ20030722103509607/22/03 10:35:31  5-MIN KDBQ 221635Z 01010KT 10SM OVC023 19/14 A3001 990 72 1700 010/10 RMK AO2
94908KDBQ DBQ20030722104010307/22/03 10:40:31  5-MIN KDBQ 221640Z 01009KT 10SM BKN025 OVC031 19/14 A3001 990 72 1800 010/09 RMK AO2
94908KDBQ DBQ20030722104510307/22/03 10:45:31  5-MIN KDBQ 221645Z 02012KT 10SM FEW020 OVC028 19/14 A3002 990 70 1800 020/12 RMK AO2
94908KDBQ DBQ20030722105012707/22/03 10:50:31  5-MIN KDBQ 221650Z 01009KT 10SM FEW020 BKN028 OVC034 19/14 A3001 990 70 1800 010/09 RMK AO2 SLP161 T01940139
94908KDBQ DBQ20030722105512007/22/03 10:55:31  5-MIN KDBQ 221655Z 01011KT 10SM SCT026 BKN032 21/14 A3001 990 65 1900 010/11 RMK AO2 SLP160 T02060139
94908KDBQ DBQ20030722110010907/22/03 11:00:31  5-MIN KDBQ 221700Z 01009G16KT 10SM SCT026 BKN034 21/14 A3001 990 65 2000 010/09G16 RMK AO2
94908KDBQ DBQ20030722110511007/22/03 11:05:31  5-MIN KDBQ 221705Z 36009KT 10SM SCT024 BKN030 BKN037 20/14 A3001 990 70 1800 360/09 RMK AO2
94908KDBQ DBQ20030722111011007/22/03 11:10:31  5-MIN KDBQ 221710Z 35007KT 10SM SCT022 BKN028 BKN037 20/14 A3001 990 70 1800 350/07 RMK AO2
94908KDBQ DBQ20030722111510307/22/03 11:15:31  5-MIN KDBQ 221715Z 35008KT 10SM SCT022 BKN037 21/15 A3001 990 70 1900 350/08 RMK AO2
94908KDBQ DBQ20030722112010407/22/03 11:20:31  5-MIN KDBQ 221720Z 02011KT 10SM SCT022 BKN037 21/14 A3001 1000 67 1900 020/11 RMK AO2
94908KDBQ DBQ20030722112510307/22/03 11:25:31  5-MIN KDBQ 221725Z 02010KT 10SM SCT024 BKN039 21/14 A3001 990 63 2000 010/10 RMK AO2
94908KDBQ DBQ20030722113011007/22/03 11:30:31  5-MIN KDBQ 221730Z 01007KT 10SM SCT024 SCT030 BKN039 21/14 A3001 990 65 2000 010/07 RMK AO2
94908KDBQ DBQ20030722113511007/22/03 11:35:31  5-MIN KDBQ 221735Z 02007KT 10SM FEW024 SCT030 BKN039 21/14 A3001 990 65 2000 020/07 RMK AO2
94908KDBQ DBQ20030722114010307/22/03 11:40:31  5-MIN KDBQ 221740Z 35009KT 10SM SCT026 BKN039 20/14 A3001 990 70 1800 340/09 RMK AO2
94908KDBQ DBQ20030722114510307/22/03 11:45:31  5-MIN KDBQ 221745Z 01007KT 10SM SCT027 BKN041 20/14 A3001 990 67 1800 360/07 RMK AO2
94908KDBQ DBQ20030722115014507/22/03 11:50:31  5-MIN KDBQ 221750Z 36007KT 10SM FEW027 BKN041 BKN050 21/14 A3001 990 65 1900 360/07 RMK AO2 SLP160 T02060139 10211 20144 51011
94908KDBQ DBQ20030722115514507/22/03 11:55:31  5-MIN KDBQ 221755Z 01007KT 10SM FEW027 BKN041 BKN050 21/14 A3001 990 65 1900 010/07 RMK AO2 SLP159 T02060139 10211 20144 50003
94908KDBQ DBQ20030722120011007/22/03 12:00:31  5-MIN KDBQ 221800Z 02008KT 10SM FEW027 SCT041 BKN070 21/14 A3001 990 63 2000 020/08 RMK AO2
94908KDBQ DBQ20030722120511007/22/03 12:05:31  5-MIN KDBQ 221805Z 33011KT 10SM SCT027 SCT041 BKN055 22/14 A3001 990 63 2000 330/11 RMK AO2
94908KDBQ DBQ20030722121011007/22/03 12:10:31  5-MIN KDBQ 221810Z 33012KT 10SM SCT029 BKN041 BKN055 20/14 A3001 990 67 1800 330/12 RMK AO2
94908KDBQ DBQ20030722121511007/22/03 12:15:31  5-MIN KDBQ 221815Z 34009KT 10SM SCT029 BKN041 BKN055 20/14 A3001 990 67 1800 340/09 RMK AO2
94908KDBQ DBQ20030722122011107/22/03 12:20:31  5-MIN KDBQ 221820Z 36007KT 10SM BKN031 BKN041 BKN070 21/14 A3001 1000 65 1900 360/07 RMK AO2
94908KDBQ DBQ20030722122511107/22/03 12:25:31  5-MIN KDBQ 221825Z 02013KT 10SM BKN031 BKN042 BKN070 20/14 A3001 1000 67 1800 020/13 RMK AO2
94908KDBQ DBQ20030722123011707/22/03 12:30:31  5-MIN KDBQ 221830Z 01009G15KT 10SM BKN031 BKN045 OVC070 21/13 A3001 1000 63 1900 360/09G15 RMK AO2
94908KDBQ DBQ20030722123511107/22/03 12:35:31  5-MIN KDBQ 221835Z 01008KT 10SM SCT031 SCT045 OVC070 21/14 A3001 1000 65 1900 010/08 RMK AO2
94908KDBQ DBQ20030722124011107/22/03 12:40:31  5-MIN KDBQ 221840Z 36010KT 10SM FEW031 SCT045 BKN070 21/14 A3000 1000 65 1900 360/10 RMK AO2
94908KDBQ DBQ20030722124511107/22/03 12:45:31  5-MIN KDBQ 221845Z 01009KT 10SM FEW031 BKN065 BKN080 22/14 A3000 1000 61 2000 360/09 RMK AO2
94908KDBQ DBQ20030722125012807/22/03 12:50:31  5-MIN KDBQ 221850Z 01011KT 10SM FEW033 SCT060 BKN075 22/14 A3001 1000 59 2100 010/11 RMK AO2 SLP157 T02220139
94908KDBQ DBQ20030722125512807/22/03 12:55:31  5-MIN KDBQ 221855Z 01010KT 10SM SCT033 SCT060 BKN075 21/13 A3001 1000 61 2000 360/10 RMK AO2 SLP158 T02110133
94908KDBQ DBQ20030722130011107/22/03 13:00:31  5-MIN KDBQ 221900Z 36010KT 10SM SCT033 BKN065 BKN080 21/13 A3001 1000 63 1900 360/10 RMK AO2
94908KDBQ DBQ20030722130511107/22/03 13:05:31  5-MIN KDBQ 221905Z 36007KT 10SM FEW035 SCT060 BKN080 21/14 A3001 1000 65 1900 360/07 RMK AO2
94908KDBQ DBQ20030722131011107/22/03 13:10:31  5-MIN KDBQ 221910Z 01011KT 10SM FEW035 SCT060 OVC080 21/13 A3000 1000 63 1900 010/11 RMK AO2
94908KDBQ DBQ20030722131511707/22/03 13:15:31  5-MIN KDBQ 221915Z 36009G16KT 10SM FEW035 SCT060 BKN080 21/12 A3000 1000 56 2000 360/09G16 RMK AO2
94908KDBQ DBQ20030722132011007/22/03 13:20:31  5-MIN KDBQ 221920Z 01013G16KT 10SM FEW035 BKN085 22/13 A3000 1000 56 2100 010/13G16 RMK AO2
94908KDBQ DBQ20030722132510407/22/03 13:25:31  5-MIN KDBQ 221925Z 01008KT 10SM FEW037 SCT080 22/13 A3000 1000 56 2100 010/08 RMK AO2
94908KDBQ DBQ20030722133010407/22/03 13:30:31  5-MIN KDBQ 221930Z 01010KT 10SM FEW041 BKN080 23/14 A3000 1000 57 2200 010/10 RMK AO2
94908KDBQ DBQ20030722133511107/22/03 13:35:31  5-MIN KDBQ 221935Z 36008KT 10SM SCT037 SCT044 BKN085 21/13 A3001 1000 61 2000 350/08 RMK AO2
94908KDBQ DBQ20030722134011107/22/03 13:40:31  5-MIN KDBQ 221940Z 35009KT 10SM SCT037 SCT047 BKN055 21/13 A3001 1000 63 1900 350/09 RMK AO2
94908KDBQ DBQ20030722134512107/22/03 13:45:31  5-MIN KDBQ 221945Z AUTO 36007KT 10SM SCT039 BKN055 BKN075 21/13 A3001 1000 63 1900 360/07 RMK AO2 TSNO
94908KDBQ DBQ20030722135013807/22/03 13:50:31  5-MIN KDBQ 221950Z AUTO 01008KT 10SM FEW037 BKN055 OVC090 21/13 A3001 1000 61 2000 010/08 RMK AO2 SLP159 T02110133 TSNO
94908KDBQ DBQ20030722135513807/22/03 13:55:31  5-MIN KDBQ 221955Z AUTO 01008KT 10SM FEW037 SCT044 OVC090 21/13 A3001 1000 61 2000 360/08 RMK AO2 SLP159 T02110133 TSNO
94908KDBQ DBQ20030722140012007/22/03 14:00:31  5-MIN KDBQ 222000Z AUTO 36008KT 10SM FEW037 SCT055 OVC090 21/13 A3001 990 61 2000 360/08 RMK AO2 TSNO
94908KDBQ DBQ20030722140512007/22/03 14:05:31  5-MIN KDBQ 222005Z AUTO 36006KT 10SM FEW043 SCT060 OVC090 21/13 A3001 990 61 2000 360/06 RMK AO2 TSNO
94908KDBQ DBQ20030722141011007/22/03 14:10:31  5-MIN KDBQ 222010Z 34010KT 10SM FEW043 BKN075 OVC090 21/13 A3001 990 61 2000 340/10 RMK AO2
94908KDBQ DBQ20030722141510307/22/03 14:15:31  5-MIN KDBQ 222015Z 36009KT 10SM FEW065 BKN090 21/14 A3001 990 63 2000 350/09 RMK AO2
94908KDBQ DBQ20030722142010407/22/03 14:20:31  5-MIN KDBQ 222020Z 35010KT 10SM FEW065 OVC090 21/14 A3001 1000 63 2000 350/10 RMK AO2
94908KDBQ DBQ20030722142510307/22/03 14:25:31  5-MIN KDBQ 222025Z 35009KT 10SM FEW042 OVC090 21/13 A3001 990 61 2000 350/09 RMK AO2
94908KDBQ DBQ20030722143011007/22/03 14:30:31  5-MIN KDBQ 222030Z 35007KT 10SM FEW042 SCT065 OVC090 21/14 A3001 990 63 2000 350/07 RMK AO2
94908KDBQ DBQ20030722143511007/22/03 14:35:31  5-MIN KDBQ 222035Z 34009KT 10SM FEW042 SCT050 OVC090 21/13 A3001 990 61 2000 340/09 RMK AO2
94908KDBQ DBQ20030722144011007/22/03 14:40:31  5-MIN KDBQ 222040Z 35008KT 10SM FEW042 BKN065 OVC090 21/13 A3001 990 61 2000 350/08 RMK AO2
94908KDBQ DBQ20030722144511007/22/03 14:45:31  5-MIN KDBQ 222045Z 35008KT 10SM FEW042 SCT050 OVC090 21/13 A3001 990 61 2000 350/08 RMK AO2
94908KDBQ DBQ20030722145013407/22/03 14:50:31  5-MIN KDBQ 222050Z 36008KT 10SM FEW042 SCT065 BKN090 22/13 A3001 1000 58 2000 360/08 RMK AO2 SLP159 T02170133 50003
94908KDBQ DBQ20030722145513407/22/03 14:55:31  5-MIN KDBQ 222055Z 01008KT 10SM FEW042 SCT050 BKN090 22/13 A3001 1000 58 2000 360/08 RMK AO2 SLP159 T02170133 56001
94908KDBQ DBQ20030722150011107/22/03 15:00:31  5-MIN KDBQ 222100Z 35011KT 10SM SCT042 SCT050 BKN065 21/13 A3001 1000 58 2000 350/11 RMK AO2
94908KDBQ DBQ20030722150511107/22/03 15:05:31  5-MIN KDBQ 222105Z 35008KT 10SM FEW040 BKN050 BKN065 21/13 A3001 1000 63 1900 350/08 RMK AO2
94908KDBQ DBQ20030722151011107/22/03 15:10:31  5-MIN KDBQ 222110Z 35009KT 10SM FEW040 BKN080 OVC090 21/13 A3001 1000 60 1900 350/09 RMK AO2
94908KDBQ DBQ20030722151511107/22/03 15:15:31  5-MIN KDBQ 222115Z 35009KT 10SM FEW040 SCT065 OVC085 21/12 A3000 1000 58 1900 350/09 RMK AO2
94908KDBQ DBQ20030722152011107/22/03 15:20:31  5-MIN KDBQ 222120Z 35010KT 10SM FEW040 SCT070 OVC085 21/13 A3000 1000 60 1900 350/10 RMK AO2
94908KDBQ DBQ20030722152511107/22/03 15:25:31  5-MIN KDBQ 222125Z 36009KT 10SM FEW040 SCT065 OVC085 21/13 A3001 1000 58 2000 360/09 RMK AO2
94908KDBQ DBQ20030722153010407/22/03 15:30:31  5-MIN KDBQ 222130Z 35008KT 10SM FEW055 OVC090 21/13 A3000 1000 58 2000 350/08 RMK AO2
94908KDBQ DBQ20030722153509707/22/03 15:35:31  5-MIN KDBQ 222135Z 36008KT 10SM OVC090 22/13 A3001 1000 56 2000 360/08 RMK AO2
94908KDBQ DBQ20030722154009707/22/03 15:40:31  5-MIN KDBQ 222140Z 36008KT 10SM OVC090 22/13 A3001 1000 56 2000 360/08 RMK AO2
94908KDBQ DBQ20030722154509707/22/03 15:45:31  5-MIN KDBQ 222145Z 36007KT 10SM OVC090 22/12 A3000 1000 54 2000 360/07 RMK AO2
94908KDBQ DBQ20030722155011407/22/03 15:50:31  5-MIN KDBQ 222150Z 36008KT 10SM BKN090 22/12 A3000 1000 54 2000 360/08 RMK AO2 SLP157 T02170122
94908KDBQ DBQ20030722155511407/22/03 15:55:31  5-MIN KDBQ 222155Z 35011KT 10SM BKN095 23/12 A3000 1000 51 2200 350/11 RMK AO2 SLP155 T02280122
94908KDBQ DBQ20030722160009707/22/03 16:00:31  5-MIN KDBQ 222200Z 36010KT 10SM BKN095 23/12 A3000 1000 51 2200 360/10 RMK AO2
94908KDBQ DBQ20030722160509707/22/03 16:05:31  5-MIN KDBQ 222205Z 36009KT 10SM BKN095 23/12 A3000 1000 51 2200 360/09 RMK AO2
94908KDBQ DBQ20030722161009707/22/03 16:10:31  5-MIN KDBQ 222210Z 34011KT 10SM BKN095 22/12 A3000 1000 54 2100 340/11 RMK AO2
94908KDBQ DBQ20030722161509707/22/03 16:15:31  5-MIN KDBQ 222215Z 35010KT 10SM SCT095 22/12 A3000 1000 52 2100 350/10 RMK AO2
94908KDBQ DBQ20030722162009707/22/03 16:20:31  5-MIN KDBQ 222220Z 36007KT 10SM SCT095 22/12 A3000 1000 52 2100 360/07 RMK AO2
94908KDBQ DBQ20030722162509707/22/03 16:25:31  5-MIN KDBQ 222225Z 36008KT 10SM FEW095 23/12 A3000 1010 51 2200 360/08 RMK AO2
94908KDBQ DBQ20030722163009707/22/03 16:30:31  5-MIN KDBQ 222230Z 36011KT 10SM FEW095 23/12 A3000 1010 49 2200 360/11 RMK AO2
94908KDBQ DBQ20030722163509707/22/03 16:35:31  5-MIN KDBQ 222235Z 01014KT 10SM FEW049 23/12 A3000 1010 49 2200 010/14 RMK AO2
94908KDBQ DBQ20030722164010407/22/03 16:40:31  5-MIN KDBQ 222240Z 01013KT 10SM FEW049 SCT070 22/11 A3000 1000 49 2000 010/13 RMK AO2
94908KDBQ DBQ20030722164510407/22/03 16:45:31  5-MIN KDBQ 222245Z 36011KT 10SM FEW049 SCT070 21/10 A3000 1010 48 2000 360/11 RMK AO2
94908KDBQ DBQ20030722165011407/22/03 16:50:31  5-MIN KDBQ 222250Z 36011KT 10SM FEW049 21/10 A3000 1010 48 2000 360/11 RMK AO2 SLP155 T02110100
94908KDBQ DBQ20030722165511407/22/03 16:55:31  5-MIN KDBQ 222255Z 01011KT 10SM FEW049 21/11 A3000 1010 50 2000 010/11 RMK AO2 SLP156 T02110106
94908KDBQ DBQ20030722170009707/22/03 17:00:31  5-MIN KDBQ 222300Z 01011KT 10SM FEW049 21/11 A3000 1010 52 1900 010/11 RMK AO2
94908KDBQ DBQ20030722170509707/22/03 17:05:31  5-MIN KDBQ 222305Z 36008KT 10SM FEW075 21/11 A3000 1010 52 2000 360/08 RMK AO2
94908KDBQ DBQ20030722171009407/22/03 17:10:31  5-MIN KDBQ 222310Z 35010KT 10SM CLR 21/12 A3000 1000 54 2000 350/10 RMK AO2
94908KDBQ DBQ20030722171509407/22/03 17:15:31  5-MIN KDBQ 222315Z 35009KT 10SM CLR 21/12 A3000 1000 56 1900 350/09 RMK AO2
94908KDBQ DBQ20030722172009407/22/03 17:20:31  5-MIN KDBQ 222320Z 36009KT 10SM CLR 21/12 A3000 1000 56 1900 350/09 RMK AO2
94908KDBQ DBQ20030722172509407/22/03 17:25:31  5-MIN KDBQ 222325Z 36009KT 10SM CLR 21/12 A3000 1000 54 2000 350/09 RMK AO2
94908KDBQ DBQ20030722173009407/22/03 17:30:31  5-MIN KDBQ 222330Z 35007KT 10SM CLR 21/12 A3000 1000 56 2000 350/07 RMK AO2
94908KDBQ DBQ20030722173509407/22/03 17:35:31  5-MIN KDBQ 222335Z 35009KT 10SM CLR 22/12 A3000 1000 54 2100 350/09 RMK AO2
94908KDBQ DBQ20030722174009407/22/03 17:40:31  5-MIN KDBQ 222340Z 35011KT 10SM CLR 21/12 A3000 1000 56 2000 350/11 RMK AO2
94908KDBQ DBQ20030722174509407/22/03 17:45:31  5-MIN KDBQ 222345Z 35010KT 10SM CLR 21/12 A3000 1000 56 2000 350/10 RMK AO2
94908KDBQ DBQ20030722175012907/22/03 17:50:31  5-MIN KDBQ 222350Z 35011KT 10SM CLR 21/12 A3000 1000 56 2000 350/11 RMK AO2 SLP156 T02110122 10233 20200 56001
94908KDBQ DBQ20030722175512907/22/03 17:55:31  5-MIN KDBQ 222355Z 36010KT 10SM CLR 21/12 A3000 1000 56 2000 360/10 RMK AO2 SLP157 T02110122 10233 20200 55002
94908KDBQ DBQ20030722180009407/22/03 18:00:31  5-MIN KDBQ 230000Z 36011KT 10SM CLR 21/12 A3000 1000 56 2000 360/11 RMK AO2
94908KDBQ DBQ20030722180509407/22/03 18:05:31  5-MIN KDBQ 230005Z 36009KT 10SM CLR 21/12 A3000 1000 56 2000 360/09 RMK AO2
94908KDBQ DBQ20030722181009407/22/03 18:10:31  5-MIN KDBQ 230010Z 36009KT 10SM CLR 21/12 A3000 1000 54 2000 360/09 RMK AO2
94908KDBQ DBQ20030722181509407/22/03 18:15:31  5-MIN KDBQ 230015Z 36009KT 10SM CLR 21/12 A3001 1000 56 2000 360/09 RMK AO2
94908KDBQ DBQ20030722182009407/22/03 18:20:31  5-MIN KDBQ 230020Z 36008KT 10SM CLR 21/12 A3000 1000 58 1900 360/08 RMK AO2
94908KDBQ DBQ20030722182509407/22/03 18:25:31  5-MIN KDBQ 230025Z 36008KT 10SM CLR 21/12 A3000 1000 58 1900 360/08 RMK AO2
94908KDBQ DBQ20030722183009407/22/03 18:30:31  5-MIN KDBQ 230030Z 36010KT 10SM CLR 20/12 A3001 1000 58 1900 360/10 RMK AO2
94908KDBQ DBQ20030722183510407/22/03 18:35:31  5-MIN KDBQ 230035Z AUTO 36011KT 10SM CLR 20/12 A3001 1000 58 1900 360/11 RMK AO2 TSNO
94908KDBQ DBQ20030722184010407/22/03 18:40:31  5-MIN KDBQ 230040Z AUTO 36010KT 10SM CLR 19/12 A3001 1000 60 1800 360/10 RMK AO2 TSNO
94908KDBQ DBQ20030722184510407/22/03 18:45:31  5-MIN KDBQ 230045Z AUTO 36010KT 10SM CLR 20/11 A3001 1000 56 1800 360/10 RMK AO2 TSNO
94908KDBQ DBQ20030722185012107/22/03 18:50:31  5-MIN KDBQ 230050Z AUTO 36011KT 10SM CLR 20/11 A3001 1000 56 1800 360/11 RMK AO2 SLP160 T02000111 TSNO
94908KDBQ DBQ20030722185512007/22/03 18:55:31  5-MIN KDBQ 230055Z AUTO 36009KT 10SM CLR 20/11 A3001 990 56 1800 360/09 RMK AO2 SLP160 T02000111 TSNO
94908KDBQ DBQ20030722190010407/22/03 19:00:31  5-MIN KDBQ 230100Z AUTO 36009KT 10SM CLR 19/12 A3001 1000 60 1800 360/09 RMK AO2 TSNO
94908KDBQ DBQ20030722190510307/22/03 19:05:31  5-MIN KDBQ 230105Z AUTO 35008KT 10SM CLR 19/12 A3001 990 62 1700 350/08 RMK AO2 TSNO
94908KDBQ DBQ20030722191010307/22/03 19:10:31  5-MIN KDBQ 230110Z AUTO 35009KT 10SM CLR 19/12 A3002 990 62 1700 350/09 RMK AO2 TSNO
94908KDBQ DBQ20030722191510307/22/03 19:15:31  5-MIN KDBQ 230115Z AUTO 35009KT 10SM CLR 19/12 A3002 990 62 1700 350/09 RMK AO2 TSNO
94908KDBQ DBQ20030722192010307/22/03 19:20:31  5-MIN KDBQ 230120Z AUTO 35009KT 10SM CLR 19/12 A3002 990 62 1700 350/09 RMK AO2 TSNO
94908KDBQ DBQ20030722192510307/22/03 19:25:31  5-MIN KDBQ 230125Z AUTO 35008KT 10SM CLR 18/12 A3002 990 67 1600 350/08 RMK AO2 TSNO
94908KDBQ DBQ20030722193010307/22/03 19:30:31  5-MIN KDBQ 230130Z AUTO 35008KT 10SM CLR 18/12 A3002 990 67 1600 350/08 RMK AO2 TSNO
94908KDBQ DBQ20030722193510307/22/03 19:35:31  5-MIN KDBQ 230135Z AUTO 35009KT 10SM CLR 18/12 A3002 990 67 1600 350/09 RMK AO2 TSNO
94908KDBQ DBQ20030722194010307/22/03 19:40:31  5-MIN KDBQ 230140Z AUTO 35008KT 10SM CLR 17/12 A3002 990 69 1500 350/08 RMK AO2 TSNO
94908KDBQ DBQ20030722194510307/22/03 19:45:31  5-MIN KDBQ 230145Z AUTO 35008KT 10SM CLR 17/12 A3002 990 69 1500 350/08 RMK AO2 TSNO
94908KDBQ DBQ20030722195012007/22/03 19:50:31  5-MIN KDBQ 230150Z AUTO 34008KT 10SM CLR 17/12 A3002 990 69 1500 340/08 RMK AO2 SLP164 T01720117 TSNO
94908KDBQ DBQ20030722195512007/22/03 19:55:31  5-MIN KDBQ 230155Z AUTO 35008KT 10SM CLR 17/12 A3002 980 69 1500 340/08 RMK AO2 SLP165 T01720117 TSNO
94908KDBQ DBQ20030722200010307/22/03 20:00:31  5-MIN KDBQ 230200Z AUTO 34009KT 10SM CLR 17/12 A3002 980 69 1500 340/09 RMK AO2 TSNO
94908KDBQ DBQ20030722200510307/22/03 20:05:31  5-MIN KDBQ 230205Z AUTO 34008KT 10SM CLR 17/12 A3003 980 69 1500 340/08 RMK AO2 TSNO
94908KDBQ DBQ20030722201010307/22/03 20:10:31  5-MIN KDBQ 230210Z AUTO 34009KT 10SM CLR 17/12 A3003 980 69 1500 340/09 RMK AO2 TSNO
94908KDBQ DBQ20030722201510307/22/03 20:15:31  5-MIN KDBQ 230215Z AUTO 34009KT 10SM CLR 17/12 A3003 980 69 1500 340/09 RMK AO2 TSNO
94908KDBQ DBQ20030722202010307/22/03 20:20:31  5-MIN KDBQ 230220Z AUTO 34009KT 10SM CLR 17/12 A3003 980 69 1500 340/09 RMK AO2 TSNO
94908KDBQ DBQ20030722202510307/22/03 20:25:31  5-MIN KDBQ 230225Z AUTO 34009KT 10SM CLR 17/12 A3003 980 69 1500 340/09 RMK AO2 TSNO
94908KDBQ DBQ20030722203010307/22/03 20:30:31  5-MIN KDBQ 230230Z AUTO 35008KT 10SM CLR 17/12 A3003 970 69 1500 350/08 RMK AO2 TSNO
94908KDBQ DBQ20030722203510307/22/03 20:35:31  5-MIN KDBQ 230235Z AUTO 35007KT 10SM CLR 17/12 A3004 970 72 1400 350/07 RMK AO2 TSNO
94908KDBQ DBQ20030722204010307/22/03 20:40:31  5-MIN KDBQ 230240Z AUTO 34007KT 10SM CLR 17/12 A3004 970 75 1400 340/07 RMK AO2 TSNO
94908KDBQ DBQ20030722204510307/22/03 20:45:31  5-MIN KDBQ 230245Z AUTO 34007KT 10SM CLR 17/12 A3004 970 72 1400 340/07 RMK AO2 TSNO
94908KDBQ DBQ20030722205012607/22/03 20:50:31  5-MIN KDBQ 230250Z AUTO 34007KT 10SM CLR 16/13 A3004 970 80 1400 340/07 RMK AO2 SLP171 T01610128 55002 TSNO
94908KDBQ DBQ20030722205512607/22/03 20:55:31  5-MIN KDBQ 230255Z AUTO 34006KT 10SM CLR 16/13 A3004 960 80 1400 340/06 RMK AO2 SLP172 T01610128 53014 TSNO
94908KDBQ DBQ20030722210010307/22/03 21:00:31  5-MIN KDBQ 230300Z AUTO 34006KT 10SM CLR 16/12 A3005 960 75 1400 340/06 RMK AO2 TSNO
94908KDBQ DBQ20030722210510307/22/03 21:05:31  5-MIN KDBQ 230305Z AUTO 34006KT 10SM CLR 16/12 A3005 960 75 1400 340/06 RMK AO2 TSNO
94908KDBQ DBQ20030722211010307/22/03 21:10:31  5-MIN KDBQ 230310Z AUTO 34007KT 10SM CLR 16/12 A3005 960 75 1400 340/07 RMK AO2 TSNO
94908KDBQ DBQ20030722211510307/22/03 21:15:31  5-MIN KDBQ 230315Z AUTO 34007KT 10SM CLR 16/12 A3005 960 77 1300 340/07 RMK AO2 TSNO
94908KDBQ DBQ20030722212010307/22/03 21:20:31  5-MIN KDBQ 230320Z AUTO 35007KT 10SM CLR 16/12 A3005 960 77 1300 340/07 RMK AO2 TSNO
94908KDBQ DBQ20030722212510307/22/03 21:25:31  5-MIN KDBQ 230325Z AUTO 35006KT 10SM CLR 16/12 A3005 960 75 1400 350/06 RMK AO2 TSNO
94908KDBQ DBQ20030722213010307/22/03 21:30:31  5-MIN KDBQ 230330Z AUTO 36006KT 10SM CLR 16/12 A3005 960 75 1400 350/06 RMK AO2 TSNO
94908KDBQ DBQ20030722213510307/22/03 21:35:31  5-MIN KDBQ 230335Z AUTO 35005KT 10SM CLR 16/12 A3005 960 77 1300 350/05 RMK AO2 TSNO
94908KDBQ DBQ20030722214010307/22/03 21:40:31  5-MIN KDBQ 230340Z AUTO 34007KT 10SM CLR 16/12 A3005 960 77 1300 340/07 RMK AO2 TSNO
94908KDBQ DBQ20030722214510307/22/03 21:45:31  5-MIN KDBQ 230345Z AUTO 34007KT 10SM CLR 16/12 A3005 960 77 1300 340/07 RMK AO2 TSNO
94908KDBQ DBQ20030722215012007/22/03 21:50:31  5-MIN KDBQ 230350Z AUTO 34008KT 10SM CLR 16/12 A3005 960 77 1300 340/08 RMK AO2 SLP175 T01560117 TSNO
94908KDBQ DBQ20030722215512007/22/03 21:55:31  5-MIN KDBQ 230355Z AUTO 34007KT 10SM CLR 16/12 A3005 950 77 1300 340/07 RMK AO2 SLP176 T01560117 TSNO
94908KDBQ DBQ20030722220010307/22/03 22:00:31  5-MIN KDBQ 230400Z AUTO 34006KT 10SM CLR 16/12 A3006 950 77 1300 340/06 RMK AO2 TSNO
94908KDBQ DBQ20030722220510307/22/03 22:05:31  5-MIN KDBQ 230405Z AUTO 35005KT 10SM CLR 16/12 A3006 950 77 1300 350/05 RMK AO2 TSNO
94908KDBQ DBQ20030722221010307/22/03 22:10:31  5-MIN KDBQ 230410Z AUTO 36006KT 10SM CLR 16/12 A3005 950 77 1300 360/06 RMK AO2 TSNO
94908KDBQ DBQ20030722221510307/22/03 22:15:31  5-MIN KDBQ 230415Z AUTO 36005KT 10SM CLR 16/12 A3005 950 77 1300 360/05 RMK AO2 TSNO
94908KDBQ DBQ20030722222010307/22/03 22:20:31  5-MIN KDBQ 230420Z AUTO 36005KT 10SM CLR 16/12 A3005 950 77 1300 360/05 RMK AO2 TSNO
94908KDBQ DBQ20030722222510307/22/03 22:25:31  5-MIN KDBQ 230425Z AUTO 35006KT 10SM CLR 16/12 A3005 960 77 1300 350/06 RMK AO2 TSNO
94908KDBQ DBQ20030722223010307/22/03 22:30:31  5-MIN KDBQ 230430Z AUTO 35007KT 10SM CLR 16/12 A3005 950 77 1300 350/07 RMK AO2 TSNO
94908KDBQ DBQ20030722223510307/22/03 22:35:31  5-MIN KDBQ 230435Z AUTO 35007KT 10SM CLR 16/12 A3005 960 77 1300 350/07 RMK AO2 TSNO
94908KDBQ DBQ20030722224010307/22/03 22:40:31  5-MIN KDBQ 230440Z AUTO 36007KT 10SM CLR 16/12 A3006 950 77 1300 360/07 RMK AO2 TSNO
94908KDBQ DBQ20030722224510307/22/03 22:45:31  5-MIN KDBQ 230445Z AUTO 36007KT 10SM CLR 16/12 A3006 950 77 1300 360/07 RMK AO2 TSNO
94908KDBQ DBQ20030722225012007/22/03 22:50:31  5-MIN KDBQ 230450Z AUTO 01007KT 10SM CLR 16/12 A3005 950 77 1300 360/07 RMK AO2 SLP175 T01560117 TSNO
94908KDBQ DBQ20030722225512007/22/03 22:55:31  5-MIN KDBQ 230455Z AUTO 01008KT 10SM CLR 16/12 A3006 950 77 1300 010/08 RMK AO2 SLP176 T01560117 TSNO
94908KDBQ DBQ20030722230010307/22/03 23:00:31  5-MIN KDBQ 230500Z AUTO 01008KT 10SM CLR 16/12 A3006 950 77 1300 010/08 RMK AO2 TSNO
94908KDBQ DBQ20030722230510307/22/03 23:05:31  5-MIN KDBQ 230505Z AUTO 01007KT 10SM CLR 16/12 A3006 950 77 1300 010/07 RMK AO2 TSNO
94908KDBQ DBQ20030722231010307/22/03 23:10:31  5-MIN KDBQ 230510Z AUTO 01007KT 10SM CLR 16/12 A3006 950 77 1300 010/07 RMK AO2 TSNO
94908KDBQ DBQ20030722231510307/22/03 23:15:31  5-MIN KDBQ 230515Z AUTO 01007KT 10SM CLR 16/12 A3006 950 77 1300 010/07 RMK AO2 TSNO
94908KDBQ DBQ20030722232010307/22/03 23:20:31  5-MIN KDBQ 230520Z AUTO 01008KT 10SM CLR 16/12 A3006 950 77 1300 010/08 RMK AO2 TSNO
94908KDBQ DBQ20030722232510307/22/03 23:25:31  5-MIN KDBQ 230525Z AUTO 01007KT 10SM CLR 16/12 A3006 950 77 1300 010/07 RMK AO2 TSNO
94908KDBQ DBQ20030722233010307/22/03 23:30:31  5-MIN KDBQ 230530Z AUTO 01007KT 10SM CLR 16/12 A3006 950 77 1300 010/07 RMK AO2 TSNO
94908KDBQ DBQ20030722233510307/22/03 23:35:31  5-MIN KDBQ 230535Z AUTO 02007KT 10SM CLR 15/12 A3006 950 80 1200 010/07 RMK AO2 TSNO
94908KDBQ DBQ20030722234010307/22/03 23:40:31  5-MIN KDBQ 230540Z AUTO 01007KT 10SM CLR 15/12 A3006 950 80 1200 010/07 RMK AO2 TSNO
94908KDBQ DBQ20030722234510307/22/03 23:45:31  5-MIN KDBQ 230545Z AUTO 01008KT 10SM CLR 15/12 A3007 940 80 1200 010/08 RMK AO2 TSNO
94908KDBQ DBQ20030722235014807/22/03 23:50:31  5-MIN KDBQ 230550Z AUTO 36008KT 10SM CLR 15/12 A3007 940 80 1200 360/08 RMK AO2 SLP179 T01500117 10211 20150 402330144 53014 TSNO
94908KDBQ DBQ20030722235514807/22/03 23:55:31  5-MIN KDBQ 230555Z AUTO 01008KT 10SM CLR 15/12 A3007 940 80 1200 010/08 RMK AO2 SLP180 T01500117 10211 20150 402330144 53008 TSNO
94908KDBQ DBQ20030723000010307/23/03 00:00:31  5-MIN KDBQ 230600Z AUTO 01007KT 10SM CLR 15/12 A3007 940 80 1200 010/07 RMK AO2 TSNO
94908KDBQ DBQ20030723000510307/23/03 00:05:31  5-MIN KDBQ 230605Z AUTO 01007KT 10SM CLR 15/12 A3007 940 80 1200 010/07 RMK AO2 TSNO
94908KDBQ DBQ20030723001010607/23/03 00:10:31  5-MIN KDBQ 230610Z AUTO 01006KT 10SM FEW060 15/12 A3007 940 80 1200 010/06 RMK AO2 TSNO
94908KDBQ DBQ20030723001510607/23/03 00:15:31  5-MIN KDBQ 230615Z AUTO 01007KT 10SM FEW065 15/12 A3007 940 80 1200 010/07 RMK AO2 TSNO
94908KDBQ DBQ20030723002010607/23/03 00:20:31  5-MIN KDBQ 230620Z AUTO 01008KT 10SM FEW065 15/12 A3007 940 80 1200 010/08 RMK AO2 TSNO
94908KDBQ DBQ20030723002510607/23/03 00:25:31  5-MIN KDBQ 230625Z AUTO 01007KT 10SM FEW065 15/12 A3007 940 80 1200 010/07 RMK AO2 TSNO
94908KDBQ DBQ20030723003010607/23/03 00:30:31  5-MIN KDBQ 230630Z AUTO 01008KT 10SM FEW065 15/12 A3007 940 80 1200 360/08 RMK AO2 TSNO
94908KDBQ DBQ20030723003510607/23/03 00:35:31  5-MIN KDBQ 230635Z AUTO 01007KT 10SM FEW065 15/12 A3007 940 80 1200 360/07 RMK AO2 TSNO
94908KDBQ DBQ20030723004010607/23/03 00:40:31  5-MIN KDBQ 230640Z AUTO 01007KT 10SM SCT070 15/12 A3007 940 80 1200 010/07 RMK AO2 TSNO
94908KDBQ DBQ20030723004510607/23/03 00:45:31  5-MIN KDBQ 230645Z AUTO 01008KT 10SM SCT070 15/12 A3007 940 80 1200 010/08 RMK AO2 TSNO
94908KDBQ DBQ20030723005013007/23/03 00:50:31  5-MIN KDBQ 230650Z AUTO 01008KT 10SM FEW070 SCT100 14/12 A3007 940 83 1100 010/08 RMK AO2 SLP180 T01440117 TSNO
94908KDBQ DBQ20030723005513007/23/03 00:55:31  5-MIN KDBQ 230655Z AUTO 01008KT 10SM FEW070 BKN100 14/12 A3007 940 83 1100 010/08 RMK AO2 SLP180 T01440117 TSNO
94908KDBQ DBQ20030723010011307/23/03 01:00:31  5-MIN KDBQ 230700Z AUTO 01007KT 10SM FEW070 BKN100 14/12 A3007 940 83 1100 010/07 RMK AO2 TSNO
94908KDBQ DBQ20030723010511307/23/03 01:05:31  5-MIN KDBQ 230705Z AUTO 01007KT 10SM FEW070 BKN100 14/12 A3007 940 83 1100 360/07 RMK AO2 TSNO
94908KDBQ DBQ20030723011010607/23/03 01:10:31  5-MIN KDBQ 230710Z AUTO 01007KT 10SM SCT100 14/12 A3007 940 83 1100 010/07 RMK AO2 TSNO
94908KDBQ DBQ20030723011510607/23/03 01:15:31  5-MIN KDBQ 230715Z AUTO 36008KT 10SM SCT100 14/12 A3007 940 83 1100 360/08 RMK AO2 TSNO
94908KDBQ DBQ20030723012010607/23/03 01:20:31  5-MIN KDBQ 230720Z AUTO 36008KT 10SM FEW100 14/12 A3007 940 83 1100 360/08 RMK AO2 TSNO
94908KDBQ DBQ20030723012510607/23/03 01:25:31  5-MIN KDBQ 230725Z AUTO 01008KT 10SM FEW100 14/12 A3007 940 83 1100 010/08 RMK AO2 TSNO
94908KDBQ DBQ20030723013010307/23/03 01:30:31  5-MIN KDBQ 230730Z AUTO 01008KT 10SM CLR 14/12 A3007 940 83 1100 010/08 RMK AO2 TSNO
94908KDBQ DBQ20030723013510307/23/03 01:35:31  5-MIN KDBQ 230735Z AUTO 01008KT 10SM CLR 14/12 A3007 940 86 1100 010/08 RMK AO2 TSNO
94908KDBQ DBQ20030723014010307/23/03 01:40:31  5-MIN KDBQ 230740Z AUTO 01007KT 10SM CLR 14/12 A3007 940 86 1100 010/07 RMK AO2 TSNO
94908KDBQ DBQ20030723014510307/23/03 01:45:31  5-MIN KDBQ 230745Z AUTO 36007KT 10SM CLR 14/12 A3007 940 83 1100 360/07 RMK AO2 TSNO
94908KDBQ DBQ20030723015012007/23/03 01:50:31  5-MIN KDBQ 230750Z AUTO 36007KT 10SM CLR 14/12 A3007 940 86 1100 360/07 RMK AO2 SLP181 T01390117 TSNO
94908KDBQ DBQ20030723015512007/23/03 01:55:31  5-MIN KDBQ 230755Z AUTO 36007KT 10SM CLR 14/12 A3008 930 86 1100 360/07 RMK AO2 SLP182 T01390117 TSNO
94908KDBQ DBQ20030723020010307/23/03 02:00:31  5-MIN KDBQ 230800Z AUTO 36008KT 10SM CLR 14/12 A3008 930 86 1100 360/08 RMK AO2 TSNO
94908KDBQ DBQ20030723020510307/23/03 02:05:31  5-MIN KDBQ 230805Z AUTO 01008KT 10SM CLR 14/12 A3008 930 86 1100 010/08 RMK AO2 TSNO
94908KDBQ DBQ20030723021010307/23/03 02:10:31  5-MIN KDBQ 230810Z AUTO 02007KT 10SM CLR 14/12 A3008 930 86 1100 010/07 RMK AO2 TSNO
94908KDBQ DBQ20030723021510307/23/03 02:15:31  5-MIN KDBQ 230815Z AUTO 01007KT 10SM CLR 13/12 A3008 930 89 1000 010/07 RMK AO2 TSNO
94908KDBQ DBQ20030723022010307/23/03 02:20:31  5-MIN KDBQ 230820Z AUTO 01007KT 10SM CLR 13/12 A3008 930 89 1000 010/07 RMK AO2 TSNO
94908KDBQ DBQ20030723022510307/23/03 02:25:31  5-MIN KDBQ 230825Z AUTO 01007KT 10SM CLR 13/12 A3008 930 89 1000 010/07 RMK AO2 TSNO
94908KDBQ DBQ20030723023010307/23/03 02:30:31  5-MIN KDBQ 230830Z AUTO 02006KT 10SM CLR 13/12 A3008 930 89 1000 020/06 RMK AO2 TSNO
94908KDBQ DBQ20030723023510207/23/03 02:35:31  5-MIN KDBQ 230835Z AUTO 03006KT 10SM CLR 13/12 A3008 930 93 900 030/06 RMK AO2 TSNO
94908KDBQ DBQ20030723024010307/23/03 02:40:31  5-MIN KDBQ 230840Z AUTO 03006KT 10SM CLR 13/12 A3008 930 89 1000 030/06 RMK AO2 TSNO
94908KDBQ DBQ20030723024510307/23/03 02:45:31  5-MIN KDBQ 230845Z AUTO 02007KT 10SM CLR 13/12 A3008 930 89 1000 020/07 RMK AO2 TSNO
94908KDBQ DBQ20030723025012607/23/03 02:50:31  5-MIN KDBQ 230850Z AUTO 02007KT 10SM CLR 13/12 A3008 930 89 1000 020/07 RMK AO2 SLP185 T01330117 53008 TSNO
94908KDBQ DBQ20030723025512607/23/03 02:55:31  5-MIN KDBQ 230855Z AUTO 01007KT 10SM CLR 13/12 A3008 930 89 1000 010/07 RMK AO2 SLP184 T01330117 53004 TSNO
94908KDBQ DBQ20030723030010307/23/03 03:00:31  5-MIN KDBQ 230900Z AUTO 01007KT 10SM CLR 13/12 A3009 930 89 1000 010/07 RMK AO2 TSNO
94908KDBQ DBQ20030723030510207/23/03 03:05:31  5-MIN KDBQ 230905Z AUTO 01007KT 10SM CLR 13/12 A3009 930 93 900 010/07 RMK AO2 TSNO
94908KDBQ DBQ20030723031010207/23/03 03:10:31  5-MIN KDBQ 230910Z AUTO 01007KT 10SM CLR 13/12 A3009 930 93 900 010/07 RMK AO2 TSNO
94908KDBQ DBQ20030723031510307/23/03 03:15:31  5-MIN KDBQ 230915Z AUTO 01007KT 10SM CLR 13/12 A3009 920 89 1000 010/07 RMK AO2 TSNO
94908KDBQ DBQ20030723032010307/23/03 03:20:31  5-MIN KDBQ 230920Z AUTO 01006KT 10SM CLR 13/12 A3009 920 89 1000 010/06 RMK AO2 TSNO
94908KDBQ DBQ20030723032510307/23/03 03:25:31  5-MIN KDBQ 230925Z AUTO 01006KT 10SM CLR 13/12 A3009 920 89 1000 010/06 RMK AO2 TSNO
94908KDBQ DBQ20030723033010207/23/03 03:30:31  5-MIN KDBQ 230930Z AUTO 01006KT 10SM CLR 13/12 A3009 920 93 900 010/06 RMK AO2 TSNO
94908KDBQ DBQ20030723033510507/23/03 03:35:31  5-MIN KDBQ 230935Z AUTO 01006KT 10SM FEW035 13/11 A3009 920 89 900 010/06 RMK AO2 TSNO
94908KDBQ DBQ20030723034010607/23/03 03:40:31  5-MIN KDBQ 230940Z AUTO 01007KT 10SM FEW035 13/12 A3010 920 89 1000 010/07 RMK AO2 TSNO
94908KDBQ DBQ20030723034510607/23/03 03:45:31  5-MIN KDBQ 230945Z AUTO 36007KT 10SM FEW035 13/12 A3010 920 89 1000 360/07 RMK AO2 TSNO
94908KDBQ DBQ20030723035012307/23/03 03:50:31  5-MIN KDBQ 230950Z AUTO 36006KT 10SM FEW035 13/12 A3010 910 89 1000 360/06 RMK AO2 SLP190 T01330117 TSNO
94908KDBQ DBQ20030723035512307/23/03 03:55:31  5-MIN KDBQ 230955Z AUTO 36005KT 10SM FEW035 13/12 A3010 910 89 1000 360/05 RMK AO2 SLP190 T01330117 TSNO
94908KDBQ DBQ20030723040010507/23/03 04:00:31  5-MIN KDBQ 231000Z AUTO 36005KT 10SM FEW035 12/11 A3010 910 93 800 360/05 RMK AO2 TSNO
94908KDBQ DBQ20030723040510207/23/03 04:05:31  5-MIN KDBQ 231005Z AUTO 36005KT 10SM CLR 12/11 A3010 910 93 800 360/05 RMK AO2 TSNO
94908KDBQ DBQ20030723041010207/23/03 04:10:31  5-MIN KDBQ 231010Z AUTO 01006KT 10SM CLR 12/11 A3010 910 93 800 010/06 RMK AO2 TSNO
94908KDBQ DBQ20030723041510207/23/03 04:15:31  5-MIN KDBQ 231015Z AUTO 01005KT 10SM CLR 12/11 A3011 910 93 800 360/05 RMK AO2 TSNO
94908KDBQ DBQ20030723042010207/23/03 04:20:31  5-MIN KDBQ 231020Z AUTO 36005KT 10SM CLR 12/11 A3011 900 93 800 360/05 RMK AO2 TSNO
94908KDBQ DBQ20030723042510207/23/03 04:25:31  5-MIN KDBQ 231025Z AUTO 35006KT 10SM CLR 12/11 A3011 900 89 800 350/06 RMK AO2 TSNO
94908KDBQ DBQ20030723043010207/23/03 04:30:31  5-MIN KDBQ 231030Z AUTO 35006KT 10SM CLR 12/11 A3012 900 93 800 350/06 RMK AO2 TSNO
94908KDBQ DBQ20030723043510207/23/03 04:35:31  5-MIN KDBQ 231035Z AUTO 35006KT 10SM CLR 12/11 A3012 900 93 800 350/06 RMK AO2 TSNO
94908KDBQ DBQ20030723044010207/23/03 04:40:31  5-MIN KDBQ 231040Z AUTO 36006KT 10SM CLR 12/11 A3012 900 93 800 360/06 RMK AO2 TSNO
94908KDBQ DBQ20030723044510207/23/03 04:45:31  5-MIN KDBQ 231045Z AUTO 36006KT 10SM CLR 12/11 A3012 900 93 800 360/06 RMK AO2 TSNO
94908KDBQ DBQ20030723045010907/23/03 04:50:31  5-MIN KDBQ 231050Z 36006KT 10SM CLR 13/12 A3012 900 93 900 360/06 RMK AO2 SLP197 T01280117
94908KDBQ DBQ20030723045510907/23/03 04:55:31  5-MIN KDBQ 231055Z 36006KT 10SM CLR 13/11 A3012 900 89 900 360/06 RMK AO2 SLP197 T01280111
94908KDBQ DBQ20030723050009207/23/03 05:00:31  5-MIN KDBQ 231100Z 36006KT 10SM CLR 13/11 A3012 890 89 900 360/06 RMK AO2
94908KDBQ DBQ20030723050509207/23/03 05:05:31  5-MIN KDBQ 231105Z 36006KT 10SM CLR 13/11 A3012 890 89 900 360/06 RMK AO2
94908KDBQ DBQ20030723051009207/23/03 05:10:31  5-MIN KDBQ 231110Z 36006KT 10SM CLR 13/11 A3012 890 89 900 360/06 RMK AO2
94908KDBQ DBQ20030723051509207/23/03 05:15:31  5-MIN KDBQ 231115Z 36006KT 10SM CLR 13/12 A3013 890 89 900 360/06 RMK AO2
94908KDBQ DBQ20030723052009207/23/03 05:20:31  5-MIN KDBQ 231120Z 36006KT 10SM CLR 13/12 A3013 890 89 900 360/06 RMK AO2
94908KDBQ DBQ20030723052509207/23/03 05:25:31  5-MIN KDBQ 231125Z 36006KT 10SM CLR 13/12 A3013 890 89 900 360/06 RMK AO2
94908KDBQ DBQ20030723053009207/23/03 05:30:31  5-MIN KDBQ 231130Z 36006KT 10SM CLR 13/12 A3013 890 89 900 360/06 RMK AO2
94908KDBQ DBQ20030723053509307/23/03 05:35:31  5-MIN KDBQ 231135Z 36006KT 10SM CLR 14/12 A3013 890 90 1000 360/06 RMK AO2
94908KDBQ DBQ20030723054009307/23/03 05:40:31  5-MIN KDBQ 231140Z 36006KT 10SM CLR 14/12 A3013 890 90 1000 360/06 RMK AO2
94908KDBQ DBQ20030723054509307/23/03 05:45:31  5-MIN KDBQ 231145Z 36007KT 10SM CLR 14/12 A3013 890 90 1000 360/07 RMK AO2
94908KDBQ DBQ20030723055012807/23/03 05:50:31  5-MIN KDBQ 231150Z 36006KT 10SM CLR 14/12 A3013 880 86 1100 360/06 RMK AO2 SLP200 T01440122 10150 20122 53004
94908KDBQ DBQ20030723055512807/23/03 05:55:31  5-MIN KDBQ 231155Z 01006KT 10SM CLR 14/12 A3013 890 86 1100 010/06 RMK AO2 SLP200 T01440122 10150 20122 51015
94908KDBQ DBQ20030723060009307/23/03 06:00:31  5-MIN KDBQ 231200Z 01006KT 10SM CLR 14/13 A3013 880 90 1100 360/06 RMK AO2
94908KDBQ DBQ20030723060509307/23/03 06:05:31  5-MIN KDBQ 231205Z 36006KT 10SM CLR 15/13 A3013 880 86 1100 360/06 RMK AO2
94908KDBQ DBQ20030723061009307/23/03 06:10:31  5-MIN KDBQ 231210Z 01005KT 10SM CLR 15/13 A3013 880 86 1100 360/05 RMK AO2
94908KDBQ DBQ20030723061509307/23/03 06:15:31  5-MIN KDBQ 231215Z 36005KT 10SM CLR 15/13 A3014 880 86 1100 360/05 RMK AO2
94908KDBQ DBQ20030723062009307/23/03 06:20:31  5-MIN KDBQ 231220Z 36006KT 10SM CLR 15/13 A3014 880 86 1100 360/06 RMK AO2
94908KDBQ DBQ20030723062509307/23/03 06:25:31  5-MIN KDBQ 231225Z 01006KT 10SM CLR 16/13 A3014 880 83 1200 010/06 RMK AO2
94908KDBQ DBQ20030723063009307/23/03 06:30:31  5-MIN KDBQ 231230Z 01006KT 10SM CLR 16/13 A3014 880 83 1200 010/06 RMK AO2
94908KDBQ DBQ20030723063509307/23/03 06:35:31  5-MIN KDBQ 231235Z 01006KT 10SM CLR 16/13 A3014 880 83 1200 010/06 RMK AO2
94908KDBQ DBQ20030723064009307/23/03 06:40:31  5-MIN KDBQ 231240Z 01007KT 10SM CLR 16/13 A3014 880 86 1200 010/07 RMK AO2
94908KDBQ DBQ20030723064509307/23/03 06:45:31  5-MIN KDBQ 231245Z 02007KT 10SM CLR 16/13 A3014 880 83 1200 010/07 RMK AO2
94908KDBQ DBQ20030723065011007/23/03 06:50:31  5-MIN KDBQ 231250Z 01008KT 10SM CLR 16/13 A3014 870 83 1200 010/08 RMK AO2 SLP205 T01560128
94908KDBQ DBQ20030723065511007/23/03 06:55:31  5-MIN KDBQ 231255Z 01007KT 10SM CLR 16/13 A3015 870 83 1200 010/07 RMK AO2 SLP206 T01610133
94908KDBQ DBQ20030723070009307/23/03 07:00:31  5-MIN KDBQ 231300Z 01006KT 10SM CLR 16/13 A3015 870 83 1200 010/06 RMK AO2
94908KDBQ DBQ20030723070509307/23/03 07:05:31  5-MIN KDBQ 231305Z 01005KT 10SM CLR 17/13 A3015 870 80 1300 010/05 RMK AO2
94908KDBQ DBQ20030723071009307/23/03 07:10:31  5-MIN KDBQ 231310Z 36006KT 10SM CLR 17/13 A3014 870 80 1300 360/06 RMK AO2
94908KDBQ DBQ20030723071509307/23/03 07:15:31  5-MIN KDBQ 231315Z 34006KT 10SM CLR 17/13 A3015 870 80 1300 340/06 RMK AO2
94908KDBQ DBQ20030723072009307/23/03 07:20:31  5-MIN KDBQ 231320Z 35006KT 10SM CLR 17/13 A3015 870 80 1300 340/06 RMK AO2
94908KDBQ DBQ20030723072509307/23/03 07:25:31  5-MIN KDBQ 231325Z 35006KT 10SM CLR 17/13 A3015 870 80 1300 350/06 RMK AO2
94908KDBQ DBQ20030723073009307/23/03 07:30:31  5-MIN KDBQ 231330Z 35005KT 10SM CLR 17/14 A3015 870 80 1400 350/05 RMK AO2
94908KDBQ DBQ20030723073509307/23/03 07:35:31  5-MIN KDBQ 231335Z 34006KT 10SM CLR 17/14 A3015 870 80 1400 340/06 RMK AO2
94908KDBQ DBQ20030723074009307/23/03 07:40:31  5-MIN KDBQ 231340Z 34007KT 10SM CLR 17/14 A3015 870 80 1400 340/07 RMK AO2
94908KDBQ DBQ20030723074509307/23/03 07:45:31  5-MIN KDBQ 231345Z 35006KT 10SM CLR 18/14 A3015 870 78 1400 350/06 RMK AO2
94908KDBQ DBQ20030723075011007/23/03 07:50:31  5-MIN KDBQ 231350Z 01006KT 10SM CLR 18/14 A3015 870 75 1500 010/06 RMK AO2 SLP207 T01830139
94908KDBQ DBQ20030723075511007/23/03 07:55:31  5-MIN KDBQ 231355Z 01007KT 10SM CLR 18/14 A3015 870 75 1500 010/07 RMK AO2 SLP206 T01830139
94908KDBQ DBQ20030723080009307/23/03 08:00:31  5-MIN KDBQ 231400Z 01008KT 10SM CLR 18/13 A3015 870 70 1500 010/08 RMK AO2
94908KDBQ DBQ20030723080509307/23/03 08:05:31  5-MIN KDBQ 231405Z 01010KT 10SM CLR 18/13 A3015 870 70 1500 010/10 RMK AO2
94908KDBQ DBQ20030723081009307/23/03 08:10:31  5-MIN KDBQ 231410Z 02007KT 10SM CLR 18/13 A3015 860 70 1500 010/07 RMK AO2
94908KDBQ DBQ20030723081509307/23/03 08:15:31  5-MIN KDBQ 231415Z 01009KT 10SM CLR 19/13 A3015 860 67 1600 010/09 RMK AO2
94908KDBQ DBQ20030723082009307/23/03 08:20:31  5-MIN KDBQ 231420Z 35007KT 10SM CLR 19/13 A3015 860 67 1600 350/07 RMK AO2
94908KDBQ DBQ20030723082509307/23/03 08:25:31  5-MIN KDBQ 231425Z 01006KT 10SM CLR 19/13 A3015 870 70 1600 010/06 RMK AO2
94908KDBQ DBQ20030723083010907/23/03 08:30:31  5-MIN KDBQ 231430Z 02007KT 340V050 10SM CLR 19/13 A3015 870 65 1600 020/07 340V050 RMK AO2
94908KDBQ DBQ20030723083509307/23/03 08:35:31  5-MIN KDBQ 231435Z 01009KT 10SM CLR 19/12 A3015 870 62 1600 010/09 RMK AO2
94908KDBQ DBQ20030723084009307/23/03 08:40:31  5-MIN KDBQ 231440Z 01011KT 10SM CLR 20/12 A3015 870 58 1700 010/11 RMK AO2
94908KDBQ DBQ20030723084509307/23/03 08:45:31  5-MIN KDBQ 231445Z 01009KT 10SM CLR 19/11 A3015 870 58 1600 360/09 RMK AO2
94908KDBQ DBQ20030723085011607/23/03 08:50:31  5-MIN KDBQ 231450Z 01010KT 10SM CLR 19/12 A3014 870 60 1600 010/10 RMK AO2 SLP205 T01940117 51015
94908KDBQ DBQ20030723085511607/23/03 08:55:31  5-MIN KDBQ 231455Z 02009KT 10SM CLR 20/12 A3014 870 58 1700 020/09 RMK AO2 SLP205 T02000117 50004
94908KDBQ DBQ20030723090009307/23/03 09:00:31  5-MIN KDBQ 231500Z 02010KT 10SM CLR 20/12 A3015 870 58 1700 020/10 RMK AO2
94908KDBQ DBQ20030723090509307/23/03 09:05:31  5-MIN KDBQ 231505Z 01011KT 10SM CLR 20/12 A3015 870 58 1700 010/11 RMK AO2
94908KDBQ DBQ20030723091009307/23/03 09:10:31  5-MIN KDBQ 231510Z 02010KT 10SM CLR 20/12 A3015 870 58 1700 020/10 RMK AO2
94908KDBQ DBQ20030723091509307/23/03 09:15:31  5-MIN KDBQ 231515Z 02009KT 10SM CLR 20/12 A3015 870 58 1700 020/09 RMK AO2
94908KDBQ DBQ20030723092009307/23/03 09:20:31  5-MIN KDBQ 231520Z 02011KT 10SM CLR 21/12 A3014 870 58 1800 020/11 RMK AO2
94908KDBQ DBQ20030723092509307/23/03 09:25:31  5-MIN KDBQ 231525Z 01008KT 10SM CLR 21/12 A3014 870 56 1800 010/08 RMK AO2
94908KDBQ DBQ20030723093009307/23/03 09:30:31  5-MIN KDBQ 231530Z 01008KT 10SM CLR 21/12 A3014 870 56 1800 010/08 RMK AO2
94908KDBQ DBQ20030723093509307/23/03 09:35:31  5-MIN KDBQ 231535Z 02011KT 10SM CLR 21/11 A3014 870 52 1800 020/11 RMK AO2
94908KDBQ DBQ20030723094009307/23/03 09:40:31  5-MIN KDBQ 231540Z 02010KT 10SM CLR 21/12 A3014 870 54 1800 020/10 RMK AO2
94908KDBQ DBQ20030723094509307/23/03 09:45:31  5-MIN KDBQ 231545Z 01008KT 10SM CLR 21/12 A3014 870 54 1800 360/08 RMK AO2
94908KDBQ DBQ20030723095011007/23/03 09:50:31  5-MIN KDBQ 231550Z 01006KT 10SM CLR 21/12 A3014 870 54 1800 010/06 RMK AO2 SLP205 T02110117
94908KDBQ DBQ20030723095511007/23/03 09:55:31  5-MIN KDBQ 231555Z 02010KT 10SM CLR 22/12 A3014 870 54 1900 010/10 RMK AO2 SLP205 T02170122
94908KDBQ DBQ20030723100009307/23/03 10:00:31  5-MIN KDBQ 231600Z 03010KT 10SM CLR 21/11 A3014 870 52 1800 030/10 RMK AO2
94908KDBQ DBQ20030723100509607/23/03 10:05:31  5-MIN KDBQ 231605Z 35008KT 10SM FEW040 22/12 A3014 870 54 1900 350/08 RMK AO2
94908KDBQ DBQ20030723101009607/23/03 10:10:31  5-MIN KDBQ 231610Z 01008KT 10SM SCT040 21/12 A3014 870 56 1800 010/08 RMK AO2
94908KDBQ DBQ20030723101509607/23/03 10:15:31  5-MIN KDBQ 231615Z 34011KT 10SM SCT040 21/12 A3014 870 54 1800 340/11 RMK AO2
94908KDBQ DBQ20030723102009607/23/03 10:20:31  5-MIN KDBQ 231620Z 36009KT 10SM FEW040 22/12 A3014 870 52 1900 360/09 RMK AO2
94908KDBQ DBQ20030723102511207/23/03 10:25:31  5-MIN KDBQ 231625Z 02010KT 340V050 10SM FEW040 22/12 A3014 870 52 2000 020/10 340V050 RMK AO2
94908KDBQ DBQ20030723103010207/23/03 10:30:31  5-MIN KDBQ 231630Z 01008G16KT 10SM FEW040 22/11 A3014 870 50 1900 010/08G16 RMK AO2
94908KDBQ DBQ20030723103510207/23/03 10:35:31  5-MIN KDBQ 231635Z 01014G17KT 10SM FEW040 22/11 A3014 870 49 2000 010/14G17 RMK AO2
94908KDBQ DBQ20030723104009907/23/03 10:40:31  5-MIN KDBQ 231640Z 35010G17KT 10SM CLR 22/11 A3014 870 50 1900 350/10G17 RMK AO2
94908KDBQ DBQ20030723104509307/23/03 10:45:31  5-MIN KDBQ 231645Z 03011KT 10SM CLR 22/11 A3014 870 49 2000 030/11 RMK AO2
94908KDBQ DBQ20030723105011007/23/03 10:50:31  5-MIN KDBQ 231650Z 36010KT 10SM CLR 22/11 A3014 870 49 2000 360/10 RMK AO2 SLP205 T02220111
94908KDBQ DBQ20030723105511007/23/03 10:55:31  5-MIN KDBQ 231655Z 03009KT 10SM CLR 22/12 A3014 880 51 2000 030/09 RMK AO2 SLP203 T02220117
94908KDBQ DBQ20030723110009307/23/03 11:00:31  5-MIN KDBQ 231700Z 05010KT 10SM CLR 22/12 A3014 880 52 2000 050/10 RMK AO2
94908KDBQ DBQ20030723110509607/23/03 11:05:31  5-MIN KDBQ 231705Z 02009KT 10SM SCT040 22/12 A3014 880 52 1900 020/09 RMK AO2
94908KDBQ DBQ20030723111009607/23/03 11:10:31  5-MIN KDBQ 231710Z 04010KT 10SM SCT040 22/12 A3014 880 51 2000 040/10 RMK AO2
94908KDBQ DBQ20030723111510207/23/03 11:15:31  5-MIN KDBQ 231715Z 01011G16KT 10SM FEW046 22/11 A3014 870 49 2000 010/11G16 RMK AO2
94908KDBQ DBQ20030723112010207/23/03 11:20:31  5-MIN KDBQ 231720Z 36008G16KT 10SM FEW046 22/11 A3014 880 49 1900 360/08G16 RMK AO2
94908KDBQ DBQ20030723112509607/23/03 11:25:31  5-MIN KDBQ 231725Z 04010KT 10SM SCT046 22/12 A3013 880 51 2000 040/10 RMK AO2
94908KDBQ DBQ20030723113009607/23/03 11:30:31  5-MIN KDBQ 231730Z 04010KT 10SM SCT048 23/11 A3014 880 47 2000 030/10 RMK AO2
94908KDBQ DBQ20030723113509607/23/03 11:35:31  5-MIN KDBQ 231735Z 04010KT 10SM SCT048 22/11 A3014 880 49 2000 040/10 RMK AO2
94908KDBQ DBQ20030723114009607/23/03 11:40:31  5-MIN KDBQ 231740Z 36010KT 10SM FEW050 22/11 A3014 880 49 2000 360/10 RMK AO2
94908KDBQ DBQ20030723114511207/23/03 11:45:31  5-MIN KDBQ 231745Z 01011KT 340V050 10SM SCT050 22/11 A3014 880 47 2000 010/11 340V050 RMK AO2
94908KDBQ DBQ20030723115013107/23/03 11:50:31  5-MIN KDBQ 231750Z 02009KT 10SM SCT050 22/11 A3014 880 49 1900 020/09 RMK AO2 SLP202 T02170106 10228 20144 50004
94908KDBQ DBQ20030723115513107/23/03 11:55:31  5-MIN KDBQ 231755Z 36006KT 10SM FEW050 23/11 A3014 880 45 2100 360/06 RMK AO2 SLP201 T02330111 10233 20144 58002
94908KDBQ DBQ20030723120009607/23/03 12:00:31  5-MIN KDBQ 231800Z 02009KT 10SM FEW050 23/11 A3014 880 45 2100 020/09 RMK AO2
94908KDBQ DBQ20030723120509607/23/03 12:05:31  5-MIN KDBQ 231805Z 03009KT 10SM SCT050 23/11 A3014 880 45 2000 030/09 RMK AO2
94908KDBQ DBQ20030723121009607/23/03 12:10:31  5-MIN KDBQ 231810Z 02009KT 10SM SCT055 22/11 A3014 880 49 1900 020/09 RMK AO2
94908KDBQ DBQ20030723121509607/23/03 12:15:31  5-MIN KDBQ 231815Z 04007KT 10SM FEW050 22/11 A3013 880 49 2000 040/07 RMK AO2
94908KDBQ DBQ20030723122009607/23/03 12:20:31  5-MIN KDBQ 231820Z 01009KT 10SM FEW050 23/11 A3013 880 45 2100 010/09 RMK AO2
94908KDBQ DBQ20030723122509607/23/03 12:25:31  5-MIN KDBQ 231825Z 03011KT 10SM FEW050 23/11 A3013 880 45 2100 030/11 RMK AO2
94908KDBQ DBQ20030723123009607/23/03 12:30:31  5-MIN KDBQ 231830Z 01009KT 10SM SCT055 22/11 A3013 880 47 2000 010/09 RMK AO2
94908KDBQ DBQ20030723123509607/23/03 12:35:31  5-MIN KDBQ 231835Z 02010KT 10SM BKN055 22/11 A3013 880 49 2000 020/10 RMK AO2
94908KDBQ DBQ20030723124009607/23/03 12:40:31  5-MIN KDBQ 231840Z 01009KT 10SM BKN060 22/11 A3013 880 50 1900 010/09 RMK AO2
94908KDBQ DBQ20030723124509607/23/03 12:45:31  5-MIN KDBQ 231845Z 02009KT 10SM BKN060 22/11 A3013 880 49 2000 020/09 RMK AO2
94908KDBQ DBQ20030723125011307/23/03 12:50:31  5-MIN KDBQ 231850Z 01007KT 10SM SCT060 23/12 A3013 890 47 2100 010/07 RMK AO2 SLP200 T02330117
94908KDBQ DBQ20030723125511307/23/03 12:55:31  5-MIN KDBQ 231855Z 02005KT 10SM SCT060 23/11 A3013 890 45 2000 020/05 RMK AO2 SLP200 T02280106
94908KDBQ DBQ20030723130009607/23/03 13:00:31  5-MIN KDBQ 231900Z VRB06KT 10SM BKN060 23/11 A3013 880 47 2000 VRB/06 RMK AO2
94908KDBQ DBQ20030723130509607/23/03 13:05:31  5-MIN KDBQ 231905Z 01008KT 10SM BKN060 22/11 A3013 880 47 2000 360/08 RMK AO2
94908KDBQ DBQ20030723131009607/23/03 13:10:31  5-MIN KDBQ 231910Z 36008KT 10SM FEW060 23/11 A3013 880 45 2100 360/08 RMK AO2
94908KDBQ DBQ20030723131509607/23/03 13:15:31  5-MIN KDBQ 231915Z VRB06KT 10SM FEW060 23/11 A3013 880 45 2100 VRB/06 RMK AO2
94908KDBQ DBQ20030723132009607/23/03 13:20:31  5-MIN KDBQ 231920Z 01010KT 10SM FEW060 23/11 A3013 890 44 2100 010/10 RMK AO2
94908KDBQ DBQ20030723132509607/23/03 13:25:31  5-MIN KDBQ 231925Z 01008KT 10SM FEW060 23/11 A3013 890 45 2100 010/08 RMK AO2
94908KDBQ DBQ20030723133009607/23/03 13:30:31  5-MIN KDBQ 231930Z 03008KT 10SM FEW065 24/11 A3013 890 44 2200 030/08 RMK AO2
94908KDBQ DBQ20030723133509607/23/03 13:35:31  5-MIN KDBQ 231935Z 05008KT 10SM FEW070 23/11 A3013 890 45 2100 050/08 RMK AO2
94908KDBQ DBQ20030723134009607/23/03 13:40:31  5-MIN KDBQ 231940Z 01007KT 10SM FEW070 23/11 A3012 890 45 2100 010/07 RMK AO2
94908KDBQ DBQ20030723134511207/23/03 13:45:31  5-MIN KDBQ 231945Z 02008KT 260V070 10SM FEW070 23/11 A3013 890 45 2100 010/08 260V070 RMK AO2
94908KDBQ DBQ20030723135011307/23/03 13:50:31  5-MIN KDBQ 231950Z 36009KT 10SM FEW070 24/12 A3013 890 46 2200 360/09 RMK AO2 SLP199 T02390117
94908KDBQ DBQ20030723135512607/23/03 13:55:31  5-MIN KDBQ 231955Z 02007KT 350V050 10SM CLR 23/11 A3012 890 45 2100 020/07 350V050 RMK AO2 SLP198 T02330111
94908KDBQ DBQ20030723140009307/23/03 14:00:31  5-MIN KDBQ 232000Z 35006KT 10SM CLR 23/11 A3012 890 44 2100 350/06 RMK AO2
94908KDBQ DBQ20030723140509307/23/03 14:05:31  5-MIN KDBQ 232005Z 03005KT 10SM CLR 24/11 A3012 890 42 2200 030/05 RMK AO2
94908KDBQ DBQ20030723141009607/23/03 14:10:31  5-MIN KDBQ 232010Z 02006KT 10SM FEW070 23/10 A3012 890 42 2100 020/06 RMK AO2
94908KDBQ DBQ20030723141510307/23/03 14:15:31  5-MIN KDBQ 232015Z 01007KT 10SM FEW060 SCT070 24/11 A3012 890 44 2200 010/07 RMK AO2
94908KDBQ DBQ20030723142010307/23/03 14:20:31  5-MIN KDBQ 232020Z 01008KT 10SM FEW055 SCT070 23/11 A3012 890 44 2100 010/08 RMK AO2
94908KDBQ DBQ20030723142509607/23/03 14:25:31  5-MIN KDBQ 232025Z 02008KT 10SM SCT065 23/11 A3012 890 44 2100 020/08 RMK AO2
94908KDBQ DBQ20030723143009607/23/03 14:30:31  5-MIN KDBQ 232030Z 04008KT 10SM FEW055 24/11 A3012 890 44 2200 040/08 RMK AO2
94908KDBQ DBQ20030723143509607/23/03 14:35:31  5-MIN KDBQ 232035Z VRB04KT 10SM FEW055 23/10 A3012 890 42 2100 VRB/04 RMK AO2
94908KDBQ DBQ20030723144009607/23/03 14:40:31  5-MIN KDBQ 232040Z 04004KT 10SM FEW055 24/10 A3012 890 41 2200 040/04 RMK AO2
94908KDBQ DBQ20030723144509307/23/03 14:45:31  5-MIN KDBQ 232045Z 01006KT 10SM CLR 24/10 A3012 890 41 2200 010/06 RMK AO2
94908KDBQ DBQ20030723145011607/23/03 14:50:31  5-MIN KDBQ 232050Z 04006KT 10SM CLR 23/11 A3012 900 44 2100 040/06 RMK AO2 SLP197 T02330106 58002
94908KDBQ DBQ20030723145511607/23/03 14:55:31  5-MIN KDBQ 232055Z 04007KT 10SM CLR 24/11 A3012 890 42 2200 040/07 RMK AO2 SLP197 T02390106 56005
94908KDBQ DBQ20030723150009307/23/03 15:00:31  5-MIN KDBQ 232100Z 08005KT 10SM CLR 24/10 A3012 890 41 2200 080/05 RMK AO2
94908KDBQ DBQ20030723150509307/23/03 15:05:31  5-MIN KDBQ 232105Z 03006KT 10SM CLR 24/11 A3012 900 44 2200 030/06 RMK AO2
94908KDBQ DBQ20030723151009307/23/03 15:10:31  5-MIN KDBQ 232110Z 07005KT 10SM CLR 24/11 A3012 900 44 2200 070/05 RMK AO2
94908KDBQ DBQ20030723151509307/23/03 15:15:31  5-MIN KDBQ 232115Z 02005KT 10SM CLR 24/11 A3012 900 44 2200 020/05 RMK AO2
94908KDBQ DBQ20030723152009607/23/03 15:20:31  5-MIN KDBQ 232120Z 36007KT 10SM SCT055 24/11 A3012 900 42 2200 360/07 RMK AO2
94908KDBQ DBQ20030723152509607/23/03 15:25:31  5-MIN KDBQ 232125Z 02010KT 10SM BKN055 24/12 A3012 900 44 2200 020/10 RMK AO2
94908KDBQ DBQ20030723153010307/23/03 15:30:31  5-MIN KDBQ 232130Z 02006KT 10SM SCT055 BKN070 24/11 A3012 900 42 2200 020/06 RMK AO2
94908KDBQ DBQ20030723153510307/23/03 15:35:31  5-MIN KDBQ 232135Z 01006KT 10SM SCT055 SCT070 24/11 A3011 900 42 2200 010/06 RMK AO2
94908KDBQ DBQ20030723154010307/23/03 15:40:31  5-MIN KDBQ 232140Z 35004KT 10SM SCT055 SCT070 24/11 A3011 900 42 2200 350/04 RMK AO2
94908KDBQ DBQ20030723154510307/23/03 15:45:31  5-MIN KDBQ 232145Z 36004KT 10SM FEW055 SCT070 24/11 A3011 900 42 2200 360/04 RMK AO2
94908KDBQ DBQ20030723155011307/23/03 15:50:31  5-MIN KDBQ 232150Z 34004KT 10SM FEW055 24/10 A3011 900 41 2200 340/04 RMK AO2 SLP194 T02390100
94908KDBQ DBQ20030723155511307/23/03 15:55:31  5-MIN KDBQ 232155Z 02005KT 10SM FEW070 24/11 A3011 900 42 2200 020/05 RMK AO2 SLP194 T02390106
94908KDBQ DBQ20030723160009307/23/03 16:00:31  5-MIN KDBQ 232200Z VRB03KT 10SM CLR 24/11 A3011 900 42 2200 VRB/03 RMK AO2
94908KDBQ DBQ20030723160509307/23/03 16:05:31  5-MIN KDBQ 232205Z 05005KT 10SM CLR 24/11 A3011 900 42 2200 050/05 RMK AO2
94908KDBQ DBQ20030723161009307/23/03 16:10:31  5-MIN KDBQ 232210Z 07006KT 10SM CLR 24/11 A3011 900 44 2200 070/06 RMK AO2
94908KDBQ DBQ20030723161509307/23/03 16:15:31  5-MIN KDBQ 232215Z 05004KT 10SM CLR 24/11 A3011 900 42 2200 050/04 RMK AO2
94908KDBQ DBQ20030723162009307/23/03 16:20:31  5-MIN KDBQ 232220Z VRB03KT 10SM CLR 24/12 A3011 900 46 2200 VRB/03 RMK AO2
94908KDBQ DBQ20030723162509307/23/03 16:25:31  5-MIN KDBQ 232225Z 35005KT 10SM CLR 24/11 A3011 910 42 2200 350/05 RMK AO2
94908KDBQ DBQ20030723163009307/23/03 16:30:31  5-MIN KDBQ 232230Z 02006KT 10SM CLR 24/11 A3011 900 42 2200 020/06 RMK AO2
94908KDBQ DBQ20030723163509307/23/03 16:35:31  5-MIN KDBQ 232235Z 02003KT 10SM CLR 24/11 A3011 910 42 2200 020/03 RMK AO2
94908KDBQ DBQ20030723164009307/23/03 16:40:31  5-MIN KDBQ 232240Z 00000KT 10SM CLR 24/10 A3011 910 41 2200 000/00 RMK AO2
94908KDBQ DBQ20030723164509307/23/03 16:45:31  5-MIN KDBQ 232245Z 02003KT 10SM CLR 24/10 A3010 910 39 2200 010/03 RMK AO2
94908KDBQ DBQ20030723165011007/23/03 16:50:31  5-MIN KDBQ 232250Z 00000KT 10SM CLR 24/09 A3010 910 39 2200 000/00 RMK AO2 SLP191 T02390094
94908KDBQ DBQ20030723165511007/23/03 16:55:31  5-MIN KDBQ 232255Z 34004KT 10SM CLR 24/11 A3010 910 42 2200 340/04 RMK AO2 SLP190 T02390106
94908KDBQ DBQ20030723170009307/23/03 17:00:31  5-MIN KDBQ 232300Z 28003KT 10SM CLR 23/11 A3010 910 44 2100 270/03 RMK AO2
94908KDBQ DBQ20030723170509307/23/03 17:05:31  5-MIN KDBQ 232305Z 27004KT 10SM CLR 23/11 A3010 910 44 2100 270/04 RMK AO2
94908KDBQ DBQ20030723171009307/23/03 17:10:31  5-MIN KDBQ 232310Z 00000KT 10SM CLR 23/11 A3010 910 44 2100 000/00 RMK AO2
94908KDBQ DBQ20030723171509307/23/03 17:15:31  5-MIN KDBQ 232315Z 31005KT 10SM CLR 24/11 A3010 910 44 2200 310/05 RMK AO2
94908KDBQ DBQ20030723172009307/23/03 17:20:31  5-MIN KDBQ 232320Z 32006KT 10SM CLR 23/11 A3010 920 44 2100 320/06 RMK AO2
94908KDBQ DBQ20030723172509307/23/03 17:25:31  5-MIN KDBQ 232325Z 31005KT 10SM CLR 23/11 A3009 920 44 2100 310/05 RMK AO2
94908KDBQ DBQ20030723173010307/23/03 17:30:31  5-MIN KDBQ 232330Z AUTO VRB03KT 10SM CLR 23/11 A3009 920 44 2100 VRB/03 RMK AO2 TSNO
94908KDBQ DBQ20030723173510307/23/03 17:35:31  5-MIN KDBQ 232335Z AUTO 28004KT 10SM CLR 23/10 A3009 920 42 2100 280/04 RMK AO2 TSNO
94908KDBQ DBQ20030723174010307/23/03 17:40:31  5-MIN KDBQ 232340Z AUTO 29004KT 10SM CLR 23/11 A3009 920 44 2100 290/04 RMK AO2 TSNO
94908KDBQ DBQ20030723174510307/23/03 17:45:31  5-MIN KDBQ 232345Z AUTO 31004KT 10SM CLR 23/11 A3009 920 44 2100 310/04 RMK AO2 TSNO
94908KDBQ DBQ20030723175013807/23/03 17:50:31  5-MIN KDBQ 232350Z AUTO 31005KT 10SM CLR 23/11 A3009 920 45 2100 310/05 RMK AO2 SLP188 T02330111 10244 20211 56005 TSNO
94908KDBQ DBQ20030723175513807/23/03 17:55:31  5-MIN KDBQ 232355Z AUTO 32005KT 10SM CLR 23/12 A3009 920 49 2100 320/05 RMK AO2 SLP188 T02330122 10244 20211 56008 TSNO
94908KDBQ DBQ20030723180010307/23/03 18:00:31  5-MIN KDBQ 240000Z AUTO 33004KT 10SM CLR 23/11 A3009 920 47 2100 330/04 RMK AO2 TSNO
94908KDBQ DBQ20030723180510307/23/03 18:05:31  5-MIN KDBQ 240005Z AUTO 31004KT 10SM CLR 23/12 A3009 920 51 2100 310/04 RMK AO2 TSNO
94908KDBQ DBQ20030723181010307/23/03 18:10:31  5-MIN KDBQ 240010Z AUTO 31003KT 10SM CLR 23/12 A3009 920 49 2100 310/03 RMK AO2 TSNO
94908KDBQ DBQ20030723181510307/23/03 18:15:31  5-MIN KDBQ 240015Z AUTO 31004KT 10SM CLR 23/12 A3009 920 51 2100 310/04 RMK AO2 TSNO
94908KDBQ DBQ20030723182010307/23/03 18:20:31  5-MIN KDBQ 240020Z AUTO 32004KT 10SM CLR 22/12 A3009 920 52 2000 320/04 RMK AO2 TSNO
94908KDBQ DBQ20030723182510307/23/03 18:25:31  5-MIN KDBQ 240025Z AUTO 31004KT 10SM CLR 22/13 A3009 920 54 2000 310/04 RMK AO2 TSNO
94908KDBQ DBQ20030723183010307/23/03 18:30:31  5-MIN KDBQ 240030Z AUTO 31003KT 10SM CLR 22/13 A3009 920 54 2000 310/03 RMK AO2 TSNO
94908KDBQ DBQ20030723183510307/23/03 18:35:31  5-MIN KDBQ 240035Z AUTO 32004KT 10SM CLR 22/13 A3009 920 54 2000 320/04 RMK AO2 TSNO
94908KDBQ DBQ20030723184010307/23/03 18:40:31  5-MIN KDBQ 240040Z AUTO 32003KT 10SM CLR 22/13 A3009 920 58 1900 320/03 RMK AO2 TSNO
94908KDBQ DBQ20030723184510307/23/03 18:45:31  5-MIN KDBQ 240045Z AUTO 31003KT 10SM CLR 22/14 A3009 920 61 2000 310/03 RMK AO2 TSNO
94908KDBQ DBQ20030723185012007/23/03 18:50:31  5-MIN KDBQ 240050Z AUTO 31004KT 10SM CLR 22/13 A3009 920 58 1900 310/04 RMK AO2 SLP187 T02170133 TSNO
94908KDBQ DBQ20030723185512007/23/03 18:55:31  5-MIN KDBQ 240055Z AUTO 32004KT 10SM CLR 22/13 A3009 920 56 1900 320/04 RMK AO2 SLP188 T02170128 TSNO
94908KDBQ DBQ20030723190010307/23/03 19:00:31  5-MIN KDBQ 240100Z AUTO 31003KT 10SM CLR 21/14 A3009 920 63 1900 310/03 RMK AO2 TSNO
94908KDBQ DBQ20030723190510307/23/03 19:05:31  5-MIN KDBQ 240105Z AUTO 31003KT 10SM CLR 21/14 A3009 920 67 1800 310/03 RMK AO2 TSNO
94908KDBQ DBQ20030723191010307/23/03 19:10:31  5-MIN KDBQ 240110Z AUTO 30003KT 10SM CLR 21/14 A3009 920 65 1800 300/03 RMK AO2 TSNO
94908KDBQ DBQ20030723191510307/23/03 19:15:31  5-MIN KDBQ 240115Z AUTO 29004KT 10SM CLR 21/14 A3009 920 65 1800 290/04 RMK AO2 TSNO
94908KDBQ DBQ20030723192010307/23/03 19:20:31  5-MIN KDBQ 240120Z AUTO 29004KT 10SM CLR 20/14 A3009 920 67 1800 290/04 RMK AO2 TSNO
94908KDBQ DBQ20030723192510307/23/03 19:25:31  5-MIN KDBQ 240125Z AUTO 29004KT 10SM CLR 19/14 A3009 920 70 1700 290/04 RMK AO2 TSNO
94908KDBQ DBQ20030723193010307/23/03 19:30:31  5-MIN KDBQ 240130Z AUTO 29004KT 10SM CLR 19/13 A3009 920 70 1600 290/04 RMK AO2 TSNO
94908KDBQ DBQ20030723193510307/23/03 19:35:31  5-MIN KDBQ 240135Z AUTO 29004KT 10SM CLR 19/13 A3009 920 67 1700 290/04 RMK AO2 TSNO
94908KDBQ DBQ20030723194010307/23/03 19:40:31  5-MIN KDBQ 240140Z AUTO 30004KT 10SM CLR 19/13 A3010 920 65 1700 290/04 RMK AO2 TSNO
94908KDBQ DBQ20030723194510307/23/03 19:45:31  5-MIN KDBQ 240145Z AUTO 29004KT 10SM CLR 19/13 A3010 920 70 1600 290/04 RMK AO2 TSNO
94908KDBQ DBQ20030723195012007/23/03 19:50:31  5-MIN KDBQ 240150Z AUTO 29004KT 10SM CLR 19/13 A3010 910 67 1600 290/04 RMK AO2 SLP190 T01890128 TSNO
94908KDBQ DBQ20030723195512007/23/03 19:55:31  5-MIN KDBQ 240155Z AUTO 29004KT 10SM CLR 18/13 A3010 910 72 1500 290/04 RMK AO2 SLP189 T01780128 TSNO
94908KDBQ DBQ20030723200010307/23/03 20:00:31  5-MIN KDBQ 240200Z AUTO 29004KT 10SM CLR 18/13 A3010 910 72 1500 290/04 RMK AO2 TSNO
94908KDBQ DBQ20030723200510307/23/03 20:05:31  5-MIN KDBQ 240205Z AUTO 30004KT 10SM CLR 18/13 A3010 910 75 1500 300/04 RMK AO2 TSNO
94908KDBQ DBQ20030723201010307/23/03 20:10:31  5-MIN KDBQ 240210Z AUTO 29004KT 10SM CLR 17/13 A3010 910 75 1400 290/04 RMK AO2 TSNO
94908KDBQ DBQ20030723201510307/23/03 20:15:31  5-MIN KDBQ 240215Z AUTO 30004KT 10SM CLR 17/13 A3010 910 75 1400 300/04 RMK AO2 TSNO
94908KDBQ DBQ20030723202010307/23/03 20:20:31  5-MIN KDBQ 240220Z AUTO 30003KT 10SM CLR 17/13 A3010 910 75 1400 300/03 RMK AO2 TSNO
94908KDBQ DBQ20030723202510307/23/03 20:25:31  5-MIN KDBQ 240225Z AUTO 00000KT 10SM CLR 18/13 A3010 910 72 1500 000/00 RMK AO2 TSNO
94908KDBQ DBQ20030723203010307/23/03 20:30:31  5-MIN KDBQ 240230Z AUTO 00000KT 10SM CLR 17/13 A3011 910 78 1400 000/00 RMK AO2 TSNO
94908KDBQ DBQ20030723203510307/23/03 20:35:31  5-MIN KDBQ 240235Z AUTO 00000KT 10SM CLR 17/13 A3011 910 78 1400 000/00 RMK AO2 TSNO
94908KDBQ DBQ20030723204010307/23/03 20:40:31  5-MIN KDBQ 240240Z AUTO 00000KT 10SM CLR 17/13 A3011 910 75 1400 000/00 RMK AO2 TSNO
94908KDBQ DBQ20030723204510307/23/03 20:45:31  5-MIN KDBQ 240245Z AUTO 00000KT 10SM CLR 18/13 A3011 910 72 1500 000/00 RMK AO2 TSNO
94908KDBQ DBQ20030723205012607/23/03 20:50:31  5-MIN KDBQ 240250Z AUTO 00000KT 10SM CLR 17/13 A3011 910 75 1400 000/00 RMK AO2 SLP193 T01720128 56008 TSNO
94908KDBQ DBQ20030723205512607/23/03 20:55:31  5-MIN KDBQ 240255Z AUTO 00000KT 10SM CLR 17/13 A3011 910 75 1400 000/00 RMK AO2 SLP193 T01720128 53004 TSNO
94908KDBQ DBQ20030723210010307/23/03 21:00:31  5-MIN KDBQ 240300Z AUTO 00000KT 10SM CLR 17/13 A3011 900 77 1400 000/00 RMK AO2 TSNO
94908KDBQ DBQ20030723210510307/23/03 21:05:31  5-MIN KDBQ 240305Z AUTO 00000KT 10SM CLR 17/13 A3011 900 77 1400 000/00 RMK AO2 TSNO
94908KDBQ DBQ20030723211010307/23/03 21:10:31  5-MIN KDBQ 240310Z AUTO 00000KT 10SM CLR 17/13 A3011 900 75 1400 000/00 RMK AO2 TSNO
94908KDBQ DBQ20030723211510307/23/03 21:15:31  5-MIN KDBQ 240315Z AUTO 00000KT 10SM CLR 16/13 A3011 900 80 1300 000/00 RMK AO2 TSNO
94908KDBQ DBQ20030723212010307/23/03 21:20:31  5-MIN KDBQ 240320Z AUTO 00000KT 10SM CLR 16/13 A3011 900 80 1300 000/00 RMK AO2 TSNO
94908KDBQ DBQ20030723212510307/23/03 21:25:31  5-MIN KDBQ 240325Z AUTO 00000KT 10SM CLR 16/13 A3011 900 80 1300 000/00 RMK AO2 TSNO
94908KDBQ DBQ20030723213010307/23/03 21:30:31  5-MIN KDBQ 240330Z AUTO 00000KT 10SM CLR 15/13 A3011 900 86 1200 000/00 RMK AO2 TSNO
94908KDBQ DBQ20030723213510307/23/03 21:35:31  5-MIN KDBQ 240335Z AUTO 00000KT 10SM CLR 15/12 A3011 900 83 1200 000/00 RMK AO2 TSNO
94908KDBQ DBQ20030723214010307/23/03 21:40:31  5-MIN KDBQ 240340Z AUTO 00000KT 10SM CLR 15/12 A3011 900 83 1200 000/00 RMK AO2 TSNO
94908KDBQ DBQ20030723214510307/23/03 21:45:31  5-MIN KDBQ 240345Z AUTO 00000KT 10SM CLR 16/13 A3011 900 83 1200 000/00 RMK AO2 TSNO
94908KDBQ DBQ20030723215012007/23/03 21:50:31  5-MIN KDBQ 240350Z AUTO 00000KT 10SM CLR 15/13 A3011 900 86 1200 000/00 RMK AO2 SLP193 T01500128 TSNO
94908KDBQ DBQ20030723215512007/23/03 21:55:31  5-MIN KDBQ 240355Z AUTO 00000KT 10SM CLR 15/13 A3011 910 86 1200 000/00 RMK AO2 SLP192 T01500128 TSNO
94908KDBQ DBQ20030723220010307/23/03 22:00:31  5-MIN KDBQ 240400Z AUTO 00000KT 10SM CLR 15/13 A3011 900 86 1200 000/00 RMK AO2 TSNO
94908KDBQ DBQ20030723220510307/23/03 22:05:31  5-MIN KDBQ 240405Z AUTO 00000KT 10SM CLR 14/13 A3011 900 90 1100 000/00 RMK AO2 TSNO
94908KDBQ DBQ20030723221010307/23/03 22:10:31  5-MIN KDBQ 240410Z AUTO 00000KT 10SM CLR 15/13 A3011 900 86 1200 000/00 RMK AO2 TSNO
94908KDBQ DBQ20030723221510307/23/03 22:15:31  5-MIN KDBQ 240415Z AUTO 00000KT 10SM CLR 15/13 A3011 900 86 1200 000/00 RMK AO2 TSNO
94908KDBQ DBQ20030723222010307/23/03 22:20:31  5-MIN KDBQ 240420Z AUTO 00000KT 10SM CLR 14/12 A3011 900 86 1100 000/00 RMK AO2 TSNO
94908KDBQ DBQ20030723222510307/23/03 22:25:31  5-MIN KDBQ 240425Z AUTO 00000KT 10SM CLR 14/12 A3011 900 86 1100 000/00 RMK AO2 TSNO
94908KDBQ DBQ20030723223010307/23/03 22:30:31  5-MIN KDBQ 240430Z AUTO 00000KT 10SM CLR 15/12 A3011 900 83 1200 000/00 RMK AO2 TSNO
94908KDBQ DBQ20030723223510307/23/03 22:35:31  5-MIN KDBQ 240435Z AUTO 00000KT 10SM CLR 14/12 A3011 900 86 1100 000/00 RMK AO2 TSNO
94908KDBQ DBQ20030723224010307/23/03 22:40:31  5-MIN KDBQ 240440Z AUTO 00000KT 10SM CLR 14/12 A3011 900 86 1100 000/00 RMK AO2 TSNO
94908KDBQ DBQ20030723224510307/23/03 22:45:31  5-MIN KDBQ 240445Z AUTO 00000KT 10SM CLR 14/12 A3011 900 86 1100 000/00 RMK AO2 TSNO
94908KDBQ DBQ20030723225012007/23/03 22:50:31  5-MIN KDBQ 240450Z AUTO 00000KT 10SM CLR 15/12 A3011 900 83 1100 000/00 RMK AO2 SLP195 T01500122 TSNO
94908KDBQ DBQ20030723225512007/23/03 22:55:31  5-MIN KDBQ 240455Z AUTO 00000KT 10SM CLR 15/12 A3012 900 83 1100 000/00 RMK AO2 SLP195 T01500122 TSNO
94908KDBQ DBQ20030723230010307/23/03 23:00:31  5-MIN KDBQ 240500Z AUTO 00000KT 10SM CLR 14/12 A3012 900 86 1100 000/00 RMK AO2 TSNO
94908KDBQ DBQ20030723230510307/23/03 23:05:31  5-MIN KDBQ 240505Z AUTO 00000KT 10SM CLR 14/12 A3011 900 90 1000 000/00 RMK AO2 TSNO
94908KDBQ DBQ20030723231010307/23/03 23:10:31  5-MIN KDBQ 240510Z AUTO 00000KT 10SM CLR 14/12 A3011 900 90 1000 000/00 RMK AO2 TSNO
94908KDBQ DBQ20030723231510307/23/03 23:15:31  5-MIN KDBQ 240515Z AUTO 00000KT 10SM CLR 14/12 A3011 900 90 1000 000/00 RMK AO2 TSNO
94908KDBQ DBQ20030723232010307/23/03 23:20:31  5-MIN KDBQ 240520Z AUTO 00000KT 10SM CLR 14/12 A3011 900 86 1100 000/00 RMK AO2 TSNO
94908KDBQ DBQ20030723232510307/23/03 23:25:31  5-MIN KDBQ 240525Z AUTO 00000KT 10SM CLR 14/12 A3011 900 90 1000 000/00 RMK AO2 TSNO
94908KDBQ DBQ20030723233010307/23/03 23:30:31  5-MIN KDBQ 240530Z AUTO 00000KT 10SM CLR 14/12 A3011 900 90 1000 000/00 RMK AO2 TSNO
94908KDBQ DBQ20030723233510307/23/03 23:35:31  5-MIN KDBQ 240535Z AUTO 00000KT 10SM CLR 14/12 A3011 900 86 1100 000/00 RMK AO2 TSNO
94908KDBQ DBQ20030723234010307/23/03 23:40:31  5-MIN KDBQ 240540Z AUTO 00000KT 10SM CLR 14/12 A3011 900 86 1000 000/00 RMK AO2 TSNO
94908KDBQ DBQ20030723234510307/23/03 23:45:31  5-MIN KDBQ 240545Z AUTO 00000KT 10SM CLR 14/12 A3011 900 86 1100 000/00 RMK AO2 TSNO
94908KDBQ DBQ20030723235014807/23/03 23:50:31  5-MIN KDBQ 240550Z AUTO 00000KT 10SM CLR 14/12 A3011 900 83 1100 000/00 RMK AO2 SLP194 T01440117 10233 20133 402440122 53004 TSNO
94908KDBQ DBQ20030723235514807/23/03 23:55:31  5-MIN KDBQ 240555Z AUTO 00000KT 10SM CLR 14/12 A3011 910 83 1100 000/00 RMK AO2 SLP193 T01440117 10233 20133 402440122 50000 TSNO
94908KDBQ DBQ20030724000010307/24/03 00:00:31  5-MIN KDBQ 240600Z AUTO 00000KT 10SM CLR 13/12 A3011 910 89 1000 000/00 RMK AO2 TSNO
94908KDBQ DBQ20030724000510307/24/03 00:05:31  5-MIN KDBQ 240605Z AUTO 00000KT 10SM CLR 13/11 A3011 900 86 1000 000/00 RMK AO2 TSNO
94908KDBQ DBQ20030724001010307/24/03 00:10:31  5-MIN KDBQ 240610Z AUTO 00000KT 10SM CLR 14/12 A3011 900 86 1000 000/00 RMK AO2 TSNO
94908KDBQ DBQ20030724001510307/24/03 00:15:31  5-MIN KDBQ 240615Z AUTO 00000KT 10SM CLR 14/12 A3011 900 86 1000 000/00 RMK AO2 TSNO
94908KDBQ DBQ20030724002010307/24/03 00:20:31  5-MIN KDBQ 240620Z AUTO 00000KT 10SM CLR 14/12 A3011 900 86 1000 000/00 RMK AO2 TSNO
94908KDBQ DBQ20030724002510307/24/03 00:25:31  5-MIN KDBQ 240625Z AUTO 00000KT 10SM CLR 14/12 A3011 900 86 1000 000/00 RMK AO2 TSNO
94908KDBQ DBQ20030724003010307/24/03 00:30:31  5-MIN KDBQ 240630Z AUTO 00000KT 10SM CLR 14/12 A3011 900 86 1000 000/00 RMK AO2 TSNO
94908KDBQ DBQ20030724003510307/24/03 00:35:31  5-MIN KDBQ 240635Z AUTO 00000KT 10SM CLR 14/12 A3011 900 86 1000 000/00 RMK AO2 TSNO
94908KDBQ DBQ20030724004010307/24/03 00:40:31  5-MIN KDBQ 240640Z AUTO 00000KT 10SM CLR 13/12 A3011 900 89 1000 000/00 RMK AO2 TSNO
94908KDBQ DBQ20030724004510307/24/03 00:45:31  5-MIN KDBQ 240645Z AUTO 00000KT 10SM CLR 14/12 A3011 900 86 1000 000/00 RMK AO2 TSNO
94908KDBQ DBQ20030724005012007/24/03 00:50:31  5-MIN KDBQ 240650Z AUTO 00000KT 10SM CLR 13/12 A3011 900 89 1000 000/00 RMK AO2 SLP194 T01330117 TSNO
94908KDBQ DBQ20030724005512007/24/03 00:55:31  5-MIN KDBQ 240655Z AUTO 00000KT 10SM CLR 13/12 A3011 900 89 1000 000/00 RMK AO2 SLP195 T01330117 TSNO
94908KDBQ DBQ20030724010010307/24/03 01:00:31  5-MIN KDBQ 240700Z AUTO 00000KT 10SM CLR 13/12 A3011 900 89 1000 000/00 RMK AO2 TSNO
94908KDBQ DBQ20030724010510307/24/03 01:05:31  5-MIN KDBQ 240705Z AUTO 00000KT 10SM CLR 14/12 A3011 900 86 1000 000/00 RMK AO2 TSNO
94908KDBQ DBQ20030724011010307/24/03 01:10:31  5-MIN KDBQ 240710Z AUTO 00000KT 10SM CLR 13/11 A3011 900 86 1000 000/00 RMK AO2 TSNO
94908KDBQ DBQ20030724011510207/24/03 01:15:31  5-MIN KDBQ 240715Z AUTO 00000KT 10SM CLR 13/11 A3011 900 89 900 000/00 RMK AO2 TSNO
94908KDBQ DBQ20030724012010207/24/03 01:20:31  5-MIN KDBQ 240720Z AUTO 00000KT 10SM CLR 13/11 A3011 900 89 900 000/00 RMK AO2 TSNO
94908KDBQ DBQ20030724012510307/24/03 01:25:31  5-MIN KDBQ 240725Z AUTO 00000KT 10SM CLR 13/12 A3011 900 89 1000 000/00 RMK AO2 TSNO
94908KDBQ DBQ20030724013010307/24/03 01:30:31  5-MIN KDBQ 240730Z AUTO 00000KT 10SM CLR 13/11 A3011 900 86 1000 000/00 RMK AO2 TSNO
94908KDBQ DBQ20030724013510207/24/03 01:35:31  5-MIN KDBQ 240735Z AUTO 00000KT 10SM CLR 13/11 A3011 900 89 900 000/00 RMK AO2 TSNO
94908KDBQ DBQ20030724014010207/24/03 01:40:31  5-MIN KDBQ 240740Z AUTO 00000KT 10SM CLR 13/11 A3011 910 89 900 000/00 RMK AO2 TSNO
94908KDBQ DBQ20030724014510207/24/03 01:45:31  5-MIN KDBQ 240745Z AUTO 00000KT 10SM CLR 13/11 A3011 900 89 900 000/00 RMK AO2 TSNO
94908KDBQ DBQ20030724015011907/24/03 01:50:31  5-MIN KDBQ 240750Z AUTO 00000KT 10SM CLR 13/11 A3011 900 89 900 000/00 RMK AO2 SLP193 T01280111 TSNO
94908KDBQ DBQ20030724015511907/24/03 01:55:31  5-MIN KDBQ 240755Z AUTO 00000KT 10SM CLR 12/11 A3011 910 93 800 000/00 RMK AO2 SLP193 T01220111 TSNO
94908KDBQ DBQ20030724020010207/24/03 02:00:31  5-MIN KDBQ 240800Z AUTO 00000KT 10SM CLR 13/11 A3011 910 89 900 000/00 RMK AO2 TSNO
94908KDBQ DBQ20030724020510207/24/03 02:05:31  5-MIN KDBQ 240805Z AUTO 00000KT 10SM CLR 13/11 A3010 910 89 900 000/00 RMK AO2 TSNO
94908KDBQ DBQ20030724021010307/24/03 02:10:31  5-MIN KDBQ 240810Z AUTO 00000KT 10SM CLR 13/11 A3010 910 86 1000 000/00 RMK AO2 TSNO
94908KDBQ DBQ20030724021510207/24/03 02:15:31  5-MIN KDBQ 240815Z AUTO 00000KT 10SM CLR 13/11 A3010 910 89 900 000/00 RMK AO2 TSNO
94908KDBQ DBQ20030724022010307/24/03 02:20:31  5-MIN KDBQ 240820Z AUTO 00000KT 10SM CLR 13/11 A3010 910 86 1000 000/00 RMK AO2 TSNO
94908KDBQ DBQ20030724022510207/24/03 02:25:31  5-MIN KDBQ 240825Z AUTO 00000KT 10SM CLR 13/11 A3011 900 86 900 000/00 RMK AO2 TSNO
94908KDBQ DBQ20030724023010207/24/03 02:30:31  5-MIN KDBQ 240830Z AUTO 00000KT 10SM CLR 12/11 A3011 900 89 800 000/00 RMK AO2 TSNO
94908KDBQ DBQ20030724023510207/24/03 02:35:31  5-MIN KDBQ 240835Z AUTO 00000KT 10SM CLR 12/11 A3011 900 89 800 000/00 RMK AO2 TSNO
94908KDBQ DBQ20030724024010207/24/03 02:40:31  5-MIN KDBQ 240840Z AUTO 00000KT 10SM CLR 13/11 A3011 900 89 900 000/00 RMK AO2 TSNO
94908KDBQ DBQ20030724024510207/24/03 02:45:31  5-MIN KDBQ 240845Z AUTO 00000KT 10SM CLR 13/11 A3011 900 89 900 000/00 RMK AO2 TSNO
94908KDBQ DBQ20030724025012607/24/03 02:50:31  5-MIN KDBQ 240850Z AUTO 00000KT 10SM CLR 13/11 A3011 900 86 1000 000/00 RMK AO2 SLP194 T01330111 50000 TSNO
94908KDBQ DBQ20030724025512507/24/03 02:55:31  5-MIN KDBQ 240855Z AUTO 00000KT 10SM CLR 13/11 A3011 900 89 900 000/00 RMK AO2 SLP195 T01280111 53002 TSNO
94908KDBQ DBQ20030724030010207/24/03 03:00:31  5-MIN KDBQ 240900Z AUTO 00000KT 10SM CLR 13/11 A3011 900 89 900 000/00 RMK AO2 TSNO
94908KDBQ DBQ20030724030510207/24/03 03:05:31  5-MIN KDBQ 240905Z AUTO 00000KT 10SM CLR 13/11 A3011 900 89 900 000/00 RMK AO2 TSNO
94908KDBQ DBQ20030724031010207/24/03 03:10:31  5-MIN KDBQ 240910Z AUTO 00000KT 10SM CLR 13/11 A3011 900 89 900 000/00 RMK AO2 TSNO
94908KDBQ DBQ20030724031510207/24/03 03:15:31  5-MIN KDBQ 240915Z AUTO 00000KT 10SM CLR 12/11 A3011 900 89 800 000/00 RMK AO2 TSNO
94908KDBQ DBQ20030724032010207/24/03 03:20:31  5-MIN KDBQ 240920Z AUTO 00000KT 10SM CLR 12/11 A3011 900 89 800 000/00 RMK AO2 TSNO
94908KDBQ DBQ20030724032510207/24/03 03:25:31  5-MIN KDBQ 240925Z AUTO 23004KT 10SM CLR 11/10 A3011 900 93 700 230/04 RMK AO2 TSNO
94908KDBQ DBQ20030724033010207/24/03 03:30:31  5-MIN KDBQ 240930Z AUTO 22004KT 10SM CLR 11/10 A3011 900 96 600 220/04 RMK AO2 TSNO
94908KDBQ DBQ20030724033510207/24/03 03:35:31  5-MIN KDBQ 240935Z AUTO 00000KT 10SM CLR 11/10 A3011 900 93 700 000/00 RMK AO2 TSNO
94908KDBQ DBQ20030724034010207/24/03 03:40:31  5-MIN KDBQ 240940Z AUTO 00000KT 10SM CLR 11/10 A3011 900 96 600 000/00 RMK AO2 TSNO
94908KDBQ DBQ20030724034510207/24/03 03:45:31  5-MIN KDBQ 240945Z AUTO 00000KT 10SM CLR 12/11 A3011 900 93 800 000/00 RMK AO2 TSNO
94908KDBQ DBQ20030724035011907/24/03 03:50:31  5-MIN KDBQ 240950Z AUTO 00000KT 10SM CLR 12/11 A3012 900 93 800 000/00 RMK AO2 SLP195 T01170106 TSNO
94908KDBQ DBQ20030724035511907/24/03 03:55:31  5-MIN KDBQ 240955Z AUTO 00000KT 10SM CLR 12/11 A3012 900 93 800 000/00 RMK AO2 SLP196 T01170106 TSNO
94908KDBQ DBQ20030724040010207/24/03 04:00:31  5-MIN KDBQ 241000Z AUTO 00000KT 10SM CLR 11/11 A3012 900 96 700 000/00 RMK AO2 TSNO
94908KDBQ DBQ20030724040510207/24/03 04:05:31  5-MIN KDBQ 241005Z AUTO 00000KT 10SM CLR 12/11 A3011 900 93 800 000/00 RMK AO2 TSNO
94908KDBQ DBQ20030724041010207/24/03 04:10:31  5-MIN KDBQ 241010Z AUTO 00000KT 10SM CLR 12/11 A3012 900 93 800 000/00 RMK AO2 TSNO
94908KDBQ DBQ20030724041510207/24/03 04:15:31  5-MIN KDBQ 241015Z AUTO 00000KT 10SM CLR 12/11 A3012 890 93 700 000/00 RMK AO2 TSNO
94908KDBQ DBQ20030724042010207/24/03 04:20:31  5-MIN KDBQ 241020Z AUTO 00000KT 10SM CLR 12/11 A3012 890 93 700 000/00 RMK AO2 TSNO
94908KDBQ DBQ20030724042510207/24/03 04:25:31  5-MIN KDBQ 241025Z AUTO 00000KT 10SM CLR 11/10 A3012 890 93 700 000/00 RMK AO2 TSNO
94908KDBQ DBQ20030724043010207/24/03 04:30:31  5-MIN KDBQ 241030Z AUTO 00000KT 10SM CLR 12/11 A3012 890 93 700 000/00 RMK AO2 TSNO
94908KDBQ DBQ20030724043510207/24/03 04:35:31  5-MIN KDBQ 241035Z AUTO 00000KT 10SM CLR 12/11 A3012 890 93 700 000/00 RMK AO2 TSNO
94908KDBQ DBQ20030724044010207/24/03 04:40:31  5-MIN KDBQ 241040Z AUTO 00000KT 10SM CLR 11/11 A3012 890 96 700 000/00 RMK AO2 TSNO
94908KDBQ DBQ20030724044510207/24/03 04:45:31  5-MIN KDBQ 241045Z AUTO 00000KT 10SM CLR 12/11 A3013 890 93 700 000/00 RMK AO2 TSNO
94908KDBQ DBQ20030724045011907/24/03 04:50:31  5-MIN KDBQ 241050Z AUTO 00000KT 10SM CLR 12/11 A3013 890 93 700 000/00 RMK AO2 SLP199 T01170106 TSNO
94908KDBQ DBQ20030724045511907/24/03 04:55:31  5-MIN KDBQ 241055Z AUTO 00000KT 10SM CLR 12/11 A3013 890 89 800 000/00 RMK AO2 SLP200 T01220106 TSNO
94908KDBQ DBQ20030724050009207/24/03 05:00:31  5-MIN KDBQ 241100Z 00000KT 10SM CLR 11/10 A3013 890 93 700 000/00 RMK AO2
94908KDBQ DBQ20030724050509207/24/03 05:05:31  5-MIN KDBQ 241105Z 00000KT 10SM CLR 11/09 A3013 890 93 600 000/00 RMK AO2
94908KDBQ DBQ20030724051009207/24/03 05:10:31  5-MIN KDBQ 241110Z 00000KT 10SM CLR 12/10 A3013 880 89 700 000/00 RMK AO2
94908KDBQ DBQ20030724051509207/24/03 05:15:31  5-MIN KDBQ 241115Z 00000KT 10SM CLR 12/10 A3013 880 89 700 000/00 RMK AO2
94908KDBQ DBQ20030724052009207/24/03 05:20:31  5-MIN KDBQ 241120Z 00000KT 10SM CLR 11/10 A3014 880 93 700 000/00 RMK AO2
94908KDBQ DBQ20030724052509207/24/03 05:25:31  5-MIN KDBQ 241125Z 00000KT 10SM CLR 12/10 A3013 880 89 700 000/00 RMK AO2
94908KDBQ DBQ20030724053009207/24/03 05:30:31  5-MIN KDBQ 241130Z 00000KT 10SM CLR 12/11 A3014 880 93 700 000/00 RMK AO2
94908KDBQ DBQ20030724053509207/24/03 05:35:31  5-MIN KDBQ 241135Z 00000KT 10SM CLR 12/11 A3014 880 89 800 000/00 RMK AO2
94908KDBQ DBQ20030724054009207/24/03 05:40:31  5-MIN KDBQ 241140Z 00000KT 10SM CLR 12/11 A3014 880 93 800 000/00 RMK AO2
94908KDBQ DBQ20030724054509207/24/03 05:45:31  5-MIN KDBQ 241145Z 00000KT 10SM CLR 12/11 A3014 880 93 800 000/00 RMK AO2
94908KDBQ DBQ20030724055012707/24/03 05:50:31  5-MIN KDBQ 241150Z 00000KT 10SM CLR 13/12 A3014 880 89 900 000/00 RMK AO2 SLP204 T01330117 10144 20106 53002
94908KDBQ DBQ20030724055512707/24/03 05:55:31  5-MIN KDBQ 241155Z 00000KT 10SM CLR 13/12 A3014 870 89 900 000/00 RMK AO2 SLP205 T01330117 10144 20106 53009
94908KDBQ DBQ20030724060009307/24/03 06:00:31  5-MIN KDBQ 241200Z 00000KT 10SM CLR 14/12 A3014 870 86 1000 000/00 RMK AO2
94908KDBQ DBQ20030724060509307/24/03 06:05:31  5-MIN KDBQ 241205Z 00000KT 10SM CLR 14/12 A3014 870 86 1000 000/00 RMK AO2
94908KDBQ DBQ20030724061009307/24/03 06:10:31  5-MIN KDBQ 241210Z 00000KT 10SM CLR 14/12 A3014 870 86 1000 000/00 RMK AO2
94908KDBQ DBQ20030724061509307/24/03 06:15:31  5-MIN KDBQ 241215Z 00000KT 10SM CLR 15/13 A3014 870 86 1100 000/00 RMK AO2
94908KDBQ DBQ20030724062009307/24/03 06:20:31  5-MIN KDBQ 241220Z 00000KT 10SM CLR 16/13 A3015 870 83 1200 000/00 RMK AO2
94908KDBQ DBQ20030724062509307/24/03 06:25:31  5-MIN KDBQ 241225Z 00000KT 10SM CLR 16/13 A3015 870 83 1200 000/00 RMK AO2
94908KDBQ DBQ20030724063009307/24/03 06:30:31  5-MIN KDBQ 241230Z 00000KT 10SM CLR 16/13 A3015 870 83 1200 000/00 RMK AO2
94908KDBQ DBQ20030724063509307/24/03 06:35:31  5-MIN KDBQ 241235Z 00000KT 10SM CLR 17/13 A3015 870 80 1300 000/00 RMK AO2
94908KDBQ DBQ20030724064009307/24/03 06:40:31  5-MIN KDBQ 241240Z 00000KT 10SM CLR 17/14 A3015 870 80 1400 000/00 RMK AO2
94908KDBQ DBQ20030724064509307/24/03 06:45:31  5-MIN KDBQ 241245Z 00000KT 10SM CLR 17/14 A3015 870 80 1400 000/00 RMK AO2
94908KDBQ DBQ20030724065011007/24/03 06:50:31  5-MIN KDBQ 241250Z 00000KT 10SM CLR 17/14 A3015 860 80 1400 000/00 RMK AO2 SLP207 T01720139
94908KDBQ DBQ20030724065511007/24/03 06:55:31  5-MIN KDBQ 241255Z 00000KT 10SM CLR 18/14 A3015 860 78 1400 000/00 RMK AO2 SLP207 T01780139
94908KDBQ DBQ20030724070009307/24/03 07:00:31  5-MIN KDBQ 241300Z 00000KT 10SM CLR 18/13 A3015 860 75 1400 000/00 RMK AO2
94908KDBQ DBQ20030724070509307/24/03 07:05:31  5-MIN KDBQ 241305Z 00000KT 10SM CLR 18/13 A3015 860 72 1500 000/00 RMK AO2
94908KDBQ DBQ20030724071009307/24/03 07:10:31  5-MIN KDBQ 241310Z 00000KT 10SM CLR 18/13 A3015 860 72 1500 000/00 RMK AO2
94908KDBQ DBQ20030724071509307/24/03 07:15:31  5-MIN KDBQ 241315Z 00000KT 10SM CLR 18/14 A3016 860 78 1500 000/00 RMK AO2
94908KDBQ DBQ20030724072009307/24/03 07:20:31  5-MIN KDBQ 241320Z 23003KT 10SM CLR 18/13 A3016 860 72 1500 230/03 RMK AO2
94908KDBQ DBQ20030724072509307/24/03 07:25:31  5-MIN KDBQ 241325Z 22003KT 10SM CLR 18/13 A3016 860 70 1500 220/03 RMK AO2
94908KDBQ DBQ20030724073009307/24/03 07:30:31  5-MIN KDBQ 241330Z 22003KT 10SM CLR 19/13 A3016 860 70 1600 210/03 RMK AO2
94908KDBQ DBQ20030724073509307/24/03 07:35:31  5-MIN KDBQ 241335Z 22003KT 10SM CLR 19/14 A3016 860 72 1600 220/03 RMK AO2
94908KDBQ DBQ20030724074009307/24/03 07:40:31  5-MIN KDBQ 241340Z 23003KT 10SM CLR 19/14 A3016 860 75 1600 220/03 RMK AO2
94908KDBQ DBQ20030724074509307/24/03 07:45:31  5-MIN KDBQ 241345Z 20003KT 10SM CLR 19/14 A3016 860 75 1600 200/03 RMK AO2
94908KDBQ DBQ20030724075011007/24/03 07:50:31  5-MIN KDBQ 241350Z VRB03KT 10SM CLR 19/15 A3016 860 75 1600 VRB/03 RMK AO2 SLP209 T01940150
94908KDBQ DBQ20030724075511007/24/03 07:55:31  5-MIN KDBQ 241355Z 21003KT 10SM CLR 19/15 A3016 860 75 1600 210/03 RMK AO2 SLP210 T01940150
94908KDBQ DBQ20030724080009307/24/03 08:00:31  5-MIN KDBQ 241400Z 22004KT 10SM CLR 20/14 A3016 860 70 1700 220/04 RMK AO2
94908KDBQ DBQ20030724080509307/24/03 08:05:31  5-MIN KDBQ 241405Z VRB03KT 10SM CLR 20/15 A3016 860 72 1700 VRB/03 RMK AO2
94908KDBQ DBQ20030724081009307/24/03 08:10:31  5-MIN KDBQ 241410Z 23003KT 10SM CLR 20/14 A3016 860 70 1700 230/03 RMK AO2
94908KDBQ DBQ20030724081509307/24/03 08:15:31  5-MIN KDBQ 241415Z 22003KT 10SM CLR 21/14 A3016 860 67 1700 220/03 RMK AO2
94908KDBQ DBQ20030724082009307/24/03 08:20:31  5-MIN KDBQ 241420Z 00000KT 10SM CLR 21/14 A3016 860 67 1700 000/00 RMK AO2
94908KDBQ DBQ20030724082509307/24/03 08:25:31  5-MIN KDBQ 241425Z 23003KT 10SM CLR 21/14 A3016 860 65 1800 230/03 RMK AO2
94908KDBQ DBQ20030724083009307/24/03 08:30:31  5-MIN KDBQ 241430Z 27003KT 10SM CLR 21/14 A3016 860 63 1800 270/03 RMK AO2
94908KDBQ DBQ20030724083509307/24/03 08:35:31  5-MIN KDBQ 241435Z 20003KT 10SM CLR 21/14 A3016 860 63 1800 200/03 RMK AO2
94908KDBQ DBQ20030724084009307/24/03 08:40:31  5-MIN KDBQ 241440Z 00000KT 10SM CLR 21/14 A3016 860 63 1800 000/00 RMK AO2
94908KDBQ DBQ20030724084509307/24/03 08:45:31  5-MIN KDBQ 241445Z 22004KT 10SM CLR 22/14 A3016 860 61 1900 220/04 RMK AO2
94908KDBQ DBQ20030724085011607/24/03 08:50:31  5-MIN KDBQ 241450Z VRB04KT 10SM CLR 22/14 A3016 860 61 1900 VRB/04 RMK AO2 SLP209 T02170139 53009
94908KDBQ DBQ20030724085511607/24/03 08:55:31  5-MIN KDBQ 241455Z VRB03KT 10SM CLR 22/13 A3016 860 56 1900 VRB/03 RMK AO2 SLP208 T02220133 50004
94908KDBQ DBQ20030724090009307/24/03 09:00:31  5-MIN KDBQ 241500Z 23004KT 10SM CLR 22/13 A3015 860 58 1900 230/04 RMK AO2
94908KDBQ DBQ20030724090509307/24/03 09:05:31  5-MIN KDBQ 241505Z 24005KT 10SM CLR 22/13 A3015 860 56 1900 240/05 RMK AO2
94908KDBQ DBQ20030724091009307/24/03 09:10:31  5-MIN KDBQ 241510Z 25006KT 10SM CLR 22/12 A3015 860 52 1900 250/06 RMK AO2
94908KDBQ DBQ20030724091509307/24/03 09:15:31  5-MIN KDBQ 241515Z VRB04KT 10SM CLR 22/13 A3015 860 54 1900 VRB/04 RMK AO2
94908KDBQ DBQ20030724092009307/24/03 09:20:31  5-MIN KDBQ 241520Z 24007KT 10SM CLR 22/13 A3015 860 54 1900 240/07 RMK AO2
94908KDBQ DBQ20030724092509307/24/03 09:25:31  5-MIN KDBQ 241525Z VRB06KT 10SM CLR 22/12 A3015 870 52 1900 VRB/06 RMK AO2
94908KDBQ DBQ20030724093009307/24/03 09:30:31  5-MIN KDBQ 241530Z 22005KT 10SM CLR 22/13 A3015 870 54 1900 220/05 RMK AO2
94908KDBQ DBQ20030724093509307/24/03 09:35:31  5-MIN KDBQ 241535Z VRB03KT 10SM CLR 22/13 A3015 870 56 1900 VRB/03 RMK AO2
94908KDBQ DBQ20030724094009307/24/03 09:40:31  5-MIN KDBQ 241540Z VRB04KT 10SM CLR 23/14 A3015 870 57 2000 VRB/04 RMK AO2
94908KDBQ DBQ20030724094509307/24/03 09:45:31  5-MIN KDBQ 241545Z 21006KT 10SM CLR 23/14 A3015 870 57 2000 210/06 RMK AO2
94908KDBQ DBQ20030724095011007/24/03 09:50:31  5-MIN KDBQ 241550Z 22007KT 10SM CLR 23/14 A3015 870 57 2000 210/07 RMK AO2 SLP208 T02280139
94908KDBQ DBQ20030724095511007/24/03 09:55:31  5-MIN KDBQ 241555Z VRB05KT 10SM CLR 23/13 A3015 860 55 2000 VRB/05 RMK AO2 SLP208 T02280133
94908KDBQ DBQ20030724100009307/24/03 10:00:31  5-MIN KDBQ 241600Z 19007KT 10SM CLR 23/13 A3015 870 53 2100 190/07 RMK AO2
94908KDBQ DBQ20030724100509307/24/03 10:05:31  5-MIN KDBQ 241605Z 21009KT 10SM CLR 23/13 A3015 870 51 2100 210/09 RMK AO2
94908KDBQ DBQ20030724101009307/24/03 10:10:31  5-MIN KDBQ 241610Z 24008KT 10SM CLR 23/12 A3015 870 51 2000 240/08 RMK AO2
94908KDBQ DBQ20030724101509307/24/03 10:15:31  5-MIN KDBQ 241615Z 21010KT 10SM CLR 23/13 A3015 870 51 2100 210/10 RMK AO2
94908KDBQ DBQ20030724102009307/24/03 10:20:31  5-MIN KDBQ 241620Z 22006KT 10SM CLR 23/13 A3015 870 51 2100 220/06 RMK AO2
94908KDBQ DBQ20030724102509307/24/03 10:25:31  5-MIN KDBQ 241625Z 23007KT 10SM CLR 23/13 A3015 870 51 2100 230/07 RMK AO2
94908KDBQ DBQ20030724103009307/24/03 10:30:31  5-MIN KDBQ 241630Z 21006KT 10SM CLR 23/12 A3014 870 49 2100 210/06 RMK AO2
94908KDBQ DBQ20030724103509307/24/03 10:35:31  5-MIN KDBQ 241635Z 21009KT 10SM CLR 23/14 A3014 870 55 2100 210/09 RMK AO2
94908KDBQ DBQ20030724104009307/24/03 10:40:31  5-MIN KDBQ 241640Z 21009KT 10SM CLR 24/13 A3014 880 51 2100 200/09 RMK AO2
94908KDBQ DBQ20030724104509307/24/03 10:45:31  5-MIN KDBQ 241645Z 24005KT 10SM CLR 24/13 A3014 880 51 2100 230/05 RMK AO2
94908KDBQ DBQ20030724105011007/24/03 10:50:31  5-MIN KDBQ 241650Z 23009KT 10SM CLR 24/12 A3014 880 47 2100 230/09 RMK AO2 SLP203 T02390122
94908KDBQ DBQ20030724105511007/24/03 10:55:31  5-MIN KDBQ 241655Z 22012KT 10SM CLR 24/12 A3014 870 47 2100 220/12 RMK AO2 SLP203 T02390122
94908KDBQ DBQ20030724110009307/24/03 11:00:31  5-MIN KDBQ 241700Z 21011KT 10SM CLR 23/12 A3014 880 47 2100 210/11 RMK AO2
94908KDBQ DBQ20030724110509307/24/03 11:05:31  5-MIN KDBQ 241705Z 23010KT 10SM CLR 24/12 A3014 870 47 2100 220/10 RMK AO2
94908KDBQ DBQ20030724111009307/24/03 11:10:31  5-MIN KDBQ 241710Z 23010KT 10SM CLR 24/12 A3014 880 47 2100 230/10 RMK AO2
94908KDBQ DBQ20030724111509307/24/03 11:15:31  5-MIN KDBQ 241715Z 23009KT 10SM CLR 24/12 A3014 880 47 2100 230/09 RMK AO2
94908KDBQ DBQ20030724112009307/24/03 11:20:31  5-MIN KDBQ 241720Z 22010KT 10SM CLR 24/12 A3014 870 47 2100 220/10 RMK AO2
94908KDBQ DBQ20030724112509307/24/03 11:25:31  5-MIN KDBQ 241725Z 22010KT 10SM CLR 23/12 A3014 880 51 2000 220/10 RMK AO2
94908KDBQ DBQ20030724113009307/24/03 11:30:31  5-MIN KDBQ 241730Z 20008KT 10SM CLR 23/12 A3014 880 49 2100 200/08 RMK AO2
94908KDBQ DBQ20030724113509307/24/03 11:35:31  5-MIN KDBQ 241735Z 21008KT 10SM CLR 23/12 A3014 870 49 2100 210/08 RMK AO2
94908KDBQ DBQ20030724114009307/24/03 11:40:31  5-MIN KDBQ 241740Z 21008KT 10SM CLR 23/13 A3014 880 51 2100 210/08 RMK AO2
94908KDBQ DBQ20030724114509307/24/03 11:45:31  5-MIN KDBQ 241745Z 23009KT 10SM CLR 23/12 A3014 870 49 2100 230/09 RMK AO2
94908KDBQ DBQ20030724115012807/24/03 11:50:31  5-MIN KDBQ 241750Z 22008KT 10SM CLR 23/13 A3014 880 51 2100 220/08 RMK AO2 SLP204 T02330128 10239 20133 50004
94908KDBQ DBQ20030724115512807/24/03 11:55:31  5-MIN KDBQ 241755Z 23010KT 10SM CLR 23/13 A3014 880 51 2100 230/10 RMK AO2 SLP203 T02330128 10239 20133 57005
94908KDBQ DBQ20030724120009307/24/03 12:00:31  5-MIN KDBQ 241800Z 22010KT 10SM CLR 23/13 A3014 880 51 2100 220/10 RMK AO2
94908KDBQ DBQ20030724120509307/24/03 12:05:31  5-MIN KDBQ 241805Z 20008KT 10SM CLR 23/13 A3014 880 51 2100 200/08 RMK AO2
94908KDBQ DBQ20030724121009307/24/03 12:10:31  5-MIN KDBQ 241810Z 20008KT 10SM CLR 24/13 A3014 880 51 2100 200/08 RMK AO2
94908KDBQ DBQ20030724121509307/24/03 12:15:31  5-MIN KDBQ 241815Z 19008KT 10SM CLR 24/13 A3014 880 49 2100 190/08 RMK AO2
94908KDBQ DBQ20030724122009307/24/03 12:20:31  5-MIN KDBQ 241820Z 20010KT 10SM CLR 24/12 A3014 880 47 2100 200/10 RMK AO2
94908KDBQ DBQ20030724122509307/24/03 12:25:31  5-MIN KDBQ 241825Z 19008KT 10SM CLR 24/12 A3014 880 47 2100 180/08 RMK AO2
94908KDBQ DBQ20030724123009307/24/03 12:30:31  5-MIN KDBQ 241830Z 21008KT 10SM CLR 24/13 A3014 880 49 2100 210/08 RMK AO2
94908KDBQ DBQ20030724123509307/24/03 12:35:31  5-MIN KDBQ 241835Z 21008KT 10SM CLR 24/13 A3013 880 49 2200 210/08 RMK AO2
94908KDBQ DBQ20030724124009307/24/03 12:40:31  5-MIN KDBQ 241840Z 19008KT 10SM CLR 24/12 A3013 880 47 2200 190/08 RMK AO2
94908KDBQ DBQ20030724124509607/24/03 12:45:31  5-MIN KDBQ 241845Z 19005KT 10SM FEW050 23/12 A3013 880 49 2100 180/05 RMK AO2
94908KDBQ DBQ20030724125011307/24/03 12:50:31  5-MIN KDBQ 241850Z 21008KT 10SM FEW050 24/13 A3013 880 49 2200 210/08 RMK AO2 SLP201 T02390128
94908KDBQ DBQ20030724125511307/24/03 12:55:31  5-MIN KDBQ 241855Z 21007KT 10SM FEW050 24/13 A3013 880 49 2200 210/07 RMK AO2 SLP201 T02390128
94908KDBQ DBQ20030724130009607/24/03 13:00:31  5-MIN KDBQ 241900Z 23008KT 10SM FEW050 24/13 A3013 890 49 2200 230/08 RMK AO2
94908KDBQ DBQ20030724130509607/24/03 13:05:31  5-MIN KDBQ 241905Z 23007KT 10SM FEW050 23/12 A3013 890 51 2000 230/07 RMK AO2
94908KDBQ DBQ20030724131009607/24/03 13:10:31  5-MIN KDBQ 241910Z 20008KT 10SM SCT050 24/13 A3013 890 49 2200 200/08 RMK AO2
94908KDBQ DBQ20030724131509607/24/03 13:15:31  5-MIN KDBQ 241915Z 19008KT 10SM SCT050 24/14 A3012 890 51 2200 190/08 RMK AO2
94908KDBQ DBQ20030724132009607/24/03 13:20:31  5-MIN KDBQ 241920Z 24008KT 10SM FEW050 24/13 A3013 890 51 2200 240/08 RMK AO2
94908KDBQ DBQ20030724132509607/24/03 13:25:31  5-MIN KDBQ 241925Z 20010KT 10SM SCT050 24/13 A3013 890 51 2200 200/10 RMK AO2
94908KDBQ DBQ20030724133009607/24/03 13:30:31  5-MIN KDBQ 241930Z 20007KT 10SM SCT050 24/13 A3012 890 47 2200 200/07 RMK AO2
94908KDBQ DBQ20030724133509607/24/03 13:35:31  5-MIN KDBQ 241935Z 24009KT 10SM FEW050 24/14 A3012 890 51 2200 230/09 RMK AO2
94908KDBQ DBQ20030724134009607/24/03 13:40:31  5-MIN KDBQ 241940Z 18006KT 10SM SCT050 24/13 A3012 900 49 2200 180/06 RMK AO2
94908KDBQ DBQ20030724134509607/24/03 13:45:31  5-MIN KDBQ 241945Z 20011KT 10SM BKN050 24/14 A3011 900 51 2200 200/11 RMK AO2
94908KDBQ DBQ20030724135011307/24/03 13:50:31  5-MIN KDBQ 241950Z 19005KT 10SM SCT050 24/13 A3011 900 49 2200 190/05 RMK AO2 SLP195 T02390128
94908KDBQ DBQ20030724135511807/24/03 13:55:31  5-MIN KDBQ 241955Z AUTO 21008KT 10SM FEW050 24/13 A3011 900 49 2200 210/08 RMK AO2 SLP195 T02440133
94908KDBQ DBQ20030724140009607/24/03 14:00:31  5-MIN KDBQ 242000Z 18006KT 10SM SCT050 24/13 A3011 900 47 2200 180/06 RMK AO2
94908KDBQ DBQ20030724140509607/24/03 14:05:31  5-MIN KDBQ 242005Z 19010KT 10SM BKN050 24/13 A3011 900 49 2200 190/10 RMK AO2
94908KDBQ DBQ20030724141011207/24/03 14:10:31  5-MIN KDBQ 242010Z 19008KT 160V220 10SM BKN050 24/13 A3011 900 49 2200 190/08 160V220 RMK AO2
94908KDBQ DBQ20030724141509607/24/03 14:15:31  5-MIN KDBQ 242015Z 19009KT 10SM BKN050 24/13 A3011 900 49 2200 190/09 RMK AO2
94908KDBQ DBQ20030724142009607/24/03 14:20:31  5-MIN KDBQ 242020Z 18006KT 10SM BKN050 24/13 A3011 900 49 2200 180/06 RMK AO2
94908KDBQ DBQ20030724142509607/24/03 14:25:31  5-MIN KDBQ 242025Z 19008KT 10SM BKN050 24/13 A3011 900 49 2200 190/08 RMK AO2
94908KDBQ DBQ20030724143011207/24/03 14:30:31  5-MIN KDBQ 242030Z 21007KT 180V240 10SM BKN050 24/14 A3011 900 51 2200 210/07 180V240 RMK AO2
94908KDBQ DBQ20030724143509607/24/03 14:35:31  5-MIN KDBQ 242035Z 21006KT 10SM BKN050 24/13 A3011 910 49 2200 210/06 RMK AO2
94908KDBQ DBQ20030724144009607/24/03 14:40:31  5-MIN KDBQ 242040Z 18008KT 10SM SCT055 24/13 A3010 910 49 2200 180/08 RMK AO2
94908KDBQ DBQ20030724144509607/24/03 14:45:31  5-MIN KDBQ 242045Z 19011KT 10SM FEW055 24/13 A3010 910 51 2200 190/11 RMK AO2
94908KDBQ DBQ20030724145011907/24/03 14:50:31  5-MIN KDBQ 242050Z 19007KT 10SM FEW055 24/13 A3010 910 49 2200 190/07 RMK AO2 SLP191 T02390128 57005
94908KDBQ DBQ20030724145511907/24/03 14:55:31  5-MIN KDBQ 242055Z 18008KT 10SM FEW050 23/13 A3010 910 51 2100 180/08 RMK AO2 SLP191 T02330128 58012
94908KDBQ DBQ20030724150009607/24/03 15:00:31  5-MIN KDBQ 242100Z 19009KT 10SM SCT060 24/13 A3010 910 49 2200 180/09 RMK AO2
94908KDBQ DBQ20030724150509607/24/03 15:05:31  5-MIN KDBQ 242105Z 19009KT 10SM FEW055 24/13 A3010 920 51 2200 190/09 RMK AO2
94908KDBQ DBQ20030724151009607/24/03 15:10:31  5-MIN KDBQ 242110Z 20010KT 10SM FEW060 23/13 A3009 920 53 2100 190/10 RMK AO2
94908KDBQ DBQ20030724151509607/24/03 15:15:31  5-MIN KDBQ 242115Z 20010KT 10SM SCT060 24/13 A3010 920 47 2300 200/10 RMK AO2
94908KDBQ DBQ20030724152009607/24/03 15:20:31  5-MIN KDBQ 242120Z 20010KT 10SM FEW060 24/13 A3010 920 47 2300 200/10 RMK AO2
94908KDBQ DBQ20030724152509607/24/03 15:25:31  5-MIN KDBQ 242125Z 19009KT 10SM FEW055 24/13 A3010 910 47 2300 190/09 RMK AO2
94908KDBQ DBQ20030724153009607/24/03 15:30:31  5-MIN KDBQ 242130Z 21010KT 10SM FEW060 24/13 A3010 910 47 2300 210/10 RMK AO2
94908KDBQ DBQ20030724153509607/24/03 15:35:31  5-MIN KDBQ 242135Z 20010KT 10SM FEW060 24/12 A3010 920 46 2300 200/10 RMK AO2
94908KDBQ DBQ20030724154009307/24/03 15:40:31  5-MIN KDBQ 242140Z 19007KT 10SM CLR 24/12 A3010 910 46 2300 190/07 RMK AO2
94908KDBQ DBQ20030724154509307/24/03 15:45:31  5-MIN KDBQ 242145Z 19010KT 10SM CLR 24/12 A3010 910 46 2300 190/10 RMK AO2
94908KDBQ DBQ20030724155011007/24/03 15:50:31  5-MIN KDBQ 242150Z 19006KT 10SM CLR 24/13 A3010 910 47 2300 190/06 RMK AO2 SLP190 T02440128
94908KDBQ DBQ20030724155511007/24/03 15:55:31  5-MIN KDBQ 242155Z 19011KT 10SM CLR 24/13 A3010 910 47 2300 190/11 RMK AO2 SLP190 T02440128
94908KDBQ DBQ20030724160009307/24/03 16:00:31  5-MIN KDBQ 242200Z 19009KT 10SM CLR 24/12 A3010 910 46 2300 190/09 RMK AO2
94908KDBQ DBQ20030724160509307/24/03 16:05:31  5-MIN KDBQ 242205Z 17009KT 10SM CLR 24/12 A3010 910 46 2300 170/09 RMK AO2
94908KDBQ DBQ20030724161009307/24/03 16:10:31  5-MIN KDBQ 242210Z 19009KT 10SM CLR 24/12 A3010 910 47 2200 190/09 RMK AO2
94908KDBQ DBQ20030724161509307/24/03 16:15:31  5-MIN KDBQ 242215Z 21009KT 10SM CLR 24/12 A3010 920 47 2200 210/09 RMK AO2
94908KDBQ DBQ20030724162009307/24/03 16:20:31  5-MIN KDBQ 242220Z 20009KT 10SM CLR 24/12 A3009 920 47 2200 190/09 RMK AO2
94908KDBQ DBQ20030724162509307/24/03 16:25:31  5-MIN KDBQ 242225Z 20010KT 10SM CLR 24/12 A3009 920 47 2200 200/10 RMK AO2
94908KDBQ DBQ20030724163009307/24/03 16:30:31  5-MIN KDBQ 242230Z 19010KT 10SM CLR 24/12 A3009 920 47 2200 190/10 RMK AO2
94908KDBQ DBQ20030724163509307/24/03 16:35:31  5-MIN KDBQ 242235Z 18009KT 10SM CLR 24/12 A3009 920 47 2200 180/09 RMK AO2
94908KDBQ DBQ20030724164009307/24/03 16:40:31  5-MIN KDBQ 242240Z 19007KT 10SM CLR 24/13 A3009 920 49 2200 190/07 RMK AO2
94908KDBQ DBQ20030724164509307/24/03 16:45:31  5-MIN KDBQ 242245Z 18009KT 10SM CLR 24/13 A3008 930 49 2200 180/09 RMK AO2
94908KDBQ DBQ20030724165011007/24/03 16:50:31  5-MIN KDBQ 242250Z 19009KT 10SM CLR 24/13 A3009 930 49 2200 190/09 RMK AO2 SLP186 T02390128
94908KDBQ DBQ20030724165511007/24/03 16:55:31  5-MIN KDBQ 242255Z 19009KT 10SM CLR 24/12 A3009 930 47 2200 190/09 RMK AO2 SLP186 T02390122
94908KDBQ DBQ20030724170009307/24/03 17:00:31  5-MIN KDBQ 242300Z 19009KT 10SM CLR 24/13 A3009 920 49 2200 190/09 RMK AO2
94908KDBQ DBQ20030724170509307/24/03 17:05:31  5-MIN KDBQ 242305Z 20008KT 10SM CLR 24/13 A3008 930 51 2200 200/08 RMK AO2
94908KDBQ DBQ20030724171009307/24/03 17:10:31  5-MIN KDBQ 242310Z 19008KT 10SM CLR 23/13 A3009 930 53 2100 190/08 RMK AO2
94908KDBQ DBQ20030724171509307/24/03 17:15:31  5-MIN KDBQ 242315Z 19009KT 10SM CLR 23/13 A3008 930 53 2100 190/09 RMK AO2
94908KDBQ DBQ20030724172009307/24/03 17:20:31  5-MIN KDBQ 242320Z 20008KT 10SM CLR 23/13 A3008 930 53 2200 190/08 RMK AO2
94908KDBQ DBQ20030724172509307/24/03 17:25:31  5-MIN KDBQ 242325Z 20009KT 10SM CLR 23/13 A3008 930 53 2200 200/09 RMK AO2
94908KDBQ DBQ20030724173009307/24/03 17:30:31  5-MIN KDBQ 242330Z 20010KT 10SM CLR 23/13 A3008 930 53 2200 200/10 RMK AO2
94908KDBQ DBQ20030724173509307/24/03 17:35:31  5-MIN KDBQ 242335Z 20010KT 10SM CLR 23/13 A3008 940 53 2200 200/10 RMK AO2
94908KDBQ DBQ20030724174009307/24/03 17:40:31  5-MIN KDBQ 242340Z 20008KT 10SM CLR 23/13 A3008 940 53 2200 190/08 RMK AO2
94908KDBQ DBQ20030724174509307/24/03 17:45:31  5-MIN KDBQ 242345Z 20007KT 10SM CLR 23/13 A3008 930 53 2200 200/07 RMK AO2
94908KDBQ DBQ20030724175012807/24/03 17:50:31  5-MIN KDBQ 242350Z 20007KT 10SM CLR 23/13 A3008 930 55 2100 200/07 RMK AO2 SLP183 T02280133 10244 20228 58012
94908KDBQ DBQ20030724175512807/24/03 17:55:31  5-MIN KDBQ 242355Z 20008KT 10SM CLR 23/14 A3008 930 57 2100 190/08 RMK AO2 SLP184 T02280139 10244 20228 58007
94908KDBQ DBQ20030724180009307/24/03 18:00:31  5-MIN KDBQ 250000Z 19007KT 10SM CLR 23/14 A3008 930 57 2100 190/07 RMK AO2
94908KDBQ DBQ20030724180509307/24/03 18:05:31  5-MIN KDBQ 250005Z 19007KT 10SM CLR 23/14 A3008 930 57 2100 190/07 RMK AO2
94908KDBQ DBQ20030724181009307/24/03 18:10:31  5-MIN KDBQ 250010Z 19008KT 10SM CLR 23/14 A3008 930 57 2100 190/08 RMK AO2
94908KDBQ DBQ20030724181509307/24/03 18:15:31  5-MIN KDBQ 250015Z 20007KT 10SM CLR 22/14 A3008 930 59 2000 200/07 RMK AO2
94908KDBQ DBQ20030724182009307/24/03 18:20:31  5-MIN KDBQ 250020Z 20006KT 10SM CLR 22/14 A3008 930 61 2000 200/06 RMK AO2
94908KDBQ DBQ20030724182509307/24/03 18:25:31  5-MIN KDBQ 250025Z 20006KT 10SM CLR 22/14 A3009 920 61 2000 190/06 RMK AO2
94908KDBQ DBQ20030724183009307/24/03 18:30:31  5-MIN KDBQ 250030Z 19006KT 10SM CLR 22/14 A3009 920 63 2000 190/06 RMK AO2
94908KDBQ DBQ20030724183509307/24/03 18:35:31  5-MIN KDBQ 250035Z 19005KT 10SM CLR 22/14 A3009 920 63 2000 190/05 RMK AO2
94908KDBQ DBQ20030724184009307/24/03 18:40:31  5-MIN KDBQ 250040Z 19005KT 10SM CLR 22/15 A3009 930 65 2000 190/05 RMK AO2
94908KDBQ DBQ20030724184509307/24/03 18:45:31  5-MIN KDBQ 250045Z 19005KT 10SM CLR 21/15 A3008 930 68 1900 190/05 RMK AO2
94908KDBQ DBQ20030724185011007/24/03 18:50:31  5-MIN KDBQ 250050Z 18005KT 10SM CLR 21/15 A3008 930 68 1900 180/05 RMK AO2 SLP184 T02110150
94908KDBQ DBQ20030724185511007/24/03 18:55:31  5-MIN KDBQ 250055Z 18005KT 10SM CLR 21/15 A3008 930 70 1800 180/05 RMK AO2 SLP183 T02060150
94908KDBQ DBQ20030724190010307/24/03 19:00:31  5-MIN KDBQ 250100Z AUTO 18006KT 10SM CLR 21/14 A3008 930 67 1800 180/06 RMK AO2 TSNO
94908KDBQ DBQ20030724190510307/24/03 19:05:31  5-MIN KDBQ 250105Z AUTO 17006KT 10SM CLR 21/14 A3008 930 67 1800 170/06 RMK AO2 TSNO
94908KDBQ DBQ20030724191010307/24/03 19:10:31  5-MIN KDBQ 250110Z AUTO 17006KT 10SM CLR 20/14 A3008 930 70 1800 170/06 RMK AO2 TSNO
94908KDBQ DBQ20030724191510307/24/03 19:15:31  5-MIN KDBQ 250115Z AUTO 17007KT 10SM CLR 20/14 A3008 940 70 1800 170/07 RMK AO2 TSNO
94908KDBQ DBQ20030724192010307/24/03 19:20:31  5-MIN KDBQ 250120Z AUTO 17006KT 10SM CLR 19/14 A3008 930 72 1700 170/06 RMK AO2 TSNO
94908KDBQ DBQ20030724192510307/24/03 19:25:31  5-MIN KDBQ 250125Z AUTO 17005KT 10SM CLR 19/14 A3008 930 72 1700 170/05 RMK AO2 TSNO
94908KDBQ DBQ20030724193010307/24/03 19:30:31  5-MIN KDBQ 250130Z AUTO 17006KT 10SM CLR 19/14 A3008 930 72 1700 170/06 RMK AO2 TSNO
94908KDBQ DBQ20030724193510307/24/03 19:35:31  5-MIN KDBQ 250135Z AUTO 18005KT 10SM CLR 19/14 A3008 930 75 1600 180/05 RMK AO2 TSNO
94908KDBQ DBQ20030724194010307/24/03 19:40:31  5-MIN KDBQ 250140Z AUTO 19004KT 10SM CLR 18/14 A3008 930 78 1600 180/04 RMK AO2 TSNO
94908KDBQ DBQ20030724194510307/24/03 19:45:31  5-MIN KDBQ 250145Z AUTO 20003KT 10SM CLR 18/14 A3009 920 81 1500 190/03 RMK AO2 TSNO
94908KDBQ DBQ20030724195012007/24/03 19:50:31  5-MIN KDBQ 250150Z AUTO 21003KT 10SM CLR 18/14 A3009 920 78 1600 210/03 RMK AO2 SLP187 T01830144 TSNO
94908KDBQ DBQ20030724195512007/24/03 19:55:31  5-MIN KDBQ 250155Z AUTO 21004KT 10SM CLR 18/14 A3009 920 78 1600 200/04 RMK AO2 SLP187 T01830144 TSNO
94908KDBQ DBQ20030724200010307/24/03 20:00:31  5-MIN KDBQ 250200Z AUTO 20004KT 10SM CLR 18/14 A3009 920 75 1600 200/04 RMK AO2 TSNO
94908KDBQ DBQ20030724200510307/24/03 20:05:31  5-MIN KDBQ 250205Z AUTO 20003KT 10SM CLR 18/14 A3009 920 75 1600 200/03 RMK AO2 TSNO
94908KDBQ DBQ20030724201010307/24/03 20:10:31  5-MIN KDBQ 250210Z AUTO 20003KT 10SM CLR 18/14 A3009 920 78 1500 200/03 RMK AO2 TSNO
94908KDBQ DBQ20030724201510307/24/03 20:15:31  5-MIN KDBQ 250215Z AUTO 20003KT 10SM CLR 17/14 A3009 920 80 1400 200/03 RMK AO2 TSNO
94908KDBQ DBQ20030724202010307/24/03 20:20:31  5-MIN KDBQ 250220Z AUTO 19004KT 10SM CLR 18/14 A3010 920 81 1500 180/04 RMK AO2 TSNO
94908KDBQ DBQ20030724202510307/24/03 20:25:31  5-MIN KDBQ 250225Z AUTO 18004KT 10SM CLR 17/14 A3009 920 83 1400 180/04 RMK AO2 TSNO
94908KDBQ DBQ20030724203010307/24/03 20:30:31  5-MIN KDBQ 250230Z AUTO 18004KT 10SM CLR 17/14 A3009 920 80 1400 180/04 RMK AO2 TSNO
94908KDBQ DBQ20030724203510307/24/03 20:35:31  5-MIN KDBQ 250235Z AUTO 18005KT 10SM CLR 17/14 A3010 920 80 1400 180/05 RMK AO2 TSNO
94908KDBQ DBQ20030724204010307/24/03 20:40:31  5-MIN KDBQ 250240Z AUTO 18004KT 10SM CLR 17/14 A3010 910 83 1400 180/04 RMK AO2 TSNO
94908KDBQ DBQ20030724204510307/24/03 20:45:31  5-MIN KDBQ 250245Z AUTO 17005KT 10SM CLR 17/14 A3010 910 80 1400 170/05 RMK AO2 TSNO
94908KDBQ DBQ20030724205012607/24/03 20:50:31  5-MIN KDBQ 250250Z AUTO 16005KT 10SM CLR 17/14 A3010 910 83 1400 160/05 RMK AO2 SLP189 T01670139 58007 TSNO
94908KDBQ DBQ20030724205512607/24/03 20:55:31  5-MIN KDBQ 250255Z AUTO 16005KT 10SM CLR 18/14 A3010 910 78 1500 160/05 RMK AO2 SLP190 T01780139 53007 TSNO
94908KDBQ DBQ20030724210010307/24/03 21:00:31  5-MIN KDBQ 250300Z AUTO 17005KT 10SM CLR 17/14 A3010 910 83 1400 170/05 RMK AO2 TSNO
94908KDBQ DBQ20030724210510307/24/03 21:05:31  5-MIN KDBQ 250305Z AUTO 17005KT 10SM CLR 17/14 A3010 910 83 1400 170/05 RMK AO2 TSNO
94908KDBQ DBQ20030724211010307/24/03 21:10:31  5-MIN KDBQ 250310Z AUTO 17005KT 10SM CLR 17/14 A3010 910 83 1400 170/05 RMK AO2 TSNO
94908KDBQ DBQ20030724211510307/24/03 21:15:31  5-MIN KDBQ 250315Z AUTO 17005KT 10SM CLR 17/14 A3010 910 83 1400 170/05 RMK AO2 TSNO
94908KDBQ DBQ20030724212010307/24/03 21:20:31  5-MIN KDBQ 250320Z AUTO 17006KT 10SM CLR 17/14 A3010 910 83 1400 160/06 RMK AO2 TSNO
94908KDBQ DBQ20030724212510307/24/03 21:25:31  5-MIN KDBQ 250325Z AUTO 17005KT 10SM CLR 16/13 A3010 910 83 1300 170/05 RMK AO2 TSNO
94908KDBQ DBQ20030724213010307/24/03 21:30:31  5-MIN KDBQ 250330Z AUTO 17005KT 10SM CLR 16/13 A3010 910 83 1300 170/05 RMK AO2 TSNO
94908KDBQ DBQ20030724213510307/24/03 21:35:31  5-MIN KDBQ 250335Z AUTO 17004KT 10SM CLR 16/14 A3010 910 86 1300 170/04 RMK AO2 TSNO
94908KDBQ DBQ20030724214010307/24/03 21:40:31  5-MIN KDBQ 250340Z AUTO 17005KT 10SM CLR 16/14 A3010 910 86 1300 170/05 RMK AO2 TSNO
94908KDBQ DBQ20030724214510307/24/03 21:45:31  5-MIN KDBQ 250345Z AUTO 16006KT 10SM CLR 16/13 A3009 920 83 1300 160/06 RMK AO2 TSNO
94908KDBQ DBQ20030724215012007/24/03 21:50:31  5-MIN KDBQ 250350Z AUTO 17007KT 10SM CLR 17/14 A3009 920 83 1400 160/07 RMK AO2 SLP187 T01670139 TSNO
94908KDBQ DBQ20030724215512007/24/03 21:55:31  5-MIN KDBQ 250355Z AUTO 16007KT 10SM CLR 17/14 A3009 920 83 1400 160/07 RMK AO2 SLP187 T01670139 TSNO
94908KDBQ DBQ20030724220010307/24/03 22:00:31  5-MIN KDBQ 250400Z AUTO 17005KT 10SM CLR 17/14 A3010 920 83 1400 170/05 RMK AO2 TSNO
94908KDBQ DBQ20030724220510307/24/03 22:05:31  5-MIN KDBQ 250405Z AUTO 19004KT 10SM CLR 16/13 A3009 920 86 1200 190/04 RMK AO2 TSNO
94908KDBQ DBQ20030724221010307/24/03 22:10:31  5-MIN KDBQ 250410Z AUTO 20004KT 10SM CLR 16/13 A3010 920 83 1300 200/04 RMK AO2 TSNO
94908KDBQ DBQ20030724221510307/24/03 22:15:31  5-MIN KDBQ 250415Z AUTO 19005KT 10SM CLR 16/13 A3009 920 83 1300 190/05 RMK AO2 TSNO
94908KDBQ DBQ20030724222010307/24/03 22:20:31  5-MIN KDBQ 250420Z AUTO 18004KT 10SM CLR 16/13 A3009 920 86 1200 180/04 RMK AO2 TSNO
94908KDBQ DBQ20030724222510307/24/03 22:25:31  5-MIN KDBQ 250425Z AUTO 18004KT 10SM CLR 16/13 A3009 920 86 1200 180/04 RMK AO2 TSNO
94908KDBQ DBQ20030724223010307/24/03 22:30:31  5-MIN KDBQ 250430Z AUTO 18004KT 10SM CLR 16/13 A3009 920 83 1200 180/04 RMK AO2 TSNO
94908KDBQ DBQ20030724223510307/24/03 22:35:31  5-MIN KDBQ 250435Z AUTO VRB04KT 10SM CLR 15/13 A3009 920 86 1200 VRB/04 RMK AO2 TSNO
94908KDBQ DBQ20030724224010307/24/03 22:40:31  5-MIN KDBQ 250440Z AUTO 20004KT 10SM CLR 15/13 A3009 920 86 1200 190/04 RMK AO2 TSNO
94908KDBQ DBQ20030724224510307/24/03 22:45:31  5-MIN KDBQ 250445Z AUTO 21004KT 10SM CLR 15/13 A3009 920 86 1200 210/04 RMK AO2 TSNO
94908KDBQ DBQ20030724225012007/24/03 22:50:31  5-MIN KDBQ 250450Z AUTO 20004KT 10SM CLR 16/13 A3009 920 83 1200 200/04 RMK AO2 SLP187 T01560128 TSNO
94908KDBQ DBQ20030724225512007/24/03 22:55:31  5-MIN KDBQ 250455Z AUTO 19005KT 10SM CLR 16/13 A3009 920 80 1300 190/05 RMK AO2 SLP186 T01610128 TSNO
94908KDBQ DBQ20030724230010307/24/03 23:00:31  5-MIN KDBQ 250500Z AUTO 19004KT 10SM CLR 16/13 A3009 920 83 1200 190/04 RMK AO2 TSNO
94908KDBQ DBQ20030724230510307/24/03 23:05:31  5-MIN KDBQ 250505Z AUTO 19005KT 10SM CLR 16/13 A3009 930 83 1200 190/05 RMK AO2 TSNO
94908KDBQ DBQ20030724231010307/24/03 23:10:31  5-MIN KDBQ 250510Z AUTO 18006KT 10SM CLR 15/13 A3009 930 86 1200 170/06 RMK AO2 TSNO
94908KDBQ DBQ20030724231510307/24/03 23:15:31  5-MIN KDBQ 250515Z AUTO 17006KT 10SM CLR 16/13 A3009 930 83 1200 170/06 RMK AO2 TSNO
94908KDBQ DBQ20030724232010307/24/03 23:20:31  5-MIN KDBQ 250520Z AUTO 19005KT 10SM CLR 16/13 A3009 920 83 1300 190/05 RMK AO2 TSNO
94908KDBQ DBQ20030724232510307/24/03 23:25:31  5-MIN KDBQ 250525Z AUTO 22004KT 10SM CLR 15/13 A3009 920 86 1200 210/04 RMK AO2 TSNO
94908KDBQ DBQ20030724233010307/24/03 23:30:31  5-MIN KDBQ 250530Z AUTO 21004KT 10SM CLR 15/13 A3010 920 86 1200 210/04 RMK AO2 TSNO
94908KDBQ DBQ20030724233510307/24/03 23:35:31  5-MIN KDBQ 250535Z AUTO 20005KT 10SM CLR 16/13 A3010 920 83 1200 200/05 RMK AO2 TSNO
94908KDBQ DBQ20030724234010307/24/03 23:40:31  5-MIN KDBQ 250540Z AUTO 19005KT 10SM CLR 16/13 A3010 920 83 1200 190/05 RMK AO2 TSNO
94908KDBQ DBQ20030724234510307/24/03 23:45:31  5-MIN KDBQ 250545Z AUTO 18006KT 10SM CLR 16/13 A3010 920 86 1200 170/06 RMK AO2 TSNO
94908KDBQ DBQ20030724235014807/24/03 23:50:31  5-MIN KDBQ 250550Z AUTO 18005KT 10SM CLR 16/13 A3010 920 86 1200 180/05 RMK AO2 SLP188 T01560133 10228 20150 402440106 53007 TSNO
94908KDBQ DBQ20030724235514807/24/03 23:55:31  5-MIN KDBQ 250555Z AUTO 18004KT 10SM CLR 16/13 A3010 920 86 1200 180/04 RMK AO2 SLP188 T01560133 10228 20150 402440106 55002 TSNO
94908KDBQ DBQ20030725000010307/25/03 00:00:31  5-MIN KDBQ 250600Z AUTO 17004KT 10SM CLR 16/13 A3010 920 86 1200 170/04 RMK AO2 TSNO
94908KDBQ DBQ20030725000510307/25/03 00:05:31  5-MIN KDBQ 250605Z AUTO 18004KT 10SM CLR 15/13 A3010 910 86 1200 180/04 RMK AO2 TSNO
94908KDBQ DBQ20030725001010307/25/03 00:10:31  5-MIN KDBQ 250610Z AUTO 17004KT 10SM CLR 15/13 A3010 910 86 1200 170/04 RMK AO2 TSNO
94908KDBQ DBQ20030725001510307/25/03 00:15:31  5-MIN KDBQ 250615Z AUTO 16006KT 10SM CLR 16/13 A3009 920 86 1200 160/06 RMK AO2 TSNO
94908KDBQ DBQ20030725002010307/25/03 00:20:31  5-MIN KDBQ 250620Z AUTO 16009KT 10SM CLR 16/13 A3008 930 86 1300 160/09 RMK AO2 TSNO
94908KDBQ DBQ20030725002510307/25/03 00:25:31  5-MIN KDBQ 250625Z AUTO 16009KT 10SM CLR 16/13 A3009 920 83 1300 160/09 RMK AO2 TSNO
94908KDBQ DBQ20030725003010307/25/03 00:30:31  5-MIN KDBQ 250630Z AUTO 16007KT 10SM CLR 16/14 A3009 920 86 1300 160/07 RMK AO2 TSNO
94908KDBQ DBQ20030725003510307/25/03 00:35:31  5-MIN KDBQ 250635Z AUTO 18004KT 10SM CLR 16/13 A3010 910 83 1300 180/04 RMK AO2 TSNO
94908KDBQ DBQ20030725004010307/25/03 00:40:31  5-MIN KDBQ 250640Z AUTO 23004KT 10SM CLR 15/13 A3010 910 90 1200 230/04 RMK AO2 TSNO
94908KDBQ DBQ20030725004510307/25/03 00:45:31  5-MIN KDBQ 250645Z AUTO 20004KT 10SM CLR 16/13 A3010 920 86 1200 200/04 RMK AO2 TSNO
94908KDBQ DBQ20030725005012007/25/03 00:50:31  5-MIN KDBQ 250650Z AUTO 19004KT 10SM CLR 16/13 A3010 920 83 1300 190/04 RMK AO2 SLP188 T01610133 TSNO
94908KDBQ DBQ20030725005512007/25/03 00:55:31  5-MIN KDBQ 250655Z AUTO 19005KT 10SM CLR 16/13 A3010 920 86 1200 190/05 RMK AO2 SLP187 T01560133 TSNO
94908KDBQ DBQ20030725010010307/25/03 01:00:31  5-MIN KDBQ 250700Z AUTO 19005KT 10SM CLR 16/13 A3009 920 86 1200 190/05 RMK AO2 TSNO
94908KDBQ DBQ20030725010510307/25/03 01:05:31  5-MIN KDBQ 250705Z AUTO 19005KT 10SM CLR 15/13 A3009 920 90 1200 190/05 RMK AO2 TSNO
94908KDBQ DBQ20030725011010307/25/03 01:10:31  5-MIN KDBQ 250710Z AUTO 19005KT 10SM CLR 15/13 A3009 920 90 1200 180/05 RMK AO2 TSNO
94908KDBQ DBQ20030725011510307/25/03 01:15:31  5-MIN KDBQ 250715Z AUTO 19005KT 10SM CLR 15/13 A3009 920 90 1200 190/05 RMK AO2 TSNO
94908KDBQ DBQ20030725012010307/25/03 01:20:31  5-MIN KDBQ 250720Z AUTO 19005KT 10SM CLR 15/13 A3009 920 90 1200 180/05 RMK AO2 TSNO
94908KDBQ DBQ20030725012510307/25/03 01:25:31  5-MIN KDBQ 250725Z AUTO 19005KT 10SM CLR 15/13 A3009 920 90 1200 190/05 RMK AO2 TSNO
94908KDBQ DBQ20030725013010307/25/03 01:30:31  5-MIN KDBQ 250730Z AUTO 19005KT 10SM CLR 15/13 A3008 930 90 1200 190/05 RMK AO2 TSNO
94908KDBQ DBQ20030725013510307/25/03 01:35:31  5-MIN KDBQ 250735Z AUTO 19005KT 10SM CLR 15/13 A3009 930 90 1200 190/05 RMK AO2 TSNO
94908KDBQ DBQ20030725014010307/25/03 01:40:31  5-MIN KDBQ 250740Z AUTO 18005KT 10SM CLR 15/13 A3009 930 90 1200 180/05 RMK AO2 TSNO
94908KDBQ DBQ20030725014510307/25/03 01:45:31  5-MIN KDBQ 250745Z AUTO 18005KT 10SM CLR 15/13 A3008 930 90 1200 180/05 RMK AO2 TSNO
94908KDBQ DBQ20030725015012007/25/03 01:50:31  5-MIN KDBQ 250750Z AUTO 17006KT 10SM CLR 14/13 A3008 930 90 1100 170/06 RMK AO2 SLP183 T01440128 TSNO
94908KDBQ DBQ20030725015512007/25/03 01:55:31  5-MIN KDBQ 250755Z AUTO 17007KT 10SM CLR 16/13 A3008 930 86 1300 170/07 RMK AO2 SLP182 T01560133 TSNO
94908KDBQ DBQ20030725020010307/25/03 02:00:31  5-MIN KDBQ 250800Z AUTO 16008KT 10SM CLR 16/13 A3008 930 86 1300 160/08 RMK AO2 TSNO
94908KDBQ DBQ20030725020510307/25/03 02:05:31  5-MIN KDBQ 250805Z AUTO 16008KT 10SM CLR 16/13 A3008 940 86 1300 160/08 RMK AO2 TSNO
94908KDBQ DBQ20030725021010307/25/03 02:10:31  5-MIN KDBQ 250810Z AUTO 16008KT 10SM CLR 16/13 A3007 940 86 1300 160/08 RMK AO2 TSNO
94908KDBQ DBQ20030725021510307/25/03 02:15:31  5-MIN KDBQ 250815Z AUTO 17009KT 10SM CLR 16/13 A3007 940 86 1300 160/09 RMK AO2 TSNO
94908KDBQ DBQ20030725022010307/25/03 02:20:31  5-MIN KDBQ 250820Z AUTO 17009KT 10SM CLR 16/13 A3007 940 86 1300 170/09 RMK AO2 TSNO
94908KDBQ DBQ20030725022510307/25/03 02:25:31  5-MIN KDBQ 250825Z AUTO 17008KT 10SM CLR 16/13 A3007 940 86 1300 170/08 RMK AO2 TSNO
94908KDBQ DBQ20030725023010307/25/03 02:30:31  5-MIN KDBQ 250830Z AUTO 17007KT 10SM CLR 16/13 A3007 940 86 1300 170/07 RMK AO2 TSNO
94908KDBQ DBQ20030725023510307/25/03 02:35:31  5-MIN KDBQ 250835Z AUTO 17007KT 10SM CLR 16/13 A3007 940 86 1300 170/07 RMK AO2 TSNO
94908KDBQ DBQ20030725024010307/25/03 02:40:31  5-MIN KDBQ 250840Z AUTO 17008KT 10SM CLR 16/13 A3007 940 86 1300 170/08 RMK AO2 TSNO
94908KDBQ DBQ20030725024510307/25/03 02:45:31  5-MIN KDBQ 250845Z AUTO 18007KT 10SM CLR 16/13 A3007 940 86 1300 180/07 RMK AO2 TSNO
94908KDBQ DBQ20030725025012607/25/03 02:50:31  5-MIN KDBQ 250850Z AUTO 18006KT 10SM CLR 16/13 A3008 930 86 1300 180/06 RMK AO2 SLP181 T01560133 55002 TSNO
94908KDBQ DBQ20030725025512607/25/03 02:55:31  5-MIN KDBQ 250855Z AUTO 18006KT 10SM CLR 15/13 A3007 940 90 1200 180/06 RMK AO2 SLP181 T01500133 58007 TSNO
94908KDBQ DBQ20030725030010207/25/03 03:00:31  5-MIN KDBQ 250900Z AUTO 18006KT 9SM CLR 15/13 A3007 940 90 1200 180/06 RMK AO2 TSNO
94908KDBQ DBQ20030725030510207/25/03 03:05:31  5-MIN KDBQ 250905Z AUTO 19006KT 9SM CLR 15/13 A3007 940 90 1200 190/06 RMK AO2 TSNO
94908KDBQ DBQ20030725031010207/25/03 03:10:31  5-MIN KDBQ 250910Z AUTO 19005KT 9SM CLR 14/13 A3007 940 93 1100 190/05 RMK AO2 TSNO
94908KDBQ DBQ20030725031510207/25/03 03:15:31  5-MIN KDBQ 250915Z AUTO 19006KT 9SM CLR 14/13 A3007 940 93 1100 190/06 RMK AO2 TSNO
94908KDBQ DBQ20030725032010207/25/03 03:20:31  5-MIN KDBQ 250920Z AUTO 20006KT 9SM CLR 15/13 A3007 940 90 1200 200/06 RMK AO2 TSNO
94908KDBQ DBQ20030725032510207/25/03 03:25:31  5-MIN KDBQ 250925Z AUTO 21005KT 8SM CLR 14/13 A3007 940 90 1100 210/05 RMK AO2 TSNO
94908KDBQ DBQ20030725033010207/25/03 03:30:31  5-MIN KDBQ 250930Z AUTO 21005KT 8SM CLR 14/13 A3007 940 90 1100 210/05 RMK AO2 TSNO
94908KDBQ DBQ20030725033510207/25/03 03:35:31  5-MIN KDBQ 250935Z AUTO 20006KT 8SM CLR 14/13 A3007 940 93 1100 200/06 RMK AO2 TSNO
94908KDBQ DBQ20030725034010207/25/03 03:40:31  5-MIN KDBQ 250940Z AUTO 20006KT 8SM CLR 14/13 A3007 940 93 1100 200/06 RMK AO2 TSNO
94908KDBQ DBQ20030725034510207/25/03 03:45:31  5-MIN KDBQ 250945Z AUTO 19008KT 8SM CLR 15/13 A3007 940 90 1200 190/08 RMK AO2 TSNO
94908KDBQ DBQ20030725035011907/25/03 03:50:31  5-MIN KDBQ 250950Z AUTO 19008KT 9SM CLR 16/13 A3007 940 86 1300 190/08 RMK AO2 SLP179 T01560133 TSNO
94908KDBQ DBQ20030725035511907/25/03 03:55:31  5-MIN KDBQ 250955Z AUTO 18008KT 9SM CLR 16/14 A3007 940 90 1300 180/08 RMK AO2 SLP179 T01560139 TSNO
94908KDBQ DBQ20030725040010207/25/03 04:00:31  5-MIN KDBQ 251000Z AUTO 18009KT 9SM CLR 16/14 A3007 940 90 1300 180/09 RMK AO2 TSNO
94908KDBQ DBQ20030725040510207/25/03 04:05:31  5-MIN KDBQ 251005Z AUTO 18009KT 9SM CLR 16/14 A3007 940 90 1300 180/09 RMK AO2 TSNO
94908KDBQ DBQ20030725041010207/25/03 04:10:31  5-MIN KDBQ 251010Z AUTO 18008KT 9SM CLR 16/14 A3007 940 90 1300 180/08 RMK AO2 TSNO
94908KDBQ DBQ20030725041510207/25/03 04:15:31  5-MIN KDBQ 251015Z AUTO 18009KT 9SM CLR 16/14 A3007 940 90 1300 180/09 RMK AO2 TSNO
94908KDBQ DBQ20030725042010207/25/03 04:20:31  5-MIN KDBQ 251020Z AUTO 18009KT 9SM CLR 16/14 A3007 940 90 1300 180/09 RMK AO2 TSNO
94908KDBQ DBQ20030725042510207/25/03 04:25:31  5-MIN KDBQ 251025Z AUTO 18008KT 9SM CLR 16/14 A3007 940 90 1300 180/08 RMK AO2 TSNO
94908KDBQ DBQ20030725043010207/25/03 04:30:31  5-MIN KDBQ 251030Z AUTO 18009KT 9SM CLR 16/14 A3007 940 90 1300 180/09 RMK AO2 TSNO
94908KDBQ DBQ20030725043509207/25/03 04:35:31  5-MIN KDBQ 251035Z 18008KT 9SM CLR 16/14 A3007 940 90 1300 180/08 RMK AO2
94908KDBQ DBQ20030725044009207/25/03 04:40:31  5-MIN KDBQ 251040Z 18009KT 9SM CLR 16/14 A3007 940 90 1300 180/09 RMK AO2
94908KDBQ DBQ20030725044509207/25/03 04:45:31  5-MIN KDBQ 251045Z 18009KT 9SM CLR 16/14 A3007 940 90 1300 180/09 RMK AO2
94908KDBQ DBQ20030725045010907/25/03 04:50:31  5-MIN KDBQ 251050Z 18009KT 8SM CLR 16/14 A3007 940 90 1300 180/09 RMK AO2 SLP179 T01560139
94908KDBQ DBQ20030725045510907/25/03 04:55:31  5-MIN KDBQ 251055Z 18009KT 8SM CLR 16/14 A3007 940 90 1300 180/09 RMK AO2 SLP179 T01560139
94908KDBQ DBQ20030725050009207/25/03 05:00:31  5-MIN KDBQ 251100Z 18009KT 8SM CLR 16/14 A3007 940 86 1300 180/09 RMK AO2
94908KDBQ DBQ20030725050509207/25/03 05:05:31  5-MIN KDBQ 251105Z 18010KT 9SM CLR 16/14 A3007 940 86 1300 180/10 RMK AO2
94908KDBQ DBQ20030725051009207/25/03 05:10:31  5-MIN KDBQ 251110Z 18010KT 9SM CLR 16/14 A3007 940 86 1300 180/10 RMK AO2
94908KDBQ DBQ20030725051509207/25/03 05:15:31  5-MIN KDBQ 251115Z 18010KT 9SM CLR 16/14 A3007 940 86 1300 180/10 RMK AO2
94908KDBQ DBQ20030725052009207/25/03 05:20:31  5-MIN KDBQ 251120Z 18010KT 9SM CLR 16/14 A3007 940 86 1300 180/10 RMK AO2
94908KDBQ DBQ20030725052509207/25/03 05:25:31  5-MIN KDBQ 251125Z 19010KT 9SM CLR 16/14 A3007 940 86 1300 180/10 RMK AO2
94908KDBQ DBQ20030725053009207/25/03 05:30:31  5-MIN KDBQ 251130Z 19010KT 9SM CLR 16/14 A3007 940 86 1300 190/10 RMK AO2
94908KDBQ DBQ20030725053509207/25/03 05:35:31  5-MIN KDBQ 251135Z 19011KT 9SM CLR 17/14 A3008 940 83 1400 190/11 RMK AO2
94908KDBQ DBQ20030725054009207/25/03 05:40:31  5-MIN KDBQ 251140Z 19011KT 9SM CLR 17/14 A3008 930 83 1400 190/11 RMK AO2
94908KDBQ DBQ20030725054509207/25/03 05:45:31  5-MIN KDBQ 251145Z 19010KT 9SM CLR 17/14 A3008 930 83 1400 190/10 RMK AO2
94908KDBQ DBQ20030725055012807/25/03 05:50:31  5-MIN KDBQ 251150Z 19012KT 10SM CLR 17/14 A3008 940 83 1400 190/12 RMK AO2 SLP181 T01670139 10167 20144 58007
94908KDBQ DBQ20030725055512807/25/03 05:55:31  5-MIN KDBQ 251155Z 19012KT 10SM CLR 17/14 A3008 930 83 1400 190/12 RMK AO2 SLP182 T01670139 10167 20144 53001
94908KDBQ DBQ20030725060009307/25/03 06:00:31  5-MIN KDBQ 251200Z 19011KT 10SM CLR 17/14 A3008 930 80 1500 190/11 RMK AO2
94908KDBQ DBQ20030725060509307/25/03 06:05:31  5-MIN KDBQ 251205Z 19012KT 10SM CLR 17/14 A3008 930 80 1500 190/12 RMK AO2
94908KDBQ DBQ20030725061009307/25/03 06:10:31  5-MIN KDBQ 251210Z 18012KT 10SM CLR 17/14 A3007 940 80 1500 180/12 RMK AO2
94908KDBQ DBQ20030725061509307/25/03 06:15:31  5-MIN KDBQ 251215Z 18011KT 10SM CLR 17/14 A3008 930 80 1400 180/11 RMK AO2
94908KDBQ DBQ20030725062009307/25/03 06:20:31  5-MIN KDBQ 251220Z 19011KT 10SM CLR 17/14 A3008 930 80 1400 190/11 RMK AO2
94908KDBQ DBQ20030725062509307/25/03 06:25:31  5-MIN KDBQ 251225Z 19012KT 10SM CLR 18/14 A3008 930 78 1500 190/12 RMK AO2
94908KDBQ DBQ20030725063009307/25/03 06:30:31  5-MIN KDBQ 251230Z 19013KT 10SM CLR 18/14 A3008 930 78 1500 190/13 RMK AO2
94908KDBQ DBQ20030725063509307/25/03 06:35:31  5-MIN KDBQ 251235Z 19011KT 10SM CLR 18/14 A3008 930 81 1500 190/11 RMK AO2
94908KDBQ DBQ20030725064009307/25/03 06:40:31  5-MIN KDBQ 251240Z 19013KT 10SM CLR 18/14 A3008 930 78 1600 190/13 RMK AO2
94908KDBQ DBQ20030725064509307/25/03 06:45:31  5-MIN KDBQ 251245Z 19013KT 10SM CLR 18/14 A3008 930 78 1600 190/13 RMK AO2
94908KDBQ DBQ20030725065011007/25/03 06:50:31  5-MIN KDBQ 251250Z 19012KT 10SM CLR 18/14 A3008 930 78 1600 190/12 RMK AO2 SLP183 T01830144
94908KDBQ DBQ20030725065511007/25/03 06:55:31  5-MIN KDBQ 251255Z 19011KT 10SM CLR 18/14 A3009 930 78 1600 190/11 RMK AO2 SLP184 T01830144
94908KDBQ DBQ20030725070009307/25/03 07:00:31  5-MIN KDBQ 251300Z 20012KT 10SM CLR 18/14 A3009 920 78 1600 200/12 RMK AO2
94908KDBQ DBQ20030725070509307/25/03 07:05:31  5-MIN KDBQ 251305Z 19012KT 10SM CLR 18/14 A3009 920 78 1600 190/12 RMK AO2
94908KDBQ DBQ20030725071009307/25/03 07:10:31  5-MIN KDBQ 251310Z 19014KT 10SM CLR 19/14 A3009 920 75 1600 190/14 RMK AO2
94908KDBQ DBQ20030725071509307/25/03 07:15:31  5-MIN KDBQ 251315Z 19013KT 10SM CLR 19/15 A3009 920 78 1600 190/13 RMK AO2
94908KDBQ DBQ20030725072009307/25/03 07:20:31  5-MIN KDBQ 251320Z 19015KT 10SM CLR 19/15 A3009 920 75 1700 190/15 RMK AO2
94908KDBQ DBQ20030725072509307/25/03 07:25:31  5-MIN KDBQ 251325Z 19014KT 10SM CLR 19/15 A3009 920 75 1700 190/14 RMK AO2
94908KDBQ DBQ20030725073009307/25/03 07:30:31  5-MIN KDBQ 251330Z 19013KT 10SM CLR 19/15 A3009 920 75 1700 190/13 RMK AO2
94908KDBQ DBQ20030725073509307/25/03 07:35:31  5-MIN KDBQ 251335Z 19014KT 10SM CLR 20/15 A3008 930 72 1800 180/14 RMK AO2
94908KDBQ DBQ20030725074009307/25/03 07:40:31  5-MIN KDBQ 251340Z 19015KT 10SM CLR 20/15 A3009 930 72 1800 190/15 RMK AO2
94908KDBQ DBQ20030725074509307/25/03 07:45:31  5-MIN KDBQ 251345Z 18014KT 10SM CLR 20/15 A3009 930 72 1800 180/14 RMK AO2
94908KDBQ DBQ20030725075011007/25/03 07:50:31  5-MIN KDBQ 251350Z 19015KT 10SM CLR 20/15 A3008 930 72 1800 180/15 RMK AO2 SLP183 T02000150
94908KDBQ DBQ20030725075511007/25/03 07:55:31  5-MIN KDBQ 251355Z 19016KT 10SM CLR 21/15 A3008 930 70 1800 190/16 RMK AO2 SLP184 T02060150
94908KDBQ DBQ20030725080009307/25/03 08:00:31  5-MIN KDBQ 251400Z 19015KT 10SM CLR 21/16 A3009 930 73 1800 190/15 RMK AO2
94908KDBQ DBQ20030725080509307/25/03 08:05:31  5-MIN KDBQ 251405Z 19016KT 10SM CLR 21/16 A3008 930 73 1800 190/16 RMK AO2
94908KDBQ DBQ20030725081009307/25/03 08:10:31  5-MIN KDBQ 251410Z 18013KT 10SM CLR 21/16 A3008 930 70 1900 180/13 RMK AO2
94908KDBQ DBQ20030725081509307/25/03 08:15:31  5-MIN KDBQ 251415Z 19015KT 10SM CLR 21/16 A3009 930 70 1900 190/15 RMK AO2
94908KDBQ DBQ20030725082009307/25/03 08:20:31  5-MIN KDBQ 251420Z 18014KT 10SM CLR 21/16 A3009 930 73 1900 180/14 RMK AO2
94908KDBQ DBQ20030725082509307/25/03 08:25:31  5-MIN KDBQ 251425Z 18013KT 10SM CLR 22/16 A3009 930 70 2000 180/13 RMK AO2
94908KDBQ DBQ20030725083009307/25/03 08:30:31  5-MIN KDBQ 251430Z 17012KT 10SM CLR 21/16 A3009 920 73 1900 170/12 RMK AO2
94908KDBQ DBQ20030725083509307/25/03 08:35:31  5-MIN KDBQ 251435Z 18014KT 10SM CLR 22/16 A3009 920 70 2000 170/14 RMK AO2
94908KDBQ DBQ20030725084009307/25/03 08:40:31  5-MIN KDBQ 251440Z 18011KT 10SM CLR 22/17 A3009 920 73 2000 180/11 RMK AO2
94908KDBQ DBQ20030725084509307/25/03 08:45:31  5-MIN KDBQ 251445Z 18012KT 10SM CLR 22/17 A3009 920 70 2000 170/12 RMK AO2
94908KDBQ DBQ20030725085011607/25/03 08:50:31  5-MIN KDBQ 251450Z 17013KT 10SM CLR 22/16 A3009 920 70 1900 170/13 RMK AO2 SLP186 T02170161 53001
94908KDBQ DBQ20030725085511607/25/03 08:55:31  5-MIN KDBQ 251455Z 18013KT 10SM CLR 22/17 A3009 920 70 2000 180/13 RMK AO2 SLP186 T02220167 51004
94908KDBQ DBQ20030725090009307/25/03 09:00:31  5-MIN KDBQ 251500Z 18012KT 10SM CLR 22/17 A3009 920 70 2000 180/12 RMK AO2
94908KDBQ DBQ20030725090509307/25/03 09:05:31  5-MIN KDBQ 251505Z 18014KT 10SM CLR 22/17 A3009 920 70 2000 180/14 RMK AO2
94908KDBQ DBQ20030725091009307/25/03 09:10:31  5-MIN KDBQ 251510Z 18012KT 10SM CLR 23/17 A3009 920 68 2100 180/12 RMK AO2
94908KDBQ DBQ20030725091509307/25/03 09:15:31  5-MIN KDBQ 251515Z 18013KT 10SM CLR 23/17 A3009 920 68 2100 180/13 RMK AO2
94908KDBQ DBQ20030725092009307/25/03 09:20:31  5-MIN KDBQ 251520Z 18011KT 10SM CLR 23/17 A3009 920 68 2100 180/11 RMK AO2
94908KDBQ DBQ20030725092509307/25/03 09:25:31  5-MIN KDBQ 251525Z 17012KT 10SM CLR 23/17 A3009 920 68 2100 170/12 RMK AO2
94908KDBQ DBQ20030725093009307/25/03 09:30:31  5-MIN KDBQ 251530Z 18012KT 10SM CLR 23/17 A3009 920 66 2100 180/12 RMK AO2
94908KDBQ DBQ20030725093509307/25/03 09:35:31  5-MIN KDBQ 251535Z 18010KT 10SM CLR 23/18 A3009 920 70 2100 170/10 RMK AO2
94908KDBQ DBQ20030725094009307/25/03 09:40:31  5-MIN KDBQ 251540Z 18012KT 10SM CLR 23/17 A3009 920 68 2100 170/12 RMK AO2
94908KDBQ DBQ20030725094509307/25/03 09:45:31  5-MIN KDBQ 251545Z 18013KT 10SM CLR 24/18 A3009 920 68 2200 180/13 RMK AO2
94908KDBQ DBQ20030725095011007/25/03 09:50:31  5-MIN KDBQ 251550Z 18011KT 10SM CLR 24/18 A3009 920 68 2200 180/11 RMK AO2 SLP187 T02390178
94908KDBQ DBQ20030725095511007/25/03 09:55:31  5-MIN KDBQ 251555Z 19014KT 10SM CLR 24/17 A3009 920 66 2200 190/14 RMK AO2 SLP186 T02390172
94908KDBQ DBQ20030725100009307/25/03 10:00:31  5-MIN KDBQ 251600Z 19012KT 10SM CLR 24/18 A3010 920 68 2200 190/12 RMK AO2
94908KDBQ DBQ20030725100509307/25/03 10:05:31  5-MIN KDBQ 251605Z 19011KT 10SM CLR 24/18 A3010 920 66 2300 190/11 RMK AO2
94908KDBQ DBQ20030725101009307/25/03 10:10:31  5-MIN KDBQ 251610Z 19013KT 10SM CLR 24/18 A3010 920 66 2300 190/13 RMK AO2
94908KDBQ DBQ20030725101509307/25/03 10:15:31  5-MIN KDBQ 251615Z 18013KT 10SM CLR 24/18 A3010 920 66 2300 180/13 RMK AO2
94908KDBQ DBQ20030725102009307/25/03 10:20:31  5-MIN KDBQ 251620Z 20013KT 10SM CLR 25/18 A3010 920 64 2300 200/13 RMK AO2
94908KDBQ DBQ20030725102509307/25/03 10:25:31  5-MIN KDBQ 251625Z 18013KT 10SM CLR 24/18 A3010 920 66 2300 180/13 RMK AO2
94908KDBQ DBQ20030725103009307/25/03 10:30:31  5-MIN KDBQ 251630Z 18013KT 10SM CLR 24/18 A3009 920 66 2300 180/13 RMK AO2
94908KDBQ DBQ20030725103509307/25/03 10:35:31  5-MIN KDBQ 251635Z 18012KT 10SM CLR 25/18 A3009 920 66 2300 170/12 RMK AO2
94908KDBQ DBQ20030725104009307/25/03 10:40:31  5-MIN KDBQ 251640Z 18012KT 10SM CLR 25/19 A3009 920 68 2300 180/12 RMK AO2
94908KDBQ DBQ20030725104509307/25/03 10:45:31  5-MIN KDBQ 251645Z 17011KT 10SM CLR 25/19 A3009 920 68 2300 170/11 RMK AO2
94908KDBQ DBQ20030725105011007/25/03 10:50:31  5-MIN KDBQ 251650Z 17011KT 10SM CLR 25/19 A3010 920 68 2300 170/11 RMK AO2 SLP187 T02500189
94908KDBQ DBQ20030725105511007/25/03 10:55:31  5-MIN KDBQ 251655Z 18012KT 10SM CLR 25/18 A3010 920 66 2300 180/12 RMK AO2 SLP187 T02500183
94908KDBQ DBQ20030725110009307/25/03 11:00:31  5-MIN KDBQ 251700Z 17012KT 10SM CLR 26/18 A3010 920 64 2400 170/12 RMK AO2
94908KDBQ DBQ20030725110509907/25/03 11:05:31  5-MIN KDBQ 251705Z 17014G18KT 10SM CLR 26/19 A3009 920 66 2400 170/14G18 RMK AO2
94908KDBQ DBQ20030725111009907/25/03 11:10:31  5-MIN KDBQ 251710Z 18011G18KT 10SM CLR 26/19 A3009 920 66 2400 180/11G18 RMK AO2
94908KDBQ DBQ20030725111509307/25/03 11:15:31  5-MIN KDBQ 251715Z 17010KT 10SM CLR 26/19 A3009 920 66 2400 170/10 RMK AO2
94908KDBQ DBQ20030725112009307/25/03 11:20:31  5-MIN KDBQ 251720Z 17011KT 10SM CLR 26/19 A3010 920 66 2400 170/11 RMK AO2
94908KDBQ DBQ20030725112509307/25/03 11:25:31  5-MIN KDBQ 251725Z 18013KT 10SM CLR 26/19 A3010 920 66 2400 180/13 RMK AO2
94908KDBQ DBQ20030725113009307/25/03 11:30:31  5-MIN KDBQ 251730Z 19012KT 10SM CLR 26/19 A3009 920 64 2400 190/12 RMK AO2
94908KDBQ DBQ20030725113509307/25/03 11:35:31  5-MIN KDBQ 251735Z 18012KT 10SM CLR 26/19 A3009 920 64 2400 180/12 RMK AO2
94908KDBQ DBQ20030725114009307/25/03 11:40:31  5-MIN KDBQ 251740Z 17014KT 10SM CLR 26/19 A3009 920 64 2500 170/14 RMK AO2
94908KDBQ DBQ20030725114509307/25/03 11:45:31  5-MIN KDBQ 251745Z 18014KT 10SM CLR 26/19 A3009 930 66 2500 180/14 RMK AO2
94908KDBQ DBQ20030725115012807/25/03 11:50:31  5-MIN KDBQ 251750Z 18013KT 10SM CLR 27/19 A3008 930 64 2500 180/13 RMK AO2 SLP183 T02670194 10267 20172 51004
94908KDBQ DBQ20030725115512807/25/03 11:55:31  5-MIN KDBQ 251755Z 18015KT 10SM CLR 26/19 A3008 930 64 2500 180/15 RMK AO2 SLP182 T02610189 10267 20172 58003
94908KDBQ DBQ20030725120009307/25/03 12:00:31  5-MIN KDBQ 251800Z 17011KT 10SM CLR 26/19 A3008 930 64 2500 170/11 RMK AO2
94908KDBQ DBQ20030725120509307/25/03 12:05:31  5-MIN KDBQ 251805Z 16014KT 10SM CLR 27/19 A3008 930 64 2500 160/14 RMK AO2
94908KDBQ DBQ20030725121009307/25/03 12:10:31  5-MIN KDBQ 251810Z 17013KT 10SM CLR 27/19 A3008 940 62 2500 170/13 RMK AO2
94908KDBQ DBQ20030725121509307/25/03 12:15:31  5-MIN KDBQ 251815Z 19016KT 10SM CLR 27/19 A3007 940 62 2500 190/16 RMK AO2
94908KDBQ DBQ20030725122009307/25/03 12:20:31  5-MIN KDBQ 251820Z 18013KT 10SM CLR 27/19 A3007 940 62 2600 170/13 RMK AO2
94908KDBQ DBQ20030725122509307/25/03 12:25:31  5-MIN KDBQ 251825Z 18015KT 10SM CLR 27/20 A3007 940 66 2500 180/15 RMK AO2
94908KDBQ DBQ20030725123009907/25/03 12:30:31  5-MIN KDBQ 251830Z 19015G18KT 10SM CLR 27/19 A3006 940 64 2500 180/15G18 RMK AO2
94908KDBQ DBQ20030725123509307/25/03 12:35:31  5-MIN KDBQ 251835Z 17013KT 10SM CLR 27/19 A3007 940 64 2500 170/13 RMK AO2
94908KDBQ DBQ20030725124009307/25/03 12:40:31  5-MIN KDBQ 251840Z 18013KT 10SM CLR 27/20 A3007 940 64 2600 180/13 RMK AO2
94908KDBQ DBQ20030725124509907/25/03 12:45:31  5-MIN KDBQ 251845Z 18016G20KT 10SM CLR 27/20 A3006 950 64 2600 180/16G20 RMK AO2
94908KDBQ DBQ20030725125011607/25/03 12:50:31  5-MIN KDBQ 251850Z 17014G20KT 10SM CLR 27/20 A3007 940 64 2600 170/14G20 RMK AO2 SLP175 T02720200
94908KDBQ DBQ20030725125511607/25/03 12:55:31  5-MIN KDBQ 251855Z 18014G20KT 10SM CLR 27/20 A3007 940 64 2600 180/14G20 RMK AO2 SLP175 T02720200
94908KDBQ DBQ20030725130009307/25/03 13:00:31  5-MIN KDBQ 251900Z 18015KT 10SM CLR 27/20 A3006 950 64 2600 180/15 RMK AO2
94908KDBQ DBQ20030725130509907/25/03 13:05:31  5-MIN KDBQ 251905Z 19015G22KT 10SM CLR 27/20 A3006 950 64 2600 190/15G22 RMK AO2
94908KDBQ DBQ20030725131009907/25/03 13:10:31  5-MIN KDBQ 251910Z 18014G22KT 10SM CLR 28/21 A3006 950 64 2700 180/14G22 RMK AO2
94908KDBQ DBQ20030725131509907/25/03 13:15:31  5-MIN KDBQ 251915Z 19015G19KT 10SM CLR 27/20 A3006 950 64 2600 190/15G19 RMK AO2
94908KDBQ DBQ20030725132009307/25/03 13:20:31  5-MIN KDBQ 251920Z 19013KT 10SM CLR 27/20 A3006 950 64 2600 190/13 RMK AO2
94908KDBQ DBQ20030725132509307/25/03 13:25:31  5-MIN KDBQ 251925Z 19015KT 10SM CLR 28/20 A3006 950 62 2700 190/15 RMK AO2
94908KDBQ DBQ20030725133009307/25/03 13:30:31  5-MIN KDBQ 251930Z 17014KT 10SM CLR 28/20 A3006 950 62 2700 170/14 RMK AO2
94908KDBQ DBQ20030725133510307/25/03 13:35:31  5-MIN KDBQ 251935Z AUTO 17016KT 10SM CLR 28/21 A3005 950 64 2700 170/16 RMK AO2 TSNO
94908KDBQ DBQ20030725134009307/25/03 13:40:31  5-MIN KDBQ 251940Z 19017KT 10SM CLR 28/20 A3005 960 62 2700 190/17 RMK AO2
94908KDBQ DBQ20030725134509307/25/03 13:45:31  5-MIN KDBQ 251945Z 19017KT 10SM CLR 28/19 A3005 960 60 2700 190/17 RMK AO2
94908KDBQ DBQ20030725135011007/25/03 13:50:31  5-MIN KDBQ 251950Z 17014KT 10SM CLR 28/20 A3005 960 62 2700 170/14 RMK AO2 SLP170 T02780200
94908KDBQ DBQ20030725135511607/25/03 13:55:31  5-MIN KDBQ 251955Z 17017G23KT 10SM CLR 28/20 A3005 960 62 2700 160/17G23 RMK AO2 SLP169 T02780200
94908KDBQ DBQ20030725140009907/25/03 14:00:31  5-MIN KDBQ 252000Z 17016G23KT 10SM CLR 28/19 A3004 960 60 2700 170/16G23 RMK AO2
94908KDBQ DBQ20030725140509907/25/03 14:05:31  5-MIN KDBQ 252005Z 20016G21KT 10SM CLR 28/20 A3005 960 62 2700 190/16G21 RMK AO2
94908KDBQ DBQ20030725141009907/25/03 14:10:31  5-MIN KDBQ 252010Z 18015G21KT 10SM CLR 28/20 A3004 970 62 2700 180/15G21 RMK AO2
94908KDBQ DBQ20030725141509907/25/03 14:15:31  5-MIN KDBQ 252015Z 19017G22KT 10SM CLR 28/19 A3004 970 60 2700 190/17G22 RMK AO2
94908KDBQ DBQ20030725142009907/25/03 14:20:31  5-MIN KDBQ 252020Z 18015G22KT 10SM CLR 28/20 A3004 970 62 2700 180/15G22 RMK AO2
94908KDBQ DBQ20030725142509907/25/03 14:25:31  5-MIN KDBQ 252025Z 17017G21KT 10SM CLR 28/20 A3004 970 62 2700 170/17G21 RMK AO2
94908KDBQ DBQ20030725143009907/25/03 14:30:31  5-MIN KDBQ 252030Z 18019G23KT 10SM CLR 28/19 A3004 970 60 2700 180/19G23 RMK AO2
94908KDBQ DBQ20030725143509907/25/03 14:35:31  5-MIN KDBQ 252035Z 19019G23KT 10SM CLR 28/19 A3004 970 60 2700 190/19G23 RMK AO2
94908KDBQ DBQ20030725144009907/25/03 14:40:31  5-MIN KDBQ 252040Z 18018G23KT 10SM CLR 27/19 A3004 970 60 2600 180/18G23 RMK AO2
94908KDBQ DBQ20030725144509907/25/03 14:45:31  5-MIN KDBQ 252045Z 19017G23KT 10SM CLR 27/19 A3004 970 62 2600 190/17G23 RMK AO2
94908KDBQ DBQ20030725145012207/25/03 14:50:31  5-MIN KDBQ 252050Z 18019G24KT 10SM CLR 28/19 A3003 970 60 2700 180/19G24 RMK AO2 SLP165 T02780194 58003
94908KDBQ DBQ20030725145512207/25/03 14:55:31  5-MIN KDBQ 252055Z 18017G24KT 10SM CLR 27/19 A3003 970 62 2600 180/17G24 RMK AO2 SLP166 T02720194 56015
94908KDBQ DBQ20030725150009907/25/03 15:00:31  5-MIN KDBQ 252100Z 19020G25KT 10SM CLR 28/20 A3003 980 62 2700 180/20G25 RMK AO2
94908KDBQ DBQ20030725150509907/25/03 15:05:31  5-MIN KDBQ 252105Z 19020G25KT 10SM CLR 28/19 A3003 980 58 2700 190/20G25 RMK AO2
94908KDBQ DBQ20030725151009907/25/03 15:10:31  5-MIN KDBQ 252110Z 19018G22KT 10SM CLR 28/19 A3003 980 58 2700 190/18G22 RMK AO2
94908KDBQ DBQ20030725151509907/25/03 15:15:31  5-MIN KDBQ 252115Z 18015G22KT 10SM CLR 28/19 A3003 980 60 2700 180/15G22 RMK AO2
94908KDBQ DBQ20030725152009907/25/03 15:20:31  5-MIN KDBQ 252120Z 18017G22KT 10SM CLR 28/19 A3003 980 60 2700 180/17G22 RMK AO2
94908KDBQ DBQ20030725152509907/25/03 15:25:31  5-MIN KDBQ 252125Z 19015G22KT 10SM CLR 28/19 A3003 970 58 2800 190/15G22 RMK AO2
94908KDBQ DBQ20030725153009907/25/03 15:30:31  5-MIN KDBQ 252130Z 19015G21KT 10SM CLR 28/20 A3003 980 60 2800 190/15G21 RMK AO2
94908KDBQ DBQ20030725153509907/25/03 15:35:31  5-MIN KDBQ 252135Z 19018G21KT 10SM CLR 28/20 A3003 980 60 2800 180/18G21 RMK AO2
94908KDBQ DBQ20030725154009907/25/03 15:40:31  5-MIN KDBQ 252140Z 18016G21KT 10SM CLR 28/19 A3003 980 60 2700 180/16G21 RMK AO2
94908KDBQ DBQ20030725154509907/25/03 15:45:31  5-MIN KDBQ 252145Z 18016G22KT 10SM CLR 28/19 A3003 980 60 2700 180/16G22 RMK AO2
94908KDBQ DBQ20030725155011007/25/03 15:50:31  5-MIN KDBQ 252150Z 17018KT 10SM CLR 28/19 A3002 980 60 2700 170/18 RMK AO2 SLP161 T02780194
94908KDBQ DBQ20030725155511607/25/03 15:55:31  5-MIN KDBQ 252155Z 18018G22KT 10SM CLR 28/19 A3003 980 60 2700 180/18G22 RMK AO2 SLP162 T02780194
94908KDBQ DBQ20030725160009907/25/03 16:00:31  5-MIN KDBQ 252200Z 19015G22KT 10SM CLR 28/19 A3003 980 60 2700 180/15G22 RMK AO2
94908KDBQ DBQ20030725160509907/25/03 16:05:31  5-MIN KDBQ 252205Z 19019G24KT 10SM CLR 28/19 A3002 990 60 2700 180/19G24 RMK AO2
94908KDBQ DBQ20030725161009907/25/03 16:10:31  5-MIN KDBQ 252210Z 18013G24KT 10SM CLR 28/19 A3002 990 60 2700 170/13G24 RMK AO2
94908KDBQ DBQ20030725161509907/25/03 16:15:31  5-MIN KDBQ 252215Z 18016G21KT 10SM CLR 28/19 A3002 990 60 2700 180/16G21 RMK AO2
94908KDBQ DBQ20030725162009907/25/03 16:20:31  5-MIN KDBQ 252220Z 18018G21KT 10SM CLR 27/19 A3002 990 62 2700 180/18G21 RMK AO2
94908KDBQ DBQ20030725162509307/25/03 16:25:31  5-MIN KDBQ 252225Z 17016KT 10SM CLR 27/19 A3001 990 60 2700 170/16 RMK AO2
94908KDBQ DBQ20030725163009907/25/03 16:30:31  5-MIN KDBQ 252230Z 19016G23KT 10SM CLR 27/19 A3002 990 60 2700 190/16G23 RMK AO2
94908KDBQ DBQ20030725163509907/25/03 16:35:31  5-MIN KDBQ 252235Z 18017G23KT 10SM CLR 27/19 A3002 990 62 2700 180/17G23 RMK AO2
94908KDBQ DBQ20030725164009907/25/03 16:40:31  5-MIN KDBQ 252240Z 19014G22KT 10SM CLR 27/19 A3003 980 60 2600 190/14G22 RMK AO2
94908KDBQ DBQ20030725164509307/25/03 16:45:31  5-MIN KDBQ 252245Z 19015KT 10SM CLR 27/19 A3003 980 62 2600 190/15 RMK AO2
94908KDBQ DBQ20030725165011007/25/03 16:50:31  5-MIN KDBQ 252250Z 18014KT 10SM CLR 27/19 A3002 980 62 2700 180/14 RMK AO2 SLP161 T02720194
94908KDBQ DBQ20030725165511607/25/03 16:55:31  5-MIN KDBQ 252255Z 19019G22KT 10SM CLR 27/19 A3002 990 64 2600 180/19G22 RMK AO2 SLP160 T02670194
94908KDBQ DBQ20030725170009907/25/03 17:00:31  5-MIN KDBQ 252300Z 18014G22KT 10SM CLR 27/19 A3002 980 64 2600 180/14G22 RMK AO2
94908KDBQ DBQ20030725170509907/25/03 17:05:31  5-MIN KDBQ 252305Z 19014G19KT 10SM CLR 27/19 A3002 980 64 2600 190/14G19 RMK AO2
94908KDBQ DBQ20030725171009307/25/03 17:10:31  5-MIN KDBQ 252310Z 19014KT 10SM CLR 27/20 A3002 990 66 2600 190/14 RMK AO2
94908KDBQ DBQ20030725171509307/25/03 17:15:31  5-MIN KDBQ 252315Z 19013KT 10SM CLR 27/20 A3002 980 66 2600 180/13 RMK AO2
94908KDBQ DBQ20030725172009307/25/03 17:20:31  5-MIN KDBQ 252320Z 18015KT 10SM CLR 27/20 A3002 990 66 2600 180/15 RMK AO2
94908KDBQ DBQ20030725172509307/25/03 17:25:31  5-MIN KDBQ 252325Z 18014KT 10SM CLR 26/20 A3002 990 68 2500 180/14 RMK AO2
94908KDBQ DBQ20030725173009307/25/03 17:30:31  5-MIN KDBQ 252330Z 19015KT 10SM CLR 26/20 A3002 990 68 2500 180/15 RMK AO2
94908KDBQ DBQ20030725173509307/25/03 17:35:31  5-MIN KDBQ 252335Z 18015KT 10SM CLR 26/20 A3001 990 68 2500 180/15 RMK AO2
94908KDBQ DBQ20030725174009307/25/03 17:40:31  5-MIN KDBQ 252340Z 18015KT 10SM CLR 26/19 A3001 990 66 2500 180/15 RMK AO2
94908KDBQ DBQ20030725174509307/25/03 17:45:31  5-MIN KDBQ 252345Z 18013KT 10SM CLR 26/19 A3001 990 66 2500 180/13 RMK AO2
94908KDBQ DBQ20030725175012807/25/03 17:50:31  5-MIN KDBQ 252350Z 18014KT 10SM CLR 26/20 A3001 990 71 2500 180/14 RMK AO2 SLP159 T02560200 10283 20256 56015
94908KDBQ DBQ20030725175512807/25/03 17:55:31  5-MIN KDBQ 252355Z 18013KT 10SM CLR 26/19 A3001 990 68 2500 180/13 RMK AO2 SLP159 T02560194 10283 20256 56007
94908KDBQ DBQ20030725180009307/25/03 18:00:31  5-MIN KDBQ 260000Z 18015KT 10SM CLR 26/19 A3001 990 68 2500 180/15 RMK AO2
94908KDBQ DBQ20030725180509407/25/03 18:05:31  5-MIN KDBQ 260005Z 18014KT 10SM CLR 26/19 A3001 1000 68 2500 180/14 RMK AO2
94908KDBQ DBQ20030725181009407/25/03 18:10:31  5-MIN KDBQ 260010Z 18013KT 10SM CLR 26/19 A3001 1000 68 2500 180/13 RMK AO2
94908KDBQ DBQ20030725181509407/25/03 18:15:31  5-MIN KDBQ 260015Z 18014KT 10SM CLR 26/19 A3001 1000 68 2500 180/14 RMK AO2
94908KDBQ DBQ20030725182010007/25/03 18:20:31  5-MIN KDBQ 260020Z 18017G21KT 10SM CLR 26/19 A3001 1000 68 2500 170/17G21 RMK AO2
94908KDBQ DBQ20030725182510007/25/03 18:25:31  5-MIN KDBQ 260025Z 18016G21KT 10SM CLR 26/19 A3001 1000 68 2500 180/16G21 RMK AO2
94908KDBQ DBQ20030725183010007/25/03 18:30:31  5-MIN KDBQ 260030Z 18015G20KT 10SM CLR 26/19 A3000 1000 66 2500 180/15G20 RMK AO2
94908KDBQ DBQ20030725183510007/25/03 18:35:31  5-MIN KDBQ 260035Z 18014G20KT 10SM CLR 26/19 A3000 1000 66 2500 170/14G20 RMK AO2
94908KDBQ DBQ20030725184009407/25/03 18:40:31  5-MIN KDBQ 260040Z 17015KT 10SM CLR 25/19 A3000 1000 71 2400 170/15 RMK AO2
94908KDBQ DBQ20030725184510007/25/03 18:45:31  5-MIN KDBQ 260045Z 18015G20KT 10SM CLR 25/19 A3000 1000 71 2400 180/15G20 RMK AO2
94908KDBQ DBQ20030725185011107/25/03 18:50:31  5-MIN KDBQ 260050Z 18014KT 10SM CLR 25/19 A3001 1000 68 2400 170/14 RMK AO2 SLP155 T02500189
94908KDBQ DBQ20030725185511707/25/03 18:55:31  5-MIN KDBQ 260055Z 17015G20KT 10SM CLR 25/19 A3001 1000 68 2400 170/15G20 RMK AO2 SLP156 T02500189
94908KDBQ DBQ20030725190010907/25/03 19:00:31  5-MIN KDBQ 260100Z AUTO 18013G20KT 10SM CLR 25/19 A3001 990 68 2400 180/13G20 RMK AO2 TSNO
94908KDBQ DBQ20030725190510407/25/03 19:05:31  5-MIN KDBQ 260105Z AUTO 17015KT 10SM CLR 25/19 A3001 1000 68 2400 170/15 RMK AO2 TSNO
94908KDBQ DBQ20030725191010407/25/03 19:10:31  5-MIN KDBQ 260110Z AUTO 17014KT 10SM CLR 25/19 A3001 1000 68 2400 170/14 RMK AO2 TSNO
94908KDBQ DBQ20030725191510307/25/03 19:15:31  5-MIN KDBQ 260115Z AUTO 18014KT 10SM CLR 25/19 A3001 990 68 2400 180/14 RMK AO2 TSNO
94908KDBQ DBQ20030725192010307/25/03 19:20:31  5-MIN KDBQ 260120Z AUTO 18015KT 10SM CLR 25/19 A3002 990 68 2400 180/15 RMK AO2 TSNO
94908KDBQ DBQ20030725192510307/25/03 19:25:31  5-MIN KDBQ 260125Z AUTO 18013KT 10SM CLR 24/19 A3002 990 71 2300 180/13 RMK AO2 TSNO
94908KDBQ DBQ20030725193010307/25/03 19:30:31  5-MIN KDBQ 260130Z AUTO 18012KT 10SM CLR 24/19 A3002 980 71 2300 180/12 RMK AO2 TSNO
94908KDBQ DBQ20030725193510307/25/03 19:35:31  5-MIN KDBQ 260135Z AUTO 18012KT 10SM CLR 24/19 A3003 980 71 2300 180/12 RMK AO2 TSNO
94908KDBQ DBQ20030725194010307/25/03 19:40:31  5-MIN KDBQ 260140Z AUTO 18013KT 10SM CLR 24/19 A3002 980 71 2300 180/13 RMK AO2 TSNO
94908KDBQ DBQ20030725194510307/25/03 19:45:31  5-MIN KDBQ 260145Z AUTO 18013KT 10SM CLR 24/19 A3002 980 73 2300 180/13 RMK AO2 TSNO
94908KDBQ DBQ20030725195012007/25/03 19:50:31  5-MIN KDBQ 260150Z AUTO 18013KT 10SM CLR 24/19 A3003 980 73 2300 180/13 RMK AO2 SLP162 T02390189 TSNO
94908KDBQ DBQ20030725195512007/25/03 19:55:31  5-MIN KDBQ 260155Z AUTO 18014KT 10SM CLR 24/19 A3003 980 73 2300 170/14 RMK AO2 SLP163 T02390189 TSNO
94908KDBQ DBQ20030725200010307/25/03 20:00:31  5-MIN KDBQ 260200Z AUTO 18014KT 10SM CLR 24/18 A3003 980 71 2300 180/14 RMK AO2 TSNO
94908KDBQ DBQ20030725200510307/25/03 20:05:31  5-MIN KDBQ 260205Z AUTO 18013KT 10SM CLR 24/18 A3003 980 71 2300 180/13 RMK AO2 TSNO
94908KDBQ DBQ20030725201010307/25/03 20:10:31  5-MIN KDBQ 260210Z AUTO 18013KT 10SM CLR 24/18 A3003 980 71 2300 180/13 RMK AO2 TSNO
94908KDBQ DBQ20030725201510307/25/03 20:15:31  5-MIN KDBQ 260215Z AUTO 18011KT 10SM CLR 24/18 A3004 970 71 2300 170/11 RMK AO2 TSNO
94908KDBQ DBQ20030725202010307/25/03 20:20:31  5-MIN KDBQ 260220Z AUTO 18013KT 10SM CLR 24/18 A3004 970 71 2300 170/13 RMK AO2 TSNO
94908KDBQ DBQ20030725202510907/25/03 20:25:31  5-MIN KDBQ 260225Z AUTO 17013G18KT 10SM CLR 23/18 A3004 970 73 2200 170/13G18 RMK AO2 TSNO
94908KDBQ DBQ20030725203010307/25/03 20:30:31  5-MIN KDBQ 260230Z AUTO 17014KT 10SM CLR 23/18 A3004 970 73 2200 170/14 RMK AO2 TSNO
94908KDBQ DBQ20030725203510307/25/03 20:35:31  5-MIN KDBQ 260235Z AUTO 17013KT 10SM CLR 23/18 A3004 970 73 2200 170/13 RMK AO2 TSNO
94908KDBQ DBQ20030725204010307/25/03 20:40:31  5-MIN KDBQ 260240Z AUTO 17013KT 10SM CLR 23/18 A3004 970 73 2200 170/13 RMK AO2 TSNO
94908KDBQ DBQ20030725204510307/25/03 20:45:31  5-MIN KDBQ 260245Z AUTO 17013KT 10SM CLR 24/18 A3004 960 71 2300 170/13 RMK AO2 TSNO
94908KDBQ DBQ20030725205012607/25/03 20:50:31  5-MIN KDBQ 260250Z AUTO 17012KT 10SM CLR 23/19 A3005 960 76 2200 170/12 RMK AO2 SLP169 T02330189 56007 TSNO
94908KDBQ DBQ20030725205512607/25/03 20:55:31  5-MIN KDBQ 260255Z AUTO 17013KT 10SM CLR 24/19 A3005 960 73 2200 170/13 RMK AO2 SLP169 T02390189 53011 TSNO
94908KDBQ DBQ20030725210010307/25/03 21:00:31  5-MIN KDBQ 260300Z AUTO 17013KT 10SM CLR 23/18 A3004 960 70 2200 170/13 RMK AO2 TSNO
94908KDBQ DBQ20030725210510307/25/03 21:05:31  5-MIN KDBQ 260305Z AUTO 17014KT 10SM CLR 23/18 A3004 960 70 2200 170/14 RMK AO2 TSNO
94908KDBQ DBQ20030725211010307/25/03 21:10:31  5-MIN KDBQ 260310Z AUTO 17014KT 10SM CLR 23/18 A3004 960 70 2200 170/14 RMK AO2 TSNO
94908KDBQ DBQ20030725211510307/25/03 21:15:31  5-MIN KDBQ 260315Z AUTO 17014KT 10SM CLR 23/18 A3005 960 70 2200 170/14 RMK AO2 TSNO
94908KDBQ DBQ20030725212010307/25/03 21:20:31  5-MIN KDBQ 260320Z AUTO 17013KT 10SM CLR 23/18 A3005 960 70 2200 170/13 RMK AO2 TSNO
94908KDBQ DBQ20030725212510307/25/03 21:25:31  5-MIN KDBQ 260325Z AUTO 17013KT 10SM CLR 23/17 A3005 960 70 2100 170/13 RMK AO2 TSNO
94908KDBQ DBQ20030725213010307/25/03 21:30:31  5-MIN KDBQ 260330Z AUTO 17013KT 10SM CLR 23/17 A3005 960 70 2100 170/13 RMK AO2 TSNO
94908KDBQ DBQ20030725213510307/25/03 21:35:31  5-MIN KDBQ 260335Z AUTO 17013KT 10SM CLR 23/17 A3005 960 70 2100 170/13 RMK AO2 TSNO
94908KDBQ DBQ20030725214010307/25/03 21:40:31  5-MIN KDBQ 260340Z AUTO 17012KT 10SM CLR 23/17 A3005 960 70 2100 170/12 RMK AO2 TSNO
94908KDBQ DBQ20030725214510307/25/03 21:45:31  5-MIN KDBQ 260345Z AUTO 17015KT 10SM CLR 23/17 A3004 970 70 2100 170/15 RMK AO2 TSNO
94908KDBQ DBQ20030725215012007/25/03 21:50:31  5-MIN KDBQ 260350Z AUTO 17013KT 10SM CLR 23/17 A3005 960 68 2100 170/13 RMK AO2 SLP168 T02280167 TSNO
94908KDBQ DBQ20030725215512007/25/03 21:55:31  5-MIN KDBQ 260355Z AUTO 17013KT 10SM CLR 23/17 A3005 960 68 2100 170/13 RMK AO2 SLP168 T02280167 TSNO
94908KDBQ DBQ20030725220010307/25/03 22:00:31  5-MIN KDBQ 260400Z AUTO 17012KT 10SM CLR 22/17 A3005 960 70 2100 170/12 RMK AO2 TSNO
94908KDBQ DBQ20030725220510307/25/03 22:05:31  5-MIN KDBQ 260405Z AUTO 17013KT 10SM CLR 23/17 A3005 960 68 2100 170/13 RMK AO2 TSNO
94908KDBQ DBQ20030725221010307/25/03 22:10:31  5-MIN KDBQ 260410Z AUTO 17013KT 10SM CLR 22/17 A3005 960 70 2100 170/13 RMK AO2 TSNO
94908KDBQ DBQ20030725221510307/25/03 22:15:31  5-MIN KDBQ 260415Z AUTO 17014KT 10SM CLR 22/17 A3005 960 70 2100 170/14 RMK AO2 TSNO
94908KDBQ DBQ20030725222010307/25/03 22:20:31  5-MIN KDBQ 260420Z AUTO 17014KT 10SM CLR 22/17 A3005 960 70 2100 170/14 RMK AO2 TSNO
94908KDBQ DBQ20030725222510307/25/03 22:25:31  5-MIN KDBQ 260425Z AUTO 17013KT 10SM CLR 22/17 A3004 960 70 2100 170/13 RMK AO2 TSNO
94908KDBQ DBQ20030725223010307/25/03 22:30:31  5-MIN KDBQ 260430Z AUTO 17014KT 10SM CLR 22/17 A3004 960 70 2100 170/14 RMK AO2 TSNO
94908KDBQ DBQ20030725223510307/25/03 22:35:31  5-MIN KDBQ 260435Z AUTO 17015KT 10SM CLR 22/17 A3005 960 70 2100 170/15 RMK AO2 TSNO
94908KDBQ DBQ20030725224010307/25/03 22:40:31  5-MIN KDBQ 260440Z AUTO 17013KT 10SM CLR 22/17 A3005 960 70 2100 170/13 RMK AO2 TSNO
94908KDBQ DBQ20030725224510307/25/03 22:45:31  5-MIN KDBQ 260445Z AUTO 17013KT 10SM CLR 22/17 A3005 960 70 2100 170/13 RMK AO2 TSNO
94908KDBQ DBQ20030725225012007/25/03 22:50:31  5-MIN KDBQ 260450Z AUTO 17012KT 10SM CLR 22/17 A3005 960 70 2100 170/12 RMK AO2 SLP169 T02220167 TSNO
94908KDBQ DBQ20030725225512007/25/03 22:55:31  5-MIN KDBQ 260455Z AUTO 17011KT 10SM CLR 22/17 A3005 960 70 2100 170/11 RMK AO2 SLP170 T02220167 TSNO
94908KDBQ DBQ20030725230010307/25/03 23:00:31  5-MIN KDBQ 260500Z AUTO 17011KT 10SM CLR 22/17 A3005 960 70 2100 170/11 RMK AO2 TSNO
94908KDBQ DBQ20030725230510307/25/03 23:05:31  5-MIN KDBQ 260505Z AUTO 17013KT 10SM CLR 22/17 A3005 960 70 2100 170/13 RMK AO2 TSNO
94908KDBQ DBQ20030725231010307/25/03 23:10:31  5-MIN KDBQ 260510Z AUTO 17012KT 10SM CLR 22/17 A3005 960 70 2100 170/12 RMK AO2 TSNO
94908KDBQ DBQ20030725231510307/25/03 23:15:31  5-MIN KDBQ 260515Z AUTO 17013KT 10SM CLR 22/17 A3005 960 73 2000 170/13 RMK AO2 TSNO
94908KDBQ DBQ20030725232010307/25/03 23:20:31  5-MIN KDBQ 260520Z AUTO 17013KT 10SM CLR 22/17 A3005 960 73 2000 170/13 RMK AO2 TSNO
94908KDBQ DBQ20030725232510307/25/03 23:25:31  5-MIN KDBQ 260525Z AUTO 17012KT 10SM CLR 22/17 A3005 960 73 2000 170/12 RMK AO2 TSNO
94908KDBQ DBQ20030725233010907/25/03 23:30:31  5-MIN KDBQ 260530Z AUTO 17012G18KT 10SM CLR 22/17 A3005 960 73 2000 170/12G18 RMK AO2 TSNO
94908KDBQ DBQ20030725233510307/25/03 23:35:31  5-MIN KDBQ 260535Z AUTO 18013KT 10SM CLR 22/17 A3005 960 73 2000 180/13 RMK AO2 TSNO
94908KDBQ DBQ20030725234010307/25/03 23:40:31  5-MIN KDBQ 260540Z AUTO 18014KT 10SM CLR 22/17 A3005 960 73 2000 180/14 RMK AO2 TSNO
94908KDBQ DBQ20030725234510307/25/03 23:45:31  5-MIN KDBQ 260545Z AUTO 18014KT 10SM CLR 22/17 A3005 960 73 2000 180/14 RMK AO2 TSNO
94908KDBQ DBQ20030725235014807/25/03 23:50:31  5-MIN KDBQ 260550Z AUTO 18013KT 10SM CLR 22/17 A3005 960 73 2000 180/13 RMK AO2 SLP168 T02170167 10256 20217 402830144 53011 TSNO
94908KDBQ DBQ20030725235514807/25/03 23:55:31  5-MIN KDBQ 260555Z AUTO 17014KT 10SM CLR 22/17 A3004 960 73 2000 170/14 RMK AO2 SLP167 T02170167 10256 20217 402830144 58002 TSNO
94908KDBQ DBQ20030726000010307/26/03 00:00:31  5-MIN KDBQ 260600Z AUTO 17014KT 10SM CLR 22/17 A3004 970 73 2000 170/14 RMK AO2 TSNO
94908KDBQ DBQ20030726000510307/26/03 00:05:31  5-MIN KDBQ 260605Z AUTO 18015KT 10SM CLR 22/17 A3004 970 73 2000 180/15 RMK AO2 TSNO
94908KDBQ DBQ20030726001010907/26/03 00:10:31  5-MIN KDBQ 260610Z AUTO 18013G20KT 10SM CLR 22/17 A3004 970 73 2000 170/13G20 RMK AO2 TSNO
94908KDBQ DBQ20030726001510307/26/03 00:15:31  5-MIN KDBQ 260615Z AUTO 18013KT 10SM CLR 21/17 A3004 970 75 1900 180/13 RMK AO2 TSNO
94908KDBQ DBQ20030726002010207/26/03 00:20:31  5-MIN KDBQ 260620Z AUTO 18014KT 9SM CLR 21/16 A3004 970 73 1900 180/14 RMK AO2 TSNO
94908KDBQ DBQ20030726002510207/26/03 00:25:31  5-MIN KDBQ 260625Z AUTO 18015KT 9SM CLR 21/16 A3003 980 73 2000 180/15 RMK AO2 TSNO
94908KDBQ DBQ20030726003010807/26/03 00:30:31  5-MIN KDBQ 260630Z AUTO 18016G22KT 9SM CLR 21/16 A3003 970 73 1900 180/16G22 RMK AO2 TSNO
94908KDBQ DBQ20030726003510807/26/03 00:35:31  5-MIN KDBQ 260635Z AUTO 18015G22KT 9SM CLR 21/16 A3003 980 73 2000 180/15G22 RMK AO2 TSNO
94908KDBQ DBQ20030726004010307/26/03 00:40:31  5-MIN KDBQ 260640Z AUTO 18015KT 10SM CLR 21/16 A3003 980 73 2000 180/15 RMK AO2 TSNO
94908KDBQ DBQ20030726004510207/26/03 00:45:31  5-MIN KDBQ 260645Z AUTO 18013KT 9SM CLR 21/16 A3003 980 73 2000 180/13 RMK AO2 TSNO
94908KDBQ DBQ20030726005011907/26/03 00:50:31  5-MIN KDBQ 260650Z AUTO 18012KT 9SM CLR 21/16 A3003 970 73 1900 180/12 RMK AO2 SLP163 T02110161 TSNO
94908KDBQ DBQ20030726005512007/26/03 00:55:31  5-MIN KDBQ 260655Z AUTO 18014KT 10SM CLR 21/16 A3003 970 73 1900 180/14 RMK AO2 SLP163 T02110161 TSNO
94908KDBQ DBQ20030726010010307/26/03 01:00:31  5-MIN KDBQ 260700Z AUTO 18012KT 10SM CLR 21/16 A3003 980 73 2000 180/12 RMK AO2 TSNO
94908KDBQ DBQ20030726010510307/26/03 01:05:31  5-MIN KDBQ 260705Z AUTO 18014KT 10SM CLR 21/16 A3003 980 73 2000 180/14 RMK AO2 TSNO
94908KDBQ DBQ20030726011010307/26/03 01:10:31  5-MIN KDBQ 260710Z AUTO 18012KT 10SM CLR 21/16 A3003 980 73 2000 180/12 RMK AO2 TSNO
94908KDBQ DBQ20030726011510307/26/03 01:15:31  5-MIN KDBQ 260715Z AUTO 18014KT 10SM CLR 21/16 A3003 980 75 1900 180/14 RMK AO2 TSNO
94908KDBQ DBQ20030726012010307/26/03 01:20:31  5-MIN KDBQ 260720Z AUTO 19015KT 10SM CLR 21/16 A3002 980 75 1900 190/15 RMK AO2 TSNO
94908KDBQ DBQ20030726012510307/26/03 01:25:31  5-MIN KDBQ 260725Z AUTO 19014KT 10SM CLR 21/16 A3002 980 75 1900 190/14 RMK AO2 TSNO
94908KDBQ DBQ20030726013010307/26/03 01:30:31  5-MIN KDBQ 260730Z AUTO 19013KT 10SM CLR 21/16 A3002 980 75 1900 190/13 RMK AO2 TSNO
94908KDBQ DBQ20030726013510307/26/03 01:35:31  5-MIN KDBQ 260735Z AUTO 19014KT 10SM CLR 21/16 A3002 980 75 1900 190/14 RMK AO2 TSNO
94908KDBQ DBQ20030726014010307/26/03 01:40:31  5-MIN KDBQ 260740Z AUTO 19014KT 10SM CLR 21/16 A3002 980 75 1900 190/14 RMK AO2 TSNO
94908KDBQ DBQ20030726014510307/26/03 01:45:31  5-MIN KDBQ 260745Z AUTO 19014KT 10SM CLR 21/16 A3002 980 75 1900 190/14 RMK AO2 TSNO
94908KDBQ DBQ20030726015012007/26/03 01:50:31  5-MIN KDBQ 260750Z AUTO 19014KT 10SM CLR 21/16 A3002 980 75 1900 190/14 RMK AO2 SLP159 T02060161 TSNO
94908KDBQ DBQ20030726015512007/26/03 01:55:31  5-MIN KDBQ 260755Z AUTO 19013KT 10SM CLR 21/16 A3002 980 75 1900 190/13 RMK AO2 SLP159 T02060161 TSNO
94908KDBQ DBQ20030726020010307/26/03 02:00:31  5-MIN KDBQ 260800Z AUTO 19013KT 10SM CLR 21/16 A3002 980 75 1900 190/13 RMK AO2 TSNO
94908KDBQ DBQ20030726020510307/26/03 02:05:31  5-MIN KDBQ 260805Z AUTO 19014KT 10SM CLR 21/16 A3002 980 75 1900 190/14 RMK AO2 TSNO
94908KDBQ DBQ20030726021010307/26/03 02:10:31  5-MIN KDBQ 260810Z AUTO 19012KT 10SM CLR 21/16 A3002 980 75 1900 190/12 RMK AO2 TSNO
94908KDBQ DBQ20030726021510307/26/03 02:15:31  5-MIN KDBQ 260815Z AUTO 19014KT 10SM CLR 21/16 A3002 980 75 1900 190/14 RMK AO2 TSNO
94908KDBQ DBQ20030726022010307/26/03 02:20:31  5-MIN KDBQ 260820Z AUTO 19012KT 10SM CLR 21/16 A3002 980 75 1900 190/12 RMK AO2 TSNO
94908KDBQ DBQ20030726022510307/26/03 02:25:31  5-MIN KDBQ 260825Z AUTO 19013KT 10SM CLR 21/16 A3002 980 75 1900 190/13 RMK AO2 TSNO
94908KDBQ DBQ20030726023010307/26/03 02:30:31  5-MIN KDBQ 260830Z AUTO 19012KT 10SM CLR 21/16 A3003 980 75 1900 190/12 RMK AO2 TSNO
94908KDBQ DBQ20030726023510307/26/03 02:35:31  5-MIN KDBQ 260835Z AUTO 19012KT 10SM CLR 21/16 A3003 980 75 1900 190/12 RMK AO2 TSNO
94908KDBQ DBQ20030726024010307/26/03 02:40:31  5-MIN KDBQ 260840Z AUTO 19014KT 10SM CLR 21/16 A3002 980 75 1900 190/14 RMK AO2 TSNO
94908KDBQ DBQ20030726024510307/26/03 02:45:31  5-MIN KDBQ 260845Z AUTO 19013KT 10SM CLR 21/16 A3002 980 75 1900 190/13 RMK AO2 TSNO
94908KDBQ DBQ20030726025012607/26/03 02:50:31  5-MIN KDBQ 260850Z AUTO 19013KT 10SM CLR 21/16 A3002 980 75 1900 190/13 RMK AO2 SLP159 T02060161 58002 TSNO
94908KDBQ DBQ20030726025512607/26/03 02:55:31  5-MIN KDBQ 260855Z AUTO 19013KT 10SM CLR 21/16 A3002 990 75 1900 180/13 RMK AO2 SLP159 T02060161 56007 TSNO
94908KDBQ DBQ20030726030010307/26/03 03:00:31  5-MIN KDBQ 260900Z AUTO 19012KT 10SM CLR 20/16 A3002 980 78 1800 180/12 RMK AO2 TSNO
94908KDBQ DBQ20030726030510307/26/03 03:05:31  5-MIN KDBQ 260905Z AUTO 19013KT 10SM CLR 20/16 A3002 990 78 1800 190/13 RMK AO2 TSNO
94908KDBQ DBQ20030726031010307/26/03 03:10:31  5-MIN KDBQ 260910Z AUTO 18013KT 10SM CLR 20/16 A3002 990 78 1800 180/13 RMK AO2 TSNO
94908KDBQ DBQ20030726031510307/26/03 03:15:31  5-MIN KDBQ 260915Z AUTO 19013KT 10SM CLR 20/16 A3002 990 78 1800 190/13 RMK AO2 TSNO
94908KDBQ DBQ20030726032010307/26/03 03:20:31  5-MIN KDBQ 260920Z AUTO 19013KT 10SM CLR 20/16 A3002 990 78 1800 190/13 RMK AO2 TSNO
94908KDBQ DBQ20030726032510307/26/03 03:25:31  5-MIN KDBQ 260925Z AUTO 19013KT 10SM CLR 20/16 A3002 990 78 1800 190/13 RMK AO2 TSNO
94908KDBQ DBQ20030726033010307/26/03 03:30:31  5-MIN KDBQ 260930Z AUTO 19014KT 10SM CLR 20/16 A3001 990 78 1800 190/14 RMK AO2 TSNO
94908KDBQ DBQ20030726033510307/26/03 03:35:31  5-MIN KDBQ 260935Z AUTO 19015KT 10SM CLR 20/16 A3001 990 78 1800 190/15 RMK AO2 TSNO
94908KDBQ DBQ20030726034010407/26/03 03:40:31  5-MIN KDBQ 260940Z AUTO 19016KT 10SM CLR 20/16 A3001 1000 78 1800 190/16 RMK AO2 TSNO
94908KDBQ DBQ20030726034510407/26/03 03:45:31  5-MIN KDBQ 260945Z AUTO 19014KT 10SM CLR 20/16 A3001 1000 78 1900 190/14 RMK AO2 TSNO
94908KDBQ DBQ20030726035012107/26/03 03:50:31  5-MIN KDBQ 260950Z AUTO 20014KT 10SM CLR 20/16 A3001 1000 78 1900 200/14 RMK AO2 SLP155 T02000161 TSNO
94908KDBQ DBQ20030726035512107/26/03 03:55:31  5-MIN KDBQ 260955Z AUTO 20016KT 10SM CLR 20/16 A3001 1000 78 1800 200/16 RMK AO2 SLP156 T02000161 TSNO
94908KDBQ DBQ20030726040010307/26/03 04:00:31  5-MIN KDBQ 261000Z AUTO 20015KT 10SM CLR 20/16 A3001 990 78 1800 200/15 RMK AO2 TSNO
94908KDBQ DBQ20030726040510307/26/03 04:05:31  5-MIN KDBQ 261005Z AUTO 20015KT 10SM CLR 20/16 A3001 990 78 1800 200/15 RMK AO2 TSNO
94908KDBQ DBQ20030726041010307/26/03 04:10:31  5-MIN KDBQ 261010Z AUTO 20016KT 10SM CLR 20/16 A3001 990 78 1800 200/16 RMK AO2 TSNO
94908KDBQ DBQ20030726041510307/26/03 04:15:31  5-MIN KDBQ 261015Z AUTO 20015KT 10SM CLR 20/16 A3002 990 78 1800 190/15 RMK AO2 TSNO
94908KDBQ DBQ20030726042010307/26/03 04:20:31  5-MIN KDBQ 261020Z AUTO 20014KT 10SM CLR 20/16 A3002 990 78 1800 190/14 RMK AO2 TSNO
94908KDBQ DBQ20030726042510307/26/03 04:25:31  5-MIN KDBQ 261025Z AUTO 19014KT 10SM CLR 20/16 A3002 990 78 1800 190/14 RMK AO2 TSNO
94908KDBQ DBQ20030726043010207/26/03 04:30:31  5-MIN KDBQ 261030Z AUTO 19014KT 9SM CLR 19/16 A3002 990 81 1800 190/14 RMK AO2 TSNO
94908KDBQ DBQ20030726043510207/26/03 04:35:31  5-MIN KDBQ 261035Z AUTO 20014KT 9SM CLR 19/16 A3002 990 81 1800 200/14 RMK AO2 TSNO
94908KDBQ DBQ20030726044009207/26/03 04:40:31  5-MIN KDBQ 261040Z 20013KT 9SM CLR 19/16 A3003 980 81 1800 200/13 RMK AO2
94908KDBQ DBQ20030726044509207/26/03 04:45:31  5-MIN KDBQ 261045Z 20014KT 9SM CLR 20/16 A3002 980 78 1800 200/14 RMK AO2
94908KDBQ DBQ20030726045010907/26/03 04:50:31  5-MIN KDBQ 261050Z 20013KT 8SM CLR 19/16 A3002 980 81 1800 200/13 RMK AO2 SLP160 T01940161
94908KDBQ DBQ20030726045510907/26/03 04:55:31  5-MIN KDBQ 261055Z 20013KT 8SM CLR 19/16 A3002 980 81 1800 200/13 RMK AO2 SLP160 T01940161
94908KDBQ DBQ20030726050009207/26/03 05:00:31  5-MIN KDBQ 261100Z 20015KT 8SM CLR 19/16 A3003 980 81 1800 200/15 RMK AO2
94908KDBQ DBQ20030726050509207/26/03 05:05:31  5-MIN KDBQ 261105Z 20013KT 8SM CLR 19/16 A3003 980 81 1800 200/13 RMK AO2
94908KDBQ DBQ20030726051009207/26/03 05:10:31  5-MIN KDBQ 261110Z 20014KT 8SM CLR 20/16 A3003 980 78 1800 200/14 RMK AO2
94908KDBQ DBQ20030726051509207/26/03 05:15:31  5-MIN KDBQ 261115Z 20014KT 8SM CLR 19/16 A3002 980 81 1800 200/14 RMK AO2
94908KDBQ DBQ20030726052009207/26/03 05:20:31  5-MIN KDBQ 261120Z 20016KT 8SM CLR 20/16 A3002 980 78 1800 200/16 RMK AO2
94908KDBQ DBQ20030726052509207/26/03 05:25:31  5-MIN KDBQ 261125Z 21014KT 8SM CLR 20/16 A3003 970 78 1800 200/14 RMK AO2
94908KDBQ DBQ20030726053009207/26/03 05:30:31  5-MIN KDBQ 261130Z 20014KT 8SM CLR 20/16 A3003 970 78 1800 200/14 RMK AO2
94908KDBQ DBQ20030726053509207/26/03 05:35:31  5-MIN KDBQ 261135Z 21013KT 8SM CLR 20/16 A3004 970 78 1800 210/13 RMK AO2
94908KDBQ DBQ20030726054009207/26/03 05:40:31  5-MIN KDBQ 261140Z 21013KT 8SM CLR 20/16 A3003 970 78 1800 200/13 RMK AO2
94908KDBQ DBQ20030726054509207/26/03 05:45:31  5-MIN KDBQ 261145Z 21013KT 8SM CLR 20/16 A3004 970 78 1800 210/13 RMK AO2
94908KDBQ DBQ20030726055012707/26/03 05:50:31  5-MIN KDBQ 261150Z 21013KT 9SM CLR 21/16 A3004 970 75 1900 210/13 RMK AO2 SLP164 T02060161 10217 20194 56007
94908KDBQ DBQ20030726055512707/26/03 05:55:31  5-MIN KDBQ 261155Z 20014KT 9SM CLR 21/16 A3003 970 75 1900 200/14 RMK AO2 SLP164 T02060161 10217 20194 53004
94908KDBQ DBQ20030726060009207/26/03 06:00:31  5-MIN KDBQ 261200Z 21013KT 8SM CLR 21/16 A3004 970 75 1900 210/13 RMK AO2
94908KDBQ DBQ20030726060509207/26/03 06:05:31  5-MIN KDBQ 261205Z 21013KT 9SM CLR 21/16 A3004 970 75 1900 200/13 RMK AO2
94908KDBQ DBQ20030726061009207/26/03 06:10:31  5-MIN KDBQ 261210Z 21012KT 9SM CLR 21/16 A3004 970 75 1900 210/12 RMK AO2
94908KDBQ DBQ20030726061509207/26/03 06:15:31  5-MIN KDBQ 261215Z 21013KT 9SM CLR 21/16 A3004 960 75 1900 210/13 RMK AO2
94908KDBQ DBQ20030726062009207/26/03 06:20:31  5-MIN KDBQ 261220Z 20014KT 9SM CLR 21/16 A3004 960 75 1900 200/14 RMK AO2
94908KDBQ DBQ20030726062509207/26/03 06:25:31  5-MIN KDBQ 261225Z 21013KT 9SM CLR 21/16 A3004 970 75 1900 200/13 RMK AO2
94908KDBQ DBQ20030726063009207/26/03 06:30:31  5-MIN KDBQ 261230Z 20013KT 9SM CLR 21/17 A3004 970 78 1900 200/13 RMK AO2
94908KDBQ DBQ20030726063509207/26/03 06:35:31  5-MIN KDBQ 261235Z 20014KT 9SM CLR 21/17 A3003 970 75 1900 200/14 RMK AO2
94908KDBQ DBQ20030726064009207/26/03 06:40:31  5-MIN KDBQ 261240Z 20016KT 9SM CLR 21/17 A3003 980 75 2000 200/16 RMK AO2
94908KDBQ DBQ20030726064509507/26/03 06:45:31  5-MIN KDBQ 261245Z 20016KT 9SM FEW100 21/17 A3003 980 75 2000 200/16 RMK AO2
94908KDBQ DBQ20030726065011207/26/03 06:50:31  5-MIN KDBQ 261250Z 21014KT 9SM FEW100 21/17 A3003 980 75 2000 210/14 RMK AO2 SLP162 T02110167
94908KDBQ DBQ20030726065510907/26/03 06:55:31  5-MIN KDBQ 261255Z 20015KT 9SM CLR 21/17 A3003 980 75 2000 200/15 RMK AO2 SLP161 T02110167
94908KDBQ DBQ20030726070009207/26/03 07:00:31  5-MIN KDBQ 261300Z 20016KT 9SM CLR 21/17 A3002 990 75 2000 200/16 RMK AO2
94908KDBQ DBQ20030726070509207/26/03 07:05:31  5-MIN KDBQ 261305Z 20015KT 9SM CLR 21/17 A3001 990 75 2000 200/15 RMK AO2
94908KDBQ DBQ20030726071010007/26/03 07:10:31  5-MIN KDBQ 261310Z 20016KT 9SM CLR 21/17 A3001 1000 75 2000 200/16 RMK AO2 PRESFR
94908KDBQ DBQ20030726071510007/26/03 07:15:31  5-MIN KDBQ 261315Z 20017KT 8SM CLR 21/17 A3000 1000 75 2000 200/17 RMK AO2 PRESFR
94908KDBQ DBQ20030726072009307/26/03 07:20:31  5-MIN KDBQ 261320Z 20016KT 9SM CLR 22/17 A3000 1000 73 2100 200/16 RMK AO2
94908KDBQ DBQ20030726072509307/26/03 07:25:31  5-MIN KDBQ 261325Z 20018KT 9SM CLR 22/17 A2999 1010 73 2100 200/18 RMK AO2
94908KDBQ DBQ20030726073009307/26/03 07:30:31  5-MIN KDBQ 261330Z 20017KT 9SM CLR 22/17 A2999 1020 73 2100 200/17 RMK AO2
94908KDBQ DBQ20030726073510007/26/03 07:35:31  5-MIN KDBQ 261335Z 19019KT 9SM CLR 22/17 A2998 1020 73 2100 190/19 RMK AO2 PRESFR
94908KDBQ DBQ20030726074009907/26/03 07:40:31  5-MIN KDBQ 261340Z 20020G24KT 9SM CLR 22/17 A2998 1030 73 2100 200/20G24 RMK AO2
94908KDBQ DBQ20030726074511707/26/03 07:45:31  5-MIN KDBQ 261345Z 20022G27KT 9SM CLR 22/17 A2998 1030 73 2100 200/22G27 RMK AO2 PK WND 19027/1344
94908KDBQ DBQ20030726075013407/26/03 07:50:31  5-MIN KDBQ 261350Z 20020G29KT 9SM CLR 22/17 A2997 1030 70 2100 200/20G29 RMK AO2 PK WND 20029/1346 SLP142 T02220167
94908KDBQ DBQ20030726075513407/26/03 07:55:31  5-MIN KDBQ 261355Z 20020G29KT 9SM CLR 22/17 A2998 1030 73 2100 190/20G29 RMK AO2 PK WND 20029/1346 SLP145 T02170167
94908KDBQ DBQ20030726080009307/26/03 08:00:31  5-MIN KDBQ 261400Z 20020KT 9SM CLR 22/17 A2998 1030 70 2100 200/20 RMK AO2
94908KDBQ DBQ20030726080509907/26/03 08:05:31  5-MIN KDBQ 261405Z 20019G25KT 9SM CLR 22/17 A2998 1020 70 2100 200/19G25 RMK AO2
94908KDBQ DBQ20030726081009307/26/03 08:10:31  5-MIN KDBQ 261410Z 20019KT 9SM CLR 22/17 A2999 1020 73 2100 200/19 RMK AO2
94908KDBQ DBQ20030726081509307/26/03 08:15:31  5-MIN KDBQ 261415Z 20016KT 9SM CLR 23/17 A2999 1010 70 2200 200/16 RMK AO2
94908KDBQ DBQ20030726082009307/26/03 08:20:31  5-MIN KDBQ 261420Z 20018KT 9SM CLR 23/18 A2999 1010 73 2200 200/18 RMK AO2
94908KDBQ DBQ20030726082509307/26/03 08:25:31  5-MIN KDBQ 261425Z 20017KT 9SM CLR 23/17 A2999 1010 68 2300 200/17 RMK AO2
94908KDBQ DBQ20030726083009907/26/03 08:30:31  5-MIN KDBQ 261430Z 20018G25KT 9SM CLR 23/18 A2999 1010 70 2200 200/18G25 RMK AO2
94908KDBQ DBQ20030726083510007/26/03 08:35:31  5-MIN KDBQ 261435Z 20017G25KT 10SM CLR 24/18 A2999 1010 68 2300 200/17G25 RMK AO2
94908KDBQ DBQ20030726084009407/26/03 08:40:31  5-MIN KDBQ 261440Z 21016KT 10SM CLR 24/18 A2999 1010 68 2300 210/16 RMK AO2
94908KDBQ DBQ20030726084510007/26/03 08:45:31  5-MIN KDBQ 261445Z 20020G25KT 10SM CLR 24/18 A2999 1020 68 2300 200/20G25 RMK AO2
94908KDBQ DBQ20030726085011707/26/03 08:50:31  5-MIN KDBQ 261450Z 20020KT 10SM CLR 24/18 A2999 1020 66 2400 200/20 RMK AO2 SLP148 T02440178 53004
94908KDBQ DBQ20030726085511707/26/03 08:55:31  5-MIN KDBQ 261455Z 20019KT 10SM CLR 24/18 A2998 1020 66 2400 200/19 RMK AO2 SLP146 T02440178 55017
94908KDBQ DBQ20030726090009407/26/03 09:00:31  5-MIN KDBQ 261500Z 20021KT 10SM CLR 24/18 A2998 1020 66 2400 200/21 RMK AO2
94908KDBQ DBQ20030726090511207/26/03 09:05:31  5-MIN KDBQ 261505Z 20019KT 10SM CLR 24/18 A2998 1020 68 2400 200/19 RMK AO2 PK WND 20026/1502
94908KDBQ DBQ20030726091011807/26/03 09:10:31  5-MIN KDBQ 261510Z 21017G24KT 10SM CLR 24/18 A2998 1020 68 2400 210/17G24 RMK AO2 PK WND 20026/1502
94908KDBQ DBQ20030726091511807/26/03 09:15:31  5-MIN KDBQ 261515Z 20020G24KT 10SM CLR 25/18 A2999 1020 66 2400 200/20G24 RMK AO2 PK WND 20026/1502
94908KDBQ DBQ20030726092011807/26/03 09:20:31  5-MIN KDBQ 261520Z 21020G25KT 10SM CLR 25/18 A3000 1010 66 2400 210/20G25 RMK AO2 PK WND 20026/1502
94908KDBQ DBQ20030726092511807/26/03 09:25:31  5-MIN KDBQ 261525Z 21019G25KT 10SM CLR 25/18 A3000 1000 66 2400 210/19G25 RMK AO2 PK WND 20026/1502
94908KDBQ DBQ20030726093011907/26/03 09:30:31  5-MIN KDBQ 261530Z 20014KT 10SM CLR 25/19 A3001 1000 68 2400 200/14 RMK AO2 PK WND 20026/1502 PRESRR
94908KDBQ DBQ20030726093511807/26/03 09:35:31  5-MIN KDBQ 261535Z 20017G21KT 10SM CLR 26/19 A3001 1000 66 2500 200/17G21 RMK AO2 PK WND 20026/1502
94908KDBQ DBQ20030726094011207/26/03 09:40:31  5-MIN KDBQ 261540Z 20018KT 10SM CLR 26/19 A3001 1000 66 2500 200/18 RMK AO2 PK WND 20026/1502
94908KDBQ DBQ20030726094511207/26/03 09:45:31  5-MIN KDBQ 261545Z 20017KT 10SM CLR 26/19 A3000 1000 66 2500 200/17 RMK AO2 PK WND 20026/1502
94908KDBQ DBQ20030726095012907/26/03 09:50:31  5-MIN KDBQ 261550Z 19017KT 10SM CLR 26/19 A3000 1010 66 2500 190/17 RMK AO2 PK WND 20026/1502 SLP151 T02560189
94908KDBQ DBQ20030726095512907/26/03 09:55:31  5-MIN KDBQ 261555Z 20016KT 10SM CLR 26/19 A3000 1010 66 2500 200/16 RMK AO2 PK WND 20026/1502 SLP151 T02560189
94908KDBQ DBQ20030726100009407/26/03 10:00:31  5-MIN KDBQ 261600Z 20019KT 10SM CLR 26/19 A3000 1010 64 2600 200/19 RMK AO2
94908KDBQ DBQ20030726100509407/26/03 10:05:31  5-MIN KDBQ 261605Z 20019KT 10SM CLR 26/19 A3000 1010 66 2600 200/19 RMK AO2
94908KDBQ DBQ20030726101010007/26/03 10:10:31  5-MIN KDBQ 261610Z 20017G22KT 10SM CLR 26/19 A3000 1010 66 2600 200/17G22 RMK AO2
94908KDBQ DBQ20030726101510007/26/03 10:15:31  5-MIN KDBQ 261615Z 19019G22KT 10SM CLR 26/19 A2999 1010 66 2600 190/19G22 RMK AO2
94908KDBQ DBQ20030726102009407/26/03 10:20:31  5-MIN KDBQ 261620Z 19018KT 10SM CLR 26/19 A2999 1020 66 2600 190/18 RMK AO2
94908KDBQ DBQ20030726102509407/26/03 10:25:31  5-MIN KDBQ 261625Z 19018KT 10SM CLR 27/19 A2998 1020 64 2600 190/18 RMK AO2
94908KDBQ DBQ20030726103009407/26/03 10:30:31  5-MIN KDBQ 261630Z 19019KT 10SM CLR 27/19 A2998 1020 64 2600 190/19 RMK AO2
94908KDBQ DBQ20030726103510007/26/03 10:35:31  5-MIN KDBQ 261635Z 19016G23KT 10SM CLR 27/19 A2998 1030 64 2600 190/16G23 RMK AO2
94908KDBQ DBQ20030726104010007/26/03 10:40:31  5-MIN KDBQ 261640Z 19020G23KT 10SM CLR 27/20 A2997 1030 66 2600 190/20G23 RMK AO2
94908KDBQ DBQ20030726104509407/26/03 10:45:31  5-MIN KDBQ 261645Z 19019KT 10SM CLR 27/20 A2997 1040 64 2700 190/19 RMK AO2
94908KDBQ DBQ20030726105011107/26/03 10:50:31  5-MIN KDBQ 261650Z 20019KT 10SM CLR 27/20 A2997 1030 64 2700 200/19 RMK AO2 SLP140 T02720200
94908KDBQ DBQ20030726105511107/26/03 10:55:31  5-MIN KDBQ 261655Z 20019KT 10SM CLR 27/20 A2997 1030 64 2700 200/19 RMK AO2 SLP140 T02720200
94908KDBQ DBQ20030726110009407/26/03 11:00:31  5-MIN KDBQ 261700Z 20019KT 10SM CLR 28/21 A2997 1040 64 2800 200/19 RMK AO2
94908KDBQ DBQ20030726110509407/26/03 11:05:31  5-MIN KDBQ 261705Z 20017KT 10SM CLR 27/21 A2997 1040 66 2700 200/17 RMK AO2
94908KDBQ DBQ20030726111010007/26/03 11:10:31  5-MIN KDBQ 261710Z 20018G25KT 10SM CLR 28/21 A2997 1030 64 2800 200/18G25 RMK AO2
94908KDBQ DBQ20030726111510007/26/03 11:15:31  5-MIN KDBQ 261715Z 21016G25KT 10SM CLR 27/21 A2997 1030 66 2700 210/16G25 RMK AO2
94908KDBQ DBQ20030726112009407/26/03 11:20:31  5-MIN KDBQ 261720Z 20016KT 10SM CLR 27/21 A2997 1030 66 2700 200/16 RMK AO2
94908KDBQ DBQ20030726112509407/26/03 11:25:31  5-MIN KDBQ 261725Z 21014KT 10SM CLR 27/21 A2998 1020 66 2700 210/14 RMK AO2
94908KDBQ DBQ20030726113009407/26/03 11:30:31  5-MIN KDBQ 261730Z 21014KT 10SM CLR 28/21 A2998 1020 64 2800 210/14 RMK AO2
94908KDBQ DBQ20030726113509407/26/03 11:35:31  5-MIN KDBQ 261735Z 21014KT 10SM CLR 28/21 A2998 1020 66 2800 210/14 RMK AO2
94908KDBQ DBQ20030726114009407/26/03 11:40:31  5-MIN KDBQ 261740Z 21013KT 10SM CLR 28/21 A2998 1020 64 2800 210/13 RMK AO2
94908KDBQ DBQ20030726114510007/26/03 11:45:31  5-MIN KDBQ 261745Z 21013G19KT 10SM CLR 28/21 A2998 1020 64 2800 210/13G19 RMK AO2
94908KDBQ DBQ20030726115013507/26/03 11:50:31  5-MIN KDBQ 261750Z 21015G19KT 10SM CLR 28/21 A2997 1030 64 2800 210/15G19 RMK AO2 SLP142 T02830211 10283 20206 55017
94908KDBQ DBQ20030726115512907/26/03 11:55:31  5-MIN KDBQ 261755Z 22015KT 10SM CLR 28/21 A2998 1030 64 2800 220/15 RMK AO2 SLP143 T02830211 10283 20206 58003
94908KDBQ DBQ20030726120009407/26/03 12:00:31  5-MIN KDBQ 261800Z 20013KT 10SM CLR 29/22 A2997 1030 64 2900 200/13 RMK AO2
94908KDBQ DBQ20030726120509407/26/03 12:05:31  5-MIN KDBQ 261805Z 21016KT 10SM CLR 29/22 A2997 1030 64 2900 210/16 RMK AO2
94908KDBQ DBQ20030726121009407/26/03 12:10:31  5-MIN KDBQ 261810Z 20016KT 10SM CLR 29/22 A2997 1030 64 2900 200/16 RMK AO2
94908KDBQ DBQ20030726121509407/26/03 12:15:31  5-MIN KDBQ 261815Z 21016KT 10SM CLR 29/22 A2997 1030 64 2900 210/16 RMK AO2
94908KDBQ DBQ20030726122009407/26/03 12:20:31  5-MIN KDBQ 261820Z 20016KT 10SM CLR 29/22 A2997 1040 62 3000 200/16 RMK AO2
94908KDBQ DBQ20030726122509407/26/03 12:25:31  5-MIN KDBQ 261825Z 20016KT 10SM CLR 29/22 A2996 1040 62 3000 200/16 RMK AO2
94908KDBQ DBQ20030726123009407/26/03 12:30:31  5-MIN KDBQ 261830Z 20017KT 10SM CLR 29/22 A2996 1040 64 3000 200/17 RMK AO2
94908KDBQ DBQ20030726123509407/26/03 12:35:31  5-MIN KDBQ 261835Z 20016KT 10SM CLR 29/22 A2996 1040 64 2900 200/16 RMK AO2
94908KDBQ DBQ20030726124009407/26/03 12:40:31  5-MIN KDBQ 261840Z 21014KT 10SM CLR 29/22 A2996 1040 67 2900 210/14 RMK AO2
94908KDBQ DBQ20030726124509407/26/03 12:45:31  5-MIN KDBQ 261845Z 20014KT 10SM CLR 29/22 A2997 1030 64 2900 200/14 RMK AO2
94908KDBQ DBQ20030726125011107/26/03 12:50:31  5-MIN KDBQ 261850Z 22016KT 10SM CLR 29/22 A2997 1040 64 2900 220/16 RMK AO2 SLP139 T02890217
94908KDBQ DBQ20030726125511107/26/03 12:55:31  5-MIN KDBQ 261855Z 21016KT 10SM CLR 29/22 A2997 1040 62 3000 210/16 RMK AO2 SLP140 T02940217
94908KDBQ DBQ20030726130010007/26/03 13:00:31  5-MIN KDBQ 261900Z 22017G22KT 10SM CLR 30/22 A2996 1040 62 3000 210/17G22 RMK AO2
94908KDBQ DBQ20030726130510007/26/03 13:05:31  5-MIN KDBQ 261905Z 21015G22KT 10SM CLR 30/22 A2996 1040 62 3000 210/15G22 RMK AO2
94908KDBQ DBQ20030726131010007/26/03 13:10:31  5-MIN KDBQ 261910Z 21019G23KT 10SM CLR 30/22 A2996 1040 62 3000 200/19G23 RMK AO2
94908KDBQ DBQ20030726131510007/26/03 13:15:31  5-MIN KDBQ 261915Z 20019G23KT 10SM CLR 30/22 A2996 1040 62 3000 200/19G23 RMK AO2
94908KDBQ DBQ20030726132009407/26/03 13:20:31  5-MIN KDBQ 261920Z 21015KT 10SM CLR 30/22 A2996 1040 62 3000 210/15 RMK AO2
94908KDBQ DBQ20030726132509407/26/03 13:25:31  5-MIN KDBQ 261925Z 20017KT 10SM CLR 30/22 A2997 1040 62 3000 200/17 RMK AO2
94908KDBQ DBQ20030726133009407/26/03 13:30:31  5-MIN KDBQ 261930Z 21016KT 10SM CLR 29/22 A2996 1040 64 3000 210/16 RMK AO2
94908KDBQ DBQ20030726133509907/26/03 13:35:31  5-MIN KDBQ 261935Z AUTO 21015KT 10SM CLR 30/23 A2996 1040 65 3000 210/15 RMK AO2
94908KDBQ DBQ20030726134010407/26/03 13:40:31  5-MIN KDBQ 261940Z AUTO 20017KT 10SM CLR 30/23 A2996 1040 65 3000 200/17 RMK AO2 TSNO
94908KDBQ DBQ20030726134510407/26/03 13:45:31  5-MIN KDBQ 261945Z AUTO 21015KT 10SM CLR 31/23 A2996 1040 62 3100 210/15 RMK AO2 TSNO
94908KDBQ DBQ20030726135012707/26/03 13:50:31  5-MIN KDBQ 261950Z AUTO 22017G22KT 10SM CLR 31/23 A2996 1040 62 3100 220/17G22 RMK AO2 SLP137 T03060228 TSNO
94908KDBQ DBQ20030726135512707/26/03 13:55:31  5-MIN KDBQ 261955Z AUTO 21017G22KT 10SM CLR 31/23 A2996 1040 62 3100 210/17G22 RMK AO2 SLP137 T03060228 TSNO
94908KDBQ DBQ20030726140009407/26/03 14:00:31  5-MIN KDBQ 262000Z 22016KT 10SM CLR 30/23 A2996 1050 65 3000 210/16 RMK AO2
94908KDBQ DBQ20030726140509407/26/03 14:05:31  5-MIN KDBQ 262005Z 22016KT 10SM CLR 29/22 A2996 1040 64 3000 220/16 RMK AO2
94908KDBQ DBQ20030726141010007/26/03 14:10:31  5-MIN KDBQ 262010Z 22016G24KT 10SM CLR 30/23 A2996 1050 65 3000 220/16G24 RMK AO2
94908KDBQ DBQ20030726141510007/26/03 14:15:31  5-MIN KDBQ 262015Z 20019G24KT 10SM CLR 30/23 A2996 1040 65 3000 200/19G24 RMK AO2
94908KDBQ DBQ20030726142009407/26/03 14:20:31  5-MIN KDBQ 262020Z 22014KT 10SM CLR 31/23 A2996 1040 65 3100 220/14 RMK AO2
94908KDBQ DBQ20030726142509407/26/03 14:25:31  5-MIN KDBQ 262025Z 22015KT 10SM CLR 30/23 A2996 1040 65 3000 220/15 RMK AO2
94908KDBQ DBQ20030726143009407/26/03 14:30:31  5-MIN KDBQ 262030Z 22016KT 10SM CLR 30/23 A2996 1040 67 3000 220/16 RMK AO2
94908KDBQ DBQ20030726143509407/26/03 14:35:31  5-MIN KDBQ 262035Z 21015KT 10SM CLR 30/23 A2996 1040 67 3000 210/15 RMK AO2
94908KDBQ DBQ20030726144009407/26/03 14:40:31  5-MIN KDBQ 262040Z 21018KT 10SM CLR 30/23 A2995 1050 65 3000 210/18 RMK AO2
94908KDBQ DBQ20030726144509407/26/03 14:45:31  5-MIN KDBQ 262045Z 22016KT 10SM CLR 30/23 A2996 1050 65 3000 220/16 RMK AO2
94908KDBQ DBQ20030726145011707/26/03 14:50:31  5-MIN KDBQ 262050Z 22015KT 10SM CLR 30/23 A2996 1040 65 3000 220/15 RMK AO2 SLP138 T03000228 58003
94908KDBQ DBQ20030726145512307/26/03 14:55:31  5-MIN KDBQ 262055Z 21013G20KT 10SM CLR 30/23 A2996 1040 67 3000 210/13G20 RMK AO2 SLP138 T03000233 55005
94908KDBQ DBQ20030726150009407/26/03 15:00:31  5-MIN KDBQ 262100Z 22014KT 10SM CLR 30/23 A2996 1040 67 3000 220/14 RMK AO2
94908KDBQ DBQ20030726150509407/26/03 15:05:31  5-MIN KDBQ 262105Z 20015KT 10SM CLR 30/23 A2996 1040 67 3000 200/15 RMK AO2
94908KDBQ DBQ20030726151009407/26/03 15:10:31  5-MIN KDBQ 262110Z 22014KT 10SM CLR 30/24 A2996 1040 69 3000 220/14 RMK AO2
94908KDBQ DBQ20030726151509307/26/03 15:15:31  5-MIN KDBQ 262115Z 22016KT 9SM CLR 30/23 A2996 1040 67 3000 220/16 RMK AO2
94908KDBQ DBQ20030726152009307/26/03 15:20:31  5-MIN KDBQ 262120Z 21013KT 9SM CLR 30/23 A2996 1040 67 3000 210/13 RMK AO2
94908KDBQ DBQ20030726152509307/26/03 15:25:31  5-MIN KDBQ 262125Z 21014KT 9SM CLR 30/23 A2996 1040 67 3000 210/14 RMK AO2
94908KDBQ DBQ20030726153009307/26/03 15:30:31  5-MIN KDBQ 262130Z 22013KT 9SM CLR 30/24 A2995 1050 69 3000 220/13 RMK AO2
94908KDBQ DBQ20030726153509307/26/03 15:35:31  5-MIN KDBQ 262135Z 22015KT 9SM CLR 30/23 A2995 1050 67 3000 220/15 RMK AO2
94908KDBQ DBQ20030726154009307/26/03 15:40:31  5-MIN KDBQ 262140Z 21014KT 9SM CLR 30/24 A2995 1060 69 3000 210/14 RMK AO2
94908KDBQ DBQ20030726154509307/26/03 15:45:31  5-MIN KDBQ 262145Z 21015KT 9SM CLR 30/24 A2995 1050 69 3000 200/15 RMK AO2
94908KDBQ DBQ20030726155011007/26/03 15:50:31  5-MIN KDBQ 262150Z 23018KT 9SM CLR 30/23 A2994 1060 67 3100 230/18 RMK AO2 SLP132 T03000233
94908KDBQ DBQ20030726155511007/26/03 15:55:31  5-MIN KDBQ 262155Z 22016KT 9SM CLR 30/23 A2994 1060 67 3100 220/16 RMK AO2 SLP132 T03000233
94908KDBQ DBQ20030726160009907/26/03 16:00:31  5-MIN KDBQ 262200Z 21015G22KT 9SM CLR 30/23 A2995 1050 67 3000 210/15G22 RMK AO2
94908KDBQ DBQ20030726160509307/26/03 16:05:31  5-MIN KDBQ 262205Z 22015KT 9SM CLR 30/24 A2994 1060 69 3000 220/15 RMK AO2
94908KDBQ DBQ20030726161009907/26/03 16:10:31  5-MIN KDBQ 262210Z 21013G20KT 9SM CLR 31/24 A2994 1060 67 3100 210/13G20 RMK AO2
94908KDBQ DBQ20030726161509307/26/03 16:15:31  5-MIN KDBQ 262215Z 22015KT 9SM CLR 31/24 A2994 1060 67 3100 210/15 RMK AO2
94908KDBQ DBQ20030726162009307/26/03 16:20:31  5-MIN KDBQ 262220Z 21015KT 9SM CLR 30/24 A2994 1060 69 3000 210/15 RMK AO2
94908KDBQ DBQ20030726162509307/26/03 16:25:31  5-MIN KDBQ 262225Z 21015KT 9SM CLR 30/24 A2995 1050 69 3000 210/15 RMK AO2
94908KDBQ DBQ20030726163009307/26/03 16:30:31  5-MIN KDBQ 262230Z 21015KT 9SM CLR 30/24 A2994 1060 69 3000 210/15 RMK AO2
94908KDBQ DBQ20030726163509307/26/03 16:35:31  5-MIN KDBQ 262235Z 21014KT 9SM CLR 30/23 A2994 1060 67 3000 210/14 RMK AO2
94908KDBQ DBQ20030726164009307/26/03 16:40:31  5-MIN KDBQ 262240Z 20011KT 9SM CLR 30/24 A2994 1060 72 3000 200/11 RMK AO2
94908KDBQ DBQ20030726164509307/26/03 16:45:31  5-MIN KDBQ 262245Z 21014KT 9SM CLR 30/24 A2994 1060 72 3100 200/14 RMK AO2
94908KDBQ DBQ20030726165011007/26/03 16:50:31  5-MIN KDBQ 262250Z 21015KT 9SM CLR 30/24 A2994 1060 69 3100 210/15 RMK AO2 SLP132 T03000239
94908KDBQ DBQ20030726165511007/26/03 16:55:31  5-MIN KDBQ 262255Z 21016KT 9SM CLR 30/24 A2994 1060 69 3100 210/16 RMK AO2 SLP131 T03000239
94908KDBQ DBQ20030726170009307/26/03 17:00:31  5-MIN KDBQ 262300Z 21014KT 9SM CLR 30/24 A2994 1060 69 3100 210/14 RMK AO2
94908KDBQ DBQ20030726170509307/26/03 17:05:31  5-MIN KDBQ 262305Z 21013KT 9SM CLR 30/24 A2994 1060 72 3100 210/13 RMK AO2
94908KDBQ DBQ20030726171009307/26/03 17:10:31  5-MIN KDBQ 262310Z 21011KT 8SM CLR 30/24 A2994 1060 72 3100 200/11 RMK AO2
94908KDBQ DBQ20030726171509307/26/03 17:15:31  5-MIN KDBQ 262315Z 21014KT 8SM CLR 29/24 A2994 1060 74 3000 210/14 RMK AO2
94908KDBQ DBQ20030726172009307/26/03 17:20:31  5-MIN KDBQ 262320Z 21015KT 8SM CLR 29/24 A2994 1060 71 3000 210/15 RMK AO2
94908KDBQ DBQ20030726172509307/26/03 17:25:31  5-MIN KDBQ 262325Z 21014KT 8SM CLR 29/24 A2994 1060 74 3000 210/14 RMK AO2
94908KDBQ DBQ20030726173009307/26/03 17:30:31  5-MIN KDBQ 262330Z 20015KT 8SM CLR 29/24 A2994 1060 74 3000 200/15 RMK AO2
94908KDBQ DBQ20030726173509307/26/03 17:35:31  5-MIN KDBQ 262335Z 20013KT 8SM CLR 29/24 A2993 1070 71 3000 200/13 RMK AO2
94908KDBQ DBQ20030726174009307/26/03 17:40:31  5-MIN KDBQ 262340Z 21014KT 8SM CLR 29/24 A2993 1070 71 3000 210/14 RMK AO2
94908KDBQ DBQ20030726174509307/26/03 17:45:31  5-MIN KDBQ 262345Z 21014KT 8SM CLR 29/24 A2993 1070 71 3000 210/14 RMK AO2
94908KDBQ DBQ20030726175012807/26/03 17:50:31  5-MIN KDBQ 262350Z 21014KT 8SM CLR 29/24 A2993 1070 71 3000 210/14 RMK AO2 SLP128 T02940239 10306 20283 55005
94908KDBQ DBQ20030726175512807/26/03 17:55:31  5-MIN KDBQ 262355Z 21013KT 8SM CLR 29/24 A2993 1070 71 3000 210/13 RMK AO2 SLP129 T02940239 10306 20283 56009
94908KDBQ DBQ20030726180009307/26/03 18:00:31  5-MIN KDBQ 270000Z 21013KT 8SM CLR 29/24 A2993 1070 74 2900 200/13 RMK AO2
94908KDBQ DBQ20030726180509307/26/03 18:05:31  5-MIN KDBQ 270005Z 21012KT 8SM CLR 29/24 A2993 1070 74 2900 210/12 RMK AO2
94908KDBQ DBQ20030726181009307/26/03 18:10:31  5-MIN KDBQ 270010Z 21013KT 8SM CLR 29/24 A2994 1060 74 2900 210/13 RMK AO2
94908KDBQ DBQ20030726181509307/26/03 18:15:31  5-MIN KDBQ 270015Z 20011KT 8SM CLR 29/24 A2994 1060 74 2900 200/11 RMK AO2
94908KDBQ DBQ20030726182009307/26/03 18:20:31  5-MIN KDBQ 270020Z 21012KT 8SM CLR 29/24 A2994 1060 74 2900 200/12 RMK AO2
94908KDBQ DBQ20030726182509307/26/03 18:25:31  5-MIN KDBQ 270025Z 21011KT 8SM CLR 28/24 A2994 1060 76 2900 200/11 RMK AO2
94908KDBQ DBQ20030726183009307/26/03 18:30:31  5-MIN KDBQ 270030Z 20010KT 8SM CLR 28/24 A2994 1060 76 2900 200/10 RMK AO2
94908KDBQ DBQ20030726183509307/26/03 18:35:31  5-MIN KDBQ 270035Z 21010KT 8SM CLR 28/24 A2994 1060 76 2900 210/10 RMK AO2
94908KDBQ DBQ20030726184009307/26/03 18:40:31  5-MIN KDBQ 270040Z 21010KT 8SM CLR 28/24 A2995 1050 76 2900 210/10 RMK AO2
94908KDBQ DBQ20030726184509307/26/03 18:45:31  5-MIN KDBQ 270045Z 21011KT 8SM CLR 28/24 A2995 1050 76 2900 210/11 RMK AO2
94908KDBQ DBQ20030726185011007/26/03 18:50:31  5-MIN KDBQ 270050Z 21009KT 8SM CLR 28/24 A2995 1050 76 2900 210/09 RMK AO2 SLP135 T02830239
94908KDBQ DBQ20030726185511007/26/03 18:55:31  5-MIN KDBQ 270055Z 21008KT 7SM CLR 28/24 A2995 1050 79 2800 210/08 RMK AO2 SLP136 T02780239
94908KDBQ DBQ20030726190009807/26/03 19:00:31  5-MIN KDBQ 270100Z AUTO 21007KT 7SM CLR 28/24 A2995 1050 79 2800 210/07 RMK AO2
94908KDBQ DBQ20030726190510307/26/03 19:05:31  5-MIN KDBQ 270105Z AUTO 21008KT 7SM CLR 28/24 A2995 1050 79 2800 210/08 RMK AO2 TSNO
94908KDBQ DBQ20030726191010307/26/03 19:10:31  5-MIN KDBQ 270110Z AUTO 21008KT 7SM CLR 28/24 A2996 1050 79 2800 210/08 RMK AO2 TSNO
94908KDBQ DBQ20030726191510307/26/03 19:15:31  5-MIN KDBQ 270115Z AUTO 21007KT 7SM CLR 27/24 A2996 1040 82 2700 210/07 RMK AO2 TSNO
94908KDBQ DBQ20030726192010307/26/03 19:20:31  5-MIN KDBQ 270120Z AUTO 20006KT 7SM CLR 27/24 A2996 1050 82 2700 200/06 RMK AO2 TSNO
94908KDBQ DBQ20030726192510307/26/03 19:25:31  5-MIN KDBQ 270125Z AUTO 19006KT 7SM CLR 27/24 A2996 1040 84 2700 190/06 RMK AO2 TSNO
94908KDBQ DBQ20030726193010607/26/03 19:30:31  5-MIN KDBQ 270130Z AUTO 19006KT 6SM HZ CLR 27/24 A2996 1040 84 2700 190/06 RMK AO2 TSNO
94908KDBQ DBQ20030726193510607/26/03 19:35:31  5-MIN KDBQ 270135Z AUTO 19006KT 6SM HZ CLR 27/24 A2996 1040 84 2700 190/06 RMK AO2 TSNO
94908KDBQ DBQ20030726194010607/26/03 19:40:31  5-MIN KDBQ 270140Z AUTO 19006KT 6SM BR CLR 26/24 A2996 1040 87 2600 190/06 RMK AO2 TSNO
94908KDBQ DBQ20030726194510307/26/03 19:45:31  5-MIN KDBQ 270145Z AUTO 19007KT 7SM CLR 26/24 A2996 1040 87 2600 190/07 RMK AO2 TSNO
94908KDBQ DBQ20030726195012007/26/03 19:50:31  5-MIN KDBQ 270150Z AUTO 19006KT 7SM CLR 26/24 A2996 1040 87 2600 190/06 RMK AO2 SLP138 T02610239 TSNO
94908KDBQ DBQ20030726195512007/26/03 19:55:31  5-MIN KDBQ 270155Z AUTO 19006KT 7SM CLR 26/24 A2996 1040 87 2600 190/06 RMK AO2 SLP139 T02610239 TSNO
94908KDBQ DBQ20030726200010307/26/03 20:00:31  5-MIN KDBQ 270200Z AUTO 19006KT 7SM CLR 26/24 A2996 1040 87 2600 190/06 RMK AO2 TSNO
94908KDBQ DBQ20030726200510307/26/03 20:05:31  5-MIN KDBQ 270205Z AUTO 20006KT 7SM CLR 26/24 A2996 1040 87 2600 200/06 RMK AO2 TSNO
94908KDBQ DBQ20030726201010307/26/03 20:10:31  5-MIN KDBQ 270210Z AUTO 20006KT 7SM CLR 26/24 A2997 1040 90 2500 200/06 RMK AO2 TSNO
94908KDBQ DBQ20030726201510307/26/03 20:15:31  5-MIN KDBQ 270215Z AUTO 20006KT 7SM CLR 26/24 A2997 1030 90 2500 200/06 RMK AO2 TSNO
94908KDBQ DBQ20030726202010307/26/03 20:20:31  5-MIN KDBQ 270220Z AUTO 19006KT 7SM CLR 26/23 A2997 1030 87 2500 190/06 RMK AO2 TSNO
94908KDBQ DBQ20030726202510307/26/03 20:25:31  5-MIN KDBQ 270225Z AUTO 19006KT 7SM CLR 26/23 A2997 1030 87 2500 190/06 RMK AO2 TSNO
94908KDBQ DBQ20030726203010307/26/03 20:30:31  5-MIN KDBQ 270230Z AUTO 19006KT 7SM CLR 26/23 A2997 1030 87 2500 190/06 RMK AO2 TSNO
94908KDBQ DBQ20030726203510307/26/03 20:35:31  5-MIN KDBQ 270235Z AUTO 19006KT 7SM CLR 26/23 A2997 1030 87 2500 190/06 RMK AO2 TSNO
94908KDBQ DBQ20030726204010607/26/03 20:40:31  5-MIN KDBQ 270240Z AUTO 20006KT 7SM FEW055 26/23 A2998 1030 87 2500 200/06 RMK AO2 TSNO
94908KDBQ DBQ20030726204510607/26/03 20:45:31  5-MIN KDBQ 270245Z AUTO 19006KT 7SM FEW055 26/23 A2998 1030 87 2500 190/06 RMK AO2 TSNO
94908KDBQ DBQ20030726205012907/26/03 20:50:31  5-MIN KDBQ 270250Z AUTO 19006KT 7SM FEW055 26/23 A2998 1030 87 2500 190/06 RMK AO2 SLP143 T02560233 56009 TSNO
94908KDBQ DBQ20030726205512907/26/03 20:55:31  5-MIN KDBQ 270255Z AUTO 20006KT 7SM FEW055 26/23 A2998 1030 87 2500 200/06 RMK AO2 SLP143 T02560233 51014 TSNO
94908KDBQ DBQ20030726210010607/26/03 21:00:31  5-MIN KDBQ 270300Z AUTO 20007KT 7SM FEW055 25/23 A2998 1030 90 2500 200/07 RMK AO2 TSNO
94908KDBQ DBQ20030726210510607/26/03 21:05:31  5-MIN KDBQ 270305Z AUTO 20006KT 7SM FEW055 25/23 A2998 1030 90 2500 200/06 RMK AO2 TSNO
94908KDBQ DBQ20030726211010607/26/03 21:10:31  5-MIN KDBQ 270310Z AUTO 20006KT 7SM FEW055 25/23 A2998 1020 90 2500 200/06 RMK AO2 TSNO
94908KDBQ DBQ20030726211510307/26/03 21:15:31  5-MIN KDBQ 270315Z AUTO 19006KT 7SM CLR 25/23 A2998 1030 90 2500 190/06 RMK AO2 TSNO
94908KDBQ DBQ20030726212010307/26/03 21:20:31  5-MIN KDBQ 270320Z AUTO 19006KT 7SM CLR 25/23 A2998 1030 90 2500 190/06 RMK AO2 TSNO
94908KDBQ DBQ20030726212510307/26/03 21:25:31  5-MIN KDBQ 270325Z AUTO 20006KT 7SM CLR 25/23 A2998 1030 90 2500 190/06 RMK AO2 TSNO
94908KDBQ DBQ20030726213010307/26/03 21:30:31  5-MIN KDBQ 270330Z AUTO 20006KT 7SM CLR 25/23 A2997 1030 90 2500 190/06 RMK AO2 TSNO
94908KDBQ DBQ20030726213510307/26/03 21:35:31  5-MIN KDBQ 270335Z AUTO 20007KT 7SM CLR 25/23 A2997 1030 90 2500 200/07 RMK AO2 TSNO
94908KDBQ DBQ20030726214010307/26/03 21:40:31  5-MIN KDBQ 270340Z AUTO 20006KT 7SM CLR 25/23 A2997 1030 90 2500 200/06 RMK AO2 TSNO
94908KDBQ DBQ20030726214510307/26/03 21:45:31  5-MIN KDBQ 270345Z AUTO 20006KT 7SM CLR 25/23 A2997 1030 90 2500 200/06 RMK AO2 TSNO
94908KDBQ DBQ20030726215012007/26/03 21:50:31  5-MIN KDBQ 270350Z AUTO 20006KT 7SM CLR 25/23 A2997 1030 90 2500 200/06 RMK AO2 SLP142 T02500233 TSNO
94908KDBQ DBQ20030726215512007/26/03 21:55:31  5-MIN KDBQ 270355Z AUTO 20007KT 7SM CLR 25/23 A2997 1030 90 2500 190/07 RMK AO2 SLP141 T02500233 TSNO
94908KDBQ DBQ20030726220010307/26/03 22:00:31  5-MIN KDBQ 270400Z AUTO 19007KT 7SM CLR 25/23 A2997 1030 90 2500 190/07 RMK AO2 TSNO
94908KDBQ DBQ20030726220510307/26/03 22:05:31  5-MIN KDBQ 270405Z AUTO 20007KT 7SM CLR 25/23 A2997 1030 90 2500 190/07 RMK AO2 TSNO
94908KDBQ DBQ20030726221010307/26/03 22:10:31  5-MIN KDBQ 270410Z AUTO 19007KT 7SM CLR 25/23 A2997 1030 90 2500 190/07 RMK AO2 TSNO
94908KDBQ DBQ20030727201511207/27/03 20:15:31  5-MIN KDBQ 280215Z AUTO 21004KT 9SM SCT049 SCT060 24/22 A3002 980 87 2300 210/04 RMK AO2 TSNO
94908KDBQ DBQ20030727202011207/27/03 20:20:31  5-MIN KDBQ 280220Z AUTO 21005KT 9SM FEW049 SCT060 24/22 A3002 990 87 2300 210/05 RMK AO2 TSNO
94908KDBQ DBQ20030727202510507/27/03 20:25:31  5-MIN KDBQ 280225Z AUTO 22004KT 9SM FEW050 24/22 A3002 990 87 2300 220/04 RMK AO2 TSNO
94908KDBQ DBQ20030727203010507/27/03 20:30:31  5-MIN KDBQ 280230Z AUTO 25003KT 9SM FEW044 24/22 A3002 990 90 2300 240/03 RMK AO2 TSNO
94908KDBQ DBQ20030727203511207/27/03 20:35:31  5-MIN KDBQ 280235Z AUTO 22003KT 8SM FEW044 SCT050 24/22 A3002 980 90 2300 220/03 RMK AO2 TSNO
94908KDBQ DBQ20030727204011907/27/03 20:40:31  5-MIN KDBQ 280240Z AUTO 25003KT 8SM FEW044 BKN050 BKN060 24/22 A3002 980 90 2300 240/03 RMK AO2 TSNO
94908KDBQ DBQ20030727204511207/27/03 20:45:31  5-MIN KDBQ 280245Z AUTO 00000KT 8SM BKN048 BKN060 24/22 A3002 980 90 2300 000/00 RMK AO2 TSNO
94908KDBQ DBQ20030727205013507/27/03 20:50:31  5-MIN KDBQ 280250Z AUTO 27004KT 8SM BKN048 BKN060 24/22 A3003 980 90 2300 260/04 RMK AO2 SLP160 T02390222 50002 TSNO
94908KDBQ DBQ20030727205513507/27/03 20:55:31  5-MIN KDBQ 280255Z AUTO 29004KT 8SM BKN047 BKN060 24/22 A3003 980 87 2300 280/04 RMK AO2 SLP160 T02440222 51010 TSNO
94908KDBQ DBQ20030727210011207/27/03 21:00:31  5-MIN KDBQ 280300Z AUTO 30005KT 9SM SCT045 BKN055 24/21 A3003 980 84 2300 300/05 RMK AO2 TSNO
94908KDBQ DBQ20030727210511307/27/03 21:05:31  5-MIN KDBQ 280305Z AUTO 31004KT 10SM FEW043 SCT055 24/21 A3003 980 81 2300 310/04 RMK AO2 TSNO
94908KDBQ DBQ20030727211010607/27/03 21:10:31  5-MIN KDBQ 280310Z AUTO 31003KT 10SM FEW048 24/21 A3003 980 81 2300 310/03 RMK AO2 TSNO
94908KDBQ DBQ20030727211510507/27/03 21:15:31  5-MIN KDBQ 280315Z AUTO 00000KT 9SM FEW044 23/21 A3003 980 87 2200 000/00 RMK AO2 TSNO
94908KDBQ DBQ20030727212010507/27/03 21:20:31  5-MIN KDBQ 280320Z AUTO 23003KT 8SM FEW044 23/22 A3003 980 90 2200 230/03 RMK AO2 TSNO
94908KDBQ DBQ20030727212510207/27/03 21:25:31  5-MIN KDBQ 280325Z AUTO 24003KT 7SM CLR 23/21 A3002 980 90 2200 240/03 RMK AO2 TSNO
94908KDBQ DBQ20030727213010207/27/03 21:30:31  5-MIN KDBQ 280330Z AUTO 23004KT 7SM CLR 22/21 A3002 980 93 2100 230/04 RMK AO2 TSNO
94908KDBQ DBQ20030727213510207/27/03 21:35:31  5-MIN KDBQ 280335Z AUTO 23004KT 7SM CLR 22/21 A3002 990 93 2100 230/04 RMK AO2 TSNO
94908KDBQ DBQ20030727214010207/27/03 21:40:31  5-MIN KDBQ 280340Z AUTO 25004KT 8SM CLR 22/21 A3002 990 93 2100 250/04 RMK AO2 TSNO
94908KDBQ DBQ20030727214510207/27/03 21:45:31  5-MIN KDBQ 280345Z AUTO 26004KT 8SM CLR 22/21 A3002 990 93 2100 260/04 RMK AO2 TSNO
94908KDBQ DBQ20030727215011907/27/03 21:50:31  5-MIN KDBQ 280350Z AUTO 28003KT 8SM CLR 22/21 A3002 990 90 2100 280/03 RMK AO2 SLP158 T02220206 TSNO
94908KDBQ DBQ20030727215511907/27/03 21:55:31  5-MIN KDBQ 280355Z AUTO 00000KT 9SM CLR 23/20 A3002 990 84 2200 000/00 RMK AO2 SLP157 T02280200 TSNO
94908KDBQ DBQ20030727220010307/27/03 22:00:31  5-MIN KDBQ 280400Z AUTO 00000KT 10SM CLR 23/20 A3001 990 84 2200 000/00 RMK AO2 TSNO
94908KDBQ DBQ20030727220510207/27/03 22:05:31  5-MIN KDBQ 280405Z AUTO 20003KT 9SM CLR 23/21 A3001 990 87 2200 200/03 RMK AO2 TSNO
94908KDBQ DBQ20030727221010207/27/03 22:10:31  5-MIN KDBQ 280410Z AUTO 00000KT 9SM CLR 23/20 A3001 990 84 2200 000/00 RMK AO2 TSNO
94908KDBQ DBQ20030727221510307/27/03 22:15:31  5-MIN KDBQ 280415Z AUTO 00000KT 10SM CLR 23/20 A3002 990 84 2200 000/00 RMK AO2 TSNO
94908KDBQ DBQ20030727222010307/27/03 22:20:31  5-MIN KDBQ 280420Z AUTO 33004KT 10SM CLR 23/19 A3001 990 81 2200 330/04 RMK AO2 TSNO
94908KDBQ DBQ20030727222510307/27/03 22:25:31  5-MIN KDBQ 280425Z AUTO 34004KT 10SM CLR 23/19 A3001 990 78 2200 340/04 RMK AO2 TSNO
94908KDBQ DBQ20030727223010307/27/03 22:30:31  5-MIN KDBQ 280430Z AUTO 34004KT 10SM CLR 23/19 A3001 990 78 2200 340/04 RMK AO2 TSNO
94908KDBQ DBQ20030727223510407/27/03 22:35:31  5-MIN KDBQ 280435Z AUTO 35004KT 10SM CLR 23/19 A3001 1000 78 2200 350/04 RMK AO2 TSNO
94908KDBQ DBQ20030727224010307/27/03 22:40:31  5-MIN KDBQ 280440Z AUTO 33004KT 10SM CLR 23/19 A3001 990 78 2200 330/04 RMK AO2 TSNO
94908KDBQ DBQ20030727224510307/27/03 22:45:31  5-MIN KDBQ 280445Z AUTO VRB03KT 10SM CLR 22/19 A3001 990 81 2100 VRB/03 RMK AO2 TSNO
94908KDBQ DBQ20030727225011907/27/03 22:50:31  5-MIN KDBQ 280450Z AUTO 24003KT 8SM CLR 21/19 A3001 990 90 2000 240/03 RMK AO2 SLP156 T02110194 TSNO
94908KDBQ DBQ20030727225511907/27/03 22:55:31  5-MIN KDBQ 280455Z AUTO 26004KT 8SM CLR 22/19 A3001 990 87 2000 250/04 RMK AO2 SLP157 T02170194 TSNO
94908KDBQ DBQ20030727230010207/27/03 23:00:31  5-MIN KDBQ 280500Z AUTO 28004KT 9SM CLR 21/19 A3001 990 90 2000 280/04 RMK AO2 TSNO
94908KDBQ DBQ20030727230510207/27/03 23:05:31  5-MIN KDBQ 280505Z AUTO 29004KT 9SM CLR 22/19 A3001 990 87 2000 290/04 RMK AO2 TSNO
94908KDBQ DBQ20030727231010407/27/03 23:10:31  5-MIN KDBQ 280510Z AUTO 31004KT 10SM CLR 22/19 A3001 1000 84 2100 310/04 RMK AO2 TSNO
94908KDBQ DBQ20030727231510307/27/03 23:15:31  5-MIN KDBQ 280515Z AUTO 32004KT 10SM CLR 23/19 A3001 990 81 2200 320/04 RMK AO2 TSNO
94908KDBQ DBQ20030727232010307/27/03 23:20:31  5-MIN KDBQ 280520Z AUTO 33005KT 10SM CLR 23/19 A3001 990 81 2200 330/05 RMK AO2 TSNO
94908KDBQ DBQ20030727232510307/27/03 23:25:31  5-MIN KDBQ 280525Z AUTO 34006KT 10SM CLR 22/19 A3001 990 84 2100 340/06 RMK AO2 TSNO
94908KDBQ DBQ20030727233010307/27/03 23:30:31  5-MIN KDBQ 280530Z AUTO 34006KT 10SM CLR 22/19 A3001 990 84 2100 340/06 RMK AO2 TSNO
94908KDBQ DBQ20030727233510307/27/03 23:35:31  5-MIN KDBQ 280535Z AUTO 35004KT 10SM CLR 22/19 A3001 990 84 2100 350/04 RMK AO2 TSNO
94908KDBQ DBQ20030727234010307/27/03 23:40:31  5-MIN KDBQ 280540Z AUTO 35005KT 10SM CLR 22/19 A3001 990 84 2100 350/05 RMK AO2 TSNO
94908KDBQ DBQ20030727234510307/27/03 23:45:31  5-MIN KDBQ 280545Z AUTO 36006KT 10SM CLR 22/19 A3001 990 84 2100 360/06 RMK AO2 TSNO
94908KDBQ DBQ20030727235014807/27/03 23:50:31  5-MIN KDBQ 280550Z AUTO 36007KT 10SM CLR 22/19 A3001 990 84 2100 360/07 RMK AO2 SLP156 T02220194 10278 20211 403000211 51010 TSNO
94908KDBQ DBQ20030727235514807/27/03 23:55:31  5-MIN KDBQ 280555Z AUTO 36007KT 10SM CLR 23/19 A3001 990 81 2200 360/07 RMK AO2 SLP156 T02280194 10278 20211 403000211 56005 TSNO
94908KDBQ DBQ20030728000010307/28/03 00:00:31  5-MIN KDBQ 280600Z AUTO 36009KT 10SM CLR 23/19 A3001 990 81 2200 360/09 RMK AO2 TSNO
94908KDBQ DBQ20030728000510307/28/03 00:05:31  5-MIN KDBQ 280605Z AUTO 36008KT 10SM CLR 23/19 A3001 990 81 2200 360/08 RMK AO2 TSNO
94908KDBQ DBQ20030728001010607/28/03 00:10:31  5-MIN KDBQ 280610Z AUTO 36006KT 10SM FEW005 23/19 A3001 990 81 2200 360/06 RMK AO2 TSNO
94908KDBQ DBQ20030728001510607/28/03 00:15:31  5-MIN KDBQ 280615Z AUTO 01007KT 10SM SCT005 22/20 A3001 990 87 2100 010/07 RMK AO2 TSNO
94908KDBQ DBQ20030728002010607/28/03 00:20:31  5-MIN KDBQ 280620Z AUTO 01007KT 10SM BKN005 23/20 A3002 990 84 2200 010/07 RMK AO2 TSNO
94908KDBQ DBQ20030728002510507/28/03 00:25:31  5-MIN KDBQ 280625Z AUTO 01006KT 9SM BKN005 23/21 A3001 990 87 2200 010/06 RMK AO2 TSNO
94908KDBQ DBQ20030728003010507/28/03 00:30:31  5-MIN KDBQ 280630Z AUTO 03006KT 8SM BKN005 23/21 A3002 990 90 2200 030/06 RMK AO2 TSNO
94908KDBQ DBQ20030728003510507/28/03 00:35:31  5-MIN KDBQ 280635Z AUTO 03006KT 8SM OVC003 23/21 A3001 990 90 2200 030/06 RMK AO2 TSNO
94908KDBQ DBQ20030728004010607/28/03 00:40:31  5-MIN KDBQ 280640Z AUTO 04006KT 8SM OVC003 23/21 A3001 1000 87 2200 030/06 RMK AO2 TSNO
94908KDBQ DBQ20030728004510607/28/03 00:45:31  5-MIN KDBQ 280645Z AUTO 04006KT 8SM OVC003 23/21 A3001 1000 90 2200 040/06 RMK AO2 TSNO
94908KDBQ DBQ20030728005012307/28/03 00:50:31  5-MIN KDBQ 280650Z AUTO 04009KT 7SM OVC003 23/21 A3001 1000 90 2200 040/09 RMK AO2 SLP154 T02280211 TSNO
94908KDBQ DBQ20030728005512607/28/03 00:55:31  5-MIN KDBQ 280655Z AUTO 07011KT 6SM BR OVC003 23/21 A3001 1000 90 2200 070/11 RMK AO2 SLP155 T02280211 TSNO
94908KDBQ DBQ20030728010010807/28/03 01:00:31  5-MIN KDBQ 280700Z AUTO 08011KT 6SM BR OVC003 22/21 A3001 990 93 2100 080/11 RMK AO2 TSNO
94908KDBQ DBQ20030728010512107/28/03 01:05:31  5-MIN KDBQ 280705Z AUTO 09012KT 6SM BR OVC003 22/21 A3001 1000 90 2100 090/12 RMK AO2 CIG 002V005 TSNO
94908KDBQ DBQ20030728011010607/28/03 01:10:31  5-MIN KDBQ 280710Z AUTO 09011KT 7SM OVC003 22/21 A3001 1000 93 2000 090/11 RMK AO2 TSNO
94908KDBQ DBQ20030728011510907/28/03 01:15:31  5-MIN KDBQ 280715Z AUTO 11012KT 6SM BR OVC003 22/21 A3001 1000 93 2000 110/12 RMK AO2 TSNO
94908KDBQ DBQ20030728012010907/28/03 01:20:31  5-MIN KDBQ 280720Z AUTO 11011KT 6SM BR OVC003 21/20 A3001 1000 93 2000 110/11 RMK AO2 TSNO
94908KDBQ DBQ20030728012510907/28/03 01:25:31  5-MIN KDBQ 280725Z AUTO 11012KT 5SM BR OVC003 21/20 A3001 1000 93 2000 110/12 RMK AO2 TSNO
94908KDBQ DBQ20030728013010907/28/03 01:30:31  5-MIN KDBQ 280730Z AUTO 10009KT 5SM BR OVC003 21/19 A3001 1000 93 1900 100/09 RMK AO2 TSNO
94908KDBQ DBQ20030728013511507/28/03 01:35:31  5-MIN KDBQ 280735Z AUTO 10013G16KT 5SM BR OVC003 21/19 A3001 1000 93 1900 100/13G16 RMK AO2 TSNO
94908KDBQ DBQ20030728014010907/28/03 01:40:31  5-MIN KDBQ 280740Z AUTO 10011KT 4SM BR OVC003 21/19 A3001 1000 93 1900 100/11 RMK AO2 TSNO
94908KDBQ DBQ20030728014510907/28/03 01:45:31  5-MIN KDBQ 280745Z AUTO 10010KT 4SM BR OVC003 21/19 A3001 1000 93 1900 100/10 RMK AO2 TSNO
94908KDBQ DBQ20030728015012607/28/03 01:50:31  5-MIN KDBQ 280750Z AUTO 09012KT 4SM BR OVC003 21/19 A3001 1000 93 1900 090/12 RMK AO2 SLP153 T02060194 TSNO
94908KDBQ DBQ20030728015513207/28/03 01:55:31  5-MIN KDBQ 280755Z AUTO 10010G17KT 4SM BR OVC003 20/19 A3000 1000 97 1900 100/10G17 RMK AO2 SLP153 T02000194 TSNO
94908KDBQ DBQ20030728020011507/28/03 02:00:31  5-MIN KDBQ 280800Z AUTO 11011G17KT 4SM BR OVC003 20/19 A3000 1000 93 1900 100/11G17 RMK AO2 TSNO
94908KDBQ DBQ20030728020512107/28/03 02:05:31  5-MIN KDBQ 280805Z AUTO 10008KT 5SM BR OVC003 20/19 A3001 1000 93 1800 100/08 RMK AO2 CIG 003V006 TSNO
94908KDBQ DBQ20030728021012707/28/03 02:10:31  5-MIN KDBQ 280810Z AUTO 10009KT 6SM BR BKN003 OVC008 20/18 A3001 990 90 1800 090/09 RMK AO2 CIG 003V007 TSNO
94908KDBQ DBQ20030728021513207/28/03 02:15:31  5-MIN KDBQ 280815Z AUTO 10009KT 7SM BKN003 BKN008 OVC012 20/18 A3001 1000 87 1800 090/09 RMK AO2 CIG 003V007 TSNO
94908KDBQ DBQ20030728022012007/28/03 02:20:31  5-MIN KDBQ 280820Z AUTO 09010KT 8SM SCT003 BKN008 OVC012 19/18 A3001 1000 90 1800 090/10 RMK AO2 TSNO
94908KDBQ DBQ20030728022512007/28/03 02:25:31  5-MIN KDBQ 280825Z AUTO 09009KT 9SM FEW005 SCT008 OVC014 19/17 A3001 1000 87 1800 090/09 RMK AO2 TSNO
94908KDBQ DBQ20030728023011307/28/03 02:30:31  5-MIN KDBQ 280830Z AUTO 08008KT 10SM FEW008 OVC014 19/17 A3001 990 87 1800 080/08 RMK AO2 TSNO
94908KDBQ DBQ20030728023511307/28/03 02:35:31  5-MIN KDBQ 280835Z AUTO 09007KT 10SM FEW008 OVC014 19/17 A3001 990 84 1800 080/07 RMK AO2 TSNO
94908KDBQ DBQ20030728024010707/28/03 02:40:31  5-MIN KDBQ 280840Z AUTO 07008KT 10SM OVC014 19/16 A3001 1000 81 1800 070/08 RMK AO2 TSNO
94908KDBQ DBQ20030728024510707/28/03 02:45:31  5-MIN KDBQ 280845Z AUTO 06006KT 10SM OVC016 19/16 A3001 1000 81 1800 060/06 RMK AO2 TSNO
94908KDBQ DBQ20030728025012907/28/03 02:50:31  5-MIN KDBQ 280850Z AUTO 06005KT 10SM OVC016 19/16 A3001 990 81 1800 060/05 RMK AO2 SLP156 T01940161 56005 TSNO
94908KDBQ DBQ20030728025512907/28/03 02:55:31  5-MIN KDBQ 280855Z AUTO 05006KT 10SM OVC016 19/16 A3001 990 81 1800 050/06 RMK AO2 SLP156 T01940161 53000 TSNO
94908KDBQ DBQ20030728030010607/28/03 03:00:31  5-MIN KDBQ 280900Z AUTO 05008KT 10SM OVC018 19/16 A3002 990 81 1800 050/08 RMK AO2 TSNO
94908KDBQ DBQ20030728030510607/28/03 03:05:31  5-MIN KDBQ 280905Z AUTO 06007KT 10SM OVC018 19/16 A3002 990 78 1800 060/07 RMK AO2 TSNO
94908KDBQ DBQ20030728031010607/28/03 03:10:31  5-MIN KDBQ 280910Z AUTO 10008KT 10SM OVC020 19/16 A3001 990 78 1800 100/08 RMK AO2 TSNO
94908KDBQ DBQ20030728031510607/28/03 03:15:31  5-MIN KDBQ 280915Z AUTO 10008KT 10SM OVC020 19/16 A3001 990 78 1800 100/08 RMK AO2 TSNO
94908KDBQ DBQ20030728032010707/28/03 03:20:31  5-MIN KDBQ 280920Z AUTO 12006KT 10SM OVC020 19/16 A3001 1000 81 1700 120/06 RMK AO2 TSNO
94908KDBQ DBQ20030728032511307/28/03 03:25:31  5-MIN KDBQ 280925Z AUTO 12005KT 10SM BKN020 OVC120 19/16 A3001 990 81 1700 120/05 RMK AO2 TSNO
94908KDBQ DBQ20030728033011307/28/03 03:30:31  5-MIN KDBQ 280930Z AUTO 11005KT 10SM BKN020 OVC120 19/16 A3001 990 81 1700 110/05 RMK AO2 TSNO
94908KDBQ DBQ20030728033510707/28/03 03:35:31  5-MIN KDBQ 280935Z AUTO 10006KT 10SM OVC022 19/16 A3001 1000 81 1700 100/06 RMK AO2 TSNO
94908KDBQ DBQ20030728034011307/28/03 03:40:31  5-MIN KDBQ 280940Z AUTO 11005KT 10SM BKN022 OVC120 19/16 A3001 990 81 1700 110/05 RMK AO2 TSNO
94908KDBQ DBQ20030728034511307/28/03 03:45:31  5-MIN KDBQ 280945Z AUTO VRB04KT 10SM BKN022 OVC120 19/16 A3002 990 81 1700 VRB/04 RMK AO2 TSNO
94908KDBQ DBQ20030728035012307/28/03 03:50:31  5-MIN KDBQ 280950Z AUTO 06004KT 10SM OVC022 19/16 A3002 980 81 1700 060/04 RMK AO2 SLP159 T01890156 TSNO
94908KDBQ DBQ20030728035512307/28/03 03:55:31  5-MIN KDBQ 280955Z AUTO 06005KT 10SM OVC022 19/16 A3002 980 81 1700 060/05 RMK AO2 SLP159 T01890156 TSNO
94908KDBQ DBQ20030728040010607/28/03 04:00:31  5-MIN KDBQ 281000Z AUTO 10005KT 10SM OVC022 19/16 A3002 980 81 1700 100/05 RMK AO2 TSNO
94908KDBQ DBQ20030728040510607/28/03 04:05:31  5-MIN KDBQ 281005Z AUTO 08004KT 10SM OVC022 19/16 A3002 980 78 1800 080/04 RMK AO2 TSNO
94908KDBQ DBQ20030728041010607/28/03 04:10:31  5-MIN KDBQ 281010Z AUTO 07004KT 10SM OVC022 19/16 A3003 980 78 1800 070/04 RMK AO2 TSNO
94908KDBQ DBQ20030728041510607/28/03 04:15:31  5-MIN KDBQ 281015Z AUTO 10004KT 10SM OVC022 19/16 A3003 980 81 1700 100/04 RMK AO2 TSNO
94908KDBQ DBQ20030728042010607/28/03 04:20:31  5-MIN KDBQ 281020Z AUTO 12005KT 10SM OVC022 19/16 A3002 980 81 1700 120/05 RMK AO2 TSNO
94908KDBQ DBQ20030728042510607/28/03 04:25:31  5-MIN KDBQ 281025Z AUTO 12005KT 10SM OVC024 19/15 A3002 980 78 1700 110/05 RMK AO2 TSNO
94908KDBQ DBQ20030728043011307/28/03 04:30:31  5-MIN KDBQ 281030Z AUTO 13005KT 10SM BKN024 OVC060 19/15 A3003 980 78 1700 130/05 RMK AO2 TSNO
94908KDBQ DBQ20030728043511307/28/03 04:35:31  5-MIN KDBQ 281035Z AUTO 13005KT 10SM BKN024 OVC060 19/14 A3003 980 75 1700 130/05 RMK AO2 TSNO
94908KDBQ DBQ20030728044011307/28/03 04:40:31  5-MIN KDBQ 281040Z AUTO 12004KT 10SM BKN024 BKN060 19/15 A3003 980 78 1700 120/04 RMK AO2 TSNO
94908KDBQ DBQ20030728044512007/28/03 04:45:31  5-MIN KDBQ 281045Z AUTO 13004KT 10SM SCT026 BKN032 BKN060 19/15 A3003 980 78 1700 130/04 RMK AO2 TSNO
94908KDBQ DBQ20030728045012707/28/03 04:50:31  5-MIN KDBQ 281050Z 00000KT 10SM FEW026 BKN032 BKN060 18/15 A3003 980 81 1600 000/00 RMK AO2 SLP162 T01830150
94908KDBQ DBQ20030728045512707/28/03 04:55:31  5-MIN KDBQ 281055Z 00000KT 10SM SCT026 BKN032 BKN060 18/15 A3003 980 81 1600 000/00 RMK AO2 SLP162 T01830150
94908KDBQ DBQ20030728050011007/28/03 05:00:31  5-MIN KDBQ 281100Z 16003KT 10SM FEW026 BKN032 BKN060 18/16 A3003 980 84 1600 160/03 RMK AO2
94908KDBQ DBQ20030728050510307/28/03 05:05:31  5-MIN KDBQ 281105Z 16004KT 10SM SCT030 SCT060 18/16 A3003 980 84 1600 160/04 RMK AO2
94908KDBQ DBQ20030728051010307/28/03 05:10:31  5-MIN KDBQ 281110Z 16003KT 10SM SCT030 SCT060 18/16 A3003 980 84 1600 160/03 RMK AO2
94908KDBQ DBQ20030728051509607/28/03 05:15:31  5-MIN KDBQ 281115Z VRB03KT 10SM SCT030 18/16 A3003 980 84 1600 VRB/03 RMK AO2
94908KDBQ DBQ20030728052009607/28/03 05:20:31  5-MIN KDBQ 281120Z 12004KT 10SM BKN030 18/16 A3003 980 84 1600 120/04 RMK AO2
94908KDBQ DBQ20030728052510307/28/03 05:25:31  5-MIN KDBQ 281125Z VRB03KT 10SM SCT030 SCT120 18/15 A3003 980 81 1600 VRB/03 RMK AO2
94908KDBQ DBQ20030728053010307/28/03 05:30:31  5-MIN KDBQ 281130Z 13005KT 10SM SCT030 BKN120 18/15 A3003 970 81 1600 130/05 RMK AO2
94908KDBQ DBQ20030728053509607/28/03 05:35:31  5-MIN KDBQ 281135Z 13003KT 10SM BKN030 18/15 A3004 970 81 1600 130/03 RMK AO2
94908KDBQ DBQ20030728054009607/28/03 05:40:31  5-MIN KDBQ 281140Z 00000KT 10SM BKN030 19/15 A3004 970 78 1700 000/00 RMK AO2
94908KDBQ DBQ20030728054509607/28/03 05:45:31  5-MIN KDBQ 281145Z 00000KT 10SM BKN030 19/15 A3004 960 78 1700 000/00 RMK AO2
94908KDBQ DBQ20030728055013107/28/03 05:50:31  5-MIN KDBQ 281150Z 08004KT 10SM OVC032 18/15 A3004 960 81 1600 070/04 RMK AO2 SLP167 T01830150 10228 20183 53000
94908KDBQ DBQ20030728055513107/28/03 05:55:31  5-MIN KDBQ 281155Z 07005KT 10SM OVC032 19/15 A3004 970 78 1700 070/05 RMK AO2 SLP166 T01890150 10228 20183 53009
94908KDBQ DBQ20030728060009607/28/03 06:00:31  5-MIN KDBQ 281200Z 08004KT 10SM OVC032 19/15 A3004 960 78 1700 080/04 RMK AO2
94908KDBQ DBQ20030728060509607/28/03 06:05:31  5-MIN KDBQ 281205Z 09004KT 10SM OVC032 19/14 A3005 960 75 1700 090/04 RMK AO2
94908KDBQ DBQ20030728061009607/28/03 06:10:31  5-MIN KDBQ 281210Z 11004KT 10SM OVC034 19/15 A3004 960 78 1700 110/04 RMK AO2
94908KDBQ DBQ20030728061509607/28/03 06:15:31  5-MIN KDBQ 281215Z 12006KT 10SM BKN034 19/15 A3005 960 78 1700 120/06 RMK AO2
94908KDBQ DBQ20030728062009607/28/03 06:20:31  5-MIN KDBQ 281220Z 11005KT 10SM BKN034 19/15 A3005 960 78 1700 110/05 RMK AO2
94908KDBQ DBQ20030728062509607/28/03 06:25:31  5-MIN KDBQ 281225Z 11005KT 10SM SCT034 19/15 A3005 960 78 1700 110/05 RMK AO2
94908KDBQ DBQ20030728063009607/28/03 06:30:31  5-MIN KDBQ 281230Z 14005KT 10SM FEW034 19/15 A3005 960 78 1700 140/05 RMK AO2
94908KDBQ DBQ20030728063509607/28/03 06:35:31  5-MIN KDBQ 281235Z 14007KT 10SM FEW034 19/15 A3004 960 78 1700 140/07 RMK AO2
94908KDBQ DBQ20030728064009307/28/03 06:40:31  5-MIN KDBQ 281240Z 13007KT 10SM CLR 19/14 A3004 970 75 1700 130/07 RMK AO2
94908KDBQ DBQ20030728064509307/28/03 06:45:31  5-MIN KDBQ 281245Z 13007KT 10SM CLR 19/14 A3004 970 75 1700 120/07 RMK AO2
94908KDBQ DBQ20030728065011007/28/03 06:50:31  5-MIN KDBQ 281250Z 12007KT 10SM CLR 19/14 A3004 970 75 1700 120/07 RMK AO2 SLP167 T01890144
94908KDBQ DBQ20030728065511007/28/03 06:55:31  5-MIN KDBQ 281255Z 13007KT 10SM CLR 18/14 A3004 960 78 1600 130/07 RMK AO2 SLP168 T01830144
94908KDBQ DBQ20030728070009307/28/03 07:00:31  5-MIN KDBQ 281300Z 12009KT 10SM CLR 18/14 A3004 960 75 1600 120/09 RMK AO2
94908KDBQ DBQ20030728070509307/28/03 07:05:31  5-MIN KDBQ 281305Z 12007KT 10SM CLR 19/14 A3004 960 75 1700 120/07 RMK AO2
94908KDBQ DBQ20030728071009607/28/03 07:10:31  5-MIN KDBQ 281310Z 12010KT 10SM FEW025 19/14 A3005 960 72 1700 120/10 RMK AO2
94908KDBQ DBQ20030728071509607/28/03 07:15:31  5-MIN KDBQ 281315Z 11005KT 10SM SCT027 19/14 A3005 960 75 1700 110/05 RMK AO2
94908KDBQ DBQ20030728072011207/28/03 07:20:31  5-MIN KDBQ 281320Z 12007KT 070V140 10SM BKN027 19/14 A3005 960 75 1700 120/07 070V140 RMK AO2
94908KDBQ DBQ20030728072509607/28/03 07:25:31  5-MIN KDBQ 281325Z 12007KT 10SM BKN027 19/14 A3006 950 72 1700 120/07 RMK AO2
94908KDBQ DBQ20030728073009607/28/03 07:30:31  5-MIN KDBQ 281330Z 11007KT 10SM OVC027 19/14 A3006 950 70 1700 110/07 RMK AO2
94908KDBQ DBQ20030728073509607/28/03 07:35:31  5-MIN KDBQ 281335Z 11005KT 10SM OVC027 19/14 A3006 950 72 1700 110/05 RMK AO2
94908KDBQ DBQ20030728074009607/28/03 07:40:31  5-MIN KDBQ 281340Z 10007KT 10SM OVC027 19/14 A3006 950 72 1700 100/07 RMK AO2
94908KDBQ DBQ20030728074509607/28/03 07:45:31  5-MIN KDBQ 281345Z 11004KT 10SM OVC027 19/14 A3006 950 72 1700 110/04 RMK AO2
94908KDBQ DBQ20030728075011307/28/03 07:50:31  5-MIN KDBQ 281350Z 08004KT 10SM OVC027 19/14 A3007 940 72 1700 080/04 RMK AO2 SLP175 T01940144
94908KDBQ DBQ20030728075511307/28/03 07:55:31  5-MIN KDBQ 281355Z 07007KT 10SM OVC029 19/14 A3007 940 72 1700 070/07 RMK AO2 SLP175 T01940144
94908KDBQ DBQ20030728080009607/28/03 08:00:31  5-MIN KDBQ 281400Z 08007KT 10SM OVC029 19/14 A3007 940 70 1700 080/07 RMK AO2
94908KDBQ DBQ20030728080509607/28/03 08:05:31  5-MIN KDBQ 281405Z 08007KT 10SM OVC029 19/14 A3007 940 70 1700 080/07 RMK AO2
94908KDBQ DBQ20030728081009607/28/03 08:10:31  5-MIN KDBQ 281410Z 08007KT 10SM OVC029 19/14 A3007 940 72 1700 080/07 RMK AO2
94908KDBQ DBQ20030728092511207/28/03 09:25:31  5-MIN KDBQ 281525Z 09007KT 050V130 10SM OVC025 21/16 A3006 950 70 1900 090/07 050V130 RMK AO2
94908KDBQ DBQ20030728093009607/28/03 09:30:31  5-MIN KDBQ 281530Z VRB05KT 10SM OVC025 21/16 A3006 950 70 1900 VRB/05 RMK AO2
94908KDBQ DBQ20030728093509607/28/03 09:35:31  5-MIN KDBQ 281535Z 10007KT 10SM OVC025 21/16 A3006 950 70 1900 100/07 RMK AO2
94908KDBQ DBQ20030728094009607/28/03 09:40:31  5-MIN KDBQ 281540Z 10006KT 10SM OVC025 21/15 A3006 950 70 1900 090/06 RMK AO2
94908KDBQ DBQ20030728094509607/28/03 09:45:31  5-MIN KDBQ 281545Z 08006KT 10SM OVC025 21/16 A3006 950 73 1900 080/06 RMK AO2
94908KDBQ DBQ20030728095011307/28/03 09:50:31  5-MIN KDBQ 281550Z VRB03KT 10SM OVC025 21/16 A3006 950 70 1900 VRB/03 RMK AO2 SLP174 T02110156
94908KDBQ DBQ20030728095511307/28/03 09:55:31  5-MIN KDBQ 281555Z 11006KT 10SM OVC025 21/16 A3006 950 70 1900 110/06 RMK AO2 SLP175 T02110156
94908KDBQ DBQ20030728100009607/28/03 10:00:31  5-MIN KDBQ 281600Z 10005KT 10SM OVC025 21/16 A3006 950 70 1900 100/05 RMK AO2
94908KDBQ DBQ20030728100509607/28/03 10:05:31  5-MIN KDBQ 281605Z VRB03KT 10SM OVC025 21/16 A3006 950 70 1900 VRB/03 RMK AO2
94908KDBQ DBQ20030728101009607/28/03 10:10:31  5-MIN KDBQ 281610Z VRB05KT 10SM OVC025 22/16 A3006 950 70 2000 VRB/05 RMK AO2
94908KDBQ DBQ20030728101509607/28/03 10:15:31  5-MIN KDBQ 281615Z 06005KT 10SM OVC025 21/16 A3006 950 73 1900 060/05 RMK AO2
94908KDBQ DBQ20030728102009607/28/03 10:20:31  5-MIN KDBQ 281620Z 02005KT 10SM OVC023 21/16 A3006 950 73 1900 020/05 RMK AO2
94908KDBQ DBQ20030728102509607/28/03 10:25:31  5-MIN KDBQ 281625Z 07006KT 10SM OVC025 21/16 A3006 950 73 1900 070/06 RMK AO2
94908KDBQ DBQ20030728103009607/28/03 10:30:31  5-MIN KDBQ 281630Z 06006KT 10SM OVC025 21/16 A3006 950 73 1900 060/06 RMK AO2
94908KDBQ DBQ20030728103509607/28/03 10:35:31  5-MIN KDBQ 281635Z VRB03KT 10SM OVC025 22/16 A3006 950 70 2000 VRB/03 RMK AO2
94908KDBQ DBQ20030728104009607/28/03 10:40:31  5-MIN KDBQ 281640Z 07005KT 10SM OVC025 22/16 A3006 950 70 2000 070/05 RMK AO2
94908KDBQ DBQ20030728104509607/28/03 10:45:31  5-MIN KDBQ 281645Z VRB04KT 10SM OVC025 22/16 A3006 950 70 2000 VRB/04 RMK AO2
94908KDBQ DBQ20030728105011307/28/03 10:50:31  5-MIN KDBQ 281650Z VRB03KT 10SM OVC025 22/16 A3006 950 70 2000 VRB/03 RMK AO2 SLP174 T02170161
94908KDBQ DBQ20030728105511307/28/03 10:55:31  5-MIN KDBQ 281655Z 10005KT 10SM OVC025 22/16 A3006 950 68 2000 100/05 RMK AO2 SLP174 T02220161
94908KDBQ DBQ20030728110009607/28/03 11:00:31  5-MIN KDBQ 281700Z 13004KT 10SM BKN025 22/16 A3006 950 70 2000 120/04 RMK AO2
94908KDBQ DBQ20030728110509607/28/03 11:05:31  5-MIN KDBQ 281705Z VRB04KT 10SM BKN025 22/17 A3006 950 70 2000 VRB/04 RMK AO2
94908KDBQ DBQ20030728111009607/28/03 11:10:31  5-MIN KDBQ 281710Z 10005KT 10SM BKN025 22/17 A3006 950 70 2100 100/05 RMK AO2
94908KDBQ DBQ20030728111509607/28/03 11:15:31  5-MIN KDBQ 281715Z VRB04KT 10SM BKN025 22/16 A3006 950 68 2100 VRB/04 RMK AO2
94908KDBQ DBQ20030728112009607/28/03 11:20:31  5-MIN KDBQ 281720Z 00000KT 10SM OVC023 22/16 A3006 950 68 2000 000/00 RMK AO2
94908KDBQ DBQ20030728112509607/28/03 11:25:31  5-MIN KDBQ 281725Z 02005KT 10SM OVC023 23/17 A3006 950 68 2100 020/05 RMK AO2
94908KDBQ DBQ20030728113009607/28/03 11:30:31  5-MIN KDBQ 281730Z 04004KT 10SM BKN023 23/17 A3006 950 68 2100 030/04 RMK AO2
94908KDBQ DBQ20030728113509607/28/03 11:35:31  5-MIN KDBQ 281735Z VRB03KT 10SM BKN023 23/17 A3006 950 68 2100 VRB/03 RMK AO2
94908KDBQ DBQ20030728114009607/28/03 11:40:31  5-MIN KDBQ 281740Z 06003KT 10SM BKN023 23/17 A3006 950 68 2100 050/03 RMK AO2
94908KDBQ DBQ20030728114509607/28/03 11:45:31  5-MIN KDBQ 281745Z VRB03KT 10SM BKN023 23/17 A3006 950 68 2100 VRB/03 RMK AO2
94908KDBQ DBQ20030728115013107/28/03 11:50:31  5-MIN KDBQ 281750Z VRB04KT 10SM BKN023 23/17 A3006 950 66 2200 VRB/04 RMK AO2 SLP173 T02330167 10233 20183 50006
94908KDBQ DBQ20030728115513107/28/03 11:55:31  5-MIN KDBQ 281755Z 00000KT 10SM BKN025 23/16 A3006 950 65 2100 000/00 RMK AO2 SLP173 T02280161 10233 20183 58001
94908KDBQ DBQ20030728120009607/28/03 12:00:31  5-MIN KDBQ 281800Z VRB04KT 10SM BKN025 23/17 A3006 950 66 2200 VRB/04 RMK AO2
94908KDBQ DBQ20030728120509607/28/03 12:05:31  5-MIN KDBQ 281805Z 09004KT 10SM BKN025 23/17 A3006 950 66 2200 090/04 RMK AO2
94908KDBQ DBQ20030728121009607/28/03 12:10:31  5-MIN KDBQ 281810Z 02003KT 10SM BKN027 23/16 A3006 950 63 2200 020/03 RMK AO2
94908KDBQ DBQ20030728121509607/28/03 12:15:31  5-MIN KDBQ 281815Z VRB04KT 10SM BKN027 23/17 A3006 950 66 2200 VRB/04 RMK AO2
94908KDBQ DBQ20030728122009607/28/03 12:20:31  5-MIN KDBQ 281820Z VRB03KT 10SM SCT027 23/17 A3006 950 66 2200 VRB/03 RMK AO2
94908KDBQ DBQ20030728122509607/28/03 12:25:31  5-MIN KDBQ 281825Z 07005KT 10SM BKN029 24/17 A3006 950 66 2200 070/05 RMK AO2
94908KDBQ DBQ20030728123009607/28/03 12:30:31  5-MIN KDBQ 281830Z 00000KT 10SM BKN029 23/17 A3006 950 66 2200 000/00 RMK AO2
94908KDBQ DBQ20030728123509607/28/03 12:35:31  5-MIN KDBQ 281835Z 01007KT 10SM BKN029 24/17 A3006 950 63 2300 010/07 RMK AO2
94908KDBQ DBQ20030728124009607/28/03 12:40:31  5-MIN KDBQ 281840Z 08004KT 10SM BKN029 24/17 A3005 950 63 2200 070/04 RMK AO2
94908KDBQ DBQ20030728124510307/28/03 12:45:31  5-MIN KDBQ 281845Z VRB04KT 10SM BKN029 BKN035 24/17 A3006 950 63 2200 VRB/04 RMK AO2
94908KDBQ DBQ20030728125012007/28/03 12:50:31  5-MIN KDBQ 281850Z 02007KT 10SM BKN029 BKN035 24/17 A3005 950 63 2300 020/07 RMK AO2 SLP171 T02440172
94908KDBQ DBQ20030728125512007/28/03 12:55:31  5-MIN KDBQ 281855Z 36004KT 10SM SCT029 OVC035 24/17 A3005 960 63 2200 360/04 RMK AO2 SLP170 T02390167
94908KDBQ DBQ20030728130010307/28/03 13:00:31  5-MIN KDBQ 281900Z 06005KT 10SM BKN029 OVC035 24/17 A3005 960 66 2200 050/05 RMK AO2
94908KDBQ DBQ20030728130510307/28/03 13:05:31  5-MIN KDBQ 281905Z VRB05KT 10SM SCT029 BKN037 24/17 A3005 960 66 2200 VRB/05 RMK AO2
94908KDBQ DBQ20030728131010307/28/03 13:10:31  5-MIN KDBQ 281910Z 06006KT 10SM SCT029 OVC037 24/17 A3005 960 66 2200 060/06 RMK AO2
94908KDBQ DBQ20030728131510307/28/03 13:15:31  5-MIN KDBQ 281915Z VRB04KT 10SM BKN033 OVC040 24/17 A3005 960 63 2200 VRB/04 RMK AO2
94908KDBQ DBQ20030728132010307/28/03 13:20:31  5-MIN KDBQ 281920Z VRB05KT 10SM SCT030 BKN037 24/17 A3005 960 66 2200 VRB/05 RMK AO2
94908KDBQ DBQ20030728132510307/28/03 13:25:31  5-MIN KDBQ 281925Z VRB04KT 10SM FEW030 BKN037 24/17 A3005 960 63 2300 VRB/04 RMK AO2
94908KDBQ DBQ20030728133009607/28/03 13:30:31  5-MIN KDBQ 281930Z 05007KT 10SM BKN035 24/17 A3005 960 66 2200 050/07 RMK AO2
94908KDBQ DBQ20030728133509607/28/03 13:35:31  5-MIN KDBQ 281935Z 05005KT 10SM BKN035 23/17 A3005 960 68 2200 050/05 RMK AO2
94908KDBQ DBQ20030728134009607/28/03 13:40:31  5-MIN KDBQ 281940Z VRB04KT 10SM SCT035 24/17 A3004 960 63 2300 VRB/04 RMK AO2
94908KDBQ DBQ20030728134509607/28/03 13:45:31  5-MIN KDBQ 281945Z VRB05KT 10SM SCT035 24/17 A3004 960 63 2300 VRB/05 RMK AO2
94908KDBQ DBQ20030728135012007/28/03 13:50:31  5-MIN KDBQ 281950Z 03006KT 10SM SCT035 SCT047 24/17 A3004 970 63 2300 020/06 RMK AO2 SLP167 T02440172
94908KDBQ DBQ20030728135512007/28/03 13:55:31  5-MIN KDBQ 281955Z VRB03KT 10SM SCT035 BKN047 24/17 A3004 970 63 2300 VRB/03 RMK AO2 SLP167 T02440172
94908KDBQ DBQ20030728140010307/28/03 14:00:31  5-MIN KDBQ 282000Z 05008KT 10SM SCT035 BKN047 24/17 A3004 970 66 2300 050/08 RMK AO2
94908KDBQ DBQ20030728140510307/28/03 14:05:31  5-MIN KDBQ 282005Z 05007KT 10SM FEW033 BKN043 23/17 A3004 970 68 2200 050/07 RMK AO2
94908KDBQ DBQ20030728141010307/28/03 14:10:31  5-MIN KDBQ 282010Z VRB04KT 10SM FEW033 BKN043 24/17 A3004 970 66 2300 VRB/04 RMK AO2
94908KDBQ DBQ20030728141510307/28/03 14:15:31  5-MIN KDBQ 282015Z 00000KT 10SM FEW033 SCT043 24/17 A3004 970 63 2300 000/00 RMK AO2
94908KDBQ DBQ20030728142010307/28/03 14:20:31  5-MIN KDBQ 282020Z VRB04KT 10SM FEW033 BKN045 25/17 A3004 970 61 2400 VRB/04 RMK AO2
94908KDBQ DBQ20030728142510307/28/03 14:25:31  5-MIN KDBQ 282025Z 06005KT 10SM FEW033 SCT045 24/17 A3004 970 63 2300 060/05 RMK AO2
94908KDBQ DBQ20030728143009607/28/03 14:30:31  5-MIN KDBQ 282030Z 07006KT 10SM FEW044 24/17 A3004 970 61 2300 070/06 RMK AO2
94908KDBQ DBQ20030728143509607/28/03 14:35:31  5-MIN KDBQ 282035Z VRB06KT 10SM FEW046 25/17 A3004 970 61 2400 VRB/06 RMK AO2
94908KDBQ DBQ20030728144009607/28/03 14:40:31  5-MIN KDBQ 282040Z 02005KT 10SM FEW048 24/17 A3004 970 61 2300 010/05 RMK AO2
94908KDBQ DBQ20030728144509607/28/03 14:45:31  5-MIN KDBQ 282045Z 07007KT 10SM FEW046 25/17 A3003 970 61 2400 070/07 RMK AO2
94908KDBQ DBQ20030728145011907/28/03 14:50:31  5-MIN KDBQ 282050Z 03005KT 10SM FEW046 24/17 A3003 970 63 2300 030/05 RMK AO2 SLP165 T02440172 58001
94908KDBQ DBQ20030728145511907/28/03 14:55:31  5-MIN KDBQ 282055Z VRB03KT 10SM FEW046 25/17 A3003 970 61 2400 VRB/03 RMK AO2 SLP164 T02500172 58008
94908KDBQ DBQ20030728150009607/28/03 15:00:31  5-MIN KDBQ 282100Z 09006KT 10SM FEW050 25/17 A3003 980 61 2400 090/06 RMK AO2
94908KDBQ DBQ20030728150509607/28/03 15:05:31  5-MIN KDBQ 282105Z 05007KT 10SM FEW050 25/17 A3003 980 59 2400 050/07 RMK AO2
94908KDBQ DBQ20030728151009607/28/03 15:10:31  5-MIN KDBQ 282110Z 07003KT 10SM FEW049 24/17 A3003 980 63 2300 070/03 RMK AO2
94908KDBQ DBQ20030728151509607/28/03 15:15:31  5-MIN KDBQ 282115Z VRB06KT 10SM FEW049 24/17 A3003 980 63 2300 VRB/06 RMK AO2
94908KDBQ DBQ20030728152009607/28/03 15:20:31  5-MIN KDBQ 282120Z VRB03KT 10SM FEW049 25/17 A3003 980 61 2400 VRB/03 RMK AO2
94908KDBQ DBQ20030728152509307/28/03 15:25:31  5-MIN KDBQ 282125Z VRB03KT 10SM CLR 25/17 A3003 980 59 2400 VRB/03 RMK AO2
94908KDBQ DBQ20030728153009607/28/03 15:30:31  5-MIN KDBQ 282130Z 00000KT 10SM FEW035 25/17 A3003 980 59 2400 000/00 RMK AO2
94908KDBQ DBQ20030728153512607/28/03 15:35:31  5-MIN KDBQ 282135Z 07007KT 020V090 10SM SCT035 SCT045 BKN060 26/17 A3003 980 59 2500 060/07 020V090 RMK AO2
94908KDBQ DBQ20030728154010307/28/03 15:40:31  5-MIN KDBQ 282140Z 05008KT 10SM SCT035 BKN045 24/17 A3003 980 63 2300 050/08 RMK AO2
94908KDBQ DBQ20030728154510307/28/03 15:45:31  5-MIN KDBQ 282145Z 05006KT 10SM SCT034 BKN047 24/17 A3003 980 63 2300 050/06 RMK AO2
94908KDBQ DBQ20030728155012707/28/03 15:50:31  5-MIN KDBQ 282150Z 05005KT 10SM FEW034 SCT047 SCT060 24/17 A3003 980 61 2300 050/05 RMK AO2 SLP162 T02440167
94908KDBQ DBQ20030728155512007/28/03 15:55:31  5-MIN KDBQ 282155Z 04004KT 10SM FEW034 SCT047 24/17 A3003 980 61 2300 040/04 RMK AO2 SLP162 T02440167
94908KDBQ DBQ20030728160010307/28/03 16:00:31  5-MIN KDBQ 282200Z 02003KT 10SM FEW034 SCT045 24/17 A3002 980 66 2300 020/03 RMK AO2
94908KDBQ DBQ20030728160512907/28/03 16:05:31  5-MIN KDBQ 282205Z 00000KT 10SM FEW032 24/17 A3082210Z 00000KT 10SM CLR 25/16 A3002 980 57 2400 000/00 RMK AO2
94908KDBQ DBQ20030728161509307/28/03 16:15:31  5-MIN KDBQ 282215Z 01003KT 10SM CLR 25/17 A3002 980 59 2400 360/03 RMK AO2
94908KDBQ DBQ20030728162009307/28/03 16:20:31  5-MIN KDBQ 282220Z 04006KT 10SM CLR 25/17 A3002 980 61 2400 040/06 RMK AO2
94908KDBQ DBQ20030728162509307/28/03 16:25:31  5-MIN KDBQ 282225Z 04005KT 10SM CLR 25/16 A3003 980 57 2400 040/05 RMK AO2
94908KDBQ DBQ20030728163009307/28/03 16:30:31  5-MIN KDBQ 282230Z 05004KT 10SM CLR 25/16 A3003 980 57 2400 050/04 RMK AO2
94908KDBQ DBQ20030728163509307/28/03 16:35:31  5-MIN KDBQ 282235Z 00000KT 10SM CLR 25/16 A3002 980 57 2400 000/00 RMK AO2
94908KDBQ DBQ20030728164009307/28/03 16:40:31  5-MIN KDBQ 282240Z 00000KT 10SM CLR 25/16 A3002 980 57 2400 000/00 RMK AO2
94908KDBQ DBQ20030728164509307/28/03 16:45:31  5-MIN KDBQ 282245Z 00000KT 10SM CLR 25/16 A3002 980 55 2400 000/00 RMK AO2
94908KDBQ DBQ20030728165011007/28/03 16:50:31  5-MIN KDBQ 282250Z 00000KT 10SM CLR 25/16 A3002 980 57 2400 000/00 RMK AO2 SLP161 T02500161
94908KDBQ DBQ20030728165511007/28/03 16:55:31  5-MIN KDBQ 282255Z 06005KT 10SM CLR 25/17 A3002 990 61 2400 060/05 RMK AO2 SLP160 T02500172
94908KDBQ DBQ20030728170009307/28/03 17:00:31  5-MIN KDBQ 282300Z 06005KT 10SM CLR 24/17 A3002 990 63 2300 060/05 RMK AO2
94908KDBQ DBQ20030728170509307/28/03 17:05:31  5-MIN KDBQ 282305Z 06005KT 10SM CLR 24/17 A3002 990 61 2300 060/05 RMK AO2
94908KDBQ DBQ20030728171009307/28/03 17:10:31  5-MIN KDBQ 282310Z 05005KT 10SM CLR 24/17 A3002 990 63 2300 050/05 RMK AO2
94908KDBQ DBQ20030728171509307/28/03 17:15:31  5-MIN KDBQ 282315Z 05004KT 10SM CLR 24/17 A3002 990 61 2300 050/04 RMK AO2
94908KDBQ DBQ20030728172009307/28/03 17:20:31  5-MIN KDBQ 282320Z 07003KT 10SM CLR 24/17 A3002 990 61 2300 070/03 RMK AO2
94908KDBQ DBQ20030728172509307/28/03 17:25:31  5-MIN KDBQ 282325Z 07003KT 10SM CLR 25/17 A3002 990 61 2400 070/03 RMK AO2
94908KDBQ DBQ20030728173009307/28/03 17:30:31  5-MIN KDBQ 282330Z 07003KT 10SM CLR 24/17 A3002 990 61 2300 070/03 RMK AO2
94908KDBQ DBQ20030728173509307/28/03 17:35:31  5-MIN KDBQ 282335Z 00000KT 10SM CLR 24/17 A3002 990 61 2300 000/00 RMK AO2
94908KDBQ DBQ20030728174009307/28/03 17:40:31  5-MIN KDBQ 282340Z 03003KT 10SM CLR 25/17 A3002 990 59 2400 030/03 RMK AO2
94908KDBQ DBQ20030728174509307/28/03 17:45:31  5-MIN KDBQ 282345Z 02003KT 10SM CLR 24/17 A3001 990 63 2300 020/03 RMK AO2
94908KDBQ DBQ20030728175012807/28/03 17:50:31  5-MIN KDBQ 282350Z 00000KT 10SM CLR 24/16 A3001 990 59 2400 000/00 RMK AO2 SLP158 T02440161 10256 20228 58008
94908KDBQ DBQ20030728175512807/28/03 17:55:31  5-MIN KDBQ 282355Z 07003KT 10SM CLR 24/17 A3001 990 61 2400 060/03 RMK AO2 SLP157 T02440167 10256 20228 58007
94908KDBQ DBQ20030728180009307/28/03 18:00:31  5-MIN KDBQ 290000Z 00000KT 10SM CLR 24/16 A3001 990 59 2400 000/00 RMK AO2
94908KDBQ DBQ20030728180509307/28/03 18:05:31  5-MIN KDBQ 290005Z 08003KT 10SM CLR 24/17 A3001 990 61 2400 080/03 RMK AO2
94908KDBQ DBQ20030728181009407/28/03 18:10:31  5-MIN KDBQ 290010Z 00000KT 10SM CLR 24/17 A3001 1000 61 2400 000/00 RMK AO2
94908KDBQ DBQ20030728181509407/28/03 18:15:31  5-MIN KDBQ 290015Z 00000KT 10SM CLR 24/16 A3001 1000 59 2400 000/00 RMK AO2
94908KDBQ DBQ20030728182009407/28/03 18:20:31  5-MIN KDBQ 290020Z 00000KT 10SM CLR 24/16 A3001 1000 59 2400 000/00 RMK AO2
94908KDBQ DBQ20030728182509407/28/03 18:25:31  5-MIN KDBQ 290025Z 00000KT 10SM CLR 24/17 A3001 1000 61 2400 000/00 RMK AO2
94908KDBQ DBQ20030728183009407/28/03 18:30:31  5-MIN KDBQ 290030Z 00000KT 10SM CLR 24/17 A3001 1000 66 2300 000/00 RMK AO2
94908KDBQ DBQ20030728183509407/28/03 18:35:31  5-MIN KDBQ 290035Z 00000KT 10SM CLR 24/17 A3001 1000 66 2300 000/00 RMK AO2
94908KDBQ DBQ20030728184009307/28/03 18:40:31  5-MIN KDBQ 290040Z 00000KT 10SM CLR 23/18 A3001 990 70 2200 000/00 RMK AO2
94908KDBQ DBQ20030728184509307/28/03 18:45:31  5-MIN KDBQ 290045Z 00000KT 10SM CLR 23/18 A3001 990 70 2200 000/00 RMK AO2
94908KDBQ DBQ20030728185011007/28/03 18:50:31  5-MIN KDBQ 290050Z 14003KT 10SM CLR 23/18 A3001 990 70 2200 140/03 RMK AO2 SLP158 T02330178
94908KDBQ DBQ20030728185511907/28/03 18:55:31  5-MIN KDBQ 290055Z AUTO 00000KT 9SM CLR 23/18 A3001 990 73 2200 000/00 RMK AO2 SLP158 T02280178 TSNO
94908KDBQ DBQ20030728190010207/28/03 19:00:31  5-MIN KDBQ 290100Z AUTO 00000KT 8SM CLR 23/18 A3002 990 73 2200 000/00 RMK AO2 TSNO
94908KDBQ DBQ20030728190510207/28/03 19:05:31  5-MIN KDBQ 290105Z AUTO 10003KT 7SM CLR 23/17 A3001 990 70 2200 100/03 RMK AO2 TSNO
94908KDBQ DBQ20030728191010207/28/03 19:10:31  5-MIN KDBQ 290110Z AUTO 10003KT 8SM CLR 22/17 A3001 990 73 2100 100/03 RMK AO2 TSNO
94908KDBQ DBQ20030728191510307/28/03 19:15:31  5-MIN KDBQ 290115Z AUTO 00000KT 10SM CLR 22/17 A3001 990 73 2100 000/00 RMK AO2 TSNO
94908KDBQ DBQ20030728192010307/28/03 19:20:31  5-MIN KDBQ 290120Z AUTO 12003KT 10SM CLR 22/18 A3001 990 78 2000 120/03 RMK AO2 TSNO
94908KDBQ DBQ20030728192510207/28/03 19:25:31  5-MIN KDBQ 290125Z AUTO 12003KT 8SM CLR 21/18 A3001 990 81 2000 120/03 RMK AO2 TSNO
94908KDBQ DBQ20030728193010207/28/03 19:30:31  5-MIN KDBQ 290130Z AUTO 11003KT 7SM CLR 21/17 A3002 990 78 2000 110/03 RMK AO2 TSNO
94908KDBQ DBQ20030728193510207/28/03 19:35:31  5-MIN KDBQ 290135Z AUTO 00000KT 8SM CLR 21/17 A3001 990 78 2000 000/00 RMK AO2 TSNO
94908KDBQ DBQ20030728194010307/28/03 19:40:31  5-MIN KDBQ 290140Z AUTO 00000KT 10SM CLR 21/17 A3002 990 81 1900 000/00 RMK AO2 TSNO
94908KDBQ DBQ20030728194510207/28/03 19:45:31  5-MIN KDBQ 290145Z AUTO 14003KT 8SM CLR 21/17 A3001 990 78 1900 140/03 RMK AO2 TSNO
94908KDBQ DBQ20030728195011907/28/03 19:50:31  5-MIN KDBQ 290150Z AUTO 13004KT 8SM CLR 21/17 A3002 990 78 1900 130/04 RMK AO2 SLP160 T02060167 TSNO
94908KDBQ DBQ20030728195511907/28/03 19:55:31  5-MIN KDBQ 290155Z AUTO 00000KT 9SM CLR 20/17 A3002 990 84 1800 000/00 RMK AO2 SLP161 T02000172 TSNO
94908KDBQ DBQ20030728200010207/28/03 20:00:31  5-MIN KDBQ 290200Z AUTO 14003KT 8SM CLR 20/17 A3002 990 81 1800 140/03 RMK AO2 TSNO
94908KDBQ DBQ20030728200510207/28/03 20:05:31  5-MIN KDBQ 290205Z AUTO 15003KT 7SM CLR 19/17 A3002 990 84 1800 150/03 RMK AO2 TSNO
94908KDBQ DBQ20030728201010207/28/03 20:10:31  5-MIN KDBQ 290210Z AUTO 00000KT 8SM CLR 19/17 A3002 990 84 1800 000/00 RMK AO2 TSNO
94908KDBQ DBQ20030728201510207/28/03 20:15:31  5-MIN KDBQ 290215Z AUTO 00000KT 8SM CLR 19/17 A3002 980 87 1800 000/00 RMK AO2 TSNO
94908KDBQ DBQ20030728202010207/28/03 20:20:31  5-MIN KDBQ 290220Z AUTO 00000KT 9SM CLR 20/17 A3003 980 84 1800 000/00 RMK AO2 TSNO
94908KDBQ DBQ20030728202510307/28/03 20:25:31  5-MIN KDBQ 290225Z AUTO 00000KT 10SM CLR 19/17 A3003 980 84 1800 000/00 RMK AO2 TSNO
94908KDBQ DBQ20030728203010207/28/03 20:30:31  5-MIN KDBQ 290230Z AUTO 00000KT 9SM CLR 19/17 A3003 980 87 1700 000/00 RMK AO2 TSNO
94908KDBQ DBQ20030728203510207/28/03 20:35:31  5-MIN KDBQ 290235Z AUTO 00000KT 9SM CLR 19/17 A3003 970 84 1800 000/00 RMK AO2 TSNO
94908KDBQ DBQ20030728204010207/28/03 20:40:31  5-MIN KDBQ 290240Z AUTO 00000KT 9SM CLR 19/17 A3003 970 87 1700 000/00 RMK AO2 TSNO
94908KDBQ DBQ20030728204510207/28/03 20:45:31  5-MIN KDBQ 290245Z AUTO 00000KT 9SM CLR 19/17 A3003 970 87 1700 000/00 RMK AO2 TSNO
94908KDBQ DBQ20030728205012607/28/03 20:50:31  5-MIN KDBQ 290250Z AUTO 00000KT 10SM CLR 19/17 A3003 970 87 1700 000/00 RMK AO2 SLP167 T01890167 58007 TSNO
94908KDBQ DBQ20030728205512607/28/03 20:55:31  5-MIN KDBQ 290255Z AUTO 00000KT 10SM CLR 18/17 A3003 970 90 1600 000/00 RMK AO2 SLP167 T01830167 53007 TSNO
94908KDBQ DBQ20030728210010207/28/03 21:00:31  5-MIN KDBQ 290300Z AUTO 00000KT 9SM CLR 19/17 A3004 970 87 1700 000/00 RMK AO2 TSNO
94908KDBQ DBQ20030728210510207/28/03 21:05:31  5-MIN KDBQ 290305Z AUTO 00000KT 9SM CLR 19/17 A3004 970 84 1800 000/00 RMK AO2 TSNO
94908KDBQ DBQ20030728211010207/28/03 21:10:31  5-MIN KDBQ 290310Z AUTO 00000KT 9SM CLR 19/17 A3004 970 87 1800 000/00 RMK AO2 TSNO
94908KDBQ DBQ20030728211510207/28/03 21:15:31  5-MIN KDBQ 290315Z AUTO 00000KT 9SM CLR 19/17 A3004 970 87 1700 000/00 RMK AO2 TSNO
94908KDBQ DBQ20030728212010307/28/03 21:20:31  5-MIN KDBQ 290320Z AUTO 00000KT 10SM CLR 19/17 A3004 970 87 1800 000/00 RMK AO2 TSNO
94908KDBQ DBQ20030729051010107/29/03 05:10:31  5-MIN KDBQ 291110Z 00000KT M1/4SM FG VV001 16/16 A3003 980 100 1300 000/00 RMK AO2
94908KDBQ DBQ20030729051510107/29/03 05:15:31  5-MIN KDBQ 291115Z 00000KT M1/4SM FG VV001 15/15 A3003 980 100 1200 000/00 RMK AO2
94908KDBQ DBQ20030729052010107/29/03 05:20:31  5-MIN KDBQ 291120Z 00000KT M1/4SM FG VV001 15/15 A3003 970 100 1200 000/00 RMK AO2
94908KDBQ DBQ20030729052510107/29/03 05:25:31  5-MIN KDBQ 291125Z 00000KT M1/4SM FG VV001 15/15 A3004 970 100 1200 000/00 RMK AO2
94908KDBQ DBQ20030729053010007/29/03 05:30:31  5-MIN KDBQ 291130Z 00000KT 1/4SM FG VV001 15/15 A3003 970 100 1200 000/00 RMK AO2
94908KDBQ DBQ20030729053509907/29/03 05:35:31  5-MIN KDBQ 291135Z 00000KT 1/4SM FG VV001 16/15 A3004 970 96 1300 000/00 RMK AO2
94908KDBQ DBQ20030729054009807/29/03 05:40:31  5-MIN KDBQ 291140Z 00000KT 1SM BR OVC001 16/15 A3004 970 96 1300 000/00 RMK AO2
94908KDBQ DBQ20030729054509907/29/03 05:45:31  5-MIN KDBQ 291145Z 00000KT 1SM BR OVC001 16/16 A3004 970 100 1300 000/00 RMK AO2
94908KDBQ DBQ20030729055013607/29/03 05:50:31  5-MIN KDBQ 291150Z 00000KT 1/2SM FG OVC001 16/16 A3004 970 100 1300 000/00 RMK AO2 SLP168 T01560156 10178 20144 58004
94908KDBQ DBQ20030729055513607/29/03 05:55:31  5-MIN KDBQ 291155Z 00000KT 1/4SM FG OVC001 16/16 A3004 970 100 1300 000/00 RMK AO2 SLP169 T01560156 10178 20144 53004
94908KDBQ DBQ20030729060010107/29/03 06:00:31  5-MIN KDBQ 291200Z 00000KT 1/4SM FG OVC001 16/16 A3004 970 100 1300 000/00 RMK AO2
94908KDBQ DBQ20030729060510007/29/03 06:05:31  5-MIN KDBQ 291205Z 00000KT 1/4SM FG VV001 16/16 A3004 970 100 1300 000/00 RMK AO2
94908KDBQ DBQ20030729061010007/29/03 06:10:31  5-MIN KDBQ 291210Z 00000KT 1/2SM FG VV001 16/16 A3004 970 100 1400 000/00 RMK AO2
94908KDBQ DBQ20030729061510007/29/03 06:15:31  5-MIN KDBQ 291215Z 00000KT 3/4SM BR VV001 16/16 A3004 970 100 1400 000/00 RMK AO2
94908KDBQ DBQ20030729062010007/29/03 06:20:31  5-MIN KDBQ 291220Z 21003KT 1/2SM FG VV001 16/16 A3004 960 100 1400 210/03 RMK AO2
94908KDBQ DBQ20030729062510007/29/03 06:25:31  5-MIN KDBQ 291225Z 21003KT 1/2SM FG VV001 17/17 A3005 960 100 1400 210/03 RMK AO2
94908KDBQ DBQ20030729063010007/29/03 06:30:31  5-MIN KDBQ 291230Z 00000KT 1/4SM FG VV001 17/17 A3005 960 100 1400 000/00 RMK AO2
94908KDBQ DBQ20030729063509807/29/03 06:35:31  5-MIN KDBQ 291235Z 00000KT 1/2SM FG CLR 17/17 A3004 960 100 1400 000/00 RMK AO2
94908KDBQ DBQ20030729064009607/29/03 06:40:31  5-MIN KDBQ 291240Z 22003KT 1SM BR CLR 17/17 A3005 960 100 1500 220/03 RMK AO2
94908KDBQ DBQ20030729064510007/29/03 06:45:31  5-MIN KDBQ 291245Z 23003KT 1 1/2SM BR CLR 18/18 A3005 960 100 1600 220/03 RMK AO2
94908KDBQ DBQ20030729065011707/29/03 06:50:31  5-MIN KDBQ 291250Z 23003KT 1 1/2SM BR CLR 18/18 A3005 960 100 1600 230/03 RMK AO2 SLP170 T01780178
94908KDBQ DBQ20030729065511707/29/03 06:55:31  5-MIN KDBQ 291255Z 22004KT 1 3/4SM BR CLR 18/18 A3005 960 100 1500 220/04 RMK AO2 SLP171 T01780178
94908KDBQ DBQ20030729070009607/29/03 07:00:31  5-MIN KDBQ 291300Z 22005KT 2SM BR CLR 18/18 A3005 960 100 1500 220/05 RMK AO2
94908KDBQ DBQ20030729070509607/29/03 07:05:31  5-MIN KDBQ 291305Z 22005KT 2SM BR CLR 18/18 A3005 960 100 1600 220/05 RMK AO2
94908KDBQ DBQ20030729071009607/29/03 07:10:31  5-MIN KDBQ 291310Z 22005KT 2SM BR CLR 18/18 A3005 960 100 1600 220/05 RMK AO2
94908KDBQ DBQ20030729071510007/29/03 07:15:31  5-MIN KDBQ 291315Z 22004KT 2 1/2SM BR CLR 18/18 A3005 960 100 1600 220/04 RMK AO2
94908KDBQ DBQ20030729072010007/29/03 07:20:31  5-MIN KDBQ 291320Z 22005KT 2 1/2SM BR CLR 19/19 A3005 950 100 1700 210/05 RMK AO2
94908KDBQ DBQ20030729072509607/29/03 07:25:31  5-MIN KDBQ 291325Z 22005KT 3SM BR CLR 19/19 A3006 950 100 1700 220/05 RMK AO2
94908KDBQ DBQ20030729073009507/29/03 07:30:31  5-MIN KDBQ 291330Z 22006KT 3SM BR CLR 20/19 A3006 950 93 1800 220/06 RMK AO2
94908KDBQ DBQ20030729073509507/29/03 07:35:31  5-MIN KDBQ 291335Z 22005KT 3SM BR CLR 20/19 A3006 950 93 1800 210/05 RMK AO2
94908KDBQ DBQ20030729074009507/29/03 07:40:31  5-MIN KDBQ 291340Z 23005KT 3SM BR CLR 21/19 A3006 950 90 1900 220/05 RMK AO2
94908KDBQ DBQ20030729074509507/29/03 07:45:31  5-MIN KDBQ 291345Z 22006KT 3SM BR CLR 21/19 A3006 950 93 1900 220/06 RMK AO2
94908KDBQ DBQ20030729075011207/29/03 07:50:31  5-MIN KDBQ 291350Z 24009KT 3SM BR CLR 21/19 A3006 950 90 1900 240/09 RMK AO2 SLP175 T02110194
94908KDBQ DBQ20030729075511207/29/03 07:55:31  5-MIN KDBQ 291355Z 23009KT 4SM HZ CLR 21/18 A3006 950 84 1900 230/09 RMK AO2 SLP175 T02110183
94908KDBQ DBQ20030729080009507/29/03 08:00:31  5-MIN KDBQ 291400Z 24008KT 4SM HZ CLR 21/18 A3006 950 84 1900 240/08 RMK AO2
94908KDBQ DBQ20030729080509507/29/03 08:05:31  5-MIN KDBQ 291405Z 25010KT 5SM HZ CLR 22/19 A3006 950 84 2000 250/10 RMK AO2
94908KDBQ DBQ20030729081009507/29/03 08:10:31  5-MIN KDBQ 291410Z 24008KT 5SM HZ CLR 22/18 A3006 950 81 2000 240/08 RMK AO2
94908KDBQ DBQ20030729081509507/29/03 08:15:31  5-MIN KDBQ 291415Z 24008KT 5SM HZ CLR 22/19 A3006 950 84 2000 240/08 RMK AO2
94908KDBQ DBQ20030729082009507/29/03 08:20:31  5-MIN KDBQ 291420Z 24010KT 5SM HZ CLR 22/19 A3006 950 81 2000 240/10 RMK AO2
94908KDBQ DBQ20030729082509507/29/03 08:25:31  5-MIN KDBQ 291425Z 23009KT 6SM HZ CLR 22/18 A3006 950 78 2100 230/09 RMK AO2
94908KDBQ DBQ20030729083009507/29/03 08:30:31  5-MIN KDBQ 291430Z 25009KT 6SM HZ CLR 22/18 A3006 950 78 2000 240/09 RMK AO2
94908KDBQ DBQ20030729083509507/29/03 08:35:31  5-MIN KDBQ 291435Z 24007KT 6SM HZ CLR 23/18 A3006 950 76 2100 240/07 RMK AO2
94908KDBQ DBQ20030729084009507/29/03 08:40:31  5-MIN KDBQ 291440Z 25007KT 6SM HZ CLR 23/19 A3006 950 78 2100 250/07 RMK AO2
94908KDBQ DBQ20030729084509507/29/03 08:45:31  5-MIN KDBQ 291445Z 25009KT 6SM HZ CLR 23/18 A3006 950 76 2100 250/09 RMK AO2
94908KDBQ DBQ20030729085011807/29/03 08:50:31  5-MIN KDBQ 291450Z 25009KT 6SM HZ CLR 23/18 A3006 950 76 2100 250/09 RMK AO2 SLP174 T02280183 53004
94908KDBQ DBQ20030729085511507/29/03 08:55:31  5-MIN KDBQ 291455Z 26007KT 7SM CLR 23/19 A3006 950 76 2200 260/07 RMK AO2 SLP174 T02330189 50006
94908KDBQ DBQ20030729090009507/29/03 09:00:31  5-MIN KDBQ 291500Z 26006KT 6SM HZ CLR 23/19 A3006 950 78 2100 260/06 RMK AO2
94908KDBQ DBQ20030729090509507/29/03 09:05:31  5-MIN KDBQ 291505Z 25009KT 6SM HZ CLR 23/19 A3006 950 76 2200 250/09 RMK AO2
94908KDBQ DBQ20030729091009507/29/03 09:10:31  5-MIN KDBQ 291510Z 26006KT 6SM HZ CLR 23/19 A3006 950 76 2200 250/06 RMK AO2
94908KDBQ DBQ20030729091509507/29/03 09:15:31  5-MIN KDBQ 291515Z 24007KT 6SM HZ CLR 23/19 A3006 950 78 2200 240/07 RMK AO2
94908KDBQ DBQ20030729092009507/29/03 09:20:31  5-MIN KDBQ 291520Z 23008KT 6SM HZ CLR 23/19 A3006 950 76 2200 230/08 RMK AO2
94908KDBQ DBQ20030729092509507/29/03 09:25:31  5-MIN KDBQ 291525Z 25006KT 6SM HZ CLR 23/19 A3006 950 78 2200 240/06 RMK AO2
94908KDBQ DBQ20030729093009507/29/03 09:30:31  5-MIN KDBQ 291530Z 24007KT 6SM HZ CLR 24/19 A3006 950 76 2200 240/07 RMK AO2
94908KDBQ DBQ20030729093509507/29/03 09:35:31  5-MIN KDBQ 291535Z 23007KT 6SM HZ CLR 24/19 A3006 950 76 2200 230/07 RMK AO2
94908KDBQ DBQ20030729094009507/29/03 09:40:31  5-MIN KDBQ 291540Z 23007KT 6SM HZ CLR 24/19 A3006 950 76 2200 230/07 RMK AO2
94908KDBQ DBQ20030729094509507/29/03 09:45:31  5-MIN KDBQ 291545Z 24007KT 6SM HZ CLR 24/19 A3006 950 76 2200 240/07 RMK AO2
94908KDBQ DBQ20030729095010907/29/03 09:50:31  5-MIN KDBQ 291550Z 25007KT 7SM CLR 24/19 A3006 950 76 2200 250/07 RMK AO2 SLP174 T02390194
94908KDBQ DBQ20030729095510907/29/03 09:55:31  5-MIN KDBQ 291555Z VRB04KT 7SM CLR 24/19 A3006 950 73 2300 VRB/04 RMK AO2 SLP173 T02440194
94908KDBQ DBQ20030729100009207/29/03 10:00:31  5-MIN KDBQ 291600Z 23007KT 7SM CLR 24/20 A3006 950 76 2300 230/07 RMK AO2
94908KDBQ DBQ20030729100509207/29/03 10:05:31  5-MIN KDBQ 291605Z 26006KT 8SM CLR 24/19 A3006 950 71 2300 260/06 RMK AO2
94908KDBQ DBQ20030729101009507/29/03 10:10:31  5-MIN KDBQ 291610Z 24007KT 8SM FEW021 24/19 A3006 950 71 2300 240/07 RMK AO2
94908KDBQ DBQ20030729101509507/29/03 10:15:31  5-MIN KDBQ 291615Z 23004KT 8SM FEW021 24/19 A3006 950 73 2300 230/04 RMK AO2
94908KDBQ DBQ20030729102009207/29/03 10:20:31  5-MIN KDBQ 291620Z 26006KT 8SM CLR 24/19 A3006 950 73 2300 260/06 RMK AO2
94908KDBQ DBQ20030729102509207/29/03 10:25:31  5-MIN KDBQ 291625Z 22007KT 8SM CLR 24/19 A3006 950 73 2300 220/07 RMK AO2
94908KDBQ DBQ20030729103009207/29/03 10:30:31  5-MIN KDBQ 291630Z 23005KT 8SM CLR 24/19 A3006 950 73 2300 230/05 RMK AO2
94908KDBQ DBQ20030729103509507/29/03 10:35:31  5-MIN KDBQ 291635Z 00000KT 9SM FEW041 25/19 A3006 950 68 2400 000/00 RMK AO2
94908KDBQ DBQ20030729104010907/29/03 10:40:31  5-MIN KDBQ 291640Z 21005KT 9SM FEW025 SCT036 SCT043 25/19 A3006 950 68 2400 210/05 RMK AO2
94908KDBQ DBQ20030729104510207/29/03 10:45:31  5-MIN KDBQ 291645Z VRB04KT 8SM SCT025 BKN040 24/19 A3006 950 71 2300 VRB/04 RMK AO2
94908KDBQ DBQ20030729105011907/29/03 10:50:31  5-MIN KDBQ 291650Z VRB03KT 8SM SCT025 BKN040 25/19 A3006 950 71 2400 VRB/03 RMK AO2 SLP173 T02500194
94908KDBQ DBQ20030729105511907/29/03 10:55:31  5-MIN KDBQ 291655Z 28004KT 8SM BKN025 BKN040 24/19 A3006 950 71 2300 270/04 RMK AO2 SLP173 T02440189
94908KDBQ DBQ20030729110010207/29/03 11:00:31  5-MIN KDBQ 291700Z 00000KT 9SM BKN025 BKN040 25/18 A3005 960 66 2400 000/00 RMK AO2
94908KDBQ DBQ20030729110510307/29/03 11:05:31  5-MIN KDBQ 291705Z VRB06KT 10SM SCT025 BKN037 26/19 A3005 960 66 2400 VRB/06 RMK AO2
94908KDBQ DBQ20030729111010307/29/03 11:10:31  5-MIN KDBQ 291710Z 23004KT 10SM SCT025 BKN037 26/19 A3005 960 66 2400 230/04 RMK AO2
94908KDBQ DBQ20030729111510307/29/03 11:15:31  5-MIN KDBQ 291715Z 24004KT 10SM FEW025 BKN039 26/18 A3005 960 64 2400 240/04 RMK AO2
94908KDBQ DBQ20030729112011007/29/03 11:20:31  5-MIN KDBQ 291720Z VRB05KT 10SM FEW027 SCT039 BKN055 26/18 A3005 960 64 2400 VRB/05 RMK AO2
94908KDBQ DBQ20030729112511007/29/03 11:25:31  5-MIN KDBQ 291725Z 26006KT 10SM FEW027 SCT038 BKN055 26/18 A3005 960 61 2400 260/06 RMK AO2
94908KDBQ DBQ20030729113011007/29/03 11:30:31  5-MIN KDBQ 291730Z 23005KT 10SM FEW030 BKN038 BKN055 26/17 A3005 960 57 2500 230/05 RMK AO2
94908KDBQ DBQ20030729113511007/29/03 11:35:31  5-MIN KDBQ 291735Z 23005KT 10SM BKN035 BKN042 BKN055 26/18 A3005 960 64 2400 230/05 RMK AO2
94908KDBQ DBQ20030729114011007/29/03 11:40:31  5-MIN KDBQ 291740Z 00000KT 10SM BKN035 BKN042 BKN055 26/18 A3005 960 59 2500 000/00 RMK AO2
94908KDBQ DBQ20030729114511007/29/03 11:45:31  5-MIN KDBQ 291745Z 25006KT 10SM BKN035 BKN041 BKN055 26/18 A3005 960 64 2400 250/06 RMK AO2
94908KDBQ DBQ20030729115013807/29/03 11:50:31  5-MIN KDBQ 291750Z 25004KT 10SM BKN035 BKN042 25/18 A3004 960 64 2400 250/04 RMK AO2 SLP168 T02500178 10261 20156 50006
94908KDBQ DBQ20030729115513807/29/03 11:55:31  5-MIN KDBQ 291755Z VRB04KT 10SM BKN035 BKN060 26/18 A3004 960 62 2500 VRB/04 RMK AO2 SLP168 T02610183 10261 20156 58004
94908KDBQ DBQ20030729120011007/29/03 12:00:31  5-MIN KDBQ 291800Z 24006KT 10SM SCT035 SCT050 BKN070 26/17 A3004 960 57 2500 240/06 RMK AO2
94908KDBQ DBQ20030729120511007/29/03 12:05:31  5-MIN KDBQ 291805Z 22006KT 10SM FEW035 SCT047 BKN065 26/17 A3004 960 57 2500 220/06 RMK AO2
94908KDBQ DBQ20030729121011007/29/03 12:10:31  5-MIN KDBQ 291810Z 25008KT 10SM FEW035 SCT045 BKN065 26/18 A3004 970 59 2500 240/08 RMK AO2
94908KDBQ DBQ20030729121510307/29/03 12:15:31  5-MIN KDBQ 291815Z 21004KT 10SM SCT038 BKN065 26/17 A3004 970 57 2500 210/04 RMK AO2
94908KDBQ DBQ20030729122010307/29/03 12:20:31  5-MIN KDBQ 291820Z VRB04KT 10SM FEW038 BKN065 27/17 A3004 970 53 2600 VRB/04 RMK AO2
94908KDBQ DBQ20030729122510307/29/03 12:25:31  5-MIN KDBQ 291825Z 23004KT 10SM FEW041 SCT065 26/17 A3004 970 55 2500 230/04 RMK AO2
94908KDBQ DBQ20030729123010307/29/03 12:30:31  5-MIN KDBQ 291830Z VRB06KT 10SM SCT041 BKN065 26/18 A3004 970 59 2500 VRB/06 RMK AO2
94908KDBQ DBQ20030729123510307/29/03 12:35:31  5-MIN KDBQ 291835Z 26006KT 10SM BKN041 BKN065 26/18 A3004 970 61 2500 260/06 RMK AO2
94908KDBQ DBQ20030729124011007/29/03 12:40:31  5-MIN KDBQ 291840Z 26005KT 10SM BKN041 BKN048 BKN070 26/18 A3004 970 62 2500 260/05 RMK AO2
94908KDBQ DBQ20030729124511007/29/03 12:45:31  5-MIN KDBQ 291845Z 26004KT 10SM SCT041 BKN049 BKN070 27/17 A3004 970 55 2600 260/04 RMK AO2
94908KDBQ DBQ20030729125012707/29/03 12:50:31  5-MIN KDBQ 291850Z 00000KT 10SM SCT041 SCT049 BKN085 27/17 A3004 970 53 2600 000/00 RMK AO2 SLP166 T02670167
94908KDBQ DBQ20030729125512707/29/03 12:55:31  5-MIN KDBQ 291855Z 00000KT 10SM SCT041 BKN060 BKN085 26/17 A3004 970 55 2500 000/00 RMK AO2 SLP166 T02610167
94908KDBQ DBQ20030729130011007/29/03 13:00:31  5-MIN KDBQ 291900Z 31003KT 10SM BKN041 BKN060 OVC085 26/17 A3003 970 59 2500 300/03 RMK AO2
94908KDBQ DBQ20030729130511007/29/03 13:05:31  5-MIN KDBQ 291905Z 00000KT 10SM BKN041 BKN060 BKN080 26/17 A3003 980 57 2500 000/00 RMK AO2
94908KDBQ DBQ20030729131011007/29/03 13:10:31  5-MIN KDBQ 291910Z 00000KT 10SM SCT043 BKN060 BKN080 26/17 A3003 980 55 2500 000/00 RMK AO2
94908KDBQ DBQ20030729131510307/29/03 13:15:31  5-MIN KDBQ 291915Z 00000KT 10SM SCT043 SCT055 26/17 A3003 980 55 2500 000/00 RMK AO2
94908KDBQ DBQ20030729132010307/29/03 13:20:31  5-MIN KDBQ 291920Z 00000KT 10SM SCT043 SCT055 27/17 A3003 980 55 2600 000/00 RMK AO2
94908KDBQ DBQ20030729132509607/29/03 13:25:31  5-MIN KDBQ 291925Z 00000KT 10SM FEW043 27/17 A3003 980 55 2600 000/00 RMK AO2
94908KDBQ DBQ20030729133009607/29/03 13:30:31  5-MIN KDBQ 291930Z 24005KT 10SM FEW047 27/17 A3003 980 55 2600 240/05 RMK AO2
94908KDBQ DBQ20030729133509607/29/03 13:35:31  5-MIN KDBQ 291935Z 28004KT 10SM FEW047 27/17 A3003 980 54 2600 280/04 RMK AO2
94908KDBQ DBQ20030729134009607/29/03 13:40:31  5-MIN KDBQ 291940Z 32004KT 10SM SCT070 27/17 A3002 980 52 2700 320/04 RMK AO2
94908KDBQ DBQ20030729134509607/29/03 13:45:31  5-MIN KDBQ 291945Z 18004KT 10SM SCT075 27/17 A3002 980 54 2600 180/04 RMK AO2
94908KDBQ DBQ20030729135011307/29/03 13:50:31  5-MIN KDBQ 291950Z VRB04KT 10SM SCT070 27/17 A3002 980 52 2700 VRB/04 RMK AO2 SLP161 T02720167
94908KDBQ DBQ20030729135511307/29/03 13:55:31  5-MIN KDBQ 291955Z 22004KT 10SM SCT070 27/17 A3002 980 55 2600 220/04 RMK AO2 SLP161 T02670172
94908KDBQ DBQ20030729140010307/29/03 14:00:31  5-MIN KDBQ 292000Z 00000KT 10SM FEW045 SCT070 26/17 A3002 980 55 2500 000/00 RMK AO2
94908KDBQ DBQ20030729140510307/29/03 14:05:31  5-MIN KDBQ 292005Z 17004KT 10SM FEW045 SCT070 26/17 A3002 980 57 2500 170/04 RMK AO2
94908KDBQ DBQ20030729141009607/29/03 14:10:31  5-MIN KDBQ 292010Z 20004KT 10SM FEW075 26/18 A3002 980 59 2500 200/04 RMK AO2
94908KDBQ DBQ20030729141509307/29/03 14:15:31  5-MIN KDBQ 292015Z 20005KT 10SM CLR 27/18 A3002 980 57 2600 200/05 RMK AO2
94908KDBQ DBQ20030729142009307/29/03 14:20:31  5-MIN KDBQ 292020Z 18006KT 10SM CLR 27/17 A3002 980 54 2700 180/06 RMK AO2
94908KDBQ DBQ20030729142509307/29/03 14:25:31  5-MIN KDBQ 292025Z 18006KT 10SM CLR 26/19 A3002 980 66 2500 180/06 RMK AO2
94908KDBQ DBQ20030729143009307/29/03 14:30:31  5-MIN KDBQ 292030Z 17005KT 10SM CLR 25/18 A3002 980 66 2400 170/05 RMK AO2
94908KDBQ DBQ20030729143509307/29/03 14:35:31  5-MIN KDBQ 292035Z VRB04KT 10SM CLR 26/19 A3002 990 64 2500 VRB/04 RMK AO2
94908KDBQ DBQ20030729144009307/29/03 14:40:31  5-MIN KDBQ 292040Z 19004KT 10SM CLR 27/18 A3002 990 60 2600 180/04 RMK AO2
94908KDBQ DBQ20030729144509307/29/03 14:45:31  5-MIN KDBQ 292045Z 16004KT 10SM CLR 27/18 A3002 990 57 2600 160/04 RMK AO2
94908KDBQ DBQ20030729145011607/29/03 14:50:31  5-MIN KDBQ 292050Z 13004KT 10SM CLR 27/18 A3002 990 57 2600 130/04 RMK AO2 SLP159 T02670178 58004
94908KDBQ DBQ20030729145511607/29/03 14:55:31  5-MIN KDBQ 292055Z VRB05KT 10SM CLR 27/18 A3002 990 57 2600 VRB/05 RMK AO2 SLP159 T02670178 56009
94908KDBQ DBQ20030729150009307/29/03 15:00:31  5-MIN KDBQ 292100Z 20004KT 10SM CLR 27/18 A3001 990 58 2700 190/04 RMK AO2
94908KDBQ DBQ20030729150509307/29/03 15:05:31  5-MIN KDBQ 292105Z VRB04KT 10SM CLR 27/18 A3001 990 56 2700 VRB/04 RMK AO2
94908KDBQ DBQ20030729151009407/29/03 15:10:31  5-MIN KDBQ 292110Z 18004KT 10SM CLR 27/18 A3001 1000 56 2700 170/04 RMK AO2
94908KDBQ DBQ20030729151509407/29/03 15:15:31  5-MIN KDBQ 292115Z VRB03KT 10SM CLR 27/17 A3001 1000 52 2700 VRB/03 RMK AO2
94908KDBQ DBQ20030729152009407/29/03 15:20:31  5-MIN KDBQ 292120Z VRB04KT 10SM CLR 27/17 A3001 1000 54 2700 VRB/04 RMK AO2
94908KDBQ DBQ20030729152509407/29/03 15:25:31  5-MIN KDBQ 292125Z 00000KT 10SM CLR 27/17 A3000 1000 54 2700 000/00 RMK AO2
94908KDBQ DBQ20030729153009407/29/03 15:30:31  5-MIN KDBQ 292130Z VRB04KT 10SM CLR 27/17 A3001 1000 52 2700 VRB/04 RMK AO2
94908KDBQ DBQ20030729153509407/29/03 15:35:31  5-MIN KDBQ 292135Z 19003KT 10SM CLR 27/17 A3000 1000 52 2700 190/03 RMK AO2
94908KDBQ DBQ20030729154009407/29/03 15:40:31  5-MIN KDBQ 292140Z 19003KT 10SM CLR 27/16 A3000 1000 50 2700 190/03 RMK AO2
94908KDBQ DBQ20030729154509407/29/03 15:45:31  5-MIN KDBQ 292145Z 21003KT 10SM CLR 27/17 A3000 1000 52 2700 210/03 RMK AO2
94908KDBQ DBQ20030729155011107/29/03 15:50:31  5-MIN KDBQ 292150Z 00000KT 10SM CLR 28/17 A3000 1010 52 2700 000/00 RMK AO2 SLP153 T02780172
94908KDBQ DBQ20030729155511107/29/03 15:55:31  5-MIN KDBQ 292155Z 29004KT 10SM CLR 28/17 A3000 1010 50 2700 290/04 RMK AO2 SLP153 T02780167
94908KDBQ DBQ20030729160009407/29/03 16:00:31  5-MIN KDBQ 292200Z 17004KT 10SM CLR 27/17 A3000 1010 54 2700 170/04 RMK AO2
94908KDBQ DBQ20030729160509407/29/03 16:05:31  5-MIN KDBQ 292205Z VRB03KT 10SM CLR 27/17 A3000 1010 52 2700 VRB/03 RMK AO2
94908KDBQ DBQ20030729161009407/29/03 16:10:31  5-MIN KDBQ 292210Z 16005KT 10SM CLR 27/17 A2999 1010 54 2700 160/05 RMK AO2
94908KDBQ DBQ20030729161509407/29/03 16:15:31  5-MIN KDBQ 292215Z 00000KT 10SM CLR 27/17 A2999 1010 54 2700 000/00 RMK AO2
94908KDBQ DBQ20030729162009407/29/03 16:20:31  5-MIN KDBQ 292220Z VRB04KT 10SM CLR 27/18 A2999 1020 56 2700 VRB/04 RMK AO2
94908KDBQ DBQ20030729162509407/29/03 16:25:31  5-MIN KDBQ 292225Z VRB05KT 10SM CLR 27/17 A2998 1020 54 2700 VRB/05 RMK AO2
94908KDBQ DBQ20030729163009407/29/03 16:30:31  5-MIN KDBQ 292230Z 19005KT 10SM CLR 27/18 A2999 1020 56 2700 190/05 RMK AO2
94908KDBQ DBQ20030729163509407/29/03 16:35:31  5-MIN KDBQ 292235Z 20005KT 10SM CLR 27/17 A2998 1020 54 2700 190/05 RMK AO2
94908KDBQ DBQ20030729164009407/29/03 16:40:31  5-MIN KDBQ 292240Z 16006KT 10SM CLR 27/18 A2998 1020 56 2700 160/06 RMK AO2
94908KDBQ DBQ20030729164509407/29/03 16:45:31  5-MIN KDBQ 292245Z 19007KT 10SM CLR 27/18 A2998 1020 60 2600 190/07 RMK AO2
94908KDBQ DBQ20030729165011107/29/03 16:50:31  5-MIN KDBQ 292250Z 17009KT 10SM CLR 27/18 A2998 1020 60 2600 170/09 RMK AO2 SLP147 T02670183
94908KDBQ DBQ20030729165511107/29/03 16:55:31  5-MIN KDBQ 292255Z 18008KT 10SM CLR 27/19 A2998 1020 62 2600 170/08 RMK AO2 SLP146 T02670189
94908KDBQ DBQ20030729170009407/29/03 17:00:31  5-MIN KDBQ 292300Z 18008KT 10SM CLR 26/19 A2998 1020 64 2600 180/08 RMK AO2
94908KDBQ DBQ20030729170509407/29/03 17:05:31  5-MIN KDBQ 292305Z 18007KT 10SM CLR 26/19 A2998 1030 64 2600 180/07 RMK AO2
94908KDBQ DBQ20030729171009407/29/03 17:10:31  5-MIN KDBQ 292310Z 17007KT 10SM CLR 26/19 A2998 1030 64 2600 170/07 RMK AO2
94908KDBQ DBQ20030729171509407/29/03 17:15:31  5-MIN KDBQ 292315Z 17007KT 10SM CLR 26/19 A2998 1030 64 2600 160/07 RMK AO2
94908KDBQ DBQ20030729172009407/29/03 17:20:31  5-MIN KDBQ 292320Z 17007KT 10SM CLR 26/18 A2997 1030 62 2600 170/07 RMK AO2
94908KDBQ DBQ20030729172509407/29/03 17:25:31  5-MIN KDBQ 292325Z 16008KT 10SM CLR 26/19 A2998 1030 66 2600 160/08 RMK AO2
94908KDBQ DBQ20030729173009407/29/03 17:30:31  5-MIN KDBQ 292330Z 18009KT 10SM CLR 26/20 A2997 1030 71 2500 170/09 RMK AO2
94908KDBQ DBQ20030729173509407/29/03 17:35:31  5-MIN KDBQ 292335Z 18007KT 10SM CLR 26/20 A2997 1030 71 2500 180/07 RMK AO2
94908KDBQ DBQ20030729174009407/29/03 17:40:31  5-MIN KDBQ 292340Z 17008KT 10SM CLR 25/19 A2997 1030 71 2500 170/08 RMK AO2
94908KDBQ DBQ20030729174509407/29/03 17:45:31  5-MIN KDBQ 292345Z 17006KT 10SM CLR 25/19 A2997 1030 71 2500 170/06 RMK AO2
94908KDBQ DBQ20030729175012907/29/03 17:50:31  5-MIN KDBQ 292350Z 18007KT 10SM CLR 25/19 A2997 1030 71 2500 180/07 RMK AO2 SLP144 T02500194 10278 20250 56009
94908KDBQ DBQ20030729175512907/29/03 17:55:31  5-MIN KDBQ 292355Z 18008KT 10SM CLR 25/19 A2997 1030 71 2500 180/08 RMK AO2 SLP144 T02500194 10278 20250 56016
94908KDBQ DBQ20030729180009407/29/03 18:00:31  5-MIN KDBQ 300000Z 17006KT 10SM CLR 24/19 A2997 1030 73 2400 170/06 RMK AO2
94908KDBQ DBQ20030729180509407/29/03 18:05:31  5-MIN KDBQ 300005Z 18005KT 10SM CLR 24/19 A2997 1030 73 2400 180/05 RMK AO2
94908KDBQ DBQ20030729181009407/29/03 18:10:31  5-MIN KDBQ 300010Z 20004KT 10SM CLR 24/19 A2997 1030 73 2400 190/04 RMK AO2
94908KDBQ DBQ20030729181509407/29/03 18:15:31  5-MIN KDBQ 300015Z 20006KT 10SM CLR 24/18 A2997 1030 71 2300 200/06 RMK AO2
94908KDBQ DBQ20030729182009407/29/03 18:20:31  5-MIN KDBQ 300020Z 19006KT 10SM CLR 24/18 A2998 1030 68 2300 190/06 RMK AO2
94908KDBQ DBQ20030729182510407/29/03 18:25:31  5-MIN KDBQ 300025Z AUTO 19005KT 10SM CLR 24/18 A2998 1020 68 2300 190/05 RMK AO2 TSNO
94908KDBQ DBQ20030729183010407/29/03 18:30:31  5-MIN KDBQ 300030Z AUTO 20005KT 10SM CLR 24/18 A2998 1020 71 2300 190/05 RMK AO2 TSNO
94908KDBQ DBQ20030729183510407/29/03 18:35:31  5-MIN KDBQ 300035Z AUTO 19004KT 10SM CLR 23/18 A2998 1020 73 2300 190/04 RMK AO2 TSNO
94908KDBQ DBQ20030729184010407/29/03 18:40:31  5-MIN KDBQ 300040Z AUTO 19004KT 10SM CLR 23/18 A2998 1020 73 2300 190/04 RMK AO2 TSNO
94908KDBQ DBQ20030729184510407/29/03 18:45:31  5-MIN KDBQ 300045Z AUTO 18005KT 10SM CLR 23/18 A2998 1020 76 2200 180/05 RMK AO2 TSNO
94908KDBQ DBQ20030729185012107/29/03 18:50:31  5-MIN KDBQ 300050Z AUTO 18005KT 10SM CLR 23/18 A2999 1020 76 2200 180/05 RMK AO2 SLP150 T02280183 TSNO
94908KDBQ DBQ20030729185512107/29/03 18:55:31  5-MIN KDBQ 300055Z AUTO 18004KT 10SM CLR 23/18 A2999 1010 76 2200 180/04 RMK AO2 SLP151 T02280183 TSNO
94908KDBQ DBQ20030729190010407/29/03 19:00:31  5-MIN KDBQ 300100Z AUTO 19005KT 10SM CLR 22/18 A2999 1010 78 2100 180/05 RMK AO2 TSNO
94908KDBQ DBQ20030729190510407/29/03 19:05:31  5-MIN KDBQ 300105Z AUTO 18004KT 10SM CLR 22/18 A2999 1010 75 2100 180/04 RMK AO2 TSNO
94908KDBQ DBQ20030729191010407/29/03 19:10:31  5-MIN KDBQ 300110Z AUTO 19004KT 10SM CLR 22/18 A2999 1010 75 2100 190/04 RMK AO2 TSNO
94908KDBQ DBQ20030729191510407/29/03 19:15:31  5-MIN KDBQ 300115Z AUTO 18004KT 10SM CLR 22/18 A3000 1010 78 2100 180/04 RMK AO2 TSNO
94908KDBQ DBQ20030729192010407/29/03 19:20:31  5-MIN KDBQ 300120Z AUTO 18003KT 10SM CLR 22/18 A3000 1000 78 2100 180/03 RMK AO2 TSNO
94908KDBQ DBQ20030729192510407/29/03 19:25:31  5-MIN KDBQ 300125Z AUTO 18004KT 10SM CLR 21/18 A3000 1010 81 2000 170/04 RMK AO2 TSNO
94908KDBQ DBQ20030729193010407/29/03 19:30:31  5-MIN KDBQ 300130Z AUTO 18004KT 10SM CLR 21/18 A3000 1010 81 2000 170/04 RMK AO2 TSNO
94908KDBQ DBQ20030729193510407/29/03 19:35:31  5-MIN KDBQ 300135Z AUTO 18004KT 10SM CLR 21/18 A3000 1010 84 2000 180/04 RMK AO2 TSNO
94908KDBQ DBQ20030729194010407/29/03 19:40:31  5-MIN KDBQ 300140Z AUTO 18004KT 10SM CLR 21/18 A3000 1010 87 1900 180/04 RMK AO2 TSNO
94908KDBQ DBQ20030729194510407/29/03 19:45:31  5-MIN KDBQ 300145Z AUTO 18003KT 10SM CLR 20/18 A3000 1010 87 1900 180/03 RMK AO2 TSNO
94908KDBQ DBQ20030729195012107/29/03 19:50:31  5-MIN KDBQ 300150Z AUTO 18003KT 10SM CLR 21/18 A3000 1010 84 1900 180/03 RMK AO2 SLP154 T02060178 TSNO
94908KDBQ DBQ20030729195512107/29/03 19:55:31  5-MIN KDBQ 300155Z AUTO 19003KT 10SM CLR 21/18 A3000 1010 84 1900 190/03 RMK AO2 SLP153 T02060178 TSNO
94908KDBQ DBQ20030729200010407/29/03 20:00:31  5-MIN KDBQ 300200Z AUTO 00000KT 10SM CLR 20/18 A3000 1000 87 1900 000/00 RMK AO2 TSNO
94908KDBQ DBQ20030729200510407/29/03 20:05:31  5-MIN KDBQ 300205Z AUTO 17003KT 10SM CLR 21/18 A3000 1010 84 1900 170/03 RMK AO2 TSNO
94908KDBQ DBQ20030729201010407/29/03 20:10:31  5-MIN KDBQ 300210Z AUTO 19003KT 10SM CLR 21/18 A3000 1000 84 1900 190/03 RMK AO2 TSNO
94908KDBQ DBQ20030729201510407/29/03 20:15:31  5-MIN KDBQ 300215Z AUTO 00000KT 10SM CLR 21/18 A3001 1000 84 1900 000/00 RMK AO2 TSNO
94908KDBQ DBQ20030729202010407/29/03 20:20:31  5-MIN KDBQ 300220Z AUTO 20003KT 10SM CLR 21/18 A3001 1000 84 1900 200/03 RMK AO2 TSNO
94908KDBQ DBQ20030729202510407/29/03 20:25:31  5-MIN KDBQ 300225Z AUTO 19003KT 10SM CLR 20/17 A3001 1000 84 1900 190/03 RMK AO2 TSNO
94908KDBQ DBQ20030729203010407/29/03 20:30:31  5-MIN KDBQ 300230Z AUTO 19003KT 10SM CLR 20/17 A3001 1000 84 1900 190/03 RMK AO2 TSNO
94908KDBQ DBQ20030729203510407/29/03 20:35:31  5-MIN KDBQ 300235Z AUTO 20003KT 10SM CLR 20/17 A3001 1000 84 1800 200/03 RMK AO2 TSNO
94908KDBQ DBQ20030729204010407/29/03 20:40:31  5-MIN KDBQ 300240Z AUTO 19003KT 10SM CLR 20/17 A3001 1000 84 1900 190/03 RMK AO2 TSNO
94908KDBQ DBQ20030729204510407/29/03 20:45:31  5-MIN KDBQ 300245Z AUTO 19003KT 10SM CLR 19/17 A3001 1000 87 1800 190/03 RMK AO2 TSNO
94908KDBQ DBQ20030729205012707/29/03 20:50:31  5-MIN KDBQ 300250Z AUTO 19003KT 10SM CLR 19/17 A3001 1000 87 1800 190/03 RMK AO2 SLP156 T01940172 56016 TSNO
94908KDBQ DBQ20030729205512707/29/03 20:55:31  5-MIN KDBQ 300255Z AUTO 16005KT 10SM CLR 19/17 A3001 1000 87 1800 150/05 RMK AO2 SLP155 T01940172 51012 TSNO
94908KDBQ DBQ20030729210010407/29/03 21:00:31  5-MIN KDBQ 300300Z AUTO 15007KT 10SM CLR 19/17 A3000 1000 90 1700 140/07 RMK AO2 TSNO
94908KDBQ DBQ20030729210510407/29/03 21:05:31  5-MIN KDBQ 300305Z AUTO 17006KT 10SM CLR 20/17 A3000 1000 84 1900 170/06 RMK AO2 TSNO
94908KDBQ DBQ20030729211010407/29/03 21:10:31  5-MIN KDBQ 300310Z AUTO 15006KT 10SM CLR 20/17 A3001 1000 84 1900 140/06 RMK AO2 TSNO
94908KDBQ DBQ20030729211510407/29/03 21:15:31  5-MIN KDBQ 300315Z AUTO 15005KT 10SM CLR 20/17 A3001 1000 84 1900 150/05 RMK AO2 TSNO
94908KDBQ DBQ20030729212010407/29/03 21:20:31  5-MIN KDBQ 300320Z AUTO 16005KT 10SM CLR 20/17 A3001 1000 84 1900 160/05 RMK AO2 TSNO
94908KDBQ DBQ20030729212510407/29/03 21:25:31  5-MIN KDBQ 300325Z AUTO 16006KT 10SM CLR 20/17 A3001 1000 81 1900 160/06 RMK AO2 TSNO
94908KDBQ DBQ20030729213010407/29/03 21:30:31  5-MIN KDBQ 300330Z AUTO 16005KT 10SM CLR 20/17 A3001 1000 81 1900 160/05 RMK AO2 TSNO
94908KDBQ DBQ20030729213510407/29/03 21:35:31  5-MIN KDBQ 300335Z AUTO 16005KT 10SM CLR 20/17 A3001 1000 81 1900 160/05 RMK AO2 TSNO
94908KDBQ DBQ20030729214010407/29/03 21:40:31  5-MIN KDBQ 300340Z AUTO 16005KT 10SM CLR 20/17 A3001 1000 81 1800 160/05 RMK AO2 TSNO
94908KDBQ DBQ20030729214510407/29/03 21:45:31  5-MIN KDBQ 300345Z AUTO 21004KT 10SM CLR 19/17 A3001 1000 84 1800 210/04 RMK AO2 TSNO
94908KDBQ DBQ20030729215012007/29/03 21:50:31  5-MIN KDBQ 300350Z AUTO 20004KT 10SM CLR 19/17 A3001 990 84 1800 200/04 RMK AO2 SLP157 T01940167 TSNO
94908KDBQ DBQ20030729215512007/29/03 21:55:31  5-MIN KDBQ 300355Z AUTO 19004KT 10SM CLR 19/17 A3001 990 84 1800 180/04 RMK AO2 SLP158 T01940167 TSNO
94908KDBQ DBQ20030729220010307/29/03 22:00:31  5-MIN KDBQ 300400Z AUTO 18004KT 10SM CLR 19/17 A3001 990 84 1800 180/04 RMK AO2 TSNO
94908KDBQ DBQ20030729220510307/29/03 22:05:31  5-MIN KDBQ 300405Z AUTO 20003KT 10SM CLR 19/17 A3001 990 87 1800 200/03 RMK AO2 TSNO
94908KDBQ DBQ20030729221010307/29/03 22:10:31  5-MIN KDBQ 300410Z AUTO 19004KT 9SM CLR 19/17 A3001 1000 87 1800 190/04 RMK AO2 TSNO
94908KDBQ DBQ20030729221510207/29/03 22:15:31  5-MIN KDBQ 300415Z AUTO 19004KT 9SM CLR 19/17 A3001 990 87 1800 190/04 RMK AO2 TSNO
94908KDBQ DBQ20030729222010207/29/03 22:20:31  5-MIN KDBQ 300420Z AUTO 19004KT 9SM CLR 19/17 A3001 990 87 1800 180/04 RMK AO2 TSNO
94908KDBQ DBQ20030729222510507/29/03 22:25:31  5-MIN KDBQ 300425Z AUTO 19005KT 9SM FEW110 19/17 A3001 990 90 1700 190/05 RMK AO2 TSNO
94908KDBQ DBQ20030729223010507/29/03 22:30:31  5-MIN KDBQ 300430Z AUTO 19005KT 9SM SCT100 19/17 A3001 990 87 1800 190/05 RMK AO2 TSNO
94908KDBQ DBQ20030729223510507/29/03 22:35:31  5-MIN KDBQ 300435Z AUTO 19005KT 9SM SCT100 19/17 A3001 990 90 1700 190/05 RMK AO2 TSNO
94908KDBQ DBQ20030729224010507/29/03 22:40:31  5-MIN KDBQ 300440Z AUTO 19004KT 9SM FEW100 19/17 A3001 990 87 1700 190/04 RMK AO2 TSNO
94908KDBQ DBQ20030729224510507/29/03 22:45:31  5-MIN KDBQ 300445Z AUTO 20003KT 9SM FEW100 19/17 A3002 990 87 1700 200/03 RMK AO2 TSNO
94908KDBQ DBQ20030729225012207/29/03 22:50:31  5-MIN KDBQ 300450Z AUTO VRB03KT 9SM FEW100 18/17 A3002 990 90 1600 VRB/03 RMK AO2 SLP159 T01830167 TSNO
94908KDBQ DBQ20030729225512207/29/03 22:55:31  5-MIN KDBQ 300455Z AUTO 21004KT 9SM FEW100 18/17 A3002 990 93 1600 210/04 RMK AO2 SLP160 T01780167 TSNO
94908KDBQ DBQ20030729230010507/29/03 23:00:31  5-MIN KDBQ 300500Z AUTO 21004KT 9SM FEW100 18/17 A3002 980 90 1600 210/04 RMK AO2 TSNO
94908KDBQ DBQ20030729230510507/29/03 23:05:31  5-MIN KDBQ 300505Z AUTO 19004KT 9SM SCT100 18/17 A3002 990 90 1600 190/04 RMK AO2 TSNO
94908KDBQ DBQ20030729231010507/29/03 23:10:31  5-MIN KDBQ 300510Z AUTO 20004KT 9SM BKN100 19/17 A3002 980 87 1700 200/04 RMK AO2 TSNO
94908KDBQ DBQ20030729231510507/29/03 23:15:31  5-MIN KDBQ 300515Z AUTO VRB06KT 9SM BKN100 19/17 A3002 980 87 1700 VRB/06 RMK AO2 TSNO
94908KDBQ DBQ20030729232010507/29/03 23:20:31  5-MIN KDBQ 300520Z AUTO 21004KT 9SM SCT100 19/17 A3002 980 90 1700 210/04 RMK AO2 TSNO
94908KDBQ DBQ20030729232510507/29/03 23:25:31  5-MIN KDBQ 300525Z AUTO 21004KT 9SM SCT100 19/17 A3002 980 90 1700 210/04 RMK AO2 TSNO
94908KDBQ DBQ20030729233010507/29/03 23:30:31  5-MIN KDBQ 300530Z AUTO 21004KT 8SM SCT100 18/17 A3003 980 90 1600 210/04 RMK AO2 TSNO
94908KDBQ DBQ20030729233510507/29/03 23:35:31  5-MIN KDBQ 300535Z AUTO 20004KT 8SM SCT100 18/17 A3002 980 90 1600 200/04 RMK AO2 TSNO
94908KDBQ DBQ20030729234010507/29/03 23:40:31  5-MIN KDBQ 300540Z AUTO 21004KT 9SM SCT100 18/17 A3003 980 90 1600 210/04 RMK AO2 TSNO
94908KDBQ DBQ20030729234510507/29/03 23:45:31  5-MIN KDBQ 300545Z AUTO 21004KT 9SM SCT100 18/17 A3003 980 93 1600 210/04 RMK AO2 TSNO
94908KDBQ DBQ20030729235015007/29/03 23:50:31  5-MIN KDBQ 300550Z AUTO 20004KT 8SM SCT100 18/17 A3003 980 90 1600 200/04 RMK AO2 SLP162 T01830167 10244 20178 402780144 51012 TSNO
94908KDBQ DBQ20030729235515007/29/03 23:55:31  5-MIN KDBQ 300555Z AUTO 20005KT 8SM SCT100 18/17 A3003 980 90 1600 200/05 RMK AO2 SLP162 T01830167 10244 20178 402780144 53006 TSNO
94908KDBQ DBQ20030730000010507/30/03 00:00:31  5-MIN KDBQ 300600Z AUTO 20005KT 8SM SCT110 19/17 A3003 980 90 1700 200/05 RMK AO2 TSNO
94908KDBQ DBQ20030730000510507/30/03 00:05:31  5-MIN KDBQ 300605Z AUTO 20004KT 8SM BKN110 18/17 A3002 980 93 1600 200/04 RMK AO2 TSNO
94908KDBQ DBQ20030730001010507/30/03 00:10:31  5-MIN KDBQ 300610Z AUTO 20004KT 8SM SCT110 18/17 A3002 990 93 1600 200/04 RMK AO2 TSNO
94908KDBQ DBQ20030730001510507/30/03 00:15:31  5-MIN KDBQ 300615Z AUTO 21004KT 7SM FEW110 19/17 A3002 980 90 1700 200/04 RMK AO2 TSNO
94908KDBQ DBQ20030730002010507/30/03 00:20:31  5-MIN KDBQ 300620Z AUTO 20004KT 7SM FEW110 18/17 A3002 980 93 1600 200/04 RMK AO2 TSNO
94908KDBQ DBQ20030730002510507/30/03 00:25:31  5-MIN KDBQ 300625Z AUTO 19004KT 7SM FEW110 18/17 A3002 990 93 1600 190/04 RMK AO2 TSNO
94908KDBQ DBQ20030730003010507/30/03 00:30:31  5-MIN KDBQ 300630Z AUTO 20004KT 7SM FEW110 19/17 A3002 990 90 1700 200/04 RMK AO2 TSNO
94908KDBQ DBQ20030730003510207/30/03 00:35:31  5-MIN KDBQ 300635Z AUTO 19004KT 7SM CLR 19/17 A3002 990 90 1700 190/04 RMK AO2 TSNO
94908KDBQ DBQ20030730004010207/30/03 00:40:31  5-MIN KDBQ 300640Z AUTO 19005KT 7SM CLR 19/17 A3002 990 90 1700 190/05 RMK AO2 TSNO
94908KDBQ DBQ20030730004510507/30/03 00:45:31  5-MIN KDBQ 300645Z AUTO 18005KT 6SM BR CLR 19/17 A3002 990 90 1700 180/05 RMK AO2 TSNO
94908KDBQ DBQ20030730005012207/30/03 00:50:31  5-MIN KDBQ 300650Z AUTO 19005KT 6SM BR CLR 18/17 A3002 990 93 1600 190/05 RMK AO2 SLP160 T01830172 TSNO
94908KDBQ DBQ20030730005512207/30/03 00:55:31  5-MIN KDBQ 300655Z AUTO 20004KT 6SM BR CLR 18/17 A3002 990 93 1600 200/04 RMK AO2 SLP159 T01830172 TSNO
94908KDBQ DBQ20030730010010507/30/03 01:00:31  5-MIN KDBQ 300700Z AUTO 22004KT 6SM BR CLR 18/17 A3002 990 93 1600 220/04 RMK AO2 TSNO
94908KDBQ DBQ20030730010510807/30/03 01:05:31  5-MIN KDBQ 300705Z AUTO 22004KT 6SM BR FEW110 18/17 A3002 990 96 1600 210/04 RMK AO2 TSNO
94908KDBQ DBQ20030730011010807/30/03 01:10:31  5-MIN KDBQ 300710Z AUTO 20004KT 6SM BR SCT110 18/17 A3002 990 96 1600 200/04 RMK AO2 TSNO
94908KDBQ DBQ20030730011510807/30/03 01:15:31  5-MIN KDBQ 300715Z AUTO 20003KT 6SM BR BKN110 18/17 A3002 990 93 1600 200/03 RMK AO2 TSNO
94908KDBQ DBQ20030730012010807/30/03 01:20:31  5-MIN KDBQ 300720Z AUTO 20004KT 6SM BR BKN110 18/17 A3002 990 93 1600 200/04 RMK AO2 TSNO
94908KDBQ DBQ20030730012510807/30/03 01:25:31  5-MIN KDBQ 300725Z AUTO 19004KT 6SM BR BKN110 18/17 A3002 990 93 1700 190/04 RMK AO2 TSNO
94908KDBQ DBQ20030730013010807/30/03 01:30:31  5-MIN KDBQ 300730Z AUTO 19004KT 5SM BR OVC110 18/18 A3001 990 96 1700 190/04 RMK AO2 TSNO
94908KDBQ DBQ20030730013510807/30/03 01:35:31  5-MIN KDBQ 300735Z AUTO 19004KT 5SM BR OVC110 19/18 A3001 990 93 1700 190/04 RMK AO2 TSNO
94908KDBQ DBQ20030730014010807/30/03 01:40:31  5-MIN KDBQ 300740Z AUTO 19004KT 5SM BR OVC110 19/18 A3001 990 93 1700 190/04 RMK AO2 TSNO
94908KDBQ DBQ20030730014510907/30/03 01:45:31  5-MIN KDBQ 300745Z AUTO 19005KT 5SM BR OVC110 19/18 A3001 1000 93 1700 190/05 RMK AO2 TSNO
94908KDBQ DBQ20030730015012607/30/03 01:50:31  5-MIN KDBQ 300750Z AUTO 18005KT 5SM BR OVC120 19/18 A3001 1000 93 1700 180/05 RMK AO2 SLP155 T01890178 TSNO
94908KDBQ DBQ20030730015512607/30/03 01:55:31  5-MIN KDBQ 300755Z AUTO 19005KT 5SM BR BKN120 19/18 A3001 1000 93 1700 190/05 RMK AO2 SLP156 T01890178 TSNO
94908KDBQ DBQ20030730020010907/30/03 02:00:31  5-MIN KDBQ 300800Z AUTO 20005KT 5SM BR BKN120 19/18 A3001 1000 93 1800 190/05 RMK AO2 TSNO
94908KDBQ DBQ20030730020510807/30/03 02:05:31  5-MIN KDBQ 300805Z AUTO 20005KT 5SM BR OVC120 19/18 A3001 990 93 1800 200/05 RMK AO2 TSNO
94908KDBQ DBQ20030730021010807/30/03 02:10:31  5-MIN KDBQ 300810Z AUTO 21005KT 5SM BR OVC120 19/18 A3001 990 97 1700 200/05 RMK AO2 TSNO
94908KDBQ DBQ20030730021510907/30/03 02:15:31  5-MIN KDBQ 300815Z AUTO 21005KT 5SM BR OVC120 19/18 A3001 1000 93 1700 210/05 RMK AO2 TSNO
94908KDBQ DBQ20030730022010807/30/03 02:20:31  5-MIN KDBQ 300820Z AUTO 21004KT 5SM BR OVC120 18/18 A3001 990 96 1700 210/04 RMK AO2 TSNO
94908KDBQ DBQ20030730022510807/30/03 02:25:31  5-MIN KDBQ 300825Z AUTO 20004KT 5SM BR OVC120 18/17 A3001 990 93 1700 200/04 RMK AO2 TSNO
94908KDBQ DBQ20030730023010907/30/03 02:30:31  5-MIN KDBQ 300830Z AUTO 20003KT 5SM BR OVC120 18/18 A3001 1000 96 1700 200/03 RMK AO2 TSNO
94908KDBQ DBQ20030730023510807/30/03 02:35:31  5-MIN KDBQ 300835Z AUTO 21004KT 5SM BR OVC120 18/18 A3001 990 96 1700 210/04 RMK AO2 TSNO
94908KDBQ DBQ20030730024010807/30/03 02:40:31  5-MIN KDBQ 300840Z AUTO 20003KT 5SM BR OVC120 18/18 A3001 990 96 1700 200/03 RMK AO2 TSNO
94908KDBQ DBQ20030730024510807/30/03 02:45:31  5-MIN KDBQ 300845Z AUTO 19004KT 5SM BR OVC120 18/18 A3001 990 96 1700 190/04 RMK AO2 TSNO
94908KDBQ DBQ20030730025013107/30/03 02:50:31  5-MIN KDBQ 300850Z AUTO 19004KT 5SM BR OVC120 18/18 A3001 990 96 1700 190/04 RMK AO2 SLP157 T01830178 53006 TSNO
94908KDBQ DBQ20030730025513207/30/03 02:55:31  5-MIN KDBQ 300855Z AUTO 20004KT 5SM BR BKN120 19/18 A3001 1000 93 1700 200/04 RMK AO2 SLP156 T01890178 56005 TSNO
94908KDBQ DBQ20030730030010907/30/03 03:00:31  5-MIN KDBQ 300900Z AUTO 21004KT 5SM BR OVC120 19/18 A3001 1000 93 1700 210/04 RMK AO2 TSNO
94908KDBQ DBQ20030730030510907/30/03 03:05:31  5-MIN KDBQ 300905Z AUTO 21004KT 5SM BR OVC120 18/18 A3001 1000 96 1700 210/04 RMK AO2 TSNO
94908KDBQ DBQ20030730031010907/30/03 03:10:31  5-MIN KDBQ 300910Z AUTO 21003KT 5SM BR OVC120 18/18 A3001 1000 96 1700 210/03 RMK AO2 TSNO
94908KDBQ DBQ20030730031510907/30/03 03:15:31  5-MIN KDBQ 300915Z AUTO 21003KT 5SM BR OVC120 18/17 A3001 1000 93 1700 200/03 RMK AO2 TSNO
94908KDBQ DBQ20030730032010907/30/03 03:20:31  5-MIN KDBQ 300920Z AUTO 19004KT 5SM BR BKN120 18/17 A3001 1000 96 1600 190/04 RMK AO2 TSNO
94908KDBQ DBQ20030730032510907/30/03 03:25:31  5-MIN KDBQ 300925Z AUTO 19004KT 4SM BR BKN120 18/17 A3001 1000 93 1700 180/04 RMK AO2 TSNO
94908KDBQ DBQ20030730033010907/30/03 03:30:31  5-MIN KDBQ 300930Z AUTO 20005KT 4SM BR BKN120 18/18 A3001 1000 96 1700 190/05 RMK AO2 TSNO
94908KDBQ DBQ20030730033510907/30/03 03:35:31  5-MIN KDBQ 300935Z AUTO 20005KT 4SM BR BKN120 18/18 A3001 1000 96 1700 200/05 RMK AO2 TSNO
94908KDBQ DBQ20030730034010907/30/03 03:40:31  5-MIN KDBQ 300940Z AUTO 20005KT 4SM BR BKN120 18/17 A3001 1000 93 1700 200/05 RMK AO2 TSNO
94908KDBQ DBQ20030730034510907/30/03 03:45:31  5-MIN KDBQ 300945Z AUTO 19005KT 5SM BR SCT120 18/17 A3001 1000 93 1700 190/05 RMK AO2 TSNO
94908KDBQ DBQ20030730035012607/30/03 03:50:31  5-MIN KDBQ 300950Z AUTO 19005KT 4SM BR SCT120 18/17 A3000 1000 93 1700 190/05 RMK AO2 SLP154 T01830172 TSNO
94908KDBQ DBQ20030730035512607/30/03 03:55:31  5-MIN KDBQ 300955Z AUTO 19005KT 4SM BR FEW120 18/17 A3001 1000 93 1700 190/05 RMK AO2 SLP155 T01830172 TSNO
94908KDBQ DBQ20030730040010907/30/03 04:00:31  5-MIN KDBQ 301000Z AUTO 19005KT 4SM BR FEW120 18/17 A3001 1000 93 1700 190/05 RMK AO2 TSNO
94908KDBQ DBQ20030730040510907/30/03 04:05:31  5-MIN KDBQ 301005Z AUTO 18005KT 4SM BR FEW120 18/17 A3001 1000 93 1700 180/05 RMK AO2 TSNO
94908KDBQ DBQ20030730041010907/30/03 04:10:31  5-MIN KDBQ 301010Z AUTO 19004KT 4SM BR FEW120 18/17 A3001 1000 93 1700 190/04 RMK AO2 TSNO
94908KDBQ DBQ20030730041510607/30/03 04:15:31  5-MIN KDBQ 301015Z AUTO 20005KT 4SM BR CLR 18/17 A3001 1000 93 1700 200/05 RMK AO2 TSNO
94908KDBQ DBQ20030730042010607/30/03 04:20:31  5-MIN KDBQ 301020Z AUTO 21005KT 4SM BR CLR 18/17 A3001 1000 93 1700 210/05 RMK AO2 TSNO
94908KDBQ DBQ20030730042510607/30/03 04:25:31  5-MIN KDBQ 301025Z AUTO 20004KT 5SM BR CLR 18/17 A3001 1000 96 1600 200/04 RMK AO2 TSNO
94908KDBQ DBQ20030730043010507/30/03 04:30:31  5-MIN KDBQ 301030Z AUTO 20004KT 4SM BR CLR 18/17 A3001 990 93 1600 200/04 RMK AO2 TSNO
94908KDBQ DBQ20030730043510607/30/03 04:35:31  5-MIN KDBQ 301035Z AUTO 20004KT 4SM BR CLR 18/17 A3001 1000 93 1600 200/04 RMK AO2 TSNO
94908KDBQ DBQ20030730044010607/30/03 04:40:31  5-MIN KDBQ 301040Z AUTO 19004KT 4SM BR CLR 18/17 A3001 1000 93 1600 190/04 RMK AO2 TSNO
94908KDBQ DBQ20030730044510607/30/03 04:45:31  5-MIN KDBQ 301045Z AUTO 18004KT 3SM BR CLR 18/17 A3001 1000 93 1600 180/04 RMK AO2 TSNO
94908KDBQ DBQ20030730045012707/30/03 04:50:31  5-MIN KDBQ 301050Z AUTO 19005KT 2 1/2SM BR CLR 17/17 A3001 1000 96 1500 190/05 RMK AO2 SLP156 T01720167 TSNO
94908KDBQ DBQ20030730045512707/30/03 04:55:31  5-MIN KDBQ 301055Z AUTO 19005KT 2 1/2SM BR CLR 17/17 A3001 1000 96 1500 190/05 RMK AO2 SLP156 T01720167 TSNO
94908KDBQ DBQ20030730050010007/30/03 05:00:31  5-MIN KDBQ 301100Z 20006KT 2 1/2SM BR CLR 17/17 A3001 1000 96 1500 200/06 RMK AO2
94908KDBQ DBQ20030730050510007/30/03 05:05:31  5-MIN KDBQ 301105Z 20006KT 2 1/2SM BR CLR 17/17 A3001 1000 96 1500 200/06 RMK AO2
94908KDBQ DBQ20030730051010007/30/03 05:10:31  5-MIN KDBQ 301110Z 19005KT 2 1/2SM BR CLR 17/17 A3001 1000 96 1500 190/05 RMK AO2
94908KDBQ DBQ20030730051510007/30/03 05:15:31  5-MIN KDBQ 301115Z 20004KT 2 1/2SM BR CLR 17/17 A3001 1000 96 1500 200/04 RMK AO2
94908KDBQ DBQ20030730052010007/30/03 05:20:31  5-MIN KDBQ 301120Z 20006KT 2 1/2SM BR CLR 18/17 A3001 1000 93 1600 200/06 RMK AO2
94908KDBQ DBQ20030730052510007/30/03 05:25:31  5-MIN KDBQ 301125Z 20006KT 2 1/2SM BR CLR 18/17 A3001 1000 96 1600 200/06 RMK AO2
94908KDBQ DBQ20030730053010007/30/03 05:30:31  5-MIN KDBQ 301130Z 20005KT 2 1/2SM BR CLR 18/17 A3001 1000 93 1600 200/05 RMK AO2
94908KDBQ DBQ20030730053510007/30/03 05:35:31  5-MIN KDBQ 301135Z 20005KT 2 1/2SM BR CLR 18/17 A3001 1000 93 1600 200/05 RMK AO2
94908KDBQ DBQ20030730054010007/30/03 05:40:31  5-MIN KDBQ 301140Z 20004KT 2 1/2SM BR CLR 18/17 A3001 1000 96 1600 200/04 RMK AO2
94908KDBQ DBQ20030730054510007/30/03 05:45:31  5-MIN KDBQ 301145Z 20005KT 2 1/2SM BR CLR 18/17 A3000 1000 96 1600 200/05 RMK AO2
94908KDBQ DBQ20030730055013507/30/03 05:50:31  5-MIN KDBQ 301150Z 22005KT 2 1/2SM BR CLR 18/17 A3001 1000 93 1700 210/05 RMK AO2 SLP155 T01830172 10194 20172 56005
94908KDBQ DBQ20030730055513107/30/03 05:55:31  5-MIN KDBQ 301155Z 22005KT 3SM BR CLR 18/17 A3001 1000 96 1600 220/05 RMK AO2 SLP156 T01780172 10194 20172 55000
94908KDBQ DBQ20030730060009907/30/03 06:00:31  5-MIN KDBQ 301200Z 22005KT 2 1/2SM BR CLR 18/17 A3001 990 96 1600 210/05 RMK AO2
94908KDBQ DBQ20030730060509507/30/03 06:05:31  5-MIN KDBQ 301205Z 22005KT 3SM BR CLR 18/18 A3001 990 96 1700 220/05 RMK AO2
94908KDBQ DBQ20030730061009507/30/03 06:10:31  5-MIN KDBQ 301210Z 22005KT 3SM BR CLR 19/18 A3001 990 93 1700 220/05 RMK AO2
94908KDBQ DBQ20030730061509507/30/03 06:15:31  5-MIN KDBQ 301215Z 23005KT 3SM BR CLR 19/18 A3002 990 93 1700 230/05 RMK AO2
94908KDBQ DBQ20030730062009507/30/03 06:20:31  5-MIN KDBQ 301220Z 23005KT 3SM BR CLR 19/18 A3002 980 93 1700 230/05 RMK AO2
94908KDBQ DBQ20030730062509507/30/03 06:25:31  5-MIN KDBQ 301225Z 22006KT 3SM BR CLR 19/18 A3003 980 93 1700 220/06 RMK AO2
94908KDBQ DBQ20030730063009507/30/03 06:30:31  5-MIN KDBQ 301230Z 22006KT 3SM BR CLR 19/18 A3003 980 90 1800 220/06 RMK AO2
94908KDBQ DBQ20030730063509507/30/03 06:35:31  5-MIN KDBQ 301235Z 21006KT 3SM BR CLR 19/18 A3003 980 93 1800 210/06 RMK AO2
94908KDBQ DBQ20030730064009507/30/03 06:40:31  5-MIN KDBQ 301240Z 22004KT 3SM BR CLR 19/18 A3003 980 93 1800 220/04 RMK AO2
94908KDBQ DBQ20030730064509507/30/03 06:45:31  5-MIN KDBQ 301245Z 22005KT 3SM BR CLR 19/18 A3002 980 90 1800 220/05 RMK AO2
94908KDBQ DBQ20030730065011207/30/03 06:50:31  5-MIN KDBQ 301250Z 22006KT 4SM BR CLR 19/18 A3002 980 93 1800 220/06 RMK AO2 SLP163 T01940183
94908KDBQ DBQ20030730065511207/30/03 06:55:31  5-MIN KDBQ 301255Z 22006KT 5SM BR CLR 19/18 A3002 980 90 1800 210/06 RMK AO2 SLP162 T01940178
94908KDBQ DBQ20030730070009507/30/03 07:00:31  5-MIN KDBQ 301300Z 21006KT 5SM BR CLR 20/18 A3002 980 90 1800 210/06 RMK AO2
94908KDBQ DBQ20030730070509507/30/03 07:05:31  5-MIN KDBQ 301305Z 21005KT 5SM BR CLR 20/18 A3002 980 90 1800 210/05 RMK AO2
94908KDBQ DBQ20030730071009507/30/03 07:10:31  5-MIN KDBQ 301310Z 21006KT 5SM BR CLR 21/18 A3002 980 87 1900 210/06 RMK AO2
94908KDBQ DBQ20030730071509507/30/03 07:15:31  5-MIN KDBQ 301315Z 21007KT 5SM BR CLR 21/18 A3003 980 87 1900 210/07 RMK AO2
94908KDBQ DBQ20030730072009807/30/03 07:20:31  5-MIN KDBQ 301320Z 22005KT 6SM BR FEW050 21/18 A3002 980 87 1900 220/05 RMK AO2
94908KDBQ DBQ20030730072509807/30/03 07:25:31  5-MIN KDBQ 301325Z 22006KT 6SM BR FEW050 21/18 A3003 980 87 1900 220/06 RMK AO2
94908KDBQ DBQ20030730073009807/30/03 07:30:31  5-MIN KDBQ 301330Z 23006KT 6SM BR FEW050 21/18 A3003 980 87 1900 230/06 RMK AO2
94908KDBQ DBQ20030730073509807/30/03 07:35:31  5-MIN KDBQ 301335Z 22007KT 6SM BR FEW050 21/18 A3002 980 87 1900 220/07 RMK AO2
94908KDBQ DBQ20030730074009807/30/03 07:40:31  5-MIN KDBQ 301340Z 22007KT 6SM HZ FEW050 21/18 A3003 980 84 2000 220/07 RMK AO2
94908KDBQ DBQ20030730074509807/30/03 07:45:31  5-MIN KDBQ 301345Z 22008KT 6SM HZ FEW050 21/18 A3003 980 84 2000 220/08 RMK AO2
94908KDBQ DBQ20030730075011207/30/03 07:50:31  5-MIN KDBQ 301350Z 21008KT 7SM FEW055 21/18 A3003 980 84 2000 210/08 RMK AO2 SLP163 T02110183
94908KDBQ DBQ20030730075511207/30/03 07:55:31  5-MIN KDBQ 301355Z 21007KT 7SM FEW055 21/18 A3003 980 84 2000 210/07 RMK AO2 SLP163 T02110183
94908KDBQ DBQ20030730080009507/30/03 08:00:31  5-MIN KDBQ 301400Z 22009KT 7SM FEW055 21/18 A3003 980 84 2000 210/09 RMK AO2
94908KDBQ DBQ20030730080509207/30/03 08:05:31  5-MIN KDBQ 301405Z 21009KT 7SM CLR 22/18 A3003 980 81 2000 210/09 RMK AO2
94908KDBQ DBQ20030730081009207/30/03 08:10:31  5-MIN KDBQ 301410Z 21010KT 7SM CLR 22/19 A3003 980 84 2000 210/10 RMK AO2
94908KDBQ DBQ20030730081509207/30/03 08:15:31  5-MIN KDBQ 301415Z 21011KT 8SM CLR 22/18 A3003 980 78 2100 210/11 RMK AO2
94908KDBQ DBQ20030730082009207/30/03 08:20:31  5-MIN KDBQ 301420Z 21011KT 8SM CLR 22/18 A3003 970 78 2100 210/11 RMK AO2
94908KDBQ DBQ20030730082509207/30/03 08:25:31  5-MIN KDBQ 301425Z 22008KT 8SM CLR 22/18 A3003 980 78 2100 220/08 RMK AO2
94908KDBQ DBQ20030730083009207/30/03 08:30:31  5-MIN KDBQ 301430Z 21011KT 8SM CLR 22/19 A3003 980 81 2100 210/11 RMK AO2
94908KDBQ DBQ20030730083509207/30/03 08:35:31  5-MIN KDBQ 301435Z 20011KT 8SM CLR 23/18 A3003 980 76 2100 190/11 RMK AO2
94908KDBQ DBQ20030730084009207/30/03 08:40:31  5-MIN KDBQ 301440Z 21010KT 8SM CLR 22/18 A3003 980 78 2100 210/10 RMK AO2
94908KDBQ DBQ20030730084509207/30/03 08:45:31  5-MIN KDBQ 301445Z 20012KT 9SM CLR 22/18 A3003 980 78 2100 200/12 RMK AO2
94908KDBQ DBQ20030730085011507/30/03 08:50:31  5-MIN KDBQ 301450Z 21010KT 9SM CLR 22/18 A3003 980 78 2100 210/10 RMK AO2 SLP164 T02220183 55000
94908KDBQ DBQ20030730085511507/30/03 08:55:31  5-MIN KDBQ 301455Z 20009KT 9SM CLR 23/18 A3003 980 76 2100 200/09 RMK AO2 SLP164 T02280183 51007
94908KDBQ DBQ20030730090009207/30/03 09:00:31  5-MIN KDBQ 301500Z 21010KT 9SM CLR 23/19 A3003 970 78 2100 210/10 RMK AO2
94908KDBQ DBQ20030730090509207/30/03 09:05:31  5-MIN KDBQ 301505Z 20010KT 9SM CLR 23/19 A3003 980 78 2100 200/10 RMK AO2
94908KDBQ DBQ20030730091009507/30/03 09:10:31  5-MIN KDBQ 301510Z 21010KT 9SM FEW070 23/18 A3003 980 76 2100 210/10 RMK AO2
94908KDBQ DBQ20030730091509507/30/03 09:15:31  5-MIN KDBQ 301515Z 21012KT 9SM FEW075 23/19 A3003 980 76 2200 210/12 RMK AO2
94908KDBQ DBQ20030730092010207/30/03 09:20:31  5-MIN KDBQ 301520Z 21013KT 9SM FEW048 SCT070 23/19 A3003 980 76 2200 210/13 RMK AO2
94908KDBQ DBQ20030730092510207/30/03 09:25:31  5-MIN KDBQ 301525Z 21013KT 9SM FEW050 SCT075 23/18 A3003 980 76 2100 210/13 RMK AO2
94908KDBQ DBQ20030730093009607/30/03 09:30:31  5-MIN KDBQ 301530Z 20012KT 10SM FEW050 23/19 A3003 980 76 2200 200/12 RMK AO2
94908KDBQ DBQ20030730093509607/30/03 09:35:31  5-MIN KDBQ 301535Z 22013KT 10SM FEW050 24/19 A3003 970 73 2300 220/13 RMK AO2
94908KDBQ DBQ20030730094009607/30/03 09:40:31  5-MIN KDBQ 301540Z 22014KT 10SM FEW050 23/18 A3004 970 73 2200 220/14 RMK AO2
94908KDBQ DBQ20030730094509607/30/03 09:45:31  5-MIN KDBQ 301545Z 22013KT 10SM FEW050 23/18 A3004 970 73 2200 220/13 RMK AO2
94908KDBQ DBQ20030730095011307/30/03 09:50:31  5-MIN KDBQ 301550Z 22013KT 10SM FEW090 23/18 A3004 970 73 2200 220/13 RMK AO2 SLP166 T02330183
94908KDBQ DBQ20030730095511307/30/03 09:55:31  5-MIN KDBQ 301555Z 22013KT 10SM FEW090 24/19 A3004 970 73 2300 220/13 RMK AO2 SLP167 T02390189
94908KDBQ DBQ20030730100009607/30/03 10:00:31  5-MIN KDBQ 301600Z 22012KT 10SM FEW045 24/18 A3004 970 71 2300 220/12 RMK AO2
94908KDBQ DBQ20030730100509507/30/03 10:05:31  5-MIN KDBQ 301605Z 22013KT 9SM SCT045 23/18 A3004 970 73 2200 220/13 RMK AO2
94908KDBQ DBQ20030730101009507/30/03 10:10:31  5-MIN KDBQ 301610Z 21014KT 9SM BKN045 23/18 A3004 960 73 2200 210/14 RMK AO2
94908KDBQ DBQ20030730101510207/30/03 10:15:31  5-MIN KDBQ 301615Z 21012KT 9SM BKN045 BKN060 23/18 A3004 970 76 2100 210/12 RMK AO2
94908KDBQ DBQ20030730102010207/30/03 10:20:31  5-MIN KDBQ 301620Z 22011KT 9SM SCT045 BKN060 23/18 A3004 970 73 2200 220/11 RMK AO2
94908KDBQ DBQ20030730102510207/30/03 10:25:31  5-MIN KDBQ 301625Z 22012KT 9SM SCT045 BKN060 23/18 A3004 970 73 2200 220/12 RMK AO2
94908KDBQ DBQ20030730103010207/30/03 10:30:31  5-MIN KDBQ 301630Z 22014KT 9SM SCT045 BKN060 23/18 A3004 970 73 2200 220/14 RMK AO2
94908KDBQ DBQ20030730103510307/30/03 10:35:31  5-MIN KDBQ 301635Z 21014KT 10SM SCT047 BKN060 23/18 A3004 970 70 2200 210/14 RMK AO2
94908KDBQ DBQ20030730104010307/30/03 10:40:31  5-MIN KDBQ 301640Z 22013KT 10SM BKN049 BKN060 23/18 A3004 970 76 2100 220/13 RMK AO2
94908KDBQ DBQ20030730104510307/30/03 10:45:31  5-MIN KDBQ 301645Z 21013KT 10SM BKN049 BKN065 23/18 A3004 960 73 2100 210/13 RMK AO2
94908KDBQ DBQ20030730105012007/30/03 10:50:31  5-MIN KDBQ 301650Z 21013KT 10SM SCT049 BKN065 23/18 A3004 960 73 2100 210/13 RMK AO2 SLP169 T02280178
94908KDBQ DBQ20030730105512007/30/03 10:55:31  5-MIN KDBQ 301655Z 21011KT 10SM SCT049 SCT060 23/18 A3004 960 76 2100 210/11 RMK AO2 SLP169 T02280183
94908KDBQ DBQ20030730110009607/30/03 11:00:31  5-MIN KDBQ 301700Z 20013KT 10SM SCT049 23/19 A3004 960 78 2100 200/13 RMK AO2
94908KDBQ DBQ20030730110510207/30/03 11:05:31  5-MIN KDBQ 301705Z 21012KT 9SM FEW049 SCT095 23/19 A3004 970 78 2100 210/12 RMK AO2
94908KDBQ DBQ20030730111010307/30/03 11:10:31  5-MIN KDBQ 301710Z 21011KT 10SM FEW049 SCT095 24/19 A3004 970 73 2300 210/11 RMK AO2
94908KDBQ DBQ20030730111509607/30/03 11:15:31  5-MIN KDBQ 301715Z 22015KT 10SM FEW049 24/18 A3004 970 71 2300 220/15 RMK AO2
94908KDBQ DBQ20030730112011207/30/03 11:20:31  5-MIN KDBQ 301720Z 22013KT 10SM -RA FEW100 23/18 A3004 970 70 2200 220/13 RMK AO2 RAB17 P0000
94908KDBQ DBQ20030730112511207/30/03 11:25:31  5-MIN KDBQ 301725Z 23012KT 10SM -RA FEW046 23/18 A3004 970 73 2100 230/12 RMK AO2 RAB17 P0000
94908KDBQ DBQ20030730113011907/30/03 11:30:31  5-MIN KDBQ 301730Z 22013KT 10SM -RA SCT046 SCT100 23/18 A3004 970 73 2100 220/13 RMK AO2 RAB17 P0000
94908KDBQ DBQ20030730113511107/30/03 11:35:31  5-MIN KDBQ 301735Z 22012KT 9SM -RA BKN046 23/18 A3004 970 76 2100 220/12 RMK AO2 RAB17 P0000
94908KDBQ DBQ20030730114011107/30/03 11:40:31  5-MIN KDBQ 301740Z 22011KT 9SM -RA SCT046 23/18 A3004 970 76 2100 220/11 RMK AO2 RAB17 P0000
94908KDBQ DBQ20030730114511707/30/03 11:45:31  5-MIN KDBQ 301745Z 22010KT 9SM FEW024 SCT046 23/18 A3004 970 76 2100 210/10 RMK AO2 RAB17E43 P0000
94908KDBQ DBQ20030730115015907/30/03 11:50:31  5-MIN KDBQ 301750Z 23010KT 9SM -RA FEW024 SCT046 23/18 A3003 970 76 2100 230/10 RMK AO2 RAB17 SLP166 P0000 60000 T02280183 10239 20178 51007
94908KDBQ DBQ20030730115515807/30/03 11:55:31  5-MIN KDBQ 301755Z 21011KT 9SM FEW024 SCT046 23/18 A3003 980 76 2100 210/11 RMK AO2 RAB17E55 SLP165 P0000 60000 T02280183 10239 20178 50001
94908KDBQ DBQ20030730120009507/30/03 12:00:31  5-MIN KDBQ 301800Z 21012KT 9SM FEW024 23/18 A3003 980 73 2200 210/12 RMK AO2
94908KDBQ DBQ20030730120509207/30/03 12:05:31  5-MIN KDBQ 301805Z 22010KT 9SM CLR 23/18 A3003 980 76 2100 220/10 RMK AO2
94908KDBQ DBQ20030730121009207/30/03 12:10:31  5-MIN KDBQ 301810Z 21010KT 9SM CLR 23/18 A3002 980 76 2200 210/10 RMK AO2
94908KDBQ DBQ20030730121509207/30/03 12:15:31  5-MIN KDBQ 301815Z 20011KT 9SM CLR 23/18 A3002 980 73 2200 190/11 RMK AO2
94908KDBQ DBQ20030730122009207/30/03 12:20:31  5-MIN KDBQ 301820Z 20011KT 9SM CLR 23/18 A3002 990 76 2200 190/11 RMK AO2
94908KDBQ DBQ20030730122509207/30/03 12:25:31  5-MIN KDBQ 301825Z 20012KT 9SM CLR 23/18 A3002 990 76 2200 200/12 RMK AO2
94908KDBQ DBQ20030730123009207/30/03 12:30:31  5-MIN KDBQ 301830Z 21011KT 9SM CLR 23/18 A3002 990 76 2200 210/11 RMK AO2
94908KDBQ DBQ20030730123511107/30/03 12:35:31  5-MIN KDBQ 301835Z 20011KT 8SM -RA FEW018 23/18 A3002 990 76 2200 200/11 RMK AO2 RAB33 P0000
94908KDBQ DBQ20030730124011107/30/03 12:40:31  5-MIN KDBQ 301840Z 21010KT 8SM -RA FEW018 23/18 A3002 990 76 2200 210/10 RMK AO2 RAB33 P0000
94908KDBQ DBQ20030730124511107/30/03 12:45:31  5-MIN KDBQ 301845Z 21010KT 10SM FEW018 23/18 A3002 990 73 2200 210/10 RMK AO2 RAB33E44 P0000
94908KDBQ DBQ20030730125012807/30/03 12:50:31  5-MIN KDBQ 301850Z 21010KT 10SM FEW018 23/18 A3002 990 73 2200 200/10 RMK AO2 RAB33E44 SLP160 P0000 T02330183
94908KDBQ DBQ20030730125512807/30/03 12:55:31  5-MIN KDBQ 301855Z 21010KT 10SM FEW018 23/18 A3002 980 73 2200 210/10 RMK AO2 RAB33E44 SLP161 P0000 T02330183
94908KDBQ DBQ20030730130009507/30/03 13:00:31  5-MIN KDBQ 301900Z 19009KT 9SM FEW018 23/19 A3002 990 76 2200 190/09 RMK AO2
94908KDBQ DBQ20030730130509207/30/03 13:05:31  5-MIN KDBQ 301905Z 19008KT 9SM CLR 24/19 A3002 990 73 2300 190/08 RMK AO2
94908KDBQ DBQ20030730131009207/30/03 13:10:31  5-MIN KDBQ 301910Z 21010KT 9SM CLR 24/19 A3002 990 73 2300 210/10 RMK AO2
94908KDBQ DBQ20030730131509307/30/03 13:15:31  5-MIN KDBQ 301915Z 21010KT 10SM CLR 24/19 A3002 990 71 2300 210/10 RMK AO2
94908KDBQ DBQ20030730132009307/30/03 13:20:31  5-MIN KDBQ 301920Z 22009KT 10SM CLR 25/19 A3002 990 71 2400 210/09 RMK AO2
94908KDBQ DBQ20030730132509307/30/03 13:25:31  5-MIN KDBQ 301925Z 19009KT 10SM CLR 24/19 A3002 990 71 2300 190/09 RMK AO2
94908KDBQ DBQ20030730133009307/30/03 13:30:31  5-MIN KDBQ 301930Z 22007KT 10SM CLR 24/19 A3002 990 71 2300 210/07 RMK AO2
94908KDBQ DBQ20030730133509307/30/03 13:35:31  5-MIN KDBQ 301935Z 20011KT 10SM CLR 24/19 A3002 990 73 2300 200/11 RMK AO2
94908KDBQ DBQ20030730134009507/30/03 13:40:31  5-MIN KDBQ 301940Z 20009KT 9SM FEW025 24/19 A3002 990 73 2300 200/09 RMK AO2
94908KDBQ DBQ20030730134509207/30/03 13:45:31  5-MIN KDBQ 301945Z 21008KT 9SM CLR 24/19 A3002 990 71 2300 210/08 RMK AO2
94908KDBQ DBQ20030730135010907/30/03 13:50:31  5-MIN KDBQ 301950Z 20009KT 9SM CLR 24/19 A3001 990 73 2400 200/09 RMK AO2 SLP158 T02440194
94908KDBQ DBQ20030730135511007/30/03 13:55:31  5-MIN KDBQ 301955Z 20012KT 10SM CLR 24/19 A3001 990 71 2400 200/12 RMK AO2 SLP157 T02440189
94908KDBQ DBQ20030730140009307/30/03 14:00:31  5-MIN KDBQ 302000Z 21010KT 10SM CLR 24/18 A3001 990 68 2400 210/10 RMK AO2
94908KDBQ DBQ20030730140509407/30/03 14:05:31  5-MIN KDBQ 302005Z 21007KT 10SM CLR 25/18 A3001 1000 66 2400 210/07 RMK AO2
94908KDBQ DBQ20030730141009407/30/03 14:10:31  5-MIN KDBQ 302010Z 22008KT 10SM CLR 25/19 A3001 1000 68 2400 210/08 RMK AO2
94908KDBQ DBQ20030730141509407/30/03 14:15:31  5-MIN KDBQ 302015Z 22010KT 10SM CLR 25/18 A3001 1000 66 2400 220/10 RMK AO2
94908KDBQ DBQ20030730142009407/30/03 14:20:31  5-MIN KDBQ 302020Z 22009KT 10SM CLR 25/18 A3001 1000 66 2400 220/09 RMK AO2
94908KDBQ DBQ20030730142509407/30/03 14:25:31  5-MIN KDBQ 302025Z 22008KT 10SM CLR 25/19 A3001 1000 68 2400 220/08 RMK AO2
94908KDBQ DBQ20030730143009407/30/03 14:30:31  5-MIN KDBQ 302030Z 22008KT 10SM CLR 25/19 A3001 1000 68 2400 220/08 RMK AO2
94908KDBQ DBQ20030730143509407/30/03 14:35:31  5-MIN KDBQ 302035Z 21010KT 10SM CLR 25/19 A3000 1000 68 2400 210/10 RMK AO2
94908KDBQ DBQ20030730144009407/30/03 14:40:31  5-MIN KDBQ 302040Z 21010KT 10SM CLR 26/19 A3000 1000 68 2500 210/10 RMK AO2
94908KDBQ DBQ20030730144509407/30/03 14:45:31  5-MIN KDBQ 302045Z 20011KT 10SM CLR 26/19 A3000 1000 66 2500 200/11 RMK AO2
94908KDBQ DBQ20030730145012307/30/03 14:50:31  5-MIN KDBQ 302050Z 21011KT 10SM CLR 26/19 A3000 1000 66 2500 210/11 RMK AO2 SLP153 60000 T02560189 50001
94908KDBQ DBQ20030730145512307/30/03 14:55:31  5-MIN KDBQ 302055Z 19012KT 10SM CLR 26/19 A3000 1000 64 2600 190/12 RMK AO2 SLP153 60000 T02610189 58010
94908KDBQ DBQ20030730150009707/30/03 15:00:31  5-MIN KDBQ 302100Z 20012KT 10SM FEW030 26/19 A3000 1000 66 2500 200/12 RMK AO2
94908KDBQ DBQ20030730150510407/30/03 15:05:31  5-MIN KDBQ 302105Z 21011KT 10SM SCT030 SCT037 26/19 A3000 1010 68 2500 200/11 RMK AO2
94908KDBQ DBQ20030730151010407/30/03 15:10:31  5-MIN KDBQ 302110Z 20010KT 10SM SCT030 BKN040 26/19 A3000 1000 68 2500 200/10 RMK AO2
94908KDBQ DBQ20030730151510407/30/03 15:15:31  5-MIN KDBQ 302115Z 21009KT 10SM SCT030 SCT040 26/19 A3000 1010 66 2600 210/09 RMK AO2
94908KDBQ DBQ20030730152010407/30/03 15:20:31  5-MIN KDBQ 302120Z 22011KT 10SM FEW030 SCT037 26/19 A3000 1010 64 2600 210/11 RMK AO2
94908KDBQ DBQ20030730152510407/30/03 15:25:31  5-MIN KDBQ 302125Z 21011KT 10SM FEW030 BKN040 26/19 A2999 1010 64 2600 210/11 RMK AO2
94908KDBQ DBQ20030730153010407/30/03 15:30:31  5-MIN KDBQ 302130Z 20010KT 10SM FEW030 BKN040 26/19 A2999 1010 66 2500 200/10 RMK AO2
94908KDBQ DBQ20030730153510407/30/03 15:35:31  5-MIN KDBQ 302135Z 21011KT 10SM SCT038 SCT047 26/19 A2999 1010 64 2600 210/11 RMK AO2
94908KDBQ DBQ20030730154009707/30/03 15:40:31  5-MIN KDBQ 302140Z 22010KT 10SM FEW040 26/19 A2999 1010 64 2600 210/10 RMK AO2
94908KDBQ DBQ20030730154509707/30/03 15:45:31  5-MIN KDBQ 302145Z 22011KT 10SM FEW040 26/19 A2999 1010 64 2600 220/11 RMK AO2
94908KDBQ DBQ20030730155011407/30/03 15:50:31  5-MIN KDBQ 302150Z 22012KT 10SM SCT040 26/19 A2999 1010 66 2500 220/12 RMK AO2 SLP150 T02560189
94908KDBQ DBQ20030730155511407/30/03 15:55:31  5-MIN KDBQ 302155Z 20011KT 10SM SCT038 26/19 A2999 1010 64 2600 190/11 RMK AO2 SLP150 T02610189
94908KDBQ DBQ20030730160009707/30/03 16:00:31  5-MIN KDBQ 302200Z 20011KT 10SM SCT036 26/19 A2999 1020 64 2600 200/11 RMK AO2
94908KDBQ DBQ20030730160509707/30/03 16:05:31  5-MIN KDBQ 302205Z 20013KT 10SM FEW038 26/19 A2999 1020 64 2600 200/13 RMK AO2
94908KDBQ DBQ20030730161009707/30/03 16:10:31  5-MIN KDBQ 302210Z 19011KT 10SM FEW038 26/19 A2999 1020 64 2600 190/11 RMK AO2
94908KDBQ DBQ20030730161509707/30/03 16:15:31  5-MIN KDBQ 302215Z 20013KT 10SM SCT038 26/19 A2999 1020 66 2500 200/13 RMK AO2
94908KDBQ DBQ20030730162009707/30/03 16:20:31  5-MIN KDBQ 302220Z 20012KT 10SM FEW038 26/19 A2998 1020 64 2600 200/12 RMK AO2
94908KDBQ DBQ20030730162509707/30/03 16:25:31  5-MIN KDBQ 302225Z 21012KT 10SM FEW038 26/19 A2998 1020 64 2600 210/12 RMK AO2
94908KDBQ DBQ20030730163009707/30/03 16:30:31  5-MIN KDBQ 302230Z 19011KT 10SM FEW040 26/19 A2998 1020 64 2600 190/11 RMK AO2
94908KDBQ DBQ20030730163509407/30/03 16:35:31  5-MIN KDBQ 302235Z 20011KT 10SM CLR 26/18 A2998 1020 62 2600 200/11 RMK AO2
94908KDBQ DBQ20030730164009407/30/03 16:40:31  5-MIN KDBQ 302240Z 20013KT 10SM CLR 26/18 A2998 1020 62 2600 200/13 RMK AO2
94908KDBQ DBQ20030730164509407/30/03 16:45:31  5-MIN KDBQ 302245Z 20012KT 10SM CLR 26/18 A2998 1020 64 2500 200/12 RMK AO2
94908KDBQ DBQ20030730165011107/30/03 16:50:31  5-MIN KDBQ 302250Z 20013KT 10SM CLR 26/19 A2998 1020 66 2500 200/13 RMK AO2 SLP146 T02560189
94908KDBQ DBQ20030730165511107/30/03 16:55:31  5-MIN KDBQ 302255Z 21014KT 10SM CLR 26/19 A2997 1030 66 2500 210/14 RMK AO2 SLP145 T02560189
94908KDBQ DBQ20030730170009407/30/03 17:00:31  5-MIN KDBQ 302300Z 21011KT 10SM CLR 26/18 A2997 1030 64 2500 200/11 RMK AO2
94908KDBQ DBQ20030730170509407/30/03 17:05:31  5-MIN KDBQ 302305Z 19011KT 10SM CLR 26/18 A2997 1030 64 2500 190/11 RMK AO2
94908KDBQ DBQ20030730171009407/30/03 17:10:31  5-MIN KDBQ 302310Z 21010KT 10SM CLR 26/18 A2997 1030 64 2500 210/10 RMK AO2
94908KDBQ DBQ20030730171509407/30/03 17:15:31  5-MIN KDBQ 302315Z 20012KT 10SM CLR 26/18 A2997 1030 61 2500 200/12 RMK AO2
94908KDBQ DBQ20030730172009407/30/03 17:20:31  5-MIN KDBQ 302320Z 21011KT 10SM CLR 26/18 A2997 1030 64 2500 210/11 RMK AO2
94908KDBQ DBQ20030730172509407/30/03 17:25:31  5-MIN KDBQ 302325Z 21012KT 10SM CLR 26/18 A2997 1030 61 2500 210/12 RMK AO2
94908KDBQ DBQ20030730173009407/30/03 17:30:31  5-MIN KDBQ 302330Z 20011KT 10SM CLR 25/18 A2997 1040 64 2500 200/11 RMK AO2
94908KDBQ DBQ20030730173509907/30/03 17:35:31  5-MIN KDBQ 302335Z AUTO 20009KT 10SM CLR 24/18 A2996 1040 68 2400 200/09 RMK AO2
94908KDBQ DBQ20030730174010407/30/03 17:40:31  5-MIN KDBQ 302340Z AUTO 20009KT 10SM CLR 24/18 A2997 1040 66 2400 200/09 RMK AO2 TSNO
94908KDBQ DBQ20030730174510407/30/03 17:45:31  5-MIN KDBQ 302345Z AUTO 20009KT 10SM CLR 24/18 A2997 1040 66 2400 200/09 RMK AO2 TSNO
94908KDBQ DBQ20030730175014507/30/03 17:50:31  5-MIN KDBQ 302350Z AUTO 20007KT 10SM CLR 24/18 A2997 1040 71 2300 190/07 RMK AO2 SLP142 60000 T02390183 10261 20228 58010 TSNO
94908KDBQ DBQ20030730175514507/30/03 17:55:31  5-MIN KDBQ 302355Z AUTO 20008KT 10SM CLR 24/18 A2996 1040 68 2300 200/08 RMK AO2 SLP141 60000 T02390178 10261 20228 58013 TSNO
94908KDBQ DBQ20030730180010407/30/03 18:00:31  5-MIN KDBQ 310000Z AUTO 20007KT 10SM CLR 24/18 A2997 1040 68 2300 200/07 RMK AO2 TSNO
94908KDBQ DBQ20030730180510407/30/03 18:05:31  5-MIN KDBQ 310005Z AUTO 20007KT 10SM CLR 23/18 A2997 1030 70 2300 200/07 RMK AO2 TSNO
94908KDBQ DBQ20030730181010407/30/03 18:10:31  5-MIN KDBQ 310010Z AUTO 20006KT 10SM CLR 23/18 A2997 1030 73 2300 200/06 RMK AO2 TSNO
94908KDBQ DBQ20030730181510407/30/03 18:15:31  5-MIN KDBQ 310015Z AUTO 19007KT 10SM CLR 23/18 A2997 1030 73 2300 190/07 RMK AO2 TSNO
94908KDBQ DBQ20030730182010407/30/03 18:20:31  5-MIN KDBQ 310020Z AUTO 19006KT 10SM CLR 23/18 A2998 1020 76 2200 190/06 RMK AO2 TSNO
94908KDBQ DBQ20030730182510407/30/03 18:25:31  5-MIN KDBQ 310025Z AUTO 20006KT 10SM CLR 23/18 A2998 1020 76 2200 200/06 RMK AO2 TSNO
94908KDBQ DBQ20030730183010407/30/03 18:30:31  5-MIN KDBQ 310030Z AUTO 20005KT 10SM CLR 23/18 A2998 1020 76 2200 200/05 RMK AO2 TSNO
94908KDBQ DBQ20030730183510407/30/03 18:35:31  5-MIN KDBQ 310035Z AUTO 19005KT 10SM CLR 23/18 A2998 1030 76 2200 190/05 RMK AO2 TSNO
94908KDBQ DBQ20030730184010407/30/03 18:40:31  5-MIN KDBQ 310040Z AUTO 18006KT 10SM CLR 22/18 A2998 1030 78 2100 180/06 RMK AO2 TSNO
94908KDBQ DBQ20030730184510407/30/03 18:45:31  5-MIN KDBQ 310045Z AUTO 19006KT 10SM CLR 22/18 A2997 1030 75 2100 190/06 RMK AO2 TSNO
94908KDBQ DBQ20030730185012107/30/03 18:50:31  5-MIN KDBQ 310050Z AUTO 19007KT 10SM CLR 22/18 A2997 1030 75 2100 180/07 RMK AO2 SLP145 T02220178 TSNO
94908KDBQ DBQ20030730185512107/30/03 18:55:31  5-MIN KDBQ 310055Z AUTO 18008KT 10SM CLR 22/18 A2997 1030 75 2100 180/08 RMK AO2 SLP145 T02220178 TSNO
94908KDBQ DBQ20030730190010407/30/03 19:00:31  5-MIN KDBQ 310100Z AUTO 18008KT 10SM CLR 23/18 A2997 1030 73 2200 180/08 RMK AO2 TSNO
94908KDBQ DBQ20030730190510407/30/03 19:05:31  5-MIN KDBQ 310105Z AUTO 18008KT 10SM CLR 23/18 A2997 1030 73 2200 180/08 RMK AO2 TSNO
94908KDBQ DBQ20030730191010407/30/03 19:10:31  5-MIN KDBQ 310110Z AUTO 18008KT 10SM CLR 23/18 A2997 1030 73 2200 180/08 RMK AO2 TSNO
94908KDBQ DBQ20030730191510407/30/03 19:15:31  5-MIN KDBQ 310115Z AUTO 18008KT 10SM CLR 22/18 A2997 1030 75 2100 180/08 RMK AO2 TSNO
94908KDBQ DBQ20030730192010607/30/03 19:20:31  5-MIN KDBQ 310120Z AUTO 17007KT 9SM FEW120 22/18 A2997 1030 75 2100 170/07 RMK AO2 TSNO
94908KDBQ DBQ20030730192510607/30/03 19:25:31  5-MIN KDBQ 310125Z AUTO 17005KT 9SM SCT120 22/18 A2997 1030 75 2100 160/05 RMK AO2 TSNO
94908KDBQ DBQ20030730193010607/30/03 19:30:31  5-MIN KDBQ 310130Z AUTO 18005KT 9SM BKN120 22/18 A2998 1020 75 2100 180/05 RMK AO2 TSNO
94908KDBQ DBQ20030730193510607/30/03 19:35:31  5-MIN KDBQ 310135Z AUTO VRB03KT 9SM BKN110 22/18 A2998 1020 75 2100 VRB/03 RMK AO2 TSNO
94908KDBQ DBQ20030730194010707/30/03 19:40:31  5-MIN KDBQ 310140Z AUTO 21003KT 10SM BKN110 22/18 A2998 1020 81 2100 210/03 RMK AO2 TSNO
94908KDBQ DBQ20030730194512907/30/03 19:45:31  5-MIN KDBQ 310145Z AUTO 20005KT 9SM -RA FEW037 OVC110 22/18 A2998 1020 75 2100 200/05 RMK AO2 RAB45 P0000 TSNO
94908KDBQ DBQ20030730195015307/30/03 19:50:31  5-MIN KDBQ 310150Z AUTO 19005KT 7SM -RA SCT040 BKN095 OVC110 22/19 A2998 1020 84 2100 190/05 RMK AO2 RAB45 SLP148 P0000 T02170189 TSNO
94908KDBQ DBQ20030730195515607/30/03 19:55:31  5-MIN KDBQ 310155Z AUTO 19012KT 5SM -RA BR FEW010 BKN090 OVC110 21/19 A2998 1020 87 2000 180/12 RMK AO2 RAB45 SLP148 P0003 T02110189 TSNO
94908KDBQ DBQ20030730200013307/30/03 20:00:31  5-MIN KDBQ 310200Z AUTO 18009KT 5SM -RA BR FEW010 SCT080 OVC095 21/19 A2998 1020 87 2000 180/09 RMK AO2 P0000 TSNO
94908KDBQ DBQ20030730200512307/30/03 20:05:31  5-MIN KDBQ 310205Z AUTO 17008KT 8SM -RA FEW040 OVC090 21/19 A2998 1020 87 2000 170/08 RMK AO2 P0000 TSNO
94908KDBQ DBQ20030730201013207/30/03 20:10:31  5-MIN KDBQ 310210Z AUTO 17009KT 9SM FEW040 BKN090 OVC110 22/19 A2998 1020 84 2100 170/09 RMK AO2 RAE08 P0001 TSNO
94908KDBQ DBQ20030730201513207/30/03 20:15:31  5-MIN KDBQ 310215Z AUTO 18008KT 9SM FEW080 BKN090 OVC110 22/19 A2998 1020 84 2100 180/08 RMK AO2 RAE08 P0001 TSNO
94908KDBQ DBQ20030730202013207/30/03 20:20:31  5-MIN KDBQ 310220Z AUTO 17007KT 9SM SCT075 BKN090 OVC110 22/19 A2998 1020 84 2100 170/07 RMK AO2 RAE08 P0001 TSNO
94908KDBQ DBQ20030730202512507/30/03 20:25:31  5-MIN KDBQ 310225Z AUTO 18008KT 8SM SCT075 OVC100 22/19 A2999 1020 84 2100 180/08 RMK AO2 RAE08 P0001 TSNO
94908KDBQ DBQ20030730203013207/30/03 20:30:31  5-MIN KDBQ 310230Z AUTO 17008KT 8SM FEW075 SCT090 OVC110 22/19 A2999 1020 84 2100 170/08 RMK AO2 RAE08 P0001 TSNO
94908KDBQ DBQ20030730203512507/30/03 20:35:31  5-MIN KDBQ 310235Z AUTO 17008KT 8SM FEW075 OVC110 22/19 A2999 1020 84 2100 170/08 RMK AO2 RAE08 P0001 TSNO
94908KDBQ DBQ20030730204012507/30/03 20:40:31  5-MIN KDBQ 310240Z AUTO 18007KT 8SM FEW075 OVC120 22/19 A2999 1010 84 2100 170/07 RMK AO2 RAE08 P0001 TSNO
94908KDBQ DBQ20030730204512507/30/03 20:45:31  5-MIN KDBQ 310245Z AUTO 17007KT 8SM FEW075 OVC120 21/19 A2999 1010 87 2000 170/07 RMK AO2 RAE08 P0001 TSNO
94908KDBQ DBQ20030730205014707/30/03 20:50:31  5-MIN KDBQ 310250Z AUTO 18007KT 7SM BKN120 22/19 A3000 1010 81 2100 180/07 RMK AO2 RAE08 SLP152 P0001 60004 T02220189 58013 TSNO
94908KDBQ DBQ20030730205514707/30/03 20:55:31  5-MIN KDBQ 310255Z AUTO 18007KT 7SM BKN120 21/19 A3000 1010 87 2000 180/07 RMK AO2 RAE08 SLP152 P0001 60004 T02110189 53011 TSNO
94908KDBQ DBQ20030730210010607/30/03 21:00:31  5-MIN KDBQ 310300Z AUTO 19006KT 7SM SCT120 21/19 A3000 1010 87 2000 190/06 RMK AO2 TSNO
94908KDBQ DBQ20030730210510907/30/03 21:05:31  5-MIN KDBQ 310305Z AUTO 20005KT 6SM BR FEW120 21/19 A3000 1010 90 1900 200/05 RMK AO2 TSNO
94908KDBQ DBQ20030730211010907/30/03 21:10:31  5-MIN KDBQ 310310Z AUTO 20005KT 6SM BR FEW120 21/19 A3000 1000 90 1900 190/05 RMK AO2 TSNO
94908KDBQ DBQ20030730211510607/30/03 21:15:31  5-MIN KDBQ 310315Z AUTO 20004KT 6SM BR CLR 20/19 A3000 1000 93 1900 200/04 RMK AO2 TSNO
94908KDBQ DBQ20030730212010607/30/03 21:20:31  5-MIN KDBQ 310320Z AUTO 21004KT 5SM BR CLR 20/19 A3000 1000 93 1900 210/04 RMK AO2 TSNO
94908KDBQ DBQ20030730212510607/30/03 21:25:31  5-MIN KDBQ 310325Z AUTO 21005KT 6SM BR CLR 20/19 A3000 1000 93 1900 210/05 RMK AO2 TSNO
94908KDBQ DBQ20030730213010607/30/03 21:30:31  5-MIN KDBQ 310330Z AUTO 20006KT 6SM BR CLR 21/19 A3000 1000 90 1900 190/06 RMK AO2 TSNO
94908KDBQ DBQ20030730213510607/30/03 21:35:31  5-MIN KDBQ 310335Z AUTO 19006KT 6SM BR CLR 20/19 A3001 1000 93 1900 190/06 RMK AO2 TSNO
94908KDBQ DBQ20030730214010607/30/03 21:40:31  5-MIN KDBQ 310340Z AUTO 19007KT 6SM BR CLR 20/19 A3001 1000 93 1900 190/07 RMK AO2 TSNO
94908KDBQ DBQ20030730214510607/30/03 21:45:31  5-MIN KDBQ 310345Z AUTO 19007KT 5SM BR CLR 20/19 A3001 1000 93 1900 190/07 RMK AO2 TSNO
94908KDBQ DBQ20030730215012307/30/03 21:50:31  5-MIN KDBQ 310350Z AUTO 19007KT 5SM BR CLR 20/19 A3001 1000 93 1900 190/07 RMK AO2 SLP155 T02000189 TSNO
94908KDBQ DBQ20030730215512307/30/03 21:55:31  5-MIN KDBQ 310355Z AUTO 20007KT 5SM BR CLR 20/19 A3001 1000 93 1800 190/07 RMK AO2 SLP156 T02000189 TSNO
94908KDBQ DBQ20030730220010507/30/03 22:00:31  5-MIN KDBQ 310400Z AUTO 20007KT 5SM BR CLR 20/19 A3001 990 93 1800 200/07 RMK AO2 TSNO
94908KDBQ DBQ20030730220510607/30/03 22:05:31  5-MIN KDBQ 310405Z AUTO 20007KT 5SM BR CLR 20/19 A3001 1000 93 1800 200/07 RMK AO2 TSNO
94908KDBQ DBQ20030730221010507/30/03 22:10:31  5-MIN KDBQ 310410Z AUTO 20006KT 5SM BR CLR 19/18 A3001 990 93 1800 200/06 RMK AO2 TSNO
94908KDBQ DBQ20030730221510607/30/03 22:15:31  5-MIN KDBQ 310415Z AUTO 20007KT 5SM BR CLR 19/18 A3001 1000 93 1800 200/07 RMK AO2 TSNO
94908KDBQ DBQ20030730222010507/30/03 22:20:31  5-MIN KDBQ 310420Z AUTO 20007KT 5SM BR CLR 19/18 A3001 990 93 1800 200/07 RMK AO2 TSNO
94908KDBQ DBQ20030730222510607/30/03 22:25:31  5-MIN KDBQ 310425Z AUTO 20007KT 5SM BR CLR 20/18 A3001 1000 90 1800 200/07 RMK AO2 TSNO
94908KDBQ DBQ20030730223010607/30/03 22:30:31  5-MIN KDBQ 310430Z AUTO 20007KT 6SM BR CLR 19/18 A3001 1000 93 1800 200/07 RMK AO2 TSNO
94908KDBQ DBQ20030730223510607/30/03 22:35:31  5-MIN KDBQ 310435Z AUTO 20007KT 6SM BR CLR 19/18 A3001 1000 93 1800 200/07 RMK AO2 TSNO
94908KDBQ DBQ20030730224010607/30/03 22:40:31  5-MIN KDBQ 310440Z AUTO 20008KT 6SM BR CLR 19/18 A3001 1000 93 1800 200/08 RMK AO2 TSNO
94908KDBQ DBQ20030730224510607/30/03 22:45:31  5-MIN KDBQ 310445Z AUTO 20008KT 6SM BR CLR 19/18 A3001 1000 93 1800 200/08 RMK AO2 TSNO
94908KDBQ DBQ20030730225012607/30/03 22:50:31  5-MIN KDBQ 310450Z AUTO 20008KT 6SM BR FEW090 19/18 A3001 1000 93 1800 200/08 RMK AO2 SLP158 T01940183 TSNO
94908KDBQ DBQ20030730225512607/30/03 22:55:31  5-MIN KDBQ 310455Z AUTO 21007KT 5SM BR FEW090 19/18 A3001 1000 93 1800 210/07 RMK AO2 SLP157 T01940183 TSNO
94908KDBQ DBQ20030730230010907/30/03 23:00:31  5-MIN KDBQ 310500Z AUTO 20007KT 6SM BR FEW090 19/18 A3001 1000 93 1800 200/07 RMK AO2 TSNO
94908KDBQ DBQ20030730230510807/30/03 23:05:31  5-MIN KDBQ 310505Z AUTO 20007KT 6SM BR FEW095 19/18 A3001 990 93 1800 200/07 RMK AO2 TSNO
94908KDBQ DBQ20030730231010807/30/03 23:10:31  5-MIN KDBQ 310510Z AUTO 20007KT 6SM BR FEW095 19/18 A3001 990 93 1800 200/07 RMK AO2 TSNO
94908KDBQ DBQ20030730231510907/30/03 23:15:31  5-MIN KDBQ 310515Z AUTO 20007KT 6SM BR FEW095 19/18 A3001 1000 93 1800 200/07 RMK AO2 TSNO
94908KDBQ DBQ20030730232010507/30/03 23:20:31  5-MIN KDBQ 310520Z AUTO 20007KT 6SM BR CLR 19/18 A3001 990 93 1800 200/07 RMK AO2 TSNO
94908KDBQ DBQ20030730232510507/30/03 23:25:31  5-MIN KDBQ 310525Z AUTO 20007KT 6SM BR CLR 19/18 A3001 990 90 1800 200/07 RMK AO2 TSNO
94908KDBQ DBQ20030730233010507/30/03 23:30:31  5-MIN KDBQ 310530Z AUTO 20007KT 6SM BR CLR 19/18 A3001 990 90 1800 200/07 RMK AO2 TSNO
94908KDBQ DBQ20030730233510507/30/03 23:35:31  5-MIN KDBQ 310535Z AUTO 20007KT 6SM BR CLR 19/18 A3001 990 90 1800 200/07 RMK AO2 TSNO
94908KDBQ DBQ20030730234010507/30/03 23:40:31  5-MIN KDBQ 310540Z AUTO 20007KT 6SM BR CLR 19/18 A3001 990 90 1800 200/07 RMK AO2 TSNO
94908KDBQ DBQ20030730234510507/30/03 23:45:31  5-MIN KDBQ 310545Z AUTO 20006KT 5SM BR CLR 19/18 A3001 990 93 1700 200/06 RMK AO2 TSNO
94908KDBQ DBQ20030730235015607/30/03 23:50:31  5-MIN KDBQ 310550Z AUTO 20006KT 5SM BR CLR 19/18 A3001 990 93 1700 190/06 RMK AO2 SLP158 60004 T01890178 10239 20189 402610172 53011 TSNO
94908KDBQ DBQ20030730235515607/30/03 23:55:31  5-MIN KDBQ 310555Z AUTO 20006KT 5SM BR CLR 19/18 A3001 990 93 1700 200/06 RMK AO2 SLP158 60004 T01890178 10239 20189 402610172 51005 TSNO
94908KDBQ DBQ20030731000010607/31/03 00:00:31  5-MIN KDBQ 310600Z AUTO 20006KT 5SM BR CLR 19/18 A3001 1000 93 1700 190/06 RMK AO2 TSNO
94908KDBQ DBQ20030731000510607/31/03 00:05:31  5-MIN KDBQ 310605Z AUTO 20007KT 5SM BR CLR 19/18 A3001 1000 93 1700 200/07 RMK AO2 TSNO
94908KDBQ DBQ20030731001010607/31/03 00:10:31  5-MIN KDBQ 310610Z AUTO 20006KT 5SM BR CLR 19/18 A3001 1000 93 1700 200/06 RMK AO2 TSNO
94908KDBQ DBQ20030731001510607/31/03 00:15:31  5-MIN KDBQ 310615Z AUTO 20006KT 5SM BR CLR 19/18 A3000 1000 93 1700 200/06 RMK AO2 TSNO
94908KDBQ DBQ20030731002010607/31/03 00:20:31  5-MIN KDBQ 310620Z AUTO 21006KT 5SM BR CLR 18/18 A3000 1000 96 1700 200/06 RMK AO2 TSNO
94908KDBQ DBQ20030731002510607/31/03 00:25:31  5-MIN KDBQ 310625Z AUTO 20007KT 5SM BR CLR 19/18 A3000 1000 93 1700 200/07 RMK AO2 TSNO
94908KDBQ DBQ20030731003010907/31/03 00:30:31  5-MIN KDBQ 310630Z AUTO 21005KT 5SM BR FEW090 18/17 A3000 1000 93 1700 210/05 RMK AO2 TSNO
94908KDBQ DBQ20030731003510907/31/03 00:35:31  5-MIN KDBQ 310635Z AUTO 20006KT 5SM BR FEW090 18/17 A3000 1010 93 1700 200/06 RMK AO2 TSNO
94908KDBQ DBQ20030731004010907/31/03 00:40:31  5-MIN KDBQ 310640Z AUTO 20006KT 5SM BR FEW085 18/17 A3000 1010 93 1700 200/06 RMK AO2 TSNO
94908KDBQ DBQ20030731004510907/31/03 00:45:31  5-MIN KDBQ 310645Z AUTO 20008KT 5SM BR FEW085 18/17 A2999 1010 93 1700 200/08 RMK AO2 TSNO
94908KDBQ DBQ20030731005013307/31/03 00:50:31  5-MIN KDBQ 310650Z AUTO 21007KT 5SM BR FEW070 SCT090 18/18 A2999 1010 96 1700 200/07 RMK AO2 SLP152 T01830178 TSNO
94908KDBQ DBQ20030731005513307/31/03 00:55:31  5-MIN KDBQ 310655Z AUTO 20007KT 5SM BR FEW070 SCT090 18/17 A2999 1010 93 1700 200/07 RMK AO2 SLP152 T01830172 TSNO
94908KDBQ DBQ20030731010011607/31/03 01:00:31  5-MIN KDBQ 310700Z AUTO 21005KT 5SM BR FEW070 SCT090 18/17 A2999 1010 93 1700 210/05 RMK AO2 TSNO
94908KDBQ DBQ20030731010510907/31/03 01:05:31  5-MIN KDBQ 310705Z AUTO 22005KT 5SM BR FEW070 18/17 A2999 1010 93 1600 220/05 RMK AO2 TSNO
94908KDBQ DBQ20030731011010907/31/03 01:10:31  5-MIN KDBQ 310710Z AUTO 21006KT 4SM BR FEW070 17/17 A2999 1010 96 1500 210/06 RMK AO2 TSNO
94908KDBQ DBQ20030731011510907/31/03 01:15:31  5-MIN KDBQ 310715Z AUTO 21006KT 4SM BR FEW070 18/17 A2999 1010 96 1600 200/06 RMK AO2 TSNO
94908KDBQ DBQ20030731012010907/31/03 01:20:31  5-MIN KDBQ 310720Z AUTO 20006KT 4SM BR FEW090 18/17 A2999 1010 96 1600 200/06 RMK AO2 TSNO
94908KDBQ DBQ20030731012510607/31/03 01:25:31  5-MIN KDBQ 310725Z AUTO 21006KT 4SM BR CLR 18/17 A2999 1020 93 1600 210/06 RMK AO2 TSNO
94908KDBQ DBQ20030731013010607/31/03 01:30:31  5-MIN KDBQ 310730Z AUTO 21006KT 4SM BR CLR 18/17 A2999 1020 93 1600 200/06 RMK AO2 TSNO
94908KDBQ DBQ20030731013510607/31/03 01:35:31  5-MIN KDBQ 310735Z AUTO 20005KT 5SM BR CLR 18/17 A2999 1020 93 1600 200/05 RMK AO2 TSNO
94908KDBQ DBQ20030731014010607/31/03 01:40:31  5-MIN KDBQ 310740Z AUTO 20005KT 4SM BR CLR 18/17 A2999 1020 93 1600 200/05 RMK AO2 TSNO
94908KDBQ DBQ20030731014510607/31/03 01:45:31  5-MIN KDBQ 310745Z AUTO 20005KT 4SM BR CLR 18/17 A2999 1020 93 1600 200/05 RMK AO2 TSNO
94908KDBQ DBQ20030731015012307/31/03 01:50:31  5-MIN KDBQ 310750Z AUTO 20005KT 4SM BR CLR 18/17 A2999 1020 93 1600 200/05 RMK AO2 SLP150 T01780167 TSNO
94908KDBQ DBQ20030731015512307/31/03 01:55:31  5-MIN KDBQ 310755Z AUTO 20006KT 4SM BR CLR 18/17 A2999 1020 93 1600 200/06 RMK AO2 SLP150 T01780167 TSNO
94908KDBQ DBQ20030731020010607/31/03 02:00:31  5-MIN KDBQ 310800Z AUTO 20005KT 5SM BR CLR 18/17 A2999 1020 93 1600 190/05 RMK AO2 TSNO
94908KDBQ DBQ20030731020510607/31/03 02:05:31  5-MIN KDBQ 310805Z AUTO 19005KT 5SM BR CLR 18/17 A2998 1020 93 1600 190/05 RMK AO2 TSNO
94908KDBQ DBQ20030731021010607/31/03 02:10:31  5-MIN KDBQ 310810Z AUTO 19005KT 5SM BR CLR 18/17 A2998 1020 93 1600 190/05 RMK AO2 TSNO
94908KDBQ DBQ20030731025512907/31/03 02:55:31  5-MIN KDBQ 310855Z AUTO 20006KT 5SM BR CLR 17/16 A2999 1020 93 1600 200/06 RMK AO2 SLP149 T01720161 56008 TSNO
94908KDBQ DBQ20030731030010607/31/03 03:00:31  5-MIN KDBQ 310900Z AUTO 20006KT 5SM BR CLR 17/16 A2999 1020 93 1600 190/06 RMK AO2 TSNO
94908KDBQ DBQ20030731030510607/31/03 03:05:31  5-MIN KDBQ 310905Z AUTO 20005KT 5SM BR CLR 17/16 A2998 1020 93 1600 200/05 RMK AO2 TSNO
94908KDBQ DBQ20030731031010607/31/03 03:10:31  5-MIN KDBQ 310910Z AUTO 20006KT 5SM BR CLR 17/16 A2998 1020 93 1600 200/06 RMK AO2 TSNO
94908KDBQ DBQ20030731031510607/31/03 03:15:31  5-MIN KDBQ 310915Z AUTO 20007KT 5SM BR CLR 17/16 A2999 1020 93 1600 200/07 RMK AO2 TSNO
94908KDBQ DBQ20030731032010607/31/03 03:20:31  5-MIN KDBQ 310920Z AUTO 20005KT 5SM BR CLR 17/16 A2998 1020 93 1500 200/05 RMK AO2 TSNO
94908KDBQ DBQ20030731032510607/31/03 03:25:31  5-MIN KDBQ 310925Z AUTO 20005KT 5SM BR CLR 17/16 A2998 1020 93 1500 200/05 RMK AO2 TSNO
94908KDBQ DBQ20030731033010607/31/03 03:30:31  5-MIN KDBQ 310930Z AUTO 20006KT 5SM BR CLR 17/16 A2998 1020 93 1600 200/06 RMK AO2 TSNO
94908KDBQ DBQ20030731033510607/31/03 03:35:31  5-MIN KDBQ 310935Z AUTO 20006KT 5SM BR CLR 17/16 A2998 1020 93 1600 200/06 RMK AO2 TSNO
94908KDBQ DBQ20030731034010607/31/03 03:40:31  5-MIN KDBQ 310940Z AUTO 20005KT 5SM BR CLR 17/16 A2998 1020 93 1600 200/05 RMK AO2 TSNO
94908KDBQ DBQ20030731034510607/31/03 03:45:31  5-MIN KDBQ 310945Z AUTO 20005KT 5SM BR CLR 17/16 A2998 1020 93 1600 200/05 RMK AO2 TSNO
94908KDBQ DBQ20030731035012307/31/03 03:50:31  5-MIN KDBQ 310950Z AUTO 20006KT 5SM BR CLR 17/16 A2998 1030 93 1600 200/06 RMK AO2 SLP146 T01720161 TSNO
94908KDBQ DBQ20030731035512307/31/03 03:55:31  5-MIN KDBQ 310955Z AUTO 20005KT 5SM BR CLR 17/16 A2998 1020 96 1500 200/05 RMK AO2 SLP146 T01670161 TSNO
94908KDBQ DBQ20030731040010607/31/03 04:00:31  5-MIN KDBQ 311000Z AUTO 19006KT 5SM BR CLR 17/16 A2998 1030 93 1500 190/06 RMK AO2 TSNO
94908KDBQ DBQ20030731040510607/31/03 04:05:31  5-MIN KDBQ 311005Z AUTO 19006KT 5SM BR CLR 17/16 A2998 1030 93 1500 190/06 RMK AO2 TSNO
94908KDBQ DBQ20030731041010607/31/03 04:10:31  5-MIN KDBQ 311010Z AUTO 19006KT 5SM BR CLR 17/16 A2998 1030 93 1500 190/06 RMK AO2 TSNO
94908KDBQ DBQ20030731041510607/31/03 04:15:31  5-MIN KDBQ 311015Z AUTO 20006KT 5SM BR CLR 17/16 A2998 1030 93 1500 200/06 RMK AO2 TSNO
94908KDBQ DBQ20030731042010607/31/03 04:20:31  5-MIN KDBQ 311020Z AUTO 20006KT 6SM BR CLR 17/16 A2997 1030 93 1500 200/06 RMK AO2 TSNO
94908KDBQ DBQ20030731042510607/31/03 04:25:31  5-MIN KDBQ 311025Z AUTO 20006KT 6SM BR CLR 17/16 A2998 1030 93 1500 200/06 RMK AO2 TSNO
94908KDBQ DBQ20030731043010607/31/03 04:30:31  5-MIN KDBQ 311030Z AUTO 20005KT 6SM BR CLR 17/16 A2998 1030 93 1500 200/05 RMK AO2 TSNO
94908KDBQ DBQ20030731043510607/31/03 04:35:31  5-MIN KDBQ 311035Z AUTO 20005KT 6SM BR CLR 17/16 A2998 1030 93 1500 200/05 RMK AO2 TSNO
94908KDBQ DBQ20030731044010607/31/03 04:40:31  5-MIN KDBQ 311040Z AUTO 20006KT 6SM BR CLR 17/16 A2998 1020 93 1500 200/06 RMK AO2 TSNO
94908KDBQ DBQ20030731044510607/31/03 04:45:31  5-MIN KDBQ 311045Z AUTO 20005KT 6SM BR CLR 16/16 A2998 1020 96 1400 200/05 RMK AO2 TSNO
94908KDBQ DBQ20030731045012307/31/03 04:50:31  5-MIN KDBQ 311050Z AUTO 20006KT 5SM BR CLR 16/15 A2998 1020 93 1400 200/06 RMK AO2 SLP147 T01610150 TSNO
94908KDBQ DBQ20030731045512307/31/03 04:55:31  5-MIN KDBQ 311055Z AUTO 20005KT 5SM BR CLR 16/15 A2998 1030 93 1400 200/05 RMK AO2 SLP147 T01610150 TSNO
94908KDBQ DBQ20030731050009607/31/03 05:00:31  5-MIN KDBQ 311100Z 19005KT 4SM BR CLR 17/16 A2998 1030 93 1500 190/05 RMK AO2
94908KDBQ DBQ20030731050509607/31/03 05:05:31  5-MIN KDBQ 311105Z 19005KT 4SM BR CLR 17/16 A2998 1030 93 1500 190/05 RMK AO2
94908KDBQ DBQ20030731051009607/31/03 05:10:31  5-MIN KDBQ 311110Z 19005KT 4SM BR CLR 17/16 A2998 1030 93 1500 190/05 RMK AO2
94908KDBQ DBQ20030731051509607/31/03 05:15:31  5-MIN KDBQ 311115Z 19005KT 5SM BR CLR 17/16 A2998 1030 93 1500 190/05 RMK AO2
94908KDBQ DBQ20030731052009607/31/03 05:20:31  5-MIN KDBQ 311120Z 19004KT 5SM BR CLR 17/16 A2997 1030 93 1500 190/04 RMK AO2
94908KDBQ DBQ20030731052509607/31/03 05:25:31  5-MIN KDBQ 311125Z 20003KT 5SM BR CLR 17/16 A2998 1030 93 1500 200/03 RMK AO2
94908KDBQ DBQ20030731053009607/31/03 05:30:31  5-MIN KDBQ 311130Z 20004KT 4SM BR CLR 16/16 A2998 1030 96 1400 200/04 RMK AO2
94908KDBQ DBQ20030731053509607/31/03 05:35:31  5-MIN KDBQ 311135Z 20004KT 4SM BR CLR 17/16 A2997 1030 93 1500 200/04 RMK AO2
94908KDBQ DBQ20030731054009607/31/03 05:40:31  5-MIN KDBQ 311140Z 20003KT 4SM BR CLR 17/16 A2998 1030 93 1500 200/03 RMK AO2
94908KDBQ DBQ20030731054509607/31/03 05:45:31  5-MIN KDBQ 311145Z 20004KT 4SM BR CLR 17/16 A2998 1030 96 1500 200/04 RMK AO2
94908KDBQ DBQ20030731055013707/31/03 05:50:31  5-MIN KDBQ 311150Z 22003KT 4SM BR CLR 17/16 A2998 1030 93 1600 220/03 RMK AO2 SLP146 70004 T01720161 10189 20161 56008
94908KDBQ DBQ20030731055513707/31/03 05:55:31  5-MIN KDBQ 311155Z 20006KT 4SM BR CLR 17/16 A2998 1030 93 1600 200/06 RMK AO2 SLP146 70004 T01720161 10189 20161 56003
94908KDBQ DBQ20030731060009607/31/03 06:00:31  5-MIN KDBQ 311200Z 20006KT 4SM BR CLR 18/17 A2998 1030 93 1600 200/06 RMK AO2
94908KDBQ DBQ20030731060509607/31/03 06:05:31  5-MIN KDBQ 311205Z 20006KT 5SM BR CLR 18/17 A2998 1030 93 1700 200/06 RMK AO2
94908KDBQ DBQ20030731061009607/31/03 06:10:31  5-MIN KDBQ 311210Z 20006KT 5SM BR CLR 18/17 A2998 1030 93 1700 200/06 RMK AO2
94908KDBQ DBQ20030731061509607/31/03 06:15:31  5-MIN KDBQ 311215Z 20005KT 5SM BR CLR 18/17 A2998 1030 93 1700 200/05 RMK AO2
94908KDBQ DBQ20030731062009607/31/03 06:20:31  5-MIN KDBQ 311220Z 20004KT 5SM BR CLR 18/17 A2998 1030 93 1700 200/04 RMK AO2
94908KDBQ DBQ20030731062509607/31/03 06:25:31  5-MIN KDBQ 311225Z 20005KT 5SM BR CLR 18/17 A2997 1030 93 1700 190/05 RMK AO2
94908KDBQ DBQ20030731063009607/31/03 06:30:31  5-MIN KDBQ 311230Z 22004KT 5SM BR CLR 19/17 A2997 1030 90 1800 220/04 RMK AO2
94908KDBQ DBQ20030731063509607/31/03 06:35:31  5-MIN KDBQ 311235Z 22003KT 5SM BR CLR 18/17 A2997 1030 93 1700 220/03 RMK AO2
94908KDBQ DBQ20030731064009607/31/03 06:40:31  5-MIN KDBQ 311240Z 22004KT 5SM BR CLR 19/17 A2997 1030 90 1800 220/04 RMK AO2
94908KDBQ DBQ20030731064509607/31/03 06:45:31  5-MIN KDBQ 311245Z 22004KT 5SM BR CLR 19/18 A2997 1030 93 1800 220/04 RMK AO2
94908KDBQ DBQ20030731065011307/31/03 06:50:31  5-MIN KDBQ 311250Z 21004KT 5SM BR CLR 19/18 A2997 1030 90 1800 210/04 RMK AO2 SLP144 T01940178
94908KDBQ DBQ20030731065511307/31/03 06:55:31  5-MIN KDBQ 311255Z 21005KT 5SM BR CLR 19/18 A2997 1030 90 1800 210/05 RMK AO2 SLP144 T01940178
94908KDBQ DBQ20030731070009607/31/03 07:00:31  5-MIN KDBQ 311300Z 21005KT 6SM BR CLR 19/18 A2997 1030 90 1800 210/05 RMK AO2
94908KDBQ DBQ20030731070509607/31/03 07:05:31  5-MIN KDBQ 311305Z 21005KT 6SM BR CLR 20/18 A2997 1030 87 1900 200/05 RMK AO2
94908KDBQ DBQ20030731071009307/31/03 07:10:31  5-MIN KDBQ 311310Z 22005KT 7SM CLR 20/18 A2997 1030 90 1900 220/05 RMK AO2
94908KDBQ DBQ20030731071509307/31/03 07:15:31  5-MIN KDBQ 311315Z 23005KT 7SM CLR 20/18 A2997 1030 90 1900 230/05 RMK AO2
94908KDBQ DBQ20030731072009607/31/03 07:20:31  5-MIN KDBQ 311320Z 22006KT 6SM BR CLR 21/18 A2997 1030 87 2000 220/06 RMK AO2
94908KDBQ DBQ20030731072509307/31/03 07:25:31  5-MIN KDBQ 311325Z 22008KT 7SM CLR 21/18 A2997 1030 84 2000 220/08 RMK AO2
94908KDBQ DBQ20030731073009307/31/03 07:30:31  5-MIN KDBQ 311330Z 20007KT 7SM CLR 21/18 A2997 1030 84 2000 200/07 RMK AO2
94908KDBQ DBQ20030731073509307/31/03 07:35:31  5-MIN KDBQ 311335Z 19008KT 7SM CLR 22/19 A2997 1030 84 2100 190/08 RMK AO2
94908KDBQ DBQ20030731074009307/31/03 07:40:31  5-MIN KDBQ 311340Z 19007KT 7SM CLR 22/18 A2997 1030 81 2100 190/07 RMK AO2
94908KDBQ DBQ20030731074509307/31/03 07:45:31  5-MIN KDBQ 311345Z 20008KT 7SM CLR 22/18 A2997 1030 81 2100 200/08 RMK AO2
94908KDBQ DBQ20030731075011007/31/03 07:50:31  5-MIN KDBQ 311350Z 20007KT 7SM CLR 22/18 A2997 1030 81 2100 200/07 RMK AO2 SLP144 T02170183
94908KDBQ DBQ20030731075511007/31/03 07:55:31  5-MIN KDBQ 311355Z 20009KT 7SM CLR 22/19 A2997 1030 81 2100 200/09 RMK AO2 SLP144 T02220189
94908KDBQ DBQ20030731080009307/31/03 08:00:31  5-MIN KDBQ 311400Z 20009KT 7SM CLR 22/19 A2997 1030 81 2100 200/09 RMK AO2
94908KDBQ DBQ20030731080509307/31/03 08:05:31  5-MIN KDBQ 311405Z 20010KT 7SM CLR 22/18 A2997 1030 78 2100 200/10 RMK AO2
94908KDBQ DBQ20030731081009307/31/03 08:10:31  5-MIN KDBQ 311410Z 21010KT 7SM CLR 23/19 A2997 1030 78 2200 210/10 RMK AO2
94908KDBQ DBQ20030731081509307/31/03 08:15:31  5-MIN KDBQ 311415Z 22009KT 7SM CLR 23/19 A2997 1030 78 2200 220/09 RMK AO2
94908KDBQ DBQ20030731082009307/31/03 08:20:31  5-MIN KDBQ 311420Z 21009KT 7SM CLR 23/19 A2997 1030 78 2200 210/09 RMK AO2
94908KDBQ DBQ20030731082509307/31/03 08:25:31  5-MIN KDBQ 311425Z 20009KT 7SM CLR 23/19 A2997 1030 78 2200 200/09 RMK AO2
94908KDBQ DBQ20030731083009307/31/03 08:30:31  5-MIN KDBQ 311430Z 20007KT 8SM CLR 23/19 A2997 1030 76 2300 200/07 RMK AO2
94908KDBQ DBQ20030731083509307/31/03 08:35:31  5-MIN KDBQ 311435Z 20008KT 8SM CLR 23/19 A2997 1030 76 2300 190/08 RMK AO2
94908KDBQ DBQ20030731084009307/31/03 08:40:31  5-MIN KDBQ 311440Z 20007KT 8SM CLR 23/19 A2997 1030 76 2300 190/07 RMK AO2
94908KDBQ DBQ20030731084509307/31/03 08:45:31  5-MIN KDBQ 311445Z 19008KT 8SM CLR 23/19 A2997 1040 76 2300 190/08 RMK AO2
94908KDBQ DBQ20030731085011607/31/03 08:50:31  5-MIN KDBQ 311450Z 18007KT 8SM CLR 23/19 A2997 1040 78 2300 180/07 RMK AO2 SLP142 T02330194 56003
94908KDBQ DBQ20030731085511607/31/03 08:55:31  5-MIN KDBQ 311455Z 20008KT 8SM CLR 24/19 A2997 1030 76 2300 190/08 RMK AO2 SLP143 T02390194 56002
94908KDBQ DBQ20030731090009307/31/03 09:00:31  5-MIN KDBQ 311500Z 22008KT 8SM CLR 24/19 A2997 1030 73 2300 220/08 RMK AO2
94908KDBQ DBQ20030731090509307/31/03 09:05:31  5-MIN KDBQ 311505Z 22006KT 8SM CLR 24/19 A2998 1030 76 2300 220/06 RMK AO2
94908KDBQ DBQ20030731091009307/31/03 09:10:31  5-MIN KDBQ 311510Z 23008KT 8SM CLR 24/20 A2997 1030 76 2400 230/08 RMK AO2
94908KDBQ DBQ20030731091509307/31/03 09:15:31  5-MIN KDBQ 311515Z 21007KT 8SM CLR 24/19 A2997 1030 73 2400 210/07 RMK AO2
94908KDBQ DBQ20030731092009307/31/03 09:20:31  5-MIN KDBQ 311520Z 23008KT 9SM CLR 24/19 A2997 1030 73 2400 230/08 RMK AO2
94908KDBQ DBQ20030731092509307/31/03 09:25:31  5-MIN KDBQ 311525Z 22007KT 9SM CLR 24/19 A2997 1030 73 2400 220/07 RMK AO2
94908KDBQ DBQ20030731093009307/31/03 09:30:31  5-MIN KDBQ 311530Z 22007KT 9SM CLR 24/19 A2998 1030 71 2400 220/07 RMK AO2
94908KDBQ DBQ20030731093509307/31/03 09:35:31  5-MIN KDBQ 311535Z 22007KT 9SM CLR 24/19 A2998 1030 71 2400 220/07 RMK AO2
94908KDBQ DBQ20030731094009307/31/03 09:40:31  5-MIN KDBQ 311540Z 22007KT 9SM CLR 24/19 A2998 1030 71 2400 220/07 RMK AO2
94908KDBQ DBQ20030731094509307/31/03 09:45:31  5-MIN KDBQ 311545Z 22007KT 9SM CLR 25/19 A2998 1030 71 2500 220/07 RMK AO2
94908KDBQ DBQ20030731095011007/31/03 09:50:31  5-MIN KDBQ 311550Z 21006KT 9SM CLR 25/19 A2998 1030 71 2500 210/06 RMK AO2 SLP145 T02500194
94908KDBQ DBQ20030731095511007/31/03 09:55:31  5-MIN KDBQ 311555Z 22007KT 9SM CLR 25/19 A2997 1030 71 2500 220/07 RMK AO2 SLP144 T02500194
94908KDBQ DBQ20030731100009307/31/03 10:00:31  5-MIN KDBQ 311600Z VRB05KT 9SM CLR 25/19 A2998 1030 71 2500 VRB/05 RMK AO2
94908KDBQ DBQ20030731100509307/31/03 10:05:31  5-MIN KDBQ 311605Z VRB06KT 9SM CLR 25/19 A2998 1030 71 2500 VRB/06 RMK AO2
94908KDBQ DBQ20030731101009307/31/03 10:10:31  5-MIN KDBQ 311610Z 18006KT 9SM CLR 25/19 A2998 1030 71 2500 180/06 RMK AO2
94908KDBQ DBQ20030731101509307/31/03 10:15:31  5-MIN KDBQ 311615Z 19006KT 9SM CLR 26/20 A2998 1020 71 2500 190/06 RMK AO2
94908KDBQ DBQ20030731102009307/31/03 10:20:31  5-MIN KDBQ 311620Z 22007KT 9SM CLR 26/20 A2998 1030 71 2500 220/07 RMK AO2
94908KDBQ DBQ20030731102509307/31/03 10:25:31  5-MIN KDBQ 311625Z 22006KT 9SM CLR 26/20 A2998 1030 71 2500 220/06 RMK AO2
94908KDBQ DBQ20030731103009307/31/03 10:30:31  5-MIN KDBQ 311630Z 19007KT 9SM CLR 26/20 A2997 1030 68 2600 190/07 RMK AO2
94908KDBQ DBQ20030731103509307/31/03 10:35:31  5-MIN KDBQ 311635Z VRB04KT 9SM CLR 26/20 A2997 1030 71 2500 VRB/04 RMK AO2
94908KDBQ DBQ20030731104009307/31/03 10:40:31  5-MIN KDBQ 311640Z 18008KT 9SM CLR 26/20 A2997 1030 68 2600 170/08 RMK AO2
94908KDBQ DBQ20030731104509407/31/03 10:45:31  5-MIN KDBQ 311645Z 19006KT 10SM CLR 26/20 A2997 1040 68 2600 190/06 RMK AO2
94908KDBQ DBQ20030731105011107/31/03 10:50:31  5-MIN KDBQ 311650Z 21009KT 10SM CLR 27/20 A2997 1040 66 2700 210/09 RMK AO2 SLP141 T02670200
94908KDBQ DBQ20030731105511107/31/03 10:55:31  5-MIN KDBQ 311655Z 18008KT 10SM CLR 26/20 A2997 1040 68 2600 180/08 RMK AO2 SLP141 T02610200
94908KDBQ DBQ20030731110009407/31/03 11:00:31  5-MIN KDBQ 311700Z 19008KT 10SM CLR 26/19 A2996 1040 66 2600 190/08 RMK AO2
94908KDBQ DBQ20030731110509407/31/03 11:05:31  5-MIN KDBQ 311705Z 19008KT 10SM CLR 27/20 A2996 1040 66 2700 190/08 RMK AO2
94908KDBQ DBQ20030731111009407/31/03 11:10:31  5-MIN KDBQ 311710Z 18006KT 10SM CLR 27/20 A2996 1040 66 2700 180/06 RMK AO2
94908KDBQ DBQ20030731111509407/31/03 11:15:31  5-MIN KDBQ 311715Z 17008KT 10SM CLR 27/20 A2996 1040 64 2700 170/08 RMK AO2
94908KDBQ DBQ20030731112009407/31/03 11:20:31  5-MIN KDBQ 311720Z 19008KT 10SM CLR 27/20 A2996 1040 64 2700 190/08 RMK AO2
94908KDBQ DBQ20030731112509407/31/03 11:25:31  5-MIN KDBQ 311725Z 19007KT 10SM CLR 27/20 A2996 1050 66 2700 190/07 RMK AO2
94908KDBQ DBQ20030731113009407/31/03 11:30:31  5-MIN KDBQ 311730Z VRB05KT 10SM CLR 27/21 A2995 1050 66 2700 VRB/05 RMK AO2
94908KDBQ DBQ20030731113509407/31/03 11:35:31  5-MIN KDBQ 311735Z 16007KT 10SM CLR 27/21 A2995 1050 66 2700 160/07 RMK AO2
94908KDBQ DBQ20030731114009407/31/03 11:40:31  5-MIN KDBQ 311740Z 18008KT 10SM CLR 27/21 A2995 1050 66 2700 180/08 RMK AO2
94908KDBQ DBQ20030731114509407/31/03 11:45:31  5-MIN KDBQ 311745Z 16009KT 10SM CLR 27/21 A2995 1050 66 2700 150/09 RMK AO2
94908KDBQ DBQ20030731115012907/31/03 11:50:31  5-MIN KDBQ 311750Z 16006KT 10SM CLR 27/20 A2995 1050 64 2700 160/06 RMK AO2 SLP135 T02720200 10272 20172 56002
94908KDBQ DBQ20030731115512907/31/03 11:55:31  5-MIN KDBQ 311755Z 17009KT 10SM CLR 27/21 A2995 1050 66 2700 170/09 RMK AO2 SLP134 T02720206 10272 20172 58007
94908KDBQ DBQ20030731120009407/31/03 12:00:31  5-MIN KDBQ 311800Z 17009KT 10SM CLR 28/21 A2995 1060 64 2800 170/09 RMK AO2
94908KDBQ DBQ20030731120509407/31/03 12:05:31  5-MIN KDBQ 311805Z 18009KT 10SM CLR 27/21 A2995 1050 66 2700 170/09 RMK AO2
94908KDBQ DBQ20030731121009407/31/03 12:10:31  5-MIN KDBQ 311810Z 15007KT 10SM CLR 28/21 A2994 1060 64 2800 150/07 RMK AO2
94908KDBQ DBQ20030731121509407/31/03 12:15:31  5-MIN KDBQ 311815Z 16009KT 10SM CLR 28/20 A2994 1060 62 2800 160/09 RMK AO2
94908KDBQ DBQ20030731122011007/31/03 12:20:31  5-MIN KDBQ 311820Z 15008KT 120V180 10SM CLR 28/20 A2994 1060 62 2800 150/08 120V180 RMK AO2
94908KDBQ DBQ20030731122509407/31/03 12:25:31  5-MIN KDBQ 311825Z 14009KT 10SM CLR 28/19 A2994 1060 60 2800 140/09 RMK AO2
94908KDBQ DBQ20030731123009407/31/03 12:30:31  5-MIN KDBQ 311830Z 15009KT 10SM CLR 28/19 A2994 1060 60 2800 150/09 RMK AO2
94908KDBQ DBQ20030731123509407/31/03 12:35:31  5-MIN KDBQ 311835Z 15008KT 10SM CLR 28/19 A2994 1060 60 2800 150/08 RMK AO2
94908KDBQ DBQ20030731124009407/31/03 12:40:31  5-MIN KDBQ 311840Z 18010KT 10SM CLR 28/20 A2994 1060 62 2800 180/10 RMK AO2
94908KDBQ DBQ20030731124509407/31/03 12:45:31  5-MIN KDBQ 311845Z 16008KT 10SM CLR 28/21 A2994 1060 64 2800 160/08 RMK AO2
94908KDBQ DBQ20030731125011107/31/03 12:50:31  5-MIN KDBQ 311850Z 16009KT 10SM CLR 28/19 A2993 1070 58 2900 160/09 RMK AO2 SLP129 T02830194
94908KDBQ DBQ20030731125511107/31/03 12:55:31  5-MIN KDBQ 311855Z 15011KT 10SM CLR 28/19 A2993 1070 58 2800 150/11 RMK AO2 SLP128 T02780189
94908KDBQ DBQ20030731130009407/31/03 13:00:31  5-MIN KDBQ 311900Z 16009KT 10SM CLR 28/19 A2993 1070 58 2900 160/09 RMK AO2
94908KDBQ DBQ20030731130509407/31/03 13:05:31  5-MIN KDBQ 311905Z 18008KT 10SM CLR 28/19 A2994 1060 58 2900 180/08 RMK AO2
94908KDBQ DBQ20030731131009407/31/03 13:10:31  5-MIN KDBQ 311910Z 20010KT 10SM CLR 28/18 A2995 1050 56 2800 200/10 RMK AO2
94908KDBQ DBQ20030731131509407/31/03 13:15:31  5-MIN KDBQ 311915Z 21008KT 10SM CLR 28/18 A2995 1050 56 2800 210/08 RMK AO2
94908KDBQ DBQ20030731132009707/31/03 13:20:31  5-MIN KDBQ 311920Z 22009KT 10SM FEW041 28/19 A2996 1050 58 2800 220/09 RMK AO2
94908KDBQ DBQ20030731132509707/31/03 13:25:31  5-MIN KDBQ 311925Z 21009KT 10SM FEW041 28/18 A2996 1040 54 2800 210/09 RMK AO2
94908KDBQ DBQ20030731133009707/31/03 13:30:31  5-MIN KDBQ 311930Z 22009KT 10SM FEW041 28/19 A2995 1050 58 2800 220/09 RMK AO2
94908KDBQ DBQ20030731133509707/31/03 13:35:31  5-MIN KDBQ 311935Z 21010KT 10SM FEW110 28/19 A2995 1050 60 2800 210/10 RMK AO2
94908KDBQ DBQ20030731134009707/31/03 13:40:31  5-MIN KDBQ 311940Z 20010KT 10SM FEW110 28/19 A2995 1050 60 2800 200/10 RMK AO2
94908KDBQ DBQ20030731134509707/31/03 13:45:31  5-MIN KDBQ 311945Z 20010KT 10SM FEW110 28/19 A2995 1050 60 2800 200/10 RMK AO2
94908KDBQ DBQ20030731135011107/31/03 13:50:31  5-MIN KDBQ 311950Z 19009KT 10SM CLR 28/20 A2994 1060 60 2900 190/09 RMK AO2 SLP133 T02830200
94908KDBQ DBQ20030731135511107/31/03 13:55:31  5-MIN KDBQ 311955Z 20010KT 10SM CLR 28/19 A2994 1060 56 2900 200/10 RMK AO2 SLP131 T02830189
94908KDBQ DBQ20030731140010407/31/03 14:00:31  5-MIN KDBQ 312000Z AUTO 20009KT 10SM CLR 28/19 A2994 1060 58 2800 200/09 RMK AO2 TSNO
94908KDBQ DBQ20030731140510407/31/03 14:05:31  5-MIN KDBQ 312005Z AUTO 20007KT 10SM CLR 28/19 A2994 1060 60 2800 200/07 RMK AO2 TSNO
94908KDBQ DBQ20030731141009407/31/03 14:10:31  5-MIN KDBQ 312010Z 21008KT 10SM CLR 28/19 A2994 1060 58 2900 210/08 RMK AO2
94908KDBQ DBQ20030731141509407/31/03 14:15:31  5-MIN KDBQ 312015Z 21009KT 10SM CLR 28/19 A2994 1060 58 2900 210/09 RMK AO2
94908KDBQ DBQ20030731142009407/31/03 14:20:31  5-MIN KDBQ 312020Z 21009KT 10SM CLR 28/19 A2994 1060 58 2800 210/09 RMK AO2
94908KDBQ DBQ20030731142509407/31/03 14:25:31  5-MIN KDBQ 312025Z 22007KT 10SM CLR 28/19 A2994 1060 58 2800 210/07 RMK AO2
94908KDBQ DBQ20030731143009407/31/03 14:30:31  5-MIN KDBQ 312030Z 22008KT 10SM CLR 28/20 A2993 1070 60 2900 220/08 RMK AO2
94908KDBQ DBQ20030731143509407/31/03 14:35:31  5-MIN KDBQ 312035Z 21009KT 10SM CLR 28/19 A2993 1070 56 2900 210/09 RMK AO2
94908KDBQ DBQ20030731144009407/31/03 14:40:31  5-MIN KDBQ 312040Z 20011KT 10SM CLR 29/19 A2993 1070 54 2900 200/11 RMK AO2
94908KDBQ DBQ20030731144509407/31/03 14:45:31  5-MIN KDBQ 312045Z 21011KT 10SM CLR 29/18 A2993 1070 52 2900 210/11 RMK AO2
94908KDBQ DBQ20030731145011707/31/03 14:50:31  5-MIN KDBQ 312050Z 20009KT 10SM CLR 29/19 A2993 1070 54 2900 190/09 RMK AO2 SLP128 T02890189 58007
94908KDBQ DBQ20030731145512007/31/03 14:55:31  5-MIN KDBQ 312055Z 20010KT 10SM FEW095 28/18 A2993 1070 52 2900 200/10 RMK AO2 SLP129 T02830178 56006
94908KDBQ DBQ20030731150009707/31/03 15:00:31  5-MIN KDBQ 312100Z 19011KT 10SM SCT095 28/18 A2993 1070 54 2900 190/11 RMK AO2
94908KDBQ DBQ20030731150509707/31/03 15:05:31  5-MIN KDBQ 312105Z 20011KT 10SM SCT095 28/18 A2993 1070 56 2800 200/11 RMK AO2
94908KDBQ DBQ20030731151009707/31/03 15:10:31  5-MIN KDBQ 312110Z 21011KT 10SM BKN095 28/18 A2993 1070 54 2800 210/11 RMK AO2
94908KDBQ DBQ20030731151509707/31/03 15:15:31  5-MIN KDBQ 312115Z 21010KT 10SM BKN095 28/18 A2993 1070 56 2800 210/10 RMK AO2
94908KDBQ DBQ20030731152009707/31/03 15:20:31  5-MIN KDBQ 312120Z 20010KT 10SM BKN095 28/19 A2993 1070 58 2800 200/10 RMK AO2
94908KDBQ DBQ20030731152509707/31/03 15:25:31  5-MIN KDBQ 312125Z 20010KT 10SM BKN095 27/19 A2993 1070 60 2800 200/10 RMK AO2
94908KDBQ DBQ20030731153009707/31/03 15:30:31  5-MIN KDBQ 312130Z 20010KT 10SM BKN095 27/19 A2993 1070 60 2800 200/10 RMK AO2
94908KDBQ DBQ20030731153509707/31/03 15:35:31  5-MIN KDBQ 312135Z 21007KT 10SM BKN095 27/19 A2993 1070 62 2800 200/07 RMK AO2
94908KDBQ DBQ20030731154009707/31/03 15:40:31  5-MIN KDBQ 312140Z 21007KT 10SM BKN095 27/19 A2993 1070 62 2800 200/07 RMK AO2
94908KDBQ DBQ20030731154509707/31/03 15:45:31  5-MIN KDBQ 312145Z 21008KT 10SM BKN100 27/19 A2993 1070 62 2800 200/08 RMK AO2
94908KDBQ DBQ20030731155011407/31/03 15:50:31  5-MIN KDBQ 312150Z 22007KT 10SM BKN100 27/19 A2993 1070 62 2800 220/07 RMK AO2 SLP131 T02720194
94908KDBQ DBQ20030731155511407/31/03 15:55:31  5-MIN KDBQ 312155Z 23006KT 10SM BKN095 27/19 A2994 1060 64 2700 230/06 RMK AO2 SLP132 T02670194
94908KDBQ DBQ20030731160010407/31/03 16:00:31  5-MIN KDBQ 312200Z 22006KT 10SM FEW080 BKN095 26/20 A2993 1070 68 2600 220/06 RMK AO2
94908KDBQ DBQ20030731160511907/31/03 16:05:31  5-MIN KDBQ 312205Z 19007KT 9SM -RA SCT065 BKN095 26/21 A2993 1070 71 2600 190/07 RMK AO2 RAB02 P0000
94908KDBQ DBQ20030731161011907/31/03 16:10:31  5-MIN KDBQ 312210Z 18007KT 9SM -RA FEW060 BKN095 26/21 A2992 1080 73 2600 180/07 RMK AO2 RAB02 P0000
94908KDBQ DBQ20030731161511907/31/03 16:15:31  5-MIN KDBQ 312215Z 19006KT 10SM FEW065 SCT095 27/21 A2992 1080 66 2800 190/06 RMK AO2 RAB02E13 P0000
94908KDBQ DBQ20030731162011907/31/03 16:20:31  5-MIN KDBQ 312220Z 22009KT 10SM FEW065 SCT095 28/18 A2992 1080 56 2800 220/09 RMK AO2 RAB02E13 P0000
94908KDBQ DBQ20030731162511207/31/03 16:25:31  5-MIN KDBQ 312225Z 19008KT 10SM FEW055 28/16 A2992 1080 46 2800 190/08 RMK AO2 RAB02E13 P0000
94908KDBQ DBQ20030731163011207/31/03 16:30:31  5-MIN KDBQ 312230Z 19006KT 10SM FEW065 27/17 A2992 1080 53 2700 190/06 RMK AO2 RAB02E13 P0000
94908KDBQ DBQ20030731163510907/31/03 16:35:31  5-MIN KDBQ 312235Z 19005KT 10SM CLR 26/17 A2992 1080 57 2600 190/05 RMK AO2 RAB02E13 P0000
94908KDBQ DBQ20030731164010907/31/03 16:40:31  5-MIN KDBQ 312240Z 20003KT 10SM CLR 26/18 A2992 1080 62 2600 190/03 RMK AO2 RAB02E13 P0000
94908KDBQ DBQ20030731164510907/31/03 16:45:31  5-MIN KDBQ 312245Z 19003KT 10SM CLR 27/19 A2992 1080 62 2700 190/03 RMK AO2 RAB02E13 P0000
94908KDBQ DBQ20030731165012607/31/03 16:50:31  5-MIN KDBQ 312250Z 16005KT 10SM CLR 27/20 A2991 1090 66 2700 160/05 RMK AO2 RAB02E13 SLP122 P0000 T02670200
94908KDBQ DBQ20030731165512607/31/03 16:55:31  5-MIN KDBQ 312255Z 17006KT 10SM CLR 26/21 A2991 1090 71 2700 170/06 RMK AO2 RAB02E13 SLP122 P0000 T02610206
94908KDBQ DBQ20030731170009707/31/03 17:00:31  5-MIN KDBQ 312300Z 17006KT 10SM FEW100 26/21 A2991 1090 73 2600 170/06 RMK AO2
94908KDBQ DBQ20030731170509707/31/03 17:05:31  5-MIN KDBQ 312305Z 17007KT 10SM SCT110 26/20 A2991 1090 71 2600 170/07 RMK AO2
94908KDBQ DBQ20030731171009707/31/03 17:10:31  5-MIN KDBQ 312310Z 16006KT 10SM SCT110 26/21 A2990 1090 73 2600 160/06 RMK AO2
94908KDBQ DBQ20030731171509707/31/03 17:15:31  5-MIN KDBQ 312315Z 16006KT 10SM FEW110 26/21 A2990 1100 76 2600 160/06 RMK AO2
94908KDBQ DBQ20030731172009707/31/03 17:20:31  5-MIN KDBQ 312320Z 16006KT 10SM FEW110 26/21 A2990 1100 76 2600 160/06 RMK AO2
94908KDBQ DBQ20030731172509707/31/03 17:25:31  5-MIN KDBQ 312325Z 16006KT 10SM FEW110 26/21 A2990 1100 76 2600 150/06 RMK AO2
94908KDBQ DBQ20030731173009707/31/03 17:30:31  5-MIN KDBQ 312330Z 16006KT 10SM FEW110 26/21 A2990 1090 76 2600 160/06 RMK AO2
94908KDBQ DBQ20030731173509407/31/03 17:35:31  5-MIN KDBQ 312335Z 16006KT 10SM CLR 25/21 A2990 1100 79 2500 160/06 RMK AO2
94908KDBQ DBQ20030731174009407/31/03 17:40:31  5-MIN KDBQ 312340Z 15006KT 10SM CLR 25/21 A2990 1100 79 2500 150/06 RMK AO2
94908KDBQ DBQ20030731174509407/31/03 17:45:31  5-MIN KDBQ 312345Z 16008KT 10SM CLR 25/21 A2990 1100 79 2500 150/08 RMK AO2
94908KDBQ DBQ20030731175013507/31/03 17:50:31  5-MIN KDBQ 312350Z 15009KT 10SM CLR 25/21 A2989 1110 79 2600 150/09 RMK AO2 SLP116 60000 T02500211 10289 20250 56006
94908KDBQ DBQ20030731175513507/31/03 17:55:31  5-MIN KDBQ 312355Z 15008KT 10SM CLR 25/21 A2989 1110 79 2600 150/08 RMK AO2 SLP115 60000 T02500211 10289 20250 58014
94908KDBQ DBQ20030731180009407/31/03 18:00:31  5-MIN KDBQ 010000Z 15009KT 10SM CLR 25/21 A2988 1110 79 2600 150/09 RMK AO2
94908KDBQ DBQ20030731180510307/31/03 18:05:31  5-MIN KDBQ 010005Z AUTO 15010KT 9SM CLR 24/21 A2988 1120 81 2500 150/10 RMK AO2 TSNO
94908KDBQ DBQ20030731181010307/31/03 18:10:31  5-MIN KDBQ 010010Z AUTO 15009KT 9SM CLR 24/21 A2988 1120 81 2500 150/09 RMK AO2 TSNO
94908KDBQ DBQ20030731181510307/31/03 18:15:31  5-MIN KDBQ 010015Z AUTO 15007KT 9SM CLR 24/21 A2988 1120 81 2500 150/07 RMK AO2 TSNO
94908KDBQ DBQ20030731182010307/31/03 18:20:31  5-MIN KDBQ 010020Z AUTO 14004KT 9SM CLR 25/21 A2988 1120 79 2600 140/04 RMK AO2 TSNO
94908KDBQ DBQ20030731182510307/31/03 18:25:31  5-MIN KDBQ 010025Z AUTO 14006KT 9SM CLR 25/21 A2987 1120 79 2600 140/06 RMK AO2 TSNO
94908KDBQ DBQ20030731183010307/31/03 18:30:31  5-MIN KDBQ 010030Z AUTO 17005KT 9SM CLR 25/21 A2988 1120 76 2600 160/05 RMK AO2 TSNO
94908KDBQ DBQ20030731183510307/31/03 18:35:31  5-MIN KDBQ 010035Z AUTO 21004KT 9SM CLR 25/21 A2988 1120 79 2600 200/04 RMK AO2 TSNO
94908KDBQ DBQ20030731184010307/31/03 18:40:31  5-MIN KDBQ 010040Z AUTO 22004KT 9SM CLR 25/21 A2988 1120 79 2600 220/04 RMK AO2 TSNO
94908KDBQ DBQ20030731184510307/31/03 18:45:31  5-MIN KDBQ 010045Z AUTO 24003KT 9SM CLR 24/21 A2988 1120 81 2500 240/03 RMK AO2 TSNO
94908KDBQ DBQ20030731185012007/31/03 18:50:31  5-MIN KDBQ 010050Z AUTO 22003KT 9SM CLR 24/21 A2988 1120 81 2500 220/03 RMK AO2 SLP111 T02440211 TSNO
94908KDBQ DBQ20030731185512007/31/03 18:55:31  5-MIN KDBQ 010055Z AUTO VRB03KT 8SM CLR 24/21 A2988 1120 78 2500 VRB/03 RMK AO2 SLP111 T02440206 TSNO
94908KDBQ DBQ20030731190010307/31/03 19:00:31  5-MIN KDBQ 010100Z AUTO 20005KT 8SM CLR 24/21 A2988 1120 78 2500 200/05 RMK AO2 TSNO
94908KDBQ DBQ20030731190510307/31/03 19:05:31  5-MIN KDBQ 010105Z AUTO 20005KT 7SM CLR 24/21 A2988 1120 78 2500 200/05 RMK AO2 TSNO
94908KDBQ DBQ20030731191010307/31/03 19:10:31  5-MIN KDBQ 010110Z AUTO 21006KT 7SM CLR 24/21 A2988 1120 78 2500 200/06 RMK AO2 TSNO
94908KDBQ DBQ20030731191510307/31/03 19:15:31  5-MIN KDBQ 010115Z AUTO 20006KT 7SM CLR 24/21 A2989 1110 81 2400 200/06 RMK AO2 TSNO
94908KDBQ DBQ20030731192010307/31/03 19:20:31  5-MIN KDBQ 010120Z AUTO 19005KT 7SM CLR 24/21 A2989 1110 81 2400 190/05 RMK AO2 TSNO
94908KDBQ DBQ20030731192510307/31/03 19:25:31  5-MIN KDBQ 010125Z AUTO 18005KT 7SM CLR 24/21 A2988 1110 81 2400 170/05 RMK AO2 TSNO
94908KDBQ DBQ20030731193010307/31/03 19:30:31  5-MIN KDBQ 010130Z AUTO 18004KT 7SM CLR 24/21 A2989 1100 81 2400 180/04 RMK AO2 TSNO
94908KDBQ DBQ20030731193510307/31/03 19:35:31  5-MIN KDBQ 010135Z AUTO 17005KT 7SM CLR 24/20 A2989 1100 76 2500 160/05 RMK AO2 TSNO
94908KDBQ DBQ20030731194010307/31/03 19:40:31  5-MIN KDBQ 010140Z AUTO 17006KT 7SM CLR 24/20 A2990 1100 76 2500 170/06 RMK AO2 TSNO
94908KDBQ DBQ20030731194510307/31/03 19:45:31  5-MIN KDBQ 010145Z AUTO 17005KT 8SM CLR 24/20 A2989 1100 76 2500 170/05 RMK AO2 TSNO
94908KDBQ DBQ20030731195012007/31/03 19:50:31  5-MIN KDBQ 010150Z AUTO 16005KT 8SM CLR 24/20 A2989 1100 78 2400 160/05 RMK AO2 SLP117 T02390200 TSNO
94908KDBQ DBQ20030731195512007/31/03 19:55:31  5-MIN KDBQ 010155Z AUTO 17006KT 8SM CLR 24/20 A2989 1110 78 2400 160/06 RMK AO2 SLP115 T02390200 TSNO
94908KDBQ DBQ20030731200010307/31/03 20:00:31  5-MIN KDBQ 010200Z AUTO 17006KT 8SM CLR 24/20 A2989 1110 78 2400 160/06 RMK AO2 TSNO
94908KDBQ DBQ20030731200510307/31/03 20:05:31  5-MIN KDBQ 010205Z AUTO 16006KT 8SM CLR 23/20 A2989 1110 81 2400 160/06 RMK AO2 TSNO
94908KDBQ DBQ20030731201010307/31/03 20:10:31  5-MIN KDBQ 010210Z AUTO 16007KT 8SM CLR 23/20 A2989 1110 81 2400 160/07 RMK AO2 TSNO
94908KDBQ DBQ20030731201510307/31/03 20:15:31  5-MIN KDBQ 010215Z AUTO 17006KT 8SM CLR 23/20 A2989 1110 81 2400 170/06 RMK AO2 TSNO
94908KDBQ DBQ20030731202010307/31/03 20:20:31  5-MIN KDBQ 010220Z AUTO 17005KT 7SM CLR 23/20 A2989 1110 84 2300 160/05 RMK AO2 TSNO
94908KDBQ DBQ20030731202510307/31/03 20:25:31  5-MIN KDBQ 010225Z AUTO 16005KT 7SM CLR 23/20 A2989 1110 81 2400 160/05 RMK AO2 TSNO
94908KDBQ DBQ20030731203010307/31/03 20:30:31  5-MIN KDBQ 010230Z AUTO 15006KT 7SM CLR 23/20 A2989 1110 84 2300 150/06 RMK AO2 TSNO
94908KDBQ DBQ20030731203510307/31/03 20:35:31  5-MIN KDBQ 010235Z AUTO 15005KT 7SM CLR 23/20 A2989 1110 84 2300 150/05 RMK AO2 TSNO
94908KDBQ DBQ20030731204010307/31/03 20:40:31  5-MIN KDBQ 010240Z AUTO 15005KT 7SM CLR 23/20 A2989 1100 84 2300 150/05 RMK AO2 TSNO
94908KDBQ DBQ20030731204510307/31/03 20:45:31  5-MIN KDBQ 010245Z AUTO 16004KT 7SM CLR 23/20 A2989 1100 84 2300 160/04 RMK AO2 TSNO
94908KDBQ DBQ20030731205012607/31/03 20:50:31  5-MIN KDBQ 010250Z AUTO 17004KT 7SM CLR 22/20 A2990 1100 87 2200 170/04 RMK AO2 SLP118 T02220200 58014 TSNO
94908KDBQ DBQ20030731205512907/31/03 20:55:31  5-MIN KDBQ 010255Z AUTO 00000KT 6SM BR CLR 22/20 A2990 1100 87 2200 000/00 RMK AO2 SLP118 T02220200 53005 TSNO
94908KDBQ DBQ20030731210010607/31/03 21:00:31  5-MIN KDBQ 010300Z AUTO 00000KT 6SM BR CLR 22/20 A2990 1100 87 2200 000/00 RMK AO2 TSNO
94908KDBQ DBQ20030731210510607/31/03 21:05:31  5-MIN KDBQ 010305Z AUTO VRB03KT 6SM BR CLR 22/20 A2990 1100 87 2200 VRB/03 RMK AO2 TSNO
94908KDBQ DBQ20030731211010607/31/03 21:10:31  5-MIN KDBQ 010310Z AUTO 19003KT 6SM BR CLR 22/20 A2990 1100 87 2200 180/03 RMK AO2 TSNO
94908KDBQ DBQ20030731211510607/31/03 21:15:31  5-MIN KDBQ 010315Z AUTO 19004KT 6SM BR CLR 22/20 A2990 1100 90 2200 190/04 RMK AO2 TSNO
94908KDBQ DBQ20030731212010607/31/03 21:20:31  5-MIN KDBQ 010320Z AUTO 18004KT 6SM BR CLR 21/19 A2990 1090 90 2100 180/04 RMK AO2 TSNO
94908KDBQ DBQ20030731212510607/31/03 21:25:31  5-MIN KDBQ 010325Z AUTO 18004KT 6SM BR CLR 22/19 A2991 1090 87 2200 180/04 RMK AO2 TSNO
94908KDBQ DBQ20030731213010607/31/03 21:30:31  5-MIN KDBQ 010330Z AUTO 20003KT 6SM BR CLR 21/19 A2991 1090 90 2100 190/03 RMK AO2 TSNO
94908KDBQ DBQ20030731213510607/31/03 21:35:31  5-MIN KDBQ 010335Z AUTO 21003KT 6SM BR CLR 22/19 A2991 1090 87 2200 200/03 RMK AO2 TSNO
94908KDBQ DBQ20030731214010607/31/03 21:40:31  5-MIN KDBQ 010340Z AUTO 18004KT 6SM BR CLR 22/20 A2991 1090 90 2200 180/04 RMK AO2 TSNO
94908KDBQ DBQ20030731214510607/31/03 21:45:31  5-MIN KDBQ 010345Z AUTO 17005KT 6SM BR CLR 22/20 A2991 1090 90 2200 170/05 RMK AO2 TSNO
94908KDBQ DBQ20030731215012307/31/03 21:50:31  5-MIN KDBQ 010350Z AUTO 17005KT 6SM BR CLR 22/20 A2991 1090 90 2200 170/05 RMK AO2 SLP122 T02170200 TSNO
94908KDBQ DBQ20030731215512307/31/03 21:55:31  5-MIN KDBQ 010355Z AUTO 17005KT 6SM BR CLR 21/20 A2991 1090 93 2100 160/05 RMK AO2 SLP121 T02110200 TSNO
94908KDBQ DBQ20030731220010607/31/03 22:00:31  5-MIN KDBQ 010400Z AUTO 16006KT 5SM BR CLR 21/19 A2991 1090 90 2100 160/06 RMK AO2 TSNO
94908KDBQ DBQ20030731220510607/31/03 22:05:31  5-MIN KDBQ 010405Z AUTO 16006KT 5SM BR CLR 21/19 A2990 1090 90 2100 160/06 RMK AO2 TSNO
94908KDBQ DBQ20030731221010607/31/03 22:10:31  5-MIN KDBQ 010410Z AUTO 16007KT 6SM BR CLR 22/19 A2990 1090 87 2200 160/07 RMK AO2 TSNO
94908KDBQ DBQ20030731221510607/31/03 22:15:31  5-MIN KDBQ 010415Z AUTO 16007KT 6SM BR CLR 22/20 A2990 1100 90 2200 160/07 RMK AO2 TSNO
94908KDBQ DBQ20030731222010607/31/03 22:20:31  5-MIN KDBQ 010420Z AUTO 16008KT 6SM BR CLR 22/20 A2990 1100 90 2200 160/08 RMK AO2 TSNO
94908KDBQ DBQ20030731222510607/31/03 22:25:31  5-MIN KDBQ 010425Z AUTO 16008KT 6SM BR CLR 22/20 A2990 1100 90 2200 160/08 RMK AO2 TSNO
94908KDBQ DBQ20030731223010307/31/03 22:30:31  5-MIN KDBQ 010430Z AUTO 16008KT 7SM CLR 22/20 A2990 1100 90 2200 160/08 RMK AO2 TSNO
94908KDBQ DBQ20030731223510307/31/03 22:35:31  5-MIN KDBQ 010435Z AUTO 16007KT 7SM CLR 22/19 A2990 1100 87 2200 160/07 RMK AO2 TSNO
94908KDBQ DBQ20030731224010307/31/03 22:40:31  5-MIN KDBQ 010440Z AUTO 20005KT 7SM CLR 22/19 A2990 1090 87 2200 200/05 RMK AO2 TSNO
94908KDBQ DBQ20030731224510607/31/03 22:45:31  5-MIN KDBQ 010445Z AUTO 19005KT 6SM BR CLR 21/19 A2991 1090 90 2100 190/05 RMK AO2 TSNO
94908KDBQ DBQ20030731225012307/31/03 22:50:31  5-MIN KDBQ 010450Z AUTO 20005KT 6SM BR CLR 21/19 A2991 1090 90 2100 200/05 RMK AO2 SLP122 T02110194 TSNO
94908KDBQ DBQ20030731225512307/31/03 22:55:31  5-MIN KDBQ 010455Z AUTO 20005KT 6SM BR CLR 21/19 A2991 1090 93 2000 200/05 RMK AO2 SLP122 T02060194 TSNO
94908KDBQ DBQ20030731230010607/31/03 23:00:31  5-MIN KDBQ 010500Z AUTO 19005KT 5SM BR CLR 21/19 A2991 1080 93 2000 190/05 RMK AO2 TSNO
94908KDBQ DBQ20030731230510607/31/03 23:05:31  5-MIN KDBQ 010505Z AUTO 19005KT 5SM BR CLR 21/19 A2991 1090 93 2000 190/05 RMK AO2 TSNO
94908KDBQ DBQ20030731231010607/31/03 23:10:31  5-MIN KDBQ 010510Z AUTO 20005KT 5SM BR CLR 21/19 A2992 1080 93 2000 200/05 RMK AO2 TSNO
94908KDBQ DBQ20030731231510607/31/03 23:15:31  5-MIN KDBQ 010515Z AUTO 20005KT 5SM BR CLR 21/19 A2992 1080 93 2000 200/05 RMK AO2 TSNO
94908KDBQ DBQ20030731232010607/31/03 23:20:31  5-MIN KDBQ 010520Z AUTO 18005KT 5SM BR CLR 21/19 A2992 1080 93 2000 180/05 RMK AO2 TSNO
94908KDBQ DBQ20030731232510607/31/03 23:25:31  5-MIN KDBQ 010525Z AUTO 17005KT 5SM BR CLR 21/19 A2992 1080 93 2000 170/05 RMK AO2 TSNO
94908KDBQ DBQ20030731233010907/31/03 23:30:31  5-MIN KDBQ 010530Z AUTO 16007KT 5SM BR FEW110 21/19 A2992 1080 93 2000 160/07 RMK AO2 TSNO
94908KDBQ DBQ20030731233510907/31/03 23:35:31  5-MIN KDBQ 010535Z AUTO 15009KT 5SM BR FEW110 21/19 A2992 1080 90 2100 150/09 RMK AO2 TSNO
94908KDBQ DBQ20030731234010607/31/03 23:40:31  5-MIN KDBQ 010540Z AUTO 14005KT 5SM BR CLR 21/19 A2992 1080 90 2100 140/05 RMK AO2 TSNO
94908KDBQ DBQ20030731234510607/31/03 23:45:31  5-MIN KDBQ 010545Z AUTO 14009KT 5SM BR CLR 21/19 A2991 1090 90 2100 140/09 RMK AO2 TSNO
94908KDBQ DBQ20030731235015107/31/03 23:50:31  5-MIN KDBQ 010550Z AUTO 15008KT 5SM BR CLR 21/19 A2991 1090 90 2100 150/08 RMK AO2 SLP119 T02110194 10250 20206 402890161 53005 TSNO
94908KDBQ DBQ20030731235515107/31/03 23:55:31  5-MIN KDBQ 010555Z AUTO 17007KT 5SM BR CLR 21/19 A2990 1090 90 2100 160/07 RMK AO2 SLP119 T02110194 10250 20206 402890161 50001 TSNO
