94908KDBQ DBQ20110401000010004/01/11 00:00:49  5-MIN KDBQ 010600Z AUTO 00000KT 10SM CLR 00/M08 A2966 1320 56 -100 000/00 RMK AO2
94908KDBQ DBQ20110401000510004/01/11 00:05:31  5-MIN KDBQ 010605Z AUTO 20003KT 10SM CLR 00/M08 A2966 1320 53 -100 190/03 RMK AO2
94908KDBQ DBQ20110401001010004/01/11 00:10:31  5-MIN KDBQ 010610Z AUTO 20003KT 10SM CLR 00/M08 A2966 1320 53 -100 200/03 RMK AO2
94908KDBQ DBQ20110401001510004/01/11 00:15:31  5-MIN KDBQ 010615Z AUTO 20003KT 10SM CLR 00/M08 A2966 1320 53 -100 200/03 RMK AO2
94908KDBQ DBQ20110401002010004/01/11 00:20:31  5-MIN KDBQ 010620Z AUTO 20003KT 10SM CLR 00/M08 A2965 1330 53 -100 200/03 RMK AO2
94908KDBQ DBQ20110401002510304/01/11 00:25:31  5-MIN KDBQ 010625Z AUTO 19003KT 10SM FEW070 00/M08 A2965 1330 53 -100 190/03 RMK AO2
94908KDBQ DBQ20110401003010304/01/11 00:30:31  5-MIN KDBQ 010630Z AUTO 00000KT 10SM SCT070 00/M08 A2965 1330 53 -100 000/00 RMK AO2
94908KDBQ DBQ20110401003510004/01/11 00:35:31  5-MIN KDBQ 010635Z AUTO 17005KT 10SM SCT070 01/M08 A2965 1330 51 0 170/05 RMK AO2
94908KDBQ DBQ20110401004010204/01/11 00:40:31  5-MIN KDBQ 010640Z AUTO 16006KT 10SM SCT070 02/M09 A2965 1330 45 100 160/06 RMK AO2
94908KDBQ DBQ20110401004510204/01/11 00:45:31  5-MIN KDBQ 010645Z AUTO 15007KT 10SM SCT070 02/M08 A2965 1330 47 100 150/07 RMK AO2
94908KDBQ DBQ20110401005011904/01/11 00:50:31  5-MIN KDBQ 010650Z AUTO 15008KT 10SM BKN070 02/M09 A2965 1330 45 100 150/08 RMK AO2 SLP046 T00171089
94908KDBQ DBQ20110401005510204/01/11 00:55:31  5-MIN KDBQ 010655Z AUTO 15007KT 10SM SCT070 02/M09 A2964 1340 44 100 150/07 RMK AO2
94908KDBQ DBQ20110401010010204/01/11 01:00:31  5-MIN KDBQ 010700Z AUTO 15007KT 10SM SCT070 02/M09 A2964 1340 42 100 150/07 RMK AO2
94908KDBQ DBQ20110401010510204/01/11 01:05:31  5-MIN KDBQ 010705Z AUTO 15008KT 10SM FEW070 02/M09 A2964 1340 42 200 150/08 RMK AO2
94908KDBQ DBQ20110401011010204/01/11 01:10:31  5-MIN KDBQ 010710Z AUTO 15008KT 10SM SCT070 02/M09 A2964 1340 42 200 150/08 RMK AO2
94908KDBQ DBQ20110401011510204/01/11 01:15:31  5-MIN KDBQ 010715Z AUTO 15008KT 10SM BKN070 02/M09 A2964 1340 44 200 150/08 RMK AO2
94908KDBQ DBQ20110401012010204/01/11 01:20:31  5-MIN KDBQ 010720Z AUTO 15008KT 10SM BKN070 02/M09 A2963 1350 44 200 150/08 RMK AO2
94908KDBQ DBQ20110401012510204/01/11 01:25:31  5-MIN KDBQ 010725Z AUTO 15008KT 10SM SCT070 02/M09 A2963 1350 44 200 150/08 RMK AO2
94908KDBQ DBQ20110401013010204/01/11 01:30:31  5-MIN KDBQ 010730Z AUTO 15009KT 10SM SCT070 02/M09 A2963 1350 44 200 150/09 RMK AO2
94908KDBQ DBQ20110401013510904/01/11 01:35:31  5-MIN KDBQ 010735Z AUTO 15010KT 10SM SCT070 BKN100 02/M09 A2963 1350 44 200 150/10 RMK AO2
94908KDBQ DBQ20110401014010904/01/11 01:40:31  5-MIN KDBQ 010740Z AUTO 15010KT 10SM SCT070 BKN100 02/M09 A2962 1350 44 200 150/10 RMK AO2
94908KDBQ DBQ20110401014510904/01/11 01:45:31  5-MIN KDBQ 010745Z AUTO 15009KT 10SM SCT070 BKN095 02/M08 A2962 1350 45 200 150/09 RMK AO2
94908KDBQ DBQ20110401015012604/01/11 01:50:31  5-MIN KDBQ 010750Z AUTO 15010KT 10SM SCT070 BKN095 02/M08 A2962 1360 45 200 150/10 RMK AO2 SLP037 T00221083
94908KDBQ DBQ20110401015510904/01/11 01:55:31  5-MIN KDBQ 010755Z AUTO 15010KT 10SM BKN070 BKN100 02/M08 A2962 1360 45 200 150/10 RMK AO2
94908KDBQ DBQ20110401020010904/01/11 02:00:31  5-MIN KDBQ 010800Z AUTO 15010KT 10SM BKN070 BKN100 02/M08 A2962 1360 49 100 150/10 RMK AO2
94908KDBQ DBQ20110401020510904/01/11 02:05:31  5-MIN KDBQ 010805Z AUTO 15009KT 10SM BKN070 BKN090 02/M08 A2961 1360 49 100 150/09 RMK AO2
94908KDBQ DBQ20110401021010904/01/11 02:10:31  5-MIN KDBQ 010810Z AUTO 15008KT 10SM BKN070 OVC110 02/M08 A2961 1360 49 100 150/08 RMK AO2
94908KDBQ DBQ20110401021510904/01/11 02:15:31  5-MIN KDBQ 010815Z AUTO 16008KT 10SM BKN070 OVC110 02/M08 A2961 1360 47 100 160/08 RMK AO2
94908KDBQ DBQ20110401022010904/01/11 02:20:31  5-MIN KDBQ 010820Z AUTO 17005KT 10SM SCT070 OVC110 02/M08 A2961 1360 49 100 170/05 RMK AO2
94908KDBQ DBQ20110401022510904/01/11 02:25:31  5-MIN KDBQ 010825Z AUTO 18005KT 10SM SCT070 OVC110 02/M08 A2961 1370 49 100 180/05 RMK AO2
94908KDBQ DBQ20110401023010704/01/11 02:30:31  5-MIN KDBQ 010830Z AUTO 18005KT 10SM FEW065 OVC100 01/M07 A2961 1370 54 0 180/05 RMK AO2
94908KDBQ DBQ20110401023510904/01/11 02:35:31  5-MIN KDBQ 010835Z AUTO 19004KT 10SM BKN090 OVC110 02/M07 A2961 1370 52 100 190/04 RMK AO2
94908KDBQ DBQ20110401024010204/01/11 02:40:31  5-MIN KDBQ 010840Z AUTO 20006KT 10SM OVC100 01/M07 A2961 1370 56 100 200/06 RMK AO2
94908KDBQ DBQ20110401024510204/01/11 02:45:31  5-MIN KDBQ 010845Z AUTO 20007KT 10SM OVC100 02/M07 A2961 1370 52 100 200/07 RMK AO2
94908KDBQ DBQ20110401025012304/01/11 02:50:31  5-MIN KDBQ 010850Z AUTO 22007KT 10SM OVC100 01/M07 A2961 1370 56 0 220/07 RMK AO2 SLP032 T00111067 56012
94908KDBQ DBQ20110401025510004/01/11 02:55:31  5-MIN KDBQ 010855Z AUTO 20007KT 10SM OVC100 01/M07 A2961 1370 56 0 200/07 RMK AO2
94908KDBQ DBQ20110401030010004/01/11 03:00:31  5-MIN KDBQ 010900Z AUTO 20006KT 10SM OVC100 01/M07 A2961 1370 56 0 200/06 RMK AO2
94908KDBQ DBQ20110401030510004/01/11 03:05:31  5-MIN KDBQ 010905Z AUTO 20007KT 10SM OVC100 01/M07 A2961 1370 56 0 200/07 RMK AO2
94908KDBQ DBQ20110401031010004/01/11 03:10:31  5-MIN KDBQ 010910Z AUTO 19006KT 10SM OVC095 01/M07 A2961 1370 56 0 190/06 RMK AO2
94908KDBQ DBQ20110401031510004/01/11 03:15:31  5-MIN KDBQ 010915Z AUTO 20005KT 10SM OVC090 01/M07 A2961 1370 56 0 200/05 RMK AO2
94908KDBQ DBQ20110401032010004/01/11 03:20:31  5-MIN KDBQ 010920Z AUTO 19005KT 10SM OVC090 01/M07 A2961 1370 56 0 190/05 RMK AO2
94908KDBQ DBQ20110401032510704/01/11 03:25:31  5-MIN KDBQ 010925Z AUTO 20006KT 10SM FEW060 OVC090 01/M07 A2961 1370 56 0 190/06 RMK AO2
94908KDBQ DBQ20110401033010704/01/11 03:30:31  5-MIN KDBQ 010930Z AUTO 20005KT 10SM BKN070 OVC085 01/M07 A2961 1370 56 0 200/05 RMK AO2
94908KDBQ DBQ20110401033510904/01/11 03:35:31  5-MIN KDBQ 010935Z AUTO 21005KT 10SM BKN060 OVC085 02/M07 A2961 1370 54 100 200/05 RMK AO2
94908KDBQ DBQ20110401034010704/01/11 03:40:31  5-MIN KDBQ 010940Z AUTO 20005KT 10SM BKN055 OVC080 01/M07 A2961 1370 56 0 200/05 RMK AO2
94908KDBQ DBQ20110401034511604/01/11 03:45:31  5-MIN KDBQ 010945Z AUTO 20004KT 10SM BKN050 BKN065 OVC080 02/M07 A2961 1370 54 100 200/04 RMK AO2
94908KDBQ DBQ20110401035012604/01/11 03:50:31  5-MIN KDBQ 010950Z AUTO 19004KT 10SM BKN047 OVC060 02/M07 A2961 1370 54 100 190/04 RMK AO2 SLP034 T00171067
94908KDBQ DBQ20110401035510704/01/11 03:55:31  5-MIN KDBQ 010955Z AUTO 20004KT 10SM BKN043 OVC060 01/M06 A2961 1370 58 0 200/04 RMK AO2
94908KDBQ DBQ20110401040010004/01/11 04:00:31  5-MIN KDBQ 011000Z AUTO 20003KT 10SM OVC039 01/M06 A2961 1370 58 0 200/03 RMK AO2
94908KDBQ DBQ20110401040510904/01/11 04:05:31  5-MIN KDBQ 011005Z AUTO 00000KT 10SM BKN037 OVC060 01/M06 A2961 1370 61 100 000/00 RMK AO2
94908KDBQ DBQ20110401041010904/01/11 04:10:31  5-MIN KDBQ 011010Z AUTO 15004KT 10SM BKN041 OVC060 01/M06 A2960 1370 61 100 150/04 RMK AO2
94908KDBQ DBQ20110401041511604/01/11 04:15:31  5-MIN KDBQ 011015Z AUTO 14004KT 10SM BKN041 BKN065 OVC080 02/M06 A2960 1370 59 100 140/04 RMK AO2
94908KDBQ DBQ20110401042011604/01/11 04:20:31  5-MIN KDBQ 011020Z AUTO 14004KT 10SM SCT039 SCT050 OVC075 02/M06 A2960 1370 59 100 140/04 RMK AO2
94908KDBQ DBQ20110401042511604/01/11 04:25:31  5-MIN KDBQ 011025Z AUTO 13003KT 10SM SCT043 BKN055 OVC070 02/M06 A2960 1370 56 200 130/03 RMK AO2
94908KDBQ DBQ20110401043011604/01/11 04:30:31  5-MIN KDBQ 011030Z AUTO 14003KT 10SM SCT050 BKN060 OVC075 02/M05 A2960 1380 59 200 140/03 RMK AO2
94908KDBQ DBQ20110401043510904/01/11 04:35:31  5-MIN KDBQ 011035Z AUTO 16003KT 10SM BKN055 OVC070 02/M04 A2960 1380 61 200 160/03 RMK AO2
94908KDBQ DBQ20110401044010904/01/11 04:40:31  5-MIN KDBQ 011040Z AUTO 00000KT 10SM BKN060 OVC080 02/M04 A2960 1380 61 200 000/00 RMK AO2
94908KDBQ DBQ20110401044511604/01/11 04:45:31  5-MIN KDBQ 011045Z AUTO 19004KT 10SM SCT050 BKN060 OVC075 02/M04 A2960 1380 64 200 190/04 RMK AO2
94908KDBQ DBQ20110401045012104/01/11 04:50:31  5-MIN KDBQ 011050Z 00000KT 10SM BKN050 OVC065 02/M04 A2960 1380 66 100 000/00 RMK AO2 SLP028 T00171039
94908KDBQ DBQ20110401045510404/01/11 04:55:31  5-MIN KDBQ 011055Z 00000KT 10SM BKN044 OVC060 02/M04 A2960 1380 64 100 000/00 RMK AO2
94908KDBQ DBQ20110401050012004/01/11 05:00:31  5-MIN KDBQ 011100Z 13004KT 9SM UP SCT042 OVC060 02/M04 A2959 1380 66 100 130/04 RMK AO2 UPB1056 P0000
94908KDBQ DBQ20110401050512104/01/11 05:05:31  5-MIN KDBQ 011105Z 14005KT 10SM SCT044 OVC065 02/M04 A2959 1380 66 100 140/05 RMK AO2 UPB1056E05 P0000
94908KDBQ DBQ20110401051012104/01/11 05:10:31  5-MIN KDBQ 011110Z 13005KT 10SM BKN040 OVC060 02/M04 A2959 1380 66 100 130/05 RMK AO2 UPB1056E05 P0000
94908KDBQ DBQ20110401051512004/01/11 05:15:31  5-MIN KDBQ 011115Z 14004KT 8SM UP BKN033 OVC065 02/M04 A2959 1380 66 100 140/04 RMK AO2 UPB1056 P0000
94908KDBQ DBQ20110401052012704/01/11 05:20:31  5-MIN KDBQ 011120Z 13005KT 7SM UP BKN029 BKN042 OVC065 01/M04 A2959 1380 69 100 130/05 RMK AO2 UPB1056 P0000
94908KDBQ DBQ20110401052512704/01/11 05:25:31  5-MIN KDBQ 011125Z 14003KT 7SM UP FEW027 BKN040 OVC065 01/M03 A2959 1380 72 100 140/03 RMK AO2 UPB1056 P0000
94908KDBQ DBQ20110401053013604/01/11 05:30:31  5-MIN KDBQ 011130Z 14004KT 7SM -RA FEW027 BKN038 OVC049 01/M03 A2959 1380 72 100 140/04 RMK AO2 UPB1056E29RAB29 P0000
94908KDBQ DBQ20110401053513604/01/11 05:35:31  5-MIN KDBQ 011135Z 13005KT 7SM -RA FEW027 BKN036 OVC049 01/M03 A2959 1390 72 100 130/05 RMK AO2 UPB1056E29RAB29 P0001
94908KDBQ DBQ20110401054013504/01/11 05:40:31  5-MIN KDBQ 011140Z 12004KT 9SM UP FEW023 BKN032 OVC039 01/M03 A2959 1390 75 100 120/04 RMK AO2 UPB1056RAB29E40 P0001
94908KDBQ DBQ20110401054513504/01/11 05:45:31  5-MIN KDBQ 011145Z 12006KT 7SM RA BKN032 BKN039 OVC049 01/M03 A2959 1390 75 100 120/06 RMK AO2 UPB1056E43RAB29 P0001
94908KDBQ DBQ20110401055012704/01/11 05:50:31  5-MIN KDBQ 011150Z 11006KT 7SM -RA BKN029 OVC037 01/M03 A2959 1390 78 0 110/06 RMK AO2 UPB1056E43RAB29 P0002
94908KDBQ DBQ20110401055511104/01/11 05:55:31  5-MIN KDBQ 011155Z 12006KT 8SM -RA BKN029 OVC035 01/M03 A2958 1390 78 0 120/06 RMK AO2 P0000
94908KDBQ DBQ20110401060011104/01/11 06:00:31  5-MIN KDBQ 011200Z 13005KT 7SM -RA BKN029 OVC035 01/M03 A2958 1390 78 0 120/05 RMK AO2 P0000
94908KDBQ DBQ20110401060510404/01/11 06:05:31  5-MIN KDBQ 011205Z 14006KT 8SM -RA OVC029 01/M02 A2958 1390 82 0 140/06 RMK AO2 P0000
94908KDBQ DBQ20110401061011104/01/11 06:10:31  5-MIN KDBQ 011210Z 14004KT 9SM -RA BKN027 OVC033 01/M02 A2958 1390 82 0 140/04 RMK AO2 P0000
94908KDBQ DBQ20110401061511304/01/11 06:15:31  5-MIN KDBQ 011215Z 14006KT 8SM -RA BKN027 OVC032 01/M02 A2958 1390 78 100 140/06 RMK AO2 P0000
94908KDBQ DBQ20110401062012104/01/11 06:20:31  5-MIN KDBQ 011220Z 14006KT 7SM UP BKN025 OVC034 01/M02 A2958 1390 82 0 140/06 RMK AO2 RAE16UPB18 P0000
94908KDBQ DBQ20110401062512104/01/11 06:25:31  5-MIN KDBQ 011225Z 14005KT 7SM UP BKN025 OVC032 01/M02 A2959 1390 82 0 140/05 RMK AO2 RAE16UPB18 P0000
94908KDBQ DBQ20110401063011404/01/11 06:30:31  5-MIN KDBQ 011230Z 15004KT 6SM UP OVC023 01/M02 A2959 1390 82 0 150/04 RMK AO2 RAE16UPB18 P0000
94908KDBQ DBQ20110401063513404/01/11 06:35:31  5-MIN KDBQ 011235Z 15005KT 4SM -FZRA FEW015 OVC023 01/M02 A2959 1380 82 0 150/05 RMK AO2 RAE16UPB18E34FZRAB34 P0001
94908KDBQ DBQ20110401064013404/01/11 06:40:31  5-MIN KDBQ 011240Z VRB05KT 3SM -FZRA FEW015 OVC023 01/M02 A2959 1380 82 0 VRB/05 RMK AO2 RAE16UPB18E34FZRAB34 P0001
94908KDBQ DBQ20110401064513004/01/11 06:45:31  5-MIN KDBQ 011245Z 19005KT 4SM -FZRA BR OVC021 01/M02 A2959 1380 85 0 190/05 RMK AO2 RAE16UPB18E34FZRAB34 P0002
94908KDBQ DBQ20110401065013604/01/11 06:50:31  5-MIN KDBQ 011250Z 19006KT 4SM -SN BR OVC021 01/M01 A2960 1380 89 0 190/06 RMK AO2 RAE16UPB18E34FZRAB34E50SNB50 P0002
94908KDBQ DBQ20110401065510704/01/11 06:55:31  5-MIN KDBQ 011255Z 20007KT 3SM -SN BR OVC021 01/M02 A2960 1380 85 0 200/07 RMK AO2 P0000
94908KDBQ DBQ20110401070010704/01/11 07:00:31  5-MIN KDBQ 011300Z 20006KT 3SM -SN BR OVC019 01/M01 A2959 1380 89 0 200/06 RMK AO2 P0000
94908KDBQ DBQ20110401070510704/01/11 07:05:31  5-MIN KDBQ 011305Z 18008KT 3SM -SN BR OVC017 01/M01 A2959 1380 89 0 180/08 RMK AO2 P0000
94908KDBQ DBQ20110401071010704/01/11 07:10:31  5-MIN KDBQ 011310Z 17007KT 4SM -SN BR OVC014 01/M01 A2959 1380 89 0 170/07 RMK AO2 P0000
94908KDBQ DBQ20110401071512804/01/11 07:15:31  5-MIN KDBQ 011315Z 17007KT 6SM BR BKN011 OVC017 01/M01 A2960 1380 89 0 170/07 RMK AO2 SNE11 CIG 008V014 P0000
94908KDBQ DBQ20110401072012804/01/11 07:20:31  5-MIN KDBQ 011320Z 17007KT 6SM BR BKN009 OVC015 01/M01 A2960 1380 89 0 170/07 RMK AO2 SNE11 CIG 008V011 P0000
94908KDBQ DBQ20110401072512804/01/11 07:25:31  5-MIN KDBQ 011325Z 16006KT 6SM BR BKN009 OVC015 01/M01 A2960 1380 89 0 160/06 RMK AO2 SNE11 CIG 007V011 P0000
94908KDBQ DBQ20110401073012804/01/11 07:30:31  5-MIN KDBQ 011330Z 17007KT 6SM BR BKN009 OVC015 01/M01 A2960 1380 89 0 170/07 RMK AO2 SNE11 CIG 007V011 P0000
94908KDBQ DBQ20110401073512104/01/11 07:35:31  5-MIN KDBQ 011335Z 17006KT 6SM BR OVC009 01/M01 A2960 1380 89 0 170/06 RMK AO2 SNE11 CIG 007V011 P0000
94908KDBQ DBQ20110401074010904/01/11 07:40:31  5-MIN KDBQ 011340Z 17006KT 5SM BR OVC009 01/M01 A2960 1380 89 0 170/06 RMK AO2 SNE11 P0000
94908KDBQ DBQ20110401074510904/01/11 07:45:31  5-MIN KDBQ 011345Z 17006KT 4SM BR OVC009 01/M01 A2960 1380 89 0 160/06 RMK AO2 SNE11 P0000
94908KDBQ DBQ20110401075012604/01/11 07:50:31  5-MIN KDBQ 011350Z 16006KT 4SM BR OVC009 01/M01 A2960 1380 89 0 160/06 RMK AO2 SNE11 SLP031 P0000 T00061011
94908KDBQ DBQ20110401075509704/01/11 07:55:31  5-MIN KDBQ 011355Z 17005KT 3SM BR OVC009 01/M01 A2960 1380 92 0 160/05 RMK AO2
94908KDBQ DBQ20110401080009904/01/11 08:00:31  5-MIN KDBQ 011400Z 16004KT 3SM BR OVC009 01/M01 A2959 1380 89 100 160/04 RMK AO2
94908KDBQ DBQ20110401080509804/01/11 08:05:31  5-MIN KDBQ 011405Z 19004KT 4SM BR OVC009 01/00 A2959 1380 92 100 180/04 RMK AO2
94908KDBQ DBQ20110401081009804/01/11 08:10:31  5-MIN KDBQ 011410Z 19004KT 4SM BR OVC009 01/00 A2959 1380 92 100 190/04 RMK AO2
94908KDBQ DBQ20110401081509804/01/11 08:15:31  5-MIN KDBQ 011415Z 19005KT 4SM BR OVC007 02/00 A2959 1380 89 100 190/05 RMK AO2
94908KDBQ DBQ20110401082009804/01/11 08:20:31  5-MIN KDBQ 011420Z 19005KT 4SM BR OVC007 02/00 A2959 1380 89 100 190/05 RMK AO2
94908KDBQ DBQ20110401082509804/01/11 08:25:31  5-MIN KDBQ 011425Z 20005KT 4SM BR OVC007 02/00 A2959 1380 89 100 200/05 RMK AO2
94908KDBQ DBQ20110401083009804/01/11 08:30:31  5-MIN KDBQ 011430Z 17005KT 4SM BR OVC007 02/00 A2959 1380 89 100 170/05 RMK AO2
94908KDBQ DBQ20110401083510504/01/11 08:35:31  5-MIN KDBQ 011435Z 22005KT 4SM BR BKN007 OVC011 02/00 A2959 1380 89 100 220/05 RMK AO2
94908KDBQ DBQ20110401084011704/01/11 08:40:31  5-MIN KDBQ 011440Z 20004KT 4SM BR BKN007 OVC015 02/01 A2960 1380 92 100 200/04 RMK AO2 CIG 006V011
94908KDBQ DBQ20110401084512404/01/11 08:45:31  5-MIN KDBQ 011445Z 24005KT 4SM BR BKN009 BKN015 OVC027 02/01 A2960 1380 92 200 240/05 RMK AO2 CIG 006V011
94908KDBQ DBQ20110401085011204/01/11 08:50:31  5-MIN KDBQ 011450Z 22005KT 4SM BR SCT009 BKN013 OVC027 02/01 A2960 1380 89 200 220/05 RMK AO2
94908KDBQ DBQ20110401085511204/01/11 08:55:31  5-MIN KDBQ 011455Z 23006KT 4SM BR FEW007 BKN013 OVC030 02/01 A2960 1380 92 200 230/06 RMK AO2
94908KDBQ DBQ20110401090011204/01/11 09:00:31  5-MIN KDBQ 011500Z 23005KT 4SM BR SCT011 BKN015 OVC032 03/02 A2960 1380 92 300 230/05 RMK AO2
94908KDBQ DBQ20110401090511204/01/11 09:05:31  5-MIN KDBQ 011505Z 24006KT 4SM BR FEW010 BKN027 OVC032 03/02 A2960 1380 92 300 230/06 RMK AO2
94908KDBQ DBQ20110401091011204/01/11 09:10:31  5-MIN KDBQ 011510Z 28009KT 4SM BR FEW010 SCT014 OVC030 04/03 A2960 1380 92 400 280/09 RMK AO2
94908KDBQ DBQ20110401091511204/01/11 09:15:31  5-MIN KDBQ 011515Z 29013KT 5SM BR FEW013 BKN024 OVC030 04/02 A2960 1370 85 500 280/13 RMK AO2
94908KDBQ DBQ20110401092011504/01/11 09:20:31  5-MIN KDBQ 011520Z 28015G20KT 7SM FEW013 BKN022 OVC032 04/02 A2960 1370 85 500 280/15G20 RMK AO2
94908KDBQ DBQ20110401092511504/01/11 09:25:31  5-MIN KDBQ 011525Z 29011G20KT 7SM FEW013 BKN022 OVC032 04/02 A2960 1370 85 500 290/11G20 RMK AO2
94908KDBQ DBQ20110401093011504/01/11 09:30:31  5-MIN KDBQ 011530Z 29014G19KT 7SM SCT016 BKN022 OVC030 04/02 A2960 1370 85 500 290/14G19 RMK AO2
94908KDBQ DBQ20110401093510804/01/11 09:35:31  5-MIN KDBQ 011535Z 29013G20KT 8SM BKN018 OVC024 04/02 A2960 1370 85 500 290/13G20 RMK AO2
94908KDBQ DBQ20110401094010804/01/11 09:40:31  5-MIN KDBQ 011540Z 29012G20KT 8SM SCT015 OVC022 04/02 A2961 1370 85 500 290/12G20 RMK AO2
94908KDBQ DBQ20110401094510804/01/11 09:45:31  5-MIN KDBQ 011545Z 30017G20KT 8SM BKN015 OVC022 04/02 A2961 1370 85 500 300/17G20 RMK AO2
94908KDBQ DBQ20110401095012504/01/11 09:50:31  5-MIN KDBQ 011550Z 31016G20KT 8SM BKN015 OVC022 04/02 A2961 1370 82 500 310/16G20 RMK AO2 SLP035 T00440017
94908KDBQ DBQ20110401095510204/01/11 09:55:31  5-MIN KDBQ 011555Z 30015KT 9SM SCT015 OVC022 04/02 A2961 1370 82 500 300/15 RMK AO2
94908KDBQ DBQ20110401100010204/01/11 10:00:31  5-MIN KDBQ 011600Z 28014KT 9SM SCT015 OVC022 04/02 A2961 1360 85 500 280/14 RMK AO2
94908KDBQ DBQ20110401100510904/01/11 10:05:31  5-MIN KDBQ 011605Z 29015G21KT 10SM SCT016 BKN022 06/02 A2961 1360 79 600 290/15G21 RMK AO2
94908KDBQ DBQ20110401101010904/01/11 10:10:31  5-MIN KDBQ 011610Z 28013G21KT 10SM FEW016 BKN022 05/02 A2961 1360 82 500 280/13G21 RMK AO2
94908KDBQ DBQ20110401101510304/01/11 10:15:31  5-MIN KDBQ 011615Z 29015KT 10SM FEW016 BKN022 06/02 A2961 1360 79 600 290/15 RMK AO2
94908KDBQ DBQ20110401102009604/01/11 10:20:31  5-MIN KDBQ 011620Z 29017KT 10SM BKN021 05/01 A2961 1360 76 500 290/17 RMK AO2
94908KDBQ DBQ20110401102509604/01/11 10:25:31  5-MIN KDBQ 011625Z 30013KT 10SM BKN019 05/01 A2962 1360 76 500 300/13 RMK AO2
94908KDBQ DBQ20110401103010304/01/11 10:30:31  5-MIN KDBQ 011630Z 29015KT 10SM BKN019 BKN025 04/01 A2962 1360 79 400 290/15 RMK AO2
94908KDBQ DBQ20110401103509604/01/11 10:35:31  5-MIN KDBQ 011635Z 30012KT 10SM BKN019 04/01 A2962 1360 79 500 300/12 RMK AO2
94908KDBQ DBQ20110401104010204/01/11 10:40:31  5-MIN KDBQ 011640Z 30016G22KT 10SM OVC019 04/02 A2962 1360 82 400 300/16G22 RMK AO2
94908KDBQ DBQ20110401104510104/01/11 10:45:31  5-MIN KDBQ 011645Z 30014G22KT 9SM OVC019 04/01 A2962 1360 79 400 290/14G22 RMK AO2
94908KDBQ DBQ20110401105011804/01/11 10:50:31  5-MIN KDBQ 011650Z 30016G21KT 9SM OVC017 04/01 A2962 1360 79 400 300/16G21 RMK AO2 SLP039 T00440011
94908KDBQ DBQ20110401105510204/01/11 10:55:31  5-MIN KDBQ 011655Z 30017G24KT 10SM OVC017 04/01 A2962 1350 79 400 300/17G24 RMK AO2
94908KDBQ DBQ20110401110010204/01/11 11:00:31  5-MIN KDBQ 011700Z 29016G24KT 10SM OVC017 04/01 A2962 1350 82 400 290/16G24 RMK AO2
94908KDBQ DBQ20110401110509604/01/11 11:05:31  5-MIN KDBQ 011705Z 31015KT 10SM OVC017 04/01 A2962 1350 79 400 310/15 RMK AO2
94908KDBQ DBQ20110401111010204/01/11 11:10:31  5-MIN KDBQ 011710Z 31016G23KT 10SM OVC017 04/01 A2962 1350 79 400 310/16G23 RMK AO2
94908KDBQ DBQ20110401111510204/01/11 11:15:31  5-MIN KDBQ 011715Z 30016G23KT 10SM OVC017 04/01 A2962 1360 79 400 300/16G23 RMK AO2
94908KDBQ DBQ20110401112009604/01/11 11:20:31  5-MIN KDBQ 011720Z 31014KT 10SM OVC017 04/01 A2962 1360 76 400 310/14 RMK AO2
94908KDBQ DBQ20110401112510204/01/11 11:25:31  5-MIN KDBQ 011725Z 31012G21KT 10SM OVC019 04/01 A2962 1360 79 400 310/12G21 RMK AO2
94908KDBQ DBQ20110401113010204/01/11 11:30:31  5-MIN KDBQ 011730Z 31011G18KT 10SM OVC017 04/01 A2962 1360 79 400 310/11G18 RMK AO2
94908KDBQ DBQ20110401113509604/01/11 11:35:31  5-MIN KDBQ 011735Z 31011KT 10SM OVC017 04/01 A2962 1360 79 400 310/11 RMK AO2
94908KDBQ DBQ20110401114009604/01/11 11:40:31  5-MIN KDBQ 011740Z 30011KT 10SM OVC017 04/01 A2962 1360 79 400 300/11 RMK AO2
94908KDBQ DBQ20110401114509604/01/11 11:45:31  5-MIN KDBQ 011745Z 31012KT 10SM OVC017 04/01 A2962 1360 79 400 310/12 RMK AO2
94908KDBQ DBQ20110401115013704/01/11 11:50:31  5-MIN KDBQ 011750Z 31012KT 10SM OVC017 04/01 A2962 1360 79 400 310/12 RMK AO2 SLP039 60002 T00440011 10056 20006 51004
94908KDBQ DBQ20110401115510304/01/11 11:55:31  5-MIN KDBQ 011755Z 31011KT 10SM BKN017 OVC029 05/01 A2962 1360 76 500 310/11 RMK AO2
94908KDBQ DBQ20110401120010304/01/11 12:00:31  5-MIN KDBQ 011800Z 31010KT 10SM BKN017 OVC031 06/02 A2962 1360 76 700 310/10 RMK AO2
94908KDBQ DBQ20110401120510304/01/11 12:05:31  5-MIN KDBQ 011805Z 29011KT 10SM BKN017 OVC028 06/02 A2962 1360 76 600 290/11 RMK AO2
94908KDBQ DBQ20110401121011004/01/11 12:10:31  5-MIN KDBQ 011810Z 30012KT 10SM BKN019 BKN025 OVC031 06/02 A2962 1360 76 600 300/12 RMK AO2
94908KDBQ DBQ20110401121510304/01/11 12:15:31  5-MIN KDBQ 011815Z 29012KT 10SM BKN019 OVC025 05/01 A2962 1360 76 500 290/12 RMK AO2
94908KDBQ DBQ20110401122011004/01/11 12:20:31  5-MIN KDBQ 011820Z 29012KT 10SM BKN019 BKN025 OVC032 06/02 A2961 1360 76 600 290/12 RMK AO2
94908KDBQ DBQ20110401122511004/01/11 12:25:31  5-MIN KDBQ 011825Z 29010KT 10SM SCT019 BKN025 OVC032 06/02 A2961 1360 76 600 280/10 RMK AO2
94908KDBQ DBQ20110401123010304/01/11 12:30:31  5-MIN KDBQ 011830Z 29011KT 10SM BKN019 OVC030 07/02 A2961 1360 70 700 290/11 RMK AO2
94908KDBQ DBQ20110401123510904/01/11 12:35:31  5-MIN KDBQ 011835Z 29012G18KT 10SM BKN019 OVC030 07/02 A2961 1360 70 700 280/12G18 RMK AO2
94908KDBQ DBQ20110401124010904/01/11 12:40:31  5-MIN KDBQ 011840Z 29011G18KT 10SM BKN019 OVC030 07/02 A2961 1370 70 700 290/11G18 RMK AO2
94908KDBQ DBQ20110401124510304/01/11 12:45:31  5-MIN KDBQ 011845Z 28015KT 10SM BKN019 OVC030 06/01 A2961 1370 70 700 280/15 RMK AO2
94908KDBQ DBQ20110401125012004/01/11 12:50:31  5-MIN KDBQ 011850Z 28014KT 10SM BKN019 OVC030 06/01 A2961 1360 70 700 280/14 RMK AO2 SLP036 T00610011
94908KDBQ DBQ20110401125511604/01/11 12:55:31  5-MIN KDBQ 011855Z 28011G19KT 10SM SCT025 BKN030 OVC039 06/01 A2961 1360 70 700 280/11G19 RMK AO2
94908KDBQ DBQ20110401130010304/01/11 13:00:31  5-MIN KDBQ 011900Z 29010KT 10SM SCT025 OVC030 06/01 A2961 1360 70 700 290/10 RMK AO2
94908KDBQ DBQ20110401130510904/01/11 13:05:31  5-MIN KDBQ 011905Z 29017G20KT 10SM BKN027 OVC033 06/01 A2961 1360 70 700 280/17G20 RMK AO2
94908KDBQ DBQ20110401131010904/01/11 13:10:31  5-MIN KDBQ 011910Z 29014G20KT 10SM BKN027 OVC037 06/01 A2961 1360 70 700 290/14G20 RMK AO2
94908KDBQ DBQ20110401131510304/01/11 13:15:31  5-MIN KDBQ 011915Z 29012KT 10SM BKN027 OVC036 06/01 A2962 1360 70 700 290/12 RMK AO2
94908KDBQ DBQ20110401132010304/01/11 13:20:31  5-MIN KDBQ 011920Z 30014KT 10SM SCT025 OVC034 07/01 A2961 1360 65 700 300/14 RMK AO2
94908KDBQ DBQ20110401132510904/01/11 13:25:31  5-MIN KDBQ 011925Z 30012G20KT 10SM SCT025 OVC034 07/01 A2961 1360 65 700 300/12G20 RMK AO2
94908KDBQ DBQ20110401133010304/01/11 13:30:31  5-MIN KDBQ 011930Z 28015KT 10SM BKN028 OVC035 07/01 A2961 1360 67 700 280/15 RMK AO2
94908KDBQ DBQ20110401133510304/01/11 13:35:31  5-MIN KDBQ 011935Z 29013KT 10SM BKN028 OVC036 07/01 A2961 1360 67 700 290/13 RMK AO2
94908KDBQ DBQ20110401134010304/01/11 13:40:31  5-MIN KDBQ 011940Z 29012KT 10SM SCT028 OVC034 07/01 A2961 1360 67 700 290/12 RMK AO2
94908KDBQ DBQ20110401134511004/01/11 13:45:31  5-MIN KDBQ 011945Z 28013KT 10SM FEW026 BKN034 OVC040 07/01 A2961 1360 67 700 280/13 RMK AO2
94908KDBQ DBQ20110401135013304/01/11 13:50:31  5-MIN KDBQ 011950Z 28014G20KT 10SM FEW026 BKN033 OVC055 07/01 A2961 1370 67 700 280/14G20 RMK AO2 SLP035 T00670011
94908KDBQ DBQ20110401135511604/01/11 13:55:31  5-MIN KDBQ 011955Z 29016G22KT 10SM SCT028 BKN037 OVC044 07/01 A2961 1370 65 800 290/16G22 RMK AO2
94908KDBQ DBQ20110401140011604/01/11 14:00:31  5-MIN KDBQ 012000Z 29015G22KT 10SM FEW028 BKN039 OVC060 07/01 A2961 1370 65 800 290/15G22 RMK AO2
94908KDBQ DBQ20110401140511604/01/11 14:05:31  5-MIN KDBQ 012005Z 28014G21KT 10SM FEW030 BKN039 OVC060 07/01 A2961 1370 65 800 280/14G21 RMK AO2
94908KDBQ DBQ20110401141011604/01/11 14:10:31  5-MIN KDBQ 012010Z 29013G20KT 10SM FEW033 SCT040 OVC060 07/01 A2961 1370 65 800 290/13G20 RMK AO2
94908KDBQ DBQ20110401141511604/01/11 14:15:31  5-MIN KDBQ 012015Z 28014G19KT 10SM FEW030 SCT040 OVC060 07/01 A2961 1370 65 800 280/14G19 RMK AO2
94908KDBQ DBQ20110401142010904/01/11 14:20:31  5-MIN KDBQ 012020Z 28013G19KT 10SM FEW033 OVC060 08/01 A2961 1370 62 900 280/13G19 RMK AO2
94908KDBQ DBQ20110401142510904/01/11 14:25:31  5-MIN KDBQ 012025Z 28015G23KT 10SM FEW033 OVC060 08/02 A2961 1370 63 900 280/15G23 RMK AO2
94908KDBQ DBQ20110401143010904/01/11 14:30:31  5-MIN KDBQ 012030Z 29013G23KT 10SM FEW042 OVC060 08/01 A2961 1370 60 900 290/13G23 RMK AO2
94908KDBQ DBQ20110401143510304/01/11 14:35:31  5-MIN KDBQ 012035Z 28016G24KT 10SM BKN060 09/02 A2961 1370 60 1000 280/16G24 RMK AO2
94908KDBQ DBQ20110401144012004/01/11 14:40:31  5-MIN KDBQ 012040Z 28015G27KT 10SM OVC060 08/01 A2961 1370 60 900 280/15G27 RMK AO2 PK WND 28027/2037
94908KDBQ DBQ20110401144512104/01/11 14:45:31  5-MIN KDBQ 012045Z 29017G27KT 10SM OVC060 09/01 A2961 1370 58 1000 290/17G27 RMK AO2 PK WND 28027/2037
94908KDBQ DBQ20110401145015104/01/11 14:50:31  5-MIN KDBQ 012050Z 28013G21KT 10SM FEW040 OVC065 09/01 A2960 1370 58 1000 280/13G21 RMK AO2 PK WND 28027/2037 SLP031 T00890011 50006
94908KDBQ DBQ20110401145511004/01/11 14:55:31  5-MIN KDBQ 012055Z 30019G25KT 10SM BKN060 OVC075 09/01 A2961 1370 56 1100 300/19G25 RMK AO2
94908KDBQ DBQ20110401150011704/01/11 15:00:31  5-MIN KDBQ 012100Z 29019G25KT 10SM FEW038 BKN060 BKN075 09/01 A2961 1370 53 1100 290/19G25 RMK AO2
94908KDBQ DBQ20110401150512804/01/11 15:05:31  5-MIN KDBQ 012105Z 29020G28KT 10SM FEW038 BKN070 09/01 A2961 1370 56 1000 290/20G28 RMK AO2 PK WND 30028/2101
94908KDBQ DBQ20110401151014804/01/11 15:10:31  5-MIN KDBQ 012110Z 30019G28KT 10SM FEW040 BKN070 09/01 A2961 1370 56 1000 300/19G28 RMK AO2 PK WND 30028/2101 TCU DSNT S-W MOV SE
94908KDBQ DBQ20110401151515504/01/11 15:15:31  5-MIN KDBQ 012115Z 28019G26KT 10SM FEW040 SCT055 BKN070 09/01 A2961 1370 56 1000 280/19G26 RMK AO2 PK WND 30028/2101 TCU DSNT S-W MOV SE
94908KDBQ DBQ20110401152014804/01/11 15:20:31  5-MIN KDBQ 012120Z 30017G26KT 10SM FEW042 BKN065 09/01 A2961 1370 56 1100 300/17G26 RMK AO2 PK WND 30028/2101 TCU DSNT S-W MOV SE
94908KDBQ DBQ20110401152513504/01/11 15:25:31  5-MIN KDBQ 012125Z 29019G25KT 10SM FEW042 SCT050 BKN065 09/01 A2961 1360 53 1100 290/19G25 RMK AO2 PK WND 30028/2101
94908KDBQ DBQ20110401153012804/01/11 15:30:31  5-MIN KDBQ 012130Z 30021G28KT 10SM FEW042 BKN065 09/01 A2961 1360 53 1100 290/21G28 RMK AO2 PK WND 30028/2128
94908KDBQ DBQ20110401153513504/01/11 15:35:31  5-MIN KDBQ 012135Z 31020G30KT 10SM FEW042 SCT050 OVC065 09/00 A2961 1360 51 1100 310/20G30 RMK AO2 PK WND 33030/2133
94908KDBQ DBQ20110401154012804/01/11 15:40:31  5-MIN KDBQ 012140Z 31017G30KT 10SM FEW042 BKN065 09/00 A2961 1360 51 1100 310/17G30 RMK AO2 PK WND 33030/2133
94908KDBQ DBQ20110401154512804/01/11 15:45:31  5-MIN KDBQ 012145Z 32023G31KT 10SM FEW042 BKN065 10/01 A2962 1360 52 1100 320/23G31 RMK AO2 PK WND 32031/2145
94908KDBQ DBQ20110401155015704/01/11 15:50:31  5-MIN KDBQ 012150Z 30020G31KT 10SM SCT060 08/00 A2962 1360 55 900 300/20G31 RMK AO2 PK WND 32031/2145 SLP038 TCU DSNT S-W MOV SE T00830000
94908KDBQ DBQ20110401155510204/01/11 15:55:31  5-MIN KDBQ 012155Z 31018G26KT 10SM SCT065 08/00 A2962 1360 55 900 310/18G26 RMK AO2
94908KDBQ DBQ20110401160012004/01/11 16:00:31  5-MIN KDBQ 012200Z 32018G27KT 10SM FEW060 08/00 A2963 1350 55 900 320/18G27 RMK AO2 PK WND 31027/2157
94908KDBQ DBQ20110401160512104/01/11 16:05:31  5-MIN KDBQ 012205Z 32013G27KT 10SM FEW060 09/00 A2963 1350 53 1000 320/13G27 RMK AO2 PK WND 31027/2157
94908KDBQ DBQ20110401161012104/01/11 16:10:31  5-MIN KDBQ 012210Z 32018G23KT 10SM FEW060 09/00 A2963 1350 53 1000 320/18G23 RMK AO2 PK WND 31027/2157
94908KDBQ DBQ20110401161512104/01/11 16:15:31  5-MIN KDBQ 012215Z 32015G23KT 10SM FEW060 09/01 A2963 1350 56 1000 320/15G23 RMK AO2 PK WND 31027/2157
94908KDBQ DBQ20110401162012004/01/11 16:20:31  5-MIN KDBQ 012220Z 32020G24KT 10SM FEW060 08/00 A2963 1340 55 900 320/20G24 RMK AO2 PK WND 31027/2157
94908KDBQ DBQ20110401162512104/01/11 16:25:31  5-MIN KDBQ 012225Z 32017G24KT 10SM FEW055 09/01 A2964 1340 56 1000 320/17G24 RMK AO2 PK WND 31027/2157
94908KDBQ DBQ20110401163012804/01/11 16:30:31  5-MIN KDBQ 012230Z 32021G27KT 10SM FEW047 SCT055 09/01 A2964 1340 53 1000 320/21G27 RMK AO2 PK WND 32027/2229
94908KDBQ DBQ20110401163512804/01/11 16:35:31  5-MIN KDBQ 012235Z 31017G27KT 10SM FEW041 BKN055 09/01 A2964 1340 53 1000 310/17G27 RMK AO2 PK WND 32027/2229
94908KDBQ DBQ20110401164012804/01/11 16:40:31  5-MIN KDBQ 012240Z 32018G24KT 10SM FEW041 BKN055 09/01 A2964 1340 53 1000 320/18G24 RMK AO2 PK WND 32027/2229
94908KDBQ DBQ20110401164512104/01/11 16:45:31  5-MIN KDBQ 012245Z 32018G26KT 10SM BKN055 09/00 A2964 1340 53 1000 320/18G26 RMK AO2 PK WND 32027/2229
94908KDBQ DBQ20110401165013804/01/11 16:50:31  5-MIN KDBQ 012250Z 32020G26KT 10SM SCT055 09/00 A2964 1340 53 1000 320/20G26 RMK AO2 PK WND 32027/2229 SLP044 T00890000
94908KDBQ DBQ20110401165510304/01/11 16:55:31  5-MIN KDBQ 012255Z 32016G25KT 10SM SCT055 09/00 A2964 1340 53 1000 320/16G25 RMK AO2
94908KDBQ DBQ20110401170010304/01/11 17:00:31  5-MIN KDBQ 012300Z 32014G22KT 10SM FEW050 09/00 A2965 1330 53 1000 310/14G22 RMK AO2
94908KDBQ DBQ20110401170510304/01/11 17:05:31  5-MIN KDBQ 012305Z 32017G23KT 10SM FEW040 09/00 A2965 1330 53 1000 310/17G23 RMK AO2
94908KDBQ DBQ20110401171010204/01/11 17:10:31  5-MIN KDBQ 012310Z 33018G24KT 10SM FEW038 08/00 A2965 1330 55 900 330/18G24 RMK AO2
94908KDBQ DBQ20110401171510204/01/11 17:15:31  5-MIN KDBQ 012315Z 32014G24KT 10SM FEW038 08/00 A2965 1330 55 900 320/14G24 RMK AO2
94908KDBQ DBQ20110401172010204/01/11 17:20:31  5-MIN KDBQ 012320Z 32016G24KT 10SM FEW038 08/00 A2965 1330 55 900 320/16G24 RMK AO2
94908KDBQ DBQ20110401172510204/01/11 17:25:31  5-MIN KDBQ 012325Z 32015G22KT 10SM FEW038 08/00 A2965 1330 55 900 320/15G22 RMK AO2
94908KDBQ DBQ20110401173010204/01/11 17:30:31  5-MIN KDBQ 012330Z 32013G22KT 10SM FEW038 08/00 A2965 1330 55 900 320/13G22 RMK AO2
94908KDBQ DBQ20110401173510204/01/11 17:35:31  5-MIN KDBQ 012335Z 32014G19KT 10SM FEW038 08/00 A2965 1330 58 800 320/14G19 RMK AO2
94908KDBQ DBQ20110401174010204/01/11 17:40:31  5-MIN KDBQ 012340Z 32012G19KT 10SM FEW038 08/00 A2965 1320 58 800 310/12G19 RMK AO2
94908KDBQ DBQ20110401174510204/01/11 17:45:31  5-MIN KDBQ 012345Z 32012G19KT 10SM FEW038 08/00 A2966 1320 58 800 320/12G19 RMK AO2
94908KDBQ DBQ20110401175013704/01/11 17:50:31  5-MIN KDBQ 012350Z 32014G19KT 10SM FEW038 08/00 A2966 1320 58 800 320/14G19 RMK AO2 SLP051 T00780000 10100 20050 58004
94908KDBQ DBQ20110401175509904/01/11 17:55:31  5-MIN KDBQ 012355Z 31010G19KT 10SM CLR 07/00 A2966 1320 60 700 310/10G19 RMK AO2
94908KDBQ DBQ20110401180009304/01/11 18:00:31  5-MIN KDBQ 020000Z 31012KT 10SM CLR 07/00 A2966 1320 60 700 310/12 RMK AO2
94908KDBQ DBQ20110401180509304/01/11 18:05:31  5-MIN KDBQ 020005Z 32014KT 10SM CLR 07/00 A2966 1320 60 700 310/14 RMK AO2
94908KDBQ DBQ20110401181009904/01/11 18:10:31  5-MIN KDBQ 020010Z 31015G24KT 10SM CLR 07/00 A2966 1320 60 700 310/15G24 RMK AO2
94908KDBQ DBQ20110401181509904/01/11 18:15:31  5-MIN KDBQ 020015Z 31012G24KT 10SM CLR 07/00 A2966 1320 60 700 310/12G24 RMK AO2
94908KDBQ DBQ20110401182010004/01/11 18:20:31  5-MIN KDBQ 020020Z 31010G23KT 10SM CLR 07/M01 A2966 1320 60 700 310/10G23 RMK AO2
94908KDBQ DBQ20110401182510004/01/11 18:25:31  5-MIN KDBQ 020025Z 32012G18KT 10SM CLR 07/M01 A2967 1320 60 700 320/12G18 RMK AO2
94908KDBQ DBQ20110401183009404/01/11 18:30:31  5-MIN KDBQ 020030Z 31011KT 10SM CLR 07/M01 A2967 1310 60 700 310/11 RMK AO2
94908KDBQ DBQ20110401183509404/01/11 18:35:31  5-MIN KDBQ 020035Z 32010KT 10SM CLR 06/M01 A2967 1310 62 600 320/10 RMK AO2
94908KDBQ DBQ20110401184009404/01/11 18:40:31  5-MIN KDBQ 020040Z 31008KT 10SM CLR 06/M01 A2967 1310 62 600 310/08 RMK AO2
94908KDBQ DBQ20110401184509404/01/11 18:45:31  5-MIN KDBQ 020045Z 31008KT 10SM CLR 06/M01 A2967 1310 65 500 310/08 RMK AO2
94908KDBQ DBQ20110401185011404/01/11 18:50:31  5-MIN KDBQ 020050Z 31010KT 10SM FEW055 06/M01 A2967 1310 62 600 310/10 RMK AO2 SLP056 T00611006
94908KDBQ DBQ20110401185510304/01/11 18:55:31  5-MIN KDBQ 020055Z 31011KT 10SM FEW042 SCT055 06/00 A2967 1310 65 600 310/11 RMK AO2
94908KDBQ DBQ20110401190010104/01/11 19:00:31  5-MIN KDBQ 020100Z AUTO 31009KT 10SM FEW042 06/00 A2968 1310 65 600 310/09 RMK AO2
94908KDBQ DBQ20110401190510104/01/11 19:05:31  5-MIN KDBQ 020105Z AUTO 32009KT 10SM FEW042 06/00 A2968 1310 67 500 320/09 RMK AO2
94908KDBQ DBQ20110401191010204/01/11 19:10:31  5-MIN KDBQ 020110Z AUTO 32008KT 10SM FEW042 06/M01 A2968 1300 65 500 320/08 RMK AO2
94908KDBQ DBQ20110401191510204/01/11 19:15:31  5-MIN KDBQ 020115Z AUTO 32008KT 10SM FEW042 05/M01 A2968 1300 67 400 320/08 RMK AO2
94908KDBQ DBQ20110401192010204/01/11 19:20:31  5-MIN KDBQ 020120Z AUTO 31009KT 10SM FEW042 05/M01 A2968 1300 67 400 310/09 RMK AO2
94908KDBQ DBQ20110401192509904/01/11 19:25:31  5-MIN KDBQ 020125Z AUTO 32009KT 10SM CLR 06/M01 A2968 1300 65 500 320/09 RMK AO2
94908KDBQ DBQ20110401193009904/01/11 19:30:31  5-MIN KDBQ 020130Z AUTO 32008KT 10SM CLR 06/M01 A2968 1300 65 500 320/08 RMK AO2
94908KDBQ DBQ20110401193509904/01/11 19:35:31  5-MIN KDBQ 020135Z AUTO 32009KT 10SM CLR 05/M01 A2969 1300 67 400 320/09 RMK AO2
94908KDBQ DBQ20110401194009904/01/11 19:40:31  5-MIN KDBQ 020140Z AUTO 32010KT 10SM CLR 05/M01 A2969 1290 67 400 320/10 RMK AO2
94908KDBQ DBQ20110401194509904/01/11 19:45:31  5-MIN KDBQ 020145Z AUTO 32011KT 10SM CLR 05/M01 A2969 1290 67 400 320/11 RMK AO2
94908KDBQ DBQ20110401195011604/01/11 19:50:31  5-MIN KDBQ 020150Z AUTO 32010KT 10SM CLR 06/M01 A2969 1290 65 500 320/10 RMK AO2 SLP062 T00561006
94908KDBQ DBQ20110401195509904/01/11 19:55:31  5-MIN KDBQ 020155Z AUTO 32010KT 10SM CLR 05/M01 A2969 1290 67 400 310/10 RMK AO2
94908KDBQ DBQ20110401200009904/01/11 20:00:31  5-MIN KDBQ 020200Z AUTO 32009KT 10SM CLR 05/M01 A2970 1290 67 400 310/09 RMK AO2
94908KDBQ DBQ20110401200509904/01/11 20:05:31  5-MIN KDBQ 020205Z AUTO 31007KT 10SM CLR 05/M01 A2970 1280 67 400 310/07 RMK AO2
94908KDBQ DBQ20110401201009904/01/11 20:10:31  5-MIN KDBQ 020210Z AUTO 31006KT 10SM CLR 04/M01 A2970 1280 67 400 310/06 RMK AO2
94908KDBQ DBQ20110401201509904/01/11 20:15:31  5-MIN KDBQ 020215Z AUTO 31007KT 10SM CLR 04/M01 A2970 1280 70 300 310/07 RMK AO2
94908KDBQ DBQ20110401202009904/01/11 20:20:31  5-MIN KDBQ 020220Z AUTO 32008KT 10SM CLR 04/M01 A2971 1280 70 300 320/08 RMK AO2
94908KDBQ DBQ20110401202509904/01/11 20:25:31  5-MIN KDBQ 020225Z AUTO 32008KT 10SM CLR 04/M01 A2971 1280 70 300 320/08 RMK AO2
94908KDBQ DBQ20110401203009904/01/11 20:30:31  5-MIN KDBQ 020230Z AUTO 32008KT 10SM CLR 04/M01 A2971 1270 67 300 320/08 RMK AO2
94908KDBQ DBQ20110401203509904/01/11 20:35:31  5-MIN KDBQ 020235Z AUTO 33008KT 10SM CLR 04/M01 A2971 1270 67 300 320/08 RMK AO2
94908KDBQ DBQ20110401204009904/01/11 20:40:31  5-MIN KDBQ 020240Z AUTO 33008KT 10SM CLR 04/M01 A2971 1270 70 300 330/08 RMK AO2
94908KDBQ DBQ20110401204509904/01/11 20:45:31  5-MIN KDBQ 020245Z AUTO 33007KT 10SM CLR 03/M01 A2972 1270 72 200 330/07 RMK AO2
94908KDBQ DBQ20110401205012204/01/11 20:50:31  5-MIN KDBQ 020250Z AUTO 33006KT 10SM CLR 03/M01 A2972 1270 72 200 330/06 RMK AO2 SLP072 T00331011 51017
94908KDBQ DBQ20110401205509904/01/11 20:55:31  5-MIN KDBQ 020255Z AUTO 33006KT 10SM CLR 03/M02 A2972 1270 72 100 330/06 RMK AO2
94908KDBQ DBQ20110401210009904/01/11 21:00:31  5-MIN KDBQ 020300Z AUTO 33006KT 10SM CLR 03/M02 A2972 1260 72 100 330/06 RMK AO2
94908KDBQ DBQ20110401210509904/01/11 21:05:31  5-MIN KDBQ 020305Z AUTO 33005KT 10SM CLR 03/M02 A2972 1260 72 100 330/05 RMK AO2
94908KDBQ DBQ20110401211009904/01/11 21:10:31  5-MIN KDBQ 020310Z AUTO 33005KT 10SM CLR 02/M02 A2972 1260 75 100 330/05 RMK AO2
94908KDBQ DBQ20110401211510204/01/11 21:15:31  5-MIN KDBQ 020315Z AUTO 34005KT 10SM FEW037 03/M02 A2972 1260 72 100 330/05 RMK AO2
94908KDBQ DBQ20110401212010204/01/11 21:20:31  5-MIN KDBQ 020320Z AUTO 32006KT 10SM SCT037 03/M02 A2972 1260 72 100 320/06 RMK AO2
94908KDBQ DBQ20110401212510204/01/11 21:25:31  5-MIN KDBQ 020325Z AUTO 32006KT 10SM FEW037 03/M01 A2972 1260 75 100 320/06 RMK AO2
94908KDBQ DBQ20110401213010204/01/11 21:30:31  5-MIN KDBQ 020330Z AUTO 32006KT 10SM FEW037 02/M02 A2972 1260 75 100 320/06 RMK AO2
94908KDBQ DBQ20110401213510204/01/11 21:35:31  5-MIN KDBQ 020335Z AUTO 31005KT 10SM FEW037 03/M01 A2972 1260 75 100 310/05 RMK AO2
94908KDBQ DBQ20110401214010204/01/11 21:40:31  5-MIN KDBQ 020340Z AUTO 31004KT 10SM FEW037 03/M01 A2972 1260 75 100 310/04 RMK AO2
94908KDBQ DBQ20110401214509904/01/11 21:45:31  5-MIN KDBQ 020345Z AUTO 31005KT 10SM CLR 03/M02 A2972 1260 72 100 310/05 RMK AO2
94908KDBQ DBQ20110401215011604/01/11 21:50:31  5-MIN KDBQ 020350Z AUTO 31006KT 10SM CLR 03/M01 A2972 1260 75 100 310/06 RMK AO2 SLP074 T00281011
94908KDBQ DBQ20110401215509904/01/11 21:55:31  5-MIN KDBQ 020355Z AUTO 31007KT 10SM CLR 03/M01 A2973 1260 75 100 300/07 RMK AO2
94908KDBQ DBQ20110401220010004/01/11 22:00:31  5-MIN KDBQ 020400Z AUTO 27004KT 10SM FEW034 02/M02 A2973 1260 78 0 270/04 RMK AO2
94908KDBQ DBQ20110401220510004/01/11 22:05:31  5-MIN KDBQ 020405Z AUTO 26003KT 10SM FEW034 02/M02 A2973 1260 78 0 260/03 RMK AO2
94908KDBQ DBQ20110401221010004/01/11 22:10:31  5-MIN KDBQ 020410Z AUTO 24003KT 10SM SCT034 02/M02 A2973 1260 78 0 240/03 RMK AO2
94908KDBQ DBQ20110401221510304/01/11 22:15:31  5-MIN KDBQ 020415Z AUTO 00000KT 10SM FEW030 01/M02 A2973 1260 82 -100 000/00 RMK AO2
94908KDBQ DBQ20110401222010004/01/11 22:20:31  5-MIN KDBQ 020420Z AUTO 28003KT 10SM FEW030 01/M02 A2973 1260 78 0 280/03 RMK AO2
94908KDBQ DBQ20110401222510004/01/11 22:25:31  5-MIN KDBQ 020425Z AUTO 30006KT 10SM FEW030 01/M02 A2973 1260 78 0 300/06 RMK AO2
94908KDBQ DBQ20110401223010004/01/11 22:30:31  5-MIN KDBQ 020430Z AUTO 31006KT 10SM FEW038 01/M02 A2973 1260 78 0 300/06 RMK AO2
94908KDBQ DBQ20110401223509704/01/11 22:35:31  5-MIN KDBQ 020435Z AUTO 31006KT 10SM CLR 01/M02 A2973 1260 78 0 310/06 RMK AO2
94908KDBQ DBQ20110401224009704/01/11 22:40:31  5-MIN KDBQ 020440Z AUTO 31008KT 10SM CLR 01/M02 A2973 1260 78 0 310/08 RMK AO2
94908KDBQ DBQ20110401224509704/01/11 22:45:31  5-MIN KDBQ 020445Z AUTO 31008KT 10SM CLR 02/M02 A2973 1260 78 0 310/08 RMK AO2
94908KDBQ DBQ20110401225011404/01/11 22:50:31  5-MIN KDBQ 020450Z AUTO 30007KT 10SM CLR 02/M01 A2973 1250 78 0 300/07 RMK AO2 SLP076 T00221011
94908KDBQ DBQ20110401225509704/01/11 22:55:31  5-MIN KDBQ 020455Z AUTO 30008KT 10SM CLR 02/M02 A2973 1260 78 0 300/08 RMK AO2
94908KDBQ DBQ20110401230009704/01/11 23:00:31  5-MIN KDBQ 020500Z AUTO 30008KT 10SM CLR 02/M01 A2973 1260 78 0 300/08 RMK AO2
94908KDBQ DBQ20110401230509704/01/11 23:05:31  5-MIN KDBQ 020505Z AUTO 31008KT 10SM CLR 02/M02 A2973 1250 78 0 300/08 RMK AO2
94908KDBQ DBQ20110401231009704/01/11 23:10:31  5-MIN KDBQ 020510Z AUTO 30007KT 10SM CLR 02/M02 A2973 1260 78 0 300/07 RMK AO2
94908KDBQ DBQ20110401231509704/01/11 23:15:31  5-MIN KDBQ 020515Z AUTO 29006KT 10SM CLR 02/M01 A2973 1250 78 0 290/06 RMK AO2
94908KDBQ DBQ20110401232009704/01/11 23:20:31  5-MIN KDBQ 020520Z AUTO 29004KT 10SM CLR 02/M01 A2973 1250 78 0 280/04 RMK AO2
94908KDBQ DBQ20110401232509704/01/11 23:25:31  5-MIN KDBQ 020525Z AUTO 28003KT 10SM CLR 02/M01 A2973 1250 82 0 280/03 RMK AO2
94908KDBQ DBQ20110401233009704/01/11 23:30:31  5-MIN KDBQ 020530Z AUTO 27004KT 10SM CLR 02/M02 A2973 1250 78 0 270/04 RMK AO2
94908KDBQ DBQ20110401233509704/01/11 23:35:31  5-MIN KDBQ 020535Z AUTO 28004KT 10SM CLR 02/M02 A2973 1250 78 0 280/04 RMK AO2
94908KDBQ DBQ20110401234009704/01/11 23:40:31  5-MIN KDBQ 020540Z AUTO 29005KT 10SM CLR 01/M02 A2973 1250 82 0 280/05 RMK AO2
94908KDBQ DBQ20110401234509704/01/11 23:45:31  5-MIN KDBQ 020545Z AUTO 29007KT 10SM CLR 01/M02 A2974 1250 82 0 290/07 RMK AO2
94908KDBQ DBQ20110401235014204/01/11 23:50:31  5-MIN KDBQ 020550Z AUTO 29006KT 10SM CLR 01/M02 A2974 1250 82 0 290/06 RMK AO2 SLP079 T00111017 10072 20006 401000000 53020
94908KDBQ DBQ20110401235509704/01/11 23:55:31  5-MIN KDBQ 020555Z AUTO 29006KT 10SM CLR 01/M02 A2974 1250 82 0 290/06 RMK AO2
94908KDBQ DBQ20110402000009704/02/11 00:00:38  5-MIN KDBQ 020600Z AUTO 30007KT 10SM CLR 01/M02 A2974 1250 82 0 300/07 RMK AO2
94908KDBQ DBQ20110402000509704/02/11 00:05:31  5-MIN KDBQ 020605Z AUTO 29006KT 10SM CLR 02/M02 A2974 1250 78 0 290/06 RMK AO2
94908KDBQ DBQ20110402001009704/02/11 00:10:31  5-MIN KDBQ 020610Z AUTO 30007KT 10SM CLR 02/M02 A2974 1250 78 0 300/07 RMK AO2
94908KDBQ DBQ20110402001509704/02/11 00:15:34  5-MIN KDBQ 020615Z AUTO 31008KT 10SM CLR 01/M02 A2974 1250 82 0 300/08 RMK AO2
94908KDBQ DBQ20110402002009704/02/11 00:20:31  5-MIN KDBQ 020620Z AUTO 30008KT 10SM CLR 01/M02 A2974 1250 82 0 300/08 RMK AO2
94908KDBQ DBQ20110402002509704/02/11 00:25:31  5-MIN KDBQ 020625Z AUTO 30009KT 10SM CLR 02/M02 A2974 1250 78 0 300/09 RMK AO2
94908KDBQ DBQ20110402003009704/02/11 00:30:31  5-MIN KDBQ 020630Z AUTO 31009KT 10SM CLR 02/M02 A2974 1250 78 0 310/09 RMK AO2
94908KDBQ DBQ20110402003509704/02/11 00:35:31  5-MIN KDBQ 020635Z AUTO 31009KT 10SM CLR 02/M01 A2974 1250 82 0 310/09 RMK AO2
94908KDBQ DBQ20110402004009704/02/11 00:40:31  5-MIN KDBQ 020640Z AUTO 31009KT 10SM CLR 02/M01 A2974 1250 82 0 310/09 RMK AO2
94908KDBQ DBQ20110402004510304/02/11 00:45:31  5-MIN KDBQ 020645Z AUTO 31010G16KT 10SM CLR 02/M01 A2974 1250 78 0 310/10G16 RMK AO2
94908KDBQ DBQ20110402005012004/02/11 00:50:31  5-MIN KDBQ 020650Z AUTO 31009G16KT 10SM CLR 02/M01 A2974 1250 82 0 300/09G16 RMK AO2 SLP078 T00171011
94908KDBQ DBQ20110402005509704/02/11 00:55:31  5-MIN KDBQ 020655Z AUTO 30008KT 10SM CLR 02/M01 A2974 1250 82 0 300/08 RMK AO2
94908KDBQ DBQ20110402010009704/02/11 01:00:31  5-MIN KDBQ 020700Z AUTO 31009KT 10SM CLR 02/M02 A2974 1250 78 0 310/09 RMK AO2
94908KDBQ DBQ20110402010509704/02/11 01:05:31  5-MIN KDBQ 020705Z AUTO 30010KT 10SM CLR 02/M02 A2974 1250 78 0 300/10 RMK AO2
94908KDBQ DBQ20110402011009704/02/11 01:10:31  5-MIN KDBQ 020710Z AUTO 30010KT 10SM CLR 02/M02 A2974 1240 78 0 300/10 RMK AO2
94908KDBQ DBQ20110402011510304/02/11 01:15:31  5-MIN KDBQ 020715Z AUTO 31009G15KT 10SM CLR 02/M02 A2974 1240 78 0 300/09G15 RMK AO2
94908KDBQ DBQ20110402012010604/02/11 01:20:31  5-MIN KDBQ 020720Z AUTO 31009G14KT 10SM CLR 01/M02 A2974 1240 82 -100 300/09G14 RMK AO2
94908KDBQ DBQ20110402012510604/02/11 01:25:31  5-MIN KDBQ 020725Z AUTO 30008G14KT 10SM CLR 01/M02 A2974 1240 82 -100 300/08G14 RMK AO2
94908KDBQ DBQ20110402013010004/02/11 01:30:31  5-MIN KDBQ 020730Z AUTO 29008KT 10SM CLR 01/M02 A2974 1240 82 -100 290/08 RMK AO2
94908KDBQ DBQ20110402013510004/02/11 01:35:31  5-MIN KDBQ 020735Z AUTO 30009KT 10SM CLR 01/M02 A2975 1240 82 -100 300/09 RMK AO2
94908KDBQ DBQ20110402014010004/02/11 01:40:31  5-MIN KDBQ 020740Z AUTO 30008KT 10SM CLR 01/M02 A2975 1240 82 -100 300/08 RMK AO2
94908KDBQ DBQ20110402014510004/02/11 01:45:31  5-MIN KDBQ 020745Z AUTO 30008KT 10SM CLR 01/M02 A2975 1240 82 -100 300/08 RMK AO2
94908KDBQ DBQ20110402015011704/02/11 01:50:31  5-MIN KDBQ 020750Z AUTO 29007KT 10SM CLR 01/M02 A2975 1240 82 -100 290/07 RMK AO2 SLP081 T00111017
94908KDBQ DBQ20110402015510004/02/11 01:55:31  5-MIN KDBQ 020755Z AUTO 29007KT 10SM CLR 01/M02 A2975 1240 82 -100 290/07 RMK AO2
94908KDBQ DBQ20110402020010004/02/11 02:00:31  5-MIN KDBQ 020800Z AUTO 29006KT 10SM CLR 01/M02 A2975 1240 82 -100 290/06 RMK AO2
94908KDBQ DBQ20110402020510004/02/11 02:05:31  5-MIN KDBQ 020805Z AUTO 28005KT 10SM CLR 01/M02 A2975 1240 82 -100 280/05 RMK AO2
94908KDBQ DBQ20110402021010004/02/11 02:10:31  5-MIN KDBQ 020810Z AUTO 28006KT 10SM CLR 01/M02 A2975 1230 85 -100 280/06 RMK AO2
94908KDBQ DBQ20110402021510004/02/11 02:15:31  5-MIN KDBQ 020815Z AUTO 28005KT 10SM CLR 01/M02 A2975 1230 85 -100 280/05 RMK AO2
94908KDBQ DBQ20110402022010004/02/11 02:20:31  5-MIN KDBQ 020820Z AUTO 28006KT 10SM CLR 01/M02 A2975 1230 85 -100 280/06 RMK AO2
94908KDBQ DBQ20110402022510004/02/11 02:25:31  5-MIN KDBQ 020825Z AUTO 28007KT 10SM CLR 00/M02 A2975 1230 88 -200 280/07 RMK AO2
94908KDBQ DBQ20110402023010004/02/11 02:30:31  5-MIN KDBQ 020830Z AUTO 29006KT 10SM CLR 01/M01 A2976 1230 85 -100 280/06 RMK AO2
94908KDBQ DBQ20110402023510004/02/11 02:35:31  5-MIN KDBQ 020835Z AUTO 29007KT 10SM CLR 01/M01 A2976 1230 85 -100 280/07 RMK AO2
94908KDBQ DBQ20110402024010004/02/11 02:40:31  5-MIN KDBQ 020840Z AUTO 29008KT 10SM CLR 01/M01 A2976 1230 85 -100 290/08 RMK AO2
94908KDBQ DBQ20110402024510004/02/11 02:45:31  5-MIN KDBQ 020845Z AUTO 29009KT 10SM CLR 01/M01 A2976 1230 85 -100 290/09 RMK AO2
94908KDBQ DBQ20110402025012304/02/11 02:50:31  5-MIN KDBQ 020850Z AUTO 29008KT 10SM CLR 01/M01 A2976 1230 85 -100 290/08 RMK AO2 SLP085 T00111011 52006
94908KDBQ DBQ20110402025510004/02/11 02:55:31  5-MIN KDBQ 020855Z AUTO 29009KT 10SM CLR 01/M01 A2976 1230 85 -100 290/09 RMK AO2
94908KDBQ DBQ20110402030010004/02/11 03:00:31  5-MIN KDBQ 020900Z AUTO 29008KT 10SM CLR 01/M01 A2976 1230 85 -100 290/08 RMK AO2
94908KDBQ DBQ20110402030510004/02/11 03:05:31  5-MIN KDBQ 020905Z AUTO 30009KT 10SM CLR 01/M01 A2976 1220 85 -100 300/09 RMK AO2
94908KDBQ DBQ20110402031010004/02/11 03:10:31  5-MIN KDBQ 020910Z AUTO 30010KT 10SM CLR 01/M01 A2976 1220 85 -100 300/10 RMK AO2
94908KDBQ DBQ20110402031510004/02/11 03:15:31  5-MIN KDBQ 020915Z AUTO 30010KT 10SM CLR 01/M01 A2976 1220 85 -100 300/10 RMK AO2
94908KDBQ DBQ20110402032010604/02/11 03:20:31  5-MIN KDBQ 020920Z AUTO 30009G16KT 10SM CLR 01/M01 A2976 1220 89 -100 300/09G16 RMK AO2
94908KDBQ DBQ20110402032510004/02/11 03:25:31  5-MIN KDBQ 020925Z AUTO 30008KT 10SM CLR 01/M01 A2976 1220 89 -100 300/08 RMK AO2
94908KDBQ DBQ20110402033010004/02/11 03:30:31  5-MIN KDBQ 020930Z AUTO 30009KT 10SM CLR 01/M01 A2976 1220 89 -200 300/09 RMK AO2
94908KDBQ DBQ20110402033510004/02/11 03:35:31  5-MIN KDBQ 020935Z AUTO 30009KT 10SM CLR 01/M01 A2977 1220 85 -100 300/09 RMK AO2
94908KDBQ DBQ20110402034010004/02/11 03:40:31  5-MIN KDBQ 020940Z AUTO 30009KT 10SM CLR 01/M01 A2977 1220 85 -100 300/09 RMK AO2
94908KDBQ DBQ20110402034510004/02/11 03:45:31  5-MIN KDBQ 020945Z AUTO 30009KT 10SM CLR 01/M01 A2977 1220 85 -100 300/09 RMK AO2
94908KDBQ DBQ20110402035011704/02/11 03:50:31  5-MIN KDBQ 020950Z AUTO 30010KT 10SM CLR 01/M01 A2977 1220 85 -100 300/10 RMK AO2 SLP088 T00111011
94908KDBQ DBQ20110402035510004/02/11 03:55:31  5-MIN KDBQ 020955Z AUTO 30010KT 10SM CLR 01/M01 A2977 1220 85 -100 300/10 RMK AO2
94908KDBQ DBQ20110402040010004/02/11 04:00:31  5-MIN KDBQ 021000Z AUTO 30009KT 10SM CLR 01/M01 A2977 1220 89 -200 300/09 RMK AO2
94908KDBQ DBQ20110402040510004/02/11 04:05:31  5-MIN KDBQ 021005Z AUTO 30010KT 10SM CLR 01/M01 A2977 1210 85 -100 300/10 RMK AO2
94908KDBQ DBQ20110402041010004/02/11 04:10:31  5-MIN KDBQ 021010Z AUTO 30009KT 10SM CLR 01/M01 A2978 1210 89 -200 300/09 RMK AO2
94908KDBQ DBQ20110402041510004/02/11 04:15:31  5-MIN KDBQ 021015Z AUTO 30009KT 10SM CLR 01/M01 A2978 1210 85 -100 300/09 RMK AO2
94908KDBQ DBQ20110402042010004/02/11 04:20:31  5-MIN KDBQ 021020Z AUTO 30010KT 10SM CLR 01/M01 A2978 1210 89 -200 300/10 RMK AO2
94908KDBQ DBQ20110402042510004/02/11 04:25:31  5-MIN KDBQ 021025Z AUTO 31007KT 10SM CLR 01/M01 A2978 1210 89 -200 310/07 RMK AO2
94908KDBQ DBQ20110402043010004/02/11 04:30:31  5-MIN KDBQ 021030Z AUTO 31008KT 10SM CLR 01/M01 A2978 1210 89 -200 310/08 RMK AO2
94908KDBQ DBQ20110402043510004/02/11 04:35:31  5-MIN KDBQ 021035Z AUTO 31009KT 10SM CLR 01/M01 A2978 1210 89 -200 310/09 RMK AO2
94908KDBQ DBQ20110402044010004/02/11 04:40:31  5-MIN KDBQ 021040Z AUTO 30008KT 10SM CLR 01/M01 A2978 1210 89 -200 300/08 RMK AO2
94908KDBQ DBQ20110402044510004/02/11 04:45:31  5-MIN KDBQ 021045Z AUTO 30009KT 10SM CLR 01/M01 A2978 1210 89 -200 300/09 RMK AO2
94908KDBQ DBQ20110402045011704/02/11 04:50:31  5-MIN KDBQ 021050Z AUTO 30008KT 10SM CLR 01/M02 A2978 1210 85 -200 290/08 RMK AO2 SLP093 T00061017
94908KDBQ DBQ20110402045509504/02/11 04:55:31  5-MIN KDBQ 021055Z 30008KT 10SM CLR 01/M02 A2978 1210 85 -200 300/08 RMK AO2
94908KDBQ DBQ20110402050009504/02/11 05:00:31  5-MIN KDBQ 021100Z 30008KT 10SM CLR 00/M02 A2979 1200 88 -200 300/08 RMK AO2
94908KDBQ DBQ20110402050509504/02/11 05:05:31  5-MIN KDBQ 021105Z 30008KT 10SM CLR 01/M02 A2979 1200 85 -200 300/08 RMK AO2
94908KDBQ DBQ20110402051009504/02/11 05:10:31  5-MIN KDBQ 021110Z 31006KT 10SM CLR 00/M02 A2979 1200 88 -200 310/06 RMK AO2
94908KDBQ DBQ20110402051509504/02/11 05:15:31  5-MIN KDBQ 021115Z 32006KT 10SM CLR 01/M02 A2979 1200 85 -200 320/06 RMK AO2
94908KDBQ DBQ20110402052009504/02/11 05:20:31  5-MIN KDBQ 021120Z 31008KT 10SM CLR 01/M02 A2979 1200 85 -200 310/08 RMK AO2
94908KDBQ DBQ20110402052509504/02/11 05:25:31  5-MIN KDBQ 021125Z 31008KT 10SM CLR 01/M02 A2979 1200 85 -200 310/08 RMK AO2
94908KDBQ DBQ20110402053009504/02/11 05:30:31  5-MIN KDBQ 021130Z 31007KT 10SM CLR 01/M02 A2979 1200 85 -200 310/07 RMK AO2
94908KDBQ DBQ20110402053509504/02/11 05:35:31  5-MIN KDBQ 021135Z 32007KT 10SM CLR 01/M02 A2979 1200 85 -200 320/07 RMK AO2
94908KDBQ DBQ20110402054010104/02/11 05:40:31  5-MIN KDBQ 021140Z 32009G15KT 10SM CLR 01/M01 A2980 1190 89 -200 320/09G15 RMK AO2
94908KDBQ DBQ20110402054510104/02/11 05:45:31  5-MIN KDBQ 021145Z 32008G15KT 10SM CLR 01/M01 A2980 1190 89 -200 320/08G15 RMK AO2
94908KDBQ DBQ20110402055013604/02/11 05:50:31  5-MIN KDBQ 021150Z 32009KT 10SM CLR 01/M01 A2980 1190 85 -100 320/09 RMK AO2 SLP099 70002 T00111011 10022 20000 53008
94908KDBQ DBQ20110402055509504/02/11 05:55:31  5-MIN KDBQ 021155Z 33009KT 10SM CLR 01/M01 A2980 1190 85 -100 320/09 RMK AO2
94908KDBQ DBQ20110402060010104/02/11 06:00:31  5-MIN KDBQ 021200Z 32011G17KT 10SM CLR 01/M01 A2981 1180 85 -100 320/11G17 RMK AO2
94908KDBQ DBQ20110402060510104/02/11 06:05:31  5-MIN KDBQ 021205Z 32010G17KT 10SM CLR 02/M01 A2981 1180 82 -100 320/10G17 RMK AO2
94908KDBQ DBQ20110402061009504/02/11 06:10:31  5-MIN KDBQ 021210Z 32010KT 10SM CLR 01/M01 A2981 1180 85 -100 320/10 RMK AO2
94908KDBQ DBQ20110402061510104/02/11 06:15:31  5-MIN KDBQ 021215Z 32008G16KT 10SM CLR 01/M01 A2981 1180 85 -100 320/08G16 RMK AO2
94908KDBQ DBQ20110402062009504/02/11 06:20:31  5-MIN KDBQ 021220Z 32009KT 10SM CLR 01/M01 A2982 1170 85 -100 320/09 RMK AO2
94908KDBQ DBQ20110402062510104/02/11 06:25:31  5-MIN KDBQ 021225Z 32009G17KT 10SM CLR 02/M01 A2982 1170 85 -100 320/09G17 RMK AO2
94908KDBQ DBQ20110402063010104/02/11 06:30:31  5-MIN KDBQ 021230Z 31009G17KT 10SM CLR 02/M01 A2982 1170 85 -100 310/09G17 RMK AO2
94908KDBQ DBQ20110402063509504/02/11 06:35:31  5-MIN KDBQ 021235Z 31007KT 10SM CLR 02/M01 A2983 1170 85 -100 310/07 RMK AO2
94908KDBQ DBQ20110402064009504/02/11 06:40:31  5-MIN KDBQ 021240Z 32006KT 10SM CLR 02/M01 A2983 1170 85 -100 310/06 RMK AO2
94908KDBQ DBQ20110402064509504/02/11 06:45:31  5-MIN KDBQ 021245Z 31006KT 10SM CLR 02/M01 A2983 1160 85 -100 310/06 RMK AO2
94908KDBQ DBQ20110402065010904/02/11 06:50:31  5-MIN KDBQ 021250Z 30007KT 10SM CLR 02/M01 A2983 1160 82 0 300/07 RMK AO2 SLP111 T00221006
94908KDBQ DBQ20110402065509104/02/11 06:55:31  5-MIN KDBQ 021255Z 27005KT 10SM CLR 02/00 A2984 1150 85 0 270/05 RMK AO2
94908KDBQ DBQ20110402070009204/02/11 07:00:31  5-MIN KDBQ 021300Z 29007KT 10SM CLR 02/M01 A2984 1150 82 0 290/07 RMK AO2
94908KDBQ DBQ20110402070509104/02/11 07:05:31  5-MIN KDBQ 021305Z 30008KT 10SM CLR 02/00 A2984 1150 85 0 300/08 RMK AO2
94908KDBQ DBQ20110402071009104/02/11 07:10:31  5-MIN KDBQ 021310Z 29008KT 10SM CLR 02/00 A2985 1150 85 0 290/08 RMK AO2
94908KDBQ DBQ20110402071509704/02/11 07:15:31  5-MIN KDBQ 021315Z 30009G16KT 10SM CLR 03/00 A2985 1140 82 0 300/09G16 RMK AO2
94908KDBQ DBQ20110402072009704/02/11 07:20:31  5-MIN KDBQ 021320Z 28007G16KT 10SM CLR 03/00 A2985 1140 82 0 280/07G16 RMK AO2
94908KDBQ DBQ20110402072509104/02/11 07:25:31  5-MIN KDBQ 021325Z 28007KT 10SM CLR 03/00 A2985 1140 82 0 280/07 RMK AO2
94908KDBQ DBQ20110402073009104/02/11 07:30:31  5-MIN KDBQ 021330Z 28009KT 10SM CLR 03/00 A2985 1140 82 0 280/09 RMK AO2
94908KDBQ DBQ20110402073509104/02/11 07:35:31  5-MIN KDBQ 021335Z 28008KT 10SM CLR 03/00 A2986 1140 82 0 280/08 RMK AO2
94908KDBQ DBQ20110402074009104/02/11 07:40:31  5-MIN KDBQ 021340Z 28010KT 10SM CLR 03/01 A2986 1130 85 0 280/10 RMK AO2
94908KDBQ DBQ20110402074509104/02/11 07:45:31  5-MIN KDBQ 021345Z 29008KT 10SM CLR 03/01 A2986 1130 82 0 290/08 RMK AO2
94908KDBQ DBQ20110402075010804/02/11 07:50:31  5-MIN KDBQ 021350Z 28009KT 10SM CLR 03/01 A2986 1130 82 0 280/09 RMK AO2 SLP121 T00330006
94908KDBQ DBQ20110402075509104/02/11 07:55:31  5-MIN KDBQ 021355Z 29009KT 10SM CLR 03/01 A2987 1130 82 0 290/09 RMK AO2
94908KDBQ DBQ20110402080009904/02/11 08:00:31  5-MIN KDBQ 021400Z 30011G16KT 10SM CLR 04/01 A2987 1130 79 100 300/11G16 RMK AO2
94908KDBQ DBQ20110402080509904/02/11 08:05:31  5-MIN KDBQ 021405Z 31009G16KT 10SM CLR 04/01 A2987 1130 79 100 310/09G16 RMK AO2
94908KDBQ DBQ20110402081009304/02/11 08:10:31  5-MIN KDBQ 021410Z 30010KT 10SM CLR 04/01 A2987 1130 79 100 300/10 RMK AO2
94908KDBQ DBQ20110402081509304/02/11 08:15:31  5-MIN KDBQ 021415Z 30010KT 10SM CLR 04/01 A2987 1130 76 200 300/10 RMK AO2
94908KDBQ DBQ20110402082009304/02/11 08:20:31  5-MIN KDBQ 021420Z 30010KT 10SM CLR 04/01 A2986 1130 76 200 300/10 RMK AO2
94908KDBQ DBQ20110402082509304/02/11 08:25:31  5-MIN KDBQ 021425Z 30010KT 10SM CLR 05/00 A2987 1130 70 200 300/10 RMK AO2
94908KDBQ DBQ20110402083009304/02/11 08:30:31  5-MIN KDBQ 021430Z 31009KT 10SM CLR 06/00 A2987 1130 67 300 310/09 RMK AO2
94908KDBQ DBQ20110402083509404/02/11 08:35:31  5-MIN KDBQ 021435Z 32009KT 10SM CLR 06/M01 A2987 1130 65 300 320/09 RMK AO2
94908KDBQ DBQ20110402084009304/02/11 08:40:31  5-MIN KDBQ 021440Z 31010KT 10SM CLR 06/00 A2987 1130 65 400 310/10 RMK AO2
94908KDBQ DBQ20110402084509404/02/11 08:45:31  5-MIN KDBQ 021445Z 32009KT 10SM CLR 06/M01 A2987 1120 62 400 320/09 RMK AO2
94908KDBQ DBQ20110402085011704/02/11 08:50:31  5-MIN KDBQ 021450Z 33010KT 10SM CLR 07/M01 A2987 1120 60 400 330/10 RMK AO2 SLP123 T00671006 53013
94908KDBQ DBQ20110402085509404/02/11 08:55:31  5-MIN KDBQ 021455Z 33010KT 10SM CLR 07/M01 A2987 1120 57 400 330/10 RMK AO2
94908KDBQ DBQ20110402090010004/02/11 09:00:31  5-MIN KDBQ 021500Z 31013G19KT 10SM CLR 07/M01 A2988 1120 60 400 310/13G19 RMK AO2
94908KDBQ DBQ20110402090510004/02/11 09:05:31  5-MIN KDBQ 021505Z 31012G19KT 10SM CLR 07/M01 A2988 1120 55 500 310/12G19 RMK AO2
94908KDBQ DBQ20110402091010004/02/11 09:10:31  5-MIN KDBQ 021510Z 31014G22KT 10SM CLR 07/M01 A2988 1110 57 500 310/14G22 RMK AO2
94908KDBQ DBQ20110402091510004/02/11 09:15:31  5-MIN KDBQ 021515Z 31013G22KT 10SM CLR 07/M01 A2988 1110 55 500 310/13G22 RMK AO2
94908KDBQ DBQ20110402092009404/02/11 09:20:31  5-MIN KDBQ 021520Z 30014KT 10SM CLR 08/M01 A2989 1110 53 500 300/14 RMK AO2
94908KDBQ DBQ20110402092510004/02/11 09:25:31  5-MIN KDBQ 021525Z 32010G19KT 10SM CLR 08/M01 A2989 1110 53 500 320/10G19 RMK AO2
94908KDBQ DBQ20110402093010004/02/11 09:30:31  5-MIN KDBQ 021530Z 30014G19KT 10SM CLR 08/M01 A2989 1110 51 600 300/14G19 RMK AO2
94908KDBQ DBQ20110402093510004/02/11 09:35:31  5-MIN KDBQ 021535Z 32015G23KT 10SM CLR 08/M02 A2989 1100 51 500 320/15G23 RMK AO2
94908KDBQ DBQ20110402094010304/02/11 09:40:31  5-MIN KDBQ 021540Z 32015G23KT 10SM FEW041 08/M02 A2990 1100 49 600 320/15G23 RMK AO2
94908KDBQ DBQ20110402094510304/02/11 09:45:31  5-MIN KDBQ 021545Z 31014G23KT 10SM FEW041 08/M02 A2990 1100 51 500 310/14G23 RMK AO2
94908KDBQ DBQ20110402095012004/02/11 09:50:31  5-MIN KDBQ 021550Z 33014G23KT 10SM FEW045 09/M02 A2990 1100 47 700 320/14G23 RMK AO2 SLP132 T00891017
94908KDBQ DBQ20110402095510304/02/11 09:55:31  5-MIN KDBQ 021555Z 31014G21KT 10SM FEW042 09/M02 A2990 1100 47 700 310/14G21 RMK AO2
94908KDBQ DBQ20110402100010304/02/11 10:00:31  5-MIN KDBQ 021600Z 31016G23KT 10SM SCT042 08/M02 A2990 1100 49 600 310/16G23 RMK AO2
94908KDBQ DBQ20110402100510304/02/11 10:05:31  5-MIN KDBQ 021605Z 31016G23KT 10SM SCT042 09/M02 A2990 1100 47 700 310/16G23 RMK AO2
94908KDBQ DBQ20110402101010304/02/11 10:10:31  5-MIN KDBQ 021610Z 31018G22KT 10SM SCT044 09/M02 A2990 1100 45 700 310/18G22 RMK AO2
94908KDBQ DBQ20110402101510304/02/11 10:15:31  5-MIN KDBQ 021615Z 33016G22KT 10SM FEW044 09/M02 A2990 1100 45 700 330/16G22 RMK AO2
94908KDBQ DBQ20110402102010304/02/11 10:20:31  5-MIN KDBQ 021620Z 32013G22KT 10SM FEW044 09/M02 A2990 1100 45 700 320/13G22 RMK AO2
94908KDBQ DBQ20110402102510304/02/11 10:25:31  5-MIN KDBQ 021625Z 30016G22KT 10SM FEW044 10/M01 A2990 1100 46 800 300/16G22 RMK AO2
94908KDBQ DBQ20110402103010304/02/11 10:30:31  5-MIN KDBQ 021630Z 31018G23KT 10SM FEW044 09/M02 A2990 1100 45 700 310/18G23 RMK AO2
94908KDBQ DBQ20110402103510004/02/11 10:35:31  5-MIN KDBQ 021635Z 31017G24KT 10SM CLR 09/M02 A2990 1090 45 700 310/17G24 RMK AO2
94908KDBQ DBQ20110402104010004/02/11 10:40:31  5-MIN KDBQ 021640Z 31018G24KT 10SM CLR 09/M02 A2990 1100 45 700 310/18G24 RMK AO2
94908KDBQ DBQ20110402104510004/02/11 10:45:31  5-MIN KDBQ 021645Z 32015G23KT 10SM CLR 09/M02 A2990 1100 44 700 320/15G23 RMK AO2
94908KDBQ DBQ20110402105011704/02/11 10:50:31  5-MIN KDBQ 021650Z 32014G22KT 10SM CLR 10/M02 A2990 1100 44 800 310/14G22 RMK AO2 SLP132 T01001017
94908KDBQ DBQ20110402105510004/02/11 10:55:31  5-MIN KDBQ 021655Z 33015G22KT 10SM CLR 10/M02 A2990 1090 44 800 330/15G22 RMK AO2
94908KDBQ DBQ20110402110010004/02/11 11:00:31  5-MIN KDBQ 021700Z 32017G22KT 10SM CLR 10/M02 A2990 1100 42 800 320/17G22 RMK AO2
94908KDBQ DBQ20110402110510004/02/11 11:05:31  5-MIN KDBQ 021705Z 34015G22KT 10SM CLR 10/M02 A2990 1100 44 800 330/15G22 RMK AO2
94908KDBQ DBQ20110402111010004/02/11 11:10:31  5-MIN KDBQ 021710Z 30018G22KT 10SM CLR 10/M02 A2990 1100 44 800 300/18G22 RMK AO2
94908KDBQ DBQ20110402111510004/02/11 11:15:31  5-MIN KDBQ 021715Z 30013G22KT 10SM CLR 10/M02 A2990 1090 44 800 300/13G22 RMK AO2
94908KDBQ DBQ20110402112010004/02/11 11:20:31  5-MIN KDBQ 021720Z 32017G22KT 10SM CLR 11/M02 A2990 1090 42 900 320/17G22 RMK AO2
94908KDBQ DBQ20110402112510004/02/11 11:25:31  5-MIN KDBQ 021725Z 31019G25KT 10SM CLR 11/M02 A2990 1090 40 900 310/19G25 RMK AO2
94908KDBQ DBQ20110402113010004/02/11 11:30:31  5-MIN KDBQ 021730Z 33016G25KT 10SM CLR 11/M02 A2990 1100 39 900 320/16G25 RMK AO2
94908KDBQ DBQ20110402113511804/02/11 11:35:31  5-MIN KDBQ 021735Z 32020G28KT 10SM CLR 11/M03 A2991 1090 39 900 320/20G28 RMK AO2 PK WND 33028/1734
94908KDBQ DBQ20110402114011804/02/11 11:40:31  5-MIN KDBQ 021740Z 33018G28KT 10SM CLR 11/M02 A2990 1090 39 900 330/18G28 RMK AO2 PK WND 33028/1734
94908KDBQ DBQ20110402114511804/02/11 11:45:31  5-MIN KDBQ 021745Z 32017G25KT 10SM CLR 11/M02 A2990 1090 39 900 320/17G25 RMK AO2 PK WND 33028/1734
94908KDBQ DBQ20110402115015304/02/11 11:50:31  5-MIN KDBQ 021750Z 32014G23KT 10SM CLR 11/M02 A2990 1100 39 900 320/14G23 RMK AO2 PK WND 33028/1734 SLP132 T01111022 10111 20011 51024
94908KDBQ DBQ20110402115510104/02/11 11:55:31  5-MIN KDBQ 021755Z 32015G23KT 10SM CLR 12/M02 A2991 1090 38 1000 320/15G23 RMK AO2
94908KDBQ DBQ20110402120010004/02/11 12:00:31  5-MIN KDBQ 021800Z 32013G23KT 10SM CLR 11/M03 A2990 1090 37 900 320/13G23 RMK AO2
94908KDBQ DBQ20110402120510004/02/11 12:05:31  5-MIN KDBQ 021805Z 32015G22KT 10SM CLR 11/M02 A2990 1090 39 900 320/15G22 RMK AO2
94908KDBQ DBQ20110402121010104/02/11 12:10:31  5-MIN KDBQ 021810Z 32016G22KT 10SM CLR 12/M02 A2990 1090 38 1000 320/16G22 RMK AO2
94908KDBQ DBQ20110402121510104/02/11 12:15:31  5-MIN KDBQ 021815Z 30018G21KT 10SM CLR 12/M03 A2991 1090 36 1000 300/18G21 RMK AO2
94908KDBQ DBQ20110402122010104/02/11 12:20:31  5-MIN KDBQ 021820Z 32017G21KT 10SM CLR 12/M02 A2990 1090 38 1000 320/17G21 RMK AO2
94908KDBQ DBQ20110402122509504/02/11 12:25:31  5-MIN KDBQ 021825Z 32016KT 10SM CLR 12/M02 A2990 1100 38 1000 320/16 RMK AO2
94908KDBQ DBQ20110402123009404/02/11 12:30:31  5-MIN KDBQ 021830Z 32016KT 10SM CLR 11/M03 A2990 1090 37 900 320/16 RMK AO2
94908KDBQ DBQ20110402123509804/02/11 12:35:31  5-MIN KDBQ 021835Z 30016KT 10SM FEW055 12/M02 A2990 1100 36 1100 300/16 RMK AO2
94908KDBQ DBQ20110402124010404/02/11 12:40:31  5-MIN KDBQ 021840Z 33013G20KT 10SM FEW055 12/M02 A2990 1100 36 1100 330/13G20 RMK AO2
94908KDBQ DBQ20110402124509804/02/11 12:45:31  5-MIN KDBQ 021845Z 33015KT 10SM FEW060 12/M02 A2990 1100 36 1100 330/15 RMK AO2
94908KDBQ DBQ20110402125012104/02/11 12:50:31  5-MIN KDBQ 021850Z 31014G20KT 10SM FEW060 12/M02 A2990 1090 36 1100 310/14G20 RMK AO2 SLP132 T01221022
94908KDBQ DBQ20110402125510404/02/11 12:55:31  5-MIN KDBQ 021855Z 31011G21KT 10SM SCT060 12/M03 A2990 1100 35 1100 310/11G21 RMK AO2
94908KDBQ DBQ20110402130010404/02/11 13:00:31  5-MIN KDBQ 021900Z 32017G21KT 10SM FEW060 12/M03 A2990 1100 35 1100 320/17G21 RMK AO2
94908KDBQ DBQ20110402130510404/02/11 13:05:31  5-MIN KDBQ 021905Z 31015G21KT 10SM FEW060 12/M03 A2990 1100 35 1100 310/15G21 RMK AO2
94908KDBQ DBQ20110402131010404/02/11 13:10:31  5-MIN KDBQ 021910Z 30012G21KT 10SM FEW060 12/M03 A2990 1100 35 1100 300/12G21 RMK AO2
94908KDBQ DBQ20110402131512204/02/11 13:15:31  5-MIN KDBQ 021915Z 30015G27KT 10SM FEW060 12/M03 A2989 1100 33 1100 300/15G27 RMK AO2 PK WND 29027/1911
94908KDBQ DBQ20110402132012204/02/11 13:20:31  5-MIN KDBQ 021920Z 30017G27KT 10SM FEW060 13/M03 A2989 1100 32 1100 300/17G27 RMK AO2 PK WND 29027/1911
94908KDBQ DBQ20110402132511904/02/11 13:25:31  5-MIN KDBQ 021925Z 31016G23KT 10SM CLR 13/M03 A2989 1100 32 1100 310/16G23 RMK AO2 PK WND 29027/1911
94908KDBQ DBQ20110402133011904/02/11 13:30:31  5-MIN KDBQ 021930Z 33013G21KT 10SM CLR 13/M03 A2989 1110 32 1100 330/13G21 RMK AO2 PK WND 29027/1911
94908KDBQ DBQ20110402133511904/02/11 13:35:31  5-MIN KDBQ 021935Z 33017G21KT 10SM CLR 13/M03 A2989 1100 31 1200 330/17G21 RMK AO2 PK WND 29027/1911
94908KDBQ DBQ20110402134011904/02/11 13:40:31  5-MIN KDBQ 021940Z 32017G21KT 10SM CLR 13/M03 A2989 1110 32 1100 320/17G21 RMK AO2 PK WND 29027/1911
94908KDBQ DBQ20110402134511904/02/11 13:45:31  5-MIN KDBQ 021945Z 32012G21KT 10SM CLR 13/M03 A2989 1110 32 1100 320/12G21 RMK AO2 PK WND 29027/1911
94908KDBQ DBQ20110402135013604/02/11 13:50:31  5-MIN KDBQ 021950Z 33013G19KT 10SM CLR 13/M03 A2989 1110 32 1100 330/13G19 RMK AO2 PK WND 29027/1911 SLP127 T01281033
94908KDBQ DBQ20110402135510104/02/11 13:55:31  5-MIN KDBQ 021955Z 31011G19KT 10SM CLR 13/M04 A2989 1110 30 1200 310/11G19 RMK AO2
94908KDBQ DBQ20110402140010104/02/11 14:00:31  5-MIN KDBQ 022000Z 31011G19KT 10SM CLR 13/M04 A2989 1110 30 1200 310/11G19 RMK AO2
94908KDBQ DBQ20110402140510104/02/11 14:05:31  5-MIN KDBQ 022005Z 32012G21KT 10SM CLR 13/M04 A2989 1110 30 1200 320/12G21 RMK AO2
94908KDBQ DBQ20110402141010104/02/11 14:10:31  5-MIN KDBQ 022010Z 31015G23KT 10SM CLR 13/M04 A2989 1110 30 1200 310/15G23 RMK AO2
94908KDBQ DBQ20110402141510104/02/11 14:15:31  5-MIN KDBQ 022015Z 31012G23KT 10SM CLR 13/M04 A2988 1110 30 1200 310/12G23 RMK AO2
94908KDBQ DBQ20110402142010104/02/11 14:20:31  5-MIN KDBQ 022020Z 34013G20KT 10SM CLR 13/M04 A2988 1110 28 1200 340/13G20 RMK AO2
94908KDBQ DBQ20110402142510104/02/11 14:25:31  5-MIN KDBQ 022025Z 33017G23KT 10SM CLR 13/M04 A2989 1110 30 1200 330/17G23 RMK AO2
94908KDBQ DBQ20110402143010104/02/11 14:30:31  5-MIN KDBQ 022030Z 32014G23KT 10SM CLR 13/M06 A2989 1110 26 1200 320/14G23 RMK AO2
94908KDBQ DBQ20110402143510104/02/11 14:35:31  5-MIN KDBQ 022035Z 32014G20KT 10SM CLR 13/M04 A2989 1110 28 1200 320/14G20 RMK AO2
94908KDBQ DBQ20110402144010104/02/11 14:40:31  5-MIN KDBQ 022040Z 31014G20KT 10SM CLR 14/M04 A2989 1110 27 1300 310/14G20 RMK AO2
94908KDBQ DBQ20110402144509504/02/11 14:45:31  5-MIN KDBQ 022045Z 30013KT 10SM CLR 13/M05 A2989 1110 27 1200 300/13 RMK AO2
94908KDBQ DBQ20110402145011804/02/11 14:50:31  5-MIN KDBQ 022050Z 33015KT 10SM CLR 13/M04 A2989 1110 28 1200 330/15 RMK AO2 SLP127 T01331044 50009
94908KDBQ DBQ20110402145511704/02/11 14:55:31  5-MIN KDBQ 022055Z 31009G19KT 280V340 10SM CLR 13/M05 A2989 1110 27 1200 310/09G19 280V340 RMK AO2
94908KDBQ DBQ20110402153010104/02/11 15:30:31  5-MIN KDBQ 022130Z 33014G20KT 10SM CLR 13/M05 A2989 1110 27 1200 330/14G20 RMK AO2
94908KDBQ DBQ20110402153510104/02/11 15:35:31  5-MIN KDBQ 022135Z 34008G20KT 10SM CLR 14/M04 A2989 1110 27 1300 330/08G20 RMK AO2
94908KDBQ DBQ20110402154010104/02/11 15:40:31  5-MIN KDBQ 022140Z 31012G19KT 10SM CLR 14/M05 A2989 1110 26 1300 310/12G19 RMK AO2
94908KDBQ DBQ20110402154510104/02/11 15:45:31  5-MIN KDBQ 022145Z 30009G19KT 10SM CLR 13/M06 A2989 1110 26 1200 300/09G19 RMK AO2
94908KDBQ DBQ20110402155011204/02/11 15:50:31  5-MIN KDBQ 022150Z 29010KT 10SM CLR 13/M06 A2988 1110 25 1200 290/10 RMK AO2 SLP126 T01331061
94908KDBQ DBQ20110402155511704/02/11 15:55:31  5-MIN KDBQ 022155Z 31012G17KT 270V340 10SM CLR 14/M06 A2988 1110 25 1300 310/12G17 270V340 RMK AO2
94908KDBQ DBQ20110402160010104/02/11 16:00:31  5-MIN KDBQ 022200Z 33009G17KT 10SM CLR 14/M06 A2988 1120 25 1300 330/09G17 RMK AO2
94908KDBQ DBQ20110402160510104/02/11 16:05:31  5-MIN KDBQ 022205Z 35006G14KT 10SM CLR 14/M06 A2988 1120 25 1300 350/06G14 RMK AO2
94908KDBQ DBQ20110402161009504/02/11 16:10:31  5-MIN KDBQ 022210Z 31010KT 10SM CLR 13/M05 A2988 1120 27 1200 300/10 RMK AO2
94908KDBQ DBQ20110402161509504/02/11 16:15:31  5-MIN KDBQ 022215Z 30007KT 10SM CLR 13/M06 A2987 1120 26 1200 300/07 RMK AO2
94908KDBQ DBQ20110402162009504/02/11 16:20:31  5-MIN KDBQ 022220Z 30007KT 10SM CLR 13/M05 A2988 1120 27 1200 300/07 RMK AO2
94908KDBQ DBQ20110402162509504/02/11 16:25:31  5-MIN KDBQ 022225Z 33010KT 10SM CLR 13/M04 A2988 1120 28 1200 330/10 RMK AO2
94908KDBQ DBQ20110402163009504/02/11 16:30:31  5-MIN KDBQ 022230Z 33009KT 10SM CLR 13/M05 A2988 1120 27 1200 330/09 RMK AO2
94908KDBQ DBQ20110402163509504/02/11 16:35:31  5-MIN KDBQ 022235Z 31009KT 10SM CLR 12/M04 A2988 1120 31 1100 310/09 RMK AO2
94908KDBQ DBQ20110402164009504/02/11 16:40:31  5-MIN KDBQ 022240Z 33007KT 10SM CLR 13/M05 A2988 1110 28 1200 330/07 RMK AO2
94908KDBQ DBQ20110402164509504/02/11 16:45:31  5-MIN KDBQ 022245Z 33005KT 10SM CLR 13/M05 A2988 1110 28 1200 330/05 RMK AO2
94908KDBQ DBQ20110402165011204/02/11 16:50:31  5-MIN KDBQ 022250Z VRB05KT 10SM CLR 13/M05 A2988 1110 28 1200 VRB/05 RMK AO2 SLP125 T01281050
94908KDBQ DBQ20110402165509504/02/11 16:55:31  5-MIN KDBQ 022255Z 27005KT 10SM CLR 13/M06 A2988 1110 27 1200 270/05 RMK AO2
94908KDBQ DBQ20110402170009504/02/11 17:00:31  5-MIN KDBQ 022300Z 31007KT 10SM CLR 13/M06 A2988 1110 27 1200 310/07 RMK AO2
94908KDBQ DBQ20110402170509504/02/11 17:05:31  5-MIN KDBQ 022305Z 30007KT 10SM CLR 13/M06 A2988 1110 27 1200 300/07 RMK AO2
94908KDBQ DBQ20110402171009504/02/11 17:10:31  5-MIN KDBQ 022310Z 31007KT 10SM CLR 13/M06 A2988 1110 26 1200 310/07 RMK AO2
94908KDBQ DBQ20110402171509504/02/11 17:15:31  5-MIN KDBQ 022315Z 34007KT 10SM CLR 13/M06 A2988 1120 26 1200 340/07 RMK AO2
94908KDBQ DBQ20110402172009504/02/11 17:20:31  5-MIN KDBQ 022320Z 31007KT 10SM CLR 12/M06 A2988 1110 27 1100 310/07 RMK AO2
94908KDBQ DBQ20110402172509504/02/11 17:25:31  5-MIN KDBQ 022325Z 31008KT 10SM CLR 12/M06 A2988 1110 27 1100 310/08 RMK AO2
94908KDBQ DBQ20110402173009804/02/11 17:30:31  5-MIN KDBQ 022330Z 31008KT 10SM FEW110 12/M06 A2988 1110 27 1100 310/08 RMK AO2
94908KDBQ DBQ20110402173510404/02/11 17:35:31  5-MIN KDBQ 022335Z 30005G15KT 10SM FEW120 12/M06 A2988 1110 28 1000 300/05G15 RMK AO2
94908KDBQ DBQ20110402174009804/02/11 17:40:31  5-MIN KDBQ 022340Z 32005KT 10SM FEW120 12/M06 A2988 1110 28 1000 320/05 RMK AO2
94908KDBQ DBQ20110402174509804/02/11 17:45:31  5-MIN KDBQ 022345Z 31004KT 10SM FEW120 12/M06 A2988 1110 28 1000 310/04 RMK AO2
94908KDBQ DBQ20110402175013304/02/11 17:50:31  5-MIN KDBQ 022350Z 29004KT 10SM FEW120 11/M06 A2988 1110 30 1000 290/04 RMK AO2 SLP125 T01111056 10139 20111 57005
94908KDBQ DBQ20110402175509804/02/11 17:55:31  5-MIN KDBQ 022355Z 29003KT 10SM FEW120 11/M06 A2988 1110 30 1000 290/03 RMK AO2
94908KDBQ DBQ20110402180009704/02/11 18:00:31  5-MIN KDBQ 030000Z 00000KT 10SM FEW120 11/M06 A2988 1110 30 900 000/00 RMK AO2
94908KDBQ DBQ20110402180509504/02/11 18:05:31  5-MIN KDBQ 030005Z 00000KT 10SM CLR 11/M06 A2988 1110 29 1000 000/00 RMK AO2
94908KDBQ DBQ20110402181009404/02/11 18:10:31  5-MIN KDBQ 030010Z 00000KT 10SM CLR 11/M06 A2988 1110 31 900 000/00 RMK AO2
94908KDBQ DBQ20110402181509404/02/11 18:15:31  5-MIN KDBQ 030015Z 00000KT 10SM CLR 10/M05 A2988 1110 34 800 000/00 RMK AO2
94908KDBQ DBQ20110402182009404/02/11 18:20:31  5-MIN KDBQ 030020Z 00000KT 10SM CLR 10/M05 A2988 1110 34 800 000/00 RMK AO2
94908KDBQ DBQ20110402182509704/02/11 18:25:31  5-MIN KDBQ 030025Z 00000KT 10SM FEW120 10/M05 A2988 1110 34 800 000/00 RMK AO2
94908KDBQ DBQ20110402183009704/02/11 18:30:31  5-MIN KDBQ 030030Z 00000KT 10SM FEW110 10/M05 A2988 1120 34 800 000/00 RMK AO2
94908KDBQ DBQ20110402183509704/02/11 18:35:31  5-MIN KDBQ 030035Z 00000KT 10SM FEW100 10/M06 A2988 1120 33 800 000/00 RMK AO2
94908KDBQ DBQ20110402184009704/02/11 18:40:31  5-MIN KDBQ 030040Z 00000KT 10SM FEW100 09/M06 A2988 1120 35 700 000/00 RMK AO2
94908KDBQ DBQ20110402184509704/02/11 18:45:31  5-MIN KDBQ 030045Z 11003KT 10SM FEW110 09/M05 A2987 1120 35 800 110/03 RMK AO2
94908KDBQ DBQ20110402185011404/02/11 18:50:31  5-MIN KDBQ 030050Z 09003KT 10SM FEW110 09/M05 A2988 1120 35 800 090/03 RMK AO2 SLP124 T00941050
94908KDBQ DBQ20110402185510204/02/11 18:55:31  5-MIN KDBQ 030055Z AUTO 00000KT 10SM SCT110 07/M04 A2988 1110 45 500 000/00 RMK AO2
94908KDBQ DBQ20110402190010204/02/11 19:00:31  5-MIN KDBQ 030100Z AUTO 09003KT 10SM SCT100 08/M04 A2988 1110 40 600 090/03 RMK AO2
94908KDBQ DBQ20110402190510204/02/11 19:05:31  5-MIN KDBQ 030105Z AUTO 11003KT 10SM BKN100 08/M04 A2988 1110 43 600 110/03 RMK AO2
94908KDBQ DBQ20110402191010204/02/11 19:10:31  5-MIN KDBQ 030110Z AUTO 12003KT 10SM BKN100 08/M04 A2988 1110 41 600 120/03 RMK AO2
94908KDBQ DBQ20110402191510904/02/11 19:15:31  5-MIN KDBQ 030115Z AUTO 11003KT 10SM BKN100 BKN120 08/M04 A2989 1110 43 500 110/03 RMK AO2
94908KDBQ DBQ20110402192010204/02/11 19:20:31  5-MIN KDBQ 030120Z AUTO 11004KT 10SM BKN095 09/M04 A2989 1110 38 700 110/04 RMK AO2
94908KDBQ DBQ20110402192510204/02/11 19:25:31  5-MIN KDBQ 030125Z AUTO 10003KT 10SM OVC095 08/M04 A2989 1100 42 600 100/03 RMK AO2
94908KDBQ DBQ20110402193010204/02/11 19:30:31  5-MIN KDBQ 030130Z AUTO 10003KT 10SM OVC095 07/M02 A2989 1100 53 500 100/03 RMK AO2
94908KDBQ DBQ20110402193510204/02/11 19:35:31  5-MIN KDBQ 030135Z AUTO 11003KT 10SM OVC095 07/M01 A2989 1100 55 500 110/03 RMK AO2
94908KDBQ DBQ20110402194010204/02/11 19:40:31  5-MIN KDBQ 030140Z AUTO 12003KT 10SM OVC095 07/M02 A2990 1100 55 400 120/03 RMK AO2
94908KDBQ DBQ20110402194510204/02/11 19:45:31  5-MIN KDBQ 030145Z AUTO 12005KT 10SM OVC095 08/M03 A2990 1100 47 500 120/05 RMK AO2
94908KDBQ DBQ20110402195011904/02/11 19:50:31  5-MIN KDBQ 030150Z AUTO 12005KT 10SM OVC095 08/M03 A2990 1100 43 600 110/05 RMK AO2 SLP131 T00831033
94908KDBQ DBQ20110402195510204/02/11 19:55:31  5-MIN KDBQ 030155Z AUTO 11005KT 10SM OVC100 09/M03 A2990 1100 42 700 110/05 RMK AO2
94908KDBQ DBQ20110402200010204/02/11 20:00:31  5-MIN KDBQ 030200Z AUTO 11005KT 10SM OVC100 09/M03 A2990 1100 43 700 110/05 RMK AO2
94908KDBQ DBQ20110402200510204/02/11 20:05:31  5-MIN KDBQ 030205Z AUTO 12004KT 10SM OVC100 08/M03 A2990 1100 45 600 120/04 RMK AO2
94908KDBQ DBQ20110402201010204/02/11 20:10:31  5-MIN KDBQ 030210Z AUTO 12005KT 10SM OVC100 09/M03 A2990 1100 42 700 120/05 RMK AO2
94908KDBQ DBQ20110402201510204/02/11 20:15:31  5-MIN KDBQ 030215Z AUTO 11005KT 10SM OVC100 09/M03 A2990 1100 42 700 110/05 RMK AO2
94908KDBQ DBQ20110402202010204/02/11 20:20:31  5-MIN KDBQ 030220Z AUTO 11005KT 10SM OVC100 08/M03 A2990 1100 45 600 110/05 RMK AO2
94908KDBQ DBQ20110402202510204/02/11 20:25:31  5-MIN KDBQ 030225Z AUTO 11005KT 10SM OVC100 09/M03 A2990 1100 43 700 110/05 RMK AO2
94908KDBQ DBQ20110402203010204/02/11 20:30:31  5-MIN KDBQ 030230Z AUTO 11005KT 10SM OVC100 09/M03 A2990 1100 42 700 110/05 RMK AO2
94908KDBQ DBQ20110402203510204/02/11 20:35:31  5-MIN KDBQ 030235Z AUTO 12005KT 10SM OVC100 09/M03 A2990 1090 43 700 120/05 RMK AO2
94908KDBQ DBQ20110402204010204/02/11 20:40:31  5-MIN KDBQ 030240Z AUTO 12004KT 10SM OVC100 09/M03 A2990 1090 42 700 120/04 RMK AO2
94908KDBQ DBQ20110402204510204/02/11 20:45:31  5-MIN KDBQ 030245Z AUTO 13005KT 10SM OVC100 09/M03 A2990 1090 42 700 130/05 RMK AO2
94908KDBQ DBQ20110402205012504/02/11 20:50:31  5-MIN KDBQ 030250Z AUTO 12006KT 10SM OVC100 09/M04 A2990 1090 39 700 120/06 RMK AO2 SLP131 T00941039 55002
94908KDBQ DBQ20110402205510204/02/11 20:55:31  5-MIN KDBQ 030255Z AUTO 12006KT 10SM OVC100 09/M04 A2990 1100 39 700 120/06 RMK AO2
94908KDBQ DBQ20110402210010204/02/11 21:00:31  5-MIN KDBQ 030300Z AUTO 13006KT 10SM OVC100 09/M04 A2990 1100 39 700 130/06 RMK AO2
94908KDBQ DBQ20110402210510204/02/11 21:05:31  5-MIN KDBQ 030305Z AUTO 13006KT 10SM OVC100 09/M04 A2990 1100 37 700 130/06 RMK AO2
94908KDBQ DBQ20110402211010204/02/11 21:10:31  5-MIN KDBQ 030310Z AUTO 13006KT 10SM OVC100 09/M04 A2990 1100 37 700 130/06 RMK AO2
94908KDBQ DBQ20110402211510204/02/11 21:15:31  5-MIN KDBQ 030315Z AUTO 13007KT 10SM OVC100 09/M04 A2989 1100 37 700 130/07 RMK AO2
94908KDBQ DBQ20110402212010204/02/11 21:20:31  5-MIN KDBQ 030320Z AUTO 13007KT 10SM OVC100 09/M04 A2989 1100 37 700 130/07 RMK AO2
94908KDBQ DBQ20110402212510204/02/11 21:25:31  5-MIN KDBQ 030325Z AUTO 13007KT 10SM OVC100 09/M04 A2989 1110 37 700 130/07 RMK AO2
94908KDBQ DBQ20110402213010204/02/11 21:30:31  5-MIN KDBQ 030330Z AUTO 14007KT 10SM OVC110 09/M04 A2989 1110 37 700 130/07 RMK AO2
94908KDBQ DBQ20110402213510204/02/11 21:35:31  5-MIN KDBQ 030335Z AUTO 14007KT 10SM OVC100 09/M04 A2989 1110 37 700 140/07 RMK AO2
94908KDBQ DBQ20110402214013304/02/11 21:40:31  5-MIN KDBQ 030340Z AUTO 05017G27KT 10SM BKN100 BKN110 09/M04 A2989 1110 40 700 050/17G27 RMK AO2 PK WND 04027/0339
94908KDBQ DBQ20110402214513304/02/11 21:45:31  5-MIN KDBQ 030345Z AUTO VRB06G27KT 10SM SCT095 BKN110 09/M04 A2988 1110 40 700 VRB/06G27 RMK AO2 PK WND 04027/0339
94908KDBQ DBQ20110402215016604/02/11 21:50:31  5-MIN KDBQ 030350Z AUTO 08007G23KT 340V120 10SM SCT090 SCT110 09/M04 A2988 1110 37 800 080/07G23 340V120 RMK AO2 PK WND 04027/0339 SLP123 T00941044
94908KDBQ DBQ20110402215514904/02/11 21:55:31  5-MIN KDBQ 030355Z AUTO 34017G28KT 330V080 10SM SCT090 BKN110 09/M04 A2988 1110 37 800 340/17G28 330V080 RMK AO2 PK WND 33028/0355
94908KDBQ DBQ20110402220009404/02/11 22:00:31  5-MIN KDBQ 030400Z AUTO 10SM BKN090 09/M04 A2988 1120 37 800 M /M RMK AO2 $
94908KDBQ DBQ20110402220509404/02/11 22:05:31  5-MIN KDBQ 030405Z AUTO 10SM SCT085 09/M04 A2988 1120 37 800 M /M RMK AO2 $
94908KDBQ DBQ20110402221012604/02/11 22:10:31  5-MIN KDBQ 030410Z AUTO 10007G24KT 040V140 10SM FEW085 09/M04 A2988 1110 37 800 090/07G24 040V140 RMK AO2 $
94908KDBQ DBQ20110402221511004/02/11 22:15:31  5-MIN KDBQ 030415Z AUTO 13007G24KT 10SM FEW085 09/M04 A2988 1110 38 700 130/07G24 RMK AO2 $
94908KDBQ DBQ20110402222010404/02/11 22:20:31  5-MIN KDBQ 030420Z AUTO 13007KT 10SM SCT090 09/M04 A2988 1110 40 700 130/07 RMK AO2 $
94908KDBQ DBQ20110402222510404/02/11 22:25:31  5-MIN KDBQ 030425Z AUTO 14007KT 10SM SCT090 09/M04 A2988 1110 40 700 140/07 RMK AO2 $
94908KDBQ DBQ20110402223010404/02/11 22:30:31  5-MIN KDBQ 030430Z AUTO 14006KT 10SM FEW090 09/M04 A2988 1110 40 700 140/06 RMK AO2 $
94908KDBQ DBQ20110402223510404/02/11 22:35:31  5-MIN KDBQ 030435Z AUTO 14007KT 10SM SCT090 09/M04 A2988 1110 40 700 140/07 RMK AO2 $
94908KDBQ DBQ20110402224010404/02/11 22:40:31  5-MIN KDBQ 030440Z AUTO 14007KT 10SM BKN085 09/M04 A2988 1110 40 700 140/07 RMK AO2 $
94908KDBQ DBQ20110402224510404/02/11 22:45:31  5-MIN KDBQ 030445Z AUTO 14007KT 10SM BKN085 09/M04 A2989 1110 40 700 140/07 RMK AO2 $
94908KDBQ DBQ20110402225012104/02/11 22:50:31  5-MIN KDBQ 030450Z AUTO 14007KT 10SM BKN085 09/M04 A2988 1110 40 700 140/07 RMK AO2 SLP123 T00891039 $
94908KDBQ DBQ20110402225510404/02/11 22:55:31  5-MIN KDBQ 030455Z AUTO 14007KT 10SM BKN085 09/M04 A2988 1110 40 700 140/07 RMK AO2 $
94908KDBQ DBQ20110402230010404/02/11 23:00:31  5-MIN KDBQ 030500Z AUTO 13007KT 10SM OVC085 09/M04 A2988 1110 40 700 130/07 RMK AO2 $
94908KDBQ DBQ20110402230510404/02/11 23:05:31  5-MIN KDBQ 030505Z AUTO 13008KT 10SM OVC085 09/M04 A2988 1110 40 700 130/08 RMK AO2 $
94908KDBQ DBQ20110402231010404/02/11 23:10:31  5-MIN KDBQ 030510Z AUTO 13008KT 10SM OVC085 09/M04 A2988 1120 40 700 130/08 RMK AO2 $
94908KDBQ DBQ20110402231510204/02/11 23:15:31  5-MIN KDBQ 030515Z AUTO 13009KT 10SM OVC085 09/M04 A2988 1120 40 700 130/09 RMK AO2
94908KDBQ DBQ20110402232010204/02/11 23:20:31  5-MIN KDBQ 030520Z AUTO 13009KT 10SM OVC085 09/M04 A2988 1120 40 700 130/09 RMK AO2
94908KDBQ DBQ20110402232510204/02/11 23:25:31  5-MIN KDBQ 030525Z AUTO 13007KT 10SM OVC085 09/M04 A2987 1120 40 700 130/07 RMK AO2
94908KDBQ DBQ20110402233010204/02/11 23:30:31  5-MIN KDBQ 030530Z AUTO 14009KT 10SM OVC080 09/M04 A2987 1120 40 700 130/09 RMK AO2
94908KDBQ DBQ20110402233510204/02/11 23:35:31  5-MIN KDBQ 030535Z AUTO 13009KT 10SM OVC080 09/M04 A2987 1130 40 700 130/09 RMK AO2
94908KDBQ DBQ20110402234010204/02/11 23:40:31  5-MIN KDBQ 030540Z AUTO 14009KT 10SM OVC080 09/M04 A2986 1130 40 700 130/09 RMK AO2
94908KDBQ DBQ20110402234510204/02/11 23:45:31  5-MIN KDBQ 030545Z AUTO 14010KT 10SM OVC080 09/M04 A2986 1130 40 700 140/10 RMK AO2
94908KDBQ DBQ20110402235014704/02/11 23:50:31  5-MIN KDBQ 030550Z AUTO 14009KT 10SM OVC080 09/M04 A2986 1140 40 700 140/09 RMK AO2 SLP114 T00891039 10111 20067 401390000 53007
94908KDBQ DBQ20110402235510204/02/11 23:55:31  5-MIN KDBQ 030555Z AUTO 14010KT 10SM OVC080 09/M04 A2985 1140 40 700 140/10 RMK AO2
94908KDBQ DBQ20110403000010204/03/11 00:00:38  5-MIN KDBQ 030600Z AUTO 14009KT 10SM OVC080 09/M04 A2985 1150 40 700 140/09 RMK AO2
94908KDBQ DBQ20110403000510204/03/11 00:05:31  5-MIN KDBQ 030605Z AUTO 13010KT 10SM OVC075 09/M04 A2985 1150 40 700 130/10 RMK AO2
94908KDBQ DBQ20110403001010204/03/11 00:10:31  5-MIN KDBQ 030610Z AUTO 14011KT 10SM OVC075 09/M04 A2985 1140 40 700 140/11 RMK AO2
94908KDBQ DBQ20110403001510204/03/11 00:15:31  5-MIN KDBQ 030615Z AUTO 14010KT 10SM OVC075 09/M04 A2984 1150 40 700 140/10 RMK AO2
94908KDBQ DBQ20110403002010204/03/11 00:20:31  5-MIN KDBQ 030620Z AUTO 14010KT 10SM OVC075 09/M03 A2985 1150 42 700 140/10 RMK AO2
94908KDBQ DBQ20110403002510204/03/11 00:25:31  5-MIN KDBQ 030625Z AUTO 14011KT 10SM OVC080 09/M04 A2984 1150 40 700 140/11 RMK AO2
94908KDBQ DBQ20110403003010904/03/11 00:30:31  5-MIN KDBQ 030630Z AUTO 14011KT 10SM BKN075 OVC110 09/M04 A2984 1150 40 700 140/11 RMK AO2
94908KDBQ DBQ20110403003510904/03/11 00:35:31  5-MIN KDBQ 030635Z AUTO 14011KT 10SM BKN075 OVC110 09/M04 A2983 1160 40 700 140/11 RMK AO2
94908KDBQ DBQ20110403004010904/03/11 00:40:31  5-MIN KDBQ 030640Z AUTO 14011KT 10SM BKN075 OVC100 09/M04 A2983 1160 40 700 130/11 RMK AO2
94908KDBQ DBQ20110403004510904/03/11 00:45:31  5-MIN KDBQ 030645Z AUTO 13012KT 10SM BKN075 OVC110 09/M04 A2983 1160 40 700 130/12 RMK AO2
94908KDBQ DBQ20110403005012604/03/11 00:50:31  5-MIN KDBQ 030650Z AUTO 14013KT 10SM BKN075 BKN100 09/M04 A2982 1170 40 800 130/13 RMK AO2 SLP101 T00891039
94908KDBQ DBQ20110403005510904/03/11 00:55:31  5-MIN KDBQ 030655Z AUTO 14012KT 10SM SCT075 BKN110 09/M04 A2982 1170 40 800 140/12 RMK AO2
94908KDBQ DBQ20110403010011504/03/11 01:00:31  5-MIN KDBQ 030700Z AUTO 13011G20KT 10SM SCT075 BKN100 09/M04 A2981 1180 40 800 130/11G20 RMK AO2
94908KDBQ DBQ20110403010511504/03/11 01:05:31  5-MIN KDBQ 030705Z AUTO 13012G20KT 10SM FEW075 BKN100 09/M04 A2981 1180 40 800 130/12G20 RMK AO2
94908KDBQ DBQ20110403011012204/03/11 01:10:31  5-MIN KDBQ 030710Z AUTO 13013G19KT 10SM FEW075 SCT100 BKN110 09/M04 A2981 1180 40 800 130/13G19 RMK AO2
94908KDBQ DBQ20110403011510904/03/11 01:15:31  5-MIN KDBQ 030715Z AUTO 13013KT 10SM SCT100 SCT110 09/M04 A2980 1190 40 800 130/13 RMK AO2
94908KDBQ DBQ20110403012010904/03/11 01:20:31  5-MIN KDBQ 030720Z AUTO 14013KT 10SM FEW100 SCT120 09/M04 A2980 1190 40 800 130/13 RMK AO2
94908KDBQ DBQ20110403012511504/03/11 01:25:31  5-MIN KDBQ 030725Z AUTO 14011G19KT 10SM FEW095 SCT120 08/M03 A2980 1190 43 700 140/11G19 RMK AO2
94908KDBQ DBQ20110403013010904/03/11 01:30:31  5-MIN KDBQ 030730Z AUTO 14011KT 10SM SCT095 BKN120 08/M03 A2980 1190 43 700 140/11 RMK AO2
94908KDBQ DBQ20110403013510904/03/11 01:35:31  5-MIN KDBQ 030735Z AUTO 14012KT 10SM BKN095 BKN120 08/M03 A2979 1200 43 700 140/12 RMK AO2
94908KDBQ DBQ20110403014010904/03/11 01:40:31  5-MIN KDBQ 030740Z AUTO 14012KT 10SM BKN095 BKN120 08/M03 A2978 1210 43 700 140/12 RMK AO2
94908KDBQ DBQ20110403014511604/03/11 01:45:31  5-MIN KDBQ 030745Z AUTO 14013KT 10SM BKN095 BKN120 08/M03 A2978 1210 43 700 140/13 RMK AO2 PRESFR
94908KDBQ DBQ20110403015013304/03/11 01:50:31  5-MIN KDBQ 030750Z AUTO 14012KT 10SM BKN100 BKN120 08/M03 A2977 1220 43 700 140/12 RMK AO2 PRESFR SLP084 T00831033
94908KDBQ DBQ20110403015510904/03/11 01:55:31  5-MIN KDBQ 030755Z AUTO 14012KT 10SM SCT100 BKN110 08/M03 A2977 1220 43 800 140/12 RMK AO2
94908KDBQ DBQ20110403020010904/03/11 02:00:31  5-MIN KDBQ 030800Z AUTO 14012KT 10SM SCT100 BKN110 08/M03 A2977 1220 43 800 140/12 RMK AO2
94908KDBQ DBQ20110403020511504/03/11 02:05:31  5-MIN KDBQ 030805Z AUTO 15012G19KT 10SM BKN095 BKN110 08/M03 A2977 1220 43 800 140/12G19 RMK AO2
94908KDBQ DBQ20110403021011504/03/11 02:10:31  5-MIN KDBQ 030810Z AUTO 14011G19KT 10SM BKN090 BKN110 09/M03 A2976 1220 42 800 140/11G19 RMK AO2
94908KDBQ DBQ20110403021511504/03/11 02:15:31  5-MIN KDBQ 030815Z AUTO 14013G18KT 10SM BKN090 BKN110 09/M03 A2976 1220 42 800 140/13G18 RMK AO2
94908KDBQ DBQ20110403022010904/03/11 02:20:31  5-MIN KDBQ 030820Z AUTO 13012KT 10SM BKN090 OVC110 09/M03 A2976 1220 42 800 130/12 RMK AO2
94908KDBQ DBQ20110403022510804/03/11 02:25:31  5-MIN KDBQ 030825Z AUTO 14012G19KT 10SM OVC090 09/M04 A2976 1230 40 800 140/12G19 RMK AO2
94908KDBQ DBQ20110403023010804/03/11 02:30:31  5-MIN KDBQ 030830Z AUTO 14011G18KT 10SM OVC090 09/M04 A2976 1230 40 800 140/11G18 RMK AO2
94908KDBQ DBQ20110403023510904/03/11 02:35:31  5-MIN KDBQ 030835Z AUTO 14011KT 10SM SCT075 OVC090 09/M03 A2976 1230 42 800 140/11 RMK AO2
94908KDBQ DBQ20110403024010904/03/11 02:40:31  5-MIN KDBQ 030840Z AUTO 13012KT 10SM BKN070 OVC090 09/M03 A2976 1230 42 800 130/12 RMK AO2
94908KDBQ DBQ20110403024510904/03/11 02:45:31  5-MIN KDBQ 030845Z AUTO 13011KT 10SM SCT070 OVC085 09/M03 A2976 1230 42 800 130/11 RMK AO2
94908KDBQ DBQ20110403025013204/03/11 02:50:31  5-MIN KDBQ 030850Z AUTO 13009KT 10SM SCT070 OVC085 08/M02 A2976 1230 47 800 130/09 RMK AO2 SLP078 T00831022 58016
94908KDBQ DBQ20110403025510904/03/11 02:55:31  5-MIN KDBQ 030855Z AUTO 14010KT 10SM SCT070 OVC085 08/M02 A2975 1230 47 800 130/10 RMK AO2
94908KDBQ DBQ20110403030010904/03/11 03:00:31  5-MIN KDBQ 030900Z AUTO 13012KT 10SM SCT065 OVC085 08/M02 A2975 1240 47 800 130/12 RMK AO2
94908KDBQ DBQ20110403030513104/03/11 03:05:31  5-MIN KDBQ 030905Z AUTO 14011G17KT 10SM -RA SCT070 OVC085 08/M02 A2974 1240 47 800 140/11G17 RMK AO2 RAB05 P0000
94908KDBQ DBQ20110403031013104/03/11 03:10:31  5-MIN KDBQ 030910Z AUTO 13011G18KT 10SM -RA FEW070 OVC085 08/M02 A2974 1240 47 800 130/11G18 RMK AO2 RAB05 P0000
94908KDBQ DBQ20110403031512404/03/11 03:15:31  5-MIN KDBQ 030915Z AUTO 13011KT 10SM FEW070 OVC090 08/M02 A2974 1250 49 800 130/11 RMK AO2 RAB05E11 P0000
94908KDBQ DBQ20110403032012404/03/11 03:20:31  5-MIN KDBQ 030920Z AUTO 14012KT 10SM FEW070 OVC090 08/M02 A2974 1250 47 800 140/12 RMK AO2 RAB05E11 P0000
94908KDBQ DBQ20110403032513004/03/11 03:25:31  5-MIN KDBQ 030925Z AUTO 14013G18KT 10SM FEW070 OVC090 08/M02 A2974 1250 47 800 140/13G18 RMK AO2 RAB05E11 P0000
94908KDBQ DBQ20110403033013004/03/11 03:30:31  5-MIN KDBQ 030930Z AUTO 14011G18KT 10SM FEW070 OVC095 08/M02 A2973 1250 47 800 140/11G18 RMK AO2 RAB05E11 P0000
94908KDBQ DBQ20110403033512304/03/11 03:35:31  5-MIN KDBQ 030935Z AUTO 14011G18KT 10SM OVC095 08/M02 A2973 1250 47 800 140/11G18 RMK AO2 RAB05E11 P0000
94908KDBQ DBQ20110403034011704/03/11 03:40:31  5-MIN KDBQ 030940Z AUTO 14012KT 10SM OVC100 08/M02 A2973 1250 47 800 140/12 RMK AO2 RAB05E11 P0000
94908KDBQ DBQ20110403034511704/03/11 03:45:31  5-MIN KDBQ 030945Z AUTO 14011KT 10SM OVC100 08/M02 A2973 1260 47 800 140/11 RMK AO2 RAB05E11 P0000
94908KDBQ DBQ20110403035013404/03/11 03:50:31  5-MIN KDBQ 030950Z AUTO 14012KT 10SM BKN100 08/M02 A2972 1260 47 800 140/12 RMK AO2 RAB05E11 SLP067 P0000 T00831022
94908KDBQ DBQ20110403035511504/03/11 03:55:31  5-MIN KDBQ 030955Z AUTO 14013G18KT 10SM BKN100 BKN120 08/M03 A2972 1270 45 800 140/13G18 RMK AO2
94908KDBQ DBQ20110403040010904/03/11 04:00:31  5-MIN KDBQ 031000Z AUTO 14012KT 10SM SCT100 BKN120 08/M03 A2971 1270 45 800 140/12 RMK AO2
94908KDBQ DBQ20110403040511504/03/11 04:05:31  5-MIN KDBQ 031005Z AUTO 14013G19KT 10SM SCT110 08/M03 A2971 1280 45 800 140/13G19 RMK AO2 PRESFR
94908KDBQ DBQ20110403041012604/03/11 04:10:31  5-MIN KDBQ 031010Z AUTO 14014G26KT 10SM BKN110 08/M03 A2970 1280 45 800 140/14G26 RMK AO2 PK WND 15026/1007
94908KDBQ DBQ20110403041512604/03/11 04:15:31  5-MIN KDBQ 031015Z AUTO 14012G26KT 10SM BKN110 08/M03 A2970 1280 45 800 140/12G26 RMK AO2 PK WND 15026/1007
94908KDBQ DBQ20110403042012604/03/11 04:20:31  5-MIN KDBQ 031020Z AUTO 14015G23KT 10SM SCT110 08/M03 A2969 1290 43 800 140/15G23 RMK AO2 PK WND 15026/1007
94908KDBQ DBQ20110403042512604/03/11 04:25:31  5-MIN KDBQ 031025Z AUTO 14013G23KT 10SM FEW110 08/M03 A2969 1290 45 800 140/13G23 RMK AO2 PK WND 15026/1007
94908KDBQ DBQ20110403043012604/03/11 04:30:31  5-MIN KDBQ 031030Z AUTO 14013G28KT 10SM FEW110 08/M03 A2968 1300 45 800 140/13G28 RMK AO2 PK WND 13028/1028
94908KDBQ DBQ20110403043512604/03/11 04:35:31  5-MIN KDBQ 031035Z AUTO 14014G28KT 10SM FEW110 08/M03 A2968 1300 43 800 140/14G28 RMK AO2 PK WND 13028/1028
94908KDBQ DBQ20110403044012604/03/11 04:40:31  5-MIN KDBQ 031040Z AUTO 14016G21KT 10SM FEW110 08/M03 A2968 1300 43 900 140/16G21 RMK AO2 PK WND 13028/1028
94908KDBQ DBQ20110403044512304/03/11 04:45:31  5-MIN KDBQ 031045Z AUTO 14015G21KT 10SM CLR 08/M03 A2968 1300 43 900 140/15G21 RMK AO2 PK WND 13028/1028
94908KDBQ DBQ20110403045013504/03/11 04:50:31  5-MIN KDBQ 031050Z 14016G26KT 10SM CLR 08/M03 A2967 1310 43 900 130/16G26 RMK AO2 PK WND 13028/1028 SLP050 T00831033
94908KDBQ DBQ20110403045510004/03/11 04:55:31  5-MIN KDBQ 031055Z 14014G26KT 10SM CLR 08/M03 A2967 1310 43 900 140/14G26 RMK AO2
94908KDBQ DBQ20110403050010004/03/11 05:00:31  5-MIN KDBQ 031100Z 13016G24KT 10SM CLR 08/M03 A2966 1320 43 900 130/16G24 RMK AO2
94908KDBQ DBQ20110403050510704/03/11 05:05:31  5-MIN KDBQ 031105Z 13016G23KT 10SM CLR 08/M03 A2965 1330 43 900 130/16G23 RMK AO2 PRESFR
94908KDBQ DBQ20110403051010004/03/11 05:10:31  5-MIN KDBQ 031110Z 13016G23KT 10SM CLR 08/M03 A2965 1330 43 900 130/16G23 RMK AO2
94908KDBQ DBQ20110403051510004/03/11 05:15:31  5-MIN KDBQ 031115Z 13016G24KT 10SM CLR 08/M03 A2965 1330 43 900 130/16G24 RMK AO2
94908KDBQ DBQ20110403052010004/03/11 05:20:31  5-MIN KDBQ 031120Z 13016G24KT 10SM CLR 08/M03 A2965 1330 43 900 130/16G24 RMK AO2
94908KDBQ DBQ20110403052510304/03/11 05:25:31  5-MIN KDBQ 031125Z 13014G25KT 10SM FEW070 08/M03 A2966 1320 43 900 130/14G25 RMK AO2
94908KDBQ DBQ20110403053010304/03/11 05:30:31  5-MIN KDBQ 031130Z 13016G25KT 10SM SCT065 09/M03 A2966 1320 42 900 130/16G25 RMK AO2
94908KDBQ DBQ20110403053510404/03/11 05:35:31  5-MIN KDBQ 031135Z 13018G23KT 10SM BKN065 09/M03 A2965 1330 42 1000 130/18G23 RMK AO2
94908KDBQ DBQ20110403054010404/03/11 05:40:31  5-MIN KDBQ 031140Z 14016G23KT 10SM BKN060 09/M03 A2964 1340 42 1000 140/16G23 RMK AO2
94908KDBQ DBQ20110403054512904/03/11 05:45:31  5-MIN KDBQ 031145Z 14016G26KT 10SM BKN060 BKN080 09/M03 A2964 1340 43 1000 140/16G26 RMK AO2 PK WND 13026/1142
94908KDBQ DBQ20110403055017704/03/11 05:50:31  5-MIN KDBQ 031150Z 14019G27KT 10SM SCT050 BKN065 OVC080 09/M03 A2963 1350 43 1000 140/19G27 RMK AO2 PK WND 14027/1146 SLP037 60000 T00891028 10089 20078 56033
94908KDBQ DBQ20110403055514304/03/11 05:55:31  5-MIN KDBQ 031155Z 14020G27KT 10SM FEW046 BKN060 OVC075 09/M03 A2962 1350 43 1000 140/20G27 RMK AO2 PK WND 14026/1154 PRESFR
94908KDBQ DBQ20110403060014304/03/11 06:00:31  5-MIN KDBQ 031200Z 14019G28KT 10SM SCT049 BKN065 OVC080 09/M03 A2962 1360 43 1000 140/19G28 RMK AO2 PK WND 13028/1200 PRESFR
94908KDBQ DBQ20110403060513604/03/11 06:05:31  5-MIN KDBQ 031205Z 14019G28KT 10SM BKN049 OVC075 09/M03 A2961 1370 42 1100 140/19G28 RMK AO2 PK WND 13028/1200 PRESFR
94908KDBQ DBQ20110403061014304/03/11 06:10:31  5-MIN KDBQ 031210Z 14022G32KT 10SM SCT046 BKN055 OVC090 09/M03 A2960 1380 42 1100 140/22G32 RMK AO2 PK WND 15032/1210 PRESFR
94908KDBQ DBQ20110403061513604/03/11 06:15:31  5-MIN KDBQ 031215Z 14019G33KT 10SM BKN047 BKN055 BKN085 09/M03 A2960 1380 42 1100 140/19G33 RMK AO2 PK WND 14033/1211
94908KDBQ DBQ20110403062013604/03/11 06:20:31  5-MIN KDBQ 031220Z 14027G37KT 10SM BKN045 BKN055 BKN085 09/M03 A2959 1380 42 1100 140/27G37 RMK AO2 PK WND 14037/1220
94908KDBQ DBQ20110403062514304/03/11 06:25:31  5-MIN KDBQ 031225Z 14022G37KT 10SM SCT045 SCT055 BKN085 09/M03 A2958 1390 42 1100 140/22G37 RMK AO2 PK WND 14037/1220 PRESFR
94908KDBQ DBQ20110403063013604/03/11 06:30:31  5-MIN KDBQ 031230Z 14019G31KT 10SM FEW045 SCT055 BKN085 09/M03 A2959 1390 42 1100 140/19G31 RMK AO2 PK WND 14037/1220
94908KDBQ DBQ20110403063513604/03/11 06:35:31  5-MIN KDBQ 031235Z 15020G31KT 10SM FEW039 SCT065 BKN080 09/M03 A2959 1390 42 1100 150/20G31 RMK AO2 PK WND 14037/1220
94908KDBQ DBQ20110403064013604/03/11 06:40:31  5-MIN KDBQ 031240Z 14020G39KT 10SM SCT035 SCT042 BKN065 09/M03 A2957 1400 42 1100 140/20G39 RMK AO2 PK WND 14039/1236
94908KDBQ DBQ20110403064512904/03/11 06:45:31  5-MIN KDBQ 031245Z 14021G39KT 10SM SCT035 BKN070 10/M03 A2957 1400 40 1200 140/21G39 RMK AO2 PK WND 14039/1243
94908KDBQ DBQ20110403065014604/03/11 06:50:31  5-MIN KDBQ 031250Z 15024G39KT 10SM FEW035 SCT070 10/M03 A2956 1410 40 1200 150/24G39 RMK AO2 PK WND 14039/1243 SLP014 T01001028
94908KDBQ DBQ20110403065512904/03/11 06:55:31  5-MIN KDBQ 031255Z 15021G33KT 10SM FEW035 SCT070 09/M02 A2956 1410 44 1100 150/21G33 RMK AO2 PK WND 15027/1255
94908KDBQ DBQ20110403070012204/03/11 07:00:31  5-MIN KDBQ 031300Z 15020G28KT 10SM FEW035 09/M02 A2957 1410 44 1100 150/20G28 RMK AO2 PK WND 13027/1258
94908KDBQ DBQ20110403070512904/03/11 07:05:31  5-MIN KDBQ 031305Z 14022G29KT 10SM FEW035 SCT050 09/M02 A2956 1410 44 1100 140/22G29 RMK AO2 PK WND 14029/1305
94908KDBQ DBQ20110403071012904/03/11 07:10:31  5-MIN KDBQ 031310Z 15021G29KT 10SM FEW035 SCT055 10/M02 A2956 1410 42 1200 150/21G29 RMK AO2 PK WND 14029/1305
94908KDBQ DBQ20110403071512904/03/11 07:15:31  5-MIN KDBQ 031315Z 15022G31KT 10SM SCT035 BKN055 10/M02 A2955 1420 44 1200 150/22G31 RMK AO2 PK WND 15031/1315
94908KDBQ DBQ20110403072012904/03/11 07:20:31  5-MIN KDBQ 031320Z 14020G31KT 10SM SCT035 BKN055 10/M02 A2955 1420 44 1200 140/20G31 RMK AO2 PK WND 15031/1315
94908KDBQ DBQ20110403072512904/03/11 07:25:31  5-MIN KDBQ 031325Z 15023G32KT 10SM BKN033 BKN055 10/M02 A2954 1430 44 1200 150/23G32 RMK AO2 PK WND 15032/1325
94908KDBQ DBQ20110403073012904/03/11 07:30:31  5-MIN KDBQ 031330Z 15024G33KT 10SM BKN033 OVC055 10/M02 A2954 1430 44 1200 150/24G33 RMK AO2 PK WND 15033/1330
94908KDBQ DBQ20110403073513604/03/11 07:35:31  5-MIN KDBQ 031335Z 15025G36KT 10SM BKN031 OVC055 10/M02 A2953 1440 44 1200 150/25G36 RMK AO2 PK WND 14036/1335 PRESFR
94908KDBQ DBQ20110403074013604/03/11 07:40:31  5-MIN KDBQ 031340Z 15024G36KT 10SM BKN028 OVC033 10/M02 A2953 1450 44 1200 150/24G36 RMK AO2 PK WND 14036/1335 PRESFR
94908KDBQ DBQ20110403074512204/03/11 07:45:31  5-MIN KDBQ 031345Z 15021G35KT 10SM OVC030 10/M02 A2952 1450 44 1200 150/21G35 RMK AO2 PK WND 14036/1335
94908KDBQ DBQ20110403075012204/03/11 07:50:31  5-MIN KDBQ 031350Z 15024G35KT 10SM OVC028 10/M02 A2952 1450 44 1200 150/24G35 RMK AO2 PK WND 14036/1335
94908KDBQ DBQ20110403075512204/03/11 07:55:31  5-MIN KDBQ 031355Z 16021G32KT 10SM OVC030 10/M01 A2952 1450 46 1200 150/21G32 RMK AO2 PK WND 16027/1355
94908KDBQ DBQ20110403080012904/03/11 08:00:31  5-MIN KDBQ 031400Z 15018G32KT 10SM BKN030 OVC070 10/M01 A2951 1460 46 1200 150/18G32 RMK AO2 PK WND 15028/1356
94908KDBQ DBQ20110403080513604/03/11 08:05:31  5-MIN KDBQ 031405Z 15022G28KT 10SM BKN030 BKN034 OVC070 10/M01 A2951 1460 47 1200 150/22G28 RMK AO2 PK WND 16028/1405
94908KDBQ DBQ20110403081013604/03/11 08:10:31  5-MIN KDBQ 031410Z 15021G28KT 10SM BKN030 BKN034 OVC070 11/M01 A2951 1460 46 1300 150/21G28 RMK AO2 PK WND 16028/1405
94908KDBQ DBQ20110403081513604/03/11 08:15:31  5-MIN KDBQ 031415Z 15019G26KT 10SM BKN030 BKN034 OVC070 11/M01 A2950 1470 46 1300 150/19G26 RMK AO2 PK WND 16028/1405
94908KDBQ DBQ20110403082013604/03/11 08:20:31  5-MIN KDBQ 031420Z 15021G26KT 10SM BKN030 BKN034 OVC070 11/M01 A2950 1470 46 1300 150/21G26 RMK AO2 PK WND 16028/1405
94908KDBQ DBQ20110403082513504/03/11 08:25:31  5-MIN KDBQ 031425Z 15021G28KT 10SM BKN030 BKN034 OVC070 11/00 A2949 1480 48 1300 150/21G28 RMK AO2 PK WND 15028/1425
94908KDBQ DBQ20110403083013504/03/11 08:30:31  5-MIN KDBQ 031430Z 15021G28KT 10SM BKN030 BKN034 OVC070 11/00 A2949 1480 48 1300 150/21G28 RMK AO2 PK WND 15028/1425
94908KDBQ DBQ20110403083512104/03/11 08:35:31  5-MIN KDBQ 031435Z 16019G27KT 10SM OVC036 11/01 A2948 1480 48 1400 160/19G27 RMK AO2 PK WND 15028/1425
94908KDBQ DBQ20110403084012104/03/11 08:40:31  5-MIN KDBQ 031440Z 16020G27KT 10SM OVC036 11/01 A2948 1490 48 1400 160/20G27 RMK AO2 PK WND 15028/1425
94908KDBQ DBQ20110403084513504/03/11 08:45:31  5-MIN KDBQ 031445Z 16021G27KT 10SM BKN036 BKN046 OVC065 12/01 A2947 1490 46 1500 160/21G27 RMK AO2 PK WND 15028/1425
94908KDBQ DBQ20110403085015804/03/11 08:50:31  5-MIN KDBQ 031450Z 17018G27KT 10SM BKN036 BKN047 OVC065 12/01 A2947 1500 48 1500 160/18G27 RMK AO2 PK WND 15028/1425 SLP982 T01170011 58040
94908KDBQ DBQ20110403085513504/03/11 08:55:31  5-MIN KDBQ 031455Z 17019G29KT 10SM BKN036 BKN049 OVC065 12/01 A2947 1500 48 1500 170/19G29 RMK AO2 PK WND 17026/1455
94908KDBQ DBQ20110403090013504/03/11 09:00:31  5-MIN KDBQ 031500Z 16019G29KT 10SM SCT036 BKN049 OVC065 12/01 A2946 1510 48 1500 160/19G29 RMK AO2 PK WND 17027/1459
94908KDBQ DBQ20110403090513504/03/11 09:05:31  5-MIN KDBQ 031505Z 16019G27KT 10SM FEW036 BKN050 OVC065 12/01 A2946 1510 48 1500 160/19G27 RMK AO2 PK WND 17027/1459
94908KDBQ DBQ20110403091013504/03/11 09:10:31  5-MIN KDBQ 031510Z 16022G28KT 10SM FEW036 BKN050 OVC060 12/01 A2946 1510 48 1500 160/22G28 RMK AO2 PK WND 16028/1509
94908KDBQ DBQ20110403091512804/03/11 09:15:31  5-MIN KDBQ 031515Z 16020G28KT 10SM FEW041 OVC050 12/01 A2946 1510 48 1500 160/20G28 RMK AO2 PK WND 16028/1509
94908KDBQ DBQ20110403092012104/03/11 09:20:31  5-MIN KDBQ 031520Z 16021G28KT 10SM OVC050 12/02 A2945 1510 50 1500 160/21G28 RMK AO2 PK WND 17028/1518
94908KDBQ DBQ20110403092512104/03/11 09:25:31  5-MIN KDBQ 031525Z 16019G28KT 10SM OVC050 12/02 A2945 1520 50 1500 160/19G28 RMK AO2 PK WND 17028/1518
94908KDBQ DBQ20110403093012804/03/11 09:30:31  5-MIN KDBQ 031530Z 16019G26KT 10SM BKN050 OVC055 12/02 A2945 1520 50 1600 160/19G26 RMK AO2 PK WND 17028/1518
94908KDBQ DBQ20110403093512804/03/11 09:35:31  5-MIN KDBQ 031535Z 17019G27KT 10SM SCT042 OVC050 12/02 A2945 1520 50 1600 170/19G27 RMK AO2 PK WND 17028/1518
94908KDBQ DBQ20110403094012804/03/11 09:40:31  5-MIN KDBQ 031540Z 16019G27KT 10SM BKN042 OVC050 12/03 A2944 1520 52 1600 160/19G27 RMK AO2 PK WND 17028/1518
94908KDBQ DBQ20110403094512804/03/11 09:45:31  5-MIN KDBQ 031545Z 16020G26KT 10SM BKN040 OVC050 12/03 A2944 1520 52 1600 160/20G26 RMK AO2 PK WND 17028/1518
94908KDBQ DBQ20110403095014504/03/11 09:50:31  5-MIN KDBQ 031550Z 17017G25KT 10SM BKN038 OVC050 13/03 A2944 1530 50 1700 160/17G25 RMK AO2 PK WND 17028/1518 SLP971 T01280028
94908KDBQ DBQ20110403095510304/03/11 09:55:31  5-MIN KDBQ 031555Z 17017G24KT 10SM OVC038 13/03 A2943 1530 52 1700 170/17G24 RMK AO2
94908KDBQ DBQ20110403100010304/03/11 10:00:31  5-MIN KDBQ 031600Z 17015G23KT 10SM OVC036 13/03 A2943 1530 52 1700 160/15G23 RMK AO2
94908KDBQ DBQ20110403100510304/03/11 10:05:31  5-MIN KDBQ 031605Z 17017G23KT 10SM OVC036 13/04 A2943 1540 52 1700 160/17G23 RMK AO2
94908KDBQ DBQ20110403101010304/03/11 10:10:31  5-MIN KDBQ 031610Z 17016G23KT 10SM OVC034 13/04 A2943 1530 52 1700 160/16G23 RMK AO2
94908KDBQ DBQ20110403101509704/03/11 10:15:31  5-MIN KDBQ 031615Z 16016KT 10SM OVC034 13/04 A2943 1540 52 1700 160/16 RMK AO2
94908KDBQ DBQ20110403102010304/03/11 10:20:31  5-MIN KDBQ 031620Z 16016G23KT 10SM OVC034 14/04 A2942 1550 52 1800 160/16G23 RMK AO2
94908KDBQ DBQ20110403102510304/03/11 10:25:31  5-MIN KDBQ 031625Z 16016G23KT 10SM OVC036 14/04 A2941 1550 52 1800 160/16G23 RMK AO2
94908KDBQ DBQ20110403103009704/03/11 10:30:31  5-MIN KDBQ 031630Z 16015KT 10SM OVC036 14/04 A2941 1550 52 1800 160/15 RMK AO2
94908KDBQ DBQ20110403103509704/03/11 10:35:31  5-MIN KDBQ 031635Z 16017KT 10SM OVC036 14/05 A2941 1550 53 1900 160/17 RMK AO2
94908KDBQ DBQ20110403104009704/03/11 10:40:31  5-MIN KDBQ 031640Z 17015KT 10SM OVC036 14/05 A2941 1560 53 1900 170/15 RMK AO2
94908KDBQ DBQ20110403104509704/03/11 10:45:31  5-MIN KDBQ 031645Z 16014KT 10SM OVC036 14/05 A2941 1560 53 1900 160/14 RMK AO2
94908KDBQ DBQ20110403105012004/03/11 10:50:31  5-MIN KDBQ 031650Z 16017G22KT 10SM OVC036 14/06 A2940 1560 55 1900 160/17G22 RMK AO2 SLP957 T01440056
94908KDBQ DBQ20110403105510304/03/11 10:55:31  5-MIN KDBQ 031655Z 17014G22KT 10SM OVC036 15/06 A2940 1560 53 2000 170/14G22 RMK AO2
94908KDBQ DBQ20110403110009704/03/11 11:00:31  5-MIN KDBQ 031700Z 16014KT 10SM OVC036 15/06 A2939 1570 53 2000 160/14 RMK AO2
94908KDBQ DBQ20110403110510304/03/11 11:05:31  5-MIN KDBQ 031705Z 17014G21KT 10SM OVC036 16/06 A2939 1570 53 2000 160/14G21 RMK AO2
94908KDBQ DBQ20110403111010304/03/11 11:10:31  5-MIN KDBQ 031710Z 17014G21KT 10SM OVC036 16/06 A2939 1580 53 2000 170/14G21 RMK AO2
94908KDBQ DBQ20110403111510304/03/11 11:15:31  5-MIN KDBQ 031715Z 17012G19KT 10SM OVC034 16/06 A2939 1580 53 2000 170/12G19 RMK AO2
94908KDBQ DBQ20110403112010304/03/11 11:20:31  5-MIN KDBQ 031720Z 17014G19KT 10SM OVC034 16/06 A2938 1580 53 2100 170/14G19 RMK AO2
94908KDBQ DBQ20110403112509704/03/11 11:25:31  5-MIN KDBQ 031725Z 17015KT 10SM OVC034 16/07 A2938 1590 53 2100 170/15 RMK AO2
94908KDBQ DBQ20110403113010404/03/11 11:30:31  5-MIN KDBQ 031730Z 17013KT 10SM BKN034 OVC044 16/07 A2937 1590 53 2100 170/13 RMK AO2
94908KDBQ DBQ20110403113510404/03/11 11:35:31  5-MIN KDBQ 031735Z 17013KT 10SM BKN034 OVC044 16/07 A2937 1590 53 2100 170/13 RMK AO2
94908KDBQ DBQ20110403114009704/03/11 11:40:31  5-MIN KDBQ 031740Z 17012KT 10SM OVC036 17/07 A2937 1590 53 2200 170/12 RMK AO2
94908KDBQ DBQ20110403114509704/03/11 11:45:31  5-MIN KDBQ 031745Z 17011KT 10SM OVC036 16/07 A2937 1590 55 2100 170/11 RMK AO2
94908KDBQ DBQ20110403115013204/03/11 11:50:31  5-MIN KDBQ 031750Z 17011KT 10SM OVC036 17/07 A2936 1600 53 2200 160/11 RMK AO2 SLP943 T01670072 10167 20089 56053
94908KDBQ DBQ20110403120009704/03/11 12:00:31  5-MIN KDBQ 031800Z 16011KT 10SM OVC036 17/08 A2935 1610 53 2300 160/11 RMK AO2
94908KDBQ DBQ20110403120509704/03/11 12:05:31  5-MIN KDBQ 031805Z 18011KT 10SM OVC036 18/08 A2935 1610 53 2400 180/11 RMK AO2
94908KDBQ DBQ20110403121010304/03/11 12:10:31  5-MIN KDBQ 031810Z 18016G23KT 10SM OVC036 18/09 A2934 1620 54 2400 180/16G23 RMK AO2
94908KDBQ DBQ20110403121510304/03/11 12:15:31  5-MIN KDBQ 031815Z 18016G23KT 10SM OVC036 18/09 A2933 1630 56 2400 180/16G23 RMK AO2
94908KDBQ DBQ20110403122009704/03/11 12:20:31  5-MIN KDBQ 031820Z 18014KT 10SM OVC036 19/09 A2933 1630 54 2500 180/14 RMK AO2
94908KDBQ DBQ20110403122510304/03/11 12:25:31  5-MIN KDBQ 031825Z 19016G23KT 10SM OVC036 19/09 A2933 1630 54 2500 190/16G23 RMK AO2
94908KDBQ DBQ20110403123010304/03/11 12:30:31  5-MIN KDBQ 031830Z 19015G23KT 10SM OVC036 19/09 A2933 1630 54 2500 190/15G23 RMK AO2
94908KDBQ DBQ20110403123510404/03/11 12:35:31  5-MIN KDBQ 031835Z 19019KT 10SM BKN036 OVC050 19/09 A2932 1630 54 2500 190/19 RMK AO2
94908KDBQ DBQ20110403124011004/03/11 12:40:31  5-MIN KDBQ 031840Z 20015G24KT 10SM BKN038 OVC050 19/09 A2932 1630 52 2600 200/15G24 RMK AO2
94908KDBQ DBQ20110403124511004/03/11 12:45:31  5-MIN KDBQ 031845Z 19015G24KT 10SM BKN040 OVC050 19/10 A2932 1640 54 2600 190/15G24 RMK AO2
94908KDBQ DBQ20110403125012704/03/11 12:50:31  5-MIN KDBQ 031850Z 20019G22KT 10SM BKN040 OVC050 19/10 A2932 1640 54 2600 200/19G22 RMK AO2 SLP928 T01940100
94908KDBQ DBQ20110403125510404/03/11 12:55:31  5-MIN KDBQ 031855Z 19017KT 10SM BKN040 OVC050 19/10 A2932 1640 54 2600 190/17 RMK AO2
94908KDBQ DBQ20110403130010304/03/11 13:00:31  5-MIN KDBQ 031900Z 20015G24KT 10SM OVC045 20/11 A2932 1640 54 2600 200/15G24 RMK AO2
94908KDBQ DBQ20110403130510304/03/11 13:05:31  5-MIN KDBQ 031905Z 19016G23KT 10SM OVC045 20/11 A2932 1640 54 2600 190/16G23 RMK AO2
94908KDBQ DBQ20110403131010304/03/11 13:10:31  5-MIN KDBQ 031910Z 21017G23KT 10SM OVC045 20/11 A2932 1640 54 2600 210/17G23 RMK AO2
94908KDBQ DBQ20110403131510304/03/11 13:15:31  5-MIN KDBQ 031915Z 20017G20KT 10SM OVC047 20/11 A2932 1640 54 2600 200/17G20 RMK AO2
94908KDBQ DBQ20110403132011004/03/11 13:20:31  5-MIN KDBQ 031920Z 20013G20KT 10SM BKN047 OVC055 20/11 A2932 1640 54 2600 200/13G20 RMK AO2
94908KDBQ DBQ20110403132509704/03/11 13:25:31  5-MIN KDBQ 031925Z 20014KT 10SM OVC049 20/11 A2932 1640 54 2600 200/14 RMK AO2
94908KDBQ DBQ20110403133009704/03/11 13:30:31  5-MIN KDBQ 031930Z 19013KT 10SM OVC049 20/11 A2931 1650 54 2600 190/13 RMK AO2
94908KDBQ DBQ20110403133510304/03/11 13:35:31  5-MIN KDBQ 031935Z 19012G19KT 10SM OVC049 20/11 A2931 1650 54 2700 180/12G19 RMK AO2
94908KDBQ DBQ20110403134009704/03/11 13:40:31  5-MIN KDBQ 031940Z 18011KT 10SM OVC049 20/11 A2931 1650 54 2700 180/11 RMK AO2
94908KDBQ DBQ20110403134509704/03/11 13:45:31  5-MIN KDBQ 031945Z 18013KT 10SM OVC049 20/11 A2930 1660 54 2700 180/13 RMK AO2
94908KDBQ DBQ20110403135011404/03/11 13:50:31  5-MIN KDBQ 031950Z 17012KT 10SM OVC049 20/11 A2930 1660 56 2700 170/12 RMK AO2 SLP920 T02000111
94908KDBQ DBQ20110403135509704/03/11 13:55:31  5-MIN KDBQ 031955Z 17011KT 10SM OVC047 20/11 A2929 1670 56 2700 170/11 RMK AO2
94908KDBQ DBQ20110403140009704/03/11 14:00:31  5-MIN KDBQ 032000Z 17013KT 10SM OVC047 20/11 A2929 1670 56 2700 160/13 RMK AO2
94908KDBQ DBQ20110403140510404/03/11 14:05:31  5-MIN KDBQ 032005Z 16012KT 10SM BKN047 OVC060 20/11 A2928 1680 56 2700 160/12 RMK AO2
94908KDBQ DBQ20110403141010404/03/11 14:10:31  5-MIN KDBQ 032010Z 16011KT 10SM SCT043 OVC055 21/11 A2928 1680 54 2700 160/11 RMK AO2
94908KDBQ DBQ20110403141510404/03/11 14:15:31  5-MIN KDBQ 032015Z 16012KT 10SM BKN048 OVC060 21/11 A2928 1680 54 2700 160/12 RMK AO2
94908KDBQ DBQ20110403142010404/03/11 14:20:31  5-MIN KDBQ 032020Z 17012KT 10SM SCT048 OVC055 21/11 A2928 1680 54 2700 170/12 RMK AO2
94908KDBQ DBQ20110403142509704/03/11 14:25:31  5-MIN KDBQ 032025Z 16013KT 10SM BKN055 21/12 A2927 1690 54 2800 160/13 RMK AO2
94908KDBQ DBQ20110403143010404/03/11 14:30:31  5-MIN KDBQ 032030Z 17011KT 10SM FEW041 OVC055 21/12 A2928 1680 54 2800 170/11 RMK AO2
94908KDBQ DBQ20110403143510404/03/11 14:35:31  5-MIN KDBQ 032035Z 17012KT 10SM FEW041 OVC055 21/12 A2927 1680 54 2800 170/12 RMK AO2
94908KDBQ DBQ20110403144010404/03/11 14:40:31  5-MIN KDBQ 032040Z 17012KT 10SM SCT041 BKN055 22/12 A2927 1690 52 2900 170/12 RMK AO2
94908KDBQ DBQ20110403144510404/03/11 14:45:31  5-MIN KDBQ 032045Z 18011KT 10SM BKN041 OVC055 22/12 A2927 1690 54 2900 180/11 RMK AO2
94908KDBQ DBQ20110403145012704/03/11 14:50:31  5-MIN KDBQ 032050Z 18010KT 10SM BKN043 OVC055 22/13 A2926 1690 54 3000 180/10 RMK AO2 SLP907 T02220128 58037
94908KDBQ DBQ20110403145511604/03/11 14:55:31  5-MIN KDBQ 032055Z 19013G21KT 9SM BKN041 BKN048 OVC055 22/13 A2926 1700 54 3000 190/13G21 RMK AO2
94908KDBQ DBQ20110403150011604/03/11 15:00:31  5-MIN KDBQ 032100Z 20018G23KT 9SM BKN041 BKN060 23/13 A2925 1710 55 3000 200/18G23 RMK AO2 PRESFR
94908KDBQ DBQ20110403150510904/03/11 15:05:31  5-MIN KDBQ 032105Z 20016G23KT 9SM BKN041 BKN055 23/13 A2925 1710 55 3000 200/16G23 RMK AO2
94908KDBQ DBQ20110403151010304/03/11 15:10:31  5-MIN KDBQ 032110Z 20017KT 9SM BKN041 BKN055 23/13 A2925 1710 55 3000 200/17 RMK AO2
94908KDBQ DBQ20110403151510304/03/11 15:15:31  5-MIN KDBQ 032115Z 20015KT 9SM SCT043 BKN055 23/13 A2925 1710 55 3000 200/15 RMK AO2
94908KDBQ DBQ20110403152010304/03/11 15:20:31  5-MIN KDBQ 032120Z 20015KT 9SM SCT043 BKN055 23/13 A2924 1710 55 3000 200/15 RMK AO2
94908KDBQ DBQ20110403152510304/03/11 15:25:31  5-MIN KDBQ 032125Z 20012KT 9SM FEW043 BKN055 23/13 A2924 1710 55 3000 200/12 RMK AO2
94908KDBQ DBQ20110403153010304/03/11 15:30:31  5-MIN KDBQ 032130Z 19012KT 9SM FEW043 BKN055 23/13 A2924 1710 55 3000 190/12 RMK AO2
94908KDBQ DBQ20110403153510304/03/11 15:35:31  5-MIN KDBQ 032135Z 19013KT 9SM FEW045 BKN055 23/13 A2924 1710 55 3000 190/13 RMK AO2
94908KDBQ DBQ20110403154010304/03/11 15:40:31  5-MIN KDBQ 032140Z 21012KT 9SM FEW045 BKN055 23/13 A2924 1720 55 3000 200/12 RMK AO2
94908KDBQ DBQ20110403154510304/03/11 15:45:31  5-MIN KDBQ 032145Z 20011KT 9SM FEW045 BKN055 23/13 A2923 1720 53 3100 190/11 RMK AO2
94908KDBQ DBQ20110403155012004/03/11 15:50:31  5-MIN KDBQ 032150Z 20012KT 9SM FEW045 SCT055 23/13 A2923 1720 53 3100 190/12 RMK AO2 SLP897 T02330133
94908KDBQ DBQ20110403155510304/03/11 15:55:31  5-MIN KDBQ 032155Z 20012KT 9SM FEW045 BKN060 23/13 A2923 1720 55 3100 200/12 RMK AO2
94908KDBQ DBQ20110403160010304/03/11 16:00:31  5-MIN KDBQ 032200Z 20010KT 9SM FEW045 BKN060 23/13 A2923 1720 55 3100 200/10 RMK AO2
94908KDBQ DBQ20110403160510304/03/11 16:05:31  5-MIN KDBQ 032205Z 20009KT 9SM FEW045 BKN060 23/14 A2923 1720 55 3100 200/09 RMK AO2
94908KDBQ DBQ20110403161009604/03/11 16:10:31  5-MIN KDBQ 032210Z 21012KT 9SM BKN060 24/14 A2923 1720 53 3200 210/12 RMK AO2
94908KDBQ DBQ20110403161509604/03/11 16:15:31  5-MIN KDBQ 032215Z 20009KT 9SM BKN055 23/14 A2923 1720 55 3100 190/09 RMK AO2
94908KDBQ DBQ20110403162009604/03/11 16:20:31  5-MIN KDBQ 032220Z 20008KT 9SM BKN055 23/14 A2923 1720 55 3100 200/08 RMK AO2
94908KDBQ DBQ20110403162509604/03/11 16:25:31  5-MIN KDBQ 032225Z 19007KT 9SM BKN055 23/14 A2923 1730 55 3100 190/07 RMK AO2
94908KDBQ DBQ20110403163009604/03/11 16:30:31  5-MIN KDBQ 032230Z 19007KT 8SM BKN055 23/14 A2923 1730 55 3100 190/07 RMK AO2
94908KDBQ DBQ20110403163509604/03/11 16:35:31  5-MIN KDBQ 032235Z 20007KT 9SM BKN055 23/14 A2922 1730 55 3100 200/07 RMK AO2
94908KDBQ DBQ20110403164010304/03/11 16:40:31  5-MIN KDBQ 032240Z 21011KT 8SM FEW045 BKN060 24/14 A2923 1730 55 3200 210/11 RMK AO2
94908KDBQ DBQ20110403164510304/03/11 16:45:31  5-MIN KDBQ 032245Z 21011KT 8SM FEW045 BKN060 24/14 A2922 1730 55 3200 210/11 RMK AO2
94908KDBQ DBQ20110403165012004/03/11 16:50:31  5-MIN KDBQ 032250Z 21012KT 8SM FEW048 BKN060 23/14 A2922 1730 57 3100 200/12 RMK AO2 SLP893 T02330144
94908KDBQ DBQ20110403165510304/03/11 16:55:31  5-MIN KDBQ 032255Z 20011KT 8SM FEW047 BKN065 23/14 A2922 1730 57 3100 200/11 RMK AO2
94908KDBQ DBQ20110403170010304/03/11 17:00:31  5-MIN KDBQ 032300Z 20010KT 8SM FEW047 BKN065 23/14 A2922 1730 59 3100 200/10 RMK AO2
94908KDBQ DBQ20110403170510304/03/11 17:05:31  5-MIN KDBQ 032305Z 20010KT 8SM FEW047 BKN065 23/15 A2922 1730 59 3100 200/10 RMK AO2
94908KDBQ DBQ20110403171009604/03/11 17:10:31  5-MIN KDBQ 032310Z 20010KT 8SM BKN065 23/15 A2922 1730 59 3100 200/10 RMK AO2
94908KDBQ DBQ20110403171509604/03/11 17:15:31  5-MIN KDBQ 032315Z 21009KT 8SM BKN065 23/15 A2922 1730 61 3100 200/09 RMK AO2
94908KDBQ DBQ20110403172009604/03/11 17:20:31  5-MIN KDBQ 032320Z 21009KT 8SM BKN065 23/15 A2922 1740 61 3100 200/09 RMK AO2
94908KDBQ DBQ20110403172509604/03/11 17:25:31  5-MIN KDBQ 032325Z 21008KT 8SM BKN065 23/15 A2921 1740 61 3100 200/08 RMK AO2
94908KDBQ DBQ20110403173009604/03/11 17:30:31  5-MIN KDBQ 032330Z 20007KT 7SM SCT065 22/15 A2921 1740 63 3000 200/07 RMK AO2
94908KDBQ DBQ20110403173510304/03/11 17:35:31  5-MIN KDBQ 032335Z 20007KT 7SM FEW060 SCT075 22/15 A2921 1750 63 3000 200/07 RMK AO2
94908KDBQ DBQ20110403174009604/03/11 17:40:31  5-MIN KDBQ 032340Z 21005KT 7SM SCT070 22/15 A2920 1750 63 3000 210/05 RMK AO2
94908KDBQ DBQ20110403174510304/03/11 17:45:31  5-MIN KDBQ 032345Z 22005KT 7SM FEW060 BKN070 22/15 A2921 1750 65 3000 210/05 RMK AO2
94908KDBQ DBQ20110403175013804/03/11 17:50:31  5-MIN KDBQ 032350Z 22003KT 7SM SCT055 SCT070 22/15 A2920 1750 65 3000 210/03 RMK AO2 SLP886 T02170150 10239 20167 56032
94908KDBQ DBQ20110403175510304/03/11 17:55:31  5-MIN KDBQ 032355Z 19003KT 7SM SCT055 BKN075 22/15 A2920 1760 65 3000 190/03 RMK AO2
94908KDBQ DBQ20110403180010304/03/11 18:00:31  5-MIN KDBQ 040000Z 18004KT 7SM SCT055 BKN075 22/15 A2920 1750 65 3000 180/04 RMK AO2
94908KDBQ DBQ20110403180510304/03/11 18:05:31  5-MIN KDBQ 040005Z 17003KT 7SM SCT055 BKN070 22/14 A2920 1750 63 3000 160/03 RMK AO2
94908KDBQ DBQ20110403181011404/03/11 18:10:31  5-MIN KDBQ 040010Z 14003KT 7SM BKN055 21/14 A2920 1750 65 2900 140/03 RMK AO2 LTG DSNT SW AND W
94908KDBQ DBQ20110403181512104/03/11 18:15:31  5-MIN KDBQ 040015Z 12005KT 7SM BKN055 BKN080 21/14 A2919 1760 65 2900 120/05 RMK AO2 LTG DSNT SW AND W
94908KDBQ DBQ20110403182012104/03/11 18:20:31  5-MIN KDBQ 040020Z 14004KT 7SM SCT060 BKN075 21/14 A2919 1770 65 2900 140/04 RMK AO2 LTG DSNT SW AND W
94908KDBQ DBQ20110403182512104/03/11 18:25:31  5-MIN KDBQ 040025Z 00000KT 7SM SCT050 BKN070 21/14 A2919 1760 67 2900 000/00 RMK AO2 LTG DSNT SW AND W
94908KDBQ DBQ20110403183012104/03/11 18:30:31  5-MIN KDBQ 040030Z 00000KT 8SM BKN055 BKN075 19/14 A2919 1760 70 2700 000/00 RMK AO2 LTG DSNT SW AND W
94908KDBQ DBQ20110403183514104/03/11 18:35:31  5-MIN KDBQ 040035Z 13004KT 7SM -RA BKN049 BKN065 OVC095 20/14 A2920 1750 70 2800 130/04 RMK AO2 LTG DSNT SW-NW RAB34 P0000
94908KDBQ DBQ20110403184014004/03/11 18:40:31  5-MIN KDBQ 040040Z 11004KT 6SM -RA BKN049 BKN065 OVC095 20/15 A2918 1770 72 2800 110/04 RMK AO2 LTG DSNT S-NW RAB34 P0000
94908KDBQ DBQ20110403184514904/03/11 18:45:31  5-MIN KDBQ 040045Z 11004KT 5SM VCTS RA FEW036 BKN049 OVC070 19/16 A2919 1760 81 2700 110/04 RMK AO2 LTG DSNT S-NW TSB42RAB34 P0001
94908KDBQ DBQ20110403185016004/03/11 18:50:31  5-MIN KDBQ 040050Z 12003KT 5SM VCTS RA FEW036 OVC049 19/16 A2919 1760 81 2700 120/03 RMK AO2 LTG DSNT ALQDS TSB42RAB34 SLP881 P0003 T01890156
94908KDBQ DBQ20110403185513204/03/11 18:55:31  5-MIN KDBQ 040055Z 00000KT 5SM VCTS RA FEW038 OVC047 19/16 A2918 1770 81 2700 000/00 RMK AO2 LTG DSNT ALQDS P0001
94908KDBQ DBQ20110403190013604/03/11 19:00:31  5-MIN KDBQ 040100Z 00000KT 5SM -RA FEW038 OVC047 18/16 A2919 1760 84 2600 000/00 RMK AO2 LTG DSNT ALQDS TSE0057 P0002
94908KDBQ DBQ20110403190514404/03/11 19:05:31  5-MIN KDBQ 040105Z 01004KT 6SM VCTS -RA FEW034 OVC047 19/16 A2917 1780 81 2700 010/04 RMK AO2 LTG DSNT ALQDS TSE0057B02 P0002
94908KDBQ DBQ20110403191014404/03/11 19:10:31  5-MIN KDBQ 040110Z 05005KT 7SM VCTS -RA FEW032 OVC045 18/16 A2917 1780 90 2600 050/05 RMK AO2 LTG DSNT ALQDS TSE0057B02 P0002
94908KDBQ DBQ20110403191514404/03/11 19:15:31  5-MIN KDBQ 040115Z 05004KT 7SM -TSRA OVC045 18/16 A2918 1770 87 2600 050/04 RMK AO2 LTG DSNT NE AND S AND SW TSE0057B02 P0002
94908KDBQ DBQ20110403192015304/03/11 19:20:31  5-MIN KDBQ 040120Z 33006KT 5SM TSRA BR OVC043 18/17 A2922 1730 93 2500 330/06 RMK AO2 LTG DSNT NE AND S AND SW TSE0057B02 PRESRR P0003
94908KDBQ DBQ20110403192514204/03/11 19:25:31  5-MIN KDBQ 040125Z 36008G15KT 4SM +TSRA BR BKN043 18/16 A2920 1750 90 2500 360/08G15 RMK AO2 LTG DSNT NE-S TSE0057B02 P0007
94908KDBQ DBQ20110403193015104/03/11 19:30:31  5-MIN KDBQ 040130Z 04009KT 4SM VCTS -RA BR BKN043 OVC050 18/16 A2919 1760 87 2600 040/09 RMK AO2 LTG DSNT NE AND SE TSE0057B02 P0009
94908KDBQ DBQ20110403193515204/03/11 19:35:31  5-MIN KDBQ 040135Z 05005KT 5SM VCTS RA BR FEW036 BKN043 OVC050 18/16 A2919 1760 90 2500 050/05 RMK AO2 LTG DSNT NE-S TSE0057B02 P0009
94908KDBQ DBQ20110403194014404/03/11 19:40:31  5-MIN KDBQ 040140Z 07005KT 4SM -RA BR BKN041 OVC050 17/16 A2919 1760 93 2500 060/05 RMK AO2 LTG DSNT NE-S TSE0057B02E38 P0011
94908KDBQ DBQ20110403194514404/03/11 19:45:31  5-MIN KDBQ 040145Z 07006KT 5SM -RA BR BKN038 BKN047 17/16 A2919 1760 93 2500 070/06 RMK AO2 LTG DSNT NE-S TSE0057B02E38 P0011
94908KDBQ DBQ20110403195015904/03/11 19:50:31  5-MIN KDBQ 040150Z 05004KT 5SM BR SCT039 17/16 A2919 1760 93 2400 050/04 RMK AO2 LTG DSNT NE AND E TSE0057B02E38RAE47 SLP884 P0011 T01670156
94908KDBQ DBQ20110403200509204/03/11 20:05:31  5-MIN KDBQ 040205Z AUTO M M M M /M RMK AO2 LTG DSNT NE FZRANO RVRNO PNO $
94908KDBQ DBQ20110403201010404/03/11 20:10:31  5-MIN KDBQ 040210Z AUTO 03005KT 16/14 A2919 1760 93 2300 030/05 RMK AO2 P0011 RVRNO $
94908KDBQ DBQ20110403201510504/03/11 20:15:31  5-MIN KDBQ 040215Z AUTO 05007KT 3SM BR 16/15 A2918 1770 96 2300 050/07 RMK AO2 P0011 $
94908KDBQ DBQ20110403202010504/03/11 20:20:31  5-MIN KDBQ 040220Z AUTO 08007KT 3SM BR 16/15 A2916 1790 96 2300 080/07 RMK AO2 P0011 $
94908KDBQ DBQ20110403202511604/03/11 20:25:31  5-MIN KDBQ 040225Z AUTO VRB06KT 4SM BR 16/14 A2919 1760 93 2300 VRB/06 RMK AO2 LTG DSNT S P0011 $
94908KDBQ DBQ20110403203013304/03/11 20:30:31  5-MIN KDBQ 040230Z AUTO VRB05KT 5SM -TSRA BR 16/14 A2918 1770 93 2300 VRB/05 RMK AO2 LTG DSNT S TSB30RAB26 P0012 $
94908KDBQ DBQ20110403203515404/03/11 20:35:31  5-MIN KDBQ 040235Z AUTO 07005KT 6SM -TSRA BR FEW047 SCT060 BKN100 16/14 A2918 1770 90 2300 070/05 RMK AO2 LTG DSNT S TSB30RAB26 P0013 $
94908KDBQ DBQ20110403204014704/03/11 20:40:31  5-MIN KDBQ 040240Z AUTO 00000KT 6SM TS BR FEW047 SCT100 15/13 A2920 1750 90 2200 000/00 RMK AO2 LTG DSNT S TSB30RAB26E36 P0013 $
94908KDBQ DBQ20110403204514804/03/11 20:45:31  5-MIN KDBQ 040245Z AUTO 00000KT 6SM TS BR FEW047 SCT100 15/14 A2919 1760 93 2200 000/00 RMK AO2 LTG DSNT NE TSB30RAB26E36 P0013 $
94908KDBQ DBQ20110403205017704/03/11 20:50:31  5-MIN KDBQ 040250Z AUTO 00000KT 5SM TS BR FEW040 SCT055 14/13 A2918 1770 93 2200 000/00 RMK AO2 LTG DSNT NE AND E TSB30RAB26E36 SLP883 P0013 6//// T01440133 $
94908KDBQ DBQ20110403205512904/03/11 20:55:31  5-MIN KDBQ 040255Z AUTO 13004KT 6SM VCTS BR FEW040 15/13 A2918 1770 90 2200 130/04 RMK AO2 LTG DSNT NE AND E $
94908KDBQ DBQ20110403210012904/03/11 21:00:31  5-MIN KDBQ 040300Z AUTO 00000KT 6SM VCTS BR FEW040 14/13 A2918 1770 90 2200 000/00 RMK AO2 LTG DSNT NE AND E $
94908KDBQ DBQ20110403210512404/03/11 21:05:31  5-MIN KDBQ 040305Z AUTO 17004KT 7SM CLR 15/13 A2918 1770 90 2200 170/04 RMK AO2 LTG DSNT NE AND E TSE04 $
94908KDBQ DBQ20110403211012404/03/11 21:10:31  5-MIN KDBQ 040310Z AUTO 19003KT 7SM CLR 16/13 A2917 1780 86 2300 180/03 RMK AO2 LTG DSNT NE AND E TSE04 $
94908KDBQ DBQ20110403211512404/03/11 21:15:31  5-MIN KDBQ 040315Z AUTO 00000KT 7SM CLR 15/13 A2917 1780 90 2200 000/00 RMK AO2 LTG DSNT NE AND E TSE04 $
94908KDBQ DBQ20110403212011704/03/11 21:20:31  5-MIN KDBQ 040320Z AUTO 00000KT 7SM CLR 14/13 A2917 1780 93 2200 000/00 RMK AO2 LTG DSNT E TSE04 $
94908KDBQ DBQ20110403212510604/03/11 21:25:31  5-MIN KDBQ 040325Z AUTO 00000KT 7SM CLR 14/13 A2916 1790 93 2200 000/00 RMK AO2 TSE04 $
94908KDBQ DBQ20110403213012504/03/11 21:30:31  5-MIN KDBQ 040330Z AUTO 26009KT 230V300 6SM BR CLR 14/13 A2917 1780 90 2200 260/09 230V300 RMK AO2 TSE04 $
94908KDBQ DBQ20110403213511504/03/11 21:35:31  5-MIN KDBQ 040335Z AUTO 34010G19KT 5SM BR CLR 13/12 A2917 1780 93 2000 340/10G19 RMK AO2 TSE04 $
94908KDBQ DBQ20110403214011504/03/11 21:40:31  5-MIN KDBQ 040340Z AUTO 36010G19KT 4SM BR CLR 12/12 A2916 1780 96 1900 350/10G19 RMK AO2 TSE04 $
94908KDBQ DBQ20110403214511204/03/11 21:45:31  5-MIN KDBQ 040345Z AUTO 36010KT 4SM BR FEW011 12/12 A2917 1780 96 1900 360/10 RMK AO2 TSE04 $
94908KDBQ DBQ20110403215012904/03/11 21:50:31  5-MIN KDBQ 040350Z AUTO 01011KT 4SM BR FEW011 12/11 A2917 1780 93 1900 010/11 RMK AO2 TSE04 SLP878 T01220111 $
94908KDBQ DBQ20110403215510604/03/11 21:55:31  5-MIN KDBQ 040355Z AUTO 36012KT 5SM BR FEW009 12/11 A2919 1760 93 1900 360/12 RMK AO2 $
94908KDBQ DBQ20110403220011304/03/11 22:00:31  5-MIN KDBQ 040400Z AUTO 36012KT 5SM BR SCT009 12/11 A2920 1750 93 1800 360/12 RMK AO2 PRESRR $
94908KDBQ DBQ20110403220511304/03/11 22:05:31  5-MIN KDBQ 040405Z AUTO 36011KT 6SM BR BKN009 12/10 A2921 1740 89 1800 360/11 RMK AO2 PRESRR $
94908KDBQ DBQ20110403221011304/03/11 22:10:31  5-MIN KDBQ 040410Z AUTO 35012KT 6SM BR BKN009 12/10 A2922 1730 89 1800 350/12 RMK AO2 PRESRR $
94908KDBQ DBQ20110403221512704/03/11 22:15:31  5-MIN KDBQ 040415Z AUTO 35014KT 7SM BKN009 11/09 A2922 1730 86 1700 350/14 RMK AO2 LTG DSNT SW CIG 008V011 $
94908KDBQ DBQ20110403222013904/03/11 22:20:31  5-MIN KDBQ 040420Z AUTO 34014G21KT 8SM OVC009 11/09 A2923 1720 86 1700 340/14G21 RMK AO2 LTG DSNT S AND SW CIG 008V012 $
94908KDBQ DBQ20110403222515304/03/11 22:25:31  5-MIN KDBQ 040425Z AUTO 33016G22KT 8SM BKN011 OVC014 11/08 A2925 1710 83 1600 330/16G22 RMK AO2 LTG DSNT S AND SW CIG 008V013 PRESRR $
94908KDBQ DBQ20110403223015604/03/11 22:30:31  5-MIN KDBQ 040430Z AUTO 32019G27KT 9SM BKN011 OVC014 10/07 A2928 1680 80 1500 320/19G27 RMK AO2 PK WND 32027/0430 LTG DSNT SE-SW PRESRR $
94908KDBQ DBQ20110403223516704/03/11 22:35:31  5-MIN KDBQ 040435Z AUTO 32019G28KT 9SM VCTS BKN012 OVC018 10/06 A2929 1670 77 1500 320/19G28 RMK AO2 PK WND 31028/0432 LTG DSNT SE-SW TSB31 PRESRR $
94908KDBQ DBQ20110403224018904/03/11 22:40:31  5-MIN KDBQ 040440Z AUTO 32017G28KT 8SM VCTS -RA SCT012 BKN018 OVC060 09/06 A2931 1650 79 1400 320/17G28 RMK AO2 PK WND 31028/0432 LTG DSNT SE-SW TSB31RAB39 PRESRR P0000 $
94908KDBQ DBQ20110403224518104/03/11 22:45:31  5-MIN KDBQ 040445Z AUTO 31018G27KT 7SM VCTS -RA SCT012 BKN018 OVC090 09/06 A2931 1650 83 1400 310/18G27 RMK AO2 PK WND 31028/0432 LTG DSNT E-SW TSB31RAB39 P0000 $
94908KDBQ DBQ20110403225019604/03/11 22:50:31  5-MIN KDBQ 040450Z AUTO 30018G27KT 6SM -RA SCT016 BKN050 OVC090 09/06 A2932 1640 79 1400 300/18G27 RMK AO2 PK WND 31028/0432 LTG DSNT E-SW TSB31E48RAB39 SLP929 P0000 T00940061 $
94908KDBQ DBQ20110403225514504/03/11 22:55:31  5-MIN KDBQ 040455Z AUTO 31013G20KT 5SM RA FEW018 BKN043 OVC090 09/06 A2931 1650 83 1300 310/13G20 RMK AO2 LTG DSNT E-S P0000 $
94908KDBQ DBQ20110403230014704/03/11 23:00:31  5-MIN KDBQ 040500Z AUTO 33013G20KT 5SM RA FEW018 BKN049 OVC090 09/06 A2929 1660 83 1400 330/13G20 RMK AO2 LTG DSNT NE-SE P0002 $
94908KDBQ DBQ20110403230514904/03/11 23:05:31  5-MIN KDBQ 040505Z AUTO 35009KT 7SM -RA BKN060 BKN075 OVC120 09/06 A2927 1690 83 1400 350/09 RMK AO2 LTG DSNT NE-SE PRESFR P0003 $
94908KDBQ DBQ20110403231014404/03/11 23:10:31  5-MIN KDBQ 040510Z AUTO 01009KT 9SM SCT055 BKN070 BKN090 09/06 A2927 1690 83 1400 010/09 RMK AO2 LTG DSNT NE-SE RAE09 P0003 $
94908KDBQ DBQ20110403231513704/03/11 23:15:31  5-MIN KDBQ 040515Z AUTO 02009KT 9SM SCT065 BKN120 09/06 A2926 1700 83 1400 010/09 RMK AO2 LTG DSNT NE-SE RAE09 P0003 $
94908KDBQ DBQ20110403232014004/03/11 23:20:31  5-MIN KDBQ 040520Z AUTO 36009KT 9SM SCT070 SCT120 09/06 A2927 1680 79 1400 360/09 RMK AO2 LTG DSNT NE AND E RAE09 P0003 $
94908KDBQ DBQ20110403232513404/03/11 23:25:31  5-MIN KDBQ 040525Z AUTO 36009KT 9SM FEW075 SCT120 09/06 A2927 1690 79 1400 360/09 RMK AO2 LTG DSNT NE RAE09 P0003 $
94908KDBQ DBQ20110403233012704/03/11 23:30:31  5-MIN KDBQ 040530Z AUTO 02007KT 9SM FEW110 08/06 A2926 1690 82 1300 020/07 RMK AO2 LTG DSNT NE RAE09 P0003 $
94908KDBQ DBQ20110403233512704/03/11 23:35:31  5-MIN KDBQ 040535Z AUTO 02006KT 9SM FEW110 08/06 A2927 1690 82 1300 020/06 RMK AO2 LTG DSNT NE RAE09 P0003 $
94908KDBQ DBQ20110403234011204/03/11 23:40:31  5-MIN KDBQ 040540Z AUTO 02009KT 9SM CLR 08/06 A2927 1690 82 1300 020/09 RMK AO2 RAE09 P0003 $
94908KDBQ DBQ20110403234511904/03/11 23:45:31  5-MIN KDBQ 040545Z AUTO 33009KT 9SM CLR 08/05 A2929 1670 79 1300 330/09 RMK AO2 RAE09 PRESRR P0003 $
94908KDBQ DBQ20110403235016704/03/11 23:50:31  5-MIN KDBQ 040550Z AUTO 32010KT 9SM FEW120 08/06 A2930 1660 82 1300 310/10 RMK AO2 RAE09 PRESRR SLP921 P0003 6//// T00830056 10233 20083 402390078 $
94908KDBQ DBQ20110403235510304/03/11 23:55:31  5-MIN KDBQ 040555Z AUTO 32013KT 8SM FEW120 08/06 A2929 1660 82 1300 320/13 RMK AO2 $
94908KDBQ DBQ20110404000010004/04/11 00:00:38  5-MIN KDBQ 040600Z AUTO 32013KT 8SM CLR 08/06 A2930 1660 82 1300 320/13 RMK AO2 $
94908KDBQ DBQ20110404000510904/04/11 00:05:31  5-MIN KDBQ 040605Z AUTO 32015G21KT 8SM FEW110 08/06 A2931 1650 82 1300 320/15G21 RMK AO2 $
94908KDBQ DBQ20110404001010904/04/11 00:10:31  5-MIN KDBQ 040610Z AUTO 33015G21KT 8SM SCT100 08/05 A2931 1640 79 1300 320/15G21 RMK AO2 $
94908KDBQ DBQ20110404001511004/04/11 00:15:33  5-MIN KDBQ 040615Z AUTO 32011KT 8SM SCT100 08/06 A2933 1630 82 1300 310/11 RMK AO2 PRESRR $
94908KDBQ DBQ20110404002010904/04/11 00:20:31  5-MIN KDBQ 040620Z AUTO 31010G17KT 8SM SCT100 08/06 A2933 1630 86 1200 310/10G17 RMK AO2 $
94908KDBQ DBQ20110404002510904/04/11 00:25:31  5-MIN KDBQ 040625Z AUTO 32010G20KT 8SM BKN100 08/06 A2931 1650 86 1200 320/10G20 RMK AO2 $
94908KDBQ DBQ20110404003013204/04/11 00:30:31  5-MIN KDBQ 040630Z AUTO 34010G20KT 7SM -RA FEW030 BKN100 08/06 A2930 1660 86 1200 340/10G20 RMK AO2 RAB30 P0000 $
94908KDBQ DBQ20110404003513204/04/11 00:35:31  5-MIN KDBQ 040635Z AUTO 33014G19KT 7SM -RA FEW030 BKN100 08/06 A2931 1640 86 1200 330/14G19 RMK AO2 RAB30 P0000 $
94908KDBQ DBQ20110404004012604/04/11 00:40:31  5-MIN KDBQ 040640Z AUTO 33013KT 8SM -RA FEW065 SCT100 08/06 A2931 1650 86 1200 330/13 RMK AO2 RAB30 P0000 $
94908KDBQ DBQ20110404004513104/04/11 00:45:31  5-MIN KDBQ 040645Z AUTO 33013G21KT 8SM SCT085 BKN110 08/05 A2931 1650 82 1200 330/13G21 RMK AO2 RAB30E41 P0000 $
94908KDBQ DBQ20110404005015504/04/11 00:50:31  5-MIN KDBQ 040650Z AUTO 33011G21KT 7SM FEW080 SCT100 BKN120 08/05 A2931 1640 82 1200 330/11G21 RMK AO2 RAB30E41 SLP926 P0000 T00780050 $
94908KDBQ DBQ20110404005510904/04/11 00:55:31  5-MIN KDBQ 040655Z AUTO 32015G19KT 7SM FEW075 08/05 A2932 1630 82 1200 320/15G19 RMK AO2 $
94908KDBQ DBQ20110404010010304/04/11 01:00:31  5-MIN KDBQ 040700Z AUTO 32013KT 8SM FEW080 08/05 A2933 1630 82 1200 320/13 RMK AO2 $
94908KDBQ DBQ20110404010511604/04/11 01:05:31  5-MIN KDBQ 040705Z AUTO 31013G21KT 8SM FEW095 08/04 A2934 1620 79 1200 310/13G21 RMK AO2 PRESRR $
94908KDBQ DBQ20110404011010904/04/11 01:10:31  5-MIN KDBQ 040710Z AUTO 30011G23KT 8SM FEW042 08/04 A2935 1610 79 1200 300/11G23 RMK AO2 $
94908KDBQ DBQ20110404011510904/04/11 01:15:31  5-MIN KDBQ 040715Z AUTO 31011G23KT 8SM SCT042 08/04 A2934 1620 79 1200 310/11G23 RMK AO2 $
94908KDBQ DBQ20110404012010904/04/11 01:20:31  5-MIN KDBQ 040720Z AUTO 31013G19KT 8SM BKN042 08/04 A2935 1610 79 1200 300/13G19 RMK AO2 $
94908KDBQ DBQ20110404012510304/04/11 01:25:31  5-MIN KDBQ 040725Z AUTO 31011KT 8SM BKN042 08/04 A2935 1610 79 1200 310/11 RMK AO2 $
94908KDBQ DBQ20110404013010904/04/11 01:30:31  5-MIN KDBQ 040730Z AUTO 31014G22KT 8SM BKN044 08/04 A2935 1610 79 1200 310/14G22 RMK AO2 $
94908KDBQ DBQ20110404013511604/04/11 01:35:31  5-MIN KDBQ 040735Z AUTO 32015G22KT 8SM FEW033 OVC044 08/04 A2934 1620 79 1200 320/15G22 RMK AO2 $
94908KDBQ DBQ20110404014011604/04/11 01:40:31  5-MIN KDBQ 040740Z AUTO 32013G22KT 8SM SCT033 OVC044 08/04 A2934 1620 79 1200 320/13G22 RMK AO2 $
94908KDBQ DBQ20110404014511604/04/11 01:45:31  5-MIN KDBQ 040745Z AUTO 32014G22KT 9SM BKN033 OVC044 08/04 A2934 1620 79 1200 320/14G22 RMK AO2 $
94908KDBQ DBQ20110404015013304/04/11 01:50:31  5-MIN KDBQ 040750Z AUTO 32016G20KT 9SM BKN033 OVC044 08/04 A2935 1610 79 1200 320/16G20 RMK AO2 SLP938 T00780044 $
94908KDBQ DBQ20110404015511604/04/11 01:55:31  5-MIN KDBQ 040755Z AUTO 32010G20KT 9SM BKN033 OVC044 08/04 A2936 1610 79 1200 320/10G20 RMK AO2 $
94908KDBQ DBQ20110404020010904/04/11 02:00:31  5-MIN KDBQ 040800Z AUTO 31009G20KT 9SM OVC035 08/04 A2936 1600 79 1200 310/09G20 RMK AO2 $
94908KDBQ DBQ20110404020510904/04/11 02:05:31  5-MIN KDBQ 040805Z AUTO 31010G18KT 9SM OVC035 08/04 A2936 1600 79 1200 310/10G18 RMK AO2 $
94908KDBQ DBQ20110404021010904/04/11 02:10:31  5-MIN KDBQ 040810Z AUTO 31010G17KT 8SM OVC035 08/04 A2936 1600 79 1200 310/10G17 RMK AO2 $
94908KDBQ DBQ20110404021511004/04/11 02:15:31  5-MIN KDBQ 040815Z AUTO 32011KT 9SM BKN037 OVC047 08/04 A2936 1600 79 1200 310/11 RMK AO2 $
94908KDBQ DBQ20110404022011604/04/11 02:20:31  5-MIN KDBQ 040820Z AUTO 33014G20KT 9SM BKN037 OVC047 08/04 A2936 1600 79 1200 330/14G20 RMK AO2 $
94908KDBQ DBQ20110404022513404/04/11 02:25:31  5-MIN KDBQ 040825Z AUTO 33012G27KT 9SM BKN037 OVC047 08/04 A2936 1600 79 1200 330/12G27 RMK AO2 PK WND 02027/0821 $
94908KDBQ DBQ20110404023013404/04/11 02:30:31  5-MIN KDBQ 040830Z AUTO 32014G27KT 9SM SCT037 OVC049 08/04 A2936 1600 79 1200 320/14G27 RMK AO2 PK WND 02027/0821 $
94908KDBQ DBQ20110404023512804/04/11 02:35:31  5-MIN KDBQ 040835Z AUTO 32011KT 9SM SCT037 OVC049 08/04 A2935 1610 76 1200 320/11 RMK AO2 PK WND 02027/0821 $
94908KDBQ DBQ20110404024013404/04/11 02:40:31  5-MIN KDBQ 040840Z AUTO 32013G20KT 9SM BKN039 OVC049 08/04 A2935 1610 79 1200 320/13G20 RMK AO2 PK WND 02027/0821 $
94908KDBQ DBQ20110404024513404/04/11 02:45:31  5-MIN KDBQ 040845Z AUTO 31010G20KT 9SM BKN039 OVC049 08/04 A2936 1600 76 1200 310/10G20 RMK AO2 PK WND 02027/0821 $
94908KDBQ DBQ20110404025016304/04/11 02:50:31  5-MIN KDBQ 040850Z AUTO 30010G20KT 9SM BKN039 OVC049 08/04 A2937 1590 79 1100 300/10G20 RMK AO2 PK WND 02027/0821 SLP945 60000 T00780044 50035 $
94908KDBQ DBQ20110404025510304/04/11 02:55:31  5-MIN KDBQ 040855Z AUTO 31010KT 9SM OVC039 08/04 A2937 1590 76 1100 310/10 RMK AO2 $
94908KDBQ DBQ20110404030011604/04/11 03:00:31  5-MIN KDBQ 040900Z AUTO 30013G18KT 9SM OVC041 08/04 A2939 1580 76 1100 300/13G18 RMK AO2 PRESRR $
94908KDBQ DBQ20110404030510304/04/11 03:05:31  5-MIN KDBQ 040905Z AUTO 31012KT 9SM OVC041 08/04 A2938 1580 76 1100 300/12 RMK AO2 $
94908KDBQ DBQ20110404031010304/04/11 03:10:31  5-MIN KDBQ 040910Z AUTO 30010KT 9SM OVC043 07/04 A2938 1580 79 1100 300/10 RMK AO2 $
94908KDBQ DBQ20110404031510304/04/11 03:15:31  5-MIN KDBQ 040915Z AUTO 30011KT 9SM OVC043 07/04 A2939 1570 82 1100 300/11 RMK AO2 $
94908KDBQ DBQ20110404032010304/04/11 03:20:31  5-MIN KDBQ 040920Z AUTO 30012KT 9SM OVC045 07/04 A2939 1570 79 1100 300/12 RMK AO2 $
94908KDBQ DBQ20110404032510304/04/11 03:25:31  5-MIN KDBQ 040925Z AUTO 31014KT 9SM OVC045 07/04 A2938 1580 79 1100 300/14 RMK AO2 $
94908KDBQ DBQ20110404033010904/04/11 03:30:31  5-MIN KDBQ 040930Z AUTO 31012G20KT 9SM OVC045 07/04 A2938 1580 82 1100 310/12G20 RMK AO2 $
94908KDBQ DBQ20110404033510904/04/11 03:35:31  5-MIN KDBQ 040935Z AUTO 31015G22KT 9SM OVC045 07/04 A2938 1580 79 1100 310/15G22 RMK AO2 $
94908KDBQ DBQ20110404034010904/04/11 03:40:31  5-MIN KDBQ 040940Z AUTO 31014G24KT 9SM OVC047 07/04 A2938 1590 79 1100 310/14G24 RMK AO2 $
94908KDBQ DBQ20110404034510904/04/11 03:45:31  5-MIN KDBQ 040945Z AUTO 31012G24KT 9SM BKN047 07/04 A2937 1590 79 1100 310/12G24 RMK AO2 $
94908KDBQ DBQ20110404035012604/04/11 03:50:31  5-MIN KDBQ 040950Z AUTO 30011G21KT 9SM BKN047 07/03 A2938 1580 79 1000 300/11G21 RMK AO2 SLP948 T00670033 $
94908KDBQ DBQ20110404035511604/04/11 03:55:31  5-MIN KDBQ 040955Z AUTO 30015G22KT 9SM FEW024 BKN047 07/04 A2938 1580 82 1000 300/15G22 RMK AO2 $
94908KDBQ DBQ20110404040011604/04/11 04:00:31  5-MIN KDBQ 041000Z AUTO 30013G22KT 9SM FEW024 SCT047 07/04 A2938 1580 82 1000 300/13G22 RMK AO2 $
94908KDBQ DBQ20110404040510904/04/11 04:05:31  5-MIN KDBQ 041005Z AUTO 31014G23KT 8SM FEW024 07/03 A2938 1580 79 1000 300/14G23 RMK AO2 $
94908KDBQ DBQ20110404041010904/04/11 04:10:31  5-MIN KDBQ 041010Z AUTO 31016G23KT 9SM FEW022 07/03 A2939 1570 79 1000 310/16G23 RMK AO2 $
94908KDBQ DBQ20110404041512304/04/11 04:15:31  5-MIN KDBQ 041015Z AUTO 29015G23KT 8SM FEW014 SCT019 SCT024 07/04 A2940 1570 82 1000 290/15G23 RMK AO2 $
94908KDBQ DBQ20110404042010904/04/11 04:20:31  5-MIN KDBQ 041020Z AUTO 29016KT 7SM FEW014 BKN021 06/04 A2940 1560 89 900 290/16 RMK AO2 $
94908KDBQ DBQ20110404042511904/04/11 04:25:31  5-MIN KDBQ 041025Z AUTO 29014KT 6SM BR FEW012 BKN021 06/04 A2941 1550 89 900 290/14 RMK AO2 PRESRR $
94908KDBQ DBQ20110404043011804/04/11 04:30:31  5-MIN KDBQ 041030Z AUTO 29019G25KT 6SM BR SCT012 BKN021 06/04 A2941 1560 89 900 290/19G25 RMK AO2 $
94908KDBQ DBQ20110404043511804/04/11 04:35:31  5-MIN KDBQ 041035Z AUTO 30015G25KT 6SM BR BKN012 OVC021 06/04 A2940 1560 89 900 290/15G25 RMK AO2 $
94908KDBQ DBQ20110404044011804/04/11 04:40:31  5-MIN KDBQ 041040Z AUTO 29016G24KT 6SM BR BKN012 OVC021 06/04 A2941 1550 86 900 290/16G24 RMK AO2 $
94908KDBQ DBQ20110404044511804/04/11 04:45:31  5-MIN KDBQ 041045Z AUTO 29018G24KT 6SM BR BKN012 OVC021 06/04 A2942 1550 86 900 290/18G24 RMK AO2 $
94908KDBQ DBQ20110404045012304/04/11 04:50:31  5-MIN KDBQ 041050Z 29017G23KT 6SM BR OVC012 06/04 A2943 1540 89 800 290/17G23 RMK AO2 SLP964 T00560039 $
94908KDBQ DBQ20110404045511004/04/11 04:55:31  5-MIN KDBQ 041055Z 29018G23KT 7SM OVC012 06/04 A2944 1530 89 800 290/18G23 RMK AO2 PRESRR $
94908KDBQ DBQ20110404050011004/04/11 05:00:31  5-MIN KDBQ 041100Z 30013G23KT 7SM OVC012 06/04 A2944 1520 89 800 300/13G23 RMK AO2 PRESRR $
94908KDBQ DBQ20110404050510304/04/11 05:05:31  5-MIN KDBQ 041105Z 30016G21KT 7SM OVC012 06/04 A2944 1530 89 800 300/16G21 RMK AO2 $
94908KDBQ DBQ20110404051008704/04/11 05:10:31  5-MIN KDBQ 041110Z 7SM OVC012 06/03 A2943 1530 85 800 M /M RMK AO2 $
94908KDBQ DBQ20110404051508704/04/11 05:15:31  5-MIN KDBQ 041115Z 7SM OVC010 05/03 A2943 1530 89 700 M /M RMK AO2 $
94908KDBQ DBQ20110404052009904/04/11 05:20:31  5-MIN KDBQ 041120Z 8SM OVC010 05/03 A2943 1530 89 700 M /M RMK AO2 CIG 009V014 $
94908KDBQ DBQ20110404052510904/04/11 05:25:31  5-MIN KDBQ 041125Z 30016KT 9SM OVC010 05/03 A2943 1530 89 700 300/16 RMK AO2 CIG 009V014 $
94908KDBQ DBQ20110404053010304/04/11 05:30:31  5-MIN KDBQ 041130Z 29017G24KT 9SM OVC010 05/03 A2943 1530 89 700 290/17G24 RMK AO2 $
94908KDBQ DBQ20110404053510304/04/11 05:35:31  5-MIN KDBQ 041135Z 29020G26KT 9SM OVC010 05/03 A2944 1520 85 700 290/20G26 RMK AO2 $
94908KDBQ DBQ20110404054010304/04/11 05:40:31  5-MIN KDBQ 041140Z 29015G26KT 8SM OVC010 04/03 A2944 1520 89 700 290/15G26 RMK AO2 $
94908KDBQ DBQ20110404054510304/04/11 05:45:31  5-MIN KDBQ 041145Z 30017G25KT 8SM OVC010 04/03 A2944 1520 89 700 300/17G25 RMK AO2 $
94908KDBQ DBQ20110404055016204/04/11 05:50:31  5-MIN KDBQ 041150Z 29016G25KT 9SM OVC010 04/03 A2945 1520 89 600 290/16G25 RMK AO2 CIG 009V013 SLP972 60000 7//// T00440028 10083 20044 51026 $
94908KDBQ DBQ20110404055510904/04/11 05:55:31  5-MIN KDBQ 041155Z 29014KT 9SM OVC010 04/03 A2945 1510 92 600 290/14 RMK AO2 CIG 009V014 $
94908KDBQ DBQ20110404060010404/04/11 06:00:31  5-MIN KDBQ 041200Z 30016KT 8SM BKN010 OVC013 04/03 A2944 1520 89 700 300/16 RMK AO2 $
94908KDBQ DBQ20110404060511504/04/11 06:05:31  5-MIN KDBQ 041205Z 30015G20KT 7SM OVC010 04/03 A2945 1520 92 600 300/15G20 RMK AO2 CIG 008V014 $
94908KDBQ DBQ20110404061011304/04/11 06:10:31  5-MIN KDBQ 041210Z 30013G20KT 7SM OVC010 04/03 A2945 1510 92 600 300/13G20 RMK AO2 CIG 008V011
94908KDBQ DBQ20110404061511304/04/11 06:15:31  5-MIN KDBQ 041215Z 30014G23KT 8SM OVC010 04/03 A2945 1520 89 600 300/14G23 RMK AO2 CIG 008V014
94908KDBQ DBQ20110404062011304/04/11 06:20:31  5-MIN KDBQ 041220Z 30012G23KT 8SM OVC010 05/03 A2945 1510 85 700 300/12G23 RMK AO2 CIG 008V014
94908KDBQ DBQ20110404062510704/04/11 06:25:31  5-MIN KDBQ 041225Z 29013KT 8SM OVC010 04/03 A2946 1510 89 600 290/13 RMK AO2 CIG 008V013
94908KDBQ DBQ20110404063010704/04/11 06:30:31  5-MIN KDBQ 041230Z 28013KT 8SM OVC010 04/03 A2946 1510 89 600 280/13 RMK AO2 CIG 008V012
94908KDBQ DBQ20110404063509504/04/11 06:35:31  5-MIN KDBQ 041235Z 30011KT 8SM OVC010 04/03 A2946 1510 89 600 290/11 RMK AO2
94908KDBQ DBQ20110404064011304/04/11 06:40:31  5-MIN KDBQ 041240Z 30010G18KT 9SM OVC010 05/03 A2945 1510 85 700 300/10G18 RMK AO2 CIG 009V014
94908KDBQ DBQ20110404064511304/04/11 06:45:31  5-MIN KDBQ 041245Z 28011G18KT 9SM OVC010 04/03 A2946 1510 89 600 280/11G18 RMK AO2 CIG 008V014
94908KDBQ DBQ20110404065012404/04/11 06:50:31  5-MIN KDBQ 041250Z 29013KT 9SM OVC010 04/03 A2946 1500 89 600 280/13 RMK AO2 CIG 008V014 SLP978 T00440028
94908KDBQ DBQ20110404065510704/04/11 06:55:31  5-MIN KDBQ 041255Z 29012KT 9SM OVC010 04/03 A2946 1500 89 600 290/12 RMK AO2 CIG 008V011
94908KDBQ DBQ20110404070010804/04/11 07:00:31  5-MIN KDBQ 041300Z 29015KT 10SM OVC010 04/03 A2946 1500 89 600 290/15 RMK AO2 CIG 008V011
94908KDBQ DBQ20110404070509604/04/11 07:05:31  5-MIN KDBQ 041305Z 29014KT 10SM OVC010 04/03 A2946 1510 89 600 290/14 RMK AO2
94908KDBQ DBQ20110404071010204/04/11 07:10:31  5-MIN KDBQ 041310Z 30016G20KT 10SM OVC010 04/03 A2947 1500 89 600 300/16G20 RMK AO2
94908KDBQ DBQ20110404071510204/04/11 07:15:31  5-MIN KDBQ 041315Z 30013G22KT 10SM OVC010 04/03 A2947 1500 89 600 300/13G22 RMK AO2
94908KDBQ DBQ20110404072011404/04/11 07:20:31  5-MIN KDBQ 041320Z 30014G22KT 10SM OVC010 04/03 A2946 1510 89 600 300/14G22 RMK AO2 CIG 008V013
94908KDBQ DBQ20110404072511404/04/11 07:25:31  5-MIN KDBQ 041325Z 30014G22KT 10SM OVC010 04/03 A2945 1510 89 600 300/14G22 RMK AO2 CIG 009V013
94908KDBQ DBQ20110404073010804/04/11 07:30:31  5-MIN KDBQ 041330Z 30012KT 10SM OVC010 04/03 A2945 1510 89 600 300/12 RMK AO2 CIG 009V014
94908KDBQ DBQ20110404073509604/04/11 07:35:31  5-MIN KDBQ 041335Z 30013KT 10SM OVC010 04/03 A2946 1510 89 600 300/13 RMK AO2
94908KDBQ DBQ20110404074009604/04/11 07:40:31  5-MIN KDBQ 041340Z 29015KT 10SM OVC010 04/03 A2946 1510 89 600 290/15 RMK AO2
94908KDBQ DBQ20110404074509604/04/11 07:45:31  5-MIN KDBQ 041345Z 29015KT 10SM OVC010 04/03 A2946 1510 89 600 290/15 RMK AO2
94908KDBQ DBQ20110404075011304/04/11 07:50:31  5-MIN KDBQ 041350Z 30014KT 10SM OVC010 04/02 A2946 1510 85 600 290/14 RMK AO2 SLP978 T00440022
94908KDBQ DBQ20110404075510204/04/11 07:55:31  5-MIN KDBQ 041355Z 30013G23KT 10SM OVC010 04/03 A2946 1510 89 600 300/13G23 RMK AO2
94908KDBQ DBQ20110404080010204/04/11 08:00:31  5-MIN KDBQ 041400Z 30016G23KT 10SM OVC012 04/02 A2945 1510 85 600 300/16G23 RMK AO2
94908KDBQ DBQ20110404080510204/04/11 08:05:31  5-MIN KDBQ 041405Z 30016G23KT 10SM OVC012 04/02 A2945 1520 85 600 300/16G23 RMK AO2
94908KDBQ DBQ20110404081010204/04/11 08:10:31  5-MIN KDBQ 041410Z 30016G24KT 10SM OVC012 05/02 A2946 1510 82 700 300/16G24 RMK AO2
94908KDBQ DBQ20110404081510204/04/11 08:15:31  5-MIN KDBQ 041415Z 30017G24KT 10SM OVC012 05/02 A2947 1500 82 700 300/17G24 RMK AO2
94908KDBQ DBQ20110404082012004/04/11 08:20:31  5-MIN KDBQ 041420Z 31019G27KT 10SM OVC012 05/02 A2947 1500 82 700 300/19G27 RMK AO2 PK WND 31027/1420
94908KDBQ DBQ20110404082512004/04/11 08:25:31  5-MIN KDBQ 041425Z 30018G27KT 10SM OVC014 04/02 A2947 1500 85 600 300/18G27 RMK AO2 PK WND 31027/1420
94908KDBQ DBQ20110404083012004/04/11 08:30:31  5-MIN KDBQ 041430Z 30016G25KT 10SM OVC014 05/02 A2947 1500 82 700 300/16G25 RMK AO2 PK WND 31027/1420
94908KDBQ DBQ20110404083512004/04/11 08:35:31  5-MIN KDBQ 041435Z 31018G26KT 10SM OVC014 05/02 A2947 1500 82 700 300/18G26 RMK AO2 PK WND 31027/1420
94908KDBQ DBQ20110404084012004/04/11 08:40:31  5-MIN KDBQ 041440Z 31017G26KT 10SM OVC014 05/02 A2948 1490 82 700 300/17G26 RMK AO2 PK WND 31027/1420
94908KDBQ DBQ20110404084512004/04/11 08:45:31  5-MIN KDBQ 041445Z 31016G27KT 10SM OVC014 05/02 A2948 1480 82 700 310/16G27 RMK AO2 PK WND 32027/1444
94908KDBQ DBQ20110404085014304/04/11 08:50:31  5-MIN KDBQ 041450Z 29017G27KT 10SM OVC014 05/02 A2949 1480 82 700 290/17G27 RMK AO2 PK WND 32027/1444 SLP989 T00500022 53027
94908KDBQ DBQ20110404085510904/04/11 08:55:31  5-MIN KDBQ 041455Z 30016G25KT 10SM BKN014 OVC021 05/02 A2949 1480 82 700 300/16G25 RMK AO2
94908KDBQ DBQ20110404090010904/04/11 09:00:31  5-MIN KDBQ 041500Z 30016G25KT 10SM BKN017 OVC023 05/02 A2949 1480 82 700 300/16G25 RMK AO2
94908KDBQ DBQ20110404090510904/04/11 09:05:31  5-MIN KDBQ 041505Z 30015G24KT 10SM BKN017 OVC023 05/02 A2950 1470 82 700 300/15G24 RMK AO2
94908KDBQ DBQ20110404091012304/04/11 09:10:31  5-MIN KDBQ 041510Z 30015G24KT 10SM FEW014 BKN020 OVC026 05/02 A2951 1460 82 600 300/15G24 RMK AO2 PRESRR
94908KDBQ DBQ20110404091511004/04/11 09:15:31  5-MIN KDBQ 041515Z 30014KT 10SM BKN020 OVC026 05/02 A2952 1450 82 600 290/14 RMK AO2 PRESRR
94908KDBQ DBQ20110404092010904/04/11 09:20:31  5-MIN KDBQ 041520Z 30018G24KT 10SM BKN020 OVC025 05/02 A2952 1450 79 600 300/18G24 RMK AO2
94908KDBQ DBQ20110404092513404/04/11 09:25:31  5-MIN KDBQ 041525Z 31021G28KT 10SM BKN020 BKN025 OVC036 05/02 A2952 1450 79 600 310/21G28 RMK AO2 PK WND 32028/1524
94908KDBQ DBQ20110404093013404/04/11 09:30:31  5-MIN KDBQ 041530Z 31017G28KT 10SM SCT020 BKN031 OVC038 06/02 A2953 1450 76 700 310/17G28 RMK AO2 PK WND 32028/1524
94908KDBQ DBQ20110404093513404/04/11 09:35:31  5-MIN KDBQ 041535Z 31016G25KT 10SM SCT020 BKN028 OVC036 06/02 A2953 1440 76 700 310/16G25 RMK AO2 PK WND 32028/1524
94908KDBQ DBQ20110404094013404/04/11 09:40:31  5-MIN KDBQ 041540Z 30017G28KT 10SM FEW020 BKN027 OVC035 06/01 A2953 1440 73 700 300/17G28 RMK AO2 PK WND 32028/1536
94908KDBQ DBQ20110404094512704/04/11 09:45:31  5-MIN KDBQ 041545Z 31018G28KT 10SM BKN027 OVC035 06/01 A2954 1430 70 700 310/18G28 RMK AO2 PK WND 32028/1536
94908KDBQ DBQ20110404095015104/04/11 09:50:31  5-MIN KDBQ 041550Z 30015G27KT 10SM BKN027 OVC032 06/01 A2955 1420 70 700 300/15G27 RMK AO2 PK WND 32028/1536 PRESRR SLP011 T00560006
94908KDBQ DBQ20110404095511604/04/11 09:55:31  5-MIN KDBQ 041555Z 31012G27KT 10SM BKN027 OVC035 06/01 A2957 1410 70 600 310/12G27 RMK AO2 PRESRR
94908KDBQ DBQ20110404100010304/04/11 10:00:31  5-MIN KDBQ 041600Z 32009KT 10SM OVC027 06/01 A2957 1400 70 600 320/09 RMK AO2 PRESRR
94908KDBQ DBQ20110404100509604/04/11 10:05:31  5-MIN KDBQ 041605Z 34013KT 10SM OVC025 05/01 A2957 1410 76 600 340/13 RMK AO2
94908KDBQ DBQ20110404101009604/04/11 10:10:31  5-MIN KDBQ 041610Z 33013KT 10SM OVC025 05/01 A2956 1410 76 600 330/13 RMK AO2
94908KDBQ DBQ20110404101509604/04/11 10:15:31  5-MIN KDBQ 041615Z 32012KT 10SM OVC025 05/01 A2956 1410 76 600 320/12 RMK AO2
94908KDBQ DBQ20110404102009604/04/11 10:20:31  5-MIN KDBQ 041620Z 32010KT 10SM OVC025 05/01 A2956 1420 76 600 320/10 RMK AO2
94908KDBQ DBQ20110404102511604/04/11 10:25:31  5-MIN KDBQ 041625Z 31014G21KT 10SM BKN023 BKN029 OVC038 05/01 A2955 1420 76 600 310/14G21 RMK AO2
94908KDBQ DBQ20110404103012304/04/11 10:30:31  5-MIN KDBQ 041630Z 32015G23KT 10SM BKN025 BKN033 OVC041 06/02 A2954 1440 76 700 310/15G23 RMK AO2 PRESFR
94908KDBQ DBQ20110404103513404/04/11 10:35:31  5-MIN KDBQ 041635Z 32017G27KT 10SM SCT023 BKN034 OVC041 07/02 A2953 1440 73 800 320/17G27 RMK AO2 PK WND 32027/1635
94908KDBQ DBQ20110404104013404/04/11 10:40:31  5-MIN KDBQ 041640Z 31018G27KT 10SM BKN025 BKN030 OVC039 07/01 A2953 1440 67 800 310/18G27 RMK AO2 PK WND 32027/1635
94908KDBQ DBQ20110404104513404/04/11 10:45:31  5-MIN KDBQ 041645Z 30017G26KT 10SM BKN025 BKN030 OVC039 06/01 A2954 1440 70 700 300/17G26 RMK AO2 PK WND 32027/1635
94908KDBQ DBQ20110404105015104/04/11 10:50:31  5-MIN KDBQ 041650Z 31017G24KT 10SM BKN025 BKN030 OVC039 06/01 A2954 1430 70 700 300/17G24 RMK AO2 PK WND 32027/1635 SLP008 T00610011
94908KDBQ DBQ20110404105510204/04/11 10:55:31  5-MIN KDBQ 041655Z 30018G25KT 10SM OVC036 06/01 A2953 1440 70 800 300/18G25 RMK AO2
94908KDBQ DBQ20110404110012004/04/11 11:00:31  5-MIN KDBQ 041700Z 31021G27KT 10SM OVC036 06/01 A2953 1440 67 800 300/21G27 RMK AO2 PK WND 32027/1700
94908KDBQ DBQ20110404110512004/04/11 11:05:31  5-MIN KDBQ 041705Z 31020G28KT 10SM OVC036 06/00 A2953 1440 67 700 310/20G28 RMK AO2 PK WND 32028/1704
94908KDBQ DBQ20110404111012704/04/11 11:10:31  5-MIN KDBQ 041710Z 30019G28KT 10SM BKN033 OVC042 06/01 A2954 1430 67 700 300/19G28 RMK AO2 PK WND 32028/1704
94908KDBQ DBQ20110404111512704/04/11 11:15:31  5-MIN KDBQ 041715Z 31018G27KT 10SM SCT030 OVC038 07/01 A2955 1420 65 800 310/18G27 RMK AO2 PK WND 32028/1704
94908KDBQ DBQ20110404112012704/04/11 11:20:31  5-MIN KDBQ 041720Z 32024G33KT 10SM BKN032 OVC040 06/01 A2955 1430 67 700 320/24G33 RMK AO2 PK WND 34033/1718
94908KDBQ DBQ20110404112512704/04/11 11:25:31  5-MIN KDBQ 041725Z 32020G33KT 10SM BKN032 OVC040 05/00 A2954 1430 70 600 320/20G33 RMK AO2 PK WND 34033/1718
94908KDBQ DBQ20110404113013404/04/11 11:30:31  5-MIN KDBQ 041730Z 31020G30KT 10SM FEW030 BKN034 OVC050 06/01 A2954 1430 67 700 310/20G30 RMK AO2 PK WND 34033/1718
94908KDBQ DBQ20110404113513404/04/11 11:35:31  5-MIN KDBQ 041735Z 31023G31KT 10SM FEW030 BKN045 OVC055 07/00 A2954 1430 62 800 310/23G31 RMK AO2 PK WND 34033/1718
94908KDBQ DBQ20110404114013404/04/11 11:40:31  5-MIN KDBQ 041740Z 33026G36KT 10SM SCT030 BKN041 OVC050 07/00 A2956 1420 62 800 330/26G36 RMK AO2 PK WND 33036/1740
94908KDBQ DBQ20110404114513504/04/11 11:45:31  5-MIN KDBQ 041745Z 30022G36KT 10SM SCT031 BKN041 OVC050 06/M01 A2956 1410 62 700 300/22G36 RMK AO2 PK WND 33036/1740
94908KDBQ DBQ20110404115016904/04/11 11:50:31  5-MIN KDBQ 041750Z 32023G33KT 10SM SCT034 BKN043 OVC050 07/00 A2955 1420 62 800 320/23G33 RMK AO2 PK WND 33036/1740 SLP012 T00670000 10072 20044 53012
94908KDBQ DBQ20110404115513404/04/11 11:55:31  5-MIN KDBQ 041755Z 32023G33KT 10SM SCT032 SCT044 OVC055 07/00 A2955 1420 60 900 320/23G33 RMK AO2 PK WND 33030/1754
94908KDBQ DBQ20110404120013404/04/11 12:00:31  5-MIN KDBQ 041800Z 31024G34KT 10SM SCT032 SCT044 OVC055 07/00 A2955 1420 60 900 310/24G34 RMK AO2 PK WND 33034/1800
94908KDBQ DBQ20110404120513504/04/11 12:05:31  5-MIN KDBQ 041805Z 33023G34KT 10SM FEW032 SCT044 OVC055 07/M01 A2956 1420 57 900 330/23G34 RMK AO2 PK WND 33034/1800
94908KDBQ DBQ20110404121013504/04/11 12:10:31  5-MIN KDBQ 041810Z 32021G29KT 10SM SCT035 SCT042 OVC055 07/M01 A2956 1410 60 800 320/21G29 RMK AO2 PK WND 33034/1800
94908KDBQ DBQ20110404121512804/04/11 12:15:31  5-MIN KDBQ 041815Z 31024G29KT 10SM FEW035 OVC055 07/M01 A2956 1410 55 900 310/24G29 RMK AO2 PK WND 33034/1800
94908KDBQ DBQ20110404122012804/04/11 12:20:31  5-MIN KDBQ 041820Z 31022G32KT 10SM FEW035 OVC055 07/M01 A2956 1410 55 900 310/22G32 RMK AO2 PK WND 33034/1800
94908KDBQ DBQ20110404122512804/04/11 12:25:31  5-MIN KDBQ 041825Z 32027G34KT 10SM FEW035 OVC055 08/M01 A2956 1410 55 900 320/27G34 RMK AO2 PK WND 32034/1824
94908KDBQ DBQ20110404123012804/04/11 12:30:31  5-MIN KDBQ 041830Z 32026G35KT 10SM FEW037 OVC055 07/M01 A2956 1410 55 900 320/26G35 RMK AO2 PK WND 32035/1829
94908KDBQ DBQ20110404123512804/04/11 12:35:31  5-MIN KDBQ 041835Z 33020G35KT 10SM FEW037 OVC055 07/M01 A2956 1410 55 900 330/20G35 RMK AO2 PK WND 32035/1829
94908KDBQ DBQ20110404124013504/04/11 12:40:31  5-MIN KDBQ 041840Z 33021G31KT 10SM FEW038 SCT045 OVC055 07/M01 A2956 1410 57 800 320/21G31 RMK AO2 PK WND 32035/1829
94908KDBQ DBQ20110404124512804/04/11 12:45:31  5-MIN KDBQ 041845Z 32018G31KT 10SM BKN043 OVC055 07/M01 A2957 1410 57 800 320/18G31 RMK AO2 PK WND 32035/1829
94908KDBQ DBQ20110404125014504/04/11 12:50:31  5-MIN KDBQ 041850Z 32023G31KT 10SM BKN043 OVC055 07/M01 A2957 1410 57 800 320/23G31 RMK AO2 PK WND 32035/1829 SLP017 T00671011
94908KDBQ DBQ20110404125512804/04/11 12:55:31  5-MIN KDBQ 041855Z 32025G39KT 10SM SCT043 OVC055 07/M01 A2956 1410 57 800 320/25G39 RMK AO2 PK WND 31030/1855
94908KDBQ DBQ20110404130012804/04/11 13:00:31  5-MIN KDBQ 041900Z 32023G39KT 10SM SCT043 OVC060 07/M01 A2956 1410 55 900 320/23G39 RMK AO2 PK WND 32032/1900
94908KDBQ DBQ20110404130512804/04/11 13:05:31  5-MIN KDBQ 041905Z 32021G32KT 10SM SCT043 OVC060 08/M01 A2956 1410 53 900 320/21G32 RMK AO2 PK WND 32032/1900
94908KDBQ DBQ20110404131012904/04/11 13:10:31  5-MIN KDBQ 041910Z 32021G28KT 10SM FEW043 OVC060 08/M01 A2956 1420 51 1000 310/21G28 RMK AO2 PK WND 32032/1900
94908KDBQ DBQ20110404131512904/04/11 13:15:31  5-MIN KDBQ 041915Z 33019G28KT 10SM FEW043 OVC060 08/M01 A2956 1420 51 1000 330/19G28 RMK AO2 PK WND 32032/1900
94908KDBQ DBQ20110404132012904/04/11 13:20:31  5-MIN KDBQ 041920Z 34023G35KT 10SM SCT043 OVC060 09/M01 A2956 1410 51 1100 340/23G35 RMK AO2 PK WND 34035/1920
94908KDBQ DBQ20110404132512904/04/11 13:25:31  5-MIN KDBQ 041925Z 33029G39KT 10SM SCT043 OVC060 09/M01 A2956 1410 49 1100 330/29G39 RMK AO2 PK WND 32039/1925
94908KDBQ DBQ20110404133012804/04/11 13:30:31  5-MIN KDBQ 041930Z 33026G39KT 10SM FEW043 OVC055 08/M02 A2956 1420 51 900 330/26G39 RMK AO2 PK WND 32039/1925
94908KDBQ DBQ20110404133512804/04/11 13:35:31  5-MIN KDBQ 041935Z 32022G35KT 10SM FEW041 OVC060 07/M02 A2956 1410 53 900 320/22G35 RMK AO2 PK WND 32039/1925
94908KDBQ DBQ20110404134013604/04/11 13:40:31  5-MIN KDBQ 041940Z 31024G35KT 10SM SCT042 SCT050 OVC065 08/M01 A2956 1410 51 1000 310/24G35 RMK AO2 PK WND 32039/1925
94908KDBQ DBQ20110404134513604/04/11 13:45:31  5-MIN KDBQ 041945Z 33020G31KT 10SM SCT042 SCT050 BKN060 08/M01 A2956 1410 51 1000 330/20G31 RMK AO2 PK WND 32039/1925
94908KDBQ DBQ20110404135014504/04/11 13:50:31  5-MIN KDBQ 041950Z 31024G32KT 10SM SCT045 BKN060 08/M01 A2957 1410 53 900 310/24G32 RMK AO2 PK WND 32039/1925 SLP016 T00781011
94908KDBQ DBQ20110404135512804/04/11 13:55:31  5-MIN KDBQ 041955Z 33025G35KT 10SM SCT042 BKN060 07/M01 A2957 1400 55 800 330/25G35 RMK AO2 PK WND 32035/1954
94908KDBQ DBQ20110404140012804/04/11 14:00:31  5-MIN KDBQ 042000Z 32021G35KT 10SM FEW042 BKN060 07/M01 A2957 1400 55 800 320/21G35 RMK AO2 PK WND 32035/1954
94908KDBQ DBQ20110404140512804/04/11 14:05:31  5-MIN KDBQ 042005Z 31023G35KT 10SM FEW042 OVC060 07/M02 A2957 1400 55 800 310/23G35 RMK AO2 PK WND 33035/2002
94908KDBQ DBQ20110404141012804/04/11 14:10:31  5-MIN KDBQ 042010Z 32023G35KT 10SM FEW042 OVC055 07/M01 A2957 1400 55 800 320/23G35 RMK AO2 PK WND 33035/2002
94908KDBQ DBQ20110404141512804/04/11 14:15:31  5-MIN KDBQ 042015Z 32024G35KT 10SM FEW042 OVC060 07/M02 A2957 1400 53 800 320/24G35 RMK AO2 PK WND 32035/2011
94908KDBQ DBQ20110404142012104/04/11 14:20:31  5-MIN KDBQ 042020Z 33023G35KT 10SM OVC055 07/M02 A2957 1400 53 800 330/23G35 RMK AO2 PK WND 32035/2011
94908KDBQ DBQ20110404142512804/04/11 14:25:31  5-MIN KDBQ 042025Z 33022G30KT 10SM BKN050 OVC065 07/M02 A2958 1400 55 800 330/22G30 RMK AO2 PK WND 32035/2011
94908KDBQ DBQ20110404143013504/04/11 14:30:31  5-MIN KDBQ 042030Z 34021G30KT 10SM FEW044 BKN055 OVC065 07/M02 A2958 1400 55 800 340/21G30 RMK AO2 PK WND 32035/2011
94908KDBQ DBQ20110404143513504/04/11 14:35:31  5-MIN KDBQ 042035Z 33025G40KT 10SM SCT040 BKN050 OVC065 07/M02 A2958 1390 55 800 330/25G40 RMK AO2 PK WND 33040/2035
94908KDBQ DBQ20110404144013504/04/11 14:40:31  5-MIN KDBQ 042040Z 33021G40KT 10SM SCT038 BKN050 OVC065 06/M02 A2959 1390 57 700 330/21G40 RMK AO2 PK WND 33040/2035
94908KDBQ DBQ20110404144513504/04/11 14:45:31  5-MIN KDBQ 042045Z 33019G31KT 10SM FEW038 BKN050 OVC065 07/M01 A2959 1390 57 800 330/19G31 RMK AO2 PK WND 33040/2035
94908KDBQ DBQ20110404145015804/04/11 14:50:31  5-MIN KDBQ 042050Z 31020G27KT 10SM SCT040 SCT050 OVC065 08/M01 A2959 1390 55 900 310/20G27 RMK AO2 PK WND 33040/2035 SLP024 T00781006 51021
94908KDBQ DBQ20110404145513504/04/11 14:55:31  5-MIN KDBQ 042055Z 32024G27KT 10SM SCT038 BKN047 OVC065 07/M01 A2959 1390 57 800 320/24G27 RMK AO2 PK WND 31028/2054
94908KDBQ DBQ20110404150013504/04/11 15:00:31  5-MIN KDBQ 042100Z 33022G28KT 10SM SCT036 SCT043 OVC065 07/M01 A2958 1390 57 800 320/22G28 RMK AO2 PK WND 33028/2100
94908KDBQ DBQ20110404150513504/04/11 15:05:31  5-MIN KDBQ 042105Z 32024G33KT 10SM SCT038 SCT049 OVC065 07/M01 A2958 1390 57 800 320/24G33 RMK AO2 PK WND 32033/2105
94908KDBQ DBQ20110404151013504/04/11 15:10:31  5-MIN KDBQ 042110Z 32024G33KT 10SM SCT038 SCT047 BKN065 07/M02 A2959 1390 55 800 320/24G33 RMK AO2 PK WND 32033/2105
94908KDBQ DBQ20110404151513504/04/11 15:15:31  5-MIN KDBQ 042115Z 31023G31KT 10SM FEW036 SCT043 BKN065 08/M01 A2959 1380 53 900 310/23G31 RMK AO2 PK WND 32033/2105
94908KDBQ DBQ20110404152012804/04/11 15:20:31  5-MIN KDBQ 042120Z 32022G29KT 10SM FEW039 BKN070 07/M02 A2960 1380 53 800 320/22G29 RMK AO2 PK WND 32033/2105
94908KDBQ DBQ20110404152512804/04/11 15:25:31  5-MIN KDBQ 042125Z 32022G32KT 10SM FEW041 BKN070 08/M01 A2960 1380 53 900 320/22G32 RMK AO2 PK WND 32033/2105
94908KDBQ DBQ20110404153012804/04/11 15:30:31  5-MIN KDBQ 042130Z 32026G32KT 10SM FEW041 BKN070 08/M02 A2960 1380 51 900 320/26G32 RMK AO2 PK WND 32033/2105
94908KDBQ DBQ20110404153512804/04/11 15:35:31  5-MIN KDBQ 042135Z 32024G34KT 10SM FEW043 BKN070 07/M02 A2960 1380 53 800 320/24G34 RMK AO2 PK WND 31034/2131
94908KDBQ DBQ20110404154012804/04/11 15:40:31  5-MIN KDBQ 042140Z 32022G34KT 10SM FEW043 BKN070 07/M02 A2960 1380 53 800 320/22G34 RMK AO2 PK WND 31034/2131
94908KDBQ DBQ20110404154512104/04/11 15:45:31  5-MIN KDBQ 042145Z 32016G28KT 10SM BKN065 08/M02 A2960 1370 51 900 320/16G28 RMK AO2 PK WND 31034/2131
94908KDBQ DBQ20110404155014504/04/11 15:50:31  5-MIN KDBQ 042150Z 30022G29KT 10SM FEW042 OVC065 08/M02 A2960 1370 51 900 300/22G29 RMK AO2 PK WND 31034/2131 SLP030 T00781017
94908KDBQ DBQ20110404155512804/04/11 15:55:31  5-MIN KDBQ 042155Z 31023G29KT 10SM FEW042 OVC065 08/M02 A2961 1370 49 900 310/23G29 RMK AO2 PK WND 31029/2155
94908KDBQ DBQ20110404160012804/04/11 16:00:31  5-MIN KDBQ 042200Z 31022G29KT 10SM SCT046 OVC065 07/M02 A2961 1370 51 800 310/22G29 RMK AO2 PK WND 31029/2155
94908KDBQ DBQ20110404160513504/04/11 16:05:31  5-MIN KDBQ 042205Z 32018G27KT 10SM FEW043 SCT050 OVC065 07/M02 A2961 1370 51 800 310/18G27 RMK AO2 PK WND 31029/2155
94908KDBQ DBQ20110404161013504/04/11 16:10:31  5-MIN KDBQ 042210Z 32017G26KT 10SM FEW043 SCT050 OVC060 07/M02 A2961 1370 53 700 320/17G26 RMK AO2 PK WND 31029/2155
94908KDBQ DBQ20110404161513504/04/11 16:15:31  5-MIN KDBQ 042215Z 32019G26KT 10SM BKN047 BKN060 OVC070 07/M02 A2961 1370 53 700 320/19G26 RMK AO2 PK WND 31029/2155
94908KDBQ DBQ20110404162012804/04/11 16:20:31  5-MIN KDBQ 042220Z 32019G26KT 10SM BKN047 OVC065 07/M02 A2961 1370 53 700 320/19G26 RMK AO2 PK WND 31029/2155
94908KDBQ DBQ20110404162513504/04/11 16:25:31  5-MIN KDBQ 042225Z 32022G33KT 10SM BKN047 BKN060 OVC070 07/M02 A2961 1370 51 800 320/22G33 RMK AO2 PK WND 32033/2222
94908KDBQ DBQ20110404163013504/04/11 16:30:31  5-MIN KDBQ 042230Z 32022G33KT 10SM FEW046 BKN055 OVC070 07/M03 A2961 1360 49 800 320/22G33 RMK AO2 PK WND 32033/2222
94908KDBQ DBQ20110404163513504/04/11 16:35:31  5-MIN KDBQ 042235Z 33019G28KT 10SM FEW046 BKN055 BKN070 07/M03 A2961 1360 51 700 330/19G28 RMK AO2 PK WND 32033/2222
94908KDBQ DBQ20110404164012804/04/11 16:40:31  5-MIN KDBQ 042240Z 33020G28KT 10SM FEW046 BKN060 07/M03 A2961 1360 51 700 330/20G28 RMK AO2 PK WND 32033/2222
94908KDBQ DBQ20110404164512804/04/11 16:45:31  5-MIN KDBQ 042245Z 32020G28KT 10SM FEW046 BKN060 07/M03 A2962 1360 51 700 320/20G28 RMK AO2 PK WND 32033/2222
94908KDBQ DBQ20110404165014504/04/11 16:50:31  5-MIN KDBQ 042250Z 32025G34KT 10SM SCT050 BKN060 08/M03 A2962 1360 47 900 320/25G34 RMK AO2 PK WND 32034/2250 SLP035 T00781028
94908KDBQ DBQ20110404165512104/04/11 16:55:31  5-MIN KDBQ 042255Z 32021G34KT 10SM BKN055 07/M03 A2962 1360 49 800 320/21G34 RMK AO2 PK WND 31028/2255
94908KDBQ DBQ20110404170012104/04/11 17:00:31  5-MIN KDBQ 042300Z 33025G37KT 10SM BKN055 07/M03 A2962 1350 47 800 320/25G37 RMK AO2 PK WND 32037/2259
94908KDBQ DBQ20110404170512104/04/11 17:05:31  5-MIN KDBQ 042305Z 32023G37KT 10SM BKN060 07/M03 A2963 1350 47 800 320/23G37 RMK AO2 PK WND 32037/2259
94908KDBQ DBQ20110404171012104/04/11 17:10:31  5-MIN KDBQ 042310Z 32027G40KT 10SM OVC060 08/M04 A2963 1350 43 800 320/27G40 RMK AO2 PK WND 32040/2310
94908KDBQ DBQ20110404171512104/04/11 17:15:31  5-MIN KDBQ 042315Z 32029G40KT 10SM OVC060 07/M04 A2964 1340 45 800 320/29G40 RMK AO2 PK WND 32040/2310
94908KDBQ DBQ20110404172012104/04/11 17:20:31  5-MIN KDBQ 042320Z 32026G39KT 10SM OVC060 07/M04 A2964 1340 47 700 320/26G39 RMK AO2 PK WND 32040/2310
94908KDBQ DBQ20110404172512104/04/11 17:25:31  5-MIN KDBQ 042325Z 32026G38KT 10SM OVC060 07/M04 A2964 1340 47 700 320/26G38 RMK AO2 PK WND 32040/2310
94908KDBQ DBQ20110404173012104/04/11 17:30:31  5-MIN KDBQ 042330Z 33021G35KT 10SM OVC060 07/M04 A2965 1330 47 700 330/21G35 RMK AO2 PK WND 32040/2310
94908KDBQ DBQ20110404173512104/04/11 17:35:31  5-MIN KDBQ 042335Z 33024G33KT 10SM OVC060 07/M04 A2965 1330 47 700 330/24G33 RMK AO2 PK WND 32040/2310
94908KDBQ DBQ20110404174012104/04/11 17:40:31  5-MIN KDBQ 042340Z 33018G28KT 10SM OVC060 06/M03 A2965 1330 51 600 330/18G28 RMK AO2 PK WND 32040/2310
94908KDBQ DBQ20110404174512104/04/11 17:45:31  5-MIN KDBQ 042345Z 32019G28KT 10SM OVC065 06/M03 A2965 1330 51 600 320/19G28 RMK AO2 PK WND 32040/2310
94908KDBQ DBQ20110404175015604/04/11 17:50:31  5-MIN KDBQ 042350Z 32020G27KT 10SM OVC065 06/M03 A2966 1320 51 600 320/20G27 RMK AO2 PK WND 32040/2310 SLP048 T00611033 10089 20061 53011
94908KDBQ DBQ20110404175511004/04/11 17:55:31  5-MIN KDBQ 042355Z 33018G26KT 10SM FEW049 OVC065 06/M03 A2966 1320 53 600 330/18G26 RMK AO2
94908KDBQ DBQ20110404180012804/04/11 18:00:31  5-MIN KDBQ 050000Z 33013G27KT 10SM FEW049 OVC065 06/M03 A2966 1320 53 600 330/13G27 RMK AO2 PK WND 32027/2356
94908KDBQ DBQ20110404180512804/04/11 18:05:31  5-MIN KDBQ 050005Z 32017G27KT 10SM SCT049 OVC065 06/M03 A2966 1320 53 600 320/17G27 RMK AO2 PK WND 32027/2356
94908KDBQ DBQ20110404181012804/04/11 18:10:31  5-MIN KDBQ 050010Z 32010G24KT 10SM FEW049 OVC065 06/M03 A2966 1320 53 600 320/10G24 RMK AO2 PK WND 32027/2356
94908KDBQ DBQ20110404181512804/04/11 18:15:31  5-MIN KDBQ 050015Z 32019G26KT 10SM FEW049 OVC070 06/M03 A2966 1320 53 600 320/19G26 RMK AO2 PK WND 32027/2356
94908KDBQ DBQ20110404182012804/04/11 18:20:31  5-MIN KDBQ 050020Z 32021G26KT 10SM FEW049 OVC070 06/M03 A2966 1320 51 600 320/21G26 RMK AO2 PK WND 32027/2356
94908KDBQ DBQ20110404182512804/04/11 18:25:31  5-MIN KDBQ 050025Z 33016G25KT 10SM FEW049 OVC070 06/M03 A2966 1320 51 600 320/16G25 RMK AO2 PK WND 32027/2356
94908KDBQ DBQ20110404183012104/04/11 18:30:31  5-MIN KDBQ 050030Z 31017G26KT 10SM OVC070 06/M03 A2966 1320 51 600 310/17G26 RMK AO2 PK WND 32027/2356
94908KDBQ DBQ20110404183512104/04/11 18:35:31  5-MIN KDBQ 050035Z 32012G26KT 10SM OVC070 06/M03 A2966 1320 51 600 320/12G26 RMK AO2 PK WND 32027/2356
94908KDBQ DBQ20110404184012104/04/11 18:40:31  5-MIN KDBQ 050040Z 32016G24KT 10SM OVC070 06/M03 A2966 1320 53 500 310/16G24 RMK AO2 PK WND 32027/2356
94908KDBQ DBQ20110404184512104/04/11 18:45:31  5-MIN KDBQ 050045Z 31013G25KT 10SM OVC070 06/M03 A2967 1310 51 600 310/13G25 RMK AO2 PK WND 32027/2356
94908KDBQ DBQ20110404185013804/04/11 18:50:31  5-MIN KDBQ 050050Z 31010G25KT 10SM OVC070 06/M03 A2967 1310 53 500 310/10G25 RMK AO2 PK WND 32027/2356 SLP054 T00561033
94908KDBQ DBQ20110404185510304/04/11 18:55:31  5-MIN KDBQ 050055Z 31015G27KT 10SM OVC070 06/M04 A2967 1310 50 500 310/15G27 RMK AO2
94908KDBQ DBQ20110404190010804/04/11 19:00:31  5-MIN KDBQ 050100Z AUTO 32013G27KT 10SM OVC070 06/M04 A2967 1310 50 500 310/13G27 RMK AO2
94908KDBQ DBQ20110404190510804/04/11 19:05:31  5-MIN KDBQ 050105Z AUTO 31016G24KT 10SM OVC070 06/M04 A2967 1310 48 500 310/16G24 RMK AO2
94908KDBQ DBQ20110404191010804/04/11 19:10:31  5-MIN KDBQ 050110Z AUTO 31017G24KT 10SM OVC070 06/M04 A2967 1310 48 500 310/17G24 RMK AO2
94908KDBQ DBQ20110404191510804/04/11 19:15:31  5-MIN KDBQ 050115Z AUTO 31015G24KT 10SM OVC070 06/M04 A2967 1310 48 500 310/15G24 RMK AO2
94908KDBQ DBQ20110404192010804/04/11 19:20:31  5-MIN KDBQ 050120Z AUTO 31013G22KT 10SM OVC070 06/M04 A2968 1300 48 500 310/13G22 RMK AO2
94908KDBQ DBQ20110404192511004/04/11 19:25:31  5-MIN KDBQ 050125Z AUTO 32014G22KT 10SM OVC070 06/M05 A2968 1300 46 500 310/14G22 RMK AO2 $
94908KDBQ DBQ20110404193014404/04/11 19:30:31  5-MIN KDBQ 050130Z AUTO 32013G36KT 280V350 10SM OVC070 06/M05 A2968 1300 46 500 320/13G36 280V350 RMK AO2 PK WND 33036/0128 $
94908KDBQ DBQ20110404193512804/04/11 19:35:31  5-MIN KDBQ 050135Z AUTO 32014G36KT 10SM OVC070 06/M05 A2969 1290 46 500 320/14G36 RMK AO2 PK WND 33036/0128 $
94908KDBQ DBQ20110404194012804/04/11 19:40:31  5-MIN KDBQ 050140Z AUTO 32017G24KT 10SM OVC070 06/M05 A2969 1290 46 500 310/17G24 RMK AO2 PK WND 33036/0128 $
94908KDBQ DBQ20110404194512804/04/11 19:45:31  5-MIN KDBQ 050145Z AUTO 32018G25KT 10SM OVC070 06/M06 A2970 1290 44 500 320/18G25 RMK AO2 PK WND 33036/0128 $
94908KDBQ DBQ20110404195014504/04/11 19:50:31  5-MIN KDBQ 050150Z AUTO 32014G26KT 10SM OVC070 05/M06 A2970 1280 46 400 320/14G26 RMK AO2 PK WND 33036/0128 SLP064 T00501056 $
94908KDBQ DBQ20110404195511004/04/11 19:55:31  5-MIN KDBQ 050155Z AUTO 31011G26KT 10SM OVC070 05/M06 A2971 1280 46 400 310/11G26 RMK AO2 $
94908KDBQ DBQ20110404200010404/04/11 20:00:31  5-MIN KDBQ 050200Z AUTO 31011KT 10SM BKN070 05/M06 A2971 1280 46 400 310/11 RMK AO2 $
94908KDBQ DBQ20110404200511004/04/11 20:05:31  5-MIN KDBQ 050205Z AUTO 31014G24KT 10SM BKN070 05/M06 A2971 1270 46 400 310/14G24 RMK AO2 $
94908KDBQ DBQ20110404201012804/04/11 20:10:31  5-MIN KDBQ 050210Z AUTO 31014G27KT 10SM BKN070 05/M06 A2972 1270 46 400 310/14G27 RMK AO2 PK WND 32027/0207 $
94908KDBQ DBQ20110404201512804/04/11 20:15:31  5-MIN KDBQ 050215Z AUTO 31012G27KT 10SM SCT070 04/M05 A2972 1270 50 300 310/12G27 RMK AO2 PK WND 32027/0207 $
94908KDBQ DBQ20110404202012804/04/11 20:20:31  5-MIN KDBQ 050220Z AUTO 31015G22KT 10SM SCT070 04/M05 A2972 1260 50 300 310/15G22 RMK AO2 PK WND 32027/0207 $
94908KDBQ DBQ20110404202512804/04/11 20:25:31  5-MIN KDBQ 050225Z AUTO 31013G22KT 10SM FEW070 04/M05 A2973 1260 50 300 310/13G22 RMK AO2 PK WND 32027/0207 $
94908KDBQ DBQ20110404203012804/04/11 20:30:31  5-MIN KDBQ 050230Z AUTO 31014G25KT 10SM FEW070 04/M05 A2973 1260 50 300 310/14G25 RMK AO2 PK WND 32027/0207 $
94908KDBQ DBQ20110404203512504/04/11 20:35:31  5-MIN KDBQ 050235Z AUTO 31012G25KT 10SM CLR 04/M05 A2973 1250 50 300 310/12G25 RMK AO2 PK WND 32027/0207 $
94908KDBQ DBQ20110404204012504/04/11 20:40:31  5-MIN KDBQ 050240Z AUTO 32016G25KT 10SM CLR 04/M05 A2973 1250 52 200 310/16G25 RMK AO2 PK WND 32027/0207 $
94908KDBQ DBQ20110404204512504/04/11 20:45:31  5-MIN KDBQ 050245Z AUTO 31013G25KT 10SM CLR 04/M05 A2974 1250 52 200 310/13G25 RMK AO2 PK WND 32027/0207 $
94908KDBQ DBQ20110404205014804/04/11 20:50:31  5-MIN KDBQ 050250Z AUTO 31014G22KT 10SM CLR 04/M05 A2974 1250 52 200 310/14G22 RMK AO2 PK WND 32027/0207 SLP079 T00391050 53023 $
94908KDBQ DBQ20110404205510704/04/11 20:55:31  5-MIN KDBQ 050255Z AUTO 31015G22KT 10SM CLR 04/M04 A2974 1240 54 200 310/15G22 RMK AO2 $
94908KDBQ DBQ20110404210012504/04/11 21:00:31  5-MIN KDBQ 050300Z AUTO 31014G27KT 10SM CLR 04/M04 A2975 1240 54 200 310/14G27 RMK AO2 PK WND 32027/0257 $
94908KDBQ DBQ20110404210512504/04/11 21:05:31  5-MIN KDBQ 050305Z AUTO 32013G27KT 10SM CLR 03/M04 A2975 1240 57 200 320/13G27 RMK AO2 PK WND 32027/0257 $
94908KDBQ DBQ20110404211012804/04/11 21:10:31  5-MIN KDBQ 050310Z AUTO 31016G23KT 10SM FEW065 04/M04 A2975 1230 54 200 310/16G23 RMK AO2 PK WND 32027/0257 $
94908KDBQ DBQ20110404211512804/04/11 21:15:31  5-MIN KDBQ 050315Z AUTO 31014G23KT 10SM FEW065 03/M04 A2975 1230 57 200 310/14G23 RMK AO2 PK WND 32027/0257 $
94908KDBQ DBQ20110404212012204/04/11 21:20:31  5-MIN KDBQ 050320Z AUTO 31013KT 10SM FEW065 03/M04 A2976 1230 57 200 310/13 RMK AO2 PK WND 32027/0257 $
94908KDBQ DBQ20110404212512204/04/11 21:25:31  5-MIN KDBQ 050325Z AUTO 31012KT 10SM FEW065 03/M04 A2976 1230 57 200 310/12 RMK AO2 PK WND 32027/0257 $
94908KDBQ DBQ20110404213012204/04/11 21:30:31  5-MIN KDBQ 050330Z AUTO 31012KT 10SM FEW065 03/M04 A2976 1230 59 100 310/12 RMK AO2 PK WND 32027/0257 $
94908KDBQ DBQ20110404213512804/04/11 21:35:31  5-MIN KDBQ 050335Z AUTO 31013G21KT 10SM FEW065 03/M04 A2976 1230 59 100 310/13G21 RMK AO2 PK WND 32027/0257 $
94908KDBQ DBQ20110404214012504/04/11 21:40:31  5-MIN KDBQ 050340Z AUTO 31012G21KT 10SM CLR 03/M04 A2976 1230 59 100 310/12G21 RMK AO2 PK WND 32027/0257 $
94908KDBQ DBQ20110404214511904/04/11 21:45:31  5-MIN KDBQ 050345Z AUTO 31013KT 10SM CLR 03/M04 A2976 1220 59 100 310/13 RMK AO2 PK WND 32027/0257 $
94908KDBQ DBQ20110404215013604/04/11 21:50:31  5-MIN KDBQ 050350Z AUTO 31013KT 10SM CLR 03/M04 A2976 1220 59 100 310/13 RMK AO2 PK WND 32027/0257 SLP087 T00281044 $
94908KDBQ DBQ20110404215510104/04/11 21:55:31  5-MIN KDBQ 050355Z AUTO 31013KT 10SM CLR 03/M04 A2976 1220 59 100 310/13 RMK AO2 $
94908KDBQ DBQ20110404220009904/04/11 22:00:31  5-MIN KDBQ 050400Z AUTO 31013KT 10SM CLR 02/M04 A2976 1220 61 0 310/13 RMK AO2 $
94908KDBQ DBQ20110404220509904/04/11 22:05:31  5-MIN KDBQ 050405Z AUTO 31013KT 10SM CLR 02/M04 A2976 1220 61 0 310/13 RMK AO2 $
94908KDBQ DBQ20110404221009904/04/11 22:10:31  5-MIN KDBQ 050410Z AUTO 31012KT 10SM CLR 02/M04 A2977 1220 61 0 310/12 RMK AO2 $
94908KDBQ DBQ20110404221509904/04/11 22:15:31  5-MIN KDBQ 050415Z AUTO 31012KT 10SM CLR 02/M04 A2977 1220 64 0 310/12 RMK AO2 $
94908KDBQ DBQ20110404222009904/04/11 22:20:31  5-MIN KDBQ 050420Z AUTO 31014KT 10SM CLR 02/M04 A2977 1220 61 0 310/14 RMK AO2 $
94908KDBQ DBQ20110404222509904/04/11 22:25:31  5-MIN KDBQ 050425Z AUTO 31013KT 10SM CLR 02/M04 A2977 1220 61 0 310/13 RMK AO2 $
94908KDBQ DBQ20110404223009904/04/11 22:30:31  5-MIN KDBQ 050430Z AUTO 31011KT 10SM CLR 02/M04 A2977 1220 61 0 310/11 RMK AO2 $
94908KDBQ DBQ20110404223510504/04/11 22:35:31  5-MIN KDBQ 050435Z AUTO 31012G17KT 10SM CLR 02/M04 A2977 1220 64 0 310/12G17 RMK AO2 $
94908KDBQ DBQ20110404224010504/04/11 22:40:31  5-MIN KDBQ 050440Z AUTO 31014G18KT 10SM CLR 02/M04 A2977 1220 61 0 310/14G18 RMK AO2 $
94908KDBQ DBQ20110404224510504/04/11 22:45:31  5-MIN KDBQ 050445Z AUTO 31014G19KT 10SM CLR 02/M04 A2977 1220 61 0 310/14G19 RMK AO2 $
94908KDBQ DBQ20110404225011604/04/11 22:50:31  5-MIN KDBQ 050450Z AUTO 31014KT 10SM CLR 02/M04 A2977 1220 61 0 310/14 RMK AO2 SLP089 T00221044 $
94908KDBQ DBQ20110404225510504/04/11 22:55:31  5-MIN KDBQ 050455Z AUTO 31014G20KT 10SM CLR 02/M04 A2977 1220 61 0 310/14G20 RMK AO2 $
94908KDBQ DBQ20110404230010504/04/11 23:00:31  5-MIN KDBQ 050500Z AUTO 31014G20KT 10SM CLR 02/M04 A2977 1220 61 0 310/14G20 RMK AO2 $
94908KDBQ DBQ20110404230509904/04/11 23:05:31  5-MIN KDBQ 050505Z AUTO 31013KT 10SM CLR 02/M04 A2977 1220 64 0 310/13 RMK AO2 $
94908KDBQ DBQ20110404231009904/04/11 23:10:31  5-MIN KDBQ 050510Z AUTO 31013KT 10SM CLR 02/M04 A2977 1220 61 0 310/13 RMK AO2 $
94908KDBQ DBQ20110404231509904/04/11 23:15:31  5-MIN KDBQ 050515Z AUTO 31013KT 10SM CLR 02/M04 A2977 1220 64 0 310/13 RMK AO2 $
94908KDBQ DBQ20110404232010504/04/11 23:20:31  5-MIN KDBQ 050520Z AUTO 31011G21KT 10SM CLR 02/M04 A2977 1220 64 0 310/11G21 RMK AO2 $
94908KDBQ DBQ20110404232510504/04/11 23:25:31  5-MIN KDBQ 050525Z AUTO 32011G21KT 10SM CLR 02/M04 A2977 1220 64 0 320/11G21 RMK AO2 $
94908KDBQ DBQ20110404233010504/04/11 23:30:31  5-MIN KDBQ 050530Z AUTO 32012G19KT 10SM CLR 02/M04 A2977 1220 64 0 320/12G19 RMK AO2 $
94908KDBQ DBQ20110404233509904/04/11 23:35:31  5-MIN KDBQ 050535Z AUTO 32013KT 10SM CLR 02/M04 A2977 1220 64 0 310/13 RMK AO2 $
94908KDBQ DBQ20110404234010504/04/11 23:40:31  5-MIN KDBQ 050540Z AUTO 31014G21KT 10SM CLR 02/M04 A2978 1210 64 0 310/14G21 RMK AO2 $
94908KDBQ DBQ20110404234510504/04/11 23:45:31  5-MIN KDBQ 050545Z AUTO 31014G21KT 10SM CLR 02/M04 A2978 1210 64 0 310/14G21 RMK AO2 $
94908KDBQ DBQ20110404235015004/04/11 23:50:31  5-MIN KDBQ 050550Z AUTO 31014G20KT 10SM CLR 02/M04 A2978 1210 64 0 310/14G20 RMK AO2 SLP092 T00171044 10061 20017 400890017 53028 $
94908KDBQ DBQ20110404235509904/04/11 23:55:31  5-MIN KDBQ 050555Z AUTO 31013KT 10SM CLR 02/M04 A2978 1210 64 0 310/13 RMK AO2 $
94908KDBQ DBQ20110405000010204/05/11 00:00:38  5-MIN KDBQ 050600Z AUTO 31013KT 10SM CLR 01/M04 A2978 1210 66 -100 310/13 RMK AO2 $
94908KDBQ DBQ20110405000510204/05/11 00:05:31  5-MIN KDBQ 050605Z AUTO 31013KT 10SM CLR 01/M04 A2978 1210 66 -100 310/13 RMK AO2 $
94908KDBQ DBQ20110405001010204/05/11 00:10:31  5-MIN KDBQ 050610Z AUTO 31014KT 10SM CLR 01/M04 A2979 1200 66 -100 310/14 RMK AO2 $
94908KDBQ DBQ20110405001510204/05/11 00:15:33  5-MIN KDBQ 050615Z AUTO 31013KT 10SM CLR 01/M04 A2979 1200 66 -100 310/13 RMK AO2 $
94908KDBQ DBQ20110405002010204/05/11 00:20:31  5-MIN KDBQ 050620Z AUTO 31012KT 10SM CLR 01/M04 A2979 1200 69 -100 310/12 RMK AO2 $
94908KDBQ DBQ20110405002510204/05/11 00:25:31  5-MIN KDBQ 050625Z AUTO 31012KT 10SM CLR 01/M04 A2979 1200 72 -200 310/12 RMK AO2 $
94908KDBQ DBQ20110405003010204/05/11 00:30:31  5-MIN KDBQ 050630Z AUTO 31011KT 10SM CLR 01/M04 A2979 1200 72 -200 310/11 RMK AO2 $
94908KDBQ DBQ20110405003510204/05/11 00:35:31  5-MIN KDBQ 050635Z AUTO 31010KT 10SM CLR 01/M04 A2979 1200 72 -200 310/10 RMK AO2 $
94908KDBQ DBQ20110405004010204/05/11 00:40:31  5-MIN KDBQ 050640Z AUTO 30010KT 10SM CLR 00/M04 A2979 1200 75 -200 300/10 RMK AO2 $
94908KDBQ DBQ20110405004510204/05/11 00:45:31  5-MIN KDBQ 050645Z AUTO 31010KT 10SM CLR 00/M04 A2979 1200 75 -200 300/10 RMK AO2 $
94908KDBQ DBQ20110405005011904/05/11 00:50:31  5-MIN KDBQ 050650Z AUTO 31009KT 10SM CLR 00/M04 A2978 1210 75 -200 300/09 RMK AO2 SLP094 T00001039 $
94908KDBQ DBQ20110405005510204/05/11 00:55:31  5-MIN KDBQ 050655Z AUTO 31010KT 10SM CLR 00/M04 A2978 1200 75 -200 300/10 RMK AO2 $
94908KDBQ DBQ20110405010010204/05/11 01:00:31  5-MIN KDBQ 050700Z AUTO 31010KT 10SM CLR 00/M04 A2979 1200 75 -200 310/10 RMK AO2 $
94908KDBQ DBQ20110405010510204/05/11 01:05:31  5-MIN KDBQ 050705Z AUTO 31009KT 10SM CLR 00/M04 A2978 1200 75 -200 310/09 RMK AO2 $
94908KDBQ DBQ20110405011010204/05/11 01:10:31  5-MIN KDBQ 050710Z AUTO 30009KT 10SM CLR 00/M04 A2979 1200 75 -200 300/09 RMK AO2 $
94908KDBQ DBQ20110405011510304/05/11 01:15:31  5-MIN KDBQ 050715Z AUTO 30010KT 10SM CLR M01/M04 A2979 1200 78 -300 300/10 RMK AO2 $
94908KDBQ DBQ20110405012010204/05/11 01:20:31  5-MIN KDBQ 050720Z AUTO 30010KT 10SM CLR 00/M04 A2978 1200 75 -200 300/10 RMK AO2 $
94908KDBQ DBQ20110405012510304/05/11 01:25:31  5-MIN KDBQ 050725Z AUTO 31010KT 10SM CLR M01/M04 A2978 1210 78 -300 310/10 RMK AO2 $
94908KDBQ DBQ20110405013010304/05/11 01:30:31  5-MIN KDBQ 050730Z AUTO 31009KT 10SM CLR M01/M04 A2978 1210 78 -300 310/09 RMK AO2 $
94908KDBQ DBQ20110405013510304/05/11 01:35:31  5-MIN KDBQ 050735Z AUTO 30010KT 10SM CLR M01/M04 A2978 1210 78 -300 300/10 RMK AO2 $
94908KDBQ DBQ20110405014010304/05/11 01:40:31  5-MIN KDBQ 050740Z AUTO 30009KT 10SM CLR M01/M04 A2978 1210 78 -300 300/09 RMK AO2 $
94908KDBQ DBQ20110405014510304/05/11 01:45:31  5-MIN KDBQ 050745Z AUTO 30009KT 10SM CLR M01/M04 A2979 1200 78 -300 300/09 RMK AO2 $
94908KDBQ DBQ20110405015012004/05/11 01:50:31  5-MIN KDBQ 050750Z AUTO 30009KT 10SM CLR M01/M04 A2979 1200 78 -300 300/09 RMK AO2 SLP095 T10061039 $
94908KDBQ DBQ20110405015510304/05/11 01:55:31  5-MIN KDBQ 050755Z AUTO 30010KT 10SM CLR M01/M04 A2979 1200 78 -300 300/10 RMK AO2 $
94908KDBQ DBQ20110405020010304/05/11 02:00:31  5-MIN KDBQ 050800Z AUTO 30009KT 10SM CLR M01/M04 A2979 1200 78 -300 300/09 RMK AO2 $
94908KDBQ DBQ20110405020510304/05/11 02:05:31  5-MIN KDBQ 050805Z AUTO 30009KT 10SM CLR M01/M04 A2979 1200 78 -300 300/09 RMK AO2 $
94908KDBQ DBQ20110405021010304/05/11 02:10:31  5-MIN KDBQ 050810Z AUTO 30008KT 10SM CLR M01/M04 A2979 1200 78 -300 300/08 RMK AO2 $
94908KDBQ DBQ20110405021510304/05/11 02:15:31  5-MIN KDBQ 050815Z AUTO 30009KT 10SM CLR M01/M04 A2979 1200 78 -300 300/09 RMK AO2 $
94908KDBQ DBQ20110405022010304/05/11 02:20:31  5-MIN KDBQ 050820Z AUTO 30009KT 10SM CLR M01/M04 A2979 1200 78 -300 300/09 RMK AO2 $
94908KDBQ DBQ20110405022510304/05/11 02:25:31  5-MIN KDBQ 050825Z AUTO 30010KT 10SM CLR M01/M04 A2979 1200 78 -400 300/10 RMK AO2 $
94908KDBQ DBQ20110405023010304/05/11 02:30:31  5-MIN KDBQ 050830Z AUTO 30008KT 10SM CLR M01/M04 A2979 1200 78 -400 300/08 RMK AO2 $
94908KDBQ DBQ20110405023510304/05/11 02:35:31  5-MIN KDBQ 050835Z AUTO 30008KT 10SM CLR M01/M04 A2979 1200 78 -400 300/08 RMK AO2 $
94908KDBQ DBQ20110405024010304/05/11 02:40:31  5-MIN KDBQ 050840Z AUTO 29008KT 10SM CLR M01/M04 A2979 1200 78 -400 290/08 RMK AO2 $
94908KDBQ DBQ20110405024510304/05/11 02:45:31  5-MIN KDBQ 050845Z AUTO 29008KT 10SM CLR M01/M04 A2979 1200 78 -400 290/08 RMK AO2 $
94908KDBQ DBQ20110405025012604/05/11 02:50:31  5-MIN KDBQ 050850Z AUTO 29007KT 10SM CLR M01/M04 A2979 1200 78 -400 290/07 RMK AO2 SLP096 T10111044 51012 $
94908KDBQ DBQ20110405025510304/05/11 02:55:31  5-MIN KDBQ 050855Z AUTO 29007KT 10SM CLR M01/M04 A2979 1200 78 -400 290/07 RMK AO2 $
94908KDBQ DBQ20110405030010304/05/11 03:00:31  5-MIN KDBQ 050900Z AUTO 29006KT 10SM CLR M02/M04 A2979 1200 81 -500 290/06 RMK AO2 $
94908KDBQ DBQ20110405030510304/05/11 03:05:31  5-MIN KDBQ 050905Z AUTO 29006KT 10SM CLR M02/M04 A2979 1200 81 -500 290/06 RMK AO2 $
94908KDBQ DBQ20110405031010304/05/11 03:10:31  5-MIN KDBQ 050910Z AUTO 30006KT 10SM CLR M02/M04 A2979 1200 81 -500 300/06 RMK AO2 $
94908KDBQ DBQ20110405031510304/05/11 03:15:31  5-MIN KDBQ 050915Z AUTO 29006KT 10SM CLR M02/M04 A2979 1190 81 -500 290/06 RMK AO2 $
94908KDBQ DBQ20110405032010304/05/11 03:20:31  5-MIN KDBQ 050920Z AUTO 29007KT 10SM CLR M02/M04 A2980 1190 81 -500 290/07 RMK AO2 $
94908KDBQ DBQ20110405032510304/05/11 03:25:31  5-MIN KDBQ 050925Z AUTO 29006KT 10SM CLR M02/M04 A2979 1190 81 -500 290/06 RMK AO2 $
94908KDBQ DBQ20110405033010304/05/11 03:30:31  5-MIN KDBQ 050930Z AUTO 29006KT 10SM CLR M02/M04 A2979 1190 81 -500 290/06 RMK AO2 $
94908KDBQ DBQ20110405033510304/05/11 03:35:31  5-MIN KDBQ 050935Z AUTO 29006KT 10SM CLR M02/M05 A2980 1190 78 -500 290/06 RMK AO2 $
94908KDBQ DBQ20110405034010304/05/11 03:40:31  5-MIN KDBQ 050940Z AUTO 28006KT 10SM CLR M02/M05 A2979 1190 81 -500 280/06 RMK AO2 $
94908KDBQ DBQ20110405034510304/05/11 03:45:31  5-MIN KDBQ 050945Z AUTO 28006KT 10SM CLR M02/M05 A2980 1190 81 -500 280/06 RMK AO2 $
94908KDBQ DBQ20110405035012004/05/11 03:50:31  5-MIN KDBQ 050950Z AUTO 31006KT 10SM CLR M02/M05 A2980 1190 81 -500 310/06 RMK AO2 SLP100 T10221050 $
94908KDBQ DBQ20110405035510304/05/11 03:55:31  5-MIN KDBQ 050955Z AUTO 30005KT 10SM CLR M02/M05 A2980 1190 81 -500 300/05 RMK AO2 $
94908KDBQ DBQ20110405040010304/05/11 04:00:31  5-MIN KDBQ 051000Z AUTO 30004KT 10SM CLR M02/M05 A2980 1190 81 -500 300/04 RMK AO2 $
94908KDBQ DBQ20110405040510304/05/11 04:05:31  5-MIN KDBQ 051005Z AUTO 30006KT 10SM CLR M02/M05 A2980 1190 81 -500 300/06 RMK AO2 $
94908KDBQ DBQ20110405041010304/05/11 04:10:31  5-MIN KDBQ 051010Z AUTO 29006KT 10SM CLR M02/M05 A2980 1190 81 -500 290/06 RMK AO2 $
94908KDBQ DBQ20110405041510304/05/11 04:15:31  5-MIN KDBQ 051015Z AUTO 30007KT 10SM CLR M02/M05 A2980 1190 81 -500 290/07 RMK AO2 $
94908KDBQ DBQ20110405042010304/05/11 04:20:31  5-MIN KDBQ 051020Z AUTO 30007KT 10SM CLR M02/M05 A2980 1190 81 -500 300/07 RMK AO2 $
94908KDBQ DBQ20110405042510304/05/11 04:25:31  5-MIN KDBQ 051025Z AUTO 30007KT 10SM CLR M02/M05 A2980 1190 81 -500 300/07 RMK AO2 $
94908KDBQ DBQ20110405043010304/05/11 04:30:31  5-MIN KDBQ 051030Z AUTO 29008KT 10SM CLR M02/M05 A2980 1190 81 -500 290/08 RMK AO2 $
94908KDBQ DBQ20110405043510304/05/11 04:35:31  5-MIN KDBQ 051035Z AUTO 29007KT 10SM CLR M02/M05 A2980 1190 78 -500 290/07 RMK AO2 $
94908KDBQ DBQ20110405044010304/05/11 04:40:31  5-MIN KDBQ 051040Z AUTO 30007KT 10SM CLR M02/M05 A2980 1190 81 -500 300/07 RMK AO2 $
94908KDBQ DBQ20110405044510304/05/11 04:45:31  5-MIN KDBQ 051045Z AUTO 29007KT 10SM CLR M02/M05 A2981 1180 81 -500 290/07 RMK AO2 $
94908KDBQ DBQ20110405045011504/05/11 04:50:31  5-MIN KDBQ 051050Z 28008KT 10SM CLR M02/M05 A2981 1180 81 -600 280/08 RMK AO2 SLP104 T10221050 $
94908KDBQ DBQ20110405045509804/05/11 04:55:31  5-MIN KDBQ 051055Z 28008KT 10SM CLR M02/M05 A2981 1180 81 -600 280/08 RMK AO2 $
94908KDBQ DBQ20110405050009804/05/11 05:00:31  5-MIN KDBQ 051100Z 29008KT 10SM CLR M02/M05 A2981 1180 81 -600 280/08 RMK AO2 $
94908KDBQ DBQ20110405050509804/05/11 05:05:31  5-MIN KDBQ 051105Z 28009KT 10SM CLR M02/M05 A2981 1180 81 -600 280/09 RMK AO2 $
94908KDBQ DBQ20110405051009804/05/11 05:10:31  5-MIN KDBQ 051110Z 27010KT 10SM CLR M02/M05 A2981 1180 81 -600 270/10 RMK AO2 $
94908KDBQ DBQ20110405051509804/05/11 05:15:31  5-MIN KDBQ 051115Z 28011KT 10SM CLR M02/M05 A2982 1180 81 -600 270/11 RMK AO2 $
94908KDBQ DBQ20110405052009804/05/11 05:20:31  5-MIN KDBQ 051120Z 27011KT 10SM CLR M02/M05 A2982 1170 81 -600 270/11 RMK AO2 $
94908KDBQ DBQ20110405052509804/05/11 05:25:31  5-MIN KDBQ 051125Z 28011KT 10SM CLR M02/M05 A2982 1170 81 -600 280/11 RMK AO2 $
94908KDBQ DBQ20110405053010104/05/11 05:30:31  5-MIN KDBQ 051130Z 28011KT 10SM SCT050 M02/M05 A2982 1170 81 -600 280/11 RMK AO2 $
94908KDBQ DBQ20110405053510104/05/11 05:35:31  5-MIN KDBQ 051135Z 28011KT 10SM BKN050 M02/M05 A2983 1160 78 -500 280/11 RMK AO2 $
94908KDBQ DBQ20110405054010104/05/11 05:40:31  5-MIN KDBQ 051140Z 28010KT 10SM BKN050 M02/M05 A2983 1160 78 -500 280/10 RMK AO2 $
94908KDBQ DBQ20110405054510104/05/11 05:45:31  5-MIN KDBQ 051145Z 28010KT 10SM BKN050 M02/M05 A2983 1160 78 -500 280/10 RMK AO2 $
94908KDBQ DBQ20110405055013604/05/11 05:50:31  5-MIN KDBQ 051150Z 27009KT 10SM OVC050 M02/M05 A2983 1160 78 -500 270/09 RMK AO2 SLP110 T10171050 10017 21022 52004 $
94908KDBQ DBQ20110405055510104/05/11 05:55:31  5-MIN KDBQ 051155Z 27010KT 10SM OVC050 M02/M04 A2983 1160 81 -500 270/10 RMK AO2 $
94908KDBQ DBQ20110405060010104/05/11 06:00:31  5-MIN KDBQ 051200Z 27008KT 10SM OVC050 M02/M05 A2983 1160 78 -500 270/08 RMK AO2 $
94908KDBQ DBQ20110405060509904/05/11 06:05:31  5-MIN KDBQ 051205Z 27010KT 10SM OVC050 M02/M05 A2983 1160 78 -500 270/10 RMK AO2
94908KDBQ DBQ20110405061009904/05/11 06:10:31  5-MIN KDBQ 051210Z 27011KT 10SM OVC050 M02/M05 A2984 1160 78 -500 270/11 RMK AO2
94908KDBQ DBQ20110405061509904/05/11 06:15:31  5-MIN KDBQ 051215Z 27013KT 10SM OVC050 M02/M05 A2984 1160 78 -500 270/13 RMK AO2
94908KDBQ DBQ20110405062009904/05/11 06:20:31  5-MIN KDBQ 051220Z 27011KT 10SM OVC050 M02/M04 A2984 1160 81 -500 270/11 RMK AO2
94908KDBQ DBQ20110405062509904/05/11 06:25:31  5-MIN KDBQ 051225Z 27011KT 10SM OVC050 M02/M04 A2984 1150 81 -500 270/11 RMK AO2
94908KDBQ DBQ20110405063009904/05/11 06:30:31  5-MIN KDBQ 051230Z 27011KT 10SM OVC050 M01/M04 A2984 1150 78 -400 270/11 RMK AO2
94908KDBQ DBQ20110405063509904/05/11 06:35:31  5-MIN KDBQ 051235Z 27010KT 10SM OVC050 M01/M04 A2984 1150 78 -500 270/10 RMK AO2
94908KDBQ DBQ20110405064009904/05/11 06:40:31  5-MIN KDBQ 051240Z 27011KT 10SM OVC050 M01/M04 A2984 1150 78 -500 270/11 RMK AO2
94908KDBQ DBQ20110405064509904/05/11 06:45:31  5-MIN KDBQ 051245Z 27010KT 10SM OVC050 M01/M04 A2985 1150 78 -500 260/10 RMK AO2
94908KDBQ DBQ20110405065011604/05/11 06:50:31  5-MIN KDBQ 051250Z 28009KT 10SM BKN050 M01/M04 A2984 1150 78 -500 270/09 RMK AO2 SLP115 T10111044
94908KDBQ DBQ20110405065510604/05/11 06:55:31  5-MIN KDBQ 051255Z 27009KT 10SM FEW037 OVC050 M01/M04 A2984 1150 81 -500 270/09 RMK AO2
94908KDBQ DBQ20110405070009904/05/11 07:00:31  5-MIN KDBQ 051300Z 27009KT 10SM OVC050 M01/M04 A2984 1150 78 -400 270/09 RMK AO2
94908KDBQ DBQ20110405070509904/05/11 07:05:31  5-MIN KDBQ 051305Z 27010KT 10SM OVC050 M01/M04 A2984 1150 78 -400 260/10 RMK AO2
94908KDBQ DBQ20110405071009904/05/11 07:10:31  5-MIN KDBQ 051310Z 26010KT 10SM OVC050 M01/M04 A2984 1150 78 -400 260/10 RMK AO2
94908KDBQ DBQ20110405071509904/05/11 07:15:31  5-MIN KDBQ 051315Z 26010KT 10SM BKN050 M01/M04 A2984 1150 78 -400 260/10 RMK AO2
94908KDBQ DBQ20110405072009904/05/11 07:20:31  5-MIN KDBQ 051320Z 26009KT 10SM BKN055 M01/M04 A2984 1160 78 -400 260/09 RMK AO2
94908KDBQ DBQ20110405072509804/05/11 07:25:31  5-MIN KDBQ 051325Z 26009KT 10SM SCT050 00/M03 A2984 1150 78 -300 260/09 RMK AO2
94908KDBQ DBQ20110405073009804/05/11 07:30:31  5-MIN KDBQ 051330Z 26011KT 10SM FEW050 01/M03 A2984 1150 75 -200 260/11 RMK AO2
94908KDBQ DBQ20110405073509804/05/11 07:35:31  5-MIN KDBQ 051335Z 27010KT 10SM FEW050 01/M03 A2984 1150 75 -200 270/10 RMK AO2
94908KDBQ DBQ20110405074009504/05/11 07:40:31  5-MIN KDBQ 051340Z 27009KT 10SM CLR 01/M03 A2984 1150 72 -200 270/09 RMK AO2
94908KDBQ DBQ20110405074509504/05/11 07:45:31  5-MIN KDBQ 051345Z 27010KT 10SM CLR 01/M03 A2984 1150 75 -200 260/10 RMK AO2
94908KDBQ DBQ20110405075011204/05/11 07:50:31  5-MIN KDBQ 051350Z 26009KT 10SM CLR 02/M03 A2984 1150 69 -100 260/09 RMK AO2 SLP112 T00171033
94908KDBQ DBQ20110405075509504/05/11 07:55:31  5-MIN KDBQ 051355Z 26010KT 10SM CLR 02/M03 A2984 1150 69 -100 260/10 RMK AO2
94908KDBQ DBQ20110405080009504/05/11 08:00:31  5-MIN KDBQ 051400Z 26009KT 10SM CLR 02/M03 A2984 1150 69 -100 260/09 RMK AO2
94908KDBQ DBQ20110405080509204/05/11 08:05:31  5-MIN KDBQ 051405Z 27010KT 10SM CLR 02/M03 A2984 1150 67 0 270/10 RMK AO2
94908KDBQ DBQ20110405081009204/05/11 08:10:31  5-MIN KDBQ 051410Z 27009KT 10SM CLR 02/M03 A2984 1150 67 0 260/09 RMK AO2
94908KDBQ DBQ20110405081509204/05/11 08:15:31  5-MIN KDBQ 051415Z 26009KT 10SM CLR 02/M03 A2984 1150 67 0 260/09 RMK AO2
94908KDBQ DBQ20110405082009204/05/11 08:20:31  5-MIN KDBQ 051420Z 26009KT 10SM CLR 03/M03 A2984 1150 67 0 260/09 RMK AO2
94908KDBQ DBQ20110405082509204/05/11 08:25:31  5-MIN KDBQ 051425Z 25012KT 10SM CLR 03/M03 A2984 1150 67 0 250/12 RMK AO2
94908KDBQ DBQ20110405083009204/05/11 08:30:31  5-MIN KDBQ 051430Z 27012KT 10SM CLR 03/M03 A2984 1150 67 0 270/12 RMK AO2
94908KDBQ DBQ20110405083509404/05/11 08:35:31  5-MIN KDBQ 051435Z 27010KT 10SM CLR 03/M03 A2984 1160 64 100 270/10 RMK AO2
94908KDBQ DBQ20110405084009404/05/11 08:40:31  5-MIN KDBQ 051440Z 27011KT 10SM CLR 03/M03 A2984 1160 64 100 270/11 RMK AO2
94908KDBQ DBQ20110405084509404/05/11 08:45:31  5-MIN KDBQ 051445Z 27011KT 10SM CLR 04/M03 A2983 1160 62 100 270/11 RMK AO2
94908KDBQ DBQ20110405085011704/05/11 08:50:31  5-MIN KDBQ 051450Z 28011KT 10SM CLR 04/M03 A2983 1160 62 100 280/11 RMK AO2 SLP111 T00391028 53013
94908KDBQ DBQ20110405085509404/05/11 08:55:31  5-MIN KDBQ 051455Z 28009KT 10SM CLR 04/M03 A2983 1160 59 200 270/09 RMK AO2
94908KDBQ DBQ20110405090009404/05/11 09:00:31  5-MIN KDBQ 051500Z 29010KT 10SM CLR 04/M02 A2983 1160 62 200 290/10 RMK AO2
94908KDBQ DBQ20110405090509404/05/11 09:05:31  5-MIN KDBQ 051505Z 27009KT 10SM CLR 05/M03 A2983 1160 57 300 270/09 RMK AO2
94908KDBQ DBQ20110405091009404/05/11 09:10:31  5-MIN KDBQ 051510Z 27008KT 10SM CLR 05/M03 A2983 1160 57 300 270/08 RMK AO2
94908KDBQ DBQ20110405091510004/05/11 09:15:31  5-MIN KDBQ 051515Z 28011G16KT 10SM CLR 05/M03 A2983 1160 57 300 280/11G16 RMK AO2
94908KDBQ DBQ20110405092009404/05/11 09:20:31  5-MIN KDBQ 051520Z 28010KT 10SM CLR 06/M03 A2983 1160 53 300 280/10 RMK AO2
94908KDBQ DBQ20110405092509404/05/11 09:25:31  5-MIN KDBQ 051525Z 29010KT 10SM CLR 06/M03 A2983 1160 55 300 290/10 RMK AO2
94908KDBQ DBQ20110405093009404/05/11 09:30:31  5-MIN KDBQ 051530Z 28009KT 10SM CLR 06/M03 A2983 1160 55 300 280/09 RMK AO2
94908KDBQ DBQ20110405093509404/05/11 09:35:31  5-MIN KDBQ 051535Z 30010KT 10SM CLR 06/M03 A2983 1170 53 400 300/10 RMK AO2
94908KDBQ DBQ20110405094009404/05/11 09:40:31  5-MIN KDBQ 051540Z 29009KT 10SM CLR 06/M03 A2983 1170 53 400 290/09 RMK AO2
94908KDBQ DBQ20110405094509404/05/11 09:45:31  5-MIN KDBQ 051545Z 29007KT 10SM CLR 06/M03 A2983 1170 53 400 280/07 RMK AO2
94908KDBQ DBQ20110405095012704/05/11 09:50:31  5-MIN KDBQ 051550Z 28009KT 250V310 10SM CLR 06/M03 A2982 1170 53 400 280/09 250V310 RMK AO2 SLP108 T00611028
94908KDBQ DBQ20110405095510004/05/11 09:55:31  5-MIN KDBQ 051555Z 27010G16KT 10SM CLR 07/M03 A2983 1170 51 500 270/10G16 RMK AO2
94908KDBQ DBQ20110405100010304/05/11 10:00:31  5-MIN KDBQ 051600Z 26009G16KT 10SM FEW038 06/M03 A2982 1170 51 400 260/09G16 RMK AO2
94908KDBQ DBQ20110405100509704/05/11 10:05:31  5-MIN KDBQ 051605Z 25009KT 10SM FEW038 07/M03 A2982 1170 51 500 250/09 RMK AO2
94908KDBQ DBQ20110405101010304/05/11 10:10:31  5-MIN KDBQ 051610Z 26013G16KT 10SM FEW038 07/M03 A2982 1170 47 600 260/13G16 RMK AO2
94908KDBQ DBQ20110405101510304/05/11 10:15:31  5-MIN KDBQ 051615Z 27010G17KT 10SM FEW038 07/M03 A2982 1170 47 600 270/10G17 RMK AO2
94908KDBQ DBQ20110405102010304/05/11 10:20:31  5-MIN KDBQ 051620Z 29010G17KT 10SM FEW038 07/M03 A2982 1170 49 600 290/10G17 RMK AO2
94908KDBQ DBQ20110405102510404/05/11 10:25:31  5-MIN KDBQ 051625Z 27008KT 10SM FEW038 SCT110 07/M03 A2982 1170 49 600 270/08 RMK AO2
94908KDBQ DBQ20110405103009704/05/11 10:30:31  5-MIN KDBQ 051630Z 29008KT 10SM BKN110 07/M03 A2982 1180 51 500 290/08 RMK AO2
94908KDBQ DBQ20110405103509704/05/11 10:35:31  5-MIN KDBQ 051635Z 25009KT 10SM BKN110 07/M03 A2981 1180 49 500 250/09 RMK AO2
94908KDBQ DBQ20110405104009704/05/11 10:40:31  5-MIN KDBQ 051640Z 26006KT 10SM BKN100 07/M03 A2981 1180 49 600 250/06 RMK AO2
94908KDBQ DBQ20110405104510304/05/11 10:45:31  5-MIN KDBQ 051645Z 28012G15KT 10SM OVC100 08/M03 A2981 1180 43 700 280/12G15 RMK AO2
94908KDBQ DBQ20110405105011404/05/11 10:50:31  5-MIN KDBQ 051650Z 28010KT 10SM OVC100 08/M03 A2981 1180 45 600 280/10 RMK AO2 SLP103 T00781033
94908KDBQ DBQ20110405105509704/05/11 10:55:31  5-MIN KDBQ 051655Z 26012KT 10SM BKN100 09/M03 A2981 1180 43 800 260/12 RMK AO2
94908KDBQ DBQ20110405110009704/05/11 11:00:31  5-MIN KDBQ 051700Z 26012KT 10SM BKN100 08/M03 A2981 1190 43 700 260/12 RMK AO2
94908KDBQ DBQ20110405110510404/05/11 11:05:31  5-MIN KDBQ 051705Z 26010KT 10SM BKN090 BKN110 08/M03 A2980 1190 43 700 260/10 RMK AO2
94908KDBQ DBQ20110405111011004/05/11 11:10:31  5-MIN KDBQ 051710Z 28008G16KT 10SM BKN090 BKN110 08/M03 A2980 1190 43 700 270/08G16 RMK AO2
94908KDBQ DBQ20110405111511004/05/11 11:15:31  5-MIN KDBQ 051715Z 28012G17KT 10SM BKN090 BKN110 09/M04 A2980 1190 40 800 280/12G17 RMK AO2
94908KDBQ DBQ20110405112010304/05/11 11:20:31  5-MIN KDBQ 051720Z 27010G17KT 10SM BKN090 08/M03 A2980 1190 43 700 270/10G17 RMK AO2
94908KDBQ DBQ20110405112509704/05/11 11:25:31  5-MIN KDBQ 051725Z 27011KT 10SM BKN090 08/M04 A2980 1190 42 700 270/11 RMK AO2
94908KDBQ DBQ20110405113010304/05/11 11:30:31  5-MIN KDBQ 051730Z 26012G17KT 10SM BKN085 08/M04 A2979 1200 43 700 260/12G17 RMK AO2
94908KDBQ DBQ20110405113511004/05/11 11:35:31  5-MIN KDBQ 051735Z 26019G24KT 10SM FEW060 BKN080 08/M04 A2979 1200 42 700 260/19G24 RMK AO2
94908KDBQ DBQ20110405114011704/05/11 11:40:31  5-MIN KDBQ 051740Z 26017G24KT 10SM FEW060 BKN080 BKN095 08/M03 A2979 1200 43 700 260/17G24 RMK AO2
94908KDBQ DBQ20110405114510304/05/11 11:45:31  5-MIN KDBQ 051745Z 26016G24KT 10SM SCT080 08/M03 A2979 1200 43 700 260/16G24 RMK AO2
94908KDBQ DBQ20110405115014504/05/11 11:50:31  5-MIN KDBQ 051750Z 27013G22KT 10SM FEW055 SCT075 09/M03 A2979 1200 43 800 260/13G22 RMK AO2 SLP094 T00891028 10089 21017 50000
94908KDBQ DBQ20110405115511704/05/11 11:55:31  5-MIN KDBQ 051755Z 26014G21KT 10SM FEW060 SCT070 BKN085 09/M03 A2979 1200 43 800 260/14G21 RMK AO2
94908KDBQ DBQ20110405120010304/05/11 12:00:31  5-MIN KDBQ 051800Z 27012G21KT 10SM BKN085 08/M03 A2978 1200 45 700 270/12G21 RMK AO2
94908KDBQ DBQ20110405120510304/05/11 12:05:31  5-MIN KDBQ 051805Z 28009G17KT 10SM BKN085 09/M03 A2978 1210 42 900 270/09G17 RMK AO2
94908KDBQ DBQ20110405121009704/05/11 12:10:31  5-MIN KDBQ 051810Z 27006KT 10SM BKN090 09/M03 A2978 1210 43 800 270/06 RMK AO2
94908KDBQ DBQ20110405121510304/05/11 12:15:31  5-MIN KDBQ 051815Z 23009G14KT 10SM OVC090 09/M02 A2977 1210 44 900 220/09G14 RMK AO2
94908KDBQ DBQ20110405122009704/05/11 12:20:31  5-MIN KDBQ 051820Z 25009KT 10SM OVC090 09/M02 A2977 1220 44 900 250/09 RMK AO2
94908KDBQ DBQ20110405122509704/05/11 12:25:31  5-MIN KDBQ 051825Z 29011KT 10SM BKN090 09/M02 A2977 1210 45 800 290/11 RMK AO2
94908KDBQ DBQ20110405123009704/05/11 12:30:31  5-MIN KDBQ 051830Z 27009KT 10SM BKN090 09/M02 A2977 1220 44 900 270/09 RMK AO2
94908KDBQ DBQ20110405123509704/05/11 12:35:31  5-MIN KDBQ 051835Z 29007KT 10SM BKN090 10/M02 A2977 1220 44 900 290/07 RMK AO2
94908KDBQ DBQ20110405124010404/05/11 12:40:31  5-MIN KDBQ 051840Z 25008KT 10SM SCT090 SCT110 09/M02 A2976 1230 45 800 240/08 RMK AO2
94908KDBQ DBQ20110405124511804/05/11 12:45:31  5-MIN KDBQ 051845Z 24011G17KT 10SM FEW050 SCT080 BKN110 11/M02 A2976 1230 42 1000 240/11G17 RMK AO2
94908KDBQ DBQ20110405125013404/05/11 12:50:31  5-MIN KDBQ 051850Z 23011G17KT 10SM SCT050 SCT080 SCT110 09/M03 A2976 1230 42 900 230/11G17 RMK AO2 SLP085 T00941028
94908KDBQ DBQ20110405125511804/05/11 12:55:31  5-MIN KDBQ 051855Z 23007G17KT 10SM SCT050 BKN080 BKN110 11/M03 A2976 1230 39 1000 230/07G17 RMK AO2
94908KDBQ DBQ20110405130011804/05/11 13:00:31  5-MIN KDBQ 051900Z 25012G18KT 10SM SCT050 BKN080 BKN110 11/M03 A2975 1240 37 1000 250/12G18 RMK AO2
94908KDBQ DBQ20110405130511204/05/11 13:05:31  5-MIN KDBQ 051905Z 24016KT 10SM SCT055 BKN080 BKN110 11/M03 A2976 1230 37 1000 240/16 RMK AO2
94908KDBQ DBQ20110405131011104/05/11 13:10:31  5-MIN KDBQ 051910Z 23015G18KT 10SM FEW050 BKN080 11/M04 A2975 1240 33 1100 230/15G18 RMK AO2
94908KDBQ DBQ20110405131511104/05/11 13:15:31  5-MIN KDBQ 051915Z 26015G21KT 10SM FEW055 BKN080 11/M04 A2975 1240 33 1100 260/15G21 RMK AO2
94908KDBQ DBQ20110405132011104/05/11 13:20:31  5-MIN KDBQ 051920Z 26014G21KT 10SM FEW050 OVC085 11/M04 A2975 1240 34 1000 260/14G21 RMK AO2
94908KDBQ DBQ20110405132510404/05/11 13:25:31  5-MIN KDBQ 051925Z 26010G17KT 10SM OVC085 11/M05 A2975 1240 33 1000 260/10G17 RMK AO2
94908KDBQ DBQ20110405133010404/05/11 13:30:31  5-MIN KDBQ 051930Z 25011G17KT 10SM OVC085 11/M04 A2975 1240 33 1100 250/11G17 RMK AO2
94908KDBQ DBQ20110405133509804/05/11 13:35:31  5-MIN KDBQ 051935Z 23011KT 10SM OVC085 11/M04 A2974 1240 36 1000 230/11 RMK AO2
94908KDBQ DBQ20110405134009804/05/11 13:40:31  5-MIN KDBQ 051940Z 22010KT 10SM OVC085 10/M04 A2974 1240 37 1000 220/10 RMK AO2
94908KDBQ DBQ20110405134509804/05/11 13:45:31  5-MIN KDBQ 051945Z 25006KT 10SM OVC090 11/M04 A2974 1250 36 1100 250/06 RMK AO2
94908KDBQ DBQ20110405135012104/05/11 13:50:31  5-MIN KDBQ 051950Z 23011G15KT 10SM OVC090 11/M03 A2974 1250 37 1100 230/11G15 RMK AO2 SLP078 T01061033
94908KDBQ DBQ20110405135511104/05/11 13:55:31  5-MIN KDBQ 051955Z 22009G15KT 10SM BKN090 BKN110 11/M03 A2973 1250 36 1100 220/09G15 RMK AO2
94908KDBQ DBQ20110405140011104/05/11 14:00:31  5-MIN KDBQ 052000Z 23012G18KT 10SM BKN090 BKN110 12/M03 A2973 1250 35 1200 230/12G18 RMK AO2
94908KDBQ DBQ20110405140510404/05/11 14:05:31  5-MIN KDBQ 052005Z 22015G21KT 10SM SCT095 12/M03 A2973 1250 35 1200 220/15G21 RMK AO2
94908KDBQ DBQ20110405141010404/05/11 14:10:31  5-MIN KDBQ 052010Z 21014G21KT 10SM SCT095 11/M04 A2973 1250 34 1100 210/14G21 RMK AO2
94908KDBQ DBQ20110405141510504/05/11 14:15:31  5-MIN KDBQ 052015Z 24016KT 10SM SCT090 SCT110 12/M04 A2973 1260 32 1300 240/16 RMK AO2
94908KDBQ DBQ20110405142010504/05/11 14:20:31  5-MIN KDBQ 052020Z 24013KT 10SM SCT090 SCT110 11/M05 A2973 1260 32 1100 240/13 RMK AO2
94908KDBQ DBQ20110405142510504/05/11 14:25:31  5-MIN KDBQ 052025Z 20012KT 10SM SCT100 SCT110 12/M04 A2973 1260 33 1200 200/12 RMK AO2
94908KDBQ DBQ20110405143009804/05/11 14:30:31  5-MIN KDBQ 052030Z 21013KT 10SM BKN100 11/M04 A2973 1260 33 1100 210/13 RMK AO2
94908KDBQ DBQ20110405143509804/05/11 14:35:31  5-MIN KDBQ 052035Z 19013KT 10SM BKN110 11/M04 A2973 1260 34 1100 190/13 RMK AO2
94908KDBQ DBQ20110405144009804/05/11 14:40:31  5-MIN KDBQ 052040Z 20013KT 10SM BKN110 12/M04 A2972 1260 33 1200 200/13 RMK AO2
94908KDBQ DBQ20110405144509804/05/11 14:45:31  5-MIN KDBQ 052045Z 23013KT 10SM BKN110 12/M03 A2972 1260 33 1300 230/13 RMK AO2
94908KDBQ DBQ20110405145012104/05/11 14:50:31  5-MIN KDBQ 052050Z 22013KT 10SM BKN110 12/M04 A2972 1270 32 1200 220/13 RMK AO2 SLP070 T01171044 58015
94908KDBQ DBQ20110405145510404/05/11 14:55:31  5-MIN KDBQ 052055Z 23012G19KT 10SM BKN110 12/M04 A2972 1270 32 1200 230/12G19 RMK AO2
94908KDBQ DBQ20110405150010404/05/11 15:00:31  5-MIN KDBQ 052100Z 22013G19KT 10SM BKN100 12/M04 A2971 1270 33 1200 220/13G19 RMK AO2
94908KDBQ DBQ20110405150509804/05/11 15:05:31  5-MIN KDBQ 052105Z 23012KT 10SM BKN100 12/M04 A2971 1270 33 1200 230/12 RMK AO2
94908KDBQ DBQ20110405151009804/05/11 15:10:31  5-MIN KDBQ 052110Z 22012KT 10SM BKN110 12/M04 A2971 1270 33 1200 220/12 RMK AO2
94908KDBQ DBQ20110405151509804/05/11 15:15:31  5-MIN KDBQ 052115Z 25015KT 10SM BKN110 12/M04 A2971 1270 32 1300 250/15 RMK AO2
94908KDBQ DBQ20110405152009804/05/11 15:20:31  5-MIN KDBQ 052120Z 22014KT 10SM BKN110 13/M04 A2971 1270 31 1300 220/14 RMK AO2
94908KDBQ DBQ20110405152509804/05/11 15:25:31  5-MIN KDBQ 052125Z 23011KT 10SM BKN110 13/M04 A2970 1280 30 1400 230/11 RMK AO2
94908KDBQ DBQ20110405153009804/05/11 15:30:31  5-MIN KDBQ 052130Z 21011KT 10SM BKN110 12/M04 A2970 1280 32 1300 210/11 RMK AO2
94908KDBQ DBQ20110405153510404/05/11 15:35:31  5-MIN KDBQ 052135Z 22014G19KT 10SM BKN110 13/M04 A2970 1290 31 1400 210/14G19 RMK AO2
94908KDBQ DBQ20110405154010404/05/11 15:40:31  5-MIN KDBQ 052140Z 23014G20KT 10SM BKN100 13/M04 A2969 1290 31 1400 230/14G20 RMK AO2
94908KDBQ DBQ20110405154510404/05/11 15:45:31  5-MIN KDBQ 052145Z 20012G20KT 10SM BKN100 13/M04 A2970 1280 31 1400 190/12G20 RMK AO2
94908KDBQ DBQ20110405155011504/05/11 15:50:31  5-MIN KDBQ 052150Z 20012KT 10SM BKN100 13/M04 A2970 1290 31 1400 200/12 RMK AO2 SLP063 T01281039
94908KDBQ DBQ20110405155509804/05/11 15:55:31  5-MIN KDBQ 052155Z 20014KT 10SM BKN100 13/M03 A2970 1280 32 1400 200/14 RMK AO2
94908KDBQ DBQ20110405160009804/05/11 16:00:31  5-MIN KDBQ 052200Z 19014KT 10SM BKN100 12/M04 A2970 1280 32 1300 190/14 RMK AO2
94908KDBQ DBQ20110405160509804/05/11 16:05:31  5-MIN KDBQ 052205Z 19015KT 10SM BKN100 13/M03 A2969 1290 32 1400 190/15 RMK AO2
94908KDBQ DBQ20110405161009804/05/11 16:10:31  5-MIN KDBQ 052210Z 20012KT 10SM BKN100 13/M04 A2969 1290 31 1400 200/12 RMK AO2
94908KDBQ DBQ20110405161509804/05/11 16:15:31  5-MIN KDBQ 052215Z 20012KT 10SM BKN100 13/M03 A2969 1290 32 1400 200/12 RMK AO2
94908KDBQ DBQ20110405162009804/05/11 16:20:31  5-MIN KDBQ 052220Z 20014KT 10SM BKN100 13/M04 A2969 1290 31 1400 200/14 RMK AO2
94908KDBQ DBQ20110405162509804/05/11 16:25:31  5-MIN KDBQ 052225Z 19014KT 10SM BKN100 13/M04 A2969 1290 31 1400 190/14 RMK AO2
94908KDBQ DBQ20110405163009804/05/11 16:30:31  5-MIN KDBQ 052230Z 19012KT 10SM BKN100 13/M03 A2969 1300 32 1400 190/12 RMK AO2
94908KDBQ DBQ20110405163509804/05/11 16:35:31  5-MIN KDBQ 052235Z 19014KT 10SM SCT100 13/M04 A2968 1300 31 1400 190/14 RMK AO2
94908KDBQ DBQ20110405164009804/05/11 16:40:31  5-MIN KDBQ 052240Z 21011KT 10SM SCT095 13/M03 A2968 1300 32 1400 200/11 RMK AO2
94908KDBQ DBQ20110405164509804/05/11 16:45:31  5-MIN KDBQ 052245Z 21010KT 10SM BKN095 13/M04 A2968 1300 31 1400 210/10 RMK AO2
94908KDBQ DBQ20110405165011504/05/11 16:50:31  5-MIN KDBQ 052250Z 19011KT 10SM BKN095 13/M04 A2968 1300 31 1400 190/11 RMK AO2 SLP058 T01281039
94908KDBQ DBQ20110405165509504/05/11 16:55:31  5-MIN KDBQ 052255Z 20013KT 10SM CLR 13/M04 A2968 1300 31 1400 200/13 RMK AO2
94908KDBQ DBQ20110405170009504/05/11 17:00:31  5-MIN KDBQ 052300Z 19011KT 10SM CLR 13/M03 A2968 1300 32 1400 190/11 RMK AO2
94908KDBQ DBQ20110405170509504/05/11 17:05:31  5-MIN KDBQ 052305Z 19011KT 10SM CLR 13/M04 A2968 1300 31 1400 190/11 RMK AO2
94908KDBQ DBQ20110405171009504/05/11 17:10:31  5-MIN KDBQ 052310Z 19012KT 10SM CLR 13/M04 A2967 1310 31 1400 190/12 RMK AO2
94908KDBQ DBQ20110405171509504/05/11 17:15:31  5-MIN KDBQ 052315Z 19009KT 10SM CLR 13/M04 A2967 1310 31 1400 190/09 RMK AO2
94908KDBQ DBQ20110405172009504/05/11 17:20:31  5-MIN KDBQ 052320Z 19012KT 10SM CLR 13/M04 A2967 1310 31 1400 190/12 RMK AO2
94908KDBQ DBQ20110405172509504/05/11 17:25:31  5-MIN KDBQ 052325Z 19008KT 10SM CLR 13/M03 A2967 1310 32 1400 180/08 RMK AO2
94908KDBQ DBQ20110405173009504/05/11 17:30:31  5-MIN KDBQ 052330Z 18010KT 10SM CLR 13/M04 A2967 1310 31 1400 180/10 RMK AO2
94908KDBQ DBQ20110405173509504/05/11 17:35:31  5-MIN KDBQ 052335Z 17011KT 10SM CLR 12/M03 A2967 1310 35 1300 170/11 RMK AO2
94908KDBQ DBQ20110405174009504/05/11 17:40:31  5-MIN KDBQ 052340Z 17009KT 10SM CLR 12/M03 A2967 1310 36 1300 160/09 RMK AO2
94908KDBQ DBQ20110405174509504/05/11 17:45:31  5-MIN KDBQ 052345Z 17009KT 10SM CLR 12/M03 A2967 1310 36 1300 170/09 RMK AO2
94908KDBQ DBQ20110405175013004/05/11 17:50:31  5-MIN KDBQ 052350Z 17009KT 10SM CLR 11/M02 A2966 1320 39 1200 170/09 RMK AO2 SLP052 T01111022 10133 20083 56024
94908KDBQ DBQ20110405175509504/05/11 17:55:31  5-MIN KDBQ 052355Z 16008KT 10SM CLR 11/M02 A2966 1320 40 1100 160/08 RMK AO2
94908KDBQ DBQ20110405180009504/05/11 18:00:31  5-MIN KDBQ 060000Z 16009KT 10SM CLR 11/M03 A2966 1320 39 1100 160/09 RMK AO2
94908KDBQ DBQ20110405180509504/05/11 18:05:31  5-MIN KDBQ 060005Z 16009KT 10SM CLR 11/M02 A2966 1320 40 1100 160/09 RMK AO2
94908KDBQ DBQ20110405181009504/05/11 18:10:31  5-MIN KDBQ 060010Z 16008KT 10SM CLR 11/M02 A2966 1320 40 1100 160/08 RMK AO2
94908KDBQ DBQ20110405181509504/05/11 18:15:31  5-MIN KDBQ 060015Z 16009KT 10SM CLR 10/M02 A2966 1320 42 1100 160/09 RMK AO2
94908KDBQ DBQ20110405182009504/05/11 18:20:31  5-MIN KDBQ 060020Z 15009KT 10SM CLR 09/M02 A2966 1320 44 1000 150/09 RMK AO2
94908KDBQ DBQ20110405182509504/05/11 18:25:31  5-MIN KDBQ 060025Z 15009KT 10SM CLR 10/M03 A2966 1320 40 1100 150/09 RMK AO2
94908KDBQ DBQ20110405183009504/05/11 18:30:31  5-MIN KDBQ 060030Z 15008KT 10SM CLR 09/M02 A2966 1320 44 1000 150/08 RMK AO2
94908KDBQ DBQ20110405183509504/05/11 18:35:31  5-MIN KDBQ 060035Z 14006KT 10SM CLR 09/M03 A2966 1320 42 1000 140/06 RMK AO2
94908KDBQ DBQ20110405184009504/05/11 18:40:31  5-MIN KDBQ 060040Z 14007KT 10SM CLR 09/M03 A2966 1320 42 1000 140/07 RMK AO2
94908KDBQ DBQ20110405184509504/05/11 18:45:31  5-MIN KDBQ 060045Z 14007KT 10SM CLR 09/M03 A2966 1320 42 1000 140/07 RMK AO2
94908KDBQ DBQ20110405185011204/05/11 18:50:31  5-MIN KDBQ 060050Z 14006KT 10SM CLR 09/M03 A2966 1320 42 1000 140/06 RMK AO2 SLP053 T00941028
94908KDBQ DBQ20110405185509504/05/11 18:55:31  5-MIN KDBQ 060055Z 13007KT 10SM CLR 09/M03 A2966 1320 40 1000 130/07 RMK AO2
94908KDBQ DBQ20110405190009804/05/11 19:00:31  5-MIN KDBQ 060100Z 14007KT 10SM FEW120 09/M03 A2966 1320 42 1000 130/07 RMK AO2
94908KDBQ DBQ20110405190509804/05/11 19:05:31  5-MIN KDBQ 060105Z 14007KT 10SM SCT120 09/M03 A2966 1320 42 1000 140/07 RMK AO2
94908KDBQ DBQ20110405191010304/05/11 19:10:31  5-MIN KDBQ 060110Z AUTO 14006KT 10SM SCT120 09/M03 A2966 1320 42 1000 140/06 RMK AO2
94908KDBQ DBQ20110405191510204/05/11 19:15:31  5-MIN KDBQ 060115Z AUTO 14006KT 10SM SCT110 09/M03 A2966 1320 43 900 140/06 RMK AO2
94908KDBQ DBQ20110405192010904/05/11 19:20:31  5-MIN KDBQ 060120Z AUTO 14006KT 10SM FEW100 SCT120 09/M03 A2966 1320 43 900 140/06 RMK AO2
94908KDBQ DBQ20110405192510204/05/11 19:25:31  5-MIN KDBQ 060125Z AUTO 15007KT 10SM BKN110 09/M02 A2966 1320 45 900 140/07 RMK AO2
94908KDBQ DBQ20110405193010204/05/11 19:30:31  5-MIN KDBQ 060130Z AUTO 15007KT 10SM BKN100 09/M02 A2966 1320 45 900 150/07 RMK AO2
94908KDBQ DBQ20110405193510904/05/11 19:35:31  5-MIN KDBQ 060135Z AUTO 14007KT 10SM SCT100 BKN120 09/M02 A2966 1320 45 900 140/07 RMK AO2
94908KDBQ DBQ20110405194010204/05/11 19:40:31  5-MIN KDBQ 060140Z AUTO 15006KT 10SM BKN110 09/M02 A2966 1320 45 900 150/06 RMK AO2
94908KDBQ DBQ20110405194510304/05/11 19:45:31  5-MIN KDBQ 060145Z AUTO 15007KT 10SM OVC110 09/M02 A2966 1320 44 1000 150/07 RMK AO2
94908KDBQ DBQ20110405195013404/05/11 19:50:31  5-MIN KDBQ 060150Z AUTO 15008KT 10SM FEW080 BKN095 OVC110 09/M02 A2966 1320 44 1000 150/08 RMK AO2 SLP049 T00941022
94908KDBQ DBQ20110405195511004/05/11 19:55:31  5-MIN KDBQ 060155Z AUTO 15008KT 10SM BKN090 OVC110 09/M02 A2966 1320 44 1000 150/08 RMK AO2
94908KDBQ DBQ20110405200010304/05/11 20:00:31  5-MIN KDBQ 060200Z AUTO 15007KT 10SM OVC110 09/M02 A2966 1320 44 1000 140/07 RMK AO2
94908KDBQ DBQ20110405200510304/05/11 20:05:31  5-MIN KDBQ 060205Z AUTO 14007KT 10SM OVC100 09/M02 A2967 1320 44 1000 140/07 RMK AO2
94908KDBQ DBQ20110405201011004/05/11 20:10:31  5-MIN KDBQ 060210Z AUTO 15006KT 10SM SCT100 OVC110 10/M02 A2967 1310 42 1100 150/06 RMK AO2
94908KDBQ DBQ20110405201511004/05/11 20:15:31  5-MIN KDBQ 060215Z AUTO 17006KT 10SM BKN085 OVC110 09/M02 A2967 1310 44 1000 170/06 RMK AO2
94908KDBQ DBQ20110405202011004/05/11 20:20:31  5-MIN KDBQ 060220Z AUTO 17006KT 10SM BKN080 OVC110 09/M02 A2967 1310 45 1000 170/06 RMK AO2
94908KDBQ DBQ20110405202511004/05/11 20:25:31  5-MIN KDBQ 060225Z AUTO 19005KT 10SM BKN080 OVC110 09/M01 A2967 1310 47 1000 190/05 RMK AO2
94908KDBQ DBQ20110405203011704/05/11 20:30:31  5-MIN KDBQ 060230Z AUTO 17005KT 10SM BKN075 BKN100 OVC110 09/M01 A2967 1310 47 1000 170/05 RMK AO2
94908KDBQ DBQ20110405203511004/05/11 20:35:31  5-MIN KDBQ 060235Z AUTO 20004KT 10SM BKN075 OVC100 09/M01 A2967 1310 47 1000 200/04 RMK AO2
94908KDBQ DBQ20110405204010904/05/11 20:40:31  5-MIN KDBQ 060240Z AUTO 17005KT 10SM BKN075 OVC100 09/M01 A2967 1310 49 900 170/05 RMK AO2
94908KDBQ DBQ20110405204510904/05/11 20:45:31  5-MIN KDBQ 060245Z AUTO 18007KT 10SM BKN075 OVC100 09/M01 A2967 1310 49 900 180/07 RMK AO2
94908KDBQ DBQ20110405205013204/05/11 20:50:31  5-MIN KDBQ 060250Z AUTO 17006KT 10SM SCT075 OVC100 09/M01 A2967 1310 49 900 170/06 RMK AO2 SLP054 T00891011 56017
94908KDBQ DBQ20110405205510904/05/11 20:55:31  5-MIN KDBQ 060255Z AUTO 16003KT 10SM FEW075 OVC110 09/M01 A2967 1310 49 900 160/03 RMK AO2
94908KDBQ DBQ20110405210010904/05/11 21:00:31  5-MIN KDBQ 060300Z AUTO 20004KT 10SM FEW080 OVC110 09/M01 A2967 1310 49 900 200/04 RMK AO2
94908KDBQ DBQ20110405210510904/05/11 21:05:31  5-MIN KDBQ 060305Z AUTO 22004KT 10SM SCT085 OVC110 09/M01 A2968 1300 49 900 220/04 RMK AO2
94908KDBQ DBQ20110405211011604/05/11 21:10:31  5-MIN KDBQ 060310Z AUTO 19005KT 10SM SCT080 BKN095 BKN120 09/M01 A2968 1310 49 900 190/05 RMK AO2
94908KDBQ DBQ20110405211510904/05/11 21:15:31  5-MIN KDBQ 060315Z AUTO 16004KT 10SM SCT085 BKN120 08/M01 A2967 1310 51 900 160/04 RMK AO2
94908KDBQ DBQ20110405212010904/05/11 21:20:31  5-MIN KDBQ 060320Z AUTO 30004KT 10SM SCT090 BKN120 08/M01 A2967 1310 53 900 300/04 RMK AO2
94908KDBQ DBQ20110405212511004/05/11 21:25:31  5-MIN KDBQ 060325Z AUTO 00000KT 10SM SCT085 OVC110 09/M01 A2967 1310 47 1000 000/00 RMK AO2
94908KDBQ DBQ20110405213010904/05/11 21:30:31  5-MIN KDBQ 060330Z AUTO 18005KT 10SM SCT080 OVC110 09/M01 A2967 1310 49 900 170/05 RMK AO2
94908KDBQ DBQ20110405213510904/05/11 21:35:31  5-MIN KDBQ 060335Z AUTO 19006KT 10SM BKN080 OVC110 09/M01 A2967 1310 49 900 190/06 RMK AO2
94908KDBQ DBQ20110405214011004/05/11 21:40:31  5-MIN KDBQ 060340Z AUTO 19003KT 10SM BKN080 OVC110 09/M01 A2967 1310 49 1000 190/03 RMK AO2
94908KDBQ DBQ20110405214511604/05/11 21:45:31  5-MIN KDBQ 060345Z AUTO 15004KT 10SM SCT075 BKN090 OVC110 09/M01 A2966 1320 51 900 150/04 RMK AO2
94908KDBQ DBQ20110405215013304/05/11 21:50:31  5-MIN KDBQ 060350Z AUTO 15005KT 10SM SCT075 BKN090 OVC110 09/M01 A2966 1320 51 900 150/05 RMK AO2 SLP048 T00891006
94908KDBQ DBQ20110405215511004/05/11 21:55:31  5-MIN KDBQ 060355Z AUTO 16006KT 10SM BKN080 OVC095 09/M01 A2966 1320 47 1000 160/06 RMK AO2
94908KDBQ DBQ20110405220011004/05/11 22:00:31  5-MIN KDBQ 060400Z AUTO VRB04KT 10SM BKN080 OVC100 09/M01 A2965 1330 47 1000 VRB/04 RMK AO2
94908KDBQ DBQ20110405220511004/05/11 22:05:31  5-MIN KDBQ 060405Z AUTO 17004KT 10SM FEW080 OVC095 10/M01 A2966 1320 46 1100 160/04 RMK AO2
94908KDBQ DBQ20110405221010304/05/11 22:10:31  5-MIN KDBQ 060410Z AUTO 00000KT 10SM OVC090 09/M01 A2966 1320 47 1000 000/00 RMK AO2
94908KDBQ DBQ20110405221510304/05/11 22:15:31  5-MIN KDBQ 060415Z AUTO 00000KT 10SM OVC085 09/M01 A2965 1330 47 1000 000/00 RMK AO2
94908KDBQ DBQ20110405222010304/05/11 22:20:31  5-MIN KDBQ 060420Z AUTO 17004KT 10SM OVC085 09/M01 A2966 1320 47 1000 170/04 RMK AO2
94908KDBQ DBQ20110405222510304/05/11 22:25:31  5-MIN KDBQ 060425Z AUTO 20003KT 10SM OVC085 09/M01 A2966 1320 47 1000 200/03 RMK AO2
94908KDBQ DBQ20110405223010304/05/11 22:30:31  5-MIN KDBQ 060430Z AUTO 00000KT 10SM OVC080 09/M01 A2966 1320 47 1000 000/00 RMK AO2
94908KDBQ DBQ20110405223510304/05/11 22:35:31  5-MIN KDBQ 060435Z AUTO 00000KT 10SM OVC075 09/M01 A2965 1330 47 1000 000/00 RMK AO2
94908KDBQ DBQ20110405224010304/05/11 22:40:31  5-MIN KDBQ 060440Z AUTO 12004KT 10SM OVC070 09/M01 A2964 1340 47 1000 120/04 RMK AO2
94908KDBQ DBQ20110405224510304/05/11 22:45:31  5-MIN KDBQ 060445Z AUTO 16004KT 10SM OVC070 09/M01 A2964 1340 47 1000 160/04 RMK AO2
94908KDBQ DBQ20110405225013304/05/11 22:50:31  5-MIN KDBQ 060450Z AUTO 19004KT 10SM BKN070 BKN090 OVC120 08/M01 A2965 1330 53 900 190/04 RMK AO2 SLP044 T00831006
94908KDBQ DBQ20110405225511504/05/11 22:55:31  5-MIN KDBQ 060455Z AUTO 16003KT 10SM BKN075 BKN090 OVC110 08/00 A2964 1340 55 900 160/03 RMK AO2
94908KDBQ DBQ20110405230010804/05/11 23:00:31  5-MIN KDBQ 060500Z AUTO 18005KT 10SM BKN075 OVC100 08/00 A2965 1330 55 900 180/05 RMK AO2
94908KDBQ DBQ20110405230510804/05/11 23:05:31  5-MIN KDBQ 060505Z AUTO 19004KT 10SM SCT080 OVC100 08/00 A2965 1330 55 900 180/04 RMK AO2
94908KDBQ DBQ20110405231010104/05/11 23:10:31  5-MIN KDBQ 060510Z AUTO 19004KT 10SM OVC095 08/00 A2965 1320 58 800 190/04 RMK AO2
94908KDBQ DBQ20110405231510204/05/11 23:15:31  5-MIN KDBQ 060515Z AUTO 16004KT 10SM BKN095 08/M01 A2965 1330 53 900 160/04 RMK AO2
94908KDBQ DBQ20110405232010204/05/11 23:20:31  5-MIN KDBQ 060520Z AUTO 14003KT 10SM OVC090 08/M01 A2964 1340 53 900 140/03 RMK AO2
94908KDBQ DBQ20110405232510304/05/11 23:25:31  5-MIN KDBQ 060525Z AUTO 00000KT 10SM BKN090 09/M01 A2964 1340 51 1000 000/00 RMK AO2
94908KDBQ DBQ20110405233010304/05/11 23:30:31  5-MIN KDBQ 060530Z AUTO 17003KT 10SM BKN095 09/M01 A2964 1340 51 1000 170/03 RMK AO2
94908KDBQ DBQ20110405233510304/05/11 23:35:31  5-MIN KDBQ 060535Z AUTO 18003KT 10SM OVC100 09/M01 A2964 1340 51 1000 180/03 RMK AO2
94908KDBQ DBQ20110405234010904/05/11 23:40:31  5-MIN KDBQ 060540Z AUTO 20004KT 10SM SCT090 OVC100 08/M01 A2964 1340 53 900 200/04 RMK AO2
94908KDBQ DBQ20110405234510904/05/11 23:45:31  5-MIN KDBQ 060545Z AUTO 18005KT 10SM FEW085 OVC100 08/M01 A2964 1340 53 900 180/05 RMK AO2
94908KDBQ DBQ20110405235014704/05/11 23:50:31  5-MIN KDBQ 060550Z AUTO 18005KT 10SM OVC100 08/M01 A2964 1340 53 900 170/05 RMK AO2 SLP041 T00831006 10106 20078 401331022 53002
94908KDBQ DBQ20110405235510204/05/11 23:55:31  5-MIN KDBQ 060555Z AUTO 19003KT 10SM OVC100 08/M01 A2964 1340 53 900 180/03 RMK AO2
94908KDBQ DBQ20110406000010104/06/11 00:00:38  5-MIN KDBQ 060600Z AUTO 19004KT 10SM OVC100 08/00 A2964 1340 55 900 180/04 RMK AO2
94908KDBQ DBQ20110406000510804/06/11 00:05:31  5-MIN KDBQ 060605Z AUTO 18003KT 10SM BKN085 OVC100 08/00 A2964 1340 58 800 180/03 RMK AO2
94908KDBQ DBQ20110406001010804/06/11 00:10:31  5-MIN KDBQ 060610Z AUTO 18003KT 10SM BKN080 OVC100 08/00 A2964 1340 55 900 180/03 RMK AO2
94908KDBQ DBQ20110406001510804/06/11 00:15:32  5-MIN KDBQ 060615Z AUTO 15003KT 10SM BKN080 OVC100 08/00 A2964 1340 55 900 150/03 RMK AO2
94908KDBQ DBQ20110406002011004/06/11 00:20:31  5-MIN KDBQ 060620Z AUTO 00000KT 10SM BKN080 OVC100 09/M01 A2964 1340 51 1000 000/00 RMK AO2
94908KDBQ DBQ20110406002511004/06/11 00:25:31  5-MIN KDBQ 060625Z AUTO 00000KT 10SM SCT075 OVC090 09/M01 A2965 1330 51 1000 000/00 RMK AO2
94908KDBQ DBQ20110406003010804/06/11 00:30:31  5-MIN KDBQ 060630Z AUTO 00000KT 10SM SCT075 OVC090 08/00 A2965 1320 55 900 000/00 RMK AO2
94908KDBQ DBQ20110406003510804/06/11 00:35:31  5-MIN KDBQ 060635Z AUTO 04004KT 10SM FEW070 OVC090 08/01 A2965 1330 60 800 040/04 RMK AO2
94908KDBQ DBQ20110406004010804/06/11 00:40:31  5-MIN KDBQ 060640Z AUTO 03006KT 10SM FEW075 OVC090 08/01 A2964 1340 60 800 030/06 RMK AO2
94908KDBQ DBQ20110406004510804/06/11 00:45:31  5-MIN KDBQ 060645Z AUTO 06003KT 10SM SCT075 OVC090 08/01 A2965 1330 60 800 060/03 RMK AO2
94908KDBQ DBQ20110406005012504/06/11 00:50:31  5-MIN KDBQ 060650Z AUTO 04005KT 10SM SCT070 OVC090 08/01 A2964 1340 60 800 030/05 RMK AO2 SLP041 T00780006
94908KDBQ DBQ20110406005510804/06/11 00:55:31  5-MIN KDBQ 060655Z AUTO 02008KT 10SM SCT070 OVC090 08/01 A2963 1350 60 800 020/08 RMK AO2
94908KDBQ DBQ20110406010010804/06/11 01:00:31  5-MIN KDBQ 060700Z AUTO 03007KT 10SM BKN080 OVC100 08/00 A2963 1350 58 800 030/07 RMK AO2
94908KDBQ DBQ20110406010510804/06/11 01:05:31  5-MIN KDBQ 060705Z AUTO 03008KT 10SM SCT080 OVC100 08/00 A2962 1350 58 900 030/08 RMK AO2
94908KDBQ DBQ20110406011010804/06/11 01:10:31  5-MIN KDBQ 060710Z AUTO 01009KT 10SM SCT075 OVC100 08/00 A2962 1350 58 800 010/09 RMK AO2
94908KDBQ DBQ20110406011510804/06/11 01:15:31  5-MIN KDBQ 060715Z AUTO 02008KT 10SM FEW075 OVC100 08/00 A2964 1340 58 800 020/08 RMK AO2
94908KDBQ DBQ20110406012010804/06/11 01:20:31  5-MIN KDBQ 060720Z AUTO 01005KT 10SM BKN090 OVC110 08/00 A2965 1330 58 800 010/05 RMK AO2
94908KDBQ DBQ20110406012510904/06/11 01:25:31  5-MIN KDBQ 060725Z AUTO 00000KT 10SM BKN090 OVC110 08/M01 A2965 1330 55 800 000/00 RMK AO2
94908KDBQ DBQ20110406013010904/06/11 01:30:31  5-MIN KDBQ 060730Z AUTO 00000KT 10SM BKN090 OVC110 08/M01 A2965 1330 55 800 000/00 RMK AO2
94908KDBQ DBQ20110406013510104/06/11 01:35:31  5-MIN KDBQ 060735Z AUTO 05006KT 10SM OVC080 07/00 A2964 1340 60 800 050/06 RMK AO2
94908KDBQ DBQ20110406014010804/06/11 01:40:31  5-MIN KDBQ 060740Z AUTO 07005KT 10SM BKN075 OVC090 07/01 A2963 1350 62 800 070/05 RMK AO2
94908KDBQ DBQ20110406014510804/06/11 01:45:31  5-MIN KDBQ 060745Z AUTO 05008KT 10SM BKN080 BKN095 08/00 A2963 1350 58 800 040/08 RMK AO2
94908KDBQ DBQ20110406015013304/06/11 01:50:31  5-MIN KDBQ 060750Z AUTO 05011KT 10SM BKN085 BKN110 08/M01 A2961 1360 55 900 050/11 RMK AO2 PRESFR SLP031 T00781006
94908KDBQ DBQ20110406015510904/06/11 01:55:31  5-MIN KDBQ 060755Z AUTO 03008KT 10SM SCT085 BKN110 08/M01 A2962 1360 55 900 030/08 RMK AO2
94908KDBQ DBQ20110406020010804/06/11 02:00:31  5-MIN KDBQ 060800Z AUTO 03008KT 10SM BKN090 BKN110 07/00 A2962 1350 60 800 030/08 RMK AO2
94908KDBQ DBQ20110406020510804/06/11 02:05:31  5-MIN KDBQ 060805Z AUTO 03008KT 10SM BKN100 BKN120 07/00 A2962 1350 60 800 030/08 RMK AO2
94908KDBQ DBQ20110406021010804/06/11 02:10:31  5-MIN KDBQ 060810Z AUTO 05007KT 10SM BKN100 OVC120 07/00 A2962 1350 60 800 050/07 RMK AO2
94908KDBQ DBQ20110406021510204/06/11 02:15:31  5-MIN KDBQ 060815Z AUTO 08004KT 10SM OVC100 08/M01 A2963 1350 55 800 080/04 RMK AO2
94908KDBQ DBQ20110406022010204/06/11 02:20:31  5-MIN KDBQ 060820Z AUTO 11004KT 10SM OVC100 07/M01 A2963 1350 57 800 110/04 RMK AO2
94908KDBQ DBQ20110406022510104/06/11 02:25:31  5-MIN KDBQ 060825Z AUTO 10004KT 10SM OVC100 07/00 A2963 1340 60 800 100/04 RMK AO2
94908KDBQ DBQ20110406023010204/06/11 02:30:31  5-MIN KDBQ 060830Z AUTO 11005KT 10SM OVC100 07/M01 A2963 1350 57 800 100/05 RMK AO2
94908KDBQ DBQ20110406023510204/06/11 02:35:31  5-MIN KDBQ 060835Z AUTO 10007KT 10SM OVC100 08/M01 A2963 1350 55 800 100/07 RMK AO2
94908KDBQ DBQ20110406024010204/06/11 02:40:31  5-MIN KDBQ 060840Z AUTO 10007KT 10SM OVC100 08/M01 A2963 1350 55 800 100/07 RMK AO2
94908KDBQ DBQ20110406024510204/06/11 02:45:31  5-MIN KDBQ 060845Z AUTO 11006KT 10SM OVC100 08/M01 A2963 1350 55 800 110/06 RMK AO2
94908KDBQ DBQ20110406025012504/06/11 02:50:31  5-MIN KDBQ 060850Z AUTO 11005KT 10SM OVC100 08/M01 A2963 1340 55 800 110/05 RMK AO2 SLP038 T00781006 56010
94908KDBQ DBQ20110406025510204/06/11 02:55:31  5-MIN KDBQ 060855Z AUTO 10003KT 10SM OVC100 08/M01 A2964 1340 55 800 100/03 RMK AO2
94908KDBQ DBQ20110406030010104/06/11 03:00:31  5-MIN KDBQ 060900Z AUTO 10005KT 10SM OVC095 07/00 A2964 1340 62 700 090/05 RMK AO2
94908KDBQ DBQ20110406030510104/06/11 03:05:31  5-MIN KDBQ 060905Z AUTO 07005KT 10SM OVC095 07/01 A2963 1350 65 700 070/05 RMK AO2
94908KDBQ DBQ20110406031010804/06/11 03:10:31  5-MIN KDBQ 060910Z AUTO 07007KT 10SM BKN095 OVC110 07/00 A2963 1350 60 800 070/07 RMK AO2
94908KDBQ DBQ20110406031510204/06/11 03:15:31  5-MIN KDBQ 060915Z AUTO 04006KT 10SM OVC100 07/M01 A2963 1350 57 800 040/06 RMK AO2
94908KDBQ DBQ20110406032010804/06/11 03:20:31  5-MIN KDBQ 060920Z AUTO 03006KT 10SM BKN090 OVC110 07/00 A2962 1360 60 800 030/06 RMK AO2
94908KDBQ DBQ20110406032510804/06/11 03:25:31  5-MIN KDBQ 060925Z AUTO 04007KT 10SM BKN100 OVC110 07/00 A2962 1360 62 700 040/07 RMK AO2
94908KDBQ DBQ20110406033010804/06/11 03:30:31  5-MIN KDBQ 060930Z AUTO 04007KT 10SM BKN100 OVC120 07/00 A2962 1360 62 700 040/07 RMK AO2
94908KDBQ DBQ20110406033510104/06/11 03:35:31  5-MIN KDBQ 060935Z AUTO 03006KT 10SM OVC100 07/00 A2962 1350 62 700 030/06 RMK AO2
94908KDBQ DBQ20110406034010104/06/11 03:40:31  5-MIN KDBQ 060940Z AUTO 06003KT 10SM OVC100 07/00 A2962 1350 62 700 060/03 RMK AO2
94908KDBQ DBQ20110406034510804/06/11 03:45:31  5-MIN KDBQ 060945Z AUTO 00000KT 10SM BKN100 OVC110 07/00 A2963 1350 60 800 000/00 RMK AO2
94908KDBQ DBQ20110406035012504/06/11 03:50:31  5-MIN KDBQ 060950Z AUTO 16004KT 10SM BKN100 OVC110 07/00 A2963 1350 62 700 160/04 RMK AO2 SLP038 T00670000
94908KDBQ DBQ20110406035510804/06/11 03:55:31  5-MIN KDBQ 060955Z AUTO 11005KT 10SM BKN100 OVC120 07/00 A2962 1350 60 800 110/05 RMK AO2
94908KDBQ DBQ20110406040010804/06/11 04:00:31  5-MIN KDBQ 061000Z AUTO 11004KT 10SM SCT100 OVC120 07/00 A2962 1360 60 800 100/04 RMK AO2
94908KDBQ DBQ20110406040510804/06/11 04:05:31  5-MIN KDBQ 061005Z AUTO 09008KT 10SM SCT100 OVC110 07/00 A2962 1360 60 800 080/08 RMK AO2
94908KDBQ DBQ20110406041010804/06/11 04:10:31  5-MIN KDBQ 061010Z AUTO 08011KT 10SM OVC110 07/00 A2960 1380 60 800 080/11 RMK AO2 PRESFR
94908KDBQ DBQ20110406041510104/06/11 04:15:31  5-MIN KDBQ 061015Z AUTO 36007KT 10SM OVC110 07/00 A2961 1370 60 800 360/07 RMK AO2
94908KDBQ DBQ20110406042010104/06/11 04:20:31  5-MIN KDBQ 061020Z AUTO 36008KT 10SM OVC110 07/01 A2961 1360 65 700 350/08 RMK AO2
94908KDBQ DBQ20110406042510104/06/11 04:25:31  5-MIN KDBQ 061025Z AUTO 04007KT 10SM OVC110 07/01 A2961 1370 65 700 040/07 RMK AO2
94908KDBQ DBQ20110406043010104/06/11 04:30:31  5-MIN KDBQ 061030Z AUTO 05007KT 10SM OVC110 07/01 A2961 1370 65 700 050/07 RMK AO2
94908KDBQ DBQ20110406043510104/06/11 04:35:31  5-MIN KDBQ 061035Z AUTO 06007KT 10SM OVC110 07/00 A2961 1370 60 800 060/07 RMK AO2
94908KDBQ DBQ20110406044010104/06/11 04:40:31  5-MIN KDBQ 061040Z AUTO 05009KT 10SM OVC110 08/00 A2962 1360 58 900 050/09 RMK AO2
94908KDBQ DBQ20110406044510104/06/11 04:45:31  5-MIN KDBQ 061045Z AUTO 03005KT 10SM OVC110 07/00 A2962 1360 60 800 030/05 RMK AO2
94908KDBQ DBQ20110406045012004/06/11 04:50:31  5-MIN KDBQ 061050Z 03004KT 10SM OVC110 07/01 A2963 1350 65 700 030/04 RMK AO2 PRESRR SLP037 T00670006
94908KDBQ DBQ20110406045510304/06/11 04:55:31  5-MIN KDBQ 061055Z 03004KT 10SM FEW080 OVC110 07/01 A2963 1350 65 700 030/04 RMK AO2
94908KDBQ DBQ20110406050010304/06/11 05:00:31  5-MIN KDBQ 061100Z 03003KT 10SM FEW080 OVC110 07/01 A2964 1340 65 700 030/03 RMK AO2
94908KDBQ DBQ20110406050510304/06/11 05:05:31  5-MIN KDBQ 061105Z 03003KT 10SM FEW080 OVC110 07/01 A2964 1340 65 700 030/03 RMK AO2
94908KDBQ DBQ20110406051010304/06/11 05:10:31  5-MIN KDBQ 061110Z 00000KT 10SM FEW080 OVC110 07/01 A2965 1330 65 700 000/00 RMK AO2
94908KDBQ DBQ20110406051510304/06/11 05:15:31  5-MIN KDBQ 061115Z 08003KT 10SM FEW080 BKN120 07/01 A2965 1330 65 700 080/03 RMK AO2
94908KDBQ DBQ20110406052010304/06/11 05:20:31  5-MIN KDBQ 061120Z 03003KT 10SM FEW080 BKN120 07/01 A2965 1330 65 700 030/03 RMK AO2
94908KDBQ DBQ20110406052509604/06/11 05:25:31  5-MIN KDBQ 061125Z 02007KT 10SM BKN120 06/01 A2966 1320 67 600 020/07 RMK AO2
94908KDBQ DBQ20110406053009604/06/11 05:30:31  5-MIN KDBQ 061130Z 02007KT 10SM SCT120 07/01 A2967 1310 65 700 020/07 RMK AO2
94908KDBQ DBQ20110406053509604/06/11 05:35:31  5-MIN KDBQ 061135Z 02007KT 10SM SCT120 07/01 A2967 1310 65 700 020/07 RMK AO2
94908KDBQ DBQ20110406054009604/06/11 05:40:31  5-MIN KDBQ 061140Z 02007KT 10SM BKN120 07/01 A2967 1310 65 700 020/07 RMK AO2
94908KDBQ DBQ20110406054509604/06/11 05:45:31  5-MIN KDBQ 061145Z 02006KT 10SM BKN120 07/01 A2968 1300 65 700 020/06 RMK AO2
94908KDBQ DBQ20110406055013104/06/11 05:50:31  5-MIN KDBQ 061150Z 03007KT 10SM BKN120 07/01 A2968 1310 65 700 030/07 RMK AO2 SLP053 T00670006 10089 20061 55000
94908KDBQ DBQ20110406055509604/06/11 05:55:31  5-MIN KDBQ 061155Z 03007KT 10SM BKN120 06/01 A2968 1310 67 600 030/07 RMK AO2
94908KDBQ DBQ20110406060009604/06/11 06:00:31  5-MIN KDBQ 061200Z 03007KT 10SM SCT120 06/01 A2968 1300 67 600 030/07 RMK AO2
94908KDBQ DBQ20110406060509604/06/11 06:05:31  5-MIN KDBQ 061205Z 04007KT 10SM SCT120 06/01 A2968 1300 67 600 040/07 RMK AO2
94908KDBQ DBQ20110406061009604/06/11 06:10:31  5-MIN KDBQ 061210Z 04007KT 10SM FEW120 07/01 A2968 1300 65 700 040/07 RMK AO2
94908KDBQ DBQ20110406061509604/06/11 06:15:31  5-MIN KDBQ 061215Z 04006KT 10SM FEW120 07/01 A2968 1300 65 600 040/06 RMK AO2
94908KDBQ DBQ20110406062009304/06/11 06:20:31  5-MIN KDBQ 061220Z 04007KT 10SM CLR 07/01 A2968 1300 65 600 040/07 RMK AO2
94908KDBQ DBQ20110406062509304/06/11 06:25:31  5-MIN KDBQ 061225Z 04007KT 10SM CLR 07/01 A2968 1300 62 700 040/07 RMK AO2
94908KDBQ DBQ20110406063009304/06/11 06:30:31  5-MIN KDBQ 061230Z 04005KT 10SM CLR 07/01 A2968 1300 65 700 040/05 RMK AO2
94908KDBQ DBQ20110406063509304/06/11 06:35:31  5-MIN KDBQ 061235Z 04007KT 10SM CLR 07/01 A2968 1300 62 700 040/07 RMK AO2
94908KDBQ DBQ20110406064009304/06/11 06:40:31  5-MIN KDBQ 061240Z 03006KT 10SM CLR 07/01 A2969 1290 65 700 030/06 RMK AO2
94908KDBQ DBQ20110406064509304/06/11 06:45:31  5-MIN KDBQ 061245Z 03007KT 10SM CLR 07/01 A2970 1290 65 700 030/07 RMK AO2
94908KDBQ DBQ20110406065011304/06/11 06:50:31  5-MIN KDBQ 061250Z 03007KT 10SM FEW100 07/01 A2970 1280 65 700 030/07 RMK AO2 SLP061 T00720011
94908KDBQ DBQ20110406065509604/06/11 06:55:31  5-MIN KDBQ 061255Z 03007KT 10SM FEW100 07/01 A2970 1280 65 700 030/07 RMK AO2
94908KDBQ DBQ20110406070009604/06/11 07:00:31  5-MIN KDBQ 061300Z 03007KT 10SM FEW110 07/01 A2970 1280 65 700 030/07 RMK AO2
94908KDBQ DBQ20110406070509604/06/11 07:05:31  5-MIN KDBQ 061305Z 03008KT 10SM FEW110 07/01 A2970 1290 65 700 030/08 RMK AO2
94908KDBQ DBQ20110406071009604/06/11 07:10:31  5-MIN KDBQ 061310Z 03007KT 10SM FEW110 07/01 A2970 1290 65 700 030/07 RMK AO2
94908KDBQ DBQ20110406071509604/06/11 07:15:31  5-MIN KDBQ 061315Z 04008KT 10SM FEW110 07/01 A2969 1290 65 700 040/08 RMK AO2
94908KDBQ DBQ20110406072009604/06/11 07:20:31  5-MIN KDBQ 061320Z 04007KT 10SM FEW110 07/01 A2969 1290 65 700 040/07 RMK AO2
94908KDBQ DBQ20110406072509604/06/11 07:25:31  5-MIN KDBQ 061325Z 03004KT 10SM FEW110 08/01 A2971 1280 62 800 030/04 RMK AO2
94908KDBQ DBQ20110406073009604/06/11 07:30:31  5-MIN KDBQ 061330Z 04005KT 10SM FEW110 08/01 A2970 1280 62 800 040/05 RMK AO2
94908KDBQ DBQ20110406073509604/06/11 07:35:31  5-MIN KDBQ 061335Z 06006KT 10SM FEW100 08/01 A2970 1280 62 800 060/06 RMK AO2
94908KDBQ DBQ20110406074009604/06/11 07:40:31  5-MIN KDBQ 061340Z 06006KT 10SM FEW095 08/01 A2970 1290 62 800 060/06 RMK AO2
94908KDBQ DBQ20110406074509604/06/11 07:45:31  5-MIN KDBQ 061345Z 07006KT 10SM FEW090 08/01 A2969 1290 60 800 070/06 RMK AO2
94908KDBQ DBQ20110406075011304/06/11 07:50:31  5-MIN KDBQ 061350Z 06007KT 10SM FEW095 09/01 A2969 1290 58 900 060/07 RMK AO2 SLP057 T00890011
94908KDBQ DBQ20110406075509704/06/11 07:55:31  5-MIN KDBQ 061355Z 06007KT 10SM FEW095 09/01 A2969 1290 56 1000 060/07 RMK AO2
94908KDBQ DBQ20110406080009704/06/11 08:00:31  5-MIN KDBQ 061400Z 06007KT 10SM FEW095 10/02 A2969 1290 56 1000 060/07 RMK AO2
94908KDBQ DBQ20110406080509404/06/11 08:05:31  5-MIN KDBQ 061405Z 06007KT 10SM CLR 09/01 A2969 1290 56 1000 060/07 RMK AO2
94908KDBQ DBQ20110406081009404/06/11 08:10:31  5-MIN KDBQ 061410Z 06007KT 10SM CLR 09/01 A2970 1280 56 1000 060/07 RMK AO2
94908KDBQ DBQ20110406081509404/06/11 08:15:31  5-MIN KDBQ 061415Z 06008KT 10SM CLR 10/01 A2970 1280 54 1000 060/08 RMK AO2
94908KDBQ DBQ20110406082009704/06/11 08:20:31  5-MIN KDBQ 061420Z 04006KT 10SM FEW120 11/02 A2970 1280 54 1100 040/06 RMK AO2
94908KDBQ DBQ20110406082509704/06/11 08:25:31  5-MIN KDBQ 061425Z 06007KT 10SM FEW120 10/01 A2971 1280 54 1000 060/07 RMK AO2
94908KDBQ DBQ20110406083009704/06/11 08:30:31  5-MIN KDBQ 061430Z 08005KT 10SM FEW120 11/01 A2971 1270 52 1100 070/05 RMK AO2
94908KDBQ DBQ20110406083509704/06/11 08:35:31  5-MIN KDBQ 061435Z 06008KT 10SM FEW120 11/01 A2971 1270 52 1100 060/08 RMK AO2
94908KDBQ DBQ20110406084009704/06/11 08:40:31  5-MIN KDBQ 061440Z 07009KT 10SM FEW120 11/01 A2969 1290 52 1100 060/09 RMK AO2
94908KDBQ DBQ20110406084509704/06/11 08:45:31  5-MIN KDBQ 061445Z 07009KT 10SM FEW120 11/01 A2971 1280 52 1100 070/09 RMK AO2
94908KDBQ DBQ20110406085011704/06/11 08:50:31  5-MIN KDBQ 061450Z 07008KT 10SM CLR 11/01 A2970 1290 52 1100 070/08 RMK AO2 SLP059 T01060011 53012
94908KDBQ DBQ20110406085509404/06/11 08:55:31  5-MIN KDBQ 061455Z 07007KT 10SM CLR 11/01 A2970 1290 52 1100 070/07 RMK AO2
94908KDBQ DBQ20110406090009404/06/11 09:00:31  5-MIN KDBQ 061500Z 06008KT 10SM CLR 11/01 A2969 1290 52 1100 060/08 RMK AO2
94908KDBQ DBQ20110406090509404/06/11 09:05:31  5-MIN KDBQ 061505Z 09008KT 10SM CLR 11/02 A2969 1290 54 1100 080/08 RMK AO2
94908KDBQ DBQ20110406091009404/06/11 09:10:31  5-MIN KDBQ 061510Z 10007KT 10SM CLR 11/02 A2970 1280 52 1200 100/07 RMK AO2
94908KDBQ DBQ20110406091509704/06/11 09:15:31  5-MIN KDBQ 061515Z 11006KT 10SM FEW110 11/02 A2970 1280 52 1200 110/06 RMK AO2
94908KDBQ DBQ20110406092009704/06/11 09:20:31  5-MIN KDBQ 061520Z 12005KT 10SM FEW110 11/02 A2971 1270 52 1100 120/05 RMK AO2
94908KDBQ DBQ20110406092509404/06/11 09:25:31  5-MIN KDBQ 061525Z 10008KT 10SM CLR 11/02 A2968 1300 52 1200 100/08 RMK AO2
94908KDBQ DBQ20110406093009404/06/11 09:30:31  5-MIN KDBQ 061530Z 12008KT 10SM CLR 12/02 A2969 1290 50 1200 120/08 RMK AO2
94908KDBQ DBQ20110406093509404/06/11 09:35:31  5-MIN KDBQ 061535Z 13008KT 10SM CLR 12/02 A2972 1260 50 1300 130/08 RMK AO2
94908KDBQ DBQ20110406094009704/06/11 09:40:31  5-MIN KDBQ 061540Z VRB04KT 10SM SCT065 12/02 A2973 1250 50 1200 VRB/04 RMK AO2
94908KDBQ DBQ20110406094509704/06/11 09:45:31  5-MIN KDBQ 061545Z 10005KT 10SM FEW065 12/02 A2971 1280 50 1200 100/05 RMK AO2
94908KDBQ DBQ20110406095011404/06/11 09:50:31  5-MIN KDBQ 061550Z 07004KT 10SM FEW065 12/02 A2972 1260 50 1300 070/04 RMK AO2 SLP067 T01220022
94908KDBQ DBQ20110406095509704/06/11 09:55:31  5-MIN KDBQ 061555Z 36005KT 10SM SCT065 13/02 A2973 1250 48 1300 360/05 RMK AO2
94908KDBQ DBQ20110406100009704/06/11 10:00:31  5-MIN KDBQ 061600Z 04008KT 10SM SCT065 13/02 A2973 1260 48 1300 040/08 RMK AO2
94908KDBQ DBQ20110406100509704/06/11 10:05:31  5-MIN KDBQ 061605Z VRB05KT 10SM SCT065 13/02 A2974 1250 48 1300 VRB/05 RMK AO2
94908KDBQ DBQ20110406101009704/06/11 10:10:31  5-MIN KDBQ 061610Z 03007KT 10SM FEW065 13/03 A2974 1250 48 1400 030/07 RMK AO2
94908KDBQ DBQ20110406101509704/06/11 10:15:31  5-MIN KDBQ 061615Z 02007KT 10SM FEW065 13/02 A2974 1250 48 1300 020/07 RMK AO2
94908KDBQ DBQ20110406102009704/06/11 10:20:31  5-MIN KDBQ 061620Z 03007KT 10SM FEW065 13/03 A2975 1240 48 1400 030/07 RMK AO2
94908KDBQ DBQ20110406102509404/06/11 10:25:31  5-MIN KDBQ 061625Z 02009KT 10SM CLR 12/02 A2975 1240 50 1200 010/09 RMK AO2
94908KDBQ DBQ20110406103009404/06/11 10:30:31  5-MIN KDBQ 061630Z 35009KT 10SM CLR 12/03 A2975 1240 52 1200 350/09 RMK AO2
94908KDBQ DBQ20110406103509404/06/11 10:35:31  5-MIN KDBQ 061635Z 01009KT 10SM CLR 12/03 A2975 1240 52 1200 010/09 RMK AO2
94908KDBQ DBQ20110406104009404/06/11 10:40:31  5-MIN KDBQ 061640Z 02010KT 10SM CLR 12/02 A2974 1240 50 1200 020/10 RMK AO2
94908KDBQ DBQ20110406104509404/06/11 10:45:31  5-MIN KDBQ 061645Z 36008KT 10SM CLR 12/03 A2973 1260 54 1200 360/08 RMK AO2
94908KDBQ DBQ20110406105011804/06/11 10:50:31  5-MIN KDBQ 061650Z 03010KT 10SM CLR 12/03 A2972 1270 54 1200 030/10 RMK AO2 PRESFR SLP067 T01170028
94908KDBQ DBQ20110406105509404/06/11 10:55:31  5-MIN KDBQ 061655Z 02010KT 10SM CLR 12/03 A2973 1250 52 1300 010/10 RMK AO2
94908KDBQ DBQ20110406110009404/06/11 11:00:31  5-MIN KDBQ 061700Z 02010KT 10SM CLR 12/03 A2974 1250 54 1200 020/10 RMK AO2
94908KDBQ DBQ20110406110509404/06/11 11:05:31  5-MIN KDBQ 061705Z 01011KT 10SM CLR 12/03 A2974 1240 52 1200 010/11 RMK AO2
94908KDBQ DBQ20110406111009404/06/11 11:10:31  5-MIN KDBQ 061710Z 03010KT 10SM CLR 12/03 A2974 1240 52 1200 030/10 RMK AO2
94908KDBQ DBQ20110406111509404/06/11 11:15:31  5-MIN KDBQ 061715Z 01010KT 10SM CLR 12/03 A2975 1240 52 1200 010/10 RMK AO2
94908KDBQ DBQ20110406112009404/06/11 11:20:31  5-MIN KDBQ 061720Z 01007KT 10SM CLR 13/03 A2976 1230 50 1300 360/07 RMK AO2
94908KDBQ DBQ20110406112509404/06/11 11:25:31  5-MIN KDBQ 061725Z 01009KT 10SM CLR 13/03 A2976 1230 50 1300 010/09 RMK AO2
94908KDBQ DBQ20110406113010004/06/11 11:30:31  5-MIN KDBQ 061730Z 36003G14KT 10SM CLR 12/03 A2975 1230 52 1200 360/03G14 RMK AO2
94908KDBQ DBQ20110406113509404/06/11 11:35:31  5-MIN KDBQ 061735Z VRB04KT 10SM CLR 12/03 A2976 1230 52 1200 VRB/04 RMK AO2
94908KDBQ DBQ20110406114009404/06/11 11:40:31  5-MIN KDBQ 061740Z 01008KT 10SM CLR 12/03 A2976 1230 52 1200 010/08 RMK AO2
94908KDBQ DBQ20110406114509404/06/11 11:45:31  5-MIN KDBQ 061745Z 04005KT 10SM CLR 12/03 A2975 1230 52 1200 040/05 RMK AO2
94908KDBQ DBQ20110406115012904/06/11 11:50:31  5-MIN KDBQ 061750Z 06008KT 10SM CLR 12/03 A2976 1230 52 1200 060/08 RMK AO2 SLP078 T01220028 10133 20061 51006
94908KDBQ DBQ20110406115509404/06/11 11:55:31  5-MIN KDBQ 061755Z 05006KT 10SM CLR 12/03 A2976 1230 52 1200 050/06 RMK AO2
94908KDBQ DBQ20110406120009404/06/11 12:00:31  5-MIN KDBQ 061800Z 36006KT 10SM CLR 13/03 A2976 1220 50 1300 360/06 RMK AO2
94908KDBQ DBQ20110406120511004/06/11 12:05:31  5-MIN KDBQ 061805Z 04007KT 010V070 10SM CLR 13/03 A2976 1220 52 1300 040/07 010V070 RMK AO2
94908KDBQ DBQ20110406121010004/06/11 12:10:31  5-MIN KDBQ 061810Z 04008G14KT 10SM CLR 13/03 A2976 1220 52 1300 040/08G14 RMK AO2
94908KDBQ DBQ20110406121509404/06/11 12:15:31  5-MIN KDBQ 061815Z 05008KT 10SM CLR 13/03 A2977 1220 52 1300 050/08 RMK AO2
94908KDBQ DBQ20110406122009404/06/11 12:20:31  5-MIN KDBQ 061820Z 05006KT 10SM CLR 13/03 A2977 1220 52 1300 050/06 RMK AO2
94908KDBQ DBQ20110406122509404/06/11 12:25:31  5-MIN KDBQ 061825Z 04007KT 10SM CLR 13/03 A2977 1220 50 1300 040/07 RMK AO2
94908KDBQ DBQ20110406123009704/06/11 12:30:31  5-MIN KDBQ 061830Z 03007KT 10SM FEW039 13/03 A2977 1220 50 1300 030/07 RMK AO2
94908KDBQ DBQ20110406123509704/06/11 12:35:31  5-MIN KDBQ 061835Z 06004KT 10SM FEW039 13/03 A2977 1220 52 1300 060/04 RMK AO2
94908KDBQ DBQ20110406124009704/06/11 12:40:31  5-MIN KDBQ 061840Z 03007KT 10SM SCT039 13/03 A2977 1210 52 1300 030/07 RMK AO2
94908KDBQ DBQ20110406124509704/06/11 12:45:31  5-MIN KDBQ 061845Z 02006KT 10SM FEW039 13/03 A2977 1210 52 1300 020/06 RMK AO2
94908KDBQ DBQ20110406125011404/06/11 12:50:31  5-MIN KDBQ 061850Z 36004KT 10SM FEW039 13/03 A2978 1210 50 1300 360/04 RMK AO2 SLP086 T01330033
94908KDBQ DBQ20110406125509704/06/11 12:55:31  5-MIN KDBQ 061855Z 33004KT 10SM SCT039 13/03 A2978 1210 50 1300 330/04 RMK AO2
94908KDBQ DBQ20110406130009704/06/11 13:00:31  5-MIN KDBQ 061900Z 05007KT 10SM SCT039 13/03 A2978 1210 50 1300 040/07 RMK AO2
94908KDBQ DBQ20110406130509704/06/11 13:05:31  5-MIN KDBQ 061905Z 00000KT 10SM BKN039 13/03 A2978 1210 50 1300 000/00 RMK AO2
94908KDBQ DBQ20110406131009704/06/11 13:10:31  5-MIN KDBQ 061910Z 04004KT 10SM BKN039 13/03 A2978 1210 50 1300 040/04 RMK AO2
94908KDBQ DBQ20110406131509704/06/11 13:15:31  5-MIN KDBQ 061915Z 03005KT 10SM BKN041 13/03 A2978 1210 52 1300 030/05 RMK AO2
94908KDBQ DBQ20110406132009704/06/11 13:20:31  5-MIN KDBQ 061920Z 03007KT 10SM OVC041 13/03 A2978 1210 52 1300 030/07 RMK AO2
94908KDBQ DBQ20110406132509704/06/11 13:25:31  5-MIN KDBQ 061925Z 04006KT 10SM OVC039 13/04 A2978 1210 54 1300 040/06 RMK AO2
94908KDBQ DBQ20110406133009704/06/11 13:30:31  5-MIN KDBQ 061930Z 06006KT 10SM OVC039 13/04 A2978 1210 54 1300 060/06 RMK AO2
94908KDBQ DBQ20110406133509704/06/11 13:35:31  5-MIN KDBQ 061935Z 07005KT 10SM OVC039 13/04 A2978 1200 54 1300 060/05 RMK AO2
94908KDBQ DBQ20110406134009704/06/11 13:40:31  5-MIN KDBQ 061940Z 02009KT 10SM OVC039 13/04 A2979 1200 54 1300 010/09 RMK AO2
94908KDBQ DBQ20110406134509704/06/11 13:45:31  5-MIN KDBQ 061945Z 03005KT 10SM OVC039 13/04 A2979 1200 54 1300 030/05 RMK AO2
94908KDBQ DBQ20110406135011404/06/11 13:50:31  5-MIN KDBQ 061950Z 04006KT 10SM OVC041 13/04 A2979 1200 54 1300 040/06 RMK AO2 SLP091 T01280039
94908KDBQ DBQ20110406135509704/06/11 13:55:31  5-MIN KDBQ 061955Z 05005KT 10SM BKN041 13/04 A2979 1200 54 1300 050/05 RMK AO2
94908KDBQ DBQ20110406140009704/06/11 14:00:31  5-MIN KDBQ 062000Z 04006KT 10SM BKN041 13/04 A2979 1200 54 1300 040/06 RMK AO2
94908KDBQ DBQ20110406140509704/06/11 14:05:31  5-MIN KDBQ 062005Z 05006KT 10SM BKN041 13/04 A2979 1200 54 1300 050/06 RMK AO2
94908KDBQ DBQ20110406141009704/06/11 14:10:31  5-MIN KDBQ 062010Z VRB04KT 10SM BKN041 13/04 A2979 1190 52 1300 VRB/04 RMK AO2
94908KDBQ DBQ20110406141509704/06/11 14:15:31  5-MIN KDBQ 062015Z 03005KT 10SM BKN041 13/04 A2980 1190 52 1300 030/05 RMK AO2
94908KDBQ DBQ20110406142009704/06/11 14:20:31  5-MIN KDBQ 062020Z 02004KT 10SM BKN041 14/03 A2980 1190 48 1400 020/04 RMK AO2
94908KDBQ DBQ20110406142509704/06/11 14:25:31  5-MIN KDBQ 062025Z 00000KT 10SM OVC041 14/03 A2980 1190 48 1400 000/00 RMK AO2
94908KDBQ DBQ20110406143009704/06/11 14:30:31  5-MIN KDBQ 062030Z 01005KT 10SM OVC041 14/03 A2979 1200 48 1400 010/05 RMK AO2
94908KDBQ DBQ20110406143509704/06/11 14:35:31  5-MIN KDBQ 062035Z 03005KT 10SM OVC041 14/03 A2980 1190 48 1400 030/05 RMK AO2
94908KDBQ DBQ20110406144009704/06/11 14:40:31  5-MIN KDBQ 062040Z 07005KT 10SM OVC041 13/03 A2980 1190 50 1300 070/05 RMK AO2
94908KDBQ DBQ20110406144509704/06/11 14:45:31  5-MIN KDBQ 062045Z 03006KT 10SM OVC041 13/03 A2980 1190 50 1300 030/06 RMK AO2
94908KDBQ DBQ20110406145012004/06/11 14:50:31  5-MIN KDBQ 062050Z 06006KT 10SM OVC041 13/03 A2980 1190 50 1300 060/06 RMK AO2 SLP092 T01330033 51021
94908KDBQ DBQ20110406145509704/06/11 14:55:31  5-MIN KDBQ 062055Z 04006KT 10SM BKN041 14/03 A2980 1190 48 1400 040/06 RMK AO2
94908KDBQ DBQ20110406150009704/06/11 15:00:31  5-MIN KDBQ 062100Z 02006KT 10SM BKN041 14/03 A2980 1190 48 1400 010/06 RMK AO2
94908KDBQ DBQ20110406150509704/06/11 15:05:31  5-MIN KDBQ 062105Z 02007KT 10SM BKN043 14/03 A2980 1190 45 1400 020/07 RMK AO2
94908KDBQ DBQ20110406151009704/06/11 15:10:31  5-MIN KDBQ 062110Z 01005KT 10SM SCT043 14/03 A2980 1190 47 1400 010/05 RMK AO2
94908KDBQ DBQ20110406151509704/06/11 15:15:31  5-MIN KDBQ 062115Z 01007KT 10SM SCT043 14/03 A2980 1190 47 1400 010/07 RMK AO2
94908KDBQ DBQ20110406152009704/06/11 15:20:31  5-MIN KDBQ 062120Z 03004KT 10SM FEW043 14/02 A2980 1190 45 1400 020/04 RMK AO2
94908KDBQ DBQ20110406152509704/06/11 15:25:31  5-MIN KDBQ 062125Z 00000KT 10SM FEW043 14/02 A2980 1190 45 1400 000/00 RMK AO2
94908KDBQ DBQ20110406153009404/06/11 15:30:31  5-MIN KDBQ 062130Z VRB04KT 10SM CLR 14/03 A2980 1190 47 1400 VRB/04 RMK AO2
94908KDBQ DBQ20110406153509404/06/11 15:35:31  5-MIN KDBQ 062135Z VRB03KT 10SM CLR 13/03 A2981 1180 48 1300 VRB/03 RMK AO2
94908KDBQ DBQ20110406154009404/06/11 15:40:31  5-MIN KDBQ 062140Z 04004KT 10SM CLR 14/03 A2981 1180 47 1400 040/04 RMK AO2
94908KDBQ DBQ20110406154509404/06/11 15:45:31  5-MIN KDBQ 062145Z 01005KT 10SM CLR 14/03 A2981 1180 47 1400 360/05 RMK AO2
94908KDBQ DBQ20110406155011104/06/11 15:50:31  5-MIN KDBQ 062150Z 36003KT 10SM CLR 14/02 A2981 1180 45 1400 360/03 RMK AO2 SLP098 T01390022
94908KDBQ DBQ20110406155509404/06/11 15:55:31  5-MIN KDBQ 062155Z 00000KT 10SM CLR 14/02 A2981 1180 45 1400 000/00 RMK AO2
94908KDBQ DBQ20110406160009404/06/11 16:00:31  5-MIN KDBQ 062200Z VRB03KT 10SM CLR 14/03 A2981 1180 47 1400 VRB/03 RMK AO2
94908KDBQ DBQ20110406160509404/06/11 16:05:31  5-MIN KDBQ 062205Z 04004KT 10SM CLR 14/03 A2981 1180 47 1400 040/04 RMK AO2
94908KDBQ DBQ20110406161009404/06/11 16:10:31  5-MIN KDBQ 062210Z 00000KT 10SM CLR 14/02 A2981 1180 45 1400 000/00 RMK AO2
94908KDBQ DBQ20110406161509404/06/11 16:15:31  5-MIN KDBQ 062215Z 01004KT 10SM CLR 14/03 A2981 1180 47 1400 010/04 RMK AO2
94908KDBQ DBQ20110406162009404/06/11 16:20:31  5-MIN KDBQ 062220Z VRB04KT 10SM CLR 14/02 A2982 1170 45 1400 VRB/04 RMK AO2
94908KDBQ DBQ20110406162509404/06/11 16:25:31  5-MIN KDBQ 062225Z VRB04KT 10SM CLR 13/03 A2982 1170 48 1300 VRB/04 RMK AO2
94908KDBQ DBQ20110406163009404/06/11 16:30:31  5-MIN KDBQ 062230Z 04004KT 10SM CLR 14/03 A2982 1170 47 1400 040/04 RMK AO2
94908KDBQ DBQ20110406163509404/06/11 16:35:31  5-MIN KDBQ 062235Z 06005KT 10SM CLR 13/02 A2982 1170 46 1300 060/05 RMK AO2
94908KDBQ DBQ20110406164009404/06/11 16:40:31  5-MIN KDBQ 062240Z 03006KT 10SM CLR 14/03 A2982 1170 47 1300 030/06 RMK AO2
94908KDBQ DBQ20110406164509404/06/11 16:45:31  5-MIN KDBQ 062245Z 05004KT 10SM CLR 14/02 A2983 1170 45 1300 050/04 RMK AO2
94908KDBQ DBQ20110406193509804/06/11 19:35:31  5-MIN KDBQ 070135Z AUTO 00000KT 10SM CLR 06/01 A2988 1110 70 400 000/00 RMK AO2
94908KDBQ DBQ20110406194009804/06/11 19:40:31  5-MIN KDBQ 070140Z AUTO 00000KT 10SM CLR 07/01 A2988 1110 67 400 000/00 RMK AO2
94908KDBQ DBQ20110406194509804/06/11 19:45:31  5-MIN KDBQ 070145Z AUTO 00000KT 10SM CLR 07/01 A2989 1110 65 500 000/00 RMK AO2
94908KDBQ DBQ20110406195011504/06/11 19:50:31  5-MIN KDBQ 070150Z AUTO 00000KT 10SM CLR 07/01 A2989 1100 67 400 000/00 RMK AO2 SLP128 T00670011
94908KDBQ DBQ20110406195509804/06/11 19:55:31  5-MIN KDBQ 070155Z AUTO 00000KT 10SM CLR 07/01 A2989 1110 67 400 000/00 RMK AO2
94908KDBQ DBQ20110406200009804/06/11 20:00:31  5-MIN KDBQ 070200Z AUTO 00000KT 10SM CLR 07/01 A2989 1100 67 400 000/00 RMK AO2
94908KDBQ DBQ20110406200509804/06/11 20:05:31  5-MIN KDBQ 070205Z AUTO 17003KT 10SM CLR 07/01 A2990 1100 65 500 170/03 RMK AO2
94908KDBQ DBQ20110406201009804/06/11 20:10:31  5-MIN KDBQ 070210Z AUTO 00000KT 10SM CLR 08/02 A2990 1100 63 600 000/00 RMK AO2
94908KDBQ DBQ20110406201509804/06/11 20:15:31  5-MIN KDBQ 070215Z AUTO 00000KT 10SM CLR 07/01 A2990 1100 67 400 000/00 RMK AO2
94908KDBQ DBQ20110406202009804/06/11 20:20:31  5-MIN KDBQ 070220Z AUTO 18003KT 10SM CLR 07/01 A2990 1100 67 400 180/03 RMK AO2
94908KDBQ DBQ20110406202509804/06/11 20:25:31  5-MIN KDBQ 070225Z AUTO 18003KT 10SM CLR 07/01 A2990 1100 67 400 180/03 RMK AO2
94908KDBQ DBQ20110406203009804/06/11 20:30:31  5-MIN KDBQ 070230Z AUTO 17003KT 10SM CLR 07/01 A2990 1100 67 400 170/03 RMK AO2
94908KDBQ DBQ20110406203509804/06/11 20:35:31  5-MIN KDBQ 070235Z AUTO 00000KT 10SM CLR 07/01 A2990 1100 67 400 000/00 RMK AO2
94908KDBQ DBQ20110406204009804/06/11 20:40:31  5-MIN KDBQ 070240Z AUTO 00000KT 10SM CLR 06/01 A2990 1100 73 300 000/00 RMK AO2
94908KDBQ DBQ20110406204509804/06/11 20:45:31  5-MIN KDBQ 070245Z AUTO 00000KT 10SM CLR 06/01 A2990 1090 73 300 000/00 RMK AO2
94908KDBQ DBQ20110406205012104/06/11 20:50:31  5-MIN KDBQ 070250Z AUTO 00000KT 10SM CLR 06/01 A2990 1100 70 300 000/00 RMK AO2 SLP130 T00610011 53017
94908KDBQ DBQ20110406205509804/06/11 20:55:31  5-MIN KDBQ 070255Z AUTO 00000KT 10SM CLR 06/01 A2990 1090 73 300 000/00 RMK AO2
94908KDBQ DBQ20110406210009804/06/11 21:00:31  5-MIN KDBQ 070300Z AUTO 00000KT 10SM CLR 06/01 A2991 1090 73 300 000/00 RMK AO2
94908KDBQ DBQ20110406210509804/06/11 21:05:31  5-MIN KDBQ 070305Z AUTO 00000KT 10SM CLR 06/01 A2991 1090 70 300 000/00 RMK AO2
94908KDBQ DBQ20110406211009804/06/11 21:10:31  5-MIN KDBQ 070310Z AUTO 00000KT 10SM CLR 06/01 A2991 1090 70 300 000/00 RMK AO2
94908KDBQ DBQ20110406211509804/06/11 21:15:31  5-MIN KDBQ 070315Z AUTO 00000KT 10SM CLR 06/01 A2991 1090 73 200 000/00 RMK AO2
94908KDBQ DBQ20110406212009804/06/11 21:20:31  5-MIN KDBQ 070320Z AUTO 00000KT 10SM CLR 06/01 A2992 1080 73 200 000/00 RMK AO2
94908KDBQ DBQ20110406212509804/06/11 21:25:31  5-MIN KDBQ 070325Z AUTO 00000KT 10SM CLR 05/01 A2992 1080 76 200 000/00 RMK AO2
94908KDBQ DBQ20110406213009804/06/11 21:30:31  5-MIN KDBQ 070330Z AUTO 00000KT 10SM CLR 05/01 A2992 1080 76 200 000/00 RMK AO2
94908KDBQ DBQ20110406213509804/06/11 21:35:31  5-MIN KDBQ 070335Z AUTO 00000KT 10SM CLR 04/01 A2992 1070 76 100 000/00 RMK AO2
94908KDBQ DBQ20110406214009604/06/11 21:40:31  5-MIN KDBQ 070340Z AUTO 00000KT 10SM CLR 04/01 A2993 1070 79 0 000/00 RMK AO2
94908KDBQ DBQ20110406214509804/06/11 21:45:31  5-MIN KDBQ 070345Z AUTO 00000KT 10SM CLR 04/01 A2992 1080 76 100 000/00 RMK AO2
94908KDBQ DBQ20110406215011504/06/11 21:50:31  5-MIN KDBQ 070350Z AUTO 00000KT 10SM CLR 05/01 A2992 1080 76 200 000/00 RMK AO2 SLP136 T00500011
94908KDBQ DBQ20110406215509804/06/11 21:55:31  5-MIN KDBQ 070355Z AUTO 00000KT 10SM CLR 05/01 A2992 1080 76 200 000/00 RMK AO2
94908KDBQ DBQ20110406220009804/06/11 22:00:31  5-MIN KDBQ 070400Z AUTO 00000KT 10SM CLR 05/01 A2992 1080 76 200 000/00 RMK AO2
94908KDBQ DBQ20110406220509804/06/11 22:05:31  5-MIN KDBQ 070405Z AUTO 00000KT 10SM CLR 04/01 A2992 1080 79 100 000/00 RMK AO2
94908KDBQ DBQ20110406221011204/06/11 22:10:31  5-MIN KDBQ 070410Z AUTO 00000KT 10SM -SN CLR 03/01 A2992 1080 82 0 000/00 RMK AO2 SNB10 P0000
94908KDBQ DBQ20110406221511404/06/11 22:15:31  5-MIN KDBQ 070415Z AUTO 00000KT 9SM -SN CLR 03/00 A2993 1070 82 -100 000/00 RMK AO2 SNB10 P0000
94908KDBQ DBQ20110406222011104/06/11 22:20:31  5-MIN KDBQ 070420Z AUTO 00000KT 9SM -SN CLR 03/00 A2993 1070 79 0 000/00 RMK AO2 SNB10 P0000
94908KDBQ DBQ20110406222511104/06/11 22:25:31  5-MIN KDBQ 070425Z AUTO 00000KT 9SM -SN CLR 04/01 A2993 1070 79 0 000/00 RMK AO2 SNB10 P0000
94908KDBQ DBQ20110406223011004/06/11 22:30:31  5-MIN KDBQ 070430Z AUTO 00000KT 9SM CLR 04/01 A2993 1070 79 0 000/00 RMK AO2 SNB10E30 P0000
94908KDBQ DBQ20110406223511204/06/11 22:35:31  5-MIN KDBQ 070435Z AUTO 00000KT 9SM CLR 04/01 A2993 1070 76 100 000/00 RMK AO2 SNB10E30 P0000
94908KDBQ DBQ20110406224011104/06/11 22:40:31  5-MIN KDBQ 070440Z AUTO 00000KT 10SM CLR 04/01 A2993 1070 79 0 000/00 RMK AO2 SNB10E30 P0000
94908KDBQ DBQ20110406224511504/06/11 22:45:31  5-MIN KDBQ 070445Z AUTO 00000KT 10SM -SN CLR 03/01 A2993 1070 85 -100 000/00 RMK AO2 SNB10 P0000
94908KDBQ DBQ20110406225013104/06/11 22:50:31  5-MIN KDBQ 070450Z AUTO 00000KT 9SM -SN CLR 03/00 A2993 1070 82 -100 000/00 RMK AO2 SNB10 SLP142 P0000 T00280000
94908KDBQ DBQ20110406225510704/06/11 22:55:31  5-MIN KDBQ 070455Z AUTO 00000KT 9SM -SN CLR 04/01 A2994 1060 76 100 000/00 RMK AO2 P0000
94908KDBQ DBQ20110406230010704/06/11 23:00:31  5-MIN KDBQ 070500Z AUTO 00000KT 9SM -SN CLR 04/01 A2994 1060 79 100 000/00 RMK AO2 P0000
94908KDBQ DBQ20110406230510704/06/11 23:05:31  5-MIN KDBQ 070505Z AUTO 00000KT 9SM CLR 03/01 A2994 1060 82 0 000/00 RMK AO2 SNE01 P0000
94908KDBQ DBQ20110406231010504/06/11 23:10:31  5-MIN KDBQ 070510Z AUTO 00000KT 9SM -SN CLR 04/01 A2994 1060 79 0 000/00 RMK AO2 P0000
94908KDBQ DBQ20110406231510704/06/11 23:15:31  5-MIN KDBQ 070515Z AUTO 00000KT 9SM -SN CLR 05/02 A2994 1060 79 100 000/00 RMK AO2 P0000
94908KDBQ DBQ20110406232010904/06/11 23:20:31  5-MIN KDBQ 070520Z AUTO 16004KT 9SM CLR 04/01 A2994 1060 79 100 160/04 RMK AO2 SNE18 P0000
94908KDBQ DBQ20110406232511004/06/11 23:25:31  5-MIN KDBQ 070525Z AUTO 17005KT 10SM CLR 04/01 A2994 1060 79 100 170/05 RMK AO2 SNE18 P0000
94908KDBQ DBQ20110406233011004/06/11 23:30:31  5-MIN KDBQ 070530Z AUTO 17003KT 10SM CLR 05/02 A2994 1060 79 200 170/03 RMK AO2 SNE18 P0000
94908KDBQ DBQ20110406233511004/06/11 23:35:31  5-MIN KDBQ 070535Z AUTO 00000KT 10SM CLR 05/01 A2994 1060 76 200 000/00 RMK AO2 SNE18 P0000
94908KDBQ DBQ20110406234011004/06/11 23:40:31  5-MIN KDBQ 070540Z AUTO 00000KT 10SM CLR 04/01 A2994 1060 79 100 000/00 RMK AO2 SNE18 P0000
94908KDBQ DBQ20110406234511004/06/11 23:45:31  5-MIN KDBQ 070545Z AUTO 00000KT 10SM CLR 04/01 A2994 1060 79 100 000/00 RMK AO2 SNE18 P0000
94908KDBQ DBQ20110406235015904/06/11 23:50:31  5-MIN KDBQ 070550Z AUTO 00000KT 10SM CLR 04/01 A2995 1060 79 0 000/00 RMK AO2 SNE18 SLP145 P0000 60000 T00390006 10133 20028 401440028 51018
94908KDBQ DBQ20110406235509604/06/11 23:55:31  5-MIN KDBQ 070555Z AUTO 00000KT 10SM CLR 04/01 A2995 1050 82 0 000/00 RMK AO2
94908KDBQ DBQ20110407000009604/07/11 00:00:38  5-MIN KDBQ 070600Z AUTO 00000KT 10SM CLR 04/01 A2995 1050 82 0 000/00 RMK AO2
94908KDBQ DBQ20110407000509604/07/11 00:05:31  5-MIN KDBQ 070605Z AUTO 00000KT 10SM CLR 04/01 A2995 1060 82 0 000/00 RMK AO2
94908KDBQ DBQ20110407001009604/07/11 00:10:31  5-MIN KDBQ 070610Z AUTO 00000KT 10SM CLR 04/01 A2995 1060 82 0 000/00 RMK AO2
94908KDBQ DBQ20110407001509604/07/11 00:15:32  5-MIN KDBQ 070615Z AUTO 00000KT 10SM CLR 04/01 A2995 1050 82 0 000/00 RMK AO2
94908KDBQ DBQ20110407002009604/07/11 00:20:31  5-MIN KDBQ 070620Z AUTO 00000KT 10SM CLR 03/01 A2995 1050 82 0 000/00 RMK AO2
94908KDBQ DBQ20110407002511204/07/11 00:25:31  5-MIN KDBQ 070625Z AUTO 00000KT 10SM -SN CLR 03/01 A2995 1050 82 0 000/00 RMK AO2 SNB21 P0000
94908KDBQ DBQ20110407003011104/07/11 00:30:31  5-MIN KDBQ 070630Z AUTO 00000KT 9SM -SN CLR 03/01 A2996 1050 82 0 000/00 RMK AO2 SNB21 P0000
94908KDBQ DBQ20110407003511104/07/11 00:35:31  5-MIN KDBQ 070635Z AUTO 00000KT 9SM -SN CLR 04/01 A2995 1050 79 0 000/00 RMK AO2 SNB21 P0000
94908KDBQ DBQ20110407004011404/07/11 00:40:31  5-MIN KDBQ 070640Z AUTO 00000KT 9SM -SN CLR 03/01 A2996 1050 85 -100 000/00 RMK AO2 SNB21 P0000
94908KDBQ DBQ20110407004511404/07/11 00:45:31  5-MIN KDBQ 070645Z AUTO 00000KT 9SM -SN CLR 03/01 A2996 1040 85 -100 000/00 RMK AO2 SNB21 P0000
94908KDBQ DBQ20110407005012804/07/11 00:50:31  5-MIN KDBQ 070650Z AUTO 00000KT 9SM -SN CLR 03/01 A2995 1050 82 0 000/00 RMK AO2 SNB21 SLP147 P0000 T00330006
94908KDBQ DBQ20110407005510504/07/11 00:55:31  5-MIN KDBQ 070655Z AUTO 00000KT 9SM -SN CLR 03/01 A2995 1050 82 0 000/00 RMK AO2 P0000
94908KDBQ DBQ20110407010010804/07/11 01:00:31  5-MIN KDBQ 070700Z AUTO 00000KT 9SM -SN CLR 02/00 A2996 1050 85 -200 000/00 RMK AO2 P0000
94908KDBQ DBQ20110407010510904/07/11 01:05:31  5-MIN KDBQ 070705Z AUTO 00000KT 9SM -SN CLR 02/M01 A2996 1050 85 -200 000/00 RMK AO2 P0000
94908KDBQ DBQ20110407011010804/07/11 01:10:31  5-MIN KDBQ 070710Z AUTO 00000KT 9SM -SN CLR 02/00 A2996 1050 85 -200 000/00 RMK AO2 P0000
94908KDBQ DBQ20110407011510904/07/11 01:15:31  5-MIN KDBQ 070715Z AUTO 00000KT 9SM -SN CLR 01/M01 A2996 1050 89 -300 000/00 RMK AO2 P0000
94908KDBQ DBQ20110407012010904/07/11 01:20:31  5-MIN KDBQ 070720Z AUTO 00000KT 9SM -SN CLR 02/M01 A2996 1040 85 -200 000/00 RMK AO2 P0000
94908KDBQ DBQ20110407012510904/07/11 01:25:31  5-MIN KDBQ 070725Z AUTO 00000KT 9SM -SN CLR 01/M01 A2996 1040 89 -300 000/00 RMK AO2 P0000
94908KDBQ DBQ20110407013010904/07/11 01:30:31  5-MIN KDBQ 070730Z AUTO 00000KT 9SM -SN CLR 01/M01 A2996 1040 85 -300 000/00 RMK AO2 P0000
94908KDBQ DBQ20110407013510804/07/11 01:35:31  5-MIN KDBQ 070735Z AUTO 00000KT 9SM -SN CLR 02/00 A2996 1040 89 -200 000/00 RMK AO2 P0000
94908KDBQ DBQ20110407014010804/07/11 01:40:31  5-MIN KDBQ 070740Z AUTO 00000KT 9SM -SN CLR 02/00 A2997 1040 89 -200 000/00 RMK AO2 P0000
94908KDBQ DBQ20110407014510804/07/11 01:45:31  5-MIN KDBQ 070745Z AUTO 00000KT 9SM -SN CLR 02/00 A2996 1040 89 -200 000/00 RMK AO2 P0000
94908KDBQ DBQ20110407015012504/07/11 01:50:31  5-MIN KDBQ 070750Z AUTO 00000KT 9SM -SN CLR 03/01 A2997 1040 85 -100 000/00 RMK AO2 SLP154 P0000 T00280006
94908KDBQ DBQ20110407015510804/07/11 01:55:31  5-MIN KDBQ 070755Z AUTO 00000KT 9SM -SN CLR 02/01 A2997 1030 89 -200 000/00 RMK AO2 P0000
94908KDBQ DBQ20110407020010804/07/11 02:00:31  5-MIN KDBQ 070800Z AUTO 00000KT 9SM -SN CLR 02/00 A2997 1030 85 -200 000/00 RMK AO2 P0000
94908KDBQ DBQ20110407020510804/07/11 02:05:31  5-MIN KDBQ 070805Z AUTO 00000KT 9SM -SN CLR 02/00 A2997 1030 85 -200 000/00 RMK AO2 P0000
94908KDBQ DBQ20110407021010804/07/11 02:10:31  5-MIN KDBQ 070810Z AUTO 00000KT 9SM -SN CLR 03/01 A2997 1030 85 -100 000/00 RMK AO2 P0000
94908KDBQ DBQ20110407021510804/07/11 02:15:31  5-MIN KDBQ 070815Z AUTO 00000KT 9SM -SN CLR 02/00 A2997 1030 85 -200 000/00 RMK AO2 P0000
94908KDBQ DBQ20110407022010904/07/11 02:20:31  5-MIN KDBQ 070820Z AUTO 00000KT 9SM -SN CLR 02/M01 A2998 1030 85 -300 000/00 RMK AO2 P0000
94908KDBQ DBQ20110407022510904/07/11 02:25:31  5-MIN KDBQ 070825Z AUTO 00000KT 9SM -SN CLR 02/M01 A2998 1030 85 -300 000/00 RMK AO2 P0000
94908KDBQ DBQ20110407023010904/07/11 02:30:31  5-MIN KDBQ 070830Z AUTO 00000KT 9SM -SN CLR 00/M02 A2998 1020 88 -500 000/00 RMK AO2 P0000
94908KDBQ DBQ20110407023510904/07/11 02:35:31  5-MIN KDBQ 070835Z AUTO 00000KT 9SM -SN CLR 01/M02 A2998 1020 85 -400 000/00 RMK AO2 P0000
94908KDBQ DBQ20110407024010904/07/11 02:40:31  5-MIN KDBQ 070840Z AUTO 00000KT 9SM -SN CLR 02/M01 A2998 1020 82 -300 000/00 RMK AO2 P0000
94908KDBQ DBQ20110407024510904/07/11 02:45:31  5-MIN KDBQ 070845Z AUTO 00000KT 9SM -SN CLR 01/M02 A2998 1020 85 -400 000/00 RMK AO2 P0000
94908KDBQ DBQ20110407025013804/07/11 02:50:31  5-MIN KDBQ 070850Z AUTO 00000KT 9SM -SN CLR 01/M01 A2998 1020 89 -400 000/00 RMK AO2 SLP158 P0000 60000 T00061011 51015
94908KDBQ DBQ20110407025510904/07/11 02:55:31  5-MIN KDBQ 070855Z AUTO 00000KT 9SM -SN CLR 01/M01 A2998 1020 85 -300 000/00 RMK AO2 P0000
94908KDBQ DBQ20110407030010904/07/11 03:00:31  5-MIN KDBQ 070900Z AUTO 00000KT 9SM -SN CLR 00/M02 A2998 1020 85 -500 000/00 RMK AO2 P0000
94908KDBQ DBQ20110407030510904/07/11 03:05:31  5-MIN KDBQ 070905Z AUTO 00000KT 9SM -SN CLR 01/M02 A2998 1020 85 -400 000/00 RMK AO2 P0000
94908KDBQ DBQ20110407031010904/07/11 03:10:31  5-MIN KDBQ 070910Z AUTO 00000KT 9SM -SN CLR 00/M02 A2998 1020 88 -500 000/00 RMK AO2 P0000
94908KDBQ DBQ20110407031510904/07/11 03:15:31  5-MIN KDBQ 070915Z AUTO 00000KT 9SM -SN CLR 01/M02 A2999 1020 82 -300 000/00 RMK AO2 P0000
94908KDBQ DBQ20110407032010904/07/11 03:20:31  5-MIN KDBQ 070920Z AUTO 00000KT 9SM -SN CLR 01/M02 A2999 1020 85 -400 000/00 RMK AO2 P0000
94908KDBQ DBQ20110407032510904/07/11 03:25:31  5-MIN KDBQ 070925Z AUTO 00000KT 9SM -SN CLR 01/M02 A2999 1020 85 -400 000/00 RMK AO2 P0000
94908KDBQ DBQ20110407033010904/07/11 03:30:31  5-MIN KDBQ 070930Z AUTO 00000KT 9SM -SN CLR 01/M01 A2998 1020 85 -300 000/00 RMK AO2 P0000
94908KDBQ DBQ20110407033510904/07/11 03:35:31  5-MIN KDBQ 070935Z AUTO 00000KT 9SM -SN CLR 02/M01 A2998 1020 85 -300 000/00 RMK AO2 P0000
94908KDBQ DBQ20110407034010904/07/11 03:40:31  5-MIN KDBQ 070940Z AUTO 00000KT 9SM -SN CLR 02/M01 A2998 1030 85 -300 000/00 RMK AO2 P0000
94908KDBQ DBQ20110407034510904/07/11 03:45:31  5-MIN KDBQ 070945Z AUTO 00000KT 9SM -SN CLR 02/M01 A2998 1020 82 -200 000/00 RMK AO2 P0000
94908KDBQ DBQ20110407035012604/07/11 03:50:31  5-MIN KDBQ 070950Z AUTO 00000KT 9SM -SN CLR 02/M01 A2998 1020 85 -300 000/00 RMK AO2 SLP159 P0000 T00171006
94908KDBQ DBQ20110407035510904/07/11 03:55:31  5-MIN KDBQ 070955Z AUTO 13003KT 9SM -SN CLR 01/M01 A2999 1020 85 -300 130/03 RMK AO2 P0000
94908KDBQ DBQ20110407040010904/07/11 04:00:31  5-MIN KDBQ 071000Z AUTO 00000KT 9SM -SN CLR 02/M01 A2999 1010 82 -200 000/00 RMK AO2 P0000
94908KDBQ DBQ20110407040511104/07/11 04:05:31  5-MIN KDBQ 071005Z AUTO 11003KT 9SM CLR 02/M01 A2999 1010 82 -200 110/03 RMK AO2 SNE02 P0000
94908KDBQ DBQ20110407041010804/07/11 04:10:31  5-MIN KDBQ 071010Z AUTO 11004KT 10SM CLR 04/00 A2999 1010 76 0 110/04 RMK AO2 SNE02 P0000
94908KDBQ DBQ20110407041511104/07/11 04:15:31  5-MIN KDBQ 071015Z AUTO 12004KT 10SM CLR 03/01 A3000 1010 82 -100 120/04 RMK AO2 SNE02 P0000
94908KDBQ DBQ20110407042011104/07/11 04:20:31  5-MIN KDBQ 071020Z AUTO 12004KT 10SM CLR 03/01 A3000 1010 85 -100 120/04 RMK AO2 SNE02 P0000
94908KDBQ DBQ20110407042510704/07/11 04:25:31  5-MIN KDBQ 071025Z AUTO 12004KT 9SM CLR 04/01 A3000 1010 79 0 120/04 RMK AO2 SNE02 P0000
94908KDBQ DBQ20110407043010704/07/11 04:30:31  5-MIN KDBQ 071030Z AUTO 14004KT 9SM CLR 04/01 A2999 1010 82 0 130/04 RMK AO2 SNE02 P0000
94908KDBQ DBQ20110407043510704/07/11 04:35:31  5-MIN KDBQ 071035Z AUTO 14005KT 9SM CLR 04/02 A2999 1010 85 0 140/05 RMK AO2 SNE02 P0000
94908KDBQ DBQ20110407044010704/07/11 04:40:31  5-MIN KDBQ 071040Z AUTO 15006KT 8SM CLR 04/02 A3000 1010 82 0 150/06 RMK AO2 SNE02 P0000
94908KDBQ DBQ20110407044510904/07/11 04:45:31  5-MIN KDBQ 071045Z AUTO 15004KT 8SM CLR 05/02 A3000 1010 82 100 150/04 RMK AO2 SNE02 P0000
94908KDBQ DBQ20110407045011904/07/11 04:50:31  5-MIN KDBQ 071050Z 15003KT 8SM CLR 04/02 A3000 1000 85 0 140/03 RMK AO2 SNE02 SLP164 P0000 T00440022
94908KDBQ DBQ20110407045509004/07/11 04:55:31  5-MIN KDBQ 071055Z 15004KT 8SM CLR 04/02 A3000 1000 85 0 150/04 RMK AO2
94908KDBQ DBQ20110407050009004/07/11 05:00:31  5-MIN KDBQ 071100Z 14003KT 8SM CLR 04/02 A3001 1000 85 0 140/03 RMK AO2
94908KDBQ DBQ20110407050509004/07/11 05:05:31  5-MIN KDBQ 071105Z 13003KT 8SM CLR 04/02 A3001 1000 82 0 130/03 RMK AO2
94908KDBQ DBQ20110407051008904/07/11 05:10:31  5-MIN KDBQ 071110Z 13004KT 8SM CLR 04/02 A3001 990 85 0 130/04 RMK AO2
94908KDBQ DBQ20110407051508904/07/11 05:15:31  5-MIN KDBQ 071115Z 14005KT 7SM CLR 04/02 A3002 990 85 0 140/05 RMK AO2
94908KDBQ DBQ20110407052008904/07/11 05:20:31  5-MIN KDBQ 071120Z 14004KT 7SM CLR 04/02 A3002 990 85 0 140/04 RMK AO2
94908KDBQ DBQ20110407052508904/07/11 05:25:31  5-MIN KDBQ 071125Z 14003KT 7SM CLR 04/02 A3002 990 85 0 140/03 RMK AO2
94908KDBQ DBQ20110407053009204/07/11 05:30:31  5-MIN KDBQ 071130Z 00000KT 6SM BR CLR 04/02 A3002 990 85 0 000/00 RMK AO2
94908KDBQ DBQ20110407053509204/07/11 05:35:31  5-MIN KDBQ 071135Z 00000KT 5SM BR CLR 04/02 A3002 980 85 0 000/00 RMK AO2
94908KDBQ DBQ20110407054009204/07/11 05:40:31  5-MIN KDBQ 071140Z 00000KT 5SM BR CLR 04/02 A3002 980 85 0 000/00 RMK AO2
94908KDBQ DBQ20110407054509204/07/11 05:45:31  5-MIN KDBQ 071145Z 14005KT 5SM BR CLR 04/02 A3003 980 89 0 140/05 RMK AO2
94908KDBQ DBQ20110407055013304/07/11 05:50:31  5-MIN KDBQ 071150Z 15006KT 5SM BR CLR 04/02 A3003 980 89 0 140/06 RMK AO2 SLP174 60000 T00390022 10050 20000 53011
94908KDBQ DBQ20110407055509204/07/11 05:55:31  5-MIN KDBQ 071155Z 14006KT 5SM BR CLR 04/02 A3003 980 89 0 140/06 RMK AO2
94908KDBQ DBQ20110407060009204/07/11 06:00:31  5-MIN KDBQ 071200Z 14005KT 5SM BR CLR 04/02 A3003 980 89 0 140/05 RMK AO2
94908KDBQ DBQ20110407060509204/07/11 06:05:31  5-MIN KDBQ 071205Z 14005KT 4SM BR CLR 04/02 A3003 980 89 0 140/05 RMK AO2
94908KDBQ DBQ20110407061009204/07/11 06:10:31  5-MIN KDBQ 071210Z 15004KT 5SM BR CLR 04/02 A3003 980 85 0 140/04 RMK AO2
94908KDBQ DBQ20110407061509204/07/11 06:15:31  5-MIN KDBQ 071215Z 15005KT 5SM BR CLR 04/02 A3003 980 85 0 150/05 RMK AO2
94908KDBQ DBQ20110407062009204/07/11 06:20:31  5-MIN KDBQ 071220Z 15005KT 5SM BR CLR 04/02 A3003 980 85 0 140/05 RMK AO2
94908KDBQ DBQ20110407062509204/07/11 06:25:31  5-MIN KDBQ 071225Z 15006KT 5SM BR CLR 04/03 A3003 980 89 0 150/06 RMK AO2
94908KDBQ DBQ20110407063009204/07/11 06:30:31  5-MIN KDBQ 071230Z 16006KT 5SM BR CLR 05/03 A3003 970 85 0 150/06 RMK AO2
94908KDBQ DBQ20110407063509404/07/11 06:35:31  5-MIN KDBQ 071235Z 15004KT 5SM HZ CLR 06/03 A3003 970 82 100 150/04 RMK AO2
94908KDBQ DBQ20110407064009404/07/11 06:40:31  5-MIN KDBQ 071240Z 15004KT 5SM HZ CLR 06/03 A3003 980 82 100 150/04 RMK AO2
94908KDBQ DBQ20110407064509404/07/11 06:45:31  5-MIN KDBQ 071245Z 15005KT 5SM HZ CLR 06/03 A3003 980 82 100 150/05 RMK AO2
94908KDBQ DBQ20110407065011104/07/11 06:50:31  5-MIN KDBQ 071250Z 15005KT 5SM BR CLR 06/03 A3003 980 85 100 150/05 RMK AO2 SLP175 T00560033
94908KDBQ DBQ20110407065509404/07/11 06:55:31  5-MIN KDBQ 071255Z 15004KT 5SM HZ CLR 06/03 A3003 980 82 200 150/04 RMK AO2
94908KDBQ DBQ20110407070009404/07/11 07:00:31  5-MIN KDBQ 071300Z 15005KT 5SM HZ CLR 06/03 A3003 970 82 200 150/05 RMK AO2
94908KDBQ DBQ20110407070509404/07/11 07:05:31  5-MIN KDBQ 071305Z 16006KT 5SM HZ CLR 06/03 A3004 970 82 200 160/06 RMK AO2
94908KDBQ DBQ20110407071009404/07/11 07:10:31  5-MIN KDBQ 071310Z 15004KT 5SM HZ CLR 06/03 A3004 970 82 200 140/04 RMK AO2
94908KDBQ DBQ20110407071509404/07/11 07:15:31  5-MIN KDBQ 071315Z 15005KT 5SM HZ CLR 06/03 A3004 970 82 200 150/05 RMK AO2
94908KDBQ DBQ20110407072009404/07/11 07:20:31  5-MIN KDBQ 071320Z 15006KT 5SM HZ CLR 07/04 A3004 970 82 200 150/06 RMK AO2
94908KDBQ DBQ20110407072509404/07/11 07:25:31  5-MIN KDBQ 071325Z 16007KT 5SM HZ CLR 07/04 A3004 970 82 200 150/07 RMK AO2
94908KDBQ DBQ20110407073009404/07/11 07:30:31  5-MIN KDBQ 071330Z 15006KT 5SM HZ CLR 07/04 A3004 970 79 300 150/06 RMK AO2
94908KDBQ DBQ20110407073509404/07/11 07:35:31  5-MIN KDBQ 071335Z 16006KT 5SM HZ CLR 07/04 A3004 970 79 300 160/06 RMK AO2
94908KDBQ DBQ20110407074009404/07/11 07:40:31  5-MIN KDBQ 071340Z 17005KT 5SM HZ CLR 07/04 A3004 970 79 300 160/05 RMK AO2
94908KDBQ DBQ20110407074509404/07/11 07:45:31  5-MIN KDBQ 071345Z 17005KT 5SM HZ CLR 08/04 A3004 970 76 400 170/05 RMK AO2
94908KDBQ DBQ20110407075011104/07/11 07:50:31  5-MIN KDBQ 071350Z 17007KT 6SM HZ CLR 08/04 A3004 970 76 400 170/07 RMK AO2 SLP179 T00780039
94908KDBQ DBQ20110407075509104/07/11 07:55:31  5-MIN KDBQ 071355Z 18008KT 7SM CLR 08/04 A3004 970 76 400 180/08 RMK AO2
94908KDBQ DBQ20110407080009104/07/11 08:00:31  5-MIN KDBQ 071400Z 17007KT 7SM CLR 08/04 A3004 970 73 400 170/07 RMK AO2
94908KDBQ DBQ20110407080509104/07/11 08:05:31  5-MIN KDBQ 071405Z 16006KT 8SM CLR 09/04 A3004 970 71 500 160/06 RMK AO2
94908KDBQ DBQ20110407081009104/07/11 08:10:31  5-MIN KDBQ 071410Z 16006KT 8SM CLR 09/04 A3003 970 71 500 160/06 RMK AO2
94908KDBQ DBQ20110407081509104/07/11 08:15:31  5-MIN KDBQ 071415Z 15005KT 9SM CLR 09/04 A3003 980 68 600 140/05 RMK AO2
94908KDBQ DBQ20110407082009104/07/11 08:20:31  5-MIN KDBQ 071420Z 14004KT 9SM CLR 09/04 A3003 970 71 500 140/04 RMK AO2
94908KDBQ DBQ20110407082509104/07/11 08:25:31  5-MIN KDBQ 071425Z 14005KT 9SM CLR 09/04 A3003 980 68 600 140/05 RMK AO2
94908KDBQ DBQ20110407083009104/07/11 08:30:31  5-MIN KDBQ 071430Z 13005KT 9SM CLR 09/03 A3003 980 68 500 130/05 RMK AO2
94908KDBQ DBQ20110407083509104/07/11 08:35:31  5-MIN KDBQ 071435Z 13004KT 9SM CLR 09/03 A3003 980 68 500 130/04 RMK AO2
94908KDBQ DBQ20110407084009104/07/11 08:40:31  5-MIN KDBQ 071440Z VRB04KT 9SM CLR 09/03 A3003 980 65 600 VRB/04 RMK AO2
94908KDBQ DBQ20110407084509104/07/11 08:45:31  5-MIN KDBQ 071445Z 13006KT 9SM CLR 09/03 A3003 970 65 600 130/06 RMK AO2
94908KDBQ DBQ20110407085011504/07/11 08:50:31  5-MIN KDBQ 071450Z 15006KT 10SM CLR 10/03 A3004 970 63 600 150/06 RMK AO2 SLP177 T01000033 53016
94908KDBQ DBQ20110407085509204/07/11 08:55:31  5-MIN KDBQ 071455Z 15004KT 10SM CLR 10/03 A3004 970 63 600 150/04 RMK AO2
94908KDBQ DBQ20110407090009204/07/11 09:00:31  5-MIN KDBQ 071500Z 15007KT 10SM CLR 10/03 A3004 970 63 600 150/07 RMK AO2
94908KDBQ DBQ20110407090509204/07/11 09:05:31  5-MIN KDBQ 071505Z 14007KT 10SM CLR 10/03 A3003 980 60 600 140/07 RMK AO2
94908KDBQ DBQ20110407091009204/07/11 09:10:31  5-MIN KDBQ 071510Z 14007KT 10SM CLR 10/03 A3003 980 60 700 140/07 RMK AO2
94908KDBQ DBQ20110407091509204/07/11 09:15:31  5-MIN KDBQ 071515Z 14008KT 10SM CLR 11/03 A3003 980 58 700 140/08 RMK AO2
94908KDBQ DBQ20110407092009204/07/11 09:20:31  5-MIN KDBQ 071520Z 15008KT 10SM CLR 11/03 A3004 970 58 700 150/08 RMK AO2
94908KDBQ DBQ20110407092509204/07/11 09:25:31  5-MIN KDBQ 071525Z 14007KT 10SM CLR 11/03 A3004 970 58 700 140/07 RMK AO2
94908KDBQ DBQ20110407093009204/07/11 09:30:31  5-MIN KDBQ 071530Z 14008KT 10SM CLR 11/03 A3004 970 58 700 130/08 RMK AO2
94908KDBQ DBQ20110407093509204/07/11 09:35:31  5-MIN KDBQ 071535Z 17010KT 10SM CLR 11/03 A3004 970 56 800 160/10 RMK AO2
94908KDBQ DBQ20110407094009204/07/11 09:40:31  5-MIN KDBQ 071540Z 17011KT 10SM CLR 11/02 A3004 970 54 800 170/11 RMK AO2
94908KDBQ DBQ20110407094509204/07/11 09:45:31  5-MIN KDBQ 071545Z 16010KT 10SM CLR 11/02 A3004 970 54 800 160/10 RMK AO2
94908KDBQ DBQ20110407095010904/07/11 09:50:31  5-MIN KDBQ 071550Z 17011KT 10SM CLR 11/02 A3003 970 54 800 170/11 RMK AO2 SLP176 T01110022
94908KDBQ DBQ20110407095509204/07/11 09:55:31  5-MIN KDBQ 071555Z 16010KT 10SM CLR 11/02 A3004 970 54 800 160/10 RMK AO2
94908KDBQ DBQ20110407100009804/07/11 10:00:31  5-MIN KDBQ 071600Z 14011G15KT 10SM CLR 12/02 A3004 970 52 800 140/11G15 RMK AO2
94908KDBQ DBQ20110407100509804/07/11 10:05:31  5-MIN KDBQ 071605Z 15009G15KT 10SM CLR 11/02 A3004 970 54 800 150/09G15 RMK AO2
94908KDBQ DBQ20110407101009204/07/11 10:10:31  5-MIN KDBQ 071610Z 14008KT 10SM CLR 12/02 A3004 970 52 800 140/08 RMK AO2
94908KDBQ DBQ20110407101509204/07/11 10:15:31  5-MIN KDBQ 071615Z 14009KT 10SM CLR 12/02 A3003 970 52 800 130/09 RMK AO2
94908KDBQ DBQ20110407102009204/07/11 10:20:31  5-MIN KDBQ 071620Z 14008KT 10SM CLR 12/02 A3003 970 52 800 140/08 RMK AO2
94908KDBQ DBQ20110407102509204/07/11 10:25:31  5-MIN KDBQ 071625Z 14009KT 10SM CLR 12/02 A3004 970 52 800 140/09 RMK AO2
94908KDBQ DBQ20110407103009204/07/11 10:30:31  5-MIN KDBQ 071630Z 14008KT 10SM CLR 12/02 A3004 970 52 800 140/08 RMK AO2
94908KDBQ DBQ20110407103509204/07/11 10:35:31  5-MIN KDBQ 071635Z 14007KT 10SM CLR 12/02 A3004 960 52 800 140/07 RMK AO2
94908KDBQ DBQ20110407104009204/07/11 10:40:31  5-MIN KDBQ 071640Z 15010KT 10SM CLR 12/02 A3005 960 50 800 150/10 RMK AO2
94908KDBQ DBQ20110407104509804/07/11 10:45:31  5-MIN KDBQ 071645Z 16010G15KT 10SM CLR 12/02 A3005 960 50 800 150/10G15 RMK AO2
94908KDBQ DBQ20110407105010904/07/11 10:50:31  5-MIN KDBQ 071650Z 16008KT 10SM CLR 12/02 A3005 960 48 900 150/08 RMK AO2 SLP180 T01220017
94908KDBQ DBQ20110407105509204/07/11 10:55:31  5-MIN KDBQ 071655Z 14011KT 10SM CLR 12/02 A3005 960 48 900 140/11 RMK AO2
94908KDBQ DBQ20110407110009204/07/11 11:00:31  5-MIN KDBQ 071700Z 14008KT 10SM CLR 12/02 A3004 970 48 900 130/08 RMK AO2
94908KDBQ DBQ20110407110509204/07/11 11:05:31  5-MIN KDBQ 071705Z 16007KT 10SM CLR 12/02 A3004 970 48 900 160/07 RMK AO2
94908KDBQ DBQ20110407111009204/07/11 11:10:31  5-MIN KDBQ 071710Z 14008KT 10SM CLR 12/02 A3003 970 48 900 140/08 RMK AO2
94908KDBQ DBQ20110407111509804/07/11 11:15:31  5-MIN KDBQ 071715Z 14010G15KT 10SM CLR 12/02 A3003 970 48 900 140/10G15 RMK AO2
94908KDBQ DBQ20110407112009804/07/11 11:20:31  5-MIN KDBQ 071720Z 13007G15KT 10SM CLR 12/02 A3003 980 48 900 130/07G15 RMK AO2
94908KDBQ DBQ20110407112509904/07/11 11:25:31  5-MIN KDBQ 071725Z 13011G16KT 10SM CLR 13/02 A3003 980 46 1000 130/11G16 RMK AO2
94908KDBQ DBQ20110407113009204/07/11 11:30:31  5-MIN KDBQ 071730Z 14010KT 10SM CLR 12/01 A3003 980 46 900 140/10 RMK AO2
94908KDBQ DBQ20110407113509204/07/11 11:35:31  5-MIN KDBQ 071735Z 15007KT 10SM CLR 12/02 A3002 980 48 900 150/07 RMK AO2
94908KDBQ DBQ20110407114009204/07/11 11:40:31  5-MIN KDBQ 071740Z 13010KT 10SM CLR 12/02 A3002 990 48 900 130/10 RMK AO2
94908KDBQ DBQ20110407114509204/07/11 11:45:31  5-MIN KDBQ 071745Z 13008KT 10SM CLR 12/02 A3001 990 48 900 130/08 RMK AO2
94908KDBQ DBQ20110407115012804/07/11 11:50:31  5-MIN KDBQ 071750Z 16009KT 10SM CLR 12/02 A3001 1000 48 900 160/09 RMK AO2 SLP167 T01220017 10128 20039 52003
94908KDBQ DBQ20110407115509304/07/11 11:55:31  5-MIN KDBQ 071755Z 12009KT 10SM CLR 12/02 A3000 1000 48 900 120/09 RMK AO2
94908KDBQ DBQ20110407120009404/07/11 12:00:31  5-MIN KDBQ 071800Z 13008KT 10SM CLR 12/02 A3000 1010 48 1000 130/08 RMK AO2
94908KDBQ DBQ20110407120509404/07/11 12:05:31  5-MIN KDBQ 071805Z 14007KT 10SM CLR 12/02 A3000 1010 48 1000 140/07 RMK AO2
94908KDBQ DBQ20110407121009404/07/11 12:10:31  5-MIN KDBQ 071810Z 15011KT 10SM CLR 13/01 A3000 1010 44 1000 150/11 RMK AO2
94908KDBQ DBQ20110407121510004/07/11 12:15:31  5-MIN KDBQ 071815Z 13009G15KT 10SM CLR 13/01 A3000 1010 44 1000 130/09G15 RMK AO2
94908KDBQ DBQ20110407122010004/07/11 12:20:31  5-MIN KDBQ 071820Z 13008G15KT 10SM CLR 13/01 A3000 1010 44 1000 130/08G15 RMK AO2
94908KDBQ DBQ20110407122509404/07/11 12:25:31  5-MIN KDBQ 071825Z 13009KT 10SM CLR 13/01 A3000 1010 44 1000 120/09 RMK AO2
94908KDBQ DBQ20110407123009404/07/11 12:30:31  5-MIN KDBQ 071830Z 13007KT 10SM CLR 13/01 A3000 1010 43 1100 130/07 RMK AO2
94908KDBQ DBQ20110407123509404/07/11 12:35:31  5-MIN KDBQ 071835Z 12009KT 10SM CLR 13/01 A3000 1000 43 1000 120/09 RMK AO2
94908KDBQ DBQ20110407124009404/07/11 12:40:31  5-MIN KDBQ 071840Z 13009KT 10SM CLR 13/01 A3000 1000 43 1000 130/09 RMK AO2
94908KDBQ DBQ20110407124509404/07/11 12:45:31  5-MIN KDBQ 071845Z 15010KT 10SM CLR 13/01 A3000 1000 43 1000 150/10 RMK AO2
94908KDBQ DBQ20110407125011104/07/11 12:50:31  5-MIN KDBQ 071850Z 14006KT 10SM CLR 13/01 A3001 1000 43 1000 140/06 RMK AO2 SLP166 T01280006
94908KDBQ DBQ20110407125509404/07/11 12:55:31  5-MIN KDBQ 071855Z 15009KT 10SM CLR 13/01 A3000 1000 43 1000 150/09 RMK AO2
94908KDBQ DBQ20110407130009404/07/11 13:00:31  5-MIN KDBQ 071900Z 13010KT 10SM CLR 13/01 A3000 1000 43 1000 130/10 RMK AO2
94908KDBQ DBQ20110407130509404/07/11 13:05:31  5-MIN KDBQ 071905Z 12008KT 10SM CLR 13/01 A3000 1010 43 1000 120/08 RMK AO2
94908KDBQ DBQ20110407131009404/07/11 13:10:31  5-MIN KDBQ 071910Z 13011KT 10SM CLR 13/01 A2999 1010 43 1000 130/11 RMK AO2
94908KDBQ DBQ20110407131509404/07/11 13:15:31  5-MIN KDBQ 071915Z 13012KT 10SM CLR 13/01 A3000 1010 43 1000 130/12 RMK AO2
94908KDBQ DBQ20110407132010004/07/11 13:20:31  5-MIN KDBQ 071920Z 13011G17KT 10SM CLR 13/01 A3000 1010 44 1000 130/11G17 RMK AO2
94908KDBQ DBQ20110407132509404/07/11 13:25:31  5-MIN KDBQ 071925Z 13011KT 10SM CLR 13/01 A2999 1010 43 1000 130/11 RMK AO2
94908KDBQ DBQ20110407133009404/07/11 13:30:31  5-MIN KDBQ 071930Z 13008KT 10SM CLR 13/01 A3000 1010 44 1000 130/08 RMK AO2
94908KDBQ DBQ20110407133509404/07/11 13:35:31  5-MIN KDBQ 071935Z 11008KT 10SM CLR 13/02 A2999 1010 46 1000 110/08 RMK AO2
94908KDBQ DBQ20110407134009404/07/11 13:40:31  5-MIN KDBQ 071940Z 12008KT 10SM CLR 13/01 A2999 1020 44 1000 120/08 RMK AO2
94908KDBQ DBQ20110407134509404/07/11 13:45:31  5-MIN KDBQ 071945Z 12007KT 10SM CLR 13/01 A2999 1020 44 1000 120/07 RMK AO2
94908KDBQ DBQ20110407135011104/07/11 13:50:31  5-MIN KDBQ 071950Z 12008KT 10SM CLR 13/01 A2998 1020 43 1100 110/08 RMK AO2 SLP158 T01330011
94908KDBQ DBQ20110407135509404/07/11 13:55:31  5-MIN KDBQ 071955Z 10010KT 10SM CLR 13/01 A2998 1020 41 1100 100/10 RMK AO2
94908KDBQ DBQ20110407140009404/07/11 14:00:31  5-MIN KDBQ 072000Z 12010KT 10SM CLR 13/01 A2998 1020 41 1100 120/10 RMK AO2
94908KDBQ DBQ20110407140509404/07/11 14:05:31  5-MIN KDBQ 072005Z 12008KT 10SM CLR 13/00 A2998 1020 40 1100 120/08 RMK AO2
94908KDBQ DBQ20110407141009404/07/11 14:10:31  5-MIN KDBQ 072010Z 12010KT 10SM CLR 13/00 A2998 1020 40 1100 120/10 RMK AO2
94908KDBQ DBQ20110407141509404/07/11 14:15:31  5-MIN KDBQ 072015Z 12009KT 10SM CLR 13/00 A2998 1030 40 1100 120/09 RMK AO2
94908KDBQ DBQ20110407142009404/07/11 14:20:31  5-MIN KDBQ 072020Z 13009KT 10SM CLR 13/00 A2997 1030 40 1100 130/09 RMK AO2
94908KDBQ DBQ20110407142509504/07/11 14:25:31  5-MIN KDBQ 072025Z 13012KT 10SM CLR 13/M01 A2997 1030 38 1100 130/12 RMK AO2
94908KDBQ DBQ20110407143009504/07/11 14:30:31  5-MIN KDBQ 072030Z 13011KT 10SM CLR 13/M01 A2997 1030 38 1100 130/11 RMK AO2
94908KDBQ DBQ20110407143510104/07/11 14:35:31  5-MIN KDBQ 072035Z 14010G17KT 10SM CLR 13/M01 A2997 1040 38 1100 140/10G17 RMK AO2
94908KDBQ DBQ20110407144010104/07/11 14:40:31  5-MIN KDBQ 072040Z 13012G17KT 10SM CLR 13/M01 A2997 1040 38 1100 130/12G17 RMK AO2
94908KDBQ DBQ20110407144510004/07/11 14:45:31  5-MIN KDBQ 072045Z 14010G17KT 10SM CLR 13/00 A2996 1040 40 1100 130/10G17 RMK AO2
94908KDBQ DBQ20110407145011704/07/11 14:50:31  5-MIN KDBQ 072050Z 14010KT 10SM CLR 13/00 A2996 1040 40 1100 140/10 RMK AO2 SLP151 T01330000 58011
94908KDBQ DBQ20110407145509404/07/11 14:55:31  5-MIN KDBQ 072055Z 13009KT 10SM CLR 13/00 A2996 1050 40 1100 130/09 RMK AO2
94908KDBQ DBQ20110407150010004/07/11 15:00:31  5-MIN KDBQ 072100Z 13011G16KT 10SM CLR 13/01 A2995 1050 41 1100 130/11G16 RMK AO2
94908KDBQ DBQ20110407150510004/07/11 15:05:31  5-MIN KDBQ 072105Z 15011G16KT 10SM CLR 13/01 A2995 1050 41 1100 150/11G16 RMK AO2
94908KDBQ DBQ20110407151009404/07/11 15:10:31  5-MIN KDBQ 072110Z 14012KT 10SM CLR 13/01 A2994 1060 41 1100 140/12 RMK AO2
94908KDBQ DBQ20110407151510004/07/11 15:15:31  5-MIN KDBQ 072115Z 14012G17KT 10SM CLR 13/01 A2994 1060 41 1100 140/12G17 RMK AO2
94908KDBQ DBQ20110407152010004/07/11 15:20:31  5-MIN KDBQ 072120Z 14013G17KT 10SM CLR 13/01 A2994 1060 41 1200 140/13G17 RMK AO2
94908KDBQ DBQ20110407152510004/07/11 15:25:31  5-MIN KDBQ 072125Z 14010G17KT 10SM CLR 13/01 A2994 1060 43 1100 140/10G17 RMK AO2
94908KDBQ DBQ20110407153010004/07/11 15:30:31  5-MIN KDBQ 072130Z 14010G17KT 10SM CLR 13/01 A2994 1060 44 1100 140/10G17 RMK AO2
94908KDBQ DBQ20110407153509404/07/11 15:35:31  5-MIN KDBQ 072135Z 13010KT 10SM CLR 13/01 A2994 1060 44 1100 130/10 RMK AO2
94908KDBQ DBQ20110407154009404/07/11 15:40:31  5-MIN KDBQ 072140Z 15012KT 10SM CLR 13/01 A2994 1060 44 1100 150/12 RMK AO2
94908KDBQ DBQ20110407154509404/07/11 15:45:31  5-MIN KDBQ 072145Z 14011KT 10SM CLR 13/01 A2994 1060 44 1100 140/11 RMK AO2
94908KDBQ DBQ20110407155011104/07/11 15:50:31  5-MIN KDBQ 072150Z 14008KT 10SM CLR 13/01 A2994 1060 44 1100 140/08 RMK AO2 SLP145 T01280011
94908KDBQ DBQ20110407155509404/07/11 15:55:31  5-MIN KDBQ 072155Z 15011KT 10SM CLR 13/01 A2995 1050 44 1100 150/11 RMK AO2
94908KDBQ DBQ20110407160009404/07/11 16:00:31  5-MIN KDBQ 072200Z 14008KT 10SM CLR 13/01 A2995 1050 44 1100 140/08 RMK AO2
94908KDBQ DBQ20110407160509404/07/11 16:05:31  5-MIN KDBQ 072205Z 15009KT 10SM CLR 12/02 A2995 1050 48 1000 150/09 RMK AO2
94908KDBQ DBQ20110407161009404/07/11 16:10:31  5-MIN KDBQ 072210Z 14008KT 10SM CLR 12/02 A2995 1050 48 1000 140/08 RMK AO2
94908KDBQ DBQ20110407161509404/07/11 16:15:31  5-MIN KDBQ 072215Z 14008KT 10SM CLR 12/02 A2995 1050 48 1000 140/08 RMK AO2
94908KDBQ DBQ20110407162009704/07/11 16:20:31  5-MIN KDBQ 072220Z 15006KT 10SM FEW100 12/02 A2995 1050 48 1000 150/06 RMK AO2
94908KDBQ DBQ20110407162509704/07/11 16:25:31  5-MIN KDBQ 072225Z 15009KT 10SM FEW100 12/02 A2995 1050 48 1000 140/09 RMK AO2
94908KDBQ DBQ20110407163010304/07/11 16:30:31  5-MIN KDBQ 072230Z 15011G15KT 10SM FEW100 12/02 A2995 1050 48 1000 150/11G15 RMK AO2
94908KDBQ DBQ20110407163509604/07/11 16:35:31  5-MIN KDBQ 072235Z 15009KT 9SM FEW100 12/02 A2995 1050 50 1000 150/09 RMK AO2
94908KDBQ DBQ20110407164009604/07/11 16:40:31  5-MIN KDBQ 072240Z 15007KT 9SM FEW100 12/02 A2995 1050 50 1000 150/07 RMK AO2
94908KDBQ DBQ20110407164509604/07/11 16:45:31  5-MIN KDBQ 072245Z 14009KT 9SM FEW100 12/02 A2995 1050 50 1000 140/09 RMK AO2
94908KDBQ DBQ20110407165011004/07/11 16:50:31  5-MIN KDBQ 072250Z 14008KT 9SM CLR 12/02 A2995 1050 50 1000 140/08 RMK AO2 SLP147 T01220022
94908KDBQ DBQ20110407165509604/07/11 16:55:31  5-MIN KDBQ 072255Z 14009KT 9SM FEW100 12/02 A2995 1050 48 1000 140/09 RMK AO2
94908KDBQ DBQ20110407170009704/07/11 17:00:31  5-MIN KDBQ 072300Z 14011KT 10SM FEW100 12/02 A2995 1050 48 1000 130/11 RMK AO2
94908KDBQ DBQ20110407170509304/07/11 17:05:31  5-MIN KDBQ 072305Z 13009KT 10SM CLR 12/01 A2995 1050 48 900 130/09 RMK AO2
94908KDBQ DBQ20110407171009304/07/11 17:10:31  5-MIN KDBQ 072310Z 14011KT 10SM CLR 12/01 A2995 1050 48 900 140/11 RMK AO2
94908KDBQ DBQ20110407171509904/07/11 17:15:31  5-MIN KDBQ 072315Z 14009G16KT 10SM CLR 12/01 A2995 1050 48 900 140/09G16 RMK AO2
94908KDBQ DBQ20110407172009304/07/11 17:20:31  5-MIN KDBQ 072320Z 14008KT 10SM CLR 12/01 A2995 1050 48 900 140/08 RMK AO2
94908KDBQ DBQ20110407172509304/07/11 17:25:31  5-MIN KDBQ 072325Z 13009KT 10SM CLR 12/01 A2995 1050 48 900 130/09 RMK AO2
94908KDBQ DBQ20110407173009304/07/11 17:30:31  5-MIN KDBQ 072330Z 14008KT 10SM CLR 12/01 A2995 1050 48 900 140/08 RMK AO2
94908KDBQ DBQ20110407173509304/07/11 17:35:31  5-MIN KDBQ 072335Z 13009KT 10SM CLR 12/01 A2995 1050 48 900 130/09 RMK AO2
94908KDBQ DBQ20110407174009604/07/11 17:40:31  5-MIN KDBQ 072340Z 13009KT 10SM FEW100 12/01 A2995 1050 48 900 130/09 RMK AO2
94908KDBQ DBQ20110407174510204/07/11 17:45:31  5-MIN KDBQ 072345Z 13008G16KT 10SM FEW090 12/01 A2995 1050 48 900 130/08G16 RMK AO2
94908KDBQ DBQ20110407175013704/07/11 17:50:31  5-MIN KDBQ 072350Z 13009G16KT 10SM FEW090 12/01 A2995 1050 48 900 130/09G16 RMK AO2 SLP147 T01170011 10133 20117 58016
94908KDBQ DBQ20110407175509604/07/11 17:55:31  5-MIN KDBQ 072355Z 13007KT 10SM FEW095 12/01 A2995 1060 48 900 130/07 RMK AO2
94908KDBQ DBQ20110407180009604/07/11 18:00:31  5-MIN KDBQ 080000Z 14007KT 10SM FEW095 11/01 A2994 1060 50 900 130/07 RMK AO2
94908KDBQ DBQ20110407180509604/07/11 18:05:31  5-MIN KDBQ 080005Z 13009KT 10SM SCT090 11/01 A2994 1060 50 900 130/09 RMK AO2
94908KDBQ DBQ20110407181009604/07/11 18:10:31  5-MIN KDBQ 080010Z 13008KT 10SM BKN090 11/01 A2994 1060 50 900 130/08 RMK AO2
94908KDBQ DBQ20110407181509604/07/11 18:15:31  5-MIN KDBQ 080015Z 13009KT 10SM BKN085 11/01 A2993 1070 50 900 130/09 RMK AO2
94908KDBQ DBQ20110407182009604/07/11 18:20:31  5-MIN KDBQ 080020Z 13007KT 10SM BKN085 11/01 A2993 1070 50 900 130/07 RMK AO2
94908KDBQ DBQ20110407182509604/07/11 18:25:31  5-MIN KDBQ 080025Z 14007KT 10SM BKN085 11/01 A2993 1070 50 900 130/07 RMK AO2
94908KDBQ DBQ20110407183009604/07/11 18:30:31  5-MIN KDBQ 080030Z 13008KT 10SM BKN085 11/01 A2993 1070 50 900 130/08 RMK AO2
94908KDBQ DBQ20110407183509604/07/11 18:35:31  5-MIN KDBQ 080035Z 13007KT 10SM BKN085 11/01 A2993 1070 50 900 130/07 RMK AO2
94908KDBQ DBQ20110407184009604/07/11 18:40:31  5-MIN KDBQ 080040Z 13006KT 10SM BKN080 11/01 A2993 1070 50 900 120/06 RMK AO2
94908KDBQ DBQ20110407184509604/07/11 18:45:31  5-MIN KDBQ 080045Z 12005KT 10SM BKN080 11/02 A2993 1070 54 800 110/05 RMK AO2
94908KDBQ DBQ20110407185011304/07/11 18:50:31  5-MIN KDBQ 080050Z 11007KT 10SM OVC080 11/02 A2993 1070 54 800 110/07 RMK AO2 SLP141 T01060017
94908KDBQ DBQ20110407185509604/07/11 18:55:31  5-MIN KDBQ 080055Z 12006KT 10SM OVC070 11/02 A2993 1070 54 800 120/06 RMK AO2
94908KDBQ DBQ20110407190010004/07/11 19:00:31  5-MIN KDBQ 080100Z AUTO 12006KT 9SM OVC065 11/02 A2992 1080 54 800 110/06 RMK AO2
94908KDBQ DBQ20110407190510004/07/11 19:05:31  5-MIN KDBQ 080105Z AUTO 12007KT 9SM OVC060 10/02 A2992 1080 58 800 110/07 RMK AO2
94908KDBQ DBQ20110407191010104/07/11 19:10:31  5-MIN KDBQ 080110Z AUTO 12011KT 10SM OVC060 10/02 A2992 1080 58 800 120/11 RMK AO2
94908KDBQ DBQ20110407191510704/07/11 19:15:31  5-MIN KDBQ 080115Z AUTO 12007G14KT 10SM OVC055 10/02 A2993 1070 58 800 120/07G14 RMK AO2
94908KDBQ DBQ20110407192010104/07/11 19:20:31  5-MIN KDBQ 080120Z AUTO 13008KT 10SM OVC055 10/02 A2993 1070 58 800 120/08 RMK AO2
94908KDBQ DBQ20110407192511604/07/11 19:25:31  5-MIN KDBQ 080125Z AUTO 13008KT 9SM -RA OVC055 10/02 A2993 1070 58 800 130/08 RMK AO2 RAB24 P0000
94908KDBQ DBQ20110407193012104/07/11 19:30:31  5-MIN KDBQ 080130Z AUTO 13009KT 8SM -RA OVC050 10/03 A2994 1060 60 800 120/09 RMK AO2 RAB24 P0000 TSNO
94908KDBQ DBQ20110407193512104/07/11 19:35:31  5-MIN KDBQ 080135Z AUTO 13009KT 8SM -RA OVC050 09/03 A2994 1060 63 700 130/09 RMK AO2 RAB24 P0000 TSNO
94908KDBQ DBQ20110407194012804/07/11 19:40:31  5-MIN KDBQ 080140Z AUTO 13009KT 8SM -RA BKN048 OVC060 09/03 A2994 1060 65 700 120/09 RMK AO2 RAB24 P0000 TSNO
94908KDBQ DBQ20110407194512804/07/11 19:45:31  5-MIN KDBQ 080145Z AUTO 12010KT 8SM -RA BKN048 OVC060 09/03 A2994 1060 68 600 120/10 RMK AO2 RAB24 P0000 TSNO
94908KDBQ DBQ20110407195014504/07/11 19:50:31  5-MIN KDBQ 080150Z AUTO 12010KT 8SM -RA BKN046 OVC060 09/03 A2994 1060 68 600 120/10 RMK AO2 RAB24 SLP143 P0000 T00890033 TSNO
94908KDBQ DBQ20110407195512204/07/11 19:55:31  5-MIN KDBQ 080155Z AUTO 12010KT 8SM -RA BKN046 OVC060 09/03 A2994 1060 68 600 120/10 RMK AO2 P0000 TSNO
94908KDBQ DBQ20110407200012204/07/11 20:00:31  5-MIN KDBQ 080200Z AUTO 12011KT 8SM -RA BKN048 OVC060 09/03 A2995 1050 68 600 120/11 RMK AO2 P0000 TSNO
94908KDBQ DBQ20110407200512204/07/11 20:05:31  5-MIN KDBQ 080205Z AUTO 13009KT 8SM -RA BKN048 OVC060 09/03 A2995 1050 68 600 120/09 RMK AO2 P0000 TSNO
94908KDBQ DBQ20110407201012204/07/11 20:10:31  5-MIN KDBQ 080210Z AUTO 13011KT 7SM -RA BKN048 OVC055 09/03 A2995 1050 68 600 130/11 RMK AO2 P0001 TSNO
94908KDBQ DBQ20110407201512204/07/11 20:15:31  5-MIN KDBQ 080215Z AUTO 13010KT 7SM -RA BKN048 OVC055 08/03 A2996 1050 70 500 130/10 RMK AO2 P0001 TSNO
94908KDBQ DBQ20110407202011504/07/11 20:20:31  5-MIN KDBQ 080220Z AUTO 13009KT 6SM -RA OVC048 08/04 A2996 1040 73 500 130/09 RMK AO2 P0001 TSNO
94908KDBQ DBQ20110407202511504/07/11 20:25:31  5-MIN KDBQ 080225Z AUTO 13008KT 6SM -RA OVC046 08/04 A2996 1040 73 500 130/08 RMK AO2 P0002 TSNO
94908KDBQ DBQ20110407203011004/07/11 20:30:31  5-MIN KDBQ 080230Z AUTO 13008KT 6SM -RA OVC048 08/04 A2996 1050 76 500 120/08 RMK AO2 P0002
94908KDBQ DBQ20110407203511004/07/11 20:35:31  5-MIN KDBQ 080235Z AUTO 13008KT 6SM -RA OVC048 08/04 A2996 1040 76 500 130/08 RMK AO2 P0003
94908KDBQ DBQ20110407204011004/07/11 20:40:31  5-MIN KDBQ 080240Z AUTO 13007KT 6SM -RA OVC050 08/04 A2996 1040 76 500 130/07 RMK AO2 P0003
94908KDBQ DBQ20110407204511004/07/11 20:45:31  5-MIN KDBQ 080245Z AUTO 12007KT 6SM -RA OVC050 08/04 A2996 1040 79 500 120/07 RMK AO2 P0003
94908KDBQ DBQ20110407205013904/07/11 20:50:31  5-MIN KDBQ 080250Z AUTO 12006KT 6SM -RA OVC050 07/04 A2996 1040 82 400 120/06 RMK AO2 SLP150 P0004 60004 T00720044 56004
94908KDBQ DBQ20110407205511004/07/11 20:55:31  5-MIN KDBQ 080255Z AUTO 12007KT 7SM -RA OVC055 07/04 A2996 1040 82 400 120/07 RMK AO2 P0000
94908KDBQ DBQ20110407210011004/07/11 21:00:31  5-MIN KDBQ 080300Z AUTO 12009KT 7SM -RA OVC055 07/04 A2996 1050 82 400 120/09 RMK AO2 P0000
94908KDBQ DBQ20110407210511004/07/11 21:05:31  5-MIN KDBQ 080305Z AUTO 12009KT 7SM -RA OVC055 07/04 A2995 1050 79 400 120/09 RMK AO2 P0000
94908KDBQ DBQ20110407211011004/07/11 21:10:31  5-MIN KDBQ 080310Z AUTO 12007KT 7SM -RA OVC055 07/04 A2996 1040 82 400 120/07 RMK AO2 P0000
94908KDBQ DBQ20110407211511004/07/11 21:15:31  5-MIN KDBQ 080315Z AUTO 13008KT 6SM -RA OVC050 07/04 A2996 1040 82 400 120/08 RMK AO2 P0001
94908KDBQ DBQ20110407212011004/07/11 21:20:31  5-MIN KDBQ 080320Z AUTO 12009KT 5SM -RA OVC050 07/04 A2996 1040 82 400 120/09 RMK AO2 P0001
94908KDBQ DBQ20110407212512004/07/11 21:25:31  5-MIN KDBQ 080325Z AUTO 12008KT 5SM -RA BR BKN050 OVC070 07/04 A2996 1040 86 300 120/08 RMK AO2 P0001
94908KDBQ DBQ20110407213012004/07/11 21:30:31  5-MIN KDBQ 080330Z AUTO 12007KT 6SM -RA BR BKN050 OVC070 07/04 A2996 1040 86 300 120/07 RMK AO2 P0001
94908KDBQ DBQ20110407213512004/07/11 21:35:31  5-MIN KDBQ 080335Z AUTO 11009KT 6SM -RA BR BKN050 OVC070 07/04 A2996 1040 86 300 110/09 RMK AO2 P0001
94908KDBQ DBQ20110407214012004/07/11 21:40:31  5-MIN KDBQ 080340Z AUTO 11008KT 5SM -RA BR BKN048 OVC065 07/04 A2996 1040 86 300 110/08 RMK AO2 P0002
94908KDBQ DBQ20110407214511904/07/11 21:45:31  5-MIN KDBQ 080345Z AUTO 10008KT 4SM RA BR BKN048 OVC060 07/04 A2996 1040 86 300 100/08 RMK AO2 P0003
94908KDBQ DBQ20110407215013704/07/11 21:50:31  5-MIN KDBQ 080350Z AUTO 09008KT 4SM -RA BR SCT048 OVC060 07/04 A2995 1050 86 300 090/08 RMK AO2 SLP148 P0004 T00670044
94908KDBQ DBQ20110407215511904/07/11 21:55:31  5-MIN KDBQ 080355Z AUTO 08008KT 4SM RA BR SCT048 OVC055 06/04 A2995 1050 89 300 080/08 RMK AO2 P0000
94908KDBQ DBQ20110407220011904/07/11 22:00:31  5-MIN KDBQ 080400Z AUTO 07008KT 4SM RA BR SCT044 OVC055 06/04 A2995 1050 89 300 070/08 RMK AO2 P0001
94908KDBQ DBQ20110407220511904/07/11 22:05:31  5-MIN KDBQ 080405Z AUTO 06008KT 4SM RA BR FEW044 OVC055 06/04 A2994 1060 89 300 060/08 RMK AO2 P0002
94908KDBQ DBQ20110407221011904/07/11 22:10:31  5-MIN KDBQ 080410Z AUTO 05007KT 4SM RA BR FEW044 OVC055 06/04 A2994 1060 89 300 050/07 RMK AO2 P0002
94908KDBQ DBQ20110407221511904/07/11 22:15:31  5-MIN KDBQ 080415Z AUTO 05008KT 4SM RA BR FEW042 OVC055 06/04 A2994 1060 89 300 050/08 RMK AO2 P0003
94908KDBQ DBQ20110407222011904/07/11 22:20:31  5-MIN KDBQ 080420Z AUTO 04008KT 3SM RA BR FEW042 OVC055 06/04 A2994 1060 89 300 040/08 RMK AO2 P0005
94908KDBQ DBQ20110407222511904/07/11 22:25:31  5-MIN KDBQ 080425Z AUTO 04008KT 3SM RA BR FEW042 OVC055 06/05 A2994 1060 93 300 040/08 RMK AO2 P0006
94908KDBQ DBQ20110407223012004/07/11 22:30:31  5-MIN KDBQ 080430Z AUTO 05009KT 4SM -RA BR FEW042 OVC055 06/04 A2994 1060 89 300 050/09 RMK AO2 P0007
94908KDBQ DBQ20110407223512004/07/11 22:35:31  5-MIN KDBQ 080435Z AUTO 05008KT 4SM -RA BR FEW044 OVC055 06/04 A2994 1060 89 300 050/08 RMK AO2 P0007
94908KDBQ DBQ20110407224011904/07/11 22:40:31  5-MIN KDBQ 080440Z AUTO 05008KT 3SM RA BR FEW011 OVC055 06/04 A2994 1060 92 200 050/08 RMK AO2 P0008
94908KDBQ DBQ20110407224512704/07/11 22:45:31  5-MIN KDBQ 080445Z AUTO 05009KT 3SM -RA BR FEW011 SCT043 OVC060 06/04 A2994 1060 92 200 050/09 RMK AO2 P0009
94908KDBQ DBQ20110407225014404/07/11 22:50:31  5-MIN KDBQ 080450Z AUTO 05006KT 3SM -RA BR SCT011 BKN039 OVC055 06/05 A2994 1060 96 200 050/06 RMK AO2 SLP143 P0009 T00560050
94908KDBQ DBQ20110407225512704/07/11 22:55:31  5-MIN KDBQ 080455Z AUTO 05007KT 3SM -RA BR SCT011 BKN041 OVC055 06/05 A2994 1060 96 200 050/07 RMK AO2 P0001
94908KDBQ DBQ20110407230012704/07/11 23:00:31  5-MIN KDBQ 080500Z AUTO 05006KT 3SM -RA BR SCT011 BKN045 OVC060 06/05 A2994 1060 96 200 050/06 RMK AO2 P0001
94908KDBQ DBQ20110407230512704/07/11 23:05:31  5-MIN KDBQ 080505Z AUTO 06006KT 3SM -RA BR SCT011 BKN041 OVC060 06/05 A2994 1060 96 200 050/06 RMK AO2 P0001
94908KDBQ DBQ20110407231012004/07/11 23:10:31  5-MIN KDBQ 080510Z AUTO 06006KT 3SM -RA BR SCT011 OVC045 06/05 A2995 1060 96 200 060/06 RMK AO2 P0002
94908KDBQ DBQ20110407231512004/07/11 23:15:31  5-MIN KDBQ 080515Z AUTO 06007KT 3SM -RA BR SCT011 OVC049 06/05 A2995 1050 96 200 060/07 RMK AO2 P0002
94908KDBQ DBQ20110407232012004/07/11 23:20:31  5-MIN KDBQ 080520Z AUTO 06007KT 4SM -RA BR FEW011 OVC049 06/05 A2995 1050 93 300 060/07 RMK AO2 P0002
94908KDBQ DBQ20110407232512704/07/11 23:25:31  5-MIN KDBQ 080525Z AUTO 06007KT 4SM -RA BR FEW011 BKN049 OVC065 06/05 A2995 1050 93 300 060/07 RMK AO2 P0002
94908KDBQ DBQ20110407233012704/07/11 23:30:31  5-MIN KDBQ 080530Z AUTO 06006KT 3SM -RA BR FEW011 BKN049 OVC060 06/05 A2995 1050 93 300 060/06 RMK AO2 P0002
94908KDBQ DBQ20110407233512704/07/11 23:35:31  5-MIN KDBQ 080535Z AUTO 06007KT 3SM -RA BR FEW011 BKN049 OVC060 06/05 A2995 1050 93 300 060/07 RMK AO2 P0003
94908KDBQ DBQ20110407234011904/07/11 23:40:31  5-MIN KDBQ 080540Z AUTO 05008KT 3SM RA BR BKN047 OVC060 06/05 A2995 1050 93 300 050/08 RMK AO2 P0003
94908KDBQ DBQ20110407234512304/07/11 23:45:31  5-MIN KDBQ 080545Z AUTO 06007KT 2 1/2SM RA BR BKN039 OVC047 06/05 A2995 1050 96 200 060/07 RMK AO2 P0005
94908KDBQ DBQ20110407235018104/07/11 23:50:31  5-MIN KDBQ 080550Z AUTO 06008KT 2 1/2SM RA BR FEW013 BKN037 OVC047 06/04 A2995 1050 92 200 060/08 RMK AO2 SLP146 P0005 60022 T00560044 10117 20056 401330000 55004
94908KDBQ DBQ20110407235513004/07/11 23:55:31  5-MIN KDBQ 080555Z AUTO 06008KT 2 1/2SM RA BR FEW013 BKN035 OVC047 06/04 A2995 1060 92 200 060/08 RMK AO2 P0000
94908KDBQ DBQ20110408000012004/08/11 00:00:38  5-MIN KDBQ 080600Z AUTO 05009KT 3SM -RA BR BKN035 OVC047 06/04 A2994 1060 92 200 050/09 RMK AO2 P0001
94908KDBQ DBQ20110408000512004/08/11 00:05:31  5-MIN KDBQ 080605Z AUTO 06011KT 3SM -RA BR BKN035 OVC047 06/04 A2994 1060 92 200 060/11 RMK AO2 P0002
94908KDBQ DBQ20110408001012004/08/11 00:10:31  5-MIN KDBQ 080610Z AUTO 06009KT 3SM -RA BR BKN037 OVC047 06/05 A2994 1060 96 200 060/09 RMK AO2 P0002
94908KDBQ DBQ20110408001512704/08/11 00:15:32  5-MIN KDBQ 080615Z AUTO 07009KT 4SM -RA BR BKN037 BKN047 OVC075 06/05 A2993 1070 96 200 060/09 RMK AO2 P0002
94908KDBQ DBQ20110408002012804/08/11 00:20:31  5-MIN KDBQ 080620Z AUTO 08008KT 4SM -RA BR FEW011 BKN035 OVC047 05/05 A2993 1070 100 200 070/08 RMK AO2 P0003
94908KDBQ DBQ20110408002512804/08/11 00:25:31  5-MIN KDBQ 080625Z AUTO 08010KT 4SM -RA BR FEW011 BKN037 OVC070 05/05 A2993 1070 100 200 080/10 RMK AO2 P0003
94908KDBQ DBQ20110408003012804/08/11 00:30:31  5-MIN KDBQ 080630Z AUTO 08010KT 4SM -RA BR FEW011 BKN037 OVC070 05/05 A2992 1080 100 200 080/10 RMK AO2 P0003
94908KDBQ DBQ20110408003512804/08/11 00:35:31  5-MIN KDBQ 080635Z AUTO 08009KT 4SM -RA BR FEW011 SCT039 OVC070 05/05 A2992 1080 100 200 080/09 RMK AO2 P0003
94908KDBQ DBQ20110408004012104/08/11 00:40:31  5-MIN KDBQ 080640Z AUTO 08012KT 4SM -RA BR FEW011 OVC070 05/05 A2992 1080 100 200 080/12 RMK AO2 P0003
94908KDBQ DBQ20110408004512104/08/11 00:45:31  5-MIN KDBQ 080645Z AUTO 08010KT 4SM -RA BR FEW011 OVC065 05/05 A2991 1090 100 200 080/10 RMK AO2 P0004
94908KDBQ DBQ20110408005013804/08/11 00:50:31  5-MIN KDBQ 080650Z AUTO 08012KT 4SM -RA BR FEW046 OVC065 05/05 A2990 1090 100 200 080/12 RMK AO2 SLP131 P0004 T00500050
94908KDBQ DBQ20110408005512104/08/11 00:55:31  5-MIN KDBQ 080655Z AUTO 08010KT 4SM -RA BR OVC065 05/05 A2990 1100 100 200 080/10 RMK AO2 PRESFR P0000
94908KDBQ DBQ20110408010011404/08/11 01:00:31  5-MIN KDBQ 080700Z AUTO 07011KT 4SM -RA BR OVC065 05/05 A2989 1110 100 200 070/11 RMK AO2 P0000
94908KDBQ DBQ20110408010512204/08/11 01:05:31  5-MIN KDBQ 080705Z AUTO 08011KT 4SM BR FEW006 OVC065 05/04 A2989 1110 96 200 080/11 RMK AO2 RAE01 P0000
94908KDBQ DBQ20110408011012204/08/11 01:10:31  5-MIN KDBQ 080710Z AUTO 08009KT 3SM BR SCT006 OVC065 05/04 A2989 1110 96 200 080/09 RMK AO2 RAE01 P0000
94908KDBQ DBQ20110408011512204/08/11 01:15:31  5-MIN KDBQ 080715Z AUTO 08008KT 3SM BR BKN006 OVC065 05/04 A2988 1110 96 200 080/08 RMK AO2 RAE01 P0000
94908KDBQ DBQ20110408012012204/08/11 01:20:31  5-MIN KDBQ 080720Z AUTO 07009KT 3SM BR BKN006 OVC065 05/04 A2988 1110 96 200 070/09 RMK AO2 RAE01 P0000
94908KDBQ DBQ20110408012512204/08/11 01:25:31  5-MIN KDBQ 080725Z AUTO 07010KT 3SM BR BKN006 OVC065 05/04 A2988 1120 96 200 070/10 RMK AO2 RAE01 P0000
94908KDBQ DBQ20110408013011504/08/11 01:30:31  5-MIN KDBQ 080730Z AUTO 08008KT 3SM BR OVC004 05/04 A2988 1120 96 200 080/08 RMK AO2 RAE01 P0000
94908KDBQ DBQ20110408013511504/08/11 01:35:31  5-MIN KDBQ 080735Z AUTO 07008KT 3SM BR OVC004 05/04 A2988 1120 96 200 070/08 RMK AO2 RAE01 P0000
94908KDBQ DBQ20110408014011504/08/11 01:40:31  5-MIN KDBQ 080740Z AUTO 07007KT 3SM BR OVC004 05/04 A2989 1110 96 200 070/07 RMK AO2 RAE01 P0000
94908KDBQ DBQ20110408014511504/08/11 01:45:31  5-MIN KDBQ 080745Z AUTO 07007KT 3SM BR OVC004 06/04 A2989 1110 92 300 060/07 RMK AO2 RAE01 P0000
94908KDBQ DBQ20110408015013204/08/11 01:50:31  5-MIN KDBQ 080750Z AUTO 08005KT 3SM BR OVC004 06/04 A2990 1100 92 300 080/05 RMK AO2 RAE01 SLP128 P0000 T00560044
94908KDBQ DBQ20110408015510304/08/11 01:55:31  5-MIN KDBQ 080755Z AUTO 08007KT 3SM BR OVC004 06/04 A2990 1100 92 300 080/07 RMK AO2
94908KDBQ DBQ20110408020010704/08/11 02:00:31  5-MIN KDBQ 080800Z AUTO 08006KT 2 1/2SM BR OVC004 06/04 A2990 1090 92 300 070/06 RMK AO2
94908KDBQ DBQ20110408020512304/08/11 02:05:31  5-MIN KDBQ 080805Z AUTO 08006KT 2 1/2SM -RA BR OVC004 06/04 A2991 1090 92 300 070/06 RMK AO2 RAB04 P0000
94908KDBQ DBQ20110408021012304/08/11 02:10:31  5-MIN KDBQ 080810Z AUTO 07007KT 2 1/2SM -RA BR OVC004 06/04 A2990 1090 92 300 070/07 RMK AO2 RAB04 P0000
94908KDBQ DBQ20110408021512304/08/11 02:15:31  5-MIN KDBQ 080815Z AUTO 07006KT 2 1/2SM -RA BR OVC004 06/05 A2990 1100 96 300 070/06 RMK AO2 RAB04 P0000
94908KDBQ DBQ20110408022012304/08/11 02:20:31  5-MIN KDBQ 080820Z AUTO 07008KT 2 1/2SM -RA BR OVC004 06/05 A2989 1100 96 300 070/08 RMK AO2 RAB04 P0000
94908KDBQ DBQ20110408022512304/08/11 02:25:31  5-MIN KDBQ 080825Z AUTO 06007KT 2 1/2SM -RA BR OVC004 06/05 A2989 1110 96 300 060/07 RMK AO2 RAB04 P0000
94908KDBQ DBQ20110408023012304/08/11 02:30:31  5-MIN KDBQ 080830Z AUTO 06008KT 2 1/2SM -RA BR OVC004 06/05 A2989 1110 96 300 060/08 RMK AO2 RAB04 P0001
94908KDBQ DBQ20110408023512304/08/11 02:35:31  5-MIN KDBQ 080835Z AUTO 05007KT 2 1/2SM -RA BR OVC004 06/05 A2989 1110 96 300 050/07 RMK AO2 RAB04 P0001
94908KDBQ DBQ20110408024012304/08/11 02:40:31  5-MIN KDBQ 080840Z AUTO 05008KT 2 1/2SM -RA BR OVC004 06/05 A2988 1120 96 300 050/08 RMK AO2 RAB04 P0001
94908KDBQ DBQ20110408024512304/08/11 02:45:31  5-MIN KDBQ 080845Z AUTO 04007KT 2 1/2SM -RA BR OVC004 06/05 A2988 1110 96 300 040/07 RMK AO2 RAB04 P0001
94908KDBQ DBQ20110408025014704/08/11 02:50:31  5-MIN KDBQ 080850Z AUTO 04007KT 2SM BR OVC004 06/05 A2989 1110 96 300 040/07 RMK AO2 RAB04E46 SLP124 P0001 60005 T00560050 56002
94908KDBQ DBQ20110408025510304/08/11 02:55:31  5-MIN KDBQ 080855Z AUTO 05007KT 2SM BR OVC002 06/05 A2989 1110 96 300 040/07 RMK AO2
94908KDBQ DBQ20110408030010704/08/11 03:00:31  5-MIN KDBQ 080900Z AUTO 05008KT 1 3/4SM BR OVC002 06/05 A2989 1110 96 300 050/08 RMK AO2
94908KDBQ DBQ20110408030510704/08/11 03:05:31  5-MIN KDBQ 080905Z AUTO 05006KT 1 1/2SM BR OVC002 06/05 A2989 1100 96 300 050/06 RMK AO2
94908KDBQ DBQ20110408031010704/08/11 03:10:31  5-MIN KDBQ 080910Z AUTO 05008KT 1 1/2SM BR OVC002 06/05 A2990 1100 96 300 050/08 RMK AO2
94908KDBQ DBQ20110408031510704/08/11 03:15:31  5-MIN KDBQ 080915Z AUTO 05008KT 1 3/4SM BR OVC002 06/05 A2990 1100 96 300 050/08 RMK AO2
94908KDBQ DBQ20110408032010304/08/11 03:20:31  5-MIN KDBQ 080920Z AUTO 06007KT 2SM BR OVC002 06/05 A2990 1100 96 300 060/07 RMK AO2
94908KDBQ DBQ20110408032510704/08/11 03:25:31  5-MIN KDBQ 080925Z AUTO 07006KT 2 1/2SM BR OVC002 06/05 A2990 1090 96 300 070/06 RMK AO2
94908KDBQ DBQ20110408033010704/08/11 03:30:31  5-MIN KDBQ 080930Z AUTO 06007KT 2 1/2SM BR OVC002 06/05 A2990 1100 96 300 060/07 RMK AO2
94908KDBQ DBQ20110408033510704/08/11 03:35:31  5-MIN KDBQ 080935Z AUTO 06007KT 2 1/2SM BR OVC002 06/05 A2990 1100 96 300 060/07 RMK AO2
94908KDBQ DBQ20110408034010704/08/11 03:40:31  5-MIN KDBQ 080940Z AUTO 06007KT 2 1/2SM BR OVC002 06/05 A2990 1100 96 300 060/07 RMK AO2
94908KDBQ DBQ20110408034510704/08/11 03:45:31  5-MIN KDBQ 080945Z AUTO 06007KT 2 1/2SM BR OVC002 06/05 A2990 1100 96 300 060/07 RMK AO2
94908KDBQ DBQ20110408035012404/08/11 03:50:31  5-MIN KDBQ 080950Z AUTO 05007KT 2 1/2SM BR OVC002 06/05 A2990 1100 96 300 050/07 RMK AO2 SLP127 T00560050
94908KDBQ DBQ20110408035510704/08/11 03:55:31  5-MIN KDBQ 080955Z AUTO 06007KT 2 1/2SM BR OVC002 06/05 A2990 1100 96 300 060/07 RMK AO2
94908KDBQ DBQ20110408040010704/08/11 04:00:31  5-MIN KDBQ 081000Z AUTO 06007KT 2 1/2SM BR OVC002 06/05 A2990 1100 96 300 060/07 RMK AO2
94908KDBQ DBQ20110408040510704/08/11 04:05:31  5-MIN KDBQ 081005Z AUTO 06006KT 2 1/2SM BR OVC002 06/05 A2990 1100 96 300 060/06 RMK AO2
94908KDBQ DBQ20110408041010704/08/11 04:10:31  5-MIN KDBQ 081010Z AUTO 06008KT 2 1/2SM BR OVC002 06/05 A2989 1100 96 300 060/08 RMK AO2
94908KDBQ DBQ20110408041510704/08/11 04:15:31  5-MIN KDBQ 081015Z AUTO 05008KT 2 1/2SM BR OVC002 06/05 A2989 1110 96 300 050/08 RMK AO2
94908KDBQ DBQ20110408042010704/08/11 04:20:31  5-MIN KDBQ 081020Z AUTO 04007KT 2 1/2SM BR OVC002 06/05 A2989 1100 96 300 040/07 RMK AO2
94908KDBQ DBQ20110408042510704/08/11 04:25:31  5-MIN KDBQ 081025Z AUTO 05007KT 2 1/2SM BR OVC002 06/05 A2989 1100 96 300 050/07 RMK AO2
94908KDBQ DBQ20110408043010704/08/11 04:30:31  5-MIN KDBQ 081030Z AUTO 05008KT 2 1/2SM BR OVC002 06/05 A2990 1100 96 300 040/08 RMK AO2
94908KDBQ DBQ20110408043510704/08/11 04:35:31  5-MIN KDBQ 081035Z AUTO 04008KT 2 1/2SM BR OVC002 06/05 A2990 1100 96 300 040/08 RMK AO2
94908KDBQ DBQ20110408044010804/08/11 04:40:31  5-MIN KDBQ 081040Z AUTO 04009KT 2 1/2SM BR OVC002 05/05 A2990 1100 100 200 040/09 RMK AO2
94908KDBQ DBQ20110408044510704/08/11 04:45:31  5-MIN KDBQ 081045Z AUTO 04009KT 2 1/2SM BR OVC002 05/04 A2990 1100 96 200 040/09 RMK AO2
94908KDBQ DBQ20110408045011604/08/11 04:50:31  5-MIN KDBQ 081050Z 03008KT 2SM BR OVC002 05/05 A2990 1100 100 200 030/08 RMK AO2 SLP130 T00500050
94908KDBQ DBQ20110408045510304/08/11 04:55:31  5-MIN KDBQ 081055Z 04009KT 1 1/2SM BR OVC002 05/05 A2991 1090 100 200 030/09 RMK AO2
94908KDBQ DBQ20110408050009804/08/11 05:00:31  5-MIN KDBQ 081100Z 05009KT 2SM BR OVC002 05/04 A2990 1090 96 200 040/09 RMK AO2
94908KDBQ DBQ20110408050510204/08/11 05:05:31  5-MIN KDBQ 081105Z 05009KT 1 3/4SM BR OVC002 05/04 A2990 1100 96 200 050/09 RMK AO2
94908KDBQ DBQ20110408051010204/08/11 05:10:31  5-MIN KDBQ 081110Z 04009KT 1 3/4SM BR OVC002 05/04 A2990 1100 96 200 040/09 RMK AO2
94908KDBQ DBQ20110408051510204/08/11 05:15:31  5-MIN KDBQ 081115Z 04009KT 1 3/4SM BR OVC002 05/04 A2990 1090 96 200 040/09 RMK AO2
94908KDBQ DBQ20110408052010204/08/11 05:20:31  5-MIN KDBQ 081120Z 04009KT 1 3/4SM BR OVC002 05/04 A2991 1090 96 200 040/09 RMK AO2
94908KDBQ DBQ20110408052510204/08/11 05:25:31  5-MIN KDBQ 081125Z 04008KT 1 3/4SM BR OVC002 05/04 A2991 1090 96 200 040/08 RMK AO2
94908KDBQ DBQ20110408053010204/08/11 05:30:31  5-MIN KDBQ 081130Z 04009KT 1 3/4SM BR OVC002 05/04 A2991 1090 96 200 040/09 RMK AO2
94908KDBQ DBQ20110408053510204/08/11 05:35:31  5-MIN KDBQ 081135Z 05009KT 1 3/4SM BR OVC002 05/04 A2991 1090 96 200 050/09 RMK AO2
94908KDBQ DBQ20110408054010204/08/11 05:40:31  5-MIN KDBQ 081140Z 05011KT 1 3/4SM BR OVC002 05/04 A2991 1090 96 200 040/11 RMK AO2
94908KDBQ DBQ20110408054510204/08/11 05:45:31  5-MIN KDBQ 081145Z 04009KT 1 3/4SM BR OVC002 05/04 A2991 1090 96 200 040/09 RMK AO2
94908KDBQ DBQ20110408055014904/08/11 05:50:31  5-MIN KDBQ 081150Z 02008KT 1 3/4SM BR OVC002 05/04 A2991 1090 96 200 020/08 RMK AO2 SLP133 60005 70028 T00500044 10056 20050 56019
94908KDBQ DBQ20110408055510204/08/11 05:55:31  5-MIN KDBQ 081155Z 03010KT 1 1/2SM BR OVC002 05/04 A2991 1080 96 200 030/10 RMK AO2
94908KDBQ DBQ20110408060010204/08/11 06:00:31  5-MIN KDBQ 081200Z 03009KT 1 1/4SM BR OVC002 05/04 A2992 1080 96 200 030/09 RMK AO2
94908KDBQ DBQ20110408060510904/08/11 06:05:31  5-MIN KDBQ 081205Z 03008KT 1 1/4SM BR OVC002 05/04 A2993 1070 96 200 030/08 RMK AO2 PRESRR
94908KDBQ DBQ20110408061010204/08/11 06:10:31  5-MIN KDBQ 081210Z 02010KT 1 1/4SM BR OVC002 05/04 A2993 1070 96 200 020/10 RMK AO2
94908KDBQ DBQ20110408061510204/08/11 06:15:31  5-MIN KDBQ 081215Z 02010KT 1 1/2SM BR OVC002 05/04 A2994 1060 96 100 020/10 RMK AO2
94908KDBQ DBQ20110408062010204/08/11 06:20:31  5-MIN KDBQ 081220Z 03010KT 1 3/4SM BR OVC002 05/04 A2994 1060 96 100 030/10 RMK AO2
94908KDBQ DBQ20110408062510204/08/11 06:25:31  5-MIN KDBQ 081225Z 03011KT 1 3/4SM BR OVC002 05/04 A2993 1070 96 200 030/11 RMK AO2
94908KDBQ DBQ20110408063010204/08/11 06:30:31  5-MIN KDBQ 081230Z 04010KT 1 3/4SM BR OVC002 05/04 A2993 1070 96 200 040/10 RMK AO2
94908KDBQ DBQ20110408063510204/08/11 06:35:31  5-MIN KDBQ 081235Z 03011KT 1 1/2SM BR OVC002 05/04 A2993 1070 96 200 030/11 RMK AO2
94908KDBQ DBQ20110408064010204/08/11 06:40:31  5-MIN KDBQ 081240Z 04012KT 1 1/2SM BR OVC002 05/04 A2993 1070 96 200 040/12 RMK AO2
94908KDBQ DBQ20110408064511904/08/11 06:45:31  5-MIN KDBQ 081245Z 04010KT 1 1/2SM R36/6000VP6000FT BR OVC002 06/04 A2993 1070 92 200 040/10 RMK AO2
94908KDBQ DBQ20110408065013604/08/11 06:50:31  5-MIN KDBQ 081250Z 05011KT 1 1/2SM R36/6000VP6000FT BR OVC002 06/05 A2992 1080 96 200 050/11 RMK AO2 SLP138 T00560050
94908KDBQ DBQ20110408065510204/08/11 06:55:31  5-MIN KDBQ 081255Z 04010KT 1 1/2SM BR OVC002 06/05 A2993 1070 96 200 040/10 RMK AO2
94908KDBQ DBQ20110408070010204/08/11 07:00:31  5-MIN KDBQ 081300Z 03011KT 1 3/4SM BR OVC002 06/05 A2993 1070 96 200 030/11 RMK AO2
94908KDBQ DBQ20110408070511904/08/11 07:05:31  5-MIN KDBQ 081305Z 04010KT 1 3/4SM R36/6000VP6000FT BR OVC002 06/05 A2993 1070 96 200 040/10 RMK AO2
94908KDBQ DBQ20110408071011904/08/11 07:10:31  5-MIN KDBQ 081310Z 03010KT 1 3/4SM R36/6000VP6000FT BR OVC002 06/05 A2993 1070 96 200 030/10 RMK AO2
94908KDBQ DBQ20110408071510204/08/11 07:15:31  5-MIN KDBQ 081315Z 03011KT 1 3/4SM BR OVC002 06/05 A2994 1060 96 200 030/11 RMK AO2
94908KDBQ DBQ20110408072010204/08/11 07:20:31  5-MIN KDBQ 081320Z 04010KT 1 3/4SM BR OVC002 06/05 A2994 1060 96 200 040/10 RMK AO2
94908KDBQ DBQ20110408072510204/08/11 07:25:31  5-MIN KDBQ 081325Z 04010KT 1 3/4SM BR OVC002 06/05 A2995 1050 96 200 040/10 RMK AO2
94908KDBQ DBQ20110408073010204/08/11 07:30:31  5-MIN KDBQ 081330Z 04011KT 1 3/4SM BR OVC002 06/05 A2995 1050 96 200 040/11 RMK AO2
94908KDBQ DBQ20110408073510204/08/11 07:35:31  5-MIN KDBQ 081335Z 04010KT 1 1/2SM BR OVC002 06/05 A2995 1050 96 200 040/10 RMK AO2
94908KDBQ DBQ20110408074010204/08/11 07:40:31  5-MIN KDBQ 081340Z 04011KT 1 1/2SM BR OVC004 06/05 A2995 1060 96 200 040/11 RMK AO2
94908KDBQ DBQ20110408074510204/08/11 07:45:31  5-MIN KDBQ 081345Z 04012KT 1 1/2SM BR OVC004 06/05 A2994 1060 96 200 040/12 RMK AO2
94908KDBQ DBQ20110408075011904/08/11 07:50:31  5-MIN KDBQ 081350Z 04013KT 1 3/4SM BR OVC004 06/05 A2994 1060 96 200 040/13 RMK AO2 SLP146 T00560050
94908KDBQ DBQ20110408075511904/08/11 07:55:31  5-MIN KDBQ 081355Z 04012KT 1 3/4SM R36/6000VP6000FT BR OVC004 06/05 A2994 1060 96 200 040/12 RMK AO2
94908KDBQ DBQ20110408080011904/08/11 08:00:31  5-MIN KDBQ 081400Z 04012KT 1 3/4SM R36/6000VP6000FT BR OVC004 06/05 A2995 1050 96 200 040/12 RMK AO2
94908KDBQ DBQ20110408080510204/08/11 08:05:31  5-MIN KDBQ 081405Z 04011KT 1 3/4SM BR OVC004 06/05 A2995 1050 93 300 040/11 RMK AO2
94908KDBQ DBQ20110408081010204/08/11 08:10:31  5-MIN KDBQ 081410Z 04011KT 1 3/4SM BR OVC004 06/05 A2995 1050 93 300 040/11 RMK AO2
94908KDBQ DBQ20110408081510204/08/11 08:15:31  5-MIN KDBQ 081415Z 05009KT 1 3/4SM BR OVC004 06/05 A2995 1050 93 300 050/09 RMK AO2
94908KDBQ DBQ20110408082010204/08/11 08:20:31  5-MIN KDBQ 081420Z 04011KT 1 3/4SM BR OVC004 06/05 A2995 1050 93 300 040/11 RMK AO2
94908KDBQ DBQ20110408082510204/08/11 08:25:31  5-MIN KDBQ 081425Z 04009KT 1 3/4SM BR OVC004 06/05 A2995 1050 93 300 040/09 RMK AO2
94908KDBQ DBQ20110408083010204/08/11 08:30:31  5-MIN KDBQ 081430Z 04010KT 1 3/4SM BR OVC004 06/05 A2995 1050 93 300 040/10 RMK AO2
94908KDBQ DBQ20110408083510204/08/11 08:35:31  5-MIN KDBQ 081435Z 05009KT 1 3/4SM BR OVC004 06/05 A2995 1050 93 300 040/09 RMK AO2
94908KDBQ DBQ20110408084010204/08/11 08:40:31  5-MIN KDBQ 081440Z 05009KT 1 3/4SM BR OVC004 06/06 A2996 1050 96 300 040/09 RMK AO2
94908KDBQ DBQ20110408084510204/08/11 08:45:31  5-MIN KDBQ 081445Z 03010KT 1 3/4SM BR OVC004 06/06 A2996 1050 96 300 030/10 RMK AO2
94908KDBQ DBQ20110408085010204/08/11 08:50:31  5-MIN KDBQ 081450Z 04010KT 2 1/2SM BR OVC004 06/06 A2995 1050 96 300 040/10 RMK AO2
94908KDBQ DBQ20110408085510204/08/11 08:55:31  5-MIN KDBQ 081455Z 04010KT 2 1/2SM BR OVC004 07/06 A2995 1050 93 300 030/10 RMK AO2
94908KDBQ DBQ20110408090010204/08/11 09:00:31  5-MIN KDBQ 081500Z 04009KT 2 1/2SM BR OVC004 07/06 A2996 1040 93 300 040/09 RMK AO2
94908KDBQ DBQ20110408090510204/08/11 09:05:31  5-MIN KDBQ 081505Z 04009KT 2 1/2SM BR OVC004 07/06 A2995 1050 93 300 040/09 RMK AO2
94908KDBQ DBQ20110408091010204/08/11 09:10:31  5-MIN KDBQ 081510Z 04009KT 2 1/2SM BR OVC004 07/06 A2996 1040 93 300 040/09 RMK AO2
94908KDBQ DBQ20110408091510204/08/11 09:15:31  5-MIN KDBQ 081515Z 04009KT 2 1/2SM BR OVC004 07/06 A2996 1040 93 300 040/09 RMK AO2
94908KDBQ DBQ20110408092009804/08/11 09:20:31  5-MIN KDBQ 081520Z 04009KT 3SM BR OVC004 07/06 A2996 1040 93 300 040/09 RMK AO2
94908KDBQ DBQ20110408092510204/08/11 09:25:31  5-MIN KDBQ 081525Z 04009KT 2 1/2SM BR OVC004 07/06 A2996 1040 93 300 040/09 RMK AO2
94908KDBQ DBQ20110408093010204/08/11 09:30:31  5-MIN KDBQ 081530Z 04010KT 2 1/2SM BR OVC004 07/06 A2997 1030 93 300 040/10 RMK AO2
94908KDBQ DBQ20110408093510204/08/11 09:35:31  5-MIN KDBQ 081535Z 04009KT 2 1/2SM BR OVC004 07/06 A2997 1040 93 300 040/09 RMK AO2
94908KDBQ DBQ20110408094010204/08/11 09:40:31  5-MIN KDBQ 081540Z 05010KT 2 1/2SM BR OVC004 07/06 A2997 1040 93 300 050/10 RMK AO2
94908KDBQ DBQ20110408094510204/08/11 09:45:31  5-MIN KDBQ 081545Z 05009KT 2 1/2SM BR OVC004 07/06 A2997 1030 93 300 050/09 RMK AO2
94908KDBQ DBQ20110408095009804/08/11 09:50:31  5-MIN KDBQ 081550Z 05008KT 3SM BR OVC004 07/06 A2997 1030 93 400 040/08 RMK AO2
94908KDBQ DBQ20110408095509804/08/11 09:55:31  5-MIN KDBQ 081555Z 05009KT 3SM BR OVC004 07/06 A2997 1030 93 400 050/09 RMK AO2
94908KDBQ DBQ20110408100009804/08/11 10:00:31  5-MIN KDBQ 081600Z 05008KT 3SM BR OVC004 07/06 A2997 1030 93 400 050/08 RMK AO2
94908KDBQ DBQ20110408100509804/08/11 10:05:31  5-MIN KDBQ 081605Z 06009KT 4SM BR OVC004 07/06 A2997 1030 93 400 060/09 RMK AO2
94908KDBQ DBQ20110408101009804/08/11 10:10:31  5-MIN KDBQ 081610Z 06008KT 4SM BR OVC004 07/06 A2997 1030 93 400 060/08 RMK AO2
94908KDBQ DBQ20110408101509804/08/11 10:15:31  5-MIN KDBQ 081615Z 05010KT 4SM BR OVC006 08/06 A2997 1030 89 500 050/10 RMK AO2
94908KDBQ DBQ20110408102009804/08/11 10:20:31  5-MIN KDBQ 081620Z 06007KT 4SM BR OVC006 08/06 A2997 1030 89 500 050/07 RMK AO2
94908KDBQ DBQ20110408102509804/08/11 10:25:31  5-MIN KDBQ 081625Z 06010KT 4SM BR OVC006 08/06 A2997 1040 89 500 050/10 RMK AO2
94908KDBQ DBQ20110408103009804/08/11 10:30:31  5-MIN KDBQ 081630Z 06009KT 4SM BR OVC006 08/06 A2997 1040 89 500 050/09 RMK AO2
94908KDBQ DBQ20110408103509804/08/11 10:35:31  5-MIN KDBQ 081635Z 06009KT 4SM BR OVC006 08/07 A2996 1040 93 500 060/09 RMK AO2
94908KDBQ DBQ20110408104009804/08/11 10:40:31  5-MIN KDBQ 081640Z 05008KT 4SM BR OVC006 08/07 A2996 1040 89 500 050/08 RMK AO2
94908KDBQ DBQ20110408104509804/08/11 10:45:31  5-MIN KDBQ 081645Z 06007KT 4SM BR OVC006 08/07 A2996 1040 89 500 060/07 RMK AO2
94908KDBQ DBQ20110408105011504/08/11 10:50:31  5-MIN KDBQ 081650Z 07008KT 4SM BR OVC006 08/07 A2996 1050 89 500 070/08 RMK AO2 SLP150 T00830067
94908KDBQ DBQ20110408105509804/08/11 10:55:31  5-MIN KDBQ 081655Z 06009KT 4SM BR OVC006 08/07 A2996 1050 89 500 060/09 RMK AO2
94908KDBQ DBQ20110408110009804/08/11 11:00:31  5-MIN KDBQ 081700Z 07007KT 5SM BR OVC006 08/07 A2996 1050 89 500 070/07 RMK AO2
94908KDBQ DBQ20110408110509804/08/11 11:05:31  5-MIN KDBQ 081705Z 07008KT 4SM BR OVC006 08/07 A2996 1050 89 500 070/08 RMK AO2
94908KDBQ DBQ20110408111009804/08/11 11:10:31  5-MIN KDBQ 081710Z 07008KT 5SM BR OVC006 09/07 A2995 1050 86 600 070/08 RMK AO2
94908KDBQ DBQ20110408111509804/08/11 11:15:31  5-MIN KDBQ 081715Z 07010KT 5SM BR OVC008 08/07 A2995 1050 89 500 070/10 RMK AO2
94908KDBQ DBQ20110408112009804/08/11 11:20:31  5-MIN KDBQ 081720Z 06009KT 5SM BR OVC008 09/07 A2995 1050 86 600 060/09 RMK AO2
94908KDBQ DBQ20110408112509804/08/11 11:25:31  5-MIN KDBQ 081725Z 07008KT 5SM BR OVC008 09/07 A2995 1050 86 600 070/08 RMK AO2
94908KDBQ DBQ20110408113009804/08/11 11:30:31  5-MIN KDBQ 081730Z 08010KT 5SM BR OVC008 09/07 A2995 1050 86 600 080/10 RMK AO2
94908KDBQ DBQ20110408113509804/08/11 11:35:31  5-MIN KDBQ 081735Z 07008KT 5SM BR OVC008 09/07 A2995 1050 89 600 070/08 RMK AO2
94908KDBQ DBQ20110408114009804/08/11 11:40:31  5-MIN KDBQ 081740Z 08008KT 5SM BR OVC008 09/07 A2996 1050 89 600 080/08 RMK AO2
94908KDBQ DBQ20110408114509804/08/11 11:45:31  5-MIN KDBQ 081745Z 05006KT 5SM BR OVC008 09/07 A2996 1050 89 600 050/06 RMK AO2
94908KDBQ DBQ20110408115013304/08/11 11:50:31  5-MIN KDBQ 081750Z 05004KT 5SM BR OVC008 09/07 A2996 1050 89 600 050/04 RMK AO2 SLP150 T00890072 10089 20050 51010
94908KDBQ DBQ20110408115509804/08/11 11:55:31  5-MIN KDBQ 081755Z 08006KT 5SM BR OVC008 09/07 A2996 1040 89 600 080/06 RMK AO2
94908KDBQ DBQ20110408120009804/08/11 12:00:31  5-MIN KDBQ 081800Z 06006KT 5SM BR OVC008 09/07 A2996 1040 86 700 060/06 RMK AO2
94908KDBQ DBQ20110408120511004/08/11 12:05:31  5-MIN KDBQ 081805Z 08006KT 5SM BR OVC008 09/07 A2996 1040 86 700 080/06 RMK AO2 CIG 007V012
94908KDBQ DBQ20110408121011004/08/11 12:10:31  5-MIN KDBQ 081810Z 08007KT 5SM BR OVC008 09/07 A2996 1040 86 700 080/07 RMK AO2 CIG 007V012
94908KDBQ DBQ20110408121509804/08/11 12:15:31  5-MIN KDBQ 081815Z 08005KT 6SM BR OVC009 09/07 A2996 1040 86 700 080/05 RMK AO2
94908KDBQ DBQ20110408122009804/08/11 12:20:31  5-MIN KDBQ 081820Z VRB03KT 6SM HZ OVC009 10/07 A2996 1040 83 700 VRB/03 RMK AO2
94908KDBQ DBQ20110408122509804/08/11 12:25:31  5-MIN KDBQ 081825Z 11004KT 6SM HZ OVC009 10/07 A2997 1040 83 700 110/04 RMK AO2
94908KDBQ DBQ20110408123009804/08/11 12:30:31  5-MIN KDBQ 081830Z 09004KT 6SM HZ OVC009 10/07 A2997 1030 83 700 090/04 RMK AO2
94908KDBQ DBQ20110408123509804/08/11 12:35:31  5-MIN KDBQ 081835Z 09006KT 6SM HZ OVC009 10/07 A2997 1030 83 700 090/06 RMK AO2
94908KDBQ DBQ20110408124009504/08/11 12:40:31  5-MIN KDBQ 081840Z 09007KT 7SM OVC009 10/07 A2997 1030 83 700 090/07 RMK AO2
94908KDBQ DBQ20110408124509504/08/11 12:45:31  5-MIN KDBQ 081845Z 07005KT 7SM OVC009 10/07 A2997 1030 83 700 070/05 RMK AO2
94908KDBQ DBQ20110408125011504/08/11 12:50:31  5-MIN KDBQ 081850Z 08007KT 6SM HZ OVC009 10/07 A2997 1040 83 700 080/07 RMK AO2 SLP154 T01000072
94908KDBQ DBQ20110408125509804/08/11 12:55:31  5-MIN KDBQ 081855Z 09006KT 6SM HZ OVC012 10/07 A2997 1030 83 700 090/06 RMK AO2
94908KDBQ DBQ20110408130009504/08/11 13:00:31  5-MIN KDBQ 081900Z 08006KT 7SM OVC012 11/07 A2997 1040 80 800 080/06 RMK AO2
94908KDBQ DBQ20110408130509504/08/11 13:05:31  5-MIN KDBQ 081905Z 07008KT 7SM OVC012 11/07 A2997 1030 80 800 070/08 RMK AO2
94908KDBQ DBQ20110408131009504/08/11 13:10:31  5-MIN KDBQ 081910Z 06007KT 7SM OVC012 11/08 A2997 1040 80 900 060/07 RMK AO2
94908KDBQ DBQ20110408131509504/08/11 13:15:31  5-MIN KDBQ 081915Z 07007KT 7SM OVC014 11/08 A2996 1040 83 800 070/07 RMK AO2
94908KDBQ DBQ20110408132009504/08/11 13:20:31  5-MIN KDBQ 081920Z 08007KT 7SM OVC014 11/08 A2997 1040 83 800 080/07 RMK AO2
94908KDBQ DBQ20110408132509504/08/11 13:25:31  5-MIN KDBQ 081925Z 09007KT 7SM OVC014 11/08 A2997 1040 83 800 090/07 RMK AO2
94908KDBQ DBQ20110408133009504/08/11 13:30:31  5-MIN KDBQ 081930Z 08008KT 8SM OVC016 11/08 A2996 1040 80 900 080/08 RMK AO2
94908KDBQ DBQ20110408133509504/08/11 13:35:31  5-MIN KDBQ 081935Z 09006KT 8SM OVC016 11/08 A2997 1040 80 900 090/06 RMK AO2
94908KDBQ DBQ20110408134009504/08/11 13:40:31  5-MIN KDBQ 081940Z 08010KT 8SM OVC016 11/08 A2997 1030 80 900 080/10 RMK AO2
94908KDBQ DBQ20110408134509504/08/11 13:45:31  5-MIN KDBQ 081945Z 09011KT 8SM OVC016 11/07 A2997 1030 77 900 080/11 RMK AO2
94908KDBQ DBQ20110408135011204/08/11 13:50:31  5-MIN KDBQ 081950Z 10008KT 8SM OVC016 11/08 A2997 1030 80 900 100/08 RMK AO2 SLP153 T01110078
94908KDBQ DBQ20110408135509504/08/11 13:55:31  5-MIN KDBQ 081955Z 10009KT 7SM OVC016 11/07 A2997 1030 77 800 100/09 RMK AO2
94908KDBQ DBQ20110408140009504/08/11 14:00:31  5-MIN KDBQ 082000Z 09008KT 7SM OVC016 11/08 A2997 1030 80 900 090/08 RMK AO2
94908KDBQ DBQ20110408140509504/08/11 14:05:31  5-MIN KDBQ 082005Z 08008KT 7SM OVC016 11/08 A2997 1030 80 800 080/08 RMK AO2
94908KDBQ DBQ20110408141009504/08/11 14:10:31  5-MIN KDBQ 082010Z 11008KT 7SM OVC014 11/08 A2997 1030 80 900 110/08 RMK AO2
94908KDBQ DBQ20110408141509504/08/11 14:15:31  5-MIN KDBQ 082015Z 10009KT 8SM OVC014 11/08 A2997 1030 80 900 100/09 RMK AO2
94908KDBQ DBQ20110408142009504/08/11 14:20:31  5-MIN KDBQ 082020Z 09010KT 8SM OVC014 11/07 A2997 1030 77 900 090/10 RMK AO2
94908KDBQ DBQ20110408142509504/08/11 14:25:31  5-MIN KDBQ 082025Z 10008KT 8SM OVC014 11/08 A2997 1030 80 900 100/08 RMK AO2
94908KDBQ DBQ20110408143010204/08/11 14:30:31  5-MIN KDBQ 082030Z 07009KT 8SM BKN014 OVC019 11/08 A2997 1030 80 900 070/09 RMK AO2
94908KDBQ DBQ20110408143509504/08/11 14:35:31  5-MIN KDBQ 082035Z 09009KT 7SM OVC016 11/08 A2996 1040 80 900 090/09 RMK AO2
94908KDBQ DBQ20110408144009504/08/11 14:40:31  5-MIN KDBQ 082040Z 09009KT 7SM OVC016 11/08 A2996 1040 80 900 090/09 RMK AO2
94908KDBQ DBQ20110408144509504/08/11 14:45:31  5-MIN KDBQ 082045Z 09013KT 8SM OVC016 11/07 A2996 1040 77 900 090/13 RMK AO2
94908KDBQ DBQ20110408145012504/08/11 14:50:31  5-MIN KDBQ 082050Z 10012KT 8SM BKN016 OVC031 12/07 A2996 1040 74 900 100/12 RMK AO2 SLP150 T01170072 51001
94908KDBQ DBQ20110408145510204/08/11 14:55:31  5-MIN KDBQ 082055Z 08011KT 8SM BKN016 OVC031 11/07 A2996 1040 77 900 080/11 RMK AO2
94908KDBQ DBQ20110408150010204/08/11 15:00:31  5-MIN KDBQ 082100Z 08009KT 8SM BKN016 OVC031 11/07 A2996 1040 77 900 080/09 RMK AO2
94908KDBQ DBQ20110408150510204/08/11 15:05:31  5-MIN KDBQ 082105Z 07010KT 7SM BKN016 OVC031 11/08 A2996 1040 80 900 070/10 RMK AO2
94908KDBQ DBQ20110408151010204/08/11 15:10:31  5-MIN KDBQ 082110Z 09009KT 7SM BKN016 OVC031 12/07 A2996 1040 74 900 090/09 RMK AO2
94908KDBQ DBQ20110408151510204/08/11 15:15:31  5-MIN KDBQ 082115Z 09012KT 7SM BKN018 OVC031 12/08 A2996 1040 77 900 090/12 RMK AO2
94908KDBQ DBQ20110408152010204/08/11 15:20:31  5-MIN KDBQ 082120Z 08012KT 8SM SCT018 OVC031 12/07 A2996 1040 74 900 080/12 RMK AO2
94908KDBQ DBQ20110408152510204/08/11 15:25:31  5-MIN KDBQ 082125Z 10012KT 8SM FEW018 OVC031 12/07 A2996 1040 74 900 100/12 RMK AO2
94908KDBQ DBQ20110408153010204/08/11 15:30:31  5-MIN KDBQ 082130Z 08008KT 8SM FEW018 OVC031 12/07 A2996 1040 74 900 080/08 RMK AO2
94908KDBQ DBQ20110408153511004/08/11 15:35:31  5-MIN KDBQ 082135Z 08010KT 8SM FEW018 SCT023 OVC031 12/07 A2996 1040 71 1000 080/10 RMK AO2
94908KDBQ DBQ20110408154010904/08/11 15:40:31  5-MIN KDBQ 082140Z 07009KT 8SM FEW018 SCT023 BKN031 12/07 A2996 1050 74 900 070/09 RMK AO2
94908KDBQ DBQ20110408154510204/08/11 15:45:31  5-MIN KDBQ 082145Z 09009KT 8SM FEW020 BKN031 12/07 A2996 1040 74 900 090/09 RMK AO2
94908KDBQ DBQ20110408155012004/08/11 15:50:31  5-MIN KDBQ 082150Z 10011KT 8SM SCT020 BKN031 12/07 A2996 1040 71 1000 100/11 RMK AO2 SLP151 T01220072
94908KDBQ DBQ20110408155510204/08/11 15:55:31  5-MIN KDBQ 082155Z 09013KT 9SM BKN020 BKN031 12/07 A2996 1040 74 900 090/13 RMK AO2
94908KDBQ DBQ20110408160009504/08/11 16:00:31  5-MIN KDBQ 082200Z 09010KT 9SM BKN020 12/07 A2996 1040 74 900 090/10 RMK AO2
94908KDBQ DBQ20110408160509504/08/11 16:05:31  5-MIN KDBQ 082205Z 09012KT 9SM BKN020 12/07 A2996 1040 74 900 090/12 RMK AO2
94908KDBQ DBQ20110408161010104/08/11 16:10:31  5-MIN KDBQ 082210Z 09013G18KT 8SM OVC020 12/07 A2996 1040 74 900 090/13G18 RMK AO2
94908KDBQ DBQ20110408161509504/08/11 16:15:31  5-MIN KDBQ 082215Z 10011KT 9SM BKN020 11/07 A2996 1040 74 900 100/11 RMK AO2
94908KDBQ DBQ20110408162009504/08/11 16:20:31  5-MIN KDBQ 082220Z 10009KT 9SM BKN020 12/07 A2996 1040 74 900 100/09 RMK AO2
94908KDBQ DBQ20110408162509504/08/11 16:25:31  5-MIN KDBQ 082225Z 09008KT 9SM BKN020 12/07 A2996 1040 74 900 090/08 RMK AO2
94908KDBQ DBQ20110408163009504/08/11 16:30:31  5-MIN KDBQ 082230Z 08009KT 9SM BKN020 12/07 A2996 1040 74 900 080/09 RMK AO2
94908KDBQ DBQ20110408163510204/08/11 16:35:31  5-MIN KDBQ 082235Z 11010KT 9SM BKN020 BKN025 12/07 A2996 1040 74 900 110/10 RMK AO2
94908KDBQ DBQ20110408164010204/08/11 16:40:31  5-MIN KDBQ 082240Z 10010KT 8SM BKN020 BKN025 11/07 A2996 1040 77 900 100/10 RMK AO2
94908KDBQ DBQ20110408164510204/08/11 16:45:31  5-MIN KDBQ 082245Z 10009KT 8SM BKN020 OVC025 11/07 A2997 1040 77 900 100/09 RMK AO2
94908KDBQ DBQ20110408165011204/08/11 16:50:31  5-MIN KDBQ 082250Z 09008KT 8SM OVC018 11/07 A2997 1040 77 900 090/08 RMK AO2 SLP152 T01110072
94908KDBQ DBQ20110408165510104/08/11 16:55:31  5-MIN KDBQ 082255Z 10012G19KT 8SM OVC018 11/07 A2997 1030 77 900 100/12G19 RMK AO2
94908KDBQ DBQ20110408170010104/08/11 17:00:31  5-MIN KDBQ 082300Z 11012G20KT 8SM OVC018 11/07 A2997 1040 77 800 110/12G20 RMK AO2
94908KDBQ DBQ20110408170510104/08/11 17:05:31  5-MIN KDBQ 082305Z 11010G20KT 8SM OVC020 11/07 A2997 1040 77 800 110/10G20 RMK AO2
94908KDBQ DBQ20110408171009504/08/11 17:10:31  5-MIN KDBQ 082310Z 10008KT 8SM OVC020 11/07 A2997 1040 80 800 100/08 RMK AO2
94908KDBQ DBQ20110408171509504/08/11 17:15:31  5-MIN KDBQ 082315Z 10007KT 8SM OVC022 11/07 A2997 1030 80 800 100/07 RMK AO2
94908KDBQ DBQ20110408172010204/08/11 17:20:31  5-MIN KDBQ 082320Z 11009KT 8SM BKN019 OVC024 11/07 A2997 1030 77 800 110/09 RMK AO2
94908KDBQ DBQ20110408172510204/08/11 17:25:31  5-MIN KDBQ 082325Z 10010KT 8SM BKN019 OVC024 11/07 A2997 1040 77 800 100/10 RMK AO2
94908KDBQ DBQ20110408173010204/08/11 17:30:31  5-MIN KDBQ 082330Z 10009KT 7SM BKN017 OVC024 11/07 A2996 1040 77 800 100/09 RMK AO2
94908KDBQ DBQ20110408173510204/08/11 17:35:31  5-MIN KDBQ 082335Z 10009KT 7SM BKN017 OVC024 11/07 A2996 1040 77 800 100/09 RMK AO2
94908KDBQ DBQ20110408174009504/08/11 17:40:31  5-MIN KDBQ 082340Z 11011KT 7SM OVC017 10/07 A2996 1040 80 700 110/11 RMK AO2
94908KDBQ DBQ20110408174510204/08/11 17:45:31  5-MIN KDBQ 082345Z 10009KT 7SM BKN017 OVC021 10/07 A2996 1040 80 700 100/09 RMK AO2
94908KDBQ DBQ20110408175013004/08/11 17:50:31  5-MIN KDBQ 082350Z 11009KT 7SM OVC017 10/07 A2996 1040 80 700 110/09 RMK AO2 SLP152 T01000067 10122 20089 50001
94908KDBQ DBQ20110408175509504/08/11 17:55:31  5-MIN KDBQ 082355Z 10009KT 7SM OVC017 10/07 A2996 1040 80 700 100/09 RMK AO2
94908KDBQ DBQ20110408180009504/08/11 18:00:31  5-MIN KDBQ 090000Z 11007KT 7SM OVC019 10/07 A2996 1040 80 700 110/07 RMK AO2
94908KDBQ DBQ20110408180509504/08/11 18:05:31  5-MIN KDBQ 090005Z 10009KT 7SM OVC019 10/07 A2996 1040 80 700 090/09 RMK AO2
94908KDBQ DBQ20110408181009504/08/11 18:10:31  5-MIN KDBQ 090010Z 10010KT 7SM OVC019 10/07 A2997 1040 80 700 090/10 RMK AO2
94908KDBQ DBQ20110408181509504/08/11 18:15:31  5-MIN KDBQ 090015Z 11010KT 7SM OVC019 10/07 A2996 1040 80 700 110/10 RMK AO2
94908KDBQ DBQ20110408182009504/08/11 18:20:31  5-MIN KDBQ 090020Z 11008KT 7SM OVC017 10/07 A2996 1040 80 700 110/08 RMK AO2
94908KDBQ DBQ20110408182509504/08/11 18:25:31  5-MIN KDBQ 090025Z 10009KT 7SM OVC017 10/07 A2995 1050 80 700 090/09 RMK AO2
94908KDBQ DBQ20110408183009504/08/11 18:30:31  5-MIN KDBQ 090030Z 10008KT 7SM OVC017 10/07 A2996 1050 80 700 100/08 RMK AO2
94908KDBQ DBQ20110408183509504/08/11 18:35:31  5-MIN KDBQ 090035Z 10007KT 7SM OVC017 10/07 A2996 1040 80 700 100/07 RMK AO2
94908KDBQ DBQ20110408184009504/08/11 18:40:31  5-MIN KDBQ 090040Z 11010KT 7SM OVC017 10/07 A2996 1050 80 700 110/10 RMK AO2
94908KDBQ DBQ20110408184509504/08/11 18:45:31  5-MIN KDBQ 090045Z 11009KT 8SM OVC017 09/07 A2996 1040 83 700 110/09 RMK AO2
94908KDBQ DBQ20110408185011204/08/11 18:50:31  5-MIN KDBQ 090050Z 11007KT 8SM OVC017 09/07 A2996 1040 83 700 100/07 RMK AO2 SLP150 T00940067
94908KDBQ DBQ20110408185510004/08/11 18:55:31  5-MIN KDBQ 090055Z AUTO 10009KT 8SM OVC017 09/07 A2995 1050 83 700 100/09 RMK AO2
94908KDBQ DBQ20110408190010704/08/11 19:00:31  5-MIN KDBQ 090100Z AUTO 09010KT 8SM BKN017 OVC021 09/07 A2995 1050 83 700 090/10 RMK AO2
94908KDBQ DBQ20110408190510004/08/11 19:05:31  5-MIN KDBQ 090105Z AUTO 08008KT 8SM OVC017 09/07 A2995 1050 83 700 080/08 RMK AO2
94908KDBQ DBQ20110408191010704/08/11 19:10:31  5-MIN KDBQ 090110Z AUTO 07008KT 8SM BKN015 OVC020 09/07 A2995 1050 83 700 070/08 RMK AO2
94908KDBQ DBQ20110408191510704/08/11 19:15:31  5-MIN KDBQ 090115Z AUTO 08007KT 8SM BKN015 OVC020 09/07 A2995 1050 83 700 080/07 RMK AO2
94908KDBQ DBQ20110408192010704/08/11 19:20:31  5-MIN KDBQ 090120Z AUTO 10010KT 8SM BKN015 OVC020 09/07 A2995 1050 83 700 100/10 RMK AO2
94908KDBQ DBQ20110408192510704/08/11 19:25:31  5-MIN KDBQ 090125Z AUTO 09007KT 7SM BKN015 OVC020 09/07 A2996 1040 83 700 090/07 RMK AO2
94908KDBQ DBQ20110408193010704/08/11 19:30:31  5-MIN KDBQ 090130Z AUTO 09005KT 7SM BKN013 OVC020 09/07 A2996 1040 83 700 090/05 RMK AO2
94908KDBQ DBQ20110408193510704/08/11 19:35:31  5-MIN KDBQ 090135Z AUTO 09007KT 7SM BKN013 OVC020 09/07 A2996 1040 83 700 090/07 RMK AO2
94908KDBQ DBQ20110408194010704/08/11 19:40:31  5-MIN KDBQ 090140Z AUTO 10007KT 7SM BKN013 OVC020 09/07 A2996 1040 83 700 100/07 RMK AO2
94908KDBQ DBQ20110408194510704/08/11 19:45:31  5-MIN KDBQ 090145Z AUTO 11008KT 7SM BKN013 OVC020 09/07 A2996 1040 83 700 110/08 RMK AO2
94908KDBQ DBQ20110408195012404/08/11 19:50:31  5-MIN KDBQ 090150Z AUTO 11008KT 7SM BKN013 OVC019 09/07 A2996 1040 83 700 110/08 RMK AO2 SLP152 T00940067
94908KDBQ DBQ20110408195510704/08/11 19:55:31  5-MIN KDBQ 090155Z AUTO 11005KT 7SM BKN013 OVC019 09/07 A2996 1040 86 600 110/05 RMK AO2
94908KDBQ DBQ20110408200010004/08/11 20:00:31  5-MIN KDBQ 090200Z AUTO 12006KT 7SM OVC013 09/07 A2997 1030 86 600 120/06 RMK AO2
94908KDBQ DBQ20110408200510704/08/11 20:05:31  5-MIN KDBQ 090205Z AUTO 12007KT 7SM BKN013 OVC019 09/07 A2997 1030 86 600 120/07 RMK AO2
94908KDBQ DBQ20110408201010704/08/11 20:10:31  5-MIN KDBQ 090210Z AUTO 12010KT 7SM BKN013 OVC019 09/07 A2997 1030 86 600 120/10 RMK AO2
94908KDBQ DBQ20110408201510004/08/11 20:15:31  5-MIN KDBQ 090215Z AUTO 13010KT 7SM OVC013 09/07 A2997 1030 86 600 120/10 RMK AO2
94908KDBQ DBQ20110408202010004/08/11 20:20:31  5-MIN KDBQ 090220Z AUTO 13010KT 7SM OVC013 09/07 A2997 1030 86 600 130/10 RMK AO2
94908KDBQ DBQ20110408202510004/08/11 20:25:31  5-MIN KDBQ 090225Z AUTO 14009KT 7SM OVC013 09/07 A2998 1030 86 600 140/09 RMK AO2
94908KDBQ DBQ20110408203010304/08/11 20:30:31  5-MIN KDBQ 090230Z AUTO 13005KT 6SM BR OVC013 09/07 A2998 1030 86 600 130/05 RMK AO2
94908KDBQ DBQ20110408203510304/08/11 20:35:31  5-MIN KDBQ 090235Z AUTO 13006KT 6SM BR OVC011 09/07 A2998 1030 86 600 130/06 RMK AO2
94908KDBQ DBQ20110408204010304/08/11 20:40:31  5-MIN KDBQ 090240Z AUTO 14007KT 6SM BR OVC011 09/07 A2998 1030 86 600 140/07 RMK AO2
94908KDBQ DBQ20110408204510304/08/11 20:45:31  5-MIN KDBQ 090245Z AUTO 15005KT 6SM BR OVC011 09/07 A2998 1020 86 600 150/05 RMK AO2
94908KDBQ DBQ20110408205012604/08/11 20:50:31  5-MIN KDBQ 090250Z AUTO 14008KT 6SM BR OVC011 09/07 A2998 1030 86 600 140/08 RMK AO2 SLP157 T00890067 50000
94908KDBQ DBQ20110408205510304/08/11 20:55:31  5-MIN KDBQ 090255Z AUTO 14007KT 6SM BR OVC011 09/07 A2998 1020 86 600 140/07 RMK AO2
94908KDBQ DBQ20110408210011004/08/11 21:00:31  5-MIN KDBQ 090300Z AUTO 13006KT 6SM BR BKN011 OVC017 09/07 A2998 1020 86 600 130/06 RMK AO2
94908KDBQ DBQ20110408210510304/08/11 21:05:31  5-MIN KDBQ 090305Z AUTO 13009KT 6SM BR OVC011 09/07 A2998 1030 86 600 130/09 RMK AO2
94908KDBQ DBQ20110408211010304/08/11 21:10:31  5-MIN KDBQ 090310Z AUTO 14009KT 6SM BR OVC011 09/07 A2998 1030 86 600 130/09 RMK AO2
94908KDBQ DBQ20110408211510304/08/11 21:15:31  5-MIN KDBQ 090315Z AUTO 14009KT 6SM BR OVC011 09/07 A2998 1020 86 600 140/09 RMK AO2
94908KDBQ DBQ20110408212010304/08/11 21:20:31  5-MIN KDBQ 090320Z AUTO 13008KT 6SM BR OVC011 09/07 A2998 1020 86 600 130/08 RMK AO2
94908KDBQ DBQ20110408212511004/08/11 21:25:31  5-MIN KDBQ 090325Z AUTO 13006KT 6SM BR BKN011 OVC016 09/07 A2998 1020 86 600 130/06 RMK AO2
94908KDBQ DBQ20110408213010304/08/11 21:30:31  5-MIN KDBQ 090330Z AUTO 13006KT 6SM BR OVC011 08/07 A2998 1020 89 500 130/06 RMK AO2
94908KDBQ DBQ20110408213510304/08/11 21:35:31  5-MIN KDBQ 090335Z AUTO 14006KT 6SM BR OVC011 08/07 A2998 1020 89 500 130/06 RMK AO2
94908KDBQ DBQ20110408214010304/08/11 21:40:31  5-MIN KDBQ 090340Z AUTO 13006KT 6SM BR OVC011 08/07 A2998 1020 89 500 130/06 RMK AO2
94908KDBQ DBQ20110408214511504/08/11 21:45:31  5-MIN KDBQ 090345Z AUTO 14008KT 6SM BR OVC011 08/07 A2997 1030 89 500 140/08 RMK AO2 CIG 009V014
94908KDBQ DBQ20110408215013204/08/11 21:50:31  5-MIN KDBQ 090350Z AUTO 13007KT 6SM BR OVC011 08/07 A2997 1030 89 500 130/07 RMK AO2 CIG 009V014 SLP154 T00830067
94908KDBQ DBQ20110408215510304/08/11 21:55:31  5-MIN KDBQ 090355Z AUTO 13006KT 6SM BR OVC009 08/07 A2997 1030 89 500 130/06 RMK AO2
94908KDBQ DBQ20110408220010304/08/11 22:00:31  5-MIN KDBQ 090400Z AUTO 13006KT 6SM BR OVC009 08/07 A2997 1030 89 500 130/06 RMK AO2
94908KDBQ DBQ20110408220510304/08/11 22:05:31  5-MIN KDBQ 090405Z AUTO 14007KT 6SM BR OVC009 08/07 A2997 1030 89 500 140/07 RMK AO2
94908KDBQ DBQ20110408221010304/08/11 22:10:31  5-MIN KDBQ 090410Z AUTO 13008KT 6SM BR OVC009 08/07 A2997 1030 89 500 130/08 RMK AO2
94908KDBQ DBQ20110408221510304/08/11 22:15:31  5-MIN KDBQ 090415Z AUTO 14006KT 5SM BR OVC009 08/07 A2997 1030 89 500 140/06 RMK AO2
94908KDBQ DBQ20110408222010304/08/11 22:20:31  5-MIN KDBQ 090420Z AUTO 13008KT 5SM BR OVC009 08/07 A2997 1040 89 500 130/08 RMK AO2
94908KDBQ DBQ20110408222510304/08/11 22:25:31  5-MIN KDBQ 090425Z AUTO 13007KT 5SM BR OVC009 08/07 A2997 1040 89 500 130/07 RMK AO2
94908KDBQ DBQ20110408223011504/08/11 22:30:31  5-MIN KDBQ 090430Z AUTO 14009KT 5SM BR OVC009 08/07 A2997 1040 89 500 140/09 RMK AO2 CIG 007V011
94908KDBQ DBQ20110408223510304/08/11 22:35:31  5-MIN KDBQ 090435Z AUTO 14009KT 5SM BR OVC009 08/07 A2997 1030 89 500 140/09 RMK AO2
94908KDBQ DBQ20110408224010304/08/11 22:40:31  5-MIN KDBQ 090440Z AUTO 14010KT 5SM BR OVC009 08/07 A2997 1030 89 500 140/10 RMK AO2
94908KDBQ DBQ20110408224510304/08/11 22:45:31  5-MIN KDBQ 090445Z AUTO 13010KT 5SM BR OVC007 08/07 A2997 1030 89 500 130/10 RMK AO2
94908KDBQ DBQ20110408225012004/08/11 22:50:31  5-MIN KDBQ 090450Z AUTO 13011KT 5SM BR OVC007 08/07 A2997 1030 89 500 130/11 RMK AO2 SLP154 T00830067
94908KDBQ DBQ20110408225511504/08/11 22:55:31  5-MIN KDBQ 090455Z AUTO 13010KT 5SM BR OVC007 08/07 A2997 1030 93 500 130/10 RMK AO2 CIG 006V011
94908KDBQ DBQ20110408230011504/08/11 23:00:31  5-MIN KDBQ 090500Z AUTO 13008KT 4SM BR OVC007 08/07 A2997 1030 93 500 130/08 RMK AO2 CIG 006V011
94908KDBQ DBQ20110408230511504/08/11 23:05:31  5-MIN KDBQ 090505Z AUTO 14007KT 4SM BR OVC007 08/07 A2997 1030 93 500 140/07 RMK AO2 CIG 006V011
94908KDBQ DBQ20110408231010304/08/11 23:10:31  5-MIN KDBQ 090510Z AUTO 14009KT 4SM BR OVC007 08/07 A2997 1030 93 500 140/09 RMK AO2
94908KDBQ DBQ20110408231511504/08/11 23:15:31  5-MIN KDBQ 090515Z AUTO 14007KT 4SM BR OVC007 08/07 A2997 1030 93 500 140/07 RMK AO2 CIG 006V010
94908KDBQ DBQ20110408232011504/08/11 23:20:31  5-MIN KDBQ 090520Z AUTO 14008KT 4SM BR OVC007 08/07 A2997 1030 93 400 140/08 RMK AO2 CIG 006V010
94908KDBQ DBQ20110408232510304/08/11 23:25:31  5-MIN KDBQ 090525Z AUTO 14008KT 4SM BR OVC007 08/07 A2997 1030 93 500 140/08 RMK AO2
94908KDBQ DBQ20110408233011504/08/11 23:30:31  5-MIN KDBQ 090530Z AUTO 14009KT 4SM BR OVC007 08/07 A2997 1030 93 400 140/09 RMK AO2 CIG 006V011
94908KDBQ DBQ20110408233511504/08/11 23:35:31  5-MIN KDBQ 090535Z AUTO 13007KT 4SM BR OVC007 08/07 A2997 1030 93 500 130/07 RMK AO2 CIG 006V011
94908KDBQ DBQ20110408234011504/08/11 23:40:31  5-MIN KDBQ 090540Z AUTO 13006KT 4SM BR OVC007 08/07 A2997 1030 93 500 130/06 RMK AO2 CIG 005V011
94908KDBQ DBQ20110408234511504/08/11 23:45:31  5-MIN KDBQ 090545Z AUTO 14007KT 4SM BR OVC007 08/07 A2997 1030 93 400 140/07 RMK AO2 CIG 005V011
94908KDBQ DBQ20110409020010404/09/11 02:00:31  5-MIN KDBQ 090800Z AUTO 11008KT 2SM BR OVC003 07/07 A2994 1060 100 400 110/08 RMK AO2
94908KDBQ DBQ20110409020511104/09/11 02:05:31  5-MIN KDBQ 090805Z AUTO 09008KT 2SM BR OVC003 07/07 A2993 1070 100 400 090/08 RMK AO2 PRESFR
94908KDBQ DBQ20110409021011404/09/11 02:10:31  5-MIN KDBQ 090810Z AUTO 08008KT 1 3/4SM BR OVC003 07/07 A2992 1070 96 400 080/08 RMK AO2 PRESFR
94908KDBQ DBQ20110409021512504/09/11 02:15:31  5-MIN KDBQ 090815Z AUTO 08010KT 1 1/2SM R36/6000VP6000FT BR OVC001 07/07 A2992 1080 100 400 080/10 RMK AO2
94908KDBQ DBQ20110409022012504/09/11 02:20:31  5-MIN KDBQ 090820Z AUTO 10007KT 1 1/2SM R36/6000VP6000FT BR OVC001 07/07 A2992 1080 100 400 100/07 RMK AO2
94908KDBQ DBQ20110409022512504/09/11 02:25:31  5-MIN KDBQ 090825Z AUTO 10006KT 1 3/4SM R36/6000VP6000FT BR OVC001 07/07 A2993 1070 100 400 100/06 RMK AO2
94908KDBQ DBQ20110409023010404/09/11 02:30:31  5-MIN KDBQ 090830Z AUTO 13008KT 2SM BR OVC001 07/07 A2994 1060 100 400 130/08 RMK AO2
94908KDBQ DBQ20110409023511404/09/11 02:35:31  5-MIN KDBQ 090835Z AUTO 16009KT 2 1/2SM BR OVC001 07/06 A2995 1050 96 300 150/09 RMK AO2 PRESRR
94908KDBQ DBQ20110409024010704/09/11 02:40:31  5-MIN KDBQ 090840Z AUTO 16009KT 2 1/2SM BR OVC001 07/06 A2995 1050 96 300 160/09 RMK AO2
94908KDBQ DBQ20110409024510804/09/11 02:45:31  5-MIN KDBQ 090845Z AUTO 14007KT 2 1/2SM BR OVC001 07/07 A2994 1060 100 400 140/07 RMK AO2
94908KDBQ DBQ20110409025013104/09/11 02:50:31  5-MIN KDBQ 090850Z AUTO 15008KT 2 1/2SM BR OVC001 07/07 A2994 1060 100 400 150/08 RMK AO2 SLP143 T00670067 56003
94908KDBQ DBQ20110409025510704/09/11 02:55:31  5-MIN KDBQ 090855Z AUTO 15009KT 2 1/2SM BR OVC001 07/07 A2995 1050 96 400 150/09 RMK AO2
94908KDBQ DBQ20110409030010304/09/11 03:00:31  5-MIN KDBQ 090900Z AUTO 16007KT 2SM BR OVC001 07/07 A2994 1060 96 400 160/07 RMK AO2
94908KDBQ DBQ20110409030510904/09/11 03:05:31  5-MIN KDBQ 090905Z AUTO 17010G15KT 2SM BR OVC001 07/07 A2995 1050 96 400 170/10G15 RMK AO2
94908KDBQ DBQ20110409031010304/09/11 03:10:31  5-MIN KDBQ 090910Z AUTO 17011KT 2SM BR OVC001 07/07 A2995 1050 96 400 170/11 RMK AO2
94908KDBQ DBQ20110409031512504/09/11 03:15:31  5-MIN KDBQ 090915Z AUTO 17008KT 1 3/4SM R36/6000VP6000FT BR OVC001 07/07 A2995 1050 100 300 170/08 RMK AO2
94908KDBQ DBQ20110409032012504/09/11 03:20:31  5-MIN KDBQ 090920Z AUTO 15007KT 1 1/2SM R36/6000VP6000FT BR OVC001 07/07 A2994 1060 100 300 150/07 RMK AO2
94908KDBQ DBQ20110409032512504/09/11 03:25:31  5-MIN KDBQ 090925Z AUTO 16008KT 1 1/2SM R36/5500VP6000FT BR OVC001 07/07 A2994 1060 100 300 160/08 RMK AO2
94908KDBQ DBQ20110409033012504/09/11 03:30:31  5-MIN KDBQ 090930Z AUTO 17011KT 1 1/4SM R36/5500VP6000FT BR OVC001 07/07 A2995 1050 100 300 170/11 RMK AO2
94908KDBQ DBQ20110409033512004/09/11 03:35:31  5-MIN KDBQ 090935Z AUTO 17010KT 1SM R36/5000V6000FT BR OVC001 07/07 A2995 1050 100 300 170/10 RMK AO2
94908KDBQ DBQ20110409034012004/09/11 03:40:31  5-MIN KDBQ 090940Z AUTO 16010KT 1SM R36/5000V6000FT BR OVC001 07/07 A2995 1060 100 300 160/10 RMK AO2
94908KDBQ DBQ20110409034512004/09/11 03:45:31  5-MIN KDBQ 090945Z AUTO 16009KT 1SM R36/3500V6000FT BR OVC001 07/07 A2994 1060 100 400 160/09 RMK AO2
94908KDBQ DBQ20110409035013404/09/11 03:50:31  5-MIN KDBQ 090950Z AUTO 16011KT 3/4SM R36/3500V4500FT BR OVC001 07/07 A2993 1070 100 400 160/11 RMK AO2 LTG DSNT SE
94908KDBQ DBQ20110409035514104/09/11 03:55:31  5-MIN KDBQ 090955Z AUTO 14011KT 3/4SM R36/3500V4500FT BR OVC001 07/07 A2992 1080 100 400 140/11 RMK AO2 LTG DSNT SE PRESFR
94908KDBQ DBQ20110409040014104/09/11 04:00:31  5-MIN KDBQ 091000Z AUTO 14012KT 1/2SM R36/2200V4000FT FG OVC001 07/07 A2991 1090 100 400 130/12 RMK AO2 LTG DSNT SE PRESFR
94908KDBQ DBQ20110409040512804/09/11 04:05:31  5-MIN KDBQ 091005Z AUTO 14011G17KT 1/2SM R36/2000V3500FT FG OVC001 07/07 A2990 1090 100 400 140/11G17 RMK AO2
94908KDBQ DBQ20110409041012804/09/11 04:10:31  5-MIN KDBQ 091010Z AUTO 13012KT 1/2SM R36/1600V2200FT FG VV001 07/07 A2989 1110 100 400 130/12 RMK AO2 PRESFR
94908KDBQ DBQ20110409041512704/09/11 04:15:31  5-MIN KDBQ 091015Z AUTO 13008G16KT 1/4SM R36/1600V2000FT FG VV001 07/07 A2989 1110 100 400 130/08G16 RMK AO2
94908KDBQ DBQ20110409042012704/09/11 04:20:31  5-MIN KDBQ 091020Z AUTO 14009G16KT 1/4SM R36/1600V2200FT FG VV001 07/07 A2990 1090 100 400 140/09G16 RMK AO2
94908KDBQ DBQ20110409042512104/09/11 04:25:31  5-MIN KDBQ 091025Z AUTO 14011KT 1/2SM R36/1800V2400FT FG VV001 07/07 A2990 1100 100 400 140/11 RMK AO2
94908KDBQ DBQ20110409043012104/09/11 04:30:31  5-MIN KDBQ 091030Z AUTO 14010KT 1/2SM R36/2000V3500FT FG VV001 07/07 A2990 1100 100 400 140/10 RMK AO2
94908KDBQ DBQ20110409043512104/09/11 04:35:31  5-MIN KDBQ 091035Z AUTO 15008KT 1/2SM R36/2400V3500FT FG VV001 07/07 A2990 1090 100 400 150/08 RMK AO2
94908KDBQ DBQ20110409044012704/09/11 04:40:31  5-MIN KDBQ 091040Z AUTO 16008G14KT 1/2SM R36/2400V3500FT FG VV001 07/07 A2991 1090 100 400 150/08G14 RMK AO2
94908KDBQ DBQ20110409044512104/09/11 04:45:31  5-MIN KDBQ 091045Z AUTO 15008KT 1/2SM R36/2400V3000FT FG VV001 07/07 A2991 1090 100 400 140/08 RMK AO2
94908KDBQ DBQ20110409045013304/09/11 04:50:31  5-MIN KDBQ 091050Z 15007KT 1/2SM R36/2400V3500FT FG VV001 07/07 A2991 1080 100 400 140/07 RMK AO2 SLP135 T00670067
94908KDBQ DBQ20110409045511604/09/11 04:55:31  5-MIN KDBQ 091055Z 14006KT 1/2SM R36/2200V3500FT FG VV001 07/07 A2991 1080 100 400 130/06 RMK AO2
94908KDBQ DBQ20110409050011604/09/11 05:00:31  5-MIN KDBQ 091100Z 13003KT 1/2SM R36/2200V2600FT FG VV001 07/07 A2991 1090 100 400 120/03 RMK AO2
94908KDBQ DBQ20110409050511604/09/11 05:05:31  5-MIN KDBQ 091105Z 13004KT 1/2SM R36/2200V2600FT FG VV001 07/07 A2991 1080 100 400 130/04 RMK AO2
94908KDBQ DBQ20110409051011604/09/11 05:10:31  5-MIN KDBQ 091110Z 11003KT 1/2SM R36/2200V2600FT FG VV001 07/07 A2992 1080 100 400 110/03 RMK AO2
94908KDBQ DBQ20110409051511604/09/11 05:15:31  5-MIN KDBQ 091115Z 11004KT 1/2SM R36/2400V3000FT FG VV001 07/07 A2992 1080 100 400 110/04 RMK AO2
94908KDBQ DBQ20110409052011604/09/11 05:20:31  5-MIN KDBQ 091120Z 09004KT 1/2SM R36/2200V3000FT FG VV001 07/07 A2991 1090 100 400 080/04 RMK AO2
94908KDBQ DBQ20110409052511604/09/11 05:25:31  5-MIN KDBQ 091125Z 09004KT 1/2SM R36/2200V3000FT FG VV001 07/07 A2991 1090 100 400 090/04 RMK AO2
94908KDBQ DBQ20110409053011604/09/11 05:30:31  5-MIN KDBQ 091130Z 10003KT 3/4SM R36/2200V3500FT BR VV001 07/07 A2992 1080 100 400 100/03 RMK AO2
94908KDBQ DBQ20110409053511704/09/11 05:35:31  5-MIN KDBQ 091135Z 09004KT 3/4SM R36/2600V3500FT BR OVC001 07/07 A2992 1080 100 400 090/04 RMK AO2
94908KDBQ DBQ20110409054011604/09/11 05:40:31  5-MIN KDBQ 091140Z 08005KT 3/4SM R36/3000V3500FT BR OVC001 07/07 A2992 1080 96 400 080/05 RMK AO2
94908KDBQ DBQ20110409054511704/09/11 05:45:31  5-MIN KDBQ 091145Z 08006KT 3/4SM R36/2600V3500FT BR OVC001 07/07 A2991 1080 100 400 080/06 RMK AO2
94908KDBQ DBQ20110409055015204/09/11 05:50:31  5-MIN KDBQ 091150Z 07006KT 1/2SM R36/2600V2800FT FG OVC001 07/07 A2991 1090 100 400 060/06 RMK AO2 SLP132 T00670067 10078 20067 56006
94908KDBQ DBQ20110409055511604/09/11 05:55:31  5-MIN KDBQ 091155Z 06006KT 1/2SM R36/2600V3500FT FG OVC001 07/07 A2991 1090 96 500 060/06 RMK AO2
94908KDBQ DBQ20110409060011604/09/11 06:00:31  5-MIN KDBQ 091200Z 05005KT 1/2SM R36/2800V3500FT FG OVC001 07/07 A2991 1090 96 500 050/05 RMK AO2
94908KDBQ DBQ20110409060511604/09/11 06:05:31  5-MIN KDBQ 091205Z 06006KT 1/2SM R36/2600V3500FT FG OVC001 07/07 A2991 1090 96 500 060/06 RMK AO2
94908KDBQ DBQ20110409061011604/09/11 06:10:31  5-MIN KDBQ 091210Z 06006KT 1/4SM R36/2200V3000FT FG OVC001 07/07 A2990 1100 96 500 060/06 RMK AO2
94908KDBQ DBQ20110409061511604/09/11 06:15:31  5-MIN KDBQ 091215Z 05006KT 1/4SM R36/2200V2800FT FG OVC001 07/07 A2990 1100 96 500 050/06 RMK AO2
94908KDBQ DBQ20110409062011604/09/11 06:20:31  5-MIN KDBQ 091220Z 07006KT 1/4SM R36/2200V2400FT FG OVC001 07/07 A2990 1100 96 500 070/06 RMK AO2
94908KDBQ DBQ20110409062511604/09/11 06:25:31  5-MIN KDBQ 091225Z 06005KT 1/4SM R36/2200V2400FT FG OVC001 07/07 A2989 1100 96 500 060/05 RMK AO2
94908KDBQ DBQ20110409063011604/09/11 06:30:31  5-MIN KDBQ 091230Z 06005KT 1/4SM R36/2200V2400FT FG OVC001 07/07 A2989 1100 96 500 060/05 RMK AO2
94908KDBQ DBQ20110409063511604/09/11 06:35:31  5-MIN KDBQ 091235Z 06006KT 1/4SM R36/1600V2400FT FG OVC001 07/07 A2989 1110 96 500 060/06 RMK AO2
94908KDBQ DBQ20110409064011604/09/11 06:40:31  5-MIN KDBQ 091240Z 06006KT 1/4SM R36/1400V2200FT FG VV001 07/07 A2989 1100 100 500 060/06 RMK AO2
94908KDBQ DBQ20110409064511504/09/11 06:45:31  5-MIN KDBQ 091245Z 07007KT 1/4SM R36/1400V1800FT FG VV001 07/07 A2989 1100 96 500 070/07 RMK AO2
94908KDBQ DBQ20110409065013304/09/11 06:50:31  5-MIN KDBQ 091250Z 07005KT 1/4SM R36/1400V1600FT FG VV001 07/07 A2990 1100 100 500 070/05 RMK AO2 SLP129 T00720072
94908KDBQ DBQ20110409065511604/09/11 06:55:31  5-MIN KDBQ 091255Z 07007KT 1/4SM R36/1400V1600FT FG VV001 07/07 A2990 1100 100 500 070/07 RMK AO2
94908KDBQ DBQ20110409070011604/09/11 07:00:31  5-MIN KDBQ 091300Z 07006KT 1/4SM R36/1400V1800FT FG VV001 07/07 A2990 1100 100 500 070/06 RMK AO2
94908KDBQ DBQ20110409070511604/09/11 07:05:31  5-MIN KDBQ 091305Z 08006KT 1/4SM R36/1800V2000FT FG VV001 07/07 A2990 1100 100 500 080/06 RMK AO2
94908KDBQ DBQ20110409071011704/09/11 07:10:31  5-MIN KDBQ 091310Z 08007KT 1/4SM R36/1800V2000FT FG OVC001 07/07 A2990 1100 100 500 080/07 RMK AO2
94908KDBQ DBQ20110409071511604/09/11 07:15:31  5-MIN KDBQ 091315Z 08006KT 1/4SM R36/1800V2200FT FG OVC001 08/07 A2990 1100 96 500 080/06 RMK AO2
94908KDBQ DBQ20110409072011604/09/11 07:20:31  5-MIN KDBQ 091320Z 08007KT 1/4SM R36/1800V2200FT FG OVC001 08/07 A2990 1100 96 500 080/07 RMK AO2
94908KDBQ DBQ20110409072511604/09/11 07:25:31  5-MIN KDBQ 091325Z 09006KT 1/4SM R36/2000V2600FT FG OVC001 08/07 A2990 1090 96 500 090/06 RMK AO2
94908KDBQ DBQ20110409073011704/09/11 07:30:31  5-MIN KDBQ 091330Z 09006KT 1/2SM R36/2000V2600FT FG OVC001 08/08 A2991 1090 100 500 090/06 RMK AO2
94908KDBQ DBQ20110409073511704/09/11 07:35:31  5-MIN KDBQ 091335Z 10006KT 1/4SM R36/1800V2600FT FG OVC001 08/08 A2991 1090 100 500 100/06 RMK AO2
94908KDBQ DBQ20110409074011704/09/11 07:40:31  5-MIN KDBQ 091340Z 11006KT 1/4SM R36/1800V2800FT FG OVC001 08/08 A2991 1090 100 500 100/06 RMK AO2
94908KDBQ DBQ20110409074511704/09/11 07:45:31  5-MIN KDBQ 091345Z 11007KT 1/2SM R36/2000V3500FT FG OVC001 08/08 A2991 1090 100 500 110/07 RMK AO2
94908KDBQ DBQ20110409075011704/09/11 07:50:31  5-MIN KDBQ 091350Z 11005KT 1/2SM R36/2600V3500FT FG OVC001 08/08 A2991 1090 100 500 110/05 RMK AO2
94908KDBQ DBQ20110409075511704/09/11 07:55:31  5-MIN KDBQ 091355Z 11008KT 1/2SM R36/2800V4000FT FG OVC001 08/08 A2991 1090 100 500 100/08 RMK AO2
94908KDBQ DBQ20110409080011604/09/11 08:00:31  5-MIN KDBQ 091400Z 11006KT 1/2SM R36/2400V4000FT FG OVC001 08/07 A2991 1080 96 500 110/06 RMK AO2
94908KDBQ DBQ20110409080511704/09/11 08:05:31  5-MIN KDBQ 091405Z 14006KT 1/2SM R36/2200V2800FT FG OVC001 08/08 A2992 1080 100 500 140/06 RMK AO2
94908KDBQ DBQ20110409081011704/09/11 08:10:31  5-MIN KDBQ 091410Z 14005KT 1/2SM R36/2200V3000FT FG OVC001 08/08 A2992 1080 100 500 130/05 RMK AO2
94908KDBQ DBQ20110409081511704/09/11 08:15:31  5-MIN KDBQ 091415Z 13006KT 1/2SM R36/2200V3000FT FG OVC001 08/08 A2992 1080 100 500 130/06 RMK AO2
94908KDBQ DBQ20110409082011704/09/11 08:20:31  5-MIN KDBQ 091420Z 14005KT 1/2SM R36/2400V2800FT FG OVC001 08/08 A2992 1080 100 500 140/05 RMK AO2
94908KDBQ DBQ20110409082511704/09/11 08:25:31  5-MIN KDBQ 091425Z 13006KT 1/2SM R36/2400V4000FT FG OVC001 08/08 A2993 1070 100 500 130/06 RMK AO2
94908KDBQ DBQ20110409083011604/09/11 08:30:31  5-MIN KDBQ 091430Z 13005KT 3/4SM R36/2600V4000FT BR OVC001 08/08 A2993 1070 96 600 130/05 RMK AO2
94908KDBQ DBQ20110409083511604/09/11 08:35:31  5-MIN KDBQ 091435Z 13006KT 3/4SM R36/2200V3000FT BR OVC001 08/08 A2993 1070 96 600 130/06 RMK AO2
94908KDBQ DBQ20110409084011604/09/11 08:40:31  5-MIN KDBQ 091440Z 14007KT 3/4SM R36/2200V3000FT BR OVC001 08/08 A2993 1070 96 600 140/07 RMK AO2
94908KDBQ DBQ20110409084511604/09/11 08:45:31  5-MIN KDBQ 091445Z 14007KT 3/4SM R36/2600V3500FT BR OVC001 08/08 A2993 1070 96 600 140/07 RMK AO2
94908KDBQ DBQ20110409085013904/09/11 08:50:31  5-MIN KDBQ 091450Z 14006KT 1/2SM R36/2400V3500FT FG OVC001 08/08 A2993 1070 96 600 140/06 RMK AO2 SLP140 T00830078 56013
94908KDBQ DBQ20110409085511604/09/11 08:55:31  5-MIN KDBQ 091455Z 14005KT 3/4SM R36/2400V4000FT BR OVC001 08/08 A2993 1070 96 600 140/05 RMK AO2
94908KDBQ DBQ20110409090011604/09/11 09:00:31  5-MIN KDBQ 091500Z 14005KT 3/4SM R36/3000V4000FT BR OVC001 08/08 A2993 1070 96 600 140/05 RMK AO2
94908KDBQ DBQ20110409090511704/09/11 09:05:31  5-MIN KDBQ 091505Z 15007KT 1/2SM R36/3000V4500FT FG OVC001 08/08 A2993 1070 100 600 150/07 RMK AO2
94908KDBQ DBQ20110409091011604/09/11 09:10:31  5-MIN KDBQ 091510Z 16006KT 1/2SM R36/3000V4500FT FG OVC001 08/08 A2994 1060 96 600 160/06 RMK AO2
94908KDBQ DBQ20110409091511704/09/11 09:15:31  5-MIN KDBQ 091515Z 14007KT 1/2SM R36/4000V5500FT FG OVC001 08/08 A2994 1060 100 600 140/07 RMK AO2
94908KDBQ DBQ20110409092011704/09/11 09:20:31  5-MIN KDBQ 091520Z 14005KT 1/2SM R36/4500V6000FT FG OVC001 08/08 A2994 1060 100 600 130/05 RMK AO2
94908KDBQ DBQ20110409092511604/09/11 09:25:31  5-MIN KDBQ 091525Z 13005KT 1/2SM R36/4500V6000FT FG OVC001 09/08 A2994 1060 96 600 130/05 RMK AO2
94908KDBQ DBQ20110409093011604/09/11 09:30:31  5-MIN KDBQ 091530Z 15006KT 3/4SM R36/4500V5500FT BR OVC001 09/08 A2994 1060 96 600 140/06 RMK AO2
94908KDBQ DBQ20110409093511704/09/11 09:35:31  5-MIN KDBQ 091535Z 13005KT 3/4SM R36/4500VP6000FT BR OVC001 09/08 A2993 1070 96 600 130/05 RMK AO2
94908KDBQ DBQ20110409094011704/09/11 09:40:31  5-MIN KDBQ 091540Z 12006KT 3/4SM R36/5000VP6000FT BR OVC001 09/08 A2993 1070 96 600 120/06 RMK AO2
94908KDBQ DBQ20110409094511704/09/11 09:45:31  5-MIN KDBQ 091545Z 14008KT 3/4SM R36/5000VP6000FT BR OVC001 09/08 A2993 1070 96 600 140/08 RMK AO2
94908KDBQ DBQ20110409095013404/09/11 09:50:31  5-MIN KDBQ 091550Z 15007KT 3/4SM R36/5500VP6000FT BR OVC001 09/08 A2993 1070 96 600 150/07 RMK AO2 SLP138 T00890083
94908KDBQ DBQ20110409095511904/09/11 09:55:31  5-MIN KDBQ 091555Z 13007KT 1 1/2SM R36/6000VP6000FT BR OVC001 09/08 A2992 1080 96 600 130/07 RMK AO2
94908KDBQ DBQ20110409100010204/09/11 10:00:31  5-MIN KDBQ 091600Z 14007KT 1 1/2SM BR OVC003 09/08 A2992 1080 96 600 130/07 RMK AO2
94908KDBQ DBQ20110409100510204/09/11 10:05:31  5-MIN KDBQ 091605Z 13006KT 1 1/2SM BR OVC003 09/08 A2992 1080 96 600 130/06 RMK AO2
94908KDBQ DBQ20110409101010204/09/11 10:10:31  5-MIN KDBQ 091610Z 12007KT 1 1/2SM BR OVC003 09/08 A2992 1080 93 700 120/07 RMK AO2
94908KDBQ DBQ20110409101510204/09/11 10:15:31  5-MIN KDBQ 091615Z 13008KT 1 1/2SM BR OVC003 09/08 A2992 1080 93 700 130/08 RMK AO2
94908KDBQ DBQ20110409102010204/09/11 10:20:31  5-MIN KDBQ 091620Z 13006KT 1 1/2SM BR OVC003 09/09 A2992 1080 96 700 130/06 RMK AO2
94908KDBQ DBQ20110409102510204/09/11 10:25:31  5-MIN KDBQ 091625Z 12006KT 1 1/2SM BR OVC003 10/09 A2991 1090 93 800 120/06 RMK AO2
94908KDBQ DBQ20110409103010204/09/11 10:30:31  5-MIN KDBQ 091630Z 13007KT 1 1/2SM BR OVC003 10/09 A2991 1090 93 800 120/07 RMK AO2
94908KDBQ DBQ20110409103510204/09/11 10:35:31  5-MIN KDBQ 091635Z 11007KT 2 1/2SM BR OVC005 11/09 A2991 1090 89 900 110/07 RMK AO2
94908KDBQ DBQ20110409104010204/09/11 10:40:31  5-MIN KDBQ 091640Z 11009KT 2 1/2SM BR OVC005 11/09 A2991 1090 89 900 110/09 RMK AO2
94908KDBQ DBQ20110409104510204/09/11 10:45:31  5-MIN KDBQ 091645Z 11007KT 2 1/2SM BR OVC005 11/09 A2991 1090 89 900 110/07 RMK AO2
94908KDBQ DBQ20110409105011904/09/11 10:50:31  5-MIN KDBQ 091650Z 12006KT 2 1/2SM BR OVC005 11/09 A2991 1090 89 900 110/06 RMK AO2 SLP132 T01060089
94908KDBQ DBQ20110409105510204/09/11 10:55:31  5-MIN KDBQ 091655Z 11006KT 2 1/2SM BR OVC005 11/09 A2991 1090 86 900 110/06 RMK AO2
94908KDBQ DBQ20110409110010304/09/11 11:00:31  5-MIN KDBQ 091700Z 14008KT 2 1/2SM BR OVC005 12/09 A2991 1080 86 1000 140/08 RMK AO2
94908KDBQ DBQ20110409110510304/09/11 11:05:31  5-MIN KDBQ 091705Z 14009KT 2 1/2SM HZ OVC005 12/09 A2992 1080 83 1000 130/09 RMK AO2
94908KDBQ DBQ20110409111010304/09/11 11:10:31  5-MIN KDBQ 091710Z 14008KT 2 1/2SM HZ OVC007 12/09 A2991 1080 83 1000 140/08 RMK AO2
94908KDBQ DBQ20110409111510204/09/11 11:15:31  5-MIN KDBQ 091715Z 14008KT 2 1/2SM BR OVC007 11/09 A2992 1080 86 900 140/08 RMK AO2
94908KDBQ DBQ20110409112010304/09/11 11:20:31  5-MIN KDBQ 091720Z 15008KT 2 1/2SM BR OVC007 12/09 A2992 1080 86 1000 150/08 RMK AO2
94908KDBQ DBQ20110409112510304/09/11 11:25:31  5-MIN KDBQ 091725Z 15008KT 2 1/2SM BR OVC007 12/09 A2992 1080 86 1000 150/08 RMK AO2
94908KDBQ DBQ20110409113010304/09/11 11:30:31  5-MIN KDBQ 091730Z 16005KT 2 1/2SM HZ OVC007 12/09 A2992 1080 83 1000 160/05 RMK AO2
94908KDBQ DBQ20110409113510304/09/11 11:35:31  5-MIN KDBQ 091735Z 15008KT 2 1/2SM HZ OVC007 12/09 A2993 1070 83 1000 150/08 RMK AO2
94908KDBQ DBQ20110409114010304/09/11 11:40:31  5-MIN KDBQ 091740Z 16007KT 2 1/2SM BR OVC007 12/09 A2992 1080 86 1000 160/07 RMK AO2
94908KDBQ DBQ20110409114510304/09/11 11:45:31  5-MIN KDBQ 091745Z 15009KT 2 1/2SM BR OVC007 12/09 A2992 1080 86 1000 150/09 RMK AO2
94908KDBQ DBQ20110409115013804/09/11 11:50:31  5-MIN KDBQ 091750Z 15007KT 2 1/2SM HZ OVC007 12/09 A2992 1080 83 1000 150/07 RMK AO2 SLP134 T01220094 10122 20072 53012
94908KDBQ DBQ20110409115509904/09/11 11:55:31  5-MIN KDBQ 091755Z 16009KT 4SM HZ OVC007 12/09 A2992 1080 83 1000 160/09 RMK AO2
94908KDBQ DBQ20110409120010604/09/11 12:00:31  5-MIN KDBQ 091800Z 15007KT 4SM HZ BKN009 OVC050 12/09 A2991 1080 83 1000 150/07 RMK AO2
94908KDBQ DBQ20110409120510604/09/11 12:05:31  5-MIN KDBQ 091805Z 15008KT 5SM HZ BKN009 OVC050 12/09 A2992 1080 83 1000 150/08 RMK AO2
94908KDBQ DBQ20110409121009904/09/11 12:10:31  5-MIN KDBQ 091810Z 15007KT 5SM HZ OVC009 12/09 A2991 1090 83 1100 150/07 RMK AO2
94908KDBQ DBQ20110409121509904/09/11 12:15:31  5-MIN KDBQ 091815Z 14008KT 5SM HZ OVC009 12/09 A2991 1090 83 1100 140/08 RMK AO2
94908KDBQ DBQ20110409122010604/09/11 12:20:31  5-MIN KDBQ 091820Z 14008KT 5SM HZ BKN009 OVC050 12/09 A2991 1090 83 1100 140/08 RMK AO2
94908KDBQ DBQ20110409122510604/09/11 12:25:31  5-MIN KDBQ 091825Z 12006KT 5SM HZ BKN009 OVC050 13/10 A2990 1090 83 1100 120/06 RMK AO2
94908KDBQ DBQ20110409123010604/09/11 12:30:31  5-MIN KDBQ 091830Z 14006KT 5SM HZ BKN009 OVC055 13/10 A2990 1100 83 1100 140/06 RMK AO2
94908KDBQ DBQ20110409123510604/09/11 12:35:31  5-MIN KDBQ 091835Z 13008KT 5SM HZ BKN009 OVC055 13/10 A2990 1100 83 1100 130/08 RMK AO2
94908KDBQ DBQ20110409124010604/09/11 12:40:31  5-MIN KDBQ 091840Z 13007KT 5SM HZ BKN009 OVC055 13/10 A2989 1100 80 1200 130/07 RMK AO2
94908KDBQ DBQ20110409124510604/09/11 12:45:31  5-MIN KDBQ 091845Z 13008KT 6SM HZ SCT009 OVC055 13/10 A2989 1110 80 1200 130/08 RMK AO2
94908KDBQ DBQ20110409125012304/09/11 12:50:31  5-MIN KDBQ 091850Z 11009KT 6SM HZ FEW009 BKN055 14/10 A2989 1110 77 1300 110/09 RMK AO2 SLP124 T01390100
94908KDBQ DBQ20110409125510604/09/11 12:55:31  5-MIN KDBQ 091855Z 12006KT 6SM HZ FEW009 BKN055 14/11 A2989 1110 80 1300 120/06 RMK AO2
94908KDBQ DBQ20110409130010604/09/11 13:00:31  5-MIN KDBQ 091900Z 14009KT 6SM HZ FEW011 BKN055 14/11 A2989 1110 77 1300 140/09 RMK AO2
94908KDBQ DBQ20110409130510604/09/11 13:05:31  5-MIN KDBQ 091905Z 14008KT 6SM HZ FEW011 SCT055 14/11 A2988 1120 77 1400 140/08 RMK AO2
94908KDBQ DBQ20110409131009904/09/11 13:10:31  5-MIN KDBQ 091910Z 13006KT 6SM HZ FEW055 14/11 A2987 1120 77 1400 120/06 RMK AO2
94908KDBQ DBQ20110409131509904/09/11 13:15:31  5-MIN KDBQ 091915Z 13009KT 6SM HZ FEW055 15/11 A2987 1120 74 1400 130/09 RMK AO2
94908KDBQ DBQ20110409132009604/09/11 13:20:31  5-MIN KDBQ 091920Z 14008KT 6SM HZ CLR 15/11 A2987 1120 74 1400 140/08 RMK AO2
94908KDBQ DBQ20110409132509604/09/11 13:25:31  5-MIN KDBQ 091925Z 12007KT 6SM HZ CLR 15/11 A2987 1120 74 1400 120/07 RMK AO2
94908KDBQ DBQ20110409133009604/09/11 13:30:31  5-MIN KDBQ 091930Z 14010KT 6SM HZ CLR 16/11 A2987 1130 74 1500 140/10 RMK AO2
94908KDBQ DBQ20110409133509604/09/11 13:35:31  5-MIN KDBQ 091935Z 13009KT 6SM HZ CLR 16/11 A2986 1130 74 1500 130/09 RMK AO2
94908KDBQ DBQ20110409134009304/09/11 13:40:31  5-MIN KDBQ 091940Z 15010KT 7SM CLR 16/11 A2986 1140 74 1500 150/10 RMK AO2
94908KDBQ DBQ20110409134509304/09/11 13:45:31  5-MIN KDBQ 091945Z 14010KT 7SM CLR 16/11 A2985 1140 72 1600 140/10 RMK AO2
94908KDBQ DBQ20110409135011004/09/11 13:50:31  5-MIN KDBQ 091950Z 15010KT 7SM CLR 16/11 A2985 1140 72 1600 150/10 RMK AO2 SLP110 T01610111
94908KDBQ DBQ20110409135509304/09/11 13:55:31  5-MIN KDBQ 091955Z 14009KT 7SM CLR 16/11 A2985 1140 72 1600 140/09 RMK AO2
94908KDBQ DBQ20110409140009304/09/11 14:00:31  5-MIN KDBQ 092000Z 15010KT 8SM CLR 17/11 A2985 1150 69 1600 150/10 RMK AO2
94908KDBQ DBQ20110409140509304/09/11 14:05:31  5-MIN KDBQ 092005Z 15007KT 8SM CLR 17/11 A2985 1150 69 1600 150/07 RMK AO2
94908KDBQ DBQ20110409141009304/09/11 14:10:31  5-MIN KDBQ 092010Z 15010KT 8SM CLR 17/12 A2984 1150 69 1700 150/10 RMK AO2
94908KDBQ DBQ20110409141509304/09/11 14:15:31  5-MIN KDBQ 092015Z 14010KT 8SM CLR 17/11 A2984 1160 69 1700 140/10 RMK AO2
94908KDBQ DBQ20110409142009304/09/11 14:20:31  5-MIN KDBQ 092020Z 14010KT 8SM CLR 17/12 A2983 1160 69 1700 140/10 RMK AO2
94908KDBQ DBQ20110409142509304/09/11 14:25:31  5-MIN KDBQ 092025Z 15012KT 7SM CLR 17/12 A2983 1160 69 1700 150/12 RMK AO2
94908KDBQ DBQ20110409143009304/09/11 14:30:31  5-MIN KDBQ 092030Z 14009KT 7SM CLR 18/12 A2983 1170 67 1800 140/09 RMK AO2
94908KDBQ DBQ20110409143509904/09/11 14:35:31  5-MIN KDBQ 092035Z 15012G17KT 7SM CLR 18/12 A2982 1170 67 1800 150/12G17 RMK AO2
94908KDBQ DBQ20110409144009904/09/11 14:40:31  5-MIN KDBQ 092040Z 15015G19KT 7SM CLR 18/12 A2981 1180 67 1800 150/15G19 RMK AO2
94908KDBQ DBQ20110409144509904/09/11 14:45:31  5-MIN KDBQ 092045Z 16011G19KT 7SM CLR 18/12 A2981 1180 67 1800 150/11G19 RMK AO2
94908KDBQ DBQ20110409145011604/09/11 14:50:31  5-MIN KDBQ 092050Z 16012KT 8SM CLR 18/12 A2981 1180 67 1800 160/12 RMK AO2 SLP096 T01780117 55005
94908KDBQ DBQ20110409145509304/09/11 14:55:31  5-MIN KDBQ 092055Z 15013KT 7SM CLR 18/12 A2981 1180 67 1900 150/13 RMK AO2
94908KDBQ DBQ20110409150009304/09/11 15:00:31  5-MIN KDBQ 092100Z 14011KT 7SM CLR 18/12 A2981 1180 67 1900 140/11 RMK AO2
94908KDBQ DBQ20110409150509304/09/11 15:05:31  5-MIN KDBQ 092105Z 15013KT 8SM CLR 18/12 A2981 1180 65 1900 150/13 RMK AO2
94908KDBQ DBQ20110409151009304/09/11 15:10:31  5-MIN KDBQ 092110Z 16012KT 7SM CLR 18/12 A2981 1180 67 1900 160/12 RMK AO2
94908KDBQ DBQ20110409151509304/09/11 15:15:31  5-MIN KDBQ 092115Z 17011KT 7SM CLR 18/12 A2981 1180 67 1900 170/11 RMK AO2
94908KDBQ DBQ20110409152009904/09/11 15:20:31  5-MIN KDBQ 092120Z 17012G17KT 7SM CLR 18/12 A2981 1180 67 1900 170/12G17 RMK AO2
94908KDBQ DBQ20110409152509304/09/11 15:25:31  5-MIN KDBQ 092125Z 17011KT 7SM CLR 18/12 A2981 1180 67 1900 170/11 RMK AO2
94908KDBQ DBQ20110409153009304/09/11 15:30:31  5-MIN KDBQ 092130Z 16011KT 7SM CLR 19/13 A2981 1180 67 1900 160/11 RMK AO2
94908KDBQ DBQ20110409153509304/09/11 15:35:31  5-MIN KDBQ 092135Z 17011KT 7SM CLR 18/13 A2981 1180 70 1900 160/11 RMK AO2
94908KDBQ DBQ20110409154009604/09/11 15:40:31  5-MIN KDBQ 092140Z 16010KT 6SM HZ CLR 19/13 A2980 1190 67 2000 160/10 RMK AO2
94908KDBQ DBQ20110409154509604/09/11 15:45:31  5-MIN KDBQ 092145Z 17012KT 6SM HZ CLR 19/13 A2980 1190 67 2000 170/12 RMK AO2
94908KDBQ DBQ20110409155011304/09/11 15:50:31  5-MIN KDBQ 092150Z 17011KT 6SM HZ CLR 19/13 A2980 1190 67 2000 170/11 RMK AO2 SLP091 T01890128
94908KDBQ DBQ20110409155509604/09/11 15:55:31  5-MIN KDBQ 092155Z 15011KT 6SM HZ CLR 19/13 A2979 1200 67 2000 150/11 RMK AO2
94908KDBQ DBQ20110409160009604/09/11 16:00:31  5-MIN KDBQ 092200Z 16010KT 6SM HZ CLR 19/13 A2979 1200 67 2000 160/10 RMK AO2
94908KDBQ DBQ20110409160510204/09/11 16:05:31  5-MIN KDBQ 092205Z 15010G18KT 6SM HZ CLR 19/13 A2978 1210 67 2000 150/10G18 RMK AO2
94908KDBQ DBQ20110409161010204/09/11 16:10:31  5-MIN KDBQ 092210Z 15010G18KT 6SM HZ CLR 19/13 A2978 1210 67 2000 150/10G18 RMK AO2
94908KDBQ DBQ20110409161510304/09/11 16:15:31  5-MIN KDBQ 092215Z 14012KT 6SM HZ CLR 19/13 A2977 1220 67 2000 130/12 RMK AO2 PRESFR
94908KDBQ DBQ20110409162009604/09/11 16:20:31  5-MIN KDBQ 092220Z 16012KT 6SM HZ CLR 19/13 A2977 1220 70 2000 150/12 RMK AO2
94908KDBQ DBQ20110409162509604/09/11 16:25:31  5-MIN KDBQ 092225Z 14012KT 6SM HZ CLR 19/13 A2977 1220 67 2000 140/12 RMK AO2
94908KDBQ DBQ20110409163009604/09/11 16:30:31  5-MIN KDBQ 092230Z 16012KT 6SM HZ CLR 19/13 A2977 1220 70 2000 150/12 RMK AO2
94908KDBQ DBQ20110409163509604/09/11 16:35:31  5-MIN KDBQ 092235Z 16013KT 6SM HZ CLR 19/13 A2977 1220 70 2000 150/13 RMK AO2
94908KDBQ DBQ20110409164009604/09/11 16:40:31  5-MIN KDBQ 092240Z 15010KT 6SM HZ CLR 19/13 A2977 1220 70 2000 150/10 RMK AO2
94908KDBQ DBQ20110409164509604/09/11 16:45:31  5-MIN KDBQ 092245Z 15009KT 6SM HZ CLR 19/13 A2976 1220 70 2000 150/09 RMK AO2
94908KDBQ DBQ20110409165011904/09/11 16:50:31  5-MIN KDBQ 092250Z 15012G18KT 6SM HZ CLR 19/13 A2976 1230 70 2000 150/12G18 RMK AO2 SLP079 T01890133
94908KDBQ DBQ20110409165510204/09/11 16:55:31  5-MIN KDBQ 092255Z 15011G18KT 6SM HZ CLR 19/13 A2976 1230 70 2000 150/11G18 RMK AO2
94908KDBQ DBQ20110409170009604/09/11 17:00:31  5-MIN KDBQ 092300Z 15010KT 6SM HZ CLR 19/13 A2975 1230 70 2000 150/10 RMK AO2
94908KDBQ DBQ20110409170509604/09/11 17:05:31  5-MIN KDBQ 092305Z 15011KT 6SM HZ CLR 19/13 A2975 1240 70 2000 150/11 RMK AO2
94908KDBQ DBQ20110409171010204/09/11 17:10:31  5-MIN KDBQ 092310Z 15012G18KT 6SM HZ CLR 19/13 A2974 1240 70 2000 150/12G18 RMK AO2
94908KDBQ DBQ20110409171510204/09/11 17:15:31  5-MIN KDBQ 092315Z 15011G18KT 6SM HZ CLR 19/13 A2974 1240 70 2000 150/11G18 RMK AO2
94908KDBQ DBQ20110409172009604/09/11 17:20:31  5-MIN KDBQ 092320Z 14009KT 6SM HZ CLR 19/14 A2974 1250 72 2000 140/09 RMK AO2
94908KDBQ DBQ20110409172510204/09/11 17:25:31  5-MIN KDBQ 092325Z 13011G16KT 6SM HZ CLR 19/14 A2974 1250 72 2000 130/11G16 RMK AO2
94908KDBQ DBQ20110409173010204/09/11 17:30:31  5-MIN KDBQ 092330Z 14012G17KT 6SM HZ CLR 19/14 A2973 1250 72 2000 140/12G17 RMK AO2
94908KDBQ DBQ20110409173509604/09/11 17:35:31  5-MIN KDBQ 092335Z 14011KT 6SM HZ CLR 18/14 A2973 1250 75 2000 130/11 RMK AO2
94908KDBQ DBQ20110409174009604/09/11 17:40:31  5-MIN KDBQ 092340Z 14010KT 5SM HZ CLR 18/14 A2973 1250 75 2000 140/10 RMK AO2
94908KDBQ DBQ20110409174510204/09/11 17:45:31  5-MIN KDBQ 092345Z 14011G16KT 5SM HZ CLR 18/14 A2973 1250 75 2000 140/11G16 RMK AO2
94908KDBQ DBQ20110409175013704/09/11 17:50:31  5-MIN KDBQ 092350Z 14011G17KT 5SM HZ CLR 18/14 A2973 1260 75 2000 140/11G17 RMK AO2 SLP068 T01830139 10189 20122 58027
94908KDBQ DBQ20110409175509604/09/11 17:55:31  5-MIN KDBQ 092355Z 14011KT 5SM HZ CLR 18/14 A2973 1260 75 2000 130/11 RMK AO2
94908KDBQ DBQ20110409180009604/09/11 18:00:31  5-MIN KDBQ 100000Z 13011KT 5SM HZ CLR 18/14 A2972 1260 78 1900 130/11 RMK AO2
94908KDBQ DBQ20110409180509604/09/11 18:05:31  5-MIN KDBQ 100005Z 13010KT 5SM HZ CLR 18/14 A2972 1260 78 1900 130/10 RMK AO2
94908KDBQ DBQ20110409181010204/09/11 18:10:31  5-MIN KDBQ 100010Z 14010G16KT 5SM HZ CLR 18/14 A2972 1260 78 1900 140/10G16 RMK AO2
94908KDBQ DBQ20110409181510204/09/11 18:15:31  5-MIN KDBQ 100015Z 15008G16KT 5SM HZ CLR 18/14 A2973 1260 78 1900 140/08G16 RMK AO2
94908KDBQ DBQ20110409182009604/09/11 18:20:31  5-MIN KDBQ 100020Z 15008KT 5SM HZ CLR 18/14 A2973 1250 78 1900 150/08 RMK AO2
94908KDBQ DBQ20110409182509604/09/11 18:25:31  5-MIN KDBQ 100025Z 15009KT 5SM HZ CLR 17/14 A2974 1250 80 1800 150/09 RMK AO2
94908KDBQ DBQ20110409183009604/09/11 18:30:31  5-MIN KDBQ 100030Z 15008KT 5SM HZ CLR 17/14 A2973 1250 80 1800 150/08 RMK AO2
94908KDBQ DBQ20110409183509604/09/11 18:35:31  5-MIN KDBQ 100035Z 15008KT 5SM HZ CLR 17/14 A2973 1250 80 1800 150/08 RMK AO2
94908KDBQ DBQ20110409184009604/09/11 18:40:31  5-MIN KDBQ 100040Z 15008KT 6SM HZ CLR 17/14 A2973 1250 80 1800 140/08 RMK AO2
94908KDBQ DBQ20110409184509604/09/11 18:45:31  5-MIN KDBQ 100045Z 14008KT 6SM HZ CLR 17/14 A2972 1260 83 1900 140/08 RMK AO2
94908KDBQ DBQ20110409185011304/09/11 18:50:31  5-MIN KDBQ 100050Z 15009KT 6SM HZ CLR 17/14 A2973 1260 83 1900 150/09 RMK AO2 SLP068 T01720144
94908KDBQ DBQ20110409185509604/09/11 18:55:31  5-MIN KDBQ 100055Z 15010KT 6SM HZ CLR 17/14 A2972 1260 83 1900 150/10 RMK AO2
94908KDBQ DBQ20110409190009604/09/11 19:00:31  5-MIN KDBQ 100100Z 15010KT 6SM HZ CLR 17/14 A2972 1270 83 1900 150/10 RMK AO2
94908KDBQ DBQ20110409190510104/09/11 19:05:31  5-MIN KDBQ 100105Z AUTO 15010KT 6SM HZ CLR 17/14 A2972 1260 83 1900 150/10 RMK AO2
94908KDBQ DBQ20110409191010104/09/11 19:10:31  5-MIN KDBQ 100110Z AUTO 15010KT 6SM HZ CLR 17/14 A2972 1260 83 1900 140/10 RMK AO2
94908KDBQ DBQ20110409191510104/09/11 19:15:31  5-MIN KDBQ 100115Z AUTO 15009KT 6SM HZ CLR 17/14 A2972 1260 83 1900 140/09 RMK AO2
94908KDBQ DBQ20110409192010104/09/11 19:20:31  5-MIN KDBQ 100120Z AUTO 15009KT 6SM HZ CLR 17/14 A2972 1260 83 1900 150/09 RMK AO2
94908KDBQ DBQ20110409192510104/09/11 19:25:31  5-MIN KDBQ 100125Z AUTO 15010KT 6SM HZ CLR 17/14 A2973 1260 83 1900 150/10 RMK AO2
94908KDBQ DBQ20110409193010104/09/11 19:30:31  5-MIN KDBQ 100130Z AUTO 15009KT 6SM HZ CLR 18/15 A2972 1260 83 1900 140/09 RMK AO2
94908KDBQ DBQ20110409193510104/09/11 19:35:31  5-MIN KDBQ 100135Z AUTO 15009KT 6SM BR CLR 17/15 A2972 1260 87 1900 150/09 RMK AO2
94908KDBQ DBQ20110409194010104/09/11 19:40:31  5-MIN KDBQ 100140Z AUTO 14008KT 6SM BR CLR 17/15 A2973 1260 87 1800 140/08 RMK AO2
94908KDBQ DBQ20110409194510104/09/11 19:45:31  5-MIN KDBQ 100145Z AUTO 14008KT 6SM BR CLR 17/15 A2973 1260 87 1800 140/08 RMK AO2
94908KDBQ DBQ20110409195011804/09/11 19:50:31  5-MIN KDBQ 100150Z AUTO 14008KT 6SM HZ CLR 18/15 A2973 1260 83 1900 140/08 RMK AO2 SLP068 T01780150
94908KDBQ DBQ20110409195510104/09/11 19:55:31  5-MIN KDBQ 100155Z AUTO 14009KT 6SM HZ CLR 18/15 A2972 1260 83 1900 140/09 RMK AO2
94908KDBQ DBQ20110409200010104/09/11 20:00:31  5-MIN KDBQ 100200Z AUTO 13010KT 6SM HZ CLR 18/15 A2972 1260 83 1900 130/10 RMK AO2
94908KDBQ DBQ20110409200510104/09/11 20:05:31  5-MIN KDBQ 100205Z AUTO 14009KT 6SM HZ CLR 18/15 A2972 1270 83 1900 140/09 RMK AO2
94908KDBQ DBQ20110409201010104/09/11 20:10:31  5-MIN KDBQ 100210Z AUTO 14010KT 6SM HZ CLR 18/15 A2971 1270 83 1900 140/10 RMK AO2
94908KDBQ DBQ20110409201510104/09/11 20:15:31  5-MIN KDBQ 100215Z AUTO 14010KT 6SM HZ CLR 18/15 A2971 1280 83 1900 140/10 RMK AO2
94908KDBQ DBQ20110409202010104/09/11 20:20:31  5-MIN KDBQ 100220Z AUTO 13010KT 6SM HZ CLR 18/15 A2971 1270 83 1900 130/10 RMK AO2
94908KDBQ DBQ20110409202510104/09/11 20:25:31  5-MIN KDBQ 100225Z AUTO 13011KT 6SM HZ CLR 18/15 A2970 1280 81 2000 130/11 RMK AO2
94908KDBQ DBQ20110409203010804/09/11 20:30:31  5-MIN KDBQ 100230Z AUTO 14012KT 6SM HZ CLR 18/15 A2969 1290 81 2000 140/12 RMK AO2 PRESFR
94908KDBQ DBQ20110409203510704/09/11 20:35:31  5-MIN KDBQ 100235Z AUTO 14012G18KT 6SM HZ CLR 18/15 A2969 1290 81 2000 130/12G18 RMK AO2
94908KDBQ DBQ20110409204010104/09/11 20:40:31  5-MIN KDBQ 100240Z AUTO 14013KT 6SM HZ CLR 18/16 A2969 1300 84 2000 140/13 RMK AO2
94908KDBQ DBQ20110409204510104/09/11 20:45:31  5-MIN KDBQ 100245Z AUTO 14013KT 6SM HZ CLR 18/16 A2968 1300 84 2000 140/13 RMK AO2
94908KDBQ DBQ20110409205012404/09/11 20:50:31  5-MIN KDBQ 100250Z AUTO 14013KT 6SM HZ CLR 18/16 A2968 1300 84 2000 140/13 RMK AO2 SLP051 T01830156 58027
94908KDBQ DBQ20110409205510104/09/11 20:55:31  5-MIN KDBQ 100255Z AUTO 14010KT 6SM HZ CLR 18/16 A2968 1300 84 2000 140/10 RMK AO2
94908KDBQ DBQ20110409210010104/09/11 21:00:31  5-MIN KDBQ 100300Z AUTO 15013KT 6SM HZ CLR 18/16 A2967 1310 84 2000 150/13 RMK AO2
94908KDBQ DBQ20110409210510704/09/11 21:05:31  5-MIN KDBQ 100305Z AUTO 15014G19KT 6SM HZ CLR 18/16 A2968 1300 84 2000 150/14G19 RMK AO2
94908KDBQ DBQ20110409211010104/09/11 21:10:31  5-MIN KDBQ 100310Z AUTO 14012KT 6SM HZ CLR 19/16 A2968 1300 81 2100 140/12 RMK AO2
94908KDBQ DBQ20110409211510104/09/11 21:15:31  5-MIN KDBQ 100315Z AUTO 15014KT 6SM HZ CLR 19/16 A2967 1310 81 2100 150/14 RMK AO2
94908KDBQ DBQ20110409212010104/09/11 21:20:31  5-MIN KDBQ 100320Z AUTO 15013KT 6SM HZ CLR 19/16 A2967 1310 81 2100 140/13 RMK AO2
94908KDBQ DBQ20110409212510104/09/11 21:25:31  5-MIN KDBQ 100325Z AUTO 15013KT 6SM HZ CLR 19/16 A2966 1320 81 2100 150/13 RMK AO2
94908KDBQ DBQ20110409213010104/09/11 21:30:31  5-MIN KDBQ 100330Z AUTO 15015KT 6SM HZ CLR 19/16 A2966 1320 81 2100 150/15 RMK AO2
94908KDBQ DBQ20110409213510704/09/11 21:35:31  5-MIN KDBQ 100335Z AUTO 15015G20KT 6SM HZ CLR 19/16 A2966 1320 81 2100 150/15G20 RMK AO2
94908KDBQ DBQ20110409214010704/09/11 21:40:31  5-MIN KDBQ 100340Z AUTO 15014G20KT 6SM HZ CLR 19/16 A2966 1320 81 2100 150/14G20 RMK AO2
94908KDBQ DBQ20110409214509804/09/11 21:45:31  5-MIN KDBQ 100345Z AUTO 15014KT 7SM CLR 19/16 A2966 1320 84 2100 150/14 RMK AO2
94908KDBQ DBQ20110409215011504/09/11 21:50:31  5-MIN KDBQ 100350Z AUTO 15014KT 7SM CLR 19/16 A2965 1330 81 2200 150/14 RMK AO2 SLP040 T01940161
94908KDBQ DBQ20110409215510404/09/11 21:55:31  5-MIN KDBQ 100355Z AUTO 15015G21KT 7SM CLR 19/16 A2965 1330 81 2200 150/15G21 RMK AO2
94908KDBQ DBQ20110409220010404/09/11 22:00:31  5-MIN KDBQ 100400Z AUTO 15016G22KT 7SM CLR 19/16 A2965 1330 81 2200 150/16G22 RMK AO2
94908KDBQ DBQ20110409220510404/09/11 22:05:31  5-MIN KDBQ 100405Z AUTO 15016G23KT 7SM CLR 19/16 A2964 1330 81 2200 150/16G23 RMK AO2
94908KDBQ DBQ20110409221010404/09/11 22:10:31  5-MIN KDBQ 100410Z AUTO 15016G23KT 7SM CLR 19/16 A2964 1340 81 2200 150/16G23 RMK AO2
94908KDBQ DBQ20110409221511504/09/11 22:15:31  5-MIN KDBQ 100415Z AUTO 15017G23KT 7SM CLR 19/16 A2964 1340 81 2200 150/17G23 RMK AO2 LTG DSNT W
94908KDBQ DBQ20110409222010904/09/11 22:20:31  5-MIN KDBQ 100420Z AUTO 16016KT 7SM CLR 19/16 A2964 1340 84 2100 160/16 RMK AO2 LTG DSNT W
94908KDBQ DBQ20110409222510904/09/11 22:25:31  5-MIN KDBQ 100425Z AUTO 16015KT 7SM CLR 19/16 A2964 1340 84 2100 160/15 RMK AO2 LTG DSNT W
94908KDBQ DBQ20110409223009804/09/11 22:30:31  5-MIN KDBQ 100430Z AUTO 16015KT 7SM CLR 19/16 A2964 1340 84 2100 160/15 RMK AO2
94908KDBQ DBQ20110409223510404/09/11 22:35:31  5-MIN KDBQ 100435Z AUTO 16016G23KT 7SM CLR 19/16 A2964 1340 81 2200 160/16G23 RMK AO2
94908KDBQ DBQ20110409224010404/09/11 22:40:31  5-MIN KDBQ 100440Z AUTO 16015G23KT 7SM CLR 19/16 A2964 1340 81 2200 160/15G23 RMK AO2
94908KDBQ DBQ20110409224509804/09/11 22:45:31  5-MIN KDBQ 100445Z AUTO 16015KT 7SM CLR 19/16 A2964 1340 84 2100 160/15 RMK AO2
94908KDBQ DBQ20110409225011504/09/11 22:50:31  5-MIN KDBQ 100450Z AUTO 16015KT 7SM CLR 19/16 A2964 1340 84 2100 160/15 RMK AO2 SLP037 T01890161
94908KDBQ DBQ20110409225509804/09/11 22:55:31  5-MIN KDBQ 100455Z AUTO 16016KT 7SM CLR 19/16 A2964 1340 84 2100 160/16 RMK AO2
94908KDBQ DBQ20110409230009804/09/11 23:00:31  5-MIN KDBQ 100500Z AUTO 16014KT 7SM CLR 19/16 A2964 1340 84 2100 160/14 RMK AO2
94908KDBQ DBQ20110409230509804/09/11 23:05:31  5-MIN KDBQ 100505Z AUTO 17014KT 7SM CLR 19/16 A2965 1330 84 2100 170/14 RMK AO2
94908KDBQ DBQ20110409231009804/09/11 23:10:31  5-MIN KDBQ 100510Z AUTO 17012KT 7SM CLR 18/16 A2965 1330 87 2100 170/12 RMK AO2
94908KDBQ DBQ20110409231509804/09/11 23:15:31  5-MIN KDBQ 100515Z AUTO 17013KT 7SM CLR 18/16 A2965 1330 87 2100 170/13 RMK AO2
94908KDBQ DBQ20110409232010104/09/11 23:20:31  5-MIN KDBQ 100520Z AUTO 17011KT 6SM BR CLR 18/16 A2966 1320 90 2000 170/11 RMK AO2
94908KDBQ DBQ20110409232510104/09/11 23:25:31  5-MIN KDBQ 100525Z AUTO 17013KT 6SM BR CLR 18/16 A2965 1330 90 2000 170/13 RMK AO2
94908KDBQ DBQ20110409233010104/09/11 23:30:31  5-MIN KDBQ 100530Z AUTO 17012KT 6SM BR CLR 18/16 A2965 1330 90 2000 170/12 RMK AO2
94908KDBQ DBQ20110409233510104/09/11 23:35:31  5-MIN KDBQ 100535Z AUTO 17012KT 6SM BR CLR 18/16 A2965 1330 90 2000 170/12 RMK AO2
94908KDBQ DBQ20110409234010104/09/11 23:40:31  5-MIN KDBQ 100540Z AUTO 17012KT 6SM BR CLR 18/16 A2964 1330 90 2000 170/12 RMK AO2
94908KDBQ DBQ20110409234510104/09/11 23:45:31  5-MIN KDBQ 100545Z AUTO 17012KT 6SM BR CLR 18/16 A2964 1340 90 2000 170/12 RMK AO2
94908KDBQ DBQ20110409235014304/09/11 23:50:31  5-MIN KDBQ 100550Z AUTO 17012KT 7SM CLR 18/16 A2964 1340 90 2000 170/12 RMK AO2 SLP037 T01780161 10194 20172 401940067 58016
94908KDBQ DBQ20110409235509804/09/11 23:55:31  5-MIN KDBQ 100555Z AUTO 17012KT 7SM CLR 18/16 A2964 1340 90 2000 170/12 RMK AO2
94908KDBQ DBQ20110410000009804/10/11 00:00:38  5-MIN KDBQ 100600Z AUTO 17011KT 7SM CLR 18/16 A2964 1340 90 2000 160/11 RMK AO2
94908KDBQ DBQ20110410000509804/10/11 00:05:31  5-MIN KDBQ 100605Z AUTO 17012KT 7SM CLR 18/16 A2964 1330 90 2000 170/12 RMK AO2
94908KDBQ DBQ20110410001009804/10/11 00:10:31  5-MIN KDBQ 100610Z AUTO 17012KT 7SM CLR 18/16 A2964 1340 90 2000 170/12 RMK AO2
94908KDBQ DBQ20110410001509804/10/11 00:15:33  5-MIN KDBQ 100615Z AUTO 17014KT 7SM CLR 18/16 A2964 1340 90 2000 170/14 RMK AO2
94908KDBQ DBQ20110410002009804/10/11 00:20:31  5-MIN KDBQ 100620Z AUTO 17013KT 7SM CLR 18/16 A2964 1340 90 2000 160/13 RMK AO2
94908KDBQ DBQ20110410002509804/10/11 00:25:31  5-MIN KDBQ 100625Z AUTO 17014KT 7SM CLR 18/16 A2964 1340 90 2000 170/14 RMK AO2
94908KDBQ DBQ20110410003009804/10/11 00:30:31  5-MIN KDBQ 100630Z AUTO 17013KT 7SM CLR 18/16 A2963 1340 90 2000 170/13 RMK AO2
94908KDBQ DBQ20110410003509804/10/11 00:35:31  5-MIN KDBQ 100635Z AUTO 17013KT 7SM CLR 18/16 A2963 1340 90 2000 170/13 RMK AO2
94908KDBQ DBQ20110410004009804/10/11 00:40:31  5-MIN KDBQ 100640Z AUTO 17014KT 8SM CLR 18/16 A2963 1350 87 2100 170/14 RMK AO2
94908KDBQ DBQ20110410004509804/10/11 00:45:31  5-MIN KDBQ 100645Z AUTO 17015KT 8SM CLR 18/16 A2963 1350 87 2100 170/15 RMK AO2
94908KDBQ DBQ20110410005011504/10/11 00:50:31  5-MIN KDBQ 100650Z AUTO 17014KT 8SM CLR 18/16 A2963 1350 87 2100 170/14 RMK AO2 SLP031 T01830161
94908KDBQ DBQ20110410005509804/10/11 00:55:31  5-MIN KDBQ 100655Z AUTO 17014KT 8SM CLR 18/16 A2962 1350 87 2100 170/14 RMK AO2
94908KDBQ DBQ20110410010009804/10/11 01:00:31  5-MIN KDBQ 100700Z AUTO 17014KT 8SM CLR 18/16 A2962 1360 87 2100 170/14 RMK AO2
94908KDBQ DBQ20110410010509804/10/11 01:05:31  5-MIN KDBQ 100705Z AUTO 17014KT 8SM CLR 18/16 A2961 1360 87 2100 170/14 RMK AO2
94908KDBQ DBQ20110410011009804/10/11 01:10:31  5-MIN KDBQ 100710Z AUTO 17013KT 8SM CLR 18/16 A2961 1360 87 2100 170/13 RMK AO2
94908KDBQ DBQ20110410011509804/10/11 01:15:31  5-MIN KDBQ 100715Z AUTO 17013KT 8SM CLR 18/16 A2961 1370 87 2100 170/13 RMK AO2
94908KDBQ DBQ20110410012009804/10/11 01:20:31  5-MIN KDBQ 100720Z AUTO 17013KT 8SM CLR 18/16 A2961 1370 87 2100 170/13 RMK AO2
94908KDBQ DBQ20110410012509804/10/11 01:25:31  5-MIN KDBQ 100725Z AUTO 17013KT 8SM CLR 18/16 A2960 1370 87 2100 170/13 RMK AO2
94908KDBQ DBQ20110410013009804/10/11 01:30:31  5-MIN KDBQ 100730Z AUTO 17013KT 8SM CLR 18/16 A2960 1380 87 2100 170/13 RMK AO2
94908KDBQ DBQ20110410013509804/10/11 01:35:31  5-MIN KDBQ 100735Z AUTO 17014KT 8SM CLR 18/16 A2959 1380 87 2100 170/14 RMK AO2
94908KDBQ DBQ20110410014009804/10/11 01:40:31  5-MIN KDBQ 100740Z AUTO 17014KT 8SM CLR 18/16 A2959 1380 87 2100 170/14 RMK AO2
94908KDBQ DBQ20110410014509804/10/11 01:45:31  5-MIN KDBQ 100745Z AUTO 18013KT 8SM CLR 18/16 A2959 1380 87 2100 180/13 RMK AO2
94908KDBQ DBQ20110410015011504/10/11 01:50:31  5-MIN KDBQ 100750Z AUTO 18014KT 9SM CLR 19/16 A2959 1390 84 2200 180/14 RMK AO2 SLP016 T01890161
94908KDBQ DBQ20110410015509804/10/11 01:55:31  5-MIN KDBQ 100755Z AUTO 18014KT 9SM CLR 19/16 A2959 1390 84 2200 180/14 RMK AO2
94908KDBQ DBQ20110410020009804/10/11 02:00:31  5-MIN KDBQ 100800Z AUTO 18015KT 9SM CLR 19/16 A2959 1390 84 2200 180/15 RMK AO2
94908KDBQ DBQ20110410020509804/10/11 02:05:31  5-MIN KDBQ 100805Z AUTO 18015KT 9SM CLR 19/16 A2959 1390 84 2200 180/15 RMK AO2
94908KDBQ DBQ20110410021009804/10/11 02:10:31  5-MIN KDBQ 100810Z AUTO 18013KT 9SM CLR 19/16 A2959 1390 84 2200 180/13 RMK AO2
94908KDBQ DBQ20110410021509804/10/11 02:15:31  5-MIN KDBQ 100815Z AUTO 18013KT 9SM CLR 19/16 A2958 1390 81 2200 180/13 RMK AO2
94908KDBQ DBQ20110410022009904/10/11 02:20:31  5-MIN KDBQ 100820Z AUTO 18012KT 10SM CLR 18/16 A2958 1390 84 2100 180/12 RMK AO2
94908KDBQ DBQ20110410022509804/10/11 02:25:31  5-MIN KDBQ 100825Z AUTO 18012KT 9SM CLR 18/16 A2958 1390 84 2100 180/12 RMK AO2
94908KDBQ DBQ20110410023009904/10/11 02:30:31  5-MIN KDBQ 100830Z AUTO 18012KT 10SM CLR 19/16 A2958 1390 81 2200 180/12 RMK AO2
94908KDBQ DBQ20110410023509904/10/11 02:35:31  5-MIN KDBQ 100835Z AUTO 19011KT 10SM CLR 18/16 A2958 1390 84 2100 190/11 RMK AO2
94908KDBQ DBQ20110410024009904/10/11 02:40:31  5-MIN KDBQ 100840Z AUTO 19011KT 10SM CLR 19/16 A2958 1390 81 2200 190/11 RMK AO2
94908KDBQ DBQ20110410024509904/10/11 02:45:31  5-MIN KDBQ 100845Z AUTO 19011KT 10SM CLR 18/16 A2958 1400 84 2100 190/11 RMK AO2
94908KDBQ DBQ20110410025012204/10/11 02:50:31  5-MIN KDBQ 100850Z AUTO 19011KT 10SM CLR 18/16 A2958 1400 84 2100 190/11 RMK AO2 SLP012 T01830156 56012
94908KDBQ DBQ20110410025509904/10/11 02:55:31  5-MIN KDBQ 100855Z AUTO 19011KT 10SM CLR 18/15 A2957 1400 81 2200 190/11 RMK AO2
94908KDBQ DBQ20110410030009904/10/11 03:00:31  5-MIN KDBQ 100900Z AUTO 19010KT 10SM CLR 18/15 A2957 1400 81 2200 190/10 RMK AO2
94908KDBQ DBQ20110410030509904/10/11 03:05:31  5-MIN KDBQ 100905Z AUTO 18011KT 10SM CLR 18/15 A2957 1400 81 2200 180/11 RMK AO2
94908KDBQ DBQ20110410031009904/10/11 03:10:31  5-MIN KDBQ 100910Z AUTO 19010KT 10SM CLR 18/15 A2957 1400 81 2200 180/10 RMK AO2
94908KDBQ DBQ20110410031509904/10/11 03:15:31  5-MIN KDBQ 100915Z AUTO 18010KT 10SM CLR 18/15 A2957 1400 83 2100 180/10 RMK AO2
94908KDBQ DBQ20110410032009904/10/11 03:20:31  5-MIN KDBQ 100920Z AUTO 18010KT 10SM CLR 18/15 A2957 1400 83 2100 180/10 RMK AO2
94908KDBQ DBQ20110410032509904/10/11 03:25:31  5-MIN KDBQ 100925Z AUTO 18009KT 10SM CLR 18/15 A2957 1400 83 2100 180/09 RMK AO2
94908KDBQ DBQ20110410033009904/10/11 03:30:31  5-MIN KDBQ 100930Z AUTO 18009KT 10SM CLR 18/15 A2957 1400 83 2100 180/09 RMK AO2
94908KDBQ DBQ20110410033509804/10/11 03:35:31  5-MIN KDBQ 100935Z AUTO 18009KT 9SM CLR 18/15 A2957 1400 83 2100 180/09 RMK AO2
94908KDBQ DBQ20110410034009804/10/11 03:40:31  5-MIN KDBQ 100940Z AUTO 18009KT 9SM CLR 17/15 A2957 1410 87 2000 180/09 RMK AO2
94908KDBQ DBQ20110410034509804/10/11 03:45:31  5-MIN KDBQ 100945Z AUTO 18009KT 9SM CLR 17/15 A2957 1400 87 2000 180/09 RMK AO2
94908KDBQ DBQ20110410035011504/10/11 03:50:31  5-MIN KDBQ 100950Z AUTO 18009KT 9SM CLR 17/15 A2957 1410 87 2000 180/09 RMK AO2 SLP009 T01720150
94908KDBQ DBQ20110410035509804/10/11 03:55:31  5-MIN KDBQ 100955Z AUTO 17010KT 9SM CLR 17/15 A2956 1410 87 2000 170/10 RMK AO2
94908KDBQ DBQ20110410040009804/10/11 04:00:31  5-MIN KDBQ 101000Z AUTO 18010KT 9SM CLR 17/15 A2956 1410 90 2000 170/10 RMK AO2
94908KDBQ DBQ20110410040509804/10/11 04:05:31  5-MIN KDBQ 101005Z AUTO 18010KT 9SM CLR 17/14 A2956 1410 86 2000 180/10 RMK AO2
94908KDBQ DBQ20110410041009804/10/11 04:10:31  5-MIN KDBQ 101010Z AUTO 18011KT 9SM CLR 17/14 A2956 1420 86 2000 170/11 RMK AO2
94908KDBQ DBQ20110410041511004/10/11 04:15:31  5-MIN KDBQ 101015Z AUTO 18013KT 9SM CLR 17/14 A2956 1420 83 2000 180/13 RMK AO2 LTG DSNT NW
94908KDBQ DBQ20110410042011004/10/11 04:20:31  5-MIN KDBQ 101020Z AUTO 18011KT 9SM CLR 17/14 A2955 1420 83 2000 170/11 RMK AO2 LTG DSNT NW
94908KDBQ DBQ20110410042511004/10/11 04:25:31  5-MIN KDBQ 101025Z AUTO 18009KT 9SM CLR 17/14 A2956 1410 83 2000 180/09 RMK AO2 LTG DSNT NW
94908KDBQ DBQ20110410043011104/10/11 04:30:31  5-MIN KDBQ 101030Z AUTO 18009KT 10SM CLR 17/14 A2956 1410 83 2000 180/09 RMK AO2 LTG DSNT NW
94908KDBQ DBQ20110410043511704/10/11 04:35:31  5-MIN KDBQ 101035Z AUTO 18010KT 10SM CLR 17/14 A2956 1410 83 2000 180/10 RMK AO2 LTG DSNT N AND NW
94908KDBQ DBQ20110410044011704/10/11 04:40:31  5-MIN KDBQ 101040Z AUTO 19009KT 10SM CLR 17/14 A2956 1410 83 2000 190/09 RMK AO2 LTG DSNT N AND NW
94908KDBQ DBQ20110410044510504/10/11 04:45:31  5-MIN KDBQ 101045Z 19010KT 10SM CLR 17/14 A2956 1410 83 2000 190/10 RMK AO2 LTG DSNT N
94908KDBQ DBQ20110410045012204/10/11 04:50:31  5-MIN KDBQ 101050Z 19009KT 10SM CLR 17/14 A2956 1410 83 2000 190/09 RMK AO2 LTG DSNT N SLP007 T01670139
94908KDBQ DBQ20110410045510504/10/11 04:55:31  5-MIN KDBQ 101055Z 19009KT 10SM CLR 17/14 A2956 1410 83 2000 190/09 RMK AO2 LTG DSNT N
94908KDBQ DBQ20110410050010504/10/11 05:00:31  5-MIN KDBQ 101100Z 19009KT 10SM CLR 17/14 A2957 1410 83 2000 190/09 RMK AO2 LTG DSNT N
94908KDBQ DBQ20110410050509404/10/11 05:05:31  5-MIN KDBQ 101105Z 19006KT 10SM CLR 17/14 A2957 1400 83 2000 190/06 RMK AO2
94908KDBQ DBQ20110410051009404/10/11 05:10:31  5-MIN KDBQ 101110Z 22005KT 10SM CLR 17/14 A2958 1390 83 2000 210/05 RMK AO2
94908KDBQ DBQ20110410051510104/10/11 05:15:31  5-MIN KDBQ 101115Z 21005KT 10SM CLR 17/14 A2959 1390 83 1900 210/05 RMK AO2 PRESRR
94908KDBQ DBQ20110410052009404/10/11 05:20:31  5-MIN KDBQ 101120Z 22005KT 10SM CLR 17/13 A2959 1390 80 1900 220/05 RMK AO2
94908KDBQ DBQ20110410052509404/10/11 05:25:31  5-MIN KDBQ 101125Z 20007KT 10SM CLR 16/14 A2959 1390 86 1900 200/07 RMK AO2
94908KDBQ DBQ20110410053009404/10/11 05:30:31  5-MIN KDBQ 101130Z 19008KT 10SM CLR 16/13 A2959 1390 86 1800 190/08 RMK AO2
94908KDBQ DBQ20110410053509404/10/11 05:35:31  5-MIN KDBQ 101135Z 20006KT 10SM CLR 16/13 A2959 1380 86 1800 200/06 RMK AO2
94908KDBQ DBQ20110410054009404/10/11 05:40:31  5-MIN KDBQ 101140Z 21006KT 10SM CLR 16/13 A2959 1380 86 1800 210/06 RMK AO2
94908KDBQ DBQ20110410054509304/10/11 05:45:31  5-MIN KDBQ 101145Z 20007KT 9SM CLR 15/13 A2959 1380 86 1700 200/07 RMK AO2
94908KDBQ DBQ20110410055012804/10/11 05:50:31  5-MIN KDBQ 101150Z 20006KT 9SM CLR 15/13 A2959 1380 86 1700 200/06 RMK AO2 SLP019 T01500128 10189 20150 56022
94908KDBQ DBQ20110410055509304/10/11 05:55:31  5-MIN KDBQ 101155Z 21007KT 9SM CLR 15/13 A2959 1390 86 1800 210/07 RMK AO2
94908KDBQ DBQ20110410060009304/10/11 06:00:31  5-MIN KDBQ 101200Z 20010KT 9SM CLR 15/13 A2958 1390 86 1800 200/10 RMK AO2
94908KDBQ DBQ20110410060509404/10/11 06:05:31  5-MIN KDBQ 101205Z 20009KT 10SM CLR 16/13 A2959 1380 83 1800 190/09 RMK AO2
94908KDBQ DBQ20110410061009404/10/11 06:10:31  5-MIN KDBQ 101210Z 21004KT 10SM CLR 16/13 A2960 1380 83 1900 210/04 RMK AO2
94908KDBQ DBQ20110410061509404/10/11 06:15:31  5-MIN KDBQ 101215Z 20006KT 10SM CLR 16/13 A2959 1380 83 1900 200/06 RMK AO2
94908KDBQ DBQ20110410062009404/10/11 06:20:31  5-MIN KDBQ 101220Z 19007KT 10SM CLR 17/13 A2959 1390 80 1900 190/07 RMK AO2
94908KDBQ DBQ20110410062509404/10/11 06:25:31  5-MIN KDBQ 101225Z 19007KT 10SM CLR 17/13 A2959 1380 80 1900 190/07 RMK AO2
94908KDBQ DBQ20110410063009404/10/11 06:30:31  5-MIN KDBQ 101230Z 19005KT 10SM CLR 17/13 A2959 1380 80 1900 190/05 RMK AO2
94908KDBQ DBQ20110410063509404/10/11 06:35:31  5-MIN KDBQ 101235Z 19008KT 10SM CLR 17/14 A2959 1380 80 2000 190/08 RMK AO2
94908KDBQ DBQ20110410064009404/10/11 06:40:31  5-MIN KDBQ 101240Z 18009KT 10SM CLR 18/14 A2959 1390 78 2100 180/09 RMK AO2
94908KDBQ DBQ20110410064509404/10/11 06:45:31  5-MIN KDBQ 101245Z 18010KT 10SM CLR 18/14 A2959 1390 78 2100 180/10 RMK AO2
94908KDBQ DBQ20110410065011104/10/11 06:50:31  5-MIN KDBQ 101250Z 18009KT 10SM CLR 18/14 A2959 1390 75 2100 180/09 RMK AO2 SLP016 T01830139
94908KDBQ DBQ20110410065509404/10/11 06:55:31  5-MIN KDBQ 101255Z 18010KT 10SM CLR 18/14 A2959 1390 75 2100 180/10 RMK AO2
94908KDBQ DBQ20110410070009404/10/11 07:00:31  5-MIN KDBQ 101300Z 18010KT 10SM CLR 19/14 A2958 1390 72 2200 180/10 RMK AO2
94908KDBQ DBQ20110410070509404/10/11 07:05:31  5-MIN KDBQ 101305Z 18011KT 10SM CLR 19/14 A2958 1400 72 2200 180/11 RMK AO2
94908KDBQ DBQ20110410071009404/10/11 07:10:31  5-MIN KDBQ 101310Z 18011KT 10SM CLR 19/14 A2958 1390 72 2200 180/11 RMK AO2
94908KDBQ DBQ20110410071509404/10/11 07:15:31  5-MIN KDBQ 101315Z 18009KT 10SM CLR 19/14 A2958 1390 70 2300 180/09 RMK AO2
94908KDBQ DBQ20110410072009404/10/11 07:20:31  5-MIN KDBQ 101320Z 18009KT 10SM CLR 19/14 A2958 1390 70 2300 180/09 RMK AO2
94908KDBQ DBQ20110410072509404/10/11 07:25:31  5-MIN KDBQ 101325Z 18009KT 10SM CLR 19/14 A2958 1400 70 2300 180/09 RMK AO2
94908KDBQ DBQ20110410073009404/10/11 07:30:31  5-MIN KDBQ 101330Z 17009KT 10SM CLR 19/14 A2957 1400 72 2300 170/09 RMK AO2
94908KDBQ DBQ20110410073509404/10/11 07:35:31  5-MIN KDBQ 101335Z 17010KT 10SM CLR 19/14 A2957 1400 72 2300 170/10 RMK AO2
94908KDBQ DBQ20110410074009404/10/11 07:40:31  5-MIN KDBQ 101340Z 17009KT 10SM CLR 19/14 A2957 1400 72 2300 170/09 RMK AO2
94908KDBQ DBQ20110410074509404/10/11 07:45:31  5-MIN KDBQ 101345Z 17011KT 10SM CLR 20/14 A2957 1410 70 2400 170/11 RMK AO2
94908KDBQ DBQ20110410075011104/10/11 07:50:31  5-MIN KDBQ 101350Z 17011KT 10SM CLR 20/14 A2956 1410 70 2400 170/11 RMK AO2 SLP007 T02000144
94908KDBQ DBQ20110410075509404/10/11 07:55:31  5-MIN KDBQ 101355Z 18012KT 10SM CLR 20/14 A2956 1410 70 2400 180/12 RMK AO2
94908KDBQ DBQ20110410080009404/10/11 08:00:31  5-MIN KDBQ 101400Z 18013KT 10SM CLR 21/14 A2957 1410 65 2400 180/13 RMK AO2
94908KDBQ DBQ20110410080509404/10/11 08:05:31  5-MIN KDBQ 101405Z 19012KT 10SM CLR 21/14 A2957 1410 65 2400 190/12 RMK AO2
94908KDBQ DBQ20110410081009404/10/11 08:10:31  5-MIN KDBQ 101410Z 19015KT 10SM CLR 21/14 A2957 1410 65 2400 190/15 RMK AO2
94908KDBQ DBQ20110410081509404/10/11 08:15:31  5-MIN KDBQ 101415Z 19013KT 10SM CLR 21/14 A2956 1410 65 2400 190/13 RMK AO2
94908KDBQ DBQ20110410082009404/10/11 08:20:31  5-MIN KDBQ 101420Z 19012KT 10SM CLR 21/14 A2956 1420 65 2500 190/12 RMK AO2
94908KDBQ DBQ20110410082509404/10/11 08:25:31  5-MIN KDBQ 101425Z 19011KT 10SM CLR 21/14 A2955 1420 65 2500 180/11 RMK AO2
94908KDBQ DBQ20110410083009404/10/11 08:30:31  5-MIN KDBQ 101430Z 19013KT 10SM CLR 21/14 A2955 1420 65 2500 190/13 RMK AO2
94908KDBQ DBQ20110410083509404/10/11 08:35:31  5-MIN KDBQ 101435Z 19015KT 10SM CLR 22/14 A2955 1420 61 2600 190/15 RMK AO2
94908KDBQ DBQ20110410084009404/10/11 08:40:31  5-MIN KDBQ 101440Z 20014KT 10SM CLR 22/14 A2955 1420 63 2600 200/14 RMK AO2
94908KDBQ DBQ20110410084509404/10/11 08:45:31  5-MIN KDBQ 101445Z 20017KT 10SM CLR 22/14 A2955 1420 61 2600 200/17 RMK AO2
94908KDBQ DBQ20110410085011704/10/11 08:50:31  5-MIN KDBQ 101450Z 20018KT 10SM CLR 22/14 A2955 1430 61 2600 200/18 RMK AO2 SLP001 T02170139 53005
94908KDBQ DBQ20110410085509404/10/11 08:55:31  5-MIN KDBQ 101455Z 20017KT 10SM CLR 22/14 A2955 1420 61 2600 200/17 RMK AO2
94908KDBQ DBQ20110410090010004/10/11 09:00:31  5-MIN KDBQ 101500Z 20014G22KT 10SM CLR 22/14 A2955 1430 61 2600 200/14G22 RMK AO2
94908KDBQ DBQ20110410090510004/10/11 09:05:31  5-MIN KDBQ 101505Z 20018G22KT 10SM CLR 23/15 A2955 1430 61 2700 190/18G22 RMK AO2
94908KDBQ DBQ20110410091009404/10/11 09:10:31  5-MIN KDBQ 101510Z 20016KT 10SM CLR 23/14 A2954 1430 59 2700 200/16 RMK AO2
94908KDBQ DBQ20110410091509404/10/11 09:15:31  5-MIN KDBQ 101515Z 20016KT 10SM CLR 23/14 A2954 1430 59 2700 200/16 RMK AO2
94908KDBQ DBQ20110410092010004/10/11 09:20:31  5-MIN KDBQ 101520Z 21017G24KT 10SM CLR 23/15 A2953 1440 59 2800 210/17G24 RMK AO2
94908KDBQ DBQ20110410092510004/10/11 09:25:31  5-MIN KDBQ 101525Z 19017G24KT 10SM CLR 23/15 A2953 1440 59 2800 190/17G24 RMK AO2
94908KDBQ DBQ20110410093011804/10/11 09:30:31  5-MIN KDBQ 101530Z 20020G26KT 10SM CLR 23/15 A2953 1440 59 2800 200/20G26 RMK AO2 PK WND 20026/1529
94908KDBQ DBQ20110410093511804/10/11 09:35:31  5-MIN KDBQ 101535Z 20015G26KT 10SM CLR 23/15 A2953 1440 59 2800 200/15G26 RMK AO2 PK WND 20026/1529
94908KDBQ DBQ20110410094011204/10/11 09:40:31  5-MIN KDBQ 101540Z 20016KT 10SM CLR 24/15 A2953 1440 57 2800 200/16 RMK AO2 PK WND 20026/1529
94908KDBQ DBQ20110410094511804/10/11 09:45:31  5-MIN KDBQ 101545Z 20018G23KT 10SM CLR 24/15 A2952 1450 57 2800 200/18G23 RMK AO2 PK WND 20026/1529
94908KDBQ DBQ20110410095013504/10/11 09:50:31  5-MIN KDBQ 101550Z 20020G25KT 10SM CLR 24/15 A2952 1450 57 2800 200/20G25 RMK AO2 PK WND 20026/1529 SLP989 T02390150
94908KDBQ DBQ20110410095510004/10/11 09:55:31  5-MIN KDBQ 101555Z 20020G25KT 10SM CLR 24/15 A2952 1450 57 2800 200/20G25 RMK AO2
94908KDBQ DBQ20110410100010004/10/11 10:00:31  5-MIN KDBQ 101600Z 21019G25KT 10SM CLR 24/16 A2952 1450 57 2900 200/19G25 RMK AO2
94908KDBQ DBQ20110410100510004/10/11 10:05:31  5-MIN KDBQ 101605Z 21020G25KT 10SM CLR 24/16 A2952 1450 57 2900 210/20G25 RMK AO2
94908KDBQ DBQ20110410101010004/10/11 10:10:31  5-MIN KDBQ 101610Z 20018G25KT 10SM CLR 24/16 A2952 1450 57 2900 200/18G25 RMK AO2
94908KDBQ DBQ20110410101510004/10/11 10:15:31  5-MIN KDBQ 101615Z 20020G24KT 10SM CLR 25/16 A2951 1460 55 3000 200/20G24 RMK AO2
94908KDBQ DBQ20110410102010004/10/11 10:20:31  5-MIN KDBQ 101620Z 21016G24KT 10SM CLR 25/16 A2952 1450 55 3000 210/16G24 RMK AO2
94908KDBQ DBQ20110410102509404/10/11 10:25:31  5-MIN KDBQ 101625Z 20017KT 10SM CLR 25/16 A2951 1460 55 3000 200/17 RMK AO2
94908KDBQ DBQ20110410103010004/10/11 10:30:31  5-MIN KDBQ 101630Z 21019G24KT 10SM CLR 26/16 A2952 1450 55 3000 210/19G24 RMK AO2
94908KDBQ DBQ20110410103510004/10/11 10:35:31  5-MIN KDBQ 101635Z 20019G24KT 10SM CLR 25/16 A2951 1460 55 3000 200/19G24 RMK AO2
94908KDBQ DBQ20110410104009404/10/11 10:40:31  5-MIN KDBQ 101640Z 21019KT 10SM CLR 24/16 A2950 1470 57 2900 210/19 RMK AO2
94908KDBQ DBQ20110410104509404/10/11 10:45:31  5-MIN KDBQ 101645Z 20020KT 10SM CLR 25/16 A2950 1470 57 3000 200/20 RMK AO2
94908KDBQ DBQ20110410105013504/10/11 10:50:31  5-MIN KDBQ 101650Z 21018G26KT 10SM CLR 25/16 A2951 1460 57 3000 210/18G26 RMK AO2 PK WND 20026/1648 SLP987 T02500161
94908KDBQ DBQ20110410105510004/10/11 10:55:31  5-MIN KDBQ 101655Z 21020G26KT 10SM CLR 26/16 A2950 1470 55 3100 210/20G26 RMK AO2
94908KDBQ DBQ20110410110010004/10/11 11:00:31  5-MIN KDBQ 101700Z 20019G24KT 10SM CLR 26/16 A2950 1470 55 3100 200/19G24 RMK AO2
94908KDBQ DBQ20110410110509404/10/11 11:05:31  5-MIN KDBQ 101705Z 21020KT 10SM CLR 26/16 A2950 1470 55 3100 210/20 RMK AO2
94908KDBQ DBQ20110410111009404/10/11 11:10:31  5-MIN KDBQ 101710Z 20017KT 10SM CLR 26/16 A2949 1480 55 3100 200/17 RMK AO2
94908KDBQ DBQ20110410111509404/10/11 11:15:31  5-MIN KDBQ 101715Z 20018KT 10SM CLR 26/17 A2949 1480 55 3100 200/18 RMK AO2
94908KDBQ DBQ20110410112010004/10/11 11:20:31  5-MIN KDBQ 101720Z 20018G24KT 10SM CLR 26/16 A2948 1480 53 3100 200/18G24 RMK AO2
94908KDBQ DBQ20110410112510004/10/11 11:25:31  5-MIN KDBQ 101725Z 21014G24KT 10SM CLR 26/16 A2948 1480 55 3100 210/14G24 RMK AO2
94908KDBQ DBQ20110410113010004/10/11 11:30:31  5-MIN KDBQ 101730Z 21019G23KT 10SM CLR 27/17 A2948 1490 53 3200 210/19G23 RMK AO2
94908KDBQ DBQ20110410113510004/10/11 11:35:31  5-MIN KDBQ 101735Z 20018G23KT 10SM CLR 26/16 A2948 1490 53 3100 200/18G23 RMK AO2
94908KDBQ DBQ20110410114010004/10/11 11:40:31  5-MIN KDBQ 101740Z 21017G23KT 10SM CLR 26/17 A2948 1490 55 3100 210/17G23 RMK AO2
94908KDBQ DBQ20110410114509404/10/11 11:45:31  5-MIN KDBQ 101745Z 20017KT 10SM CLR 26/17 A2947 1490 55 3200 200/17 RMK AO2
94908KDBQ DBQ20110410115012904/10/11 11:50:31  5-MIN KDBQ 101750Z 21020KT 10SM CLR 26/17 A2947 1500 55 3200 210/20 RMK AO2 SLP972 T02610167 10267 20150 58014
94908KDBQ DBQ20110410115509404/10/11 11:55:31  5-MIN KDBQ 101755Z 21018KT 10SM CLR 26/17 A2947 1500 57 3100 210/18 RMK AO2
94908KDBQ DBQ20110410120010004/10/11 12:00:31  5-MIN KDBQ 101800Z 21016G24KT 10SM CLR 26/17 A2946 1500 57 3100 210/16G24 RMK AO2
94908KDBQ DBQ20110410120510004/10/11 12:05:31  5-MIN KDBQ 101805Z 21018G24KT 10SM CLR 26/17 A2945 1510 57 3100 210/18G24 RMK AO2
94908KDBQ DBQ20110410121011804/10/11 12:10:31  5-MIN KDBQ 101810Z 20019G27KT 10SM CLR 26/17 A2945 1510 57 3100 200/19G27 RMK AO2 PK WND 20027/1807
94908KDBQ DBQ20110410121511804/10/11 12:15:31  5-MIN KDBQ 101815Z 21022G28KT 10SM CLR 26/17 A2945 1520 55 3200 210/22G28 RMK AO2 PK WND 21028/1815
94908KDBQ DBQ20110410122011804/10/11 12:20:31  5-MIN KDBQ 101820Z 20021G28KT 10SM CLR 26/17 A2945 1510 55 3200 200/21G28 RMK AO2 PK WND 21028/1815
94908KDBQ DBQ20110410122512104/10/11 12:25:31  5-MIN KDBQ 101825Z 21021G27KT 10SM FEW038 26/17 A2945 1510 57 3100 200/21G27 RMK AO2 PK WND 21028/1815
94908KDBQ DBQ20110410123012104/10/11 12:30:31  5-MIN KDBQ 101830Z 20021G27KT 10SM SCT038 26/17 A2945 1520 55 3200 200/21G27 RMK AO2 PK WND 21028/1815
94908KDBQ DBQ20110410123512104/10/11 12:35:31  5-MIN KDBQ 101835Z 20021G27KT 10SM SCT038 26/17 A2945 1520 57 3100 200/21G27 RMK AO2 PK WND 21028/1815
94908KDBQ DBQ20110410124012104/10/11 12:40:31  5-MIN KDBQ 101840Z 21019G27KT 10SM BKN038 26/17 A2946 1510 57 3100 200/19G27 RMK AO2 PK WND 21028/1815
94908KDBQ DBQ20110410124512104/10/11 12:45:31  5-MIN KDBQ 101845Z 20020G27KT 10SM BKN038 26/17 A2945 1510 57 3100 200/20G27 RMK AO2 PK WND 21028/1815
94908KDBQ DBQ20110410125013804/10/11 12:50:31  5-MIN KDBQ 101850Z 20018G27KT 10SM OVC038 26/17 A2945 1510 57 3100 200/18G27 RMK AO2 PK WND 21028/1815 SLP966 T02560167
94908KDBQ DBQ20110410125512104/10/11 12:55:31  5-MIN KDBQ 101855Z 21020G27KT 10SM OVC038 26/17 A2945 1520 57 3100 210/20G27 RMK AO2 PK WND 21027/1854
94908KDBQ DBQ20110410130012104/10/11 13:00:31  5-MIN KDBQ 101900Z 21020G27KT 10SM OVC040 26/17 A2945 1520 57 3100 210/20G27 RMK AO2 PK WND 21027/1854
94908KDBQ DBQ20110410130512104/10/11 13:05:31  5-MIN KDBQ 101905Z 21022G28KT 10SM OVC040 26/17 A2945 1510 57 3100 210/22G28 RMK AO2 PK WND 20028/1903
94908KDBQ DBQ20110410131012104/10/11 13:10:31  5-MIN KDBQ 101910Z 21019G28KT 10SM OVC040 26/17 A2945 1510 57 3100 210/19G28 RMK AO2 PK WND 20028/1903
94908KDBQ DBQ20110410131512104/10/11 13:15:31  5-MIN KDBQ 101915Z 21019G24KT 10SM OVC040 25/17 A2945 1520 59 3100 210/19G24 RMK AO2 PK WND 20028/1903
94908KDBQ DBQ20110410132012104/10/11 13:20:31  5-MIN KDBQ 101920Z 21018G24KT 10SM OVC040 25/17 A2946 1510 59 3000 210/18G24 RMK AO2 PK WND 20028/1903
94908KDBQ DBQ20110410132512104/10/11 13:25:31  5-MIN KDBQ 101925Z 21015G24KT 10SM OVC040 25/17 A2945 1520 61 3100 210/15G24 RMK AO2 PK WND 20028/1903
94908KDBQ DBQ20110410133012104/10/11 13:30:31  5-MIN KDBQ 101930Z 21017G24KT 10SM OVC040 25/17 A2945 1520 61 3100 210/17G24 RMK AO2 PK WND 20028/1903
94908KDBQ DBQ20110410133512104/10/11 13:35:31  5-MIN KDBQ 101935Z 21018G25KT 10SM OVC042 25/17 A2945 1520 61 3100 210/18G25 RMK AO2 PK WND 20028/1903
94908KDBQ DBQ20110410134012104/10/11 13:40:31  5-MIN KDBQ 101940Z 22019G25KT 10SM OVC042 25/17 A2945 1520 61 3100 220/19G25 RMK AO2 PK WND 20028/1903
94908KDBQ DBQ20110410134512104/10/11 13:45:31  5-MIN KDBQ 101945Z 22015G27KT 10SM OVC042 26/17 A2944 1520 59 3100 220/15G27 RMK AO2 PK WND 20028/1903
94908KDBQ DBQ20110410135013804/10/11 13:50:31  5-MIN KDBQ 101950Z 21017G27KT 10SM OVC042 25/17 A2944 1530 61 3100 210/17G27 RMK AO2 PK WND 20028/1903 SLP962 T02500172
94908KDBQ DBQ20110410135510804/10/11 13:55:31  5-MIN KDBQ 101955Z AUTO 21015G23KT 10SM OVC043 25/17 A2944 1530 61 3100 200/15G23 RMK AO2
94908KDBQ DBQ20110410140012604/10/11 14:00:31  5-MIN KDBQ 102000Z AUTO 21022G27KT 10SM OVC043 25/17 A2943 1530 61 3100 200/22G27 RMK AO2 PK WND 21027/1958
94908KDBQ DBQ20110410140512604/10/11 14:05:31  5-MIN KDBQ 102005Z AUTO 20016G27KT 10SM OVC045 25/17 A2943 1530 61 3100 200/16G27 RMK AO2 PK WND 21027/1958
94908KDBQ DBQ20110410141012604/10/11 14:10:31  5-MIN KDBQ 102010Z AUTO 21019G24KT 10SM OVC045 25/17 A2943 1530 61 3100 210/19G24 RMK AO2 PK WND 21027/1958
94908KDBQ DBQ20110410141512604/10/11 14:15:31  5-MIN KDBQ 102015Z AUTO 21017G24KT 10SM OVC045 25/17 A2943 1540 61 3100 210/17G24 RMK AO2 PK WND 21027/1958
94908KDBQ DBQ20110410142013304/10/11 14:20:31  5-MIN KDBQ 102020Z AUTO 20021G28KT 10SM BKN043 OVC050 26/18 A2942 1540 61 3100 200/21G28 RMK AO2 PK WND 20028/2019
94908KDBQ DBQ20110410142514004/10/11 14:25:31  5-MIN KDBQ 102025Z AUTO 21017G28KT 10SM FEW038 BKN047 BKN060 26/18 A2942 1540 59 3200 210/17G28 RMK AO2 PK WND 20028/2019
94908KDBQ DBQ20110410143014004/10/11 14:30:31  5-MIN KDBQ 102030Z AUTO 21024G30KT 10SM SCT041 BKN049 BKN055 26/18 A2942 1540 59 3200 200/24G30 RMK AO2 PK WND 20030/2030
94908KDBQ DBQ20110410143514004/10/11 14:35:31  5-MIN KDBQ 102035Z AUTO 21021G30KT 10SM FEW039 SCT047 BKN055 26/18 A2942 1540 59 3200 210/21G30 RMK AO2 PK WND 20030/2030
94908KDBQ DBQ20110410144013304/10/11 14:40:31  5-MIN KDBQ 102040Z AUTO 21020G28KT 10SM FEW041 BKN055 26/18 A2941 1550 59 3200 210/20G28 RMK AO2 PK WND 20030/2030
94908KDBQ DBQ20110410144513304/10/11 14:45:31  5-MIN KDBQ 102045Z AUTO 22023G31KT 10SM FEW038 BKN055 26/17 A2941 1550 57 3200 210/23G31 RMK AO2 PK WND 21031/2043
94908KDBQ DBQ20110410145015604/10/11 14:50:31  5-MIN KDBQ 102050Z AUTO 21022G31KT 10SM FEW049 BKN055 26/18 A2941 1550 59 3200 210/22G31 RMK AO2 PK WND 21031/2047 SLP953 T02610178 58026
94908KDBQ DBQ20110410145512804/10/11 14:55:31  5-MIN KDBQ 102055Z 21023G32KT 10SM FEW049 BKN055 27/18 A2941 1560 57 3300 210/23G32 RMK AO2 PK WND 21030/2054
94908KDBQ DBQ20110410150012804/10/11 15:00:31  5-MIN KDBQ 102100Z 20026G33KT 10SM FEW049 SCT055 27/18 A2940 1560 57 3300 200/26G33 RMK AO2 PK WND 19033/2059
94908KDBQ DBQ20110410150512104/10/11 15:05:31  5-MIN KDBQ 102105Z 21022G33KT 10SM FEW060 27/18 A2940 1560 57 3300 210/22G33 RMK AO2 PK WND 19033/2059
94908KDBQ DBQ20110410151012104/10/11 15:10:31  5-MIN KDBQ 102110Z 21022G31KT 10SM FEW055 27/18 A2941 1560 56 3400 210/22G31 RMK AO2 PK WND 19033/2059
94908KDBQ DBQ20110410151512104/10/11 15:15:31  5-MIN KDBQ 102115Z 20023G31KT 10SM FEW040 26/17 A2941 1550 57 3200 200/23G31 RMK AO2 PK WND 19033/2059
94908KDBQ DBQ20110410152012004/10/11 15:20:31  5-MIN KDBQ 102120Z 20023G31KT 9SM FEW040 26/18 A2941 1550 59 3200 200/23G31 RMK AO2 PK WND 19033/2059
94908KDBQ DBQ20110410152512004/10/11 15:25:31  5-MIN KDBQ 102125Z 21020G29KT 9SM FEW042 26/17 A2941 1550 57 3200 200/20G29 RMK AO2 PK WND 19033/2059
94908KDBQ DBQ20110410153012704/10/11 15:30:31  5-MIN KDBQ 102130Z 21021G30KT 8SM FEW042 SCT055 26/18 A2941 1550 59 3200 210/21G30 RMK AO2 PK WND 19033/2059
94908KDBQ DBQ20110410153513404/10/11 15:35:31  5-MIN KDBQ 102135Z 20022G30KT 8SM FEW042 SCT050 SCT060 26/18 A2941 1550 59 3200 200/22G30 RMK AO2 PK WND 19033/2059
94908KDBQ DBQ20110410154012704/10/11 15:40:31  5-MIN KDBQ 102140Z 20023G31KT 8SM SCT042 SCT055 26/17 A2940 1560 57 3200 200/23G31 RMK AO2 PK WND 19033/2059
94908KDBQ DBQ20110410154512704/10/11 15:45:31  5-MIN KDBQ 102145Z 20020G31KT 8SM FEW042 SCT060 26/18 A2940 1560 59 3200 200/20G31 RMK AO2 PK WND 19033/2059
94908KDBQ DBQ20110410155013704/10/11 15:50:31  5-MIN KDBQ 102150Z 21020G27KT 8SM FEW042 26/18 A2940 1560 59 3200 200/20G27 RMK AO2 PK WND 19033/2059 SLP949 T02610178
94908KDBQ DBQ20110410155510204/10/11 15:55:31  5-MIN KDBQ 102155Z 21022G27KT 8SM FEW042 27/17 A2941 1560 55 3300 210/22G27 RMK AO2
94908KDBQ DBQ20110410160012004/10/11 16:00:31  5-MIN KDBQ 102200Z 21021G28KT 9SM FEW042 26/17 A2941 1550 57 3200 210/21G28 RMK AO2 PK WND 20028/2200
94908KDBQ DBQ20110410160511704/10/11 16:05:31  5-MIN KDBQ 102205Z 21022G28KT 9SM CLR 27/17 A2941 1550 53 3300 210/22G28 RMK AO2 PK WND 20028/2200
94908KDBQ DBQ20110410161011704/10/11 16:10:31  5-MIN KDBQ 102210Z 22022G30KT 9SM CLR 27/17 A2941 1550 53 3300 220/22G30 RMK AO2 PK WND 22030/2210
94908KDBQ DBQ20110410161511704/10/11 16:15:31  5-MIN KDBQ 102215Z 21024G32KT 9SM CLR 27/17 A2941 1550 53 3300 210/24G32 RMK AO2 PK WND 22032/2215
94908KDBQ DBQ20110410162011704/10/11 16:20:31  5-MIN KDBQ 102220Z 21022G32KT 9SM CLR 27/17 A2941 1560 53 3300 210/22G32 RMK AO2 PK WND 22032/2215
94908KDBQ DBQ20110410162511704/10/11 16:25:31  5-MIN KDBQ 102225Z 21021G31KT 9SM CLR 27/17 A2940 1560 55 3300 210/21G31 RMK AO2 PK WND 22032/2215
94908KDBQ DBQ20110410163011704/10/11 16:30:31  5-MIN KDBQ 102230Z 20025G33KT 9SM CLR 27/17 A2939 1570 53 3300 200/25G33 RMK AO2 PK WND 21033/2229
94908KDBQ DBQ20110410163511704/10/11 16:35:31  5-MIN KDBQ 102235Z 20021G33KT 9SM CLR 26/17 A2940 1570 55 3200 200/21G33 RMK AO2 PK WND 21033/2229
94908KDBQ DBQ20110410164011704/10/11 16:40:31  5-MIN KDBQ 102240Z 20022G29KT 8SM CLR 27/17 A2940 1570 55 3300 200/22G29 RMK AO2 PK WND 21033/2229
94908KDBQ DBQ20110410164511704/10/11 16:45:31  5-MIN KDBQ 102245Z 21023G30KT 8SM CLR 27/17 A2939 1570 53 3300 210/23G30 RMK AO2 PK WND 21033/2229
94908KDBQ DBQ20110410165013404/10/11 16:50:31  5-MIN KDBQ 102250Z 20024G31KT 8SM CLR 27/17 A2938 1580 53 3300 200/24G31 RMK AO2 PK WND 21033/2229 SLP942 T02670167
94908KDBQ DBQ20110410165511704/10/11 16:55:31  5-MIN KDBQ 102255Z 20023G31KT 7SM CLR 27/17 A2938 1580 53 3300 200/23G31 RMK AO2 PK WND 20029/2254
94908KDBQ DBQ20110410170011704/10/11 17:00:31  5-MIN KDBQ 102300Z 20023G31KT 7SM CLR 26/17 A2938 1580 55 3300 200/23G31 RMK AO2 PK WND 20031/2258
94908KDBQ DBQ20110410170512004/10/11 17:05:31  5-MIN KDBQ 102305Z 20021G32KT 7SM FEW080 26/17 A2939 1570 55 3200 200/21G32 RMK AO2 PK WND 21032/2301
94908KDBQ DBQ20110410171012004/10/11 17:10:31  5-MIN KDBQ 102310Z 20022G32KT 8SM FEW075 26/17 A2939 1580 55 3200 200/22G32 RMK AO2 PK WND 21032/2301
94908KDBQ DBQ20110410171512004/10/11 17:15:31  5-MIN KDBQ 102315Z 20025G30KT 8SM FEW080 26/17 A2939 1580 55 3300 200/25G30 RMK AO2 PK WND 21032/2301
94908KDBQ DBQ20110410172012004/10/11 17:20:31  5-MIN KDBQ 102320Z 20023G30KT 8SM FEW075 26/17 A2938 1580 55 3300 200/23G30 RMK AO2 PK WND 21032/2301
94908KDBQ DBQ20110410172512004/10/11 17:25:31  5-MIN KDBQ 102325Z 20021G30KT 8SM FEW075 26/17 A2939 1580 55 3300 200/21G30 RMK AO2 PK WND 21032/2301
94908KDBQ DBQ20110410173012004/10/11 17:30:31  5-MIN KDBQ 102330Z 20022G29KT 8SM FEW075 26/17 A2938 1580 55 3300 200/22G29 RMK AO2 PK WND 21032/2301
94908KDBQ DBQ20110410173511704/10/11 17:35:31  5-MIN KDBQ 102335Z 20025G29KT 9SM CLR 26/17 A2939 1580 55 3300 200/25G29 RMK AO2 PK WND 21032/2301
94908KDBQ DBQ20110410174011704/10/11 17:40:31  5-MIN KDBQ 102340Z 20024G31KT 9SM CLR 26/17 A2938 1580 55 3300 200/24G31 RMK AO2 PK WND 21032/2301
94908KDBQ DBQ20110410174511704/10/11 17:45:31  5-MIN KDBQ 102345Z 20020G31KT 9SM CLR 26/17 A2938 1580 57 3200 200/20G31 RMK AO2 PK WND 21032/2301
94908KDBQ DBQ20110410175015204/10/11 17:50:31  5-MIN KDBQ 102350Z 20018G27KT 9SM CLR 26/17 A2939 1570 57 3200 200/18G27 RMK AO2 PK WND 21032/2301 SLP946 T02560167 10272 20250 58019
94908KDBQ DBQ20110410175511704/10/11 17:55:31  5-MIN KDBQ 102355Z 20022G27KT 9SM CLR 25/17 A2938 1580 59 3100 200/22G27 RMK AO2 PK WND 20027/2355
94908KDBQ DBQ20110410180011704/10/11 18:00:31  5-MIN KDBQ 110000Z 20022G30KT 9SM CLR 25/17 A2939 1570 59 3100 200/22G30 RMK AO2 PK WND 21030/0000
94908KDBQ DBQ20110410180511704/10/11 18:05:31  5-MIN KDBQ 110005Z 21020G30KT 9SM CLR 26/16 A2939 1580 55 3200 200/20G30 RMK AO2 PK WND 21030/0000
94908KDBQ DBQ20110410181011704/10/11 18:10:31  5-MIN KDBQ 110010Z 21021G29KT 9SM CLR 25/16 A2939 1570 57 3100 200/21G29 RMK AO2 PK WND 21030/0000
94908KDBQ DBQ20110410181511704/10/11 18:15:31  5-MIN KDBQ 110015Z 20022G28KT 9SM CLR 25/16 A2938 1580 57 3100 200/22G28 RMK AO2 PK WND 21030/0000
94908KDBQ DBQ20110410182011704/10/11 18:20:31  5-MIN KDBQ 110020Z 21022G28KT 9SM CLR 25/16 A2939 1570 57 3100 210/22G28 RMK AO2 PK WND 21030/0000
94908KDBQ DBQ20110410182511704/10/11 18:25:31  5-MIN KDBQ 110025Z 21021G28KT 9SM CLR 25/16 A2939 1580 57 3100 210/21G28 RMK AO2 PK WND 21030/0000
94908KDBQ DBQ20110410183011704/10/11 18:30:31  5-MIN KDBQ 110030Z 22019G33KT 9SM CLR 25/16 A2940 1560 55 3100 220/19G33 RMK AO2 PK WND 21033/0026
94908KDBQ DBQ20110410183512804/10/11 18:35:31  5-MIN KDBQ 110035Z 28023G33KT 10SM FEW050 24/15 A2943 1530 55 3000 270/23G33 RMK AO2 PK WND 21033/0026 PRESRR
94908KDBQ DBQ20110410184013904/10/11 18:40:31  5-MIN KDBQ 110040Z 28025G30KT 10SM FEW050 23/13 A2945 1520 53 2900 270/25G30 RMK AO2 PK WND 21033/0026 WSHFT 0023 PRESRR
94908KDBQ DBQ20110410184513904/10/11 18:45:31  5-MIN KDBQ 110045Z 28019G30KT 10SM FEW050 23/13 A2945 1510 55 2800 270/19G30 RMK AO2 PK WND 21033/0026 WSHFT 0023 PRESRR
94908KDBQ DBQ20110410185014904/10/11 18:50:31  5-MIN KDBQ 110050Z 28017G25KT 10SM FEW050 22/13 A2946 1510 56 2700 280/17G25 RMK AO2 PK WND 21033/0026 WSHFT 0023 SLP970 T02220133
94908KDBQ DBQ20110410185512104/10/11 18:55:31  5-MIN KDBQ 110055Z 27015G26KT 10SM FEW050 22/13 A2945 1520 56 2700 270/15G26 RMK AO2 PK WND 27026/0055
94908KDBQ DBQ20110410190012104/10/11 19:00:31  5-MIN KDBQ 110100Z 27019G26KT 10SM FEW050 22/12 A2946 1510 52 2700 270/19G26 RMK AO2 PK WND 27026/0057
94908KDBQ DBQ20110410190511804/10/11 19:05:31  5-MIN KDBQ 110105Z 27015G26KT 10SM CLR 21/11 A2946 1500 54 2500 270/15G26 RMK AO2 PK WND 27026/0057
94908KDBQ DBQ20110410191011804/10/11 19:10:31  5-MIN KDBQ 110110Z 26017G32KT 10SM CLR 21/10 A2946 1500 48 2600 260/17G32 RMK AO2 PK WND 29032/0108
94908KDBQ DBQ20110410191512904/10/11 19:15:31  5-MIN KDBQ 110115Z 26017G32KT 10SM CLR 21/09 A2947 1500 48 2500 260/17G32 RMK AO2 PK WND 29032/0108 LTG DSNT S
94908KDBQ DBQ20110410192013404/10/11 19:20:31  5-MIN KDBQ 110120Z AUTO 26018G27KT 10SM CLR 21/09 A2947 1500 46 2500 260/18G27 RMK AO2 PK WND 29032/0108 LTG DSNT S
94908KDBQ DBQ20110410192514104/10/11 19:25:31  5-MIN KDBQ 110125Z AUTO 27018G27KT 10SM CLR 20/09 A2947 1500 48 2500 270/18G27 RMK AO2 PK WND 29032/0108 LTG DSNT SE AND S
94908KDBQ DBQ20110410193014104/10/11 19:30:31  5-MIN KDBQ 110130Z AUTO 27018G29KT 10SM CLR 20/09 A2947 1490 48 2500 270/18G29 RMK AO2 PK WND 29032/0108 LTG DSNT SE AND S
94908KDBQ DBQ20110410193513504/10/11 19:35:31  5-MIN KDBQ 110135Z AUTO 27018G31KT 10SM CLR 20/09 A2948 1490 48 2500 270/18G31 RMK AO2 PK WND 29032/0108 LTG DSNT SE
94908KDBQ DBQ20110410194013504/10/11 19:40:31  5-MIN KDBQ 110140Z AUTO 27021G31KT 10SM CLR 20/09 A2948 1490 48 2500 270/21G31 RMK AO2 PK WND 29032/0108 LTG DSNT SE
94908KDBQ DBQ20110410194514104/10/11 19:45:31  5-MIN KDBQ 110145Z AUTO 27019G30KT 10SM CLR 19/09 A2949 1480 50 2400 270/19G30 RMK AO2 PK WND 29032/0108 LTG DSNT E AND SE
94908KDBQ DBQ20110410195016504/10/11 19:50:31  5-MIN KDBQ 110150Z AUTO 28021G30KT 10SM CLR 19/09 A2950 1470 50 2400 280/21G30 RMK AO2 PK WND 29032/0108 LTG DSNT E AND SE PRESRR SLP984 T01940089
94908KDBQ DBQ20110410195513004/10/11 19:55:31  5-MIN KDBQ 110155Z AUTO 29018G30KT 10SM CLR 19/09 A2951 1460 54 2300 290/18G30 RMK AO2 LTG DSNT E AND SE PRESRR
94908KDBQ DBQ20110410200012304/10/11 20:00:31  5-MIN KDBQ 110200Z AUTO 29017G23KT 10SM CLR 18/09 A2952 1450 56 2200 290/17G23 RMK AO2 LTG DSNT E PRESRR
94908KDBQ DBQ20110410200513404/10/11 20:05:31  5-MIN KDBQ 110205Z AUTO 29020G34KT 10SM CLR 18/10 A2952 1450 60 2200 290/20G34 RMK AO2 PK WND 29034/0202 LTG DSNT E
94908KDBQ DBQ20110410201012304/10/11 20:10:31  5-MIN KDBQ 110210Z AUTO 29017G34KT 10SM CLR 17/10 A2952 1450 62 2100 280/17G34 RMK AO2 PK WND 29034/0202
94908KDBQ DBQ20110410201512304/10/11 20:15:31  5-MIN KDBQ 110215Z AUTO 29019G25KT 10SM CLR 17/10 A2953 1440 62 2100 290/19G25 RMK AO2 PK WND 29034/0202
94908KDBQ DBQ20110410202012304/10/11 20:20:31  5-MIN KDBQ 110220Z AUTO 29015G22KT 10SM CLR 17/10 A2953 1440 64 2000 290/15G22 RMK AO2 PK WND 29034/0202
94908KDBQ DBQ20110410202512304/10/11 20:25:31  5-MIN KDBQ 110225Z AUTO 28016G21KT 10SM CLR 17/10 A2953 1440 64 2000 280/16G21 RMK AO2 PK WND 29034/0202
94908KDBQ DBQ20110410203012304/10/11 20:30:31  5-MIN KDBQ 110230Z AUTO 28017G25KT 10SM CLR 16/10 A2954 1430 67 1900 280/17G25 RMK AO2 PK WND 29034/0202
94908KDBQ DBQ20110410203512304/10/11 20:35:31  5-MIN KDBQ 110235Z AUTO 28021G27KT 10SM CLR 16/10 A2954 1430 67 1900 280/21G27 RMK AO2 PK WND 29034/0202
94908KDBQ DBQ20110410204012304/10/11 20:40:31  5-MIN KDBQ 110240Z AUTO 28019G27KT 10SM CLR 16/10 A2955 1430 67 1900 280/19G27 RMK AO2 PK WND 29034/0202
94908KDBQ DBQ20110410204512304/10/11 20:45:31  5-MIN KDBQ 110245Z AUTO 28017G23KT 10SM CLR 16/10 A2955 1420 69 1900 280/17G23 RMK AO2 PK WND 29034/0202
94908KDBQ DBQ20110410205014604/10/11 20:50:31  5-MIN KDBQ 110250Z AUTO 28018G23KT 10SM CLR 16/09 A2956 1420 67 1900 280/18G23 RMK AO2 PK WND 29034/0202 SLP004 T01560094 55007
94908KDBQ DBQ20110410205510504/10/11 20:55:31  5-MIN KDBQ 110255Z AUTO 28018G27KT 10SM CLR 15/09 A2955 1420 69 1800 270/18G27 RMK AO2
94908KDBQ DBQ20110410210010504/10/11 21:00:31  5-MIN KDBQ 110300Z AUTO 28016G27KT 10SM CLR 14/09 A2956 1420 72 1700 280/16G27 RMK AO2
94908KDBQ DBQ20110410210510504/10/11 21:05:31  5-MIN KDBQ 110305Z AUTO 27019G25KT 10SM CLR 14/09 A2956 1410 72 1700 270/19G25 RMK AO2
94908KDBQ DBQ20110410211010504/10/11 21:10:31  5-MIN KDBQ 110310Z AUTO 27015G25KT 10SM CLR 14/09 A2956 1420 72 1700 270/15G25 RMK AO2
94908KDBQ DBQ20110410211510504/10/11 21:15:31  5-MIN KDBQ 110315Z AUTO 27017G25KT 10SM CLR 14/09 A2956 1410 69 1700 270/17G25 RMK AO2
94908KDBQ DBQ20110410212012304/10/11 21:20:31  5-MIN KDBQ 110320Z AUTO 27019G26KT 10SM CLR 14/09 A2956 1410 69 1700 270/19G26 RMK AO2 PK WND 27026/0319
94908KDBQ DBQ20110410212512304/10/11 21:25:31  5-MIN KDBQ 110325Z AUTO 28018G27KT 10SM CLR 14/09 A2957 1410 69 1700 280/18G27 RMK AO2 PK WND 28027/0325
94908KDBQ DBQ20110410213012304/10/11 21:30:31  5-MIN KDBQ 110330Z AUTO 28018G30KT 10SM CLR 14/09 A2957 1400 69 1700 280/18G30 RMK AO2 PK WND 28030/0326
94908KDBQ DBQ20110410213512304/10/11 21:35:31  5-MIN KDBQ 110335Z AUTO 28019G30KT 10SM CLR 14/09 A2958 1400 69 1700 280/19G30 RMK AO2 PK WND 28030/0326
94908KDBQ DBQ20110410214012304/10/11 21:40:31  5-MIN KDBQ 110340Z AUTO 28020G31KT 10SM CLR 14/09 A2958 1400 71 1600 280/20G31 RMK AO2 PK WND 29031/0340
94908KDBQ DBQ20110410214512304/10/11 21:45:31  5-MIN KDBQ 110345Z AUTO 28023G33KT 10SM CLR 14/08 A2958 1390 69 1600 280/23G33 RMK AO2 PK WND 28033/0345
94908KDBQ DBQ20110410215014004/10/11 21:50:31  5-MIN KDBQ 110350Z AUTO 28023G33KT 10SM CLR 14/08 A2958 1390 69 1600 280/23G33 RMK AO2 PK WND 28033/0345 SLP013 T01390083
94908KDBQ DBQ20110410215512304/10/11 21:55:31  5-MIN KDBQ 110355Z AUTO 28024G33KT 10SM CLR 13/08 A2959 1390 69 1600 280/24G33 RMK AO2 PK WND 28033/0354
94908KDBQ DBQ20110410220012304/10/11 22:00:31  5-MIN KDBQ 110400Z AUTO 28021G33KT 10SM CLR 13/08 A2959 1380 69 1500 280/21G33 RMK AO2 PK WND 28033/0354
94908KDBQ DBQ20110410220512304/10/11 22:05:31  5-MIN KDBQ 110405Z AUTO 28018G27KT 10SM CLR 13/08 A2959 1380 71 1500 280/18G27 RMK AO2 PK WND 28033/0354
94908KDBQ DBQ20110410221012304/10/11 22:10:31  5-MIN KDBQ 110410Z AUTO 28017G30KT 10SM CLR 13/08 A2960 1380 71 1500 280/17G30 RMK AO2 PK WND 28033/0354
94908KDBQ DBQ20110410221512304/10/11 22:15:31  5-MIN KDBQ 110415Z AUTO 28019G30KT 10SM CLR 13/08 A2960 1380 71 1500 280/19G30 RMK AO2 PK WND 28033/0354
94908KDBQ DBQ20110410222012304/10/11 22:20:31  5-MIN KDBQ 110420Z AUTO 29016G25KT 10SM CLR 12/08 A2960 1380 74 1400 290/16G25 RMK AO2 PK WND 28033/0354
94908KDBQ DBQ20110410222512304/10/11 22:25:31  5-MIN KDBQ 110425Z AUTO 29017G29KT 10SM CLR 12/08 A2960 1380 74 1400 290/17G29 RMK AO2 PK WND 28033/0354
94908KDBQ DBQ20110410223012304/10/11 22:30:31  5-MIN KDBQ 110430Z AUTO 28019G29KT 10SM CLR 12/07 A2960 1380 74 1300 280/19G29 RMK AO2 PK WND 28033/0354
94908KDBQ DBQ20110410223512304/10/11 22:35:31  5-MIN KDBQ 110435Z AUTO 28013G27KT 10SM CLR 12/07 A2960 1380 74 1300 280/13G27 RMK AO2 PK WND 28033/0354
94908KDBQ DBQ20110410224012304/10/11 22:40:31  5-MIN KDBQ 110440Z AUTO 28013G25KT 10SM CLR 11/07 A2960 1370 77 1300 280/13G25 RMK AO2 PK WND 28033/0354
94908KDBQ DBQ20110410224512304/10/11 22:45:31  5-MIN KDBQ 110445Z AUTO 29016G23KT 10SM CLR 11/07 A2960 1370 77 1300 290/16G23 RMK AO2 PK WND 28033/0354
94908KDBQ DBQ20110410225014004/10/11 22:50:31  5-MIN KDBQ 110450Z AUTO 29016G23KT 10SM CLR 11/07 A2961 1360 77 1300 290/16G23 RMK AO2 PK WND 28033/0354 SLP024 T01110072
94908KDBQ DBQ20110410225510504/10/11 22:55:31  5-MIN KDBQ 110455Z AUTO 29013G21KT 10SM CLR 11/07 A2961 1370 74 1300 290/13G21 RMK AO2
94908KDBQ DBQ20110410230009904/10/11 23:00:31  5-MIN KDBQ 110500Z AUTO 29017KT 10SM CLR 11/07 A2961 1370 77 1200 290/17 RMK AO2
94908KDBQ DBQ20110410230510504/10/11 23:05:31  5-MIN KDBQ 110505Z AUTO 29017G21KT 10SM CLR 11/07 A2961 1370 77 1200 290/17G21 RMK AO2
94908KDBQ DBQ20110410231010504/10/11 23:10:31  5-MIN KDBQ 110510Z AUTO 29013G21KT 10SM CLR 11/07 A2961 1370 77 1200 290/13G21 RMK AO2
94908KDBQ DBQ20110410231509904/10/11 23:15:31  5-MIN KDBQ 110515Z AUTO 29014KT 10SM CLR 11/07 A2960 1370 77 1200 290/14 RMK AO2
94908KDBQ DBQ20110410232009904/10/11 23:20:31  5-MIN KDBQ 110520Z AUTO 29014KT 10SM CLR 11/07 A2960 1380 77 1200 290/14 RMK AO2
94908KDBQ DBQ20110410232509904/10/11 23:25:31  5-MIN KDBQ 110525Z AUTO 29012KT 10SM CLR 11/07 A2960 1380 77 1200 290/12 RMK AO2
94908KDBQ DBQ20110410233009904/10/11 23:30:31  5-MIN KDBQ 110530Z AUTO 28013KT 10SM CLR 10/07 A2960 1370 80 1100 280/13 RMK AO2
94908KDBQ DBQ20110410233510504/10/11 23:35:31  5-MIN KDBQ 110535Z AUTO 28011G18KT 10SM CLR 10/07 A2960 1380 80 1100 280/11G18 RMK AO2
94908KDBQ DBQ20110410234009904/10/11 23:40:31  5-MIN KDBQ 110540Z AUTO 28011KT 10SM CLR 10/07 A2960 1380 80 1100 280/11 RMK AO2
94908KDBQ DBQ20110410234509904/10/11 23:45:31  5-MIN KDBQ 110545Z AUTO 29013KT 10SM CLR 10/07 A2960 1380 80 1100 290/13 RMK AO2
94908KDBQ DBQ20110410235014404/10/11 23:50:31  5-MIN KDBQ 110550Z AUTO 28015KT 10SM CLR 10/07 A2960 1370 80 1100 280/15 RMK AO2 SLP021 T01000067 10256 20100 402720100 51055
94908KDBQ DBQ20110410235510504/10/11 23:55:31  5-MIN KDBQ 110555Z AUTO 28014G19KT 10SM CLR 10/07 A2960 1370 80 1100 280/14G19 RMK AO2
94908KDBQ DBQ20110411000010504/11/11 00:00:38  5-MIN KDBQ 110600Z AUTO 29012G19KT 10SM CLR 10/07 A2960 1380 80 1100 290/12G19 RMK AO2
94908KDBQ DBQ20110411000509904/11/11 00:05:31  5-MIN KDBQ 110605Z AUTO 28014KT 10SM CLR 09/07 A2960 1370 83 1100 280/14 RMK AO2
94908KDBQ DBQ20110411001009904/11/11 00:10:31  5-MIN KDBQ 110610Z AUTO 29015KT 10SM CLR 10/07 A2960 1370 80 1100 280/15 RMK AO2
94908KDBQ DBQ20110411001509904/11/11 00:15:33  5-MIN KDBQ 110615Z AUTO 29015KT 10SM CLR 10/07 A2961 1370 80 1100 290/15 RMK AO2
94908KDBQ DBQ20110411002010504/11/11 00:20:31  5-MIN KDBQ 110620Z AUTO 28014G20KT 10SM CLR 09/07 A2961 1370 83 1100 280/14G20 RMK AO2
94908KDBQ DBQ20110411002510804/11/11 00:25:31  5-MIN KDBQ 110625Z AUTO 29017G21KT 10SM FEW018 09/07 A2961 1370 83 1100 290/17G21 RMK AO2
94908KDBQ DBQ20110411003010204/11/11 00:30:31  5-MIN KDBQ 110630Z AUTO 29017KT 10SM FEW018 09/07 A2961 1370 83 1100 290/17 RMK AO2
94908KDBQ DBQ20110411003510804/11/11 00:35:31  5-MIN KDBQ 110635Z AUTO 29016G22KT 10SM FEW018 10/07 A2960 1380 80 1100 290/16G22 RMK AO2
94908KDBQ DBQ20110411004010804/11/11 00:40:31  5-MIN KDBQ 110640Z AUTO 28015G22KT 10SM SCT018 09/07 A2960 1380 83 1100 280/15G22 RMK AO2
94908KDBQ DBQ20110411004510804/11/11 00:45:31  5-MIN KDBQ 110645Z AUTO 28017G24KT 10SM FEW018 09/07 A2959 1380 83 1100 280/17G24 RMK AO2
94908KDBQ DBQ20110411005012504/11/11 00:50:31  5-MIN KDBQ 110650Z AUTO 28019G24KT 10SM FEW018 09/07 A2959 1390 83 1100 280/19G24 RMK AO2 SLP016 T00940067
94908KDBQ DBQ20110411005510804/11/11 00:55:31  5-MIN KDBQ 110655Z AUTO 29018G24KT 10SM FEW018 09/06 A2959 1380 79 1100 290/18G24 RMK AO2
94908KDBQ DBQ20110411010010804/11/11 01:00:31  5-MIN KDBQ 110700Z AUTO 30018G25KT 10SM FEW018 09/06 A2959 1380 79 1100 300/18G25 RMK AO2
94908KDBQ DBQ20110411010512604/11/11 01:05:31  5-MIN KDBQ 110705Z AUTO 30018G27KT 10SM FEW018 09/06 A2959 1380 79 1000 300/18G27 RMK AO2 PK WND 31027/0702
94908KDBQ DBQ20110411011012604/11/11 01:10:31  5-MIN KDBQ 110710Z AUTO 29012G27KT 10SM FEW018 09/06 A2960 1380 79 1000 290/12G27 RMK AO2 PK WND 31027/0702
94908KDBQ DBQ20110411011512604/11/11 01:15:31  5-MIN KDBQ 110715Z AUTO 28016G21KT 10SM FEW018 09/06 A2960 1380 79 1000 280/16G21 RMK AO2 PK WND 31027/0702
94908KDBQ DBQ20110411012012604/11/11 01:20:31  5-MIN KDBQ 110720Z AUTO 28019G26KT 10SM FEW018 09/06 A2960 1380 79 1000 280/19G26 RMK AO2 PK WND 31027/0702
94908KDBQ DBQ20110411012512604/11/11 01:25:31  5-MIN KDBQ 110725Z AUTO 29017G26KT 10SM FEW018 09/05 A2960 1370 76 1000 280/17G26 RMK AO2 PK WND 31027/0702
94908KDBQ DBQ20110411013012504/11/11 01:30:31  5-MIN KDBQ 110730Z AUTO 29017G25KT 10SM FEW018 08/05 A2961 1370 79 900 290/17G25 RMK AO2 PK WND 31027/0702
94908KDBQ DBQ20110411013511904/11/11 01:35:31  5-MIN KDBQ 110735Z AUTO 29015KT 10SM FEW018 08/05 A2960 1370 79 900 290/15 RMK AO2 PK WND 31027/0702
94908KDBQ DBQ20110411014012504/11/11 01:40:31  5-MIN KDBQ 110740Z AUTO 29014G21KT 10SM FEW018 08/05 A2961 1370 79 900 290/14G21 RMK AO2 PK WND 31027/0702
94908KDBQ DBQ20110411014512204/11/11 01:45:31  5-MIN KDBQ 110745Z AUTO 28015G21KT 10SM CLR 08/05 A2961 1370 79 900 280/15G21 RMK AO2 PK WND 31027/0702
94908KDBQ DBQ20110411015013904/11/11 01:50:31  5-MIN KDBQ 110750Z AUTO 28013G21KT 10SM CLR 08/05 A2961 1370 79 900 280/13G21 RMK AO2 PK WND 31027/0702 SLP025 T00830050
94908KDBQ DBQ20110411015510404/11/11 01:55:31  5-MIN KDBQ 110755Z AUTO 29015G21KT 10SM CLR 08/05 A2961 1360 79 900 280/15G21 RMK AO2
94908KDBQ DBQ20110411020010404/11/11 02:00:31  5-MIN KDBQ 110800Z AUTO 28013G21KT 10SM CLR 08/04 A2962 1350 76 900 280/13G21 RMK AO2
94908KDBQ DBQ20110411020510704/11/11 02:05:31  5-MIN KDBQ 110805Z AUTO 28016G22KT 10SM FEW018 08/05 A2962 1360 79 900 280/16G22 RMK AO2
94908KDBQ DBQ20110411021010704/11/11 02:10:31  5-MIN KDBQ 110810Z AUTO 29017G23KT 10SM SCT018 08/05 A2961 1370 79 900 290/17G23 RMK AO2
94908KDBQ DBQ20110411021510704/11/11 02:15:31  5-MIN KDBQ 110815Z AUTO 29018G23KT 10SM BKN018 08/05 A2962 1360 79 900 290/18G23 RMK AO2
94908KDBQ DBQ20110411022012504/11/11 02:20:31  5-MIN KDBQ 110820Z AUTO 29021G29KT 10SM BKN018 08/05 A2962 1360 79 900 290/21G29 RMK AO2 PK WND 29029/0819
94908KDBQ DBQ20110411022512504/11/11 02:25:31  5-MIN KDBQ 110825Z AUTO 29017G29KT 10SM BKN018 08/05 A2961 1370 79 900 290/17G29 RMK AO2 PK WND 29029/0819
94908KDBQ DBQ20110411023012504/11/11 02:30:31  5-MIN KDBQ 110830Z AUTO 30015G25KT 10SM OVC018 08/05 A2961 1370 79 900 290/15G25 RMK AO2 PK WND 29029/0819
94908KDBQ DBQ20110411023512504/11/11 02:35:31  5-MIN KDBQ 110835Z AUTO 29010G21KT 10SM OVC018 08/05 A2962 1360 79 900 280/10G21 RMK AO2 PK WND 29029/0819
94908KDBQ DBQ20110411024012504/11/11 02:40:31  5-MIN KDBQ 110840Z AUTO 29012G19KT 10SM OVC018 08/05 A2962 1350 79 900 290/12G19 RMK AO2 PK WND 29029/0819
94908KDBQ DBQ20110411024512504/11/11 02:45:31  5-MIN KDBQ 110845Z AUTO 29011G18KT 10SM OVC018 08/05 A2963 1350 79 900 290/11G18 RMK AO2 PK WND 29029/0819
94908KDBQ DBQ20110411025014204/11/11 02:50:31  5-MIN KDBQ 110850Z AUTO 29011KT 10SM OVC018 08/05 A2963 1350 79 900 290/11 RMK AO2 PK WND 29029/0819 SLP030 T00830050 50015
94908KDBQ DBQ20110411025510104/11/11 02:55:31  5-MIN KDBQ 110855Z AUTO 29009KT 10SM OVC018 08/04 A2963 1350 79 800 290/09 RMK AO2
94908KDBQ DBQ20110411030010104/11/11 03:00:31  5-MIN KDBQ 110900Z AUTO 28009KT 10SM BKN020 08/04 A2963 1350 79 800 280/09 RMK AO2
94908KDBQ DBQ20110411030510104/11/11 03:05:31  5-MIN KDBQ 110905Z AUTO 27007KT 10SM BKN020 08/05 A2963 1350 82 800 270/07 RMK AO2
94908KDBQ DBQ20110411031010104/11/11 03:10:31  5-MIN KDBQ 110910Z AUTO 27011KT 10SM OVC020 08/05 A2963 1350 82 800 270/11 RMK AO2
94908KDBQ DBQ20110411031510104/11/11 03:15:31  5-MIN KDBQ 110915Z AUTO 28008KT 10SM OVC020 08/05 A2963 1350 79 900 280/08 RMK AO2
94908KDBQ DBQ20110411032010104/11/11 03:20:31  5-MIN KDBQ 110920Z AUTO 28009KT 10SM OVC020 08/05 A2963 1350 82 800 280/09 RMK AO2
94908KDBQ DBQ20110411032510104/11/11 03:25:31  5-MIN KDBQ 110925Z AUTO 28010KT 10SM BKN020 08/04 A2962 1360 79 900 280/10 RMK AO2
94908KDBQ DBQ20110411033010104/11/11 03:30:31  5-MIN KDBQ 110930Z AUTO 28009KT 10SM BKN020 08/04 A2962 1360 79 900 280/09 RMK AO2
94908KDBQ DBQ20110411033510104/11/11 03:35:31  5-MIN KDBQ 110935Z AUTO 29008KT 10SM SCT020 07/04 A2961 1370 82 800 280/08 RMK AO2
94908KDBQ DBQ20110411034010104/11/11 03:40:31  5-MIN KDBQ 110940Z AUTO 28010KT 10SM FEW020 08/04 A2961 1370 79 900 280/10 RMK AO2
94908KDBQ DBQ20110411034510104/11/11 03:45:31  5-MIN KDBQ 110945Z AUTO 28011KT 10SM FEW020 08/04 A2961 1360 79 900 280/11 RMK AO2
94908KDBQ DBQ20110411035011504/11/11 03:50:31  5-MIN KDBQ 110950Z AUTO 27010KT 10SM CLR 08/04 A2961 1360 79 900 270/10 RMK AO2 SLP025 T00780044
94908KDBQ DBQ20110411035509804/11/11 03:55:31  5-MIN KDBQ 110955Z AUTO 27014KT 10SM CLR 08/04 A2962 1360 79 900 270/14 RMK AO2
94908KDBQ DBQ20110411040009804/11/11 04:00:31  5-MIN KDBQ 111000Z AUTO 27013KT 10SM CLR 08/04 A2962 1360 79 900 270/13 RMK AO2
94908KDBQ DBQ20110411040509804/11/11 04:05:31  5-MIN KDBQ 111005Z AUTO 27013KT 10SM CLR 07/04 A2962 1350 82 800 270/13 RMK AO2
94908KDBQ DBQ20110411041009804/11/11 04:10:31  5-MIN KDBQ 111010Z AUTO 27013KT 10SM CLR 07/04 A2962 1360 82 800 270/13 RMK AO2
94908KDBQ DBQ20110411041510404/11/11 04:15:31  5-MIN KDBQ 111015Z AUTO 27016G20KT 10SM CLR 07/04 A2963 1350 82 800 270/16G20 RMK AO2
94908KDBQ DBQ20110411042009804/11/11 04:20:31  5-MIN KDBQ 111020Z AUTO 27014KT 10SM CLR 07/04 A2963 1350 82 800 270/14 RMK AO2
94908KDBQ DBQ20110411042509804/11/11 04:25:31  5-MIN KDBQ 111025Z AUTO 27016KT 10SM CLR 07/04 A2964 1340 82 800 270/16 RMK AO2
94908KDBQ DBQ20110411043010404/11/11 04:30:31  5-MIN KDBQ 111030Z AUTO 28014G21KT 10SM CLR 07/04 A2964 1340 82 800 270/14G21 RMK AO2
94908KDBQ DBQ20110411043510404/11/11 04:35:31  5-MIN KDBQ 111035Z AUTO 27016G21KT 10SM CLR 07/04 A2963 1340 82 800 270/16G21 RMK AO2
94908KDBQ DBQ20110411044009804/11/11 04:40:31  5-MIN KDBQ 111040Z AUTO 27014KT 10SM CLR 07/04 A2964 1340 82 800 270/14 RMK AO2
94908KDBQ DBQ20110411044509804/11/11 04:45:31  5-MIN KDBQ 111045Z AUTO 27012KT 10SM CLR 07/04 A2964 1340 82 800 270/12 RMK AO2
94908KDBQ DBQ20110411045011004/11/11 04:50:31  5-MIN KDBQ 111050Z 27013KT 10SM CLR 07/04 A2964 1340 82 800 270/13 RMK AO2 SLP034 T00720044
94908KDBQ DBQ20110411045509304/11/11 04:55:31  5-MIN KDBQ 111055Z 28015KT 10SM CLR 07/04 A2964 1340 82 800 280/15 RMK AO2
94908KDBQ DBQ20110411050009304/11/11 05:00:31  5-MIN KDBQ 111100Z 28014KT 10SM CLR 07/04 A2964 1340 82 800 280/14 RMK AO2
94908KDBQ DBQ20110411050509304/11/11 05:05:31  5-MIN KDBQ 111105Z 27013KT 10SM CLR 07/04 A2964 1340 82 800 270/13 RMK AO2
94908KDBQ DBQ20110411051009304/11/11 05:10:31  5-MIN KDBQ 111110Z 27013KT 10SM CLR 07/04 A2963 1350 82 800 270/13 RMK AO2
94908KDBQ DBQ20110411051509304/11/11 05:15:31  5-MIN KDBQ 111115Z 28015KT 10SM CLR 07/04 A2963 1350 82 800 280/15 RMK AO2
94908KDBQ DBQ20110411052009304/11/11 05:20:31  5-MIN KDBQ 111120Z 28017KT 10SM CLR 07/04 A2964 1340 82 800 280/17 RMK AO2
94908KDBQ DBQ20110411052509304/11/11 05:25:31  5-MIN KDBQ 111125Z 28013KT 10SM CLR 07/04 A2965 1330 82 800 280/13 RMK AO2
94908KDBQ DBQ20110411053010004/11/11 05:30:31  5-MIN KDBQ 111130Z 28013KT 10SM CLR 07/04 A2965 1320 82 700 280/13 RMK AO2 PRESRR
94908KDBQ DBQ20110411053510004/11/11 05:35:31  5-MIN KDBQ 111135Z 28014KT 10SM CLR 07/04 A2966 1320 82 700 280/14 RMK AO2 PRESRR
94908KDBQ DBQ20110411054009304/11/11 05:40:31  5-MIN KDBQ 111140Z 28011KT 10SM CLR 07/04 A2966 1320 82 700 280/11 RMK AO2
94908KDBQ DBQ20110411054509304/11/11 05:45:31  5-MIN KDBQ 111145Z 28011KT 10SM CLR 07/04 A2966 1320 82 700 280/11 RMK AO2
94908KDBQ DBQ20110411055012804/11/11 05:50:31  5-MIN KDBQ 111150Z 28011KT 10SM CLR 07/04 A2967 1310 82 700 280/11 RMK AO2 SLP045 T00720044 10100 20072 53009
94908KDBQ DBQ20110411055509304/11/11 05:55:31  5-MIN KDBQ 111155Z 29012KT 10SM CLR 07/04 A2967 1310 82 700 280/12 RMK AO2
94908KDBQ DBQ20110411060009304/11/11 06:00:31  5-MIN KDBQ 111200Z 29010KT 10SM CLR 07/04 A2968 1310 82 700 290/10 RMK AO2
94908KDBQ DBQ20110411060509304/11/11 06:05:31  5-MIN KDBQ 111205Z 30010KT 10SM CLR 07/04 A2967 1310 82 700 300/10 RMK AO2
94908KDBQ DBQ20110411061009304/11/11 06:10:31  5-MIN KDBQ 111210Z 30009KT 10SM CLR 07/04 A2968 1300 82 700 300/09 RMK AO2
94908KDBQ DBQ20110411061509604/11/11 06:15:31  5-MIN KDBQ 111215Z 31011KT 10SM FEW022 07/04 A2969 1290 82 700 310/11 RMK AO2
94908KDBQ DBQ20110411062009604/11/11 06:20:31  5-MIN KDBQ 111220Z 30010KT 10SM SCT020 07/05 A2969 1300 86 700 300/10 RMK AO2
94908KDBQ DBQ20110411062510204/11/11 06:25:31  5-MIN KDBQ 111225Z 30010G17KT 10SM BKN020 08/05 A2969 1290 82 800 300/10G17 RMK AO2
94908KDBQ DBQ20110411063010204/11/11 06:30:31  5-MIN KDBQ 111230Z 31013G22KT 10SM BKN018 08/05 A2969 1290 82 800 310/13G22 RMK AO2
94908KDBQ DBQ20110411063510204/11/11 06:35:31  5-MIN KDBQ 111235Z 30013G22KT 10SM BKN018 08/05 A2969 1290 82 800 300/13G22 RMK AO2
94908KDBQ DBQ20110411064010204/11/11 06:40:31  5-MIN KDBQ 111240Z 30012G20KT 10SM OVC018 08/05 A2969 1290 82 800 300/12G20 RMK AO2
94908KDBQ DBQ20110411064510204/11/11 06:45:31  5-MIN KDBQ 111245Z 31011G20KT 10SM OVC018 08/05 A2969 1290 82 800 310/11G20 RMK AO2
94908KDBQ DBQ20110411065011904/11/11 06:50:31  5-MIN KDBQ 111250Z 31014G20KT 10SM OVC018 08/05 A2969 1290 82 800 310/14G20 RMK AO2 SLP055 T00780050
94908KDBQ DBQ20110411065510204/11/11 06:55:31  5-MIN KDBQ 111255Z 31013G20KT 10SM OVC018 08/05 A2970 1290 82 800 310/13G20 RMK AO2
94908KDBQ DBQ20110411070010204/11/11 07:00:31  5-MIN KDBQ 111300Z 32011G20KT 10SM OVC018 08/05 A2969 1290 82 800 310/11G20 RMK AO2
94908KDBQ DBQ20110411070510204/11/11 07:05:31  5-MIN KDBQ 111305Z 32012G20KT 10SM OVC016 08/05 A2969 1290 79 800 320/12G20 RMK AO2
94908KDBQ DBQ20110411071010204/11/11 07:10:31  5-MIN KDBQ 111310Z 33014G20KT 10SM OVC016 08/05 A2969 1290 79 800 320/14G20 RMK AO2
94908KDBQ DBQ20110411071510204/11/11 07:15:31  5-MIN KDBQ 111315Z 32012G21KT 10SM OVC016 08/05 A2970 1280 79 800 320/12G21 RMK AO2
94908KDBQ DBQ20110411072010204/11/11 07:20:31  5-MIN KDBQ 111320Z 32014G21KT 10SM OVC016 08/05 A2970 1280 79 800 320/14G21 RMK AO2
94908KDBQ DBQ20110411072510204/11/11 07:25:31  5-MIN KDBQ 111325Z 31016G21KT 10SM BKN016 08/05 A2970 1280 79 800 310/16G21 RMK AO2
94908KDBQ DBQ20110411073010204/11/11 07:30:31  5-MIN KDBQ 111330Z 31012G21KT 10SM BKN016 08/05 A2970 1290 79 800 310/12G21 RMK AO2
94908KDBQ DBQ20110411073510204/11/11 07:35:31  5-MIN KDBQ 111335Z 31010G19KT 10SM SCT016 09/05 A2970 1290 76 900 310/10G19 RMK AO2
94908KDBQ DBQ20110411074010304/11/11 07:40:31  5-MIN KDBQ 111340Z 31013G19KT 10SM SCT016 09/05 A2970 1290 74 1000 310/13G19 RMK AO2
94908KDBQ DBQ20110411074510304/11/11 07:45:31  5-MIN KDBQ 111345Z 31009G18KT 10SM FEW016 09/05 A2970 1280 74 1000 310/09G18 RMK AO2
94908KDBQ DBQ20110411075011304/11/11 07:50:31  5-MIN KDBQ 111350Z 30011KT 10SM FEW019 09/05 A2971 1270 74 900 300/11 RMK AO2 SLP062 T00940050
94908KDBQ DBQ20110411075511004/11/11 07:55:31  5-MIN KDBQ 111355Z 30011G17KT 10SM FEW019 10/05 A2972 1260 71 1000 300/11G17 RMK AO2 PRESRR
94908KDBQ DBQ20110411080010204/11/11 08:00:31  5-MIN KDBQ 111400Z 30014G20KT 10SM FEW019 09/05 A2972 1260 74 900 300/14G20 RMK AO2
94908KDBQ DBQ20110411080510204/11/11 08:05:31  5-MIN KDBQ 111405Z 29010G20KT 10SM FEW021 09/05 A2973 1260 74 900 290/10G20 RMK AO2
94908KDBQ DBQ20110411081009604/11/11 08:10:31  5-MIN KDBQ 111410Z 30011KT 10SM SCT021 09/05 A2973 1250 74 900 300/11 RMK AO2
94908KDBQ DBQ20110411081509604/11/11 08:15:31  5-MIN KDBQ 111415Z 31010KT 10SM BKN021 09/05 A2973 1260 74 900 310/10 RMK AO2
94908KDBQ DBQ20110411082009704/11/11 08:20:31  5-MIN KDBQ 111420Z 29011KT 10SM BKN021 10/05 A2973 1250 71 1000 290/11 RMK AO2
94908KDBQ DBQ20110411082509704/11/11 08:25:31  5-MIN KDBQ 111425Z 30012KT 10SM BKN021 10/05 A2973 1260 71 1000 300/12 RMK AO2
94908KDBQ DBQ20110411083010304/11/11 08:30:31  5-MIN KDBQ 111430Z 32013G19KT 10SM BKN021 10/05 A2973 1250 71 1000 310/13G19 RMK AO2
94908KDBQ DBQ20110411083510304/11/11 08:35:31  5-MIN KDBQ 111435Z 32011G19KT 10SM BKN021 10/05 A2973 1250 71 1000 320/11G19 RMK AO2
94908KDBQ DBQ20110411084010304/11/11 08:40:31  5-MIN KDBQ 111440Z 31011G19KT 10SM BKN023 10/05 A2974 1240 71 1000 310/11G19 RMK AO2
94908KDBQ DBQ20110411084510304/11/11 08:45:31  5-MIN KDBQ 111445Z 31011G18KT 10SM BKN023 11/05 A2974 1250 68 1100 310/11G18 RMK AO2
94908KDBQ DBQ20110411085012604/11/11 08:50:31  5-MIN KDBQ 111450Z 33013G20KT 10SM OVC023 11/06 A2973 1250 71 1100 330/13G20 RMK AO2 SLP069 T01060056 53016
94908KDBQ DBQ20110411085510304/11/11 08:55:31  5-MIN KDBQ 111455Z 33014G20KT 10SM OVC023 11/05 A2974 1250 68 1100 320/14G20 RMK AO2
94908KDBQ DBQ20110411090009704/11/11 09:00:31  5-MIN KDBQ 111500Z 33011KT 10SM OVC023 11/05 A2974 1250 68 1100 330/11 RMK AO2
94908KDBQ DBQ20110411090510304/11/11 09:05:31  5-MIN KDBQ 111505Z 33015G19KT 10SM OVC023 11/05 A2974 1250 68 1100 330/15G19 RMK AO2
94908KDBQ DBQ20110411091010304/11/11 09:10:31  5-MIN KDBQ 111510Z 34013G19KT 10SM OVC023 11/06 A2973 1250 68 1100 340/13G19 RMK AO2
94908KDBQ DBQ20110411091509704/11/11 09:15:31  5-MIN KDBQ 111515Z 33012KT 10SM BKN021 11/05 A2974 1240 66 1100 320/12 RMK AO2
94908KDBQ DBQ20110411092010304/11/11 09:20:31  5-MIN KDBQ 111520Z 30015G20KT 10SM OVC021 11/05 A2975 1230 66 1100 290/15G20 RMK AO2
94908KDBQ DBQ20110411092510404/11/11 09:25:31  5-MIN KDBQ 111525Z 30014KT 10SM OVC021 10/05 A2976 1220 71 1000 290/14 RMK AO2 PRESRR
94908KDBQ DBQ20110411093009704/11/11 09:30:31  5-MIN KDBQ 111530Z 30016KT 10SM BKN021 11/05 A2977 1220 68 1000 300/16 RMK AO2
94908KDBQ DBQ20110411093510304/11/11 09:35:31  5-MIN KDBQ 111535Z 33012G21KT 10SM BKN021 11/05 A2977 1220 68 1000 330/12G21 RMK AO2
94908KDBQ DBQ20110411094009704/11/11 09:40:31  5-MIN KDBQ 111540Z 32011KT 10SM BKN021 11/05 A2977 1220 66 1100 310/11 RMK AO2
94908KDBQ DBQ20110411094510304/11/11 09:45:31  5-MIN KDBQ 111545Z 33011G18KT 10SM BKN021 11/05 A2977 1220 66 1100 330/11G18 RMK AO2
94908KDBQ DBQ20110411095010304/11/11 09:50:31  5-MIN KDBQ 111550Z 32011G18KT 10SM SCT021 11/05 A2977 1220 66 1100 320/11G18 RMK AO2
94908KDBQ DBQ20110411095510304/11/11 09:55:31  5-MIN KDBQ 111555Z 32011G19KT 10SM SCT023 12/05 A2977 1210 63 1100 320/11G19 RMK AO2
94908KDBQ DBQ20110411100010304/11/11 10:00:31  5-MIN KDBQ 111600Z 30013G19KT 10SM SCT023 12/05 A2977 1210 63 1100 300/13G19 RMK AO2
94908KDBQ DBQ20110411100509704/11/11 10:05:31  5-MIN KDBQ 111605Z 30014KT 10SM FEW023 11/05 A2978 1210 66 1100 300/14 RMK AO2
94908KDBQ DBQ20110411101009704/11/11 10:10:31  5-MIN KDBQ 111610Z 31013KT 10SM FEW023 12/05 A2977 1220 63 1100 310/13 RMK AO2
94908KDBQ DBQ20110411101510304/11/11 10:15:31  5-MIN KDBQ 111615Z 30012G18KT 10SM FEW023 12/06 A2977 1220 63 1200 300/12G18 RMK AO2
94908KDBQ DBQ20110411102010304/11/11 10:20:31  5-MIN KDBQ 111620Z 32013G19KT 10SM FEW023 12/06 A2977 1220 63 1200 320/13G19 RMK AO2
94908KDBQ DBQ20110411102510004/11/11 10:25:31  5-MIN KDBQ 111625Z 31013G19KT 10SM CLR 13/06 A2977 1220 61 1300 300/13G19 RMK AO2
94908KDBQ DBQ20110411103010004/11/11 10:30:31  5-MIN KDBQ 111630Z 32012G18KT 10SM CLR 13/06 A2976 1220 61 1300 320/12G18 RMK AO2
94908KDBQ DBQ20110411103509404/11/11 10:35:31  5-MIN KDBQ 111635Z 31013KT 10SM CLR 13/06 A2976 1230 61 1300 310/13 RMK AO2
94908KDBQ DBQ20110411104009404/11/11 10:40:31  5-MIN KDBQ 111640Z 32013KT 10SM CLR 13/06 A2976 1220 61 1300 320/13 RMK AO2
94908KDBQ DBQ20110411104510304/11/11 10:45:31  5-MIN KDBQ 111645Z 29012G19KT 10SM FEW028 13/06 A2976 1230 61 1300 290/12G19 RMK AO2
94908KDBQ DBQ20110411105011404/11/11 10:50:31  5-MIN KDBQ 111650Z 31012KT 10SM FEW028 13/06 A2975 1240 61 1300 310/12 RMK AO2 SLP076 T01280056
94908KDBQ DBQ20110411105510004/11/11 10:55:31  5-MIN KDBQ 111655Z 32012G21KT 10SM CLR 13/06 A2975 1230 59 1400 310/12G21 RMK AO2
94908KDBQ DBQ20110411110010004/11/11 11:00:31  5-MIN KDBQ 111700Z 31012G21KT 10SM CLR 13/06 A2975 1240 61 1300 300/12G21 RMK AO2
94908KDBQ DBQ20110411110510004/11/11 11:05:31  5-MIN KDBQ 111705Z 29012G17KT 10SM CLR 13/06 A2975 1230 59 1400 290/12G17 RMK AO2
94908KDBQ DBQ20110411111009404/11/11 11:10:31  5-MIN KDBQ 111710Z 30009KT 10SM CLR 13/06 A2975 1230 59 1400 300/09 RMK AO2
94908KDBQ DBQ20110411111510004/11/11 11:15:31  5-MIN KDBQ 111715Z 32016G19KT 10SM CLR 14/06 A2976 1230 55 1500 320/16G19 RMK AO2
94908KDBQ DBQ20110411112010004/11/11 11:20:31  5-MIN KDBQ 111720Z 32014G19KT 10SM CLR 14/04 A2976 1230 51 1500 320/14G19 RMK AO2
94908KDBQ DBQ20110411112509404/11/11 11:25:31  5-MIN KDBQ 111725Z 33013KT 10SM CLR 14/04 A2976 1230 52 1400 330/13 RMK AO2
94908KDBQ DBQ20110411113010004/11/11 11:30:31  5-MIN KDBQ 111730Z 34012G20KT 10SM CLR 14/04 A2976 1230 51 1500 340/12G20 RMK AO2
94908KDBQ DBQ20110411113510004/11/11 11:35:31  5-MIN KDBQ 111735Z 33013G20KT 10SM CLR 14/05 A2976 1230 53 1500 330/13G20 RMK AO2
94908KDBQ DBQ20110411114009404/11/11 11:40:31  5-MIN KDBQ 111740Z 33012KT 10SM CLR 14/04 A2976 1230 51 1500 330/12 RMK AO2
94908KDBQ DBQ20110411114509404/11/11 11:45:31  5-MIN KDBQ 111745Z 34007KT 10SM CLR 15/05 A2976 1230 51 1600 340/07 RMK AO2
94908KDBQ DBQ20110411115013504/11/11 11:50:31  5-MIN KDBQ 111750Z 30010G16KT 10SM CLR 15/04 A2976 1230 49 1600 300/10G16 RMK AO2 SLP079 T01500044 10150 20072 51019
94908KDBQ DBQ20110411115510304/11/11 11:55:31  5-MIN KDBQ 111755Z 32008G16KT 10SM FEW039 15/05 A2976 1230 51 1600 320/08G16 RMK AO2
94908KDBQ DBQ20110411120010304/11/11 12:00:31  5-MIN KDBQ 111800Z 30013G17KT 10SM FEW039 16/05 A2976 1230 49 1600 300/13G17 RMK AO2
94908KDBQ DBQ20110411120510004/11/11 12:05:31  5-MIN KDBQ 111805Z 29013G17KT 10SM CLR 15/04 A2976 1220 49 1500 290/13G17 RMK AO2
94908KDBQ DBQ20110411121010004/11/11 12:10:31  5-MIN KDBQ 111810Z 32014G22KT 10SM CLR 15/04 A2977 1220 49 1500 320/14G22 RMK AO2
94908KDBQ DBQ20110411121510004/11/11 12:15:31  5-MIN KDBQ 111815Z 32010G22KT 10SM CLR 16/04 A2977 1220 47 1600 320/10G22 RMK AO2
94908KDBQ DBQ20110411122011804/11/11 12:20:31  5-MIN KDBQ 111820Z 33012G27KT 10SM CLR 16/04 A2977 1220 47 1600 330/12G27 RMK AO2 PK WND 27027/1819
94908KDBQ DBQ20110411122511804/11/11 12:25:31  5-MIN KDBQ 111825Z 30014G27KT 10SM CLR 16/04 A2977 1220 45 1700 290/14G27 RMK AO2 PK WND 27027/1819
94908KDBQ DBQ20110411123011804/11/11 12:30:31  5-MIN KDBQ 111830Z 32008G19KT 10SM CLR 16/04 A2977 1220 45 1600 320/08G19 RMK AO2 PK WND 27027/1819
94908KDBQ DBQ20110411123511804/11/11 12:35:31  5-MIN KDBQ 111835Z 30013G19KT 10SM CLR 16/04 A2977 1220 45 1700 300/13G19 RMK AO2 PK WND 27027/1819
94908KDBQ DBQ20110411124011804/11/11 12:40:31  5-MIN KDBQ 111840Z 33009G19KT 10SM CLR 16/04 A2977 1220 47 1600 330/09G19 RMK AO2 PK WND 27027/1819
94908KDBQ DBQ20110411124511804/11/11 12:45:31  5-MIN KDBQ 111845Z 34010G16KT 10SM CLR 16/05 A2976 1220 47 1700 340/10G16 RMK AO2 PK WND 27027/1819
94908KDBQ DBQ20110411125013804/11/11 12:50:31  5-MIN KDBQ 111850Z 33012G18KT 10SM FEW046 16/04 A2976 1220 47 1600 330/12G18 RMK AO2 PK WND 27027/1819 SLP080 T01560044
94908KDBQ DBQ20110411125510304/11/11 12:55:31  5-MIN KDBQ 111855Z 32011G21KT 10SM FEW046 16/04 A2976 1220 45 1700 320/11G21 RMK AO2
94908KDBQ DBQ20110411130010004/11/11 13:00:31  5-MIN KDBQ 111900Z 32010G21KT 10SM CLR 16/04 A2976 1230 44 1700 320/10G21 RMK AO2
94908KDBQ DBQ20110411130511604/11/11 13:05:31  5-MIN KDBQ 111905Z 31010G17KT 270V340 10SM CLR 16/04 A2976 1230 45 1700 310/10G17 270V340 RMK AO2
94908KDBQ DBQ20110411131010304/11/11 13:10:31  5-MIN KDBQ 111910Z 30012G18KT 10SM FEW047 16/04 A2975 1230 44 1700 300/12G18 RMK AO2
94908KDBQ DBQ20110411131510004/11/11 13:15:31  5-MIN KDBQ 111915Z 32010G18KT 10SM CLR 17/04 A2976 1230 44 1700 320/10G18 RMK AO2
94908KDBQ DBQ20110411132010004/11/11 13:20:31  5-MIN KDBQ 111920Z 36011G18KT 10SM CLR 17/04 A2976 1230 42 1700 350/11G18 RMK AO2
94908KDBQ DBQ20110411132510004/11/11 13:25:31  5-MIN KDBQ 111925Z 33014G20KT 10SM CLR 17/03 A2976 1230 39 1800 330/14G20 RMK AO2
94908KDBQ DBQ20110411133010004/11/11 13:30:31  5-MIN KDBQ 111930Z 33014G22KT 10SM CLR 17/03 A2976 1220 40 1700 330/14G22 RMK AO2
94908KDBQ DBQ20110411133510004/11/11 13:35:31  5-MIN KDBQ 111935Z 34015G22KT 10SM CLR 17/03 A2977 1220 39 1800 340/15G22 RMK AO2
94908KDBQ DBQ20110411134010004/11/11 13:40:31  5-MIN KDBQ 111940Z 34017G22KT 10SM CLR 17/02 A2977 1220 37 1700 340/17G22 RMK AO2
94908KDBQ DBQ20110411134510004/11/11 13:45:31  5-MIN KDBQ 111945Z 33016G22KT 10SM CLR 17/03 A2977 1220 39 1700 330/16G22 RMK AO2
94908KDBQ DBQ20110411135011704/11/11 13:50:31  5-MIN KDBQ 111950Z 34012G22KT 10SM CLR 17/03 A2977 1220 39 1700 340/12G22 RMK AO2 SLP082 T01670028
94908KDBQ DBQ20110411135509404/11/11 13:55:31  5-MIN KDBQ 111955Z 35013KT 10SM CLR 17/03 A2977 1220 37 1800 350/13 RMK AO2
94908KDBQ DBQ20110411140010004/11/11 14:00:31  5-MIN KDBQ 112000Z 34014G20KT 10SM CLR 17/03 A2977 1220 39 1800 340/14G20 RMK AO2
94908KDBQ DBQ20110411140510004/11/11 14:05:31  5-MIN KDBQ 112005Z 33014G20KT 10SM CLR 17/02 A2977 1220 37 1700 330/14G20 RMK AO2
94908KDBQ DBQ20110411141010004/11/11 14:10:31  5-MIN KDBQ 112010Z 34016G20KT 10SM CLR 17/03 A2977 1220 37 1800 340/16G20 RMK AO2
94908KDBQ DBQ20110411141510004/11/11 14:15:31  5-MIN KDBQ 112015Z 35016G20KT 10SM CLR 17/02 A2977 1220 37 1700 350/16G20 RMK AO2
94908KDBQ DBQ20110411142010004/11/11 14:20:31  5-MIN KDBQ 112020Z 35016G22KT 10SM CLR 17/02 A2977 1220 37 1700 350/16G22 RMK AO2
94908KDBQ DBQ20110411142511604/11/11 14:25:31  5-MIN KDBQ 112025Z 34012G22KT 300V010 10SM CLR 17/02 A2977 1220 37 1700 340/12G22 300V010 RMK AO2
94908KDBQ DBQ20110411143010004/11/11 14:30:31  5-MIN KDBQ 112030Z 34016G21KT 10SM CLR 17/03 A2977 1220 37 1800 340/16G21 RMK AO2
94908KDBQ DBQ20110411143510004/11/11 14:35:31  5-MIN KDBQ 112035Z 34012G21KT 10SM CLR 17/03 A2976 1220 37 1800 340/12G21 RMK AO2
94908KDBQ DBQ20110411144010004/11/11 14:40:31  5-MIN KDBQ 112040Z 33012G19KT 10SM CLR 17/03 A2977 1220 37 1800 330/12G19 RMK AO2
94908KDBQ DBQ20110411144510004/11/11 14:45:31  5-MIN KDBQ 112045Z 33015G21KT 10SM CLR 17/03 A2977 1220 37 1800 330/15G21 RMK AO2
94908KDBQ DBQ20110411145012304/11/11 14:50:31  5-MIN KDBQ 112050Z 33014G21KT 10SM CLR 17/03 A2977 1210 37 1800 330/14G21 RMK AO2 SLP084 T01720028 51008
94908KDBQ DBQ20110411145510004/11/11 14:55:31  5-MIN KDBQ 112055Z 35011G21KT 10SM CLR 17/03 A2978 1210 39 1700 350/11G21 RMK AO2
94908KDBQ DBQ20110411150010004/11/11 15:00:31  5-MIN KDBQ 112100Z 35013G21KT 10SM CLR 17/03 A2978 1210 37 1800 350/13G21 RMK AO2
94908KDBQ DBQ20110411150510004/11/11 15:05:31  5-MIN KDBQ 112105Z 34015G21KT 10SM CLR 17/02 A2978 1210 36 1800 330/15G21 RMK AO2
94908KDBQ DBQ20110411151010004/11/11 15:10:31  5-MIN KDBQ 112110Z 34013G21KT 10SM CLR 17/02 A2978 1210 36 1800 340/13G21 RMK AO2
94908KDBQ DBQ20110411151509404/11/11 15:15:31  5-MIN KDBQ 112115Z 33014KT 10SM CLR 17/02 A2978 1210 36 1800 330/14 RMK AO2
94908KDBQ DBQ20110411152009404/11/11 15:20:31  5-MIN KDBQ 112120Z 33014KT 10SM CLR 17/03 A2978 1210 37 1800 320/14 RMK AO2
94908KDBQ DBQ20110411152510004/11/11 15:25:31  5-MIN KDBQ 112125Z 35013G22KT 10SM CLR 17/02 A2978 1210 36 1800 350/13G22 RMK AO2
94908KDBQ DBQ20110411153010004/11/11 15:30:31  5-MIN KDBQ 112130Z 36011G22KT 10SM CLR 17/02 A2978 1210 36 1800 360/11G22 RMK AO2
94908KDBQ DBQ20110411153510004/11/11 15:35:31  5-MIN KDBQ 112135Z 33013G19KT 10SM CLR 18/03 A2979 1200 36 1800 330/13G19 RMK AO2
94908KDBQ DBQ20110411154010304/11/11 15:40:31  5-MIN KDBQ 112140Z 35011G19KT 10SM FEW060 17/03 A2979 1200 37 1800 350/11G19 RMK AO2
94908KDBQ DBQ20110411154510304/11/11 15:45:31  5-MIN KDBQ 112145Z 35013G19KT 10SM FEW060 17/02 A2979 1190 36 1800 350/13G19 RMK AO2
94908KDBQ DBQ20110411155011104/11/11 15:50:31  5-MIN KDBQ 112150Z 35015KT 10SM CLR 17/02 A2980 1190 36 1800 350/15 RMK AO2 SLP091 T01720022
94908KDBQ DBQ20110411155509404/11/11 15:55:31  5-MIN KDBQ 112155Z 35014KT 10SM CLR 17/02 A2980 1190 37 1700 350/14 RMK AO2
94908KDBQ DBQ20110411160009404/11/11 16:00:31  5-MIN KDBQ 112200Z 34014KT 10SM CLR 17/02 A2980 1190 37 1700 340/14 RMK AO2
94908KDBQ DBQ20110411160509404/11/11 16:05:31  5-MIN KDBQ 112205Z 33013KT 10SM CLR 17/02 A2980 1190 37 1700 330/13 RMK AO2
94908KDBQ DBQ20110411161009404/11/11 16:10:31  5-MIN KDBQ 112210Z 33013KT 10SM CLR 17/02 A2980 1190 37 1700 330/13 RMK AO2
94908KDBQ DBQ20110411161510004/11/11 16:15:31  5-MIN KDBQ 112215Z 33013G20KT 10SM CLR 17/03 A2981 1180 39 1700 330/13G20 RMK AO2
94908KDBQ DBQ20110411162010004/11/11 16:20:31  5-MIN KDBQ 112220Z 34013G20KT 10SM CLR 16/02 A2981 1180 39 1600 340/13G20 RMK AO2
94908KDBQ DBQ20110411162509404/11/11 16:25:31  5-MIN KDBQ 112225Z 34012KT 10SM CLR 17/03 A2981 1180 39 1700 340/12 RMK AO2
94908KDBQ DBQ20110411163009404/11/11 16:30:31  5-MIN KDBQ 112230Z 34015KT 10SM CLR 17/02 A2981 1180 37 1700 340/15 RMK AO2
94908KDBQ DBQ20110411163509404/11/11 16:35:31  5-MIN KDBQ 112235Z 34012KT 10SM CLR 17/02 A2981 1180 37 1700 340/12 RMK AO2
94908KDBQ DBQ20110411164010304/11/11 16:40:31  5-MIN KDBQ 112240Z 35012G18KT 10SM FEW060 17/03 A2982 1170 39 1700 350/12G18 RMK AO2
94908KDBQ DBQ20110411164510304/11/11 16:45:31  5-MIN KDBQ 112245Z 34015G18KT 10SM SCT060 17/03 A2982 1170 39 1700 340/15G18 RMK AO2
94908KDBQ DBQ20110411165012004/11/11 16:50:31  5-MIN KDBQ 112250Z 35011G18KT 10SM SCT060 17/03 A2982 1170 39 1700 350/11G18 RMK AO2 SLP099 T01670028
94908KDBQ DBQ20110411165509704/11/11 16:55:31  5-MIN KDBQ 112255Z 33013KT 10SM BKN060 17/03 A2982 1170 39 1700 330/13 RMK AO2
94908KDBQ DBQ20110411170009704/11/11 17:00:31  5-MIN KDBQ 112300Z 36013KT 10SM BKN060 16/03 A2982 1170 40 1600 360/13 RMK AO2
94908KDBQ DBQ20110411170509704/11/11 17:05:31  5-MIN KDBQ 112305Z 35014KT 10SM SCT060 15/03 A2983 1160 43 1500 350/14 RMK AO2
94908KDBQ DBQ20110411171009704/11/11 17:10:31  5-MIN KDBQ 112310Z 36014KT 10SM SCT060 16/02 A2983 1160 40 1500 360/14 RMK AO2
94908KDBQ DBQ20110411171509704/11/11 17:15:31  5-MIN KDBQ 112315Z 36011KT 10SM FEW060 15/02 A2983 1160 42 1500 360/11 RMK AO2
94908KDBQ DBQ20110411172009704/11/11 17:20:31  5-MIN KDBQ 112320Z 36012KT 10SM FEW060 14/02 A2984 1160 43 1400 350/12 RMK AO2
94908KDBQ DBQ20110411172509404/11/11 17:25:31  5-MIN KDBQ 112325Z 36012KT 10SM CLR 15/02 A2984 1150 42 1500 360/12 RMK AO2
94908KDBQ DBQ20110411173009404/11/11 17:30:31  5-MIN KDBQ 112330Z 36013KT 10SM CLR 16/02 A2984 1150 40 1500 360/13 RMK AO2
94908KDBQ DBQ20110411173509404/11/11 17:35:31  5-MIN KDBQ 112335Z 36009KT 10SM CLR 15/02 A2984 1150 42 1500 360/09 RMK AO2
94908KDBQ DBQ20110411174010004/11/11 17:40:31  5-MIN KDBQ 112340Z 35012G17KT 10SM CLR 15/02 A2984 1150 42 1500 350/12G17 RMK AO2
94908KDBQ DBQ20110411174509404/11/11 17:45:31  5-MIN KDBQ 112345Z 34012KT 10SM CLR 15/03 A2985 1150 43 1500 340/12 RMK AO2
94908KDBQ DBQ20110411175012904/11/11 17:50:31  5-MIN KDBQ 112350Z 35011KT 10SM CLR 15/02 A2985 1150 42 1500 350/11 RMK AO2 SLP110 T01500022 10178 20144 53006
94908KDBQ DBQ20110411175509404/11/11 17:55:31  5-MIN KDBQ 112355Z 35012KT 10SM CLR 15/03 A2985 1150 43 1500 350/12 RMK AO2
94908KDBQ DBQ20110411180009404/11/11 18:00:31  5-MIN KDBQ 120000Z 35010KT 10SM CLR 14/03 A2985 1140 45 1400 350/10 RMK AO2
94908KDBQ DBQ20110411180509404/11/11 18:05:31  5-MIN KDBQ 120005Z 35011KT 10SM CLR 14/02 A2985 1140 43 1400 350/11 RMK AO2
94908KDBQ DBQ20110411181009404/11/11 18:10:31  5-MIN KDBQ 120010Z 35008KT 10SM CLR 14/03 A2985 1140 47 1300 350/08 RMK AO2
94908KDBQ DBQ20110411181509404/11/11 18:15:31  5-MIN KDBQ 120015Z 35009KT 10SM CLR 14/03 A2986 1140 47 1300 340/09 RMK AO2
94908KDBQ DBQ20110411182009404/11/11 18:20:31  5-MIN KDBQ 120020Z 35010KT 10SM CLR 14/02 A2986 1140 45 1300 350/10 RMK AO2
94908KDBQ DBQ20110411182509404/11/11 18:25:31  5-MIN KDBQ 120025Z 35009KT 10SM CLR 13/02 A2986 1130 46 1200 350/09 RMK AO2
94908KDBQ DBQ20110411183009404/11/11 18:30:31  5-MIN KDBQ 120030Z 35008KT 10SM CLR 13/02 A2986 1130 48 1200 350/08 RMK AO2
94908KDBQ DBQ20110411183509404/11/11 18:35:31  5-MIN KDBQ 120035Z 35009KT 10SM CLR 13/02 A2986 1130 48 1200 340/09 RMK AO2
94908KDBQ DBQ20110411184009704/11/11 18:40:31  5-MIN KDBQ 120040Z 34007KT 10SM FEW060 13/02 A2986 1130 48 1200 340/07 RMK AO2
94908KDBQ DBQ20110411184509704/11/11 18:45:31  5-MIN KDBQ 120045Z 34009KT 10SM FEW060 12/02 A2987 1130 50 1100 340/09 RMK AO2
94908KDBQ DBQ20110411185011404/11/11 18:50:31  5-MIN KDBQ 120050Z 34008KT 10SM SCT060 12/02 A2987 1130 50 1100 340/08 RMK AO2 SLP118 T01220022
94908KDBQ DBQ20110411185509704/11/11 18:55:31  5-MIN KDBQ 120055Z 34008KT 10SM SCT060 12/02 A2987 1120 50 1100 340/08 RMK AO2
94908KDBQ DBQ20110411190009704/11/11 19:00:31  5-MIN KDBQ 120100Z 34008KT 10SM SCT060 12/02 A2987 1120 52 1000 340/08 RMK AO2
94908KDBQ DBQ20110411190510204/11/11 19:05:31  5-MIN KDBQ 120105Z AUTO 34009KT 10SM SCT060 12/02 A2988 1120 52 1000 340/09 RMK AO2
94908KDBQ DBQ20110411191010204/11/11 19:10:31  5-MIN KDBQ 120110Z AUTO 34008KT 10SM SCT060 12/02 A2988 1110 52 1000 340/08 RMK AO2
94908KDBQ DBQ20110411191510204/11/11 19:15:31  5-MIN KDBQ 120115Z AUTO 35009KT 10SM SCT060 12/02 A2989 1110 52 1000 350/09 RMK AO2
94908KDBQ DBQ20110411192010204/11/11 19:20:31  5-MIN KDBQ 120120Z AUTO 34009KT 10SM BKN060 12/02 A2989 1110 50 1100 340/09 RMK AO2
94908KDBQ DBQ20110411192510204/11/11 19:25:31  5-MIN KDBQ 120125Z AUTO 36008KT 10SM BKN060 12/02 A2989 1100 50 1100 360/08 RMK AO2
94908KDBQ DBQ20110411193010204/11/11 19:30:31  5-MIN KDBQ 120130Z AUTO 36008KT 10SM BKN060 13/02 A2990 1100 48 1100 360/08 RMK AO2
94908KDBQ DBQ20110411193510204/11/11 19:35:31  5-MIN KDBQ 120135Z AUTO 01006KT 10SM BKN060 13/02 A2990 1100 48 1100 010/06 RMK AO2
94908KDBQ DBQ20110411194010204/11/11 19:40:31  5-MIN KDBQ 120140Z AUTO 06004KT 10SM OVC060 13/02 A2991 1090 48 1100 060/04 RMK AO2
94908KDBQ DBQ20110411194510204/11/11 19:45:31  5-MIN KDBQ 120145Z AUTO 04004KT 10SM OVC060 13/02 A2991 1090 48 1100 040/04 RMK AO2
94908KDBQ DBQ20110411195011904/11/11 19:50:31  5-MIN KDBQ 120150Z AUTO 06006KT 10SM OVC060 12/02 A2991 1090 50 1100 060/06 RMK AO2 SLP132 T01220022
94908KDBQ DBQ20110411195510204/11/11 19:55:31  5-MIN KDBQ 120155Z AUTO 06008KT 10SM OVC060 13/03 A2992 1080 52 1100 060/08 RMK AO2
94908KDBQ DBQ20110411200010204/11/11 20:00:31  5-MIN KDBQ 120200Z AUTO 05009KT 10SM BKN060 13/03 A2992 1080 52 1100 050/09 RMK AO2
94908KDBQ DBQ20110411200510204/11/11 20:05:31  5-MIN KDBQ 120205Z AUTO 05009KT 10SM BKN060 12/03 A2992 1080 54 1000 050/09 RMK AO2
94908KDBQ DBQ20110411201010204/11/11 20:10:31  5-MIN KDBQ 120210Z AUTO 05006KT 10SM BKN060 12/03 A2993 1070 54 1000 050/06 RMK AO2
94908KDBQ DBQ20110411201510204/11/11 20:15:31  5-MIN KDBQ 120215Z AUTO 05007KT 10SM BKN060 12/03 A2993 1070 54 1000 050/07 RMK AO2
94908KDBQ DBQ20110411202010204/11/11 20:20:31  5-MIN KDBQ 120220Z AUTO 06005KT 10SM BKN060 12/03 A2993 1070 54 1000 060/05 RMK AO2
94908KDBQ DBQ20110411202510204/11/11 20:25:31  5-MIN KDBQ 120225Z AUTO 05007KT 10SM BKN060 12/03 A2993 1070 56 1000 050/07 RMK AO2
94908KDBQ DBQ20110411203010204/11/11 20:30:31  5-MIN KDBQ 120230Z AUTO 06005KT 10SM BKN060 12/03 A2994 1060 56 1000 060/05 RMK AO2
94908KDBQ DBQ20110411203510104/11/11 20:35:31  5-MIN KDBQ 120235Z AUTO 06006KT 10SM BKN060 11/03 A2994 1060 58 900 050/06 RMK AO2
94908KDBQ DBQ20110411204010104/11/11 20:40:31  5-MIN KDBQ 120240Z AUTO 05007KT 10SM BKN060 11/03 A2994 1060 58 900 050/07 RMK AO2
94908KDBQ DBQ20110411204510104/11/11 20:45:31  5-MIN KDBQ 120245Z AUTO 05007KT 10SM SCT060 11/03 A2994 1060 58 900 050/07 RMK AO2
94908KDBQ DBQ20110411205012404/11/11 20:50:31  5-MIN KDBQ 120250Z AUTO 05005KT 10SM FEW060 11/03 A2994 1060 61 800 050/05 RMK AO2 SLP142 T01060033 53023
94908KDBQ DBQ20110411205510104/11/11 20:55:31  5-MIN KDBQ 120255Z AUTO 05005KT 10SM FEW060 11/03 A2994 1060 61 800 050/05 RMK AO2
94908KDBQ DBQ20110411210010104/11/11 21:00:31  5-MIN KDBQ 120300Z AUTO 05004KT 10SM FEW060 11/03 A2994 1060 61 800 050/04 RMK AO2
94908KDBQ DBQ20110411210509804/11/11 21:05:31  5-MIN KDBQ 120305Z AUTO 05004KT 10SM CLR 10/03 A2994 1060 63 800 050/04 RMK AO2
94908KDBQ DBQ20110411211009804/11/11 21:10:31  5-MIN KDBQ 120310Z AUTO 05003KT 10SM CLR 10/03 A2994 1060 63 800 050/03 RMK AO2
94908KDBQ DBQ20110411211509804/11/11 21:15:31  5-MIN KDBQ 120315Z AUTO 05004KT 10SM CLR 10/03 A2994 1060 60 700 050/04 RMK AO2
94908KDBQ DBQ20110411212009804/11/11 21:20:31  5-MIN KDBQ 120320Z AUTO 05004KT 10SM CLR 10/03 A2994 1060 60 700 050/04 RMK AO2
94908KDBQ DBQ20110411212509804/11/11 21:25:31  5-MIN KDBQ 120325Z AUTO 06003KT 10SM CLR 10/03 A2995 1050 60 700 060/03 RMK AO2
94908KDBQ DBQ20110411213009804/11/11 21:30:31  5-MIN KDBQ 120330Z AUTO 00000KT 10SM CLR 10/03 A2995 1050 60 700 000/00 RMK AO2
94908KDBQ DBQ20110411213509804/11/11 21:35:31  5-MIN KDBQ 120335Z AUTO 06004KT 10SM CLR 10/03 A2995 1050 60 700 060/04 RMK AO2
94908KDBQ DBQ20110411214009804/11/11 21:40:31  5-MIN KDBQ 120340Z AUTO 06003KT 10SM CLR 09/03 A2995 1050 63 700 060/03 RMK AO2
94908KDBQ DBQ20110411214509804/11/11 21:45:31  5-MIN KDBQ 120345Z AUTO 05003KT 10SM CLR 09/03 A2995 1050 63 700 050/03 RMK AO2
94908KDBQ DBQ20110411215011504/11/11 21:50:31  5-MIN KDBQ 120350Z AUTO 04004KT 10SM CLR 09/03 A2995 1050 65 600 040/04 RMK AO2 SLP145 T00890028
94908KDBQ DBQ20110411215509804/11/11 21:55:31  5-MIN KDBQ 120355Z AUTO 04003KT 10SM CLR 09/03 A2995 1050 63 700 040/03 RMK AO2
94908KDBQ DBQ20110411220009804/11/11 22:00:31  5-MIN KDBQ 120400Z AUTO 04003KT 10SM CLR 09/03 A2995 1050 63 700 040/03 RMK AO2
94908KDBQ DBQ20110411220509804/11/11 22:05:31  5-MIN KDBQ 120405Z AUTO 04003KT 10SM CLR 09/03 A2995 1050 65 600 040/03 RMK AO2
94908KDBQ DBQ20110411221009804/11/11 22:10:31  5-MIN KDBQ 120410Z AUTO 03003KT 10SM CLR 09/03 A2995 1050 63 700 030/03 RMK AO2
94908KDBQ DBQ20110411221509804/11/11 22:15:31  5-MIN KDBQ 120415Z AUTO 02003KT 10SM CLR 09/03 A2995 1050 63 700 020/03 RMK AO2
94908KDBQ DBQ20110411222009804/11/11 22:20:31  5-MIN KDBQ 120420Z AUTO 02003KT 10SM CLR 09/03 A2995 1050 65 600 020/03 RMK AO2
94908KDBQ DBQ20110411222509804/11/11 22:25:31  5-MIN KDBQ 120425Z AUTO 00000KT 10SM CLR 08/02 A2995 1050 65 500 000/00 RMK AO2
94908KDBQ DBQ20110411223009804/11/11 22:30:31  5-MIN KDBQ 120430Z AUTO 04003KT 10SM CLR 08/02 A2995 1050 65 500 030/03 RMK AO2
94908KDBQ DBQ20110411223509804/11/11 22:35:31  5-MIN KDBQ 120435Z AUTO 02003KT 10SM CLR 08/02 A2995 1050 65 500 010/03 RMK AO2
94908KDBQ DBQ20110411224009804/11/11 22:40:31  5-MIN KDBQ 120440Z AUTO 01003KT 10SM CLR 08/03 A2995 1050 68 500 010/03 RMK AO2
94908KDBQ DBQ20110411224509804/11/11 22:45:31  5-MIN KDBQ 120445Z AUTO 02004KT 10SM CLR 08/02 A2995 1050 68 500 010/04 RMK AO2
94908KDBQ DBQ20110411225011504/11/11 22:50:31  5-MIN KDBQ 120450Z AUTO 02004KT 10SM CLR 08/03 A2995 1050 68 500 020/04 RMK AO2 SLP145 T00830028
94908KDBQ DBQ20110411225509804/11/11 22:55:31  5-MIN KDBQ 120455Z AUTO 02004KT 10SM CLR 08/02 A2995 1050 65 500 020/04 RMK AO2
94908KDBQ DBQ20110411230009804/11/11 23:00:31  5-MIN KDBQ 120500Z AUTO 01004KT 10SM CLR 07/02 A2995 1050 70 400 010/04 RMK AO2
94908KDBQ DBQ20110411230509804/11/11 23:05:31  5-MIN KDBQ 120505Z AUTO 02004KT 10SM CLR 08/02 A2995 1050 68 500 020/04 RMK AO2
94908KDBQ DBQ20110411231009804/11/11 23:10:31  5-MIN KDBQ 120510Z AUTO 02003KT 10SM CLR 08/02 A2996 1050 65 500 010/03 RMK AO2
94908KDBQ DBQ20110411231509804/11/11 23:15:31  5-MIN KDBQ 120515Z AUTO 02004KT 10SM CLR 08/02 A2996 1040 68 500 020/04 RMK AO2
94908KDBQ DBQ20110411232009804/11/11 23:20:31  5-MIN KDBQ 120520Z AUTO 02004KT 10SM CLR 08/02 A2996 1040 68 500 020/04 RMK AO2
94908KDBQ DBQ20110411232509804/11/11 23:25:31  5-MIN KDBQ 120525Z AUTO 03005KT 10SM CLR 09/02 A2996 1040 63 600 030/05 RMK AO2
94908KDBQ DBQ20110411233009804/11/11 23:30:31  5-MIN KDBQ 120530Z AUTO 03004KT 10SM CLR 08/02 A2996 1040 65 500 030/04 RMK AO2
94908KDBQ DBQ20110411233509804/11/11 23:35:31  5-MIN KDBQ 120535Z AUTO 04003KT 10SM CLR 08/02 A2997 1040 65 500 040/03 RMK AO2
94908KDBQ DBQ20110411234009804/11/11 23:40:31  5-MIN KDBQ 120540Z AUTO 04005KT 10SM CLR 08/02 A2997 1030 65 500 040/05 RMK AO2
94908KDBQ DBQ20110411234509804/11/11 23:45:31  5-MIN KDBQ 120545Z AUTO 03005KT 10SM CLR 07/02 A2997 1030 70 400 030/05 RMK AO2
94908KDBQ DBQ20110411235014304/11/11 23:50:31  5-MIN KDBQ 120550Z AUTO 03005KT 10SM CLR 07/02 A2997 1030 70 400 030/05 RMK AO2 SLP152 T00720022 10150 20072 401780072 53030
94908KDBQ DBQ20110411235509804/11/11 23:55:31  5-MIN KDBQ 120555Z AUTO 03005KT 10SM CLR 08/03 A2998 1030 68 500 030/05 RMK AO2
94908KDBQ DBQ20110412000009804/12/11 00:00:38  5-MIN KDBQ 120600Z AUTO 03004KT 10SM CLR 08/02 A2998 1030 65 500 030/04 RMK AO2
94908KDBQ DBQ20110412000509804/12/11 00:05:31  5-MIN KDBQ 120605Z AUTO 03004KT 10SM CLR 08/02 A2998 1020 68 400 030/04 RMK AO2
94908KDBQ DBQ20110412001009804/12/11 00:10:31  5-MIN KDBQ 120610Z AUTO 04004KT 10SM CLR 08/02 A2998 1020 68 400 030/04 RMK AO2
94908KDBQ DBQ20110412001509804/12/11 00:15:32  5-MIN KDBQ 120615Z AUTO 03004KT 10SM CLR 08/02 A2998 1020 65 500 030/04 RMK AO2
94908KDBQ DBQ20110412002009804/12/11 00:20:31  5-MIN KDBQ 120620Z AUTO 02004KT 10SM CLR 08/02 A2999 1020 68 400 020/04 RMK AO2
94908KDBQ DBQ20110412002509804/12/11 00:25:31  5-MIN KDBQ 120625Z AUTO 01004KT 10SM CLR 06/02 A2999 1020 73 200 010/04 RMK AO2
94908KDBQ DBQ20110412003009804/12/11 00:30:31  5-MIN KDBQ 120630Z AUTO 02003KT 10SM CLR 06/02 A2999 1010 76 200 010/03 RMK AO2
94908KDBQ DBQ20110412003509804/12/11 00:35:31  5-MIN KDBQ 120635Z AUTO 02004KT 10SM CLR 07/02 A2999 1010 73 300 020/04 RMK AO2
94908KDBQ DBQ20110412004009804/12/11 00:40:31  5-MIN KDBQ 120640Z AUTO 04004KT 10SM CLR 07/02 A2999 1010 73 300 040/04 RMK AO2
94908KDBQ DBQ20110412004509804/12/11 00:45:31  5-MIN KDBQ 120645Z AUTO 03003KT 10SM CLR 07/02 A3000 1010 70 400 030/03 RMK AO2
94908KDBQ DBQ20110412005011504/12/11 00:50:31  5-MIN KDBQ 120650Z AUTO 03004KT 10SM CLR 08/03 A3000 1010 70 400 030/04 RMK AO2 SLP160 T00780028
94908KDBQ DBQ20110412005509804/12/11 00:55:31  5-MIN KDBQ 120655Z AUTO 03003KT 10SM CLR 08/03 A3000 1000 68 500 020/03 RMK AO2
94908KDBQ DBQ20110412010009804/12/11 01:00:31  5-MIN KDBQ 120700Z AUTO 02004KT 10SM CLR 08/02 A3000 1000 65 500 020/04 RMK AO2
94908KDBQ DBQ20110412010509804/12/11 01:05:31  5-MIN KDBQ 120705Z AUTO 03004KT 10SM CLR 07/02 A3000 1000 70 300 030/04 RMK AO2
94908KDBQ DBQ20110412011009804/12/11 01:10:31  5-MIN KDBQ 120710Z AUTO 03004KT 10SM CLR 07/02 A3001 1000 70 300 030/04 RMK AO2
94908KDBQ DBQ20110412011509804/12/11 01:15:31  5-MIN KDBQ 120715Z AUTO 03003KT 10SM CLR 07/02 A3001 1000 70 300 030/03 RMK AO2
94908KDBQ DBQ20110412012009804/12/11 01:20:31  5-MIN KDBQ 120720Z AUTO 02003KT 10SM CLR 08/03 A3001 1000 70 400 020/03 RMK AO2
94908KDBQ DBQ20110412012509704/12/11 01:25:31  5-MIN KDBQ 120725Z AUTO 00000KT 10SM CLR 07/02 A3001 990 70 300 000/00 RMK AO2
94908KDBQ DBQ20110412013009804/12/11 01:30:31  5-MIN KDBQ 120730Z AUTO 00000KT 10SM CLR 07/02 A3001 1000 73 300 000/00 RMK AO2
94908KDBQ DBQ20110412013509704/12/11 01:35:31  5-MIN KDBQ 120735Z AUTO 00000KT 10SM CLR 06/02 A3001 990 79 100 000/00 RMK AO2
94908KDBQ DBQ20110412014009704/12/11 01:40:31  5-MIN KDBQ 120740Z AUTO 03003KT 10SM CLR 05/02 A3001 990 79 100 030/03 RMK AO2
94908KDBQ DBQ20110412014509704/12/11 01:45:31  5-MIN KDBQ 120745Z AUTO 00000KT 10SM CLR 05/02 A3001 990 79 100 000/00 RMK AO2
94908KDBQ DBQ20110412015011404/12/11 01:50:31  5-MIN KDBQ 120750Z AUTO 00000KT 10SM CLR 06/02 A3001 990 76 100 000/00 RMK AO2 SLP167 T00560017
94908KDBQ DBQ20110412015509504/12/11 01:55:31  5-MIN KDBQ 120755Z AUTO 00000KT 10SM CLR 04/01 A3002 990 79 0 000/00 RMK AO2
94908KDBQ DBQ20110412020009504/12/11 02:00:31  5-MIN KDBQ 120800Z AUTO 06003KT 10SM CLR 04/01 A3002 990 82 0 060/03 RMK AO2
94908KDBQ DBQ20110412020509504/12/11 02:05:31  5-MIN KDBQ 120805Z AUTO 00000KT 10SM CLR 04/02 A3002 990 82 0 000/00 RMK AO2
94908KDBQ DBQ20110412021009504/12/11 02:10:31  5-MIN KDBQ 120810Z AUTO 06003KT 10SM CLR 04/02 A3002 990 82 0 060/03 RMK AO2
94908KDBQ DBQ20110412021509704/12/11 02:15:31  5-MIN KDBQ 120815Z AUTO 00000KT 10SM CLR 05/02 A3002 990 79 100 000/00 RMK AO2
94908KDBQ DBQ20110412022009504/12/11 02:20:31  5-MIN KDBQ 120820Z AUTO 05003KT 10SM CLR 04/02 A3002 990 82 0 050/03 RMK AO2
94908KDBQ DBQ20110412022509704/12/11 02:25:31  5-MIN KDBQ 120825Z AUTO 06003KT 10SM CLR 06/02 A3002 990 76 100 060/03 RMK AO2
94908KDBQ DBQ20110412023009704/12/11 02:30:31  5-MIN KDBQ 120830Z AUTO 05003KT 10SM CLR 05/02 A3002 980 79 100 050/03 RMK AO2
94908KDBQ DBQ20110412023509504/12/11 02:35:31  5-MIN KDBQ 120835Z AUTO 04003KT 10SM CLR 04/01 A3002 980 79 0 040/03 RMK AO2
94908KDBQ DBQ20110412024009804/12/11 02:40:31  5-MIN KDBQ 120840Z AUTO 00000KT 10SM CLR 02/00 A3002 980 85 -200 000/00 RMK AO2
94908KDBQ DBQ20110412024509504/12/11 02:45:31  5-MIN KDBQ 120845Z AUTO 03003KT 10SM CLR 05/02 A3003 980 79 0 030/03 RMK AO2
94908KDBQ DBQ20110412025011804/12/11 02:50:31  5-MIN KDBQ 120850Z AUTO 03003KT 10SM CLR 05/02 A3003 980 79 0 030/03 RMK AO2 SLP172 T00500017 53012
94908KDBQ DBQ20110412025509504/12/11 02:55:31  5-MIN KDBQ 120855Z AUTO 03004KT 10SM CLR 04/02 A3003 980 82 0 030/04 RMK AO2
94908KDBQ DBQ20110412030009804/12/11 03:00:31  5-MIN KDBQ 120900Z AUTO 02004KT 10SM CLR 03/02 A3003 980 89 -100 020/04 RMK AO2
94908KDBQ DBQ20110412030509804/12/11 03:05:31  5-MIN KDBQ 120905Z AUTO 02004KT 10SM CLR 03/01 A3003 970 85 -100 020/04 RMK AO2
94908KDBQ DBQ20110412031009804/12/11 03:10:31  5-MIN KDBQ 120910Z AUTO 02004KT 10SM CLR 02/01 A3003 970 89 -300 020/04 RMK AO2
94908KDBQ DBQ20110412031509804/12/11 03:15:31  5-MIN KDBQ 120915Z AUTO 04004KT 10SM CLR 03/01 A3003 980 82 -100 040/04 RMK AO2
94908KDBQ DBQ20110412032009804/12/11 03:20:31  5-MIN KDBQ 120920Z AUTO 03004KT 10SM CLR 03/01 A3003 970 85 -100 030/04 RMK AO2
94908KDBQ DBQ20110412032509804/12/11 03:25:31  5-MIN KDBQ 120925Z AUTO 00000KT 10SM CLR 03/01 A3004 970 85 -200 000/00 RMK AO2
94908KDBQ DBQ20110412033009804/12/11 03:30:31  5-MIN KDBQ 120930Z AUTO 03003KT 10SM CLR 03/01 A3004 970 85 -100 030/03 RMK AO2
94908KDBQ DBQ20110412033509804/12/11 03:35:31  5-MIN KDBQ 120935Z AUTO 00000KT 10SM CLR 03/01 A3004 970 85 -200 000/00 RMK AO2
94908KDBQ DBQ20110412034009804/12/11 03:40:31  5-MIN KDBQ 120940Z AUTO 00000KT 10SM CLR 04/01 A3004 970 82 -100 000/00 RMK AO2
94908KDBQ DBQ20110412034509504/12/11 03:45:31  5-MIN KDBQ 120945Z AUTO 00000KT 10SM CLR 04/01 A3004 970 79 0 000/00 RMK AO2
94908KDBQ DBQ20110412035011204/12/11 03:50:31  5-MIN KDBQ 120950Z AUTO 00000KT 10SM CLR 04/01 A3005 960 79 0 000/00 RMK AO2 SLP178 T00440011
94908KDBQ DBQ20110412035509804/12/11 03:55:31  5-MIN KDBQ 120955Z AUTO 01003KT 10SM CLR 04/01 A3005 960 82 -100 010/03 RMK AO2
94908KDBQ DBQ20110412040009804/12/11 04:00:31  5-MIN KDBQ 121000Z AUTO 02003KT 10SM CLR 03/01 A3005 960 85 -100 020/03 RMK AO2
94908KDBQ DBQ20110412040509804/12/11 04:05:31  5-MIN KDBQ 121005Z AUTO 00000KT 10SM CLR 03/01 A3005 960 82 -100 000/00 RMK AO2
94908KDBQ DBQ20110412041009804/12/11 04:10:31  5-MIN KDBQ 121010Z AUTO 00000KT 10SM CLR 03/01 A3005 960 85 -100 000/00 RMK AO2
94908KDBQ DBQ20110412041509804/12/11 04:15:31  5-MIN KDBQ 121015Z AUTO 00000KT 10SM CLR 03/01 A3005 950 89 -200 000/00 RMK AO2
94908KDBQ DBQ20110412042009804/12/11 04:20:31  5-MIN KDBQ 121020Z AUTO 00000KT 10SM CLR 03/01 A3006 950 89 -200 000/00 RMK AO2
94908KDBQ DBQ20110412042509804/12/11 04:25:31  5-MIN KDBQ 121025Z AUTO 00000KT 10SM CLR 04/02 A3006 950 85 -100 000/00 RMK AO2
94908KDBQ DBQ20110412043009804/12/11 04:30:31  5-MIN KDBQ 121030Z AUTO 04004KT 10SM CLR 04/02 A3006 950 85 -100 040/04 RMK AO2
94908KDBQ DBQ20110412043509804/12/11 04:35:31  5-MIN KDBQ 121035Z AUTO 05005KT 10SM CLR 03/01 A3006 950 85 -100 050/05 RMK AO2
94908KDBQ DBQ20110412044009804/12/11 04:40:31  5-MIN KDBQ 121040Z AUTO 04005KT 10SM CLR 04/02 A3006 950 85 -100 040/05 RMK AO2
94908KDBQ DBQ20110412044509304/12/11 04:45:31  5-MIN KDBQ 121045Z 05005KT 10SM CLR 03/02 A3006 950 89 -100 050/05 RMK AO2
94908KDBQ DBQ20110412045011004/12/11 04:50:31  5-MIN KDBQ 121050Z 04005KT 10SM CLR 04/02 A3006 950 85 -100 040/05 RMK AO2 SLP184 T00390017
94908KDBQ DBQ20110412045509304/12/11 04:55:31  5-MIN KDBQ 121055Z 04005KT 10SM CLR 03/02 A3007 940 89 -200 040/05 RMK AO2
94908KDBQ DBQ20110412050009304/12/11 05:00:31  5-MIN KDBQ 121100Z 04005KT 10SM CLR 03/01 A3007 940 89 -200 030/05 RMK AO2
94908KDBQ DBQ20110412050509304/12/11 05:05:31  5-MIN KDBQ 121105Z 04005KT 10SM CLR 03/01 A3007 940 85 -200 040/05 RMK AO2
94908KDBQ DBQ20110412051009304/12/11 05:10:31  5-MIN KDBQ 121110Z 04004KT 10SM CLR 04/02 A3008 940 85 -100 040/04 RMK AO2
94908KDBQ DBQ20110412051509304/12/11 05:15:31  5-MIN KDBQ 121115Z 03004KT 10SM CLR 03/02 A3008 930 92 -200 030/04 RMK AO2
94908KDBQ DBQ20110412052009304/12/11 05:20:31  5-MIN KDBQ 121120Z 03004KT 10SM CLR 02/01 A3008 930 92 -300 030/04 RMK AO2
94908KDBQ DBQ20110412052509304/12/11 05:25:31  5-MIN KDBQ 121125Z 04004KT 10SM CLR 03/01 A3008 930 89 -200 040/04 RMK AO2
94908KDBQ DBQ20110412053009304/12/11 05:30:31  5-MIN KDBQ 121130Z 05004KT 10SM CLR 03/02 A3008 930 89 -200 050/04 RMK AO2
94908KDBQ DBQ20110412053509304/12/11 05:35:31  5-MIN KDBQ 121135Z 06004KT 10SM CLR 03/02 A3007 940 89 -200 060/04 RMK AO2
94908KDBQ DBQ20110412054009304/12/11 05:40:31  5-MIN KDBQ 121140Z 06004KT 10SM CLR 03/01 A3008 930 89 -200 060/04 RMK AO2
94908KDBQ DBQ20110412054509304/12/11 05:45:31  5-MIN KDBQ 121145Z 05003KT 10SM CLR 04/02 A3008 930 85 -100 050/03 RMK AO2
94908KDBQ DBQ20110412055012804/12/11 05:50:31  5-MIN KDBQ 121150Z 00000KT 10SM CLR 04/02 A3009 930 85 -100 000/00 RMK AO2 SLP192 T00390017 10089 20022 51018
94908KDBQ DBQ20110412055509304/12/11 05:55:31  5-MIN KDBQ 121155Z 00000KT 10SM CLR 04/02 A3009 930 89 -100 000/00 RMK AO2
94908KDBQ DBQ20110412060009004/12/11 06:00:31  5-MIN KDBQ 121200Z 00000KT 10SM CLR 05/02 A3009 920 82 0 000/00 RMK AO2
94908KDBQ DBQ20110412060509004/12/11 06:05:31  5-MIN KDBQ 121205Z 00000KT 10SM CLR 04/02 A3009 930 85 0 000/00 RMK AO2
94908KDBQ DBQ20110412061009004/12/11 06:10:31  5-MIN KDBQ 121210Z 10003KT 10SM CLR 04/02 A3008 930 85 0 100/03 RMK AO2
94908KDBQ DBQ20110412061509004/12/11 06:15:31  5-MIN KDBQ 121215Z 10003KT 10SM CLR 04/02 A3008 930 85 0 100/03 RMK AO2
94908KDBQ DBQ20110412062009004/12/11 06:20:31  5-MIN KDBQ 121220Z 10004KT 10SM CLR 05/02 A3008 930 82 0 100/04 RMK AO2
94908KDBQ DBQ20110412062509004/12/11 06:25:31  5-MIN KDBQ 121225Z 11003KT 10SM CLR 05/03 A3008 930 85 0 110/03 RMK AO2
94908KDBQ DBQ20110412063009004/12/11 06:30:31  5-MIN KDBQ 121230Z 11003KT 10SM CLR 06/03 A3008 930 82 0 110/03 RMK AO2
94908KDBQ DBQ20110412063509204/12/11 06:35:31  5-MIN KDBQ 121235Z 11004KT 10SM CLR 06/03 A3008 930 82 100 110/04 RMK AO2
94908KDBQ DBQ20110412064009204/12/11 06:40:31  5-MIN KDBQ 121240Z 12004KT 10SM CLR 06/03 A3009 930 82 100 120/04 RMK AO2
94908KDBQ DBQ20110412064509204/12/11 06:45:31  5-MIN KDBQ 121245Z 12005KT 10SM CLR 06/03 A3009 920 82 100 120/05 RMK AO2
94908KDBQ DBQ20110412065010904/12/11 06:50:31  5-MIN KDBQ 121250Z 12004KT 10SM CLR 07/03 A3009 920 79 200 110/04 RMK AO2 SLP193 T00670033
94908KDBQ DBQ20110412065509204/12/11 06:55:31  5-MIN KDBQ 121255Z 13004KT 10SM CLR 07/04 A3009 920 82 200 120/04 RMK AO2
94908KDBQ DBQ20110412070009204/12/11 07:00:31  5-MIN KDBQ 121300Z 12003KT 10SM CLR 07/03 A3009 920 79 200 120/03 RMK AO2
94908KDBQ DBQ20110412070509204/12/11 07:05:31  5-MIN KDBQ 121305Z 13004KT 10SM CLR 07/03 A3010 910 79 200 130/04 RMK AO2
94908KDBQ DBQ20110412071009204/12/11 07:10:31  5-MIN KDBQ 121310Z VRB05KT 10SM CLR 07/03 A3010 910 76 200 VRB/05 RMK AO2
94908KDBQ DBQ20110412071509204/12/11 07:15:31  5-MIN KDBQ 121315Z 12005KT 10SM CLR 07/03 A3010 910 73 200 120/05 RMK AO2
94908KDBQ DBQ20110412072009204/12/11 07:20:31  5-MIN KDBQ 121320Z 11007KT 10SM CLR 07/03 A3010 910 73 200 110/07 RMK AO2
94908KDBQ DBQ20110412072509204/12/11 07:25:31  5-MIN KDBQ 121325Z 12006KT 10SM CLR 08/02 A3010 910 68 300 120/06 RMK AO2
94908KDBQ DBQ20110412073009204/12/11 07:30:31  5-MIN KDBQ 121330Z 13006KT 10SM CLR 08/02 A3010 910 65 300 130/06 RMK AO2
94908KDBQ DBQ20110412073509204/12/11 07:35:31  5-MIN KDBQ 121335Z 13007KT 10SM CLR 08/02 A3011 900 65 300 120/07 RMK AO2
94908KDBQ DBQ20110412074009204/12/11 07:40:31  5-MIN KDBQ 121340Z 11006KT 10SM CLR 08/02 A3011 900 65 400 110/06 RMK AO2
94908KDBQ DBQ20110412074509204/12/11 07:45:31  5-MIN KDBQ 121345Z 10006KT 10SM CLR 08/02 A3011 900 65 400 100/06 RMK AO2
94908KDBQ DBQ20110412075010904/12/11 07:50:31  5-MIN KDBQ 121350Z 10006KT 10SM CLR 08/02 A3012 900 63 400 100/06 RMK AO2 SLP201 T00830017
94908KDBQ DBQ20110412075509204/12/11 07:55:31  5-MIN KDBQ 121355Z 11006KT 10SM CLR 08/02 A3012 900 63 300 110/06 RMK AO2
94908KDBQ DBQ20110412080009204/12/11 08:00:31  5-MIN KDBQ 121400Z 11006KT 10SM CLR 08/02 A3012 900 63 300 110/06 RMK AO2
94908KDBQ DBQ20110412080509204/12/11 08:05:31  5-MIN KDBQ 121405Z 10006KT 10SM CLR 09/01 A3012 900 58 400 100/06 RMK AO2
94908KDBQ DBQ20110412081009204/12/11 08:10:31  5-MIN KDBQ 121410Z 10005KT 10SM CLR 09/01 A3012 890 58 400 100/05 RMK AO2
94908KDBQ DBQ20110412081509204/12/11 08:15:31  5-MIN KDBQ 121415Z 13004KT 10SM CLR 09/01 A3012 890 58 400 130/04 RMK AO2
94908KDBQ DBQ20110412082009204/12/11 08:20:31  5-MIN KDBQ 121420Z 09006KT 10SM CLR 09/01 A3013 890 56 500 090/06 RMK AO2
94908KDBQ DBQ20110412082509204/12/11 08:25:31  5-MIN KDBQ 121425Z 09005KT 10SM CLR 09/01 A3013 890 56 500 090/05 RMK AO2
94908KDBQ DBQ20110412083009204/12/11 08:30:31  5-MIN KDBQ 121430Z 10005KT 10SM CLR 09/01 A3013 880 56 500 100/05 RMK AO2
94908KDBQ DBQ20110412083509204/12/11 08:35:31  5-MIN KDBQ 121435Z 10003KT 10SM CLR 09/01 A3013 880 53 500 100/03 RMK AO2
94908KDBQ DBQ20110412084009204/12/11 08:40:31  5-MIN KDBQ 121440Z 11005KT 10SM CLR 10/01 A3013 880 54 500 110/05 RMK AO2
94908KDBQ DBQ20110412084509204/12/11 08:45:31  5-MIN KDBQ 121445Z 11005KT 10SM CLR 10/01 A3014 880 54 500 110/05 RMK AO2
94908KDBQ DBQ20110412085011504/12/11 08:50:31  5-MIN KDBQ 121450Z 11004KT 10SM CLR 10/01 A3014 880 54 500 110/04 RMK AO2 SLP209 T01000011 52019
94908KDBQ DBQ20110412085509204/12/11 08:55:31  5-MIN KDBQ 121455Z VRB04KT 10SM CLR 10/01 A3014 880 54 500 VRB/04 RMK AO2
94908KDBQ DBQ20110412090009204/12/11 09:00:31  5-MIN KDBQ 121500Z 08004KT 10SM CLR 10/01 A3014 880 54 500 080/04 RMK AO2
94908KDBQ DBQ20110412090509204/12/11 09:05:31  5-MIN KDBQ 121505Z 07003KT 10SM CLR 11/02 A3014 870 54 600 070/03 RMK AO2
94908KDBQ DBQ20110412091009204/12/11 09:10:31  5-MIN KDBQ 121510Z 08003KT 10SM CLR 11/02 A3014 870 56 600 080/03 RMK AO2
94908KDBQ DBQ20110412091509204/12/11 09:15:31  5-MIN KDBQ 121515Z VRB04KT 10SM CLR 11/02 A3014 870 56 600 VRB/04 RMK AO2
94908KDBQ DBQ20110412092009204/12/11 09:20:31  5-MIN KDBQ 121520Z VRB03KT 10SM CLR 11/02 A3014 880 56 600 VRB/03 RMK AO2
94908KDBQ DBQ20110412092509204/12/11 09:25:31  5-MIN KDBQ 121525Z VRB04KT 10SM CLR 11/02 A3014 880 56 600 VRB/04 RMK AO2
94908KDBQ DBQ20110412093009204/12/11 09:30:31  5-MIN KDBQ 121530Z 00000KT 10SM CLR 11/02 A3014 870 56 600 000/00 RMK AO2
94908KDBQ DBQ20110412093509204/12/11 09:35:31  5-MIN KDBQ 121535Z 00000KT 10SM CLR 11/02 A3014 870 54 700 000/00 RMK AO2
94908KDBQ DBQ20110412094009204/12/11 09:40:31  5-MIN KDBQ 121540Z 00000KT 10SM CLR 11/02 A3014 880 54 700 000/00 RMK AO2
94908KDBQ DBQ20110412094509204/12/11 09:45:31  5-MIN KDBQ 121545Z 00000KT 10SM CLR 11/02 A3014 880 54 700 000/00 RMK AO2
94908KDBQ DBQ20110412095010904/12/11 09:50:31  5-MIN KDBQ 121550Z VRB03KT 10SM CLR 12/02 A3014 880 52 700 VRB/03 RMK AO2 SLP209 T01170022
94908KDBQ DBQ20110412095509204/12/11 09:55:31  5-MIN KDBQ 121555Z 00000KT 10SM CLR 12/02 A3014 880 52 700 000/00 RMK AO2
94908KDBQ DBQ20110412100009204/12/11 10:00:31  5-MIN KDBQ 121600Z 19003KT 10SM CLR 12/02 A3014 880 52 700 190/03 RMK AO2
94908KDBQ DBQ20110412100509204/12/11 10:05:31  5-MIN KDBQ 121605Z 00000KT 10SM CLR 12/02 A3014 880 52 700 000/00 RMK AO2
94908KDBQ DBQ20110412101009204/12/11 10:10:31  5-MIN KDBQ 121610Z VRB03KT 10SM CLR 12/02 A3014 880 50 800 VRB/03 RMK AO2
94908KDBQ DBQ20110412101509204/12/11 10:15:31  5-MIN KDBQ 121615Z 00000KT 10SM CLR 12/02 A3014 880 50 800 000/00 RMK AO2
94908KDBQ DBQ20110412102009204/12/11 10:20:31  5-MIN KDBQ 121620Z 10003KT 10SM CLR 13/02 A3014 870 48 900 090/03 RMK AO2
94908KDBQ DBQ20110412102509204/12/11 10:25:31  5-MIN KDBQ 121625Z 00000KT 10SM CLR 12/02 A3014 880 48 800 000/00 RMK AO2
94908KDBQ DBQ20110412103009204/12/11 10:30:31  5-MIN KDBQ 121630Z VRB03KT 10SM CLR 13/02 A3014 880 46 900 VRB/03 RMK AO2
94908KDBQ DBQ20110412103509204/12/11 10:35:31  5-MIN KDBQ 121635Z VRB03KT 10SM CLR 13/02 A3014 880 48 900 VRB/03 RMK AO2
94908KDBQ DBQ20110412104009204/12/11 10:40:31  5-MIN KDBQ 121640Z 00000KT 10SM CLR 13/02 A3013 880 48 900 000/00 RMK AO2
94908KDBQ DBQ20110412104509204/12/11 10:45:31  5-MIN KDBQ 121645Z 10003KT 10SM CLR 13/02 A3013 880 46 900 100/03 RMK AO2
94908KDBQ DBQ20110412105010904/12/11 10:50:31  5-MIN KDBQ 121650Z 00000KT 10SM CLR 13/02 A3013 890 46 900 000/00 RMK AO2 SLP206 T01330022
94908KDBQ DBQ20110412105509204/12/11 10:55:31  5-MIN KDBQ 121655Z 00000KT 10SM CLR 13/02 A3013 890 46 900 000/00 RMK AO2
94908KDBQ DBQ20110412110009304/12/11 11:00:31  5-MIN KDBQ 121700Z 00000KT 10SM CLR 14/02 A3013 890 45 1000 000/00 RMK AO2
94908KDBQ DBQ20110412110509304/12/11 11:05:31  5-MIN KDBQ 121705Z VRB03KT 10SM CLR 14/02 A3013 890 45 1000 VRB/03 RMK AO2
94908KDBQ DBQ20110412111009204/12/11 11:10:31  5-MIN KDBQ 121710Z 00000KT 10SM CLR 13/02 A3013 890 45 900 000/00 RMK AO2
94908KDBQ DBQ20110412111509304/12/11 11:15:31  5-MIN KDBQ 121715Z 00000KT 10SM CLR 14/02 A3013 890 43 1000 000/00 RMK AO2
94908KDBQ DBQ20110412112009304/12/11 11:20:31  5-MIN KDBQ 121720Z VRB04KT 10SM CLR 14/02 A3013 890 45 1000 VRB/04 RMK AO2
94908KDBQ DBQ20110412112509304/12/11 11:25:31  5-MIN KDBQ 121725Z 17005KT 10SM CLR 14/02 A3013 890 45 1000 170/05 RMK AO2
94908KDBQ DBQ20110412113009304/12/11 11:30:31  5-MIN KDBQ 121730Z 00000KT 10SM CLR 14/02 A3013 890 43 1000 000/00 RMK AO2
94908KDBQ DBQ20110412113509304/12/11 11:35:31  5-MIN KDBQ 121735Z 18006KT 10SM CLR 14/02 A3013 890 45 1000 180/06 RMK AO2
94908KDBQ DBQ20110412114009304/12/11 11:40:31  5-MIN KDBQ 121740Z 16005KT 10SM CLR 14/02 A3013 890 45 1000 160/05 RMK AO2
94908KDBQ DBQ20110412114509304/12/11 11:45:31  5-MIN KDBQ 121745Z 24004KT 10SM CLR 14/02 A3013 890 45 1000 240/04 RMK AO2
94908KDBQ DBQ20110412115012804/12/11 11:50:31  5-MIN KDBQ 121750Z 25003KT 10SM CLR 14/02 A3013 890 45 1000 250/03 RMK AO2 SLP205 T01390022 10144 20039 53018
94908KDBQ DBQ20110412115509304/12/11 11:55:31  5-MIN KDBQ 121755Z VRB03KT 10SM CLR 14/02 A3013 890 43 1100 VRB/03 RMK AO2
94908KDBQ DBQ20110412120009304/12/11 12:00:31  5-MIN KDBQ 121800Z 20005KT 10SM CLR 14/03 A3013 890 45 1100 200/05 RMK AO2
94908KDBQ DBQ20110412120509304/12/11 12:05:31  5-MIN KDBQ 121805Z 19004KT 10SM CLR 14/02 A3013 890 43 1100 190/04 RMK AO2
94908KDBQ DBQ20110412121009304/12/11 12:10:31  5-MIN KDBQ 121810Z 00000KT 10SM CLR 14/02 A3012 890 43 1100 000/00 RMK AO2
94908KDBQ DBQ20110412121509304/12/11 12:15:31  5-MIN KDBQ 121815Z 00000KT 10SM CLR 15/02 A3012 890 42 1100 000/00 RMK AO2
94908KDBQ DBQ20110412122009304/12/11 12:20:31  5-MIN KDBQ 121820Z 00000KT 10SM CLR 15/02 A3012 900 42 1100 000/00 RMK AO2
94908KDBQ DBQ20110412122509304/12/11 12:25:31  5-MIN KDBQ 121825Z 00000KT 10SM CLR 15/02 A3012 900 42 1100 000/00 RMK AO2
94908KDBQ DBQ20110412123009304/12/11 12:30:31  5-MIN KDBQ 121830Z 00000KT 10SM CLR 15/02 A3012 900 40 1100 000/00 RMK AO2
94908KDBQ DBQ20110412123509304/12/11 12:35:31  5-MIN KDBQ 121835Z 00000KT 10SM CLR 15/02 A3012 900 40 1100 000/00 RMK AO2
94908KDBQ DBQ20110412124009304/12/11 12:40:31  5-MIN KDBQ 121840Z VRB04KT 10SM CLR 16/02 A3012 900 40 1200 VRB/04 RMK AO2
94908KDBQ DBQ20110412124509304/12/11 12:45:31  5-MIN KDBQ 121845Z 24004KT 10SM CLR 15/02 A3012 900 40 1100 240/04 RMK AO2
94908KDBQ DBQ20110412125011004/12/11 12:50:31  5-MIN KDBQ 121850Z VRB03KT 10SM CLR 15/02 A3011 900 40 1100 VRB/03 RMK AO2 SLP200 T01500017
94908KDBQ DBQ20110412125509304/12/11 12:55:31  5-MIN KDBQ 121855Z 30003KT 10SM CLR 16/02 A3011 900 40 1200 300/03 RMK AO2
94908KDBQ DBQ20110412130009304/12/11 13:00:31  5-MIN KDBQ 121900Z 00000KT 10SM CLR 16/02 A3011 900 39 1200 000/00 RMK AO2
94908KDBQ DBQ20110412130509304/12/11 13:05:31  5-MIN KDBQ 121905Z 00000KT 10SM CLR 16/01 A3011 900 37 1200 000/00 RMK AO2
94908KDBQ DBQ20110412131009304/12/11 13:10:31  5-MIN KDBQ 121910Z 00000KT 10SM CLR 16/01 A3011 910 37 1200 000/00 RMK AO2
94908KDBQ DBQ20110412131509304/12/11 13:15:31  5-MIN KDBQ 121915Z VRB03KT 10SM CLR 16/02 A3010 910 37 1300 VRB/03 RMK AO2
94908KDBQ DBQ20110412132009304/12/11 13:20:31  5-MIN KDBQ 121920Z VRB06KT 10SM CLR 17/02 A3010 910 37 1400 VRB/06 RMK AO2
94908KDBQ DBQ20110412132509304/12/11 13:25:31  5-MIN KDBQ 121925Z VRB03KT 10SM CLR 16/02 A3010 910 37 1300 VRB/03 RMK AO2
94908KDBQ DBQ20110412133009304/12/11 13:30:31  5-MIN KDBQ 121930Z 02004KT 10SM CLR 16/02 A3010 910 37 1300 010/04 RMK AO2
94908KDBQ DBQ20110412133509304/12/11 13:35:31  5-MIN KDBQ 121935Z VRB04KT 10SM CLR 16/01 A3010 920 36 1200 VRB/04 RMK AO2
94908KDBQ DBQ20110412134009304/12/11 13:40:31  5-MIN KDBQ 121940Z 01005KT 10SM CLR 16/01 A3009 920 36 1300 360/05 RMK AO2
94908KDBQ DBQ20110412134509304/12/11 13:45:31  5-MIN KDBQ 121945Z 33004KT 10SM CLR 16/01 A3009 920 36 1300 330/04 RMK AO2
94908KDBQ DBQ20110412135011004/12/11 13:50:31  5-MIN KDBQ 121950Z VRB03KT 10SM CLR 16/01 A3009 920 36 1300 VRB/03 RMK AO2 SLP193 T01610011
94908KDBQ DBQ20110412135509304/12/11 13:55:31  5-MIN KDBQ 121955Z VRB03KT 10SM CLR 16/01 A3009 920 36 1300 VRB/03 RMK AO2
94908KDBQ DBQ20110412140009304/12/11 14:00:31  5-MIN KDBQ 122000Z 00000KT 10SM CLR 16/01 A3009 920 36 1300 000/00 RMK AO2
94908KDBQ DBQ20110412140509304/12/11 14:05:31  5-MIN KDBQ 122005Z 28003KT 10SM CLR 16/00 A3009 920 33 1300 280/03 RMK AO2
94908KDBQ DBQ20110412141009304/12/11 14:10:31  5-MIN KDBQ 122010Z 08004KT 10SM CLR 17/01 A3009 920 33 1400 080/04 RMK AO2
94908KDBQ DBQ20110412141509304/12/11 14:15:31  5-MIN KDBQ 122015Z 00000KT 10SM CLR 17/01 A3009 920 34 1400 000/00 RMK AO2
94908KDBQ DBQ20110412142009304/12/11 14:20:31  5-MIN KDBQ 122020Z 00000KT 10SM CLR 17/02 A3009 920 36 1400 000/00 RMK AO2
94908KDBQ DBQ20110412142509304/12/11 14:25:31  5-MIN KDBQ 122025Z 26004KT 10SM CLR 17/02 A3009 920 36 1400 260/04 RMK AO2
94908KDBQ DBQ20110412143009304/12/11 14:30:31  5-MIN KDBQ 122030Z 22004KT 10SM CLR 16/01 A3009 920 36 1300 220/04 RMK AO2
94908KDBQ DBQ20110412143509304/12/11 14:35:31  5-MIN KDBQ 122035Z 18003KT 10SM CLR 16/01 A3009 920 36 1300 180/03 RMK AO2
94908KDBQ DBQ20110412144009304/12/11 14:40:31  5-MIN KDBQ 122040Z VRB04KT 10SM CLR 16/01 A3009 920 36 1300 VRB/04 RMK AO2
94908KDBQ DBQ20110412144509304/12/11 14:45:31  5-MIN KDBQ 122045Z 00000KT 10SM CLR 16/01 A3009 920 34 1300 000/00 RMK AO2
94908KDBQ DBQ20110412145011604/12/11 14:50:31  5-MIN KDBQ 122050Z 29005KT 10SM CLR 17/02 A3009 920 36 1400 290/05 RMK AO2 SLP192 T01670017 55004
94908KDBQ DBQ20110412145509304/12/11 14:55:31  5-MIN KDBQ 122055Z 00000KT 10SM CLR 17/01 A3009 930 34 1400 000/00 RMK AO2
94908KDBQ DBQ20110412150009304/12/11 15:00:31  5-MIN KDBQ 122100Z VRB03KT 10SM CLR 17/02 A3008 930 35 1400 VRB/03 RMK AO2
94908KDBQ DBQ20110412150509304/12/11 15:05:31  5-MIN KDBQ 122105Z 00000KT 10SM CLR 17/01 A3008 930 34 1400 000/00 RMK AO2
94908KDBQ DBQ20110412151009304/12/11 15:10:31  5-MIN KDBQ 122110Z VRB04KT 10SM CLR 17/02 A3008 930 36 1400 VRB/04 RMK AO2
94908KDBQ DBQ20110412151509304/12/11 15:15:31  5-MIN KDBQ 122115Z 31004KT 10SM CLR 17/02 A3008 930 36 1400 310/04 RMK AO2
94908KDBQ DBQ20110412152009304/12/11 15:20:31  5-MIN KDBQ 122120Z VRB03KT 10SM CLR 16/01 A3008 930 36 1300 VRB/03 RMK AO2
94908KDBQ DBQ20110412152509304/12/11 15:25:31  5-MIN KDBQ 122125Z 00000KT 10SM CLR 16/01 A3008 930 34 1300 000/00 RMK AO2
94908KDBQ DBQ20110412153009304/12/11 15:30:31  5-MIN KDBQ 122130Z 00000KT 10SM CLR 17/01 A3008 940 33 1500 000/00 RMK AO2
94908KDBQ DBQ20110412153509304/12/11 15:35:31  5-MIN KDBQ 122135Z 26003KT 10SM CLR 17/02 A3007 940 36 1400 260/03 RMK AO2
94908KDBQ DBQ20110412154009304/12/11 15:40:31  5-MIN KDBQ 122140Z 23003KT 10SM CLR 17/02 A3007 940 36 1400 230/03 RMK AO2
94908KDBQ DBQ20110412154509304/12/11 15:45:31  5-MIN KDBQ 122145Z 00000KT 10SM CLR 16/01 A3007 940 36 1300 000/00 RMK AO2
94908KDBQ DBQ20110422003511604/22/11 00:35:31  5-MIN KDBQ 220635Z AUTO 10014KT 7SM FEW043 SCT050 OVC065 04/03 A3005 960 92 -100 100/14 RMK AO2 $
94908KDBQ DBQ20110422004011604/22/11 00:40:31  5-MIN KDBQ 220640Z AUTO 10011KT 7SM SCT013 BKN050 OVC065 04/03 A3005 960 92 -100 100/11 RMK AO2 $
94908KDBQ DBQ20110422004511604/22/11 00:45:31  5-MIN KDBQ 220645Z AUTO 10009KT 7SM SCT013 BKN045 OVC065 04/03 A3004 960 92 -100 100/09 RMK AO2 $
94908KDBQ DBQ20110422005012304/22/11 00:50:31  5-MIN KDBQ 220650Z AUTO 10012KT 7SM FEW013 OVC065 04/03 A3004 970 92 0 100/12 RMK AO2 SLP178 T00390028 $
94908KDBQ DBQ20110422005510604/22/11 00:55:31  5-MIN KDBQ 220655Z AUTO 10011KT 7SM FEW013 OVC065 04/03 A3003 970 92 0 100/11 RMK AO2 $
94908KDBQ DBQ20110422010010604/22/11 01:00:31  5-MIN KDBQ 220700Z AUTO 10011KT 7SM FEW013 OVC065 04/03 A3003 970 92 0 100/11 RMK AO2 $
94908KDBQ DBQ20110422010510604/22/11 01:05:31  5-MIN KDBQ 220705Z AUTO 10011KT 7SM FEW013 OVC065 04/03 A3003 980 92 0 100/11 RMK AO2 $
94908KDBQ DBQ20110422011011304/22/11 01:10:31  5-MIN KDBQ 220710Z AUTO 11012KT 7SM FEW013 BKN060 OVC070 04/03 A3003 980 92 0 110/12 RMK AO2 $
94908KDBQ DBQ20110422011510604/22/11 01:15:31  5-MIN KDBQ 220715Z AUTO 10012KT 7SM BKN060 OVC070 04/03 A3002 980 92 0 100/12 RMK AO2 $
94908KDBQ DBQ20110422012009904/22/11 01:20:31  5-MIN KDBQ 220720Z AUTO 10010KT 7SM OVC065 04/03 A3002 980 92 0 100/10 RMK AO2 $
94908KDBQ DBQ20110422012510604/22/11 01:25:31  5-MIN KDBQ 220725Z AUTO 10011KT 7SM FEW011 OVC065 04/03 A3002 990 92 0 100/11 RMK AO2 $
94908KDBQ DBQ20110422013010604/22/11 01:30:31  5-MIN KDBQ 220730Z AUTO 10011KT 7SM FEW011 OVC065 04/03 A3002 990 92 0 100/11 RMK AO2 $
94908KDBQ DBQ20110422013510604/22/11 01:35:31  5-MIN KDBQ 220735Z AUTO 11009KT 8SM SCT011 OVC065 04/03 A3002 990 89 0 100/09 RMK AO2 $
94908KDBQ DBQ20110422014010604/22/11 01:40:31  5-MIN KDBQ 220740Z AUTO 11010KT 8SM BKN011 OVC065 04/03 A3001 990 89 0 110/10 RMK AO2 $
94908KDBQ DBQ20110422014510604/22/11 01:45:31  5-MIN KDBQ 220745Z AUTO 11011KT 7SM BKN011 OVC070 04/03 A3001 990 89 0 110/11 RMK AO2 $
94908KDBQ DBQ20110422015012404/22/11 01:50:31  5-MIN KDBQ 220750Z AUTO 11010KT 7SM BKN011 OVC065 04/03 A3001 1000 89 0 110/10 RMK AO2 SLP168 T00440028 $
94908KDBQ DBQ20110422015510004/22/11 01:55:31  5-MIN KDBQ 220755Z AUTO 11010KT 7SM OVC011 04/03 A3001 1000 89 0 110/10 RMK AO2 $
94908KDBQ DBQ20110422020010004/22/11 02:00:31  5-MIN KDBQ 220800Z AUTO 11010KT 7SM OVC011 04/03 A3001 1000 89 0 110/10 RMK AO2 $
94908KDBQ DBQ20110422020510004/22/11 02:05:31  5-MIN KDBQ 220805Z AUTO 11009KT 7SM OVC009 04/03 A3000 1000 89 0 110/09 RMK AO2 $
94908KDBQ DBQ20110422021010004/22/11 02:10:31  5-MIN KDBQ 220810Z AUTO 10011KT 7SM OVC009 04/03 A3000 1000 89 0 100/11 RMK AO2 $
94908KDBQ DBQ20110422021510004/22/11 02:15:31  5-MIN KDBQ 220815Z AUTO 11010KT 7SM OVC009 04/03 A3000 1000 89 0 110/10 RMK AO2 $
94908KDBQ DBQ20110422022010004/22/11 02:20:31  5-MIN KDBQ 220820Z AUTO 11007KT 7SM OVC009 04/03 A3000 1010 89 0 100/07 RMK AO2 $
94908KDBQ DBQ20110422022510304/22/11 02:25:31  5-MIN KDBQ 220825Z AUTO 11008KT 6SM BR OVC009 04/03 A3000 1010 89 0 100/08 RMK AO2 $
94908KDBQ DBQ20110422023010304/22/11 02:30:31  5-MIN KDBQ 220830Z AUTO 10010KT 6SM BR OVC009 04/03 A3000 1010 89 0 100/10 RMK AO2 $
94908KDBQ DBQ20110422023510304/22/11 02:35:31  5-MIN KDBQ 220835Z AUTO 10010KT 5SM BR OVC009 04/03 A2999 1010 92 0 100/10 RMK AO2 $
94908KDBQ DBQ20110422024010304/22/11 02:40:31  5-MIN KDBQ 220840Z AUTO 10009KT 4SM BR OVC009 04/03 A2999 1010 92 0 100/09 RMK AO2 $
94908KDBQ DBQ20110422024510304/22/11 02:45:31  5-MIN KDBQ 220845Z AUTO 11009KT 5SM BR OVC009 04/03 A2999 1010 92 0 110/09 RMK AO2 $
94908KDBQ DBQ20110422025012604/22/11 02:50:31  5-MIN KDBQ 220850Z AUTO 10010KT 5SM BR OVC007 04/03 A2998 1020 92 0 100/10 RMK AO2 SLP160 T00440033 58020 $
94908KDBQ DBQ20110422025510304/22/11 02:55:31  5-MIN KDBQ 220855Z AUTO 10009KT 6SM BR OVC007 04/03 A2998 1020 92 0 100/09 RMK AO2 $
94908KDBQ DBQ20110422030010304/22/11 03:00:31  5-MIN KDBQ 220900Z AUTO 10009KT 6SM BR OVC007 04/03 A2998 1020 92 0 100/09 RMK AO2 $
94908KDBQ DBQ20110422030510304/22/11 03:05:31  5-MIN KDBQ 220905Z AUTO 10008KT 5SM BR OVC007 04/03 A2998 1020 92 0 100/08 RMK AO2 $
94908KDBQ DBQ20110422031010304/22/11 03:10:31  5-MIN KDBQ 220910Z AUTO 11011KT 5SM BR OVC007 04/03 A2998 1020 92 0 110/11 RMK AO2 $
94908KDBQ DBQ20110422031510304/22/11 03:15:31  5-MIN KDBQ 220915Z AUTO 10011KT 4SM BR OVC007 04/03 A2997 1030 92 0 100/11 RMK AO2 $
94908KDBQ DBQ20110422032010304/22/11 03:20:31  5-MIN KDBQ 220920Z AUTO 10008KT 4SM BR OVC007 04/03 A2997 1030 92 0 100/08 RMK AO2 $
94908KDBQ DBQ20110422032510304/22/11 03:25:31  5-MIN KDBQ 220925Z AUTO 11010KT 3SM BR OVC007 04/03 A2997 1030 92 0 110/10 RMK AO2 $
94908KDBQ DBQ20110422033011104/22/11 03:30:31  5-MIN KDBQ 220930Z AUTO 10012G18KT 3SM BR OVC007 04/04 A2996 1040 96 100 100/12G18 RMK AO2 $
94908KDBQ DBQ20110422033511104/22/11 03:35:31  5-MIN KDBQ 220935Z AUTO 11010G18KT 3SM BR OVC007 04/04 A2996 1050 96 100 110/10G18 RMK AO2 $
94908KDBQ DBQ20110422034011104/22/11 03:40:31  5-MIN KDBQ 220940Z AUTO 11013G18KT 3SM BR OVC007 04/04 A2996 1040 96 100 110/13G18 RMK AO2 $
94908KDBQ DBQ20110422034511104/22/11 03:45:31  5-MIN KDBQ 220945Z AUTO 12011G18KT 3SM BR OVC007 04/04 A2996 1040 96 100 110/11G18 RMK AO2 $
94908KDBQ DBQ20110422035012804/22/11 03:50:31  5-MIN KDBQ 220950Z AUTO 11012G17KT 3SM BR OVC007 04/04 A2995 1050 96 100 110/12G17 RMK AO2 SLP148 T00440039 $
94908KDBQ DBQ20110422035510504/22/11 03:55:31  5-MIN KDBQ 220955Z AUTO 11012KT 3SM BR OVC007 05/04 A2995 1050 92 100 110/12 RMK AO2 $
94908KDBQ DBQ20110422040012304/22/11 04:00:31  5-MIN KDBQ 221000Z AUTO 12013G19KT 4SM BR OVC007 05/04 A2995 1050 92 100 110/13G19 RMK AO2 CIG 004V009 $
94908KDBQ DBQ20110422040512304/22/11 04:05:31  5-MIN KDBQ 221005Z AUTO 11012G19KT 4SM BR OVC007 05/04 A2995 1050 92 100 110/12G19 RMK AO2 CIG 004V009 $
94908KDBQ DBQ20110422041012304/22/11 04:10:31  5-MIN KDBQ 221010Z AUTO 12011G19KT 4SM BR OVC005 05/04 A2995 1050 92 100 120/11G19 RMK AO2 CIG 004V009 $
94908KDBQ DBQ20110422041511704/22/11 04:15:31  5-MIN KDBQ 221015Z AUTO 12013KT 3SM BR OVC005 05/04 A2995 1050 92 100 120/13 RMK AO2 CIG 004V008 $
94908KDBQ DBQ20110422042012304/22/11 04:20:31  5-MIN KDBQ 221020Z AUTO 11011G18KT 3SM BR OVC005 05/04 A2995 1050 96 100 110/11G18 RMK AO2 CIG 004V010 $
94908KDBQ DBQ20110422042510504/22/11 04:25:31  5-MIN KDBQ 221025Z AUTO 12011KT 4SM BR OVC005 05/04 A2995 1050 96 100 110/11 RMK AO2 $
94908KDBQ DBQ20110422043011104/22/11 04:30:31  5-MIN KDBQ 221030Z AUTO 12013G19KT 4SM BR OVC005 05/04 A2994 1060 96 100 120/13G19 RMK AO2 $
94908KDBQ DBQ20110422043511104/22/11 04:35:31  5-MIN KDBQ 221035Z AUTO 12014G19KT 5SM BR OVC005 05/04 A2994 1060 96 100 120/14G19 RMK AO2 $
94908KDBQ DBQ20110422044012304/22/11 04:40:31  5-MIN KDBQ 221040Z AUTO 12016G23KT 4SM BR OVC007 05/04 A2993 1070 96 200 120/16G23 RMK AO2 CIG 005V010 $
94908KDBQ DBQ20110422044511104/22/11 04:45:31  5-MIN KDBQ 221045Z AUTO 12011G23KT 4SM BR OVC007 05/04 A2994 1060 96 200 120/11G23 RMK AO2 $
94908KDBQ DBQ20110422045013504/22/11 04:50:31  5-MIN KDBQ 221050Z 12013G21KT 4SM BR OVC007 06/04 A2994 1060 92 200 120/13G21 RMK AO2 CIG 005V010 SLP144 T00560044 $
94908KDBQ DBQ20110422045511804/22/11 04:55:31  5-MIN KDBQ 221055Z 12015G21KT 4SM BR OVC007 06/04 A2993 1070 92 200 120/15G21 RMK AO2 CIG 005V010 $
94908KDBQ DBQ20110422050010604/22/11 05:00:31  5-MIN KDBQ 221100Z 11014G21KT 5SM BR OVC007 06/04 A2993 1070 92 200 110/14G21 RMK AO2 $
94908KDBQ DBQ20110422050510604/22/11 05:05:31  5-MIN KDBQ 221105Z 11012G19KT 5SM BR OVC007 06/04 A2993 1070 92 200 110/12G19 RMK AO2 $
94908KDBQ DBQ20110422051011304/22/11 05:10:31  5-MIN KDBQ 221110Z 11014G21KT 5SM BR OVC007 06/04 A2991 1080 92 200 110/14G21 RMK AO2 PRESFR $
94908KDBQ DBQ20110422051511304/22/11 05:15:31  5-MIN KDBQ 221115Z 11012G21KT 5SM BR OVC007 06/04 A2991 1090 92 300 110/12G21 RMK AO2 PRESFR $
94908KDBQ DBQ20110422052010004/22/11 05:20:31  5-MIN KDBQ 221120Z 10012KT 5SM BR OVC007 06/04 A2990 1090 92 300 100/12 RMK AO2 $
94908KDBQ DBQ20110422052510604/22/11 05:25:31  5-MIN KDBQ 221125Z 11012G19KT 5SM BR OVC007 06/04 A2991 1080 92 200 110/12G19 RMK AO2 $
94908KDBQ DBQ20110422053010604/22/11 05:30:31  5-MIN KDBQ 221130Z 11013G19KT 5SM BR OVC007 06/04 A2992 1080 92 200 110/13G19 RMK AO2 $
94908KDBQ DBQ20110422053510604/22/11 05:35:31  5-MIN KDBQ 221135Z 12014G19KT 4SM BR OVC007 06/04 A2992 1070 92 200 110/14G19 RMK AO2 $
94908KDBQ DBQ20110422054010604/22/11 05:40:31  5-MIN KDBQ 221140Z 11014G19KT 4SM BR OVC007 06/04 A2992 1080 92 200 110/14G19 RMK AO2 $
94908KDBQ DBQ20110422054510004/22/11 05:45:31  5-MIN KDBQ 221145Z 11015KT 4SM BR OVC007 06/04 A2993 1070 92 200 110/15 RMK AO2 $
94908KDBQ DBQ20110422055014104/22/11 05:50:31  5-MIN KDBQ 221150Z 11015KT 4SM BR OVC007 06/04 A2993 1070 92 200 110/15 RMK AO2 SLP140 70001 T00560044 10056 20039 56039 $
94908KDBQ DBQ20110422055510604/22/11 05:55:31  5-MIN KDBQ 221155Z 11015G21KT 4SM BR OVC007 06/04 A2992 1080 92 200 110/15G21 RMK AO2 $
94908KDBQ DBQ20110422060010604/22/11 06:00:31  5-MIN KDBQ 221200Z 11015G22KT 4SM BR OVC007 06/04 A2992 1080 92 200 110/15G22 RMK AO2 $
94908KDBQ DBQ20110422060510604/22/11 06:05:31  5-MIN KDBQ 221205Z 11014G22KT 5SM BR OVC007 06/04 A2993 1070 92 200 110/14G22 RMK AO2 $
94908KDBQ DBQ20110422061010604/22/11 06:10:31  5-MIN KDBQ 221210Z 12012G21KT 5SM BR OVC007 06/04 A2994 1060 92 200 120/12G21 RMK AO2 $
94908KDBQ DBQ20110422061510604/22/11 06:15:31  5-MIN KDBQ 221215Z 12011G21KT 6SM BR OVC007 06/04 A2994 1060 92 200 120/11G21 RMK AO2 $
94908KDBQ DBQ20110422062010604/22/11 06:20:31  5-MIN KDBQ 221220Z 12012G18KT 5SM BR OVC007 06/04 A2994 1060 92 200 120/12G18 RMK AO2 $
94908KDBQ DBQ20110422062511804/22/11 06:25:31  5-MIN KDBQ 221225Z 12013G18KT 5SM BR OVC007 06/04 A2994 1060 92 200 120/13G18 RMK AO2 CIG 006V009 $
94908KDBQ DBQ20110422063012504/22/11 06:30:31  5-MIN KDBQ 221230Z 11012G19KT 4SM BR BKN007 OVC011 06/04 A2993 1070 92 200 110/12G19 RMK AO2 CIG 006V009 $
94908KDBQ DBQ20110422063512504/22/11 06:35:31  5-MIN KDBQ 221235Z 11013G19KT 3SM BR BKN007 OVC011 06/04 A2993 1070 92 200 110/13G19 RMK AO2 CIG 006V009 $
94908KDBQ DBQ20110422064011804/22/11 06:40:31  5-MIN KDBQ 221240Z 11014G19KT 3SM BR OVC007 06/04 A2993 1070 92 200 110/14G19 RMK AO2 CIG 006V011 $
94908KDBQ DBQ20110422064512504/22/11 06:45:31  5-MIN KDBQ 221245Z 11013G19KT 3SM BR OVC007 06/05 A2992 1080 96 200 110/13G19 RMK AO2 CIG 006V011 PRESFR $
94908KDBQ DBQ20110422065013504/22/11 06:50:31  5-MIN KDBQ 221250Z 11013G19KT 3SM BR OVC007 06/05 A2992 1080 96 200 110/13G19 RMK AO2 CIG 006V011 SLP137 T00560050 $
94908KDBQ DBQ20110422065511804/22/11 06:55:31  5-MIN KDBQ 221255Z 11011G19KT 3SM BR OVC009 06/05 A2992 1080 93 300 100/11G19 RMK AO2 CIG 006V013 $
94908KDBQ DBQ20110422070011204/22/11 07:00:31  5-MIN KDBQ 221300Z 10013KT 3SM BR OVC009 06/05 A2991 1090 96 300 100/13 RMK AO2 CIG 006V013 $
94908KDBQ DBQ20110422070511204/22/11 07:05:31  5-MIN KDBQ 221305Z 10012KT 3SM BR OVC009 06/05 A2991 1090 93 300 100/12 RMK AO2 CIG 006V010 $
94908KDBQ DBQ20110422071011804/22/11 07:10:31  5-MIN KDBQ 221310Z 11014G20KT 3SM BR OVC009 06/05 A2991 1090 93 300 110/14G20 RMK AO2 CIG 006V012 $
94908KDBQ DBQ20110422071511804/22/11 07:15:31  5-MIN KDBQ 221315Z 11014G21KT 3SM BR OVC007 06/05 A2990 1100 93 300 110/14G21 RMK AO2 CIG 006V012 $
94908KDBQ DBQ20110422072012204/22/11 07:20:31  5-MIN KDBQ 221320Z 11012G21KT 2 1/2SM BR OVC007 06/05 A2990 1100 93 300 110/12G21 RMK AO2 CIG 005V009 $
94908KDBQ DBQ20110422072512204/22/11 07:25:31  5-MIN KDBQ 221325Z 11014G20KT 2 1/2SM BR OVC007 06/05 A2991 1090 93 300 110/14G20 RMK AO2 CIG 005V009 $
94908KDBQ DBQ20110422073012204/22/11 07:30:31  5-MIN KDBQ 221330Z 12013G19KT 2 1/2SM BR OVC007 06/05 A2991 1090 93 300 120/13G19 RMK AO2 CIG 005V011 $
94908KDBQ DBQ20110422073512204/22/11 07:35:31  5-MIN KDBQ 221335Z 12014G22KT 2 1/2SM BR OVC007 06/05 A2991 1090 93 300 120/14G22 RMK AO2 CIG 005V011 $
94908KDBQ DBQ20110422074012004/22/11 07:40:31  5-MIN KDBQ 221340Z 11016G22KT 2 1/2SM BR OVC007 06/05 A2991 1090 93 300 110/16G22 RMK AO2 CIG 005V011
94908KDBQ DBQ20110422074513804/22/11 07:45:31  5-MIN KDBQ 221345Z 11017G26KT 2 1/2SM BR OVC007 06/05 A2990 1100 93 300 110/17G26 RMK AO2 PK WND 12026/1344 CIG 005V011
94908KDBQ DBQ20110422075015504/22/11 07:50:31  5-MIN KDBQ 221350Z 11014G26KT 2 1/2SM BR OVC007 06/05 A2990 1100 93 300 110/14G26 RMK AO2 PK WND 12026/1344 CIG 005V011 SLP130 T00610050
94908KDBQ DBQ20110422075512004/22/11 07:55:31  5-MIN KDBQ 221355Z 11016G21KT 2 1/2SM BR OVC007 06/05 A2990 1100 93 300 110/16G21 RMK AO2 CIG 005V010
94908KDBQ DBQ20110422080011604/22/11 08:00:31  5-MIN KDBQ 221400Z 11014G20KT 3SM BR OVC007 06/05 A2990 1100 93 300 110/14G20 RMK AO2 CIG 005V010
94908KDBQ DBQ20110422080510804/22/11 08:05:31  5-MIN KDBQ 221405Z 11013G23KT 2 1/2SM BR OVC007 06/05 A2990 1100 93 300 110/13G23 RMK AO2
94908KDBQ DBQ20110422081010804/22/11 08:10:31  5-MIN KDBQ 221410Z 11011G23KT 2 1/2SM BR OVC007 06/05 A2990 1100 93 300 100/11G23 RMK AO2
94908KDBQ DBQ20110422081512004/22/11 08:15:31  5-MIN KDBQ 221415Z 11010G19KT 2 1/2SM BR OVC007 06/05 A2990 1100 93 300 110/10G19 RMK AO2 CIG 005V010
94908KDBQ DBQ20110422082010804/22/11 08:20:31  5-MIN KDBQ 221420Z 11013G20KT 2 1/2SM BR OVC007 06/05 A2990 1100 93 300 110/13G20 RMK AO2
94908KDBQ DBQ20110422082510804/22/11 08:25:31  5-MIN KDBQ 221425Z 12011G20KT 2 1/2SM BR OVC007 06/05 A2989 1110 93 300 120/11G20 RMK AO2
94908KDBQ DBQ20110422083010204/22/11 08:30:31  5-MIN KDBQ 221430Z 12011KT 2 1/2SM BR OVC007 06/05 A2989 1110 93 300 110/11 RMK AO2
94908KDBQ DBQ20110422083510204/22/11 08:35:31  5-MIN KDBQ 221435Z 10013KT 2 1/2SM BR OVC007 06/05 A2988 1110 93 300 100/13 RMK AO2
94908KDBQ DBQ20110422084012004/22/11 08:40:31  5-MIN KDBQ 221440Z 11014G19KT 2 1/2SM BR OVC007 06/05 A2988 1120 93 400 100/14G19 RMK AO2 CIG 005V010
94908KDBQ DBQ20110422084512004/22/11 08:45:31  5-MIN KDBQ 221445Z 11009G19KT 2 1/2SM BR OVC007 06/05 A2988 1120 93 400 110/09G19 RMK AO2 CIG 005V010
94908KDBQ DBQ20110422085014304/22/11 08:50:31  5-MIN KDBQ 221450Z 10014G19KT 2 1/2SM BR OVC007 06/05 A2987 1120 93 400 100/14G19 RMK AO2 CIG 005V010 SLP122 T00610050 56019
94908KDBQ DBQ20110422085512004/22/11 08:55:31  5-MIN KDBQ 221455Z 11015G19KT 2 1/2SM BR OVC007 06/05 A2988 1110 96 300 110/15G19 RMK AO2 CIG 005V010
94908KDBQ DBQ20110422090011404/22/11 09:00:31  5-MIN KDBQ 221500Z 11015KT 2 1/2SM BR OVC007 06/04 A2988 1120 92 300 110/15 RMK AO2 CIG 005V010
94908KDBQ DBQ20110422090511004/22/11 09:05:31  5-MIN KDBQ 221505Z 11013KT 2SM BR OVC007 06/05 A2987 1120 96 300 110/13 RMK AO2 CIG 005V010
94908KDBQ DBQ20110422091013704/22/11 09:10:31  5-MIN KDBQ 221510Z 11015G20KT 1 3/4SM R36/6000VP6000FT BR OVC007 06/05 A2987 1120 96 300 110/15G20 RMK AO2 CIG 004V009
94908KDBQ DBQ20110422091513704/22/11 09:15:31  5-MIN KDBQ 221515Z 11013G20KT 2 1/2SM R36/6000VP6000FT BR OVC007 06/04 A2987 1120 92 300 110/13G20 RMK AO2 CIG 004V009
94908KDBQ DBQ20110422092013704/22/11 09:20:31  5-MIN KDBQ 221520Z 11016G23KT 2 1/2SM R36/6000VP6000FT BR OVC007 06/04 A2987 1120 92 300 110/16G23 RMK AO2 CIG 004V009
94908KDBQ DBQ20110422092513704/22/11 09:25:31  5-MIN KDBQ 221525Z 12014G23KT 2 1/2SM R36/5500VP6000FT BR OVC007 06/04 A2988 1120 92 300 120/14G23 RMK AO2 CIG 004V009
94908KDBQ DBQ20110422093013704/22/11 09:30:31  5-MIN KDBQ 221530Z 11011G20KT 2 1/2SM R36/5500VP6000FT BR OVC007 06/04 A2988 1110 92 300 110/11G20 RMK AO2 CIG 004V010
94908KDBQ DBQ20110422093512504/22/11 09:35:31  5-MIN KDBQ 221535Z 12012G21KT 1 3/4SM R36/6000VP6000FT BR OVC007 06/04 A2988 1110 92 300 120/12G21 RMK AO2
94908KDBQ DBQ20110422094013704/22/11 09:40:31  5-MIN KDBQ 221540Z 12013G21KT 1 3/4SM R36/5500VP6000FT BR OVC007 06/04 A2989 1100 92 300 120/13G21 RMK AO2 CIG 005V011
94908KDBQ DBQ20110422094515304/22/11 09:45:31  5-MIN KDBQ 221545Z 11015G19KT 1 3/4SM R36/4000VP6000FT -RA BR OVC007 06/04 A2987 1130 92 300 110/15G19 RMK AO2 RAB42 CIG 005V010 P0000
94908KDBQ DBQ20110422095017004/22/11 09:50:31  5-MIN KDBQ 221550Z 11012G20KT 1 1/2SM R36/4000VP6000FT +RA BR OVC007 06/04 A2987 1120 92 300 110/12G20 RMK AO2 RAB42 CIG 005V010 SLP123 P0004 T00560044
94908KDBQ DBQ20110422095514604/22/11 09:55:31  5-MIN KDBQ 221555Z 11013G20KT 1 1/2SM R36/4000V6000FT +RA BR OVC007 06/04 A2987 1130 92 300 110/13G20 RMK AO2 CIG 005V011 P0001
94908KDBQ DBQ20110422100014604/22/11 10:00:31  5-MIN KDBQ 221600Z 11011KT 1 3/4SM R36/5000V6000FT RA BR BKN007 OVC012 06/04 A2986 1130 92 300 110/11 RMK AO2 CIG 005V010 P0003
94908KDBQ DBQ20110422100514504/22/11 10:05:31  5-MIN KDBQ 221605Z 11014G18KT 1 3/4SM R36/5000V6000FT RA BR OVC007 06/04 A2985 1140 92 300 100/14G18 RMK AO2 CIG 005V011 P0003
94908KDBQ DBQ20110422101015404/22/11 10:10:31  5-MIN KDBQ 221610Z 11014G20KT 1 3/4SM R36/5000VP6000FT -RA BR OVC009 06/05 A2985 1150 96 300 110/14G20 RMK AO2 CIG 005V013 PRESFR P0004
94908KDBQ DBQ20110422101514304/22/11 10:15:31  5-MIN KDBQ 221615Z 10011G20KT 2SM R36/5000VP6000FT -RA BR OVC009 06/05 A2984 1150 96 300 100/11G20 RMK AO2 CIG 004V011 P0004
94908KDBQ DBQ20110422102014504/22/11 10:20:31  5-MIN KDBQ 221620Z 11015G22KT 2SM R36/5000VP6000FT BR OVC009 06/04 A2984 1150 92 300 100/15G22 RMK AO2 RAE19 CIG 004V013 P0004
94908KDBQ DBQ20110422102514504/22/11 10:25:31  5-MIN KDBQ 221625Z 10011G22KT 2SM R36/5500VP6000FT BR OVC009 06/05 A2984 1150 96 300 100/11G22 RMK AO2 RAE19 CIG 004V013 P0004
94908KDBQ DBQ20110422103014504/22/11 10:30:31  5-MIN KDBQ 221630Z 11014G22KT 2SM R36/5500VP6000FT BR OVC009 06/04 A2985 1140 92 300 100/14G22 RMK AO2 RAE19 CIG 004V013 P0004
94908KDBQ DBQ20110422103515204/22/11 10:35:31  5-MIN KDBQ 221635Z 10011G22KT 2SM R36/6000VP6000FT BR BKN007 OVC010 06/04 A2985 1150 92 300 100/11G22 RMK AO2 RAE19 CIG 004V009 P0004
94908KDBQ DBQ20110422104013904/22/11 10:40:31  5-MIN KDBQ 221640Z 10016G20KT 2 1/2SM BR BKN007 OVC010 06/04 A2984 1150 92 300 100/16G20 RMK AO2 RAE19 CIG 004V009 P0004
94908KDBQ DBQ20110422104513204/22/11 10:45:31  5-MIN KDBQ 221645Z 10012G20KT 2 1/2SM BR OVC005 06/04 A2983 1160 92 300 100/12G20 RMK AO2 RAE19 CIG 003V009 P0004
94908KDBQ DBQ20110422105014904/22/11 10:50:31  5-MIN KDBQ 221650Z 10016G20KT 2 1/2SM BR OVC005 06/04 A2983 1160 92 300 100/16G20 RMK AO2 RAE19 CIG 003V008 SLP108 P0004 T00560044
94908KDBQ DBQ20110422105512304/22/11 10:55:31  5-MIN KDBQ 221655Z 10015G20KT 2SM BR OVC005 06/04 A2982 1170 92 400 100/15G20 RMK AO2 CIG 003V008 PRESFR
94908KDBQ DBQ20110422110012004/22/11 11:00:31  5-MIN KDBQ 221700Z 11015G20KT 2 1/2SM BR OVC005 06/04 A2982 1170 92 400 100/15G20 RMK AO2 CIG 003V007
94908KDBQ DBQ20110422110512304/22/11 11:05:31  5-MIN KDBQ 221705Z 10015G20KT 3SM BR OVC005 06/04 A2981 1180 92 400 100/15G20 RMK AO2 CIG 003V008 PRESFR
94908KDBQ DBQ20110422111011504/22/11 11:10:31  5-MIN KDBQ 221710Z 10017G24KT 2 1/2SM BR OVC005 06/04 A2980 1190 92 400 100/17G24 RMK AO2 PRESFR
94908KDBQ DBQ20110422111510804/22/11 11:15:31  5-MIN KDBQ 221715Z 10014G24KT 2 1/2SM BR OVC005 06/04 A2980 1190 92 400 100/14G24 RMK AO2
94908KDBQ DBQ20110422112010804/22/11 11:20:31  5-MIN KDBQ 221720Z 10014G23KT 2 1/2SM BR OVC005 06/04 A2980 1190 92 400 100/14G23 RMK AO2
94908KDBQ DBQ20110422112510804/22/11 11:25:31  5-MIN KDBQ 221725Z 10014G23KT 2 1/2SM BR OVC005 06/04 A2980 1190 92 400 100/14G23 RMK AO2
94908KDBQ DBQ20110422113010804/22/11 11:30:31  5-MIN KDBQ 221730Z 10015G23KT 2 1/2SM BR OVC005 06/04 A2980 1190 92 400 100/15G23 RMK AO2
94908KDBQ DBQ20110422113510804/22/11 11:35:31  5-MIN KDBQ 221735Z 10014G23KT 2 1/2SM BR OVC005 06/04 A2979 1200 92 400 100/14G23 RMK AO2
94908KDBQ DBQ20110422114010804/22/11 11:40:31  5-MIN KDBQ 221740Z 10013G21KT 2 1/2SM BR OVC005 06/04 A2979 1200 92 400 100/13G21 RMK AO2
94908KDBQ DBQ20110422114510804/22/11 11:45:31  5-MIN KDBQ 221745Z 11016G21KT 2 1/2SM BR OVC005 06/04 A2979 1200 92 400 100/16G21 RMK AO2
94908KDBQ DBQ20110422115014904/22/11 11:50:31  5-MIN KDBQ 221750Z 10012G21KT 2 1/2SM BR OVC005 06/04 A2979 1200 92 400 100/12G21 RMK AO2 SLP096 60011 T00560044 10061 20056 58016
94908KDBQ DBQ20110422115510804/22/11 11:55:31  5-MIN KDBQ 221755Z 09011G18KT 2 1/2SM BR OVC005 06/04 A2979 1200 92 400 090/11G18 RMK AO2
94908KDBQ DBQ20110422120010804/22/11 12:00:31  5-MIN KDBQ 221800Z 10012G19KT 2 1/2SM BR OVC005 06/04 A2979 1200 92 400 090/12G19 RMK AO2
94908KDBQ DBQ20110422120510804/22/11 12:05:31  5-MIN KDBQ 221805Z 10012G21KT 2 1/2SM BR OVC005 06/04 A2979 1200 92 400 100/12G21 RMK AO2
94908KDBQ DBQ20110422121010804/22/11 12:10:31  5-MIN KDBQ 221810Z 10014G21KT 2 1/2SM BR OVC005 06/04 A2979 1200 92 400 100/14G21 RMK AO2
94908KDBQ DBQ20110422121510804/22/11 12:15:31  5-MIN KDBQ 221815Z 10013G19KT 2 1/2SM BR OVC005 06/04 A2978 1210 92 400 100/13G19 RMK AO2
94908KDBQ DBQ20110422122012504/22/11 12:20:31  5-MIN KDBQ 221820Z 11011G19KT 2 1/2SM R36/6000VP6000FT BR OVC005 06/04 A2978 1210 92 400 100/11G19 RMK AO2
94908KDBQ DBQ20110422122512504/22/11 12:25:31  5-MIN KDBQ 221825Z 10015G22KT 2 1/2SM R36/6000VP6000FT BR OVC005 06/04 A2977 1210 92 400 100/15G22 RMK AO2
94908KDBQ DBQ20110422123012504/22/11 12:30:31  5-MIN KDBQ 221830Z 10015G22KT 2 1/2SM R36/6000VP6000FT BR OVC005 06/04 A2977 1220 92 400 100/15G22 RMK AO2
94908KDBQ DBQ20110422123512004/22/11 12:35:31  5-MIN KDBQ 221835Z 09014G20KT 2 1/2SM BR OVC005 06/04 A2977 1220 92 400 090/14G20 RMK AO2 CIG 004V008
94908KDBQ DBQ20110422124010804/22/11 12:40:31  5-MIN KDBQ 221840Z 10015G22KT 2 1/2SM BR OVC005 06/04 A2977 1220 92 400 090/15G22 RMK AO2
94908KDBQ DBQ20110422124510804/22/11 12:45:31  5-MIN KDBQ 221845Z 10016G22KT 2 1/2SM BR OVC005 06/04 A2977 1220 92 400 100/16G22 RMK AO2
94908KDBQ DBQ20110422125012504/22/11 12:50:31  5-MIN KDBQ 221850Z 10013G21KT 2 1/2SM BR OVC005 06/04 A2977 1210 92 400 100/13G21 RMK AO2 SLP090 T00560044
94908KDBQ DBQ20110422125510404/22/11 12:55:31  5-MIN KDBQ 221855Z 11014G21KT 4SM BR OVC005 06/04 A2977 1220 92 400 110/14G21 RMK AO2
94908KDBQ DBQ20110422130009804/22/11 13:00:31  5-MIN KDBQ 221900Z 11013KT 4SM BR OVC005 06/04 A2977 1220 92 400 110/13 RMK AO2
94908KDBQ DBQ20110422130510204/22/11 13:05:31  5-MIN KDBQ 221905Z 12014KT 2 1/2SM BR OVC005 06/04 A2977 1220 92 400 110/14 RMK AO2
94908KDBQ DBQ20110422131012104/22/11 13:10:31  5-MIN KDBQ 221910Z 11012G19KT 2SM R36/5500VP6000FT BR OVC005 06/04 A2977 1210 92 400 110/12G19 RMK AO2
94908KDBQ DBQ20110422131512504/22/11 13:15:31  5-MIN KDBQ 221915Z 11011G19KT 1 3/4SM R36/5000VP6000FT BR OVC005 06/05 A2977 1220 96 400 110/11G19 RMK AO2
94908KDBQ DBQ20110422132012404/22/11 13:20:31  5-MIN KDBQ 221920Z 10012G18KT 1 1/2SM R36/4500V5500FT BR OVC005 06/05 A2976 1230 96 400 100/12G18 RMK AO2
94908KDBQ DBQ20110422132512404/22/11 13:25:31  5-MIN KDBQ 221925Z 11012G19KT 1 1/4SM R36/4000V5500FT BR OVC005 06/05 A2975 1230 96 400 110/12G19 RMK AO2
94908KDBQ DBQ20110422133013604/22/11 13:30:31  5-MIN KDBQ 221930Z 09012G19KT 1 1/4SM R36/4000V5500FT BR OVC005 06/05 A2975 1240 96 400 090/12G19 RMK AO2 CIG 004V008
94908KDBQ DBQ20110422133513004/22/11 13:35:31  5-MIN KDBQ 221935Z 10013KT 1 1/4SM R36/4500V5500FT BR OVC005 06/05 A2975 1240 96 400 100/13 RMK AO2 CIG 004V008
94908KDBQ DBQ20110422134013604/22/11 13:40:31  5-MIN KDBQ 221940Z 10009G17KT 1 1/4SM R36/4500V5000FT BR OVC005 06/05 A2975 1240 96 400 090/09G17 RMK AO2 CIG 003V008
94908KDBQ DBQ20110422134513604/22/11 13:45:31  5-MIN KDBQ 221945Z 09011G16KT 1 1/4SM R36/4500V5000FT BR OVC005 06/05 A2975 1230 96 400 090/11G16 RMK AO2 CIG 003V008
94908KDBQ DBQ20110422135014904/22/11 13:50:31  5-MIN KDBQ 221950Z 09011G16KT 1SM R36/4000V5000FT BR OVC005 06/05 A2975 1230 96 400 090/11G16 RMK AO2 CIG 003V008 SLP083 T00560050
94908KDBQ DBQ20110422135514804/22/11 13:55:31  5-MIN KDBQ 221955Z 09010G16KT 1SM R36/4000V5000FT -RA BR OVC005 06/05 A2975 1240 96 400 090/10G16 RMK AO2 RAB54 CIG 003V008 P0000
94908KDBQ DBQ20110422140013704/22/11 14:00:31  5-MIN KDBQ 222000Z 10010KT 1 1/2SM R36/4000VP6000FT -RA BR OVC005 06/05 A2975 1240 96 400 090/10 RMK AO2 RAB1954 P0001
94908KDBQ DBQ20110422140513704/22/11 14:05:31  5-MIN KDBQ 222005Z 09011KT 2 1/2SM R36/5000VP6000FT -RA BR OVC005 06/05 A2975 1240 93 500 090/11 RMK AO2 RAB1954 P0001
94908KDBQ DBQ20110422141012104/22/11 14:10:31  5-MIN KDBQ 222010Z 10009G17KT 4SM BR OVC005 06/05 A2975 1240 96 400 100/09G17 RMK AO2 RAB1954E07 P0001
94908KDBQ DBQ20110422141511504/22/11 14:15:31  5-MIN KDBQ 222015Z 09010KT 4SM BR OVC005 06/05 A2974 1240 96 400 090/10 RMK AO2 RAB1954E07 P0001
94908KDBQ DBQ20110422142011504/22/11 14:20:31  5-MIN KDBQ 222020Z 08013KT 4SM BR OVC003 06/05 A2973 1250 96 500 080/13 RMK AO2 RAB1954E07 P0001
94908KDBQ DBQ20110422142511504/22/11 14:25:31  5-MIN KDBQ 222025Z 07009KT 4SM BR OVC003 06/05 A2973 1260 96 500 070/09 RMK AO2 RAB1954E07 P0001
94908KDBQ DBQ20110422143012204/22/11 14:30:31  5-MIN KDBQ 222030Z 08009KT 4SM BR OVC003 06/05 A2972 1260 93 500 080/09 RMK AO2 RAB1954E07 PRESFR P0001
94908KDBQ DBQ20110422143511504/22/11 14:35:31  5-MIN KDBQ 222035Z 08011KT 3SM BR OVC003 06/05 A2972 1270 96 500 070/11 RMK AO2 RAB1954E07 P0001
94908KDBQ DBQ20110422144012204/22/11 14:40:31  5-MIN KDBQ 222040Z 09011KT 3SM BR OVC003 06/05 A2971 1280 96 500 090/11 RMK AO2 RAB1954E07 PRESFR P0001
94908KDBQ DBQ20110422144511504/22/11 14:45:31  5-MIN KDBQ 222045Z 09008KT 3SM BR OVC003 06/05 A2971 1280 93 600 090/08 RMK AO2 RAB1954E07 P0001
94908KDBQ DBQ20110422145014404/22/11 14:50:31  5-MIN KDBQ 222050Z 09012KT 3SM BR OVC003 06/05 A2970 1280 93 600 090/12 RMK AO2 RAB1954E07 SLP065 P0001 60001 T00610050 58028
94908KDBQ DBQ20110422145511904/22/11 14:55:31  5-MIN KDBQ 222055Z 09013KT 2 1/2SM R36/6000VP6000FT BR OVC003 06/05 A2970 1280 96 500 090/13 RMK AO2
94908KDBQ DBQ20110422150011904/22/11 15:00:31  5-MIN KDBQ 222100Z 10013KT 1 3/4SM R36/5000VP6000FT BR OVC003 06/05 A2970 1290 96 500 090/13 RMK AO2
94908KDBQ DBQ20110422150511804/22/11 15:05:31  5-MIN KDBQ 222105Z 10013KT 1 1/4SM R36/5000V6000FT BR OVC003 06/05 A2969 1290 96 500 100/13 RMK AO2
94908KDBQ DBQ20110422151012004/22/11 15:10:31  5-MIN KDBQ 222110Z 11011G18KT 1SM R36/4000V5500FT BR OVC003 06/05 A2970 1290 96 500 100/11G18 RMK AO2
94908KDBQ DBQ20110422151511704/22/11 15:15:31  5-MIN KDBQ 222115Z 10011KT 3/4SM R36/3500V5000FT BR OVC003 06/06 A2969 1290 100 500 100/11 RMK AO2
94908KDBQ DBQ20110422152012204/22/11 15:20:31  5-MIN KDBQ 222120Z 10013G18KT 1/2SM R36/2800V4000FT FG OVC003 06/05 A2968 1300 96 500 100/13G18 RMK AO2
94908KDBQ DBQ20110422152512204/22/11 15:25:31  5-MIN KDBQ 222125Z 11011G18KT 1/2SM R36/2600V3000FT FG OVC001 06/05 A2968 1300 96 500 110/11G18 RMK AO2
94908KDBQ DBQ20110422153011604/22/11 15:30:31  5-MIN KDBQ 222130Z 11008KT 1/2SM R36/2600V3000FT FG OVC001 06/05 A2969 1290 96 500 100/08 RMK AO2
94908KDBQ DBQ20110422153513304/22/11 15:35:31  5-MIN KDBQ 222135Z 11008KT 1/2SM R36/2400V3000FT -RA FG OVC001 06/06 A2969 1290 100 500 110/08 RMK AO2 RAB33 P0000
94908KDBQ DBQ20110422154013304/22/11 15:40:31  5-MIN KDBQ 222140Z 10009KT 1/2SM R36/2400V4000FT -RA FG OVC001 06/06 A2968 1300 100 500 100/09 RMK AO2 RAB33 P0000
94908KDBQ DBQ20110422154513704/22/11 15:45:31  5-MIN KDBQ 222145Z 10012G17KT 3/4SM R36/3000V5500FT BR OVC001 06/05 A2968 1310 96 500 100/12G17 RMK AO2 RAB33E44 P0000
94908KDBQ DBQ20110422155014004/22/11 15:50:31  5-MIN KDBQ 222150Z 10010G17KT 1 1/4SM R36/4000V5500FT BR OVC001 06/06 A2967 1310 100 500 090/10G17 RMK AO2 RAB33E44 P0000
94908KDBQ DBQ20110422155513104/22/11 15:55:31  5-MIN KDBQ 222155Z 09009KT 1 1/4SM R36/4000VP6000FT BR OVC001 06/05 A2967 1310 96 500 090/09 RMK AO2 CIG 001V005
94908KDBQ DBQ20110422160011904/22/11 16:00:31  5-MIN KDBQ 222200Z 09011KT 1 1/2SM R36/6000VP6000FT BR OVC001 06/05 A2966 1320 96 500 090/11 RMK AO2
94908KDBQ DBQ20110422160511904/22/11 16:05:31  5-MIN KDBQ 222205Z 11012KT 1 1/2SM R36/6000VP6000FT BR OVC003 06/05 A2967 1310 96 500 100/12 RMK AO2
94908KDBQ DBQ20110422161010204/22/11 16:10:31  5-MIN KDBQ 222210Z 09009KT 1 3/4SM BR OVC003 06/05 A2966 1320 96 500 090/09 RMK AO2
94908KDBQ DBQ20110422161510204/22/11 16:15:31  5-MIN KDBQ 222215Z 10008KT 1 1/2SM BR OVC003 06/05 A2967 1310 96 500 100/08 RMK AO2
94908KDBQ DBQ20110422162014304/22/11 16:20:31  5-MIN KDBQ 222220Z 10006KT 1 1/4SM -TSRA BR OVC003 06/05 A2968 1300 96 500 100/06 RMK AO2 TSB19RAB17 OCNL LTG OHD ICCC P0000
94908KDBQ DBQ20110422162516704/22/11 16:25:31  5-MIN KDBQ 222225Z 10005KT 1 1/4SM R36/6000VP6000FT -TSRA BR OVC003 06/05 A2969 1290 96 500 100/05 RMK AO2 TSB19RAB17 PRESRR OCNL LTG OHD ICCC P0001
94908KDBQ DBQ20110422163016004/22/11 16:30:31  5-MIN KDBQ 222230Z 09009KT 1 1/4SM R36/4000VP6000FT +TSRA BR OVC003 06/05 A2967 1310 96 500 090/09 RMK AO2 TSB19RAB17 OCNL LTG OHD ICCC P0003
94908KDBQ DBQ20110422163515504/22/11 16:35:31  5-MIN KDBQ 222235Z 09008KT 1SM R36/4000V6000FT +TSRA BR OVC003 06/05 A2968 1300 96 500 090/08 RMK AO2 TSB19RAB17 OCNL LTG OHD ICCC P0007
94908KDBQ DBQ20110422164015904/22/11 16:40:31  5-MIN KDBQ 222240Z 10008KT 1 1/4SM R36/4500VP6000FT TSRA BR OVC003 06/05 A2968 1300 96 500 100/08 RMK AO2 TSB19RAB17 OCNL LTG OHD ICCC P0009
94908KDBQ DBQ20110422164515904/22/11 16:45:31  5-MIN KDBQ 222245Z 09010KT 1 1/2SM R36/5000VP6000FT TSRA BR OVC003 06/05 A2966 1320 96 500 090/10 RMK AO2 TSB19RAB17 OCNL LTG OHD ICCC P0011
94908KDBQ DBQ20110422165016004/22/11 16:50:31  5-MIN KDBQ 222250Z 10009KT 2 1/2SM R36/6000VP6000FT -TSRA BR OVC003 06/05 A2967 1310 96 500 100/09 RMK AO2 TSB19RAB17 OCNL LTG OHD ICCC P0011
94908KDBQ DBQ20110422165509804/22/11 16:55:31  5-MIN KDBQ 222255Z 11008KT 4SM BR OVC003 06/05 A2966 1320 96 500 110/08 RMK AO2
94908KDBQ DBQ20110422170013604/22/11 17:00:31  5-MIN KDBQ 222300Z 12011KT 2 1/2SM R36/5000VP6000FT RA BR OVC003 06/05 A2964 1330 96 600 120/11 RMK AO2 RAB2257 P0001
94908KDBQ DBQ20110422170515004/22/11 17:05:31  5-MIN KDBQ 222305Z 12014G18KT 1 3/4SM R36/5000VP6000FT +RA BR OVC003 06/05 A2963 1350 96 600 120/14G18 RMK AO2 RAB2257 PRESFR P0004
94908KDBQ DBQ20110422171015604/22/11 17:10:31  5-MIN KDBQ 222310Z 12016G23KT 1 3/4SM R36/5500VP6000FT RA BR BKN003 OVC019 06/05 A2961 1360 96 600 120/16G23 RMK AO2 RAB2257 PRESFR P0007
94908KDBQ DBQ20110422171516404/22/11 17:15:31  5-MIN KDBQ 222315Z 12018G23KT 2 1/2SM R36/5500VP6000FT -RA BR BKN003 BKN019 OVC095 06/05 A2960 1380 96 600 120/18G23 RMK AO2 RAB2257 PRESFR P0008
94908KDBQ DBQ20110422172015404/22/11 17:20:31  5-MIN KDBQ 222320Z 12018G27KT 4SM -RA BR SCT003 BKN019 OVC090 06/05 A2960 1380 96 600 120/18G27 RMK AO2 PK WND 12027/2317 RAB2257 P0008
94908KDBQ DBQ20110422172515304/22/11 17:25:31  5-MIN KDBQ 222325Z 12019G27KT 5SM BR SCT003 SCT019 OVC090 06/05 A2959 1380 96 600 120/19G27 RMK AO2 PK WND 12027/2317 RAB2257E24 P0008
94908KDBQ DBQ20110422173015304/22/11 17:30:31  5-MIN KDBQ 222330Z 12017G26KT 5SM BR FEW003 BKN075 OVC090 06/05 A2960 1370 96 600 120/17G26 RMK AO2 PK WND 12027/2317 RAB2257E24 P0008
94908KDBQ DBQ20110422173516104/22/11 17:35:31  5-MIN KDBQ 222335Z 12011G26KT 3SM +RA BR FEW003 BKN075 OVC090 06/05 A2963 1350 96 600 120/11G26 RMK AO2 PK WND 12027/2317 RAB2257 PRESRR P0009
94908KDBQ DBQ20110422174016504/22/11 17:40:31  5-MIN KDBQ 222340Z 09007G20KT 2 1/2SM -RA BR SCT003 BKN016 OVC090 06/05 A2965 1330 96 600 090/07G20 RMK AO2 PK WND 12027/2317 RAB2257 PRESRR P0010
94908KDBQ DBQ20110422174518704/22/11 17:45:31  5-MIN KDBQ 222345Z VRB06KT 1 1/2SM R36/4000VP6000FT +TSRA BR BKN003 BKN016 OVC085 06/05 A2964 1340 96 600 VRB/06 RMK AO2 PK WND 12027/2317 TSB42RAB2257 OCNL LTGIC P0013
94908KDBQ DBQ20110422175022404/22/11 17:50:31  5-MIN KDBQ 222350Z 11005KT 1SM R36/4000VP6000FT +TSRA BR BKN003 BKN016 OVC080 06/05 A2964 1340 96 600 110/05 RMK AO2 PK WND 12027/2317 TSB42RAB2257 SLP041 OCNL LTGIC P0020 60032 T00560050 10061 20056 58030
94908KDBQ DBQ20110422175513704/22/11 17:55:31  5-MIN KDBQ 222355Z 11006KT 1 1/2SM R36/4000VP6000FT TSRA BR BKN003 OVC016 06/05 A2963 1350 96 600 110/06 RMK AO2 P0001
94908KDBQ DBQ20110422180012604/22/11 18:00:31  5-MIN KDBQ 230000Z 11011G15KT 1 3/4SM TSRA BR OVC003 06/05 A2961 1370 96 600 110/11G15 RMK AO2 PRESFR P0003
94908KDBQ DBQ20110422180511504/22/11 18:05:31  5-MIN KDBQ 230005Z 12006G15KT 2SM TSRA BR OVC003 06/05 A2962 1360 96 600 120/06G15 RMK AO2 P0004
94908KDBQ DBQ20110422181011604/22/11 18:10:31  5-MIN KDBQ 230010Z 11006G15KT 3SM -TSRA BR OVC003 06/05 A2963 1350 96 600 110/06G15 RMK AO2 P0005
94908KDBQ DBQ20110422181511404/22/11 18:15:31  5-MIN KDBQ 230015Z 09004KT 4SM TS BR OVC003 06/06 A2963 1350 100 600 090/04 RMK AO2 RAE15 P0005
94908KDBQ DBQ20110422182011304/22/11 18:20:31  5-MIN KDBQ 230020Z 09005KT 4SM TS BR OVC003 06/06 A2963 1350 96 600 090/05 RMK AO2 RAE15 P0005
94908KDBQ DBQ20110422182511004/22/11 18:25:31  5-MIN KDBQ 230025Z 07004KT 4SM -TSRA BR OVC003 06/06 A2963 1350 96 600 070/04 RMK AO2 P0005
94908KDBQ DBQ20110422183011004/22/11 18:30:31  5-MIN KDBQ 230030Z VRB03KT 4SM -TSRA BR OVC003 06/06 A2963 1350 96 600 VRB/03 RMK AO2 P0005
94908KDBQ DBQ20110422183511304/22/11 18:35:31  5-MIN KDBQ 230035Z 10004KT 4SM TS BR OVC003 06/06 A2963 1350 96 600 100/04 RMK AO2 RAE31 P0005
94908KDBQ DBQ20110422184011304/22/11 18:40:31  5-MIN KDBQ 230040Z 00000KT 4SM TS BR OVC003 06/06 A2963 1350 96 600 000/00 RMK AO2 RAE31 P0005
94908KDBQ DBQ20110422184511004/22/11 18:45:31  5-MIN KDBQ 230045Z 00000KT 4SM -TSRA BR OVC003 06/06 A2963 1350 96 600 000/00 RMK AO2 P0005
94908KDBQ DBQ20110422185012704/22/11 18:50:31  5-MIN KDBQ 230050Z 13003KT 3SM -TSRA BR OVC003 06/06 A2963 1350 96 600 130/03 RMK AO2 SLP039 P0005 T00610056
94908KDBQ DBQ20110422185512304/22/11 18:55:31  5-MIN KDBQ 230055Z AUTO 13003KT 2 1/2SM -RA BR OVC003 06/05 A2963 1350 93 600 130/03 RMK AO2 TSE54 P0000
94908KDBQ DBQ20110422190012504/22/11 19:00:31  5-MIN KDBQ 230100Z AUTO 00000KT 2 1/2SM -RA BR OVC003 06/06 A2963 1350 96 600 000/00 RMK AO2 TSE0054 P0000
94908KDBQ DBQ20110422190512504/22/11 19:05:31  5-MIN KDBQ 230105Z AUTO 00000KT 2 1/2SM -RA BR OVC003 06/06 A2964 1340 96 600 000/00 RMK AO2 TSE0054 P0000
94908KDBQ DBQ20110422191012104/22/11 19:10:31  5-MIN KDBQ 230110Z AUTO 00000KT 3SM -RA BR OVC003 06/06 A2964 1340 96 600 000/00 RMK AO2 TSE0054 P0001
94908KDBQ DBQ20110422191512204/22/11 19:15:31  5-MIN KDBQ 230115Z AUTO 15003KT 3SM BR OVC003 06/06 A2964 1340 96 600 150/03 RMK AO2 TSE0054RAE14 P0001
94908KDBQ DBQ20110422192012204/22/11 19:20:31  5-MIN KDBQ 230120Z AUTO VRB04KT 3SM BR OVC003 06/06 A2964 1340 96 600 VRB/04 RMK AO2 TSE0054RAE14 P0001
94908KDBQ DBQ20110422192512604/22/11 19:25:31  5-MIN KDBQ 230125Z AUTO 21004KT 2 1/2SM BR OVC003 06/06 A2965 1330 96 600 210/04 RMK AO2 TSE0054RAE14 P0001
94908KDBQ DBQ20110422193012204/22/11 19:30:31  5-MIN KDBQ 230130Z AUTO 19004KT 2SM BR OVC003 06/06 A2964 1340 96 600 190/04 RMK AO2 TSE0054RAE14 P0001
94908KDBQ DBQ20110422193512904/22/11 19:35:31  5-MIN KDBQ 230135Z AUTO 22003KT 2SM -RA BR OVC003 06/06 A2965 1330 96 600 220/03 RMK AO2 TSE0054RAE14B35 P0002
94908KDBQ DBQ20110422194015804/22/11 19:40:31  5-MIN KDBQ 230140Z AUTO 30006KT 2SM R36/6000VP6000FT -RA BR OVC003 06/06 A2965 1330 96 600 300/06 RMK AO2 TSE0054RAE14B35 CIG 002V007 P0002
94908KDBQ DBQ20110422194515804/22/11 19:45:31  5-MIN KDBQ 230145Z AUTO 31006KT 2SM R36/6000VP6000FT -RA BR OVC003 06/06 A2965 1330 96 600 310/06 RMK AO2 TSE0054RAE14B35 CIG 001V007 P0002
94908KDBQ DBQ20110422195015804/22/11 19:50:31  5-MIN KDBQ 230150Z AUTO VRB03KT 2SM -RA BR OVC003 06/06 A2965 1330 96 600 VRB/03 RMK AO2 TSE0054RAE14B35 CIG 001V007 SLP047 P0002 T00610056
94908KDBQ DBQ20110422195512904/22/11 19:55:31  5-MIN KDBQ 230155Z AUTO 24003KT 2 1/2SM -RA BR OVC003 06/06 A2965 1320 96 600 240/03 RMK AO2 CIG 001V007 P0000
94908KDBQ DBQ20110422200012904/22/11 20:00:31  5-MIN KDBQ 230200Z AUTO 25003KT 3SM BR OVC003 06/06 A2965 1330 96 600 250/03 RMK AO2 RAE0156 CIG 001V007 P0000
94908KDBQ DBQ20110422200513304/22/11 20:05:31  5-MIN KDBQ 230205Z AUTO VRB04KT 2 1/2SM BR OVC003 06/06 A2966 1320 96 600 VRB/04 RMK AO2 RAE0156 CIG 001V006 P0000
94908KDBQ DBQ20110422201011704/22/11 20:10:31  5-MIN KDBQ 230210Z AUTO 27004KT 2SM BR OVC003 06/06 A2966 1320 96 600 270/04 RMK AO2 RAE0156 P0000
94908KDBQ DBQ20110422201511704/22/11 20:15:31  5-MIN KDBQ 230215Z AUTO 00000KT 2SM BR OVC003 06/06 A2966 1320 96 600 000/00 RMK AO2 RAE0156 P0000
94908KDBQ DBQ20110422202011704/22/11 20:20:31  5-MIN KDBQ 230220Z AUTO 00000KT 2SM BR OVC003 06/06 A2966 1320 96 600 000/00 RMK AO2 RAE0156 P0000
94908KDBQ DBQ20110422202512104/22/11 20:25:31  5-MIN KDBQ 230225Z AUTO 29003KT 2 1/2SM BR OVC003 06/06 A2966 1320 96 600 290/03 RMK AO2 RAE0156 P0000
94908KDBQ DBQ20110422203011704/22/11 20:30:31  5-MIN KDBQ 230230Z AUTO 29004KT 3SM BR OVC003 06/06 A2965 1330 96 600 290/04 RMK AO2 RAE0156 P0000
94908KDBQ DBQ20110422203511704/22/11 20:35:31  5-MIN KDBQ 230235Z AUTO 27004KT 3SM BR OVC003 06/06 A2965 1330 96 600 270/04 RMK AO2 RAE0156 P0000
94908KDBQ DBQ20110422204011704/22/11 20:40:31  5-MIN KDBQ 230240Z AUTO 26004KT 3SM BR OVC003 06/06 A2966 1320 96 600 260/04 RMK AO2 RAE0156 P0000
94908KDBQ DBQ20110422204512104/22/11 20:45:31  5-MIN KDBQ 230245Z AUTO 27005KT 2 1/2SM BR OVC003 06/06 A2966 1320 96 600 270/05 RMK AO2 RAE0156 P0000
94908KDBQ DBQ20110422205014604/22/11 20:50:31  5-MIN KDBQ 230250Z AUTO 27004KT 3SM BR OVC003 06/06 A2966 1320 96 600 270/04 RMK AO2 RAE0156 SLP050 P0000 60008 T00610056 53007
94908KDBQ DBQ20110422205510304/22/11 20:55:31  5-MIN KDBQ 230255Z AUTO 26004KT 3SM BR OVC003 06/06 A2966 1320 96 600 260/04 RMK AO2
94908KDBQ DBQ20110422210011004/22/11 21:00:31  5-MIN KDBQ 230300Z AUTO 26004KT 3SM BR BKN003 OVC008 06/06 A2966 1320 96 600 260/04 RMK AO2
94908KDBQ DBQ20110422210511004/22/11 21:05:31  5-MIN KDBQ 230305Z AUTO 27005KT 3SM BR BKN003 OVC008 06/06 A2966 1320 96 600 270/05 RMK AO2
94908KDBQ DBQ20110422211010304/22/11 21:10:31  5-MIN KDBQ 230310Z AUTO 29006KT 3SM BR OVC003 06/06 A2966 1320 96 600 290/06 RMK AO2
94908KDBQ DBQ20110422211510304/22/11 21:15:31  5-MIN KDBQ 230315Z AUTO 28005KT 3SM BR OVC003 06/06 A2966 1320 96 600 280/05 RMK AO2
94908KDBQ DBQ20110422212010304/22/11 21:20:31  5-MIN KDBQ 230320Z AUTO 28005KT 3SM BR OVC003 06/06 A2967 1320 96 600 280/05 RMK AO2
94908KDBQ DBQ20110422212510704/22/11 21:25:31  5-MIN KDBQ 230325Z AUTO 28005KT 2 1/2SM BR OVC003 06/06 A2966 1320 96 600 270/05 RMK AO2
94908KDBQ DBQ20110422213010704/22/11 21:30:31  5-MIN KDBQ 230330Z AUTO 27005KT 2 1/2SM BR OVC003 06/06 A2966 1320 96 600 270/05 RMK AO2
94908KDBQ DBQ20110422213510704/22/11 21:35:31  5-MIN KDBQ 230335Z AUTO 27005KT 2 1/2SM BR OVC003 06/06 A2966 1320 96 600 270/05 RMK AO2
94908KDBQ DBQ20110422214011904/22/11 21:40:31  5-MIN KDBQ 230340Z AUTO 28005KT 2 1/2SM BR OVC003 06/06 A2966 1320 96 600 280/05 RMK AO2 CIG 002V005
94908KDBQ DBQ20110422214511904/22/11 21:45:31  5-MIN KDBQ 230345Z AUTO 27005KT 2 1/2SM BR OVC003 06/06 A2966 1320 96 600 270/05 RMK AO2 CIG 002V005
94908KDBQ DBQ20110422215012404/22/11 21:50:31  5-MIN KDBQ 230350Z AUTO 28005KT 2 1/2SM BR OVC003 06/06 A2966 1320 96 600 280/05 RMK AO2 SLP049 T00610056
94908KDBQ DBQ20110422215510704/22/11 21:55:31  5-MIN KDBQ 230355Z AUTO 28005KT 2 1/2SM BR OVC003 06/06 A2965 1330 96 600 280/05 RMK AO2
94908KDBQ DBQ20110422220010704/22/11 22:00:31  5-MIN KDBQ 230400Z AUTO 27004KT 2 1/2SM BR OVC003 06/06 A2966 1320 96 600 270/04 RMK AO2
94908KDBQ DBQ20110422220510804/22/11 22:05:31  5-MIN KDBQ 230405Z AUTO 26004KT 2 1/2SM BR OVC003 06/06 A2966 1320 100 600 260/04 RMK AO2
94908KDBQ DBQ20110422221010404/22/11 22:10:31  5-MIN KDBQ 230410Z AUTO 26005KT 2SM BR OVC003 06/06 A2966 1320 100 600 260/05 RMK AO2
94908KDBQ DBQ20110422221512104/22/11 22:15:31  5-MIN KDBQ 230415Z AUTO 25005KT 2SM R36/6000VP6000FT BR OVC001 06/06 A2966 1320 100 600 250/05 RMK AO2
94908KDBQ DBQ20110422222012504/22/11 22:20:31  5-MIN KDBQ 230420Z AUTO 26005KT 1 1/4SM R36/3500VP6000FT BR OVC001 06/06 A2966 1320 100 600 260/05 RMK AO2
94908KDBQ DBQ20110422222512204/22/11 22:25:31  5-MIN KDBQ 230425Z AUTO 26005KT 3/4SM R36/2000V6000FT BR OVC001 06/06 A2966 1320 100 600 260/05 RMK AO2
94908KDBQ DBQ20110422223012204/22/11 22:30:31  5-MIN KDBQ 230430Z AUTO 30004KT 1/2SM R36/1600V3000FT FG OVC001 06/06 A2964 1340 100 600 300/04 RMK AO2
94908KDBQ DBQ20110422223512104/22/11 22:35:31  5-MIN KDBQ 230435Z AUTO 29005KT 1/2SM R36/1400V1800FT FG VV001 06/06 A2964 1340 100 600 290/05 RMK AO2
94908KDBQ DBQ20110422224012104/22/11 22:40:31  5-MIN KDBQ 230440Z AUTO 27004KT 1/4SM R36/1200V1600FT FG VV001 06/06 A2964 1340 100 600 270/04 RMK AO2
94908KDBQ DBQ20110422224512104/22/11 22:45:31  5-MIN KDBQ 230445Z AUTO 28005KT 1/4SM R36/1200V1400FT FG VV001 06/06 A2964 1340 100 600 280/05 RMK AO2
94908KDBQ DBQ20110422225013804/22/11 22:50:31  5-MIN KDBQ 230450Z AUTO 25004KT 1/4SM R36/1000V1200FT FG VV001 06/06 A2965 1330 100 600 250/04 RMK AO2 SLP045 T00610061
94908KDBQ DBQ20110422225512104/22/11 22:55:31  5-MIN KDBQ 230455Z AUTO 25006KT 1/4SM R36/1000V1200FT FG VV001 06/06 A2966 1320 100 600 250/06 RMK AO2
94908KDBQ DBQ20110422230011604/22/11 23:00:31  5-MIN KDBQ 230500Z AUTO 24005KT 1/4SM R36/1200FT FG VV001 06/06 A2965 1330 100 600 240/05 RMK AO2
94908KDBQ DBQ20110422230511604/22/11 23:05:31  5-MIN KDBQ 230505Z AUTO 23006KT 1/4SM R36/1200FT FG VV001 06/06 A2967 1310 100 600 230/06 RMK AO2
94908KDBQ DBQ20110422231012104/22/11 23:10:31  5-MIN KDBQ 230510Z AUTO 23006KT 1/4SM R36/1200FT FG VV001 06/06 A2967 1310 100 600 230/06 RMK AO2 TSNO
94908KDBQ DBQ20110422231512604/22/11 23:15:31  5-MIN KDBQ 230515Z AUTO 24007KT 1/4SM R36/1000V1200FT FG VV001 06/06 A2968 1300 100 600 230/07 RMK AO2 TSNO
94908KDBQ DBQ20110422232012604/22/11 23:20:31  5-MIN KDBQ 230520Z AUTO 24007KT 1/4SM R36/1000V1400FT FG VV001 06/06 A2968 1300 100 600 240/07 RMK AO2 TSNO
94908KDBQ DBQ20110422232512704/22/11 23:25:31  5-MIN KDBQ 230525Z AUTO 24010KT 1/4SM R36/1200V2200FT FG VV001 07/06 A2969 1290 96 600 240/10 RMK AO2 PRESRR
94908KDBQ DBQ20110422233012104/22/11 23:30:31  5-MIN KDBQ 230530Z AUTO 24008KT 1/2SM R36/1600VP6000FT FG VV001 07/06 A2968 1300 96 600 240/08 RMK AO2
94908KDBQ DBQ20110422233512104/22/11 23:35:31  5-MIN KDBQ 230535Z AUTO 25008KT 1SM R36/2000VP6000FT BR OVC001 07/07 A2968 1300 100 700 250/08 RMK AO2
94908KDBQ DBQ20110422234012504/22/11 23:40:31  5-MIN KDBQ 230540Z AUTO 26007KT 1 3/4SM R36/3500VP6000FT BR OVC001 07/07 A2968 1310 100 700 260/07 RMK AO2
94908KDBQ DBQ20110422234511504/22/11 23:45:31  5-MIN KDBQ 230545Z AUTO 27008KT 2 1/2SM BR BKN001 OVC007 07/07 A2968 1300 100 700 270/08 RMK AO2
94908KDBQ DBQ20110422235016204/22/11 23:50:31  5-MIN KDBQ 230550Z AUTO 28006KT 3SM BR BKN003 OVC007 07/07 A2967 1310 100 700 280/06 RMK AO2 SLP055 60008 T00670067 10067 20056 400670039 51011
94908KDBQ DBQ20110422235511104/22/11 23:55:31  5-MIN KDBQ 230555Z AUTO 29007KT 4SM BR BKN003 OVC007 07/07 A2968 1310 100 700 280/07 RMK AO2
94908KDBQ DBQ20110423000011004/23/11 00:00:38  5-MIN KDBQ 230600Z AUTO 30006KT 5SM BR SCT003 OVC007 07/06 A2967 1310 96 700 290/06 RMK AO2
94908KDBQ DBQ20110423000511004/23/11 00:05:31  5-MIN KDBQ 230605Z AUTO 30006KT 5SM BR SCT003 OVC009 07/06 A2966 1320 96 700 300/06 RMK AO2
94908KDBQ DBQ20110423001011104/23/11 00:10:31  5-MIN KDBQ 230610Z AUTO 29005KT 5SM BR FEW003 OVC009 06/06 A2966 1320 100 600 290/05 RMK AO2
94908KDBQ DBQ20110423001511604/23/11 00:15:34  5-MIN KDBQ 230615Z AUTO 28005KT 6SM BR BKN009 06/06 A2966 1320 100 600 280/05 RMK AO2 CIG 003V010
94908KDBQ DBQ20110423002011104/23/11 00:20:31  5-MIN KDBQ 230620Z AUTO 27007KT 6SM BR FEW004 BKN009 06/06 A2966 1320 100 600 270/07 RMK AO2
94908KDBQ DBQ20110423002511104/23/11 00:25:31  5-MIN KDBQ 230625Z AUTO 27007KT 5SM BR SCT004 BKN009 06/06 A2967 1310 100 600 270/07 RMK AO2
94908KDBQ DBQ20110423003011004/23/11 00:30:31  5-MIN KDBQ 230630Z AUTO 24005KT 4SM BR BKN002 BKN009 07/06 A2966 1320 96 700 240/05 RMK AO2
94908KDBQ DBQ20110423003512604/23/11 00:35:31  5-MIN KDBQ 230635Z AUTO 27009KT 2 1/2SM BR BKN002 BKN009 07/06 A2966 1320 96 700 270/09 RMK AO2 CIG 001V005
94908KDBQ DBQ20110423004012404/23/11 00:40:31  5-MIN KDBQ 230640Z AUTO 27006KT 1 1/4SM R36/4500VP6000FT BR BKN002 07/06 A2967 1310 96 700 270/06 RMK AO2
94908KDBQ DBQ20110423004512204/23/11 00:45:31  5-MIN KDBQ 230645Z AUTO 25005KT 3/4SM R36/4500VP6000FT BR OVC002 07/06 A2966 1320 96 700 250/05 RMK AO2
94908KDBQ DBQ20110423005012304/23/11 00:50:31  5-MIN KDBQ 230650Z AUTO 26006KT 3/4SM R36/2000VP6000FT BR OVC002 06/06 A2965 1330 100 600 260/06 RMK AO2
94908KDBQ DBQ20110423005512204/23/11 00:55:31  5-MIN KDBQ 230655Z AUTO 25006KT 1/2SM R36/1600V5500FT FG OVC002 06/06 A2964 1330 100 600 250/06 RMK AO2
94908KDBQ DBQ20110423010012804/23/11 01:00:31  5-MIN KDBQ 230700Z AUTO 27006KT 1/2SM R36/1400V2200FT FG VV001 06/06 A2964 1340 100 600 270/06 RMK AO2 PRESFR
94908KDBQ DBQ20110423010512104/23/11 01:05:31  5-MIN KDBQ 230705Z AUTO 30007KT 1/2SM R36/1400V1600FT FG VV001 06/06 A2964 1340 100 600 300/07 RMK AO2
94908KDBQ DBQ20110423011012104/23/11 01:10:31  5-MIN KDBQ 230710Z AUTO 31006KT 1/4SM R36/1400V1600FT FG VV001 06/06 A2963 1350 100 600 310/06 RMK AO2
94908KDBQ DBQ20110423011512804/23/11 01:15:31  5-MIN KDBQ 230715Z AUTO 30005KT 1/4SM R36/1400V1600FT FG VV001 06/06 A2962 1360 100 700 300/05 RMK AO2 PRESFR
94908KDBQ DBQ20110423012012104/23/11 01:20:31  5-MIN KDBQ 230720Z AUTO 26005KT 1/4SM R36/1200V1600FT FG VV001 06/06 A2962 1360 100 700 250/05 RMK AO2
94908KDBQ DBQ20110423012512104/23/11 01:25:31  5-MIN KDBQ 230725Z AUTO 25007KT 1/4SM R36/1000V1400FT FG VV001 06/06 A2964 1340 100 600 250/07 RMK AO2
94908KDBQ DBQ20110423013012104/23/11 01:30:31  5-MIN KDBQ 230730Z AUTO 21009KT 1/4SM R36/1000V1400FT FG VV001 06/06 A2964 1340 100 600 210/09 RMK AO2
94908KDBQ DBQ20110423013512104/23/11 01:35:31  5-MIN KDBQ 230735Z AUTO 22010KT 1/4SM R36/1200V1600FT FG VV001 06/06 A2964 1340 100 600 220/10 RMK AO2
94908KDBQ DBQ20110423014012104/23/11 01:40:31  5-MIN KDBQ 230740Z AUTO 21012KT 1/4SM R36/1200V1600FT FG VV001 06/06 A2964 1330 100 600 210/12 RMK AO2
94908KDBQ DBQ20110423014512104/23/11 01:45:31  5-MIN KDBQ 230745Z AUTO 22012KT 1/4SM R36/1200V1400FT FG VV001 06/06 A2965 1330 100 600 220/12 RMK AO2
94908KDBQ DBQ20110423015014404/23/11 01:50:31  5-MIN KDBQ 230750Z AUTO 22014G17KT 1/4SM R36/1200V1400FT FG VV001 06/06 A2965 1330 100 600 220/14G17 RMK AO2 SLP045 T00610061
94908KDBQ DBQ20110423015512104/23/11 01:55:31  5-MIN KDBQ 230755Z AUTO 23013KT 1/4SM R36/1200V1400FT FG VV001 06/06 A2965 1330 100 600 220/13 RMK AO2
94908KDBQ DBQ20110423020012104/23/11 02:00:31  5-MIN KDBQ 230800Z AUTO 23013KT 1/4SM R36/1200V1400FT FG VV001 06/06 A2964 1340 100 600 230/13 RMK AO2
94908KDBQ DBQ20110423020512104/23/11 02:05:31  5-MIN KDBQ 230805Z AUTO 23010KT 1/4SM R36/1200V1400FT FG VV001 06/06 A2965 1330 100 600 230/10 RMK AO2
94908KDBQ DBQ20110423021012104/23/11 02:10:31  5-MIN KDBQ 230810Z AUTO 22013KT 1/4SM R36/1200V1600FT FG VV001 06/06 A2965 1330 100 600 220/13 RMK AO2
94908KDBQ DBQ20110423021512104/23/11 02:15:31  5-MIN KDBQ 230815Z AUTO 22014KT 1/4SM R36/1200V2200FT FG VV001 06/06 A2965 1330 100 600 220/14 RMK AO2
94908KDBQ DBQ20110423022012004/23/11 02:20:31  5-MIN KDBQ 230820Z AUTO 22015KT 1/2SM R36/1800V2600FT FG VV001 07/06 A2965 1330 96 700 210/15 RMK AO2
94908KDBQ DBQ20110423022512004/23/11 02:25:31  5-MIN KDBQ 230825Z AUTO 22013KT 1/2SM R36/1800V2800FT FG VV001 07/06 A2966 1320 96 700 220/13 RMK AO2
94908KDBQ DBQ20110423023012104/23/11 02:30:31  5-MIN KDBQ 230830Z AUTO 23012KT 1/2SM R36/1600V2800FT FG VV001 07/07 A2966 1320 100 700 230/12 RMK AO2
94908KDBQ DBQ20110423023512104/23/11 02:35:31  5-MIN KDBQ 230835Z AUTO 23013KT 1/2SM R36/1600V2000FT FG VV001 07/07 A2966 1320 100 700 230/13 RMK AO2
94908KDBQ DBQ20110423024012104/23/11 02:40:31  5-MIN KDBQ 230840Z AUTO 23014KT 1/2SM R36/1600V3000FT FG VV001 07/07 A2966 1320 100 700 230/14 RMK AO2
94908KDBQ DBQ20110423024512104/23/11 02:45:31  5-MIN KDBQ 230845Z AUTO 23014KT 1/2SM R36/1800V3000FT FG VV001 07/07 A2966 1320 100 700 230/14 RMK AO2
94908KDBQ DBQ20110423025014404/23/11 02:50:31  5-MIN KDBQ 230850Z AUTO 22013KT 1/2SM R36/1800V2400FT FG VV001 07/07 A2966 1320 100 700 220/13 RMK AO2 SLP051 T00670067 53007
94908KDBQ DBQ20110423025512104/23/11 02:55:31  5-MIN KDBQ 230855Z AUTO 23012KT 1/2SM R36/1400V2200FT FG VV001 07/07 A2966 1320 100 700 230/12 RMK AO2
94908KDBQ DBQ20110423030012104/23/11 03:00:31  5-MIN KDBQ 230900Z AUTO 23012KT 1/2SM R36/1400V2000FT FG VV001 07/07 A2965 1320 100 700 230/12 RMK AO2
94908KDBQ DBQ20110423030512104/23/11 03:05:31  5-MIN KDBQ 230905Z AUTO 22011KT 1/4SM R36/1200V1600FT FG VV001 07/07 A2965 1330 100 700 220/11 RMK AO2
94908KDBQ DBQ20110423031012104/23/11 03:10:31  5-MIN KDBQ 230910Z AUTO 21011KT 1/4SM R36/1200V1400FT FG VV001 07/07 A2965 1330 100 700 210/11 RMK AO2
94908KDBQ DBQ20110423031512104/23/11 03:15:31  5-MIN KDBQ 230915Z AUTO 22011KT 1/4SM R36/1200V1400FT FG VV001 07/07 A2965 1330 100 700 220/11 RMK AO2
94908KDBQ DBQ20110423032012104/23/11 03:20:31  5-MIN KDBQ 230920Z AUTO 22010KT 1/4SM R36/1200V1400FT FG VV001 07/07 A2965 1330 100 700 220/10 RMK AO2
94908KDBQ DBQ20110423032512104/23/11 03:25:31  5-MIN KDBQ 230925Z AUTO 22010KT 1/4SM R36/1200V1400FT FG VV001 07/07 A2966 1320 100 700 220/10 RMK AO2
94908KDBQ DBQ20110423033012104/23/11 03:30:31  5-MIN KDBQ 230930Z AUTO 22011KT 1/4SM R36/1200V1400FT FG VV001 07/07 A2966 1320 100 700 220/11 RMK AO2
94908KDBQ DBQ20110423033512104/23/11 03:35:31  5-MIN KDBQ 230935Z AUTO 23011KT 1/4SM R36/1200V1400FT FG VV001 07/07 A2966 1320 100 700 230/11 RMK AO2
94908KDBQ DBQ20110423034011604/23/11 03:40:31  5-MIN KDBQ 230940Z AUTO 23010KT 1/4SM R36/1200FT FG VV001 07/07 A2966 1320 100 700 230/10 RMK AO2
94908KDBQ DBQ20110423034511604/23/11 03:45:31  5-MIN KDBQ 230945Z AUTO 23011KT 1/4SM R36/1200FT FG VV001 07/07 A2967 1310 100 700 230/11 RMK AO2
94908KDBQ DBQ20110423035013304/23/11 03:50:31  5-MIN KDBQ 230950Z AUTO 23011KT 1/4SM R36/1200FT FG VV001 07/07 A2967 1310 100 700 220/11 RMK AO2 SLP052 T00720072
94908KDBQ DBQ20110423035512104/23/11 03:55:31  5-MIN KDBQ 230955Z AUTO 23012KT 1/4SM R36/1200V1400FT FG VV001 07/07 A2967 1310 100 700 230/12 RMK AO2
94908KDBQ DBQ20110423040012104/23/11 04:00:31  5-MIN KDBQ 231000Z AUTO 23011KT 1/4SM R36/1200V1600FT FG VV001 07/07 A2967 1310 100 700 230/11 RMK AO2
94908KDBQ DBQ20110423040512104/23/11 04:05:31  5-MIN KDBQ 231005Z AUTO 24012KT 1/4SM R36/1400V2000FT FG VV001 07/07 A2967 1310 100 700 240/12 RMK AO2
94908KDBQ DBQ20110423041012004/23/11 04:10:31  5-MIN KDBQ 231010Z AUTO 24013KT 1/2SM R36/1600V3500FT FG VV001 08/07 A2967 1310 96 800 240/13 RMK AO2
94908KDBQ DBQ20110423041512204/23/11 04:15:31  5-MIN KDBQ 231015Z AUTO 24013KT 3/4SM R36/2000VP6000FT BR VV001 08/08 A2967 1310 100 800 240/13 RMK AO2
94908KDBQ DBQ20110423042012504/23/11 04:20:31  5-MIN KDBQ 231020Z AUTO 24014KT 1 1/2SM R36/5500VP6000FT BR OVC001 08/08 A2967 1310 100 800 240/14 RMK AO2
94908KDBQ DBQ20110423042510804/23/11 04:25:31  5-MIN KDBQ 231025Z AUTO 24014KT 2 1/2SM BR OVC001 08/08 A2967 1310 100 800 240/14 RMK AO2
94908KDBQ DBQ20110423043011104/23/11 04:30:31  5-MIN KDBQ 231030Z AUTO 23012KT 4SM BR BKN001 OVC007 08/08 A2967 1310 100 800 230/12 RMK AO2
94908KDBQ DBQ20110423043510404/23/11 04:35:31  5-MIN KDBQ 231035Z AUTO 24010KT 4SM BR OVC005 08/08 A2967 1310 100 800 230/10 RMK AO2
94908KDBQ DBQ20110423044011504/23/11 04:40:31  5-MIN KDBQ 231040Z AUTO 23011KT 4SM BR OVC005 08/08 A2967 1310 96 900 230/11 RMK AO2 CIG 001V009
94908KDBQ DBQ20110423044511004/23/11 04:45:31  5-MIN KDBQ 231045Z 24010KT 4SM BR OVC005 08/08 A2968 1300 96 900 230/10 RMK AO2 CIG 001V009
94908KDBQ DBQ20110423045012704/23/11 04:50:31  5-MIN KDBQ 231050Z 24010KT 4SM BR OVC005 08/08 A2968 1300 96 900 240/10 RMK AO2 CIG 002V009 SLP055 T00830078
94908KDBQ DBQ20110423045511104/23/11 04:55:31  5-MIN KDBQ 231055Z 23011KT 4SM BR OVC005 08/08 A2968 1300 100 800 230/11 RMK AO2 CIG 004V009
94908KDBQ DBQ20110423050009904/23/11 05:00:31  5-MIN KDBQ 231100Z 23009KT 4SM BR OVC005 08/08 A2968 1300 100 800 220/09 RMK AO2
94908KDBQ DBQ20110423050509904/23/11 05:05:31  5-MIN KDBQ 231105Z 23008KT 4SM BR OVC005 08/08 A2969 1300 100 800 220/08 RMK AO2
94908KDBQ DBQ20110423051009904/23/11 05:10:31  5-MIN KDBQ 231110Z 22009KT 4SM BR OVC005 08/08 A2969 1290 100 800 220/09 RMK AO2
94908KDBQ DBQ20110423051509904/23/11 05:15:31  5-MIN KDBQ 231115Z 23008KT 4SM BR OVC005 08/08 A2969 1300 100 800 230/08 RMK AO2
94908KDBQ DBQ20110423052009904/23/11 05:20:31  5-MIN KDBQ 231120Z 23010KT 3SM BR OVC005 08/08 A2969 1290 100 800 230/10 RMK AO2
94908KDBQ DBQ20110423052509904/23/11 05:25:31  5-MIN KDBQ 231125Z 23009KT 3SM BR OVC005 08/08 A2969 1290 100 800 220/09 RMK AO2
94908KDBQ DBQ20110423053009904/23/11 05:30:31  5-MIN KDBQ 231130Z 23009KT 3SM BR OVC005 08/08 A2969 1290 100 800 230/09 RMK AO2
94908KDBQ DBQ20110423053510304/23/11 05:35:31  5-MIN KDBQ 231135Z 24008KT 2 1/2SM BR OVC005 08/08 A2969 1290 100 800 230/08 RMK AO2
94908KDBQ DBQ20110423054010304/23/11 05:40:31  5-MIN KDBQ 231140Z 24009KT 2 1/2SM BR OVC005 08/08 A2969 1290 100 800 230/09 RMK AO2
94908KDBQ DBQ20110423054510304/23/11 05:45:31  5-MIN KDBQ 231145Z 24008KT 2 1/2SM BR OVC005 08/08 A2970 1290 100 800 240/08 RMK AO2
94908KDBQ DBQ20110423055014304/23/11 05:50:31  5-MIN KDBQ 231150Z 24008KT 2 1/2SM BR OVC005 08/07 A2970 1280 96 800 240/08 RMK AO2 SLP063 70055 T00780072 10083 20061 53003
94908KDBQ DBQ20110423055510204/23/11 05:55:31  5-MIN KDBQ 231155Z 24009KT 2 1/2SM BR OVC005 08/07 A2970 1280 96 800 240/09 RMK AO2
94908KDBQ DBQ20110423060010204/23/11 06:00:31  5-MIN KDBQ 231200Z 24008KT 2 1/2SM BR OVC005 08/07 A2970 1280 96 800 240/08 RMK AO2
94908KDBQ DBQ20110423060510204/23/11 06:05:31  5-MIN KDBQ 231205Z 23008KT 2 1/2SM BR OVC005 08/07 A2970 1280 96 800 230/08 RMK AO2
94908KDBQ DBQ20110423061010204/23/11 06:10:31  5-MIN KDBQ 231210Z 23009KT 2 1/2SM BR OVC005 08/07 A2970 1280 96 800 230/09 RMK AO2
94908KDBQ DBQ20110423061510204/23/11 06:15:31  5-MIN KDBQ 231215Z 23009KT 2 1/2SM BR OVC005 08/07 A2971 1280 96 800 230/09 RMK AO2
94908KDBQ DBQ20110423062010204/23/11 06:20:31  5-MIN KDBQ 231220Z 23009KT 2 1/2SM BR OVC005 08/07 A2971 1270 96 800 230/09 RMK AO2
94908KDBQ DBQ20110423062510204/23/11 06:25:31  5-MIN KDBQ 231225Z 24010KT 2 1/2SM BR BKN005 08/07 A2971 1270 96 700 240/10 RMK AO2
94908KDBQ DBQ20110423063010304/23/11 06:30:31  5-MIN KDBQ 231230Z 24010KT 2 1/2SM BR BKN005 08/08 A2971 1270 100 700 240/10 RMK AO2
94908KDBQ DBQ20110423063509804/23/11 06:35:31  5-MIN KDBQ 231235Z 24009KT 4SM BR SCT005 08/08 A2971 1270 96 800 240/09 RMK AO2
94908KDBQ DBQ20110423064009804/23/11 06:40:31  5-MIN KDBQ 231240Z 24011KT 5SM BR SCT005 08/08 A2972 1270 96 800 240/11 RMK AO2
94908KDBQ DBQ20110423064509804/23/11 06:45:31  5-MIN KDBQ 231245Z 24010KT 5SM BR FEW005 08/08 A2972 1270 96 800 240/10 RMK AO2
94908KDBQ DBQ20110423065011504/23/11 06:50:31  5-MIN KDBQ 231250Z 24011KT 6SM BR FEW005 09/08 A2972 1260 93 900 240/11 RMK AO2 SLP070 T00890078
94908KDBQ DBQ20110423065509204/23/11 06:55:31  5-MIN KDBQ 231255Z 25010KT 7SM CLR 09/07 A2972 1260 89 900 250/10 RMK AO2
94908KDBQ DBQ20110423070009204/23/11 07:00:31  5-MIN KDBQ 231300Z 25011KT 8SM CLR 09/07 A2972 1260 89 900 250/11 RMK AO2
94908KDBQ DBQ20110423070509204/23/11 07:05:31  5-MIN KDBQ 231305Z 25012KT 9SM CLR 09/07 A2972 1260 86 900 250/12 RMK AO2
94908KDBQ DBQ20110423071009304/23/11 07:10:31  5-MIN KDBQ 231310Z 25011KT 10SM CLR 09/07 A2972 1260 83 900 250/11 RMK AO2
94908KDBQ DBQ20110423071509304/23/11 07:15:31  5-MIN KDBQ 231315Z 25013KT 10SM CLR 09/06 A2972 1260 79 900 250/13 RMK AO2
94908KDBQ DBQ20110423072009304/23/11 07:20:31  5-MIN KDBQ 231320Z 25014KT 10SM CLR 09/07 A2972 1260 83 900 250/14 RMK AO2
94908KDBQ DBQ20110423072509304/23/11 07:25:31  5-MIN KDBQ 231325Z 26014KT 10SM CLR 09/06 A2972 1260 79 900 260/14 RMK AO2
94908KDBQ DBQ20110423073009304/23/11 07:30:31  5-MIN KDBQ 231330Z 27013KT 10SM CLR 09/06 A2973 1260 76 900 270/13 RMK AO2
94908KDBQ DBQ20110423073511704/23/11 07:35:31  5-MIN KDBQ 231335Z 28019G26KT 10SM CLR 09/05 A2973 1260 74 900 270/19G26 RMK AO2 PK WND 28026/1334
94908KDBQ DBQ20110423074011704/23/11 07:40:31  5-MIN KDBQ 231340Z 27018G26KT 10SM CLR 09/04 A2973 1260 71 900 270/18G26 RMK AO2 PK WND 28026/1334
94908KDBQ DBQ20110423074511704/23/11 07:45:31  5-MIN KDBQ 231345Z 27014G24KT 10SM CLR 09/04 A2973 1250 71 900 270/14G24 RMK AO2 PK WND 28026/1334
94908KDBQ DBQ20110423075013404/23/11 07:50:31  5-MIN KDBQ 231350Z 28020G25KT 10SM CLR 09/04 A2974 1250 71 900 270/20G25 RMK AO2 PK WND 28026/1334 SLP075 T00940044
94908KDBQ DBQ20110423075511704/23/11 07:55:31  5-MIN KDBQ 231355Z 28018G26KT 10SM CLR 09/04 A2974 1250 68 900 280/18G26 RMK AO2 PK WND 28026/1354
94908KDBQ DBQ20110423080011704/23/11 08:00:31  5-MIN KDBQ 231400Z 28020G26KT 10SM CLR 09/03 A2974 1250 65 900 280/20G26 RMK AO2 PK WND 28026/1354
94908KDBQ DBQ20110423080511704/23/11 08:05:31  5-MIN KDBQ 231405Z 28019G27KT 10SM CLR 09/04 A2974 1240 68 900 280/19G27 RMK AO2 PK WND 28027/1401
94908KDBQ DBQ20110423081012004/23/11 08:10:31  5-MIN KDBQ 231410Z 28014G27KT 10SM FEW033 09/04 A2975 1240 68 900 280/14G27 RMK AO2 PK WND 28027/1401
94908KDBQ DBQ20110423081512004/23/11 08:15:31  5-MIN KDBQ 231415Z 27019G23KT 10SM FEW033 09/04 A2975 1240 68 900 270/19G23 RMK AO2 PK WND 28027/1401
94908KDBQ DBQ20110423082012004/23/11 08:20:31  5-MIN KDBQ 231420Z 27017G23KT 10SM FEW031 09/04 A2974 1240 68 900 270/17G23 RMK AO2 PK WND 28027/1401
94908KDBQ DBQ20110423082511404/23/11 08:25:31  5-MIN KDBQ 231425Z 27017KT 10SM FEW031 09/04 A2975 1240 68 900 270/17 RMK AO2 PK WND 28027/1401
94908KDBQ DBQ20110423083011504/23/11 08:30:31  5-MIN KDBQ 231430Z 28015KT 10SM FEW031 10/04 A2975 1240 68 1000 280/15 RMK AO2 PK WND 28027/1401
94908KDBQ DBQ20110423083512004/23/11 08:35:31  5-MIN KDBQ 231435Z 28015G20KT 10SM SCT031 09/04 A2975 1230 71 900 270/15G20 RMK AO2 PK WND 28027/1401
94908KDBQ DBQ20110423084012004/23/11 08:40:31  5-MIN KDBQ 231440Z 28015G22KT 10SM BKN031 09/04 A2976 1230 71 900 280/15G22 RMK AO2 PK WND 28027/1401
94908KDBQ DBQ20110423084512704/23/11 08:45:31  5-MIN KDBQ 231445Z 28014G22KT 10SM SCT026 BKN032 09/04 A2976 1220 71 800 280/14G22 RMK AO2 PK WND 28027/1401
94908KDBQ DBQ20110423085012104/23/11 08:50:31  5-MIN KDBQ 231450Z 28013KT 10SM BKN026 BKN032 09/04 A2977 1220 73 800 280/13 RMK AO2 PK WND 28027/1401
94908KDBQ DBQ20110423085510304/23/11 08:55:31  5-MIN KDBQ 231455Z 26014KT 10SM BKN024 OVC032 09/04 A2977 1220 73 800 260/14 RMK AO2
94908KDBQ DBQ20110423090010304/23/11 09:00:31  5-MIN KDBQ 231500Z 26016KT 10SM BKN024 OVC032 09/04 A2977 1220 73 800 260/16 RMK AO2
94908KDBQ DBQ20110423090509604/23/11 09:05:31  5-MIN KDBQ 231505Z 27013KT 10SM OVC026 09/04 A2977 1210 73 800 260/13 RMK AO2
94908KDBQ DBQ20110423091009604/23/11 09:10:31  5-MIN KDBQ 231510Z 26015KT 10SM OVC026 09/04 A2978 1210 73 800 260/15 RMK AO2
94908KDBQ DBQ20110423091510904/23/11 09:15:31  5-MIN KDBQ 231515Z 27016G20KT 10SM BKN026 OVC032 09/04 A2978 1210 73 800 270/16G20 RMK AO2
94908KDBQ DBQ20110423092010904/23/11 09:20:31  5-MIN KDBQ 231520Z 27012G20KT 10SM BKN026 OVC032 09/05 A2978 1210 74 900 270/12G20 RMK AO2
94908KDBQ DBQ20110423092512704/23/11 09:25:31  5-MIN KDBQ 231525Z 27017G26KT 10SM BKN026 OVC032 09/05 A2978 1210 76 800 270/17G26 RMK AO2 PK WND 28026/1525
94908KDBQ DBQ20110423093012704/23/11 09:30:31  5-MIN KDBQ 231530Z 27015G26KT 10SM BKN026 OVC033 09/04 A2978 1200 73 800 270/15G26 RMK AO2 PK WND 28026/1525
94908KDBQ DBQ20110423093512704/23/11 09:35:31  5-MIN KDBQ 231535Z 28014G21KT 10SM BKN026 OVC033 09/05 A2979 1200 76 800 280/14G21 RMK AO2 PK WND 28026/1525
94908KDBQ DBQ20110423094012704/23/11 09:40:31  5-MIN KDBQ 231540Z 27017G25KT 10SM BKN026 OVC033 09/05 A2979 1200 76 800 270/17G25 RMK AO2 PK WND 28026/1525
94908KDBQ DBQ20110423094512704/23/11 09:45:31  5-MIN KDBQ 231545Z 27014G25KT 10SM BKN026 OVC031 09/04 A2980 1190 73 800 270/14G25 RMK AO2 PK WND 28026/1525
94908KDBQ DBQ20110423095013704/23/11 09:50:31  5-MIN KDBQ 231550Z 27016G24KT 10SM OVC026 09/04 A2980 1190 73 800 270/16G24 RMK AO2 PK WND 28026/1525 SLP097 T00890044
94908KDBQ DBQ20110423095510204/23/11 09:55:31  5-MIN KDBQ 231555Z 27014G24KT 10SM OVC026 09/04 A2980 1190 73 800 270/14G24 RMK AO2
94908KDBQ DBQ20110423100010204/23/11 10:00:31  5-MIN KDBQ 231600Z 27013G21KT 10SM OVC026 09/04 A2981 1180 73 800 270/13G21 RMK AO2
94908KDBQ DBQ20110423100510204/23/11 10:05:31  5-MIN KDBQ 231605Z 26015G21KT 10SM OVC024 09/04 A2981 1180 73 800 260/15G21 RMK AO2
94908KDBQ DBQ20110423101009604/23/11 10:10:31  5-MIN KDBQ 231610Z 27016KT 10SM OVC024 09/04 A2981 1180 73 800 270/16 RMK AO2
94908KDBQ DBQ20110423101510904/23/11 10:15:31  5-MIN KDBQ 231615Z 28015G22KT 10SM BKN024 OVC030 09/04 A2982 1180 73 800 280/15G22 RMK AO2
94908KDBQ DBQ20110423102010904/23/11 10:20:31  5-MIN KDBQ 231620Z 27018G25KT 10SM BKN024 OVC030 09/04 A2982 1170 71 800 270/18G25 RMK AO2
94908KDBQ DBQ20110423102510904/23/11 10:25:31  5-MIN KDBQ 231625Z 27015G25KT 10SM SCT024 OVC030 09/04 A2982 1170 71 800 270/15G25 RMK AO2
94908KDBQ DBQ20110423103010904/23/11 10:30:31  5-MIN KDBQ 231630Z 26014G22KT 10SM FEW024 OVC032 10/05 A2982 1170 71 900 260/14G22 RMK AO2
94908KDBQ DBQ20110423103510204/23/11 10:35:31  5-MIN KDBQ 231635Z 27017G24KT 10SM OVC032 10/05 A2982 1170 71 900 270/17G24 RMK AO2
94908KDBQ DBQ20110423104010204/23/11 10:40:31  5-MIN KDBQ 231640Z 26017G24KT 10SM OVC031 10/04 A2983 1160 68 900 260/17G24 RMK AO2
94908KDBQ DBQ20110423104510204/23/11 10:45:31  5-MIN KDBQ 231645Z 27015G23KT 10SM OVC031 09/04 A2983 1160 71 800 270/15G23 RMK AO2
94908KDBQ DBQ20110423105010904/23/11 10:50:31  5-MIN KDBQ 231650Z 27015G22KT 10SM BKN027 OVC034 09/04 A2983 1160 71 800 270/15G22 RMK AO2
94908KDBQ DBQ20110423105510304/23/11 10:55:31  5-MIN KDBQ 231655Z 27015KT 10SM BKN027 OVC034 09/04 A2984 1160 71 800 270/15 RMK AO2
94908KDBQ DBQ20110423110010204/23/11 11:00:31  5-MIN KDBQ 231700Z 28016G22KT 10SM OVC027 09/04 A2984 1150 71 800 280/16G22 RMK AO2
94908KDBQ DBQ20110423110510904/23/11 11:05:31  5-MIN KDBQ 231705Z 27016G21KT 10SM BKN027 OVC032 09/04 A2984 1150 71 800 260/16G21 RMK AO2
94908KDBQ DBQ20110423111010204/23/11 11:10:31  5-MIN KDBQ 231710Z 26016G22KT 10SM OVC027 09/04 A2984 1150 71 800 260/16G22 RMK AO2
94908KDBQ DBQ20110423111510204/23/11 11:15:31  5-MIN KDBQ 231715Z 28013G22KT 10SM OVC025 09/05 A2985 1150 74 800 280/13G22 RMK AO2
94908KDBQ DBQ20110423112009604/23/11 11:20:31  5-MIN KDBQ 231720Z 27014KT 10SM OVC025 09/05 A2985 1140 74 800 270/14 RMK AO2
94908KDBQ DBQ20110423112509604/23/11 11:25:31  5-MIN KDBQ 231725Z 28015KT 10SM OVC025 09/05 A2985 1150 74 800 280/15 RMK AO2
94908KDBQ DBQ20110423113009604/23/11 11:30:31  5-MIN KDBQ 231730Z 27014KT 10SM OVC025 10/05 A2985 1150 71 900 270/14 RMK AO2
94908KDBQ DBQ20110423113510204/23/11 11:35:31  5-MIN KDBQ 231735Z 28012G21KT 10SM OVC025 10/06 A2985 1150 74 900 280/12G21 RMK AO2
94908KDBQ DBQ20110423114009604/23/11 11:40:31  5-MIN KDBQ 231740Z 27012KT 10SM OVC025 11/06 A2985 1150 74 900 270/12 RMK AO2
94908KDBQ DBQ20110423114509604/23/11 11:45:31  5-MIN KDBQ 231745Z 27017KT 10SM OVC025 10/05 A2984 1150 71 900 270/17 RMK AO2
94908KDBQ DBQ20110423115013704/23/11 11:50:31  5-MIN KDBQ 231750Z 27015G21KT 10SM OVC023 10/05 A2985 1140 71 900 270/15G21 RMK AO2 SLP113 T01000050 10106 20078 53022
94908KDBQ DBQ20110423115510904/23/11 11:55:31  5-MIN KDBQ 231755Z 27018G24KT 10SM BKN023 OVC034 10/05 A2985 1140 71 900 270/18G24 RMK AO2
94908KDBQ DBQ20110423120010904/23/11 12:00:31  5-MIN KDBQ 231800Z 27016G25KT 10SM BKN023 OVC034 10/05 A2985 1140 71 900 270/16G25 RMK AO2
94908KDBQ DBQ20110423120510904/23/11 12:05:31  5-MIN KDBQ 231805Z 26013G25KT 10SM BKN025 OVC034 10/06 A2985 1140 74 900 260/13G25 RMK AO2
94908KDBQ DBQ20110423121010904/23/11 12:10:31  5-MIN KDBQ 231810Z 27012G23KT 10SM BKN025 OVC034 11/06 A2985 1140 74 900 270/12G23 RMK AO2
94908KDBQ DBQ20110423121510904/23/11 12:15:31  5-MIN KDBQ 231815Z 27016G20KT 10SM SCT023 OVC034 11/06 A2986 1140 71 900 270/16G20 RMK AO2
94908KDBQ DBQ20110423122010904/23/11 12:20:31  5-MIN KDBQ 231820Z 27015G22KT 10SM SCT023 OVC032 10/06 A2986 1140 74 900 260/15G22 RMK AO2
94908KDBQ DBQ20110423122510904/23/11 12:25:31  5-MIN KDBQ 231825Z 26016G22KT 10SM SCT023 OVC032 11/06 A2986 1140 71 900 260/16G22 RMK AO2
94908KDBQ DBQ20110423123010404/23/11 12:30:31  5-MIN KDBQ 231830Z 28015KT 10SM BKN023 OVC032 11/06 A2985 1140 71 1000 280/15 RMK AO2
94908KDBQ DBQ20110423123511004/23/11 12:35:31  5-MIN KDBQ 231835Z 27015G23KT 10SM SCT023 OVC032 11/06 A2986 1140 71 1000 270/15G23 RMK AO2
94908KDBQ DBQ20110423124010304/23/11 12:40:31  5-MIN KDBQ 231840Z 28017KT 10SM FEW023 OVC032 11/06 A2985 1140 71 900 270/17 RMK AO2
94908KDBQ DBQ20110423124510404/23/11 12:45:31  5-MIN KDBQ 231845Z 27014KT 10SM FEW023 OVC032 11/06 A2985 1140 71 1000 270/14 RMK AO2
94908KDBQ DBQ20110423125012604/23/11 12:50:31  5-MIN KDBQ 231850Z 28015G23KT 10SM FEW023 OVC032 11/05 A2985 1140 68 900 270/15G23 RMK AO2 SLP114 T01060050
94908KDBQ DBQ20110423125511004/23/11 12:55:31  5-MIN KDBQ 231855Z 28015G23KT 10SM FEW023 OVC032 11/06 A2986 1140 68 1000 280/15G23 RMK AO2
94908KDBQ DBQ20110423130009604/23/11 13:00:31  5-MIN KDBQ 231900Z 28013KT 10SM OVC032 11/06 A2986 1140 71 900 280/13 RMK AO2
94908KDBQ DBQ20110423130509604/23/11 13:05:31  5-MIN KDBQ 231905Z 28014KT 10SM OVC030 11/06 A2986 1130 71 900 280/14 RMK AO2
94908KDBQ DBQ20110423131010204/23/11 13:10:31  5-MIN KDBQ 231910Z 28014G18KT 10SM OVC030 11/06 A2986 1130 71 900 280/14G18 RMK AO2
94908KDBQ DBQ20110423131510204/23/11 13:15:31  5-MIN KDBQ 231915Z 28013G18KT 10SM OVC028 11/06 A2986 1140 71 900 280/13G18 RMK AO2
94908KDBQ DBQ20110423132011004/23/11 13:20:31  5-MIN KDBQ 231920Z 27011G18KT 10SM BKN030 OVC034 11/06 A2986 1140 68 1000 270/11G18 RMK AO2
94908KDBQ DBQ20110423132510404/23/11 13:25:31  5-MIN KDBQ 231925Z 27013KT 10SM BKN027 OVC034 12/06 A2986 1140 68 1000 270/13 RMK AO2
94908KDBQ DBQ20110423133010404/23/11 13:30:31  5-MIN KDBQ 231930Z 27011KT 10SM BKN029 OVC034 11/06 A2986 1130 71 1000 270/11 RMK AO2
94908KDBQ DBQ20110423133510304/23/11 13:35:31  5-MIN KDBQ 231935Z 27011KT 10SM FEW025 OVC034 11/06 A2986 1140 74 900 270/11 RMK AO2
94908KDBQ DBQ20110423134010304/23/11 13:40:31  5-MIN KDBQ 231940Z 27013KT 10SM FEW025 OVC032 11/06 A2986 1130 74 900 270/13 RMK AO2
94908KDBQ DBQ20110423134510404/23/11 13:45:31  5-MIN KDBQ 231945Z 27014KT 10SM BKN028 OVC034 11/06 A2986 1130 71 1000 270/14 RMK AO2
94908KDBQ DBQ20110423135012104/23/11 13:50:31  5-MIN KDBQ 231950Z 27015KT 10SM SCT028 OVC036 11/06 A2986 1130 71 1000 270/15 RMK AO2 SLP117 T01110061
94908KDBQ DBQ20110423135510404/23/11 13:55:31  5-MIN KDBQ 231955Z 27014KT 10SM SCT028 OVC036 11/06 A2987 1130 71 1000 270/14 RMK AO2
94908KDBQ DBQ20110423140010404/23/11 14:00:31  5-MIN KDBQ 232000Z 29013KT 10SM SCT028 OVC036 12/06 A2986 1130 68 1000 290/13 RMK AO2
94908KDBQ DBQ20110423140510404/23/11 14:05:31  5-MIN KDBQ 232005Z 27013KT 10SM FEW027 OVC036 11/06 A2986 1130 71 1000 270/13 RMK AO2
94908KDBQ DBQ20110423141011004/23/11 14:10:31  5-MIN KDBQ 232010Z 28011G18KT 10SM FEW027 OVC034 11/06 A2986 1130 71 1000 280/11G18 RMK AO2
94908KDBQ DBQ20110423141510404/23/11 14:15:31  5-MIN KDBQ 232015Z 28011KT 10SM SCT025 OVC034 11/06 A2986 1130 71 1000 280/11 RMK AO2
94908KDBQ DBQ20110423142010404/23/11 14:20:31  5-MIN KDBQ 232020Z 29012KT 10SM SCT025 OVC034 12/06 A2987 1130 68 1000 280/12 RMK AO2
94908KDBQ DBQ20110423142511004/23/11 14:25:31  5-MIN KDBQ 232025Z 30013G19KT 10SM FEW025 OVC034 12/06 A2987 1130 68 1000 290/13G19 RMK AO2
94908KDBQ DBQ20110423143011004/23/11 14:30:31  5-MIN KDBQ 232030Z 27014G19KT 10SM SCT025 OVC036 12/06 A2987 1130 68 1000 270/14G19 RMK AO2
94908KDBQ DBQ20110423143510404/23/11 14:35:31  5-MIN KDBQ 232035Z 28011KT 10SM FEW025 OVC036 12/06 A2987 1130 68 1000 280/11 RMK AO2
94908KDBQ DBQ20110423144010404/23/11 14:40:31  5-MIN KDBQ 232040Z 27014KT 10SM FEW027 OVC036 12/06 A2987 1130 68 1000 270/14 RMK AO2
94908KDBQ DBQ20110423144509704/23/11 14:45:31  5-MIN KDBQ 232045Z 28014KT 10SM OVC036 12/06 A2987 1130 68 1000 280/14 RMK AO2
94908KDBQ DBQ20110423145012004/23/11 14:50:31  5-MIN KDBQ 232050Z 27014KT 10SM OVC036 12/06 A2987 1130 68 1000 270/14 RMK AO2 SLP117 T01170061 51017
94908KDBQ DBQ20110423145509704/23/11 14:55:31  5-MIN KDBQ 232055Z 27013KT 10SM OVC038 12/06 A2987 1130 68 1000 270/13 RMK AO2
94908KDBQ DBQ20110423150009704/23/11 15:00:31  5-MIN KDBQ 232100Z 28013KT 10SM OVC038 13/07 A2986 1130 69 1200 270/13 RMK AO2
94908KDBQ DBQ20110423150510304/23/11 15:05:31  5-MIN KDBQ 232105Z 28012G17KT 10SM OVC040 13/07 A2986 1130 69 1200 280/12G17 RMK AO2
94908KDBQ DBQ20110423151010304/23/11 15:10:31  5-MIN KDBQ 232110Z 28011G17KT 10SM OVC040 13/07 A2986 1130 66 1200 270/11G17 RMK AO2
94908KDBQ DBQ20110423151509704/23/11 15:15:31  5-MIN KDBQ 232115Z 28011KT 10SM OVC040 12/06 A2987 1130 66 1100 280/11 RMK AO2
94908KDBQ DBQ20110423152009704/23/11 15:20:31  5-MIN KDBQ 232120Z 28012KT 10SM OVC040 12/06 A2987 1130 68 1000 280/12 RMK AO2
94908KDBQ DBQ20110423152510404/23/11 15:25:31  5-MIN KDBQ 232125Z 28013KT 10SM SCT032 OVC042 11/06 A2987 1130 71 1000 280/13 RMK AO2
94908KDBQ DBQ20110423153010404/23/11 15:30:31  5-MIN KDBQ 232130Z 28013KT 10SM BKN032 OVC042 11/06 A2987 1120 71 1000 280/13 RMK AO2
94908KDBQ DBQ20110423153509704/23/11 15:35:31  5-MIN KDBQ 232135Z 28012KT 10SM OVC037 11/06 A2987 1120 71 1000 280/12 RMK AO2
94908KDBQ DBQ20110423154009704/23/11 15:40:31  5-MIN KDBQ 232140Z 28014KT 10SM OVC037 12/06 A2987 1120 68 1000 280/14 RMK AO2
94908KDBQ DBQ20110423154509704/23/11 15:45:31  5-MIN KDBQ 232145Z 28013KT 10SM OVC038 12/06 A2988 1120 68 1000 280/13 RMK AO2
94908KDBQ DBQ20110423155012104/23/11 15:50:31  5-MIN KDBQ 232150Z 28012KT 10SM SCT033 OVC041 12/06 A2988 1120 68 1000 280/12 RMK AO2 SLP121 T01170061
94908KDBQ DBQ20110423155510404/23/11 15:55:31  5-MIN KDBQ 232155Z 28010KT 10SM FEW033 OVC039 12/06 A2988 1120 68 1000 280/10 RMK AO2
94908KDBQ DBQ20110423160011004/23/11 16:00:31  5-MIN KDBQ 232200Z 28011G16KT 10SM FEW026 OVC039 12/07 A2988 1110 71 1000 280/11G16 RMK AO2
94908KDBQ DBQ20110423160511104/23/11 16:05:31  5-MIN KDBQ 232205Z 28014KT 10SM FEW024 SCT030 OVC039 11/06 A2988 1110 71 1000 280/14 RMK AO2
94908KDBQ DBQ20110423161011004/23/11 16:10:31  5-MIN KDBQ 232210Z 28013KT 10SM BKN027 BKN033 OVC041 11/06 A2989 1110 74 900 280/13 RMK AO2
94908KDBQ DBQ20110423161511004/23/11 16:15:31  5-MIN KDBQ 232215Z 28012KT 10SM SCT027 BKN033 OVC041 11/06 A2989 1110 74 900 280/12 RMK AO2
94908KDBQ DBQ20110423162011004/23/11 16:20:31  5-MIN KDBQ 232220Z 27012KT 10SM BKN027 BKN033 OVC041 11/07 A2989 1100 77 900 270/12 RMK AO2
94908KDBQ DBQ20110423162510304/23/11 16:25:31  5-MIN KDBQ 232225Z 28014KT 10SM SCT027 OVC033 11/07 A2990 1100 77 900 270/14 RMK AO2
94908KDBQ DBQ20110423163010304/23/11 16:30:31  5-MIN KDBQ 232230Z 27012KT 10SM SCT027 OVC035 11/06 A2990 1100 74 900 270/12 RMK AO2
94908KDBQ DBQ20110423163510304/23/11 16:35:31  5-MIN KDBQ 232235Z 28011KT 10SM FEW027 OVC037 11/07 A2990 1100 77 900 280/11 RMK AO2
94908KDBQ DBQ20110423164009604/23/11 16:40:31  5-MIN KDBQ 232240Z 28013KT 10SM OVC037 11/07 A2991 1090 77 900 280/13 RMK AO2
94908KDBQ DBQ20110423164510304/23/11 16:45:31  5-MIN KDBQ 232245Z 29010KT 10SM FEW020 OVC037 11/07 A2991 1090 77 900 290/10 RMK AO2
94908KDBQ DBQ20110423165012004/23/11 16:50:31  5-MIN KDBQ 232250Z 29013KT 10SM SCT020 OVC039 11/06 A2992 1080 74 800 290/13 RMK AO2 SLP134 T01060061
94908KDBQ DBQ20110423165510304/23/11 16:55:31  5-MIN KDBQ 232255Z 29014KT 10SM FEW020 OVC039 10/06 A2992 1080 77 800 290/14 RMK AO2
94908KDBQ DBQ20110423170010304/23/11 17:00:31  5-MIN KDBQ 232300Z 29015KT 10SM FEW020 OVC039 10/06 A2993 1070 77 800 290/15 RMK AO2
94908KDBQ DBQ20110423170510304/23/11 17:05:31  5-MIN KDBQ 232305Z 29013KT 10SM FEW020 OVC039 10/06 A2992 1070 77 800 290/13 RMK AO2
94908KDBQ DBQ20110423171010304/23/11 17:10:31  5-MIN KDBQ 232310Z 29012KT 10SM FEW020 OVC037 10/06 A2992 1070 77 800 290/12 RMK AO2
94908KDBQ DBQ20110423171510304/23/11 17:15:31  5-MIN KDBQ 232315Z 29013KT 10SM FEW020 OVC037 10/06 A2992 1070 77 800 290/13 RMK AO2
94908KDBQ DBQ20110423172009604/23/11 17:20:31  5-MIN KDBQ 232320Z 29012KT 10SM OVC037 10/06 A2993 1070 77 800 290/12 RMK AO2
94908KDBQ DBQ20110423172509604/23/11 17:25:31  5-MIN KDBQ 232325Z 29013KT 10SM OVC037 10/06 A2993 1070 77 800 290/13 RMK AO2
94908KDBQ DBQ20110423173009604/23/11 17:30:31  5-MIN KDBQ 232330Z 30012KT 10SM OVC039 10/06 A2993 1070 77 800 300/12 RMK AO2
94908KDBQ DBQ20110423173510204/23/11 17:35:31  5-MIN KDBQ 232335Z 29011G19KT 10SM OVC041 10/06 A2994 1060 77 800 290/11G19 RMK AO2
94908KDBQ DBQ20110423174010204/23/11 17:40:31  5-MIN KDBQ 232340Z 29011G19KT 10SM BKN041 10/06 A2994 1060 77 800 290/11G19 RMK AO2
94908KDBQ DBQ20110423174509604/23/11 17:45:31  5-MIN KDBQ 232345Z 29011KT 10SM BKN043 10/06 A2994 1060 77 800 290/11 RMK AO2
94908KDBQ DBQ20110423175013104/23/11 17:50:31  5-MIN KDBQ 232350Z 29011KT 10SM SCT043 09/06 A2994 1060 79 700 290/11 RMK AO2 SLP145 T00940061 10133 20094 51005
94908KDBQ DBQ20110423175509604/23/11 17:55:31  5-MIN KDBQ 232355Z 30009KT 10SM SCT045 09/06 A2994 1060 79 700 290/09 RMK AO2
94908KDBQ DBQ20110423180009604/23/11 18:00:31  5-MIN KDBQ 240000Z 30009KT 10SM SCT047 09/06 A2994 1060 79 700 300/09 RMK AO2
94908KDBQ DBQ20110423180510204/23/11 18:05:31  5-MIN KDBQ 240005Z 29013G18KT 10SM SCT047 09/06 A2994 1060 76 700 290/13G18 RMK AO2
94908KDBQ DBQ20110423181009604/23/11 18:10:31  5-MIN KDBQ 240010Z 28013KT 10SM SCT047 09/05 A2995 1060 74 700 280/13 RMK AO2
94908KDBQ DBQ20110423181509604/23/11 18:15:31  5-MIN KDBQ 240015Z 29013KT 10SM BKN045 09/05 A2994 1060 74 700 290/13 RMK AO2
94908KDBQ DBQ20110423182009604/23/11 18:20:31  5-MIN KDBQ 240020Z 30011KT 10SM BKN045 09/05 A2994 1060 74 700 290/11 RMK AO2
94908KDBQ DBQ20110423182509604/23/11 18:25:31  5-MIN KDBQ 240025Z 29011KT 10SM BKN045 09/05 A2994 1060 74 700 290/11 RMK AO2
94908KDBQ DBQ20110423183010204/23/11 18:30:31  5-MIN KDBQ 240030Z 30010G18KT 10SM OVC045 09/05 A2995 1060 76 600 300/10G18 RMK AO2
94908KDBQ DBQ20110423183509604/23/11 18:35:31  5-MIN KDBQ 240035Z 29009KT 10SM BKN045 09/05 A2994 1060 76 600 290/09 RMK AO2
94908KDBQ DBQ20110423184009604/23/11 18:40:31  5-MIN KDBQ 240040Z 29009KT 10SM BKN045 09/05 A2995 1050 76 600 290/09 RMK AO2
94908KDBQ DBQ20110423184509604/23/11 18:45:31  5-MIN KDBQ 240045Z 29009KT 10SM BKN045 09/05 A2995 1050 76 600 290/09 RMK AO2
94908KDBQ DBQ20110423185011304/23/11 18:50:31  5-MIN KDBQ 240050Z 30010KT 10SM BKN045 09/05 A2995 1050 76 600 300/10 RMK AO2 SLP146 T00890050
94908KDBQ DBQ20110423185509604/23/11 18:55:31  5-MIN KDBQ 240055Z 29010KT 10SM BKN045 09/05 A2995 1050 76 600 290/10 RMK AO2
94908KDBQ DBQ20110423190010104/23/11 19:00:31  5-MIN KDBQ 240100Z AUTO 30009KT 10SM SCT045 09/05 A2995 1050 76 600 300/09 RMK AO2
94908KDBQ DBQ20110423190510104/23/11 19:05:31  5-MIN KDBQ 240105Z AUTO 30008KT 10SM BKN045 08/05 A2995 1050 79 500 300/08 RMK AO2
94908KDBQ DBQ20110423191010104/23/11 19:10:31  5-MIN KDBQ 240110Z AUTO 30007KT 10SM BKN045 08/05 A2995 1050 79 500 300/07 RMK AO2
94908KDBQ DBQ20110423191510104/23/11 19:15:31  5-MIN KDBQ 240115Z AUTO 30007KT 10SM BKN045 08/05 A2996 1050 79 500 300/07 RMK AO2
94908KDBQ DBQ20110423192010104/23/11 19:20:31  5-MIN KDBQ 240120Z AUTO 30007KT 10SM SCT045 08/05 A2996 1040 79 500 300/07 RMK AO2
94908KDBQ DBQ20110423192510104/23/11 19:25:31  5-MIN KDBQ 240125Z AUTO 31008KT 10SM SCT045 08/05 A2996 1050 79 500 310/08 RMK AO2
94908KDBQ DBQ20110423193010104/23/11 19:30:31  5-MIN KDBQ 240130Z AUTO 31008KT 10SM SCT045 08/05 A2996 1040 79 500 310/08 RMK AO2
94908KDBQ DBQ20110423193510104/23/11 19:35:31  5-MIN KDBQ 240135Z AUTO 31008KT 10SM FEW045 08/05 A2996 1040 79 500 310/08 RMK AO2
94908KDBQ DBQ20110423194009804/23/11 19:40:31  5-MIN KDBQ 240140Z AUTO 32008KT 10SM CLR 08/05 A2996 1040 82 500 320/08 RMK AO2
94908KDBQ DBQ20110423194509804/23/11 19:45:31  5-MIN KDBQ 240145Z AUTO 32009KT 10SM CLR 08/04 A2997 1040 76 500 320/09 RMK AO2
94908KDBQ DBQ20110423195011504/23/11 19:50:31  5-MIN KDBQ 240150Z AUTO 32009KT 10SM CLR 08/04 A2997 1040 76 500 320/09 RMK AO2 SLP152 T00830044
94908KDBQ DBQ20110423195509804/23/11 19:55:31  5-MIN KDBQ 240155Z AUTO 33009KT 10SM CLR 08/04 A2996 1040 76 500 320/09 RMK AO2
94908KDBQ DBQ20110423200009804/23/11 20:00:31  5-MIN KDBQ 240200Z AUTO 32010KT 10SM CLR 08/04 A2996 1040 76 500 320/10 RMK AO2
94908KDBQ DBQ20110423200509804/23/11 20:05:31  5-MIN KDBQ 240205Z AUTO 32009KT 10SM CLR 08/04 A2997 1030 76 500 320/09 RMK AO2
94908KDBQ DBQ20110423201009804/23/11 20:10:31  5-MIN KDBQ 240210Z AUTO 32008KT 10SM CLR 08/04 A2997 1030 79 400 320/08 RMK AO2
94908KDBQ DBQ20110423201509804/23/11 20:15:31  5-MIN KDBQ 240215Z AUTO 33009KT 10SM CLR 08/04 A2997 1030 79 400 330/09 RMK AO2
94908KDBQ DBQ20110423202009804/23/11 20:20:31  5-MIN KDBQ 240220Z AUTO 33008KT 10SM CLR 08/04 A2997 1030 79 400 320/08 RMK AO2
94908KDBQ DBQ20110423202509804/23/11 20:25:31  5-MIN KDBQ 240225Z AUTO 33008KT 10SM CLR 08/04 A2997 1030 79 400 330/08 RMK AO2
94908KDBQ DBQ20110423203009804/23/11 20:30:31  5-MIN KDBQ 240230Z AUTO 33006KT 10SM CLR 08/04 A2998 1030 79 400 320/06 RMK AO2
94908KDBQ DBQ20110423203509804/23/11 20:35:31  5-MIN KDBQ 240235Z AUTO 33006KT 10SM CLR 08/04 A2998 1020 79 400 320/06 RMK AO2
94908KDBQ DBQ20110423204009804/23/11 20:40:31  5-MIN KDBQ 240240Z AUTO 33006KT 10SM CLR 08/04 A2998 1020 79 400 320/06 RMK AO2
94908KDBQ DBQ20110423204509804/23/11 20:45:31  5-MIN KDBQ 240245Z AUTO 33005KT 10SM CLR 08/04 A2998 1020 79 400 330/05 RMK AO2
94908KDBQ DBQ20110423205012104/23/11 20:50:31  5-MIN KDBQ 240250Z AUTO 33004KT 10SM CLR 07/04 A2998 1020 82 400 330/04 RMK AO2 SLP157 T00720044 53025
94908KDBQ DBQ20110423205509804/23/11 20:55:31  5-MIN KDBQ 240255Z AUTO 33003KT 10SM CLR 07/04 A2998 1020 82 400 330/03 RMK AO2
94908KDBQ DBQ20110423210009804/23/11 21:00:31  5-MIN KDBQ 240300Z AUTO 00000KT 10SM CLR 07/04 A2999 1020 82 400 000/00 RMK AO2
94908KDBQ DBQ20110423210509804/23/11 21:05:31  5-MIN KDBQ 240305Z AUTO 31003KT 10SM CLR 07/04 A2999 1010 82 400 310/03 RMK AO2
94908KDBQ DBQ20110423211009804/23/11 21:10:31  5-MIN KDBQ 240310Z AUTO 32004KT 10SM CLR 07/04 A2999 1010 82 400 320/04 RMK AO2
94908KDBQ DBQ20110423211509804/23/11 21:15:31  5-MIN KDBQ 240315Z AUTO 32003KT 10SM CLR 07/04 A2999 1010 86 300 320/03 RMK AO2
94908KDBQ DBQ20110423212009804/23/11 21:20:31  5-MIN KDBQ 240320Z AUTO 30003KT 10SM CLR 07/04 A3000 1010 82 300 300/03 RMK AO2
94908KDBQ DBQ20110423212509804/23/11 21:25:31  5-MIN KDBQ 240325Z AUTO 30003KT 10SM CLR 07/04 A3000 1000 82 300 300/03 RMK AO2
94908KDBQ DBQ20110423213010104/23/11 21:30:31  5-MIN KDBQ 240330Z AUTO 30003KT 10SM SCT037 07/04 A3000 1000 82 300 300/03 RMK AO2
94908KDBQ DBQ20110423213510104/23/11 21:35:31  5-MIN KDBQ 240335Z AUTO 30003KT 10SM BKN037 07/04 A3000 1000 82 300 300/03 RMK AO2
94908KDBQ DBQ20110423214010104/23/11 21:40:31  5-MIN KDBQ 240340Z AUTO 30003KT 10SM BKN037 07/04 A3000 1000 82 300 300/03 RMK AO2
94908KDBQ DBQ20110423214510104/23/11 21:45:31  5-MIN KDBQ 240345Z AUTO 30004KT 10SM BKN037 07/04 A3001 1000 82 300 290/04 RMK AO2
94908KDBQ DBQ20110423215011804/23/11 21:50:31  5-MIN KDBQ 240350Z AUTO 30004KT 10SM OVC037 07/04 A3001 1000 82 300 300/04 RMK AO2 SLP167 T00670039
94908KDBQ DBQ20110423215510104/23/11 21:55:31  5-MIN KDBQ 240355Z AUTO 30005KT 10SM OVC037 06/04 A3001 1000 86 200 300/05 RMK AO2
94908KDBQ DBQ20110423220010104/23/11 22:00:31  5-MIN KDBQ 240400Z AUTO 30006KT 10SM OVC037 06/04 A3001 1000 86 200 300/06 RMK AO2
94908KDBQ DBQ20110423220510104/23/11 22:05:31  5-MIN KDBQ 240405Z AUTO 30006KT 10SM OVC037 06/04 A3001 1000 86 200 300/06 RMK AO2
94908KDBQ DBQ20110423221010004/23/11 22:10:31  5-MIN KDBQ 240410Z AUTO 30006KT 10SM OVC037 07/04 A3001 990 82 300 290/06 RMK AO2
94908KDBQ DBQ20110423221510004/23/11 22:15:31  5-MIN KDBQ 240415Z AUTO 30006KT 10SM OVC037 07/04 A3002 990 86 300 300/06 RMK AO2
94908KDBQ DBQ20110423222010004/23/11 22:20:31  5-MIN KDBQ 240420Z AUTO 29005KT 10SM OVC037 07/04 A3002 990 86 300 290/05 RMK AO2
94908KDBQ DBQ20110423222510004/23/11 22:25:31  5-MIN KDBQ 240425Z AUTO 29005KT 10SM OVC037 07/04 A3002 990 86 300 290/05 RMK AO2
94908KDBQ DBQ20110423223010004/23/11 22:30:31  5-MIN KDBQ 240430Z AUTO 29005KT 10SM OVC037 07/04 A3002 990 86 300 290/05 RMK AO2
94908KDBQ DBQ20110423223510004/23/11 22:35:31  5-MIN KDBQ 240435Z AUTO 29005KT 10SM OVC037 07/04 A3002 990 86 300 290/05 RMK AO2
94908KDBQ DBQ20110423224010004/23/11 22:40:31  5-MIN KDBQ 240440Z AUTO 30005KT 10SM OVC037 07/04 A3002 990 86 300 300/05 RMK AO2
94908KDBQ DBQ20110423224510004/23/11 22:45:31  5-MIN KDBQ 240445Z AUTO 32006KT 10SM OVC037 07/04 A3002 990 86 300 310/06 RMK AO2
94908KDBQ DBQ20110423225011704/23/11 22:50:31  5-MIN KDBQ 240450Z AUTO 31006KT 10SM OVC037 07/04 A3001 990 86 300 310/06 RMK AO2 SLP169 T00670044
94908KDBQ DBQ20110423225510004/23/11 22:55:31  5-MIN KDBQ 240455Z AUTO 32007KT 10SM OVC037 07/04 A3001 990 86 300 320/07 RMK AO2
94908KDBQ DBQ20110423230010104/23/11 23:00:31  5-MIN KDBQ 240500Z AUTO 32007KT 10SM OVC037 07/04 A3001 1000 86 300 320/07 RMK AO2
94908KDBQ DBQ20110423230510804/23/11 23:05:31  5-MIN KDBQ 240505Z AUTO 32007KT 10SM BKN037 OVC120 07/04 A3001 1000 86 300 320/07 RMK AO2
94908KDBQ DBQ20110423231010804/23/11 23:10:31  5-MIN KDBQ 240510Z AUTO 33007KT 10SM BKN037 BKN120 07/04 A3000 1000 86 300 320/07 RMK AO2
94908KDBQ DBQ20110423231510704/23/11 23:15:31  5-MIN KDBQ 240515Z AUTO 32007KT 10SM SCT037 BKN120 07/04 A3001 990 86 300 320/07 RMK AO2
94908KDBQ DBQ20110423232010004/23/11 23:20:31  5-MIN KDBQ 240520Z AUTO 32007KT 10SM FEW037 07/04 A3002 990 82 300 320/07 RMK AO2
94908KDBQ DBQ20110423232510804/23/11 23:25:31  5-MIN KDBQ 240525Z AUTO 33007KT 10SM FEW037 SCT120 07/04 A3001 1000 82 300 330/07 RMK AO2
94908KDBQ DBQ20110423233010004/23/11 23:30:31  5-MIN KDBQ 240530Z AUTO 33007KT 10SM SCT120 07/04 A3001 990 82 300 330/07 RMK AO2
94908KDBQ DBQ20110423233510004/23/11 23:35:31  5-MIN KDBQ 240535Z AUTO 33007KT 10SM BKN120 07/04 A3001 990 82 300 330/07 RMK AO2
94908KDBQ DBQ20110423234010104/23/11 23:40:31  5-MIN KDBQ 240540Z AUTO 33007KT 10SM BKN120 07/04 A3001 1000 82 300 330/07 RMK AO2
94908KDBQ DBQ20110423234510104/23/11 23:45:31  5-MIN KDBQ 240545Z AUTO 34006KT 10SM BKN120 07/04 A3001 1000 82 300 340/06 RMK AO2
94908KDBQ DBQ20110423235014504/23/11 23:50:31  5-MIN KDBQ 240550Z AUTO 33006KT 10SM BKN120 07/04 A3001 990 82 300 330/06 RMK AO2 SLP169 T00670039 10094 20061 401330061 53013
94908KDBQ DBQ20110423235510004/23/11 23:55:31  5-MIN KDBQ 240555Z AUTO 34006KT 10SM BKN120 07/04 A3001 990 82 300 340/06 RMK AO2
94908KDBQ DBQ20110424000010104/24/11 00:00:38  5-MIN KDBQ 240600Z AUTO 36006KT 10SM BKN120 07/04 A3001 1000 82 300 360/06 RMK AO2
94908KDBQ DBQ20110424000510004/24/11 00:05:31  5-MIN KDBQ 240605Z AUTO 34005KT 10SM BKN110 07/04 A3002 990 82 300 340/05 RMK AO2
94908KDBQ DBQ20110424001010004/24/11 00:10:31  5-MIN KDBQ 240610Z AUTO 34005KT 10SM BKN110 07/04 A3002 990 82 300 340/05 RMK AO2
94908KDBQ DBQ20110424001510004/24/11 00:15:33  5-MIN KDBQ 240615Z AUTO 34006KT 10SM BKN110 07/04 A3002 990 82 300 340/06 RMK AO2
94908KDBQ DBQ20110424002010004/24/11 00:20:31  5-MIN KDBQ 240620Z AUTO 34006KT 10SM BKN110 07/04 A3002 990 82 300 340/06 RMK AO2
94908KDBQ DBQ20110424002510004/24/11 00:25:31  5-MIN KDBQ 240625Z AUTO 34006KT 10SM OVC110 07/04 A3002 990 82 300 340/06 RMK AO2
94908KDBQ DBQ20110424003010004/24/11 00:30:31  5-MIN KDBQ 240630Z AUTO 35005KT 10SM OVC110 07/04 A3002 990 82 300 350/05 RMK AO2
94908KDBQ DBQ20110424003510004/24/11 00:35:31  5-MIN KDBQ 240635Z AUTO 36005KT 10SM OVC110 07/04 A3002 990 82 300 360/05 RMK AO2
94908KDBQ DBQ20110424004010004/24/11 00:40:31  5-MIN KDBQ 240640Z AUTO 36004KT 10SM OVC110 07/04 A3002 990 82 300 360/04 RMK AO2
94908KDBQ DBQ20110424004510004/24/11 00:45:31  5-MIN KDBQ 240645Z AUTO 35005KT 10SM OVC110 07/04 A3001 990 82 300 350/05 RMK AO2
94908KDBQ DBQ20110424005011704/24/11 00:50:31  5-MIN KDBQ 240650Z AUTO 35005KT 10SM OVC100 07/04 A3001 990 82 300 350/05 RMK AO2 SLP168 T00670039
94908KDBQ DBQ20110424005510004/24/11 00:55:31  5-MIN KDBQ 240655Z AUTO 36005KT 10SM OVC100 07/04 A3001 990 82 300 360/05 RMK AO2
94908KDBQ DBQ20110424010010104/24/11 01:00:31  5-MIN KDBQ 240700Z AUTO 35004KT 10SM OVC100 07/04 A3001 1000 82 300 350/04 RMK AO2
94908KDBQ DBQ20110424010510104/24/11 01:05:31  5-MIN KDBQ 240705Z AUTO 35005KT 10SM OVC100 07/04 A3001 1000 82 300 350/05 RMK AO2
94908KDBQ DBQ20110424011010104/24/11 01:10:31  5-MIN KDBQ 240710Z AUTO 36006KT 10SM OVC100 07/04 A3000 1000 82 300 360/06 RMK AO2
94908KDBQ DBQ20110424011510104/24/11 01:15:31  5-MIN KDBQ 240715Z AUTO 36005KT 10SM OVC100 07/04 A3000 1010 82 300 360/05 RMK AO2
94908KDBQ DBQ20110424012010104/24/11 01:20:31  5-MIN KDBQ 240720Z AUTO 36005KT 10SM OVC100 06/04 A3000 1010 86 200 360/05 RMK AO2
94908KDBQ DBQ20110424012510104/24/11 01:25:31  5-MIN KDBQ 240725Z AUTO 35006KT 10SM OVC100 06/04 A3000 1000 86 200 350/06 RMK AO2
94908KDBQ DBQ20110424013010104/24/11 01:30:31  5-MIN KDBQ 240730Z AUTO 35004KT 10SM OVC100 06/04 A3001 1000 86 200 350/04 RMK AO2
94908KDBQ DBQ20110424013510104/24/11 01:35:31  5-MIN KDBQ 240735Z AUTO 35005KT 10SM OVC100 06/04 A3001 1000 86 200 350/05 RMK AO2
94908KDBQ DBQ20110424014010104/24/11 01:40:31  5-MIN KDBQ 240740Z AUTO 35005KT 10SM OVC110 06/04 A3001 1000 86 200 350/05 RMK AO2
94908KDBQ DBQ20110424014510104/24/11 01:45:31  5-MIN KDBQ 240745Z AUTO 35005KT 10SM OVC110 06/04 A3001 1000 86 200 350/05 RMK AO2
94908KDBQ DBQ20110424015011804/24/11 01:50:31  5-MIN KDBQ 240750Z AUTO 34006KT 10SM OVC110 06/03 A3001 1000 82 200 340/06 RMK AO2 SLP166 T00610033
94908KDBQ DBQ20110424015510104/24/11 01:55:31  5-MIN KDBQ 240755Z AUTO 33007KT 10SM OVC110 06/03 A3001 1000 82 200 330/07 RMK AO2
94908KDBQ DBQ20110424020010104/24/11 02:00:31  5-MIN KDBQ 240800Z AUTO 34008KT 10SM OVC110 06/04 A3001 1000 86 200 330/08 RMK AO2
94908KDBQ DBQ20110424020510104/24/11 02:05:31  5-MIN KDBQ 240805Z AUTO 33008KT 10SM OVC110 06/03 A3000 1000 82 200 330/08 RMK AO2
94908KDBQ DBQ20110424021010104/24/11 02:10:31  5-MIN KDBQ 240810Z AUTO 34007KT 10SM OVC110 06/03 A3001 1000 85 100 340/07 RMK AO2
94908KDBQ DBQ20110424021510104/24/11 02:15:31  5-MIN KDBQ 240815Z AUTO 34006KT 10SM BKN110 06/03 A3001 1000 85 100 330/06 RMK AO2
94908KDBQ DBQ20110424022010104/24/11 02:20:31  5-MIN KDBQ 240820Z AUTO 34007KT 10SM BKN110 05/03 A3000 1000 85 100 340/07 RMK AO2
94908KDBQ DBQ20110424022510104/24/11 02:25:31  5-MIN KDBQ 240825Z AUTO 34007KT 10SM SCT110 05/03 A3000 1000 85 100 340/07 RMK AO2
94908KDBQ DBQ20110424023009904/24/11 02:30:31  5-MIN KDBQ 240830Z AUTO 34006KT 10SM FEW110 04/03 A3000 1000 89 0 340/06 RMK AO2
94908KDBQ DBQ20110424023509904/24/11 02:35:31  5-MIN KDBQ 240835Z AUTO 34006KT 10SM FEW110 04/03 A3000 1000 89 0 330/06 RMK AO2
94908KDBQ DBQ20110424024009604/24/11 02:40:31  5-MIN KDBQ 240840Z AUTO 34006KT 10SM CLR 04/02 A3001 1000 85 0 340/06 RMK AO2
94908KDBQ DBQ20110424024509604/24/11 02:45:31  5-MIN KDBQ 240845Z AUTO 35005KT 10SM CLR 04/02 A3001 1000 85 0 350/05 RMK AO2
94908KDBQ DBQ20110424025011904/24/11 02:50:31  5-MIN KDBQ 240850Z AUTO 35004KT 10SM CLR 04/02 A3001 1000 89 0 350/04 RMK AO2 SLP167 T00390022 51012
94908KDBQ DBQ20110424025509504/24/11 02:55:31  5-MIN KDBQ 240855Z AUTO 34005KT 10SM CLR 04/02 A3001 990 85 0 340/05 RMK AO2
94908KDBQ DBQ20110424030009804/24/11 03:00:31  5-MIN KDBQ 240900Z AUTO 34005KT 10SM FEW038 04/02 A3001 990 85 0 340/05 RMK AO2
94908KDBQ DBQ20110424030509804/24/11 03:05:31  5-MIN KDBQ 240905Z AUTO 34006KT 10SM SCT038 04/02 A3001 990 89 0 340/06 RMK AO2
94908KDBQ DBQ20110424031010104/24/11 03:10:31  5-MIN KDBQ 240910Z AUTO 34007KT 10SM SCT038 03/02 A3002 990 89 -100 340/07 RMK AO2
94908KDBQ DBQ20110424031509804/24/11 03:15:31  5-MIN KDBQ 240915Z AUTO 34007KT 10SM BKN038 04/02 A3002 990 85 0 340/07 RMK AO2
94908KDBQ DBQ20110424032010004/24/11 03:20:31  5-MIN KDBQ 240920Z AUTO 33007KT 10SM BKN038 05/03 A3002 980 85 100 330/07 RMK AO2
94908KDBQ DBQ20110424032510004/24/11 03:25:31  5-MIN KDBQ 240925Z AUTO 33006KT 10SM BKN038 06/03 A3003 980 82 100 330/06 RMK AO2
94908KDBQ DBQ20110424033010004/24/11 03:30:31  5-MIN KDBQ 240930Z AUTO 33005KT 10SM BKN038 06/03 A3002 980 82 100 330/05 RMK AO2
94908KDBQ DBQ20110424033510004/24/11 03:35:31  5-MIN KDBQ 240935Z AUTO 34005KT 10SM OVC038 06/03 A3002 990 82 100 340/05 RMK AO2
94908KDBQ DBQ20110424034010004/24/11 03:40:31  5-MIN KDBQ 240940Z AUTO 34004KT 10SM OVC038 06/03 A3002 980 82 100 340/04 RMK AO2
94908KDBQ DBQ20110424034510004/24/11 03:45:31  5-MIN KDBQ 240945Z AUTO 34004KT 10SM OVC038 06/03 A3002 980 82 100 340/04 RMK AO2
94908KDBQ DBQ20110424035011704/24/11 03:50:31  5-MIN KDBQ 240950Z AUTO 34003KT 10SM OVC036 06/03 A3003 980 85 100 340/03 RMK AO2 SLP173 T00560033
94908KDBQ DBQ20110424035510004/24/11 03:55:31  5-MIN KDBQ 240955Z AUTO 34004KT 10SM OVC036 06/03 A3003 980 85 100 340/04 RMK AO2
94908KDBQ DBQ20110424040010004/24/11 04:00:31  5-MIN KDBQ 241000Z AUTO 34004KT 10SM OVC036 06/03 A3003 980 85 100 340/04 RMK AO2
94908KDBQ DBQ20110424040510004/24/11 04:05:31  5-MIN KDBQ 241005Z AUTO 36003KT 10SM OVC036 06/03 A3002 980 82 100 360/03 RMK AO2
94908KDBQ DBQ20110424041010004/24/11 04:10:31  5-MIN KDBQ 241010Z AUTO 02003KT 10SM OVC036 06/03 A3002 980 82 100 020/03 RMK AO2
94908KDBQ DBQ20110424041510004/24/11 04:15:31  5-MIN KDBQ 241015Z AUTO 01004KT 10SM OVC036 06/03 A3002 990 82 100 360/04 RMK AO2
94908KDBQ DBQ20110424042010004/24/11 04:20:31  5-MIN KDBQ 241020Z AUTO 01005KT 10SM OVC036 06/03 A3001 990 82 100 360/05 RMK AO2
94908KDBQ DBQ20110424042510004/24/11 04:25:31  5-MIN KDBQ 241025Z AUTO 01006KT 10SM OVC036 06/03 A3001 990 82 100 360/06 RMK AO2
94908KDBQ DBQ20110424043010004/24/11 04:30:31  5-MIN KDBQ 241030Z AUTO 36005KT 10SM OVC036 06/03 A3002 990 82 100 360/05 RMK AO2
94908KDBQ DBQ20110424043510004/24/11 04:35:31  5-MIN KDBQ 241035Z AUTO 36004KT 10SM OVC036 06/03 A3002 980 82 100 360/04 RMK AO2
94908KDBQ DBQ20110424044010004/24/11 04:40:31  5-MIN KDBQ 241040Z AUTO 36006KT 10SM OVC036 06/03 A3002 980 82 100 350/06 RMK AO2
94908KDBQ DBQ20110424044510004/24/11 04:45:31  5-MIN KDBQ 241045Z AUTO 36006KT 10SM OVC036 06/03 A3003 980 82 100 350/06 RMK AO2
94908KDBQ DBQ20110424045011204/24/11 04:50:31  5-MIN KDBQ 241050Z 36006KT 10SM OVC036 06/03 A3003 980 82 100 360/06 RMK AO2 SLP174 T00560028
94908KDBQ DBQ20110424045509504/24/11 04:55:31  5-MIN KDBQ 241055Z 36006KT 10SM OVC036 06/03 A3003 970 82 100 360/06 RMK AO2
94908KDBQ DBQ20110424050009504/24/11 05:00:31  5-MIN KDBQ 241100Z 36006KT 10SM OVC036 06/03 A3004 970 82 100 360/06 RMK AO2
94908KDBQ DBQ20110424050509504/24/11 05:05:31  5-MIN KDBQ 241105Z 36005KT 10SM OVC034 06/03 A3004 970 82 100 360/05 RMK AO2
94908KDBQ DBQ20110424051009504/24/11 05:10:31  5-MIN KDBQ 241110Z 01006KT 10SM OVC034 06/03 A3003 980 82 100 010/06 RMK AO2
94908KDBQ DBQ20110424051509504/24/11 05:15:31  5-MIN KDBQ 241115Z 01006KT 10SM OVC034 06/03 A3003 980 82 100 010/06 RMK AO2
94908KDBQ DBQ20110424052009504/24/11 05:20:31  5-MIN KDBQ 241120Z 01008KT 10SM OVC034 06/03 A3003 970 82 100 010/08 RMK AO2
94908KDBQ DBQ20110424052509504/24/11 05:25:31  5-MIN KDBQ 241125Z 01009KT 10SM OVC034 06/03 A3003 970 82 100 010/09 RMK AO2
94908KDBQ DBQ20110424053009504/24/11 05:30:31  5-MIN KDBQ 241130Z 01009KT 10SM OVC034 06/03 A3003 980 82 100 010/09 RMK AO2
94908KDBQ DBQ20110424053509504/24/11 05:35:31  5-MIN KDBQ 241135Z 02006KT 10SM OVC034 06/02 A3003 980 79 100 020/06 RMK AO2
94908KDBQ DBQ20110424054009504/24/11 05:40:31  5-MIN KDBQ 241140Z 04005KT 10SM OVC034 06/02 A3003 980 79 100 040/05 RMK AO2
94908KDBQ DBQ20110424054509504/24/11 05:45:31  5-MIN KDBQ 241145Z 02007KT 10SM OVC034 06/03 A3003 980 82 100 020/07 RMK AO2
94908KDBQ DBQ20110424055013004/24/11 05:50:31  5-MIN KDBQ 241150Z 02007KT 10SM OVC034 06/03 A3003 970 82 100 020/07 RMK AO2 SLP176 T00560028 10067 20033 55002
94908KDBQ DBQ20110424055509504/24/11 05:55:31  5-MIN KDBQ 241155Z 01005KT 10SM OVC034 06/03 A3004 970 82 100 010/05 RMK AO2
94908KDBQ DBQ20110424060009504/24/11 06:00:31  5-MIN KDBQ 241200Z 02005KT 10SM OVC034 06/03 A3004 970 82 100 020/05 RMK AO2
94908KDBQ DBQ20110424060509504/24/11 06:05:31  5-MIN KDBQ 241205Z 02005KT 10SM OVC034 06/03 A3004 970 82 100 020/05 RMK AO2
94908KDBQ DBQ20110424061009504/24/11 06:10:31  5-MIN KDBQ 241210Z 01005KT 10SM OVC034 06/03 A3004 970 79 200 010/05 RMK AO2
94908KDBQ DBQ20110424061509504/24/11 06:15:31  5-MIN KDBQ 241215Z 02005KT 10SM OVC034 06/03 A3004 970 82 200 020/05 RMK AO2
94908KDBQ DBQ20110424062009504/24/11 06:20:31  5-MIN KDBQ 241220Z 01005KT 10SM OVC034 06/03 A3004 970 82 200 010/05 RMK AO2
94908KDBQ DBQ20110424062509504/24/11 06:25:31  5-MIN KDBQ 241225Z 02004KT 10SM OVC034 06/03 A3004 960 82 200 020/04 RMK AO2
94908KDBQ DBQ20110424063009504/24/11 06:30:31  5-MIN KDBQ 241230Z 02005KT 10SM OVC034 06/03 A3004 960 79 200 020/05 RMK AO2
94908KDBQ DBQ20110424063509504/24/11 06:35:31  5-MIN KDBQ 241235Z 02005KT 10SM OVC034 06/03 A3004 960 79 200 020/05 RMK AO2
94908KDBQ DBQ20110424064009504/24/11 06:40:31  5-MIN KDBQ 241240Z 02004KT 10SM OVC034 07/03 A3005 960 79 200 020/04 RMK AO2
94908KDBQ DBQ20110424064509504/24/11 06:45:31  5-MIN KDBQ 241245Z 02005KT 10SM OVC034 07/03 A3005 960 79 200 020/05 RMK AO2
94908KDBQ DBQ20110424065011204/24/11 06:50:31  5-MIN KDBQ 241250Z 01004KT 10SM OVC034 07/03 A3005 960 76 200 010/04 RMK AO2 SLP183 T00670028
94908KDBQ DBQ20110424065509504/24/11 06:55:31  5-MIN KDBQ 241255Z 02005KT 10SM OVC034 07/03 A3005 960 79 200 020/05 RMK AO2
94908KDBQ DBQ20110424070009504/24/11 07:00:31  5-MIN KDBQ 241300Z 02004KT 10SM OVC034 07/03 A3005 960 79 200 020/04 RMK AO2
94908KDBQ DBQ20110424070509504/24/11 07:05:31  5-MIN KDBQ 241305Z 02005KT 10SM OVC034 07/03 A3006 950 79 200 020/05 RMK AO2
94908KDBQ DBQ20110424071009504/24/11 07:10:31  5-MIN KDBQ 241310Z 02004KT 10SM OVC034 07/03 A3006 950 79 200 020/04 RMK AO2
94908KDBQ DBQ20110424071509504/24/11 07:15:31  5-MIN KDBQ 241315Z 01005KT 10SM OVC034 07/03 A3006 950 76 300 010/05 RMK AO2
94908KDBQ DBQ20110424072009504/24/11 07:20:31  5-MIN KDBQ 241320Z 02005KT 10SM OVC034 07/03 A3006 950 76 300 020/05 RMK AO2
94908KDBQ DBQ20110424072509504/24/11 07:25:31  5-MIN KDBQ 241325Z 03005KT 10SM OVC034 07/03 A3006 950 76 300 030/05 RMK AO2
94908KDBQ DBQ20110424073009504/24/11 07:30:31  5-MIN KDBQ 241330Z 02005KT 10SM OVC034 07/03 A3006 950 76 300 020/05 RMK AO2
94908KDBQ DBQ20110424073509504/24/11 07:35:31  5-MIN KDBQ 241335Z 02005KT 10SM OVC034 07/03 A3006 950 76 300 020/05 RMK AO2
94908KDBQ DBQ20110424074009504/24/11 07:40:31  5-MIN KDBQ 241340Z 04005KT 10SM OVC034 07/03 A3006 950 76 300 040/05 RMK AO2
94908KDBQ DBQ20110424074509504/24/11 07:45:31  5-MIN KDBQ 241345Z 04006KT 10SM OVC034 07/03 A3006 950 76 300 040/06 RMK AO2
94908KDBQ DBQ20110424075011204/24/11 07:50:31  5-MIN KDBQ 241350Z 03006KT 10SM OVC034 08/03 A3005 960 73 400 020/06 RMK AO2 SLP182 T00780033
94908KDBQ DBQ20110424075509504/24/11 07:55:31  5-MIN KDBQ 241355Z 04006KT 10SM OVC034 08/04 A3005 960 76 400 040/06 RMK AO2
94908KDBQ DBQ20110424080009504/24/11 08:00:31  5-MIN KDBQ 241400Z 03007KT 10SM OVC034 08/04 A3005 950 76 400 030/07 RMK AO2
94908KDBQ DBQ20110424080509504/24/11 08:05:31  5-MIN KDBQ 241405Z 04009KT 10SM OVC034 08/04 A3006 950 76 400 040/09 RMK AO2
94908KDBQ DBQ20110424081009504/24/11 08:10:31  5-MIN KDBQ 241410Z 04007KT 10SM OVC034 08/03 A3006 950 73 400 030/07 RMK AO2
94908KDBQ DBQ20110424081509504/24/11 08:15:31  5-MIN KDBQ 241415Z 04005KT 10SM OVC034 08/04 A3006 950 76 400 030/05 RMK AO2
94908KDBQ DBQ20110424082009504/24/11 08:20:31  5-MIN KDBQ 241420Z 06006KT 10SM OVC034 08/04 A3006 950 73 400 060/06 RMK AO2
94908KDBQ DBQ20110424082509504/24/11 08:25:31  5-MIN KDBQ 241425Z 06006KT 10SM OVC034 08/03 A3007 940 70 400 060/06 RMK AO2
94908KDBQ DBQ20110424083009504/24/11 08:30:31  5-MIN KDBQ 241430Z 06007KT 10SM OVC034 08/03 A3006 950 70 400 060/07 RMK AO2
94908KDBQ DBQ20110424083509504/24/11 08:35:31  5-MIN KDBQ 241435Z 08004KT 10SM OVC034 08/03 A3007 940 70 400 080/04 RMK AO2
94908KDBQ DBQ20110424084009504/24/11 08:40:31  5-MIN KDBQ 241440Z 05005KT 10SM OVC034 08/03 A3007 940 70 400 050/05 RMK AO2
94908KDBQ DBQ20110424084511104/24/11 08:45:31  5-MIN KDBQ 241445Z 06007KT 030V090 10SM OVC034 09/04 A3006 950 71 500 060/07 030V090 RMK AO2
94908KDBQ DBQ20110424085011804/24/11 08:50:31  5-MIN KDBQ 241450Z 06005KT 10SM BKN034 09/04 A3006 950 68 600 060/05 RMK AO2 SLP183 T00940039 51008
94908KDBQ DBQ20110424085509504/24/11 08:55:31  5-MIN KDBQ 241455Z 08005KT 10SM BKN034 09/04 A3006 950 71 500 070/05 RMK AO2
94908KDBQ DBQ20110424090009504/24/11 09:00:31  5-MIN KDBQ 241500Z 06007KT 10SM SCT034 09/04 A3006 950 68 500 060/07 RMK AO2
94908KDBQ DBQ20110424090510204/24/11 09:05:31  5-MIN KDBQ 241505Z 05006KT 10SM FEW021 BKN034 09/03 A3006 950 65 500 050/06 RMK AO2
94908KDBQ DBQ20110424091010204/24/11 09:10:31  5-MIN KDBQ 241510Z 03004KT 10SM FEW021 SCT034 09/04 A3007 940 68 500 020/04 RMK AO2
94908KDBQ DBQ20110424091510204/24/11 09:15:31  5-MIN KDBQ 241515Z 08004KT 10SM FEW021 SCT034 10/04 A3007 940 65 600 080/04 RMK AO2
94908KDBQ DBQ20110424092010204/24/11 09:20:31  5-MIN KDBQ 241520Z 05005KT 10SM FEW023 BKN032 10/03 A3006 950 63 600 050/05 RMK AO2
94908KDBQ DBQ20110424092510904/24/11 09:25:31  5-MIN KDBQ 241525Z 03004KT 10SM FEW022 BKN029 BKN034 10/03 A3006 950 63 600 030/04 RMK AO2
94908KDBQ DBQ20110424093010904/24/11 09:30:31  5-MIN KDBQ 241530Z 02003KT 10SM FEW022 BKN029 BKN034 09/02 A3006 950 60 500 020/03 RMK AO2
94908KDBQ DBQ20110424093509504/24/11 09:35:31  5-MIN KDBQ 241535Z 36004KT 10SM BKN029 09/03 A3006 950 63 500 360/04 RMK AO2
94908KDBQ DBQ20110424094009504/24/11 09:40:31  5-MIN KDBQ 241540Z 03006KT 10SM OVC029 09/03 A3007 940 65 500 030/06 RMK AO2
94908KDBQ DBQ20110424094509504/24/11 09:45:31  5-MIN KDBQ 241545Z 01004KT 10SM OVC029 09/03 A3008 930 65 500 010/04 RMK AO2
94908KDBQ DBQ20110424095010204/24/11 09:50:31  5-MIN KDBQ 241550Z 01004KT 10SM BKN031 OVC035 09/03 A3008 930 65 500 010/04 RMK AO2
94908KDBQ DBQ20110424095510204/24/11 09:55:31  5-MIN KDBQ 241555Z 01003KT 10SM BKN031 OVC035 09/03 A3008 930 65 500 010/03 RMK AO2
94908KDBQ DBQ20110424100009504/24/11 10:00:31  5-MIN KDBQ 241600Z 03006KT 10SM OVC031 09/03 A3007 940 65 500 030/06 RMK AO2
94908KDBQ DBQ20110424100509504/24/11 10:05:31  5-MIN KDBQ 241605Z 05004KT 10SM OVC031 09/03 A3007 940 65 500 050/04 RMK AO2
94908KDBQ DBQ20110424101009504/24/11 10:10:31  5-MIN KDBQ 241610Z 05006KT 10SM OVC033 10/03 A3007 940 63 600 050/06 RMK AO2
94908KDBQ DBQ20110424101509504/24/11 10:15:31  5-MIN KDBQ 241615Z 03004KT 10SM OVC033 09/03 A3007 940 65 500 030/04 RMK AO2
94908KDBQ DBQ20110424102009504/24/11 10:20:31  5-MIN KDBQ 241620Z 06003KT 10SM OVC033 10/03 A3007 940 63 600 060/03 RMK AO2
94908KDBQ DBQ20110424102509504/24/11 10:25:31  5-MIN KDBQ 241625Z VRB03KT 10SM OVC033 10/03 A3007 940 63 600 VRB/03 RMK AO2
94908KDBQ DBQ20110424103009504/24/11 10:30:31  5-MIN KDBQ 241630Z 02004KT 10SM OVC035 10/03 A3007 940 63 600 020/04 RMK AO2
94908KDBQ DBQ20110424103509504/24/11 10:35:31  5-MIN KDBQ 241635Z 04005KT 10SM OVC035 10/03 A3008 940 60 600 040/05 RMK AO2
94908KDBQ DBQ20110424104009504/24/11 10:40:31  5-MIN KDBQ 241640Z 05004KT 10SM OVC035 10/03 A3008 930 60 600 050/04 RMK AO2
94908KDBQ DBQ20110424104509504/24/11 10:45:31  5-MIN KDBQ 241645Z 00000KT 10SM OVC035 10/03 A3008 930 60 600 000/00 RMK AO2
94908KDBQ DBQ20110424105011204/24/11 10:50:31  5-MIN KDBQ 241650Z 02005KT 10SM OVC035 11/03 A3007 940 61 700 020/05 RMK AO2 SLP189 T01060033
94908KDBQ DBQ20110424105509504/24/11 10:55:31  5-MIN KDBQ 241655Z 03003KT 10SM OVC035 11/03 A3007 940 58 700 030/03 RMK AO2
94908KDBQ DBQ20110424110009504/24/11 11:00:31  5-MIN KDBQ 241700Z 01003KT 10SM OVC035 11/03 A3007 940 58 700 010/03 RMK AO2
94908KDBQ DBQ20110424110509504/24/11 11:05:31  5-MIN KDBQ 241705Z 33004KT 10SM OVC035 11/03 A3007 940 58 700 330/04 RMK AO2
94908KDBQ DBQ20110424111009504/24/11 11:10:31  5-MIN KDBQ 241710Z 00000KT 10SM OVC035 11/03 A3007 940 58 700 000/00 RMK AO2
94908KDBQ DBQ20110424111509504/24/11 11:15:31  5-MIN KDBQ 241715Z 00000KT 10SM OVC035 11/03 A3007 940 56 700 000/00 RMK AO2
94908KDBQ DBQ20110424112009504/24/11 11:20:31  5-MIN KDBQ 241720Z 08003KT 10SM BKN035 11/02 A3007 940 56 700 080/03 RMK AO2
94908KDBQ DBQ20110424112509504/24/11 11:25:31  5-MIN KDBQ 241725Z 00000KT 10SM BKN035 11/02 A3006 950 56 700 000/00 RMK AO2
94908KDBQ DBQ20110424113009504/24/11 11:30:31  5-MIN KDBQ 241730Z 00000KT 10SM BKN035 11/03 A3006 950 56 700 000/00 RMK AO2
94908KDBQ DBQ20110424113509504/24/11 11:35:31  5-MIN KDBQ 241735Z VRB03KT 10SM BKN035 11/02 A3006 950 54 700 VRB/03 RMK AO2
94908KDBQ DBQ20110424114009504/24/11 11:40:31  5-MIN KDBQ 241740Z 00000KT 10SM BKN035 11/02 A3006 950 54 800 000/00 RMK AO2
94908KDBQ DBQ20110424114509504/24/11 11:45:31  5-MIN KDBQ 241745Z VRB04KT 10SM BKN035 12/03 A3006 950 54 900 VRB/04 RMK AO2
94908KDBQ DBQ20110424115013004/24/11 11:50:31  5-MIN KDBQ 241750Z VRB05KT 10SM BKN035 12/03 A3006 950 54 800 VRB/05 RMK AO2 SLP182 T01170028 10122 20056 51008
94908KDBQ DBQ20110424115509504/24/11 11:55:31  5-MIN KDBQ 241755Z VRB05KT 10SM BKN035 12/03 A3005 960 56 800 VRB/05 RMK AO2
94908KDBQ DBQ20110424120009504/24/11 12:00:31  5-MIN KDBQ 241800Z 31005KT 10SM BKN035 11/03 A3005 960 58 800 310/05 RMK AO2
94908KDBQ DBQ20110424120509504/24/11 12:05:31  5-MIN KDBQ 241805Z VRB05KT 10SM OVC035 11/03 A3005 960 58 800 VRB/05 RMK AO2
94908KDBQ DBQ20110424121009504/24/11 12:10:31  5-MIN KDBQ 241810Z 33005KT 10SM OVC035 11/03 A3005 960 58 800 330/05 RMK AO2
94908KDBQ DBQ20110424121509504/24/11 12:15:31  5-MIN KDBQ 241815Z VRB03KT 10SM BKN035 12/03 A3005 960 56 800 VRB/03 RMK AO2
94908KDBQ DBQ20110424122009504/24/11 12:20:31  5-MIN KDBQ 241820Z 04004KT 10SM BKN035 12/03 A3005 960 56 800 040/04 RMK AO2
94908KDBQ DBQ20110424122509504/24/11 12:25:31  5-MIN KDBQ 241825Z 10003KT 10SM BKN035 11/03 A3005 960 56 800 100/03 RMK AO2
94908KDBQ DBQ20110424123009504/24/11 12:30:31  5-MIN KDBQ 241830Z 11004KT 10SM OVC035 11/02 A3004 960 54 800 100/04 RMK AO2
94908KDBQ DBQ20110424123509504/24/11 12:35:31  5-MIN KDBQ 241835Z 00000KT 10SM BKN035 12/03 A3004 960 54 800 000/00 RMK AO2
94908KDBQ DBQ20110424124009504/24/11 12:40:31  5-MIN KDBQ 241840Z 00000KT 10SM SCT037 12/03 A3004 970 54 800 000/00 RMK AO2
94908KDBQ DBQ20110424124509504/24/11 12:45:31  5-MIN KDBQ 241845Z 00000KT 10SM SCT037 12/02 A3004 970 50 800 000/00 RMK AO2
94908KDBQ DBQ20110424125011204/24/11 12:50:31  5-MIN KDBQ 241850Z VRB03KT 10SM FEW037 12/02 A3004 970 52 800 VRB/03 RMK AO2 SLP177 T01170022
94908KDBQ DBQ20110424125509504/24/11 12:55:31  5-MIN KDBQ 241855Z 00000KT 10SM FEW037 12/03 A3004 970 54 800 000/00 RMK AO2
94908KDBQ DBQ20110424130009204/24/11 13:00:31  5-MIN KDBQ 241900Z 00000KT 10SM CLR 12/03 A3003 970 52 900 000/00 RMK AO2
94908KDBQ DBQ20110424130509504/24/11 13:05:31  5-MIN KDBQ 241905Z 26003KT 10SM FEW038 12/03 A3004 970 54 900 260/03 RMK AO2
94908KDBQ DBQ20110424131009504/24/11 13:10:31  5-MIN KDBQ 241910Z 00000KT 10SM SCT038 12/02 A3004 970 50 900 000/00 RMK AO2
94908KDBQ DBQ20110424131509504/24/11 13:15:31  5-MIN KDBQ 241915Z VRB04KT 10SM BKN038 12/03 A3004 970 54 900 VRB/04 RMK AO2
94908KDBQ DBQ20110424132009504/24/11 13:20:31  5-MIN KDBQ 241920Z 00000KT 10SM BKN038 12/03 A3004 970 54 900 000/00 RMK AO2
94908KDBQ DBQ20110424132509604/24/11 13:25:31  5-MIN KDBQ 241925Z 00000KT 10SM BKN038 13/04 A3004 970 52 1000 000/00 RMK AO2
94908KDBQ DBQ20110424133009504/24/11 13:30:31  5-MIN KDBQ 241930Z 00000KT 10SM BKN038 12/03 A3004 970 54 900 000/00 RMK AO2
94908KDBQ DBQ20110424133509604/24/11 13:35:31  5-MIN KDBQ 241935Z 08004KT 10SM BKN038 13/03 A3004 970 52 1000 070/04 RMK AO2
94908KDBQ DBQ20110424134009504/24/11 13:40:31  5-MIN KDBQ 241940Z 07005KT 10SM BKN038 12/03 A3004 970 54 900 070/05 RMK AO2
94908KDBQ DBQ20110424134509504/24/11 13:45:31  5-MIN KDBQ 241945Z 00000KT 10SM BKN038 12/03 A3004 970 52 900 000/00 RMK AO2
94908KDBQ DBQ20110424135011204/24/11 13:50:31  5-MIN KDBQ 241950Z 00000KT 10SM OVC040 12/03 A3004 970 54 800 000/00 RMK AO2 SLP178 T01170028
94908KDBQ DBQ20110424135509504/24/11 13:55:31  5-MIN KDBQ 241955Z VRB03KT 10SM OVC040 12/02 A3005 960 52 800 VRB/03 RMK AO2
94908KDBQ DBQ20110424140009504/24/11 14:00:31  5-MIN KDBQ 242000Z 09003KT 10SM OVC040 12/02 A3004 970 52 800 090/03 RMK AO2
94908KDBQ DBQ20110424140509504/24/11 14:05:31  5-MIN KDBQ 242005Z 00000KT 10SM OVC040 12/02 A3005 960 52 800 000/00 RMK AO2
94908KDBQ DBQ20110424141009504/24/11 14:10:31  5-MIN KDBQ 242010Z 00000KT 10SM OVC040 12/02 A3005 960 52 800 000/00 RMK AO2
94908KDBQ DBQ20110424141509504/24/11 14:15:31  5-MIN KDBQ 242015Z 00000KT 10SM OVC040 12/02 A3005 960 52 800 000/00 RMK AO2
94908KDBQ DBQ20110424142009504/24/11 14:20:31  5-MIN KDBQ 242020Z 00000KT 10SM BKN040 12/02 A3005 960 50 900 000/00 RMK AO2
94908KDBQ DBQ20110424142509504/24/11 14:25:31  5-MIN KDBQ 242025Z 00000KT 10SM BKN040 12/03 A3004 970 54 900 000/00 RMK AO2
94908KDBQ DBQ20110424143009504/24/11 14:30:31  5-MIN KDBQ 242030Z 00000KT 10SM SCT040 12/03 A3004 970 52 900 000/00 RMK AO2
94908KDBQ DBQ20110424143509504/24/11 14:35:31  5-MIN KDBQ 242035Z 00000KT 10SM FEW040 12/03 A3004 970 52 900 000/00 RMK AO2
94908KDBQ DBQ20110424144009504/24/11 14:40:31  5-MIN KDBQ 242040Z 00000KT 10SM FEW040 12/03 A3003 970 52 900 000/00 RMK AO2
94908KDBQ DBQ20110427084510304/27/11 08:45:31  5-MIN KDBQ 271445Z 34007KT 10SM BKN017 OVC046 06/02 A2954 1440 79 700 340/07 RMK AO2
94908KDBQ DBQ20110427085012604/27/11 08:50:31  5-MIN KDBQ 271450Z 31007KT 10SM BKN017 OVC046 06/02 A2953 1440 76 800 310/07 RMK AO2 SLP006 T00610022 53012
94908KDBQ DBQ20110427085510204/27/11 08:55:31  5-MIN KDBQ 271455Z 31010G14KT 10SM OVC017 06/03 A2953 1440 79 800 310/10G14 RMK AO2
94908KDBQ DBQ20110427090009604/27/11 09:00:31  5-MIN KDBQ 271500Z 32009KT 10SM OVC017 06/02 A2953 1440 76 800 310/09 RMK AO2
94908KDBQ DBQ20110427090510304/27/11 09:05:31  5-MIN KDBQ 271505Z 32011KT 10SM BKN017 OVC024 06/03 A2953 1450 79 800 320/11 RMK AO2
94908KDBQ DBQ20110427091011004/27/11 09:10:31  5-MIN KDBQ 271510Z 32010KT 10SM BKN017 BKN023 OVC041 06/02 A2952 1450 76 800 320/10 RMK AO2
94908KDBQ DBQ20110427091510304/27/11 09:15:31  5-MIN KDBQ 271515Z 30011KT 10SM BKN019 OVC041 07/03 A2952 1450 76 800 300/11 RMK AO2
94908KDBQ DBQ20110427092010304/27/11 09:20:31  5-MIN KDBQ 271520Z 29010KT 10SM SCT019 OVC041 07/02 A2952 1450 73 800 290/10 RMK AO2
94908KDBQ DBQ20110427092510304/27/11 09:25:31  5-MIN KDBQ 271525Z 32009KT 10SM BKN019 OVC041 07/03 A2952 1450 76 800 320/09 RMK AO2
94908KDBQ DBQ20110427093010304/27/11 09:30:31  5-MIN KDBQ 271530Z 30010KT 10SM BKN019 OVC041 07/02 A2952 1450 73 800 300/10 RMK AO2
94908KDBQ DBQ20110427093510304/27/11 09:35:31  5-MIN KDBQ 271535Z 32009KT 10SM BKN019 OVC041 07/03 A2952 1450 76 800 320/09 RMK AO2
94908KDBQ DBQ20110427094010304/27/11 09:40:31  5-MIN KDBQ 271540Z 30011KT 10SM BKN019 OVC041 07/03 A2952 1450 73 900 300/11 RMK AO2
94908KDBQ DBQ20110427094510304/27/11 09:45:31  5-MIN KDBQ 271545Z 32009KT 10SM BKN019 OVC041 07/03 A2951 1460 76 900 320/09 RMK AO2
94908KDBQ DBQ20110427095012004/27/11 09:50:31  5-MIN KDBQ 271550Z 31010KT 10SM BKN019 OVC041 07/02 A2952 1450 73 800 310/10 RMK AO2 SLP999 T00670022
94908KDBQ DBQ20110427095510304/27/11 09:55:31  5-MIN KDBQ 271555Z 30009KT 10SM BKN019 OVC039 07/02 A2952 1450 73 800 300/09 RMK AO2
94908KDBQ DBQ20110427100010304/27/11 10:00:31  5-MIN KDBQ 271600Z 33009KT 10SM BKN019 OVC039 07/02 A2952 1450 73 800 330/09 RMK AO2
94908KDBQ DBQ20110427100510304/27/11 10:05:31  5-MIN KDBQ 271605Z 33010KT 10SM BKN019 OVC039 07/02 A2952 1450 73 800 330/10 RMK AO2
94908KDBQ DBQ20110427101010304/27/11 10:10:31  5-MIN KDBQ 271610Z 34011KT 10SM BKN019 OVC039 07/02 A2952 1450 73 800 340/11 RMK AO2
94908KDBQ DBQ20110427101510304/27/11 10:15:31  5-MIN KDBQ 271615Z 33007KT 10SM BKN019 OVC039 07/02 A2952 1450 73 800 320/07 RMK AO2
94908KDBQ DBQ20110427102010904/27/11 10:20:31  5-MIN KDBQ 271620Z 32010G16KT 10SM BKN019 OVC039 07/02 A2952 1450 70 900 320/10G16 RMK AO2
94908KDBQ DBQ20110427102510904/27/11 10:25:31  5-MIN KDBQ 271625Z 31009G16KT 10SM BKN019 OVC039 07/02 A2952 1450 70 800 310/09G16 RMK AO2
94908KDBQ DBQ20110427103010304/27/11 10:30:31  5-MIN KDBQ 271630Z 28010KT 10SM BKN019 OVC039 07/02 A2952 1450 70 900 280/10 RMK AO2
94908KDBQ DBQ20110427103510304/27/11 10:35:31  5-MIN KDBQ 271635Z 31010KT 10SM BKN019 OVC039 07/02 A2952 1450 70 900 310/10 RMK AO2
94908KDBQ DBQ20110427104010304/27/11 10:40:31  5-MIN KDBQ 271640Z 28011KT 10SM BKN019 OVC039 07/02 A2952 1450 70 800 280/11 RMK AO2
94908KDBQ DBQ20110427104510304/27/11 10:45:31  5-MIN KDBQ 271645Z 30011KT 10SM BKN019 OVC039 07/02 A2952 1450 70 900 300/11 RMK AO2
94908KDBQ DBQ20110427105012704/27/11 10:50:31  5-MIN KDBQ 271650Z 30013KT 10SM BKN025 BKN030 OVC036 07/02 A2953 1440 73 800 300/13 RMK AO2 SLP003 T00670022
94908KDBQ DBQ20110427105510304/27/11 10:55:31  5-MIN KDBQ 271655Z 27012KT 10SM BKN025 OVC033 07/02 A2953 1440 70 800 270/12 RMK AO2
94908KDBQ DBQ20110427110010304/27/11 11:00:31  5-MIN KDBQ 271700Z 29014KT 10SM BKN025 OVC030 07/02 A2953 1440 70 800 290/14 RMK AO2
94908KDBQ DBQ20110427110509604/27/11 11:05:31  5-MIN KDBQ 271705Z 30012KT 10SM OVC025 06/02 A2954 1440 73 700 300/12 RMK AO2
94908KDBQ DBQ20110427111009604/27/11 11:10:31  5-MIN KDBQ 271710Z 29012KT 10SM OVC025 06/02 A2953 1440 73 800 290/12 RMK AO2
94908KDBQ DBQ20110427111509604/27/11 11:15:31  5-MIN KDBQ 271715Z 27013KT 10SM OVC025 06/01 A2954 1430 70 700 270/13 RMK AO2
94908KDBQ DBQ20110427112009604/27/11 11:20:31  5-MIN KDBQ 271720Z 29012KT 10SM OVC025 06/01 A2954 1430 70 700 290/12 RMK AO2
94908KDBQ DBQ20110427112509604/27/11 11:25:31  5-MIN KDBQ 271725Z 29012KT 10SM OVC025 07/02 A2954 1430 70 800 290/12 RMK AO2
94908KDBQ DBQ20110427113009604/27/11 11:30:31  5-MIN KDBQ 271730Z 30012KT 10SM OVC025 06/01 A2954 1430 70 700 300/12 RMK AO2
94908KDBQ DBQ20110427113509604/27/11 11:35:31  5-MIN KDBQ 271735Z 30011KT 10SM OVC025 06/01 A2955 1430 70 700 300/11 RMK AO2
94908KDBQ DBQ20110427114009604/27/11 11:40:31  5-MIN KDBQ 271740Z 28012KT 10SM OVC025 06/01 A2955 1430 70 700 280/12 RMK AO2
94908KDBQ DBQ20110427114509604/27/11 11:45:31  5-MIN KDBQ 271745Z 29010KT 10SM OVC025 06/01 A2955 1430 70 700 290/10 RMK AO2
94908KDBQ DBQ20110427115013104/27/11 11:50:31  5-MIN KDBQ 271750Z 29014KT 10SM OVC025 06/01 A2955 1430 70 700 290/14 RMK AO2 SLP010 T00610011 10078 20044 58006
94908KDBQ DBQ20110427115509604/27/11 11:55:31  5-MIN KDBQ 271755Z 28011KT 10SM OVC025 06/01 A2955 1430 70 700 280/11 RMK AO2
94908KDBQ DBQ20110427120009604/27/11 12:00:31  5-MIN KDBQ 271800Z 28010KT 10SM OVC025 07/01 A2955 1430 67 800 280/10 RMK AO2
94908KDBQ DBQ20110427120509604/27/11 12:05:31  5-MIN KDBQ 271805Z 30009KT 10SM OVC027 07/01 A2955 1430 67 800 300/09 RMK AO2
94908KDBQ DBQ20110427121010204/27/11 12:10:31  5-MIN KDBQ 271810Z 26013G17KT 10SM OVC027 07/01 A2955 1420 67 800 260/13G17 RMK AO2
94908KDBQ DBQ20110427121510204/27/11 12:15:31  5-MIN KDBQ 271815Z 28009G17KT 10SM OVC027 06/01 A2955 1420 70 700 280/09G17 RMK AO2
94908KDBQ DBQ20110427122009604/27/11 12:20:31  5-MIN KDBQ 271820Z 27011KT 10SM OVC027 07/01 A2956 1410 67 800 270/11 RMK AO2
94908KDBQ DBQ20110427122509604/27/11 12:25:31  5-MIN KDBQ 271825Z 27014KT 10SM OVC027 06/01 A2956 1410 70 700 270/14 RMK AO2
94908KDBQ DBQ20110427123009604/27/11 12:30:31  5-MIN KDBQ 271830Z 28010KT 10SM OVC027 06/01 A2956 1420 70 700 280/10 RMK AO2
94908KDBQ DBQ20110427123509604/27/11 12:35:31  5-MIN KDBQ 271835Z 29012KT 10SM OVC027 06/01 A2956 1410 70 700 290/12 RMK AO2
94908KDBQ DBQ20110427124010204/27/11 12:40:31  5-MIN KDBQ 271840Z 29009G18KT 10SM OVC027 06/01 A2957 1410 70 700 290/09G18 RMK AO2
94908KDBQ DBQ20110427124509604/27/11 12:45:31  5-MIN KDBQ 271845Z 28009KT 10SM OVC025 06/02 A2957 1400 73 700 280/09 RMK AO2
94908KDBQ DBQ20110427125011304/27/11 12:50:31  5-MIN KDBQ 271850Z 28011KT 10SM OVC025 06/01 A2957 1400 70 700 280/11 RMK AO2 SLP020 T00610011
94908KDBQ DBQ20110427125510204/27/11 12:55:31  5-MIN KDBQ 271855Z 28012G19KT 10SM OVC025 06/01 A2957 1400 73 600 280/12G19 RMK AO2
94908KDBQ DBQ20110427130010904/27/11 13:00:31  5-MIN KDBQ 271900Z 30009G19KT 10SM BKN025 OVC029 06/01 A2957 1400 70 700 300/09G19 RMK AO2
94908KDBQ DBQ20110427130510304/27/11 13:05:31  5-MIN KDBQ 271905Z 28010KT 10SM BKN025 OVC031 06/01 A2957 1400 70 700 270/10 RMK AO2
94908KDBQ DBQ20110427131010304/27/11 13:10:31  5-MIN KDBQ 271910Z 27010KT 10SM BKN025 OVC031 06/01 A2957 1400 70 700 270/10 RMK AO2
94908KDBQ DBQ20110427131510904/27/11 13:15:31  5-MIN KDBQ 271915Z 29013G18KT 10SM BKN023 OVC031 06/02 A2958 1400 73 700 290/13G18 RMK AO2
94908KDBQ DBQ20110427132010304/27/11 13:20:31  5-MIN KDBQ 271920Z 29012KT 10SM BKN023 OVC031 06/02 A2958 1400 76 600 290/12 RMK AO2
94908KDBQ DBQ20110427132510304/27/11 13:25:31  5-MIN KDBQ 271925Z 29012KT 10SM BKN023 OVC031 06/01 A2958 1390 73 600 290/12 RMK AO2
94908KDBQ DBQ20110427133010304/27/11 13:30:31  5-MIN KDBQ 271930Z 29011KT 10SM BKN023 OVC031 06/01 A2958 1390 73 600 290/11 RMK AO2
94908KDBQ DBQ20110427133509604/27/11 13:35:31  5-MIN KDBQ 271935Z 29012KT 10SM OVC025 06/01 A2958 1400 73 600 280/12 RMK AO2
94908KDBQ DBQ20110427134010304/27/11 13:40:31  5-MIN KDBQ 271940Z 28011KT 10SM BKN023 OVC028 06/01 A2957 1400 70 700 280/11 RMK AO2
94908KDBQ DBQ20110427134510304/27/11 13:45:31  5-MIN KDBQ 271945Z 29011KT 10SM SCT023 OVC028 06/01 A2957 1400 70 700 280/11 RMK AO2
94908KDBQ DBQ20110427135011304/27/11 13:50:31  5-MIN KDBQ 271950Z 28014KT 10SM OVC028 06/01 A2957 1400 67 700 280/14 RMK AO2 SLP019 T00610006
94908KDBQ DBQ20110427135509604/27/11 13:55:31  5-MIN KDBQ 271955Z 31011KT 10SM OVC028 06/01 A2957 1410 70 700 310/11 RMK AO2
94908KDBQ DBQ20110427140009604/27/11 14:00:31  5-MIN KDBQ 272000Z 31014KT 10SM OVC028 06/01 A2956 1410 67 700 310/14 RMK AO2
94908KDBQ DBQ20110427140510904/27/11 14:05:31  5-MIN KDBQ 272005Z 31015G22KT 10SM OVC028 06/01 A2955 1420 67 700 310/15G22 RMK AO2 PRESFR
94908KDBQ DBQ20110427141010204/27/11 14:10:31  5-MIN KDBQ 272010Z 31012G22KT 10SM OVC028 06/01 A2955 1430 70 700 310/12G22 RMK AO2
94908KDBQ DBQ20110427141510304/27/11 14:15:31  5-MIN KDBQ 272015Z 32014KT 10SM BKN025 OVC030 06/01 A2955 1430 70 700 320/14 RMK AO2
94908KDBQ DBQ20110427142010204/27/11 14:20:31  5-MIN KDBQ 272020Z 30015G20KT 10SM OVC027 06/01 A2954 1430 67 700 300/15G20 RMK AO2
94908KDBQ DBQ20110427142510204/27/11 14:25:31  5-MIN KDBQ 272025Z 31011G20KT 10SM OVC027 06/01 A2954 1430 67 700 310/11G20 RMK AO2
94908KDBQ DBQ20110427143010204/27/11 14:30:31  5-MIN KDBQ 272030Z 32014G20KT 10SM OVC027 06/01 A2954 1430 67 700 310/14G20 RMK AO2
94908KDBQ DBQ20110427143509604/27/11 14:35:31  5-MIN KDBQ 272035Z 31013KT 10SM OVC027 06/01 A2954 1430 70 700 310/13 RMK AO2
94908KDBQ DBQ20110427144010204/27/11 14:40:31  5-MIN KDBQ 272040Z 32012G19KT 10SM OVC029 06/01 A2954 1430 70 700 320/12G19 RMK AO2
94908KDBQ DBQ20110427144509604/27/11 14:45:31  5-MIN KDBQ 272045Z 30011KT 10SM OVC029 06/01 A2955 1420 70 700 300/11 RMK AO2
94908KDBQ DBQ20110427145011904/27/11 14:50:31  5-MIN KDBQ 272050Z 31009KT 10SM OVC027 06/01 A2955 1420 73 700 310/09 RMK AO2 SLP013 T00560011 53005
94908KDBQ DBQ20110427145509604/27/11 14:55:31  5-MIN KDBQ 272055Z 32010KT 10SM OVC027 06/01 A2956 1420 70 700 320/10 RMK AO2
94908KDBQ DBQ20110427150009604/27/11 15:00:31  5-MIN KDBQ 272100Z 32010KT 10SM OVC027 06/01 A2956 1410 73 700 320/10 RMK AO2
94908KDBQ DBQ20110427150509604/27/11 15:05:31  5-MIN KDBQ 272105Z 32008KT 10SM OVC027 06/01 A2956 1410 70 700 310/08 RMK AO2
94908KDBQ DBQ20110427151009604/27/11 15:10:31  5-MIN KDBQ 272110Z 33010KT 10SM OVC027 06/01 A2956 1410 70 700 330/10 RMK AO2
94908KDBQ DBQ20110427151509604/27/11 15:15:31  5-MIN KDBQ 272115Z 32008KT 10SM OVC027 06/01 A2957 1410 70 600 320/08 RMK AO2
94908KDBQ DBQ20110427152010904/27/11 15:20:31  5-MIN KDBQ 272120Z 31012G17KT 10SM BKN025 OVC030 06/01 A2957 1410 73 600 300/12G17 RMK AO2
94908KDBQ DBQ20110427152510204/27/11 15:25:31  5-MIN KDBQ 272125Z 31011G17KT 10SM OVC027 06/01 A2957 1410 70 600 310/11G17 RMK AO2
94908KDBQ DBQ20110427153009604/27/11 15:30:31  5-MIN KDBQ 272130Z 30010KT 10SM OVC027 06/01 A2957 1400 70 600 290/10 RMK AO2
94908KDBQ DBQ20110427153509604/27/11 15:35:31  5-MIN KDBQ 272135Z 30010KT 10SM OVC027 06/00 A2958 1400 67 600 290/10 RMK AO2
94908KDBQ DBQ20110427154009604/27/11 15:40:31  5-MIN KDBQ 272140Z 31012KT 10SM OVC027 06/01 A2958 1390 70 600 310/12 RMK AO2
94908KDBQ DBQ20110427154509604/27/11 15:45:31  5-MIN KDBQ 272145Z 30011KT 10SM OVC027 06/00 A2958 1400 67 600 300/11 RMK AO2
94908KDBQ DBQ20110427155011304/27/11 15:50:31  5-MIN KDBQ 272150Z 31012KT 10SM OVC029 06/01 A2958 1400 70 600 310/12 RMK AO2 SLP021 T00560006
94908KDBQ DBQ20110427155509604/27/11 15:55:31  5-MIN KDBQ 272155Z 31013KT 10SM OVC029 06/00 A2958 1400 67 600 310/13 RMK AO2
94908KDBQ DBQ20110427160009604/27/11 16:00:31  5-MIN KDBQ 272200Z 31011KT 10SM OVC031 06/00 A2958 1400 67 600 310/11 RMK AO2
94908KDBQ DBQ20110427160509604/27/11 16:05:31  5-MIN KDBQ 272205Z 31009KT 10SM OVC029 06/00 A2958 1400 65 700 310/09 RMK AO2
94908KDBQ DBQ20110427161009604/27/11 16:10:31  5-MIN KDBQ 272210Z 29007KT 10SM OVC029 06/00 A2958 1390 65 700 290/07 RMK AO2
94908KDBQ DBQ20110427161509604/27/11 16:15:31  5-MIN KDBQ 272215Z 31006KT 10SM OVC029 06/01 A2959 1390 67 700 310/06 RMK AO2
94908KDBQ DBQ20110427162009604/27/11 16:20:31  5-MIN KDBQ 272220Z 30008KT 10SM OVC029 06/00 A2959 1390 65 700 300/08 RMK AO2
94908KDBQ DBQ20110427162509604/27/11 16:25:31  5-MIN KDBQ 272225Z 30009KT 10SM OVC029 06/00 A2959 1390 67 600 300/09 RMK AO2
94908KDBQ DBQ20110427163009604/27/11 16:30:31  5-MIN KDBQ 272230Z 32008KT 10SM OVC029 06/01 A2959 1390 70 600 320/08 RMK AO2
94908KDBQ DBQ20110427163509604/27/11 16:35:31  5-MIN KDBQ 272235Z 32008KT 10SM OVC029 06/01 A2959 1390 70 600 310/08 RMK AO2
94908KDBQ DBQ20110427164009604/27/11 16:40:31  5-MIN KDBQ 272240Z 32005KT 10SM OVC029 06/00 A2959 1390 67 600 320/05 RMK AO2
94908KDBQ DBQ20110427164509604/27/11 16:45:31  5-MIN KDBQ 272245Z 31006KT 10SM OVC029 06/01 A2959 1390 67 700 310/06 RMK AO2
94908KDBQ DBQ20110427165011304/27/11 16:50:31  5-MIN KDBQ 272250Z 30006KT 10SM OVC029 06/00 A2959 1390 65 700 300/06 RMK AO2 SLP025 T00610000
94908KDBQ DBQ20110427165510304/27/11 16:55:31  5-MIN KDBQ 272255Z 29008KT 10SM SCT030 OVC037 06/01 A2959 1390 67 700 290/08 RMK AO2
94908KDBQ DBQ20110427170010304/27/11 17:00:31  5-MIN KDBQ 272300Z 30008KT 10SM BKN033 OVC041 06/01 A2958 1390 67 700 300/08 RMK AO2
94908KDBQ DBQ20110427170511004/27/11 17:05:31  5-MIN KDBQ 272305Z 31007KT 10SM FEW030 BKN037 OVC044 06/01 A2958 1390 67 700 310/07 RMK AO2
94908KDBQ DBQ20110427171010304/27/11 17:10:31  5-MIN KDBQ 272310Z 29007KT 10SM SCT037 OVC044 06/01 A2958 1400 67 700 290/07 RMK AO2
94908KDBQ DBQ20110427171510304/27/11 17:15:31  5-MIN KDBQ 272315Z 29007KT 10SM FEW037 OVC044 07/01 A2958 1400 65 800 290/07 RMK AO2
94908KDBQ DBQ20110427172010304/27/11 17:20:31  5-MIN KDBQ 272320Z 31007KT 10SM FEW035 OVC044 07/01 A2957 1400 65 800 310/07 RMK AO2
94908KDBQ DBQ20110427172509604/27/11 17:25:31  5-MIN KDBQ 272325Z 31007KT 10SM OVC044 06/01 A2957 1400 67 700 310/07 RMK AO2
94908KDBQ DBQ20110427173010304/27/11 17:30:31  5-MIN KDBQ 272330Z 31008KT 10SM FEW035 OVC044 06/01 A2957 1400 67 700 310/08 RMK AO2
94908KDBQ DBQ20110427173510304/27/11 17:35:31  5-MIN KDBQ 272335Z 32009KT 10SM SCT033 OVC044 06/01 A2957 1400 67 700 320/09 RMK AO2
94908KDBQ DBQ20110427174010304/27/11 17:40:31  5-MIN KDBQ 272340Z 30008KT 10SM BKN031 OVC044 06/01 A2957 1410 67 700 300/08 RMK AO2
94908KDBQ DBQ20110427174510304/27/11 17:45:31  5-MIN KDBQ 272345Z 30007KT 10SM BKN031 OVC044 06/01 A2957 1410 70 700 300/07 RMK AO2
94908KDBQ DBQ20110427175013804/27/11 17:50:31  5-MIN KDBQ 272350Z 31007KT 10SM BKN031 OVC044 06/01 A2957 1410 67 700 310/07 RMK AO2 SLP019 T00610006 10067 20056 50003
94908KDBQ DBQ20110427175510304/27/11 17:55:31  5-MIN KDBQ 272355Z 31006KT 10SM BKN031 OVC040 06/01 A2957 1410 70 700 310/06 RMK AO2
94908KDBQ DBQ20110427180010304/27/11 18:00:31  5-MIN KDBQ 280000Z 29007KT 10SM SCT031 OVC040 06/01 A2957 1410 70 700 290/07 RMK AO2
94908KDBQ DBQ20110427180510304/27/11 18:05:31  5-MIN KDBQ 280005Z 31008KT 10SM SCT031 OVC040 06/01 A2957 1410 67 700 300/08 RMK AO2
94908KDBQ DBQ20110427181010304/27/11 18:10:31  5-MIN KDBQ 280010Z 31007KT 10SM FEW031 OVC040 06/01 A2957 1410 67 700 310/07 RMK AO2
94908KDBQ DBQ20110427181509604/27/11 18:15:31  5-MIN KDBQ 280015Z 33004KT 10SM OVC036 06/01 A2957 1400 70 700 330/04 RMK AO2
94908KDBQ DBQ20110427182010304/27/11 18:20:31  5-MIN KDBQ 280020Z 31006KT 10SM BKN036 OVC042 06/01 A2957 1400 70 700 310/06 RMK AO2
94908KDBQ DBQ20110427182510304/27/11 18:25:31  5-MIN KDBQ 280025Z 30006KT 10SM SCT033 OVC042 06/01 A2957 1400 70 700 300/06 RMK AO2
94908KDBQ DBQ20110427183010304/27/11 18:30:31  5-MIN KDBQ 280030Z 31007KT 10SM BKN038 OVC045 06/01 A2958 1400 70 700 310/07 RMK AO2
94908KDBQ DBQ20110427183510304/27/11 18:35:31  5-MIN KDBQ 280035Z 31006KT 10SM BKN038 OVC045 06/01 A2958 1400 67 700 310/06 RMK AO2
94908KDBQ DBQ20110427184010304/27/11 18:40:31  5-MIN KDBQ 280040Z 30007KT 10SM BKN038 OVC045 06/01 A2958 1400 70 700 300/07 RMK AO2
94908KDBQ DBQ20110427184510304/27/11 18:45:31  5-MIN KDBQ 280045Z 31005KT 10SM BKN038 OVC045 06/01 A2958 1400 67 700 310/05 RMK AO2
94908KDBQ DBQ20110427185012004/27/11 18:50:31  5-MIN KDBQ 280050Z 31004KT 10SM FEW031 OVC043 06/01 A2958 1400 70 700 310/04 RMK AO2 SLP021 T00610011
94908KDBQ DBQ20110427185510304/27/11 18:55:31  5-MIN KDBQ 280055Z 31005KT 10SM SCT031 OVC042 06/01 A2958 1400 70 700 310/05 RMK AO2
94908KDBQ DBQ20110427190010804/27/11 19:00:31  5-MIN KDBQ 280100Z AUTO 31004KT 10SM SCT031 OVC042 06/01 A2957 1400 70 700 310/04 RMK AO2
94908KDBQ DBQ20110427190510804/27/11 19:05:31  5-MIN KDBQ 280105Z AUTO 32004KT 10SM FEW031 OVC044 06/01 A2957 1400 70 700 320/04 RMK AO2
94908KDBQ DBQ20110427191010804/27/11 19:10:31  5-MIN KDBQ 280110Z AUTO 31003KT 10SM FEW031 OVC044 06/01 A2957 1400 73 600 310/03 RMK AO2
94908KDBQ DBQ20110427191510804/27/11 19:15:31  5-MIN KDBQ 280115Z AUTO 31004KT 10SM FEW031 OVC044 06/02 A2957 1400 76 600 310/04 RMK AO2
94908KDBQ DBQ20110427192010804/27/11 19:20:31  5-MIN KDBQ 280120Z AUTO 31005KT 10SM FEW031 OVC044 06/01 A2957 1400 73 600 310/05 RMK AO2
94908KDBQ DBQ20110427192510104/27/11 19:25:31  5-MIN KDBQ 280125Z AUTO 31006KT 10SM OVC042 06/01 A2957 1400 70 700 310/06 RMK AO2
94908KDBQ DBQ20110427193010104/27/11 19:30:31  5-MIN KDBQ 280130Z AUTO 30007KT 10SM OVC042 06/02 A2957 1400 73 700 300/07 RMK AO2
94908KDBQ DBQ20110427193510104/27/11 19:35:31  5-MIN KDBQ 280135Z AUTO 30009KT 10SM OVC042 06/02 A2957 1400 73 700 300/09 RMK AO2
94908KDBQ DBQ20110427194010804/27/11 19:40:31  5-MIN KDBQ 280140Z AUTO 30009KT 10SM BKN040 OVC047 06/02 A2957 1400 73 700 290/09 RMK AO2
94908KDBQ DBQ20110427194510804/27/11 19:45:31  5-MIN KDBQ 280145Z AUTO 30006KT 10SM SCT040 BKN047 06/02 A2957 1400 76 600 300/06 RMK AO2
94908KDBQ DBQ20110427195012504/27/11 19:50:31  5-MIN KDBQ 280150Z AUTO 30005KT 10SM FEW038 BKN047 06/01 A2957 1400 73 600 300/05 RMK AO2 SLP020 T00560011
94908KDBQ DBQ20110427195510804/27/11 19:55:31  5-MIN KDBQ 280155Z AUTO 29006KT 10SM FEW038 BKN047 05/01 A2958 1400 76 600 290/06 RMK AO2
94908KDBQ DBQ20110427200010104/27/11 20:00:31  5-MIN KDBQ 280200Z AUTO 29006KT 10SM BKN047 06/02 A2958 1390 76 600 290/06 RMK AO2
94908KDBQ DBQ20110427200510104/27/11 20:05:31  5-MIN KDBQ 280205Z AUTO 29006KT 10SM BKN047 06/02 A2958 1390 76 600 290/06 RMK AO2
94908KDBQ DBQ20110427201010104/27/11 20:10:31  5-MIN KDBQ 280210Z AUTO 28006KT 10SM OVC047 06/02 A2958 1390 76 600 280/06 RMK AO2
94908KDBQ DBQ20110427201510104/27/11 20:15:31  5-MIN KDBQ 280215Z AUTO 28007KT 10SM OVC047 06/02 A2958 1390 76 600 280/07 RMK AO2
94908KDBQ DBQ20110427202010104/27/11 20:20:31  5-MIN KDBQ 280220Z AUTO 28008KT 10SM BKN047 06/02 A2958 1400 76 600 280/08 RMK AO2
94908KDBQ DBQ20110427202510104/27/11 20:25:31  5-MIN KDBQ 280225Z AUTO 27008KT 10SM BKN047 05/02 A2958 1400 79 600 270/08 RMK AO2
94908KDBQ DBQ20110427203010104/27/11 20:30:31  5-MIN KDBQ 280230Z AUTO 26006KT 10SM SCT047 05/02 A2958 1400 79 600 260/06 RMK AO2
94908KDBQ DBQ20110427203510104/27/11 20:35:31  5-MIN KDBQ 280235Z AUTO 26007KT 10SM SCT049 04/02 A2958 1400 82 500 260/07 RMK AO2
94908KDBQ DBQ20110427204010104/27/11 20:40:31  5-MIN KDBQ 280240Z AUTO 27006KT 10SM FEW049 04/02 A2958 1400 82 500 270/06 RMK AO2
94908KDBQ DBQ20110427204509804/27/11 20:45:31  5-MIN KDBQ 280245Z AUTO 27006KT 10SM CLR 04/02 A2958 1400 85 400 270/06 RMK AO2
94908KDBQ DBQ20110427205012104/27/11 20:50:31  5-MIN KDBQ 280250Z AUTO 27006KT 10SM CLR 04/02 A2958 1400 85 400 270/06 RMK AO2 SLP023 T00390017 50004
94908KDBQ DBQ20110427205509804/27/11 20:55:31  5-MIN KDBQ 280255Z AUTO 26006KT 10SM CLR 04/01 A2958 1400 82 400 260/06 RMK AO2
94908KDBQ DBQ20110427210010104/27/11 21:00:31  5-MIN KDBQ 280300Z AUTO 27007KT 10SM FEW042 03/02 A2957 1400 89 400 270/07 RMK AO2
94908KDBQ DBQ20110427210510104/27/11 21:05:31  5-MIN KDBQ 280305Z AUTO 28007KT 10SM SCT042 04/02 A2957 1400 85 400 280/07 RMK AO2
94908KDBQ DBQ20110427211010104/27/11 21:10:31  5-MIN KDBQ 280310Z AUTO 28007KT 10SM FEW042 04/02 A2957 1400 82 500 280/07 RMK AO2
94908KDBQ DBQ20110427211510104/27/11 21:15:31  5-MIN KDBQ 280315Z AUTO 28007KT 10SM SCT042 04/02 A2957 1400 82 500 280/07 RMK AO2
94908KDBQ DBQ20110427212010104/27/11 21:20:31  5-MIN KDBQ 280320Z AUTO 28007KT 10SM BKN042 04/02 A2957 1410 82 500 280/07 RMK AO2
94908KDBQ DBQ20110427212510104/27/11 21:25:31  5-MIN KDBQ 280325Z AUTO 28007KT 10SM BKN042 04/02 A2957 1410 82 500 280/07 RMK AO2
94908KDBQ DBQ20110427213010104/27/11 21:30:31  5-MIN KDBQ 280330Z AUTO 29008KT 10SM BKN042 04/02 A2957 1410 82 500 290/08 RMK AO2
94908KDBQ DBQ20110427213510104/27/11 21:35:31  5-MIN KDBQ 280335Z AUTO 29008KT 10SM BKN042 04/02 A2957 1410 82 500 290/08 RMK AO2
94908KDBQ DBQ20110427214010104/27/11 21:40:31  5-MIN KDBQ 280340Z AUTO 28007KT 10SM BKN042 04/02 A2957 1410 82 500 280/07 RMK AO2
94908KDBQ DBQ20110427214510104/27/11 21:45:31  5-MIN KDBQ 280345Z AUTO 28007KT 10SM BKN042 04/02 A2957 1410 82 500 280/07 RMK AO2
94908KDBQ DBQ20110427215011804/27/11 21:50:31  5-MIN KDBQ 280350Z AUTO 27007KT 10SM BKN042 04/02 A2957 1410 82 500 270/07 RMK AO2 SLP018 T00440017
94908KDBQ DBQ20110427215510104/27/11 21:55:31  5-MIN KDBQ 280355Z AUTO 27007KT 10SM OVC042 04/02 A2957 1410 82 500 270/07 RMK AO2
94908KDBQ DBQ20110427220010104/27/11 22:00:31  5-MIN KDBQ 280400Z AUTO 27008KT 10SM OVC042 04/02 A2956 1410 82 500 270/08 RMK AO2
94908KDBQ DBQ20110427220510104/27/11 22:05:31  5-MIN KDBQ 280405Z AUTO 27008KT 10SM OVC042 04/02 A2957 1410 82 500 270/08 RMK AO2
94908KDBQ DBQ20110427221010804/27/11 22:10:31  5-MIN KDBQ 280410Z AUTO 27008KT 10SM FEW030 OVC042 04/02 A2957 1410 82 500 270/08 RMK AO2
94908KDBQ DBQ20110427221510804/27/11 22:15:31  5-MIN KDBQ 280415Z AUTO 27007KT 10SM SCT036 BKN043 04/02 A2956 1410 82 500 270/07 RMK AO2
94908KDBQ DBQ20110427222010804/27/11 22:20:31  5-MIN KDBQ 280420Z AUTO 28007KT 10SM FEW036 BKN043 04/02 A2956 1410 82 500 280/07 RMK AO2
94908KDBQ DBQ20110427222510804/27/11 22:25:31  5-MIN KDBQ 280425Z AUTO 27007KT 10SM FEW033 SCT043 04/02 A2956 1410 85 400 270/07 RMK AO2
94908KDBQ DBQ20110427223010804/27/11 22:30:31  5-MIN KDBQ 280430Z AUTO 26007KT 10SM FEW033 SCT043 04/02 A2957 1410 85 400 260/07 RMK AO2
94908KDBQ DBQ20110427223510804/27/11 22:35:31  5-MIN KDBQ 280435Z AUTO 26006KT 10SM FEW033 SCT043 04/02 A2957 1410 85 400 260/06 RMK AO2
94908KDBQ DBQ20110427224010104/27/11 22:40:31  5-MIN KDBQ 280440Z AUTO 27008KT 10SM SCT030 04/02 A2957 1410 82 500 270/08 RMK AO2
94908KDBQ DBQ20110427224510104/27/11 22:45:31  5-MIN KDBQ 280445Z AUTO 27010KT 10SM BKN030 04/02 A2957 1400 85 500 270/10 RMK AO2
94908KDBQ DBQ20110427225011804/27/11 22:50:31  5-MIN KDBQ 280450Z AUTO 27009KT 10SM BKN030 04/02 A2957 1400 85 500 270/09 RMK AO2 SLP020 T00440022
94908KDBQ DBQ20110427225510104/27/11 22:55:31  5-MIN KDBQ 280455Z AUTO 27010KT 10SM BKN030 05/02 A2957 1400 82 600 270/10 RMK AO2
94908KDBQ DBQ20110427230010104/27/11 23:00:31  5-MIN KDBQ 280500Z AUTO 27009KT 10SM OVC030 04/02 A2957 1400 85 500 270/09 RMK AO2
94908KDBQ DBQ20110427230510104/27/11 23:05:31  5-MIN KDBQ 280505Z AUTO 27009KT 10SM OVC028 04/02 A2957 1400 85 500 270/09 RMK AO2
94908KDBQ DBQ20110427231010104/27/11 23:10:31  5-MIN KDBQ 280510Z AUTO 27008KT 10SM OVC028 04/02 A2957 1400 85 500 270/08 RMK AO2
94908KDBQ DBQ20110427231510104/27/11 23:15:31  5-MIN KDBQ 280515Z AUTO 27009KT 10SM OVC028 04/02 A2957 1400 85 500 270/09 RMK AO2
94908KDBQ DBQ20110427232010104/27/11 23:20:31  5-MIN KDBQ 280520Z AUTO 27009KT 10SM OVC028 04/02 A2957 1400 85 500 270/09 RMK AO2
94908KDBQ DBQ20110427232510104/27/11 23:25:31  5-MIN KDBQ 280525Z AUTO 27009KT 10SM OVC028 04/02 A2957 1400 85 500 270/09 RMK AO2
94908KDBQ DBQ20110427233010104/27/11 23:30:31  5-MIN KDBQ 280530Z AUTO 27009KT 10SM OVC028 04/02 A2957 1400 85 500 270/09 RMK AO2
94908KDBQ DBQ20110427233510104/27/11 23:35:31  5-MIN KDBQ 280535Z AUTO 27008KT 10SM OVC028 04/02 A2957 1400 85 500 270/08 RMK AO2
94908KDBQ DBQ20110427234010104/27/11 23:40:31  5-MIN KDBQ 280540Z AUTO 27009KT 10SM OVC028 04/02 A2957 1400 85 500 270/09 RMK AO2
94908KDBQ DBQ20110427234510804/27/11 23:45:31  5-MIN KDBQ 280545Z AUTO 27011KT 10SM BKN028 OVC034 04/02 A2957 1400 85 500 270/11 RMK AO2
94908KDBQ DBQ20110427235015304/27/11 23:50:31  5-MIN KDBQ 280550Z AUTO 27011KT 10SM BKN028 OVC036 04/02 A2957 1400 85 500 270/11 RMK AO2 SLP019 T00440022 10061 20033 400780033 51003
94908KDBQ DBQ20110427235510804/27/11 23:55:31  5-MIN KDBQ 280555Z AUTO 28010KT 10SM BKN028 OVC036 04/02 A2957 1400 85 500 280/10 RMK AO2
94908KDBQ DBQ20110428000010804/28/11 00:00:38  5-MIN KDBQ 280600Z AUTO 28010KT 10SM SCT030 OVC038 04/02 A2957 1400 85 500 280/10 RMK AO2
94908KDBQ DBQ20110428000510804/28/11 00:05:31  5-MIN KDBQ 280605Z AUTO 28010KT 10SM FEW030 OVC038 04/02 A2957 1400 85 500 280/10 RMK AO2
94908KDBQ DBQ20110428001010804/28/11 00:10:31  5-MIN KDBQ 280610Z AUTO 29010KT 10SM FEW030 OVC040 04/02 A2957 1400 82 500 280/10 RMK AO2
94908KDBQ DBQ20110428001510804/28/11 00:15:32  5-MIN KDBQ 280615Z AUTO 28009KT 10SM FEW030 OVC042 04/02 A2957 1400 82 500 280/09 RMK AO2
94908KDBQ DBQ20110428002010804/28/11 00:20:31  5-MIN KDBQ 280620Z AUTO 28009KT 10SM FEW030 OVC042 04/02 A2957 1400 85 500 280/09 RMK AO2
94908KDBQ DBQ20110428002510104/28/11 00:25:31  5-MIN KDBQ 280625Z AUTO 28009KT 10SM OVC042 04/02 A2957 1400 85 500 280/09 RMK AO2
94908KDBQ DBQ20110428003010104/28/11 00:30:31  5-MIN KDBQ 280630Z AUTO 28009KT 10SM OVC042 04/02 A2957 1400 85 500 280/09 RMK AO2
94908KDBQ DBQ20110428003510104/28/11 00:35:31  5-MIN KDBQ 280635Z AUTO 28008KT 10SM OVC042 04/02 A2957 1410 85 500 280/08 RMK AO2
94908KDBQ DBQ20110428004010104/28/11 00:40:31  5-MIN KDBQ 280640Z AUTO 29009KT 10SM OVC042 04/02 A2957 1410 85 500 280/09 RMK AO2
94908KDBQ DBQ20110428004510104/28/11 00:45:31  5-MIN KDBQ 280645Z AUTO 29008KT 10SM OVC042 04/02 A2957 1410 85 500 290/08 RMK AO2
94908KDBQ DBQ20110428005011804/28/11 00:50:31  5-MIN KDBQ 280650Z AUTO 30009KT 10SM OVC044 04/02 A2957 1410 85 500 290/09 RMK AO2 SLP018 T00440022
94908KDBQ DBQ20110428005510804/28/11 00:55:31  5-MIN KDBQ 280655Z AUTO 30010KT 10SM FEW033 OVC044 04/02 A2957 1410 85 500 300/10 RMK AO2
94908KDBQ DBQ20110428010010804/28/11 01:00:31  5-MIN KDBQ 280700Z AUTO 29008KT 10SM FEW032 OVC044 04/02 A2957 1410 85 500 290/08 RMK AO2
94908KDBQ DBQ20110428010510804/28/11 01:05:31  5-MIN KDBQ 280705Z AUTO 30010KT 10SM FEW032 OVC044 04/02 A2957 1410 85 500 300/10 RMK AO2
94908KDBQ DBQ20110428011010804/28/11 01:10:31  5-MIN KDBQ 280710Z AUTO 30010KT 10SM FEW030 OVC044 04/02 A2956 1410 85 500 300/10 RMK AO2
94908KDBQ DBQ20110428011510804/28/11 01:15:31  5-MIN KDBQ 280715Z AUTO 30010KT 10SM FEW030 OVC044 04/02 A2957 1410 82 500 300/10 RMK AO2
94908KDBQ DBQ20110428012010804/28/11 01:20:31  5-MIN KDBQ 280720Z AUTO 29010KT 10SM FEW030 OVC044 04/02 A2956 1410 85 500 290/10 RMK AO2
94908KDBQ DBQ20110428012510104/28/11 01:25:31  5-MIN KDBQ 280725Z AUTO 30009KT 10SM OVC046 04/02 A2956 1410 82 500 300/09 RMK AO2
94908KDBQ DBQ20110428013010104/28/11 01:30:31  5-MIN KDBQ 280730Z AUTO 30010KT 10SM OVC046 04/02 A2956 1410 82 500 300/10 RMK AO2
94908KDBQ DBQ20110428013510104/28/11 01:35:31  5-MIN KDBQ 280735Z AUTO 29010KT 10SM OVC046 04/02 A2956 1410 82 500 290/10 RMK AO2
94908KDBQ DBQ20110428014010104/28/11 01:40:31  5-MIN KDBQ 280740Z AUTO 29011KT 10SM OVC046 04/01 A2956 1410 76 500 290/11 RMK AO2
94908KDBQ DBQ20110428014510104/28/11 01:45:31  5-MIN KDBQ 280745Z AUTO 30012KT 10SM OVC046 04/01 A2956 1410 79 400 300/12 RMK AO2
94908KDBQ DBQ20110428015011804/28/11 01:50:31  5-MIN KDBQ 280750Z AUTO 31011KT 10SM OVC046 04/01 A2956 1410 79 400 310/11 RMK AO2 SLP017 T00390006
94908KDBQ DBQ20110428015510104/28/11 01:55:31  5-MIN KDBQ 280755Z AUTO 31012KT 10SM OVC046 04/01 A2956 1410 79 400 310/12 RMK AO2
94908KDBQ DBQ20110428020010104/28/11 02:00:31  5-MIN KDBQ 280800Z AUTO 31012KT 10SM OVC046 04/01 A2956 1410 79 400 310/12 RMK AO2
94908KDBQ DBQ20110428020510104/28/11 02:05:31  5-MIN KDBQ 280805Z AUTO 30012KT 10SM OVC046 04/01 A2956 1410 79 400 300/12 RMK AO2
94908KDBQ DBQ20110428021010804/28/11 02:10:31  5-MIN KDBQ 280810Z AUTO 30013KT 10SM FEW023 OVC046 04/01 A2956 1410 79 400 300/13 RMK AO2
94908KDBQ DBQ20110428021510804/28/11 02:15:31  5-MIN KDBQ 280815Z AUTO 30013KT 10SM FEW023 OVC046 04/00 A2956 1410 76 400 300/13 RMK AO2
94908KDBQ DBQ20110428022010104/28/11 02:20:31  5-MIN KDBQ 280820Z AUTO 30016KT 10SM OVC046 04/00 A2956 1410 76 400 300/16 RMK AO2
94908KDBQ DBQ20110428022510104/28/11 02:25:31  5-MIN KDBQ 280825Z AUTO 30013KT 10SM OVC046 04/00 A2956 1410 76 400 300/13 RMK AO2
94908KDBQ DBQ20110428023010104/28/11 02:30:31  5-MIN KDBQ 280830Z AUTO 31013KT 10SM OVC046 04/00 A2956 1410 76 400 300/13 RMK AO2
94908KDBQ DBQ20110428023510804/28/11 02:35:31  5-MIN KDBQ 280835Z AUTO 31011KT 10SM FEW038 OVC046 03/00 A2957 1410 79 400 310/11 RMK AO2
94908KDBQ DBQ20110428024010804/28/11 02:40:31  5-MIN KDBQ 280840Z AUTO 31012KT 10SM FEW038 OVC046 03/00 A2957 1410 79 400 310/12 RMK AO2
94908KDBQ DBQ20110428024511404/28/11 02:45:31  5-MIN KDBQ 280845Z AUTO 31012G18KT 10SM FEW038 OVC046 03/00 A2957 1410 79 400 310/12G18 RMK AO2
94908KDBQ DBQ20110428025012404/28/11 02:50:31  5-MIN KDBQ 280850Z AUTO 30012KT 10SM OVC046 03/00 A2957 1410 79 400 300/12 RMK AO2 SLP020 T00330000 56002
94908KDBQ DBQ20110428025510104/28/11 02:55:31  5-MIN KDBQ 280855Z AUTO 30012KT 10SM OVC046 03/00 A2957 1410 79 400 300/12 RMK AO2
94908KDBQ DBQ20110428030010104/28/11 03:00:31  5-MIN KDBQ 280900Z AUTO 29012KT 10SM OVC044 03/00 A2957 1410 79 400 290/12 RMK AO2
94908KDBQ DBQ20110428030510104/28/11 03:05:31  5-MIN KDBQ 280905Z AUTO 30012KT 10SM OVC044 03/00 A2956 1410 79 400 300/12 RMK AO2
94908KDBQ DBQ20110428031010104/28/11 03:10:31  5-MIN KDBQ 280910Z AUTO 30015KT 10SM OVC044 03/00 A2956 1410 79 400 300/15 RMK AO2
94908KDBQ DBQ20110428031510104/28/11 03:15:31  5-MIN KDBQ 280915Z AUTO 30012KT 10SM OVC044 03/00 A2957 1410 79 400 300/12 RMK AO2
94908KDBQ DBQ20110428032010804/28/11 03:20:31  5-MIN KDBQ 280920Z AUTO 29015KT 10SM BKN044 OVC055 03/00 A2957 1410 79 400 290/15 RMK AO2
94908KDBQ DBQ20110428032510804/28/11 03:25:31  5-MIN KDBQ 280925Z AUTO 30013KT 10SM BKN044 OVC050 03/00 A2957 1400 79 400 290/13 RMK AO2
94908KDBQ DBQ20110428033010804/28/11 03:30:31  5-MIN KDBQ 280930Z AUTO 30012KT 10SM SCT044 OVC050 03/00 A2957 1400 79 400 290/12 RMK AO2
94908KDBQ DBQ20110428033510804/28/11 03:35:31  5-MIN KDBQ 280935Z AUTO 29014KT 10SM SCT044 OVC055 03/00 A2958 1400 82 300 290/14 RMK AO2
94908KDBQ DBQ20110428034011504/28/11 03:40:31  5-MIN KDBQ 280940Z AUTO 30015G21KT 10SM SCT044 OVC055 03/M01 A2958 1390 79 300 300/15G21 RMK AO2
94908KDBQ DBQ20110428034510904/28/11 03:45:31  5-MIN KDBQ 280945Z AUTO 30015KT 10SM BKN050 OVC070 03/M01 A2958 1390 75 300 300/15 RMK AO2
94908KDBQ DBQ20110428035013304/28/11 03:50:31  5-MIN KDBQ 280950Z AUTO 29014KT 10SM FEW046 BKN055 OVC070 03/M01 A2958 1390 75 300 290/14 RMK AO2 SLP025 T00281011
94908KDBQ DBQ20110428035511604/28/11 03:55:31  5-MIN KDBQ 280955Z AUTO 29012KT 10SM FEW039 SCT055 OVC070 03/M01 A2958 1390 75 300 290/12 RMK AO2
94908KDBQ DBQ20110428040011604/28/11 04:00:31  5-MIN KDBQ 281000Z AUTO 28013KT 10SM SCT043 SCT055 OVC070 02/M01 A2958 1390 78 200 280/13 RMK AO2
94908KDBQ DBQ20110428041011604/28/11 04:10:31  5-MIN KDBQ 281010Z AUTO 29014KT 10SM FEW040 BKN055 OVC070 02/M01 A2959 1390 78 200 290/14 RMK AO2
94908KDBQ DBQ20110428041511604/28/11 04:15:31  5-MIN KDBQ 281015Z AUTO 29014KT 10SM FEW040 BKN055 OVC070 02/M01 A2959 1390 78 200 290/14 RMK AO2
94908KDBQ DBQ20110428042010904/28/11 04:20:31  5-MIN KDBQ 281020Z AUTO 30014KT 10SM BKN055 BKN070 02/M01 A2959 1390 82 100 300/14 RMK AO2
94908KDBQ DBQ20110428042512204/28/11 04:25:31  5-MIN KDBQ 281025Z AUTO 29012G19KT 10SM SCT060 BKN070 OVC100 02/M01 A2959 1390 82 100 290/12G19 RMK AO2
94908KDBQ DBQ20110428043011604/28/11 04:30:31  5-MIN KDBQ 281030Z AUTO 29012KT 10SM SCT060 BKN080 OVC110 02/M01 A2959 1380 82 100 290/12 RMK AO2
94908KDBQ DBQ20110428043511604/28/11 04:35:31  5-MIN KDBQ 281035Z AUTO 29011KT 10SM FEW060 BKN090 OVC110 02/M01 A2959 1380 82 100 290/11 RMK AO2
94908KDBQ DBQ20110428044011604/28/11 04:40:31  5-MIN KDBQ 281040Z AUTO 28012KT 10SM FEW021 BKN095 OVC110 02/M01 A2960 1380 85 100 280/12 RMK AO2
94908KDBQ DBQ20110428044511604/28/11 04:45:31  5-MIN KDBQ 281045Z AUTO 28011KT 10SM FEW018 SCT060 OVC100 02/M01 A2960 1380 82 200 280/11 RMK AO2
94908KDBQ DBQ20110428045012104/28/11 04:50:31  5-MIN KDBQ 281050Z 29012KT 10SM FEW018 OVC110 02/M01 A2960 1380 82 200 290/12 RMK AO2 SLP031 T00221006
94908KDBQ DBQ20110428045511004/28/11 04:55:31  5-MIN KDBQ 281055Z 29012G18KT 10SM SCT018 OVC110 02/M01 A2960 1370 82 200 290/12G18 RMK AO2
94908KDBQ DBQ20110428050011004/28/11 05:00:31  5-MIN KDBQ 281100Z 29014G20KT 10SM SCT018 OVC110 02/M01 A2960 1370 82 200 290/14G20 RMK AO2
94908KDBQ DBQ20110428050510404/28/11 05:05:31  5-MIN KDBQ 281105Z 29014KT 10SM SCT018 OVC110 02/M01 A2961 1370 82 200 290/14 RMK AO2
94908KDBQ DBQ20110428051010404/28/11 05:10:31  5-MIN KDBQ 281110Z 29012KT 10SM SCT018 OVC110 02/M01 A2960 1370 85 100 290/12 RMK AO2
94908KDBQ DBQ20110428051510404/28/11 05:15:31  5-MIN KDBQ 281115Z 29013KT 10SM FEW018 OVC110 02/M01 A2961 1370 82 200 290/13 RMK AO2
94908KDBQ DBQ20110428052010404/28/11 05:20:31  5-MIN KDBQ 281120Z 30015KT 10SM SCT018 OVC100 02/M01 A2961 1370 85 100 300/15 RMK AO2
94908KDBQ DBQ20110428052510404/28/11 05:25:31  5-MIN KDBQ 281125Z 29015KT 10SM SCT018 OVC100 02/M01 A2961 1360 82 200 290/15 RMK AO2
94908KDBQ DBQ20110428053011104/28/11 05:30:31  5-MIN KDBQ 281130Z 30013KT 10SM SCT018 BKN080 OVC100 02/M01 A2961 1360 82 200 300/13 RMK AO2
94908KDBQ DBQ20110428053511104/28/11 05:35:31  5-MIN KDBQ 281135Z 30014KT 10SM SCT018 BKN080 OVC100 02/M01 A2962 1360 85 100 300/14 RMK AO2
94908KDBQ DBQ20110428054011704/28/11 05:40:31  5-MIN KDBQ 281140Z 28011G19KT 10SM BKN018 BKN090 OVC110 02/M01 A2962 1360 85 100 280/11G19 RMK AO2
94908KDBQ DBQ20110428054510904/28/11 05:45:31  5-MIN KDBQ 281145Z 29012G18KT 10SM BKN018 OVC095 02/00 A2962 1360 89 100 290/12G18 RMK AO2
94908KDBQ DBQ20110428055015104/28/11 05:50:31  5-MIN KDBQ 281150Z 28012G18KT 10SM BKN016 BKN070 OVC080 02/00 A2962 1360 89 100 280/12G18 RMK AO2 SLP039 T00170000 10044 20017 55001
94908KDBQ DBQ20110428055511604/28/11 05:55:31  5-MIN KDBQ 281155Z 28014G19KT 10SM BKN016 BKN070 OVC100 02/00 A2962 1350 89 100 280/14G19 RMK AO2
94908KDBQ DBQ20110428060011604/28/11 06:00:31  5-MIN KDBQ 281200Z 29013G19KT 10SM BKN016 BKN050 OVC080 02/00 A2963 1350 89 100 280/13G19 RMK AO2
94908KDBQ DBQ20110428060511004/28/11 06:05:31  5-MIN KDBQ 281205Z 29011KT 10SM BKN016 BKN050 OVC080 02/00 A2963 1350 85 200 290/11 RMK AO2
94908KDBQ DBQ20110428061011004/28/11 06:10:31  5-MIN KDBQ 281210Z 29010KT 10SM BKN016 BKN050 OVC080 02/00 A2963 1350 85 200 290/10 RMK AO2
94908KDBQ DBQ20110428061511604/28/11 06:15:31  5-MIN KDBQ 281215Z 29015G20KT 10SM BKN016 BKN050 OVC080 02/00 A2963 1350 85 200 290/15G20 RMK AO2
94908KDBQ DBQ20110428062011604/28/11 06:20:31  5-MIN KDBQ 281220Z 28012G20KT 10SM BKN016 BKN050 OVC080 02/00 A2963 1350 85 200 280/12G20 RMK AO2
94908KDBQ DBQ20110428062511004/28/11 06:25:31  5-MIN KDBQ 281225Z 29015KT 10SM BKN016 BKN050 OVC080 02/00 A2963 1340 85 200 290/15 RMK AO2
94908KDBQ DBQ20110428063011004/28/11 06:30:31  5-MIN KDBQ 281230Z 29010KT 10SM BKN016 BKN050 OVC080 02/01 A2963 1340 89 200 280/10 RMK AO2
94908KDBQ DBQ20110428063512404/28/11 06:35:31  5-MIN KDBQ 281235Z 28015G19KT 10SM UP BKN014 OVC019 02/00 A2964 1340 85 200 280/15G19 RMK AO2 UPB31 P0000
94908KDBQ DBQ20110428064011104/28/11 06:40:31  5-MIN KDBQ 281240Z 28013KT 10SM UP OVC016 02/00 A2964 1340 89 100 280/13 RMK AO2 UPB31 P0000
94908KDBQ DBQ20110428064511704/28/11 06:45:31  5-MIN KDBQ 281245Z 29014G20KT 10SM UP OVC014 02/01 A2964 1340 92 100 290/14G20 RMK AO2 UPB31 P0000
94908KDBQ DBQ20110428065011104/28/11 06:50:31  5-MIN KDBQ 281250Z 29012KT 10SM UP OVC014 02/01 A2964 1340 92 100 290/12 RMK AO2 UPB31 P0000
94908KDBQ DBQ20110428065511204/28/11 06:55:31  5-MIN KDBQ 281255Z 29013KT 10SM UP BKN014 OVC021 02/01 A2964 1340 89 100 290/13 RMK AO2 P0000
94908KDBQ DBQ20110428070011704/28/11 07:00:31  5-MIN KDBQ 281300Z 29014KT 10SM BKN014 OVC021 02/01 A2964 1340 89 100 290/14 RMK AO2 UPE1259 P0000
94908KDBQ DBQ20110428070511004/28/11 07:05:31  5-MIN KDBQ 281305Z 29012KT 10SM OVC014 02/01 A2964 1340 89 100 280/12 RMK AO2 UPE1259 P0000
94908KDBQ DBQ20110428071011704/28/11 07:10:31  5-MIN KDBQ 281310Z 29015KT 10SM BKN014 OVC020 02/01 A2965 1330 89 100 290/15 RMK AO2 UPE1259 P0000
94908KDBQ DBQ20110428071511004/28/11 07:15:31  5-MIN KDBQ 281315Z 29011KT 10SM OVC014 02/01 A2965 1330 89 100 290/11 RMK AO2 UPE1259 P0000
94908KDBQ DBQ20110428072011004/28/11 07:20:31  5-MIN KDBQ 281320Z 29012KT 10SM OVC014 02/01 A2965 1330 89 100 280/12 RMK AO2 UPE1259 P0000
94908KDBQ DBQ20110428072511604/28/11 07:25:31  5-MIN KDBQ 281325Z 29012G20KT 10SM OVC014 02/01 A2965 1330 89 100 290/12G20 RMK AO2 UPE1259 P0000
94908KDBQ DBQ20110428073013804/28/11 07:30:31  5-MIN KDBQ 281330Z 28014G21KT 9SM -RASN BKN016 OVC021 02/01 A2965 1330 89 100 280/14G21 RMK AO2 UPE1259RAB29SNB29 P0000
94908KDBQ DBQ20110428073513204/28/11 07:35:31  5-MIN KDBQ 281335Z 28012G21KT 9SM -RA OVC016 02/01 A2965 1330 89 100 280/12G21 RMK AO2 UPE1259RAB29SNB29E31 P0000
94908KDBQ DBQ20110428074013304/28/11 07:40:31  5-MIN KDBQ 281340Z 29013KT 9SM -RA BKN016 OVC021 02/01 A2965 1330 89 100 290/13 RMK AO2 UPE1259RAB29SNB29E31 P0000
94908KDBQ DBQ20110428074513304/28/11 07:45:31  5-MIN KDBQ 281345Z 29013KT 9SM -RA BKN014 OVC019 02/01 A2965 1330 89 100 290/13 RMK AO2 UPE1259RAB29SNB29E31 P0000
94908KDBQ DBQ20110428075015704/28/11 07:50:31  5-MIN KDBQ 281350Z 29014G21KT 10SM -RA BKN014 OVC020 02/01 A2965 1330 89 100 290/14G21 RMK AO2 UPE1259RAB29SNB29E31 SLP049 P0000 T00220006
94908KDBQ DBQ20110428075511904/28/11 07:55:31  5-MIN KDBQ 281355Z 28013G21KT 10SM -RA BKN014 OVC027 03/01 A2965 1330 85 200 280/13G21 RMK AO2 P0000
94908KDBQ DBQ20110428080012604/28/11 08:00:31  5-MIN KDBQ 281400Z 28012G19KT 10SM -RA BKN014 BKN027 OVC034 03/01 A2966 1320 89 200 280/12G19 RMK AO2 P0000
94908KDBQ DBQ20110428080512004/28/11 08:05:31  5-MIN KDBQ 281405Z 28014KT 10SM -RA BKN016 BKN025 OVC031 03/01 A2966 1320 85 200 280/14 RMK AO2 P0000
94908KDBQ DBQ20110428081012604/28/11 08:10:31  5-MIN KDBQ 281410Z 28012G21KT 10SM -RA BKN016 BKN022 OVC031 03/01 A2966 1320 85 200 280/12G21 RMK AO2 P0000
94908KDBQ DBQ20110428081512604/28/11 08:15:31  5-MIN KDBQ 281415Z 29014G21KT 10SM -RA BKN016 BKN022 OVC031 03/01 A2966 1320 85 200 290/14G21 RMK AO2 P0000
94908KDBQ DBQ20110428082012604/28/11 08:20:31  5-MIN KDBQ 281420Z 28014G20KT 10SM -RA BKN016 BKN022 OVC031 03/01 A2966 1320 85 200 280/14G20 RMK AO2 P0000
94908KDBQ DBQ20110428082512604/28/11 08:25:31  5-MIN KDBQ 281425Z 29011G20KT 10SM -RA BKN016 BKN022 OVC031 03/01 A2966 1320 89 200 290/11G20 RMK AO2 P0000
94908KDBQ DBQ20110428083012004/28/11 08:30:31  5-MIN KDBQ 281430Z 28014KT 10SM -RA BKN016 BKN022 OVC031 03/01 A2966 1320 85 300 280/14 RMK AO2 P0000
94908KDBQ DBQ20110428083512604/28/11 08:35:31  5-MIN KDBQ 281435Z 28016G20KT 10SM -RA BKN016 BKN022 OVC031 03/01 A2966 1320 85 300 280/16G20 RMK AO2 P0000
94908KDBQ DBQ20110428084012104/28/11 08:40:31  5-MIN KDBQ 281440Z 29013G20KT 10SM SCT016 OVC022 03/01 A2966 1320 85 300 290/13G20 RMK AO2 RAE38 P0000
94908KDBQ DBQ20110428084512104/28/11 08:45:31  5-MIN KDBQ 281445Z 28016G21KT 10SM BKN016 OVC022 03/01 A2966 1320 85 300 280/16G21 RMK AO2 RAE38 P0000
94908KDBQ DBQ20110428085015004/28/11 08:50:31  5-MIN KDBQ 281450Z 28017G21KT 10SM BKN015 OVC022 03/01 A2966 1320 85 300 280/17G21 RMK AO2 RAE38 SLP053 P0000 60000 T00330011 53018
94908KDBQ DBQ20110428085510904/28/11 08:55:31  5-MIN KDBQ 281455Z 28016G22KT 10SM FEW014 OVC020 03/01 A2967 1310 85 300 280/16G22 RMK AO2
94908KDBQ DBQ20110428090010904/28/11 09:00:31  5-MIN KDBQ 281500Z 29015G22KT 10SM BKN018 OVC022 03/01 A2967 1310 85 300 290/15G22 RMK AO2
94908KDBQ DBQ20110428090509604/28/11 09:05:31  5-MIN KDBQ 281505Z 28014KT 10SM OVC016 03/01 A2967 1310 85 300 280/14 RMK AO2
94908KDBQ DBQ20110428091010204/28/11 09:10:31  5-MIN KDBQ 281510Z 29014G20KT 10SM OVC016 03/02 A2967 1310 89 200 290/14G20 RMK AO2
94908KDBQ DBQ20110428091509604/28/11 09:15:31  5-MIN KDBQ 281515Z 29013KT 10SM OVC018 04/01 A2968 1310 82 300 290/13 RMK AO2
94908KDBQ DBQ20110428092009604/28/11 09:20:31  5-MIN KDBQ 281520Z 29013KT 10SM OVC017 04/02 A2968 1300 85 300 290/13 RMK AO2
94908KDBQ DBQ20110428092510304/28/11 09:25:31  5-MIN KDBQ 281525Z 28014KT 10SM BKN017 OVC021 04/02 A2968 1300 85 300 280/14 RMK AO2
94908KDBQ DBQ20110428093010304/28/11 09:30:31  5-MIN KDBQ 281530Z 29016KT 10SM BKN017 OVC021 04/01 A2968 1300 82 300 280/16 RMK AO2
94908KDBQ DBQ20110428093510204/28/11 09:35:31  5-MIN KDBQ 281535Z 28016G21KT 10SM OVC017 04/02 A2968 1300 85 300 280/16G21 RMK AO2
94908KDBQ DBQ20110428094010204/28/11 09:40:31  5-MIN KDBQ 281540Z 29013G21KT 10SM OVC017 04/02 A2968 1300 85 300 290/13G21 RMK AO2
94908KDBQ DBQ20110428094509604/28/11 09:45:31  5-MIN KDBQ 281545Z 30015KT 10SM OVC017 04/02 A2969 1290 82 400 290/15 RMK AO2
94908KDBQ DBQ20110428095011304/28/11 09:50:31  5-MIN KDBQ 281550Z 30014KT 10SM OVC017 04/01 A2969 1290 82 300 300/14 RMK AO2 SLP062 T00390011
94908KDBQ DBQ20110428095510204/28/11 09:55:31  5-MIN KDBQ 281555Z 28019G24KT 10SM OVC017 04/01 A2969 1290 79 400 280/19G24 RMK AO2
94908KDBQ DBQ20110428100010204/28/11 10:00:31  5-MIN KDBQ 281600Z 29016G25KT 10SM OVC017 04/01 A2969 1290 82 300 290/16G25 RMK AO2
94908KDBQ DBQ20110428100510204/28/11 10:05:31  5-MIN KDBQ 281605Z 30016G25KT 10SM OVC017 04/02 A2970 1290 82 400 300/16G25 RMK AO2
94908KDBQ DBQ20110428101010204/28/11 10:10:31  5-MIN KDBQ 281610Z 28016G22KT 10SM OVC019 04/01 A2970 1280 79 400 280/16G22 RMK AO2
94908KDBQ DBQ20110428101510204/28/11 10:15:31  5-MIN KDBQ 281615Z 29013G21KT 10SM OVC019 04/01 A2970 1280 79 400 290/13G21 RMK AO2
94908KDBQ DBQ20110428102010204/28/11 10:20:31  5-MIN KDBQ 281620Z 29014G21KT 10SM OVC019 04/01 A2970 1280 79 400 290/14G21 RMK AO2
94908KDBQ DBQ20110428102510204/28/11 10:25:31  5-MIN KDBQ 281625Z 29016G22KT 10SM OVC019 04/01 A2970 1290 79 400 290/16G22 RMK AO2
94908KDBQ DBQ20110428103010204/28/11 10:30:31  5-MIN KDBQ 281630Z 29014G22KT 10SM OVC019 04/01 A2970 1280 79 400 290/14G22 RMK AO2
94908KDBQ DBQ20110428103510204/28/11 10:35:31  5-MIN KDBQ 281635Z 28013G20KT 10SM OVC019 05/02 A2970 1280 79 400 280/13G20 RMK AO2
94908KDBQ DBQ20110428104010904/28/11 10:40:31  5-MIN KDBQ 281640Z 28018G24KT 10SM BKN019 OVC025 05/02 A2970 1290 79 400 280/18G24 RMK AO2
94908KDBQ DBQ20110428104510204/28/11 10:45:31  5-MIN KDBQ 281645Z 28015G24KT 10SM OVC019 05/02 A2970 1280 79 400 280/15G24 RMK AO2
94908KDBQ DBQ20110428105015304/28/11 10:50:31  5-MIN KDBQ 281650Z 29017G26KT 10SM -RA OVC021 05/02 A2970 1280 79 400 290/17G26 RMK AO2 PK WND 29026/1647 RAB50 SLP064 P0000 T00500017
94908KDBQ DBQ20110428105511904/28/11 10:55:31  5-MIN KDBQ 281655Z 29016G26KT 10SM -RA BKN019 OVC025 05/02 A2970 1280 82 400 280/16G26 RMK AO2 P0000
94908KDBQ DBQ20110428110011204/28/11 11:00:31  5-MIN KDBQ 281700Z 28018G24KT 10SM -RA OVC021 05/02 A2970 1280 82 400 280/18G24 RMK AO2 P0000
94908KDBQ DBQ20110428110511904/28/11 11:05:31  5-MIN KDBQ 281705Z 29016G24KT 10SM -RA BKN019 OVC026 05/02 A2971 1280 82 400 280/16G24 RMK AO2 P0000
94908KDBQ DBQ20110428111013604/28/11 11:10:31  5-MIN KDBQ 281710Z 29018G27KT 9SM -RA BKN017 OVC024 05/02 A2971 1270 82 400 290/18G27 RMK AO2 PK WND 28027/1707 P0000
94908KDBQ DBQ20110428111513604/28/11 11:15:31  5-MIN KDBQ 281715Z 29016G27KT 9SM -RA BKN019 OVC024 05/02 A2971 1270 82 400 280/16G27 RMK AO2 PK WND 28027/1707 P0000
94908KDBQ DBQ20110428112013604/28/11 11:20:31  5-MIN KDBQ 281720Z 28018G22KT 9SM -RA BKN019 OVC023 05/02 A2971 1270 82 400 280/18G22 RMK AO2 PK WND 28027/1707 P0000
94908KDBQ DBQ20110428112513604/28/11 11:25:31  5-MIN KDBQ 281725Z 29018G25KT 7SM -RA BKN019 OVC023 04/02 A2971 1270 82 300 290/18G25 RMK AO2 PK WND 28027/1707 P0000
94908KDBQ DBQ20110428113013604/28/11 11:30:31  5-MIN KDBQ 281730Z 29016G25KT 8SM -RA BKN019 OVC026 04/02 A2971 1270 85 300 290/16G25 RMK AO2 PK WND 28027/1707 P0000
94908KDBQ DBQ20110428113513104/28/11 11:35:31  5-MIN KDBQ 281735Z 29016KT 10SM -RA BKN019 OVC030 04/02 A2971 1270 85 300 290/16 RMK AO2 PK WND 28027/1707 P0000
94908KDBQ DBQ20110428114014404/28/11 11:40:31  5-MIN KDBQ 281740Z 30017G23KT 10SM -RA FEW017 BKN022 OVC035 06/03 A2971 1270 82 500 300/17G23 RMK AO2 PK WND 28027/1707 P0000
94908KDBQ DBQ20110428114513804/28/11 11:45:31  5-MIN KDBQ 281745Z 30018KT 10SM -RA BKN017 BKN025 OVC035 05/03 A2971 1270 85 400 300/18 RMK AO2 PK WND 28027/1707 P0000
94908KDBQ DBQ20110428115018404/28/11 11:50:31  5-MIN KDBQ 281750Z 30017G28KT 9SM -RA SCT015 BKN023 OVC035 05/03 A2971 1270 85 400 300/17G28 RMK AO2 PK WND 32028/1750 SLP069 P0000 60000 T00500028 10056 20017 51008
94908KDBQ DBQ20110428115512604/28/11 11:55:31  5-MIN KDBQ 281755Z 30015G28KT 10SM -RA SCT017 BKN025 OVC029 05/03 A2972 1270 85 400 300/15G28 RMK AO2 P0000
94908KDBQ DBQ20110428120012504/28/11 12:00:31  5-MIN KDBQ 281800Z 30018G24KT 9SM -RA SCT017 BKN025 OVC032 05/02 A2972 1270 82 400 300/18G24 RMK AO2 P0000
94908KDBQ DBQ20110428120511804/28/11 12:05:31  5-MIN KDBQ 281805Z 30016G24KT 9SM -RA SCT017 OVC022 05/03 A2972 1270 85 400 290/16G24 RMK AO2 P0000
94908KDBQ DBQ20110428121011904/28/11 12:10:31  5-MIN KDBQ 281810Z 30016G20KT 10SM -RA SCT016 OVC022 06/03 A2972 1260 85 500 300/16G20 RMK AO2 P0000
94908KDBQ DBQ20110428121512604/28/11 12:15:31  5-MIN KDBQ 281815Z 31012G20KT 10SM -RA SCT018 BKN024 OVC034 06/03 A2972 1260 82 500 300/12G20 RMK AO2 P0001
94908KDBQ DBQ20110428122012604/28/11 12:20:31  5-MIN KDBQ 281820Z 29017G25KT 10SM -RA BKN021 BKN026 OVC034 06/03 A2973 1260 82 500 290/17G25 RMK AO2 P0001
94908KDBQ DBQ20110428122511904/28/11 12:25:31  5-MIN KDBQ 281825Z 29017G25KT 10SM -RA BKN019 OVC026 06/02 A2973 1260 79 500 290/17G25 RMK AO2 P0001
94908KDBQ DBQ20110428123012604/28/11 12:30:31  5-MIN KDBQ 281830Z 30018G25KT 10SM -RA BKN019 BKN026 OVC034 06/03 A2973 1260 79 500 300/18G25 RMK AO2 P0001
94908KDBQ DBQ20110428123512604/28/11 12:35:31  5-MIN KDBQ 281835Z 30019G25KT 10SM -RA SCT021 BKN026 OVC034 06/03 A2973 1250 79 500 300/19G25 RMK AO2 P0001
94908KDBQ DBQ20110428124014404/28/11 12:40:31  5-MIN KDBQ 281840Z 30020G26KT 10SM -RA SCT021 BKN030 OVC036 06/03 A2974 1250 82 500 300/20G26 RMK AO2 PK WND 29026/1840 P0001
94908KDBQ DBQ20110428124514404/28/11 12:45:31  5-MIN KDBQ 281845Z 30017G26KT 10SM -RA SCT023 BKN028 OVC036 06/03 A2974 1250 82 400 300/17G26 RMK AO2 PK WND 29026/1840 P0001
94908KDBQ DBQ20110428125016304/28/11 12:50:31  5-MIN KDBQ 281850Z 31015G26KT 10SM SCT021 BKN028 OVC033 06/03 A2974 1240 82 400 310/15G26 RMK AO2 PK WND 32026/1846 RAE49 SLP078 P0001 T00560028
94908KDBQ DBQ20110428125513404/28/11 12:55:31  5-MIN KDBQ 281855Z 31021G28KT 10SM FEW018 BKN028 OVC033 06/03 A2974 1240 82 400 310/21G28 RMK AO2 PK WND 32028/1854
94908KDBQ DBQ20110428130013404/28/11 13:00:31  5-MIN KDBQ 281900Z 31017G28KT 10SM SCT021 BKN033 OVC040 06/02 A2975 1240 76 500 310/17G28 RMK AO2 PK WND 32028/1854
94908KDBQ DBQ20110428130515004/28/11 13:05:31  5-MIN KDBQ 281905Z 31014G27KT 10SM -RA SCT022 BKN032 OVC040 06/03 A2975 1230 79 500 310/14G27 RMK AO2 PK WND 32028/1854 RAB04 P0000
94908KDBQ DBQ20110428131015004/28/11 13:10:31  5-MIN KDBQ 281910Z 31015G25KT 10SM -RA FEW019 BKN026 OVC040 06/03 A2975 1230 79 500 310/15G25 RMK AO2 PK WND 32028/1854 RAB04 P0000
94908KDBQ DBQ20110428131515004/28/11 13:15:31  5-MIN KDBQ 281915Z 31015G25KT 10SM -RA SCT021 BKN026 OVC033 06/03 A2976 1230 79 500 310/15G25 RMK AO2 PK WND 32028/1854 RAB04 P0000
94908KDBQ DBQ20110428132014904/28/11 13:20:31  5-MIN KDBQ 281920Z 30018G23KT 10SM FEW021 BKN026 OVC035 06/03 A2976 1230 82 500 300/18G23 RMK AO2 PK WND 32028/1854 RAB04E16 P0000
94908KDBQ DBQ20110428132514204/28/11 13:25:31  5-MIN KDBQ 281925Z 29017G25KT 10SM BKN024 OVC037 07/03 A2976 1230 79 600 290/17G25 RMK AO2 PK WND 32028/1854 RAB04E16 P0000
94908KDBQ DBQ20110428133014904/28/11 13:30:31  5-MIN KDBQ 281930Z 30016G25KT 10SM BKN024 BKN032 OVC039 06/03 A2976 1230 82 500 300/16G25 RMK AO2 PK WND 32028/1854 RAB04E16 P0000
94908KDBQ DBQ20110428133514204/28/11 13:35:31  5-MIN KDBQ 281935Z 30018G25KT 10SM BKN024 OVC034 06/03 A2976 1220 79 500 300/18G25 RMK AO2 PK WND 32028/1854 RAB04E16 P0000
94908KDBQ DBQ20110428134014204/28/11 13:40:31  5-MIN KDBQ 281940Z 31017G25KT 10SM BKN023 OVC035 06/03 A2976 1220 79 500 300/17G25 RMK AO2 PK WND 32028/1854 RAB04E16 P0000
94908KDBQ DBQ20110428134514204/28/11 13:45:31  5-MIN KDBQ 281945Z 30017G25KT 10SM BKN023 OVC029 06/03 A2977 1220 79 500 300/17G25 RMK AO2 PK WND 32028/1854 RAB04E16 P0000
94908KDBQ DBQ20110428135015904/28/11 13:50:31  5-MIN KDBQ 281950Z 30014G23KT 10SM BKN023 OVC029 07/03 A2976 1220 76 600 300/14G23 RMK AO2 PK WND 32028/1854 RAB04E16 SLP085 P0000 T00670028
94908KDBQ DBQ20110428135509604/28/11 13:55:31  5-MIN KDBQ 281955Z 30014KT 10SM OVC023 07/03 A2977 1220 76 600 290/14 RMK AO2
94908KDBQ DBQ20110428140010204/28/11 14:00:31  5-MIN KDBQ 282000Z 31017G24KT 10SM OVC023 06/02 A2977 1220 76 500 310/17G24 RMK AO2
94908KDBQ DBQ20110428140510904/28/11 14:05:31  5-MIN KDBQ 282005Z 30018G24KT 10SM BKN023 OVC028 07/03 A2977 1220 76 500 300/18G24 RMK AO2
94908KDBQ DBQ20110428141012004/28/11 14:10:31  5-MIN KDBQ 282010Z 30017G27KT 10SM OVC023 06/02 A2977 1220 76 500 300/17G27 RMK AO2 PK WND 31027/2006
94908KDBQ DBQ20110428141512004/28/11 14:15:31  5-MIN KDBQ 282015Z 30019G27KT 10SM OVC023 06/02 A2977 1210 76 500 300/19G27 RMK AO2 PK WND 31027/2006
94908KDBQ DBQ20110428142012004/28/11 14:20:31  5-MIN KDBQ 282020Z 31018G26KT 10SM OVC021 06/02 A2978 1210 76 500 310/18G26 RMK AO2 PK WND 31027/2006
94908KDBQ DBQ20110428142512004/28/11 14:25:31  5-MIN KDBQ 282025Z 30019G26KT 10SM OVC023 06/02 A2978 1210 76 500 300/19G26 RMK AO2 PK WND 31027/2006
94908KDBQ DBQ20110428143012004/28/11 14:30:31  5-MIN KDBQ 282030Z 30016G26KT 10SM OVC023 06/02 A2978 1210 76 500 300/16G26 RMK AO2 PK WND 31027/2006
94908KDBQ DBQ20110428143512704/28/11 14:35:31  5-MIN KDBQ 282035Z 31018G25KT 10SM BKN023 OVC028 07/02 A2978 1210 73 500 310/18G25 RMK AO2 PK WND 31027/2006
94908KDBQ DBQ20110428144012004/28/11 14:40:31  5-MIN KDBQ 282040Z 30019G27KT 10SM OVC023 07/02 A2978 1210 73 500 300/19G27 RMK AO2 PK WND 31027/2039
94908KDBQ DBQ20110428144512004/28/11 14:45:31  5-MIN KDBQ 282045Z 31015G27KT 10SM OVC025 07/03 A2978 1200 76 500 310/15G27 RMK AO2 PK WND 31027/2039
94908KDBQ DBQ20110428145014904/28/11 14:50:31  5-MIN KDBQ 282050Z 30016G23KT 10SM OVC025 07/03 A2979 1200 76 500 300/16G23 RMK AO2 PK WND 31027/2039 SLP094 60001 T00670028 51016
94908KDBQ DBQ20110428145510204/28/11 14:55:31  5-MIN KDBQ 282055Z 30015G23KT 10SM OVC025 07/02 A2979 1200 73 500 300/15G23 RMK AO2
94908KDBQ DBQ20110428150010204/28/11 15:00:31  5-MIN KDBQ 282100Z 30017G23KT 10SM OVC025 07/03 A2979 1200 76 500 300/17G23 RMK AO2
94908KDBQ DBQ20110428150510204/28/11 15:05:31  5-MIN KDBQ 282105Z 30015G23KT 10SM OVC025 07/03 A2979 1200 76 500 300/15G23 RMK AO2
94908KDBQ DBQ20110428151010204/28/11 15:10:31  5-MIN KDBQ 282110Z 30015G25KT 10SM OVC025 07/03 A2979 1200 76 500 300/15G25 RMK AO2
94908KDBQ DBQ20110428151510204/28/11 15:15:31  5-MIN KDBQ 282115Z 30016G25KT 10SM OVC023 07/03 A2979 1200 76 500 290/16G25 RMK AO2
94908KDBQ DBQ20110428152009604/28/11 15:20:31  5-MIN KDBQ 282120Z 29018KT 10SM OVC023 07/03 A2980 1190 76 500 290/18 RMK AO2
94908KDBQ DBQ20110428152510204/28/11 15:25:31  5-MIN KDBQ 282125Z 29015G22KT 10SM OVC021 07/03 A2979 1190 76 500 290/15G22 RMK AO2
94908KDBQ DBQ20110428153009604/28/11 15:30:31  5-MIN KDBQ 282130Z 29014KT 10SM OVC021 07/03 A2979 1200 79 500 290/14 RMK AO2
94908KDBQ DBQ20110428153510204/28/11 15:35:31  5-MIN KDBQ 282135Z 30016G24KT 10SM OVC021 07/03 A2979 1190 76 500 300/16G24 RMK AO2
94908KDBQ DBQ20110428154010204/28/11 15:40:31  5-MIN KDBQ 282140Z 29016G24KT 10SM OVC021 07/03 A2980 1190 76 600 290/16G24 RMK AO2
94908KDBQ DBQ20110428154510204/28/11 15:45:31  5-MIN KDBQ 282145Z 29016G24KT 10SM OVC021 07/03 A2980 1190 76 600 290/16G24 RMK AO2
94908KDBQ DBQ20110428155011904/28/11 15:50:31  5-MIN KDBQ 282150Z 30015G24KT 10SM OVC023 07/03 A2980 1190 76 600 300/15G24 RMK AO2 SLP097 T00720033
94908KDBQ DBQ20110428155510204/28/11 15:55:31  5-MIN KDBQ 282155Z 29019G26KT 10SM OVC023 07/03 A2980 1190 73 600 290/19G26 RMK AO2
94908KDBQ DBQ20110428160010204/28/11 16:00:31  5-MIN KDBQ 282200Z 30016G26KT 10SM OVC023 07/03 A2980 1190 73 600 300/16G26 RMK AO2
94908KDBQ DBQ20110428160510204/28/11 16:05:31  5-MIN KDBQ 282205Z 29015G25KT 10SM OVC023 07/03 A2980 1190 76 600 290/15G25 RMK AO2
94908KDBQ DBQ20110428161010904/28/11 16:10:31  5-MIN KDBQ 282210Z 29017G24KT 10SM BKN023 OVC029 07/03 A2980 1190 76 600 290/17G24 RMK AO2
94908KDBQ DBQ20110428161512704/28/11 16:15:31  5-MIN KDBQ 282215Z 28018G27KT 10SM SCT023 OVC029 07/03 A2981 1180 79 500 280/18G27 RMK AO2 PK WND 29027/2215
94908KDBQ DBQ20110428162012704/28/11 16:20:31  5-MIN KDBQ 282220Z 29018G27KT 10SM FEW023 OVC029 07/03 A2980 1190 79 500 290/18G27 RMK AO2 PK WND 29027/2215
94908KDBQ DBQ20110428162512104/28/11 16:25:31  5-MIN KDBQ 282225Z 29018KT 10SM FEW021 OVC029 07/03 A2981 1180 79 500 290/18 RMK AO2 PK WND 29027/2215
94908KDBQ DBQ20110428163012704/28/11 16:30:31  5-MIN KDBQ 282230Z 29017G23KT 10SM FEW019 OVC027 07/03 A2981 1180 79 500 290/17G23 RMK AO2 PK WND 29027/2215
94908KDBQ DBQ20110428163512704/28/11 16:35:31  5-MIN KDBQ 282235Z 29014G23KT 10SM BKN024 OVC029 07/03 A2981 1180 79 500 290/14G23 RMK AO2 PK WND 29027/2215
94908KDBQ DBQ20110428164012104/28/11 16:40:31  5-MIN KDBQ 282240Z 29016KT 10SM BKN022 OVC027 07/03 A2981 1180 79 500 290/16 RMK AO2 PK WND 29027/2215
94908KDBQ DBQ20110428164512704/28/11 16:45:31  5-MIN KDBQ 282245Z 29014G23KT 10SM BKN020 OVC027 07/03 A2981 1180 79 500 290/14G23 RMK AO2 PK WND 29027/2215
94908KDBQ DBQ20110428165013704/28/11 16:50:31  5-MIN KDBQ 282250Z 30012G23KT 10SM OVC022 07/03 A2982 1180 79 500 300/12G23 RMK AO2 PK WND 29027/2215 SLP105 T00670033
94908KDBQ DBQ20110428165510204/28/11 16:55:31  5-MIN KDBQ 282255Z 30016G24KT 10SM OVC022 07/03 A2982 1170 79 500 300/16G24 RMK AO2
94908KDBQ DBQ20110428170010904/28/11 17:00:31  5-MIN KDBQ 282300Z 31013G24KT 10SM BKN022 OVC029 07/03 A2982 1170 79 500 310/13G24 RMK AO2
94908KDBQ DBQ20110428170510904/28/11 17:05:31  5-MIN KDBQ 282305Z 31015G25KT 10SM SCT022 OVC029 07/03 A2982 1180 79 500 300/15G25 RMK AO2
94908KDBQ DBQ20110428171012704/28/11 17:10:31  5-MIN KDBQ 282310Z 30014G26KT 10SM SCT020 OVC029 07/03 A2982 1170 76 600 300/14G26 RMK AO2 PK WND 32026/2310
94908KDBQ DBQ20110428171512704/28/11 17:15:31  5-MIN KDBQ 282315Z 31016G26KT 10SM FEW020 OVC029 07/03 A2982 1170 73 600 300/16G26 RMK AO2 PK WND 32026/2310
94908KDBQ DBQ20110428172012004/28/11 17:20:31  5-MIN KDBQ 282320Z 30016G21KT 10SM OVC027 07/03 A2982 1170 73 600 300/16G21 RMK AO2 PK WND 32026/2310
94908KDBQ DBQ20110428172512704/28/11 17:25:31  5-MIN KDBQ 282325Z 31013G21KT 10SM FEW021 OVC027 07/03 A2982 1170 79 500 310/13G21 RMK AO2 PK WND 32026/2310
94908KDBQ DBQ20110428173012704/28/11 17:30:31  5-MIN KDBQ 282330Z 31011G20KT 10SM FEW021 OVC028 07/03 A2982 1170 79 500 300/11G20 RMK AO2 PK WND 32026/2310
94908KDBQ DBQ20110428173511404/28/11 17:35:31  5-MIN KDBQ 282335Z 31010KT 10SM OVC026 07/03 A2982 1170 76 600 310/10 RMK AO2 PK WND 32026/2310
94908KDBQ DBQ20110428174012704/28/11 17:40:31  5-MIN KDBQ 282340Z 31015G19KT 10SM BKN024 OVC029 07/03 A2982 1170 73 600 310/15G19 RMK AO2 PK WND 32026/2310
94908KDBQ DBQ20110428174512704/28/11 17:45:31  5-MIN KDBQ 282345Z 33009G19KT 10SM BKN022 OVC027 07/03 A2982 1170 76 500 330/09G19 RMK AO2 PK WND 32026/2310
94908KDBQ DBQ20110428175016104/28/11 17:50:31  5-MIN KDBQ 282350Z 33013G19KT 10SM OVC024 07/03 A2982 1170 76 500 330/13G19 RMK AO2 PK WND 32026/2310 SLP108 60001 T00670028 10072 20050 51024
94908KDBQ DBQ20110428175509604/28/11 17:55:31  5-MIN KDBQ 282355Z 33010KT 10SM OVC026 07/03 A2983 1160 79 500 330/10 RMK AO2
94908KDBQ DBQ20110428180010204/28/11 18:00:31  5-MIN KDBQ 290000Z 32012G19KT 10SM OVC023 07/03 A2983 1160 79 500 320/12G19 RMK AO2
94908KDBQ DBQ20110428180510204/28/11 18:05:31  5-MIN KDBQ 290005Z 32014G19KT 10SM OVC023 07/03 A2983 1160 76 500 320/14G19 RMK AO2
94908KDBQ DBQ20110428181010204/28/11 18:10:31  5-MIN KDBQ 290010Z 32011G19KT 10SM OVC023 07/03 A2983 1160 76 500 320/11G19 RMK AO2
94908KDBQ DBQ20110428181510204/28/11 18:15:31  5-MIN KDBQ 290015Z 32011G18KT 10SM OVC025 07/03 A2984 1160 76 500 320/11G18 RMK AO2
94908KDBQ DBQ20110428182010204/28/11 18:20:31  5-MIN KDBQ 290020Z 32011G18KT 10SM OVC025 07/03 A2983 1160 76 500 320/11G18 RMK AO2
94908KDBQ DBQ20110428182510204/28/11 18:25:31  5-MIN KDBQ 290025Z 31015G20KT 10SM OVC023 07/03 A2984 1160 76 500 310/15G20 RMK AO2
94908KDBQ DBQ20110428183010204/28/11 18:30:31  5-MIN KDBQ 290030Z 32015G24KT 10SM OVC023 07/03 A2984 1150 76 500 320/15G24 RMK AO2
94908KDBQ DBQ20110428183510204/28/11 18:35:31  5-MIN KDBQ 290035Z 33014G24KT 10SM OVC023 07/03 A2984 1150 76 500 320/14G24 RMK AO2
94908KDBQ DBQ20110428184010904/28/11 18:40:31  5-MIN KDBQ 290040Z 32012G21KT 10SM BKN021 OVC027 07/03 A2984 1150 76 500 320/12G21 RMK AO2
94908KDBQ DBQ20110428184510904/28/11 18:45:31  5-MIN KDBQ 290045Z 32010G21KT 10SM BKN021 OVC027 07/03 A2985 1150 76 500 320/10G21 RMK AO2
94908KDBQ DBQ20110428185012604/28/11 18:50:31  5-MIN KDBQ 290050Z 31012G22KT 10SM BKN021 OVC027 07/03 A2985 1150 76 500 310/12G22 RMK AO2 SLP115 T00670028
94908KDBQ DBQ20110428185510904/28/11 18:55:31  5-MIN KDBQ 290055Z 31009G22KT 10SM BKN021 OVC026 07/03 A2985 1150 76 500 310/09G22 RMK AO2
94908KDBQ DBQ20110428190011404/28/11 19:00:31  5-MIN KDBQ 290100Z AUTO 31013G18KT 10SM BKN021 OVC027 07/03 A2985 1140 76 500 310/13G18 RMK AO2
94908KDBQ DBQ20110428190511404/28/11 19:05:31  5-MIN KDBQ 290105Z AUTO 32010G19KT 10SM BKN021 OVC027 07/03 A2985 1140 76 500 320/10G19 RMK AO2
94908KDBQ DBQ20110428191010704/28/11 19:10:31  5-MIN KDBQ 290110Z AUTO 31009G19KT 10SM OVC021 06/03 A2985 1140 79 400 310/09G19 RMK AO2
94908KDBQ DBQ20110428191510704/28/11 19:15:31  5-MIN KDBQ 290115Z AUTO 30013G22KT 10SM OVC021 07/03 A2985 1140 76 500 300/13G22 RMK AO2
94908KDBQ DBQ20110428192010704/28/11 19:20:31  5-MIN KDBQ 290120Z AUTO 31013G22KT 10SM OVC019 06/03 A2986 1140 79 400 310/13G22 RMK AO2
94908KDBQ DBQ20110428192510104/28/11 19:25:31  5-MIN KDBQ 290125Z AUTO 32011KT 10SM OVC019 06/03 A2986 1130 79 400 320/11 RMK AO2
94908KDBQ DBQ20110428193010704/28/11 19:30:31  5-MIN KDBQ 290130Z AUTO 31010G18KT 10SM OVC019 06/03 A2986 1130 79 400 310/10G18 RMK AO2
94908KDBQ DBQ20110428193510704/28/11 19:35:31  5-MIN KDBQ 290135Z AUTO 32014G19KT 10SM OVC019 06/03 A2986 1130 79 400 320/14G19 RMK AO2
94908KDBQ DBQ20110428194011404/28/11 19:40:31  5-MIN KDBQ 290140Z AUTO 33011G19KT 10SM BKN019 OVC025 06/03 A2986 1130 79 400 330/11G19 RMK AO2
94908KDBQ DBQ20110428194510804/28/11 19:45:31  5-MIN KDBQ 290145Z AUTO 32012KT 10SM BKN019 OVC025 06/03 A2987 1130 79 400 320/12 RMK AO2
94908KDBQ DBQ20110428195012504/28/11 19:50:31  5-MIN KDBQ 290150Z AUTO 32012KT 10SM BKN019 OVC025 06/03 A2987 1130 79 400 320/12 RMK AO2 SLP123 T00610028
94908KDBQ DBQ20110428195511404/28/11 19:55:31  5-MIN KDBQ 290155Z AUTO 33013G20KT 10SM SCT019 OVC027 06/02 A2987 1130 76 400 330/13G20 RMK AO2
94908KDBQ DBQ20110428200011404/28/11 20:00:31  5-MIN KDBQ 290200Z AUTO 32013G23KT 10SM FEW019 OVC028 06/02 A2987 1120 76 400 320/13G23 RMK AO2
94908KDBQ DBQ20110428200511404/28/11 20:05:31  5-MIN KDBQ 290205Z AUTO 32012G23KT 10SM SCT023 OVC030 06/02 A2988 1120 76 400 320/12G23 RMK AO2
94908KDBQ DBQ20110428201010804/28/11 20:10:31  5-MIN KDBQ 290210Z AUTO 33011KT 10SM FEW023 OVC030 06/02 A2988 1120 76 400 320/11 RMK AO2
94908KDBQ DBQ20110428201510804/28/11 20:15:31  5-MIN KDBQ 290215Z AUTO 33012KT 10SM FEW021 OVC030 06/02 A2988 1120 76 400 320/12 RMK AO2
94908KDBQ DBQ20110428202010104/28/11 20:20:31  5-MIN KDBQ 290220Z AUTO 33012KT 10SM OVC030 06/02 A2988 1120 76 400 330/12 RMK AO2
94908KDBQ DBQ20110428202510104/28/11 20:25:31  5-MIN KDBQ 290225Z AUTO 33009KT 10SM OVC030 06/02 A2988 1110 76 300 330/09 RMK AO2
94908KDBQ DBQ20110428203010104/28/11 20:30:31  5-MIN KDBQ 290230Z AUTO 33010KT 10SM OVC030 06/02 A2988 1110 76 300 330/10 RMK AO2
94908KDBQ DBQ20110428203510104/28/11 20:35:31  5-MIN KDBQ 290235Z AUTO 33010KT 10SM OVC028 06/02 A2989 1110 76 300 320/10 RMK AO2
94908KDBQ DBQ20110428204010104/28/11 20:40:31  5-MIN KDBQ 290240Z AUTO 33009KT 10SM OVC028 06/02 A2989 1110 76 300 330/09 RMK AO2
94908KDBQ DBQ20110428204510104/28/11 20:45:31  5-MIN KDBQ 290245Z AUTO 33012KT 10SM OVC028 06/02 A2989 1110 76 300 330/12 RMK AO2
94908KDBQ DBQ20110428205012404/28/11 20:50:31  5-MIN KDBQ 290250Z AUTO 34009KT 10SM OVC028 06/02 A2989 1100 76 300 340/09 RMK AO2 SLP130 T00610022 51013
94908KDBQ DBQ20110428205510104/28/11 20:55:31  5-MIN KDBQ 290255Z AUTO 33010KT 10SM OVC028 06/02 A2989 1100 76 300 330/10 RMK AO2
94908KDBQ DBQ20110428210010804/28/11 21:00:31  5-MIN KDBQ 290300Z AUTO 33007KT 10SM FEW023 OVC028 06/02 A2989 1100 79 300 330/07 RMK AO2
94908KDBQ DBQ20110428210510104/28/11 21:05:31  5-MIN KDBQ 290305Z AUTO 33008KT 10SM OVC028 06/02 A2989 1100 79 300 330/08 RMK AO2
94908KDBQ DBQ20110428211010104/28/11 21:10:31  5-MIN KDBQ 290310Z AUTO 33009KT 10SM OVC030 06/02 A2989 1100 79 300 330/09 RMK AO2
94908KDBQ DBQ20110428211510104/28/11 21:15:31  5-MIN KDBQ 290315Z AUTO 33007KT 10SM OVC030 06/02 A2990 1100 79 300 330/07 RMK AO2
94908KDBQ DBQ20110428212010104/28/11 21:20:31  5-MIN KDBQ 290320Z AUTO 33007KT 10SM OVC030 06/02 A2990 1100 79 300 330/07 RMK AO2
94908KDBQ DBQ20110428212510104/28/11 21:25:31  5-MIN KDBQ 290325Z AUTO 33007KT 10SM OVC030 06/02 A2990 1100 79 300 330/07 RMK AO2
94908KDBQ DBQ20110428213010104/28/11 21:30:31  5-MIN KDBQ 290330Z AUTO 34009KT 10SM OVC030 06/02 A2990 1100 79 300 340/09 RMK AO2
94908KDBQ DBQ20110428213510104/28/11 21:35:31  5-MIN KDBQ 290335Z AUTO 34007KT 10SM OVC030 06/02 A2990 1100 79 300 340/07 RMK AO2
94908KDBQ DBQ20110428214010104/28/11 21:40:31  5-MIN KDBQ 290340Z AUTO 34008KT 10SM OVC030 06/02 A2990 1100 79 300 340/08 RMK AO2
94908KDBQ DBQ20110428214510104/28/11 21:45:31  5-MIN KDBQ 290345Z AUTO 34008KT 10SM OVC030 06/02 A2990 1100 79 300 330/08 RMK AO2
94908KDBQ DBQ20110428215010104/28/11 21:50:31  5-MIN KDBQ 290350Z AUTO 33009KT 10SM OVC028 06/02 A2990 1100 79 300 330/09 RMK AO2
94908KDBQ DBQ20110428215510104/28/11 21:55:31  5-MIN KDBQ 290355Z AUTO 34009KT 10SM OVC028 06/02 A2990 1090 79 300 330/09 RMK AO2
94908KDBQ DBQ20110428220010104/28/11 22:00:31  5-MIN KDBQ 290400Z AUTO 34009KT 10SM OVC028 06/02 A2991 1090 79 300 340/09 RMK AO2
94908KDBQ DBQ20110428220510104/28/11 22:05:31  5-MIN KDBQ 290405Z AUTO 33008KT 10SM OVC028 06/02 A2991 1090 79 300 330/08 RMK AO2
94908KDBQ DBQ20110428221010104/28/11 22:10:31  5-MIN KDBQ 290410Z AUTO 33009KT 10SM OVC028 06/02 A2991 1090 79 300 330/09 RMK AO2
94908KDBQ DBQ20110428221510104/28/11 22:15:31  5-MIN KDBQ 290415Z AUTO 33009KT 10SM OVC026 06/02 A2991 1090 76 300 330/09 RMK AO2
94908KDBQ DBQ20110428222010104/28/11 22:20:31  5-MIN KDBQ 290420Z AUTO 34010KT 10SM OVC026 06/02 A2991 1090 76 300 340/10 RMK AO2
94908KDBQ DBQ20110428222510104/28/11 22:25:31  5-MIN KDBQ 290425Z AUTO 33009KT 10SM OVC026 06/02 A2991 1090 76 300 330/09 RMK AO2
94908KDBQ DBQ20110428223010104/28/11 22:30:31  5-MIN KDBQ 290430Z AUTO 33010KT 10SM OVC026 06/02 A2991 1090 76 300 330/10 RMK AO2
94908KDBQ DBQ20110428223510104/28/11 22:35:31  5-MIN KDBQ 290435Z AUTO 34008KT 10SM OVC026 06/02 A2991 1090 79 200 330/08 RMK AO2
94908KDBQ DBQ20110428224010104/28/11 22:40:31  5-MIN KDBQ 290440Z AUTO 34009KT 10SM OVC026 06/02 A2992 1080 76 300 340/09 RMK AO2
94908KDBQ DBQ20110428224510104/28/11 22:45:31  5-MIN KDBQ 290445Z AUTO 34009KT 10SM OVC026 06/02 A2992 1080 79 200 340/09 RMK AO2
94908KDBQ DBQ20110428225011804/28/11 22:50:31  5-MIN KDBQ 290450Z AUTO 34008KT 10SM OVC026 06/02 A2992 1080 79 200 340/08 RMK AO2 SLP138 T00560022
94908KDBQ DBQ20110428225510104/28/11 22:55:31  5-MIN KDBQ 290455Z AUTO 34009KT 10SM OVC026 06/02 A2992 1080 79 200 340/09 RMK AO2
94908KDBQ DBQ20110428230010104/28/11 23:00:31  5-MIN KDBQ 290500Z AUTO 34009KT 10SM OVC024 06/02 A2992 1080 79 200 330/09 RMK AO2
94908KDBQ DBQ20110428230510104/28/11 23:05:31  5-MIN KDBQ 290505Z AUTO 34008KT 10SM OVC024 06/02 A2992 1080 79 200 340/08 RMK AO2
94908KDBQ DBQ20110428231010104/28/11 23:10:31  5-MIN KDBQ 290510Z AUTO 34008KT 10SM OVC024 06/02 A2992 1070 79 200 330/08 RMK AO2
94908KDBQ DBQ20110428231510104/28/11 23:15:31  5-MIN KDBQ 290515Z AUTO 34009KT 10SM OVC024 06/02 A2993 1070 79 200 330/09 RMK AO2
94908KDBQ DBQ20110428232010104/28/11 23:20:31  5-MIN KDBQ 290520Z AUTO 34009KT 10SM OVC024 06/02 A2993 1070 79 200 340/09 RMK AO2
94908KDBQ DBQ20110428232510104/28/11 23:25:31  5-MIN KDBQ 290525Z AUTO 34007KT 10SM OVC024 06/02 A2993 1070 79 200 340/07 RMK AO2
94908KDBQ DBQ20110428233010104/28/11 23:30:31  5-MIN KDBQ 290530Z AUTO 34008KT 10SM OVC024 06/02 A2993 1070 79 200 340/08 RMK AO2
94908KDBQ DBQ20110428233510104/28/11 23:35:31  5-MIN KDBQ 290535Z AUTO 33008KT 10SM OVC024 06/02 A2993 1070 79 200 330/08 RMK AO2
94908KDBQ DBQ20110428234010104/28/11 23:40:31  5-MIN KDBQ 290540Z AUTO 33008KT 10SM BKN024 05/02 A2993 1070 82 200 330/08 RMK AO2
94908KDBQ DBQ20110428234510104/28/11 23:45:31  5-MIN KDBQ 290545Z AUTO 34007KT 10SM BKN024 05/02 A2993 1070 82 200 340/07 RMK AO2
94908KDBQ DBQ20110428235011104/28/11 23:50:31  5-MIN KDBQ 290550Z AUTO 34007KT 10SM SCT024 04/02 A2993 1070 82 100 340/07 RMK AO2 400720017
94908KDBQ DBQ20110428235510104/28/11 23:55:31  5-MIN KDBQ 290555Z AUTO 34008KT 10SM SCT024 04/02 A2993 1070 85 100 340/08 RMK AO2
94908KDBQ DBQ20110429000010104/29/11 00:00:38  5-MIN KDBQ 290600Z AUTO 34007KT 10SM FEW024 04/02 A2993 1070 85 100 340/07 RMK AO2
94908KDBQ DBQ20110429000509804/29/11 00:05:31  5-MIN KDBQ 290605Z AUTO 35007KT 10SM CLR 04/02 A2993 1070 85 100 350/07 RMK AO2
94908KDBQ DBQ20110429001009604/29/11 00:10:31  5-MIN KDBQ 290610Z AUTO 34007KT 10SM CLR 04/02 A2993 1070 89 0 340/07 RMK AO2
94908KDBQ DBQ20110429001509604/29/11 00:15:34  5-MIN KDBQ 290615Z AUTO 34007KT 10SM CLR 04/02 A2994 1060 85 0 340/07 RMK AO2
94908KDBQ DBQ20110429002009604/29/11 00:20:31  5-MIN KDBQ 290620Z AUTO 34008KT 10SM CLR 04/02 A2993 1070 85 0 340/08 RMK AO2
94908KDBQ DBQ20110429002509604/29/11 00:25:31  5-MIN KDBQ 290625Z AUTO 34007KT 10SM CLR 04/02 A2994 1060 85 0 340/07 RMK AO2
94908KDBQ DBQ20110429003009604/29/11 00:30:31  5-MIN KDBQ 290630Z AUTO 34008KT 10SM CLR 04/02 A2994 1060 85 0 340/08 RMK AO2
94908KDBQ DBQ20110429003509604/29/11 00:35:31  5-MIN KDBQ 290635Z AUTO 35008KT 10SM CLR 04/02 A2994 1060 85 0 350/08 RMK AO2
94908KDBQ DBQ20110429004009604/29/11 00:40:31  5-MIN KDBQ 290640Z AUTO 35009KT 10SM CLR 04/02 A2993 1060 85 0 350/09 RMK AO2
94908KDBQ DBQ20110429004509604/29/11 00:45:31  5-MIN KDBQ 290645Z AUTO 36009KT 10SM CLR 04/02 A2993 1070 89 0 360/09 RMK AO2
94908KDBQ DBQ20110429005011304/29/11 00:50:31  5-MIN KDBQ 290650Z AUTO 01009KT 10SM CLR 04/02 A2992 1070 89 0 010/09 RMK AO2 SLP141 T00390022
94908KDBQ DBQ20110429005509604/29/11 00:55:31  5-MIN KDBQ 290655Z AUTO 01010KT 10SM CLR 04/02 A2992 1080 89 0 010/10 RMK AO2
94908KDBQ DBQ20110429010009604/29/11 01:00:31  5-MIN KDBQ 290700Z AUTO 36009KT 10SM CLR 04/02 A2992 1070 89 0 360/09 RMK AO2
94908KDBQ DBQ20110429010509604/29/11 01:05:31  5-MIN KDBQ 290705Z AUTO 35009KT 10SM CLR 04/02 A2993 1070 85 0 350/09 RMK AO2
94908KDBQ DBQ20110429011009604/29/11 01:10:31  5-MIN KDBQ 290710Z AUTO 36008KT 10SM CLR 04/02 A2993 1070 85 0 360/08 RMK AO2
94908KDBQ DBQ20110429011509604/29/11 01:15:31  5-MIN KDBQ 290715Z AUTO 36007KT 10SM CLR 03/02 A2993 1070 89 0 350/07 RMK AO2
94908KDBQ DBQ20110429012009604/29/11 01:20:31  5-MIN KDBQ 290720Z AUTO 36006KT 10SM CLR 03/02 A2993 1070 89 0 360/06 RMK AO2
94908KDBQ DBQ20110429012509604/29/11 01:25:31  5-MIN KDBQ 290725Z AUTO 01006KT 10SM CLR 03/02 A2993 1070 89 0 010/06 RMK AO2
94908KDBQ DBQ20110429013009604/29/11 01:30:31  5-MIN KDBQ 290730Z AUTO 36004KT 10SM CLR 03/02 A2993 1070 89 0 360/04 RMK AO2
94908KDBQ DBQ20110429013509904/29/11 01:35:31  5-MIN KDBQ 290735Z AUTO 36006KT 10SM CLR 03/01 A2994 1060 89 -100 360/06 RMK AO2
94908KDBQ DBQ20110429014009904/29/11 01:40:31  5-MIN KDBQ 290740Z AUTO 35005KT 10SM CLR 03/01 A2994 1060 89 -100 350/05 RMK AO2
94908KDBQ DBQ20110429014509904/29/11 01:45:31  5-MIN KDBQ 290745Z AUTO 34007KT 10SM CLR 02/01 A2994 1060 92 -100 340/07 RMK AO2
94908KDBQ DBQ20110429015011604/29/11 01:50:31  5-MIN KDBQ 290750Z AUTO 34007KT 10SM CLR 02/01 A2994 1060 92 -100 340/07 RMK AO2 SLP148 T00220011
94908KDBQ DBQ20110429015509904/29/11 01:55:31  5-MIN KDBQ 290755Z AUTO 36006KT 10SM CLR 02/01 A2994 1060 92 -100 360/06 RMK AO2
94908KDBQ DBQ20110429020009904/29/11 02:00:31  5-MIN KDBQ 290800Z AUTO 01007KT 10SM CLR 02/01 A2994 1060 89 -100 010/07 RMK AO2
94908KDBQ DBQ20110429020509904/29/11 02:05:31  5-MIN KDBQ 290805Z AUTO 36005KT 10SM CLR 03/01 A2994 1060 89 -100 360/05 RMK AO2
94908KDBQ DBQ20110429021009904/29/11 02:10:31  5-MIN KDBQ 290810Z AUTO 35005KT 10SM CLR 02/01 A2995 1050 92 -200 340/05 RMK AO2
94908KDBQ DBQ20110429021509904/29/11 02:15:31  5-MIN KDBQ 290815Z AUTO 33005KT 10SM CLR 02/01 A2995 1050 89 -200 330/05 RMK AO2
94908KDBQ DBQ20110429022009904/29/11 02:20:31  5-MIN KDBQ 290820Z AUTO 36003KT 10SM CLR 02/01 A2995 1050 89 -200 360/03 RMK AO2
94908KDBQ DBQ20110429022509904/29/11 02:25:31  5-MIN KDBQ 290825Z AUTO 01004KT 10SM CLR 03/01 A2995 1050 89 -100 010/04 RMK AO2
94908KDBQ DBQ20110429023009904/29/11 02:30:31  5-MIN KDBQ 290830Z AUTO 03003KT 10SM CLR 02/01 A2995 1050 89 -200 030/03 RMK AO2
94908KDBQ DBQ20110429023509904/29/11 02:35:31  5-MIN KDBQ 290835Z AUTO 03003KT 10SM CLR 03/01 A2995 1050 85 -100 030/03 RMK AO2
94908KDBQ DBQ20110429024009904/29/11 02:40:31  5-MIN KDBQ 290840Z AUTO 00000KT 10SM CLR 02/01 A2995 1050 89 -200 000/00 RMK AO2
94908KDBQ DBQ20110429024509904/29/11 02:45:31  5-MIN KDBQ 290845Z AUTO 00000KT 10SM CLR 03/01 A2995 1050 89 -100 000/00 RMK AO2
94908KDBQ DBQ20110429025012204/29/11 02:50:31  5-MIN KDBQ 290850Z AUTO 05003KT 10SM CLR 03/01 A2995 1050 89 -100 050/03 RMK AO2 SLP150 T00280011 53010
94908KDBQ DBQ20110429025509904/29/11 02:55:31  5-MIN KDBQ 290855Z AUTO 00000KT 10SM CLR 03/01 A2995 1050 85 -100 000/00 RMK AO2
94908KDBQ DBQ20110429030010004/29/11 03:00:31  5-MIN KDBQ 290900Z AUTO 00000KT 10SM CLR 01/M01 A2996 1040 92 -400 000/00 RMK AO2
94908KDBQ DBQ20110429030510004/29/11 03:05:31  5-MIN KDBQ 290905Z AUTO 00000KT 10SM CLR 00/M02 A2995 1050 88 -400 000/00 RMK AO2
94908KDBQ DBQ20110429031010004/29/11 03:10:31  5-MIN KDBQ 290910Z AUTO 00000KT 10SM CLR 00/M01 A2996 1050 92 -400 000/00 RMK AO2
94908KDBQ DBQ20110429031510004/29/11 03:15:31  5-MIN KDBQ 290915Z AUTO 00000KT 10SM CLR 01/M01 A2996 1040 92 -400 000/00 RMK AO2
94908KDBQ DBQ20110429032010004/29/11 03:20:31  5-MIN KDBQ 290920Z AUTO 24003KT 10SM CLR 01/M01 A2996 1040 92 -400 240/03 RMK AO2
94908KDBQ DBQ20110429032510104/29/11 03:25:31  5-MIN KDBQ 290925Z AUTO 23003KT 10SM CLR M01/M01 A2997 1040 96 -500 230/03 RMK AO2
94908KDBQ DBQ20110429033010004/29/11 03:30:31  5-MIN KDBQ 290930Z AUTO 00000KT 10SM CLR 00/M01 A2996 1040 92 -400 000/00 RMK AO2
94908KDBQ DBQ20110429033510004/29/11 03:35:31  5-MIN KDBQ 290935Z AUTO 00000KT 10SM CLR 01/M01 A2996 1040 92 -400 000/00 RMK AO2
94908KDBQ DBQ20110429034010004/29/11 03:40:31  5-MIN KDBQ 290940Z AUTO 00000KT 10SM CLR 00/M01 A2996 1040 92 -400 000/00 RMK AO2
94908KDBQ DBQ20110429034510004/29/11 03:45:31  5-MIN KDBQ 290945Z AUTO 00000KT 10SM CLR 01/M01 A2996 1040 89 -400 000/00 RMK AO2
94908KDBQ DBQ20110429035011704/29/11 03:50:31  5-MIN KDBQ 290950Z AUTO 00000KT 10SM CLR 00/M01 A2997 1040 92 -500 000/00 RMK AO2 SLP156 T00001011
94908KDBQ DBQ20110429035510004/29/11 03:55:31  5-MIN KDBQ 290955Z AUTO 00000KT 10SM CLR 00/M01 A2997 1040 92 -500 000/00 RMK AO2
94908KDBQ DBQ20110429040010004/29/11 04:00:31  5-MIN KDBQ 291000Z AUTO 00000KT 10SM CLR 00/M01 A2997 1040 92 -500 000/00 RMK AO2
94908KDBQ DBQ20110429040510004/29/11 04:05:31  5-MIN KDBQ 291005Z AUTO 00000KT 10SM CLR 00/M01 A2997 1040 92 -500 000/00 RMK AO2
94908KDBQ DBQ20110429041010004/29/11 04:10:31  5-MIN KDBQ 291010Z AUTO 00000KT 10SM CLR 00/M01 A2996 1040 92 -400 000/00 RMK AO2
94908KDBQ DBQ20110429041510004/29/11 04:15:31  5-MIN KDBQ 291015Z AUTO 00000KT 10SM CLR 01/M01 A2996 1040 92 -400 000/00 RMK AO2
94908KDBQ DBQ20110429042010104/29/11 04:20:31  5-MIN KDBQ 291020Z AUTO 00000KT 10SM CLR M01/M01 A2996 1040 96 -500 000/00 RMK AO2
94908KDBQ DBQ20110429042510104/29/11 04:25:31  5-MIN KDBQ 291025Z AUTO 00000KT 10SM CLR M01/M02 A2996 1040 96 -600 000/00 RMK AO2
94908KDBQ DBQ20110429043010104/29/11 04:30:31  5-MIN KDBQ 291030Z AUTO 00000KT 10SM CLR M01/M02 A2996 1040 92 -600 000/00 RMK AO2
94908KDBQ DBQ20110429043510104/29/11 04:35:31  5-MIN KDBQ 291035Z AUTO 00000KT 10SM CLR M01/M03 A2996 1040 88 -600 000/00 RMK AO2
94908KDBQ DBQ20110429044010104/29/11 04:40:31  5-MIN KDBQ 291040Z AUTO 00000KT 10SM CLR M01/M02 A2996 1040 88 -500 000/00 RMK AO2
94908KDBQ DBQ20110429044510104/29/11 04:45:31  5-MIN KDBQ 291045Z AUTO 00000KT 10SM CLR M01/M02 A2997 1040 92 -600 000/00 RMK AO2
94908KDBQ DBQ20110429045011304/29/11 04:50:31  5-MIN KDBQ 291050Z 00000KT 10SM CLR M01/M02 A2997 1030 92 -600 000/00 RMK AO2 SLP158 T10111022
94908KDBQ DBQ20110429045509604/29/11 04:55:31  5-MIN KDBQ 291055Z 00000KT 10SM CLR M01/M02 A2997 1030 92 -600 000/00 RMK AO2
94908KDBQ DBQ20110429050009604/29/11 05:00:31  5-MIN KDBQ 291100Z 00000KT 10SM CLR M01/M02 A2997 1030 92 -500 000/00 RMK AO2
94908KDBQ DBQ20110429050509604/29/11 05:05:31  5-MIN KDBQ 291105Z 00000KT 10SM CLR M01/M02 A2997 1030 96 -600 000/00 RMK AO2
94908KDBQ DBQ20110429051009504/29/11 05:10:31  5-MIN KDBQ 291110Z 00000KT 9SM CLR M01/M02 A2997 1030 96 -600 000/00 RMK AO2
94908KDBQ DBQ20110429051509504/29/11 05:15:31  5-MIN KDBQ 291115Z 00000KT 9SM CLR M02/M02 A2997 1030 96 -700 000/00 RMK AO2
94908KDBQ DBQ20110429052009504/29/11 05:20:31  5-MIN KDBQ 291120Z 00000KT 9SM CLR M01/M02 A2997 1030 96 -600 000/00 RMK AO2
94908KDBQ DBQ20110429052509504/29/11 05:25:31  5-MIN KDBQ 291125Z 00000KT 9SM CLR M01/M02 A2998 1030 96 -600 000/00 RMK AO2
94908KDBQ DBQ20110429053009604/29/11 05:30:31  5-MIN KDBQ 291130Z 00000KT 9SM CLR M01/M01 A2998 1030 100 -600 000/00 RMK AO2
94908KDBQ DBQ20110429053509604/29/11 05:35:31  5-MIN KDBQ 291135Z 00000KT 10SM CLR M01/M01 A2998 1020 96 -500 000/00 RMK AO2
94908KDBQ DBQ20110429054009604/29/11 05:40:31  5-MIN KDBQ 291140Z 00000KT 10SM CLR M01/M01 A2998 1030 96 -500 000/00 RMK AO2
94908KDBQ DBQ20110429054509504/29/11 05:45:31  5-MIN KDBQ 291145Z 00000KT 10SM CLR 00/M01 A2998 1030 92 -500 000/00 RMK AO2
94908KDBQ DBQ20110429055013604/29/11 05:50:31  5-MIN KDBQ 291150Z 00000KT 10SM CLR 01/M01 A2998 1020 89 -400 000/00 RMK AO2 SLP160 70001 T00061011 10044 21017 53006
94908KDBQ DBQ20110429055509504/29/11 05:55:31  5-MIN KDBQ 291155Z 00000KT 10SM CLR 00/M01 A2998 1020 92 -500 000/00 RMK AO2
94908KDBQ DBQ20110429060009604/29/11 06:00:31  5-MIN KDBQ 291200Z 00000KT 10SM CLR M01/M01 A2999 1020 96 -500 000/00 RMK AO2
94908KDBQ DBQ20110429060509604/29/11 06:05:31  5-MIN KDBQ 291205Z 23003KT 10SM CLR M01/M01 A2999 1010 96 -500 230/03 RMK AO2
94908KDBQ DBQ20110429061009504/29/11 06:10:31  5-MIN KDBQ 291210Z 23004KT 10SM CLR 00/M01 A2999 1010 92 -500 230/04 RMK AO2
94908KDBQ DBQ20110429061509504/29/11 06:15:31  5-MIN KDBQ 291215Z 00000KT 10SM CLR 01/M01 A2999 1010 92 -400 000/00 RMK AO2
94908KDBQ DBQ20110429062009404/29/11 06:20:31  5-MIN KDBQ 291220Z 00000KT 10SM CLR 01/00 A2999 1010 96 -400 000/00 RMK AO2
94908KDBQ DBQ20110429062509404/29/11 06:25:31  5-MIN KDBQ 291225Z 00000KT 10SM CLR 01/01 A2999 1010 96 -300 000/00 RMK AO2
94908KDBQ DBQ20110429063009404/29/11 06:30:31  5-MIN KDBQ 291230Z 00000KT 10SM CLR 02/01 A2999 1010 92 -300 000/00 RMK AO2
94908KDBQ DBQ20110429063509404/29/11 06:35:31  5-MIN KDBQ 291235Z 23004KT 10SM CLR 02/01 A3000 1010 92 -300 230/04 RMK AO2
94908KDBQ DBQ20110429064009404/29/11 06:40:31  5-MIN KDBQ 291240Z 22003KT 10SM CLR 02/01 A2999 1010 92 -300 220/03 RMK AO2
94908KDBQ DBQ20110429064509404/29/11 06:45:31  5-MIN KDBQ 291245Z 00000KT 10SM CLR 02/01 A2999 1010 89 -200 000/00 RMK AO2
94908KDBQ DBQ20110429065011104/29/11 06:50:31  5-MIN KDBQ 291250Z 00000KT 10SM CLR 03/02 A2999 1010 89 -100 000/00 RMK AO2 SLP165 T00330017
94908KDBQ DBQ20110429065509404/29/11 06:55:31  5-MIN KDBQ 291255Z 00000KT 10SM CLR 03/02 A3000 1010 92 -100 000/00 RMK AO2
94908KDBQ DBQ20110429070009404/29/11 07:00:31  5-MIN KDBQ 291300Z 00000KT 10SM CLR 03/02 A3000 1010 89 -100 000/00 RMK AO2
94908KDBQ DBQ20110429070509104/29/11 07:05:31  5-MIN KDBQ 291305Z 00000KT 10SM CLR 04/02 A3000 1010 89 0 000/00 RMK AO2
94908KDBQ DBQ20110429071009104/29/11 07:10:31  5-MIN KDBQ 291310Z 00000KT 10SM CLR 04/02 A3000 1010 89 0 000/00 RMK AO2
94908KDBQ DBQ20110429071509304/29/11 07:15:31  5-MIN KDBQ 291315Z 19003KT 10SM CLR 05/02 A3000 1000 82 100 190/03 RMK AO2
94908KDBQ DBQ20110429072009304/29/11 07:20:31  5-MIN KDBQ 291320Z 19003KT 10SM CLR 06/02 A3000 1000 79 100 190/03 RMK AO2
94908KDBQ DBQ20110429072509304/29/11 07:25:31  5-MIN KDBQ 291325Z 18004KT 10SM CLR 06/02 A3000 1000 73 200 180/04 RMK AO2
94908KDBQ DBQ20110429073009304/29/11 07:30:31  5-MIN KDBQ 291330Z 17004KT 10SM CLR 07/02 A3000 1000 70 300 170/04 RMK AO2
94908KDBQ DBQ20110429073509304/29/11 07:35:31  5-MIN KDBQ 291335Z 17005KT 10SM CLR 07/02 A3000 1000 70 300 170/05 RMK AO2
94908KDBQ DBQ20110429074009304/29/11 07:40:31  5-MIN KDBQ 291340Z 17006KT 10SM CLR 07/01 A3000 1000 65 300 170/06 RMK AO2
94908KDBQ DBQ20110429074509304/29/11 07:45:31  5-MIN KDBQ 291345Z 16005KT 10SM CLR 07/01 A3000 1000 65 300 160/05 RMK AO2
94908KDBQ DBQ20110429075011004/29/11 07:50:31  5-MIN KDBQ 291350Z 15005KT 10SM CLR 07/01 A3000 1000 62 300 150/05 RMK AO2 SLP167 T00720006
94908KDBQ DBQ20110429075509304/29/11 07:55:31  5-MIN KDBQ 291355Z 17005KT 10SM CLR 08/01 A3000 1000 60 400 170/05 RMK AO2
94908KDBQ DBQ20110429080009304/29/11 08:00:31  5-MIN KDBQ 291400Z 17005KT 10SM CLR 08/01 A3000 1000 60 400 170/05 RMK AO2
94908KDBQ DBQ20110429080509304/29/11 08:05:31  5-MIN KDBQ 291405Z 16005KT 10SM CLR 08/01 A3001 1000 58 500 160/05 RMK AO2
94908KDBQ DBQ20110429081009304/29/11 08:10:31  5-MIN KDBQ 291410Z 18005KT 10SM CLR 08/01 A3001 1000 60 500 180/05 RMK AO2
94908KDBQ DBQ20110429081509304/29/11 08:15:31  5-MIN KDBQ 291415Z 19006KT 10SM CLR 08/01 A3001 1000 60 500 180/06 RMK AO2
94908KDBQ DBQ20110429082009304/29/11 08:20:31  5-MIN KDBQ 291420Z 19005KT 10SM CLR 09/01 A3001 1000 58 500 190/05 RMK AO2
94908KDBQ DBQ20110429082509204/29/11 08:25:31  5-MIN KDBQ 291425Z 20007KT 10SM CLR 09/01 A3001 990 58 500 200/07 RMK AO2
94908KDBQ DBQ20110429083009204/29/11 08:30:31  5-MIN KDBQ 291430Z 18008KT 10SM CLR 09/01 A3001 990 56 500 180/08 RMK AO2
94908KDBQ DBQ20110429083509304/29/11 08:35:31  5-MIN KDBQ 291435Z 17006KT 10SM CLR 09/01 A3001 1000 56 500 170/06 RMK AO2
94908KDBQ DBQ20110429084009304/29/11 08:40:31  5-MIN KDBQ 291440Z 17007KT 10SM CLR 09/01 A3001 1000 53 600 170/07 RMK AO2
94908KDBQ DBQ20110429084509304/29/11 08:45:31  5-MIN KDBQ 291445Z 18006KT 10SM CLR 09/01 A3001 1000 56 500 170/06 RMK AO2
94908KDBQ DBQ20110429085011604/29/11 08:50:31  5-MIN KDBQ 291450Z 18007KT 10SM CLR 09/01 A3001 1000 56 600 180/07 RMK AO2 SLP168 T00940011 51009
94908KDBQ DBQ20110429085509204/29/11 08:55:31  5-MIN KDBQ 291455Z 17005KT 10SM CLR 09/02 A3001 990 58 600 170/05 RMK AO2
94908KDBQ DBQ20110429090009204/29/11 09:00:31  5-MIN KDBQ 291500Z 16007KT 10SM CLR 10/02 A3001 990 58 700 160/07 RMK AO2
94908KDBQ DBQ20110429090509204/29/11 09:05:31  5-MIN KDBQ 291505Z 18007KT 10SM CLR 10/02 A3001 990 56 700 180/07 RMK AO2
94908KDBQ DBQ20110429091009204/29/11 09:10:31  5-MIN KDBQ 291510Z 18006KT 10SM CLR 10/01 A3001 990 54 700 180/06 RMK AO2
94908KDBQ DBQ20110429091509204/29/11 09:15:31  5-MIN KDBQ 291515Z 19008KT 10SM CLR 10/01 A3001 990 54 700 190/08 RMK AO2
94908KDBQ DBQ20110429092009204/29/11 09:20:31  5-MIN KDBQ 291520Z 16006KT 10SM CLR 10/01 A3001 990 54 700 160/06 RMK AO2
94908KDBQ DBQ20110429092509304/29/11 09:25:31  5-MIN KDBQ 291525Z 17007KT 10SM CLR 11/02 A3001 1000 54 700 170/07 RMK AO2
94908KDBQ DBQ20110429093009304/29/11 09:30:31  5-MIN KDBQ 291530Z 17007KT 10SM CLR 11/01 A3001 1000 50 700 160/07 RMK AO2
94908KDBQ DBQ20110429093509304/29/11 09:35:31  5-MIN KDBQ 291535Z 17008KT 10SM CLR 11/01 A3001 1000 50 700 170/08 RMK AO2
94908KDBQ DBQ20110429094009304/29/11 09:40:31  5-MIN KDBQ 291540Z 18007KT 10SM CLR 11/01 A3001 1000 50 800 180/07 RMK AO2
94908KDBQ DBQ20110429094509304/29/11 09:45:31  5-MIN KDBQ 291545Z 16007KT 10SM CLR 11/01 A3001 1000 50 800 160/07 RMK AO2
94908KDBQ DBQ20110429095011004/29/11 09:50:31  5-MIN KDBQ 291550Z 17009KT 10SM CLR 12/01 A3000 1000 48 900 170/09 RMK AO2 SLP165 T01170011
94908KDBQ DBQ20110429095509304/29/11 09:55:31  5-MIN KDBQ 291555Z 16007KT 10SM CLR 11/01 A3001 1000 48 800 160/07 RMK AO2
94908KDBQ DBQ20110429100009304/29/11 10:00:31  5-MIN KDBQ 291600Z 14007KT 10SM CLR 12/00 A3001 1000 44 900 140/07 RMK AO2
94908KDBQ DBQ20110429100509304/29/11 10:05:31  5-MIN KDBQ 291605Z 15009KT 10SM CLR 12/00 A3001 1000 44 900 140/09 RMK AO2
94908KDBQ DBQ20110429101009304/29/11 10:10:31  5-MIN KDBQ 291610Z 17008KT 10SM CLR 12/01 A3001 1000 46 900 170/08 RMK AO2
94908KDBQ DBQ20110429101509304/29/11 10:15:31  5-MIN KDBQ 291615Z 16008KT 10SM CLR 12/01 A3001 1000 44 900 150/08 RMK AO2
94908KDBQ DBQ20110429102009404/29/11 10:20:31  5-MIN KDBQ 291620Z 16007KT 10SM CLR 12/M01 A3001 1000 41 900 160/07 RMK AO2
94908KDBQ DBQ20110429102509404/29/11 10:25:31  5-MIN KDBQ 291625Z 16009KT 10SM CLR 13/01 A3001 1000 44 1000 160/09 RMK AO2
94908KDBQ DBQ20110429103009404/29/11 10:30:31  5-MIN KDBQ 291630Z 16009KT 10SM CLR 13/01 A3001 1000 44 1000 160/09 RMK AO2
94908KDBQ DBQ20110429103509404/29/11 10:35:31  5-MIN KDBQ 291635Z 16008KT 10SM CLR 13/00 A3001 1000 41 1000 160/08 RMK AO2
94908KDBQ DBQ20110429104009404/29/11 10:40:31  5-MIN KDBQ 291640Z 15008KT 10SM CLR 13/00 A3001 1000 41 1000 150/08 RMK AO2
94908KDBQ DBQ20110429104509404/29/11 10:45:31  5-MIN KDBQ 291645Z 18010KT 10SM CLR 13/01 A3001 1000 43 1000 180/10 RMK AO2
94908KDBQ DBQ20110429105011104/29/11 10:50:31  5-MIN KDBQ 291650Z 17011KT 10SM CLR 13/01 A3001 1000 44 1000 170/11 RMK AO2 SLP165 T01280011
94908KDBQ DBQ20110429105509504/29/11 10:55:31  5-MIN KDBQ 291655Z 18010KT 10SM CLR 13/M01 A3001 1000 39 1000 180/10 RMK AO2
94908KDBQ DBQ20110429110009404/29/11 11:00:31  5-MIN KDBQ 291700Z 17010KT 10SM CLR 13/00 A3001 1000 41 1000 170/10 RMK AO2
94908KDBQ DBQ20110429110509504/29/11 11:05:31  5-MIN KDBQ 291705Z 17007KT 10SM CLR 13/M01 A3000 1000 39 1000 170/07 RMK AO2
94908KDBQ DBQ20110429111009504/29/11 11:10:31  5-MIN KDBQ 291710Z 18011KT 10SM CLR 13/M01 A3001 1000 38 1100 180/11 RMK AO2
94908KDBQ DBQ20110429111509404/29/11 11:15:31  5-MIN KDBQ 291715Z 17008KT 10SM CLR 13/00 A3001 1000 40 1100 160/08 RMK AO2
94908KDBQ DBQ20110429112009504/29/11 11:20:31  5-MIN KDBQ 291720Z 15012KT 10SM CLR 13/M01 A3000 1000 38 1100 150/12 RMK AO2
94908KDBQ DBQ20110429112509504/29/11 11:25:31  5-MIN KDBQ 291725Z 18007KT 10SM CLR 13/M01 A3000 1000 38 1100 180/07 RMK AO2
94908KDBQ DBQ20110429113010004/29/11 11:30:31  5-MIN KDBQ 291730Z 16009G15KT 10SM CLR 14/00 A3000 1000 38 1100 160/09G15 RMK AO2
94908KDBQ DBQ20110429113509504/29/11 11:35:31  5-MIN KDBQ 291735Z 17008KT 10SM CLR 13/M01 A3000 1000 38 1100 160/08 RMK AO2
94908KDBQ DBQ20110429114010104/29/11 11:40:31  5-MIN KDBQ 291740Z 17011G16KT 10SM CLR 14/M01 A3000 1010 37 1100 170/11G16 RMK AO2
94908KDBQ DBQ20110429114510104/29/11 11:45:31  5-MIN KDBQ 291745Z 17011G17KT 10SM CLR 14/M01 A3000 1000 37 1100 170/11G17 RMK AO2
94908KDBQ DBQ20110429115013604/29/11 11:50:31  5-MIN KDBQ 291750Z 15010G17KT 10SM CLR 14/M01 A3000 1010 37 1100 150/10G17 RMK AO2 SLP162 T01391006 10139 21006 51010
94908KDBQ DBQ20110429115509404/29/11 11:55:31  5-MIN KDBQ 291755Z 17011KT 10SM CLR 14/01 A3000 1000 40 1100 170/11 RMK AO2
94908KDBQ DBQ20110429120009404/29/11 12:00:31  5-MIN KDBQ 291800Z 16010KT 10SM CLR 14/00 A3000 1010 38 1100 160/10 RMK AO2
94908KDBQ DBQ20110429120509404/29/11 12:05:31  5-MIN KDBQ 291805Z 16010KT 10SM CLR 14/01 A3000 1010 38 1200 160/10 RMK AO2
94908KDBQ DBQ20110429121010004/29/11 12:10:31  5-MIN KDBQ 291810Z 15013G19KT 10SM CLR 14/01 A3000 1010 38 1200 150/13G19 RMK AO2
94908KDBQ DBQ20110429121510004/29/11 12:15:31  5-MIN KDBQ 291815Z 16009G19KT 10SM CLR 14/00 A2999 1010 37 1200 160/09G19 RMK AO2
94908KDBQ DBQ20110429122010004/29/11 12:20:31  5-MIN KDBQ 291820Z 17010G16KT 10SM CLR 14/01 A2999 1010 40 1200 160/10G16 RMK AO2
94908KDBQ DBQ20110429122510004/29/11 12:25:31  5-MIN KDBQ 291825Z 16013G18KT 10SM CLR 14/01 A2999 1020 38 1200 160/13G18 RMK AO2
94908KDBQ DBQ20110429123010004/29/11 12:30:31  5-MIN KDBQ 291830Z 17013G18KT 10SM CLR 15/01 A2999 1020 37 1300 170/13G18 RMK AO2
94908KDBQ DBQ20110429123509404/29/11 12:35:31  5-MIN KDBQ 291835Z 17012KT 10SM CLR 15/01 A2999 1020 37 1300 170/12 RMK AO2
94908KDBQ DBQ20110429124009404/29/11 12:40:31  5-MIN KDBQ 291840Z 15012KT 10SM CLR 15/01 A2999 1020 37 1300 150/12 RMK AO2
94908KDBQ DBQ20110429124509404/29/11 12:45:31  5-MIN KDBQ 291845Z 16011KT 10SM CLR 15/01 A2999 1020 37 1300 160/11 RMK AO2
94908KDBQ DBQ20110429125011704/29/11 12:50:31  5-MIN KDBQ 291850Z 15011G16KT 10SM CLR 15/01 A2998 1020 37 1300 150/11G16 RMK AO2 SLP156 T01500006
94908KDBQ DBQ20110429125510004/29/11 12:55:31  5-MIN KDBQ 291855Z 14010G16KT 10SM CLR 15/01 A2997 1030 37 1300 140/10G16 RMK AO2
94908KDBQ DBQ20110429130009504/29/11 13:00:31  5-MIN KDBQ 291900Z 14010KT 10SM CLR 16/M01 A2997 1030 33 1400 140/10 RMK AO2
94908KDBQ DBQ20110429130510804/29/11 13:05:31  5-MIN KDBQ 291905Z 15012G17KT 10SM CLR 15/M01 A2996 1040 33 1300 150/12G17 RMK AO2 PRESFR
94908KDBQ DBQ20110429131010104/29/11 13:10:31  5-MIN KDBQ 291910Z 14011G17KT 10SM CLR 16/M01 A2996 1040 33 1400 140/11G17 RMK AO2
94908KDBQ DBQ20110429131509404/29/11 13:15:31  5-MIN KDBQ 291915Z 15010KT 10SM CLR 16/01 A2996 1040 36 1400 150/10 RMK AO2
94908KDBQ DBQ20110429132009404/29/11 13:20:31  5-MIN KDBQ 291920Z 14010KT 10SM CLR 16/00 A2996 1040 34 1400 140/10 RMK AO2
94908KDBQ DBQ20110429132510004/29/11 13:25:31  5-MIN KDBQ 291925Z 16014G19KT 10SM CLR 16/00 A2995 1050 34 1400 160/14G19 RMK AO2
94908KDBQ DBQ20110429133010004/29/11 13:30:31  5-MIN KDBQ 291930Z 16013G19KT 10SM CLR 16/01 A2995 1050 36 1400 160/13G19 RMK AO2
94908KDBQ DBQ20110429133509504/29/11 13:35:31  5-MIN KDBQ 291935Z 16013KT 10SM CLR 16/M01 A2995 1050 33 1400 160/13 RMK AO2
94908KDBQ DBQ20110429134009504/29/11 13:40:31  5-MIN KDBQ 291940Z 15014KT 10SM CLR 16/M01 A2995 1050 31 1400 150/14 RMK AO2
94908KDBQ DBQ20110429134509504/29/11 13:45:31  5-MIN KDBQ 291945Z 16010KT 10SM CLR 16/M01 A2995 1050 33 1400 160/10 RMK AO2
94908KDBQ DBQ20110429135011104/29/11 13:50:31  5-MIN KDBQ 291950Z 17011KT 10SM CLR 16/00 A2995 1050 33 1500 170/11 RMK AO2 SLP145 T01610000
94908KDBQ DBQ20110429135510004/29/11 13:55:31  5-MIN KDBQ 291955Z 16014G18KT 10SM CLR 16/01 A2995 1050 36 1400 160/14G18 RMK AO2
94908KDBQ DBQ20110429140010104/29/11 14:00:31  5-MIN KDBQ 292000Z 16011G18KT 10SM CLR 16/M01 A2995 1050 33 1400 160/11G18 RMK AO2
94908KDBQ DBQ20110429140509504/29/11 14:05:31  5-MIN KDBQ 292005Z 16011KT 10SM CLR 16/M01 A2995 1050 33 1400 160/11 RMK AO2
94908KDBQ DBQ20110429141009404/29/11 14:10:31  5-MIN KDBQ 292010Z 17011KT 10SM CLR 16/01 A2995 1050 34 1500 170/11 RMK AO2
94908KDBQ DBQ20110429141509404/29/11 14:15:31  5-MIN KDBQ 292015Z 17015KT 10SM CLR 16/01 A2994 1060 36 1400 170/15 RMK AO2
94908KDBQ DBQ20110429142010004/29/11 14:20:31  5-MIN KDBQ 292020Z 16012G18KT 10SM CLR 16/01 A2994 1060 36 1400 160/12G18 RMK AO2
94908KDBQ DBQ20110429142510004/29/11 14:25:31  5-MIN KDBQ 292025Z 16009G18KT 10SM CLR 16/01 A2994 1060 37 1400 160/09G18 RMK AO2
94908KDBQ DBQ20110429143010004/29/11 14:30:31  5-MIN KDBQ 292030Z 16011G18KT 10SM CLR 16/01 A2993 1070 36 1500 160/11G18 RMK AO2
94908KDBQ DBQ20110429143510004/29/11 14:35:31  5-MIN KDBQ 292035Z 15010G18KT 10SM CLR 16/01 A2993 1070 34 1500 150/10G18 RMK AO2
94908KDBQ DBQ20110429144010004/29/11 14:40:31  5-MIN KDBQ 292040Z 17015G20KT 10SM CLR 16/01 A2993 1070 36 1400 160/15G20 RMK AO2
94908KDBQ DBQ20110429144510004/29/11 14:45:31  5-MIN KDBQ 292045Z 17012G20KT 10SM CLR 16/01 A2993 1070 36 1400 170/12G20 RMK AO2
94908KDBQ DBQ20110429145011704/29/11 14:50:31  5-MIN KDBQ 292050Z 15011KT 10SM CLR 16/01 A2992 1080 36 1400 140/11 RMK AO2 SLP137 T01560006 58004
94908KDBQ DBQ20110429145510004/29/11 14:55:31  5-MIN KDBQ 292055Z 14010G18KT 10SM CLR 16/01 A2992 1080 36 1400 140/10G18 RMK AO2
94908KDBQ DBQ20110429150010004/29/11 15:00:31  5-MIN KDBQ 292100Z 16013G18KT 10SM CLR 16/01 A2992 1080 36 1500 160/13G18 RMK AO2
94908KDBQ DBQ20110429150510004/29/11 15:05:31  5-MIN KDBQ 292105Z 15012G18KT 10SM CLR 16/00 A2992 1080 33 1500 150/12G18 RMK AO2
94908KDBQ DBQ20110429151009404/29/11 15:10:31  5-MIN KDBQ 292110Z 16012KT 10SM CLR 16/00 A2992 1080 34 1400 160/12 RMK AO2
94908KDBQ DBQ20110429151510004/29/11 15:15:31  5-MIN KDBQ 292115Z 15009G17KT 10SM CLR 15/00 A2992 1080 35 1400 150/09G17 RMK AO2
94908KDBQ DBQ20110429152010004/29/11 15:20:31  5-MIN KDBQ 292120Z 15011G17KT 10SM CLR 16/01 A2992 1080 36 1400 150/11G17 RMK AO2
94908KDBQ DBQ20110429152510004/29/11 15:25:31  5-MIN KDBQ 292125Z 16010G17KT 10SM CLR 16/01 A2992 1080 37 1400 160/10G17 RMK AO2
94908KDBQ DBQ20110429153009404/29/11 15:30:31  5-MIN KDBQ 292130Z 15012KT 10SM CLR 16/01 A2992 1080 37 1400 150/12 RMK AO2
94908KDBQ DBQ20110429153509404/29/11 15:35:31  5-MIN KDBQ 292135Z 15014KT 10SM CLR 16/01 A2992 1080 37 1400 150/14 RMK AO2
94908KDBQ DBQ20110429154010004/29/11 15:40:31  5-MIN KDBQ 292140Z 15008G18KT 10SM CLR 16/01 A2992 1080 37 1400 150/08G18 RMK AO2
94908KDBQ DBQ20110429154510004/29/11 15:45:31  5-MIN KDBQ 292145Z 15014G18KT 10SM CLR 15/00 A2992 1080 35 1400 150/14G18 RMK AO2
94908KDBQ DBQ20110429155011104/29/11 15:50:31  5-MIN KDBQ 292150Z 15011KT 10SM CLR 15/01 A2992 1080 37 1400 150/11 RMK AO2 SLP136 T01500006
94908KDBQ DBQ20110429155509404/29/11 15:55:31  5-MIN KDBQ 292155Z 14012KT 10SM CLR 15/01 A2992 1080 37 1400 140/12 RMK AO2
94908KDBQ DBQ20110429160009404/29/11 16:00:31  5-MIN KDBQ 292200Z 15011KT 10SM CLR 15/00 A2992 1080 35 1400 150/11 RMK AO2
94908KDBQ DBQ20110429160510004/29/11 16:05:31  5-MIN KDBQ 292205Z 15012G17KT 10SM CLR 15/01 A2992 1080 37 1400 150/12G17 RMK AO2
94908KDBQ DBQ20110429161009404/29/11 16:10:31  5-MIN KDBQ 292210Z 14012KT 10SM CLR 15/01 A2992 1080 38 1400 140/12 RMK AO2
94908KDBQ DBQ20110429161509404/29/11 16:15:31  5-MIN KDBQ 292215Z 15011KT 10SM CLR 15/01 A2991 1080 38 1400 150/11 RMK AO2
94908KDBQ DBQ20110429162009404/29/11 16:20:31  5-MIN KDBQ 292220Z 15011KT 10SM CLR 15/01 A2991 1090 38 1400 140/11 RMK AO2
94908KDBQ DBQ20110429162510004/29/11 16:25:31  5-MIN KDBQ 292225Z 15014G20KT 10SM CLR 16/02 A2990 1090 39 1500 140/14G20 RMK AO2
94908KDBQ DBQ20110429163010004/29/11 16:30:31  5-MIN KDBQ 292230Z 15014G20KT 10SM CLR 16/02 A2991 1090 39 1400 140/14G20 RMK AO2
94908KDBQ DBQ20110429163510004/29/11 16:35:31  5-MIN KDBQ 292235Z 15012G18KT 10SM CLR 16/01 A2991 1090 37 1400 150/12G18 RMK AO2
94908KDBQ DBQ20110429164009404/29/11 16:40:31  5-MIN KDBQ 292240Z 15012KT 10SM CLR 15/01 A2991 1080 38 1400 150/12 RMK AO2
94908KDBQ DBQ20110429164509404/29/11 16:45:31  5-MIN KDBQ 292245Z 15011KT 10SM CLR 15/01 A2991 1090 38 1400 140/11 RMK AO2
94908KDBQ DBQ20110429165011104/29/11 16:50:31  5-MIN KDBQ 292250Z 14012KT 10SM CLR 15/02 A2991 1090 40 1400 140/12 RMK AO2 SLP134 T01500017
94908KDBQ DBQ20110429165510004/29/11 16:55:31  5-MIN KDBQ 292255Z 14010G19KT 10SM CLR 15/01 A2991 1090 38 1400 140/10G19 RMK AO2
94908KDBQ DBQ20110429170010004/29/11 17:00:31  5-MIN KDBQ 292300Z 15013G19KT 10SM CLR 15/02 A2991 1090 40 1400 150/13G19 RMK AO2
94908KDBQ DBQ20110429170510004/29/11 17:05:31  5-MIN KDBQ 292305Z 14009G17KT 10SM CLR 15/02 A2991 1090 40 1400 140/09G17 RMK AO2
94908KDBQ DBQ20110429171010004/29/11 17:10:31  5-MIN KDBQ 292310Z 14011G17KT 10SM CLR 15/02 A2991 1090 40 1400 140/11G17 RMK AO2
94908KDBQ DBQ20110429171510004/29/11 17:15:31  5-MIN KDBQ 292315Z 14011G17KT 10SM CLR 15/02 A2990 1100 42 1400 140/11G17 RMK AO2
94908KDBQ DBQ20110429172009404/29/11 17:20:31  5-MIN KDBQ 292320Z 14009KT 10SM CLR 15/02 A2990 1100 42 1400 140/09 RMK AO2
94908KDBQ DBQ20110429172509404/29/11 17:25:31  5-MIN KDBQ 292325Z 13008KT 10SM CLR 15/02 A2990 1100 42 1400 130/08 RMK AO2
94908KDBQ DBQ20110429173010004/29/11 17:30:31  5-MIN KDBQ 292330Z 14012G16KT 10SM CLR 15/03 A2989 1100 43 1400 140/12G16 RMK AO2
94908KDBQ DBQ20110429173510004/29/11 17:35:31  5-MIN KDBQ 292335Z 13009G16KT 10SM CLR 14/03 A2989 1110 45 1300 130/09G16 RMK AO2
94908KDBQ DBQ20110429174009404/29/11 17:40:31  5-MIN KDBQ 292340Z 13008KT 10SM CLR 14/03 A2989 1110 45 1300 130/08 RMK AO2
94908KDBQ DBQ20110429174509404/29/11 17:45:31  5-MIN KDBQ 292345Z 14008KT 10SM CLR 14/03 A2988 1110 47 1300 140/08 RMK AO2
94908KDBQ DBQ20110429175013504/29/11 17:50:31  5-MIN KDBQ 292350Z 13011G16KT 10SM CLR 14/03 A2988 1120 47 1400 130/11G16 RMK AO2 SLP123 T01440033 10161 20139 58025
94908KDBQ DBQ20110429175509404/29/11 17:55:31  5-MIN KDBQ 292355Z 13012KT 10SM CLR 14/03 A2987 1120 45 1400 130/12 RMK AO2
94908KDBQ DBQ20110429180009404/29/11 18:00:31  5-MIN KDBQ 300000Z 13012KT 10SM CLR 14/03 A2987 1130 45 1400 130/12 RMK AO2
94908KDBQ DBQ20110429180509404/29/11 18:05:31  5-MIN KDBQ 300005Z 13011KT 10SM CLR 14/03 A2987 1130 47 1300 130/11 RMK AO2
94908KDBQ DBQ20110429181009404/29/11 18:10:31  5-MIN KDBQ 300010Z 14010KT 10SM CLR 14/03 A2987 1120 47 1300 140/10 RMK AO2
94908KDBQ DBQ20110429181509404/29/11 18:15:31  5-MIN KDBQ 300015Z 14012KT 10SM CLR 14/03 A2988 1120 47 1300 140/12 RMK AO2
94908KDBQ DBQ20110429182009404/29/11 18:20:31  5-MIN KDBQ 300020Z 14010KT 10SM CLR 14/03 A2988 1120 48 1300 140/10 RMK AO2
94908KDBQ DBQ20110429182510004/29/11 18:25:31  5-MIN KDBQ 300025Z 13013G17KT 10SM CLR 14/03 A2987 1130 48 1300 130/13G17 RMK AO2
94908KDBQ DBQ20110429183010004/29/11 18:30:31  5-MIN KDBQ 300030Z 13013G19KT 10SM CLR 14/03 A2986 1130 47 1300 130/13G19 RMK AO2
94908KDBQ DBQ20110429183509404/29/11 18:35:31  5-MIN KDBQ 300035Z 14014KT 10SM CLR 14/03 A2986 1130 47 1300 140/14 RMK AO2
94908KDBQ DBQ20110429184009404/29/11 18:40:31  5-MIN KDBQ 300040Z 14013KT 10SM CLR 14/03 A2986 1130 47 1300 130/13 RMK AO2
94908KDBQ DBQ20110429184510004/29/11 18:45:31  5-MIN KDBQ 300045Z 13012G19KT 10SM CLR 13/03 A2986 1130 48 1200 130/12G19 RMK AO2
94908KDBQ DBQ20110429185011704/29/11 18:50:31  5-MIN KDBQ 300050Z 14012G18KT 10SM CLR 13/03 A2987 1130 48 1200 140/12G18 RMK AO2 SLP119 T01330028
94908KDBQ DBQ20110429185509904/29/11 18:55:31  5-MIN KDBQ 300055Z AUTO 14012KT 10SM CLR 13/03 A2987 1130 48 1200 140/12 RMK AO2
94908KDBQ DBQ20110429190010504/29/11 19:00:31  5-MIN KDBQ 300100Z AUTO 14011G18KT 10SM CLR 13/03 A2987 1120 48 1200 130/11G18 RMK AO2
94908KDBQ DBQ20110429190510504/29/11 19:05:31  5-MIN KDBQ 300105Z AUTO 13013G18KT 10SM CLR 13/03 A2987 1130 48 1200 130/13G18 RMK AO2
94908KDBQ DBQ20110429191009904/29/11 19:10:31  5-MIN KDBQ 300110Z AUTO 14011KT 10SM CLR 13/03 A2987 1120 48 1200 140/11 RMK AO2
94908KDBQ DBQ20110429191510504/29/11 19:15:31  5-MIN KDBQ 300115Z AUTO 13013G19KT 10SM CLR 13/03 A2986 1130 48 1200 130/13G19 RMK AO2
94908KDBQ DBQ20110429192010504/29/11 19:20:31  5-MIN KDBQ 300120Z AUTO 13013G19KT 10SM CLR 13/03 A2986 1140 48 1200 130/13G19 RMK AO2
94908KDBQ DBQ20110429192510504/29/11 19:25:31  5-MIN KDBQ 300125Z AUTO 13012G20KT 10SM CLR 13/03 A2986 1140 48 1200 130/12G20 RMK AO2
94908KDBQ DBQ20110429193010504/29/11 19:30:31  5-MIN KDBQ 300130Z AUTO 13011G20KT 10SM CLR 13/03 A2986 1130 48 1200 130/11G20 RMK AO2
94908KDBQ DBQ20110429193510504/29/11 19:35:31  5-MIN KDBQ 300135Z AUTO 13014G19KT 10SM CLR 13/03 A2986 1130 48 1200 130/14G19 RMK AO2
94908KDBQ DBQ20110429194010504/29/11 19:40:31  5-MIN KDBQ 300140Z AUTO 13012G19KT 10SM CLR 13/03 A2987 1130 48 1200 130/12G19 RMK AO2
94908KDBQ DBQ20110429194510504/29/11 19:45:31  5-MIN KDBQ 300145Z AUTO 13013G19KT 10SM CLR 13/03 A2986 1130 48 1200 130/13G19 RMK AO2
94908KDBQ DBQ20110429195012204/29/11 19:50:31  5-MIN KDBQ 300150Z AUTO 13012G19KT 10SM CLR 13/03 A2987 1130 50 1200 130/12G19 RMK AO2 SLP117 T01280028
94908KDBQ DBQ20110429195510504/29/11 19:55:31  5-MIN KDBQ 300155Z AUTO 13011G19KT 10SM CLR 13/03 A2987 1120 50 1200 130/11G19 RMK AO2
94908KDBQ DBQ20110429200009904/29/11 20:00:31  5-MIN KDBQ 300200Z AUTO 13011KT 10SM CLR 13/03 A2987 1130 50 1200 120/11 RMK AO2
94908KDBQ DBQ20110429200509904/29/11 20:05:31  5-MIN KDBQ 300205Z AUTO 13011KT 10SM CLR 13/03 A2987 1130 50 1200 130/11 RMK AO2
94908KDBQ DBQ20110429201009904/29/11 20:10:31  5-MIN KDBQ 300210Z AUTO 13011KT 10SM CLR 13/03 A2987 1120 50 1200 130/11 RMK AO2
94908KDBQ DBQ20110429201510504/29/11 20:15:31  5-MIN KDBQ 300215Z AUTO 13013G18KT 10SM CLR 13/03 A2987 1120 50 1200 130/13G18 RMK AO2
94908KDBQ DBQ20110429202009904/29/11 20:20:31  5-MIN KDBQ 300220Z AUTO 13012KT 10SM CLR 13/03 A2987 1120 50 1200 130/12 RMK AO2
94908KDBQ DBQ20110429202510504/29/11 20:25:31  5-MIN KDBQ 300225Z AUTO 13013G20KT 10SM CLR 13/03 A2988 1120 50 1200 130/13G20 RMK AO2
94908KDBQ DBQ20110429203010504/29/11 20:30:31  5-MIN KDBQ 300230Z AUTO 13012G20KT 10SM CLR 13/03 A2988 1120 50 1200 130/12G20 RMK AO2
94908KDBQ DBQ20110429203510504/29/11 20:35:31  5-MIN KDBQ 300235Z AUTO 13012G18KT 10SM CLR 13/03 A2988 1120 50 1200 130/12G18 RMK AO2
94908KDBQ DBQ20110429204010504/29/11 20:40:31  5-MIN KDBQ 300240Z AUTO 14012G18KT 10SM CLR 13/03 A2988 1120 50 1200 130/12G18 RMK AO2
94908KDBQ DBQ20110429204509904/29/11 20:45:31  5-MIN KDBQ 300245Z AUTO 13012KT 10SM CLR 13/03 A2988 1120 52 1200 130/12 RMK AO2
94908KDBQ DBQ20110429205012204/29/11 20:50:31  5-MIN KDBQ 300250Z AUTO 14012KT 10SM CLR 13/03 A2988 1110 52 1200 130/12 RMK AO2 SLP121 T01280033 58016
94908KDBQ DBQ20110429205510504/29/11 20:55:31  5-MIN KDBQ 300255Z AUTO 14011G18KT 10SM CLR 13/03 A2988 1120 52 1200 140/11G18 RMK AO2
94908KDBQ DBQ20110429210009904/29/11 21:00:31  5-MIN KDBQ 300300Z AUTO 14011KT 10SM CLR 12/03 A2988 1120 54 1100 130/11 RMK AO2
94908KDBQ DBQ20110429210509904/29/11 21:05:31  5-MIN KDBQ 300305Z AUTO 13012KT 10SM CLR 12/03 A2988 1120 54 1100 130/12 RMK AO2
94908KDBQ DBQ20110429211009904/29/11 21:10:31  5-MIN KDBQ 300310Z AUTO 14011KT 10SM CLR 12/03 A2988 1110 54 1100 140/11 RMK AO2
94908KDBQ DBQ20110429211509904/29/11 21:15:31  5-MIN KDBQ 300315Z AUTO 13011KT 10SM CLR 12/03 A2989 1110 54 1100 130/11 RMK AO2
94908KDBQ DBQ20110429212009904/29/11 21:20:31  5-MIN KDBQ 300320Z AUTO 13007KT 10SM CLR 12/04 A2990 1100 56 1100 130/07 RMK AO2
94908KDBQ DBQ20110429212510604/29/11 21:25:31  5-MIN KDBQ 300325Z AUTO 13007KT 10SM CLR 13/04 A2991 1090 54 1100 130/07 RMK AO2 PRESRR
94908KDBQ DBQ20110429213010604/29/11 21:30:31  5-MIN KDBQ 300330Z AUTO 11005KT 10SM CLR 12/04 A2991 1080 56 1000 110/05 RMK AO2 PRESRR
94908KDBQ DBQ20110429213510604/29/11 21:35:31  5-MIN KDBQ 300335Z AUTO 08004KT 10SM CLR 12/04 A2992 1080 56 1000 080/04 RMK AO2 PRESRR
94908KDBQ DBQ20110429214010604/29/11 21:40:31  5-MIN KDBQ 300340Z AUTO 07004KT 10SM CLR 12/04 A2993 1070 56 1000 070/04 RMK AO2 PRESRR
94908KDBQ DBQ20110429214509904/29/11 21:45:31  5-MIN KDBQ 300345Z AUTO 09006KT 10SM CLR 12/04 A2993 1070 56 1000 090/06 RMK AO2
94908KDBQ DBQ20110429215011904/29/11 21:50:31  5-MIN KDBQ 300350Z AUTO 09005KT 10SM FEW120 12/04 A2992 1080 56 1000 090/05 RMK AO2 SLP135 T01220039
94908KDBQ DBQ20110429215510204/29/11 21:55:31  5-MIN KDBQ 300355Z AUTO 11007KT 10SM FEW120 12/04 A2992 1080 59 1000 110/07 RMK AO2
94908KDBQ DBQ20110429220010904/29/11 22:00:31  5-MIN KDBQ 300400Z AUTO 10009KT 10SM SCT110 12/04 A2991 1090 59 1100 100/09 RMK AO2 PRESFR
94908KDBQ DBQ20110429220510904/29/11 22:05:31  5-MIN KDBQ 300405Z AUTO 10010KT 10SM FEW110 12/04 A2990 1100 59 1100 100/10 RMK AO2 PRESFR
94908KDBQ DBQ20110429221010204/29/11 22:10:31  5-MIN KDBQ 300410Z AUTO 11008KT 10SM FEW110 12/04 A2990 1100 59 1100 110/08 RMK AO2
94908KDBQ DBQ20110429221510204/29/11 22:15:31  5-MIN KDBQ 300415Z AUTO 11010KT 10SM FEW110 12/04 A2989 1110 59 1100 110/10 RMK AO2
94908KDBQ DBQ20110429222010204/29/11 22:20:31  5-MIN KDBQ 300420Z AUTO 12010KT 10SM FEW110 12/04 A2989 1110 59 1100 120/10 RMK AO2
94908KDBQ DBQ20110429222509904/29/11 22:25:31  5-MIN KDBQ 300425Z AUTO 12010KT 10SM CLR 12/04 A2989 1110 59 1100 120/10 RMK AO2
94908KDBQ DBQ20110429223010204/29/11 22:30:31  5-MIN KDBQ 300430Z AUTO 13011KT 10SM FEW100 12/04 A2989 1110 59 1100 130/11 RMK AO2
94908KDBQ DBQ20110429223510204/29/11 22:35:31  5-MIN KDBQ 300435Z AUTO 13012KT 10SM FEW100 12/04 A2989 1110 59 1100 130/12 RMK AO2
94908KDBQ DBQ20110429224010204/29/11 22:40:31  5-MIN KDBQ 300440Z AUTO 13011KT 10SM FEW100 12/04 A2989 1100 59 1100 130/11 RMK AO2
94908KDBQ DBQ20110429224510204/29/11 22:45:31  5-MIN KDBQ 300445Z AUTO 13013KT 10SM FEW100 12/04 A2989 1110 59 1100 130/13 RMK AO2
94908KDBQ DBQ20110429225011904/29/11 22:50:31  5-MIN KDBQ 300450Z AUTO 13012KT 10SM FEW100 12/04 A2989 1110 59 1100 130/12 RMK AO2 SLP124 T01220044
94908KDBQ DBQ20110429225510204/29/11 22:55:31  5-MIN KDBQ 300455Z AUTO 13013KT 10SM FEW100 12/04 A2989 1110 59 1100 130/13 RMK AO2
94908KDBQ DBQ20110429230009904/29/11 23:00:31  5-MIN KDBQ 300500Z AUTO 13012KT 10SM CLR 12/05 A2989 1110 61 1100 130/12 RMK AO2
94908KDBQ DBQ20110429230510504/29/11 23:05:31  5-MIN KDBQ 300505Z AUTO 13015G21KT 10SM CLR 12/05 A2988 1110 61 1100 130/15G21 RMK AO2
94908KDBQ DBQ20110429231010504/29/11 23:10:31  5-MIN KDBQ 300510Z AUTO 13015G21KT 10SM CLR 12/05 A2988 1120 61 1100 130/15G21 RMK AO2
94908KDBQ DBQ20110429231510504/29/11 23:15:31  5-MIN KDBQ 300515Z AUTO 13015G23KT 10SM CLR 12/05 A2988 1120 61 1100 130/15G23 RMK AO2
94908KDBQ DBQ20110429232010804/29/11 23:20:31  5-MIN KDBQ 300520Z AUTO 14011G23KT 10SM FEW110 12/05 A2988 1120 61 1100 140/11G23 RMK AO2
94908KDBQ DBQ20110429232510804/29/11 23:25:31  5-MIN KDBQ 300525Z AUTO 13015G22KT 10SM FEW110 12/05 A2988 1120 63 1000 130/15G22 RMK AO2
94908KDBQ DBQ20110429233010504/29/11 23:30:31  5-MIN KDBQ 300530Z AUTO 14013G22KT 10SM CLR 12/05 A2988 1110 63 1000 140/13G22 RMK AO2
94908KDBQ DBQ20110429233510504/29/11 23:35:31  5-MIN KDBQ 300535Z AUTO 14013G21KT 10SM CLR 12/05 A2988 1110 63 1000 140/13G21 RMK AO2
94908KDBQ DBQ20110429234010504/29/11 23:40:31  5-MIN KDBQ 300540Z AUTO 14013G21KT 10SM CLR 12/05 A2988 1110 63 1000 140/13G21 RMK AO2
94908KDBQ DBQ20110429234510504/29/11 23:45:31  5-MIN KDBQ 300545Z AUTO 14015G20KT 10SM CLR 12/05 A2988 1110 63 1000 140/15G20 RMK AO2
94908KDBQ DBQ20110429235015004/29/11 23:50:31  5-MIN KDBQ 300550Z AUTO 13013G20KT 10SM CLR 12/05 A2988 1120 63 1000 130/13G20 RMK AO2 SLP120 T01170050 10144 20117 401611017 53003
94908KDBQ DBQ20110429235510504/29/11 23:55:31  5-MIN KDBQ 300555Z AUTO 13015G22KT 10SM CLR 12/05 A2988 1120 63 1000 130/15G22 RMK AO2
94908KDBQ DBQ20110430000010504/30/11 00:00:38  5-MIN KDBQ 300600Z AUTO 13013G22KT 10SM CLR 12/05 A2987 1120 63 1000 130/13G22 RMK AO2
94908KDBQ DBQ20110430000509904/30/11 00:05:31  5-MIN KDBQ 300605Z AUTO 13014KT 10SM CLR 12/06 A2987 1120 66 1000 130/14 RMK AO2
94908KDBQ DBQ20110430001009904/30/11 00:10:31  5-MIN KDBQ 300610Z AUTO 13014KT 10SM CLR 12/06 A2987 1130 66 1000 130/14 RMK AO2
94908KDBQ DBQ20110430001510504/30/11 00:15:31  5-MIN KDBQ 300615Z AUTO 13014G20KT 10SM CLR 12/06 A2986 1130 66 1000 130/14G20 RMK AO2
94908KDBQ DBQ20110430002010504/30/11 00:20:31  5-MIN KDBQ 300620Z AUTO 13015G21KT 10SM CLR 12/06 A2986 1130 66 1000 130/15G21 RMK AO2
94908KDBQ DBQ20110430002510504/30/11 00:25:31  5-MIN KDBQ 300625Z AUTO 13015G21KT 10SM CLR 12/06 A2986 1130 66 1000 130/15G21 RMK AO2
94908KDBQ DBQ20110430003010504/30/11 00:30:31  5-MIN KDBQ 300630Z AUTO 13016G21KT 10SM CLR 12/06 A2986 1140 66 1000 120/16G21 RMK AO2
94908KDBQ DBQ20110430003510504/30/11 00:35:31  5-MIN KDBQ 300635Z AUTO 13014G22KT 10SM CLR 12/06 A2985 1140 66 1100 130/14G22 RMK AO2
94908KDBQ DBQ20110430004010804/30/11 00:40:31  5-MIN KDBQ 300640Z AUTO 12017G23KT 10SM FEW120 12/06 A2985 1140 66 1100 120/17G23 RMK AO2
94908KDBQ DBQ20110430004510804/30/11 00:45:31  5-MIN KDBQ 300645Z AUTO 12015G23KT 10SM FEW120 12/06 A2985 1150 66 1100 120/15G23 RMK AO2
94908KDBQ DBQ20110430005012504/30/11 00:50:31  5-MIN KDBQ 300650Z AUTO 13016G23KT 10SM SCT120 12/06 A2984 1150 66 1100 130/16G23 RMK AO2 SLP107 T01170056
94908KDBQ DBQ20110430005510804/30/11 00:55:31  5-MIN KDBQ 300655Z AUTO 13015G23KT 10SM BKN120 12/06 A2984 1150 66 1100 130/15G23 RMK AO2
94908KDBQ DBQ20110430010010804/30/11 01:00:31  5-MIN KDBQ 300700Z AUTO 13016G23KT 10SM BKN120 12/06 A2984 1150 66 1100 130/16G23 RMK AO2
94908KDBQ DBQ20110430010510804/30/11 01:05:31  5-MIN KDBQ 300705Z AUTO 13016G23KT 10SM BKN120 12/06 A2984 1150 66 1100 130/16G23 RMK AO2
94908KDBQ DBQ20110430011010804/30/11 01:10:31  5-MIN KDBQ 300710Z AUTO 13014G21KT 10SM OVC120 12/06 A2984 1150 66 1100 130/14G21 RMK AO2
94908KDBQ DBQ20110430011510804/30/11 01:15:31  5-MIN KDBQ 300715Z AUTO 13014G21KT 10SM OVC120 12/06 A2983 1160 66 1100 130/14G21 RMK AO2
94908KDBQ DBQ20110430012010804/30/11 01:20:31  5-MIN KDBQ 300720Z AUTO 14015G21KT 10SM OVC120 12/06 A2983 1160 66 1100 130/15G21 RMK AO2
94908KDBQ DBQ20110430012510804/30/11 01:25:31  5-MIN KDBQ 300725Z AUTO 13017G23KT 10SM OVC120 12/06 A2983 1160 66 1100 130/17G23 RMK AO2
94908KDBQ DBQ20110430013010804/30/11 01:30:31  5-MIN KDBQ 300730Z AUTO 13015G23KT 10SM OVC120 12/06 A2983 1160 66 1100 130/15G23 RMK AO2
94908KDBQ DBQ20110430013510804/30/11 01:35:31  5-MIN KDBQ 300735Z AUTO 13016G23KT 10SM OVC120 12/06 A2983 1160 66 1100 130/16G23 RMK AO2
94908KDBQ DBQ20110430014010804/30/11 01:40:31  5-MIN KDBQ 300740Z AUTO 13017G23KT 10SM OVC120 12/06 A2983 1170 66 1100 130/17G23 RMK AO2
94908KDBQ DBQ20110430014510804/30/11 01:45:31  5-MIN KDBQ 300745Z AUTO 13016G22KT 10SM OVC120 12/06 A2983 1160 66 1100 130/16G22 RMK AO2
94908KDBQ DBQ20110430015012504/30/11 01:50:31  5-MIN KDBQ 300750Z AUTO 14014G22KT 10SM OVC120 12/06 A2983 1170 66 1100 130/14G22 RMK AO2 SLP101 T01170056
94908KDBQ DBQ20110430015510804/30/11 01:55:31  5-MIN KDBQ 300755Z AUTO 14013G20KT 10SM OVC120 12/06 A2983 1170 66 1100 130/13G20 RMK AO2
94908KDBQ DBQ20110430020010804/30/11 02:00:31  5-MIN KDBQ 300800Z AUTO 13016G22KT 10SM OVC120 12/06 A2982 1170 66 1100 130/16G22 RMK AO2
94908KDBQ DBQ20110430020510804/30/11 02:05:31  5-MIN KDBQ 300805Z AUTO 13016G23KT 10SM OVC120 12/06 A2982 1170 66 1100 130/16G23 RMK AO2
94908KDBQ DBQ20110430021010804/30/11 02:10:31  5-MIN KDBQ 300810Z AUTO 13014G23KT 10SM OVC120 12/06 A2982 1170 66 1100 130/14G23 RMK AO2
94908KDBQ DBQ20110430021510804/30/11 02:15:31  5-MIN KDBQ 300815Z AUTO 13017G24KT 10SM OVC120 12/06 A2982 1170 66 1100 130/17G24 RMK AO2
94908KDBQ DBQ20110430022010804/30/11 02:20:31  5-MIN KDBQ 300820Z AUTO 13014G24KT 10SM OVC120 12/06 A2982 1170 66 1100 130/14G24 RMK AO2
94908KDBQ DBQ20110430022510804/30/11 02:25:31  5-MIN KDBQ 300825Z AUTO 13013G21KT 10SM OVC120 12/06 A2981 1180 66 1100 130/13G21 RMK AO2
94908KDBQ DBQ20110430023010804/30/11 02:30:31  5-MIN KDBQ 300830Z AUTO 13016G21KT 10SM OVC120 12/05 A2981 1180 63 1100 130/16G21 RMK AO2
94908KDBQ DBQ20110430023512604/30/11 02:35:31  5-MIN KDBQ 300835Z AUTO 13017G26KT 10SM OVC120 12/05 A2981 1180 63 1100 130/17G26 RMK AO2 PK WND 12026/0832
94908KDBQ DBQ20110430024012604/30/11 02:40:31  5-MIN KDBQ 300840Z AUTO 14016G26KT 10SM OVC120 12/05 A2981 1180 63 1100 140/16G26 RMK AO2 PK WND 12026/0832
94908KDBQ DBQ20110430024512604/30/11 02:45:31  5-MIN KDBQ 300845Z AUTO 15015G24KT 10SM OVC120 12/05 A2981 1180 63 1100 150/15G24 RMK AO2 PK WND 12026/0832
94908KDBQ DBQ20110430025014904/30/11 02:50:31  5-MIN KDBQ 300850Z AUTO 14015G23KT 10SM OVC110 12/05 A2981 1180 63 1100 140/15G23 RMK AO2 PK WND 12026/0832 SLP095 T01170050 58000
94908KDBQ DBQ20110430025510804/30/11 02:55:31  5-MIN KDBQ 300855Z AUTO 14015G23KT 10SM OVC110 12/05 A2981 1180 63 1100 140/15G23 RMK AO2
94908KDBQ DBQ20110430030010804/30/11 03:00:31  5-MIN KDBQ 300900Z AUTO 14017G23KT 10SM OVC110 12/05 A2981 1180 63 1100 140/17G23 RMK AO2
94908KDBQ DBQ20110430030510804/30/11 03:05:31  5-MIN KDBQ 300905Z AUTO 14015G24KT 10SM OVC110 12/05 A2980 1190 63 1100 140/15G24 RMK AO2
94908KDBQ DBQ20110430031010804/30/11 03:10:31  5-MIN KDBQ 300910Z AUTO 14014G24KT 10SM OVC110 12/05 A2980 1190 63 1100 140/14G24 RMK AO2
94908KDBQ DBQ20110430031510804/30/11 03:15:31  5-MIN KDBQ 300915Z AUTO 14014G25KT 10SM OVC110 12/05 A2980 1190 63 1100 140/14G25 RMK AO2
94908KDBQ DBQ20110430032010804/30/11 03:20:31  5-MIN KDBQ 300920Z AUTO 14013G25KT 10SM OVC110 12/05 A2980 1190 63 1100 140/13G25 RMK AO2
94908KDBQ DBQ20110430032510804/30/11 03:25:31  5-MIN KDBQ 300925Z AUTO 14012G20KT 10SM OVC110 12/05 A2980 1190 63 1100 140/12G20 RMK AO2
94908KDBQ DBQ20110430033010204/30/11 03:30:31  5-MIN KDBQ 300930Z AUTO 14013KT 10SM OVC110 12/05 A2980 1190 63 1100 140/13 RMK AO2
94908KDBQ DBQ20110430033510204/30/11 03:35:31  5-MIN KDBQ 300935Z AUTO 14014KT 10SM OVC110 12/05 A2981 1190 63 1100 140/14 RMK AO2
94908KDBQ DBQ20110430034010804/30/11 03:40:31  5-MIN KDBQ 300940Z AUTO 14013G20KT 10SM OVC110 12/05 A2980 1190 63 1100 140/13G20 RMK AO2
94908KDBQ DBQ20110430034510804/30/11 03:45:31  5-MIN KDBQ 300945Z AUTO 14013G20KT 10SM OVC110 12/05 A2980 1190 63 1100 140/13G20 RMK AO2
94908KDBQ DBQ20110430035012504/30/11 03:50:31  5-MIN KDBQ 300950Z AUTO 14016G21KT 10SM OVC110 12/05 A2979 1200 63 1100 140/16G21 RMK AO2 SLP089 T01170050
94908KDBQ DBQ20110430035510804/30/11 03:55:31  5-MIN KDBQ 300955Z AUTO 14016G22KT 10SM OVC110 12/05 A2979 1200 63 1100 140/16G22 RMK AO2
94908KDBQ DBQ20110430040010804/30/11 04:00:31  5-MIN KDBQ 301000Z AUTO 14016G22KT 10SM OVC110 12/05 A2979 1200 63 1100 140/16G22 RMK AO2
94908KDBQ DBQ20110430040510804/30/11 04:05:31  5-MIN KDBQ 301005Z AUTO 14015G21KT 10SM OVC110 12/05 A2979 1200 63 1100 140/15G21 RMK AO2
94908KDBQ DBQ20110430041010804/30/11 04:10:31  5-MIN KDBQ 301010Z AUTO 14017G25KT 10SM OVC110 12/05 A2979 1200 63 1100 140/17G25 RMK AO2
94908KDBQ DBQ20110430041512604/30/11 04:15:31  5-MIN KDBQ 301015Z AUTO 14016G26KT 10SM OVC110 12/04 A2978 1210 61 1100 140/16G26 RMK AO2 PK WND 13026/1011
94908KDBQ DBQ20110430042012604/30/11 04:20:31  5-MIN KDBQ 301020Z AUTO 14017G26KT 10SM OVC100 12/04 A2978 1210 61 1100 140/17G26 RMK AO2 PK WND 13026/1011
94908KDBQ DBQ20110430042512604/30/11 04:25:31  5-MIN KDBQ 301025Z AUTO 14016G25KT 10SM OVC100 12/04 A2977 1220 61 1100 140/16G25 RMK AO2 PK WND 13026/1011
94908KDBQ DBQ20110430043012604/30/11 04:30:31  5-MIN KDBQ 301030Z AUTO 14016G25KT 10SM OVC100 12/04 A2977 1220 61 1100 140/16G25 RMK AO2 PK WND 13026/1011
94908KDBQ DBQ20110430043512604/30/11 04:35:31  5-MIN KDBQ 301035Z AUTO 14019G26KT 10SM OVC100 12/04 A2977 1220 61 1200 140/19G26 RMK AO2 PK WND 15026/1035
94908KDBQ DBQ20110430044012604/30/11 04:40:31  5-MIN KDBQ 301040Z AUTO 14017G26KT 10SM OVC100 12/04 A2977 1220 61 1200 140/17G26 RMK AO2 PK WND 15026/1035
94908KDBQ DBQ20110430044512604/30/11 04:45:31  5-MIN KDBQ 301045Z AUTO 14018G25KT 10SM OVC100 12/04 A2976 1220 61 1200 140/18G25 RMK AO2 PK WND 15026/1035
94908KDBQ DBQ20110430045014304/30/11 04:50:31  5-MIN KDBQ 301050Z AUTO 14016G25KT 10SM OVC100 12/04 A2976 1230 61 1200 140/16G25 RMK AO2 PK WND 15026/1035 SLP078 T01170044
94908KDBQ DBQ20110430045512104/30/11 04:55:31  5-MIN KDBQ 301055Z 14019G26KT 10SM OVC100 12/04 A2976 1230 61 1200 140/19G26 RMK AO2 PK WND 14026/1055
94908KDBQ DBQ20110430050012104/30/11 05:00:31  5-MIN KDBQ 301100Z 14017G26KT 10SM OVC100 12/04 A2975 1230 61 1200 140/17G26 RMK AO2 PK WND 14026/1056
94908KDBQ DBQ20110430050512104/30/11 05:05:31  5-MIN KDBQ 301105Z 14018G31KT 10SM BKN100 12/04 A2975 1240 61 1200 140/18G31 RMK AO2 PK WND 14031/1102
94908KDBQ DBQ20110430051012104/30/11 05:10:31  5-MIN KDBQ 301110Z 14023G32KT 10SM BKN100 12/04 A2974 1240 61 1200 140/23G32 RMK AO2 PK WND 14032/1109
94908KDBQ DBQ20110430051512804/30/11 05:15:31  5-MIN KDBQ 301115Z 14020G32KT 10SM BKN100 12/04 A2973 1250 61 1200 140/20G32 RMK AO2 PK WND 14032/1109 PRESFR
94908KDBQ DBQ20110430052012104/30/11 05:20:31  5-MIN KDBQ 301120Z 14018G29KT 10SM SCT100 12/04 A2973 1250 61 1200 140/18G29 RMK AO2 PK WND 14032/1109
94908KDBQ DBQ20110430052512104/30/11 05:25:31  5-MIN KDBQ 301125Z 14018G29KT 10SM SCT100 12/04 A2973 1250 61 1200 140/18G29 RMK AO2 PK WND 14032/1109
94908KDBQ DBQ20110430053012104/30/11 05:30:31  5-MIN KDBQ 301130Z 14018G29KT 10SM FEW100 12/04 A2974 1250 61 1200 140/18G29 RMK AO2 PK WND 14032/1109
94908KDBQ DBQ20110430053512104/30/11 05:35:31  5-MIN KDBQ 301135Z 14015G29KT 10SM FEW100 12/04 A2974 1250 61 1200 140/15G29 RMK AO2 PK WND 14032/1109
94908KDBQ DBQ20110430054011804/30/11 05:40:31  5-MIN KDBQ 301140Z 14018G27KT 10SM CLR 11/04 A2974 1250 63 1100 140/18G27 RMK AO2 PK WND 14032/1109
94908KDBQ DBQ20110430054511804/30/11 05:45:31  5-MIN KDBQ 301145Z 14016G26KT 10SM CLR 11/04 A2973 1250 63 1100 140/16G26 RMK AO2 PK WND 14032/1109
94908KDBQ DBQ20110430055015304/30/11 05:50:31  5-MIN KDBQ 301150Z 14017G27KT 10SM CLR 11/04 A2973 1250 63 1100 140/17G27 RMK AO2 PK WND 14032/1109 SLP070 T01110044 10117 20111 56024
94908KDBQ DBQ20110430055510004/30/11 05:55:31  5-MIN KDBQ 301155Z 14018G27KT 10SM CLR 11/04 A2973 1250 63 1100 140/18G27 RMK AO2
94908KDBQ DBQ20110430060011804/30/11 06:00:31  5-MIN KDBQ 301200Z 14018G29KT 10SM CLR 11/04 A2973 1260 63 1100 140/18G29 RMK AO2 PK WND 14029/1200
94908KDBQ DBQ20110430060511804/30/11 06:05:31  5-MIN KDBQ 301205Z 14018G29KT 10SM CLR 12/04 A2972 1260 61 1200 140/18G29 RMK AO2 PK WND 14029/1200
94908KDBQ DBQ20110430061011804/30/11 06:10:31  5-MIN KDBQ 301210Z 14019G31KT 10SM CLR 12/04 A2972 1260 61 1200 140/19G31 RMK AO2 PK WND 14031/1207
94908KDBQ DBQ20110430061511804/30/11 06:15:31  5-MIN KDBQ 301215Z 14022G33KT 10SM CLR 12/04 A2972 1260 61 1200 140/22G33 RMK AO2 PK WND 15033/1212
94908KDBQ DBQ20110430062011804/30/11 06:20:31  5-MIN KDBQ 301220Z 14019G33KT 10SM CLR 12/05 A2972 1260 63 1200 140/19G33 RMK AO2 PK WND 15033/1212
94908KDBQ DBQ20110430062511804/30/11 06:25:31  5-MIN KDBQ 301225Z 14018G28KT 10SM CLR 12/05 A2971 1270 63 1200 140/18G28 RMK AO2 PK WND 15033/1212
94908KDBQ DBQ20110430063011804/30/11 06:30:31  5-MIN KDBQ 301230Z 14019G28KT 10SM CLR 12/05 A2971 1270 63 1200 140/19G28 RMK AO2 PK WND 15033/1212
94908KDBQ DBQ20110430063511804/30/11 06:35:31  5-MIN KDBQ 301235Z 14018G32KT 10SM CLR 12/05 A2971 1270 63 1200 140/18G32 RMK AO2 PK WND 15033/1212
94908KDBQ DBQ20110430064011804/30/11 06:40:31  5-MIN KDBQ 301240Z 15021G32KT 10SM CLR 12/05 A2971 1270 61 1300 140/21G32 RMK AO2 PK WND 15033/1212
94908KDBQ DBQ20110430064512104/30/11 06:45:31  5-MIN KDBQ 301245Z 15021G29KT 10SM FEW110 12/05 A2972 1260 61 1300 150/21G29 RMK AO2 PK WND 15033/1212
94908KDBQ DBQ20110430065013804/30/11 06:50:31  5-MIN KDBQ 301250Z 15017G31KT 10SM SCT110 12/05 A2972 1270 61 1300 150/17G31 RMK AO2 PK WND 15033/1212 SLP065 T01220050
94908KDBQ DBQ20110430065512104/30/11 06:55:31  5-MIN KDBQ 301255Z 15022G31KT 10SM SCT110 12/06 A2972 1260 63 1300 150/22G31 RMK AO2 PK WND 14031/1254
94908KDBQ DBQ20110430070012104/30/11 07:00:31  5-MIN KDBQ 301300Z 15020G31KT 10SM BKN110 12/06 A2972 1260 63 1300 150/20G31 RMK AO2 PK WND 14031/1254
94908KDBQ DBQ20110430070512104/30/11 07:05:31  5-MIN KDBQ 301305Z 15023G29KT 10SM BKN110 12/06 A2972 1260 63 1300 150/23G29 RMK AO2 PK WND 14031/1254
94908KDBQ DBQ20110430071012104/30/11 07:10:31  5-MIN KDBQ 301310Z 15020G29KT 10SM BKN110 12/06 A2972 1260 63 1300 150/20G29 RMK AO2 PK WND 14031/1254
94908KDBQ DBQ20110430071512104/30/11 07:15:31  5-MIN KDBQ 301315Z 15020G30KT 10SM OVC110 12/06 A2972 1260 63 1300 150/20G30 RMK AO2 PK WND 14031/1254
94908KDBQ DBQ20110430072012104/30/11 07:20:31  5-MIN KDBQ 301320Z 15024G33KT 10SM OVC110 13/06 A2972 1260 61 1300 150/24G33 RMK AO2 PK WND 15033/1318
94908KDBQ DBQ20110430072512104/30/11 07:25:31  5-MIN KDBQ 301325Z 15021G33KT 10SM OVC110 12/06 A2972 1260 63 1300 150/21G33 RMK AO2 PK WND 15033/1318
94908KDBQ DBQ20110430073012104/30/11 07:30:31  5-MIN KDBQ 301330Z 15021G31KT 10SM OVC110 12/06 A2972 1260 63 1300 150/21G31 RMK AO2 PK WND 15033/1318
94908KDBQ DBQ20110430073512104/30/11 07:35:31  5-MIN KDBQ 301335Z 15021G31KT 10SM BKN110 13/06 A2972 1270 61 1300 150/21G31 RMK AO2 PK WND 15033/1318
94908KDBQ DBQ20110430074012104/30/11 07:40:31  5-MIN KDBQ 301340Z 15022G31KT 10SM BKN110 13/06 A2971 1270 61 1300 150/22G31 RMK AO2 PK WND 15033/1318
94908KDBQ DBQ20110430074512104/30/11 07:45:31  5-MIN KDBQ 301345Z 15021G29KT 10SM BKN110 13/06 A2971 1280 61 1400 150/21G29 RMK AO2 PK WND 15033/1318
94908KDBQ DBQ20110430075013804/30/11 07:50:31  5-MIN KDBQ 301350Z 15020G32KT 10SM SCT110 13/06 A2970 1280 61 1400 150/20G32 RMK AO2 PK WND 15033/1318 SLP059 T01280056
94908KDBQ DBQ20110430075512104/30/11 07:55:31  5-MIN KDBQ 301355Z 15021G32KT 10SM SCT110 13/06 A2970 1280 61 1400 150/21G32 RMK AO2 PK WND 15028/1354
94908KDBQ DBQ20110430080012104/30/11 08:00:31  5-MIN KDBQ 301400Z 15021G32KT 10SM SCT100 13/06 A2970 1280 63 1400 150/21G32 RMK AO2 PK WND 15028/1357
94908KDBQ DBQ20110430080512104/30/11 08:05:31  5-MIN KDBQ 301405Z 15022G29KT 10SM SCT095 13/06 A2970 1280 63 1400 150/22G29 RMK AO2 PK WND 16029/1405
94908KDBQ DBQ20110430081012104/30/11 08:10:31  5-MIN KDBQ 301410Z 15022G31KT 10SM BKN090 13/06 A2970 1280 63 1400 150/22G31 RMK AO2 PK WND 15031/1410
94908KDBQ DBQ20110430081512104/30/11 08:15:31  5-MIN KDBQ 301415Z 15023G31KT 10SM BKN090 13/06 A2969 1290 63 1400 150/23G31 RMK AO2 PK WND 15031/1410
94908KDBQ DBQ20110430082012104/30/11 08:20:31  5-MIN KDBQ 301420Z 15018G28KT 10SM BKN090 13/06 A2969 1300 63 1400 150/18G28 RMK AO2 PK WND 15031/1410
94908KDBQ DBQ20110430082512104/30/11 08:25:31  5-MIN KDBQ 301425Z 15024G32KT 10SM OVC090 13/06 A2968 1300 61 1400 150/24G32 RMK AO2 PK WND 15032/1425
94908KDBQ DBQ20110430083012104/30/11 08:30:31  5-MIN KDBQ 301430Z 15021G32KT 10SM BKN090 13/06 A2968 1300 61 1400 150/21G32 RMK AO2 PK WND 15032/1425
94908KDBQ DBQ20110430083512104/30/11 08:35:31  5-MIN KDBQ 301435Z 15021G28KT 10SM BKN090 13/06 A2968 1300 61 1500 150/21G28 RMK AO2 PK WND 15032/1425
94908KDBQ DBQ20110430084012104/30/11 08:40:31  5-MIN KDBQ 301440Z 15024G30KT 10SM OVC090 13/06 A2967 1310 61 1500 150/24G30 RMK AO2 PK WND 15032/1425
94908KDBQ DBQ20110430084512104/30/11 08:45:31  5-MIN KDBQ 301445Z 15022G30KT 10SM OVC090 13/06 A2967 1310 61 1500 150/22G30 RMK AO2 PK WND 15032/1425
94908KDBQ DBQ20110430085014404/30/11 08:50:31  5-MIN KDBQ 301450Z 15020G28KT 10SM OVC090 14/07 A2967 1310 61 1500 150/20G28 RMK AO2 PK WND 15032/1425 SLP047 T01390067 58025
94908KDBQ DBQ20110430085510304/30/11 08:55:31  5-MIN KDBQ 301455Z 15018G27KT 10SM OVC085 14/07 A2967 1310 61 1500 150/18G27 RMK AO2
94908KDBQ DBQ20110430090012804/30/11 09:00:31  5-MIN KDBQ 301500Z 15022G28KT 10SM FEW070 OVC085 14/07 A2967 1310 61 1500 150/22G28 RMK AO2 PK WND 16028/1500
94908KDBQ DBQ20110430090512104/30/11 09:05:31  5-MIN KDBQ 301505Z 15021G28KT 10SM OVC085 14/07 A2967 1310 61 1500 150/21G28 RMK AO2 PK WND 15028/1504
94908KDBQ DBQ20110430091012804/30/11 09:10:31  5-MIN KDBQ 301510Z 16019G28KT 10SM BKN080 OVC090 14/07 A2968 1300 61 1500 150/19G28 RMK AO2 PK WND 15028/1504
94908KDBQ DBQ20110430091512804/30/11 09:15:31  5-MIN KDBQ 301515Z 15020G25KT 10SM BKN080 OVC090 14/07 A2967 1310 61 1500 150/20G25 RMK AO2 PK WND 15028/1504
94908KDBQ DBQ20110430092012804/30/11 09:20:31  5-MIN KDBQ 301520Z 16019G26KT 10SM BKN080 OVC090 14/07 A2968 1310 61 1500 160/19G26 RMK AO2 PK WND 15028/1504
94908KDBQ DBQ20110430092512804/30/11 09:25:31  5-MIN KDBQ 301525Z 16016G26KT 10SM BKN075 OVC090 14/07 A2967 1310 61 1500 160/16G26 RMK AO2 PK WND 15028/1504
94908KDBQ DBQ20110430093012804/30/11 09:30:31  5-MIN KDBQ 301530Z 16020G25KT 10SM BKN075 OVC090 14/07 A2967 1310 64 1500 160/20G25 RMK AO2 PK WND 15028/1504
94908KDBQ DBQ20110430093512804/30/11 09:35:31  5-MIN KDBQ 301535Z 16020G25KT 10SM BKN075 OVC090 14/07 A2967 1310 61 1500 160/20G25 RMK AO2 PK WND 15028/1504
94908KDBQ DBQ20110430094012804/30/11 09:40:31  5-MIN KDBQ 301540Z 16017G25KT 10SM BKN075 OVC090 14/07 A2967 1310 64 1500 160/17G25 RMK AO2 PK WND 15028/1504
94908KDBQ DBQ20110430094512804/30/11 09:45:31  5-MIN KDBQ 301545Z 16017G26KT 10SM BKN075 OVC090 14/07 A2968 1310 61 1600 160/17G26 RMK AO2 PK WND 15028/1504
94908KDBQ DBQ20110430095013804/30/11 09:50:31  5-MIN KDBQ 301550Z 16016G26KT 10SM OVC075 14/07 A2968 1310 61 1600 160/16G26 RMK AO2 PK WND 15028/1504 SLP049 T01440072
94908KDBQ DBQ20110430095512804/30/11 09:55:31  5-MIN KDBQ 301555Z 16020G26KT 10SM BKN075 OVC090 14/07 A2967 1310 61 1600 160/20G26 RMK AO2 PK WND 16026/1554
94908KDBQ DBQ20110430100012804/30/11 10:00:31  5-MIN KDBQ 301600Z 16019G26KT 10SM BKN075 OVC090 14/07 A2968 1310 61 1600 160/19G26 RMK AO2 PK WND 16026/1554
94908KDBQ DBQ20110430100512804/30/11 10:05:31  5-MIN KDBQ 301605Z 15020G27KT 10SM BKN070 OVC085 14/07 A2968 1310 61 1600 150/20G27 RMK AO2 PK WND 15027/1604
94908KDBQ DBQ20110430101012804/30/11 10:10:31  5-MIN KDBQ 301610Z 16020G27KT 10SM BKN070 OVC085 14/07 A2967 1310 61 1600 160/20G27 RMK AO2 PK WND 15027/1604
94908KDBQ DBQ20110430101512804/30/11 10:15:31  5-MIN KDBQ 301615Z 16016G26KT 10SM BKN075 OVC090 14/07 A2967 1310 61 1600 150/16G26 RMK AO2 PK WND 15027/1604
94908KDBQ DBQ20110430102012104/30/11 10:20:31  5-MIN KDBQ 301620Z 15019G26KT 10SM OVC075 14/08 A2967 1310 64 1600 150/19G26 RMK AO2 PK WND 15027/1604
94908KDBQ DBQ20110430102512804/30/11 10:25:31  5-MIN KDBQ 301625Z 15018G24KT 10SM BKN070 OVC080 14/08 A2967 1310 64 1600 150/18G24 RMK AO2 PK WND 15027/1604
94908KDBQ DBQ20110430103012804/30/11 10:30:31  5-MIN KDBQ 301630Z 16014G23KT 10SM BKN070 OVC080 15/08 A2967 1310 62 1700 150/14G23 RMK AO2 PK WND 15027/1604
94908KDBQ DBQ20110430103512104/30/11 10:35:31  5-MIN KDBQ 301635Z 15015G23KT 10SM BKN075 15/08 A2967 1310 62 1700 150/15G23 RMK AO2 PK WND 15027/1604
94908KDBQ DBQ20110430104012804/30/11 10:40:31  5-MIN KDBQ 301640Z 16018G23KT 10SM BKN075 BKN095 16/08 A2967 1310 62 1700 160/18G23 RMK AO2 PK WND 15027/1604
94908KDBQ DBQ20110430104512804/30/11 10:45:31  5-MIN KDBQ 301645Z 16017G24KT 10SM SCT070 BKN085 16/08 A2967 1310 62 1700 150/17G24 RMK AO2 PK WND 15027/1604
94908KDBQ DBQ20110430105014504/30/11 10:50:31  5-MIN KDBQ 301650Z 15018G25KT 10SM SCT070 BKN085 16/08 A2967 1310 59 1800 150/18G25 RMK AO2 PK WND 15027/1604 SLP045 T01610083
94908KDBQ DBQ20110430121512804/30/11 12:15:31  5-MIN KDBQ 301815Z 18022G32KT 10SM FEW044 BKN060 19/09 A2964 1340 50 2200 180/22G32 RMK AO2 PK WND 18032/1807
94908KDBQ DBQ20110430122012104/30/11 12:20:31  5-MIN KDBQ 301820Z 17022G29KT 10SM BKN060 19/09 A2964 1340 50 2200 170/22G29 RMK AO2 PK WND 18032/1807
94908KDBQ DBQ20110430122512104/30/11 12:25:31  5-MIN KDBQ 301825Z 19020G29KT 10SM BKN060 19/09 A2964 1340 50 2200 190/20G29 RMK AO2 PK WND 18032/1807
94908KDBQ DBQ20110430123012104/30/11 12:30:31  5-MIN KDBQ 301830Z 19020G28KT 10SM BKN060 19/09 A2964 1340 50 2200 190/20G28 RMK AO2 PK WND 18032/1807
94908KDBQ DBQ20110430123512804/30/11 12:35:31  5-MIN KDBQ 301835Z 17021G27KT 10SM BKN060 BKN075 19/09 A2963 1350 50 2200 170/21G27 RMK AO2 PK WND 18032/1807
94908KDBQ DBQ20110430124012804/30/11 12:40:31  5-MIN KDBQ 301840Z 17019G27KT 10SM BKN065 BKN075 19/09 A2963 1350 50 2200 170/19G27 RMK AO2 PK WND 18032/1807
94908KDBQ DBQ20110430124512104/30/11 12:45:31  5-MIN KDBQ 301845Z 18020G26KT 10SM BKN070 19/09 A2963 1350 50 2200 180/20G26 RMK AO2 PK WND 18032/1807
94908KDBQ DBQ20110430125014504/30/11 12:50:31  5-MIN KDBQ 301850Z 18019G26KT 10SM FEW047 OVC070 19/09 A2963 1350 50 2200 180/19G26 RMK AO2 PK WND 18032/1807 SLP031 T01940089
94908KDBQ DBQ20110430125511004/30/11 12:55:31  5-MIN KDBQ 301855Z 18016G25KT 10SM SCT049 OVC070 19/09 A2963 1350 52 2200 180/16G25 RMK AO2
94908KDBQ DBQ20110430130012804/30/11 13:00:31  5-MIN KDBQ 301900Z 18022G27KT 10SM BKN049 OVC070 19/09 A2963 1350 52 2200 180/22G27 RMK AO2 PK WND 18027/1858
94908KDBQ DBQ20110430130513504/30/11 13:05:31  5-MIN KDBQ 301905Z 18018G27KT 10SM BKN047 BKN055 OVC070 19/09 A2963 1350 50 2200 180/18G27 RMK AO2 PK WND 19027/1903
94908KDBQ DBQ20110430131013504/30/11 13:10:31  5-MIN KDBQ 301910Z 20022G28KT 10SM BKN049 BKN060 OVC070 19/09 A2962 1350 52 2200 200/22G28 RMK AO2 PK WND 20028/1907
94908KDBQ DBQ20110430131512804/30/11 13:15:31  5-MIN KDBQ 301915Z 19020G28KT 10SM BKN049 OVC060 19/09 A2963 1350 52 2200 190/20G28 RMK AO2 PK WND 20028/1907
94908KDBQ DBQ20110430132012804/30/11 13:20:31  5-MIN KDBQ 301920Z 19019G27KT 10SM BKN049 OVC060 19/09 A2963 1350 52 2200 190/19G27 RMK AO2 PK WND 20028/1907
94908KDBQ DBQ20110430132511504/30/11 13:25:31  5-MIN KDBQ 301925Z 19020KT 10SM OVC055 19/09 A2963 1350 52 2200 190/20 RMK AO2 PK WND 20028/1907
94908KDBQ DBQ20110430133012104/30/11 13:30:31  5-MIN KDBQ 301930Z 20019G24KT 10SM OVC055 19/09 A2963 1350 52 2200 190/19G24 RMK AO2 PK WND 20028/1907
94908KDBQ DBQ20110430133511504/30/11 13:35:31  5-MIN KDBQ 301935Z 19016KT 10SM OVC055 19/09 A2963 1350 52 2200 190/16 RMK AO2 PK WND 20028/1907
94908KDBQ DBQ20110430134011504/30/11 13:40:31  5-MIN KDBQ 301940Z 20019KT 10SM OVC055 19/09 A2963 1350 52 2200 200/19 RMK AO2 PK WND 20028/1907
94908KDBQ DBQ20110430134512104/30/11 13:45:31  5-MIN KDBQ 301945Z 19019G25KT 10SM OVC050 19/09 A2963 1350 52 2200 190/19G25 RMK AO2 PK WND 20028/1907
94908KDBQ DBQ20110430135013804/30/11 13:50:31  5-MIN KDBQ 301950Z 19018G25KT 10SM OVC050 19/09 A2963 1350 54 2200 190/18G25 RMK AO2 PK WND 20028/1907 SLP030 T01890094
94908KDBQ DBQ20110430135509704/30/11 13:55:31  5-MIN KDBQ 301955Z 19020KT 10SM OVC050 19/09 A2963 1350 54 2200 190/20 RMK AO2
94908KDBQ DBQ20110430140010304/30/11 14:00:31  5-MIN KDBQ 302000Z 18017G22KT 10SM OVC050 19/09 A2963 1350 54 2200 180/17G22 RMK AO2
94908KDBQ DBQ20110430140510304/30/11 14:05:31  5-MIN KDBQ 302005Z 19013G22KT 10SM OVC055 19/09 A2963 1350 54 2200 190/13G22 RMK AO2
94908KDBQ DBQ20110430141010304/30/11 14:10:31  5-MIN KDBQ 302010Z 20018G22KT 10SM OVC050 19/09 A2963 1350 54 2200 200/18G22 RMK AO2
94908KDBQ DBQ20110430141510304/30/11 14:15:31  5-MIN KDBQ 302015Z 20015G22KT 10SM OVC055 19/09 A2963 1350 54 2200 200/15G22 RMK AO2
94908KDBQ DBQ20110430142009704/30/11 14:20:31  5-MIN KDBQ 302020Z 20012KT 10SM OVC050 19/10 A2963 1350 56 2200 190/12 RMK AO2
94908KDBQ DBQ20110430142510304/30/11 14:25:31  5-MIN KDBQ 302025Z 20015G20KT 10SM OVC050 19/10 A2962 1350 56 2200 190/15G20 RMK AO2
94908KDBQ DBQ20110430143009704/30/11 14:30:31  5-MIN KDBQ 302030Z 19019KT 10SM OVC055 19/10 A2962 1350 56 2200 190/19 RMK AO2
94908KDBQ DBQ20110430143509704/30/11 14:35:31  5-MIN KDBQ 302035Z 19018KT 10SM OVC055 19/09 A2962 1360 54 2200 190/18 RMK AO2
94908KDBQ DBQ20110430144010304/30/11 14:40:31  5-MIN KDBQ 302040Z 19015G22KT 10SM OVC055 19/09 A2962 1360 54 2200 190/15G22 RMK AO2
94908KDBQ DBQ20110430144510304/30/11 14:45:31  5-MIN KDBQ 302045Z 20017G22KT 10SM OVC055 19/10 A2962 1360 56 2200 190/17G22 RMK AO2
94908KDBQ DBQ20110430145012004/30/11 14:50:31  5-MIN KDBQ 302050Z 20014KT 10SM OVC055 19/10 A2962 1360 56 2200 200/14 RMK AO2 SLP028 T01890100 58009
94908KDBQ DBQ20110430145510404/30/11 14:55:31  5-MIN KDBQ 302055Z 20012KT 10SM FEW047 OVC055 18/10 A2962 1360 58 2100 200/12 RMK AO2
94908KDBQ DBQ20110430150010404/30/11 15:00:31  5-MIN KDBQ 302100Z 19015KT 10SM FEW047 OVC055 19/10 A2962 1360 56 2200 190/15 RMK AO2
94908KDBQ DBQ20110430150510404/30/11 15:05:31  5-MIN KDBQ 302105Z 19014KT 10SM FEW047 OVC055 19/10 A2962 1360 56 2200 190/14 RMK AO2
94908KDBQ DBQ20110430151009704/30/11 15:10:31  5-MIN KDBQ 302110Z 19015KT 10SM OVC055 19/10 A2962 1360 56 2200 190/15 RMK AO2
94908KDBQ DBQ20110430151510404/30/11 15:15:31  5-MIN KDBQ 302115Z 18012KT 10SM BKN049 OVC055 19/10 A2962 1360 56 2200 180/12 RMK AO2
94908KDBQ DBQ20110430152010404/30/11 15:20:31  5-MIN KDBQ 302120Z 18015KT 10SM BKN049 OVC060 18/10 A2962 1360 58 2100 180/15 RMK AO2
94908KDBQ DBQ20110430152510404/30/11 15:25:31  5-MIN KDBQ 302125Z 18012KT 10SM BKN047 OVC060 18/10 A2962 1360 58 2100 180/12 RMK AO2
94908KDBQ DBQ20110430153009704/30/11 15:30:31  5-MIN KDBQ 302130Z 18011KT 10SM OVC049 18/10 A2962 1360 58 2100 180/11 RMK AO2
94908KDBQ DBQ20110430153509704/30/11 15:35:31  5-MIN KDBQ 302135Z 18011KT 10SM OVC047 18/10 A2962 1360 58 2100 180/11 RMK AO2
94908KDBQ DBQ20110430154009704/30/11 15:40:31  5-MIN KDBQ 302140Z 18012KT 10SM OVC047 18/10 A2962 1360 58 2100 180/12 RMK AO2
94908KDBQ DBQ20110430154509704/30/11 15:45:31  5-MIN KDBQ 302145Z 18012KT 10SM OVC047 18/10 A2962 1360 58 2100 180/12 RMK AO2
94908KDBQ DBQ20110430155011404/30/11 15:50:31  5-MIN KDBQ 302150Z 17012KT 10SM OVC047 18/10 A2962 1360 58 2100 170/12 RMK AO2 SLP028 T01830100
94908KDBQ DBQ20110430155509704/30/11 15:55:31  5-MIN KDBQ 302155Z 17012KT 10SM OVC047 18/11 A2962 1360 60 2100 170/12 RMK AO2
94908KDBQ DBQ20110430160009704/30/11 16:00:31  5-MIN KDBQ 302200Z 17011KT 10SM OVC045 18/11 A2962 1360 60 2100 170/11 RMK AO2
94908KDBQ DBQ20110430160509704/30/11 16:05:31  5-MIN KDBQ 302205Z 18012KT 10SM OVC045 18/11 A2962 1360 60 2100 170/12 RMK AO2
94908KDBQ DBQ20110430161009704/30/11 16:10:31  5-MIN KDBQ 302210Z 18011KT 10SM OVC045 18/11 A2962 1350 60 2100 180/11 RMK AO2
94908KDBQ DBQ20110430161509704/30/11 16:15:31  5-MIN KDBQ 302215Z 17011KT 10SM OVC045 18/11 A2962 1350 60 2100 170/11 RMK AO2
94908KDBQ DBQ20110430162009704/30/11 16:20:31  5-MIN KDBQ 302220Z 18011KT 10SM OVC045 18/11 A2963 1350 62 2000 180/11 RMK AO2
94908KDBQ DBQ20110430162509704/30/11 16:25:31  5-MIN KDBQ 302225Z 18010KT 10SM OVC045 18/11 A2963 1350 62 2000 170/10 RMK AO2
94908KDBQ DBQ20110430163009704/30/11 16:30:31  5-MIN KDBQ 302230Z 18010KT 10SM OVC043 18/11 A2963 1350 62 2000 180/10 RMK AO2
94908KDBQ DBQ20110430163509704/30/11 16:35:31  5-MIN KDBQ 302235Z 18010KT 10SM OVC041 18/11 A2963 1350 62 2000 180/10 RMK AO2
94908KDBQ DBQ20110430164010304/30/11 16:40:31  5-MIN KDBQ 302240Z 18013G18KT 10SM OVC041 18/11 A2963 1350 62 2000 180/13G18 RMK AO2
94908KDBQ DBQ20110430164510304/30/11 16:45:31  5-MIN KDBQ 302245Z 19017G23KT 10SM OVC041 18/11 A2963 1350 64 2000 190/17G23 RMK AO2
94908KDBQ DBQ20110430165012004/30/11 16:50:31  5-MIN KDBQ 302250Z 19013G23KT 10SM OVC041 18/11 A2963 1350 64 2000 190/13G23 RMK AO2 SLP033 T01780111
94908KDBQ DBQ20110430165509704/30/11 16:55:31  5-MIN KDBQ 302255Z 19013KT 10SM OVC041 18/11 A2963 1350 64 2000 180/13 RMK AO2
94908KDBQ DBQ20110430170009704/30/11 17:00:31  5-MIN KDBQ 302300Z 19015KT 10SM OVC041 18/11 A2963 1350 64 2000 190/15 RMK AO2
94908KDBQ DBQ20110430170509704/30/11 17:05:31  5-MIN KDBQ 302305Z 19013KT 10SM OVC041 18/11 A2963 1350 64 2000 190/13 RMK AO2
94908KDBQ DBQ20110430171009704/30/11 17:10:31  5-MIN KDBQ 302310Z 19012KT 10SM OVC041 18/11 A2963 1350 64 2000 190/12 RMK AO2
94908KDBQ DBQ20110430171509704/30/11 17:15:31  5-MIN KDBQ 302315Z 19011KT 10SM OVC043 18/12 A2963 1350 67 2000 180/11 RMK AO2
94908KDBQ DBQ20110430172010404/30/11 17:20:31  5-MIN KDBQ 302320Z 18010KT 10SM BKN043 OVC049 18/12 A2963 1350 67 2000 180/10 RMK AO2
94908KDBQ DBQ20110430172510404/30/11 17:25:31  5-MIN KDBQ 302325Z 18010KT 10SM BKN045 OVC055 18/12 A2962 1350 67 2000 180/10 RMK AO2
94908KDBQ DBQ20110430173010404/30/11 17:30:31  5-MIN KDBQ 302330Z 18011KT 10SM SCT043 OVC050 18/12 A2962 1350 67 2000 170/11 RMK AO2
94908KDBQ DBQ20110430173510404/30/11 17:35:31  5-MIN KDBQ 302335Z 17012KT 10SM BKN049 OVC055 18/12 A2962 1350 67 2000 170/12 RMK AO2
94908KDBQ DBQ20110430174010404/30/11 17:40:31  5-MIN KDBQ 302340Z 17011KT 10SM BKN049 OVC055 18/12 A2962 1350 67 2000 170/11 RMK AO2
94908KDBQ DBQ20110430174509704/30/11 17:45:31  5-MIN KDBQ 302345Z 18010KT 10SM OVC049 18/12 A2962 1350 67 2000 180/10 RMK AO2
94908KDBQ DBQ20110430175013904/30/11 17:50:31  5-MIN KDBQ 302350Z 18011KT 10SM BKN047 OVC055 18/12 A2963 1350 67 2000 180/11 RMK AO2 SLP032 T01780117 10200 20178 56008
94908KDBQ DBQ20110430175510404/30/11 17:55:31  5-MIN KDBQ 302355Z 24011KT 10SM FEW035 OVC047 18/12 A2964 1340 67 2000 240/11 RMK AO2
94908KDBQ DBQ20110430180011504/30/11 18:00:31  5-MIN KDBQ 010000Z 25010KT 10SM SCT035 OVC047 17/12 A2964 1340 69 1900 250/10 RMK AO2 WSHFT 2345
94908KDBQ DBQ20110430180512204/30/11 18:05:31  5-MIN KDBQ 010005Z 26007KT 10SM SCT040 BKN047 OVC085 17/11 A2965 1330 67 1900 260/07 RMK AO2 WSHFT 2345
94908KDBQ DBQ20110430181012204/30/11 18:10:31  5-MIN KDBQ 010010Z 26007KT 10SM FEW036 BKN050 OVC085 17/11 A2965 1330 67 1900 260/07 RMK AO2 WSHFT 2345
94908KDBQ DBQ20110430181512204/30/11 18:15:31  5-MIN KDBQ 010015Z 27006KT 10SM FEW036 BKN050 OVC085 17/11 A2965 1330 64 1900 270/06 RMK AO2 WSHFT 2345
94908KDBQ DBQ20110430182012204/30/11 18:20:31  5-MIN KDBQ 010020Z 27006KT 10SM FEW038 BKN050 OVC085 17/11 A2966 1320 67 1900 270/06 RMK AO2 WSHFT 2345
94908KDBQ DBQ20110430182512204/30/11 18:25:31  5-MIN KDBQ 010025Z 27006KT 10SM FEW036 BKN049 OVC085 17/11 A2966 1320 67 1900 270/06 RMK AO2 WSHFT 2345
94908KDBQ DBQ20110430183012204/30/11 18:30:31  5-MIN KDBQ 010030Z 29007KT 10SM BKN046 BKN060 OVC085 17/11 A2966 1320 67 1900 290/07 RMK AO2 WSHFT 2345
94908KDBQ DBQ20110430183512204/30/11 18:35:31  5-MIN KDBQ 010035Z 30011KT 10SM BKN044 BKN050 OVC085 17/11 A2967 1320 67 1900 290/11 RMK AO2 WSHFT 2345
94908KDBQ DBQ20110430184010804/30/11 18:40:31  5-MIN KDBQ 010040Z 29007KT 10SM OVC048 16/11 A2967 1310 69 1800 290/07 RMK AO2 WSHFT 2345
94908KDBQ DBQ20110430184512204/30/11 18:45:31  5-MIN KDBQ 010045Z 29009KT 10SM BKN046 BKN055 OVC090 16/11 A2967 1310 69 1800 290/09 RMK AO2 WSHFT 2345
94908KDBQ DBQ20110430185013204/30/11 18:50:31  5-MIN KDBQ 010050Z 29009KT 10SM BKN046 OVC055 16/10 A2967 1310 67 1800 290/09 RMK AO2 WSHFT 2345 SLP047 T01610100
94908KDBQ DBQ20110430185510404/30/11 18:55:31  5-MIN KDBQ 010055Z 29008KT 10SM BKN046 OVC055 16/11 A2968 1300 69 1800 290/08 RMK AO2
94908KDBQ DBQ20110430190010404/30/11 19:00:31  5-MIN KDBQ 010100Z 30007KT 10SM BKN046 OVC055 16/11 A2968 1300 72 1700 290/07 RMK AO2
94908KDBQ DBQ20110430190510404/30/11 19:05:31  5-MIN KDBQ 010105Z 29007KT 10SM BKN046 OVC055 16/11 A2968 1300 72 1700 290/07 RMK AO2
94908KDBQ DBQ20110430191011604/30/11 19:10:31  5-MIN KDBQ 010110Z AUTO 31009KT 10SM BKN046 BKN055 OVC090 15/11 A2968 1300 74 1600 300/09 RMK AO2
94908KDBQ DBQ20110430191511604/30/11 19:15:31  5-MIN KDBQ 010115Z AUTO 32011KT 10SM BKN046 BKN055 OVC090 15/11 A2969 1290 74 1600 310/11 RMK AO2
94908KDBQ DBQ20110430192010904/30/11 19:20:31  5-MIN KDBQ 010120Z AUTO 33008KT 10SM BKN046 OVC055 15/10 A2969 1290 72 1600 330/08 RMK AO2
94908KDBQ DBQ20110430192511604/30/11 19:25:31  5-MIN KDBQ 010125Z AUTO 32008KT 10SM BKN046 BKN060 OVC090 15/10 A2969 1290 72 1600 320/08 RMK AO2
94908KDBQ DBQ20110430193011604/30/11 19:30:31  5-MIN KDBQ 010130Z AUTO 32005KT 10SM BKN048 BKN060 OVC090 15/10 A2969 1290 72 1600 320/05 RMK AO2
94908KDBQ DBQ20110430193510904/30/11 19:35:31  5-MIN KDBQ 010135Z AUTO 33005KT 10SM BKN048 OVC055 14/10 A2969 1290 74 1600 330/05 RMK AO2
94908KDBQ DBQ20110430194010204/30/11 19:40:31  5-MIN KDBQ 010140Z AUTO 32005KT 10SM OVC048 14/10 A2970 1290 74 1600 320/05 RMK AO2
94908KDBQ DBQ20110430194510204/30/11 19:45:31  5-MIN KDBQ 010145Z AUTO 33004KT 10SM OVC048 14/10 A2970 1290 74 1600 330/04 RMK AO2
94908KDBQ DBQ20110430195011904/30/11 19:50:31  5-MIN KDBQ 010150Z AUTO 33003KT 10SM OVC048 14/10 A2970 1290 74 1600 330/03 RMK AO2 SLP057 T01440100
94908KDBQ DBQ20110430195510204/30/11 19:55:31  5-MIN KDBQ 010155Z AUTO 00000KT 10SM OVC048 14/10 A2970 1280 74 1600 000/00 RMK AO2
94908KDBQ DBQ20110430200010904/30/11 20:00:31  5-MIN KDBQ 010200Z AUTO 00000KT 10SM BKN048 OVC085 14/10 A2970 1280 74 1600 000/00 RMK AO2
94908KDBQ DBQ20110430200510904/30/11 20:05:31  5-MIN KDBQ 010205Z AUTO 00000KT 10SM BKN048 OVC085 14/10 A2970 1280 74 1600 000/00 RMK AO2
94908KDBQ DBQ20110430201010904/30/11 20:10:31  5-MIN KDBQ 010210Z AUTO 00000KT 10SM BKN048 OVC085 14/10 A2971 1280 77 1500 000/00 RMK AO2
94908KDBQ DBQ20110430201511604/30/11 20:15:31  5-MIN KDBQ 010215Z AUTO 00000KT 10SM BKN050 BKN055 OVC085 14/10 A2971 1270 77 1500 000/00 RMK AO2
94908KDBQ DBQ20110430202011604/30/11 20:20:31  5-MIN KDBQ 010220Z AUTO 00000KT 10SM SCT050 BKN060 OVC085 13/10 A2971 1270 80 1400 000/00 RMK AO2
94908KDBQ DBQ20110430202511604/30/11 20:25:31  5-MIN KDBQ 010225Z AUTO 00000KT 10SM SCT050 BKN065 OVC080 13/10 A2971 1270 80 1400 000/00 RMK AO2
94908KDBQ DBQ20110430203011604/30/11 20:30:31  5-MIN KDBQ 010230Z AUTO 29003KT 10SM SCT050 BKN065 OVC080 13/10 A2972 1270 83 1300 290/03 RMK AO2
94908KDBQ DBQ20110430203511604/30/11 20:35:31  5-MIN KDBQ 010235Z AUTO 29004KT 10SM SCT050 BKN060 OVC085 12/09 A2972 1270 83 1300 290/04 RMK AO2
94908KDBQ DBQ20110430204011604/30/11 20:40:31  5-MIN KDBQ 010240Z AUTO 27004KT 10SM BKN050 BKN065 OVC080 13/09 A2972 1260 80 1300 270/04 RMK AO2
94908KDBQ DBQ20110430204511604/30/11 20:45:31  5-MIN KDBQ 010245Z AUTO 28004KT 10SM SCT050 BKN065 OVC080 13/09 A2972 1260 80 1300 280/04 RMK AO2
94908KDBQ DBQ20110430205013904/30/11 20:50:31  5-MIN KDBQ 010250Z AUTO 27003KT 10SM SCT050 BKN065 OVC080 13/09 A2972 1260 80 1300 270/03 RMK AO2 SLP066 T01280094 53005
94908KDBQ DBQ20110430205511604/30/11 20:55:31  5-MIN KDBQ 010255Z AUTO 27004KT 10SM SCT050 BKN065 OVC085 13/09 A2973 1260 80 1300 270/04 RMK AO2
94908KDBQ DBQ20110430210011604/30/11 21:00:31  5-MIN KDBQ 010300Z AUTO 26003KT 10SM SCT055 BKN065 BKN080 13/09 A2973 1260 80 1300 260/03 RMK AO2
94908KDBQ DBQ20110430210511604/30/11 21:05:31  5-MIN KDBQ 010305Z AUTO 00000KT 10SM BKN060 BKN070 OVC080 12/09 A2973 1260 83 1300 000/00 RMK AO2
94908KDBQ DBQ20110430211010904/30/11 21:10:31  5-MIN KDBQ 010310Z AUTO 23003KT 10SM BKN060 OVC080 12/09 A2973 1250 83 1300 230/03 RMK AO2
94908KDBQ DBQ20110430211510904/30/11 21:15:31  5-MIN KDBQ 010315Z AUTO 24003KT 10SM BKN060 OVC080 13/09 A2973 1250 80 1300 230/03 RMK AO2
94908KDBQ DBQ20110430212010904/30/11 21:20:31  5-MIN KDBQ 010320Z AUTO 23003KT 10SM SCT060 BKN080 12/09 A2973 1250 83 1300 230/03 RMK AO2
94908KDBQ DBQ20110430212510904/30/11 21:25:31  5-MIN KDBQ 010325Z AUTO 22004KT 10SM BKN060 OVC080 12/09 A2973 1250 83 1300 220/04 RMK AO2
94908KDBQ DBQ20110430213010904/30/11 21:30:31  5-MIN KDBQ 010330Z AUTO 22003KT 10SM BKN060 BKN080 12/09 A2973 1250 83 1300 220/03 RMK AO2
94908KDBQ DBQ20110430213510904/30/11 21:35:31  5-MIN KDBQ 010335Z AUTO 22003KT 10SM BKN060 BKN080 12/09 A2973 1250 86 1200 220/03 RMK AO2
94908KDBQ DBQ20110430214010904/30/11 21:40:31  5-MIN KDBQ 010340Z AUTO 21003KT 10SM BKN060 OVC080 12/09 A2973 1250 86 1200 210/03 RMK AO2
94908KDBQ DBQ20110430214510904/30/11 21:45:31  5-MIN KDBQ 010345Z AUTO 21003KT 10SM BKN065 BKN080 12/09 A2973 1250 86 1200 210/03 RMK AO2
94908KDBQ DBQ20110430215011904/30/11 21:50:31  5-MIN KDBQ 010350Z AUTO 23003KT 10SM BKN065 12/09 A2973 1250 86 1200 230/03 RMK AO2 SLP069 T01170094
94908KDBQ DBQ20110430215510204/30/11 21:55:31  5-MIN KDBQ 010355Z AUTO 21003KT 10SM OVC065 12/09 A2974 1250 83 1200 210/03 RMK AO2
94908KDBQ DBQ20110430220010204/30/11 22:00:31  5-MIN KDBQ 010400Z AUTO 21004KT 10SM OVC065 12/09 A2974 1250 86 1200 210/04 RMK AO2
94908KDBQ DBQ20110430220510204/30/11 22:05:31  5-MIN KDBQ 010405Z AUTO 21004KT 10SM OVC065 11/09 A2974 1250 89 1100 210/04 RMK AO2
94908KDBQ DBQ20110430221010204/30/11 22:10:31  5-MIN KDBQ 010410Z AUTO 22004KT 10SM OVC070 11/09 A2974 1240 89 1100 220/04 RMK AO2
94908KDBQ DBQ20110430221510204/30/11 22:15:31  5-MIN KDBQ 010415Z AUTO 23004KT 10SM BKN070 11/09 A2974 1240 86 1100 230/04 RMK AO2
94908KDBQ DBQ20110430222010204/30/11 22:20:31  5-MIN KDBQ 010420Z AUTO 23005KT 10SM BKN070 10/09 A2974 1240 93 1000 230/05 RMK AO2
94908KDBQ DBQ20110430222510204/30/11 22:25:31  5-MIN KDBQ 010425Z AUTO 26006KT 10SM SCT070 11/09 A2975 1240 89 1000 260/06 RMK AO2
94908KDBQ DBQ20110430223010204/30/11 22:30:31  5-MIN KDBQ 010430Z AUTO 27008KT 10SM FEW070 11/08 A2975 1240 83 1000 270/08 RMK AO2
94908KDBQ DBQ20110430223510204/30/11 22:35:31  5-MIN KDBQ 010435Z AUTO 28010KT 10SM FEW070 12/07 A2975 1240 74 1200 280/10 RMK AO2
94908KDBQ DBQ20110430224009904/30/11 22:40:31  5-MIN KDBQ 010440Z AUTO 28010KT 10SM CLR 12/07 A2975 1240 74 1200 280/10 RMK AO2
94908KDBQ DBQ20110430224509904/30/11 22:45:31  5-MIN KDBQ 010445Z AUTO 28010KT 10SM CLR 12/07 A2975 1230 71 1200 280/10 RMK AO2
94908KDBQ DBQ20110430225011604/30/11 22:50:31  5-MIN KDBQ 010450Z AUTO 29009KT 10SM CLR 12/06 A2975 1230 68 1200 290/09 RMK AO2 SLP076 T01170061
94908KDBQ DBQ20110430225509904/30/11 22:55:31  5-MIN KDBQ 010455Z AUTO 29009KT 10SM CLR 11/06 A2975 1230 71 1100 290/09 RMK AO2
94908KDBQ DBQ20110430230009904/30/11 23:00:31  5-MIN KDBQ 010500Z AUTO 29009KT 10SM CLR 11/06 A2976 1230 68 1100 290/09 RMK AO2
94908KDBQ DBQ20110430230509904/30/11 23:05:31  5-MIN KDBQ 010505Z AUTO 30008KT 10SM CLR 11/06 A2976 1230 71 1000 300/08 RMK AO2
94908KDBQ DBQ20110430231009904/30/11 23:10:31  5-MIN KDBQ 010510Z AUTO 30007KT 10SM CLR 10/06 A2976 1230 74 1000 300/07 RMK AO2
94908KDBQ DBQ20110430231509904/30/11 23:15:31  5-MIN KDBQ 010515Z AUTO 30007KT 10SM CLR 10/05 A2976 1230 71 1000 300/07 RMK AO2
94908KDBQ DBQ20110430232009804/30/11 23:20:31  5-MIN KDBQ 010520Z AUTO 30008KT 10SM CLR 09/05 A2976 1220 74 900 300/08 RMK AO2
94908KDBQ DBQ20110430232509804/30/11 23:25:31  5-MIN KDBQ 010525Z AUTO 31009KT 10SM CLR 09/05 A2977 1220 74 900 300/09 RMK AO2
94908KDBQ DBQ20110430233009804/30/11 23:30:31  5-MIN KDBQ 010530Z AUTO 31008KT 10SM CLR 09/05 A2977 1220 74 900 310/08 RMK AO2
94908KDBQ DBQ20110430233509804/30/11 23:35:31  5-MIN KDBQ 010535Z AUTO 30006KT 10SM CLR 09/05 A2977 1210 76 800 300/06 RMK AO2
94908KDBQ DBQ20110430234010304/30/11 23:40:31  5-MIN KDBQ 010540Z AUTO 30005KT 10SM CLR 09/04 A2978 1210 73 800 300/05 RMK AO2 TSNO
94908KDBQ DBQ20110430234510304/30/11 23:45:31  5-MIN KDBQ 010545Z AUTO 30005KT 10SM CLR 09/04 A2978 1210 71 900 290/05 RMK AO2 TSNO
94908KDBQ DBQ20110430235014804/30/11 23:50:31  5-MIN KDBQ 010550Z AUTO 29005KT 10SM CLR 09/04 A2978 1210 71 900 290/05 RMK AO2 SLP086 T00940044 10178 20089 402000089 51029 TSNO
94908KDBQ DBQ20110430235510304/30/11 23:55:31  5-MIN KDBQ 010555Z AUTO 29005KT 10SM CLR 09/04 A2978 1210 71 900 290/05 RMK AO2 TSNO
