94908KDBQ DBQ20090201000010302/01/09 00:00:49  5-MIN KDBQ 010600Z AUTO 31013KT 10SM CLR 01/M04 A2970 1290 66 0 310/13 RMK AO2 PNO $
94908KDBQ DBQ20090201000510302/01/09 00:05:31  5-MIN KDBQ 010605Z AUTO 31011KT 10SM CLR 01/M04 A2970 1280 66 0 310/11 RMK AO2 PNO $
94908KDBQ DBQ20090201001010302/01/09 00:10:31  5-MIN KDBQ 010610Z AUTO 32012KT 10SM CLR 01/M04 A2970 1280 66 0 310/12 RMK AO2 PNO $
94908KDBQ DBQ20090201001510302/01/09 00:15:33  5-MIN KDBQ 010615Z AUTO 32014KT 10SM CLR 01/M04 A2970 1280 66 0 310/14 RMK AO2 PNO $
94908KDBQ DBQ20090201002010302/01/09 00:20:31  5-MIN KDBQ 010620Z AUTO 32012KT 10SM CLR 01/M04 A2970 1280 66 0 310/12 RMK AO2 PNO $
94908KDBQ DBQ20090201002510602/01/09 00:25:31  5-MIN KDBQ 010625Z AUTO 32011KT 10SM CLR 01/M04 A2970 1280 69 -100 320/11 RMK AO2 PNO $
94908KDBQ DBQ20090201003010602/01/09 00:30:31  5-MIN KDBQ 010630Z AUTO 32012KT 10SM CLR 01/M05 A2971 1280 66 -100 320/12 RMK AO2 PNO $
94908KDBQ DBQ20090201003510602/01/09 00:35:31  5-MIN KDBQ 010635Z AUTO 32010KT 10SM CLR 01/M05 A2971 1280 66 -100 320/10 RMK AO2 PNO $
94908KDBQ DBQ20090201004010602/01/09 00:40:31  5-MIN KDBQ 010640Z AUTO 32011KT 10SM CLR 01/M05 A2971 1280 66 -100 320/11 RMK AO2 PNO $
94908KDBQ DBQ20090201004510602/01/09 00:45:31  5-MIN KDBQ 010645Z AUTO 32011KT 10SM CLR 01/M05 A2971 1280 66 -100 320/11 RMK AO2 PNO $
94908KDBQ DBQ20090201005012302/01/09 00:50:31  5-MIN KDBQ 010650Z AUTO 32012KT 10SM CLR 01/M05 A2971 1270 66 -100 320/12 RMK AO2 SLP071 T00061050 PNO $
94908KDBQ DBQ20090201005510602/01/09 00:55:31  5-MIN KDBQ 010655Z AUTO 32010KT 10SM CLR 01/M05 A2971 1270 66 -100 320/10 RMK AO2 PNO $
94908KDBQ DBQ20090201010010602/01/09 01:00:31  5-MIN KDBQ 010700Z AUTO 32009KT 10SM CLR 00/M05 A2972 1270 69 -200 320/09 RMK AO2 PNO $
94908KDBQ DBQ20090201010510602/01/09 01:05:31  5-MIN KDBQ 010705Z AUTO 31010KT 10SM CLR 00/M06 A2972 1270 66 -200 310/10 RMK AO2 PNO $
94908KDBQ DBQ20090201011010602/01/09 01:10:31  5-MIN KDBQ 010710Z AUTO 32010KT 10SM CLR 00/M06 A2972 1260 66 -200 320/10 RMK AO2 PNO $
94908KDBQ DBQ20090201011510602/01/09 01:15:31  5-MIN KDBQ 010715Z AUTO 32011KT 10SM CLR 00/M06 A2972 1260 66 -200 320/11 RMK AO2 PNO $
94908KDBQ DBQ20090201012010602/01/09 01:20:31  5-MIN KDBQ 010720Z AUTO 32011KT 10SM CLR 01/M06 A2972 1260 63 -100 320/11 RMK AO2 PNO $
94908KDBQ DBQ20090201012510602/01/09 01:25:31  5-MIN KDBQ 010725Z AUTO 32011KT 10SM CLR 01/M06 A2973 1260 61 -100 320/11 RMK AO2 PNO $
94908KDBQ DBQ20090201013010602/01/09 01:30:31  5-MIN KDBQ 010730Z AUTO 32013KT 10SM CLR 01/M06 A2973 1250 61 -100 320/13 RMK AO2 PNO $
94908KDBQ DBQ20090201013510602/01/09 01:35:31  5-MIN KDBQ 010735Z AUTO 31011KT 10SM CLR 01/M06 A2973 1250 61 -100 310/11 RMK AO2 PNO $
94908KDBQ DBQ20090201014010602/01/09 01:40:31  5-MIN KDBQ 010740Z AUTO 31008KT 10SM CLR 01/M06 A2974 1250 61 -100 310/08 RMK AO2 PNO $
94908KDBQ DBQ20090201014510602/01/09 01:45:31  5-MIN KDBQ 010745Z AUTO 32010KT 10SM CLR 00/M06 A2974 1240 63 -200 320/10 RMK AO2 PNO $
94908KDBQ DBQ20090201015012302/01/09 01:50:31  5-MIN KDBQ 010750Z AUTO 32012KT 10SM CLR 00/M07 A2975 1240 61 -200 320/12 RMK AO2 SLP083 T00001067 PNO $
94908KDBQ DBQ20090201015510602/01/09 01:55:31  5-MIN KDBQ 010755Z AUTO 31009KT 10SM CLR 00/M06 A2975 1240 63 -200 310/09 RMK AO2 PNO $
94908KDBQ DBQ20090201020010702/01/09 02:00:31  5-MIN KDBQ 010800Z AUTO 30009KT 10SM CLR M01/M07 A2975 1230 63 -300 300/09 RMK AO2 PNO $
94908KDBQ DBQ20090201020510702/01/09 02:05:31  5-MIN KDBQ 010805Z AUTO 30008KT 10SM CLR M01/M07 A2976 1230 63 -300 290/08 RMK AO2 PNO $
94908KDBQ DBQ20090201021010702/01/09 02:10:31  5-MIN KDBQ 010810Z AUTO 30008KT 10SM CLR M01/M07 A2976 1230 66 -400 300/08 RMK AO2 PNO $
94908KDBQ DBQ20090201021510702/01/09 02:15:31  5-MIN KDBQ 010815Z AUTO 29008KT 10SM CLR M01/M07 A2976 1230 66 -400 290/08 RMK AO2 PNO $
94908KDBQ DBQ20090201022010702/01/09 02:20:31  5-MIN KDBQ 010820Z AUTO 30008KT 10SM CLR M01/M07 A2977 1220 66 -400 290/08 RMK AO2 PNO $
94908KDBQ DBQ20090201022510702/01/09 02:25:31  5-MIN KDBQ 010825Z AUTO 29009KT 10SM CLR M01/M07 A2977 1220 63 -400 290/09 RMK AO2 PNO $
94908KDBQ DBQ20090201023010702/01/09 02:30:31  5-MIN KDBQ 010830Z AUTO 29009KT 10SM CLR M02/M07 A2977 1220 69 -400 290/09 RMK AO2 PNO $
94908KDBQ DBQ20090201023510702/01/09 02:35:31  5-MIN KDBQ 010835Z AUTO 29007KT 10SM CLR M02/M07 A2977 1220 66 -400 290/07 RMK AO2 PNO $
94908KDBQ DBQ20090201024010702/01/09 02:40:31  5-MIN KDBQ 010840Z AUTO 29007KT 10SM CLR M02/M07 A2977 1210 66 -400 290/07 RMK AO2 PNO $
94908KDBQ DBQ20090201024510702/01/09 02:45:31  5-MIN KDBQ 010845Z AUTO 29007KT 10SM CLR M02/M07 A2978 1210 66 -400 290/07 RMK AO2 PNO $
94908KDBQ DBQ20090201025013602/01/09 02:50:31  5-MIN KDBQ 010850Z AUTO 28007KT 10SM CLR M02/M07 A2978 1210 69 -500 280/07 RMK AO2 SLP095 6//// T10221072 51023 PNO $
94908KDBQ DBQ20090201025510702/01/09 02:55:31  5-MIN KDBQ 010855Z AUTO 28008KT 10SM CLR M02/M07 A2978 1210 69 -500 280/08 RMK AO2 PNO $
94908KDBQ DBQ20090201030010702/01/09 03:00:31  5-MIN KDBQ 010900Z AUTO 28007KT 10SM CLR M02/M07 A2978 1210 69 -500 280/07 RMK AO2 PNO $
94908KDBQ DBQ20090201030510702/01/09 03:05:31  5-MIN KDBQ 010905Z AUTO 27007KT 10SM CLR M03/M07 A2979 1200 71 -600 260/07 RMK AO2 PNO $
94908KDBQ DBQ20090201031010702/01/09 03:10:31  5-MIN KDBQ 010910Z AUTO 27007KT 10SM CLR M03/M07 A2979 1200 74 -700 270/07 RMK AO2 PNO $
94908KDBQ DBQ20090201031510702/01/09 03:15:31  5-MIN KDBQ 010915Z AUTO 28007KT 10SM CLR M03/M07 A2979 1200 74 -700 280/07 RMK AO2 PNO $
94908KDBQ DBQ20090201032010702/01/09 03:20:31  5-MIN KDBQ 010920Z AUTO 27005KT 10SM CLR M03/M08 A2979 1200 71 -700 270/05 RMK AO2 PNO $
94908KDBQ DBQ20090201032510702/01/09 03:25:31  5-MIN KDBQ 010925Z AUTO 27005KT 10SM CLR M04/M08 A2979 1200 74 -700 270/05 RMK AO2 PNO $
94908KDBQ DBQ20090201033010702/01/09 03:30:31  5-MIN KDBQ 010930Z AUTO 28005KT 10SM CLR M03/M08 A2980 1190 71 -700 280/05 RMK AO2 PNO $
94908KDBQ DBQ20090201033510702/01/09 03:35:31  5-MIN KDBQ 010935Z AUTO 30004KT 10SM CLR M03/M08 A2980 1190 71 -700 290/04 RMK AO2 PNO $
94908KDBQ DBQ20090201034010702/01/09 03:40:31  5-MIN KDBQ 010940Z AUTO 28003KT 10SM CLR M04/M08 A2980 1190 74 -800 280/03 RMK AO2 PNO $
94908KDBQ DBQ20090201034510702/01/09 03:45:31  5-MIN KDBQ 010945Z AUTO 27005KT 10SM CLR M04/M08 A2980 1190 74 -700 270/05 RMK AO2 PNO $
94908KDBQ DBQ20090201035012402/01/09 03:50:31  5-MIN KDBQ 010950Z AUTO 28005KT 10SM CLR M04/M08 A2980 1190 74 -700 280/05 RMK AO2 SLP102 T10391078 PNO $
94908KDBQ DBQ20090201035510702/01/09 03:55:31  5-MIN KDBQ 010955Z AUTO 29005KT 10SM CLR M04/M08 A2980 1190 74 -800 280/05 RMK AO2 PNO $
94908KDBQ DBQ20090201040010702/01/09 04:00:31  5-MIN KDBQ 011000Z AUTO 29004KT 10SM CLR M04/M08 A2980 1190 74 -800 290/04 RMK AO2 PNO $
94908KDBQ DBQ20090201040510702/01/09 04:05:31  5-MIN KDBQ 011005Z AUTO 29005KT 10SM CLR M04/M08 A2981 1180 74 -800 290/05 RMK AO2 PNO $
94908KDBQ DBQ20090201041010702/01/09 04:10:31  5-MIN KDBQ 011010Z AUTO 29004KT 10SM CLR M04/M08 A2981 1180 74 -800 290/04 RMK AO2 PNO $
94908KDBQ DBQ20090201041510702/01/09 04:15:31  5-MIN KDBQ 011015Z AUTO 29004KT 10SM CLR M04/M08 A2981 1180 74 -800 290/04 RMK AO2 PNO $
94908KDBQ DBQ20090201042010702/01/09 04:20:31  5-MIN KDBQ 011020Z AUTO 30004KT 10SM CLR M04/M08 A2981 1180 74 -800 300/04 RMK AO2 PNO $
94908KDBQ DBQ20090201042510702/01/09 04:25:31  5-MIN KDBQ 011025Z AUTO 29004KT 10SM CLR M04/M08 A2981 1180 74 -800 290/04 RMK AO2 PNO $
94908KDBQ DBQ20090201043010702/01/09 04:30:31  5-MIN KDBQ 011030Z AUTO 30005KT 10SM CLR M04/M08 A2982 1180 74 -800 290/05 RMK AO2 PNO $
94908KDBQ DBQ20090201043510702/01/09 04:35:31  5-MIN KDBQ 011035Z AUTO 29004KT 10SM CLR M04/M08 A2982 1170 74 -800 290/04 RMK AO2 PNO $
94908KDBQ DBQ20090201044010702/01/09 04:40:31  5-MIN KDBQ 011040Z AUTO 29005KT 10SM CLR M04/M08 A2982 1170 74 -800 290/05 RMK AO2 PNO $
94908KDBQ DBQ20090201044510702/01/09 04:45:31  5-MIN KDBQ 011045Z AUTO 29005KT 10SM CLR M04/M08 A2982 1170 74 -800 290/05 RMK AO2 PNO $
94908KDBQ DBQ20090201045012402/01/09 04:50:31  5-MIN KDBQ 011050Z AUTO 29006KT 10SM CLR M04/M08 A2982 1170 78 -800 290/06 RMK AO2 SLP109 T10441078 PNO $
94908KDBQ DBQ20090201045510702/01/09 04:55:31  5-MIN KDBQ 011055Z AUTO 28007KT 10SM CLR M04/M08 A2982 1170 78 -800 280/07 RMK AO2 PNO $
94908KDBQ DBQ20090201050010702/01/09 05:00:31  5-MIN KDBQ 011100Z AUTO 28007KT 10SM CLR M04/M08 A2982 1170 78 -800 280/07 RMK AO2 PNO $
94908KDBQ DBQ20090201050510702/01/09 05:05:31  5-MIN KDBQ 011105Z AUTO 28007KT 10SM CLR M04/M08 A2982 1170 74 -800 280/07 RMK AO2 PNO $
94908KDBQ DBQ20090201051010702/01/09 05:10:31  5-MIN KDBQ 011110Z AUTO 28007KT 10SM CLR M04/M08 A2982 1170 74 -800 280/07 RMK AO2 PNO $
94908KDBQ DBQ20090201051510702/01/09 05:15:31  5-MIN KDBQ 011115Z AUTO 28007KT 10SM CLR M04/M08 A2983 1170 78 -900 280/07 RMK AO2 PNO $
94908KDBQ DBQ20090201052010702/01/09 05:20:31  5-MIN KDBQ 011120Z AUTO 28007KT 10SM CLR M04/M08 A2983 1170 74 -900 280/07 RMK AO2 PNO $
94908KDBQ DBQ20090201052510702/01/09 05:25:31  5-MIN KDBQ 011125Z AUTO 28008KT 10SM CLR M04/M08 A2983 1160 78 -900 280/08 RMK AO2 PNO $
94908KDBQ DBQ20090201053010702/01/09 05:30:31  5-MIN KDBQ 011130Z AUTO 28007KT 10SM CLR M04/M08 A2983 1160 74 -800 280/07 RMK AO2 PNO $
94908KDBQ DBQ20090201053510702/01/09 05:35:31  5-MIN KDBQ 011135Z AUTO 28008KT 10SM CLR M04/M08 A2984 1160 74 -800 280/08 RMK AO2 PNO $
94908KDBQ DBQ20090201054010702/01/09 05:40:31  5-MIN KDBQ 011140Z AUTO 28008KT 10SM CLR M04/M08 A2984 1160 74 -800 280/08 RMK AO2 PNO $
94908KDBQ DBQ20090201054510702/01/09 05:45:31  5-MIN KDBQ 011145Z AUTO 28007KT 10SM CLR M04/M08 A2984 1150 74 -800 280/07 RMK AO2 PNO $
94908KDBQ DBQ20090201055015402/01/09 05:50:31  5-MIN KDBQ 011150Z AUTO 29008KT 10SM CLR M04/M08 A2984 1150 74 -800 280/08 RMK AO2 SLP116 6//// 7//// T10391078 10011 21044 53028 PNO $
94908KDBQ DBQ20090201055510202/01/09 05:55:31  5-MIN KDBQ 011155Z 29009KT 10SM CLR M04/M08 A2984 1150 74 -800 290/09 RMK AO2 PNO $
94908KDBQ DBQ20090201060010202/01/09 06:00:31  5-MIN KDBQ 011200Z 29009KT 10SM CLR M04/M08 A2984 1150 74 -800 290/09 RMK AO2 PNO $
94908KDBQ DBQ20090201060510202/01/09 06:05:31  5-MIN KDBQ 011205Z 29009KT 10SM CLR M03/M08 A2985 1150 71 -700 280/09 RMK AO2 PNO $
94908KDBQ DBQ20090201061010202/01/09 06:10:31  5-MIN KDBQ 011210Z 28008KT 10SM CLR M04/M08 A2985 1140 74 -800 280/08 RMK AO2 PNO $
94908KDBQ DBQ20090201061510202/01/09 06:15:31  5-MIN KDBQ 011215Z 29009KT 10SM CLR M04/M08 A2985 1140 74 -800 290/09 RMK AO2 PNO $
94908KDBQ DBQ20090201062010202/01/09 06:20:31  5-MIN KDBQ 011220Z 29009KT 10SM CLR M04/M08 A2985 1140 74 -800 290/09 RMK AO2 PNO $
94908KDBQ DBQ20090201062510202/01/09 06:25:31  5-MIN KDBQ 011225Z 28010KT 10SM CLR M04/M08 A2986 1140 74 -800 280/10 RMK AO2 PNO $
94908KDBQ DBQ20090201063010202/01/09 06:30:31  5-MIN KDBQ 011230Z 28010KT 10SM CLR M04/M08 A2986 1140 74 -800 280/10 RMK AO2 PNO $
94908KDBQ DBQ20090201063510202/01/09 06:35:31  5-MIN KDBQ 011235Z 29009KT 10SM CLR M04/M08 A2986 1130 74 -800 290/09 RMK AO2 PNO $
94908KDBQ DBQ20090201064010202/01/09 06:40:31  5-MIN KDBQ 011240Z 28008KT 10SM CLR M04/M08 A2986 1130 71 -800 280/08 RMK AO2 PNO $
94908KDBQ DBQ20090201064510202/01/09 06:45:31  5-MIN KDBQ 011245Z 28008KT 10SM CLR M04/M08 A2986 1130 74 -900 280/08 RMK AO2 PNO $
94908KDBQ DBQ20090201065011902/01/09 06:50:31  5-MIN KDBQ 011250Z 27007KT 10SM CLR M04/M08 A2987 1130 74 -900 270/07 RMK AO2 SLP126 T10441083 PNO $
94908KDBQ DBQ20090201065510302/01/09 06:55:31  5-MIN KDBQ 011255Z 28008KT 10SM CLR M05/M08 A2987 1130 77 -1000 280/08 RMK AO2 PNO $
94908KDBQ DBQ20090201070010302/01/09 07:00:31  5-MIN KDBQ 011300Z 28009KT 10SM CLR M05/M08 A2987 1120 77 -1000 280/09 RMK AO2 PNO $
94908KDBQ DBQ20090201070510202/01/09 07:05:31  5-MIN KDBQ 011305Z 28008KT 10SM CLR M04/M08 A2987 1120 74 -900 280/08 RMK AO2 PNO $
94908KDBQ DBQ20090201071010302/01/09 07:10:31  5-MIN KDBQ 011310Z 28008KT 10SM CLR M05/M08 A2987 1120 77 -1000 280/08 RMK AO2 PNO $
94908KDBQ DBQ20090201071510302/01/09 07:15:31  5-MIN KDBQ 011315Z 28009KT 10SM CLR M05/M08 A2988 1120 77 -1000 280/09 RMK AO2 PNO $
94908KDBQ DBQ20090201072010202/01/09 07:20:31  5-MIN KDBQ 011320Z 28009KT 10SM CLR M04/M08 A2988 1110 74 -900 280/09 RMK AO2 PNO $
94908KDBQ DBQ20090201072510202/01/09 07:25:31  5-MIN KDBQ 011325Z 28009KT 10SM CLR M04/M08 A2988 1110 74 -900 280/09 RMK AO2 PNO $
94908KDBQ DBQ20090201073010202/01/09 07:30:31  5-MIN KDBQ 011330Z 28009KT 10SM CLR M04/M08 A2989 1110 74 -900 280/09 RMK AO2 PNO $
94908KDBQ DBQ20090201073510202/01/09 07:35:31  5-MIN KDBQ 011335Z 28009KT 10SM CLR M04/M08 A2989 1110 74 -900 280/09 RMK AO2 PNO $
94908KDBQ DBQ20090201074010202/01/09 07:40:31  5-MIN KDBQ 011340Z 28008KT 10SM CLR M04/M08 A2989 1110 74 -900 280/08 RMK AO2 PNO $
94908KDBQ DBQ20090201074510202/01/09 07:45:31  5-MIN KDBQ 011345Z 27008KT 10SM CLR M04/M09 A2989 1100 71 -900 270/08 RMK AO2 PNO $
94908KDBQ DBQ20090201075012002/01/09 07:50:31  5-MIN KDBQ 011350Z 27008KT 10SM CLR M05/M09 A2990 1100 74 -1000 270/08 RMK AO2 SLP136 T10501089 PNO $
94908KDBQ DBQ20090201075510302/01/09 07:55:31  5-MIN KDBQ 011355Z 26008KT 10SM CLR M05/M09 A2990 1100 74 -1000 260/08 RMK AO2 PNO $
94908KDBQ DBQ20090201080010302/01/09 08:00:31  5-MIN KDBQ 011400Z 26007KT 10SM CLR M05/M09 A2990 1100 74 -1000 260/07 RMK AO2 PNO $
94908KDBQ DBQ20090201080510302/01/09 08:05:31  5-MIN KDBQ 011405Z 26007KT 10SM CLR M05/M09 A2990 1090 74 -1000 260/07 RMK AO2 PNO $
94908KDBQ DBQ20090201081010302/01/09 08:10:31  5-MIN KDBQ 011410Z 26007KT 10SM CLR M05/M09 A2991 1090 74 -1000 260/07 RMK AO2 PNO $
94908KDBQ DBQ20090201081510302/01/09 08:15:31  5-MIN KDBQ 011415Z 27008KT 10SM CLR M05/M09 A2991 1090 74 -1000 260/08 RMK AO2 PNO $
94908KDBQ DBQ20090201082010302/01/09 08:20:31  5-MIN KDBQ 011420Z 27007KT 10SM CLR M05/M09 A2991 1090 74 -1000 270/07 RMK AO2 PNO $
94908KDBQ DBQ20090201082510302/01/09 08:25:31  5-MIN KDBQ 011425Z 28008KT 10SM CLR M05/M09 A2991 1090 74 -1000 270/08 RMK AO2 PNO $
94908KDBQ DBQ20090201083010302/01/09 08:30:31  5-MIN KDBQ 011430Z 28008KT 10SM CLR M05/M09 A2991 1090 74 -1000 280/08 RMK AO2 PNO $
94908KDBQ DBQ20090201083510302/01/09 08:35:31  5-MIN KDBQ 011435Z 27007KT 10SM CLR M05/M09 A2992 1080 74 -1000 270/07 RMK AO2 PNO $
94908KDBQ DBQ20090201084010302/01/09 08:40:31  5-MIN KDBQ 011440Z 28005KT 10SM CLR M05/M09 A2992 1080 74 -1000 280/05 RMK AO2 PNO $
94908KDBQ DBQ20090201084510302/01/09 08:45:31  5-MIN KDBQ 011445Z 28005KT 10SM CLR M05/M09 A2992 1080 74 -1000 280/05 RMK AO2 PNO $
94908KDBQ DBQ20090201085013202/01/09 08:50:31  5-MIN KDBQ 011450Z 27005KT 10SM CLR M04/M09 A2992 1080 71 -1000 270/05 RMK AO2 SLP144 6//// T10441089 53020 PNO $
94908KDBQ DBQ20090201085510302/01/09 08:55:31  5-MIN KDBQ 011455Z 27005KT 10SM CLR M04/M09 A2992 1080 71 -1000 270/05 RMK AO2 PNO $
94908KDBQ DBQ20090201090010302/01/09 09:00:31  5-MIN KDBQ 011500Z 27005KT 10SM CLR M04/M09 A2992 1080 71 -1000 270/05 RMK AO2 PNO $
94908KDBQ DBQ20090201090510302/01/09 09:05:31  5-MIN KDBQ 011505Z 26005KT 10SM CLR M04/M09 A2992 1080 71 -1000 260/05 RMK AO2 PNO $
94908KDBQ DBQ20090201091010302/01/09 09:10:31  5-MIN KDBQ 011510Z 26004KT 10SM CLR M04/M08 A2993 1070 74 -1000 260/04 RMK AO2 PNO $
94908KDBQ DBQ20090201091510302/01/09 09:15:31  5-MIN KDBQ 011515Z 26004KT 10SM CLR M04/M09 A2993 1070 71 -1000 260/04 RMK AO2 PNO $
94908KDBQ DBQ20090201092010202/01/09 09:20:31  5-MIN KDBQ 011520Z 26004KT 10SM CLR M04/M08 A2993 1070 71 -900 260/04 RMK AO2 PNO $
94908KDBQ DBQ20090201092510302/01/09 09:25:31  5-MIN KDBQ 011525Z 25005KT 10SM CLR M04/M08 A2993 1070 74 -1000 250/05 RMK AO2 PNO $
94908KDBQ DBQ20090201093010302/01/09 09:30:31  5-MIN KDBQ 011530Z 26003KT 10SM CLR M04/M08 A2993 1070 74 -1000 260/03 RMK AO2 PNO $
94908KDBQ DBQ20090201093510202/01/09 09:35:31  5-MIN KDBQ 011535Z 26004KT 10SM CLR M04/M08 A2993 1070 71 -900 260/04 RMK AO2 PNO $
94908KDBQ DBQ20090201094010202/01/09 09:40:31  5-MIN KDBQ 011540Z 28004KT 10SM CLR M04/M08 A2994 1060 71 -900 280/04 RMK AO2 PNO $
94908KDBQ DBQ20090201094510202/01/09 09:45:31  5-MIN KDBQ 011545Z 28004KT 10SM CLR M03/M08 A2994 1060 68 -800 280/04 RMK AO2 PNO $
94908KDBQ DBQ20090201095011902/01/09 09:50:31  5-MIN KDBQ 011550Z 29005KT 10SM CLR M03/M08 A2994 1060 68 -800 280/05 RMK AO2 SLP151 T10331083 PNO $
94908KDBQ DBQ20090201095510202/01/09 09:55:31  5-MIN KDBQ 011555Z 29007KT 10SM CLR M03/M08 A2994 1060 68 -800 290/07 RMK AO2 PNO $
94908KDBQ DBQ20090201100010202/01/09 10:00:31  5-MIN KDBQ 011600Z 30008KT 10SM CLR M03/M08 A2994 1060 66 -800 300/08 RMK AO2 PNO $
94908KDBQ DBQ20090201100510202/01/09 10:05:31  5-MIN KDBQ 011605Z 29009KT 10SM CLR M03/M08 A2994 1060 66 -800 290/09 RMK AO2 PNO $
94908KDBQ DBQ20090201101010202/01/09 10:10:31  5-MIN KDBQ 011610Z 30007KT 10SM CLR M03/M08 A2994 1060 66 -800 300/07 RMK AO2 PNO $
94908KDBQ DBQ20090201101510202/01/09 10:15:31  5-MIN KDBQ 011615Z 30006KT 10SM CLR M03/M08 A2994 1060 66 -800 290/06 RMK AO2 PNO $
94908KDBQ DBQ20090201102010202/01/09 10:20:31  5-MIN KDBQ 011620Z 29006KT 10SM CLR M03/M08 A2994 1060 66 -800 290/06 RMK AO2 PNO $
94908KDBQ DBQ20090201102510202/01/09 10:25:31  5-MIN KDBQ 011625Z 28005KT 10SM CLR M03/M08 A2994 1060 66 -800 280/05 RMK AO2 PNO $
94908KDBQ DBQ20090201103010202/01/09 10:30:31  5-MIN KDBQ 011630Z 28005KT 10SM CLR M03/M08 A2994 1060 68 -800 280/05 RMK AO2 PNO $
94908KDBQ DBQ20090201103510202/01/09 10:35:31  5-MIN KDBQ 011635Z 28005KT 10SM CLR M03/M08 A2994 1060 66 -800 280/05 RMK AO2 PNO $
94908KDBQ DBQ20090201104010202/01/09 10:40:31  5-MIN KDBQ 011640Z 29005KT 10SM CLR M03/M08 A2994 1060 66 -800 290/05 RMK AO2 PNO $
94908KDBQ DBQ20090201104510202/01/09 10:45:31  5-MIN KDBQ 011645Z 27005KT 10SM CLR M03/M08 A2994 1060 66 -800 270/05 RMK AO2 PNO $
94908KDBQ DBQ20090201105011902/01/09 10:50:31  5-MIN KDBQ 011650Z 25004KT 10SM CLR M03/M08 A2994 1060 66 -800 250/04 RMK AO2 SLP152 T10281083 PNO $
94908KDBQ DBQ20090201105510202/01/09 10:55:31  5-MIN KDBQ 011655Z 25003KT 10SM CLR M03/M08 A2994 1060 71 -800 250/03 RMK AO2 PNO $
94908KDBQ DBQ20090201110010202/01/09 11:00:31  5-MIN KDBQ 011700Z 28004KT 10SM CLR M03/M08 A2994 1060 68 -800 280/04 RMK AO2 PNO $
94908KDBQ DBQ20090201110510202/01/09 11:05:31  5-MIN KDBQ 011705Z 29005KT 10SM CLR M03/M08 A2994 1060 66 -800 290/05 RMK AO2 PNO $
94908KDBQ DBQ20090201111010202/01/09 11:10:31  5-MIN KDBQ 011710Z 00000KT 10SM CLR M03/M08 A2994 1060 66 -800 000/00 RMK AO2 PNO $
94908KDBQ DBQ20090201111510202/01/09 11:15:31  5-MIN KDBQ 011715Z 23003KT 10SM CLR M03/M08 A2994 1060 68 -800 230/03 RMK AO2 PNO $
94908KDBQ DBQ20090201112010202/01/09 11:20:31  5-MIN KDBQ 011720Z 22005KT 10SM CLR M03/M08 A2994 1060 68 -800 220/05 RMK AO2 PNO $
94908KDBQ DBQ20090201112510202/01/09 11:25:31  5-MIN KDBQ 011725Z 23006KT 10SM CLR M02/M07 A2994 1060 69 -700 220/06 RMK AO2 PNO $
94908KDBQ DBQ20090201113010202/01/09 11:30:31  5-MIN KDBQ 011730Z 24007KT 10SM CLR M02/M07 A2994 1060 69 -700 240/07 RMK AO2 PNO $
94908KDBQ DBQ20090201113510202/01/09 11:35:31  5-MIN KDBQ 011735Z 25007KT 10SM CLR M02/M07 A2994 1060 69 -700 250/07 RMK AO2 PNO $
94908KDBQ DBQ20090201114010202/01/09 11:40:31  5-MIN KDBQ 011740Z 24007KT 10SM CLR M02/M07 A2994 1060 69 -700 240/07 RMK AO2 PNO $
94908KDBQ DBQ20090201114510202/01/09 11:45:31  5-MIN KDBQ 011745Z 24007KT 10SM CLR M02/M07 A2994 1060 69 -700 240/07 RMK AO2 PNO $
94908KDBQ DBQ20090201115014302/01/09 11:50:31  5-MIN KDBQ 011750Z 24004KT 10SM CLR M02/M07 A2994 1060 69 -700 240/04 RMK AO2 SLP151 6//// T10221072 11022 21050 51026 PNO $
94908KDBQ DBQ20090201115510202/01/09 11:55:31  5-MIN KDBQ 011755Z 22005KT 10SM CLR M02/M07 A2994 1060 66 -600 220/05 RMK AO2 PNO $
94908KDBQ DBQ20090201120010202/01/09 12:00:31  5-MIN KDBQ 011800Z 23008KT 10SM CLR M02/M07 A2994 1060 69 -600 230/08 RMK AO2 PNO $
94908KDBQ DBQ20090201120510202/01/09 12:05:31  5-MIN KDBQ 011805Z 24007KT 10SM CLR M01/M07 A2994 1060 66 -600 240/07 RMK AO2 PNO $
94908KDBQ DBQ20090201121010202/01/09 12:10:31  5-MIN KDBQ 011810Z 25010KT 10SM CLR M01/M06 A2993 1070 69 -600 240/10 RMK AO2 PNO $
94908KDBQ DBQ20090201121510202/01/09 12:15:31  5-MIN KDBQ 011815Z 25011KT 10SM CLR M01/M07 A2993 1070 66 -600 250/11 RMK AO2 PNO $
94908KDBQ DBQ20090201122010202/01/09 12:20:31  5-MIN KDBQ 011820Z 25010KT 10SM CLR M01/M06 A2993 1070 69 -600 250/10 RMK AO2 PNO $
94908KDBQ DBQ20090201122510202/01/09 12:25:31  5-MIN KDBQ 011825Z 25010KT 10SM CLR M01/M06 A2993 1070 69 -600 250/10 RMK AO2 PNO $
94908KDBQ DBQ20090201123010202/01/09 12:30:31  5-MIN KDBQ 011830Z 26010KT 10SM CLR M01/M06 A2993 1070 66 -500 260/10 RMK AO2 PNO $
94908KDBQ DBQ20090201123510202/01/09 12:35:31  5-MIN KDBQ 011835Z 25011KT 10SM CLR M01/M07 A2993 1070 63 -500 250/11 RMK AO2 PNO $
94908KDBQ DBQ20090201124010202/01/09 12:40:31  5-MIN KDBQ 011840Z 25011KT 10SM CLR M01/M06 A2993 1070 66 -500 250/11 RMK AO2 PNO $
94908KDBQ DBQ20090201124510202/01/09 12:45:31  5-MIN KDBQ 011845Z 25011KT 10SM CLR M01/M06 A2993 1070 66 -500 250/11 RMK AO2 PNO $
94908KDBQ DBQ20090201125011902/01/09 12:50:31  5-MIN KDBQ 011850Z 25012KT 10SM CLR M01/M06 A2993 1070 66 -500 250/12 RMK AO2 SLP146 T10061061 PNO $
94908KDBQ DBQ20090201125510102/01/09 12:55:31  5-MIN KDBQ 011855Z 25014KT 10SM CLR 00/M06 A2993 1070 63 -400 250/14 RMK AO2 PNO $
94908KDBQ DBQ20090201130010102/01/09 13:00:31  5-MIN KDBQ 011900Z 24012KT 10SM CLR 00/M06 A2993 1070 63 -400 240/12 RMK AO2 PNO $
94908KDBQ DBQ20090201130510202/01/09 13:05:31  5-MIN KDBQ 011905Z 24012KT 10SM CLR M01/M05 A2993 1070 72 -500 240/12 RMK AO2 PNO $
94908KDBQ DBQ20090201131010202/01/09 13:10:31  5-MIN KDBQ 011910Z 24014KT 10SM CLR M01/M06 A2993 1070 69 -500 240/14 RMK AO2 PNO $
94908KDBQ DBQ20090201131510202/01/09 13:15:31  5-MIN KDBQ 011915Z 24013KT 10SM CLR M01/M06 A2993 1070 69 -500 240/13 RMK AO2 PNO $
94908KDBQ DBQ20090201144010102/01/09 14:40:31  5-MIN KDBQ 012040Z 27015KT 10SM CLR 01/M06 A2995 1050 61 -300 270/15 RMK AO2 PNO $
94908KDBQ DBQ20090201144510102/01/09 14:45:31  5-MIN KDBQ 012045Z 28014KT 10SM CLR 01/M06 A2995 1050 61 -300 280/14 RMK AO2 PNO $
94908KDBQ DBQ20090201145013502/01/09 14:50:31  5-MIN KDBQ 012050Z AUTO 28013KT 10SM CLR 01/M06 A2995 1050 61 -300 280/13 RMK AO2 SLP156 6//// T00111056 50006 PNO $
94908KDBQ DBQ20090201145510602/01/09 14:55:31  5-MIN KDBQ 012055Z AUTO 28015KT 10SM CLR 01/M06 A2996 1050 61 -300 280/15 RMK AO2 PNO $
94908KDBQ DBQ20090201150010602/01/09 15:00:31  5-MIN KDBQ 012100Z AUTO 27014KT 10SM CLR 01/M06 A2996 1040 61 -300 270/14 RMK AO2 PNO $
94908KDBQ DBQ20090201150510602/01/09 15:05:31  5-MIN KDBQ 012105Z AUTO 28015KT 10SM CLR 01/M05 A2996 1040 66 -400 280/15 RMK AO2 PNO $
94908KDBQ DBQ20090201151010102/01/09 15:10:31  5-MIN KDBQ 012110Z 27014KT 10SM CLR 01/M05 A2996 1040 64 -300 270/14 RMK AO2 PNO $
94908KDBQ DBQ20090201151510102/01/09 15:15:31  5-MIN KDBQ 012115Z 28014KT 10SM CLR 01/M05 A2996 1040 64 -300 280/14 RMK AO2 PNO $
94908KDBQ DBQ20090201152010102/01/09 15:20:31  5-MIN KDBQ 012120Z 27014KT 10SM CLR 01/M05 A2996 1040 64 -300 270/14 RMK AO2 PNO $
94908KDBQ DBQ20090201152510102/01/09 15:25:31  5-MIN KDBQ 012125Z 27014KT 10SM CLR 01/M05 A2996 1040 64 -300 270/14 RMK AO2 PNO $
94908KDBQ DBQ20090201153010102/01/09 15:30:31  5-MIN KDBQ 012130Z 27016KT 10SM CLR 01/M06 A2996 1040 61 -300 270/16 RMK AO2 PNO $
94908KDBQ DBQ20090201153510102/01/09 15:35:31  5-MIN KDBQ 012135Z 27012KT 10SM CLR 01/M05 A2996 1040 64 -300 270/12 RMK AO2 PNO $
94908KDBQ DBQ20090201154010102/01/09 15:40:31  5-MIN KDBQ 012140Z 27015KT 10SM CLR 01/M05 A2996 1040 64 -300 270/15 RMK AO2 PNO $
94908KDBQ DBQ20090201154510102/01/09 15:45:31  5-MIN KDBQ 012145Z 27014KT 10SM CLR 01/M06 A2996 1040 61 -300 270/14 RMK AO2 PNO $
94908KDBQ DBQ20090201155011802/01/09 15:50:31  5-MIN KDBQ 012150Z 27014KT 10SM CLR 01/M06 A2997 1040 61 -300 270/14 RMK AO2 SLP160 T00111056 PNO $
94908KDBQ DBQ20090201155510102/01/09 15:55:31  5-MIN KDBQ 012155Z 27014KT 10SM CLR 01/M06 A2997 1030 63 -400 270/14 RMK AO2 PNO $
94908KDBQ DBQ20090201160010102/01/09 16:00:31  5-MIN KDBQ 012200Z 27014KT 10SM CLR 01/M05 A2997 1030 66 -400 270/14 RMK AO2 PNO $
94908KDBQ DBQ20090201160510102/01/09 16:05:31  5-MIN KDBQ 012205Z 27015KT 10SM CLR 01/M06 A2997 1030 63 -400 270/15 RMK AO2 PNO $
94908KDBQ DBQ20090201161010702/01/09 16:10:31  5-MIN KDBQ 012210Z 29015G24KT 10SM CLR 01/M06 A2997 1030 63 -400 290/15G24 RMK AO2 PNO $
94908KDBQ DBQ20090201161510702/01/09 16:15:31  5-MIN KDBQ 012215Z 29014G24KT 10SM CLR 01/M06 A2998 1020 61 -400 280/14G24 RMK AO2 PNO $
94908KDBQ DBQ20090201162010102/01/09 16:20:31  5-MIN KDBQ 012220Z 29014KT 10SM CLR 01/M06 A2998 1020 63 -400 290/14 RMK AO2 PNO $
94908KDBQ DBQ20090201162510702/01/09 16:25:31  5-MIN KDBQ 012225Z 28013G21KT 10SM CLR 01/M06 A2998 1020 61 -400 280/13G21 RMK AO2 PNO $
94908KDBQ DBQ20090201163010702/01/09 16:30:31  5-MIN KDBQ 012230Z 28013G21KT 10SM CLR 01/M06 A2998 1020 63 -400 280/13G21 RMK AO2 PNO $
94908KDBQ DBQ20090201163510102/01/09 16:35:31  5-MIN KDBQ 012235Z 28014KT 10SM CLR 00/M06 A2998 1020 66 -500 280/14 RMK AO2 PNO $
94908KDBQ DBQ20090201164010102/01/09 16:40:31  5-MIN KDBQ 012240Z 28014KT 10SM CLR 00/M06 A2998 1020 63 -500 280/14 RMK AO2 PNO $
94908KDBQ DBQ20090201164510702/01/09 16:45:31  5-MIN KDBQ 012245Z 28017G21KT 10SM CLR 00/M06 A2998 1020 63 -500 280/17G21 RMK AO2 PNO $
94908KDBQ DBQ20090201165012402/01/09 16:50:31  5-MIN KDBQ 012250Z 28015G21KT 10SM CLR 00/M06 A2998 1020 63 -500 280/15G21 RMK AO2 SLP167 T00001061 PNO $
94908KDBQ DBQ20090201165510102/01/09 16:55:31  5-MIN KDBQ 012255Z 28013KT 10SM CLR 00/M06 A2998 1020 63 -500 280/13 RMK AO2 PNO $
94908KDBQ DBQ20090201170010202/01/09 17:00:31  5-MIN KDBQ 012300Z 28012KT 10SM CLR M01/M06 A2998 1020 66 -500 280/12 RMK AO2 PNO $
94908KDBQ DBQ20090201170510202/01/09 17:05:31  5-MIN KDBQ 012305Z 27011KT 10SM CLR M01/M06 A2998 1020 66 -500 270/11 RMK AO2 PNO $
94908KDBQ DBQ20090201171010202/01/09 17:10:31  5-MIN KDBQ 012310Z 27013KT 10SM CLR M01/M06 A2999 1020 66 -500 270/13 RMK AO2 PNO $
94908KDBQ DBQ20090201171510202/01/09 17:15:31  5-MIN KDBQ 012315Z 28015KT 10SM CLR M01/M06 A2999 1010 66 -500 280/15 RMK AO2 PNO $
94908KDBQ DBQ20090201172010202/01/09 17:20:31  5-MIN KDBQ 012320Z 28015KT 10SM CLR M01/M06 A2999 1010 66 -600 280/15 RMK AO2 PNO $
94908KDBQ DBQ20090201172510802/01/09 17:25:31  5-MIN KDBQ 012325Z 28014G21KT 10SM CLR M01/M06 A2999 1010 66 -600 280/14G21 RMK AO2 PNO $
94908KDBQ DBQ20090201173010202/01/09 17:30:31  5-MIN KDBQ 012330Z 28014KT 10SM CLR M01/M06 A3000 1010 66 -600 280/14 RMK AO2 PNO $
94908KDBQ DBQ20090201173510202/01/09 17:35:31  5-MIN KDBQ 012335Z 28015KT 10SM CLR M01/M06 A3000 1010 69 -600 280/15 RMK AO2 PNO $
94908KDBQ DBQ20090201174010202/01/09 17:40:31  5-MIN KDBQ 012340Z 28015KT 10SM CLR M01/M06 A3000 1010 69 -600 280/15 RMK AO2 PNO $
94908KDBQ DBQ20090201174510202/01/09 17:45:31  5-MIN KDBQ 012345Z 28016KT 10SM CLR M01/M06 A3000 1000 69 -600 280/16 RMK AO2 PNO $
94908KDBQ DBQ20090201175014302/01/09 17:50:31  5-MIN KDBQ 012350Z 28015KT 10SM CLR M01/M06 A3000 1000 69 -600 280/15 RMK AO2 SLP174 6//// T10111061 10011 21017 53005 PNO $
94908KDBQ DBQ20090201175510202/01/09 17:55:31  5-MIN KDBQ 012355Z 28014KT 10SM CLR M01/M06 A3001 1000 69 -600 280/14 RMK AO2 PNO $
94908KDBQ DBQ20090201180010202/01/09 18:00:31  5-MIN KDBQ 020000Z 28014KT 10SM CLR M01/M06 A3001 1000 69 -600 280/14 RMK AO2 PNO $
94908KDBQ DBQ20090201180510202/01/09 18:05:31  5-MIN KDBQ 020005Z 28012KT 10SM CLR M01/M06 A3001 1000 69 -600 280/12 RMK AO2 PNO $
94908KDBQ DBQ20090201181010102/01/09 18:10:31  5-MIN KDBQ 020010Z 28012KT 10SM CLR M01/M06 A3001 990 69 -600 280/12 RMK AO2 PNO $
94908KDBQ DBQ20090201181510102/01/09 18:15:31  5-MIN KDBQ 020015Z 28012KT 10SM CLR M02/M06 A3001 990 72 -700 280/12 RMK AO2 PNO $
94908KDBQ DBQ20090201182010102/01/09 18:20:31  5-MIN KDBQ 020020Z 28011KT 10SM CLR M02/M06 A3001 990 72 -700 270/11 RMK AO2 PNO $
94908KDBQ DBQ20090201182510102/01/09 18:25:31  5-MIN KDBQ 020025Z 27010KT 10SM CLR M02/M07 A3001 990 69 -700 270/10 RMK AO2 PNO $
94908KDBQ DBQ20090201183010102/01/09 18:30:31  5-MIN KDBQ 020030Z 27010KT 10SM CLR M02/M07 A3001 990 72 -800 270/10 RMK AO2 PNO $
94908KDBQ DBQ20090201183510202/01/09 18:35:31  5-MIN KDBQ 020035Z 27011KT 10SM CLR M02/M07 A3001 1000 72 -800 260/11 RMK AO2 PNO $
94908KDBQ DBQ20090201184010102/01/09 18:40:31  5-MIN KDBQ 020040Z 27010KT 10SM CLR M02/M07 A3001 990 72 -800 270/10 RMK AO2 PNO $
94908KDBQ DBQ20090201184510202/01/09 18:45:31  5-MIN KDBQ 020045Z 27009KT 10SM CLR M02/M07 A3001 1000 72 -800 270/09 RMK AO2 PNO $
94908KDBQ DBQ20090201185011902/01/09 18:50:31  5-MIN KDBQ 020050Z 27009KT 10SM CLR M03/M07 A3001 1000 75 -900 270/09 RMK AO2 SLP177 T10281067 PNO $
94908KDBQ DBQ20090201185510202/01/09 18:55:31  5-MIN KDBQ 020055Z 27009KT 10SM CLR M02/M07 A3001 1000 72 -800 270/09 RMK AO2 PNO $
94908KDBQ DBQ20090201190010202/01/09 19:00:31  5-MIN KDBQ 020100Z 27009KT 10SM CLR M02/M07 A3001 1000 72 -800 270/09 RMK AO2 PNO $
94908KDBQ DBQ20090201190510202/01/09 19:05:31  5-MIN KDBQ 020105Z 27009KT 10SM CLR M02/M07 A3001 1000 72 -800 270/09 RMK AO2 PNO $
94908KDBQ DBQ20090201191010202/01/09 19:10:31  5-MIN KDBQ 020110Z 27010KT 10SM CLR M03/M07 A3001 1000 75 -900 270/10 RMK AO2 PNO $
94908KDBQ DBQ20090201191510202/01/09 19:15:31  5-MIN KDBQ 020115Z 27010KT 10SM CLR M03/M07 A3001 1000 75 -900 270/10 RMK AO2 PNO $
94908KDBQ DBQ20090201192010202/01/09 19:20:31  5-MIN KDBQ 020120Z 27011KT 10SM CLR M03/M07 A3001 1000 75 -900 270/11 RMK AO2 PNO $
94908KDBQ DBQ20090201192510202/01/09 19:25:31  5-MIN KDBQ 020125Z 27011KT 10SM CLR M03/M07 A3001 1000 75 -900 270/11 RMK AO2 PNO $
94908KDBQ DBQ20090201193010202/01/09 19:30:31  5-MIN KDBQ 020130Z 26008KT 10SM CLR M03/M07 A3001 1000 75 -900 260/08 RMK AO2 PNO $
94908KDBQ DBQ20090201193510202/01/09 19:35:31  5-MIN KDBQ 020135Z 26009KT 10SM CLR M03/M07 A3001 1000 74 -900 260/09 RMK AO2 PNO $
94908KDBQ DBQ20090201194010202/01/09 19:40:31  5-MIN KDBQ 020140Z 26009KT 10SM CLR M03/M07 A3001 1000 74 -900 260/09 RMK AO2 PNO $
94908KDBQ DBQ20090201194510802/01/09 19:45:31  5-MIN KDBQ 020145Z AUTO 25008KT 10SM CLR M04/M07 A3001 1000 78 -1000 250/08 RMK AO2 PNO $
94908KDBQ DBQ20090201195012502/01/09 19:50:31  5-MIN KDBQ 020150Z AUTO 24005KT 10SM CLR M04/M08 A3001 1000 78 -1100 240/05 RMK AO2 SLP177 T10441078 PNO $
94908KDBQ DBQ20090201195510802/01/09 19:55:31  5-MIN KDBQ 020155Z AUTO 25006KT 10SM CLR M05/M08 A3001 1000 81 -1100 250/06 RMK AO2 PNO $
94908KDBQ DBQ20090201200010802/01/09 20:00:31  5-MIN KDBQ 020200Z AUTO 25007KT 10SM CLR M04/M08 A3001 1000 78 -1100 250/07 RMK AO2 PNO $
94908KDBQ DBQ20090201200510802/01/09 20:05:31  5-MIN KDBQ 020205Z AUTO 24006KT 10SM CLR M05/M08 A3001 1000 81 -1100 230/06 RMK AO2 PNO $
94908KDBQ DBQ20090201201010802/01/09 20:10:31  5-MIN KDBQ 020210Z AUTO 24007KT 10SM CLR M05/M08 A3001 1000 77 -1100 240/07 RMK AO2 PNO $
94908KDBQ DBQ20090201201510802/01/09 20:15:31  5-MIN KDBQ 020215Z AUTO 24006KT 10SM CLR M05/M08 A3001 1000 81 -1100 240/06 RMK AO2 PNO $
94908KDBQ DBQ20090201202010802/01/09 20:20:31  5-MIN KDBQ 020220Z AUTO 25007KT 10SM CLR M06/M08 A3001 1000 81 -1200 250/07 RMK AO2 PNO $
94908KDBQ DBQ20090201202510802/01/09 20:25:31  5-MIN KDBQ 020225Z AUTO 25008KT 10SM CLR M05/M08 A3001 1000 81 -1100 250/08 RMK AO2 PNO $
94908KDBQ DBQ20090201203010802/01/09 20:30:31  5-MIN KDBQ 020230Z AUTO 25008KT 10SM CLR M04/M08 A3001 1000 78 -1100 250/08 RMK AO2 PNO $
94908KDBQ DBQ20090201203510802/01/09 20:35:31  5-MIN KDBQ 020235Z AUTO 25008KT 10SM CLR M05/M08 A3001 1000 81 -1100 250/08 RMK AO2 PNO $
94908KDBQ DBQ20090201204010802/01/09 20:40:31  5-MIN KDBQ 020240Z AUTO 26008KT 10SM CLR M05/M08 A3001 1000 81 -1100 250/08 RMK AO2 PNO $
94908KDBQ DBQ20090201204510802/01/09 20:45:31  5-MIN KDBQ 020245Z AUTO 25007KT 10SM CLR M05/M08 A3001 1000 81 -1100 250/07 RMK AO2 PNO $
94908KDBQ DBQ20090201205013702/01/09 20:50:31  5-MIN KDBQ 020250Z AUTO 25008KT 10SM CLR M05/M08 A3001 1000 81 -1100 250/08 RMK AO2 SLP178 6//// T10501078 53017 PNO $
94908KDBQ DBQ20090201205510802/01/09 20:55:31  5-MIN KDBQ 020255Z AUTO 25008KT 10SM CLR M05/M08 A3001 1000 81 -1100 250/08 RMK AO2 PNO $
94908KDBQ DBQ20090201210010702/01/09 21:00:31  5-MIN KDBQ 020300Z AUTO 25008KT 10SM CLR M05/M08 A3001 990 81 -1100 250/08 RMK AO2 PNO $
94908KDBQ DBQ20090201210510702/01/09 21:05:31  5-MIN KDBQ 020305Z AUTO 25008KT 10SM CLR M05/M08 A3001 990 81 -1100 250/08 RMK AO2 PNO $
94908KDBQ DBQ20090201211010702/01/09 21:10:31  5-MIN KDBQ 020310Z AUTO 25008KT 10SM CLR M05/M08 A3001 990 81 -1100 250/08 RMK AO2 PNO $
94908KDBQ DBQ20090201211510702/01/09 21:15:31  5-MIN KDBQ 020315Z AUTO 25008KT 10SM CLR M05/M08 A3001 990 81 -1100 250/08 RMK AO2 PNO $
94908KDBQ DBQ20090201212010702/01/09 21:20:31  5-MIN KDBQ 020320Z AUTO 26007KT 10SM CLR M05/M08 A3001 990 81 -1100 250/07 RMK AO2 PNO $
94908KDBQ DBQ20090201212510702/01/09 21:25:31  5-MIN KDBQ 020325Z AUTO 26007KT 10SM CLR M05/M08 A3001 990 81 -1100 260/07 RMK AO2 PNO $
94908KDBQ DBQ20090201213010702/01/09 21:30:31  5-MIN KDBQ 020330Z AUTO 26008KT 10SM CLR M05/M08 A3001 990 81 -1100 250/08 RMK AO2 PNO $
94908KDBQ DBQ20090201213510702/01/09 21:35:31  5-MIN KDBQ 020335Z AUTO 26008KT 10SM CLR M05/M08 A3001 990 81 -1100 260/08 RMK AO2 PNO $
94908KDBQ DBQ20090201214010702/01/09 21:40:31  5-MIN KDBQ 020340Z AUTO 26009KT 10SM CLR M04/M08 A3001 990 78 -1100 260/09 RMK AO2 PNO $
94908KDBQ DBQ20090201214510702/01/09 21:45:31  5-MIN KDBQ 020345Z AUTO 26011KT 10SM CLR M04/M07 A3002 990 78 -1000 260/11 RMK AO2 PNO $
94908KDBQ DBQ20090201215012402/01/09 21:50:31  5-MIN KDBQ 020350Z AUTO 26010KT 10SM CLR M04/M08 A3002 990 78 -1100 260/10 RMK AO2 SLP180 T10441078 PNO $
94908KDBQ DBQ20090201215510702/01/09 21:55:31  5-MIN KDBQ 020355Z AUTO 27010KT 10SM CLR M04/M08 A3002 990 78 -1100 270/10 RMK AO2 PNO $
94908KDBQ DBQ20090201220010702/01/09 22:00:31  5-MIN KDBQ 020400Z AUTO 27012KT 10SM CLR M04/M08 A3002 990 78 -1100 270/12 RMK AO2 PNO $
94908KDBQ DBQ20090201220510702/01/09 22:05:31  5-MIN KDBQ 020405Z AUTO 27012KT 10SM CLR M04/M08 A3002 990 74 -1000 270/12 RMK AO2 PNO $
94908KDBQ DBQ20090201221010702/01/09 22:10:31  5-MIN KDBQ 020410Z AUTO 28012KT 10SM CLR M04/M08 A3002 980 74 -1000 280/12 RMK AO2 PNO $
94908KDBQ DBQ20090201221510702/01/09 22:15:31  5-MIN KDBQ 020415Z AUTO 28013KT 10SM CLR M04/M07 A3002 980 78 -1000 280/13 RMK AO2 PNO $
94908KDBQ DBQ20090201222010602/01/09 22:20:31  5-MIN KDBQ 020420Z AUTO 28015KT 10SM CLR M03/M07 A3002 980 74 -900 280/15 RMK AO2 PNO $
94908KDBQ DBQ20090201222510702/01/09 22:25:31  5-MIN KDBQ 020425Z AUTO 28015KT 10SM CLR M04/M07 A3002 980 78 -1000 280/15 RMK AO2 PNO $
94908KDBQ DBQ20090201223010702/01/09 22:30:31  5-MIN KDBQ 020430Z AUTO 28015KT 10SM CLR M04/M07 A3002 980 78 -1000 280/15 RMK AO2 PNO $
94908KDBQ DBQ20090201223510702/01/09 22:35:31  5-MIN KDBQ 020435Z AUTO 28015KT 10SM CLR M04/M07 A3002 980 78 -1000 280/15 RMK AO2 PNO $
94908KDBQ DBQ20090201224010702/01/09 22:40:31  5-MIN KDBQ 020440Z AUTO 28014KT 10SM CLR M04/M08 A3003 980 74 -1000 270/14 RMK AO2 PNO $
94908KDBQ DBQ20090201224510702/01/09 22:45:31  5-MIN KDBQ 020445Z AUTO 28013KT 10SM CLR M04/M08 A3002 980 74 -1000 280/13 RMK AO2 PNO $
94908KDBQ DBQ20090201225012402/01/09 22:50:31  5-MIN KDBQ 020450Z AUTO 27013KT 10SM CLR M04/M08 A3002 980 74 -1000 270/13 RMK AO2 SLP182 T10391078 PNO $
94908KDBQ DBQ20090201225510702/01/09 22:55:31  5-MIN KDBQ 020455Z AUTO 27013KT 10SM CLR M04/M08 A3003 980 74 -1000 270/13 RMK AO2 PNO $
94908KDBQ DBQ20090201230010702/01/09 23:00:31  5-MIN KDBQ 020500Z AUTO 27012KT 10SM CLR M04/M08 A3003 980 74 -1000 270/12 RMK AO2 PNO $
94908KDBQ DBQ20090201230510702/01/09 23:05:31  5-MIN KDBQ 020505Z AUTO 27013KT 10SM CLR M04/M08 A3002 980 78 -1100 270/13 RMK AO2 PNO $
94908KDBQ DBQ20090201231010702/01/09 23:10:31  5-MIN KDBQ 020510Z AUTO 27012KT 10SM CLR M04/M08 A3002 980 78 -1100 270/12 RMK AO2 PNO $
94908KDBQ DBQ20090201231510702/01/09 23:15:31  5-MIN KDBQ 020515Z AUTO 27012KT 10SM CLR M04/M08 A3002 990 78 -1100 270/12 RMK AO2 PNO $
94908KDBQ DBQ20090201232010702/01/09 23:20:31  5-MIN KDBQ 020520Z AUTO 28012KT 10SM CLR M04/M08 A3002 980 74 -1100 270/12 RMK AO2 PNO $
94908KDBQ DBQ20090201232510702/01/09 23:25:31  5-MIN KDBQ 020525Z AUTO 28012KT 10SM CLR M04/M08 A3002 990 74 -1100 280/12 RMK AO2 PNO $
94908KDBQ DBQ20090201233010702/01/09 23:30:31  5-MIN KDBQ 020530Z AUTO 28013KT 10SM CLR M04/M08 A3002 990 74 -1100 280/13 RMK AO2 PNO $
94908KDBQ DBQ20090201233510702/01/09 23:35:31  5-MIN KDBQ 020535Z AUTO 28013KT 10SM CLR M04/M08 A3002 990 74 -1100 280/13 RMK AO2 PNO $
94908KDBQ DBQ20090201234010702/01/09 23:40:31  5-MIN KDBQ 020540Z AUTO 28014KT 10SM CLR M04/M08 A3002 990 74 -1100 280/14 RMK AO2 PNO $
94908KDBQ DBQ20090201234510702/01/09 23:45:31  5-MIN KDBQ 020545Z AUTO 28015KT 10SM CLR M04/M08 A3002 990 71 -1000 280/15 RMK AO2 PNO $
94908KDBQ DBQ20090201235015802/01/09 23:50:31  5-MIN KDBQ 020550Z AUTO 28013KT 10SM CLR M04/M08 A3002 990 71 -1000 280/13 RMK AO2 SLP179 6//// T10391083 11011 21056 400111056 51001 PNO $
94908KDBQ DBQ20090201235510702/01/09 23:55:31  5-MIN KDBQ 020555Z AUTO 28013KT 10SM CLR M04/M08 A3002 990 74 -1100 280/13 RMK AO2 PNO $
94908KDBQ DBQ20090202000010702/02/09 00:00:38  5-MIN KDBQ 020600Z AUTO 29012KT 10SM CLR M04/M08 A3002 990 74 -1100 290/12 RMK AO2 PNO $
94908KDBQ DBQ20090202000510702/02/09 00:05:31  5-MIN KDBQ 020605Z AUTO 28011KT 10SM CLR M04/M09 A3002 990 71 -1100 280/11 RMK AO2 PNO $
94908KDBQ DBQ20090202001010702/02/09 00:10:31  5-MIN KDBQ 020610Z AUTO 28013KT 10SM CLR M04/M08 A3001 990 74 -1100 280/13 RMK AO2 PNO $
94908KDBQ DBQ20090202001510702/02/09 00:15:31  5-MIN KDBQ 020615Z AUTO 27012KT 10SM CLR M04/M08 A3001 990 74 -1100 270/12 RMK AO2 PNO $
94908KDBQ DBQ20090202002010702/02/09 00:20:31  5-MIN KDBQ 020620Z AUTO 28013KT 10SM CLR M04/M08 A3001 990 74 -1100 270/13 RMK AO2 PNO $
94908KDBQ DBQ20090202002510702/02/09 00:25:31  5-MIN KDBQ 020625Z AUTO 28012KT 10SM CLR M05/M08 A3001 990 77 -1100 280/12 RMK AO2 PNO $
94908KDBQ DBQ20090202003010802/02/09 00:30:31  5-MIN KDBQ 020630Z AUTO 28012KT 10SM CLR M05/M09 A3001 1000 74 -1100 280/12 RMK AO2 PNO $
94908KDBQ DBQ20090202003510702/02/09 00:35:31  5-MIN KDBQ 020635Z AUTO 28013KT 10SM CLR M05/M08 A3001 990 77 -1100 280/13 RMK AO2 PNO $
94908KDBQ DBQ20090202004010702/02/09 00:40:31  5-MIN KDBQ 020640Z AUTO 28012KT 10SM CLR M05/M08 A3001 990 77 -1100 280/12 RMK AO2 PNO $
94908KDBQ DBQ20090202004510802/02/09 00:45:31  5-MIN KDBQ 020645Z AUTO 28013KT 10SM CLR M05/M09 A3001 1000 74 -1100 280/13 RMK AO2 PNO $
94908KDBQ DBQ20090202005012402/02/09 00:50:31  5-MIN KDBQ 020650Z AUTO 28014KT 10SM CLR M05/M09 A3001 990 74 -1100 280/14 RMK AO2 SLP177 T10501089 PNO $
94908KDBQ DBQ20090202005510702/02/09 00:55:31  5-MIN KDBQ 020655Z AUTO 28013KT 10SM CLR M05/M09 A3001 990 74 -1100 280/13 RMK AO2 PNO $
94908KDBQ DBQ20090202010010702/02/09 01:00:31  5-MIN KDBQ 020700Z AUTO 28013KT 10SM CLR M05/M09 A3001 990 74 -1100 280/13 RMK AO2 PNO $
94908KDBQ DBQ20090202010510702/02/09 01:05:31  5-MIN KDBQ 020705Z AUTO 29013KT 10SM CLR M05/M09 A3002 990 74 -1100 290/13 RMK AO2 PNO $
94908KDBQ DBQ20090202011010702/02/09 01:10:31  5-MIN KDBQ 020710Z AUTO 29014KT 10SM CLR M05/M09 A3002 990 74 -1100 290/14 RMK AO2 PNO $
94908KDBQ DBQ20090202011510702/02/09 01:15:31  5-MIN KDBQ 020715Z AUTO 29014KT 10SM CLR M04/M09 A3002 990 71 -1100 290/14 RMK AO2 PNO $
94908KDBQ DBQ20090202012010702/02/09 01:20:31  5-MIN KDBQ 020720Z AUTO 29015KT 10SM CLR M05/M09 A3001 990 74 -1100 290/15 RMK AO2 PNO $
94908KDBQ DBQ20090202012510702/02/09 01:25:31  5-MIN KDBQ 020725Z AUTO 29013KT 10SM CLR M04/M09 A3001 990 71 -1100 290/13 RMK AO2 PNO $
94908KDBQ DBQ20090202013010702/02/09 01:30:31  5-MIN KDBQ 020730Z AUTO 29013KT 10SM CLR M04/M09 A3001 990 71 -1100 290/13 RMK AO2 PNO $
94908KDBQ DBQ20090202013510702/02/09 01:35:31  5-MIN KDBQ 020735Z AUTO 29013KT 10SM CLR M05/M09 A3002 990 74 -1100 290/13 RMK AO2 PNO $
94908KDBQ DBQ20090202014010702/02/09 01:40:31  5-MIN KDBQ 020740Z AUTO 29012KT 10SM CLR M05/M09 A3002 990 74 -1100 290/12 RMK AO2 PNO $
94908KDBQ DBQ20090202014510702/02/09 01:45:31  5-MIN KDBQ 020745Z AUTO 30014KT 10SM CLR M05/M09 A3001 990 74 -1100 300/14 RMK AO2 PNO $
94908KDBQ DBQ20090202015012402/02/09 01:50:31  5-MIN KDBQ 020750Z AUTO 30015KT 10SM CLR M05/M09 A3001 990 74 -1100 300/15 RMK AO2 SLP177 T10501089 PNO $
94908KDBQ DBQ20090202015510702/02/09 01:55:31  5-MIN KDBQ 020755Z AUTO 30013KT 10SM CLR M04/M09 A3001 990 71 -1100 300/13 RMK AO2 PNO $
94908KDBQ DBQ20090202020010702/02/09 02:00:31  5-MIN KDBQ 020800Z AUTO 30014KT 10SM CLR M05/M09 A3002 990 74 -1100 300/14 RMK AO2 PNO $
94908KDBQ DBQ20090202020510702/02/09 02:05:31  5-MIN KDBQ 020805Z AUTO 30012KT 10SM CLR M05/M09 A3001 990 74 -1100 300/12 RMK AO2 PNO $
94908KDBQ DBQ20090202021010702/02/09 02:10:31  5-MIN KDBQ 020810Z AUTO 31012KT 10SM CLR M05/M09 A3001 990 74 -1100 310/12 RMK AO2 PNO $
94908KDBQ DBQ20090202021510702/02/09 02:15:31  5-MIN KDBQ 020815Z AUTO 30011KT 10SM CLR M05/M09 A3001 990 74 -1100 300/11 RMK AO2 PNO $
94908KDBQ DBQ20090202022010702/02/09 02:20:31  5-MIN KDBQ 020820Z AUTO 29010KT 10SM CLR M05/M09 A3001 990 74 -1100 290/10 RMK AO2 PNO $
94908KDBQ DBQ20090202022510702/02/09 02:25:31  5-MIN KDBQ 020825Z AUTO 29010KT 10SM CLR M05/M09 A3001 990 71 -1100 290/10 RMK AO2 PNO $
94908KDBQ DBQ20090202023010702/02/09 02:30:31  5-MIN KDBQ 020830Z AUTO 28008KT 10SM CLR M05/M09 A3002 990 71 -1100 280/08 RMK AO2 PNO $
94908KDBQ DBQ20090202023510702/02/09 02:35:31  5-MIN KDBQ 020835Z AUTO 29008KT 10SM CLR M06/M09 A3002 990 74 -1200 290/08 RMK AO2 PNO $
94908KDBQ DBQ20090202024010702/02/09 02:40:31  5-MIN KDBQ 020840Z AUTO 29009KT 10SM CLR M06/M09 A3002 990 74 -1200 290/09 RMK AO2 PNO $
94908KDBQ DBQ20090202024510702/02/09 02:45:31  5-MIN KDBQ 020845Z AUTO 30008KT 10SM CLR M06/M09 A3002 990 74 -1200 300/08 RMK AO2 PNO $
94908KDBQ DBQ20090202025013602/02/09 02:50:31  5-MIN KDBQ 020850Z AUTO 30008KT 10SM CLR M06/M09 A3001 990 77 -1300 300/08 RMK AO2 SLP177 6//// T10611094 50002 PNO $
94908KDBQ DBQ20090202025510802/02/09 02:55:31  5-MIN KDBQ 020855Z AUTO 30008KT 10SM CLR M07/M10 A3001 1000 77 -1400 300/08 RMK AO2 PNO $
94908KDBQ DBQ20090202030010802/02/09 03:00:31  5-MIN KDBQ 020900Z AUTO 30010KT 10SM CLR M06/M10 A3001 1000 74 -1300 300/10 RMK AO2 PNO $
94908KDBQ DBQ20090202030510802/02/09 03:05:31  5-MIN KDBQ 020905Z AUTO 30011KT 10SM CLR M06/M10 A3001 1000 74 -1300 300/11 RMK AO2 PNO $
94908KDBQ DBQ20090202031010802/02/09 03:10:31  5-MIN KDBQ 020910Z AUTO 30011KT 10SM CLR M06/M10 A3001 1000 74 -1300 300/11 RMK AO2 PNO $
94908KDBQ DBQ20090202031510802/02/09 03:15:31  5-MIN KDBQ 020915Z AUTO 29012KT 10SM CLR M06/M10 A3001 1000 74 -1300 290/12 RMK AO2 PNO $
94908KDBQ DBQ20090202032010802/02/09 03:20:31  5-MIN KDBQ 020920Z AUTO 29012KT 10SM CLR M07/M10 A3001 1000 77 -1300 290/12 RMK AO2 PNO $
94908KDBQ DBQ20090202032510802/02/09 03:25:31  5-MIN KDBQ 020925Z AUTO 29011KT 10SM CLR M07/M10 A3001 1000 77 -1300 290/11 RMK AO2 PNO $
94908KDBQ DBQ20090202033010802/02/09 03:30:31  5-MIN KDBQ 020930Z AUTO 30010KT 10SM CLR M07/M10 A3001 1000 77 -1300 300/10 RMK AO2 PNO $
94908KDBQ DBQ20090202033510802/02/09 03:35:31  5-MIN KDBQ 020935Z AUTO 30010KT 10SM CLR M07/M10 A3001 1000 77 -1300 300/10 RMK AO2 PNO $
94908KDBQ DBQ20090202034010802/02/09 03:40:31  5-MIN KDBQ 020940Z AUTO 29010KT 10SM CLR M07/M10 A3001 1000 77 -1300 290/10 RMK AO2 PNO $
94908KDBQ DBQ20090202034510802/02/09 03:45:31  5-MIN KDBQ 020945Z AUTO 29009KT 10SM CLR M07/M10 A3001 1000 81 -1400 290/09 RMK AO2 PNO $
94908KDBQ DBQ20090202035012502/02/09 03:50:31  5-MIN KDBQ 020950Z AUTO 29009KT 10SM CLR M07/M11 A3001 1000 77 -1400 290/09 RMK AO2 SLP176 T10721106 PNO $
94908KDBQ DBQ20090202035510802/02/09 03:55:31  5-MIN KDBQ 020955Z AUTO 29009KT 10SM CLR M07/M11 A3001 1000 77 -1400 290/09 RMK AO2 PNO $
94908KDBQ DBQ20090202040010802/02/09 04:00:31  5-MIN KDBQ 021000Z AUTO 30008KT 10SM CLR M07/M11 A3001 1000 77 -1400 300/08 RMK AO2 PNO $
94908KDBQ DBQ20090202040510702/02/09 04:05:31  5-MIN KDBQ 021005Z AUTO 30009KT 10SM CLR M07/M11 A3001 990 77 -1400 300/09 RMK AO2 PNO $
94908KDBQ DBQ20090202041010702/02/09 04:10:31  5-MIN KDBQ 021010Z AUTO 29009KT 10SM CLR M07/M11 A3001 990 77 -1400 290/09 RMK AO2 PNO $
94908KDBQ DBQ20090202041510702/02/09 04:15:31  5-MIN KDBQ 021015Z AUTO 29009KT 10SM CLR M07/M11 A3001 990 77 -1400 290/09 RMK AO2 PNO $
94908KDBQ DBQ20090202042010702/02/09 04:20:31  5-MIN KDBQ 021020Z AUTO 29009KT 10SM CLR M07/M11 A3001 990 77 -1400 290/09 RMK AO2 PNO $
94908KDBQ DBQ20090202042510702/02/09 04:25:31  5-MIN KDBQ 021025Z AUTO 29009KT 10SM CLR M08/M11 A3001 990 80 -1500 290/09 RMK AO2 PNO $
94908KDBQ DBQ20090202043010702/02/09 04:30:31  5-MIN KDBQ 021030Z AUTO 30009KT 10SM CLR M08/M11 A3002 990 80 -1500 300/09 RMK AO2 PNO $
94908KDBQ DBQ20090202043510702/02/09 04:35:31  5-MIN KDBQ 021035Z AUTO 30007KT 10SM CLR M08/M11 A3002 990 77 -1500 300/07 RMK AO2 PNO $
94908KDBQ DBQ20090202044010702/02/09 04:40:31  5-MIN KDBQ 021040Z AUTO 29008KT 10SM CLR M08/M11 A3002 990 77 -1500 290/08 RMK AO2 PNO $
94908KDBQ DBQ20090202044510702/02/09 04:45:31  5-MIN KDBQ 021045Z AUTO 29009KT 10SM CLR M08/M11 A3002 990 77 -1500 290/09 RMK AO2 PNO $
94908KDBQ DBQ20090202045012402/02/09 04:50:31  5-MIN KDBQ 021050Z AUTO 29009KT 10SM CLR M08/M11 A3002 990 77 -1500 290/09 RMK AO2 SLP181 T10781111 PNO $
94908KDBQ DBQ20090202045510702/02/09 04:55:31  5-MIN KDBQ 021055Z AUTO 29008KT 10SM CLR M08/M11 A3002 990 77 -1500 290/08 RMK AO2 PNO $
94908KDBQ DBQ20090202050010702/02/09 05:00:31  5-MIN KDBQ 021100Z AUTO 29007KT 10SM CLR M08/M11 A3002 990 77 -1500 290/07 RMK AO2 PNO $
94908KDBQ DBQ20090202050510702/02/09 05:05:31  5-MIN KDBQ 021105Z AUTO 28007KT 10SM CLR M08/M11 A3002 990 77 -1500 280/07 RMK AO2 PNO $
94908KDBQ DBQ20090202051010702/02/09 05:10:31  5-MIN KDBQ 021110Z AUTO 29008KT 10SM CLR M08/M12 A3002 990 74 -1500 290/08 RMK AO2 PNO $
94908KDBQ DBQ20090202051510702/02/09 05:15:31  5-MIN KDBQ 021115Z AUTO 29006KT 10SM CLR M08/M12 A3002 990 77 -1600 290/06 RMK AO2 PNO $
94908KDBQ DBQ20090202052010702/02/09 05:20:31  5-MIN KDBQ 021120Z AUTO 30006KT 10SM CLR M08/M12 A3002 980 77 -1600 300/06 RMK AO2 PNO $
94908KDBQ DBQ20090202052510702/02/09 05:25:31  5-MIN KDBQ 021125Z AUTO 31006KT 10SM CLR M09/M12 A3002 980 80 -1700 300/06 RMK AO2 PNO $
94908KDBQ DBQ20090202053010702/02/09 05:30:31  5-MIN KDBQ 021130Z AUTO 31007KT 10SM CLR M09/M12 A3002 980 80 -1700 310/07 RMK AO2 PNO $
94908KDBQ DBQ20090202053510702/02/09 05:35:31  5-MIN KDBQ 021135Z AUTO 31008KT 10SM CLR M08/M12 A3002 980 77 -1600 310/08 RMK AO2 PNO $
94908KDBQ DBQ20090202054010702/02/09 05:40:31  5-MIN KDBQ 021140Z AUTO 31008KT 10SM CLR M08/M12 A3002 980 74 -1600 310/08 RMK AO2 PNO $
94908KDBQ DBQ20090202054510202/02/09 05:45:31  5-MIN KDBQ 021145Z 31009KT 10SM CLR M08/M12 A3002 980 74 -1600 300/09 RMK AO2 PNO $
94908KDBQ DBQ20090202055014902/02/09 05:50:31  5-MIN KDBQ 021150Z 30009KT 10SM CLR M08/M12 A3003 980 74 -1600 300/09 RMK AO2 SLP183 6//// 7//// T10831122 11044 21089 56002 PNO $
94908KDBQ DBQ20090202055510202/02/09 05:55:31  5-MIN KDBQ 021155Z 30008KT 10SM CLR M08/M12 A3003 980 74 -1600 300/08 RMK AO2 PNO $
94908KDBQ DBQ20090202060010202/02/09 06:00:31  5-MIN KDBQ 021200Z 30009KT 10SM CLR M08/M12 A3002 980 74 -1600 300/09 RMK AO2 PNO $
94908KDBQ DBQ20090202060510202/02/09 06:05:31  5-MIN KDBQ 021205Z 30008KT 10SM CLR M09/M13 A3002 980 74 -1700 300/08 RMK AO2 PNO $
94908KDBQ DBQ20090202061010202/02/09 06:10:31  5-MIN KDBQ 021210Z 30009KT 10SM CLR M09/M13 A3002 980 74 -1700 300/09 RMK AO2 PNO $
94908KDBQ DBQ20090202061510202/02/09 06:15:31  5-MIN KDBQ 021215Z 30007KT 10SM CLR M09/M13 A3002 980 74 -1700 300/07 RMK AO2 PNO $
94908KDBQ DBQ20090202062010202/02/09 06:20:31  5-MIN KDBQ 021220Z 29007KT 10SM CLR M09/M13 A3003 980 74 -1700 290/07 RMK AO2 PNO $
94908KDBQ DBQ20090202062510202/02/09 06:25:31  5-MIN KDBQ 021225Z 29006KT 10SM CLR M09/M13 A3003 980 77 -1700 290/06 RMK AO2 PNO $
94908KDBQ DBQ20090202063010202/02/09 06:30:31  5-MIN KDBQ 021230Z 29006KT 10SM CLR M09/M13 A3003 980 73 -1700 290/06 RMK AO2 PNO $
94908KDBQ DBQ20090202063510202/02/09 06:35:31  5-MIN KDBQ 021235Z 29007KT 10SM CLR M09/M13 A3003 980 73 -1700 290/07 RMK AO2 PNO $
94908KDBQ DBQ20090202064010202/02/09 06:40:31  5-MIN KDBQ 021240Z 29007KT 10SM CLR M09/M13 A3003 980 77 -1700 290/07 RMK AO2 PNO $
94908KDBQ DBQ20090202064510202/02/09 06:45:31  5-MIN KDBQ 021245Z 28008KT 10SM CLR M09/M13 A3003 980 77 -1700 280/08 RMK AO2 PNO $
94908KDBQ DBQ20090202065011902/02/09 06:50:31  5-MIN KDBQ 021250Z 28007KT 10SM CLR M09/M13 A3003 980 77 -1700 280/07 RMK AO2 SLP187 T10941128 PNO $
94908KDBQ DBQ20090202065510302/02/09 06:55:31  5-MIN KDBQ 021255Z 29007KT 10SM FEW090 M09/M13 A3003 980 77 -1700 290/07 RMK AO2 PNO
94908KDBQ DBQ20090202070009902/02/09 07:00:31  5-MIN KDBQ 021300Z 29007KT 10SM FEW090 M10/M13 A3003 980 80 -1800 290/07 RMK AO2
94908KDBQ DBQ20090202070509902/02/09 07:05:31  5-MIN KDBQ 021305Z 29008KT 10SM FEW090 M10/M13 A3003 980 77 -1800 290/08 RMK AO2
94908KDBQ DBQ20090202071009902/02/09 07:10:31  5-MIN KDBQ 021310Z 29008KT 10SM FEW090 M09/M13 A3003 980 73 -1700 290/08 RMK AO2
94908KDBQ DBQ20090202071509902/02/09 07:15:31  5-MIN KDBQ 021315Z 29006KT 10SM FEW090 M09/M13 A3003 980 73 -1700 290/06 RMK AO2
94908KDBQ DBQ20090202072009902/02/09 07:20:31  5-MIN KDBQ 021320Z 29006KT 10SM FEW090 M10/M13 A3003 970 77 -1800 290/06 RMK AO2
94908KDBQ DBQ20090202072509602/02/09 07:25:31  5-MIN KDBQ 021325Z 28007KT 10SM CLR M09/M13 A3003 970 77 -1700 280/07 RMK AO2
94908KDBQ DBQ20090202073009602/02/09 07:30:31  5-MIN KDBQ 021330Z 29007KT 10SM CLR M09/M13 A3004 970 77 -1700 290/07 RMK AO2
94908KDBQ DBQ20090202073509602/02/09 07:35:31  5-MIN KDBQ 021335Z 28007KT 10SM CLR M09/M13 A3004 970 77 -1700 280/07 RMK AO2
94908KDBQ DBQ20090202074009602/02/09 07:40:31  5-MIN KDBQ 021340Z 28008KT 10SM CLR M09/M13 A3004 970 77 -1700 280/08 RMK AO2
94908KDBQ DBQ20090202074509602/02/09 07:45:31  5-MIN KDBQ 021345Z 27008KT 10SM CLR M09/M13 A3004 970 77 -1800 270/08 RMK AO2
94908KDBQ DBQ20090202075011302/02/09 07:50:31  5-MIN KDBQ 021350Z 28008KT 10SM CLR M09/M13 A3005 960 77 -1800 270/08 RMK AO2 SLP193 T10941128
94908KDBQ DBQ20090202075509602/02/09 07:55:31  5-MIN KDBQ 021355Z 27007KT 10SM CLR M09/M13 A3005 960 77 -1800 270/07 RMK AO2
94908KDBQ DBQ20090202080009602/02/09 08:00:31  5-MIN KDBQ 021400Z 27006KT 10SM CLR M09/M13 A3005 960 77 -1800 270/06 RMK AO2
94908KDBQ DBQ20090202080509602/02/09 08:05:31  5-MIN KDBQ 021405Z 28006KT 10SM CLR M09/M13 A3005 960 77 -1800 280/06 RMK AO2
94908KDBQ DBQ20090202081009602/02/09 08:10:31  5-MIN KDBQ 021410Z 28007KT 10SM CLR M09/M13 A3005 960 77 -1800 280/07 RMK AO2
94908KDBQ DBQ20090202081509602/02/09 08:15:31  5-MIN KDBQ 021415Z 27007KT 10SM CLR M09/M13 A3005 960 77 -1800 270/07 RMK AO2
94908KDBQ DBQ20090202082009602/02/09 08:20:31  5-MIN KDBQ 021420Z 27007KT 10SM CLR M09/M13 A3005 960 77 -1800 270/07 RMK AO2
94908KDBQ DBQ20090202082509602/02/09 08:25:31  5-MIN KDBQ 021425Z 27007KT 10SM CLR M09/M13 A3005 960 77 -1800 270/07 RMK AO2
94908KDBQ DBQ20090202083009602/02/09 08:30:31  5-MIN KDBQ 021430Z 28006KT 10SM CLR M09/M12 A3005 960 77 -1700 280/06 RMK AO2
94908KDBQ DBQ20090202083509602/02/09 08:35:31  5-MIN KDBQ 021435Z 29007KT 10SM CLR M09/M12 A3005 960 77 -1700 290/07 RMK AO2
94908KDBQ DBQ20090202084009602/02/09 08:40:31  5-MIN KDBQ 021440Z 29008KT 10SM CLR M09/M12 A3005 960 77 -1700 290/08 RMK AO2
94908KDBQ DBQ20090202084509602/02/09 08:45:31  5-MIN KDBQ 021445Z 29009KT 10SM CLR M09/M12 A3005 950 77 -1700 290/09 RMK AO2
94908KDBQ DBQ20090202085012502/02/09 08:50:31  5-MIN KDBQ 021450Z 28011KT 10SM CLR M08/M12 A3006 950 74 -1600 280/11 RMK AO2 SLP196 6//// T10831122 53004
94908KDBQ DBQ20090202085509602/02/09 08:55:31  5-MIN KDBQ 021455Z 28011KT 10SM CLR M08/M12 A3006 950 74 -1600 280/11 RMK AO2
94908KDBQ DBQ20090202090009602/02/09 09:00:31  5-MIN KDBQ 021500Z 28010KT 10SM CLR M08/M12 A3006 950 74 -1600 280/10 RMK AO2
94908KDBQ DBQ20090202090509602/02/09 09:05:31  5-MIN KDBQ 021505Z 28011KT 10SM CLR M08/M12 A3006 950 74 -1600 280/11 RMK AO2
94908KDBQ DBQ20090202091009602/02/09 09:10:31  5-MIN KDBQ 021510Z 28010KT 10SM CLR M08/M12 A3006 950 77 -1600 280/10 RMK AO2
94908KDBQ DBQ20090202091509602/02/09 09:15:31  5-MIN KDBQ 021515Z 29010KT 10SM CLR M08/M12 A3006 950 77 -1600 290/10 RMK AO2
94908KDBQ DBQ20090202092009602/02/09 09:20:31  5-MIN KDBQ 021520Z 28011KT 10SM CLR M08/M12 A3006 950 77 -1600 280/11 RMK AO2
94908KDBQ DBQ20090202092509602/02/09 09:25:31  5-MIN KDBQ 021525Z 28011KT 10SM CLR M08/M12 A3006 950 74 -1600 280/11 RMK AO2
94908KDBQ DBQ20090202093009602/02/09 09:30:31  5-MIN KDBQ 021530Z 28013KT 10SM CLR M08/M12 A3006 950 74 -1600 280/13 RMK AO2
94908KDBQ DBQ20090202093509902/02/09 09:35:31  5-MIN KDBQ 021535Z 28010KT 10SM FEW041 M08/M12 A3006 950 74 -1600 280/10 RMK AO2
94908KDBQ DBQ20090202094009902/02/09 09:40:31  5-MIN KDBQ 021540Z 29011KT 10SM SCT041 M08/M11 A3006 950 77 -1600 280/11 RMK AO2
94908KDBQ DBQ20090202094509902/02/09 09:45:31  5-MIN KDBQ 021545Z 28012KT 10SM BKN039 M07/M11 A3006 950 74 -1500 280/12 RMK AO2
94908KDBQ DBQ20090202095011602/02/09 09:50:31  5-MIN KDBQ 021550Z 28012KT 10SM BKN039 M07/M11 A3006 950 74 -1500 280/12 RMK AO2 SLP197 T10721111
94908KDBQ DBQ20090202095509902/02/09 09:55:31  5-MIN KDBQ 021555Z 28011KT 10SM BKN037 M08/M11 A3006 950 77 -1500 270/11 RMK AO2
94908KDBQ DBQ20090202100010602/02/09 10:00:31  5-MIN KDBQ 021600Z 28011KT 10SM SCT030 OVC037 M07/M11 A3006 950 74 -1500 280/11 RMK AO2
94908KDBQ DBQ20090202100510602/02/09 10:05:31  5-MIN KDBQ 021605Z 28010KT 10SM SCT028 BKN037 M07/M11 A3006 950 74 -1500 280/10 RMK AO2
94908KDBQ DBQ20090202101009902/02/09 10:10:31  5-MIN KDBQ 021610Z 28011KT 10SM BKN034 M07/M11 A3006 950 74 -1500 280/11 RMK AO2
94908KDBQ DBQ20090202101510602/02/09 10:15:31  5-MIN KDBQ 021615Z 28013KT 10SM FEW028 BKN036 M07/M11 A3006 950 74 -1400 280/13 RMK AO2
94908KDBQ DBQ20090202102010602/02/09 10:20:31  5-MIN KDBQ 021620Z 27013KT 10SM SCT030 BKN036 M07/M11 A3006 950 71 -1400 270/13 RMK AO2
94908KDBQ DBQ20090202102510102/02/09 10:25:31  5-MIN KDBQ 021625Z 27013KT 10SM SCT030 M07/M11 A3006 950 71 -1400 270/13 RMK AO2 $
94908KDBQ DBQ20090202103010102/02/09 10:30:31  5-MIN KDBQ 021630Z 28013KT 10SM FEW032 M07/M11 A3006 950 71 -1400 280/13 RMK AO2 $
94908KDBQ DBQ20090202103510102/02/09 10:35:31  5-MIN KDBQ 021635Z 28014KT 10SM FEW032 M07/M11 A3006 950 71 -1400 280/14 RMK AO2 $
94908KDBQ DBQ20090202104010202/02/09 10:40:31  5-MIN KDBQ 021640Z 27015G21KT 10SM CLR M07/M11 A3005 950 71 -1400 270/15G21 RMK AO2
94908KDBQ DBQ20090202104510202/02/09 10:45:31  5-MIN KDBQ 021645Z 28013G21KT 10SM CLR M07/M11 A3005 960 71 -1400 280/13G21 RMK AO2
94908KDBQ DBQ20090202105011302/02/09 10:50:31  5-MIN KDBQ 021650Z 28015KT 10SM CLR M07/M11 A3005 960 74 -1400 280/15 RMK AO2 SLP193 T10671106
94908KDBQ DBQ20090202105510202/02/09 10:55:31  5-MIN KDBQ 021655Z 29015G20KT 10SM CLR M06/M11 A3005 960 68 -1300 290/15G20 RMK AO2
94908KDBQ DBQ20090202110010202/02/09 11:00:31  5-MIN KDBQ 021700Z 29016G20KT 10SM CLR M06/M11 A3005 960 68 -1300 290/16G20 RMK AO2
94908KDBQ DBQ20090202110510202/02/09 11:05:31  5-MIN KDBQ 021705Z 29014G20KT 10SM CLR M06/M11 A3005 960 68 -1300 290/14G20 RMK AO2
94908KDBQ DBQ20090202111010202/02/09 11:10:31  5-MIN KDBQ 021710Z 28017G24KT 10SM CLR M06/M11 A3005 960 68 -1300 280/17G24 RMK AO2
94908KDBQ DBQ20090202111510202/02/09 11:15:31  5-MIN KDBQ 021715Z 29017G24KT 10SM CLR M06/M11 A3005 960 68 -1300 290/17G24 RMK AO2
94908KDBQ DBQ20090202112010202/02/09 11:20:31  5-MIN KDBQ 021720Z 29017G23KT 10SM CLR M06/M11 A3005 960 68 -1300 290/17G23 RMK AO2
94908KDBQ DBQ20090202112509902/02/09 11:25:31  5-MIN KDBQ 021725Z 28013KT 10SM FEW025 M06/M11 A3005 960 68 -1300 280/13 RMK AO2
94908KDBQ DBQ20090202113009902/02/09 11:30:31  5-MIN KDBQ 021730Z 28016KT 10SM FEW025 M06/M11 A3004 970 68 -1300 280/16 RMK AO2
94908KDBQ DBQ20090202113509902/02/09 11:35:31  5-MIN KDBQ 021735Z 29014KT 10SM SCT027 M06/M11 A3004 970 68 -1300 290/14 RMK AO2
94908KDBQ DBQ20090202114011202/02/09 11:40:31  5-MIN KDBQ 021740Z 28015G20KT 10SM BKN025 BKN030 M06/M11 A3004 970 68 -1300 280/15G20 RMK AO2
94908KDBQ DBQ20090202114510502/02/09 11:45:31  5-MIN KDBQ 021745Z 28019G24KT 10SM SCT027 M06/M11 A3004 970 68 -1300 280/19G24 RMK AO2
94908KDBQ DBQ20090202115011202/02/09 11:50:31  5-MIN KDBQ 021750Z 28021G25KT 10SM BKN025 BKN031 M06/M11 A3004 970 65 -1200 270/21G25 RMK AO2
94908KDBQ DBQ20090202115512402/02/09 11:55:31  5-MIN KDBQ 021755Z 28020KT 10SM BKN027 OVC031 M06/M11 A3004 970 68 -1300 280/20 RMK AO2 PK WND 28026/1755
94908KDBQ DBQ20090202120012302/02/09 12:00:31  5-MIN KDBQ 021800Z 29021G28KT 10SM OVC027 M06/M12 A3003 970 65 -1300 290/21G28 RMK AO2 PK WND 29028/1759
94908KDBQ DBQ20090202120512302/02/09 12:05:31  5-MIN KDBQ 021805Z 29022G28KT 10SM OVC027 M06/M12 A3004 970 62 -1300 290/22G28 RMK AO2 PK WND 29028/1759
94908KDBQ DBQ20090202121012302/02/09 12:10:31  5-MIN KDBQ 021810Z 30020G27KT 10SM BKN027 M06/M12 A3004 970 62 -1300 300/20G27 RMK AO2 PK WND 29028/1759
94908KDBQ DBQ20090202121512302/02/09 12:15:31  5-MIN KDBQ 021815Z 29023G27KT 10SM BKN027 M07/M13 A3004 970 62 -1400 290/23G27 RMK AO2 PK WND 29028/1759
94908KDBQ DBQ20090202122012302/02/09 12:20:31  5-MIN KDBQ 021820Z 29020G27KT 10SM BKN027 M07/M13 A3004 970 62 -1400 280/20G27 RMK AO2 PK WND 29028/1759
94908KDBQ DBQ20090202122512302/02/09 12:25:31  5-MIN KDBQ 021825Z 30021G27KT 10SM BKN027 M07/M13 A3004 970 62 -1400 300/21G27 RMK AO2 PK WND 29028/1759
94908KDBQ DBQ20090202123012302/02/09 12:30:31  5-MIN KDBQ 021830Z 29021G27KT 10SM BKN027 M07/M13 A3003 970 59 -1400 290/21G27 RMK AO2 PK WND 29028/1759
94908KDBQ DBQ20090202123512302/02/09 12:35:31  5-MIN KDBQ 021835Z 29018G27KT 10SM BKN027 M07/M13 A3003 970 59 -1400 290/18G27 RMK AO2 PK WND 29028/1759
94908KDBQ DBQ20090202124012302/02/09 12:40:31  5-MIN KDBQ 021840Z 29018G26KT 10SM BKN027 M07/M13 A3003 980 59 -1400 290/18G26 RMK AO2 PK WND 29028/1759
94908KDBQ DBQ20090202124512302/02/09 12:45:31  5-MIN KDBQ 021845Z 28019G28KT 10SM BKN027 M07/M13 A3003 970 59 -1400 280/19G28 RMK AO2 PK WND 29028/1841
94908KDBQ DBQ20090202125014002/02/09 12:50:31  5-MIN KDBQ 021850Z 29018G28KT 10SM BKN027 M07/M13 A3003 980 59 -1400 290/18G28 RMK AO2 PK WND 29028/1841 SLP187 T10671133
94908KDBQ DBQ20090202125512002/02/09 12:55:31  5-MIN KDBQ 021855Z 30021G26KT 10SM CLR M07/M13 A3003 970 62 -1400 300/21G26 RMK AO2 PK WND 30026/1855
94908KDBQ DBQ20090202130012002/02/09 13:00:31  5-MIN KDBQ 021900Z 29018G26KT 10SM CLR M07/M13 A3003 980 62 -1400 290/18G26 RMK AO2 PK WND 30026/1855
94908KDBQ DBQ20090202130512002/02/09 13:05:31  5-MIN KDBQ 021905Z 28020G24KT 10SM CLR M07/M13 A3003 980 59 -1400 280/20G24 RMK AO2 PK WND 30026/1855
94908KDBQ DBQ20090202131012002/02/09 13:10:31  5-MIN KDBQ 021910Z 29024G29KT 10SM CLR M07/M14 A3003 980 59 -1400 290/24G29 RMK AO2 PK WND 29029/1909
94908KDBQ DBQ20090202131512002/02/09 13:15:31  5-MIN KDBQ 021915Z 29021G29KT 10SM CLR M07/M14 A3003 980 56 -1400 290/21G29 RMK AO2 PK WND 29029/1909
94908KDBQ DBQ20090202132011402/02/09 13:20:31  5-MIN KDBQ 021920Z 30019KT 10SM CLR M07/M13 A3003 980 62 -1400 290/19 RMK AO2 PK WND 29029/1909
94908KDBQ DBQ20090202132511402/02/09 13:25:31  5-MIN KDBQ 021925Z 30019KT 10SM CLR M07/M13 A3003 980 65 -1400 300/19 RMK AO2 PK WND 29029/1909
94908KDBQ DBQ20090202133012002/02/09 13:30:31  5-MIN KDBQ 021930Z 29018G23KT 10SM CLR M07/M13 A3003 980 65 -1400 290/18G23 RMK AO2 PK WND 29029/1909
94908KDBQ DBQ20090202133512002/02/09 13:35:31  5-MIN KDBQ 021935Z 29017G23KT 10SM CLR M07/M13 A3003 980 65 -1400 290/17G23 RMK AO2 PK WND 29029/1909
94908KDBQ DBQ20090202134012002/02/09 13:40:31  5-MIN KDBQ 021940Z 29016G22KT 10SM CLR M07/M12 A3003 980 68 -1400 280/16G22 RMK AO2 PK WND 29029/1909
94908KDBQ DBQ20090202134512002/02/09 13:45:31  5-MIN KDBQ 021945Z 29017G24KT 10SM CLR M07/M13 A3003 980 65 -1400 290/17G24 RMK AO2 PK WND 29029/1909
94908KDBQ DBQ20090202135013702/02/09 13:50:31  5-MIN KDBQ 021950Z 29017G24KT 10SM CLR M07/M13 A3002 980 65 -1400 290/17G24 RMK AO2 PK WND 29029/1909 SLP184 T10721128
94908KDBQ DBQ20090202135510202/02/09 13:55:31  5-MIN KDBQ 021955Z 28016G22KT 10SM CLR M07/M13 A3002 980 65 -1400 280/16G22 RMK AO2
94908KDBQ DBQ20090202140012002/02/09 14:00:31  5-MIN KDBQ 022000Z 28021G26KT 10SM CLR M07/M13 A3002 990 65 -1400 280/21G26 RMK AO2 PK WND 28026/2000
94908KDBQ DBQ20090202140512002/02/09 14:05:31  5-MIN KDBQ 022005Z 28020G26KT 10SM CLR M07/M13 A3002 990 62 -1400 270/20G26 RMK AO2 PK WND 28026/2000
94908KDBQ DBQ20090202141011402/02/09 14:10:31  5-MIN KDBQ 022010Z 27019KT 10SM CLR M07/M13 A3002 980 62 -1400 270/19 RMK AO2 PK WND 28026/2000
94908KDBQ DBQ20090202141511402/02/09 14:15:31  5-MIN KDBQ 022015Z 29018KT 10SM CLR M07/M13 A3003 980 65 -1400 290/18 RMK AO2 PK WND 28026/2000
94908KDBQ DBQ20090202142011402/02/09 14:20:31  5-MIN KDBQ 022020Z 29016KT 10SM CLR M08/M13 A3002 980 67 -1500 280/16 RMK AO2 PK WND 28026/2000
94908KDBQ DBQ20090202142511402/02/09 14:25:31  5-MIN KDBQ 022025Z 29015KT 10SM CLR M08/M14 A3002 980 62 -1500 290/15 RMK AO2 PK WND 28026/2000
94908KDBQ DBQ20090202143012002/02/09 14:30:31  5-MIN KDBQ 022030Z 29017G23KT 10SM CLR M08/M14 A3003 980 62 -1500 290/17G23 RMK AO2 PK WND 28026/2000
94908KDBQ DBQ20090202143512002/02/09 14:35:31  5-MIN KDBQ 022035Z 29019G23KT 10SM CLR M08/M14 A3003 980 59 -1500 290/19G23 RMK AO2 PK WND 28026/2000
94908KDBQ DBQ20090202144011402/02/09 14:40:31  5-MIN KDBQ 022040Z 27019KT 10SM CLR M08/M14 A3003 980 59 -1500 270/19 RMK AO2 PK WND 28026/2000
94908KDBQ DBQ20090202144511402/02/09 14:45:31  5-MIN KDBQ 022045Z 28016KT 10SM CLR M08/M14 A3003 980 62 -1500 280/16 RMK AO2 PK WND 28026/2000
94908KDBQ DBQ20090202145014302/02/09 14:50:31  5-MIN KDBQ 022050Z 30018G23KT 10SM CLR M08/M14 A3003 980 59 -1500 290/18G23 RMK AO2 PK WND 28026/2000 SLP187 T10781144 58006
94908KDBQ DBQ20090202145510202/02/09 14:55:31  5-MIN KDBQ 022055Z 29016G23KT 10SM CLR M08/M14 A3003 980 59 -1500 290/16G23 RMK AO2
94908KDBQ DBQ20090202150009602/02/09 15:00:31  5-MIN KDBQ 022100Z 29016KT 10SM CLR M08/M14 A3003 980 62 -1600 290/16 RMK AO2
94908KDBQ DBQ20090202150510202/02/09 15:05:31  5-MIN KDBQ 022105Z 29018G25KT 10SM CLR M08/M15 A3003 980 59 -1600 290/18G25 RMK AO2
94908KDBQ DBQ20090202151010202/02/09 15:10:31  5-MIN KDBQ 022110Z 29015G25KT 10SM CLR M08/M15 A3003 980 59 -1600 290/15G25 RMK AO2
94908KDBQ DBQ20090202151510202/02/09 15:15:31  5-MIN KDBQ 022115Z 28017G25KT 10SM CLR M08/M14 A3003 980 62 -1600 280/17G25 RMK AO2
94908KDBQ DBQ20090202152010202/02/09 15:20:31  5-MIN KDBQ 022120Z 29017G25KT 10SM CLR M08/M15 A3003 980 59 -1600 290/17G25 RMK AO2
94908KDBQ DBQ20090202152510702/02/09 15:25:31  5-MIN KDBQ 022125Z AUTO 29020G24KT 10SM CLR M08/M16 A3003 980 54 -1600 290/20G24 RMK AO2
94908KDBQ DBQ20090202153012502/02/09 15:30:31  5-MIN KDBQ 022130Z AUTO 29019G26KT 10SM CLR M08/M17 A3003 980 51 -1600 290/19G26 RMK AO2 PK WND 30026/2127
94908KDBQ DBQ20090202153512502/02/09 15:35:31  5-MIN KDBQ 022135Z AUTO 30016G26KT 10SM CLR M09/M16 A3003 980 56 -1700 290/16G26 RMK AO2 PK WND 30026/2127
94908KDBQ DBQ20090202154011902/02/09 15:40:31  5-MIN KDBQ 022140Z AUTO 29015KT 10SM CLR M09/M16 A3003 970 56 -1700 290/15 RMK AO2 PK WND 30026/2127
94908KDBQ DBQ20090202154511902/02/09 15:45:31  5-MIN KDBQ 022145Z AUTO 30016KT 10SM CLR M09/M16 A3003 970 56 -1700 300/16 RMK AO2 PK WND 30026/2127
94908KDBQ DBQ20090202155013602/02/09 15:50:31  5-MIN KDBQ 022150Z AUTO 29014KT 10SM CLR M09/M16 A3003 970 59 -1700 290/14 RMK AO2 PK WND 30026/2127 SLP190 T10891156
94908KDBQ DBQ20090202155510102/02/09 15:55:31  5-MIN KDBQ 022155Z AUTO 29018KT 10SM CLR M09/M16 A3003 980 56 -1700 290/18 RMK AO2
94908KDBQ DBQ20090202160010202/02/09 16:00:31  5-MIN KDBQ 022200Z 29018G23KT 10SM CLR M09/M16 A3003 980 56 -1700 290/18G23 RMK AO2
94908KDBQ DBQ20090202160510202/02/09 16:05:31  5-MIN KDBQ 022205Z 29018G23KT 10SM CLR M09/M16 A3003 970 59 -1700 290/18G23 RMK AO2
94908KDBQ DBQ20090202161009602/02/09 16:10:31  5-MIN KDBQ 022210Z 29016KT 10SM CLR M09/M17 A3003 970 56 -1700 290/16 RMK AO2
94908KDBQ DBQ20090202161509602/02/09 16:15:31  5-MIN KDBQ 022215Z 29014KT 10SM CLR M09/M17 A3003 970 56 -1700 290/14 RMK AO2
94908KDBQ DBQ20090202162010202/02/09 16:20:31  5-MIN KDBQ 022220Z 29016G22KT 10SM CLR M09/M17 A3004 970 56 -1700 290/16G22 RMK AO2
94908KDBQ DBQ20090202162509602/02/09 16:25:31  5-MIN KDBQ 022225Z 29018KT 10SM CLR M09/M17 A3004 970 56 -1700 290/18 RMK AO2
94908KDBQ DBQ20090202163010202/02/09 16:30:31  5-MIN KDBQ 022230Z 29014G22KT 10SM CLR M09/M17 A3004 970 56 -1700 290/14G22 RMK AO2
94908KDBQ DBQ20090202163509602/02/09 16:35:31  5-MIN KDBQ 022235Z 29017KT 10SM CLR M09/M17 A3004 970 56 -1800 290/17 RMK AO2
94908KDBQ DBQ20090202164010202/02/09 16:40:31  5-MIN KDBQ 022240Z 29013G21KT 10SM CLR M10/M16 A3005 960 61 -1800 280/13G21 RMK AO2
94908KDBQ DBQ20090202164509602/02/09 16:45:31  5-MIN KDBQ 022245Z 28013KT 10SM CLR M10/M16 A3005 960 64 -1800 280/13 RMK AO2
94908KDBQ DBQ20090202165011302/02/09 16:50:31  5-MIN KDBQ 022250Z 29011KT 10SM CLR M10/M16 A3005 960 64 -1800 290/11 RMK AO2 SLP196 T11001156
94908KDBQ DBQ20090202165510202/02/09 16:55:31  5-MIN KDBQ 022255Z 29014G20KT 10SM CLR M10/M16 A3005 960 64 -1800 290/14G20 RMK AO2
94908KDBQ DBQ20090202170010202/02/09 17:00:31  5-MIN KDBQ 022300Z 28013G20KT 10SM CLR M11/M16 A3005 960 67 -1900 280/13G20 RMK AO2
94908KDBQ DBQ20090202170509602/02/09 17:05:31  5-MIN KDBQ 022305Z 28014KT 10SM CLR M11/M16 A3005 960 67 -1900 280/14 RMK AO2
94908KDBQ DBQ20090202171009602/02/09 17:10:31  5-MIN KDBQ 022310Z 28014KT 10SM CLR M11/M16 A3005 960 64 -1900 280/14 RMK AO2
94908KDBQ DBQ20090202171509602/02/09 17:15:31  5-MIN KDBQ 022315Z 29016KT 10SM CLR M11/M17 A3005 960 61 -1900 290/16 RMK AO2
94908KDBQ DBQ20090202172010202/02/09 17:20:31  5-MIN KDBQ 022320Z 29016G21KT 10SM CLR M11/M17 A3005 960 61 -1900 290/16G21 RMK AO2
94908KDBQ DBQ20090202172509602/02/09 17:25:31  5-MIN KDBQ 022325Z 29015KT 10SM CLR M11/M17 A3005 960 58 -1900 290/15 RMK AO2
94908KDBQ DBQ20090202173009602/02/09 17:30:31  5-MIN KDBQ 022330Z 29016KT 10SM CLR M11/M17 A3005 960 61 -2000 290/16 RMK AO2
94908KDBQ DBQ20090202173509602/02/09 17:35:31  5-MIN KDBQ 022335Z 29015KT 10SM CLR M11/M18 A3005 960 58 -2000 290/15 RMK AO2
94908KDBQ DBQ20090202174009602/02/09 17:40:31  5-MIN KDBQ 022340Z 29015KT 10SM CLR M11/M18 A3005 960 58 -2000 290/15 RMK AO2
94908KDBQ DBQ20090202174509602/02/09 17:45:31  5-MIN KDBQ 022345Z 28016KT 10SM CLR M11/M18 A3005 960 58 -2000 280/16 RMK AO2
94908KDBQ DBQ20090202175013102/02/09 17:50:31  5-MIN KDBQ 022350Z 29013KT 10SM CLR M11/M18 A3005 960 58 -2000 280/13 RMK AO2 SLP196 T11111178 11061 21111 55002
94908KDBQ DBQ20090202175510202/02/09 17:55:31  5-MIN KDBQ 022355Z 29015G19KT 10SM CLR M12/M18 A3005 960 61 -2100 290/15G19 RMK AO2
94908KDBQ DBQ20090202180010202/02/09 18:00:31  5-MIN KDBQ 030000Z 29016G19KT 10SM CLR M12/M18 A3005 960 61 -2100 290/16G19 RMK AO2
94908KDBQ DBQ20090202180509602/02/09 18:05:31  5-MIN KDBQ 030005Z 29016KT 10SM CLR M12/M18 A3005 950 61 -2100 290/16 RMK AO2
94908KDBQ DBQ20090202181009602/02/09 18:10:31  5-MIN KDBQ 030010Z 30015KT 10SM CLR M12/M18 A3006 950 61 -2100 290/15 RMK AO2
94908KDBQ DBQ20090202181509602/02/09 18:15:31  5-MIN KDBQ 030015Z 30014KT 10SM CLR M12/M18 A3006 950 61 -2100 300/14 RMK AO2
94908KDBQ DBQ20090202182009902/02/09 18:20:31  5-MIN KDBQ 030020Z 30016KT 10SM FEW055 M12/M18 A3006 950 58 -2100 300/16 RMK AO2
94908KDBQ DBQ20090202182509902/02/09 18:25:31  5-MIN KDBQ 030025Z 30013KT 10SM FEW060 M12/M18 A3006 950 61 -2100 300/13 RMK AO2
94908KDBQ DBQ20090202183009902/02/09 18:30:31  5-MIN KDBQ 030030Z 31016KT 10SM SCT060 M12/M18 A3006 950 64 -2100 300/16 RMK AO2
94908KDBQ DBQ20090202183510502/02/09 18:35:31  5-MIN KDBQ 030035Z 31017G22KT 10SM SCT060 M12/M18 A3006 950 64 -2100 310/17G22 RMK AO2
94908KDBQ DBQ20090202184010502/02/09 18:40:31  5-MIN KDBQ 030040Z 30016G23KT 10SM FEW060 M12/M18 A3006 950 61 -2100 300/16G23 RMK AO2
94908KDBQ DBQ20090202184510502/02/09 18:45:31  5-MIN KDBQ 030045Z 31014G23KT 10SM FEW060 M12/M18 A3006 950 61 -2100 310/14G23 RMK AO2
94908KDBQ DBQ20090202185012202/02/09 18:50:31  5-MIN KDBQ 030050Z 32018G24KT 10SM FEW060 M12/M18 A3005 960 61 -2100 320/18G24 RMK AO2 SLP198 T11221183
94908KDBQ DBQ20090202185511202/02/09 18:55:31  5-MIN KDBQ 030055Z 32016G24KT 10SM SCT048 SCT060 M12/M18 A3005 960 61 -2100 320/16G24 RMK AO2
94908KDBQ DBQ20090202190009902/02/09 19:00:31  5-MIN KDBQ 030100Z 33016KT 10SM BKN050 M12/M18 A3004 960 61 -2100 330/16 RMK AO2
94908KDBQ DBQ20090202190509902/02/09 19:05:31  5-MIN KDBQ 030105Z 33012KT 10SM BKN050 M12/M18 A3005 960 58 -2000 330/12 RMK AO2
94908KDBQ DBQ20090202191009902/02/09 19:10:31  5-MIN KDBQ 030110Z 33013KT 10SM BKN050 M12/M18 A3005 960 61 -2100 330/13 RMK AO2
94908KDBQ DBQ20090202191509902/02/09 19:15:31  5-MIN KDBQ 030115Z 33011KT 10SM BKN050 M12/M18 A3004 960 61 -2100 330/11 RMK AO2
94908KDBQ DBQ20090202192009902/02/09 19:20:31  5-MIN KDBQ 030120Z 34010KT 10SM BKN050 M13/M18 A3005 960 63 -2200 340/10 RMK AO2
94908KDBQ DBQ20090202192509902/02/09 19:25:31  5-MIN KDBQ 030125Z 34009KT 10SM BKN050 M13/M18 A3005 960 63 -2200 340/09 RMK AO2
94908KDBQ DBQ20090202193009902/02/09 19:30:31  5-MIN KDBQ 030130Z 34010KT 10SM BKN050 M13/M18 A3005 960 63 -2200 340/10 RMK AO2
94908KDBQ DBQ20090202193509902/02/09 19:35:31  5-MIN KDBQ 030135Z 35011KT 10SM BKN055 M13/M18 A3005 960 66 -2200 350/11 RMK AO2
94908KDBQ DBQ20090202194009902/02/09 19:40:31  5-MIN KDBQ 030140Z 35011KT 10SM BKN055 M13/M18 A3005 960 66 -2200 350/11 RMK AO2
94908KDBQ DBQ20090202194509902/02/09 19:45:31  5-MIN KDBQ 030145Z 34011KT 10SM OVC055 M13/M18 A3005 960 66 -2200 340/11 RMK AO2
94908KDBQ DBQ20090202195011602/02/09 19:50:31  5-MIN KDBQ 030150Z 33010KT 10SM BKN055 M13/M18 A3005 960 69 -2300 330/10 RMK AO2 SLP198 T11331178
94908KDBQ DBQ20090202195509902/02/09 19:55:31  5-MIN KDBQ 030155Z 34012KT 10SM BKN055 M13/M18 A3005 960 69 -2300 340/12 RMK AO2
94908KDBQ DBQ20090202200011002/02/09 20:00:31  5-MIN KDBQ 030200Z AUTO 34013G19KT 10SM BKN055 M13/M18 A3004 960 69 -2300 340/13G19 RMK AO2
94908KDBQ DBQ20090202200510402/02/09 20:05:31  5-MIN KDBQ 030205Z AUTO 34014KT 10SM BKN055 M13/M18 A3005 960 69 -2300 340/14 RMK AO2
94908KDBQ DBQ20090202201011002/02/09 20:10:31  5-MIN KDBQ 030210Z AUTO 33014G22KT 10SM BKN055 M13/M18 A3005 960 66 -2300 330/14G22 RMK AO2
94908KDBQ DBQ20090202201511002/02/09 20:15:31  5-MIN KDBQ 030215Z AUTO 34014G22KT 10SM BKN055 M13/M18 A3005 960 66 -2300 340/14G22 RMK AO2
94908KDBQ DBQ20090202202010402/02/09 20:20:31  5-MIN KDBQ 030220Z AUTO 34014KT 10SM BKN055 M13/M18 A3005 960 66 -2300 340/14 RMK AO2
94908KDBQ DBQ20090202202510402/02/09 20:25:31  5-MIN KDBQ 030225Z AUTO 34013KT 10SM SCT055 M14/M18 A3005 960 69 -2400 340/13 RMK AO2
94908KDBQ DBQ20090202203010402/02/09 20:30:31  5-MIN KDBQ 030230Z AUTO 33013KT 10SM SCT055 M14/M18 A3005 960 69 -2300 330/13 RMK AO2
94908KDBQ DBQ20090202203511002/02/09 20:35:31  5-MIN KDBQ 030235Z AUTO 33016G24KT 10SM FEW055 M14/M19 A3005 960 66 -2300 330/16G24 RMK AO2
94908KDBQ DBQ20090202204011002/02/09 20:40:31  5-MIN KDBQ 030240Z AUTO 33014G24KT 10SM FEW055 M14/M19 A3005 960 66 -2400 330/14G24 RMK AO2
94908KDBQ DBQ20090202204510402/02/09 20:45:31  5-MIN KDBQ 030245Z AUTO 33012KT 10SM FEW055 M14/M19 A3005 960 66 -2300 330/12 RMK AO2
94908KDBQ DBQ20090202205012402/02/09 20:50:31  5-MIN KDBQ 030250Z AUTO 33011KT 10SM CLR M14/M19 A3005 960 69 -2400 330/11 RMK AO2 SLP199 T11441189 51006
94908KDBQ DBQ20090202205510102/02/09 20:55:31  5-MIN KDBQ 030255Z AUTO 35012KT 10SM CLR M14/M19 A3005 960 69 -2400 350/12 RMK AO2
94908KDBQ DBQ20090202210010102/02/09 21:00:31  5-MIN KDBQ 030300Z AUTO 34014KT 10SM CLR M14/M19 A3005 960 66 -2400 340/14 RMK AO2
94908KDBQ DBQ20090202210510702/02/09 21:05:31  5-MIN KDBQ 030305Z AUTO 34014G20KT 10SM CLR M14/M19 A3005 960 66 -2400 340/14G20 RMK AO2
94908KDBQ DBQ20090202211010702/02/09 21:10:31  5-MIN KDBQ 030310Z AUTO 34013G20KT 10SM CLR M15/M19 A3005 960 69 -2500 330/13G20 RMK AO2
94908KDBQ DBQ20090202211510702/02/09 21:15:31  5-MIN KDBQ 030315Z AUTO 33012G19KT 10SM CLR M15/M20 A3005 960 66 -2500 330/12G19 RMK AO2
94908KDBQ DBQ20090202212010102/02/09 21:20:31  5-MIN KDBQ 030320Z AUTO 33011KT 10SM CLR M15/M20 A3005 960 66 -2500 330/11 RMK AO2
94908KDBQ DBQ20090202212510102/02/09 21:25:31  5-MIN KDBQ 030325Z AUTO 33012KT 10SM CLR M15/M20 A3005 960 66 -2500 330/12 RMK AO2
94908KDBQ DBQ20090202213010102/02/09 21:30:31  5-MIN KDBQ 030330Z AUTO 34014KT 10SM CLR M15/M20 A3005 960 66 -2500 340/14 RMK AO2
94908KDBQ DBQ20090202213510102/02/09 21:35:31  5-MIN KDBQ 030335Z AUTO 33013KT 10SM CLR M15/M20 A3005 960 66 -2500 330/13 RMK AO2
94908KDBQ DBQ20090202214010102/02/09 21:40:31  5-MIN KDBQ 030340Z AUTO 34013KT 10SM CLR M16/M20 A3005 960 69 -2600 340/13 RMK AO2
94908KDBQ DBQ20090202214510102/02/09 21:45:31  5-MIN KDBQ 030345Z AUTO 33012KT 10SM CLR M16/M20 A3005 960 69 -2600 330/12 RMK AO2
94908KDBQ DBQ20090202215011802/02/09 21:50:31  5-MIN KDBQ 030350Z AUTO 33011KT 10SM CLR M16/M20 A3005 960 69 -2600 330/11 RMK AO2 SLP199 T11561200
94908KDBQ DBQ20090202215510102/02/09 21:55:31  5-MIN KDBQ 030355Z AUTO 33014KT 10SM CLR M16/M21 A3005 960 66 -2600 330/14 RMK AO2
94908KDBQ DBQ20090202220010102/02/09 22:00:31  5-MIN KDBQ 030400Z AUTO 33014KT 10SM CLR M16/M21 A3005 960 66 -2600 330/14 RMK AO2
94908KDBQ DBQ20090202220510102/02/09 22:05:31  5-MIN KDBQ 030405Z AUTO 33013KT 10SM CLR M16/M21 A3005 960 66 -2600 330/13 RMK AO2
94908KDBQ DBQ20090202221010102/02/09 22:10:31  5-MIN KDBQ 030410Z AUTO 33013KT 10SM CLR M16/M21 A3005 960 66 -2600 330/13 RMK AO2
94908KDBQ DBQ20090202221510102/02/09 22:15:31  5-MIN KDBQ 030415Z AUTO 33012KT 10SM CLR M16/M21 A3005 960 66 -2600 330/12 RMK AO2
94908KDBQ DBQ20090202222010102/02/09 22:20:31  5-MIN KDBQ 030420Z AUTO 33011KT 10SM CLR M16/M21 A3005 960 66 -2600 330/11 RMK AO2
94908KDBQ DBQ20090202222510102/02/09 22:25:31  5-MIN KDBQ 030425Z AUTO 33011KT 10SM CLR M16/M21 A3005 960 69 -2600 330/11 RMK AO2
94908KDBQ DBQ20090202223010102/02/09 22:30:31  5-MIN KDBQ 030430Z AUTO 32012KT 10SM CLR M16/M21 A3005 960 69 -2600 320/12 RMK AO2
94908KDBQ DBQ20090202223510102/02/09 22:35:31  5-MIN KDBQ 030435Z AUTO 33012KT 10SM CLR M16/M21 A3005 960 69 -2700 320/12 RMK AO2
94908KDBQ DBQ20090202224010102/02/09 22:40:31  5-MIN KDBQ 030440Z AUTO 33013KT 10SM CLR M16/M21 A3005 960 69 -2700 330/13 RMK AO2
94908KDBQ DBQ20090202224510102/02/09 22:45:31  5-MIN KDBQ 030445Z AUTO 32012KT 10SM CLR M16/M21 A3005 960 69 -2600 320/12 RMK AO2
94908KDBQ DBQ20090202225011802/02/09 22:50:31  5-MIN KDBQ 030450Z AUTO 32012KT 10SM CLR M16/M20 A3005 950 72 -2700 320/12 RMK AO2 SLP200 T11611200
94908KDBQ DBQ20090202225510102/02/09 22:55:31  5-MIN KDBQ 030455Z AUTO 33010KT 10SM CLR M16/M20 A3005 950 72 -2700 330/10 RMK AO2
94908KDBQ DBQ20090202230010102/02/09 23:00:31  5-MIN KDBQ 030500Z AUTO 33011KT 10SM CLR M16/M20 A3005 960 72 -2700 330/11 RMK AO2
94908KDBQ DBQ20090202230510102/02/09 23:05:31  5-MIN KDBQ 030505Z AUTO 32011KT 10SM CLR M17/M20 A3005 950 76 -2700 320/11 RMK AO2
94908KDBQ DBQ20090202231010102/02/09 23:10:31  5-MIN KDBQ 030510Z AUTO 32012KT 10SM CLR M17/M20 A3006 950 76 -2700 320/12 RMK AO2
94908KDBQ DBQ20090202231510102/02/09 23:15:31  5-MIN KDBQ 030515Z AUTO 33012KT 10SM CLR M17/M20 A3006 950 76 -2700 330/12 RMK AO2
94908KDBQ DBQ20090202232010102/02/09 23:20:31  5-MIN KDBQ 030520Z AUTO 33010KT 10SM CLR M17/M20 A3006 950 76 -2700 330/10 RMK AO2
94908KDBQ DBQ20090202232510102/02/09 23:25:31  5-MIN KDBQ 030525Z AUTO 33010KT 10SM CLR M17/M20 A3006 950 76 -2700 330/10 RMK AO2
94908KDBQ DBQ20090202233010402/02/09 23:30:31  5-MIN KDBQ 030530Z AUTO 33011KT 10SM FEW050 M17/M20 A3006 950 76 -2700 330/11 RMK AO2
94908KDBQ DBQ20090202233510402/02/09 23:35:31  5-MIN KDBQ 030535Z AUTO 33012KT 10SM FEW050 M17/M20 A3006 950 76 -2700 330/12 RMK AO2
94908KDBQ DBQ20090202234011102/02/09 23:40:31  5-MIN KDBQ 030540Z AUTO 33012KT 10SM FEW024 SCT050 M17/M20 A3006 950 76 -2700 330/12 RMK AO2
94908KDBQ DBQ20090202234511702/02/09 23:45:31  5-MIN KDBQ 030545Z AUTO 33011G18KT 10SM SCT024 BKN050 M17/M20 A3006 950 76 -2700 330/11G18 RMK AO2
94908KDBQ DBQ20090202235012702/02/09 23:50:31  5-MIN KDBQ 030550Z AUTO 33011KT 9SM BKN024 BKN038 BKN055 M17/M20 A3006 950 76 -2700 330/11 RMK AO2 410441167
94908KDBQ DBQ20090202235511702/02/09 23:55:31  5-MIN KDBQ 030555Z AUTO 33012KT 9SM SCT024 BKN038 BKN050 M17/M20 A3007 940 76 -2700 330/12 RMK AO2
94908KDBQ DBQ20090203000011802/03/09 00:00:38  5-MIN KDBQ 030600Z AUTO 33014KT 10SM SCT024 BKN049 OVC060 M16/M20 A3007 940 72 -2700 330/14 RMK AO2
94908KDBQ DBQ20090203000512402/03/09 00:05:31  5-MIN KDBQ 030605Z AUTO 34011G19KT 10SM SCT026 SCT038 OVC060 M16/M19 A3007 940 76 -2700 340/11G19 RMK AO2
94908KDBQ DBQ20090203001012402/03/09 00:10:31  5-MIN KDBQ 030610Z AUTO 33012G19KT 10SM FEW026 SCT038 OVC060 M16/M19 A3007 940 76 -2700 330/12G19 RMK AO2
94908KDBQ DBQ20090203001511802/03/09 00:15:32  5-MIN KDBQ 030615Z AUTO 33011KT 10SM FEW026 SCT043 OVC060 M16/M20 A3007 940 72 -2700 330/11 RMK AO2
94908KDBQ DBQ20090203002011102/03/09 00:20:31  5-MIN KDBQ 030620Z AUTO 34012KT 10SM SCT045 BKN060 M17/M20 A3007 940 76 -2700 340/12 RMK AO2
94908KDBQ DBQ20090203002511702/03/09 00:25:31  5-MIN KDBQ 030625Z AUTO 34012G19KT 10SM FEW045 BKN060 M17/M20 A3007 940 76 -2700 330/12G19 RMK AO2
94908KDBQ DBQ20090203003011102/03/09 00:30:31  5-MIN KDBQ 030630Z AUTO 33014KT 10SM FEW047 SCT060 M17/M20 A3007 940 76 -2700 330/14 RMK AO2
94908KDBQ DBQ20090203003511102/03/09 00:35:31  5-MIN KDBQ 030635Z AUTO 34014KT 10SM FEW047 SCT060 M17/M20 A3007 940 76 -2700 340/14 RMK AO2
94908KDBQ DBQ20090203004010402/03/09 00:40:31  5-MIN KDBQ 030640Z AUTO 34014KT 10SM FEW047 M17/M20 A3007 940 76 -2800 340/14 RMK AO2
94908KDBQ DBQ20090203004510102/03/09 00:45:31  5-MIN KDBQ 030645Z AUTO 34015KT 10SM CLR M17/M20 A3008 930 76 -2800 340/15 RMK AO2
94908KDBQ DBQ20090203005011802/03/09 00:50:31  5-MIN KDBQ 030650Z AUTO 33013KT 10SM CLR M17/M20 A3008 930 76 -2800 330/13 RMK AO2 SLP210 T11671200
94908KDBQ DBQ20090203005510102/03/09 00:55:31  5-MIN KDBQ 030655Z AUTO 33012KT 10SM CLR M17/M20 A3008 930 76 -2800 330/12 RMK AO2
94908KDBQ DBQ20090203010010102/03/09 01:00:31  5-MIN KDBQ 030700Z AUTO 33014KT 10SM CLR M17/M20 A3008 930 76 -2800 330/14 RMK AO2
94908KDBQ DBQ20090203010510102/03/09 01:05:31  5-MIN KDBQ 030705Z AUTO 32012KT 10SM CLR M17/M20 A3008 930 76 -2800 320/12 RMK AO2
94908KDBQ DBQ20090203011010102/03/09 01:10:31  5-MIN KDBQ 030710Z AUTO 33009KT 10SM CLR M17/M21 A3008 930 72 -2800 320/09 RMK AO2
94908KDBQ DBQ20090203011510102/03/09 01:15:31  5-MIN KDBQ 030715Z AUTO 33012KT 10SM CLR M17/M21 A3008 930 72 -2800 330/12 RMK AO2
94908KDBQ DBQ20090203012010102/03/09 01:20:31  5-MIN KDBQ 030720Z AUTO 33012KT 10SM CLR M17/M21 A3009 930 72 -2800 330/12 RMK AO2
94908KDBQ DBQ20090203012510102/03/09 01:25:31  5-MIN KDBQ 030725Z AUTO 33011KT 10SM CLR M17/M21 A3009 920 72 -2800 330/11 RMK AO2
94908KDBQ DBQ20090203013010102/03/09 01:30:31  5-MIN KDBQ 030730Z AUTO 33013KT 10SM CLR M17/M21 A3009 920 76 -2800 330/13 RMK AO2
94908KDBQ DBQ20090203013510102/03/09 01:35:31  5-MIN KDBQ 030735Z AUTO 32015KT 10SM CLR M17/M21 A3009 920 72 -2800 320/15 RMK AO2
94908KDBQ DBQ20090203014010102/03/09 01:40:31  5-MIN KDBQ 030740Z AUTO 32013KT 10SM CLR M17/M21 A3010 910 76 -2900 320/13 RMK AO2
94908KDBQ DBQ20090203014510102/03/09 01:45:31  5-MIN KDBQ 030745Z AUTO 32013KT 10SM CLR M17/M21 A3010 910 76 -2900 320/13 RMK AO2
94908KDBQ DBQ20090203015011802/03/09 01:50:31  5-MIN KDBQ 030750Z AUTO 32012KT 10SM CLR M17/M21 A3010 910 76 -2900 320/12 RMK AO2 SLP216 T11721206
94908KDBQ DBQ20090203015510102/03/09 01:55:31  5-MIN KDBQ 030755Z AUTO 32011KT 10SM CLR M17/M21 A3010 910 76 -2900 320/11 RMK AO2
94908KDBQ DBQ20090203020010102/03/09 02:00:31  5-MIN KDBQ 030800Z AUTO 32011KT 10SM CLR M17/M21 A3010 910 76 -2900 320/11 RMK AO2
94908KDBQ DBQ20090203020510102/03/09 02:05:31  5-MIN KDBQ 030805Z AUTO 32013KT 10SM CLR M17/M21 A3010 910 76 -2900 320/13 RMK AO2
94908KDBQ DBQ20090203021010102/03/09 02:10:31  5-MIN KDBQ 030810Z AUTO 33011KT 10SM CLR M17/M21 A3010 910 76 -2900 330/11 RMK AO2
94908KDBQ DBQ20090203021510102/03/09 02:15:31  5-MIN KDBQ 030815Z AUTO 34011KT 10SM CLR M17/M21 A3010 910 76 -2900 330/11 RMK AO2
94908KDBQ DBQ20090203022010102/03/09 02:20:31  5-MIN KDBQ 030820Z AUTO 33011KT 10SM CLR M17/M21 A3010 910 76 -2900 330/11 RMK AO2
94908KDBQ DBQ20090203022510102/03/09 02:25:31  5-MIN KDBQ 030825Z AUTO 33012KT 10SM CLR M17/M21 A3010 910 76 -2900 330/12 RMK AO2
94908KDBQ DBQ20090203023010702/03/09 02:30:31  5-MIN KDBQ 030830Z AUTO 33014G18KT 10SM CLR M17/M21 A3011 910 76 -2900 320/14G18 RMK AO2
94908KDBQ DBQ20090203023510702/03/09 02:35:31  5-MIN KDBQ 030835Z AUTO 32013G18KT 10SM CLR M17/M21 A3010 910 76 -2900 320/13G18 RMK AO2
94908KDBQ DBQ20090203024010102/03/09 02:40:31  5-MIN KDBQ 030840Z AUTO 32011KT 10SM CLR M17/M21 A3010 910 76 -2900 320/11 RMK AO2
94908KDBQ DBQ20090203024510102/03/09 02:45:31  5-MIN KDBQ 030845Z AUTO 32012KT 10SM CLR M17/M21 A3010 910 76 -2900 320/12 RMK AO2
94908KDBQ DBQ20090203025012402/03/09 02:50:31  5-MIN KDBQ 030850Z AUTO 32014KT 10SM CLR M17/M21 A3010 910 76 -2900 320/14 RMK AO2 SLP217 T11721206 53004
94908KDBQ DBQ20090203025510302/03/09 02:55:31  5-MIN KDBQ 030855Z AUTO 33011KT 10SM CLR M17/M21 A3010 910 76 -2900 320/11 RMK AO2 $
94908KDBQ DBQ20090203030010302/03/09 03:00:31  5-MIN KDBQ 030900Z AUTO 33012KT 10SM CLR M17/M21 A3011 910 72 -2800 330/12 RMK AO2 $
94908KDBQ DBQ20090203030510302/03/09 03:05:31  5-MIN KDBQ 030905Z AUTO 33011KT 10SM CLR M17/M21 A3011 910 76 -2900 330/11 RMK AO2 $
94908KDBQ DBQ20090203031010302/03/09 03:10:31  5-MIN KDBQ 030910Z AUTO 33013KT 10SM CLR M17/M21 A3011 910 76 -2900 330/13 RMK AO2 $
94908KDBQ DBQ20090203031510302/03/09 03:15:31  5-MIN KDBQ 030915Z AUTO 33013KT 10SM CLR M17/M21 A3010 910 76 -2900 330/13 RMK AO2 $
94908KDBQ DBQ20090203032010902/03/09 03:20:31  5-MIN KDBQ 030920Z AUTO 33015G20KT 10SM CLR M17/M20 A3010 910 76 -2800 330/15G20 RMK AO2 $
94908KDBQ DBQ20090203032510902/03/09 03:25:31  5-MIN KDBQ 030925Z AUTO 33017G21KT 10SM CLR M17/M20 A3010 910 76 -2800 330/17G21 RMK AO2 $
94908KDBQ DBQ20090203033010902/03/09 03:30:31  5-MIN KDBQ 030930Z AUTO 33014G21KT 10SM CLR M17/M20 A3010 910 76 -2800 330/14G21 RMK AO2 $
94908KDBQ DBQ20090203033510902/03/09 03:35:31  5-MIN KDBQ 030935Z AUTO 34012G22KT 10SM CLR M17/M20 A3010 910 76 -2800 330/12G22 RMK AO2 $
94908KDBQ DBQ20090203034011202/03/09 03:40:31  5-MIN KDBQ 030940Z AUTO 33013G22KT 10SM FEW070 M17/M20 A3011 910 76 -2800 330/13G22 RMK AO2 $
94908KDBQ DBQ20090203034511302/03/09 03:45:31  5-MIN KDBQ 030945Z AUTO 33015KT 10SM FEW022 SCT070 M17/M20 A3011 910 76 -2800 330/15 RMK AO2 $
94908KDBQ DBQ20090203035013602/03/09 03:50:31  5-MIN KDBQ 030950Z AUTO 34014KT 9SM FEW020 SCT027 BKN070 M17/M20 A3011 910 76 -2800 340/14 RMK AO2 SLP219 T11671200 $
94908KDBQ DBQ20090203035511902/03/09 03:55:31  5-MIN KDBQ 030955Z AUTO 34014KT 9SM FEW020 SCT027 BKN036 M17/M20 A3011 910 76 -2800 340/14 RMK AO2 $
94908KDBQ DBQ20090203040012002/03/09 04:00:31  5-MIN KDBQ 031000Z AUTO 34014KT 10SM FEW020 SCT027 BKN036 M17/M20 A3011 900 76 -2800 340/14 RMK AO2 $
94908KDBQ DBQ20090203040512002/03/09 04:05:31  5-MIN KDBQ 031005Z AUTO 34013KT 10SM SCT020 BKN027 BKN036 M17/M20 A3011 900 76 -2800 340/13 RMK AO2 $
94908KDBQ DBQ20090203041012002/03/09 04:10:31  5-MIN KDBQ 031010Z AUTO 34013KT 10SM FEW020 BKN027 BKN036 M17/M20 A3011 900 76 -2800 340/13 RMK AO2 $
94908KDBQ DBQ20090203041511902/03/09 04:15:31  5-MIN KDBQ 031015Z AUTO 34015G19KT 10SM FEW020 SCT027 M17/M20 A3011 900 76 -2800 340/15G19 RMK AO2 $
94908KDBQ DBQ20090203042011902/03/09 04:20:31  5-MIN KDBQ 031020Z AUTO 34013G20KT 10SM FEW020 SCT027 M17/M20 A3011 900 76 -2800 340/13G20 RMK AO2 $
94908KDBQ DBQ20090203042511202/03/09 04:25:31  5-MIN KDBQ 031025Z AUTO 34013G20KT 10SM FEW020 M17/M20 A3011 900 76 -2800 340/13G20 RMK AO2 $
94908KDBQ DBQ20090203043011302/03/09 04:30:31  5-MIN KDBQ 031030Z AUTO 34012KT 10SM FEW020 SCT035 M17/M19 A3011 900 79 -2800 340/12 RMK AO2 $
94908KDBQ DBQ20090203043511102/03/09 04:35:31  5-MIN KDBQ 031035Z AUTO 34015G20KT 9SM SCT035 M17/M19 A3011 900 79 -2800 340/15G20 RMK AO2 $
94908KDBQ DBQ20090203044010502/03/09 04:40:31  5-MIN KDBQ 031040Z AUTO 34014KT 9SM SCT035 M17/M19 A3011 900 79 -2800 340/14 RMK AO2 $
94908KDBQ DBQ20090203044510602/03/09 04:45:31  5-MIN KDBQ 031045Z AUTO 34014KT 10SM FEW035 M17/M19 A3011 900 79 -2800 340/14 RMK AO2 $
94908KDBQ DBQ20090203045012302/03/09 04:50:31  5-MIN KDBQ 031050Z AUTO 34015KT 10SM FEW035 M17/M19 A3011 900 79 -2800 340/15 RMK AO2 SLP222 T11671194 $
94908KDBQ DBQ20090203045510602/03/09 04:55:31  5-MIN KDBQ 031055Z AUTO 34015KT 10SM FEW035 M17/M19 A3011 900 79 -2800 340/15 RMK AO2 $
94908KDBQ DBQ20090203050010602/03/09 05:00:31  5-MIN KDBQ 031100Z AUTO 34014KT 10SM FEW037 M17/M19 A3011 900 79 -2800 340/14 RMK AO2 $
94908KDBQ DBQ20090203050510302/03/09 05:05:31  5-MIN KDBQ 031105Z AUTO 34015KT 10SM CLR M17/M19 A3012 900 79 -2800 340/15 RMK AO2 $
94908KDBQ DBQ20090203051010302/03/09 05:10:31  5-MIN KDBQ 031110Z AUTO 34014KT 10SM CLR M17/M19 A3012 900 79 -2800 340/14 RMK AO2 $
94908KDBQ DBQ20090203051510302/03/09 05:15:31  5-MIN KDBQ 031115Z AUTO 34015KT 10SM CLR M17/M19 A3012 900 79 -2800 340/15 RMK AO2 $
94908KDBQ DBQ20090203052010302/03/09 05:20:31  5-MIN KDBQ 031120Z AUTO 34015KT 10SM CLR M17/M19 A3012 900 79 -2800 340/15 RMK AO2 $
94908KDBQ DBQ20090203052510302/03/09 05:25:31  5-MIN KDBQ 031125Z AUTO 34015KT 10SM CLR M17/M19 A3012 900 79 -2800 340/15 RMK AO2 $
94908KDBQ DBQ20090203053010302/03/09 05:30:31  5-MIN KDBQ 031130Z AUTO 34014KT 10SM CLR M16/M19 A3012 890 76 -2700 340/14 RMK AO2 $
94908KDBQ DBQ20090203053510302/03/09 05:35:31  5-MIN KDBQ 031135Z AUTO 34015KT 10SM CLR M16/M19 A3012 890 79 -2700 340/15 RMK AO2 $
94908KDBQ DBQ20090203054010302/03/09 05:40:31  5-MIN KDBQ 031140Z AUTO 34014KT 10SM CLR M16/M19 A3013 890 79 -2700 340/14 RMK AO2 $
94908KDBQ DBQ20090203054509802/03/09 05:45:31  5-MIN KDBQ 031145Z 35014KT 10SM CLR M16/M19 A3013 890 79 -2700 350/14 RMK AO2 $
94908KDBQ DBQ20090203055014502/03/09 05:50:31  5-MIN KDBQ 031150Z 35015KT 10SM CLR M16/M19 A3013 880 79 -2700 350/15 RMK AO2 SLP228 6//// 7//// T11611189 11161 21172 51012 $
94908KDBQ DBQ20090203055509802/03/09 05:55:31  5-MIN KDBQ 031155Z 34014KT 10SM CLR M16/M19 A3013 880 79 -2700 340/14 RMK AO2 $
94908KDBQ DBQ20090203060009802/03/09 06:00:31  5-MIN KDBQ 031200Z 35014KT 10SM CLR M16/M19 A3013 880 79 -2700 350/14 RMK AO2 $
94908KDBQ DBQ20090203060509802/03/09 06:05:31  5-MIN KDBQ 031205Z 35015KT 10SM CLR M16/M19 A3013 880 79 -2700 350/15 RMK AO2 $
94908KDBQ DBQ20090203061009802/03/09 06:10:31  5-MIN KDBQ 031210Z 35014KT 10SM CLR M16/M19 A3013 880 79 -2700 350/14 RMK AO2 $
94908KDBQ DBQ20090203061509802/03/09 06:15:31  5-MIN KDBQ 031215Z 35014KT 10SM CLR M16/M19 A3013 880 79 -2700 350/14 RMK AO2 $
94908KDBQ DBQ20090203062009802/03/09 06:20:31  5-MIN KDBQ 031220Z 34014KT 10SM CLR M16/M19 A3014 880 79 -2800 340/14 RMK AO2 $
94908KDBQ DBQ20090203062509802/03/09 06:25:31  5-MIN KDBQ 031225Z 34016KT 10SM CLR M16/M19 A3014 870 79 -2800 340/16 RMK AO2 $
94908KDBQ DBQ20090203063009802/03/09 06:30:31  5-MIN KDBQ 031230Z 35015KT 10SM CLR M16/M19 A3014 870 79 -2800 340/15 RMK AO2 $
94908KDBQ DBQ20090203063509802/03/09 06:35:31  5-MIN KDBQ 031235Z 34014KT 10SM CLR M16/M19 A3014 870 79 -2800 340/14 RMK AO2 $
94908KDBQ DBQ20090203064009802/03/09 06:40:31  5-MIN KDBQ 031240Z 34014KT 10SM CLR M16/M19 A3015 870 79 -2800 340/14 RMK AO2 $
94908KDBQ DBQ20090203064509802/03/09 06:45:31  5-MIN KDBQ 031245Z 34014KT 10SM CLR M16/M19 A3015 870 79 -2800 340/14 RMK AO2 $
94908KDBQ DBQ20090203065011502/03/09 06:50:31  5-MIN KDBQ 031250Z 34015KT 10SM CLR M16/M19 A3015 860 79 -2800 340/15 RMK AO2 SLP237 T11611189 $
94908KDBQ DBQ20090203065509602/03/09 06:55:31  5-MIN KDBQ 031255Z 34016KT 10SM CLR M16/M19 A3016 860 79 -2800 340/16 RMK AO2
94908KDBQ DBQ20090203070009602/03/09 07:00:31  5-MIN KDBQ 031300Z 34016KT 10SM CLR M16/M19 A3016 860 79 -2800 340/16 RMK AO2
94908KDBQ DBQ20090203070509602/03/09 07:05:31  5-MIN KDBQ 031305Z 34016KT 10SM CLR M16/M19 A3016 860 76 -2700 340/16 RMK AO2
94908KDBQ DBQ20090203071009602/03/09 07:10:31  5-MIN KDBQ 031310Z 34016KT 10SM CLR M16/M19 A3016 850 76 -2700 340/16 RMK AO2
94908KDBQ DBQ20090203071509602/03/09 07:15:31  5-MIN KDBQ 031315Z 34015KT 10SM CLR M16/M19 A3017 850 76 -2700 340/15 RMK AO2
94908KDBQ DBQ20090203072009602/03/09 07:20:31  5-MIN KDBQ 031320Z 34017KT 10SM CLR M16/M19 A3017 850 76 -2700 340/17 RMK AO2
94908KDBQ DBQ20090203072509602/03/09 07:25:31  5-MIN KDBQ 031325Z 34017KT 10SM CLR M16/M19 A3017 850 76 -2700 340/17 RMK AO2
94908KDBQ DBQ20090203073009602/03/09 07:30:31  5-MIN KDBQ 031330Z 34017KT 10SM CLR M16/M19 A3018 840 76 -2700 340/17 RMK AO2
94908KDBQ DBQ20090203073509602/03/09 07:35:31  5-MIN KDBQ 031335Z 34018KT 10SM CLR M16/M18 A3018 840 79 -2700 340/18 RMK AO2
94908KDBQ DBQ20090203074009602/03/09 07:40:31  5-MIN KDBQ 031340Z 34018KT 10SM CLR M16/M18 A3018 840 79 -2700 340/18 RMK AO2
94908KDBQ DBQ20090203074509602/03/09 07:45:31  5-MIN KDBQ 031345Z 34018KT 10SM CLR M16/M18 A3018 840 79 -2700 340/18 RMK AO2
94908KDBQ DBQ20090203075011902/03/09 07:50:31  5-MIN KDBQ 031350Z 34018G24KT 10SM CLR M16/M18 A3018 840 79 -2700 340/18G24 RMK AO2 SLP248 T11561183
94908KDBQ DBQ20090203075510202/03/09 07:55:31  5-MIN KDBQ 031355Z 34019G24KT 10SM CLR M15/M18 A3019 830 76 -2700 340/19G24 RMK AO2
94908KDBQ DBQ20090203080009602/03/09 08:00:31  5-MIN KDBQ 031400Z 34019KT 10SM CLR M15/M18 A3019 830 76 -2700 340/19 RMK AO2
94908KDBQ DBQ20090203080509602/03/09 08:05:31  5-MIN KDBQ 031405Z 34018KT 10SM CLR M15/M18 A3019 830 76 -2700 340/18 RMK AO2
94908KDBQ DBQ20090203081009602/03/09 08:10:31  5-MIN KDBQ 031410Z 34018KT 10SM CLR M15/M18 A3019 830 76 -2700 340/18 RMK AO2
94908KDBQ DBQ20090203081509602/03/09 08:15:31  5-MIN KDBQ 031415Z 34018KT 10SM CLR M15/M18 A3020 820 76 -2700 340/18 RMK AO2
94908KDBQ DBQ20090203082009602/03/09 08:20:31  5-MIN KDBQ 031420Z 33019KT 10SM CLR M15/M18 A3020 820 76 -2700 330/19 RMK AO2
94908KDBQ DBQ20090203082509602/03/09 08:25:31  5-MIN KDBQ 031425Z 33019KT 10SM CLR M15/M18 A3020 820 76 -2700 330/19 RMK AO2
94908KDBQ DBQ20090203083009602/03/09 08:30:31  5-MIN KDBQ 031430Z 33018KT 10SM CLR M15/M18 A3021 810 76 -2700 330/18 RMK AO2
94908KDBQ DBQ20090203083510202/03/09 08:35:31  5-MIN KDBQ 031435Z 34018G25KT 10SM CLR M15/M18 A3021 810 76 -2700 340/18G25 RMK AO2
94908KDBQ DBQ20090203084010202/03/09 08:40:31  5-MIN KDBQ 031440Z 34015G25KT 10SM CLR M15/M18 A3021 810 76 -2700 340/15G25 RMK AO2
94908KDBQ DBQ20090203084510202/03/09 08:45:31  5-MIN KDBQ 031445Z 35018G24KT 10SM CLR M14/M18 A3021 810 76 -2600 350/18G24 RMK AO2
94908KDBQ DBQ20090203085012502/03/09 08:50:31  5-MIN KDBQ 031450Z 35017G24KT 10SM CLR M14/M18 A3022 810 76 -2600 350/17G24 RMK AO2 SLP259 T11441178 53009
94908KDBQ DBQ20090203085509602/03/09 08:55:31  5-MIN KDBQ 031455Z 35016KT 10SM CLR M14/M18 A3022 810 76 -2600 350/16 RMK AO2
94908KDBQ DBQ20090203090009602/03/09 09:00:31  5-MIN KDBQ 031500Z 35015KT 10SM CLR M14/M18 A3022 800 76 -2600 350/15 RMK AO2
94908KDBQ DBQ20090203090509602/03/09 09:05:31  5-MIN KDBQ 031505Z 35016KT 10SM CLR M14/M18 A3022 800 76 -2600 340/16 RMK AO2
94908KDBQ DBQ20090203091009602/03/09 09:10:31  5-MIN KDBQ 031510Z 35014KT 10SM CLR M14/M18 A3023 800 76 -2600 350/14 RMK AO2
94908KDBQ DBQ20090203091509602/03/09 09:15:31  5-MIN KDBQ 031515Z 35016KT 10SM CLR M14/M18 A3023 790 76 -2600 340/16 RMK AO2
94908KDBQ DBQ20090203092009602/03/09 09:20:31  5-MIN KDBQ 031520Z 34017KT 10SM CLR M14/M18 A3023 790 73 -2600 340/17 RMK AO2
94908KDBQ DBQ20090203092509602/03/09 09:25:31  5-MIN KDBQ 031525Z 35015KT 10SM CLR M14/M18 A3023 790 73 -2600 340/15 RMK AO2
94908KDBQ DBQ20090203093010202/03/09 09:30:31  5-MIN KDBQ 031530Z 34013G21KT 10SM CLR M14/M18 A3023 790 73 -2600 340/13G21 RMK AO2
94908KDBQ DBQ20090203093510202/03/09 09:35:31  5-MIN KDBQ 031535Z 35016G23KT 10SM CLR M14/M18 A3024 790 73 -2600 350/16G23 RMK AO2
94908KDBQ DBQ20090203094010202/03/09 09:40:31  5-MIN KDBQ 031540Z 34014G23KT 10SM CLR M14/M18 A3024 780 73 -2600 340/14G23 RMK AO2
94908KDBQ DBQ20090203094509602/03/09 09:45:31  5-MIN KDBQ 031545Z 35015KT 10SM CLR M14/M18 A3024 780 73 -2600 350/15 RMK AO2
94908KDBQ DBQ20090203095011302/03/09 09:50:31  5-MIN KDBQ 031550Z 35014KT 10SM CLR M14/M18 A3025 780 73 -2600 350/14 RMK AO2 SLP270 T11391178
94908KDBQ DBQ20090203095509602/03/09 09:55:31  5-MIN KDBQ 031555Z 35015KT 10SM CLR M13/M18 A3025 780 69 -2500 350/15 RMK AO2
94908KDBQ DBQ20090203100009602/03/09 10:00:31  5-MIN KDBQ 031600Z 34015KT 10SM CLR M13/M18 A3025 770 69 -2500 340/15 RMK AO2
94908KDBQ DBQ20090203100510202/03/09 10:05:31  5-MIN KDBQ 031605Z 34013G19KT 10SM CLR M13/M18 A3025 770 69 -2500 340/13G19 RMK AO2
94908KDBQ DBQ20090203101010202/03/09 10:10:31  5-MIN KDBQ 031610Z 34016G19KT 10SM CLR M13/M18 A3026 770 69 -2500 340/16G19 RMK AO2
94908KDBQ DBQ20090203101509602/03/09 10:15:31  5-MIN KDBQ 031615Z 35015KT 10SM CLR M13/M18 A3026 770 69 -2500 350/15 RMK AO2
94908KDBQ DBQ20090203102009602/03/09 10:20:31  5-MIN KDBQ 031620Z 35016KT 10SM CLR M13/M18 A3026 770 69 -2500 350/16 RMK AO2
94908KDBQ DBQ20090203102509602/03/09 10:25:31  5-MIN KDBQ 031625Z 36015KT 10SM CLR M13/M18 A3026 770 69 -2500 360/15 RMK AO2
94908KDBQ DBQ20090203103010202/03/09 10:30:31  5-MIN KDBQ 031630Z 35017G21KT 10SM CLR M13/M18 A3026 770 69 -2500 350/17G21 RMK AO2
94908KDBQ DBQ20090203103509602/03/09 10:35:31  5-MIN KDBQ 031635Z 36014KT 10SM CLR M13/M17 A3026 770 73 -2500 350/14 RMK AO2
94908KDBQ DBQ20090203104009602/03/09 10:40:31  5-MIN KDBQ 031640Z 35015KT 10SM CLR M13/M17 A3026 770 70 -2400 340/15 RMK AO2
94908KDBQ DBQ20090203104509602/03/09 10:45:31  5-MIN KDBQ 031645Z 34017KT 10SM CLR M13/M17 A3026 770 70 -2400 340/17 RMK AO2
94908KDBQ DBQ20090203105011302/03/09 10:50:31  5-MIN KDBQ 031650Z 35014KT 10SM CLR M13/M17 A3026 770 70 -2400 350/14 RMK AO2 SLP273 T11281172
94908KDBQ DBQ20090203105509602/03/09 10:55:31  5-MIN KDBQ 031655Z 34013KT 10SM CLR M13/M17 A3025 770 70 -2400 340/13 RMK AO2
94908KDBQ DBQ20090203110009602/03/09 11:00:31  5-MIN KDBQ 031700Z 35013KT 10SM CLR M13/M17 A3026 770 70 -2400 350/13 RMK AO2
94908KDBQ DBQ20090203110509602/03/09 11:05:31  5-MIN KDBQ 031705Z 34013KT 10SM CLR M12/M17 A3026 770 67 -2400 340/13 RMK AO2
94908KDBQ DBQ20090203111009602/03/09 11:10:31  5-MIN KDBQ 031710Z 34016KT 10SM CLR M12/M17 A3026 770 67 -2400 340/16 RMK AO2
94908KDBQ DBQ20090203111509602/03/09 11:15:31  5-MIN KDBQ 031715Z 35016KT 10SM CLR M12/M17 A3026 770 67 -2400 350/16 RMK AO2
94908KDBQ DBQ20090203112009602/03/09 11:20:31  5-MIN KDBQ 031720Z 34013KT 10SM CLR M12/M17 A3026 770 67 -2400 340/13 RMK AO2
94908KDBQ DBQ20090203112509602/03/09 11:25:31  5-MIN KDBQ 031725Z 34013KT 10SM CLR M12/M17 A3025 770 67 -2400 340/13 RMK AO2
94908KDBQ DBQ20090203113009602/03/09 11:30:31  5-MIN KDBQ 031730Z 34016KT 10SM CLR M12/M17 A3026 770 67 -2400 330/16 RMK AO2
94908KDBQ DBQ20090203113510202/03/09 11:35:31  5-MIN KDBQ 031735Z 34013G20KT 10SM CLR M12/M17 A3026 770 67 -2400 340/13G20 RMK AO2
94908KDBQ DBQ20090203114009602/03/09 11:40:31  5-MIN KDBQ 031740Z 35014KT 10SM CLR M12/M17 A3025 770 64 -2300 350/14 RMK AO2
94908KDBQ DBQ20090203114509602/03/09 11:45:31  5-MIN KDBQ 031745Z 35013KT 10SM CLR M12/M17 A3026 770 64 -2300 350/13 RMK AO2
94908KDBQ DBQ20090203115013102/03/09 11:50:31  5-MIN KDBQ 031750Z 34015KT 10SM CLR M12/M17 A3025 770 64 -2300 340/15 RMK AO2 SLP271 T11171172 11117 21161 53028
94908KDBQ DBQ20090203115509602/03/09 11:55:31  5-MIN KDBQ 031755Z 34013KT 10SM CLR M12/M17 A3025 770 64 -2300 340/13 RMK AO2
94908KDBQ DBQ20090203120009602/03/09 12:00:31  5-MIN KDBQ 031800Z 34014KT 10SM CLR M12/M17 A3025 770 64 -2300 340/14 RMK AO2
94908KDBQ DBQ20090203120509602/03/09 12:05:31  5-MIN KDBQ 031805Z 34016KT 10SM CLR M12/M17 A3025 770 64 -2300 340/16 RMK AO2
94908KDBQ DBQ20090203121009602/03/09 12:10:31  5-MIN KDBQ 031810Z 35016KT 10SM CLR M12/M17 A3025 770 64 -2300 350/16 RMK AO2
94908KDBQ DBQ20090203121509602/03/09 12:15:31  5-MIN KDBQ 031815Z 34015KT 10SM CLR M12/M17 A3025 770 64 -2300 340/15 RMK AO2
94908KDBQ DBQ20090203122009602/03/09 12:20:31  5-MIN KDBQ 031820Z 35015KT 10SM CLR M12/M17 A3025 780 64 -2300 350/15 RMK AO2
94908KDBQ DBQ20090203122509602/03/09 12:25:31  5-MIN KDBQ 031825Z 34015KT 10SM CLR M12/M17 A3025 780 64 -2300 340/15 RMK AO2
94908KDBQ DBQ20090203123009602/03/09 12:30:31  5-MIN KDBQ 031830Z 34015KT 10SM CLR M12/M17 A3025 780 64 -2300 340/15 RMK AO2
94908KDBQ DBQ20090203123509602/03/09 12:35:31  5-MIN KDBQ 031835Z 34015KT 10SM CLR M12/M17 A3025 780 67 -2300 340/15 RMK AO2
94908KDBQ DBQ20090203124009602/03/09 12:40:31  5-MIN KDBQ 031840Z 35014KT 10SM CLR M11/M17 A3025 780 61 -2200 350/14 RMK AO2
94908KDBQ DBQ20090203124509602/03/09 12:45:31  5-MIN KDBQ 031845Z 35013KT 10SM CLR M11/M17 A3025 770 64 -2200 340/13 RMK AO2
94908KDBQ DBQ20090203125011302/03/09 12:50:31  5-MIN KDBQ 031850Z 35016KT 10SM CLR M11/M17 A3025 780 64 -2200 350/16 RMK AO2 SLP269 T11111167
94908KDBQ DBQ20090203125509602/03/09 12:55:31  5-MIN KDBQ 031855Z 34016KT 10SM CLR M11/M17 A3025 780 61 -2200 340/16 RMK AO2
94908KDBQ DBQ20090203130009602/03/09 13:00:31  5-MIN KDBQ 031900Z 34016KT 10SM CLR M11/M17 A3025 780 61 -2200 340/16 RMK AO2
94908KDBQ DBQ20090203130509602/03/09 13:05:31  5-MIN KDBQ 031905Z 34016KT 10SM CLR M11/M17 A3025 780 61 -2200 340/16 RMK AO2
94908KDBQ DBQ20090203131009602/03/09 13:10:31  5-MIN KDBQ 031910Z 35016KT 10SM CLR M11/M17 A3025 780 64 -2200 350/16 RMK AO2
94908KDBQ DBQ20090203131509602/03/09 13:15:31  5-MIN KDBQ 031915Z 34015KT 10SM CLR M11/M17 A3025 780 61 -2200 340/15 RMK AO2
94908KDBQ DBQ20090203132010202/03/09 13:20:31  5-MIN KDBQ 031920Z 35018G23KT 10SM CLR M11/M17 A3025 780 61 -2200 350/18G23 RMK AO2
94908KDBQ DBQ20090203132510202/03/09 13:25:31  5-MIN KDBQ 031925Z 35018G23KT 10SM CLR M11/M17 A3025 780 61 -2200 340/18G23 RMK AO2
94908KDBQ DBQ20090203133009602/03/09 13:30:31  5-MIN KDBQ 031930Z 34016KT 10SM CLR M11/M17 A3025 780 61 -2200 340/16 RMK AO2
94908KDBQ DBQ20090203133509602/03/09 13:35:31  5-MIN KDBQ 031935Z 34016KT 10SM CLR M11/M17 A3025 780 58 -2100 330/16 RMK AO2
94908KDBQ DBQ20090203134010202/03/09 13:40:31  5-MIN KDBQ 031940Z 34017G22KT 10SM CLR M11/M17 A3025 780 61 -2200 340/17G22 RMK AO2
94908KDBQ DBQ20090203134510202/03/09 13:45:31  5-MIN KDBQ 031945Z 34014G22KT 10SM CLR M11/M17 A3025 780 58 -2100 340/14G22 RMK AO2
94908KDBQ DBQ20090203135011302/03/09 13:50:31  5-MIN KDBQ 031950Z 34013KT 10SM CLR M11/M17 A3025 770 58 -2100 330/13 RMK AO2 SLP270 T11061172
94908KDBQ DBQ20090203135510202/03/09 13:55:31  5-MIN KDBQ 031955Z 34015G21KT 10SM CLR M11/M17 A3025 770 61 -2100 340/15G21 RMK AO2
94908KDBQ DBQ20090203140010202/03/09 14:00:31  5-MIN KDBQ 032000Z 33016G21KT 10SM CLR M11/M17 A3025 770 58 -2100 330/16G21 RMK AO2
94908KDBQ DBQ20090203140509602/03/09 14:05:31  5-MIN KDBQ 032005Z 33015KT 10SM CLR M11/M17 A3025 770 58 -2100 330/15 RMK AO2
94908KDBQ DBQ20090203141009602/03/09 14:10:31  5-MIN KDBQ 032010Z 34015KT 10SM CLR M11/M17 A3025 770 58 -2100 340/15 RMK AO2
94908KDBQ DBQ20090203141509602/03/09 14:15:31  5-MIN KDBQ 032015Z 34015KT 10SM CLR M11/M17 A3025 770 58 -2100 330/15 RMK AO2
94908KDBQ DBQ20090203142009602/03/09 14:20:31  5-MIN KDBQ 032020Z 33014KT 10SM CLR M11/M17 A3026 770 58 -2100 330/14 RMK AO2
94908KDBQ DBQ20090203142509602/03/09 14:25:31  5-MIN KDBQ 032025Z 33015KT 10SM CLR M11/M17 A3026 770 61 -2100 330/15 RMK AO2
94908KDBQ DBQ20090203143010202/03/09 14:30:31  5-MIN KDBQ 032030Z 33017G21KT 10SM CLR M11/M17 A3026 770 58 -2100 330/17G21 RMK AO2
94908KDBQ DBQ20090203143509602/03/09 14:35:31  5-MIN KDBQ 032035Z 34017KT 10SM CLR M11/M17 A3026 760 58 -2200 330/17 RMK AO2
94908KDBQ DBQ20090203144009602/03/09 14:40:31  5-MIN KDBQ 032040Z 33016KT 10SM CLR M11/M17 A3026 760 58 -2200 330/16 RMK AO2
94908KDBQ DBQ20090203144510102/03/09 14:45:31  5-MIN KDBQ 032045Z AUTO 33014KT 10SM CLR M11/M17 A3026 760 61 -2200 330/14 RMK AO2
94908KDBQ DBQ20090203145012402/03/09 14:50:31  5-MIN KDBQ 032050Z AUTO 35014KT 10SM CLR M11/M17 A3026 760 58 -2200 350/14 RMK AO2 SLP274 T11061172 50013
94908KDBQ DBQ20090203145509602/03/09 14:55:31  5-MIN KDBQ 032055Z 34016KT 10SM CLR M11/M17 A3027 760 61 -2200 340/16 RMK AO2
94908KDBQ DBQ20090203150009602/03/09 15:00:31  5-MIN KDBQ 032100Z 34014KT 10SM CLR M11/M17 A3027 760 58 -2200 340/14 RMK AO2
94908KDBQ DBQ20090203150509602/03/09 15:05:31  5-MIN KDBQ 032105Z 34015KT 10SM CLR M11/M17 A3027 760 58 -2200 340/15 RMK AO2
94908KDBQ DBQ20090203151009602/03/09 15:10:31  5-MIN KDBQ 032110Z 34015KT 10SM CLR M11/M17 A3027 750 58 -2200 340/15 RMK AO2
94908KDBQ DBQ20090203151509602/03/09 15:15:31  5-MIN KDBQ 032115Z 35015KT 10SM CLR M11/M17 A3027 750 58 -2200 350/15 RMK AO2
94908KDBQ DBQ20090203152009602/03/09 15:20:31  5-MIN KDBQ 032120Z 36016KT 10SM CLR M11/M18 A3027 750 56 -2200 360/16 RMK AO2
94908KDBQ DBQ20090203152509602/03/09 15:25:31  5-MIN KDBQ 032125Z 35015KT 10SM CLR M11/M17 A3028 750 58 -2200 350/15 RMK AO2
94908KDBQ DBQ20090203153009602/03/09 15:30:31  5-MIN KDBQ 032130Z 35017KT 10SM CLR M11/M18 A3028 750 56 -2200 350/17 RMK AO2
94908KDBQ DBQ20090203153509602/03/09 15:35:31  5-MIN KDBQ 032135Z 36014KT 10SM CLR M11/M18 A3028 750 56 -2200 360/14 RMK AO2
94908KDBQ DBQ20090203154009602/03/09 15:40:31  5-MIN KDBQ 032140Z 35012KT 10SM CLR M11/M18 A3028 750 56 -2200 350/12 RMK AO2
94908KDBQ DBQ20090203154509602/03/09 15:45:31  5-MIN KDBQ 032145Z 35012KT 10SM CLR M11/M17 A3028 740 58 -2200 350/12 RMK AO2
94908KDBQ DBQ20090203155011302/03/09 15:50:31  5-MIN KDBQ 032150Z 35014KT 10SM CLR M11/M17 A3029 740 58 -2200 350/14 RMK AO2 SLP281 T11061172
94908KDBQ DBQ20090203155509602/03/09 15:55:31  5-MIN KDBQ 032155Z 34013KT 10SM CLR M11/M17 A3029 740 58 -2200 340/13 RMK AO2
94908KDBQ DBQ20090203160009602/03/09 16:00:31  5-MIN KDBQ 032200Z 34015KT 10SM CLR M11/M17 A3029 740 58 -2200 340/15 RMK AO2
94908KDBQ DBQ20090203160509602/03/09 16:05:31  5-MIN KDBQ 032205Z 34015KT 10SM CLR M11/M17 A3029 740 58 -2200 340/15 RMK AO2
94908KDBQ DBQ20090203161009602/03/09 16:10:31  5-MIN KDBQ 032210Z 34013KT 10SM CLR M11/M17 A3029 740 58 -2200 340/13 RMK AO2
94908KDBQ DBQ20090203161509602/03/09 16:15:31  5-MIN KDBQ 032215Z 35012KT 10SM CLR M11/M17 A3029 740 58 -2200 350/12 RMK AO2
94908KDBQ DBQ20090203162009602/03/09 16:20:31  5-MIN KDBQ 032220Z 34012KT 10SM CLR M11/M17 A3029 740 58 -2200 340/12 RMK AO2
94908KDBQ DBQ20090203162509602/03/09 16:25:31  5-MIN KDBQ 032225Z 34011KT 10SM CLR M11/M17 A3029 730 61 -2300 340/11 RMK AO2
94908KDBQ DBQ20090203163009602/03/09 16:30:31  5-MIN KDBQ 032230Z 34013KT 10SM CLR M11/M17 A3030 730 61 -2300 340/13 RMK AO2
94908KDBQ DBQ20090203163509602/03/09 16:35:31  5-MIN KDBQ 032235Z 34011KT 10SM CLR M11/M17 A3030 730 61 -2300 340/11 RMK AO2
94908KDBQ DBQ20090203164009602/03/09 16:40:31  5-MIN KDBQ 032240Z 34013KT 10SM CLR M11/M17 A3030 730 61 -2300 340/13 RMK AO2
94908KDBQ DBQ20090203164509602/03/09 16:45:31  5-MIN KDBQ 032245Z 35013KT 10SM CLR M11/M17 A3030 730 61 -2300 340/13 RMK AO2
94908KDBQ DBQ20090203165011302/03/09 16:50:31  5-MIN KDBQ 032250Z 34012KT 10SM CLR M12/M17 A3030 730 64 -2300 340/12 RMK AO2 SLP288 T11171172
94908KDBQ DBQ20090203165509602/03/09 16:55:31  5-MIN KDBQ 032255Z 34011KT 10SM CLR M12/M17 A3031 720 64 -2300 340/11 RMK AO2
94908KDBQ DBQ20090203170009602/03/09 17:00:31  5-MIN KDBQ 032300Z 34011KT 10SM CLR M12/M17 A3031 720 64 -2400 340/11 RMK AO2
94908KDBQ DBQ20090203170509602/03/09 17:05:31  5-MIN KDBQ 032305Z 34011KT 10SM CLR M12/M17 A3031 720 64 -2400 340/11 RMK AO2
94908KDBQ DBQ20090203171009602/03/09 17:10:31  5-MIN KDBQ 032310Z 35010KT 10SM CLR M12/M18 A3031 720 61 -2400 350/10 RMK AO2
94908KDBQ DBQ20090203171509602/03/09 17:15:31  5-MIN KDBQ 032315Z 35009KT 10SM CLR M12/M18 A3032 720 64 -2400 350/09 RMK AO2
94908KDBQ DBQ20090203172009602/03/09 17:20:31  5-MIN KDBQ 032320Z 35010KT 10SM CLR M12/M18 A3032 710 64 -2400 350/10 RMK AO2
94908KDBQ DBQ20090203172509602/03/09 17:25:31  5-MIN KDBQ 032325Z 35010KT 10SM CLR M12/M18 A3032 710 64 -2400 350/10 RMK AO2
94908KDBQ DBQ20090203173009602/03/09 17:30:31  5-MIN KDBQ 032330Z 35011KT 10SM CLR M12/M18 A3032 710 64 -2400 350/11 RMK AO2
94908KDBQ DBQ20090203173509602/03/09 17:35:31  5-MIN KDBQ 032335Z 35010KT 10SM CLR M12/M18 A3032 710 64 -2400 350/10 RMK AO2
94908KDBQ DBQ20090203174009602/03/09 17:40:31  5-MIN KDBQ 032340Z 36009KT 10SM CLR M13/M18 A3032 710 66 -2500 360/09 RMK AO2
94908KDBQ DBQ20090203174509602/03/09 17:45:31  5-MIN KDBQ 032345Z 36010KT 10SM CLR M12/M18 A3032 710 61 -2400 360/10 RMK AO2
94908KDBQ DBQ20090203175013102/03/09 17:50:31  5-MIN KDBQ 032350Z 36010KT 10SM CLR M13/M18 A3033 710 63 -2500 360/10 RMK AO2 SLP296 T11281183 11106 21128 53003
94908KDBQ DBQ20090203175509602/03/09 17:55:31  5-MIN KDBQ 032355Z 36010KT 10SM CLR M13/M18 A3033 700 63 -2500 360/10 RMK AO2
94908KDBQ DBQ20090203180009602/03/09 18:00:31  5-MIN KDBQ 040000Z 36010KT 10SM CLR M13/M18 A3033 700 63 -2500 360/10 RMK AO2
94908KDBQ DBQ20090203180509602/03/09 18:05:31  5-MIN KDBQ 040005Z 36010KT 10SM CLR M13/M18 A3033 700 63 -2500 350/10 RMK AO2
94908KDBQ DBQ20090203181009602/03/09 18:10:31  5-MIN KDBQ 040010Z 36010KT 10SM CLR M13/M18 A3034 690 63 -2500 350/10 RMK AO2
94908KDBQ DBQ20090203181509602/03/09 18:15:31  5-MIN KDBQ 040015Z 35011KT 10SM CLR M13/M18 A3034 690 66 -2600 350/11 RMK AO2
94908KDBQ DBQ20090203182009602/03/09 18:20:31  5-MIN KDBQ 040020Z 36011KT 10SM CLR M13/M18 A3034 690 66 -2600 360/11 RMK AO2
94908KDBQ DBQ20090203182509602/03/09 18:25:31  5-MIN KDBQ 040025Z 36011KT 10SM CLR M13/M18 A3034 690 63 -2500 350/11 RMK AO2
94908KDBQ DBQ20090203183009602/03/09 18:30:31  5-MIN KDBQ 040030Z 36011KT 10SM CLR M13/M18 A3035 690 66 -2600 360/11 RMK AO2
94908KDBQ DBQ20090203183509602/03/09 18:35:31  5-MIN KDBQ 040035Z 36011KT 10SM CLR M13/M18 A3035 680 66 -2600 360/11 RMK AO2
94908KDBQ DBQ20090203184009602/03/09 18:40:31  5-MIN KDBQ 040040Z 36011KT 10SM CLR M13/M19 A3035 680 60 -2500 360/11 RMK AO2
94908KDBQ DBQ20090203184509602/03/09 18:45:31  5-MIN KDBQ 040045Z 36009KT 10SM CLR M13/M19 A3035 690 60 -2500 360/09 RMK AO2
94908KDBQ DBQ20090203185011302/03/09 18:50:31  5-MIN KDBQ 040050Z 36009KT 10SM CLR M13/M19 A3035 690 60 -2500 360/09 RMK AO2 SLP304 T11281189
94908KDBQ DBQ20090203185509602/03/09 18:55:31  5-MIN KDBQ 040055Z 36010KT 10SM CLR M13/M19 A3035 690 63 -2600 360/10 RMK AO2
94908KDBQ DBQ20090203190009602/03/09 19:00:31  5-MIN KDBQ 040100Z 35012KT 10SM CLR M13/M19 A3035 680 63 -2600 350/12 RMK AO2
94908KDBQ DBQ20090203190509602/03/09 19:05:31  5-MIN KDBQ 040105Z 34010KT 10SM CLR M13/M19 A3035 680 63 -2600 340/10 RMK AO2
94908KDBQ DBQ20090203191009602/03/09 19:10:31  5-MIN KDBQ 040110Z 33007KT 10SM CLR M14/M19 A3036 680 66 -2700 330/07 RMK AO2
94908KDBQ DBQ20090203191509602/03/09 19:15:31  5-MIN KDBQ 040115Z 32005KT 10SM CLR M14/M19 A3036 670 69 -2800 320/05 RMK AO2
94908KDBQ DBQ20090203192009402/03/09 19:20:31  5-MIN KDBQ 040120Z 32005KT 10SM M14/M19 A3036 670 69 -2800 320/05 RMK AO2 $
94908KDBQ DBQ20090203192509802/03/09 19:25:31  5-MIN KDBQ 040125Z 31004KT 10SM CLR M15/M19 A3036 670 69 -2900 310/04 RMK AO2 $
94908KDBQ DBQ20090203193009802/03/09 19:30:31  5-MIN KDBQ 040130Z 32005KT 10SM CLR M15/M19 A3036 670 69 -2900 320/05 RMK AO2 $
94908KDBQ DBQ20090203193509802/03/09 19:35:31  5-MIN KDBQ 040135Z 32005KT 10SM CLR M15/M19 A3036 670 69 -2900 310/05 RMK AO2 $
94908KDBQ DBQ20090203194009802/03/09 19:40:31  5-MIN KDBQ 040140Z 32005KT 10SM CLR M15/M19 A3036 670 69 -2900 320/05 RMK AO2 $
94908KDBQ DBQ20090203194509802/03/09 19:45:31  5-MIN KDBQ 040145Z 33006KT 10SM CLR M16/M19 A3037 670 72 -2900 330/06 RMK AO2 $
94908KDBQ DBQ20090203195011502/03/09 19:50:31  5-MIN KDBQ 040150Z 33007KT 10SM CLR M15/M19 A3037 670 69 -2900 330/07 RMK AO2 SLP311 T11501194 $
94908KDBQ DBQ20090203195509902/03/09 19:55:31  5-MIN KDBQ 040155Z AUTO 34008KT 10SM M15/M19 A3037 670 69 -2900 340/08 RMK AO2 $
94908KDBQ DBQ20090203200009902/03/09 20:00:31  5-MIN KDBQ 040200Z AUTO 34009KT 10SM M15/M19 A3037 670 72 -2900 340/09 RMK AO2 $
94908KDBQ DBQ20090203200509902/03/09 20:05:31  5-MIN KDBQ 040205Z AUTO 34008KT 10SM M15/M19 A3037 660 72 -2900 340/08 RMK AO2 $
94908KDBQ DBQ20090203201009902/03/09 20:10:31  5-MIN KDBQ 040210Z AUTO 34009KT 10SM M15/M19 A3037 660 72 -2900 340/09 RMK AO2 $
94908KDBQ DBQ20090203201510302/03/09 20:15:31  5-MIN KDBQ 040215Z AUTO 34010KT 10SM CLR M15/M19 A3037 660 72 -2900 340/10 RMK AO2 $
94908KDBQ DBQ20090203202010302/03/09 20:20:31  5-MIN KDBQ 040220Z AUTO 34010KT 10SM CLR M15/M19 A3038 660 72 -2900 330/10 RMK AO2 $
94908KDBQ DBQ20090203202510302/03/09 20:25:31  5-MIN KDBQ 040225Z AUTO 34010KT 10SM CLR M15/M19 A3038 660 72 -2900 340/10 RMK AO2 $
94908KDBQ DBQ20090203203010302/03/09 20:30:31  5-MIN KDBQ 040230Z AUTO 34009KT 10SM CLR M15/M19 A3038 660 72 -2900 340/09 RMK AO2 $
94908KDBQ DBQ20090203203510302/03/09 20:35:31  5-MIN KDBQ 040235Z AUTO 34009KT 10SM CLR M15/M19 A3038 660 72 -2900 340/09 RMK AO2 $
94908KDBQ DBQ20090203204010302/03/09 20:40:31  5-MIN KDBQ 040240Z AUTO 34010KT 10SM CLR M15/M19 A3038 660 69 -2900 340/10 RMK AO2 $
94908KDBQ DBQ20090203204510302/03/09 20:45:31  5-MIN KDBQ 040245Z AUTO 34009KT 10SM CLR M16/M19 A3038 660 72 -3000 340/09 RMK AO2 $
94908KDBQ DBQ20090203205012602/03/09 20:50:31  5-MIN KDBQ 040250Z AUTO 34010KT 10SM CLR M16/M19 A3038 650 72 -3000 340/10 RMK AO2 SLP316 T11561194 51021 $
94908KDBQ DBQ20090203205510302/03/09 20:55:31  5-MIN KDBQ 040255Z AUTO 34010KT 10SM CLR M16/M19 A3038 650 72 -3000 340/10 RMK AO2 $
94908KDBQ DBQ20090203210010302/03/09 21:00:31  5-MIN KDBQ 040300Z AUTO 34010KT 10SM CLR M16/M19 A3039 650 72 -3000 340/10 RMK AO2 $
94908KDBQ DBQ20090203210510302/03/09 21:05:31  5-MIN KDBQ 040305Z AUTO 34010KT 10SM CLR M16/M19 A3039 650 72 -3000 340/10 RMK AO2 $
94908KDBQ DBQ20090203211010302/03/09 21:10:31  5-MIN KDBQ 040310Z AUTO 34010KT 10SM CLR M16/M19 A3039 650 72 -3000 340/10 RMK AO2 $
94908KDBQ DBQ20090203211510302/03/09 21:15:31  5-MIN KDBQ 040315Z AUTO 34010KT 10SM CLR M16/M19 A3039 650 72 -3000 340/10 RMK AO2 $
94908KDBQ DBQ20090203212010302/03/09 21:20:31  5-MIN KDBQ 040320Z AUTO 34010KT 10SM CLR M16/M19 A3039 650 72 -3000 340/10 RMK AO2 $
94908KDBQ DBQ20090203212510302/03/09 21:25:31  5-MIN KDBQ 040325Z AUTO 34010KT 10SM CLR M16/M19 A3039 650 72 -3000 340/10 RMK AO2 $
94908KDBQ DBQ20090203213010302/03/09 21:30:31  5-MIN KDBQ 040330Z AUTO 34010KT 10SM CLR M16/M19 A3039 650 72 -3000 340/10 RMK AO2 $
94908KDBQ DBQ20090203213510302/03/09 21:35:31  5-MIN KDBQ 040335Z AUTO 34010KT 10SM CLR M16/M19 A3039 650 72 -3000 340/10 RMK AO2 $
94908KDBQ DBQ20090203214010302/03/09 21:40:31  5-MIN KDBQ 040340Z AUTO 34009KT 10SM CLR M16/M19 A3039 640 72 -3000 340/09 RMK AO2 $
94908KDBQ DBQ20090203214510302/03/09 21:45:31  5-MIN KDBQ 040345Z AUTO 34010KT 10SM CLR M16/M19 A3039 640 72 -3000 340/10 RMK AO2 $
94908KDBQ DBQ20090203215012002/03/09 21:50:31  5-MIN KDBQ 040350Z AUTO 35009KT 10SM CLR M16/M19 A3039 640 72 -3000 350/09 RMK AO2 SLP320 T11561194 $
94908KDBQ DBQ20090203215510302/03/09 21:55:31  5-MIN KDBQ 040355Z AUTO 35009KT 10SM CLR M16/M19 A3039 640 76 -3000 340/09 RMK AO2 $
94908KDBQ DBQ20090203220010302/03/09 22:00:31  5-MIN KDBQ 040400Z AUTO 35010KT 10SM CLR M16/M19 A3040 640 76 -3000 340/10 RMK AO2 $
94908KDBQ DBQ20090203220510302/03/09 22:05:31  5-MIN KDBQ 040405Z AUTO 35010KT 10SM CLR M16/M19 A3040 640 72 -3000 350/10 RMK AO2 $
94908KDBQ DBQ20090203221010302/03/09 22:10:31  5-MIN KDBQ 040410Z AUTO 34010KT 10SM CLR M16/M19 A3040 640 76 -3100 340/10 RMK AO2 $
94908KDBQ DBQ20090203221510302/03/09 22:15:31  5-MIN KDBQ 040415Z AUTO 34009KT 10SM CLR M16/M19 A3040 640 76 -3100 340/09 RMK AO2 $
94908KDBQ DBQ20090203222010302/03/09 22:20:31  5-MIN KDBQ 040420Z AUTO 34009KT 10SM CLR M16/M19 A3040 640 76 -3100 340/09 RMK AO2 $
94908KDBQ DBQ20090203222510302/03/09 22:25:31  5-MIN KDBQ 040425Z AUTO 34010KT 10SM CLR M16/M20 A3040 640 72 -3100 340/10 RMK AO2 $
94908KDBQ DBQ20090203223010302/03/09 22:30:31  5-MIN KDBQ 040430Z AUTO 34010KT 10SM CLR M16/M19 A3040 630 76 -3100 340/10 RMK AO2 $
94908KDBQ DBQ20090203223510302/03/09 22:35:31  5-MIN KDBQ 040435Z AUTO 34011KT 10SM CLR M16/M20 A3041 630 72 -3100 330/11 RMK AO2 $
94908KDBQ DBQ20090203224010302/03/09 22:40:31  5-MIN KDBQ 040440Z AUTO 33011KT 10SM CLR M16/M19 A3041 630 76 -3100 330/11 RMK AO2 $
94908KDBQ DBQ20090203224510302/03/09 22:45:31  5-MIN KDBQ 040445Z AUTO 33012KT 10SM CLR M16/M19 A3041 630 76 -3100 330/12 RMK AO2 $
94908KDBQ DBQ20090203225012002/03/09 22:50:31  5-MIN KDBQ 040450Z AUTO 33012KT 10SM CLR M16/M19 A3041 630 76 -3100 330/12 RMK AO2 SLP325 T11611194 $
94908KDBQ DBQ20090203225510302/03/09 22:55:31  5-MIN KDBQ 040455Z AUTO 33012KT 10SM CLR M16/M19 A3041 630 76 -3100 330/12 RMK AO2 $
94908KDBQ DBQ20090203230010702/03/09 23:00:31  5-MIN KDBQ 040500Z AUTO 33011KT 10SM CLR M16/M19 A3041 630 76 -3100 330/11 RMK AO2 PNO $
94908KDBQ DBQ20090203230510302/03/09 23:05:31  5-MIN KDBQ 040505Z AUTO 33013KT 10SM CLR M16/M19 A3041 630 76 -3100 330/13 RMK AO2 $
94908KDBQ DBQ20090203231010302/03/09 23:10:31  5-MIN KDBQ 040510Z AUTO 34012KT 10SM CLR M16/M19 A3041 630 76 -3100 340/12 RMK AO2 $
94908KDBQ DBQ20090203231510302/03/09 23:15:31  5-MIN KDBQ 040515Z AUTO 34012KT 10SM CLR M16/M19 A3041 630 76 -3100 340/12 RMK AO2 $
94908KDBQ DBQ20090203232010302/03/09 23:20:31  5-MIN KDBQ 040520Z AUTO 34011KT 10SM CLR M16/M19 A3041 630 76 -3100 340/11 RMK AO2 $
94908KDBQ DBQ20090203232510302/03/09 23:25:31  5-MIN KDBQ 040525Z AUTO 34011KT 10SM CLR M16/M19 A3041 630 76 -3100 340/11 RMK AO2 $
94908KDBQ DBQ20090203233010302/03/09 23:30:31  5-MIN KDBQ 040530Z AUTO 34010KT 10SM CLR M16/M20 A3041 630 72 -3100 340/10 RMK AO2 $
94908KDBQ DBQ20090203233510302/03/09 23:35:31  5-MIN KDBQ 040535Z AUTO 34011KT 10SM CLR M16/M20 A3041 620 72 -3100 340/11 RMK AO2 $
94908KDBQ DBQ20090203234010302/03/09 23:40:31  5-MIN KDBQ 040540Z AUTO 34011KT 10SM CLR M16/M19 A3041 630 76 -3100 340/11 RMK AO2 $
94908KDBQ DBQ20090203234510302/03/09 23:45:31  5-MIN KDBQ 040545Z AUTO 34011KT 10SM CLR M16/M20 A3041 630 72 -3100 340/11 RMK AO2 $
94908KDBQ DBQ20090203235014802/03/09 23:50:31  5-MIN KDBQ 040550Z AUTO 34010KT 10SM CLR M16/M20 A3041 620 72 -3100 340/10 RMK AO2 SLP326 T11611200 11128 21161 411061172 51019 $
94908KDBQ DBQ20090203235510302/03/09 23:55:31  5-MIN KDBQ 040555Z AUTO 34010KT 10SM CLR M16/M20 A3041 620 72 -3100 340/10 RMK AO2 $
94908KDBQ DBQ20090204000010302/04/09 00:00:38  5-MIN KDBQ 040600Z AUTO 34011KT 10SM CLR M16/M20 A3041 630 72 -3100 340/11 RMK AO2 $
94908KDBQ DBQ20090204000510302/04/09 00:05:31  5-MIN KDBQ 040605Z AUTO 35010KT 10SM CLR M17/M20 A3041 630 76 -3100 350/10 RMK AO2 $
94908KDBQ DBQ20090204001010302/04/09 00:10:31  5-MIN KDBQ 040610Z AUTO 35010KT 10SM CLR M17/M20 A3041 630 76 -3100 340/10 RMK AO2 $
94908KDBQ DBQ20090204001510302/04/09 00:15:32  5-MIN KDBQ 040615Z AUTO 35010KT 10SM CLR M17/M20 A3041 630 76 -3100 350/10 RMK AO2 $
94908KDBQ DBQ20090204002010302/04/09 00:20:31  5-MIN KDBQ 040620Z AUTO 34009KT 10SM CLR M17/M20 A3041 630 76 -3100 340/09 RMK AO2 $
94908KDBQ DBQ20090204002510302/04/09 00:25:31  5-MIN KDBQ 040625Z AUTO 34008KT 10SM CLR M17/M20 A3041 630 76 -3100 340/08 RMK AO2 $
94908KDBQ DBQ20090204003010302/04/09 00:30:31  5-MIN KDBQ 040630Z AUTO 34009KT 10SM CLR M17/M20 A3041 630 76 -3100 340/09 RMK AO2 $
94908KDBQ DBQ20090204003510302/04/09 00:35:31  5-MIN KDBQ 040635Z AUTO 34008KT 10SM CLR M17/M21 A3041 630 72 -3100 340/08 RMK AO2 $
94908KDBQ DBQ20090204004010302/04/09 00:40:31  5-MIN KDBQ 040640Z AUTO 34007KT 10SM CLR M17/M21 A3041 630 76 -3200 340/07 RMK AO2 $
94908KDBQ DBQ20090204004510302/04/09 00:45:31  5-MIN KDBQ 040645Z AUTO 34007KT 10SM CLR M17/M21 A3041 630 76 -3200 340/07 RMK AO2 $
94908KDBQ DBQ20090204005012002/04/09 00:50:31  5-MIN KDBQ 040650Z AUTO 34007KT 10SM CLR M17/M21 A3041 630 76 -3200 340/07 RMK AO2 SLP325 T11721206 $
94908KDBQ DBQ20090204005510302/04/09 00:55:31  5-MIN KDBQ 040655Z AUTO 34008KT 10SM CLR M17/M21 A3041 630 76 -3200 340/08 RMK AO2 $
94908KDBQ DBQ20090204010010302/04/09 01:00:31  5-MIN KDBQ 040700Z AUTO 34008KT 10SM CLR M17/M21 A3041 630 76 -3200 340/08 RMK AO2 $
94908KDBQ DBQ20090204010510702/04/09 01:05:31  5-MIN KDBQ 040705Z AUTO 34008KT 10SM CLR M17/M21 A3041 630 76 -3200 340/08 RMK AO2 PNO $
94908KDBQ DBQ20090204011010302/04/09 01:10:31  5-MIN KDBQ 040710Z AUTO 34009KT 10SM CLR M17/M21 A3041 620 76 -3200 340/09 RMK AO2 $
94908KDBQ DBQ20090204011510302/04/09 01:15:31  5-MIN KDBQ 040715Z AUTO 34009KT 10SM CLR M17/M21 A3042 620 76 -3200 340/09 RMK AO2 $
94908KDBQ DBQ20090204012010302/04/09 01:20:31  5-MIN KDBQ 040720Z AUTO 34009KT 10SM CLR M17/M21 A3042 620 76 -3200 340/09 RMK AO2 $
94908KDBQ DBQ20090204012510302/04/09 01:25:31  5-MIN KDBQ 040725Z AUTO 34009KT 10SM CLR M17/M21 A3042 620 76 -3200 340/09 RMK AO2 $
94908KDBQ DBQ20090204013010302/04/09 01:30:31  5-MIN KDBQ 040730Z AUTO 34009KT 10SM CLR M17/M21 A3042 620 76 -3200 340/09 RMK AO2 $
94908KDBQ DBQ20090204013510302/04/09 01:35:31  5-MIN KDBQ 040735Z AUTO 34009KT 10SM CLR M18/M21 A3042 620 75 -3300 340/09 RMK AO2 $
94908KDBQ DBQ20090204014010302/04/09 01:40:31  5-MIN KDBQ 040740Z AUTO 34009KT 10SM CLR M18/M21 A3042 620 75 -3300 340/09 RMK AO2 $
94908KDBQ DBQ20090204014510302/04/09 01:45:31  5-MIN KDBQ 040745Z AUTO 34009KT 10SM CLR M18/M21 A3042 620 75 -3300 340/09 RMK AO2 $
94908KDBQ DBQ20090204015012002/04/09 01:50:31  5-MIN KDBQ 040750Z AUTO 34010KT 10SM CLR M18/M21 A3042 620 75 -3300 340/10 RMK AO2 SLP329 T11781211 $
94908KDBQ DBQ20090204015510302/04/09 01:55:31  5-MIN KDBQ 040755Z AUTO 34010KT 10SM CLR M18/M21 A3042 620 75 -3300 340/10 RMK AO2 $
94908KDBQ DBQ20090204020010302/04/09 02:00:31  5-MIN KDBQ 040800Z AUTO 34009KT 10SM CLR M18/M21 A3043 610 75 -3300 340/09 RMK AO2 $
94908KDBQ DBQ20090204020510302/04/09 02:05:31  5-MIN KDBQ 040805Z AUTO 34009KT 10SM CLR M18/M21 A3043 610 75 -3300 340/09 RMK AO2 $
94908KDBQ DBQ20090204021010302/04/09 02:10:31  5-MIN KDBQ 040810Z AUTO 34009KT 10SM CLR M18/M21 A3043 610 75 -3300 340/09 RMK AO2 $
94908KDBQ DBQ20090204021510302/04/09 02:15:31  5-MIN KDBQ 040815Z AUTO 34009KT 10SM CLR M18/M21 A3043 610 75 -3300 340/09 RMK AO2 $
94908KDBQ DBQ20090204022010302/04/09 02:20:31  5-MIN KDBQ 040820Z AUTO 34009KT 10SM CLR M18/M21 A3043 610 75 -3300 340/09 RMK AO2 $
94908KDBQ DBQ20090204022510302/04/09 02:25:31  5-MIN KDBQ 040825Z AUTO 34009KT 10SM CLR M18/M21 A3043 610 75 -3300 340/09 RMK AO2 $
94908KDBQ DBQ20090204023010302/04/09 02:30:31  5-MIN KDBQ 040830Z AUTO 34009KT 10SM CLR M18/M21 A3043 610 75 -3300 340/09 RMK AO2 $
94908KDBQ DBQ20090204023510302/04/09 02:35:31  5-MIN KDBQ 040835Z AUTO 34009KT 10SM CLR M18/M21 A3044 600 75 -3300 340/09 RMK AO2 $
94908KDBQ DBQ20090204024010302/04/09 02:40:31  5-MIN KDBQ 040840Z AUTO 35009KT 10SM CLR M18/M21 A3044 600 75 -3300 350/09 RMK AO2 $
94908KDBQ DBQ20090204024510302/04/09 02:45:31  5-MIN KDBQ 040845Z AUTO 35009KT 10SM CLR M18/M21 A3044 600 75 -3300 350/09 RMK AO2 $
94908KDBQ DBQ20090204025012602/04/09 02:50:31  5-MIN KDBQ 040850Z AUTO 35009KT 10SM CLR M18/M21 A3044 600 75 -3300 340/09 RMK AO2 SLP334 T11781211 51010 $
94908KDBQ DBQ20090204025510302/04/09 02:55:31  5-MIN KDBQ 040855Z AUTO 35009KT 10SM CLR M18/M21 A3044 600 75 -3300 350/09 RMK AO2 $
94908KDBQ DBQ20090204030010302/04/09 03:00:31  5-MIN KDBQ 040900Z AUTO 34009KT 10SM CLR M18/M21 A3044 600 75 -3300 340/09 RMK AO2 $
94908KDBQ DBQ20090204030510302/04/09 03:05:31  5-MIN KDBQ 040905Z AUTO 35008KT 10SM CLR M18/M21 A3044 600 75 -3300 350/08 RMK AO2 $
94908KDBQ DBQ20090204031010302/04/09 03:10:31  5-MIN KDBQ 040910Z AUTO 35008KT 10SM CLR M18/M21 A3044 600 75 -3300 350/08 RMK AO2 $
94908KDBQ DBQ20090204031509902/04/09 03:15:31  5-MIN KDBQ 040915Z AUTO 34008KT 10SM M18/M22 A3044 600 75 -3400 340/08 RMK AO2 $
94908KDBQ DBQ20090204032009902/04/09 03:20:31  5-MIN KDBQ 040920Z AUTO 34008KT 10SM M18/M22 A3044 600 75 -3400 340/08 RMK AO2 $
94908KDBQ DBQ20090204032509902/04/09 03:25:31  5-MIN KDBQ 040925Z AUTO 34008KT 10SM M18/M22 A3044 600 75 -3400 340/08 RMK AO2 $
94908KDBQ DBQ20090204033009902/04/09 03:30:31  5-MIN KDBQ 040930Z AUTO 34008KT 10SM M18/M22 A3044 600 75 -3400 340/08 RMK AO2 $
94908KDBQ DBQ20090204033509902/04/09 03:35:31  5-MIN KDBQ 040935Z AUTO 34008KT 10SM M18/M22 A3044 600 75 -3400 340/08 RMK AO2 $
94908KDBQ DBQ20090204034009902/04/09 03:40:31  5-MIN KDBQ 040940Z AUTO 34008KT 10SM M18/M22 A3044 600 75 -3400 340/08 RMK AO2 $
94908KDBQ DBQ20090204034510302/04/09 03:45:31  5-MIN KDBQ 040945Z AUTO 34008KT 10SM CLR M18/M22 A3044 600 75 -3400 340/08 RMK AO2 $
94908KDBQ DBQ20090204035012002/04/09 03:50:31  5-MIN KDBQ 040950Z AUTO 34007KT 10SM CLR M18/M22 A3045 600 75 -3400 340/07 RMK AO2 SLP337 T11831217 $
94908KDBQ DBQ20090204035510302/04/09 03:55:31  5-MIN KDBQ 040955Z AUTO 34008KT 10SM CLR M18/M22 A3045 600 75 -3400 340/08 RMK AO2 $
94908KDBQ DBQ20090204040010302/04/09 04:00:31  5-MIN KDBQ 041000Z AUTO 34008KT 10SM CLR M18/M22 A3045 600 75 -3400 340/08 RMK AO2 $
94908KDBQ DBQ20090204040510302/04/09 04:05:31  5-MIN KDBQ 041005Z AUTO 34008KT 10SM CLR M18/M22 A3045 590 75 -3400 340/08 RMK AO2 $
94908KDBQ DBQ20090204041010302/04/09 04:10:31  5-MIN KDBQ 041010Z AUTO 34008KT 10SM CLR M18/M22 A3045 590 75 -3400 340/08 RMK AO2 $
94908KDBQ DBQ20090204041510302/04/09 04:15:31  5-MIN KDBQ 041015Z AUTO 34008KT 10SM CLR M18/M22 A3045 590 75 -3400 340/08 RMK AO2 $
94908KDBQ DBQ20090204042010302/04/09 04:20:31  5-MIN KDBQ 041020Z AUTO 34009KT 10SM CLR M18/M22 A3045 590 75 -3400 340/09 RMK AO2 $
94908KDBQ DBQ20090204042510302/04/09 04:25:31  5-MIN KDBQ 041025Z AUTO 35008KT 10SM CLR M18/M22 A3045 590 75 -3400 340/08 RMK AO2 $
94908KDBQ DBQ20090204043010302/04/09 04:30:31  5-MIN KDBQ 041030Z AUTO 35008KT 10SM CLR M18/M22 A3045 590 75 -3400 350/08 RMK AO2 $
94908KDBQ DBQ20090204043510302/04/09 04:35:31  5-MIN KDBQ 041035Z AUTO 35007KT 10SM CLR M18/M22 A3045 590 75 -3400 350/07 RMK AO2 $
94908KDBQ DBQ20090204044010302/04/09 04:40:31  5-MIN KDBQ 041040Z AUTO 34007KT 10SM CLR M19/M22 A3046 590 79 -3500 340/07 RMK AO2 $
94908KDBQ DBQ20090204044510302/04/09 04:45:31  5-MIN KDBQ 041045Z AUTO 34007KT 10SM CLR M18/M22 A3046 580 75 -3400 340/07 RMK AO2 $
94908KDBQ DBQ20090204045012002/04/09 04:50:31  5-MIN KDBQ 041050Z AUTO 35007KT 10SM CLR M19/M22 A3046 580 79 -3500 350/07 RMK AO2 SLP342 T11891217 $
94908KDBQ DBQ20090204045510302/04/09 04:55:31  5-MIN KDBQ 041055Z AUTO 35007KT 10SM CLR M19/M22 A3046 580 79 -3500 350/07 RMK AO2 $
94908KDBQ DBQ20090204050010302/04/09 05:00:31  5-MIN KDBQ 041100Z AUTO 35007KT 10SM CLR M19/M22 A3046 580 79 -3500 350/07 RMK AO2 $
94908KDBQ DBQ20090204050510302/04/09 05:05:31  5-MIN KDBQ 041105Z AUTO 35007KT 10SM CLR M19/M22 A3046 580 75 -3500 350/07 RMK AO2 $
94908KDBQ DBQ20090204051010302/04/09 05:10:31  5-MIN KDBQ 041110Z AUTO 35006KT 10SM CLR M19/M22 A3047 580 75 -3500 350/06 RMK AO2 $
94908KDBQ DBQ20090204051510302/04/09 05:15:31  5-MIN KDBQ 041115Z AUTO 35006KT 10SM CLR M19/M22 A3047 580 75 -3500 350/06 RMK AO2 $
94908KDBQ DBQ20090204052010302/04/09 05:20:31  5-MIN KDBQ 041120Z AUTO 35005KT 10SM CLR M19/M22 A3047 570 75 -3500 350/05 RMK AO2 $
94908KDBQ DBQ20090204052510302/04/09 05:25:31  5-MIN KDBQ 041125Z AUTO 35006KT 10SM CLR M19/M22 A3047 570 75 -3500 350/06 RMK AO2 $
94908KDBQ DBQ20090204053010302/04/09 05:30:31  5-MIN KDBQ 041130Z AUTO 36006KT 10SM CLR M19/M22 A3047 570 75 -3500 360/06 RMK AO2 $
94908KDBQ DBQ20090204053510702/04/09 05:35:31  5-MIN KDBQ 041135Z AUTO 01006KT 10SM CLR M19/M22 A3047 570 75 -3500 010/06 RMK AO2 PNO $
94908KDBQ DBQ20090204054010302/04/09 05:40:31  5-MIN KDBQ 041140Z AUTO 01005KT 10SM CLR M19/M22 A3048 570 79 -3500 010/05 RMK AO2 $
94908KDBQ DBQ20090204054510302/04/09 05:45:31  5-MIN KDBQ 041145Z AUTO 01005KT 10SM CLR M19/M22 A3048 570 79 -3500 010/05 RMK AO2 $
94908KDBQ DBQ20090204055013802/04/09 05:50:31  5-MIN KDBQ 041150Z AUTO 01005KT 10SM CLR M19/M22 A3048 570 79 -3500 010/05 RMK AO2 SLP350 T11891217 11161 21189 53008 $
94908KDBQ DBQ20090204055509802/04/09 05:55:31  5-MIN KDBQ 041155Z 36005KT 10SM CLR M19/M22 A3048 560 79 -3500 360/05 RMK AO2 $
94908KDBQ DBQ20090204060009802/04/09 06:00:31  5-MIN KDBQ 041200Z 36005KT 10SM CLR M19/M22 A3049 560 79 -3500 360/05 RMK AO2 $
94908KDBQ DBQ20090204060509802/04/09 06:05:31  5-MIN KDBQ 041205Z 36004KT 10SM CLR M19/M22 A3049 560 79 -3500 360/04 RMK AO2 $
94908KDBQ DBQ20090204061009802/04/09 06:10:31  5-MIN KDBQ 041210Z 36005KT 10SM CLR M19/M22 A3049 560 79 -3500 360/05 RMK AO2 $
94908KDBQ DBQ20090204061509802/04/09 06:15:31  5-MIN KDBQ 041215Z 36005KT 10SM CLR M19/M22 A3049 560 79 -3500 360/05 RMK AO2 $
94908KDBQ DBQ20090204062009802/04/09 06:20:31  5-MIN KDBQ 041220Z 35005KT 10SM CLR M19/M22 A3049 560 79 -3500 350/05 RMK AO2 $
94908KDBQ DBQ20090204062509802/04/09 06:25:31  5-MIN KDBQ 041225Z 35006KT 10SM CLR M19/M22 A3049 560 79 -3600 350/06 RMK AO2 $
94908KDBQ DBQ20090204063009802/04/09 06:30:31  5-MIN KDBQ 041230Z 35007KT 10SM CLR M19/M22 A3049 550 79 -3600 350/07 RMK AO2 $
94908KDBQ DBQ20090204063509802/04/09 06:35:31  5-MIN KDBQ 041235Z 35008KT 10SM CLR M19/M22 A3049 550 79 -3600 350/08 RMK AO2 $
94908KDBQ DBQ20090204064009802/04/09 06:40:31  5-MIN KDBQ 041240Z 35008KT 10SM CLR M19/M22 A3050 550 79 -3600 350/08 RMK AO2 $
94908KDBQ DBQ20090204064509802/04/09 06:45:31  5-MIN KDBQ 041245Z 35008KT 10SM CLR M19/M22 A3050 550 79 -3500 350/08 RMK AO2 $
94908KDBQ DBQ20090204065011502/04/09 06:50:31  5-MIN KDBQ 041250Z 35008KT 10SM CLR M19/M22 A3050 550 79 -3500 350/08 RMK AO2 SLP356 T11891217 $
94908KDBQ DBQ20090204065509802/04/09 06:55:31  5-MIN KDBQ 041255Z 35007KT 10SM CLR M19/M22 A3050 550 79 -3500 350/07 RMK AO2 $
94908KDBQ DBQ20090204070009602/04/09 07:00:31  5-MIN KDBQ 041300Z 36008KT 10SM CLR M19/M22 A3050 550 79 -3500 360/08 RMK AO2
94908KDBQ DBQ20090204070509602/04/09 07:05:31  5-MIN KDBQ 041305Z 36007KT 10SM CLR M19/M22 A3050 550 79 -3500 360/07 RMK AO2
94908KDBQ DBQ20090204071009602/04/09 07:10:31  5-MIN KDBQ 041310Z 36007KT 10SM CLR M19/M22 A3050 550 79 -3500 360/07 RMK AO2
94908KDBQ DBQ20090204071509602/04/09 07:15:31  5-MIN KDBQ 041315Z 36007KT 10SM CLR M19/M22 A3050 550 75 -3600 360/07 RMK AO2
94908KDBQ DBQ20090204072009602/04/09 07:20:31  5-MIN KDBQ 041320Z 36007KT 10SM CLR M19/M22 A3050 540 79 -3600 360/07 RMK AO2
94908KDBQ DBQ20090204072509602/04/09 07:25:31  5-MIN KDBQ 041325Z 36006KT 10SM CLR M19/M22 A3050 540 75 -3600 360/06 RMK AO2
94908KDBQ DBQ20090204073009602/04/09 07:30:31  5-MIN KDBQ 041330Z 36006KT 10SM CLR M19/M22 A3050 540 75 -3600 360/06 RMK AO2
94908KDBQ DBQ20090204073509602/04/09 07:35:31  5-MIN KDBQ 041335Z 01006KT 10SM CLR M19/M22 A3050 540 79 -3600 010/06 RMK AO2
94908KDBQ DBQ20090204074009602/04/09 07:40:31  5-MIN KDBQ 041340Z 01007KT 10SM CLR M19/M22 A3051 540 79 -3600 010/07 RMK AO2
94908KDBQ DBQ20090204074509602/04/09 07:45:31  5-MIN KDBQ 041345Z 01008KT 10SM CLR M18/M22 A3051 540 75 -3500 010/08 RMK AO2
94908KDBQ DBQ20090204075011302/04/09 07:50:31  5-MIN KDBQ 041350Z 01007KT 10SM CLR M18/M22 A3051 540 75 -3500 010/07 RMK AO2 SLP361 T11831217
94908KDBQ DBQ20090204075509602/04/09 07:55:31  5-MIN KDBQ 041355Z 36008KT 10SM CLR M18/M22 A3051 540 75 -3500 360/08 RMK AO2
94908KDBQ DBQ20090204080009602/04/09 08:00:31  5-MIN KDBQ 041400Z 36007KT 10SM CLR M18/M22 A3051 530 75 -3500 360/07 RMK AO2
94908KDBQ DBQ20090204080509602/04/09 08:05:31  5-MIN KDBQ 041405Z 36007KT 10SM CLR M18/M22 A3051 530 75 -3500 360/07 RMK AO2
94908KDBQ DBQ20090204081009602/04/09 08:10:31  5-MIN KDBQ 041410Z 36006KT 10SM CLR M18/M21 A3052 530 79 -3500 360/06 RMK AO2
94908KDBQ DBQ20090204081509602/04/09 08:15:31  5-MIN KDBQ 041415Z 36008KT 10SM CLR M18/M21 A3052 530 79 -3500 360/08 RMK AO2
94908KDBQ DBQ20090204082009602/04/09 08:20:31  5-MIN KDBQ 041420Z 36007KT 10SM CLR M18/M21 A3052 530 79 -3500 360/07 RMK AO2
94908KDBQ DBQ20090204082509602/04/09 08:25:31  5-MIN KDBQ 041425Z 36007KT 10SM CLR M18/M21 A3052 530 75 -3400 360/07 RMK AO2
94908KDBQ DBQ20090204083009602/04/09 08:30:31  5-MIN KDBQ 041430Z 36007KT 10SM CLR M18/M21 A3052 520 75 -3400 360/07 RMK AO2
94908KDBQ DBQ20090204083509602/04/09 08:35:31  5-MIN KDBQ 041435Z 36007KT 10SM CLR M18/M21 A3052 520 75 -3400 360/07 RMK AO2
94908KDBQ DBQ20090204084009602/04/09 08:40:31  5-MIN KDBQ 041440Z 36008KT 10SM CLR M18/M21 A3052 520 75 -3400 360/08 RMK AO2
94908KDBQ DBQ20090204084509602/04/09 08:45:31  5-MIN KDBQ 041445Z 36007KT 10SM CLR M17/M21 A3053 520 72 -3400 360/07 RMK AO2
94908KDBQ DBQ20090204085011902/04/09 08:50:31  5-MIN KDBQ 041450Z 01006KT 10SM CLR M17/M21 A3053 520 72 -3400 010/06 RMK AO2 SLP366 T11721211 53014
94908KDBQ DBQ20090204085509602/04/09 08:55:31  5-MIN KDBQ 041455Z 01005KT 10SM CLR M17/M21 A3053 520 72 -3400 010/05 RMK AO2
94908KDBQ DBQ20090204090009602/04/09 09:00:31  5-MIN KDBQ 041500Z 36006KT 10SM CLR M17/M21 A3053 520 72 -3300 360/06 RMK AO2
94908KDBQ DBQ20090204090509602/04/09 09:05:31  5-MIN KDBQ 041505Z 36005KT 10SM CLR M17/M21 A3053 520 72 -3300 360/05 RMK AO2
94908KDBQ DBQ20090204091009602/04/09 09:10:31  5-MIN KDBQ 041510Z 35006KT 10SM CLR M17/M21 A3054 510 72 -3300 350/06 RMK AO2
94908KDBQ DBQ20090204091509602/04/09 09:15:31  5-MIN KDBQ 041515Z 36006KT 10SM CLR M17/M21 A3054 510 72 -3300 360/06 RMK AO2
94908KDBQ DBQ20090204092009602/04/09 09:20:31  5-MIN KDBQ 041520Z 36004KT 10SM CLR M16/M20 A3054 510 72 -3200 360/04 RMK AO2
94908KDBQ DBQ20090204092509602/04/09 09:25:31  5-MIN KDBQ 041525Z 35006KT 10SM CLR M16/M20 A3054 510 72 -3200 350/06 RMK AO2
94908KDBQ DBQ20090204093009602/04/09 09:30:31  5-MIN KDBQ 041530Z 35006KT 10SM CLR M16/M20 A3055 500 72 -3200 350/06 RMK AO2
94908KDBQ DBQ20090204093509602/04/09 09:35:31  5-MIN KDBQ 041535Z 35005KT 10SM CLR M16/M20 A3055 500 72 -3200 350/05 RMK AO2
94908KDBQ DBQ20090204094009602/04/09 09:40:31  5-MIN KDBQ 041540Z 36005KT 10SM CLR M16/M20 A3055 500 69 -3100 360/05 RMK AO2
94908KDBQ DBQ20090204094509602/04/09 09:45:31  5-MIN KDBQ 041545Z 36004KT 10SM CLR M16/M19 A3055 500 72 -3100 360/04 RMK AO2
94908KDBQ DBQ20090204095011302/04/09 09:50:31  5-MIN KDBQ 041550Z 36004KT 10SM CLR M15/M19 A3055 500 69 -3100 360/04 RMK AO2 SLP372 T11501194
94908KDBQ DBQ20090204095509602/04/09 09:55:31  5-MIN KDBQ 041555Z 01005KT 10SM CLR M15/M19 A3055 500 69 -3100 010/05 RMK AO2
94908KDBQ DBQ20090204100009602/04/09 10:00:31  5-MIN KDBQ 041600Z 02006KT 10SM CLR M14/M19 A3055 500 66 -3000 020/06 RMK AO2
94908KDBQ DBQ20090204100509602/04/09 10:05:31  5-MIN KDBQ 041605Z 03006KT 10SM CLR M14/M19 A3055 500 66 -3000 030/06 RMK AO2
94908KDBQ DBQ20090204101009602/04/09 10:10:31  5-MIN KDBQ 041610Z 02007KT 10SM CLR M14/M19 A3055 500 66 -3000 020/07 RMK AO2
94908KDBQ DBQ20090204101509602/04/09 10:15:31  5-MIN KDBQ 041615Z 03006KT 10SM CLR M14/M19 A3055 500 66 -3000 030/06 RMK AO2
94908KDBQ DBQ20090204102009602/04/09 10:20:31  5-MIN KDBQ 041620Z 02007KT 10SM CLR M14/M19 A3055 500 66 -3000 010/07 RMK AO2
94908KDBQ DBQ20090204102509602/04/09 10:25:31  5-MIN KDBQ 041625Z 02007KT 10SM CLR M14/M19 A3055 500 66 -2900 020/07 RMK AO2
94908KDBQ DBQ20090204103009602/04/09 10:30:31  5-MIN KDBQ 041630Z 02009KT 10SM CLR M14/M19 A3055 500 66 -2900 020/09 RMK AO2
94908KDBQ DBQ20090204103509602/04/09 10:35:31  5-MIN KDBQ 041635Z 02009KT 10SM CLR M14/M19 A3055 500 66 -2900 020/09 RMK AO2
94908KDBQ DBQ20090204104009602/04/09 10:40:31  5-MIN KDBQ 041640Z 02009KT 10SM CLR M14/M19 A3055 500 66 -2900 020/09 RMK AO2
94908KDBQ DBQ20090204104509602/04/09 10:45:31  5-MIN KDBQ 041645Z 01009KT 10SM CLR M13/M19 A3055 500 63 -2900 010/09 RMK AO2
94908KDBQ DBQ20090204105011302/04/09 10:50:31  5-MIN KDBQ 041650Z 01009KT 10SM CLR M13/M19 A3055 500 63 -2900 360/09 RMK AO2 SLP374 T11331189
94908KDBQ DBQ20090204105509602/04/09 10:55:31  5-MIN KDBQ 041655Z 01009KT 10SM CLR M13/M19 A3055 500 63 -2900 010/09 RMK AO2
94908KDBQ DBQ20090204110009602/04/09 11:00:31  5-MIN KDBQ 041700Z 01009KT 10SM CLR M13/M19 A3055 500 63 -2900 010/09 RMK AO2
94908KDBQ DBQ20090204110509602/04/09 11:05:31  5-MIN KDBQ 041705Z 01007KT 10SM CLR M13/M19 A3055 500 63 -2900 010/07 RMK AO2
94908KDBQ DBQ20090204111009602/04/09 11:10:31  5-MIN KDBQ 041710Z 01008KT 10SM CLR M13/M19 A3055 500 60 -2800 010/08 RMK AO2
94908KDBQ DBQ20090204111509602/04/09 11:15:31  5-MIN KDBQ 041715Z 36007KT 10SM CLR M13/M19 A3055 500 60 -2800 360/07 RMK AO2
94908KDBQ DBQ20090204112009602/04/09 11:20:31  5-MIN KDBQ 041720Z VRB06KT 10SM CLR M13/M19 A3055 500 60 -2800 VRB/06 RMK AO2
94908KDBQ DBQ20090204112509602/04/09 11:25:31  5-MIN KDBQ 041725Z VRB05KT 10SM CLR M13/M18 A3055 500 63 -2800 VRB/05 RMK AO2
94908KDBQ DBQ20090204113009602/04/09 11:30:31  5-MIN KDBQ 041730Z 35004KT 10SM CLR M12/M18 A3054 510 61 -2700 340/04 RMK AO2
94908KDBQ DBQ20090204113509602/04/09 11:35:31  5-MIN KDBQ 041735Z VRB04KT 10SM CLR M13/M18 A3054 510 63 -2800 VRB/04 RMK AO2
94908KDBQ DBQ20090204114009602/04/09 11:40:31  5-MIN KDBQ 041740Z VRB03KT 10SM CLR M12/M18 A3054 510 61 -2700 VRB/03 RMK AO2
94908KDBQ DBQ20090204114509802/04/09 11:45:31  5-MIN KDBQ 041745Z 34005KT 10SM CLR M12/M18 A3054 510 61 -2700 340/05 RMK AO2 $
94908KDBQ DBQ20090204115013302/04/09 11:50:31  5-MIN KDBQ 041750Z 34006KT 10SM CLR M12/M18 A3054 510 64 -2700 330/06 RMK AO2 SLP369 T11221178 11122 21194 53015 $
94908KDBQ DBQ20090204115509802/04/09 11:55:31  5-MIN KDBQ 041755Z 32005KT 10SM CLR M12/M18 A3054 510 61 -2700 320/05 RMK AO2 $
94908KDBQ DBQ20090204120009802/04/09 12:00:31  5-MIN KDBQ 041800Z 32006KT 10SM CLR M12/M18 A3054 510 61 -2700 320/06 RMK AO2 $
94908KDBQ DBQ20090204120509802/04/09 12:05:31  5-MIN KDBQ 041805Z 33008KT 10SM CLR M12/M18 A3054 510 61 -2700 330/08 RMK AO2 $
94908KDBQ DBQ20090204121009802/04/09 12:10:31  5-MIN KDBQ 041810Z 32005KT 10SM CLR M12/M18 A3054 510 61 -2700 320/05 RMK AO2 $
94908KDBQ DBQ20090204121509802/04/09 12:15:31  5-MIN KDBQ 041815Z 33006KT 10SM CLR M12/M18 A3053 510 64 -2700 330/06 RMK AO2 $
94908KDBQ DBQ20090204122009802/04/09 12:20:31  5-MIN KDBQ 041820Z 33007KT 10SM CLR M12/M18 A3054 510 58 -2600 330/07 RMK AO2 $
94908KDBQ DBQ20090204122509802/04/09 12:25:31  5-MIN KDBQ 041825Z 32006KT 10SM CLR M12/M18 A3054 510 61 -2700 320/06 RMK AO2 $
94908KDBQ DBQ20090204123009802/04/09 12:30:31  5-MIN KDBQ 041830Z 33006KT 10SM CLR M12/M18 A3053 520 58 -2600 330/06 RMK AO2 $
94908KDBQ DBQ20090204123509802/04/09 12:35:31  5-MIN KDBQ 041835Z 33006KT 10SM CLR M12/M18 A3053 520 58 -2600 330/06 RMK AO2 $
94908KDBQ DBQ20090204124009802/04/09 12:40:31  5-MIN KDBQ 041840Z 32004KT 10SM CLR M12/M18 A3053 520 58 -2600 320/04 RMK AO2 $
94908KDBQ DBQ20090204124509802/04/09 12:45:31  5-MIN KDBQ 041845Z 32006KT 10SM CLR M12/M18 A3053 520 58 -2600 320/06 RMK AO2 $
94908KDBQ DBQ20090204125011502/04/09 12:50:31  5-MIN KDBQ 041850Z 35005KT 10SM CLR M11/M18 A3052 520 55 -2500 350/05 RMK AO2 SLP364 T11111183 $
94908KDBQ DBQ20090204125509802/04/09 12:55:31  5-MIN KDBQ 041855Z 31006KT 10SM CLR M11/M18 A3052 530 55 -2500 310/06 RMK AO2 $
94908KDBQ DBQ20090204130009802/04/09 13:00:31  5-MIN KDBQ 041900Z 33003KT 10SM CLR M12/M18 A3052 530 58 -2600 330/03 RMK AO2 $
94908KDBQ DBQ20090204130509802/04/09 13:05:31  5-MIN KDBQ 041905Z 32006KT 10SM CLR M11/M18 A3052 520 55 -2500 310/06 RMK AO2 $
94908KDBQ DBQ20090204131009802/04/09 13:10:31  5-MIN KDBQ 041910Z 32005KT 10SM CLR M11/M18 A3052 530 55 -2500 320/05 RMK AO2 $
94908KDBQ DBQ20090204131509802/04/09 13:15:31  5-MIN KDBQ 041915Z 32005KT 10SM CLR M11/M18 A3052 530 55 -2500 320/05 RMK AO2 $
94908KDBQ DBQ20090204132009802/04/09 13:20:31  5-MIN KDBQ 041920Z 33003KT 10SM CLR M11/M19 A3052 530 53 -2500 330/03 RMK AO2 $
94908KDBQ DBQ20090204132509802/04/09 13:25:31  5-MIN KDBQ 041925Z 34005KT 10SM CLR M11/M19 A3052 530 51 -2400 340/05 RMK AO2 $
94908KDBQ DBQ20090204133009802/04/09 13:30:31  5-MIN KDBQ 041930Z 32004KT 10SM CLR M11/M19 A3051 530 53 -2500 320/04 RMK AO2 $
94908KDBQ DBQ20090204133509802/04/09 13:35:31  5-MIN KDBQ 041935Z 29003KT 10SM CLR M11/M18 A3051 540 55 -2500 290/03 RMK AO2 $
94908KDBQ DBQ20090204134009802/04/09 13:40:31  5-MIN KDBQ 041940Z 00000KT 10SM CLR M11/M19 A3051 540 53 -2500 000/00 RMK AO2 $
94908KDBQ DBQ20090204134509802/04/09 13:45:31  5-MIN KDBQ 041945Z 00000KT 10SM CLR M10/M18 A3051 540 51 -2400 000/00 RMK AO2 $
94908KDBQ DBQ20090204135011502/04/09 13:50:31  5-MIN KDBQ 041950Z 25004KT 10SM CLR M11/M18 A3051 540 53 -2400 250/04 RMK AO2 SLP358 T11061183 $
94908KDBQ DBQ20090204135509802/04/09 13:55:31  5-MIN KDBQ 041955Z 26003KT 10SM CLR M11/M18 A3051 540 58 -2500 260/03 RMK AO2 $
94908KDBQ DBQ20090204140009802/04/09 14:00:31  5-MIN KDBQ 042000Z 25004KT 10SM CLR M11/M18 A3051 540 55 -2500 240/04 RMK AO2 $
94908KDBQ DBQ20090204140509802/04/09 14:05:31  5-MIN KDBQ 042005Z 27005KT 10SM CLR M11/M18 A3051 540 58 -2500 270/05 RMK AO2 $
94908KDBQ DBQ20090204141009802/04/09 14:10:31  5-MIN KDBQ 042010Z 25003KT 10SM CLR M11/M18 A3051 540 58 -2500 250/03 RMK AO2 $
94908KDBQ DBQ20090204141509802/04/09 14:15:31  5-MIN KDBQ 042015Z 00000KT 10SM CLR M11/M18 A3050 540 55 -2500 000/00 RMK AO2 $
94908KDBQ DBQ20090204142009802/04/09 14:20:31  5-MIN KDBQ 042020Z 00000KT 10SM CLR M11/M18 A3050 540 55 -2500 000/00 RMK AO2 $
94908KDBQ DBQ20090204142509802/04/09 14:25:31  5-MIN KDBQ 042025Z 26004KT 10SM CLR M11/M18 A3050 550 58 -2500 260/04 RMK AO2 $
94908KDBQ DBQ20090204143009802/04/09 14:30:31  5-MIN KDBQ 042030Z 21003KT 10SM CLR M11/M18 A3050 550 58 -2500 210/03 RMK AO2 $
94908KDBQ DBQ20090204143509802/04/09 14:35:31  5-MIN KDBQ 042035Z 23003KT 10SM CLR M11/M18 A3050 540 58 -2500 220/03 RMK AO2 $
94908KDBQ DBQ20090204144009802/04/09 14:40:31  5-MIN KDBQ 042040Z 22004KT 10SM CLR M11/M18 A3050 540 58 -2500 220/04 RMK AO2 $
94908KDBQ DBQ20090204144509802/04/09 14:45:31  5-MIN KDBQ 042045Z 23004KT 10SM CLR M11/M17 A3050 540 61 -2500 230/04 RMK AO2 $
94908KDBQ DBQ20090204145012102/04/09 14:50:31  5-MIN KDBQ 042050Z 23007KT 10SM CLR M11/M17 A3050 550 64 -2500 230/07 RMK AO2 SLP357 T11111167 50003 $
94908KDBQ DBQ20090204145509802/04/09 14:55:31  5-MIN KDBQ 042055Z 25006KT 10SM CLR M11/M17 A3050 550 64 -2500 240/06 RMK AO2 $
94908KDBQ DBQ20090204150009802/04/09 15:00:31  5-MIN KDBQ 042100Z 25006KT 10SM CLR M11/M17 A3050 550 64 -2500 240/06 RMK AO2 $
94908KDBQ DBQ20090204150509802/04/09 15:05:31  5-MIN KDBQ 042105Z 23007KT 10SM CLR M11/M17 A3050 550 64 -2500 230/07 RMK AO2 $
94908KDBQ DBQ20090204151009802/04/09 15:10:31  5-MIN KDBQ 042110Z 23006KT 10SM CLR M11/M17 A3050 550 64 -2500 230/06 RMK AO2 $
94908KDBQ DBQ20090204151509802/04/09 15:15:31  5-MIN KDBQ 042115Z 24006KT 10SM CLR M11/M17 A3050 550 64 -2500 240/06 RMK AO2 $
94908KDBQ DBQ20090204152009802/04/09 15:20:31  5-MIN KDBQ 042120Z 23006KT 10SM CLR M12/M17 A3050 550 64 -2600 230/06 RMK AO2 $
94908KDBQ DBQ20090204152509802/04/09 15:25:31  5-MIN KDBQ 042125Z 24006KT 10SM CLR M11/M17 A3050 550 64 -2500 240/06 RMK AO2 $
94908KDBQ DBQ20090204153009802/04/09 15:30:31  5-MIN KDBQ 042130Z 23007KT 10SM CLR M12/M17 A3050 550 64 -2600 230/07 RMK AO2 $
94908KDBQ DBQ20090204153509802/04/09 15:35:31  5-MIN KDBQ 042135Z 23007KT 10SM CLR M12/M17 A3050 550 64 -2600 230/07 RMK AO2 $
94908KDBQ DBQ20090204154009802/04/09 15:40:31  5-MIN KDBQ 042140Z 22006KT 10SM CLR M12/M17 A3049 550 64 -2600 220/06 RMK AO2 $
94908KDBQ DBQ20090204154509802/04/09 15:45:31  5-MIN KDBQ 042145Z 23006KT 10SM CLR M12/M17 A3049 550 64 -2600 220/06 RMK AO2 $
94908KDBQ DBQ20090204155011502/04/09 15:50:31  5-MIN KDBQ 042150Z 23006KT 10SM CLR M12/M17 A3049 550 64 -2600 230/06 RMK AO2 SLP354 T11171172 $
94908KDBQ DBQ20090204155509802/04/09 15:55:31  5-MIN KDBQ 042155Z 23008KT 10SM CLR M12/M17 A3050 550 64 -2600 230/08 RMK AO2 $
94908KDBQ DBQ20090204160009802/04/09 16:00:31  5-MIN KDBQ 042200Z 24006KT 10SM CLR M12/M17 A3049 550 64 -2600 240/06 RMK AO2 $
94908KDBQ DBQ20090204160509802/04/09 16:05:31  5-MIN KDBQ 042205Z 24006KT 10SM CLR M12/M17 A3050 550 64 -2600 240/06 RMK AO2 $
94908KDBQ DBQ20090204161009802/04/09 16:10:31  5-MIN KDBQ 042210Z 23006KT 10SM CLR M12/M17 A3049 550 64 -2600 230/06 RMK AO2 $
94908KDBQ DBQ20090204161509802/04/09 16:15:31  5-MIN KDBQ 042215Z 24006KT 10SM CLR M12/M17 A3049 550 64 -2600 240/06 RMK AO2 $
94908KDBQ DBQ20090204162009802/04/09 16:20:31  5-MIN KDBQ 042220Z 23007KT 10SM CLR M12/M17 A3049 550 64 -2600 230/07 RMK AO2 $
94908KDBQ DBQ20090204162509802/04/09 16:25:31  5-MIN KDBQ 042225Z 23007KT 10SM CLR M12/M17 A3049 550 64 -2600 230/07 RMK AO2 $
94908KDBQ DBQ20090204163009802/04/09 16:30:31  5-MIN KDBQ 042230Z 23006KT 10SM CLR M12/M17 A3049 550 64 -2600 230/06 RMK AO2 $
94908KDBQ DBQ20090204163509802/04/09 16:35:31  5-MIN KDBQ 042235Z 24007KT 10SM CLR M12/M17 A3049 550 64 -2600 240/07 RMK AO2 $
94908KDBQ DBQ20090204164009802/04/09 16:40:31  5-MIN KDBQ 042240Z 24006KT 10SM CLR M12/M18 A3049 550 64 -2600 240/06 RMK AO2 $
94908KDBQ DBQ20090204164509802/04/09 16:45:31  5-MIN KDBQ 042245Z 25006KT 10SM CLR M12/M17 A3049 550 67 -2600 250/06 RMK AO2 $
94908KDBQ DBQ20090204165011502/04/09 16:50:31  5-MIN KDBQ 042250Z 25006KT 10SM CLR M13/M18 A3049 550 66 -2700 250/06 RMK AO2 SLP354 T11281178 $
94908KDBQ DBQ20090204165509802/04/09 16:55:31  5-MIN KDBQ 042255Z 25006KT 10SM CLR M13/M18 A3049 550 66 -2700 250/06 RMK AO2 $
94908KDBQ DBQ20090204170009802/04/09 17:00:31  5-MIN KDBQ 042300Z 25005KT 10SM CLR M13/M18 A3049 550 66 -2700 250/05 RMK AO2 $
94908KDBQ DBQ20090204170509802/04/09 17:05:31  5-MIN KDBQ 042305Z 25006KT 10SM CLR M13/M18 A3049 550 69 -2800 240/06 RMK AO2 $
94908KDBQ DBQ20090204171009802/04/09 17:10:31  5-MIN KDBQ 042310Z 25006KT 10SM CLR M13/M18 A3049 550 66 -2800 250/06 RMK AO2 $
94908KDBQ DBQ20090204171509802/04/09 17:15:31  5-MIN KDBQ 042315Z 25005KT 10SM CLR M13/M18 A3049 550 66 -2800 250/05 RMK AO2 $
94908KDBQ DBQ20090204172009802/04/09 17:20:31  5-MIN KDBQ 042320Z 24004KT 10SM CLR M14/M18 A3049 550 69 -2900 240/04 RMK AO2 $
94908KDBQ DBQ20090204172509802/04/09 17:25:31  5-MIN KDBQ 042325Z 24003KT 10SM CLR M13/M18 A3049 550 66 -2800 240/03 RMK AO2 $
94908KDBQ DBQ20090204173009802/04/09 17:30:31  5-MIN KDBQ 042330Z 24003KT 10SM CLR M13/M18 A3049 560 66 -2800 240/03 RMK AO2 $
94908KDBQ DBQ20090204173509802/04/09 17:35:31  5-MIN KDBQ 042335Z 22003KT 10SM CLR M13/M18 A3049 560 66 -2800 220/03 RMK AO2 $
94908KDBQ DBQ20090204174009802/04/09 17:40:31  5-MIN KDBQ 042340Z 00000KT 10SM CLR M13/M18 A3049 560 66 -2800 000/00 RMK AO2 $
94908KDBQ DBQ20090204174509802/04/09 17:45:31  5-MIN KDBQ 042345Z 00000KT 10SM CLR M13/M18 A3049 560 66 -2800 000/00 RMK AO2 $
94908KDBQ DBQ20090204175013302/04/09 17:50:31  5-MIN KDBQ 042350Z 00000KT 10SM CLR M14/M18 A3049 560 69 -2900 000/00 RMK AO2 SLP353 T11391183 11100 21139 56012 $
94908KDBQ DBQ20090204175509802/04/09 17:55:31  5-MIN KDBQ 042355Z 00000KT 10SM CLR M14/M19 A3049 560 66 -2900 000/00 RMK AO2 $
94908KDBQ DBQ20090204180009802/04/09 18:00:31  5-MIN KDBQ 050000Z 22003KT 10SM CLR M14/M19 A3049 560 66 -2900 220/03 RMK AO2 $
94908KDBQ DBQ20090204180509802/04/09 18:05:31  5-MIN KDBQ 050005Z 22003KT 10SM CLR M14/M19 A3049 560 69 -2900 220/03 RMK AO2 $
94908KDBQ DBQ20090204181009802/04/09 18:10:31  5-MIN KDBQ 050010Z 00000KT 10SM CLR M14/M19 A3049 560 69 -2900 000/00 RMK AO2 $
94908KDBQ DBQ20090204181509802/04/09 18:15:31  5-MIN KDBQ 050015Z 00000KT 10SM CLR M14/M19 A3049 560 69 -2900 000/00 RMK AO2 $
94908KDBQ DBQ20090204182009802/04/09 18:20:31  5-MIN KDBQ 050020Z 00000KT 10SM CLR M14/M19 A3048 560 69 -2900 000/00 RMK AO2 $
94908KDBQ DBQ20090204182509802/04/09 18:25:31  5-MIN KDBQ 050025Z 21003KT 10SM CLR M15/M19 A3048 560 72 -3000 210/03 RMK AO2 $
94908KDBQ DBQ20090204183009802/04/09 18:30:31  5-MIN KDBQ 050030Z 21003KT 10SM CLR M15/M19 A3048 560 72 -3000 200/03 RMK AO2 $
94908KDBQ DBQ20090204183509802/04/09 18:35:31  5-MIN KDBQ 050035Z 00000KT 10SM CLR M15/M19 A3048 560 72 -3000 000/00 RMK AO2 $
94908KDBQ DBQ20090204184009802/04/09 18:40:31  5-MIN KDBQ 050040Z 00000KT 10SM CLR M15/M19 A3048 560 72 -3000 000/00 RMK AO2 $
94908KDBQ DBQ20090204184509802/04/09 18:45:31  5-MIN KDBQ 050045Z 00000KT 10SM CLR M15/M19 A3048 560 72 -3000 000/00 RMK AO2 $
94908KDBQ DBQ20090204185011502/04/09 18:50:31  5-MIN KDBQ 050050Z 00000KT 10SM CLR M15/M19 A3049 560 69 -3000 000/00 RMK AO2 SLP353 T11501194 $
94908KDBQ DBQ20090204185509802/04/09 18:55:31  5-MIN KDBQ 050055Z 00000KT 10SM CLR M15/M19 A3048 560 69 -3000 000/00 RMK AO2 $
94908KDBQ DBQ20090204190009802/04/09 19:00:31  5-MIN KDBQ 050100Z 00000KT 10SM CLR M15/M19 A3048 560 69 -3000 000/00 RMK AO2 $
94908KDBQ DBQ20090204190509802/04/09 19:05:31  5-MIN KDBQ 050105Z 00000KT 10SM CLR M16/M19 A3048 560 72 -3100 000/00 RMK AO2 $
94908KDBQ DBQ20090204191009802/04/09 19:10:31  5-MIN KDBQ 050110Z 00000KT 10SM CLR M16/M19 A3048 570 76 -3100 000/00 RMK AO2 $
94908KDBQ DBQ20090204191509802/04/09 19:15:31  5-MIN KDBQ 050115Z 18003KT 10SM CLR M16/M19 A3048 570 76 -3100 180/03 RMK AO2 $
94908KDBQ DBQ20090204192009802/04/09 19:20:31  5-MIN KDBQ 050120Z 19003KT 10SM CLR M16/M19 A3048 570 76 -3100 180/03 RMK AO2 $
94908KDBQ DBQ20090204192509802/04/09 19:25:31  5-MIN KDBQ 050125Z 00000KT 10SM CLR M16/M19 A3048 570 76 -3100 000/00 RMK AO2 $
94908KDBQ DBQ20090204193010202/04/09 19:30:31  5-MIN KDBQ 050130Z 21003KT 10SM CLR M16/M20 A3048 570 72 -3100 210/03 RMK AO2 PNO $
94908KDBQ DBQ20090204193509802/04/09 19:35:31  5-MIN KDBQ 050135Z 21004KT 10SM CLR M17/M20 A3047 570 76 -3200 210/04 RMK AO2 $
94908KDBQ DBQ20090204194009802/04/09 19:40:31  5-MIN KDBQ 050140Z 22004KT 10SM CLR M17/M21 A3048 570 72 -3200 210/04 RMK AO2 $
94908KDBQ DBQ20090204194509802/04/09 19:45:31  5-MIN KDBQ 050145Z 22004KT 10SM CLR M17/M21 A3048 570 76 -3300 220/04 RMK AO2 $
94908KDBQ DBQ20090204195012002/04/09 19:50:31  5-MIN KDBQ 050150Z AUTO 22004KT 10SM CLR M17/M20 A3048 570 79 -3300 220/04 RMK AO2 SLP351 T11721200 $
94908KDBQ DBQ20090204195510302/04/09 19:55:31  5-MIN KDBQ 050155Z AUTO 20003KT 10SM CLR M17/M20 A3047 570 79 -3300 200/03 RMK AO2 $
94908KDBQ DBQ20090204200010302/04/09 20:00:31  5-MIN KDBQ 050200Z AUTO 18003KT 10SM CLR M18/M21 A3047 570 79 -3400 180/03 RMK AO2 $
94908KDBQ DBQ20090204200510302/04/09 20:05:31  5-MIN KDBQ 050205Z AUTO 18003KT 10SM CLR M17/M21 A3047 570 76 -3300 180/03 RMK AO2 $
94908KDBQ DBQ20090204201010302/04/09 20:10:31  5-MIN KDBQ 050210Z AUTO 19005KT 10SM CLR M17/M21 A3047 570 76 -3300 190/05 RMK AO2 $
94908KDBQ DBQ20090204201510302/04/09 20:15:31  5-MIN KDBQ 050215Z AUTO 19005KT 10SM CLR M17/M21 A3047 580 72 -3200 190/05 RMK AO2 $
94908KDBQ DBQ20090204202010302/04/09 20:20:31  5-MIN KDBQ 050220Z AUTO 19004KT 10SM CLR M17/M21 A3046 580 72 -3200 190/04 RMK AO2 $
94908KDBQ DBQ20090204202510302/04/09 20:25:31  5-MIN KDBQ 050225Z AUTO 18004KT 10SM CLR M17/M21 A3046 580 72 -3200 180/04 RMK AO2 $
94908KDBQ DBQ20090204203010302/04/09 20:30:31  5-MIN KDBQ 050230Z AUTO 18005KT 10SM CLR M17/M21 A3046 580 72 -3200 180/05 RMK AO2 $
94908KDBQ DBQ20090204203510302/04/09 20:35:31  5-MIN KDBQ 050235Z AUTO 19006KT 10SM CLR M17/M21 A3046 580 72 -3200 190/06 RMK AO2 $
94908KDBQ DBQ20090204204010302/04/09 20:40:31  5-MIN KDBQ 050240Z AUTO 20005KT 10SM CLR M17/M21 A3046 580 72 -3200 200/05 RMK AO2 $
94908KDBQ DBQ20090204204510302/04/09 20:45:31  5-MIN KDBQ 050245Z AUTO 20003KT 10SM CLR M17/M21 A3047 580 72 -3200 200/03 RMK AO2 $
94908KDBQ DBQ20090204205012602/04/09 20:50:31  5-MIN KDBQ 050250Z AUTO 20003KT 10SM CLR M17/M21 A3047 580 76 -3300 190/03 RMK AO2 SLP347 T11721206 56004 $
94908KDBQ DBQ20090204205510302/04/09 20:55:31  5-MIN KDBQ 050255Z AUTO 19003KT 10SM CLR M17/M21 A3046 580 72 -3200 190/03 RMK AO2 $
94908KDBQ DBQ20090204210010302/04/09 21:00:31  5-MIN KDBQ 050300Z AUTO 18005KT 10SM CLR M17/M21 A3046 580 76 -3300 180/05 RMK AO2 $
94908KDBQ DBQ20090204210510302/04/09 21:05:31  5-MIN KDBQ 050305Z AUTO 18006KT 10SM CLR M17/M21 A3046 580 72 -3200 180/06 RMK AO2 $
94908KDBQ DBQ20090204211010302/04/09 21:10:31  5-MIN KDBQ 050310Z AUTO 18005KT 10SM CLR M17/M21 A3046 590 72 -3200 170/05 RMK AO2 $
94908KDBQ DBQ20090204211510302/04/09 21:15:31  5-MIN KDBQ 050315Z AUTO 17005KT 10SM CLR M17/M21 A3045 590 76 -3300 170/05 RMK AO2 $
94908KDBQ DBQ20090204212010302/04/09 21:20:31  5-MIN KDBQ 050320Z AUTO 17006KT 10SM CLR M17/M21 A3045 590 76 -3300 170/06 RMK AO2 $
94908KDBQ DBQ20090204212510302/04/09 21:25:31  5-MIN KDBQ 050325Z AUTO 17008KT 10SM CLR M17/M20 A3045 590 76 -3200 170/08 RMK AO2 $
94908KDBQ DBQ20090204213010302/04/09 21:30:31  5-MIN KDBQ 050330Z AUTO 17008KT 10SM CLR M16/M20 A3045 590 72 -3100 170/08 RMK AO2 $
94908KDBQ DBQ20090204213510302/04/09 21:35:31  5-MIN KDBQ 050335Z AUTO 18004KT 10SM CLR M17/M21 A3045 600 72 -3200 180/04 RMK AO2 $
94908KDBQ DBQ20090204214010302/04/09 21:40:31  5-MIN KDBQ 050340Z AUTO 18006KT 10SM CLR M17/M21 A3045 590 72 -3200 180/06 RMK AO2 $
94908KDBQ DBQ20090204214510302/04/09 21:45:31  5-MIN KDBQ 050345Z AUTO 18006KT 10SM CLR M17/M21 A3044 600 72 -3200 180/06 RMK AO2 $
94908KDBQ DBQ20090204215012002/04/09 21:50:31  5-MIN KDBQ 050350Z AUTO 18006KT 10SM CLR M17/M21 A3044 600 72 -3200 180/06 RMK AO2 SLP337 T11671206 $
94908KDBQ DBQ20090204215510302/04/09 21:55:31  5-MIN KDBQ 050355Z AUTO 19006KT 10SM CLR M17/M21 A3044 600 72 -3200 190/06 RMK AO2 $
94908KDBQ DBQ20090204220010302/04/09 22:00:31  5-MIN KDBQ 050400Z AUTO 20004KT 10SM CLR M17/M21 A3044 600 72 -3200 200/04 RMK AO2 $
94908KDBQ DBQ20090204220510302/04/09 22:05:31  5-MIN KDBQ 050405Z AUTO 20006KT 10SM CLR M17/M21 A3044 600 72 -3200 200/06 RMK AO2 $
94908KDBQ DBQ20090204221010302/04/09 22:10:31  5-MIN KDBQ 050410Z AUTO 20006KT 10SM CLR M17/M21 A3044 600 72 -3200 190/06 RMK AO2 $
94908KDBQ DBQ20090204221510302/04/09 22:15:31  5-MIN KDBQ 050415Z AUTO 20005KT 10SM CLR M17/M21 A3044 600 72 -3200 200/05 RMK AO2 $
94908KDBQ DBQ20090204222010302/04/09 22:20:31  5-MIN KDBQ 050420Z AUTO 21006KT 10SM CLR M17/M21 A3044 600 72 -3200 210/06 RMK AO2 $
94908KDBQ DBQ20090204222510302/04/09 22:25:31  5-MIN KDBQ 050425Z AUTO 20006KT 10SM CLR M17/M21 A3044 600 72 -3200 200/06 RMK AO2 $
94908KDBQ DBQ20090204223010302/04/09 22:30:31  5-MIN KDBQ 050430Z AUTO 20005KT 10SM CLR M17/M21 A3044 600 76 -3200 200/05 RMK AO2 $
94908KDBQ DBQ20090204223510302/04/09 22:35:31  5-MIN KDBQ 050435Z AUTO 20005KT 10SM CLR M17/M21 A3043 610 76 -3200 190/05 RMK AO2 $
94908KDBQ DBQ20090204224010302/04/09 22:40:31  5-MIN KDBQ 050440Z AUTO 19005KT 10SM CLR M17/M21 A3043 610 76 -3200 190/05 RMK AO2 $
94908KDBQ DBQ20090204224510302/04/09 22:45:31  5-MIN KDBQ 050445Z AUTO 19005KT 10SM CLR M17/M21 A3043 610 76 -3200 190/05 RMK AO2 $
94908KDBQ DBQ20090204225012002/04/09 22:50:31  5-MIN KDBQ 050450Z AUTO 18005KT 10SM CLR M17/M21 A3043 610 72 -3200 180/05 RMK AO2 SLP332 T11671206 $
94908KDBQ DBQ20090204225510302/04/09 22:55:31  5-MIN KDBQ 050455Z AUTO 18007KT 10SM CLR M17/M21 A3043 610 72 -3200 180/07 RMK AO2 $
94908KDBQ DBQ20090204230010302/04/09 23:00:31  5-MIN KDBQ 050500Z AUTO 18007KT 10SM CLR M17/M20 A3043 610 76 -3200 180/07 RMK AO2 $
94908KDBQ DBQ20090204230510302/04/09 23:05:31  5-MIN KDBQ 050505Z AUTO 18007KT 10SM CLR M16/M20 A3043 610 72 -3100 180/07 RMK AO2 $
94908KDBQ DBQ20090204231010302/04/09 23:10:31  5-MIN KDBQ 050510Z AUTO 18007KT 10SM CLR M16/M20 A3043 610 72 -3100 180/07 RMK AO2 $
94908KDBQ DBQ20090204231510302/04/09 23:15:31  5-MIN KDBQ 050515Z AUTO 18007KT 10SM CLR M17/M20 A3043 610 76 -3200 180/07 RMK AO2 $
94908KDBQ DBQ20090204232010302/04/09 23:20:31  5-MIN KDBQ 050520Z AUTO 17007KT 10SM CLR M16/M20 A3043 610 72 -3100 170/07 RMK AO2 $
94908KDBQ DBQ20090204232510302/04/09 23:25:31  5-MIN KDBQ 050525Z AUTO 17008KT 10SM CLR M16/M20 A3043 610 72 -3100 170/08 RMK AO2 $
94908KDBQ DBQ20090204233010302/04/09 23:30:31  5-MIN KDBQ 050530Z AUTO 17009KT 10SM CLR M16/M19 A3043 610 72 -3000 170/09 RMK AO2 $
94908KDBQ DBQ20090204233510302/04/09 23:35:31  5-MIN KDBQ 050535Z AUTO 17008KT 10SM CLR M16/M19 A3043 610 72 -3000 160/08 RMK AO2 $
94908KDBQ DBQ20090204234010302/04/09 23:40:31  5-MIN KDBQ 050540Z AUTO 17009KT 10SM CLR M16/M19 A3042 620 72 -3000 170/09 RMK AO2 $
94908KDBQ DBQ20090204234510302/04/09 23:45:31  5-MIN KDBQ 050545Z AUTO 17008KT 10SM CLR M16/M19 A3042 620 72 -3000 160/08 RMK AO2 $
94908KDBQ DBQ20090204235014802/04/09 23:50:31  5-MIN KDBQ 050550Z AUTO 17008KT 10SM CLR M16/M19 A3042 620 72 -3000 170/08 RMK AO2 SLP327 T11561194 11139 21178 411001194 58008 $
94908KDBQ DBQ20090204235510302/04/09 23:55:31  5-MIN KDBQ 050555Z AUTO 17008KT 10SM CLR M16/M19 A3041 620 72 -3000 170/08 RMK AO2 $
94908KDBQ DBQ20090205000010302/05/09 00:00:38  5-MIN KDBQ 050600Z AUTO 17008KT 10SM CLR M16/M19 A3042 620 72 -3000 170/08 RMK AO2 $
94908KDBQ DBQ20090205000510302/05/09 00:05:31  5-MIN KDBQ 050605Z AUTO 17008KT 10SM CLR M16/M19 A3042 620 72 -3000 170/08 RMK AO2 $
94908KDBQ DBQ20090205001010302/05/09 00:10:31  5-MIN KDBQ 050610Z AUTO 17008KT 10SM CLR M16/M19 A3041 620 72 -3000 170/08 RMK AO2 $
94908KDBQ DBQ20090205001510302/05/09 00:15:31  5-MIN KDBQ 050615Z AUTO 17007KT 10SM CLR M16/M19 A3041 630 72 -3000 170/07 RMK AO2 $
94908KDBQ DBQ20090205002010302/05/09 00:20:31  5-MIN KDBQ 050620Z AUTO 17007KT 10SM CLR M16/M19 A3041 630 72 -3000 170/07 RMK AO2 $
94908KDBQ DBQ20090205002510302/05/09 00:25:31  5-MIN KDBQ 050625Z AUTO 18008KT 10SM CLR M16/M19 A3040 640 72 -3000 180/08 RMK AO2 $
94908KDBQ DBQ20090205003010302/05/09 00:30:31  5-MIN KDBQ 050630Z AUTO 18009KT 10SM CLR M16/M19 A3040 640 72 -3000 180/09 RMK AO2 $
94908KDBQ DBQ20090205003510302/05/09 00:35:31  5-MIN KDBQ 050635Z AUTO 18008KT 10SM CLR M16/M19 A3039 640 72 -3000 170/08 RMK AO2 $
94908KDBQ DBQ20090205004010302/05/09 00:40:31  5-MIN KDBQ 050640Z AUTO 17008KT 10SM CLR M16/M19 A3040 640 76 -3000 170/08 RMK AO2 $
94908KDBQ DBQ20090205004510302/05/09 00:45:31  5-MIN KDBQ 050645Z AUTO 18008KT 10SM CLR M16/M19 A3040 640 72 -3000 170/08 RMK AO2 $
94908KDBQ DBQ20090205005012002/05/09 00:50:31  5-MIN KDBQ 050650Z AUTO 18008KT 10SM CLR M16/M19 A3039 640 72 -3000 170/08 RMK AO2 SLP318 T11561194 $
94908KDBQ DBQ20090205005510302/05/09 00:55:31  5-MIN KDBQ 050655Z AUTO 18008KT 10SM CLR M16/M19 A3039 650 72 -3000 180/08 RMK AO2 $
94908KDBQ DBQ20090205010010302/05/09 01:00:31  5-MIN KDBQ 050700Z AUTO 18007KT 10SM CLR M16/M19 A3039 650 72 -3000 180/07 RMK AO2 $
94908KDBQ DBQ20090205010510302/05/09 01:05:31  5-MIN KDBQ 050705Z AUTO 19008KT 10SM CLR M16/M19 A3039 650 76 -3000 190/08 RMK AO2 $
94908KDBQ DBQ20090205011010302/05/09 01:10:31  5-MIN KDBQ 050710Z AUTO 19009KT 10SM CLR M15/M19 A3038 650 72 -2900 190/09 RMK AO2 $
94908KDBQ DBQ20090205011510302/05/09 01:15:31  5-MIN KDBQ 050715Z AUTO 19010KT 10SM CLR M15/M19 A3038 660 72 -2900 190/10 RMK AO2 $
94908KDBQ DBQ20090205012010302/05/09 01:20:31  5-MIN KDBQ 050720Z AUTO 19009KT 10SM CLR M15/M19 A3038 660 72 -2900 190/09 RMK AO2 $
94908KDBQ DBQ20090205012510302/05/09 01:25:31  5-MIN KDBQ 050725Z AUTO 18010KT 10SM CLR M15/M19 A3037 660 72 -2900 180/10 RMK AO2 $
94908KDBQ DBQ20090205013010302/05/09 01:30:31  5-MIN KDBQ 050730Z AUTO 19009KT 10SM CLR M14/M19 A3037 660 69 -2800 190/09 RMK AO2 $
94908KDBQ DBQ20090205013510302/05/09 01:35:31  5-MIN KDBQ 050735Z AUTO 18011KT 10SM CLR M14/M18 A3037 660 73 -2800 180/11 RMK AO2 $
94908KDBQ DBQ20090205014010302/05/09 01:40:31  5-MIN KDBQ 050740Z AUTO 18011KT 10SM CLR M14/M18 A3037 660 73 -2800 180/11 RMK AO2 $
94908KDBQ DBQ20090205014510302/05/09 01:45:31  5-MIN KDBQ 050745Z AUTO 18011KT 10SM CLR M14/M18 A3037 670 73 -2800 180/11 RMK AO2 $
94908KDBQ DBQ20090205015012002/05/09 01:50:31  5-MIN KDBQ 050750Z AUTO 18009KT 10SM CLR M15/M19 A3036 670 72 -2900 180/09 RMK AO2 SLP307 T11501189 $
94908KDBQ DBQ20090205015510302/05/09 01:55:31  5-MIN KDBQ 050755Z AUTO 18009KT 10SM CLR M15/M19 A3036 680 72 -2900 180/09 RMK AO2 $
94908KDBQ DBQ20090205020010302/05/09 02:00:31  5-MIN KDBQ 050800Z AUTO 18009KT 10SM CLR M15/M19 A3035 680 72 -2900 180/09 RMK AO2 $
94908KDBQ DBQ20090205020510302/05/09 02:05:31  5-MIN KDBQ 050805Z AUTO 19011KT 10SM CLR M15/M19 A3035 680 72 -2800 180/11 RMK AO2 $
94908KDBQ DBQ20090205021010302/05/09 02:10:31  5-MIN KDBQ 050810Z AUTO 19011KT 10SM CLR M14/M18 A3035 680 73 -2800 190/11 RMK AO2 $
94908KDBQ DBQ20090205021510302/05/09 02:15:31  5-MIN KDBQ 050815Z AUTO 19011KT 10SM CLR M14/M18 A3035 680 73 -2800 190/11 RMK AO2 $
94908KDBQ DBQ20090205022010302/05/09 02:20:31  5-MIN KDBQ 050820Z AUTO 19010KT 10SM CLR M14/M18 A3035 680 73 -2800 190/10 RMK AO2 $
94908KDBQ DBQ20090205022510302/05/09 02:25:31  5-MIN KDBQ 050825Z AUTO 18010KT 10SM CLR M14/M18 A3035 690 73 -2800 180/10 RMK AO2 $
94908KDBQ DBQ20090205023010302/05/09 02:30:31  5-MIN KDBQ 050830Z AUTO 18010KT 10SM CLR M14/M18 A3035 690 73 -2800 180/10 RMK AO2 $
94908KDBQ DBQ20090205023510302/05/09 02:35:31  5-MIN KDBQ 050835Z AUTO 18011KT 10SM CLR M14/M18 A3035 690 73 -2800 180/11 RMK AO2 $
94908KDBQ DBQ20090205024010302/05/09 02:40:31  5-MIN KDBQ 050840Z AUTO 18010KT 10SM CLR M14/M18 A3034 690 73 -2800 180/10 RMK AO2 $
94908KDBQ DBQ20090205024510302/05/09 02:45:31  5-MIN KDBQ 050845Z AUTO 18011KT 10SM CLR M14/M18 A3034 690 73 -2800 180/11 RMK AO2 $
94908KDBQ DBQ20090205025012602/05/09 02:50:31  5-MIN KDBQ 050850Z AUTO 18011KT 10SM CLR M14/M18 A3034 690 73 -2800 180/11 RMK AO2 SLP300 T11441183 56016 $
94908KDBQ DBQ20090205025510302/05/09 02:55:31  5-MIN KDBQ 050855Z AUTO 18011KT 10SM CLR M14/M18 A3034 690 73 -2800 180/11 RMK AO2 $
94908KDBQ DBQ20090205030010302/05/09 03:00:31  5-MIN KDBQ 050900Z AUTO 18010KT 10SM CLR M14/M18 A3034 690 73 -2800 180/10 RMK AO2 $
94908KDBQ DBQ20090205030510302/05/09 03:05:31  5-MIN KDBQ 050905Z AUTO 18011KT 10SM CLR M14/M18 A3033 700 73 -2800 180/11 RMK AO2 $
94908KDBQ DBQ20090205031010302/05/09 03:10:31  5-MIN KDBQ 050910Z AUTO 18010KT 10SM CLR M14/M18 A3033 700 73 -2800 180/10 RMK AO2 $
94908KDBQ DBQ20090205031510302/05/09 03:15:31  5-MIN KDBQ 050915Z AUTO 17011KT 10SM CLR M14/M18 A3033 700 73 -2700 170/11 RMK AO2 $
94908KDBQ DBQ20090205032010302/05/09 03:20:31  5-MIN KDBQ 050920Z AUTO 17011KT 10SM CLR M14/M18 A3033 700 73 -2700 170/11 RMK AO2 $
94908KDBQ DBQ20090205032510302/05/09 03:25:31  5-MIN KDBQ 050925Z AUTO 17010KT 10SM CLR M14/M18 A3033 700 73 -2700 170/10 RMK AO2 $
94908KDBQ DBQ20090205033010302/05/09 03:30:31  5-MIN KDBQ 050930Z AUTO 17009KT 10SM CLR M14/M18 A3033 710 73 -2700 170/09 RMK AO2 $
94908KDBQ DBQ20090205033510302/05/09 03:35:31  5-MIN KDBQ 050935Z AUTO 18009KT 10SM CLR M14/M18 A3032 710 73 -2700 170/09 RMK AO2 $
94908KDBQ DBQ20090205034010302/05/09 03:40:31  5-MIN KDBQ 050940Z AUTO 18010KT 10SM CLR M14/M18 A3032 710 73 -2700 170/10 RMK AO2 $
94908KDBQ DBQ20090205034510302/05/09 03:45:31  5-MIN KDBQ 050945Z AUTO 17008KT 10SM CLR M14/M18 A3032 710 73 -2700 170/08 RMK AO2 $
94908KDBQ DBQ20090205035012002/05/09 03:50:31  5-MIN KDBQ 050950Z AUTO 18009KT 10SM CLR M14/M18 A3031 720 73 -2700 170/09 RMK AO2 SLP289 T11441183 $
94908KDBQ DBQ20090205035510302/05/09 03:55:31  5-MIN KDBQ 050955Z AUTO 17010KT 10SM CLR M14/M18 A3031 720 73 -2700 170/10 RMK AO2 $
94908KDBQ DBQ20090205040010302/05/09 04:00:31  5-MIN KDBQ 051000Z AUTO 17010KT 10SM CLR M14/M18 A3030 730 73 -2700 170/10 RMK AO2 $
94908KDBQ DBQ20090205040510302/05/09 04:05:31  5-MIN KDBQ 051005Z AUTO 17009KT 10SM CLR M14/M18 A3030 730 73 -2700 170/09 RMK AO2 $
94908KDBQ DBQ20090205041010302/05/09 04:10:31  5-MIN KDBQ 051010Z AUTO 17010KT 10SM CLR M14/M18 A3030 730 73 -2700 170/10 RMK AO2 $
94908KDBQ DBQ20090205041510302/05/09 04:15:31  5-MIN KDBQ 051015Z AUTO 17010KT 10SM CLR M15/M18 A3030 730 76 -2800 170/10 RMK AO2 $
94908KDBQ DBQ20090205042010302/05/09 04:20:31  5-MIN KDBQ 051020Z AUTO 17011KT 10SM CLR M15/M18 A3029 730 76 -2800 170/11 RMK AO2 $
94908KDBQ DBQ20090205042510302/05/09 04:25:31  5-MIN KDBQ 051025Z AUTO 17011KT 10SM CLR M15/M18 A3029 740 76 -2800 170/11 RMK AO2 $
94908KDBQ DBQ20090205043010302/05/09 04:30:31  5-MIN KDBQ 051030Z AUTO 17011KT 10SM CLR M15/M18 A3029 740 76 -2800 170/11 RMK AO2 $
94908KDBQ DBQ20090205043510302/05/09 04:35:31  5-MIN KDBQ 051035Z AUTO 17011KT 10SM CLR M14/M18 A3028 740 73 -2700 170/11 RMK AO2 $
94908KDBQ DBQ20090205044010302/05/09 04:40:31  5-MIN KDBQ 051040Z AUTO 17010KT 10SM CLR M14/M18 A3028 740 73 -2700 170/10 RMK AO2 $
94908KDBQ DBQ20090205044510302/05/09 04:45:31  5-MIN KDBQ 051045Z AUTO 17009KT 10SM CLR M14/M18 A3029 740 73 -2700 170/09 RMK AO2 $
94908KDBQ DBQ20090205045012002/05/09 04:50:31  5-MIN KDBQ 051050Z AUTO 18009KT 10SM CLR M14/M18 A3029 740 73 -2700 180/09 RMK AO2 SLP281 T11441183 $
94908KDBQ DBQ20090205045510302/05/09 04:55:31  5-MIN KDBQ 051055Z AUTO 17009KT 10SM CLR M14/M18 A3029 740 73 -2700 170/09 RMK AO2 $
94908KDBQ DBQ20090205050010302/05/09 05:00:31  5-MIN KDBQ 051100Z AUTO 17009KT 10SM CLR M14/M18 A3028 750 73 -2700 170/09 RMK AO2 $
94908KDBQ DBQ20090205050510302/05/09 05:05:31  5-MIN KDBQ 051105Z AUTO 18010KT 10SM CLR M14/M18 A3028 750 73 -2700 170/10 RMK AO2 $
94908KDBQ DBQ20090205051010302/05/09 05:10:31  5-MIN KDBQ 051110Z AUTO 17009KT 10SM CLR M14/M18 A3027 750 73 -2700 170/09 RMK AO2 $
94908KDBQ DBQ20090205051510302/05/09 05:15:31  5-MIN KDBQ 051115Z AUTO 18009KT 10SM CLR M14/M18 A3028 750 73 -2700 170/09 RMK AO2 $
94908KDBQ DBQ20090205052010302/05/09 05:20:31  5-MIN KDBQ 051120Z AUTO 17009KT 10SM CLR M14/M18 A3028 750 73 -2700 170/09 RMK AO2 $
94908KDBQ DBQ20090205052510302/05/09 05:25:31  5-MIN KDBQ 051125Z AUTO 17007KT 10SM CLR M14/M18 A3028 750 73 -2700 170/07 RMK AO2 $
94908KDBQ DBQ20090205053010302/05/09 05:30:31  5-MIN KDBQ 051130Z AUTO 18009KT 10SM CLR M14/M18 A3027 760 73 -2700 170/09 RMK AO2 $
94908KDBQ DBQ20090205053510302/05/09 05:35:31  5-MIN KDBQ 051135Z AUTO 18008KT 10SM CLR M14/M18 A3027 760 73 -2700 170/08 RMK AO2 $
94908KDBQ DBQ20090205054010302/05/09 05:40:31  5-MIN KDBQ 051140Z AUTO 17008KT 10SM CLR M14/M18 A3027 760 73 -2700 170/08 RMK AO2 $
94908KDBQ DBQ20090205054510302/05/09 05:45:31  5-MIN KDBQ 051145Z AUTO 16010KT 10SM CLR M14/M18 A3027 760 76 -2700 160/10 RMK AO2 $
94908KDBQ DBQ20090205055013802/05/09 05:50:31  5-MIN KDBQ 051150Z AUTO 17010KT 10SM CLR M14/M18 A3027 760 73 -2600 170/10 RMK AO2 SLP275 T11391178 11139 21156 56024 $
94908KDBQ DBQ20090205055509802/05/09 05:55:31  5-MIN KDBQ 051155Z 17011KT 10SM CLR M14/M18 A3026 770 73 -2600 170/11 RMK AO2 $
94908KDBQ DBQ20090205060009802/05/09 06:00:31  5-MIN KDBQ 051200Z 17011KT 10SM CLR M14/M18 A3025 770 73 -2600 170/11 RMK AO2 $
94908KDBQ DBQ20090205060509802/05/09 06:05:31  5-MIN KDBQ 051205Z 17012KT 10SM CLR M14/M18 A3025 770 73 -2600 170/12 RMK AO2 $
94908KDBQ DBQ20090205061009802/05/09 06:10:31  5-MIN KDBQ 051210Z 17012KT 10SM CLR M14/M18 A3025 770 73 -2600 170/12 RMK AO2 $
94908KDBQ DBQ20090205061509802/05/09 06:15:31  5-MIN KDBQ 051215Z 17011KT 10SM CLR M14/M18 A3025 780 73 -2600 170/11 RMK AO2 $
94908KDBQ DBQ20090205062009802/05/09 06:20:31  5-MIN KDBQ 051220Z 17012KT 10SM CLR M14/M18 A3024 780 73 -2600 170/12 RMK AO2 $
94908KDBQ DBQ20090205062509802/05/09 06:25:31  5-MIN KDBQ 051225Z 18012KT 10SM CLR M14/M18 A3023 790 73 -2600 180/12 RMK AO2 $
94908KDBQ DBQ20090205063010502/05/09 06:30:31  5-MIN KDBQ 051230Z 18013KT 10SM CLR M14/M18 A3023 800 73 -2600 180/13 RMK AO2 PRESFR $
94908KDBQ DBQ20090205063509802/05/09 06:35:31  5-MIN KDBQ 051235Z 18011KT 10SM CLR M14/M18 A3023 800 76 -2600 180/11 RMK AO2 $
94908KDBQ DBQ20090205064009802/05/09 06:40:31  5-MIN KDBQ 051240Z 18011KT 10SM CLR M14/M18 A3023 800 76 -2600 180/11 RMK AO2 $
94908KDBQ DBQ20090205064509802/05/09 06:45:31  5-MIN KDBQ 051245Z 18010KT 10SM CLR M14/M18 A3022 800 76 -2600 180/10 RMK AO2 $
94908KDBQ DBQ20090205065011502/05/09 06:50:31  5-MIN KDBQ 051250Z 18011KT 10SM CLR M14/M18 A3022 800 76 -2600 180/11 RMK AO2 SLP260 T11441178 $
94908KDBQ DBQ20090205065509802/05/09 06:55:31  5-MIN KDBQ 051255Z 18010KT 10SM CLR M14/M18 A3022 800 76 -2600 180/10 RMK AO2 $
94908KDBQ DBQ20090205070009802/05/09 07:00:31  5-MIN KDBQ 051300Z 18010KT 10SM CLR M14/M18 A3022 800 73 -2500 180/10 RMK AO2 $
94908KDBQ DBQ20090205070509802/05/09 07:05:31  5-MIN KDBQ 051305Z 18010KT 10SM CLR M14/M18 A3022 800 73 -2500 180/10 RMK AO2 $
94908KDBQ DBQ20090205071009802/05/09 07:10:31  5-MIN KDBQ 051310Z 18010KT 10SM CLR M14/M18 A3022 800 73 -2500 170/10 RMK AO2 $
94908KDBQ DBQ20090205071509802/05/09 07:15:31  5-MIN KDBQ 051315Z 18010KT 10SM CLR M14/M18 A3021 810 73 -2500 170/10 RMK AO2 $
94908KDBQ DBQ20090205072009802/05/09 07:20:31  5-MIN KDBQ 051320Z 18009KT 10SM CLR M14/M18 A3021 810 73 -2500 180/09 RMK AO2 $
94908KDBQ DBQ20090205072509802/05/09 07:25:31  5-MIN KDBQ 051325Z 19009KT 10SM CLR M14/M17 A3021 810 76 -2500 180/09 RMK AO2 $
94908KDBQ DBQ20090205073009802/05/09 07:30:31  5-MIN KDBQ 051330Z 18010KT 10SM CLR M14/M17 A3020 820 76 -2500 180/10 RMK AO2 $
94908KDBQ DBQ20090205073509802/05/09 07:35:31  5-MIN KDBQ 051335Z 18010KT 10SM CLR M13/M17 A3020 820 73 -2500 180/10 RMK AO2 $
94908KDBQ DBQ20090205074009802/05/09 07:40:31  5-MIN KDBQ 051340Z 18010KT 10SM CLR M13/M17 A3020 820 73 -2400 180/10 RMK AO2 $
94908KDBQ DBQ20090205074509802/05/09 07:45:31  5-MIN KDBQ 051345Z 18011KT 10SM CLR M12/M17 A3020 820 70 -2300 180/11 RMK AO2 $
94908KDBQ DBQ20090205075011502/05/09 07:50:31  5-MIN KDBQ 051350Z 18011KT 10SM CLR M12/M17 A3020 820 70 -2300 180/11 RMK AO2 SLP253 T11221167 $
94908KDBQ DBQ20090205075509802/05/09 07:55:31  5-MIN KDBQ 051355Z 18012KT 10SM CLR M12/M17 A3020 820 70 -2300 180/12 RMK AO2 $
94908KDBQ DBQ20090205080009802/05/09 08:00:31  5-MIN KDBQ 051400Z 18011KT 10SM CLR M12/M17 A3019 830 70 -2300 180/11 RMK AO2 $
94908KDBQ DBQ20090205080509802/05/09 08:05:31  5-MIN KDBQ 051405Z 18013KT 10SM CLR M12/M16 A3019 830 73 -2300 180/13 RMK AO2 $
94908KDBQ DBQ20090205081009802/05/09 08:10:31  5-MIN KDBQ 051410Z 18012KT 10SM CLR M12/M16 A3019 830 70 -2200 170/12 RMK AO2 $
94908KDBQ DBQ20090205081509802/05/09 08:15:31  5-MIN KDBQ 051415Z 18010KT 10SM CLR M12/M16 A3018 840 70 -2200 180/10 RMK AO2 $
94908KDBQ DBQ20090205082009802/05/09 08:20:31  5-MIN KDBQ 051420Z 18013KT 10SM CLR M12/M16 A3018 840 70 -2200 180/13 RMK AO2 $
94908KDBQ DBQ20090205082509802/05/09 08:25:31  5-MIN KDBQ 051425Z 18013KT 10SM CLR M12/M16 A3018 840 70 -2200 180/13 RMK AO2 $
94908KDBQ DBQ20090205083009802/05/09 08:30:31  5-MIN KDBQ 051430Z 18013KT 10SM CLR M12/M16 A3017 850 70 -2200 170/13 RMK AO2 $
94908KDBQ DBQ20090205083509802/05/09 08:35:31  5-MIN KDBQ 051435Z 18013KT 10SM CLR M12/M16 A3017 850 70 -2200 170/13 RMK AO2 $
94908KDBQ DBQ20090205084009802/05/09 08:40:31  5-MIN KDBQ 051440Z 18012KT 10SM CLR M12/M16 A3016 860 73 -2200 180/12 RMK AO2 $
94908KDBQ DBQ20090205084509802/05/09 08:45:31  5-MIN KDBQ 051445Z 18014KT 10SM CLR M12/M16 A3016 860 73 -2200 180/14 RMK AO2 $
94908KDBQ DBQ20090205085012102/05/09 08:50:31  5-MIN KDBQ 051450Z 18014KT 10SM CLR M11/M16 A3015 860 70 -2100 180/14 RMK AO2 SLP237 T11111156 56027 $
94908KDBQ DBQ20090205085509802/05/09 08:55:31  5-MIN KDBQ 051455Z 19013KT 10SM CLR M11/M16 A3015 860 67 -2000 190/13 RMK AO2 $
94908KDBQ DBQ20090205090009802/05/09 09:00:31  5-MIN KDBQ 051500Z 19014KT 10SM CLR M11/M15 A3015 860 70 -2000 190/14 RMK AO2 $
94908KDBQ DBQ20090205090509802/05/09 09:05:31  5-MIN KDBQ 051505Z 19015KT 10SM CLR M10/M15 A3015 870 67 -1900 190/15 RMK AO2 $
94908KDBQ DBQ20090205091009802/05/09 09:10:31  5-MIN KDBQ 051510Z 19016KT 10SM CLR M09/M15 A3014 870 64 -1900 190/16 RMK AO2 $
94908KDBQ DBQ20090205091509802/05/09 09:15:31  5-MIN KDBQ 051515Z 19017KT 10SM CLR M09/M15 A3014 880 64 -1900 190/17 RMK AO2 $
94908KDBQ DBQ20090205092009802/05/09 09:20:31  5-MIN KDBQ 051520Z 19015KT 10SM CLR M09/M14 A3013 880 67 -1900 190/15 RMK AO2 $
94908KDBQ DBQ20090205092509802/05/09 09:25:31  5-MIN KDBQ 051525Z 19017KT 10SM CLR M09/M14 A3013 880 64 -1800 190/17 RMK AO2 $
94908KDBQ DBQ20090205093009802/05/09 09:30:31  5-MIN KDBQ 051530Z 19016KT 10SM CLR M09/M14 A3013 880 64 -1800 190/16 RMK AO2 $
94908KDBQ DBQ20090205093509802/05/09 09:35:31  5-MIN KDBQ 051535Z 19015KT 10SM CLR M09/M14 A3013 890 64 -1800 190/15 RMK AO2 $
94908KDBQ DBQ20090205094010402/05/09 09:40:31  5-MIN KDBQ 051540Z 19017G23KT 10SM CLR M09/M14 A3013 890 67 -1800 190/17G23 RMK AO2 $
94908KDBQ DBQ20090205094510402/05/09 09:45:31  5-MIN KDBQ 051545Z 19016G23KT 10SM CLR M08/M14 A3012 890 64 -1700 190/16G23 RMK AO2 $
94908KDBQ DBQ20090205095012102/05/09 09:50:31  5-MIN KDBQ 051550Z 19019G23KT 10SM CLR M08/M14 A3012 890 64 -1700 190/19G23 RMK AO2 SLP224 T10831139 $
94908KDBQ DBQ20090205095509802/05/09 09:55:31  5-MIN KDBQ 051555Z 19017KT 10SM CLR M08/M14 A3012 890 64 -1700 180/17 RMK AO2 $
94908KDBQ DBQ20090205100010402/05/09 10:00:31  5-MIN KDBQ 051600Z 18016G23KT 10SM CLR M08/M14 A3012 900 62 -1600 180/16G23 RMK AO2 $
94908KDBQ DBQ20090205100509802/05/09 10:05:31  5-MIN KDBQ 051605Z 18014KT 10SM CLR M08/M13 A3012 890 64 -1600 180/14 RMK AO2 $
94908KDBQ DBQ20090205101009802/05/09 10:10:31  5-MIN KDBQ 051610Z 18016KT 10SM CLR M08/M13 A3012 890 64 -1600 180/16 RMK AO2 $
94908KDBQ DBQ20090205101509802/05/09 10:15:31  5-MIN KDBQ 051615Z 18016KT 10SM CLR M08/M13 A3012 890 64 -1600 180/16 RMK AO2 $
94908KDBQ DBQ20090205102009802/05/09 10:20:31  5-MIN KDBQ 051620Z 18014KT 10SM CLR M07/M13 A3012 890 62 -1600 180/14 RMK AO2 $
94908KDBQ DBQ20090205102510202/05/09 10:25:31  5-MIN KDBQ 051625Z 18016KT 10SM CLR M07/M13 A3012 890 65 -1600 180/16 RMK AO2 PNO $
94908KDBQ DBQ20090205103010202/05/09 10:30:31  5-MIN KDBQ 051630Z 19013KT 10SM CLR M07/M13 A3012 890 62 -1500 190/13 RMK AO2 PNO $
94908KDBQ DBQ20090205103510202/05/09 10:35:31  5-MIN KDBQ 051635Z 19014KT 10SM CLR M07/M13 A3012 900 62 -1500 190/14 RMK AO2 PNO $
94908KDBQ DBQ20090205104010202/05/09 10:40:31  5-MIN KDBQ 051640Z 19015KT 10SM CLR M07/M12 A3012 900 65 -1500 190/15 RMK AO2 PNO $
94908KDBQ DBQ20090205104510202/05/09 10:45:31  5-MIN KDBQ 051645Z 20015KT 10SM CLR M06/M12 A3012 900 62 -1400 190/15 RMK AO2 PNO $
94908KDBQ DBQ20090205105011902/05/09 10:50:31  5-MIN KDBQ 051650Z 19015KT 10SM CLR M06/M12 A3012 900 65 -1400 190/15 RMK AO2 SLP221 T10611117 PNO $
94908KDBQ DBQ20090205105510202/05/09 10:55:31  5-MIN KDBQ 051655Z 19016KT 10SM CLR M06/M12 A3012 900 65 -1400 190/16 RMK AO2 PNO $
94908KDBQ DBQ20090205110009602/05/09 11:00:31  5-MIN KDBQ 051700Z 19016KT 10SM CLR M06/M12 A3012 900 62 -1300 190/16 RMK AO2
94908KDBQ DBQ20090205110509602/05/09 11:05:31  5-MIN KDBQ 051705Z 19015KT 10SM CLR M06/M12 A3011 900 62 -1300 190/15 RMK AO2
94908KDBQ DBQ20090205111009602/05/09 11:10:31  5-MIN KDBQ 051710Z 19015KT 10SM CLR M06/M11 A3011 900 65 -1300 190/15 RMK AO2
94908KDBQ DBQ20090205111509602/05/09 11:15:31  5-MIN KDBQ 051715Z 19014KT 10SM CLR M05/M11 A3011 910 62 -1300 180/14 RMK AO2
94908KDBQ DBQ20090205112009602/05/09 11:20:31  5-MIN KDBQ 051720Z 19013KT 10SM CLR M05/M11 A3010 910 65 -1200 190/13 RMK AO2
94908KDBQ DBQ20090205112509602/05/09 11:25:31  5-MIN KDBQ 051725Z 19014KT 10SM CLR M04/M11 A3010 910 62 -1200 190/14 RMK AO2
94908KDBQ DBQ20090205113009602/05/09 11:30:31  5-MIN KDBQ 051730Z 18013KT 10SM CLR M04/M11 A3010 920 62 -1200 180/13 RMK AO2
94908KDBQ DBQ20090205113509602/05/09 11:35:31  5-MIN KDBQ 051735Z 19015KT 10SM CLR M04/M11 A3010 920 62 -1200 190/15 RMK AO2
94908KDBQ DBQ20090205114009602/05/09 11:40:31  5-MIN KDBQ 051740Z 19015KT 10SM CLR M04/M11 A3009 920 60 -1100 190/15 RMK AO2
94908KDBQ DBQ20090205114510202/05/09 11:45:31  5-MIN KDBQ 051745Z 19015G22KT 10SM CLR M04/M10 A3009 920 63 -1100 190/15G22 RMK AO2
94908KDBQ DBQ20090205115014302/05/09 11:50:31  5-MIN KDBQ 051750Z 20016G22KT 10SM CLR M04/M10 A3008 930 63 -1100 200/16G22 RMK AO2 SLP208 6//// T10391100 11039 21144 58035
94908KDBQ DBQ20090205115509602/05/09 11:55:31  5-MIN KDBQ 051755Z 19016KT 10SM CLR M04/M10 A3008 930 63 -1100 190/16 RMK AO2
94908KDBQ DBQ20090205120009602/05/09 12:00:31  5-MIN KDBQ 051800Z 19014KT 10SM CLR M03/M10 A3008 930 60 -1000 190/14 RMK AO2
94908KDBQ DBQ20090205120509602/05/09 12:05:31  5-MIN KDBQ 051805Z 19014KT 10SM CLR M03/M10 A3008 930 60 -1000 190/14 RMK AO2
94908KDBQ DBQ20090205121009602/05/09 12:10:31  5-MIN KDBQ 051810Z 19014KT 10SM CLR M03/M09 A3008 930 63 -1000 190/14 RMK AO2
94908KDBQ DBQ20090205121509602/05/09 12:15:31  5-MIN KDBQ 051815Z 19013KT 10SM CLR M03/M09 A3008 930 63 -1000 190/13 RMK AO2
94908KDBQ DBQ20090205122009502/05/09 12:20:31  5-MIN KDBQ 051820Z 19011KT 10SM CLR M03/M09 A3008 930 60 -900 190/11 RMK AO2
94908KDBQ DBQ20090205122509502/05/09 12:25:31  5-MIN KDBQ 051825Z 19011KT 10SM CLR M03/M09 A3008 930 63 -900 190/11 RMK AO2
94908KDBQ DBQ20090205123009502/05/09 12:30:31  5-MIN KDBQ 051830Z 19012KT 10SM CLR M03/M09 A3007 940 60 -900 190/12 RMK AO2
94908KDBQ DBQ20090205123509502/05/09 12:35:31  5-MIN KDBQ 051835Z 19012KT 10SM CLR M03/M09 A3007 940 60 -900 190/12 RMK AO2
94908KDBQ DBQ20090205124009502/05/09 12:40:31  5-MIN KDBQ 051840Z 19013KT 10SM CLR M03/M09 A3007 940 63 -900 190/13 RMK AO2
94908KDBQ DBQ20090205124509502/05/09 12:45:31  5-MIN KDBQ 051845Z 20013KT 10SM CLR M03/M09 A3007 940 63 -900 190/13 RMK AO2
94908KDBQ DBQ20090205125011202/05/09 12:50:31  5-MIN KDBQ 051850Z 19012KT 10SM CLR M03/M09 A3007 940 63 -900 190/12 RMK AO2 SLP203 T10281089
94908KDBQ DBQ20090205125509502/05/09 12:55:31  5-MIN KDBQ 051855Z 19011KT 10SM CLR M03/M09 A3007 940 63 -900 190/11 RMK AO2
94908KDBQ DBQ20090205130009502/05/09 13:00:31  5-MIN KDBQ 051900Z 19010KT 10SM CLR M03/M09 A3007 940 63 -900 190/10 RMK AO2
94908KDBQ DBQ20090205130510102/05/09 13:05:31  5-MIN KDBQ 051905Z 18011KT 10SM CLR M02/M08 A3007 940 63 -900 180/11 RMK AO2 P0001
94908KDBQ DBQ20090205131010102/05/09 13:10:31  5-MIN KDBQ 051910Z 18010KT 10SM CLR M02/M09 A3007 940 60 -800 180/10 RMK AO2 P0001
94908KDBQ DBQ20090205131510102/05/09 13:15:31  5-MIN KDBQ 051915Z 19010KT 10SM CLR M02/M08 A3006 950 63 -800 190/10 RMK AO2 P0001
94908KDBQ DBQ20090205132010102/05/09 13:20:31  5-MIN KDBQ 051920Z 19010KT 10SM CLR M02/M08 A3006 940 63 -800 190/10 RMK AO2 P0001
94908KDBQ DBQ20090205132510102/05/09 13:25:31  5-MIN KDBQ 051925Z 20009KT 10SM CLR M02/M08 A3006 950 63 -800 200/09 RMK AO2 P0001
94908KDBQ DBQ20090205133010102/05/09 13:30:31  5-MIN KDBQ 051930Z 20010KT 10SM CLR M02/M08 A3006 950 63 -800 200/10 RMK AO2 P0001
94908KDBQ DBQ20090205133510102/05/09 13:35:31  5-MIN KDBQ 051935Z 20010KT 10SM CLR M02/M08 A3006 950 60 -800 200/10 RMK AO2 P0001
94908KDBQ DBQ20090205134010102/05/09 13:40:31  5-MIN KDBQ 051940Z 21009KT 10SM CLR M02/M08 A3006 950 63 -800 210/09 RMK AO2 P0001
94908KDBQ DBQ20090205134510102/05/09 13:45:31  5-MIN KDBQ 051945Z 21009KT 10SM CLR M02/M08 A3006 950 60 -800 210/09 RMK AO2 P0001
94908KDBQ DBQ20090205135011802/05/09 13:50:31  5-MIN KDBQ 051950Z 20007KT 10SM CLR M02/M08 A3006 950 60 -800 190/07 RMK AO2 SLP200 P0001 T10171083
94908KDBQ DBQ20090205135509502/05/09 13:55:31  5-MIN KDBQ 051955Z 22010KT 10SM CLR M02/M08 A3006 950 63 -800 220/10 RMK AO2
94908KDBQ DBQ20090205140009502/05/09 14:00:31  5-MIN KDBQ 052000Z 21010KT 10SM CLR M02/M08 A3006 950 60 -800 210/10 RMK AO2
94908KDBQ DBQ20090205140509502/05/09 14:05:31  5-MIN KDBQ 052005Z 21012KT 10SM CLR M02/M08 A3006 950 60 -800 210/12 RMK AO2
94908KDBQ DBQ20090205141009502/05/09 14:10:31  5-MIN KDBQ 052010Z 22012KT 10SM CLR M02/M08 A3006 950 60 -800 220/12 RMK AO2
94908KDBQ DBQ20090205141509502/05/09 14:15:31  5-MIN KDBQ 052015Z 21011KT 10SM CLR M02/M08 A3006 950 60 -800 210/11 RMK AO2
94908KDBQ DBQ20090205142009502/05/09 14:20:31  5-MIN KDBQ 052020Z 21011KT 10SM CLR M01/M08 A3006 950 60 -700 210/11 RMK AO2
94908KDBQ DBQ20090205142509502/05/09 14:25:31  5-MIN KDBQ 052025Z 21009KT 10SM CLR M01/M08 A3006 950 60 -700 210/09 RMK AO2
94908KDBQ DBQ20090205143009502/05/09 14:30:31  5-MIN KDBQ 052030Z 21012KT 10SM CLR M01/M08 A3006 950 60 -700 210/12 RMK AO2
94908KDBQ DBQ20090205143509502/05/09 14:35:31  5-MIN KDBQ 052035Z 21011KT 10SM CLR M01/M08 A3006 950 60 -700 210/11 RMK AO2
94908KDBQ DBQ20090205144009502/05/09 14:40:31  5-MIN KDBQ 052040Z 21011KT 10SM CLR M01/M08 A3006 950 60 -700 210/11 RMK AO2
94908KDBQ DBQ20090205144509502/05/09 14:45:31  5-MIN KDBQ 052045Z 21011KT 10SM CLR M01/M08 A3006 950 60 -700 210/11 RMK AO2
94908KDBQ DBQ20090205145012902/05/09 14:50:31  5-MIN KDBQ 052050Z AUTO 20010KT 10SM CLR M01/M07 A3007 940 63 -700 200/10 RMK AO2 SLP201 60001 T10111072 56023
94908KDBQ DBQ20090205145509502/05/09 14:55:31  5-MIN KDBQ 052055Z 21010KT 10SM CLR M01/M08 A3007 940 60 -700 210/10 RMK AO2
94908KDBQ DBQ20090205150009502/05/09 15:00:31  5-MIN KDBQ 052100Z 21009KT 10SM CLR M01/M08 A3007 940 60 -700 210/09 RMK AO2
94908KDBQ DBQ20090205150509502/05/09 15:05:31  5-MIN KDBQ 052105Z 20009KT 10SM CLR M01/M08 A3007 940 60 -700 200/09 RMK AO2
94908KDBQ DBQ20090205151009502/05/09 15:10:31  5-MIN KDBQ 052110Z 20009KT 10SM CLR M01/M08 A3006 950 60 -700 200/09 RMK AO2
94908KDBQ DBQ20090205151509502/05/09 15:15:31  5-MIN KDBQ 052115Z 20009KT 10SM CLR M01/M08 A3006 950 60 -700 200/09 RMK AO2
94908KDBQ DBQ20090205152009502/05/09 15:20:31  5-MIN KDBQ 052120Z 20008KT 10SM CLR M01/M07 A3006 950 63 -700 200/08 RMK AO2
94908KDBQ DBQ20090205152509502/05/09 15:25:31  5-MIN KDBQ 052125Z 20008KT 10SM CLR M01/M07 A3006 950 63 -700 200/08 RMK AO2
94908KDBQ DBQ20090205153009502/05/09 15:30:31  5-MIN KDBQ 052130Z 20008KT 10SM CLR M01/M07 A3006 950 63 -700 200/08 RMK AO2
94908KDBQ DBQ20090205153509502/05/09 15:35:31  5-MIN KDBQ 052135Z 20009KT 10SM CLR M01/M07 A3007 940 63 -700 200/09 RMK AO2
94908KDBQ DBQ20090205154009502/05/09 15:40:31  5-MIN KDBQ 052140Z 20007KT 10SM CLR M01/M07 A3007 940 63 -700 200/07 RMK AO2
94908KDBQ DBQ20090205154509502/05/09 15:45:31  5-MIN KDBQ 052145Z 20008KT 10SM CLR M01/M07 A3007 940 63 -700 200/08 RMK AO2
94908KDBQ DBQ20090205155011202/05/09 15:50:31  5-MIN KDBQ 052150Z 20006KT 10SM CLR M01/M07 A3007 940 63 -700 200/06 RMK AO2 SLP202 T10111072
94908KDBQ DBQ20090205155509502/05/09 15:55:31  5-MIN KDBQ 052155Z 20006KT 10SM CLR M01/M07 A3007 940 66 -700 200/06 RMK AO2
94908KDBQ DBQ20090205160009502/05/09 16:00:31  5-MIN KDBQ 052200Z 20006KT 10SM CLR M01/M07 A3007 940 66 -700 200/06 RMK AO2
94908KDBQ DBQ20090205160509502/05/09 16:05:31  5-MIN KDBQ 052205Z 20006KT 10SM CLR M01/M07 A3007 940 66 -700 200/06 RMK AO2
94908KDBQ DBQ20090205161009502/05/09 16:10:31  5-MIN KDBQ 052210Z 19005KT 10SM CLR M01/M07 A3007 940 66 -700 190/05 RMK AO2
94908KDBQ DBQ20090205161509502/05/09 16:15:31  5-MIN KDBQ 052215Z 19005KT 10SM CLR M01/M07 A3007 940 66 -700 190/05 RMK AO2
94908KDBQ DBQ20090205162009502/05/09 16:20:31  5-MIN KDBQ 052220Z 19005KT 10SM CLR M01/M07 A3006 950 66 -700 180/05 RMK AO2
94908KDBQ DBQ20090205162509502/05/09 16:25:31  5-MIN KDBQ 052225Z 18004KT 10SM CLR M01/M07 A3007 940 66 -700 180/04 RMK AO2
94908KDBQ DBQ20090205163009502/05/09 16:30:31  5-MIN KDBQ 052230Z 17003KT 10SM CLR M01/M07 A3007 940 66 -700 170/03 RMK AO2
94908KDBQ DBQ20090205163509502/05/09 16:35:31  5-MIN KDBQ 052235Z 17004KT 10SM CLR M02/M07 A3007 940 66 -800 170/04 RMK AO2
94908KDBQ DBQ20090205164009502/05/09 16:40:31  5-MIN KDBQ 052240Z 17005KT 10SM CLR M02/M07 A3007 940 66 -800 170/05 RMK AO2
94908KDBQ DBQ20090205164509502/05/09 16:45:31  5-MIN KDBQ 052245Z 18004KT 10SM CLR M02/M07 A3007 940 69 -900 170/04 RMK AO2
94908KDBQ DBQ20090205165011202/05/09 16:50:31  5-MIN KDBQ 052250Z 17004KT 10SM CLR M02/M07 A3007 940 69 -900 170/04 RMK AO2 SLP202 T10221072
94908KDBQ DBQ20090205165509502/05/09 16:55:31  5-MIN KDBQ 052255Z 16003KT 10SM CLR M02/M07 A3007 940 69 -900 160/03 RMK AO2
94908KDBQ DBQ20090205170009502/05/09 17:00:31  5-MIN KDBQ 052300Z 16003KT 10SM CLR M02/M07 A3007 940 69 -900 160/03 RMK AO2
94908KDBQ DBQ20090205170509502/05/09 17:05:31  5-MIN KDBQ 052305Z 00000KT 10SM CLR M02/M07 A3007 940 69 -900 000/00 RMK AO2
94908KDBQ DBQ20090205171009502/05/09 17:10:31  5-MIN KDBQ 052310Z 17003KT 10SM CLR M03/M08 A3007 940 68 -900 170/03 RMK AO2
94908KDBQ DBQ20090205171509502/05/09 17:15:31  5-MIN KDBQ 052315Z 00000KT 10SM CLR M03/M08 A3007 940 68 -900 000/00 RMK AO2
94908KDBQ DBQ20090205172009602/05/09 17:20:31  5-MIN KDBQ 052320Z 17003KT 10SM CLR M03/M08 A3007 940 71 -1000 170/03 RMK AO2
94908KDBQ DBQ20090205172509602/05/09 17:25:31  5-MIN KDBQ 052325Z 00000KT 10SM CLR M03/M08 A3007 940 68 -1000 000/00 RMK AO2
94908KDBQ DBQ20090205173009602/05/09 17:30:31  5-MIN KDBQ 052330Z 00000KT 10SM CLR M03/M08 A3007 940 68 -1000 000/00 RMK AO2
94908KDBQ DBQ20090205173509602/05/09 17:35:31  5-MIN KDBQ 052335Z 16003KT 10SM CLR M04/M09 A3007 940 71 -1100 160/03 RMK AO2
94908KDBQ DBQ20090205174009602/05/09 17:40:31  5-MIN KDBQ 052340Z 14003KT 10SM CLR M04/M08 A3007 940 71 -1100 140/03 RMK AO2
94908KDBQ DBQ20090205174509602/05/09 17:45:31  5-MIN KDBQ 052345Z 00000KT 10SM CLR M05/M09 A3007 940 74 -1200 000/00 RMK AO2
94908KDBQ DBQ20090205175013702/05/09 17:50:31  5-MIN KDBQ 052350Z 00000KT 10SM CLR M04/M09 A3007 940 71 -1100 000/00 RMK AO2 SLP204 60001 T10441089 11011 21050 55006
94908KDBQ DBQ20090205175509602/05/09 17:55:31  5-MIN KDBQ 052355Z 00000KT 10SM CLR M05/M09 A3007 940 74 -1200 000/00 RMK AO2
94908KDBQ DBQ20090205180009602/05/09 18:00:31  5-MIN KDBQ 060000Z 00000KT 10SM CLR M06/M09 A3007 940 74 -1300 000/00 RMK AO2
94908KDBQ DBQ20090205180509602/05/09 18:05:31  5-MIN KDBQ 060005Z 00000KT 10SM CLR M06/M09 A3008 930 74 -1300 000/00 RMK AO2
94908KDBQ DBQ20090205181009602/05/09 18:10:31  5-MIN KDBQ 060010Z 00000KT 10SM CLR M05/M09 A3008 930 71 -1200 000/00 RMK AO2
94908KDBQ DBQ20090205181509602/05/09 18:15:31  5-MIN KDBQ 060015Z 00000KT 10SM CLR M05/M09 A3008 930 71 -1200 000/00 RMK AO2
94908KDBQ DBQ20090205182009602/05/09 18:20:31  5-MIN KDBQ 060020Z 19003KT 10SM CLR M05/M09 A3008 940 74 -1200 190/03 RMK AO2
94908KDBQ DBQ20090205182509602/05/09 18:25:31  5-MIN KDBQ 060025Z 20003KT 10SM CLR M05/M09 A3008 930 74 -1200 200/03 RMK AO2
94908KDBQ DBQ20090205183009602/05/09 18:30:31  5-MIN KDBQ 060030Z 20003KT 10SM CLR M05/M09 A3008 930 74 -1200 200/03 RMK AO2
94908KDBQ DBQ20090205183509602/05/09 18:35:31  5-MIN KDBQ 060035Z 19004KT 10SM CLR M05/M09 A3007 940 74 -1200 190/04 RMK AO2
94908KDBQ DBQ20090205184009602/05/09 18:40:31  5-MIN KDBQ 060040Z 20003KT 10SM CLR M06/M09 A3008 940 77 -1300 200/03 RMK AO2
94908KDBQ DBQ20090205184509602/05/09 18:45:31  5-MIN KDBQ 060045Z 00000KT 10SM CLR M06/M09 A3008 930 74 -1300 000/00 RMK AO2
94908KDBQ DBQ20090205185011302/05/09 18:50:31  5-MIN KDBQ 060050Z 00000KT 10SM CLR M06/M09 A3007 940 77 -1400 000/00 RMK AO2 SLP206 T10611094
94908KDBQ DBQ20090205185509602/05/09 18:55:31  5-MIN KDBQ 060055Z 00000KT 10SM CLR M06/M09 A3007 940 77 -1300 000/00 RMK AO2
94908KDBQ DBQ20090205190009602/05/09 19:00:31  5-MIN KDBQ 060100Z 00000KT 10SM CLR M06/M09 A3007 940 74 -1300 000/00 RMK AO2
94908KDBQ DBQ20090205190509602/05/09 19:05:31  5-MIN KDBQ 060105Z 20003KT 10SM CLR M06/M09 A3007 940 74 -1300 200/03 RMK AO2
94908KDBQ DBQ20090205191009602/05/09 19:10:31  5-MIN KDBQ 060110Z 00000KT 10SM CLR M06/M09 A3007 940 74 -1300 000/00 RMK AO2
94908KDBQ DBQ20090205191509602/05/09 19:15:31  5-MIN KDBQ 060115Z 00000KT 10SM CLR M06/M09 A3007 940 74 -1300 000/00 RMK AO2
94908KDBQ DBQ20090205192009602/05/09 19:20:31  5-MIN KDBQ 060120Z 00000KT 10SM CLR M06/M09 A3007 940 74 -1300 000/00 RMK AO2
94908KDBQ DBQ20090205192509602/05/09 19:25:31  5-MIN KDBQ 060125Z 19004KT 10SM CLR M06/M09 A3007 940 74 -1300 190/04 RMK AO2
94908KDBQ DBQ20090205193009602/05/09 19:30:31  5-MIN KDBQ 060130Z 21003KT 10SM CLR M06/M09 A3007 940 77 -1300 210/03 RMK AO2
94908KDBQ DBQ20090205193509602/05/09 19:35:31  5-MIN KDBQ 060135Z 00000KT 10SM CLR M07/M10 A3007 940 77 -1400 000/00 RMK AO2
94908KDBQ DBQ20090205194009602/05/09 19:40:31  5-MIN KDBQ 060140Z 00000KT 10SM CLR M06/M10 A3007 940 74 -1400 000/00 RMK AO2
94908KDBQ DBQ20090205194509602/05/09 19:45:31  5-MIN KDBQ 060145Z 19003KT 10SM CLR M06/M09 A3008 940 77 -1400 180/03 RMK AO2
94908KDBQ DBQ20090205195011802/05/09 19:50:31  5-MIN KDBQ 060150Z AUTO 00000KT 10SM CLR M06/M09 A3008 930 74 -1300 000/00 RMK AO2 SLP206 T10561094
94908KDBQ DBQ20090205195510102/05/09 19:55:31  5-MIN KDBQ 060155Z AUTO 00000KT 10SM CLR M06/M09 A3008 930 74 -1300 000/00 RMK AO2
94908KDBQ DBQ20090205200010102/05/09 20:00:31  5-MIN KDBQ 060200Z AUTO 00000KT 10SM CLR M07/M09 A3008 930 81 -1400 000/00 RMK AO2
94908KDBQ DBQ20090205200510102/05/09 20:05:31  5-MIN KDBQ 060205Z AUTO 00000KT 10SM CLR M07/M10 A3008 930 81 -1500 000/00 RMK AO2
94908KDBQ DBQ20090205201010102/05/09 20:10:31  5-MIN KDBQ 060210Z AUTO 00000KT 10SM CLR M07/M10 A3008 930 81 -1500 000/00 RMK AO2
94908KDBQ DBQ20090205201510102/05/09 20:15:31  5-MIN KDBQ 060215Z AUTO 00000KT 10SM CLR M08/M10 A3008 930 84 -1600 000/00 RMK AO2
94908KDBQ DBQ20090205202010102/05/09 20:20:31  5-MIN KDBQ 060220Z AUTO 00000KT 10SM CLR M08/M10 A3008 930 84 -1600 000/00 RMK AO2
94908KDBQ DBQ20090205202510102/05/09 20:25:31  5-MIN KDBQ 060225Z AUTO 00000KT 10SM CLR M07/M10 A3008 930 81 -1500 000/00 RMK AO2
94908KDBQ DBQ20090205203010102/05/09 20:30:31  5-MIN KDBQ 060230Z AUTO 00000KT 10SM CLR M07/M10 A3008 930 81 -1500 000/00 RMK AO2
94908KDBQ DBQ20090205203510102/05/09 20:35:31  5-MIN KDBQ 060235Z AUTO 00000KT 10SM CLR M06/M09 A3008 930 81 -1400 000/00 RMK AO2
94908KDBQ DBQ20090205204010102/05/09 20:40:31  5-MIN KDBQ 060240Z AUTO 00000KT 10SM CLR M07/M09 A3008 930 81 -1400 000/00 RMK AO2
94908KDBQ DBQ20090205204510102/05/09 20:45:31  5-MIN KDBQ 060245Z AUTO 00000KT 10SM CLR M07/M09 A3009 920 81 -1400 000/00 RMK AO2
94908KDBQ DBQ20090205205012402/05/09 20:50:31  5-MIN KDBQ 060250Z AUTO 00000KT 10SM CLR M08/M11 A3009 920 80 -1600 000/00 RMK AO2 SLP210 T10781106 53002
94908KDBQ DBQ20090205205510102/05/09 20:55:31  5-MIN KDBQ 060255Z AUTO 00000KT 10SM CLR M08/M11 A3009 920 80 -1700 000/00 RMK AO2
94908KDBQ DBQ20090205210010102/05/09 21:00:31  5-MIN KDBQ 060300Z AUTO 00000KT 10SM CLR M07/M11 A3009 920 77 -1500 000/00 RMK AO2
94908KDBQ DBQ20090205210510102/05/09 21:05:31  5-MIN KDBQ 060305Z AUTO 00000KT 10SM CLR M08/M11 A3009 920 77 -1600 000/00 RMK AO2
94908KDBQ DBQ20090205211010102/05/09 21:10:31  5-MIN KDBQ 060310Z AUTO 00000KT 10SM CLR M09/M11 A3009 920 84 -1700 000/00 RMK AO2
94908KDBQ DBQ20090205211510002/05/09 21:15:31  5-MIN KDBQ 060315Z AUTO 00000KT 9SM CLR M09/M12 A3009 920 80 -1700 000/00 RMK AO2
94908KDBQ DBQ20090205212010102/05/09 21:20:31  5-MIN KDBQ 060320Z AUTO 00000KT 10SM CLR M09/M11 A3009 920 84 -1700 000/00 RMK AO2
94908KDBQ DBQ20090205212510102/05/09 21:25:31  5-MIN KDBQ 060325Z AUTO 00000KT 10SM CLR M09/M12 A3009 920 80 -1700 000/00 RMK AO2
94908KDBQ DBQ20090205213010102/05/09 21:30:31  5-MIN KDBQ 060330Z AUTO 00000KT 10SM CLR M08/M11 A3009 920 77 -1600 000/00 RMK AO2
94908KDBQ DBQ20090205213510102/05/09 21:35:31  5-MIN KDBQ 060335Z AUTO 00000KT 10SM CLR M08/M11 A3009 920 80 -1600 000/00 RMK AO2
94908KDBQ DBQ20090205214009902/05/09 21:40:31  5-MIN KDBQ 060340Z AUTO 00000KT 10SM M09/M12 A3009 920 80 -1700 000/00 RMK AO2 $
94908KDBQ DBQ20090205214509902/05/09 21:45:31  5-MIN KDBQ 060345Z AUTO 00000KT 10SM M08/M11 A3009 920 80 -1600 000/00 RMK AO2 $
94908KDBQ DBQ20090205215011602/05/09 21:50:31  5-MIN KDBQ 060350Z AUTO 13003KT 10SM M09/M12 A3009 920 80 -1700 130/03 RMK AO2 SLP211 T10891117 $
94908KDBQ DBQ20090205215509902/05/09 21:55:31  5-MIN KDBQ 060355Z AUTO 00000KT 10SM M09/M11 A3009 920 84 -1700 000/00 RMK AO2 $
94908KDBQ DBQ20090205220009902/05/09 22:00:31  5-MIN KDBQ 060400Z AUTO 00000KT 10SM M11/M13 A3009 920 84 -2000 000/00 RMK AO2 $
94908KDBQ DBQ20090205220509802/05/09 22:05:31  5-MIN KDBQ 060405Z AUTO 00000KT 9SM M10/M12 A3010 920 84 -1900 000/00 RMK AO2 $
94908KDBQ DBQ20090205221009802/05/09 22:10:31  5-MIN KDBQ 060410Z AUTO 00000KT 9SM M09/M12 A3009 920 80 -1700 000/00 RMK AO2 $
94908KDBQ DBQ20090205221509902/05/09 22:15:31  5-MIN KDBQ 060415Z AUTO 00000KT 10SM M07/M10 A3009 920 77 -1400 000/00 RMK AO2 $
94908KDBQ DBQ20090205222009902/05/09 22:20:31  5-MIN KDBQ 060420Z AUTO 00000KT 10SM M09/M12 A3009 920 80 -1700 000/00 RMK AO2 $
94908KDBQ DBQ20090205222510302/05/09 22:25:31  5-MIN KDBQ 060425Z AUTO 00000KT 10SM CLR M09/M12 A3009 920 84 -1800 000/00 RMK AO2 $
94908KDBQ DBQ20090205223009902/05/09 22:30:31  5-MIN KDBQ 060430Z AUTO 00000KT 10SM M08/M11 A3009 920 77 -1600 000/00 RMK AO2 $
94908KDBQ DBQ20090205223509902/05/09 22:35:31  5-MIN KDBQ 060435Z AUTO 00000KT 10SM M09/M11 A3009 920 84 -1700 000/00 RMK AO2 $
94908KDBQ DBQ20090205224009902/05/09 22:40:31  5-MIN KDBQ 060440Z AUTO 00000KT 10SM M08/M11 A3009 920 80 -1700 000/00 RMK AO2 $
94908KDBQ DBQ20090205224509902/05/09 22:45:31  5-MIN KDBQ 060445Z AUTO 00000KT 10SM M07/M11 A3009 920 77 -1500 000/00 RMK AO2 $
94908KDBQ DBQ20090205225011602/05/09 22:50:31  5-MIN KDBQ 060450Z AUTO 00000KT 10SM M08/M11 A3009 920 84 -1700 000/00 RMK AO2 SLP207 T10831106 $
94908KDBQ DBQ20090205225509902/05/09 22:55:31  5-MIN KDBQ 060455Z AUTO 00000KT 10SM M09/M12 A3009 930 80 -1800 000/00 RMK AO2 $
94908KDBQ DBQ20090205230009802/05/09 23:00:31  5-MIN KDBQ 060500Z AUTO 00000KT 8SM M09/M12 A3008 930 80 -1700 000/00 RMK AO2 $
94908KDBQ DBQ20090205230510202/05/09 23:05:31  5-MIN KDBQ 060505Z AUTO 00000KT 8SM CLR M08/M11 A3008 930 77 -1600 000/00 RMK AO2 $
94908KDBQ DBQ20090205231010202/05/09 23:10:31  5-MIN KDBQ 060510Z AUTO 00000KT 8SM CLR M07/M10 A3008 930 81 -1500 000/00 RMK AO2 $
94908KDBQ DBQ20090205231509802/05/09 23:15:31  5-MIN KDBQ 060515Z AUTO 00000KT 7SM M09/M11 A3008 930 84 -1700 000/00 RMK AO2 $
94908KDBQ DBQ20090205232009802/05/09 23:20:31  5-MIN KDBQ 060520Z AUTO 00000KT 7SM M10/M12 A3008 930 84 -1900 000/00 RMK AO2 $
94908KDBQ DBQ20090205232509802/05/09 23:25:31  5-MIN KDBQ 060525Z AUTO 00000KT 8SM M10/M13 A3008 930 80 -1900 000/00 RMK AO2 $
94908KDBQ DBQ20090205233009802/05/09 23:30:31  5-MIN KDBQ 060530Z AUTO 00000KT 7SM M09/M12 A3008 930 80 -1800 000/00 RMK AO2 $
94908KDBQ DBQ20090205233509802/05/09 23:35:31  5-MIN KDBQ 060535Z AUTO 00000KT 8SM M09/M12 A3008 930 80 -1700 000/00 RMK AO2 $
94908KDBQ DBQ20090205234009802/05/09 23:40:31  5-MIN KDBQ 060540Z AUTO 00000KT 9SM M08/M11 A3008 930 80 -1600 000/00 RMK AO2 $
94908KDBQ DBQ20090205234509902/05/09 23:45:31  5-MIN KDBQ 060545Z AUTO 00000KT 10SM M09/M11 A3008 930 84 -1700 000/00 RMK AO2 $
94908KDBQ DBQ20090205235014402/05/09 23:50:31  5-MIN KDBQ 060550Z AUTO 00000KT 10SM M09/M12 A3008 930 80 -1700 000/00 RMK AO2 SLP203 T10891117 11044 21106 410111156 53006 $
94908KDBQ DBQ20090205235509902/05/09 23:55:31  5-MIN KDBQ 060555Z AUTO 00000KT 10SM M08/M11 A3008 930 80 -1600 000/00 RMK AO2 $
94908KDBQ DBQ20090206000009902/06/09 00:00:38  5-MIN KDBQ 060600Z AUTO 00000KT 10SM M09/M12 A3008 930 80 -1700 000/00 RMK AO2 $
94908KDBQ DBQ20090206000509902/06/09 00:05:31  5-MIN KDBQ 060605Z AUTO 15003KT 10SM M08/M11 A3008 940 84 -1600 150/03 RMK AO2 $
94908KDBQ DBQ20090206001009902/06/09 00:10:31  5-MIN KDBQ 060610Z AUTO 00000KT 10SM M09/M11 A3008 930 84 -1700 000/00 RMK AO2 $
94908KDBQ DBQ20090206001509902/06/09 00:15:31  5-MIN KDBQ 060615Z AUTO 00000KT 10SM M09/M12 A3007 940 84 -1800 000/00 RMK AO2 $
94908KDBQ DBQ20090206002009902/06/09 00:20:31  5-MIN KDBQ 060620Z AUTO 00000KT 10SM M09/M12 A3007 940 84 -1800 000/00 RMK AO2 $
94908KDBQ DBQ20090206002510302/06/09 00:25:31  5-MIN KDBQ 060625Z AUTO 00000KT 10SM M09/M12 A3007 940 84 -1800 000/00 RMK AO2 PNO $
94908KDBQ DBQ20090206003009902/06/09 00:30:31  5-MIN KDBQ 060630Z AUTO 00000KT 10SM M08/M11 A3007 940 80 -1600 000/00 RMK AO2 $
94908KDBQ DBQ20090206003509902/06/09 00:35:31  5-MIN KDBQ 060635Z AUTO 00000KT 10SM M08/M11 A3007 940 80 -1600 000/00 RMK AO2 $
94908KDBQ DBQ20090206004009902/06/09 00:40:31  5-MIN KDBQ 060640Z AUTO 00000KT 10SM M08/M11 A3007 940 80 -1600 000/00 RMK AO2 $
94908KDBQ DBQ20090206004509902/06/09 00:45:31  5-MIN KDBQ 060645Z AUTO 00000KT 10SM M07/M10 A3007 940 81 -1500 000/00 RMK AO2 $
94908KDBQ DBQ20090206005011602/06/09 00:50:31  5-MIN KDBQ 060650Z AUTO 15003KT 10SM M07/M10 A3006 950 77 -1400 150/03 RMK AO2 SLP197 T10671100 $
94908KDBQ DBQ20090206005509902/06/09 00:55:31  5-MIN KDBQ 060655Z AUTO 16003KT 10SM M07/M10 A3006 950 81 -1500 160/03 RMK AO2 $
94908KDBQ DBQ20090206010009902/06/09 01:00:31  5-MIN KDBQ 060700Z AUTO 00000KT 10SM M07/M11 A3006 950 77 -1500 000/00 RMK AO2 $
94908KDBQ DBQ20090206010509802/06/09 01:05:31  5-MIN KDBQ 060705Z AUTO 18003KT 9SM M08/M11 A3006 950 80 -1600 180/03 RMK AO2 $
94908KDBQ DBQ20090206011009802/06/09 01:10:31  5-MIN KDBQ 060710Z AUTO 00000KT 9SM M09/M11 A3006 950 84 -1700 000/00 RMK AO2 $
94908KDBQ DBQ20090206011509802/06/09 01:15:31  5-MIN KDBQ 060715Z AUTO 00000KT 9SM M08/M11 A3006 950 80 -1600 000/00 RMK AO2 $
94908KDBQ DBQ20090206012009802/06/09 01:20:31  5-MIN KDBQ 060720Z AUTO 16003KT 9SM M07/M10 A3006 950 81 -1500 160/03 RMK AO2 $
94908KDBQ DBQ20090206012509802/06/09 01:25:31  5-MIN KDBQ 060725Z AUTO 00000KT 8SM M08/M10 A3006 950 84 -1600 000/00 RMK AO2 $
94908KDBQ DBQ20090206013009802/06/09 01:30:31  5-MIN KDBQ 060730Z AUTO 00000KT 8SM M08/M11 A3006 950 84 -1600 000/00 RMK AO2 $
94908KDBQ DBQ20090206013509802/06/09 01:35:31  5-MIN KDBQ 060735Z AUTO 00000KT 8SM M08/M11 A3006 950 84 -1600 000/00 RMK AO2 $
94908KDBQ DBQ20090206014009802/06/09 01:40:31  5-MIN KDBQ 060740Z AUTO 20003KT 8SM M08/M11 A3006 950 80 -1600 200/03 RMK AO2 $
94908KDBQ DBQ20090206014509802/06/09 01:45:31  5-MIN KDBQ 060745Z AUTO 20003KT 8SM M07/M10 A3006 950 81 -1500 190/03 RMK AO2 $
94908KDBQ DBQ20090206015011502/06/09 01:50:31  5-MIN KDBQ 060750Z AUTO 00000KT 8SM M07/M09 A3006 950 84 -1500 000/00 RMK AO2 SLP194 T10721094 $
94908KDBQ DBQ20090206015509802/06/09 01:55:31  5-MIN KDBQ 060755Z AUTO 00000KT 8SM M07/M10 A3006 950 77 -1400 000/00 RMK AO2 $
94908KDBQ DBQ20090206020009802/06/09 02:00:31  5-MIN KDBQ 060800Z AUTO 20003KT 8SM M07/M09 A3006 950 81 -1400 200/03 RMK AO2 $
94908KDBQ DBQ20090206020509802/06/09 02:05:31  5-MIN KDBQ 060805Z AUTO 00000KT 8SM M07/M09 A3006 950 81 -1400 000/00 RMK AO2 $
94908KDBQ DBQ20090206021009802/06/09 02:10:31  5-MIN KDBQ 060810Z AUTO 00000KT 8SM M07/M09 A3006 950 84 -1500 000/00 RMK AO2 $
94908KDBQ DBQ20090206021509802/06/09 02:15:31  5-MIN KDBQ 060815Z AUTO 00000KT 8SM M07/M10 A3006 950 81 -1500 000/00 RMK AO2 $
94908KDBQ DBQ20090206022009802/06/09 02:20:31  5-MIN KDBQ 060820Z AUTO 00000KT 7SM M09/M11 A3006 950 88 -1700 000/00 RMK AO2 $
94908KDBQ DBQ20090206022509802/06/09 02:25:31  5-MIN KDBQ 060825Z AUTO 00000KT 7SM M08/M11 A3006 950 80 -1500 000/00 RMK AO2 $
94908KDBQ DBQ20090206023009802/06/09 02:30:31  5-MIN KDBQ 060830Z AUTO 00000KT 7SM M07/M09 A3006 950 84 -1500 000/00 RMK AO2 $
94908KDBQ DBQ20090206023509802/06/09 02:35:31  5-MIN KDBQ 060835Z AUTO 00000KT 7SM M08/M09 A3006 950 96 -1600 000/00 RMK AO2 $
94908KDBQ DBQ20090206024009802/06/09 02:40:31  5-MIN KDBQ 060840Z AUTO 00000KT 7SM M08/M09 A3006 950 92 -1600 000/00 RMK AO2 $
94908KDBQ DBQ20090206024509802/06/09 02:45:31  5-MIN KDBQ 060845Z AUTO 00000KT 7SM M09/M11 A3005 950 88 -1700 000/00 RMK AO2 $
94908KDBQ DBQ20090206025012102/06/09 02:50:31  5-MIN KDBQ 060850Z AUTO 00000KT 7SM M09/M11 A3005 960 88 -1700 000/00 RMK AO2 SLP193 T10891106 58004 $
94908KDBQ DBQ20090206025509802/06/09 02:55:31  5-MIN KDBQ 060855Z AUTO 12003KT 7SM M09/M12 A3005 960 84 -1800 120/03 RMK AO2 $
94908KDBQ DBQ20090206030009802/06/09 03:00:31  5-MIN KDBQ 060900Z AUTO 12004KT 7SM M08/M11 A3005 960 84 -1600 120/04 RMK AO2 $
94908KDBQ DBQ20090206030509802/06/09 03:05:31  5-MIN KDBQ 060905Z AUTO 12003KT 7SM M09/M11 A3005 960 84 -1700 120/03 RMK AO2 $
94908KDBQ DBQ20090206031009802/06/09 03:10:31  5-MIN KDBQ 060910Z AUTO 00000KT 7SM M10/M12 A3005 960 88 -1800 000/00 RMK AO2 $
94908KDBQ DBQ20090206031509802/06/09 03:15:31  5-MIN KDBQ 060915Z AUTO 11003KT 7SM M08/M11 A3005 960 80 -1500 110/03 RMK AO2 $
94908KDBQ DBQ20090206032010202/06/09 03:20:31  5-MIN KDBQ 060920Z AUTO 11003KT 7SM CLR M07/M10 A3005 960 81 -1500 100/03 RMK AO2 $
94908KDBQ DBQ20090206032509802/06/09 03:25:31  5-MIN KDBQ 060925Z AUTO 10003KT 7SM M08/M10 A3005 960 84 -1500 100/03 RMK AO2 $
94908KDBQ DBQ20090206033009802/06/09 03:30:31  5-MIN KDBQ 060930Z AUTO 10003KT 7SM M08/M10 A3005 960 84 -1500 100/03 RMK AO2 $
94908KDBQ DBQ20090206042510502/06/09 04:25:31  5-MIN KDBQ 061025Z AUTO 00000KT 5SM BR M11/M13 A3004 970 88 -2000 000/00 RMK AO2 PNO $
94908KDBQ DBQ20090206043010102/06/09 04:30:31  5-MIN KDBQ 061030Z AUTO 12003KT 5SM BR M11/M13 A3004 970 88 -2000 120/03 RMK AO2 $
94908KDBQ DBQ20090206043510102/06/09 04:35:31  5-MIN KDBQ 061035Z AUTO 11004KT 5SM BR M11/M13 A3004 970 84 -2000 110/04 RMK AO2 $
94908KDBQ DBQ20090206044010102/06/09 04:40:31  5-MIN KDBQ 061040Z AUTO 11004KT 6SM HZ M07/M10 A3004 970 81 -1500 110/04 RMK AO2 $
94908KDBQ DBQ20090206044510102/06/09 04:45:31  5-MIN KDBQ 061045Z AUTO 11005KT 6SM BR M08/M09 A3004 970 88 -1500 100/05 RMK AO2 $
94908KDBQ DBQ20090206045012202/06/09 04:50:31  5-MIN KDBQ 061050Z AUTO 10004KT 6SM BR CLR M07/M09 A3004 960 84 -1500 100/04 RMK AO2 SLP189 T10721094 $
94908KDBQ DBQ20090206045510502/06/09 04:55:31  5-MIN KDBQ 061055Z AUTO 10003KT 6SM BR CLR M08/M09 A3004 960 88 -1500 100/03 RMK AO2 $
94908KDBQ DBQ20090206050010502/06/09 05:00:31  5-MIN KDBQ 061100Z AUTO 00000KT 6SM BR CLR M08/M09 A3004 960 88 -1500 000/00 RMK AO2 $
94908KDBQ DBQ20090206050510102/06/09 05:05:31  5-MIN KDBQ 061105Z AUTO 00000KT 6SM BR M08/M10 A3004 960 84 -1500 000/00 RMK AO2 $
94908KDBQ DBQ20090206051010102/06/09 05:10:31  5-MIN KDBQ 061110Z AUTO 12003KT 6SM BR M08/M10 A3004 970 84 -1500 120/03 RMK AO2 $
94908KDBQ DBQ20090206051510102/06/09 05:15:31  5-MIN KDBQ 061115Z AUTO 00000KT 6SM BR M08/M10 A3004 970 84 -1500 000/00 RMK AO2 $
94908KDBQ DBQ20090206052010102/06/09 05:20:31  5-MIN KDBQ 061120Z AUTO 00000KT 6SM BR M07/M09 A3004 970 84 -1500 000/00 RMK AO2 $
94908KDBQ DBQ20090206052510102/06/09 05:25:31  5-MIN KDBQ 061125Z AUTO 00000KT 6SM BR M07/M09 A3004 970 84 -1500 000/00 RMK AO2 $
94908KDBQ DBQ20090206053010102/06/09 05:30:31  5-MIN KDBQ 061130Z AUTO 14003KT 6SM BR M07/M09 A3004 970 84 -1500 130/03 RMK AO2 $
94908KDBQ DBQ20090206053510102/06/09 05:35:31  5-MIN KDBQ 061135Z AUTO 11003KT 6SM BR M07/M09 A3004 970 84 -1500 110/03 RMK AO2 $
94908KDBQ DBQ20090206054009802/06/09 05:40:31  5-MIN KDBQ 061140Z AUTO VRB03KT 7SM M07/M09 A3004 970 84 -1500 VRB/03 RMK AO2 $
94908KDBQ DBQ20090206054509802/06/09 05:45:31  5-MIN KDBQ 061145Z AUTO 10004KT 7SM M07/M09 A3004 970 84 -1500 100/04 RMK AO2 $
94908KDBQ DBQ20090206055013902/06/09 05:50:31  5-MIN KDBQ 061150Z AUTO 11004KT 7SM M07/M09 A3004 970 84 -1500 110/04 RMK AO2 SLP190 7//// T10721094 11067 21117 56010 $
94908KDBQ DBQ20090206055509702/06/09 05:55:31  5-MIN KDBQ 061155Z 12003KT 8SM CLR M07/M09 A3004 970 84 -1500 120/03 RMK AO2 $
94908KDBQ DBQ20090206060009702/06/09 06:00:31  5-MIN KDBQ 061200Z 00000KT 8SM CLR M07/M09 A3004 970 84 -1500 000/00 RMK AO2 $
94908KDBQ DBQ20090206060509702/06/09 06:05:31  5-MIN KDBQ 061205Z 11005KT 8SM CLR M07/M09 A3004 970 84 -1500 110/05 RMK AO2 $
94908KDBQ DBQ20090206061009702/06/09 06:10:31  5-MIN KDBQ 061210Z 12005KT 8SM CLR M07/M09 A3004 970 84 -1500 120/05 RMK AO2 $
94908KDBQ DBQ20090206061509702/06/09 06:15:31  5-MIN KDBQ 061215Z 13005KT 8SM CLR M07/M09 A3003 970 84 -1500 130/05 RMK AO2 $
94908KDBQ DBQ20090206062009702/06/09 06:20:31  5-MIN KDBQ 061220Z 13005KT 8SM CLR M07/M09 A3004 970 81 -1400 130/05 RMK AO2 $
94908KDBQ DBQ20090206062509702/06/09 06:25:31  5-MIN KDBQ 061225Z 13003KT 8SM CLR M07/M09 A3004 970 81 -1400 130/03 RMK AO2 $
94908KDBQ DBQ20090206063009702/06/09 06:30:31  5-MIN KDBQ 061230Z 14003KT 8SM CLR M07/M09 A3004 970 84 -1500 140/03 RMK AO2 $
94908KDBQ DBQ20090206063509702/06/09 06:35:31  5-MIN KDBQ 061235Z 14004KT 8SM CLR M07/M09 A3004 970 84 -1500 140/04 RMK AO2 $
94908KDBQ DBQ20090206064009702/06/09 06:40:31  5-MIN KDBQ 061240Z 13005KT 8SM CLR M08/M09 A3004 970 88 -1500 130/05 RMK AO2 $
94908KDBQ DBQ20090206064510302/06/09 06:45:31  5-MIN KDBQ 061245Z 13006KT 8SM CLR M07/M09 A3003 970 84 -1500 130/06 RMK AO2 P0001 $
94908KDBQ DBQ20090206065012002/06/09 06:50:31  5-MIN KDBQ 061250Z 12004KT 8SM CLR M07/M09 A3004 970 84 -1500 120/04 RMK AO2 SLP190 P0001 T10721094 $
94908KDBQ DBQ20090206065509702/06/09 06:55:31  5-MIN KDBQ 061255Z 13005KT 7SM CLR M07/M09 A3003 980 84 -1500 130/05 RMK AO2 $
94908KDBQ DBQ20090206070009502/06/09 07:00:31  5-MIN KDBQ 061300Z 14006KT 7SM CLR M07/M09 A3003 970 84 -1500 140/06 RMK AO2
94908KDBQ DBQ20090206070509802/06/09 07:05:31  5-MIN KDBQ 061305Z 13004KT 6SM HZ CLR M07/M09 A3003 970 81 -1400 130/04 RMK AO2
94908KDBQ DBQ20090206071009802/06/09 07:10:31  5-MIN KDBQ 061310Z VRB04KT 6SM HZ CLR M07/M09 A3004 970 81 -1400 VRB/04 RMK AO2
94908KDBQ DBQ20090206071509802/06/09 07:15:31  5-MIN KDBQ 061315Z 00000KT 6SM HZ CLR M07/M09 A3004 970 81 -1400 000/00 RMK AO2
94908KDBQ DBQ20090206072009802/06/09 07:20:31  5-MIN KDBQ 061320Z 12003KT 6SM BR CLR M07/M09 A3004 970 84 -1500 120/03 RMK AO2
94908KDBQ DBQ20090206072509802/06/09 07:25:31  5-MIN KDBQ 061325Z 00000KT 6SM HZ CLR M07/M09 A3004 970 81 -1400 000/00 RMK AO2
94908KDBQ DBQ20090206073009802/06/09 07:30:31  5-MIN KDBQ 061330Z 14004KT 6SM HZ CLR M07/M09 A3004 970 81 -1400 140/04 RMK AO2
94908KDBQ DBQ20090206073509802/06/09 07:35:31  5-MIN KDBQ 061335Z 15006KT 6SM BR CLR M07/M09 A3004 970 84 -1400 150/06 RMK AO2
94908KDBQ DBQ20090206074009802/06/09 07:40:31  5-MIN KDBQ 061340Z 15005KT 6SM BR CLR M07/M09 A3004 970 84 -1500 150/05 RMK AO2
94908KDBQ DBQ20090206074509802/06/09 07:45:31  5-MIN KDBQ 061345Z 15005KT 6SM BR CLR M07/M09 A3004 970 84 -1500 150/05 RMK AO2
94908KDBQ DBQ20090206075011502/06/09 07:50:31  5-MIN KDBQ 061350Z 16004KT 6SM BR CLR M07/M09 A3004 970 84 -1500 160/04 RMK AO2 SLP190 T10721094
94908KDBQ DBQ20090206075509502/06/09 07:55:31  5-MIN KDBQ 061355Z 16006KT 8SM CLR M07/M09 A3004 970 84 -1500 150/06 RMK AO2
94908KDBQ DBQ20090206080009502/06/09 08:00:31  5-MIN KDBQ 061400Z 14005KT 8SM CLR M07/M09 A3003 970 84 -1500 140/05 RMK AO2
94908KDBQ DBQ20090206080509502/06/09 08:05:31  5-MIN KDBQ 061405Z 14003KT 8SM CLR M07/M09 A3003 980 84 -1400 140/03 RMK AO2
94908KDBQ DBQ20090206081009502/06/09 08:10:31  5-MIN KDBQ 061410Z 14004KT 8SM CLR M07/M09 A3002 980 84 -1400 130/04 RMK AO2
94908KDBQ DBQ20090206081509502/06/09 08:15:31  5-MIN KDBQ 061415Z 15005KT 8SM CLR M07/M09 A3002 980 81 -1400 140/05 RMK AO2
94908KDBQ DBQ20090206082009502/06/09 08:20:31  5-MIN KDBQ 061420Z 00000KT 8SM CLR M07/M09 A3002 990 84 -1400 000/00 RMK AO2
94908KDBQ DBQ20090206082509502/06/09 08:25:31  5-MIN KDBQ 061425Z 00000KT 8SM CLR M06/M09 A3002 990 81 -1300 000/00 RMK AO2
94908KDBQ DBQ20090206083009702/06/09 08:30:31  5-MIN KDBQ 061430Z VRB04KT 8SM CLR M06/M09 A3001 990 81 -1300 VRB/04 RMK AO2 $
94908KDBQ DBQ20090206083509502/06/09 08:35:31  5-MIN KDBQ 061435Z 15003KT 8SM CLR M06/M08 A3002 990 84 -1300 150/03 RMK AO2
94908KDBQ DBQ20090206084009502/06/09 08:40:31  5-MIN KDBQ 061440Z 15005KT 8SM CLR M06/M08 A3001 990 81 -1200 150/05 RMK AO2
94908KDBQ DBQ20090206084509502/06/09 08:45:31  5-MIN KDBQ 061445Z 14003KT 8SM CLR M06/M08 A3002 990 81 -1200 140/03 RMK AO2
94908KDBQ DBQ20090206085012402/06/09 08:50:31  5-MIN KDBQ 061450Z 15006KT 8SM CLR M06/M08 A3001 990 81 -1200 150/06 RMK AO2 SLP182 60001 T10561083 58003
94908KDBQ DBQ20090206085509502/06/09 08:55:31  5-MIN KDBQ 061455Z 16003KT 7SM CLR M05/M08 A3002 990 77 -1100 160/03 RMK AO2
94908KDBQ DBQ20090206090009502/06/09 09:00:31  5-MIN KDBQ 061500Z VRB04KT 8SM CLR M05/M08 A3001 990 77 -1100 VRB/04 RMK AO2
94908KDBQ DBQ20090206090509502/06/09 09:05:31  5-MIN KDBQ 061505Z 14006KT 8SM CLR M05/M08 A3001 990 77 -1100 140/06 RMK AO2
94908KDBQ DBQ20090206091009502/06/09 09:10:31  5-MIN KDBQ 061510Z 14006KT 8SM CLR M04/M08 A3001 990 74 -1100 140/06 RMK AO2
94908KDBQ DBQ20090206091509702/06/09 09:15:31  5-MIN KDBQ 061515Z 16005KT 8SM CLR M04/M08 A3001 990 78 -1100 150/05 RMK AO2 $
94908KDBQ DBQ20090206092009702/06/09 09:20:31  5-MIN KDBQ 061520Z 15008KT 8SM CLR M04/M08 A3001 990 78 -1100 150/08 RMK AO2 $
94908KDBQ DBQ20090206092509802/06/09 09:25:31  5-MIN KDBQ 061525Z 16008KT 8SM CLR M04/M08 A3001 1000 78 -1100 160/08 RMK AO2 $
94908KDBQ DBQ20090206093009802/06/09 09:30:31  5-MIN KDBQ 061530Z 18006KT 8SM CLR M04/M08 A3001 1000 78 -1100 170/06 RMK AO2 $
94908KDBQ DBQ20090206093509802/06/09 09:35:31  5-MIN KDBQ 061535Z 16007KT 8SM CLR M04/M07 A3001 1000 81 -1100 160/07 RMK AO2 $
94908KDBQ DBQ20090206094009702/06/09 09:40:31  5-MIN KDBQ 061540Z 17007KT 8SM CLR M04/M07 A3001 990 78 -1000 170/07 RMK AO2 $
94908KDBQ DBQ20090206094509702/06/09 09:45:31  5-MIN KDBQ 061545Z 17007KT 9SM CLR M03/M07 A3001 1000 74 -900 170/07 RMK AO2 $
94908KDBQ DBQ20090206095011402/06/09 09:50:31  5-MIN KDBQ 061550Z 18010KT 9SM CLR M03/M07 A3001 1000 78 -900 170/10 RMK AO2 SLP179 T10331067 $
94908KDBQ DBQ20090206095509702/06/09 09:55:31  5-MIN KDBQ 061555Z 17008KT 9SM CLR M03/M07 A3001 1000 74 -900 170/08 RMK AO2 $
94908KDBQ DBQ20090206100009702/06/09 10:00:31  5-MIN KDBQ 061600Z 18007KT 9SM CLR M03/M07 A3001 1000 78 -900 180/07 RMK AO2 $
94908KDBQ DBQ20090206100510302/06/09 10:05:31  5-MIN KDBQ 061605Z 17012G16KT 9SM CLR M03/M07 A3001 1000 78 -900 170/12G16 RMK AO2 $
94908KDBQ DBQ20090206101009702/06/09 10:10:31  5-MIN KDBQ 061610Z 17011KT 9SM CLR M03/M07 A3001 1000 74 -900 160/11 RMK AO2 $
94908KDBQ DBQ20090206101509302/06/09 10:15:31  5-MIN KDBQ 061615Z 16010KT 9SM M03/M07 A3000 1000 74 -900 160/10 RMK AO2 $
94908KDBQ DBQ20090206103508902/06/09 10:35:31  5-MIN KDBQ 061635Z 16008KT M02/M07 A3000 1010 72 -800 160/08 RMK AO2 $
94908KDBQ DBQ20090206104009202/06/09 10:40:31  5-MIN KDBQ 061640Z 16007KT 10SM M02/M06 A3000 1010 78 -800 160/07 RMK AO2
94908KDBQ DBQ20090206104509202/06/09 10:45:31  5-MIN KDBQ 061645Z 16007KT 10SM M02/M06 A2999 1010 75 -700 160/07 RMK AO2
94908KDBQ DBQ20090206105010902/06/09 10:50:31  5-MIN KDBQ 061650Z 16005KT 10SM M01/M05 A2999 1010 75 -600 160/05 RMK AO2 SLP173 T10111050
94908KDBQ DBQ20090206105509202/06/09 10:55:31  5-MIN KDBQ 061655Z 16005KT 10SM M01/M05 A2999 1010 72 -600 160/05 RMK AO2
94908KDBQ DBQ20090206110009202/06/09 11:00:31  5-MIN KDBQ 061700Z 15005KT 10SM M01/M05 A2999 1020 72 -500 150/05 RMK AO2
94908KDBQ DBQ20090206110509502/06/09 11:05:31  5-MIN KDBQ 061705Z 15005KT 10SM CLR 00/M04 A2998 1020 72 -500 150/05 RMK AO2
94908KDBQ DBQ20090206111009502/06/09 11:10:31  5-MIN KDBQ 061710Z 15006KT 10SM CLR 01/M04 A2998 1030 69 -400 150/06 RMK AO2
94908KDBQ DBQ20090206111509502/06/09 11:15:31  5-MIN KDBQ 061715Z 14009KT 10SM CLR 01/M04 A2997 1030 72 -400 140/09 RMK AO2
94908KDBQ DBQ20090206112009502/06/09 11:20:31  5-MIN KDBQ 061720Z 15011KT 10SM CLR 01/M03 A2997 1030 72 -300 150/11 RMK AO2
94908KDBQ DBQ20090206112509502/06/09 11:25:31  5-MIN KDBQ 061725Z 15007KT 10SM CLR 02/M03 A2996 1040 69 -200 150/07 RMK AO2
94908KDBQ DBQ20090206113009502/06/09 11:30:31  5-MIN KDBQ 061730Z 16008KT 10SM CLR 02/M03 A2996 1040 67 -200 160/08 RMK AO2
94908KDBQ DBQ20090206113509502/06/09 11:35:31  5-MIN KDBQ 061735Z 16008KT 10SM CLR 02/M03 A2996 1040 67 -200 160/08 RMK AO2
94908KDBQ DBQ20090206114009502/06/09 11:40:31  5-MIN KDBQ 061740Z 16007KT 10SM CLR 02/M03 A2996 1040 69 -200 160/07 RMK AO2
94908KDBQ DBQ20090206114509502/06/09 11:45:31  5-MIN KDBQ 061745Z 16008KT 10SM CLR 02/M03 A2995 1050 69 -200 160/08 RMK AO2
94908KDBQ DBQ20090206115012402/06/09 11:50:31  5-MIN KDBQ 061750Z 17006KT 10SM CLR 02/M03 A2995 1050 69 -200 170/06 RMK AO2 SLP158 T00221028 10022 21078
94908KDBQ DBQ20090206115509502/06/09 11:55:31  5-MIN KDBQ 061755Z 16007KT 10SM CLR 02/M02 A2995 1050 72 -200 160/07 RMK AO2
94908KDBQ DBQ20090206120009502/06/09 12:00:31  5-MIN KDBQ 061800Z 18007KT 10SM CLR 02/M02 A2995 1050 72 -200 180/07 RMK AO2
94908KDBQ DBQ20090206120509502/06/09 12:05:31  5-MIN KDBQ 061805Z 17008KT 10SM CLR 02/M02 A2994 1060 75 -200 170/08 RMK AO2
94908KDBQ DBQ20090206121009502/06/09 12:10:31  5-MIN KDBQ 061810Z 17009KT 10SM CLR 02/M02 A2994 1060 75 -200 170/09 RMK AO2
94908KDBQ DBQ20090206121509502/06/09 12:15:31  5-MIN KDBQ 061815Z 18009KT 10SM CLR 02/M02 A2994 1060 75 -200 180/09 RMK AO2
94908KDBQ DBQ20090206122009402/06/09 12:20:31  5-MIN KDBQ 061820Z 18011KT 9SM CLR 01/M03 A2994 1060 75 -300 180/11 RMK AO2
94908KDBQ DBQ20090206122509402/06/09 12:25:31  5-MIN KDBQ 061825Z 17010KT 9SM CLR 01/M03 A2994 1060 78 -400 170/10 RMK AO2
94908KDBQ DBQ20090206123009402/06/09 12:30:31  5-MIN KDBQ 061830Z 17010KT 9SM CLR 01/M03 A2993 1070 75 -300 170/10 RMK AO2
94908KDBQ DBQ20090206123509402/06/09 12:35:31  5-MIN KDBQ 061835Z 17010KT 8SM CLR 01/M03 A2993 1070 78 -300 170/10 RMK AO2
94908KDBQ DBQ20090206124009402/06/09 12:40:31  5-MIN KDBQ 061840Z 17010KT 8SM CLR 01/M03 A2994 1060 78 -300 170/10 RMK AO2
94908KDBQ DBQ20090206124509402/06/09 12:45:31  5-MIN KDBQ 061845Z 17008KT 8SM CLR 01/M03 A2993 1070 78 -300 170/08 RMK AO2
94908KDBQ DBQ20090206125011102/06/09 12:50:31  5-MIN KDBQ 061850Z 17007KT 8SM CLR 01/M02 A2992 1070 78 -300 170/07 RMK AO2 SLP148 T00111022
94908KDBQ DBQ20090206125509402/06/09 12:55:31  5-MIN KDBQ 061855Z 17010KT 9SM CLR 01/M03 A2992 1080 75 -300 170/10 RMK AO2
94908KDBQ DBQ20090206130010102/06/09 13:00:31  5-MIN KDBQ 061900Z 17010KT 9SM CLR 01/M03 A2991 1090 75 -300 170/10 RMK AO2 PRESFR
94908KDBQ DBQ20090206130509402/06/09 13:05:31  5-MIN KDBQ 061905Z 17008KT 9SM CLR 01/M02 A2991 1090 78 -200 170/08 RMK AO2
94908KDBQ DBQ20090206131009402/06/09 13:10:31  5-MIN KDBQ 061910Z 17009KT 9SM CLR 01/M02 A2991 1090 78 -200 170/09 RMK AO2
94908KDBQ DBQ20090206131509402/06/09 13:15:31  5-MIN KDBQ 061915Z 16009KT 8SM CLR 02/M02 A2990 1090 75 -200 160/09 RMK AO2
94908KDBQ DBQ20090206132009402/06/09 13:20:31  5-MIN KDBQ 061920Z 16009KT 9SM CLR 02/M02 A2990 1100 75 -200 160/09 RMK AO2
94908KDBQ DBQ20090206132509402/06/09 13:25:31  5-MIN KDBQ 061925Z 16008KT 9SM CLR 02/M02 A2990 1100 75 -200 160/08 RMK AO2
94908KDBQ DBQ20090206133009402/06/09 13:30:31  5-MIN KDBQ 061930Z 16009KT 9SM CLR 02/M02 A2989 1100 75 -200 160/09 RMK AO2
94908KDBQ DBQ20090206133509402/06/09 13:35:31  5-MIN KDBQ 061935Z 16009KT 8SM CLR 02/M02 A2989 1100 75 -200 160/09 RMK AO2
94908KDBQ DBQ20090206134009402/06/09 13:40:31  5-MIN KDBQ 061940Z 16009KT 7SM CLR 02/M02 A2989 1110 75 -200 160/09 RMK AO2
94908KDBQ DBQ20090206134509402/06/09 13:45:31  5-MIN KDBQ 061945Z 16009KT 7SM CLR 02/M02 A2988 1110 78 -200 160/09 RMK AO2
94908KDBQ DBQ20090206135011102/06/09 13:50:31  5-MIN KDBQ 061950Z 16009KT 8SM CLR 02/M02 A2988 1110 78 -100 160/09 RMK AO2 SLP133 T00171017
94908KDBQ DBQ20090206135509402/06/09 13:55:31  5-MIN KDBQ 061955Z 16010KT 8SM CLR 02/M02 A2988 1120 75 -100 160/10 RMK AO2
94908KDBQ DBQ20090206140009402/06/09 14:00:31  5-MIN KDBQ 062000Z 16008KT 8SM CLR 02/M02 A2987 1120 75 -100 160/08 RMK AO2
94908KDBQ DBQ20090206140509402/06/09 14:05:31  5-MIN KDBQ 062005Z 15010KT 7SM CLR 02/M02 A2987 1130 75 -100 150/10 RMK AO2
94908KDBQ DBQ20090206141009402/06/09 14:10:31  5-MIN KDBQ 062010Z 16009KT 7SM CLR 02/M02 A2987 1130 75 -100 160/09 RMK AO2
94908KDBQ DBQ20090206141509102/06/09 14:15:31  5-MIN KDBQ 062015Z 16008KT 7SM CLR 03/M01 A2986 1130 75 0 150/08 RMK AO2
94908KDBQ DBQ20090206142009102/06/09 14:20:31  5-MIN KDBQ 062020Z 15008KT 7SM CLR 03/M01 A2986 1140 75 0 150/08 RMK AO2
94908KDBQ DBQ20090206142509102/06/09 14:25:31  5-MIN KDBQ 062025Z 16010KT 7SM CLR 03/M01 A2986 1140 75 0 150/10 RMK AO2
94908KDBQ DBQ20090206143009102/06/09 14:30:31  5-MIN KDBQ 062030Z 15010KT 7SM CLR 03/M01 A2986 1140 75 0 150/10 RMK AO2
94908KDBQ DBQ20090206143509102/06/09 14:35:31  5-MIN KDBQ 062035Z 16011KT 7SM CLR 03/M01 A2986 1140 75 0 160/11 RMK AO2
94908KDBQ DBQ20090206144009102/06/09 14:40:31  5-MIN KDBQ 062040Z 16009KT 7SM CLR 03/M01 A2986 1140 75 0 160/09 RMK AO2
94908KDBQ DBQ20090206144509102/06/09 14:45:31  5-MIN KDBQ 062045Z 16011KT 7SM CLR 03/M01 A2986 1140 75 0 160/11 RMK AO2
94908KDBQ DBQ20090206145010802/06/09 14:50:31  5-MIN KDBQ 062050Z 16010KT 7SM CLR 03/M01 A2986 1140 75 0 160/10 RMK AO2 SLP124 T00281011
94908KDBQ DBQ20090206145509102/06/09 14:55:31  5-MIN KDBQ 062055Z 16013KT 8SM CLR 03/M01 A2985 1140 75 0 160/13 RMK AO2
94908KDBQ DBQ20090206150009102/06/09 15:00:31  5-MIN KDBQ 062100Z 16013KT 8SM CLR 03/M01 A2985 1140 75 0 160/13 RMK AO2
94908KDBQ DBQ20090206150509102/06/09 15:05:31  5-MIN KDBQ 062105Z 16012KT 8SM CLR 03/M01 A2985 1140 79 0 160/12 RMK AO2
94908KDBQ DBQ20090206151009102/06/09 15:10:31  5-MIN KDBQ 062110Z 16012KT 8SM CLR 03/M01 A2985 1140 79 0 160/12 RMK AO2
94908KDBQ DBQ20090206151509102/06/09 15:15:31  5-MIN KDBQ 062115Z 16012KT 8SM CLR 03/M01 A2985 1150 79 0 160/12 RMK AO2
94908KDBQ DBQ20090206152009102/06/09 15:20:31  5-MIN KDBQ 062120Z 16013KT 8SM CLR 03/M01 A2984 1150 79 0 160/13 RMK AO2
94908KDBQ DBQ20090206152509102/06/09 15:25:31  5-MIN KDBQ 062125Z 16012KT 8SM CLR 03/M01 A2985 1150 79 0 160/12 RMK AO2
94908KDBQ DBQ20090206153009102/06/09 15:30:31  5-MIN KDBQ 062130Z 16012KT 8SM CLR 03/M01 A2984 1150 79 0 160/12 RMK AO2
94908KDBQ DBQ20090206153509102/06/09 15:35:31  5-MIN KDBQ 062135Z 16013KT 8SM CLR 03/M01 A2984 1150 79 0 160/13 RMK AO2
94908KDBQ DBQ20090206154009302/06/09 15:40:31  5-MIN KDBQ 062140Z 16013KT 8SM CLR 03/M01 A2984 1150 76 100 150/13 RMK AO2
94908KDBQ DBQ20090206154509302/06/09 15:45:31  5-MIN KDBQ 062145Z 16012KT 8SM CLR 03/M01 A2984 1160 76 100 150/12 RMK AO2
94908KDBQ DBQ20090206155011002/06/09 15:50:31  5-MIN KDBQ 062150Z 15014KT 8SM CLR 03/M01 A2984 1160 76 100 150/14 RMK AO2 SLP116 T00331006
94908KDBQ DBQ20090206155509302/06/09 15:55:31  5-MIN KDBQ 062155Z 16014KT 7SM CLR 03/M01 A2984 1160 76 100 150/14 RMK AO2
94908KDBQ DBQ20090206160009202/06/09 16:00:31  5-MIN KDBQ 062200Z 15015KT 7SM CLR 03/00 A2983 1160 79 100 150/15 RMK AO2
94908KDBQ DBQ20090206160509202/06/09 16:05:31  5-MIN KDBQ 062205Z 15013KT 7SM CLR 03/00 A2982 1170 79 100 150/13 RMK AO2
94908KDBQ DBQ20090206161009202/06/09 16:10:31  5-MIN KDBQ 062210Z 15013KT 7SM CLR 04/00 A2982 1170 76 100 150/13 RMK AO2
94908KDBQ DBQ20090206161509202/06/09 16:15:31  5-MIN KDBQ 062215Z 15014KT 7SM CLR 04/00 A2982 1170 76 100 150/14 RMK AO2
94908KDBQ DBQ20090206162009802/06/09 16:20:31  5-MIN KDBQ 062220Z 15015G23KT 7SM CLR 04/00 A2982 1170 76 200 150/15G23 RMK AO2
94908KDBQ DBQ20090206162509802/06/09 16:25:31  5-MIN KDBQ 062225Z 15016G23KT 7SM CLR 04/00 A2981 1180 76 200 150/16G23 RMK AO2
94908KDBQ DBQ20090206163009202/06/09 16:30:31  5-MIN KDBQ 062230Z 15014KT 7SM CLR 04/00 A2981 1180 76 200 150/14 RMK AO2
94908KDBQ DBQ20090206163509202/06/09 16:35:31  5-MIN KDBQ 062235Z 15015KT 7SM CLR 04/01 A2981 1180 79 200 150/15 RMK AO2
94908KDBQ DBQ20090206164009202/06/09 16:40:31  5-MIN KDBQ 062240Z 15014KT 7SM CLR 04/01 A2980 1190 76 200 150/14 RMK AO2
94908KDBQ DBQ20090206164509202/06/09 16:45:31  5-MIN KDBQ 062245Z 15015KT 7SM CLR 04/01 A2980 1190 76 200 150/15 RMK AO2
94908KDBQ DBQ20090206165010902/06/09 16:50:31  5-MIN KDBQ 062250Z 15015KT 7SM CLR 04/01 A2979 1200 76 300 150/15 RMK AO2 SLP101 T00440006
94908KDBQ DBQ20090206165509202/06/09 16:55:31  5-MIN KDBQ 062255Z 15014KT 7SM CLR 04/01 A2979 1200 76 300 150/14 RMK AO2
94908KDBQ DBQ20090206170009202/06/09 17:00:31  5-MIN KDBQ 062300Z 15013KT 7SM CLR 04/01 A2978 1200 79 200 150/13 RMK AO2
94908KDBQ DBQ20090206170509202/06/09 17:05:31  5-MIN KDBQ 062305Z 15014KT 7SM CLR 04/01 A2979 1200 79 200 150/14 RMK AO2
94908KDBQ DBQ20090206171009202/06/09 17:10:31  5-MIN KDBQ 062310Z 15015KT 7SM CLR 04/01 A2978 1210 76 300 150/15 RMK AO2
94908KDBQ DBQ20090206171509802/06/09 17:15:31  5-MIN KDBQ 062315Z 15014G20KT 7SM CLR 04/01 A2978 1210 76 300 150/14G20 RMK AO2
94908KDBQ DBQ20090206172009802/06/09 17:20:31  5-MIN KDBQ 062320Z 15012G19KT 8SM CLR 04/01 A2978 1210 76 300 150/12G19 RMK AO2
94908KDBQ DBQ20090206172509202/06/09 17:25:31  5-MIN KDBQ 062325Z 15013KT 8SM CLR 04/01 A2977 1220 76 300 150/13 RMK AO2
94908KDBQ DBQ20090206173009202/06/09 17:30:31  5-MIN KDBQ 062330Z 15012KT 8SM CLR 04/01 A2977 1220 76 300 150/12 RMK AO2
94908KDBQ DBQ20090206173509202/06/09 17:35:31  5-MIN KDBQ 062335Z 15012KT 8SM CLR 04/01 A2977 1220 76 300 150/12 RMK AO2
94908KDBQ DBQ20090206174009202/06/09 17:40:31  5-MIN KDBQ 062340Z 15013KT 8SM CLR 04/01 A2976 1220 76 300 150/13 RMK AO2
94908KDBQ DBQ20090206174509202/06/09 17:45:31  5-MIN KDBQ 062345Z 15015KT 8SM CLR 04/01 A2976 1230 79 300 150/15 RMK AO2
94908KDBQ DBQ20090206175012702/06/09 17:50:31  5-MIN KDBQ 062350Z 15014KT 8SM CLR 04/01 A2976 1220 79 300 150/14 RMK AO2 SLP091 T00440011 10044 20006 56032
94908KDBQ DBQ20090206175509202/06/09 17:55:31  5-MIN KDBQ 062355Z 15013KT 8SM CLR 04/01 A2976 1220 79 300 150/13 RMK AO2
94908KDBQ DBQ20090206180009202/06/09 18:00:31  5-MIN KDBQ 070000Z 16012KT 8SM CLR 04/01 A2977 1220 79 300 150/12 RMK AO2
94908KDBQ DBQ20090206180509202/06/09 18:05:31  5-MIN KDBQ 070005Z 15012KT 8SM CLR 04/01 A2977 1220 79 300 150/12 RMK AO2
94908KDBQ DBQ20090206181009202/06/09 18:10:31  5-MIN KDBQ 070010Z 16012KT 8SM CLR 04/01 A2977 1220 82 200 160/12 RMK AO2
94908KDBQ DBQ20090206181509202/06/09 18:15:31  5-MIN KDBQ 070015Z 16012KT 8SM CLR 04/01 A2977 1220 82 200 160/12 RMK AO2
94908KDBQ DBQ20090206182009202/06/09 18:20:31  5-MIN KDBQ 070020Z 16013KT 8SM CLR 04/01 A2976 1230 82 200 150/13 RMK AO2
94908KDBQ DBQ20090206182509202/06/09 18:25:31  5-MIN KDBQ 070025Z 16014KT 8SM CLR 04/01 A2976 1220 82 200 160/14 RMK AO2
94908KDBQ DBQ20090206183009202/06/09 18:30:31  5-MIN KDBQ 070030Z 16015KT 8SM CLR 04/01 A2975 1230 82 200 150/15 RMK AO2
94908KDBQ DBQ20090206183509902/06/09 18:35:31  5-MIN KDBQ 070035Z 15015KT 8SM CLR 04/01 A2975 1240 79 300 150/15 RMK AO2 PRESFR
94908KDBQ DBQ20090206184009202/06/09 18:40:31  5-MIN KDBQ 070040Z 15017KT 8SM CLR 04/01 A2975 1240 79 300 150/17 RMK AO2
94908KDBQ DBQ20090206184509202/06/09 18:45:31  5-MIN KDBQ 070045Z 16015KT 8SM CLR 04/01 A2975 1240 82 200 160/15 RMK AO2
94908KDBQ DBQ20090206185010902/06/09 18:50:31  5-MIN KDBQ 070050Z 16014KT 8SM CLR 04/01 A2975 1230 82 200 160/14 RMK AO2 SLP088 T00390011
94908KDBQ DBQ20090206185509202/06/09 18:55:31  5-MIN KDBQ 070055Z 16015KT 8SM CLR 04/01 A2975 1240 82 200 160/15 RMK AO2
94908KDBQ DBQ20090206190009202/06/09 19:00:31  5-MIN KDBQ 070100Z 16015KT 7SM CLR 04/01 A2975 1240 82 200 160/15 RMK AO2
94908KDBQ DBQ20090206190509202/06/09 19:05:31  5-MIN KDBQ 070105Z 16016KT 7SM CLR 04/01 A2974 1240 82 200 160/16 RMK AO2
94908KDBQ DBQ20090206191009202/06/09 19:10:31  5-MIN KDBQ 070110Z 16016KT 7SM CLR 04/01 A2974 1250 82 200 160/16 RMK AO2
94908KDBQ DBQ20090206191509202/06/09 19:15:31  5-MIN KDBQ 070115Z 16016KT 7SM CLR 04/01 A2974 1240 82 200 160/16 RMK AO2
94908KDBQ DBQ20090206192009202/06/09 19:20:31  5-MIN KDBQ 070120Z 16017KT 7SM CLR 04/01 A2974 1250 82 200 160/17 RMK AO2
94908KDBQ DBQ20090206192509202/06/09 19:25:31  5-MIN KDBQ 070125Z 16017KT 7SM CLR 04/01 A2973 1250 82 200 160/17 RMK AO2
94908KDBQ DBQ20090206193009202/06/09 19:30:31  5-MIN KDBQ 070130Z 16017KT 7SM CLR 04/01 A2973 1250 82 300 160/17 RMK AO2
94908KDBQ DBQ20090206193509202/06/09 19:35:31  5-MIN KDBQ 070135Z 16016KT 7SM CLR 04/01 A2973 1260 82 300 160/16 RMK AO2
94908KDBQ DBQ20090206194009702/06/09 19:40:31  5-MIN KDBQ 070140Z AUTO 16017KT 7SM CLR 04/01 A2972 1260 82 300 160/17 RMK AO2
94908KDBQ DBQ20090206194509702/06/09 19:45:31  5-MIN KDBQ 070145Z AUTO 16017KT 7SM CLR 04/01 A2972 1260 82 300 160/17 RMK AO2
94908KDBQ DBQ20090206195011402/06/09 19:50:31  5-MIN KDBQ 070150Z AUTO 16017KT 7SM CLR 04/01 A2973 1260 82 300 160/17 RMK AO2 SLP078 T00390011
94908KDBQ DBQ20090206195509702/06/09 19:55:31  5-MIN KDBQ 070155Z AUTO 16018KT 7SM CLR 04/01 A2973 1260 82 300 160/18 RMK AO2
94908KDBQ DBQ20090206200009702/06/09 20:00:31  5-MIN KDBQ 070200Z AUTO 16018KT 7SM CLR 04/01 A2973 1260 82 300 160/18 RMK AO2
94908KDBQ DBQ20090206200509702/06/09 20:05:31  5-MIN KDBQ 070205Z AUTO 16018KT 7SM CLR 04/01 A2972 1260 82 300 160/18 RMK AO2
94908KDBQ DBQ20090206201009702/06/09 20:10:31  5-MIN KDBQ 070210Z AUTO 16017KT 7SM CLR 03/01 A2972 1260 85 200 160/17 RMK AO2
94908KDBQ DBQ20090206201509702/06/09 20:15:31  5-MIN KDBQ 070215Z AUTO 16017KT 7SM CLR 03/01 A2972 1260 85 200 160/17 RMK AO2
94908KDBQ DBQ20090206202009702/06/09 20:20:31  5-MIN KDBQ 070220Z AUTO 16017KT 7SM CLR 03/01 A2972 1260 85 200 160/17 RMK AO2
94908KDBQ DBQ20090206202509702/06/09 20:25:31  5-MIN KDBQ 070225Z AUTO 16015KT 7SM CLR 03/01 A2972 1260 85 200 160/15 RMK AO2
94908KDBQ DBQ20090206203010002/06/09 20:30:31  5-MIN KDBQ 070230Z AUTO 16017KT 6SM BR CLR 03/01 A2972 1270 85 200 160/17 RMK AO2
94908KDBQ DBQ20090206203510002/06/09 20:35:31  5-MIN KDBQ 070235Z AUTO 16016KT 6SM BR CLR 03/01 A2971 1270 85 200 160/16 RMK AO2
94908KDBQ DBQ20090206204010002/06/09 20:40:31  5-MIN KDBQ 070240Z AUTO 16018KT 6SM BR CLR 03/01 A2971 1270 85 200 160/18 RMK AO2
94908KDBQ DBQ20090206204510002/06/09 20:45:31  5-MIN KDBQ 070245Z AUTO 16016KT 6SM BR CLR 03/01 A2971 1270 85 200 160/16 RMK AO2
94908KDBQ DBQ20090206205012302/06/09 20:50:31  5-MIN KDBQ 070250Z AUTO 16016KT 6SM BR CLR 03/01 A2971 1270 85 200 160/16 RMK AO2 SLP073 T00330011 58029
94908KDBQ DBQ20090206205510002/06/09 20:55:31  5-MIN KDBQ 070255Z AUTO 17015KT 6SM BR CLR 03/01 A2971 1270 85 200 160/15 RMK AO2
94908KDBQ DBQ20090206210010002/06/09 21:00:31  5-MIN KDBQ 070300Z AUTO 17015KT 6SM BR CLR 03/01 A2972 1270 85 200 170/15 RMK AO2
94908KDBQ DBQ20090206210510002/06/09 21:05:31  5-MIN KDBQ 070305Z AUTO 17015KT 6SM BR CLR 03/01 A2971 1270 85 200 170/15 RMK AO2
94908KDBQ DBQ20090206211010002/06/09 21:10:31  5-MIN KDBQ 070310Z AUTO 17015KT 6SM BR CLR 03/01 A2972 1270 85 200 170/15 RMK AO2
94908KDBQ DBQ20090206211510002/06/09 21:15:31  5-MIN KDBQ 070315Z AUTO 17015KT 6SM BR CLR 03/01 A2972 1270 85 200 170/15 RMK AO2
94908KDBQ DBQ20090206212009702/06/09 21:20:31  5-MIN KDBQ 070320Z AUTO 17015KT 7SM CLR 03/01 A2971 1270 85 200 170/15 RMK AO2
94908KDBQ DBQ20090206212509702/06/09 21:25:31  5-MIN KDBQ 070325Z AUTO 17015KT 7SM CLR 03/01 A2971 1270 85 200 170/15 RMK AO2
94908KDBQ DBQ20090206213009702/06/09 21:30:31  5-MIN KDBQ 070330Z AUTO 17014KT 7SM CLR 03/01 A2971 1270 85 200 170/14 RMK AO2
94908KDBQ DBQ20090206213510002/06/09 21:35:31  5-MIN KDBQ 070335Z AUTO 17014KT 7SM FEW048 03/01 A2971 1270 85 200 170/14 RMK AO2
94908KDBQ DBQ20090206214010002/06/09 21:40:31  5-MIN KDBQ 070340Z AUTO 17015KT 7SM FEW048 04/01 A2971 1270 82 300 170/15 RMK AO2
94908KDBQ DBQ20090206214509702/06/09 21:45:31  5-MIN KDBQ 070345Z AUTO 18015KT 7SM CLR 04/01 A2971 1280 82 300 170/15 RMK AO2
94908KDBQ DBQ20090206215011402/06/09 21:50:31  5-MIN KDBQ 070350Z AUTO 17017KT 8SM CLR 04/02 A2970 1280 82 400 170/17 RMK AO2 SLP069 T00440017
94908KDBQ DBQ20090206215509702/06/09 21:55:31  5-MIN KDBQ 070355Z AUTO 17018KT 8SM CLR 04/02 A2970 1290 82 400 170/18 RMK AO2
94908KDBQ DBQ20090206220009702/06/09 22:00:31  5-MIN KDBQ 070400Z AUTO 17018KT 8SM CLR 04/02 A2970 1290 82 400 170/18 RMK AO2
94908KDBQ DBQ20090206220509702/06/09 22:05:31  5-MIN KDBQ 070405Z AUTO 17019KT 8SM CLR 04/02 A2969 1290 82 400 170/19 RMK AO2
94908KDBQ DBQ20090206221009702/06/09 22:10:31  5-MIN KDBQ 070410Z AUTO 17019KT 9SM CLR 05/02 A2969 1290 79 400 170/19 RMK AO2
94908KDBQ DBQ20090206221509702/06/09 22:15:31  5-MIN KDBQ 070415Z AUTO 17019KT 9SM CLR 05/02 A2969 1290 79 400 170/19 RMK AO2
94908KDBQ DBQ20090206222009702/06/09 22:20:31  5-MIN KDBQ 070420Z AUTO 17019KT 9SM CLR 05/02 A2969 1290 79 400 170/19 RMK AO2
94908KDBQ DBQ20090206222509702/06/09 22:25:31  5-MIN KDBQ 070425Z AUTO 17019KT 9SM CLR 06/02 A2968 1300 79 500 170/19 RMK AO2
94908KDBQ DBQ20090206223010302/06/09 22:30:31  5-MIN KDBQ 070430Z AUTO 17018G23KT 9SM CLR 05/02 A2968 1300 82 400 170/18G23 RMK AO2
94908KDBQ DBQ20090206223510302/06/09 22:35:31  5-MIN KDBQ 070435Z AUTO 17020G25KT 9SM CLR 05/02 A2968 1300 82 500 170/20G25 RMK AO2
94908KDBQ DBQ20090206224012102/06/09 22:40:31  5-MIN KDBQ 070440Z AUTO 17019G26KT 9SM CLR 05/02 A2967 1310 82 500 170/19G26 RMK AO2 PK WND 18026/0436
94908KDBQ DBQ20090206224512102/06/09 22:45:31  5-MIN KDBQ 070445Z AUTO 17018G26KT 9SM CLR 05/02 A2967 1310 82 500 170/18G26 RMK AO2 PK WND 18026/0436
94908KDBQ DBQ20090206225013202/06/09 22:50:31  5-MIN KDBQ 070450Z AUTO 17019KT 9SM CLR 05/02 A2966 1320 82 500 170/19 RMK AO2 PK WND 18026/0436 SLP054 T00500022
94908KDBQ DBQ20090206225509702/06/09 22:55:31  5-MIN KDBQ 070455Z AUTO 18020KT 9SM CLR 05/02 A2966 1320 82 500 180/20 RMK AO2
94908KDBQ DBQ20090206230009802/06/09 23:00:31  5-MIN KDBQ 070500Z AUTO 18019KT 10SM CLR 06/02 A2966 1320 79 500 180/19 RMK AO2
94908KDBQ DBQ20090206230509802/06/09 23:05:31  5-MIN KDBQ 070505Z AUTO 18019KT 10SM CLR 06/03 A2965 1330 82 500 180/19 RMK AO2
94908KDBQ DBQ20090206231009802/06/09 23:10:31  5-MIN KDBQ 070510Z AUTO 18020KT 10SM CLR 06/03 A2965 1330 82 600 170/20 RMK AO2
94908KDBQ DBQ20090206231509802/06/09 23:15:31  5-MIN KDBQ 070515Z AUTO 18019KT 10SM CLR 06/03 A2965 1330 82 600 170/19 RMK AO2
94908KDBQ DBQ20090206232010402/06/09 23:20:31  5-MIN KDBQ 070520Z AUTO 18021G25KT 10SM CLR 06/03 A2964 1330 82 600 180/21G25 RMK AO2
94908KDBQ DBQ20090206232512202/06/09 23:25:31  5-MIN KDBQ 070525Z AUTO 18021G28KT 10SM CLR 06/03 A2965 1330 82 600 180/21G28 RMK AO2 PK WND 19028/0524
94908KDBQ DBQ20090206233012202/06/09 23:30:31  5-MIN KDBQ 070530Z AUTO 18021G28KT 10SM CLR 06/03 A2964 1340 82 600 180/21G28 RMK AO2 PK WND 18028/0530
94908KDBQ DBQ20090206233512202/06/09 23:35:31  5-MIN KDBQ 070535Z AUTO 18023G31KT 10SM CLR 06/03 A2964 1340 82 600 180/23G31 RMK AO2 PK WND 17031/0533
94908KDBQ DBQ20090206234012202/06/09 23:40:31  5-MIN KDBQ 070540Z AUTO 18023G31KT 10SM CLR 06/03 A2963 1340 82 600 180/23G31 RMK AO2 PK WND 17031/0533
94908KDBQ DBQ20090206234512202/06/09 23:45:31  5-MIN KDBQ 070545Z AUTO 18021G28KT 10SM CLR 06/03 A2964 1340 82 600 180/21G28 RMK AO2 PK WND 17031/0533
94908KDBQ DBQ20090206235016702/06/09 23:50:31  5-MIN KDBQ 070550Z AUTO 18021G28KT 10SM CLR 06/03 A2964 1340 82 600 180/21G28 RMK AO2 PK WND 17031/0533 SLP044 T00610033 10061 20033 400611117 56017
94908KDBQ DBQ20090206235512202/06/09 23:55:31  5-MIN KDBQ 070555Z AUTO 18021G29KT 10SM CLR 06/03 A2964 1340 82 600 180/21G29 RMK AO2 PK WND 18029/0555
94908KDBQ DBQ20090207000012702/07/09 00:00:38  5-MIN KDBQ 070600Z AUTO 18021G29KT 10SM CLR 06/03 A2963 1350 82 600 180/21G29 RMK AO2 PK WND 18029/0555 TSNO
94908KDBQ DBQ20090207000512702/07/09 00:05:31  5-MIN KDBQ 070605Z AUTO 18021G28KT 10SM CLR 06/03 A2963 1350 82 600 180/21G28 RMK AO2 PK WND 18029/0555 TSNO
94908KDBQ DBQ20090207001012702/07/09 00:10:31  5-MIN KDBQ 070610Z AUTO 18019G28KT 10SM CLR 06/03 A2963 1340 85 600 180/19G28 RMK AO2 PK WND 18029/0555 TSNO
94908KDBQ DBQ20090207001512702/07/09 00:15:31  5-MIN KDBQ 070615Z AUTO 19020G28KT 10SM CLR 06/03 A2963 1340 85 600 190/20G28 RMK AO2 PK WND 18029/0555 TSNO
94908KDBQ DBQ20090207002012702/07/09 00:20:31  5-MIN KDBQ 070620Z AUTO 18020G28KT 10SM CLR 06/03 A2964 1340 82 600 180/20G28 RMK AO2 PK WND 18029/0555 TSNO
94908KDBQ DBQ20090207002512102/07/09 00:25:31  5-MIN KDBQ 070625Z AUTO 20017KT 10SM CLR 06/03 A2964 1340 85 600 200/17 RMK AO2 PK WND 18029/0555 TSNO
94908KDBQ DBQ20090207003012602/07/09 00:30:31  5-MIN KDBQ 070630Z AUTO 19020G28KT 9SM CLR 06/03 A2964 1340 85 600 190/20G28 RMK AO2 PK WND 18029/0555 TSNO
94908KDBQ DBQ20090207003512602/07/09 00:35:31  5-MIN KDBQ 070635Z AUTO 19018G28KT 9SM CLR 06/03 A2964 1340 85 600 190/18G28 RMK AO2 PK WND 18029/0555 TSNO
94908KDBQ DBQ20090207004012002/07/09 00:40:31  5-MIN KDBQ 070640Z AUTO 20016KT 9SM CLR 05/03 A2964 1340 89 500 200/16 RMK AO2 PK WND 18029/0555 TSNO
94908KDBQ DBQ20090207004512002/07/09 00:45:31  5-MIN KDBQ 070645Z AUTO 20016KT 9SM CLR 05/03 A2964 1340 89 500 200/16 RMK AO2 PK WND 18029/0555 TSNO
94908KDBQ DBQ20090207005013702/07/09 00:50:31  5-MIN KDBQ 070650Z AUTO 20015KT 8SM CLR 05/03 A2964 1340 89 500 200/15 RMK AO2 PK WND 18029/0555 SLP045 T00500033 TSNO
94908KDBQ DBQ20090207005510202/07/09 00:55:31  5-MIN KDBQ 070655Z AUTO 20016KT 8SM CLR 05/03 A2964 1340 89 500 200/16 RMK AO2 TSNO
94908KDBQ DBQ20090207010010202/07/09 01:00:31  5-MIN KDBQ 070700Z AUTO 20016KT 8SM CLR 05/03 A2964 1340 89 500 200/16 RMK AO2 TSNO
94908KDBQ DBQ20090207010510802/07/09 01:05:31  5-MIN KDBQ 070705Z AUTO 20017KT 8SM CLR 05/03 A2964 1340 89 500 200/17 RMK AO2 P0001 TSNO
94908KDBQ DBQ20090207011010802/07/09 01:10:31  5-MIN KDBQ 070710Z AUTO 20016KT 8SM CLR 04/03 A2964 1340 92 400 200/16 RMK AO2 P0001 TSNO
94908KDBQ DBQ20090207011510802/07/09 01:15:31  5-MIN KDBQ 070715Z AUTO 20016KT 8SM CLR 05/03 A2964 1340 89 500 200/16 RMK AO2 P0001 TSNO
94908KDBQ DBQ20090207012010802/07/09 01:20:31  5-MIN KDBQ 070720Z AUTO 20014KT 8SM CLR 05/03 A2964 1340 89 500 190/14 RMK AO2 P0001 TSNO
94908KDBQ DBQ20090207012510802/07/09 01:25:31  5-MIN KDBQ 070725Z AUTO 20016KT 8SM CLR 05/03 A2964 1340 89 500 200/16 RMK AO2 P0001 TSNO
94908KDBQ DBQ20090207013010802/07/09 01:30:31  5-MIN KDBQ 070730Z AUTO 20015KT 8SM CLR 04/03 A2964 1340 92 400 200/15 RMK AO2 P0001 TSNO
94908KDBQ DBQ20090208003010702/08/09 00:30:31  5-MIN KDBQ 080630Z AUTO 33008KT 6SM BR OVC012 M01/M03 A3023 800 85 -900 330/08 RMK AO2 $
94908KDBQ DBQ20090208003510702/08/09 00:35:31  5-MIN KDBQ 080635Z AUTO 35012KT 6SM BR OVC012 M01/M03 A3023 800 85 -900 350/12 RMK AO2 $
94908KDBQ DBQ20090208004010702/08/09 00:40:31  5-MIN KDBQ 080640Z AUTO 34015KT 6SM HZ OVC012 M01/M04 A3023 790 81 -900 340/15 RMK AO2 $
94908KDBQ DBQ20090208004510502/08/09 00:45:31  5-MIN KDBQ 080645Z AUTO 34013KT 7SM OVC012 M02/M04 A3023 790 85 -1000 340/13 RMK AO2 $
94908KDBQ DBQ20090208005012202/08/09 00:50:31  5-MIN KDBQ 080650Z AUTO 35011KT 7SM OVC012 M02/M04 A3023 790 85 -1000 350/11 RMK AO2 SLP248 T10171039 $
94908KDBQ DBQ20090208005511102/08/09 00:55:31  5-MIN KDBQ 080655Z AUTO 33014G19KT 7SM OVC012 M02/M04 A3024 790 85 -1000 330/14G19 RMK AO2 $
94908KDBQ DBQ20090208010011102/08/09 01:00:31  5-MIN KDBQ 080700Z AUTO 33013G19KT 7SM OVC012 M02/M04 A3024 790 85 -1000 330/13G19 RMK AO2 $
94908KDBQ DBQ20090208010511102/08/09 01:05:31  5-MIN KDBQ 080705Z AUTO 33012G19KT 7SM OVC012 M02/M04 A3024 780 85 -1000 330/12G19 RMK AO2 $
94908KDBQ DBQ20090208011010502/08/09 01:10:31  5-MIN KDBQ 080710Z AUTO 33009KT 7SM OVC012 M02/M04 A3024 780 85 -1000 330/09 RMK AO2 $
94908KDBQ DBQ20090208011510502/08/09 01:15:31  5-MIN KDBQ 080715Z AUTO 32010KT 7SM OVC012 M02/M04 A3025 780 85 -1000 320/10 RMK AO2 $
94908KDBQ DBQ20090208012010502/08/09 01:20:31  5-MIN KDBQ 080720Z AUTO 32009KT 7SM OVC012 M02/M04 A3025 780 85 -1000 320/09 RMK AO2 $
94908KDBQ DBQ20090208012510502/08/09 01:25:31  5-MIN KDBQ 080725Z AUTO 32009KT 7SM OVC012 M02/M04 A3025 770 85 -1000 320/09 RMK AO2 $
94908KDBQ DBQ20090208013010502/08/09 01:30:31  5-MIN KDBQ 080730Z AUTO 33008KT 7SM OVC012 M02/M04 A3025 770 85 -1000 320/08 RMK AO2 $
94908KDBQ DBQ20090208013510502/08/09 01:35:31  5-MIN KDBQ 080735Z AUTO 33008KT 7SM OVC012 M02/M04 A3026 770 85 -1000 330/08 RMK AO2 $
94908KDBQ DBQ20090208014010502/08/09 01:40:31  5-MIN KDBQ 080740Z AUTO 34006KT 7SM OVC012 M02/M04 A3026 770 85 -1000 340/06 RMK AO2 $
94908KDBQ DBQ20090208014510502/08/09 01:45:31  5-MIN KDBQ 080745Z AUTO 32010KT 7SM OVC012 M02/M04 A3026 760 85 -1000 320/10 RMK AO2 $
94908KDBQ DBQ20090208015012102/08/09 01:50:31  5-MIN KDBQ 080750Z AUTO 34006KT 7SM OVC012 M01/M04 A3026 760 81 -900 340/06 RMK AO2 SLP259 T10111039 $
94908KDBQ DBQ20090208015511002/08/09 01:55:31  5-MIN KDBQ 080755Z AUTO 34012KT 7SM OVC012 M01/M04 A3027 760 81 -900 340/12 RMK AO2 P0001 $
94908KDBQ DBQ20090208020011002/08/09 02:00:31  5-MIN KDBQ 080800Z AUTO 34009KT 7SM OVC012 M01/M04 A3027 760 81 -900 340/09 RMK AO2 P0001 $
94908KDBQ DBQ20090208020511002/08/09 02:05:31  5-MIN KDBQ 080805Z AUTO 34009KT 7SM OVC012 M01/M04 A3027 750 81 -900 340/09 RMK AO2 P0001 $
94908KDBQ DBQ20090208021011302/08/09 02:10:31  5-MIN KDBQ 080810Z AUTO 34007KT 6SM HZ OVC012 M01/M04 A3028 750 81 -900 340/07 RMK AO2 P0001 $
94908KDBQ DBQ20090208021511402/08/09 02:15:31  5-MIN KDBQ 080815Z AUTO 33010KT 6SM HZ OVC012 M01/M04 A3028 750 81 -1000 330/10 RMK AO2 P0001 $
94908KDBQ DBQ20090208022011402/08/09 02:20:31  5-MIN KDBQ 080820Z AUTO 34011KT 6SM HZ OVC012 M01/M04 A3028 750 81 -1000 340/11 RMK AO2 P0001 $
94908KDBQ DBQ20090208022511402/08/09 02:25:31  5-MIN KDBQ 080825Z AUTO 34011KT 6SM HZ OVC012 M01/M04 A3028 750 81 -1000 340/11 RMK AO2 P0001 $
94908KDBQ DBQ20090208023011102/08/09 02:30:31  5-MIN KDBQ 080830Z AUTO 34008KT 7SM OVC012 M01/M04 A3029 740 81 -1000 340/08 RMK AO2 P0001 $
94908KDBQ DBQ20090208023511102/08/09 02:35:31  5-MIN KDBQ 080835Z AUTO 32008KT 7SM OVC012 M02/M04 A3029 740 85 -1000 320/08 RMK AO2 P0001 $
94908KDBQ DBQ20090208024011102/08/09 02:40:31  5-MIN KDBQ 080840Z AUTO 34009KT 7SM OVC012 M02/M04 A3029 740 85 -1000 330/09 RMK AO2 P0001 $
94908KDBQ DBQ20090208024511102/08/09 02:45:31  5-MIN KDBQ 080845Z AUTO 35008KT 7SM OVC012 M02/M04 A3029 740 85 -1000 350/08 RMK AO2 P0001 $
94908KDBQ DBQ20090208025014002/08/09 02:50:31  5-MIN KDBQ 080850Z AUTO 36009KT 7SM OVC012 M02/M04 A3029 740 85 -1000 350/09 RMK AO2 SLP268 P0001 60001 T10171039 51034 $
94908KDBQ DBQ20090208025510502/08/09 02:55:31  5-MIN KDBQ 080855Z AUTO 35009KT 7SM OVC012 M02/M04 A3029 740 85 -1000 350/09 RMK AO2 $
94908KDBQ DBQ20090208030010502/08/09 03:00:31  5-MIN KDBQ 080900Z AUTO 34007KT 7SM OVC012 M02/M04 A3029 740 85 -1000 340/07 RMK AO2 $
94908KDBQ DBQ20090208030510502/08/09 03:05:31  5-MIN KDBQ 080905Z AUTO 35008KT 7SM OVC012 M02/M04 A3029 730 85 -1000 350/08 RMK AO2 $
94908KDBQ DBQ20090208031010502/08/09 03:10:31  5-MIN KDBQ 080910Z AUTO 34010KT 7SM OVC012 M02/M04 A3029 740 81 -1000 340/10 RMK AO2 $
94908KDBQ DBQ20090208031510502/08/09 03:15:31  5-MIN KDBQ 080915Z AUTO 33008KT 7SM OVC012 M02/M04 A3029 740 81 -1000 330/08 RMK AO2 $
94908KDBQ DBQ20090208032010502/08/09 03:20:31  5-MIN KDBQ 080920Z AUTO 33009KT 7SM OVC012 M02/M04 A3029 730 81 -1000 330/09 RMK AO2 $
94908KDBQ DBQ20090208032510502/08/09 03:25:31  5-MIN KDBQ 080925Z AUTO 34008KT 7SM OVC012 M02/M04 A3029 740 81 -1000 340/08 RMK AO2 $
94908KDBQ DBQ20090208033010502/08/09 03:30:31  5-MIN KDBQ 080930Z AUTO 35007KT 7SM OVC012 M02/M04 A3029 740 81 -1000 350/07 RMK AO2 $
94908KDBQ DBQ20090208033510802/08/09 03:35:31  5-MIN KDBQ 080935Z AUTO 34008KT 6SM HZ OVC012 M02/M04 A3030 730 81 -1000 340/08 RMK AO2 $
94908KDBQ DBQ20090208034010802/08/09 03:40:31  5-MIN KDBQ 080940Z AUTO 35009KT 6SM HZ OVC012 M02/M04 A3030 730 81 -1000 350/09 RMK AO2 $
94908KDBQ DBQ20090208034510802/08/09 03:45:31  5-MIN KDBQ 080945Z AUTO 36008KT 6SM HZ OVC012 M02/M04 A3030 730 81 -1000 350/08 RMK AO2 $
94908KDBQ DBQ20090208035012502/08/09 03:50:31  5-MIN KDBQ 080950Z AUTO 35006KT 6SM HZ OVC012 M02/M04 A3030 730 81 -1000 350/06 RMK AO2 SLP271 T10171044 $
94908KDBQ DBQ20090208035511402/08/09 03:55:31  5-MIN KDBQ 080955Z AUTO 35005KT 6SM HZ OVC012 M02/M04 A3030 730 81 -1000 350/05 RMK AO2 P0001 $
94908KDBQ DBQ20090208040011402/08/09 04:00:31  5-MIN KDBQ 081000Z AUTO 36009KT 6SM HZ OVC012 M02/M04 A3030 730 81 -1000 360/09 RMK AO2 P0001 $
94908KDBQ DBQ20090208040511402/08/09 04:05:31  5-MIN KDBQ 081005Z AUTO 35006KT 6SM HZ OVC014 M02/M04 A3030 730 81 -1000 350/06 RMK AO2 P0001 $
94908KDBQ DBQ20090208041011402/08/09 04:10:31  5-MIN KDBQ 081010Z AUTO 35007KT 6SM HZ OVC014 M02/M04 A3030 730 81 -1000 350/07 RMK AO2 P0001 $
94908KDBQ DBQ20090208041511402/08/09 04:15:31  5-MIN KDBQ 081015Z AUTO 36008KT 6SM HZ OVC014 M02/M04 A3031 720 81 -1100 360/08 RMK AO2 P0001 $
94908KDBQ DBQ20090208042011402/08/09 04:20:31  5-MIN KDBQ 081020Z AUTO 35007KT 6SM HZ OVC014 M02/M04 A3031 720 81 -1100 350/07 RMK AO2 P0001 $
94908KDBQ DBQ20090208042511402/08/09 04:25:31  5-MIN KDBQ 081025Z AUTO 36007KT 6SM HZ OVC014 M02/M04 A3030 730 81 -1100 350/07 RMK AO2 P0001 $
94908KDBQ DBQ20090208043011402/08/09 04:30:31  5-MIN KDBQ 081030Z AUTO 35007KT 6SM HZ OVC014 M02/M04 A3030 720 81 -1100 350/07 RMK AO2 P0001 $
94908KDBQ DBQ20090208043511402/08/09 04:35:31  5-MIN KDBQ 081035Z AUTO 35007KT 6SM HZ OVC014 M02/M04 A3031 720 81 -1100 350/07 RMK AO2 P0001 $
94908KDBQ DBQ20090208044011402/08/09 04:40:31  5-MIN KDBQ 081040Z AUTO 33007KT 6SM HZ OVC014 M02/M04 A3031 720 81 -1100 330/07 RMK AO2 P0001 $
94908KDBQ DBQ20090208044511402/08/09 04:45:31  5-MIN KDBQ 081045Z AUTO 35006KT 6SM HZ OVC014 M02/M04 A3031 720 81 -1100 340/06 RMK AO2 P0001 $
94908KDBQ DBQ20090208045013102/08/09 04:50:31  5-MIN KDBQ 081050Z AUTO 36004KT 6SM HZ OVC014 M02/M04 A3031 720 81 -1100 360/04 RMK AO2 SLP276 P0001 T10171044 $
94908KDBQ DBQ20090208045510802/08/09 04:55:31  5-MIN KDBQ 081055Z AUTO 35004KT 6SM HZ OVC014 M02/M04 A3031 720 81 -1100 350/04 RMK AO2 $
94908KDBQ DBQ20090208050010802/08/09 05:00:31  5-MIN KDBQ 081100Z AUTO 34005KT 6SM HZ OVC014 M02/M04 A3031 720 81 -1100 340/05 RMK AO2 $
94908KDBQ DBQ20090208050510802/08/09 05:05:31  5-MIN KDBQ 081105Z AUTO 36004KT 5SM HZ OVC014 M02/M04 A3031 720 81 -1100 350/04 RMK AO2 $
94908KDBQ DBQ20090208051010802/08/09 05:10:31  5-MIN KDBQ 081110Z AUTO 34004KT 5SM HZ OVC014 M02/M04 A3031 720 81 -1100 340/04 RMK AO2 $
94908KDBQ DBQ20090208051510802/08/09 05:15:31  5-MIN KDBQ 081115Z AUTO 35005KT 5SM HZ OVC014 M02/M04 A3032 710 81 -1100 350/05 RMK AO2 $
94908KDBQ DBQ20090208052010802/08/09 05:20:31  5-MIN KDBQ 081120Z AUTO 36004KT 5SM HZ OVC014 M02/M04 A3032 710 81 -1100 360/04 RMK AO2 $
94908KDBQ DBQ20090208052510802/08/09 05:25:31  5-MIN KDBQ 081125Z AUTO 33005KT 5SM HZ OVC014 M02/M04 A3032 710 81 -1100 330/05 RMK AO2 $
94908KDBQ DBQ20090208053010802/08/09 05:30:31  5-MIN KDBQ 081130Z AUTO 01005KT 5SM HZ OVC014 M02/M04 A3032 710 81 -1100 010/05 RMK AO2 $
94908KDBQ DBQ20090208053510802/08/09 05:35:31  5-MIN KDBQ 081135Z AUTO 35006KT 5SM HZ OVC014 M02/M04 A3032 710 81 -1100 350/06 RMK AO2 $
94908KDBQ DBQ20090208054011402/08/09 05:40:31  5-MIN KDBQ 081140Z AUTO 35006KT 5SM HZ OVC014 M02/M04 A3032 710 81 -1100 350/06 RMK AO2 P0002 $
94908KDBQ DBQ20090208054511402/08/09 05:45:31  5-MIN KDBQ 081145Z AUTO 01004KT 5SM HZ OVC014 M02/M04 A3032 710 81 -1100 010/04 RMK AO2 P0002 $
94908KDBQ DBQ20090208055016102/08/09 05:50:31  5-MIN KDBQ 081150Z AUTO 34006KT 5SM HZ OVC014 M02/M04 A3032 710 81 -1100 340/06 RMK AO2 SLP279 P0002 60004 70007 T10171044 11011 21017 53022 $
94908KDBQ DBQ20090208055510802/08/09 05:55:31  5-MIN KDBQ 081155Z AUTO 35006KT 5SM HZ OVC014 M02/M04 A3032 710 81 -1100 350/06 RMK AO2 $
94908KDBQ DBQ20090208060010302/08/09 06:00:31  5-MIN KDBQ 081200Z 35006KT 5SM HZ OVC014 M02/M04 A3032 710 81 -1100 350/06 RMK AO2 $
94908KDBQ DBQ20090208060510302/08/09 06:05:31  5-MIN KDBQ 081205Z 01005KT 5SM HZ OVC014 M02/M04 A3032 710 81 -1100 010/05 RMK AO2 $
94908KDBQ DBQ20090208061010302/08/09 06:10:31  5-MIN KDBQ 081210Z 36007KT 5SM HZ OVC014 M02/M04 A3032 710 81 -1100 360/07 RMK AO2 $
94908KDBQ DBQ20090208061510302/08/09 06:15:31  5-MIN KDBQ 081215Z 36006KT 5SM HZ OVC014 M02/M04 A3032 710 81 -1100 360/06 RMK AO2 $
94908KDBQ DBQ20090208062010302/08/09 06:20:31  5-MIN KDBQ 081220Z 36005KT 5SM HZ OVC014 M02/M05 A3033 710 78 -1100 350/05 RMK AO2 $
94908KDBQ DBQ20090208062510302/08/09 06:25:31  5-MIN KDBQ 081225Z 02005KT 5SM HZ OVC014 M02/M05 A3033 700 78 -1100 020/05 RMK AO2 $
94908KDBQ DBQ20090208063010302/08/09 06:30:31  5-MIN KDBQ 081230Z 03005KT 5SM HZ OVC014 M02/M04 A3033 700 81 -1100 020/05 RMK AO2 $
94908KDBQ DBQ20090208063510302/08/09 06:35:31  5-MIN KDBQ 081235Z 02007KT 5SM HZ OVC014 M02/M05 A3033 700 81 -1200 020/07 RMK AO2 $
94908KDBQ DBQ20090208064010302/08/09 06:40:31  5-MIN KDBQ 081240Z 01005KT 5SM HZ OVC012 M02/M05 A3034 690 81 -1200 010/05 RMK AO2 $
94908KDBQ DBQ20090208064510302/08/09 06:45:31  5-MIN KDBQ 081245Z 36003KT 5SM HZ OVC012 M02/M05 A3034 700 81 -1200 350/03 RMK AO2 $
94908KDBQ DBQ20090208065012002/08/09 06:50:31  5-MIN KDBQ 081250Z 03003KT 5SM HZ OVC012 M02/M05 A3034 690 81 -1200 030/03 RMK AO2 SLP286 T10221050 $
94908KDBQ DBQ20090208065510302/08/09 06:55:31  5-MIN KDBQ 081255Z 34003KT 5SM HZ OVC012 M02/M05 A3034 700 78 -1100 340/03 RMK AO2 $
94908KDBQ DBQ20090208070010302/08/09 07:00:31  5-MIN KDBQ 081300Z 01003KT 5SM HZ OVC012 M02/M05 A3034 700 81 -1200 010/03 RMK AO2 $
94908KDBQ DBQ20090208070510302/08/09 07:05:31  5-MIN KDBQ 081305Z 04003KT 5SM HZ OVC012 M02/M05 A3034 690 81 -1200 040/03 RMK AO2 $
94908KDBQ DBQ20090208071010902/08/09 07:10:31  5-MIN KDBQ 081310Z 03003KT 5SM HZ OVC012 M02/M05 A3034 690 81 -1200 030/03 RMK AO2 P0001 $
94908KDBQ DBQ20090208071510902/08/09 07:15:31  5-MIN KDBQ 081315Z 05004KT 4SM HZ OVC012 M02/M05 A3034 690 81 -1200 050/04 RMK AO2 P0001 $
94908KDBQ DBQ20090208072010902/08/09 07:20:31  5-MIN KDBQ 081320Z 00000KT 4SM HZ OVC012 M02/M05 A3034 690 81 -1200 000/00 RMK AO2 P0001 $
94908KDBQ DBQ20090208072510902/08/09 07:25:31  5-MIN KDBQ 081325Z 00000KT 4SM HZ OVC012 M02/M05 A3035 690 81 -1200 000/00 RMK AO2 P0001 $
94908KDBQ DBQ20090208073010902/08/09 07:30:31  5-MIN KDBQ 081330Z 03003KT 4SM HZ OVC012 M02/M05 A3034 690 81 -1200 030/03 RMK AO2 P0001 $
94908KDBQ DBQ20090208073510902/08/09 07:35:31  5-MIN KDBQ 081335Z 00000KT 4SM HZ OVC012 M02/M05 A3034 690 81 -1200 000/00 RMK AO2 P0001 $
94908KDBQ DBQ20090208074010902/08/09 07:40:31  5-MIN KDBQ 081340Z 00000KT 4SM HZ OVC012 M02/M05 A3034 690 81 -1200 000/00 RMK AO2 P0001 $
94908KDBQ DBQ20090208074510902/08/09 07:45:31  5-MIN KDBQ 081345Z 00000KT 4SM HZ OVC012 M02/M05 A3034 690 81 -1200 000/00 RMK AO2 P0001 $
94908KDBQ DBQ20090208075012602/08/09 07:50:31  5-MIN KDBQ 081350Z 00000KT 4SM HZ OVC012 M02/M05 A3035 690 81 -1200 000/00 RMK AO2 SLP289 P0001 T10221050 $
94908KDBQ DBQ20090208075510902/08/09 07:55:31  5-MIN KDBQ 081355Z 00000KT 4SM HZ OVC012 M02/M05 A3035 690 81 -1200 000/00 RMK AO2 P0001 $
94908KDBQ DBQ20090208080010902/08/09 08:00:31  5-MIN KDBQ 081400Z 00000KT 4SM HZ OVC012 M02/M05 A3034 690 81 -1200 000/00 RMK AO2 P0001 $
94908KDBQ DBQ20090208080510902/08/09 08:05:31  5-MIN KDBQ 081405Z 00000KT 4SM HZ OVC012 M02/M05 A3034 690 81 -1200 000/00 RMK AO2 P0001 $
94908KDBQ DBQ20090208081010902/08/09 08:10:31  5-MIN KDBQ 081410Z 22003KT 4SM HZ OVC010 M02/M05 A3035 690 81 -1200 220/03 RMK AO2 P0001 $
94908KDBQ DBQ20090208081510902/08/09 08:15:31  5-MIN KDBQ 081415Z 00000KT 4SM HZ OVC010 M02/M05 A3035 690 81 -1200 000/00 RMK AO2 P0001 $
94908KDBQ DBQ20090208082010902/08/09 08:20:31  5-MIN KDBQ 081420Z 00000KT 4SM HZ OVC010 M02/M05 A3035 680 81 -1200 000/00 RMK AO2 P0001 $
94908KDBQ DBQ20090208082510902/08/09 08:25:31  5-MIN KDBQ 081425Z 00000KT 4SM HZ OVC010 M02/M05 A3035 680 81 -1200 000/00 RMK AO2 P0001 $
94908KDBQ DBQ20090208083010902/08/09 08:30:31  5-MIN KDBQ 081430Z 00000KT 4SM HZ OVC010 M02/M05 A3035 680 81 -1200 000/00 RMK AO2 P0001 $
94908KDBQ DBQ20090208083510902/08/09 08:35:31  5-MIN KDBQ 081435Z 08003KT 4SM HZ OVC010 M02/M05 A3035 680 81 -1200 080/03 RMK AO2 P0001 $
94908KDBQ DBQ20090208084010902/08/09 08:40:31  5-MIN KDBQ 081440Z 00000KT 4SM HZ OVC010 M02/M05 A3035 680 81 -1200 000/00 RMK AO2 P0001 $
94908KDBQ DBQ20090208084510902/08/09 08:45:31  5-MIN KDBQ 081445Z 13003KT 4SM HZ OVC010 M02/M05 A3035 680 81 -1200 130/03 RMK AO2 P0001 $
94908KDBQ DBQ20090208085013802/08/09 08:50:31  5-MIN KDBQ 081450Z 10003KT 3SM HZ OVC010 M02/M05 A3035 680 81 -1200 100/03 RMK AO2 SLP292 P0001 60002 T10221050 51010 $
94908KDBQ DBQ20090208085510302/08/09 08:55:31  5-MIN KDBQ 081455Z 00000KT 3SM HZ OVC010 M02/M05 A3035 680 81 -1200 000/00 RMK AO2 $
94908KDBQ DBQ20090208090010302/08/09 09:00:31  5-MIN KDBQ 081500Z 00000KT 3SM HZ OVC010 M02/M05 A3035 680 81 -1200 000/00 RMK AO2 $
94908KDBQ DBQ20090208090510302/08/09 09:05:31  5-MIN KDBQ 081505Z 00000KT 3SM HZ OVC010 M02/M04 A3035 680 81 -1100 000/00 RMK AO2 $
94908KDBQ DBQ20090208091010302/08/09 09:10:31  5-MIN KDBQ 081510Z 00000KT 4SM HZ OVC010 M02/M04 A3035 680 81 -1100 000/00 RMK AO2 $
94908KDBQ DBQ20090208091510302/08/09 09:15:31  5-MIN KDBQ 081515Z 00000KT 4SM HZ OVC010 M02/M04 A3036 670 81 -1100 000/00 RMK AO2 $
94908KDBQ DBQ20090208092010302/08/09 09:20:31  5-MIN KDBQ 081520Z 00000KT 4SM HZ OVC010 M02/M04 A3036 680 81 -1100 000/00 RMK AO2 $
94908KDBQ DBQ20090208092510302/08/09 09:25:31  5-MIN KDBQ 081525Z 00000KT 4SM BR OVC010 M02/M04 A3036 680 85 -1200 000/00 RMK AO2 $
94908KDBQ DBQ20090208093010302/08/09 09:30:31  5-MIN KDBQ 081530Z 00000KT 4SM HZ OVC010 M02/M04 A3036 680 81 -1100 000/00 RMK AO2 $
94908KDBQ DBQ20090208093510302/08/09 09:35:31  5-MIN KDBQ 081535Z 22003KT 3SM BR OVC010 M02/M04 A3036 680 85 -1200 220/03 RMK AO2 $
94908KDBQ DBQ20090208094010302/08/09 09:40:31  5-MIN KDBQ 081540Z 00000KT 3SM BR OVC010 M02/M04 A3036 680 85 -1200 000/00 RMK AO2 $
94908KDBQ DBQ20090208094510902/08/09 09:45:31  5-MIN KDBQ 081545Z 23004KT 3SM BR OVC010 M02/M04 A3036 670 85 -1200 230/04 RMK AO2 P0001 $
94908KDBQ DBQ20090208095012602/08/09 09:50:31  5-MIN KDBQ 081550Z 25003KT 3SM HZ OVC010 M02/M04 A3036 670 81 -1100 250/03 RMK AO2 SLP295 P0001 T10171044 $
94908KDBQ DBQ20090208095510302/08/09 09:55:31  5-MIN KDBQ 081555Z 25004KT 3SM HZ OVC010 M02/M04 A3036 670 81 -1100 250/04 RMK AO2 $
94908KDBQ DBQ20090208100010302/08/09 10:00:31  5-MIN KDBQ 081600Z VRB03KT 3SM HZ OVC010 M02/M04 A3036 670 81 -1100 VRB/03 RMK AO2 $
94908KDBQ DBQ20090208100510302/08/09 10:05:31  5-MIN KDBQ 081605Z 17003KT 3SM BR OVC010 M02/M04 A3037 670 85 -1200 170/03 RMK AO2 $
94908KDBQ DBQ20090208101010302/08/09 10:10:31  5-MIN KDBQ 081610Z 22004KT 3SM HZ OVC010 M02/M04 A3037 670 81 -1100 220/04 RMK AO2 $
94908KDBQ DBQ20090208101510302/08/09 10:15:31  5-MIN KDBQ 081615Z 24003KT 3SM BR OVC010 M02/M04 A3037 670 85 -1200 240/03 RMK AO2 $
94908KDBQ DBQ20090208102010302/08/09 10:20:31  5-MIN KDBQ 081620Z 21006KT 3SM HZ OVC010 M02/M04 A3037 670 81 -1100 210/06 RMK AO2 $
94908KDBQ DBQ20090208102510302/08/09 10:25:31  5-MIN KDBQ 081625Z 23004KT 3SM BR OVC010 M02/M04 A3037 670 85 -1100 230/04 RMK AO2 $
94908KDBQ DBQ20090208103010302/08/09 10:30:31  5-MIN KDBQ 081630Z 18004KT 3SM BR OVC010 M02/M04 A3037 670 85 -1100 180/04 RMK AO2 $
94908KDBQ DBQ20090208103510302/08/09 10:35:31  5-MIN KDBQ 081635Z 17004KT 4SM BR OVC010 M02/M04 A3037 670 85 -1100 170/04 RMK AO2 $
94908KDBQ DBQ20090208104010302/08/09 10:40:31  5-MIN KDBQ 081640Z 19004KT 4SM BR OVC010 M02/M04 A3037 670 85 -1100 190/04 RMK AO2 $
94908KDBQ DBQ20090208104510302/08/09 10:45:31  5-MIN KDBQ 081645Z 17003KT 4SM BR BKN010 M02/M04 A3037 660 85 -1100 170/03 RMK AO2 $
94908KDBQ DBQ20090208105012002/08/09 10:50:31  5-MIN KDBQ 081650Z VRB03KT 4SM HZ BKN010 M01/M04 A3037 660 81 -1100 VRB/03 RMK AO2 SLP299 T10111039 $
94908KDBQ DBQ20090208105510302/08/09 10:55:31  5-MIN KDBQ 081655Z 00000KT 4SM HZ BKN010 M01/M04 A3037 660 81 -1100 000/00 RMK AO2 $
94908KDBQ DBQ20090208110010302/08/09 11:00:31  5-MIN KDBQ 081700Z 17004KT 4SM HZ BKN010 M01/M04 A3037 660 81 -1100 170/04 RMK AO2 $
94908KDBQ DBQ20090208110510302/08/09 11:05:31  5-MIN KDBQ 081705Z 17003KT 4SM HZ BKN010 M01/M04 A3037 660 81 -1100 170/03 RMK AO2 $
94908KDBQ DBQ20090208111010302/08/09 11:10:31  5-MIN KDBQ 081710Z 19004KT 4SM HZ SCT010 M01/M04 A3038 660 81 -1100 190/04 RMK AO2 $
94908KDBQ DBQ20090208111510302/08/09 11:15:31  5-MIN KDBQ 081715Z 18005KT 4SM HZ SCT010 M01/M03 A3037 660 81 -1000 180/05 RMK AO2 $
94908KDBQ DBQ20090208112010302/08/09 11:20:31  5-MIN KDBQ 081720Z 19006KT 4SM HZ SCT010 M01/M03 A3037 660 81 -1000 190/06 RMK AO2 $
94908KDBQ DBQ20090208112510902/08/09 11:25:31  5-MIN KDBQ 081725Z 19006KT 4SM HZ SCT010 M01/M03 A3037 660 81 -1000 190/06 RMK AO2 P0001 $
94908KDBQ DBQ20090208113010902/08/09 11:30:31  5-MIN KDBQ 081730Z 18006KT 4SM HZ SCT010 M01/M03 A3037 660 81 -1000 180/06 RMK AO2 P0001 $
94908KDBQ DBQ20090208113510902/08/09 11:35:31  5-MIN KDBQ 081735Z 21006KT 4SM HZ SCT010 M01/M03 A3037 660 81 -1000 210/06 RMK AO2 P0001 $
94908KDBQ DBQ20090208114010702/08/09 11:40:31  5-MIN KDBQ 081740Z 17006KT 4SM HZ SCT010 00/M03 A3037 670 78 -900 170/06 RMK AO2 P0001 $
94908KDBQ DBQ20090208114510902/08/09 11:45:31  5-MIN KDBQ 081745Z 18005KT 4SM HZ FEW010 M01/M03 A3037 670 81 -1000 180/05 RMK AO2 P0001 $
94908KDBQ DBQ20090208115014802/08/09 11:50:31  5-MIN KDBQ 081750Z 22005KT 4SM HZ FEW012 00/M03 A3036 670 81 -900 220/05 RMK AO2 SLP296 P0001 60004 T00001028 10000 21022 51010 $
94908KDBQ DBQ20090208115510102/08/09 11:55:31  5-MIN KDBQ 081755Z 20004KT 4SM HZ FEW012 00/M03 A3036 670 78 -900 200/04 RMK AO2 $
94908KDBQ DBQ20090208120010702/08/09 12:00:31  5-MIN KDBQ 081800Z 20005KT 4SM HZ FEW012 00/M03 A3036 680 81 -900 200/05 RMK AO2 P0001 $
94908KDBQ DBQ20090208120510702/08/09 12:05:31  5-MIN KDBQ 081805Z 21006KT 4SM HZ FEW012 00/M03 A3036 680 78 -900 210/06 RMK AO2 P0001 $
94908KDBQ DBQ20090208121010702/08/09 12:10:31  5-MIN KDBQ 081810Z 21004KT 4SM HZ FEW012 01/M03 A3035 680 78 -800 210/04 RMK AO2 P0001 $
94908KDBQ DBQ20090208121510702/08/09 12:15:31  5-MIN KDBQ 081815Z 20004KT 5SM HZ FEW012 01/M03 A3035 680 78 -800 200/04 RMK AO2 P0001 $
94908KDBQ DBQ20090208122010702/08/09 12:20:31  5-MIN KDBQ 081820Z 22006KT 4SM HZ FEW012 01/M03 A3035 680 78 -800 220/06 RMK AO2 P0001 $
94908KDBQ DBQ20090208122510702/08/09 12:25:31  5-MIN KDBQ 081825Z 21005KT 5SM HZ FEW012 01/M03 A3035 690 78 -800 210/05 RMK AO2 P0001 $
94908KDBQ DBQ20090208123010402/08/09 12:30:31  5-MIN KDBQ 081830Z 20005KT 5SM HZ CLR 01/M03 A3034 690 78 -800 200/05 RMK AO2 P0001 $
94908KDBQ DBQ20090208123510402/08/09 12:35:31  5-MIN KDBQ 081835Z 21005KT 5SM HZ CLR 01/M03 A3034 690 78 -800 210/05 RMK AO2 P0001 $
94908KDBQ DBQ20090208124010402/08/09 12:40:31  5-MIN KDBQ 081840Z 22005KT 5SM HZ CLR 01/M03 A3034 700 75 -700 220/05 RMK AO2 P0001 $
94908KDBQ DBQ20090208124510402/08/09 12:45:31  5-MIN KDBQ 081845Z 21005KT 5SM HZ CLR 01/M03 A3033 700 75 -700 210/05 RMK AO2 P0001 $
94908KDBQ DBQ20090208125012102/08/09 12:50:31  5-MIN KDBQ 081850Z 19004KT 5SM HZ CLR 01/M03 A3033 700 78 -800 190/04 RMK AO2 SLP285 P0001 T00061028 $
94908KDBQ DBQ20090208125509802/08/09 12:55:31  5-MIN KDBQ 081855Z 20003KT 5SM HZ CLR 01/M03 A3033 700 78 -800 200/03 RMK AO2 $
94908KDBQ DBQ20090208130010202/08/09 13:00:31  5-MIN KDBQ 081900Z 20005KT 5SM HZ CLR 01/M03 A3033 710 78 -800 200/05 RMK AO2 PNO $
94908KDBQ DBQ20090208130509802/08/09 13:05:31  5-MIN KDBQ 081905Z 21005KT 5SM HZ CLR 01/M03 A3033 700 75 -700 210/05 RMK AO2 $
94908KDBQ DBQ20090208131009802/08/09 13:10:31  5-MIN KDBQ 081910Z 20007KT 5SM HZ CLR 01/M03 A3033 710 75 -700 200/07 RMK AO2 $
94908KDBQ DBQ20090208131509802/08/09 13:15:31  5-MIN KDBQ 081915Z 22007KT 5SM HZ CLR 01/M02 A3033 710 78 -700 220/07 RMK AO2 $
94908KDBQ DBQ20090208132009802/08/09 13:20:31  5-MIN KDBQ 081920Z 22005KT 5SM HZ CLR 01/M03 A3032 710 75 -700 220/05 RMK AO2 $
94908KDBQ DBQ20090208132509802/08/09 13:25:31  5-MIN KDBQ 081925Z 19005KT 5SM HZ CLR 01/M03 A3032 710 75 -700 190/05 RMK AO2 $
94908KDBQ DBQ20090208133009802/08/09 13:30:31  5-MIN KDBQ 081930Z 18006KT 5SM HZ CLR 02/M02 A3032 710 75 -600 180/06 RMK AO2 $
94908KDBQ DBQ20090208133509802/08/09 13:35:31  5-MIN KDBQ 081935Z 21004KT 5SM HZ CLR 01/M03 A3031 720 75 -700 210/04 RMK AO2 $
94908KDBQ DBQ20090208134009802/08/09 13:40:31  5-MIN KDBQ 081940Z 20004KT 5SM HZ CLR 02/M03 A3031 720 72 -600 200/04 RMK AO2 $
94908KDBQ DBQ20090208134509802/08/09 13:45:31  5-MIN KDBQ 081945Z 21005KT 5SM HZ CLR 02/M02 A3031 720 75 -600 200/05 RMK AO2 $
94908KDBQ DBQ20090208135011502/08/09 13:50:31  5-MIN KDBQ 081950Z 19006KT 5SM HZ CLR 02/M02 A3031 720 75 -600 190/06 RMK AO2 SLP277 T00171022 $
94908KDBQ DBQ20090208135509802/08/09 13:55:31  5-MIN KDBQ 081955Z 20007KT 5SM HZ CLR 02/M02 A3031 720 75 -600 200/07 RMK AO2 $
94908KDBQ DBQ20090208140009802/08/09 14:00:31  5-MIN KDBQ 082000Z 21008KT 5SM HZ CLR 02/M02 A3031 720 75 -600 200/08 RMK AO2 $
94908KDBQ DBQ20090208140509802/08/09 14:05:31  5-MIN KDBQ 082005Z 19008KT 5SM HZ CLR 02/M02 A3031 720 75 -600 190/08 RMK AO2 $
94908KDBQ DBQ20090208141009802/08/09 14:10:31  5-MIN KDBQ 082010Z 21008KT 5SM HZ CLR 02/M02 A3031 720 75 -600 200/08 RMK AO2 $
94908KDBQ DBQ20090208141509802/08/09 14:15:31  5-MIN KDBQ 082015Z 21008KT 5SM HZ CLR 02/M02 A3031 720 75 -600 210/08 RMK AO2 $
94908KDBQ DBQ20090208142009802/08/09 14:20:31  5-MIN KDBQ 082020Z 20008KT 5SM HZ CLR 01/M02 A3030 720 78 -700 200/08 RMK AO2 $
94908KDBQ DBQ20090208142509802/08/09 14:25:31  5-MIN KDBQ 082025Z 20009KT 5SM HZ CLR 02/M02 A3031 720 75 -600 200/09 RMK AO2 $
94908KDBQ DBQ20090208143009802/08/09 14:30:31  5-MIN KDBQ 082030Z 21009KT 5SM HZ CLR 02/M02 A3030 730 75 -600 210/09 RMK AO2 $
94908KDBQ DBQ20090208143509802/08/09 14:35:31  5-MIN KDBQ 082035Z 22008KT 5SM HZ CLR 01/M02 A3030 730 78 -700 210/08 RMK AO2 $
94908KDBQ DBQ20090208144009802/08/09 14:40:31  5-MIN KDBQ 082040Z 20008KT 5SM HZ CLR 01/M02 A3030 730 78 -700 200/08 RMK AO2 $
94908KDBQ DBQ20090208144509802/08/09 14:45:31  5-MIN KDBQ 082045Z 19008KT 5SM HZ CLR 01/M02 A3030 730 78 -700 190/08 RMK AO2 $
94908KDBQ DBQ20090208145013302/08/09 14:50:31  5-MIN KDBQ 082050Z 20008KT 5SM HZ CLR 01/M02 A3030 730 78 -700 200/08 RMK AO2 SLP272 P0001 60002 T00111022 50003 $
94908KDBQ DBQ20090208145509802/08/09 14:55:31  5-MIN KDBQ 082055Z 18006KT 5SM HZ CLR 01/M02 A3030 730 78 -700 180/06 RMK AO2 $
94908KDBQ DBQ20090208150009802/08/09 15:00:31  5-MIN KDBQ 082100Z 20007KT 5SM HZ CLR 01/M02 A3029 730 78 -700 200/07 RMK AO2 $
94908KDBQ DBQ20090208150509802/08/09 15:05:31  5-MIN KDBQ 082105Z 19006KT 5SM HZ CLR 01/M02 A3029 740 78 -700 190/06 RMK AO2 $
94908KDBQ DBQ20090208151009802/08/09 15:10:31  5-MIN KDBQ 082110Z 21006KT 5SM HZ CLR 01/M03 A3030 730 78 -800 210/06 RMK AO2 $
94908KDBQ DBQ20090208151509802/08/09 15:15:31  5-MIN KDBQ 082115Z 20004KT 5SM HZ CLR 01/M02 A3030 730 78 -700 200/04 RMK AO2 $
94908KDBQ DBQ20090208152009802/08/09 15:20:31  5-MIN KDBQ 082120Z 22004KT 5SM HZ CLR 01/M02 A3030 730 78 -700 220/04 RMK AO2 $
94908KDBQ DBQ20090208152509802/08/09 15:25:31  5-MIN KDBQ 082125Z 19004KT 5SM HZ CLR 01/M02 A3030 730 78 -700 190/04 RMK AO2 $
94908KDBQ DBQ20090208153009802/08/09 15:30:31  5-MIN KDBQ 082130Z 20005KT 5SM HZ CLR 01/M02 A3030 730 78 -700 200/05 RMK AO2 $
94908KDBQ DBQ20090208153509802/08/09 15:35:31  5-MIN KDBQ 082135Z 21005KT 5SM HZ CLR 01/M02 A3031 720 78 -700 210/05 RMK AO2 $
94908KDBQ DBQ20090208154009802/08/09 15:40:31  5-MIN KDBQ 082140Z 21004KT 5SM HZ CLR 01/M02 A3031 720 78 -700 210/04 RMK AO2 $
94908KDBQ DBQ20090208154509802/08/09 15:45:31  5-MIN KDBQ 082145Z 22005KT 5SM HZ CLR 01/M02 A3031 720 78 -700 220/05 RMK AO2 $
94908KDBQ DBQ20090208155011502/08/09 15:50:31  5-MIN KDBQ 082150Z 23004KT 5SM HZ CLR 01/M02 A3030 730 78 -700 230/04 RMK AO2 SLP274 T00111022 $
94908KDBQ DBQ20090208155509802/08/09 15:55:31  5-MIN KDBQ 082155Z 19004KT 5SM HZ CLR 01/M02 A3030 730 78 -700 180/04 RMK AO2 $
94908KDBQ DBQ20090208160009802/08/09 16:00:31  5-MIN KDBQ 082200Z 00000KT 5SM HZ CLR 01/M02 A3030 730 78 -700 000/00 RMK AO2 $
94908KDBQ DBQ20090208160509802/08/09 16:05:31  5-MIN KDBQ 082205Z 16004KT 5SM HZ CLR 01/M02 A3030 730 78 -700 160/04 RMK AO2 $
94908KDBQ DBQ20090208161009802/08/09 16:10:31  5-MIN KDBQ 082210Z 00000KT 5SM HZ CLR 01/M02 A3029 740 78 -700 000/00 RMK AO2 $
94908KDBQ DBQ20090208161509802/08/09 16:15:31  5-MIN KDBQ 082215Z 16004KT 5SM HZ CLR 01/M02 A3029 730 78 -700 160/04 RMK AO2 $
94908KDBQ DBQ20090208162009802/08/09 16:20:31  5-MIN KDBQ 082220Z 17005KT 5SM HZ CLR 01/M02 A3029 740 78 -700 170/05 RMK AO2 $
94908KDBQ DBQ20090208162509802/08/09 16:25:31  5-MIN KDBQ 082225Z 17004KT 5SM HZ CLR 01/M02 A3029 740 82 -800 170/04 RMK AO2 $
94908KDBQ DBQ20090208163009802/08/09 16:30:31  5-MIN KDBQ 082230Z 17005KT 5SM HZ CLR 01/M03 A3029 740 78 -800 170/05 RMK AO2 $
94908KDBQ DBQ20090208163509802/08/09 16:35:31  5-MIN KDBQ 082235Z 18004KT 4SM HZ CLR 01/M03 A3029 740 78 -800 180/04 RMK AO2 $
94908KDBQ DBQ20090208164009802/08/09 16:40:31  5-MIN KDBQ 082240Z 17005KT 4SM HZ CLR 01/M02 A3029 740 82 -800 170/05 RMK AO2 $
94908KDBQ DBQ20090208164509802/08/09 16:45:31  5-MIN KDBQ 082245Z 17005KT 4SM HZ CLR 01/M03 A3029 740 78 -800 170/05 RMK AO2 $
94908KDBQ DBQ20090208165011502/08/09 16:50:31  5-MIN KDBQ 082250Z 16006KT 4SM BR CLR 00/M02 A3029 740 85 -800 160/06 RMK AO2 SLP271 T00001022 $
94908KDBQ DBQ20090208165509802/08/09 16:55:31  5-MIN KDBQ 082255Z 17006KT 4SM BR CLR 00/M02 A3029 730 85 -800 170/06 RMK AO2 $
94908KDBQ DBQ20090208170009902/08/09 17:00:31  5-MIN KDBQ 082300Z 16006KT 4SM BR CLR M01/M03 A3029 740 85 -900 160/06 RMK AO2 $
94908KDBQ DBQ20090208170509902/08/09 17:05:31  5-MIN KDBQ 082305Z 16006KT 4SM BR CLR M01/M03 A3029 740 85 -900 160/06 RMK AO2 $
94908KDBQ DBQ20090208171009902/08/09 17:10:31  5-MIN KDBQ 082310Z 17008KT 4SM BR CLR M01/M03 A3029 740 85 -900 170/08 RMK AO2 $
94908KDBQ DBQ20090208171509902/08/09 17:15:31  5-MIN KDBQ 082315Z 16007KT 4SM BR CLR M01/M03 A3029 740 85 -900 150/07 RMK AO2 $
94908KDBQ DBQ20090208172010002/08/09 17:20:31  5-MIN KDBQ 082320Z 15006KT 4SM BR CLR M01/M03 A3029 740 88 -1000 150/06 RMK AO2 $
94908KDBQ DBQ20090208172510002/08/09 17:25:31  5-MIN KDBQ 082325Z 15006KT 4SM BR CLR M01/M03 A3029 740 88 -1000 150/06 RMK AO2 $
94908KDBQ DBQ20090208173010002/08/09 17:30:31  5-MIN KDBQ 082330Z 15005KT 4SM BR CLR M01/M03 A3029 740 88 -1000 150/05 RMK AO2 $
94908KDBQ DBQ20090208173510002/08/09 17:35:31  5-MIN KDBQ 082335Z 15005KT 4SM BR CLR M01/M03 A3029 740 88 -1000 150/05 RMK AO2 $
94908KDBQ DBQ20090208174010002/08/09 17:40:31  5-MIN KDBQ 082340Z 15005KT 4SM BR CLR M01/M03 A3029 740 88 -1000 150/05 RMK AO2 $
94908KDBQ DBQ20090208174510002/08/09 17:45:31  5-MIN KDBQ 082345Z 16005KT 5SM BR CLR M02/M03 A3029 740 92 -1000 160/05 RMK AO2 $
94908KDBQ DBQ20090208175014102/08/09 17:50:31  5-MIN KDBQ 082350Z 16006KT 5SM BR CLR M02/M03 A3029 740 92 -1000 160/06 RMK AO2 SLP271 60002 T10171028 10017 21017 56022 $
94908KDBQ DBQ20090208175510002/08/09 17:55:31  5-MIN KDBQ 082355Z 16006KT 5SM BR CLR M02/M03 A3029 740 88 -1000 160/06 RMK AO2 $
94908KDBQ DBQ20090208180010002/08/09 18:00:31  5-MIN KDBQ 090000Z 17006KT 5SM BR CLR M02/M03 A3029 740 88 -1000 170/06 RMK AO2 $
94908KDBQ DBQ20090208180510002/08/09 18:05:31  5-MIN KDBQ 090005Z 17006KT 4SM BR CLR M02/M03 A3029 740 88 -1000 170/06 RMK AO2 $
94908KDBQ DBQ20090208181010002/08/09 18:10:31  5-MIN KDBQ 090010Z 17006KT 4SM BR CLR M02/M03 A3029 740 88 -1000 170/06 RMK AO2 $
94908KDBQ DBQ20090208181510002/08/09 18:15:31  5-MIN KDBQ 090015Z 17006KT 4SM BR CLR M02/M03 A3029 740 88 -1000 170/06 RMK AO2 $
94908KDBQ DBQ20090208182010002/08/09 18:20:31  5-MIN KDBQ 090020Z 17006KT 4SM BR CLR M02/M03 A3029 740 92 -1100 170/06 RMK AO2 $
94908KDBQ DBQ20090208182510002/08/09 18:25:31  5-MIN KDBQ 090025Z 16006KT 4SM BR CLR M02/M03 A3029 740 92 -1100 160/06 RMK AO2 $
94908KDBQ DBQ20090208183010002/08/09 18:30:31  5-MIN KDBQ 090030Z 16006KT 4SM BR CLR M02/M03 A3029 740 92 -1100 160/06 RMK AO2 $
94908KDBQ DBQ20090208183510302/08/09 18:35:31  5-MIN KDBQ 090035Z 16006KT 4SM BR FEW003 M02/M03 A3029 740 92 -1100 160/06 RMK AO2 $
94908KDBQ DBQ20090208184010302/08/09 18:40:31  5-MIN KDBQ 090040Z 17007KT 3SM BR SCT003 M02/M03 A3029 740 92 -1100 160/07 RMK AO2 $
94908KDBQ DBQ20090208184510302/08/09 18:45:31  5-MIN KDBQ 090045Z 17008KT 3SM BR BKN003 M02/M03 A3029 740 92 -1100 170/08 RMK AO2 $
94908KDBQ DBQ20090208185012002/08/09 18:50:31  5-MIN KDBQ 090050Z 17008KT 3SM BR BKN003 M02/M03 A3028 750 92 -1100 170/08 RMK AO2 SLP269 T10221033 $
94908KDBQ DBQ20090208185510302/08/09 18:55:31  5-MIN KDBQ 090055Z 16007KT 3SM BR BKN003 M02/M03 A3028 750 96 -1100 150/07 RMK AO2 $
94908KDBQ DBQ20090208190010302/08/09 19:00:31  5-MIN KDBQ 090100Z 16006KT 3SM BR OVC003 M02/M03 A3028 750 92 -1100 160/06 RMK AO2 $
94908KDBQ DBQ20090208190510302/08/09 19:05:31  5-MIN KDBQ 090105Z 17006KT 3SM BR OVC003 M02/M03 A3028 750 92 -1100 170/06 RMK AO2 $
94908KDBQ DBQ20090208191010802/08/09 19:10:31  5-MIN KDBQ 090110Z AUTO 14005KT 3SM BR OVC003 M02/M03 A3027 750 92 -1100 140/05 RMK AO2 $
94908KDBQ DBQ20090208191510802/08/09 19:15:31  5-MIN KDBQ 090115Z AUTO 15007KT 3SM BR OVC003 M02/M03 A3027 750 92 -1100 150/07 RMK AO2 $
94908KDBQ DBQ20090208192010702/08/09 19:20:31  5-MIN KDBQ 090120Z 16005KT 2 1/2SM BR OVC003 M02/M03 A3028 750 92 -1100 160/05 RMK AO2 $
94908KDBQ DBQ20090208192510702/08/09 19:25:31  5-MIN KDBQ 090125Z 16005KT 2 1/2SM BR OVC003 M02/M03 A3028 750 96 -1100 160/05 RMK AO2 $
94908KDBQ DBQ20090208193010302/08/09 19:30:31  5-MIN KDBQ 090130Z 15005KT 3SM BR OVC003 M02/M03 A3028 750 96 -1100 150/05 RMK AO2 $
94908KDBQ DBQ20090208193510302/08/09 19:35:31  5-MIN KDBQ 090135Z 16006KT 3SM BR OVC003 M02/M03 A3027 750 96 -1100 150/06 RMK AO2 $
94908KDBQ DBQ20090208194010702/08/09 19:40:31  5-MIN KDBQ 090140Z 17007KT 2 1/2SM BR OVC003 M02/M03 A3027 750 96 -1100 160/07 RMK AO2 $
94908KDBQ DBQ20090208194510702/08/09 19:45:31  5-MIN KDBQ 090145Z 16006KT 2 1/2SM BR OVC003 M02/M03 A3027 760 96 -1100 150/06 RMK AO2 $
94908KDBQ DBQ20090208195012402/08/09 19:50:31  5-MIN KDBQ 090150Z 16007KT 2 1/2SM BR OVC003 M02/M03 A3027 760 96 -1100 160/07 RMK AO2 SLP264 T10221028 $
94908KDBQ DBQ20090208195510302/08/09 19:55:31  5-MIN KDBQ 090155Z 15005KT 2SM BR OVC003 M02/M03 A3027 760 92 -1100 150/05 RMK AO2 $
94908KDBQ DBQ20090208200011202/08/09 20:00:31  5-MIN KDBQ 090200Z AUTO 14006KT 1 3/4SM BR OVC001 M02/M03 A3026 760 92 -1100 140/06 RMK AO2 $
94908KDBQ DBQ20090208200511202/08/09 20:05:31  5-MIN KDBQ 090205Z AUTO 15008KT 1 3/4SM BR OVC001 M02/M03 A3026 770 92 -1100 150/08 RMK AO2 $
94908KDBQ DBQ20090208201011202/08/09 20:10:31  5-MIN KDBQ 090210Z AUTO 16008KT 1 3/4SM BR OVC001 M02/M03 A3026 760 92 -1100 150/08 RMK AO2 $
94908KDBQ DBQ20090208201511202/08/09 20:15:31  5-MIN KDBQ 090215Z AUTO 16008KT 1 3/4SM BR OVC001 M03/M03 A3027 760 96 -1100 160/08 RMK AO2 $
94908KDBQ DBQ20090208202011202/08/09 20:20:31  5-MIN KDBQ 090220Z AUTO 16006KT 1 1/4SM BR OVC001 M03/M03 A3027 760 96 -1200 160/06 RMK AO2 $
94908KDBQ DBQ20090208202510802/08/09 20:25:31  5-MIN KDBQ 090225Z AUTO 15007KT 1SM BR OVC001 M03/M03 A3026 760 96 -1100 150/07 RMK AO2 $
94908KDBQ DBQ20090208203010802/08/09 20:30:31  5-MIN KDBQ 090230Z AUTO 16007KT 1SM BR OVC001 M02/M03 A3026 760 92 -1100 160/07 RMK AO2 $
94908KDBQ DBQ20090208203510802/08/09 20:35:31  5-MIN KDBQ 090235Z AUTO 17007KT 1SM BR OVC001 M02/M03 A3027 760 96 -1100 170/07 RMK AO2 $
94908KDBQ DBQ20090208204010802/08/09 20:40:31  5-MIN KDBQ 090240Z AUTO 15007KT 1SM BR OVC001 M02/M03 A3027 760 96 -1100 140/07 RMK AO2 $
94908KDBQ DBQ20090208204511202/08/09 20:45:31  5-MIN KDBQ 090245Z AUTO 16009KT 1 1/4SM BR OVC001 M02/M03 A3027 760 96 -1100 160/09 RMK AO2 $
94908KDBQ DBQ20090208205013502/08/09 20:50:31  5-MIN KDBQ 090250Z AUTO 15006KT 1 1/4SM BR OVC001 M02/M03 A3027 760 96 -1100 150/06 RMK AO2 SLP265 T10221028 58002 $
94908KDBQ DBQ20090208205511202/08/09 20:55:31  5-MIN KDBQ 090255Z AUTO 15006KT 1 1/4SM BR OVC001 M02/M03 A3027 760 96 -1100 150/06 RMK AO2 $
94908KDBQ DBQ20090208210011202/08/09 21:00:31  5-MIN KDBQ 090300Z AUTO 14006KT 1 1/2SM BR OVC001 M02/M03 A3027 760 96 -1100 140/06 RMK AO2 $
94908KDBQ DBQ20090208210511202/08/09 21:05:31  5-MIN KDBQ 090305Z AUTO 15008KT 1 1/4SM BR OVC001 M02/M03 A3027 760 96 -1100 150/08 RMK AO2 $
94908KDBQ DBQ20090208211011202/08/09 21:10:31  5-MIN KDBQ 090310Z AUTO 15006KT 1 1/4SM BR OVC001 M02/M03 A3027 760 96 -1100 150/06 RMK AO2 $
94908KDBQ DBQ20090208211511202/08/09 21:15:31  5-MIN KDBQ 090315Z AUTO 17007KT 1 1/4SM BR OVC001 M02/M03 A3027 760 96 -1100 170/07 RMK AO2 $
94908KDBQ DBQ20090208212011202/08/09 21:20:31  5-MIN KDBQ 090320Z AUTO 16009KT 1 1/4SM BR OVC001 M02/M03 A3026 760 96 -1100 160/09 RMK AO2 $
94908KDBQ DBQ20090208212511202/08/09 21:25:31  5-MIN KDBQ 090325Z AUTO 16009KT 1 1/4SM BR OVC001 M02/M03 A3026 760 96 -1100 160/09 RMK AO2 $
94908KDBQ DBQ20090208213011202/08/09 21:30:31  5-MIN KDBQ 090330Z AUTO 16009KT 1 1/4SM BR OVC001 M02/M03 A3026 760 96 -1100 160/09 RMK AO2 $
94908KDBQ DBQ20090208213511202/08/09 21:35:31  5-MIN KDBQ 090335Z AUTO 16008KT 1 1/4SM BR OVC001 M02/M03 A3026 760 96 -1100 160/08 RMK AO2 $
94908KDBQ DBQ20090208214011202/08/09 21:40:31  5-MIN KDBQ 090340Z AUTO 16008KT 1 1/4SM BR OVC001 M02/M03 A3026 770 96 -1100 150/08 RMK AO2 $
94908KDBQ DBQ20090208214511202/08/09 21:45:31  5-MIN KDBQ 090345Z AUTO 16009KT 1 1/4SM BR OVC001 M02/M03 A3026 760 96 -1100 160/09 RMK AO2 $
94908KDBQ DBQ20090208215012902/08/09 21:50:31  5-MIN KDBQ 090350Z AUTO 17008KT 1 1/2SM BR OVC001 M02/M03 A3026 760 96 -1100 170/08 RMK AO2 SLP263 T10221028 $
94908KDBQ DBQ20090208215511202/08/09 21:55:31  5-MIN KDBQ 090355Z AUTO 17009KT 1 3/4SM BR OVC001 M02/M03 A3027 760 96 -1100 170/09 RMK AO2 $
94908KDBQ DBQ20090208220010802/08/09 22:00:31  5-MIN KDBQ 090400Z AUTO 18010KT 2SM BR OVC001 M02/M03 A3027 760 92 -1000 180/10 RMK AO2 $
94908KDBQ DBQ20090208220511202/08/09 22:05:31  5-MIN KDBQ 090405Z AUTO 18008KT 1 3/4SM BR OVC001 M02/M03 A3027 760 92 -1000 180/08 RMK AO2 $
94908KDBQ DBQ20090208221011202/08/09 22:10:31  5-MIN KDBQ 090410Z AUTO 18010KT 1 3/4SM BR OVC001 M02/M02 A3027 760 96 -1000 180/10 RMK AO2 $
94908KDBQ DBQ20090208221511202/08/09 22:15:31  5-MIN KDBQ 090415Z AUTO 17008KT 1 1/2SM BR OVC001 M02/M03 A3026 760 92 -1000 170/08 RMK AO2 $
94908KDBQ DBQ20090208222011202/08/09 22:20:31  5-MIN KDBQ 090420Z AUTO 17009KT 1 1/2SM BR OVC001 M02/M03 A3026 760 92 -1000 170/09 RMK AO2 $
94908KDBQ DBQ20090208222511202/08/09 22:25:31  5-MIN KDBQ 090425Z AUTO 16010KT 1 1/2SM BR OVC001 M02/M03 A3026 770 92 -1000 160/10 RMK AO2 $
94908KDBQ DBQ20090208223011902/08/09 22:30:31  5-MIN KDBQ 090430Z AUTO 13008KT 1 1/2SM BR OVC001 M02/M03 A3024 780 92 -1000 130/08 RMK AO2 PRESFR $
94908KDBQ DBQ20090208223511202/08/09 22:35:31  5-MIN KDBQ 090435Z AUTO 14009KT 1 1/2SM BR OVC001 M02/M03 A3025 780 96 -1100 140/09 RMK AO2 $
94908KDBQ DBQ20090208224011202/08/09 22:40:31  5-MIN KDBQ 090440Z AUTO 15006KT 1 3/4SM BR OVC001 M02/M03 A3025 780 96 -1100 150/06 RMK AO2 $
94908KDBQ DBQ20090208224511202/08/09 22:45:31  5-MIN KDBQ 090445Z AUTO 15009KT 1 3/4SM BR OVC001 M02/M03 A3025 780 92 -1000 150/09 RMK AO2 $
94908KDBQ DBQ20090208225012902/08/09 22:50:31  5-MIN KDBQ 090450Z AUTO 14010KT 1 3/4SM BR OVC001 M02/M03 A3024 790 92 -1000 140/10 RMK AO2 SLP253 T10171028 $
94908KDBQ DBQ20090208225511202/08/09 22:55:31  5-MIN KDBQ 090455Z AUTO 14010KT 1 1/2SM BR OVC001 M02/M03 A3023 790 92 -1000 140/10 RMK AO2 $
94908KDBQ DBQ20090208230011202/08/09 23:00:31  5-MIN KDBQ 090500Z AUTO 16009KT 1 1/2SM BR OVC001 M02/M03 A3023 790 92 -1000 150/09 RMK AO2 $
94908KDBQ DBQ20090208230511202/08/09 23:05:31  5-MIN KDBQ 090505Z AUTO 16010KT 1 1/2SM BR OVC001 M02/M02 A3024 780 96 -1000 160/10 RMK AO2 $
94908KDBQ DBQ20090208231011202/08/09 23:10:31  5-MIN KDBQ 090510Z AUTO 16008KT 1 3/4SM BR OVC001 M02/M03 A3025 780 92 -1000 160/08 RMK AO2 $
94908KDBQ DBQ20090208231510802/08/09 23:15:31  5-MIN KDBQ 090515Z AUTO 17006KT 2SM BR OVC001 M02/M03 A3024 780 92 -1000 170/06 RMK AO2 $
94908KDBQ DBQ20090208232011202/08/09 23:20:31  5-MIN KDBQ 090520Z AUTO 17009KT 1 3/4SM BR OVC001 M02/M02 A3024 780 96 -1000 170/09 RMK AO2 $
94908KDBQ DBQ20090208232511202/08/09 23:25:31  5-MIN KDBQ 090525Z AUTO 16009KT 1 3/4SM BR OVC001 M02/M02 A3024 780 96 -1000 160/09 RMK AO2 $
94908KDBQ DBQ20090209074508502/09/09 07:45:31  5-MIN KDBQ 091345Z AUTO M M M M /M RMK AO2 PWINO FZRANO TSNO PNO $
94908KDBQ DBQ20090209080006702/09/09 08:00:31  5-MIN KDBQ 091400Z AUTO M M M M /M RMK AO2 PNO $
94908KDBQ DBQ20090209080510902/09/09 08:05:31  5-MIN KDBQ 091405Z AUTO 14015G22KT 01/M01 A3003 970 89 -400 140/15G22 RMK AO2 PWINO FZRANO
94908KDBQ DBQ20090209081010502/09/09 08:10:31  5-MIN KDBQ 091410Z 14015G21KT 2SM BR OVC011 02/M01 A3003 980 85 -300 140/15G21 RMK AO2
94908KDBQ DBQ20090209081510802/09/09 08:15:31  5-MIN KDBQ 091415Z 14014G20KT 2 1/2SM BR OVC011 02/00 A3003 970 89 -300 140/14G20 RMK AO2
94908KDBQ DBQ20090209082010802/09/09 08:20:31  5-MIN KDBQ 091420Z 14015G20KT 2 1/2SM BR OVC011 02/00 A3003 980 89 -300 140/15G20 RMK AO2
94908KDBQ DBQ20090209082510802/09/09 08:25:31  5-MIN KDBQ 091425Z 13014G20KT 2 1/2SM BR OVC011 02/00 A3003 980 89 -300 130/14G20 RMK AO2
94908KDBQ DBQ20090209083010902/09/09 08:30:31  5-MIN KDBQ 091430Z 14013KT 2 1/2SM BR BKN011 OVC015 02/00 A3002 980 89 -300 140/13 RMK AO2
94908KDBQ DBQ20090209083511102/09/09 08:35:31  5-MIN KDBQ 091435Z 13013G20KT 2SM BR BKN011 OVC015 02/00 A3002 990 89 -300 130/13G20 RMK AO2
94908KDBQ DBQ20090209084011102/09/09 08:40:31  5-MIN KDBQ 091440Z 14014G20KT 2SM BR BKN011 OVC015 02/00 A3001 990 89 -300 140/14G20 RMK AO2
94908KDBQ DBQ20090209084511602/09/09 08:45:31  5-MIN KDBQ 091445Z 14014G23KT 2 1/2SM BR BKN011 OVC015 02/00 A3001 1000 85 -200 140/14G23 RMK AO2
94908KDBQ DBQ20090209085012302/09/09 08:50:31  5-MIN KDBQ 091450Z 14015G23KT 2 1/2SM BR SCT009 SCT015 BKN085 02/00 A3001 1000 85 -200 140/15G23 RMK AO2
94908KDBQ DBQ20090209085512302/09/09 08:55:31  5-MIN KDBQ 091455Z 14014G21KT 2 1/2SM BR BKN009 BKN015 BKN085 02/00 A3000 1000 85 -200 140/14G21 RMK AO2
94908KDBQ DBQ20090209090012302/09/09 09:00:31  5-MIN KDBQ 091500Z 14012G20KT 2 1/2SM BR SCT009 BKN015 BKN085 02/00 A3000 1000 85 -200 140/12G20 RMK AO2
94908KDBQ DBQ20090209090512302/09/09 09:05:31  5-MIN KDBQ 091505Z 15014G20KT 2 1/2SM BR SCT009 BKN015 BKN085 02/01 A3000 1010 89 -200 140/14G20 RMK AO2
94908KDBQ DBQ20090209091012302/09/09 09:10:31  5-MIN KDBQ 091510Z 14013G20KT 2 1/2SM BR SCT009 BKN015 BKN085 02/01 A3000 1010 89 -200 140/13G20 RMK AO2
94908KDBQ DBQ20090209091510902/09/09 09:15:31  5-MIN KDBQ 091515Z 15013G20KT 2 1/2SM BR OVC009 02/01 A3000 1010 89 -200 150/13G20 RMK AO2
94908KDBQ DBQ20090209092010902/09/09 09:20:31  5-MIN KDBQ 091520Z 14013G19KT 2 1/2SM BR OVC009 02/01 A2999 1010 89 -200 140/13G19 RMK AO2
94908KDBQ DBQ20090209092510502/09/09 09:25:31  5-MIN KDBQ 091525Z 14014G21KT 3SM BR OVC009 03/01 A2999 1010 85 -100 140/14G21 RMK AO2
94908KDBQ DBQ20090209093010902/09/09 09:30:31  5-MIN KDBQ 091530Z 14015G22KT 2 1/2SM BR OVC009 03/01 A2998 1020 85 -100 140/15G22 RMK AO2
94908KDBQ DBQ20090209093512102/09/09 09:35:31  5-MIN KDBQ 091535Z 14015G22KT 2 1/2SM BR OVC009 03/01 A2998 1020 85 -100 140/15G22 RMK AO2 CIG 007V011
94908KDBQ DBQ20090209094012102/09/09 09:40:31  5-MIN KDBQ 091540Z 14016G22KT 2 1/2SM BR OVC009 03/01 A2998 1030 89 -100 140/16G22 RMK AO2 CIG 007V011
94908KDBQ DBQ20090209094510602/09/09 09:45:31  5-MIN KDBQ 091545Z 13019G24KT 2 1/2SM BR OVC009 03/01 A2997 1030 85 0 130/19G24 RMK AO2
94908KDBQ DBQ20090209095013202/09/09 09:50:31  5-MIN KDBQ 091550Z 14017G26KT 3SM BR OVC009 03/01 A2996 1040 85 0 140/17G26 RMK AO2 PK WND 13026/1546 CIG 007V011
94908KDBQ DBQ20090209095511402/09/09 09:55:31  5-MIN KDBQ 091555Z 13016G26KT 3SM BR OVC009 03/01 A2996 1040 85 0 130/16G26 RMK AO2 CIG 007V011
94908KDBQ DBQ20090209100012102/09/09 10:00:31  5-MIN KDBQ 091600Z 14015G23KT 3SM BR BKN009 BKN037 03/01 A2995 1050 85 0 140/15G23 RMK AO2 CIG 007V011
94908KDBQ DBQ20090209100510902/09/09 10:05:31  5-MIN KDBQ 091605Z 14017G23KT 3SM HZ BKN009 BKN037 04/01 A2995 1050 82 0 140/17G23 RMK AO2
94908KDBQ DBQ20090209101011602/09/09 10:10:31  5-MIN KDBQ 091610Z 14017G24KT 3SM BR SCT009 BKN037 BKN080 04/02 A2995 1050 85 0 140/17G24 RMK AO2
94908KDBQ DBQ20090209101511602/09/09 10:15:31  5-MIN KDBQ 091615Z 14016G24KT 3SM BR SCT009 SCT037 BKN045 04/02 A2995 1050 85 0 140/16G24 RMK AO2
94908KDBQ DBQ20090209102011602/09/09 10:20:31  5-MIN KDBQ 091620Z 14015G23KT 3SM BR SCT009 SCT037 BKN045 04/02 A2995 1060 85 0 140/15G23 RMK AO2
94908KDBQ DBQ20090209102511602/09/09 10:25:31  5-MIN KDBQ 091625Z 14016G22KT 3SM BR FEW011 SCT037 BKN044 04/02 A2994 1060 85 0 140/16G22 RMK AO2
94908KDBQ DBQ20090209103011002/09/09 10:30:31  5-MIN KDBQ 091630Z 14017KT 3SM BR FEW011 SCT042 BKN060 04/02 A2994 1060 85 0 140/17 RMK AO2
94908KDBQ DBQ20090209103511802/09/09 10:35:31  5-MIN KDBQ 091635Z 14016G22KT 3SM HZ SCT011 SCT042 BKN060 04/02 A2994 1060 82 100 140/16G22 RMK AO2
94908KDBQ DBQ20090209104011802/09/09 10:40:31  5-MIN KDBQ 091640Z 14016G22KT 3SM BR FEW011 SCT044 BKN060 04/02 A2993 1070 85 100 140/16G22 RMK AO2
94908KDBQ DBQ20090209104511802/09/09 10:45:31  5-MIN KDBQ 091645Z 14015G22KT 3SM BR FEW011 BKN060 OVC075 04/02 A2993 1070 85 100 140/15G22 RMK AO2
94908KDBQ DBQ20090209105013402/09/09 10:50:31  5-MIN KDBQ 091650Z 14015G22KT 3SM HZ FEW011 BKN060 BKN075 05/02 A2992 1070 82 200 140/15G22 RMK AO2 SLPNO T00500022
94908KDBQ DBQ20090209105511102/09/09 10:55:31  5-MIN KDBQ 091655Z 14012G21KT 3SM HZ FEW011 BKN060 06/03 A2992 1080 82 200 140/12G21 RMK AO2
94908KDBQ DBQ20090209110011102/09/09 11:00:31  5-MIN KDBQ 091700Z 13016G22KT 3SM HZ FEW011 SCT060 06/03 A2991 1090 82 200 130/16G22 RMK AO2
94908KDBQ DBQ20090209110510402/09/09 11:05:31  5-MIN KDBQ 091705Z 14015G22KT 4SM HZ FEW044 06/03 A2991 1090 82 300 140/15G22 RMK AO2
94908KDBQ DBQ20090209111009802/09/09 11:10:31  5-MIN KDBQ 091710Z 14013KT 4SM HZ FEW046 06/03 A2990 1090 82 300 140/13 RMK AO2
94908KDBQ DBQ20090209111509502/09/09 11:15:31  5-MIN KDBQ 091715Z 14013KT 4SM HZ CLR 06/03 A2990 1100 82 300 140/13 RMK AO2
94908KDBQ DBQ20090209112010102/09/09 11:20:31  5-MIN KDBQ 091720Z 14013G21KT 4SM HZ CLR 06/03 A2989 1100 82 300 140/13G21 RMK AO2
94908KDBQ DBQ20090209112510102/09/09 11:25:31  5-MIN KDBQ 091725Z 14016G22KT 4SM HZ CLR 07/03 A2989 1110 79 400 140/16G22 RMK AO2
94908KDBQ DBQ20090209113010102/09/09 11:30:31  5-MIN KDBQ 091730Z 14015G22KT 4SM HZ CLR 07/04 A2989 1110 82 400 140/15G22 RMK AO2
94908KDBQ DBQ20090209113510102/09/09 11:35:31  5-MIN KDBQ 091735Z 14015G22KT 4SM HZ CLR 07/04 A2988 1110 82 400 140/15G22 RMK AO2
94908KDBQ DBQ20090209114010702/09/09 11:40:31  5-MIN KDBQ 091740Z 14015G21KT 4SM HZ CLR 07/04 A2988 1120 79 500 140/15G21 RMK AO2 P0001
94908KDBQ DBQ20090209114510702/09/09 11:45:31  5-MIN KDBQ 091745Z 14015G21KT 4SM HZ CLR 07/04 A2988 1120 79 500 140/15G21 RMK AO2 P0001
94908KDBQ DBQ20090209115012902/09/09 11:50:31  5-MIN KDBQ 091750Z 14015G21KT 4SM HZ CLR 07/04 A2987 1120 82 500 140/15G21 RMK AO2 SLPNO P0001 6//// T00720044
94908KDBQ DBQ20090209115510102/09/09 11:55:31  5-MIN KDBQ 091755Z 15017G21KT 4SM HZ CLR 08/04 A2986 1130 79 600 150/17G21 RMK AO2
94908KDBQ DBQ20090209120010102/09/09 12:00:31  5-MIN KDBQ 091800Z 15018G25KT 4SM HZ CLR 08/04 A2986 1140 79 600 150/18G25 RMK AO2
94908KDBQ DBQ20090209120510102/09/09 12:05:31  5-MIN KDBQ 091805Z 15015G25KT 4SM HZ CLR 08/05 A2986 1140 79 700 150/15G25 RMK AO2
94908KDBQ DBQ20090209121010102/09/09 12:10:31  5-MIN KDBQ 091810Z 15016G23KT 4SM HZ CLR 08/05 A2985 1140 79 700 150/16G23 RMK AO2
94908KDBQ DBQ20090209121510802/09/09 12:15:31  5-MIN KDBQ 091815Z 15014G23KT 4SM HZ CLR 08/05 A2984 1150 79 700 150/14G23 RMK AO2 PRESFR
94908KDBQ DBQ20090209122010802/09/09 12:20:31  5-MIN KDBQ 091820Z 14015G21KT 4SM HZ CLR 08/05 A2984 1160 79 700 140/15G21 RMK AO2 PRESFR
94908KDBQ DBQ20090209122510102/09/09 12:25:31  5-MIN KDBQ 091825Z 15015G20KT 5SM HZ CLR 09/05 A2984 1160 76 700 150/15G20 RMK AO2
94908KDBQ DBQ20090209123010102/09/09 12:30:31  5-MIN KDBQ 091830Z 15015G23KT 5SM HZ CLR 09/05 A2983 1160 76 700 150/15G23 RMK AO2
94908KDBQ DBQ20090209123510102/09/09 12:35:31  5-MIN KDBQ 091835Z 15016G23KT 5SM HZ CLR 09/06 A2983 1160 79 700 150/16G23 RMK AO2
94908KDBQ DBQ20090209124010102/09/09 12:40:31  5-MIN KDBQ 091840Z 15017G22KT 5SM HZ CLR 09/06 A2983 1170 79 800 150/17G22 RMK AO2
94908KDBQ DBQ20090209124510102/09/09 12:45:31  5-MIN KDBQ 091845Z 15016G23KT 5SM HZ CLR 09/06 A2982 1170 79 800 150/16G23 RMK AO2
94908KDBQ DBQ20090209125011702/09/09 12:50:31  5-MIN KDBQ 091850Z 15019G23KT 5SM HZ CLR 09/06 A2982 1180 79 800 150/19G23 RMK AO2 SLPNO T00890056
94908KDBQ DBQ20090209125510802/09/09 12:55:31  5-MIN KDBQ 091855Z 15017G23KT 5SM HZ CLR 09/06 A2981 1180 79 800 150/17G23 RMK AO2 PRESFR
94908KDBQ DBQ20090209130010802/09/09 13:00:31  5-MIN KDBQ 091900Z 15016G23KT 5SM HZ CLR 09/06 A2980 1190 79 800 150/16G23 RMK AO2 PRESFR
94908KDBQ DBQ20090209130510102/09/09 13:05:31  5-MIN KDBQ 091905Z 14019G25KT 5SM HZ CLR 09/06 A2980 1190 76 900 140/19G25 RMK AO2
94908KDBQ DBQ20090209131010802/09/09 13:10:31  5-MIN KDBQ 091910Z 15016G25KT 5SM HZ CLR 09/06 A2979 1200 76 900 150/16G25 RMK AO2 PRESFR
94908KDBQ DBQ20090209131509502/09/09 13:15:31  5-MIN KDBQ 091915Z 15018KT 5SM HZ CLR 09/06 A2978 1210 79 900 140/18 RMK AO2
94908KDBQ DBQ20090209132011902/09/09 13:20:31  5-MIN KDBQ 091920Z 14017G26KT 5SM HZ CLR 09/06 A2978 1210 79 900 140/17G26 RMK AO2 PK WND 14026/1917
94908KDBQ DBQ20090209132512202/09/09 13:25:31  5-MIN KDBQ 091925Z 14017G26KT 5SM HZ FEW090 09/06 A2977 1210 79 900 140/17G26 RMK AO2 PK WND 14026/1917
94908KDBQ DBQ20090209133012902/09/09 13:30:31  5-MIN KDBQ 091930Z 14016G23KT 5SM HZ SCT090 09/06 A2976 1220 79 900 140/16G23 RMK AO2 PK WND 14026/1917 PRESFR
94908KDBQ DBQ20090209133512302/09/09 13:35:31  5-MIN KDBQ 091935Z 14015G22KT 5SM HZ SCT090 10/06 A2976 1230 77 1000 140/15G22 RMK AO2 PK WND 14026/1917
94908KDBQ DBQ20090209134013002/09/09 13:40:31  5-MIN KDBQ 091940Z 14016G21KT 5SM HZ FEW090 10/07 A2975 1230 80 1000 140/16G21 RMK AO2 PK WND 14026/1917 PRESFR
94908KDBQ DBQ20090209134512302/09/09 13:45:31  5-MIN KDBQ 091945Z 13015G21KT 5SM HZ FEW090 10/07 A2975 1240 80 1000 130/15G21 RMK AO2 PK WND 14026/1917
94908KDBQ DBQ20090209135015202/09/09 13:50:31  5-MIN KDBQ 091950Z 13015G21KT 5SM HZ FEW090 10/06 A2974 1240 77 1000 130/15G21 RMK AO2 PK WND 14026/1917 PRESFR SLPNO P0001 T01000061
94908KDBQ DBQ20090209135510502/09/09 13:55:31  5-MIN KDBQ 091955Z 14015G21KT 5SM HZ FEW095 11/07 A2974 1250 77 1000 140/15G21 RMK AO2
94908KDBQ DBQ20090209140010202/09/09 14:00:31  5-MIN KDBQ 092000Z 13016G21KT 5SM HZ CLR 11/07 A2974 1250 77 1100 130/16G21 RMK AO2
94908KDBQ DBQ20090209140510202/09/09 14:05:31  5-MIN KDBQ 092005Z 13013G22KT 5SM HZ CLR 11/07 A2973 1250 77 1100 130/13G22 RMK AO2
94908KDBQ DBQ20090209141010502/09/09 14:10:31  5-MIN KDBQ 092010Z 13015G22KT 5SM HZ FEW075 10/07 A2973 1250 80 1000 130/15G22 RMK AO2
94908KDBQ DBQ20090209141510502/09/09 14:15:31  5-MIN KDBQ 092015Z 13015G22KT 5SM HZ SCT080 10/07 A2973 1260 80 1000 130/15G22 RMK AO2
94908KDBQ DBQ20090209142010502/09/09 14:20:31  5-MIN KDBQ 092020Z 13015G22KT 5SM HZ BKN080 10/07 A2973 1260 80 1000 130/15G22 RMK AO2
94908KDBQ DBQ20090209142510502/09/09 14:25:31  5-MIN KDBQ 092025Z 13015G21KT 5SM HZ BKN075 10/07 A2972 1260 80 1000 130/15G21 RMK AO2
94908KDBQ DBQ20090209143009902/09/09 14:30:31  5-MIN KDBQ 092030Z 13013KT 5SM HZ BKN075 10/07 A2972 1270 80 1000 130/13 RMK AO2
94908KDBQ DBQ20090209143509902/09/09 14:35:31  5-MIN KDBQ 092035Z 13015KT 5SM HZ OVC080 10/07 A2971 1270 80 1000 130/15 RMK AO2
94908KDBQ DBQ20090209144010402/09/09 14:40:31  5-MIN KDBQ 092040Z 13013G20KT 5SM HZ OVC075 09/07 A2971 1270 83 900 130/13G20 RMK AO2
94908KDBQ DBQ20090209144511102/09/09 14:45:31  5-MIN KDBQ 092045Z 14013G20KT 5SM HZ BKN070 OVC080 09/07 A2972 1260 83 900 140/13G20 RMK AO2
94908KDBQ DBQ20090209145014602/09/09 14:50:31  5-MIN KDBQ 092050Z 14012KT 4SM -RA BKN065 OVC080 09/07 A2972 1260 83 900 140/12 RMK AO2 RAB49 SLPNO P0000 60001 T00940067 58046
94908KDBQ DBQ20090209145511202/09/09 14:55:31  5-MIN KDBQ 092055Z 14012KT 3SM -RA BKN065 OVC080 09/07 A2972 1260 83 900 140/12 RMK AO2 P0000
94908KDBQ DBQ20090209150011802/09/09 15:00:31  5-MIN KDBQ 092100Z 14011G18KT 3SM -RA FEW043 OVC060 09/07 A2972 1270 83 900 140/11G18 RMK AO2 P0001
94908KDBQ DBQ20090209150511202/09/09 15:05:31  5-MIN KDBQ 092105Z 13011KT 3SM -RA SCT048 OVC065 09/07 A2971 1270 83 900 130/11 RMK AO2 P0001
94908KDBQ DBQ20090209151011902/09/09 15:10:31  5-MIN KDBQ 092110Z 13012G22KT 3SM -RA BKN044 OVC060 09/07 A2971 1270 83 1000 130/12G22 RMK AO2 P0002
94908KDBQ DBQ20090209151512402/09/09 15:15:31  5-MIN KDBQ 092115Z 14012G22KT 2 1/2SM RA BR BKN038 OVC060 09/07 A2971 1280 89 900 140/12G22 RMK AO2 P0003
94908KDBQ DBQ20090209152011902/09/09 15:20:31  5-MIN KDBQ 092120Z 14015KT 2 1/2SM -RA BR BKN038 OVC060 09/07 A2971 1280 89 900 140/15 RMK AO2 P0004
94908KDBQ DBQ20090209152512602/09/09 15:25:31  5-MIN KDBQ 092125Z 14014KT 2 1/2SM -RA BR BKN040 BKN050 OVC065 09/07 A2970 1280 89 900 130/14 RMK AO2 P0004
94908KDBQ DBQ20090209153013202/09/09 15:30:31  5-MIN KDBQ 092130Z 14014G20KT 2 1/2SM -RA BR SCT040 BKN048 OVC060 09/07 A2970 1280 89 900 140/14G20 RMK AO2 P0005
94908KDBQ DBQ20090209153512602/09/09 15:35:31  5-MIN KDBQ 092135Z 14014KT 2 1/2SM -RA BR SCT035 BKN048 OVC060 09/07 A2970 1280 89 900 140/14 RMK AO2 P0005
94908KDBQ DBQ20090209154012102/09/09 15:40:31  5-MIN KDBQ 092140Z 14014KT 2SM RA BR SCT031 BKN048 OVC060 08/07 A2970 1280 93 800 140/14 RMK AO2 P0005
94908KDBQ DBQ20090209154512502/09/09 15:45:31  5-MIN KDBQ 092145Z 14014KT 1 1/2SM RA BR SCT029 BKN048 OVC060 08/07 A2970 1280 93 800 140/14 RMK AO2 P0005
94908KDBQ DBQ20090209155013102/09/09 15:50:31  5-MIN KDBQ 092150Z 13015G21KT 1 1/2SM RA BR BKN029 BKN048 OVC060 09/07 A2969 1290 89 900 130/15G21 RMK AO2 P0005
94908KDBQ DBQ20090209155513202/09/09 15:55:31  5-MIN KDBQ 092155Z 13016G25KT 1 3/4SM -RA BR BKN029 BKN048 OVC060 09/08 A2969 1300 93 900 130/16G25 RMK AO2 P0000
94908KDBQ DBQ20090209160012802/09/09 16:00:31  5-MIN KDBQ 092200Z 13016G25KT 2SM -RA BR BKN027 BKN048 OVC060 09/08 A2969 1300 93 900 130/16G25 RMK AO2 P0000
94908KDBQ DBQ20090209160513202/09/09 16:05:31  5-MIN KDBQ 092205Z 14015G22KT 2 1/2SM -RA BR BKN027 BKN048 OVC055 09/08 A2968 1300 93 900 140/15G22 RMK AO2 P0008
94908KDBQ DBQ20090209161012102/09/09 16:10:31  5-MIN KDBQ 092210Z 14014KT 2 1/2SM BR SCT027 OVC055 09/08 A2968 1300 93 900 140/14 RMK AO2 RAE09 P0008
94908KDBQ DBQ20090209161513402/09/09 16:15:31  5-MIN KDBQ 092215Z 14014G21KT 2 1/2SM BR SCT029 BKN050 OVC060 09/08 A2968 1300 93 900 140/14G21 RMK AO2 RAE09 P0008
94908KDBQ DBQ20090209162013002/09/09 16:20:31  5-MIN KDBQ 092220Z 13014G21KT 2SM BR FEW025 BKN050 OVC055 09/08 A2967 1310 93 900 130/14G21 RMK AO2 RAE09 P0008
94908KDBQ DBQ20090209162513402/09/09 16:25:31  5-MIN KDBQ 092225Z 13016G21KT 2 1/2SM BR FEW025 SCT048 BKN055 09/08 A2966 1320 93 900 130/16G21 RMK AO2 RAE09 P0008
94908KDBQ DBQ20090209163012702/09/09 16:30:31  5-MIN KDBQ 092230Z 14016G22KT 2 1/2SM BR BKN047 BKN055 09/08 A2966 1320 93 900 140/16G22 RMK AO2 RAE09 P0008
94908KDBQ DBQ20090209163513502/09/09 16:35:31  5-MIN KDBQ 092235Z 13016G23KT 2 1/2SM BR BKN047 BKN055 09/08 A2965 1330 93 1000 130/16G23 RMK AO2 RAE09 PRESFR P0008
94908KDBQ DBQ20090209164013502/09/09 16:40:31  5-MIN KDBQ 092240Z 14016G23KT 2 1/2SM BR BKN047 BKN055 BKN110 09/08 A2965 1330 93 1000 130/16G23 RMK AO2 RAE09 P0008
94908KDBQ DBQ20090209164513402/09/09 16:45:31  5-MIN KDBQ 092245Z 14017G23KT 2 1/2SM BR BKN047 BKN055 BKN110 09/08 A2966 1320 93 900 140/17G23 RMK AO2 RAE09 P0008
94908KDBQ DBQ20090209165016102/09/09 16:50:31  5-MIN KDBQ 092250Z 14017G26KT 2 1/2SM BR BKN047 BKN110 09/08 A2965 1330 93 900 140/17G26 RMK AO2 PK WND 15026/2249 RAE09 SLPNO P0008 T00890078
94908KDBQ DBQ20090209165511602/09/09 16:55:31  5-MIN KDBQ 092255Z 14016G26KT 2 1/2SM BR BKN047 BKN110 09/08 A2965 1330 89 1000 130/16G26 RMK AO2
94908KDBQ DBQ20090209170011202/09/09 17:00:31  5-MIN KDBQ 092300Z 14017G25KT 3SM BR BKN047 BKN100 09/08 A2965 1330 93 1000 140/17G25 RMK AO2
94908KDBQ DBQ20090209170511902/09/09 17:05:31  5-MIN KDBQ 092305Z 14016G25KT 3SM BR SCT047 BKN070 OVC100 09/08 A2966 1320 93 1000 140/16G25 RMK AO2
94908KDBQ DBQ20090209171011902/09/09 17:10:31  5-MIN KDBQ 092310Z 14017G23KT 3SM BR SCT047 BKN070 OVC100 09/08 A2966 1320 93 1000 140/17G23 RMK AO2
94908KDBQ DBQ20090209171512902/09/09 17:15:31  5-MIN KDBQ 092315Z 14018KT 3SM -RA BR SCT045 BKN070 OVC100 09/08 A2966 1320 93 1000 140/18 RMK AO2 RAB15 P0000
94908KDBQ DBQ20090209172013502/09/09 17:20:31  5-MIN KDBQ 092320Z 14018G24KT 4SM -RA BR FEW047 BKN065 OVC100 09/08 A2966 1320 93 1000 140/18G24 RMK AO2 RAB15 P0000
94908KDBQ DBQ20090209172512802/09/09 17:25:31  5-MIN KDBQ 092325Z 14016G25KT 4SM -RA BR FEW042 OVC065 10/08 A2965 1330 89 1100 140/16G25 RMK AO2 RAB15 P0000
94908KDBQ DBQ20090209173013502/09/09 17:30:31  5-MIN KDBQ 092330Z 14018G25KT 4SM -RA BR BKN060 BKN075 OVC085 09/08 A2965 1330 93 1000 140/18G25 RMK AO2 RAB15 P0000
94908KDBQ DBQ20090209173515202/09/09 17:35:31  5-MIN KDBQ 092335Z 14016G26KT 4SM BR SCT060 BKN070 OVC090 09/08 A2964 1340 93 1000 140/16G26 RMK AO2 PK WND 14026/2331 RAB15E34 P0000
94908KDBQ DBQ20090209174015202/09/09 17:40:31  5-MIN KDBQ 092340Z 14017G26KT 5SM BR SCT060 SCT075 OVC090 09/08 A2964 1330 93 1000 140/17G26 RMK AO2 PK WND 14026/2331 RAB15E34 P0000
94908KDBQ DBQ20090209174514502/09/09 17:45:31  5-MIN KDBQ 092345Z 15018G25KT 6SM BR SCT065 OVC090 10/08 A2964 1330 89 1100 150/18G25 RMK AO2 PK WND 14026/2331 RAB15E34 P0000
94908KDBQ DBQ20090209175018902/09/09 17:50:31  5-MIN KDBQ 092350Z 15019G25KT 7SM SCT060 BKN070 OVC090 10/08 A2965 1330 89 1100 150/19G25 RMK AO2 PK WND 14026/2331 RAB15E34 SLPNO P0000 60015 T01000083 10106 20083 56046
94908KDBQ DBQ20090209175511602/09/09 17:55:31  5-MIN KDBQ 092355Z 16017G25KT 7SM SCT049 BKN065 OVC090 10/08 A2965 1330 89 1100 160/17G25 RMK AO2
94908KDBQ DBQ20090209180011602/09/09 18:00:31  5-MIN KDBQ 100000Z 15016G25KT 7SM SCT049 BKN065 OVC090 09/08 A2964 1340 89 1000 150/16G25 RMK AO2
94908KDBQ DBQ20090209180511602/09/09 18:05:31  5-MIN KDBQ 100005Z 15018G23KT 7SM SCT049 BKN060 OVC090 09/08 A2964 1340 89 1000 150/18G23 RMK AO2
94908KDBQ DBQ20090209181011002/09/09 18:10:31  5-MIN KDBQ 100010Z 15019KT 7SM SCT049 BKN065 OVC090 09/08 A2963 1340 89 1000 150/19 RMK AO2
94908KDBQ DBQ20090209181511602/09/09 18:15:31  5-MIN KDBQ 100015Z 15018G25KT 7SM BKN049 BKN060 BKN090 09/08 A2963 1350 89 1000 150/18G25 RMK AO2
94908KDBQ DBQ20090209182010902/09/09 18:20:31  5-MIN KDBQ 100020Z 16017G25KT 7SM SCT049 BKN060 09/08 A2963 1350 89 1000 150/17G25 RMK AO2
94908KDBQ DBQ20090209182510302/09/09 18:25:31  5-MIN KDBQ 100025Z 15019KT 7SM SCT047 BKN060 09/08 A2963 1350 89 1000 150/19 RMK AO2
94908KDBQ DBQ20090209183010902/09/09 18:30:31  5-MIN KDBQ 100030Z 15017G24KT 7SM SCT047 BKN060 09/08 A2963 1350 93 1000 150/17G24 RMK AO2
94908KDBQ DBQ20090209183510902/09/09 18:35:31  5-MIN KDBQ 100035Z 15017G24KT 7SM SCT045 BKN060 09/08 A2962 1360 89 1100 150/17G24 RMK AO2
94908KDBQ DBQ20090209184010902/09/09 18:40:31  5-MIN KDBQ 100040Z 15017G23KT 8SM FEW045 BKN060 09/08 A2962 1360 89 1100 150/17G23 RMK AO2
94908KDBQ DBQ20090209184510902/09/09 18:45:31  5-MIN KDBQ 100045Z 15016G25KT 8SM SCT045 BKN060 10/08 A2961 1360 86 1100 150/16G25 RMK AO2
94908KDBQ DBQ20090209185012502/09/09 18:50:31  5-MIN KDBQ 100050Z 15018G25KT 8SM SCT045 BKN060 09/08 A2961 1360 89 1100 150/18G25 RMK AO2 SLPNO T00940078
94908KDBQ DBQ20090209185510902/09/09 18:55:31  5-MIN KDBQ 100055Z 15018G27KT 8SM SCT045 BKN060 09/08 A2961 1370 89 1100 150/18G27 RMK AO2
94908KDBQ DBQ20090209190011602/09/09 19:00:31  5-MIN KDBQ 100100Z 15018G27KT 8SM SCT041 SCT050 BKN060 09/08 A2961 1370 89 1100 150/18G27 RMK AO2
94908KDBQ DBQ20090209190510302/09/09 19:05:31  5-MIN KDBQ 100105Z 16019KT 8SM SCT041 BKN060 09/08 A2961 1370 89 1100 150/19 RMK AO2
94908KDBQ DBQ20090209191010302/09/09 19:10:31  5-MIN KDBQ 100110Z 16019KT 8SM SCT041 BKN060 09/07 A2960 1370 86 1100 160/19 RMK AO2
94908KDBQ DBQ20090209191512702/09/09 19:15:31  5-MIN KDBQ 100115Z 16020G27KT 8SM FEW041 SCT060 09/07 A2960 1370 86 1100 160/20G27 RMK AO2 PK WND 16027/0114
94908KDBQ DBQ20090209192013402/09/09 19:20:31  5-MIN KDBQ 100120Z 16017G27KT 8SM FEW041 SCT047 SCT060 09/07 A2960 1370 86 1100 160/17G27 RMK AO2 PK WND 16027/0114
94908KDBQ DBQ20090209192511402/09/09 19:25:31  5-MIN KDBQ 100125Z 16017KT 8SM SCT043 09/07 A2960 1380 89 1000 160/17 RMK AO2 PK WND 16027/0114
94908KDBQ DBQ20090209193012602/09/09 19:30:31  5-MIN KDBQ 100130Z 16017G24KT 8SM SCT043 09/07 A2960 1380 89 1000 160/17G24 RMK AO2 PK WND 16027/0114 P0001
94908KDBQ DBQ20090209193512602/09/09 19:35:31  5-MIN KDBQ 100135Z 16018G24KT 9SM SCT045 09/07 A2960 1380 89 1000 160/18G24 RMK AO2 PK WND 16027/0114 P0001
94908KDBQ DBQ20090209194012002/09/09 19:40:31  5-MIN KDBQ 100140Z 16018KT 9SM SCT045 09/07 A2959 1380 89 1000 160/18 RMK AO2 PK WND 16027/0114 P0001
94908KDBQ DBQ20090209194512002/09/09 19:45:31  5-MIN KDBQ 100145Z 16018KT 9SM SCT043 09/07 A2959 1390 89 1000 160/18 RMK AO2 PK WND 16027/0114 P0001
94908KDBQ DBQ20090209195013602/09/09 19:50:31  5-MIN KDBQ 100150Z 16019KT 9SM SCT043 09/07 A2959 1390 89 1000 160/19 RMK AO2 PK WND 16027/0114 SLPNO P0001 T00890072
94908KDBQ DBQ20090209195510102/09/09 19:55:31  5-MIN KDBQ 100155Z AUTO 16019KT 9SM FEW036 09/07 A2958 1390 89 1000 160/19 RMK AO2
94908KDBQ DBQ20090209200010202/09/09 20:00:31  5-MIN KDBQ 100200Z AUTO 16018KT 10SM FEW042 09/07 A2958 1390 89 1000 160/18 RMK AO2
94908KDBQ DBQ20090209200510202/09/09 20:05:31  5-MIN KDBQ 100205Z AUTO 16020KT 10SM FEW025 09/07 A2958 1390 89 1000 160/20 RMK AO2
94908KDBQ DBQ20090209201011502/09/09 20:10:31  5-MIN KDBQ 100210Z AUTO 16016G24KT 10SM SCT025 SCT039 09/07 A2958 1390 86 1100 160/16G24 RMK AO2
94908KDBQ DBQ20090209201510202/09/09 20:15:31  5-MIN KDBQ 100215Z AUTO 16015KT 10SM SCT023 09/07 A2959 1390 89 1000 160/15 RMK AO2
94908KDBQ DBQ20090209202010202/09/09 20:20:31  5-MIN KDBQ 100220Z AUTO 17016KT 10SM BKN023 09/07 A2959 1380 89 1000 170/16 RMK AO2
94908KDBQ DBQ20090209202511602/09/09 20:25:31  5-MIN KDBQ 100225Z AUTO 17017KT 10SM BKN023 BKN028 BKN037 09/07 A2960 1380 89 1000 170/17 RMK AO2
94908KDBQ DBQ20090209203012202/09/09 20:30:31  5-MIN KDBQ 100230Z AUTO 17019G24KT 10SM BKN023 BKN027 BKN037 09/07 A2960 1380 86 1100 170/19G24 RMK AO2
94908KDBQ DBQ20090209203512602/09/09 20:35:31  5-MIN KDBQ 100235Z AUTO 18020G26KT 10SM OVC023 09/08 A2960 1380 89 1100 180/20G26 RMK AO2 PK WND 17026/0234
94908KDBQ DBQ20090209204013302/09/09 20:40:31  5-MIN KDBQ 100240Z AUTO 18019G26KT 10SM BKN021 OVC027 10/08 A2960 1370 86 1100 180/19G26 RMK AO2 PK WND 17026/0234
94908KDBQ DBQ20090209204514002/09/09 20:45:31  5-MIN KDBQ 100245Z AUTO 18018G25KT 10SM BKN021 BKN027 OVC036 10/08 A2960 1380 86 1100 180/18G25 RMK AO2 PK WND 17026/0234
94908KDBQ DBQ20090209205015602/09/09 20:50:31  5-MIN KDBQ 100250Z AUTO 18019KT 10SM BKN023 OVC034 10/08 A2960 1380 86 1100 180/19 RMK AO2 PK WND 17026/0234 SLP029 60001 T01000078 56025
94908KDBQ DBQ20090209205513302/09/09 20:55:31  5-MIN KDBQ 100255Z AUTO 18022G30KT 10SM BKN023 OVC030 10/08 A2959 1380 86 1200 180/22G30 RMK AO2 PK WND 18030/0255
94908KDBQ DBQ20090209210014002/09/09 21:00:31  5-MIN KDBQ 100300Z AUTO 18021G32KT 10SM FEW019 BKN027 OVC033 10/08 A2959 1380 86 1200 180/21G32 RMK AO2 PK WND 17032/0258
94908KDBQ DBQ20090209210514002/09/09 21:05:31  5-MIN KDBQ 100305Z AUTO 18022G32KT 10SM FEW019 BKN026 OVC033 10/08 A2959 1380 86 1200 180/22G32 RMK AO2 PK WND 17032/0258
94908KDBQ DBQ20090209211014002/09/09 21:10:31  5-MIN KDBQ 100310Z AUTO 18025G30KT 10SM SCT023 BKN029 OVC035 10/08 A2959 1390 86 1200 180/25G30 RMK AO2 PK WND 17032/0258
94908KDBQ DBQ20090209211514002/09/09 21:15:31  5-MIN KDBQ 100315Z AUTO 18023G31KT 10SM SCT020 BKN027 OVC035 10/08 A2959 1390 86 1200 180/23G31 RMK AO2 PK WND 17032/0258
94908KDBQ DBQ20090209212014002/09/09 21:20:31  5-MIN KDBQ 100320Z AUTO 19021G31KT 10SM SCT016 BKN024 OVC029 10/08 A2959 1390 89 1200 180/21G31 RMK AO2 PK WND 17032/0258
94908KDBQ DBQ20090209212514002/09/09 21:25:31  5-MIN KDBQ 100325Z AUTO 18019G30KT 10SM BKN016 BKN021 OVC026 10/08 A2959 1390 86 1200 180/19G30 RMK AO2 PK WND 17032/0258
94908KDBQ DBQ20090209213014002/09/09 21:30:31  5-MIN KDBQ 100330Z AUTO 18017G26KT 10SM BKN014 BKN020 OVC026 10/08 A2959 1390 86 1200 180/17G26 RMK AO2 PK WND 17032/0258
94908KDBQ DBQ20090209213513302/09/09 21:35:31  5-MIN KDBQ 100335Z AUTO 18018G25KT 10SM BKN014 OVC022 10/08 A2958 1390 86 1200 180/18G25 RMK AO2 PK WND 17032/0258
94908KDBQ DBQ20090209214012602/09/09 21:40:31  5-MIN KDBQ 100340Z AUTO 18019G25KT 10SM OVC014 10/08 A2958 1390 86 1200 180/19G25 RMK AO2 PK WND 17032/0258
94908KDBQ DBQ20090209214512602/09/09 21:45:31  5-MIN KDBQ 100345Z AUTO 17018G24KT 10SM OVC014 09/08 A2958 1400 89 1100 170/18G24 RMK AO2 PK WND 17032/0258
94908KDBQ DBQ20090209215013702/09/09 21:50:31  5-MIN KDBQ 100350Z AUTO 18019KT 10SM OVC014 09/08 A2957 1400 89 1100 170/19 RMK AO2 PK WND 17032/0258 SLP020 T00940078
94908KDBQ DBQ20090209215510802/09/09 21:55:31  5-MIN KDBQ 100355Z AUTO 18016G24KT 10SM OVC014 09/08 A2957 1400 89 1100 180/16G24 RMK AO2
94908KDBQ DBQ20090209220010802/09/09 22:00:31  5-MIN KDBQ 100400Z AUTO 17017G24KT 10SM OVC014 09/08 A2957 1410 89 1100 170/17G24 RMK AO2
94908KDBQ DBQ20090209220510802/09/09 22:05:31  5-MIN KDBQ 100405Z AUTO 17019G25KT 10SM OVC014 09/08 A2957 1410 89 1100 170/19G25 RMK AO2
94908KDBQ DBQ20090209221011502/09/09 22:10:31  5-MIN KDBQ 100410Z AUTO 18019G25KT 10SM BKN014 OVC019 09/08 A2957 1400 89 1100 180/19G25 RMK AO2
94908KDBQ DBQ20090209221511502/09/09 22:15:31  5-MIN KDBQ 100415Z AUTO 18019G23KT 10SM BKN014 OVC019 09/08 A2957 1400 89 1100 180/19G23 RMK AO2
94908KDBQ DBQ20090209222010902/09/09 22:20:31  5-MIN KDBQ 100420Z AUTO 18020KT 10SM BKN014 OVC019 09/08 A2957 1400 89 1100 180/20 RMK AO2
94908KDBQ DBQ20090209222513502/09/09 22:25:31  5-MIN KDBQ 100425Z AUTO 18019G26KT 10SM BKN014 OVC019 09/08 A2957 1410 89 1100 180/19G26 RMK AO2 PK WND 18026/0422 $
94908KDBQ DBQ20090209223012802/09/09 22:30:31  5-MIN KDBQ 100430Z AUTO 18019G26KT 10SM OVC014 09/08 A2957 1400 93 1000 180/19G26 RMK AO2 PK WND 18026/0429 $
94908KDBQ DBQ20090209223512802/09/09 22:35:31  5-MIN KDBQ 100435Z AUTO 18018G26KT 10SM OVC014 09/08 A2957 1400 93 1000 180/18G26 RMK AO2 PK WND 18026/0429 $
94908KDBQ DBQ20090209224012802/09/09 22:40:31  5-MIN KDBQ 100440Z AUTO 18017G25KT 10SM OVC014 09/08 A2957 1410 93 1000 180/17G25 RMK AO2 PK WND 18026/0429 $
94908KDBQ DBQ20090209224512802/09/09 22:45:31  5-MIN KDBQ 100445Z AUTO 18019G26KT 10SM OVC014 09/08 A2957 1410 93 1100 180/19G26 RMK AO2 PK WND 18026/0441 $
94908KDBQ DBQ20090209225014502/09/09 22:50:31  5-MIN KDBQ 100450Z AUTO 18017G26KT 10SM OVC014 09/08 A2957 1410 93 1100 180/17G26 RMK AO2 PK WND 18026/0441 SLP017 T00890078 $
94908KDBQ DBQ20090209225511002/09/09 22:55:31  5-MIN KDBQ 100455Z AUTO 18016G23KT 10SM BKN012 09/08 A2957 1410 93 1100 180/16G23 RMK AO2 $
94908KDBQ DBQ20090209230011002/09/09 23:00:31  5-MIN KDBQ 100500Z AUTO 18016G23KT 10SM BKN012 09/07 A2957 1410 89 1100 180/16G23 RMK AO2 $
94908KDBQ DBQ20090209230510402/09/09 23:05:31  5-MIN KDBQ 100505Z AUTO 18018KT 10SM BKN012 09/07 A2956 1410 89 1100 180/18 RMK AO2 $
94908KDBQ DBQ20090209231010402/09/09 23:10:31  5-MIN KDBQ 100510Z AUTO 18017KT 10SM BKN012 08/07 A2956 1410 93 1000 180/17 RMK AO2 $
94908KDBQ DBQ20090209231510402/09/09 23:15:31  5-MIN KDBQ 100515Z AUTO 18015KT 10SM SCT012 08/07 A2956 1410 93 1000 180/15 RMK AO2 $
94908KDBQ DBQ20090209232011002/09/09 23:20:31  5-MIN KDBQ 100520Z AUTO 18017G23KT 10SM SCT012 08/07 A2956 1410 93 1000 180/17G23 RMK AO2 $
94908KDBQ DBQ20090209232510402/09/09 23:25:31  5-MIN KDBQ 100525Z AUTO 18017KT 10SM FEW012 08/07 A2956 1410 93 1000 180/17 RMK AO2 $
94908KDBQ DBQ20090209233010402/09/09 23:30:31  5-MIN KDBQ 100530Z AUTO 18018KT 10SM FEW012 08/07 A2956 1410 93 1000 180/18 RMK AO2 $
94908KDBQ DBQ20090209233510102/09/09 23:35:31  5-MIN KDBQ 100535Z AUTO 18017KT 10SM CLR 08/07 A2955 1420 93 1000 180/17 RMK AO2 $
94908KDBQ DBQ20090209234010102/09/09 23:40:31  5-MIN KDBQ 100540Z AUTO 18017KT 10SM CLR 08/07 A2955 1420 93 1000 170/17 RMK AO2 $
94908KDBQ DBQ20090209234510102/09/09 23:45:31  5-MIN KDBQ 100545Z AUTO 17018KT 10SM CLR 08/07 A2955 1420 93 1000 170/18 RMK AO2 $
94908KDBQ DBQ20090209235015202/09/09 23:50:31  5-MIN KDBQ 100550Z AUTO 18017KT 10SM CLR 08/07 A2955 1420 93 1000 170/17 RMK AO2 SLP011 60001 T00830072 10106 20083 401060011 55017 $
94908KDBQ DBQ20090209235510102/09/09 23:55:31  5-MIN KDBQ 100555Z AUTO 17017KT 10SM CLR 08/07 A2955 1420 93 1000 170/17 RMK AO2 $
94908KDBQ DBQ20090210000010702/10/09 00:00:38  5-MIN KDBQ 100600Z AUTO 17018G25KT 10SM CLR 08/07 A2955 1430 89 1000 170/18G25 RMK AO2 $
94908KDBQ DBQ20090210000510702/10/09 00:05:31  5-MIN KDBQ 100605Z AUTO 18016G25KT 10SM CLR 08/07 A2954 1430 89 1000 170/16G25 RMK AO2 $
94908KDBQ DBQ20090210001010702/10/09 00:10:31  5-MIN KDBQ 100610Z AUTO 17016G23KT 10SM CLR 08/07 A2954 1430 89 1000 170/16G23 RMK AO2 $
94908KDBQ DBQ20090210001510702/10/09 00:15:33  5-MIN KDBQ 100615Z AUTO 17017G23KT 10SM CLR 08/07 A2954 1430 89 1000 170/17G23 RMK AO2 $
94908KDBQ DBQ20090210002010002/10/09 00:20:31  5-MIN KDBQ 100620Z AUTO 17016KT 10SM CLR 08/07 A2954 1430 93 900 170/16 RMK AO2 $
94908KDBQ DBQ20090210002510102/10/09 00:25:31  5-MIN KDBQ 100625Z AUTO 17017KT 10SM CLR 08/07 A2954 1440 89 1000 170/17 RMK AO2 $
94908KDBQ DBQ20090210003010102/10/09 00:30:31  5-MIN KDBQ 100630Z AUTO 17017KT 10SM CLR 08/07 A2953 1440 93 1000 170/17 RMK AO2 $
94908KDBQ DBQ20090210003510102/10/09 00:35:31  5-MIN KDBQ 100635Z AUTO 17018KT 10SM CLR 08/07 A2953 1440 93 1000 170/18 RMK AO2 $
94908KDBQ DBQ20090210004010102/10/09 00:40:31  5-MIN KDBQ 100640Z AUTO 17017KT 10SM CLR 08/07 A2953 1440 89 1000 170/17 RMK AO2 $
94908KDBQ DBQ20090210004510102/10/09 00:45:31  5-MIN KDBQ 100645Z AUTO 17018KT 10SM CLR 08/07 A2952 1450 89 1000 170/18 RMK AO2 $
94908KDBQ DBQ20090210005011802/10/09 00:50:31  5-MIN KDBQ 100650Z AUTO 17019KT 10SM CLR 08/07 A2952 1450 93 1000 170/19 RMK AO2 SLP001 T00780067 $
94908KDBQ DBQ20090210005510102/10/09 00:55:31  5-MIN KDBQ 100655Z AUTO 18017KT 10SM CLR 08/07 A2952 1450 89 1000 170/17 RMK AO2 $
94908KDBQ DBQ20090210010010702/10/09 01:00:31  5-MIN KDBQ 100700Z AUTO 18019G24KT 10SM CLR 08/07 A2952 1450 89 1000 170/19G24 RMK AO2 $
94908KDBQ DBQ20090210010510702/10/09 01:05:31  5-MIN KDBQ 100705Z AUTO 18019G24KT 10SM CLR 08/07 A2952 1450 89 1000 180/19G24 RMK AO2 $
94908KDBQ DBQ20090210011012502/10/09 01:10:31  5-MIN KDBQ 100710Z AUTO 18020G26KT 10SM CLR 08/07 A2952 1450 89 1000 180/20G26 RMK AO2 PK WND 18026/0709 $
94908KDBQ DBQ20090210011512502/10/09 01:15:31  5-MIN KDBQ 100715Z AUTO 18019G26KT 10SM CLR 08/07 A2952 1450 89 1000 180/19G26 RMK AO2 PK WND 19026/0713 $
94908KDBQ DBQ20090210012012502/10/09 01:20:31  5-MIN KDBQ 100720Z AUTO 18017G26KT 10SM CLR 08/07 A2951 1460 89 1000 180/17G26 RMK AO2 PK WND 19026/0713 $
94908KDBQ DBQ20090210012512502/10/09 01:25:31  5-MIN KDBQ 100725Z AUTO 18018G24KT 10SM CLR 08/07 A2951 1460 89 1000 180/18G24 RMK AO2 PK WND 19026/0713 $
94908KDBQ DBQ20090210013012502/10/09 01:30:31  5-MIN KDBQ 100730Z AUTO 18018G25KT 10SM CLR 08/06 A2951 1460 86 1000 180/18G25 RMK AO2 PK WND 19026/0713 $
94908KDBQ DBQ20090210013512502/10/09 01:35:31  5-MIN KDBQ 100735Z AUTO 18019G25KT 10SM CLR 08/06 A2951 1460 86 1000 180/19G25 RMK AO2 PK WND 19026/0713 $
94908KDBQ DBQ20090210014012502/10/09 01:40:31  5-MIN KDBQ 100740Z AUTO 18018G26KT 10SM CLR 08/06 A2951 1460 86 1000 180/18G26 RMK AO2 PK WND 18026/0736 $
94908KDBQ DBQ20090210014512502/10/09 01:45:31  5-MIN KDBQ 100745Z AUTO 17018G26KT 10SM CLR 08/06 A2951 1460 86 1100 170/18G26 RMK AO2 PK WND 18026/0736 $
94908KDBQ DBQ20090210015014202/10/09 01:50:31  5-MIN KDBQ 100750Z AUTO 18019G26KT 10SM CLR 08/06 A2950 1470 86 1100 170/19G26 RMK AO2 PK WND 18026/0747 SLP993 T00830061 $
94908KDBQ DBQ20090210015510702/10/09 01:55:31  5-MIN KDBQ 100755Z AUTO 18018G26KT 10SM CLR 08/06 A2950 1470 89 1000 180/18G26 RMK AO2 $
94908KDBQ DBQ20090210020010702/10/09 02:00:31  5-MIN KDBQ 100800Z AUTO 17018G25KT 10SM CLR 08/06 A2950 1470 89 1000 170/18G25 RMK AO2 $
94908KDBQ DBQ20090210020510702/10/09 02:05:31  5-MIN KDBQ 100805Z AUTO 18018G25KT 10SM CLR 08/06 A2949 1480 89 1000 180/18G25 RMK AO2 $
94908KDBQ DBQ20090210021012502/10/09 02:10:31  5-MIN KDBQ 100810Z AUTO 18021G28KT 10SM CLR 08/06 A2949 1480 86 1100 180/21G28 RMK AO2 PK WND 18028/0809 $
94908KDBQ DBQ20090210021512502/10/09 02:15:31  5-MIN KDBQ 100815Z AUTO 18019G28KT 10SM CLR 08/06 A2949 1480 82 1100 180/19G28 RMK AO2 PK WND 18028/0809 $
94908KDBQ DBQ20090210022012502/10/09 02:20:31  5-MIN KDBQ 100820Z AUTO 18021G27KT 10SM CLR 08/06 A2949 1480 82 1100 180/21G27 RMK AO2 PK WND 18028/0809 $
94908KDBQ DBQ20090210022512502/10/09 02:25:31  5-MIN KDBQ 100825Z AUTO 18020G27KT 10SM CLR 08/06 A2949 1480 82 1100 180/20G27 RMK AO2 PK WND 18028/0809 $
94908KDBQ DBQ20090210023012502/10/09 02:30:31  5-MIN KDBQ 100830Z AUTO 18020G27KT 10SM CLR 08/06 A2949 1480 82 1100 180/20G27 RMK AO2 PK WND 18028/0809 $
94908KDBQ DBQ20090210023512502/10/09 02:35:31  5-MIN KDBQ 100835Z AUTO 19022G27KT 10SM CLR 08/06 A2949 1480 82 1100 180/22G27 RMK AO2 PK WND 18028/0809 $
94908KDBQ DBQ20090210024012502/10/09 02:40:31  5-MIN KDBQ 100840Z AUTO 19019G29KT 10SM CLR 08/06 A2949 1480 82 1100 190/19G29 RMK AO2 PK WND 18029/0836 $
94908KDBQ DBQ20090210024512502/10/09 02:45:31  5-MIN KDBQ 100845Z AUTO 19020G29KT 10SM CLR 08/06 A2949 1480 82 1100 190/20G29 RMK AO2 PK WND 18029/0836 $
94908KDBQ DBQ20090210025014802/10/09 02:50:31  5-MIN KDBQ 100850Z AUTO 19021G28KT 10SM CLR 08/06 A2949 1480 82 1100 190/21G28 RMK AO2 PK WND 18029/0836 SLP990 T00830056 56016 $
94908KDBQ DBQ20090210025512502/10/09 02:55:31  5-MIN KDBQ 100855Z AUTO 19021G28KT 10SM CLR 08/06 A2949 1480 82 1100 190/21G28 RMK AO2 PK WND 19028/0855 $
94908KDBQ DBQ20090210030012502/10/09 03:00:31  5-MIN KDBQ 100900Z AUTO 19021G28KT 10SM CLR 08/06 A2949 1480 82 1100 190/21G28 RMK AO2 PK WND 19028/0857 $
94908KDBQ DBQ20090210030512502/10/09 03:05:31  5-MIN KDBQ 100905Z AUTO 19023G30KT 10SM CLR 08/05 A2949 1480 79 1100 190/23G30 RMK AO2 PK WND 19030/0905 $
94908KDBQ DBQ20090210031012502/10/09 03:10:31  5-MIN KDBQ 100910Z AUTO 19021G30KT 10SM CLR 08/05 A2949 1480 79 1100 190/21G30 RMK AO2 PK WND 19030/0905 $
94908KDBQ DBQ20090210031512502/10/09 03:15:31  5-MIN KDBQ 100915Z AUTO 19022G28KT 10SM CLR 08/05 A2949 1480 79 1100 190/22G28 RMK AO2 PK WND 19030/0905 $
94908KDBQ DBQ20090210032012502/10/09 03:20:31  5-MIN KDBQ 100920Z AUTO 19024G31KT 10SM CLR 08/05 A2948 1490 79 1100 190/24G31 RMK AO2 PK WND 19031/0919 $
94908KDBQ DBQ20090210032512502/10/09 03:25:31  5-MIN KDBQ 100925Z AUTO 19021G31KT 10SM CLR 08/05 A2948 1490 79 1100 190/21G31 RMK AO2 PK WND 19031/0919 $
94908KDBQ DBQ20090210033012502/10/09 03:30:31  5-MIN KDBQ 100930Z AUTO 19024G31KT 10SM CLR 08/05 A2948 1490 79 1100 190/24G31 RMK AO2 PK WND 20031/0929 $
94908KDBQ DBQ20090210033512502/10/09 03:35:31  5-MIN KDBQ 100935Z AUTO 19023G31KT 10SM CLR 09/05 A2948 1490 76 1200 190/23G31 RMK AO2 PK WND 20031/0929 $
94908KDBQ DBQ20090210034012502/10/09 03:40:31  5-MIN KDBQ 100940Z AUTO 19022G31KT 10SM CLR 09/04 A2948 1490 73 1100 190/22G31 RMK AO2 PK WND 20031/0938 $
94908KDBQ DBQ20090210034512502/10/09 03:45:31  5-MIN KDBQ 100945Z AUTO 19024G31KT 10SM CLR 08/04 A2948 1490 76 1100 190/24G31 RMK AO2 PK WND 20031/0938 $
94908KDBQ DBQ20090210035014202/10/09 03:50:31  5-MIN KDBQ 100950Z AUTO 19022G31KT 10SM CLR 08/04 A2948 1490 76 1100 190/22G31 RMK AO2 PK WND 19031/0947 SLP985 T00830044 $
94908KDBQ DBQ20090210035512502/10/09 03:55:31  5-MIN KDBQ 100955Z AUTO 19022G31KT 10SM CLR 08/04 A2948 1490 76 1100 190/22G31 RMK AO2 PK WND 18028/0955 $
94908KDBQ DBQ20090210040012502/10/09 04:00:31  5-MIN KDBQ 101000Z AUTO 19023G30KT 10SM CLR 08/04 A2948 1490 76 1100 190/23G30 RMK AO2 PK WND 19030/1000 $
94908KDBQ DBQ20090210040512502/10/09 04:05:31  5-MIN KDBQ 101005Z AUTO 19025G32KT 10SM CLR 08/04 A2947 1490 76 1100 190/25G32 RMK AO2 PK WND 19032/1004 $
94908KDBQ DBQ20090210041012502/10/09 04:10:31  5-MIN KDBQ 101010Z AUTO 20024G32KT 10SM CLR 08/04 A2948 1490 76 1100 200/24G32 RMK AO2 PK WND 19032/1004 $
94908KDBQ DBQ20090210041512502/10/09 04:15:31  5-MIN KDBQ 101015Z AUTO 19021G29KT 10SM CLR 08/04 A2948 1490 76 1100 190/21G29 RMK AO2 PK WND 19032/1004 $
94908KDBQ DBQ20090210042012502/10/09 04:20:31  5-MIN KDBQ 101020Z AUTO 19021G29KT 10SM CLR 08/04 A2948 1490 76 1100 190/21G29 RMK AO2 PK WND 19032/1004 $
94908KDBQ DBQ20090210042512502/10/09 04:25:31  5-MIN KDBQ 101025Z AUTO 19024G30KT 10SM CLR 08/04 A2948 1490 76 1100 190/24G30 RMK AO2 PK WND 19032/1004 $
94908KDBQ DBQ20090210043012502/10/09 04:30:31  5-MIN KDBQ 101030Z AUTO 19021G30KT 10SM CLR 08/04 A2948 1490 76 1100 190/21G30 RMK AO2 PK WND 19032/1004 $
94908KDBQ DBQ20090210043512502/10/09 04:35:31  5-MIN KDBQ 101035Z AUTO 19020G29KT 10SM CLR 08/04 A2949 1480 79 1000 190/20G29 RMK AO2 PK WND 19032/1004 $
94908KDBQ DBQ20090210044012502/10/09 04:40:31  5-MIN KDBQ 101040Z AUTO 19019G26KT 10SM CLR 08/04 A2949 1480 76 1000 190/19G26 RMK AO2 PK WND 19032/1004 $
94908KDBQ DBQ20090210044512502/10/09 04:45:31  5-MIN KDBQ 101045Z AUTO 19020G27KT 10SM CLR 08/04 A2948 1480 76 1000 190/20G27 RMK AO2 PK WND 19032/1004 $
94908KDBQ DBQ20090210045014202/10/09 04:50:31  5-MIN KDBQ 101050Z AUTO 19020G27KT 10SM CLR 08/04 A2949 1480 76 1000 190/20G27 RMK AO2 PK WND 19032/1004 SLP988 T00780039 $
94908KDBQ DBQ20090210045510702/10/09 04:55:31  5-MIN KDBQ 101055Z AUTO 19020G27KT 10SM CLR 08/04 A2949 1480 76 1000 190/20G27 RMK AO2 $
94908KDBQ DBQ20090210050010702/10/09 05:00:31  5-MIN KDBQ 101100Z AUTO 19020G27KT 10SM CLR 08/04 A2949 1480 76 1000 190/20G27 RMK AO2 $
94908KDBQ DBQ20090210050510102/10/09 05:05:31  5-MIN KDBQ 101105Z AUTO 19018KT 10SM CLR 08/04 A2949 1480 76 1000 190/18 RMK AO2 $
94908KDBQ DBQ20090210051012502/10/09 05:10:31  5-MIN KDBQ 101110Z AUTO 18020G27KT 10SM CLR 08/04 A2949 1480 76 1000 180/20G27 RMK AO2 PK WND 19027/1109 $
94908KDBQ DBQ20090210051512402/10/09 05:15:31  5-MIN KDBQ 101115Z AUTO 20019G27KT 10SM CLR 07/04 A2950 1470 79 900 200/19G27 RMK AO2 PK WND 19027/1109 $
94908KDBQ DBQ20090210052011902/10/09 05:20:31  5-MIN KDBQ 101120Z AUTO 19019KT 10SM CLR 08/04 A2949 1480 76 1000 190/19 RMK AO2 PK WND 19027/1109 $
94908KDBQ DBQ20090210052511802/10/09 05:25:31  5-MIN KDBQ 101125Z AUTO 19019KT 10SM CLR 07/04 A2950 1470 79 900 190/19 RMK AO2 PK WND 19027/1109 $
94908KDBQ DBQ20090210053011802/10/09 05:30:31  5-MIN KDBQ 101130Z AUTO 20018KT 10SM CLR 07/04 A2950 1470 79 900 190/18 RMK AO2 PK WND 19027/1109 $
94908KDBQ DBQ20090210053512402/10/09 05:35:31  5-MIN KDBQ 101135Z AUTO 20018G24KT 10SM CLR 07/04 A2950 1470 79 900 190/18G24 RMK AO2 PK WND 19027/1109 $
94908KDBQ DBQ20090210054012402/10/09 05:40:31  5-MIN KDBQ 101140Z AUTO 20017G24KT 10SM CLR 07/03 A2950 1470 76 900 200/17G24 RMK AO2 PK WND 19027/1109 $
94908KDBQ DBQ20090210054511302/10/09 05:45:31  5-MIN KDBQ 101145Z 20019KT 10SM CLR 07/03 A2949 1470 76 900 190/19 RMK AO2 PK WND 19027/1109 $
94908KDBQ DBQ20090210055015402/10/09 05:50:31  5-MIN KDBQ 101150Z 20019KT 10SM CLR 07/03 A2950 1470 76 900 190/19 RMK AO2 PK WND 19027/1109 SLP992 7//// T00720033 10089 20072 56020 $
94908KDBQ DBQ20090210055509502/10/09 05:55:31  5-MIN KDBQ 101155Z 20018KT 10SM CLR 07/03 A2950 1470 76 900 200/18 RMK AO2 $
94908KDBQ DBQ20090210060010102/10/09 06:00:31  5-MIN KDBQ 101200Z 20018G24KT 10SM CLR 07/03 A2950 1470 76 900 200/18G24 RMK AO2 $
94908KDBQ DBQ20090210060509502/10/09 06:05:31  5-MIN KDBQ 101205Z 20017KT 10SM CLR 07/03 A2951 1460 76 900 190/17 RMK AO2 $
94908KDBQ DBQ20090210061009502/10/09 06:10:31  5-MIN KDBQ 101210Z 20017KT 10SM CLR 07/03 A2950 1470 79 900 200/17 RMK AO2 $
94908KDBQ DBQ20090210061509502/10/09 06:15:31  5-MIN KDBQ 101215Z 20018KT 10SM CLR 07/03 A2950 1470 79 900 200/18 RMK AO2 $
94908KDBQ DBQ20090210062009502/10/09 06:20:31  5-MIN KDBQ 101220Z 20016KT 10SM CLR 07/03 A2951 1460 79 900 200/16 RMK AO2 $
94908KDBQ DBQ20090210062509502/10/09 06:25:31  5-MIN KDBQ 101225Z 20017KT 10SM CLR 07/03 A2951 1460 79 800 200/17 RMK AO2 $
94908KDBQ DBQ20090210063009502/10/09 06:30:31  5-MIN KDBQ 101230Z 20016KT 10SM CLR 07/03 A2951 1460 79 800 200/16 RMK AO2 $
94908KDBQ DBQ20090210063509502/10/09 06:35:31  5-MIN KDBQ 101235Z 21017KT 10SM CLR 07/03 A2951 1460 76 900 200/17 RMK AO2 $
94908KDBQ DBQ20090210064009502/10/09 06:40:31  5-MIN KDBQ 101240Z 20017KT 10SM CLR 07/03 A2951 1460 79 800 200/17 RMK AO2 $
94908KDBQ DBQ20090210064509502/10/09 06:45:31  5-MIN KDBQ 101245Z 21016KT 10SM CLR 07/03 A2951 1460 76 900 210/16 RMK AO2 $
94908KDBQ DBQ20090210065013602/10/09 06:50:31  5-MIN KDBQ 101250Z 21018G27KT 10SM CLR 07/03 A2951 1460 76 900 210/18G27 RMK AO2 PK WND 21027/1246 SLP998 T00720033 $
94908KDBQ DBQ20090210065510102/10/09 06:55:31  5-MIN KDBQ 101255Z 20018G27KT 10SM CLR 07/03 A2952 1460 76 900 200/18G27 RMK AO2 $
94908KDBQ DBQ20090210070009502/10/09 07:00:31  5-MIN KDBQ 101300Z 21019KT 10SM CLR 07/03 A2952 1450 76 900 200/19 RMK AO2 $
94908KDBQ DBQ20090210070509502/10/09 07:05:31  5-MIN KDBQ 101305Z 21018KT 10SM CLR 07/03 A2952 1450 76 900 210/18 RMK AO2 $
94908KDBQ DBQ20090210071009502/10/09 07:10:31  5-MIN KDBQ 101310Z 21018KT 10SM CLR 07/03 A2953 1450 73 900 210/18 RMK AO2 $
94908KDBQ DBQ20090210071509502/10/09 07:15:31  5-MIN KDBQ 101315Z 21016KT 10SM CLR 07/03 A2953 1440 73 900 210/16 RMK AO2 $
94908KDBQ DBQ20090210072009502/10/09 07:20:31  5-MIN KDBQ 101320Z 21017KT 10SM CLR 07/03 A2953 1440 73 900 210/17 RMK AO2 $
94908KDBQ DBQ20090210072511902/10/09 07:25:31  5-MIN KDBQ 101325Z 21018G28KT 10SM CLR 07/03 A2953 1440 73 900 210/18G28 RMK AO2 PK WND 21028/1322 $
94908KDBQ DBQ20090210073011902/10/09 07:30:31  5-MIN KDBQ 101330Z 21019G28KT 10SM CLR 07/03 A2953 1440 73 900 200/19G28 RMK AO2 PK WND 21028/1322 $
94908KDBQ DBQ20090210073511302/10/09 07:35:31  5-MIN KDBQ 101335Z 21019KT 10SM CLR 07/03 A2953 1440 73 900 210/19 RMK AO2 PK WND 21028/1322 $
94908KDBQ DBQ20090210074011902/10/09 07:40:31  5-MIN KDBQ 101340Z 21019G25KT 10SM CLR 07/03 A2953 1440 73 900 200/19G25 RMK AO2 PK WND 21028/1322 $
94908KDBQ DBQ20090210074511302/10/09 07:45:31  5-MIN KDBQ 101345Z 20019KT 10SM CLR 07/03 A2953 1440 73 900 200/19 RMK AO2 PK WND 21028/1322 $
94908KDBQ DBQ20090210075013002/10/09 07:50:31  5-MIN KDBQ 101350Z 21018KT 10SM CLR 07/03 A2954 1430 73 900 210/18 RMK AO2 PK WND 21028/1322 SLP006 T00720028 $
94908KDBQ DBQ20090210075509502/10/09 07:55:31  5-MIN KDBQ 101355Z 21018KT 10SM CLR 07/03 A2954 1430 73 900 200/18 RMK AO2 $
94908KDBQ DBQ20090210080010102/10/09 08:00:31  5-MIN KDBQ 101400Z 21017G24KT 10SM CLR 08/03 A2955 1430 70 900 210/17G24 RMK AO2 $
94908KDBQ DBQ20090210080510102/10/09 08:05:31  5-MIN KDBQ 101405Z 21017G24KT 10SM CLR 08/03 A2955 1420 73 900 210/17G24 RMK AO2 $
94908KDBQ DBQ20090210081009502/10/09 08:10:31  5-MIN KDBQ 101410Z 21018KT 10SM CLR 08/03 A2955 1420 73 900 210/18 RMK AO2 $
94908KDBQ DBQ20090210081511702/10/09 08:15:31  5-MIN KDBQ 101415Z 21019G26KT 10SM CLR 08/03 A2955 1420 73 900 210/19G26 RMK AO2 PK WND 21026/1415
94908KDBQ DBQ20090210082011702/10/09 08:20:31  5-MIN KDBQ 101420Z 21019G26KT 10SM CLR 08/03 A2955 1420 73 900 210/19G26 RMK AO2 PK WND 21026/1415
94908KDBQ DBQ20090210082511202/10/09 08:25:31  5-MIN KDBQ 101425Z 21020KT 10SM CLR 08/03 A2956 1420 70 1000 210/20 RMK AO2 PK WND 21026/1415
94908KDBQ DBQ20090210083011802/10/09 08:30:31  5-MIN KDBQ 101430Z 21020G27KT 10SM CLR 08/03 A2956 1410 68 1000 210/20G27 RMK AO2 PK WND 21027/1430
94908KDBQ DBQ20090210083511802/10/09 08:35:31  5-MIN KDBQ 101435Z 21018G27KT 10SM CLR 08/03 A2956 1420 68 1000 210/18G27 RMK AO2 PK WND 21027/1430
94908KDBQ DBQ20090210084011802/10/09 08:40:31  5-MIN KDBQ 101440Z 22021G27KT 10SM CLR 09/03 A2956 1420 65 1100 220/21G27 RMK AO2 PK WND 22027/1439
94908KDBQ DBQ20090210084511802/10/09 08:45:31  5-MIN KDBQ 101445Z 22019G27KT 10SM CLR 09/03 A2956 1410 65 1100 220/19G27 RMK AO2 PK WND 22027/1439
94908KDBQ DBQ20090210085014102/10/09 08:50:31  5-MIN KDBQ 101450Z 22019G28KT 10SM CLR 09/03 A2956 1410 65 1100 210/19G28 RMK AO2 PK WND 21028/1448 SLP014 T00890028 53004
94908KDBQ DBQ20090210085510002/10/09 08:55:31  5-MIN KDBQ 101455Z 22018G28KT 10SM CLR 09/03 A2956 1410 65 1100 220/18G28 RMK AO2
94908KDBQ DBQ20090210090011802/10/09 09:00:31  5-MIN KDBQ 101500Z 22020G27KT 10SM CLR 09/03 A2957 1410 65 1000 220/20G27 RMK AO2 PK WND 22027/1458
94908KDBQ DBQ20090210090511802/10/09 09:05:31  5-MIN KDBQ 101505Z 22021G28KT 10SM CLR 09/03 A2957 1410 65 1100 220/21G28 RMK AO2 PK WND 22028/1505
94908KDBQ DBQ20090210091011802/10/09 09:10:31  5-MIN KDBQ 101510Z 22019G28KT 10SM CLR 09/03 A2957 1410 65 1000 220/19G28 RMK AO2 PK WND 22028/1505
94908KDBQ DBQ20090210091511802/10/09 09:15:31  5-MIN KDBQ 101515Z 22022G27KT 10SM CLR 09/03 A2957 1400 65 1000 220/22G27 RMK AO2 PK WND 22028/1505
94908KDBQ DBQ20090210092011802/10/09 09:20:31  5-MIN KDBQ 101520Z 22022G27KT 10SM CLR 09/03 A2957 1400 65 1000 220/22G27 RMK AO2 PK WND 22028/1505
94908KDBQ DBQ20090210092511802/10/09 09:25:31  5-MIN KDBQ 101525Z 22022G28KT 10SM CLR 09/03 A2958 1400 65 1000 220/22G28 RMK AO2 PK WND 22028/1524
94908KDBQ DBQ20090210093011802/10/09 09:30:31  5-MIN KDBQ 101530Z 22021G28KT 10SM CLR 09/03 A2958 1390 65 1000 220/21G28 RMK AO2 PK WND 22028/1528
94908KDBQ DBQ20090210093511802/10/09 09:35:31  5-MIN KDBQ 101535Z 22021G28KT 10SM CLR 09/03 A2958 1390 65 1000 220/21G28 RMK AO2 PK WND 22028/1528
94908KDBQ DBQ20090210094011802/10/09 09:40:31  5-MIN KDBQ 101540Z 22021G27KT 10SM CLR 09/03 A2959 1390 65 1000 220/21G27 RMK AO2 PK WND 22028/1528
94908KDBQ DBQ20090210094511802/10/09 09:45:31  5-MIN KDBQ 101545Z 22017G29KT 10SM CLR 09/03 A2959 1390 65 1000 220/17G29 RMK AO2 PK WND 22029/1542
94908KDBQ DBQ20090210095013502/10/09 09:50:31  5-MIN KDBQ 101550Z 22019G29KT 10SM CLR 09/03 A2959 1390 65 1000 220/19G29 RMK AO2 PK WND 22029/1542 SLP022 T00890028
94908KDBQ DBQ20090210095510002/10/09 09:55:31  5-MIN KDBQ 101555Z 22020G25KT 10SM CLR 09/03 A2959 1390 65 1000 220/20G25 RMK AO2
94908KDBQ DBQ20090210100010002/10/09 10:00:31  5-MIN KDBQ 101600Z 22020G25KT 10SM CLR 09/03 A2959 1390 65 1100 220/20G25 RMK AO2
94908KDBQ DBQ20090210100510602/10/09 10:05:31  5-MIN KDBQ 101605Z 23017G25KT 10SM CLR 09/03 A2958 1390 65 1100 230/17G25 RMK AO2 P0001
94908KDBQ DBQ20090210101012402/10/09 10:10:31  5-MIN KDBQ 101610Z 22021G26KT 10SM CLR 09/03 A2958 1390 63 1100 220/21G26 RMK AO2 PK WND 23026/1608 P0001
94908KDBQ DBQ20090210101512402/10/09 10:15:31  5-MIN KDBQ 101615Z 22021G30KT 10SM CLR 09/03 A2959 1390 63 1100 220/21G30 RMK AO2 PK WND 22030/1614 P0001
94908KDBQ DBQ20090210102012402/10/09 10:20:31  5-MIN KDBQ 101620Z 23018G30KT 10SM CLR 09/03 A2959 1380 65 1100 220/18G30 RMK AO2 PK WND 22030/1614 P0001
94908KDBQ DBQ20090210102512402/10/09 10:25:31  5-MIN KDBQ 101625Z 23020G26KT 10SM CLR 10/03 A2959 1380 63 1200 220/20G26 RMK AO2 PK WND 22030/1614 P0001
94908KDBQ DBQ20090210103011802/10/09 10:30:31  5-MIN KDBQ 101630Z 23021KT 10SM CLR 10/03 A2960 1380 63 1100 230/21 RMK AO2 PK WND 22030/1614 P0001
94908KDBQ DBQ20090210103512402/10/09 10:35:31  5-MIN KDBQ 101635Z 23021G28KT 10SM CLR 10/03 A2960 1380 63 1100 230/21G28 RMK AO2 PK WND 22030/1614 P0001
94908KDBQ DBQ20090210104012402/10/09 10:40:31  5-MIN KDBQ 101640Z 24022G28KT 10SM CLR 10/03 A2960 1380 60 1100 230/22G28 RMK AO2 PK WND 22030/1614 P0001
94908KDBQ DBQ20090210104512402/10/09 10:45:31  5-MIN KDBQ 101645Z 23020G28KT 10SM CLR 10/03 A2960 1380 63 1100 230/20G28 RMK AO2 PK WND 22030/1614 P0001
94908KDBQ DBQ20090210105014102/10/09 10:50:31  5-MIN KDBQ 101650Z 24024G27KT 10SM CLR 11/03 A2960 1370 61 1200 240/24G27 RMK AO2 PK WND 22030/1614 SLP027 P0001 T01060033
94908KDBQ DBQ20090210105511802/10/09 10:55:31  5-MIN KDBQ 101655Z 23026G32KT 10SM CLR 11/03 A2960 1380 61 1200 230/26G32 RMK AO2 PK WND 24032/1654
94908KDBQ DBQ20090210110011802/10/09 11:00:31  5-MIN KDBQ 101700Z 24023G32KT 10SM CLR 11/03 A2961 1370 61 1200 240/23G32 RMK AO2 PK WND 24032/1654
94908KDBQ DBQ20090210110511802/10/09 11:05:31  5-MIN KDBQ 101705Z 24022G31KT 10SM CLR 11/03 A2961 1370 58 1200 240/22G31 RMK AO2 PK WND 24032/1654
94908KDBQ DBQ20090210111011802/10/09 11:10:31  5-MIN KDBQ 101710Z 24023G31KT 10SM CLR 11/03 A2961 1370 61 1200 240/23G31 RMK AO2 PK WND 24032/1654
94908KDBQ DBQ20090210111511802/10/09 11:15:31  5-MIN KDBQ 101715Z 24025G32KT 10SM CLR 11/03 A2961 1370 58 1200 240/25G32 RMK AO2 PK WND 25032/1713
94908KDBQ DBQ20090210112011802/10/09 11:20:31  5-MIN KDBQ 101720Z 24025G33KT 10SM CLR 11/03 A2961 1370 58 1200 240/25G33 RMK AO2 PK WND 25033/1720
94908KDBQ DBQ20090210112511802/10/09 11:25:31  5-MIN KDBQ 101725Z 25024G33KT 10SM CLR 11/03 A2962 1360 58 1200 250/24G33 RMK AO2 PK WND 25033/1720
94908KDBQ DBQ20090210113011802/10/09 11:30:31  5-MIN KDBQ 101730Z 24023G32KT 10SM CLR 11/03 A2962 1360 58 1200 240/23G32 RMK AO2 PK WND 25033/1720
94908KDBQ DBQ20090210113511802/10/09 11:35:31  5-MIN KDBQ 101735Z 25022G30KT 10SM CLR 11/03 A2962 1360 58 1200 250/22G30 RMK AO2 PK WND 25033/1720
94908KDBQ DBQ20090210114011802/10/09 11:40:31  5-MIN KDBQ 101740Z 25020G28KT 10SM CLR 11/03 A2961 1370 61 1200 250/20G28 RMK AO2 PK WND 25033/1720
94908KDBQ DBQ20090210114511802/10/09 11:45:31  5-MIN KDBQ 101745Z 24023G30KT 10SM CLR 11/03 A2962 1360 58 1200 240/23G30 RMK AO2 PK WND 25033/1720
94908KDBQ DBQ20090210115015902/10/09 11:50:31  5-MIN KDBQ 101750Z 24023G30KT 10SM CLR 11/03 A2962 1350 61 1200 240/23G30 RMK AO2 PK WND 25033/1720 SLP034 60001 T01060033 10106 20067 53021
94908KDBQ DBQ20090210115511802/10/09 11:55:31  5-MIN KDBQ 101755Z 25021G30KT 10SM CLR 11/03 A2963 1350 58 1200 250/21G30 RMK AO2 PK WND 24026/1755
94908KDBQ DBQ20090210120011802/10/09 12:00:31  5-MIN KDBQ 101800Z 25018G28KT 10SM CLR 11/03 A2963 1350 61 1200 240/18G28 RMK AO2 PK WND 24027/1757
94908KDBQ DBQ20090210120511802/10/09 12:05:31  5-MIN KDBQ 101805Z 24021G26KT 10SM CLR 11/03 A2963 1350 61 1200 240/21G26 RMK AO2 PK WND 24027/1757
94908KDBQ DBQ20090210121011802/10/09 12:10:31  5-MIN KDBQ 101810Z 25020G28KT 10SM CLR 11/03 A2963 1350 58 1200 250/20G28 RMK AO2 PK WND 25028/1808
94908KDBQ DBQ20090210121511802/10/09 12:15:31  5-MIN KDBQ 101815Z 26021G28KT 10SM CLR 11/03 A2963 1350 56 1200 250/21G28 RMK AO2 PK WND 25028/1808
94908KDBQ DBQ20090210122011802/10/09 12:20:31  5-MIN KDBQ 101820Z 25020G27KT 10SM CLR 11/03 A2962 1350 56 1200 250/20G27 RMK AO2 PK WND 25028/1808
94908KDBQ DBQ20090210122511802/10/09 12:25:31  5-MIN KDBQ 101825Z 24018G27KT 10SM CLR 11/03 A2963 1350 58 1200 240/18G27 RMK AO2 PK WND 25028/1808
94908KDBQ DBQ20090210123011202/10/09 12:30:31  5-MIN KDBQ 101830Z 24019KT 10SM CLR 11/03 A2963 1350 58 1200 240/19 RMK AO2 PK WND 25028/1808
94908KDBQ DBQ20090210123511202/10/09 12:35:31  5-MIN KDBQ 101835Z 24019KT 10SM CLR 11/03 A2963 1350 56 1200 240/19 RMK AO2 PK WND 25028/1808
94908KDBQ DBQ20090210124011802/10/09 12:40:31  5-MIN KDBQ 101840Z 23020G24KT 10SM CLR 11/03 A2963 1350 58 1200 230/20G24 RMK AO2 PK WND 25028/1808
94908KDBQ DBQ20090210124511802/10/09 12:45:31  5-MIN KDBQ 101845Z 23019G25KT 10SM CLR 11/03 A2963 1350 56 1200 230/19G25 RMK AO2 PK WND 25028/1808
94908KDBQ DBQ20090210125013502/10/09 12:50:31  5-MIN KDBQ 101850Z 23020G25KT 10SM CLR 11/03 A2963 1350 56 1200 230/20G25 RMK AO2 PK WND 25028/1808 SLP037 T01110028
94908KDBQ DBQ20090210125509402/10/09 12:55:31  5-MIN KDBQ 101855Z 23018KT 10SM CLR 11/03 A2963 1350 56 1200 230/18 RMK AO2
94908KDBQ DBQ20090210130009402/10/09 13:00:31  5-MIN KDBQ 101900Z 24019KT 10SM CLR 12/03 A2963 1350 54 1300 240/19 RMK AO2
94908KDBQ DBQ20090210130510002/10/09 13:05:31  5-MIN KDBQ 101905Z 24019G25KT 10SM CLR 12/03 A2963 1350 54 1300 240/19G25 RMK AO2
94908KDBQ DBQ20090210131010002/10/09 13:10:31  5-MIN KDBQ 101910Z 23018G25KT 10SM CLR 12/03 A2963 1350 54 1300 230/18G25 RMK AO2
94908KDBQ DBQ20090210131510002/10/09 13:15:31  5-MIN KDBQ 101915Z 24020G24KT 10SM CLR 12/03 A2963 1350 54 1300 240/20G24 RMK AO2
94908KDBQ DBQ20090210132010002/10/09 13:20:31  5-MIN KDBQ 101920Z 24017G25KT 10SM CLR 12/02 A2964 1340 52 1300 240/17G25 RMK AO2
94908KDBQ DBQ20090210132510002/10/09 13:25:31  5-MIN KDBQ 101925Z 24020G25KT 10SM CLR 12/03 A2963 1350 52 1400 240/20G25 RMK AO2
94908KDBQ DBQ20090210133010002/10/09 13:30:31  5-MIN KDBQ 101930Z 23019G25KT 10SM CLR 12/02 A2963 1350 50 1400 230/19G25 RMK AO2
94908KDBQ DBQ20090210133511802/10/09 13:35:31  5-MIN KDBQ 101935Z 23021G26KT 10SM CLR 12/02 A2964 1340 50 1400 230/21G26 RMK AO2 PK WND 24026/1935
94908KDBQ DBQ20090210134011802/10/09 13:40:31  5-MIN KDBQ 101940Z 23020G27KT 10SM CLR 12/02 A2963 1350 50 1400 230/20G27 RMK AO2 PK WND 24027/1938
94908KDBQ DBQ20090210134511802/10/09 13:45:31  5-MIN KDBQ 101945Z 23020G27KT 10SM CLR 12/02 A2963 1350 48 1400 230/20G27 RMK AO2 PK WND 24027/1938
94908KDBQ DBQ20090210135013502/10/09 13:50:31  5-MIN KDBQ 101950Z 24019G24KT 10SM CLR 12/02 A2963 1350 50 1400 240/19G24 RMK AO2 PK WND 24027/1938 SLP036 T01220022
94908KDBQ DBQ20090210135510002/10/09 13:55:31  5-MIN KDBQ 101955Z 22017G23KT 10SM CLR 12/02 A2963 1350 48 1400 220/17G23 RMK AO2
94908KDBQ DBQ20090210140010002/10/09 14:00:31  5-MIN KDBQ 102000Z 22015G24KT 10SM CLR 12/02 A2963 1340 50 1400 220/15G24 RMK AO2
94908KDBQ DBQ20090210140510002/10/09 14:05:31  5-MIN KDBQ 102005Z 22015G24KT 10SM CLR 12/03 A2963 1340 52 1400 220/15G24 RMK AO2
94908KDBQ DBQ20090210141010002/10/09 14:10:31  5-MIN KDBQ 102010Z 22014G21KT 10SM CLR 12/02 A2964 1340 50 1400 220/14G21 RMK AO2
94908KDBQ DBQ20090210141510002/10/09 14:15:31  5-MIN KDBQ 102015Z 21014G21KT 10SM CLR 12/02 A2964 1340 50 1400 210/14G21 RMK AO2
94908KDBQ DBQ20090210142009402/10/09 14:20:31  5-MIN KDBQ 102020Z 21016KT 10SM CLR 12/03 A2964 1340 52 1400 210/16 RMK AO2
94908KDBQ DBQ20090210142509402/10/09 14:25:31  5-MIN KDBQ 102025Z 22015KT 10SM CLR 12/02 A2964 1340 50 1400 220/15 RMK AO2
94908KDBQ DBQ20090210143009402/10/09 14:30:31  5-MIN KDBQ 102030Z 22017KT 10SM CLR 12/02 A2964 1340 50 1400 220/17 RMK AO2
94908KDBQ DBQ20090210143509402/10/09 14:35:31  5-MIN KDBQ 102035Z 22016KT 10SM CLR 12/02 A2964 1330 50 1400 220/16 RMK AO2
94908KDBQ DBQ20090210144009402/10/09 14:40:31  5-MIN KDBQ 102040Z 23014KT 10SM CLR 12/02 A2965 1330 50 1400 230/14 RMK AO2
94908KDBQ DBQ20090210144509902/10/09 14:45:31  5-MIN KDBQ 102045Z AUTO 22014KT 10SM CLR 13/03 A2965 1330 50 1400 220/14 RMK AO2
94908KDBQ DBQ20090210145012202/10/09 14:50:31  5-MIN KDBQ 102050Z AUTO 23013KT 10SM CLR 13/02 A2965 1330 48 1400 230/13 RMK AO2 SLP043 T01280022 53020
94908KDBQ DBQ20090210145509402/10/09 14:55:31  5-MIN KDBQ 102055Z 22013KT 10SM CLR 13/02 A2965 1330 48 1400 220/13 RMK AO2
94908KDBQ DBQ20090210150009402/10/09 15:00:31  5-MIN KDBQ 102100Z 22014KT 10SM CLR 13/03 A2965 1330 50 1400 220/14 RMK AO2
94908KDBQ DBQ20090210150509402/10/09 15:05:31  5-MIN KDBQ 102105Z 22014KT 10SM CLR 13/02 A2966 1320 48 1400 220/14 RMK AO2
94908KDBQ DBQ20090210151009402/10/09 15:10:31  5-MIN KDBQ 102110Z 22015KT 10SM CLR 13/02 A2966 1320 48 1400 220/15 RMK AO2
94908KDBQ DBQ20090210151510002/10/09 15:15:31  5-MIN KDBQ 102115Z 22015G20KT 10SM CLR 13/02 A2965 1330 48 1400 220/15G20 RMK AO2
94908KDBQ DBQ20090210152009402/10/09 15:20:31  5-MIN KDBQ 102120Z 22013KT 10SM CLR 13/03 A2966 1320 50 1400 220/13 RMK AO2
94908KDBQ DBQ20090210152509402/10/09 15:25:31  5-MIN KDBQ 102125Z 23014KT 10SM CLR 13/02 A2966 1320 48 1400 220/14 RMK AO2
94908KDBQ DBQ20090210153009402/10/09 15:30:31  5-MIN KDBQ 102130Z 22011KT 10SM CLR 13/03 A2966 1320 50 1400 220/11 RMK AO2
94908KDBQ DBQ20090210153509402/10/09 15:35:31  5-MIN KDBQ 102135Z 20012KT 10SM CLR 13/03 A2966 1320 50 1400 200/12 RMK AO2
94908KDBQ DBQ20090210154010002/10/09 15:40:31  5-MIN KDBQ 102140Z 20015G19KT 10SM CLR 13/03 A2966 1320 52 1400 200/15G19 RMK AO2
94908KDBQ DBQ20090210154510002/10/09 15:45:31  5-MIN KDBQ 102145Z 21014G19KT 10SM CLR 12/03 A2966 1320 52 1300 210/14G19 RMK AO2
94908KDBQ DBQ20090210155011702/10/09 15:50:31  5-MIN KDBQ 102150Z 21014KT 10SM CLR 13/03 A2966 1320 50 1400 210/14 RMK AO2 SLP047 P0001 T01280028
94908KDBQ DBQ20090210155509402/10/09 15:55:31  5-MIN KDBQ 102155Z 21013KT 10SM CLR 12/03 A2967 1310 52 1300 210/13 RMK AO2
94908KDBQ DBQ20090210160009402/10/09 16:00:31  5-MIN KDBQ 102200Z 21011KT 10SM CLR 12/03 A2967 1310 54 1300 210/11 RMK AO2
94908KDBQ DBQ20090210160509402/10/09 16:05:31  5-MIN KDBQ 102205Z 21013KT 10SM CLR 12/03 A2967 1310 54 1300 210/13 RMK AO2
94908KDBQ DBQ20090210161009402/10/09 16:10:31  5-MIN KDBQ 102210Z 21013KT 10SM CLR 12/03 A2967 1310 54 1300 200/13 RMK AO2
94908KDBQ DBQ20090210161509402/10/09 16:15:31  5-MIN KDBQ 102215Z 21011KT 10SM CLR 12/03 A2967 1310 56 1300 200/11 RMK AO2
94908KDBQ DBQ20090210162009402/10/09 16:20:31  5-MIN KDBQ 102220Z 21010KT 10SM CLR 12/03 A2967 1310 56 1300 210/10 RMK AO2
94908KDBQ DBQ20090210162509402/10/09 16:25:31  5-MIN KDBQ 102225Z 21010KT 10SM CLR 12/03 A2967 1310 56 1300 210/10 RMK AO2
94908KDBQ DBQ20090210163009402/10/09 16:30:31  5-MIN KDBQ 102230Z 21010KT 10SM CLR 12/03 A2967 1310 56 1300 210/10 RMK AO2
94908KDBQ DBQ20090210163509402/10/09 16:35:31  5-MIN KDBQ 102235Z 21010KT 10SM CLR 12/03 A2967 1310 56 1300 210/10 RMK AO2
94908KDBQ DBQ20090210164009402/10/09 16:40:31  5-MIN KDBQ 102240Z 21010KT 10SM CLR 11/03 A2967 1310 58 1200 210/10 RMK AO2
94908KDBQ DBQ20090210164509402/10/09 16:45:31  5-MIN KDBQ 102245Z 21010KT 10SM CLR 11/03 A2967 1310 56 1200 210/10 RMK AO2
94908KDBQ DBQ20090210165011102/10/09 16:50:31  5-MIN KDBQ 102250Z 21010KT 10SM CLR 11/03 A2968 1310 56 1200 210/10 RMK AO2 SLP052 T01110028
94908KDBQ DBQ20090210165509402/10/09 16:55:31  5-MIN KDBQ 102255Z 21011KT 10SM CLR 11/03 A2968 1300 56 1200 210/11 RMK AO2
94908KDBQ DBQ20090210170009402/10/09 17:00:31  5-MIN KDBQ 102300Z 21010KT 10SM CLR 10/03 A2968 1300 60 1100 210/10 RMK AO2
94908KDBQ DBQ20090210170509402/10/09 17:05:31  5-MIN KDBQ 102305Z 21009KT 10SM CLR 10/03 A2968 1300 60 1100 210/09 RMK AO2
94908KDBQ DBQ20090210171009402/10/09 17:10:31  5-MIN KDBQ 102310Z 21009KT 10SM CLR 10/03 A2968 1300 60 1100 210/09 RMK AO2
94908KDBQ DBQ20090210171509402/10/09 17:15:31  5-MIN KDBQ 102315Z 21008KT 10SM CLR 09/02 A2968 1300 60 1000 210/08 RMK AO2
94908KDBQ DBQ20090210172009302/10/09 17:20:31  5-MIN KDBQ 102320Z 21008KT 10SM CLR 09/02 A2968 1300 63 900 210/08 RMK AO2
94908KDBQ DBQ20090210172509302/10/09 17:25:31  5-MIN KDBQ 102325Z 21008KT 10SM CLR 08/02 A2968 1300 65 900 210/08 RMK AO2
94908KDBQ DBQ20090210173009302/10/09 17:30:31  5-MIN KDBQ 102330Z 21008KT 10SM CLR 08/02 A2968 1300 68 800 210/08 RMK AO2
94908KDBQ DBQ20090210173509302/10/09 17:35:31  5-MIN KDBQ 102335Z 21008KT 10SM CLR 07/02 A2968 1300 70 700 210/08 RMK AO2
94908KDBQ DBQ20090210174009302/10/09 17:40:31  5-MIN KDBQ 102340Z 21008KT 10SM CLR 07/02 A2969 1300 70 700 210/08 RMK AO2
94908KDBQ DBQ20090210174509302/10/09 17:45:31  5-MIN KDBQ 102345Z 21007KT 10SM CLR 07/02 A2969 1290 70 700 210/07 RMK AO2
94908KDBQ DBQ20090210175013402/10/09 17:50:31  5-MIN KDBQ 102350Z 21006KT 10SM CLR 06/02 A2969 1290 76 500 210/06 RMK AO2 SLP060 60001 T00560017 10128 20056 53009
94908KDBQ DBQ20090210175509302/10/09 17:55:31  5-MIN KDBQ 102355Z 21005KT 10SM CLR 06/02 A2969 1290 73 600 210/05 RMK AO2
94908KDBQ DBQ20090210180009302/10/09 18:00:31  5-MIN KDBQ 110000Z 19007KT 10SM CLR 06/02 A2969 1290 73 600 190/07 RMK AO2
94908KDBQ DBQ20090210180509302/10/09 18:05:31  5-MIN KDBQ 110005Z 20008KT 10SM CLR 07/02 A2969 1290 70 600 200/08 RMK AO2
94908KDBQ DBQ20090210181009302/10/09 18:10:31  5-MIN KDBQ 110010Z 20007KT 10SM CLR 07/02 A2969 1290 70 600 200/07 RMK AO2
94908KDBQ DBQ20090210181509302/10/09 18:15:31  5-MIN KDBQ 110015Z 20006KT 10SM CLR 06/02 A2969 1290 73 600 200/06 RMK AO2
94908KDBQ DBQ20090210182009302/10/09 18:20:31  5-MIN KDBQ 110020Z 19006KT 10SM CLR 06/01 A2970 1290 70 600 190/06 RMK AO2
94908KDBQ DBQ20090210182509302/10/09 18:25:31  5-MIN KDBQ 110025Z 20005KT 10SM CLR 06/02 A2970 1280 73 600 200/05 RMK AO2
94908KDBQ DBQ20090210183009302/10/09 18:30:31  5-MIN KDBQ 110030Z 21005KT 10SM CLR 06/02 A2970 1290 73 600 210/05 RMK AO2
94908KDBQ DBQ20090210183509302/10/09 18:35:31  5-MIN KDBQ 110035Z 20005KT 10SM CLR 05/01 A2970 1280 76 400 200/05 RMK AO2
94908KDBQ DBQ20090210184009302/10/09 18:40:31  5-MIN KDBQ 110040Z 20005KT 10SM CLR 05/01 A2970 1290 76 400 200/05 RMK AO2
94908KDBQ DBQ20090210184509302/10/09 18:45:31  5-MIN KDBQ 110045Z 19005KT 10SM CLR 04/01 A2970 1290 79 400 190/05 RMK AO2
94908KDBQ DBQ20090210185011002/10/09 18:50:31  5-MIN KDBQ 110050Z 20005KT 10SM CLR 04/01 A2970 1290 79 400 200/05 RMK AO2 SLP062 T00440011
94908KDBQ DBQ20090210185509302/10/09 18:55:31  5-MIN KDBQ 110055Z 20007KT 10SM CLR 04/01 A2970 1280 79 400 200/07 RMK AO2
94908KDBQ DBQ20090210190009302/10/09 19:00:31  5-MIN KDBQ 110100Z 20007KT 10SM CLR 04/01 A2970 1280 79 300 200/07 RMK AO2
94908KDBQ DBQ20090210190509302/10/09 19:05:31  5-MIN KDBQ 110105Z 19007KT 10SM CLR 04/01 A2970 1280 79 400 190/07 RMK AO2
94908KDBQ DBQ20090210191009302/10/09 19:10:31  5-MIN KDBQ 110110Z 19006KT 10SM CLR 04/01 A2970 1290 79 400 190/06 RMK AO2
94908KDBQ DBQ20090210191509302/10/09 19:15:31  5-MIN KDBQ 110115Z 18006KT 10SM CLR 04/01 A2969 1290 79 400 180/06 RMK AO2
94908KDBQ DBQ20090210192009302/10/09 19:20:31  5-MIN KDBQ 110120Z 19007KT 10SM CLR 04/01 A2970 1280 79 400 190/07 RMK AO2
94908KDBQ DBQ20090210192509302/10/09 19:25:31  5-MIN KDBQ 110125Z 20005KT 10SM CLR 04/01 A2970 1280 82 300 200/05 RMK AO2
94908KDBQ DBQ20090210193009302/10/09 19:30:31  5-MIN KDBQ 110130Z 19005KT 10SM CLR 04/01 A2970 1290 79 400 190/05 RMK AO2
94908KDBQ DBQ20090210193509302/10/09 19:35:31  5-MIN KDBQ 110135Z 20004KT 10SM CLR 06/02 A2970 1290 76 500 200/04 RMK AO2
94908KDBQ DBQ20090210194009302/10/09 19:40:31  5-MIN KDBQ 110140Z 19004KT 10SM CLR 06/02 A2970 1290 76 500 190/04 RMK AO2
94908KDBQ DBQ20090210194509302/10/09 19:45:31  5-MIN KDBQ 110145Z 20004KT 10SM CLR 06/02 A2970 1280 73 600 200/04 RMK AO2
94908KDBQ DBQ20090210195011502/10/09 19:50:31  5-MIN KDBQ 110150Z AUTO 21003KT 10SM CLR 06/02 A2970 1280 76 500 210/03 RMK AO2 SLP064 T00560017
94908KDBQ DBQ20090210195509802/10/09 19:55:31  5-MIN KDBQ 110155Z AUTO 21004KT 10SM CLR 06/02 A2970 1280 76 600 210/04 RMK AO2
94908KDBQ DBQ20090210200009802/10/09 20:00:31  5-MIN KDBQ 110200Z AUTO 21004KT 10SM CLR 06/02 A2970 1280 76 500 210/04 RMK AO2
94908KDBQ DBQ20090210200509802/10/09 20:05:31  5-MIN KDBQ 110205Z AUTO 20005KT 10SM CLR 06/02 A2970 1280 76 500 200/05 RMK AO2
94908KDBQ DBQ20090210201009802/10/09 20:10:31  5-MIN KDBQ 110210Z AUTO 19005KT 10SM CLR 05/02 A2970 1280 79 400 190/05 RMK AO2
94908KDBQ DBQ20090210201509802/10/09 20:15:31  5-MIN KDBQ 110215Z AUTO 20005KT 10SM CLR 04/01 A2970 1280 82 300 200/05 RMK AO2
94908KDBQ DBQ20090210202009802/10/09 20:20:31  5-MIN KDBQ 110220Z AUTO 20004KT 10SM CLR 03/01 A2970 1280 82 200 200/04 RMK AO2
94908KDBQ DBQ20090210202509802/10/09 20:25:31  5-MIN KDBQ 110225Z AUTO 21004KT 10SM CLR 03/01 A2970 1280 85 200 210/04 RMK AO2
94908KDBQ DBQ20090210203009802/10/09 20:30:31  5-MIN KDBQ 110230Z AUTO 20004KT 10SM CLR 04/02 A2970 1280 82 400 200/04 RMK AO2
94908KDBQ DBQ20090210203509802/10/09 20:35:31  5-MIN KDBQ 110235Z AUTO 20004KT 10SM CLR 04/01 A2970 1280 82 300 200/04 RMK AO2
94908KDBQ DBQ20090210204009802/10/09 20:40:31  5-MIN KDBQ 110240Z AUTO 21004KT 10SM CLR 04/01 A2970 1290 82 300 210/04 RMK AO2
94908KDBQ DBQ20090210204509802/10/09 20:45:31  5-MIN KDBQ 110245Z AUTO 21004KT 10SM CLR 03/01 A2970 1280 85 200 210/04 RMK AO2
94908KDBQ DBQ20090210205012102/10/09 20:50:31  5-MIN KDBQ 110250Z AUTO 20004KT 10SM CLR 03/01 A2970 1280 85 200 200/04 RMK AO2 SLP065 T00330011 52012
94908KDBQ DBQ20090210205509802/10/09 20:55:31  5-MIN KDBQ 110255Z AUTO 19003KT 10SM CLR 03/01 A2970 1280 85 200 190/03 RMK AO2
94908KDBQ DBQ20090210210010002/10/09 21:00:31  5-MIN KDBQ 110300Z AUTO 21003KT 10SM CLR 03/01 A2970 1280 85 200 210/03 RMK AO2 $
94908KDBQ DBQ20090210210510002/10/09 21:05:31  5-MIN KDBQ 110305Z AUTO 00000KT 10SM CLR 04/01 A2970 1280 82 300 000/00 RMK AO2 $
94908KDBQ DBQ20090210211010002/10/09 21:10:31  5-MIN KDBQ 110310Z AUTO 00000KT 10SM CLR 03/01 A2970 1280 85 200 000/00 RMK AO2 $
94908KDBQ DBQ20090210211510002/10/09 21:15:31  5-MIN KDBQ 110315Z AUTO 31007KT 10SM CLR 03/01 A2970 1280 85 200 310/07 RMK AO2 $
94908KDBQ DBQ20090210212010002/10/09 21:20:31  5-MIN KDBQ 110320Z AUTO 33007KT 10SM CLR 03/01 A2970 1280 89 100 330/07 RMK AO2 $
94908KDBQ DBQ20090210212510002/10/09 21:25:31  5-MIN KDBQ 110325Z AUTO 33006KT 10SM CLR 03/02 A2970 1280 89 200 330/06 RMK AO2 $
94908KDBQ DBQ20090210213010002/10/09 21:30:31  5-MIN KDBQ 110330Z AUTO 34006KT 10SM CLR 04/02 A2969 1290 85 300 340/06 RMK AO2 $
94908KDBQ DBQ20090210213510002/10/09 21:35:31  5-MIN KDBQ 110335Z AUTO 35003KT 10SM CLR 04/02 A2969 1290 85 300 350/03 RMK AO2 $
94908KDBQ DBQ20090210214010002/10/09 21:40:31  5-MIN KDBQ 110340Z AUTO 34003KT 10SM CLR 06/03 A2970 1290 82 500 340/03 RMK AO2 $
94908KDBQ DBQ20090210214510002/10/09 21:45:31  5-MIN KDBQ 110345Z AUTO 33003KT 10SM CLR 06/03 A2970 1290 79 600 330/03 RMK AO2 $
94908KDBQ DBQ20090210215011702/10/09 21:50:31  5-MIN KDBQ 110350Z AUTO 00000KT 10SM CLR 06/03 A2970 1290 82 500 000/00 RMK AO2 SLP061 T00560028 $
94908KDBQ DBQ20090210215510002/10/09 21:55:31  5-MIN KDBQ 110355Z AUTO 00000KT 10SM CLR 05/02 A2970 1280 82 400 000/00 RMK AO2 $
94908KDBQ DBQ20090210220010002/10/09 22:00:31  5-MIN KDBQ 110400Z AUTO 00000KT 10SM CLR 05/02 A2970 1280 82 400 000/00 RMK AO2 $
94908KDBQ DBQ20090210220510002/10/09 22:05:31  5-MIN KDBQ 110405Z AUTO 00000KT 10SM CLR 04/02 A2970 1280 82 400 000/00 RMK AO2 $
94908KDBQ DBQ20090210221010002/10/09 22:10:31  5-MIN KDBQ 110410Z AUTO 00000KT 10SM CLR 04/02 A2970 1280 82 400 000/00 RMK AO2 $
94908KDBQ DBQ20090210221510002/10/09 22:15:31  5-MIN KDBQ 110415Z AUTO 00000KT 10SM CLR 04/02 A2969 1290 85 400 000/00 RMK AO2 $
94908KDBQ DBQ20090210222010002/10/09 22:20:31  5-MIN KDBQ 110420Z AUTO 00000KT 10SM CLR 04/02 A2969 1290 82 400 000/00 RMK AO2 $
94908KDBQ DBQ20090210222510702/10/09 22:25:31  5-MIN KDBQ 110425Z AUTO 00000KT 10SM CLR 04/01 A2968 1300 82 300 000/00 RMK AO2 PRESFR $
94908KDBQ DBQ20090210223010002/10/09 22:30:31  5-MIN KDBQ 110430Z AUTO 35003KT 10SM CLR 05/02 A2968 1300 79 500 350/03 RMK AO2 $
94908KDBQ DBQ20090210223510002/10/09 22:35:31  5-MIN KDBQ 110435Z AUTO 34004KT 10SM CLR 05/02 A2967 1310 79 500 340/04 RMK AO2 $
94908KDBQ DBQ20090210224010002/10/09 22:40:31  5-MIN KDBQ 110440Z AUTO 36004KT 10SM CLR 04/01 A2967 1310 82 300 350/04 RMK AO2 $
94908KDBQ DBQ20090210224510002/10/09 22:45:31  5-MIN KDBQ 110445Z AUTO 35005KT 10SM CLR 02/00 A2968 1300 85 100 350/05 RMK AO2 $
94908KDBQ DBQ20090210225011802/10/09 22:50:31  5-MIN KDBQ 110450Z AUTO 35006KT 10SM CLR 03/M01 A2968 1300 79 200 350/06 RMK AO2 SLP057 T00281006 $
94908KDBQ DBQ20090210225510002/10/09 22:55:31  5-MIN KDBQ 110455Z AUTO 36006KT 10SM CLR 04/01 A2968 1310 76 400 360/06 RMK AO2 $
94908KDBQ DBQ20090210230010002/10/09 23:00:31  5-MIN KDBQ 110500Z AUTO 03006KT 10SM CLR 04/01 A2967 1310 76 400 030/06 RMK AO2 $
94908KDBQ DBQ20090210230510002/10/09 23:05:31  5-MIN KDBQ 110505Z AUTO 04005KT 10SM CLR 05/01 A2968 1300 76 400 040/05 RMK AO2 $
94908KDBQ DBQ20090210231010002/10/09 23:10:31  5-MIN KDBQ 110510Z AUTO 05004KT 10SM CLR 04/01 A2969 1290 79 300 050/04 RMK AO2 $
94908KDBQ DBQ20090210231510702/10/09 23:15:31  5-MIN KDBQ 110515Z AUTO 09003KT 10SM CLR 04/01 A2970 1290 79 300 090/03 RMK AO2 PRESRR $
94908KDBQ DBQ20090210232010702/10/09 23:20:31  5-MIN KDBQ 110520Z AUTO 13006KT 10SM CLR 04/01 A2970 1280 82 300 120/06 RMK AO2 PRESRR $
94908KDBQ DBQ20090210232510002/10/09 23:25:31  5-MIN KDBQ 110525Z AUTO 13006KT 10SM CLR 04/01 A2971 1280 79 300 130/06 RMK AO2 $
94908KDBQ DBQ20090210233010002/10/09 23:30:31  5-MIN KDBQ 110530Z AUTO 11004KT 10SM CLR 04/01 A2970 1280 79 400 100/04 RMK AO2 $
94908KDBQ DBQ20090210233510002/10/09 23:35:31  5-MIN KDBQ 110535Z AUTO 00000KT 10SM CLR 04/01 A2971 1280 79 300 000/00 RMK AO2 $
94908KDBQ DBQ20090210234010002/10/09 23:40:31  5-MIN KDBQ 110540Z AUTO 00000KT 10SM CLR 03/01 A2971 1270 82 200 000/00 RMK AO2 $
94908KDBQ DBQ20090210234510002/10/09 23:45:31  5-MIN KDBQ 110545Z AUTO 00000KT 10SM CLR 03/01 A2972 1270 82 200 000/00 RMK AO2 $
94908KDBQ DBQ20090210235014502/10/09 23:50:31  5-MIN KDBQ 110550Z AUTO 00000KT 10SM CLR 03/01 A2972 1270 82 200 000/00 RMK AO2 SLP068 T00330006 10067 20022 401280022 51004 $
94908KDBQ DBQ20090210235510002/10/09 23:55:31  5-MIN KDBQ 110555Z AUTO 00000KT 10SM CLR 03/01 A2972 1270 82 200 000/00 RMK AO2 $
94908KDBQ DBQ20090211000010002/11/09 00:00:38  5-MIN KDBQ 110600Z AUTO 00000KT 10SM CLR 03/01 A2972 1270 82 200 000/00 RMK AO2 $
94908KDBQ DBQ20090211000510002/11/09 00:05:31  5-MIN KDBQ 110605Z AUTO 00000KT 10SM CLR 03/00 A2972 1270 82 100 000/00 RMK AO2 $
94908KDBQ DBQ20090211001010002/11/09 00:10:31  5-MIN KDBQ 110610Z AUTO 00000KT 10SM CLR 03/00 A2971 1270 82 100 000/00 RMK AO2 $
94908KDBQ DBQ20090211001510002/11/09 00:15:31  5-MIN KDBQ 110615Z AUTO 00000KT 10SM CLR 03/00 A2971 1270 82 100 000/00 RMK AO2 $
94908KDBQ DBQ20090211002010002/11/09 00:20:31  5-MIN KDBQ 110620Z AUTO 00000KT 10SM CLR 03/01 A2971 1270 85 100 000/00 RMK AO2 $
94908KDBQ DBQ20090211002510002/11/09 00:25:31  5-MIN KDBQ 110625Z AUTO 00000KT 10SM CLR 03/01 A2971 1270 82 200 000/00 RMK AO2 $
94908KDBQ DBQ20090211003010002/11/09 00:30:31  5-MIN KDBQ 110630Z AUTO 00000KT 10SM CLR 03/01 A2970 1280 82 200 000/00 RMK AO2 $
94908KDBQ DBQ20090211003510402/11/09 00:35:31  5-MIN KDBQ 110635Z AUTO 00000KT 10SM CLR 03/01 A2970 1290 82 200 000/00 RMK AO2 PNO $
94908KDBQ DBQ20090211004010002/11/09 00:40:31  5-MIN KDBQ 110640Z AUTO 00000KT 10SM CLR 02/00 A2969 1290 85 100 000/00 RMK AO2 $
94908KDBQ DBQ20090211004510002/11/09 00:45:31  5-MIN KDBQ 110645Z AUTO 01003KT 10SM CLR 02/00 A2969 1290 85 100 010/03 RMK AO2 $
94908KDBQ DBQ20090211005012302/11/09 00:50:31  5-MIN KDBQ 110650Z AUTO 01005KT 10SM CLR 02/M01 A2968 1300 85 0 010/05 RMK AO2 PRESFR SLP057 T00171006 $
94908KDBQ DBQ20090211005510002/11/09 00:55:31  5-MIN KDBQ 110655Z AUTO 02005KT 10SM CLR 03/00 A2968 1300 79 200 020/05 RMK AO2 $
94908KDBQ DBQ20090211010010702/11/09 01:00:31  5-MIN KDBQ 110700Z AUTO 03006KT 10SM CLR 04/00 A2967 1310 76 300 030/06 RMK AO2 PRESFR $
94908KDBQ DBQ20090211010510002/11/09 01:05:31  5-MIN KDBQ 110705Z AUTO 02006KT 10SM CLR 04/01 A2967 1310 76 400 020/06 RMK AO2 $
94908KDBQ DBQ20090211011010002/11/09 01:10:31  5-MIN KDBQ 110710Z AUTO 02006KT 10SM CLR 04/01 A2967 1310 76 400 020/06 RMK AO2 $
94908KDBQ DBQ20090211011510002/11/09 01:15:31  5-MIN KDBQ 110715Z AUTO 02007KT 10SM CLR 05/01 A2968 1300 73 400 010/07 RMK AO2 $
94908KDBQ DBQ20090211012010002/11/09 01:20:31  5-MIN KDBQ 110720Z AUTO 02007KT 10SM CLR 05/01 A2968 1300 73 500 020/07 RMK AO2 $
94908KDBQ DBQ20090211012510002/11/09 01:25:31  5-MIN KDBQ 110725Z AUTO 02006KT 10SM CLR 04/01 A2968 1300 76 400 020/06 RMK AO2 $
94908KDBQ DBQ20090211013010002/11/09 01:30:31  5-MIN KDBQ 110730Z AUTO 01009KT 10SM CLR 05/01 A2967 1310 73 500 010/09 RMK AO2 $
94908KDBQ DBQ20090211013510002/11/09 01:35:31  5-MIN KDBQ 110735Z AUTO 01010KT 10SM CLR 05/01 A2966 1320 76 500 010/10 RMK AO2 $
94908KDBQ DBQ20090211014010002/11/09 01:40:31  5-MIN KDBQ 110740Z AUTO 01009KT 10SM CLR 05/01 A2967 1310 76 500 010/09 RMK AO2 $
94908KDBQ DBQ20090211014510002/11/09 01:45:31  5-MIN KDBQ 110745Z AUTO 01008KT 10SM CLR 05/01 A2967 1310 76 500 010/08 RMK AO2 $
94908KDBQ DBQ20090211015011702/11/09 01:50:31  5-MIN KDBQ 110750Z AUTO 01009KT 10SM CLR 05/01 A2968 1300 76 400 010/09 RMK AO2 SLP055 T00500011 $
94908KDBQ DBQ20090211015510002/11/09 01:55:31  5-MIN KDBQ 110755Z AUTO 01010KT 10SM CLR 06/01 A2969 1300 73 500 010/10 RMK AO2 $
94908KDBQ DBQ20090211020010002/11/09 02:00:31  5-MIN KDBQ 110800Z AUTO 01011KT 10SM CLR 06/01 A2969 1290 70 600 010/11 RMK AO2 $
94908KDBQ DBQ20090211020510002/11/09 02:05:31  5-MIN KDBQ 110805Z AUTO 01010KT 10SM CLR 06/01 A2969 1290 70 600 010/10 RMK AO2 $
94908KDBQ DBQ20090211021010002/11/09 02:10:31  5-MIN KDBQ 110810Z AUTO 01009KT 10SM CLR 06/01 A2969 1290 73 500 010/09 RMK AO2 $
94908KDBQ DBQ20090211021510002/11/09 02:15:31  5-MIN KDBQ 110815Z AUTO 01009KT 10SM CLR 06/01 A2968 1300 73 500 010/09 RMK AO2 $
94908KDBQ DBQ20090211022010002/11/09 02:20:31  5-MIN KDBQ 110820Z AUTO 01011KT 10SM CLR 05/01 A2967 1310 76 500 010/11 RMK AO2 $
94908KDBQ DBQ20090211022510002/11/09 02:25:31  5-MIN KDBQ 110825Z AUTO 01010KT 10SM CLR 06/01 A2967 1310 73 500 010/10 RMK AO2 $
94908KDBQ DBQ20090211023010002/11/09 02:30:31  5-MIN KDBQ 110830Z AUTO 02009KT 10SM CLR 05/01 A2967 1310 76 500 020/09 RMK AO2 $
94908KDBQ DBQ20090211023510002/11/09 02:35:31  5-MIN KDBQ 110835Z AUTO 03010KT 10SM CLR 05/01 A2966 1320 76 500 030/10 RMK AO2 $
94908KDBQ DBQ20090211024010702/11/09 02:40:31  5-MIN KDBQ 110840Z AUTO 03011KT 10SM CLR 05/01 A2965 1330 76 500 020/11 RMK AO2 PRESFR $
94908KDBQ DBQ20090211024510002/11/09 02:45:31  5-MIN KDBQ 110845Z AUTO 02010KT 10SM CLR 04/01 A2965 1330 79 400 020/10 RMK AO2 $
94908KDBQ DBQ20090211025012302/11/09 02:50:31  5-MIN KDBQ 110850Z AUTO 02010KT 10SM CLR 04/01 A2964 1340 79 400 020/10 RMK AO2 SLP041 T00440011 53003 $
94908KDBQ DBQ20090211025510002/11/09 02:55:31  5-MIN KDBQ 110855Z AUTO 02010KT 10SM CLR 04/01 A2964 1340 79 400 020/10 RMK AO2 $
94908KDBQ DBQ20090211030010002/11/09 03:00:31  5-MIN KDBQ 110900Z AUTO 02009KT 10SM CLR 04/01 A2964 1340 76 400 020/09 RMK AO2 $
94908KDBQ DBQ20090211030510002/11/09 03:05:31  5-MIN KDBQ 110905Z AUTO 02009KT 10SM CLR 04/01 A2963 1350 79 400 020/09 RMK AO2 $
94908KDBQ DBQ20090211031010002/11/09 03:10:31  5-MIN KDBQ 110910Z AUTO 02009KT 10SM CLR 04/01 A2963 1350 79 400 020/09 RMK AO2 $
94908KDBQ DBQ20090211031510002/11/09 03:15:31  5-MIN KDBQ 110915Z AUTO 02010KT 10SM CLR 04/01 A2962 1350 79 400 020/10 RMK AO2 $
94908KDBQ DBQ20090211032010002/11/09 03:20:31  5-MIN KDBQ 110920Z AUTO 02009KT 10SM CLR 04/01 A2962 1360 79 400 020/09 RMK AO2 $
94908KDBQ DBQ20090211032510002/11/09 03:25:31  5-MIN KDBQ 110925Z AUTO 02008KT 10SM CLR 04/01 A2962 1360 79 400 020/08 RMK AO2 $
94908KDBQ DBQ20090211033010002/11/09 03:30:31  5-MIN KDBQ 110930Z AUTO 02008KT 10SM CLR 04/01 A2962 1360 79 400 020/08 RMK AO2 $
94908KDBQ DBQ20090211033510002/11/09 03:35:31  5-MIN KDBQ 110935Z AUTO 02007KT 10SM CLR 04/01 A2962 1360 79 400 020/07 RMK AO2 $
94908KDBQ DBQ20090211034010002/11/09 03:40:31  5-MIN KDBQ 110940Z AUTO 02009KT 10SM CLR 04/01 A2961 1360 79 400 020/09 RMK AO2 $
94908KDBQ DBQ20090211034510002/11/09 03:45:31  5-MIN KDBQ 110945Z AUTO 02011KT 10SM CLR 04/01 A2961 1370 79 400 020/11 RMK AO2 $
94908KDBQ DBQ20090211035011702/11/09 03:50:31  5-MIN KDBQ 110950Z AUTO 03008KT 10SM CLR 03/01 A2960 1370 82 300 030/08 RMK AO2 SLP028 T00330006 $
94908KDBQ DBQ20090211035510002/11/09 03:55:31  5-MIN KDBQ 110955Z AUTO 02009KT 10SM CLR 03/01 A2960 1370 82 300 020/09 RMK AO2 $
94908KDBQ DBQ20090211040010002/11/09 04:00:31  5-MIN KDBQ 111000Z AUTO 03008KT 10SM CLR 03/01 A2961 1370 82 300 030/08 RMK AO2 $
94908KDBQ DBQ20090211040510002/11/09 04:05:31  5-MIN KDBQ 111005Z AUTO 03008KT 10SM CLR 03/01 A2961 1370 82 300 030/08 RMK AO2 $
94908KDBQ DBQ20090211041010002/11/09 04:10:31  5-MIN KDBQ 111010Z AUTO 02008KT 10SM CLR 03/01 A2960 1370 85 300 020/08 RMK AO2 $
94908KDBQ DBQ20090211041510002/11/09 04:15:31  5-MIN KDBQ 111015Z AUTO 03007KT 10SM CLR 03/01 A2960 1370 82 300 030/07 RMK AO2 $
94908KDBQ DBQ20090211042010002/11/09 04:20:31  5-MIN KDBQ 111020Z AUTO 02007KT 10SM CLR 03/01 A2960 1380 85 300 020/07 RMK AO2 $
94908KDBQ DBQ20090211042510002/11/09 04:25:31  5-MIN KDBQ 111025Z AUTO 02007KT 10SM CLR 03/01 A2960 1380 85 300 020/07 RMK AO2 $
94908KDBQ DBQ20090211043010002/11/09 04:30:31  5-MIN KDBQ 111030Z AUTO 03007KT 10SM CLR 03/01 A2960 1380 85 300 030/07 RMK AO2 $
94908KDBQ DBQ20090211043510002/11/09 04:35:31  5-MIN KDBQ 111035Z AUTO 03009KT 10SM CLR 03/01 A2959 1380 85 300 030/09 RMK AO2 $
94908KDBQ DBQ20090211044010002/11/09 04:40:31  5-MIN KDBQ 111040Z AUTO 03009KT 10SM CLR 03/01 A2960 1380 85 300 030/09 RMK AO2 $
94908KDBQ DBQ20090211044510002/11/09 04:45:31  5-MIN KDBQ 111045Z AUTO 03009KT 10SM CLR 03/01 A2960 1380 85 300 030/09 RMK AO2 $
94908KDBQ DBQ20090211045011702/11/09 04:50:31  5-MIN KDBQ 111050Z AUTO 03010KT 10SM CLR 03/01 A2959 1380 85 300 020/10 RMK AO2 SLP026 T00280006 $
94908KDBQ DBQ20090211045510002/11/09 04:55:31  5-MIN KDBQ 111055Z AUTO 03008KT 10SM CLR 03/01 A2960 1370 85 300 030/08 RMK AO2 $
94908KDBQ DBQ20090211050010302/11/09 05:00:31  5-MIN KDBQ 111100Z AUTO 04005KT 10SM FEW070 03/01 A2961 1370 85 300 040/05 RMK AO2 $
94908KDBQ DBQ20090211050510302/11/09 05:05:31  5-MIN KDBQ 111105Z AUTO 04005KT 10SM SCT070 03/01 A2961 1370 85 300 030/05 RMK AO2 $
94908KDBQ DBQ20090211051010302/11/09 05:10:31  5-MIN KDBQ 111110Z AUTO 03008KT 10SM SCT070 03/01 A2960 1370 85 300 020/08 RMK AO2 $
94908KDBQ DBQ20090211051510302/11/09 05:15:31  5-MIN KDBQ 111115Z AUTO 03007KT 10SM BKN070 03/01 A2960 1380 85 300 030/07 RMK AO2 $
94908KDBQ DBQ20090211052010302/11/09 05:20:31  5-MIN KDBQ 111120Z AUTO 03009KT 10SM BKN075 03/01 A2959 1390 85 300 030/09 RMK AO2 $
94908KDBQ DBQ20090211052510302/11/09 05:25:31  5-MIN KDBQ 111125Z AUTO 03008KT 10SM BKN075 03/01 A2959 1390 85 300 030/08 RMK AO2 $
94908KDBQ DBQ20090211053010302/11/09 05:30:31  5-MIN KDBQ 111130Z AUTO 04007KT 10SM BKN075 03/01 A2959 1390 85 300 040/07 RMK AO2 $
94908KDBQ DBQ20090211053510302/11/09 05:35:31  5-MIN KDBQ 111135Z AUTO 04006KT 10SM OVC075 03/01 A2959 1380 85 300 030/06 RMK AO2 $
94908KDBQ DBQ20090211054011002/11/09 05:40:31  5-MIN KDBQ 111140Z AUTO 04006KT 10SM BKN075 OVC090 03/00 A2959 1380 82 300 030/06 RMK AO2 $
94908KDBQ DBQ20090211054510302/11/09 05:45:31  5-MIN KDBQ 111145Z AUTO 03006KT 10SM OVC080 03/00 A2959 1380 82 300 030/06 RMK AO2 $
94908KDBQ DBQ20090211055013902/11/09 05:50:31  5-MIN KDBQ 111150Z 03006KT 10SM BKN080 02/00 A2959 1380 85 200 030/06 RMK AO2 SLP028 70002 T00220000 10061 20017 58024 $
94908KDBQ DBQ20090211055510502/11/09 05:55:31  5-MIN KDBQ 111155Z 03005KT 10SM BKN075 BKN090 03/00 A2959 1380 82 300 030/05 RMK AO2 $
94908KDBQ DBQ20090211060009802/11/09 06:00:31  5-MIN KDBQ 111200Z 03006KT 10SM BKN080 02/00 A2959 1380 85 200 030/06 RMK AO2 $
94908KDBQ DBQ20090211060509802/11/09 06:05:31  5-MIN KDBQ 111205Z 03005KT 10SM SCT080 02/00 A2959 1380 85 200 030/05 RMK AO2 $
94908KDBQ DBQ20090211061009802/11/09 06:10:31  5-MIN KDBQ 111210Z 02006KT 10SM FEW080 02/00 A2959 1380 85 200 020/06 RMK AO2 $
94908KDBQ DBQ20090211061509802/11/09 06:15:31  5-MIN KDBQ 111215Z 03006KT 10SM FEW075 02/00 A2959 1380 85 200 030/06 RMK AO2 $
94908KDBQ DBQ20090211062009802/11/09 06:20:31  5-MIN KDBQ 111220Z 02005KT 10SM FEW070 02/00 A2959 1380 85 200 020/05 RMK AO2 $
94908KDBQ DBQ20090211062509802/11/09 06:25:31  5-MIN KDBQ 111225Z 02006KT 10SM FEW110 02/00 A2959 1380 85 200 020/06 RMK AO2 $
94908KDBQ DBQ20090211063010502/11/09 06:30:31  5-MIN KDBQ 111230Z 01007KT 10SM FEW031 SCT110 02/00 A2959 1390 85 200 010/07 RMK AO2 $
94908KDBQ DBQ20090211063510502/11/09 06:35:31  5-MIN KDBQ 111235Z 01008KT 10SM FEW031 SCT100 02/00 A2959 1390 85 200 010/08 RMK AO2 $
94908KDBQ DBQ20090211064010502/11/09 06:40:31  5-MIN KDBQ 111240Z 01010KT 10SM FEW031 SCT100 02/00 A2957 1400 85 200 010/10 RMK AO2 $
94908KDBQ DBQ20090211064510502/11/09 06:45:31  5-MIN KDBQ 111245Z 02008KT 10SM FEW031 SCT090 02/00 A2958 1390 85 200 020/08 RMK AO2 $
94908KDBQ DBQ20090211065012202/11/09 06:50:31  5-MIN KDBQ 111250Z 02007KT 10SM FEW031 BKN085 03/00 A2958 1390 82 300 020/07 RMK AO2 SLP026 T00280000 $
94908KDBQ DBQ20090211065510302/11/09 06:55:31  5-MIN KDBQ 111255Z 02008KT 10SM FEW031 BKN085 02/00 A2958 1390 85 200 020/08 RMK AO2
94908KDBQ DBQ20090211070010302/11/09 07:00:31  5-MIN KDBQ 111300Z 01008KT 10SM SCT031 BKN085 03/00 A2958 1390 82 300 010/08 RMK AO2
94908KDBQ DBQ20090211070510302/11/09 07:05:31  5-MIN KDBQ 111305Z 01009KT 10SM BKN031 OVC085 03/00 A2959 1390 82 300 010/09 RMK AO2
94908KDBQ DBQ20090211071010302/11/09 07:10:31  5-MIN KDBQ 111310Z 01010KT 10SM BKN031 OVC085 03/00 A2959 1380 82 300 010/10 RMK AO2
94908KDBQ DBQ20090211071510302/11/09 07:15:31  5-MIN KDBQ 111315Z 01009KT 10SM BKN031 OVC080 03/00 A2959 1380 82 300 010/09 RMK AO2
94908KDBQ DBQ20090211072010002/11/09 07:20:31  5-MIN KDBQ 111320Z 02007KT 10SM OVC031 03/00 A2959 1380 82 300 020/07 RMK AO2 PNO
94908KDBQ DBQ20090211072509802/11/09 07:25:31  5-MIN KDBQ 111325Z 02006KT 10SM OVC031 03/00 A2960 1380 82 300 020/06 RMK AO2 $
94908KDBQ DBQ20090211073009802/11/09 07:30:31  5-MIN KDBQ 111330Z 02007KT 10SM OVC031 03/00 A2960 1380 82 300 020/07 RMK AO2 $
94908KDBQ DBQ20090211073509802/11/09 07:35:31  5-MIN KDBQ 111335Z 01007KT 10SM OVC031 03/00 A2960 1380 82 300 010/07 RMK AO2 $
94908KDBQ DBQ20090211074009802/11/09 07:40:31  5-MIN KDBQ 111340Z 36009KT 10SM OVC031 03/00 A2960 1370 82 300 360/09 RMK AO2 $
94908KDBQ DBQ20090211074509802/11/09 07:45:31  5-MIN KDBQ 111345Z 36010KT 10SM OVC033 03/00 A2960 1370 82 300 360/10 RMK AO2 $
94908KDBQ DBQ20090211075011502/11/09 07:50:31  5-MIN KDBQ 111350Z 36010KT 10SM OVC033 03/00 A2961 1370 82 300 360/10 RMK AO2 SLP034 T00280000 $
94908KDBQ DBQ20090211075509802/11/09 07:55:31  5-MIN KDBQ 111355Z 35011KT 10SM OVC033 03/00 A2961 1370 82 300 350/11 RMK AO2 $
94908KDBQ DBQ20090211080009802/11/09 08:00:31  5-MIN KDBQ 111400Z 35011KT 10SM OVC033 02/00 A2961 1370 85 200 350/11 RMK AO2 $
94908KDBQ DBQ20090211080509802/11/09 08:05:31  5-MIN KDBQ 111405Z 35011KT 10SM OVC035 02/00 A2961 1370 85 200 350/11 RMK AO2 $
94908KDBQ DBQ20090211081009802/11/09 08:10:31  5-MIN KDBQ 111410Z 36013KT 10SM OVC035 02/00 A2960 1370 85 200 360/13 RMK AO2 $
94908KDBQ DBQ20090211081509702/11/09 08:15:31  5-MIN KDBQ 111415Z 36013KT 9SM OVC035 02/00 A2960 1370 85 200 360/13 RMK AO2 $
94908KDBQ DBQ20090211082009702/11/09 08:20:31  5-MIN KDBQ 111420Z 36012KT 9SM OVC035 02/00 A2960 1380 85 200 360/12 RMK AO2 $
94908KDBQ DBQ20090211082509702/11/09 08:25:31  5-MIN KDBQ 111425Z 01012KT 8SM OVC035 02/00 A2959 1380 85 200 010/12 RMK AO2 $
94908KDBQ DBQ20090211083012102/11/09 08:30:31  5-MIN KDBQ 111430Z 01014KT 7SM -RA OVC035 02/00 A2959 1380 85 200 010/14 RMK AO2 UPB26E28RAB28 P0000 $
94908KDBQ DBQ20090211083512402/11/09 08:35:31  5-MIN KDBQ 111435Z 01013KT 6SM -RA BR OVC035 02/00 A2959 1390 89 100 010/13 RMK AO2 UPB26E28RAB28 P0001 $
94908KDBQ DBQ20090211084012402/11/09 08:40:31  5-MIN KDBQ 111440Z 01013KT 6SM -RA BR OVC035 02/00 A2959 1390 89 100 010/13 RMK AO2 UPB26E28RAB28 P0001 $
94908KDBQ DBQ20090211084512402/11/09 08:45:31  5-MIN KDBQ 111445Z 01014KT 6SM -RA BR OVC035 02/00 A2958 1390 89 100 360/14 RMK AO2 UPB26E28RAB28 P0001 $
94908KDBQ DBQ20090211085015802/11/09 08:50:31  5-MIN KDBQ 111450Z 36014KT 6SM UP BR OVC035 02/00 A2958 1390 89 100 360/14 RMK AO2 UPB26E28B50RAB28E50 SLP027 P0001 60001 T00170000 56017 $
94908KDBQ DBQ20090211085511002/11/09 08:55:31  5-MIN KDBQ 111455Z 01013KT 5SM -RA BR OVC035 02/00 A2958 1390 89 100 010/13 RMK AO2 P0000 $
94908KDBQ DBQ20090211090011002/11/09 09:00:31  5-MIN KDBQ 111500Z 01012KT 5SM -RA BR OVC035 02/00 A2958 1400 89 200 010/12 RMK AO2 P0001 $
94908KDBQ DBQ20090211090511002/11/09 09:05:31  5-MIN KDBQ 111505Z 02012KT 5SM -RA BR OVC035 02/00 A2958 1400 89 200 010/12 RMK AO2 P0001 $
94908KDBQ DBQ20090211091011002/11/09 09:10:31  5-MIN KDBQ 111510Z 01013KT 5SM -RA BR OVC035 02/00 A2957 1400 89 200 010/13 RMK AO2 P0002 $
94908KDBQ DBQ20090211091511002/11/09 09:15:31  5-MIN KDBQ 111515Z 02012KT 5SM -RA BR OVC037 02/00 A2957 1400 89 200 010/12 RMK AO2 P0002 $
94908KDBQ DBQ20090211092011002/11/09 09:20:31  5-MIN KDBQ 111520Z 02012KT 5SM -RA BR OVC037 02/00 A2957 1410 89 200 010/12 RMK AO2 P0002 $
94908KDBQ DBQ20090211092511002/11/09 09:25:31  5-MIN KDBQ 111525Z 01012KT 5SM -RA BR OVC039 02/00 A2956 1410 89 200 010/12 RMK AO2 P0002 $
94908KDBQ DBQ20090211093010902/11/09 09:30:31  5-MIN KDBQ 111530Z 01011KT 3SM RA BR OVC039 02/00 A2957 1410 89 200 010/11 RMK AO2 P0003 $
94908KDBQ DBQ20090211093512002/11/09 09:35:31  5-MIN KDBQ 111535Z 36012KT 2 1/2SM RA BR BKN041 OVC047 02/01 A2956 1420 92 200 360/12 RMK AO2 P0004 $
94908KDBQ DBQ20090211094011702/11/09 09:40:31  5-MIN KDBQ 111540Z 36011KT 3SM -RA BR BKN041 OVC050 02/00 A2955 1420 89 200 360/11 RMK AO2 P0005 $
94908KDBQ DBQ20090211094511702/11/09 09:45:31  5-MIN KDBQ 111545Z 01012KT 4SM -RA BR BKN041 OVC050 02/01 A2955 1430 92 200 010/12 RMK AO2 P0006 $
94908KDBQ DBQ20090211095014402/11/09 09:50:31  5-MIN KDBQ 111550Z 01013KT 4SM UP BR BKN041 OVC050 02/01 A2954 1430 92 200 010/13 RMK AO2 RAE46UPB46 SLP011 P0006 T00170006 $
94908KDBQ DBQ20090211095511602/11/09 09:55:31  5-MIN KDBQ 111555Z 02010KT 5SM UP BR BKN044 OVC055 02/01 A2954 1430 92 200 020/10 RMK AO2 P0000 $
94908KDBQ DBQ20090211100011602/11/09 10:00:31  5-MIN KDBQ 111600Z 01011KT 5SM UP BR SCT039 OVC049 02/01 A2954 1440 92 200 010/11 RMK AO2 P0000 $
94908KDBQ DBQ20090211100511902/11/09 10:05:31  5-MIN KDBQ 111605Z 01010KT 5SM BR BKN037 OVC049 02/01 A2954 1430 92 200 010/10 RMK AO2 UPE04 P0000 $
94908KDBQ DBQ20090211101011902/11/09 10:10:31  5-MIN KDBQ 111610Z 01013KT 6SM BR BKN041 OVC050 02/01 A2953 1440 89 300 010/13 RMK AO2 UPE04 P0000 $
94908KDBQ DBQ20090211101511202/11/09 10:15:31  5-MIN KDBQ 111615Z 36011KT 6SM BR OVC043 02/01 A2954 1440 89 300 360/11 RMK AO2 UPE04 P0000 $
94908KDBQ DBQ20090211102010902/11/09 10:20:31  5-MIN KDBQ 111620Z 01013KT 7SM OVC043 02/01 A2954 1440 89 300 360/13 RMK AO2 UPE04 P0000 $
94908KDBQ DBQ20090211102511602/11/09 10:25:31  5-MIN KDBQ 111625Z 01011KT 7SM FEW030 OVC043 02/01 A2954 1440 89 300 010/11 RMK AO2 UPE04 P0000 $
94908KDBQ DBQ20090211103010902/11/09 10:30:31  5-MIN KDBQ 111630Z 01011KT 7SM OVC045 02/01 A2954 1440 89 300 360/11 RMK AO2 UPE04 P0000 $
94908KDBQ DBQ20090211103511602/11/09 10:35:31  5-MIN KDBQ 111635Z 01011KT 7SM BKN045 OVC055 02/01 A2953 1440 89 300 010/11 RMK AO2 UPE04 P0000 $
94908KDBQ DBQ20090211104011602/11/09 10:40:31  5-MIN KDBQ 111640Z 36013KT 7SM BKN045 OVC055 02/01 A2953 1440 89 300 360/13 RMK AO2 UPE04 P0000 $
94908KDBQ DBQ20090211104512302/11/09 10:45:31  5-MIN KDBQ 111645Z 36015KT 7SM SCT047 BKN055 OVC090 02/01 A2953 1440 89 300 360/15 RMK AO2 UPE04 P0000 $
94908KDBQ DBQ20090211105014002/11/09 10:50:31  5-MIN KDBQ 111650Z 36014KT 7SM SCT047 BKN060 OVC090 02/01 A2953 1440 89 300 360/14 RMK AO2 UPE04 SLP008 P0000 T00220006 $
94908KDBQ DBQ20090211105511102/11/09 10:55:31  5-MIN KDBQ 111655Z 36014KT 7SM FEW049 BKN060 OVC090 02/01 A2953 1440 89 300 360/14 RMK AO2 $
94908KDBQ DBQ20090211110011102/11/09 11:00:31  5-MIN KDBQ 111700Z 35014KT 7SM FEW049 BKN060 OVC085 02/01 A2953 1450 89 300 350/14 RMK AO2 $
94908KDBQ DBQ20090211110510402/11/09 11:05:31  5-MIN KDBQ 111705Z 36014KT 7SM BKN060 OVC090 02/01 A2952 1450 89 300 360/14 RMK AO2 $
94908KDBQ DBQ20090211111010402/11/09 11:10:31  5-MIN KDBQ 111710Z 36015KT 7SM BKN060 OVC090 02/01 A2953 1440 89 300 360/15 RMK AO2 $
94908KDBQ DBQ20090211111510402/11/09 11:15:31  5-MIN KDBQ 111715Z 36015KT 7SM BKN060 OVC080 02/01 A2953 1440 89 300 360/15 RMK AO2 $
94908KDBQ DBQ20090211112010402/11/09 11:20:31  5-MIN KDBQ 111720Z 35013KT 7SM BKN060 BKN080 02/01 A2953 1450 89 300 350/13 RMK AO2 $
94908KDBQ DBQ20090211112509702/11/09 11:25:31  5-MIN KDBQ 111725Z 35014KT 8SM BKN060 02/01 A2952 1450 89 300 350/14 RMK AO2 $
94908KDBQ DBQ20090211113009702/11/09 11:30:31  5-MIN KDBQ 111730Z 35012KT 8SM OVC055 02/01 A2952 1450 89 300 350/12 RMK AO2 $
94908KDBQ DBQ20090211113509702/11/09 11:35:31  5-MIN KDBQ 111735Z 36012KT 8SM OVC055 02/00 A2952 1450 85 300 360/12 RMK AO2 $
94908KDBQ DBQ20090211114009702/11/09 11:40:31  5-MIN KDBQ 111740Z 36013KT 8SM BKN055 02/01 A2952 1450 89 300 360/13 RMK AO2 $
94908KDBQ DBQ20090211114509702/11/09 11:45:31  5-MIN KDBQ 111745Z 36014KT 8SM BKN050 02/01 A2951 1460 89 300 360/14 RMK AO2 $
94908KDBQ DBQ20090211115013802/11/09 11:50:31  5-MIN KDBQ 111750Z 35013KT 8SM BKN050 02/01 A2951 1460 89 300 350/13 RMK AO2 SLP003 60007 T00220006 10028 20017 58002 $
94908KDBQ DBQ20090211115509702/11/09 11:55:31  5-MIN KDBQ 111755Z 36011KT 7SM BKN048 02/01 A2951 1460 89 300 360/11 RMK AO2 $
94908KDBQ DBQ20090211120009702/11/09 12:00:31  5-MIN KDBQ 111800Z 36013KT 7SM BKN048 02/01 A2951 1460 89 300 360/13 RMK AO2 $
94908KDBQ DBQ20090211120509702/11/09 12:05:31  5-MIN KDBQ 111805Z 35015KT 7SM BKN048 02/01 A2951 1460 89 300 350/15 RMK AO2 $
94908KDBQ DBQ20090211121009702/11/09 12:10:31  5-MIN KDBQ 111810Z 35013KT 7SM BKN050 02/01 A2950 1460 89 300 350/13 RMK AO2 $
94908KDBQ DBQ20090211121509702/11/09 12:15:31  5-MIN KDBQ 111815Z 35012KT 7SM BKN050 02/01 A2950 1470 89 300 350/12 RMK AO2 $
94908KDBQ DBQ20090211122009702/11/09 12:20:31  5-MIN KDBQ 111820Z 35015KT 7SM BKN055 02/00 A2949 1480 85 300 350/15 RMK AO2 $
94908KDBQ DBQ20090211122510302/11/09 12:25:31  5-MIN KDBQ 111825Z 35015G20KT 8SM BKN060 02/01 A2949 1480 89 300 350/15G20 RMK AO2 $
94908KDBQ DBQ20090211123009702/11/09 12:30:31  5-MIN KDBQ 111830Z 35016KT 8SM BKN060 02/00 A2949 1480 85 300 350/16 RMK AO2 $
94908KDBQ DBQ20090211123510302/11/09 12:35:31  5-MIN KDBQ 111835Z 35018G22KT 8SM BKN060 02/00 A2948 1480 85 300 350/18G22 RMK AO2 $
94908KDBQ DBQ20090211124009702/11/09 12:40:31  5-MIN KDBQ 111840Z 35017KT 8SM BKN060 02/00 A2948 1480 85 300 350/17 RMK AO2 $
94908KDBQ DBQ20090211124510302/11/09 12:45:31  5-MIN KDBQ 111845Z 35016G22KT 8SM BKN060 02/00 A2948 1480 85 300 350/16G22 RMK AO2 $
94908KDBQ DBQ20090211125012002/11/09 12:50:31  5-MIN KDBQ 111850Z 35017G22KT 8SM BKN060 02/00 A2948 1490 85 300 350/17G22 RMK AO2 SLP992 T00220000 $
94908KDBQ DBQ20090211125509702/11/09 12:55:31  5-MIN KDBQ 111855Z 33019KT 8SM BKN060 02/00 A2948 1490 85 300 330/19 RMK AO2 $
94908KDBQ DBQ20090211130009702/11/09 13:00:31  5-MIN KDBQ 111900Z 35018KT 8SM BKN055 02/00 A2948 1490 85 300 340/18 RMK AO2 $
94908KDBQ DBQ20090211130509702/11/09 13:05:31  5-MIN KDBQ 111905Z 34016KT 8SM BKN050 02/00 A2948 1490 85 300 340/16 RMK AO2 $
94908KDBQ DBQ20090211131011002/11/09 13:10:31  5-MIN KDBQ 111910Z 35017G21KT 8SM FEW011 BKN055 02/00 A2948 1490 85 300 350/17G21 RMK AO2 $
94908KDBQ DBQ20090211131511002/11/09 13:15:31  5-MIN KDBQ 111915Z 35017G22KT 8SM FEW011 BKN050 02/00 A2948 1490 85 300 350/17G22 RMK AO2 $
94908KDBQ DBQ20090211132011002/11/09 13:20:31  5-MIN KDBQ 111920Z 35013G22KT 8SM SCT011 BKN050 02/00 A2948 1490 85 300 350/13G22 RMK AO2 $
94908KDBQ DBQ20090211132510402/11/09 13:25:31  5-MIN KDBQ 111925Z 35016KT 8SM SCT011 BKN048 02/00 A2948 1490 85 300 350/16 RMK AO2 $
94908KDBQ DBQ20090211133009802/11/09 13:30:31  5-MIN KDBQ 111930Z 34014KT 8SM SCT011 02/M01 A2949 1480 82 300 340/14 RMK AO2 $
94908KDBQ DBQ20090211133510702/11/09 13:35:31  5-MIN KDBQ 111935Z 34014G21KT 5SM HZ BKN013 02/M01 A2949 1480 82 300 340/14G21 RMK AO2 $
94908KDBQ DBQ20090211134010702/11/09 13:40:31  5-MIN KDBQ 111940Z 33019G25KT 6SM BR BKN013 02/M01 A2949 1480 85 300 330/19G25 RMK AO2 $
94908KDBQ DBQ20090211134510402/11/09 13:45:31  5-MIN KDBQ 111945Z 33017G25KT 7SM BKN013 02/M01 A2949 1480 85 300 330/17G25 RMK AO2 $
94908KDBQ DBQ20090211135012102/11/09 13:50:31  5-MIN KDBQ 111950Z 32017G22KT 7SM BKN013 02/M01 A2949 1480 85 300 320/17G22 RMK AO2 SLP995 T00171006 $
94908KDBQ DBQ20090211135510402/11/09 13:55:31  5-MIN KDBQ 111955Z 33018G23KT 7SM BKN013 02/M01 A2949 1480 85 300 330/18G23 RMK AO2 $
94908KDBQ DBQ20090211140010402/11/09 14:00:31  5-MIN KDBQ 112000Z 33020G25KT 7SM SCT013 02/M01 A2949 1470 85 300 330/20G25 RMK AO2 $
94908KDBQ DBQ20090211140510402/11/09 14:05:31  5-MIN KDBQ 112005Z 33019G25KT 8SM BKN013 02/M01 A2949 1480 82 300 330/19G25 RMK AO2 $
94908KDBQ DBQ20090211141012202/11/09 14:10:31  5-MIN KDBQ 112010Z 33017G26KT 9SM BKN013 02/M01 A2950 1470 82 300 330/17G26 RMK AO2 PK WND 33026/2007 $
94908KDBQ DBQ20090211141512202/11/09 14:15:31  5-MIN KDBQ 112015Z 33019G26KT 9SM BKN013 02/M01 A2950 1470 82 300 330/19G26 RMK AO2 PK WND 33026/2013 $
94908KDBQ DBQ20090211142012302/11/09 14:20:31  5-MIN KDBQ 112020Z 33018G26KT 10SM BKN013 02/M01 A2950 1470 82 300 330/18G26 RMK AO2 PK WND 33026/2016 $
94908KDBQ DBQ20090211142512302/11/09 14:25:31  5-MIN KDBQ 112025Z 33016G26KT 10SM BKN013 02/M01 A2950 1470 82 300 320/16G26 RMK AO2 PK WND 33026/2016 $
94908KDBQ DBQ20090211143012302/11/09 14:30:31  5-MIN KDBQ 112030Z 33016G25KT 10SM BKN013 03/M01 A2950 1470 79 400 330/16G25 RMK AO2 PK WND 33026/2016 $
94908KDBQ DBQ20090211143512302/11/09 14:35:31  5-MIN KDBQ 112035Z 32016G21KT 10SM BKN013 03/M01 A2951 1460 79 400 320/16G21 RMK AO2 PK WND 33026/2016 $
94908KDBQ DBQ20090211144012302/11/09 14:40:31  5-MIN KDBQ 112040Z 32016G23KT 10SM BKN013 03/M01 A2951 1460 79 400 320/16G23 RMK AO2 PK WND 33026/2016 $
94908KDBQ DBQ20090211144512302/11/09 14:45:31  5-MIN KDBQ 112045Z 31017G23KT 10SM BKN013 03/M01 A2951 1460 79 400 310/17G23 RMK AO2 PK WND 33026/2016 $
94908KDBQ DBQ20090211145014602/11/09 14:50:31  5-MIN KDBQ 112050Z 32014G23KT 10SM BKN013 03/M01 A2952 1450 79 400 320/14G23 RMK AO2 PK WND 33026/2016 SLP003 T00281006 56024 $
94908KDBQ DBQ20090211145510502/11/09 14:55:31  5-MIN KDBQ 112055Z 31019G23KT 10SM BKN016 03/M01 A2952 1450 79 400 310/19G23 RMK AO2 $
94908KDBQ DBQ20090211150009902/11/09 15:00:31  5-MIN KDBQ 112100Z 32020KT 10SM BKN016 03/M01 A2952 1450 75 400 320/20 RMK AO2 $
94908KDBQ DBQ20090211150510502/11/09 15:05:31  5-MIN KDBQ 112105Z 32017G24KT 10SM BKN016 03/M01 A2952 1450 75 400 320/17G24 RMK AO2 $
94908KDBQ DBQ20090211151010502/11/09 15:10:31  5-MIN KDBQ 112110Z 32018G24KT 10SM BKN016 03/M01 A2953 1440 79 300 320/18G24 RMK AO2 $
94908KDBQ DBQ20090211151510502/11/09 15:15:31  5-MIN KDBQ 112115Z 32018G24KT 10SM BKN016 02/M01 A2954 1440 82 300 320/18G24 RMK AO2 $
94908KDBQ DBQ20090211152010502/11/09 15:20:31  5-MIN KDBQ 112120Z 31018G24KT 10SM BKN016 03/M01 A2954 1430 79 300 310/18G24 RMK AO2 $
94908KDBQ DBQ20090211152512302/11/09 15:25:31  5-MIN KDBQ 112125Z 31022G27KT 10SM BKN016 03/M01 A2954 1430 75 300 310/22G27 RMK AO2 PK WND 32027/2124 $
94908KDBQ DBQ20090211153012302/11/09 15:30:31  5-MIN KDBQ 112130Z 32022G30KT 10SM OVC016 02/M02 A2954 1430 75 300 310/22G30 RMK AO2 PK WND 33030/2127 $
94908KDBQ DBQ20090211153512302/11/09 15:35:31  5-MIN KDBQ 112135Z 32023G32KT 10SM OVC016 02/M02 A2954 1430 75 300 320/23G32 RMK AO2 PK WND 31032/2133 $
94908KDBQ DBQ20090211154012302/11/09 15:40:31  5-MIN KDBQ 112140Z 32023G32KT 10SM OVC016 02/M02 A2955 1430 75 300 320/23G32 RMK AO2 PK WND 31032/2133 $
94908KDBQ DBQ20090211154512302/11/09 15:45:31  5-MIN KDBQ 112145Z 32019G29KT 10SM OVC016 02/M01 A2955 1430 82 200 320/19G29 RMK AO2 PK WND 31032/2133 $
94908KDBQ DBQ20090211155013402/11/09 15:50:31  5-MIN KDBQ 112150Z 32018KT 10SM OVC016 02/M02 A2955 1420 78 200 320/18 RMK AO2 PK WND 31032/2133 SLP015 T00171017 $
94908KDBQ DBQ20090211155510502/11/09 15:55:31  5-MIN KDBQ 112155Z 32019G26KT 10SM OVC016 02/M02 A2955 1420 78 200 320/19G26 RMK AO2 $
94908KDBQ DBQ20090211160010502/11/09 16:00:31  5-MIN KDBQ 112200Z 32021G26KT 10SM OVC016 02/M02 A2956 1420 78 200 320/21G26 RMK AO2 $
94908KDBQ DBQ20090211160510502/11/09 16:05:31  5-MIN KDBQ 112205Z 32020G25KT 10SM OVC016 02/M02 A2956 1410 78 200 320/20G25 RMK AO2 $
94908KDBQ DBQ20090211161012302/11/09 16:10:31  5-MIN KDBQ 112210Z 32020G26KT 10SM OVC016 02/M02 A2956 1410 78 200 320/20G26 RMK AO2 PK WND 31026/2208 $
94908KDBQ DBQ20090211161512302/11/09 16:15:31  5-MIN KDBQ 112215Z 32018G26KT 10SM OVC016 02/M02 A2956 1410 78 200 320/18G26 RMK AO2 PK WND 31026/2208 $
94908KDBQ DBQ20090211162012302/11/09 16:20:31  5-MIN KDBQ 112220Z 32017G26KT 10SM OVC016 01/M02 A2957 1410 82 100 320/17G26 RMK AO2 PK WND 34026/2216 $
94908KDBQ DBQ20090211162512302/11/09 16:25:31  5-MIN KDBQ 112225Z 32021G26KT 10SM OVC014 01/M02 A2958 1400 82 100 320/21G26 RMK AO2 PK WND 34026/2216 $
94908KDBQ DBQ20090211163012302/11/09 16:30:31  5-MIN KDBQ 112230Z 32015G25KT 10SM OVC016 01/M02 A2958 1400 82 100 310/15G25 RMK AO2 PK WND 34026/2216 $
94908KDBQ DBQ20090211163511702/11/09 16:35:31  5-MIN KDBQ 112235Z 32018KT 10SM OVC016 01/M02 A2958 1390 82 100 320/18 RMK AO2 PK WND 34026/2216 $
94908KDBQ DBQ20090211164011702/11/09 16:40:31  5-MIN KDBQ 112240Z 31015KT 10SM OVC016 01/M02 A2959 1390 82 100 310/15 RMK AO2 PK WND 34026/2216 $
94908KDBQ DBQ20090211164512302/11/09 16:45:31  5-MIN KDBQ 112245Z 31016G23KT 10SM OVC016 01/M02 A2959 1390 82 100 310/16G23 RMK AO2 PK WND 34026/2216 $
94908KDBQ DBQ20090211165014002/11/09 16:50:31  5-MIN KDBQ 112250Z 31019G23KT 10SM OVC016 01/M02 A2959 1380 82 100 310/19G23 RMK AO2 PK WND 34026/2216 SLP029 T00111017 $
94908KDBQ DBQ20090211165510502/11/09 16:55:31  5-MIN KDBQ 112255Z 31017G23KT 10SM OVC016 01/M02 A2959 1380 78 100 310/17G23 RMK AO2 $
94908KDBQ DBQ20090211170010502/11/09 17:00:31  5-MIN KDBQ 112300Z 32018G23KT 10SM OVC018 02/M02 A2960 1380 75 100 310/18G23 RMK AO2 $
94908KDBQ DBQ20090211170510502/11/09 17:05:31  5-MIN KDBQ 112305Z 32018G24KT 10SM OVC018 02/M02 A2960 1380 75 100 320/18G24 RMK AO2 $
94908KDBQ DBQ20090211171010502/11/09 17:10:31  5-MIN KDBQ 112310Z 31013G24KT 10SM OVC018 01/M02 A2960 1370 82 100 310/13G24 RMK AO2 $
94908KDBQ DBQ20090211171512302/11/09 17:15:31  5-MIN KDBQ 112315Z 31014G28KT 10SM OVC018 02/M02 A2961 1370 78 100 310/14G28 RMK AO2 PK WND 29028/2313 $
94908KDBQ DBQ20090211172012102/11/09 17:20:31  5-MIN KDBQ 112320Z 31015G28KT 10SM OVC018 01/M02 A2961 1360 82 0 310/15G28 RMK AO2 PK WND 29028/2313 $
94908KDBQ DBQ20090211172512302/11/09 17:25:31  5-MIN KDBQ 112325Z 31013G24KT 10SM OVC018 02/M02 A2962 1360 78 100 310/13G24 RMK AO2 PK WND 29028/2313 $
94908KDBQ DBQ20090211173012102/11/09 17:30:31  5-MIN KDBQ 112330Z 30016G24KT 10SM OVC018 01/M02 A2962 1360 82 0 300/16G24 RMK AO2 PK WND 29028/2313 $
94908KDBQ DBQ20090211173512102/11/09 17:35:31  5-MIN KDBQ 112335Z 30017G22KT 10SM OVC018 01/M02 A2962 1350 82 0 300/17G22 RMK AO2 PK WND 29028/2313 $
94908KDBQ DBQ20090211174012102/11/09 17:40:31  5-MIN KDBQ 112340Z 30015G22KT 10SM OVC018 01/M02 A2962 1350 82 0 300/15G22 RMK AO2 PK WND 29028/2313 $
94908KDBQ DBQ20090211174512202/11/09 17:45:31  5-MIN KDBQ 112345Z 30014KT 10SM BKN018 OVC024 01/M02 A2963 1350 82 0 300/14 RMK AO2 PK WND 29028/2313 $
94908KDBQ DBQ20090211175015702/11/09 17:50:31  5-MIN KDBQ 112350Z 30019KT 10SM BKN018 OVC024 01/M02 A2963 1350 82 0 290/19 RMK AO2 PK WND 29028/2313 SLP044 T00111017 10028 20011 53002 $
94908KDBQ DBQ20090211175511002/11/09 17:55:31  5-MIN KDBQ 112355Z 29014G21KT 10SM BKN018 OVC026 01/M02 A2963 1340 82 0 290/14G21 RMK AO2 $
94908KDBQ DBQ20090211180010402/11/09 18:00:31  5-MIN KDBQ 120000Z 29014KT 10SM BKN018 OVC026 01/M01 A2964 1340 85 0 290/14 RMK AO2 $
94908KDBQ DBQ20090211180511702/11/09 18:05:31  5-MIN KDBQ 120005Z 29016G21KT 10SM BKN018 BKN026 OVC030 01/M01 A2964 1340 85 0 290/16G21 RMK AO2 $
94908KDBQ DBQ20090211181011702/11/09 18:10:31  5-MIN KDBQ 120010Z 29019G25KT 10SM SCT018 BKN026 OVC030 01/M02 A2964 1340 82 0 280/19G25 RMK AO2 $
94908KDBQ DBQ20090211181511702/11/09 18:15:31  5-MIN KDBQ 120015Z 28018G25KT 10SM FEW016 SCT020 OVC030 01/M02 A2965 1330 82 0 280/18G25 RMK AO2 $
94908KDBQ DBQ20090211182011002/11/09 18:20:31  5-MIN KDBQ 120020Z 28019G25KT 10SM SCT016 OVC030 01/M02 A2965 1330 82 0 280/19G25 RMK AO2 $
94908KDBQ DBQ20090211182511002/11/09 18:25:31  5-MIN KDBQ 120025Z 29016G25KT 10SM BKN016 OVC030 01/M02 A2966 1320 82 0 290/16G25 RMK AO2 $
94908KDBQ DBQ20090211183012802/11/09 18:30:31  5-MIN KDBQ 120030Z 29018G26KT 10SM BKN014 OVC032 01/M02 A2966 1320 82 0 290/18G26 RMK AO2 PK WND 28026/0027 $
94908KDBQ DBQ20090211183512802/11/09 18:35:31  5-MIN KDBQ 120035Z 29020G27KT 10SM BKN014 OVC032 01/M02 A2966 1320 82 0 290/20G27 RMK AO2 PK WND 30027/0031 $
94908KDBQ DBQ20090211184013302/11/09 18:40:31  5-MIN KDBQ 120040Z AUTO 29022G27KT 10SM BKN014 OVC032 01/M02 A2966 1320 82 0 290/22G27 RMK AO2 PK WND 30027/0031 $
94908KDBQ DBQ20090211184512602/11/09 18:45:31  5-MIN KDBQ 120045Z AUTO 29019G26KT 10SM OVC014 01/M01 A2967 1310 85 0 290/19G26 RMK AO2 PK WND 30027/0031 $
94908KDBQ DBQ20090211185014302/11/09 18:50:31  5-MIN KDBQ 120050Z AUTO 29017G25KT 10SM OVC014 01/M01 A2967 1310 85 0 290/17G25 RMK AO2 PK WND 30027/0031 SLP055 T00111011 $
94908KDBQ DBQ20090211185510802/11/09 18:55:31  5-MIN KDBQ 120055Z AUTO 29019G25KT 10SM OVC014 01/M01 A2967 1310 85 0 290/19G25 RMK AO2 $
94908KDBQ DBQ20090211190012602/11/09 19:00:31  5-MIN KDBQ 120100Z AUTO 29017G26KT 10SM OVC014 01/M01 A2967 1310 85 0 290/17G26 RMK AO2 PK WND 29026/0056 $
94908KDBQ DBQ20090211190512102/11/09 19:05:31  5-MIN KDBQ 120105Z 29018G26KT 10SM OVC014 01/M01 A2967 1310 85 0 290/18G26 RMK AO2 PK WND 29026/0056 $
94908KDBQ DBQ20090211191012102/11/09 19:10:31  5-MIN KDBQ 120110Z 29016G24KT 10SM OVC014 01/M01 A2968 1300 85 0 290/16G24 RMK AO2 PK WND 29026/0056 $
94908KDBQ DBQ20090211191512002/11/09 19:15:31  5-MIN KDBQ 120115Z 29020G24KT 9SM OVC014 01/M01 A2968 1300 85 0 290/20G24 RMK AO2 PK WND 29026/0056 $
94908KDBQ DBQ20090211192012002/11/09 19:20:31  5-MIN KDBQ 120120Z 29017G24KT 9SM OVC014 01/M01 A2968 1300 85 0 290/17G24 RMK AO2 PK WND 29026/0056 $
94908KDBQ DBQ20090211192512002/11/09 19:25:31  5-MIN KDBQ 120125Z 29017G23KT 9SM OVC014 01/M01 A2969 1290 85 0 290/17G23 RMK AO2 PK WND 29026/0056 $
94908KDBQ DBQ20090211193012102/11/09 19:30:31  5-MIN KDBQ 120130Z 29017G26KT 10SM OVC014 01/M01 A2969 1290 85 0 290/17G26 RMK AO2 PK WND 29026/0128 $
94908KDBQ DBQ20090211193512102/11/09 19:35:31  5-MIN KDBQ 120135Z 29018G26KT 10SM OVC014 01/M01 A2969 1290 85 0 290/18G26 RMK AO2 PK WND 29026/0128 $
94908KDBQ DBQ20090211194012102/11/09 19:40:31  5-MIN KDBQ 120140Z 29019G26KT 10SM OVC014 01/M01 A2969 1290 85 0 290/19G26 RMK AO2 PK WND 29026/0138 $
94908KDBQ DBQ20090211194512102/11/09 19:45:31  5-MIN KDBQ 120145Z 29020G29KT 10SM OVC014 01/M01 A2969 1290 85 0 290/20G29 RMK AO2 PK WND 29029/0142 $
94908KDBQ DBQ20090211195014302/11/09 19:50:31  5-MIN KDBQ 120150Z AUTO 29016G29KT 10SM OVC014 01/M01 A2970 1290 85 0 290/16G29 RMK AO2 PK WND 29029/0142 SLP065 T00111011 $
94908KDBQ DBQ20090211195510802/11/09 19:55:31  5-MIN KDBQ 120155Z AUTO 29014G25KT 10SM OVC014 01/M01 A2970 1280 85 0 290/14G25 RMK AO2 $
94908KDBQ DBQ20090211200010802/11/09 20:00:31  5-MIN KDBQ 120200Z AUTO 30014G22KT 10SM OVC014 01/M01 A2970 1280 85 0 300/14G22 RMK AO2 $
94908KDBQ DBQ20090211200510802/11/09 20:05:31  5-MIN KDBQ 120205Z AUTO 29014G22KT 10SM OVC014 01/M01 A2971 1270 85 0 290/14G22 RMK AO2 $
94908KDBQ DBQ20090211201010802/11/09 20:10:31  5-MIN KDBQ 120210Z AUTO 29015G22KT 10SM OVC014 01/M01 A2971 1270 85 0 290/15G22 RMK AO2 $
94908KDBQ DBQ20090211201510802/11/09 20:15:31  5-MIN KDBQ 120215Z AUTO 29016G22KT 10SM OVC014 01/M01 A2971 1270 85 0 290/16G22 RMK AO2 $
94908KDBQ DBQ20090211202010802/11/09 20:20:31  5-MIN KDBQ 120220Z AUTO 29014G23KT 10SM OVC014 01/M02 A2972 1270 82 0 290/14G23 RMK AO2 $
94908KDBQ DBQ20090211202510802/11/09 20:25:31  5-MIN KDBQ 120225Z AUTO 29016G23KT 10SM OVC014 01/M02 A2972 1260 82 0 290/16G23 RMK AO2 $
94908KDBQ DBQ20090211203010802/11/09 20:30:31  5-MIN KDBQ 120230Z AUTO 29019G24KT 10SM OVC014 01/M02 A2973 1260 82 0 290/19G24 RMK AO2 $
94908KDBQ DBQ20090211203510802/11/09 20:35:31  5-MIN KDBQ 120235Z AUTO 29018G24KT 10SM OVC014 01/M02 A2973 1250 82 0 290/18G24 RMK AO2 $
94908KDBQ DBQ20090211204012602/11/09 20:40:31  5-MIN KDBQ 120240Z AUTO 29019G26KT 10SM OVC014 01/M02 A2973 1250 82 0 290/19G26 RMK AO2 PK WND 27026/0240 $
94908KDBQ DBQ20090211204512602/11/09 20:45:31  5-MIN KDBQ 120245Z AUTO 29020G26KT 10SM OVC014 01/M02 A2973 1250 82 0 290/20G26 RMK AO2 PK WND 27026/0240 $
94908KDBQ DBQ20090211205014902/11/09 20:50:31  5-MIN KDBQ 120250Z AUTO 29021G26KT 10SM OVC014 01/M02 A2974 1250 78 0 290/21G26 RMK AO2 PK WND 29026/0250 SLP080 T00111022 53038 $
94908KDBQ DBQ20090211205511102/11/09 20:55:31  5-MIN KDBQ 120255Z AUTO 30017G26KT 10SM OVC016 01/M02 A2974 1250 78 -100 290/17G26 RMK AO2 $
94908KDBQ DBQ20090211210012902/11/09 21:00:31  5-MIN KDBQ 120300Z AUTO 29021G27KT 10SM OVC016 01/M02 A2974 1240 78 -100 290/21G27 RMK AO2 PK WND 29027/0258 $
94908KDBQ DBQ20090211210512902/11/09 21:05:31  5-MIN KDBQ 120305Z AUTO 30020G27KT 10SM OVC016 01/M02 A2975 1240 78 -100 290/20G27 RMK AO2 PK WND 29027/0258 $
94908KDBQ DBQ20090211211012902/11/09 21:10:31  5-MIN KDBQ 120310Z AUTO 29018G25KT 10SM OVC018 01/M02 A2975 1240 78 -100 290/18G25 RMK AO2 PK WND 29027/0258 $
94908KDBQ DBQ20090211211512902/11/09 21:15:31  5-MIN KDBQ 120315Z AUTO 30017G24KT 10SM OVC018 01/M02 A2975 1240 78 -100 290/17G24 RMK AO2 PK WND 29027/0258 $
94908KDBQ DBQ20090211212012902/11/09 21:20:31  5-MIN KDBQ 120320Z AUTO 29020G27KT 10SM OVC018 01/M02 A2976 1230 78 -100 290/20G27 RMK AO2 PK WND 29027/0319 $
94908KDBQ DBQ20090211212512902/11/09 21:25:31  5-MIN KDBQ 120325Z AUTO 29022G27KT 10SM OVC018 01/M02 A2976 1230 78 -100 290/22G27 RMK AO2 PK WND 30027/0324 $
94908KDBQ DBQ20090211213012902/11/09 21:30:31  5-MIN KDBQ 120330Z AUTO 29020G27KT 10SM OVC018 01/M02 A2976 1220 78 -100 290/20G27 RMK AO2 PK WND 30027/0324 $
94908KDBQ DBQ20090211213512902/11/09 21:35:31  5-MIN KDBQ 120335Z AUTO 29015G24KT 10SM OVC018 01/M02 A2976 1220 78 -100 290/15G24 RMK AO2 PK WND 30027/0324 $
94908KDBQ DBQ20090211214012902/11/09 21:40:31  5-MIN KDBQ 120340Z AUTO 29019G22KT 10SM OVC018 01/M02 A2977 1220 82 -100 290/19G22 RMK AO2 PK WND 30027/0324 $
94908KDBQ DBQ20090211214512902/11/09 21:45:31  5-MIN KDBQ 120345Z AUTO 29019G23KT 10SM OVC018 01/M02 A2977 1220 78 -100 290/19G23 RMK AO2 PK WND 30027/0324 $
94908KDBQ DBQ20090211215014602/11/09 21:50:31  5-MIN KDBQ 120350Z AUTO 29016G24KT 10SM OVC018 01/M02 A2978 1210 78 -100 290/16G24 RMK AO2 PK WND 30027/0324 SLP094 T00111022 $
94908KDBQ DBQ20090211215511102/11/09 21:55:31  5-MIN KDBQ 120355Z AUTO 28018G23KT 10SM OVC018 01/M02 A2978 1210 78 -100 280/18G23 RMK AO2 $
94908KDBQ DBQ20090211220012902/11/09 22:00:31  5-MIN KDBQ 120400Z AUTO 29019G28KT 10SM OVC018 01/M02 A2978 1210 78 -100 290/19G28 RMK AO2 PK WND 30028/0400 $
94908KDBQ DBQ20090211220512902/11/09 22:05:31  5-MIN KDBQ 120405Z AUTO 29020G29KT 10SM OVC018 01/M02 A2979 1200 78 -100 290/20G29 RMK AO2 PK WND 28029/0401 $
94908KDBQ DBQ20090211221012902/11/09 22:10:31  5-MIN KDBQ 120410Z AUTO 29017G29KT 10SM OVC018 01/M02 A2979 1200 78 -100 290/17G29 RMK AO2 PK WND 28029/0401 $
94908KDBQ DBQ20090211221512902/11/09 22:15:31  5-MIN KDBQ 120415Z AUTO 30018G24KT 10SM OVC018 01/M02 A2979 1200 78 -100 300/18G24 RMK AO2 PK WND 28029/0401 $
94908KDBQ DBQ20090211222012902/11/09 22:20:31  5-MIN KDBQ 120420Z AUTO 30018G26KT 10SM OVC018 01/M02 A2979 1200 78 -100 300/18G26 RMK AO2 PK WND 28029/0401 $
94908KDBQ DBQ20090211222512902/11/09 22:25:31  5-MIN KDBQ 120425Z AUTO 30018G26KT 10SM OVC018 01/M03 A2980 1190 75 -100 300/18G26 RMK AO2 PK WND 28029/0401 $
94908KDBQ DBQ20090211223012902/11/09 22:30:31  5-MIN KDBQ 120430Z AUTO 30022G28KT 10SM OVC018 01/M03 A2980 1190 75 -100 300/22G28 RMK AO2 PK WND 28029/0401 $
94908KDBQ DBQ20090211223512902/11/09 22:35:31  5-MIN KDBQ 120435Z AUTO 30020G29KT 10SM OVC020 01/M03 A2980 1190 75 -100 300/20G29 RMK AO2 PK WND 29029/0435 $
94908KDBQ DBQ20090211224012902/11/09 22:40:31  5-MIN KDBQ 120440Z AUTO 29021G29KT 10SM OVC020 01/M03 A2981 1180 75 -100 290/21G29 RMK AO2 PK WND 30029/0439 $
94908KDBQ DBQ20090211224512902/11/09 22:45:31  5-MIN KDBQ 120445Z AUTO 29020G29KT 10SM OVC020 01/M03 A2981 1180 75 -100 290/20G29 RMK AO2 PK WND 30029/0439 $
94908KDBQ DBQ20090211225014602/11/09 22:50:31  5-MIN KDBQ 120450Z AUTO 29020G27KT 10SM OVC020 01/M03 A2982 1170 75 -100 290/20G27 RMK AO2 PK WND 30029/0439 SLP108 T00111028 $
94908KDBQ DBQ20090211225511102/11/09 22:55:31  5-MIN KDBQ 120455Z AUTO 29019G29KT 10SM OVC022 01/M03 A2982 1170 72 -100 290/19G29 RMK AO2 $
94908KDBQ DBQ20090211230011102/11/09 23:00:31  5-MIN KDBQ 120500Z AUTO 29018G29KT 10SM OVC022 01/M03 A2982 1170 72 -200 290/18G29 RMK AO2 $
94908KDBQ DBQ20090211230513602/11/09 23:05:31  5-MIN KDBQ 120505Z AUTO 30018G28KT 10SM BKN022 OVC027 01/M03 A2982 1170 72 -200 290/18G28 RMK AO2 PK WND 29028/0502 $
94908KDBQ DBQ20090211231012902/11/09 23:10:31  5-MIN KDBQ 120510Z AUTO 29021G28KT 10SM OVC024 01/M03 A2983 1170 72 -200 290/21G28 RMK AO2 PK WND 29028/0502 $
94908KDBQ DBQ20090211231512902/11/09 23:15:31  5-MIN KDBQ 120515Z AUTO 30021G28KT 10SM OVC024 01/M03 A2983 1160 72 -200 300/21G28 RMK AO2 PK WND 29028/0514 $
94908KDBQ DBQ20090211232012902/11/09 23:20:31  5-MIN KDBQ 120520Z AUTO 29018G28KT 10SM OVC024 01/M03 A2983 1160 72 -200 290/18G28 RMK AO2 PK WND 29028/0514 $
94908KDBQ DBQ20090211232512902/11/09 23:25:31  5-MIN KDBQ 120525Z AUTO 29017G24KT 10SM OVC024 01/M03 A2983 1160 78 -200 290/17G24 RMK AO2 PK WND 29028/0514 $
94908KDBQ DBQ20090211233012902/11/09 23:30:31  5-MIN KDBQ 120530Z AUTO 29016G25KT 10SM OVC024 01/M03 A2983 1160 72 -200 290/16G25 RMK AO2 PK WND 29028/0514 $
94908KDBQ DBQ20090211233512902/11/09 23:35:31  5-MIN KDBQ 120535Z AUTO 28016G25KT 10SM OVC024 01/M03 A2984 1160 78 -200 280/16G25 RMK AO2 PK WND 29028/0514 $
94908KDBQ DBQ20090211234012902/11/09 23:40:31  5-MIN KDBQ 120540Z AUTO 29018G28KT 10SM BKN026 01/M03 A2984 1160 75 -200 290/18G28 RMK AO2 PK WND 29028/0538 $
94908KDBQ DBQ20090211234512902/11/09 23:45:31  5-MIN KDBQ 120545Z AUTO 29017G28KT 10SM BKN026 01/M03 A2984 1160 75 -200 290/17G28 RMK AO2 PK WND 29028/0538 $
94908KDBQ DBQ20090211235016802/11/09 23:50:31  5-MIN KDBQ 120550Z AUTO 29017KT 10SM OVC026 01/M03 A2984 1150 72 -200 290/17 RMK AO2 PK WND 29028/0538 SLP115 T00111033 10011 20006 400610006 53034 $
94908KDBQ DBQ20090211235511102/11/09 23:55:31  5-MIN KDBQ 120555Z AUTO 28016G23KT 10SM OVC024 01/M03 A2984 1150 78 -200 280/16G23 RMK AO2 $
94908KDBQ DBQ20090212000011102/12/09 00:00:38  5-MIN KDBQ 120600Z AUTO 28017G21KT 10SM OVC024 01/M03 A2985 1150 78 -200 280/17G21 RMK AO2 $
94908KDBQ DBQ20090212000512902/12/09 00:05:31  5-MIN KDBQ 120605Z AUTO 28017G26KT 10SM OVC024 01/M03 A2985 1150 78 -200 280/17G26 RMK AO2 PK WND 28026/0602 $
94908KDBQ DBQ20090212001012902/12/09 00:10:31  5-MIN KDBQ 120610Z AUTO 29018G26KT 10SM OVC024 01/M03 A2985 1140 78 -200 290/18G26 RMK AO2 PK WND 29026/0607 $
94908KDBQ DBQ20090212001512902/12/09 00:15:32  5-MIN KDBQ 120615Z AUTO 29016G26KT 10SM OVC022 01/M03 A2985 1140 78 -300 290/16G26 RMK AO2 PK WND 29026/0607 $
94908KDBQ DBQ20090212002012902/12/09 00:20:31  5-MIN KDBQ 120620Z AUTO 29018G25KT 10SM BKN022 01/M03 A2986 1140 78 -300 290/18G25 RMK AO2 PK WND 29026/0607 $
94908KDBQ DBQ20090212002512902/12/09 00:25:31  5-MIN KDBQ 120625Z AUTO 28015G23KT 10SM BKN022 01/M03 A2986 1140 78 -300 280/15G23 RMK AO2 PK WND 29026/0607 $
94908KDBQ DBQ20090212003012902/12/09 00:30:31  5-MIN KDBQ 120630Z AUTO 28015G23KT 10SM BKN022 01/M03 A2986 1140 78 -300 280/15G23 RMK AO2 PK WND 29026/0607 $
94908KDBQ DBQ20090212003512902/12/09 00:35:31  5-MIN KDBQ 120635Z AUTO 28013G23KT 10SM BKN022 01/M03 A2986 1140 78 -300 280/13G23 RMK AO2 PK WND 29026/0607 $
94908KDBQ DBQ20090212004012902/12/09 00:40:31  5-MIN KDBQ 120640Z AUTO 28011G20KT 10SM BKN022 00/M03 A2986 1140 81 -300 280/11G20 RMK AO2 PK WND 29026/0607 $
94908KDBQ DBQ20090212004512902/12/09 00:45:31  5-MIN KDBQ 120645Z AUTO 28013G20KT 10SM SCT024 00/M03 A2986 1140 81 -300 280/13G20 RMK AO2 PK WND 29026/0607 $
94908KDBQ DBQ20090212005012302/12/09 00:50:31  5-MIN KDBQ 120650Z AUTO 28012KT 10SM FEW024 00/M03 A2986 1140 81 -300 280/12 RMK AO2 PK WND 29026/0607 $
94908KDBQ DBQ20090212005511102/12/09 00:55:31  5-MIN KDBQ 120655Z AUTO 28012G20KT 10SM FEW024 00/M03 A2986 1140 81 -300 280/12G20 RMK AO2 $
94908KDBQ DBQ20090212010010802/12/09 01:00:31  5-MIN KDBQ 120700Z AUTO 28015G20KT 10SM CLR 00/M03 A2986 1130 81 -300 280/15G20 RMK AO2 $
94908KDBQ DBQ20090212010510802/12/09 01:05:31  5-MIN KDBQ 120705Z AUTO 28010G18KT 10SM CLR 00/M03 A2986 1130 81 -300 280/10G18 RMK AO2 $
94908KDBQ DBQ20090212011010802/12/09 01:10:31  5-MIN KDBQ 120710Z AUTO 28013G20KT 10SM CLR 00/M03 A2986 1140 81 -300 280/13G20 RMK AO2 $
94908KDBQ DBQ20090212011510802/12/09 01:15:31  5-MIN KDBQ 120715Z AUTO 28012G20KT 10SM CLR 00/M03 A2986 1140 81 -300 280/12G20 RMK AO2 $
94908KDBQ DBQ20090212012010202/12/09 01:20:31  5-MIN KDBQ 120720Z AUTO 28014KT 10SM CLR 00/M03 A2986 1130 81 -300 280/14 RMK AO2 $
94908KDBQ DBQ20090212012510202/12/09 01:25:31  5-MIN KDBQ 120725Z AUTO 28013KT 10SM CLR 00/M03 A2986 1130 81 -300 280/13 RMK AO2 $
94908KDBQ DBQ20090212013010302/12/09 01:30:31  5-MIN KDBQ 120730Z AUTO 28013KT 10SM CLR M01/M03 A2986 1130 85 -400 280/13 RMK AO2 $
94908KDBQ DBQ20090212013510202/12/09 01:35:31  5-MIN KDBQ 120735Z AUTO 28011KT 10SM CLR 00/M03 A2987 1130 81 -300 280/11 RMK AO2 $
94908KDBQ DBQ20090212014010302/12/09 01:40:31  5-MIN KDBQ 120740Z AUTO 28011KT 10SM CLR M01/M03 A2987 1130 85 -400 280/11 RMK AO2 $
94908KDBQ DBQ20090212014510302/12/09 01:45:31  5-MIN KDBQ 120745Z AUTO 28012KT 10SM CLR M01/M03 A2987 1130 85 -400 280/12 RMK AO2 $
94908KDBQ DBQ20090212015012002/12/09 01:50:31  5-MIN KDBQ 120750Z AUTO 27012KT 10SM CLR M01/M03 A2987 1120 85 -400 270/12 RMK AO2 SLP126 T10061028 $
94908KDBQ DBQ20090212015510302/12/09 01:55:31  5-MIN KDBQ 120755Z AUTO 28012KT 10SM CLR M01/M03 A2987 1120 85 -400 280/12 RMK AO2 $
94908KDBQ DBQ20090212020010302/12/09 02:00:31  5-MIN KDBQ 120800Z AUTO 28012KT 10SM CLR M01/M03 A2987 1120 81 -400 280/12 RMK AO2 $
94908KDBQ DBQ20090212020510902/12/09 02:05:31  5-MIN KDBQ 120805Z AUTO 28015G19KT 10SM CLR M01/M03 A2987 1130 81 -400 280/15G19 RMK AO2 $
94908KDBQ DBQ20090212021010202/12/09 02:10:31  5-MIN KDBQ 120810Z AUTO 28013KT 10SM CLR 00/M03 A2987 1130 78 -300 280/13 RMK AO2 $
94908KDBQ DBQ20090212021510302/12/09 02:15:31  5-MIN KDBQ 120815Z AUTO 28014KT 10SM CLR M01/M03 A2987 1130 81 -400 280/14 RMK AO2 $
94908KDBQ DBQ20090212022010302/12/09 02:20:31  5-MIN KDBQ 120820Z AUTO 28015KT 10SM CLR M01/M03 A2987 1120 81 -400 270/15 RMK AO2 $
94908KDBQ DBQ20090212022510302/12/09 02:25:31  5-MIN KDBQ 120825Z AUTO 27013KT 10SM CLR M01/M03 A2987 1120 81 -400 270/13 RMK AO2 $
94908KDBQ DBQ20090212023010302/12/09 02:30:31  5-MIN KDBQ 120830Z AUTO 27012KT 10SM CLR M01/M03 A2988 1120 81 -400 270/12 RMK AO2 $
94908KDBQ DBQ20090212023510302/12/09 02:35:31  5-MIN KDBQ 120835Z AUTO 27013KT 10SM CLR M01/M03 A2988 1120 81 -400 270/13 RMK AO2 $
94908KDBQ DBQ20090212024010302/12/09 02:40:31  5-MIN KDBQ 120840Z AUTO 27012KT 10SM CLR M01/M03 A2988 1120 81 -400 270/12 RMK AO2 $
94908KDBQ DBQ20090212024510302/12/09 02:45:31  5-MIN KDBQ 120845Z AUTO 26014KT 10SM CLR M01/M03 A2988 1120 81 -400 260/14 RMK AO2 $
94908KDBQ DBQ20090212025012602/12/09 02:50:31  5-MIN KDBQ 120850Z AUTO 27012KT 10SM CLR M01/M03 A2988 1120 81 -400 270/12 RMK AO2 SLP128 T10061033 51034 $
94908KDBQ DBQ20090212025510302/12/09 02:55:31  5-MIN KDBQ 120855Z AUTO 27013KT 10SM CLR M01/M03 A2988 1120 81 -400 270/13 RMK AO2 $
94908KDBQ DBQ20090212030010302/12/09 03:00:31  5-MIN KDBQ 120900Z AUTO 27014KT 10SM CLR M01/M03 A2988 1110 81 -400 270/14 RMK AO2 $
94908KDBQ DBQ20090212030510302/12/09 03:05:31  5-MIN KDBQ 120905Z AUTO 26013KT 10SM CLR M01/M03 A2988 1110 81 -400 260/13 RMK AO2 $
94908KDBQ DBQ20090212031010902/12/09 03:10:31  5-MIN KDBQ 120910Z AUTO 26013G19KT 10SM CLR M01/M03 A2988 1110 81 -400 260/13G19 RMK AO2 $
94908KDBQ DBQ20090212031510902/12/09 03:15:31  5-MIN KDBQ 120915Z AUTO 27012G22KT 10SM CLR M01/M03 A2988 1110 81 -400 270/12G22 RMK AO2 $
94908KDBQ DBQ20090212032010902/12/09 03:20:31  5-MIN KDBQ 120920Z AUTO 27014G22KT 10SM CLR M01/M04 A2988 1110 78 -400 270/14G22 RMK AO2 $
94908KDBQ DBQ20090212032510302/12/09 03:25:31  5-MIN KDBQ 120925Z AUTO 26014KT 10SM CLR M01/M04 A2989 1110 78 -400 260/14 RMK AO2 $
94908KDBQ DBQ20090212033010302/12/09 03:30:31  5-MIN KDBQ 120930Z AUTO 27013KT 10SM CLR M01/M04 A2989 1110 78 -400 270/13 RMK AO2 $
94908KDBQ DBQ20090212033510302/12/09 03:35:31  5-MIN KDBQ 120935Z AUTO 27014KT 10SM CLR M01/M04 A2989 1110 78 -400 270/14 RMK AO2 $
94908KDBQ DBQ20090212034010302/12/09 03:40:31  5-MIN KDBQ 120940Z AUTO 27016KT 10SM CLR M01/M04 A2989 1110 78 -400 270/16 RMK AO2 $
94908KDBQ DBQ20090212034510902/12/09 03:45:31  5-MIN KDBQ 120945Z AUTO 27014G21KT 10SM CLR M01/M04 A2989 1110 78 -400 270/14G21 RMK AO2 $
94908KDBQ DBQ20090212035012602/12/09 03:50:31  5-MIN KDBQ 120950Z AUTO 26015G21KT 10SM CLR M01/M04 A2989 1110 78 -400 260/15G21 RMK AO2 SLP133 T10061039 $
94908KDBQ DBQ20090212035510302/12/09 03:55:31  5-MIN KDBQ 120955Z AUTO 26011KT 10SM CLR M01/M04 A2989 1100 78 -400 260/11 RMK AO2 $
94908KDBQ DBQ20090212040010302/12/09 04:00:31  5-MIN KDBQ 121000Z AUTO 26012KT 10SM CLR M01/M04 A2989 1100 78 -400 260/12 RMK AO2 $
94908KDBQ DBQ20090212040510302/12/09 04:05:31  5-MIN KDBQ 121005Z AUTO 26013KT 10SM CLR M01/M04 A2989 1100 78 -400 260/13 RMK AO2 $
94908KDBQ DBQ20090212041010302/12/09 04:10:31  5-MIN KDBQ 121010Z AUTO 26014KT 10SM CLR M01/M04 A2990 1100 81 -500 260/14 RMK AO2 $
94908KDBQ DBQ20090212041510302/12/09 04:15:31  5-MIN KDBQ 121015Z AUTO 26011KT 10SM CLR M01/M04 A2990 1100 81 -500 260/11 RMK AO2 $
94908KDBQ DBQ20090212042010302/12/09 04:20:31  5-MIN KDBQ 121020Z AUTO 26012KT 10SM CLR M01/M04 A2990 1090 81 -500 260/12 RMK AO2 $
94908KDBQ DBQ20090212042510302/12/09 04:25:31  5-MIN KDBQ 121025Z AUTO 27014KT 10SM CLR M01/M04 A2990 1090 81 -500 260/14 RMK AO2 $
94908KDBQ DBQ20090212043010302/12/09 04:30:31  5-MIN KDBQ 121030Z AUTO 26011KT 10SM CLR M01/M04 A2990 1090 81 -500 260/11 RMK AO2 $
94908KDBQ DBQ20090212043510302/12/09 04:35:31  5-MIN KDBQ 121035Z AUTO 26014KT 10SM CLR M01/M04 A2991 1090 81 -500 260/14 RMK AO2 $
94908KDBQ DBQ20090212044010302/12/09 04:40:31  5-MIN KDBQ 121040Z AUTO 26013KT 10SM CLR M01/M04 A2991 1090 81 -500 260/13 RMK AO2 $
94908KDBQ DBQ20090212044510302/12/09 04:45:31  5-MIN KDBQ 121045Z AUTO 26014KT 10SM CLR M01/M04 A2991 1090 81 -500 260/14 RMK AO2 $
94908KDBQ DBQ20090212045012002/12/09 04:50:31  5-MIN KDBQ 121050Z AUTO 27013KT 10SM CLR M01/M04 A2991 1090 81 -500 270/13 RMK AO2 SLP139 T10111039 $
94908KDBQ DBQ20090212045510302/12/09 04:55:31  5-MIN KDBQ 121055Z AUTO 27013KT 10SM CLR M01/M04 A2991 1090 81 -500 270/13 RMK AO2 $
94908KDBQ DBQ20090212050010302/12/09 05:00:31  5-MIN KDBQ 121100Z AUTO 27013KT 10SM CLR M01/M04 A2991 1090 81 -500 270/13 RMK AO2 $
94908KDBQ DBQ20090212050510302/12/09 05:05:31  5-MIN KDBQ 121105Z AUTO 27015KT 10SM CLR M01/M04 A2991 1090 81 -500 270/15 RMK AO2 $
94908KDBQ DBQ20090212051010302/12/09 05:10:31  5-MIN KDBQ 121110Z AUTO 27016KT 10SM CLR M01/M04 A2991 1080 81 -500 270/16 RMK AO2 $
94908KDBQ DBQ20090212051510302/12/09 05:15:31  5-MIN KDBQ 121115Z AUTO 27013KT 10SM CLR M01/M04 A2991 1080 81 -500 270/13 RMK AO2 $
94908KDBQ DBQ20090212052010302/12/09 05:20:31  5-MIN KDBQ 121120Z AUTO 27012KT 10SM CLR M01/M04 A2992 1080 81 -500 270/12 RMK AO2 $
94908KDBQ DBQ20090212052510302/12/09 05:25:31  5-MIN KDBQ 121125Z AUTO 27014KT 10SM CLR M01/M04 A2991 1080 81 -500 270/14 RMK AO2 $
94908KDBQ DBQ20090212053010302/12/09 05:30:31  5-MIN KDBQ 121130Z AUTO 27013KT 10SM CLR M01/M04 A2992 1080 81 -500 270/13 RMK AO2 $
94908KDBQ DBQ20090212053510902/12/09 05:35:31  5-MIN KDBQ 121135Z AUTO 27013G20KT 10SM CLR M01/M04 A2992 1080 81 -500 270/13G20 RMK AO2 $
94908KDBQ DBQ20090212054010902/12/09 05:40:31  5-MIN KDBQ 121140Z AUTO 27014G19KT 10SM CLR M01/M04 A2992 1080 81 -500 270/14G19 RMK AO2 $
94908KDBQ DBQ20090212054510902/12/09 05:45:31  5-MIN KDBQ 121145Z AUTO 27013G19KT 10SM CLR M01/M04 A2992 1080 81 -500 260/13G19 RMK AO2 $
94908KDBQ DBQ20090212055014402/12/09 05:50:31  5-MIN KDBQ 121150Z AUTO 27011KT 10SM CLR M01/M04 A2992 1080 81 -500 270/11 RMK AO2 SLP145 70007 T10111039 10011 21011 51013 $
94908KDBQ DBQ20090212055509802/12/09 05:55:31  5-MIN KDBQ 121155Z 27014KT 10SM CLR M01/M04 A2993 1070 81 -500 270/14 RMK AO2 $
94908KDBQ DBQ20090212060009802/12/09 06:00:31  5-MIN KDBQ 121200Z 27013KT 10SM CLR M01/M04 A2993 1070 81 -500 270/13 RMK AO2 $
94908KDBQ DBQ20090212060509802/12/09 06:05:31  5-MIN KDBQ 121205Z 27014KT 10SM CLR M01/M04 A2993 1070 78 -500 270/14 RMK AO2 $
94908KDBQ DBQ20090212061009802/12/09 06:10:31  5-MIN KDBQ 121210Z 27012KT 10SM CLR M01/M04 A2993 1070 78 -500 260/12 RMK AO2 $
94908KDBQ DBQ20090212061510402/12/09 06:15:31  5-MIN KDBQ 121215Z 26013G23KT 10SM CLR M01/M04 A2993 1070 78 -600 260/13G23 RMK AO2 $
94908KDBQ DBQ20090212062010402/12/09 06:20:31  5-MIN KDBQ 121220Z 27012G23KT 10SM CLR M01/M04 A2994 1060 78 -600 270/12G23 RMK AO2 $
94908KDBQ DBQ20090212062509802/12/09 06:25:31  5-MIN KDBQ 121225Z 27014KT 10SM CLR M01/M04 A2994 1060 78 -600 270/14 RMK AO2 $
94908KDBQ DBQ20090212063009802/12/09 06:30:31  5-MIN KDBQ 121230Z 27012KT 10SM CLR M01/M04 A2994 1060 78 -600 270/12 RMK AO2 $
94908KDBQ DBQ20090212063509802/12/09 06:35:31  5-MIN KDBQ 121235Z 28015KT 10SM CLR M01/M04 A2994 1060 78 -600 280/15 RMK AO2 $
94908KDBQ DBQ20090212064010402/12/09 06:40:31  5-MIN KDBQ 121240Z 27015G20KT 10SM CLR M01/M04 A2994 1060 78 -600 270/15G20 RMK AO2 $
94908KDBQ DBQ20090212064510702/12/09 06:45:31  5-MIN KDBQ 121245Z 27013G20KT 10SM FEW026 M01/M04 A2995 1060 78 -600 270/13G20 RMK AO2 $
94908KDBQ DBQ20090212065012402/12/09 06:50:31  5-MIN KDBQ 121250Z 28015G19KT 10SM SCT026 M01/M04 A2995 1050 78 -600 270/15G19 RMK AO2 SLP153 T10111044 $
94908KDBQ DBQ20090212065510702/12/09 06:55:31  5-MIN KDBQ 121255Z 28013G19KT 10SM BKN026 M01/M04 A2995 1050 81 -600 280/13G19 RMK AO2 $
94908KDBQ DBQ20090212070009902/12/09 07:00:31  5-MIN KDBQ 121300Z 28012KT 10SM BKN026 M01/M04 A2995 1050 78 -500 270/12 RMK AO2
94908KDBQ DBQ20090212070510502/12/09 07:05:31  5-MIN KDBQ 121305Z 28015G21KT 10SM BKN026 M01/M04 A2995 1050 78 -500 280/15G21 RMK AO2
94908KDBQ DBQ20090212071010502/12/09 07:10:31  5-MIN KDBQ 121310Z 28013G21KT 10SM OVC026 M01/M04 A2995 1050 78 -500 280/13G21 RMK AO2
94908KDBQ DBQ20090212071509902/12/09 07:15:31  5-MIN KDBQ 121315Z 27014KT 10SM OVC026 M01/M04 A2995 1050 78 -500 270/14 RMK AO2
94908KDBQ DBQ20090212072009902/12/09 07:20:31  5-MIN KDBQ 121320Z 28013KT 10SM OVC026 M01/M04 A2995 1050 78 -500 270/13 RMK AO2
94908KDBQ DBQ20090212072509902/12/09 07:25:31  5-MIN KDBQ 121325Z 27013KT 10SM OVC026 M01/M04 A2996 1040 78 -500 270/13 RMK AO2
94908KDBQ DBQ20090212073009902/12/09 07:30:31  5-MIN KDBQ 121330Z 27014KT 10SM OVC026 M01/M04 A2996 1040 78 -500 270/14 RMK AO2
94908KDBQ DBQ20090212073509902/12/09 07:35:31  5-MIN KDBQ 121335Z 27013KT 10SM OVC026 M01/M04 A2996 1040 78 -500 270/13 RMK AO2
94908KDBQ DBQ20090212074009902/12/09 07:40:31  5-MIN KDBQ 121340Z 27014KT 10SM OVC026 M01/M04 A2997 1040 78 -500 270/14 RMK AO2
94908KDBQ DBQ20090212074509902/12/09 07:45:31  5-MIN KDBQ 121345Z 26014KT 10SM OVC024 M01/M04 A2997 1040 78 -500 260/14 RMK AO2
94908KDBQ DBQ20090212075011602/12/09 07:50:31  5-MIN KDBQ 121350Z 26014KT 10SM OVC024 M01/M04 A2997 1030 78 -500 260/14 RMK AO2 SLP159 T10061039
94908KDBQ DBQ20090212075509902/12/09 07:55:31  5-MIN KDBQ 121355Z 26015KT 10SM OVC024 M01/M04 A2997 1030 78 -500 260/15 RMK AO2
94908KDBQ DBQ20090212080009902/12/09 08:00:31  5-MIN KDBQ 121400Z 27013KT 10SM OVC024 M01/M04 A2997 1030 78 -500 270/13 RMK AO2
94908KDBQ DBQ20090212080509902/12/09 08:05:31  5-MIN KDBQ 121405Z 27015KT 10SM OVC024 M01/M04 A2998 1030 78 -500 270/15 RMK AO2
94908KDBQ DBQ20090212081010402/12/09 08:10:31  5-MIN KDBQ 121410Z 27015G20KT 10SM OVC024 00/M04 A2998 1030 75 -500 270/15G20 RMK AO2
94908KDBQ DBQ20090212081510402/12/09 08:15:31  5-MIN KDBQ 121415Z 27014G20KT 10SM OVC024 00/M04 A2998 1020 75 -500 270/14G20 RMK AO2
94908KDBQ DBQ20090212082009802/12/09 08:20:31  5-MIN KDBQ 121420Z 27014KT 10SM OVC024 00/M04 A2998 1020 75 -500 270/14 RMK AO2
94908KDBQ DBQ20090212082509802/12/09 08:25:31  5-MIN KDBQ 121425Z 27013KT 10SM OVC024 00/M03 A2998 1020 78 -500 270/13 RMK AO2
94908KDBQ DBQ20090212083009802/12/09 08:30:31  5-MIN KDBQ 121430Z 28014KT 10SM OVC024 00/M04 A2999 1020 75 -500 280/14 RMK AO2
94908KDBQ DBQ20090212083510402/12/09 08:35:31  5-MIN KDBQ 121435Z 28015G21KT 10SM OVC022 00/M04 A2999 1010 75 -500 270/15G21 RMK AO2
94908KDBQ DBQ20090212084010402/12/09 08:40:31  5-MIN KDBQ 121440Z 27013G21KT 10SM OVC022 00/M04 A2999 1010 75 -500 270/13G21 RMK AO2
94908KDBQ DBQ20090212084510402/12/09 08:45:31  5-MIN KDBQ 121445Z 27016G21KT 10SM OVC022 00/M04 A2999 1010 75 -500 270/16G21 RMK AO2
94908KDBQ DBQ20090212085012702/12/09 08:50:31  5-MIN KDBQ 121450Z 28015G21KT 10SM OVC022 00/M04 A3000 1010 75 -500 270/15G21 RMK AO2 SLP170 T00001039 53016
94908KDBQ DBQ20090212085510402/12/09 08:55:31  5-MIN KDBQ 121455Z 27015G20KT 10SM OVC022 00/M03 A3000 1010 78 -500 270/15G20 RMK AO2
94908KDBQ DBQ20090212090009802/12/09 09:00:31  5-MIN KDBQ 121500Z 27012KT 10SM OVC022 00/M03 A3000 1010 78 -500 270/12 RMK AO2
94908KDBQ DBQ20090212090510402/12/09 09:05:31  5-MIN KDBQ 121505Z 28015G19KT 10SM OVC022 00/M03 A3000 1010 78 -500 280/15G19 RMK AO2
94908KDBQ DBQ20090212091009802/12/09 09:10:31  5-MIN KDBQ 121510Z 28013KT 10SM OVC022 01/M03 A3000 1000 75 -400 280/13 RMK AO2
94908KDBQ DBQ20090212091509802/12/09 09:15:31  5-MIN KDBQ 121515Z 28014KT 10SM OVC022 01/M03 A3000 1000 75 -400 280/14 RMK AO2
94908KDBQ DBQ20090212092010402/12/09 09:20:31  5-MIN KDBQ 121520Z 27014G20KT 10SM OVC022 01/M03 A3000 1000 75 -400 270/14G20 RMK AO2
94908KDBQ DBQ20090212092510402/12/09 09:25:31  5-MIN KDBQ 121525Z 28015G20KT 10SM OVC022 01/M03 A3000 1000 75 -400 270/15G20 RMK AO2
94908KDBQ DBQ20090212093009802/12/09 09:30:31  5-MIN KDBQ 121530Z 28014KT 10SM OVC022 01/M03 A3000 1000 75 -400 280/14 RMK AO2
94908KDBQ DBQ20090212093509802/12/09 09:35:31  5-MIN KDBQ 121535Z 28013KT 10SM OVC022 01/M03 A3001 1000 75 -400 280/13 RMK AO2
94908KDBQ DBQ20090212094009802/12/09 09:40:31  5-MIN KDBQ 121540Z 27012KT 10SM OVC024 01/M03 A3001 1000 75 -400 270/12 RMK AO2
94908KDBQ DBQ20090212094509802/12/09 09:45:31  5-MIN KDBQ 121545Z 28016KT 10SM OVC024 01/M03 A3001 1000 75 -400 280/16 RMK AO2
94908KDBQ DBQ20090212095011502/12/09 09:50:31  5-MIN KDBQ 121550Z 27013KT 10SM OVC024 01/M03 A3001 1000 72 -400 270/13 RMK AO2 SLP173 T00111033
94908KDBQ DBQ20090212095510302/12/09 09:55:31  5-MIN KDBQ 121555Z 27013G20KT 10SM OVC024 01/M03 A3001 990 72 -400 270/13G20 RMK AO2
94908KDBQ DBQ20090212100009702/12/09 10:00:31  5-MIN KDBQ 121600Z 27014KT 10SM OVC024 01/M03 A3001 990 75 -400 270/14 RMK AO2
94908KDBQ DBQ20090212100509702/12/09 10:05:31  5-MIN KDBQ 121605Z 27013KT 10SM OVC024 01/M03 A3001 990 75 -400 270/13 RMK AO2
94908KDBQ DBQ20090212101009702/12/09 10:10:31  5-MIN KDBQ 121610Z 28013KT 10SM OVC024 01/M03 A3002 990 75 -400 280/13 RMK AO2
94908KDBQ DBQ20090212101510302/12/09 10:15:31  5-MIN KDBQ 121615Z 27015G20KT 10SM OVC024 01/M03 A3002 990 75 -400 270/15G20 RMK AO2
94908KDBQ DBQ20090212102010302/12/09 10:20:31  5-MIN KDBQ 121620Z 28016G21KT 10SM OVC024 01/M03 A3002 990 75 -400 280/16G21 RMK AO2
94908KDBQ DBQ20090212102510302/12/09 10:25:31  5-MIN KDBQ 121625Z 27018G23KT 10SM OVC024 01/M03 A3002 990 72 -400 270/18G23 RMK AO2
94908KDBQ DBQ20090212103010302/12/09 10:30:31  5-MIN KDBQ 121630Z 28016G23KT 10SM OVC022 01/M03 A3002 980 75 -400 280/16G23 RMK AO2
94908KDBQ DBQ20090212103509702/12/09 10:35:31  5-MIN KDBQ 121635Z 28013KT 10SM OVC022 01/M03 A3003 980 75 -400 280/13 RMK AO2
94908KDBQ DBQ20090212104009702/12/09 10:40:31  5-MIN KDBQ 121640Z 29014KT 10SM OVC022 01/M03 A3003 980 75 -400 290/14 RMK AO2
94908KDBQ DBQ20090212104509702/12/09 10:45:31  5-MIN KDBQ 121645Z 29017KT 10SM OVC022 01/M03 A3003 980 75 -400 290/17 RMK AO2
94908KDBQ DBQ20090212105012002/12/09 10:50:31  5-MIN KDBQ 121650Z 28015G22KT 10SM OVC022 01/M03 A3003 970 72 -400 280/15G22 RMK AO2 SLP181 T00111033
94908KDBQ DBQ20090212105509702/12/09 10:55:31  5-MIN KDBQ 121655Z 29020KT 10SM OVC022 01/M03 A3004 970 72 -400 290/20 RMK AO2
94908KDBQ DBQ20090212110010302/12/09 11:00:31  5-MIN KDBQ 121700Z 28015G24KT 10SM OVC022 01/M03 A3004 970 72 -400 280/15G24 RMK AO2
94908KDBQ DBQ20090212110510302/12/09 11:05:31  5-MIN KDBQ 121705Z 28017G24KT 10SM OVC022 01/M03 A3004 970 72 -400 280/17G24 RMK AO2
94908KDBQ DBQ20090212111010302/12/09 11:10:31  5-MIN KDBQ 121710Z 29016G24KT 10SM OVC022 01/M03 A3004 970 72 -400 290/16G24 RMK AO2
94908KDBQ DBQ20090212111510302/12/09 11:15:31  5-MIN KDBQ 121715Z 28019G23KT 10SM OVC022 01/M03 A3004 960 72 -400 280/19G23 RMK AO2
94908KDBQ DBQ20090212112010302/12/09 11:20:31  5-MIN KDBQ 121720Z 29015G22KT 10SM OVC022 01/M03 A3004 970 72 -400 280/15G22 RMK AO2
94908KDBQ DBQ20090212112510302/12/09 11:25:31  5-MIN KDBQ 121725Z 29017G25KT 10SM OVC022 01/M03 A3004 970 72 -400 290/17G25 RMK AO2
94908KDBQ DBQ20090212113010302/12/09 11:30:31  5-MIN KDBQ 121730Z 29017G25KT 10SM OVC022 02/M03 A3004 970 69 -300 290/17G25 RMK AO2
94908KDBQ DBQ20090212113510302/12/09 11:35:31  5-MIN KDBQ 121735Z 29018G23KT 10SM OVC022 02/M03 A3004 970 72 -300 290/18G23 RMK AO2
94908KDBQ DBQ20090212114010302/12/09 11:40:31  5-MIN KDBQ 121740Z 30015G23KT 10SM OVC022 02/M03 A3004 970 69 -300 300/15G23 RMK AO2
94908KDBQ DBQ20090212114510302/12/09 11:45:31  5-MIN KDBQ 121745Z 29016G22KT 10SM OVC022 03/M03 A3004 970 67 -200 290/16G22 RMK AO2
94908KDBQ DBQ20090212115013802/12/09 11:50:31  5-MIN KDBQ 121750Z 30016G22KT 10SM BKN022 02/M03 A3005 960 69 -300 300/16G22 RMK AO2 SLP185 T00221028 10028 21011 53023
94908KDBQ DBQ20090212115511002/12/09 11:55:31  5-MIN KDBQ 121755Z 30017G24KT 10SM BKN024 BKN030 02/M03 A3005 960 67 -300 300/17G24 RMK AO2
94908KDBQ DBQ20090212120010302/12/09 12:00:31  5-MIN KDBQ 121800Z 29014G24KT 10SM BKN024 03/M03 A3005 960 64 -200 290/14G24 RMK AO2
94908KDBQ DBQ20090212120510302/12/09 12:05:31  5-MIN KDBQ 121805Z 29017G22KT 10SM BKN024 03/M03 A3005 960 67 -200 280/17G22 RMK AO2
94908KDBQ DBQ20090212121012802/12/09 12:10:31  5-MIN KDBQ 121810Z 28018G26KT 10SM BKN026 BKN032 03/M02 A3005 960 67 -100 280/18G26 RMK AO2 PK WND 27026/1808
94908KDBQ DBQ20090212121512802/12/09 12:15:31  5-MIN KDBQ 121815Z 28019G26KT 10SM BKN026 BKN032 03/M03 A3005 960 64 -100 280/19G26 RMK AO2 PK WND 27026/1808
94908KDBQ DBQ20090212122013202/12/09 12:20:31  5-MIN KDBQ 121820Z 29016G25KT 10SM BKN026 OVC032 03/M03 A3005 960 64 -100 290/16G25 RMK AO2 PK WND 27026/1808 PNO
94908KDBQ DBQ20090212122512302/12/09 12:25:31  5-MIN KDBQ 121825Z 28016G24KT 10SM BKN026 03/M03 A3005 960 67 -200 280/16G24 RMK AO2 PK WND 27026/1808 $
94908KDBQ DBQ20090212123013002/12/09 12:30:31  5-MIN KDBQ 121830Z 29016G25KT 10SM BKN026 BKN033 03/M03 A3005 960 64 -100 290/16G25 RMK AO2 PK WND 27026/1808 $
94908KDBQ DBQ20090212123512302/12/09 12:35:31  5-MIN KDBQ 121835Z 30021G25KT 10SM BKN028 03/M03 A3005 960 64 -100 300/21G25 RMK AO2 PK WND 27026/1808 $
94908KDBQ DBQ20090212124012302/12/09 12:40:31  5-MIN KDBQ 121840Z 29017G24KT 10SM BKN028 03/M04 A3004 970 61 -200 290/17G24 RMK AO2 PK WND 27026/1808 $
94908KDBQ DBQ20090212124512302/12/09 12:45:31  5-MIN KDBQ 121845Z 29017G26KT 10SM SCT028 03/M03 A3004 960 61 -100 290/17G26 RMK AO2 PK WND 29026/1842 $
94908KDBQ DBQ20090212125014002/12/09 12:50:31  5-MIN KDBQ 121850Z 29019G26KT 10SM FEW028 03/M04 A3004 960 61 -200 290/19G26 RMK AO2 PK WND 29026/1842 SLP184 T00281039 $
94908KDBQ DBQ20090212125510502/12/09 12:55:31  5-MIN KDBQ 121855Z 28018G24KT 10SM FEW028 03/M04 A3005 960 59 -200 280/18G24 RMK AO2 $
94908KDBQ DBQ20090212130009602/12/09 13:00:31  5-MIN KDBQ 121900Z 28017KT 10SM CLR 03/M04 A3005 960 59 -100 280/17 RMK AO2 $
94908KDBQ DBQ20090212130510202/12/09 13:05:31  5-MIN KDBQ 121905Z 28016G23KT 10SM CLR 03/M04 A3005 960 59 -100 280/16G23 RMK AO2 $
94908KDBQ DBQ20090212131010202/12/09 13:10:31  5-MIN KDBQ 121910Z 29020G25KT 10SM CLR 03/M04 A3005 960 57 -100 290/20G25 RMK AO2 $
94908KDBQ DBQ20090212131510202/12/09 13:15:31  5-MIN KDBQ 121915Z 29017G25KT 10SM CLR 03/M04 A3005 960 57 -100 290/17G25 RMK AO2 $
94908KDBQ DBQ20090212132010202/12/09 13:20:31  5-MIN KDBQ 121920Z 29017G23KT 10SM CLR 04/M05 A3005 960 52 -100 290/17G23 RMK AO2 $
94908KDBQ DBQ20090212132510202/12/09 13:25:31  5-MIN KDBQ 121925Z 28020G25KT 10SM CLR 03/M05 A3005 960 54 -100 280/20G25 RMK AO2 $
94908KDBQ DBQ20090212133012002/12/09 13:30:31  5-MIN KDBQ 121930Z 29021G28KT 10SM CLR 03/M05 A3005 960 54 -100 290/21G28 RMK AO2 PK WND 29028/1929 $
94908KDBQ DBQ20090212133512002/12/09 13:35:31  5-MIN KDBQ 121935Z 29021G30KT 10SM CLR 03/M06 A3004 960 52 -100 290/21G30 RMK AO2 PK WND 29030/1932 $
94908KDBQ DBQ20090212134012002/12/09 13:40:31  5-MIN KDBQ 121940Z 29020G30KT 10SM CLR 03/M06 A3004 960 52 -100 290/20G30 RMK AO2 PK WND 29030/1932 $
94908KDBQ DBQ20090212134512002/12/09 13:45:31  5-MIN KDBQ 121945Z 30016G26KT 10SM CLR 04/M06 A3005 960 50 -100 290/16G26 RMK AO2 PK WND 29030/1932 $
94908KDBQ DBQ20090212135013502/12/09 13:50:31  5-MIN KDBQ 121950Z 28019G25KT 10SM CLR 04/M05 A3005 960 52 -100 280/19G25 RMK AO2 PK WND 29030/1932 SLP186 T00391050
94908KDBQ DBQ20090212135510002/12/09 13:55:31  5-MIN KDBQ 121955Z 29018G25KT 10SM CLR 04/M05 A3005 960 52 -100 290/18G25 RMK AO2
94908KDBQ DBQ20090212140010002/12/09 14:00:31  5-MIN KDBQ 122000Z 28016G23KT 10SM CLR 04/M04 A3005 960 54 -100 280/16G23 RMK AO2
94908KDBQ DBQ20090212140510002/12/09 14:05:31  5-MIN KDBQ 122005Z 28015G23KT 10SM CLR 03/M04 A3004 960 59 -100 280/15G23 RMK AO2
94908KDBQ DBQ20090212141010002/12/09 14:10:31  5-MIN KDBQ 122010Z 28014G21KT 10SM CLR 04/M03 A3005 960 59 -100 280/14G21 RMK AO2
94908KDBQ DBQ20090212141510302/12/09 14:15:31  5-MIN KDBQ 122015Z 29018G23KT 10SM FEW038 04/M04 A3005 960 54 -100 290/18G23 RMK AO2
94908KDBQ DBQ20090212142010302/12/09 14:20:31  5-MIN KDBQ 122020Z 30016G23KT 10SM FEW038 04/M06 A3005 960 50 -100 300/16G23 RMK AO2
94908KDBQ DBQ20090212142511802/12/09 14:25:31  5-MIN KDBQ 122025Z 29020G26KT 10SM CLR 04/M06 A3005 960 50 -100 290/20G26 RMK AO2 PK WND 30026/2025
94908KDBQ DBQ20090212143011802/12/09 14:30:31  5-MIN KDBQ 122030Z 29017G26KT 10SM CLR 04/M06 A3005 960 48 -100 290/17G26 RMK AO2 PK WND 30026/2025
94908KDBQ DBQ20090212143512002/12/09 14:35:31  5-MIN KDBQ 122035Z 29019G26KT 10SM CLR 04/M06 A3005 960 48 -100 290/19G26 RMK AO2 PK WND 29026/2035 $
94908KDBQ DBQ20090212144012002/12/09 14:40:31  5-MIN KDBQ 122040Z 29015G26KT 10SM CLR 04/M06 A3005 960 48 -100 290/15G26 RMK AO2 PK WND 29026/2035 $
94908KDBQ DBQ20090212144511702/12/09 14:45:31  5-MIN KDBQ 122045Z 29015G24KT 10SM CLR 04/M06 A3005 960 46 0 290/15G24 RMK AO2 PK WND 29026/2035 $
94908KDBQ DBQ20090212145014302/12/09 14:50:31  5-MIN KDBQ 122050Z 28019G26KT 10SM CLR 04/M06 A3005 960 48 -100 280/19G26 RMK AO2 PK WND 27026/2048 SLP187 T00391061 51017 $
94908KDBQ DBQ20090212145510202/12/09 14:55:31  5-MIN KDBQ 122055Z 29015G26KT 10SM CLR 04/M07 A3005 960 46 -100 290/15G26 RMK AO2 $
94908KDBQ DBQ20090212150010202/12/09 15:00:31  5-MIN KDBQ 122100Z 29019G23KT 10SM CLR 04/M07 A3005 960 46 -100 290/19G23 RMK AO2 $
94908KDBQ DBQ20090212150510202/12/09 15:05:31  5-MIN KDBQ 122105Z 29013G23KT 10SM CLR 04/M07 A3005 960 46 -100 290/13G23 RMK AO2 $
94908KDBQ DBQ20090212151010202/12/09 15:10:31  5-MIN KDBQ 122110Z 29015G21KT 10SM CLR 04/M06 A3005 960 48 -100 290/15G21 RMK AO2 $
94908KDBQ DBQ20090212151510202/12/09 15:15:31  5-MIN KDBQ 122115Z 28018G24KT 10SM CLR 04/M06 A3005 960 50 -100 280/18G24 RMK AO2 $
94908KDBQ DBQ20090212152010202/12/09 15:20:31  5-MIN KDBQ 122120Z 28017G24KT 10SM CLR 04/M06 A3005 960 48 -100 280/17G24 RMK AO2 $
94908KDBQ DBQ20090212152510202/12/09 15:25:31  5-MIN KDBQ 122125Z 28018G23KT 10SM CLR 04/M06 A3006 950 48 -100 270/18G23 RMK AO2 $
94908KDBQ DBQ20090212153010202/12/09 15:30:31  5-MIN KDBQ 122130Z 28019G24KT 10SM CLR 04/M06 A3005 950 48 -100 270/19G24 RMK AO2 $
94908KDBQ DBQ20090212154012002/12/09 15:40:31  5-MIN KDBQ 122140Z 29019G29KT 10SM CLR 04/M08 A3006 950 42 -100 290/19G29 RMK AO2 PK WND 27029/2133 $
94908KDBQ DBQ20090212154512002/12/09 15:45:31  5-MIN KDBQ 122145Z 30018G28KT 10SM CLR 04/M08 A3006 950 42 -100 300/18G28 RMK AO2 PK WND 27029/2133 $
94908KDBQ DBQ20090212155013702/12/09 15:50:31  5-MIN KDBQ 122150Z 29016G23KT 10SM CLR 04/M08 A3006 950 42 -100 290/16G23 RMK AO2 PK WND 27029/2133 SLP189 T00391078 $
94908KDBQ DBQ20090212155509602/12/09 15:55:31  5-MIN KDBQ 122155Z 28015KT 10SM CLR 04/M07 A3006 950 44 -100 280/15 RMK AO2 $
94908KDBQ DBQ20090212160010202/12/09 16:00:31  5-MIN KDBQ 122200Z 28017G21KT 10SM CLR 04/M07 A3006 950 46 -100 280/17G21 RMK AO2 $
94908KDBQ DBQ20090212160510202/12/09 16:05:31  5-MIN KDBQ 122205Z 29020G25KT 10SM CLR 04/M08 A3006 950 42 -100 280/20G25 RMK AO2 $
94908KDBQ DBQ20090212161012002/12/09 16:10:31  5-MIN KDBQ 122210Z 30017G27KT 10SM CLR 04/M08 A3006 950 42 -100 290/17G27 RMK AO2 PK WND 29027/2208 $
94908KDBQ DBQ20090212161512002/12/09 16:15:31  5-MIN KDBQ 122215Z 29019G27KT 10SM CLR 03/M07 A3006 950 46 -100 290/19G27 RMK AO2 PK WND 28027/2215 $
94908KDBQ DBQ20090212162012002/12/09 16:20:31  5-MIN KDBQ 122220Z 29016G27KT 10SM CLR 03/M08 A3006 950 44 -200 290/16G27 RMK AO2 PK WND 28027/2215 $
94908KDBQ DBQ20090212162512002/12/09 16:25:31  5-MIN KDBQ 122225Z 29014G22KT 10SM CLR 03/M07 A3006 950 46 -200 290/14G22 RMK AO2 PK WND 28027/2215 $
94908KDBQ DBQ20090212163011402/12/09 16:30:31  5-MIN KDBQ 122230Z 28014KT 10SM CLR 03/M07 A3007 940 46 -200 280/14 RMK AO2 PK WND 28027/2215 $
94908KDBQ DBQ20090212163512002/12/09 16:35:31  5-MIN KDBQ 122235Z 29015G25KT 10SM CLR 03/M07 A3007 940 48 -200 290/15G25 RMK AO2 PK WND 28027/2215 $
94908KDBQ DBQ20090212164012002/12/09 16:40:31  5-MIN KDBQ 122240Z 29017G25KT 10SM CLR 03/M07 A3007 940 46 -200 290/17G25 RMK AO2 PK WND 28027/2215 $
94908KDBQ DBQ20090212164512002/12/09 16:45:31  5-MIN KDBQ 122245Z 29019G25KT 10SM CLR 03/M08 A3007 940 44 -200 290/19G25 RMK AO2 PK WND 28027/2215 $
94908KDBQ DBQ20090212165013702/12/09 16:50:31  5-MIN KDBQ 122250Z 29018G26KT 10SM CLR 03/M07 A3007 940 48 -200 290/18G26 RMK AO2 PK WND 28027/2215 SLP194 T00281072 $
94908KDBQ DBQ20090212165510202/12/09 16:55:31  5-MIN KDBQ 122255Z 29017G26KT 10SM CLR 03/M07 A3007 940 48 -200 290/17G26 RMK AO2 $
94908KDBQ DBQ20090212170010202/12/09 17:00:31  5-MIN KDBQ 122300Z 29015G23KT 10SM CLR 03/M07 A3007 940 48 -200 290/15G23 RMK AO2 $
94908KDBQ DBQ20090212170510202/12/09 17:05:31  5-MIN KDBQ 122305Z 29018G25KT 10SM CLR 03/M07 A3008 930 48 -200 290/18G25 RMK AO2 $
94908KDBQ DBQ20090212171012002/12/09 17:10:31  5-MIN KDBQ 122310Z 29017G29KT 10SM CLR 03/M08 A3008 930 46 -200 290/17G29 RMK AO2 PK WND 27029/2308 $
94908KDBQ DBQ20090212171512002/12/09 17:15:31  5-MIN KDBQ 122315Z 29018G29KT 10SM CLR 02/M08 A3008 930 47 -300 290/18G29 RMK AO2 PK WND 27029/2308 $
94908KDBQ DBQ20090212172012002/12/09 17:20:31  5-MIN KDBQ 122320Z 29018G24KT 10SM CLR 02/M08 A3008 930 47 -300 290/18G24 RMK AO2 PK WND 27029/2308 $
94908KDBQ DBQ20090212172512002/12/09 17:25:31  5-MIN KDBQ 122325Z 30016G23KT 10SM CLR 02/M07 A3008 930 50 -300 290/16G23 RMK AO2 PK WND 27029/2308 $
94908KDBQ DBQ20090212173011702/12/09 17:30:31  5-MIN KDBQ 122330Z 29015KT 10SM FEW055 02/M07 A3008 930 50 -300 290/15 RMK AO2 PK WND 27029/2308 $
94908KDBQ DBQ20090212173511702/12/09 17:35:31  5-MIN KDBQ 122335Z 29012KT 10SM FEW050 02/M07 A3009 930 52 -400 290/12 RMK AO2 PK WND 27029/2308 $
94908KDBQ DBQ20090212174011702/12/09 17:40:31  5-MIN KDBQ 122340Z 29010KT 10SM FEW050 02/M07 A3009 930 54 -400 290/10 RMK AO2 PK WND 27029/2308 $
94908KDBQ DBQ20090212174511702/12/09 17:45:31  5-MIN KDBQ 122345Z 29013KT 10SM FEW050 02/M07 A3009 930 54 -400 290/13 RMK AO2 PK WND 27029/2308 $
94908KDBQ DBQ20090212175015202/12/09 17:50:31  5-MIN KDBQ 122350Z 29011KT 10SM FEW050 02/M07 A3009 930 54 -400 290/11 RMK AO2 PK WND 27029/2308 SLP200 T00171067 10044 20017 53002 $
94908KDBQ DBQ20090212175509902/12/09 17:55:31  5-MIN KDBQ 122355Z 28011KT 10SM FEW050 01/M07 A3008 930 56 -500 280/11 RMK AO2 $
94908KDBQ DBQ20090212180009602/12/09 18:00:31  5-MIN KDBQ 130000Z 29011KT 10SM CLR 01/M07 A3008 930 56 -400 280/11 RMK AO2 $
94908KDBQ DBQ20090212180509602/12/09 18:05:31  5-MIN KDBQ 130005Z 28009KT 10SM CLR 01/M06 A3009 930 58 -500 280/09 RMK AO2 $
94908KDBQ DBQ20090212181009602/12/09 18:10:31  5-MIN KDBQ 130010Z 28011KT 10SM CLR 01/M06 A3009 930 58 -500 280/11 RMK AO2 $
94908KDBQ DBQ20090212181509602/12/09 18:15:31  5-MIN KDBQ 130015Z 28010KT 10SM CLR 01/M06 A3009 930 58 -500 280/10 RMK AO2 $
94908KDBQ DBQ20090212182009602/12/09 18:20:31  5-MIN KDBQ 130020Z 29011KT 10SM CLR 01/M06 A3009 930 58 -500 280/11 RMK AO2 $
94908KDBQ DBQ20090212182509602/12/09 18:25:31  5-MIN KDBQ 130025Z 29011KT 10SM CLR 01/M06 A3009 930 58 -500 290/11 RMK AO2 $
94908KDBQ DBQ20090212183009602/12/09 18:30:31  5-MIN KDBQ 130030Z 29009KT 10SM CLR 01/M06 A3009 930 61 -500 290/09 RMK AO2 $
94908KDBQ DBQ20090212183509602/12/09 18:35:31  5-MIN KDBQ 130035Z 28010KT 10SM CLR 01/M07 A3009 930 56 -500 280/10 RMK AO2 $
94908KDBQ DBQ20090212184009602/12/09 18:40:31  5-MIN KDBQ 130040Z 28010KT 10SM CLR 01/M06 A3009 930 61 -500 280/10 RMK AO2 $
94908KDBQ DBQ20090212184509602/12/09 18:45:31  5-MIN KDBQ 130045Z 28011KT 10SM CLR 01/M06 A3009 920 61 -500 280/11 RMK AO2 $
94908KDBQ DBQ20090212185011302/12/09 18:50:31  5-MIN KDBQ 130050Z 28011KT 10SM CLR 01/M06 A3009 920 61 -500 280/11 RMK AO2 SLP201 T00061061 $
94908KDBQ DBQ20090212185509602/12/09 18:55:31  5-MIN KDBQ 130055Z 28011KT 10SM CLR 01/M06 A3009 920 61 -500 280/11 RMK AO2 $
94908KDBQ DBQ20090212190009602/12/09 19:00:31  5-MIN KDBQ 130100Z 27011KT 10SM CLR 01/M06 A3009 920 61 -500 270/11 RMK AO2 $
94908KDBQ DBQ20090212190509602/12/09 19:05:31  5-MIN KDBQ 130105Z 28011KT 10SM CLR 01/M06 A3009 920 61 -500 280/11 RMK AO2 $
94908KDBQ DBQ20090212191009602/12/09 19:10:31  5-MIN KDBQ 130110Z 28010KT 10SM CLR 01/M06 A3009 920 61 -500 280/10 RMK AO2 $
94908KDBQ DBQ20090212191509602/12/09 19:15:31  5-MIN KDBQ 130115Z 28009KT 10SM CLR 01/M06 A3009 920 61 -500 280/09 RMK AO2 $
94908KDBQ DBQ20090212192009602/12/09 19:20:31  5-MIN KDBQ 130120Z 28009KT 10SM CLR 01/M06 A3009 920 61 -500 280/09 RMK AO2 $
94908KDBQ DBQ20090212192509602/12/09 19:25:31  5-MIN KDBQ 130125Z 28008KT 10SM CLR 01/M06 A3009 920 61 -500 280/08 RMK AO2 $
94908KDBQ DBQ20090212193010202/12/09 19:30:31  5-MIN KDBQ 130130Z 29009KT 10SM CLR 00/M06 A3009 920 66 -600 290/09 RMK AO2 P0001 $
94908KDBQ DBQ20090212193510202/12/09 19:35:31  5-MIN KDBQ 130135Z 29010KT 10SM CLR 01/M06 A3009 920 63 -500 290/10 RMK AO2 P0001 $
94908KDBQ DBQ20090212194010202/12/09 19:40:31  5-MIN KDBQ 130140Z 29011KT 10SM CLR 00/M06 A3009 920 66 -600 290/11 RMK AO2 P0001 $
94908KDBQ DBQ20090212194510202/12/09 19:45:31  5-MIN KDBQ 130145Z 29010KT 10SM CLR 00/M06 A3010 920 66 -600 290/10 RMK AO2 P0001 $
94908KDBQ DBQ20090212195012402/12/09 19:50:31  5-MIN KDBQ 130150Z AUTO 29010KT 10SM CLR 00/M06 A3010 920 66 -600 290/10 RMK AO2 SLP204 P0001 T00001056 $
94908KDBQ DBQ20090212195510102/12/09 19:55:31  5-MIN KDBQ 130155Z AUTO 29009KT 10SM CLR 00/M06 A3010 910 66 -600 290/09 RMK AO2 $
94908KDBQ DBQ20090212200010102/12/09 20:00:31  5-MIN KDBQ 130200Z AUTO 29009KT 10SM CLR 00/M06 A3010 910 66 -600 290/09 RMK AO2 $
94908KDBQ DBQ20090212200510102/12/09 20:05:31  5-MIN KDBQ 130205Z AUTO 29009KT 10SM CLR 00/M06 A3010 910 66 -600 290/09 RMK AO2 $
94908KDBQ DBQ20090212201010102/12/09 20:10:31  5-MIN KDBQ 130210Z AUTO 29009KT 10SM CLR 00/M06 A3010 910 66 -600 290/09 RMK AO2 $
94908KDBQ DBQ20090212201510102/12/09 20:15:31  5-MIN KDBQ 130215Z AUTO 28009KT 10SM CLR 00/M06 A3010 910 66 -600 280/09 RMK AO2 $
94908KDBQ DBQ20090212202010102/12/09 20:20:31  5-MIN KDBQ 130220Z AUTO 28008KT 10SM CLR 00/M06 A3010 910 66 -600 280/08 RMK AO2 $
94908KDBQ DBQ20090212202510202/12/09 20:25:31  5-MIN KDBQ 130225Z AUTO 28008KT 10SM CLR M01/M06 A3010 910 69 -700 280/08 RMK AO2 $
94908KDBQ DBQ20090212203010202/12/09 20:30:31  5-MIN KDBQ 130230Z AUTO 28007KT 10SM CLR M01/M06 A3011 910 69 -700 280/07 RMK AO2 $
94908KDBQ DBQ20090212203510202/12/09 20:35:31  5-MIN KDBQ 130235Z AUTO 28007KT 10SM CLR M01/M06 A3011 900 69 -700 280/07 RMK AO2 $
94908KDBQ DBQ20090212204010202/12/09 20:40:31  5-MIN KDBQ 130240Z AUTO 28007KT 10SM CLR M01/M06 A3011 900 69 -700 280/07 RMK AO2 $
94908KDBQ DBQ20090212204510202/12/09 20:45:31  5-MIN KDBQ 130245Z AUTO 29007KT 10SM CLR M01/M06 A3011 900 69 -700 290/07 RMK AO2 $
94908KDBQ DBQ20090212205013102/12/09 20:50:31  5-MIN KDBQ 130250Z AUTO 30007KT 10SM CLR M01/M06 A3011 900 72 -800 290/07 RMK AO2 SLP210 60001 T10111056 53011 $
94908KDBQ DBQ20090212205510202/12/09 20:55:31  5-MIN KDBQ 130255Z AUTO 29008KT 10SM CLR M01/M06 A3011 900 72 -800 290/08 RMK AO2 $
94908KDBQ DBQ20090212210010202/12/09 21:00:31  5-MIN KDBQ 130300Z AUTO 29008KT 10SM CLR M01/M06 A3011 900 72 -800 290/08 RMK AO2 $
94908KDBQ DBQ20090212210510202/12/09 21:05:31  5-MIN KDBQ 130305Z AUTO 30009KT 10SM CLR M01/M06 A3011 900 69 -700 300/09 RMK AO2 $
94908KDBQ DBQ20090212211010202/12/09 21:10:31  5-MIN KDBQ 130310Z AUTO 30008KT 10SM CLR M01/M06 A3011 900 69 -700 290/08 RMK AO2 $
94908KDBQ DBQ20090212211510202/12/09 21:15:31  5-MIN KDBQ 130315Z AUTO 29008KT 10SM CLR M01/M06 A3011 900 69 -700 290/08 RMK AO2 $
94908KDBQ DBQ20090212212010202/12/09 21:20:31  5-MIN KDBQ 130320Z AUTO 29007KT 10SM CLR M01/M06 A3012 900 72 -800 290/07 RMK AO2 $
94908KDBQ DBQ20090212212510202/12/09 21:25:31  5-MIN KDBQ 130325Z AUTO 28007KT 10SM CLR M01/M06 A3012 900 72 -800 280/07 RMK AO2 $
94908KDBQ DBQ20090212213010202/12/09 21:30:31  5-MIN KDBQ 130330Z AUTO 28006KT 10SM CLR M01/M06 A3012 900 72 -800 280/06 RMK AO2 $
94908KDBQ DBQ20090212213510202/12/09 21:35:31  5-MIN KDBQ 130335Z AUTO 29006KT 10SM CLR M02/M06 A3012 900 75 -800 280/06 RMK AO2 $
94908KDBQ DBQ20090212214010202/12/09 21:40:31  5-MIN KDBQ 130340Z AUTO 29006KT 10SM CLR M02/M06 A3012 900 75 -800 290/06 RMK AO2 $
94908KDBQ DBQ20090212214510202/12/09 21:45:31  5-MIN KDBQ 130345Z AUTO 29007KT 10SM CLR M02/M06 A3012 900 75 -800 290/07 RMK AO2 $
94908KDBQ DBQ20090212215011902/12/09 21:50:31  5-MIN KDBQ 130350Z AUTO 29007KT 10SM CLR M02/M06 A3012 890 75 -800 290/07 RMK AO2 SLP211 T10171056 $
94908KDBQ DBQ20090212215510202/12/09 21:55:31  5-MIN KDBQ 130355Z AUTO 28006KT 10SM CLR M02/M06 A3012 890 75 -800 280/06 RMK AO2 $
94908KDBQ DBQ20090212220010202/12/09 22:00:31  5-MIN KDBQ 130400Z AUTO 28006KT 10SM CLR M02/M06 A3012 890 75 -800 280/06 RMK AO2 $
94908KDBQ DBQ20090212220510202/12/09 22:05:31  5-MIN KDBQ 130405Z AUTO 28006KT 10SM CLR M02/M06 A3012 890 75 -800 280/06 RMK AO2 $
94908KDBQ DBQ20090212221010202/12/09 22:10:31  5-MIN KDBQ 130410Z AUTO 29006KT 10SM CLR M02/M06 A3012 890 78 -900 280/06 RMK AO2 $
94908KDBQ DBQ20090212221510202/12/09 22:15:31  5-MIN KDBQ 130415Z AUTO 29005KT 10SM CLR M02/M06 A3012 890 78 -900 290/05 RMK AO2 $
94908KDBQ DBQ20090212222010202/12/09 22:20:31  5-MIN KDBQ 130420Z AUTO 29005KT 10SM CLR M02/M06 A3013 890 78 -900 290/05 RMK AO2 $
94908KDBQ DBQ20090212222510202/12/09 22:25:31  5-MIN KDBQ 130425Z AUTO 29006KT 10SM CLR M02/M06 A3013 890 78 -900 290/06 RMK AO2 $
94908KDBQ DBQ20090212223010802/12/09 22:30:31  5-MIN KDBQ 130430Z AUTO 29006KT 10SM CLR M02/M06 A3013 890 78 -900 290/06 RMK AO2 P0001 $
94908KDBQ DBQ20090212223510802/12/09 22:35:31  5-MIN KDBQ 130435Z AUTO 29006KT 10SM CLR M02/M06 A3013 890 78 -900 290/06 RMK AO2 P0001 $
94908KDBQ DBQ20090212224010802/12/09 22:40:31  5-MIN KDBQ 130440Z AUTO 29006KT 10SM CLR M02/M06 A3013 890 78 -900 290/06 RMK AO2 P0001 $
94908KDBQ DBQ20090212224510802/12/09 22:45:31  5-MIN KDBQ 130445Z AUTO 29006KT 10SM CLR M02/M06 A3013 890 78 -900 290/06 RMK AO2 P0001 $
94908KDBQ DBQ20090212225012502/12/09 22:50:31  5-MIN KDBQ 130450Z AUTO 29006KT 10SM CLR M02/M06 A3013 890 78 -900 290/06 RMK AO2 SLP215 P0001 T10221056 $
94908KDBQ DBQ20090212225510202/12/09 22:55:31  5-MIN KDBQ 130455Z AUTO 30006KT 10SM CLR M02/M06 A3013 890 78 -900 300/06 RMK AO2 $
94908KDBQ DBQ20090212230010202/12/09 23:00:31  5-MIN KDBQ 130500Z AUTO 29006KT 10SM CLR M02/M06 A3013 890 78 -900 290/06 RMK AO2 $
94908KDBQ DBQ20090212230510202/12/09 23:05:31  5-MIN KDBQ 130505Z AUTO 29006KT 10SM CLR M02/M06 A3013 880 78 -900 290/06 RMK AO2 $
94908KDBQ DBQ20090212231010302/12/09 23:10:31  5-MIN KDBQ 130510Z AUTO 29005KT 10SM CLR M03/M06 A3013 880 81 -1000 280/05 RMK AO2 $
94908KDBQ DBQ20090212231510302/12/09 23:15:31  5-MIN KDBQ 130515Z AUTO 29006KT 10SM CLR M03/M06 A3013 880 81 -1000 290/06 RMK AO2 $
94908KDBQ DBQ20090212232010202/12/09 23:20:31  5-MIN KDBQ 130520Z AUTO 29007KT 10SM CLR M02/M06 A3013 880 78 -900 290/07 RMK AO2 $
94908KDBQ DBQ20090212232510202/12/09 23:25:31  5-MIN KDBQ 130525Z AUTO 29006KT 10SM CLR M02/M06 A3013 880 78 -900 290/06 RMK AO2 $
94908KDBQ DBQ20090212233010202/12/09 23:30:31  5-MIN KDBQ 130530Z AUTO 29006KT 10SM CLR M02/M06 A3014 880 78 -900 290/06 RMK AO2 $
94908KDBQ DBQ20090212233510202/12/09 23:35:31  5-MIN KDBQ 130535Z AUTO 29006KT 10SM CLR M02/M06 A3014 880 78 -900 290/06 RMK AO2 $
94908KDBQ DBQ20090212234010202/12/09 23:40:31  5-MIN KDBQ 130540Z AUTO 29007KT 10SM CLR M02/M06 A3014 880 78 -900 290/07 RMK AO2 $
94908KDBQ DBQ20090212234510202/12/09 23:45:31  5-MIN KDBQ 130545Z AUTO 29006KT 10SM CLR M02/M06 A3014 880 78 -900 290/06 RMK AO2 $
94908KDBQ DBQ20090212235015302/12/09 23:50:31  5-MIN KDBQ 130550Z AUTO 28005KT 10SM CLR M02/M06 A3014 880 78 -900 280/05 RMK AO2 SLP219 60002 T10221056 10011 21028 400441028 53009 $
94908KDBQ DBQ20090212235510302/12/09 23:55:31  5-MIN KDBQ 130555Z AUTO 29006KT 10SM CLR M03/M06 A3014 870 81 -1000 290/06 RMK AO2 $
94908KDBQ DBQ20090213000010302/13/09 00:00:38  5-MIN KDBQ 130600Z AUTO 30007KT 10SM CLR M03/M06 A3014 870 81 -1000 290/07 RMK AO2 $
94908KDBQ DBQ20090213000510302/13/09 00:05:31  5-MIN KDBQ 130605Z AUTO 30007KT 10SM CLR M03/M06 A3014 870 81 -1000 300/07 RMK AO2 $
94908KDBQ DBQ20090213001010302/13/09 00:10:31  5-MIN KDBQ 130610Z AUTO 30007KT 10SM CLR M03/M06 A3015 870 81 -1000 300/07 RMK AO2 $
94908KDBQ DBQ20090213001510302/13/09 00:15:32  5-MIN KDBQ 130615Z AUTO 30006KT 10SM CLR M03/M06 A3015 870 81 -1000 300/06 RMK AO2 $
94908KDBQ DBQ20090213002010302/13/09 00:20:31  5-MIN KDBQ 130620Z AUTO 30006KT 10SM CLR M03/M06 A3015 870 81 -1000 300/06 RMK AO2 $
94908KDBQ DBQ20090213002510302/13/09 00:25:31  5-MIN KDBQ 130625Z AUTO 30006KT 10SM CLR M03/M06 A3015 870 81 -1000 300/06 RMK AO2 $
94908KDBQ DBQ20090213003010302/13/09 00:30:31  5-MIN KDBQ 130630Z AUTO 30006KT 10SM CLR M03/M06 A3015 870 81 -1000 300/06 RMK AO2 $
94908KDBQ DBQ20090213003510302/13/09 00:35:31  5-MIN KDBQ 130635Z AUTO 31007KT 10SM CLR M03/M06 A3015 870 81 -1000 310/07 RMK AO2 $
94908KDBQ DBQ20090213004010902/13/09 00:40:31  5-MIN KDBQ 130640Z AUTO 30007KT 10SM CLR M03/M06 A3015 870 81 -1000 300/07 RMK AO2 P0002 $
94908KDBQ DBQ20090213004510902/13/09 00:45:31  5-MIN KDBQ 130645Z AUTO 31008KT 10SM CLR M03/M06 A3015 870 81 -1000 310/08 RMK AO2 P0002 $
94908KDBQ DBQ20090213005012602/13/09 00:50:31  5-MIN KDBQ 130650Z AUTO 31008KT 10SM CLR M03/M06 A3015 870 81 -1000 310/08 RMK AO2 SLP222 P0002 T10281056 $
94908KDBQ DBQ20090213005510302/13/09 00:55:31  5-MIN KDBQ 130655Z AUTO 31007KT 10SM CLR M03/M06 A3015 870 81 -1000 310/07 RMK AO2 $
94908KDBQ DBQ20090213010010302/13/09 01:00:31  5-MIN KDBQ 130700Z AUTO 31008KT 10SM CLR M03/M06 A3015 860 81 -1000 310/08 RMK AO2 $
94908KDBQ DBQ20090213010510302/13/09 01:05:31  5-MIN KDBQ 130705Z AUTO 32008KT 10SM CLR M03/M06 A3015 870 81 -1000 320/08 RMK AO2 $
94908KDBQ DBQ20090213011010302/13/09 01:10:31  5-MIN KDBQ 130710Z AUTO 32008KT 10SM CLR M03/M06 A3015 860 81 -1000 320/08 RMK AO2 $
94908KDBQ DBQ20090213011510302/13/09 01:15:31  5-MIN KDBQ 130715Z AUTO 32008KT 10SM CLR M03/M06 A3015 860 81 -1000 310/08 RMK AO2 $
94908KDBQ DBQ20090213012010302/13/09 01:20:31  5-MIN KDBQ 130720Z AUTO 31007KT 10SM CLR M03/M06 A3016 860 78 -1000 310/07 RMK AO2 $
94908KDBQ DBQ20090213012510302/13/09 01:25:31  5-MIN KDBQ 130725Z AUTO 32008KT 10SM CLR M03/M06 A3016 860 78 -1000 320/08 RMK AO2 $
94908KDBQ DBQ20090213013010302/13/09 01:30:31  5-MIN KDBQ 130730Z AUTO 32008KT 10SM CLR M03/M06 A3016 860 78 -1000 320/08 RMK AO2 $
94908KDBQ DBQ20090213013510302/13/09 01:35:31  5-MIN KDBQ 130735Z AUTO 33008KT 10SM CLR M03/M06 A3016 860 78 -1000 330/08 RMK AO2 $
94908KDBQ DBQ20090213014010302/13/09 01:40:31  5-MIN KDBQ 130740Z AUTO 33008KT 10SM CLR M03/M06 A3016 850 78 -1000 330/08 RMK AO2 $
94908KDBQ DBQ20090213014510302/13/09 01:45:31  5-MIN KDBQ 130745Z AUTO 33010KT 10SM CLR M03/M06 A3016 850 78 -1000 330/10 RMK AO2 $
94908KDBQ DBQ20090213015012002/13/09 01:50:31  5-MIN KDBQ 130750Z AUTO 33009KT 10SM CLR M03/M06 A3017 850 78 -1000 330/09 RMK AO2 SLP227 T10281061 $
94908KDBQ DBQ20090213015510302/13/09 01:55:31  5-MIN KDBQ 130755Z AUTO 33010KT 10SM CLR M03/M06 A3017 850 78 -1000 330/10 RMK AO2 $
94908KDBQ DBQ20090213020010302/13/09 02:00:31  5-MIN KDBQ 130800Z AUTO 33009KT 10SM CLR M03/M06 A3017 850 78 -1000 330/09 RMK AO2 $
94908KDBQ DBQ20090213020510302/13/09 02:05:31  5-MIN KDBQ 130805Z AUTO 32009KT 10SM CLR M03/M06 A3017 840 78 -1000 320/09 RMK AO2 $
94908KDBQ DBQ20090213021010302/13/09 02:10:31  5-MIN KDBQ 130810Z AUTO 32009KT 10SM CLR M03/M06 A3017 840 81 -1100 320/09 RMK AO2 $
94908KDBQ DBQ20090213021510302/13/09 02:15:31  5-MIN KDBQ 130815Z AUTO 33008KT 10SM CLR M03/M06 A3017 840 81 -1100 320/08 RMK AO2 $
94908KDBQ DBQ20090213022010302/13/09 02:20:31  5-MIN KDBQ 130820Z AUTO 32008KT 10SM CLR M03/M06 A3017 840 81 -1100 320/08 RMK AO2 $
94908KDBQ DBQ20090213022510302/13/09 02:25:31  5-MIN KDBQ 130825Z AUTO 33007KT 10SM CLR M03/M06 A3017 840 81 -1100 330/07 RMK AO2 $
94908KDBQ DBQ20090213023010302/13/09 02:30:31  5-MIN KDBQ 130830Z AUTO 32006KT 10SM CLR M04/M07 A3017 840 81 -1200 320/06 RMK AO2 $
94908KDBQ DBQ20090213023510302/13/09 02:35:31  5-MIN KDBQ 130835Z AUTO 33007KT 10SM CLR M04/M07 A3018 840 81 -1200 330/07 RMK AO2 $
94908KDBQ DBQ20090213024010302/13/09 02:40:31  5-MIN KDBQ 130840Z AUTO 34006KT 10SM CLR M04/M07 A3017 840 81 -1200 330/06 RMK AO2 $
94908KDBQ DBQ20090213024510302/13/09 02:45:31  5-MIN KDBQ 130845Z AUTO 34006KT 10SM CLR M04/M07 A3017 850 81 -1200 330/06 RMK AO2 $
94908KDBQ DBQ20090213025013802/13/09 02:50:31  5-MIN KDBQ 130850Z AUTO 34006KT 10SM CLR M04/M07 A3017 850 84 -1300 340/06 RMK AO2 SLP229 P0001 60003 T10441067 53009 $
94908KDBQ DBQ20090213025510302/13/09 02:55:31  5-MIN KDBQ 130855Z AUTO 34005KT 10SM CLR M04/M07 A3017 850 84 -1300 340/05 RMK AO2 $
94908KDBQ DBQ20090213030010302/13/09 03:00:31  5-MIN KDBQ 130900Z AUTO 33006KT 10SM CLR M04/M07 A3017 850 84 -1300 330/06 RMK AO2 $
94908KDBQ DBQ20090213030510302/13/09 03:05:31  5-MIN KDBQ 130905Z AUTO 33006KT 10SM CLR M04/M07 A3018 840 84 -1300 330/06 RMK AO2 $
94908KDBQ DBQ20090213031010302/13/09 03:10:31  5-MIN KDBQ 130910Z AUTO 33006KT 10SM CLR M04/M07 A3017 840 84 -1300 330/06 RMK AO2 $
94908KDBQ DBQ20090213031510302/13/09 03:15:31  5-MIN KDBQ 130915Z AUTO 34006KT 10SM CLR M04/M07 A3017 840 84 -1300 340/06 RMK AO2 $
94908KDBQ DBQ20090213032010302/13/09 03:20:31  5-MIN KDBQ 130920Z AUTO 34006KT 10SM CLR M05/M07 A3018 840 88 -1300 340/06 RMK AO2 $
94908KDBQ DBQ20090213032510302/13/09 03:25:31  5-MIN KDBQ 130925Z AUTO 34005KT 10SM CLR M05/M07 A3018 840 84 -1300 340/05 RMK AO2 $
94908KDBQ DBQ20090213033010302/13/09 03:30:31  5-MIN KDBQ 130930Z AUTO 32004KT 10SM CLR M06/M07 A3018 840 88 -1400 320/04 RMK AO2 $
94908KDBQ DBQ20090213033510302/13/09 03:35:31  5-MIN KDBQ 130935Z AUTO 31004KT 10SM CLR M05/M07 A3018 840 84 -1300 310/04 RMK AO2 $
94908KDBQ DBQ20090213034010302/13/09 03:40:31  5-MIN KDBQ 130940Z AUTO 31005KT 10SM CLR M04/M07 A3018 840 84 -1300 310/05 RMK AO2 $
94908KDBQ DBQ20090213034510302/13/09 03:45:31  5-MIN KDBQ 130945Z AUTO 32005KT 10SM CLR M04/M07 A3018 840 84 -1300 320/05 RMK AO2 $
94908KDBQ DBQ20090213035012002/13/09 03:50:31  5-MIN KDBQ 130950Z AUTO 32005KT 10SM CLR M04/M07 A3018 840 84 -1300 320/05 RMK AO2 SLP232 T10441067 $
94908KDBQ DBQ20090213035510302/13/09 03:55:31  5-MIN KDBQ 130955Z AUTO 32004KT 10SM CLR M05/M07 A3018 840 88 -1300 320/04 RMK AO2 $
94908KDBQ DBQ20090213040010302/13/09 04:00:31  5-MIN KDBQ 131000Z AUTO 32005KT 10SM CLR M05/M07 A3018 840 84 -1300 320/05 RMK AO2 $
94908KDBQ DBQ20090213040510302/13/09 04:05:31  5-MIN KDBQ 131005Z AUTO 32006KT 10SM CLR M05/M07 A3017 840 84 -1300 320/06 RMK AO2 $
94908KDBQ DBQ20090213041010302/13/09 04:10:31  5-MIN KDBQ 131010Z AUTO 31006KT 10SM CLR M04/M07 A3017 850 84 -1300 310/06 RMK AO2 $
94908KDBQ DBQ20090213041510302/13/09 04:15:31  5-MIN KDBQ 131015Z AUTO 31006KT 10SM CLR M04/M07 A3017 850 84 -1300 310/06 RMK AO2 $
94908KDBQ DBQ20090213042010302/13/09 04:20:31  5-MIN KDBQ 131020Z AUTO 31006KT 10SM CLR M04/M07 A3017 850 84 -1300 310/06 RMK AO2 $
94908KDBQ DBQ20090213042510302/13/09 04:25:31  5-MIN KDBQ 131025Z AUTO 31006KT 10SM CLR M04/M07 A3017 840 84 -1300 310/06 RMK AO2 $
94908KDBQ DBQ20090213043010302/13/09 04:30:31  5-MIN KDBQ 131030Z AUTO 31006KT 10SM CLR M04/M07 A3018 840 84 -1300 310/06 RMK AO2 $
94908KDBQ DBQ20090213043510302/13/09 04:35:31  5-MIN KDBQ 131035Z AUTO 31006KT 10SM CLR M05/M07 A3018 840 88 -1300 310/06 RMK AO2 $
94908KDBQ DBQ20090213044010302/13/09 04:40:31  5-MIN KDBQ 131040Z AUTO 31006KT 10SM CLR M04/M07 A3018 840 84 -1300 310/06 RMK AO2 $
94908KDBQ DBQ20090213044510902/13/09 04:45:31  5-MIN KDBQ 131045Z AUTO 31006KT 10SM CLR M05/M07 A3018 840 88 -1300 310/06 RMK AO2 P0001 $
94908KDBQ DBQ20090213045012602/13/09 04:50:31  5-MIN KDBQ 131050Z AUTO 31006KT 10SM CLR M05/M07 A3018 840 88 -1300 310/06 RMK AO2 SLP233 P0001 T10501067 $
94908KDBQ DBQ20090213045510302/13/09 04:55:31  5-MIN KDBQ 131055Z AUTO 31006KT 10SM CLR M05/M07 A3018 840 88 -1300 310/06 RMK AO2 $
94908KDBQ DBQ20090213050010302/13/09 05:00:31  5-MIN KDBQ 131100Z AUTO 32006KT 10SM CLR M05/M07 A3018 840 88 -1300 320/06 RMK AO2 $
94908KDBQ DBQ20090213050510302/13/09 05:05:31  5-MIN KDBQ 131105Z AUTO 33007KT 10SM CLR M05/M07 A3018 840 84 -1300 330/07 RMK AO2 $
94908KDBQ DBQ20090213051010302/13/09 05:10:31  5-MIN KDBQ 131110Z AUTO 33008KT 10SM CLR M05/M07 A3018 840 84 -1300 330/08 RMK AO2 $
94908KDBQ DBQ20090213051510302/13/09 05:15:31  5-MIN KDBQ 131115Z AUTO 33007KT 10SM CLR M05/M07 A3018 840 88 -1300 330/07 RMK AO2 $
94908KDBQ DBQ20090213052010902/13/09 05:20:31  5-MIN KDBQ 131120Z AUTO 33007KT 10SM CLR M05/M07 A3018 840 84 -1300 330/07 RMK AO2 P0001 $
94908KDBQ DBQ20090213052510902/13/09 05:25:31  5-MIN KDBQ 131125Z AUTO 33008KT 10SM CLR M05/M07 A3018 840 84 -1300 330/08 RMK AO2 P0001 $
94908KDBQ DBQ20090213053010902/13/09 05:30:31  5-MIN KDBQ 131130Z AUTO 34008KT 10SM CLR M05/M07 A3017 850 84 -1300 330/08 RMK AO2 P0001 $
94908KDBQ DBQ20090213053510902/13/09 05:35:31  5-MIN KDBQ 131135Z AUTO 33008KT 10SM CLR M05/M07 A3017 840 88 -1300 330/08 RMK AO2 P0001 $
94908KDBQ DBQ20090213054010902/13/09 05:40:31  5-MIN KDBQ 131140Z AUTO 33007KT 10SM CLR M05/M07 A3018 840 88 -1300 330/07 RMK AO2 P0001 $
94908KDBQ DBQ20090213054510902/13/09 05:45:31  5-MIN KDBQ 131145Z AUTO 33008KT 10SM CLR M05/M07 A3017 840 88 -1300 330/08 RMK AO2 P0001 $
94908KDBQ DBQ20090213055015602/13/09 05:50:31  5-MIN KDBQ 131150Z AUTO 33008KT 10SM CLR M04/M07 A3017 840 84 -1300 330/08 RMK AO2 SLP231 P0001 60006 70008 T10441067 11022 21056 51010 $
94908KDBQ DBQ20090213055509802/13/09 05:55:31  5-MIN KDBQ 131155Z 32007KT 10SM CLR M05/M07 A3018 840 88 -1300 320/07 RMK AO2 $
94908KDBQ DBQ20090213060009802/13/09 06:00:31  5-MIN KDBQ 131200Z 32008KT 10SM CLR M04/M07 A3018 840 84 -1300 320/08 RMK AO2 $
94908KDBQ DBQ20090213060509802/13/09 06:05:31  5-MIN KDBQ 131205Z 32007KT 10SM CLR M05/M07 A3018 840 84 -1300 320/07 RMK AO2 $
94908KDBQ DBQ20090213061009802/13/09 06:10:31  5-MIN KDBQ 131210Z 32008KT 10SM CLR M05/M07 A3017 840 84 -1300 320/08 RMK AO2 $
94908KDBQ DBQ20090213061509802/13/09 06:15:31  5-MIN KDBQ 131215Z 33008KT 10SM CLR M05/M07 A3018 840 84 -1300 320/08 RMK AO2 $
94908KDBQ DBQ20090213062009802/13/09 06:20:31  5-MIN KDBQ 131220Z 33008KT 10SM CLR M04/M07 A3018 840 81 -1300 330/08 RMK AO2 $
94908KDBQ DBQ20090213062509802/13/09 06:25:31  5-MIN KDBQ 131225Z 34007KT 10SM CLR M04/M07 A3018 840 81 -1300 330/07 RMK AO2 $
94908KDBQ DBQ20090213063009802/13/09 06:30:31  5-MIN KDBQ 131230Z 34006KT 10SM CLR M05/M07 A3018 840 84 -1300 340/06 RMK AO2 $
94908KDBQ DBQ20090213063510402/13/09 06:35:31  5-MIN KDBQ 131235Z 35007KT 10SM CLR M05/M07 A3018 840 84 -1300 350/07 RMK AO2 P0001 $
94908KDBQ DBQ20090213064010402/13/09 06:40:31  5-MIN KDBQ 131240Z 35007KT 10SM CLR M05/M08 A3017 840 81 -1300 350/07 RMK AO2 P0001 $
94908KDBQ DBQ20090213064510402/13/09 06:45:31  5-MIN KDBQ 131245Z 36006KT 10SM CLR M05/M08 A3017 850 81 -1300 360/06 RMK AO2 P0001 $
94908KDBQ DBQ20090213065012102/13/09 06:50:31  5-MIN KDBQ 131250Z 35007KT 10SM CLR M05/M08 A3017 850 81 -1300 350/07 RMK AO2 SLP231 P0001 T10501078 $
94908KDBQ DBQ20090213065509802/13/09 06:55:31  5-MIN KDBQ 131255Z 35007KT 10SM CLR M05/M08 A3017 840 81 -1300 350/07 RMK AO2 $
94908KDBQ DBQ20090213070009802/13/09 07:00:31  5-MIN KDBQ 131300Z 35007KT 10SM CLR M05/M08 A3017 850 81 -1300 350/07 RMK AO2 $
94908KDBQ DBQ20090213070509802/13/09 07:05:31  5-MIN KDBQ 131305Z 35007KT 10SM CLR M05/M08 A3017 850 81 -1300 350/07 RMK AO2 $
94908KDBQ DBQ20090213071009802/13/09 07:10:31  5-MIN KDBQ 131310Z 36007KT 10SM CLR M05/M08 A3017 850 81 -1300 350/07 RMK AO2 $
94908KDBQ DBQ20090213071509702/13/09 07:15:31  5-MIN KDBQ 131315Z 36006KT 9SM CLR M05/M08 A3017 840 81 -1300 360/06 RMK AO2 $
94908KDBQ DBQ20090213072009702/13/09 07:20:31  5-MIN KDBQ 131320Z 36006KT 9SM CLR M05/M08 A3018 840 81 -1300 360/06 RMK AO2 $
94908KDBQ DBQ20090213072509702/13/09 07:25:31  5-MIN KDBQ 131325Z 35006KT 9SM CLR M05/M07 A3019 830 84 -1300 340/06 RMK AO2 $
94908KDBQ DBQ20090213073009702/13/09 07:30:31  5-MIN KDBQ 131330Z 35006KT 9SM CLR M05/M07 A3019 830 84 -1300 340/06 RMK AO2 $
94908KDBQ DBQ20090213073509702/13/09 07:35:31  5-MIN KDBQ 131335Z 36007KT 9SM CLR M04/M07 A3018 840 81 -1300 360/07 RMK AO2 $
94908KDBQ DBQ20090213074009702/13/09 07:40:31  5-MIN KDBQ 131340Z 36005KT 9SM CLR M04/M07 A3019 830 81 -1300 360/05 RMK AO2 $
94908KDBQ DBQ20090213074509502/13/09 07:45:31  5-MIN KDBQ 131345Z 36007KT 9SM CLR M04/M07 A3018 830 81 -1300 360/07 RMK AO2
94908KDBQ DBQ20090213075011302/13/09 07:50:31  5-MIN KDBQ 131350Z 36007KT 10SM CLR M04/M07 A3018 840 81 -1300 360/07 RMK AO2 SLP235 T10441072
94908KDBQ DBQ20090213075509602/13/09 07:55:31  5-MIN KDBQ 131355Z 36008KT 10SM CLR M04/M07 A3018 840 81 -1300 360/08 RMK AO2
94908KDBQ DBQ20090213080009602/13/09 08:00:31  5-MIN KDBQ 131400Z 36008KT 10SM CLR M04/M07 A3018 840 81 -1300 360/08 RMK AO2
94908KDBQ DBQ20090213080509602/13/09 08:05:31  5-MIN KDBQ 131405Z 01007KT 10SM CLR M04/M07 A3018 840 81 -1300 010/07 RMK AO2
94908KDBQ DBQ20090213081009602/13/09 08:10:31  5-MIN KDBQ 131410Z 01006KT 10SM CLR M04/M07 A3018 840 81 -1300 010/06 RMK AO2
94908KDBQ DBQ20090213081509602/13/09 08:15:31  5-MIN KDBQ 131415Z 01005KT 10SM CLR M04/M07 A3018 840 81 -1200 010/05 RMK AO2
94908KDBQ DBQ20090213082009602/13/09 08:20:31  5-MIN KDBQ 131420Z 01005KT 10SM CLR M04/M07 A3018 840 81 -1200 360/05 RMK AO2
94908KDBQ DBQ20090213082510402/13/09 08:25:31  5-MIN KDBQ 131425Z 36006KT 10SM CLR M04/M07 A3019 830 78 -1200 360/06 RMK AO2 P0001 $
94908KDBQ DBQ20090213083010402/13/09 08:30:31  5-MIN KDBQ 131430Z 35009KT 10SM CLR M04/M07 A3019 830 78 -1200 350/09 RMK AO2 P0001 $
94908KDBQ DBQ20090213083510402/13/09 08:35:31  5-MIN KDBQ 131435Z 35006KT 10SM CLR M04/M07 A3019 830 81 -1200 350/06 RMK AO2 P0001 $
94908KDBQ DBQ20090213084010402/13/09 08:40:31  5-MIN KDBQ 131440Z 35007KT 10SM CLR M03/M07 A3020 830 78 -1100 350/07 RMK AO2 P0001 $
94908KDBQ DBQ20090213084510702/13/09 08:45:31  5-MIN KDBQ 131445Z 36009KT 10SM FEW014 M03/M07 A3020 820 78 -1100 360/09 RMK AO2 P0001 $
94908KDBQ DBQ20090213085013602/13/09 08:50:31  5-MIN KDBQ 131450Z 35010KT 10SM FEW014 M04/M07 A3020 830 81 -1200 350/10 RMK AO2 SLP239 P0001 60002 T10391067 50001 $
94908KDBQ DBQ20090213085510102/13/09 08:55:31  5-MIN KDBQ 131455Z 01009KT 10SM FEW014 M04/M07 A3019 830 81 -1200 010/09 RMK AO2 $
94908KDBQ DBQ20090213090010102/13/09 09:00:31  5-MIN KDBQ 131500Z 36008KT 10SM SCT014 M04/M07 A3019 830 78 -1200 360/08 RMK AO2 $
94908KDBQ DBQ20090213090510102/13/09 09:05:31  5-MIN KDBQ 131505Z 36008KT 10SM FEW014 M04/M07 A3019 830 78 -1200 360/08 RMK AO2 $
94908KDBQ DBQ20090213091010102/13/09 09:10:31  5-MIN KDBQ 131510Z 01009KT 10SM FEW014 M04/M07 A3018 840 78 -1200 010/09 RMK AO2 $
94908KDBQ DBQ20090213091510102/13/09 09:15:31  5-MIN KDBQ 131515Z 01008KT 10SM FEW014 M03/M07 A3018 840 78 -1100 010/08 RMK AO2 $
94908KDBQ DBQ20090213092010102/13/09 09:20:31  5-MIN KDBQ 131520Z 36008KT 10SM FEW014 M03/M07 A3019 830 78 -1100 360/08 RMK AO2 $
94908KDBQ DBQ20090213092509802/13/09 09:25:31  5-MIN KDBQ 131525Z 02010KT 10SM CLR M03/M07 A3018 840 78 -1100 020/10 RMK AO2 $
94908KDBQ DBQ20090213093009802/13/09 09:30:31  5-MIN KDBQ 131530Z 36010KT 10SM CLR M03/M07 A3019 830 74 -1100 360/10 RMK AO2 $
94908KDBQ DBQ20090213093509802/13/09 09:35:31  5-MIN KDBQ 131535Z 01010KT 10SM CLR M03/M07 A3019 830 74 -1100 010/10 RMK AO2 $
94908KDBQ DBQ20090213094009802/13/09 09:40:31  5-MIN KDBQ 131540Z 01009KT 10SM CLR M03/M07 A3018 840 74 -1100 010/09 RMK AO2 $
94908KDBQ DBQ20090213094509802/13/09 09:45:31  5-MIN KDBQ 131545Z 03010KT 10SM CLR M03/M07 A3018 840 74 -1100 030/10 RMK AO2 $
94908KDBQ DBQ20090213095011502/13/09 09:50:31  5-MIN KDBQ 131550Z 01008KT 10SM CLR M03/M07 A3018 840 75 -1000 010/08 RMK AO2 SLP233 T10281067 $
94908KDBQ DBQ20090213095509802/13/09 09:55:31  5-MIN KDBQ 131555Z 01008KT 10SM CLR M03/M07 A3018 840 75 -1000 010/08 RMK AO2 $
94908KDBQ DBQ20090213100009802/13/09 10:00:31  5-MIN KDBQ 131600Z 01008KT 10SM CLR M03/M07 A3018 840 71 -1000 010/08 RMK AO2 $
94908KDBQ DBQ20090213100510102/13/09 10:05:31  5-MIN KDBQ 131605Z 04007KT 10SM FEW017 M03/M07 A3018 840 71 -1000 040/07 RMK AO2 $
94908KDBQ DBQ20090213101010102/13/09 10:10:31  5-MIN KDBQ 131610Z 02008KT 10SM FEW017 M02/M07 A3018 840 72 -1000 020/08 RMK AO2 $
94908KDBQ DBQ20090213101510102/13/09 10:15:31  5-MIN KDBQ 131615Z 01009KT 10SM FEW018 M02/M07 A3017 840 72 -1000 010/09 RMK AO2 $
94908KDBQ DBQ20090213102010102/13/09 10:20:31  5-MIN KDBQ 131620Z 05008KT 10SM FEW018 M02/M07 A3017 850 69 -1000 050/08 RMK AO2 $
94908KDBQ DBQ20090213102510102/13/09 10:25:31  5-MIN KDBQ 131625Z 05007KT 10SM FEW018 M03/M07 A3017 840 71 -1000 050/07 RMK AO2 $
94908KDBQ DBQ20090213103009802/13/09 10:30:31  5-MIN KDBQ 131630Z 04007KT 10SM CLR M03/M07 A3018 840 71 -1000 040/07 RMK AO2 $
94908KDBQ DBQ20090213103509802/13/09 10:35:31  5-MIN KDBQ 131635Z 03008KT 10SM CLR M02/M07 A3018 840 69 -1000 030/08 RMK AO2 $
94908KDBQ DBQ20090213104009802/13/09 10:40:31  5-MIN KDBQ 131640Z 05005KT 10SM CLR M02/M07 A3018 840 69 -1000 050/05 RMK AO2 $
94908KDBQ DBQ20090213104510402/13/09 10:45:31  5-MIN KDBQ 131645Z 08005KT 10SM CLR M02/M07 A3018 840 69 -1000 080/05 RMK AO2 P0001 $
94908KDBQ DBQ20090213105012102/13/09 10:50:31  5-MIN KDBQ 131650Z 04004KT 10SM CLR M02/M07 A3018 840 69 -1000 030/04 RMK AO2 SLP234 P0001 T10221072 $
94908KDBQ DBQ20090213105509802/13/09 10:55:31  5-MIN KDBQ 131655Z VRB04KT 10SM CLR M02/M07 A3018 840 69 -1000 VRB/04 RMK AO2 $
94908KDBQ DBQ20090213110009802/13/09 11:00:31  5-MIN KDBQ 131700Z 03005KT 10SM CLR M02/M07 A3017 850 69 -1000 030/05 RMK AO2 $
94908KDBQ DBQ20090213110509702/13/09 11:05:31  5-MIN KDBQ 131705Z VRB03KT 10SM CLR M02/M07 A3018 840 69 -900 VRB/03 RMK AO2 $
94908KDBQ DBQ20090213111010402/13/09 11:10:31  5-MIN KDBQ 131710Z VRB03KT 10SM FEW021 M01/M07 A3018 840 63 -800 VRB/03 RMK AO2 PNO $
94908KDBQ DBQ20090213111510402/13/09 11:15:31  5-MIN KDBQ 131715Z 02005KT 10SM FEW021 M02/M07 A3017 850 69 -900 020/05 RMK AO2 PNO $
94908KDBQ DBQ20090213112010402/13/09 11:20:31  5-MIN KDBQ 131720Z 04003KT 10SM FEW021 M02/M07 A3017 850 66 -900 030/03 RMK AO2 PNO $
94908KDBQ DBQ20090213112510002/13/09 11:25:31  5-MIN KDBQ 131725Z 01004KT 10SM FEW021 M02/M07 A3018 840 69 -900 010/04 RMK AO2 $
94908KDBQ DBQ20090213113009802/13/09 11:30:31  5-MIN KDBQ 131730Z 00000KT 10SM SCT021 M02/M07 A3019 830 66 -900 000/00 RMK AO2
94908KDBQ DBQ20090213113509802/13/09 11:35:31  5-MIN KDBQ 131735Z 00000KT 10SM FEW021 M02/M07 A3018 840 66 -900 000/00 RMK AO2
94908KDBQ DBQ20090213114009802/13/09 11:40:31  5-MIN KDBQ 131740Z 00000KT 10SM FEW021 M01/M07 A3018 840 66 -800 000/00 RMK AO2
94908KDBQ DBQ20090213114509802/13/09 11:45:31  5-MIN KDBQ 131745Z 00000KT 10SM FEW021 M02/M07 A3018 840 66 -900 000/00 RMK AO2
94908KDBQ DBQ20090213115013902/13/09 11:50:31  5-MIN KDBQ 131750Z 00000KT 10SM SCT021 M01/M07 A3018 840 63 -800 000/00 RMK AO2 SLP235 60003 T10111072 11011 21050 53006
94908KDBQ DBQ20090213115509802/13/09 11:55:31  5-MIN KDBQ 131755Z 00000KT 10SM SCT021 M01/M07 A3018 830 63 -800 000/00 RMK AO2
94908KDBQ DBQ20090213120009802/13/09 12:00:31  5-MIN KDBQ 131800Z 02003KT 10SM FEW021 M01/M07 A3018 840 66 -800 020/03 RMK AO2
94908KDBQ DBQ20090213120509802/13/09 12:05:31  5-MIN KDBQ 131805Z 00000KT 10SM FEW021 M01/M07 A3018 840 66 -800 000/00 RMK AO2
94908KDBQ DBQ20090213121009802/13/09 12:10:31  5-MIN KDBQ 131810Z VRB03KT 10SM FEW021 M01/M07 A3017 850 63 -800 VRB/03 RMK AO2
94908KDBQ DBQ20090213121509802/13/09 12:15:31  5-MIN KDBQ 131815Z 06004KT 10SM FEW021 M01/M07 A3017 850 66 -800 060/04 RMK AO2
94908KDBQ DBQ20090213122009502/13/09 12:20:31  5-MIN KDBQ 131820Z 05004KT 10SM CLR M01/M07 A3017 850 66 -800 050/04 RMK AO2
94908KDBQ DBQ20090213122509502/13/09 12:25:31  5-MIN KDBQ 131825Z 00000KT 10SM CLR M01/M07 A3016 860 66 -800 000/00 RMK AO2
94908KDBQ DBQ20090213123010202/13/09 12:30:31  5-MIN KDBQ 131830Z VRB06KT 10SM CLR M01/M07 A3015 870 66 -800 VRB/06 RMK AO2 PRESFR
94908KDBQ DBQ20090213123509502/13/09 12:35:31  5-MIN KDBQ 131835Z 01007KT 10SM CLR M01/M07 A3015 870 66 -800 010/07 RMK AO2
94908KDBQ DBQ20090213124009502/13/09 12:40:31  5-MIN KDBQ 131840Z 03005KT 10SM CLR M01/M07 A3015 870 63 -700 020/05 RMK AO2
94908KDBQ DBQ20090213124509502/13/09 12:45:31  5-MIN KDBQ 131845Z 36004KT 10SM CLR M01/M07 A3015 870 63 -700 360/04 RMK AO2
94908KDBQ DBQ20090213125011202/13/09 12:50:31  5-MIN KDBQ 131850Z 36003KT 10SM CLR M01/M06 A3015 870 66 -700 360/03 RMK AO2 SLP224 T10061061
94908KDBQ DBQ20090213125509502/13/09 12:55:31  5-MIN KDBQ 131855Z 01005KT 10SM CLR M01/M07 A3015 870 66 -800 010/05 RMK AO2
94908KDBQ DBQ20090213130009502/13/09 13:00:31  5-MIN KDBQ 131900Z 07005KT 10SM CLR M01/M07 A3015 870 66 -800 070/05 RMK AO2
94908KDBQ DBQ20090213130509502/13/09 13:05:31  5-MIN KDBQ 131905Z 07003KT 10SM CLR M01/M07 A3014 880 66 -800 070/03 RMK AO2
94908KDBQ DBQ20090213131009802/13/09 13:10:31  5-MIN KDBQ 131910Z 06005KT 10SM FEW022 M01/M06 A3014 880 66 -700 060/05 RMK AO2
94908KDBQ DBQ20090213131509802/13/09 13:15:31  5-MIN KDBQ 131915Z 02005KT 10SM SCT022 M01/M07 A3014 880 63 -700 020/05 RMK AO2
94908KDBQ DBQ20090213132009802/13/09 13:20:31  5-MIN KDBQ 131920Z 04007KT 10SM SCT022 M01/M06 A3014 880 66 -700 040/07 RMK AO2
94908KDBQ DBQ20090213132509802/13/09 13:25:31  5-MIN KDBQ 131925Z 05003KT 10SM FEW022 M01/M07 A3013 880 66 -800 050/03 RMK AO2
94908KDBQ DBQ20090213133009802/13/09 13:30:31  5-MIN KDBQ 131930Z 04005KT 10SM SCT022 M01/M07 A3013 890 63 -700 040/05 RMK AO2
94908KDBQ DBQ20090213233012702/13/09 23:30:31  5-MIN KDBQ 140530Z AUTO 36008KT 2 1/2SM -SN BR BKN025 OVC042 M04/M05 A3011 910 92 -1100 360/08 RMK AO2 P0000
94908KDBQ DBQ20090213233512702/13/09 23:35:31  5-MIN KDBQ 140535Z AUTO 36008KT 2 1/2SM -SN BR BKN025 OVC040 M04/M05 A3010 910 92 -1100 360/08 RMK AO2 P0001
94908KDBQ DBQ20090213234013402/13/09 23:40:31  5-MIN KDBQ 140540Z AUTO 36008KT 2 1/2SM -SN BR BKN027 BKN040 OVC075 M04/M05 A3010 910 92 -1100 360/08 RMK AO2 P0001
94908KDBQ DBQ20090213234513002/13/09 23:45:31  5-MIN KDBQ 140545Z AUTO 36008KT 3SM -SN BR SCT029 BKN042 OVC075 M04/M05 A3010 910 92 -1100 360/08 RMK AO2 P0001
94908KDBQ DBQ20090213235018102/13/09 23:50:31  5-MIN KDBQ 140550Z AUTO 36008KT 3SM -SN BR FEW029 SCT042 OVC070 M04/M05 A3011 910 92 -1100 350/08 RMK AO2 SLP209 P0001 60014 T10391050 11022 21039 400001056 53004
94908KDBQ DBQ20090213235512302/13/09 23:55:31  5-MIN KDBQ 140555Z AUTO 35009KT 3SM -SN BR FEW029 OVC070 M04/M05 A3011 910 92 -1100 350/09 RMK AO2 P0000
94908KDBQ DBQ20090214000012302/14/09 00:00:38  5-MIN KDBQ 140600Z AUTO 36008KT 3SM -SN BR FEW029 OVC070 M04/M05 A3010 910 92 -1100 360/08 RMK AO2 P0000
94908KDBQ DBQ20090214000512302/14/09 00:05:31  5-MIN KDBQ 140605Z AUTO 01007KT 3SM -SN BR FEW027 OVC070 M04/M05 A3010 910 92 -1100 010/07 RMK AO2 P0000
94908KDBQ DBQ20090214001012702/14/09 00:10:31  5-MIN KDBQ 140610Z AUTO 01006KT 2 1/2SM -SN BR SCT022 OVC070 M04/M05 A3010 920 92 -1100 010/06 RMK AO2 P0000
94908KDBQ DBQ20090214001512702/14/09 00:15:31  5-MIN KDBQ 140615Z AUTO 01006KT 2 1/2SM -SN BR FEW020 OVC070 M04/M05 A3010 920 92 -1100 010/06 RMK AO2 P0000
94908KDBQ DBQ20090214002013002/14/09 00:20:31  5-MIN KDBQ 140620Z AUTO 01006KT 3SM -SN BR FEW004 SCT026 OVC070 M04/M05 A3009 920 92 -1100 010/06 RMK AO2 P0000
94908KDBQ DBQ20090214002513002/14/09 00:25:31  5-MIN KDBQ 140625Z AUTO 36006KT 3SM -SN BR FEW004 SCT026 OVC070 M04/M05 A3010 910 92 -1100 360/06 RMK AO2 P0000
94908KDBQ DBQ20090214003013002/14/09 00:30:31  5-MIN KDBQ 140630Z AUTO 35008KT 3SM -SN BR FEW004 SCT029 OVC075 M04/M05 A3010 910 92 -1100 340/08 RMK AO2 P0000
94908KDBQ DBQ20090214003513002/14/09 00:35:31  5-MIN KDBQ 140635Z AUTO 34008KT 3SM -SN BR SCT004 BKN034 OVC075 M04/M05 A3011 910 92 -1100 340/08 RMK AO2 P0000
94908KDBQ DBQ20090214004013002/14/09 00:40:31  5-MIN KDBQ 140640Z AUTO 34008KT 3SM -SN BR BKN004 BKN050 OVC075 M04/M05 A3010 910 92 -1100 340/08 RMK AO2 P0000
94908KDBQ DBQ20090214004512302/14/09 00:45:31  5-MIN KDBQ 140645Z AUTO 36007KT 3SM -SN BR BKN004 OVC075 M04/M05 A3010 920 92 -1100 360/07 RMK AO2 P0000
94908KDBQ DBQ20090214005012702/14/09 00:50:31  5-MIN KDBQ 140650Z AUTO 35007KT 2 1/2SM -SN BR BKN004 OVC075 M04/M05 A3010 920 92 -1100 350/07 RMK AO2 P0000
94908KDBQ DBQ20090214005512002/14/09 00:55:31  5-MIN KDBQ 140655Z AUTO 35008KT 2 1/2SM -SN BR OVC004 M04/M05 A3010 920 92 -1100 350/08 RMK AO2 P0000
94908KDBQ DBQ20090214010012002/14/09 01:00:31  5-MIN KDBQ 140700Z AUTO 35009KT 2 1/2SM -SN BR OVC004 M04/M05 A3010 910 92 -1100 340/09 RMK AO2 P0000
94908KDBQ DBQ20090214010513202/14/09 01:05:31  5-MIN KDBQ 140705Z AUTO 34009KT 2 1/2SM -SN BR OVC004 M04/M05 A3010 910 92 -1100 340/09 RMK AO2 CIG 004V008 P0000
94908KDBQ DBQ20090214011012002/14/09 01:10:31  5-MIN KDBQ 140710Z AUTO 34011KT 2 1/2SM -SN BR OVC004 M04/M06 A3010 910 88 -1100 340/11 RMK AO2 P0000
94908KDBQ DBQ20090214011512002/14/09 01:15:31  5-MIN KDBQ 140715Z AUTO 34009KT 2 1/2SM -SN BR OVC006 M04/M06 A3010 910 88 -1100 340/09 RMK AO2 P0000
94908KDBQ DBQ20090214012012302/14/09 01:20:31  5-MIN KDBQ 140720Z AUTO 34009KT 3SM -SN BR BKN006 OVC070 M04/M06 A3010 910 88 -1100 340/09 RMK AO2 P0000
94908KDBQ DBQ20090214012512302/14/09 01:25:31  5-MIN KDBQ 140725Z AUTO 34009KT 3SM -SN BR BKN006 OVC070 M04/M06 A3010 910 92 -1200 340/09 RMK AO2 P0000
94908KDBQ DBQ20090214013012302/14/09 01:30:31  5-MIN KDBQ 140730Z AUTO 34008KT 3SM -SN BR SCT006 OVC070 M04/M06 A3010 910 92 -1200 340/08 RMK AO2 P0000
94908KDBQ DBQ20090214013513002/14/09 01:35:31  5-MIN KDBQ 140735Z AUTO 34009KT 3SM -SN BR FEW006 SCT013 OVC065 M04/M06 A3010 910 92 -1200 340/09 RMK AO2 P0000
94908KDBQ DBQ20090214014012302/14/09 01:40:31  5-MIN KDBQ 140740Z AUTO 34009KT 3SM -SN BR FEW006 OVC065 M04/M06 A3011 910 92 -1200 340/09 RMK AO2 P0000
94908KDBQ DBQ20090214014511602/14/09 01:45:31  5-MIN KDBQ 140745Z AUTO 34010KT 3SM -SN BR OVC065 M04/M06 A3011 900 92 -1200 340/10 RMK AO2 P0000
94908KDBQ DBQ20090214015014202/14/09 01:50:31  5-MIN KDBQ 140750Z AUTO 34008KT 3SM BR FEW007 OVC065 M04/M06 A3011 900 88 -1200 340/08 RMK AO2 SNE49 SLP211 P0000 T10441061
94908KDBQ DBQ20090214015511302/14/09 01:55:31  5-MIN KDBQ 140755Z AUTO 34007KT 4SM BR FEW007 OVC060 M04/M06 A3011 900 88 -1200 340/07 RMK AO2
94908KDBQ DBQ20090214020010602/14/09 02:00:31  5-MIN KDBQ 140800Z AUTO 34009KT 4SM BR OVC060 M04/M06 A3011 900 88 -1200 340/09 RMK AO2
94908KDBQ DBQ20090214020510602/14/09 02:05:31  5-MIN KDBQ 140805Z AUTO 34010KT 4SM BR OVC060 M04/M06 A3011 900 88 -1200 340/10 RMK AO2
94908KDBQ DBQ20090214021010602/14/09 02:10:31  5-MIN KDBQ 140810Z AUTO 34008KT 4SM BR OVC060 M04/M06 A3011 900 88 -1200 330/08 RMK AO2
94908KDBQ DBQ20090214021510602/14/09 02:15:31  5-MIN KDBQ 140815Z AUTO 35009KT 4SM BR OVC060 M04/M06 A3011 900 88 -1200 340/09 RMK AO2
94908KDBQ DBQ20090214022010602/14/09 02:20:31  5-MIN KDBQ 140820Z AUTO 34009KT 4SM BR OVC060 M04/M06 A3011 900 88 -1200 340/09 RMK AO2
94908KDBQ DBQ20090214022510602/14/09 02:25:31  5-MIN KDBQ 140825Z AUTO 34009KT 4SM BR OVC060 M04/M06 A3011 900 88 -1200 340/09 RMK AO2
94908KDBQ DBQ20090214023010602/14/09 02:30:31  5-MIN KDBQ 140830Z AUTO 34009KT 5SM BR OVC060 M04/M06 A3011 900 88 -1200 340/09 RMK AO2
94908KDBQ DBQ20090214023510602/14/09 02:35:31  5-MIN KDBQ 140835Z AUTO 34008KT 5SM BR OVC060 M04/M06 A3011 900 88 -1200 340/08 RMK AO2
94908KDBQ DBQ20090214024010602/14/09 02:40:31  5-MIN KDBQ 140840Z AUTO 34009KT 5SM BR OVC060 M06/M07 A3011 900 92 -1300 340/09 RMK AO2
94908KDBQ DBQ20090214024511302/14/09 02:45:31  5-MIN KDBQ 140845Z AUTO 34010KT 5SM BR FEW006 BKN060 M06/M07 A3011 900 92 -1300 340/10 RMK AO2
94908KDBQ DBQ20090214025014202/14/09 02:50:31  5-MIN KDBQ 140850Z AUTO 34009KT 5SM BR SCT006 BKN060 M06/M07 A3011 900 92 -1300 340/09 RMK AO2 SLP211 60000 T10561067 58006
94908KDBQ DBQ20090214025511302/14/09 02:55:31  5-MIN KDBQ 140855Z AUTO 34010KT 5SM BR SCT006 BKN060 M06/M07 A3011 900 92 -1300 340/10 RMK AO2
94908KDBQ DBQ20090214030011302/14/09 03:00:31  5-MIN KDBQ 140900Z AUTO 34010KT 4SM BR BKN006 BKN060 M06/M07 A3011 900 88 -1300 340/10 RMK AO2
94908KDBQ DBQ20090214030511302/14/09 03:05:31  5-MIN KDBQ 140905Z AUTO 34010KT 4SM BR BKN006 BKN055 M06/M07 A3011 900 92 -1300 340/10 RMK AO2
94908KDBQ DBQ20090214031010602/14/09 03:10:31  5-MIN KDBQ 140910Z AUTO 34009KT 5SM BR SCT006 M06/M07 A3011 910 92 -1400 340/09 RMK AO2
94908KDBQ DBQ20090214031510602/14/09 03:15:31  5-MIN KDBQ 140915Z AUTO 34009KT 5SM BR SCT006 M06/M07 A3011 910 92 -1400 340/09 RMK AO2
94908KDBQ DBQ20090214032010602/14/09 03:20:31  5-MIN KDBQ 140920Z AUTO 34009KT 5SM BR FEW006 M06/M08 A3011 910 88 -1400 340/09 RMK AO2
94908KDBQ DBQ20090214032510602/14/09 03:25:31  5-MIN KDBQ 140925Z AUTO 34010KT 5SM BR FEW006 M06/M08 A3011 900 88 -1400 340/10 RMK AO2
94908KDBQ DBQ20090214033010602/14/09 03:30:31  5-MIN KDBQ 140930Z AUTO 34010KT 5SM BR SCT031 M06/M07 A3011 910 92 -1400 340/10 RMK AO2
94908KDBQ DBQ20090214033510602/14/09 03:35:31  5-MIN KDBQ 140935Z AUTO 34011KT 6SM BR BKN031 M06/M07 A3011 910 88 -1300 340/11 RMK AO2
94908KDBQ DBQ20090214034010602/14/09 03:40:31  5-MIN KDBQ 140940Z AUTO 34010KT 6SM BR BKN029 M06/M07 A3011 910 88 -1300 340/10 RMK AO2
94908KDBQ DBQ20090214034510602/14/09 03:45:31  5-MIN KDBQ 140945Z AUTO 34011KT 6SM BR BKN029 M06/M07 A3011 910 88 -1300 340/11 RMK AO2
94908KDBQ DBQ20090214035012302/14/09 03:50:31  5-MIN KDBQ 140950Z AUTO 34011KT 6SM BR OVC029 M06/M07 A3011 910 88 -1300 340/11 RMK AO2 SLP210 T10561072
94908KDBQ DBQ20090214035510602/14/09 03:55:31  5-MIN KDBQ 140955Z AUTO 34011KT 6SM BR OVC027 M05/M07 A3011 910 84 -1200 340/11 RMK AO2
94908KDBQ DBQ20090214040010602/14/09 04:00:31  5-MIN KDBQ 141000Z AUTO 34010KT 6SM BR OVC027 M05/M07 A3010 910 84 -1200 340/10 RMK AO2
94908KDBQ DBQ20090214040510302/14/09 04:05:31  5-MIN KDBQ 141005Z AUTO 35010KT 7SM OVC025 M05/M07 A3011 900 84 -1300 340/10 RMK AO2
94908KDBQ DBQ20090214041010302/14/09 04:10:31  5-MIN KDBQ 141010Z AUTO 34010KT 7SM OVC025 M05/M07 A3011 900 84 -1300 340/10 RMK AO2
94908KDBQ DBQ20090214041510302/14/09 04:15:31  5-MIN KDBQ 141015Z AUTO 34010KT 7SM OVC025 M05/M07 A3012 900 84 -1300 340/10 RMK AO2
94908KDBQ DBQ20090214042010902/14/09 04:20:31  5-MIN KDBQ 141020Z AUTO 35009KT 7SM OVC025 M05/M07 A3012 900 84 -1300 350/09 RMK AO2 P0001
94908KDBQ DBQ20090214042510902/14/09 04:25:31  5-MIN KDBQ 141025Z AUTO 34008KT 7SM OVC023 M05/M07 A3012 900 84 -1300 340/08 RMK AO2 P0001
94908KDBQ DBQ20090214043010902/14/09 04:30:31  5-MIN KDBQ 141030Z AUTO 35008KT 7SM OVC023 M05/M07 A3012 900 84 -1300 350/08 RMK AO2 P0001
94908KDBQ DBQ20090214043510902/14/09 04:35:31  5-MIN KDBQ 141035Z AUTO 35007KT 7SM OVC023 M05/M07 A3012 900 84 -1300 350/07 RMK AO2 P0001
94908KDBQ DBQ20090214044010902/14/09 04:40:31  5-MIN KDBQ 141040Z AUTO 35007KT 7SM OVC021 M05/M07 A3012 900 84 -1300 350/07 RMK AO2 P0001
94908KDBQ DBQ20090214044510902/14/09 04:45:31  5-MIN KDBQ 141045Z AUTO 34008KT 7SM OVC021 M05/M07 A3012 890 84 -1300 340/08 RMK AO2 P0001
94908KDBQ DBQ20090214045012602/14/09 04:50:31  5-MIN KDBQ 141050Z AUTO 35009KT 7SM OVC021 M05/M07 A3012 890 84 -1300 340/09 RMK AO2 SLP216 P0001 T10501072
94908KDBQ DBQ20090214045510302/14/09 04:55:31  5-MIN KDBQ 141055Z AUTO 34009KT 7SM OVC019 M05/M07 A3013 890 84 -1300 340/09 RMK AO2
94908KDBQ DBQ20090214050010302/14/09 05:00:31  5-MIN KDBQ 141100Z AUTO 35011KT 7SM OVC019 M05/M07 A3013 890 84 -1300 350/11 RMK AO2
94908KDBQ DBQ20090214050510302/14/09 05:05:31  5-MIN KDBQ 141105Z AUTO 35011KT 7SM OVC019 M05/M07 A3013 890 84 -1300 350/11 RMK AO2
94908KDBQ DBQ20090214051010302/14/09 05:10:31  5-MIN KDBQ 141110Z AUTO 35009KT 7SM OVC019 M05/M07 A3013 890 84 -1300 350/09 RMK AO2
94908KDBQ DBQ20090214051510302/14/09 05:15:31  5-MIN KDBQ 141115Z AUTO 34010KT 8SM OVC019 M04/M08 A3013 880 78 -1200 340/10 RMK AO2
94908KDBQ DBQ20090214052010302/14/09 05:20:31  5-MIN KDBQ 141120Z AUTO 35011KT 8SM OVC019 M04/M08 A3013 880 78 -1200 350/11 RMK AO2
94908KDBQ DBQ20090214052510302/14/09 05:25:31  5-MIN KDBQ 141125Z AUTO 35013KT 8SM OVC019 M04/M08 A3013 880 78 -1200 350/13 RMK AO2
94908KDBQ DBQ20090214053010302/14/09 05:30:31  5-MIN KDBQ 141130Z AUTO 35008KT 8SM OVC019 M04/M08 A3013 880 78 -1200 340/08 RMK AO2
94908KDBQ DBQ20090214053510302/14/09 05:35:31  5-MIN KDBQ 141135Z AUTO 36013KT 8SM OVC019 M04/M08 A3013 880 78 -1200 350/13 RMK AO2
94908KDBQ DBQ20090214054010902/14/09 05:40:31  5-MIN KDBQ 141140Z AUTO 36012KT 8SM OVC019 M04/M08 A3014 880 78 -1200 350/12 RMK AO2 P0001
94908KDBQ DBQ20090214054510902/14/09 05:45:31  5-MIN KDBQ 141145Z AUTO 35011KT 8SM OVC019 M04/M08 A3014 880 74 -1200 340/11 RMK AO2 P0001
94908KDBQ DBQ20090214055015602/14/09 05:50:31  5-MIN KDBQ 141150Z AUTO 35008KT 8SM OVC019 M04/M08 A3014 880 78 -1200 350/08 RMK AO2 SLP222 P0001 60002 70020 T10441078 11039 21061 53001
94908KDBQ DBQ20090214055509802/14/09 05:55:31  5-MIN KDBQ 141155Z 34008KT 8SM OVC019 M04/M08 A3014 870 78 -1200 340/08 RMK AO2
94908KDBQ DBQ20090214060009802/14/09 06:00:31  5-MIN KDBQ 141200Z 34010KT 8SM OVC019 M04/M08 A3014 870 78 -1200 340/10 RMK AO2
94908KDBQ DBQ20090214060509802/14/09 06:05:31  5-MIN KDBQ 141205Z 35013KT 8SM OVC019 M04/M08 A3014 870 74 -1200 350/13 RMK AO2
94908KDBQ DBQ20090214061009802/14/09 06:10:31  5-MIN KDBQ 141210Z 35010KT 8SM OVC019 M05/M08 A3014 870 77 -1300 350/10 RMK AO2
94908KDBQ DBQ20090214061510402/14/09 06:15:31  5-MIN KDBQ 141215Z 34013G18KT 9SM OVC019 M05/M08 A3014 870 77 -1300 340/13G18 RMK AO2
94908KDBQ DBQ20090214062010402/14/09 06:20:31  5-MIN KDBQ 141220Z 35012G18KT 9SM OVC019 M05/M09 A3014 870 74 -1300 350/12G18 RMK AO2
94908KDBQ DBQ20090214062509802/14/09 06:25:31  5-MIN KDBQ 141225Z 35010KT 9SM OVC019 M05/M08 A3014 870 77 -1300 350/10 RMK AO2
94908KDBQ DBQ20090214063009802/14/09 06:30:31  5-MIN KDBQ 141230Z 35011KT 9SM OVC019 M05/M08 A3014 870 77 -1300 340/11 RMK AO2
94908KDBQ DBQ20090214063509802/14/09 06:35:31  5-MIN KDBQ 141235Z 35010KT 9SM OVC021 M05/M08 A3014 870 77 -1300 350/10 RMK AO2
94908KDBQ DBQ20090214064009802/14/09 06:40:31  5-MIN KDBQ 141240Z 35011KT 9SM OVC021 M05/M09 A3014 870 74 -1300 350/11 RMK AO2
94908KDBQ DBQ20090214064509802/14/09 06:45:31  5-MIN KDBQ 141245Z 35014KT 9SM OVC021 M05/M09 A3014 870 74 -1300 350/14 RMK AO2
94908KDBQ DBQ20090214065011602/14/09 06:50:31  5-MIN KDBQ 141250Z 35011KT 10SM OVC021 M06/M09 A3014 870 77 -1400 350/11 RMK AO2 SLP224 T10561089
94908KDBQ DBQ20090214065509902/14/09 06:55:31  5-MIN KDBQ 141255Z 35013KT 10SM OVC021 M05/M09 A3015 870 74 -1300 350/13 RMK AO2
94908KDBQ DBQ20090214070009802/14/09 07:00:31  5-MIN KDBQ 141300Z 34010KT 9SM OVC021 M05/M09 A3015 870 74 -1300 340/10 RMK AO2
94908KDBQ DBQ20090214070509802/14/09 07:05:31  5-MIN KDBQ 141305Z 34011KT 8SM OVC023 M05/M09 A3015 870 74 -1300 340/11 RMK AO2
94908KDBQ DBQ20090214071009802/14/09 07:10:31  5-MIN KDBQ 141310Z 34011KT 8SM OVC023 M05/M09 A3015 870 74 -1300 340/11 RMK AO2
94908KDBQ DBQ20090214071509802/14/09 07:15:31  5-MIN KDBQ 141315Z 35011KT 8SM OVC023 M05/M09 A3015 870 74 -1300 340/11 RMK AO2
94908KDBQ DBQ20090214072009802/14/09 07:20:31  5-MIN KDBQ 141320Z 35012KT 8SM OVC023 M06/M09 A3015 870 77 -1400 350/12 RMK AO2
94908KDBQ DBQ20090214072509802/14/09 07:25:31  5-MIN KDBQ 141325Z 35009KT 8SM BKN023 M06/M09 A3015 870 77 -1400 350/09 RMK AO2
94908KDBQ DBQ20090214073010402/14/09 07:30:31  5-MIN KDBQ 141330Z 36008KT 8SM BKN023 M06/M09 A3014 870 77 -1400 360/08 RMK AO2 P0001
94908KDBQ DBQ20090214073510402/14/09 07:35:31  5-MIN KDBQ 141335Z 35009KT 8SM BKN023 M07/M09 A3015 870 81 -1500 350/09 RMK AO2 P0001
94908KDBQ DBQ20090214074010402/14/09 07:40:31  5-MIN KDBQ 141340Z 35009KT 8SM BKN023 M06/M09 A3015 870 77 -1400 350/09 RMK AO2 P0001
94908KDBQ DBQ20090214074510402/14/09 07:45:31  5-MIN KDBQ 141345Z 35009KT 8SM SCT023 M06/M09 A3015 870 77 -1400 350/09 RMK AO2 P0001
94908KDBQ DBQ20090214075012102/14/09 07:50:31  5-MIN KDBQ 141350Z 34008KT 8SM FEW023 M06/M09 A3015 870 77 -1400 340/08 RMK AO2 SLP226 P0001 T10611094
94908KDBQ DBQ20090214075509802/14/09 07:55:31  5-MIN KDBQ 141355Z 34009KT 8SM FEW023 M06/M09 A3015 870 77 -1400 340/09 RMK AO2
94908KDBQ DBQ20090214080009802/14/09 08:00:31  5-MIN KDBQ 141400Z 35009KT 8SM FEW023 M06/M09 A3015 860 77 -1400 350/09 RMK AO2
94908KDBQ DBQ20090214080509502/14/09 08:05:31  5-MIN KDBQ 141405Z 35009KT 8SM CLR M06/M09 A3015 860 77 -1400 350/09 RMK AO2
94908KDBQ DBQ20090214081009502/14/09 08:10:31  5-MIN KDBQ 141410Z 35009KT 8SM CLR M06/M09 A3015 860 77 -1400 350/09 RMK AO2
94908KDBQ DBQ20090214081509502/14/09 08:15:31  5-MIN KDBQ 141415Z 34010KT 8SM CLR M06/M09 A3016 860 77 -1500 340/10 RMK AO2
94908KDBQ DBQ20090214082009502/14/09 08:20:31  5-MIN KDBQ 141420Z 34010KT 8SM CLR M06/M09 A3016 860 77 -1500 340/10 RMK AO2
94908KDBQ DBQ20090214082509502/14/09 08:25:31  5-MIN KDBQ 141425Z 34011KT 8SM CLR M06/M09 A3016 860 74 -1400 340/11 RMK AO2
94908KDBQ DBQ20090214083009502/14/09 08:30:31  5-MIN KDBQ 141430Z 34013KT 8SM CLR M06/M09 A3016 860 77 -1400 340/13 RMK AO2
94908KDBQ DBQ20090214083509502/14/09 08:35:31  5-MIN KDBQ 141435Z 34010KT 8SM CLR M06/M09 A3016 850 77 -1400 340/10 RMK AO2
94908KDBQ DBQ20090214084009502/14/09 08:40:31  5-MIN KDBQ 141440Z 34011KT 8SM CLR M06/M09 A3016 850 81 -1500 340/11 RMK AO2
94908KDBQ DBQ20090214084509502/14/09 08:45:31  5-MIN KDBQ 141445Z 35011KT 8SM CLR M06/M09 A3016 850 77 -1400 340/11 RMK AO2
94908KDBQ DBQ20090214085012402/14/09 08:50:31  5-MIN KDBQ 141450Z 34010KT 8SM CLR M06/M09 A3016 850 81 -1500 340/10 RMK AO2 SLP230 60001 T10611089 53010
94908KDBQ DBQ20090214085509502/14/09 08:55:31  5-MIN KDBQ 141455Z 34011KT 8SM CLR M06/M09 A3017 850 77 -1400 340/11 RMK AO2
94908KDBQ DBQ20090214090009502/14/09 09:00:31  5-MIN KDBQ 141500Z 34011KT 8SM CLR M06/M09 A3017 850 77 -1400 340/11 RMK AO2
94908KDBQ DBQ20090214090509502/14/09 09:05:31  5-MIN KDBQ 141505Z 34008KT 8SM CLR M06/M09 A3017 850 77 -1400 340/08 RMK AO2
94908KDBQ DBQ20090214091009502/14/09 09:10:31  5-MIN KDBQ 141510Z 34009KT 8SM CLR M06/M09 A3017 850 77 -1400 340/09 RMK AO2
94908KDBQ DBQ20090214091509502/14/09 09:15:31  5-MIN KDBQ 141515Z 34009KT 8SM CLR M06/M09 A3017 850 77 -1400 340/09 RMK AO2
94908KDBQ DBQ20090214092009502/14/09 09:20:31  5-MIN KDBQ 141520Z 34010KT 9SM CLR M06/M09 A3017 850 77 -1400 340/10 RMK AO2
94908KDBQ DBQ20090214092509502/14/09 09:25:31  5-MIN KDBQ 141525Z 35010KT 9SM CLR M06/M09 A3017 850 77 -1400 350/10 RMK AO2
94908KDBQ DBQ20090214093009802/14/09 09:30:31  5-MIN KDBQ 141530Z 35010KT 9SM FEW017 M06/M09 A3017 850 77 -1400 350/10 RMK AO2
94908KDBQ DBQ20090214093509802/14/09 09:35:31  5-MIN KDBQ 141535Z 35007KT 9SM FEW017 M06/M09 A3017 840 77 -1400 350/07 RMK AO2
94908KDBQ DBQ20090214094009802/14/09 09:40:31  5-MIN KDBQ 141540Z 33008KT 9SM SCT017 M06/M09 A3018 840 77 -1400 330/08 RMK AO2
94908KDBQ DBQ20090214094509802/14/09 09:45:31  5-MIN KDBQ 141545Z 35008KT 9SM SCT017 M06/M09 A3018 840 77 -1400 350/08 RMK AO2
94908KDBQ DBQ20090214095011502/14/09 09:50:31  5-MIN KDBQ 141550Z 34010KT 9SM SCT017 M05/M09 A3018 840 74 -1300 340/10 RMK AO2 SLP235 T10501089
94908KDBQ DBQ20090214095509902/14/09 09:55:31  5-MIN KDBQ 141555Z 34009KT 10SM SCT017 M05/M09 A3018 840 74 -1300 340/09 RMK AO2
94908KDBQ DBQ20090214100009902/14/09 10:00:31  5-MIN KDBQ 141600Z 35009KT 10SM SCT017 M05/M09 A3018 840 74 -1300 350/09 RMK AO2
94908KDBQ DBQ20090214100509902/14/09 10:05:31  5-MIN KDBQ 141605Z 33008KT 10SM SCT017 M05/M09 A3018 840 74 -1300 330/08 RMK AO2
94908KDBQ DBQ20090214101009902/14/09 10:10:31  5-MIN KDBQ 141610Z 35008KT 10SM FEW017 M05/M08 A3017 840 77 -1300 350/08 RMK AO2
94908KDBQ DBQ20090214101509902/14/09 10:15:31  5-MIN KDBQ 141615Z 34009KT 10SM FEW017 M04/M09 A3018 840 71 -1300 340/09 RMK AO2
94908KDBQ DBQ20090214102009602/14/09 10:20:31  5-MIN KDBQ 141620Z 35007KT 10SM CLR M04/M09 A3018 840 71 -1300 340/07 RMK AO2
94908KDBQ DBQ20090214102509602/14/09 10:25:31  5-MIN KDBQ 141625Z 35007KT 10SM CLR M04/M09 A3018 840 71 -1300 350/07 RMK AO2
94908KDBQ DBQ20090214103009602/14/09 10:30:31  5-MIN KDBQ 141630Z 34008KT 10SM CLR M04/M09 A3018 840 71 -1300 340/08 RMK AO2
94908KDBQ DBQ20090214103509602/14/09 10:35:31  5-MIN KDBQ 141635Z 34007KT 10SM CLR M04/M09 A3018 840 71 -1300 340/07 RMK AO2
94908KDBQ DBQ20090214104009602/14/09 10:40:31  5-MIN KDBQ 141640Z 33008KT 10SM CLR M04/M09 A3018 840 71 -1300 330/08 RMK AO2
94908KDBQ DBQ20090214104509602/14/09 10:45:31  5-MIN KDBQ 141645Z 35008KT 10SM CLR M04/M09 A3018 830 71 -1300 350/08 RMK AO2
94908KDBQ DBQ20090214105011302/14/09 10:50:31  5-MIN KDBQ 141650Z 35006KT 10SM CLR M04/M09 A3019 830 68 -1200 350/06 RMK AO2 SLP238 T10391089
94908KDBQ DBQ20090214105509602/14/09 10:55:31  5-MIN KDBQ 141655Z 33009KT 10SM CLR M04/M08 A3019 830 74 -1300 330/09 RMK AO2
94908KDBQ DBQ20090214110009602/14/09 11:00:31  5-MIN KDBQ 141700Z 33009KT 10SM CLR M04/M08 A3019 830 74 -1300 330/09 RMK AO2
94908KDBQ DBQ20090214110509602/14/09 11:05:31  5-MIN KDBQ 141705Z 33008KT 10SM CLR M04/M08 A3019 830 74 -1300 330/08 RMK AO2
94908KDBQ DBQ20090214111009602/14/09 11:10:31  5-MIN KDBQ 141710Z 34008KT 10SM CLR M04/M08 A3019 830 74 -1300 340/08 RMK AO2
94908KDBQ DBQ20090214111509602/14/09 11:15:31  5-MIN KDBQ 141715Z 33009KT 10SM CLR M04/M08 A3019 830 71 -1200 330/09 RMK AO2
94908KDBQ DBQ20090214112009602/14/09 11:20:31  5-MIN KDBQ 141720Z 33009KT 10SM CLR M04/M08 A3020 820 71 -1200 330/09 RMK AO2
94908KDBQ DBQ20090214112509602/14/09 11:25:31  5-MIN KDBQ 141725Z 34008KT 10SM CLR M04/M09 A3019 830 68 -1200 340/08 RMK AO2
94908KDBQ DBQ20090214120509802/14/09 12:05:31  5-MIN KDBQ 141805Z 33011KT 10SM CLR M03/M09 A3018 840 63 -1100 330/11 RMK AO2 $
94908KDBQ DBQ20090214121009802/14/09 12:10:31  5-MIN KDBQ 141810Z 34009KT 10SM CLR M03/M10 A3018 840 60 -1100 340/09 RMK AO2 $
94908KDBQ DBQ20090214121509802/14/09 12:15:31  5-MIN KDBQ 141815Z 34009KT 10SM CLR M03/M09 A3018 840 63 -1100 340/09 RMK AO2 $
94908KDBQ DBQ20090214122009802/14/09 12:20:31  5-MIN KDBQ 141820Z 33007KT 10SM CLR M03/M09 A3018 840 60 -1000 330/07 RMK AO2 $
94908KDBQ DBQ20090214122509802/14/09 12:25:31  5-MIN KDBQ 141825Z 34006KT 10SM CLR M03/M09 A3018 840 63 -1000 340/06 RMK AO2 $
94908KDBQ DBQ20090214123009802/14/09 12:30:31  5-MIN KDBQ 141830Z 34006KT 10SM CLR M03/M09 A3018 840 63 -1000 340/06 RMK AO2 $
94908KDBQ DBQ20090214123509802/14/09 12:35:31  5-MIN KDBQ 141835Z 33006KT 10SM CLR M03/M09 A3017 840 60 -1000 330/06 RMK AO2 $
94908KDBQ DBQ20090214124009802/14/09 12:40:31  5-MIN KDBQ 141840Z 34007KT 10SM CLR M02/M09 A3017 850 60 -1000 340/07 RMK AO2 $
94908KDBQ DBQ20090214124509802/14/09 12:45:31  5-MIN KDBQ 141845Z 34009KT 10SM CLR M02/M09 A3017 850 60 -1000 340/09 RMK AO2 $
94908KDBQ DBQ20090214125011502/14/09 12:50:31  5-MIN KDBQ 141850Z 34008KT 10SM CLR M02/M09 A3016 850 58 -1000 340/08 RMK AO2 SLP230 T10221094 $
94908KDBQ DBQ20090214125509802/14/09 12:55:31  5-MIN KDBQ 141855Z 35010KT 10SM CLR M02/M09 A3016 850 58 -1000 350/10 RMK AO2 $
94908KDBQ DBQ20090214130009802/14/09 13:00:31  5-MIN KDBQ 141900Z 35007KT 10SM CLR M02/M10 A3016 850 55 -1000 350/07 RMK AO2 $
94908KDBQ DBQ20090214130509802/14/09 13:05:31  5-MIN KDBQ 141905Z 35009KT 10SM CLR M02/M09 A3016 850 58 -1000 350/09 RMK AO2 $
94908KDBQ DBQ20090214131009802/14/09 13:10:31  5-MIN KDBQ 141910Z 34008KT 10SM CLR M02/M09 A3016 850 60 -1000 340/08 RMK AO2 $
94908KDBQ DBQ20090214131509802/14/09 13:15:31  5-MIN KDBQ 141915Z 34008KT 10SM CLR M02/M09 A3016 860 60 -1000 330/08 RMK AO2 $
94908KDBQ DBQ20090214132009802/14/09 13:20:31  5-MIN KDBQ 141920Z 33007KT 10SM CLR M02/M09 A3016 850 60 -1000 330/07 RMK AO2 $
94908KDBQ DBQ20090214132509802/14/09 13:25:31  5-MIN KDBQ 141925Z 32006KT 10SM CLR M02/M09 A3016 860 60 -1000 320/06 RMK AO2 $
94908KDBQ DBQ20090214133010402/14/09 13:30:31  5-MIN KDBQ 141930Z 31008KT 10SM CLR M02/M09 A3016 860 60 -1000 310/08 RMK AO2 P0001 $
94908KDBQ DBQ20090214133510402/14/09 13:35:31  5-MIN KDBQ 141935Z 29008KT 10SM CLR M02/M09 A3016 860 58 -1000 290/08 RMK AO2 P0001 $
94908KDBQ DBQ20090214134010402/14/09 13:40:31  5-MIN KDBQ 141940Z 29009KT 10SM CLR M02/M09 A3016 860 60 -1000 290/09 RMK AO2 P0001 $
94908KDBQ DBQ20090214134510402/14/09 13:45:31  5-MIN KDBQ 141945Z 28007KT 10SM CLR M02/M09 A3016 850 58 -1000 280/07 RMK AO2 P0001 $
94908KDBQ DBQ20090214135012102/14/09 13:50:31  5-MIN KDBQ 141950Z 29008KT 10SM CLR M02/M09 A3017 850 58 -1000 290/08 RMK AO2 SLP230 P0001 T10221094 $
94908KDBQ DBQ20090214135509802/14/09 13:55:31  5-MIN KDBQ 141955Z 27007KT 10SM CLR M02/M09 A3017 850 60 -1000 270/07 RMK AO2 $
94908KDBQ DBQ20090214140009802/14/09 14:00:31  5-MIN KDBQ 142000Z 28008KT 10SM CLR M02/M09 A3017 850 60 -1000 280/08 RMK AO2 $
94908KDBQ DBQ20090214140509802/14/09 14:05:31  5-MIN KDBQ 142005Z 29007KT 10SM CLR M02/M09 A3017 850 60 -1000 290/07 RMK AO2 $
94908KDBQ DBQ20090214141009802/14/09 14:10:31  5-MIN KDBQ 142010Z 29008KT 10SM CLR M02/M09 A3017 850 60 -1000 290/08 RMK AO2 $
94908KDBQ DBQ20090214141509802/14/09 14:15:31  5-MIN KDBQ 142015Z 29010KT 10SM CLR M02/M09 A3017 850 58 -1000 290/10 RMK AO2 $
94908KDBQ DBQ20090214142009802/14/09 14:20:31  5-MIN KDBQ 142020Z 31009KT 10SM CLR M02/M09 A3017 850 58 -1000 300/09 RMK AO2 $
94908KDBQ DBQ20090214142509802/14/09 14:25:31  5-MIN KDBQ 142025Z 29011KT 10SM CLR M02/M09 A3017 850 58 -1000 290/11 RMK AO2 $
94908KDBQ DBQ20090214143009802/14/09 14:30:31  5-MIN KDBQ 142030Z 30012KT 10SM CLR M02/M10 A3017 850 55 -1000 300/12 RMK AO2 $
94908KDBQ DBQ20090214143509802/14/09 14:35:31  5-MIN KDBQ 142035Z 30010KT 10SM CLR M02/M10 A3017 850 55 -1000 300/10 RMK AO2 $
94908KDBQ DBQ20090214144009802/14/09 14:40:31  5-MIN KDBQ 142040Z 29011KT 10SM CLR M02/M11 A3017 850 53 -1000 290/11 RMK AO2 $
94908KDBQ DBQ20090214144509802/14/09 14:45:31  5-MIN KDBQ 142045Z 30009KT 10SM CLR M02/M11 A3017 850 53 -1000 300/09 RMK AO2 $
94908KDBQ DBQ20090214145012602/14/09 14:50:31  5-MIN KDBQ 142050Z 29008KT 10SM CLR M02/M11 A3017 850 51 -900 290/08 RMK AO2 SLP232 60001 T10171106 51008 $
94908KDBQ DBQ20090214145509702/14/09 14:55:31  5-MIN KDBQ 142055Z 29010KT 10SM CLR M02/M11 A3017 840 51 -900 280/10 RMK AO2 $
94908KDBQ DBQ20090214150009702/14/09 15:00:31  5-MIN KDBQ 142100Z 29010KT 10SM CLR M02/M10 A3018 840 53 -900 290/10 RMK AO2 $
94908KDBQ DBQ20090214150509702/14/09 15:05:31  5-MIN KDBQ 142105Z 29010KT 10SM CLR M02/M11 A3018 840 51 -900 290/10 RMK AO2 $
94908KDBQ DBQ20090214151009702/14/09 15:10:31  5-MIN KDBQ 142110Z 31008KT 10SM CLR M02/M11 A3018 840 51 -900 310/08 RMK AO2 $
94908KDBQ DBQ20090214151509702/14/09 15:15:31  5-MIN KDBQ 142115Z 28006KT 10SM CLR M02/M09 A3018 840 55 -900 280/06 RMK AO2 $
94908KDBQ DBQ20090214152010402/14/09 15:20:31  5-MIN KDBQ 142120Z 27008KT 10SM CLR M02/M09 A3018 840 58 -1000 270/08 RMK AO2 P0001 $
94908KDBQ DBQ20090214152510402/14/09 15:25:31  5-MIN KDBQ 142125Z 27007KT 10SM CLR M02/M09 A3018 840 58 -1000 270/07 RMK AO2 P0001 $
94908KDBQ DBQ20090214153010302/14/09 15:30:31  5-MIN KDBQ 142130Z 30008KT 10SM CLR M02/M09 A3018 840 55 -900 300/08 RMK AO2 P0001 $
94908KDBQ DBQ20090214153510302/14/09 15:35:31  5-MIN KDBQ 142135Z 28006KT 10SM CLR M02/M09 A3018 840 55 -900 270/06 RMK AO2 P0001 $
94908KDBQ DBQ20090214154010302/14/09 15:40:31  5-MIN KDBQ 142140Z 28008KT 10SM CLR M02/M09 A3018 840 55 -900 280/08 RMK AO2 P0001 $
94908KDBQ DBQ20090214154510402/14/09 15:45:31  5-MIN KDBQ 142145Z 28006KT 10SM CLR M02/M09 A3018 840 58 -1000 280/06 RMK AO2 P0001 $
94908KDBQ DBQ20090214155012102/14/09 15:50:31  5-MIN KDBQ 142150Z 27009KT 10SM CLR M02/M09 A3018 840 60 -1000 270/09 RMK AO2 SLP237 P0002 T10221089 $
94908KDBQ DBQ20090214155509802/14/09 15:55:31  5-MIN KDBQ 142155Z 28008KT 10SM CLR M02/M09 A3018 840 60 -1000 270/08 RMK AO2 $
94908KDBQ DBQ20090214160009802/14/09 16:00:31  5-MIN KDBQ 142200Z 27009KT 10SM CLR M02/M09 A3018 840 60 -1000 270/09 RMK AO2 $
94908KDBQ DBQ20090214160509802/14/09 16:05:31  5-MIN KDBQ 142205Z 28009KT 10SM CLR M02/M09 A3019 830 58 -1000 270/09 RMK AO2 $
94908KDBQ DBQ20090214161009802/14/09 16:10:31  5-MIN KDBQ 142210Z 27008KT 10SM CLR M02/M09 A3019 830 60 -1000 270/08 RMK AO2 $
94908KDBQ DBQ20090214161509802/14/09 16:15:31  5-MIN KDBQ 142215Z 27009KT 10SM CLR M02/M09 A3019 830 60 -1000 270/09 RMK AO2 $
94908KDBQ DBQ20090214162009802/14/09 16:20:31  5-MIN KDBQ 142220Z 28009KT 10SM CLR M02/M09 A3019 830 60 -1000 270/09 RMK AO2 $
94908KDBQ DBQ20090214162509802/14/09 16:25:31  5-MIN KDBQ 142225Z 28011KT 10SM CLR M03/M09 A3019 830 63 -1100 270/11 RMK AO2 $
94908KDBQ DBQ20090214163009802/14/09 16:30:31  5-MIN KDBQ 142230Z 28011KT 10SM CLR M03/M09 A3019 830 63 -1100 280/11 RMK AO2 $
94908KDBQ DBQ20090214163509802/14/09 16:35:31  5-MIN KDBQ 142235Z 28012KT 10SM CLR M03/M09 A3019 830 63 -1100 280/12 RMK AO2 $
94908KDBQ DBQ20090214164009802/14/09 16:40:31  5-MIN KDBQ 142240Z 28010KT 10SM CLR M03/M09 A3019 830 63 -1100 280/10 RMK AO2 $
94908KDBQ DBQ20090214164510402/14/09 16:45:31  5-MIN KDBQ 142245Z 27007KT 10SM CLR M03/M09 A3019 830 63 -1100 270/07 RMK AO2 P0001 $
94908KDBQ DBQ20090214165012102/14/09 16:50:31  5-MIN KDBQ 142250Z 27009KT 10SM CLR M03/M09 A3019 830 65 -1100 270/09 RMK AO2 SLP240 P0001 T10331089 $
94908KDBQ DBQ20090214165509802/14/09 16:55:31  5-MIN KDBQ 142255Z 27008KT 10SM CLR M03/M09 A3019 830 65 -1100 270/08 RMK AO2 $
94908KDBQ DBQ20090214170009802/14/09 17:00:31  5-MIN KDBQ 142300Z 27008KT 10SM CLR M03/M09 A3019 830 65 -1100 270/08 RMK AO2 $
94908KDBQ DBQ20090214170509802/14/09 17:05:31  5-MIN KDBQ 142305Z 27007KT 10SM CLR M03/M09 A3019 830 65 -1100 270/07 RMK AO2 $
94908KDBQ DBQ20090214171009802/14/09 17:10:31  5-MIN KDBQ 142310Z 27007KT 10SM CLR M04/M09 A3019 830 65 -1200 270/07 RMK AO2 $
94908KDBQ DBQ20090214171509802/14/09 17:15:31  5-MIN KDBQ 142315Z 27007KT 10SM CLR M04/M09 A3019 830 65 -1200 260/07 RMK AO2 $
94908KDBQ DBQ20090214172009802/14/09 17:20:31  5-MIN KDBQ 142320Z 27006KT 10SM CLR M04/M09 A3019 830 65 -1200 260/06 RMK AO2 $
94908KDBQ DBQ20090214172509802/14/09 17:25:31  5-MIN KDBQ 142325Z 27006KT 10SM CLR M04/M09 A3019 830 68 -1300 260/06 RMK AO2 $
94908KDBQ DBQ20090214173009802/14/09 17:30:31  5-MIN KDBQ 142330Z 27006KT 10SM CLR M04/M10 A3019 830 65 -1300 270/06 RMK AO2 $
94908KDBQ DBQ20090214173509802/14/09 17:35:31  5-MIN KDBQ 142335Z 26006KT 10SM CLR M04/M10 A3019 830 65 -1300 260/06 RMK AO2 $
94908KDBQ DBQ20090214174009802/14/09 17:40:31  5-MIN KDBQ 142340Z 26006KT 10SM CLR M05/M10 A3020 830 68 -1400 260/06 RMK AO2 $
94908KDBQ DBQ20090214174509802/14/09 17:45:31  5-MIN KDBQ 142345Z 27007KT 10SM CLR M05/M10 A3020 830 68 -1400 270/07 RMK AO2 $
94908KDBQ DBQ20090214175013902/14/09 17:50:31  5-MIN KDBQ 142350Z 27007KT 10SM CLR M05/M10 A3020 820 68 -1400 270/07 RMK AO2 SLP242 60004 T10501100 11017 21050 55005 $
94908KDBQ DBQ20090214175509802/14/09 17:55:31  5-MIN KDBQ 142355Z 27007KT 10SM CLR M05/M10 A3020 820 68 -1400 270/07 RMK AO2 $
94908KDBQ DBQ20090214180009802/14/09 18:00:31  5-MIN KDBQ 150000Z 27008KT 10SM CLR M05/M10 A3020 820 68 -1400 270/08 RMK AO2 $
94908KDBQ DBQ20090214180509802/14/09 18:05:31  5-MIN KDBQ 150005Z 28007KT 10SM CLR M05/M10 A3020 820 68 -1400 270/07 RMK AO2 $
94908KDBQ DBQ20090214181009802/14/09 18:10:31  5-MIN KDBQ 150010Z 28008KT 10SM CLR M05/M09 A3020 820 71 -1400 280/08 RMK AO2 $
94908KDBQ DBQ20090214181509802/14/09 18:15:31  5-MIN KDBQ 150015Z 28007KT 10SM CLR M05/M09 A3020 820 71 -1400 280/07 RMK AO2 $
94908KDBQ DBQ20090214182009802/14/09 18:20:31  5-MIN KDBQ 150020Z 28008KT 10SM CLR M05/M09 A3020 820 71 -1400 280/08 RMK AO2 $
94908KDBQ DBQ20090214182509802/14/09 18:25:31  5-MIN KDBQ 150025Z 28009KT 10SM CLR M04/M09 A3020 820 68 -1300 280/09 RMK AO2 $
94908KDBQ DBQ20090214183009802/14/09 18:30:31  5-MIN KDBQ 150030Z 28009KT 10SM CLR M05/M09 A3021 820 71 -1400 280/09 RMK AO2 $
94908KDBQ DBQ20090214183509802/14/09 18:35:31  5-MIN KDBQ 150035Z 28008KT 10SM CLR M05/M09 A3021 810 71 -1400 280/08 RMK AO2 $
94908KDBQ DBQ20090214184009802/14/09 18:40:31  5-MIN KDBQ 150040Z 28008KT 10SM CLR M05/M09 A3021 810 71 -1400 280/08 RMK AO2 $
94908KDBQ DBQ20090214184510302/14/09 18:45:31  5-MIN KDBQ 150045Z AUTO 28009KT 10SM CLR M05/M10 A3021 810 68 -1400 280/09 RMK AO2 $
94908KDBQ DBQ20090214185012002/14/09 18:50:31  5-MIN KDBQ 150050Z AUTO 28008KT 10SM CLR M05/M10 A3021 810 68 -1400 280/08 RMK AO2 SLP247 T10501100 $
94908KDBQ DBQ20090214185510302/14/09 18:55:31  5-MIN KDBQ 150055Z AUTO 29007KT 10SM CLR M05/M10 A3021 810 68 -1400 290/07 RMK AO2 $
94908KDBQ DBQ20090214190010302/14/09 19:00:31  5-MIN KDBQ 150100Z AUTO 29008KT 10SM CLR M05/M10 A3021 810 68 -1400 290/08 RMK AO2 $
94908KDBQ DBQ20090214190510302/14/09 19:05:31  5-MIN KDBQ 150105Z AUTO 30008KT 10SM CLR M06/M10 A3021 810 71 -1400 290/08 RMK AO2 $
94908KDBQ DBQ20090214191010302/14/09 19:10:31  5-MIN KDBQ 150110Z AUTO 30008KT 10SM CLR M06/M10 A3021 810 71 -1400 300/08 RMK AO2 $
94908KDBQ DBQ20090214191510302/14/09 19:15:31  5-MIN KDBQ 150115Z AUTO 30008KT 10SM CLR M06/M10 A3021 810 71 -1400 300/08 RMK AO2 $
94908KDBQ DBQ20090214192010302/14/09 19:20:31  5-MIN KDBQ 150120Z AUTO 30008KT 10SM CLR M06/M11 A3021 810 71 -1500 300/08 RMK AO2 $
94908KDBQ DBQ20090214192510302/14/09 19:25:31  5-MIN KDBQ 150125Z AUTO 30007KT 10SM CLR M06/M11 A3021 810 71 -1500 300/07 RMK AO2 $
94908KDBQ DBQ20090214193010302/14/09 19:30:31  5-MIN KDBQ 150130Z AUTO 30008KT 10SM CLR M07/M11 A3021 810 74 -1600 300/08 RMK AO2 $
94908KDBQ DBQ20090214193510302/14/09 19:35:31  5-MIN KDBQ 150135Z AUTO 31006KT 10SM CLR M07/M11 A3021 810 74 -1600 310/06 RMK AO2 $
94908KDBQ DBQ20090214194010302/14/09 19:40:31  5-MIN KDBQ 150140Z AUTO 31007KT 10SM CLR M07/M11 A3022 810 74 -1600 310/07 RMK AO2 $
94908KDBQ DBQ20090214194510302/14/09 19:45:31  5-MIN KDBQ 150145Z AUTO 30007KT 10SM CLR M06/M11 A3022 800 71 -1500 300/07 RMK AO2 $
94908KDBQ DBQ20090214195012002/14/09 19:50:31  5-MIN KDBQ 150150Z AUTO 30006KT 10SM CLR M07/M11 A3022 800 74 -1600 300/06 RMK AO2 SLP251 T10671106 $
94908KDBQ DBQ20090214195510302/14/09 19:55:31  5-MIN KDBQ 150155Z AUTO 31005KT 10SM CLR M07/M11 A3022 800 74 -1700 310/05 RMK AO2 $
94908KDBQ DBQ20090214200010302/14/09 20:00:31  5-MIN KDBQ 150200Z AUTO 31006KT 10SM CLR M07/M11 A3022 800 74 -1700 310/06 RMK AO2 $
94908KDBQ DBQ20090214200510302/14/09 20:05:31  5-MIN KDBQ 150205Z AUTO 31006KT 10SM CLR M07/M11 A3022 800 74 -1700 310/06 RMK AO2 $
94908KDBQ DBQ20090214201010302/14/09 20:10:31  5-MIN KDBQ 150210Z AUTO 31007KT 10SM CLR M07/M11 A3022 800 71 -1600 310/07 RMK AO2 $
94908KDBQ DBQ20090214201510302/14/09 20:15:31  5-MIN KDBQ 150215Z AUTO 31007KT 10SM CLR M06/M11 A3022 800 68 -1500 310/07 RMK AO2 $
94908KDBQ DBQ20090214202010302/14/09 20:20:31  5-MIN KDBQ 150220Z AUTO 32009KT 10SM CLR M06/M11 A3022 800 68 -1500 320/09 RMK AO2 $
94908KDBQ DBQ20090214202510902/14/09 20:25:31  5-MIN KDBQ 150225Z AUTO 33010KT 10SM CLR M06/M11 A3022 800 68 -1500 320/10 RMK AO2 P0001 $
94908KDBQ DBQ20090214203010902/14/09 20:30:31  5-MIN KDBQ 150230Z AUTO 32009KT 10SM CLR M06/M11 A3022 800 68 -1500 320/09 RMK AO2 P0001 $
94908KDBQ DBQ20090214203510902/14/09 20:35:31  5-MIN KDBQ 150235Z AUTO 32009KT 10SM CLR M06/M11 A3022 800 68 -1500 320/09 RMK AO2 P0001 $
94908KDBQ DBQ20090214204010902/14/09 20:40:31  5-MIN KDBQ 150240Z AUTO 32008KT 10SM CLR M06/M11 A3022 800 68 -1500 320/08 RMK AO2 P0001 $
94908KDBQ DBQ20090214204510902/14/09 20:45:31  5-MIN KDBQ 150245Z AUTO 32008KT 10SM CLR M06/M11 A3023 800 68 -1500 320/08 RMK AO2 P0001 $
94908KDBQ DBQ20090214205013802/14/09 20:50:31  5-MIN KDBQ 150250Z AUTO 32008KT 10SM CLR M06/M11 A3023 800 68 -1500 310/08 RMK AO2 SLP254 P0001 60001 T10611111 51008 $
94908KDBQ DBQ20090214205510302/14/09 20:55:31  5-MIN KDBQ 150255Z AUTO 32008KT 10SM CLR M06/M11 A3023 790 68 -1500 320/08 RMK AO2 $
94908KDBQ DBQ20090214210010302/14/09 21:00:31  5-MIN KDBQ 150300Z AUTO 32008KT 10SM CLR M06/M11 A3023 790 68 -1500 320/08 RMK AO2 $
94908KDBQ DBQ20090214210510302/14/09 21:05:31  5-MIN KDBQ 150305Z AUTO 31007KT 10SM CLR M06/M11 A3023 790 68 -1500 310/07 RMK AO2 $
94908KDBQ DBQ20090214211010302/14/09 21:10:31  5-MIN KDBQ 150310Z AUTO 31006KT 10SM CLR M06/M11 A3024 790 68 -1500 300/06 RMK AO2 $
94908KDBQ DBQ20090214211510302/14/09 21:15:31  5-MIN KDBQ 150315Z AUTO 31006KT 10SM CLR M06/M11 A3024 790 68 -1500 310/06 RMK AO2 $
94908KDBQ DBQ20090214212010302/14/09 21:20:31  5-MIN KDBQ 150320Z AUTO 31005KT 10SM CLR M06/M11 A3024 790 68 -1500 310/05 RMK AO2 $
94908KDBQ DBQ20090214212510302/14/09 21:25:31  5-MIN KDBQ 150325Z AUTO 31006KT 10SM CLR M07/M11 A3024 790 71 -1600 310/06 RMK AO2 $
94908KDBQ DBQ20090214213010902/14/09 21:30:31  5-MIN KDBQ 150330Z AUTO 31007KT 10SM CLR M07/M11 A3024 780 71 -1600 310/07 RMK AO2 P0001 $
94908KDBQ DBQ20090214213510902/14/09 21:35:31  5-MIN KDBQ 150335Z AUTO 32007KT 10SM CLR M07/M11 A3024 780 71 -1600 320/07 RMK AO2 P0001 $
94908KDBQ DBQ20090214214010902/14/09 21:40:31  5-MIN KDBQ 150340Z AUTO 32008KT 10SM CLR M07/M11 A3024 780 71 -1600 320/08 RMK AO2 P0001 $
94908KDBQ DBQ20090214214510902/14/09 21:45:31  5-MIN KDBQ 150345Z AUTO 32008KT 10SM CLR M07/M11 A3024 780 71 -1600 320/08 RMK AO2 P0001 $
94908KDBQ DBQ20090214215012602/14/09 21:50:31  5-MIN KDBQ 150350Z AUTO 32007KT 10SM CLR M07/M11 A3024 780 71 -1600 320/07 RMK AO2 SLP260 P0001 T10671111 $
94908KDBQ DBQ20090214215510302/14/09 21:55:31  5-MIN KDBQ 150355Z AUTO 32007KT 10SM CLR M07/M11 A3024 780 71 -1600 320/07 RMK AO2 $
94908KDBQ DBQ20090214220010302/14/09 22:00:31  5-MIN KDBQ 150400Z AUTO 32007KT 10SM CLR M07/M11 A3024 780 71 -1600 320/07 RMK AO2 $
94908KDBQ DBQ20090214220510302/14/09 22:05:31  5-MIN KDBQ 150405Z AUTO 32007KT 10SM CLR M07/M11 A3025 780 71 -1600 320/07 RMK AO2 $
94908KDBQ DBQ20090214221010302/14/09 22:10:31  5-MIN KDBQ 150410Z AUTO 33007KT 10SM CLR M07/M11 A3025 780 71 -1600 330/07 RMK AO2 $
94908KDBQ DBQ20090214221510302/14/09 22:15:31  5-MIN KDBQ 150415Z AUTO 33006KT 10SM CLR M07/M11 A3025 780 71 -1600 330/06 RMK AO2 $
94908KDBQ DBQ20090214222010302/14/09 22:20:31  5-MIN KDBQ 150420Z AUTO 33006KT 10SM CLR M07/M12 A3025 780 68 -1600 330/06 RMK AO2 $
94908KDBQ DBQ20090214222510302/14/09 22:25:31  5-MIN KDBQ 150425Z AUTO 32007KT 10SM CLR M07/M12 A3025 780 71 -1700 320/07 RMK AO2 $
94908KDBQ DBQ20090214223010302/14/09 22:30:31  5-MIN KDBQ 150430Z AUTO 32007KT 10SM CLR M07/M12 A3025 780 68 -1600 320/07 RMK AO2 $
94908KDBQ DBQ20090214223510302/14/09 22:35:31  5-MIN KDBQ 150435Z AUTO 32006KT 10SM CLR M07/M12 A3025 770 68 -1600 320/06 RMK AO2 $
94908KDBQ DBQ20090214224010302/14/09 22:40:31  5-MIN KDBQ 150440Z AUTO 33008KT 10SM CLR M07/M12 A3025 770 68 -1600 330/08 RMK AO2 $
94908KDBQ DBQ20090214224510302/14/09 22:45:31  5-MIN KDBQ 150445Z AUTO 33008KT 10SM CLR M07/M12 A3025 770 68 -1600 330/08 RMK AO2 $
94908KDBQ DBQ20090214225012002/14/09 22:50:31  5-MIN KDBQ 150450Z AUTO 33007KT 10SM CLR M07/M11 A3025 770 71 -1600 330/07 RMK AO2 SLP262 T10671111 $
94908KDBQ DBQ20090214225510302/14/09 22:55:31  5-MIN KDBQ 150455Z AUTO 33007KT 10SM CLR M07/M12 A3025 770 71 -1700 330/07 RMK AO2 $
94908KDBQ DBQ20090214230010302/14/09 23:00:31  5-MIN KDBQ 150500Z AUTO 33007KT 10SM CLR M07/M12 A3026 770 71 -1700 330/07 RMK AO2 $
94908KDBQ DBQ20090214230510302/14/09 23:05:31  5-MIN KDBQ 150505Z AUTO 33008KT 10SM CLR M07/M12 A3026 770 71 -1700 330/08 RMK AO2 $
94908KDBQ DBQ20090214231010302/14/09 23:10:31  5-MIN KDBQ 150510Z AUTO 33008KT 10SM CLR M07/M12 A3026 770 71 -1700 330/08 RMK AO2 $
94908KDBQ DBQ20090214231510302/14/09 23:15:31  5-MIN KDBQ 150515Z AUTO 33009KT 10SM CLR M07/M12 A3026 770 68 -1600 330/09 RMK AO2 $
94908KDBQ DBQ20090214232010302/14/09 23:20:31  5-MIN KDBQ 150520Z AUTO 33008KT 10SM CLR M07/M12 A3026 760 71 -1700 330/08 RMK AO2 $
94908KDBQ DBQ20090214232510302/14/09 23:25:31  5-MIN KDBQ 150525Z AUTO 34009KT 10SM CLR M07/M12 A3026 760 71 -1700 340/09 RMK AO2 $
94908KDBQ DBQ20090214233010302/14/09 23:30:31  5-MIN KDBQ 150530Z AUTO 34009KT 10SM CLR M07/M12 A3026 760 71 -1700 340/09 RMK AO2 $
94908KDBQ DBQ20090214233510302/14/09 23:35:31  5-MIN KDBQ 150535Z AUTO 34009KT 10SM CLR M07/M12 A3027 760 71 -1700 340/09 RMK AO2 $
94908KDBQ DBQ20090214234010302/14/09 23:40:31  5-MIN KDBQ 150540Z AUTO 34009KT 10SM CLR M07/M12 A3027 760 71 -1700 340/09 RMK AO2 $
94908KDBQ DBQ20090214234510302/14/09 23:45:31  5-MIN KDBQ 150545Z AUTO 35009KT 10SM CLR M07/M12 A3027 760 71 -1700 340/09 RMK AO2 $
94908KDBQ DBQ20090214235015402/14/09 23:50:31  5-MIN KDBQ 150550Z AUTO 34009KT 10SM CLR M07/M12 A3027 760 71 -1700 340/09 RMK AO2 SLP266 60002 T10721117 11044 21072 410171072 51010 $
94908KDBQ DBQ20090214235510302/14/09 23:55:31  5-MIN KDBQ 150555Z AUTO 34008KT 10SM CLR M08/M12 A3027 760 74 -1800 340/08 RMK AO2 $
94908KDBQ DBQ20090215000010302/15/09 00:00:38  5-MIN KDBQ 150600Z AUTO 34009KT 10SM CLR M08/M12 A3027 760 74 -1800 340/09 RMK AO2 $
94908KDBQ DBQ20090215193009802/15/09 19:30:31  5-MIN KDBQ 160130Z 32004KT 10SM CLR M09/M14 A3038 660 67 -2100 320/04 RMK AO2 $
94908KDBQ DBQ20090215193509802/15/09 19:35:31  5-MIN KDBQ 160135Z 00000KT 10SM CLR M10/M14 A3038 660 70 -2200 000/00 RMK AO2 $
94908KDBQ DBQ20090215194009802/15/09 19:40:31  5-MIN KDBQ 160140Z 00000KT 10SM CLR M10/M14 A3038 660 70 -2200 000/00 RMK AO2 $
94908KDBQ DBQ20090215194509802/15/09 19:45:31  5-MIN KDBQ 160145Z 32003KT 10SM CLR M10/M14 A3038 660 70 -2200 320/03 RMK AO2 $
94908KDBQ DBQ20090215195011502/15/09 19:50:31  5-MIN KDBQ 160150Z 32004KT 10SM CLR M09/M14 A3038 660 67 -2100 320/04 RMK AO2 SLP309 T10941144 $
94908KDBQ DBQ20090215195509802/15/09 19:55:31  5-MIN KDBQ 160155Z 32004KT 10SM CLR M09/M14 A3038 660 67 -2100 320/04 RMK AO2 $
94908KDBQ DBQ20090215200010302/15/09 20:00:31  5-MIN KDBQ 160200Z AUTO 32005KT 10SM CLR M10/M14 A3038 650 70 -2200 320/05 RMK AO2 $
94908KDBQ DBQ20090215200510302/15/09 20:05:31  5-MIN KDBQ 160205Z AUTO 32004KT 10SM CLR M10/M14 A3038 650 70 -2200 320/04 RMK AO2 $
94908KDBQ DBQ20090215201010302/15/09 20:10:31  5-MIN KDBQ 160210Z AUTO 31003KT 10SM CLR M10/M14 A3038 650 70 -2200 310/03 RMK AO2 $
94908KDBQ DBQ20090215201510302/15/09 20:15:31  5-MIN KDBQ 160215Z AUTO 00000KT 10SM CLR M10/M14 A3038 650 70 -2200 000/00 RMK AO2 $
94908KDBQ DBQ20090215202010302/15/09 20:20:31  5-MIN KDBQ 160220Z AUTO 00000KT 10SM CLR M11/M14 A3038 650 73 -2300 000/00 RMK AO2 $
94908KDBQ DBQ20090215202510302/15/09 20:25:31  5-MIN KDBQ 160225Z AUTO 00000KT 10SM CLR M11/M15 A3039 650 70 -2300 000/00 RMK AO2 $
94908KDBQ DBQ20090215203010302/15/09 20:30:31  5-MIN KDBQ 160230Z AUTO 00000KT 10SM CLR M11/M14 A3039 650 73 -2300 000/00 RMK AO2 $
94908KDBQ DBQ20090215203510302/15/09 20:35:31  5-MIN KDBQ 160235Z AUTO 30003KT 10SM CLR M11/M15 A3039 650 70 -2300 300/03 RMK AO2 $
94908KDBQ DBQ20090215204010302/15/09 20:40:31  5-MIN KDBQ 160240Z AUTO 31003KT 10SM CLR M11/M15 A3039 650 70 -2300 310/03 RMK AO2 $
94908KDBQ DBQ20090215204510302/15/09 20:45:31  5-MIN KDBQ 160245Z AUTO 00000KT 10SM CLR M11/M15 A3038 650 70 -2300 000/00 RMK AO2 $
94908KDBQ DBQ20090215205012602/15/09 20:50:31  5-MIN KDBQ 160250Z AUTO 00000KT 10SM CLR M11/M15 A3038 650 70 -2300 000/00 RMK AO2 SLP312 T11061150 53004 $
94908KDBQ DBQ20090215205510302/15/09 20:55:31  5-MIN KDBQ 160255Z AUTO 00000KT 10SM CLR M11/M15 A3038 650 70 -2300 000/00 RMK AO2 $
94908KDBQ DBQ20090215210010302/15/09 21:00:31  5-MIN KDBQ 160300Z AUTO 00000KT 10SM CLR M11/M15 A3039 650 70 -2300 000/00 RMK AO2 $
94908KDBQ DBQ20090215210510302/15/09 21:05:31  5-MIN KDBQ 160305Z AUTO 00000KT 10SM CLR M12/M15 A3039 650 76 -2400 000/00 RMK AO2 $
94908KDBQ DBQ20090215211010302/15/09 21:10:31  5-MIN KDBQ 160310Z AUTO 00000KT 10SM CLR M11/M15 A3039 650 70 -2300 000/00 RMK AO2 $
94908KDBQ DBQ20090215211510302/15/09 21:15:31  5-MIN KDBQ 160315Z AUTO 00000KT 10SM CLR M11/M15 A3039 650 70 -2300 000/00 RMK AO2 $
94908KDBQ DBQ20090215212010302/15/09 21:20:31  5-MIN KDBQ 160320Z AUTO 00000KT 10SM CLR M09/M14 A3039 650 67 -2100 000/00 RMK AO2 $
94908KDBQ DBQ20090215212510302/15/09 21:25:31  5-MIN KDBQ 160325Z AUTO 00000KT 10SM CLR M10/M15 A3038 650 67 -2200 000/00 RMK AO2 $
94908KDBQ DBQ20090215213010302/15/09 21:30:31  5-MIN KDBQ 160330Z AUTO 00000KT 10SM CLR M10/M15 A3038 650 67 -2200 000/00 RMK AO2 $
94908KDBQ DBQ20090215213510302/15/09 21:35:31  5-MIN KDBQ 160335Z AUTO 00000KT 10SM CLR M11/M15 A3038 650 73 -2400 000/00 RMK AO2 $
94908KDBQ DBQ20090215214010302/15/09 21:40:31  5-MIN KDBQ 160340Z AUTO 00000KT 10SM CLR M12/M16 A3038 650 73 -2400 000/00 RMK AO2 $
94908KDBQ DBQ20090215214510302/15/09 21:45:31  5-MIN KDBQ 160345Z AUTO 00000KT 10SM CLR M12/M16 A3038 650 76 -2500 000/00 RMK AO2 $
94908KDBQ DBQ20090215215012002/15/09 21:50:31  5-MIN KDBQ 160350Z AUTO 00000KT 10SM CLR M12/M16 A3038 660 73 -2400 000/00 RMK AO2 SLP310 T11171156 $
94908KDBQ DBQ20090215215510302/15/09 21:55:31  5-MIN KDBQ 160355Z AUTO 00000KT 10SM CLR M11/M16 A3038 650 70 -2400 000/00 RMK AO2 $
94908KDBQ DBQ20090215220010302/15/09 22:00:31  5-MIN KDBQ 160400Z AUTO 00000KT 10SM CLR M10/M15 A3038 660 67 -2200 000/00 RMK AO2 $
94908KDBQ DBQ20090215220510302/15/09 22:05:31  5-MIN KDBQ 160405Z AUTO 00000KT 10SM CLR M11/M15 A3038 650 70 -2300 000/00 RMK AO2 $
94908KDBQ DBQ20090215221010302/15/09 22:10:31  5-MIN KDBQ 160410Z AUTO 00000KT 10SM CLR M12/M16 A3038 650 73 -2400 000/00 RMK AO2 $
94908KDBQ DBQ20090215221510302/15/09 22:15:31  5-MIN KDBQ 160415Z AUTO 00000KT 10SM CLR M12/M16 A3038 650 73 -2400 000/00 RMK AO2 $
94908KDBQ DBQ20090215222010302/15/09 22:20:31  5-MIN KDBQ 160420Z AUTO 00000KT 10SM CLR M12/M16 A3039 650 76 -2500 000/00 RMK AO2 $
94908KDBQ DBQ20090215222510302/15/09 22:25:31  5-MIN KDBQ 160425Z AUTO 00000KT 10SM CLR M13/M16 A3038 650 80 -2600 000/00 RMK AO2 $
94908KDBQ DBQ20090215223010302/15/09 22:30:31  5-MIN KDBQ 160430Z AUTO 00000KT 10SM CLR M12/M16 A3039 650 76 -2500 000/00 RMK AO2 $
94908KDBQ DBQ20090215223510302/15/09 22:35:31  5-MIN KDBQ 160435Z AUTO 00000KT 10SM CLR M12/M16 A3039 650 73 -2400 000/00 RMK AO2 $
94908KDBQ DBQ20090215224010302/15/09 22:40:31  5-MIN KDBQ 160440Z AUTO 00000KT 10SM CLR M12/M16 A3039 640 73 -2500 000/00 RMK AO2 $
94908KDBQ DBQ20090215224510302/15/09 22:45:31  5-MIN KDBQ 160445Z AUTO 00000KT 10SM CLR M12/M16 A3039 650 73 -2400 000/00 RMK AO2 $
94908KDBQ DBQ20090215225012002/15/09 22:50:31  5-MIN KDBQ 160450Z AUTO 00000KT 10SM CLR M12/M16 A3039 650 73 -2400 000/00 RMK AO2 SLP312 T11171156 $
94908KDBQ DBQ20090215225510302/15/09 22:55:31  5-MIN KDBQ 160455Z AUTO 00000KT 10SM CLR M12/M15 A3039 650 76 -2400 000/00 RMK AO2 $
94908KDBQ DBQ20090215230010302/15/09 23:00:31  5-MIN KDBQ 160500Z AUTO 00000KT 10SM CLR M12/M15 A3039 650 76 -2400 000/00 RMK AO2 $
94908KDBQ DBQ20090215230510302/15/09 23:05:31  5-MIN KDBQ 160505Z AUTO 00000KT 10SM CLR M13/M16 A3039 650 80 -2700 000/00 RMK AO2 $
94908KDBQ DBQ20090215231010302/15/09 23:10:31  5-MIN KDBQ 160510Z AUTO 00000KT 10SM CLR M13/M16 A3039 650 80 -2700 000/00 RMK AO2 $
94908KDBQ DBQ20090215231510302/15/09 23:15:31  5-MIN KDBQ 160515Z AUTO 00000KT 10SM CLR M13/M16 A3039 650 80 -2700 000/00 RMK AO2 $
94908KDBQ DBQ20090215232010302/15/09 23:20:31  5-MIN KDBQ 160520Z AUTO 00000KT 10SM CLR M13/M16 A3039 650 80 -2700 000/00 RMK AO2 $
94908KDBQ DBQ20090215232510302/15/09 23:25:31  5-MIN KDBQ 160525Z AUTO 00000KT 10SM CLR M12/M16 A3039 650 73 -2500 000/00 RMK AO2 $
94908KDBQ DBQ20090215233010302/15/09 23:30:31  5-MIN KDBQ 160530Z AUTO 00000KT 10SM CLR M12/M16 A3039 650 76 -2500 000/00 RMK AO2 $
94908KDBQ DBQ20090215233510302/15/09 23:35:31  5-MIN KDBQ 160535Z AUTO 00000KT 10SM CLR M12/M16 A3039 650 76 -2500 000/00 RMK AO2 $
94908KDBQ DBQ20090215234010302/15/09 23:40:31  5-MIN KDBQ 160540Z AUTO 00000KT 10SM CLR M13/M16 A3039 640 76 -2600 000/00 RMK AO2 $
94908KDBQ DBQ20090215234510302/15/09 23:45:31  5-MIN KDBQ 160545Z AUTO 00000KT 10SM CLR M13/M16 A3039 640 80 -2700 000/00 RMK AO2 $
94908KDBQ DBQ20090215235014802/15/09 23:50:31  5-MIN KDBQ 160550Z AUTO 00000KT 10SM CLR M13/M16 A3039 650 76 -2600 000/00 RMK AO2 SLP312 T11281161 11061 21133 410391133 51010 $
94908KDBQ DBQ20090215235510302/15/09 23:55:31  5-MIN KDBQ 160555Z AUTO 00000KT 10SM CLR M12/M16 A3039 650 76 -2500 000/00 RMK AO2 $
94908KDBQ DBQ20090216000010302/16/09 00:00:38  5-MIN KDBQ 160600Z AUTO 00000KT 10SM CLR M12/M16 A3039 650 73 -2400 000/00 RMK AO2 $
94908KDBQ DBQ20090216000510302/16/09 00:05:31  5-MIN KDBQ 160605Z AUTO 00000KT 10SM CLR M13/M16 A3039 650 80 -2600 000/00 RMK AO2 $
94908KDBQ DBQ20090216001010302/16/09 00:10:31  5-MIN KDBQ 160610Z AUTO 00000KT 10SM CLR M13/M16 A3039 650 80 -2700 000/00 RMK AO2 $
94908KDBQ DBQ20090216001510302/16/09 00:15:31  5-MIN KDBQ 160615Z AUTO 00000KT 10SM CLR M13/M16 A3039 650 76 -2600 000/00 RMK AO2 $
94908KDBQ DBQ20090216002010302/16/09 00:20:31  5-MIN KDBQ 160620Z AUTO 00000KT 10SM CLR M12/M16 A3039 650 73 -2500 000/00 RMK AO2 $
94908KDBQ DBQ20090216002510302/16/09 00:25:31  5-MIN KDBQ 160625Z AUTO 00000KT 10SM CLR M13/M16 A3039 650 76 -2600 000/00 RMK AO2 $
94908KDBQ DBQ20090216003010702/16/09 00:30:31  5-MIN KDBQ 160630Z AUTO 00000KT 10SM CLR M14/M17 A3039 650 83 -2800 000/00 RMK AO2 PNO $
94908KDBQ DBQ20090216003510302/16/09 00:35:31  5-MIN KDBQ 160635Z AUTO 00000KT 10SM CLR M13/M16 A3039 650 76 -2600 000/00 RMK AO2 $
94908KDBQ DBQ20090216004010302/16/09 00:40:31  5-MIN KDBQ 160640Z AUTO 00000KT 10SM CLR M13/M16 A3039 650 80 -2700 000/00 RMK AO2 $
94908KDBQ DBQ20090216004510302/16/09 00:45:31  5-MIN KDBQ 160645Z AUTO 00000KT 10SM CLR M13/M16 A3039 640 80 -2700 000/00 RMK AO2 $
94908KDBQ DBQ20090216005012002/16/09 00:50:31  5-MIN KDBQ 160650Z AUTO 00000KT 10SM CLR M13/M16 A3039 640 80 -2700 000/00 RMK AO2 SLP314 T11331161 $
94908KDBQ DBQ20090216005510302/16/09 00:55:31  5-MIN KDBQ 160655Z AUTO 00000KT 10SM CLR M13/M16 A3039 640 76 -2600 000/00 RMK AO2 $
94908KDBQ DBQ20090216010010302/16/09 01:00:31  5-MIN KDBQ 160700Z AUTO 00000KT 10SM CLR M13/M16 A3039 640 80 -2700 000/00 RMK AO2 $
94908KDBQ DBQ20090216010510302/16/09 01:05:31  5-MIN KDBQ 160705Z AUTO 00000KT 10SM CLR M13/M16 A3039 650 80 -2700 000/00 RMK AO2 $
94908KDBQ DBQ20090216011010302/16/09 01:10:31  5-MIN KDBQ 160710Z AUTO 00000KT 10SM CLR M13/M16 A3039 650 83 -2700 000/00 RMK AO2 $
94908KDBQ DBQ20090216011510302/16/09 01:15:31  5-MIN KDBQ 160715Z AUTO 00000KT 10SM CLR M13/M16 A3039 650 80 -2600 000/00 RMK AO2 $
94908KDBQ DBQ20090216012010302/16/09 01:20:31  5-MIN KDBQ 160720Z AUTO 00000KT 10SM CLR M14/M17 A3039 650 80 -2700 000/00 RMK AO2 $
94908KDBQ DBQ20090216012510302/16/09 01:25:31  5-MIN KDBQ 160725Z AUTO 00000KT 10SM CLR M13/M17 A3039 650 76 -2700 000/00 RMK AO2 $
94908KDBQ DBQ20090216013010302/16/09 01:30:31  5-MIN KDBQ 160730Z AUTO 00000KT 10SM CLR M14/M17 A3039 650 80 -2700 000/00 RMK AO2 $
94908KDBQ DBQ20090216013510302/16/09 01:35:31  5-MIN KDBQ 160735Z AUTO 00000KT 10SM CLR M13/M17 A3039 650 76 -2700 000/00 RMK AO2 $
94908KDBQ DBQ20090216014010302/16/09 01:40:31  5-MIN KDBQ 160740Z AUTO 00000KT 10SM CLR M13/M17 A3039 640 76 -2700 000/00 RMK AO2 $
94908KDBQ DBQ20090216014510702/16/09 01:45:31  5-MIN KDBQ 160745Z AUTO 00000KT 10SM CLR M14/M17 A3039 640 80 -2700 000/00 RMK AO2 PNO $
94908KDBQ DBQ20090216015012002/16/09 01:50:31  5-MIN KDBQ 160750Z AUTO 00000KT 10SM CLR M13/M16 A3039 640 80 -2700 000/00 RMK AO2 SLP314 T11331161 $
94908KDBQ DBQ20090216015510302/16/09 01:55:31  5-MIN KDBQ 160755Z AUTO 00000KT 10SM CLR M13/M16 A3039 640 80 -2700 000/00 RMK AO2 $
94908KDBQ DBQ20090216020010302/16/09 02:00:31  5-MIN KDBQ 160800Z AUTO 00000KT 10SM CLR M13/M17 A3039 640 76 -2700 000/00 RMK AO2 $
94908KDBQ DBQ20090216020510302/16/09 02:05:31  5-MIN KDBQ 160805Z AUTO 00000KT 10SM CLR M13/M16 A3039 640 80 -2700 000/00 RMK AO2 $
94908KDBQ DBQ20090216021010302/16/09 02:10:31  5-MIN KDBQ 160810Z AUTO 00000KT 10SM CLR M14/M16 A3039 650 83 -2700 000/00 RMK AO2 $
94908KDBQ DBQ20090216021510302/16/09 02:15:31  5-MIN KDBQ 160815Z AUTO 00000KT 10SM CLR M13/M16 A3039 650 80 -2700 000/00 RMK AO2 $
94908KDBQ DBQ20090216022010302/16/09 02:20:31  5-MIN KDBQ 160820Z AUTO 00000KT 10SM CLR M13/M16 A3039 650 76 -2600 000/00 RMK AO2 $
94908KDBQ DBQ20090216022510302/16/09 02:25:31  5-MIN KDBQ 160825Z AUTO 00000KT 10SM CLR M14/M16 A3039 650 83 -2700 000/00 RMK AO2 $
94908KDBQ DBQ20090216023010302/16/09 02:30:31  5-MIN KDBQ 160830Z AUTO 00000KT 10SM CLR M13/M16 A3039 640 80 -2700 000/00 RMK AO2 $
94908KDBQ DBQ20090216023510302/16/09 02:35:31  5-MIN KDBQ 160835Z AUTO 00000KT 10SM CLR M14/M17 A3039 650 80 -2700 000/00 RMK AO2 $
94908KDBQ DBQ20090216024010302/16/09 02:40:31  5-MIN KDBQ 160840Z AUTO 00000KT 10SM CLR M14/M17 A3038 650 80 -2800 000/00 RMK AO2 $
94908KDBQ DBQ20090216024510302/16/09 02:45:31  5-MIN KDBQ 160845Z AUTO 00000KT 10SM CLR M14/M17 A3038 650 83 -2800 000/00 RMK AO2 $
94908KDBQ DBQ20090216025013202/16/09 02:50:31  5-MIN KDBQ 160850Z AUTO 00000KT 10SM CLR M13/M17 A3038 650 76 -2700 000/00 RMK AO2 SLP310 6//// T11331167 52001 $
94908KDBQ DBQ20090216025510302/16/09 02:55:31  5-MIN KDBQ 160855Z AUTO 00000KT 10SM CLR M15/M17 A3038 650 87 -2900 000/00 RMK AO2 $
94908KDBQ DBQ20090216030010302/16/09 03:00:31  5-MIN KDBQ 160900Z AUTO 00000KT 10SM CLR M14/M17 A3038 650 80 -2800 000/00 RMK AO2 $
94908KDBQ DBQ20090216030510702/16/09 03:05:31  5-MIN KDBQ 160905Z AUTO 00000KT 10SM CLR M14/M17 A3038 650 80 -2800 000/00 RMK AO2 PNO $
94908KDBQ DBQ20090216031010302/16/09 03:10:31  5-MIN KDBQ 160910Z AUTO 00000KT 10SM CLR M14/M17 A3038 650 83 -2800 000/00 RMK AO2 $
94908KDBQ DBQ20090216031510302/16/09 03:15:31  5-MIN KDBQ 160915Z AUTO 00000KT 10SM CLR M14/M17 A3039 650 80 -2700 000/00 RMK AO2 $
94908KDBQ DBQ20090216032010302/16/09 03:20:31  5-MIN KDBQ 160920Z AUTO 00000KT 10SM CLR M14/M17 A3038 650 80 -2700 000/00 RMK AO2 $
94908KDBQ DBQ20090216032510302/16/09 03:25:31  5-MIN KDBQ 160925Z AUTO 00000KT 10SM CLR M14/M17 A3039 650 80 -2700 000/00 RMK AO2 $
94908KDBQ DBQ20090216033010302/16/09 03:30:31  5-MIN KDBQ 160930Z AUTO 00000KT 10SM CLR M15/M17 A3038 650 83 -2900 000/00 RMK AO2 $
94908KDBQ DBQ20090216033510302/16/09 03:35:31  5-MIN KDBQ 160935Z AUTO 00000KT 10SM CLR M14/M17 A3038 650 80 -2800 000/00 RMK AO2 $
94908KDBQ DBQ20090216034010302/16/09 03:40:31  5-MIN KDBQ 160940Z AUTO 00000KT 10SM CLR M14/M17 A3039 650 83 -2800 000/00 RMK AO2 $
94908KDBQ DBQ20090216034510302/16/09 03:45:31  5-MIN KDBQ 160945Z AUTO 00000KT 10SM CLR M14/M16 A3038 650 83 -2700 000/00 RMK AO2 $
94908KDBQ DBQ20090216035012002/16/09 03:50:31  5-MIN KDBQ 160950Z AUTO 00000KT 10SM CLR M13/M16 A3038 650 80 -2700 000/00 RMK AO2 SLP310 T11331161 $
94908KDBQ DBQ20090216035510302/16/09 03:55:31  5-MIN KDBQ 160955Z AUTO 00000KT 10SM CLR M13/M16 A3038 650 80 -2700 000/00 RMK AO2 $
94908KDBQ DBQ20090216040010302/16/09 04:00:31  5-MIN KDBQ 161000Z AUTO 00000KT 10SM CLR M13/M16 A3038 650 80 -2700 000/00 RMK AO2 $
94908KDBQ DBQ20090216040510302/16/09 04:05:31  5-MIN KDBQ 161005Z AUTO 00000KT 10SM CLR M13/M16 A3038 650 80 -2700 000/00 RMK AO2 $
94908KDBQ DBQ20090216041010302/16/09 04:10:31  5-MIN KDBQ 161010Z AUTO 00000KT 10SM CLR M14/M16 A3038 650 83 -2700 000/00 RMK AO2 $
94908KDBQ DBQ20090216041510302/16/09 04:15:31  5-MIN KDBQ 161015Z AUTO 00000KT 10SM CLR M14/M17 A3039 650 83 -2800 000/00 RMK AO2 $
94908KDBQ DBQ20090216042010302/16/09 04:20:31  5-MIN KDBQ 161020Z AUTO 00000KT 10SM CLR M14/M17 A3038 650 80 -2800 000/00 RMK AO2 $
94908KDBQ DBQ20090216042510302/16/09 04:25:31  5-MIN KDBQ 161025Z AUTO 00000KT 10SM CLR M14/M17 A3038 650 80 -2800 000/00 RMK AO2 $
94908KDBQ DBQ20090216043010302/16/09 04:30:31  5-MIN KDBQ 161030Z AUTO 00000KT 10SM CLR M14/M17 A3038 650 80 -2800 000/00 RMK AO2 $
94908KDBQ DBQ20090216043510302/16/09 04:35:31  5-MIN KDBQ 161035Z AUTO 00000KT 10SM CLR M14/M17 A3038 650 76 -2700 000/00 RMK AO2 $
94908KDBQ DBQ20090216044010302/16/09 04:40:31  5-MIN KDBQ 161040Z AUTO 00000KT 10SM CLR M14/M17 A3038 650 80 -2700 000/00 RMK AO2 $
94908KDBQ DBQ20090216044510302/16/09 04:45:31  5-MIN KDBQ 161045Z AUTO 00000KT 10SM CLR M14/M17 A3039 650 83 -2800 000/00 RMK AO2 $
94908KDBQ DBQ20090216045012002/16/09 04:50:31  5-MIN KDBQ 161050Z AUTO 00000KT 10SM CLR M14/M17 A3039 650 80 -2800 000/00 RMK AO2 SLP312 T11441172 $
94908KDBQ DBQ20090216045510302/16/09 04:55:31  5-MIN KDBQ 161055Z AUTO 00000KT 10SM CLR M14/M17 A3038 650 80 -2800 000/00 RMK AO2 $
94908KDBQ DBQ20090216050010302/16/09 05:00:31  5-MIN KDBQ 161100Z AUTO 00000KT 10SM CLR M14/M17 A3038 650 80 -2700 000/00 RMK AO2 $
94908KDBQ DBQ20090216050510302/16/09 05:05:31  5-MIN KDBQ 161105Z AUTO 00000KT 10SM CLR M13/M17 A3038 660 76 -2700 000/00 RMK AO2 $
94908KDBQ DBQ20090216051010302/16/09 05:10:31  5-MIN KDBQ 161110Z AUTO 00000KT 10SM CLR M14/M17 A3038 660 80 -2700 000/00 RMK AO2 $
94908KDBQ DBQ20090216051510302/16/09 05:15:31  5-MIN KDBQ 161115Z AUTO 00000KT 10SM CLR M14/M17 A3038 650 83 -2800 000/00 RMK AO2 $
94908KDBQ DBQ20090216052010302/16/09 05:20:31  5-MIN KDBQ 161120Z AUTO 00000KT 10SM CLR M14/M17 A3038 650 80 -2800 000/00 RMK AO2 $
94908KDBQ DBQ20090216052510302/16/09 05:25:31  5-MIN KDBQ 161125Z AUTO 00000KT 10SM CLR M14/M18 A3038 660 76 -2800 000/00 RMK AO2 $
94908KDBQ DBQ20090216053010302/16/09 05:30:31  5-MIN KDBQ 161130Z AUTO 00000KT 10SM CLR M14/M17 A3038 660 80 -2700 000/00 RMK AO2 $
94908KDBQ DBQ20090216053510302/16/09 05:35:31  5-MIN KDBQ 161135Z AUTO 00000KT 10SM CLR M14/M17 A3038 650 80 -2700 000/00 RMK AO2 $
94908KDBQ DBQ20090216054010302/16/09 05:40:31  5-MIN KDBQ 161140Z AUTO 00000KT 10SM CLR M14/M16 A3038 650 83 -2700 000/00 RMK AO2 $
94908KDBQ DBQ20090216054509802/16/09 05:45:31  5-MIN KDBQ 161145Z 00000KT 10SM CLR M14/M17 A3038 650 80 -2700 000/00 RMK AO2 $
94908KDBQ DBQ20090216055014502/16/09 05:50:31  5-MIN KDBQ 161150Z 00000KT 10SM CLR M14/M17 A3038 650 83 -2800 000/00 RMK AO2 SLP311 6//// 7//// T11441167 11117 21150 58001 $
94908KDBQ DBQ20090216055509802/16/09 05:55:31  5-MIN KDBQ 161155Z 00000KT 10SM CLR M14/M17 A3039 650 80 -2700 000/00 RMK AO2 $
94908KDBQ DBQ20090216060009802/16/09 06:00:31  5-MIN KDBQ 161200Z 00000KT 10SM CLR M14/M17 A3038 650 83 -2800 000/00 RMK AO2 $
94908KDBQ DBQ20090216060509802/16/09 06:05:31  5-MIN KDBQ 161205Z 00000KT 10SM CLR M14/M17 A3038 660 80 -2700 000/00 RMK AO2 $
94908KDBQ DBQ20090216061009802/16/09 06:10:31  5-MIN KDBQ 161210Z 00000KT 10SM CLR M14/M17 A3038 660 80 -2700 000/00 RMK AO2 $
94908KDBQ DBQ20090216061509802/16/09 06:15:31  5-MIN KDBQ 161215Z 00000KT 10SM CLR M14/M17 A3038 660 80 -2700 000/00 RMK AO2 $
94908KDBQ DBQ20090216062009802/16/09 06:20:31  5-MIN KDBQ 161220Z 00000KT 10SM CLR M15/M17 A3038 660 83 -2900 000/00 RMK AO2 $
94908KDBQ DBQ20090216062509802/16/09 06:25:31  5-MIN KDBQ 161225Z 00000KT 10SM CLR M14/M17 A3037 660 80 -2800 000/00 RMK AO2 $
94908KDBQ DBQ20090216063009802/16/09 06:30:31  5-MIN KDBQ 161230Z 00000KT 10SM CLR M14/M17 A3037 670 80 -2700 000/00 RMK AO2 $
94908KDBQ DBQ20090216063509802/16/09 06:35:31  5-MIN KDBQ 161235Z 00000KT 10SM CLR M13/M16 A3037 670 76 -2600 000/00 RMK AO2 $
94908KDBQ DBQ20090216064009802/16/09 06:40:31  5-MIN KDBQ 161240Z 00000KT 10SM CLR M15/M17 A3037 670 87 -2900 000/00 RMK AO2 $
94908KDBQ DBQ20090216064509802/16/09 06:45:31  5-MIN KDBQ 161245Z 00000KT 10SM CLR M15/M18 A3037 670 80 -2900 000/00 RMK AO2 $
94908KDBQ DBQ20090216065011502/16/09 06:50:31  5-MIN KDBQ 161250Z 00000KT 10SM CLR M15/M17 A3037 670 83 -2900 000/00 RMK AO2 SLP306 T11501172 $
94908KDBQ DBQ20090216065509802/16/09 06:55:31  5-MIN KDBQ 161255Z 00000KT 10SM CLR M14/M17 A3037 670 80 -2800 000/00 RMK AO2 $
94908KDBQ DBQ20090216070009802/16/09 07:00:31  5-MIN KDBQ 161300Z 00000KT 10SM CLR M14/M17 A3037 670 80 -2800 000/00 RMK AO2 $
94908KDBQ DBQ20090216070509802/16/09 07:05:31  5-MIN KDBQ 161305Z 00000KT 10SM CLR M14/M17 A3037 660 83 -2800 000/00 RMK AO2 $
94908KDBQ DBQ20090216071009802/16/09 07:10:31  5-MIN KDBQ 161310Z 00000KT 10SM CLR M14/M17 A3037 660 80 -2700 000/00 RMK AO2 $
94908KDBQ DBQ20090216071509802/16/09 07:15:31  5-MIN KDBQ 161315Z 00000KT 10SM CLR M14/M17 A3038 660 80 -2700 000/00 RMK AO2 $
94908KDBQ DBQ20090216072009802/16/09 07:20:31  5-MIN KDBQ 161320Z 00000KT 10SM CLR M14/M17 A3038 660 80 -2700 000/00 RMK AO2 $
94908KDBQ DBQ20090216072509802/16/09 07:25:31  5-MIN KDBQ 161325Z 00000KT 10SM CLR M14/M17 A3038 660 80 -2700 000/00 RMK AO2 $
94908KDBQ DBQ20090216073009802/16/09 07:30:31  5-MIN KDBQ 161330Z 00000KT 10SM CLR M13/M16 A3038 650 80 -2700 000/00 RMK AO2 $
94908KDBQ DBQ20090216073509802/16/09 07:35:31  5-MIN KDBQ 161335Z 00000KT 10SM CLR M13/M16 A3038 650 80 -2700 000/00 RMK AO2 $
94908KDBQ DBQ20090216074010202/16/09 07:40:31  5-MIN KDBQ 161340Z 00000KT 10SM CLR M13/M16 A3038 650 80 -2700 000/00 RMK AO2 PNO $
94908KDBQ DBQ20090216074509802/16/09 07:45:31  5-MIN KDBQ 161345Z 23004KT 10SM CLR M13/M16 A3039 650 83 -2700 230/04 RMK AO2 $
94908KDBQ DBQ20090216075011502/16/09 07:50:31  5-MIN KDBQ 161350Z 23005KT 10SM CLR M13/M16 A3040 640 83 -2700 230/05 RMK AO2 SLP317 T11331156 $
94908KDBQ DBQ20090216075509802/16/09 07:55:31  5-MIN KDBQ 161355Z 21004KT 10SM CLR M13/M16 A3039 640 83 -2700 210/04 RMK AO2 $
94908KDBQ DBQ20090216080009802/16/09 08:00:31  5-MIN KDBQ 161400Z 00000KT 10SM CLR M13/M15 A3039 650 87 -2700 000/00 RMK AO2 $
94908KDBQ DBQ20090216080509802/16/09 08:05:31  5-MIN KDBQ 161405Z 00000KT 10SM CLR M12/M14 A3039 650 84 -2500 000/00 RMK AO2 $
94908KDBQ DBQ20090216081009802/16/09 08:10:31  5-MIN KDBQ 161410Z 00000KT 10SM CLR M12/M14 A3039 650 84 -2400 000/00 RMK AO2 $
94908KDBQ DBQ20090216081509802/16/09 08:15:31  5-MIN KDBQ 161415Z 00000KT 10SM CLR M11/M13 A3039 640 80 -2300 000/00 RMK AO2 $
94908KDBQ DBQ20090216082009802/16/09 08:20:31  5-MIN KDBQ 161420Z 00000KT 10SM CLR M10/M13 A3039 640 80 -2200 000/00 RMK AO2 $
94908KDBQ DBQ20090216082509802/16/09 08:25:31  5-MIN KDBQ 161425Z 19003KT 10SM CLR M09/M12 A3039 650 80 -2200 190/03 RMK AO2 $
94908KDBQ DBQ20090216083009802/16/09 08:30:31  5-MIN KDBQ 161430Z 19003KT 10SM CLR M09/M12 A3039 650 84 -2200 190/03 RMK AO2 $
94908KDBQ DBQ20090216083510402/16/09 08:35:31  5-MIN KDBQ 161435Z 19005KT 10SM CLR M09/M12 A3039 650 80 -2100 190/05 RMK AO2 P0001 $
94908KDBQ DBQ20090216084010402/16/09 08:40:31  5-MIN KDBQ 161440Z 18005KT 10SM CLR M08/M12 A3039 650 74 -2000 180/05 RMK AO2 P0001 $
94908KDBQ DBQ20090216084510402/16/09 08:45:31  5-MIN KDBQ 161445Z 18005KT 10SM CLR M08/M12 A3039 650 74 -2000 180/05 RMK AO2 P0001 $
94908KDBQ DBQ20090216085013302/16/09 08:50:31  5-MIN KDBQ 161450Z 18006KT 10SM CLR M08/M12 A3039 650 74 -2000 180/06 RMK AO2 SLP313 P0001 60001 T10831122 51001 $
94908KDBQ DBQ20090216085509802/16/09 08:55:31  5-MIN KDBQ 161455Z 18005KT 10SM CLR M08/M12 A3039 650 71 -1900 180/05 RMK AO2 $
94908KDBQ DBQ20090216090009802/16/09 09:00:31  5-MIN KDBQ 161500Z 18005KT 10SM CLR M08/M12 A3039 650 74 -1900 180/05 RMK AO2 $
94908KDBQ DBQ20090216090509802/16/09 09:05:31  5-MIN KDBQ 161505Z 18006KT 10SM CLR M07/M12 A3039 650 71 -1900 180/06 RMK AO2 $
94908KDBQ DBQ20090216091009802/16/09 09:10:31  5-MIN KDBQ 161510Z 18006KT 10SM CLR M07/M12 A3039 650 71 -1900 180/06 RMK AO2 $
94908KDBQ DBQ20090216091509802/16/09 09:15:31  5-MIN KDBQ 161515Z 18006KT 10SM CLR M07/M12 A3039 650 71 -1900 180/06 RMK AO2 $
94908KDBQ DBQ20090216092009802/16/09 09:20:31  5-MIN KDBQ 161520Z 19006KT 10SM CLR M07/M12 A3039 640 68 -1800 180/06 RMK AO2 $
94908KDBQ DBQ20090216092509802/16/09 09:25:31  5-MIN KDBQ 161525Z 20008KT 10SM CLR M07/M12 A3040 640 68 -1800 200/08 RMK AO2 $
94908KDBQ DBQ20090216093009802/16/09 09:30:31  5-MIN KDBQ 161530Z 20009KT 10SM CLR M07/M12 A3040 640 68 -1800 200/09 RMK AO2 $
94908KDBQ DBQ20090216093509802/16/09 09:35:31  5-MIN KDBQ 161535Z 20010KT 10SM CLR M06/M11 A3040 640 68 -1700 200/10 RMK AO2 $
94908KDBQ DBQ20090216094009802/16/09 09:40:31  5-MIN KDBQ 161540Z 20009KT 10SM CLR M06/M12 A3040 630 65 -1700 200/09 RMK AO2 $
94908KDBQ DBQ20090216094509802/16/09 09:45:31  5-MIN KDBQ 161545Z 20009KT 10SM CLR M06/M11 A3040 630 68 -1700 200/09 RMK AO2 $
94908KDBQ DBQ20090216095011502/16/09 09:50:31  5-MIN KDBQ 161550Z 21011KT 10SM CLR M06/M12 A3040 630 65 -1700 200/11 RMK AO2 SLP318 T10611117 $
94908KDBQ DBQ20090216095509802/16/09 09:55:31  5-MIN KDBQ 161555Z 20012KT 10SM CLR M06/M12 A3041 630 62 -1700 200/12 RMK AO2 $
94908KDBQ DBQ20090216100009802/16/09 10:00:31  5-MIN KDBQ 161600Z 21010KT 10SM CLR M06/M12 A3041 630 62 -1700 210/10 RMK AO2 $
94908KDBQ DBQ20090216100509802/16/09 10:05:31  5-MIN KDBQ 161605Z 21009KT 10SM CLR M06/M11 A3041 630 65 -1700 210/09 RMK AO2 $
94908KDBQ DBQ20090216101009802/16/09 10:10:31  5-MIN KDBQ 161610Z 22010KT 10SM CLR M06/M11 A3041 630 65 -1700 220/10 RMK AO2 $
94908KDBQ DBQ20090216101509802/16/09 10:15:31  5-MIN KDBQ 161615Z 22010KT 10SM CLR M06/M12 A3041 630 62 -1700 220/10 RMK AO2 $
94908KDBQ DBQ20090216102009602/16/09 10:20:31  5-MIN KDBQ 161620Z 22009KT 10SM CLR M06/M12 A3041 630 62 -1700 220/09 RMK AO2
94908KDBQ DBQ20090216102509602/16/09 10:25:31  5-MIN KDBQ 161625Z 21010KT 10SM CLR M06/M12 A3040 630 62 -1700 210/10 RMK AO2
94908KDBQ DBQ20090216103009602/16/09 10:30:31  5-MIN KDBQ 161630Z 21009KT 10SM CLR M05/M12 A3040 630 60 -1600 210/09 RMK AO2
94908KDBQ DBQ20090216103509602/16/09 10:35:31  5-MIN KDBQ 161635Z 20009KT 10SM CLR M05/M11 A3040 640 62 -1600 200/09 RMK AO2
94908KDBQ DBQ20090216104009602/16/09 10:40:31  5-MIN KDBQ 161640Z 21009KT 10SM CLR M05/M11 A3040 640 62 -1600 200/09 RMK AO2
94908KDBQ DBQ20090216104509602/16/09 10:45:31  5-MIN KDBQ 161645Z 21008KT 10SM CLR M05/M12 A3040 640 60 -1600 210/08 RMK AO2
94908KDBQ DBQ20090216105011302/16/09 10:50:31  5-MIN KDBQ 161650Z 20009KT 10SM CLR M04/M11 A3040 640 60 -1500 200/09 RMK AO2 SLP315 T10441111
94908KDBQ DBQ20090216105509602/16/09 10:55:31  5-MIN KDBQ 161655Z 19009KT 10SM CLR M04/M12 A3040 640 57 -1500 190/09 RMK AO2
94908KDBQ DBQ20090216110009602/16/09 11:00:31  5-MIN KDBQ 161700Z 20009KT 10SM CLR M04/M12 A3040 640 57 -1500 200/09 RMK AO2
94908KDBQ DBQ20090216110509602/16/09 11:05:31  5-MIN KDBQ 161705Z 19009KT 10SM CLR M04/M11 A3040 640 60 -1500 190/09 RMK AO2
94908KDBQ DBQ20090216111009602/16/09 11:10:31  5-MIN KDBQ 161710Z 20009KT 10SM CLR M04/M11 A3040 640 60 -1500 200/09 RMK AO2
94908KDBQ DBQ20090216111509602/16/09 11:15:31  5-MIN KDBQ 161715Z 20009KT 10SM CLR M04/M11 A3039 640 57 -1400 200/09 RMK AO2
94908KDBQ DBQ20090216112009602/16/09 11:20:31  5-MIN KDBQ 161720Z 21009KT 10SM CLR M04/M11 A3039 640 60 -1400 210/09 RMK AO2
94908KDBQ DBQ20090216112509602/16/09 11:25:31  5-MIN KDBQ 161725Z 22010KT 10SM CLR M04/M11 A3039 650 57 -1400 220/10 RMK AO2
94908KDBQ DBQ20090216113009602/16/09 11:30:31  5-MIN KDBQ 161730Z 21009KT 10SM CLR M04/M12 A3039 650 55 -1400 210/09 RMK AO2
94908KDBQ DBQ20090216113509602/16/09 11:35:31  5-MIN KDBQ 161735Z 22009KT 10SM CLR M04/M11 A3039 650 57 -1400 220/09 RMK AO2
94908KDBQ DBQ20090216114009602/16/09 11:40:31  5-MIN KDBQ 161740Z 23009KT 10SM CLR M04/M11 A3039 650 57 -1400 230/09 RMK AO2
94908KDBQ DBQ20090216114509602/16/09 11:45:31  5-MIN KDBQ 161745Z 22008KT 10SM CLR M04/M12 A3038 650 55 -1400 220/08 RMK AO2
94908KDBQ DBQ20090216115013702/16/09 11:50:31  5-MIN KDBQ 161750Z 20010KT 10SM CLR M03/M11 A3038 660 55 -1300 200/10 RMK AO2 SLP308 60001 T10331111 11033 21156 53001
94908KDBQ DBQ20090216115509602/16/09 11:55:31  5-MIN KDBQ 161755Z 21009KT 10SM CLR M03/M11 A3038 660 57 -1300 210/09 RMK AO2
94908KDBQ DBQ20090216120009602/16/09 12:00:31  5-MIN KDBQ 161800Z 20010KT 10SM CLR M03/M11 A3038 660 57 -1300 200/10 RMK AO2
94908KDBQ DBQ20090216120509602/16/09 12:05:31  5-MIN KDBQ 161805Z 21010KT 10SM CLR M03/M11 A3038 660 57 -1300 210/10 RMK AO2
94908KDBQ DBQ20090216121009602/16/09 12:10:31  5-MIN KDBQ 161810Z 21009KT 10SM CLR M03/M11 A3037 660 55 -1300 210/09 RMK AO2
94908KDBQ DBQ20090216121509602/16/09 12:15:31  5-MIN KDBQ 161815Z 20008KT 10SM CLR M03/M11 A3037 670 57 -1300 200/08 RMK AO2
94908KDBQ DBQ20090216122009602/16/09 12:20:31  5-MIN KDBQ 161820Z 20009KT 10SM CLR M03/M11 A3037 670 55 -1300 200/09 RMK AO2
94908KDBQ DBQ20090216122509602/16/09 12:25:31  5-MIN KDBQ 161825Z 22009KT 10SM CLR M03/M11 A3036 670 53 -1300 220/09 RMK AO2
94908KDBQ DBQ20090216123009602/16/09 12:30:31  5-MIN KDBQ 161830Z 19008KT 10SM CLR M03/M11 A3036 670 55 -1300 190/08 RMK AO2
94908KDBQ DBQ20090216123509602/16/09 12:35:31  5-MIN KDBQ 161835Z 22009KT 10SM CLR M03/M11 A3036 670 53 -1300 220/09 RMK AO2
94908KDBQ DBQ20090216124009602/16/09 12:40:31  5-MIN KDBQ 161840Z 22009KT 10SM CLR M03/M11 A3036 670 55 -1300 220/09 RMK AO2
94908KDBQ DBQ20090216124509602/16/09 12:45:31  5-MIN KDBQ 161845Z 23010KT 10SM CLR M02/M11 A3036 680 51 -1200 230/10 RMK AO2
94908KDBQ DBQ20090216125011302/16/09 12:50:31  5-MIN KDBQ 161850Z 20011KT 10SM CLR M02/M11 A3035 680 53 -1200 200/11 RMK AO2 SLP300 T10221106
94908KDBQ DBQ20090216125509602/16/09 12:55:31  5-MIN KDBQ 161855Z 21010KT 10SM CLR M02/M11 A3035 680 53 -1200 210/10 RMK AO2
94908KDBQ DBQ20090216130009602/16/09 13:00:31  5-MIN KDBQ 161900Z 22011KT 10SM CLR M02/M11 A3035 680 53 -1200 220/11 RMK AO2
94908KDBQ DBQ20090216130509602/16/09 13:05:31  5-MIN KDBQ 161905Z 22010KT 10SM CLR M02/M11 A3035 680 53 -1200 220/10 RMK AO2
94908KDBQ DBQ20090216131009602/16/09 13:10:31  5-MIN KDBQ 161910Z 23010KT 10SM CLR M02/M11 A3035 680 53 -1200 230/10 RMK AO2
94908KDBQ DBQ20090216131509602/16/09 13:15:31  5-MIN KDBQ 161915Z 20012KT 10SM CLR M02/M11 A3034 690 53 -1200 200/12 RMK AO2
94908KDBQ DBQ20090216132009602/16/09 13:20:31  5-MIN KDBQ 161920Z 20010KT 10SM CLR M02/M10 A3034 690 55 -1200 200/10 RMK AO2
94908KDBQ DBQ20090216132509602/16/09 13:25:31  5-MIN KDBQ 161925Z 21010KT 10SM CLR M02/M10 A3033 700 55 -1200 200/10 RMK AO2
94908KDBQ DBQ20090216133009602/16/09 13:30:31  5-MIN KDBQ 161930Z 23009KT 10SM CLR M02/M11 A3033 700 53 -1200 230/09 RMK AO2
94908KDBQ DBQ20090216133509602/16/09 13:35:31  5-MIN KDBQ 161935Z 22010KT 10SM CLR M02/M10 A3033 700 55 -1100 210/10 RMK AO2
94908KDBQ DBQ20090216134009802/16/09 13:40:31  5-MIN KDBQ 161940Z 22010KT 10SM CLR M02/M10 A3033 700 55 -1200 220/10 RMK AO2 $
94908KDBQ DBQ20090216134509802/16/09 13:45:31  5-MIN KDBQ 161945Z 22009KT 10SM CLR M02/M10 A3033 700 55 -1100 220/09 RMK AO2 $
94908KDBQ DBQ20090216135011802/16/09 13:50:31  5-MIN KDBQ 161950Z 21011KT 10SM FEW060 M02/M09 A3032 710 58 -1100 200/11 RMK AO2 SLP289 T10221094 $
94908KDBQ DBQ20090216135510102/16/09 13:55:31  5-MIN KDBQ 161955Z 21009KT 10SM SCT060 M02/M09 A3032 710 55 -1100 210/09 RMK AO2 $
94908KDBQ DBQ20090216140010102/16/09 14:00:31  5-MIN KDBQ 162000Z 19010KT 10SM SCT060 M02/M10 A3032 710 53 -1100 190/10 RMK AO2 $
94908KDBQ DBQ20090216140510102/16/09 14:05:31  5-MIN KDBQ 162005Z 20008KT 10SM BKN060 M02/M10 A3032 720 53 -1100 200/08 RMK AO2 $
94908KDBQ DBQ20090216141010102/16/09 14:10:31  5-MIN KDBQ 162010Z 19009KT 10SM BKN060 M02/M10 A3031 720 53 -1100 190/09 RMK AO2 $
94908KDBQ DBQ20090216141510102/16/09 14:15:31  5-MIN KDBQ 162015Z 19010KT 10SM BKN060 M02/M10 A3031 720 53 -1100 190/10 RMK AO2 $
94908KDBQ DBQ20090216142010102/16/09 14:20:31  5-MIN KDBQ 162020Z 19009KT 10SM SCT060 M02/M10 A3030 730 55 -1100 190/09 RMK AO2 $
94908KDBQ DBQ20090216142510102/16/09 14:25:31  5-MIN KDBQ 162025Z 19009KT 10SM SCT060 M02/M11 A3030 730 51 -1000 190/09 RMK AO2 $
94908KDBQ DBQ20090216143010102/16/09 14:30:31  5-MIN KDBQ 162030Z 18008KT 10SM SCT060 M02/M11 A3029 740 49 -1000 180/08 RMK AO2 $
94908KDBQ DBQ20090216143510802/16/09 14:35:31  5-MIN KDBQ 162035Z 19009KT 10SM FEW060 M02/M11 A3029 740 49 -1000 180/09 RMK AO2 PRESFR $
94908KDBQ DBQ20090216144009802/16/09 14:40:31  5-MIN KDBQ 162040Z 17010KT 10SM CLR M02/M10 A3028 740 53 -1000 170/10 RMK AO2 $
94908KDBQ DBQ20090216144509802/16/09 14:45:31  5-MIN KDBQ 162045Z 17010KT 10SM CLR M02/M11 A3028 750 51 -1000 170/10 RMK AO2 $
94908KDBQ DBQ20090216145013302/16/09 14:50:31  5-MIN KDBQ 162050Z 18008KT 10SM CLR M02/M11 A3028 740 51 -1000 180/08 RMK AO2 SLP275 P0001 60001 T10171106 58004 $
94908KDBQ DBQ20090216145509802/16/09 14:55:31  5-MIN KDBQ 162055Z 17010KT 10SM CLR M02/M11 A3029 740 51 -1000 170/10 RMK AO2 $
94908KDBQ DBQ20090216150009802/16/09 15:00:31  5-MIN KDBQ 162100Z 17009KT 10SM CLR M02/M11 A3028 750 51 -1000 170/09 RMK AO2 $
94908KDBQ DBQ20090216150509802/16/09 15:05:31  5-MIN KDBQ 162105Z 17011KT 10SM CLR M02/M11 A3028 750 51 -1000 170/11 RMK AO2 $
94908KDBQ DBQ20090216151009802/16/09 15:10:31  5-MIN KDBQ 162110Z 18010KT 10SM CLR M01/M10 A3028 740 51 -1000 180/10 RMK AO2 $
94908KDBQ DBQ20090216151509802/16/09 15:15:31  5-MIN KDBQ 162115Z 18011KT 10SM CLR M02/M11 A3028 750 51 -1000 180/11 RMK AO2 $
94908KDBQ DBQ20090216152010102/16/09 15:20:31  5-MIN KDBQ 162120Z 19010KT 10SM FEW060 M02/M10 A3028 740 53 -1000 190/10 RMK AO2 $
94908KDBQ DBQ20090216152510102/16/09 15:25:31  5-MIN KDBQ 162125Z 18009KT 10SM SCT060 M02/M10 A3028 750 53 -1000 180/09 RMK AO2 $
94908KDBQ DBQ20090216153010102/16/09 15:30:31  5-MIN KDBQ 162130Z 18009KT 10SM BKN055 M02/M10 A3028 750 53 -1000 180/09 RMK AO2 $
94908KDBQ DBQ20090216153510102/16/09 15:35:31  5-MIN KDBQ 162135Z 18009KT 10SM BKN055 M02/M09 A3028 750 58 -1000 180/09 RMK AO2 $
94908KDBQ DBQ20090216154010102/16/09 15:40:31  5-MIN KDBQ 162140Z 19009KT 10SM SCT055 M02/M09 A3027 750 55 -1000 190/09 RMK AO2 $
94908KDBQ DBQ20090216154510002/16/09 15:45:31  5-MIN KDBQ 162145Z 19010KT 10SM SCT055 M01/M09 A3027 760 53 -900 190/10 RMK AO2 $
94908KDBQ DBQ20090216155011702/16/09 15:50:31  5-MIN KDBQ 162150Z 19009KT 10SM SCT055 M01/M10 A3027 760 51 -900 190/09 RMK AO2 SLP269 T10111100 $
94908KDBQ DBQ20090216155510002/16/09 15:55:31  5-MIN KDBQ 162155Z 18009KT 10SM FEW055 M01/M09 A3026 760 53 -900 180/09 RMK AO2 $
94908KDBQ DBQ20090216160009702/16/09 16:00:31  5-MIN KDBQ 162200Z 18011KT 10SM CLR M01/M10 A3026 760 51 -900 170/11 RMK AO2 $
94908KDBQ DBQ20090216160509702/16/09 16:05:31  5-MIN KDBQ 162205Z 19009KT 10SM CLR M01/M09 A3026 770 53 -900 190/09 RMK AO2 $
94908KDBQ DBQ20090216161009702/16/09 16:10:31  5-MIN KDBQ 162210Z 17009KT 10SM CLR M01/M08 A3026 770 58 -900 170/09 RMK AO2 $
94908KDBQ DBQ20090216161509802/16/09 16:15:31  5-MIN KDBQ 162215Z 18009KT 10SM CLR M02/M08 A3025 770 60 -1000 180/09 RMK AO2 $
94908KDBQ DBQ20090216162009802/16/09 16:20:31  5-MIN KDBQ 162220Z 18010KT 10SM CLR M02/M08 A3025 780 60 -1000 180/10 RMK AO2 $
94908KDBQ DBQ20090216162509802/16/09 16:25:31  5-MIN KDBQ 162225Z 17010KT 10SM CLR M02/M08 A3025 780 60 -1000 170/10 RMK AO2 $
94908KDBQ DBQ20090216163009802/16/09 16:30:31  5-MIN KDBQ 162230Z 18010KT 10SM CLR M02/M09 A3025 780 58 -1000 170/10 RMK AO2 $
94908KDBQ DBQ20090216163509802/16/09 16:35:31  5-MIN KDBQ 162235Z 18010KT 10SM CLR M02/M09 A3024 780 58 -1000 180/10 RMK AO2 $
94908KDBQ DBQ20090216164009802/16/09 16:40:31  5-MIN KDBQ 162240Z 18009KT 10SM CLR M02/M09 A3024 780 58 -1000 180/09 RMK AO2 $
94908KDBQ DBQ20090216164509802/16/09 16:45:31  5-MIN KDBQ 162245Z 18010KT 10SM CLR M02/M08 A3024 790 60 -1000 180/10 RMK AO2 $
94908KDBQ DBQ20090216165011502/16/09 16:50:31  5-MIN KDBQ 162250Z 17009KT 10SM CLR M02/M08 A3023 790 60 -1000 170/09 RMK AO2 SLP259 T10171083 $
94908KDBQ DBQ20090216165509802/16/09 16:55:31  5-MIN KDBQ 162255Z 17010KT 10SM CLR M02/M08 A3023 790 60 -1000 170/10 RMK AO2 $
94908KDBQ DBQ20090216170009802/16/09 17:00:31  5-MIN KDBQ 162300Z 18009KT 10SM CLR M02/M08 A3023 790 63 -1000 180/09 RMK AO2 $
94908KDBQ DBQ20090216170509802/16/09 17:05:31  5-MIN KDBQ 162305Z 17009KT 10SM CLR M02/M08 A3023 800 63 -1000 170/09 RMK AO2 $
94908KDBQ DBQ20090216171009802/16/09 17:10:31  5-MIN KDBQ 162310Z 17009KT 10SM CLR M02/M08 A3022 800 63 -1000 170/09 RMK AO2 $
94908KDBQ DBQ20090216171509802/16/09 17:15:31  5-MIN KDBQ 162315Z 17008KT 10SM CLR M02/M08 A3022 810 66 -1000 170/08 RMK AO2 $
94908KDBQ DBQ20090216172009802/16/09 17:20:31  5-MIN KDBQ 162320Z 17008KT 10SM CLR M03/M08 A3021 810 68 -1100 170/08 RMK AO2 $
94908KDBQ DBQ20090216172509802/16/09 17:25:31  5-MIN KDBQ 162325Z 17008KT 10SM CLR M03/M08 A3021 810 68 -1100 170/08 RMK AO2 $
94908KDBQ DBQ20090216173009802/16/09 17:30:31  5-MIN KDBQ 162330Z 17008KT 10SM CLR M03/M08 A3021 810 68 -1100 170/08 RMK AO2 $
94908KDBQ DBQ20090216173509802/16/09 17:35:31  5-MIN KDBQ 162335Z 17008KT 10SM CLR M03/M08 A3021 810 68 -1100 170/08 RMK AO2 $
94908KDBQ DBQ20090216174009802/16/09 17:40:31  5-MIN KDBQ 162340Z 17007KT 10SM CLR M03/M08 A3021 810 71 -1200 170/07 RMK AO2 $
94908KDBQ DBQ20090216174509802/16/09 17:45:31  5-MIN KDBQ 162345Z 16007KT 10SM CLR M03/M08 A3020 820 71 -1100 160/07 RMK AO2 $
94908KDBQ DBQ20090216175013902/16/09 17:50:31  5-MIN KDBQ 162350Z 17008KT 10SM CLR M03/M08 A3020 820 71 -1100 170/08 RMK AO2 SLP248 60001 T10331078 11011 21033 58030 $
94908KDBQ DBQ20090216175509802/16/09 17:55:31  5-MIN KDBQ 162355Z 16007KT 10SM CLR M03/M08 A3020 820 71 -1100 160/07 RMK AO2 $
94908KDBQ DBQ20090216180009802/16/09 18:00:31  5-MIN KDBQ 170000Z 16007KT 10SM CLR M03/M08 A3020 820 68 -1100 160/07 RMK AO2 $
94908KDBQ DBQ20090216180509802/16/09 18:05:31  5-MIN KDBQ 170005Z 16007KT 10SM CLR M04/M08 A3020 820 71 -1200 160/07 RMK AO2 $
94908KDBQ DBQ20090216181009802/16/09 18:10:31  5-MIN KDBQ 170010Z 16008KT 10SM CLR M04/M08 A3019 830 71 -1200 160/08 RMK AO2 $
94908KDBQ DBQ20090216181509802/16/09 18:15:31  5-MIN KDBQ 170015Z 16007KT 10SM CLR M04/M08 A3019 830 71 -1200 160/07 RMK AO2 $
94908KDBQ DBQ20090216182009802/16/09 18:20:31  5-MIN KDBQ 170020Z 16007KT 10SM CLR M04/M08 A3019 830 71 -1200 160/07 RMK AO2 $
94908KDBQ DBQ20090216182509802/16/09 18:25:31  5-MIN KDBQ 170025Z 16007KT 10SM CLR M04/M08 A3019 830 71 -1200 160/07 RMK AO2 $
94908KDBQ DBQ20090216183009802/16/09 18:30:31  5-MIN KDBQ 170030Z 17008KT 10SM CLR M04/M08 A3019 830 71 -1200 170/08 RMK AO2 $
94908KDBQ DBQ20090216183509802/16/09 18:35:31  5-MIN KDBQ 170035Z 17008KT 10SM CLR M04/M08 A3019 830 71 -1200 160/08 RMK AO2 $
94908KDBQ DBQ20090216184010402/16/09 18:40:31  5-MIN KDBQ 170040Z 16008KT 10SM CLR M04/M08 A3018 840 71 -1200 160/08 RMK AO2 P0001 $
94908KDBQ DBQ20090216184510402/16/09 18:45:31  5-MIN KDBQ 170045Z 16007KT 10SM CLR M04/M08 A3018 840 74 -1300 160/07 RMK AO2 P0001 $
94908KDBQ DBQ20090216185012102/16/09 18:50:31  5-MIN KDBQ 170050Z 16009KT 10SM CLR M04/M08 A3017 840 71 -1200 160/09 RMK AO2 SLP239 P0001 T10391083 $
94908KDBQ DBQ20090216185509802/16/09 18:55:31  5-MIN KDBQ 170055Z 16010KT 10SM CLR M03/M08 A3017 850 68 -1100 150/10 RMK AO2 $
94908KDBQ DBQ20090216190009802/16/09 19:00:31  5-MIN KDBQ 170100Z 16010KT 10SM CLR M03/M08 A3017 850 68 -1100 160/10 RMK AO2 $
94908KDBQ DBQ20090216190509802/16/09 19:05:31  5-MIN KDBQ 170105Z 16009KT 10SM CLR M03/M08 A3017 850 68 -1100 160/09 RMK AO2 $
94908KDBQ DBQ20090216191009802/16/09 19:10:31  5-MIN KDBQ 170110Z 16009KT 10SM CLR M03/M08 A3017 850 68 -1100 160/09 RMK AO2 $
94908KDBQ DBQ20090216191509802/16/09 19:15:31  5-MIN KDBQ 170115Z 16009KT 10SM CLR M03/M08 A3017 850 68 -1100 160/09 RMK AO2 $
94908KDBQ DBQ20090216192009802/16/09 19:20:31  5-MIN KDBQ 170120Z 16009KT 10SM CLR M03/M08 A3016 850 68 -1100 160/09 RMK AO2 $
94908KDBQ DBQ20090216192510702/16/09 19:25:31  5-MIN KDBQ 170125Z 17009KT 10SM FEW110 M03/M08 A3017 850 68 -1100 170/09 RMK AO2 P0001 $
94908KDBQ DBQ20090216193010702/16/09 19:30:31  5-MIN KDBQ 170130Z 17010KT 10SM SCT110 M03/M08 A3017 850 68 -1100 170/10 RMK AO2 P0001 $
94908KDBQ DBQ20090216193510702/16/09 19:35:31  5-MIN KDBQ 170135Z 17009KT 10SM BKN110 M04/M08 A3017 850 71 -1200 170/09 RMK AO2 P0001 $
94908KDBQ DBQ20090216194010702/16/09 19:40:31  5-MIN KDBQ 170140Z 17009KT 10SM BKN110 M03/M08 A3017 850 68 -1100 170/09 RMK AO2 P0001 $
94908KDBQ DBQ20090216194510702/16/09 19:45:31  5-MIN KDBQ 170145Z 17010KT 10SM BKN110 M04/M08 A3016 850 74 -1200 170/10 RMK AO2 P0001 $
94908KDBQ DBQ20090216195012402/16/09 19:50:31  5-MIN KDBQ 170150Z 17010KT 10SM OVC110 M04/M08 A3016 860 74 -1200 170/10 RMK AO2 SLP233 P0001 T10391078 $
94908KDBQ DBQ20090216195510602/16/09 19:55:31  5-MIN KDBQ 170155Z AUTO 17010KT 10SM OVC110 M04/M08 A3016 860 74 -1200 170/10 RMK AO2 $
94908KDBQ DBQ20090216200010602/16/09 20:00:31  5-MIN KDBQ 170200Z AUTO 17010KT 10SM OVC110 M03/M08 A3015 860 71 -1100 170/10 RMK AO2 $
94908KDBQ DBQ20090216200510602/16/09 20:05:31  5-MIN KDBQ 170205Z AUTO 17011KT 10SM OVC110 M03/M08 A3016 860 71 -1100 170/11 RMK AO2 $
94908KDBQ DBQ20090216201010602/16/09 20:10:31  5-MIN KDBQ 170210Z AUTO 17011KT 10SM OVC110 M03/M08 A3016 860 71 -1100 170/11 RMK AO2 $
94908KDBQ DBQ20090216201510602/16/09 20:15:31  5-MIN KDBQ 170215Z AUTO 17010KT 10SM OVC110 M03/M07 A3016 860 74 -1100 170/10 RMK AO2 $
94908KDBQ DBQ20090216202010602/16/09 20:20:31  5-MIN KDBQ 170220Z AUTO 17011KT 10SM OVC110 M03/M07 A3015 870 71 -1000 170/11 RMK AO2 $
94908KDBQ DBQ20090216202510602/16/09 20:25:31  5-MIN KDBQ 170225Z AUTO 17011KT 10SM OVC110 M03/M07 A3015 870 71 -1000 170/11 RMK AO2 $
94908KDBQ DBQ20090216203010602/16/09 20:30:31  5-MIN KDBQ 170230Z AUTO 17011KT 10SM OVC110 M03/M07 A3015 870 71 -1000 170/11 RMK AO2 $
94908KDBQ DBQ20090216203510602/16/09 20:35:31  5-MIN KDBQ 170235Z AUTO 18012KT 10SM OVC110 M03/M07 A3014 870 71 -1000 180/12 RMK AO2 $
94908KDBQ DBQ20090216204010602/16/09 20:40:31  5-MIN KDBQ 170240Z AUTO 18011KT 10SM OVC110 M03/M07 A3015 870 71 -1000 180/11 RMK AO2 $
94908KDBQ DBQ20090216204511202/16/09 20:45:31  5-MIN KDBQ 170245Z AUTO 18011KT 10SM OVC110 M03/M07 A3015 870 71 -1000 180/11 RMK AO2 P0001 $
94908KDBQ DBQ20090216205014102/16/09 20:50:31  5-MIN KDBQ 170250Z AUTO 18011KT 10SM OVC110 M03/M07 A3014 870 71 -1000 180/11 RMK AO2 SLP226 P0001 60003 T10281072 58027 $
94908KDBQ DBQ20090216205510602/16/09 20:55:31  5-MIN KDBQ 170255Z AUTO 17011KT 10SM OVC110 M03/M07 A3014 880 71 -1000 170/11 RMK AO2 $
94908KDBQ DBQ20090216210010602/16/09 21:00:31  5-MIN KDBQ 170300Z AUTO 17012KT 10SM OVC110 M03/M07 A3013 880 71 -1000 170/12 RMK AO2 $
94908KDBQ DBQ20090216210510602/16/09 21:05:31  5-MIN KDBQ 170305Z AUTO 17012KT 10SM OVC110 M03/M07 A3013 880 71 -1000 170/12 RMK AO2 $
94908KDBQ DBQ20090216211010602/16/09 21:10:31  5-MIN KDBQ 170310Z AUTO 18012KT 10SM OVC110 M03/M07 A3014 880 71 -1000 180/12 RMK AO2 $
94908KDBQ DBQ20090216211510602/16/09 21:15:31  5-MIN KDBQ 170315Z AUTO 18012KT 10SM OVC110 M03/M07 A3014 880 71 -1000 180/12 RMK AO2 $
94908KDBQ DBQ20090216212010602/16/09 21:20:31  5-MIN KDBQ 170320Z AUTO 18013KT 10SM OVC110 M03/M07 A3014 870 71 -1000 180/13 RMK AO2 $
94908KDBQ DBQ20090216212510602/16/09 21:25:31  5-MIN KDBQ 170325Z AUTO 18012KT 10SM OVC110 M03/M07 A3014 880 71 -1000 180/12 RMK AO2 $
94908KDBQ DBQ20090216213010602/16/09 21:30:31  5-MIN KDBQ 170330Z AUTO 19013KT 10SM OVC110 M03/M07 A3014 870 71 -1000 190/13 RMK AO2 $
94908KDBQ DBQ20090216213510602/16/09 21:35:31  5-MIN KDBQ 170335Z AUTO 19014KT 10SM OVC110 M03/M07 A3014 870 71 -1000 190/14 RMK AO2 $
94908KDBQ DBQ20090216214010602/16/09 21:40:31  5-MIN KDBQ 170340Z AUTO 19014KT 10SM OVC110 M03/M07 A3014 870 71 -1000 190/14 RMK AO2 $
94908KDBQ DBQ20090216214510602/16/09 21:45:31  5-MIN KDBQ 170345Z AUTO 19014KT 10SM OVC110 M03/M07 A3014 870 71 -1000 190/14 RMK AO2 $
94908KDBQ DBQ20090216215012302/16/09 21:50:31  5-MIN KDBQ 170350Z AUTO 19012KT 10SM OVC110 M03/M07 A3014 870 71 -1000 190/12 RMK AO2 SLP223 T10281072 $
94908KDBQ DBQ20090216215510602/16/09 21:55:31  5-MIN KDBQ 170355Z AUTO 19013KT 10SM OVC110 M03/M07 A3014 870 71 -1000 180/13 RMK AO2 $
94908KDBQ DBQ20090216220010602/16/09 22:00:31  5-MIN KDBQ 170400Z AUTO 19013KT 10SM OVC110 M03/M07 A3014 870 71 -1000 190/13 RMK AO2 $
94908KDBQ DBQ20090216220510602/16/09 22:05:31  5-MIN KDBQ 170405Z AUTO 19015KT 10SM OVC110 M03/M07 A3014 870 71 -1000 180/15 RMK AO2 $
94908KDBQ DBQ20090216221010602/16/09 22:10:31  5-MIN KDBQ 170410Z AUTO 19014KT 10SM OVC110 M03/M08 A3014 870 68 -1000 180/14 RMK AO2 $
94908KDBQ DBQ20090216221510602/16/09 22:15:31  5-MIN KDBQ 170415Z AUTO 18014KT 10SM OVC110 M03/M08 A3014 870 68 -1000 180/14 RMK AO2 $
94908KDBQ DBQ20090216222010602/16/09 22:20:31  5-MIN KDBQ 170420Z AUTO 19013KT 10SM OVC110 M03/M07 A3014 870 71 -1000 180/13 RMK AO2 $
94908KDBQ DBQ20090216222510602/16/09 22:25:31  5-MIN KDBQ 170425Z AUTO 19015KT 10SM OVC100 M03/M07 A3014 870 71 -1000 190/15 RMK AO2 $
94908KDBQ DBQ20090216223010602/16/09 22:30:31  5-MIN KDBQ 170430Z AUTO 19013KT 10SM OVC110 M03/M07 A3014 870 71 -1000 190/13 RMK AO2 $
94908KDBQ DBQ20090216223510602/16/09 22:35:31  5-MIN KDBQ 170435Z AUTO 20014KT 10SM OVC110 M03/M07 A3014 870 71 -1000 190/14 RMK AO2 $
94908KDBQ DBQ20090216224010602/16/09 22:40:31  5-MIN KDBQ 170440Z AUTO 20013KT 10SM OVC110 M03/M07 A3014 870 71 -1000 200/13 RMK AO2 $
94908KDBQ DBQ20090216224510602/16/09 22:45:31  5-MIN KDBQ 170445Z AUTO 20015KT 10SM OVC110 M03/M07 A3014 870 71 -1000 200/15 RMK AO2 $
94908KDBQ DBQ20090216225012302/16/09 22:50:31  5-MIN KDBQ 170450Z AUTO 20014KT 10SM OVC110 M03/M08 A3014 880 68 -1000 190/14 RMK AO2 SLP221 T10281078 $
94908KDBQ DBQ20090216225510602/16/09 22:55:31  5-MIN KDBQ 170455Z AUTO 19013KT 10SM BKN110 M03/M08 A3014 870 71 -1100 190/13 RMK AO2 $
94908KDBQ DBQ20090216230010602/16/09 23:00:31  5-MIN KDBQ 170500Z AUTO 19012KT 10SM BKN110 M03/M08 A3014 870 71 -1100 190/12 RMK AO2 $
94908KDBQ DBQ20090216230510602/16/09 23:05:31  5-MIN KDBQ 170505Z AUTO 19012KT 10SM BKN110 M03/M08 A3014 880 71 -1100 190/12 RMK AO2 $
94908KDBQ DBQ20090216231010602/16/09 23:10:31  5-MIN KDBQ 170510Z AUTO 19012KT 10SM OVC110 M03/M08 A3013 880 71 -1100 190/12 RMK AO2 $
94908KDBQ DBQ20090216231510602/16/09 23:15:31  5-MIN KDBQ 170515Z AUTO 19014KT 10SM OVC100 M03/M08 A3013 880 71 -1100 190/14 RMK AO2 $
94908KDBQ DBQ20090216232010602/16/09 23:20:31  5-MIN KDBQ 170520Z AUTO 19013KT 10SM OVC100 M03/M07 A3013 890 74 -1100 190/13 RMK AO2 $
94908KDBQ DBQ20090216232510602/16/09 23:25:31  5-MIN KDBQ 170525Z AUTO 19014KT 10SM OVC100 M03/M07 A3013 890 74 -1100 190/14 RMK AO2 $
94908KDBQ DBQ20090216233010602/16/09 23:30:31  5-MIN KDBQ 170530Z AUTO 19014KT 10SM OVC100 M03/M07 A3013 890 74 -1100 190/14 RMK AO2 $
94908KDBQ DBQ20090216233510602/16/09 23:35:31  5-MIN KDBQ 170535Z AUTO 19013KT 10SM OVC100 M03/M07 A3012 890 74 -1100 190/13 RMK AO2 $
94908KDBQ DBQ20090216234010602/16/09 23:40:31  5-MIN KDBQ 170540Z AUTO 19012KT 10SM OVC100 M03/M07 A3012 890 74 -1100 180/12 RMK AO2 $
94908KDBQ DBQ20090216234510602/16/09 23:45:31  5-MIN KDBQ 170545Z AUTO 18011KT 10SM OVC100 M03/M07 A3012 900 74 -1000 180/11 RMK AO2 $
94908KDBQ DBQ20090216235015702/16/09 23:50:31  5-MIN KDBQ 170550Z AUTO 19013KT 10SM OVC100 M03/M07 A3011 900 74 -1000 190/13 RMK AO2 SLP212 60003 T10331072 11028 21044 410111156 56020 $
94908KDBQ DBQ20090216235510602/16/09 23:55:31  5-MIN KDBQ 170555Z AUTO 19012KT 10SM OVC100 M03/M07 A3011 900 74 -1000 190/12 RMK AO2 $
94908KDBQ DBQ20090217000010602/17/09 00:00:38  5-MIN KDBQ 170600Z AUTO 18013KT 10SM OVC100 M03/M07 A3011 910 74 -1000 180/13 RMK AO2 $
94908KDBQ DBQ20090217000510602/17/09 00:05:31  5-MIN KDBQ 170605Z AUTO 19012KT 10SM OVC100 M03/M07 A3011 910 74 -1000 190/12 RMK AO2 $
94908KDBQ DBQ20090217001010602/17/09 00:10:31  5-MIN KDBQ 170610Z AUTO 19011KT 10SM OVC095 M03/M07 A3010 910 74 -1000 190/11 RMK AO2 $
94908KDBQ DBQ20090217001510602/17/09 00:15:31  5-MIN KDBQ 170615Z AUTO 19010KT 10SM OVC095 M03/M07 A3010 910 74 -1000 190/10 RMK AO2 $
94908KDBQ DBQ20090217002010602/17/09 00:20:31  5-MIN KDBQ 170620Z AUTO 19010KT 10SM OVC095 M03/M07 A3010 910 74 -1000 190/10 RMK AO2 $
94908KDBQ DBQ20090217002510602/17/09 00:25:31  5-MIN KDBQ 170625Z AUTO 19011KT 10SM OVC095 M03/M07 A3010 910 74 -1000 190/11 RMK AO2 $
94908KDBQ DBQ20090217003010602/17/09 00:30:31  5-MIN KDBQ 170630Z AUTO 19010KT 10SM OVC095 M03/M07 A3010 920 74 -1000 190/10 RMK AO2 $
94908KDBQ DBQ20090217003510602/17/09 00:35:31  5-MIN KDBQ 170635Z AUTO 19010KT 10SM OVC090 M03/M07 A3009 920 74 -1000 190/10 RMK AO2 $
94908KDBQ DBQ20090217004010602/17/09 00:40:31  5-MIN KDBQ 170640Z AUTO 19012KT 10SM OVC090 M03/M07 A3009 920 74 -1000 190/12 RMK AO2 $
94908KDBQ DBQ20090217004510602/17/09 00:45:31  5-MIN KDBQ 170645Z AUTO 19011KT 10SM OVC090 M03/M07 A3009 920 74 -1000 190/11 RMK AO2 $
94908KDBQ DBQ20090217005012302/17/09 00:50:31  5-MIN KDBQ 170650Z AUTO 19011KT 10SM OVC090 M03/M07 A3009 930 74 -1000 190/11 RMK AO2 SLP203 T10331072 $
94908KDBQ DBQ20090217005510602/17/09 00:55:31  5-MIN KDBQ 170655Z AUTO 20010KT 10SM BKN090 M04/M08 A3008 930 74 -1100 190/10 RMK AO2 $
94908KDBQ DBQ20090217010010602/17/09 01:00:31  5-MIN KDBQ 170700Z AUTO 20010KT 10SM BKN090 M04/M08 A3008 930 74 -1100 200/10 RMK AO2 $
94908KDBQ DBQ20090217010510602/17/09 01:05:31  5-MIN KDBQ 170705Z AUTO 20011KT 10SM SCT090 M04/M08 A3008 930 74 -1100 200/11 RMK AO2 $
94908KDBQ DBQ20090217011010602/17/09 01:10:31  5-MIN KDBQ 170710Z AUTO 19011KT 10SM FEW090 M04/M08 A3008 930 74 -1100 190/11 RMK AO2 $
94908KDBQ DBQ20090217011510602/17/09 01:15:31  5-MIN KDBQ 170715Z AUTO 19009KT 10SM FEW090 M04/M08 A3007 940 74 -1100 190/09 RMK AO2 $
94908KDBQ DBQ20090217012010302/17/09 01:20:31  5-MIN KDBQ 170720Z AUTO 19010KT 10SM CLR M04/M08 A3007 940 74 -1100 190/10 RMK AO2 $
94908KDBQ DBQ20090217012510302/17/09 01:25:31  5-MIN KDBQ 170725Z AUTO 19009KT 10SM CLR M04/M08 A3007 940 74 -1100 190/09 RMK AO2 $
94908KDBQ DBQ20090217013010302/17/09 01:30:31  5-MIN KDBQ 170730Z AUTO 19008KT 10SM CLR M04/M08 A3007 940 78 -1100 190/08 RMK AO2 $
94908KDBQ DBQ20090217013510702/17/09 01:35:31  5-MIN KDBQ 170735Z AUTO 18009KT 10SM CLR M04/M08 A3006 950 78 -1100 180/09 RMK AO2 PNO $
94908KDBQ DBQ20090217014010302/17/09 01:40:31  5-MIN KDBQ 170740Z AUTO 18009KT 10SM CLR M04/M08 A3006 950 78 -1100 180/09 RMK AO2 $
94908KDBQ DBQ20090217014510302/17/09 01:45:31  5-MIN KDBQ 170745Z AUTO 18010KT 10SM CLR M04/M08 A3006 950 78 -1100 180/10 RMK AO2 $
94908KDBQ DBQ20090217015012002/17/09 01:50:31  5-MIN KDBQ 170750Z AUTO 18009KT 10SM CLR M04/M08 A3006 950 78 -1100 180/09 RMK AO2 SLP194 T10441078 $
94908KDBQ DBQ20090217015510302/17/09 01:55:31  5-MIN KDBQ 170755Z AUTO 18008KT 10SM CLR M04/M08 A3006 950 78 -1100 180/08 RMK AO2 $
94908KDBQ DBQ20090217020010302/17/09 02:00:31  5-MIN KDBQ 170800Z AUTO 18009KT 10SM CLR M04/M08 A3006 950 78 -1100 180/09 RMK AO2 $
94908KDBQ DBQ20090217020510302/17/09 02:05:31  5-MIN KDBQ 170805Z AUTO 18008KT 10SM CLR M05/M08 A3005 960 81 -1200 180/08 RMK AO2 $
94908KDBQ DBQ20090217021010302/17/09 02:10:31  5-MIN KDBQ 170810Z AUTO 18008KT 10SM CLR M05/M08 A3005 960 81 -1200 180/08 RMK AO2 $
94908KDBQ DBQ20090217021510302/17/09 02:15:31  5-MIN KDBQ 170815Z AUTO 18008KT 10SM CLR M05/M08 A3004 970 81 -1200 180/08 RMK AO2 $
94908KDBQ DBQ20090217022010302/17/09 02:20:31  5-MIN KDBQ 170820Z AUTO 18009KT 10SM CLR M04/M08 A3003 970 78 -1100 180/09 RMK AO2 $
94908KDBQ DBQ20090217022510302/17/09 02:25:31  5-MIN KDBQ 170825Z AUTO 18009KT 10SM CLR M04/M08 A3003 980 78 -1100 180/09 RMK AO2 $
94908KDBQ DBQ20090217023010302/17/09 02:30:31  5-MIN KDBQ 170830Z AUTO 17009KT 10SM CLR M04/M08 A3003 980 78 -1100 170/09 RMK AO2 $
94908KDBQ DBQ20090217023510302/17/09 02:35:31  5-MIN KDBQ 170835Z AUTO 18009KT 10SM CLR M04/M08 A3002 980 78 -1100 180/09 RMK AO2 $
94908KDBQ DBQ20090217024010302/17/09 02:40:31  5-MIN KDBQ 170840Z AUTO 18009KT 10SM CLR M04/M08 A3002 990 78 -1100 180/09 RMK AO2 $
94908KDBQ DBQ20090217024510302/17/09 02:45:31  5-MIN KDBQ 170845Z AUTO 18009KT 10SM CLR M04/M08 A3002 990 78 -1100 180/09 RMK AO2 $
94908KDBQ DBQ20090217025012602/17/09 02:50:31  5-MIN KDBQ 170850Z AUTO 18009KT 10SM CLR M04/M08 A3001 990 78 -1100 180/09 RMK AO2 SLP178 T10441078 58010 $
94908KDBQ DBQ20090217025510402/17/09 02:55:31  5-MIN KDBQ 170855Z AUTO 18009KT 10SM CLR M04/M08 A3001 1000 78 -1100 180/09 RMK AO2 $
94908KDBQ DBQ20090217030010402/17/09 03:00:31  5-MIN KDBQ 170900Z AUTO 18008KT 10SM CLR M05/M08 A3000 1000 81 -1100 180/08 RMK AO2 $
94908KDBQ DBQ20090217030510402/17/09 03:05:31  5-MIN KDBQ 170905Z AUTO 18008KT 10SM CLR M04/M08 A3000 1000 78 -1100 180/08 RMK AO2 $
94908KDBQ DBQ20090217031010402/17/09 03:10:31  5-MIN KDBQ 170910Z AUTO 18009KT 10SM CLR M04/M08 A3000 1010 78 -1100 180/09 RMK AO2 $
94908KDBQ DBQ20090217031510402/17/09 03:15:31  5-MIN KDBQ 170915Z AUTO 18010KT 10SM CLR M04/M08 A3000 1010 78 -1000 180/10 RMK AO2 $
94908KDBQ DBQ20090217032010402/17/09 03:20:31  5-MIN KDBQ 170920Z AUTO 18010KT 10SM CLR M04/M08 A2999 1010 78 -1000 180/10 RMK AO2 $
94908KDBQ DBQ20090217032510402/17/09 03:25:31  5-MIN KDBQ 170925Z AUTO 19009KT 10SM CLR M04/M08 A2999 1020 78 -1000 180/09 RMK AO2 $
94908KDBQ DBQ20090217033010402/17/09 03:30:31  5-MIN KDBQ 170930Z AUTO 19009KT 10SM CLR M04/M07 A2999 1020 81 -1000 180/09 RMK AO2 $
94908KDBQ DBQ20090217033510402/17/09 03:35:31  5-MIN KDBQ 170935Z AUTO 19010KT 10SM CLR M04/M07 A2998 1020 81 -1000 190/10 RMK AO2 $
94908KDBQ DBQ20090217034010402/17/09 03:40:31  5-MIN KDBQ 170940Z AUTO 18011KT 10SM CLR M04/M07 A2998 1020 78 -1000 180/11 RMK AO2 $
94908KDBQ DBQ20090217034510402/17/09 03:45:31  5-MIN KDBQ 170945Z AUTO 18011KT 10SM CLR M04/M07 A2998 1030 78 -1000 180/11 RMK AO2 $
94908KDBQ DBQ20090217035012102/17/09 03:50:31  5-MIN KDBQ 170950Z AUTO 18010KT 10SM CLR M04/M07 A2998 1030 81 -1000 180/10 RMK AO2 SLP165 T10441072 $
94908KDBQ DBQ20090217035510402/17/09 03:55:31  5-MIN KDBQ 170955Z AUTO 18010KT 10SM CLR M04/M07 A2997 1030 81 -1000 180/10 RMK AO2 $
94908KDBQ DBQ20090217040010402/17/09 04:00:31  5-MIN KDBQ 171000Z AUTO 19011KT 10SM CLR M04/M07 A2997 1030 81 -1000 180/11 RMK AO2 $
94908KDBQ DBQ20090217040510302/17/09 04:05:31  5-MIN KDBQ 171005Z AUTO 18011KT 10SM CLR M04/M07 A2997 1030 78 -900 180/11 RMK AO2 $
94908KDBQ DBQ20090217041010902/17/09 04:10:31  5-MIN KDBQ 171010Z AUTO 18011KT 10SM CLR M04/M07 A2997 1040 78 -900 180/11 RMK AO2 P0001 $
94908KDBQ DBQ20090217041510902/17/09 04:15:31  5-MIN KDBQ 171015Z AUTO 18011KT 10SM CLR M04/M07 A2996 1040 78 -900 180/11 RMK AO2 P0001 $
94908KDBQ DBQ20090217042010902/17/09 04:20:31  5-MIN KDBQ 171020Z AUTO 18011KT 10SM CLR M04/M07 A2996 1040 78 -900 180/11 RMK AO2 P0001 $
94908KDBQ DBQ20090217042511002/17/09 04:25:31  5-MIN KDBQ 171025Z AUTO 18011KT 10SM CLR M04/M07 A2996 1050 81 -1000 180/11 RMK AO2 P0001 $
94908KDBQ DBQ20090217043010902/17/09 04:30:31  5-MIN KDBQ 171030Z AUTO 18012KT 10SM CLR M04/M07 A2995 1050 78 -900 180/12 RMK AO2 P0001 $
94908KDBQ DBQ20090217043511002/17/09 04:35:31  5-MIN KDBQ 171035Z AUTO 19012KT 10SM CLR M04/M07 A2995 1050 81 -1000 190/12 RMK AO2 P0001 $
94908KDBQ DBQ20090217044011002/17/09 04:40:31  5-MIN KDBQ 171040Z AUTO 18011KT 10SM CLR M04/M07 A2995 1050 81 -1000 180/11 RMK AO2 P0001 $
94908KDBQ DBQ20090217044510902/17/09 04:45:31  5-MIN KDBQ 171045Z AUTO 18012KT 10SM CLR M04/M07 A2995 1050 78 -900 180/12 RMK AO2 P0001 $
94908KDBQ DBQ20090217045012602/17/09 04:50:31  5-MIN KDBQ 171050Z AUTO 18012KT 10SM CLR M04/M07 A2995 1050 78 -900 180/12 RMK AO2 SLP157 P0001 T10391072 $
94908KDBQ DBQ20090217045510302/17/09 04:55:31  5-MIN KDBQ 171055Z AUTO 18012KT 10SM CLR M04/M07 A2995 1050 78 -900 180/12 RMK AO2 $
94908KDBQ DBQ20090217050010402/17/09 05:00:31  5-MIN KDBQ 171100Z AUTO 18011KT 10SM CLR M04/M07 A2995 1050 81 -1000 180/11 RMK AO2 $
94908KDBQ DBQ20090217050510302/17/09 05:05:31  5-MIN KDBQ 171105Z AUTO 18012KT 10SM CLR M04/M07 A2995 1050 78 -900 180/12 RMK AO2 $
94908KDBQ DBQ20090217051010302/17/09 05:10:31  5-MIN KDBQ 171110Z AUTO 18012KT 10SM CLR M04/M07 A2995 1050 78 -900 180/12 RMK AO2 $
94908KDBQ DBQ20090217051510302/17/09 05:15:31  5-MIN KDBQ 171115Z AUTO 18012KT 10SM CLR M04/M07 A2995 1050 78 -900 180/12 RMK AO2 $
94908KDBQ DBQ20090217052010302/17/09 05:20:31  5-MIN KDBQ 171120Z AUTO 18012KT 10SM CLR M04/M07 A2995 1050 78 -900 180/12 RMK AO2 $
94908KDBQ DBQ20090217052510302/17/09 05:25:31  5-MIN KDBQ 171125Z AUTO 18011KT 10SM CLR M04/M07 A2994 1060 78 -900 180/11 RMK AO2 $
94908KDBQ DBQ20090217053010302/17/09 05:30:31  5-MIN KDBQ 171130Z AUTO 18012KT 10SM CLR M04/M07 A2994 1060 78 -900 180/12 RMK AO2 $
94908KDBQ DBQ20090217053510302/17/09 05:35:31  5-MIN KDBQ 171135Z 18012KT 10SM CLR M04/M07 A2994 1060 81 -1000 180/12 RMK AO2 PNO $
94908KDBQ DBQ20090217054009902/17/09 05:40:31  5-MIN KDBQ 171140Z 18012KT 10SM CLR M04/M07 A2993 1070 81 -1000 180/12 RMK AO2 $
94908KDBQ DBQ20090217054509902/17/09 05:45:31  5-MIN KDBQ 171145Z 18011KT 10SM CLR M04/M07 A2993 1070 81 -1000 180/11 RMK AO2 $
94908KDBQ DBQ20090217055014602/17/09 05:50:31  5-MIN KDBQ 171150Z 18011KT 10SM CLR M04/M07 A2993 1070 81 -1000 180/11 RMK AO2 SLP150 60001 70006 T10441072 11033 21050 58032 $
94908KDBQ DBQ20090217055509902/17/09 05:55:31  5-MIN KDBQ 171155Z 18011KT 10SM CLR M04/M07 A2993 1070 81 -1000 180/11 RMK AO2 $
94908KDBQ DBQ20090217060009902/17/09 06:00:31  5-MIN KDBQ 171200Z 18011KT 10SM CLR M04/M07 A2992 1070 81 -1000 180/11 RMK AO2 $
94908KDBQ DBQ20090217060509802/17/09 06:05:31  5-MIN KDBQ 171205Z 18012KT 10SM CLR M04/M07 A2992 1080 78 -900 180/12 RMK AO2 $
94908KDBQ DBQ20090217061009802/17/09 06:10:31  5-MIN KDBQ 171210Z 18013KT 10SM CLR M04/M07 A2992 1080 78 -900 180/13 RMK AO2 $
94908KDBQ DBQ20090217061509802/17/09 06:15:31  5-MIN KDBQ 171215Z 18012KT 10SM CLR M04/M07 A2992 1080 78 -900 180/12 RMK AO2 $
94908KDBQ DBQ20090217062009802/17/09 06:20:31  5-MIN KDBQ 171220Z 17012KT 10SM CLR M04/M07 A2991 1090 78 -900 170/12 RMK AO2 $
94908KDBQ DBQ20090217062509802/17/09 06:25:31  5-MIN KDBQ 171225Z 18012KT 10SM CLR M04/M07 A2991 1090 78 -900 180/12 RMK AO2 $
94908KDBQ DBQ20090217063009802/17/09 06:30:31  5-MIN KDBQ 171230Z 18011KT 10SM CLR M04/M07 A2991 1090 78 -900 180/11 RMK AO2 $
94908KDBQ DBQ20090217063509802/17/09 06:35:31  5-MIN KDBQ 171235Z 18012KT 10SM CLR M04/M07 A2990 1090 78 -900 180/12 RMK AO2 $
94908KDBQ DBQ20090217064009802/17/09 06:40:31  5-MIN KDBQ 171240Z 18010KT 10SM CLR M04/M07 A2990 1090 78 -900 180/10 RMK AO2 $
94908KDBQ DBQ20090217064509802/17/09 06:45:31  5-MIN KDBQ 171245Z 18011KT 10SM CLR M04/M07 A2990 1100 78 -900 180/11 RMK AO2 $
94908KDBQ DBQ20090217065011302/17/09 06:50:31  5-MIN KDBQ 171250Z 18012KT 10SM CLR M04/M07 A2990 1100 78 -900 180/12 RMK AO2 SLP139 T10391072
94908KDBQ DBQ20090217065509502/17/09 06:55:31  5-MIN KDBQ 171255Z 18010KT 9SM CLR M04/M07 A2990 1100 78 -900 180/10 RMK AO2
94908KDBQ DBQ20090217070009502/17/09 07:00:31  5-MIN KDBQ 171300Z 18011KT 9SM CLR M04/M07 A2989 1100 78 -900 180/11 RMK AO2
94908KDBQ DBQ20090217070509502/17/09 07:05:31  5-MIN KDBQ 171305Z 18010KT 8SM CLR M04/M07 A2989 1100 81 -900 180/10 RMK AO2
94908KDBQ DBQ20090217071009502/17/09 07:10:31  5-MIN KDBQ 171310Z 18010KT 8SM CLR M04/M07 A2989 1100 81 -900 180/10 RMK AO2
94908KDBQ DBQ20090217071509502/17/09 07:15:31  5-MIN KDBQ 171315Z 18009KT 8SM CLR M04/M07 A2989 1110 81 -900 180/09 RMK AO2
94908KDBQ DBQ20090217072009502/17/09 07:20:31  5-MIN KDBQ 171320Z 18009KT 8SM CLR M04/M07 A2989 1110 78 -900 180/09 RMK AO2
94908KDBQ DBQ20090217072509502/17/09 07:25:31  5-MIN KDBQ 171325Z 18010KT 8SM CLR M04/M07 A2989 1110 78 -900 180/10 RMK AO2
94908KDBQ DBQ20090217073009502/17/09 07:30:31  5-MIN KDBQ 171330Z 18011KT 8SM CLR M04/M07 A2989 1110 81 -900 180/11 RMK AO2
94908KDBQ DBQ20090217073509502/17/09 07:35:31  5-MIN KDBQ 171335Z 18011KT 8SM CLR M04/M07 A2989 1110 81 -900 180/11 RMK AO2
94908KDBQ DBQ20090217074009502/17/09 07:40:31  5-MIN KDBQ 171340Z 18010KT 8SM CLR M04/M07 A2988 1110 81 -800 180/10 RMK AO2
94908KDBQ DBQ20090217074509502/17/09 07:45:31  5-MIN KDBQ 171345Z 18011KT 8SM CLR M04/M07 A2988 1120 81 -800 180/11 RMK AO2
94908KDBQ DBQ20090217075011202/17/09 07:50:31  5-MIN KDBQ 171350Z 18012KT 8SM CLR M04/M07 A2988 1120 81 -800 180/12 RMK AO2 SLP132 T10391067
94908KDBQ DBQ20090217075509502/17/09 07:55:31  5-MIN KDBQ 171355Z 18011KT 8SM CLR M04/M07 A2988 1120 81 -800 180/11 RMK AO2
94908KDBQ DBQ20090217080009502/17/09 08:00:31  5-MIN KDBQ 171400Z 18010KT 8SM CLR M03/M07 A2987 1120 78 -800 180/10 RMK AO2
94908KDBQ DBQ20090217080509502/17/09 08:05:31  5-MIN KDBQ 171405Z 18010KT 9SM CLR M03/M07 A2987 1120 78 -800 180/10 RMK AO2
94908KDBQ DBQ20090217081009502/17/09 08:10:31  5-MIN KDBQ 171410Z 18009KT 9SM CLR M03/M07 A2987 1120 78 -800 180/09 RMK AO2
94908KDBQ DBQ20090217081509502/17/09 08:15:31  5-MIN KDBQ 171415Z 18010KT 9SM CLR M03/M07 A2987 1130 75 -700 170/10 RMK AO2
94908KDBQ DBQ20090217082009502/17/09 08:20:31  5-MIN KDBQ 171420Z 18012KT 9SM CLR M03/M06 A2987 1130 78 -700 180/12 RMK AO2
94908KDBQ DBQ20090217082509502/17/09 08:25:31  5-MIN KDBQ 171425Z 18011KT 9SM CLR M03/M06 A2987 1130 78 -700 170/11 RMK AO2
94908KDBQ DBQ20090217083009502/17/09 08:30:31  5-MIN KDBQ 171430Z 18011KT 9SM CLR M02/M06 A2987 1130 75 -600 180/11 RMK AO2
94908KDBQ DBQ20090217083509602/17/09 08:35:31  5-MIN KDBQ 171435Z 18011KT 10SM CLR M02/M06 A2987 1130 75 -600 180/11 RMK AO2
94908KDBQ DBQ20090217084009602/17/09 08:40:31  5-MIN KDBQ 171440Z 17011KT 10SM CLR M02/M06 A2986 1130 75 -600 170/11 RMK AO2
94908KDBQ DBQ20090217084509602/17/09 08:45:31  5-MIN KDBQ 171445Z 18013KT 10SM CLR M02/M06 A2986 1130 75 -600 180/13 RMK AO2
94908KDBQ DBQ20090217085011902/17/09 08:50:31  5-MIN KDBQ 171450Z 18013KT 10SM CLR M02/M06 A2986 1130 75 -500 180/13 RMK AO2 SLP125 T10171056 56028
94908KDBQ DBQ20090217085510202/17/09 08:55:31  5-MIN KDBQ 171455Z 18015G20KT 10SM CLR M02/M06 A2986 1140 75 -500 180/15G20 RMK AO2
94908KDBQ DBQ20090217090010602/17/09 09:00:31  5-MIN KDBQ 171500Z 18013G20KT 10SM CLR M01/M06 A2986 1140 72 -500 180/13G20 RMK AO2 PNO
94908KDBQ DBQ20090217090510402/17/09 09:05:31  5-MIN KDBQ 171505Z 18013G17KT 10SM CLR M01/M06 A2985 1140 72 -500 180/13G17 RMK AO2 $
94908KDBQ DBQ20090217091010802/17/09 09:10:31  5-MIN KDBQ 171510Z 18013G17KT 10SM CLR M01/M06 A2985 1150 72 -500 180/13G17 RMK AO2 PNO $
94908KDBQ DBQ20090217091509802/17/09 09:15:31  5-MIN KDBQ 171515Z 19014KT 10SM CLR M01/M06 A2985 1150 72 -500 180/14 RMK AO2 $
94908KDBQ DBQ20090217092009802/17/09 09:20:31  5-MIN KDBQ 171520Z 18014KT 10SM CLR M01/M06 A2984 1150 69 -400 180/14 RMK AO2 $
94908KDBQ DBQ20090217092509802/17/09 09:25:31  5-MIN KDBQ 171525Z 18013KT 10SM CLR M01/M05 A2984 1150 72 -400 180/13 RMK AO2 $
94908KDBQ DBQ20090217093009802/17/09 09:30:31  5-MIN KDBQ 171530Z 19013KT 10SM CLR M01/M05 A2984 1150 72 -400 190/13 RMK AO2 $
94908KDBQ DBQ20090217093509802/17/09 09:35:31  5-MIN KDBQ 171535Z 19013KT 10SM CLR M01/M05 A2984 1150 72 -400 190/13 RMK AO2 $
94908KDBQ DBQ20090217094009702/17/09 09:40:31  5-MIN KDBQ 171540Z 19015KT 10SM CLR 00/M05 A2984 1150 69 -300 190/15 RMK AO2 $
94908KDBQ DBQ20090217094510102/17/09 09:45:31  5-MIN KDBQ 171545Z 19014KT 10SM CLR 00/M05 A2984 1150 69 -300 190/14 RMK AO2 PNO $
94908KDBQ DBQ20090217095011402/17/09 09:50:31  5-MIN KDBQ 171550Z 19014KT 10SM CLR 00/M05 A2984 1160 69 -300 190/14 RMK AO2 SLP116 T00001050 $
94908KDBQ DBQ20090217095509702/17/09 09:55:31  5-MIN KDBQ 171555Z 18012KT 10SM CLR 00/M05 A2983 1160 69 -300 180/12 RMK AO2 $
94908KDBQ DBQ20090217100009702/17/09 10:00:31  5-MIN KDBQ 171600Z 18014KT 10SM CLR 01/M04 A2983 1160 69 -200 180/14 RMK AO2 $
94908KDBQ DBQ20090217100510302/17/09 10:05:31  5-MIN KDBQ 171605Z 18011G19KT 10SM CLR 01/M04 A2983 1170 69 -200 180/11G19 RMK AO2 $
94908KDBQ DBQ20090217101010302/17/09 10:10:31  5-MIN KDBQ 171610Z 19012G19KT 10SM CLR 01/M04 A2982 1170 69 -200 180/12G19 RMK AO2 $
94908KDBQ DBQ20090217101509702/17/09 10:15:31  5-MIN KDBQ 171615Z 18013KT 10SM CLR 01/M04 A2982 1170 69 -200 170/13 RMK AO2 $
94908KDBQ DBQ20090217102009702/17/09 10:20:31  5-MIN KDBQ 171620Z 18014KT 10SM CLR 01/M05 A2982 1170 66 -200 180/14 RMK AO2 $
94908KDBQ DBQ20090217102509702/17/09 10:25:31  5-MIN KDBQ 171625Z 17013KT 10SM CLR 01/M04 A2982 1170 69 -200 170/13 RMK AO2 $
94908KDBQ DBQ20090217103009702/17/09 10:30:31  5-MIN KDBQ 171630Z 17014KT 10SM CLR 01/M04 A2982 1180 69 -200 170/14 RMK AO2 $
94908KDBQ DBQ20090217103510302/17/09 10:35:31  5-MIN KDBQ 171635Z 17013KT 10SM CLR 01/M04 A2981 1180 66 -100 170/13 RMK AO2 P0001 $
94908KDBQ DBQ20090217104010102/17/09 10:40:31  5-MIN KDBQ 171640Z 17014KT 10SM CLR 01/M04 A2981 1180 69 -200 170/14 RMK AO2 P0001
94908KDBQ DBQ20090217104510102/17/09 10:45:31  5-MIN KDBQ 171645Z 17015KT 10SM CLR 02/M04 A2981 1180 66 -100 170/15 RMK AO2 P0001
94908KDBQ DBQ20090217105011802/17/09 10:50:31  5-MIN KDBQ 171650Z 17013KT 10SM CLR 02/M04 A2981 1180 66 -100 170/13 RMK AO2 SLP106 P0001 T00171039
94908KDBQ DBQ20090217105509502/17/09 10:55:31  5-MIN KDBQ 171655Z 17015KT 10SM CLR 02/M04 A2981 1180 66 -100 170/15 RMK AO2
94908KDBQ DBQ20090217110009502/17/09 11:00:31  5-MIN KDBQ 171700Z 18012KT 10SM CLR 01/M04 A2981 1190 69 -100 170/12 RMK AO2
94908KDBQ DBQ20090217110509502/17/09 11:05:31  5-MIN KDBQ 171705Z 18012KT 10SM CLR 02/M03 A2980 1190 69 -100 170/12 RMK AO2
94908KDBQ DBQ20090217111009502/17/09 11:10:31  5-MIN KDBQ 171710Z 18010KT 10SM CLR 02/M04 A2980 1190 66 -100 180/10 RMK AO2
94908KDBQ DBQ20090217111509502/17/09 11:15:31  5-MIN KDBQ 171715Z 18011KT 10SM CLR 02/M04 A2980 1190 66 -100 180/11 RMK AO2
94908KDBQ DBQ20090217112009202/17/09 11:20:31  5-MIN KDBQ 171720Z 18014KT 10SM CLR 02/M04 A2980 1190 66 0 180/14 RMK AO2
94908KDBQ DBQ20090217112509202/17/09 11:25:31  5-MIN KDBQ 171725Z 17015KT 10SM CLR 02/M04 A2979 1200 66 0 170/15 RMK AO2
94908KDBQ DBQ20090217113009202/17/09 11:30:31  5-MIN KDBQ 171730Z 18014KT 10SM CLR 02/M04 A2979 1200 66 0 170/14 RMK AO2
94908KDBQ DBQ20090217113509202/17/09 11:35:31  5-MIN KDBQ 171735Z 17015KT 10SM CLR 02/M03 A2978 1200 69 0 170/15 RMK AO2
94908KDBQ DBQ20090217114009202/17/09 11:40:31  5-MIN KDBQ 171740Z 17012KT 10SM CLR 02/M03 A2978 1210 69 0 170/12 RMK AO2
94908KDBQ DBQ20090217114509202/17/09 11:45:31  5-MIN KDBQ 171745Z 18013KT 10SM CLR 02/M03 A2978 1210 69 0 170/13 RMK AO2
94908KDBQ DBQ20090217115013302/17/09 11:50:31  5-MIN KDBQ 171750Z 17014KT 10SM CLR 02/M03 A2977 1220 67 0 170/14 RMK AO2 SLP093 60001 T00221033 10022 21044 56022
94908KDBQ DBQ20090217115509202/17/09 11:55:31  5-MIN KDBQ 171755Z 17013KT 10SM CLR 02/M03 A2977 1220 67 0 170/13 RMK AO2
94908KDBQ DBQ20090217120009402/17/09 12:00:31  5-MIN KDBQ 171800Z 17010KT 10SM CLR 03/M03 A2976 1220 67 100 170/10 RMK AO2
94908KDBQ DBQ20090217120510002/17/09 12:05:31  5-MIN KDBQ 171805Z 18012G17KT 10SM CLR 03/M02 A2976 1220 67 100 180/12G17 RMK AO2
94908KDBQ DBQ20090217121010002/17/09 12:10:31  5-MIN KDBQ 171810Z 18010G17KT 10SM CLR 03/M02 A2976 1230 67 100 180/10G17 RMK AO2
94908KDBQ DBQ20090217121509402/17/09 12:15:31  5-MIN KDBQ 171815Z 17011KT 10SM CLR 03/M03 A2976 1230 64 200 170/11 RMK AO2
94908KDBQ DBQ20090217122009402/17/09 12:20:31  5-MIN KDBQ 171820Z 18011KT 10SM CLR 03/M02 A2975 1230 67 200 180/11 RMK AO2
94908KDBQ DBQ20090217122509702/17/09 12:25:31  5-MIN KDBQ 171825Z 18013KT 10SM FEW037 04/M02 A2975 1240 64 200 180/13 RMK AO2
94908KDBQ DBQ20090217123009702/17/09 12:30:31  5-MIN KDBQ 171830Z 16012KT 10SM SCT037 04/M02 A2975 1240 64 200 160/12 RMK AO2
94908KDBQ DBQ20090217123509702/17/09 12:35:31  5-MIN KDBQ 171835Z 16011KT 10SM SCT037 03/M02 A2974 1240 67 200 160/11 RMK AO2
94908KDBQ DBQ20090217124009702/17/09 12:40:31  5-MIN KDBQ 171840Z 17011KT 10SM SCT037 03/M02 A2974 1250 67 200 170/11 RMK AO2
94908KDBQ DBQ20090217124509702/17/09 12:45:31  5-MIN KDBQ 171845Z 18012KT 10SM SCT037 04/M02 A2974 1250 64 200 180/12 RMK AO2
94908KDBQ DBQ20090217125011402/17/09 12:50:31  5-MIN KDBQ 171850Z 18010KT 10SM SCT037 03/M02 A2974 1250 67 200 180/10 RMK AO2 SLP082 T00331022
94908KDBQ DBQ20090217125509702/17/09 12:55:31  5-MIN KDBQ 171855Z 18011KT 10SM SCT037 04/M02 A2974 1250 64 200 180/11 RMK AO2
94908KDBQ DBQ20090217130009702/17/09 13:00:31  5-MIN KDBQ 171900Z 17010KT 10SM SCT037 04/M02 A2973 1250 67 300 170/10 RMK AO2
94908KDBQ DBQ20090217130509702/17/09 13:05:31  5-MIN KDBQ 171905Z 17011KT 10SM FEW035 04/M01 A2973 1260 67 300 170/11 RMK AO2
94908KDBQ DBQ20090217131010402/17/09 13:10:31  5-MIN KDBQ 171910Z 17011KT 10SM FEW035 04/M02 A2972 1270 64 300 170/11 RMK AO2 PRESFR
94908KDBQ DBQ20090217131510602/17/09 13:15:31  5-MIN KDBQ 171915Z 16011KT 10SM SCT037 04/M02 A2971 1270 64 300 160/11 RMK AO2 PRESFR $
94908KDBQ DBQ20090217132009902/17/09 13:20:31  5-MIN KDBQ 171920Z 17011KT 10SM BKN037 04/M02 A2971 1280 64 300 170/11 RMK AO2 $
94908KDBQ DBQ20090217132509902/17/09 13:25:31  5-MIN KDBQ 171925Z 17011KT 10SM SCT037 04/M01 A2970 1280 67 400 170/11 RMK AO2 $
94908KDBQ DBQ20090217133009902/17/09 13:30:31  5-MIN KDBQ 171930Z 17010KT 10SM SCT037 04/M01 A2970 1280 67 400 170/10 RMK AO2 $
94908KDBQ DBQ20090217133510502/17/09 13:35:31  5-MIN KDBQ 171935Z 17013G17KT 10SM SCT039 04/M01 A2970 1280 67 400 170/13G17 RMK AO2 $
94908KDBQ DBQ20090217134009902/17/09 13:40:31  5-MIN KDBQ 171940Z 17012KT 10SM FEW039 05/M01 A2969 1290 64 400 170/12 RMK AO2 $
94908KDBQ DBQ20090217134509902/17/09 13:45:31  5-MIN KDBQ 171945Z 17011KT 10SM FEW039 05/M01 A2969 1290 67 400 170/11 RMK AO2 $
94908KDBQ DBQ20090217135011602/17/09 13:50:31  5-MIN KDBQ 171950Z 17012KT 10SM FEW033 05/M01 A2969 1290 67 400 170/12 RMK AO2 SLP065 T00501006 $
94908KDBQ DBQ20090217135509902/17/09 13:55:31  5-MIN KDBQ 171955Z 18014KT 10SM SCT033 04/M01 A2969 1290 70 400 180/14 RMK AO2 $
94908KDBQ DBQ20090217140009902/17/09 14:00:31  5-MIN KDBQ 172000Z 17012KT 10SM BKN033 05/M01 A2968 1300 67 400 170/12 RMK AO2 $
94908KDBQ DBQ20090217140510502/17/09 14:05:31  5-MIN KDBQ 172005Z 17014G18KT 10SM BKN033 04/M01 A2968 1300 70 400 170/14G18 RMK AO2 $
94908KDBQ DBQ20090217141009902/17/09 14:10:31  5-MIN KDBQ 172010Z 18015KT 10SM BKN035 04/M01 A2968 1300 70 400 180/15 RMK AO2 $
94908KDBQ DBQ20090217141510502/17/09 14:15:31  5-MIN KDBQ 172015Z 17012G19KT 10SM OVC035 04/M01 A2968 1300 70 400 170/12G19 RMK AO2 $
94908KDBQ DBQ20090217142009902/17/09 14:20:31  5-MIN KDBQ 172020Z 17015KT 10SM OVC035 04/M01 A2968 1310 70 400 170/15 RMK AO2 $
94908KDBQ DBQ20090217142509902/17/09 14:25:31  5-MIN KDBQ 172025Z 17014KT 10SM OVC035 04/M01 A2967 1310 70 400 170/14 RMK AO2 $
94908KDBQ DBQ20090217143009902/17/09 14:30:31  5-MIN KDBQ 172030Z 17014KT 10SM OVC037 04/M01 A2967 1310 70 400 170/14 RMK AO2 $
94908KDBQ DBQ20090217143509902/17/09 14:35:31  5-MIN KDBQ 172035Z 17013KT 10SM OVC037 04/M01 A2967 1310 73 300 170/13 RMK AO2 $
94908KDBQ DBQ20090217144009802/17/09 14:40:31  5-MIN KDBQ 172040Z 17014KT 9SM OVC037 04/M01 A2966 1320 73 300 170/14 RMK AO2 $
94908KDBQ DBQ20090217144509902/17/09 14:45:31  5-MIN KDBQ 172045Z 18012KT 10SM OVC035 04/M01 A2966 1320 73 300 170/12 RMK AO2 $
94908KDBQ DBQ20090217145012202/17/09 14:50:31  5-MIN KDBQ 172050Z 18014KT 10SM OVC035 04/M01 A2966 1320 73 300 180/14 RMK AO2 SLP054 T00391006 58030 $
94908KDBQ DBQ20090217145510202/17/09 14:55:31  5-MIN KDBQ 172055Z 17016G20KT 9SM OVC035 04/M01 A2966 1320 70 300 170/16G20 RMK AO2
94908KDBQ DBQ20090217150009602/17/09 15:00:31  5-MIN KDBQ 172100Z 18014KT 9SM OVC035 03/M01 A2966 1320 72 300 170/14 RMK AO2
94908KDBQ DBQ20090217150509602/17/09 15:05:31  5-MIN KDBQ 172105Z 19013KT 9SM OVC033 03/M01 A2965 1330 72 300 180/13 RMK AO2
94908KDBQ DBQ20090217151010202/17/09 15:10:31  5-MIN KDBQ 172110Z 19012G19KT 9SM OVC033 03/M01 A2965 1330 72 300 180/12G19 RMK AO2
94908KDBQ DBQ20090217151510202/17/09 15:15:31  5-MIN KDBQ 172115Z 19013G19KT 9SM OVC033 03/M01 A2965 1330 75 200 180/13G19 RMK AO2
94908KDBQ DBQ20090217152010202/17/09 15:20:31  5-MIN KDBQ 172120Z 18015G21KT 9SM OVC033 03/M01 A2965 1330 75 200 180/15G21 RMK AO2
94908KDBQ DBQ20090217152510202/17/09 15:25:31  5-MIN KDBQ 172125Z 18014G21KT 9SM OVC031 03/M02 A2964 1340 72 200 180/14G21 RMK AO2
94908KDBQ DBQ20090217153010202/17/09 15:30:31  5-MIN KDBQ 172130Z 18015G22KT 9SM OVC031 02/M02 A2964 1340 75 200 180/15G22 RMK AO2
94908KDBQ DBQ20090217153510402/17/09 15:35:31  5-MIN KDBQ 172135Z 18015G22KT 9SM OVC031 02/M02 A2964 1340 75 200 180/15G22 RMK AO2 $
94908KDBQ DBQ20090217154009802/17/09 15:40:31  5-MIN KDBQ 172140Z 18014KT 9SM OVC031 02/M02 A2964 1340 75 200 180/14 RMK AO2 $
94908KDBQ DBQ20090217154509802/17/09 15:45:31  5-MIN KDBQ 172145Z 18013KT 9SM OVC029 02/M02 A2963 1350 75 200 180/13 RMK AO2 $
94908KDBQ DBQ20090217155011502/17/09 15:50:31  5-MIN KDBQ 172150Z 18011KT 9SM OVC029 02/M02 A2963 1350 75 200 180/11 RMK AO2 SLP045 T00221017 $
94908KDBQ DBQ20090217155510402/17/09 15:55:31  5-MIN KDBQ 172155Z 18012G18KT 9SM OVC029 02/M01 A2963 1350 78 200 180/12G18 RMK AO2 $
94908KDBQ DBQ20090217160009802/17/09 16:00:31  5-MIN KDBQ 172200Z 18013KT 8SM OVC029 02/M01 A2962 1350 78 200 180/13 RMK AO2 $
94908KDBQ DBQ20090217160509802/17/09 16:05:31  5-MIN KDBQ 172205Z 17012KT 8SM OVC027 02/M01 A2962 1360 78 200 170/12 RMK AO2 $
94908KDBQ DBQ20090217161009802/17/09 16:10:31  5-MIN KDBQ 172210Z 17016KT 8SM OVC027 02/M01 A2962 1360 78 200 170/16 RMK AO2 $
94908KDBQ DBQ20090217161510502/17/09 16:15:31  5-MIN KDBQ 172215Z 18016KT 8SM FEW016 OVC025 02/M02 A2962 1360 78 100 170/16 RMK AO2 $
94908KDBQ DBQ20090217162010502/17/09 16:20:31  5-MIN KDBQ 172220Z 18014KT 7SM SCT016 OVC025 02/M02 A2961 1360 78 100 180/14 RMK AO2 $
94908KDBQ DBQ20090217162511102/17/09 16:25:31  5-MIN KDBQ 172225Z 17012G19KT 7SM BKN016 OVC025 02/M02 A2961 1370 78 100 170/12G19 RMK AO2 $
94908KDBQ DBQ20090217163010502/17/09 16:30:31  5-MIN KDBQ 172230Z 17014KT 7SM BKN016 OVC025 02/M02 A2960 1370 78 100 170/14 RMK AO2 $
94908KDBQ DBQ20090217163510502/17/09 16:35:31  5-MIN KDBQ 172235Z 17012KT 7SM BKN014 OVC025 02/M02 A2960 1370 78 100 170/12 RMK AO2 $
94908KDBQ DBQ20090217164010402/17/09 16:40:31  5-MIN KDBQ 172240Z 17012G18KT 7SM OVC014 02/M02 A2960 1370 78 100 170/12G18 RMK AO2 $
94908KDBQ DBQ20090217164509802/17/09 16:45:31  5-MIN KDBQ 172245Z 17013KT 7SM OVC014 02/M02 A2960 1380 78 100 170/13 RMK AO2 $
94908KDBQ DBQ20090217165011502/17/09 16:50:31  5-MIN KDBQ 172250Z 17013KT 7SM OVC014 02/M02 A2960 1380 78 100 170/13 RMK AO2 SLP034 T00171017 $
94908KDBQ DBQ20090217165509802/17/09 16:55:31  5-MIN KDBQ 172255Z 17012KT 7SM OVC014 02/M01 A2959 1380 82 100 170/12 RMK AO2 $
94908KDBQ DBQ20090217170009802/17/09 17:00:31  5-MIN KDBQ 172300Z 17012KT 7SM OVC014 02/M01 A2959 1380 82 100 170/12 RMK AO2 $
94908KDBQ DBQ20090217170509802/17/09 17:05:31  5-MIN KDBQ 172305Z 17011KT 7SM OVC014 02/M01 A2959 1380 82 100 170/11 RMK AO2 $
94908KDBQ DBQ20090217171010702/17/09 17:10:31  5-MIN KDBQ 172310Z 17010G17KT 6SM HZ OVC014 02/M01 A2959 1390 82 100 170/10G17 RMK AO2 $
94908KDBQ DBQ20090217171510102/17/09 17:15:31  5-MIN KDBQ 172315Z 17011KT 6SM HZ OVC014 02/M01 A2959 1390 82 100 170/11 RMK AO2 $
94908KDBQ DBQ20090217172010102/17/09 17:20:31  5-MIN KDBQ 172320Z 16012KT 6SM HZ OVC014 02/M01 A2959 1390 82 100 160/12 RMK AO2 $
94908KDBQ DBQ20090217172510702/17/09 17:25:31  5-MIN KDBQ 172325Z 17011G18KT 6SM HZ OVC014 02/M01 A2959 1390 82 100 160/11G18 RMK AO2 $
94908KDBQ DBQ20090217173010702/17/09 17:30:31  5-MIN KDBQ 172330Z 16012G18KT 6SM HZ OVC014 02/M01 A2959 1390 82 100 160/12G18 RMK AO2 $
94908KDBQ DBQ20090217173510102/17/09 17:35:31  5-MIN KDBQ 172335Z 17011KT 6SM HZ OVC014 02/M01 A2959 1390 82 100 170/11 RMK AO2 $
94908KDBQ DBQ20090217174010102/17/09 17:40:31  5-MIN KDBQ 172340Z 17012KT 6SM HZ OVC014 02/M01 A2959 1390 82 100 170/12 RMK AO2 $
94908KDBQ DBQ20090217174510102/17/09 17:45:31  5-MIN KDBQ 172345Z 17008KT 6SM BR OVC014 01/M01 A2959 1390 85 100 160/08 RMK AO2 $
94908KDBQ DBQ20090217175013602/17/09 17:50:31  5-MIN KDBQ 172350Z 16007KT 6SM BR OVC014 01/M01 A2959 1390 85 100 160/07 RMK AO2 SLP031 T00111011 10050 20011 58036 $
94908KDBQ DBQ20090217175510102/17/09 17:55:31  5-MIN KDBQ 172355Z 16009KT 6SM BR OVC012 01/M01 A2959 1390 85 100 160/09 RMK AO2 $
94908KDBQ DBQ20090217180010102/17/09 18:00:31  5-MIN KDBQ 180000Z 16011KT 6SM BR OVC012 01/M01 A2958 1390 85 100 160/11 RMK AO2 $
94908KDBQ DBQ20090217180510102/17/09 18:05:31  5-MIN KDBQ 180005Z 16009KT 5SM BR OVC012 01/M01 A2958 1390 85 100 160/09 RMK AO2 $
94908KDBQ DBQ20090217181010102/17/09 18:10:31  5-MIN KDBQ 180010Z 16010KT 4SM BR OVC012 01/M01 A2958 1390 85 100 160/10 RMK AO2 $
94908KDBQ DBQ20090217181509902/17/09 18:15:31  5-MIN KDBQ 180015Z 16010KT 4SM BR OVC012 01/M01 A2958 1390 89 0 160/10 RMK AO2 $
94908KDBQ DBQ20090217182009902/17/09 18:20:31  5-MIN KDBQ 180020Z 16010KT 3SM BR OVC012 01/M01 A2958 1390 89 0 160/10 RMK AO2 $
94908KDBQ DBQ20090217182509902/17/09 18:25:31  5-MIN KDBQ 180025Z 16010KT 3SM BR OVC010 01/M01 A2958 1390 92 0 160/10 RMK AO2 $
94908KDBQ DBQ20090217183011102/17/09 18:30:31  5-MIN KDBQ 180030Z 16010KT 3SM BR OVC010 01/M01 A2958 1390 92 0 160/10 RMK AO2 CIG 008V012 $
94908KDBQ DBQ20090217183511502/17/09 18:35:31  5-MIN KDBQ 180035Z 16010KT 2 1/2SM BR OVC010 01/M01 A2958 1390 92 0 160/10 RMK AO2 CIG 007V011 $
94908KDBQ DBQ20090217184010302/17/09 18:40:31  5-MIN KDBQ 180040Z 16009KT 2 1/2SM BR OVC010 01/M01 A2958 1390 92 0 160/09 RMK AO2 $
94908KDBQ DBQ20090217184510302/17/09 18:45:31  5-MIN KDBQ 180045Z 16008KT 2 1/2SM BR OVC010 01/M01 A2958 1390 92 0 160/08 RMK AO2 $
94908KDBQ DBQ20090217185012002/17/09 18:50:31  5-MIN KDBQ 180050Z 16006KT 2 1/2SM BR OVC010 01/M01 A2958 1390 92 0 160/06 RMK AO2 SLP030 T00061006 $
94908KDBQ DBQ20090217185511102/17/09 18:55:31  5-MIN KDBQ 180055Z 16006KT 2SM BR OVC008 01/M01 A2958 1390 92 0 160/06 RMK AO2 CIG 004V009 $
94908KDBQ DBQ20090217190011102/17/09 19:00:31  5-MIN KDBQ 180100Z 16007KT 2SM BR OVC008 01/M01 A2958 1390 92 0 160/07 RMK AO2 CIG 003V009 $
94908KDBQ DBQ20090217190510502/17/09 19:05:31  5-MIN KDBQ 180105Z 16006KT 2SM BR BKN004 OVC008 01/00 A2958 1390 96 0 160/06 RMK AO2 $
94908KDBQ DBQ20090217191010902/17/09 19:10:31  5-MIN KDBQ 180110Z 16006KT 1 3/4SM BR BKN004 OVC008 01/00 A2958 1400 96 0 150/06 RMK AO2 $
94908KDBQ DBQ20090217191511402/17/09 19:15:31  5-MIN KDBQ 180115Z 16008KT 1 3/4SM BR OVC004 01/00 A2957 1400 96 0 160/08 RMK AO2 CIG 003V008 $
94908KDBQ DBQ20090217192010202/17/09 19:20:31  5-MIN KDBQ 180120Z 15007KT 1 1/2SM BR OVC004 01/00 A2957 1400 96 0 150/07 RMK AO2 $
94908KDBQ DBQ20090217192510202/17/09 19:25:31  5-MIN KDBQ 180125Z 15007KT 1 1/2SM BR OVC004 01/00 A2957 1400 96 0 150/07 RMK AO2 $
94908KDBQ DBQ20090217193010802/17/09 19:30:31  5-MIN KDBQ 180130Z 16007KT 1 1/2SM BR OVC004 01/00 A2957 1400 96 0 160/07 RMK AO2 P0001 $
94908KDBQ DBQ20090217193510802/17/09 19:35:31  5-MIN KDBQ 180135Z 16007KT 1 1/2SM BR OVC004 01/00 A2957 1410 96 0 150/07 RMK AO2 P0001 $
94908KDBQ DBQ20090217194010802/17/09 19:40:31  5-MIN KDBQ 180140Z 15007KT 1 1/2SM BR OVC004 01/00 A2957 1410 96 0 150/07 RMK AO2 P0001 $
94908KDBQ DBQ20090217194510802/17/09 19:45:31  5-MIN KDBQ 180145Z 16007KT 1 1/2SM BR OVC004 01/00 A2957 1410 96 0 150/07 RMK AO2 P0001 $
94908KDBQ DBQ20090217195012502/17/09 19:50:31  5-MIN KDBQ 180150Z 16007KT 1 1/2SM BR OVC004 01/00 A2956 1410 96 0 160/07 RMK AO2 SLP024 P0001 T00060000 $
94908KDBQ DBQ20090217195512502/17/09 19:55:31  5-MIN KDBQ 180155Z AUTO 16007KT 1 3/4SM BR OVC004 01/00 A2956 1410 96 0 150/07 RMK AO2 CIG 002V006 P0001 $
94908KDBQ DBQ20090217200012502/17/09 20:00:31  5-MIN KDBQ 180200Z AUTO 16006KT 1 3/4SM BR OVC004 01/00 A2956 1410 96 0 160/06 RMK AO2 CIG 002V006 P0002 $
94908KDBQ DBQ20090217200512102/17/09 20:05:31  5-MIN KDBQ 180205Z AUTO 16008KT 2SM BR OVC004 01/00 A2956 1420 96 0 160/08 RMK AO2 CIG 002V006 P0002 $
94908KDBQ DBQ20090217201012502/17/09 20:10:31  5-MIN KDBQ 180210Z AUTO 16007KT 2 1/2SM BR OVC004 01/00 A2955 1420 96 0 150/07 RMK AO2 CIG 002V007 P0002 $
94908KDBQ DBQ20090217201512102/17/09 20:15:31  5-MIN KDBQ 180215Z AUTO 16007KT 2SM BR OVC004 01/00 A2955 1420 96 0 160/07 RMK AO2 CIG 002V007 P0002 $
94908KDBQ DBQ20090217202012302/17/09 20:20:31  5-MIN KDBQ 180220Z AUTO 16008KT 2SM BR OVC004 01/00 A2955 1420 96 100 160/08 RMK AO2 CIG 002V007 P0002 $
94908KDBQ DBQ20090217202512302/17/09 20:25:31  5-MIN KDBQ 180225Z AUTO 16009KT 2SM BR OVC004 01/00 A2954 1430 96 100 160/09 RMK AO2 CIG 002V007 P0002 $
94908KDBQ DBQ20090217203012702/17/09 20:30:31  5-MIN KDBQ 180230Z AUTO 16009KT 1 3/4SM BR OVC004 01/00 A2954 1430 96 100 160/09 RMK AO2 CIG 002V007 P0002 $
94908KDBQ DBQ20090217203511102/17/09 20:35:31  5-MIN KDBQ 180235Z AUTO 16009KT 2SM BR OVC004 01/00 A2954 1430 96 100 160/09 RMK AO2 P0002 $
94908KDBQ DBQ20090217204011102/17/09 20:40:31  5-MIN KDBQ 180240Z AUTO 16009KT 2SM BR OVC004 01/00 A2954 1430 96 100 160/09 RMK AO2 P0002 $
94908KDBQ DBQ20090217204511502/17/09 20:45:31  5-MIN KDBQ 180245Z AUTO 16010KT 1 3/4SM BR OVC004 01/00 A2954 1430 96 100 160/10 RMK AO2 P0002 $
94908KDBQ DBQ20090217205014002/17/09 20:50:31  5-MIN KDBQ 180250Z AUTO 16010KT 2SM BR OVC004 01/00 A2954 1440 96 100 160/10 RMK AO2 SLP013 P0002 60003 T00060000 58015 $
94908KDBQ DBQ20090217205510502/17/09 20:55:31  5-MIN KDBQ 180255Z AUTO 16009KT 2SM BR OVC004 01/00 A2953 1440 96 100 160/09 RMK AO2 $
94908KDBQ DBQ20090217210010502/17/09 21:00:31  5-MIN KDBQ 180300Z AUTO 17009KT 2SM BR OVC004 01/00 A2953 1440 96 100 160/09 RMK AO2 $
94908KDBQ DBQ20090217210510502/17/09 21:05:31  5-MIN KDBQ 180305Z AUTO 17009KT 2SM BR OVC004 01/00 A2953 1440 96 100 170/09 RMK AO2 $
94908KDBQ DBQ20090217211010502/17/09 21:10:31  5-MIN KDBQ 180310Z AUTO 17008KT 2SM BR OVC004 01/00 A2953 1440 96 100 160/08 RMK AO2 $
94908KDBQ DBQ20090217211510902/17/09 21:15:31  5-MIN KDBQ 180315Z AUTO 16008KT 2 1/2SM BR OVC004 01/00 A2953 1450 96 100 160/08 RMK AO2 $
94908KDBQ DBQ20090217212010902/17/09 21:20:31  5-MIN KDBQ 180320Z AUTO 15008KT 2 1/2SM BR OVC004 01/00 A2952 1450 96 100 150/08 RMK AO2 $
94908KDBQ DBQ20090217212512102/17/09 21:25:31  5-MIN KDBQ 180325Z AUTO 16007KT 2 1/2SM BR OVC004 01/00 A2952 1450 96 100 160/07 RMK AO2 CIG 002V007 $
94908KDBQ DBQ20090217213010902/17/09 21:30:31  5-MIN KDBQ 180330Z AUTO 16008KT 2 1/2SM BR OVC004 01/00 A2952 1450 96 100 160/08 RMK AO2 $
94908KDBQ DBQ20090217213512102/17/09 21:35:31  5-MIN KDBQ 180335Z AUTO 16007KT 2 1/2SM BR OVC004 01/00 A2952 1450 96 100 160/07 RMK AO2 CIG 002V007 $
94908KDBQ DBQ20090217214012102/17/09 21:40:31  5-MIN KDBQ 180340Z AUTO 16008KT 2 1/2SM BR OVC004 01/00 A2952 1460 96 100 160/08 RMK AO2 CIG 002V007 $
94908KDBQ DBQ20090217214510502/17/09 21:45:31  5-MIN KDBQ 180345Z AUTO 16008KT 3SM BR OVC004 01/00 A2951 1460 96 100 160/08 RMK AO2 $
94908KDBQ DBQ20090217215012602/17/09 21:50:31  5-MIN KDBQ 180350Z AUTO 16008KT 2 1/2SM BR OVC004 01/00 A2951 1460 96 100 160/08 RMK AO2 SLP002 T00060000 $
94908KDBQ DBQ20090217215510902/17/09 21:55:31  5-MIN KDBQ 180355Z AUTO 16008KT 2 1/2SM BR OVC002 01/00 A2950 1470 96 100 150/08 RMK AO2 $
94908KDBQ DBQ20090217220010902/17/09 22:00:31  5-MIN KDBQ 180400Z AUTO 16008KT 2 1/2SM BR OVC002 01/00 A2950 1470 96 100 160/08 RMK AO2 $
94908KDBQ DBQ20090217220510902/17/09 22:05:31  5-MIN KDBQ 180405Z AUTO 16007KT 2 1/2SM BR OVC002 01/00 A2950 1470 96 100 160/07 RMK AO2 $
94908KDBQ DBQ20090217221010502/17/09 22:10:31  5-MIN KDBQ 180410Z AUTO 16007KT 3SM BR OVC002 01/00 A2950 1470 96 100 160/07 RMK AO2 $
94908KDBQ DBQ20090217221510902/17/09 22:15:31  5-MIN KDBQ 180415Z AUTO 16008KT 2 1/2SM BR OVC002 01/00 A2949 1480 96 100 160/08 RMK AO2 $
94908KDBQ DBQ20090217222010902/17/09 22:20:31  5-MIN KDBQ 180420Z AUTO 15008KT 2 1/2SM BR OVC002 01/00 A2948 1490 96 100 150/08 RMK AO2 $
94908KDBQ DBQ20090217222511602/17/09 22:25:31  5-MIN KDBQ 180425Z AUTO 15007KT 2 1/2SM BR OVC002 01/00 A2948 1490 96 100 150/07 RMK AO2 PRESFR $
94908KDBQ DBQ20090217223010902/17/09 22:30:31  5-MIN KDBQ 180430Z AUTO 16007KT 2 1/2SM BR OVC002 01/00 A2948 1490 96 100 160/07 RMK AO2 $
94908KDBQ DBQ20090217223510902/17/09 22:35:31  5-MIN KDBQ 180435Z AUTO 17008KT 2 1/2SM BR OVC002 01/00 A2948 1490 96 100 170/08 RMK AO2 $
94908KDBQ DBQ20090217224010902/17/09 22:40:31  5-MIN KDBQ 180440Z AUTO 17009KT 2 1/2SM BR OVC002 01/00 A2948 1490 96 100 170/09 RMK AO2 $
94908KDBQ DBQ20090217224510502/17/09 22:45:31  5-MIN KDBQ 180445Z AUTO 17008KT 2SM BR OVC002 01/00 A2948 1490 96 100 170/08 RMK AO2 $
94908KDBQ DBQ20090217225010902/17/09 22:50:31  5-MIN KDBQ 180450Z AUTO 18008KT 1 3/4SM BR OVC002 01/00 A2948 1490 96 100 180/08 RMK AO2 $
94908KDBQ DBQ20090217225510902/17/09 22:55:31  5-MIN KDBQ 180455Z AUTO 17009KT 1 1/2SM BR OVC002 01/00 A2948 1490 96 100 170/09 RMK AO2 $
94908KDBQ DBQ20090217230010902/17/09 23:00:31  5-MIN KDBQ 180500Z AUTO 17009KT 1 1/4SM BR OVC002 01/00 A2948 1490 96 100 170/09 RMK AO2 $
94908KDBQ DBQ20090217230510502/17/09 23:05:31  5-MIN KDBQ 180505Z AUTO 17009KT 1SM BR OVC002 01/00 A2948 1490 96 100 170/09 RMK AO2 $
94908KDBQ DBQ20090217231010702/17/09 23:10:31  5-MIN KDBQ 180510Z AUTO 17008KT 3/4SM BR OVC002 01/00 A2947 1490 96 100 170/08 RMK AO2 $
94908KDBQ DBQ20090217231510702/17/09 23:15:31  5-MIN KDBQ 180515Z AUTO 17007KT 1/2SM FG OVC002 01/00 A2947 1500 96 100 170/07 RMK AO2 $
94908KDBQ DBQ20090217232010602/17/09 23:20:31  5-MIN KDBQ 180520Z AUTO 16009KT 1/2SM FG VV001 01/00 A2946 1500 96 100 160/09 RMK AO2 $
94908KDBQ DBQ20090217232510602/17/09 23:25:31  5-MIN KDBQ 180525Z AUTO 17008KT 1/4SM FG VV001 01/00 A2946 1500 96 200 170/08 RMK AO2 $
94908KDBQ DBQ20090217233010602/17/09 23:30:31  5-MIN KDBQ 180530Z AUTO 17008KT 1/4SM FG VV001 01/00 A2946 1510 96 200 170/08 RMK AO2 $
94908KDBQ DBQ20090217233510602/17/09 23:35:31  5-MIN KDBQ 180535Z AUTO 17007KT 1/4SM FG VV001 01/00 A2946 1510 96 200 170/07 RMK AO2 $
94908KDBQ DBQ20090217234010602/17/09 23:40:31  5-MIN KDBQ 180540Z AUTO 17007KT 1/4SM FG VV001 01/00 A2946 1510 96 200 170/07 RMK AO2 $
94908KDBQ DBQ20090217234510602/17/09 23:45:31  5-MIN KDBQ 180545Z AUTO 18008KT 1/4SM FG VV001 01/00 A2946 1510 96 200 170/08 RMK AO2 $
94908KDBQ DBQ20090217235016302/17/09 23:50:31  5-MIN KDBQ 180550Z AUTO 18006KT 1/4SM FG VV001 01/00 A2946 1510 96 200 180/06 RMK AO2 SLP984 P0001 60004 T00060000 10006 20006 400501050 58017 $
94908KDBQ DBQ20090217235510602/17/09 23:55:31  5-MIN KDBQ 180555Z AUTO 18007KT 1/4SM FG VV001 01/00 A2946 1510 96 200 180/07 RMK AO2 $
94908KDBQ DBQ20090218000010602/18/09 00:00:38  5-MIN KDBQ 180600Z AUTO 18007KT 1/4SM FG VV001 01/00 A2945 1510 96 200 180/07 RMK AO2 $
94908KDBQ DBQ20090218000510602/18/09 00:05:31  5-MIN KDBQ 180605Z AUTO 18007KT 1/4SM FG VV001 01/00 A2945 1520 96 200 170/07 RMK AO2 $
94908KDBQ DBQ20090218001010602/18/09 00:10:31  5-MIN KDBQ 180610Z AUTO 18007KT 1/4SM FG VV001 01/00 A2944 1520 96 200 180/07 RMK AO2 $
94908KDBQ DBQ20090218001510602/18/09 00:15:32  5-MIN KDBQ 180615Z AUTO 17007KT 1/4SM FG VV001 01/00 A2944 1530 96 200 170/07 RMK AO2 $
94908KDBQ DBQ20090218002011302/18/09 00:20:31  5-MIN KDBQ 180620Z AUTO 17007KT 1/4SM FG VV001 01/00 A2943 1530 96 200 170/07 RMK AO2 PRESFR $
94908KDBQ DBQ20090218002510602/18/09 00:25:31  5-MIN KDBQ 180625Z AUTO 17006KT 1/4SM FG VV001 01/00 A2943 1540 96 200 170/06 RMK AO2 $
94908KDBQ DBQ20090218003010602/18/09 00:30:31  5-MIN KDBQ 180630Z AUTO 17007KT 1/4SM FG VV001 01/00 A2942 1540 96 200 170/07 RMK AO2 $
94908KDBQ DBQ20090218003511302/18/09 00:35:31  5-MIN KDBQ 180635Z AUTO 17005KT 1/4SM FG VV001 01/00 A2942 1550 96 200 160/05 RMK AO2 PRESFR $
94908KDBQ DBQ20090218004011302/18/09 00:40:31  5-MIN KDBQ 180640Z AUTO 16006KT 1/4SM FG VV001 01/00 A2941 1550 96 200 160/06 RMK AO2 PRESFR $
94908KDBQ DBQ20090218004511202/18/09 00:45:31  5-MIN KDBQ 180645Z AUTO 16006KT 1/4SM FG VV001 01/00 A2941 1560 96 200 160/06 RMK AO2 P0001 $
94908KDBQ DBQ20090218005012902/18/09 00:50:31  5-MIN KDBQ 180650Z AUTO 16005KT 1/4SM FG VV001 01/00 A2940 1560 96 200 160/05 RMK AO2 SLP965 P0001 T00060000 $
94908KDBQ DBQ20090218005510602/18/09 00:55:31  5-MIN KDBQ 180655Z AUTO 16007KT 1/4SM FG VV001 01/00 A2940 1560 96 200 160/07 RMK AO2 $
94908KDBQ DBQ20090218010010602/18/09 01:00:31  5-MIN KDBQ 180700Z AUTO 15007KT 1/4SM FG VV001 01/00 A2940 1560 96 200 150/07 RMK AO2 $
94908KDBQ DBQ20090218010510602/18/09 01:05:31  5-MIN KDBQ 180705Z AUTO 15006KT 1/4SM FG VV001 01/00 A2940 1560 96 200 150/06 RMK AO2 $
94908KDBQ DBQ20090218011010602/18/09 01:10:31  5-MIN KDBQ 180710Z AUTO 16005KT 1/4SM FG VV001 01/00 A2940 1560 96 200 160/05 RMK AO2 $
94908KDBQ DBQ20090218011510702/18/09 01:15:31  5-MIN KDBQ 180715Z AUTO 17004KT 1/4SM FG VV001 01/01 A2941 1560 100 200 170/04 RMK AO2 $
94908KDBQ DBQ20090218012010702/18/09 01:20:31  5-MIN KDBQ 180720Z AUTO 16003KT 1/4SM FG VV001 01/01 A2941 1550 100 200 160/03 RMK AO2 $
94908KDBQ DBQ20090218012510702/18/09 01:25:31  5-MIN KDBQ 180725Z AUTO 00000KT 1/4SM FG VV001 01/01 A2941 1550 100 200 000/00 RMK AO2 $
94908KDBQ DBQ20090218013010702/18/09 01:30:31  5-MIN KDBQ 180730Z AUTO 00000KT 1/4SM FG VV001 01/01 A2942 1550 100 200 000/00 RMK AO2 $
94908KDBQ DBQ20090218013510702/18/09 01:35:31  5-MIN KDBQ 180735Z AUTO 00000KT 1/4SM FG VV001 01/01 A2942 1550 100 200 000/00 RMK AO2 $
94908KDBQ DBQ20090218014010702/18/09 01:40:31  5-MIN KDBQ 180740Z AUTO 16003KT 1/4SM FG VV001 01/01 A2942 1540 100 200 160/03 RMK AO2 $
94908KDBQ DBQ20090218014510702/18/09 01:45:31  5-MIN KDBQ 180745Z AUTO 00000KT 1/4SM FG VV001 01/01 A2942 1540 100 200 000/00 RMK AO2 $
94908KDBQ DBQ20090218015012402/18/09 01:50:31  5-MIN KDBQ 180750Z AUTO 00000KT 1/4SM FG VV001 01/01 A2942 1540 100 200 000/00 RMK AO2 SLP972 T00060006 $
94908KDBQ DBQ20090218015510702/18/09 01:55:31  5-MIN KDBQ 180755Z AUTO 00000KT 1/4SM FG VV001 01/01 A2942 1540 100 200 000/00 RMK AO2 $
94908KDBQ DBQ20090218020011302/18/09 02:00:31  5-MIN KDBQ 180800Z AUTO 00000KT 1/4SM FG VV001 01/01 A2942 1540 100 200 000/00 RMK AO2 P0001 $
94908KDBQ DBQ20090218020511202/18/09 02:05:31  5-MIN KDBQ 180805Z AUTO 02005KT 1/4SM FG VV001 01/00 A2942 1550 96 200 020/05 RMK AO2 P0001 $
94908KDBQ DBQ20090218021011202/18/09 02:10:31  5-MIN KDBQ 180810Z AUTO 02004KT 1/4SM FG VV001 01/00 A2941 1550 96 200 020/04 RMK AO2 P0002 $
94908KDBQ DBQ20090218021511202/18/09 02:15:31  5-MIN KDBQ 180815Z AUTO 03004KT 1/4SM FG VV001 01/00 A2941 1550 96 200 030/04 RMK AO2 P0002 $
94908KDBQ DBQ20090218022011202/18/09 02:20:31  5-MIN KDBQ 180820Z AUTO 03005KT 1/4SM FG VV001 01/00 A2941 1550 96 200 030/05 RMK AO2 P0002 $
94908KDBQ DBQ20090218022511202/18/09 02:25:31  5-MIN KDBQ 180825Z AUTO 04003KT 1/4SM FG VV001 01/00 A2941 1560 96 200 040/03 RMK AO2 P0002 $
94908KDBQ DBQ20090218023011202/18/09 02:30:31  5-MIN KDBQ 180830Z AUTO 03004KT 1/4SM FG VV001 01/00 A2941 1560 96 200 030/04 RMK AO2 P0002 $
94908KDBQ DBQ20090218023511202/18/09 02:35:31  5-MIN KDBQ 180835Z AUTO 04003KT 1/4SM FG VV001 01/00 A2940 1560 96 200 040/03 RMK AO2 P0002 $
94908KDBQ DBQ20090218024011202/18/09 02:40:31  5-MIN KDBQ 180840Z AUTO 03003KT 1/4SM FG VV001 01/00 A2940 1560 96 200 030/03 RMK AO2 P0002 $
94908KDBQ DBQ20090218024511302/18/09 02:45:31  5-MIN KDBQ 180845Z AUTO 03004KT M1/4SM FG VV001 01/00 A2940 1570 96 200 020/04 RMK AO2 P0002 $
94908KDBQ DBQ20090218025014102/18/09 02:50:31  5-MIN KDBQ 180850Z AUTO 03003KT 1/4SM FG VV001 01/00 A2939 1570 96 200 030/03 RMK AO2 SLP962 P0002 60003 T00060000 56026 $
94908KDBQ DBQ20090218025510602/18/09 02:55:31  5-MIN KDBQ 180855Z AUTO 03005KT 1/4SM FG VV001 01/00 A2939 1570 96 200 030/05 RMK AO2 $
94908KDBQ DBQ20090218030010602/18/09 03:00:31  5-MIN KDBQ 180900Z AUTO 03004KT 1/4SM FG VV001 01/00 A2938 1580 96 200 030/04 RMK AO2 $
94908KDBQ DBQ20090218030510602/18/09 03:05:31  5-MIN KDBQ 180905Z AUTO 04004KT 1/4SM FG VV001 01/00 A2938 1580 96 200 040/04 RMK AO2 $
94908KDBQ DBQ20090218031010602/18/09 03:10:31  5-MIN KDBQ 180910Z AUTO 04003KT 1/4SM FG VV001 01/00 A2938 1580 96 200 040/03 RMK AO2 $
94908KDBQ DBQ20090218031510602/18/09 03:15:31  5-MIN KDBQ 180915Z AUTO 03003KT 1/4SM FG VV001 01/00 A2938 1580 96 200 030/03 RMK AO2 $
94908KDBQ DBQ20090218032010602/18/09 03:20:31  5-MIN KDBQ 180920Z AUTO 02003KT 1/4SM FG VV001 01/00 A2938 1580 96 200 020/03 RMK AO2 $
94908KDBQ DBQ20090218032510602/18/09 03:25:31  5-MIN KDBQ 180925Z AUTO 01003KT 1/4SM FG VV001 01/00 A2938 1580 96 200 010/03 RMK AO2 $
94908KDBQ DBQ20090218033010602/18/09 03:30:31  5-MIN KDBQ 180930Z AUTO 01004KT 1/4SM FG VV001 01/00 A2938 1580 96 200 360/04 RMK AO2 $
94908KDBQ DBQ20090218033510602/18/09 03:35:31  5-MIN KDBQ 180935Z AUTO 01006KT 1/4SM FG VV001 01/00 A2938 1590 96 300 010/06 RMK AO2 $
94908KDBQ DBQ20090218034010602/18/09 03:40:31  5-MIN KDBQ 180940Z AUTO 01006KT 1/4SM FG VV001 01/00 A2938 1590 96 300 010/06 RMK AO2 $
94908KDBQ DBQ20090218034510602/18/09 03:45:31  5-MIN KDBQ 180945Z AUTO 01006KT 1/4SM FG VV001 01/00 A2938 1580 96 200 010/06 RMK AO2 $
94908KDBQ DBQ20090218035012902/18/09 03:50:31  5-MIN KDBQ 180950Z AUTO 36007KT 1/4SM FG VV001 01/00 A2938 1580 96 200 360/07 RMK AO2 SLP958 P0001 T00060000 $
94908KDBQ DBQ20090218035511502/18/09 03:55:31  5-MIN KDBQ 180955Z AUTO 01007KT 1/4SM UP FG VV001 01/00 A2938 1580 96 200 010/07 RMK AO2 P0000 $
94908KDBQ DBQ20090218040011502/18/09 04:00:31  5-MIN KDBQ 181000Z AUTO 02006KT 1/4SM UP FG VV001 01/00 A2938 1580 96 200 020/06 RMK AO2 P0000 $
94908KDBQ DBQ20090218040511502/18/09 04:05:31  5-MIN KDBQ 181005Z AUTO 01005KT 1/4SM UP FG VV001 01/00 A2938 1580 96 200 010/05 RMK AO2 P0000 $
94908KDBQ DBQ20090218041011802/18/09 04:10:31  5-MIN KDBQ 181010Z AUTO 01006KT 1/4SM FG VV001 01/00 A2938 1580 96 200 010/06 RMK AO2 UPE06 P0000 $
94908KDBQ DBQ20090218041511802/18/09 04:15:31  5-MIN KDBQ 181015Z AUTO 36006KT 1/4SM FG VV001 01/00 A2938 1580 96 200 360/06 RMK AO2 UPE06 P0000 $
94908KDBQ DBQ20090218042012702/18/09 04:20:31  5-MIN KDBQ 181020Z AUTO 36007KT 1/2SM -SN FG VV001 01/00 A2938 1580 96 200 360/07 RMK AO2 UPE20SNB20 P0000 $
94908KDBQ DBQ20090218042512702/18/09 04:25:31  5-MIN KDBQ 181025Z AUTO 01006KT 1/2SM -SN FG VV001 01/00 A2939 1580 96 200 010/06 RMK AO2 UPE20SNB20 P0000 $
94908KDBQ DBQ20090218043012802/18/09 04:30:31  5-MIN KDBQ 181030Z AUTO 36007KT 1/2SM -SN FG VV001 00/00 A2939 1580 100 200 360/07 RMK AO2 UPE20SNB20 P0001 $
94908KDBQ DBQ20090218043512802/18/09 04:35:31  5-MIN KDBQ 181035Z AUTO 01007KT 1/2SM -SN FG VV001 00/00 A2939 1580 100 200 010/07 RMK AO2 UPE20SNB20 P0001 $
94908KDBQ DBQ20090218044012802/18/09 04:40:31  5-MIN KDBQ 181040Z AUTO 01006KT 1/2SM -SN FG VV001 00/00 A2938 1580 100 200 010/06 RMK AO2 UPE20SNB20 P0001 $
94908KDBQ DBQ20090218044512802/18/09 04:45:31  5-MIN KDBQ 181045Z AUTO 01007KT 1/2SM -SN FG VV001 00/00 A2939 1580 100 200 010/07 RMK AO2 UPE20SNB20 P0001 $
94908KDBQ DBQ20090218045014502/18/09 04:50:31  5-MIN KDBQ 181050Z AUTO 36008KT 1/2SM -SN FG VV001 00/00 A2939 1580 100 200 360/08 RMK AO2 UPE20SNB20 SLP960 P0001 T00000000 $
94908KDBQ DBQ20090218045511702/18/09 04:55:31  5-MIN KDBQ 181055Z AUTO 36008KT 3/4SM -SN BR VV001 00/00 A2939 1580 100 200 360/08 RMK AO2 P0000 $
94908KDBQ DBQ20090218050011702/18/09 05:00:31  5-MIN KDBQ 181100Z AUTO 36008KT 3/4SM -SN BR VV001 00/00 A2939 1570 100 200 360/08 RMK AO2 P0000 $
94908KDBQ DBQ20090218050511602/18/09 05:05:31  5-MIN KDBQ 181105Z AUTO 36008KT 1SM -SN BR OVC001 00/00 A2939 1570 100 200 360/08 RMK AO2 P0000 $
94908KDBQ DBQ20090218051012002/18/09 05:10:31  5-MIN KDBQ 181110Z AUTO 36008KT 1 1/4SM -SN BR OVC001 00/00 A2939 1570 100 200 360/08 RMK AO2 P0000 $
94908KDBQ DBQ20090218051512002/18/09 05:15:31  5-MIN KDBQ 181115Z AUTO 36009KT 1 1/4SM -SN BR OVC001 00/00 A2939 1570 100 200 360/09 RMK AO2 P0000 $
94908KDBQ DBQ20090218052012002/18/09 05:20:31  5-MIN KDBQ 181120Z AUTO 36007KT 1 1/4SM -SN BR OVC001 00/00 A2939 1570 100 200 360/07 RMK AO2 P0000 $
94908KDBQ DBQ20090218052512002/18/09 05:25:31  5-MIN KDBQ 181125Z AUTO 36008KT 1 1/4SM -SN BR OVC001 00/00 A2939 1570 100 200 350/08 RMK AO2 P0000 $
94908KDBQ DBQ20090218053012002/18/09 05:30:31  5-MIN KDBQ 181130Z AUTO 36008KT 1 1/2SM -SN BR OVC001 00/00 A2939 1570 100 200 360/08 RMK AO2 P0000 $
94908KDBQ DBQ20090218053512002/18/09 05:35:31  5-MIN KDBQ 181135Z AUTO 36007KT 1 3/4SM -SN BR OVC001 00/00 A2940 1570 100 200 360/07 RMK AO2 P0000 $
94908KDBQ DBQ20090218054012002/18/09 05:40:31  5-MIN KDBQ 181140Z AUTO 36008KT 1 3/4SM -SN BR OVC001 00/00 A2940 1570 100 200 360/08 RMK AO2 P0000 $
94908KDBQ DBQ20090218054512002/18/09 05:45:31  5-MIN KDBQ 181145Z AUTO 36007KT 1 3/4SM -SN BR OVC001 00/00 A2939 1570 100 200 360/07 RMK AO2 P0000 $
94908KDBQ DBQ20090218055011102/18/09 05:50:31  5-MIN KDBQ 181150Z 36008KT 2SM -SN BR OVC001 00/00 A2939 1570 100 200 360/08 RMK AO2 P0000 $
94908KDBQ DBQ20090218055511102/18/09 05:55:31  5-MIN KDBQ 181155Z 36007KT 2SM -SN BR OVC001 00/00 A2940 1570 100 200 360/07 RMK AO2 P0000 $
94908KDBQ DBQ20090218060011902/18/09 06:00:31  5-MIN KDBQ 181200Z 36007KT 2 1/2SM BR OVC001 00/00 A2939 1570 100 200 360/07 RMK AO2 SNE1158 P0000 $
94908KDBQ DBQ20090218060511502/18/09 06:05:31  5-MIN KDBQ 181205Z 35010KT 2SM BR OVC001 00/00 A2940 1570 100 200 350/10 RMK AO2 SNE1158 P0000 $
94908KDBQ DBQ20090218061011102/18/09 06:10:31  5-MIN KDBQ 181210Z 36010KT 2SM -SN BR OVC001 00/M01 A2940 1570 96 200 360/10 RMK AO2 P0000 $
94908KDBQ DBQ20090218061511102/18/09 06:15:31  5-MIN KDBQ 181215Z 36009KT 2SM -SN BR OVC001 00/M01 A2940 1570 96 200 360/09 RMK AO2 P0000 $
94908KDBQ DBQ20090218062011102/18/09 06:20:31  5-MIN KDBQ 181220Z 35010KT 2SM -SN BR OVC001 00/M01 A2940 1560 96 200 350/10 RMK AO2 P0000 $
94908KDBQ DBQ20090218062512302/18/09 06:25:31  5-MIN KDBQ 181225Z 35011KT 2SM -SN BR OVC001 00/M01 A2940 1560 96 200 350/11 RMK AO2 CIG 001V005 P0000 $
94908KDBQ DBQ20090218063011102/18/09 06:30:31  5-MIN KDBQ 181230Z 35011KT 2SM -SN BR OVC001 00/M01 A2940 1560 96 100 350/11 RMK AO2 P0000 $
94908KDBQ DBQ20090218063511502/18/09 06:35:31  5-MIN KDBQ 181235Z 35012KT 2 1/2SM -SN BR OVC003 00/M01 A2941 1560 96 100 350/12 RMK AO2 P0000 $
94908KDBQ DBQ20090218064012702/18/09 06:40:31  5-MIN KDBQ 181240Z 34012KT 2 1/2SM -SN BR OVC003 00/M01 A2941 1550 96 100 340/12 RMK AO2 CIG 002V007 P0000 $
94908KDBQ DBQ20090218064512702/18/09 06:45:31  5-MIN KDBQ 181245Z 35011KT 2 1/2SM -SN BR OVC003 00/M01 A2941 1550 96 100 350/11 RMK AO2 CIG 002V007 P0000 $
94908KDBQ DBQ20090218065014602/18/09 06:50:31  5-MIN KDBQ 181250Z 34012G17KT 2SM -SN BR OVC003 00/M01 A2941 1550 96 100 340/12G17 RMK AO2 CIG 002V007 SLP970 P0000 T00001006 $
94908KDBQ DBQ20090218065511302/18/09 06:55:31  5-MIN KDBQ 181255Z 34012KT 2SM BR OVC003 00/M01 A2941 1550 96 100 340/12 RMK AO2 CIG 002V007 $
94908KDBQ DBQ20090218070011702/18/09 07:00:31  5-MIN KDBQ 181300Z 34014KT 2 1/2SM BR OVC003 00/M01 A2942 1550 96 100 340/14 RMK AO2 CIG 002V007 $
94908KDBQ DBQ20090218070511702/18/09 07:05:31  5-MIN KDBQ 181305Z 34014KT 2 1/2SM BR OVC003 00/M01 A2942 1550 96 100 340/14 RMK AO2 CIG 003V007 $
94908KDBQ DBQ20090218071010502/18/09 07:10:31  5-MIN KDBQ 181310Z 34012KT 2 1/2SM BR OVC003 00/M01 A2942 1550 96 100 340/12 RMK AO2 $
94908KDBQ DBQ20090218071510502/18/09 07:15:31  5-MIN KDBQ 181315Z 34012KT 2 1/2SM BR OVC005 00/M01 A2942 1550 96 100 340/12 RMK AO2 $
94908KDBQ DBQ20090218072010502/18/09 07:20:31  5-MIN KDBQ 181320Z 34015KT 2 1/2SM BR OVC005 00/M01 A2942 1540 96 100 340/15 RMK AO2 $
94908KDBQ DBQ20090218072510102/18/09 07:25:31  5-MIN KDBQ 181325Z 34014KT 3SM BR OVC005 00/M01 A2942 1540 96 100 340/14 RMK AO2 $
94908KDBQ DBQ20090218073010102/18/09 07:30:31  5-MIN KDBQ 181330Z 34014KT 3SM BR OVC005 01/M01 A2943 1540 92 200 340/14 RMK AO2 $
94908KDBQ DBQ20090218073511402/18/09 07:35:31  5-MIN KDBQ 181335Z 34015G21KT 3SM BR BKN005 OVC009 01/M01 A2942 1540 92 200 340/15G21 RMK AO2 $
94908KDBQ DBQ20090218074012602/18/09 07:40:31  5-MIN KDBQ 181340Z 34015G21KT 3SM BR BKN007 OVC017 01/M01 A2943 1540 92 200 340/15G21 RMK AO2 CIG 004V011 $
94908KDBQ DBQ20090218074512002/18/09 07:45:31  5-MIN KDBQ 181345Z 34017KT 3SM BR BKN007 BKN011 01/M01 A2943 1540 92 200 340/17 RMK AO2 CIG 004V009 $
94908KDBQ DBQ20090218075013702/18/09 07:50:31  5-MIN KDBQ 181350Z 34016KT 5SM BR BKN007 BKN014 01/M01 A2943 1540 92 200 340/16 RMK AO2 CIG 004V009 SLP976 T00061006 $
94908KDBQ DBQ20090218075511502/18/09 07:55:31  5-MIN KDBQ 181355Z 34015KT 5SM BR FEW005 SCT010 BKN014 01/M01 A2943 1530 92 200 340/15 RMK AO2 $
94908KDBQ DBQ20090218080011402/18/09 08:00:31  5-MIN KDBQ 181400Z 34017G22KT 5SM BR SCT007 BKN014 01/M01 A2944 1530 92 200 340/17G22 RMK AO2 $
94908KDBQ DBQ20090218080510702/18/09 08:05:31  5-MIN KDBQ 181405Z 34015G22KT 5SM BR BKN012 01/M01 A2944 1530 92 200 340/15G22 RMK AO2 $
94908KDBQ DBQ20090218081012602/18/09 08:10:31  5-MIN KDBQ 181410Z 35013G21KT 5SM BR BKN010 OVC014 01/M01 A2944 1520 92 200 340/13G21 RMK AO2 CIG 008V012 $
94908KDBQ DBQ20090218081512002/18/09 08:15:31  5-MIN KDBQ 181415Z 35012KT 4SM BR BKN010 OVC014 01/M01 A2944 1520 92 200 350/12 RMK AO2 CIG 008V012 $
94908KDBQ DBQ20090218082012002/18/09 08:20:31  5-MIN KDBQ 181420Z 34010KT 4SM BR BKN010 OVC014 01/M01 A2945 1520 92 200 340/10 RMK AO2 CIG 007V012 $
94908KDBQ DBQ20090218082511302/18/09 08:25:31  5-MIN KDBQ 181425Z 34015KT 4SM BR OVC010 01/M01 A2945 1520 92 200 340/15 RMK AO2 CIG 006V015 $
94908KDBQ DBQ20090218083011302/18/09 08:30:31  5-MIN KDBQ 181430Z 34013KT 4SM BR OVC010 01/M01 A2945 1520 92 200 340/13 RMK AO2 CIG 006V013 $
94908KDBQ DBQ20090218083511902/18/09 08:35:31  5-MIN KDBQ 181435Z 34013G20KT 4SM BR OVC010 01/M01 A2945 1520 92 200 340/13G20 RMK AO2 CIG 006V013 $
94908KDBQ DBQ20090218084012502/18/09 08:40:31  5-MIN KDBQ 181440Z 34012G20KT 4SM BR OVC010 01/M01 A2945 1510 92 200 340/12G20 RMK AO2 CIG 006V013 P0001 $
94908KDBQ DBQ20090218084511902/18/09 08:45:31  5-MIN KDBQ 181445Z 34016KT 4SM BR OVC010 01/M01 A2945 1510 92 200 340/16 RMK AO2 CIG 006V013 P0001 $
94908KDBQ DBQ20090218085014802/18/09 08:50:31  5-MIN KDBQ 181450Z 34012KT 4SM BR OVC010 01/M01 A2945 1510 92 200 340/12 RMK AO2 CIG 006V012 SLP984 P0001 60001 T00061006 53001 $
94908KDBQ DBQ20090218085510102/18/09 08:55:31  5-MIN KDBQ 181455Z 33013KT 4SM BR OVC010 01/M01 A2946 1510 92 200 330/13 RMK AO2 $
94908KDBQ DBQ20090218090010802/18/09 09:00:31  5-MIN KDBQ 181500Z 33011KT 4SM BR SCT008 OVC012 01/M01 A2946 1510 89 200 330/11 RMK AO2 $
94908KDBQ DBQ20090218090510102/18/09 09:05:31  5-MIN KDBQ 181505Z 33015KT 4SM BR OVC012 01/M01 A2946 1510 89 200 330/15 RMK AO2 $
94908KDBQ DBQ20090218091010802/18/09 09:10:31  5-MIN KDBQ 181510Z 33014KT 4SM BR BKN012 OVC017 01/M01 A2946 1500 89 200 330/14 RMK AO2 $
94908KDBQ DBQ20090218091510102/18/09 09:15:31  5-MIN KDBQ 181515Z 33013KT 4SM BR OVC014 01/M01 A2946 1500 89 200 330/13 RMK AO2 $
94908KDBQ DBQ20090218092010702/18/09 09:20:31  5-MIN KDBQ 181520Z 33016G21KT 4SM BR OVC014 01/M01 A2946 1500 89 200 330/16G21 RMK AO2 $
94908KDBQ DBQ20090218092510102/18/09 09:25:31  5-MIN KDBQ 181525Z 33016KT 4SM BR OVC014 01/M01 A2947 1500 89 200 330/16 RMK AO2 $
94908KDBQ DBQ20090218093010102/18/09 09:30:31  5-MIN KDBQ 181530Z 33015KT 4SM BR OVC014 01/M01 A2947 1500 89 200 330/15 RMK AO2 $
94908KDBQ DBQ20090218093510102/18/09 09:35:31  5-MIN KDBQ 181535Z 33015KT 4SM BR OVC014 01/M01 A2947 1490 89 200 330/15 RMK AO2 $
94908KDBQ DBQ20090218094010102/18/09 09:40:31  5-MIN KDBQ 181540Z 34013KT 4SM BR OVC014 01/M01 A2947 1500 89 200 330/13 RMK AO2 $
94908KDBQ DBQ20090218094510102/18/09 09:45:31  5-MIN KDBQ 181545Z 34014KT 4SM BR OVC014 01/M01 A2947 1490 89 200 340/14 RMK AO2 $
94908KDBQ DBQ20090218095012402/18/09 09:50:31  5-MIN KDBQ 181550Z 34011G19KT 4SM BR OVC014 02/M01 A2947 1490 85 300 330/11G19 RMK AO2 SLP990 T00171006 $
94908KDBQ DBQ20090218095510002/18/09 09:55:31  5-MIN KDBQ 181555Z 33013KT 4SM BR OVC014 02/00 A2948 1490 89 300 330/13 RMK AO2 $
94908KDBQ DBQ20090218100010002/18/09 10:00:31  5-MIN KDBQ 181600Z 33013KT 4SM BR OVC014 02/00 A2948 1490 89 300 330/13 RMK AO2 $
94908KDBQ DBQ20090218100510002/18/09 10:05:31  5-MIN KDBQ 181605Z 33014KT 4SM BR OVC012 02/00 A2948 1490 89 300 330/14 RMK AO2 $
94908KDBQ DBQ20090218101010002/18/09 10:10:31  5-MIN KDBQ 181610Z 34012KT 4SM BR OVC012 02/00 A2948 1490 89 300 340/12 RMK AO2 $
94908KDBQ DBQ20090218101510002/18/09 10:15:31  5-MIN KDBQ 181615Z 33013KT 4SM BR OVC012 02/00 A2948 1490 89 300 330/13 RMK AO2 $
94908KDBQ DBQ20090218102010002/18/09 10:20:31  5-MIN KDBQ 181620Z 33013KT 4SM BR OVC009 01/00 A2948 1480 92 200 330/13 RMK AO2 $
94908KDBQ DBQ20090218102510102/18/09 10:25:31  5-MIN KDBQ 181625Z 33012KT 4SM BR OVC009 01/M01 A2949 1480 89 200 330/12 RMK AO2 $
94908KDBQ DBQ20090218103011302/18/09 10:30:31  5-MIN KDBQ 181630Z 33015KT 4SM BR OVC009 01/M01 A2949 1480 89 200 330/15 RMK AO2 CIG 009V013 $
94908KDBQ DBQ20090218103511302/18/09 10:35:31  5-MIN KDBQ 181635Z 33011KT 4SM BR OVC009 01/M01 A2949 1480 89 200 330/11 RMK AO2 CIG 009V013 $
94908KDBQ DBQ20090218104011202/18/09 10:40:31  5-MIN KDBQ 181640Z 33012KT 4SM BR OVC009 02/00 A2949 1480 89 300 330/12 RMK AO2 CIG 009V013 $
94908KDBQ DBQ20090218104511302/18/09 10:45:31  5-MIN KDBQ 181645Z 33012KT 4SM BR OVC009 02/M01 A2949 1480 85 300 330/12 RMK AO2 CIG 009V012 $
94908KDBQ DBQ20090218105012902/18/09 10:50:31  5-MIN KDBQ 181650Z 32010KT 3SM BR OVC009 02/00 A2950 1470 89 300 320/10 RMK AO2 CIG 009V013 SLP997 T00170000 $
94908KDBQ DBQ20090218105511902/18/09 10:55:31  5-MIN KDBQ 181655Z 33013G19KT 4SM BR OVC009 02/M01 A2950 1470 85 200 330/13G19 RMK AO2 CIG 009V013 $
94908KDBQ DBQ20090218110010702/18/09 11:00:31  5-MIN KDBQ 181700Z 31011G19KT 4SM BR OVC009 01/M01 A2950 1470 89 200 310/11G19 RMK AO2 $
94908KDBQ DBQ20090218110511202/18/09 11:05:31  5-MIN KDBQ 181705Z 31010KT 4SM BR OVC009 01/00 A2950 1470 92 200 310/10 RMK AO2 CIG 008V013 $
94908KDBQ DBQ20090218111011302/18/09 11:10:31  5-MIN KDBQ 181710Z 32013KT 3SM BR OVC009 01/M01 A2950 1470 89 200 320/13 RMK AO2 CIG 008V013 $
94908KDBQ DBQ20090218111510702/18/09 11:15:31  5-MIN KDBQ 181715Z 32011G18KT 4SM BR OVC009 01/M01 A2951 1460 89 200 320/11G18 RMK AO2 $
94908KDBQ DBQ20090218112010602/18/09 11:20:31  5-MIN KDBQ 181720Z 32014G18KT 4SM BR OVC009 02/00 A2951 1460 89 200 320/14G18 RMK AO2 $
94908KDBQ DBQ20090218112511302/18/09 11:25:31  5-MIN KDBQ 181725Z 32010KT 4SM BR OVC009 02/M01 A2951 1460 85 200 320/10 RMK AO2 CIG 008V012 $
94908KDBQ DBQ20090218113011902/18/09 11:30:31  5-MIN KDBQ 181730Z 32011G19KT 4SM BR OVC009 02/M01 A2951 1460 85 200 320/11G19 RMK AO2 CIG 008V012 $
94908KDBQ DBQ20090218113510102/18/09 11:35:31  5-MIN KDBQ 181735Z 32013KT 4SM BR OVC009 02/M01 A2951 1460 85 200 320/13 RMK AO2 $
94908KDBQ DBQ20090218114011302/18/09 11:40:31  5-MIN KDBQ 181740Z 32011KT 4SM BR OVC009 02/M01 A2951 1460 85 200 320/11 RMK AO2 CIG 008V014 $
94908KDBQ DBQ20090218114510702/18/09 11:45:31  5-MIN KDBQ 181745Z 32013G20KT 4SM BR OVC011 02/M01 A2951 1460 85 200 320/13G20 RMK AO2 $
94908KDBQ DBQ20090218115011402/18/09 11:50:31  5-MIN KDBQ 181750Z 32015G21KT 4SM BR BKN011 OVC018 02/M01 A2951 1460 85 200 320/15G21 RMK AO2 $
94908KDBQ DBQ20090218115511402/18/09 11:55:31  5-MIN KDBQ 181755Z 31010G21KT 4SM BR BKN013 OVC019 02/M01 A2951 1460 85 200 310/10G21 RMK AO2 $
94908KDBQ DBQ20090218120010802/18/09 12:00:31  5-MIN KDBQ 181800Z 31011KT 5SM BR BKN013 OVC019 02/M01 A2951 1460 85 200 310/11 RMK AO2 $
94908KDBQ DBQ20090218120511502/18/09 12:05:31  5-MIN KDBQ 181805Z 31011KT 4SM BR BKN013 BKN020 OVC025 02/M01 A2951 1460 85 200 310/11 RMK AO2 $
94908KDBQ DBQ20090218121011502/18/09 12:10:31  5-MIN KDBQ 181810Z 32012KT 4SM BR BKN013 BKN020 OVC031 02/M01 A2952 1450 85 200 310/12 RMK AO2 $
94908KDBQ DBQ20090218121511402/18/09 12:15:31  5-MIN KDBQ 181815Z 31011KT 4SM BR BKN013 BKN024 OVC031 02/00 A2952 1450 89 200 310/11 RMK AO2 $
94908KDBQ DBQ20090218122011502/18/09 12:20:31  5-MIN KDBQ 181820Z 31012KT 4SM BR BKN013 BKN019 OVC024 02/M01 A2952 1450 85 200 310/12 RMK AO2 $
94908KDBQ DBQ20090218122513002/18/09 12:25:31  5-MIN KDBQ 181825Z 31015G19KT 3SM -SN BR BKN013 OVC022 01/M01 A2952 1450 89 200 310/15G19 RMK AO2 SNB22 P0000 $
94908KDBQ DBQ20090218123013402/18/09 12:30:31  5-MIN KDBQ 181830Z 32017G23KT 2 1/2SM -SN BR BKN013 OVC024 01/M01 A2952 1450 85 100 320/17G23 RMK AO2 SNB22 P0000 $
94908KDBQ DBQ20090218123515202/18/09 12:35:31  5-MIN KDBQ 181835Z 32016G26KT 2 1/2SM -SN BR BKN013 OVC024 01/M01 A2953 1450 85 100 320/16G26 RMK AO2 PK WND 31026/1831 SNB22 P0000 $
94908KDBQ DBQ20090218124014802/18/09 12:40:31  5-MIN KDBQ 181840Z 32015G26KT 2SM -SN BR SCT013 OVC020 01/M01 A2952 1450 85 100 320/15G26 RMK AO2 PK WND 31026/1831 SNB22 P0000 $
94908KDBQ DBQ20090218124515202/18/09 12:45:31  5-MIN KDBQ 181845Z 32013G20KT 1 1/4SM -SN BR BKN013 OVC020 01/M01 A2953 1450 89 100 320/13G20 RMK AO2 PK WND 31026/1831 SNB22 P0000 $
94908KDBQ DBQ20090218125016902/18/09 12:50:31  5-MIN KDBQ 181850Z 32013G20KT 1 1/4SM -SN BR BKN011 OVC020 01/M01 A2953 1450 89 100 320/13G20 RMK AO2 PK WND 31026/1831 SNB22 SLP009 P0000 T00061011 $
94908KDBQ DBQ20090218125512402/18/09 12:55:31  5-MIN KDBQ 181855Z 31015G20KT 2SM -SN BR BKN011 OVC020 01/M01 A2953 1440 89 100 310/15G20 RMK AO2 P0000 $
94908KDBQ DBQ20090218130012402/18/09 13:00:31  5-MIN KDBQ 181900Z 31020G24KT 3SM -SN BR BKN011 OVC020 01/M02 A2953 1440 85 100 300/20G24 RMK AO2 P0000 $
94908KDBQ DBQ20090218130512402/18/09 13:05:31  5-MIN KDBQ 181905Z 32015G24KT 4SM -SN BR BKN011 OVC018 01/M02 A2954 1440 85 100 310/15G24 RMK AO2 P0000 $
94908KDBQ DBQ20090218131013302/18/09 13:10:31  5-MIN KDBQ 181910Z 32017G22KT 5SM BR BKN011 BKN018 OVC050 01/M02 A2954 1430 85 100 320/17G22 RMK AO2 SNE09 P0000 $
94908KDBQ DBQ20090218131513002/18/09 13:15:31  5-MIN KDBQ 181915Z 31018G22KT 7SM BKN013 BKN018 OVC050 01/M02 A2954 1430 85 100 310/18G22 RMK AO2 SNE09 P0000 $
94908KDBQ DBQ20090218132011502/18/09 13:20:31  5-MIN KDBQ 181920Z 31019G24KT 5SM -SN BR OVC015 00/M02 A2954 1430 85 0 310/19G24 RMK AO2 P0000 $
94908KDBQ DBQ20090218132513302/18/09 13:25:31  5-MIN KDBQ 181925Z 31014G24KT 2 1/2SM -SN BR BKN013 BKN020 OVC050 00/M02 A2955 1430 85 0 310/14G24 RMK AO2 P0000 $
94908KDBQ DBQ20090218133012902/18/09 13:30:31  5-MIN KDBQ 181930Z 32016G21KT 2SM -SN BR BKN013 BKN020 OVC050 00/M02 A2955 1420 85 0 320/16G21 RMK AO2 P0000 $
94908KDBQ DBQ20090218133511602/18/09 13:35:31  5-MIN KDBQ 181935Z 32018KT 2SM -SN BR BKN015 OVC020 00/M02 A2955 1420 85 0 320/18 RMK AO2 P0000 $
94908KDBQ DBQ20090218134014802/18/09 13:40:31  5-MIN KDBQ 181940Z 32018G27KT 2 1/2SM -SN BKN013 BKN020 OVC050 00/M03 A2956 1420 81 0 320/18G27 RMK AO2 PK WND 33027/1940 P0000 $
94908KDBQ DBQ20090218134514402/18/09 13:45:31  5-MIN KDBQ 181945Z 32019G27KT 3SM -SN BKN013 BKN020 OVC050 00/M03 A2956 1410 81 0 320/19G27 RMK AO2 PK WND 33027/1940 P0000 $
94908KDBQ DBQ20090218135014602/18/09 13:50:31  5-MIN KDBQ 181950Z 31015KT 4SM BR OVC015 00/M02 A2956 1410 85 0 310/15 RMK AO2 PK WND 33027/1940 SNE50 SLP021 P0000 T00001022 $
94908KDBQ DBQ20090218135511602/18/09 13:55:31  5-MIN KDBQ 181955Z 31018G25KT 4SM BR BKN013 OVC018 M01/M03 A2956 1410 85 -100 310/18G25 RMK AO2 $
94908KDBQ DBQ20090218140010302/18/09 14:00:31  5-MIN KDBQ 182000Z 31020KT 5SM BR OVC015 M01/M03 A2957 1410 85 -100 310/20 RMK AO2 $
94908KDBQ DBQ20090218140510602/18/09 14:05:31  5-MIN KDBQ 182005Z 31015G25KT 7SM OVC015 M01/M03 A2957 1400 81 -100 310/15G25 RMK AO2 $
94908KDBQ DBQ20090218141010602/18/09 14:10:31  5-MIN KDBQ 182010Z 31018G25KT 7SM OVC015 M01/M03 A2957 1400 81 -100 310/18G25 RMK AO2 $
94908KDBQ DBQ20090218141512202/18/09 14:15:31  5-MIN KDBQ 182015Z 31019G25KT 6SM -SN OVC015 M01/M03 A2957 1400 81 -100 310/19G25 RMK AO2 SNB15 P0000 $
94908KDBQ DBQ20090218142014302/18/09 14:20:31  5-MIN KDBQ 182020Z 31017G27KT 3SM -SN BR OVC015 M01/M03 A2958 1400 85 -100 310/17G27 RMK AO2 PK WND 31027/2020 SNB15 P0000 $
94908KDBQ DBQ20090218142514002/18/09 14:25:31  5-MIN KDBQ 182025Z 31018G27KT 3SM -SN OVC015 M01/M04 A2958 1390 81 -100 310/18G27 RMK AO2 PK WND 31027/2020 SNB15 P0000 $
94908KDBQ DBQ20090218143014002/18/09 14:30:31  5-MIN KDBQ 182030Z 31015G26KT 4SM -SN OVC015 M01/M04 A2958 1390 81 -100 310/15G26 RMK AO2 PK WND 31027/2020 SNB15 P0000 $
94908KDBQ DBQ20090218143514002/18/09 14:35:31  5-MIN KDBQ 182035Z 32018G25KT 5SM -SN OVC015 M01/M04 A2959 1390 81 -200 320/18G25 RMK AO2 PK WND 31027/2020 SNB15 P0000 $
94908KDBQ DBQ20090218144014202/18/09 14:40:31  5-MIN KDBQ 182040Z 32019G25KT 6SM HZ OVC015 M01/M04 A2959 1380 78 -200 310/19G25 RMK AO2 PK WND 31027/2020 SNB15E38 P0000 $
94908KDBQ DBQ20090218144513902/18/09 14:45:31  5-MIN KDBQ 182045Z 31020G25KT 8SM OVC015 M02/M04 A2960 1380 81 -200 310/20G25 RMK AO2 PK WND 31027/2020 SNB15E38 P0000 $
94908KDBQ DBQ20090218145016802/18/09 14:50:31  5-MIN KDBQ 182050Z 32019G27KT 8SM OVC015 M02/M05 A2960 1380 78 -200 320/19G27 RMK AO2 PK WND 31027/2047 SNB15E38 SLP035 P0000 60000 T10171050 51020 $
94908KDBQ DBQ20090218145512402/18/09 14:55:31  5-MIN KDBQ 182055Z 32022G27KT 8SM OVC017 M02/M05 A2960 1370 78 -200 320/22G27 RMK AO2 PK WND 32027/2054 $
94908KDBQ DBQ20090218150012402/18/09 15:00:31  5-MIN KDBQ 182100Z 32023G28KT 9SM OVC017 M02/M05 A2961 1370 78 -200 320/23G28 RMK AO2 PK WND 31028/2100 $
94908KDBQ DBQ20090218150512402/18/09 15:05:31  5-MIN KDBQ 182105Z 32019G28KT 9SM OVC017 M02/M05 A2961 1370 78 -200 320/19G28 RMK AO2 PK WND 31028/2100 $
94908KDBQ DBQ20090218151012402/18/09 15:10:31  5-MIN KDBQ 182110Z 33020G29KT 9SM OVC017 M02/M05 A2961 1360 78 -300 330/20G29 RMK AO2 PK WND 31029/2108 $
94908KDBQ DBQ20090218151512402/18/09 15:15:31  5-MIN KDBQ 182115Z 33018G29KT 9SM OVC017 M02/M05 A2962 1360 78 -300 330/18G29 RMK AO2 PK WND 31029/2108 $
94908KDBQ DBQ20090218152012402/18/09 15:20:31  5-MIN KDBQ 182120Z 33017G25KT 9SM OVC017 M02/M05 A2962 1360 78 -300 330/17G25 RMK AO2 PK WND 31029/2108 $
94908KDBQ DBQ20090218152512402/18/09 15:25:31  5-MIN KDBQ 182125Z 32016G25KT 9SM OVC017 M02/M05 A2962 1350 81 -300 320/16G25 RMK AO2 PK WND 31029/2108 $
94908KDBQ DBQ20090218153012502/18/09 15:30:31  5-MIN KDBQ 182130Z 31016G22KT 10SM OVC017 M02/M05 A2963 1350 81 -300 310/16G22 RMK AO2 PK WND 31029/2108 $
94908KDBQ DBQ20090218153511802/18/09 15:35:31  5-MIN KDBQ 182135Z 32017KT 9SM OVC017 M02/M05 A2963 1350 81 -300 310/17 RMK AO2 PK WND 31029/2108 $
94908KDBQ DBQ20090218154012402/18/09 15:40:31  5-MIN KDBQ 182140Z 31020G25KT 9SM OVC017 M02/M06 A2964 1340 78 -300 310/20G25 RMK AO2 PK WND 31029/2108 $
94908KDBQ DBQ20090218154512402/18/09 15:45:31  5-MIN KDBQ 182145Z 31021G28KT 8SM OVC017 M02/M06 A2964 1340 78 -400 310/21G28 RMK AO2 PK WND 31029/2108 $
94908KDBQ DBQ20090218155014102/18/09 15:50:31  5-MIN KDBQ 182150Z 32019G29KT 8SM OVC017 M02/M06 A2964 1340 75 -400 320/19G29 RMK AO2 PK WND 31029/2146 SLP050 T10221061 $
94908KDBQ DBQ20090218155510602/18/09 15:55:31  5-MIN KDBQ 182155Z 32019G29KT 9SM OVC017 M02/M06 A2965 1330 75 -400 310/19G29 RMK AO2 $
94908KDBQ DBQ20090218160010602/18/09 16:00:31  5-MIN KDBQ 182200Z 32017G25KT 9SM OVC017 M03/M06 A2965 1330 78 -400 320/17G25 RMK AO2 $
94908KDBQ DBQ20090218160510602/18/09 16:05:31  5-MIN KDBQ 182205Z 32019G24KT 9SM OVC017 M03/M06 A2966 1320 78 -400 320/19G24 RMK AO2 $
94908KDBQ DBQ20090218161012402/18/09 16:10:31  5-MIN KDBQ 182210Z 32019G26KT 9SM OVC017 M03/M06 A2966 1320 78 -400 320/19G26 RMK AO2 PK WND 32026/2210 $
94908KDBQ DBQ20090218161512402/18/09 16:15:31  5-MIN KDBQ 182215Z 31018G26KT 9SM OVC017 M03/M07 A2966 1320 75 -500 310/18G26 RMK AO2 PK WND 32026/2210 $
94908KDBQ DBQ20090218162012402/18/09 16:20:31  5-MIN KDBQ 182220Z 33019G24KT 9SM OVC019 M03/M06 A2967 1310 78 -500 320/19G24 RMK AO2 PK WND 32026/2210 $
94908KDBQ DBQ20090218162512502/18/09 16:25:31  5-MIN KDBQ 182225Z 33018G27KT 10SM OVC019 M03/M07 A2967 1310 75 -500 330/18G27 RMK AO2 PK WND 32027/2222 $
94908KDBQ DBQ20090218163012502/18/09 16:30:31  5-MIN KDBQ 182230Z 32021G28KT 10SM OVC021 M03/M07 A2968 1300 71 -500 320/21G28 RMK AO2 PK WND 32028/2230 $
94908KDBQ DBQ20090218163512502/18/09 16:35:31  5-MIN KDBQ 182235Z 32024G30KT 10SM OVC023 M03/M07 A2968 1300 71 -500 320/24G30 RMK AO2 PK WND 32030/2234 $
94908KDBQ DBQ20090218164012502/18/09 16:40:31  5-MIN KDBQ 182240Z 33020G30KT 10SM OVC023 M03/M08 A2968 1300 68 -500 330/20G30 RMK AO2 PK WND 32030/2234 $
94908KDBQ DBQ20090218164511902/18/09 16:45:31  5-MIN KDBQ 182245Z 33021KT 10SM OVC025 M03/M08 A2969 1290 68 -500 330/21 RMK AO2 PK WND 32030/2234 $
94908KDBQ DBQ20090218165014202/18/09 16:50:31  5-MIN KDBQ 182250Z 33015G27KT 10SM OVC025 M03/M07 A2969 1290 71 -500 330/15G27 RMK AO2 PK WND 32030/2234 SLP066 T10281072 $
94908KDBQ DBQ20090218165510702/18/09 16:55:31  5-MIN KDBQ 182255Z 33017G24KT 10SM OVC027 M03/M07 A2969 1290 71 -500 320/17G24 RMK AO2 $
94908KDBQ DBQ20090218170011402/18/09 17:00:31  5-MIN KDBQ 182300Z 32018G24KT 10SM BKN024 OVC029 M03/M07 A2970 1290 71 -500 320/18G24 RMK AO2 $
94908KDBQ DBQ20090218170511402/18/09 17:05:31  5-MIN KDBQ 182305Z 32018G23KT 10SM BKN024 OVC029 M03/M07 A2970 1280 74 -600 320/18G23 RMK AO2 $
94908KDBQ DBQ20090218171011402/18/09 17:10:31  5-MIN KDBQ 182310Z 33018G24KT 10SM BKN022 OVC029 M03/M07 A2970 1280 74 -600 320/18G24 RMK AO2 $
94908KDBQ DBQ20090218171513202/18/09 17:15:31  5-MIN KDBQ 182315Z 33021G28KT 10SM SCT022 OVC029 M03/M08 A2971 1280 68 -600 330/21G28 RMK AO2 PK WND 33028/2315 $
94908KDBQ DBQ20090218172013202/18/09 17:20:31  5-MIN KDBQ 182320Z 33020G30KT 10SM SCT022 OVC029 M03/M08 A2971 1270 68 -600 330/20G30 RMK AO2 PK WND 33030/2318 $
94908KDBQ DBQ20090218172513202/18/09 17:25:31  5-MIN KDBQ 182325Z 32019G30KT 10SM SCT022 OVC029 M03/M08 A2971 1270 68 -600 320/19G30 RMK AO2 PK WND 33030/2318 $
94908KDBQ DBQ20090218173012502/18/09 17:30:31  5-MIN KDBQ 182330Z 33019G25KT 10SM OVC029 M03/M08 A2972 1270 71 -600 330/19G25 RMK AO2 PK WND 33030/2318 $
94908KDBQ DBQ20090218173512502/18/09 17:35:31  5-MIN KDBQ 182335Z 32019G24KT 10SM OVC027 M03/M08 A2972 1260 71 -600 320/19G24 RMK AO2 PK WND 33030/2318 $
94908KDBQ DBQ20090218174014002/18/09 17:40:31  5-MIN KDBQ 182340Z 32021G26KT 9SM -SN OVC027 M03/M08 A2973 1260 71 -600 320/21G26 RMK AO2 PK WND 33030/2318 SNB40 P0000 $
94908KDBQ DBQ20090218174514702/18/09 17:45:31  5-MIN KDBQ 182345Z 32017G26KT 8SM -SN BKN025 OVC029 M03/M08 A2973 1250 71 -600 320/17G26 RMK AO2 PK WND 33030/2318 SNB40 P0000 $
94908KDBQ DBQ20090218175018802/18/09 17:50:31  5-MIN KDBQ 182350Z 32016G25KT 8SM -SN BKN025 OVC029 M03/M08 A2974 1250 71 -600 320/16G25 RMK AO2 PK WND 33030/2318 SNB40 SLP082 P0000 60000 T10331078 10017 21033 53025 $
94908KDBQ DBQ20090218175510602/18/09 17:55:31  5-MIN KDBQ 182355Z 32021G25KT 9SM OVC025 M04/M08 A2974 1250 74 -700 310/21G25 RMK AO2 $
94908KDBQ DBQ20090218180011402/18/09 18:00:31  5-MIN KDBQ 190000Z 32019G25KT 10SM BKN025 OVC029 M04/M08 A2974 1240 71 -700 320/19G25 RMK AO2 $
94908KDBQ DBQ20090218180511402/18/09 18:05:31  5-MIN KDBQ 190005Z 33021G25KT 10SM BKN025 OVC031 M04/M08 A2975 1240 71 -700 330/21G25 RMK AO2 $
94908KDBQ DBQ20090218181013202/18/09 18:10:31  5-MIN KDBQ 190010Z 33021G27KT 10SM SCT025 OVC031 M04/M08 A2975 1240 71 -700 330/21G27 RMK AO2 PK WND 31027/0010 $
94908KDBQ DBQ20090218181513202/18/09 18:15:31  5-MIN KDBQ 190015Z 32018G27KT 10SM BKN025 OVC031 M04/M09 A2975 1230 68 -700 320/18G27 RMK AO2 PK WND 31027/0010 $
94908KDBQ DBQ20090218182013202/18/09 18:20:31  5-MIN KDBQ 190020Z 33016G26KT 10SM BKN025 OVC031 M04/M09 A2975 1230 68 -700 330/16G26 RMK AO2 PK WND 31027/0010 $
94908KDBQ DBQ20090218182513202/18/09 18:25:31  5-MIN KDBQ 190025Z 33020G26KT 10SM BKN025 OVC031 M04/M09 A2976 1230 68 -700 330/20G26 RMK AO2 PK WND 31027/0010 $
94908KDBQ DBQ20090218183012602/18/09 18:30:31  5-MIN KDBQ 190030Z 33021KT 10SM BKN025 OVC031 M04/M09 A2976 1220 65 -700 330/21 RMK AO2 PK WND 31027/0010 $
94908KDBQ DBQ20090218183513202/18/09 18:35:31  5-MIN KDBQ 190035Z 32023G28KT 10SM BKN025 OVC031 M04/M09 A2977 1220 65 -700 320/23G28 RMK AO2 PK WND 32028/0034 $
94908KDBQ DBQ20090218184013202/18/09 18:40:31  5-MIN KDBQ 190040Z 32022G32KT 10SM BKN025 OVC031 M04/M10 A2977 1220 65 -800 320/22G32 RMK AO2 PK WND 32032/0039 $
94908KDBQ DBQ20090218184513202/18/09 18:45:31  5-MIN KDBQ 190045Z 32020G32KT 10SM BKN025 OVC031 M04/M10 A2977 1220 65 -800 320/20G32 RMK AO2 PK WND 32032/0039 $
94908KDBQ DBQ20090218185014902/18/09 18:50:31  5-MIN KDBQ 190050Z 32021G26KT 10SM BKN025 OVC031 M04/M10 A2977 1220 65 -800 320/21G26 RMK AO2 PK WND 32032/0039 SLP095 T10441100 $
94908KDBQ DBQ20090218185513202/18/09 18:55:31  5-MIN KDBQ 190055Z 32019G30KT 10SM FEW030 OVC038 M04/M11 A2978 1210 62 -800 320/19G30 RMK AO2 PK WND 33026/0054 $
94908KDBQ DBQ20090218190012502/18/09 19:00:31  5-MIN KDBQ 190100Z 33021G30KT 10SM OVC038 M04/M10 A2978 1210 65 -800 330/21G30 RMK AO2 PK WND 33027/0100 $
94908KDBQ DBQ20090218190512502/18/09 19:05:31  5-MIN KDBQ 190105Z 32021G28KT 10SM OVC038 M05/M10 A2978 1210 68 -900 320/21G28 RMK AO2 PK WND 31028/0104 $
94908KDBQ DBQ20090218191012502/18/09 19:10:31  5-MIN KDBQ 190110Z 32025G29KT 10SM OVC038 M05/M10 A2978 1200 68 -900 320/25G29 RMK AO2 PK WND 32029/0110 $
94908KDBQ DBQ20090218191512502/18/09 19:15:31  5-MIN KDBQ 190115Z 33018G30KT 10SM OVC038 M05/M10 A2979 1200 68 -900 330/18G30 RMK AO2 PK WND 33030/0113 $
94908KDBQ DBQ20090218192012502/18/09 19:20:31  5-MIN KDBQ 190120Z 33021G30KT 10SM OVC038 M05/M11 A2979 1200 65 -900 330/21G30 RMK AO2 PK WND 33030/0113 $
94908KDBQ DBQ20090218192512502/18/09 19:25:31  5-MIN KDBQ 190125Z 33019G24KT 10SM BKN038 M05/M10 A2979 1200 68 -900 320/19G24 RMK AO2 PK WND 33030/0113 $
94908KDBQ DBQ20090218193012502/18/09 19:30:31  5-MIN KDBQ 190130Z 33020G26KT 10SM BKN038 M05/M10 A2979 1190 68 -900 330/20G26 RMK AO2 PK WND 33030/0113 $
94908KDBQ DBQ20090218193513202/18/09 19:35:31  5-MIN KDBQ 190135Z 33020G29KT 10SM SCT033 BKN040 M05/M10 A2980 1190 68 -900 330/20G29 RMK AO2 PK WND 33030/0113 $
94908KDBQ DBQ20090218194012502/18/09 19:40:31  5-MIN KDBQ 190140Z 32016G29KT 10SM BKN037 M05/M10 A2980 1190 68 -900 320/16G29 RMK AO2 PK WND 33030/0113 $
94908KDBQ DBQ20090218194513202/18/09 19:45:31  5-MIN KDBQ 190145Z 32021G28KT 10SM BKN033 BKN040 M05/M11 A2980 1190 65 -900 320/21G28 RMK AO2 PK WND 33030/0113 $
94908KDBQ DBQ20090218195014902/18/09 19:50:31  5-MIN KDBQ 190150Z 33018G28KT 10SM BKN033 BKN040 M05/M11 A2980 1190 65 -900 320/18G28 RMK AO2 PK WND 33030/0113 SLP106 T10501106 $
94908KDBQ DBQ20090218195511302/18/09 19:55:31  5-MIN KDBQ 190155Z AUTO 33018G24KT 10SM OVC033 M06/M11 A2981 1180 65 -1000 330/18G24 RMK AO2 $
94908KDBQ DBQ20090218200013102/18/09 20:00:31  5-MIN KDBQ 190200Z AUTO 32017G27KT 10SM OVC033 M06/M11 A2981 1180 68 -1000 320/17G27 RMK AO2 PK WND 33027/0158 $
94908KDBQ DBQ20090218200513102/18/09 20:05:31  5-MIN KDBQ 190205Z AUTO 33016G27KT 10SM OVC033 M06/M11 A2981 1180 68 -1000 330/16G27 RMK AO2 PK WND 33027/0158 $
94908KDBQ DBQ20090218201013102/18/09 20:10:31  5-MIN KDBQ 190210Z AUTO 33018G23KT 10SM OVC033 M06/M11 A2981 1180 68 -1000 330/18G23 RMK AO2 PK WND 33027/0158 $
94908KDBQ DBQ20090218201513102/18/09 20:15:31  5-MIN KDBQ 190215Z AUTO 33016G23KT 10SM OVC033 M06/M11 A2982 1180 68 -1000 330/16G23 RMK AO2 PK WND 33027/0158 $
94908KDBQ DBQ20090218202013102/18/09 20:20:31  5-MIN KDBQ 190220Z AUTO 33019G26KT 10SM OVC033 M06/M11 A2982 1170 68 -1000 330/19G26 RMK AO2 PK WND 33027/0158 $
94908KDBQ DBQ20090218202513102/18/09 20:25:31  5-MIN KDBQ 190225Z AUTO 33017G26KT 10SM OVC033 M06/M11 A2982 1170 65 -1000 330/17G26 RMK AO2 PK WND 33027/0158 $
94908KDBQ DBQ20090218203013102/18/09 20:30:31  5-MIN KDBQ 190230Z AUTO 34022G28KT 10SM OVC033 M06/M11 A2983 1170 65 -1000 340/22G28 RMK AO2 PK WND 33028/0229 $
94908KDBQ DBQ20090218203513102/18/09 20:35:31  5-MIN KDBQ 190235Z AUTO 34016G28KT 10SM OVC033 M06/M11 A2983 1170 65 -1000 340/16G28 RMK AO2 PK WND 33028/0229 $
94908KDBQ DBQ20090218204013102/18/09 20:40:31  5-MIN KDBQ 190240Z AUTO 34019G29KT 10SM OVC033 M06/M11 A2983 1160 65 -1000 340/19G29 RMK AO2 PK WND 36029/0238 $
94908KDBQ DBQ20090218204513102/18/09 20:45:31  5-MIN KDBQ 190245Z AUTO 34017G29KT 10SM OVC033 M06/M11 A2983 1160 65 -1000 340/17G29 RMK AO2 PK WND 36029/0238 $
94908KDBQ DBQ20090218205017502/18/09 20:50:31  5-MIN KDBQ 190250Z AUTO 35017G23KT 9SM -SN OVC033 M06/M11 A2983 1160 68 -1000 340/17G23 RMK AO2 PK WND 36029/0238 SNB50 SLP116 P0000 60000 T10561106 53044 $
94908KDBQ DBQ20090218205512902/18/09 20:55:31  5-MIN KDBQ 190255Z AUTO 35018G29KT 8SM -SN BKN030 OVC035 M06/M11 A2984 1160 68 -1100 350/18G29 RMK AO2 P0000 $
94908KDBQ DBQ20090218210012902/18/09 21:00:31  5-MIN KDBQ 190300Z AUTO 35019G29KT 4SM -SN BKN028 OVC035 M06/M11 A2984 1150 71 -1100 350/19G29 RMK AO2 P0000 $
94908KDBQ DBQ20090218210512902/18/09 21:05:31  5-MIN KDBQ 190305Z AUTO 35018G23KT 4SM -SN BKN028 OVC035 M06/M11 A2984 1150 68 -1100 350/18G23 RMK AO2 P0000 $
94908KDBQ DBQ20090218211012902/18/09 21:10:31  5-MIN KDBQ 190310Z AUTO 34012G23KT 8SM -SN BKN028 OVC035 M06/M11 A2984 1150 68 -1100 340/12G23 RMK AO2 P0000 $
94908KDBQ DBQ20090218211513102/18/09 21:15:31  5-MIN KDBQ 190315Z AUTO 34015G23KT 9SM BKN028 OVC037 M06/M12 A2985 1150 65 -1100 340/15G23 RMK AO2 SNE13 P0000 $
94908KDBQ DBQ20090218212013202/18/09 21:20:31  5-MIN KDBQ 190320Z AUTO 34016G23KT 10SM SCT028 OVC037 M06/M12 A2985 1140 65 -1100 340/16G23 RMK AO2 SNE13 P0000 $
94908KDBQ DBQ20090218212515002/18/09 21:25:31  5-MIN KDBQ 190325Z AUTO 34020G27KT 10SM FEW026 OVC037 M06/M12 A2985 1140 62 -1100 340/20G27 RMK AO2 PK WND 34027/0324 SNE13 P0000 $
94908KDBQ DBQ20090218213014302/18/09 21:30:31  5-MIN KDBQ 190330Z AUTO 34017G27KT 10SM OVC035 M06/M12 A2985 1140 62 -1100 340/17G27 RMK AO2 PK WND 34027/0324 SNE13 P0000 $
94908KDBQ DBQ20090218213514302/18/09 21:35:31  5-MIN KDBQ 190335Z AUTO 34017G24KT 10SM OVC035 M06/M12 A2985 1140 62 -1100 340/17G24 RMK AO2 PK WND 34027/0324 SNE13 P0000 $
94908KDBQ DBQ20090218214014302/18/09 21:40:31  5-MIN KDBQ 190340Z AUTO 33016G24KT 10SM OVC035 M06/M12 A2986 1140 65 -1100 330/16G24 RMK AO2 PK WND 34027/0324 SNE13 P0000 $
94908KDBQ DBQ20090218214514902/18/09 21:45:31  5-MIN KDBQ 190345Z AUTO 33016G22KT 7SM -SN OVC037 M07/M11 A2986 1130 71 -1200 330/16G22 RMK AO2 PK WND 34027/0324 SNE13B43 P0000 $
94908KDBQ DBQ20090218215016702/18/09 21:50:31  5-MIN KDBQ 190350Z AUTO 33014KT 4SM -SN FEW023 OVC037 M07/M11 A2987 1130 74 -1200 330/14 RMK AO2 PK WND 34027/0324 SNE13B43 SLP126 P0000 T10671106 $
94908KDBQ DBQ20090218215514002/18/09 21:55:31  5-MIN KDBQ 190355Z AUTO 33016G22KT 2 1/2SM -SN SCT023 SCT030 OVC037 M07/M09 A2987 1130 81 -1200 330/16G22 RMK AO2 P0000 $
94908KDBQ DBQ20090218220013602/18/09 22:00:31  5-MIN KDBQ 190400Z AUTO 33013G22KT 3SM -SN FEW021 SCT028 OVC037 M07/M09 A2987 1130 81 -1200 330/13G22 RMK AO2 P0000 $
94908KDBQ DBQ20090218220513002/18/09 22:05:31  5-MIN KDBQ 190405Z AUTO 34017KT 3SM -SN FEW016 SCT026 OVC037 M07/M09 A2987 1120 81 -1200 340/17 RMK AO2 P0000 $
94908KDBQ DBQ20090218221014802/18/09 22:10:31  5-MIN KDBQ 190410Z AUTO 33018G24KT 2SM -SN SCT016 BKN028 OVC037 M07/M10 A2987 1120 77 -1200 330/18G24 RMK AO2 VIS 1 1/2V3 P0000 $
94908KDBQ DBQ20090218221513602/18/09 22:15:31  5-MIN KDBQ 190415Z AUTO 33014G24KT 3SM -SN FEW014 SCT023 OVC037 M07/M10 A2987 1120 77 -1200 330/14G24 RMK AO2 P0000 $
94908KDBQ DBQ20090218222012902/18/09 22:20:31  5-MIN KDBQ 190420Z AUTO 33014G23KT 6SM -SN FEW014 OVC039 M07/M11 A2988 1120 74 -1200 330/14G23 RMK AO2 P0000 $
94908KDBQ DBQ20090218222513102/18/09 22:25:31  5-MIN KDBQ 190425Z AUTO 33017G21KT 9SM FEW012 OVC039 M07/M11 A2988 1120 74 -1200 330/17G21 RMK AO2 SNE21 P0000 $
94908KDBQ DBQ20090218223013202/18/09 22:30:31  5-MIN KDBQ 190430Z AUTO 33014G21KT 10SM FEW012 OVC039 M07/M11 A2988 1120 71 -1200 330/14G21 RMK AO2 SNE21 P0000 $
94908KDBQ DBQ20090218223513202/18/09 22:35:31  5-MIN KDBQ 190435Z AUTO 33016G22KT 10SM FEW024 OVC039 M07/M11 A2988 1110 71 -1200 330/16G22 RMK AO2 SNE21 P0000 $
94908KDBQ DBQ20090218224013802/18/09 22:40:31  5-MIN KDBQ 190440Z AUTO 33017G23KT 8SM -SN FEW024 OVC039 M07/M12 A2988 1110 71 -1300 320/17G23 RMK AO2 SNE21B40 P0000 $
94908KDBQ DBQ20090218224513202/18/09 22:45:31  5-MIN KDBQ 190445Z AUTO 33018KT 8SM -SN FEW026 OVC039 M07/M12 A2989 1110 71 -1300 330/18 RMK AO2 SNE21B40 P0000 $
94908KDBQ DBQ20090218225015402/18/09 22:50:31  5-MIN KDBQ 190450Z AUTO 33016G24KT 9SM FEW026 OVC039 M07/M12 A2989 1110 68 -1300 330/16G24 RMK AO2 SNE21B40E49 SLP135 P0000 T10721122 $
94908KDBQ DBQ20090218225512602/18/09 22:55:31  5-MIN KDBQ 190455Z AUTO 32016G22KT 9SM FEW026 BKN037 OVC043 M07/M12 A2989 1110 68 -1300 320/16G22 RMK AO2 $
94908KDBQ DBQ20090218230011402/18/09 23:00:31  5-MIN KDBQ 190500Z AUTO 33015KT 10SM FEW026 OVC039 M07/M13 A2989 1110 65 -1300 330/15 RMK AO2 $
94908KDBQ DBQ20090218230511302/18/09 23:05:31  5-MIN KDBQ 190505Z AUTO 33015G20KT 10SM OVC039 M07/M13 A2989 1100 65 -1300 330/15G20 RMK AO2 $
94908KDBQ DBQ20090218231011302/18/09 23:10:31  5-MIN KDBQ 190510Z AUTO 33019G23KT 10SM OVC039 M07/M13 A2990 1100 65 -1300 330/19G23 RMK AO2 $
94908KDBQ DBQ20090218231511302/18/09 23:15:31  5-MIN KDBQ 190515Z AUTO 33016G23KT 10SM OVC039 M07/M13 A2990 1100 65 -1300 330/16G23 RMK AO2 $
94908KDBQ DBQ20090218232010702/18/09 23:20:31  5-MIN KDBQ 190520Z AUTO 33013KT 10SM OVC039 M07/M13 A2990 1100 62 -1300 330/13 RMK AO2 $
94908KDBQ DBQ20090218232511302/18/09 23:25:31  5-MIN KDBQ 190525Z AUTO 32019G22KT 10SM OVC039 M07/M13 A2990 1090 65 -1300 320/19G22 RMK AO2 $
94908KDBQ DBQ20090218233011302/18/09 23:30:31  5-MIN KDBQ 190530Z AUTO 33016G23KT 10SM OVC037 M08/M13 A2991 1090 64 -1400 330/16G23 RMK AO2 $
94908KDBQ DBQ20090218233511402/18/09 23:35:31  5-MIN KDBQ 190535Z AUTO 32017KT 10SM BKN035 OVC042 M08/M13 A2991 1090 64 -1400 320/17 RMK AO2 $
94908KDBQ DBQ20090218234012002/18/09 23:40:31  5-MIN KDBQ 190540Z AUTO 34017G24KT 10SM BKN033 OVC040 M08/M13 A2991 1090 67 -1400 340/17G24 RMK AO2 $
94908KDBQ DBQ20090218234511402/18/09 23:45:31  5-MIN KDBQ 190545Z AUTO 33019KT 10SM BKN035 OVC042 M08/M13 A2991 1090 67 -1400 330/19 RMK AO2 $
94908KDBQ DBQ20090218235018602/18/09 23:50:31  5-MIN KDBQ 190550Z AUTO 33018G25KT 4SM -SN SCT031 OVC039 M08/M12 A2992 1080 74 -1500 330/18G25 RMK AO2 SNB48 SLP145 P0000 60000 T10831122 11039 21083 400171083 51033 $
94908KDBQ DBQ20090218235514002/18/09 23:55:31  5-MIN KDBQ 190555Z AUTO 34017G25KT 1 3/4SM -SN FEW010 SCT020 OVC033 M08/M11 A2992 1080 80 -1500 340/17G25 RMK AO2 P0000 $
94908KDBQ DBQ20090219000013402/19/09 00:00:38  5-MIN KDBQ 190600Z AUTO 34016KT 1 1/4SM -SN FEW008 BKN020 OVC039 M08/M11 A2992 1080 80 -1500 340/16 RMK AO2 P0000 $
94908KDBQ DBQ20090219000513702/19/09 00:05:31  5-MIN KDBQ 190605Z AUTO 34016KT 1 1/4SM -SN BR FEW006 BKN019 OVC039 M08/M11 A2992 1080 84 -1500 340/16 RMK AO2 P0000 $
94908KDBQ DBQ20090219001013402/19/09 00:10:31  5-MIN KDBQ 190610Z AUTO 35013KT 1 3/4SM -SN FEW008 BKN025 OVC039 M08/M11 A2992 1080 80 -1500 350/13 RMK AO2 P0000 $
94908KDBQ DBQ20090219001513002/19/09 00:15:34  5-MIN KDBQ 190615Z AUTO 35013KT 3SM -SN SCT008 BKN027 OVC034 M08/M11 A2992 1080 80 -1500 350/13 RMK AO2 P0000 $
94908KDBQ DBQ20090219002013002/19/09 00:20:31  5-MIN KDBQ 190620Z AUTO 35015KT 7SM -SN FEW008 BKN027 OVC036 M08/M12 A2992 1070 77 -1500 350/15 RMK AO2 P0000 $
94908KDBQ DBQ20090219002513002/19/09 00:25:31  5-MIN KDBQ 190625Z AUTO 35016KT 6SM -SN FEW006 BKN031 OVC038 M08/M12 A2993 1070 74 -1500 350/16 RMK AO2 P0000 $
94908KDBQ DBQ20090219003013002/19/09 00:30:31  5-MIN KDBQ 190630Z AUTO 01014KT 6SM -SN FEW019 BKN031 OVC038 M08/M13 A2993 1070 70 -1500 010/14 RMK AO2 P0000 $
94908KDBQ DBQ20090219003513202/19/09 00:35:31  5-MIN KDBQ 190635Z AUTO 36009KT 9SM FEW016 BKN028 OVC038 M09/M14 A2993 1070 67 -1500 360/09 RMK AO2 SNE34 P0000 $
94908KDBQ DBQ20090219004012602/19/09 00:40:31  5-MIN KDBQ 190640Z AUTO 01012KT 10SM FEW026 OVC035 M09/M14 A2993 1070 64 -1500 010/12 RMK AO2 SNE34 P0000 $
94908KDBQ DBQ20090219004513302/19/09 00:45:31  5-MIN KDBQ 190645Z AUTO 01011KT 10SM FEW023 SCT028 OVC037 M09/M14 A2993 1070 64 -1600 010/11 RMK AO2 SNE34 P0000 $
94908KDBQ DBQ20090219005013602/19/09 00:50:31  5-MIN KDBQ 190650Z AUTO 36012KT 10SM OVC033 M09/M15 A2993 1070 61 -1600 360/12 RMK AO2 SNE34 SLP152 P0000 T10891150 $
94908KDBQ DBQ20090219005510702/19/09 00:55:31  5-MIN KDBQ 190655Z AUTO 36011KT 10SM OVC032 M09/M14 A2994 1060 64 -1600 360/11 RMK AO2 $
94908KDBQ DBQ20090219010010702/19/09 01:00:31  5-MIN KDBQ 190700Z AUTO 36012KT 10SM OVC032 M09/M14 A2994 1060 64 -1600 360/12 RMK AO2 $
94908KDBQ DBQ20090219010510602/19/09 01:05:31  5-MIN KDBQ 190705Z AUTO 36012KT 9SM OVC032 M09/M14 A2994 1060 64 -1600 350/12 RMK AO2 $
94908KDBQ DBQ20090219011012902/19/09 01:10:31  5-MIN KDBQ 190710Z AUTO 36011KT 8SM -SN BKN030 OVC036 M09/M14 A2994 1060 64 -1600 360/11 RMK AO2 SNB07 P0000 $
94908KDBQ DBQ20090219011512902/19/09 01:15:31  5-MIN KDBQ 190715Z AUTO 35013KT 7SM -SN BKN028 OVC034 M09/M14 A2994 1060 64 -1600 350/13 RMK AO2 SNB07 P0000 $
94908KDBQ DBQ20090219012012102/19/09 01:20:31  5-MIN KDBQ 190720Z AUTO 35015KT 7SM OVC028 M09/M14 A2994 1060 70 -1600 350/15 RMK AO2 SNB07E16 P0000 $
94908KDBQ DBQ20090219012512902/19/09 01:25:31  5-MIN KDBQ 190725Z AUTO 35011KT 4SM -SN BKN028 OVC034 M09/M14 A2994 1060 70 -1600 350/11 RMK AO2 SNB07 P0000 $
94908KDBQ DBQ20090219013013602/19/09 01:30:31  5-MIN KDBQ 190730Z AUTO 33012KT 4SM -SN FEW023 BKN028 OVC034 M09/M13 A2995 1050 77 -1600 330/12 RMK AO2 SNB07 P0000 $
94908KDBQ DBQ20090219013512902/19/09 01:35:31  5-MIN KDBQ 190735Z AUTO 33012KT 4SM -SN BKN026 OVC034 M09/M13 A2995 1050 77 -1600 330/12 RMK AO2 SNB07 P0000 $
94908KDBQ DBQ20090219014013602/19/09 01:40:31  5-MIN KDBQ 190740Z AUTO 33014KT 5SM -SN SCT023 BKN029 OVC034 M09/M13 A2995 1050 77 -1600 330/14 RMK AO2 SNB07 P0001 $
94908KDBQ DBQ20090219014512902/19/09 01:45:31  5-MIN KDBQ 190745Z AUTO 33015KT 5SM -SN BKN025 OVC033 M09/M13 A2995 1050 77 -1600 330/15 RMK AO2 SNB07 P0001 $
94908KDBQ DBQ20090219015014602/19/09 01:50:31  5-MIN KDBQ 190750Z AUTO 33016KT 5SM -SN BKN027 OVC033 M09/M13 A2996 1050 77 -1700 330/16 RMK AO2 SNB07 SLP159 P0001 T10941128 $
94908KDBQ DBQ20090219015512302/19/09 01:55:31  5-MIN KDBQ 190755Z AUTO 33015KT 4SM -SN SCT027 OVC033 M10/M13 A2996 1040 80 -1700 330/15 RMK AO2 P0000 $
94908KDBQ DBQ20090219020013002/19/09 02:00:31  5-MIN KDBQ 190800Z AUTO 33014KT 5SM -SN FEW022 BKN029 OVC035 M10/M13 A2996 1040 80 -1700 330/14 RMK AO2 P0000 $
94908KDBQ DBQ20090219020512502/19/09 02:05:31  5-MIN KDBQ 190805Z AUTO 32014KT 8SM BKN029 OVC035 M10/M13 A2996 1040 80 -1700 320/14 RMK AO2 SNE04 P0000 $
94908KDBQ DBQ20090219021012402/19/09 02:10:31  5-MIN KDBQ 190810Z AUTO 33013G22KT 9SM OVC032 M10/M13 A2996 1040 77 -1700 330/13G22 RMK AO2 SNE04 P0000 $
94908KDBQ DBQ20090219021512502/19/09 02:15:31  5-MIN KDBQ 190815Z AUTO 33012G22KT 10SM OVC033 M10/M13 A2996 1040 77 -1700 320/12G22 RMK AO2 SNE04 P0000 $
94908KDBQ DBQ20090219022012602/19/09 02:20:31  5-MIN KDBQ 190820Z AUTO 32013KT 10SM FEW027 OVC033 M10/M13 A2997 1040 77 -1700 320/13 RMK AO2 SNE04 P0000 $
94908KDBQ DBQ20090219022512602/19/09 02:25:31  5-MIN KDBQ 190825Z AUTO 33013KT 10SM FEW027 OVC033 M10/M13 A2997 1030 77 -1700 330/13 RMK AO2 SNE04 P0000 $
94908KDBQ DBQ20090219023011902/19/09 02:30:31  5-MIN KDBQ 190830Z AUTO 33014KT 10SM OVC033 M10/M13 A2997 1030 77 -1700 330/14 RMK AO2 SNE04 P0000 $
94908KDBQ DBQ20090219023511902/19/09 02:35:31  5-MIN KDBQ 190835Z AUTO 33013KT 10SM OVC033 M10/M13 A2997 1030 77 -1700 330/13 RMK AO2 SNE04 P0000 $
94908KDBQ DBQ20090219024012502/19/09 02:40:31  5-MIN KDBQ 190840Z AUTO 33010G18KT 10SM OVC033 M10/M13 A2997 1030 77 -1700 330/10G18 RMK AO2 SNE04 P0000 $
94908KDBQ DBQ20090219024511902/19/09 02:45:31  5-MIN KDBQ 190845Z AUTO 32012KT 10SM OVC031 M10/M13 A2998 1030 77 -1700 320/12 RMK AO2 SNE04 P0000 $
94908KDBQ DBQ20090219025012602/19/09 02:50:31  5-MIN KDBQ 190850Z AUTO 33014KT 10SM BKN027 OVC033 M11/M14 A2998 1030 77 -1800 330/14 RMK AO2 SNE04 P0000 $
94908KDBQ DBQ20090219025511302/19/09 02:55:31  5-MIN KDBQ 190855Z AUTO 32013KT 9SM BKN027 OVC033 M11/M14 A2998 1030 77 -1800 320/13 RMK AO2 $
94908KDBQ DBQ20090219030013102/19/09 03:00:31  5-MIN KDBQ 190900Z AUTO 33014KT 8SM -SN BKN025 OVC031 M11/M14 A2998 1020 77 -1800 330/14 RMK AO2 SNB0857 P0000 $
94908KDBQ DBQ20090219030512902/19/09 03:05:31  5-MIN KDBQ 190905Z AUTO 33015G20KT 9SM OVC027 M11/M14 A2998 1020 77 -1800 330/15G20 RMK AO2 SNB0857E04 P0000 $
94908KDBQ DBQ20090219031012902/19/09 03:10:31  5-MIN KDBQ 190910Z AUTO 33016G20KT 9SM OVC027 M11/M14 A2998 1020 77 -1800 330/16G20 RMK AO2 SNB0857E04 P0000 $
94908KDBQ DBQ20090219031512302/19/09 03:15:31  5-MIN KDBQ 190915Z AUTO 33013KT 8SM OVC027 M11/M14 A2999 1020 73 -1800 330/13 RMK AO2 SNB0857E04 P0000 $
94908KDBQ DBQ20090219032013002/19/09 03:20:31  5-MIN KDBQ 190920Z AUTO 33009KT 8SM BKN024 OVC029 M11/M14 A2999 1020 77 -1800 330/09 RMK AO2 SNB0857E04 P0000 $
94908KDBQ DBQ20090219032514302/19/09 03:25:31  5-MIN KDBQ 190925Z AUTO 33011G17KT 6SM -SN BKN022 OVC027 M11/M14 A2999 1010 73 -1800 330/11G17 RMK AO2 SNB0857E04B24 P0000 $
94908KDBQ DBQ20090219033013702/19/09 03:30:31  5-MIN KDBQ 190930Z AUTO 32012KT 5SM -SN BKN022 OVC027 M11/M14 A3000 1010 77 -1900 320/12 RMK AO2 SNB0857E04B24 P0000 $
94908KDBQ DBQ20090219033513702/19/09 03:35:31  5-MIN KDBQ 190935Z AUTO 31012KT 5SM -SN BKN022 OVC027 M11/M15 A3000 1010 73 -1900 310/12 RMK AO2 SNB0857E04B24 P0000 $
94908KDBQ DBQ20090219034013702/19/09 03:40:31  5-MIN KDBQ 190940Z AUTO 32013KT 6SM -SN BKN022 OVC027 M11/M15 A3000 1010 73 -1900 320/13 RMK AO2 SNB0857E04B24 P0000 $
94908KDBQ DBQ20090219034513602/19/09 03:45:31  5-MIN KDBQ 190945Z AUTO 33013KT 8SM BKN022 OVC027 M11/M15 A3000 1010 73 -1900 330/13 RMK AO2 SNB0857E04B24E43 P0000 $
94908KDBQ DBQ20090219035015302/19/09 03:50:31  5-MIN KDBQ 190950Z AUTO 33012KT 9SM BKN022 OVC027 M11/M16 A3000 1010 70 -1900 330/12 RMK AO2 SNB0857E04B24E43 SLP177 P0000 T11111156 $
94908KDBQ DBQ20090219035511402/19/09 03:55:31  5-MIN KDBQ 190955Z AUTO 32011KT 10SM SCT022 OVC027 M12/M16 A3000 1000 73 -2000 320/11 RMK AO2 $
94908KDBQ DBQ20090219040010702/19/09 04:00:31  5-MIN KDBQ 191000Z AUTO 33013KT 10SM OVC027 M12/M16 A3000 1000 70 -2000 330/13 RMK AO2 $
94908KDBQ DBQ20090219040510702/19/09 04:05:31  5-MIN KDBQ 191005Z AUTO 33011KT 10SM OVC027 M12/M16 A3000 1000 70 -2000 330/11 RMK AO2 $
94908KDBQ DBQ20090219041011402/19/09 04:10:31  5-MIN KDBQ 191010Z AUTO 33014KT 10SM FEW020 OVC027 M12/M16 A3000 1000 70 -2000 330/14 RMK AO2 $
94908KDBQ DBQ20090219041511402/19/09 04:15:31  5-MIN KDBQ 191015Z AUTO 32013KT 10SM FEW020 BKN027 M12/M17 A3000 1000 70 -2100 320/13 RMK AO2 $
94908KDBQ DBQ20090219042011302/19/09 04:20:31  5-MIN KDBQ 191020Z AUTO 33014G20KT 10SM BKN027 M12/M17 A3001 1000 70 -2100 330/14G20 RMK AO2 $
94908KDBQ DBQ20090219042510702/19/09 04:25:31  5-MIN KDBQ 191025Z AUTO 33014KT 10SM SCT027 M12/M17 A3001 1000 70 -2100 330/14 RMK AO2 $
94908KDBQ DBQ20090219043010702/19/09 04:30:31  5-MIN KDBQ 191030Z AUTO 33015KT 10SM FEW027 M12/M17 A3001 1000 70 -2100 330/15 RMK AO2 $
94908KDBQ DBQ20090219043510702/19/09 04:35:31  5-MIN KDBQ 191035Z AUTO 34013KT 10SM FEW027 M12/M17 A3001 1000 70 -2100 330/13 RMK AO2 $
94908KDBQ DBQ20090219044010302/19/09 04:40:31  5-MIN KDBQ 191040Z AUTO 33012KT 10SM CLR M13/M17 A3001 990 73 -2200 330/12 RMK AO2 $
94908KDBQ DBQ20090219044510302/19/09 04:45:31  5-MIN KDBQ 191045Z AUTO 33014KT 10SM CLR M13/M17 A3002 990 73 -2200 330/14 RMK AO2 $
94908KDBQ DBQ20090219045012002/19/09 04:50:31  5-MIN KDBQ 191050Z AUTO 33013KT 10SM CLR M13/M17 A3002 990 70 -2200 330/13 RMK AO2 SLP185 T11281172 $
94908KDBQ DBQ20090219045510302/19/09 04:55:31  5-MIN KDBQ 191055Z AUTO 33013KT 10SM CLR M13/M17 A3002 980 70 -2200 330/13 RMK AO2 $
94908KDBQ DBQ20090219050010302/19/09 05:00:31  5-MIN KDBQ 191100Z AUTO 34011KT 10SM CLR M13/M17 A3002 980 70 -2200 330/11 RMK AO2 $
94908KDBQ DBQ20090219050510302/19/09 05:05:31  5-MIN KDBQ 191105Z AUTO 34009KT 10SM CLR M13/M17 A3003 980 70 -2200 330/09 RMK AO2 $
94908KDBQ DBQ20090219051010902/19/09 05:10:31  5-MIN KDBQ 191110Z AUTO 33012G17KT 10SM CLR M13/M18 A3003 980 66 -2200 330/12G17 RMK AO2 $
94908KDBQ DBQ20090219051510302/19/09 05:15:31  5-MIN KDBQ 191115Z AUTO 33013KT 10SM CLR M13/M18 A3003 980 66 -2200 330/13 RMK AO2 $
94908KDBQ DBQ20090219052010302/19/09 05:20:31  5-MIN KDBQ 191120Z AUTO 33011KT 10SM CLR M13/M18 A3003 970 66 -2200 330/11 RMK AO2 $
94908KDBQ DBQ20090219052510302/19/09 05:25:31  5-MIN KDBQ 191125Z AUTO 33011KT 10SM CLR M13/M18 A3004 970 69 -2300 330/11 RMK AO2 $
94908KDBQ DBQ20090219053010302/19/09 05:30:31  5-MIN KDBQ 191130Z AUTO 34012KT 10SM CLR M13/M18 A3004 970 69 -2300 340/12 RMK AO2 $
94908KDBQ DBQ20090219053510302/19/09 05:35:31  5-MIN KDBQ 191135Z AUTO 33009KT 10SM CLR M13/M18 A3004 970 69 -2300 330/09 RMK AO2 $
94908KDBQ DBQ20090219054010302/19/09 05:40:31  5-MIN KDBQ 191140Z AUTO 33009KT 10SM CLR M13/M18 A3004 970 69 -2300 330/09 RMK AO2 $
94908KDBQ DBQ20090219054510302/19/09 05:45:31  5-MIN KDBQ 191145Z AUTO 33011KT 10SM CLR M13/M18 A3004 960 69 -2300 330/11 RMK AO2 $
94908KDBQ DBQ20090219055014502/19/09 05:50:31  5-MIN KDBQ 191150Z 33010KT 10SM CLR M13/M18 A3005 960 69 -2300 330/10 RMK AO2 SLP194 60001 70002 T11331178 11083 21133 52020 $
94908KDBQ DBQ20090219055509802/19/09 05:55:31  5-MIN KDBQ 191155Z 33011KT 10SM CLR M13/M18 A3005 960 69 -2300 330/11 RMK AO2 $
94908KDBQ DBQ20090219060009802/19/09 06:00:31  5-MIN KDBQ 191200Z 32012KT 10SM CLR M13/M18 A3005 960 69 -2300 320/12 RMK AO2 $
94908KDBQ DBQ20090219060509802/19/09 06:05:31  5-MIN KDBQ 191205Z 32012KT 10SM CLR M13/M18 A3005 960 69 -2300 320/12 RMK AO2 $
94908KDBQ DBQ20090219061009802/19/09 06:10:31  5-MIN KDBQ 191210Z 33012KT 10SM CLR M13/M18 A3005 960 69 -2300 320/12 RMK AO2 $
94908KDBQ DBQ20090219061509802/19/09 06:15:31  5-MIN KDBQ 191215Z 33011KT 10SM CLR M14/M18 A3005 960 73 -2300 320/11 RMK AO2 $
94908KDBQ DBQ20090219062009802/19/09 06:20:31  5-MIN KDBQ 191220Z 32010KT 10SM CLR M14/M18 A3005 960 73 -2400 320/10 RMK AO2 $
94908KDBQ DBQ20090219062509802/19/09 06:25:31  5-MIN KDBQ 191225Z 32012KT 10SM CLR M14/M18 A3005 950 73 -2400 320/12 RMK AO2 $
94908KDBQ DBQ20090219063009802/19/09 06:30:31  5-MIN KDBQ 191230Z 32011KT 10SM CLR M14/M18 A3006 950 73 -2400 320/11 RMK AO2 $
94908KDBQ DBQ20090219063509802/19/09 06:35:31  5-MIN KDBQ 191235Z 32012KT 10SM CLR M14/M18 A3006 950 69 -2400 320/12 RMK AO2 $
94908KDBQ DBQ20090219064009802/19/09 06:40:31  5-MIN KDBQ 191240Z 32012KT 10SM CLR M14/M18 A3006 950 69 -2400 320/12 RMK AO2 $
94908KDBQ DBQ20090219064509802/19/09 06:45:31  5-MIN KDBQ 191245Z 32012KT 10SM CLR M14/M18 A3006 950 69 -2400 320/12 RMK AO2 $
94908KDBQ DBQ20090219065011502/19/09 06:50:31  5-MIN KDBQ 191250Z 33010KT 10SM CLR M14/M18 A3006 950 69 -2400 330/10 RMK AO2 SLP201 T11391183 $
94908KDBQ DBQ20090219065509802/19/09 06:55:31  5-MIN KDBQ 191255Z 32009KT 10SM CLR M14/M18 A3006 950 69 -2400 320/09 RMK AO2 $
94908KDBQ DBQ20090219070009802/19/09 07:00:31  5-MIN KDBQ 191300Z 32011KT 10SM CLR M14/M18 A3007 940 69 -2400 320/11 RMK AO2 $
94908KDBQ DBQ20090219070509802/19/09 07:05:31  5-MIN KDBQ 191305Z 32011KT 10SM CLR M14/M18 A3007 940 69 -2400 320/11 RMK AO2 $
94908KDBQ DBQ20090219071009802/19/09 07:10:31  5-MIN KDBQ 191310Z 32012KT 10SM CLR M14/M18 A3007 940 69 -2400 320/12 RMK AO2 $
94908KDBQ DBQ20090219071509802/19/09 07:15:31  5-MIN KDBQ 191315Z 31011KT 10SM CLR M14/M18 A3007 940 69 -2400 310/11 RMK AO2 $
94908KDBQ DBQ20090219072009802/19/09 07:20:31  5-MIN KDBQ 191320Z 32011KT 10SM CLR M14/M18 A3008 930 69 -2400 320/11 RMK AO2 $
94908KDBQ DBQ20090219072509802/19/09 07:25:31  5-MIN KDBQ 191325Z 32011KT 10SM CLR M14/M18 A3008 930 69 -2400 310/11 RMK AO2 $
94908KDBQ DBQ20090219073009802/19/09 07:30:31  5-MIN KDBQ 191330Z 31009KT 10SM CLR M14/M18 A3008 930 73 -2400 310/09 RMK AO2 $
94908KDBQ DBQ20090219073509802/19/09 07:35:31  5-MIN KDBQ 191335Z 32012KT 10SM CLR M14/M18 A3009 930 73 -2400 310/12 RMK AO2 $
94908KDBQ DBQ20090219074009802/19/09 07:40:31  5-MIN KDBQ 191340Z 32012KT 10SM CLR M14/M18 A3009 920 73 -2400 320/12 RMK AO2 $
94908KDBQ DBQ20090219074509802/19/09 07:45:31  5-MIN KDBQ 191345Z 31010KT 10SM CLR M13/M18 A3009 920 69 -2300 310/10 RMK AO2 $
94908KDBQ DBQ20090219075011502/19/09 07:50:31  5-MIN KDBQ 191350Z 32009KT 10SM CLR M13/M18 A3009 920 69 -2300 320/09 RMK AO2 SLP210 T11331178 $
94908KDBQ DBQ20090219075509802/19/09 07:55:31  5-MIN KDBQ 191355Z 31010KT 10SM CLR M13/M18 A3009 920 69 -2300 310/10 RMK AO2 $
94908KDBQ DBQ20090219080009802/19/09 08:00:31  5-MIN KDBQ 191400Z 32012KT 10SM CLR M13/M18 A3009 920 69 -2300 320/12 RMK AO2 $
94908KDBQ DBQ20090219080509802/19/09 08:05:31  5-MIN KDBQ 191405Z 33013KT 10SM CLR M13/M18 A3009 920 69 -2300 330/13 RMK AO2 $
94908KDBQ DBQ20090219081010402/19/09 08:10:31  5-MIN KDBQ 191410Z 33013KT 10SM CLR M13/M18 A3009 920 66 -2300 330/13 RMK AO2 P0001 $
94908KDBQ DBQ20090219081510402/19/09 08:15:31  5-MIN KDBQ 191415Z 32014KT 10SM CLR M13/M18 A3010 920 66 -2300 320/14 RMK AO2 P0001 $
94908KDBQ DBQ20090219082011002/19/09 08:20:31  5-MIN KDBQ 191420Z 32015G19KT 10SM CLR M13/M18 A3010 910 66 -2300 320/15G19 RMK AO2 P0001 $
94908KDBQ DBQ20090219082511002/19/09 08:25:31  5-MIN KDBQ 191425Z 33011G19KT 10SM CLR M13/M18 A3010 910 66 -2300 330/11G19 RMK AO2 P0001 $
94908KDBQ DBQ20090219083010402/19/09 08:30:31  5-MIN KDBQ 191430Z 33011KT 10SM CLR M13/M17 A3010 910 70 -2300 320/11 RMK AO2 P0001 $
94908KDBQ DBQ20090219083510402/19/09 08:35:31  5-MIN KDBQ 191435Z 33011KT 10SM CLR M12/M17 A3010 910 67 -2200 330/11 RMK AO2 P0001 $
94908KDBQ DBQ20090219084010402/19/09 08:40:31  5-MIN KDBQ 191440Z 33013KT 10SM CLR M12/M17 A3010 910 67 -2200 330/13 RMK AO2 P0001 $
94908KDBQ DBQ20090219084510402/19/09 08:45:31  5-MIN KDBQ 191445Z 32010KT 10SM CLR M12/M17 A3010 910 70 -2200 320/10 RMK AO2 P0001 $
94908KDBQ DBQ20090219085013302/19/09 08:50:31  5-MIN KDBQ 191450Z 33012KT 10SM CLR M12/M17 A3010 910 67 -2200 330/12 RMK AO2 SLP215 P0001 60001 T11221172 53023 $
94908KDBQ DBQ20090219085509802/19/09 08:55:31  5-MIN KDBQ 191455Z 33012KT 10SM CLR M12/M17 A3010 910 67 -2100 330/12 RMK AO2 $
94908KDBQ DBQ20090219090009802/19/09 09:00:31  5-MIN KDBQ 191500Z 32010KT 10SM CLR M12/M17 A3011 910 67 -2100 320/10 RMK AO2 $
94908KDBQ DBQ20090219090509802/19/09 09:05:31  5-MIN KDBQ 191505Z 32011KT 10SM CLR M12/M17 A3011 910 64 -2100 320/11 RMK AO2 $
94908KDBQ DBQ20090219091009802/19/09 09:10:31  5-MIN KDBQ 191510Z 33014KT 10SM CLR M12/M17 A3011 910 64 -2100 330/14 RMK AO2 $
94908KDBQ DBQ20090219091509802/19/09 09:15:31  5-MIN KDBQ 191515Z 34014KT 10SM CLR M12/M17 A3011 900 67 -2100 330/14 RMK AO2 $
94908KDBQ DBQ20090219092009802/19/09 09:20:31  5-MIN KDBQ 191520Z 33011KT 10SM CLR M12/M17 A3011 900 64 -2100 330/11 RMK AO2 $
94908KDBQ DBQ20090219092509802/19/09 09:25:31  5-MIN KDBQ 191525Z 32011KT 10SM CLR M11/M17 A3012 900 64 -2100 320/11 RMK AO2 $
94908KDBQ DBQ20090219093009802/19/09 09:30:31  5-MIN KDBQ 191530Z 31013KT 10SM CLR M11/M17 A3012 900 64 -2100 310/13 RMK AO2 $
94908KDBQ DBQ20090219093509802/19/09 09:35:31  5-MIN KDBQ 191535Z 31011KT 10SM CLR M11/M17 A3012 900 64 -2100 300/11 RMK AO2 $
94908KDBQ DBQ20090219094009802/19/09 09:40:31  5-MIN KDBQ 191540Z 30012KT 10SM CLR M11/M17 A3012 900 61 -2000 300/12 RMK AO2 $
94908KDBQ DBQ20090219094510402/19/09 09:45:31  5-MIN KDBQ 191545Z 31015G19KT 10SM CLR M11/M17 A3012 890 61 -2000 310/15G19 RMK AO2 $
94908KDBQ DBQ20090219095011502/19/09 09:50:31  5-MIN KDBQ 191550Z 33012KT 10SM CLR M11/M17 A3012 890 61 -2000 330/12 RMK AO2 SLP220 T11061167 $
94908KDBQ DBQ20090219095509802/19/09 09:55:31  5-MIN KDBQ 191555Z 31010KT 10SM CLR M11/M17 A3012 890 61 -2000 310/10 RMK AO2 $
94908KDBQ DBQ20090219100009802/19/09 10:00:31  5-MIN KDBQ 191600Z 31012KT 10SM CLR M10/M16 A3012 890 61 -1900 310/12 RMK AO2 $
94908KDBQ DBQ20090219100509802/19/09 10:05:31  5-MIN KDBQ 191605Z 31012KT 10SM CLR M10/M16 A3012 890 61 -1900 310/12 RMK AO2 $
94908KDBQ DBQ20090219101009802/19/09 10:10:31  5-MIN KDBQ 191610Z 30013KT 10SM CLR M10/M17 A3012 890 58 -1900 300/13 RMK AO2 $
94908KDBQ DBQ20090219101509802/19/09 10:15:31  5-MIN KDBQ 191615Z 30012KT 10SM CLR M10/M16 A3012 890 61 -1900 300/12 RMK AO2 $
94908KDBQ DBQ20090219102009802/19/09 10:20:31  5-MIN KDBQ 191620Z 30012KT 10SM CLR M10/M16 A3012 890 61 -1900 290/12 RMK AO2 $
94908KDBQ DBQ20090219102509802/19/09 10:25:31  5-MIN KDBQ 191625Z 31014KT 10SM CLR M09/M16 A3012 890 59 -1800 310/14 RMK AO2 $
94908KDBQ DBQ20090219103009802/19/09 10:30:31  5-MIN KDBQ 191630Z 31012KT 10SM CLR M09/M16 A3012 890 59 -1800 310/12 RMK AO2 $
94908KDBQ DBQ20090219103510402/19/09 10:35:31  5-MIN KDBQ 191635Z 32011G18KT 10SM CLR M09/M16 A3012 890 59 -1800 320/11G18 RMK AO2 $
94908KDBQ DBQ20090219104010402/19/09 10:40:31  5-MIN KDBQ 191640Z 33011G18KT 10SM CLR M09/M16 A3012 890 61 -1800 330/11G18 RMK AO2 $
94908KDBQ DBQ20090219104509802/19/09 10:45:31  5-MIN KDBQ 191645Z 32012KT 10SM CLR M09/M16 A3012 890 59 -1800 320/12 RMK AO2 $
94908KDBQ DBQ20090219105011502/19/09 10:50:31  5-MIN KDBQ 191650Z 31010KT 10SM CLR M09/M16 A3012 890 59 -1800 310/10 RMK AO2 SLP221 T10941161 $
94908KDBQ DBQ20090219105509802/19/09 10:55:31  5-MIN KDBQ 191655Z 30012KT 10SM CLR M09/M16 A3012 890 56 -1800 300/12 RMK AO2 $
94908KDBQ DBQ20090219110009802/19/09 11:00:31  5-MIN KDBQ 191700Z 32013KT 10SM CLR M09/M16 A3013 890 56 -1800 320/13 RMK AO2 $
94908KDBQ DBQ20090219110509802/19/09 11:05:31  5-MIN KDBQ 191705Z 30010KT 10SM CLR M09/M16 A3013 890 56 -1800 300/10 RMK AO2 $
94908KDBQ DBQ20090219111010402/19/09 11:10:31  5-MIN KDBQ 191710Z 30011KT 10SM CLR M08/M16 A3013 890 56 -1700 300/11 RMK AO2 P0001 $
94908KDBQ DBQ20090219111510402/19/09 11:15:31  5-MIN KDBQ 191715Z 30013KT 10SM CLR M08/M16 A3013 890 56 -1700 300/13 RMK AO2 P0001 $
94908KDBQ DBQ20090219112010402/19/09 11:20:31  5-MIN KDBQ 191720Z 29010KT 10SM CLR M08/M16 A3013 890 54 -1700 290/10 RMK AO2 P0001 $
94908KDBQ DBQ20090219112511002/19/09 11:25:31  5-MIN KDBQ 191725Z 30010G17KT 10SM CLR M08/M16 A3013 890 54 -1600 300/10G17 RMK AO2 P0001 $
94908KDBQ DBQ20090219113011002/19/09 11:30:31  5-MIN KDBQ 191730Z 29013G17KT 10SM CLR M08/M16 A3013 890 56 -1700 290/13G17 RMK AO2 P0001 $
94908KDBQ DBQ20090219113510402/19/09 11:35:31  5-MIN KDBQ 191735Z 31012KT 10SM CLR M08/M16 A3013 890 54 -1600 310/12 RMK AO2 P0001 $
94908KDBQ DBQ20090219114010402/19/09 11:40:31  5-MIN KDBQ 191740Z 30012KT 10SM CLR M08/M16 A3012 890 54 -1700 290/12 RMK AO2 P0001 $
94908KDBQ DBQ20090219114511002/19/09 11:45:31  5-MIN KDBQ 191745Z 29011G20KT 10SM CLR M08/M16 A3012 890 54 -1600 290/11G20 RMK AO2 P0001 $
94908KDBQ DBQ20090219115015102/19/09 11:50:31  5-MIN KDBQ 191750Z 31013G20KT 10SM CLR M07/M15 A3012 890 54 -1600 300/13G20 RMK AO2 SLP220 P0001 60002 T10721150 11072 21139 51019 $
94908KDBQ DBQ20090219115509802/19/09 11:55:31  5-MIN KDBQ 191755Z 31012KT 10SM CLR M07/M16 A3012 890 52 -1600 310/12 RMK AO2 $
94908KDBQ DBQ20090219120009802/19/09 12:00:31  5-MIN KDBQ 191800Z 31011KT 10SM CLR M07/M16 A3012 900 49 -1500 310/11 RMK AO2 $
94908KDBQ DBQ20090219120509802/19/09 12:05:31  5-MIN KDBQ 191805Z 30011KT 10SM CLR M07/M15 A3012 900 54 -1500 300/11 RMK AO2 $
94908KDBQ DBQ20090219121010402/19/09 12:10:31  5-MIN KDBQ 191810Z 29015G19KT 10SM CLR M07/M16 A3012 900 52 -1500 290/15G19 RMK AO2 $
94908KDBQ DBQ20090219121509802/19/09 12:15:31  5-MIN KDBQ 191815Z 31012KT 10SM CLR M07/M15 A3012 900 54 -1500 310/12 RMK AO2 $
94908KDBQ DBQ20090219122010402/19/09 12:20:31  5-MIN KDBQ 191820Z 29013G18KT 10SM CLR M07/M16 A3012 900 52 -1500 290/13G18 RMK AO2 $
94908KDBQ DBQ20090219122510402/19/09 12:25:31  5-MIN KDBQ 191825Z 31011G19KT 10SM CLR M07/M15 A3012 900 52 -1500 310/11G19 RMK AO2 $
94908KDBQ DBQ20090219123010402/19/09 12:30:31  5-MIN KDBQ 191830Z 30012G19KT 10SM CLR M07/M16 A3011 900 49 -1500 300/12G19 RMK AO2 $
94908KDBQ DBQ20090219123510402/19/09 12:35:31  5-MIN KDBQ 191835Z 29015G19KT 10SM CLR M07/M15 A3011 900 52 -1500 290/15G19 RMK AO2 $
94908KDBQ DBQ20090219124009802/19/09 12:40:31  5-MIN KDBQ 191840Z 30014KT 10SM CLR M07/M16 A3011 900 49 -1500 300/14 RMK AO2 $
94908KDBQ DBQ20090219124509802/19/09 12:45:31  5-MIN KDBQ 191845Z 31014KT 10SM CLR M07/M16 A3011 900 49 -1500 310/14 RMK AO2 $
94908KDBQ DBQ20090219125011502/19/09 12:50:31  5-MIN KDBQ 191850Z 31012KT 10SM CLR M07/M16 A3011 900 49 -1500 310/12 RMK AO2 SLP216 T10671156 $
94908KDBQ DBQ20090219125509802/19/09 12:55:31  5-MIN KDBQ 191855Z 30014KT 10SM CLR M06/M15 A3011 910 50 -1400 300/14 RMK AO2 $
94908KDBQ DBQ20090219130009802/19/09 13:00:31  5-MIN KDBQ 191900Z 30015KT 10SM CLR M06/M16 A3011 910 47 -1400 290/15 RMK AO2 $
94908KDBQ DBQ20090219130509802/19/09 13:05:31  5-MIN KDBQ 191905Z 29014KT 10SM CLR M07/M16 A3011 910 49 -1500 290/14 RMK AO2 $
94908KDBQ DBQ20090219131009802/19/09 13:10:31  5-MIN KDBQ 191910Z 30014KT 10SM CLR M06/M15 A3010 910 50 -1400 300/14 RMK AO2 $
94908KDBQ DBQ20090219131509802/19/09 13:15:31  5-MIN KDBQ 191915Z 30013KT 10SM CLR M06/M15 A3010 910 50 -1400 300/13 RMK AO2 $
94908KDBQ DBQ20090219132009802/19/09 13:20:31  5-MIN KDBQ 191920Z 30014KT 10SM CLR M06/M15 A3010 910 50 -1400 300/14 RMK AO2 $
94908KDBQ DBQ20090219132509802/19/09 13:25:31  5-MIN KDBQ 191925Z 31015KT 10SM CLR M06/M15 A3010 910 50 -1400 310/15 RMK AO2 $
94908KDBQ DBQ20090219133009802/19/09 13:30:31  5-MIN KDBQ 191930Z 30012KT 10SM CLR M06/M15 A3010 910 48 -1300 300/12 RMK AO2 $
94908KDBQ DBQ20090219133510402/19/09 13:35:31  5-MIN KDBQ 191935Z 31014G21KT 10SM CLR M06/M16 A3010 910 45 -1300 310/14G21 RMK AO2 $
94908KDBQ DBQ20090219134010402/19/09 13:40:31  5-MIN KDBQ 191940Z 32014G21KT 10SM CLR M06/M15 A3010 910 48 -1300 320/14G21 RMK AO2 $
94908KDBQ DBQ20090219134509802/19/09 13:45:31  5-MIN KDBQ 191945Z 32012KT 10SM CLR M05/M15 A3010 910 46 -1200 320/12 RMK AO2 $
94908KDBQ DBQ20090219135011502/19/09 13:50:31  5-MIN KDBQ 191950Z 30012KT 10SM CLR M06/M15 A3010 910 48 -1300 300/12 RMK AO2 SLP212 T10561150 $
94908KDBQ DBQ20090219135510402/19/09 13:55:31  5-MIN KDBQ 191955Z 31015G19KT 10SM CLR M06/M14 A3010 910 50 -1300 310/15G19 RMK AO2 $
94908KDBQ DBQ20090219140009802/19/09 14:00:31  5-MIN KDBQ 192000Z 29016KT 10SM CLR M06/M15 A3010 910 48 -1300 280/16 RMK AO2 $
94908KDBQ DBQ20090219140510402/19/09 14:05:31  5-MIN KDBQ 192005Z 29015G20KT 10SM CLR M06/M15 A3010 910 48 -1300 290/15G20 RMK AO2 $
94908KDBQ DBQ20090219141010402/19/09 14:10:31  5-MIN KDBQ 192010Z 30013G18KT 10SM CLR M05/M14 A3010 910 48 -1200 300/13G18 RMK AO2 $
94908KDBQ DBQ20090219141509802/19/09 14:15:31  5-MIN KDBQ 192015Z 31014KT 10SM CLR M05/M15 A3010 910 46 -1200 310/14 RMK AO2 $
94908KDBQ DBQ20090219142009802/19/09 14:20:31  5-MIN KDBQ 192020Z 31013KT 10SM CLR M05/M15 A3010 910 46 -1200 310/13 RMK AO2 $
94908KDBQ DBQ20090219142509802/19/09 14:25:31  5-MIN KDBQ 192025Z 30013KT 10SM CLR M06/M16 A3010 910 45 -1300 300/13 RMK AO2 $
94908KDBQ DBQ20090219143009802/19/09 14:30:31  5-MIN KDBQ 192030Z 29015KT 10SM CLR M05/M15 A3010 910 46 -1200 290/15 RMK AO2 $
94908KDBQ DBQ20090219143509802/19/09 14:35:31  5-MIN KDBQ 192035Z 29012KT 10SM CLR M06/M15 A3010 910 48 -1300 290/12 RMK AO2 $
94908KDBQ DBQ20090219144009802/19/09 14:40:31  5-MIN KDBQ 192040Z 30013KT 10SM CLR M05/M14 A3010 910 48 -1200 300/13 RMK AO2 $
94908KDBQ DBQ20090219144509802/19/09 14:45:31  5-MIN KDBQ 192045Z 29012KT 10SM CLR M05/M15 A3010 910 46 -1200 290/12 RMK AO2 $
94908KDBQ DBQ20090219145012602/19/09 14:50:31  5-MIN KDBQ 192050Z AUTO 29011KT 10SM CLR M05/M14 A3010 910 48 -1200 290/11 RMK AO2 SLP212 T10501144 50006 $
94908KDBQ DBQ20090219145510902/19/09 14:55:31  5-MIN KDBQ 192055Z AUTO 31013G20KT 10SM CLR M05/M14 A3010 910 48 -1200 310/13G20 RMK AO2 $
94908KDBQ DBQ20090219150010202/19/09 15:00:31  5-MIN KDBQ 192100Z 30013G20KT 10SM CLR M05/M15 A3010 910 46 -1200 300/13G20 RMK AO2
94908KDBQ DBQ20090219150510202/19/09 15:05:31  5-MIN KDBQ 192105Z 30013G19KT 10SM CLR M05/M15 A3010 910 46 -1200 300/13G19 RMK AO2
94908KDBQ DBQ20090219151010202/19/09 15:10:31  5-MIN KDBQ 192110Z 29012G19KT 10SM CLR M05/M15 A3010 910 46 -1200 290/12G19 RMK AO2
94908KDBQ DBQ20090219151509602/19/09 15:15:31  5-MIN KDBQ 192115Z 30011KT 10SM CLR M05/M15 A3010 910 46 -1200 300/11 RMK AO2
94908KDBQ DBQ20090219152010202/19/09 15:20:31  5-MIN KDBQ 192120Z 29014G18KT 10SM CLR M05/M14 A3010 910 48 -1200 280/14G18 RMK AO2
94908KDBQ DBQ20090219152509602/19/09 15:25:31  5-MIN KDBQ 192125Z 29014KT 10SM CLR M05/M15 A3010 910 46 -1200 290/14 RMK AO2
94908KDBQ DBQ20090219153010202/19/09 15:30:31  5-MIN KDBQ 192130Z 29015G19KT 10SM CLR M05/M16 A3010 910 44 -1200 290/15G19 RMK AO2
94908KDBQ DBQ20090219153510202/19/09 15:35:31  5-MIN KDBQ 192135Z 31013G20KT 10SM CLR M05/M16 A3010 910 42 -1200 310/13G20 RMK AO2
94908KDBQ DBQ20090219154010202/19/09 15:40:31  5-MIN KDBQ 192140Z 31015G20KT 10SM CLR M05/M16 A3010 910 42 -1200 310/15G20 RMK AO2
94908KDBQ DBQ20090219154509602/19/09 15:45:31  5-MIN KDBQ 192145Z 29010KT 10SM CLR M05/M16 A3010 910 44 -1200 290/10 RMK AO2
94908KDBQ DBQ20090219155011902/19/09 15:50:31  5-MIN KDBQ 192150Z 28012G19KT 10SM CLR M05/M14 A3010 910 48 -1200 280/12G19 RMK AO2 SLP214 T10501144
94908KDBQ DBQ20090219155510202/19/09 15:55:31  5-MIN KDBQ 192155Z 28016G22KT 10SM CLR M05/M14 A3010 910 48 -1200 280/16G22 RMK AO2
94908KDBQ DBQ20090219160010202/19/09 16:00:31  5-MIN KDBQ 192200Z 30015G22KT 10SM CLR M05/M14 A3010 910 50 -1200 300/15G22 RMK AO2
94908KDBQ DBQ20090219160509602/19/09 16:05:31  5-MIN KDBQ 192205Z 29013KT 10SM CLR M05/M14 A3010 910 50 -1200 290/13 RMK AO2
94908KDBQ DBQ20090219161010202/19/09 16:10:31  5-MIN KDBQ 192210Z 29013G20KT 10SM CLR M06/M14 A3011 910 50 -1300 290/13G20 RMK AO2
94908KDBQ DBQ20090219161510202/19/09 16:15:31  5-MIN KDBQ 192215Z 28015G20KT 10SM CLR M06/M14 A3010 910 50 -1300 280/15G20 RMK AO2
94908KDBQ DBQ20090219162009602/19/09 16:20:31  5-MIN KDBQ 192220Z 31014KT 10SM CLR M06/M14 A3011 910 50 -1300 310/14 RMK AO2
94908KDBQ DBQ20090219162509602/19/09 16:25:31  5-MIN KDBQ 192225Z 28016KT 10SM CLR M06/M14 A3010 910 50 -1300 280/16 RMK AO2
94908KDBQ DBQ20090219163010202/19/09 16:30:31  5-MIN KDBQ 192230Z 29017G23KT 10SM CLR M06/M14 A3010 910 50 -1300 290/17G23 RMK AO2
94908KDBQ DBQ20090219163510202/19/09 16:35:31  5-MIN KDBQ 192235Z 29016G23KT 10SM CLR M06/M15 A3011 910 48 -1300 290/16G23 RMK AO2
94908KDBQ DBQ20090219164009602/19/09 16:40:31  5-MIN KDBQ 192240Z 29014KT 10SM CLR M06/M15 A3011 910 48 -1300 290/14 RMK AO2
94908KDBQ DBQ20090219164509602/19/09 16:45:31  5-MIN KDBQ 192245Z 30017KT 10SM CLR M06/M14 A3011 910 50 -1300 300/17 RMK AO2
94908KDBQ DBQ20090219165011302/19/09 16:50:31  5-MIN KDBQ 192250Z 29016KT 10SM CLR M06/M15 A3010 910 50 -1400 290/16 RMK AO2 SLP215 T10611150
94908KDBQ DBQ20090219165510202/19/09 16:55:31  5-MIN KDBQ 192255Z 29016G20KT 10SM CLR M06/M14 A3011 910 52 -1400 290/16G20 RMK AO2
94908KDBQ DBQ20090219170010202/19/09 17:00:31  5-MIN KDBQ 192300Z 29014G20KT 10SM CLR M06/M14 A3011 910 52 -1400 290/14G20 RMK AO2
94908KDBQ DBQ20090219170509602/19/09 17:05:31  5-MIN KDBQ 192305Z 29013KT 10SM CLR M06/M14 A3011 910 52 -1400 290/13 RMK AO2
94908KDBQ DBQ20090219171009602/19/09 17:10:31  5-MIN KDBQ 192310Z 29011KT 10SM CLR M06/M14 A3011 910 54 -1400 290/11 RMK AO2
94908KDBQ DBQ20090219171509602/19/09 17:15:31  5-MIN KDBQ 192315Z 29016KT 10SM CLR M06/M14 A3011 910 52 -1400 290/16 RMK AO2
94908KDBQ DBQ20090219172010202/19/09 17:20:31  5-MIN KDBQ 192320Z 30015G19KT 10SM CLR M07/M14 A3011 910 54 -1500 300/15G19 RMK AO2
94908KDBQ DBQ20090219172509602/19/09 17:25:31  5-MIN KDBQ 192325Z 29015KT 10SM CLR M07/M14 A3011 900 54 -1500 290/15 RMK AO2
94908KDBQ DBQ20090219173009602/19/09 17:30:31  5-MIN KDBQ 192330Z 30015KT 10SM CLR M07/M14 A3011 900 54 -1500 300/15 RMK AO2
94908KDBQ DBQ20090219173509602/19/09 17:35:31  5-MIN KDBQ 192335Z 29013KT 10SM CLR M07/M14 A3011 900 54 -1500 290/13 RMK AO2
94908KDBQ DBQ20090219174009602/19/09 17:40:31  5-MIN KDBQ 192340Z 29012KT 10SM CLR M07/M14 A3011 900 54 -1500 290/12 RMK AO2
94908KDBQ DBQ20090219174509602/19/09 17:45:31  5-MIN KDBQ 192345Z 30012KT 10SM CLR M07/M14 A3011 900 54 -1500 300/12 RMK AO2
94908KDBQ DBQ20090219175013102/19/09 17:50:31  5-MIN KDBQ 192350Z 31012KT 10SM CLR M07/M14 A3011 900 56 -1500 300/12 RMK AO2 SLP219 T10721144 11044 21072 56008
94908KDBQ DBQ20090219175509602/19/09 17:55:31  5-MIN KDBQ 192355Z 30011KT 10SM CLR M07/M14 A3011 900 59 -1500 300/11 RMK AO2
94908KDBQ DBQ20090219180009602/19/09 18:00:31  5-MIN KDBQ 200000Z 30012KT 10SM CLR M07/M14 A3011 900 56 -1500 300/12 RMK AO2
94908KDBQ DBQ20090219180509602/19/09 18:05:31  5-MIN KDBQ 200005Z 30009KT 10SM CLR M07/M14 A3011 900 59 -1500 300/09 RMK AO2
94908KDBQ DBQ20090219181009602/19/09 18:10:31  5-MIN KDBQ 200010Z 31009KT 10SM CLR M07/M14 A3012 900 59 -1500 310/09 RMK AO2
94908KDBQ DBQ20090219181510202/19/09 18:15:31  5-MIN KDBQ 200015Z 30009KT 10SM CLR M07/M14 A3012 900 59 -1500 300/09 RMK AO2 P0001
94908KDBQ DBQ20090219182010202/19/09 18:20:31  5-MIN KDBQ 200020Z 30009KT 10SM CLR M07/M14 A3012 900 59 -1500 300/09 RMK AO2 P0001
94908KDBQ DBQ20090219182510202/19/09 18:25:31  5-MIN KDBQ 200025Z 30009KT 10SM CLR M08/M14 A3012 900 62 -1600 300/09 RMK AO2 P0001
94908KDBQ DBQ20090219183010202/19/09 18:30:31  5-MIN KDBQ 200030Z 30010KT 10SM CLR M08/M14 A3012 890 62 -1600 300/10 RMK AO2 P0001
94908KDBQ DBQ20090219183510202/19/09 18:35:31  5-MIN KDBQ 200035Z 30009KT 10SM CLR M08/M13 A3012 890 64 -1600 300/09 RMK AO2 P0001
94908KDBQ DBQ20090219184010202/19/09 18:40:31  5-MIN KDBQ 200040Z 30009KT 10SM CLR M08/M13 A3012 890 64 -1600 300/09 RMK AO2 P0001
94908KDBQ DBQ20090219184510202/19/09 18:45:31  5-MIN KDBQ 200045Z 29009KT 10SM CLR M08/M13 A3012 890 64 -1600 290/09 RMK AO2 P0001
94908KDBQ DBQ20090219185011902/19/09 18:50:31  5-MIN KDBQ 200050Z 29009KT 10SM CLR M08/M13 A3012 890 64 -1600 290/09 RMK AO2 SLP223 P0001 T10781133
94908KDBQ DBQ20090219185509602/19/09 18:55:31  5-MIN KDBQ 200055Z 29013KT 10SM CLR M08/M14 A3013 890 62 -1600 290/13 RMK AO2
94908KDBQ DBQ20090219190009602/19/09 19:00:31  5-MIN KDBQ 200100Z 29012KT 10SM CLR M08/M14 A3013 890 62 -1600 290/12 RMK AO2
94908KDBQ DBQ20090219190509602/19/09 19:05:31  5-MIN KDBQ 200105Z 29011KT 10SM CLR M08/M14 A3013 890 62 -1600 290/11 RMK AO2
94908KDBQ DBQ20090219191009602/19/09 19:10:31  5-MIN KDBQ 200110Z 29011KT 10SM CLR M08/M14 A3013 890 62 -1600 290/11 RMK AO2
94908KDBQ DBQ20090219191509602/19/09 19:15:31  5-MIN KDBQ 200115Z 29010KT 10SM CLR M08/M14 A3013 890 62 -1600 290/10 RMK AO2
94908KDBQ DBQ20090219192009602/19/09 19:20:31  5-MIN KDBQ 200120Z 30009KT 10SM CLR M08/M14 A3012 890 62 -1600 300/09 RMK AO2
94908KDBQ DBQ20090219192509602/19/09 19:25:31  5-MIN KDBQ 200125Z 29010KT 10SM CLR M08/M14 A3013 890 62 -1600 290/10 RMK AO2
94908KDBQ DBQ20090219193009602/19/09 19:30:31  5-MIN KDBQ 200130Z 30010KT 10SM CLR M08/M14 A3013 890 62 -1600 290/10 RMK AO2
94908KDBQ DBQ20090219193509602/19/09 19:35:31  5-MIN KDBQ 200135Z 29011KT 10SM CLR M08/M14 A3013 890 64 -1700 290/11 RMK AO2
94908KDBQ DBQ20090219194009602/19/09 19:40:31  5-MIN KDBQ 200140Z 29010KT 10SM CLR M08/M14 A3013 880 62 -1600 290/10 RMK AO2
94908KDBQ DBQ20090219194510102/19/09 19:45:31  5-MIN KDBQ 200145Z AUTO 30010KT 10SM CLR M08/M14 A3013 880 64 -1700 300/10 RMK AO2
94908KDBQ DBQ20090219195011802/19/09 19:50:31  5-MIN KDBQ 200150Z AUTO 30008KT 10SM CLR M08/M14 A3013 880 64 -1700 300/08 RMK AO2 SLP225 T10831139
94908KDBQ DBQ20090219195510102/19/09 19:55:31  5-MIN KDBQ 200155Z AUTO 31008KT 10SM CLR M08/M14 A3013 880 64 -1700 310/08 RMK AO2
94908KDBQ DBQ20090219200010102/19/09 20:00:31  5-MIN KDBQ 200200Z AUTO 31008KT 10SM CLR M09/M14 A3013 880 67 -1800 310/08 RMK AO2
94908KDBQ DBQ20090219200510102/19/09 20:05:31  5-MIN KDBQ 200205Z AUTO 31008KT 10SM CLR M09/M14 A3014 880 67 -1800 310/08 RMK AO2
94908KDBQ DBQ20090219201010102/19/09 20:10:31  5-MIN KDBQ 200210Z AUTO 31009KT 10SM CLR M09/M14 A3014 880 67 -1800 310/09 RMK AO2
94908KDBQ DBQ20090219201510102/19/09 20:15:31  5-MIN KDBQ 200215Z AUTO 30011KT 10SM CLR M08/M14 A3014 880 64 -1700 300/11 RMK AO2
94908KDBQ DBQ20090219202010102/19/09 20:20:31  5-MIN KDBQ 200220Z AUTO 30009KT 10SM CLR M09/M14 A3014 880 67 -1800 300/09 RMK AO2
94908KDBQ DBQ20090219202510102/19/09 20:25:31  5-MIN KDBQ 200225Z AUTO 30009KT 10SM CLR M09/M14 A3014 880 67 -1800 300/09 RMK AO2
94908KDBQ DBQ20090219203010102/19/09 20:30:31  5-MIN KDBQ 200230Z AUTO 31008KT 10SM CLR M09/M14 A3014 880 67 -1800 310/08 RMK AO2
94908KDBQ DBQ20090219203510102/19/09 20:35:31  5-MIN KDBQ 200235Z AUTO 32008KT 10SM CLR M09/M14 A3014 880 67 -1800 310/08 RMK AO2
94908KDBQ DBQ20090219204010102/19/09 20:40:31  5-MIN KDBQ 200240Z AUTO 32010KT 10SM CLR M09/M14 A3014 880 64 -1800 320/10 RMK AO2
94908KDBQ DBQ20090219204510102/19/09 20:45:31  5-MIN KDBQ 200245Z AUTO 31009KT 10SM CLR M09/M14 A3014 880 64 -1800 310/09 RMK AO2
94908KDBQ DBQ20090219205013002/19/09 20:50:31  5-MIN KDBQ 200250Z AUTO 32009KT 10SM CLR M09/M14 A3014 880 64 -1800 310/09 RMK AO2 SLP227 60001 T10891144 53005
94908KDBQ DBQ20090219205510102/19/09 20:55:31  5-MIN KDBQ 200255Z AUTO 32009KT 10SM CLR M09/M14 A3014 880 64 -1800 310/09 RMK AO2
94908KDBQ DBQ20090219210010102/19/09 21:00:31  5-MIN KDBQ 200300Z AUTO 31010KT 10SM CLR M09/M14 A3014 880 64 -1800 310/10 RMK AO2
94908KDBQ DBQ20090219210510102/19/09 21:05:31  5-MIN KDBQ 200305Z AUTO 32012KT 10SM CLR M09/M14 A3014 880 64 -1800 310/12 RMK AO2
94908KDBQ DBQ20090219211010102/19/09 21:10:31  5-MIN KDBQ 200310Z AUTO 31011KT 10SM CLR M09/M14 A3014 880 67 -1900 310/11 RMK AO2
94908KDBQ DBQ20090219211510102/19/09 21:15:31  5-MIN KDBQ 200315Z AUTO 32011KT 10SM CLR M09/M14 A3014 880 67 -1900 320/11 RMK AO2
94908KDBQ DBQ20090219212010102/19/09 21:20:31  5-MIN KDBQ 200320Z AUTO 32010KT 10SM CLR M09/M14 A3014 880 67 -1900 320/10 RMK AO2
94908KDBQ DBQ20090219212510102/19/09 21:25:31  5-MIN KDBQ 200325Z AUTO 32010KT 10SM CLR M09/M14 A3014 880 67 -1900 310/10 RMK AO2
94908KDBQ DBQ20090219213010102/19/09 21:30:31  5-MIN KDBQ 200330Z AUTO 32010KT 10SM CLR M09/M14 A3014 880 67 -1900 310/10 RMK AO2
94908KDBQ DBQ20090219213510102/19/09 21:35:31  5-MIN KDBQ 200335Z AUTO 32010KT 10SM CLR M09/M14 A3013 880 67 -1900 320/10 RMK AO2
94908KDBQ DBQ20090219214010102/19/09 21:40:31  5-MIN KDBQ 200340Z AUTO 32008KT 10SM CLR M09/M14 A3014 880 67 -1900 320/08 RMK AO2
94908KDBQ DBQ20090219214510102/19/09 21:45:31  5-MIN KDBQ 200345Z AUTO 32010KT 10SM CLR M10/M14 A3014 880 70 -1900 320/10 RMK AO2
94908KDBQ DBQ20090219215011802/19/09 21:50:31  5-MIN KDBQ 200350Z AUTO 32011KT 10SM CLR M09/M14 A3014 880 67 -1900 320/11 RMK AO2 SLP227 T10941144
94908KDBQ DBQ20090219215510102/19/09 21:55:31  5-MIN KDBQ 200355Z AUTO 32008KT 10SM CLR M09/M14 A3014 880 67 -1900 320/08 RMK AO2
94908KDBQ DBQ20090219220010102/19/09 22:00:31  5-MIN KDBQ 200400Z AUTO 32009KT 10SM CLR M10/M14 A3014 880 70 -1900 320/09 RMK AO2
94908KDBQ DBQ20090219220510102/19/09 22:05:31  5-MIN KDBQ 200405Z AUTO 32009KT 10SM CLR M10/M14 A3014 880 70 -1900 320/09 RMK AO2
94908KDBQ DBQ20090219221010102/19/09 22:10:31  5-MIN KDBQ 200410Z AUTO 32007KT 10SM CLR M10/M14 A3014 880 70 -1900 320/07 RMK AO2
94908KDBQ DBQ20090219221510102/19/09 22:15:31  5-MIN KDBQ 200415Z AUTO 32006KT 10SM CLR M10/M14 A3014 880 70 -1900 320/06 RMK AO2
94908KDBQ DBQ20090219222010102/19/09 22:20:31  5-MIN KDBQ 200420Z AUTO 32007KT 10SM CLR M11/M14 A3014 880 73 -2000 320/07 RMK AO2
94908KDBQ DBQ20090219222510102/19/09 22:25:31  5-MIN KDBQ 200425Z AUTO 32007KT 10SM CLR M11/M14 A3013 880 73 -2000 320/07 RMK AO2
94908KDBQ DBQ20090219223010102/19/09 22:30:31  5-MIN KDBQ 200430Z AUTO 32008KT 10SM CLR M10/M14 A3013 880 70 -1900 320/08 RMK AO2
94908KDBQ DBQ20090219223510102/19/09 22:35:31  5-MIN KDBQ 200435Z AUTO 31007KT 10SM CLR M10/M14 A3013 880 70 -1900 310/07 RMK AO2
94908KDBQ DBQ20090219224010102/19/09 22:40:31  5-MIN KDBQ 200440Z AUTO 32008KT 10SM CLR M11/M14 A3013 880 73 -2000 320/08 RMK AO2
94908KDBQ DBQ20090219224510102/19/09 22:45:31  5-MIN KDBQ 200445Z AUTO 31008KT 10SM CLR M11/M14 A3013 880 73 -2000 310/08 RMK AO2
94908KDBQ DBQ20090219225011802/19/09 22:50:31  5-MIN KDBQ 200450Z AUTO 31008KT 10SM CLR M10/M14 A3013 890 70 -1900 310/08 RMK AO2 SLP224 T11001144
94908KDBQ DBQ20090219225510102/19/09 22:55:31  5-MIN KDBQ 200455Z AUTO 31007KT 10SM CLR M11/M14 A3013 890 73 -2000 310/07 RMK AO2
94908KDBQ DBQ20090219230010102/19/09 23:00:31  5-MIN KDBQ 200500Z AUTO 32007KT 10SM CLR M11/M15 A3013 890 70 -2000 320/07 RMK AO2
94908KDBQ DBQ20090219230510102/19/09 23:05:31  5-MIN KDBQ 200505Z AUTO 31007KT 10SM CLR M11/M15 A3013 880 70 -2000 310/07 RMK AO2
94908KDBQ DBQ20090219231010102/19/09 23:10:31  5-MIN KDBQ 200510Z AUTO 31007KT 10SM CLR M10/M15 A3013 880 67 -1900 310/07 RMK AO2
94908KDBQ DBQ20090219231510102/19/09 23:15:31  5-MIN KDBQ 200515Z AUTO 31006KT 10SM CLR M11/M15 A3013 880 70 -2000 310/06 RMK AO2
94908KDBQ DBQ20090219232010102/19/09 23:20:31  5-MIN KDBQ 200520Z AUTO 31007KT 10SM CLR M11/M15 A3013 880 70 -2000 310/07 RMK AO2
94908KDBQ DBQ20090219232510102/19/09 23:25:31  5-MIN KDBQ 200525Z AUTO 32008KT 10SM CLR M10/M15 A3013 880 67 -1900 320/08 RMK AO2
94908KDBQ DBQ20090219233010302/19/09 23:30:31  5-MIN KDBQ 200530Z AUTO 32008KT 10SM CLR M11/M15 A3013 890 70 -2000 320/08 RMK AO2 $
94908KDBQ DBQ20090219233510302/19/09 23:35:31  5-MIN KDBQ 200535Z AUTO 33007KT 10SM CLR M11/M15 A3013 890 70 -2000 320/07 RMK AO2 $
94908KDBQ DBQ20090219234010302/19/09 23:40:31  5-MIN KDBQ 200540Z AUTO 32007KT 10SM CLR M11/M15 A3013 880 70 -2000 320/07 RMK AO2 $
94908KDBQ DBQ20090219234510302/19/09 23:45:31  5-MIN KDBQ 200545Z AUTO 33007KT 10SM CLR M11/M15 A3013 890 70 -2000 330/07 RMK AO2 $
94908KDBQ DBQ20090219235015402/19/09 23:50:31  5-MIN KDBQ 200550Z AUTO 34007KT 10SM CLR M11/M15 A3013 890 70 -2000 330/07 RMK AO2 SLP223 60001 T11061150 11072 21106 410441139 51009 $
94908KDBQ DBQ20090219235510302/19/09 23:55:31  5-MIN KDBQ 200555Z AUTO 34006KT 10SM CLR M11/M15 A3012 890 70 -2000 340/06 RMK AO2 $
94908KDBQ DBQ20090220000010302/20/09 00:00:38  5-MIN KDBQ 200600Z AUTO 33007KT 10SM CLR M11/M15 A3012 890 70 -2000 330/07 RMK AO2 $
94908KDBQ DBQ20090220000510302/20/09 00:05:31  5-MIN KDBQ 200605Z AUTO 33006KT 10SM CLR M11/M15 A3012 890 70 -2000 330/06 RMK AO2 $
94908KDBQ DBQ20090220001010302/20/09 00:10:31  5-MIN KDBQ 200610Z AUTO 32005KT 10SM CLR M11/M15 A3013 890 70 -2000 320/05 RMK AO2 $
94908KDBQ DBQ20090220001510302/20/09 00:15:33  5-MIN KDBQ 200615Z AUTO 34004KT 10SM CLR M11/M15 A3012 890 70 -2000 330/04 RMK AO2 $
94908KDBQ DBQ20090220002010302/20/09 00:20:31  5-MIN KDBQ 200620Z AUTO 34005KT 10SM CLR M11/M15 A3012 890 70 -2000 330/05 RMK AO2 $
94908KDBQ DBQ20090220002510302/20/09 00:25:31  5-MIN KDBQ 200625Z AUTO 34004KT 10SM CLR M11/M15 A3012 890 73 -2100 330/04 RMK AO2 $
94908KDBQ DBQ20090220003010302/20/09 00:30:31  5-MIN KDBQ 200630Z AUTO 36004KT 10SM CLR M11/M15 A3012 900 73 -2100 350/04 RMK AO2 $
94908KDBQ DBQ20090220003510302/20/09 00:35:31  5-MIN KDBQ 200635Z AUTO 01003KT 10SM CLR M11/M15 A3012 900 73 -2100 010/03 RMK AO2 $
94908KDBQ DBQ20090220004010302/20/09 00:40:31  5-MIN KDBQ 200640Z AUTO 01003KT 10SM CLR M11/M16 A3011 900 70 -2100 010/03 RMK AO2 $
94908KDBQ DBQ20090220004510302/20/09 00:45:31  5-MIN KDBQ 200645Z AUTO 36004KT 10SM CLR M11/M16 A3011 900 70 -2100 360/04 RMK AO2 $
94908KDBQ DBQ20090220005012002/20/09 00:50:31  5-MIN KDBQ 200650Z AUTO 01004KT 10SM CLR M11/M16 A3011 900 70 -2100 010/04 RMK AO2 SLP217 T11111156 $
94908KDBQ DBQ20090220005510302/20/09 00:55:31  5-MIN KDBQ 200655Z AUTO 01005KT 10SM CLR M11/M16 A3011 900 70 -2100 010/05 RMK AO2 $
94908KDBQ DBQ20090220010010302/20/09 01:00:31  5-MIN KDBQ 200700Z AUTO 36005KT 10SM CLR M11/M16 A3011 900 70 -2000 360/05 RMK AO2 $
94908KDBQ DBQ20090220010510302/20/09 01:05:31  5-MIN KDBQ 200705Z AUTO 01004KT 10SM CLR M11/M16 A3011 910 70 -2000 010/04 RMK AO2 $
94908KDBQ DBQ20090220011010302/20/09 01:10:31  5-MIN KDBQ 200710Z AUTO 36004KT 10SM CLR M11/M16 A3011 910 70 -2000 360/04 RMK AO2 $
94908KDBQ DBQ20090220011510302/20/09 01:15:31  5-MIN KDBQ 200715Z AUTO 35005KT 10SM CLR M12/M16 A3011 910 73 -2100 350/05 RMK AO2 $
94908KDBQ DBQ20090220012010302/20/09 01:20:31  5-MIN KDBQ 200720Z AUTO 36005KT 10SM CLR M12/M16 A3011 900 73 -2100 350/05 RMK AO2 $
94908KDBQ DBQ20090220012510302/20/09 01:25:31  5-MIN KDBQ 200725Z AUTO 35005KT 10SM CLR M12/M16 A3011 900 73 -2100 350/05 RMK AO2 $
94908KDBQ DBQ20090220013010302/20/09 01:30:31  5-MIN KDBQ 200730Z AUTO 34005KT 10SM CLR M12/M16 A3011 900 73 -2100 340/05 RMK AO2 $
94908KDBQ DBQ20090220013510302/20/09 01:35:31  5-MIN KDBQ 200735Z AUTO 35004KT 10SM CLR M12/M16 A3011 900 73 -2100 350/04 RMK AO2 $
94908KDBQ DBQ20090220014010302/20/09 01:40:31  5-MIN KDBQ 200740Z AUTO 35004KT 10SM CLR M12/M16 A3011 900 73 -2100 350/04 RMK AO2 $
94908KDBQ DBQ20090220014510302/20/09 01:45:31  5-MIN KDBQ 200745Z AUTO 01004KT 10SM CLR M12/M16 A3011 900 73 -2100 010/04 RMK AO2 $
94908KDBQ DBQ20090220015012002/20/09 01:50:31  5-MIN KDBQ 200750Z AUTO 01003KT 10SM CLR M12/M16 A3011 910 76 -2200 010/03 RMK AO2 SLP216 T11221156 $
94908KDBQ DBQ20090220015510302/20/09 01:55:31  5-MIN KDBQ 200755Z AUTO 00000KT 10SM CLR M12/M16 A3011 910 73 -2100 000/00 RMK AO2 $
94908KDBQ DBQ20090220020010302/20/09 02:00:31  5-MIN KDBQ 200800Z AUTO 00000KT 10SM CLR M11/M16 A3011 910 70 -2000 000/00 RMK AO2 $
94908KDBQ DBQ20090220020510302/20/09 02:05:31  5-MIN KDBQ 200805Z AUTO 33003KT 10SM CLR M11/M16 A3011 900 70 -2000 330/03 RMK AO2 $
94908KDBQ DBQ20090220021010302/20/09 02:10:31  5-MIN KDBQ 200810Z AUTO 32003KT 10SM CLR M11/M16 A3011 900 70 -2000 320/03 RMK AO2 $
94908KDBQ DBQ20090220021510302/20/09 02:15:31  5-MIN KDBQ 200815Z AUTO 00000KT 10SM CLR M12/M16 A3011 910 73 -2100 000/00 RMK AO2 $
94908KDBQ DBQ20090220022010302/20/09 02:20:31  5-MIN KDBQ 200820Z AUTO 00000KT 10SM CLR M12/M16 A3011 910 76 -2200 000/00 RMK AO2 $
94908KDBQ DBQ20090220022510302/20/09 02:25:31  5-MIN KDBQ 200825Z AUTO 29003KT 10SM CLR M12/M15 A3011 910 76 -2100 290/03 RMK AO2 $
94908KDBQ DBQ20090220023010302/20/09 02:30:31  5-MIN KDBQ 200830Z AUTO 00000KT 10SM CLR M11/M15 A3011 910 73 -2000 000/00 RMK AO2 $
94908KDBQ DBQ20090220023510302/20/09 02:35:31  5-MIN KDBQ 200835Z AUTO 00000KT 10SM CLR M12/M15 A3010 910 76 -2100 000/00 RMK AO2 $
94908KDBQ DBQ20090220024010302/20/09 02:40:31  5-MIN KDBQ 200840Z AUTO 00000KT 10SM CLR M12/M15 A3010 910 76 -2100 000/00 RMK AO2 $
94908KDBQ DBQ20090220024510302/20/09 02:45:31  5-MIN KDBQ 200845Z AUTO 00000KT 10SM CLR M12/M15 A3010 920 76 -2100 000/00 RMK AO2 $
94908KDBQ DBQ20090220025012602/20/09 02:50:31  5-MIN KDBQ 200850Z AUTO 00000KT 10SM CLR M12/M15 A3010 910 76 -2100 000/00 RMK AO2 SLP212 T11171150 58005 $
94908KDBQ DBQ20090220025510302/20/09 02:55:31  5-MIN KDBQ 200855Z AUTO 00000KT 10SM CLR M13/M16 A3010 920 80 -2300 000/00 RMK AO2 $
94908KDBQ DBQ20090220030010302/20/09 03:00:31  5-MIN KDBQ 200900Z AUTO 00000KT 10SM CLR M13/M16 A3010 920 80 -2300 000/00 RMK AO2 $
94908KDBQ DBQ20090220030510302/20/09 03:05:31  5-MIN KDBQ 200905Z AUTO 00000KT 10SM CLR M13/M16 A3009 920 80 -2200 000/00 RMK AO2 $
94908KDBQ DBQ20090220031010302/20/09 03:10:31  5-MIN KDBQ 200910Z AUTO 00000KT 10SM CLR M13/M16 A3009 920 80 -2200 000/00 RMK AO2 $
94908KDBQ DBQ20090220031510302/20/09 03:15:31  5-MIN KDBQ 200915Z AUTO 00000KT 10SM CLR M13/M16 A3009 920 80 -2200 000/00 RMK AO2 $
94908KDBQ DBQ20090220032010302/20/09 03:20:31  5-MIN KDBQ 200920Z AUTO 00000KT 10SM CLR M13/M16 A3009 920 83 -2300 000/00 RMK AO2 $
94908KDBQ DBQ20090220032510302/20/09 03:25:31  5-MIN KDBQ 200925Z AUTO 00000KT 10SM CLR M13/M16 A3009 920 80 -2300 000/00 RMK AO2 $
94908KDBQ DBQ20090220033010302/20/09 03:30:31  5-MIN KDBQ 200930Z AUTO 22003KT 10SM CLR M13/M16 A3010 920 83 -2300 220/03 RMK AO2 $
94908KDBQ DBQ20090220033510302/20/09 03:35:31  5-MIN KDBQ 200935Z AUTO 21003KT 10SM CLR M13/M16 A3010 910 83 -2300 210/03 RMK AO2 $
94908KDBQ DBQ20090220034010302/20/09 03:40:31  5-MIN KDBQ 200940Z AUTO 22003KT 10SM CLR M13/M16 A3010 920 83 -2300 220/03 RMK AO2 $
94908KDBQ DBQ20090220034510302/20/09 03:45:31  5-MIN KDBQ 200945Z AUTO 22003KT 10SM CLR M13/M16 A3010 920 80 -2300 220/03 RMK AO2 $
94908KDBQ DBQ20090220035012002/20/09 03:50:31  5-MIN KDBQ 200950Z AUTO 22004KT 10SM CLR M14/M16 A3009 920 83 -2400 220/04 RMK AO2 SLP211 T11391161 $
94908KDBQ DBQ20090220035510302/20/09 03:55:31  5-MIN KDBQ 200955Z AUTO 21003KT 10SM CLR M14/M16 A3009 920 83 -2400 210/03 RMK AO2 $
94908KDBQ DBQ20090220040010302/20/09 04:00:31  5-MIN KDBQ 201000Z AUTO 22003KT 10SM CLR M14/M16 A3009 920 83 -2400 220/03 RMK AO2 $
94908KDBQ DBQ20090220040510302/20/09 04:05:31  5-MIN KDBQ 201005Z AUTO 22003KT 10SM CLR M14/M16 A3009 920 83 -2400 210/03 RMK AO2 $
94908KDBQ DBQ20090220041010302/20/09 04:10:31  5-MIN KDBQ 201010Z AUTO 22003KT 10SM CLR M13/M16 A3009 920 80 -2300 220/03 RMK AO2 $
94908KDBQ DBQ20090220041510302/20/09 04:15:31  5-MIN KDBQ 201015Z AUTO 00000KT 10SM CLR M13/M16 A3009 920 80 -2300 000/00 RMK AO2 $
94908KDBQ DBQ20090220042010302/20/09 04:20:31  5-MIN KDBQ 201020Z AUTO 24003KT 10SM CLR M13/M16 A3009 920 83 -2300 240/03 RMK AO2 $
94908KDBQ DBQ20090220042510302/20/09 04:25:31  5-MIN KDBQ 201025Z AUTO 24003KT 10SM CLR M14/M16 A3009 920 87 -2400 240/03 RMK AO2 $
94908KDBQ DBQ20090220043010302/20/09 04:30:31  5-MIN KDBQ 201030Z AUTO 00000KT 10SM CLR M14/M16 A3009 920 83 -2400 000/00 RMK AO2 $
94908KDBQ DBQ20090220043510302/20/09 04:35:31  5-MIN KDBQ 201035Z AUTO 00000KT 10SM CLR M13/M16 A3009 920 83 -2300 000/00 RMK AO2 $
94908KDBQ DBQ20090220044010302/20/09 04:40:31  5-MIN KDBQ 201040Z AUTO 00000KT 10SM CLR M14/M16 A3009 920 83 -2400 000/00 RMK AO2 $
94908KDBQ DBQ20090220044510302/20/09 04:45:31  5-MIN KDBQ 201045Z AUTO 22003KT 10SM CLR M14/M16 A3010 920 83 -2400 220/03 RMK AO2 $
94908KDBQ DBQ20090220045012002/20/09 04:50:31  5-MIN KDBQ 201050Z AUTO 00000KT 10SM CLR M14/M16 A3010 910 83 -2400 000/00 RMK AO2 SLP215 T11391161 $
94908KDBQ DBQ20090220045510302/20/09 04:55:31  5-MIN KDBQ 201055Z AUTO 00000KT 10SM CLR M13/M16 A3010 910 80 -2300 000/00 RMK AO2 $
94908KDBQ DBQ20090220050010302/20/09 05:00:31  5-MIN KDBQ 201100Z AUTO 00000KT 10SM CLR M14/M16 A3011 910 83 -2400 000/00 RMK AO2 $
94908KDBQ DBQ20090220050510302/20/09 05:05:31  5-MIN KDBQ 201105Z AUTO 00000KT 10SM CLR M14/M16 A3011 910 83 -2400 000/00 RMK AO2 $
94908KDBQ DBQ20090220051010302/20/09 05:10:31  5-MIN KDBQ 201110Z AUTO 00000KT 10SM CLR M14/M16 A3011 910 83 -2400 000/00 RMK AO2 $
94908KDBQ DBQ20090220051510302/20/09 05:15:31  5-MIN KDBQ 201115Z AUTO 23003KT 10SM CLR M14/M16 A3011 900 83 -2400 230/03 RMK AO2 $
94908KDBQ DBQ20090220052010302/20/09 05:20:31  5-MIN KDBQ 201120Z AUTO 00000KT 10SM CLR M14/M17 A3011 910 80 -2400 000/00 RMK AO2 $
94908KDBQ DBQ20090220052510302/20/09 05:25:31  5-MIN KDBQ 201125Z AUTO 19003KT 10SM CLR M14/M16 A3010 910 87 -2500 190/03 RMK AO2 $
94908KDBQ DBQ20090220053010302/20/09 05:30:31  5-MIN KDBQ 201130Z AUTO 19003KT 10SM CLR M14/M16 A3010 910 83 -2400 190/03 RMK AO2 $
94908KDBQ DBQ20090220053510302/20/09 05:35:31  5-MIN KDBQ 201135Z AUTO 19003KT 10SM CLR M14/M16 A3010 910 83 -2400 190/03 RMK AO2 $
94908KDBQ DBQ20090220054010302/20/09 05:40:31  5-MIN KDBQ 201140Z AUTO 19003KT 10SM CLR M14/M16 A3010 910 83 -2400 190/03 RMK AO2 $
94908KDBQ DBQ20090220054510302/20/09 05:45:31  5-MIN KDBQ 201145Z AUTO 00000KT 10SM CLR M14/M16 A3011 910 83 -2400 000/00 RMK AO2 $
94908KDBQ DBQ20090220055013902/20/09 05:50:31  5-MIN KDBQ 201150Z 00000KT 10SM CLR M13/M16 A3011 910 80 -2300 000/00 RMK AO2 SLP217 70003 T11331161 11106 21144 56009 $
94908KDBQ DBQ20090220055509802/20/09 05:55:31  5-MIN KDBQ 201155Z 00000KT 10SM CLR M14/M16 A3011 900 83 -2400 000/00 RMK AO2 $
94908KDBQ DBQ20090220060009802/20/09 06:00:31  5-MIN KDBQ 201200Z 00000KT 10SM CLR M14/M16 A3011 900 83 -2400 000/00 RMK AO2 $
94908KDBQ DBQ20090220060509802/20/09 06:05:31  5-MIN KDBQ 201205Z 00000KT 10SM CLR M14/M16 A3011 900 83 -2400 000/00 RMK AO2 $
94908KDBQ DBQ20090220061009802/20/09 06:10:31  5-MIN KDBQ 201210Z 00000KT 10SM CLR M14/M16 A3011 900 83 -2400 000/00 RMK AO2 $
94908KDBQ DBQ20090220061509802/20/09 06:15:31  5-MIN KDBQ 201215Z 00000KT 10SM CLR M14/M16 A3012 900 83 -2400 000/00 RMK AO2 $
94908KDBQ DBQ20090220062009802/20/09 06:20:31  5-MIN KDBQ 201220Z 00000KT 10SM CLR M14/M16 A3011 900 83 -2400 000/00 RMK AO2 $
94908KDBQ DBQ20090220062509802/20/09 06:25:31  5-MIN KDBQ 201225Z 21003KT 10SM CLR M14/M16 A3011 900 83 -2400 200/03 RMK AO2 $
94908KDBQ DBQ20090220063009802/20/09 06:30:31  5-MIN KDBQ 201230Z 20003KT 10SM CLR M14/M16 A3011 910 83 -2400 200/03 RMK AO2 $
94908KDBQ DBQ20090220063509802/20/09 06:35:31  5-MIN KDBQ 201235Z 19003KT 10SM CLR M14/M16 A3011 910 83 -2400 190/03 RMK AO2 $
94908KDBQ DBQ20090220064009802/20/09 06:40:31  5-MIN KDBQ 201240Z 00000KT 10SM CLR M14/M16 A3011 910 83 -2400 000/00 RMK AO2 $
94908KDBQ DBQ20090220064509802/20/09 06:45:31  5-MIN KDBQ 201245Z 19003KT 10SM CLR M14/M16 A3010 910 83 -2400 190/03 RMK AO2 $
94908KDBQ DBQ20090220065011502/20/09 06:50:31  5-MIN KDBQ 201250Z 17003KT 10SM CLR M14/M16 A3010 920 83 -2400 170/03 RMK AO2 SLP213 T11391161 $
94908KDBQ DBQ20090220065509802/20/09 06:55:31  5-MIN KDBQ 201255Z 17003KT 10SM CLR M14/M16 A3010 920 83 -2400 170/03 RMK AO2 $
94908KDBQ DBQ20090220070009802/20/09 07:00:31  5-MIN KDBQ 201300Z 17003KT 10SM CLR M14/M16 A3010 920 83 -2400 170/03 RMK AO2 $
94908KDBQ DBQ20090220070509802/20/09 07:05:31  5-MIN KDBQ 201305Z 00000KT 10SM CLR M13/M16 A3010 910 83 -2300 000/00 RMK AO2 $
94908KDBQ DBQ20090220071009802/20/09 07:10:31  5-MIN KDBQ 201310Z 00000KT 10SM CLR M13/M16 A3010 910 83 -2300 000/00 RMK AO2 $
94908KDBQ DBQ20090220071509802/20/09 07:15:31  5-MIN KDBQ 201315Z 00000KT 10SM CLR M13/M16 A3010 910 83 -2300 000/00 RMK AO2 $
94908KDBQ DBQ20090220072009802/20/09 07:20:31  5-MIN KDBQ 201320Z 00000KT 10SM CLR M13/M16 A3010 910 83 -2300 000/00 RMK AO2 $
94908KDBQ DBQ20090220072509802/20/09 07:25:31  5-MIN KDBQ 201325Z 00000KT 10SM CLR M13/M15 A3010 910 84 -2300 000/00 RMK AO2 $
94908KDBQ DBQ20090220073009802/20/09 07:30:31  5-MIN KDBQ 201330Z 00000KT 10SM CLR M13/M15 A3010 910 84 -2300 000/00 RMK AO2 $
94908KDBQ DBQ20090220073509802/20/09 07:35:31  5-MIN KDBQ 201335Z 23003KT 10SM CLR M13/M15 A3012 900 84 -2300 230/03 RMK AO2 $
94908KDBQ DBQ20090220074009802/20/09 07:40:31  5-MIN KDBQ 201340Z 22004KT 10SM CLR M13/M15 A3011 900 84 -2300 220/04 RMK AO2 $
94908KDBQ DBQ20090220074509802/20/09 07:45:31  5-MIN KDBQ 201345Z 22003KT 10SM CLR M13/M14 A3011 900 87 -2300 220/03 RMK AO2 $
94908KDBQ DBQ20090220075011502/20/09 07:50:31  5-MIN KDBQ 201350Z 20003KT 10SM CLR M12/M14 A3011 900 84 -2200 200/03 RMK AO2 SLP218 T11221144 $
94908KDBQ DBQ20090220075509802/20/09 07:55:31  5-MIN KDBQ 201355Z 20003KT 10SM CLR M12/M14 A3011 910 87 -2200 200/03 RMK AO2 $
94908KDBQ DBQ20090220080009802/20/09 08:00:31  5-MIN KDBQ 201400Z 20003KT 10SM CLR M12/M14 A3010 910 84 -2100 200/03 RMK AO2 $
94908KDBQ DBQ20090220080509802/20/09 08:05:31  5-MIN KDBQ 201405Z 21003KT 10SM CLR M12/M14 A3010 910 80 -2100 210/03 RMK AO2 $
94908KDBQ DBQ20090220081009802/20/09 08:10:31  5-MIN KDBQ 201410Z 20003KT 10SM CLR M12/M14 A3010 910 84 -2100 200/03 RMK AO2 $
94908KDBQ DBQ20090220081509802/20/09 08:15:31  5-MIN KDBQ 201415Z 20003KT 10SM CLR M11/M13 A3010 910 84 -2000 190/03 RMK AO2 $
94908KDBQ DBQ20090220082009802/20/09 08:20:31  5-MIN KDBQ 201420Z 21003KT 10SM CLR M11/M14 A3010 910 80 -2000 210/03 RMK AO2 $
94908KDBQ DBQ20090220082509802/20/09 08:25:31  5-MIN KDBQ 201425Z 20003KT 10SM CLR M11/M13 A3010 910 84 -2000 200/03 RMK AO2 $
94908KDBQ DBQ20090220083009802/20/09 08:30:31  5-MIN KDBQ 201430Z 22003KT 10SM CLR M11/M13 A3010 910 84 -2000 220/03 RMK AO2 $
94908KDBQ DBQ20090220083509802/20/09 08:35:31  5-MIN KDBQ 201435Z 21003KT 10SM CLR M11/M13 A3010 910 80 -2000 210/03 RMK AO2 $
94908KDBQ DBQ20090220084009802/20/09 08:40:31  5-MIN KDBQ 201440Z 21003KT 10SM CLR M11/M13 A3010 910 80 -2000 210/03 RMK AO2 $
94908KDBQ DBQ20090220084509802/20/09 08:45:31  5-MIN KDBQ 201445Z 22004KT 10SM CLR M11/M13 A3010 910 80 -2000 220/04 RMK AO2 $
94908KDBQ DBQ20090220085013102/20/09 08:50:31  5-MIN KDBQ 201450Z 21004KT 10SM CLR M11/M13 A3010 910 80 -2000 210/04 RMK AO2 SLP213 6//// T11061133 53004 PNO $
94908KDBQ DBQ20090220085510202/20/09 08:55:31  5-MIN KDBQ 201455Z 22003KT 10SM CLR M10/M13 A3010 910 77 -1900 210/03 RMK AO2 PNO $
94908KDBQ DBQ20090220090009802/20/09 09:00:31  5-MIN KDBQ 201500Z 23003KT 10SM CLR M10/M13 A3010 910 77 -1900 220/03 RMK AO2 $
94908KDBQ DBQ20090220090509802/20/09 09:05:31  5-MIN KDBQ 201505Z 23003KT 10SM CLR M10/M13 A3010 910 80 -1900 230/03 RMK AO2 $
94908KDBQ DBQ20090220091009802/20/09 09:10:31  5-MIN KDBQ 201510Z 23003KT 10SM CLR M10/M13 A3010 910 80 -1900 230/03 RMK AO2 $
94908KDBQ DBQ20090220091509802/20/09 09:15:31  5-MIN KDBQ 201515Z 24003KT 10SM CLR M09/M13 A3010 910 77 -1800 240/03 RMK AO2 $
94908KDBQ DBQ20090220092010202/20/09 09:20:31  5-MIN KDBQ 201520Z 00000KT 10SM CLR M09/M13 A3010 910 73 -1800 000/00 RMK AO2 PNO $
94908KDBQ DBQ20090220092509802/20/09 09:25:31  5-MIN KDBQ 201525Z 22003KT 10SM CLR M09/M13 A3010 910 73 -1800 220/03 RMK AO2 $
94908KDBQ DBQ20090220093009802/20/09 09:30:31  5-MIN KDBQ 201530Z 22003KT 10SM CLR M09/M13 A3010 910 74 -1700 220/03 RMK AO2 $
94908KDBQ DBQ20090220093509802/20/09 09:35:31  5-MIN KDBQ 201535Z 21003KT 10SM CLR M09/M13 A3010 910 74 -1700 210/03 RMK AO2 $
94908KDBQ DBQ20090220094009802/20/09 09:40:31  5-MIN KDBQ 201540Z 23003KT 10SM CLR M09/M13 A3010 910 74 -1700 230/03 RMK AO2 $
94908KDBQ DBQ20090220094509802/20/09 09:45:31  5-MIN KDBQ 201545Z 22004KT 10SM CLR M09/M13 A3010 910 70 -1700 220/04 RMK AO2 $
94908KDBQ DBQ20090220095011502/20/09 09:50:31  5-MIN KDBQ 201550Z 22005KT 10SM CLR M08/M13 A3010 920 70 -1700 220/05 RMK AO2 SLP212 T10831128 $
94908KDBQ DBQ20090220095509802/20/09 09:55:31  5-MIN KDBQ 201555Z 21005KT 10SM CLR M08/M13 A3009 920 70 -1700 210/05 RMK AO2 $
94908KDBQ DBQ20090220100009802/20/09 10:00:31  5-MIN KDBQ 201600Z 21005KT 10SM CLR M08/M13 A3009 920 67 -1600 210/05 RMK AO2 $
94908KDBQ DBQ20090220100509802/20/09 10:05:31  5-MIN KDBQ 201605Z 22006KT 10SM CLR M08/M13 A3010 920 64 -1600 210/06 RMK AO2 $
94908KDBQ DBQ20090220101009802/20/09 10:10:31  5-MIN KDBQ 201610Z 22006KT 10SM CLR M08/M13 A3009 920 64 -1600 220/06 RMK AO2 $
94908KDBQ DBQ20090220101509802/20/09 10:15:31  5-MIN KDBQ 201615Z 22006KT 10SM CLR M08/M13 A3010 920 64 -1600 220/06 RMK AO2 $
94908KDBQ DBQ20090220102009802/20/09 10:20:31  5-MIN KDBQ 201620Z 22006KT 10SM CLR M07/M13 A3009 920 62 -1500 220/06 RMK AO2 $
94908KDBQ DBQ20090220102509802/20/09 10:25:31  5-MIN KDBQ 201625Z 20004KT 10SM CLR M07/M13 A3009 920 62 -1500 200/04 RMK AO2 $
94908KDBQ DBQ20090220103009802/20/09 10:30:31  5-MIN KDBQ 201630Z 22005KT 10SM CLR M07/M13 A3010 920 65 -1500 220/05 RMK AO2 $
94908KDBQ DBQ20090220103509802/20/09 10:35:31  5-MIN KDBQ 201635Z VRB05KT 10SM CLR M07/M13 A3010 920 59 -1500 VRB/05 RMK AO2 $
94908KDBQ DBQ20090220104010102/20/09 10:40:31  5-MIN KDBQ 201640Z 25003KT 10SM FEW120 M07/M13 A3009 920 59 -1400 250/03 RMK AO2 $
94908KDBQ DBQ20090220104510102/20/09 10:45:31  5-MIN KDBQ 201645Z 20005KT 10SM FEW120 M07/M13 A3009 920 59 -1500 200/05 RMK AO2 $
94908KDBQ DBQ20090220105011502/20/09 10:50:31  5-MIN KDBQ 201650Z 23007KT 10SM CLR M07/M13 A3009 920 59 -1400 230/07 RMK AO2 SLP211 T10671133 $
94908KDBQ DBQ20090220105509802/20/09 10:55:31  5-MIN KDBQ 201655Z 23005KT 10SM CLR M06/M13 A3010 920 59 -1400 230/05 RMK AO2 $
94908KDBQ DBQ20090220110009802/20/09 11:00:31  5-MIN KDBQ 201700Z 21006KT 10SM CLR M06/M13 A3010 920 59 -1400 210/06 RMK AO2 $
94908KDBQ DBQ20090220110509802/20/09 11:05:31  5-MIN KDBQ 201705Z 23007KT 10SM CLR M06/M13 A3010 920 57 -1300 230/07 RMK AO2 $
94908KDBQ DBQ20090220111009802/20/09 11:10:31  5-MIN KDBQ 201710Z VRB04KT 10SM CLR M06/M13 A3010 920 57 -1400 VRB/04 RMK AO2 $
94908KDBQ DBQ20090220111509802/20/09 11:15:31  5-MIN KDBQ 201715Z 23004KT 10SM CLR M06/M13 A3009 920 57 -1300 230/04 RMK AO2 $
94908KDBQ DBQ20090220112009802/20/09 11:20:31  5-MIN KDBQ 201720Z 20003KT 10SM CLR M06/M13 A3009 920 54 -1300 200/03 RMK AO2 $
94908KDBQ DBQ20090220112509802/20/09 11:25:31  5-MIN KDBQ 201725Z VRB04KT 10SM CLR M06/M13 A3009 920 54 -1300 VRB/04 RMK AO2 $
94908KDBQ DBQ20090220113009802/20/09 11:30:31  5-MIN KDBQ 201730Z 24006KT 10SM CLR M05/M13 A3009 920 55 -1200 240/06 RMK AO2 $
94908KDBQ DBQ20090220113509802/20/09 11:35:31  5-MIN KDBQ 201735Z 22005KT 10SM CLR M05/M13 A3009 920 52 -1200 220/05 RMK AO2 $
94908KDBQ DBQ20090220114009802/20/09 11:40:31  5-MIN KDBQ 201740Z 20005KT 10SM CLR M05/M13 A3009 920 52 -1200 200/05 RMK AO2 $
94908KDBQ DBQ20090220114509802/20/09 11:45:31  5-MIN KDBQ 201745Z 19004KT 10SM CLR M05/M13 A3008 930 52 -1200 190/04 RMK AO2 $
94908KDBQ DBQ20090220115013302/20/09 11:50:31  5-MIN KDBQ 201750Z 23006KT 10SM CLR M05/M13 A3008 930 52 -1200 230/06 RMK AO2 SLP205 T10501133 11044 21139 56003 $
94908KDBQ DBQ20090220115509802/20/09 11:55:31  5-MIN KDBQ 201755Z 19004KT 10SM CLR M05/M13 A3008 940 52 -1200 190/04 RMK AO2 $
94908KDBQ DBQ20090220120009802/20/09 12:00:31  5-MIN KDBQ 201800Z 19006KT 10SM CLR M04/M13 A3008 940 50 -1100 190/06 RMK AO2 $
94908KDBQ DBQ20090220120509802/20/09 12:05:31  5-MIN KDBQ 201805Z VRB06KT 10SM CLR M04/M13 A3007 940 52 -1100 VRB/06 RMK AO2 $
94908KDBQ DBQ20090220121009802/20/09 12:10:31  5-MIN KDBQ 201810Z VRB04KT 10SM CLR M04/M13 A3007 940 48 -1100 VRB/04 RMK AO2 $
94908KDBQ DBQ20090220121509802/20/09 12:15:31  5-MIN KDBQ 201815Z VRB04KT 10SM CLR M04/M13 A3006 950 50 -1100 VRB/04 RMK AO2 $
94908KDBQ DBQ20090220122009802/20/09 12:20:31  5-MIN KDBQ 201820Z VRB05KT 10SM CLR M04/M13 A3006 950 50 -1100 VRB/05 RMK AO2 $
94908KDBQ DBQ20090220122509802/20/09 12:25:31  5-MIN KDBQ 201825Z 24006KT 10SM CLR M04/M13 A3006 950 48 -1100 240/06 RMK AO2 $
94908KDBQ DBQ20090220123009802/20/09 12:30:31  5-MIN KDBQ 201830Z 21009KT 10SM CLR M04/M13 A3006 950 50 -1000 210/09 RMK AO2 $
94908KDBQ DBQ20090220123509802/20/09 12:35:31  5-MIN KDBQ 201835Z 22004KT 10SM CLR M04/M13 A3006 950 50 -1000 220/04 RMK AO2 $
94908KDBQ DBQ20090220124009802/20/09 12:40:31  5-MIN KDBQ 201840Z 00000KT 10SM CLR M04/M13 A3005 960 48 -1000 000/00 RMK AO2 $
94908KDBQ DBQ20090220124509802/20/09 12:45:31  5-MIN KDBQ 201845Z 20006KT 10SM CLR M03/M13 A3005 960 48 -1000 200/06 RMK AO2 $
94908KDBQ DBQ20090220125011502/20/09 12:50:31  5-MIN KDBQ 201850Z 21008KT 10SM CLR M03/M12 A3005 960 50 -1000 210/08 RMK AO2 SLP193 T10331122 $
94908KDBQ DBQ20090220125509802/20/09 12:55:31  5-MIN KDBQ 201855Z 00000KT 10SM CLR M03/M13 A3004 960 48 -1000 000/00 RMK AO2 $
94908KDBQ DBQ20090220130009802/20/09 13:00:31  5-MIN KDBQ 201900Z 23006KT 10SM CLR M03/M12 A3004 960 50 -1000 230/06 RMK AO2 $
94908KDBQ DBQ20090220130509702/20/09 13:05:31  5-MIN KDBQ 201905Z 21009KT 10SM CLR M03/M12 A3004 960 48 -900 210/09 RMK AO2 $
94908KDBQ DBQ20090220131009802/20/09 13:10:31  5-MIN KDBQ 201910Z 21003KT 10SM CLR M03/M13 A3004 970 48 -1000 210/03 RMK AO2 $
94908KDBQ DBQ20090220131509702/20/09 13:15:31  5-MIN KDBQ 201915Z 19005KT 10SM CLR M03/M12 A3004 970 48 -900 190/05 RMK AO2 $
94908KDBQ DBQ20090220132009702/20/09 13:20:31  5-MIN KDBQ 201920Z 22006KT 10SM CLR M03/M12 A3004 970 48 -900 220/06 RMK AO2 $
94908KDBQ DBQ20090220132509702/20/09 13:25:31  5-MIN KDBQ 201925Z VRB04KT 10SM CLR M03/M12 A3003 970 48 -900 VRB/04 RMK AO2 $
94908KDBQ DBQ20090220133010302/20/09 13:30:31  5-MIN KDBQ 201930Z 22005KT 10SM CLR M02/M12 A3003 980 48 -800 220/05 RMK AO2 P0001 $
94908KDBQ DBQ20090220133510302/20/09 13:35:31  5-MIN KDBQ 201935Z VRB05KT 10SM CLR M03/M12 A3003 980 48 -900 VRB/05 RMK AO2 P0001 $
94908KDBQ DBQ20090220134010302/20/09 13:40:31  5-MIN KDBQ 201940Z 19007KT 10SM CLR M02/M12 A3003 980 48 -800 180/07 RMK AO2 P0001 $
94908KDBQ DBQ20090220134510302/20/09 13:45:31  5-MIN KDBQ 201945Z 21005KT 10SM CLR M03/M12 A3002 980 48 -900 210/05 RMK AO2 P0001 $
94908KDBQ DBQ20090220135012002/20/09 13:50:31  5-MIN KDBQ 201950Z 18004KT 10SM CLR M02/M12 A3002 980 48 -800 180/04 RMK AO2 SLP185 P0001 T10221117 $
94908KDBQ DBQ20090220135509702/20/09 13:55:31  5-MIN KDBQ 201955Z 18004KT 10SM CLR M02/M12 A3002 990 48 -800 180/04 RMK AO2 $
94908KDBQ DBQ20090220140009702/20/09 14:00:31  5-MIN KDBQ 202000Z 22006KT 10SM CLR M02/M12 A3002 990 48 -800 220/06 RMK AO2 $
94908KDBQ DBQ20090220140509702/20/09 14:05:31  5-MIN KDBQ 202005Z VRB06KT 10SM CLR M02/M12 A3001 990 48 -800 VRB/06 RMK AO2 $
94908KDBQ DBQ20090220141009702/20/09 14:10:31  5-MIN KDBQ 202010Z VRB04KT 10SM CLR M02/M12 A3001 990 48 -800 VRB/04 RMK AO2 $
94908KDBQ DBQ20090220141509702/20/09 14:15:31  5-MIN KDBQ 202015Z 21006KT 10SM CLR M02/M12 A3001 990 48 -800 210/06 RMK AO2 $
94908KDBQ DBQ20090220142009802/20/09 14:20:31  5-MIN KDBQ 202020Z VRB04KT 10SM CLR M02/M11 A3001 1000 49 -700 VRB/04 RMK AO2 $
94908KDBQ DBQ20090220142509802/20/09 14:25:31  5-MIN KDBQ 202025Z 17005KT 10SM CLR M02/M12 A3001 1000 48 -800 170/05 RMK AO2 $
94908KDBQ DBQ20090220143009802/20/09 14:30:31  5-MIN KDBQ 202030Z 16006KT 10SM CLR M02/M11 A3000 1000 49 -700 160/06 RMK AO2 $
94908KDBQ DBQ20090220143509802/20/09 14:35:31  5-MIN KDBQ 202035Z VRB05KT 10SM CLR M02/M12 A3000 1000 48 -800 VRB/05 RMK AO2 $
94908KDBQ DBQ20090220144009802/20/09 14:40:31  5-MIN KDBQ 202040Z VRB06KT 10SM CLR M02/M11 A3000 1010 49 -700 VRB/06 RMK AO2 $
94908KDBQ DBQ20090220144509802/20/09 14:45:31  5-MIN KDBQ 202045Z 14004KT 10SM CLR M02/M11 A2999 1010 49 -700 140/04 RMK AO2 $
94908KDBQ DBQ20090220145012702/20/09 14:50:31  5-MIN KDBQ 202050Z 17007KT 10SM CLR M02/M11 A2999 1010 49 -700 170/07 RMK AO2 SLP175 60001 T10171111 58007 $
94908KDBQ DBQ20090220145509802/20/09 14:55:31  5-MIN KDBQ 202055Z 17005KT 10SM CLR M02/M11 A2999 1010 51 -800 170/05 RMK AO2 $
94908KDBQ DBQ20090220150009802/20/09 15:00:31  5-MIN KDBQ 202100Z 19005KT 10SM CLR M02/M11 A2999 1010 49 -700 190/05 RMK AO2 $
94908KDBQ DBQ20090220150509802/20/09 15:05:31  5-MIN KDBQ 202105Z 17007KT 10SM CLR M02/M11 A2999 1020 49 -700 170/07 RMK AO2 $
94908KDBQ DBQ20090220151009802/20/09 15:10:31  5-MIN KDBQ 202110Z 17007KT 10SM CLR M02/M11 A2998 1020 49 -700 170/07 RMK AO2 $
94908KDBQ DBQ20090220151509802/20/09 15:15:31  5-MIN KDBQ 202115Z 17008KT 10SM CLR M02/M11 A2998 1020 49 -700 160/08 RMK AO2 $
94908KDBQ DBQ20090220152009802/20/09 15:20:31  5-MIN KDBQ 202120Z 15008KT 10SM CLR M02/M11 A2998 1020 51 -700 150/08 RMK AO2 $
94908KDBQ DBQ20090220152509802/20/09 15:25:31  5-MIN KDBQ 202125Z 15008KT 10SM CLR M02/M11 A2998 1020 51 -700 150/08 RMK AO2 $
94908KDBQ DBQ20090220153009802/20/09 15:30:31  5-MIN KDBQ 202130Z 15008KT 10SM CLR M02/M11 A2998 1020 51 -700 150/08 RMK AO2 $
94908KDBQ DBQ20090220153509802/20/09 15:35:31  5-MIN KDBQ 202135Z 17008KT 10SM CLR M02/M11 A2998 1020 51 -700 170/08 RMK AO2 $
94908KDBQ DBQ20090220154009802/20/09 15:40:31  5-MIN KDBQ 202140Z 16008KT 10SM CLR M02/M11 A2998 1030 51 -700 160/08 RMK AO2 $
94908KDBQ DBQ20090220154509802/20/09 15:45:31  5-MIN KDBQ 202145Z 17009KT 10SM CLR M02/M11 A2998 1030 51 -700 170/09 RMK AO2 $
94908KDBQ DBQ20090220155011502/20/09 15:50:31  5-MIN KDBQ 202150Z 17007KT 10SM CLR M02/M11 A2998 1030 51 -700 170/07 RMK AO2 SLP170 T10171106 $
94908KDBQ DBQ20090220155509802/20/09 15:55:31  5-MIN KDBQ 202155Z 16008KT 10SM CLR M02/M11 A2998 1030 51 -700 160/08 RMK AO2 $
94908KDBQ DBQ20090220160009802/20/09 16:00:31  5-MIN KDBQ 202200Z 16009KT 10SM CLR M02/M11 A2997 1030 51 -700 160/09 RMK AO2 $
94908KDBQ DBQ20090220160509802/20/09 16:05:31  5-MIN KDBQ 202205Z 18008KT 10SM CLR M02/M11 A2997 1030 51 -700 180/08 RMK AO2 $
94908KDBQ DBQ20090220161009802/20/09 16:10:31  5-MIN KDBQ 202210Z 16008KT 10SM CLR M02/M11 A2997 1030 53 -700 160/08 RMK AO2 $
94908KDBQ DBQ20090220161509802/20/09 16:15:31  5-MIN KDBQ 202215Z 16010KT 10SM CLR M02/M11 A2997 1030 53 -700 160/10 RMK AO2 $
94908KDBQ DBQ20090220162009802/20/09 16:20:31  5-MIN KDBQ 202220Z 17008KT 10SM CLR M02/M10 A2997 1030 53 -700 170/08 RMK AO2 $
94908KDBQ DBQ20090220162509802/20/09 16:25:31  5-MIN KDBQ 202225Z 17010KT 10SM CLR M02/M11 A2997 1030 51 -700 170/10 RMK AO2 $
94908KDBQ DBQ20090220163009802/20/09 16:30:31  5-MIN KDBQ 202230Z 16010KT 10SM CLR M02/M11 A2997 1030 51 -700 160/10 RMK AO2 $
94908KDBQ DBQ20090220163509802/20/09 16:35:31  5-MIN KDBQ 202235Z 15010KT 10SM CLR M02/M10 A2997 1030 53 -700 150/10 RMK AO2 $
94908KDBQ DBQ20090220164009802/20/09 16:40:31  5-MIN KDBQ 202240Z 15010KT 10SM CLR M02/M10 A2997 1030 55 -700 150/10 RMK AO2 $
94908KDBQ DBQ20090220164509802/20/09 16:45:31  5-MIN KDBQ 202245Z 17008KT 10SM CLR M02/M10 A2997 1040 55 -700 170/08 RMK AO2 $
94908KDBQ DBQ20090220165011502/20/09 16:50:31  5-MIN KDBQ 202250Z 16007KT 10SM CLR M02/M10 A2996 1040 55 -700 160/07 RMK AO2 SLP166 T10221100 $
94908KDBQ DBQ20090220165509802/20/09 16:55:31  5-MIN KDBQ 202255Z 16010KT 10SM CLR M02/M10 A2996 1040 55 -700 160/10 RMK AO2 $
94908KDBQ DBQ20090220170009802/20/09 17:00:31  5-MIN KDBQ 202300Z 15009KT 10SM CLR M02/M10 A2996 1040 55 -700 150/09 RMK AO2 $
94908KDBQ DBQ20090220170509802/20/09 17:05:31  5-MIN KDBQ 202305Z 16009KT 10SM CLR M02/M10 A2996 1040 55 -700 160/09 RMK AO2 $
94908KDBQ DBQ20090220171009802/20/09 17:10:31  5-MIN KDBQ 202310Z 16009KT 10SM CLR M02/M10 A2997 1040 55 -700 160/09 RMK AO2 $
94908KDBQ DBQ20090220171509802/20/09 17:15:31  5-MIN KDBQ 202315Z 16008KT 10SM CLR M02/M10 A2996 1040 55 -700 160/08 RMK AO2 $
94908KDBQ DBQ20090220172009802/20/09 17:20:31  5-MIN KDBQ 202320Z 16008KT 10SM CLR M02/M10 A2996 1040 55 -700 160/08 RMK AO2 $
94908KDBQ DBQ20090220172509802/20/09 17:25:31  5-MIN KDBQ 202325Z 16007KT 10SM CLR M03/M09 A2996 1040 60 -800 150/07 RMK AO2 $
94908KDBQ DBQ20090220173009802/20/09 17:30:31  5-MIN KDBQ 202330Z 15009KT 10SM CLR M03/M09 A2996 1040 60 -800 150/09 RMK AO2 $
94908KDBQ DBQ20090220173509802/20/09 17:35:31  5-MIN KDBQ 202335Z 15009KT 10SM CLR M03/M10 A2996 1040 58 -800 150/09 RMK AO2 $
94908KDBQ DBQ20090220174009802/20/09 17:40:31  5-MIN KDBQ 202340Z 15007KT 10SM CLR M03/M10 A2996 1040 58 -800 150/07 RMK AO2 $
94908KDBQ DBQ20090220174509802/20/09 17:45:31  5-MIN KDBQ 202345Z 15008KT 10SM CLR M03/M10 A2996 1040 60 -900 150/08 RMK AO2 $
94908KDBQ DBQ20090220175013902/20/09 17:50:31  5-MIN KDBQ 202350Z 15008KT 10SM CLR M03/M10 A2996 1040 60 -900 150/08 RMK AO2 SLP165 60001 T10331100 11017 21050 56027 $
94908KDBQ DBQ20090220175509802/20/09 17:55:31  5-MIN KDBQ 202355Z 15008KT 10SM CLR M03/M09 A2996 1040 63 -900 150/08 RMK AO2 $
94908KDBQ DBQ20090220180009802/20/09 18:00:31  5-MIN KDBQ 210000Z 15008KT 10SM CLR M03/M10 A2996 1050 60 -900 150/08 RMK AO2 $
94908KDBQ DBQ20090220180509802/20/09 18:05:31  5-MIN KDBQ 210005Z 14007KT 10SM CLR M03/M09 A2995 1050 63 -900 140/07 RMK AO2 $
94908KDBQ DBQ20090220181010102/20/09 18:10:31  5-MIN KDBQ 210010Z 15006KT 10SM FEW110 M03/M09 A2995 1050 63 -900 150/06 RMK AO2 $
94908KDBQ DBQ20090220181510102/20/09 18:15:31  5-MIN KDBQ 210015Z 14006KT 10SM FEW110 M03/M09 A2995 1050 63 -900 140/06 RMK AO2 $
94908KDBQ DBQ20090220182010102/20/09 18:20:31  5-MIN KDBQ 210020Z 15007KT 10SM FEW110 M03/M09 A2995 1050 63 -900 150/07 RMK AO2 $
94908KDBQ DBQ20090220182510102/20/09 18:25:31  5-MIN KDBQ 210025Z 16005KT 10SM FEW110 M04/M09 A2996 1040 65 -900 160/05 RMK AO2 $
94908KDBQ DBQ20090220183010102/20/09 18:30:31  5-MIN KDBQ 210030Z 17006KT 10SM FEW110 M04/M09 A2996 1040 65 -900 170/06 RMK AO2 $
94908KDBQ DBQ20090220183510102/20/09 18:35:31  5-MIN KDBQ 210035Z 16007KT 10SM FEW110 M04/M09 A2996 1040 65 -900 160/07 RMK AO2 $
94908KDBQ DBQ20090220184010102/20/09 18:40:31  5-MIN KDBQ 210040Z 16006KT 10SM SCT120 M04/M09 A2996 1040 65 -900 160/06 RMK AO2 $
94908KDBQ DBQ20090220184510102/20/09 18:45:31  5-MIN KDBQ 210045Z 16008KT 10SM BKN110 M04/M09 A2996 1040 65 -900 160/08 RMK AO2 $
94908KDBQ DBQ20090220185012302/20/09 18:50:31  5-MIN KDBQ 210050Z AUTO 15008KT 10SM BKN110 M04/M09 A2996 1040 68 -900 150/08 RMK AO2 SLP165 T10391089 $
94908KDBQ DBQ20090220185510602/20/09 18:55:31  5-MIN KDBQ 210055Z AUTO 15008KT 10SM BKN110 M03/M09 A2996 1040 65 -900 150/08 RMK AO2 $
94908KDBQ DBQ20090220190010602/20/09 19:00:31  5-MIN KDBQ 210100Z AUTO 15007KT 10SM OVC100 M03/M09 A2996 1040 65 -900 150/07 RMK AO2 $
94908KDBQ DBQ20090220190510602/20/09 19:05:31  5-MIN KDBQ 210105Z AUTO 15007KT 10SM OVC100 M03/M09 A2996 1050 63 -900 150/07 RMK AO2 $
94908KDBQ DBQ20090220191010602/20/09 19:10:31  5-MIN KDBQ 210110Z AUTO 14007KT 10SM OVC100 M03/M09 A2996 1040 63 -900 140/07 RMK AO2 $
94908KDBQ DBQ20090220191510602/20/09 19:15:31  5-MIN KDBQ 210115Z AUTO 15006KT 10SM OVC100 M03/M09 A2996 1040 63 -900 150/06 RMK AO2 $
94908KDBQ DBQ20090220192010602/20/09 19:20:31  5-MIN KDBQ 210120Z AUTO 15005KT 10SM OVC100 M03/M09 A2996 1040 63 -900 150/05 RMK AO2 $
94908KDBQ DBQ20090220192510602/20/09 19:25:31  5-MIN KDBQ 210125Z AUTO 15006KT 10SM OVC100 M03/M09 A2997 1040 63 -900 150/06 RMK AO2 $
94908KDBQ DBQ20090220193010602/20/09 19:30:31  5-MIN KDBQ 210130Z AUTO 15007KT 10SM OVC100 M03/M09 A2997 1040 63 -900 150/07 RMK AO2 $
94908KDBQ DBQ20090220193511302/20/09 19:35:31  5-MIN KDBQ 210135Z AUTO 16009KT 10SM BKN090 OVC110 M03/M09 A2997 1040 63 -900 150/09 RMK AO2 $
94908KDBQ DBQ20090220194011302/20/09 19:40:31  5-MIN KDBQ 210140Z AUTO 16009KT 10SM BKN090 OVC110 M03/M09 A2997 1030 63 -900 160/09 RMK AO2 $
94908KDBQ DBQ20090220194511302/20/09 19:45:31  5-MIN KDBQ 210145Z AUTO 15009KT 10SM BKN090 OVC110 M03/M09 A2997 1030 65 -900 150/09 RMK AO2 $
94908KDBQ DBQ20090220195012302/20/09 19:50:31  5-MIN KDBQ 210150Z AUTO 16010KT 10SM OVC090 M03/M09 A2996 1040 63 -900 150/10 RMK AO2 SLP166 T10331094 $
94908KDBQ DBQ20090220195510602/20/09 19:55:31  5-MIN KDBQ 210155Z AUTO 15010KT 10SM OVC090 M03/M09 A2996 1040 65 -900 150/10 RMK AO2 $
94908KDBQ DBQ20090220200010602/20/09 20:00:31  5-MIN KDBQ 210200Z AUTO 15007KT 10SM OVC090 M03/M09 A2996 1040 63 -900 150/07 RMK AO2 $
94908KDBQ DBQ20090220200510602/20/09 20:05:31  5-MIN KDBQ 210205Z AUTO 15008KT 10SM OVC090 M03/M09 A2996 1040 63 -900 150/08 RMK AO2 $
94908KDBQ DBQ20090220201010602/20/09 20:10:31  5-MIN KDBQ 210210Z AUTO 15010KT 10SM OVC085 M03/M09 A2996 1040 65 -900 150/10 RMK AO2 $
94908KDBQ DBQ20090220201510602/20/09 20:15:31  5-MIN KDBQ 210215Z AUTO 15010KT 10SM OVC085 M03/M09 A2996 1040 65 -900 150/10 RMK AO2 $
94908KDBQ DBQ20090220202010602/20/09 20:20:31  5-MIN KDBQ 210220Z AUTO 15009KT 10SM OVC085 M03/M09 A2996 1040 65 -900 150/09 RMK AO2 $
94908KDBQ DBQ20090220202510602/20/09 20:25:31  5-MIN KDBQ 210225Z AUTO 15008KT 10SM OVC080 M03/M09 A2996 1040 63 -900 150/08 RMK AO2 $
94908KDBQ DBQ20090220203010602/20/09 20:30:31  5-MIN KDBQ 210230Z AUTO 15010KT 10SM OVC085 M03/M09 A2996 1040 65 -900 150/10 RMK AO2 $
94908KDBQ DBQ20090220203510602/20/09 20:35:31  5-MIN KDBQ 210235Z AUTO 15009KT 10SM OVC085 M03/M09 A2996 1040 65 -900 150/09 RMK AO2 $
94908KDBQ DBQ20090220204010602/20/09 20:40:31  5-MIN KDBQ 210240Z AUTO 14009KT 10SM OVC080 M03/M09 A2996 1040 65 -900 140/09 RMK AO2 $
94908KDBQ DBQ20090220204510602/20/09 20:45:31  5-MIN KDBQ 210245Z AUTO 14008KT 10SM OVC080 M03/M09 A2996 1040 63 -900 140/08 RMK AO2 $
94908KDBQ DBQ20090220205013602/20/09 20:50:31  5-MIN KDBQ 210250Z AUTO 15007KT 10SM BKN070 OVC090 M03/M09 A2996 1040 65 -900 150/07 RMK AO2 SLP165 T10331089 56010 $
94908KDBQ DBQ20090220205510602/20/09 20:55:31  5-MIN KDBQ 210255Z AUTO 15007KT 10SM OVC070 M03/M09 A2997 1030 63 -900 150/07 RMK AO2 $
94908KDBQ DBQ20090220210010602/20/09 21:00:31  5-MIN KDBQ 210300Z AUTO 15006KT 10SM OVC070 M03/M09 A2997 1030 63 -900 150/06 RMK AO2 $
94908KDBQ DBQ20090220210510602/20/09 21:05:31  5-MIN KDBQ 210305Z AUTO 13004KT 10SM OVC065 M03/M09 A2997 1030 63 -900 130/04 RMK AO2 $
94908KDBQ DBQ20090220211010602/20/09 21:10:31  5-MIN KDBQ 210310Z AUTO 13004KT 10SM OVC065 M03/M09 A2997 1030 63 -900 130/04 RMK AO2 $
94908KDBQ DBQ20090220211510602/20/09 21:15:31  5-MIN KDBQ 210315Z AUTO 00000KT 10SM OVC065 M03/M09 A2997 1030 65 -900 000/00 RMK AO2 $
94908KDBQ DBQ20090220212011302/20/09 21:20:31  5-MIN KDBQ 210320Z AUTO 13004KT 10SM SCT055 OVC075 M03/M09 A2997 1030 63 -900 130/04 RMK AO2 $
94908KDBQ DBQ20090220212511302/20/09 21:25:31  5-MIN KDBQ 210325Z AUTO 14004KT 10SM BKN050 OVC070 M03/M09 A2997 1030 63 -900 140/04 RMK AO2 $
94908KDBQ DBQ20090220213012402/20/09 21:30:31  5-MIN KDBQ 210330Z AUTO 14004KT 10SM BKN041 BKN055 OVC075 M03/M09 A2997 1030 65 -900 140/04 RMK AO2 PNO $
94908KDBQ DBQ20090220214011202/20/09 21:40:31  5-MIN KDBQ 210340Z AUTO 14004KT 8SM BKN027 OVC070 M03/M09 A2997 1030 65 -900 140/04 RMK AO2 $
94908KDBQ DBQ20090220214512102/20/09 21:45:31  5-MIN KDBQ 210345Z AUTO 14006KT 4SM -SN OVC021 M04/M08 A2997 1030 71 -900 140/06 RMK AO2 SNB41 P0000 $
94908KDBQ DBQ20090220215014202/20/09 21:50:31  5-MIN KDBQ 210350Z AUTO 15006KT 1 3/4SM -SN OVC017 M04/M08 A2997 1030 71 -900 150/06 RMK AO2 SNB41 SLP165 P0000 T10391083 $
94908KDBQ DBQ20090220215512002/20/09 21:55:31  5-MIN KDBQ 210355Z AUTO 14006KT 1 1/2SM -SN OVC013 M04/M08 A2997 1040 78 -1000 140/06 RMK AO2 P0000 $
94908KDBQ DBQ20090220220012002/20/09 22:00:31  5-MIN KDBQ 210400Z AUTO 14006KT 1 1/2SM -SN OVC013 M04/M07 A2996 1040 81 -1000 140/06 RMK AO2 P0000 $
94908KDBQ DBQ20090220220512002/20/09 22:05:31  5-MIN KDBQ 210405Z AUTO 14007KT 1 1/2SM -SN OVC011 M04/M07 A2996 1040 81 -1000 140/07 RMK AO2 P0000 $
94908KDBQ DBQ20090220221013002/20/09 22:10:31  5-MIN KDBQ 210410Z AUTO 14007KT 1 1/2SM -SN BR BKN011 OVC031 M04/M07 A2996 1040 84 -1000 140/07 RMK AO2 P0000 $
94908KDBQ DBQ20090220221513002/20/09 22:15:31  5-MIN KDBQ 210415Z AUTO 14005KT 1 1/2SM -SN BR BKN011 OVC031 M04/M07 A2996 1040 84 -1000 140/05 RMK AO2 P0000 $
94908KDBQ DBQ20090220222013002/20/09 22:20:31  5-MIN KDBQ 210420Z AUTO 14006KT 1 1/2SM -SN BR BKN013 OVC029 M04/M07 A2996 1040 84 -1000 140/06 RMK AO2 P0000 $
94908KDBQ DBQ20090220222513002/20/09 22:25:31  5-MIN KDBQ 210425Z AUTO 14007KT 1 1/2SM -SN BR BKN013 OVC029 M04/M07 A2995 1050 84 -1000 140/07 RMK AO2 P0000 $
94908KDBQ DBQ20090220223013002/20/09 22:30:31  5-MIN KDBQ 210430Z AUTO 14006KT 1 1/4SM -SN BR BKN011 OVC029 M04/M07 A2995 1050 84 -1000 140/06 RMK AO2 P0001 $
94908KDBQ DBQ20090220223513002/20/09 22:35:31  5-MIN KDBQ 210435Z AUTO 14007KT 1 1/4SM -SN BR BKN011 OVC029 M04/M07 A2995 1050 84 -1000 140/07 RMK AO2 P0001 $
94908KDBQ DBQ20090220224012302/20/09 22:40:31  5-MIN KDBQ 210440Z AUTO 13007KT 1 1/4SM -SN BR OVC011 M05/M07 A2994 1060 88 -1100 130/07 RMK AO2 P0001 $
94908KDBQ DBQ20090220224511802/20/09 22:45:31  5-MIN KDBQ 210445Z AUTO 13006KT 1SM -SN BR VV009 M05/M07 A2994 1060 88 -1100 130/06 RMK AO2 P0001 $
94908KDBQ DBQ20090220225014002/20/09 22:50:31  5-MIN KDBQ 210450Z AUTO 14007KT 1 1/4SM -SN BR OVC009 M05/M07 A2994 1060 88 -1100 140/07 RMK AO2 SLP155 P0002 T10501067 $
94908KDBQ DBQ20090220225512302/20/09 22:55:31  5-MIN KDBQ 210455Z AUTO 14006KT 1 1/2SM -SN BR OVC011 M05/M06 A2993 1070 92 -1000 140/06 RMK AO2 P0000 $
94908KDBQ DBQ20090220230012302/20/09 23:00:31  5-MIN KDBQ 210500Z AUTO 13007KT 1 3/4SM -SN BR OVC011 M05/M06 A2993 1070 92 -1000 130/07 RMK AO2 P0000 $
94908KDBQ DBQ20090220230512602/20/09 23:05:31  5-MIN KDBQ 210505Z AUTO 14008KT 2SM -SN BR BKN013 OVC035 M05/M07 A2992 1070 88 -1000 130/08 RMK AO2 P0000 $
94908KDBQ DBQ20090220231013002/20/09 23:10:31  5-MIN KDBQ 210510Z AUTO 13007KT 1 3/4SM -SN BR BKN013 OVC035 M05/M07 A2992 1080 88 -1000 130/07 RMK AO2 P0000 $
94908KDBQ DBQ20090220231513002/20/09 23:15:31  5-MIN KDBQ 210515Z AUTO 13008KT 1 1/2SM -SN BR BKN015 OVC035 M05/M07 A2991 1090 88 -1000 120/08 RMK AO2 P0000 $
94908KDBQ DBQ20090220232012302/20/09 23:20:31  5-MIN KDBQ 210520Z AUTO 13007KT 1 3/4SM -SN BR OVC015 M05/M07 A2991 1090 88 -1000 130/07 RMK AO2 P0000 $
94908KDBQ DBQ20090220232512602/20/09 23:25:31  5-MIN KDBQ 210525Z AUTO 13007KT 2SM -SN BR BKN017 OVC035 M05/M07 A2991 1090 88 -1000 130/07 RMK AO2 P0000 $
94908KDBQ DBQ20090220233012602/20/09 23:30:31  5-MIN KDBQ 210530Z AUTO 13007KT 2SM -SN BR BKN019 OVC038 M05/M07 A2991 1090 88 -1000 130/07 RMK AO2 P0000 $
94908KDBQ DBQ20090220233513002/20/09 23:35:31  5-MIN KDBQ 210535Z AUTO 13008KT 2 1/2SM -SN BR BKN021 OVC038 M05/M07 A2990 1090 88 -1000 130/08 RMK AO2 P0000 $
94908KDBQ DBQ20090220234013002/20/09 23:40:31  5-MIN KDBQ 210540Z AUTO 13007KT 2 1/2SM -SN BR BKN021 OVC038 M05/M07 A2990 1100 88 -1000 130/07 RMK AO2 P0000 $
94908KDBQ DBQ20090220234512602/20/09 23:45:31  5-MIN KDBQ 210545Z AUTO 14008KT 2SM -SN BR BKN021 OVC038 M05/M07 A2990 1100 88 -1000 140/08 RMK AO2 P0000 $
94908KDBQ DBQ20090220235014002/20/09 23:50:31  5-MIN KDBQ 210550Z AUTO 14010KT 1 3/4SM -SN BR BKN019 OVC038 M05/M07 A2990 1100 88 -1000 140/10 RMK AO2 P0000 410171144 $
94908KDBQ DBQ20090220235513002/20/09 23:55:31  5-MIN KDBQ 210555Z AUTO 13008KT 1 1/2SM -SN BR BKN019 OVC039 M05/M07 A2989 1100 88 -1000 130/08 RMK AO2 P0000 $
94908KDBQ DBQ20090221000012302/21/09 00:00:38  5-MIN KDBQ 210600Z AUTO 13008KT 1 1/2SM -SN BR OVC017 M05/M06 A2989 1100 92 -1000 130/08 RMK AO2 P0000 $
94908KDBQ DBQ20090221000512302/21/09 00:05:31  5-MIN KDBQ 210605Z AUTO 14009KT 1 1/2SM -SN BR OVC015 M05/M06 A2989 1110 92 -1000 140/09 RMK AO2 P0001 $
94908KDBQ DBQ20090221001012902/21/09 00:10:31  5-MIN KDBQ 210610Z AUTO 13008G14KT 1 1/2SM -SN BR OVC015 M05/M06 A2989 1110 92 -1000 130/08G14 RMK AO2 P0001 $
94908KDBQ DBQ20090221001512302/21/09 00:15:32  5-MIN KDBQ 210615Z AUTO 13009KT 1 1/2SM -SN BR OVC013 M05/M06 A2988 1120 92 -1000 130/09 RMK AO2 P0001 $
94908KDBQ DBQ20090221002012302/21/09 00:20:31  5-MIN KDBQ 210620Z AUTO 13010KT 1 1/2SM -SN BR OVC013 M05/M06 A2988 1120 92 -1000 130/10 RMK AO2 P0001 $
94908KDBQ DBQ20090221002512202/21/09 00:25:31  5-MIN KDBQ 210625Z AUTO 13009KT 1 1/2SM -SN BR OVC013 M04/M06 A2987 1120 88 -900 120/09 RMK AO2 P0001 $
94908KDBQ DBQ20090221003012202/21/09 00:30:31  5-MIN KDBQ 210630Z AUTO 13008KT 1 3/4SM -SN BR OVC015 M04/M06 A2987 1130 88 -900 130/08 RMK AO2 P0001 $
94908KDBQ DBQ20090221003511802/21/09 00:35:31  5-MIN KDBQ 210635Z AUTO 13009KT 2SM -SN BR OVC017 M04/M06 A2986 1130 88 -900 130/09 RMK AO2 P0001 $
94908KDBQ DBQ20090221004012202/21/09 00:40:31  5-MIN KDBQ 210640Z AUTO 13009KT 2 1/2SM -SN BR OVC019 M04/M06 A2986 1140 88 -900 130/09 RMK AO2 P0001 $
94908KDBQ DBQ20090221004512202/21/09 00:45:31  5-MIN KDBQ 210645Z AUTO 13009KT 2 1/2SM -SN BR OVC023 M04/M06 A2986 1140 88 -900 130/09 RMK AO2 P0001 $
94908KDBQ DBQ20090221005011802/21/09 00:50:31  5-MIN KDBQ 210650Z AUTO 13009KT 3SM -SN BR OVC025 M04/M06 A2985 1140 88 -900 130/09 RMK AO2 P0001 $
94908KDBQ DBQ20090221005512202/21/09 00:55:31  5-MIN KDBQ 210655Z AUTO 13009KT 2 1/2SM -SN BR OVC025 M04/M06 A2985 1140 88 -900 130/09 RMK AO2 P0000 $
94908KDBQ DBQ20090221010011802/21/09 01:00:31  5-MIN KDBQ 210700Z AUTO 13009KT 2SM -SN BR OVC023 M04/M06 A2985 1150 88 -900 130/09 RMK AO2 P0000 $
94908KDBQ DBQ20090221010512202/21/09 01:05:31  5-MIN KDBQ 210705Z AUTO 13007KT 1 3/4SM -SN BR OVC021 M04/M06 A2985 1150 88 -900 130/07 RMK AO2 P0000 $
94908KDBQ DBQ20090221011012202/21/09 01:10:31  5-MIN KDBQ 210710Z AUTO 13009KT 1 1/2SM -SN BR OVC019 M04/M06 A2985 1150 88 -900 130/09 RMK AO2 P0000 $
94908KDBQ DBQ20090221011512202/21/09 01:15:31  5-MIN KDBQ 210715Z AUTO 13010KT 1 1/2SM -SN BR OVC015 M04/M06 A2985 1150 88 -900 130/10 RMK AO2 P0000 $
94908KDBQ DBQ20090221012012202/21/09 01:20:31  5-MIN KDBQ 210720Z AUTO 13007KT 1 1/4SM -SN BR OVC013 M04/M06 A2984 1150 88 -900 130/07 RMK AO2 P0001 $
94908KDBQ DBQ20090221012512202/21/09 01:25:31  5-MIN KDBQ 210725Z AUTO 13009KT 1 1/4SM -SN BR OVC013 M04/M06 A2984 1150 92 -900 130/09 RMK AO2 P0001 $
94908KDBQ DBQ20090221013012202/21/09 01:30:31  5-MIN KDBQ 210730Z AUTO 13008KT 1 1/4SM -SN BR OVC013 M04/M06 A2984 1150 92 -900 130/08 RMK AO2 P0001 $
94908KDBQ DBQ20090221013512202/21/09 01:35:31  5-MIN KDBQ 210735Z AUTO 13008KT 1 1/4SM -SN BR OVC013 M04/M06 A2984 1150 92 -900 130/08 RMK AO2 P0001 $
94908KDBQ DBQ20090221014012902/21/09 01:40:31  5-MIN KDBQ 210740Z AUTO 13007KT 1 1/4SM -SN BR BKN013 OVC020 M04/M06 A2984 1150 92 -900 130/07 RMK AO2 P0001 $
94908KDBQ DBQ20090221014512902/21/09 01:45:31  5-MIN KDBQ 210745Z AUTO 13006KT 1 1/4SM -SN BR BKN013 OVC020 M04/M06 A2984 1150 92 -900 130/06 RMK AO2 P0001 $
94908KDBQ DBQ20090221015012902/21/09 01:50:31  5-MIN KDBQ 210750Z AUTO 13007KT 1 1/4SM -SN BR SCT013 OVC020 M04/M06 A2984 1160 92 -900 130/07 RMK AO2 P0001 $
94908KDBQ DBQ20090221015512902/21/09 01:55:31  5-MIN KDBQ 210755Z AUTO 13007KT 1 1/2SM -SN BR FEW013 OVC020 M04/M06 A2983 1160 92 -900 130/07 RMK AO2 P0000 $
94908KDBQ DBQ20090221020012902/21/09 02:00:31  5-MIN KDBQ 210800Z AUTO 12006KT 1 3/4SM -SN BR FEW011 OVC020 M04/M06 A2983 1160 92 -900 120/06 RMK AO2 P0000 $
94908KDBQ DBQ20090221020512202/21/09 02:05:31  5-MIN KDBQ 210805Z AUTO 13004KT 1 3/4SM -SN BR OVC020 M04/M06 A2983 1160 92 -900 130/04 RMK AO2 P0000 $
94908KDBQ DBQ20090221021012202/21/09 02:10:31  5-MIN KDBQ 210810Z AUTO 13005KT 1 3/4SM -SN BR OVC020 M04/M06 A2983 1160 92 -900 130/05 RMK AO2 P0000 $
94908KDBQ DBQ20090221021512902/21/09 02:15:31  5-MIN KDBQ 210815Z AUTO 13004KT 1 3/4SM -SN BR BKN020 OVC025 M04/M06 A2983 1160 92 -900 130/04 RMK AO2 P0000 $
94908KDBQ DBQ20090221022012902/21/09 02:20:31  5-MIN KDBQ 210820Z AUTO 12004KT 1 1/2SM -SN BR BKN020 OVC025 M04/M06 A2982 1170 92 -900 120/04 RMK AO2 P0000 $
94908KDBQ DBQ20090221022512202/21/09 02:25:31  5-MIN KDBQ 210825Z AUTO 12004KT 1 1/4SM -SN BR OVC022 M04/M06 A2982 1170 92 -800 120/04 RMK AO2 P0000 $
94908KDBQ DBQ20090221023012202/21/09 02:30:31  5-MIN KDBQ 210830Z AUTO 00000KT 1 1/2SM -SN BR OVC022 M04/M06 A2983 1170 92 -900 000/00 RMK AO2 P0000 $
94908KDBQ DBQ20090221023512202/21/09 02:35:31  5-MIN KDBQ 210835Z AUTO 00000KT 1 3/4SM -SN BR OVC022 M04/M06 A2983 1170 92 -900 000/00 RMK AO2 P0000 $
94908KDBQ DBQ20090221024011802/21/09 02:40:31  5-MIN KDBQ 210840Z AUTO 00000KT 2SM -SN BR OVC022 M04/M06 A2982 1170 92 -900 000/00 RMK AO2 P0000 $
94908KDBQ DBQ20090221024512502/21/09 02:45:31  5-MIN KDBQ 210845Z AUTO 00000KT 3SM -SN BR BKN019 OVC024 M04/M06 A2982 1170 88 -800 000/00 RMK AO2 P0000 $
94908KDBQ DBQ20090221025012502/21/09 02:50:31  5-MIN KDBQ 210850Z AUTO 00000KT 4SM -SN BR BKN017 OVC022 M04/M06 A2982 1170 88 -800 000/00 RMK AO2 P0000 $
94908KDBQ DBQ20090221025512502/21/09 02:55:31  5-MIN KDBQ 210855Z AUTO 00000KT 5SM -SN BR BKN015 OVC022 M04/M06 A2982 1180 88 -800 000/00 RMK AO2 P0000 $
94908KDBQ DBQ20090221030013602/21/09 03:00:31  5-MIN KDBQ 210900Z AUTO 00000KT 6SM BR FEW010 BKN015 OVC022 M04/M06 A2982 1170 88 -800 000/00 RMK AO2 SNE0858 P0000 $
94908KDBQ DBQ20090221030512602/21/09 03:05:31  5-MIN KDBQ 210905Z AUTO 00000KT 7SM SCT010 OVC017 M04/M06 A2982 1170 88 -800 000/00 RMK AO2 SNE0858 P0000 $
94908KDBQ DBQ20090221031013702/21/09 03:10:31  5-MIN KDBQ 210910Z AUTO 00000KT 6SM -SN BR BKN010 OVC017 M04/M06 A2981 1180 88 -800 000/00 RMK AO2 CIG 009V014 P0000 $
94908KDBQ DBQ20090221031513702/21/09 03:15:31  5-MIN KDBQ 210915Z AUTO 00000KT 5SM -SN BR BKN010 OVC015 M04/M06 A2981 1180 88 -800 000/00 RMK AO2 CIG 007V014 P0000 $
94908KDBQ DBQ20090221032013702/21/09 03:20:31  5-MIN KDBQ 210920Z AUTO 00000KT 4SM -SN BR BKN010 OVC015 M04/M06 A2982 1170 88 -800 000/00 RMK AO2 CIG 007V012 P0000 $
94908KDBQ DBQ20090221032511802/21/09 03:25:31  5-MIN KDBQ 210925Z AUTO 00000KT 3SM -SN BR OVC010 M04/M06 A2982 1180 88 -800 000/00 RMK AO2 P0000 $
94908KDBQ DBQ20090221033012202/21/09 03:30:31  5-MIN KDBQ 210930Z AUTO 00000KT 2 1/2SM -SN BR OVC010 M04/M06 A2981 1180 88 -800 000/00 RMK AO2 P0000 $
94908KDBQ DBQ20090221033511802/21/09 03:35:31  5-MIN KDBQ 210935Z AUTO 00000KT 4SM -SN BR OVC010 M04/M06 A2981 1180 88 -800 000/00 RMK AO2 P0001 $
94908KDBQ DBQ20090221034011802/21/09 03:40:31  5-MIN KDBQ 210940Z AUTO 00000KT 4SM -SN BR OVC010 M04/M06 A2981 1180 88 -800 000/00 RMK AO2 P0001 $
94908KDBQ DBQ20090221034512202/21/09 03:45:31  5-MIN KDBQ 210945Z AUTO 00000KT 2 1/2SM -SN BR OVC010 M04/M06 A2981 1180 88 -800 000/00 RMK AO2 P0001 $
94908KDBQ DBQ20090221035014602/21/09 03:50:31  5-MIN KDBQ 210950Z AUTO 00000KT 1 3/4SM -SN BR FEW005 OVC010 M04/M06 A2981 1180 92 -800 000/00 RMK AO2 SLP109 P0001 T10441056 $
94908KDBQ DBQ20090221035512502/21/09 03:55:31  5-MIN KDBQ 210955Z AUTO 00000KT 1SM -SN BR SCT005 OVC010 M04/M06 A2981 1180 88 -800 000/00 RMK AO2 P0000 $
94908KDBQ DBQ20090221040012702/21/09 04:00:31  5-MIN KDBQ 211000Z AUTO 00000KT 3/4SM -SN BR BKN003 OVC010 M04/M06 A2981 1180 88 -800 000/00 RMK AO2 P0001 $
94908KDBQ DBQ20090221040512802/21/09 04:05:31  5-MIN KDBQ 211005Z AUTO 00000KT 1/2SM SN FZFG BKN003 OVC010 M04/M06 A2980 1190 92 -800 000/00 RMK AO2 P0003 $
94908KDBQ DBQ20090221041012802/21/09 04:10:31  5-MIN KDBQ 211010Z AUTO 00000KT 1/2SM SN FZFG BKN003 OVC012 M04/M06 A2980 1190 92 -800 000/00 RMK AO2 P0003 $
94908KDBQ DBQ20090221041512002/21/09 04:15:31  5-MIN KDBQ 211015Z AUTO 00000KT 1/2SM SN FZFG VV003 M04/M06 A2980 1190 92 -800 000/00 RMK AO2 P0004 $
94908KDBQ DBQ20090221042011902/21/09 04:20:31  5-MIN KDBQ 211020Z AUTO 00000KT 3/4SM -SN BR VV003 M04/M06 A2980 1190 92 -800 000/00 RMK AO2 P0004 $
94908KDBQ DBQ20090221042511902/21/09 04:25:31  5-MIN KDBQ 211025Z AUTO 00000KT 3/4SM -SN BR VV004 M04/M06 A2980 1190 92 -800 000/00 RMK AO2 P0004 $
94908KDBQ DBQ20090221043011902/21/09 04:30:31  5-MIN KDBQ 211030Z AUTO 31003KT 3/4SM -SN BR VV004 M04/M06 A2980 1190 92 -800 300/03 RMK AO2 P0004 $
94908KDBQ DBQ20090221043511902/21/09 04:35:31  5-MIN KDBQ 211035Z AUTO 31003KT 3/4SM -SN BR VV004 M04/M06 A2980 1190 92 -800 310/03 RMK AO2 P0005 $
94908KDBQ DBQ20090221044011902/21/09 04:40:31  5-MIN KDBQ 211040Z AUTO 00000KT 3/4SM -SN BR VV005 M04/M06 A2979 1200 92 -800 000/00 RMK AO2 P0006 $
94908KDBQ DBQ20090221044511902/21/09 04:45:31  5-MIN KDBQ 211045Z AUTO 00000KT 3/4SM -SN BR VV005 M04/M06 A2979 1200 92 -800 000/00 RMK AO2 P0006 $
94908KDBQ DBQ20090221045011902/21/09 04:50:31  5-MIN KDBQ 211050Z AUTO 00000KT 3/4SM -SN BR VV004 M04/M06 A2979 1200 92 -800 000/00 RMK AO2 P0006 $
94908KDBQ DBQ20090221045511702/21/09 04:55:31  5-MIN KDBQ 211055Z AUTO 00000KT 1SM -SN BR VV004 M04/M06 A2979 1200 92 -800 000/00 RMK AO2 P0000 $
94908KDBQ DBQ20090221050011902/21/09 05:00:31  5-MIN KDBQ 211100Z AUTO 00000KT 3/4SM -SN BR VV004 M04/M06 A2979 1200 92 -800 000/00 RMK AO2 P0001 $
94908KDBQ DBQ20090221050511902/21/09 05:05:31  5-MIN KDBQ 211105Z AUTO 00000KT 3/4SM -SN BR VV004 M04/M06 A2979 1200 88 -800 000/00 RMK AO2 P0001 $
94908KDBQ DBQ20090221051011902/21/09 05:10:31  5-MIN KDBQ 211110Z AUTO 00000KT 3/4SM -SN BR VV003 M04/M06 A2979 1200 88 -800 000/00 RMK AO2 P0002 $
94908KDBQ DBQ20090221051512002/21/09 05:15:31  5-MIN KDBQ 211115Z AUTO 00000KT 1/2SM SN FZFG VV003 M04/M06 A2979 1200 92 -800 000/00 RMK AO2 P0002 $
94908KDBQ DBQ20090221052011902/21/09 05:20:31  5-MIN KDBQ 211120Z AUTO 00000KT 3/4SM -SN BR VV003 M04/M06 A2979 1200 92 -800 000/00 RMK AO2 P0003 $
94908KDBQ DBQ20090221052511902/21/09 05:25:31  5-MIN KDBQ 211125Z AUTO 00000KT 3/4SM -SN BR VV004 M04/M06 A2978 1210 92 -800 000/00 RMK AO2 P0003 $
94908KDBQ DBQ20090221053012502/21/09 05:30:31  5-MIN KDBQ 211130Z AUTO 00000KT 1SM -SN BR BKN004 OVC018 M04/M06 A2978 1210 92 -800 000/00 RMK AO2 P0004 $
94908KDBQ DBQ20090221053512502/21/09 05:35:31  5-MIN KDBQ 211135Z AUTO 00000KT 1SM -SN BR BKN004 OVC018 M04/M06 A2978 1210 92 -800 000/00 RMK AO2 P0004 $
94908KDBQ DBQ20090221054012502/21/09 05:40:31  5-MIN KDBQ 211140Z AUTO 00000KT 1SM -SN BR BKN004 OVC018 M04/M06 A2978 1210 92 -800 000/00 RMK AO2 P0004 $
94908KDBQ DBQ20090221054513302/21/09 05:45:31  5-MIN KDBQ 211145Z AUTO 28018G23KT 3/4SM -SN BR BKN004 OVC018 M06/M07 A2978 1210 88 -900 280/18G23 RMK AO2 P0004 $
94908KDBQ DBQ20090221055013402/21/09 05:50:31  5-MIN KDBQ 211150Z AUTO 29015G23KT 3/4SM -SN BR SCT004 OVC016 M07/M09 A2978 1210 84 -1200 290/15G23 RMK AO2 P0004 $
94908KDBQ DBQ20090221055513002/21/09 05:55:31  5-MIN KDBQ 211155Z AUTO 29016KT 1 1/4SM -SN BR FEW004 OVC016 M08/M09 A2979 1200 88 -1200 280/16 RMK AO2 P0000 $
94908KDBQ DBQ20090221060012102/21/09 06:00:31  5-MIN KDBQ 211200Z 29017KT 2SM -SN BR FEW004 OVC016 M08/M10 A2979 1200 84 -1200 280/17 RMK AO2 P0000 $
94908KDBQ DBQ20090221060513102/21/09 06:05:31  5-MIN KDBQ 211205Z 29015G22KT 2 1/2SM -SN BR FEW004 OVC018 M08/M10 A2978 1210 84 -1200 290/15G22 RMK AO2 P0000 $
94908KDBQ DBQ20090221061012102/21/09 06:10:31  5-MIN KDBQ 211210Z 28013KT 3SM -SN BR FEW006 OVC020 M08/M10 A2978 1210 84 -1200 280/13 RMK AO2 P0000 $
94908KDBQ DBQ20090221061512802/21/09 06:15:31  5-MIN KDBQ 211215Z 29017KT 2SM -SN BR FEW014 BKN020 OVC043 M08/M10 A2978 1210 84 -1200 290/17 RMK AO2 P0000 $
94908KDBQ DBQ20090221062012102/21/09 06:20:31  5-MIN KDBQ 211220Z 28016KT 2SM -SN BR BKN020 OVC043 M08/M10 A2979 1200 84 -1200 280/16 RMK AO2 P0000 $
94908KDBQ DBQ20090221062513402/21/09 06:25:31  5-MIN KDBQ 211225Z 28019G25KT 2SM -SN BR BKN020 BKN030 OVC041 M08/M11 A2979 1200 84 -1300 280/19G25 RMK AO2 P0000 $
94908KDBQ DBQ20090221063013402/21/09 06:30:31  5-MIN KDBQ 211230Z 28019G25KT 2SM -SN BR BKN018 BKN030 OVC041 M08/M11 A2978 1200 84 -1300 280/19G25 RMK AO2 P0000 $
94908KDBQ DBQ20090221063512102/21/09 06:35:31  5-MIN KDBQ 211235Z 28018KT 2SM -SN BR BKN018 OVC039 M09/M11 A2978 1210 84 -1400 280/18 RMK AO2 P0000 $
94908KDBQ DBQ20090221064012702/21/09 06:40:31  5-MIN KDBQ 211240Z 28018G25KT 2SM -SN BR BKN018 OVC039 M09/M11 A2979 1200 84 -1400 280/18G25 RMK AO2 P0000 $
94908KDBQ DBQ20090221064514502/21/09 06:45:31  5-MIN KDBQ 211245Z 28018G27KT 2SM -SN BR BKN018 OVC039 M09/M11 A2978 1200 84 -1400 280/18G27 RMK AO2 PK WND 28027/1243 P0000 $
94908KDBQ DBQ20090221065016202/21/09 06:50:31  5-MIN KDBQ 211250Z 29018G27KT 2SM -SN BR BKN018 OVC037 M09/M11 A2978 1200 84 -1400 280/18G27 RMK AO2 PK WND 28027/1243 SLP103 P0000 T10891111 $
94908KDBQ DBQ20090221065512702/21/09 06:55:31  5-MIN KDBQ 211255Z 28018G26KT 2SM -SN BR BKN018 OVC037 M09/M11 A2979 1200 84 -1400 280/18G26 RMK AO2 P0000 $
94908KDBQ DBQ20090221070012702/21/09 07:00:31  5-MIN KDBQ 211300Z 28018G26KT 2SM -SN BR BKN018 OVC037 M09/M11 A2979 1200 84 -1400 280/18G26 RMK AO2 P0000 $
94908KDBQ DBQ20090221070512002/21/09 07:05:31  5-MIN KDBQ 211305Z 28019G24KT 2SM -SN BR OVC014 M09/M11 A2979 1200 84 -1400 280/19G24 RMK AO2 P0000 $
94908KDBQ DBQ20090221071012002/21/09 07:10:31  5-MIN KDBQ 211310Z 29015G23KT 2SM -SN BR OVC012 M09/M11 A2979 1200 84 -1400 290/15G23 RMK AO2 P0000 $
94908KDBQ DBQ20090221071511402/21/09 07:15:31  5-MIN KDBQ 211315Z 28016KT 2SM -SN BR OVC010 M09/M11 A2979 1200 84 -1400 280/16 RMK AO2 P0000 $
94908KDBQ DBQ20090221072012002/21/09 07:20:31  5-MIN KDBQ 211320Z 29017G23KT 2SM -SN BR OVC008 M09/M11 A2979 1200 84 -1400 290/17G23 RMK AO2 P0000 $
94908KDBQ DBQ20090221072512002/21/09 07:25:31  5-MIN KDBQ 211325Z 29016G23KT 2SM -SN BR OVC008 M09/M11 A2979 1200 84 -1400 290/16G23 RMK AO2 P0000 $
94908KDBQ DBQ20090221073011402/21/09 07:30:31  5-MIN KDBQ 211330Z 29016KT 2SM -SN BR OVC008 M09/M11 A2979 1200 84 -1400 290/16 RMK AO2 P0000 $
94908KDBQ DBQ20090221073511402/21/09 07:35:31  5-MIN KDBQ 211335Z 29015KT 2SM -SN BR OVC006 M09/M11 A2980 1190 84 -1400 290/15 RMK AO2 P0000 $
94908KDBQ DBQ20090221074011402/21/09 07:40:31  5-MIN KDBQ 211340Z 29019KT 2SM -SN BR OVC006 M09/M11 A2980 1190 84 -1400 290/19 RMK AO2 P0000 $
94908KDBQ DBQ20090221074511402/21/09 07:45:31  5-MIN KDBQ 211345Z 29016KT 2SM -SN BR OVC008 M09/M11 A2980 1190 84 -1400 290/16 RMK AO2 P0000 $
94908KDBQ DBQ20090221075013102/21/09 07:50:31  5-MIN KDBQ 211350Z 29016KT 2SM -SN BR OVC008 M09/M11 A2980 1190 84 -1400 290/16 RMK AO2 SLP108 P0000 T10891111 $
94908KDBQ DBQ20090221075511502/21/09 07:55:31  5-MIN KDBQ 211355Z 29017KT 3/4SM -SN BR VV011 M09/M11 A2980 1190 84 -1400 290/17 RMK AO2 P0000 $
94908KDBQ DBQ20090221080011502/21/09 08:00:31  5-MIN KDBQ 211400Z 29016KT 3/4SM -SN BR VV014 M09/M11 A2980 1190 84 -1400 290/16 RMK AO2 P0000 $
94908KDBQ DBQ20090221080511302/21/09 08:05:31  5-MIN KDBQ 211405Z 29016KT 1SM -SN BR VV017 M09/M11 A2980 1190 84 -1400 290/16 RMK AO2 P0000 $
94908KDBQ DBQ20090221081011802/21/09 08:10:31  5-MIN KDBQ 211410Z 29016KT 1 1/4SM -SN BR OVC020 M09/M11 A2981 1190 84 -1400 290/16 RMK AO2 P0000 $
94908KDBQ DBQ20090221081511402/21/09 08:15:31  5-MIN KDBQ 211415Z 29019KT 1SM -SN BR OVC020 M09/M11 A2981 1180 84 -1400 290/19 RMK AO2 P0000 $
94908KDBQ DBQ20090221082011802/21/09 08:20:31  5-MIN KDBQ 211420Z 29020G25KT 3/4SM -SN VV019 M09/M12 A2981 1180 80 -1400 290/20G25 RMK AO2 P0000 $
94908KDBQ DBQ20090221082511602/21/09 08:25:31  5-MIN KDBQ 211425Z 29018G25KT 1SM -SN VV017 M09/M12 A2981 1180 80 -1400 290/18G25 RMK AO2 P0000 $
94908KDBQ DBQ20090221083011602/21/09 08:30:31  5-MIN KDBQ 211430Z 29015G25KT 1SM -SN VV017 M09/M12 A2981 1180 80 -1400 290/15G25 RMK AO2 P0000 $
94908KDBQ DBQ20090221083511602/21/09 08:35:31  5-MIN KDBQ 211435Z 29014G24KT 1SM -SN VV018 M09/M12 A2981 1180 80 -1400 290/14G24 RMK AO2 P0000 $
94908KDBQ DBQ20090221084011602/21/09 08:40:31  5-MIN KDBQ 211440Z 29017G24KT 1SM -SN VV020 M09/M12 A2981 1180 80 -1400 290/17G24 RMK AO2 P0000 $
94908KDBQ DBQ20090221084511502/21/09 08:45:31  5-MIN KDBQ 211445Z 29017KT 1 1/4SM -SN OVC023 M09/M12 A2981 1180 80 -1400 290/17 RMK AO2 P0000 $
94908KDBQ DBQ20090221085015102/21/09 08:50:31  5-MIN KDBQ 211450Z 29015KT 1 3/4SM -SN BKN025 OVC045 M09/M12 A2981 1180 80 -1400 290/15 RMK AO2 SLP112 P0000 60000 T10891117 58009 $
94908KDBQ DBQ20090221085512902/21/09 08:55:31  5-MIN KDBQ 211455Z 29018KT 2 1/2SM -SN BKN027 BKN045 OVC055 M09/M12 A2981 1180 80 -1400 290/18 RMK AO2 P0000 $
94908KDBQ DBQ20090221090013802/21/09 09:00:31  5-MIN KDBQ 211500Z 29017G23KT 3SM HZ BKN032 BKN047 OVC055 M09/M12 A2981 1180 80 -1400 290/17G23 RMK AO2 SNE1456 P0000 $
94908KDBQ DBQ20090221090513802/21/09 09:05:31  5-MIN KDBQ 211505Z 30020G24KT 3SM HZ BKN036 BKN045 OVC055 M09/M12 A2981 1180 80 -1400 300/20G24 RMK AO2 SNE1456 P0000 $
94908KDBQ DBQ20090221091013802/21/09 09:10:31  5-MIN KDBQ 211510Z 29016G24KT 3SM HZ BKN036 BKN045 OVC055 M09/M12 A2981 1180 80 -1400 290/16G24 RMK AO2 SNE1456 P0000 $
94908KDBQ DBQ20090221091513802/21/09 09:15:31  5-MIN KDBQ 211515Z 30018G25KT 3SM HZ BKN038 BKN047 OVC055 M09/M12 A2982 1180 80 -1400 290/18G25 RMK AO2 SNE1456 P0001 $
94908KDBQ DBQ20090221092013802/21/09 09:20:31  5-MIN KDBQ 211520Z 30015G25KT 4SM HZ SCT035 BKN044 OVC055 M08/M12 A2982 1180 77 -1300 290/15G25 RMK AO2 SNE1456 P0001 $
94908KDBQ DBQ20090221092512502/21/09 09:25:31  5-MIN KDBQ 211525Z 29017KT 4SM HZ BKN033 OVC044 M08/M12 A2982 1170 77 -1300 290/17 RMK AO2 SNE1456 P0001 $
94908KDBQ DBQ20090221093013802/21/09 09:30:31  5-MIN KDBQ 211530Z 30016G20KT 4SM HZ BKN029 BKN037 OVC044 M09/M12 A2982 1180 80 -1400 300/16G20 RMK AO2 SNE1456 P0001 $
94908KDBQ DBQ20090221093513802/21/09 09:35:31  5-MIN KDBQ 211535Z 29016G20KT 4SM HZ BKN029 BKN037 OVC044 M09/M12 A2981 1180 80 -1400 290/16G20 RMK AO2 SNE1456 P0001 $
94908KDBQ DBQ20090221094012502/21/09 09:40:31  5-MIN KDBQ 211540Z 29017KT 4SM HZ BKN024 OVC034 M09/M12 A2981 1180 80 -1400 290/17 RMK AO2 SNE1456 P0001 $
94908KDBQ DBQ20090221094513202/21/09 09:45:31  5-MIN KDBQ 211545Z 29017KT 5SM HZ BKN024 BKN030 OVC090 M08/M12 A2982 1170 77 -1300 290/17 RMK AO2 SNE1456 P0001 $
94908KDBQ DBQ20090221095015502/21/09 09:50:31  5-MIN KDBQ 211550Z 29015G23KT 5SM HZ BKN024 BKN032 OVC085 M08/M12 A2982 1170 77 -1300 290/15G23 RMK AO2 SNE1456 SLP114 P0001 T10831117 $
94908KDBQ DBQ20090221095512402/21/09 09:55:31  5-MIN KDBQ 211555Z 30016G23KT 6SM HZ BKN024 BKN034 OVC085 M08/M11 A2982 1170 80 -1300 290/16G23 RMK AO2 $
94908KDBQ DBQ20090221100011502/21/09 10:00:31  5-MIN KDBQ 211600Z 29016KT 7SM BKN024 BKN036 OVC055 M08/M11 A2982 1180 80 -1300 290/16 RMK AO2 $
94908KDBQ DBQ20090221100511502/21/09 10:05:31  5-MIN KDBQ 211605Z 29018KT 7SM BKN024 BKN036 OVC055 M08/M11 A2982 1180 77 -1300 290/18 RMK AO2 $
94908KDBQ DBQ20090221101011502/21/09 10:10:31  5-MIN KDBQ 211610Z 29018KT 9SM BKN024 BKN036 OVC055 M08/M11 A2982 1170 77 -1300 290/18 RMK AO2 $
94908KDBQ DBQ20090221101511502/21/09 10:15:31  5-MIN KDBQ 211615Z 29016KT 8SM BKN024 BKN036 OVC055 M08/M11 A2982 1170 77 -1300 290/16 RMK AO2 $
94908KDBQ DBQ20090221102011802/21/09 10:20:31  5-MIN KDBQ 211620Z 30016KT 5SM HZ BKN024 BKN036 OVC055 M08/M11 A2982 1170 77 -1300 290/16 RMK AO2 $
94908KDBQ DBQ20090221102513102/21/09 10:25:31  5-MIN KDBQ 211625Z 30012KT 3SM -SN BKN024 BKN036 OVC055 M08/M11 A2982 1170 80 -1300 300/12 RMK AO2 SNB22 P0000 $
94908KDBQ DBQ20090221103013502/21/09 10:30:31  5-MIN KDBQ 211630Z 30014KT 1 3/4SM -SN BKN024 BKN036 OVC055 M08/M11 A2982 1170 80 -1300 290/14 RMK AO2 SNB22 P0000 $
94908KDBQ DBQ20090221103513502/21/09 10:35:31  5-MIN KDBQ 211635Z 30015KT 1 1/2SM -SN FEW014 BKN026 OVC033 M08/M11 A2982 1170 80 -1300 300/15 RMK AO2 SNB22 P0000 $
94908KDBQ DBQ20090221104012802/21/09 10:40:31  5-MIN KDBQ 211640Z 30014KT 1 1/2SM -SN BKN028 OVC037 M07/M10 A2982 1170 81 -1200 300/14 RMK AO2 SNB22 P0000 $
94908KDBQ DBQ20090221104512802/21/09 10:45:31  5-MIN KDBQ 211645Z 30015KT 1 3/4SM -SN BKN025 OVC032 M07/M10 A2983 1170 81 -1200 300/15 RMK AO2 SNB22 P0000 $
94908KDBQ DBQ20090221105014502/21/09 10:50:31  5-MIN KDBQ 211650Z 30015KT 1 1/2SM -SN BKN022 OVC032 M07/M10 A2983 1170 81 -1200 300/15 RMK AO2 SNB22 SLP117 P0000 T10721100 $
94908KDBQ DBQ20090221105512202/21/09 10:55:31  5-MIN KDBQ 211655Z 29013KT 1 1/2SM -SN BKN020 OVC030 M07/M09 A2983 1160 81 -1100 290/13 RMK AO2 P0000 $
94908KDBQ DBQ20090221110012202/21/09 11:00:31  5-MIN KDBQ 211700Z 29013KT 1 1/2SM -SN BKN020 OVC030 M07/M09 A2983 1160 81 -1100 290/13 RMK AO2 P0000 $
94908KDBQ DBQ20090221110512202/21/09 11:05:31  5-MIN KDBQ 211705Z 29013KT 1 3/4SM -SN BKN020 OVC030 M07/M09 A2983 1160 81 -1100 290/13 RMK AO2 P0000 $
94908KDBQ DBQ20090221111011802/21/09 11:10:31  5-MIN KDBQ 211710Z 30016KT 2SM -SN BKN020 OVC030 M07/M09 A2983 1160 81 -1100 300/16 RMK AO2 P0000 $
94908KDBQ DBQ20090221111511502/21/09 11:15:31  5-MIN KDBQ 211715Z 29016KT 2 1/2SM -SN OVC020 M06/M09 A2984 1160 77 -1100 290/16 RMK AO2 P0000 $
94908KDBQ DBQ20090221112011502/21/09 11:20:31  5-MIN KDBQ 211720Z 29016KT 2 1/2SM -SN OVC020 M06/M09 A2984 1150 77 -1100 290/16 RMK AO2 P0000 $
94908KDBQ DBQ20090221112511502/21/09 11:25:31  5-MIN KDBQ 211725Z 30016KT 2 1/2SM -SN OVC020 M06/M09 A2984 1150 81 -1100 290/16 RMK AO2 P0000 $
94908KDBQ DBQ20090221113011802/21/09 11:30:31  5-MIN KDBQ 211730Z 30015KT 3SM -SN FEW014 OVC018 M06/M09 A2984 1150 81 -1100 290/15 RMK AO2 P0000 $
94908KDBQ DBQ20090221113512002/21/09 11:35:31  5-MIN KDBQ 211735Z 30016KT 2 1/2SM HZ OVC018 M06/M09 A2984 1150 77 -1000 300/16 RMK AO2 SNE34 P0000 $
94908KDBQ DBQ20090221114012002/21/09 11:40:31  5-MIN KDBQ 211740Z 29014KT 2 1/2SM HZ OVC018 M06/M09 A2984 1150 77 -1000 290/14 RMK AO2 SNE34 P0000 $
94908KDBQ DBQ20090221114512702/21/09 11:45:31  5-MIN KDBQ 211745Z 30015KT 2 1/2SM HZ SCT014 OVC018 M06/M08 A2985 1150 81 -1000 300/15 RMK AO2 SNE34 P0000 $
94908KDBQ DBQ20090221115011602/21/09 11:50:31  5-MIN KDBQ 211750Z 30015KT 4SM HZ OVC016 M06/M08 A2985 1150 81 -1000 290/15 RMK AO2 SNE34 P0000 $
94908KDBQ DBQ20090221115510902/21/09 11:55:31  5-MIN KDBQ 211755Z 30012G20KT 5SM HZ OVC016 M05/M08 A2985 1150 81 -900 300/12G20 RMK AO2 $
94908KDBQ DBQ20090221120010902/21/09 12:00:31  5-MIN KDBQ 211800Z 30012KT 5SM HZ OVC016 M05/M08 A2984 1150 81 -900 300/12 RMK AO2 P0001 $
94908KDBQ DBQ20090221120510902/21/09 12:05:31  5-MIN KDBQ 211805Z 31012KT 4SM HZ OVC016 M04/M08 A2984 1150 78 -900 310/12 RMK AO2 P0001 $
94908KDBQ DBQ20090221121012202/21/09 12:10:31  5-MIN KDBQ 211810Z 31016G20KT 3SM -SN OVC016 M04/M08 A2985 1150 78 -900 310/16G20 RMK AO2 SNB08 P0001 $
94908KDBQ DBQ20090221121512202/21/09 12:15:31  5-MIN KDBQ 211815Z 31013G20KT 3SM -SN OVC016 M04/M08 A2985 1150 78 -900 300/13G20 RMK AO2 SNB08 P0001 $
94908KDBQ DBQ20090221122012502/21/09 12:20:31  5-MIN KDBQ 211820Z 32013KT 5SM HZ BKN016 OVC033 M04/M07 A2985 1140 78 -800 320/13 RMK AO2 SNB08E19 P0001 $
94908KDBQ DBQ20090221122512902/21/09 12:25:31  5-MIN KDBQ 211825Z 32014G19KT 4SM -SN BKN016 OVC033 M04/M07 A2985 1140 78 -800 310/14G19 RMK AO2 SNB08 P0001 $
94908KDBQ DBQ20090221123013002/21/09 12:30:31  5-MIN KDBQ 211830Z 32014KT 3SM -SN BKN016 BKN033 OVC044 M04/M07 A2985 1140 78 -800 320/14 RMK AO2 SNB08 P0001 $
94908KDBQ DBQ20090221123513002/21/09 12:35:31  5-MIN KDBQ 211835Z 32012KT 3SM -SN BKN016 BKN023 OVC033 M04/M07 A2985 1140 78 -800 320/12 RMK AO2 SNB08 P0001 $
94908KDBQ DBQ20090221124012702/21/09 12:40:31  5-MIN KDBQ 211840Z 32015KT 2 1/2SM -SN BKN016 OVC023 M04/M07 A2986 1140 81 -800 320/15 RMK AO2 SNB08 P0001 $
94908KDBQ DBQ20090221124512902/21/09 12:45:31  5-MIN KDBQ 211845Z 31014G23KT 3SM -SN BKN016 OVC023 M04/M07 A2986 1140 81 -800 310/14G23 RMK AO2 SNB08 P0001 $
94908KDBQ DBQ20090221125014602/21/09 12:50:31  5-MIN KDBQ 211850Z 33016G23KT 3SM -SN BKN016 OVC023 M03/M07 A2986 1130 78 -800 330/16G23 RMK AO2 SNB08 SLP127 P0001 T10331067 $
94908KDBQ DBQ20090221125512302/21/09 12:55:31  5-MIN KDBQ 211855Z 32016G24KT 8SM -SN BKN016 OVC023 M03/M07 A2986 1130 78 -800 320/16G24 RMK AO2 P0000 $
94908KDBQ DBQ20090221130013002/21/09 13:00:31  5-MIN KDBQ 211900Z 33015G24KT 7SM -SN BKN017 BKN023 OVC040 M03/M07 A2987 1130 74 -800 320/15G24 RMK AO2 P0000 $
94908KDBQ DBQ20090221130515302/21/09 13:05:31  5-MIN KDBQ 211905Z 33018G26KT 6SM HZ FEW015 BKN021 OVC037 M03/M07 A2987 1130 74 -800 330/18G26 RMK AO2 PK WND 33026/1902 SNE02 P0000 $
94908KDBQ DBQ20090221131014602/21/09 13:10:31  5-MIN KDBQ 211910Z 33016G26KT 4SM HZ SCT017 OVC024 M04/M07 A2987 1120 78 -800 330/16G26 RMK AO2 PK WND 33026/1902 SNE02 P0000 $
94908KDBQ DBQ20090221131514202/21/09 13:15:31  5-MIN KDBQ 211915Z 32015KT 3SM -SN SCT017 BKN023 OVC032 M03/M07 A2987 1120 78 -800 320/15 RMK AO2 PK WND 33026/1902 P0000 $
94908KDBQ DBQ20090221132014602/21/09 13:20:31  5-MIN KDBQ 211920Z 31015KT 2 1/2SM -SN BKN017 BKN023 OVC029 M03/M07 A2988 1120 78 -800 310/15 RMK AO2 PK WND 33026/1902 P0000 $
94908KDBQ DBQ20090221132514102/21/09 13:25:31  5-MIN KDBQ 211925Z 32013G21KT 3SM -SN BKN017 OVC023 M03/M07 A2988 1120 78 -800 320/13G21 RMK AO2 PK WND 33026/1902 P0000 $
94908KDBQ DBQ20090221133014102/21/09 13:30:31  5-MIN KDBQ 211930Z 32019G24KT 3SM -SN BKN017 OVC023 M03/M07 A2988 1120 74 -800 320/19G24 RMK AO2 PK WND 33026/1902 P0000 $
94908KDBQ DBQ20090221133514002/21/09 13:35:31  5-MIN KDBQ 211935Z 32018KT 3SM HZ BKN017 OVC023 M03/M07 A2988 1120 74 -800 310/18 RMK AO2 PK WND 33026/1902 SNE34 P0000 $
94908KDBQ DBQ20090221134014002/21/09 13:40:31  5-MIN KDBQ 211940Z 32017KT 3SM HZ BKN017 OVC023 M03/M07 A2988 1110 78 -800 320/17 RMK AO2 PK WND 33026/1902 SNE34 P0000 $
94908KDBQ DBQ20090221134514002/21/09 13:45:31  5-MIN KDBQ 211945Z 32016KT 3SM HZ BKN017 OVC022 M03/M07 A2989 1110 74 -800 320/16 RMK AO2 PK WND 33026/1902 SNE34 P0000 $
94908KDBQ DBQ20090221135015402/21/09 13:50:31  5-MIN KDBQ 211950Z 32016KT 9SM BKN019 OVC028 M03/M07 A2989 1110 74 -800 320/16 RMK AO2 PK WND 33026/1902 SNE34 SLP137 P0000 T10331072 $
94908KDBQ DBQ20090221135511402/21/09 13:55:31  5-MIN KDBQ 211955Z 33017G23KT 10SM BKN019 OVC028 M03/M07 A2989 1110 74 -800 320/17G23 RMK AO2 $
94908KDBQ DBQ20090221140011302/21/09 14:00:31  5-MIN KDBQ 212000Z 32016G23KT 9SM BKN019 OVC028 M03/M07 A2989 1100 74 -800 320/16G23 RMK AO2 $
94908KDBQ DBQ20090221140511302/21/09 14:05:31  5-MIN KDBQ 212005Z 32016G22KT 7SM BKN019 OVC028 M03/M08 A2990 1100 71 -800 320/16G22 RMK AO2 $
94908KDBQ DBQ20090221141011302/21/09 14:10:31  5-MIN KDBQ 212010Z 31016G22KT 7SM BKN021 OVC030 M03/M07 A2990 1100 74 -800 310/16G22 RMK AO2 $
94908KDBQ DBQ20090221141512302/21/09 14:15:31  5-MIN KDBQ 212015Z 32021G24KT 5SM HZ SCT021 BKN025 OVC030 M03/M07 A2991 1090 74 -800 320/21G24 RMK AO2 $
94908KDBQ DBQ20090221142013402/21/09 14:20:31  5-MIN KDBQ 212020Z 31019G26KT 5SM HZ BKN021 OVC030 M03/M08 A2991 1090 71 -800 310/19G26 RMK AO2 PK WND 32026/2020 $
94908KDBQ DBQ20090221142513102/21/09 14:25:31  5-MIN KDBQ 212025Z 32018G26KT 7SM BKN021 OVC030 M03/M08 A2991 1080 71 -800 320/18G26 RMK AO2 PK WND 32026/2020 $
94908KDBQ DBQ20090221143013102/21/09 14:30:31  5-MIN KDBQ 212030Z 32018G22KT 8SM BKN021 OVC029 M03/M08 A2992 1080 71 -800 320/18G22 RMK AO2 PK WND 32026/2020 $
94908KDBQ DBQ20090221143513102/21/09 14:35:31  5-MIN KDBQ 212035Z 31019G23KT 9SM BKN023 OVC029 M04/M08 A2992 1080 74 -900 310/19G23 RMK AO2 PK WND 32026/2020 $
94908KDBQ DBQ20090221144013102/21/09 14:40:31  5-MIN KDBQ 212040Z 31020G26KT 8SM BKN023 OVC029 M04/M08 A2992 1080 71 -900 310/20G26 RMK AO2 PK WND 31026/2037 $
94908KDBQ DBQ20090221144513102/21/09 14:45:31  5-MIN KDBQ 212045Z 32019G27KT 8SM BKN023 OVC029 M03/M08 A2993 1070 68 -800 320/19G27 RMK AO2 PK WND 31027/2042 $
94908KDBQ DBQ20090221145015302/21/09 14:50:31  5-MIN KDBQ 212050Z 32018G27KT 9SM OVC023 M04/M08 A2993 1070 71 -900 310/18G27 RMK AO2 PK WND 31027/2042 SLP151 60001 T10391083 53011 $
94908KDBQ DBQ20090221145510702/21/09 14:55:31  5-MIN KDBQ 212055Z 32018G26KT 10SM OVC023 M04/M08 A2994 1060 71 -900 320/18G26 RMK AO2 $
94908KDBQ DBQ20090221150012402/21/09 15:00:31  5-MIN KDBQ 212100Z 30021G26KT 8SM OVC025 M04/M08 A2994 1060 71 -900 300/21G26 RMK AO2 PK WND 30026/2059 $
94908KDBQ DBQ20090221150512402/21/09 15:05:31  5-MIN KDBQ 212105Z 31017G26KT 8SM BKN025 M04/M09 A2994 1060 68 -900 310/17G26 RMK AO2 PK WND 30026/2059 $
94908KDBQ DBQ20090221151012502/21/09 15:10:31  5-MIN KDBQ 212110Z 30019G24KT 10SM BKN025 M04/M08 A2995 1050 71 -900 300/19G24 RMK AO2 PK WND 30026/2059 $
94908KDBQ DBQ20090221151512502/21/09 15:15:31  5-MIN KDBQ 212115Z 31017G24KT 10SM BKN025 M04/M09 A2995 1050 68 -900 310/17G24 RMK AO2 PK WND 30026/2059 $
94908KDBQ DBQ20090221152011902/21/09 15:20:31  5-MIN KDBQ 212120Z 31017KT 10SM BKN025 M04/M09 A2995 1050 68 -900 310/17 RMK AO2 PK WND 30026/2059 $
94908KDBQ DBQ20090221152511902/21/09 15:25:31  5-MIN KDBQ 212125Z 31019KT 10SM BKN025 M04/M09 A2995 1050 68 -900 310/19 RMK AO2 PK WND 30026/2059 $
94908KDBQ DBQ20090221153012402/21/09 15:30:31  5-MIN KDBQ 212130Z 32021G26KT 9SM BKN025 M04/M09 A2996 1040 68 -900 320/21G26 RMK AO2 PK WND 32026/2129 $
94908KDBQ DBQ20090221153512402/21/09 15:35:31  5-MIN KDBQ 212135Z 31015G26KT 9SM BKN025 M04/M09 A2997 1040 65 -900 310/15G26 RMK AO2 PK WND 32026/2129 $
94908KDBQ DBQ20090221154012802/21/09 15:40:31  5-MIN KDBQ 212140Z 31026G30KT 6SM HZ BKN025 M04/M09 A2997 1040 68 -1000 300/26G30 RMK AO2 PK WND 30030/2140 $
94908KDBQ DBQ20090221154512802/21/09 15:45:31  5-MIN KDBQ 212145Z 31022G30KT 5SM HZ SCT025 M04/M09 A2997 1030 68 -1000 310/22G30 RMK AO2 PK WND 30030/2140 $
94908KDBQ DBQ20090221155014502/21/09 15:50:31  5-MIN KDBQ 212150Z 31021G30KT 6SM HZ BKN025 M04/M09 A2997 1030 68 -1000 310/21G30 RMK AO2 PK WND 30030/2149 SLP165 T10441094 $
94908KDBQ DBQ20090221155512502/21/09 15:55:31  5-MIN KDBQ 212155Z 31021G30KT 7SM FEW027 M04/M09 A2997 1030 68 -1000 310/21G30 RMK AO2 PK WND 30026/2155 $
94908KDBQ DBQ20090221160012502/21/09 16:00:31  5-MIN KDBQ 212200Z 31020G26KT 8SM FEW025 M04/M09 A2998 1020 68 -1000 310/20G26 RMK AO2 PK WND 30026/2155 $
94908KDBQ DBQ20090221160512502/21/09 16:05:31  5-MIN KDBQ 212205Z 31020G27KT 9SM SCT025 M05/M10 A2998 1020 68 -1100 310/20G27 RMK AO2 PK WND 32027/2203 $
94908KDBQ DBQ20090221161012602/21/09 16:10:31  5-MIN KDBQ 212210Z 32019G27KT 10SM FEW025 M05/M10 A2998 1020 68 -1100 310/19G27 RMK AO2 PK WND 32027/2203 $
94908KDBQ DBQ20090221161513302/21/09 16:15:31  5-MIN KDBQ 212215Z 31016G23KT 10SM FEW025 SCT055 M05/M10 A2999 1020 68 -1100 310/16G23 RMK AO2 PK WND 32027/2203 $
94908KDBQ DBQ20090221162013302/21/09 16:20:31  5-MIN KDBQ 212220Z 31017G24KT 10SM SCT027 SCT055 M05/M10 A2999 1010 68 -1100 310/17G24 RMK AO2 PK WND 32027/2203 $
94908KDBQ DBQ20090221162513302/21/09 16:25:31  5-MIN KDBQ 212225Z 31018G24KT 10SM SCT027 BKN033 M05/M09 A2999 1010 71 -1100 310/18G24 RMK AO2 PK WND 32027/2203 $
94908KDBQ DBQ20090221163013202/21/09 16:30:31  5-MIN KDBQ 212230Z 30018G23KT 8SM SCT023 BKN031 M05/M09 A3000 1010 71 -1100 300/18G23 RMK AO2 PK WND 32027/2203 $
94908KDBQ DBQ20090221163513202/21/09 16:35:31  5-MIN KDBQ 212235Z 30018G25KT 7SM SCT023 BKN031 M06/M09 A3000 1010 74 -1200 300/18G25 RMK AO2 PK WND 32027/2203 $
94908KDBQ DBQ20090221164014802/21/09 16:40:31  5-MIN KDBQ 212240Z 31018G25KT 5SM -SN SCT023 BKN031 M06/M09 A3000 1000 74 -1200 310/18G25 RMK AO2 PK WND 32027/2203 SNB36 P0000 $
94908KDBQ DBQ20090221164514802/21/09 16:45:31  5-MIN KDBQ 212245Z 31016G23KT 5SM -SN SCT023 BKN031 M06/M10 A3000 1000 71 -1200 310/16G23 RMK AO2 PK WND 32027/2203 SNB36 P0000 $
94908KDBQ DBQ20090221165014702/21/09 16:50:31  5-MIN KDBQ 212250Z 30019G23KT 7SM BKN022 OVC027 M06/M10 A3001 1000 71 -1200 300/19G23 RMK AO2 PK WND 32027/2203 SNB36E50 P0000 $
94908KDBQ DBQ20090221165511302/21/09 16:55:31  5-MIN KDBQ 212255Z 30019G23KT 7SM BKN022 OVC027 M06/M09 A3001 990 77 -1300 300/19G23 RMK AO2 $
94908KDBQ DBQ20090221170013102/21/09 17:00:31  5-MIN KDBQ 212300Z 30018G23KT 7SM -SN BKN022 OVC028 M06/M10 A3002 990 74 -1300 300/18G23 RMK AO2 SNB2257 P0000 $
94908KDBQ DBQ20090221170512502/21/09 17:05:31  5-MIN KDBQ 212305Z 31015KT 7SM -SN BKN022 OVC028 M06/M10 A3002 990 74 -1300 310/15 RMK AO2 SNB2257 P0000 $
94908KDBQ DBQ20090221171013002/21/09 17:10:31  5-MIN KDBQ 212310Z 31018G22KT 8SM FEW020 BKN025 M06/M11 A3002 990 71 -1300 310/18G22 RMK AO2 SNB2257E10 P0000 $
94908KDBQ DBQ20090221171512302/21/09 17:15:31  5-MIN KDBQ 212315Z 31017G23KT 9SM BKN025 M07/M11 A3002 990 74 -1400 310/17G23 RMK AO2 SNB2257E10 P0000 $
94908KDBQ DBQ20090221172012402/21/09 17:20:31  5-MIN KDBQ 212320Z 31016G23KT 10SM BKN025 M07/M11 A3002 980 71 -1400 310/16G23 RMK AO2 SNB2257E10 P0000 $
94908KDBQ DBQ20090221172512402/21/09 17:25:31  5-MIN KDBQ 212325Z 30015G22KT 10SM BKN027 M07/M11 A3003 980 71 -1400 300/15G22 RMK AO2 SNB2257E10 P0000 $
94908KDBQ DBQ20090221173011802/21/09 17:30:31  5-MIN KDBQ 212330Z 30016KT 10SM BKN025 M07/M11 A3003 970 71 -1400 300/16 RMK AO2 SNB2257E10 P0000 $
94908KDBQ DBQ20090221173512402/21/09 17:35:31  5-MIN KDBQ 212335Z 29015KT 9SM BKN023 BKN028 M07/M11 A3004 970 74 -1400 290/15 RMK AO2 SNB2257E10 P0000 $
94908KDBQ DBQ20090221174012402/21/09 17:40:31  5-MIN KDBQ 212340Z 29016KT 8SM SCT020 BKN026 M07/M11 A3004 970 77 -1500 290/16 RMK AO2 SNB2257E10 P0000 $
94908KDBQ DBQ20090221174513002/21/09 17:45:31  5-MIN KDBQ 212345Z 30014G20KT 8SM SCT020 BKN026 M07/M11 A3004 960 77 -1500 300/14G20 RMK AO2 SNB2257E10 P0000 $
94908KDBQ DBQ20090221175017102/21/09 17:50:31  5-MIN KDBQ 212350Z 30014G20KT 9SM SCT020 BKN026 M07/M11 A3005 960 77 -1500 300/14G20 RMK AO2 SNB2257E10 SLP194 P0000 60001 T10721106 11033 21072 53029 $
94908KDBQ DBQ20090221175510802/21/09 17:55:31  5-MIN KDBQ 212355Z 30013KT 10SM SCT020 BKN026 M07/M11 A3005 960 77 -1500 300/13 RMK AO2 $
94908KDBQ DBQ20090221180011402/21/09 18:00:31  5-MIN KDBQ 220000Z 30016G21KT 10SM SCT020 BKN026 M07/M11 A3005 960 77 -1500 300/16G21 RMK AO2 $
94908KDBQ DBQ20090221180510802/21/09 18:05:31  5-MIN KDBQ 220005Z 30015KT 10SM SCT020 BKN026 M07/M11 A3005 950 74 -1500 300/15 RMK AO2 $
94908KDBQ DBQ20090221181010802/21/09 18:10:31  5-MIN KDBQ 220010Z 30014KT 10SM SCT020 BKN026 M08/M11 A3006 950 77 -1600 300/14 RMK AO2 $
94908KDBQ DBQ20090221181510802/21/09 18:15:31  5-MIN KDBQ 220015Z 30015KT 10SM SCT020 BKN026 M08/M11 A3006 950 77 -1600 300/15 RMK AO2 $
94908KDBQ DBQ20090221182010802/21/09 18:20:31  5-MIN KDBQ 220020Z 30013KT 10SM SCT020 BKN026 M08/M11 A3006 950 77 -1600 300/13 RMK AO2 $
94908KDBQ DBQ20090221182510802/21/09 18:25:31  5-MIN KDBQ 220025Z 30012KT 10SM SCT020 BKN026 M08/M11 A3006 950 77 -1600 300/12 RMK AO2 $
94908KDBQ DBQ20090221183010802/21/09 18:30:31  5-MIN KDBQ 220030Z 30013KT 10SM SCT020 BKN026 M08/M11 A3007 940 77 -1600 300/13 RMK AO2 $
94908KDBQ DBQ20090221183510802/21/09 18:35:31  5-MIN KDBQ 220035Z 30013KT 10SM SCT020 BKN026 M08/M11 A3007 940 77 -1600 300/13 RMK AO2 $
94908KDBQ DBQ20090221184010102/21/09 18:40:31  5-MIN KDBQ 220040Z 30014KT 10SM FEW027 M08/M12 A3007 940 74 -1600 300/14 RMK AO2 $
94908KDBQ DBQ20090221184510802/21/09 18:45:31  5-MIN KDBQ 220045Z 30014KT 10SM SCT027 SCT110 M08/M12 A3007 940 77 -1600 300/14 RMK AO2 $
94908KDBQ DBQ20090221185012502/21/09 18:50:31  5-MIN KDBQ 220050Z 30015KT 10SM FEW027 SCT040 M08/M12 A3007 940 77 -1600 300/15 RMK AO2 SLP203 T10831117 $
94908KDBQ DBQ20090221185511402/21/09 18:55:31  5-MIN KDBQ 220055Z 30012G20KT 10SM FEW027 BKN038 M08/M12 A3008 940 77 -1600 300/12G20 RMK AO2 $
94908KDBQ DBQ20090221190011402/21/09 19:00:31  5-MIN KDBQ 220100Z 30014G20KT 10SM FEW027 BKN038 M08/M12 A3008 930 77 -1600 300/14G20 RMK AO2 $
94908KDBQ DBQ20090221190510802/21/09 19:05:31  5-MIN KDBQ 220105Z 30015KT 10SM FEW027 SCT038 M08/M12 A3008 930 77 -1600 300/15 RMK AO2 $
94908KDBQ DBQ20090221191010802/21/09 19:10:31  5-MIN KDBQ 220110Z 30015KT 10SM FEW027 SCT038 M08/M12 A3008 930 74 -1600 300/15 RMK AO2 $
94908KDBQ DBQ20090221191510102/21/09 19:15:31  5-MIN KDBQ 220115Z 30013KT 10SM FEW038 M08/M12 A3008 930 74 -1700 300/13 RMK AO2 $
94908KDBQ DBQ20090221192010102/21/09 19:20:31  5-MIN KDBQ 220120Z 30013KT 10SM FEW036 M08/M12 A3008 930 74 -1700 300/13 RMK AO2 $
94908KDBQ DBQ20090221192510402/21/09 19:25:31  5-MIN KDBQ 220125Z 30015G20KT 10SM CLR M09/M13 A3009 920 74 -1700 300/15G20 RMK AO2 $
94908KDBQ DBQ20090221193011102/21/09 19:30:31  5-MIN KDBQ 220130Z 30017G21KT 10SM FEW024 M08/M13 A3009 920 70 -1700 290/17G21 RMK AO2 PNO $
94908KDBQ DBQ20090221193510702/21/09 19:35:31  5-MIN KDBQ 220135Z 30015G21KT 10SM FEW024 M09/M13 A3009 920 74 -1700 300/15G21 RMK AO2 $
94908KDBQ DBQ20090221194010702/21/09 19:40:31  5-MIN KDBQ 220140Z 30015G21KT 10SM FEW024 M09/M13 A3009 920 74 -1700 300/15G21 RMK AO2 $
94908KDBQ DBQ20090221194510702/21/09 19:45:31  5-MIN KDBQ 220145Z 30015G21KT 10SM FEW024 M09/M13 A3010 910 74 -1700 300/15G21 RMK AO2 $
94908KDBQ DBQ20090221195012902/21/09 19:50:31  5-MIN KDBQ 220150Z AUTO 30018G24KT 10SM FEW024 M09/M13 A3010 910 74 -1700 300/18G24 RMK AO2 SLP213 T10891128 $
94908KDBQ DBQ20090221195511202/21/09 19:55:31  5-MIN KDBQ 220155Z AUTO 30017G24KT 10SM FEW024 M09/M13 A3010 910 74 -1700 300/17G24 RMK AO2 $
94908KDBQ DBQ20090221200010302/21/09 20:00:31  5-MIN KDBQ 220200Z AUTO 30016KT 10SM CLR M09/M13 A3010 910 74 -1700 300/16 RMK AO2 $
94908KDBQ DBQ20090221200510302/21/09 20:05:31  5-MIN KDBQ 220205Z AUTO 31016KT 10SM CLR M09/M13 A3010 910 74 -1700 310/16 RMK AO2 $
94908KDBQ DBQ20090221201010302/21/09 20:10:31  5-MIN KDBQ 220210Z AUTO 30014KT 10SM CLR M09/M13 A3011 910 70 -1800 300/14 RMK AO2 $
94908KDBQ DBQ20090221201510302/21/09 20:15:31  5-MIN KDBQ 220215Z AUTO 31017KT 10SM CLR M09/M13 A3011 910 70 -1800 300/17 RMK AO2 $
94908KDBQ DBQ20090221202010302/21/09 20:20:31  5-MIN KDBQ 220220Z AUTO 30014KT 10SM CLR M09/M13 A3011 910 73 -1800 300/14 RMK AO2 $
94908KDBQ DBQ20090221202510302/21/09 20:25:31  5-MIN KDBQ 220225Z AUTO 30015KT 10SM CLR M09/M13 A3011 910 73 -1800 300/15 RMK AO2 $
94908KDBQ DBQ20090221203010302/21/09 20:30:31  5-MIN KDBQ 220230Z AUTO 30015KT 10SM CLR M09/M13 A3011 900 73 -1800 300/15 RMK AO2 $
94908KDBQ DBQ20090221203510302/21/09 20:35:31  5-MIN KDBQ 220235Z AUTO 30014KT 10SM CLR M09/M13 A3011 900 73 -1800 300/14 RMK AO2 $
94908KDBQ DBQ20090221204010302/21/09 20:40:31  5-MIN KDBQ 220240Z AUTO 30013KT 10SM CLR M09/M13 A3011 900 73 -1800 300/13 RMK AO2 $
94908KDBQ DBQ20090221204510302/21/09 20:45:31  5-MIN KDBQ 220245Z AUTO 30013KT 10SM CLR M10/M13 A3012 900 77 -1900 300/13 RMK AO2 $
94908KDBQ DBQ20090221205012602/21/09 20:50:31  5-MIN KDBQ 220250Z AUTO 30012KT 10SM CLR M10/M13 A3012 900 77 -1900 290/12 RMK AO2 SLP220 T11001133 53038 $
94908KDBQ DBQ20090221205510602/21/09 20:55:31  5-MIN KDBQ 220255Z AUTO 30013KT 10SM FEW011 M10/M13 A3012 900 77 -1900 290/13 RMK AO2 $
94908KDBQ DBQ20090221210010602/21/09 21:00:31  5-MIN KDBQ 220300Z AUTO 30015KT 10SM SCT011 M10/M13 A3012 890 77 -1900 300/15 RMK AO2 $
94908KDBQ DBQ20090221210510602/21/09 21:05:31  5-MIN KDBQ 220305Z AUTO 30014KT 10SM BKN011 M10/M13 A3012 890 77 -1900 300/14 RMK AO2 $
94908KDBQ DBQ20090221211010602/21/09 21:10:31  5-MIN KDBQ 220310Z AUTO 30012KT 10SM BKN011 M10/M13 A3012 890 77 -1900 300/12 RMK AO2 $
94908KDBQ DBQ20090221211510602/21/09 21:15:31  5-MIN KDBQ 220315Z AUTO 30014KT 10SM BKN011 M11/M13 A3012 890 80 -2000 300/14 RMK AO2 $
94908KDBQ DBQ20090221212010602/21/09 21:20:31  5-MIN KDBQ 220320Z AUTO 30015KT 10SM BKN011 M11/M13 A3013 890 80 -2000 300/15 RMK AO2 $
94908KDBQ DBQ20090221212510602/21/09 21:25:31  5-MIN KDBQ 220325Z AUTO 31015KT 10SM OVC011 M11/M13 A3013 890 80 -2000 310/15 RMK AO2 $
94908KDBQ DBQ20090221213010602/21/09 21:30:31  5-MIN KDBQ 220330Z AUTO 31015KT 10SM BKN011 M10/M13 A3013 890 77 -1900 310/15 RMK AO2 $
94908KDBQ DBQ20090221213510602/21/09 21:35:31  5-MIN KDBQ 220335Z AUTO 31015KT 10SM BKN011 M10/M13 A3013 890 77 -1900 310/15 RMK AO2 $
94908KDBQ DBQ20090221214010602/21/09 21:40:31  5-MIN KDBQ 220340Z AUTO 31015KT 10SM BKN011 M11/M13 A3013 880 80 -2000 310/15 RMK AO2 $
94908KDBQ DBQ20090221214510602/21/09 21:45:31  5-MIN KDBQ 220345Z AUTO 30016KT 10SM BKN011 M11/M14 A3013 880 77 -2000 300/16 RMK AO2 $
94908KDBQ DBQ20090221215012302/21/09 21:50:31  5-MIN KDBQ 220350Z AUTO 31016KT 10SM BKN011 M11/M14 A3013 880 77 -2000 310/16 RMK AO2 SLP225 T11061139 $
94908KDBQ DBQ20090221215510602/21/09 21:55:31  5-MIN KDBQ 220355Z AUTO 31014KT 10SM BKN011 M11/M14 A3013 880 77 -2000 310/14 RMK AO2 $
94908KDBQ DBQ20090221220010602/21/09 22:00:31  5-MIN KDBQ 220400Z AUTO 31014KT 10SM BKN011 M11/M14 A3014 880 77 -2000 310/14 RMK AO2 $
94908KDBQ DBQ20090221220510602/21/09 22:05:31  5-MIN KDBQ 220405Z AUTO 31013KT 10SM SCT011 M11/M14 A3014 880 77 -2000 310/13 RMK AO2 $
94908KDBQ DBQ20090221221011202/21/09 22:10:31  5-MIN KDBQ 220410Z AUTO 31016G23KT 10SM SCT011 M11/M14 A3014 880 77 -2000 310/16G23 RMK AO2 $
94908KDBQ DBQ20090221221511202/21/09 22:15:31  5-MIN KDBQ 220415Z AUTO 32012G23KT 10SM FEW011 M11/M14 A3014 880 77 -2000 320/12G23 RMK AO2 $
94908KDBQ DBQ20090221222010602/21/09 22:20:31  5-MIN KDBQ 220420Z AUTO 32012KT 10SM FEW011 M11/M14 A3014 880 77 -2100 320/12 RMK AO2 $
94908KDBQ DBQ20090221222510302/21/09 22:25:31  5-MIN KDBQ 220425Z AUTO 32011KT 10SM CLR M11/M14 A3014 870 77 -2100 320/11 RMK AO2 $
94908KDBQ DBQ20090221223010302/21/09 22:30:31  5-MIN KDBQ 220430Z AUTO 33009KT 10SM CLR M11/M14 A3014 870 77 -2100 330/09 RMK AO2 $
94908KDBQ DBQ20090221223510302/21/09 22:35:31  5-MIN KDBQ 220435Z AUTO 32009KT 10SM CLR M11/M14 A3014 870 77 -2100 320/09 RMK AO2 $
94908KDBQ DBQ20090221224010302/21/09 22:40:31  5-MIN KDBQ 220440Z AUTO 33010KT 10SM CLR M11/M14 A3014 870 77 -2100 330/10 RMK AO2 $
94908KDBQ DBQ20090221224510302/21/09 22:45:31  5-MIN KDBQ 220445Z AUTO 32011KT 10SM CLR M11/M14 A3015 870 77 -2100 320/11 RMK AO2 $
94908KDBQ DBQ20090221225012002/21/09 22:50:31  5-MIN KDBQ 220450Z AUTO 32011KT 10SM CLR M11/M14 A3015 870 77 -2100 320/11 RMK AO2 SLP229 T11111144 $
94908KDBQ DBQ20090221225510302/21/09 22:55:31  5-MIN KDBQ 220455Z AUTO 32012KT 10SM CLR M11/M14 A3015 870 77 -2100 320/12 RMK AO2 $
94908KDBQ DBQ20090221230010302/21/09 23:00:31  5-MIN KDBQ 220500Z AUTO 32013KT 10SM CLR M11/M14 A3015 870 77 -2100 320/13 RMK AO2 $
94908KDBQ DBQ20090221230510302/21/09 23:05:31  5-MIN KDBQ 220505Z AUTO 32013KT 10SM CLR M11/M15 A3015 870 73 -2100 320/13 RMK AO2 $
94908KDBQ DBQ20090221231010302/21/09 23:10:31  5-MIN KDBQ 220510Z AUTO 32013KT 10SM CLR M11/M15 A3015 870 73 -2100 320/13 RMK AO2 $
94908KDBQ DBQ20090221231510302/21/09 23:15:31  5-MIN KDBQ 220515Z AUTO 32012KT 10SM CLR M11/M15 A3015 870 73 -2100 320/12 RMK AO2 $
94908KDBQ DBQ20090221232010302/21/09 23:20:31  5-MIN KDBQ 220520Z AUTO 32013KT 10SM CLR M12/M15 A3015 870 76 -2200 320/13 RMK AO2 $
94908KDBQ DBQ20090221232510302/21/09 23:25:31  5-MIN KDBQ 220525Z AUTO 32012KT 10SM CLR M12/M15 A3015 870 76 -2200 320/12 RMK AO2 $
94908KDBQ DBQ20090221233010902/21/09 23:30:31  5-MIN KDBQ 220530Z AUTO 32013G20KT 10SM CLR M11/M15 A3015 860 73 -2100 320/13G20 RMK AO2 $
94908KDBQ DBQ20090221233510302/21/09 23:35:31  5-MIN KDBQ 220535Z AUTO 32013KT 10SM CLR M11/M15 A3015 860 73 -2100 320/13 RMK AO2 $
94908KDBQ DBQ20090221234010302/21/09 23:40:31  5-MIN KDBQ 220540Z AUTO 32013KT 10SM CLR M12/M15 A3016 860 76 -2200 320/13 RMK AO2 $
94908KDBQ DBQ20090221234510302/21/09 23:45:31  5-MIN KDBQ 220545Z AUTO 32012KT 10SM CLR M12/M15 A3016 860 76 -2200 320/12 RMK AO2 $
94908KDBQ DBQ20090221235014802/21/09 23:50:31  5-MIN KDBQ 220550Z AUTO 31012KT 10SM CLR M12/M15 A3016 860 76 -2200 310/12 RMK AO2 SLP233 T11171150 11072 21117 410331117 51022 $
94908KDBQ DBQ20090221235510302/21/09 23:55:31  5-MIN KDBQ 220555Z AUTO 31012KT 10SM CLR M12/M15 A3016 860 76 -2200 310/12 RMK AO2 $
94908KDBQ DBQ20090222000010302/22/09 00:00:38  5-MIN KDBQ 220600Z AUTO 31014KT 10SM CLR M12/M15 A3016 850 76 -2200 310/14 RMK AO2 $
94908KDBQ DBQ20090222000510302/22/09 00:05:31  5-MIN KDBQ 220605Z AUTO 31012KT 10SM CLR M12/M15 A3017 850 76 -2200 310/12 RMK AO2 $
94908KDBQ DBQ20090222001010302/22/09 00:10:31  5-MIN KDBQ 220610Z AUTO 31013KT 10SM CLR M12/M16 A3017 850 73 -2200 310/13 RMK AO2 $
94908KDBQ DBQ20090222001510302/22/09 00:15:33  5-MIN KDBQ 220615Z AUTO 31013KT 10SM CLR M12/M16 A3017 850 76 -2300 310/13 RMK AO2 $
94908KDBQ DBQ20090222002010302/22/09 00:20:31  5-MIN KDBQ 220620Z AUTO 31014KT 10SM CLR M12/M16 A3017 850 76 -2300 310/14 RMK AO2 $
94908KDBQ DBQ20090222002510302/22/09 00:25:31  5-MIN KDBQ 220625Z AUTO 30016KT 10SM CLR M12/M16 A3017 850 76 -2300 300/16 RMK AO2 $
94908KDBQ DBQ20090222003010702/22/09 00:30:31  5-MIN KDBQ 220630Z AUTO 31014KT 10SM CLR M12/M16 A3018 840 76 -2300 310/14 RMK AO2 PNO $
94908KDBQ DBQ20090222003510302/22/09 00:35:31  5-MIN KDBQ 220635Z AUTO 30014KT 10SM CLR M12/M16 A3018 840 76 -2300 300/14 RMK AO2 $
94908KDBQ DBQ20090222004010302/22/09 00:40:31  5-MIN KDBQ 220640Z AUTO 31014KT 10SM CLR M12/M16 A3018 840 76 -2300 310/14 RMK AO2 $
94908KDBQ DBQ20090222004510302/22/09 00:45:31  5-MIN KDBQ 220645Z AUTO 31014KT 10SM CLR M12/M16 A3018 840 76 -2300 310/14 RMK AO2 $
94908KDBQ DBQ20090222005012002/22/09 00:50:31  5-MIN KDBQ 220650Z AUTO 31011KT 10SM CLR M12/M16 A3018 840 76 -2300 310/11 RMK AO2 SLP241 T11221156 $
94908KDBQ DBQ20090222005510302/22/09 00:55:31  5-MIN KDBQ 220655Z AUTO 31013KT 10SM CLR M12/M16 A3019 830 76 -2300 310/13 RMK AO2 $
94908KDBQ DBQ20090222010010902/22/09 01:00:31  5-MIN KDBQ 220700Z AUTO 31014G20KT 10SM CLR M12/M16 A3019 830 76 -2300 310/14G20 RMK AO2 $
94908KDBQ DBQ20090222010510902/22/09 01:05:31  5-MIN KDBQ 220705Z AUTO 31012G20KT 10SM CLR M12/M16 A3019 830 76 -2300 310/12G20 RMK AO2 $
94908KDBQ DBQ20090222011010302/22/09 01:10:31  5-MIN KDBQ 220710Z AUTO 31012KT 10SM CLR M12/M16 A3019 830 76 -2300 310/12 RMK AO2 $
94908KDBQ DBQ20090222011510302/22/09 01:15:31  5-MIN KDBQ 220715Z AUTO 31012KT 10SM CLR M12/M16 A3019 830 76 -2300 310/12 RMK AO2 $
94908KDBQ DBQ20090222012010302/22/09 01:20:31  5-MIN KDBQ 220720Z AUTO 31010KT 10SM CLR M12/M16 A3019 830 76 -2300 310/10 RMK AO2 $
94908KDBQ DBQ20090222012510302/22/09 01:25:31  5-MIN KDBQ 220725Z AUTO 32011KT 10SM CLR M12/M16 A3019 830 76 -2300 310/11 RMK AO2 $
94908KDBQ DBQ20090222013010302/22/09 01:30:31  5-MIN KDBQ 220730Z AUTO 32013KT 10SM CLR M12/M16 A3020 830 76 -2300 310/13 RMK AO2 $
94908KDBQ DBQ20090222013510302/22/09 01:35:31  5-MIN KDBQ 220735Z AUTO 31013KT 10SM CLR M13/M16 A3020 820 80 -2400 310/13 RMK AO2 $
94908KDBQ DBQ20090222014010302/22/09 01:40:31  5-MIN KDBQ 220740Z AUTO 31012KT 10SM CLR M12/M16 A3020 820 76 -2300 310/12 RMK AO2 $
94908KDBQ DBQ20090222014510902/22/09 01:45:31  5-MIN KDBQ 220745Z AUTO 31013G18KT 10SM CLR M12/M16 A3020 820 76 -2300 310/13G18 RMK AO2 $
94908KDBQ DBQ20090222015012002/22/09 01:50:31  5-MIN KDBQ 220750Z AUTO 31011KT 10SM CLR M13/M16 A3020 820 80 -2400 310/11 RMK AO2 SLP247 T11281156 $
94908KDBQ DBQ20090222015510302/22/09 01:55:31  5-MIN KDBQ 220755Z AUTO 31011KT 10SM CLR M13/M16 A3020 820 76 -2400 310/11 RMK AO2 $
94908KDBQ DBQ20090222020010302/22/09 02:00:31  5-MIN KDBQ 220800Z AUTO 32012KT 10SM CLR M13/M16 A3020 820 76 -2400 320/12 RMK AO2 $
94908KDBQ DBQ20090222020510302/22/09 02:05:31  5-MIN KDBQ 220805Z AUTO 31011KT 10SM CLR M13/M16 A3020 820 76 -2400 310/11 RMK AO2 $
94908KDBQ DBQ20090222021010902/22/09 02:10:31  5-MIN KDBQ 220810Z AUTO 31012G20KT 10SM CLR M13/M16 A3020 820 76 -2400 310/12G20 RMK AO2 $
94908KDBQ DBQ20090222021510902/22/09 02:15:31  5-MIN KDBQ 220815Z AUTO 31011G20KT 10SM CLR M13/M16 A3020 820 76 -2400 310/11G20 RMK AO2 $
94908KDBQ DBQ20090222022010302/22/09 02:20:31  5-MIN KDBQ 220820Z AUTO 33009KT 10SM CLR M13/M16 A3020 820 76 -2400 320/09 RMK AO2 $
94908KDBQ DBQ20090222022510302/22/09 02:25:31  5-MIN KDBQ 220825Z AUTO 33008KT 10SM CLR M13/M16 A3020 820 76 -2400 330/08 RMK AO2 $
94908KDBQ DBQ20090222023010302/22/09 02:30:31  5-MIN KDBQ 220830Z AUTO 33010KT 10SM CLR M13/M16 A3020 820 80 -2400 330/10 RMK AO2 $
94908KDBQ DBQ20090222023510902/22/09 02:35:31  5-MIN KDBQ 220835Z AUTO 33010KT 10SM CLR M13/M16 A3020 820 76 -2400 330/10 RMK AO2 P0001 $
94908KDBQ DBQ20090222024010902/22/09 02:40:31  5-MIN KDBQ 220840Z AUTO 33009KT 10SM CLR M13/M16 A3020 820 80 -2500 330/09 RMK AO2 P0001 $
94908KDBQ DBQ20090222024510902/22/09 02:45:31  5-MIN KDBQ 220845Z AUTO 33011KT 10SM CLR M13/M16 A3020 820 76 -2400 330/11 RMK AO2 P0001 $
94908KDBQ DBQ20090222025013802/22/09 02:50:31  5-MIN KDBQ 220850Z AUTO 31008KT 10SM CLR M13/M16 A3021 810 76 -2400 310/08 RMK AO2 SLP249 P0001 60001 T11281161 51014 $
94908KDBQ DBQ20090222025510302/22/09 02:55:31  5-MIN KDBQ 220855Z AUTO 31007KT 10SM CLR M13/M16 A3021 810 80 -2500 310/07 RMK AO2 $
94908KDBQ DBQ20090222030010302/22/09 03:00:31  5-MIN KDBQ 220900Z AUTO 32007KT 10SM CLR M13/M16 A3021 810 80 -2500 310/07 RMK AO2 $
94908KDBQ DBQ20090222030510302/22/09 03:05:31  5-MIN KDBQ 220905Z AUTO 31007KT 10SM CLR M13/M16 A3021 810 80 -2500 310/07 RMK AO2 $
94908KDBQ DBQ20090222031010302/22/09 03:10:31  5-MIN KDBQ 220910Z AUTO 31008KT 10SM CLR M13/M17 A3021 810 76 -2500 310/08 RMK AO2 $
94908KDBQ DBQ20090222031510302/22/09 03:15:31  5-MIN KDBQ 220915Z AUTO 31008KT 10SM CLR M13/M17 A3021 810 76 -2500 310/08 RMK AO2 $
94908KDBQ DBQ20090222032010302/22/09 03:20:31  5-MIN KDBQ 220920Z AUTO 31009KT 10SM CLR M13/M17 A3022 810 76 -2500 310/09 RMK AO2 $
94908KDBQ DBQ20090222032510302/22/09 03:25:31  5-MIN KDBQ 220925Z AUTO 31009KT 10SM CLR M13/M17 A3022 810 76 -2500 310/09 RMK AO2 $
94908KDBQ DBQ20090222033010302/22/09 03:30:31  5-MIN KDBQ 220930Z AUTO 31009KT 10SM CLR M13/M17 A3022 800 76 -2500 310/09 RMK AO2 $
94908KDBQ DBQ20090222033510302/22/09 03:35:31  5-MIN KDBQ 220935Z AUTO 32010KT 10SM CLR M13/M17 A3022 800 76 -2500 320/10 RMK AO2 $
94908KDBQ DBQ20090222034010302/22/09 03:40:31  5-MIN KDBQ 220940Z AUTO 31010KT 10SM CLR M13/M17 A3022 800 76 -2500 310/10 RMK AO2 $
94908KDBQ DBQ20090222034510302/22/09 03:45:31  5-MIN KDBQ 220945Z AUTO 31009KT 10SM CLR M13/M17 A3022 800 76 -2500 310/09 RMK AO2 $
94908KDBQ DBQ20090222035012002/22/09 03:50:31  5-MIN KDBQ 220950Z AUTO 31008KT 10SM CLR M13/M17 A3023 800 76 -2500 310/08 RMK AO2 SLP257 T11331167 $
94908KDBQ DBQ20090222035510302/22/09 03:55:31  5-MIN KDBQ 220955Z AUTO 32009KT 10SM CLR M13/M17 A3023 800 76 -2500 310/09 RMK AO2 $
94908KDBQ DBQ20090222040010302/22/09 04:00:31  5-MIN KDBQ 221000Z AUTO 31009KT 10SM CLR M13/M17 A3023 790 76 -2500 310/09 RMK AO2 $
94908KDBQ DBQ20090222040510302/22/09 04:05:31  5-MIN KDBQ 221005Z AUTO 31009KT 10SM CLR M13/M17 A3023 790 76 -2500 310/09 RMK AO2 $
94908KDBQ DBQ20090222041010302/22/09 04:10:31  5-MIN KDBQ 221010Z AUTO 31011KT 10SM CLR M13/M17 A3023 790 76 -2500 310/11 RMK AO2 $
94908KDBQ DBQ20090222041510302/22/09 04:15:31  5-MIN KDBQ 221015Z AUTO 31010KT 10SM CLR M13/M17 A3023 790 76 -2500 310/10 RMK AO2 $
94908KDBQ DBQ20090222042010302/22/09 04:20:31  5-MIN KDBQ 221020Z AUTO 31010KT 10SM CLR M13/M17 A3023 790 76 -2500 310/10 RMK AO2 $
94908KDBQ DBQ20090222042510302/22/09 04:25:31  5-MIN KDBQ 221025Z AUTO 31010KT 10SM CLR M13/M17 A3023 790 76 -2500 310/10 RMK AO2 $
94908KDBQ DBQ20090222043010302/22/09 04:30:31  5-MIN KDBQ 221030Z AUTO 32012KT 10SM CLR M13/M17 A3023 790 76 -2500 310/12 RMK AO2 $
94908KDBQ DBQ20090222043510302/22/09 04:35:31  5-MIN KDBQ 221035Z AUTO 32012KT 10SM CLR M13/M17 A3024 790 76 -2500 310/12 RMK AO2 $
94908KDBQ DBQ20090222044010302/22/09 04:40:31  5-MIN KDBQ 221040Z AUTO 32011KT 10SM CLR M13/M17 A3024 790 76 -2500 320/11 RMK AO2 $
94908KDBQ DBQ20090222044510302/22/09 04:45:31  5-MIN KDBQ 221045Z AUTO 32011KT 10SM CLR M13/M17 A3024 790 76 -2500 320/11 RMK AO2 $
94908KDBQ DBQ20090222045012002/22/09 04:50:31  5-MIN KDBQ 221050Z AUTO 32011KT 10SM CLR M13/M17 A3024 790 76 -2500 320/11 RMK AO2 SLP261 T11331167 $
94908KDBQ DBQ20090222045510302/22/09 04:55:31  5-MIN KDBQ 221055Z AUTO 32011KT 10SM CLR M13/M17 A3024 780 76 -2500 320/11 RMK AO2 $
94908KDBQ DBQ20090222050010302/22/09 05:00:31  5-MIN KDBQ 221100Z AUTO 32011KT 10SM CLR M13/M17 A3024 780 76 -2500 320/11 RMK AO2 $
94908KDBQ DBQ20090222050510302/22/09 05:05:31  5-MIN KDBQ 221105Z AUTO 32010KT 10SM CLR M13/M17 A3025 780 76 -2500 320/10 RMK AO2 $
94908KDBQ DBQ20090222051010302/22/09 05:10:31  5-MIN KDBQ 221110Z AUTO 31010KT 10SM CLR M14/M17 A3025 770 76 -2600 310/10 RMK AO2 $
94908KDBQ DBQ20090222051510902/22/09 05:15:31  5-MIN KDBQ 221115Z AUTO 31008KT 10SM CLR M14/M17 A3025 770 76 -2600 310/08 RMK AO2 P0001 $
94908KDBQ DBQ20090222052010902/22/09 05:20:31  5-MIN KDBQ 221120Z AUTO 31009KT 10SM CLR M14/M17 A3026 770 76 -2600 310/09 RMK AO2 P0001 $
94908KDBQ DBQ20090222052510902/22/09 05:25:31  5-MIN KDBQ 221125Z AUTO 31008KT 10SM CLR M14/M17 A3026 770 76 -2600 310/08 RMK AO2 P0001 $
94908KDBQ DBQ20090222053010902/22/09 05:30:31  5-MIN KDBQ 221130Z AUTO 31009KT 10SM CLR M14/M17 A3026 770 76 -2600 310/09 RMK AO2 P0001 $
94908KDBQ DBQ20090222053510902/22/09 05:35:31  5-MIN KDBQ 221135Z AUTO 32010KT 10SM CLR M14/M17 A3026 770 76 -2600 320/10 RMK AO2 P0001 $
94908KDBQ DBQ20090222054010902/22/09 05:40:31  5-MIN KDBQ 221140Z AUTO 32009KT 10SM CLR M14/M17 A3026 770 76 -2600 320/09 RMK AO2 P0001 $
94908KDBQ DBQ20090222054510902/22/09 05:45:31  5-MIN KDBQ 221145Z AUTO 33010KT 10SM CLR M14/M17 A3026 770 76 -2600 320/10 RMK AO2 P0001 $
94908KDBQ DBQ20090222055015602/22/09 05:50:31  5-MIN KDBQ 221150Z AUTO 33009KT 10SM CLR M14/M17 A3026 760 76 -2600 320/09 RMK AO2 SLP270 P0001 60002 7//// T11391172 11117 21139 51015 $
94908KDBQ DBQ20090222055509802/22/09 05:55:31  5-MIN KDBQ 221155Z 32011KT 10SM CLR M14/M17 A3027 760 76 -2600 320/11 RMK AO2 $
94908KDBQ DBQ20090222060009802/22/09 06:00:31  5-MIN KDBQ 221200Z 32011KT 10SM CLR M14/M17 A3027 760 76 -2600 320/11 RMK AO2 $
94908KDBQ DBQ20090222060509802/22/09 06:05:31  5-MIN KDBQ 221205Z 32011KT 10SM CLR M14/M17 A3027 750 76 -2600 320/11 RMK AO2 $
94908KDBQ DBQ20090222061009802/22/09 06:10:31  5-MIN KDBQ 221210Z 31010KT 10SM CLR M14/M17 A3027 750 76 -2600 310/10 RMK AO2 $
94908KDBQ DBQ20090222061509802/22/09 06:15:31  5-MIN KDBQ 221215Z 31012KT 10SM CLR M14/M17 A3028 750 76 -2600 310/12 RMK AO2 $
94908KDBQ DBQ20090222062009802/22/09 06:20:31  5-MIN KDBQ 221220Z 32011KT 10SM CLR M14/M17 A3028 750 76 -2600 310/11 RMK AO2 $
94908KDBQ DBQ20090222062509802/22/09 06:25:31  5-MIN KDBQ 221225Z 31010KT 10SM CLR M14/M18 A3028 750 76 -2700 310/10 RMK AO2 $
94908KDBQ DBQ20090222063009802/22/09 06:30:31  5-MIN KDBQ 221230Z 31010KT 10SM CLR M14/M18 A3028 750 76 -2700 300/10 RMK AO2 $
94908KDBQ DBQ20090222063509802/22/09 06:35:31  5-MIN KDBQ 221235Z 31009KT 10SM CLR M14/M18 A3028 750 76 -2700 310/09 RMK AO2 $
94908KDBQ DBQ20090222064009802/22/09 06:40:31  5-MIN KDBQ 221240Z 31009KT 10SM CLR M14/M18 A3028 740 76 -2700 310/09 RMK AO2 $
94908KDBQ DBQ20090222064509802/22/09 06:45:31  5-MIN KDBQ 221245Z 31010KT 10SM CLR M14/M18 A3029 740 76 -2700 310/10 RMK AO2 $
94908KDBQ DBQ20090222065011502/22/09 06:50:31  5-MIN KDBQ 221250Z 32009KT 10SM CLR M14/M18 A3029 740 76 -2700 320/09 RMK AO2 SLP280 T11441178 $
94908KDBQ DBQ20090222065509802/22/09 06:55:31  5-MIN KDBQ 221255Z 32008KT 10SM CLR M14/M18 A3029 740 76 -2700 310/08 RMK AO2 $
94908KDBQ DBQ20090222070009802/22/09 07:00:31  5-MIN KDBQ 221300Z 32007KT 10SM CLR M14/M18 A3029 740 76 -2700 320/07 RMK AO2 $
94908KDBQ DBQ20090222070509802/22/09 07:05:31  5-MIN KDBQ 221305Z 32006KT 10SM CLR M15/M18 A3030 730 80 -2800 320/06 RMK AO2 $
94908KDBQ DBQ20090222071009802/22/09 07:10:31  5-MIN KDBQ 221310Z 31006KT 10SM CLR M14/M18 A3030 730 76 -2700 310/06 RMK AO2 $
94908KDBQ DBQ20090222071509802/22/09 07:15:31  5-MIN KDBQ 221315Z 32006KT 10SM CLR M14/M18 A3030 730 76 -2700 320/06 RMK AO2 $
94908KDBQ DBQ20090222072009802/22/09 07:20:31  5-MIN KDBQ 221320Z 34004KT 10SM CLR M15/M18 A3030 730 76 -2800 330/04 RMK AO2 $
94908KDBQ DBQ20090222072510402/22/09 07:25:31  5-MIN KDBQ 221325Z 35004KT 10SM CLR M15/M18 A3031 720 76 -2800 350/04 RMK AO2 P0001 $
94908KDBQ DBQ20090222073010402/22/09 07:30:31  5-MIN KDBQ 221330Z 35003KT 10SM CLR M15/M18 A3031 720 76 -2800 350/03 RMK AO2 P0001 $
94908KDBQ DBQ20090222073510402/22/09 07:35:31  5-MIN KDBQ 221335Z 35004KT 10SM CLR M15/M18 A3031 720 76 -2800 340/04 RMK AO2 P0001 $
94908KDBQ DBQ20090222074010402/22/09 07:40:31  5-MIN KDBQ 221340Z 35004KT 10SM CLR M15/M18 A3031 720 76 -2800 350/04 RMK AO2 P0001 $
94908KDBQ DBQ20090222074510402/22/09 07:45:31  5-MIN KDBQ 221345Z 34004KT 10SM CLR M14/M18 A3031 720 73 -2700 340/04 RMK AO2 P0001 $
94908KDBQ DBQ20090222075012102/22/09 07:50:31  5-MIN KDBQ 221350Z 32004KT 10SM CLR M14/M18 A3031 720 76 -2700 320/04 RMK AO2 SLP289 P0001 T11441178 $
94908KDBQ DBQ20090222075509802/22/09 07:55:31  5-MIN KDBQ 221355Z 31004KT 10SM CLR M14/M18 A3032 710 76 -2700 310/04 RMK AO2 $
94908KDBQ DBQ20090222080009802/22/09 08:00:31  5-MIN KDBQ 221400Z 31004KT 10SM CLR M14/M18 A3032 710 76 -2700 310/04 RMK AO2 $
94908KDBQ DBQ20090222080509802/22/09 08:05:31  5-MIN KDBQ 221405Z 31004KT 10SM CLR M14/M18 A3032 710 73 -2700 310/04 RMK AO2 $
94908KDBQ DBQ20090222081009802/22/09 08:10:31  5-MIN KDBQ 221410Z 29003KT 10SM CLR M14/M18 A3033 710 73 -2700 280/03 RMK AO2 $
94908KDBQ DBQ20090222081509802/22/09 08:15:31  5-MIN KDBQ 221415Z 30005KT 10SM CLR M14/M18 A3033 700 73 -2700 300/05 RMK AO2 $
94908KDBQ DBQ20090222082009802/22/09 08:20:31  5-MIN KDBQ 221420Z 30004KT 10SM CLR M14/M18 A3033 700 73 -2700 300/04 RMK AO2 $
94908KDBQ DBQ20090222082509802/22/09 08:25:31  5-MIN KDBQ 221425Z 34005KT 10SM CLR M13/M17 A3032 710 73 -2600 340/05 RMK AO2 $
94908KDBQ DBQ20090222083009802/22/09 08:30:31  5-MIN KDBQ 221430Z 33004KT 10SM CLR M13/M17 A3033 700 73 -2600 320/04 RMK AO2 $
94908KDBQ DBQ20090222083509802/22/09 08:35:31  5-MIN KDBQ 221435Z 34006KT 10SM CLR M13/M17 A3033 700 73 -2600 340/06 RMK AO2 $
94908KDBQ DBQ20090222084009802/22/09 08:40:31  5-MIN KDBQ 221440Z 33005KT 10SM CLR M13/M17 A3033 700 73 -2600 330/05 RMK AO2 $
94908KDBQ DBQ20090222084509802/22/09 08:45:31  5-MIN KDBQ 221445Z 33006KT 10SM CLR M13/M17 A3034 690 70 -2500 330/06 RMK AO2 $
94908KDBQ DBQ20090222085012702/22/09 08:50:31  5-MIN KDBQ 221450Z 33004KT 10SM CLR M13/M17 A3034 690 73 -2500 330/04 RMK AO2 SLP298 60001 T11281167 53019 $
94908KDBQ DBQ20090222085509802/22/09 08:55:31  5-MIN KDBQ 221455Z 32006KT 10SM CLR M13/M17 A3035 690 73 -2500 310/06 RMK AO2 $
94908KDBQ DBQ20090222090009802/22/09 09:00:31  5-MIN KDBQ 221500Z 31004KT 10SM CLR M12/M17 A3035 690 70 -2500 310/04 RMK AO2 $
94908KDBQ DBQ20090222090509802/22/09 09:05:31  5-MIN KDBQ 221505Z 29007KT 10SM CLR M12/M17 A3035 680 70 -2500 290/07 RMK AO2 $
94908KDBQ DBQ20090222091009802/22/09 09:10:31  5-MIN KDBQ 221510Z 30006KT 10SM CLR M13/M17 A3035 690 73 -2500 300/06 RMK AO2 $
94908KDBQ DBQ20090222091509802/22/09 09:15:31  5-MIN KDBQ 221515Z 31006KT 10SM CLR M12/M17 A3035 690 70 -2500 310/06 RMK AO2 $
94908KDBQ DBQ20090222092009802/22/09 09:20:31  5-MIN KDBQ 221520Z 30005KT 10SM CLR M12/M17 A3035 680 70 -2500 300/05 RMK AO2 $
94908KDBQ DBQ20090222092509802/22/09 09:25:31  5-MIN KDBQ 221525Z 31006KT 10SM CLR M12/M16 A3035 680 73 -2500 310/06 RMK AO2 $
94908KDBQ DBQ20090222093009802/22/09 09:30:31  5-MIN KDBQ 221530Z 30007KT 10SM CLR M12/M16 A3035 680 70 -2400 300/07 RMK AO2 $
94908KDBQ DBQ20090222093509802/22/09 09:35:31  5-MIN KDBQ 221535Z 30006KT 10SM CLR M12/M16 A3035 680 70 -2400 290/06 RMK AO2 $
94908KDBQ DBQ20090222094009802/22/09 09:40:31  5-MIN KDBQ 221540Z 29006KT 10SM CLR M12/M16 A3036 680 70 -2400 280/06 RMK AO2 $
94908KDBQ DBQ20090222094509802/22/09 09:45:31  5-MIN KDBQ 221545Z 28008KT 10SM CLR M12/M16 A3036 670 70 -2400 280/08 RMK AO2 $
94908KDBQ DBQ20090222095011502/22/09 09:50:31  5-MIN KDBQ 221550Z 29009KT 10SM CLR M12/M16 A3036 670 70 -2400 290/09 RMK AO2 SLP304 T11171161 $
94908KDBQ DBQ20090222095509802/22/09 09:55:31  5-MIN KDBQ 221555Z 30009KT 10SM CLR M12/M16 A3036 670 70 -2400 300/09 RMK AO2 $
94908KDBQ DBQ20090222100009802/22/09 10:00:31  5-MIN KDBQ 221600Z 30009KT 10SM CLR M12/M16 A3036 670 70 -2400 290/09 RMK AO2 $
94908KDBQ DBQ20090222100509802/22/09 10:05:31  5-MIN KDBQ 221605Z 31007KT 10SM CLR M12/M16 A3036 670 70 -2400 300/07 RMK AO2 $
94908KDBQ DBQ20090222101009802/22/09 10:10:31  5-MIN KDBQ 221610Z 31007KT 10SM CLR M11/M16 A3036 670 70 -2300 310/07 RMK AO2 $
94908KDBQ DBQ20090222101509802/22/09 10:15:31  5-MIN KDBQ 221615Z 30007KT 10SM CLR M11/M16 A3037 670 70 -2300 300/07 RMK AO2 $
94908KDBQ DBQ20090222102009802/22/09 10:20:31  5-MIN KDBQ 221620Z 29009KT 10SM CLR M11/M16 A3037 670 70 -2300 290/09 RMK AO2 $
94908KDBQ DBQ20090222102509802/22/09 10:25:31  5-MIN KDBQ 221625Z 30011KT 10SM CLR M11/M16 A3037 670 67 -2300 300/11 RMK AO2 $
94908KDBQ DBQ20090222103009802/22/09 10:30:31  5-MIN KDBQ 221630Z 31010KT 10SM CLR M11/M16 A3037 670 67 -2300 310/10 RMK AO2 $
94908KDBQ DBQ20090222103509802/22/09 10:35:31  5-MIN KDBQ 221635Z 31011KT 10SM CLR M10/M16 A3037 660 64 -2200 310/11 RMK AO2 $
94908KDBQ DBQ20090222104009802/22/09 10:40:31  5-MIN KDBQ 221640Z 30011KT 10SM CLR M10/M15 A3037 660 67 -2200 300/11 RMK AO2 $
94908KDBQ DBQ20090222104509802/22/09 10:45:31  5-MIN KDBQ 221645Z 30011KT 10SM CLR M10/M15 A3038 660 67 -2200 300/11 RMK AO2 $
94908KDBQ DBQ20090222105011502/22/09 10:50:31  5-MIN KDBQ 221650Z 30011KT 10SM CLR M10/M15 A3038 660 67 -2200 300/11 RMK AO2 SLP310 T11001150 $
94908KDBQ DBQ20090222105509802/22/09 10:55:31  5-MIN KDBQ 221655Z 30011KT 10SM CLR M10/M15 A3038 660 67 -2200 300/11 RMK AO2 $
94908KDBQ DBQ20090222110009802/22/09 11:00:31  5-MIN KDBQ 221700Z 29011KT 10SM CLR M10/M15 A3038 660 67 -2200 290/11 RMK AO2 $
94908KDBQ DBQ20090222110509802/22/09 11:05:31  5-MIN KDBQ 221705Z 30010KT 10SM CLR M09/M15 A3038 660 64 -2100 300/10 RMK AO2 $
94908KDBQ DBQ20090222111009802/22/09 11:10:31  5-MIN KDBQ 221710Z 31012KT 10SM CLR M09/M15 A3038 650 64 -2100 300/12 RMK AO2 $
94908KDBQ DBQ20090222111509802/22/09 11:15:31  5-MIN KDBQ 221715Z 31010KT 10SM CLR M09/M15 A3038 650 61 -2100 310/10 RMK AO2 $
94908KDBQ DBQ20090222112009802/22/09 11:20:31  5-MIN KDBQ 221720Z 30013KT 10SM CLR M09/M15 A3039 650 61 -2100 300/13 RMK AO2 $
94908KDBQ DBQ20090222112509802/22/09 11:25:31  5-MIN KDBQ 221725Z 30013KT 10SM CLR M09/M15 A3039 650 64 -2200 300/13 RMK AO2 $
94908KDBQ DBQ20090222113009802/22/09 11:30:31  5-MIN KDBQ 221730Z 29014KT 10SM CLR M09/M15 A3039 640 64 -2200 290/14 RMK AO2 $
94908KDBQ DBQ20090222113509802/22/09 11:35:31  5-MIN KDBQ 221735Z 29014KT 10SM CLR M09/M15 A3040 640 64 -2200 290/14 RMK AO2 $
94908KDBQ DBQ20090222114009802/22/09 11:40:31  5-MIN KDBQ 221740Z 30015KT 10SM CLR M09/M15 A3040 640 61 -2100 300/15 RMK AO2 $
94908KDBQ DBQ20090222114509802/22/09 11:45:31  5-MIN KDBQ 221745Z 30014KT 10SM CLR M09/M15 A3040 640 61 -2100 300/14 RMK AO2 $
94908KDBQ DBQ20090222115013902/22/09 11:50:31  5-MIN KDBQ 221750Z 31012KT 10SM CLR M09/M15 A3040 640 61 -2100 310/12 RMK AO2 SLP317 60001 T10891150 11089 21150 53026 $
94908KDBQ DBQ20090222115509802/22/09 11:55:31  5-MIN KDBQ 221755Z 30014KT 10SM CLR M09/M15 A3040 640 61 -2100 300/14 RMK AO2 $
94908KDBQ DBQ20090222120010402/22/09 12:00:31  5-MIN KDBQ 221800Z 31015G19KT 10SM CLR M09/M15 A3040 640 61 -2100 310/15G19 RMK AO2 $
94908KDBQ DBQ20090222120510402/22/09 12:05:31  5-MIN KDBQ 221805Z 30013G19KT 10SM CLR M09/M14 A3040 640 64 -2100 300/13G19 RMK AO2 $
94908KDBQ DBQ20090222121010402/22/09 12:10:31  5-MIN KDBQ 221810Z 31014G19KT 10SM CLR M08/M14 A3040 640 62 -2000 310/14G19 RMK AO2 $
94908KDBQ DBQ20090222121509802/22/09 12:15:31  5-MIN KDBQ 221815Z 30015KT 10SM CLR M08/M15 A3039 640 59 -2000 300/15 RMK AO2 $
94908KDBQ DBQ20090222122009802/22/09 12:20:31  5-MIN KDBQ 221820Z 29013KT 10SM CLR M08/M14 A3039 640 62 -2000 290/13 RMK AO2 $
94908KDBQ DBQ20090222122509802/22/09 12:25:31  5-MIN KDBQ 221825Z 30014KT 10SM CLR M08/M14 A3039 640 62 -2000 300/14 RMK AO2 $
94908KDBQ DBQ20090222123009802/22/09 12:30:31  5-MIN KDBQ 221830Z 30014KT 10SM CLR M08/M14 A3039 650 62 -2000 300/14 RMK AO2 $
94908KDBQ DBQ20090222123509802/22/09 12:35:31  5-MIN KDBQ 221835Z 29013KT 10SM CLR M08/M14 A3039 650 62 -2000 290/13 RMK AO2 $
94908KDBQ DBQ20090222124009802/22/09 12:40:31  5-MIN KDBQ 221840Z 32012KT 10SM CLR M08/M14 A3039 640 59 -1900 320/12 RMK AO2 $
94908KDBQ DBQ20090222124510402/22/09 12:45:31  5-MIN KDBQ 221845Z 33016G22KT 10SM CLR M08/M15 A3039 650 56 -1900 330/16G22 RMK AO2 $
94908KDBQ DBQ20090222125012102/22/09 12:50:31  5-MIN KDBQ 221850Z 33013G22KT 10SM CLR M08/M15 A3039 650 56 -1900 330/13G22 RMK AO2 SLP313 T10781150 $
94908KDBQ DBQ20090222125509802/22/09 12:55:31  5-MIN KDBQ 221855Z 30013KT 10SM CLR M08/M15 A3039 650 56 -1900 300/13 RMK AO2 $
94908KDBQ DBQ20090222130010402/22/09 13:00:31  5-MIN KDBQ 221900Z 33012G19KT 10SM CLR M08/M15 A3039 650 56 -1900 330/12G19 RMK AO2 $
94908KDBQ DBQ20090222130509802/22/09 13:05:31  5-MIN KDBQ 221905Z 32012KT 10SM CLR M07/M14 A3038 650 56 -1900 320/12 RMK AO2 $
94908KDBQ DBQ20090222131009802/22/09 13:10:31  5-MIN KDBQ 221910Z 33012KT 10SM CLR M08/M15 A3038 660 56 -1900 330/12 RMK AO2 $
94908KDBQ DBQ20090222131509802/22/09 13:15:31  5-MIN KDBQ 221915Z 33012KT 10SM CLR M07/M15 A3038 660 54 -1800 330/12 RMK AO2 $
94908KDBQ DBQ20090222132009802/22/09 13:20:31  5-MIN KDBQ 221920Z 32012KT 10SM CLR M07/M15 A3038 660 54 -1800 320/12 RMK AO2 $
94908KDBQ DBQ20090222132509802/22/09 13:25:31  5-MIN KDBQ 221925Z 30015KT 10SM CLR M07/M14 A3038 660 56 -1800 300/15 RMK AO2 $
94908KDBQ DBQ20090222133009802/22/09 13:30:31  5-MIN KDBQ 221930Z 30013KT 10SM CLR M07/M14 A3038 650 56 -1900 300/13 RMK AO2 $
94908KDBQ DBQ20090222133509802/22/09 13:35:31  5-MIN KDBQ 221935Z 31013KT 10SM CLR M07/M14 A3038 660 56 -1900 310/13 RMK AO2 $
94908KDBQ DBQ20090222134009802/22/09 13:40:31  5-MIN KDBQ 221940Z 30013KT 10SM CLR M07/M14 A3038 660 56 -1800 300/13 RMK AO2 $
94908KDBQ DBQ20090222134509802/22/09 13:45:31  5-MIN KDBQ 221945Z 30015KT 10SM CLR M07/M14 A3038 660 56 -1800 290/15 RMK AO2 $
94908KDBQ DBQ20090222135011502/22/09 13:50:31  5-MIN KDBQ 221950Z 29014KT 10SM CLR M07/M14 A3038 660 56 -1900 290/14 RMK AO2 SLP310 T10721144 $
94908KDBQ DBQ20090222135509802/22/09 13:55:31  5-MIN KDBQ 221955Z 30014KT 10SM CLR M07/M14 A3038 660 56 -1900 290/14 RMK AO2 $
94908KDBQ DBQ20090222140009802/22/09 14:00:31  5-MIN KDBQ 222000Z 32012KT 10SM CLR M07/M14 A3038 650 56 -1900 320/12 RMK AO2 $
94908KDBQ DBQ20090222140509802/22/09 14:05:31  5-MIN KDBQ 222005Z 32011KT 10SM CLR M07/M14 A3038 650 56 -1900 320/11 RMK AO2 $
94908KDBQ DBQ20090222141010402/22/09 14:10:31  5-MIN KDBQ 222010Z 32016G20KT 10SM CLR M07/M14 A3039 650 56 -1900 320/16G20 RMK AO2 $
94908KDBQ DBQ20090222141510402/22/09 14:15:31  5-MIN KDBQ 222015Z 33016G20KT 10SM CLR M07/M14 A3039 650 56 -1900 330/16G20 RMK AO2 $
94908KDBQ DBQ20090222142009802/22/09 14:20:31  5-MIN KDBQ 222020Z 33013KT 10SM CLR M07/M14 A3039 650 56 -1900 330/13 RMK AO2 $
94908KDBQ DBQ20090222142509802/22/09 14:25:31  5-MIN KDBQ 222025Z 32013KT 10SM CLR M07/M14 A3039 650 56 -1900 320/13 RMK AO2 $
94908KDBQ DBQ20090222143009802/22/09 14:30:31  5-MIN KDBQ 222030Z 31014KT 10SM CLR M07/M14 A3039 650 56 -1900 310/14 RMK AO2 $
94908KDBQ DBQ20090222143509802/22/09 14:35:31  5-MIN KDBQ 222035Z 32012KT 10SM CLR M07/M14 A3039 650 56 -1900 320/12 RMK AO2 $
94908KDBQ DBQ20090222144009802/22/09 14:40:31  5-MIN KDBQ 222040Z 33014KT 10SM CLR M07/M14 A3039 640 56 -1900 330/14 RMK AO2 $
94908KDBQ DBQ20090222144509802/22/09 14:45:31  5-MIN KDBQ 222045Z 33015KT 10SM CLR M07/M14 A3040 640 56 -1900 330/15 RMK AO2 $
94908KDBQ DBQ20090222145012602/22/09 14:50:31  5-MIN KDBQ 222050Z AUTO 33014KT 10SM CLR M07/M14 A3040 640 56 -1900 330/14 RMK AO2 SLP317 T10721144 53019 $
94908KDBQ DBQ20090222145509802/22/09 14:55:31  5-MIN KDBQ 222055Z 33016KT 10SM CLR M07/M15 A3040 630 54 -1900 330/16 RMK AO2 $
94908KDBQ DBQ20090222150009802/22/09 15:00:31  5-MIN KDBQ 222100Z 32014KT 10SM CLR M07/M14 A3041 630 56 -1900 320/14 RMK AO2 $
94908KDBQ DBQ20090222150509802/22/09 15:05:31  5-MIN KDBQ 222105Z 31013KT 10SM CLR M07/M14 A3041 630 56 -1900 310/13 RMK AO2 $
94908KDBQ DBQ20090222151009802/22/09 15:10:31  5-MIN KDBQ 222110Z 32016KT 10SM CLR M07/M14 A3041 630 56 -1900 320/16 RMK AO2 $
94908KDBQ DBQ20090222151509802/22/09 15:15:31  5-MIN KDBQ 222115Z 32014KT 10SM CLR M07/M14 A3041 620 56 -1900 320/14 RMK AO2 $
94908KDBQ DBQ20090222152009802/22/09 15:20:31  5-MIN KDBQ 222120Z 33014KT 10SM CLR M07/M14 A3041 620 56 -1900 330/14 RMK AO2 $
94908KDBQ DBQ20090222152509802/22/09 15:25:31  5-MIN KDBQ 222125Z 32011KT 10SM CLR M07/M15 A3041 620 54 -1900 320/11 RMK AO2 $
94908KDBQ DBQ20090222153009802/22/09 15:30:31  5-MIN KDBQ 222130Z 33015KT 10SM CLR M07/M14 A3042 620 56 -1900 330/15 RMK AO2 $
94908KDBQ DBQ20090222153509802/22/09 15:35:31  5-MIN KDBQ 222135Z 33012KT 10SM CLR M07/M14 A3042 620 56 -1900 330/12 RMK AO2 $
94908KDBQ DBQ20090222154009802/22/09 15:40:31  5-MIN KDBQ 222140Z 33012KT 10SM CLR M07/M14 A3043 610 56 -1900 330/12 RMK AO2 $
94908KDBQ DBQ20090222154509802/22/09 15:45:31  5-MIN KDBQ 222145Z 32013KT 10SM CLR M07/M14 A3043 610 56 -1900 320/13 RMK AO2 $
94908KDBQ DBQ20090222155011502/22/09 15:50:31  5-MIN KDBQ 222150Z 32009KT 10SM CLR M07/M14 A3043 610 56 -1900 320/09 RMK AO2 SLP327 T10721144 $
94908KDBQ DBQ20090222155509802/22/09 15:55:31  5-MIN KDBQ 222155Z 31011KT 10SM CLR M07/M14 A3043 610 56 -1900 310/11 RMK AO2 $
94908KDBQ DBQ20090222160009802/22/09 16:00:31  5-MIN KDBQ 222200Z 33013KT 10SM CLR M07/M14 A3043 610 56 -1900 330/13 RMK AO2 $
94908KDBQ DBQ20090222160509802/22/09 16:05:31  5-MIN KDBQ 222205Z 32012KT 10SM CLR M08/M15 A3044 600 56 -2000 320/12 RMK AO2 $
94908KDBQ DBQ20090222161009802/22/09 16:10:31  5-MIN KDBQ 222210Z 32014KT 10SM CLR M08/M15 A3044 600 56 -2000 320/14 RMK AO2 $
94908KDBQ DBQ20090222161509802/22/09 16:15:31  5-MIN KDBQ 222215Z 31014KT 10SM CLR M08/M15 A3044 600 56 -2000 310/14 RMK AO2 $
94908KDBQ DBQ20090222162009802/22/09 16:20:31  5-MIN KDBQ 222220Z 32012KT 10SM CLR M08/M15 A3044 600 56 -2000 320/12 RMK AO2 $
94908KDBQ DBQ20090222162509802/22/09 16:25:31  5-MIN KDBQ 222225Z 32013KT 10SM CLR M08/M15 A3044 600 56 -2000 320/13 RMK AO2 $
94908KDBQ DBQ20090222163009802/22/09 16:30:31  5-MIN KDBQ 222230Z 32010KT 10SM CLR M08/M15 A3044 600 56 -2000 320/10 RMK AO2 $
94908KDBQ DBQ20090222163509802/22/09 16:35:31  5-MIN KDBQ 222235Z 32011KT 10SM CLR M08/M15 A3045 600 56 -2000 320/11 RMK AO2 $
94908KDBQ DBQ20090222164009802/22/09 16:40:31  5-MIN KDBQ 222240Z 31010KT 10SM CLR M08/M15 A3044 600 59 -2100 310/10 RMK AO2 $
94908KDBQ DBQ20090222164509802/22/09 16:45:31  5-MIN KDBQ 222245Z 31007KT 10SM CLR M08/M15 A3045 600 59 -2100 310/07 RMK AO2 $
94908KDBQ DBQ20090222165011502/22/09 16:50:31  5-MIN KDBQ 222250Z 31010KT 10SM CLR M08/M15 A3045 590 59 -2100 310/10 RMK AO2 SLP334 T10831150 $
94908KDBQ DBQ20090222165509802/22/09 16:55:31  5-MIN KDBQ 222255Z 32008KT 10SM CLR M08/M15 A3045 590 59 -2100 320/08 RMK AO2 $
94908KDBQ DBQ20090222170009802/22/09 17:00:31  5-MIN KDBQ 222300Z 32011KT 10SM CLR M08/M15 A3045 590 59 -2100 310/11 RMK AO2 $
94908KDBQ DBQ20090222170509802/22/09 17:05:31  5-MIN KDBQ 222305Z 31010KT 10SM CLR M08/M15 A3045 590 59 -2100 310/10 RMK AO2 $
94908KDBQ DBQ20090222171009802/22/09 17:10:31  5-MIN KDBQ 222310Z 31008KT 10SM CLR M08/M15 A3045 590 59 -2100 310/08 RMK AO2 $
94908KDBQ DBQ20090222171509802/22/09 17:15:31  5-MIN KDBQ 222315Z 32008KT 10SM CLR M09/M15 A3046 590 61 -2200 320/08 RMK AO2 $
94908KDBQ DBQ20090222172009802/22/09 17:20:31  5-MIN KDBQ 222320Z 32008KT 10SM CLR M09/M15 A3046 590 61 -2200 320/08 RMK AO2 $
94908KDBQ DBQ20090222172509802/22/09 17:25:31  5-MIN KDBQ 222325Z 32008KT 10SM CLR M09/M15 A3046 590 61 -2200 320/08 RMK AO2 $
94908KDBQ DBQ20090222173009802/22/09 17:30:31  5-MIN KDBQ 222330Z 31007KT 10SM CLR M09/M15 A3046 580 61 -2200 310/07 RMK AO2 $
94908KDBQ DBQ20090222173509802/22/09 17:35:31  5-MIN KDBQ 222335Z 32004KT 10SM CLR M09/M15 A3046 580 64 -2200 320/04 RMK AO2 $
94908KDBQ DBQ20090222174009802/22/09 17:40:31  5-MIN KDBQ 222340Z 32004KT 10SM CLR M09/M16 A3046 580 61 -2200 320/04 RMK AO2 $
94908KDBQ DBQ20090222174509802/22/09 17:45:31  5-MIN KDBQ 222345Z 31003KT 10SM CLR M10/M16 A3046 580 64 -2300 310/03 RMK AO2 $
94908KDBQ DBQ20090222175013302/22/09 17:50:31  5-MIN KDBQ 222350Z 30005KT 10SM CLR M10/M16 A3046 580 64 -2300 300/05 RMK AO2 SLP341 T11001156 11072 21100 53001 $
94908KDBQ DBQ20090222175509802/22/09 17:55:31  5-MIN KDBQ 222355Z 30007KT 10SM CLR M11/M16 A3047 580 67 -2400 300/07 RMK AO2 $
94908KDBQ DBQ20090222180009802/22/09 18:00:31  5-MIN KDBQ 230000Z 29006KT 10SM CLR M11/M16 A3047 580 67 -2400 290/06 RMK AO2 $
94908KDBQ DBQ20090222180509802/22/09 18:05:31  5-MIN KDBQ 230005Z 29006KT 10SM CLR M11/M16 A3047 570 67 -2400 290/06 RMK AO2 $
94908KDBQ DBQ20090222181009802/22/09 18:10:31  5-MIN KDBQ 230010Z 29007KT 10SM CLR M11/M16 A3047 570 67 -2400 290/07 RMK AO2 $
94908KDBQ DBQ20090222181509802/22/09 18:15:31  5-MIN KDBQ 230015Z 29008KT 10SM CLR M11/M15 A3048 570 70 -2400 290/08 RMK AO2 $
94908KDBQ DBQ20090222182009802/22/09 18:20:31  5-MIN KDBQ 230020Z 29006KT 10SM CLR M11/M15 A3048 570 70 -2400 290/06 RMK AO2 $
94908KDBQ DBQ20090222182509802/22/09 18:25:31  5-MIN KDBQ 230025Z 29007KT 10SM CLR M11/M15 A3048 560 73 -2500 290/07 RMK AO2 $
94908KDBQ DBQ20090222183009802/22/09 18:30:31  5-MIN KDBQ 230030Z 29007KT 10SM CLR M11/M15 A3048 560 73 -2500 290/07 RMK AO2 $
94908KDBQ DBQ20090222183509802/22/09 18:35:31  5-MIN KDBQ 230035Z 29007KT 10SM CLR M11/M15 A3048 560 73 -2500 290/07 RMK AO2 $
94908KDBQ DBQ20090222184009802/22/09 18:40:31  5-MIN KDBQ 230040Z 29007KT 10SM CLR M11/M15 A3048 560 73 -2500 290/07 RMK AO2 $
94908KDBQ DBQ20090222184509802/22/09 18:45:31  5-MIN KDBQ 230045Z 29007KT 10SM CLR M11/M15 A3048 560 73 -2500 290/07 RMK AO2 $
94908KDBQ DBQ20090222185011502/22/09 18:50:31  5-MIN KDBQ 230050Z 30007KT 10SM CLR M11/M15 A3048 560 73 -2500 300/07 RMK AO2 SLP349 T11111150 $
94908KDBQ DBQ20090222185509802/22/09 18:55:31  5-MIN KDBQ 230055Z 31007KT 10SM CLR M11/M15 A3048 560 73 -2500 310/07 RMK AO2 $
94908KDBQ DBQ20090222190009802/22/09 19:00:31  5-MIN KDBQ 230100Z 31007KT 10SM CLR M11/M15 A3048 560 73 -2500 310/07 RMK AO2 $
94908KDBQ DBQ20090222190509802/22/09 19:05:31  5-MIN KDBQ 230105Z 30007KT 10SM CLR M11/M15 A3049 560 73 -2500 300/07 RMK AO2 $
94908KDBQ DBQ20090222191010402/22/09 19:10:31  5-MIN KDBQ 230110Z 29007KT 10SM CLR M12/M16 A3048 560 73 -2600 290/07 RMK AO2 P0001 $
94908KDBQ DBQ20090222191510402/22/09 19:15:31  5-MIN KDBQ 230115Z 29006KT 10SM CLR M12/M16 A3049 560 73 -2600 290/06 RMK AO2 P0001 $
94908KDBQ DBQ20090222192010402/22/09 19:20:31  5-MIN KDBQ 230120Z 29007KT 10SM CLR M12/M16 A3049 560 73 -2600 290/07 RMK AO2 P0001 $
94908KDBQ DBQ20090222192510402/22/09 19:25:31  5-MIN KDBQ 230125Z 29007KT 10SM CLR M12/M16 A3049 560 73 -2600 290/07 RMK AO2 P0001 $
94908KDBQ DBQ20090222193010402/22/09 19:30:31  5-MIN KDBQ 230130Z 30007KT 10SM CLR M12/M16 A3049 560 73 -2600 290/07 RMK AO2 P0001 $
94908KDBQ DBQ20090222193510402/22/09 19:35:31  5-MIN KDBQ 230135Z 30008KT 10SM CLR M12/M16 A3049 560 73 -2600 300/08 RMK AO2 P0001 $
94908KDBQ DBQ20090222194010402/22/09 19:40:31  5-MIN KDBQ 230140Z 30007KT 10SM CLR M12/M16 A3049 550 76 -2600 300/07 RMK AO2 P0001 $
94908KDBQ DBQ20090222194510402/22/09 19:45:31  5-MIN KDBQ 230145Z 29007KT 10SM CLR M12/M16 A3049 550 73 -2600 290/07 RMK AO2 P0001 $
94908KDBQ DBQ20090222195012102/22/09 19:50:31  5-MIN KDBQ 230150Z 30006KT 10SM CLR M13/M16 A3050 550 76 -2700 290/06 RMK AO2 SLP353 P0001 T11281161 $
94908KDBQ DBQ20090222195510302/22/09 19:55:31  5-MIN KDBQ 230155Z AUTO 30006KT 10SM CLR M12/M16 A3050 550 73 -2600 300/06 RMK AO2 $
94908KDBQ DBQ20090222200010302/22/09 20:00:31  5-MIN KDBQ 230200Z AUTO 30006KT 10SM CLR M12/M16 A3050 550 73 -2600 300/06 RMK AO2 $
94908KDBQ DBQ20090222200510302/22/09 20:05:31  5-MIN KDBQ 230205Z AUTO 30006KT 10SM CLR M13/M16 A3050 550 76 -2700 300/06 RMK AO2 $
94908KDBQ DBQ20090222201010302/22/09 20:10:31  5-MIN KDBQ 230210Z AUTO 31006KT 10SM CLR M13/M16 A3050 540 76 -2700 310/06 RMK AO2 $
94908KDBQ DBQ20090222201510302/22/09 20:15:31  5-MIN KDBQ 230215Z AUTO 31008KT 10SM CLR M12/M16 A3050 540 73 -2600 310/08 RMK AO2 $
94908KDBQ DBQ20090222202010302/22/09 20:20:31  5-MIN KDBQ 230220Z AUTO 31007KT 10SM CLR M12/M16 A3050 540 70 -2600 310/07 RMK AO2 $
94908KDBQ DBQ20090222202510902/22/09 20:25:31  5-MIN KDBQ 230225Z AUTO 31007KT 10SM CLR M12/M16 A3051 540 73 -2700 310/07 RMK AO2 P0001 $
94908KDBQ DBQ20090222203010902/22/09 20:30:31  5-MIN KDBQ 230230Z AUTO 32008KT 10SM CLR M12/M16 A3051 540 73 -2700 320/08 RMK AO2 P0001 $
94908KDBQ DBQ20090222203510902/22/09 20:35:31  5-MIN KDBQ 230235Z AUTO 32009KT 10SM CLR M12/M16 A3051 540 73 -2700 320/09 RMK AO2 P0001 $
94908KDBQ DBQ20090222204010902/22/09 20:40:31  5-MIN KDBQ 230240Z AUTO 32009KT 10SM CLR M12/M16 A3051 540 70 -2600 320/09 RMK AO2 P0001 $
94908KDBQ DBQ20090222204510902/22/09 20:45:31  5-MIN KDBQ 230245Z AUTO 32009KT 10SM CLR M12/M16 A3051 540 70 -2600 320/09 RMK AO2 P0001 $
94908KDBQ DBQ20090222205013802/22/09 20:50:31  5-MIN KDBQ 230250Z AUTO 32010KT 10SM CLR M12/M16 A3051 540 70 -2600 320/10 RMK AO2 SLP356 P0001 60002 T11171161 51021 $
94908KDBQ DBQ20090222205510302/22/09 20:55:31  5-MIN KDBQ 230255Z AUTO 32010KT 10SM CLR M12/M16 A3051 540 70 -2600 320/10 RMK AO2 $
94908KDBQ DBQ20090222210010302/22/09 21:00:31  5-MIN KDBQ 230300Z AUTO 32010KT 10SM CLR M12/M16 A3051 540 70 -2600 320/10 RMK AO2 $
94908KDBQ DBQ20090222210510302/22/09 21:05:31  5-MIN KDBQ 230305Z AUTO 32009KT 10SM CLR M12/M16 A3051 540 70 -2600 320/09 RMK AO2 $
94908KDBQ DBQ20090222211010302/22/09 21:10:31  5-MIN KDBQ 230310Z AUTO 32010KT 10SM CLR M12/M16 A3051 540 70 -2600 320/10 RMK AO2 $
94908KDBQ DBQ20090222211510302/22/09 21:15:31  5-MIN KDBQ 230315Z AUTO 33010KT 10SM CLR M12/M16 A3051 540 70 -2600 330/10 RMK AO2 $
94908KDBQ DBQ20090222212010302/22/09 21:20:31  5-MIN KDBQ 230320Z AUTO 33009KT 10SM CLR M11/M16 A3051 540 67 -2500 330/09 RMK AO2 $
94908KDBQ DBQ20090222212510302/22/09 21:25:31  5-MIN KDBQ 230325Z AUTO 33009KT 10SM CLR M12/M16 A3051 530 70 -2600 330/09 RMK AO2 $
94908KDBQ DBQ20090222213010302/22/09 21:30:31  5-MIN KDBQ 230330Z AUTO 33010KT 10SM CLR M12/M16 A3051 530 70 -2600 330/10 RMK AO2 $
94908KDBQ DBQ20090222213510302/22/09 21:35:31  5-MIN KDBQ 230335Z AUTO 33009KT 10SM CLR M12/M16 A3051 530 70 -2600 330/09 RMK AO2 $
94908KDBQ DBQ20090222214010302/22/09 21:40:31  5-MIN KDBQ 230340Z AUTO 33008KT 10SM CLR M12/M16 A3051 540 70 -2600 330/08 RMK AO2 $
94908KDBQ DBQ20090222214510902/22/09 21:45:31  5-MIN KDBQ 230345Z AUTO 33009KT 10SM CLR M12/M16 A3051 530 70 -2600 330/09 RMK AO2 P0001 $
94908KDBQ DBQ20090222215012602/22/09 21:50:31  5-MIN KDBQ 230350Z AUTO 33008KT 10SM CLR M12/M16 A3051 530 73 -2700 330/08 RMK AO2 SLP358 P0001 T11221161 $
94908KDBQ DBQ20090222215510302/22/09 21:55:31  5-MIN KDBQ 230355Z AUTO 33009KT 10SM CLR M12/M16 A3051 530 73 -2700 330/09 RMK AO2 $
94908KDBQ DBQ20090222220010302/22/09 22:00:31  5-MIN KDBQ 230400Z AUTO 34009KT 10SM CLR M12/M16 A3051 530 70 -2600 340/09 RMK AO2 $
94908KDBQ DBQ20090222220510302/22/09 22:05:31  5-MIN KDBQ 230405Z AUTO 34008KT 10SM CLR M12/M16 A3052 530 70 -2600 340/08 RMK AO2 $
94908KDBQ DBQ20090222221010302/22/09 22:10:31  5-MIN KDBQ 230410Z AUTO 34008KT 10SM CLR M12/M16 A3051 530 73 -2700 340/08 RMK AO2 $
94908KDBQ DBQ20090222221510302/22/09 22:15:31  5-MIN KDBQ 230415Z AUTO 34008KT 10SM CLR M12/M16 A3052 530 70 -2600 340/08 RMK AO2 $
94908KDBQ DBQ20090222222010302/22/09 22:20:31  5-MIN KDBQ 230420Z AUTO 34008KT 10SM CLR M12/M16 A3052 530 70 -2600 340/08 RMK AO2 $
94908KDBQ DBQ20090222222510302/22/09 22:25:31  5-MIN KDBQ 230425Z AUTO 34008KT 10SM CLR M12/M16 A3052 530 70 -2600 340/08 RMK AO2 $
94908KDBQ DBQ20090222223010302/22/09 22:30:31  5-MIN KDBQ 230430Z AUTO 35008KT 10SM CLR M12/M17 A3052 530 70 -2700 350/08 RMK AO2 $
94908KDBQ DBQ20090222223510302/22/09 22:35:31  5-MIN KDBQ 230435Z AUTO 35008KT 10SM CLR M12/M17 A3052 530 70 -2700 350/08 RMK AO2 $
94908KDBQ DBQ20090222224010302/22/09 22:40:31  5-MIN KDBQ 230440Z AUTO 35007KT 10SM CLR M12/M17 A3052 530 70 -2700 350/07 RMK AO2 $
94908KDBQ DBQ20090222224510302/22/09 22:45:31  5-MIN KDBQ 230445Z AUTO 35007KT 10SM CLR M13/M17 A3052 530 73 -2700 350/07 RMK AO2 $
94908KDBQ DBQ20090222225012002/22/09 22:50:31  5-MIN KDBQ 230450Z AUTO 36008KT 10SM CLR M13/M17 A3052 530 73 -2700 360/08 RMK AO2 SLP359 T11281167 $
94908KDBQ DBQ20090222225510302/22/09 22:55:31  5-MIN KDBQ 230455Z AUTO 35008KT 10SM CLR M13/M17 A3052 530 73 -2700 350/08 RMK AO2 $
94908KDBQ DBQ20090222230010302/22/09 23:00:31  5-MIN KDBQ 230500Z AUTO 35007KT 10SM CLR M13/M17 A3052 530 73 -2700 350/07 RMK AO2 $
94908KDBQ DBQ20090222230510302/22/09 23:05:31  5-MIN KDBQ 230505Z AUTO 36005KT 10SM CLR M13/M17 A3052 530 73 -2700 360/05 RMK AO2 $
94908KDBQ DBQ20090222231010302/22/09 23:10:31  5-MIN KDBQ 230510Z AUTO 02005KT 10SM CLR M13/M17 A3052 530 73 -2700 020/05 RMK AO2 $
94908KDBQ DBQ20090222231510302/22/09 23:15:31  5-MIN KDBQ 230515Z AUTO 02004KT 10SM CLR M13/M17 A3052 530 73 -2700 020/04 RMK AO2 $
94908KDBQ DBQ20090222232010302/22/09 23:20:31  5-MIN KDBQ 230520Z AUTO 00000KT 10SM CLR M12/M17 A3052 530 70 -2700 000/00 RMK AO2 $
94908KDBQ DBQ20090222232510302/22/09 23:25:31  5-MIN KDBQ 230525Z AUTO 36004KT 10SM CLR M12/M17 A3052 530 70 -2700 360/04 RMK AO2 $
94908KDBQ DBQ20090222233010302/22/09 23:30:31  5-MIN KDBQ 230530Z AUTO 36005KT 10SM CLR M12/M17 A3052 530 70 -2700 360/05 RMK AO2 $
94908KDBQ DBQ20090222233510302/22/09 23:35:31  5-MIN KDBQ 230535Z AUTO 01004KT 10SM CLR M13/M17 A3052 530 73 -2700 010/04 RMK AO2 $
94908KDBQ DBQ20090222234010702/22/09 23:40:31  5-MIN KDBQ 230540Z AUTO 01004KT 10SM CLR M13/M17 A3052 530 73 -2700 010/04 RMK AO2 PNO $
94908KDBQ DBQ20090222234510702/22/09 23:45:31  5-MIN KDBQ 230545Z AUTO 02004KT 10SM CLR M13/M17 A3052 520 73 -2800 020/04 RMK AO2 PNO $
94908KDBQ DBQ20090222235015402/22/09 23:50:31  5-MIN KDBQ 230550Z AUTO 04005KT 10SM CLR M13/M17 A3052 530 73 -2700 040/05 RMK AO2 SLP358 60003 T11281167 11106 21133 410721150 51014 $
94908KDBQ DBQ20090222235510302/22/09 23:55:31  5-MIN KDBQ 230555Z AUTO 03005KT 10SM CLR M13/M17 A3052 530 73 -2700 030/05 RMK AO2 $
94908KDBQ DBQ20090223000010302/23/09 00:00:38  5-MIN KDBQ 230600Z AUTO 04005KT 10SM CLR M13/M17 A3052 530 76 -2800 040/05 RMK AO2 $
94908KDBQ DBQ20090223000510302/23/09 00:05:31  5-MIN KDBQ 230605Z AUTO 03004KT 10SM CLR M13/M17 A3052 530 73 -2800 030/04 RMK AO2 $
94908KDBQ DBQ20090223001010302/23/09 00:10:31  5-MIN KDBQ 230610Z AUTO 03004KT 10SM CLR M13/M17 A3052 530 73 -2700 030/04 RMK AO2 $
94908KDBQ DBQ20090223001510302/23/09 00:15:31  5-MIN KDBQ 230615Z AUTO 02004KT 10SM CLR M13/M17 A3052 520 76 -2800 020/04 RMK AO2 $
94908KDBQ DBQ20090223002010302/23/09 00:20:31  5-MIN KDBQ 230620Z AUTO 36004KT 10SM CLR M13/M16 A3053 520 76 -2800 360/04 RMK AO2 $
94908KDBQ DBQ20090223002510302/23/09 00:25:31  5-MIN KDBQ 230625Z AUTO 36005KT 10SM CLR M13/M17 A3053 520 76 -2800 360/05 RMK AO2 $
94908KDBQ DBQ20090223003010302/23/09 00:30:31  5-MIN KDBQ 230630Z AUTO 36005KT 10SM CLR M14/M18 A3053 520 76 -3000 360/05 RMK AO2 $
94908KDBQ DBQ20090223003510902/23/09 00:35:31  5-MIN KDBQ 230635Z AUTO 36005KT 10SM CLR M14/M18 A3053 520 76 -3000 360/05 RMK AO2 P0001 $
94908KDBQ DBQ20090223004010902/23/09 00:40:31  5-MIN KDBQ 230640Z AUTO 01005KT 10SM CLR M14/M17 A3053 520 76 -2900 010/05 RMK AO2 P0001 $
94908KDBQ DBQ20090223004510902/23/09 00:45:31  5-MIN KDBQ 230645Z AUTO 01005KT 10SM CLR M13/M17 A3053 520 76 -2800 010/05 RMK AO2 P0001 $
94908KDBQ DBQ20090223005012602/23/09 00:50:31  5-MIN KDBQ 230650Z AUTO 01006KT 10SM CLR M13/M17 A3053 520 76 -2800 010/06 RMK AO2 SLP362 P0001 T11331167 $
94908KDBQ DBQ20090223005510302/23/09 00:55:31  5-MIN KDBQ 230655Z AUTO 01005KT 10SM CLR M13/M17 A3053 510 76 -2800 010/05 RMK AO2 $
94908KDBQ DBQ20090223010010302/23/09 01:00:31  5-MIN KDBQ 230700Z AUTO 36005KT 10SM CLR M13/M17 A3054 510 76 -2800 360/05 RMK AO2 $
94908KDBQ DBQ20090223010510302/23/09 01:05:31  5-MIN KDBQ 230705Z AUTO 36006KT 10SM CLR M13/M17 A3054 510 73 -2800 350/06 RMK AO2 $
94908KDBQ DBQ20090223011010302/23/09 01:10:31  5-MIN KDBQ 230710Z AUTO 35005KT 10SM CLR M13/M17 A3054 510 76 -2800 350/05 RMK AO2 $
94908KDBQ DBQ20090223011510302/23/09 01:15:31  5-MIN KDBQ 230715Z AUTO 35005KT 10SM CLR M13/M17 A3054 510 73 -2800 350/05 RMK AO2 $
94908KDBQ DBQ20090223012010302/23/09 01:20:31  5-MIN KDBQ 230720Z AUTO 35005KT 10SM CLR M13/M17 A3054 510 76 -2800 350/05 RMK AO2 $
94908KDBQ DBQ20090223012510302/23/09 01:25:31  5-MIN KDBQ 230725Z AUTO 36005KT 10SM CLR M13/M17 A3054 510 76 -2800 360/05 RMK AO2 $
94908KDBQ DBQ20090223013010302/23/09 01:30:31  5-MIN KDBQ 230730Z AUTO 35006KT 10SM CLR M13/M17 A3054 510 73 -2800 350/06 RMK AO2 $
94908KDBQ DBQ20090223013510302/23/09 01:35:31  5-MIN KDBQ 230735Z AUTO 36006KT 10SM CLR M13/M17 A3054 510 73 -2800 350/06 RMK AO2 $
94908KDBQ DBQ20090223014010302/23/09 01:40:31  5-MIN KDBQ 230740Z AUTO 35005KT 10SM CLR M13/M17 A3054 510 73 -2800 340/05 RMK AO2 $
94908KDBQ DBQ20090223014510302/23/09 01:45:31  5-MIN KDBQ 230745Z AUTO 35005KT 10SM CLR M13/M17 A3054 510 76 -2800 350/05 RMK AO2 $
94908KDBQ DBQ20090223015012002/23/09 01:50:31  5-MIN KDBQ 230750Z AUTO 35006KT 10SM CLR M13/M17 A3054 510 76 -2800 350/06 RMK AO2 SLP366 T11331167 $
94908KDBQ DBQ20090223015510302/23/09 01:55:31  5-MIN KDBQ 230755Z AUTO 35005KT 10SM CLR M13/M17 A3054 510 76 -2800 350/05 RMK AO2 $
94908KDBQ DBQ20090223020010302/23/09 02:00:31  5-MIN KDBQ 230800Z AUTO 35006KT 10SM CLR M13/M17 A3054 510 76 -2800 350/06 RMK AO2 $
94908KDBQ DBQ20090223020510302/23/09 02:05:31  5-MIN KDBQ 230805Z AUTO 34005KT 10SM CLR M14/M17 A3054 510 76 -2900 340/05 RMK AO2 $
94908KDBQ DBQ20090223021010302/23/09 02:10:31  5-MIN KDBQ 230810Z AUTO 35006KT 10SM CLR M13/M17 A3054 510 73 -2800 350/06 RMK AO2 $
94908KDBQ DBQ20090223021510302/23/09 02:15:31  5-MIN KDBQ 230815Z AUTO 35006KT 10SM CLR M13/M17 A3054 510 76 -2800 350/06 RMK AO2 $
94908KDBQ DBQ20090223022010302/23/09 02:20:31  5-MIN KDBQ 230820Z AUTO 35005KT 10SM CLR M13/M17 A3054 510 76 -2800 350/05 RMK AO2 $
94908KDBQ DBQ20090223022510302/23/09 02:25:31  5-MIN KDBQ 230825Z AUTO 34006KT 10SM CLR M13/M17 A3054 510 73 -2800 340/06 RMK AO2 $
94908KDBQ DBQ20090223023010902/23/09 02:30:31  5-MIN KDBQ 230830Z AUTO 34005KT 10SM CLR M13/M17 A3055 500 76 -2800 340/05 RMK AO2 P0001 $
94908KDBQ DBQ20090223023510902/23/09 02:35:31  5-MIN KDBQ 230835Z AUTO 33005KT 10SM CLR M13/M17 A3054 510 76 -2800 330/05 RMK AO2 P0001 $
94908KDBQ DBQ20090223024010902/23/09 02:40:31  5-MIN KDBQ 230840Z AUTO 00000KT 10SM CLR M16/M18 A3055 500 79 -3100 000/00 RMK AO2 P0001 $
94908KDBQ DBQ20090223024510902/23/09 02:45:31  5-MIN KDBQ 230845Z AUTO 00000KT 10SM CLR M17/M19 A3055 500 83 -3300 000/00 RMK AO2 P0001 $
94908KDBQ DBQ20090223025013802/23/09 02:50:31  5-MIN KDBQ 230850Z AUTO 00000KT 10SM CLR M16/M18 A3055 500 79 -3100 000/00 RMK AO2 SLP368 P0001 60002 T11561183 50003 $
94908KDBQ DBQ20090223025510302/23/09 02:55:31  5-MIN KDBQ 230855Z AUTO 00000KT 10SM CLR M16/M18 A3054 510 79 -3100 000/00 RMK AO2 $
94908KDBQ DBQ20090223030010302/23/09 03:00:31  5-MIN KDBQ 230900Z AUTO 00000KT 10SM CLR M16/M18 A3054 510 79 -3100 000/00 RMK AO2 $
94908KDBQ DBQ20090223030510302/23/09 03:05:31  5-MIN KDBQ 230905Z AUTO 00000KT 10SM CLR M15/M18 A3054 510 76 -3100 000/00 RMK AO2 $
94908KDBQ DBQ20090223031010302/23/09 03:10:31  5-MIN KDBQ 230910Z AUTO 00000KT 10SM CLR M15/M18 A3053 520 76 -3100 000/00 RMK AO2 $
94908KDBQ DBQ20090223031510302/23/09 03:15:31  5-MIN KDBQ 230915Z AUTO 00000KT 10SM CLR M14/M18 A3054 510 76 -3000 000/00 RMK AO2 $
94908KDBQ DBQ20090223032010302/23/09 03:20:31  5-MIN KDBQ 230920Z AUTO 00000KT 10SM CLR M16/M18 A3054 510 83 -3100 000/00 RMK AO2 $
94908KDBQ DBQ20090223032510302/23/09 03:25:31  5-MIN KDBQ 230925Z AUTO 35003KT 10SM CLR M16/M18 A3054 510 83 -3100 350/03 RMK AO2 $
94908KDBQ DBQ20090223033010302/23/09 03:30:31  5-MIN KDBQ 230930Z AUTO 01003KT 10SM CLR M14/M18 A3054 510 76 -3000 010/03 RMK AO2 $
94908KDBQ DBQ20090223033510302/23/09 03:35:31  5-MIN KDBQ 230935Z AUTO 36003KT 10SM CLR M17/M18 A3054 510 87 -3300 360/03 RMK AO2 $
94908KDBQ DBQ20090223034010302/23/09 03:40:31  5-MIN KDBQ 230940Z AUTO 36004KT 10SM CLR M16/M18 A3054 510 83 -3100 350/04 RMK AO2 $
94908KDBQ DBQ20090223034510302/23/09 03:45:31  5-MIN KDBQ 230945Z AUTO 35004KT 10SM CLR M18/M19 A3054 510 87 -3400 350/04 RMK AO2 $
94908KDBQ DBQ20090223035012002/23/09 03:50:31  5-MIN KDBQ 230950Z AUTO 36003KT 10SM CLR M18/M20 A3054 510 83 -3400 350/03 RMK AO2 SLP368 T11781200 $
94908KDBQ DBQ20090223035510302/23/09 03:55:31  5-MIN KDBQ 230955Z AUTO 36004KT 10SM CLR M18/M21 A3054 510 79 -3400 360/04 RMK AO2 $
94908KDBQ DBQ20090223040010302/23/09 04:00:31  5-MIN KDBQ 231000Z AUTO 00000KT 10SM CLR M16/M19 A3055 510 79 -3200 000/00 RMK AO2 $
94908KDBQ DBQ20090223040510302/23/09 04:05:31  5-MIN KDBQ 231005Z AUTO 00000KT 10SM CLR M17/M19 A3054 510 83 -3400 000/00 RMK AO2 $
94908KDBQ DBQ20090223041010302/23/09 04:10:31  5-MIN KDBQ 231010Z AUTO 00000KT 10SM CLR M17/M19 A3054 510 83 -3400 000/00 RMK AO2 $
94908KDBQ DBQ20090223041510302/23/09 04:15:31  5-MIN KDBQ 231015Z AUTO 02003KT 10SM CLR M17/M19 A3054 510 79 -3300 020/03 RMK AO2 $
94908KDBQ DBQ20090223042010302/23/09 04:20:31  5-MIN KDBQ 231020Z AUTO 02003KT 10SM CLR M17/M19 A3054 510 83 -3300 020/03 RMK AO2 $
94908KDBQ DBQ20090223042510302/23/09 04:25:31  5-MIN KDBQ 231025Z AUTO 01005KT 10SM CLR M17/M19 A3055 510 83 -3300 010/05 RMK AO2 $
94908KDBQ DBQ20090223043010302/23/09 04:30:31  5-MIN KDBQ 231030Z AUTO 02005KT 10SM CLR M15/M18 A3055 510 76 -3100 020/05 RMK AO2 $
94908KDBQ DBQ20090223043510302/23/09 04:35:31  5-MIN KDBQ 231035Z AUTO 02006KT 10SM CLR M14/M18 A3055 500 76 -3000 010/06 RMK AO2 $
94908KDBQ DBQ20090223044010302/23/09 04:40:31  5-MIN KDBQ 231040Z AUTO 01006KT 10SM CLR M14/M17 A3055 500 80 -3000 010/06 RMK AO2 $
94908KDBQ DBQ20090223044510302/23/09 04:45:31  5-MIN KDBQ 231045Z AUTO 01006KT 10SM CLR M14/M17 A3055 500 76 -2900 010/06 RMK AO2 $
94908KDBQ DBQ20090223045012002/23/09 04:50:31  5-MIN KDBQ 231050Z AUTO 01006KT 10SM CLR M14/M18 A3055 500 76 -3000 010/06 RMK AO2 SLP371 T11441178 $
94908KDBQ DBQ20090223045510702/23/09 04:55:31  5-MIN KDBQ 231055Z AUTO 36005KT 10SM CLR M14/M18 A3056 500 76 -3000 360/05 RMK AO2 PNO $
94908KDBQ DBQ20090223050010302/23/09 05:00:31  5-MIN KDBQ 231100Z AUTO 36003KT 10SM CLR M18/M19 A3056 500 87 -3500 360/03 RMK AO2 $
94908KDBQ DBQ20090223050510302/23/09 05:05:31  5-MIN KDBQ 231105Z AUTO 00000KT 10SM CLR M17/M19 A3056 490 79 -3300 000/00 RMK AO2 $
94908KDBQ DBQ20090223051010302/23/09 05:10:31  5-MIN KDBQ 231110Z AUTO 00000KT 10SM CLR M18/M20 A3056 490 83 -3500 000/00 RMK AO2 $
94908KDBQ DBQ20090223051510302/23/09 05:15:31  5-MIN KDBQ 231115Z AUTO 00000KT 10SM CLR M17/M19 A3056 490 83 -3400 000/00 RMK AO2 $
94908KDBQ DBQ20090223052010302/23/09 05:20:31  5-MIN KDBQ 231120Z AUTO 00000KT 10SM CLR M18/M20 A3056 490 83 -3500 000/00 RMK AO2 $
94908KDBQ DBQ20090223052510302/23/09 05:25:31  5-MIN KDBQ 231125Z AUTO 00000KT 10SM CLR M18/M20 A3056 490 83 -3500 000/00 RMK AO2 $
94908KDBQ DBQ20090223053010302/23/09 05:30:31  5-MIN KDBQ 231130Z AUTO 03003KT 10SM CLR M16/M19 A3056 490 76 -3200 030/03 RMK AO2 $
94908KDBQ DBQ20090223053510302/23/09 05:35:31  5-MIN KDBQ 231135Z AUTO 02005KT 10SM CLR M15/M18 A3056 500 76 -3100 020/05 RMK AO2 $
94908KDBQ DBQ20090223054010302/23/09 05:40:31  5-MIN KDBQ 231140Z AUTO 02005KT 10SM CLR M16/M18 A3056 490 79 -3200 020/05 RMK AO2 $
94908KDBQ DBQ20090223054510302/23/09 05:45:31  5-MIN KDBQ 231145Z AUTO 02005KT 10SM CLR M17/M19 A3056 490 79 -3300 020/05 RMK AO2 $
94908KDBQ DBQ20090223055015002/23/09 05:50:31  5-MIN KDBQ 231150Z AUTO 02006KT 10SM CLR M17/M19 A3056 490 79 -3300 020/06 RMK AO2 SLP374 60002 70006 T11671194 11128 21178 51009 $
94908KDBQ DBQ20090223055510302/23/09 05:55:31  5-MIN KDBQ 231155Z AUTO 03006KT 10SM CLR M16/M18 A3056 490 79 -3200 020/06 RMK AO2 $
94908KDBQ DBQ20090223060009802/23/09 06:00:31  5-MIN KDBQ 231200Z 03006KT 10SM CLR M16/M18 A3056 490 83 -3200 030/06 RMK AO2 $
94908KDBQ DBQ20090223060509802/23/09 06:05:31  5-MIN KDBQ 231205Z 02005KT 10SM CLR M16/M18 A3056 490 83 -3200 020/05 RMK AO2 $
94908KDBQ DBQ20090223061009802/23/09 06:10:31  5-MIN KDBQ 231210Z 03005KT 10SM CLR M17/M19 A3057 490 83 -3300 020/05 RMK AO2 $
94908KDBQ DBQ20090223061509802/23/09 06:15:31  5-MIN KDBQ 231215Z 03004KT 10SM CLR M16/M19 A3057 490 79 -3200 030/04 RMK AO2 $
94908KDBQ DBQ20090223062009802/23/09 06:20:31  5-MIN KDBQ 231220Z 00000KT 10SM CLR M16/M19 A3056 490 79 -3200 000/00 RMK AO2 $
94908KDBQ DBQ20090223062509802/23/09 06:25:31  5-MIN KDBQ 231225Z 00000KT 10SM CLR M15/M18 A3057 490 76 -3100 000/00 RMK AO2 $
94908KDBQ DBQ20090223063009802/23/09 06:30:31  5-MIN KDBQ 231230Z 00000KT 10SM CLR M15/M18 A3056 490 80 -3100 000/00 RMK AO2 $
94908KDBQ DBQ20090223063509802/23/09 06:35:31  5-MIN KDBQ 231235Z 00000KT 10SM CLR M15/M17 A3056 490 83 -3100 000/00 RMK AO2 $
94908KDBQ DBQ20090223064009802/23/09 06:40:31  5-MIN KDBQ 231240Z 05004KT 10SM CLR M15/M17 A3056 490 83 -3100 040/04 RMK AO2 $
94908KDBQ DBQ20090223064509702/23/09 06:45:31  5-MIN KDBQ 231245Z 04005KT 9SM CLR M16/M18 A3056 490 83 -3200 040/05 RMK AO2 $
94908KDBQ DBQ20090223065011402/23/09 06:50:31  5-MIN KDBQ 231250Z 04003KT 8SM CLR M16/M18 A3057 490 83 -3200 040/03 RMK AO2 SLP377 T11611183 $
94908KDBQ DBQ20090223065509702/23/09 06:55:31  5-MIN KDBQ 231255Z 00000KT 8SM CLR M16/M18 A3057 480 79 -3200 000/00 RMK AO2 $
94908KDBQ DBQ20090223070010102/23/09 07:00:31  5-MIN KDBQ 231300Z 00000KT 8SM CLR M15/M18 A3057 480 80 -3100 000/00 RMK AO2 PNO $
94908KDBQ DBQ20090223070509702/23/09 07:05:31  5-MIN KDBQ 231305Z 00000KT 8SM CLR M14/M17 A3057 480 80 -3000 000/00 RMK AO2 $
94908KDBQ DBQ20090223071009702/23/09 07:10:31  5-MIN KDBQ 231310Z 00000KT 8SM CLR M14/M17 A3057 480 80 -3000 000/00 RMK AO2 $
94908KDBQ DBQ20090223071509702/23/09 07:15:31  5-MIN KDBQ 231315Z 00000KT 8SM CLR M14/M17 A3057 480 80 -3000 000/00 RMK AO2 $
94908KDBQ DBQ20090223072009702/23/09 07:20:31  5-MIN KDBQ 231320Z 00000KT 8SM CLR M14/M17 A3057 480 76 -3000 000/00 RMK AO2 $
94908KDBQ DBQ20090223072509702/23/09 07:25:31  5-MIN KDBQ 231325Z 00000KT 8SM CLR M14/M17 A3058 480 80 -3000 000/00 RMK AO2 $
94908KDBQ DBQ20090223073009702/23/09 07:30:31  5-MIN KDBQ 231330Z 00000KT 8SM CLR M14/M17 A3058 480 80 -3000 000/00 RMK AO2 $
94908KDBQ DBQ20090223073509702/23/09 07:35:31  5-MIN KDBQ 231335Z 00000KT 8SM CLR M14/M17 A3058 480 80 -3000 000/00 RMK AO2 $
94908KDBQ DBQ20090223074009702/23/09 07:40:31  5-MIN KDBQ 231340Z 00000KT 8SM CLR M13/M17 A3058 480 76 -2900 000/00 RMK AO2 $
94908KDBQ DBQ20090223074509702/23/09 07:45:31  5-MIN KDBQ 231345Z 04003KT 8SM CLR M13/M17 A3058 480 76 -2900 040/03 RMK AO2 $
94908KDBQ DBQ20090223075011402/23/09 07:50:31  5-MIN KDBQ 231350Z 04004KT 9SM CLR M13/M17 A3058 480 76 -2900 040/04 RMK AO2 SLP380 T11331167 $
94908KDBQ DBQ20090223075509702/23/09 07:55:31  5-MIN KDBQ 231355Z 03004KT 9SM CLR M13/M17 A3058 480 76 -2900 030/04 RMK AO2 $
94908KDBQ DBQ20090223080009702/23/09 08:00:31  5-MIN KDBQ 231400Z 02004KT 9SM CLR M13/M17 A3058 470 76 -2900 020/04 RMK AO2 $
94908KDBQ DBQ20090223080509702/23/09 08:05:31  5-MIN KDBQ 231405Z 02004KT 9SM CLR M13/M17 A3058 470 76 -2900 020/04 RMK AO2 $
94908KDBQ DBQ20090223081009702/23/09 08:10:31  5-MIN KDBQ 231410Z 01005KT 9SM CLR M13/M17 A3059 470 76 -2900 010/05 RMK AO2 $
94908KDBQ DBQ20090223081509702/23/09 08:15:31  5-MIN KDBQ 231415Z 03003KT 9SM CLR M13/M17 A3059 470 73 -2800 030/03 RMK AO2 $
94908KDBQ DBQ20090223082009702/23/09 08:20:31  5-MIN KDBQ 231420Z 04004KT 9SM CLR M13/M16 A3059 470 76 -2800 040/04 RMK AO2 $
94908KDBQ DBQ20090223082509702/23/09 08:25:31  5-MIN KDBQ 231425Z 04003KT 9SM CLR M12/M16 A3059 470 73 -2700 040/03 RMK AO2 $
94908KDBQ DBQ20090223083009702/23/09 08:30:31  5-MIN KDBQ 231430Z 04003KT 9SM CLR M12/M16 A3059 470 73 -2700 040/03 RMK AO2 $
94908KDBQ DBQ20090223083509702/23/09 08:35:31  5-MIN KDBQ 231435Z 04004KT 9SM CLR M12/M16 A3059 470 73 -2700 040/04 RMK AO2 $
94908KDBQ DBQ20090223084010102/23/09 08:40:31  5-MIN KDBQ 231440Z 04005KT 9SM CLR M12/M16 A3059 470 73 -2700 040/05 RMK AO2 PNO $
94908KDBQ DBQ20090223084509702/23/09 08:45:31  5-MIN KDBQ 231445Z 04006KT 9SM CLR M12/M16 A3059 470 73 -2700 040/06 RMK AO2 $
94908KDBQ DBQ20090223085013102/23/09 08:50:31  5-MIN KDBQ 231450Z 04006KT 10SM CLR M12/M16 A3059 470 73 -2700 040/06 RMK AO2 SLP383 6//// T11221161 53004 PNO $
94908KDBQ DBQ20090223085509802/23/09 08:55:31  5-MIN KDBQ 231455Z 03006KT 10SM CLR M12/M16 A3058 470 70 -2700 030/06 RMK AO2 $
94908KDBQ DBQ20090223090009802/23/09 09:00:31  5-MIN KDBQ 231500Z 03006KT 10SM CLR M12/M16 A3059 470 70 -2700 030/06 RMK AO2 $
94908KDBQ DBQ20090223090509802/23/09 09:05:31  5-MIN KDBQ 231505Z 03004KT 10SM CLR M12/M16 A3059 470 73 -2700 030/04 RMK AO2 $
94908KDBQ DBQ20090223091009802/23/09 09:10:31  5-MIN KDBQ 231510Z 03004KT 10SM CLR M12/M16 A3059 460 73 -2700 030/04 RMK AO2 $
94908KDBQ DBQ20090223091509802/23/09 09:15:31  5-MIN KDBQ 231515Z 03004KT 10SM CLR M11/M16 A3059 460 70 -2600 030/04 RMK AO2 $
94908KDBQ DBQ20090223092009802/23/09 09:20:31  5-MIN KDBQ 231520Z 01004KT 10SM CLR M11/M16 A3059 460 70 -2600 010/04 RMK AO2 $
94908KDBQ DBQ20090223092509802/23/09 09:25:31  5-MIN KDBQ 231525Z 02004KT 10SM CLR M11/M16 A3059 460 70 -2600 020/04 RMK AO2 $
94908KDBQ DBQ20090223093009802/23/09 09:30:31  5-MIN KDBQ 231530Z 03004KT 10SM CLR M11/M15 A3059 460 70 -2500 020/04 RMK AO2 $
94908KDBQ DBQ20090223093509802/23/09 09:35:31  5-MIN KDBQ 231535Z 04005KT 10SM CLR M11/M15 A3059 460 70 -2500 040/05 RMK AO2 $
94908KDBQ DBQ20090223094009802/23/09 09:40:31  5-MIN KDBQ 231540Z 04005KT 10SM CLR M11/M15 A3059 460 70 -2500 040/05 RMK AO2 $
94908KDBQ DBQ20090223094509802/23/09 09:45:31  5-MIN KDBQ 231545Z 03005KT 10SM CLR M11/M15 A3059 460 70 -2500 030/05 RMK AO2 $
94908KDBQ DBQ20090223095011502/23/09 09:50:31  5-MIN KDBQ 231550Z 03004KT 10SM CLR M11/M15 A3059 460 70 -2500 030/04 RMK AO2 SLP384 T11061150 $
94908KDBQ DBQ20090223095510202/23/09 09:55:31  5-MIN KDBQ 231555Z 04005KT 10SM CLR M10/M14 A3059 460 70 -2500 040/05 RMK AO2 PNO $
94908KDBQ DBQ20090223100009802/23/09 10:00:31  5-MIN KDBQ 231600Z 05005KT 10SM CLR M10/M14 A3059 470 70 -2500 050/05 RMK AO2 $
94908KDBQ DBQ20090223100509802/23/09 10:05:31  5-MIN KDBQ 231605Z 05004KT 10SM CLR M09/M14 A3059 470 67 -2400 050/04 RMK AO2 $
94908KDBQ DBQ20090223101009802/23/09 10:10:31  5-MIN KDBQ 231610Z 04004KT 10SM CLR M09/M14 A3058 470 67 -2400 040/04 RMK AO2 $
94908KDBQ DBQ20090223101509802/23/09 10:15:31  5-MIN KDBQ 231615Z 05003KT 10SM CLR M09/M14 A3058 470 64 -2300 050/03 RMK AO2 $
94908KDBQ DBQ20090223102009802/23/09 10:20:31  5-MIN KDBQ 231620Z 04003KT 10SM CLR M09/M14 A3058 470 67 -2300 040/03 RMK AO2 $
94908KDBQ DBQ20090223102510202/23/09 10:25:31  5-MIN KDBQ 231625Z 00000KT 10SM CLR M08/M14 A3059 470 64 -2200 000/00 RMK AO2 PNO $
94908KDBQ DBQ20090223103010202/23/09 10:30:31  5-MIN KDBQ 231630Z VRB04KT 10SM CLR M08/M14 A3058 470 62 -2200 VRB/04 RMK AO2 PNO $
94908KDBQ DBQ20090223103509802/23/09 10:35:31  5-MIN KDBQ 231635Z 07003KT 10SM CLR M08/M13 A3058 470 64 -2200 070/03 RMK AO2 $
94908KDBQ DBQ20090223104009802/23/09 10:40:31  5-MIN KDBQ 231640Z 08004KT 10SM CLR M08/M14 A3058 470 62 -2200 080/04 RMK AO2 $
94908KDBQ DBQ20090223104509802/23/09 10:45:31  5-MIN KDBQ 231645Z 07003KT 10SM CLR M08/M14 A3058 470 59 -2200 070/03 RMK AO2 $
94908KDBQ DBQ20090223105011502/23/09 10:50:31  5-MIN KDBQ 231650Z 07004KT 10SM CLR M08/M14 A3058 470 62 -2200 070/04 RMK AO2 SLP380 T10781139 $
94908KDBQ DBQ20090223105509802/23/09 10:55:31  5-MIN KDBQ 231655Z 00000KT 10SM CLR M07/M14 A3058 470 59 -2100 000/00 RMK AO2 $
94908KDBQ DBQ20090223110009802/23/09 11:00:31  5-MIN KDBQ 231700Z VRB03KT 10SM CLR M07/M13 A3058 470 59 -2000 VRB/03 RMK AO2 $
94908KDBQ DBQ20090223110509802/23/09 11:05:31  5-MIN KDBQ 231705Z 14004KT 10SM CLR M07/M14 A3058 470 56 -2100 140/04 RMK AO2 $
94908KDBQ DBQ20090223111009802/23/09 11:10:31  5-MIN KDBQ 231710Z 12004KT 10SM CLR M08/M14 A3058 470 59 -2200 120/04 RMK AO2 $
94908KDBQ DBQ20090223111509802/23/09 11:15:31  5-MIN KDBQ 231715Z 14005KT 10SM CLR M07/M14 A3057 480 56 -2100 140/05 RMK AO2 $
94908KDBQ DBQ20090223112009802/23/09 11:20:31  5-MIN KDBQ 231720Z 13004KT 10SM CLR M07/M14 A3057 480 56 -2100 130/04 RMK AO2 $
94908KDBQ DBQ20090223112509802/23/09 11:25:31  5-MIN KDBQ 231725Z 14004KT 10SM CLR M07/M14 A3057 480 56 -2100 140/04 RMK AO2 $
94908KDBQ DBQ20090223113009802/23/09 11:30:31  5-MIN KDBQ 231730Z 14005KT 10SM CLR M07/M14 A3057 490 56 -2100 140/05 RMK AO2 $
94908KDBQ DBQ20090223113509802/23/09 11:35:31  5-MIN KDBQ 231735Z 14005KT 10SM CLR M07/M15 A3056 490 54 -2100 140/05 RMK AO2 $
94908KDBQ DBQ20090223114009802/23/09 11:40:31  5-MIN KDBQ 231740Z 14004KT 10SM CLR M07/M15 A3056 490 54 -2100 140/04 RMK AO2 $
94908KDBQ DBQ20090223114509802/23/09 11:45:31  5-MIN KDBQ 231745Z 12005KT 10SM CLR M07/M14 A3056 490 56 -2100 120/05 RMK AO2 $
94908KDBQ DBQ20090223115013902/23/09 11:50:31  5-MIN KDBQ 231750Z 11006KT 10SM CLR M07/M14 A3056 490 54 -2000 110/06 RMK AO2 SLP371 6//// T10671144 11067 21167 52008 $
94908KDBQ DBQ20090223115509802/23/09 11:55:31  5-MIN KDBQ 231755Z 12004KT 10SM CLR M07/M14 A3056 500 54 -2000 120/04 RMK AO2 $
94908KDBQ DBQ20090223120009802/23/09 12:00:31  5-MIN KDBQ 231800Z 14005KT 10SM CLR M07/M14 A3055 500 54 -2000 140/05 RMK AO2 $
94908KDBQ DBQ20090223120509802/23/09 12:05:31  5-MIN KDBQ 231805Z VRB04KT 10SM CLR M07/M14 A3055 500 57 -2000 VRB/04 RMK AO2 $
94908KDBQ DBQ20090223121009802/23/09 12:10:31  5-MIN KDBQ 231810Z 18004KT 10SM CLR M07/M14 A3055 500 57 -2000 180/04 RMK AO2 $
94908KDBQ DBQ20090223121509802/23/09 12:15:31  5-MIN KDBQ 231815Z VRB05KT 10SM CLR M07/M14 A3055 500 54 -2000 VRB/05 RMK AO2 $
94908KDBQ DBQ20090223122009802/23/09 12:20:31  5-MIN KDBQ 231820Z VRB04KT 10SM CLR M07/M14 A3054 510 54 -2000 VRB/04 RMK AO2 $
94908KDBQ DBQ20090223122509802/23/09 12:25:31  5-MIN KDBQ 231825Z 19006KT 10SM CLR M07/M13 A3054 510 59 -2000 190/06 RMK AO2 $
94908KDBQ DBQ20090223123009802/23/09 12:30:31  5-MIN KDBQ 231830Z 20004KT 10SM CLR M07/M14 A3054 510 57 -2000 200/04 RMK AO2 $
94908KDBQ DBQ20090223123509802/23/09 12:35:31  5-MIN KDBQ 231835Z 00000KT 10SM CLR M07/M14 A3053 520 57 -2000 000/00 RMK AO2 $
94908KDBQ DBQ20090223124010402/23/09 12:40:31  5-MIN KDBQ 231840Z 16003KT 10SM CLR M07/M13 A3053 520 59 -2000 160/03 RMK AO2 P0001 $
94908KDBQ DBQ20090223124510402/23/09 12:45:31  5-MIN KDBQ 231845Z 17007KT 10SM CLR M07/M13 A3053 520 59 -1900 170/07 RMK AO2 P0001 $
94908KDBQ DBQ20090223125012102/23/09 12:50:31  5-MIN KDBQ 231850Z 19006KT 10SM CLR M07/M14 A3053 520 57 -2000 190/06 RMK AO2 SLP362 P0001 T10671139 $
94908KDBQ DBQ20090223125509802/23/09 12:55:31  5-MIN KDBQ 231855Z 22005KT 10SM CLR M07/M14 A3054 510 57 -2000 220/05 RMK AO2 $
94908KDBQ DBQ20090223130009802/23/09 13:00:31  5-MIN KDBQ 231900Z 20007KT 10SM CLR M06/M13 A3053 510 57 -1900 200/07 RMK AO2 $
94908KDBQ DBQ20090223130509802/23/09 13:05:31  5-MIN KDBQ 231905Z 22007KT 10SM CLR M07/M13 A3054 510 59 -2000 220/07 RMK AO2 $
94908KDBQ DBQ20090223131009802/23/09 13:10:31  5-MIN KDBQ 231910Z 20004KT 10SM CLR M07/M14 A3054 510 57 -2000 200/04 RMK AO2 $
94908KDBQ DBQ20090223131510402/23/09 13:15:31  5-MIN KDBQ 231915Z 19005KT 10SM CLR M07/M14 A3053 520 57 -2000 190/05 RMK AO2 P0001 $
94908KDBQ DBQ20090223132010402/23/09 13:20:31  5-MIN KDBQ 231920Z 19004KT 10SM CLR M06/M14 A3053 520 54 -1900 180/04 RMK AO2 P0001 $
94908KDBQ DBQ20090223132510402/23/09 13:25:31  5-MIN KDBQ 231925Z 20004KT 10SM CLR M06/M13 A3053 520 57 -1900 200/04 RMK AO2 P0001 $
94908KDBQ DBQ20090223133010402/23/09 13:30:31  5-MIN KDBQ 231930Z 22005KT 10SM CLR M06/M13 A3053 520 57 -1900 220/05 RMK AO2 P0001 $
94908KDBQ DBQ20090223133510402/23/09 13:35:31  5-MIN KDBQ 231935Z 20005KT 10SM CLR M06/M13 A3053 520 57 -1900 200/05 RMK AO2 P0001 $
94908KDBQ DBQ20090223134010402/23/09 13:40:31  5-MIN KDBQ 231940Z 20005KT 10SM CLR M06/M14 A3052 530 54 -1900 190/05 RMK AO2 P0001 $
94908KDBQ DBQ20090223134510402/23/09 13:45:31  5-MIN KDBQ 231945Z 22003KT 10SM CLR M07/M14 A3052 530 54 -1900 220/03 RMK AO2 P0001 $
94908KDBQ DBQ20090223135011902/23/09 13:50:31  5-MIN KDBQ 231950Z 16005KT 10SM CLR M06/M14 A3051 530 52 -1900 160/05 RMK AO2 SLP355 P0001 T10611144
94908KDBQ DBQ20090223135509602/23/09 13:55:31  5-MIN KDBQ 231955Z 16004KT 10SM CLR M06/M15 A3051 530 50 -1900 150/04 RMK AO2
94908KDBQ DBQ20090223140009602/23/09 14:00:31  5-MIN KDBQ 232000Z 18004KT 10SM CLR M06/M14 A3051 540 52 -1900 180/04 RMK AO2
94908KDBQ DBQ20090223140509602/23/09 14:05:31  5-MIN KDBQ 232005Z 00000KT 10SM CLR M06/M15 A3051 540 50 -1900 000/00 RMK AO2
94908KDBQ DBQ20090223141009602/23/09 14:10:31  5-MIN KDBQ 232010Z 00000KT 10SM CLR M06/M14 A3051 540 52 -1900 000/00 RMK AO2
94908KDBQ DBQ20090223141510202/23/09 14:15:31  5-MIN KDBQ 232015Z 00000KT 10SM CLR M06/M14 A3050 540 54 -1800 000/00 RMK AO2 P0001
94908KDBQ DBQ20090223142010202/23/09 14:20:31  5-MIN KDBQ 232020Z 18003KT 10SM CLR M06/M14 A3051 540 52 -1900 180/03 RMK AO2 P0001
94908KDBQ DBQ20090223142510202/23/09 14:25:31  5-MIN KDBQ 232025Z 18004KT 10SM CLR M06/M14 A3050 540 52 -1800 180/04 RMK AO2 P0001
94908KDBQ DBQ20090223143010202/23/09 14:30:31  5-MIN KDBQ 232030Z 16003KT 10SM CLR M06/M14 A3050 540 52 -1800 160/03 RMK AO2 P0001
94908KDBQ DBQ20090223143510202/23/09 14:35:31  5-MIN KDBQ 232035Z 14004KT 10SM CLR M06/M14 A3050 540 50 -1800 140/04 RMK AO2 P0001
94908KDBQ DBQ20090223144010202/23/09 14:40:31  5-MIN KDBQ 232040Z VRB03KT 10SM CLR M06/M14 A3050 550 54 -1800 VRB/03 RMK AO2 P0001
94908KDBQ DBQ20090223144510202/23/09 14:45:31  5-MIN KDBQ 232045Z 00000KT 10SM CLR M06/M14 A3050 550 52 -1800 000/00 RMK AO2 P0001
94908KDBQ DBQ20090223145013102/23/09 14:50:31  5-MIN KDBQ 232050Z 17003KT 10SM CLR M06/M14 A3050 550 52 -1800 170/03 RMK AO2 SLP351 P0001 60003 T10561139 58008
94908KDBQ DBQ20090223145510102/23/09 14:55:31  5-MIN KDBQ 232055Z AUTO 00000KT 10SM CLR M06/M14 A3050 550 52 -1800 000/00 RMK AO2
94908KDBQ DBQ20090223150010102/23/09 15:00:31  5-MIN KDBQ 232100Z AUTO VRB03KT 10SM CLR M06/M14 A3049 550 52 -1800 VRB/03 RMK AO2
94908KDBQ DBQ20090223150510102/23/09 15:05:31  5-MIN KDBQ 232105Z AUTO 19004KT 10SM CLR M06/M13 A3049 560 54 -1800 190/04 RMK AO2
94908KDBQ DBQ20090223151010702/23/09 15:10:31  5-MIN KDBQ 232110Z AUTO 17004KT 10SM CLR M06/M14 A3049 560 52 -1800 170/04 RMK AO2 P0001
94908KDBQ DBQ20090223151510702/23/09 15:15:31  5-MIN KDBQ 232115Z AUTO 19003KT 10SM CLR M06/M13 A3049 560 54 -1800 190/03 RMK AO2 P0001
94908KDBQ DBQ20090223152010702/23/09 15:20:31  5-MIN KDBQ 232120Z AUTO 18004KT 10SM CLR M06/M13 A3049 560 54 -1800 180/04 RMK AO2 P0001
94908KDBQ DBQ20090223152510702/23/09 15:25:31  5-MIN KDBQ 232125Z AUTO 20005KT 10SM CLR M06/M13 A3049 560 54 -1800 200/05 RMK AO2 P0001
94908KDBQ DBQ20090223153010702/23/09 15:30:31  5-MIN KDBQ 232130Z AUTO 20007KT 10SM CLR M06/M13 A3049 560 57 -1800 200/07 RMK AO2 P0001
94908KDBQ DBQ20090223153510702/23/09 15:35:31  5-MIN KDBQ 232135Z AUTO 20006KT 10SM CLR M06/M13 A3048 560 57 -1800 200/06 RMK AO2 P0001
94908KDBQ DBQ20090223154010702/23/09 15:40:31  5-MIN KDBQ 232140Z AUTO 20006KT 10SM CLR M06/M13 A3048 570 57 -1700 190/06 RMK AO2 P0001
94908KDBQ DBQ20090223154510702/23/09 15:45:31  5-MIN KDBQ 232145Z AUTO 18007KT 10SM CLR M06/M13 A3047 570 57 -1700 180/07 RMK AO2 P0001
94908KDBQ DBQ20090223155012402/23/09 15:50:31  5-MIN KDBQ 232150Z AUTO 20006KT 10SM CLR M06/M13 A3047 570 57 -1700 200/06 RMK AO2 SLP343 P0001 T10561128
94908KDBQ DBQ20090223155509602/23/09 15:55:31  5-MIN KDBQ 232155Z 17006KT 10SM CLR M06/M13 A3047 570 57 -1700 160/06 RMK AO2
94908KDBQ DBQ20090223160009602/23/09 16:00:31  5-MIN KDBQ 232200Z 17007KT 10SM CLR M06/M13 A3047 580 57 -1700 160/07 RMK AO2
94908KDBQ DBQ20090223160509602/23/09 16:05:31  5-MIN KDBQ 232205Z 18006KT 10SM CLR M06/M13 A3047 580 54 -1700 180/06 RMK AO2
94908KDBQ DBQ20090223161009602/23/09 16:10:31  5-MIN KDBQ 232210Z 18006KT 10SM CLR M06/M13 A3046 580 57 -1700 180/06 RMK AO2
94908KDBQ DBQ20090223161509602/23/09 16:15:31  5-MIN KDBQ 232215Z 17006KT 10SM CLR M06/M13 A3046 580 57 -1700 170/06 RMK AO2
94908KDBQ DBQ20090223162009602/23/09 16:20:31  5-MIN KDBQ 232220Z 18007KT 10SM CLR M05/M13 A3046 580 55 -1700 180/07 RMK AO2
94908KDBQ DBQ20090223162509602/23/09 16:25:31  5-MIN KDBQ 232225Z 17007KT 10SM CLR M06/M13 A3046 580 57 -1700 170/07 RMK AO2
94908KDBQ DBQ20090223163009602/23/09 16:30:31  5-MIN KDBQ 232230Z 17007KT 10SM CLR M06/M13 A3046 590 57 -1700 160/07 RMK AO2
94908KDBQ DBQ20090223163509602/23/09 16:35:31  5-MIN KDBQ 232235Z 17007KT 10SM CLR M06/M13 A3045 590 57 -1700 160/07 RMK AO2
94908KDBQ DBQ20090223164009602/23/09 16:40:31  5-MIN KDBQ 232240Z 17006KT 10SM CLR M06/M13 A3045 590 57 -1700 170/06 RMK AO2
94908KDBQ DBQ20090223164509602/23/09 16:45:31  5-MIN KDBQ 232245Z 18006KT 10SM CLR M06/M12 A3045 590 59 -1700 180/06 RMK AO2
94908KDBQ DBQ20090223165011302/23/09 16:50:31  5-MIN KDBQ 232250Z 18007KT 10SM CLR M06/M13 A3045 590 57 -1700 180/07 RMK AO2 SLP335 T10561128
94908KDBQ DBQ20090223165509602/23/09 16:55:31  5-MIN KDBQ 232255Z 18007KT 10SM CLR M06/M13 A3045 590 57 -1700 170/07 RMK AO2
94908KDBQ DBQ20090223170009602/23/09 17:00:31  5-MIN KDBQ 232300Z 16006KT 10SM CLR M06/M13 A3045 600 57 -1700 160/06 RMK AO2
94908KDBQ DBQ20090223170509602/23/09 17:05:31  5-MIN KDBQ 232305Z 17006KT 10SM CLR M06/M13 A3044 600 59 -1800 170/06 RMK AO2
94908KDBQ DBQ20090223171009602/23/09 17:10:31  5-MIN KDBQ 232310Z 17006KT 10SM CLR M06/M12 A3044 600 62 -1800 170/06 RMK AO2
94908KDBQ DBQ20090223171509602/23/09 17:15:31  5-MIN KDBQ 232315Z 17006KT 10SM CLR M06/M12 A3044 600 62 -1800 170/06 RMK AO2
94908KDBQ DBQ20090223172009602/23/09 17:20:31  5-MIN KDBQ 232320Z 17006KT 10SM CLR M07/M12 A3044 600 65 -1800 170/06 RMK AO2
94908KDBQ DBQ20090223172509602/23/09 17:25:31  5-MIN KDBQ 232325Z 16006KT 10SM CLR M07/M12 A3044 600 65 -1800 160/06 RMK AO2
94908KDBQ DBQ20090223173009602/23/09 17:30:31  5-MIN KDBQ 232330Z 16006KT 10SM CLR M07/M12 A3044 600 65 -1800 160/06 RMK AO2
94908KDBQ DBQ20090223173509602/23/09 17:35:31  5-MIN KDBQ 232335Z 16006KT 10SM CLR M07/M13 A3044 600 62 -1800 160/06 RMK AO2
94908KDBQ DBQ20090223174009602/23/09 17:40:31  5-MIN KDBQ 232340Z 16006KT 10SM CLR M07/M13 A3044 600 62 -1800 160/06 RMK AO2
94908KDBQ DBQ20090223174510402/23/09 17:45:31  5-MIN KDBQ 232345Z 16005KT 10SM CLR M07/M13 A3044 600 65 -1900 160/05 RMK AO2 P0001 $
94908KDBQ DBQ20090223175014502/23/09 17:50:31  5-MIN KDBQ 232350Z 16006KT 10SM CLR M07/M13 A3044 600 65 -1900 160/06 RMK AO2 SLP332 P0001 60006 T10721128 11050 21072 56020 $
94908KDBQ DBQ20090223175509802/23/09 17:55:31  5-MIN KDBQ 232355Z 16005KT 10SM CLR M07/M13 A3044 600 65 -1900 160/05 RMK AO2 $
94908KDBQ DBQ20090223180009802/23/09 18:00:31  5-MIN KDBQ 240000Z 16005KT 10SM CLR M07/M13 A3043 610 65 -1900 160/05 RMK AO2 $
94908KDBQ DBQ20090223180509802/23/09 18:05:31  5-MIN KDBQ 240005Z 16005KT 10SM CLR M08/M13 A3044 600 67 -2000 150/05 RMK AO2 $
94908KDBQ DBQ20090223181009802/23/09 18:10:31  5-MIN KDBQ 240010Z 15005KT 10SM CLR M08/M13 A3044 600 67 -2000 150/05 RMK AO2 $
94908KDBQ DBQ20090223181509802/23/09 18:15:31  5-MIN KDBQ 240015Z 15006KT 10SM CLR M08/M13 A3044 600 67 -2000 150/06 RMK AO2 $
94908KDBQ DBQ20090223182009802/23/09 18:20:31  5-MIN KDBQ 240020Z 15006KT 10SM CLR M08/M13 A3043 610 67 -2000 150/06 RMK AO2 $
94908KDBQ DBQ20090223182509802/23/09 18:25:31  5-MIN KDBQ 240025Z 15005KT 10SM CLR M08/M13 A3043 610 67 -2000 150/05 RMK AO2 $
94908KDBQ DBQ20090223183010202/23/09 18:30:31  5-MIN KDBQ 240030Z 15005KT 10SM CLR M08/M13 A3043 610 67 -2000 150/05 RMK AO2 P0001
94908KDBQ DBQ20090223183510202/23/09 18:35:31  5-MIN KDBQ 240035Z 17005KT 10SM CLR M08/M13 A3044 600 67 -2000 160/05 RMK AO2 P0001
94908KDBQ DBQ20090223184010202/23/09 18:40:31  5-MIN KDBQ 240040Z 16006KT 10SM CLR M08/M13 A3044 600 70 -2100 160/06 RMK AO2 P0001
94908KDBQ DBQ20090223184510202/23/09 18:45:31  5-MIN KDBQ 240045Z 15005KT 10SM CLR M08/M13 A3043 610 70 -2100 150/05 RMK AO2 P0001
94908KDBQ DBQ20090223185011902/23/09 18:50:31  5-MIN KDBQ 240050Z 15005KT 10SM CLR M08/M13 A3043 610 70 -2100 150/05 RMK AO2 SLP329 P0001 T10831128
94908KDBQ DBQ20090223185509602/23/09 18:55:31  5-MIN KDBQ 240055Z 16006KT 10SM CLR M08/M13 A3043 610 70 -2000 150/06 RMK AO2
94908KDBQ DBQ20090223190009602/23/09 19:00:31  5-MIN KDBQ 240100Z 16006KT 10SM CLR M08/M13 A3042 610 70 -2000 150/06 RMK AO2
94908KDBQ DBQ20090223190509602/23/09 19:05:31  5-MIN KDBQ 240105Z 15006KT 10SM CLR M08/M13 A3042 620 70 -2000 150/06 RMK AO2
94908KDBQ DBQ20090223191009602/23/09 19:10:31  5-MIN KDBQ 240110Z 15006KT 10SM CLR M08/M13 A3042 620 67 -2000 150/06 RMK AO2
94908KDBQ DBQ20090223191509602/23/09 19:15:31  5-MIN KDBQ 240115Z 16006KT 10SM CLR M08/M13 A3043 610 67 -2000 160/06 RMK AO2
94908KDBQ DBQ20090223192009602/23/09 19:20:31  5-MIN KDBQ 240120Z 16006KT 10SM CLR M08/M13 A3043 610 67 -2000 160/06 RMK AO2
94908KDBQ DBQ20090223192509602/23/09 19:25:31  5-MIN KDBQ 240125Z 15006KT 10SM CLR M08/M13 A3042 620 67 -2000 150/06 RMK AO2
94908KDBQ DBQ20090223193009602/23/09 19:30:31  5-MIN KDBQ 240130Z 15006KT 10SM CLR M08/M13 A3042 620 67 -2000 150/06 RMK AO2
94908KDBQ DBQ20090223193509602/23/09 19:35:31  5-MIN KDBQ 240135Z 16006KT 10SM CLR M08/M13 A3042 620 67 -2000 160/06 RMK AO2
94908KDBQ DBQ20090223194009602/23/09 19:40:31  5-MIN KDBQ 240140Z 16006KT 10SM CLR M08/M13 A3042 620 67 -2000 160/06 RMK AO2
94908KDBQ DBQ20090223194509602/23/09 19:45:31  5-MIN KDBQ 240145Z 16006KT 10SM CLR M08/M13 A3042 620 67 -2000 160/06 RMK AO2
94908KDBQ DBQ20090223195011302/23/09 19:50:31  5-MIN KDBQ 240150Z 15007KT 10SM CLR M08/M13 A3042 620 67 -2000 150/07 RMK AO2 SLP324 T10781128
94908KDBQ DBQ20090223195509602/23/09 19:55:31  5-MIN KDBQ 240155Z 15006KT 10SM CLR M08/M13 A3042 620 67 -2000 150/06 RMK AO2
94908KDBQ DBQ20090223200010102/23/09 20:00:31  5-MIN KDBQ 240200Z AUTO 16007KT 10SM CLR M08/M13 A3042 620 67 -2000 160/07 RMK AO2
94908KDBQ DBQ20090223200510102/23/09 20:05:31  5-MIN KDBQ 240205Z AUTO 16007KT 10SM CLR M08/M13 A3042 620 67 -2000 160/07 RMK AO2
94908KDBQ DBQ20090223201010702/23/09 20:10:31  5-MIN KDBQ 240210Z AUTO 16007KT 10SM CLR M08/M13 A3041 630 70 -2000 150/07 RMK AO2 P0001
94908KDBQ DBQ20090223201510702/23/09 20:15:31  5-MIN KDBQ 240215Z AUTO 15008KT 10SM CLR M08/M13 A3041 620 64 -2000 150/08 RMK AO2 P0001
94908KDBQ DBQ20090223202010702/23/09 20:20:31  5-MIN KDBQ 240220Z AUTO 16007KT 10SM CLR M08/M13 A3041 630 64 -2000 150/07 RMK AO2 P0001
94908KDBQ DBQ20090223202510702/23/09 20:25:31  5-MIN KDBQ 240225Z AUTO 15006KT 10SM CLR M08/M13 A3041 630 67 -2000 150/06 RMK AO2 P0001
94908KDBQ DBQ20090223203010702/23/09 20:30:31  5-MIN KDBQ 240230Z AUTO 14006KT 10SM CLR M08/M13 A3040 630 67 -2000 140/06 RMK AO2 P0001
94908KDBQ DBQ20090223203510702/23/09 20:35:31  5-MIN KDBQ 240235Z AUTO 14008KT 10SM CLR M08/M13 A3040 640 67 -2000 130/08 RMK AO2 P0001
94908KDBQ DBQ20090223204010702/23/09 20:40:31  5-MIN KDBQ 240240Z AUTO 14007KT 10SM CLR M08/M13 A3040 640 67 -2000 130/07 RMK AO2 P0001
94908KDBQ DBQ20090223204510702/23/09 20:45:31  5-MIN KDBQ 240245Z AUTO 13008KT 10SM CLR M08/M13 A3039 640 64 -1900 130/08 RMK AO2 P0001
94908KDBQ DBQ20090223205013602/23/09 20:50:31  5-MIN KDBQ 240250Z AUTO 13009KT 10SM CLR M08/M13 A3039 650 64 -1900 130/09 RMK AO2 SLP313 P0001 60002 T10781133 56020
94908KDBQ DBQ20090223205510102/23/09 20:55:31  5-MIN KDBQ 240255Z AUTO 13009KT 10SM CLR M08/M13 A3039 650 67 -2000 130/09 RMK AO2
94908KDBQ DBQ20090223210010102/23/09 21:00:31  5-MIN KDBQ 240300Z AUTO 13008KT 10SM CLR M08/M13 A3038 650 64 -1900 130/08 RMK AO2
94908KDBQ DBQ20090223210510702/23/09 21:05:31  5-MIN KDBQ 240305Z AUTO 13007KT 10SM CLR M08/M13 A3038 650 67 -2000 130/07 RMK AO2 P0001
94908KDBQ DBQ20090223211010702/23/09 21:10:31  5-MIN KDBQ 240310Z AUTO 14007KT 10SM CLR M08/M13 A3038 660 67 -2000 140/07 RMK AO2 P0001
94908KDBQ DBQ20090223211510702/23/09 21:15:31  5-MIN KDBQ 240315Z AUTO 14007KT 10SM CLR M08/M13 A3038 660 67 -2000 140/07 RMK AO2 P0001
94908KDBQ DBQ20090223212010702/23/09 21:20:31  5-MIN KDBQ 240320Z AUTO 14008KT 10SM CLR M08/M13 A3037 660 67 -2000 130/08 RMK AO2 P0001
94908KDBQ DBQ20090223212510902/23/09 21:25:31  5-MIN KDBQ 240325Z AUTO 14008KT 10SM CLR M08/M13 A3037 670 67 -2000 140/08 RMK AO2 P0001 $
94908KDBQ DBQ20090223213010902/23/09 21:30:31  5-MIN KDBQ 240330Z AUTO 14008KT 10SM CLR M08/M13 A3036 670 67 -2000 140/08 RMK AO2 P0001 $
94908KDBQ DBQ20090223213510902/23/09 21:35:31  5-MIN KDBQ 240335Z AUTO 14008KT 10SM CLR M08/M13 A3036 670 67 -2000 140/08 RMK AO2 P0001 $
94908KDBQ DBQ20090223214010902/23/09 21:40:31  5-MIN KDBQ 240340Z AUTO 14010KT 10SM CLR M08/M13 A3036 670 67 -2000 140/10 RMK AO2 P0001 $
94908KDBQ DBQ20090223214510902/23/09 21:45:31  5-MIN KDBQ 240345Z AUTO 14009KT 10SM CLR M08/M13 A3036 670 67 -2000 140/09 RMK AO2 P0001 $
94908KDBQ DBQ20090223215012602/23/09 21:50:31  5-MIN KDBQ 240350Z AUTO 14009KT 10SM CLR M08/M13 A3036 680 67 -2000 140/09 RMK AO2 SLP302 P0001 T10831133 $
94908KDBQ DBQ20090223215510302/23/09 21:55:31  5-MIN KDBQ 240355Z AUTO 14008KT 10SM CLR M08/M13 A3036 670 67 -2000 140/08 RMK AO2 $
94908KDBQ DBQ20090223220010302/23/09 22:00:31  5-MIN KDBQ 240400Z AUTO 14007KT 10SM CLR M08/M13 A3036 680 67 -2000 140/07 RMK AO2 $
94908KDBQ DBQ20090223220510302/23/09 22:05:31  5-MIN KDBQ 240405Z AUTO 15008KT 10SM CLR M08/M13 A3036 670 67 -2000 150/08 RMK AO2 $
94908KDBQ DBQ20090223221010302/23/09 22:10:31  5-MIN KDBQ 240410Z AUTO 14008KT 10SM CLR M08/M13 A3036 680 67 -2000 140/08 RMK AO2 $
94908KDBQ DBQ20090223221510102/23/09 22:15:31  5-MIN KDBQ 240415Z AUTO 14008KT 10SM CLR M08/M13 A3035 680 70 -2000 140/08 RMK AO2
94908KDBQ DBQ20090223222010102/23/09 22:20:31  5-MIN KDBQ 240420Z AUTO 14010KT 10SM CLR M08/M13 A3035 680 70 -2000 140/10 RMK AO2
94908KDBQ DBQ20090223222510102/23/09 22:25:31  5-MIN KDBQ 240425Z AUTO 14009KT 10SM CLR M08/M13 A3034 690 70 -2000 140/09 RMK AO2
94908KDBQ DBQ20090223223010102/23/09 22:30:31  5-MIN KDBQ 240430Z AUTO 14009KT 10SM CLR M08/M13 A3034 690 70 -2000 140/09 RMK AO2
94908KDBQ DBQ20090223223510102/23/09 22:35:31  5-MIN KDBQ 240435Z AUTO 14009KT 10SM CLR M08/M13 A3034 690 70 -2000 140/09 RMK AO2
94908KDBQ DBQ20090223224010102/23/09 22:40:31  5-MIN KDBQ 240440Z AUTO 14007KT 10SM CLR M08/M13 A3034 690 70 -2000 140/07 RMK AO2
94908KDBQ DBQ20090223224510102/23/09 22:45:31  5-MIN KDBQ 240445Z AUTO 14008KT 10SM CLR M08/M13 A3034 690 70 -2000 140/08 RMK AO2
94908KDBQ DBQ20090223225011802/23/09 22:50:31  5-MIN KDBQ 240450Z AUTO 14008KT 10SM CLR M08/M13 A3034 690 70 -1900 140/08 RMK AO2 SLP294 T10831128
94908KDBQ DBQ20090223225510102/23/09 22:55:31  5-MIN KDBQ 240455Z AUTO 14008KT 10SM CLR M08/M13 A3034 690 67 -1900 140/08 RMK AO2
94908KDBQ DBQ20090223230010102/23/09 23:00:31  5-MIN KDBQ 240500Z AUTO 14009KT 10SM CLR M08/M13 A3034 690 70 -2000 140/09 RMK AO2
94908KDBQ DBQ20090223230510102/23/09 23:05:31  5-MIN KDBQ 240505Z AUTO 14008KT 10SM CLR M08/M13 A3034 690 70 -2000 140/08 RMK AO2
94908KDBQ DBQ20090223231010102/23/09 23:10:31  5-MIN KDBQ 240510Z AUTO 15007KT 10SM CLR M08/M13 A3035 690 70 -2000 150/07 RMK AO2
94908KDBQ DBQ20090223231510102/23/09 23:15:31  5-MIN KDBQ 240515Z AUTO 15008KT 10SM CLR M08/M13 A3035 690 70 -2000 150/08 RMK AO2
94908KDBQ DBQ20090223232010102/23/09 23:20:31  5-MIN KDBQ 240520Z AUTO 15009KT 10SM CLR M08/M13 A3035 680 70 -2000 150/09 RMK AO2
94908KDBQ DBQ20090223232510302/23/09 23:25:31  5-MIN KDBQ 240525Z AUTO 15009KT 10SM CLR M08/M13 A3035 690 70 -2000 150/09 RMK AO2 $
94908KDBQ DBQ20090223233010902/23/09 23:30:31  5-MIN KDBQ 240530Z AUTO 15009KT 10SM CLR M08/M13 A3034 690 70 -2000 150/09 RMK AO2 P0001 $
94908KDBQ DBQ20090223233510902/23/09 23:35:31  5-MIN KDBQ 240535Z AUTO 15008KT 10SM CLR M08/M13 A3034 690 70 -2000 150/08 RMK AO2 P0001 $
94908KDBQ DBQ20090223234010902/23/09 23:40:31  5-MIN KDBQ 240540Z AUTO 15008KT 10SM CLR M08/M13 A3034 690 67 -2000 150/08 RMK AO2 P0001 $
94908KDBQ DBQ20090223234510902/23/09 23:45:31  5-MIN KDBQ 240545Z AUTO 15008KT 10SM CLR M08/M13 A3034 690 67 -2000 150/08 RMK AO2 P0001 $
94908KDBQ DBQ20090223235016002/23/09 23:50:31  5-MIN KDBQ 240550Z AUTO 15007KT 10SM CLR M08/M13 A3034 690 70 -2000 150/07 RMK AO2 SLP294 P0001 60004 T10831128 11072 21083 410501178 58017 $
94908KDBQ DBQ20090223235510602/23/09 23:55:31  5-MIN KDBQ 240555Z AUTO 15008KT 10SM SCT100 M08/M13 A3034 690 70 -1900 140/08 RMK AO2 $
94908KDBQ DBQ20090224000010602/24/09 00:00:38  5-MIN KDBQ 240600Z AUTO 15007KT 10SM BKN100 M08/M13 A3034 690 70 -2000 150/07 RMK AO2 $
94908KDBQ DBQ20090224000510602/24/09 00:05:31  5-MIN KDBQ 240605Z AUTO 15008KT 10SM BKN100 M08/M13 A3034 690 70 -2000 140/08 RMK AO2 $
94908KDBQ DBQ20090224001010602/24/09 00:10:31  5-MIN KDBQ 240610Z AUTO 15008KT 10SM BKN100 M08/M13 A3034 690 70 -2000 150/08 RMK AO2 $
94908KDBQ DBQ20090224001510602/24/09 00:15:31  5-MIN KDBQ 240615Z AUTO 15007KT 10SM BKN110 M08/M13 A3034 690 67 -1900 140/07 RMK AO2 $
94908KDBQ DBQ20090224002010602/24/09 00:20:31  5-MIN KDBQ 240620Z AUTO 15009KT 10SM BKN110 M08/M13 A3034 690 70 -2000 150/09 RMK AO2 $
94908KDBQ DBQ20090224002510602/24/09 00:25:31  5-MIN KDBQ 240625Z AUTO 15008KT 10SM BKN110 M08/M13 A3034 690 67 -1900 150/08 RMK AO2 $
94908KDBQ DBQ20090224003010602/24/09 00:30:31  5-MIN KDBQ 240630Z AUTO 15009KT 10SM SCT110 M08/M13 A3034 690 67 -1900 150/09 RMK AO2 $
94908KDBQ DBQ20090224003510602/24/09 00:35:31  5-MIN KDBQ 240635Z AUTO 15008KT 10SM SCT110 M08/M13 A3034 690 67 -1900 150/08 RMK AO2 $
94908KDBQ DBQ20090224004010602/24/09 00:40:31  5-MIN KDBQ 240640Z AUTO 14007KT 10SM SCT110 M08/M13 A3034 690 67 -1900 140/07 RMK AO2 $
94908KDBQ DBQ20090224004510602/24/09 00:45:31  5-MIN KDBQ 240645Z AUTO 15008KT 10SM BKN120 M08/M13 A3034 700 70 -1900 150/08 RMK AO2 $
94908KDBQ DBQ20090224005012302/24/09 00:50:31  5-MIN KDBQ 240650Z AUTO 15008KT 10SM BKN120 M08/M13 A3034 700 67 -1900 150/08 RMK AO2 SLP292 T10781128 $
94908KDBQ DBQ20090224005510602/24/09 00:55:31  5-MIN KDBQ 240655Z AUTO 15007KT 10SM BKN120 M08/M13 A3033 700 70 -1900 150/07 RMK AO2 $
94908KDBQ DBQ20090224010010602/24/09 01:00:31  5-MIN KDBQ 240700Z AUTO 15007KT 10SM BKN120 M08/M13 A3034 700 70 -1900 150/07 RMK AO2 $
94908KDBQ DBQ20090224010510602/24/09 01:05:31  5-MIN KDBQ 240705Z AUTO 15007KT 10SM OVC120 M08/M13 A3033 700 67 -1900 150/07 RMK AO2 $
94908KDBQ DBQ20090224011010602/24/09 01:10:31  5-MIN KDBQ 240710Z AUTO 15008KT 10SM OVC120 M08/M13 A3034 700 67 -1900 150/08 RMK AO2 $
94908KDBQ DBQ20090224011510602/24/09 01:15:31  5-MIN KDBQ 240715Z AUTO 15008KT 10SM OVC110 M08/M12 A3034 700 71 -1900 150/08 RMK AO2 $
94908KDBQ DBQ20090224012010602/24/09 01:20:31  5-MIN KDBQ 240720Z AUTO 15009KT 10SM OVC110 M08/M12 A3033 700 71 -1900 140/09 RMK AO2 $
94908KDBQ DBQ20090224012510602/24/09 01:25:31  5-MIN KDBQ 240725Z AUTO 15011KT 10SM OVC110 M08/M12 A3033 700 71 -1900 140/11 RMK AO2 $
94908KDBQ DBQ20090224013010602/24/09 01:30:31  5-MIN KDBQ 240730Z AUTO 15008KT 10SM OVC120 M08/M12 A3033 700 71 -1900 150/08 RMK AO2 $
94908KDBQ DBQ20090224013511202/24/09 01:35:31  5-MIN KDBQ 240735Z AUTO 15009KT 10SM OVC120 M08/M12 A3033 700 71 -1900 140/09 RMK AO2 P0001 $
94908KDBQ DBQ20090224014011202/24/09 01:40:31  5-MIN KDBQ 240740Z AUTO 14010KT 10SM OVC120 M08/M12 A3033 710 71 -1900 140/10 RMK AO2 P0001 $
94908KDBQ DBQ20090224014511202/24/09 01:45:31  5-MIN KDBQ 240745Z AUTO 15009KT 10SM OVC120 M08/M12 A3032 710 71 -1900 140/09 RMK AO2 P0001 $
94908KDBQ DBQ20090224015012902/24/09 01:50:31  5-MIN KDBQ 240750Z AUTO 15009KT 10SM OVC120 M08/M12 A3032 710 71 -1900 150/09 RMK AO2 SLP286 P0001 T10781122 $
94908KDBQ DBQ20090224015511202/24/09 01:55:31  5-MIN KDBQ 240755Z AUTO 14010G15KT 10SM BKN120 M07/M12 A3032 710 68 -1800 140/10G15 RMK AO2 $
94908KDBQ DBQ20090224020010602/24/09 02:00:31  5-MIN KDBQ 240800Z AUTO 14011KT 10SM BKN120 M07/M12 A3032 710 68 -1800 140/11 RMK AO2 $
94908KDBQ DBQ20090224020510602/24/09 02:05:31  5-MIN KDBQ 240805Z AUTO 14009KT 10SM OVC120 M08/M12 A3031 720 71 -1800 140/09 RMK AO2 $
94908KDBQ DBQ20090224021011202/24/09 02:10:31  5-MIN KDBQ 240810Z AUTO 14008KT 10SM OVC120 M07/M12 A3032 710 71 -1800 140/08 RMK AO2 P0001 $
94908KDBQ DBQ20090224021511202/24/09 02:15:31  5-MIN KDBQ 240815Z AUTO 15008KT 10SM OVC120 M07/M12 A3032 710 71 -1800 150/08 RMK AO2 P0001 $
94908KDBQ DBQ20090224022011202/24/09 02:20:31  5-MIN KDBQ 240820Z AUTO 15009KT 10SM OVC120 M07/M12 A3031 720 71 -1800 150/09 RMK AO2 P0001 $
94908KDBQ DBQ20090224022511202/24/09 02:25:31  5-MIN KDBQ 240825Z AUTO 15007KT 10SM OVC120 M07/M12 A3031 720 71 -1800 150/07 RMK AO2 P0001 $
94908KDBQ DBQ20090224023011202/24/09 02:30:31  5-MIN KDBQ 240830Z AUTO 15007KT 10SM OVC120 M07/M12 A3031 720 71 -1800 150/07 RMK AO2 P0001 $
94908KDBQ DBQ20090224023511202/24/09 02:35:31  5-MIN KDBQ 240835Z AUTO 15005KT 10SM OVC120 M07/M12 A3030 720 71 -1800 150/05 RMK AO2 P0001 $
94908KDBQ DBQ20090224024011202/24/09 02:40:31  5-MIN KDBQ 240840Z AUTO 15006KT 10SM OVC120 M07/M12 A3030 730 71 -1800 150/06 RMK AO2 P0001 $
94908KDBQ DBQ20090224024511202/24/09 02:45:31  5-MIN KDBQ 240845Z AUTO 15009KT 10SM OVC120 M07/M12 A3029 730 71 -1800 150/09 RMK AO2 P0001 $
94908KDBQ DBQ20090224025014802/24/09 02:50:31  5-MIN KDBQ 240850Z AUTO 15008KT 10SM OVC120 M07/M12 A3029 740 71 -1700 150/08 RMK AO2 PRESFR SLP275 P0001 60002 T10721117 55015 $
94908KDBQ DBQ20090224025510602/24/09 02:55:31  5-MIN KDBQ 240855Z AUTO 15009KT 10SM OVC120 M07/M12 A3029 740 71 -1700 150/09 RMK AO2 $
94908KDBQ DBQ20090224030011002/24/09 03:00:31  5-MIN KDBQ 240900Z AUTO 15008KT 10SM OVC110 M07/M12 A3029 740 71 -1700 150/08 RMK AO2 PNO $
94908KDBQ DBQ20090224030510602/24/09 03:05:31  5-MIN KDBQ 240905Z AUTO 15010KT 10SM OVC110 M07/M12 A3029 740 71 -1700 150/10 RMK AO2 $
94908KDBQ DBQ20090224031010602/24/09 03:10:31  5-MIN KDBQ 240910Z AUTO 15010KT 10SM OVC110 M07/M12 A3028 740 71 -1700 150/10 RMK AO2 $
94908KDBQ DBQ20090224031510602/24/09 03:15:31  5-MIN KDBQ 240915Z AUTO 15009KT 10SM OVC110 M07/M12 A3028 750 71 -1700 150/09 RMK AO2 $
94908KDBQ DBQ20090224032011002/24/09 03:20:31  5-MIN KDBQ 240920Z AUTO 16011KT 10SM OVC110 M07/M12 A3028 750 71 -1700 150/11 RMK AO2 PNO $
94908KDBQ DBQ20090224032510602/24/09 03:25:31  5-MIN KDBQ 240925Z AUTO 15011KT 10SM OVC110 M07/M12 A3028 750 68 -1700 150/11 RMK AO2 $
94908KDBQ DBQ20090224033010602/24/09 03:30:31  5-MIN KDBQ 240930Z AUTO 15010KT 10SM OVC110 M07/M11 A3027 760 71 -1700 150/10 RMK AO2 $
94908KDBQ DBQ20090224033510602/24/09 03:35:31  5-MIN KDBQ 240935Z AUTO 15011KT 10SM OVC120 M07/M11 A3026 760 71 -1600 150/11 RMK AO2 $
94908KDBQ DBQ20090224034010602/24/09 03:40:31  5-MIN KDBQ 240940Z AUTO 15010KT 10SM OVC120 M07/M11 A3026 760 71 -1600 150/10 RMK AO2 $
94908KDBQ DBQ20090224034511202/24/09 03:45:31  5-MIN KDBQ 240945Z AUTO 15011G18KT 10SM BKN120 M07/M11 A3026 760 71 -1600 150/11G18 RMK AO2 $
94908KDBQ DBQ20090224035012902/24/09 03:50:31  5-MIN KDBQ 240950Z AUTO 15011G18KT 10SM OVC120 M07/M11 A3026 760 71 -1600 150/11G18 RMK AO2 SLP266 T10671111 $
94908KDBQ DBQ20090224035510602/24/09 03:55:31  5-MIN KDBQ 240955Z AUTO 15012KT 10SM OVC120 M07/M11 A3026 770 71 -1600 150/12 RMK AO2 $
94908KDBQ DBQ20090224040010602/24/09 04:00:31  5-MIN KDBQ 241000Z AUTO 15012KT 10SM OVC110 M07/M11 A3026 770 71 -1600 150/12 RMK AO2 $
94908KDBQ DBQ20090224040510602/24/09 04:05:31  5-MIN KDBQ 241005Z AUTO 15012KT 10SM OVC110 M07/M11 A3026 770 71 -1600 150/12 RMK AO2 $
94908KDBQ DBQ20090224041011602/24/09 04:10:31  5-MIN KDBQ 241010Z AUTO 15012G17KT 10SM OVC110 M07/M11 A3026 770 71 -1600 150/12G17 RMK AO2 PNO $
94908KDBQ DBQ20090224041511202/24/09 04:15:31  5-MIN KDBQ 241015Z AUTO 15012G17KT 10SM OVC110 M07/M11 A3025 770 71 -1600 150/12G17 RMK AO2 $
94908KDBQ DBQ20090224042010602/24/09 04:20:31  5-MIN KDBQ 241020Z AUTO 15012KT 10SM OVC110 M07/M11 A3025 770 71 -1600 150/12 RMK AO2 $
94908KDBQ DBQ20090224042511202/24/09 04:25:31  5-MIN KDBQ 241025Z AUTO 15011G19KT 10SM OVC110 M07/M11 A3025 780 71 -1600 150/11G19 RMK AO2 $
94908KDBQ DBQ20090224043011202/24/09 04:30:31  5-MIN KDBQ 241030Z AUTO 15010G19KT 10SM OVC110 M07/M11 A3025 780 71 -1600 150/10G19 RMK AO2 $
94908KDBQ DBQ20090224043510602/24/09 04:35:31  5-MIN KDBQ 241035Z AUTO 15011KT 10SM OVC110 M07/M11 A3025 780 74 -1600 150/11 RMK AO2 $
94908KDBQ DBQ20090224044010602/24/09 04:40:31  5-MIN KDBQ 241040Z AUTO 16012KT 10SM OVC110 M07/M11 A3024 780 71 -1600 160/12 RMK AO2 $
94908KDBQ DBQ20090224044510602/24/09 04:45:31  5-MIN KDBQ 241045Z AUTO 16010KT 10SM OVC120 M07/M11 A3024 780 74 -1600 160/10 RMK AO2 $
94908KDBQ DBQ20090224045012702/24/09 04:50:31  5-MIN KDBQ 241050Z AUTO 16009KT 10SM OVC120 M07/M11 A3024 780 74 -1600 160/09 RMK AO2 SLP259 T10671106 PNO $
94908KDBQ DBQ20090224045511202/24/09 04:55:31  5-MIN KDBQ 241055Z AUTO 16010G16KT 10SM OVC120 M07/M11 A3024 780 74 -1600 160/10G16 RMK AO2 $
94908KDBQ DBQ20090224050010602/24/09 05:00:31  5-MIN KDBQ 241100Z AUTO 16010KT 10SM BKN120 M07/M11 A3024 780 74 -1600 160/10 RMK AO2 $
94908KDBQ DBQ20090224050510602/24/09 05:05:31  5-MIN KDBQ 241105Z AUTO 16012KT 10SM BKN120 M07/M11 A3024 790 74 -1600 160/12 RMK AO2 $
94908KDBQ DBQ20090224051011002/24/09 05:10:31  5-MIN KDBQ 241110Z AUTO 16011KT 10SM BKN120 M07/M11 A3024 790 74 -1600 160/11 RMK AO2 PNO $
94908KDBQ DBQ20090224051511202/24/09 05:15:31  5-MIN KDBQ 241115Z AUTO 16014G19KT 10SM BKN120 M07/M11 A3023 790 74 -1600 150/14G19 RMK AO2 $
94908KDBQ DBQ20090224052011202/24/09 05:20:31  5-MIN KDBQ 241120Z AUTO 16013G20KT 10SM BKN120 M07/M11 A3023 790 74 -1600 160/13G20 RMK AO2 $
94908KDBQ DBQ20090224052510602/24/09 05:25:31  5-MIN KDBQ 241125Z AUTO 16015KT 10SM BKN120 M07/M11 A3023 800 74 -1600 160/15 RMK AO2 $
94908KDBQ DBQ20090224053010602/24/09 05:30:31  5-MIN KDBQ 241130Z AUTO 16013KT 10SM BKN120 M07/M11 A3022 800 74 -1600 160/13 RMK AO2 $
94908KDBQ DBQ20090224053510602/24/09 05:35:31  5-MIN KDBQ 241135Z AUTO 16014KT 10SM SCT120 M06/M11 A3022 800 71 -1500 150/14 RMK AO2 $
94908KDBQ DBQ20090224054010602/24/09 05:40:31  5-MIN KDBQ 241140Z AUTO 16012KT 10SM FEW120 M06/M11 A3022 800 71 -1500 160/12 RMK AO2 $
94908KDBQ DBQ20090224054511202/24/09 05:45:31  5-MIN KDBQ 241145Z AUTO 16014G20KT 10SM FEW120 M06/M10 A3022 810 74 -1500 160/14G20 RMK AO2 $
94908KDBQ DBQ20090224055014802/24/09 05:50:31  5-MIN KDBQ 241150Z 15017KT 10SM FEW120 M06/M10 A3021 810 74 -1500 150/17 RMK AO2 SLP249 60002 7//// T10611100 11061 21083 58018 $
94908KDBQ DBQ20090224055509802/24/09 05:55:31  5-MIN KDBQ 241155Z 16017KT 10SM CLR M06/M10 A3021 810 74 -1500 150/17 RMK AO2 $
94908KDBQ DBQ20090224060009802/24/09 06:00:31  5-MIN KDBQ 241200Z 16015KT 10SM CLR M06/M10 A3021 810 74 -1500 160/15 RMK AO2 $
94908KDBQ DBQ20090224060509802/24/09 06:05:31  5-MIN KDBQ 241205Z 16014KT 10SM CLR M06/M10 A3021 810 74 -1500 160/14 RMK AO2 $
94908KDBQ DBQ20090224061009802/24/09 06:10:31  5-MIN KDBQ 241210Z 16013KT 10SM CLR M06/M10 A3021 810 74 -1500 160/13 RMK AO2 $
94908KDBQ DBQ20090224061510402/24/09 06:15:31  5-MIN KDBQ 241215Z 16014G21KT 10SM CLR M06/M10 A3021 810 71 -1400 160/14G21 RMK AO2 $
94908KDBQ DBQ20090224062010402/24/09 06:20:31  5-MIN KDBQ 241220Z 16013G21KT 10SM CLR M06/M09 A3021 820 74 -1400 160/13G21 RMK AO2 $
94908KDBQ DBQ20090224062510402/24/09 06:25:31  5-MIN KDBQ 241225Z 17015G20KT 10SM CLR M06/M09 A3020 820 74 -1400 160/15G20 RMK AO2 $
94908KDBQ DBQ20090224063010402/24/09 06:30:31  5-MIN KDBQ 241230Z 16016G20KT 10SM CLR M06/M09 A3020 820 74 -1400 160/16G20 RMK AO2 $
94908KDBQ DBQ20090224063509802/24/09 06:35:31  5-MIN KDBQ 241235Z 16017KT 10SM CLR M06/M09 A3020 820 74 -1400 160/17 RMK AO2 $
94908KDBQ DBQ20090224064010402/24/09 06:40:31  5-MIN KDBQ 241240Z 16016G22KT 10SM CLR M06/M09 A3019 830 74 -1400 160/16G22 RMK AO2 $
94908KDBQ DBQ20090224064510402/24/09 06:45:31  5-MIN KDBQ 241245Z 16015G22KT 10SM CLR M06/M09 A3020 820 74 -1400 160/15G22 RMK AO2 $
94908KDBQ DBQ20090224065011502/24/09 06:50:31  5-MIN KDBQ 241250Z 16016KT 10SM CLR M06/M09 A3020 820 74 -1400 160/16 RMK AO2 SLP244 T10561094 $
94908KDBQ DBQ20090224065510402/24/09 06:55:31  5-MIN KDBQ 241255Z 17015G20KT 10SM CLR M06/M09 A3020 820 74 -1400 160/15G20 RMK AO2 $
94908KDBQ DBQ20090224070010402/24/09 07:00:31  5-MIN KDBQ 241300Z 17014G20KT 10SM CLR M06/M09 A3019 830 74 -1400 160/14G20 RMK AO2 $
94908KDBQ DBQ20090224070509802/24/09 07:05:31  5-MIN KDBQ 241305Z 16015KT 10SM CLR M06/M09 A3019 830 74 -1400 160/15 RMK AO2 $
94908KDBQ DBQ20090224071010402/24/09 07:10:31  5-MIN KDBQ 241310Z 16016G21KT 10SM CLR M06/M09 A3018 840 74 -1400 160/16G21 RMK AO2 $
94908KDBQ DBQ20090224071510402/24/09 07:15:31  5-MIN KDBQ 241315Z 17014G21KT 10SM CLR M06/M09 A3019 830 77 -1400 170/14G21 RMK AO2 $
94908KDBQ DBQ20090224072010402/24/09 07:20:31  5-MIN KDBQ 241320Z 17013G20KT 10SM CLR M06/M09 A3019 830 77 -1400 170/13G20 RMK AO2 $
94908KDBQ DBQ20090224072510402/24/09 07:25:31  5-MIN KDBQ 241325Z 17015G21KT 10SM CLR M05/M09 A3018 830 74 -1300 160/15G21 RMK AO2 $
94908KDBQ DBQ20090224073009802/24/09 07:30:31  5-MIN KDBQ 241330Z 17016KT 10SM CLR M05/M09 A3018 840 74 -1300 160/16 RMK AO2 $
94908KDBQ DBQ20090224073510402/24/09 07:35:31  5-MIN KDBQ 241335Z 17018G23KT 10SM CLR M05/M09 A3018 840 74 -1300 170/18G23 RMK AO2 $
94908KDBQ DBQ20090224074010402/24/09 07:40:31  5-MIN KDBQ 241340Z 17016G23KT 10SM CLR M05/M09 A3018 840 74 -1300 170/16G23 RMK AO2 $
94908KDBQ DBQ20090224074510402/24/09 07:45:31  5-MIN KDBQ 241345Z 17016G21KT 10SM CLR M05/M09 A3018 840 74 -1300 170/16G21 RMK AO2 $
94908KDBQ DBQ20090224075012102/24/09 07:50:31  5-MIN KDBQ 241350Z 17013G21KT 10SM CLR M05/M09 A3018 830 74 -1300 170/13G21 RMK AO2 SLP240 T10501089 $
94908KDBQ DBQ20090224075509802/24/09 07:55:31  5-MIN KDBQ 241355Z 17014KT 10SM CLR M05/M09 A3018 840 74 -1300 170/14 RMK AO2 $
94908KDBQ DBQ20090224080009802/24/09 08:00:31  5-MIN KDBQ 241400Z 17016KT 10SM CLR M04/M08 A3018 840 74 -1300 170/16 RMK AO2 $
94908KDBQ DBQ20090224080509802/24/09 08:05:31  5-MIN KDBQ 241405Z 17016KT 10SM CLR M04/M08 A3018 840 74 -1300 170/16 RMK AO2 $
94908KDBQ DBQ20090224081009802/24/09 08:10:31  5-MIN KDBQ 241410Z 17015KT 10SM CLR M04/M08 A3018 840 74 -1300 170/15 RMK AO2 $
94908KDBQ DBQ20090224081509802/24/09 08:15:31  5-MIN KDBQ 241415Z 17013KT 10SM CLR M04/M08 A3018 840 74 -1300 170/13 RMK AO2 $
94908KDBQ DBQ20090224082009802/24/09 08:20:31  5-MIN KDBQ 241420Z 17016KT 10SM CLR M04/M08 A3018 840 74 -1300 170/16 RMK AO2 $
94908KDBQ DBQ20090224082509802/24/09 08:25:31  5-MIN KDBQ 241425Z 17015KT 10SM CLR M04/M08 A3018 840 74 -1300 170/15 RMK AO2 $
94908KDBQ DBQ20090224083010402/24/09 08:30:31  5-MIN KDBQ 241430Z 17015G20KT 10SM CLR M04/M08 A3018 840 74 -1300 170/15G20 RMK AO2 $
94908KDBQ DBQ20090224083509802/24/09 08:35:31  5-MIN KDBQ 241435Z 17013KT 10SM CLR M04/M08 A3018 840 74 -1200 170/13 RMK AO2 $
94908KDBQ DBQ20090224084010402/24/09 08:40:31  5-MIN KDBQ 241440Z 17014G19KT 10SM CLR M04/M08 A3018 840 74 -1200 170/14G19 RMK AO2 $
94908KDBQ DBQ20090224084510402/24/09 08:45:31  5-MIN KDBQ 241445Z 17012G19KT 10SM CLR M04/M08 A3018 840 74 -1200 170/12G19 RMK AO2 $
94908KDBQ DBQ20090224085012702/24/09 08:50:31  5-MIN KDBQ 241450Z 17014G19KT 10SM CLR M04/M08 A3018 840 74 -1200 170/14G19 RMK AO2 SLP237 T10391078 58026 $
94908KDBQ DBQ20090224085509802/24/09 08:55:31  5-MIN KDBQ 241455Z 17015KT 10SM CLR M04/M08 A3018 840 74 -1200 170/15 RMK AO2 $
94908KDBQ DBQ20090224090010402/24/09 09:00:31  5-MIN KDBQ 241500Z 17013G19KT 10SM CLR M03/M08 A3017 840 71 -1100 170/13G19 RMK AO2 $
94908KDBQ DBQ20090224090510402/24/09 09:05:31  5-MIN KDBQ 241505Z 17015G22KT 10SM CLR M03/M08 A3017 850 71 -1100 170/15G22 RMK AO2 $
94908KDBQ DBQ20090224091010402/24/09 09:10:31  5-MIN KDBQ 241510Z 17014G22KT 10SM CLR M03/M07 A3017 850 74 -1100 170/14G22 RMK AO2 $
94908KDBQ DBQ20090224091509802/24/09 09:15:31  5-MIN KDBQ 241515Z 17015KT 10SM CLR M03/M07 A3017 850 74 -1100 170/15 RMK AO2 $
94908KDBQ DBQ20090224092009802/24/09 09:20:31  5-MIN KDBQ 241520Z 17016KT 10SM CLR M03/M07 A3017 850 71 -1000 170/16 RMK AO2 $
94908KDBQ DBQ20090224092510402/24/09 09:25:31  5-MIN KDBQ 241525Z 17014G20KT 10SM CLR M03/M07 A3017 850 71 -1000 170/14G20 RMK AO2 $
94908KDBQ DBQ20090224093009802/24/09 09:30:31  5-MIN KDBQ 241530Z 17013KT 10SM CLR M03/M07 A3017 850 75 -1000 170/13 RMK AO2 $
94908KDBQ DBQ20090224093509802/24/09 09:35:31  5-MIN KDBQ 241535Z 17016KT 10SM CLR M03/M07 A3017 850 71 -1000 170/16 RMK AO2 $
94908KDBQ DBQ20090224094009802/24/09 09:40:31  5-MIN KDBQ 241540Z 17014KT 10SM CLR M03/M07 A3016 850 75 -1000 170/14 RMK AO2 $
94908KDBQ DBQ20090224094510402/24/09 09:45:31  5-MIN KDBQ 241545Z 17014G20KT 10SM CLR M02/M07 A3016 860 72 -1000 170/14G20 RMK AO2 $
94908KDBQ DBQ20090224095012102/24/09 09:50:31  5-MIN KDBQ 241550Z 17015G20KT 10SM CLR M02/M07 A3016 850 72 -1000 170/15G20 RMK AO2 SLP231 T10221067 $
94908KDBQ DBQ20090224095510702/24/09 09:55:31  5-MIN KDBQ 241555Z 17013G20KT 10SM FEW120 M02/M07 A3016 850 72 -1000 170/13G20 RMK AO2 $
94908KDBQ DBQ20090224100010002/24/09 10:00:31  5-MIN KDBQ 241600Z 17013KT 10SM FEW120 M02/M07 A3016 850 69 -900 170/13 RMK AO2 $
94908KDBQ DBQ20090224100510002/24/09 10:05:31  5-MIN KDBQ 241605Z 17016KT 10SM SCT120 M02/M06 A3016 850 72 -900 170/16 RMK AO2 $
94908KDBQ DBQ20090224101010002/24/09 10:10:31  5-MIN KDBQ 241610Z 17014KT 10SM SCT120 M02/M07 A3016 850 69 -900 170/14 RMK AO2 $
94908KDBQ DBQ20090224101510002/24/09 10:15:31  5-MIN KDBQ 241615Z 17014KT 10SM FEW120 M02/M07 A3016 860 69 -900 170/14 RMK AO2 $
94908KDBQ DBQ20090224102009702/24/09 10:20:31  5-MIN KDBQ 241620Z 17014KT 10SM CLR M01/M07 A3016 860 66 -800 170/14 RMK AO2 $
94908KDBQ DBQ20090224102510002/24/09 10:25:31  5-MIN KDBQ 241625Z 18014KT 10SM SCT120 M01/M06 A3016 860 69 -800 180/14 RMK AO2 $
94908KDBQ DBQ20090224103009702/24/09 10:30:31  5-MIN KDBQ 241630Z 17014KT 10SM CLR M01/M06 A3015 860 66 -700 170/14 RMK AO2 $
94908KDBQ DBQ20090224103510002/24/09 10:35:31  5-MIN KDBQ 241635Z 17015KT 10SM SCT120 M01/M06 A3015 870 66 -700 170/15 RMK AO2 $
94908KDBQ DBQ20090224104010002/24/09 10:40:31  5-MIN KDBQ 241640Z 17014KT 10SM SCT120 M01/M06 A3015 870 66 -700 170/14 RMK AO2 $
94908KDBQ DBQ20090224104510002/24/09 10:45:31  5-MIN KDBQ 241645Z 17013KT 10SM SCT120 M01/M06 A3015 870 69 -700 170/13 RMK AO2 $
94908KDBQ DBQ20090224105011602/24/09 10:50:31  5-MIN KDBQ 241650Z 18014KT 10SM SCT120 00/M06 A3015 870 63 -700 180/14 RMK AO2 SLP226 T00001061 $
94908KDBQ DBQ20090224105510502/24/09 10:55:31  5-MIN KDBQ 241655Z 17015G20KT 10SM FEW120 00/M06 A3015 870 66 -700 170/15G20 RMK AO2 $
94908KDBQ DBQ20090224110010502/24/09 11:00:31  5-MIN KDBQ 241700Z 17016G20KT 10SM FEW120 00/M06 A3014 870 63 -700 170/16G20 RMK AO2 $
94908KDBQ DBQ20090224110509902/24/09 11:05:31  5-MIN KDBQ 241705Z 17014KT 10SM FEW120 00/M06 A3014 870 66 -700 170/14 RMK AO2 $
94908KDBQ DBQ20090224111009902/24/09 11:10:31  5-MIN KDBQ 241710Z 17015KT 10SM FEW120 01/M06 A3014 870 63 -600 170/15 RMK AO2 $
94908KDBQ DBQ20090224111509602/24/09 11:15:31  5-MIN KDBQ 241715Z 17016KT 10SM CLR 01/M06 A3014 880 63 -600 170/16 RMK AO2 $
94908KDBQ DBQ20090224112010202/24/09 11:20:31  5-MIN KDBQ 241720Z 18013G21KT 10SM CLR 01/M06 A3014 880 63 -600 180/13G21 RMK AO2 $
94908KDBQ DBQ20090224112510202/24/09 11:25:31  5-MIN KDBQ 241725Z 17015KT 10SM CLR 01/M06 A3014 880 63 -600 170/15 RMK AO2 P0001 $
94908KDBQ DBQ20090224113010802/24/09 11:30:31  5-MIN KDBQ 241730Z 18017G20KT 10SM CLR 01/M06 A3014 880 63 -600 180/17G20 RMK AO2 P0001 $
94908KDBQ DBQ20090224113510202/24/09 11:35:31  5-MIN KDBQ 241735Z 18017KT 10SM CLR 01/M06 A3013 880 63 -600 180/17 RMK AO2 P0001 $
94908KDBQ DBQ20090224114010202/24/09 11:40:31  5-MIN KDBQ 241740Z 18014KT 10SM CLR 01/M06 A3013 890 61 -500 180/14 RMK AO2 P0001 $
94908KDBQ DBQ20090224114510202/24/09 11:45:31  5-MIN KDBQ 241745Z 18015KT 10SM CLR 01/M06 A3013 890 61 -500 180/15 RMK AO2 P0001 $
94908KDBQ DBQ20090224115014302/24/09 11:50:31  5-MIN KDBQ 241750Z 17016KT 10SM CLR 01/M06 A3012 890 61 -500 170/16 RMK AO2 SLP216 P0001 60001 T00111056 10011 21061 56010 $
94908KDBQ DBQ20090224115509602/24/09 11:55:31  5-MIN KDBQ 241755Z 17017KT 10SM CLR 01/M05 A3012 890 64 -500 170/17 RMK AO2 $
94908KDBQ DBQ20090224120009602/24/09 12:00:31  5-MIN KDBQ 241800Z 18015KT 10SM CLR 01/M05 A3012 890 64 -500 180/15 RMK AO2 $
94908KDBQ DBQ20090224120509602/24/09 12:05:31  5-MIN KDBQ 241805Z 17017KT 10SM CLR 02/M05 A3012 890 61 -400 170/17 RMK AO2 $
94908KDBQ DBQ20090224121009602/24/09 12:10:31  5-MIN KDBQ 241810Z 18015KT 10SM CLR 02/M06 A3012 900 59 -400 180/15 RMK AO2 $
94908KDBQ DBQ20090224121509602/24/09 12:15:31  5-MIN KDBQ 241815Z 18015KT 10SM CLR 02/M05 A3012 900 61 -400 170/15 RMK AO2 $
94908KDBQ DBQ20090224122009602/24/09 12:20:31  5-MIN KDBQ 241820Z 17015KT 10SM CLR 02/M05 A3011 900 61 -400 170/15 RMK AO2 $
94908KDBQ DBQ20090224122509602/24/09 12:25:31  5-MIN KDBQ 241825Z 17016KT 10SM CLR 02/M05 A3011 900 61 -400 170/16 RMK AO2 $
94908KDBQ DBQ20090224123009602/24/09 12:30:31  5-MIN KDBQ 241830Z 17016KT 10SM CLR 02/M05 A3011 900 61 -400 170/16 RMK AO2 $
94908KDBQ DBQ20090224123510202/24/09 12:35:31  5-MIN KDBQ 241835Z 17018G22KT 10SM CLR 02/M05 A3010 910 61 -400 170/18G22 RMK AO2 $
94908KDBQ DBQ20090224124010202/24/09 12:40:31  5-MIN KDBQ 241840Z 17014G22KT 10SM CLR 02/M05 A3010 910 59 -300 170/14G22 RMK AO2 $
94908KDBQ DBQ20090224124510202/24/09 12:45:31  5-MIN KDBQ 241845Z 18015G21KT 10SM CLR 02/M05 A3010 910 59 -300 180/15G21 RMK AO2 $
94908KDBQ DBQ20090224125011902/24/09 12:50:31  5-MIN KDBQ 241850Z 18015G21KT 10SM CLR 02/M05 A3010 910 59 -300 180/15G21 RMK AO2 SLP207 T00221050 $
94908KDBQ DBQ20090224125510202/24/09 12:55:31  5-MIN KDBQ 241855Z 17014G19KT 10SM CLR 03/M04 A3010 920 61 -300 170/14G19 RMK AO2 $
94908KDBQ DBQ20090224130009602/24/09 13:00:31  5-MIN KDBQ 241900Z 17017KT 10SM CLR 03/M04 A3010 920 59 -300 170/17 RMK AO2 $
94908KDBQ DBQ20090224130509602/24/09 13:05:31  5-MIN KDBQ 241905Z 17016KT 10SM CLR 03/M04 A3010 920 59 -300 170/16 RMK AO2 $
94908KDBQ DBQ20090224131009602/24/09 13:10:31  5-MIN KDBQ 241910Z 17015KT 10SM CLR 03/M04 A3010 920 59 -300 170/15 RMK AO2 $
94908KDBQ DBQ20090224131509602/24/09 13:15:31  5-MIN KDBQ 241915Z 17016KT 10SM CLR 03/M04 A3009 920 59 -300 170/16 RMK AO2 $
94908KDBQ DBQ20090224132009602/24/09 13:20:31  5-MIN KDBQ 241920Z 16013KT 10SM CLR 03/M04 A3009 920 59 -300 160/13 RMK AO2 $
94908KDBQ DBQ20090224132509602/24/09 13:25:31  5-MIN KDBQ 241925Z 17016KT 10SM CLR 03/M04 A3009 920 59 -200 160/16 RMK AO2 $
94908KDBQ DBQ20090224133010202/24/09 13:30:31  5-MIN KDBQ 241930Z 17014G20KT 10SM CLR 03/M04 A3009 920 59 -300 170/14G20 RMK AO2 $
94908KDBQ DBQ20090224133509602/24/09 13:35:31  5-MIN KDBQ 241935Z 17012KT 10SM CLR 03/M04 A3009 920 59 -200 170/12 RMK AO2 $
94908KDBQ DBQ20090224134009602/24/09 13:40:31  5-MIN KDBQ 241940Z 17015KT 10SM CLR 03/M04 A3009 920 59 -200 170/15 RMK AO2 $
94908KDBQ DBQ20090224134509602/24/09 13:45:31  5-MIN KDBQ 241945Z 17015KT 10SM CLR 03/M04 A3009 920 59 -200 170/15 RMK AO2 $
94908KDBQ DBQ20090224135011302/24/09 13:50:31  5-MIN KDBQ 241950Z 18013KT 10SM CLR 03/M04 A3008 930 59 -200 180/13 RMK AO2 SLP202 T00331039 $
94908KDBQ DBQ20090224135509602/24/09 13:55:31  5-MIN KDBQ 241955Z 17012KT 10SM CLR 04/M03 A3008 930 59 -100 170/12 RMK AO2 $
94908KDBQ DBQ20090224140009602/24/09 14:00:31  5-MIN KDBQ 242000Z 18011KT 10SM CLR 04/M03 A3008 930 59 -100 180/11 RMK AO2 $
94908KDBQ DBQ20090224140509602/24/09 14:05:31  5-MIN KDBQ 242005Z 17012KT 10SM CLR 04/M04 A3008 930 57 -100 170/12 RMK AO2 $
94908KDBQ DBQ20090224141010202/24/09 14:10:31  5-MIN KDBQ 242010Z 17009G17KT 10SM CLR 04/M04 A3008 930 57 -100 170/09G17 RMK AO2 $
94908KDBQ DBQ20090224141510202/24/09 14:15:31  5-MIN KDBQ 242015Z 17013G17KT 10SM CLR 04/M04 A3008 930 57 -100 170/13G17 RMK AO2 $
94908KDBQ DBQ20090224142009602/24/09 14:20:31  5-MIN KDBQ 242020Z 17013KT 10SM CLR 04/M04 A3008 930 57 -100 160/13 RMK AO2 $
94908KDBQ DBQ20090224142509602/24/09 14:25:31  5-MIN KDBQ 242025Z 18012KT 10SM CLR 04/M04 A3008 930 57 -100 180/12 RMK AO2 $
94908KDBQ DBQ20090224143009602/24/09 14:30:31  5-MIN KDBQ 242030Z 17012KT 10SM CLR 04/M04 A3008 930 57 -100 170/12 RMK AO2 $
94908KDBQ DBQ20090224143509602/24/09 14:35:31  5-MIN KDBQ 242035Z 17013KT 10SM CLR 04/M04 A3007 940 57 -100 170/13 RMK AO2 $
94908KDBQ DBQ20090224144009602/24/09 14:40:31  5-MIN KDBQ 242040Z 17012KT 10SM CLR 04/M04 A3007 940 57 -100 170/12 RMK AO2 $
94908KDBQ DBQ20090224144509602/24/09 14:45:31  5-MIN KDBQ 242045Z 17013KT 10SM CLR 04/M04 A3007 940 57 -100 170/13 RMK AO2 $
94908KDBQ DBQ20090224145012402/24/09 14:50:31  5-MIN KDBQ 242050Z AUTO 17014KT 10SM CLR 04/M04 A3007 940 57 -100 170/14 RMK AO2 SLP196 T00391039 58017 $
94908KDBQ DBQ20090224145509602/24/09 14:55:31  5-MIN KDBQ 242055Z 17012KT 10SM CLR 04/M03 A3006 950 59 -100 170/12 RMK AO2 $
94908KDBQ DBQ20090224150009602/24/09 15:00:31  5-MIN KDBQ 242100Z 16012KT 10SM CLR 04/M04 A3006 950 57 -100 160/12 RMK AO2 $
94908KDBQ DBQ20090224150509602/24/09 15:05:31  5-MIN KDBQ 242105Z 17014KT 10SM CLR 04/M03 A3006 950 59 -100 170/14 RMK AO2 $
94908KDBQ DBQ20090224151009602/24/09 15:10:31  5-MIN KDBQ 242110Z 16014KT 10SM CLR 04/M04 A3006 950 57 -100 160/14 RMK AO2 $
94908KDBQ DBQ20090224151510202/24/09 15:15:31  5-MIN KDBQ 242115Z 16015G21KT 10SM CLR 04/M03 A3005 960 59 -100 160/15G21 RMK AO2 $
94908KDBQ DBQ20090224152010202/24/09 15:20:31  5-MIN KDBQ 242120Z 17015G21KT 10SM CLR 04/M04 A3005 960 57 -100 160/15G21 RMK AO2 $
94908KDBQ DBQ20090224152510202/24/09 15:25:31  5-MIN KDBQ 242125Z 17015G21KT 10SM CLR 04/M03 A3005 960 59 -100 170/15G21 RMK AO2 $
94908KDBQ DBQ20090224153009902/24/09 15:30:31  5-MIN KDBQ 242130Z 16012G20KT 10SM CLR 04/M03 A3005 960 57 0 160/12G20 RMK AO2 $
94908KDBQ DBQ20090224153509902/24/09 15:35:31  5-MIN KDBQ 242135Z 17014G20KT 10SM CLR 04/M03 A3005 960 59 0 170/14G20 RMK AO2 $
94908KDBQ DBQ20090224154009902/24/09 15:40:31  5-MIN KDBQ 242140Z 17015G19KT 10SM CLR 04/M03 A3005 960 57 0 160/15G19 RMK AO2 $
94908KDBQ DBQ20090224154509302/24/09 15:45:31  5-MIN KDBQ 242145Z 17014KT 10SM CLR 04/M03 A3004 960 57 0 170/14 RMK AO2 $
94908KDBQ DBQ20090224155011602/24/09 15:50:31  5-MIN KDBQ 242150Z 17016G20KT 10SM CLR 04/M03 A3004 970 57 0 170/16G20 RMK AO2 SLP186 T00441033 $
94908KDBQ DBQ20090224155509902/24/09 15:55:31  5-MIN KDBQ 242155Z 17014G21KT 10SM CLR 04/M03 A3004 960 57 0 170/14G21 RMK AO2 $
94908KDBQ DBQ20090224160009902/24/09 16:00:31  5-MIN KDBQ 242200Z 17014G21KT 10SM CLR 04/M03 A3004 960 57 0 170/14G21 RMK AO2 $
94908KDBQ DBQ20090224160509602/24/09 16:05:31  5-MIN KDBQ 242205Z 17014KT 10SM CLR 04/M03 A3004 960 59 -100 160/14 RMK AO2 $
94908KDBQ DBQ20090224161009602/24/09 16:10:31  5-MIN KDBQ 242210Z 17014KT 10SM CLR 04/M03 A3004 970 59 -100 170/14 RMK AO2 $
94908KDBQ DBQ20090224161510202/24/09 16:15:31  5-MIN KDBQ 242215Z 18011G19KT 10SM CLR 04/M03 A3004 960 59 -100 180/11G19 RMK AO2 $
94908KDBQ DBQ20090224162010802/24/09 16:20:31  5-MIN KDBQ 242220Z 18012G19KT 10SM CLR 04/M03 A3005 960 62 -100 170/12G19 RMK AO2 P0001 $
94908KDBQ DBQ20090224162510802/24/09 16:25:31  5-MIN KDBQ 242225Z 18012G19KT 10SM CLR 04/M03 A3005 960 62 -100 170/12G19 RMK AO2 P0001 $
94908KDBQ DBQ20090224163010802/24/09 16:30:31  5-MIN KDBQ 242230Z 17012G19KT 10SM CLR 04/M03 A3005 960 62 -100 170/12G19 RMK AO2 P0001 $
94908KDBQ DBQ20090224163510202/24/09 16:35:31  5-MIN KDBQ 242235Z 17012KT 10SM CLR 04/M03 A3005 960 59 -100 170/12 RMK AO2 P0001 $
94908KDBQ DBQ20090224164010202/24/09 16:40:31  5-MIN KDBQ 242240Z 17012KT 10SM CLR 04/M03 A3006 950 62 -100 170/12 RMK AO2 P0001 $
94908KDBQ DBQ20090224164510202/24/09 16:45:31  5-MIN KDBQ 242245Z 17011KT 10SM CLR 03/M03 A3005 960 64 -100 170/11 RMK AO2 P0001 $
94908KDBQ DBQ20090224165011902/24/09 16:50:31  5-MIN KDBQ 242250Z 17013KT 10SM CLR 03/M03 A3005 960 64 -100 170/13 RMK AO2 SLP189 P0001 T00331028 $
94908KDBQ DBQ20090224165509602/24/09 16:55:31  5-MIN KDBQ 242255Z 17012KT 10SM CLR 03/M03 A3005 960 64 -100 170/12 RMK AO2 $
94908KDBQ DBQ20090224170009602/24/09 17:00:31  5-MIN KDBQ 242300Z 17010KT 10SM CLR 03/M03 A3004 960 64 -100 160/10 RMK AO2 $
94908KDBQ DBQ20090224170509602/24/09 17:05:31  5-MIN KDBQ 242305Z 17009KT 10SM CLR 03/M03 A3005 960 64 -100 170/09 RMK AO2 $
94908KDBQ DBQ20090224171009602/24/09 17:10:31  5-MIN KDBQ 242310Z 17009KT 10SM CLR 03/M03 A3005 960 67 -200 160/09 RMK AO2 $
94908KDBQ DBQ20090224171509602/24/09 17:15:31  5-MIN KDBQ 242315Z 16009KT 10SM CLR 03/M03 A3005 960 67 -200 160/09 RMK AO2 $
94908KDBQ DBQ20090224172009602/24/09 17:20:31  5-MIN KDBQ 242320Z 16008KT 10SM CLR 03/M03 A3004 960 67 -200 160/08 RMK AO2 $
94908KDBQ DBQ20090224172509602/24/09 17:25:31  5-MIN KDBQ 242325Z 17009KT 10SM CLR 03/M03 A3004 960 67 -200 160/09 RMK AO2 $
94908KDBQ DBQ20090224173009602/24/09 17:30:31  5-MIN KDBQ 242330Z 16008KT 10SM CLR 03/M03 A3004 970 67 -200 160/08 RMK AO2 $
94908KDBQ DBQ20090224173509602/24/09 17:35:31  5-MIN KDBQ 242335Z 16009KT 10SM CLR 03/M03 A3004 970 67 -200 160/09 RMK AO2 $
94908KDBQ DBQ20090224174009602/24/09 17:40:31  5-MIN KDBQ 242340Z 17010KT 10SM CLR 02/M03 A3004 970 69 -300 160/10 RMK AO2 $
94908KDBQ DBQ20090224174509602/24/09 17:45:31  5-MIN KDBQ 242345Z 17010KT 10SM CLR 02/M03 A3004 970 69 -300 160/10 RMK AO2 $
94908KDBQ DBQ20090224175013702/24/09 17:50:31  5-MIN KDBQ 242350Z 17008KT 10SM CLR 02/M03 A3004 970 69 -300 170/08 RMK AO2 SLP187 60001 T00221028 10044 20011 56019 $
94908KDBQ DBQ20090224175509602/24/09 17:55:31  5-MIN KDBQ 242355Z 17009KT 10SM CLR 02/M03 A3004 960 69 -300 170/09 RMK AO2 $
94908KDBQ DBQ20090224180009602/24/09 18:00:31  5-MIN KDBQ 250000Z 16008KT 10SM CLR 02/M03 A3004 960 69 -300 160/08 RMK AO2 $
94908KDBQ DBQ20090224180510002/24/09 18:05:31  5-MIN KDBQ 250005Z 16008KT 10SM CLR 02/M03 A3004 970 72 -300 160/08 RMK AO2 PNO $
94908KDBQ DBQ20090224181009602/24/09 18:10:31  5-MIN KDBQ 250010Z 17009KT 10SM CLR 02/M03 A3004 970 67 -300 170/09 RMK AO2 $
94908KDBQ DBQ20090224181509602/24/09 18:15:31  5-MIN KDBQ 250015Z 17008KT 10SM CLR 02/M03 A3004 970 72 -300 170/08 RMK AO2 $
94908KDBQ DBQ20090224182009602/24/09 18:20:31  5-MIN KDBQ 250020Z 16008KT 10SM CLR 02/M03 A3004 970 72 -300 160/08 RMK AO2 $
94908KDBQ DBQ20090224182509602/24/09 18:25:31  5-MIN KDBQ 250025Z 16009KT 10SM CLR 02/M03 A3004 970 72 -300 160/09 RMK AO2 $
94908KDBQ DBQ20090224183009602/24/09 18:30:31  5-MIN KDBQ 250030Z 16009KT 10SM CLR 02/M03 A3004 970 72 -300 160/09 RMK AO2 $
94908KDBQ DBQ20090224183509602/24/09 18:35:31  5-MIN KDBQ 250035Z 16009KT 10SM CLR 02/M03 A3004 970 72 -300 160/09 RMK AO2 $
94908KDBQ DBQ20090224184009602/24/09 18:40:31  5-MIN KDBQ 250040Z 16010KT 10SM CLR 02/M03 A3004 970 72 -300 160/10 RMK AO2 $
94908KDBQ DBQ20090224184509602/24/09 18:45:31  5-MIN KDBQ 250045Z 16010KT 10SM CLR 02/M03 A3004 970 72 -300 160/10 RMK AO2 $
94908KDBQ DBQ20090224185011302/24/09 18:50:31  5-MIN KDBQ 250050Z 17010KT 10SM CLR 02/M03 A3004 970 72 -300 160/10 RMK AO2 SLP185 T00171028 $
94908KDBQ DBQ20090224185509602/24/09 18:55:31  5-MIN KDBQ 250055Z 17010KT 10SM CLR 02/M03 A3004 970 72 -300 160/10 RMK AO2 $
94908KDBQ DBQ20090224190009602/24/09 19:00:31  5-MIN KDBQ 250100Z 17010KT 10SM CLR 02/M03 A3004 970 72 -300 160/10 RMK AO2 $
94908KDBQ DBQ20090224190509602/24/09 19:05:31  5-MIN KDBQ 250105Z 17010KT 10SM CLR 02/M03 A3003 980 72 -300 170/10 RMK AO2 $
94908KDBQ DBQ20090224191009602/24/09 19:10:31  5-MIN KDBQ 250110Z 16011KT 10SM CLR 02/M03 A3003 980 72 -300 160/11 RMK AO2 $
94908KDBQ DBQ20090224191509602/24/09 19:15:31  5-MIN KDBQ 250115Z 16011KT 10SM CLR 01/M03 A3003 980 75 -400 160/11 RMK AO2 $
94908KDBQ DBQ20090224192009602/24/09 19:20:31  5-MIN KDBQ 250120Z 16011KT 10SM CLR 01/M03 A3002 980 75 -400 160/11 RMK AO2 $
94908KDBQ DBQ20090224192509602/24/09 19:25:31  5-MIN KDBQ 250125Z 16012KT 10SM CLR 01/M03 A3002 980 75 -400 160/12 RMK AO2 $
94908KDBQ DBQ20090224193009602/24/09 19:30:31  5-MIN KDBQ 250130Z 16011KT 10SM CLR 01/M03 A3002 990 75 -400 160/11 RMK AO2 $
94908KDBQ DBQ20090224193509602/24/09 19:35:31  5-MIN KDBQ 250135Z 16011KT 10SM CLR 01/M03 A3002 990 75 -400 160/11 RMK AO2 $
94908KDBQ DBQ20090224194009602/24/09 19:40:31  5-MIN KDBQ 250140Z 16012KT 10SM CLR 01/M03 A3002 990 75 -400 160/12 RMK AO2 $
94908KDBQ DBQ20090224194509602/24/09 19:45:31  5-MIN KDBQ 250145Z 16012KT 10SM CLR 02/M03 A3002 990 72 -300 160/12 RMK AO2 $
94908KDBQ DBQ20090224195011302/24/09 19:50:31  5-MIN KDBQ 250150Z 16011KT 10SM CLR 02/M03 A3002 990 69 -300 160/11 RMK AO2 SLP178 T00171033 $
94908KDBQ DBQ20090224195510102/24/09 19:55:31  5-MIN KDBQ 250155Z AUTO 16012KT 10SM CLR 02/M03 A3002 990 69 -300 160/12 RMK AO2 $
94908KDBQ DBQ20090224200010102/24/09 20:00:31  5-MIN KDBQ 250200Z AUTO 16013KT 10SM CLR 02/M03 A3001 990 69 -300 160/13 RMK AO2 $
94908KDBQ DBQ20090224200510102/24/09 20:05:31  5-MIN KDBQ 250205Z AUTO 16012KT 10SM CLR 01/M03 A3002 990 72 -400 160/12 RMK AO2 $
94908KDBQ DBQ20090224201010102/24/09 20:10:31  5-MIN KDBQ 250210Z AUTO 16011KT 10SM CLR 01/M03 A3002 990 72 -400 160/11 RMK AO2 $
94908KDBQ DBQ20090224201510102/24/09 20:15:31  5-MIN KDBQ 250215Z AUTO 16012KT 10SM CLR 01/M03 A3001 990 72 -400 160/12 RMK AO2 $
94908KDBQ DBQ20090224202010102/24/09 20:20:31  5-MIN KDBQ 250220Z AUTO 17012KT 10SM CLR 01/M03 A3001 990 72 -400 160/12 RMK AO2 $
94908KDBQ DBQ20090224202510102/24/09 20:25:31  5-MIN KDBQ 250225Z AUTO 17012KT 10SM CLR 01/M03 A3001 990 72 -400 170/12 RMK AO2 $
94908KDBQ DBQ20090224203010102/24/09 20:30:31  5-MIN KDBQ 250230Z AUTO 17013KT 10SM CLR 01/M03 A3001 990 72 -400 170/13 RMK AO2 $
94908KDBQ DBQ20090224203510402/24/09 20:35:31  5-MIN KDBQ 250235Z AUTO 17013KT 10SM FEW036 01/M03 A3001 990 72 -400 170/13 RMK AO2 $
94908KDBQ DBQ20090224204010402/24/09 20:40:31  5-MIN KDBQ 250240Z AUTO 17011KT 10SM FEW036 01/M03 A3001 990 72 -400 170/11 RMK AO2 $
94908KDBQ DBQ20090224204510402/24/09 20:45:31  5-MIN KDBQ 250245Z AUTO 17012KT 10SM FEW036 01/M03 A3001 990 72 -400 170/12 RMK AO2 $
94908KDBQ DBQ20090224205012702/24/09 20:50:31  5-MIN KDBQ 250250Z AUTO 17011KT 10SM FEW034 01/M03 A3001 990 72 -400 170/11 RMK AO2 SLP177 T00111033 56008 $
94908KDBQ DBQ20090224205510402/24/09 20:55:31  5-MIN KDBQ 250255Z AUTO 17011KT 10SM SCT034 01/M03 A3002 990 72 -400 170/11 RMK AO2 $
94908KDBQ DBQ20090224210010402/24/09 21:00:31  5-MIN KDBQ 250300Z AUTO 17010KT 10SM BKN034 01/M03 A3002 990 75 -400 170/10 RMK AO2 $
94908KDBQ DBQ20090224210510402/24/09 21:05:31  5-MIN KDBQ 250305Z AUTO 17011KT 10SM BKN034 01/M03 A3002 990 75 -400 170/11 RMK AO2 $
94908KDBQ DBQ20090224211010402/24/09 21:10:31  5-MIN KDBQ 250310Z AUTO 17011KT 10SM BKN034 01/M03 A3002 990 75 -400 170/11 RMK AO2 $
94908KDBQ DBQ20090224211510402/24/09 21:15:31  5-MIN KDBQ 250315Z AUTO 17010KT 10SM OVC034 01/M03 A3002 980 75 -400 170/10 RMK AO2 $
94908KDBQ DBQ20090224212010402/24/09 21:20:31  5-MIN KDBQ 250320Z AUTO 17011KT 10SM OVC034 01/M03 A3002 980 75 -400 170/11 RMK AO2 $
94908KDBQ DBQ20090224212510402/24/09 21:25:31  5-MIN KDBQ 250325Z AUTO 17011KT 10SM OVC034 01/M03 A3002 980 75 -400 170/11 RMK AO2 $
94908KDBQ DBQ20090224213010402/24/09 21:30:31  5-MIN KDBQ 250330Z AUTO 17011KT 10SM OVC034 01/M03 A3002 980 75 -400 170/11 RMK AO2 $
94908KDBQ DBQ20090224213511002/24/09 21:35:31  5-MIN KDBQ 250335Z AUTO 17010KT 10SM OVC032 01/M03 A3002 980 75 -400 170/10 RMK AO2 P0001 $
94908KDBQ DBQ20090224214011002/24/09 21:40:31  5-MIN KDBQ 250340Z AUTO 17010KT 10SM OVC032 01/M03 A3002 980 75 -400 170/10 RMK AO2 P0001 $
94908KDBQ DBQ20090224214511002/24/09 21:45:31  5-MIN KDBQ 250345Z AUTO 17011KT 10SM OVC032 01/M03 A3002 980 75 -400 170/11 RMK AO2 P0001 $
94908KDBQ DBQ20090224215012702/24/09 21:50:31  5-MIN KDBQ 250350Z AUTO 17013KT 10SM OVC030 01/M03 A3002 990 75 -400 170/13 RMK AO2 SLP177 P0001 T00111028 $
94908KDBQ DBQ20090224215510402/24/09 21:55:31  5-MIN KDBQ 250355Z AUTO 17014KT 10SM OVC030 01/M03 A3001 990 75 -400 160/14 RMK AO2 $
94908KDBQ DBQ20090224220010402/24/09 22:00:31  5-MIN KDBQ 250400Z AUTO 16013KT 10SM OVC030 02/M03 A3001 990 72 -300 160/13 RMK AO2 $
94908KDBQ DBQ20090224220510402/24/09 22:05:31  5-MIN KDBQ 250405Z AUTO 17012KT 10SM OVC030 02/M03 A3002 990 72 -300 170/12 RMK AO2 $
94908KDBQ DBQ20090224221010402/24/09 22:10:31  5-MIN KDBQ 250410Z AUTO 17011KT 10SM OVC030 02/M03 A3001 990 72 -300 160/11 RMK AO2 $
94908KDBQ DBQ20090224221510402/24/09 22:15:31  5-MIN KDBQ 250415Z AUTO 17010KT 10SM OVC030 02/M03 A3002 990 72 -300 170/10 RMK AO2 $
94908KDBQ DBQ20090224222010402/24/09 22:20:31  5-MIN KDBQ 250420Z AUTO 17010KT 10SM OVC030 02/M03 A3002 990 72 -300 170/10 RMK AO2 $
94908KDBQ DBQ20090224222510402/24/09 22:25:31  5-MIN KDBQ 250425Z AUTO 17011KT 10SM OVC030 02/M03 A3002 990 72 -300 170/11 RMK AO2 $
94908KDBQ DBQ20090224223010402/24/09 22:30:31  5-MIN KDBQ 250430Z AUTO 17011KT 10SM OVC030 02/M03 A3002 990 72 -300 170/11 RMK AO2 $
94908KDBQ DBQ20090224223510402/24/09 22:35:31  5-MIN KDBQ 250435Z AUTO 17010KT 10SM OVC030 02/M03 A3002 990 72 -300 170/10 RMK AO2 $
94908KDBQ DBQ20090224224010802/24/09 22:40:31  5-MIN KDBQ 250440Z AUTO 17011KT 10SM OVC030 02/M03 A3001 990 72 -300 170/11 RMK AO2 PNO $
94908KDBQ DBQ20090224224510502/24/09 22:45:31  5-MIN KDBQ 250445Z AUTO 17013KT 10SM OVC028 02/M03 A3001 1000 72 -300 170/13 RMK AO2 $
94908KDBQ DBQ20090224225012102/24/09 22:50:31  5-MIN KDBQ 250450Z AUTO 17013KT 10SM OVC028 02/M03 A3001 990 69 -200 170/13 RMK AO2 SLP174 T00221028 $
94908KDBQ DBQ20090224225510402/24/09 22:55:31  5-MIN KDBQ 250455Z AUTO 17014KT 10SM OVC028 02/M03 A3001 990 69 -200 170/14 RMK AO2 $
94908KDBQ DBQ20090224230010502/24/09 23:00:31  5-MIN KDBQ 250500Z AUTO 17014KT 10SM OVC028 02/M03 A3001 1000 69 -200 170/14 RMK AO2 $
94908KDBQ DBQ20090224230510502/24/09 23:05:31  5-MIN KDBQ 250505Z AUTO 17014KT 10SM OVC028 02/M03 A3001 1000 69 -200 170/14 RMK AO2 $
94908KDBQ DBQ20090224231010502/24/09 23:10:31  5-MIN KDBQ 250510Z AUTO 17014KT 10SM OVC028 02/M03 A3001 1000 69 -200 170/14 RMK AO2 $
94908KDBQ DBQ20090224231510502/24/09 23:15:31  5-MIN KDBQ 250515Z AUTO 17013KT 10SM OVC028 02/M03 A3001 1000 69 -200 170/13 RMK AO2 $
94908KDBQ DBQ20090224232010502/24/09 23:20:31  5-MIN KDBQ 250520Z AUTO 18013KT 10SM OVC028 02/M03 A3001 1000 69 -200 170/13 RMK AO2 $
94908KDBQ DBQ20090224232510502/24/09 23:25:31  5-MIN KDBQ 250525Z AUTO 18012KT 10SM OVC028 02/M03 A3001 1000 69 -200 180/12 RMK AO2 $
94908KDBQ DBQ20090224233010502/24/09 23:30:31  5-MIN KDBQ 250530Z AUTO 17013KT 10SM OVC030 02/M03 A3001 1000 69 -200 170/13 RMK AO2 $
94908KDBQ DBQ20090224233510502/24/09 23:35:31  5-MIN KDBQ 250535Z AUTO 17013KT 10SM OVC030 02/M03 A3001 1000 69 -200 170/13 RMK AO2 $
94908KDBQ DBQ20090224234010502/24/09 23:40:31  5-MIN KDBQ 250540Z AUTO 17012KT 10SM OVC030 02/M03 A3001 1000 69 -200 170/12 RMK AO2 $
94908KDBQ DBQ20090224234510502/24/09 23:45:31  5-MIN KDBQ 250545Z AUTO 17012KT 10SM OVC030 02/M03 A3001 1000 69 -200 170/12 RMK AO2 $
94908KDBQ DBQ20090224235015602/24/09 23:50:31  5-MIN KDBQ 250550Z AUTO 17011KT 10SM OVC030 02/M03 A3001 1000 69 -200 170/11 RMK AO2 SLP172 60001 T00221028 10022 20011 400441083 56009 $
94908KDBQ DBQ20090224235510502/24/09 23:55:31  5-MIN KDBQ 250555Z AUTO 17012KT 10SM OVC030 02/M03 A3000 1000 69 -200 170/12 RMK AO2 $
94908KDBQ DBQ20090225000010902/25/09 00:00:38  5-MIN KDBQ 250600Z AUTO 17012KT 10SM OVC030 02/M03 A3000 1000 69 -200 170/12 RMK AO2 PNO $
94908KDBQ DBQ20090225000510502/25/09 00:05:31  5-MIN KDBQ 250605Z AUTO 17012KT 10SM OVC030 02/M03 A3000 1000 69 -200 170/12 RMK AO2 $
94908KDBQ DBQ20090225001010502/25/09 00:10:31  5-MIN KDBQ 250610Z AUTO 17013KT 10SM OVC030 02/M03 A3000 1000 69 -200 170/13 RMK AO2 $
94908KDBQ DBQ20090225001510502/25/09 00:15:32  5-MIN KDBQ 250615Z AUTO 17013KT 10SM OVC030 02/M03 A3000 1000 72 -300 170/13 RMK AO2 $
94908KDBQ DBQ20090225002010902/25/09 00:20:31  5-MIN KDBQ 250620Z AUTO 17010KT 10SM BKN030 02/M03 A3000 1000 72 -300 170/10 RMK AO2 PNO $
94908KDBQ DBQ20090225002510902/25/09 00:25:31  5-MIN KDBQ 250625Z AUTO 17010KT 10SM OVC032 02/M03 A3000 1000 72 -300 170/10 RMK AO2 PNO $
94908KDBQ DBQ20090225003010502/25/09 00:30:31  5-MIN KDBQ 250630Z AUTO 17010KT 10SM OVC032 02/M03 A3000 1000 72 -300 170/10 RMK AO2 $
94908KDBQ DBQ20090225003510502/25/09 00:35:31  5-MIN KDBQ 250635Z AUTO 17010KT 10SM OVC032 02/M03 A3000 1010 72 -300 170/10 RMK AO2 $
94908KDBQ DBQ20090225004010502/25/09 00:40:31  5-MIN KDBQ 250640Z AUTO 17010KT 10SM OVC034 02/M03 A3000 1000 72 -300 170/10 RMK AO2 $
94908KDBQ DBQ20090225004510502/25/09 00:45:31  5-MIN KDBQ 250645Z AUTO 17009KT 10SM OVC034 02/M03 A3000 1000 72 -300 170/09 RMK AO2 $
94908KDBQ DBQ20090225005012202/25/09 00:50:31  5-MIN KDBQ 250650Z AUTO 17010KT 10SM OVC034 02/M03 A3000 1000 72 -300 170/10 RMK AO2 SLP169 T00171028 $
94908KDBQ DBQ20090225005510502/25/09 00:55:31  5-MIN KDBQ 250655Z AUTO 18011KT 10SM OVC034 02/M03 A3000 1000 72 -300 180/11 RMK AO2 $
94908KDBQ DBQ20090225010010502/25/09 01:00:31  5-MIN KDBQ 250700Z AUTO 18011KT 10SM OVC034 02/M03 A3000 1010 69 -200 170/11 RMK AO2 $
94908KDBQ DBQ20090225010510502/25/09 01:05:31  5-MIN KDBQ 250705Z AUTO 17011KT 10SM OVC034 02/M03 A3000 1010 69 -200 170/11 RMK AO2 $
94908KDBQ DBQ20090225011010502/25/09 01:10:31  5-MIN KDBQ 250710Z AUTO 17011KT 10SM OVC034 02/M03 A3000 1010 72 -300 170/11 RMK AO2 $
94908KDBQ DBQ20090225011510502/25/09 01:15:31  5-MIN KDBQ 250715Z AUTO 17011KT 10SM OVC034 02/M03 A2999 1010 72 -300 170/11 RMK AO2 $
94908KDBQ DBQ20090225012010502/25/09 01:20:31  5-MIN KDBQ 250720Z AUTO 17011KT 10SM BKN034 02/M03 A2999 1010 72 -300 170/11 RMK AO2 $
94908KDBQ DBQ20090225012510502/25/09 01:25:31  5-MIN KDBQ 250725Z AUTO 18011KT 10SM BKN034 01/M03 A2999 1010 75 -300 180/11 RMK AO2 $
94908KDBQ DBQ20090225013010502/25/09 01:30:31  5-MIN KDBQ 250730Z AUTO 17011KT 10SM SCT034 01/M03 A2998 1020 75 -300 170/11 RMK AO2 $
94908KDBQ DBQ20090225013510502/25/09 01:35:31  5-MIN KDBQ 250735Z AUTO 17011KT 10SM FEW034 01/M03 A2998 1020 75 -300 170/11 RMK AO2 $
94908KDBQ DBQ20090225014010502/25/09 01:40:31  5-MIN KDBQ 250740Z AUTO 17011KT 10SM FEW034 01/M03 A2998 1020 75 -300 170/11 RMK AO2 $
94908KDBQ DBQ20090225014510202/25/09 01:45:31  5-MIN KDBQ 250745Z AUTO 18010KT 10SM CLR 01/M03 A2998 1020 72 -300 180/10 RMK AO2 $
94908KDBQ DBQ20090225015011902/25/09 01:50:31  5-MIN KDBQ 250750Z AUTO 18010KT 10SM CLR 01/M03 A2998 1020 72 -300 180/10 RMK AO2 SLP163 T00111033 $
94908KDBQ DBQ20090225015510202/25/09 01:55:31  5-MIN KDBQ 250755Z AUTO 18010KT 10SM CLR 01/M03 A2998 1020 72 -300 180/10 RMK AO2 $
94908KDBQ DBQ20090225020010202/25/09 02:00:31  5-MIN KDBQ 250800Z AUTO 18010KT 10SM CLR 01/M03 A2998 1020 72 -300 180/10 RMK AO2 $
94908KDBQ DBQ20090225020510202/25/09 02:05:31  5-MIN KDBQ 250805Z AUTO 18010KT 10SM CLR 01/M03 A2998 1020 75 -400 180/10 RMK AO2 $
94908KDBQ DBQ20090225021010502/25/09 02:10:31  5-MIN KDBQ 250810Z AUTO 18010KT 10SM FEW120 01/M03 A2998 1020 75 -400 180/10 RMK AO2 $
94908KDBQ DBQ20090225021510502/25/09 02:15:31  5-MIN KDBQ 250815Z AUTO 18010KT 10SM SCT120 01/M03 A2998 1030 75 -400 180/10 RMK AO2 $
94908KDBQ DBQ20090225022010502/25/09 02:20:31  5-MIN KDBQ 250820Z AUTO 18010KT 10SM SCT120 01/M03 A2997 1030 75 -400 180/10 RMK AO2 $
94908KDBQ DBQ20090225022510502/25/09 02:25:31  5-MIN KDBQ 250825Z AUTO 18010KT 10SM FEW120 01/M03 A2997 1030 75 -400 180/10 RMK AO2 $
94908KDBQ DBQ20090225023010502/25/09 02:30:31  5-MIN KDBQ 250830Z AUTO 18011KT 10SM FEW120 01/M03 A2997 1030 75 -400 180/11 RMK AO2 $
94908KDBQ DBQ20090225023510502/25/09 02:35:31  5-MIN KDBQ 250835Z AUTO 18010KT 10SM FEW120 01/M03 A2997 1040 75 -400 180/10 RMK AO2 $
94908KDBQ DBQ20090225024010502/25/09 02:40:31  5-MIN KDBQ 250840Z AUTO 18010KT 10SM FEW120 01/M03 A2997 1040 75 -400 180/10 RMK AO2 $
94908KDBQ DBQ20090225024510202/25/09 02:45:31  5-MIN KDBQ 250845Z AUTO 19009KT 10SM CLR 00/M03 A2997 1040 78 -500 190/09 RMK AO2 $
94908KDBQ DBQ20090225025012502/25/09 02:50:31  5-MIN KDBQ 250850Z AUTO 19010KT 10SM CLR 00/M03 A2997 1030 78 -500 190/10 RMK AO2 SLP158 T00001033 58002 $
94908KDBQ DBQ20090225025510202/25/09 02:55:31  5-MIN KDBQ 250855Z AUTO 19011KT 10SM CLR 01/M03 A2997 1030 75 -400 190/11 RMK AO2 $
94908KDBQ DBQ20090225030010202/25/09 03:00:31  5-MIN KDBQ 250900Z AUTO 19010KT 10SM CLR 01/M03 A2997 1030 75 -400 190/10 RMK AO2 $
94908KDBQ DBQ20090225030510202/25/09 03:05:31  5-MIN KDBQ 250905Z AUTO 19010KT 10SM CLR 00/M03 A2997 1030 78 -500 190/10 RMK AO2 $
94908KDBQ DBQ20090225031010202/25/09 03:10:31  5-MIN KDBQ 250910Z AUTO 19010KT 10SM CLR 01/M03 A2997 1030 75 -400 190/10 RMK AO2 $
94908KDBQ DBQ20090225031510202/25/09 03:15:31  5-MIN KDBQ 250915Z AUTO 19010KT 10SM CLR 00/M03 A2997 1030 78 -500 190/10 RMK AO2 $
94908KDBQ DBQ20090225032010202/25/09 03:20:31  5-MIN KDBQ 250920Z AUTO 19010KT 10SM CLR 00/M03 A2997 1030 78 -500 190/10 RMK AO2 $
94908KDBQ DBQ20090225032510202/25/09 03:25:31  5-MIN KDBQ 250925Z AUTO 19011KT 10SM CLR 00/M03 A2997 1030 78 -500 190/11 RMK AO2 $
94908KDBQ DBQ20090225033010202/25/09 03:30:31  5-MIN KDBQ 250930Z AUTO 19011KT 10SM CLR 00/M03 A2996 1040 78 -500 190/11 RMK AO2 $
94908KDBQ DBQ20090225033510202/25/09 03:35:31  5-MIN KDBQ 250935Z AUTO 19011KT 10SM CLR 00/M03 A2997 1040 78 -500 190/11 RMK AO2 $
94908KDBQ DBQ20090225034010202/25/09 03:40:31  5-MIN KDBQ 250940Z AUTO 19011KT 10SM CLR 00/M03 A2996 1040 78 -400 190/11 RMK AO2 $
94908KDBQ DBQ20090225034510202/25/09 03:45:31  5-MIN KDBQ 250945Z AUTO 19011KT 10SM CLR 00/M03 A2996 1040 78 -500 190/11 RMK AO2 $
94908KDBQ DBQ20090225035011902/25/09 03:50:31  5-MIN KDBQ 250950Z AUTO 18010KT 10SM CLR 00/M03 A2996 1040 78 -400 180/10 RMK AO2 SLP155 T00001033 $
94908KDBQ DBQ20090225035510202/25/09 03:55:31  5-MIN KDBQ 250955Z AUTO 19011KT 10SM CLR 00/M03 A2996 1040 78 -400 190/11 RMK AO2 $
94908KDBQ DBQ20090225040010202/25/09 04:00:31  5-MIN KDBQ 251000Z AUTO 18011KT 10SM CLR 00/M03 A2995 1050 78 -400 180/11 RMK AO2 $
94908KDBQ DBQ20090225040510202/25/09 04:05:31  5-MIN KDBQ 251005Z AUTO 19010KT 10SM CLR 00/M03 A2995 1050 78 -400 190/10 RMK AO2 $
94908KDBQ DBQ20090225041010202/25/09 04:10:31  5-MIN KDBQ 251010Z AUTO 19010KT 10SM CLR 00/M03 A2995 1050 78 -400 190/10 RMK AO2 $
94908KDBQ DBQ20090225041510202/25/09 04:15:31  5-MIN KDBQ 251015Z AUTO 19010KT 10SM CLR 00/M03 A2996 1040 78 -400 190/10 RMK AO2 $
94908KDBQ DBQ20090225042010202/25/09 04:20:31  5-MIN KDBQ 251020Z AUTO 19010KT 10SM CLR 00/M03 A2996 1050 78 -400 190/10 RMK AO2 $
94908KDBQ DBQ20090225042510202/25/09 04:25:31  5-MIN KDBQ 251025Z AUTO 19009KT 10SM CLR 00/M03 A2996 1040 78 -400 190/09 RMK AO2 $
94908KDBQ DBQ20090225043010202/25/09 04:30:31  5-MIN KDBQ 251030Z AUTO 19010KT 10SM CLR 00/M03 A2996 1050 78 -400 190/10 RMK AO2 $
94908KDBQ DBQ20090225043510502/25/09 04:35:31  5-MIN KDBQ 251035Z AUTO 19010KT 10SM FEW090 00/M03 A2995 1050 78 -400 190/10 RMK AO2 $
94908KDBQ DBQ20090225044011102/25/09 04:40:31  5-MIN KDBQ 251040Z AUTO 19010KT 10SM SCT090 00/M03 A2995 1050 78 -400 190/10 RMK AO2 P0001 $
94908KDBQ DBQ20090225044511102/25/09 04:45:31  5-MIN KDBQ 251045Z AUTO 19010KT 10SM BKN090 00/M03 A2995 1050 78 -400 190/10 RMK AO2 P0001 $
94908KDBQ DBQ20090225045012802/25/09 04:50:31  5-MIN KDBQ 251050Z AUTO 19010KT 10SM BKN090 00/M03 A2995 1050 78 -400 190/10 RMK AO2 SLP152 P0001 T00001033 $
94908KDBQ DBQ20090225045510502/25/09 04:55:31  5-MIN KDBQ 251055Z AUTO 19010KT 10SM SCT090 00/M03 A2995 1050 78 -400 190/10 RMK AO2 $
94908KDBQ DBQ20090225050010502/25/09 05:00:31  5-MIN KDBQ 251100Z AUTO 18011KT 10SM SCT090 00/M03 A2994 1060 78 -400 180/11 RMK AO2 $
94908KDBQ DBQ20090225050510502/25/09 05:05:31  5-MIN KDBQ 251105Z AUTO 18011KT 10SM SCT090 00/M03 A2994 1060 78 -400 180/11 RMK AO2 $
94908KDBQ DBQ20090225051010502/25/09 05:10:31  5-MIN KDBQ 251110Z AUTO 18010KT 10SM FEW090 00/M03 A2994 1060 78 -400 180/10 RMK AO2 $
94908KDBQ DBQ20090225051510502/25/09 05:15:31  5-MIN KDBQ 251115Z AUTO 17010KT 10SM FEW120 00/M03 A2993 1070 81 -400 170/10 RMK AO2 $
94908KDBQ DBQ20090225052010502/25/09 05:20:31  5-MIN KDBQ 251120Z AUTO 18012KT 10SM FEW120 00/M03 A2993 1070 81 -400 180/12 RMK AO2 $
94908KDBQ DBQ20090225052510502/25/09 05:25:31  5-MIN KDBQ 251125Z AUTO 18012KT 10SM FEW120 01/M03 A2992 1080 78 -300 180/12 RMK AO2 $
94908KDBQ DBQ20090225053010502/25/09 05:30:31  5-MIN KDBQ 251130Z AUTO 18011KT 10SM FEW120 01/M03 A2992 1080 78 -300 180/11 RMK AO2 $
94908KDBQ DBQ20090225053510502/25/09 05:35:31  5-MIN KDBQ 251135Z AUTO 18010KT 10SM FEW120 01/M03 A2992 1080 78 -300 180/10 RMK AO2 $
94908KDBQ DBQ20090225054010502/25/09 05:40:31  5-MIN KDBQ 251140Z AUTO 18010KT 10SM FEW120 01/M03 A2992 1080 78 -300 180/10 RMK AO2 $
94908KDBQ DBQ20090225054510502/25/09 05:45:31  5-MIN KDBQ 251145Z AUTO 17012KT 10SM SCT120 01/M03 A2991 1090 78 -300 170/12 RMK AO2 $
94908KDBQ DBQ20090225055015202/25/09 05:50:31  5-MIN KDBQ 251150Z AUTO 18011KT 10SM SCT110 01/M03 A2991 1090 78 -300 180/11 RMK AO2 SLP140 60001 70004 T00061028 10022 20000 58012 $
94908KDBQ DBQ20090225055510002/25/09 05:55:31  5-MIN KDBQ 251155Z 18011KT 10SM SCT110 01/M03 A2991 1090 78 -300 180/11 RMK AO2 $
94908KDBQ DBQ20090225060010002/25/09 06:00:31  5-MIN KDBQ 251200Z 19011KT 10SM SCT120 01/M03 A2992 1080 78 -300 190/11 RMK AO2 $
94908KDBQ DBQ20090225060510002/25/09 06:05:31  5-MIN KDBQ 251205Z 20012KT 10SM SCT120 01/M03 A2993 1070 78 -300 200/12 RMK AO2 $
94908KDBQ DBQ20090225061010002/25/09 06:10:31  5-MIN KDBQ 251210Z 19012KT 10SM FEW120 01/M03 A2992 1080 78 -300 190/12 RMK AO2 $
94908KDBQ DBQ20090225061510002/25/09 06:15:31  5-MIN KDBQ 251215Z 18013KT 10SM SCT110 01/M03 A2992 1080 75 -300 180/13 RMK AO2 $
94908KDBQ DBQ20090225062010002/25/09 06:20:31  5-MIN KDBQ 251220Z 19012KT 10SM BKN100 01/M02 A2992 1080 78 -300 190/12 RMK AO2 $
94908KDBQ DBQ20090225062510002/25/09 06:25:31  5-MIN KDBQ 251225Z 19011KT 10SM BKN100 01/M02 A2992 1080 78 -300 190/11 RMK AO2 $
94908KDBQ DBQ20090225063010002/25/09 06:30:31  5-MIN KDBQ 251230Z 19011KT 10SM BKN100 01/M02 A2991 1090 78 -300 190/11 RMK AO2 $
94908KDBQ DBQ20090225063510002/25/09 06:35:31  5-MIN KDBQ 251235Z 19012KT 10SM BKN100 01/M02 A2991 1090 78 -300 180/12 RMK AO2 $
94908KDBQ DBQ20090225064010002/25/09 06:40:31  5-MIN KDBQ 251240Z 18011KT 10SM OVC100 01/M02 A2991 1090 78 -200 180/11 RMK AO2 $
94908KDBQ DBQ20090225064510002/25/09 06:45:31  5-MIN KDBQ 251245Z 18010KT 10SM BKN095 01/M02 A2991 1090 78 -200 180/10 RMK AO2 $
94908KDBQ DBQ20090225065012302/25/09 06:50:31  5-MIN KDBQ 251250Z 18009KT 9SM BKN090 BKN110 01/M02 A2991 1090 78 -200 180/09 RMK AO2 SLP138 T00111022 $
94908KDBQ DBQ20090225065511302/25/09 06:55:31  5-MIN KDBQ 251255Z 18010KT 9SM FEW070 BKN090 OVC110 01/M02 A2990 1090 78 -200 180/10 RMK AO2 $
94908KDBQ DBQ20090225070011302/25/09 07:00:31  5-MIN KDBQ 251300Z 17012KT 9SM FEW070 BKN090 01/M02 A2989 1110 78 -200 170/12 RMK AO2 PRESFR $
94908KDBQ DBQ20090225070510602/25/09 07:05:31  5-MIN KDBQ 251305Z 18013KT 9SM BKN090 OVC110 01/M02 A2990 1100 78 -200 180/13 RMK AO2 $
94908KDBQ DBQ20090225071009902/25/09 07:10:31  5-MIN KDBQ 251310Z 18013KT 9SM OVC090 01/M02 A2989 1100 78 -200 180/13 RMK AO2 $
94908KDBQ DBQ20090225071509902/25/09 07:15:31  5-MIN KDBQ 251315Z 18012KT 9SM OVC085 01/M02 A2990 1100 82 -200 180/12 RMK AO2 $
94908KDBQ DBQ20090225072010602/25/09 07:20:31  5-MIN KDBQ 251320Z 19011KT 9SM BKN085 OVC110 01/M02 A2991 1090 82 -300 190/11 RMK AO2 $
94908KDBQ DBQ20090225072510602/25/09 07:25:31  5-MIN KDBQ 251325Z 19010KT 9SM BKN080 OVC095 01/M02 A2991 1080 82 -300 190/10 RMK AO2 $
94908KDBQ DBQ20090225073011302/25/09 07:30:31  5-MIN KDBQ 251330Z 20012KT 9SM BKN075 OVC090 02/M02 A2993 1070 78 -200 200/12 RMK AO2 PRESRR $
94908KDBQ DBQ20090225073512802/25/09 07:35:31  5-MIN KDBQ 251335Z 21011KT 8SM UP BKN070 OVC085 02/M02 A2993 1070 78 -200 210/11 RMK AO2 UPB33 PRESRR P0000 $
94908KDBQ DBQ20090225074011402/25/09 07:40:31  5-MIN KDBQ 251340Z 19011KT 8SM UP OVC075 02/M02 A2993 1070 78 -200 190/11 RMK AO2 UPB33 P0000 $
94908KDBQ DBQ20090225074511402/25/09 07:45:31  5-MIN KDBQ 251345Z 19011KT 9SM OVC075 02/M02 A2993 1070 78 -200 190/11 RMK AO2 UPB33E43 P0000 $
94908KDBQ DBQ20090225075013102/25/09 07:50:31  5-MIN KDBQ 251350Z 18011KT 9SM OVC070 02/M02 A2991 1080 78 -200 180/11 RMK AO2 UPB33E43 SLP141 P0000 T00171017 $
94908KDBQ DBQ20090225075510602/25/09 07:55:31  5-MIN KDBQ 251355Z 17011KT 8SM BKN070 02/M02 A2991 1090 78 -200 170/11 RMK AO2 PRESFR $
94908KDBQ DBQ20090225080010602/25/09 08:00:31  5-MIN KDBQ 251400Z 18010KT 8SM BKN070 BKN100 02/M02 A2991 1090 78 -200 180/10 RMK AO2 $
94908KDBQ DBQ20090225080510602/25/09 08:05:31  5-MIN KDBQ 251405Z 18011KT 9SM SCT070 BKN110 02/M01 A2991 1090 82 -200 180/11 RMK AO2 $
94908KDBQ DBQ20090225081011302/25/09 08:10:31  5-MIN KDBQ 251410Z 19013KT 9SM SCT070 BKN090 BKN110 02/M01 A2992 1080 82 -200 190/13 RMK AO2 $
94908KDBQ DBQ20090225081511302/25/09 08:15:31  5-MIN KDBQ 251415Z 19013KT 9SM FEW065 SCT085 BKN110 02/M01 A2991 1090 82 -200 190/13 RMK AO2 $
94908KDBQ DBQ20090225082010502/25/09 08:20:31  5-MIN KDBQ 251420Z 19013KT 9SM BKN100 02/M01 A2991 1080 78 -100 190/13 RMK AO2 P0001 $
94908KDBQ DBQ20090225082510602/25/09 08:25:31  5-MIN KDBQ 251425Z 19014KT 10SM BKN100 02/M01 A2991 1080 78 -100 190/14 RMK AO2 P0001 $
94908KDBQ DBQ20090225083010602/25/09 08:30:31  5-MIN KDBQ 251430Z 20015KT 10SM BKN100 02/M01 A2992 1080 78 -100 200/15 RMK AO2 P0001 $
94908KDBQ DBQ20090225083510602/25/09 08:35:31  5-MIN KDBQ 251435Z 20014KT 10SM BKN100 02/M01 A2991 1080 78 -100 200/14 RMK AO2 P0001 $
94908KDBQ DBQ20090225084010302/25/09 08:40:31  5-MIN KDBQ 251440Z 20014KT 10SM BKN100 03/M01 A2991 1080 75 0 200/14 RMK AO2 P0001 $
94908KDBQ DBQ20090225084510302/25/09 08:45:31  5-MIN KDBQ 251445Z 20015KT 10SM BKN100 03/M01 A2991 1080 76 0 200/15 RMK AO2 P0001 $
94908KDBQ DBQ20090225085013202/25/09 08:50:31  5-MIN KDBQ 251450Z 21014KT 10SM SCT100 03/M01 A2992 1080 75 0 210/14 RMK AO2 SLP140 P0001 6//// T00281011 58020 $
94908KDBQ DBQ20090225085510002/25/09 08:55:31  5-MIN KDBQ 251455Z 21014KT 10SM SCT095 03/M01 A2992 1080 75 -100 210/14 RMK AO2 $
94908KDBQ DBQ20090225090009702/25/09 09:00:31  5-MIN KDBQ 251500Z 21014KT 10SM SCT100 03/M01 A2993 1070 72 0 210/14 RMK AO2 $
94908KDBQ DBQ20090225090510402/25/09 09:05:31  5-MIN KDBQ 251505Z 21014KT 10SM BKN100 BKN110 03/M01 A2992 1080 76 0 210/14 RMK AO2 $
94908KDBQ DBQ20090225091009702/25/09 09:10:31  5-MIN KDBQ 251510Z 21014KT 10SM BKN100 03/M01 A2992 1080 72 0 210/14 RMK AO2 $
94908KDBQ DBQ20090225091509702/25/09 09:15:31  5-MIN KDBQ 251515Z 21016KT 10SM BKN100 03/M01 A2992 1080 76 0 210/16 RMK AO2 $
94908KDBQ DBQ20090225092009702/25/09 09:20:31  5-MIN KDBQ 251520Z 21015KT 10SM BKN100 03/M01 A2992 1080 76 0 210/15 RMK AO2 $
94908KDBQ DBQ20090225092509702/25/09 09:25:31  5-MIN KDBQ 251525Z 22013KT 10SM BKN100 03/M01 A2992 1080 76 0 220/13 RMK AO2 $
94908KDBQ DBQ20090225093009702/25/09 09:30:31  5-MIN KDBQ 251530Z 21012KT 10SM SCT100 04/M01 A2992 1080 73 0 210/12 RMK AO2 $
94908KDBQ DBQ20090225093509702/25/09 09:35:31  5-MIN KDBQ 251535Z 22014KT 10SM SCT100 04/M01 A2992 1080 73 0 220/14 RMK AO2 $
94908KDBQ DBQ20090225094009902/25/09 09:40:31  5-MIN KDBQ 251540Z 21011KT 10SM SCT100 04/M01 A2992 1080 70 100 210/11 RMK AO2 $
94908KDBQ DBQ20090225094509802/25/09 09:45:31  5-MIN KDBQ 251545Z 22013KT 10SM FEW100 04/00 A2992 1080 73 100 220/13 RMK AO2 $
94908KDBQ DBQ20090225095011502/25/09 09:50:31  5-MIN KDBQ 251550Z 22013KT 10SM FEW100 05/00 A2992 1080 70 200 210/13 RMK AO2 SLP142 T00500000 $
94908KDBQ DBQ20090225095509802/25/09 09:55:31  5-MIN KDBQ 251555Z 21013KT 10SM FEW100 05/00 A2992 1080 70 200 210/13 RMK AO2 $
94908KDBQ DBQ20090225100009802/25/09 10:00:31  5-MIN KDBQ 251600Z 22012KT 10SM FEW100 05/00 A2993 1070 70 200 220/12 RMK AO2 $
94908KDBQ DBQ20090225100509502/25/09 10:05:31  5-MIN KDBQ 251605Z 22010KT 10SM CLR 06/00 A2992 1070 67 200 220/10 RMK AO2 $
94908KDBQ DBQ20090225101009502/25/09 10:10:31  5-MIN KDBQ 251610Z 22011KT 10SM CLR 06/01 A2992 1080 70 200 220/11 RMK AO2 $
94908KDBQ DBQ20090225101509502/25/09 10:15:31  5-MIN KDBQ 251615Z 23014KT 10SM CLR 06/01 A2992 1070 70 200 230/14 RMK AO2 $
94908KDBQ DBQ20090225102009502/25/09 10:20:31  5-MIN KDBQ 251620Z 23013KT 10SM CLR 06/01 A2992 1080 70 200 230/13 RMK AO2 $
94908KDBQ DBQ20090225102509502/25/09 10:25:31  5-MIN KDBQ 251625Z 22012KT 10SM CLR 06/01 A2992 1080 67 300 220/12 RMK AO2 $
94908KDBQ DBQ20090225103009502/25/09 10:30:31  5-MIN KDBQ 251630Z 24015KT 10SM CLR 06/01 A2992 1080 70 300 230/15 RMK AO2 $
94908KDBQ DBQ20090225103509502/25/09 10:35:31  5-MIN KDBQ 251635Z 23013KT 10SM CLR 06/01 A2992 1080 67 300 230/13 RMK AO2 $
94908KDBQ DBQ20090225104010102/25/09 10:40:31  5-MIN KDBQ 251640Z 23014G21KT 10SM CLR 06/01 A2993 1070 70 200 220/14G21 RMK AO2 $
94908KDBQ DBQ20090225104510102/25/09 10:45:31  5-MIN KDBQ 251645Z 22013G21KT 10SM CLR 06/01 A2992 1080 67 300 220/13G21 RMK AO2 $
94908KDBQ DBQ20090225105011202/25/09 10:50:31  5-MIN KDBQ 251650Z 22013KT 10SM CLR 06/01 A2993 1070 70 300 220/13 RMK AO2 SLP142 T00610011 $
94908KDBQ DBQ20090225105509502/25/09 10:55:31  5-MIN KDBQ 251655Z 23015KT 10SM CLR 06/01 A2993 1070 70 300 230/15 RMK AO2 $
94908KDBQ DBQ20090225110009502/25/09 11:00:31  5-MIN KDBQ 251700Z 23014KT 10SM CLR 06/01 A2993 1070 70 300 230/14 RMK AO2 $
94908KDBQ DBQ20090225110509502/25/09 11:05:31  5-MIN KDBQ 251705Z 22013KT 10SM CLR 06/01 A2994 1060 70 300 220/13 RMK AO2 $
94908KDBQ DBQ20090225111009502/25/09 11:10:31  5-MIN KDBQ 251710Z 24013KT 10SM CLR 07/01 A2994 1060 67 400 240/13 RMK AO2 $
94908KDBQ DBQ20090225111509502/25/09 11:15:31  5-MIN KDBQ 251715Z 24012KT 10SM CLR 07/02 A2994 1060 70 400 240/12 RMK AO2 $
94908KDBQ DBQ20090225112009502/25/09 11:20:31  5-MIN KDBQ 251720Z 23013KT 10SM CLR 07/02 A2993 1070 70 400 230/13 RMK AO2 $
94908KDBQ DBQ20090225112509502/25/09 11:25:31  5-MIN KDBQ 251725Z 23012KT 10SM CLR 07/02 A2993 1070 70 400 230/12 RMK AO2 $
94908KDBQ DBQ20090225113009502/25/09 11:30:31  5-MIN KDBQ 251730Z 23014KT 10SM CLR 07/02 A2993 1070 68 400 230/14 RMK AO2 $
94908KDBQ DBQ20090225113509502/25/09 11:35:31  5-MIN KDBQ 251735Z 25013KT 10SM CLR 08/02 A2993 1070 68 500 250/13 RMK AO2 $
94908KDBQ DBQ20090225114009502/25/09 11:40:31  5-MIN KDBQ 251740Z 25014KT 10SM CLR 08/02 A2993 1070 68 500 250/14 RMK AO2 $
94908KDBQ DBQ20090225114509502/25/09 11:45:31  5-MIN KDBQ 251745Z 25013KT 10SM CLR 08/02 A2993 1060 68 500 250/13 RMK AO2 $
94908KDBQ DBQ20090225115013602/25/09 11:50:31  5-MIN KDBQ 251750Z 25013KT 10SM CLR 08/02 A2994 1060 68 500 250/13 RMK AO2 SLP146 6//// T00780022 10078 20006 53004 $
94908KDBQ DBQ20090225115509502/25/09 11:55:31  5-MIN KDBQ 251755Z 27013KT 10SM CLR 08/02 A2994 1060 68 500 260/13 RMK AO2 $
94908KDBQ DBQ20090225120009502/25/09 12:00:31  5-MIN KDBQ 251800Z 27014KT 10SM CLR 08/02 A2994 1060 65 600 270/14 RMK AO2 $
94908KDBQ DBQ20090225120509502/25/09 12:05:31  5-MIN KDBQ 251805Z 27013KT 10SM CLR 08/02 A2994 1060 65 600 260/13 RMK AO2 $
94908KDBQ DBQ20090225121010102/25/09 12:10:31  5-MIN KDBQ 251810Z 25014G20KT 10SM CLR 08/03 A2994 1060 68 500 250/14G20 RMK AO2 $
94908KDBQ DBQ20090225121509502/25/09 12:15:31  5-MIN KDBQ 251815Z 26013KT 10SM CLR 08/03 A2994 1060 68 500 260/13 RMK AO2 $
94908KDBQ DBQ20090225122009502/25/09 12:20:31  5-MIN KDBQ 251820Z 28013KT 10SM CLR 08/03 A2994 1060 68 500 280/13 RMK AO2 $
94908KDBQ DBQ20090225122509502/25/09 12:25:31  5-MIN KDBQ 251825Z 28012KT 10SM CLR 09/03 A2994 1060 68 600 280/12 RMK AO2 $
94908KDBQ DBQ20090225123009502/25/09 12:30:31  5-MIN KDBQ 251830Z 28010KT 10SM CLR 09/03 A2994 1060 65 600 270/10 RMK AO2 $
94908KDBQ DBQ20090225123509502/25/09 12:35:31  5-MIN KDBQ 251835Z 28014KT 10SM CLR 09/03 A2995 1050 68 600 270/14 RMK AO2 $
94908KDBQ DBQ20090225124009402/25/09 12:40:31  5-MIN KDBQ 251840Z 29013KT 9SM CLR 08/03 A2995 1050 68 500 290/13 RMK AO2 $
94908KDBQ DBQ20090225124509502/25/09 12:45:31  5-MIN KDBQ 251845Z 28012KT 10SM CLR 09/03 A2995 1050 65 600 280/12 RMK AO2 $
94908KDBQ DBQ20090225125011102/25/09 12:50:31  5-MIN KDBQ 251850Z 27012KT 9SM CLR 09/03 A2995 1050 68 600 270/12 RMK AO2 SLP149 T00890033 $
94908KDBQ DBQ20090225125509402/25/09 12:55:31  5-MIN KDBQ 251855Z 29013KT 9SM CLR 08/03 A2995 1050 68 500 280/13 RMK AO2 $
94908KDBQ DBQ20090225130009402/25/09 13:00:31  5-MIN KDBQ 251900Z 28011KT 9SM CLR 09/03 A2995 1050 68 600 280/11 RMK AO2 $
94908KDBQ DBQ20090225130509402/25/09 13:05:31  5-MIN KDBQ 251905Z 27012KT 9SM CLR 09/03 A2995 1050 68 600 270/12 RMK AO2 $
94908KDBQ DBQ20090225131009402/25/09 13:10:31  5-MIN KDBQ 251910Z 27012KT 9SM CLR 09/03 A2995 1050 68 600 270/12 RMK AO2 $
94908KDBQ DBQ20090225131509402/25/09 13:15:31  5-MIN KDBQ 251915Z 28010KT 9SM CLR 09/03 A2995 1050 68 600 280/10 RMK AO2 $
94908KDBQ DBQ20090225132009402/25/09 13:20:31  5-MIN KDBQ 251920Z 29012KT 9SM CLR 09/03 A2996 1050 68 600 290/12 RMK AO2 $
94908KDBQ DBQ20090225132510002/25/09 13:25:31  5-MIN KDBQ 251925Z 28008G17KT 9SM CLR 09/03 A2995 1050 68 600 280/08G17 RMK AO2 $
94908KDBQ DBQ20090225133009402/25/09 13:30:31  5-MIN KDBQ 251930Z 28012KT 9SM CLR 09/04 A2995 1050 68 700 280/12 RMK AO2 $
94908KDBQ DBQ20090225133509402/25/09 13:35:31  5-MIN KDBQ 251935Z 27009KT 9SM CLR 09/04 A2995 1050 71 600 270/09 RMK AO2 $
94908KDBQ DBQ20090225134009402/25/09 13:40:31  5-MIN KDBQ 251940Z 27009KT 9SM CLR 09/04 A2995 1050 68 700 270/09 RMK AO2 $
94908KDBQ DBQ20090225134509402/25/09 13:45:31  5-MIN KDBQ 251945Z 28010KT 9SM CLR 09/04 A2994 1060 68 700 280/10 RMK AO2 $
94908KDBQ DBQ20090225135011102/25/09 13:50:31  5-MIN KDBQ 251950Z 26010KT 9SM CLR 09/04 A2995 1050 68 700 250/10 RMK AO2 SLP148 T00940039 $
94908KDBQ DBQ20090225135509402/25/09 13:55:31  5-MIN KDBQ 251955Z 25012KT 9SM CLR 09/04 A2995 1050 68 700 250/12 RMK AO2 $
94908KDBQ DBQ20090225140009402/25/09 14:00:31  5-MIN KDBQ 252000Z 27012KT 9SM CLR 09/04 A2995 1050 68 700 270/12 RMK AO2 $
94908KDBQ DBQ20090225140509402/25/09 14:05:31  5-MIN KDBQ 252005Z 27011KT 9SM CLR 09/04 A2995 1050 68 700 270/11 RMK AO2 $
94908KDBQ DBQ20090225141009402/25/09 14:10:31  5-MIN KDBQ 252010Z 28012KT 9SM CLR 09/04 A2995 1050 68 700 270/12 RMK AO2 $
94908KDBQ DBQ20090225141509402/25/09 14:15:31  5-MIN KDBQ 252015Z 28011KT 9SM CLR 10/04 A2995 1050 65 700 280/11 RMK AO2 $
94908KDBQ DBQ20090225142009402/25/09 14:20:31  5-MIN KDBQ 252020Z 28011KT 9SM CLR 10/04 A2995 1050 65 700 280/11 RMK AO2 $
94908KDBQ DBQ20090225142509402/25/09 14:25:31  5-MIN KDBQ 252025Z 29009KT 9SM CLR 10/04 A2995 1050 65 700 290/09 RMK AO2 $
94908KDBQ DBQ20090225143009402/25/09 14:30:31  5-MIN KDBQ 252030Z 28009KT 9SM CLR 10/04 A2995 1050 65 700 280/09 RMK AO2 $
94908KDBQ DBQ20090225143509402/25/09 14:35:31  5-MIN KDBQ 252035Z 29012KT 9SM CLR 10/04 A2996 1040 65 700 290/12 RMK AO2 $
94908KDBQ DBQ20090225144009402/25/09 14:40:31  5-MIN KDBQ 252040Z 28013KT 9SM CLR 10/04 A2996 1040 65 700 270/13 RMK AO2 $
94908KDBQ DBQ20090225144509402/25/09 14:45:31  5-MIN KDBQ 252045Z 28011KT 9SM CLR 10/04 A2996 1040 65 700 270/11 RMK AO2 $
94908KDBQ DBQ20090225145013402/25/09 14:50:31  5-MIN KDBQ 252050Z AUTO 28010KT 9SM CLR 10/04 A2996 1040 65 700 270/10 RMK AO2 SLP154 P0001 60001 T01000039 53006 $
94908KDBQ DBQ20090225145509402/25/09 14:55:31  5-MIN KDBQ 252055Z 28010KT 8SM CLR 10/04 A2996 1040 65 700 280/10 RMK AO2 $
94908KDBQ DBQ20090225150009402/25/09 15:00:31  5-MIN KDBQ 252100Z 29011KT 8SM CLR 10/04 A2996 1040 65 700 290/11 RMK AO2 $
94908KDBQ DBQ20090225150509402/25/09 15:05:31  5-MIN KDBQ 252105Z 28012KT 8SM CLR 10/04 A2997 1040 65 700 280/12 RMK AO2 $
94908KDBQ DBQ20090225151009402/25/09 15:10:31  5-MIN KDBQ 252110Z 29012KT 8SM CLR 10/04 A2997 1030 65 700 290/12 RMK AO2 $
94908KDBQ DBQ20090225151509402/25/09 15:15:31  5-MIN KDBQ 252115Z 29011KT 8SM CLR 10/04 A2997 1030 65 700 290/11 RMK AO2 $
94908KDBQ DBQ20090225152009402/25/09 15:20:31  5-MIN KDBQ 252120Z 29008KT 8SM CLR 10/04 A2997 1030 65 700 280/08 RMK AO2 $
94908KDBQ DBQ20090225152509402/25/09 15:25:31  5-MIN KDBQ 252125Z 29007KT 8SM CLR 10/04 A2997 1030 65 700 290/07 RMK AO2 $
94908KDBQ DBQ20090225153009402/25/09 15:30:31  5-MIN KDBQ 252130Z 29008KT 8SM CLR 10/04 A2997 1030 65 700 280/08 RMK AO2 $
94908KDBQ DBQ20090225153509402/25/09 15:35:31  5-MIN KDBQ 252135Z 30009KT 8SM CLR 10/04 A2997 1030 65 700 300/09 RMK AO2 $
94908KDBQ DBQ20090225154009402/25/09 15:40:31  5-MIN KDBQ 252140Z 31010KT 8SM CLR 10/04 A2998 1030 65 700 300/10 RMK AO2 $
94908KDBQ DBQ20090225154509402/25/09 15:45:31  5-MIN KDBQ 252145Z 29010KT 8SM CLR 10/04 A2998 1030 65 700 290/10 RMK AO2 $
94908KDBQ DBQ20090225155011102/25/09 15:50:31  5-MIN KDBQ 252150Z 29010KT 8SM CLR 10/03 A2998 1020 63 700 290/10 RMK AO2 SLP160 T01000033 $
94908KDBQ DBQ20090225155509402/25/09 15:55:31  5-MIN KDBQ 252155Z 29008KT 8SM CLR 10/04 A2998 1020 65 700 290/08 RMK AO2 $
94908KDBQ DBQ20090225160009402/25/09 16:00:31  5-MIN KDBQ 252200Z 29010KT 8SM CLR 10/04 A2998 1020 65 700 290/10 RMK AO2 $
94908KDBQ DBQ20090225160509402/25/09 16:05:31  5-MIN KDBQ 252205Z 29010KT 8SM CLR 09/03 A2998 1020 65 600 290/10 RMK AO2 $
94908KDBQ DBQ20090225161009402/25/09 16:10:31  5-MIN KDBQ 252210Z 30009KT 8SM CLR 09/04 A2999 1020 68 600 290/09 RMK AO2 $
94908KDBQ DBQ20090225161509402/25/09 16:15:31  5-MIN KDBQ 252215Z 29007KT 8SM CLR 09/04 A2998 1020 68 600 290/07 RMK AO2 $
94908KDBQ DBQ20090225162009402/25/09 16:20:31  5-MIN KDBQ 252220Z 30009KT 8SM CLR 09/04 A2999 1020 68 600 300/09 RMK AO2 $
94908KDBQ DBQ20090225162509402/25/09 16:25:31  5-MIN KDBQ 252225Z 29008KT 8SM CLR 09/04 A2999 1020 68 600 290/08 RMK AO2 $
94908KDBQ DBQ20090225163009402/25/09 16:30:31  5-MIN KDBQ 252230Z 29008KT 8SM CLR 09/04 A2999 1010 71 600 290/08 RMK AO2 $
94908KDBQ DBQ20090225163509402/25/09 16:35:31  5-MIN KDBQ 252235Z 29007KT 8SM CLR 09/04 A2999 1010 71 600 290/07 RMK AO2 $
94908KDBQ DBQ20090225164009402/25/09 16:40:31  5-MIN KDBQ 252240Z 29008KT 8SM CLR 09/03 A2999 1010 68 600 290/08 RMK AO2 $
94908KDBQ DBQ20090225164509402/25/09 16:45:31  5-MIN KDBQ 252245Z 28007KT 8SM CLR 09/03 A2999 1010 68 600 280/07 RMK AO2 $
94908KDBQ DBQ20090225165011102/25/09 16:50:31  5-MIN KDBQ 252250Z 27009KT 7SM CLR 08/03 A3000 1010 70 500 270/09 RMK AO2 SLP166 T00830033 $
94908KDBQ DBQ20090225165509402/25/09 16:55:31  5-MIN KDBQ 252255Z 27008KT 7SM CLR 08/03 A3000 1010 73 400 270/08 RMK AO2 $
94908KDBQ DBQ20090225170009402/25/09 17:00:31  5-MIN KDBQ 252300Z 27009KT 7SM CLR 08/03 A3000 1010 73 400 270/09 RMK AO2 $
94908KDBQ DBQ20090225170509402/25/09 17:05:31  5-MIN KDBQ 252305Z 28008KT 7SM CLR 07/03 A3000 1010 76 400 280/08 RMK AO2 $
94908KDBQ DBQ20090225171010002/25/09 17:10:31  5-MIN KDBQ 252310Z 28008KT 7SM CLR 07/03 A3000 1000 79 300 280/08 RMK AO2 P0001 $
94908KDBQ DBQ20090225171510002/25/09 17:15:31  5-MIN KDBQ 252315Z 28009KT 7SM CLR 07/03 A3000 1000 79 300 280/09 RMK AO2 P0001 $
94908KDBQ DBQ20090225172010002/25/09 17:20:31  5-MIN KDBQ 252320Z 29008KT 7SM CLR 07/03 A3000 1000 79 300 290/08 RMK AO2 P0001 $
94908KDBQ DBQ20090225172510002/25/09 17:25:31  5-MIN KDBQ 252325Z 29008KT 7SM CLR 07/03 A3000 1000 76 300 290/08 RMK AO2 P0001 $
94908KDBQ DBQ20090225173010302/25/09 17:30:31  5-MIN KDBQ 252330Z 29008KT 6SM HZ CLR 06/03 A3000 1000 79 200 290/08 RMK AO2 P0001 $
94908KDBQ DBQ20090225173510302/25/09 17:35:31  5-MIN KDBQ 252335Z 30008KT 6SM HZ CLR 06/02 A3000 1000 79 100 300/08 RMK AO2 P0001 $
94908KDBQ DBQ20090225174010302/25/09 17:40:31  5-MIN KDBQ 252340Z 30008KT 6SM HZ CLR 05/02 A3000 1000 82 100 300/08 RMK AO2 P0001 $
94908KDBQ DBQ20090225174510102/25/09 17:45:31  5-MIN KDBQ 252345Z 30009KT 6SM HZ CLR 04/02 A3000 1000 82 0 300/09 RMK AO2 P0001 $
94908KDBQ DBQ20090225175014402/25/09 17:50:31  5-MIN KDBQ 252350Z 31008KT 6SM HZ CLR 05/02 A3000 1000 82 100 300/08 RMK AO2 SLP169 P0001 60002 T00500022 10100 20044 53007 $
94908KDBQ DBQ20090225175509702/25/09 17:55:31  5-MIN KDBQ 252355Z 30009KT 6SM HZ CLR 05/02 A3000 1000 82 100 300/09 RMK AO2 $
94908KDBQ DBQ20090225180009502/25/09 18:00:31  5-MIN KDBQ 260000Z 30008KT 6SM BR CLR 04/02 A3001 1000 85 0 300/08 RMK AO2 $
94908KDBQ DBQ20090225180509202/25/09 18:05:31  5-MIN KDBQ 260005Z 30007KT 7SM CLR 04/02 A3001 1000 85 0 300/07 RMK AO2 $
94908KDBQ DBQ20090225181009202/25/09 18:10:31  5-MIN KDBQ 260010Z 30006KT 7SM CLR 04/02 A3001 1000 85 0 290/06 RMK AO2 $
94908KDBQ DBQ20090225181509402/25/09 18:15:31  5-MIN KDBQ 260015Z 28004KT 7SM CLR 03/01 A3001 990 85 -100 280/04 RMK AO2 $
94908KDBQ DBQ20090225182009702/25/09 18:20:31  5-MIN KDBQ 260020Z 00000KT 6SM BR CLR 03/01 A3002 990 85 -100 000/00 RMK AO2 $
94908KDBQ DBQ20090225182509702/25/09 18:25:31  5-MIN KDBQ 260025Z VRB03KT 6SM BR CLR 03/01 A3002 980 85 -100 VRB/03 RMK AO2 $
94908KDBQ DBQ20090225183009402/25/09 18:30:31  5-MIN KDBQ 260030Z 17003KT 6SM BR CLR 04/02 A3003 980 85 0 170/03 RMK AO2 $
94908KDBQ DBQ20090225183509702/25/09 18:35:31  5-MIN KDBQ 260035Z 19005KT 6SM BR CLR 03/02 A3003 980 89 -100 190/05 RMK AO2 $
94908KDBQ DBQ20090225184009702/25/09 18:40:31  5-MIN KDBQ 260040Z 19005KT 6SM BR CLR 03/02 A3003 980 89 -100 190/05 RMK AO2 $
94908KDBQ DBQ20090225184509702/25/09 18:45:31  5-MIN KDBQ 260045Z 20005KT 6SM BR CLR 03/01 A3003 980 85 -100 200/05 RMK AO2 $
94908KDBQ DBQ20090225185011402/25/09 18:50:31  5-MIN KDBQ 260050Z 21003KT 6SM BR CLR 03/01 A3003 970 85 -100 210/03 RMK AO2 SLP180 T00330011 $
94908KDBQ DBQ20090225185509702/25/09 18:55:31  5-MIN KDBQ 260055Z 00000KT 6SM BR CLR 03/02 A3003 980 89 -100 000/00 RMK AO2 $
94908KDBQ DBQ20090225190009702/25/09 19:00:31  5-MIN KDBQ 260100Z 00000KT 5SM BR CLR 03/02 A3003 980 89 -100 000/00 RMK AO2 $
94908KDBQ DBQ20090225190509702/25/09 19:05:31  5-MIN KDBQ 260105Z 29004KT 5SM BR CLR 03/02 A3003 980 89 -100 290/04 RMK AO2 $
94908KDBQ DBQ20090225191009702/25/09 19:10:31  5-MIN KDBQ 260110Z 26004KT 5SM BR CLR 03/02 A3003 970 89 -100 260/04 RMK AO2 $
94908KDBQ DBQ20090225191509702/25/09 19:15:31  5-MIN KDBQ 260115Z 17003KT 5SM BR CLR 03/01 A3003 970 89 -200 160/03 RMK AO2 $
94908KDBQ DBQ20090225192009702/25/09 19:20:31  5-MIN KDBQ 260120Z 00000KT 4SM BR CLR 02/01 A3003 970 92 -300 000/00 RMK AO2 $
94908KDBQ DBQ20090225192509702/25/09 19:25:31  5-MIN KDBQ 260125Z 00000KT 4SM BR CLR 03/01 A3003 970 89 -200 000/00 RMK AO2 $
94908KDBQ DBQ20090225193009702/25/09 19:30:31  5-MIN KDBQ 260130Z 00000KT 5SM BR CLR 03/02 A3003 970 89 -100 000/00 RMK AO2 $
94908KDBQ DBQ20090225193509402/25/09 19:35:31  5-MIN KDBQ 260135Z 00000KT 5SM BR CLR 04/02 A3003 970 85 0 000/00 RMK AO2 $
94908KDBQ DBQ20090225194009402/25/09 19:40:31  5-MIN KDBQ 260140Z 00000KT 5SM BR CLR 04/02 A3003 970 85 0 000/00 RMK AO2 $
94908KDBQ DBQ20090225194509402/25/09 19:45:31  5-MIN KDBQ 260145Z 00000KT 5SM BR CLR 04/02 A3003 970 85 0 000/00 RMK AO2 $
94908KDBQ DBQ20090225195011902/25/09 19:50:31  5-MIN KDBQ 260150Z AUTO 00000KT 5SM BR CLR 03/02 A3003 970 89 -100 000/00 RMK AO2 SLP181 T00330017 $
94908KDBQ DBQ20090225195510202/25/09 19:55:31  5-MIN KDBQ 260155Z AUTO 00000KT 5SM BR CLR 03/02 A3004 970 89 -100 000/00 RMK AO2 $
94908KDBQ DBQ20090225200010202/25/09 20:00:31  5-MIN KDBQ 260200Z AUTO 00000KT 6SM BR CLR 03/01 A3004 960 85 -100 000/00 RMK AO2 $
94908KDBQ DBQ20090225200510202/25/09 20:05:31  5-MIN KDBQ 260205Z AUTO 00000KT 6SM BR CLR 04/02 A3005 960 85 -100 000/00 RMK AO2 $
94908KDBQ DBQ20090225201010202/25/09 20:10:31  5-MIN KDBQ 260210Z AUTO 35003KT 6SM HZ CLR 04/01 A3005 960 82 -100 350/03 RMK AO2 $
94908KDBQ DBQ20090225201510202/25/09 20:15:31  5-MIN KDBQ 260215Z AUTO 33005KT 6SM BR CLR 03/01 A3006 950 85 -100 330/05 RMK AO2 $
94908KDBQ DBQ20090225202010202/25/09 20:20:31  5-MIN KDBQ 260220Z AUTO 33005KT 6SM BR CLR 03/01 A3006 950 85 -100 330/05 RMK AO2 $
94908KDBQ DBQ20090225202510202/25/09 20:25:31  5-MIN KDBQ 260225Z AUTO 33004KT 6SM HZ CLR 03/01 A3006 950 82 -100 330/04 RMK AO2 $
94908KDBQ DBQ20090225203010202/25/09 20:30:31  5-MIN KDBQ 260230Z AUTO 34004KT 6SM BR CLR 02/01 A3006 950 89 -300 340/04 RMK AO2 $
94908KDBQ DBQ20090225203510202/25/09 20:35:31  5-MIN KDBQ 260235Z AUTO 00000KT 6SM BR CLR 03/01 A3006 950 85 -200 000/00 RMK AO2 $
94908KDBQ DBQ20090225204010202/25/09 20:40:31  5-MIN KDBQ 260240Z AUTO 34003KT 6SM BR CLR 02/01 A3006 950 89 -300 340/03 RMK AO2 $
94908KDBQ DBQ20090225204510202/25/09 20:45:31  5-MIN KDBQ 260245Z AUTO 34003KT 6SM BR CLR 02/00 A3007 940 85 -300 340/03 RMK AO2 $
94908KDBQ DBQ20090225205012502/25/09 20:50:31  5-MIN KDBQ 260250Z AUTO 34004KT 6SM BR CLR 02/00 A3007 940 85 -300 340/04 RMK AO2 SLP192 T00220000 51013 $
94908KDBQ DBQ20090225205510202/25/09 20:55:31  5-MIN KDBQ 260255Z AUTO 34004KT 6SM BR CLR 02/00 A3007 940 85 -300 340/04 RMK AO2 $
94908KDBQ DBQ20090225210010202/25/09 21:00:31  5-MIN KDBQ 260300Z AUTO 34006KT 6SM BR CLR 02/00 A3007 940 85 -300 330/06 RMK AO2 $
94908KDBQ DBQ20090225210510302/25/09 21:05:31  5-MIN KDBQ 260305Z AUTO 33006KT 6SM BR CLR 02/M01 A3007 940 85 -400 330/06 RMK AO2 $
94908KDBQ DBQ20090225211010302/25/09 21:10:31  5-MIN KDBQ 260310Z AUTO 34007KT 6SM BR CLR 02/M01 A3008 940 85 -400 340/07 RMK AO2 $
94908KDBQ DBQ20090225211510302/25/09 21:15:31  5-MIN KDBQ 260315Z AUTO 34007KT 6SM BR CLR 01/M01 A3008 930 89 -400 340/07 RMK AO2 $
94908KDBQ DBQ20090225212010302/25/09 21:20:31  5-MIN KDBQ 260320Z AUTO 35007KT 6SM BR CLR 01/M01 A3008 930 89 -400 350/07 RMK AO2 $
94908KDBQ DBQ20090225212510302/25/09 21:25:31  5-MIN KDBQ 260325Z AUTO 35007KT 6SM BR CLR 01/M01 A3008 930 89 -400 350/07 RMK AO2 $
94908KDBQ DBQ20090225213010302/25/09 21:30:31  5-MIN KDBQ 260330Z AUTO 35007KT 6SM BR CLR 01/M01 A3008 930 85 -400 340/07 RMK AO2 $
94908KDBQ DBQ20090225213510302/25/09 21:35:31  5-MIN KDBQ 260335Z AUTO 35006KT 6SM BR CLR 01/M01 A3008 930 85 -400 340/06 RMK AO2 $
94908KDBQ DBQ20090225214010302/25/09 21:40:31  5-MIN KDBQ 260340Z AUTO 34007KT 6SM BR CLR 01/M01 A3008 930 89 -500 340/07 RMK AO2 $
94908KDBQ DBQ20090225214510302/25/09 21:45:31  5-MIN KDBQ 260345Z AUTO 34007KT 6SM BR CLR 01/M01 A3008 930 89 -500 340/07 RMK AO2 $
94908KDBQ DBQ20090225215012002/25/09 21:50:31  5-MIN KDBQ 260350Z AUTO 34009KT 6SM BR CLR 01/M01 A3008 930 85 -400 340/09 RMK AO2 SLP197 T00111011 $
94908KDBQ DBQ20090225215510302/25/09 21:55:31  5-MIN KDBQ 260355Z AUTO 35010KT 6SM BR CLR 01/M01 A3008 930 85 -500 340/10 RMK AO2 $
94908KDBQ DBQ20090225220010302/25/09 22:00:31  5-MIN KDBQ 260400Z AUTO 35010KT 6SM HZ CLR 02/M01 A3009 930 82 -400 350/10 RMK AO2 $
94908KDBQ DBQ20090225220510002/25/09 22:05:31  5-MIN KDBQ 260405Z AUTO 36009KT 7SM CLR 02/M01 A3009 930 82 -400 350/09 RMK AO2 $
94908KDBQ DBQ20090225221010002/25/09 22:10:31  5-MIN KDBQ 260410Z AUTO 35009KT 7SM CLR 01/M01 A3009 930 85 -500 350/09 RMK AO2 $
94908KDBQ DBQ20090225221510002/25/09 22:15:31  5-MIN KDBQ 260415Z AUTO 01008KT 7SM CLR 02/M01 A3009 930 82 -400 010/08 RMK AO2 $
94908KDBQ DBQ20090225222010002/25/09 22:20:31  5-MIN KDBQ 260420Z AUTO 01007KT 7SM CLR 02/M01 A3009 920 82 -400 010/07 RMK AO2 $
94908KDBQ DBQ20090225223510602/25/09 22:35:31  5-MIN KDBQ 260435Z AUTO 01007KT 7SM CLR 01/M01 A3009 920 85 -500 360/07 RMK AO2 P0001 $
94908KDBQ DBQ20090225224010602/25/09 22:40:31  5-MIN KDBQ 260440Z AUTO 01008KT 7SM CLR 02/M01 A3009 920 82 -400 010/08 RMK AO2 P0001 $
94908KDBQ DBQ20090225224510602/25/09 22:45:31  5-MIN KDBQ 260445Z AUTO 01008KT 7SM CLR 02/M01 A3009 920 82 -400 010/08 RMK AO2 P0001 $
94908KDBQ DBQ20090225225012302/25/09 22:50:31  5-MIN KDBQ 260450Z AUTO 01007KT 7SM CLR 01/M01 A3009 920 85 -500 010/07 RMK AO2 SLP199 P0001 T00111011 $
94908KDBQ DBQ20090225225510002/25/09 22:55:31  5-MIN KDBQ 260455Z AUTO 02007KT 7SM CLR 01/M01 A3009 920 85 -500 020/07 RMK AO2 $
94908KDBQ DBQ20090225230010002/25/09 23:00:31  5-MIN KDBQ 260500Z AUTO 02006KT 7SM CLR 01/M02 A3010 920 82 -500 020/06 RMK AO2 $
94908KDBQ DBQ20090225230510002/25/09 23:05:31  5-MIN KDBQ 260505Z AUTO 03007KT 7SM CLR 01/M02 A3010 910 82 -500 020/07 RMK AO2 $
94908KDBQ DBQ20090225231010002/25/09 23:10:31  5-MIN KDBQ 260510Z AUTO 02008KT 7SM CLR 01/M02 A3010 910 82 -500 020/08 RMK AO2 $
94908KDBQ DBQ20090225231510302/25/09 23:15:31  5-MIN KDBQ 260515Z AUTO 03009KT 6SM HZ CLR 01/M02 A3010 910 82 -500 020/09 RMK AO2 $
94908KDBQ DBQ20090225232010302/25/09 23:20:31  5-MIN KDBQ 260520Z AUTO 02009KT 6SM HZ CLR 01/M02 A3010 910 82 -500 020/09 RMK AO2 $
94908KDBQ DBQ20090225232510302/25/09 23:25:31  5-MIN KDBQ 260525Z AUTO 02009KT 6SM HZ CLR 01/M02 A3010 910 82 -500 020/09 RMK AO2 $
94908KDBQ DBQ20090225233010702/25/09 23:30:31  5-MIN KDBQ 260530Z AUTO 02009KT 6SM HZ CLR 01/M02 A3010 910 82 -500 020/09 RMK AO2 PNO $
94908KDBQ DBQ20090225233510302/25/09 23:35:31  5-MIN KDBQ 260535Z AUTO 01009KT 6SM HZ CLR 01/M02 A3010 910 82 -500 010/09 RMK AO2 $
94908KDBQ DBQ20090225234010302/25/09 23:40:31  5-MIN KDBQ 260540Z AUTO 02008KT 6SM BR CLR 01/M02 A3010 910 85 -500 020/08 RMK AO2 $
94908KDBQ DBQ20090225234510302/25/09 23:45:31  5-MIN KDBQ 260545Z AUTO 01008KT 6SM BR CLR 01/M02 A3010 910 85 -500 010/08 RMK AO2 $
94908KDBQ DBQ20090225235015402/25/09 23:50:31  5-MIN KDBQ 260550Z AUTO 36009KT 6SM BR CLR 01/M02 A3011 910 85 -500 360/09 RMK AO2 SLP204 60001 T00061017 10050 20006 401000000 53022 $
94908KDBQ DBQ20090225235510302/25/09 23:55:31  5-MIN KDBQ 260555Z AUTO 36008KT 6SM BR CLR 01/M02 A3011 910 85 -500 360/08 RMK AO2 $
94908KDBQ DBQ20090226000010302/26/09 00:00:38  5-MIN KDBQ 260600Z AUTO 01007KT 6SM BR CLR 01/M02 A3011 910 85 -500 010/07 RMK AO2 $
94908KDBQ DBQ20090226000510302/26/09 00:05:31  5-MIN KDBQ 260605Z AUTO 01007KT 6SM BR CLR 01/M02 A3011 910 85 -500 010/07 RMK AO2 $
94908KDBQ DBQ20090226001010302/26/09 00:10:31  5-MIN KDBQ 260610Z AUTO 01007KT 6SM BR CLR 01/M02 A3011 910 85 -500 010/07 RMK AO2 $
94908KDBQ DBQ20090226001510302/26/09 00:15:31  5-MIN KDBQ 260615Z AUTO 01009KT 6SM BR CLR 01/M02 A3011 900 85 -500 010/09 RMK AO2 $
94908KDBQ DBQ20090226002010302/26/09 00:20:31  5-MIN KDBQ 260620Z AUTO 01009KT 6SM BR CLR 01/M02 A3011 900 85 -500 010/09 RMK AO2 $
94908KDBQ DBQ20090226002510302/26/09 00:25:31  5-MIN KDBQ 260625Z AUTO 01010KT 6SM BR CLR 01/M02 A3011 910 85 -500 010/10 RMK AO2 $
94908KDBQ DBQ20090226003010302/26/09 00:30:31  5-MIN KDBQ 260630Z AUTO 01010KT 6SM BR CLR 01/M02 A3010 910 85 -500 010/10 RMK AO2 $
94908KDBQ DBQ20090226003510302/26/09 00:35:31  5-MIN KDBQ 260635Z AUTO 01009KT 6SM BR CLR 01/M02 A3010 910 85 -500 010/09 RMK AO2 $
94908KDBQ DBQ20090226004010302/26/09 00:40:31  5-MIN KDBQ 260640Z AUTO 02010KT 6SM BR CLR 01/M02 A3010 910 85 -500 010/10 RMK AO2 $
94908KDBQ DBQ20090226004510302/26/09 00:45:31  5-MIN KDBQ 260645Z AUTO 02007KT 6SM BR CLR 01/M02 A3010 910 85 -500 020/07 RMK AO2 $
94908KDBQ DBQ20090226005012002/26/09 00:50:31  5-MIN KDBQ 260650Z AUTO 02007KT 6SM BR CLR 01/M02 A3010 910 85 -500 020/07 RMK AO2 SLP201 T00061017 $
94908KDBQ DBQ20090226005510302/26/09 00:55:31  5-MIN KDBQ 260655Z AUTO 03004KT 6SM BR CLR 01/M02 A3010 910 85 -500 030/04 RMK AO2 $
94908KDBQ DBQ20090226010010302/26/09 01:00:31  5-MIN KDBQ 260700Z AUTO 03006KT 6SM BR CLR 00/M02 A3010 910 88 -600 030/06 RMK AO2 $
94908KDBQ DBQ20090226010510302/26/09 01:05:31  5-MIN KDBQ 260705Z AUTO 02007KT 6SM BR CLR 00/M02 A3010 910 88 -600 020/07 RMK AO2 $
94908KDBQ DBQ20090226011010302/26/09 01:10:31  5-MIN KDBQ 260710Z AUTO 02007KT 5SM BR CLR 00/M02 A3010 910 88 -600 020/07 RMK AO2 $
94908KDBQ DBQ20090226011510302/26/09 01:15:31  5-MIN KDBQ 260715Z AUTO 02007KT 5SM BR CLR 00/M02 A3010 910 85 -600 020/07 RMK AO2 $
94908KDBQ DBQ20090226012010302/26/09 01:20:31  5-MIN KDBQ 260720Z AUTO 02008KT 5SM BR CLR 00/M02 A3010 910 85 -600 020/08 RMK AO2 $
94908KDBQ DBQ20090226012510302/26/09 01:25:31  5-MIN KDBQ 260725Z AUTO 03006KT 5SM BR CLR 00/M02 A3010 910 85 -600 030/06 RMK AO2 $
94908KDBQ DBQ20090226013010302/26/09 01:30:31  5-MIN KDBQ 260730Z AUTO 03004KT 5SM BR CLR 00/M02 A3010 910 85 -600 030/04 RMK AO2 $
94908KDBQ DBQ20090226013510302/26/09 01:35:31  5-MIN KDBQ 260735Z AUTO 03005KT 5SM BR CLR 00/M02 A3010 910 85 -600 030/05 RMK AO2 $
94908KDBQ DBQ20090226014010402/26/09 01:40:31  5-MIN KDBQ 260740Z AUTO 02006KT 5SM BR CLR M01/M02 A3010 910 88 -700 020/06 RMK AO2 $
94908KDBQ DBQ20090226014510402/26/09 01:45:31  5-MIN KDBQ 260745Z AUTO 03006KT 5SM BR CLR M01/M02 A3010 910 88 -700 030/06 RMK AO2 $
94908KDBQ DBQ20090226015012102/26/09 01:50:31  5-MIN KDBQ 260750Z AUTO 03007KT 5SM BR CLR M01/M02 A3010 910 88 -700 030/07 RMK AO2 SLP202 T10061022 $
94908KDBQ DBQ20090226015510402/26/09 01:55:31  5-MIN KDBQ 260755Z AUTO 04007KT 5SM BR CLR M01/M02 A3009 920 88 -700 040/07 RMK AO2 $
94908KDBQ DBQ20090226020011002/26/09 02:00:31  5-MIN KDBQ 260800Z AUTO 03008KT 5SM BR CLR M01/M02 A3009 920 88 -700 030/08 RMK AO2 P0001 $
94908KDBQ DBQ20090226020511002/26/09 02:05:31  5-MIN KDBQ 260805Z AUTO 03008KT 4SM BR CLR M01/M02 A3009 920 88 -700 030/08 RMK AO2 P0001 $
94908KDBQ DBQ20090226021011002/26/09 02:10:31  5-MIN KDBQ 260810Z AUTO 03007KT 4SM BR CLR M01/M02 A3009 920 88 -700 030/07 RMK AO2 P0001 $
94908KDBQ DBQ20090226021511002/26/09 02:15:31  5-MIN KDBQ 260815Z AUTO 03008KT 4SM BR CLR M01/M02 A3009 920 88 -700 030/08 RMK AO2 P0001 $
94908KDBQ DBQ20090226022011002/26/09 02:20:31  5-MIN KDBQ 260820Z AUTO 04008KT 4SM BR CLR M01/M02 A3009 920 88 -700 030/08 RMK AO2 P0001 $
94908KDBQ DBQ20090226022511002/26/09 02:25:31  5-MIN KDBQ 260825Z AUTO 03007KT 4SM BR CLR M01/M02 A3008 930 88 -700 030/07 RMK AO2 P0001 $
94908KDBQ DBQ20090226023011002/26/09 02:30:31  5-MIN KDBQ 260830Z AUTO 04006KT 4SM BR CLR M01/M02 A3009 930 88 -700 040/06 RMK AO2 P0001 $
94908KDBQ DBQ20090226023511002/26/09 02:35:31  5-MIN KDBQ 260835Z AUTO 04007KT 4SM BR CLR M01/M02 A3008 930 88 -700 040/07 RMK AO2 P0001 $
94908KDBQ DBQ20090226024011002/26/09 02:40:31  5-MIN KDBQ 260840Z AUTO 03008KT 4SM BR CLR M01/M02 A3008 930 88 -700 030/08 RMK AO2 P0001 $
94908KDBQ DBQ20090226024511002/26/09 02:45:31  5-MIN KDBQ 260845Z AUTO 03008KT 4SM BR CLR M01/M02 A3007 940 88 -600 030/08 RMK AO2 P0001 $
94908KDBQ DBQ20090226025013902/26/09 02:50:31  5-MIN KDBQ 260850Z AUTO 03007KT 4SM BR CLR M01/M02 A3007 940 88 -600 030/07 RMK AO2 SLP190 P0001 60001 T10061022 51012 $
94908KDBQ DBQ20090226025510402/26/09 02:55:31  5-MIN KDBQ 260855Z AUTO 04006KT 4SM BR CLR M01/M02 A3007 940 88 -600 040/06 RMK AO2 $
94908KDBQ DBQ20090226030010402/26/09 03:00:31  5-MIN KDBQ 260900Z AUTO 04005KT 4SM BR CLR M01/M02 A3007 940 88 -600 040/05 RMK AO2 $
94908KDBQ DBQ20090226030510402/26/09 03:05:31  5-MIN KDBQ 260905Z AUTO 06004KT 4SM BR CLR M01/M02 A3007 940 88 -600 060/04 RMK AO2 $
94908KDBQ DBQ20090226031010402/26/09 03:10:31  5-MIN KDBQ 260910Z AUTO 04007KT 4SM BR CLR M01/M02 A3007 940 88 -600 040/07 RMK AO2 $
94908KDBQ DBQ20090226031510402/26/09 03:15:31  5-MIN KDBQ 260915Z AUTO 04009KT 4SM BR CLR M01/M02 A3006 950 88 -600 040/09 RMK AO2 $
94908KDBQ DBQ20090226032010402/26/09 03:20:31  5-MIN KDBQ 260920Z AUTO 04009KT 4SM BR CLR M01/M02 A3006 950 88 -600 040/09 RMK AO2 $
94908KDBQ DBQ20090226032510402/26/09 03:25:31  5-MIN KDBQ 260925Z AUTO 04008KT 4SM BR CLR M01/M02 A3005 960 88 -600 040/08 RMK AO2 $
94908KDBQ DBQ20090226033010402/26/09 03:30:31  5-MIN KDBQ 260930Z AUTO 05008KT 4SM BR CLR M01/M02 A3006 950 88 -600 040/08 RMK AO2 $
94908KDBQ DBQ20090226033510402/26/09 03:35:31  5-MIN KDBQ 260935Z AUTO 05007KT 4SM BR CLR M01/M02 A3006 950 88 -600 050/07 RMK AO2 $
94908KDBQ DBQ20090226034010402/26/09 03:40:31  5-MIN KDBQ 260940Z AUTO 05007KT 4SM BR CLR M01/M02 A3006 950 88 -600 050/07 RMK AO2 $
94908KDBQ DBQ20090226034510402/26/09 03:45:31  5-MIN KDBQ 260945Z AUTO 04008KT 4SM BR CLR M01/M02 A3005 950 88 -600 040/08 RMK AO2 $
94908KDBQ DBQ20090226035012102/26/09 03:50:31  5-MIN KDBQ 260950Z AUTO 05007KT 4SM BR CLR M01/M02 A3006 950 88 -600 040/07 RMK AO2 SLP186 T10061022 $
94908KDBQ DBQ20090226035510402/26/09 03:55:31  5-MIN KDBQ 260955Z AUTO 05006KT 4SM BR CLR M01/M02 A3005 950 88 -600 050/06 RMK AO2 $
94908KDBQ DBQ20090226040010402/26/09 04:00:31  5-MIN KDBQ 261000Z AUTO 05006KT 4SM BR CLR M01/M02 A3006 950 88 -600 050/06 RMK AO2 $
94908KDBQ DBQ20090226040510402/26/09 04:05:31  5-MIN KDBQ 261005Z AUTO 05006KT 4SM BR CLR M01/M02 A3005 960 88 -600 050/06 RMK AO2 $
94908KDBQ DBQ20090226041010402/26/09 04:10:31  5-MIN KDBQ 261010Z AUTO 05007KT 4SM BR CLR M01/M02 A3005 960 88 -600 050/07 RMK AO2 $
94908KDBQ DBQ20090226041510402/26/09 04:15:31  5-MIN KDBQ 261015Z AUTO 06006KT 4SM BR CLR M01/M02 A3005 960 88 -600 060/06 RMK AO2 $
94908KDBQ DBQ20090226042010402/26/09 04:20:31  5-MIN KDBQ 261020Z AUTO 06006KT 4SM BR CLR M01/M02 A3005 960 88 -600 060/06 RMK AO2 $
94908KDBQ DBQ20090226042510302/26/09 04:25:31  5-MIN KDBQ 261025Z AUTO 06006KT 5SM BR CLR 00/M02 A3005 960 85 -600 060/06 RMK AO2 $
94908KDBQ DBQ20090226043010302/26/09 04:30:31  5-MIN KDBQ 261030Z AUTO 07007KT 5SM BR CLR 00/M02 A3005 960 85 -600 070/07 RMK AO2 $
94908KDBQ DBQ20090226043510302/26/09 04:35:31  5-MIN KDBQ 261035Z AUTO 06006KT 5SM BR CLR 00/M02 A3005 960 85 -500 060/06 RMK AO2 $
94908KDBQ DBQ20090226044010302/26/09 04:40:31  5-MIN KDBQ 261040Z AUTO 06006KT 5SM BR CLR 00/M02 A3005 960 85 -500 060/06 RMK AO2 $
94908KDBQ DBQ20090226044510402/26/09 04:45:31  5-MIN KDBQ 261045Z AUTO 06006KT 5SM BR CLR M01/M02 A3005 960 88 -600 060/06 RMK AO2 $
94908KDBQ DBQ20090226045012102/26/09 04:50:31  5-MIN KDBQ 261050Z AUTO 06006KT 5SM BR CLR M01/M02 A3004 970 88 -600 060/06 RMK AO2 SLP182 T10061022 $
94908KDBQ DBQ20090226045510402/26/09 04:55:31  5-MIN KDBQ 261055Z AUTO 06006KT 5SM BR CLR M01/M02 A3004 970 88 -600 060/06 RMK AO2 $
94908KDBQ DBQ20090226050010402/26/09 05:00:31  5-MIN KDBQ 261100Z AUTO 06005KT 5SM BR CLR M01/M02 A3004 970 92 -700 060/05 RMK AO2 $
94908KDBQ DBQ20090226050511002/26/09 05:05:31  5-MIN KDBQ 261105Z AUTO 04007KT 4SM BR CLR M01/M03 A3003 980 88 -700 040/07 RMK AO2 P0001 $
94908KDBQ DBQ20090226051011002/26/09 05:10:31  5-MIN KDBQ 261110Z AUTO 05006KT 4SM BR CLR M01/M03 A3003 980 88 -700 040/06 RMK AO2 P0001 $
94908KDBQ DBQ20090226051511002/26/09 05:15:31  5-MIN KDBQ 261115Z AUTO 06006KT 4SM BR CLR M01/M03 A3003 980 88 -700 060/06 RMK AO2 P0001 $
94908KDBQ DBQ20090226052011002/26/09 05:20:31  5-MIN KDBQ 261120Z AUTO 06007KT 4SM BR CLR M01/M03 A3002 980 88 -700 060/07 RMK AO2 P0001 $
94908KDBQ DBQ20090226052511002/26/09 05:25:31  5-MIN KDBQ 261125Z AUTO 05008KT 5SM BR CLR M01/M03 A3002 990 85 -600 050/08 RMK AO2 P0001 $
94908KDBQ DBQ20090226053011002/26/09 05:30:31  5-MIN KDBQ 261130Z AUTO 04008KT 5SM BR CLR M01/M03 A3002 990 88 -700 040/08 RMK AO2 P0001 $
94908KDBQ DBQ20090226053511002/26/09 05:35:31  5-MIN KDBQ 261135Z AUTO 04008KT 4SM BR CLR M01/M03 A3002 990 88 -700 040/08 RMK AO2 P0001 $
94908KDBQ DBQ20090226054011002/26/09 05:40:31  5-MIN KDBQ 261140Z AUTO 05008KT 3SM BR CLR M01/M03 A3002 990 88 -700 050/08 RMK AO2 P0001 $
94908KDBQ DBQ20090226054511002/26/09 05:45:31  5-MIN KDBQ 261145Z AUTO 04008KT 3SM BR CLR M02/M03 A3001 990 92 -700 040/08 RMK AO2 P0001 $
94908KDBQ DBQ20090226055011402/26/09 05:50:31  5-MIN KDBQ 261150Z AUTO 05006KT 2 1/2SM BR CLR M02/M03 A3001 990 92 -700 050/06 RMK AO2 P0001 $
94908KDBQ DBQ20090226055509902/26/09 05:55:31  5-MIN KDBQ 261155Z 05006KT 3SM BR CLR M02/M03 A3001 990 92 -700 050/06 RMK AO2 $
94908KDBQ DBQ20090226060009902/26/09 06:00:31  5-MIN KDBQ 261200Z 06005KT 3SM BR CLR M02/M03 A3001 990 92 -700 050/05 RMK AO2 $
94908KDBQ DBQ20090226060510502/26/09 06:05:31  5-MIN KDBQ 261205Z 06007G22KT 4SM BR CLR M01/M03 A3001 990 85 -600 050/07G22 RMK AO2 $
94908KDBQ DBQ20090226061010502/26/09 06:10:31  5-MIN KDBQ 261210Z 07006G22KT 5SM BR CLR M01/M03 A3001 990 85 -600 070/06G22 RMK AO2 $
94908KDBQ DBQ20090226061509802/26/09 06:15:31  5-MIN KDBQ 261215Z 09008KT 6SM HZ CLR 00/M03 A3001 990 81 -500 080/08 RMK AO2 $
94908KDBQ DBQ20090226062009502/26/09 06:20:31  5-MIN KDBQ 261220Z 11007KT 7SM CLR 00/M03 A3002 990 81 -500 110/07 RMK AO2 $
94908KDBQ DBQ20090226062509502/26/09 06:25:31  5-MIN KDBQ 261225Z 12006KT 8SM CLR 00/M03 A3001 990 81 -500 120/06 RMK AO2 $
94908KDBQ DBQ20090226063009502/26/09 06:30:31  5-MIN KDBQ 261230Z 12007KT 8SM CLR 00/M03 A3001 990 81 -500 110/07 RMK AO2 $
94908KDBQ DBQ20090226063510102/26/09 06:35:31  5-MIN KDBQ 261235Z 12007G14KT 8SM CLR 00/M03 A3001 990 81 -500 120/07G14 RMK AO2 $
94908KDBQ DBQ20090226064010202/26/09 06:40:31  5-MIN KDBQ 261240Z 11006G14KT 8SM CLR 00/M03 A3001 1000 81 -500 110/06G14 RMK AO2 $
94908KDBQ DBQ20090226064509602/26/09 06:45:31  5-MIN KDBQ 261245Z 11006KT 7SM CLR 00/M03 A3001 1000 81 -500 110/06 RMK AO2 $
94908KDBQ DBQ20090226065011302/26/09 06:50:31  5-MIN KDBQ 261250Z 11007KT 7SM CLR 00/M03 A3000 1000 81 -500 110/07 RMK AO2 SLP171 T00001028 $
94908KDBQ DBQ20090226065509902/26/09 06:55:31  5-MIN KDBQ 261255Z 11007KT 6SM HZ CLR 00/M03 A3000 1000 81 -500 110/07 RMK AO2 $
94908KDBQ DBQ20090226070009902/26/09 07:00:31  5-MIN KDBQ 261300Z 11009KT 6SM HZ CLR 00/M03 A3000 1010 81 -500 110/09 RMK AO2 $
94908KDBQ DBQ20090226070509902/26/09 07:05:31  5-MIN KDBQ 261305Z 11007KT 6SM HZ CLR 00/M03 A2999 1010 81 -500 100/07 RMK AO2 $
94908KDBQ DBQ20090226071009902/26/09 07:10:31  5-MIN KDBQ 261310Z 10009KT 6SM HZ CLR 00/M03 A2999 1010 81 -500 100/09 RMK AO2 $
94908KDBQ DBQ20090226071509902/26/09 07:15:31  5-MIN KDBQ 261315Z 09009KT 6SM HZ CLR 00/M03 A2999 1010 81 -500 090/09 RMK AO2 $
94908KDBQ DBQ20090226072009902/26/09 07:20:31  5-MIN KDBQ 261320Z 08009KT 6SM HZ CLR 01/M03 A2999 1020 78 -400 080/09 RMK AO2 $
94908KDBQ DBQ20090226072509902/26/09 07:25:31  5-MIN KDBQ 261325Z 08009KT 6SM HZ CLR 01/M03 A2998 1020 78 -400 080/09 RMK AO2 $
94908KDBQ DBQ20090226073009902/26/09 07:30:31  5-MIN KDBQ 261330Z 09010KT 6SM HZ CLR 01/M03 A2998 1020 78 -400 090/10 RMK AO2 $
94908KDBQ DBQ20090226073509902/26/09 07:35:31  5-MIN KDBQ 261335Z 08010KT 6SM HZ CLR 01/M02 A2998 1020 82 -400 080/10 RMK AO2 $
94908KDBQ DBQ20090226074009902/26/09 07:40:31  5-MIN KDBQ 261340Z 06010KT 6SM HZ CLR 01/M02 A2997 1030 82 -400 060/10 RMK AO2 $
94908KDBQ DBQ20090226074509902/26/09 07:45:31  5-MIN KDBQ 261345Z 06008KT 5SM HZ CLR 01/M02 A2997 1040 82 -400 060/08 RMK AO2 $
94908KDBQ DBQ20090226075011602/26/09 07:50:31  5-MIN KDBQ 261350Z 07010KT 5SM HZ CLR 01/M02 A2997 1030 82 -400 070/10 RMK AO2 SLP159 T00061022 $
94908KDBQ DBQ20090226075509902/26/09 07:55:31  5-MIN KDBQ 261355Z 08009KT 5SM HZ CLR 01/M02 A2997 1030 78 -300 080/09 RMK AO2 $
94908KDBQ DBQ20090226080009902/26/09 08:00:31  5-MIN KDBQ 261400Z 08011KT 5SM HZ CLR 01/M02 A2997 1030 78 -300 080/11 RMK AO2 $
94908KDBQ DBQ20090226080509902/26/09 08:05:31  5-MIN KDBQ 261405Z 08009KT 6SM HZ CLR 01/M02 A2997 1030 78 -300 080/09 RMK AO2 $
94908KDBQ DBQ20090226081009902/26/09 08:10:31  5-MIN KDBQ 261410Z 07009KT 6SM HZ CLR 01/M02 A2997 1030 78 -300 070/09 RMK AO2 $
94908KDBQ DBQ20090226081509902/26/09 08:15:31  5-MIN KDBQ 261415Z 09007KT 5SM HZ CLR 01/M02 A2997 1030 78 -300 090/07 RMK AO2 $
94908KDBQ DBQ20090226082009902/26/09 08:20:31  5-MIN KDBQ 261420Z 08009KT 5SM HZ CLR 01/M02 A2996 1040 78 -300 080/09 RMK AO2 $
94908KDBQ DBQ20090226082510202/26/09 08:25:31  5-MIN KDBQ 261425Z 08010KT 5SM HZ FEW120 01/M02 A2996 1040 78 -300 080/10 RMK AO2 $
94908KDBQ DBQ20090226083010902/26/09 08:30:31  5-MIN KDBQ 261430Z 06008KT 5SM HZ FEW110 01/M02 A2995 1050 82 -300 060/08 RMK AO2 PRESFR $
94908KDBQ DBQ20090226083510202/26/09 08:35:31  5-MIN KDBQ 261435Z 08006KT 5SM HZ SCT100 01/M02 A2997 1030 82 -300 080/06 RMK AO2 $
94908KDBQ DBQ20090226084010902/26/09 08:40:31  5-MIN KDBQ 261440Z 08008KT 5SM HZ SCT085 SCT110 01/M02 A2996 1040 82 -300 080/08 RMK AO2 $
94908KDBQ DBQ20090226084512802/26/09 08:45:31  5-MIN KDBQ 261445Z 08009KT 5SM UP FEW055 BKN070 BKN090 01/M02 A2996 1050 82 -300 080/09 RMK AO2 UPB45 P0000 $
94908KDBQ DBQ20090226085014902/26/09 08:50:31  5-MIN KDBQ 261450Z 09012G16KT 5SM UP BKN060 01/M02 A2995 1050 82 -300 090/12G16 RMK AO2 UPB45 SLP152 P0000 60000 T00111017 58018 $
94908KDBQ DBQ20090226085511502/26/09 08:55:31  5-MIN KDBQ 261455Z 08012KT 5SM HZ BKN060 01/M02 A2994 1060 82 -300 080/12 RMK AO2 UPE54 PRESFR $
94908KDBQ DBQ20090226090011702/26/09 09:00:31  5-MIN KDBQ 261500Z 08015KT 5SM HZ OVC060 01/M02 A2993 1070 82 -300 080/15 RMK AO2 UPE1454 PRESFR $
94908KDBQ DBQ20090226090512402/26/09 09:05:31  5-MIN KDBQ 261505Z 08015KT 5SM HZ BKN055 OVC070 02/M02 A2992 1080 78 -200 080/15 RMK AO2 UPE1454 PRESFR $
94908KDBQ DBQ20090226091011702/26/09 09:10:31  5-MIN KDBQ 261510Z 09012KT 5SM HZ BKN055 BKN070 02/M02 A2992 1080 78 -200 090/12 RMK AO2 UPE1454 $
94908KDBQ DBQ20090226091512402/26/09 09:15:31  5-MIN KDBQ 261515Z 08013KT 5SM HZ BKN060 BKN110 02/M01 A2991 1090 82 -200 080/13 RMK AO2 UPE1454 PRESFR $
94908KDBQ DBQ20090226092012302/26/09 09:20:31  5-MIN KDBQ 261520Z 10009G19KT 5SM HZ SCT065 BKN110 02/M01 A2992 1080 78 -100 100/09G19 RMK AO2 UPE1454 $
94908KDBQ DBQ20090226092511002/26/09 09:25:31  5-MIN KDBQ 261525Z 09012KT 5SM HZ FEW060 02/M01 A2991 1090 78 -100 090/12 RMK AO2 UPE1454 $
94908KDBQ DBQ20090226093011002/26/09 09:30:31  5-MIN KDBQ 261530Z 10012KT 5SM HZ FEW055 02/M01 A2991 1090 78 -100 100/12 RMK AO2 UPE1454 $
94908KDBQ DBQ20090226093511602/26/09 09:35:31  5-MIN KDBQ 261535Z 10012G19KT 5SM HZ FEW090 02/M01 A2990 1100 78 -100 100/12G19 RMK AO2 UPE1454 $
94908KDBQ DBQ20090226094012302/26/09 09:40:31  5-MIN KDBQ 261540Z 10013G20KT 5SM HZ FEW075 SCT090 02/M01 A2991 1090 78 -100 100/13G20 RMK AO2 UPE1454 $
94908KDBQ DBQ20090226094511702/26/09 09:45:31  5-MIN KDBQ 261545Z 10015KT 5SM HZ SCT070 BKN090 02/M01 A2989 1100 78 -100 090/15 RMK AO2 UPE1454 $
94908KDBQ DBQ20090226095014702/26/09 09:50:31  5-MIN KDBQ 261550Z 10011G19KT 5SM HZ FEW050 BKN070 BKN090 02/M01 A2989 1110 78 -100 100/11G19 RMK AO2 UPE1454 SLP132 T00221011 $
94908KDBQ DBQ20090226095513502/26/09 09:55:31  5-MIN KDBQ 261555Z 09014G18KT 4SM UP FEW050 BKN065 BKN075 02/M01 A2988 1120 78 -100 090/14G18 RMK AO2 PRESFR P0000 $
94908KDBQ DBQ20090226100012802/26/09 10:00:31  5-MIN KDBQ 261600Z 09012G18KT 4SM UP FEW034 BKN065 BKN075 02/M01 A2988 1120 82 -100 090/12G18 RMK AO2 P0000 $
94908KDBQ DBQ20090226100513402/26/09 10:05:31  5-MIN KDBQ 261605Z 09012KT 4SM -RA FEW039 SCT060 BKN070 02/M01 A2987 1120 82 -100 090/12 RMK AO2 UPE01RAB01 P0001 $
94908KDBQ DBQ20090226101014202/26/09 10:10:31  5-MIN KDBQ 261610Z 11011G20KT 4SM HZ FEW045 SCT060 BKN070 02/M01 A2988 1110 82 -100 110/11G20 RMK AO2 UPE01RAB01E10 P0001 $
94908KDBQ DBQ20090226101513702/26/09 10:15:31  5-MIN KDBQ 261615Z 10013G20KT 4SM UP FEW038 SCT060 BKN075 02/M01 A2987 1120 82 -100 100/13G20 RMK AO2 RAB01E10 P0001 $
94908KDBQ DBQ20090226102014002/26/09 10:20:31  5-MIN KDBQ 261620Z 10014G20KT 4SM UP BR FEW036 SCT060 BKN075 02/M01 A2987 1130 85 -100 100/14G20 RMK AO2 RAB01E10 P0001 $
94908KDBQ DBQ20090226102513402/26/09 10:25:31  5-MIN KDBQ 261625Z 11011KT 3SM UP BR FEW036 BKN060 BKN075 02/M01 A2987 1130 85 -100 110/11 RMK AO2 RAB01E10 P0001 $
94908KDBQ DBQ20090226103012702/26/09 10:30:31  5-MIN KDBQ 261630Z 10010KT 3SM UP BR BKN055 BKN075 02/M01 A2987 1130 85 -100 090/10 RMK AO2 RAB01E10 P0001 $
94908KDBQ DBQ20090226103514802/26/09 10:35:31  5-MIN KDBQ 261635Z 11008KT 3SM VCTS UP BR BKN055 BKN075 02/00 A2987 1120 85 -100 110/08 RMK AO2 LTG DSNT NW TSB33RAB01E10 P0001 $
94908KDBQ DBQ20090226104016302/26/09 10:40:31  5-MIN KDBQ 261640Z 09011KT 4SM VCTS BR FEW013 BKN050 OVC075 02/00 A2986 1130 85 -100 090/11 RMK AO2 LTG DSNT N AND NW TSB33UPE37RAB01E10 P0001 $
94908KDBQ DBQ20090226104516002/26/09 10:45:31  5-MIN KDBQ 261645Z 08012KT 4SM VCTS BR SCT013 BKN050 OVC060 02/00 A2985 1140 85 0 080/12 RMK AO2 LTG DSNT N AND NW TSB33UPE37RAB01E10 P0001 $
94908KDBQ DBQ20090226105016802/26/09 10:50:31  5-MIN KDBQ 261650Z 09009KT 4SM BR BKN013 BKN050 OVC060 02/00 A2985 1140 85 0 090/09 RMK AO2 LTG DSNT N TSB33E48UPE37RAB01E10 SLP119 P0001 T00220000 $
94908KDBQ DBQ20090226105511202/26/09 10:55:31  5-MIN KDBQ 261655Z 09012KT 3SM BR BKN011 OVC050 02/00 A2984 1150 85 0 090/12 RMK AO2 PRESFR $
94908KDBQ DBQ20090226110012202/26/09 11:00:31  5-MIN KDBQ 261700Z 09012KT 3SM UP BR BKN011 OVC047 02/00 A2984 1150 85 0 090/12 RMK AO2 UPB1659 P0000 $
94908KDBQ DBQ20090226110513102/26/09 11:05:31  5-MIN KDBQ 261705Z 09011KT 2 1/2SM UP BR OVC011 02/00 A2984 1150 85 0 090/11 RMK AO2 UPB1659 CIG 009V015 P0000 $
94908KDBQ DBQ20090226111013202/26/09 11:10:31  5-MIN KDBQ 261710Z 08016G20KT 2 1/2SM UP BR OVC011 02/00 A2982 1170 85 0 080/16G20 RMK AO2 UPB1659 PRESFR P0000 $
94908KDBQ DBQ20090226111513402/26/09 11:15:31  5-MIN KDBQ 261715Z 09012G20KT 2 1/2SM -RA BR OVC011 02/01 A2982 1170 89 0 090/12G20 RMK AO2 UPB1659E11RAB11 P0000 $
94908KDBQ DBQ20090226112013402/26/09 11:20:31  5-MIN KDBQ 261720Z 09014G19KT 2 1/2SM -RA BR OVC009 02/01 A2981 1180 89 0 090/14G19 RMK AO2 UPB1659E11RAB11 P0000 $
94908KDBQ DBQ20090226112513302/26/09 11:25:31  5-MIN KDBQ 261725Z 09014G19KT 2 1/2SM UP BR OVC009 02/01 A2981 1180 89 0 090/14G19 RMK AO2 UPB1659RAB11E21 P0000 $
94908KDBQ DBQ20090226113013902/26/09 11:30:31  5-MIN KDBQ 261730Z 09015KT 2 1/2SM BR OVC009 02/01 A2980 1190 89 0 090/15 RMK AO2 UPB1659E28RAB11E21 CIG 007V012 P0000 $
94908KDBQ DBQ20090226113513902/26/09 11:35:31  5-MIN KDBQ 261735Z 09014KT 2 1/2SM BR OVC009 02/01 A2980 1190 89 0 090/14 RMK AO2 UPB1659E28RAB11E21 CIG 006V012 P0000 $
94908KDBQ DBQ20090226114015602/26/09 11:40:31  5-MIN KDBQ 261740Z 08010G19KT 2 1/2SM BR OVC007 02/01 A2979 1200 89 0 080/10G19 RMK AO2 LTG DSNT S UPB1659E28RAB11E21 CIG 005V010 P0000 $
94908KDBQ DBQ20090226114515302/26/09 11:45:31  5-MIN KDBQ 261745Z 08010KT 2SM BR OVC007 02/01 A2979 1200 92 0 080/10 RMK AO2 LTG DSNT SE AND S UPB1659E28RAB11E21 CIG 005V010 P0000 $
94908KDBQ DBQ20090226115019402/26/09 11:50:31  5-MIN KDBQ 261750Z 09008KT 2SM BR OVC005 02/01 A2979 1200 92 0 090/08 RMK AO2 LTG DSNT SE AND S UPB1659E28RAB11E21 CIG 004V008 SLP097 P0000 60001 T00220011 10022 21017 58024 $
94908KDBQ DBQ20090226115513802/26/09 11:55:31  5-MIN KDBQ 261755Z 09013G18KT 1 3/4SM BR OVC005 02/01 A2978 1210 92 0 090/13G18 RMK AO2 LTG DSNT SE AND S CIG 004V008 $
94908KDBQ DBQ20090226120014802/26/09 12:00:31  5-MIN KDBQ 261800Z 10012G19KT 1 1/2SM BR OVC005 02/01 A2977 1220 92 0 100/12G19 RMK AO2 LTG DSNT ALQDS CIG 003V007 PRESFR P0001 $
94908KDBQ DBQ20090226120512902/26/09 12:05:31  5-MIN KDBQ 261805Z 10012G19KT 1 1/4SM BR OVC005 02/01 A2977 1220 92 0 100/12G19 RMK AO2 LTG DSNT ALQDS P0001 $
94908KDBQ DBQ20090226121012502/26/09 12:10:31  5-MIN KDBQ 261810Z 09015G19KT 1SM BR OVC003 02/02 A2976 1230 96 0 090/15G19 RMK AO2 LTG DSNT ALQDS P0001 $
94908KDBQ DBQ20090226121513202/26/09 12:15:31  5-MIN KDBQ 261815Z 09014G19KT 1SM BR OVC003 02/02 A2975 1240 96 0 090/14G19 RMK AO2 LTG DSNT NE-SE PRESFR P0001 $
94908KDBQ DBQ20090226122012802/26/09 12:20:31  5-MIN KDBQ 261820Z 10014KT 3/4SM BR OVC003 02/02 A2974 1250 96 0 100/14 RMK AO2 LTG DSNT NE-SE PRESFR P0001 $
94908KDBQ DBQ20090226122513402/26/09 12:25:31  5-MIN KDBQ 261825Z 10014G19KT 1SM BR OVC003 03/02 A2973 1250 92 100 100/14G19 RMK AO2 LTG DSNT NE-SE PRESFR P0001 $
94908KDBQ DBQ20090226123012102/26/09 12:30:31  5-MIN KDBQ 261830Z 10014KT 1SM BR OVC003 03/02 A2973 1260 92 100 100/14 RMK AO2 LTG DSNT NE-SE P0001 $
94908KDBQ DBQ20090226123513402/26/09 12:35:31  5-MIN KDBQ 261835Z 10015G19KT 1SM BR OVC003 03/02 A2972 1270 92 100 100/15G19 RMK AO2 LTG DSNT NE-SE PRESFR P0001 $
94908KDBQ DBQ20090226124013402/26/09 12:40:31  5-MIN KDBQ 261840Z 11014G19KT 1SM BR OVC003 03/02 A2971 1270 92 100 100/14G19 RMK AO2 LTG DSNT NE-SE PRESFR P0001 $
94908KDBQ DBQ20090226124512402/26/09 12:45:31  5-MIN KDBQ 261845Z 11015KT 1SM BR OVC003 03/02 A2971 1270 92 100 110/15 RMK AO2 LTG DSNT E AND SE P0001 $
94908KDBQ DBQ20090226125014002/26/09 12:50:31  5-MIN KDBQ 261850Z 11016G22KT 1SM BR OVC003 03/02 A2971 1280 92 100 110/16G22 RMK AO2 LTG DSNT E SLP069 P0001 T00280017 $
94908KDBQ DBQ20090226125512102/26/09 12:55:31  5-MIN KDBQ 261855Z 11014G22KT 1 1/4SM BR OVC003 03/02 A2971 1280 92 100 110/14G22 RMK AO2 LTG DSNT E $
94908KDBQ DBQ20090226130012102/26/09 13:00:31  5-MIN KDBQ 261900Z 12014G20KT 1 1/4SM BR OVC003 03/02 A2970 1280 92 100 110/14G20 RMK AO2 LTG DSNT E $
94908KDBQ DBQ20090226130511702/26/09 13:05:31  5-MIN KDBQ 261905Z 12014G20KT 1SM BR OVC003 03/02 A2969 1290 92 200 120/14G20 RMK AO2 LTG DSNT E $
94908KDBQ DBQ20090226131012602/26/09 13:10:31  5-MIN KDBQ 261910Z 12014KT 3/4SM BR OVC003 03/02 A2968 1300 96 200 120/14 RMK AO2 LTG DSNT E AND W PRESFR $
94908KDBQ DBQ20090226131513702/26/09 13:15:31  5-MIN KDBQ 261915Z 11013G21KT 1SM BR OVC003 03/02 A2967 1310 96 200 110/13G21 RMK AO2 LTG DSNT E AND W AND NW PRESFR $
94908KDBQ DBQ20090226132014202/26/09 13:20:31  5-MIN KDBQ 261920Z 11014G21KT 1SM BR OVC003 03/02 A2967 1310 96 200 110/14G21 RMK AO2 LTG DSNT E AND W AND NW CIG 002V007 $
94908KDBQ DBQ20090226132512502/26/09 13:25:31  5-MIN KDBQ 261925Z 11011G19KT 1SM BR OVC003 03/02 A2966 1320 96 200 110/11G19 RMK AO2 LTG DSNT NW PRESFR $
94908KDBQ DBQ20090226133012502/26/09 13:30:31  5-MIN KDBQ 261930Z 12014G19KT 1SM BR OVC003 03/02 A2965 1330 96 200 120/14G19 RMK AO2 LTG DSNT NW PRESFR $
94908KDBQ DBQ20090226133511802/26/09 13:35:31  5-MIN KDBQ 261935Z 12015G22KT 1SM BR OVC003 03/02 A2965 1330 96 200 120/15G22 RMK AO2 LTG DSNT NW $
94908KDBQ DBQ20090226134011802/26/09 13:40:31  5-MIN KDBQ 261940Z 12014G22KT 1SM BR OVC003 03/02 A2964 1340 96 200 120/14G22 RMK AO2 LTG DSNT NW $
94908KDBQ DBQ20090226134512102/26/09 13:45:31  5-MIN KDBQ 261945Z 13014G21KT 3/4SM BR OVC003 03/03 A2964 1340 100 200 130/14G21 RMK AO2 LTG DSNT NW $
94908KDBQ DBQ20090226135011202/26/09 13:50:31  5-MIN KDBQ 261950Z 13014KT 1/2SM FG OVC003 03/03 A2964 1340 96 300 130/14 RMK AO2 LTG DSNT NW
94908KDBQ DBQ20090226135511602/26/09 13:55:31  5-MIN KDBQ 261955Z 11014KT 1/2SM FG OVC001 03/03 A2963 1350 96 300 110/14 RMK AO2 LTG DSNT NW PNO
94908KDBQ DBQ20090226140012002/26/09 14:00:31  5-MIN KDBQ 262000Z 13014KT 1/2SM FG OVC001 03/03 A2962 1350 96 300 130/14 RMK AO2 LTG DSNT N AND NW $
94908KDBQ DBQ20090226140512102/26/09 14:05:31  5-MIN KDBQ 262005Z 11013KT 1/2SM FG OVC001 03/03 A2962 1360 100 200 110/13 RMK AO2 LTG DSNT N AND NW $
94908KDBQ DBQ20090226141013402/26/09 14:10:31  5-MIN KDBQ 262010Z 12012G18KT 1/2SM FG OVC001 03/03 A2961 1370 100 300 120/12G18 RMK AO2 LTG DSNT N AND NW PRESFR $
94908KDBQ DBQ20090226141512902/26/09 14:15:31  5-MIN KDBQ 262015Z 12013G19KT 1/2SM FG OVC001 03/03 A2960 1370 100 300 120/13G19 RMK AO2 LTG DSNT W-N PRESFR $
94908KDBQ DBQ20090226142012902/26/09 14:20:31  5-MIN KDBQ 262020Z 12014G19KT 1/2SM FG OVC001 03/03 A2959 1380 96 300 120/14G19 RMK AO2 LTG DSNT SW-N PRESFR $
94908KDBQ DBQ20090226142512702/26/09 14:25:31  5-MIN KDBQ 262025Z 12015G21KT 1/2SM FG OVC001 03/03 A2957 1400 96 400 120/15G21 RMK AO2 LTG DSNT SW-N PRESFR
94908KDBQ DBQ20090226143012702/26/09 14:30:31  5-MIN KDBQ 262030Z 13015G21KT 3/4SM BR OVC001 03/03 A2957 1410 96 400 130/15G21 RMK AO2 LTG DSNT SW-N PRESFR
94908KDBQ DBQ20090226143512102/26/09 14:35:31  5-MIN KDBQ 262035Z 13017G21KT 3/4SM BR OVC001 03/03 A2956 1410 96 400 130/17G21 RMK AO2 LTG DSNT SW-NW
94908KDBQ DBQ20090226144012002/26/09 14:40:31  5-MIN KDBQ 262040Z 12014G21KT 1/2SM FG OVC001 03/03 A2956 1410 96 400 120/14G21 RMK AO2 LTG DSNT S-NW
94908KDBQ DBQ20090226144513202/26/09 14:45:31  5-MIN KDBQ 262045Z 12014G20KT 1/4SM VCTS FG OVC001 03/03 A2957 1400 96 400 120/14G20 RMK AO2 LTG DSNT ALQDS TSB41
94908KDBQ DBQ20090226145016202/26/09 14:50:31  5-MIN KDBQ 262050Z 12015G21KT 1/4SM VCTS FG OVC001 03/03 A2957 1410 100 400 120/15G21 RMK AO2 LTG DSNT ALQDS TSB41 SLP021 60001 T00330033 56050
94908KDBQ DBQ20090226145512502/26/09 14:55:31  5-MIN KDBQ 262055Z 13015G22KT 1/4SM VCTS FG VV001 03/03 A2956 1410 96 400 120/15G22 RMK AO2 LTG DSNT ALQDS
94908KDBQ DBQ20090226150015102/26/09 15:00:31  5-MIN KDBQ 262100Z 14010G22KT 1/4SM VCTS -RA FG VV001 03/03 A2959 1390 100 300 140/10G22 RMK AO2 LTG DSNT ALQDS RAB2059 PRESRR P0000
94908KDBQ DBQ20090226150514502/26/09 15:05:31  5-MIN KDBQ 262105Z VRB06KT 1/4SM VCTS +RA FG VV001 03/03 A2959 1380 100 300 VRB/06 RMK AO2 LTG DSNT ALQDS RAB2059 PRESRR P0000
94908KDBQ DBQ20090226151015102/26/09 15:10:31  5-MIN KDBQ 262110Z 34007KT 1/4SM VCTS +RA FG VV001 03/03 A2961 1360 100 300 340/07 RMK AO2 LTG DSNT ALQDS RAB2059 PRESRR P0000 PNO $
94908KDBQ DBQ20090226151514902/26/09 15:15:31  5-MIN KDBQ 262115Z 34013G16KT 1/2SM VCTS RA FG VV001 03/03 A2960 1370 100 300 340/13G16 RMK AO2 LTG DSNT ALQDS RAB2059 P0000 PNO $
94908KDBQ DBQ20090226152015202/26/09 15:20:31  5-MIN KDBQ 262120Z VRB05G16KT 1SM TSRA BR OVC001 04/03 A2959 1380 96 400 VRB/05G16 RMK AO2 LTG DSNT ALQDS TSE17B18RAB2059 P0000 PNO $
94908KDBQ DBQ20090226152515102/26/09 15:25:31  5-MIN KDBQ 262125Z 15003KT 1 1/4SM +TSRA BR OVC003 04/03 A2960 1370 96 400 150/03 RMK AO2 LTG DSNT ALQDS TSE17B18RAB2059 P0000 PNO $
94908KDBQ DBQ20090226153016102/26/09 15:30:31  5-MIN KDBQ 262130Z 10006KT 1SM +TSRA BR BKN003 BKN007 OVC011 04/03 A2960 1370 96 400 090/06 RMK AO2 LTG DSNT ALQDS TSE17B18RAB2059 P0000 PNO $
94908KDBQ DBQ20090226153516302/26/09 15:35:31  5-MIN KDBQ 262135Z 32018G24KT 1SM +TSRA BR BKN003 BKN008 OVC011 04/03 A2966 1320 96 300 320/18G24 RMK AO2 LTG DSNT ALQDS TSE17B18RAB2059 P0025 $
94908KDBQ DBQ20090226154018002/26/09 15:40:31  5-MIN KDBQ 262140Z 33020G27KT 1SM +TSRA BR BKN003 BKN006 OVC018 03/02 A2966 1320 92 300 320/20G27 RMK AO2 PK WND 33027/2140 LTG DSNT NW-E TSE17B18RAB2059 P0028 $
94908KDBQ DBQ20090226154518402/26/09 15:45:31  5-MIN KDBQ 262145Z 34016G27KT 3/4SM VCTS +RA BR BKN003 BKN012 OVC018 03/02 A2966 1320 96 200 340/16G27 RMK AO2 PK WND 34027/2142 LTG DSNT N-E TSE17B18RAB2059 P0039 $
94908KDBQ DBQ20090226155018702/26/09 15:50:31  5-MIN KDBQ 262150Z 35011KT 1SM VCTS RA BR SCT005 BKN016 OVC060 03/03 A2966 1320 100 200 350/11 RMK AO2 PK WND 34027/2142 WSHFT 2133 LTG DSNT N-E TSE17B18RAB2059 P0044 $
94908KDBQ DBQ20090226155513702/26/09 15:55:31  5-MIN KDBQ 262155Z 02011KT 2SM +RA BR FEW005 BKN026 OVC060 03/03 A2964 1330 100 200 020/11 RMK AO2 LTG DSNT NE P0001 $
94908KDBQ DBQ20090226160014602/26/09 16:00:31  5-MIN KDBQ 262200Z 02013KT 1 3/4SM RA BR FEW005 BKN028 OVC060 03/03 A2965 1330 100 200 020/13 RMK AO2 LTG DSNT N AND NE P0002 $
94908KDBQ DBQ20090226160514702/26/09 16:05:31  5-MIN KDBQ 262205Z 03012KT 2 1/2SM -RA BR FEW005 BKN032 OVC055 03/03 A2963 1350 100 200 030/12 RMK AO2 LTG DSNT N PRESFR P0003 $
94908KDBQ DBQ20090226161014702/26/09 16:10:31  5-MIN KDBQ 262210Z 04012KT 2 1/2SM -RA BR FEW012 SCT030 OVC050 03/03 A2962 1360 100 200 040/12 RMK AO2 LTG DSNT N PRESFR P0003 $
94908KDBQ DBQ20090226161513602/26/09 16:15:31  5-MIN KDBQ 262215Z 05014KT 2 1/2SM -RA BR FEW030 BKN050 OVC060 03/03 A2960 1380 100 300 050/14 RMK AO2 PRESFR P0003 $
94908KDBQ DBQ20090226162013102/26/09 16:20:31  5-MIN KDBQ 262220Z 05013KT 2SM RA BR FEW032 BKN045 OVC070 03/03 A2959 1390 100 300 050/13 RMK AO2 PRESFR P0003 $
94908KDBQ DBQ20090226162513102/26/09 16:25:31  5-MIN KDBQ 262225Z 06015KT 2SM RA BR FEW032 BKN047 OVC070 03/03 A2958 1400 100 300 060/15 RMK AO2 PRESFR P0008 $
94908KDBQ DBQ20090226163012802/26/09 16:30:31  5-MIN KDBQ 262230Z 06013KT 2 1/2SM RA BR BKN047 OVC070 03/03 A2957 1400 100 300 060/13 RMK AO2 PRESFR P0010 $
94908KDBQ DBQ20090226163512102/26/09 16:35:31  5-MIN KDBQ 262235Z 07011KT 2 1/2SM RA BR BKN047 OVC070 03/03 A2957 1400 100 300 070/11 RMK AO2 P0010 $
94908KDBQ DBQ20090226164011802/26/09 16:40:31  5-MIN KDBQ 262240Z 05010KT 3SM -RA BR BKN049 OVC070 03/03 A2958 1400 100 300 050/10 RMK AO2 P0010 $
94908KDBQ DBQ20090226164512502/26/09 16:45:31  5-MIN KDBQ 262245Z 07008KT 4SM -RA BR FEW041 BKN050 OVC075 03/03 A2958 1400 100 400 060/08 RMK AO2 P0010 $
94908KDBQ DBQ20090226165014202/26/09 16:50:31  5-MIN KDBQ 262250Z 06008KT 5SM -RA BR SCT041 BKN055 OVC070 03/03 A2958 1400 100 400 060/08 RMK AO2 SLP026 P0010 T00330033 $
94908KDBQ DBQ20090226165512502/26/09 16:55:31  5-MIN KDBQ 262255Z 06009KT 5SM -RA BR SCT041 BKN055 OVC070 03/03 A2957 1410 100 400 060/09 RMK AO2 P0000 $
94908KDBQ DBQ20090226170012502/26/09 17:00:31  5-MIN KDBQ 262300Z 07008KT 4SM -RA BR BKN043 BKN060 OVC075 03/03 A2957 1410 100 400 070/08 RMK AO2 P0000 $
94908KDBQ DBQ20090226170511802/26/09 17:05:31  5-MIN KDBQ 262305Z 06009KT 4SM -RA BR BKN043 OVC070 03/03 A2956 1410 100 400 060/09 RMK AO2 P0000 $
94908KDBQ DBQ20090226171011802/26/09 17:10:31  5-MIN KDBQ 262310Z 08009KT 5SM -RA BR FEW026 OVC043 03/03 A2956 1410 100 400 080/09 RMK AO2 P0000 $
94908KDBQ DBQ20090226171512002/26/09 17:15:31  5-MIN KDBQ 262315Z 08009KT 6SM BR FEW023 OVC045 03/03 A2955 1420 100 400 080/09 RMK AO2 RAE12 P0000 $
94908KDBQ DBQ20090226172012002/26/09 17:20:31  5-MIN KDBQ 262320Z 08010KT 5SM BR FEW023 OVC047 03/03 A2955 1420 100 300 080/10 RMK AO2 RAE12 P0000 $
94908KDBQ DBQ20090226172512702/26/09 17:25:31  5-MIN KDBQ 262325Z 09009KT 5SM BR SCT023 BKN045 OVC050 03/03 A2955 1420 100 300 090/09 RMK AO2 RAE12 P0000 $
94908KDBQ DBQ20090226173012302/26/09 17:30:31  5-MIN KDBQ 262330Z 08008KT 6SM HZ SCT023 BKN042 OVC049 03/ A2955 1420 M 300 080/08 RMK AO2 RAE12 P0000 $
94908KDBQ DBQ20090226173512302/26/09 17:35:31  5-MIN KDBQ 262335Z 08008KT 6SM HZ BKN023 BKN042 OVC049 03/ A2954 1430 M 300 080/08 RMK AO2 RAE12 P0000 $
94908KDBQ DBQ20090226174012302/26/09 17:40:31  5-MIN KDBQ 262340Z 07007KT 6SM HZ FEW016 BKN021 OVC049 03/ A2954 1430 M 300 070/07 RMK AO2 RAE12 P0000 $
94908KDBQ DBQ20090226174512302/26/09 17:45:31  5-MIN KDBQ 262345Z 07006KT 5SM HZ SCT016 BKN021 OVC049 03/ A2954 1430 M 300 070/06 RMK AO2 RAE12 P0000 $
94908KDBQ DBQ20090226175016502/26/09 17:50:31  5-MIN KDBQ 262350Z 07005KT 5SM UP SCT016 BKN021 OVC043 03/ A2954 1430 M 300 060/05 RMK AO2 RAE12UPB50 SLP015 P0000 60056 T0028 10039 20022 56077 $
94908KDBQ DBQ20090226175511802/26/09 17:55:31  5-MIN KDBQ 262355Z 03003KT 4SM -RA SCT016 BKN021 OVC037 03/ A2955 1430 M 300 030/03 RMK AO2 P0000 $
94908KDBQ DBQ20090226180011102/26/09 18:00:31  5-MIN KDBQ 270000Z 08003KT 4SM -RA BKN014 OVC021 03/ A2955 1420 M 400 080/03 RMK AO2 P0000 $
94908KDBQ DBQ20090226180511102/26/09 18:05:31  5-MIN KDBQ 270005Z 06003KT 4SM -RA BKN014 OVC023 03/ A2954 1430 M 400 060/03 RMK AO2 P0002 $
94908KDBQ DBQ20090226181011102/26/09 18:10:31  5-MIN KDBQ 270010Z 08003KT 4SM -RA BKN014 OVC021 03/ A2954 1430 M 300 080/03 RMK AO2 P0003 $
94908KDBQ DBQ20090226181511102/26/09 18:15:31  5-MIN KDBQ 270015Z 00000KT 4SM -RA BKN014 OVC021 03/ A2954 1430 M 400 000/00 RMK AO2 P0004 $
94908KDBQ DBQ20090226182010402/26/09 18:20:31  5-MIN KDBQ 270020Z 04003KT 4SM -RA OVC014 03/ A2954 1430 M 300 030/03 RMK AO2 P0005 $
94908KDBQ DBQ20090226182510402/26/09 18:25:31  5-MIN KDBQ 270025Z 03003KT 4SM -RA OVC014 03/ A2954 1430 M 300 030/03 RMK AO2 P0005 $
94908KDBQ DBQ20090226183011002/26/09 18:30:31  5-MIN KDBQ 270030Z 04003KT 3SM RA BKN014 OVC022 03/ A2954 1430 M 300 040/03 RMK AO2 P0006 $
94908KDBQ DBQ20090226183511802/26/09 18:35:31  5-MIN KDBQ 270035Z 03005KT 3SM -RA BKN014 BKN022 OVC030 03/ A2953 1440 M 300 030/05 RMK AO2 P0006 $
94908KDBQ DBQ20090226184012102/26/09 18:40:31  5-MIN KDBQ 270040Z 36005KT 2 1/2SM RA BKN014 BKN022 OVC030 03/ A2954 1440 M 300 360/05 RMK AO2 P0007 $
94908KDBQ DBQ20090226184512102/26/09 18:45:31  5-MIN KDBQ 270045Z 01005KT 1 1/2SM RA FEW001 BKN014 OVC030 03/ A2954 1440 M 300 360/05 RMK AO2 P0008 $
94908KDBQ DBQ20090226185013502/26/09 18:50:31  5-MIN KDBQ 270050Z 02009KT 1 1/4SM -RA SCT001 BKN014 OVC030 03/ A2953 1440 M 300 020/09 RMK AO2 SLP010 P0008 T0028 $
94908KDBQ DBQ20090226185513302/26/09 18:55:31  5-MIN KDBQ 270055Z 02008KT 1 1/4SM RA BKN001 BKN012 OVC030 03/ A2953 1440 M 300 020/08 RMK AO2 CIG 001V005 P0000 $
94908KDBQ DBQ20090226190013402/26/09 19:00:31  5-MIN KDBQ 270100Z 35008KT 1 1/4SM -RA BKN001 BKN012 OVC030 03/ A2954 1430 M 300 350/08 RMK AO2 CIG 001V005 P0000 $
94908KDBQ DBQ20090226190512502/26/09 19:05:31  5-MIN KDBQ 270105Z 01008KT 1 1/2SM UP BKN001 OVC012 03/ A2954 1440 M 300 360/08 RMK AO2 RAE05UPB05 P0000 $
94908KDBQ DBQ20090226191012502/26/09 19:10:31  5-MIN KDBQ 270110Z 36009KT 1 1/4SM UP BR OVC001 03/03 A2953 1440 100 300 360/09 RMK AO2 RAE05UPB05 P0000 $
94908KDBQ DBQ20090226191512402/26/09 19:15:31  5-MIN KDBQ 270115Z 36009KT 1 1/4SM -RA BR OVC001 03/03 A2954 1430 100 300 360/09 RMK AO2 UPB05E11 P0000 $
94908KDBQ DBQ20090226192012402/26/09 19:20:31  5-MIN KDBQ 270120Z 35009KT 1 1/4SM -RA BR OVC001 03/03 A2955 1430 100 300 350/09 RMK AO2 UPB05E11 P0000 $
94908KDBQ DBQ20090226192512102/26/09 19:25:31  5-MIN KDBQ 270125Z 36008KT 1SM BR OVC001 02/02 A2955 1430 100 300 360/08 RMK AO2 RAE23UPB05E25 P0000 $
94908KDBQ DBQ20090226193012502/26/09 19:30:31  5-MIN KDBQ 270130Z 36009KT 1 1/4SM BR OVC001 02/02 A2954 1430 100 300 360/09 RMK AO2 RAE23UPB05E25 P0000 $
94908KDBQ DBQ20090226193511802/26/09 19:35:31  5-MIN KDBQ 270135Z 36011KT 1 3/4SM UP OVC001 02/ A2954 1430 M 300 360/11 RMK AO2 RAE23UPB05 P0000 $
94908KDBQ DBQ20090226194011402/26/09 19:40:31  5-MIN KDBQ 270140Z 35012KT 2SM UP OVC001 02/ A2954 1430 M 300 350/12 RMK AO2 RAE23UPB05 P0000 $
94908KDBQ DBQ20090226194512502/26/09 19:45:31  5-MIN KDBQ 270145Z 36012KT 1 3/4SM BR OVC001 02/02 A2954 1430 100 300 360/12 RMK AO2 RAE23UPB05E41 P0000 $
94908KDBQ DBQ20090226195014202/26/09 19:50:31  5-MIN KDBQ 270150Z 36012KT 1 1/2SM BR OVC001 02/02 A2954 1430 100 300 360/12 RMK AO2 RAE23UPB05E41 SLP014 P0000 T00220022 $
94908KDBQ DBQ20090226195510502/26/09 19:55:31  5-MIN KDBQ 270155Z 36012KT 1 1/2SM BR OVC001 02/02 A2955 1430 100 300 350/12 RMK AO2 $
94908KDBQ DBQ20090226200010502/26/09 20:00:31  5-MIN KDBQ 270200Z 35011KT 1 3/4SM BR OVC001 02/02 A2955 1420 100 300 350/11 RMK AO2 $
94908KDBQ DBQ20090226200510502/26/09 20:05:31  5-MIN KDBQ 270205Z 36011KT 1 3/4SM BR OVC001 02/02 A2955 1420 100 300 360/11 RMK AO2 $
94908KDBQ DBQ20090226201010102/26/09 20:10:31  5-MIN KDBQ 270210Z 35012KT 2SM BR OVC001 02/02 A2955 1420 100 300 350/12 RMK AO2 $
94908KDBQ DBQ20090226201510102/26/09 20:15:31  5-MIN KDBQ 270215Z 35014KT 2SM BR OVC001 02/02 A2956 1420 100 200 350/14 RMK AO2 $
94908KDBQ DBQ20090226202010502/26/09 20:20:31  5-MIN KDBQ 270220Z 35012KT 2 1/2SM BR OVC001 02/02 A2956 1410 100 200 350/12 RMK AO2 $
94908KDBQ DBQ20090226202510102/26/09 20:25:31  5-MIN KDBQ 270225Z 36014KT 2SM BR OVC001 02/02 A2956 1410 100 200 350/14 RMK AO2 $
94908KDBQ DBQ20090226203010502/26/09 20:30:31  5-MIN KDBQ 270230Z 35012KT 1 3/4SM BR OVC001 02/02 A2956 1410 100 200 350/12 RMK AO2 $
94908KDBQ DBQ20090226203510502/26/09 20:35:31  5-MIN KDBQ 270235Z 35015KT 1 1/2SM BR OVC001 02/02 A2957 1410 100 200 350/15 RMK AO2 $
94908KDBQ DBQ20090226204010502/26/09 20:40:31  5-MIN KDBQ 270240Z 35015KT 1 1/4SM BR OVC001 02/02 A2957 1410 100 200 350/15 RMK AO2 $
94908KDBQ DBQ20090226204510502/26/09 20:45:31  5-MIN KDBQ 270245Z 36014KT 1 1/4SM BR OVC001 02/02 A2957 1400 100 200 360/14 RMK AO2 $
94908KDBQ DBQ20090226205013402/26/09 20:50:31  5-MIN KDBQ 270250Z 35014KT 1 1/4SM BR OVC001 02/02 A2958 1400 100 200 350/14 RMK AO2 SLP025 60008 T00170017 58004 $
94908KDBQ DBQ20090226205510502/26/09 20:55:31  5-MIN KDBQ 270255Z 35014KT 1 1/4SM BR OVC001 01/01 A2958 1390 100 100 350/14 RMK AO2 $
94908KDBQ DBQ20090226210010502/26/09 21:00:31  5-MIN KDBQ 270300Z 36012KT 1 1/4SM BR OVC001 01/01 A2958 1390 100 100 360/12 RMK AO2 $
94908KDBQ DBQ20090226210510502/26/09 21:05:31  5-MIN KDBQ 270305Z 36012KT 1 1/4SM BR OVC001 01/01 A2959 1390 100 100 360/12 RMK AO2 $
94908KDBQ DBQ20090226211010102/26/09 21:10:31  5-MIN KDBQ 270310Z 36012KT 1 1/4SM BR OVC001 01/ A2959 1390 M 100 350/12 RMK AO2 $
94908KDBQ DBQ20090226211510602/26/09 21:15:31  5-MIN KDBQ 270315Z AUTO 35014KT 1 1/4SM BR OVC001 01/ A2958 1390 M 100 350/14 RMK AO2 $
94908KDBQ DBQ20090226212010602/26/09 21:20:31  5-MIN KDBQ 270320Z AUTO 35016KT 1 1/2SM BR OVC001 01/ A2958 1390 M 100 350/16 RMK AO2 $
94908KDBQ DBQ20090226212511002/26/09 21:25:31  5-MIN KDBQ 270325Z AUTO 36014KT 1 1/2SM BR OVC001 01/01 A2959 1390 100 100 350/14 RMK AO2 $
94908KDBQ DBQ20090226213011002/26/09 21:30:31  5-MIN KDBQ 270330Z AUTO 35014KT 1 1/2SM BR OVC001 01/01 A2958 1390 100 100 350/14 RMK AO2 $
94908KDBQ DBQ20090226213512202/26/09 21:35:31  5-MIN KDBQ 270335Z AUTO 36015KT 1 1/2SM BR OVC001 01/01 A2959 1380 100 100 360/15 RMK AO2 CIG 001V006 $
94908KDBQ DBQ20090226214012202/26/09 21:40:31  5-MIN KDBQ 270340Z AUTO 36015KT 1 3/4SM BR OVC001 01/01 A2959 1380 100 100 360/15 RMK AO2 CIG 001V006 $
94908KDBQ DBQ20090226214512402/26/09 21:45:31  5-MIN KDBQ 270345Z AUTO 36016G21KT 2SM BR OVC001 01/01 A2960 1380 100 100 360/16G21 RMK AO2 CIG 001V006 $
94908KDBQ DBQ20090226215012602/26/09 21:50:31  5-MIN KDBQ 270350Z AUTO 36014G22KT 2 1/2SM BR OVC003 01/01 A2960 1370 100 0 360/14G22 RMK AO2 CIG 001V006 $
94908KDBQ DBQ20090226215512202/26/09 21:55:31  5-MIN KDBQ 270355Z AUTO 36012G22KT 3SM BR OVC003 01/01 A2961 1370 100 0 360/12G22 RMK AO2 CIG 001V006 $
94908KDBQ DBQ20090226220011602/26/09 22:00:31  5-MIN KDBQ 270400Z AUTO 01013KT 3SM BR OVC003 01/01 A2961 1370 100 0 360/13 RMK AO2 CIG 001V007 $
94908KDBQ DBQ20090226220511802/26/09 22:05:31  5-MIN KDBQ 270405Z AUTO 01015G20KT 3SM BR OVC003 01/ A2961 1360 M 0 010/15G20 RMK AO2 CIG 002V007 $
94908KDBQ DBQ20090226221011802/26/09 22:10:31  5-MIN KDBQ 270410Z AUTO 01013G20KT 3SM BR OVC003 01/ A2962 1360 M 0 010/13G20 RMK AO2 CIG 002V007 $
94908KDBQ DBQ20090226221511602/26/09 22:15:31  5-MIN KDBQ 270415Z AUTO 36012KT 2 1/2SM BR OVC003 01/ A2962 1360 M 0 360/12 RMK AO2 CIG 002V007 $
94908KDBQ DBQ20090226222011002/26/09 22:20:31  5-MIN KDBQ 270420Z AUTO 01012G17KT 2 1/2SM BR OVC003 01/ A2962 1350 M 0 010/12G17 RMK AO2 $
94908KDBQ DBQ20090226222511002/26/09 22:25:31  5-MIN KDBQ 270425Z AUTO 36015G18KT 2 1/2SM BR OVC003 01/ A2963 1350 M 0 360/15G18 RMK AO2 $
94908KDBQ DBQ20090226223011702/26/09 22:30:31  5-MIN KDBQ 270430Z AUTO 01014G20KT 2 1/2SM BR OVC003 00/00 A2963 1350 100 -100 360/14G20 RMK AO2 $
94908KDBQ DBQ20090226223512502/26/09 22:35:31  5-MIN KDBQ 270435Z AUTO 02014G20KT 3SM BR OVC003 00/00 A2963 1350 100 -100 010/14G20 RMK AO2 CIG 002V008 $
94908KDBQ DBQ20090226224012502/26/09 22:40:31  5-MIN KDBQ 270440Z AUTO 36011G19KT 3SM BR OVC003 00/00 A2964 1340 100 -100 360/11G19 RMK AO2 CIG 002V008 $
94908KDBQ DBQ20090226224510702/26/09 22:45:31  5-MIN KDBQ 270445Z AUTO 35013KT 3SM BR OVC003 00/00 A2964 1340 100 -100 350/13 RMK AO2 $
94908KDBQ DBQ20090226225013202/26/09 22:50:31  5-MIN KDBQ 270450Z AUTO 01014G20KT 3SM BR OVC003 M01/M01 A2964 1330 100 -200 010/14G20 RMK AO2 SLP048 T10061006 $
94908KDBQ DBQ20090226225512702/26/09 22:55:31  5-MIN KDBQ 270455Z AUTO 36015G22KT 4SM BR OVC003 M01/M01 A2965 1330 100 -200 360/15G22 RMK AO2 CIG 003V007 $
94908KDBQ DBQ20090226230012702/26/09 23:00:31  5-MIN KDBQ 270500Z AUTO 01018G23KT 5SM BR OVC003 M01/M01 A2966 1320 100 -200 010/18G23 RMK AO2 CIG 003V006 $
94908KDBQ DBQ20090226230512702/26/09 23:05:31  5-MIN KDBQ 270505Z AUTO 01011G23KT 5SM BR OVC005 M01/M01 A2966 1320 100 -200 010/11G23 RMK AO2 CIG 003V009 $
94908KDBQ DBQ20090226231010902/26/09 23:10:31  5-MIN KDBQ 270510Z AUTO 01013KT 4SM BR OVC005 M01/M01 A2966 1320 100 -200 010/13 RMK AO2 $
94908KDBQ DBQ20090226231512702/26/09 23:15:31  5-MIN KDBQ 270515Z AUTO 01010G18KT 4SM BR OVC005 M01/M01 A2966 1320 100 -200 010/10G18 RMK AO2 CIG 003V009 $
94908KDBQ DBQ20090226232012702/26/09 23:20:31  5-MIN KDBQ 270520Z AUTO 01015G19KT 5SM BR OVC005 M01/M01 A2967 1310 100 -200 010/15G19 RMK AO2 CIG 003V009 $
94908KDBQ DBQ20090226232512102/26/09 23:25:31  5-MIN KDBQ 270525Z AUTO 36012G20KT 5SM BR OVC005 M01/M01 A2967 1310 100 -300 360/12G20 RMK AO2 P0001 $
94908KDBQ DBQ20090226233013302/26/09 23:30:31  5-MIN KDBQ 270530Z AUTO 35014G20KT 5SM BR OVC005 M01/M01 A2968 1300 100 -300 350/14G20 RMK AO2 CIG 004V008 P0001 $
94908KDBQ DBQ20090226233513302/26/09 23:35:31  5-MIN KDBQ 270535Z AUTO 35016G20KT 5SM BR OVC005 M01/M01 A2968 1300 100 -300 350/16G20 RMK AO2 CIG 004V008 P0001 $
94908KDBQ DBQ20090226234013402/26/09 23:40:31  5-MIN KDBQ 270540Z AUTO 36016KT 6SM BR BKN005 OVC009 M01/M01 A2969 1290 100 -300 360/16 RMK AO2 CIG 004V007 P0001 $
94908KDBQ DBQ20090226234512702/26/09 23:45:31  5-MIN KDBQ 270545Z AUTO 36014KT 6SM BR OVC005 M01/M01 A2969 1290 100 -300 360/14 RMK AO2 CIG 004V010 P0001 $
94908KDBQ DBQ20090226235018402/26/09 23:50:31  5-MIN KDBQ 270550Z AUTO 34017G22KT 5SM BR OVC005 M01/M01 A2970 1280 100 -300 340/17G22 RMK AO2 CIG 004V008 SLP067 P0001 60009 T10111011 10033 21011 400391017 53012 $
94908KDBQ DBQ20090226235512702/26/09 23:55:31  5-MIN KDBQ 270555Z AUTO 35017G24KT 5SM BR OVC005 M02/M02 A2970 1280 100 -400 350/17G24 RMK AO2 CIG 004V009 $
94908KDBQ DBQ20090227000013402/27/09 00:00:38  5-MIN KDBQ 270600Z AUTO 35020G25KT 6SM BR BKN005 OVC010 M02/M02 A2970 1280 100 -400 350/20G25 RMK AO2 CIG 004V008 $
94908KDBQ DBQ20090227000513102/27/09 00:05:31  5-MIN KDBQ 270605Z AUTO 36017G25KT 7SM BKN007 OVC013 M02/M02 A2971 1270 100 -400 360/17G25 RMK AO2 CIG 004V010 $
94908KDBQ DBQ20090227001011902/27/09 00:10:31  5-MIN KDBQ 270610Z AUTO 01020G25KT 7SM SCT005 OVC013 M02/M02 A2971 1270 100 -400 010/20G25 RMK AO2 $
94908KDBQ DBQ20090227001513802/27/09 00:15:34  5-MIN KDBQ 270615Z AUTO 36020G25KT 7SM FEW005 BKN010 OVC013 M02/M02 A2971 1270 100 -400 360/20G25 RMK AO2 CIG 007V012 $
94908KDBQ DBQ20090227002011202/27/09 00:20:31  5-MIN KDBQ 270620Z AUTO 36018G25KT 7SM OVC010 M02/M02 A2972 1270 100 -400 360/18G25 RMK AO2 $
94908KDBQ DBQ20090227002511502/27/09 00:25:31  5-MIN KDBQ 270625Z AUTO 36013G23KT 6SM BR OVC010 M02/M02 A2972 1260 100 -400 360/13G23 RMK AO2 $
94908KDBQ DBQ20090227003013402/27/09 00:30:31  5-MIN KDBQ 270630Z AUTO 36015G21KT 6SM BR BKN008 OVC013 M02/M02 A2972 1260 100 -400 360/15G21 RMK AO2 CIG 006V010 $
94908KDBQ DBQ20090227003513402/27/09 00:35:31  5-MIN KDBQ 270635Z AUTO 36016G21KT 6SM BR BKN008 OVC013 M02/M02 A2972 1260 100 -500 350/16G21 RMK AO2 CIG 006V010 $
94908KDBQ DBQ20090227004013402/27/09 00:40:31  5-MIN KDBQ 270640Z AUTO 01017G23KT 6SM BR BKN008 OVC013 M02/M02 A2972 1260 100 -500 010/17G23 RMK AO2 CIG 006V011 $
94908KDBQ DBQ20090227004513102/27/09 00:45:31  5-MIN KDBQ 270645Z AUTO 01017G23KT 7SM BKN008 OVC012 M02/M02 A2972 1260 100 -400 010/17G23 RMK AO2 CIG 006V010 $
94908KDBQ DBQ20090227005014802/27/09 00:50:31  5-MIN KDBQ 270650Z AUTO 01015G22KT 8SM BKN008 OVC012 M02/M02 A2972 1270 100 -400 010/15G22 RMK AO2 CIG 006V010 SLP074 T10221022 $
94908KDBQ DBQ20090227005512502/27/09 00:55:31  5-MIN KDBQ 270655Z AUTO 01015G22KT 10SM OVC010 M02/M02 A2972 1260 100 -400 010/15G22 RMK AO2 CIG 006V013 $
94908KDBQ DBQ20090227010011302/27/09 01:00:31  5-MIN KDBQ 270700Z AUTO 01018G22KT 10SM OVC010 M02/M02 A2972 1260 100 -500 010/18G22 RMK AO2 $
94908KDBQ DBQ20090227010513102/27/09 01:05:31  5-MIN KDBQ 270705Z AUTO 01015G27KT 10SM OVC012 M02/M02 A2973 1260 100 -500 010/15G27 RMK AO2 PK WND 02027/0703 $
94908KDBQ DBQ20090227011013802/27/09 01:10:31  5-MIN KDBQ 270710Z AUTO 01017G27KT 10SM BKN012 OVC018 M02/M02 A2973 1250 100 -500 010/17G27 RMK AO2 PK WND 02027/0708 $
94908KDBQ DBQ20090227011513802/27/09 01:15:31  5-MIN KDBQ 270715Z AUTO 01016G27KT 10SM BKN010 OVC018 M02/M02 A2974 1250 100 -500 010/16G27 RMK AO2 PK WND 02027/0708 $
94908KDBQ DBQ20090227012013802/27/09 01:20:31  5-MIN KDBQ 270720Z AUTO 36012G21KT 10SM BKN012 OVC019 M02/M02 A2974 1250 100 -500 360/12G21 RMK AO2 PK WND 02027/0708 $
94908KDBQ DBQ20090227012513802/27/09 01:25:31  5-MIN KDBQ 270725Z AUTO 02018G21KT 10SM BKN012 OVC018 M02/M02 A2974 1240 100 -500 020/18G21 RMK AO2 PK WND 02027/0708 $
94908KDBQ DBQ20090227013013802/27/09 01:30:31  5-MIN KDBQ 270730Z AUTO 01015G21KT 10SM BKN012 OVC018 M02/M02 A2975 1240 100 -500 360/15G21 RMK AO2 PK WND 02027/0708 $
94908KDBQ DBQ20090227013513802/27/09 01:35:31  5-MIN KDBQ 270735Z AUTO 01016G22KT 10SM BKN012 OVC017 M02/M02 A2975 1240 100 -500 010/16G22 RMK AO2 PK WND 02027/0708 $
94908KDBQ DBQ20090227014013202/27/09 01:40:31  5-MIN KDBQ 270740Z AUTO 02015KT 10SM SCT012 OVC017 M02/M02 A2976 1230 100 -500 020/15 RMK AO2 PK WND 02027/0708 $
94908KDBQ DBQ20090227014513802/27/09 01:45:31  5-MIN KDBQ 270745Z AUTO 01016G22KT 10SM FEW011 OVC017 M02/M02 A2976 1230 100 -500 360/16G22 RMK AO2 PK WND 02027/0708 $
94908KDBQ DBQ20090227015014802/27/09 01:50:31  5-MIN KDBQ 270750Z AUTO 01013G22KT 10SM OVC017 M02/M02 A2976 1230 100 -500 010/13G22 RMK AO2 PK WND 02027/0708 SLP089 T10221022 $
94908KDBQ DBQ20090227015510702/27/09 01:55:31  5-MIN KDBQ 270755Z AUTO 36012KT 10SM OVC015 M02/M02 A2977 1220 100 -500 360/12 RMK AO2 $
94908KDBQ DBQ20090227020011402/27/09 02:00:31  5-MIN KDBQ 270800Z AUTO 01010KT 10SM OVC015 M02/M02 A2978 1210 100 -500 360/10 RMK AO2 PRESRR $
94908KDBQ DBQ20090227020510702/27/09 02:05:31  5-MIN KDBQ 270805Z AUTO 36012KT 10SM OVC015 M02/M02 A2978 1210 100 -500 360/12 RMK AO2 $
94908KDBQ DBQ20090227021011402/27/09 02:10:31  5-MIN KDBQ 270810Z AUTO 36013KT 10SM BKN013 OVC018 M02/M02 A2978 1210 100 -400 360/13 RMK AO2 $
94908KDBQ DBQ20090227021511202/27/09 02:15:31  5-MIN KDBQ 270815Z AUTO 01014G21KT 10SM OVC013 M02/M02 A2978 1200 96 -500 010/14G21 RMK AO2 $
94908KDBQ DBQ20090227022011302/27/09 02:20:31  5-MIN KDBQ 270820Z AUTO 01012G21KT 10SM OVC013 M02/M02 A2979 1200 100 -500 010/12G21 RMK AO2 $
94908KDBQ DBQ20090227022511202/27/09 02:25:31  5-MIN KDBQ 270825Z AUTO 01012G21KT 10SM OVC011 M02/M02 A2979 1190 96 -500 010/12G21 RMK AO2 $
94908KDBQ DBQ20090227023011202/27/09 02:30:31  5-MIN KDBQ 270830Z AUTO 36013G21KT 10SM OVC013 M02/M02 A2980 1190 96 -500 360/13G21 RMK AO2 $
94908KDBQ DBQ20090227023511302/27/09 02:35:31  5-MIN KDBQ 270835Z AUTO 36014KT 10SM BKN015 OVC019 M02/M02 A2981 1190 96 -500 360/14 RMK AO2 $
94908KDBQ DBQ20090227024012002/27/09 02:40:31  5-MIN KDBQ 270840Z AUTO 35014KT 10SM SCT012 OVC018 M02/M02 A2981 1180 96 -500 350/14 RMK AO2 PRESRR $
94908KDBQ DBQ20090227024514402/27/09 02:45:31  5-MIN KDBQ 270845Z AUTO 33021G26KT 10SM SCT010 OVC016 M02/M03 A2982 1170 96 -600 330/21G26 RMK AO2 PK WND 34026/0843 PRESRR $
94908KDBQ DBQ20090227025016002/27/09 02:50:31  5-MIN KDBQ 270850Z AUTO 33018G28KT 10SM BKN008 OVC016 M03/M03 A2982 1170 96 -600 330/18G28 RMK AO2 PK WND 33028/0846 SLP110 T10281033 53039 $
94908KDBQ DBQ20090227025511902/27/09 02:55:31  5-MIN KDBQ 270855Z AUTO 33018G28KT 10SM BKN008 OVC016 M03/M03 A2983 1170 96 -600 330/18G28 RMK AO2 $
94908KDBQ DBQ20090227030011902/27/09 03:00:31  5-MIN KDBQ 270900Z AUTO 34018G25KT 10SM BKN008 OVC016 M03/M03 A2983 1160 96 -600 340/18G25 RMK AO2 $
94908KDBQ DBQ20090227030512402/27/09 03:05:31  5-MIN KDBQ 270905Z AUTO 34016G25KT 10SM OVC008 M03/M03 A2983 1160 96 -600 340/16G25 RMK AO2 CIG 007V013 $
94908KDBQ DBQ20090227031012502/27/09 03:10:31  5-MIN KDBQ 270910Z AUTO 34014G23KT 10SM OVC010 M03/M03 A2984 1160 100 -700 340/14G23 RMK AO2 CIG 007V012 $
94908KDBQ DBQ20090227031512402/27/09 03:15:31  5-MIN KDBQ 270915Z AUTO 35019G23KT 10SM OVC010 M03/M04 A2984 1160 96 -700 340/19G23 RMK AO2 CIG 008V012 $
94908KDBQ DBQ20090227032011202/27/09 03:20:31  5-MIN KDBQ 270920Z AUTO 35016G23KT 10SM OVC010 M03/M04 A2984 1150 96 -700 350/16G23 RMK AO2 $
94908KDBQ DBQ20090227032511202/27/09 03:25:31  5-MIN KDBQ 270925Z AUTO 35016G23KT 10SM OVC012 M03/M04 A2984 1150 96 -700 350/16G23 RMK AO2 $
94908KDBQ DBQ20090227033011202/27/09 03:30:31  5-MIN KDBQ 270930Z AUTO 35014G22KT 10SM OVC012 M03/M04 A2985 1150 96 -700 350/14G22 RMK AO2 $
94908KDBQ DBQ20090227033511302/27/09 03:35:31  5-MIN KDBQ 270935Z AUTO 35015G22KT 10SM OVC012 M04/M04 A2985 1140 100 -800 350/15G22 RMK AO2 $
94908KDBQ DBQ20090227034011302/27/09 03:40:31  5-MIN KDBQ 270940Z AUTO 36013G20KT 10SM OVC012 M04/M04 A2985 1140 100 -800 360/13G20 RMK AO2 $
94908KDBQ DBQ20090227034511202/27/09 03:45:31  5-MIN KDBQ 270945Z AUTO 35018G22KT 10SM OVC012 M04/M04 A2986 1140 96 -800 350/18G22 RMK AO2 $
94908KDBQ DBQ20090227035012902/27/09 03:50:31  5-MIN KDBQ 270950Z AUTO 35018G22KT 10SM OVC014 M04/M05 A2986 1130 92 -800 350/18G22 RMK AO2 SLP125 T10391050 $
94908KDBQ DBQ20090227035511902/27/09 03:55:31  5-MIN KDBQ 270955Z AUTO 35016G23KT 10SM BKN014 OVC026 M04/M05 A2987 1130 92 -800 350/16G23 RMK AO2 $
94908KDBQ DBQ20090227040013302/27/09 04:00:31  5-MIN KDBQ 271000Z AUTO 36015G23KT 10SM SCT012 BKN017 OVC028 M04/M05 A2987 1120 92 -800 360/15G23 RMK AO2 PRESRR $
94908KDBQ DBQ20090227040513302/27/09 04:05:31  5-MIN KDBQ 271005Z AUTO 36015G21KT 10SM FEW012 BKN017 OVC028 M04/M05 A2988 1110 92 -800 360/15G21 RMK AO2 PRESRR $
94908KDBQ DBQ20090227041012602/27/09 04:10:31  5-MIN KDBQ 271010Z AUTO 36017G20KT 10SM BKN017 BKN028 OVC038 M04/M05 A2988 1110 92 -800 360/17G20 RMK AO2 $
94908KDBQ DBQ20090227041512002/27/09 04:15:31  5-MIN KDBQ 271015Z AUTO 36016KT 10SM BKN017 BKN028 OVC038 M04/M06 A2989 1110 88 -900 360/16 RMK AO2 $
94908KDBQ DBQ20090227042012702/27/09 04:20:31  5-MIN KDBQ 271020Z AUTO 36013KT 10SM BKN017 BKN028 OVC038 M04/M05 A2990 1100 92 -900 360/13 RMK AO2 PRESRR $
94908KDBQ DBQ20090227042512602/27/09 04:25:31  5-MIN KDBQ 271025Z AUTO 36011G19KT 10SM BKN017 BKN028 OVC038 M04/M05 A2990 1100 92 -900 360/11G19 RMK AO2 $
94908KDBQ DBQ20090227043012602/27/09 04:30:31  5-MIN KDBQ 271030Z AUTO 36015G18KT 10SM BKN017 BKN028 OVC037 M04/M05 A2991 1090 92 -900 360/15G18 RMK AO2 $
94908KDBQ DBQ20090227043511402/27/09 04:35:31  5-MIN KDBQ 271035Z AUTO 35016KT 10SM BKN017 OVC028 M04/M05 A2991 1090 96 -1000 350/16 RMK AO2 $
94908KDBQ DBQ20090227044010602/27/09 04:40:31  5-MIN KDBQ 271040Z AUTO 36014KT 10SM OVC017 M04/M05 A2992 1080 92 -900 360/14 RMK AO2 $
94908KDBQ DBQ20090227044511902/27/09 04:45:31  5-MIN KDBQ 271045Z AUTO 35013G19KT 10SM BKN017 OVC021 M04/M05 A2992 1080 92 -900 350/13G19 RMK AO2 $
94908KDBQ DBQ20090227045012902/27/09 04:50:31  5-MIN KDBQ 271050Z AUTO 35015G19KT 10SM OVC015 M04/M05 A2992 1070 92 -900 350/15G19 RMK AO2 SLP145 T10391050 $
94908KDBQ DBQ20090227045510602/27/09 04:55:31  5-MIN KDBQ 271055Z AUTO 35013KT 10SM OVC015 M04/M05 A2993 1070 92 -900 350/13 RMK AO2 $
94908KDBQ DBQ20090227050010702/27/09 05:00:31  5-MIN KDBQ 271100Z AUTO 34016KT 10SM OVC013 M04/M05 A2994 1060 96 -1000 340/16 RMK AO2 $
94908KDBQ DBQ20090227050511302/27/09 05:05:31  5-MIN KDBQ 271105Z AUTO 35017G21KT 10SM OVC013 M04/M06 A2994 1060 92 -1000 350/17G21 RMK AO2 $
94908KDBQ DBQ20090227051011402/27/09 05:10:31  5-MIN KDBQ 271110Z AUTO 34016KT 10SM OVC013 M04/M06 A2995 1050 92 -1000 340/16 RMK AO2 PRESRR $
94908KDBQ DBQ20090227051512002/27/09 05:15:31  5-MIN KDBQ 271115Z AUTO 33014G21KT 10SM OVC013 M05/M06 A2995 1050 92 -1100 330/14G21 RMK AO2 PRESRR $
94908KDBQ DBQ20090227052011302/27/09 05:20:31  5-MIN KDBQ 271120Z AUTO 34014G21KT 10SM OVC011 M05/M06 A2996 1040 92 -1100 340/14G21 RMK AO2 $
94908KDBQ DBQ20090227052510702/27/09 05:25:31  5-MIN KDBQ 271125Z AUTO 36015KT 10SM OVC011 M05/M06 A2996 1040 92 -1100 360/15 RMK AO2 $
94908KDBQ DBQ20090227053011302/27/09 05:30:31  5-MIN KDBQ 271130Z AUTO 35017G21KT 10SM OVC011 M06/M06 A2996 1040 96 -1200 350/17G21 RMK AO2 $
94908KDBQ DBQ20090227053511302/27/09 05:35:31  5-MIN KDBQ 271135Z AUTO 35014G21KT 10SM OVC011 M06/M07 A2996 1040 92 -1200 350/14G21 RMK AO2 $
94908KDBQ DBQ20090227054011302/27/09 05:40:31  5-MIN KDBQ 271140Z AUTO 35016G21KT 10SM OVC011 M06/M07 A2996 1040 92 -1200 350/16G21 RMK AO2 $
94908KDBQ DBQ20090227054510702/27/09 05:45:31  5-MIN KDBQ 271145Z AUTO 35015KT 10SM OVC011 M06/M07 A2997 1030 92 -1200 350/15 RMK AO2 $
94908KDBQ DBQ20090227055014902/27/09 05:50:31  5-MIN KDBQ 271150Z 35017G22KT 10SM OVC011 M06/M07 A2997 1030 92 -1200 350/17G22 RMK AO2 SLP163 70066 T10561067 11017 21056 53041 $
94908KDBQ DBQ20090227055511502/27/09 05:55:31  5-MIN KDBQ 271155Z 36014G22KT 10SM OVC011 M06/M07 A2998 1020 92 -1200 360/14G22 RMK AO2 PRESRR $
94908KDBQ DBQ20090227060010802/27/09 06:00:31  5-MIN KDBQ 271200Z 35018G22KT 10SM OVC011 M06/M07 A2998 1020 92 -1200 350/18G22 RMK AO2 $
94908KDBQ DBQ20090227060510802/27/09 06:05:31  5-MIN KDBQ 271205Z 36017G23KT 10SM OVC013 M06/M07 A2999 1010 92 -1200 360/17G23 RMK AO2 $
94908KDBQ DBQ20090227061011502/27/09 06:10:31  5-MIN KDBQ 271210Z 35020G24KT 10SM OVC013 M06/M07 A3000 1010 92 -1300 350/20G24 RMK AO2 PRESRR $
94908KDBQ DBQ20090227061510802/27/09 06:15:31  5-MIN KDBQ 271215Z 01017G24KT 10SM OVC013 M06/M08 A3000 1000 88 -1300 010/17G24 RMK AO2 $
94908KDBQ DBQ20090227062010802/27/09 06:20:31  5-MIN KDBQ 271220Z 36017G23KT 10SM OVC015 M06/M08 A3000 1000 88 -1300 360/17G23 RMK AO2 $
94908KDBQ DBQ20090227062510802/27/09 06:25:31  5-MIN KDBQ 271225Z 36013G23KT 10SM OVC016 M06/M08 A3000 1000 88 -1300 360/13G23 RMK AO2 $
94908KDBQ DBQ20090227063010802/27/09 06:30:31  5-MIN KDBQ 271230Z 36016G23KT 10SM OVC016 M06/M08 A3001 1000 88 -1300 360/16G23 RMK AO2 $
94908KDBQ DBQ20090227063510802/27/09 06:35:31  5-MIN KDBQ 271235Z 36018G24KT 10SM OVC016 M06/M08 A3001 1000 88 -1300 360/18G24 RMK AO2 $
94908KDBQ DBQ20090227064010802/27/09 06:40:31  5-MIN KDBQ 271240Z 36018G24KT 10SM OVC016 M07/M08 A3001 1000 92 -1400 360/18G24 RMK AO2 $
94908KDBQ DBQ20090227064510202/27/09 06:45:31  5-MIN KDBQ 271245Z 01017KT 10SM OVC016 M07/M08 A3001 1000 88 -1400 010/17 RMK AO2 $
94908KDBQ DBQ20090227065011802/27/09 06:50:31  5-MIN KDBQ 271250Z 36014KT 10SM OVC016 M07/M08 A3002 990 88 -1400 360/14 RMK AO2 SLP178 T10671083 $
94908KDBQ DBQ20090227065510102/27/09 06:55:31  5-MIN KDBQ 271255Z 36016KT 10SM OVC016 M07/M08 A3002 980 88 -1400 360/16 RMK AO2 $
94908KDBQ DBQ20090227070011402/27/09 07:00:31  5-MIN KDBQ 271300Z 36018G24KT 10SM BKN016 BKN028 M07/M08 A3002 980 88 -1400 360/18G24 RMK AO2 $
94908KDBQ DBQ20090227070511402/27/09 07:05:31  5-MIN KDBQ 271305Z 36017G24KT 10SM BKN018 BKN028 M07/M08 A3003 980 88 -1400 360/17G24 RMK AO2 $
94908KDBQ DBQ20090227071011402/27/09 07:10:31  5-MIN KDBQ 271310Z 01016G22KT 10SM SCT018 BKN026 M07/M08 A3003 980 88 -1400 010/16G22 RMK AO2 $
94908KDBQ DBQ20090227071511402/27/09 07:15:31  5-MIN KDBQ 271315Z 01015G23KT 10SM SCT018 BKN026 M07/M09 A3003 980 84 -1400 010/15G23 RMK AO2 $
94908KDBQ DBQ20090227072011402/27/09 07:20:31  5-MIN KDBQ 271320Z 01014G24KT 10SM FEW018 BKN026 M07/M09 A3004 970 84 -1400 010/14G24 RMK AO2 $
94908KDBQ DBQ20090227072511402/27/09 07:25:31  5-MIN KDBQ 271325Z 01017G24KT 10SM BKN026 BKN039 M07/M08 A3005 960 88 -1400 010/17G24 RMK AO2 $
94908KDBQ DBQ20090227073011402/27/09 07:30:31  5-MIN KDBQ 271330Z 02014G22KT 10SM BKN026 OVC039 M07/M09 A3005 960 84 -1400 010/14G22 RMK AO2 $
94908KDBQ DBQ20090227073510802/27/09 07:35:31  5-MIN KDBQ 271335Z 01014KT 10SM BKN026 OVC039 M07/M08 A3005 960 88 -1400 010/14 RMK AO2 $
94908KDBQ DBQ20090227074011402/27/09 07:40:31  5-MIN KDBQ 271340Z 36017G22KT 10SM BKN026 OVC039 M07/M08 A3005 950 88 -1400 360/17G22 RMK AO2 $
94908KDBQ DBQ20090227074511402/27/09 07:45:31  5-MIN KDBQ 271345Z 36016G22KT 10SM BKN026 OVC039 M07/M08 A3006 950 88 -1400 360/16G22 RMK AO2 $
94908KDBQ DBQ20090227075010102/27/09 07:50:31  5-MIN KDBQ 271350Z 01012KT 10SM OVC036 M07/M08 A3006 950 88 -1400 360/12 RMK AO2 $
94908KDBQ DBQ20090227075510702/27/09 07:55:31  5-MIN KDBQ 271355Z 01014G20KT 10SM OVC036 M07/M09 A3006 950 84 -1400 010/14G20 RMK AO2 $
94908KDBQ DBQ20090227080010702/27/09 08:00:31  5-MIN KDBQ 271400Z 01015G20KT 10SM OVC036 M07/M09 A3006 950 88 -1500 010/15G20 RMK AO2 $
94908KDBQ DBQ20090227080510702/27/09 08:05:31  5-MIN KDBQ 271405Z 01018G24KT 10SM OVC034 M07/M09 A3006 950 88 -1500 010/18G24 RMK AO2 $
94908KDBQ DBQ20090227081010702/27/09 08:10:31  5-MIN KDBQ 271410Z 02020G24KT 10SM OVC034 M07/M09 A3006 950 84 -1500 020/20G24 RMK AO2 $
94908KDBQ DBQ20090227081510702/27/09 08:15:31  5-MIN KDBQ 271415Z 01015G23KT 10SM OVC034 M07/M09 A3007 940 88 -1500 010/15G23 RMK AO2 $
94908KDBQ DBQ20090227082010702/27/09 08:20:31  5-MIN KDBQ 271420Z 01013G20KT 10SM OVC034 M07/M09 A3007 940 84 -1400 010/13G20 RMK AO2 $
94908KDBQ DBQ20090227082510702/27/09 08:25:31  5-MIN KDBQ 271425Z 02013G20KT 10SM OVC034 M07/M09 A3008 940 88 -1500 020/13G20 RMK AO2 $
94908KDBQ DBQ20090227083010702/27/09 08:30:31  5-MIN KDBQ 271430Z 01014G20KT 10SM OVC034 M07/M09 A3008 930 84 -1400 010/14G20 RMK AO2 $
94908KDBQ DBQ20090227083510102/27/09 08:35:31  5-MIN KDBQ 271435Z 01012KT 10SM OVC034 M07/M09 A3008 930 84 -1400 010/12 RMK AO2 $
94908KDBQ DBQ20090227084010102/27/09 08:40:31  5-MIN KDBQ 271440Z 01014KT 10SM OVC034 M07/M09 A3009 930 84 -1400 010/14 RMK AO2 $
94908KDBQ DBQ20090227084510102/27/09 08:45:31  5-MIN KDBQ 271445Z 36014KT 10SM OVC034 M07/M09 A3009 920 84 -1400 360/14 RMK AO2 $
94908KDBQ DBQ20090227085012402/27/09 08:50:31  5-MIN KDBQ 271450Z 02014KT 10SM OVC034 M07/M09 A3009 930 84 -1400 010/14 RMK AO2 SLP202 T10671089 53050 $
94908KDBQ DBQ20090227085510102/27/09 08:55:31  5-MIN KDBQ 271455Z 01010KT 10SM BKN034 M06/M08 A3009 920 84 -1400 010/10 RMK AO2 $
94908KDBQ DBQ20090227090010702/27/09 09:00:31  5-MIN KDBQ 271500Z 01011G17KT 10SM BKN034 M06/M08 A3010 920 88 -1400 010/11G17 RMK AO2 $
94908KDBQ DBQ20090227090510702/27/09 09:05:31  5-MIN KDBQ 271505Z 02012G17KT 10SM SCT034 M06/M08 A3010 910 84 -1400 020/12G17 RMK AO2 $
94908KDBQ DBQ20090227091010102/27/09 09:10:31  5-MIN KDBQ 271510Z 36012KT 10SM FEW034 M07/M08 A3010 910 88 -1500 360/12 RMK AO2 $
94908KDBQ DBQ20090227091510102/27/09 09:15:31  5-MIN KDBQ 271515Z 01013KT 10SM FEW032 M07/M09 A3010 910 84 -1500 010/13 RMK AO2 $
94908KDBQ DBQ20090227092009802/27/09 09:20:31  5-MIN KDBQ 271520Z 02015KT 10SM CLR M06/M08 A3010 910 84 -1400 020/15 RMK AO2 $
94908KDBQ DBQ20090227092509802/27/09 09:25:31  5-MIN KDBQ 271525Z 02013KT 10SM CLR M06/M08 A3010 910 84 -1400 020/13 RMK AO2 $
94908KDBQ DBQ20090227093009802/27/09 09:30:31  5-MIN KDBQ 271530Z 36014KT 10SM CLR M06/M08 A3011 900 84 -1400 360/14 RMK AO2 $
94908KDBQ DBQ20090227093510402/27/09 09:35:31  5-MIN KDBQ 271535Z 36015G21KT 10SM CLR M06/M08 A3012 900 84 -1400 360/15G21 RMK AO2 $
94908KDBQ DBQ20090227094010402/27/09 09:40:31  5-MIN KDBQ 271540Z 01015G21KT 10SM CLR M07/M09 A3012 890 84 -1500 360/15G21 RMK AO2 $
94908KDBQ DBQ20090227094510402/27/09 09:45:31  5-MIN KDBQ 271545Z 02012G21KT 10SM CLR M06/M09 A3012 890 81 -1400 020/12G21 RMK AO2 $
94908KDBQ DBQ20090227095012502/27/09 09:50:31  5-MIN KDBQ 271550Z 02014G21KT 10SM CLR M06/M08 A3013 890 84 -1400 020/14G21 RMK AO2 SLP217 T10611083 PNO $
94908KDBQ DBQ20090227095510502/27/09 09:55:31  5-MIN KDBQ 271555Z 01013KT 10SM CLR M06/M08 A3014 880 84 -1400 010/13 RMK AO2 PRESRR $
94908KDBQ DBQ20090227100010102/27/09 10:00:31  5-MIN KDBQ 271600Z 01015KT 10SM FEW021 M06/M08 A3014 880 84 -1400 010/15 RMK AO2 $
94908KDBQ DBQ20090227100510102/27/09 10:05:31  5-MIN KDBQ 271605Z 35015KT 10SM FEW021 M06/M08 A3014 880 84 -1400 350/15 RMK AO2 $
94908KDBQ DBQ20090227101010102/27/09 10:10:31  5-MIN KDBQ 271610Z 01015KT 10SM FEW021 M06/M08 A3014 880 84 -1400 010/15 RMK AO2 $
94908KDBQ DBQ20090227101510102/27/09 10:15:31  5-MIN KDBQ 271615Z 01016KT 10SM FEW021 M06/M08 A3014 880 84 -1400 010/16 RMK AO2 $
94908KDBQ DBQ20090227102010502/27/09 10:20:31  5-MIN KDBQ 271620Z 02016G21KT 10SM FEW021 M06/M09 A3013 880 81 -1400 020/16G21 RMK AO2
94908KDBQ DBQ20090227102510502/27/09 10:25:31  5-MIN KDBQ 271625Z 01016G21KT 10SM FEW021 M06/M09 A3013 880 81 -1400 010/16G21 RMK AO2
94908KDBQ DBQ20090227103010502/27/09 10:30:31  5-MIN KDBQ 271630Z 03017G22KT 10SM FEW021 M06/M09 A3013 880 81 -1400 030/17G22 RMK AO2
94908KDBQ DBQ20090227103510602/27/09 10:35:31  5-MIN KDBQ 271635Z 03013G22KT 10SM CLR M06/M09 A3014 880 81 -1400 030/13G22 RMK AO2 PNO
94908KDBQ DBQ20090227104009802/27/09 10:40:31  5-MIN KDBQ 271640Z 03012KT 10SM CLR M06/M08 A3014 880 81 -1400 020/12 RMK AO2 $
94908KDBQ DBQ20090227104510402/27/09 10:45:31  5-MIN KDBQ 271645Z 03010G19KT 10SM CLR M06/M08 A3015 870 81 -1400 030/10G19 RMK AO2 $
94908KDBQ DBQ20090227105012102/27/09 10:50:31  5-MIN KDBQ 271650Z 02013G19KT 10SM CLR M05/M08 A3015 870 81 -1300 020/13G19 RMK AO2 SLP224 T10501078 $
94908KDBQ DBQ20090227105510402/27/09 10:55:31  5-MIN KDBQ 271655Z 02013G19KT 10SM CLR M05/M08 A3014 870 81 -1300 020/13G19 RMK AO2 $
94908KDBQ DBQ20090227110009802/27/09 11:00:31  5-MIN KDBQ 271700Z 02014KT 10SM CLR M06/M08 A3014 870 84 -1400 020/14 RMK AO2 $
94908KDBQ DBQ20090227110509802/27/09 11:05:31  5-MIN KDBQ 271705Z 02013KT 10SM CLR M06/M08 A3015 870 81 -1400 020/13 RMK AO2 $
94908KDBQ DBQ20090227111010402/27/09 11:10:31  5-MIN KDBQ 271710Z 01013G19KT 10SM CLR M05/M08 A3015 870 77 -1300 010/13G19 RMK AO2 $
94908KDBQ DBQ20090227111510402/27/09 11:15:31  5-MIN KDBQ 271715Z 03012G19KT 10SM CLR M05/M08 A3016 850 81 -1300 030/12G19 RMK AO2 $
94908KDBQ DBQ20090227112010402/27/09 11:20:31  5-MIN KDBQ 271720Z 04015G20KT 10SM CLR M05/M08 A3016 860 77 -1300 040/15G20 RMK AO2 $
94908KDBQ DBQ20090227112509802/27/09 11:25:31  5-MIN KDBQ 271725Z 04013KT 10SM CLR M05/M08 A3016 850 77 -1300 040/13 RMK AO2 $
94908KDBQ DBQ20090227113009802/27/09 11:30:31  5-MIN KDBQ 271730Z 04014KT 10SM CLR M05/M08 A3017 850 77 -1300 030/14 RMK AO2 $
94908KDBQ DBQ20090227113509802/27/09 11:35:31  5-MIN KDBQ 271735Z 03014KT 10SM CLR M05/M08 A3017 850 77 -1300 030/14 RMK AO2 $
94908KDBQ DBQ20090227114009802/27/09 11:40:31  5-MIN KDBQ 271740Z 02013KT 10SM CLR M04/M08 A3017 850 78 -1200 020/13 RMK AO2 $
94908KDBQ DBQ20090227114509802/27/09 11:45:31  5-MIN KDBQ 271745Z 03014KT 10SM CLR M05/M08 A3017 850 77 -1300 020/14 RMK AO2 $
94908KDBQ DBQ20090227115013302/27/09 11:50:31  5-MIN KDBQ 271750Z 02015KT 10SM CLR M04/M08 A3016 850 78 -1200 020/15 RMK AO2 SLP230 T10441078 11044 21072 51036 $
94908KDBQ DBQ20090227115510402/27/09 11:55:31  5-MIN KDBQ 271755Z 03014G20KT 10SM CLR M04/M08 A3017 850 78 -1200 030/14G20 RMK AO2 $
94908KDBQ DBQ20090227120010402/27/09 12:00:31  5-MIN KDBQ 271800Z 04014G20KT 10SM CLR M04/M08 A3017 850 78 -1300 040/14G20 RMK AO2 $
94908KDBQ DBQ20090227120510402/27/09 12:05:31  5-MIN KDBQ 271805Z 04012G18KT 10SM CLR M04/M08 A3018 840 78 -1300 040/12G18 RMK AO2 $
94908KDBQ DBQ20090227121010402/27/09 12:10:31  5-MIN KDBQ 271810Z 03014G18KT 10SM CLR M04/M08 A3018 840 78 -1300 030/14G18 RMK AO2 $
94908KDBQ DBQ20090227121509802/27/09 12:15:31  5-MIN KDBQ 271815Z 02012KT 10SM CLR M04/M08 A3018 840 78 -1300 020/12 RMK AO2 $
94908KDBQ DBQ20090227122010402/27/09 12:20:31  5-MIN KDBQ 271820Z 04012KT 10SM CLR M04/M08 A3018 840 78 -1300 040/12 RMK AO2 P0001 $
94908KDBQ DBQ20090227122510402/27/09 12:25:31  5-MIN KDBQ 271825Z 02010KT 10SM CLR M04/M08 A3018 840 78 -1300 020/10 RMK AO2 P0001 $
94908KDBQ DBQ20090227123011002/27/09 12:30:31  5-MIN KDBQ 271830Z 02012G18KT 10SM CLR M04/M08 A3018 840 74 -1200 020/12G18 RMK AO2 P0001 $
94908KDBQ DBQ20090227123510402/27/09 12:35:31  5-MIN KDBQ 271835Z 03013KT 10SM CLR M04/M08 A3018 840 78 -1300 030/13 RMK AO2 P0001 $
94908KDBQ DBQ20090227124011002/27/09 12:40:31  5-MIN KDBQ 271840Z 01011G17KT 10SM CLR M04/M08 A3018 840 78 -1300 010/11G17 RMK AO2 P0001 $
94908KDBQ DBQ20090227124511002/27/09 12:45:31  5-MIN KDBQ 271845Z 02012G18KT 10SM CLR M04/M08 A3018 840 78 -1300 020/12G18 RMK AO2 P0001 $
94908KDBQ DBQ20090227125012702/27/09 12:50:31  5-MIN KDBQ 271850Z 03013G18KT 10SM CLR M04/M08 A3018 840 78 -1300 030/13G18 RMK AO2 SLP234 P0001 T10441078 $
94908KDBQ DBQ20090227125509802/27/09 12:55:31  5-MIN KDBQ 271855Z 01013KT 10SM CLR M04/M08 A3018 840 74 -1200 010/13 RMK AO2 $
94908KDBQ DBQ20090227130009802/27/09 13:00:31  5-MIN KDBQ 271900Z 02011KT 10SM CLR M04/M08 A3019 830 74 -1200 010/11 RMK AO2 $
94908KDBQ DBQ20090227130509802/27/09 13:05:31  5-MIN KDBQ 271905Z 04011KT 10SM CLR M04/M08 A3019 830 74 -1200 040/11 RMK AO2 $
94908KDBQ DBQ20090227131009802/27/09 13:10:31  5-MIN KDBQ 271910Z 03011KT 10SM CLR M04/M08 A3019 830 74 -1200 030/11 RMK AO2 $
94908KDBQ DBQ20090227131510402/27/09 13:15:31  5-MIN KDBQ 271915Z 02010G18KT 10SM CLR M04/M08 A3018 830 74 -1200 020/10G18 RMK AO2 $
94908KDBQ DBQ20090227132009802/27/09 13:20:31  5-MIN KDBQ 271920Z 03010KT 10SM CLR M04/M07 A3019 830 78 -1200 030/10 RMK AO2 $
94908KDBQ DBQ20090227132509802/27/09 13:25:31  5-MIN KDBQ 271925Z 03011KT 10SM CLR M04/M08 A3019 830 74 -1200 030/11 RMK AO2 $
94908KDBQ DBQ20090227133009802/27/09 13:30:31  5-MIN KDBQ 271930Z 04013KT 10SM CLR M04/M08 A3019 830 74 -1200 030/13 RMK AO2 $
94908KDBQ DBQ20090227133509802/27/09 13:35:31  5-MIN KDBQ 271935Z 04009KT 10SM CLR M04/M08 A3018 840 74 -1200 040/09 RMK AO2 $
94908KDBQ DBQ20090227134009802/27/09 13:40:31  5-MIN KDBQ 271940Z 04009KT 10SM CLR M04/M08 A3018 830 74 -1200 040/09 RMK AO2 $
94908KDBQ DBQ20090227134509802/27/09 13:45:31  5-MIN KDBQ 271945Z 03010KT 10SM CLR M03/M07 A3019 830 74 -1100 030/10 RMK AO2 $
94908KDBQ DBQ20090227135011502/27/09 13:50:31  5-MIN KDBQ 271950Z 03010KT 10SM CLR M04/M07 A3018 840 78 -1200 030/10 RMK AO2 SLP235 T10391072 $
94908KDBQ DBQ20090227135509802/27/09 13:55:31  5-MIN KDBQ 271955Z 04013KT 10SM CLR M04/M08 A3018 840 74 -1200 040/13 RMK AO2 $
94908KDBQ DBQ20090227140009802/27/09 14:00:31  5-MIN KDBQ 272000Z 04013KT 10SM CLR M04/M08 A3019 830 74 -1200 040/13 RMK AO2 $
94908KDBQ DBQ20090227140509802/27/09 14:05:31  5-MIN KDBQ 272005Z 05010KT 10SM CLR M04/M08 A3019 830 74 -1200 050/10 RMK AO2 $
94908KDBQ DBQ20090227141009802/27/09 14:10:31  5-MIN KDBQ 272010Z 03011KT 10SM CLR M04/M07 A3020 820 78 -1200 030/11 RMK AO2 $
94908KDBQ DBQ20090227141510402/27/09 14:15:31  5-MIN KDBQ 272015Z 04009G16KT 10SM CLR M04/M07 A3020 820 78 -1200 030/09G16 RMK AO2 $
94908KDBQ DBQ20090227142010402/27/09 14:20:31  5-MIN KDBQ 272020Z 04011G16KT 10SM CLR M04/M07 A3020 820 78 -1200 040/11G16 RMK AO2 $
94908KDBQ DBQ20090227142510402/27/09 14:25:31  5-MIN KDBQ 272025Z 04009G16KT 10SM CLR M04/M08 A3020 820 74 -1200 040/09G16 RMK AO2 $
94908KDBQ DBQ20090227143009802/27/09 14:30:31  5-MIN KDBQ 272030Z 02010KT 10SM CLR M03/M07 A3021 810 74 -1200 020/10 RMK AO2 $
94908KDBQ DBQ20090227143509802/27/09 14:35:31  5-MIN KDBQ 272035Z 04011KT 10SM CLR M03/M07 A3021 810 74 -1200 040/11 RMK AO2 $
94908KDBQ DBQ20090227144009802/27/09 14:40:31  5-MIN KDBQ 272040Z 05010KT 10SM CLR M03/M07 A3021 810 74 -1200 050/10 RMK AO2 $
94908KDBQ DBQ20090227144509802/27/09 14:45:31  5-MIN KDBQ 272045Z VRB06KT 10SM CLR M03/M07 A3021 810 74 -1200 VRB/06 RMK AO2 $
94908KDBQ DBQ20090227145013302/27/09 14:50:31  5-MIN KDBQ 272050Z 05009G14KT 10SM CLR M03/M07 A3021 810 74 -1200 050/09G14 RMK AO2 SLP247 60001 T10331072 51026 $
94908KDBQ DBQ20090227145509602/27/09 14:55:31  5-MIN KDBQ 272055Z 05009KT 10SM CLR M04/M08 A3022 810 74 -1200 050/09 RMK AO2
94908KDBQ DBQ20090227150009602/27/09 15:00:31  5-MIN KDBQ 272100Z 03007KT 10SM CLR M04/M08 A3022 800 74 -1200 020/07 RMK AO2
94908KDBQ DBQ20090227150509602/27/09 15:05:31  5-MIN KDBQ 272105Z 04010KT 10SM CLR M03/M08 A3022 810 71 -1200 030/10 RMK AO2
94908KDBQ DBQ20090227151010202/27/09 15:10:31  5-MIN KDBQ 272110Z 03011G14KT 10SM CLR M03/M07 A3022 800 74 -1200 030/11G14 RMK AO2
94908KDBQ DBQ20090227151509602/27/09 15:15:31  5-MIN KDBQ 272115Z 04010KT 10SM CLR M03/M08 A3023 800 71 -1200 040/10 RMK AO2
94908KDBQ DBQ20090227152009602/27/09 15:20:31  5-MIN KDBQ 272120Z 04010KT 10SM CLR M03/M07 A3023 790 74 -1200 030/10 RMK AO2
94908KDBQ DBQ20090227152509602/27/09 15:25:31  5-MIN KDBQ 272125Z 05008KT 10SM CLR M03/M08 A3023 790 71 -1200 050/08 RMK AO2
94908KDBQ DBQ20090227153009602/27/09 15:30:31  5-MIN KDBQ 272130Z 01007KT 10SM CLR M03/M07 A3024 780 74 -1200 010/07 RMK AO2
94908KDBQ DBQ20090227153510202/27/09 15:35:31  5-MIN KDBQ 272135Z 02010G15KT 10SM CLR M03/M07 A3024 780 74 -1200 020/10G15 RMK AO2
94908KDBQ DBQ20090227154009602/27/09 15:40:31  5-MIN KDBQ 272140Z 04009KT 10SM CLR M03/M08 A3024 780 71 -1200 030/09 RMK AO2
94908KDBQ DBQ20090227154509602/27/09 15:45:31  5-MIN KDBQ 272145Z 04007KT 10SM CLR M03/M07 A3025 780 74 -1200 040/07 RMK AO2
94908KDBQ DBQ20090227155011302/27/09 15:50:31  5-MIN KDBQ 272150Z 03010KT 10SM CLR M03/M07 A3025 780 74 -1200 030/10 RMK AO2 SLP258 T10331072
94908KDBQ DBQ20090227155509602/27/09 15:55:31  5-MIN KDBQ 272155Z 04006KT 10SM CLR M03/M08 A3024 780 71 -1200 040/06 RMK AO2
94908KDBQ DBQ20090227160010202/27/09 16:00:31  5-MIN KDBQ 272200Z 06009G15KT 10SM CLR M03/M08 A3024 780 71 -1200 060/09G15 RMK AO2
94908KDBQ DBQ20090227160510202/27/09 16:05:31  5-MIN KDBQ 272205Z 05008G15KT 10SM CLR M03/M08 A3024 780 71 -1200 050/08G15 RMK AO2
94908KDBQ DBQ20090227161009602/27/09 16:10:31  5-MIN KDBQ 272210Z 05012KT 10SM CLR M03/M08 A3024 780 71 -1200 050/12 RMK AO2
94908KDBQ DBQ20090227161509602/27/09 16:15:31  5-MIN KDBQ 272215Z 03009KT 10SM CLR M03/M08 A3024 780 68 -1200 030/09 RMK AO2
94908KDBQ DBQ20090227162009602/27/09 16:20:31  5-MIN KDBQ 272220Z 03011KT 10SM CLR M03/M08 A3024 780 68 -1200 030/11 RMK AO2
94908KDBQ DBQ20090227162509602/27/09 16:25:31  5-MIN KDBQ 272225Z 05011KT 10SM CLR M04/M08 A3024 780 71 -1300 050/11 RMK AO2
94908KDBQ DBQ20090227163009602/27/09 16:30:31  5-MIN KDBQ 272230Z 05011KT 10SM CLR M04/M08 A3025 780 71 -1300 050/11 RMK AO2
94908KDBQ DBQ20090227163509602/27/09 16:35:31  5-MIN KDBQ 272235Z 06010KT 10SM CLR M04/M08 A3025 780 71 -1300 060/10 RMK AO2
94908KDBQ DBQ20090227164009602/27/09 16:40:31  5-MIN KDBQ 272240Z 04011KT 10SM CLR M04/M08 A3025 780 71 -1300 030/11 RMK AO2
94908KDBQ DBQ20090227164510202/27/09 16:45:31  5-MIN KDBQ 272245Z 04014G17KT 10SM CLR M04/M09 A3025 780 68 -1300 040/14G17 RMK AO2
94908KDBQ DBQ20090227165011302/27/09 16:50:31  5-MIN KDBQ 272250Z 05011KT 10SM CLR M04/M08 A3025 780 71 -1300 040/11 RMK AO2 SLP259 T10391083
94908KDBQ DBQ20090227165509602/27/09 16:55:31  5-MIN KDBQ 272255Z 04011KT 10SM CLR M04/M09 A3025 780 68 -1300 040/11 RMK AO2
94908KDBQ DBQ20090227170009602/27/09 17:00:31  5-MIN KDBQ 272300Z 05011KT 10SM CLR M04/M09 A3025 780 68 -1300 050/11 RMK AO2
94908KDBQ DBQ20090227170509602/27/09 17:05:31  5-MIN KDBQ 272305Z 03011KT 10SM CLR M04/M09 A3025 780 71 -1300 030/11 RMK AO2
94908KDBQ DBQ20090227171009602/27/09 17:10:31  5-MIN KDBQ 272310Z 04012KT 10SM CLR M04/M09 A3025 780 71 -1300 040/12 RMK AO2
94908KDBQ DBQ20090227171509602/27/09 17:15:31  5-MIN KDBQ 272315Z 04012KT 10SM CLR M04/M09 A3025 770 71 -1300 030/12 RMK AO2
94908KDBQ DBQ20090227172009602/27/09 17:20:31  5-MIN KDBQ 272320Z 03013KT 10SM CLR M04/M09 A3025 770 68 -1300 030/13 RMK AO2
94908KDBQ DBQ20090227172509602/27/09 17:25:31  5-MIN KDBQ 272325Z 04010KT 10SM CLR M04/M09 A3025 770 68 -1300 040/10 RMK AO2
94908KDBQ DBQ20090227173009602/27/09 17:30:31  5-MIN KDBQ 272330Z 04011KT 10SM CLR M04/M09 A3026 770 71 -1300 040/11 RMK AO2
94908KDBQ DBQ20090227173509602/27/09 17:35:31  5-MIN KDBQ 272335Z 04012KT 10SM CLR M05/M09 A3026 770 71 -1400 040/12 RMK AO2
94908KDBQ DBQ20090227174009602/27/09 17:40:31  5-MIN KDBQ 272340Z 04011KT 10SM CLR M05/M09 A3026 770 71 -1400 030/11 RMK AO2
94908KDBQ DBQ20090227174509602/27/09 17:45:31  5-MIN KDBQ 272345Z 04012KT 10SM CLR M05/M09 A3026 760 71 -1400 040/12 RMK AO2
94908KDBQ DBQ20090227175013702/27/09 17:50:31  5-MIN KDBQ 272350Z 04012KT 10SM CLR M05/M09 A3026 770 71 -1400 040/12 RMK AO2 SLP264 60001 T10501094 11033 21050 53017
94908KDBQ DBQ20090227175510202/27/09 17:55:31  5-MIN KDBQ 272355Z 05012G17KT 10SM CLR M05/M09 A3026 760 71 -1400 050/12G17 RMK AO2
94908KDBQ DBQ20090227180009602/27/09 18:00:31  5-MIN KDBQ 280000Z 05011KT 10SM CLR M05/M09 A3026 760 71 -1400 050/11 RMK AO2
94908KDBQ DBQ20090227180509602/27/09 18:05:31  5-MIN KDBQ 280005Z 04013KT 10SM CLR M06/M09 A3026 760 74 -1500 040/13 RMK AO2
94908KDBQ DBQ20090227181009602/27/09 18:10:31  5-MIN KDBQ 280010Z 04013KT 10SM CLR M06/M09 A3027 760 74 -1500 040/13 RMK AO2
94908KDBQ DBQ20090227181509602/27/09 18:15:31  5-MIN KDBQ 280015Z 05009KT 10SM CLR M06/M09 A3027 760 74 -1500 040/09 RMK AO2
94908KDBQ DBQ20090227182009602/27/09 18:20:31  5-MIN KDBQ 280020Z 04012KT 10SM CLR M06/M09 A3027 750 74 -1500 040/12 RMK AO2
94908KDBQ DBQ20090227182509602/27/09 18:25:31  5-MIN KDBQ 280025Z 05013KT 10SM CLR M06/M10 A3028 750 71 -1500 050/13 RMK AO2
94908KDBQ DBQ20090227183009602/27/09 18:30:31  5-MIN KDBQ 280030Z 05010KT 10SM CLR M06/M10 A3028 750 71 -1500 050/10 RMK AO2
94908KDBQ DBQ20090227183509602/27/09 18:35:31  5-MIN KDBQ 280035Z 05013KT 10SM CLR M06/M10 A3028 750 71 -1500 050/13 RMK AO2
94908KDBQ DBQ20090227184009602/27/09 18:40:31  5-MIN KDBQ 280040Z 05012KT 10SM CLR M06/M11 A3028 750 68 -1500 050/12 RMK AO2
94908KDBQ DBQ20090227184510102/27/09 18:45:31  5-MIN KDBQ 280045Z AUTO 05012KT 10SM CLR M06/M11 A3028 750 68 -1500 050/12 RMK AO2
94908KDBQ DBQ20090227185012402/27/09 18:50:31  5-MIN KDBQ 280050Z AUTO 05014G18KT 10SM CLR M06/M11 A3028 740 68 -1500 050/14G18 RMK AO2 SLP274 T10561106
94908KDBQ DBQ20090227185510102/27/09 18:55:31  5-MIN KDBQ 280055Z AUTO 05012KT 10SM CLR M06/M11 A3029 740 68 -1500 050/12 RMK AO2
94908KDBQ DBQ20090227190010102/27/09 19:00:31  5-MIN KDBQ 280100Z AUTO 05011KT 10SM CLR M06/M11 A3029 740 71 -1600 050/11 RMK AO2
94908KDBQ DBQ20090227190510102/27/09 19:05:31  5-MIN KDBQ 280105Z AUTO 05011KT 10SM CLR M06/M11 A3030 730 71 -1600 050/11 RMK AO2
94908KDBQ DBQ20090227191010102/27/09 19:10:31  5-MIN KDBQ 280110Z AUTO 05011KT 10SM CLR M06/M11 A3030 730 68 -1600 050/11 RMK AO2
94908KDBQ DBQ20090227191510702/27/09 19:15:31  5-MIN KDBQ 280115Z AUTO 06013G16KT 10SM CLR M06/M11 A3030 720 68 -1600 060/13G16 RMK AO2
94908KDBQ DBQ20090227192010702/27/09 19:20:31  5-MIN KDBQ 280120Z AUTO 06012G16KT 10SM CLR M06/M11 A3031 720 68 -1600 060/12G16 RMK AO2
94908KDBQ DBQ20090227192510102/27/09 19:25:31  5-MIN KDBQ 280125Z AUTO 05010KT 10SM CLR M06/M11 A3031 720 68 -1600 050/10 RMK AO2
94908KDBQ DBQ20090227193010102/27/09 19:30:31  5-MIN KDBQ 280130Z AUTO 06009KT 10SM CLR M07/M11 A3031 720 71 -1700 060/09 RMK AO2
94908KDBQ DBQ20090227193510702/27/09 19:35:31  5-MIN KDBQ 280135Z AUTO 06012KT 10SM CLR M07/M11 A3031 720 71 -1700 060/12 RMK AO2 P0001
94908KDBQ DBQ20090227194010702/27/09 19:40:31  5-MIN KDBQ 280140Z AUTO 05013KT 10SM CLR M07/M11 A3031 720 71 -1700 050/13 RMK AO2 P0001
94908KDBQ DBQ20090227194510702/27/09 19:45:31  5-MIN KDBQ 280145Z AUTO 05013KT 10SM CLR M07/M12 A3031 720 68 -1700 050/13 RMK AO2 P0001
94908KDBQ DBQ20090227195013002/27/09 19:50:31  5-MIN KDBQ 280150Z AUTO 05014G19KT 10SM CLR M07/M12 A3032 720 68 -1700 050/14G19 RMK AO2 SLP285 P0001 T10671117
94908KDBQ DBQ20090227195510702/27/09 19:55:31  5-MIN KDBQ 280155Z AUTO 05009G19KT 10SM CLR M07/M12 A3032 710 68 -1700 050/09G19 RMK AO2
94908KDBQ DBQ20090227200010102/27/09 20:00:31  5-MIN KDBQ 280200Z AUTO 05011KT 10SM CLR M07/M12 A3032 710 68 -1700 050/11 RMK AO2
94908KDBQ DBQ20090227200510102/27/09 20:05:31  5-MIN KDBQ 280205Z AUTO 05013KT 10SM CLR M07/M12 A3032 710 68 -1700 050/13 RMK AO2
94908KDBQ DBQ20090227201010302/27/09 20:10:31  5-MIN KDBQ 280210Z AUTO 06011KT 10SM CLR M07/M12 A3032 710 68 -1700 060/11 RMK AO2 $
94908KDBQ DBQ20090227201510302/27/09 20:15:31  5-MIN KDBQ 280215Z AUTO 06011KT 10SM CLR M07/M12 A3032 710 68 -1700 050/11 RMK AO2 $
94908KDBQ DBQ20090227202010302/27/09 20:20:31  5-MIN KDBQ 280220Z AUTO 06012KT 10SM CLR M07/M12 A3032 710 65 -1700 060/12 RMK AO2 $
94908KDBQ DBQ20090227202510302/27/09 20:25:31  5-MIN KDBQ 280225Z AUTO 05008KT 10SM CLR M07/M12 A3032 710 68 -1700 050/08 RMK AO2 $
94908KDBQ DBQ20090227203010302/27/09 20:30:31  5-MIN KDBQ 280230Z AUTO 06011KT 10SM CLR M07/M12 A3033 700 71 -1800 060/11 RMK AO2 $
94908KDBQ DBQ20090227203510302/27/09 20:35:31  5-MIN KDBQ 280235Z AUTO 06010KT 10SM CLR M07/M12 A3033 700 71 -1800 060/10 RMK AO2 $
94908KDBQ DBQ20090227204010902/27/09 20:40:31  5-MIN KDBQ 280240Z AUTO 05009G20KT 10SM CLR M07/M12 A3033 700 71 -1800 050/09G20 RMK AO2 $
94908KDBQ DBQ20090227204510902/27/09 20:45:31  5-MIN KDBQ 280245Z AUTO 06009G20KT 10SM CLR M07/M12 A3033 700 71 -1800 060/09G20 RMK AO2 $
94908KDBQ DBQ20090227205013202/27/09 20:50:31  5-MIN KDBQ 280250Z AUTO 07010KT 10SM CLR M07/M12 A3034 690 71 -1800 070/10 RMK AO2 SLP293 60001 T10721117 51015 $
94908KDBQ DBQ20090227205510302/27/09 20:55:31  5-MIN KDBQ 280255Z AUTO 07009KT 10SM CLR M07/M12 A3034 690 68 -1800 070/09 RMK AO2 $
94908KDBQ DBQ20090227210010302/27/09 21:00:31  5-MIN KDBQ 280300Z AUTO 06010KT 10SM CLR M07/M12 A3034 690 68 -1800 060/10 RMK AO2 $
94908KDBQ DBQ20090227210510302/27/09 21:05:31  5-MIN KDBQ 280305Z AUTO 07007KT 10SM CLR M07/M12 A3035 680 68 -1800 060/07 RMK AO2 $
94908KDBQ DBQ20090227211010302/27/09 21:10:31  5-MIN KDBQ 280310Z AUTO 06010KT 10SM CLR M07/M12 A3035 680 71 -1800 060/10 RMK AO2 $
94908KDBQ DBQ20090227211510302/27/09 21:15:31  5-MIN KDBQ 280315Z AUTO 07007KT 10SM CLR M07/M12 A3035 680 71 -1800 070/07 RMK AO2 $
94908KDBQ DBQ20090227212010302/27/09 21:20:31  5-MIN KDBQ 280320Z AUTO 07011KT 10SM CLR M08/M12 A3036 680 74 -1900 070/11 RMK AO2 $
94908KDBQ DBQ20090227212510302/27/09 21:25:31  5-MIN KDBQ 280325Z AUTO 07010KT 10SM CLR M08/M12 A3036 670 71 -1900 070/10 RMK AO2 $
94908KDBQ DBQ20090227213010302/27/09 21:30:31  5-MIN KDBQ 280330Z AUTO 07012KT 10SM CLR M08/M12 A3036 680 71 -1900 070/12 RMK AO2 $
94908KDBQ DBQ20090227213510302/27/09 21:35:31  5-MIN KDBQ 280335Z AUTO 07009KT 10SM CLR M08/M13 A3036 670 67 -1900 070/09 RMK AO2 $
94908KDBQ DBQ20090227214010302/27/09 21:40:31  5-MIN KDBQ 280340Z AUTO 07008KT 10SM CLR M08/M13 A3037 670 67 -1900 070/08 RMK AO2 $
94908KDBQ DBQ20090227214510302/27/09 21:45:31  5-MIN KDBQ 280345Z AUTO 06008KT 10SM CLR M08/M12 A3037 660 74 -2000 060/08 RMK AO2 $
94908KDBQ DBQ20090227215012002/27/09 21:50:31  5-MIN KDBQ 280350Z AUTO 06009KT 10SM CLR M08/M12 A3037 660 74 -2000 060/09 RMK AO2 SLP305 T10831122 $
94908KDBQ DBQ20090227215510302/27/09 21:55:31  5-MIN KDBQ 280355Z AUTO 05008KT 10SM CLR M08/M13 A3038 660 70 -2000 050/08 RMK AO2 $
94908KDBQ DBQ20090227220010302/27/09 22:00:31  5-MIN KDBQ 280400Z AUTO 05008KT 10SM CLR M08/M12 A3038 660 74 -2000 050/08 RMK AO2 $
94908KDBQ DBQ20090227220510302/27/09 22:05:31  5-MIN KDBQ 280405Z AUTO 06011KT 10SM CLR M08/M13 A3037 660 70 -2000 060/11 RMK AO2 $
94908KDBQ DBQ20090227221010302/27/09 22:10:31  5-MIN KDBQ 280410Z AUTO 06009KT 10SM CLR M08/M13 A3038 660 70 -2000 060/09 RMK AO2 $
94908KDBQ DBQ20090227221510302/27/09 22:15:31  5-MIN KDBQ 280415Z AUTO 05010KT 10SM CLR M08/M13 A3038 660 70 -2000 050/10 RMK AO2 $
94908KDBQ DBQ20090227222010302/27/09 22:20:31  5-MIN KDBQ 280420Z AUTO 05010KT 10SM CLR M08/M13 A3038 660 70 -2000 050/10 RMK AO2 $
94908KDBQ DBQ20090227222510302/27/09 22:25:31  5-MIN KDBQ 280425Z AUTO 05010KT 10SM CLR M08/M13 A3038 660 67 -2000 050/10 RMK AO2 $
94908KDBQ DBQ20090227223010302/27/09 22:30:31  5-MIN KDBQ 280430Z AUTO 06008KT 10SM CLR M08/M13 A3038 660 67 -2000 060/08 RMK AO2 $
94908KDBQ DBQ20090227223510302/27/09 22:35:31  5-MIN KDBQ 280435Z AUTO 06010KT 10SM CLR M08/M13 A3038 650 67 -2000 060/10 RMK AO2 $
94908KDBQ DBQ20090227224010302/27/09 22:40:31  5-MIN KDBQ 280440Z AUTO 06010KT 10SM CLR M09/M13 A3038 650 70 -2100 060/10 RMK AO2 $
94908KDBQ DBQ20090227224510302/27/09 22:45:31  5-MIN KDBQ 280445Z AUTO 06009KT 10SM CLR M09/M13 A3039 650 70 -2100 060/09 RMK AO2 $
94908KDBQ DBQ20090227225012002/27/09 22:50:31  5-MIN KDBQ 280450Z AUTO 05008KT 10SM CLR M09/M13 A3038 650 70 -2100 050/08 RMK AO2 SLP309 T10891133 $
94908KDBQ DBQ20090227225510302/27/09 22:55:31  5-MIN KDBQ 280455Z AUTO 06007KT 10SM CLR M09/M13 A3039 650 70 -2100 060/07 RMK AO2 $
94908KDBQ DBQ20090227230010302/27/09 23:00:31  5-MIN KDBQ 280500Z AUTO 06007KT 10SM CLR M09/M13 A3039 650 70 -2100 060/07 RMK AO2 $
94908KDBQ DBQ20090227230510302/27/09 23:05:31  5-MIN KDBQ 280505Z AUTO 06010KT 10SM CLR M09/M13 A3039 650 70 -2100 060/10 RMK AO2 $
94908KDBQ DBQ20090227231010302/27/09 23:10:31  5-MIN KDBQ 280510Z AUTO 06010KT 10SM CLR M09/M14 A3038 650 67 -2100 060/10 RMK AO2 $
94908KDBQ DBQ20090227231510302/27/09 23:15:31  5-MIN KDBQ 280515Z AUTO 06012KT 10SM CLR M09/M14 A3039 650 67 -2100 060/12 RMK AO2 $
94908KDBQ DBQ20090227232010302/27/09 23:20:31  5-MIN KDBQ 280520Z AUTO 06010KT 10SM CLR M09/M14 A3038 650 67 -2100 060/10 RMK AO2 $
94908KDBQ DBQ20090227232510302/27/09 23:25:31  5-MIN KDBQ 280525Z AUTO 06011KT 10SM CLR M09/M14 A3038 650 67 -2100 060/11 RMK AO2 $
94908KDBQ DBQ20090227233010302/27/09 23:30:31  5-MIN KDBQ 280530Z AUTO 06010KT 10SM CLR M09/M14 A3038 650 67 -2100 060/10 RMK AO2 $
94908KDBQ DBQ20090227233510302/27/09 23:35:31  5-MIN KDBQ 280535Z AUTO 06010KT 10SM CLR M09/M14 A3038 650 67 -2100 060/10 RMK AO2 $
94908KDBQ DBQ20090227234010302/27/09 23:40:31  5-MIN KDBQ 280540Z AUTO 06010KT 10SM CLR M09/M14 A3038 650 67 -2100 060/10 RMK AO2 $
94908KDBQ DBQ20090227234510302/27/09 23:45:31  5-MIN KDBQ 280545Z AUTO 06009KT 10SM CLR M09/M14 A3038 650 67 -2100 060/09 RMK AO2 $
94908KDBQ DBQ20090227235015402/27/09 23:50:31  5-MIN KDBQ 280550Z AUTO 06009KT 10SM CLR M09/M14 A3038 650 67 -2100 060/09 RMK AO2 SLP309 60001 T10891139 11050 21089 410171089 53026 $
94908KDBQ DBQ20090227235510302/27/09 23:55:31  5-MIN KDBQ 280555Z AUTO 06006KT 10SM CLR M09/M14 A3038 650 67 -2100 060/06 RMK AO2 $
94908KDBQ DBQ20090228000010902/28/09 00:00:38  5-MIN KDBQ 280600Z AUTO 06009KT 10SM CLR M09/M14 A3038 650 67 -2100 060/09 RMK AO2 P0001 $
94908KDBQ DBQ20090228000510902/28/09 00:05:31  5-MIN KDBQ 280605Z AUTO 06009KT 10SM CLR M09/M14 A3038 650 67 -2100 060/09 RMK AO2 P0001 $
94908KDBQ DBQ20090228001010902/28/09 00:10:31  5-MIN KDBQ 280610Z AUTO 06010KT 10SM CLR M09/M14 A3038 660 67 -2100 060/10 RMK AO2 P0001 $
94908KDBQ DBQ20090228001510902/28/09 00:15:33  5-MIN KDBQ 280615Z AUTO 06011KT 10SM CLR M09/M14 A3038 650 67 -2100 060/11 RMK AO2 P0001 $
94908KDBQ DBQ20090228002010902/28/09 00:20:31  5-MIN KDBQ 280620Z AUTO 06011KT 10SM CLR M09/M14 A3038 660 64 -2100 060/11 RMK AO2 P0001 $
94908KDBQ DBQ20090228002510902/28/09 00:25:31  5-MIN KDBQ 280625Z AUTO 06010KT 10SM CLR M09/M14 A3038 650 64 -2100 060/10 RMK AO2 P0001 $
94908KDBQ DBQ20090228003010902/28/09 00:30:31  5-MIN KDBQ 280630Z AUTO 05009KT 10SM CLR M09/M15 A3038 660 61 -2100 050/09 RMK AO2 P0001 $
94908KDBQ DBQ20090228003510902/28/09 00:35:31  5-MIN KDBQ 280635Z AUTO 05011KT 10SM CLR M09/M15 A3038 660 61 -2100 050/11 RMK AO2 P0001 $
94908KDBQ DBQ20090228004010902/28/09 00:40:31  5-MIN KDBQ 280640Z AUTO 06009KT 10SM CLR M09/M14 A3038 660 67 -2100 060/09 RMK AO2 P0001 $
94908KDBQ DBQ20090228004510902/28/09 00:45:31  5-MIN KDBQ 280645Z AUTO 05011KT 10SM CLR M09/M15 A3038 660 64 -2100 050/11 RMK AO2 P0001 $
94908KDBQ DBQ20090228005012602/28/09 00:50:31  5-MIN KDBQ 280650Z AUTO 05011KT 10SM CLR M09/M15 A3038 660 64 -2100 050/11 RMK AO2 SLP306 P0001 T10941150 $
94908KDBQ DBQ20090228005510302/28/09 00:55:31  5-MIN KDBQ 280655Z AUTO 06011KT 10SM CLR M09/M15 A3038 660 64 -2100 050/11 RMK AO2 $
94908KDBQ DBQ20090228010010302/28/09 01:00:31  5-MIN KDBQ 280700Z AUTO 06010KT 10SM CLR M09/M14 A3038 660 67 -2100 050/10 RMK AO2 $
94908KDBQ DBQ20090228010510302/28/09 01:05:31  5-MIN KDBQ 280705Z AUTO 06011KT 10SM CLR M09/M14 A3037 660 67 -2100 060/11 RMK AO2 $
94908KDBQ DBQ20090228011010302/28/09 01:10:31  5-MIN KDBQ 280710Z AUTO 05012KT 10SM CLR M09/M14 A3037 660 67 -2100 050/12 RMK AO2 $
94908KDBQ DBQ20090228011510302/28/09 01:15:31  5-MIN KDBQ 280715Z AUTO 06011KT 10SM CLR M09/M14 A3037 660 67 -2100 060/11 RMK AO2 $
94908KDBQ DBQ20090228012010302/28/09 01:20:31  5-MIN KDBQ 280720Z AUTO 06009KT 10SM CLR M09/M14 A3037 660 67 -2100 060/09 RMK AO2 $
94908KDBQ DBQ20090228012510302/28/09 01:25:31  5-MIN KDBQ 280725Z AUTO 06011KT 10SM CLR M09/M14 A3037 660 67 -2100 060/11 RMK AO2 $
94908KDBQ DBQ20090228013010302/28/09 01:30:31  5-MIN KDBQ 280730Z AUTO 06009KT 10SM CLR M09/M14 A3037 670 67 -2100 060/09 RMK AO2 $
94908KDBQ DBQ20090228013510302/28/09 01:35:31  5-MIN KDBQ 280735Z AUTO 06008KT 10SM CLR M09/M14 A3037 660 67 -2100 060/08 RMK AO2 $
94908KDBQ DBQ20090228014010302/28/09 01:40:31  5-MIN KDBQ 280740Z AUTO 06008KT 10SM CLR M09/M14 A3037 660 67 -2100 060/08 RMK AO2 $
94908KDBQ DBQ20090228014510302/28/09 01:45:31  5-MIN KDBQ 280745Z AUTO 06009KT 10SM CLR M10/M14 A3037 670 73 -2200 060/09 RMK AO2 $
94908KDBQ DBQ20090228015012002/28/09 01:50:31  5-MIN KDBQ 280750Z AUTO 06013KT 10SM CLR M09/M14 A3037 670 67 -2100 060/13 RMK AO2 SLP303 T10941144 $
94908KDBQ DBQ20090228015510302/28/09 01:55:31  5-MIN KDBQ 280755Z AUTO 07010KT 10SM CLR M09/M14 A3036 670 67 -2100 070/10 RMK AO2 $
94908KDBQ DBQ20090228020010302/28/09 02:00:31  5-MIN KDBQ 280800Z AUTO 06009KT 10SM CLR M10/M14 A3036 670 70 -2200 060/09 RMK AO2 $
94908KDBQ DBQ20090228020510302/28/09 02:05:31  5-MIN KDBQ 280805Z AUTO 05010KT 10SM CLR M10/M14 A3036 670 73 -2200 050/10 RMK AO2 $
94908KDBQ DBQ20090228021010302/28/09 02:10:31  5-MIN KDBQ 280810Z AUTO 06011KT 10SM CLR M10/M14 A3036 680 73 -2200 060/11 RMK AO2 $
94908KDBQ DBQ20090228021510302/28/09 02:15:31  5-MIN KDBQ 280815Z AUTO 06012KT 10SM CLR M10/M14 A3035 680 70 -2200 060/12 RMK AO2 $
94908KDBQ DBQ20090228022010302/28/09 02:20:31  5-MIN KDBQ 280820Z AUTO 05014KT 10SM CLR M10/M14 A3036 680 70 -2200 050/14 RMK AO2 $
94908KDBQ DBQ20090228022510302/28/09 02:25:31  5-MIN KDBQ 280825Z AUTO 06012KT 10SM CLR M10/M14 A3036 680 70 -2200 060/12 RMK AO2 $
94908KDBQ DBQ20090228023010302/28/09 02:30:31  5-MIN KDBQ 280830Z AUTO 05010KT 10SM CLR M10/M14 A3036 680 73 -2200 050/10 RMK AO2 $
94908KDBQ DBQ20090228023510302/28/09 02:35:31  5-MIN KDBQ 280835Z AUTO 06010KT 10SM CLR M10/M14 A3036 670 73 -2200 060/10 RMK AO2 $
94908KDBQ DBQ20090228024010302/28/09 02:40:31  5-MIN KDBQ 280840Z AUTO 05009KT 10SM CLR M10/M14 A3036 670 73 -2200 050/09 RMK AO2 $
94908KDBQ DBQ20090228024510702/28/09 02:45:31  5-MIN KDBQ 280845Z AUTO 06008KT 10SM CLR M10/M14 A3036 670 73 -2200 060/08 RMK AO2 PNO $
94908KDBQ DBQ20090228025013202/28/09 02:50:31  5-MIN KDBQ 280850Z AUTO 05007KT 10SM CLR M10/M14 A3036 670 73 -2200 050/07 RMK AO2 SLP301 60001 T11001139 50014 $
94908KDBQ DBQ20090228025510702/28/09 02:55:31  5-MIN KDBQ 280855Z AUTO 06009KT 10SM CLR M10/M14 A3036 670 73 -2200 060/09 RMK AO2 PNO $
94908KDBQ DBQ20090228030010302/28/09 03:00:31  5-MIN KDBQ 280900Z AUTO 05011KT 10SM CLR M10/M14 A3036 680 73 -2200 050/11 RMK AO2 $
94908KDBQ DBQ20090228030510302/28/09 03:05:31  5-MIN KDBQ 280905Z AUTO 05011KT 10SM CLR M10/M14 A3035 680 73 -2200 050/11 RMK AO2 $
94908KDBQ DBQ20090228031010302/28/09 03:10:31  5-MIN KDBQ 280910Z AUTO 05011KT 10SM CLR M10/M14 A3035 680 73 -2200 050/11 RMK AO2 $
94908KDBQ DBQ20090228031510302/28/09 03:15:31  5-MIN KDBQ 280915Z AUTO 05010KT 10SM CLR M10/M14 A3035 680 70 -2200 050/10 RMK AO2 $
94908KDBQ DBQ20090228032010302/28/09 03:20:31  5-MIN KDBQ 280920Z AUTO 05011KT 10SM CLR M10/M14 A3036 680 70 -2200 050/11 RMK AO2 $
94908KDBQ DBQ20090228032510302/28/09 03:25:31  5-MIN KDBQ 280925Z AUTO 05010KT 10SM CLR M10/M14 A3036 680 70 -2200 050/10 RMK AO2 $
94908KDBQ DBQ20090228033010302/28/09 03:30:31  5-MIN KDBQ 280930Z AUTO 04011KT 10SM CLR M10/M14 A3036 670 73 -2200 040/11 RMK AO2 $
94908KDBQ DBQ20090228033510302/28/09 03:35:31  5-MIN KDBQ 280935Z AUTO 04009KT 10SM CLR M10/M14 A3036 670 73 -2200 040/09 RMK AO2 $
94908KDBQ DBQ20090228034010602/28/09 03:40:31  5-MIN KDBQ 280940Z AUTO 04008KT 10SM FEW022 M10/M14 A3037 670 73 -2200 040/08 RMK AO2 $
94908KDBQ DBQ20090228034510602/28/09 03:45:31  5-MIN KDBQ 280945Z AUTO 04010KT 10SM SCT022 M10/M14 A3037 670 73 -2200 040/10 RMK AO2 $
94908KDBQ DBQ20090228035012302/28/09 03:50:31  5-MIN KDBQ 280950Z AUTO 05010KT 10SM SCT022 M10/M14 A3037 660 73 -2200 050/10 RMK AO2 SLP305 T11001139 $
94908KDBQ DBQ20090228035510602/28/09 03:55:31  5-MIN KDBQ 280955Z AUTO 05010KT 10SM SCT022 M10/M14 A3037 660 73 -2200 050/10 RMK AO2 $
94908KDBQ DBQ20090228040010602/28/09 04:00:31  5-MIN KDBQ 281000Z AUTO 04009KT 10SM FEW022 M10/M14 A3037 660 73 -2200 040/09 RMK AO2 $
94908KDBQ DBQ20090228040510602/28/09 04:05:31  5-MIN KDBQ 281005Z AUTO 04010KT 10SM SCT022 M10/M14 A3037 660 73 -2200 040/10 RMK AO2 $
94908KDBQ DBQ20090228041010602/28/09 04:10:31  5-MIN KDBQ 281010Z AUTO 04009KT 10SM SCT022 M10/M14 A3037 660 73 -2200 040/09 RMK AO2 $
94908KDBQ DBQ20090228041510602/28/09 04:15:31  5-MIN KDBQ 281015Z AUTO 04010KT 10SM BKN022 M10/M14 A3037 660 73 -2200 040/10 RMK AO2 $
94908KDBQ DBQ20090228042010602/28/09 04:20:31  5-MIN KDBQ 281020Z AUTO 05010KT 10SM SCT022 M10/M14 A3038 660 73 -2200 050/10 RMK AO2 $
94908KDBQ DBQ20090228042510602/28/09 04:25:31  5-MIN KDBQ 281025Z AUTO 04011KT 10SM FEW022 M10/M14 A3038 660 73 -2200 040/11 RMK AO2 $
94908KDBQ DBQ20090228043010602/28/09 04:30:31  5-MIN KDBQ 281030Z AUTO 04009KT 10SM FEW022 M10/M14 A3038 660 73 -2200 040/09 RMK AO2 $
94908KDBQ DBQ20090228043510602/28/09 04:35:31  5-MIN KDBQ 281035Z AUTO 03009KT 10SM FEW022 M10/M14 A3038 650 73 -2200 030/09 RMK AO2 $
94908KDBQ DBQ20090228044010602/28/09 04:40:31  5-MIN KDBQ 281040Z AUTO 02010KT 10SM FEW022 M10/M14 A3038 650 73 -2200 020/10 RMK AO2 $
94908KDBQ DBQ20090228044510302/28/09 04:45:31  5-MIN KDBQ 281045Z AUTO 02009KT 10SM CLR M10/M14 A3038 650 73 -2200 020/09 RMK AO2 $
94908KDBQ DBQ20090228045012302/28/09 04:50:31  5-MIN KDBQ 281050Z AUTO 02008KT 10SM FEW022 M10/M14 A3039 650 73 -2200 020/08 RMK AO2 SLP309 T11001139 $
94908KDBQ DBQ20090228045510602/28/09 04:55:31  5-MIN KDBQ 281055Z AUTO 03010KT 10SM SCT022 M10/M13 A3039 650 77 -2200 030/10 RMK AO2 $
94908KDBQ DBQ20090228050010602/28/09 05:00:31  5-MIN KDBQ 281100Z AUTO 02010KT 10SM SCT022 M10/M14 A3039 650 73 -2200 020/10 RMK AO2 $
94908KDBQ DBQ20090228050510602/28/09 05:05:31  5-MIN KDBQ 281105Z AUTO 02010KT 10SM BKN022 M10/M14 A3039 640 73 -2200 020/10 RMK AO2 $
94908KDBQ DBQ20090228051010602/28/09 05:10:31  5-MIN KDBQ 281110Z AUTO 03011KT 10SM BKN022 M10/M14 A3039 640 73 -2200 030/11 RMK AO2 $
94908KDBQ DBQ20090228051510602/28/09 05:15:31  5-MIN KDBQ 281115Z AUTO 02009KT 10SM SCT022 M10/M14 A3039 640 73 -2200 020/09 RMK AO2 $
94908KDBQ DBQ20090228052010602/28/09 05:20:31  5-MIN KDBQ 281120Z AUTO 01011KT 10SM SCT022 M10/M14 A3039 650 73 -2200 010/11 RMK AO2 $
94908KDBQ DBQ20090228052510602/28/09 05:25:31  5-MIN KDBQ 281125Z AUTO 02010KT 10SM FEW022 M11/M14 A3039 640 77 -2300 020/10 RMK AO2 $
94908KDBQ DBQ20090228053010602/28/09 05:30:31  5-MIN KDBQ 281130Z AUTO 02009KT 10SM FEW022 M11/M14 A3040 640 77 -2300 010/09 RMK AO2 $
94908KDBQ DBQ20090228053510602/28/09 05:35:31  5-MIN KDBQ 281135Z AUTO 01010KT 10SM FEW022 M10/M14 A3040 640 73 -2200 010/10 RMK AO2 $
94908KDBQ DBQ20090228054010602/28/09 05:40:31  5-MIN KDBQ 281140Z AUTO 01010KT 10SM SCT022 M10/M14 A3040 640 73 -2200 010/10 RMK AO2 $
94908KDBQ DBQ20090228054513302/28/09 05:45:31  5-MIN KDBQ 281145Z AUTO 35032G65KT 10SM SQ FEW022 M10/M14 A3040 640 73 -2200 350/32G65 RMK AO2 PK WND 33065/1145 $
94908KDBQ DBQ20090228055016802/28/09 05:50:31  5-MIN KDBQ 281150Z AUTO 01018G65KT 10SM SQ FEW022 M11/M14 A3040 640 77 -2300 010/18G65 RMK AO2 SLP314 P0001 60002 70004 T11061139 11089 21106 56007 $
94908KDBQ DBQ20090228055512602/28/09 05:55:31  5-MIN KDBQ 281155Z 36010G64KT 220V020 10SM SQ FEW022 M11/M14 A3040 640 77 -2300 360/10G64 220V020 RMK AO2 $
94908KDBQ DBQ20090228060011902/28/09 06:00:31  5-MIN KDBQ 281200Z 02011KT 10SM FEW022 M11/M14 A3040 640 77 -2300 020/11 RMK AO2 PK WND 21069/1200 $
94908KDBQ DBQ20090228060511902/28/09 06:05:31  5-MIN KDBQ 281205Z 02011KT 10SM FEW022 M11/M14 A3039 640 77 -2300 020/11 RMK AO2 PK WND 21069/1200 $
94908KDBQ DBQ20090228061011602/28/09 06:10:31  5-MIN KDBQ 281210Z 02011KT 10SM CLR M11/M14 A3039 640 77 -2300 020/11 RMK AO2 PK WND 21069/1200 $
94908KDBQ DBQ20090228061511602/28/09 06:15:31  5-MIN KDBQ 281215Z 02011KT 10SM CLR M11/M14 A3039 640 77 -2300 020/11 RMK AO2 PK WND 21069/1200 $
94908KDBQ DBQ20090228062011602/28/09 06:20:31  5-MIN KDBQ 281220Z 02011KT 10SM CLR M11/M14 A3039 650 77 -2300 020/11 RMK AO2 PK WND 21069/1200 $
94908KDBQ DBQ20090228062511602/28/09 06:25:31  5-MIN KDBQ 281225Z 02011KT 10SM CLR M11/M14 A3039 650 77 -2300 020/11 RMK AO2 PK WND 21069/1200 $
94908KDBQ DBQ20090228063011602/28/09 06:30:31  5-MIN KDBQ 281230Z 02011KT 10SM CLR M11/M14 A3039 650 77 -2300 020/11 RMK AO2 PK WND 21069/1200 $
94908KDBQ DBQ20090228063511602/28/09 06:35:31  5-MIN KDBQ 281235Z 02011KT 10SM CLR M11/M14 A3039 650 77 -2300 020/11 RMK AO2 PK WND 21069/1200 $
94908KDBQ DBQ20090228064011602/28/09 06:40:31  5-MIN KDBQ 281240Z 02011KT 10SM CLR M11/M14 A3039 650 77 -2300 020/11 RMK AO2 PK WND 21069/1200 $
94908KDBQ DBQ20090228064511902/28/09 06:45:31  5-MIN KDBQ 281245Z 02011KT 10SM FEW120 M11/M14 A3039 650 77 -2300 020/11 RMK AO2 PK WND 21069/1200 $
94908KDBQ DBQ20090228065013602/28/09 06:50:31  5-MIN KDBQ 281250Z 02011KT 10SM FEW120 M11/M14 A3039 640 77 -2300 020/11 RMK AO2 PK WND 21069/1200 SLP313 T11061139 $
94908KDBQ DBQ20090228065510102/28/09 06:55:31  5-MIN KDBQ 281255Z 01010KT 10SM FEW120 M11/M14 A3039 640 77 -2300 010/10 RMK AO2 $
94908KDBQ DBQ20090228070010102/28/09 07:00:31  5-MIN KDBQ 281300Z 02011KT 10SM FEW120 M11/M14 A3039 640 77 -2300 020/11 RMK AO2 $
94908KDBQ DBQ20090228070510802/28/09 07:05:31  5-MIN KDBQ 281305Z 02011KT 10SM FEW021 SCT120 M11/M14 A3039 640 77 -2300 020/11 RMK AO2 $
94908KDBQ DBQ20090228071010802/28/09 07:10:31  5-MIN KDBQ 281310Z 03011KT 10SM SCT021 BKN120 M11/M14 A3039 640 77 -2300 030/11 RMK AO2 $
94908KDBQ DBQ20090228071510802/28/09 07:15:31  5-MIN KDBQ 281315Z 02009KT 10SM BKN021 BKN120 M11/M14 A3040 640 77 -2300 020/09 RMK AO2 $
94908KDBQ DBQ20090228072010802/28/09 07:20:31  5-MIN KDBQ 281320Z 01011KT 10SM BKN021 BKN120 M11/M13 A3040 640 80 -2300 010/11 RMK AO2 $
94908KDBQ DBQ20090228072510102/28/09 07:25:31  5-MIN KDBQ 281325Z 03010KT 10SM BKN021 M11/M13 A3040 640 80 -2300 030/10 RMK AO2 $
94908KDBQ DBQ20090228073010102/28/09 07:30:31  5-MIN KDBQ 281330Z 03010KT 10SM OVC021 M10/M13 A3040 640 77 -2200 020/10 RMK AO2 $
94908KDBQ DBQ20090228073510102/28/09 07:35:31  5-MIN KDBQ 281335Z 03011KT 10SM OVC021 M10/M13 A3040 640 77 -2200 030/11 RMK AO2 $
94908KDBQ DBQ20090228074010102/28/09 07:40:31  5-MIN KDBQ 281340Z 03010KT 10SM OVC021 M10/M13 A3040 640 77 -2200 030/10 RMK AO2 $
94908KDBQ DBQ20090228074510102/28/09 07:45:31  5-MIN KDBQ 281345Z 03012KT 10SM OVC021 M10/M13 A3040 630 77 -2200 030/12 RMK AO2 $
94908KDBQ DBQ20090228075011802/28/09 07:50:31  5-MIN KDBQ 281350Z 04011KT 10SM OVC021 M10/M13 A3041 630 77 -2200 040/11 RMK AO2 SLP317 T11001133 $
94908KDBQ DBQ20090228075510102/28/09 07:55:31  5-MIN KDBQ 281355Z 04011KT 10SM OVC021 M10/M13 A3041 630 77 -2200 040/11 RMK AO2 $
94908KDBQ DBQ20090228080010102/28/09 08:00:31  5-MIN KDBQ 281400Z 03010KT 10SM OVC021 M10/M13 A3041 630 80 -2200 030/10 RMK AO2 $
94908KDBQ DBQ20090228080510102/28/09 08:05:31  5-MIN KDBQ 281405Z 04010KT 10SM OVC021 M10/M13 A3041 630 77 -2200 030/10 RMK AO2 $
94908KDBQ DBQ20090228081010102/28/09 08:10:31  5-MIN KDBQ 281410Z 04010KT 10SM OVC021 M10/M13 A3041 630 77 -2200 040/10 RMK AO2 $
94908KDBQ DBQ20090228081510102/28/09 08:15:31  5-MIN KDBQ 281415Z 04008KT 10SM OVC021 M09/M13 A3041 630 77 -2200 040/08 RMK AO2 $
94908KDBQ DBQ20090228082010102/28/09 08:20:31  5-MIN KDBQ 281420Z 03009KT 10SM OVC021 M09/M13 A3041 630 77 -2200 030/09 RMK AO2 $
94908KDBQ DBQ20090228082510102/28/09 08:25:31  5-MIN KDBQ 281425Z 03011KT 10SM OVC021 M09/M13 A3041 630 77 -2200 030/11 RMK AO2 $
94908KDBQ DBQ20090228083010102/28/09 08:30:31  5-MIN KDBQ 281430Z 03013KT 10SM OVC021 M09/M13 A3041 630 77 -2200 030/13 RMK AO2 $
94908KDBQ DBQ20090228083510102/28/09 08:35:31  5-MIN KDBQ 281435Z 03009KT 10SM OVC021 M09/M13 A3041 630 77 -2200 030/09 RMK AO2 $
94908KDBQ DBQ20090228084010102/28/09 08:40:31  5-MIN KDBQ 281440Z 03012KT 10SM OVC021 M09/M13 A3041 630 77 -2200 030/12 RMK AO2 $
94908KDBQ DBQ20090228084510102/28/09 08:45:31  5-MIN KDBQ 281445Z 04011KT 10SM OVC021 M09/M13 A3041 630 77 -2200 040/11 RMK AO2 $
94908KDBQ DBQ20090228085013002/28/09 08:50:31  5-MIN KDBQ 281450Z 03013KT 10SM OVC021 M09/M13 A3041 630 77 -2200 020/13 RMK AO2 SLP317 60001 T10941128 53011 $
94908KDBQ DBQ20090228085510102/28/09 08:55:31  5-MIN KDBQ 281455Z 03011KT 10SM OVC021 M09/M13 A3041 630 77 -2200 030/11 RMK AO2 $
94908KDBQ DBQ20090228090010102/28/09 09:00:31  5-MIN KDBQ 281500Z 03010KT 10SM OVC021 M09/M12 A3041 630 80 -2200 030/10 RMK AO2 $
94908KDBQ DBQ20090228090510102/28/09 09:05:31  5-MIN KDBQ 281505Z 04011KT 10SM BKN021 M09/M13 A3040 640 77 -2200 030/11 RMK AO2 $
94908KDBQ DBQ20090228091010802/28/09 09:10:31  5-MIN KDBQ 281510Z 04009KT 10SM BKN021 BKN100 M09/M12 A3040 630 77 -2100 040/09 RMK AO2 $
94908KDBQ DBQ20090228091510802/28/09 09:15:31  5-MIN KDBQ 281515Z 05010KT 10SM SCT021 BKN100 M09/M12 A3040 630 77 -2100 040/10 RMK AO2 $
94908KDBQ DBQ20090228092010802/28/09 09:20:31  5-MIN KDBQ 281520Z 03009KT 10SM SCT021 OVC100 M09/M12 A3040 640 77 -2100 030/09 RMK AO2 $
94908KDBQ DBQ20090228092510802/28/09 09:25:31  5-MIN KDBQ 281525Z 03011KT 10SM FEW021 OVC100 M09/M12 A3040 640 77 -2100 030/11 RMK AO2 $
94908KDBQ DBQ20090228093010802/28/09 09:30:31  5-MIN KDBQ 281530Z 04010KT 10SM FEW021 BKN100 M08/M12 A3040 640 77 -2000 040/10 RMK AO2 $
94908KDBQ DBQ20090228093510102/28/09 09:35:31  5-MIN KDBQ 281535Z 03009KT 10SM OVC100 M08/M12 A3040 640 77 -2000 030/09 RMK AO2 $
94908KDBQ DBQ20090228094010102/28/09 09:40:31  5-MIN KDBQ 281540Z 04009KT 10SM OVC100 M08/M12 A3040 640 77 -2000 040/09 RMK AO2 $
94908KDBQ DBQ20090228094510102/28/09 09:45:31  5-MIN KDBQ 281545Z 03009KT 10SM OVC100 M08/M11 A3040 640 77 -1900 030/09 RMK AO2 $
94908KDBQ DBQ20090228095012402/28/09 09:50:31  5-MIN KDBQ 281550Z 05012G16KT 10SM BKN100 M08/M11 A3039 640 77 -1900 050/12G16 RMK AO2 SLP313 T10781111 $
94908KDBQ DBQ20090228095510702/28/09 09:55:31  5-MIN KDBQ 281555Z 04010G19KT 10SM BKN100 M08/M11 A3039 640 77 -1900 040/10G19 RMK AO2 $
94908KDBQ DBQ20090228100011402/28/09 10:00:31  5-MIN KDBQ 281600Z 04011G19KT 10SM FEW017 BKN100 M07/M11 A3039 640 74 -1900 040/11G19 RMK AO2 $
94908KDBQ DBQ20090228100510802/28/09 10:05:31  5-MIN KDBQ 281605Z 04011KT 10SM FEW018 BKN100 M08/M11 A3039 650 77 -1900 040/11 RMK AO2 $
94908KDBQ DBQ20090228101010802/28/09 10:10:31  5-MIN KDBQ 281610Z 05011KT 10SM FEW018 SCT100 M08/M11 A3039 650 77 -1900 050/11 RMK AO2 $
94908KDBQ DBQ20090228101510802/28/09 10:15:31  5-MIN KDBQ 281615Z 04010KT 10SM SCT018 SCT100 M07/M11 A3039 650 74 -1900 040/10 RMK AO2 $
94908KDBQ DBQ20090228102010802/28/09 10:20:31  5-MIN KDBQ 281620Z 05010KT 10SM BKN018 BKN100 M07/M11 A3039 650 74 -1800 050/10 RMK AO2 $
94908KDBQ DBQ20090228102510102/28/09 10:25:31  5-MIN KDBQ 281625Z 05010KT 10SM BKN018 M07/M11 A3039 650 74 -1900 040/10 RMK AO2 $
94908KDBQ DBQ20090228103010102/28/09 10:30:31  5-MIN KDBQ 281630Z 03014KT 10SM BKN018 M07/M11 A3039 650 74 -1800 030/14 RMK AO2 $
94908KDBQ DBQ20090228103510102/28/09 10:35:31  5-MIN KDBQ 281635Z 05010KT 10SM BKN018 M07/M11 A3039 650 77 -1900 050/10 RMK AO2 $
94908KDBQ DBQ20090228104010102/28/09 10:40:31  5-MIN KDBQ 281640Z 06012KT 10SM BKN018 M07/M11 A3038 650 74 -1800 060/12 RMK AO2 $
94908KDBQ DBQ20090228104510102/28/09 10:45:31  5-MIN KDBQ 281645Z 06010KT 10SM BKN018 M06/M10 A3038 650 74 -1700 060/10 RMK AO2 $
94908KDBQ DBQ20090228105012402/28/09 10:50:31  5-MIN KDBQ 281650Z 06011G17KT 10SM BKN018 M06/M10 A3039 650 74 -1700 060/11G17 RMK AO2 SLP309 T10611100 $
94908KDBQ DBQ20090228105510702/28/09 10:55:31  5-MIN KDBQ 281655Z 03011G17KT 10SM BKN018 M06/M10 A3039 650 74 -1700 030/11G17 RMK AO2 $
94908KDBQ DBQ20090228110010102/28/09 11:00:31  5-MIN KDBQ 281700Z 04012KT 10SM BKN018 M07/M11 A3039 650 74 -1800 040/12 RMK AO2 $
94908KDBQ DBQ20090228110510102/28/09 11:05:31  5-MIN KDBQ 281705Z 04010KT 10SM BKN018 M07/M11 A3039 650 74 -1800 040/10 RMK AO2 $
94908KDBQ DBQ20090228111010102/28/09 11:10:31  5-MIN KDBQ 281710Z 06009KT 10SM BKN020 M07/M11 A3039 650 74 -1800 060/09 RMK AO2 $
94908KDBQ DBQ20090228111510702/28/09 11:15:31  5-MIN KDBQ 281715Z 02012KT 10SM BKN020 M06/M10 A3039 650 74 -1700 020/12 RMK AO2 P0001 $
94908KDBQ DBQ20090228112010702/28/09 11:20:31  5-MIN KDBQ 281720Z 04010KT 10SM BKN020 M06/M10 A3039 650 74 -1700 030/10 RMK AO2 P0001 $
94908KDBQ DBQ20090228112510702/28/09 11:25:31  5-MIN KDBQ 281725Z 04011KT 10SM BKN020 M06/M10 A3039 650 74 -1700 040/11 RMK AO2 P0001 $
94908KDBQ DBQ20090228113010702/28/09 11:30:31  5-MIN KDBQ 281730Z 04012KT 10SM BKN020 M06/M10 A3038 650 71 -1600 040/12 RMK AO2 P0001 $
94908KDBQ DBQ20090228113510702/28/09 11:35:31  5-MIN KDBQ 281735Z 05010KT 10SM BKN020 M06/M10 A3038 650 71 -1600 050/10 RMK AO2 P0001 $
94908KDBQ DBQ20090228114010702/28/09 11:40:31  5-MIN KDBQ 281740Z 05009KT 10SM BKN020 M06/M10 A3038 650 71 -1600 050/09 RMK AO2 P0001 $
94908KDBQ DBQ20090228114511002/28/09 11:45:31  5-MIN KDBQ 281745Z 02010G16KT 10SM CLR M06/M09 A3038 650 74 -1600 020/10G16 RMK AO2 P0001 $
94908KDBQ DBQ20090228115011002/28/09 11:50:31  5-MIN KDBQ 281750Z 03010G16KT 10SM CLR M06/M09 A3038 660 74 -1600 030/10G16 RMK AO2 P0001 $
94908KDBQ DBQ20090228115509802/28/09 11:55:31  5-MIN KDBQ 281755Z 04009KT 10SM CLR M06/M09 A3038 660 74 -1600 040/09 RMK AO2 $
94908KDBQ DBQ20090228120010102/28/09 12:00:31  5-MIN KDBQ 281800Z 01011KT 10SM FEW023 M05/M09 A3038 660 71 -1600 010/11 RMK AO2 $
94908KDBQ DBQ20090228120510102/28/09 12:05:31  5-MIN KDBQ 281805Z 01009KT 10SM FEW023 M05/M09 A3038 660 71 -1600 010/09 RMK AO2 $
94908KDBQ DBQ20090228121010702/28/09 12:10:31  5-MIN KDBQ 281810Z 02011G16KT 10SM FEW023 M05/M09 A3037 660 71 -1600 010/11G16 RMK AO2 $
94908KDBQ DBQ20090228121509802/28/09 12:15:31  5-MIN KDBQ 281815Z 03010KT 10SM CLR M04/M09 A3037 660 68 -1500 020/10 RMK AO2 $
94908KDBQ DBQ20090228122009802/28/09 12:20:31  5-MIN KDBQ 281820Z 02009KT 10SM CLR M05/M09 A3037 660 71 -1600 020/09 RMK AO2 $
94908KDBQ DBQ20090228122509802/28/09 12:25:31  5-MIN KDBQ 281825Z 04009KT 10SM CLR M04/M09 A3037 660 68 -1500 040/09 RMK AO2 $
94908KDBQ DBQ20090228123009802/28/09 12:30:31  5-MIN KDBQ 281830Z 04009KT 10SM CLR M04/M09 A3037 660 68 -1500 040/09 RMK AO2 $
94908KDBQ DBQ20090228123510402/28/09 12:35:31  5-MIN KDBQ 281835Z 03009G16KT 10SM CLR M04/M09 A3037 660 68 -1500 030/09G16 RMK AO2 $
94908KDBQ DBQ20090228124010402/28/09 12:40:31  5-MIN KDBQ 281840Z 01008G16KT 10SM CLR M04/M09 A3037 670 68 -1500 010/08G16 RMK AO2 $
94908KDBQ DBQ20090228124509802/28/09 12:45:31  5-MIN KDBQ 281845Z 03010KT 10SM CLR M04/M09 A3037 670 68 -1500 030/10 RMK AO2 $
94908KDBQ DBQ20090228125011502/28/09 12:50:31  5-MIN KDBQ 281850Z 04007KT 10SM CLR M04/M10 A3037 670 65 -1500 040/07 RMK AO2 SLP303 T10441100 $
94908KDBQ DBQ20090228125509802/28/09 12:55:31  5-MIN KDBQ 281855Z 04008KT 10SM CLR M04/M09 A3037 670 65 -1400 040/08 RMK AO2 $
94908KDBQ DBQ20090228130009802/28/09 13:00:31  5-MIN KDBQ 281900Z 04010KT 10SM CLR M04/M09 A3037 670 65 -1400 040/10 RMK AO2 $
94908KDBQ DBQ20090228130509802/28/09 13:05:31  5-MIN KDBQ 281905Z 03011KT 10SM CLR M04/M10 A3036 670 63 -1400 030/11 RMK AO2 $
94908KDBQ DBQ20090228131009802/28/09 13:10:31  5-MIN KDBQ 281910Z 04009KT 10SM CLR M04/M10 A3036 670 63 -1400 040/09 RMK AO2 $
94908KDBQ DBQ20090228131510402/28/09 13:15:31  5-MIN KDBQ 281915Z 03012G17KT 10SM CLR M04/M09 A3036 670 68 -1400 030/12G17 RMK AO2 $
94908KDBQ DBQ20090228132010402/28/09 13:20:31  5-MIN KDBQ 281920Z 01006G17KT 10SM CLR M04/M09 A3036 670 68 -1400 010/06G17 RMK AO2 $
94908KDBQ DBQ20090228132509802/28/09 13:25:31  5-MIN KDBQ 281925Z 03007KT 10SM CLR M03/M08 A3036 680 68 -1300 030/07 RMK AO2 $
94908KDBQ DBQ20090228133009802/28/09 13:30:31  5-MIN KDBQ 281930Z 05008KT 10SM CLR M03/M09 A3036 680 65 -1300 050/08 RMK AO2 $
94908KDBQ DBQ20090228133509802/28/09 13:35:31  5-MIN KDBQ 281935Z 01007KT 10SM CLR M04/M09 A3036 680 65 -1400 010/07 RMK AO2 $
94908KDBQ DBQ20090228134010402/28/09 13:40:31  5-MIN KDBQ 281940Z 05007G14KT 10SM CLR M03/M09 A3036 680 63 -1300 050/07G14 RMK AO2 $
94908KDBQ DBQ20090228134509802/28/09 13:45:31  5-MIN KDBQ 281945Z 36008KT 10SM CLR M03/M09 A3036 680 63 -1300 350/08 RMK AO2 $
94908KDBQ DBQ20090228135011502/28/09 13:50:31  5-MIN KDBQ 281950Z 01008KT 10SM CLR M03/M09 A3036 680 65 -1300 010/08 RMK AO2 SLP299 T10331089 $
94908KDBQ DBQ20090228135509802/28/09 13:55:31  5-MIN KDBQ 281955Z 02008KT 10SM CLR M03/M09 A3036 670 63 -1300 020/08 RMK AO2 $
94908KDBQ DBQ20090228140009802/28/09 14:00:31  5-MIN KDBQ 282000Z 01010KT 10SM CLR M03/M09 A3036 670 65 -1300 010/10 RMK AO2 $
94908KDBQ DBQ20090228140509802/28/09 14:05:31  5-MIN KDBQ 282005Z 36007KT 10SM CLR M03/M09 A3036 670 63 -1300 350/07 RMK AO2 $
94908KDBQ DBQ20090228141009802/28/09 14:10:31  5-MIN KDBQ 282010Z 01009KT 10SM CLR M03/M09 A3036 680 60 -1300 360/09 RMK AO2 $
94908KDBQ DBQ20090228141509802/28/09 14:15:31  5-MIN KDBQ 282015Z 02008KT 10SM CLR M03/M09 A3036 680 63 -1300 010/08 RMK AO2 $
94908KDBQ DBQ20090228142009802/28/09 14:20:31  5-MIN KDBQ 282020Z 03010KT 10SM CLR M02/M08 A3036 680 63 -1200 030/10 RMK AO2 $
94908KDBQ DBQ20090228142509802/28/09 14:25:31  5-MIN KDBQ 282025Z 02011KT 10SM CLR M03/M09 A3036 670 60 -1300 020/11 RMK AO2 $
94908KDBQ DBQ20090228143009802/28/09 14:30:31  5-MIN KDBQ 282030Z 02007KT 10SM CLR M03/M09 A3036 680 63 -1300 020/07 RMK AO2 $
94908KDBQ DBQ20090228143509802/28/09 14:35:31  5-MIN KDBQ 282035Z 04008KT 10SM CLR M03/M09 A3036 680 63 -1300 040/08 RMK AO2 $
94908KDBQ DBQ20090228144009802/28/09 14:40:31  5-MIN KDBQ 282040Z 03011KT 10SM CLR M03/M09 A3036 680 60 -1300 030/11 RMK AO2 $
94908KDBQ DBQ20090228144509802/28/09 14:45:31  5-MIN KDBQ 282045Z 03010KT 10SM CLR M03/M09 A3036 680 60 -1300 030/10 RMK AO2 $
94908KDBQ DBQ20090228145012102/28/09 14:50:31  5-MIN KDBQ 282050Z 02007KT 10SM CLR M02/M09 A3035 680 60 -1200 020/07 RMK AO2 SLP298 T10221089 56004 $
94908KDBQ DBQ20090228145509802/28/09 14:55:31  5-MIN KDBQ 282055Z 01008KT 10SM CLR M02/M09 A3036 680 60 -1200 010/08 RMK AO2 $
94908KDBQ DBQ20090228150009802/28/09 15:00:31  5-MIN KDBQ 282100Z 34010KT 10SM CLR M03/M09 A3036 680 63 -1300 340/10 RMK AO2 $
94908KDBQ DBQ20090228150509802/28/09 15:05:31  5-MIN KDBQ 282105Z 35007KT 10SM CLR M03/M09 A3036 670 63 -1300 350/07 RMK AO2 $
94908KDBQ DBQ20090228151009802/28/09 15:10:31  5-MIN KDBQ 282110Z 01008KT 10SM CLR M03/M09 A3036 670 60 -1300 010/08 RMK AO2 $
94908KDBQ DBQ20090228151509802/28/09 15:15:31  5-MIN KDBQ 282115Z 02010KT 10SM CLR M02/M09 A3036 670 60 -1200 020/10 RMK AO2 $
94908KDBQ DBQ20090228152009802/28/09 15:20:31  5-MIN KDBQ 282120Z 36008KT 10SM CLR M03/M09 A3036 670 60 -1300 350/08 RMK AO2 $
94908KDBQ DBQ20090228152509802/28/09 15:25:31  5-MIN KDBQ 282125Z 02006KT 10SM CLR M02/M09 A3036 670 58 -1200 020/06 RMK AO2 $
94908KDBQ DBQ20090228153009802/28/09 15:30:31  5-MIN KDBQ 282130Z 35008KT 10SM CLR M02/M09 A3036 670 58 -1200 350/08 RMK AO2 $
94908KDBQ DBQ20090228153509802/28/09 15:35:31  5-MIN KDBQ 282135Z 36011KT 10SM CLR M02/M09 A3036 670 58 -1200 360/11 RMK AO2 $
94908KDBQ DBQ20090228154009802/28/09 15:40:31  5-MIN KDBQ 282140Z 36009KT 10SM CLR M03/M09 A3037 670 60 -1300 360/09 RMK AO2 $
94908KDBQ DBQ20090228154509802/28/09 15:45:31  5-MIN KDBQ 282145Z 36009KT 10SM CLR M02/M09 A3037 670 58 -1200 360/09 RMK AO2 $
94908KDBQ DBQ20090228155011502/28/09 15:50:31  5-MIN KDBQ 282150Z 36008KT 10SM CLR M02/M10 A3037 670 55 -1200 360/08 RMK AO2 SLP302 T10221100 $
94908KDBQ DBQ20090228155509802/28/09 15:55:31  5-MIN KDBQ 282155Z 02007KT 10SM CLR M02/M09 A3037 670 58 -1200 020/07 RMK AO2 $
94908KDBQ DBQ20090228160009802/28/09 16:00:31  5-MIN KDBQ 282200Z 35007KT 10SM CLR M02/M09 A3037 670 60 -1200 350/07 RMK AO2 $
94908KDBQ DBQ20090228160509802/28/09 16:05:31  5-MIN KDBQ 282205Z 34007KT 10SM CLR M03/M09 A3037 670 60 -1300 340/07 RMK AO2 $
94908KDBQ DBQ20090228161009802/28/09 16:10:31  5-MIN KDBQ 282210Z 34006KT 10SM CLR M03/M09 A3037 660 60 -1300 340/06 RMK AO2 $
94908KDBQ DBQ20090228161509802/28/09 16:15:31  5-MIN KDBQ 282215Z 02005KT 10SM CLR M02/M09 A3037 660 58 -1200 010/05 RMK AO2 $
94908KDBQ DBQ20090228162009802/28/09 16:20:31  5-MIN KDBQ 282220Z 35008KT 10SM CLR M02/M09 A3037 660 60 -1200 350/08 RMK AO2 $
94908KDBQ DBQ20090228162509802/28/09 16:25:31  5-MIN KDBQ 282225Z 33008KT 10SM CLR M03/M09 A3037 660 60 -1300 330/08 RMK AO2 $
94908KDBQ DBQ20090228163009802/28/09 16:30:31  5-MIN KDBQ 282230Z 35008KT 10SM CLR M02/M09 A3037 660 58 -1200 350/08 RMK AO2 $
94908KDBQ DBQ20090228163509802/28/09 16:35:31  5-MIN KDBQ 282235Z 34005KT 10SM CLR M03/M10 A3037 660 58 -1300 340/05 RMK AO2 $
94908KDBQ DBQ20090228164009802/28/09 16:40:31  5-MIN KDBQ 282240Z 34008KT 10SM CLR M03/M09 A3037 660 60 -1300 340/08 RMK AO2 $
94908KDBQ DBQ20090228190510302/28/09 19:05:31  5-MIN KDBQ 010105Z AUTO 34007KT 10SM CLR M05/M11 A3039 650 65 -1600 340/07 RMK AO2 $
94908KDBQ DBQ20090228191010302/28/09 19:10:31  5-MIN KDBQ 010110Z AUTO 34006KT 10SM CLR M06/M11 A3039 650 68 -1600 340/06 RMK AO2 $
94908KDBQ DBQ20090228191510302/28/09 19:15:31  5-MIN KDBQ 010115Z AUTO 33006KT 10SM CLR M06/M11 A3039 650 68 -1600 330/06 RMK AO2 $
94908KDBQ DBQ20090228192010302/28/09 19:20:31  5-MIN KDBQ 010120Z AUTO 33005KT 10SM CLR M06/M11 A3039 650 71 -1700 320/05 RMK AO2 $
94908KDBQ DBQ20090228192510302/28/09 19:25:31  5-MIN KDBQ 010125Z AUTO 33006KT 10SM CLR M06/M11 A3039 650 68 -1600 330/06 RMK AO2 $
94908KDBQ DBQ20090228193010302/28/09 19:30:31  5-MIN KDBQ 010130Z AUTO 33007KT 10SM CLR M06/M11 A3039 650 68 -1600 330/07 RMK AO2 $
94908KDBQ DBQ20090228193510302/28/09 19:35:31  5-MIN KDBQ 010135Z AUTO 33008KT 10SM CLR M06/M11 A3039 650 68 -1600 330/08 RMK AO2 $
94908KDBQ DBQ20090228194010302/28/09 19:40:31  5-MIN KDBQ 010140Z AUTO 33008KT 10SM CLR M06/M11 A3039 650 65 -1600 330/08 RMK AO2 $
94908KDBQ DBQ20090228194510302/28/09 19:45:31  5-MIN KDBQ 010145Z AUTO 33008KT 10SM CLR M06/M11 A3039 650 65 -1600 330/08 RMK AO2 $
94908KDBQ DBQ20090228195012002/28/09 19:50:31  5-MIN KDBQ 010150Z AUTO 33008KT 10SM CLR M05/M11 A3039 650 62 -1600 330/08 RMK AO2 SLP311 T10501111 $
94908KDBQ DBQ20090228195510302/28/09 19:55:31  5-MIN KDBQ 010155Z AUTO 34009KT 10SM CLR M06/M11 A3039 650 65 -1600 340/09 RMK AO2 $
94908KDBQ DBQ20090228200010302/28/09 20:00:31  5-MIN KDBQ 010200Z AUTO 33008KT 10SM CLR M06/M11 A3039 650 65 -1600 330/08 RMK AO2 $
94908KDBQ DBQ20090228200510302/28/09 20:05:31  5-MIN KDBQ 010205Z AUTO 33009KT 10SM CLR M06/M12 A3039 650 62 -1600 330/09 RMK AO2 $
94908KDBQ DBQ20090228201010302/28/09 20:10:31  5-MIN KDBQ 010210Z AUTO 32010KT 10SM CLR M06/M11 A3038 650 65 -1600 320/10 RMK AO2 $
94908KDBQ DBQ20090228201510302/28/09 20:15:31  5-MIN KDBQ 010215Z AUTO 32009KT 10SM CLR M06/M11 A3038 650 65 -1600 320/09 RMK AO2 $
94908KDBQ DBQ20090228202010302/28/09 20:20:31  5-MIN KDBQ 010220Z AUTO 33011KT 10SM CLR M06/M11 A3039 650 65 -1600 330/11 RMK AO2 $
94908KDBQ DBQ20090228202510302/28/09 20:25:31  5-MIN KDBQ 010225Z AUTO 32011KT 10SM CLR M06/M11 A3039 650 65 -1600 320/11 RMK AO2 $
94908KDBQ DBQ20090228203010302/28/09 20:30:31  5-MIN KDBQ 010230Z AUTO 33011KT 10SM CLR M06/M12 A3039 650 62 -1600 330/11 RMK AO2 $
94908KDBQ DBQ20090228203510302/28/09 20:35:31  5-MIN KDBQ 010235Z AUTO 33012KT 10SM CLR M06/M12 A3039 640 62 -1600 320/12 RMK AO2 $
94908KDBQ DBQ20090228204010302/28/09 20:40:31  5-MIN KDBQ 010240Z AUTO 33011KT 10SM CLR M06/M12 A3040 640 62 -1700 330/11 RMK AO2 $
94908KDBQ DBQ20090228204510302/28/09 20:45:31  5-MIN KDBQ 010245Z AUTO 33011KT 10SM CLR M06/M12 A3040 640 65 -1700 330/11 RMK AO2 $
94908KDBQ DBQ20090228205012602/28/09 20:50:31  5-MIN KDBQ 010250Z AUTO 33013KT 10SM CLR M06/M12 A3040 640 65 -1700 330/13 RMK AO2 SLP315 T10611117 51008 $
94908KDBQ DBQ20090228205510302/28/09 20:55:31  5-MIN KDBQ 010255Z AUTO 33009KT 10SM CLR M06/M12 A3040 640 65 -1700 330/09 RMK AO2 $
94908KDBQ DBQ20090228210010302/28/09 21:00:31  5-MIN KDBQ 010300Z AUTO 33012KT 10SM CLR M06/M12 A3040 640 65 -1700 330/12 RMK AO2 $
94908KDBQ DBQ20090228210510302/28/09 21:05:31  5-MIN KDBQ 010305Z AUTO 33009KT 10SM CLR M06/M12 A3040 640 65 -1700 330/09 RMK AO2 $
94908KDBQ DBQ20090228211010302/28/09 21:10:31  5-MIN KDBQ 010310Z AUTO 33012KT 10SM CLR M06/M12 A3040 640 62 -1700 330/12 RMK AO2 $
94908KDBQ DBQ20090228211510302/28/09 21:15:31  5-MIN KDBQ 010315Z AUTO 34010KT 10SM CLR M06/M12 A3040 640 62 -1700 340/10 RMK AO2 $
94908KDBQ DBQ20090228212010302/28/09 21:20:31  5-MIN KDBQ 010320Z AUTO 34008KT 10SM CLR M07/M13 A3040 640 62 -1800 340/08 RMK AO2 $
94908KDBQ DBQ20090228212510302/28/09 21:25:31  5-MIN KDBQ 010325Z AUTO 33009KT 10SM CLR M07/M13 A3040 640 62 -1800 330/09 RMK AO2 $
94908KDBQ DBQ20090228213010902/28/09 21:30:31  5-MIN KDBQ 010330Z AUTO 33011G16KT 10SM CLR M07/M13 A3040 640 59 -1800 330/11G16 RMK AO2 $
94908KDBQ DBQ20090228213510302/28/09 21:35:31  5-MIN KDBQ 010335Z AUTO 33010KT 10SM CLR M07/M14 A3040 630 57 -1800 330/10 RMK AO2 $
94908KDBQ DBQ20090228214010302/28/09 21:40:31  5-MIN KDBQ 010340Z AUTO 33010KT 10SM CLR M07/M14 A3040 640 57 -1800 330/10 RMK AO2 $
94908KDBQ DBQ20090228214510302/28/09 21:45:31  5-MIN KDBQ 010345Z AUTO 34009KT 10SM CLR M07/M14 A3040 640 57 -1800 340/09 RMK AO2 $
94908KDBQ DBQ20090228215012002/28/09 21:50:31  5-MIN KDBQ 010350Z AUTO 34007KT 10SM CLR M07/M14 A3040 640 57 -1800 340/07 RMK AO2 SLP313 T10671139 $
94908KDBQ DBQ20090228215510302/28/09 21:55:31  5-MIN KDBQ 010355Z AUTO 34005KT 10SM CLR M07/M14 A3040 640 59 -1900 340/05 RMK AO2 $
94908KDBQ DBQ20090228220010302/28/09 22:00:31  5-MIN KDBQ 010400Z AUTO 34005KT 10SM CLR M07/M14 A3040 640 59 -1900 340/05 RMK AO2 $
94908KDBQ DBQ20090228220510302/28/09 22:05:31  5-MIN KDBQ 010405Z AUTO 33005KT 10SM CLR M07/M14 A3040 640 59 -1900 330/05 RMK AO2 $
94908KDBQ DBQ20090228221010302/28/09 22:10:31  5-MIN KDBQ 010410Z AUTO 33007KT 10SM CLR M07/M13 A3040 640 62 -1900 330/07 RMK AO2 $
94908KDBQ DBQ20090228221510302/28/09 22:15:31  5-MIN KDBQ 010415Z AUTO 33009KT 10SM CLR M07/M13 A3040 640 62 -1900 330/09 RMK AO2 $
94908KDBQ DBQ20090228222010302/28/09 22:20:31  5-MIN KDBQ 010420Z AUTO 33007KT 10SM CLR M07/M13 A3040 640 62 -1900 330/07 RMK AO2 $
94908KDBQ DBQ20090228222510302/28/09 22:25:31  5-MIN KDBQ 010425Z AUTO 33007KT 10SM CLR M07/M13 A3040 640 65 -1900 330/07 RMK AO2 $
94908KDBQ DBQ20090228223010302/28/09 22:30:31  5-MIN KDBQ 010430Z AUTO 33009KT 10SM CLR M07/M13 A3040 630 65 -1900 330/09 RMK AO2 $
94908KDBQ DBQ20090228223510302/28/09 22:35:31  5-MIN KDBQ 010435Z AUTO 32009KT 10SM CLR M07/M13 A3040 640 65 -1900 320/09 RMK AO2 $
94908KDBQ DBQ20090228224010302/28/09 22:40:31  5-MIN KDBQ 010440Z AUTO 32007KT 10SM CLR M07/M13 A3041 630 65 -1900 320/07 RMK AO2 $
94908KDBQ DBQ20090228224510302/28/09 22:45:31  5-MIN KDBQ 010445Z AUTO 33010KT 10SM CLR M07/M13 A3041 630 65 -1900 330/10 RMK AO2 $
94908KDBQ DBQ20090228225012002/28/09 22:50:31  5-MIN KDBQ 010450Z AUTO 33008KT 10SM CLR M07/M13 A3041 630 62 -1900 330/08 RMK AO2 SLP316 T10721133 $
94908KDBQ DBQ20090228225510302/28/09 22:55:31  5-MIN KDBQ 010455Z AUTO 33010KT 10SM CLR M07/M13 A3040 630 62 -1900 330/10 RMK AO2 $
94908KDBQ DBQ20090228230010302/28/09 23:00:31  5-MIN KDBQ 010500Z AUTO 32010KT 10SM CLR M08/M14 A3040 630 62 -2000 320/10 RMK AO2 $
94908KDBQ DBQ20090228230510302/28/09 23:05:31  5-MIN KDBQ 010505Z AUTO 33008KT 10SM CLR M08/M14 A3040 640 62 -1900 330/08 RMK AO2 $
94908KDBQ DBQ20090228231010302/28/09 23:10:31  5-MIN KDBQ 010510Z AUTO 33009KT 10SM CLR M08/M14 A3040 640 62 -1900 330/09 RMK AO2 $
94908KDBQ DBQ20090228231510302/28/09 23:15:31  5-MIN KDBQ 010515Z AUTO 33008KT 10SM CLR M08/M14 A3040 640 59 -1900 330/08 RMK AO2 $
94908KDBQ DBQ20090228232010302/28/09 23:20:31  5-MIN KDBQ 010520Z AUTO 33012KT 10SM CLR M08/M14 A3040 640 59 -1900 330/12 RMK AO2 $
94908KDBQ DBQ20090228232510302/28/09 23:25:31  5-MIN KDBQ 010525Z AUTO 33010KT 10SM CLR M08/M14 A3040 640 62 -2000 330/10 RMK AO2 $
94908KDBQ DBQ20090228233010302/28/09 23:30:31  5-MIN KDBQ 010530Z AUTO 33010KT 10SM CLR M08/M14 A3040 640 62 -2000 330/10 RMK AO2 $
94908KDBQ DBQ20090228233510302/28/09 23:35:31  5-MIN KDBQ 010535Z AUTO 33011KT 10SM CLR M08/M14 A3040 640 62 -2000 330/11 RMK AO2 $
94908KDBQ DBQ20090228234010302/28/09 23:40:31  5-MIN KDBQ 010540Z AUTO 32010KT 10SM CLR M08/M14 A3040 640 62 -2000 320/10 RMK AO2 $
94908KDBQ DBQ20090228234510302/28/09 23:45:31  5-MIN KDBQ 010545Z AUTO 33010KT 10SM CLR M08/M14 A3040 630 62 -2000 330/10 RMK AO2 $
94908KDBQ DBQ20090228235014802/28/09 23:50:31  5-MIN KDBQ 010550Z AUTO 33010KT 10SM CLR M08/M14 A3040 630 62 -2000 330/10 RMK AO2 SLP316 T10831144 11039 21083 410221106 53006 $
94908KDBQ DBQ20090228235510302/28/09 23:55:31  5-MIN KDBQ 010555Z AUTO 34009KT 10SM CLR M08/M14 A3040 630 62 -2000 340/09 RMK AO2 $
