94908KDBQ DBQ20071101000009911/01/07 00:00:49  5-MIN KDBQ 010600Z AUTO 29005KT 10SM CLR 02/M04 A3022 800 64 -500 290/05 RMK AO2
94908KDBQ DBQ20071101000509911/01/07 00:05:31  5-MIN KDBQ 010605Z AUTO 28004KT 10SM CLR 02/M04 A3022 800 64 -500 280/04 RMK AO2
94908KDBQ DBQ20071101001009911/01/07 00:10:31  5-MIN KDBQ 010610Z AUTO 27005KT 10SM CLR 02/M04 A3022 800 64 -500 270/05 RMK AO2
94908KDBQ DBQ20071101001509911/01/07 00:15:32  5-MIN KDBQ 010615Z AUTO 27003KT 10SM CLR 02/M04 A3022 800 64 -500 270/03 RMK AO2
94908KDBQ DBQ20071101002009911/01/07 00:20:31  5-MIN KDBQ 010620Z AUTO 00000KT 10SM CLR 02/M04 A3022 800 64 -500 000/00 RMK AO2
94908KDBQ DBQ20071101002509911/01/07 00:25:31  5-MIN KDBQ 010625Z AUTO 28003KT 10SM CLR 02/M04 A3022 800 64 -500 270/03 RMK AO2
94908KDBQ DBQ20071101003009911/01/07 00:30:31  5-MIN KDBQ 010630Z AUTO 28003KT 10SM CLR 02/M04 A3022 800 64 -500 270/03 RMK AO2
94908KDBQ DBQ20071101003509911/01/07 00:35:31  5-MIN KDBQ 010635Z AUTO 00000KT 10SM CLR 02/M04 A3022 800 66 -500 000/00 RMK AO2
94908KDBQ DBQ20071101004009911/01/07 00:40:31  5-MIN KDBQ 010640Z AUTO 26003KT 10SM CLR 02/M04 A3022 800 64 -500 260/03 RMK AO2
94908KDBQ DBQ20071101004509911/01/07 00:45:31  5-MIN KDBQ 010645Z AUTO 26004KT 10SM CLR 02/M04 A3022 800 66 -500 260/04 RMK AO2
94908KDBQ DBQ20071101005011611/01/07 00:50:31  5-MIN KDBQ 010650Z AUTO 25004KT 10SM CLR 01/M04 A3022 800 69 -600 250/04 RMK AO2 SLP241 T00111039
94908KDBQ DBQ20071101005509911/01/07 00:55:31  5-MIN KDBQ 010655Z AUTO 27003KT 10SM CLR 02/M04 A3022 800 66 -500 260/03 RMK AO2
94908KDBQ DBQ20071101010009911/01/07 01:00:31  5-MIN KDBQ 010700Z AUTO 00000KT 10SM CLR 01/M04 A3022 800 69 -600 000/00 RMK AO2
94908KDBQ DBQ20071101010509911/01/07 01:05:31  5-MIN KDBQ 010705Z AUTO 25003KT 10SM CLR 01/M04 A3022 800 69 -600 250/03 RMK AO2
94908KDBQ DBQ20071101011009911/01/07 01:10:31  5-MIN KDBQ 010710Z AUTO 26003KT 10SM CLR 01/M04 A3022 800 69 -600 260/03 RMK AO2
94908KDBQ DBQ20071101011509911/01/07 01:15:31  5-MIN KDBQ 010715Z AUTO 28003KT 10SM CLR 01/M04 A3022 800 66 -600 280/03 RMK AO2
94908KDBQ DBQ20071101012009911/01/07 01:20:31  5-MIN KDBQ 010720Z AUTO 28004KT 10SM CLR 01/M04 A3022 800 69 -600 280/04 RMK AO2
94908KDBQ DBQ20071101012509911/01/07 01:25:31  5-MIN KDBQ 010725Z AUTO 29004KT 10SM CLR 01/M04 A3022 800 66 -600 280/04 RMK AO2
94908KDBQ DBQ20071101013009911/01/07 01:30:31  5-MIN KDBQ 010730Z AUTO 29003KT 10SM CLR 01/M04 A3022 800 66 -600 290/03 RMK AO2
94908KDBQ DBQ20071101013509911/01/07 01:35:31  5-MIN KDBQ 010735Z AUTO 28005KT 10SM CLR 01/M04 A3023 800 66 -600 280/05 RMK AO2
94908KDBQ DBQ20071101014009911/01/07 01:40:31  5-MIN KDBQ 010740Z AUTO 28004KT 10SM CLR 01/M04 A3023 800 69 -700 280/04 RMK AO2
94908KDBQ DBQ20071101014509911/01/07 01:45:31  5-MIN KDBQ 010745Z AUTO 28004KT 10SM CLR 01/M04 A3023 800 69 -700 280/04 RMK AO2
94908KDBQ DBQ20071101015011611/01/07 01:50:31  5-MIN KDBQ 010750Z AUTO 28004KT 10SM CLR 01/M04 A3023 800 69 -700 280/04 RMK AO2 SLP243 T00061044
94908KDBQ DBQ20071101015509911/01/07 01:55:31  5-MIN KDBQ 010755Z AUTO 28004KT 10SM CLR 01/M04 A3023 800 69 -700 280/04 RMK AO2
94908KDBQ DBQ20071101020009911/01/07 02:00:31  5-MIN KDBQ 010800Z AUTO 28005KT 10SM CLR 01/M04 A3023 790 66 -600 280/05 RMK AO2
94908KDBQ DBQ20071101020509911/01/07 02:05:31  5-MIN KDBQ 010805Z AUTO 29004KT 10SM CLR 01/M04 A3023 790 66 -600 290/04 RMK AO2
94908KDBQ DBQ20071101021009911/01/07 02:10:31  5-MIN KDBQ 010810Z AUTO 28005KT 10SM CLR 01/M04 A3023 790 69 -700 280/05 RMK AO2
94908KDBQ DBQ20071101021509911/01/07 02:15:31  5-MIN KDBQ 010815Z AUTO 29005KT 10SM CLR 01/M04 A3023 790 69 -700 290/05 RMK AO2
94908KDBQ DBQ20071101022009911/01/07 02:20:31  5-MIN KDBQ 010820Z AUTO 28004KT 10SM CLR 01/M04 A3023 790 69 -700 280/04 RMK AO2
94908KDBQ DBQ20071101022509911/01/07 02:25:31  5-MIN KDBQ 010825Z AUTO 27003KT 10SM CLR 01/M04 A3023 790 69 -700 270/03 RMK AO2
94908KDBQ DBQ20071101023009911/01/07 02:30:31  5-MIN KDBQ 010830Z AUTO 25003KT 10SM CLR 01/M04 A3023 790 66 -600 250/03 RMK AO2
94908KDBQ DBQ20071101023509911/01/07 02:35:31  5-MIN KDBQ 010835Z AUTO 26004KT 10SM CLR 01/M04 A3023 790 69 -700 260/04 RMK AO2
94908KDBQ DBQ20071101024009911/01/07 02:40:31  5-MIN KDBQ 010840Z AUTO 26004KT 10SM CLR 01/M04 A3023 790 69 -700 260/04 RMK AO2
94908KDBQ DBQ20071101024509911/01/07 02:45:31  5-MIN KDBQ 010845Z AUTO 26004KT 10SM CLR 01/M04 A3023 790 69 -700 260/04 RMK AO2
94908KDBQ DBQ20071101025012211/01/07 02:50:31  5-MIN KDBQ 010850Z AUTO 27005KT 10SM CLR 00/M04 A3023 790 72 -800 270/05 RMK AO2 SLP245 T00001044 51010
94908KDBQ DBQ20071101025509911/01/07 02:55:31  5-MIN KDBQ 010855Z AUTO 27005KT 10SM CLR 01/M04 A3023 790 69 -700 270/05 RMK AO2
94908KDBQ DBQ20071101030009911/01/07 03:00:31  5-MIN KDBQ 010900Z AUTO 27004KT 10SM CLR 01/M04 A3023 790 69 -700 270/04 RMK AO2
94908KDBQ DBQ20071101030509911/01/07 03:05:31  5-MIN KDBQ 010905Z AUTO 27003KT 10SM CLR 00/M04 A3023 790 72 -800 270/03 RMK AO2
94908KDBQ DBQ20071101031009911/01/07 03:10:31  5-MIN KDBQ 010910Z AUTO 25004KT 10SM CLR 00/M04 A3023 790 72 -800 250/04 RMK AO2
94908KDBQ DBQ20071101031509911/01/07 03:15:31  5-MIN KDBQ 010915Z AUTO 25004KT 10SM CLR 00/M04 A3023 790 72 -800 250/04 RMK AO2
94908KDBQ DBQ20071101032009911/01/07 03:20:31  5-MIN KDBQ 010920Z AUTO 26005KT 10SM CLR 00/M04 A3024 790 72 -800 260/05 RMK AO2
94908KDBQ DBQ20071101032509911/01/07 03:25:31  5-MIN KDBQ 010925Z AUTO 27005KT 10SM CLR 01/M04 A3024 780 69 -700 270/05 RMK AO2
94908KDBQ DBQ20071101033009911/01/07 03:30:31  5-MIN KDBQ 010930Z AUTO 28006KT 10SM CLR 00/M04 A3024 780 72 -800 270/06 RMK AO2
94908KDBQ DBQ20071101033509911/01/07 03:35:31  5-MIN KDBQ 010935Z AUTO 27005KT 10SM CLR 01/M04 A3024 780 69 -700 270/05 RMK AO2
94908KDBQ DBQ20071101034009911/01/07 03:40:31  5-MIN KDBQ 010940Z AUTO 26005KT 10SM CLR 01/M04 A3024 780 69 -700 260/05 RMK AO2
94908KDBQ DBQ20071101034509911/01/07 03:45:31  5-MIN KDBQ 010945Z AUTO 27005KT 10SM CLR 01/M04 A3024 780 66 -600 270/05 RMK AO2
94908KDBQ DBQ20071101035011611/01/07 03:50:31  5-MIN KDBQ 010950Z AUTO 28005KT 10SM CLR 01/M04 A3024 780 69 -700 270/05 RMK AO2 SLP249 T00061044
94908KDBQ DBQ20071101035509911/01/07 03:55:31  5-MIN KDBQ 010955Z AUTO 28006KT 10SM CLR 01/M04 A3024 780 69 -700 270/06 RMK AO2
94908KDBQ DBQ20071101040009911/01/07 04:00:31  5-MIN KDBQ 011000Z AUTO 27006KT 10SM CLR 01/M04 A3025 780 69 -700 270/06 RMK AO2
94908KDBQ DBQ20071101040509911/01/07 04:05:31  5-MIN KDBQ 011005Z AUTO 27006KT 10SM CLR 01/M04 A3025 780 69 -700 270/06 RMK AO2
94908KDBQ DBQ20071101041009911/01/07 04:10:31  5-MIN KDBQ 011010Z AUTO 28005KT 10SM CLR 00/M04 A3025 780 72 -800 280/05 RMK AO2
94908KDBQ DBQ20071101041509911/01/07 04:15:31  5-MIN KDBQ 011015Z AUTO 29006KT 10SM CLR 00/M04 A3025 780 72 -800 290/06 RMK AO2
94908KDBQ DBQ20071101042009911/01/07 04:20:31  5-MIN KDBQ 011020Z AUTO 29009KT 10SM CLR 01/M04 A3025 780 69 -700 290/09 RMK AO2
94908KDBQ DBQ20071101042509911/01/07 04:25:31  5-MIN KDBQ 011025Z AUTO 29009KT 10SM CLR 01/M04 A3025 780 69 -700 280/09 RMK AO2
94908KDBQ DBQ20071101043009911/01/07 04:30:31  5-MIN KDBQ 011030Z AUTO 29006KT 10SM CLR 01/M04 A3025 770 69 -700 290/06 RMK AO2
94908KDBQ DBQ20071101043509911/01/07 04:35:31  5-MIN KDBQ 011035Z AUTO 29006KT 10SM CLR 01/M04 A3025 770 69 -700 290/06 RMK AO2
94908KDBQ DBQ20071101044009911/01/07 04:40:31  5-MIN KDBQ 011040Z AUTO 29006KT 10SM CLR 01/M04 A3025 770 69 -700 290/06 RMK AO2
94908KDBQ DBQ20071101044509911/01/07 04:45:31  5-MIN KDBQ 011045Z AUTO 29007KT 10SM CLR 01/M04 A3025 770 69 -700 290/07 RMK AO2
94908KDBQ DBQ20071101045011611/01/07 04:50:31  5-MIN KDBQ 011050Z AUTO 29007KT 10SM CLR 01/M04 A3025 770 69 -700 290/07 RMK AO2 SLP253 T00061044
94908KDBQ DBQ20071101045509411/01/07 04:55:31  5-MIN KDBQ 011055Z 29006KT 10SM CLR 01/M04 A3025 770 69 -700 290/06 RMK AO2
94908KDBQ DBQ20071101050009411/01/07 05:00:31  5-MIN KDBQ 011100Z 29006KT 10SM CLR 01/M04 A3026 770 69 -700 290/06 RMK AO2
94908KDBQ DBQ20071101205509911/01/07 20:55:31  5-MIN KDBQ 020255Z AUTO 17007KT 10SM CLR 04/M04 A3020 820 52 -200 170/07 RMK AO2
94908KDBQ DBQ20071101210009911/01/07 21:00:31  5-MIN KDBQ 020300Z AUTO 17006KT 10SM CLR 04/M04 A3020 820 52 -200 170/06 RMK AO2
94908KDBQ DBQ20071101210509911/01/07 21:05:31  5-MIN KDBQ 020305Z AUTO 16006KT 10SM CLR 04/M04 A3020 820 54 -200 160/06 RMK AO2
94908KDBQ DBQ20071101211009911/01/07 21:10:31  5-MIN KDBQ 020310Z AUTO 17006KT 10SM CLR 04/M04 A3020 820 54 -200 170/06 RMK AO2
94908KDBQ DBQ20071101211509911/01/07 21:15:31  5-MIN KDBQ 020315Z AUTO 18005KT 10SM CLR 03/M04 A3020 820 57 -300 180/05 RMK AO2
94908KDBQ DBQ20071101212009911/01/07 21:20:31  5-MIN KDBQ 020320Z AUTO 18004KT 10SM CLR 02/M04 A3020 820 66 -500 180/04 RMK AO2
94908KDBQ DBQ20071101212509911/01/07 21:25:31  5-MIN KDBQ 020325Z AUTO 19003KT 10SM CLR 02/M04 A3019 830 66 -500 190/03 RMK AO2
94908KDBQ DBQ20071101213009911/01/07 21:30:31  5-MIN KDBQ 020330Z AUTO 18004KT 10SM CLR 02/M04 A3019 830 66 -500 180/04 RMK AO2
94908KDBQ DBQ20071101213509911/01/07 21:35:31  5-MIN KDBQ 020335Z AUTO 18005KT 10SM CLR 02/M04 A3019 830 66 -500 180/05 RMK AO2
94908KDBQ DBQ20071101214009911/01/07 21:40:31  5-MIN KDBQ 020340Z AUTO 18005KT 10SM CLR 02/M04 A3019 830 61 -400 170/05 RMK AO2
94908KDBQ DBQ20071101214509911/01/07 21:45:31  5-MIN KDBQ 020345Z AUTO 18005KT 10SM CLR 03/M04 A3019 830 59 -400 180/05 RMK AO2
94908KDBQ DBQ20071101215011611/01/07 21:50:31  5-MIN KDBQ 020350Z AUTO 20003KT 10SM CLR 02/M04 A3019 830 66 -500 200/03 RMK AO2 SLP233 T00171039
94908KDBQ DBQ20071101215509911/01/07 21:55:31  5-MIN KDBQ 020355Z AUTO 20003KT 10SM CLR 02/M04 A3019 830 61 -400 200/03 RMK AO2
94908KDBQ DBQ20071101220009911/01/07 22:00:31  5-MIN KDBQ 020400Z AUTO 20003KT 10SM CLR 02/M04 A3019 830 61 -400 200/03 RMK AO2
94908KDBQ DBQ20071101220509911/01/07 22:05:31  5-MIN KDBQ 020405Z AUTO 19003KT 10SM CLR 02/M04 A3019 830 61 -400 190/03 RMK AO2
94908KDBQ DBQ20071101221009911/01/07 22:10:31  5-MIN KDBQ 020410Z AUTO 18005KT 10SM CLR 02/M04 A3019 830 64 -500 180/05 RMK AO2
94908KDBQ DBQ20071101221509911/01/07 22:15:31  5-MIN KDBQ 020415Z AUTO 17006KT 10SM CLR 03/M04 A3019 830 57 -300 170/06 RMK AO2
94908KDBQ DBQ20071101222009911/01/07 22:20:31  5-MIN KDBQ 020420Z AUTO 17007KT 10SM CLR 03/M04 A3019 830 57 -300 170/07 RMK AO2
94908KDBQ DBQ20071101222509911/01/07 22:25:31  5-MIN KDBQ 020425Z AUTO 17005KT 10SM CLR 03/M04 A3019 830 57 -300 170/05 RMK AO2
94908KDBQ DBQ20071101223009911/01/07 22:30:31  5-MIN KDBQ 020430Z AUTO 19004KT 10SM CLR 02/M04 A3019 830 61 -400 190/04 RMK AO2
94908KDBQ DBQ20071101223509911/01/07 22:35:31  5-MIN KDBQ 020435Z AUTO 18005KT 10SM CLR 01/M04 A3018 830 66 -600 180/05 RMK AO2
94908KDBQ DBQ20071101224009911/01/07 22:40:31  5-MIN KDBQ 020440Z AUTO 18006KT 10SM CLR 02/M04 A3018 840 61 -400 180/06 RMK AO2
94908KDBQ DBQ20071101224509911/01/07 22:45:31  5-MIN KDBQ 020445Z AUTO 17007KT 10SM CLR 03/M04 A3018 840 57 -300 170/07 RMK AO2
94908KDBQ DBQ20071101225011611/01/07 22:50:31  5-MIN KDBQ 020450Z AUTO 17007KT 10SM CLR 03/M05 A3018 840 54 -300 170/07 RMK AO2 SLP228 T00331050
94908KDBQ DBQ20071101225509911/01/07 22:55:31  5-MIN KDBQ 020455Z AUTO 18006KT 10SM CLR 03/M05 A3018 840 54 -300 170/06 RMK AO2
94908KDBQ DBQ20071101230009911/01/07 23:00:31  5-MIN KDBQ 020500Z AUTO 20004KT 10SM CLR 02/M04 A3018 840 61 -400 190/04 RMK AO2
94908KDBQ DBQ20071101230509911/01/07 23:05:31  5-MIN KDBQ 020505Z AUTO 23004KT 10SM CLR 02/M04 A3018 840 61 -400 220/04 RMK AO2
94908KDBQ DBQ20071101231009911/01/07 23:10:31  5-MIN KDBQ 020510Z AUTO 22006KT 10SM CLR 02/M04 A3018 840 61 -400 220/06 RMK AO2
94908KDBQ DBQ20071101231509911/01/07 23:15:31  5-MIN KDBQ 020515Z AUTO 20006KT 10SM CLR 03/M05 A3018 830 56 -400 200/06 RMK AO2
94908KDBQ DBQ20071101232009911/01/07 23:20:31  5-MIN KDBQ 020520Z AUTO 21007KT 10SM CLR 03/M05 A3019 830 56 -400 210/07 RMK AO2
94908KDBQ DBQ20071101232509911/01/07 23:25:31  5-MIN KDBQ 020525Z AUTO 20007KT 10SM CLR 03/M05 A3019 830 56 -400 200/07 RMK AO2
94908KDBQ DBQ20071101233009911/01/07 23:30:31  5-MIN KDBQ 020530Z AUTO 20007KT 10SM CLR 03/M05 A3019 830 56 -400 200/07 RMK AO2
94908KDBQ DBQ20071101233509911/01/07 23:35:31  5-MIN KDBQ 020535Z AUTO 20006KT 10SM CLR 02/M04 A3019 830 61 -400 200/06 RMK AO2
94908KDBQ DBQ20071101234009911/01/07 23:40:31  5-MIN KDBQ 020540Z AUTO 21006KT 10SM CLR 02/M04 A3019 830 64 -500 210/06 RMK AO2
94908KDBQ DBQ20071101234509911/01/07 23:45:31  5-MIN KDBQ 020545Z AUTO 20006KT 10SM CLR 02/M05 A3018 830 61 -500 200/06 RMK AO2
94908KDBQ DBQ20071101235014411/01/07 23:50:31  5-MIN KDBQ 020550Z AUTO 20006KT 10SM CLR 02/M05 A3018 840 59 -400 200/06 RMK AO2 SLP229 T00221050 10061 20011 401171011 58001
94908KDBQ DBQ20071101235509911/01/07 23:55:31  5-MIN KDBQ 020555Z AUTO 21006KT 10SM CLR 02/M05 A3018 840 61 -500 200/06 RMK AO2
94908KDBQ DBQ20071102000009911/02/07 00:00:38  5-MIN KDBQ 020600Z AUTO 20006KT 10SM CLR 02/M05 A3018 840 61 -500 200/06 RMK AO2
94908KDBQ DBQ20071102000509911/02/07 00:05:31  5-MIN KDBQ 020605Z AUTO 20006KT 10SM CLR 02/M05 A3018 840 59 -400 200/06 RMK AO2
94908KDBQ DBQ20071102001009911/02/07 00:10:31  5-MIN KDBQ 020610Z AUTO 20006KT 10SM CLR 02/M05 A3019 830 61 -500 200/06 RMK AO2
94908KDBQ DBQ20071102001509911/02/07 00:15:31  5-MIN KDBQ 020615Z AUTO 20006KT 10SM CLR 01/M05 A3019 830 64 -600 200/06 RMK AO2
94908KDBQ DBQ20071102002009911/02/07 00:20:31  5-MIN KDBQ 020620Z AUTO 20005KT 10SM CLR 01/M05 A3019 830 64 -600 200/05 RMK AO2
94908KDBQ DBQ20071102002509911/02/07 00:25:31  5-MIN KDBQ 020625Z AUTO 20004KT 10SM CLR 01/M05 A3018 840 66 -600 200/04 RMK AO2
94908KDBQ DBQ20071102003009911/02/07 00:30:31  5-MIN KDBQ 020630Z AUTO 20005KT 10SM CLR 01/M05 A3018 840 66 -600 200/05 RMK AO2
94908KDBQ DBQ20071102003509911/02/07 00:35:31  5-MIN KDBQ 020635Z AUTO 20006KT 10SM CLR 01/M05 A3018 840 64 -600 200/06 RMK AO2
94908KDBQ DBQ20071102004009911/02/07 00:40:31  5-MIN KDBQ 020640Z AUTO 20006KT 10SM CLR 01/M05 A3018 840 64 -600 200/06 RMK AO2
94908KDBQ DBQ20071102004509911/02/07 00:45:31  5-MIN KDBQ 020645Z AUTO 20005KT 10SM CLR 01/M05 A3018 840 64 -600 200/05 RMK AO2
94908KDBQ DBQ20071102005011611/02/07 00:50:31  5-MIN KDBQ 020650Z AUTO 20006KT 10SM CLR 01/M05 A3018 840 66 -600 200/06 RMK AO2 SLP228 T00061050
94908KDBQ DBQ20071102005509911/02/07 00:55:31  5-MIN KDBQ 020655Z AUTO 20006KT 10SM CLR 01/M05 A3018 840 66 -600 200/06 RMK AO2
94908KDBQ DBQ20071102010009911/02/07 01:00:31  5-MIN KDBQ 020700Z AUTO 20007KT 10SM CLR 01/M05 A3018 840 66 -600 200/07 RMK AO2
94908KDBQ DBQ20071102010509911/02/07 01:05:31  5-MIN KDBQ 020705Z AUTO 21007KT 10SM CLR 01/M05 A3018 840 66 -600 210/07 RMK AO2
94908KDBQ DBQ20071102011009911/02/07 01:10:31  5-MIN KDBQ 020710Z AUTO 20006KT 10SM CLR 01/M05 A3018 840 66 -600 200/06 RMK AO2
94908KDBQ DBQ20071102011509911/02/07 01:15:31  5-MIN KDBQ 020715Z AUTO 20007KT 10SM CLR 00/M05 A3018 840 69 -700 200/07 RMK AO2
94908KDBQ DBQ20071102012009911/02/07 01:20:31  5-MIN KDBQ 020720Z AUTO 21007KT 10SM CLR 00/M05 A3018 840 69 -700 210/07 RMK AO2
94908KDBQ DBQ20071102012509911/02/07 01:25:31  5-MIN KDBQ 020725Z AUTO 21008KT 10SM CLR 00/M05 A3018 840 69 -700 200/08 RMK AO2
94908KDBQ DBQ20071102013009911/02/07 01:30:31  5-MIN KDBQ 020730Z AUTO 20008KT 10SM CLR 00/M05 A3018 840 69 -700 200/08 RMK AO2
94908KDBQ DBQ20071102013509911/02/07 01:35:31  5-MIN KDBQ 020735Z AUTO 21009KT 10SM CLR 00/M05 A3018 840 69 -700 210/09 RMK AO2
94908KDBQ DBQ20071102014009911/02/07 01:40:31  5-MIN KDBQ 020740Z AUTO 21009KT 10SM CLR 01/M05 A3018 840 66 -600 210/09 RMK AO2
94908KDBQ DBQ20071102014509911/02/07 01:45:31  5-MIN KDBQ 020745Z AUTO 21009KT 10SM CLR 01/M05 A3018 840 66 -600 210/09 RMK AO2
94908KDBQ DBQ20071102015011611/02/07 01:50:31  5-MIN KDBQ 020750Z AUTO 21008KT 10SM CLR 00/M05 A3018 840 69 -700 210/08 RMK AO2 SLP227 T00001050
94908KDBQ DBQ20071102015509911/02/07 01:55:31  5-MIN KDBQ 020755Z AUTO 20008KT 10SM CLR 00/M05 A3018 840 69 -700 200/08 RMK AO2
94908KDBQ DBQ20071102020009911/02/07 02:00:31  5-MIN KDBQ 020800Z AUTO 21009KT 10SM CLR 00/M05 A3018 840 69 -700 200/09 RMK AO2
94908KDBQ DBQ20071102020509911/02/07 02:05:31  5-MIN KDBQ 020805Z AUTO 21008KT 10SM CLR 00/M05 A3018 840 69 -700 210/08 RMK AO2
94908KDBQ DBQ20071102021009911/02/07 02:10:31  5-MIN KDBQ 020810Z AUTO 21008KT 10SM CLR 00/M05 A3018 840 69 -700 210/08 RMK AO2
94908KDBQ DBQ20071102021509911/02/07 02:15:31  5-MIN KDBQ 020815Z AUTO 21008KT 10SM CLR 00/M05 A3018 840 69 -700 200/08 RMK AO2
94908KDBQ DBQ20071102022009911/02/07 02:20:31  5-MIN KDBQ 020820Z AUTO 21008KT 10SM CLR 00/M05 A3018 840 69 -700 210/08 RMK AO2
94908KDBQ DBQ20071102022510011/02/07 02:25:31  5-MIN KDBQ 020825Z AUTO 20007KT 10SM CLR M01/M05 A3018 840 72 -800 200/07 RMK AO2
94908KDBQ DBQ20071102023009911/02/07 02:30:31  5-MIN KDBQ 020830Z AUTO 20008KT 10SM CLR 00/M05 A3018 840 69 -700 200/08 RMK AO2
94908KDBQ DBQ20071102023509911/02/07 02:35:31  5-MIN KDBQ 020835Z AUTO 20008KT 10SM CLR 00/M05 A3018 840 69 -700 200/08 RMK AO2
94908KDBQ DBQ20071102024010011/02/07 02:40:31  5-MIN KDBQ 020840Z AUTO 20008KT 10SM CLR M01/M05 A3018 840 72 -800 200/08 RMK AO2
94908KDBQ DBQ20071102024510011/02/07 02:45:31  5-MIN KDBQ 020845Z AUTO 20009KT 10SM CLR M01/M05 A3017 840 72 -800 200/09 RMK AO2
94908KDBQ DBQ20071102025012211/02/07 02:50:31  5-MIN KDBQ 020850Z AUTO 20009KT 10SM CLR 00/M05 A3017 850 69 -700 200/09 RMK AO2 SLP225 T00001050 55004
94908KDBQ DBQ20071102025509911/02/07 02:55:31  5-MIN KDBQ 020855Z AUTO 20009KT 10SM CLR 00/M05 A3017 850 69 -700 200/09 RMK AO2
94908KDBQ DBQ20071102030009911/02/07 03:00:31  5-MIN KDBQ 020900Z AUTO 21009KT 10SM CLR 00/M05 A3017 850 69 -700 200/09 RMK AO2
94908KDBQ DBQ20071102030509911/02/07 03:05:31  5-MIN KDBQ 020905Z AUTO 21008KT 10SM CLR 01/M05 A3017 840 66 -600 210/08 RMK AO2
94908KDBQ DBQ20071102031009911/02/07 03:10:31  5-MIN KDBQ 020910Z AUTO 21009KT 10SM CLR 01/M05 A3017 840 66 -600 210/09 RMK AO2
94908KDBQ DBQ20071102031509911/02/07 03:15:31  5-MIN KDBQ 020915Z AUTO 21008KT 10SM CLR 00/M05 A3017 850 69 -700 210/08 RMK AO2
94908KDBQ DBQ20071102032010011/02/07 03:20:31  5-MIN KDBQ 020920Z AUTO 21008KT 10SM CLR M01/M05 A3017 850 72 -800 210/08 RMK AO2
94908KDBQ DBQ20071102032509911/02/07 03:25:31  5-MIN KDBQ 020925Z AUTO 20008KT 10SM CLR 00/M05 A3017 850 69 -700 200/08 RMK AO2
94908KDBQ DBQ20071102033010011/02/07 03:30:31  5-MIN KDBQ 020930Z AUTO 20008KT 10SM CLR M01/M05 A3017 850 72 -800 200/08 RMK AO2
94908KDBQ DBQ20071102033510011/02/07 03:35:31  5-MIN KDBQ 020935Z AUTO 20008KT 10SM CLR M01/M05 A3017 850 72 -800 200/08 RMK AO2
94908KDBQ DBQ20071102034010011/02/07 03:40:31  5-MIN KDBQ 020940Z AUTO 20008KT 10SM CLR M01/M04 A3017 850 75 -800 190/08 RMK AO2
94908KDBQ DBQ20071102034509911/02/07 03:45:31  5-MIN KDBQ 020945Z AUTO 20007KT 10SM CLR 00/M04 A3017 850 72 -700 190/07 RMK AO2
94908KDBQ DBQ20071102035011611/02/07 03:50:31  5-MIN KDBQ 020950Z AUTO 20006KT 10SM CLR 01/M04 A3017 850 69 -600 200/06 RMK AO2 SLP224 T00061044
94908KDBQ DBQ20071102035509911/02/07 03:55:31  5-MIN KDBQ 020955Z AUTO 20006KT 10SM CLR 01/M04 A3017 850 69 -600 200/06 RMK AO2
94908KDBQ DBQ20071102040009911/02/07 04:00:31  5-MIN KDBQ 021000Z AUTO 20006KT 10SM CLR 01/M04 A3017 840 69 -600 200/06 RMK AO2
94908KDBQ DBQ20071102040509911/02/07 04:05:31  5-MIN KDBQ 021005Z AUTO 21006KT 10SM CLR 00/M04 A3018 840 72 -700 210/06 RMK AO2
94908KDBQ DBQ20071102041009911/02/07 04:10:31  5-MIN KDBQ 021010Z AUTO 19006KT 10SM CLR 00/M04 A3018 840 72 -700 190/06 RMK AO2
94908KDBQ DBQ20071102041509911/02/07 04:15:31  5-MIN KDBQ 021015Z AUTO 19006KT 10SM CLR 01/M04 A3018 840 69 -600 190/06 RMK AO2
94908KDBQ DBQ20071102042009911/02/07 04:20:31  5-MIN KDBQ 021020Z AUTO 19006KT 10SM CLR 01/M05 A3018 840 66 -600 190/06 RMK AO2
94908KDBQ DBQ20071102042509911/02/07 04:25:31  5-MIN KDBQ 021025Z AUTO 19005KT 10SM CLR 00/M05 A3019 830 69 -700 190/05 RMK AO2
94908KDBQ DBQ20071102043009911/02/07 04:30:31  5-MIN KDBQ 021030Z AUTO 20005KT 10SM CLR 00/M05 A3019 830 69 -700 190/05 RMK AO2
94908KDBQ DBQ20071102043509911/02/07 04:35:31  5-MIN KDBQ 021035Z AUTO 19004KT 10SM CLR 00/M05 A3019 830 69 -700 190/04 RMK AO2
94908KDBQ DBQ20071102044009411/02/07 04:40:31  5-MIN KDBQ 021040Z 18006KT 10SM CLR 00/M05 A3019 830 69 -700 180/06 RMK AO2
94908KDBQ DBQ20071102044509411/02/07 04:45:31  5-MIN KDBQ 021045Z 18005KT 10SM CLR 00/M05 A3019 830 69 -700 180/05 RMK AO2
94908KDBQ DBQ20071102045011211/02/07 04:50:31  5-MIN KDBQ 021050Z 18005KT 10SM CLR M01/M05 A3019 830 72 -800 180/05 RMK AO2 SLP232 T10061050
94908KDBQ DBQ20071102045509511/02/07 04:55:31  5-MIN KDBQ 021055Z 18005KT 10SM CLR M01/M05 A3019 830 72 -800 180/05 RMK AO2
94908KDBQ DBQ20071102050009511/02/07 05:00:31  5-MIN KDBQ 021100Z 18006KT 10SM CLR M01/M05 A3019 830 72 -800 180/06 RMK AO2
94908KDBQ DBQ20071102050509511/02/07 05:05:31  5-MIN KDBQ 021105Z 18006KT 10SM CLR M01/M05 A3018 830 72 -800 180/06 RMK AO2
94908KDBQ DBQ20071102051009511/02/07 05:10:31  5-MIN KDBQ 021110Z 18007KT 10SM CLR M01/M05 A3018 840 72 -800 170/07 RMK AO2
94908KDBQ DBQ20071102051509511/02/07 05:15:31  5-MIN KDBQ 021115Z 18006KT 10SM CLR M01/M05 A3018 840 72 -800 180/06 RMK AO2
94908KDBQ DBQ20071102052009511/02/07 05:20:31  5-MIN KDBQ 021120Z 18006KT 10SM CLR M01/M05 A3018 840 75 -800 180/06 RMK AO2
94908KDBQ DBQ20071102052509511/02/07 05:25:31  5-MIN KDBQ 021125Z 18007KT 10SM CLR M01/M05 A3018 840 72 -800 180/07 RMK AO2
94908KDBQ DBQ20071102053009511/02/07 05:30:31  5-MIN KDBQ 021130Z 19006KT 10SM CLR M01/M05 A3018 840 75 -800 190/06 RMK AO2
94908KDBQ DBQ20071102053509511/02/07 05:35:31  5-MIN KDBQ 021135Z 20007KT 10SM CLR M01/M05 A3018 840 75 -800 200/07 RMK AO2
94908KDBQ DBQ20071102054009511/02/07 05:40:31  5-MIN KDBQ 021140Z 21007KT 10SM CLR M01/M05 A3018 840 72 -800 210/07 RMK AO2
94908KDBQ DBQ20071102054509411/02/07 05:45:31  5-MIN KDBQ 021145Z 20007KT 10SM CLR 00/M05 A3018 840 69 -700 200/07 RMK AO2
94908KDBQ DBQ20071102055012911/02/07 05:50:31  5-MIN KDBQ 021150Z 19008KT 10SM CLR 00/M04 A3018 840 72 -700 190/08 RMK AO2 SLP229 T00001044 10022 21011 58004
94908KDBQ DBQ20071102055509411/02/07 05:55:31  5-MIN KDBQ 021155Z 20008KT 10SM CLR 00/M04 A3017 850 72 -700 190/08 RMK AO2
94908KDBQ DBQ20071102060009511/02/07 06:00:31  5-MIN KDBQ 021200Z 19006KT 10SM CLR M01/M04 A3017 850 75 -800 190/06 RMK AO2
94908KDBQ DBQ20071102060509511/02/07 06:05:31  5-MIN KDBQ 021205Z 20007KT 10SM CLR M01/M04 A3017 850 75 -800 200/07 RMK AO2
94908KDBQ DBQ20071102061009511/02/07 06:10:31  5-MIN KDBQ 021210Z 20006KT 10SM CLR M01/M04 A3017 850 75 -800 200/06 RMK AO2
94908KDBQ DBQ20071102061509511/02/07 06:15:31  5-MIN KDBQ 021215Z 21007KT 10SM CLR M01/M04 A3017 840 75 -800 210/07 RMK AO2
94908KDBQ DBQ20071102062009411/02/07 06:20:31  5-MIN KDBQ 021220Z 22006KT 10SM CLR 00/M04 A3018 840 72 -700 220/06 RMK AO2
94908KDBQ DBQ20071102062509511/02/07 06:25:31  5-MIN KDBQ 021225Z 22006KT 10SM CLR M01/M04 A3018 840 75 -800 220/06 RMK AO2
94908KDBQ DBQ20071102063009411/02/07 06:30:31  5-MIN KDBQ 021230Z 22007KT 10SM CLR 00/M04 A3018 840 72 -700 220/07 RMK AO2
94908KDBQ DBQ20071102063509411/02/07 06:35:31  5-MIN KDBQ 021235Z 21008KT 10SM CLR 00/M04 A3018 830 72 -700 210/08 RMK AO2
94908KDBQ DBQ20071102064009411/02/07 06:40:31  5-MIN KDBQ 021240Z 21009KT 10SM CLR 01/M04 A3019 830 69 -600 210/09 RMK AO2
94908KDBQ DBQ20071102064509411/02/07 06:45:31  5-MIN KDBQ 021245Z 20008KT 10SM CLR 01/M04 A3019 830 69 -600 200/08 RMK AO2
94908KDBQ DBQ20071102065011111/02/07 06:50:31  5-MIN KDBQ 021250Z 20007KT 10SM CLR 00/M04 A3019 830 72 -700 200/07 RMK AO2 SLP234 T00001044
94908KDBQ DBQ20071102065509411/02/07 06:55:31  5-MIN KDBQ 021255Z 19007KT 10SM CLR 00/M04 A3019 830 72 -700 190/07 RMK AO2
94908KDBQ DBQ20071102070009411/02/07 07:00:31  5-MIN KDBQ 021300Z 19007KT 10SM CLR 00/M04 A3019 830 72 -700 190/07 RMK AO2
94908KDBQ DBQ20071102070509411/02/07 07:05:31  5-MIN KDBQ 021305Z 19007KT 10SM CLR 00/M04 A3019 830 72 -700 190/07 RMK AO2
94908KDBQ DBQ20071102071009411/02/07 07:10:31  5-MIN KDBQ 021310Z 20007KT 10SM CLR 00/M04 A3018 840 72 -700 200/07 RMK AO2
94908KDBQ DBQ20071102071509711/02/07 07:15:31  5-MIN KDBQ 021315Z 20007KT 10SM SCT110 01/M04 A3018 840 72 -600 200/07 RMK AO2
94908KDBQ DBQ20071102072009711/02/07 07:20:31  5-MIN KDBQ 021320Z 20008KT 10SM SCT110 01/M04 A3018 830 69 -600 200/08 RMK AO2
94908KDBQ DBQ20071102072509711/02/07 07:25:31  5-MIN KDBQ 021325Z 21008KT 10SM SCT110 02/M03 A3019 830 69 -500 210/08 RMK AO2
94908KDBQ DBQ20071102073009711/02/07 07:30:31  5-MIN KDBQ 021330Z 22007KT 10SM SCT110 01/M03 A3019 830 72 -600 220/07 RMK AO2
94908KDBQ DBQ20071102073509711/02/07 07:35:31  5-MIN KDBQ 021335Z 22008KT 10SM SCT110 01/M04 A3020 820 69 -600 220/08 RMK AO2
94908KDBQ DBQ20071102074009711/02/07 07:40:31  5-MIN KDBQ 021340Z 21008KT 10SM SCT110 02/M04 A3020 820 66 -500 210/08 RMK AO2
94908KDBQ DBQ20071102074509711/02/07 07:45:31  5-MIN KDBQ 021345Z 20008KT 10SM FEW110 02/M03 A3020 820 69 -500 200/08 RMK AO2
94908KDBQ DBQ20071102075011411/02/07 07:50:31  5-MIN KDBQ 021350Z 19008KT 10SM FEW110 02/M03 A3019 830 67 -400 190/08 RMK AO2 SLP234 T00221033
94908KDBQ DBQ20071102075509411/02/07 07:55:31  5-MIN KDBQ 021355Z 19009KT 10SM CLR 03/M03 A3019 830 64 -400 190/09 RMK AO2
94908KDBQ DBQ20071102080009711/02/07 08:00:31  5-MIN KDBQ 021400Z 20010KT 10SM FEW100 03/M03 A3020 820 64 -400 200/10 RMK AO2
94908KDBQ DBQ20071102080509711/02/07 08:05:31  5-MIN KDBQ 021405Z 20010KT 10SM SCT100 03/M03 A3021 820 64 -300 200/10 RMK AO2
94908KDBQ DBQ20071102081009711/02/07 08:10:31  5-MIN KDBQ 021410Z 21011KT 10SM BKN100 04/M03 A3021 820 62 -200 210/11 RMK AO2
94908KDBQ DBQ20071102081509711/02/07 08:15:31  5-MIN KDBQ 021415Z 20010KT 10SM SCT100 03/M03 A3020 820 64 -300 200/10 RMK AO2
94908KDBQ DBQ20071102082009711/02/07 08:20:31  5-MIN KDBQ 021420Z 20008KT 10SM SCT100 03/M03 A3021 820 64 -300 200/08 RMK AO2
94908KDBQ DBQ20071102082509711/02/07 08:25:31  5-MIN KDBQ 021425Z 20010KT 10SM SCT100 04/M03 A3020 820 62 -200 200/10 RMK AO2
94908KDBQ DBQ20071102083009711/02/07 08:30:31  5-MIN KDBQ 021430Z 20011KT 10SM SCT100 04/M03 A3020 820 59 -200 200/11 RMK AO2
94908KDBQ DBQ20071102083509711/02/07 08:35:31  5-MIN KDBQ 021435Z 21013KT 10SM BKN100 04/M03 A3020 820 59 -200 210/13 RMK AO2
94908KDBQ DBQ20071102084009711/02/07 08:40:31  5-MIN KDBQ 021440Z 21014KT 10SM BKN100 04/M03 A3020 820 59 -200 210/14 RMK AO2
94908KDBQ DBQ20071102084509711/02/07 08:45:31  5-MIN KDBQ 021445Z 20012KT 10SM BKN100 05/M03 A3020 820 57 -100 200/12 RMK AO2
94908KDBQ DBQ20071102085012011/02/07 08:50:31  5-MIN KDBQ 021450Z 21012KT 10SM BKN100 05/M03 A3021 810 57 -100 210/12 RMK AO2 SLP238 T00501028 50001
94908KDBQ DBQ20071102085509711/02/07 08:55:31  5-MIN KDBQ 021455Z 20014KT 10SM OVC100 05/M03 A3020 820 57 -100 200/14 RMK AO2
94908KDBQ DBQ20071102090009711/02/07 09:00:31  5-MIN KDBQ 021500Z 20014KT 10SM OVC100 05/M03 A3020 820 57 -100 200/14 RMK AO2
94908KDBQ DBQ20071102090509711/02/07 09:05:31  5-MIN KDBQ 021505Z 20013KT 10SM OVC110 05/M03 A3019 830 57 -100 200/13 RMK AO2
94908KDBQ DBQ20071102091009711/02/07 09:10:31  5-MIN KDBQ 021510Z 19013KT 10SM OVC110 05/M03 A3019 830 57 -100 190/13 RMK AO2
94908KDBQ DBQ20071102091509411/02/07 09:15:31  5-MIN KDBQ 021515Z 19012KT 10SM OVC110 06/M03 A3019 830 55 0 190/12 RMK AO2
94908KDBQ DBQ20071102092009411/02/07 09:20:31  5-MIN KDBQ 021520Z 20013KT 10SM OVC110 06/M03 A3019 830 55 0 200/13 RMK AO2
94908KDBQ DBQ20071102092509411/02/07 09:25:31  5-MIN KDBQ 021525Z 20014KT 10SM OVC100 06/M03 A3019 830 55 0 200/14 RMK AO2
94908KDBQ DBQ20071102093010111/02/07 09:30:31  5-MIN KDBQ 021530Z 20011KT 10SM SCT090 OVC110 06/M03 A3019 830 55 0 200/11 RMK AO2
94908KDBQ DBQ20071102093510111/02/07 09:35:31  5-MIN KDBQ 021535Z 20011KT 10SM BKN090 OVC110 06/M02 A3020 820 57 0 200/11 RMK AO2
94908KDBQ DBQ20071102094010111/02/07 09:40:31  5-MIN KDBQ 021540Z 20012KT 10SM BKN090 OVC110 06/M02 A3019 830 57 0 190/12 RMK AO2
94908KDBQ DBQ20071102094510111/02/07 09:45:31  5-MIN KDBQ 021545Z 20013KT 10SM BKN090 BKN110 06/M02 A3019 830 55 0 200/13 RMK AO2
94908KDBQ DBQ20071102095011811/02/07 09:50:31  5-MIN KDBQ 021550Z 21013KT 10SM BKN090 BKN110 06/M02 A3020 820 55 0 200/13 RMK AO2 SLP235 T00611022
94908KDBQ DBQ20071102095510111/02/07 09:55:31  5-MIN KDBQ 021555Z 21011KT 10SM BKN090 OVC110 06/M02 A3020 820 55 0 210/11 RMK AO2
94908KDBQ DBQ20071102100010311/02/07 10:00:31  5-MIN KDBQ 021600Z 22013KT 10SM BKN090 OVC110 07/M02 A3020 820 55 100 220/13 RMK AO2
94908KDBQ DBQ20071102100510311/02/07 10:05:31  5-MIN KDBQ 021605Z 21013KT 10SM BKN090 OVC110 07/M02 A3020 820 53 100 210/13 RMK AO2
94908KDBQ DBQ20071102101010311/02/07 10:10:31  5-MIN KDBQ 021610Z 21012KT 10SM SCT090 BKN110 07/M02 A3020 820 55 100 210/12 RMK AO2
94908KDBQ DBQ20071102101510311/02/07 10:15:31  5-MIN KDBQ 021615Z 22012KT 10SM BKN090 OVC110 07/M02 A3020 820 53 100 220/12 RMK AO2
94908KDBQ DBQ20071102102010311/02/07 10:20:31  5-MIN KDBQ 021620Z 21013KT 10SM BKN090 BKN110 07/M02 A3020 820 51 100 210/13 RMK AO2
94908KDBQ DBQ20071102102510311/02/07 10:25:31  5-MIN KDBQ 021625Z 21012KT 10SM BKN090 OVC110 07/M02 A3020 820 55 100 210/12 RMK AO2
94908KDBQ DBQ20071102103010311/02/07 10:30:31  5-MIN KDBQ 021630Z 20012KT 10SM BKN095 OVC110 07/M02 A3020 830 53 100 200/12 RMK AO2
94908KDBQ DBQ20071102103509611/02/07 10:35:31  5-MIN KDBQ 021635Z 20014KT 10SM BKN100 07/M02 A3019 830 53 100 200/14 RMK AO2
94908KDBQ DBQ20071102104010311/02/07 10:40:31  5-MIN KDBQ 021640Z 20014KT 10SM OVC100 07/M02 A3018 840 53 100 200/14 RMK AO2 PRESFR
94908KDBQ DBQ20071102104510311/02/07 10:45:31  5-MIN KDBQ 021645Z 19014KT 10SM OVC100 08/M02 A3017 850 51 200 190/14 RMK AO2 PRESFR
94908KDBQ DBQ20071102105011311/02/07 10:50:31  5-MIN KDBQ 021650Z 20016KT 10SM OVC100 08/M02 A3018 840 51 200 200/16 RMK AO2 SLP226 T00781017
94908KDBQ DBQ20071102105509611/02/07 10:55:31  5-MIN KDBQ 021655Z 19015KT 10SM OVC100 08/M02 A3018 840 49 200 190/15 RMK AO2
94908KDBQ DBQ20071102110009611/02/07 11:00:31  5-MIN KDBQ 021700Z 20015KT 10SM OVC100 08/M02 A3017 840 49 300 200/15 RMK AO2
94908KDBQ DBQ20071102110509611/02/07 11:05:31  5-MIN KDBQ 021705Z 20015KT 10SM OVC095 08/M02 A3017 850 49 300 200/15 RMK AO2
94908KDBQ DBQ20071102111009611/02/07 11:10:31  5-MIN KDBQ 021710Z 20013KT 10SM OVC095 09/M02 A3017 840 47 400 200/13 RMK AO2
94908KDBQ DBQ20071102111509611/02/07 11:15:31  5-MIN KDBQ 021715Z 20015KT 10SM OVC095 09/M01 A3017 850 47 400 200/15 RMK AO2
94908KDBQ DBQ20071102112009611/02/07 11:20:31  5-MIN KDBQ 021720Z 21015KT 10SM OVC095 09/M02 A3017 850 45 400 200/15 RMK AO2
94908KDBQ DBQ20071102112509611/02/07 11:25:31  5-MIN KDBQ 021725Z 20015KT 10SM OVC095 09/M02 A3017 850 45 400 200/15 RMK AO2
94908KDBQ DBQ20071102113009611/02/07 11:30:31  5-MIN KDBQ 021730Z 20014KT 10SM OVC090 09/M02 A3017 850 45 400 200/14 RMK AO2
94908KDBQ DBQ20071102113509611/02/07 11:35:31  5-MIN KDBQ 021735Z 20015KT 10SM OVC090 09/M02 A3016 850 45 400 200/15 RMK AO2
94908KDBQ DBQ20071102114009611/02/07 11:40:31  5-MIN KDBQ 021740Z 21014KT 10SM BKN090 09/M02 A3016 860 45 400 200/14 RMK AO2
94908KDBQ DBQ20071102114509611/02/07 11:45:31  5-MIN KDBQ 021745Z 21015KT 10SM BKN090 10/M02 A3015 860 44 500 210/15 RMK AO2
94908KDBQ DBQ20071102115013111/02/07 11:50:31  5-MIN KDBQ 021750Z 21016KT 10SM SCT090 10/M02 A3015 860 44 500 210/16 RMK AO2 SLP219 T01001017 10100 21006 53011
94908KDBQ DBQ20071102115509611/02/07 11:55:31  5-MIN KDBQ 021755Z 21014KT 10SM FEW090 10/M02 A3015 860 44 500 210/14 RMK AO2
94908KDBQ DBQ20071102120009611/02/07 12:00:31  5-MIN KDBQ 021800Z 21015KT 10SM FEW090 11/M02 A3015 860 42 600 210/15 RMK AO2
94908KDBQ DBQ20071102120509311/02/07 12:05:31  5-MIN KDBQ 021805Z 21014KT 10SM CLR 11/M02 A3015 870 42 600 210/14 RMK AO2
94908KDBQ DBQ20071102121009311/02/07 12:10:31  5-MIN KDBQ 021810Z 20015KT 10SM CLR 11/M02 A3015 870 41 600 200/15 RMK AO2
94908KDBQ DBQ20071102121509311/02/07 12:15:31  5-MIN KDBQ 021815Z 21013KT 10SM CLR 11/M01 A3015 870 44 600 200/13 RMK AO2
94908KDBQ DBQ20071102122009311/02/07 12:20:31  5-MIN KDBQ 021820Z 20014KT 10SM CLR 11/M01 A3015 870 42 600 200/14 RMK AO2
94908KDBQ DBQ20071102122509311/02/07 12:25:31  5-MIN KDBQ 021825Z 21013KT 10SM CLR 12/M01 A3015 870 41 700 210/13 RMK AO2
94908KDBQ DBQ20071102123009311/02/07 12:30:31  5-MIN KDBQ 021830Z 21012KT 10SM CLR 12/M01 A3015 870 41 700 210/12 RMK AO2
94908KDBQ DBQ20071102123509311/02/07 12:35:31  5-MIN KDBQ 021835Z 20012KT 10SM CLR 11/M01 A3015 870 42 600 200/12 RMK AO2
94908KDBQ DBQ20071102124009311/02/07 12:40:31  5-MIN KDBQ 021840Z 21010KT 10SM CLR 11/M01 A3015 870 42 600 210/10 RMK AO2
94908KDBQ DBQ20071102124509911/02/07 12:45:31  5-MIN KDBQ 021845Z 23011G18KT 10SM CLR 12/M01 A3015 870 41 700 220/11G18 RMK AO2
94908KDBQ DBQ20071102125011611/02/07 12:50:31  5-MIN KDBQ 021850Z 22011G18KT 10SM CLR 12/M01 A3015 870 39 800 220/11G18 RMK AO2 SLP216 T01221011
94908KDBQ DBQ20071102125509311/02/07 12:55:31  5-MIN KDBQ 021855Z 21010KT 10SM CLR 12/M01 A3015 870 39 800 210/10 RMK AO2
94908KDBQ DBQ20071102130009911/02/07 13:00:31  5-MIN KDBQ 021900Z 21011G17KT 10SM CLR 12/M01 A3014 870 39 800 210/11G17 RMK AO2
94908KDBQ DBQ20071102130509911/02/07 13:05:31  5-MIN KDBQ 021905Z 22013G17KT 10SM CLR 12/M02 A3014 870 38 800 220/13G17 RMK AO2
94908KDBQ DBQ20071102131009311/02/07 13:10:31  5-MIN KDBQ 021910Z 23010KT 10SM CLR 12/M01 A3014 870 39 800 230/10 RMK AO2
94908KDBQ DBQ20071102131509311/02/07 13:15:31  5-MIN KDBQ 021915Z 21010KT 10SM CLR 13/M01 A3014 880 38 900 210/10 RMK AO2
94908KDBQ DBQ20071102132009311/02/07 13:20:31  5-MIN KDBQ 021920Z 22013KT 10SM CLR 13/M01 A3013 880 38 900 220/13 RMK AO2
94908KDBQ DBQ20071102132509311/02/07 13:25:31  5-MIN KDBQ 021925Z 22013KT 10SM CLR 12/M02 A3013 890 38 800 220/13 RMK AO2
94908KDBQ DBQ20071102133009311/02/07 13:30:31  5-MIN KDBQ 021930Z 21011KT 10SM CLR 13/M01 A3013 890 38 900 200/11 RMK AO2
94908KDBQ DBQ20071102133509311/02/07 13:35:31  5-MIN KDBQ 021935Z 21014KT 10SM CLR 13/M01 A3013 890 38 900 210/14 RMK AO2
94908KDBQ DBQ20071102134009311/02/07 13:40:31  5-MIN KDBQ 021940Z 21012KT 10SM CLR 13/M01 A3013 890 38 900 210/12 RMK AO2
94908KDBQ DBQ20071102134509311/02/07 13:45:31  5-MIN KDBQ 021945Z 22012KT 10SM CLR 13/M01 A3012 890 38 900 220/12 RMK AO2
94908KDBQ DBQ20071102135011011/02/07 13:50:31  5-MIN KDBQ 021950Z 20011KT 10SM CLR 13/M01 A3012 890 38 900 200/11 RMK AO2 SLP208 T01281011
94908KDBQ DBQ20071102135509311/02/07 13:55:31  5-MIN KDBQ 021955Z 22012KT 10SM CLR 13/M01 A3013 890 38 900 220/12 RMK AO2
94908KDBQ DBQ20071102140009311/02/07 14:00:31  5-MIN KDBQ 022000Z 23012KT 10SM CLR 13/M01 A3013 890 38 900 230/12 RMK AO2
94908KDBQ DBQ20071102140509311/02/07 14:05:31  5-MIN KDBQ 022005Z 23014KT 10SM CLR 13/M01 A3013 890 38 900 230/14 RMK AO2
94908KDBQ DBQ20071102141009311/02/07 14:10:31  5-MIN KDBQ 022010Z 23013KT 10SM CLR 13/M01 A3013 890 38 900 230/13 RMK AO2
94908KDBQ DBQ20071102141509911/02/07 14:15:31  5-MIN KDBQ 022015Z 24011G19KT 10SM CLR 13/M01 A3013 890 36 900 240/11G19 RMK AO2
94908KDBQ DBQ20071102142009311/02/07 14:20:31  5-MIN KDBQ 022020Z 22011KT 10SM CLR 13/M01 A3013 890 36 900 220/11 RMK AO2
94908KDBQ DBQ20071102142509311/02/07 14:25:31  5-MIN KDBQ 022025Z 25014KT 10SM CLR 13/M01 A3013 880 36 900 250/14 RMK AO2
94908KDBQ DBQ20071102143009311/02/07 14:30:31  5-MIN KDBQ 022030Z 24012KT 10SM CLR 13/M02 A3013 880 35 900 240/12 RMK AO2
94908KDBQ DBQ20071102143509311/02/07 14:35:31  5-MIN KDBQ 022035Z 25010KT 10SM CLR 13/M01 A3013 880 36 900 250/10 RMK AO2
94908KDBQ DBQ20071102144009311/02/07 14:40:31  5-MIN KDBQ 022040Z 25013KT 10SM CLR 13/M02 A3013 880 35 900 250/13 RMK AO2
94908KDBQ DBQ20071102144509311/02/07 14:45:31  5-MIN KDBQ 022045Z 25012KT 10SM CLR 13/M02 A3013 880 35 900 250/12 RMK AO2
94908KDBQ DBQ20071102145011611/02/07 14:50:31  5-MIN KDBQ 022050Z 23014KT 10SM CLR 13/M01 A3013 880 36 900 230/14 RMK AO2 SLP211 T01331011 58017
94908KDBQ DBQ20071102145509311/02/07 14:55:31  5-MIN KDBQ 022055Z 24013KT 10SM CLR 13/M01 A3013 890 38 900 240/13 RMK AO2
94908KDBQ DBQ20071102150009311/02/07 15:00:31  5-MIN KDBQ 022100Z 24012KT 10SM CLR 13/M01 A3013 890 36 900 240/12 RMK AO2
94908KDBQ DBQ20071102150509311/02/07 15:05:31  5-MIN KDBQ 022105Z 25011KT 10SM CLR 13/M01 A3013 890 38 900 250/11 RMK AO2
94908KDBQ DBQ20071102151009311/02/07 15:10:31  5-MIN KDBQ 022110Z 24009KT 10SM CLR 13/M01 A3013 890 38 900 240/09 RMK AO2
94908KDBQ DBQ20071102151509211/02/07 15:15:31  5-MIN KDBQ 022115Z 24009KT 10SM CLR 13/00 A3013 880 41 900 240/09 RMK AO2
94908KDBQ DBQ20071102152009311/02/07 15:20:31  5-MIN KDBQ 022120Z 25010KT 10SM CLR 13/M01 A3013 880 38 900 250/10 RMK AO2
94908KDBQ DBQ20071102152509311/02/07 15:25:31  5-MIN KDBQ 022125Z 26009KT 10SM CLR 13/M01 A3014 880 39 900 260/09 RMK AO2
94908KDBQ DBQ20071102153009311/02/07 15:30:31  5-MIN KDBQ 022130Z 25010KT 10SM CLR 13/M01 A3014 880 38 900 250/10 RMK AO2
94908KDBQ DBQ20071102153509311/02/07 15:35:31  5-MIN KDBQ 022135Z 25009KT 10SM CLR 13/M01 A3013 880 38 900 250/09 RMK AO2
94908KDBQ DBQ20071102154009311/02/07 15:40:31  5-MIN KDBQ 022140Z 26010KT 10SM CLR 13/M01 A3013 880 38 900 260/10 RMK AO2
94908KDBQ DBQ20071102154509311/02/07 15:45:31  5-MIN KDBQ 022145Z 26008KT 10SM CLR 12/M01 A3014 880 39 800 250/08 RMK AO2
94908KDBQ DBQ20071102155011011/02/07 15:50:31  5-MIN KDBQ 022150Z 25009KT 10SM CLR 12/M01 A3014 880 41 800 250/09 RMK AO2 SLP212 T01221006
94908KDBQ DBQ20071102155509311/02/07 15:55:31  5-MIN KDBQ 022155Z 25008KT 10SM CLR 12/M01 A3014 880 41 800 250/08 RMK AO2
94908KDBQ DBQ20071102160009311/02/07 16:00:31  5-MIN KDBQ 022200Z 25008KT 10SM CLR 12/M01 A3014 880 41 800 250/08 RMK AO2
94908KDBQ DBQ20071102160509311/02/07 16:05:31  5-MIN KDBQ 022205Z 25008KT 10SM CLR 12/M01 A3014 880 41 800 250/08 RMK AO2
94908KDBQ DBQ20071102161009311/02/07 16:10:31  5-MIN KDBQ 022210Z 25007KT 10SM CLR 12/M01 A3014 880 42 700 250/07 RMK AO2
94908KDBQ DBQ20071102161509211/02/07 16:15:31  5-MIN KDBQ 022215Z 24006KT 10SM CLR 11/00 A3014 880 46 700 240/06 RMK AO2
94908KDBQ DBQ20071102162009211/02/07 16:20:31  5-MIN KDBQ 022220Z 25006KT 10SM CLR 11/00 A3014 880 46 700 250/06 RMK AO2
94908KDBQ DBQ20071102162509211/02/07 16:25:31  5-MIN KDBQ 022225Z 25005KT 10SM CLR 11/00 A3014 880 48 600 250/05 RMK AO2
94908KDBQ DBQ20071102163009211/02/07 16:30:31  5-MIN KDBQ 022230Z 25006KT 10SM CLR 10/00 A3014 880 49 500 250/06 RMK AO2
94908KDBQ DBQ20071102163509211/02/07 16:35:31  5-MIN KDBQ 022235Z 25005KT 10SM CLR 10/00 A3014 880 49 500 240/05 RMK AO2
94908KDBQ DBQ20071102164009311/02/07 16:40:31  5-MIN KDBQ 022240Z 24004KT 10SM CLR 10/M01 A3014 870 47 500 240/04 RMK AO2
94908KDBQ DBQ20071102164509311/02/07 16:45:31  5-MIN KDBQ 022245Z 25003KT 10SM CLR 10/M01 A3014 870 47 500 250/03 RMK AO2
94908KDBQ DBQ20071102165011011/02/07 16:50:31  5-MIN KDBQ 022250Z 24003KT 10SM CLR 10/M01 A3014 870 47 500 240/03 RMK AO2 SLP215 T01001006
94908KDBQ DBQ20071102165509311/02/07 16:55:31  5-MIN KDBQ 022255Z 24003KT 10SM CLR 10/M01 A3014 870 47 500 240/03 RMK AO2
94908KDBQ DBQ20071102170009311/02/07 17:00:31  5-MIN KDBQ 022300Z 25003KT 10SM CLR 10/M01 A3014 870 47 500 250/03 RMK AO2
94908KDBQ DBQ20071102170509311/02/07 17:05:31  5-MIN KDBQ 022305Z 25004KT 10SM CLR 10/M01 A3014 870 47 500 250/04 RMK AO2
94908KDBQ DBQ20071102171009311/02/07 17:10:31  5-MIN KDBQ 022310Z 26004KT 10SM CLR 09/M01 A3015 870 51 400 260/04 RMK AO2
94908KDBQ DBQ20071102171509311/02/07 17:15:31  5-MIN KDBQ 022315Z 27005KT 10SM CLR 09/M01 A3015 870 51 400 270/05 RMK AO2
94908KDBQ DBQ20071102172009311/02/07 17:20:31  5-MIN KDBQ 022320Z 27003KT 10SM CLR 07/M01 A3015 870 57 200 270/03 RMK AO2
94908KDBQ DBQ20071102172509311/02/07 17:25:31  5-MIN KDBQ 022325Z 27003KT 10SM CLR 07/M01 A3015 870 57 200 270/03 RMK AO2
94908KDBQ DBQ20071102173009311/02/07 17:30:31  5-MIN KDBQ 022330Z 00000KT 10SM CLR 07/M01 A3015 870 57 200 000/00 RMK AO2
94908KDBQ DBQ20071102173509311/02/07 17:35:31  5-MIN KDBQ 022335Z 00000KT 10SM CLR 07/M01 A3015 860 57 100 000/00 RMK AO2
94908KDBQ DBQ20071102174009311/02/07 17:40:31  5-MIN KDBQ 022340Z 00000KT 10SM CLR 07/M01 A3016 860 55 200 000/00 RMK AO2
94908KDBQ DBQ20071102174509311/02/07 17:45:31  5-MIN KDBQ 022345Z 00000KT 10SM CLR 07/M01 A3016 860 57 100 000/00 RMK AO2
94908KDBQ DBQ20071102175012811/02/07 17:50:31  5-MIN KDBQ 022350Z 00000KT 10SM CLR 07/M01 A3016 860 57 100 000/00 RMK AO2 SLP222 T00671011 10133 20067 55008
94908KDBQ DBQ20071102175509311/02/07 17:55:31  5-MIN KDBQ 022355Z 00000KT 10SM CLR 07/M01 A3016 860 57 100 000/00 RMK AO2
94908KDBQ DBQ20071102180009111/02/07 18:00:31  5-MIN KDBQ 030000Z 00000KT 10SM CLR 06/M01 A3016 860 60 0 000/00 RMK AO2
94908KDBQ DBQ20071102180509111/02/07 18:05:31  5-MIN KDBQ 030005Z 00000KT 10SM CLR 06/M01 A3016 850 60 0 000/00 RMK AO2
94908KDBQ DBQ20071102181009311/02/07 18:10:31  5-MIN KDBQ 030010Z 00000KT 10SM CLR 07/M01 A3017 850 57 100 000/00 RMK AO2
94908KDBQ DBQ20071102181509111/02/07 18:15:31  5-MIN KDBQ 030015Z 00000KT 10SM CLR 06/M01 A3017 850 60 0 000/00 RMK AO2
94908KDBQ DBQ20071102182009111/02/07 18:20:31  5-MIN KDBQ 030020Z 00000KT 10SM CLR 06/M01 A3017 850 60 0 000/00 RMK AO2
94908KDBQ DBQ20071102182509111/02/07 18:25:31  5-MIN KDBQ 030025Z 00000KT 10SM CLR 06/M01 A3017 850 62 0 000/00 RMK AO2
94908KDBQ DBQ20071102183009111/02/07 18:30:31  5-MIN KDBQ 030030Z 00000KT 10SM CLR 06/M01 A3017 850 60 0 000/00 RMK AO2
94908KDBQ DBQ20071102183509111/02/07 18:35:31  5-MIN KDBQ 030035Z 29003KT 10SM CLR 06/M01 A3017 850 60 0 290/03 RMK AO2
94908KDBQ DBQ20071102184009111/02/07 18:40:31  5-MIN KDBQ 030040Z 29004KT 10SM CLR 06/M01 A3017 850 60 0 290/04 RMK AO2
94908KDBQ DBQ20071102184509111/02/07 18:45:31  5-MIN KDBQ 030045Z 30005KT 10SM CLR 06/M01 A3017 840 60 0 300/05 RMK AO2
94908KDBQ DBQ20071102185011511/02/07 18:50:31  5-MIN KDBQ 030050Z AUTO 30006KT 10SM CLR 07/M01 A3018 840 57 100 300/06 RMK AO2 SLP228 T00671011
94908KDBQ DBQ20071102185509811/02/07 18:55:31  5-MIN KDBQ 030055Z AUTO 29006KT 10SM CLR 07/M01 A3018 840 57 100 290/06 RMK AO2
94908KDBQ DBQ20071102190009811/02/07 19:00:31  5-MIN KDBQ 030100Z AUTO 30006KT 10SM CLR 07/M01 A3018 840 55 100 300/06 RMK AO2
94908KDBQ DBQ20071102190509811/02/07 19:05:31  5-MIN KDBQ 030105Z AUTO 30006KT 10SM CLR 07/M01 A3018 840 57 100 300/06 RMK AO2
94908KDBQ DBQ20071102191009811/02/07 19:10:31  5-MIN KDBQ 030110Z AUTO 30006KT 10SM CLR 07/M01 A3018 840 57 100 300/06 RMK AO2
94908KDBQ DBQ20071102191509811/02/07 19:15:31  5-MIN KDBQ 030115Z AUTO 30006KT 10SM CLR 07/M01 A3018 840 57 100 290/06 RMK AO2
94908KDBQ DBQ20071102192009811/02/07 19:20:31  5-MIN KDBQ 030120Z AUTO 30005KT 10SM CLR 07/M01 A3018 840 57 100 300/05 RMK AO2
94908KDBQ DBQ20071102192509811/02/07 19:25:31  5-MIN KDBQ 030125Z AUTO 30005KT 10SM CLR 07/M01 A3018 840 57 100 300/05 RMK AO2
94908KDBQ DBQ20071102193009811/02/07 19:30:31  5-MIN KDBQ 030130Z AUTO 31005KT 10SM CLR 07/M01 A3018 840 57 100 300/05 RMK AO2
94908KDBQ DBQ20071102193509811/02/07 19:35:31  5-MIN KDBQ 030135Z AUTO 30006KT 10SM CLR 07/M01 A3018 840 57 100 300/06 RMK AO2
94908KDBQ DBQ20071102194009811/02/07 19:40:31  5-MIN KDBQ 030140Z AUTO 31006KT 10SM CLR 07/M01 A3018 840 57 100 300/06 RMK AO2
94908KDBQ DBQ20071102194509811/02/07 19:45:31  5-MIN KDBQ 030145Z AUTO 31007KT 10SM CLR 07/M01 A3018 840 57 100 310/07 RMK AO2
94908KDBQ DBQ20071102195011311/02/07 19:50:31  5-MIN KDBQ 030150Z AUTO 31007KT 10SM CLR 06/M01 A3018 840 60 0 310/07 RMK AO2 SLP230 T00611011
94908KDBQ DBQ20071102195509811/02/07 19:55:31  5-MIN KDBQ 030155Z AUTO 31008KT 10SM CLR 07/M01 A3018 840 57 100 310/08 RMK AO2
94908KDBQ DBQ20071102200009811/02/07 20:00:31  5-MIN KDBQ 030200Z AUTO 32011KT 10SM CLR 08/M01 A3019 830 55 200 320/11 RMK AO2
94908KDBQ DBQ20071102200509811/02/07 20:05:31  5-MIN KDBQ 030205Z AUTO 32012KT 10SM CLR 08/M01 A3019 830 53 300 320/12 RMK AO2
94908KDBQ DBQ20071102201009811/02/07 20:10:31  5-MIN KDBQ 030210Z AUTO 32012KT 10SM CLR 08/M01 A3019 830 55 200 320/12 RMK AO2
94908KDBQ DBQ20071102201509811/02/07 20:15:31  5-MIN KDBQ 030215Z AUTO 32010KT 10SM CLR 08/M01 A3019 830 55 200 320/10 RMK AO2
94908KDBQ DBQ20071102202009811/02/07 20:20:31  5-MIN KDBQ 030220Z AUTO 32010KT 10SM CLR 08/M01 A3019 830 55 200 320/10 RMK AO2
94908KDBQ DBQ20071102202509811/02/07 20:25:31  5-MIN KDBQ 030225Z AUTO 33011KT 10SM CLR 08/M01 A3019 830 53 200 330/11 RMK AO2
94908KDBQ DBQ20071102203009811/02/07 20:30:31  5-MIN KDBQ 030230Z AUTO 34010KT 10SM CLR 08/M01 A3019 830 53 200 340/10 RMK AO2
94908KDBQ DBQ20071102203509811/02/07 20:35:31  5-MIN KDBQ 030235Z AUTO 34011KT 10SM CLR 08/M01 A3020 830 53 200 340/11 RMK AO2
94908KDBQ DBQ20071102204009811/02/07 20:40:31  5-MIN KDBQ 030240Z AUTO 33012KT 10SM CLR 07/M01 A3020 820 55 100 330/12 RMK AO2
94908KDBQ DBQ20071102204509811/02/07 20:45:31  5-MIN KDBQ 030245Z AUTO 33011KT 10SM CLR 08/M01 A3020 820 53 200 330/11 RMK AO2
94908KDBQ DBQ20071102205012111/02/07 20:50:31  5-MIN KDBQ 030250Z AUTO 33012KT 10SM CLR 07/M01 A3020 820 55 100 330/12 RMK AO2 SLP234 T00721011 53009
94908KDBQ DBQ20071102205509811/02/07 20:55:31  5-MIN KDBQ 030255Z AUTO 33011KT 10SM CLR 07/M02 A3020 820 53 100 330/11 RMK AO2
94908KDBQ DBQ20071102210009811/02/07 21:00:31  5-MIN KDBQ 030300Z AUTO 33012KT 10SM CLR 08/M02 A3020 820 51 200 330/12 RMK AO2
94908KDBQ DBQ20071102210509811/02/07 21:05:31  5-MIN KDBQ 030305Z AUTO 33011KT 10SM CLR 07/M02 A3020 820 53 100 330/11 RMK AO2
94908KDBQ DBQ20071102211009811/02/07 21:10:31  5-MIN KDBQ 030310Z AUTO 33011KT 10SM CLR 07/M02 A3021 820 53 100 330/11 RMK AO2
94908KDBQ DBQ20071102211509811/02/07 21:15:31  5-MIN KDBQ 030315Z AUTO 34010KT 10SM CLR 07/M02 A3021 810 53 100 330/10 RMK AO2
94908KDBQ DBQ20071102212009811/02/07 21:20:31  5-MIN KDBQ 030320Z AUTO 33010KT 10SM CLR 07/M02 A3021 810 53 100 330/10 RMK AO2
94908KDBQ DBQ20071102212509611/02/07 21:25:31  5-MIN KDBQ 030325Z AUTO 33009KT 10SM CLR 07/M02 A3021 810 55 0 330/09 RMK AO2
94908KDBQ DBQ20071102213009611/02/07 21:30:31  5-MIN KDBQ 030330Z AUTO 32009KT 10SM CLR 07/M02 A3021 810 55 0 320/09 RMK AO2
94908KDBQ DBQ20071102213509611/02/07 21:35:31  5-MIN KDBQ 030335Z AUTO 33009KT 10SM CLR 07/M02 A3022 810 55 0 330/09 RMK AO2
94908KDBQ DBQ20071102214009611/02/07 21:40:31  5-MIN KDBQ 030340Z AUTO 33009KT 10SM CLR 07/M02 A3022 810 55 0 330/09 RMK AO2
94908KDBQ DBQ20071102214509611/02/07 21:45:31  5-MIN KDBQ 030345Z AUTO 32008KT 10SM CLR 07/M02 A3022 810 55 0 320/08 RMK AO2
94908KDBQ DBQ20071102215011311/02/07 21:50:31  5-MIN KDBQ 030350Z AUTO 33010KT 10SM CLR 06/M02 A3022 800 55 0 330/10 RMK AO2 SLP240 T00611022
94908KDBQ DBQ20071102215509611/02/07 21:55:31  5-MIN KDBQ 030355Z AUTO 33008KT 10SM CLR 06/M02 A3022 800 55 0 330/08 RMK AO2
94908KDBQ DBQ20071102220009611/02/07 22:00:31  5-MIN KDBQ 030400Z AUTO 33008KT 10SM CLR 06/M02 A3022 800 55 0 320/08 RMK AO2
94908KDBQ DBQ20071102220509911/02/07 22:05:31  5-MIN KDBQ 030405Z AUTO 33009KT 10SM CLR 06/M02 A3022 800 57 -100 320/09 RMK AO2
94908KDBQ DBQ20071102221009911/02/07 22:10:31  5-MIN KDBQ 030410Z AUTO 32008KT 10SM CLR 06/M02 A3022 800 57 -100 320/08 RMK AO2
94908KDBQ DBQ20071102221509911/02/07 22:15:31  5-MIN KDBQ 030415Z AUTO 32008KT 10SM CLR 06/M02 A3022 810 57 -100 320/08 RMK AO2
94908KDBQ DBQ20071102222009911/02/07 22:20:31  5-MIN KDBQ 030420Z AUTO 33009KT 10SM CLR 06/M02 A3022 810 57 -100 320/09 RMK AO2
94908KDBQ DBQ20071102222509911/02/07 22:25:31  5-MIN KDBQ 030425Z AUTO 32008KT 10SM CLR 06/M03 A3022 800 55 -100 320/08 RMK AO2
94908KDBQ DBQ20071102223009911/02/07 22:30:31  5-MIN KDBQ 030430Z AUTO 32008KT 10SM CLR 05/M03 A3022 800 57 -100 320/08 RMK AO2
94908KDBQ DBQ20071102223509911/02/07 22:35:31  5-MIN KDBQ 030435Z AUTO 32009KT 10SM CLR 05/M03 A3022 800 57 -100 320/09 RMK AO2
94908KDBQ DBQ20071102224009911/02/07 22:40:31  5-MIN KDBQ 030440Z AUTO 32008KT 10SM CLR 05/M03 A3022 800 57 -100 320/08 RMK AO2
94908KDBQ DBQ20071102224509911/02/07 22:45:31  5-MIN KDBQ 030445Z AUTO 32008KT 10SM CLR 05/M03 A3022 800 57 -100 320/08 RMK AO2
94908KDBQ DBQ20071102225011611/02/07 22:50:31  5-MIN KDBQ 030450Z AUTO 32008KT 10SM CLR 04/M03 A3022 800 59 -200 320/08 RMK AO2 SLP240 T00441028
94908KDBQ DBQ20071102225509911/02/07 22:55:31  5-MIN KDBQ 030455Z AUTO 32008KT 10SM CLR 04/M03 A3022 800 59 -200 320/08 RMK AO2
94908KDBQ DBQ20071102230009911/02/07 23:00:31  5-MIN KDBQ 030500Z AUTO 32007KT 10SM CLR 04/M03 A3022 800 62 -300 320/07 RMK AO2
94908KDBQ DBQ20071102230509911/02/07 23:05:31  5-MIN KDBQ 030505Z AUTO 32008KT 10SM CLR 04/M03 A3022 800 62 -300 320/08 RMK AO2
94908KDBQ DBQ20071102231009911/02/07 23:10:31  5-MIN KDBQ 030510Z AUTO 32008KT 10SM CLR 04/M03 A3022 800 62 -300 320/08 RMK AO2
94908KDBQ DBQ20071102231509911/02/07 23:15:31  5-MIN KDBQ 030515Z AUTO 32007KT 10SM CLR 04/M03 A3022 800 62 -300 320/07 RMK AO2
94908KDBQ DBQ20071102232009911/02/07 23:20:31  5-MIN KDBQ 030520Z AUTO 32006KT 10SM CLR 04/M03 A3022 800 59 -300 320/06 RMK AO2
94908KDBQ DBQ20071102232509911/02/07 23:25:31  5-MIN KDBQ 030525Z AUTO 32007KT 10SM CLR 04/M03 A3022 800 59 -300 320/07 RMK AO2
94908KDBQ DBQ20071102233009911/02/07 23:30:31  5-MIN KDBQ 030530Z AUTO 32007KT 10SM CLR 04/M03 A3022 800 59 -300 320/07 RMK AO2
94908KDBQ DBQ20071102233509911/02/07 23:35:31  5-MIN KDBQ 030535Z AUTO 33008KT 10SM CLR 04/M03 A3022 800 59 -300 320/08 RMK AO2
94908KDBQ DBQ20071102234009911/02/07 23:40:31  5-MIN KDBQ 030540Z AUTO 32007KT 10SM CLR 04/M03 A3022 800 59 -300 320/07 RMK AO2
94908KDBQ DBQ20071102234509911/02/07 23:45:31  5-MIN KDBQ 030545Z AUTO 32007KT 10SM CLR 04/M04 A3022 800 55 -200 320/07 RMK AO2
94908KDBQ DBQ20071102235014411/02/07 23:50:31  5-MIN KDBQ 030550Z AUTO 32008KT 10SM CLR 04/M04 A3022 800 57 -300 320/08 RMK AO2 SLP241 T00391039 10083 20039 401331011 51015
94908KDBQ DBQ20071102235509911/02/07 23:55:31  5-MIN KDBQ 030555Z AUTO 32008KT 10SM CLR 04/M04 A3022 800 55 -200 320/08 RMK AO2
94908KDBQ DBQ20071103000009911/03/07 00:00:38  5-MIN KDBQ 030600Z AUTO 32007KT 10SM CLR 04/M04 A3022 800 52 -200 320/07 RMK AO2
94908KDBQ DBQ20071103000509911/03/07 00:05:31  5-MIN KDBQ 030605Z AUTO 32008KT 10SM CLR 04/M04 A3022 800 54 -300 320/08 RMK AO2
94908KDBQ DBQ20071103001009911/03/07 00:10:31  5-MIN KDBQ 030610Z AUTO 32008KT 10SM CLR 04/M04 A3022 800 52 -200 320/08 RMK AO2
94908KDBQ DBQ20071103001509911/03/07 00:15:31  5-MIN KDBQ 030615Z AUTO 32008KT 10SM CLR 04/M04 A3022 800 52 -200 320/08 RMK AO2
94908KDBQ DBQ20071103002009911/03/07 00:20:31  5-MIN KDBQ 030620Z AUTO 32008KT 10SM CLR 04/M04 A3022 800 54 -300 320/08 RMK AO2
94908KDBQ DBQ20071103002509911/03/07 00:25:31  5-MIN KDBQ 030625Z AUTO 32009KT 10SM CLR 04/M04 A3022 800 52 -200 320/09 RMK AO2
94908KDBQ DBQ20071103003009911/03/07 00:30:31  5-MIN KDBQ 030630Z AUTO 32008KT 10SM CLR 04/M04 A3022 800 52 -200 320/08 RMK AO2
94908KDBQ DBQ20071103003509911/03/07 00:35:31  5-MIN KDBQ 030635Z AUTO 32007KT 10SM CLR 04/M04 A3022 800 52 -200 320/07 RMK AO2
94908KDBQ DBQ20071103004009911/03/07 00:40:31  5-MIN KDBQ 030640Z AUTO 32008KT 10SM CLR 04/M05 A3022 800 52 -300 320/08 RMK AO2
94908KDBQ DBQ20071103004509911/03/07 00:45:31  5-MIN KDBQ 030645Z AUTO 32007KT 10SM CLR 04/M05 A3022 800 52 -300 320/07 RMK AO2
94908KDBQ DBQ20071103005011611/03/07 00:50:31  5-MIN KDBQ 030650Z AUTO 32008KT 10SM CLR 04/M05 A3022 800 52 -300 320/08 RMK AO2 SLP239 T00391050
94908KDBQ DBQ20071103005509911/03/07 00:55:31  5-MIN KDBQ 030655Z AUTO 32006KT 10SM CLR 04/M05 A3022 800 52 -300 320/06 RMK AO2
94908KDBQ DBQ20071103010009911/03/07 01:00:31  5-MIN KDBQ 030700Z AUTO 32007KT 10SM CLR 04/M05 A3022 800 50 -200 320/07 RMK AO2
94908KDBQ DBQ20071103010509911/03/07 01:05:31  5-MIN KDBQ 030705Z AUTO 33007KT 10SM CLR 03/M05 A3022 800 54 -300 320/07 RMK AO2
94908KDBQ DBQ20071103011009911/03/07 01:10:31  5-MIN KDBQ 030710Z AUTO 32007KT 10SM CLR 04/M05 A3022 800 52 -300 320/07 RMK AO2
94908KDBQ DBQ20071103011509911/03/07 01:15:31  5-MIN KDBQ 030715Z AUTO 32008KT 10SM CLR 04/M05 A3022 800 52 -300 320/08 RMK AO2
94908KDBQ DBQ20071103012009911/03/07 01:20:31  5-MIN KDBQ 030720Z AUTO 32009KT 10SM CLR 04/M05 A3022 800 50 -200 320/09 RMK AO2
94908KDBQ DBQ20071103012509911/03/07 01:25:31  5-MIN KDBQ 030725Z AUTO 32008KT 10SM CLR 05/M05 A3022 800 48 -100 320/08 RMK AO2
94908KDBQ DBQ20071103013009911/03/07 01:30:31  5-MIN KDBQ 030730Z AUTO 32009KT 10SM CLR 05/M05 A3022 800 48 -100 320/09 RMK AO2
94908KDBQ DBQ20071103013509911/03/07 01:35:31  5-MIN KDBQ 030735Z AUTO 32008KT 10SM CLR 05/M05 A3022 800 48 -100 320/08 RMK AO2
94908KDBQ DBQ20071103014009911/03/07 01:40:31  5-MIN KDBQ 030740Z AUTO 32007KT 10SM CLR 04/M05 A3022 800 50 -200 310/07 RMK AO2
94908KDBQ DBQ20071103014509911/03/07 01:45:31  5-MIN KDBQ 030745Z AUTO 32006KT 10SM CLR 04/M05 A3022 800 50 -200 320/06 RMK AO2
94908KDBQ DBQ20071103015011611/03/07 01:50:31  5-MIN KDBQ 030750Z AUTO 32006KT 10SM CLR 05/M06 A3023 800 46 -100 310/06 RMK AO2 SLP241 T00501056
94908KDBQ DBQ20071103015509911/03/07 01:55:31  5-MIN KDBQ 030755Z AUTO 32006KT 10SM CLR 04/M06 A3023 800 48 -200 320/06 RMK AO2
94908KDBQ DBQ20071103020009911/03/07 02:00:31  5-MIN KDBQ 030800Z AUTO 32005KT 10SM CLR 04/M06 A3022 800 48 -200 320/05 RMK AO2
94908KDBQ DBQ20071103020509911/03/07 02:05:31  5-MIN KDBQ 030805Z AUTO 31006KT 10SM CLR 05/M06 A3022 800 46 -100 310/06 RMK AO2
94908KDBQ DBQ20071103021009911/03/07 02:10:31  5-MIN KDBQ 030810Z AUTO 32006KT 10SM CLR 04/M05 A3022 800 50 -200 310/06 RMK AO2
94908KDBQ DBQ20071103021509911/03/07 02:15:31  5-MIN KDBQ 030815Z AUTO 31006KT 10SM CLR 04/M05 A3022 800 52 -300 310/06 RMK AO2
94908KDBQ DBQ20071103022009911/03/07 02:20:31  5-MIN KDBQ 030820Z AUTO 32006KT 10SM CLR 04/M05 A3022 800 52 -300 320/06 RMK AO2
94908KDBQ DBQ20071103022509911/03/07 02:25:31  5-MIN KDBQ 030825Z AUTO 31006KT 10SM CLR 03/M05 A3022 800 54 -300 310/06 RMK AO2
94908KDBQ DBQ20071103023009911/03/07 02:30:31  5-MIN KDBQ 030830Z AUTO 31006KT 10SM CLR 03/M05 A3022 800 54 -300 310/06 RMK AO2
94908KDBQ DBQ20071103023509911/03/07 02:35:31  5-MIN KDBQ 030835Z AUTO 30008KT 10SM CLR 03/M05 A3022 800 56 -400 300/08 RMK AO2
94908KDBQ DBQ20071103024009911/03/07 02:40:31  5-MIN KDBQ 030840Z AUTO 30005KT 10SM CLR 03/M05 A3022 800 56 -400 300/05 RMK AO2
94908KDBQ DBQ20071103024509911/03/07 02:45:31  5-MIN KDBQ 030845Z AUTO 32004KT 10SM CLR 03/M05 A3022 800 56 -400 310/04 RMK AO2
94908KDBQ DBQ20071103025012211/03/07 02:50:31  5-MIN KDBQ 030850Z AUTO 31005KT 10SM CLR 03/M06 A3022 800 52 -300 310/05 RMK AO2 SLP239 T00331056 51007
94908KDBQ DBQ20071103025509911/03/07 02:55:31  5-MIN KDBQ 030855Z AUTO 30005KT 10SM CLR 04/M06 A3022 800 50 -300 300/05 RMK AO2
94908KDBQ DBQ20071103030009911/03/07 03:00:31  5-MIN KDBQ 030900Z AUTO 30005KT 10SM CLR 03/M05 A3022 800 56 -400 300/05 RMK AO2
94908KDBQ DBQ20071103030509911/03/07 03:05:31  5-MIN KDBQ 030905Z AUTO 29005KT 10SM CLR 03/M06 A3022 800 52 -300 290/05 RMK AO2
94908KDBQ DBQ20071103031009911/03/07 03:10:31  5-MIN KDBQ 030910Z AUTO 28003KT 10SM CLR 03/M06 A3022 800 54 -400 270/03 RMK AO2
94908KDBQ DBQ20071103031509911/03/07 03:15:31  5-MIN KDBQ 030915Z AUTO 27003KT 10SM CLR 03/M06 A3022 800 52 -300 270/03 RMK AO2
94908KDBQ DBQ20071103032009911/03/07 03:20:31  5-MIN KDBQ 030920Z AUTO 28004KT 10SM CLR 03/M06 A3022 800 52 -300 280/04 RMK AO2
94908KDBQ DBQ20071103032509911/03/07 03:25:31  5-MIN KDBQ 030925Z AUTO 28004KT 10SM CLR 03/M06 A3022 810 54 -400 280/04 RMK AO2
94908KDBQ DBQ20071103033009911/03/07 03:30:31  5-MIN KDBQ 030930Z AUTO 29005KT 10SM CLR 02/M05 A3022 810 59 -500 290/05 RMK AO2
94908KDBQ DBQ20071103033509911/03/07 03:35:31  5-MIN KDBQ 030935Z AUTO 28004KT 10SM CLR 01/M05 A3022 800 64 -600 280/04 RMK AO2
94908KDBQ DBQ20071103034009911/03/07 03:40:31  5-MIN KDBQ 030940Z AUTO 28004KT 10SM CLR 01/M05 A3022 800 64 -600 280/04 RMK AO2
94908KDBQ DBQ20071103034509911/03/07 03:45:31  5-MIN KDBQ 030945Z AUTO 28004KT 10SM CLR 02/M05 A3022 800 61 -500 280/04 RMK AO2
94908KDBQ DBQ20071103035011611/03/07 03:50:31  5-MIN KDBQ 030950Z AUTO 28003KT 10SM CLR 02/M06 A3022 800 56 -500 280/03 RMK AO2 SLP239 T00221056
94908KDBQ DBQ20071103035509911/03/07 03:55:31  5-MIN KDBQ 030955Z AUTO 27004KT 10SM CLR 02/M05 A3022 800 61 -500 270/04 RMK AO2
94908KDBQ DBQ20071103040009911/03/07 04:00:31  5-MIN KDBQ 031000Z AUTO 27005KT 10SM CLR 02/M06 A3022 800 56 -500 270/05 RMK AO2
94908KDBQ DBQ20071103040509911/03/07 04:05:31  5-MIN KDBQ 031005Z AUTO 26004KT 10SM CLR 02/M06 A3022 800 59 -500 260/04 RMK AO2
94908KDBQ DBQ20071103041009911/03/07 04:10:31  5-MIN KDBQ 031010Z AUTO 25004KT 10SM CLR 01/M06 A3022 800 63 -700 250/04 RMK AO2
94908KDBQ DBQ20071103041509911/03/07 04:15:31  5-MIN KDBQ 031015Z AUTO 24004KT 10SM CLR 00/M05 A3022 800 69 -700 240/04 RMK AO2
94908KDBQ DBQ20071103042010011/03/07 04:20:31  5-MIN KDBQ 031020Z AUTO 24004KT 10SM CLR M01/M06 A3022 800 69 -800 240/04 RMK AO2
94908KDBQ DBQ20071103042510011/03/07 04:25:31  5-MIN KDBQ 031025Z AUTO 24003KT 10SM CLR M01/M05 A3022 800 72 -800 240/03 RMK AO2
94908KDBQ DBQ20071103043009911/03/07 04:30:31  5-MIN KDBQ 031030Z AUTO 00000KT 10SM CLR 00/M05 A3022 800 69 -700 000/00 RMK AO2
94908KDBQ DBQ20071103043509911/03/07 04:35:31  5-MIN KDBQ 031035Z AUTO 00000KT 10SM CLR 00/M06 A3022 800 66 -700 000/00 RMK AO2
94908KDBQ DBQ20071103044010011/03/07 04:40:31  5-MIN KDBQ 031040Z AUTO 20003KT 10SM CLR M01/M06 A3022 800 69 -800 200/03 RMK AO2
94908KDBQ DBQ20071103044509511/03/07 04:45:31  5-MIN KDBQ 031045Z 21003KT 10SM CLR M01/M05 A3022 800 72 -800 210/03 RMK AO2
94908KDBQ DBQ20071103045011211/03/07 04:50:31  5-MIN KDBQ 031050Z 00000KT 10SM CLR M01/M05 A3022 800 75 -900 000/00 RMK AO2 SLP244 T10111050
94908KDBQ DBQ20071103045509511/03/07 04:55:31  5-MIN KDBQ 031055Z 00000KT 10SM CLR M01/M05 A3022 800 75 -900 000/00 RMK AO2
94908KDBQ DBQ20071103050009511/03/07 05:00:31  5-MIN KDBQ 031100Z 20003KT 10SM CLR M01/M06 A3022 800 72 -900 200/03 RMK AO2
94908KDBQ DBQ20071103050509511/03/07 05:05:31  5-MIN KDBQ 031105Z 20003KT 10SM CLR M01/M06 A3022 800 69 -800 190/03 RMK AO2
94908KDBQ DBQ20071103051009511/03/07 05:10:31  5-MIN KDBQ 031110Z 00000KT 10SM CLR M01/M06 A3022 800 72 -900 000/00 RMK AO2
94908KDBQ DBQ20071103051509511/03/07 05:15:31  5-MIN KDBQ 031115Z 21003KT 10SM CLR M01/M06 A3022 800 69 -800 210/03 RMK AO2
94908KDBQ DBQ20071103052009511/03/07 05:20:31  5-MIN KDBQ 031120Z 21003KT 10SM CLR M01/M06 A3022 800 72 -900 210/03 RMK AO2
94908KDBQ DBQ20071103052509511/03/07 05:25:31  5-MIN KDBQ 031125Z 00000KT 10SM CLR M01/M06 A3022 800 72 -900 000/00 RMK AO2
94908KDBQ DBQ20071103053009511/03/07 05:30:31  5-MIN KDBQ 031130Z 21003KT 10SM CLR M01/M06 A3022 800 72 -900 210/03 RMK AO2
94908KDBQ DBQ20071103053509511/03/07 05:35:31  5-MIN KDBQ 031135Z 21003KT 10SM CLR M01/M06 A3022 800 72 -900 210/03 RMK AO2
94908KDBQ DBQ20071103054009511/03/07 05:40:31  5-MIN KDBQ 031140Z 22003KT 10SM CLR M01/M06 A3022 800 72 -900 210/03 RMK AO2
94908KDBQ DBQ20071103054509511/03/07 05:45:31  5-MIN KDBQ 031145Z 21004KT 10SM CLR M01/M06 A3022 800 72 -900 210/04 RMK AO2
94908KDBQ DBQ20071103055013111/03/07 05:50:31  5-MIN KDBQ 031150Z 21004KT 10SM CLR M02/M06 A3022 800 75 -1000 210/04 RMK AO2 SLP245 T10171056 10050 21017 58001
94908KDBQ DBQ20071103055509611/03/07 05:55:31  5-MIN KDBQ 031155Z 21004KT 10SM CLR M02/M06 A3022 800 78 -1000 210/04 RMK AO2
94908KDBQ DBQ20071103060009611/03/07 06:00:31  5-MIN KDBQ 031200Z 23003KT 10SM CLR M02/M06 A3023 800 78 -1000 230/03 RMK AO2
94908KDBQ DBQ20071103060509611/03/07 06:05:31  5-MIN KDBQ 031205Z 23003KT 10SM CLR M02/M06 A3023 790 78 -1000 230/03 RMK AO2
94908KDBQ DBQ20071103061009611/03/07 06:10:31  5-MIN KDBQ 031210Z 23005KT 10SM CLR M03/M06 A3023 790 81 -1100 220/05 RMK AO2
94908KDBQ DBQ20071103061509611/03/07 06:15:31  5-MIN KDBQ 031215Z 22003KT 10SM CLR M03/M06 A3023 790 78 -1100 220/03 RMK AO2
94908KDBQ DBQ20071103062009611/03/07 06:20:31  5-MIN KDBQ 031220Z 21003KT 10SM CLR M02/M06 A3023 800 78 -1000 210/03 RMK AO2
94908KDBQ DBQ20071103062509611/03/07 06:25:31  5-MIN KDBQ 031225Z 21003KT 10SM CLR M02/M06 A3023 790 78 -1000 210/03 RMK AO2
94908KDBQ DBQ20071103063009611/03/07 06:30:31  5-MIN KDBQ 031230Z 22003KT 10SM CLR M02/M06 A3023 790 78 -1000 220/03 RMK AO2
94908KDBQ DBQ20071103063509611/03/07 06:35:31  5-MIN KDBQ 031235Z 22003KT 10SM CLR M02/M06 A3023 790 78 -1000 220/03 RMK AO2
94908KDBQ DBQ20071103064009611/03/07 06:40:31  5-MIN KDBQ 031240Z 22003KT 10SM CLR M02/M06 A3023 790 78 -1000 220/03 RMK AO2
94908KDBQ DBQ20071103064509611/03/07 06:45:31  5-MIN KDBQ 031245Z 21003KT 10SM CLR M02/M06 A3023 790 78 -1000 210/03 RMK AO2
94908KDBQ DBQ20071103065011311/03/07 06:50:31  5-MIN KDBQ 031250Z 21003KT 10SM CLR M02/M06 A3023 790 78 -1000 210/03 RMK AO2 SLP248 T10221056
94908KDBQ DBQ20071103065509611/03/07 06:55:31  5-MIN KDBQ 031255Z 00000KT 10SM CLR M02/M06 A3023 790 75 -1000 000/00 RMK AO2
94908KDBQ DBQ20071103070009611/03/07 07:00:31  5-MIN KDBQ 031300Z 00000KT 10SM CLR M02/M06 A3023 790 78 -1000 000/00 RMK AO2
94908KDBQ DBQ20071103070509611/03/07 07:05:31  5-MIN KDBQ 031305Z 00000KT 10SM CLR M02/M06 A3023 790 75 -1000 000/00 RMK AO2
94908KDBQ DBQ20071103071009611/03/07 07:10:31  5-MIN KDBQ 031310Z 00000KT 10SM CLR M02/M06 A3023 790 75 -1000 000/00 RMK AO2
94908KDBQ DBQ20071103071509611/03/07 07:15:31  5-MIN KDBQ 031315Z 23003KT 10SM CLR M02/M06 A3023 790 75 -1000 230/03 RMK AO2
94908KDBQ DBQ20071103072009611/03/07 07:20:31  5-MIN KDBQ 031320Z 22003KT 10SM CLR M02/M06 A3023 790 78 -1000 220/03 RMK AO2
94908KDBQ DBQ20071103072509611/03/07 07:25:31  5-MIN KDBQ 031325Z 21003KT 10SM CLR M02/M05 A3023 790 81 -1000 210/03 RMK AO2
94908KDBQ DBQ20071103073009611/03/07 07:30:31  5-MIN KDBQ 031330Z 21003KT 10SM CLR M02/M05 A3024 790 78 -1000 210/03 RMK AO2
94908KDBQ DBQ20071103073509511/03/07 07:35:31  5-MIN KDBQ 031335Z 00000KT 10SM CLR M01/M04 A3024 790 78 -900 000/00 RMK AO2
94908KDBQ DBQ20071103074009511/03/07 07:40:31  5-MIN KDBQ 031340Z 00000KT 10SM CLR M01/M04 A3024 780 78 -900 000/00 RMK AO2
94908KDBQ DBQ20071103074509511/03/07 07:45:31  5-MIN KDBQ 031345Z 22003KT 10SM CLR M01/M04 A3024 780 75 -800 220/03 RMK AO2
94908KDBQ DBQ20071103075011211/03/07 07:50:31  5-MIN KDBQ 031350Z 00000KT 10SM CLR M01/M04 A3024 780 75 -800 000/00 RMK AO2 SLP251 T10061044
94908KDBQ DBQ20071103075509411/03/07 07:55:31  5-MIN KDBQ 031355Z 00000KT 10SM CLR 00/M04 A3024 780 75 -800 000/00 RMK AO2
94908KDBQ DBQ20071103080009411/03/07 08:00:31  5-MIN KDBQ 031400Z 00000KT 10SM CLR 00/M04 A3024 780 75 -800 000/00 RMK AO2
94908KDBQ DBQ20071103080509411/03/07 08:05:31  5-MIN KDBQ 031405Z 00000KT 10SM CLR 01/M03 A3024 780 75 -700 000/00 RMK AO2
94908KDBQ DBQ20071103081009411/03/07 08:10:31  5-MIN KDBQ 031410Z 00000KT 10SM CLR 01/M03 A3024 780 72 -600 000/00 RMK AO2
94908KDBQ DBQ20071103081509411/03/07 08:15:31  5-MIN KDBQ 031415Z 00000KT 10SM CLR 02/M03 A3024 780 72 -600 000/00 RMK AO2
94908KDBQ DBQ20071103082009411/03/07 08:20:31  5-MIN KDBQ 031420Z 00000KT 10SM CLR 02/M03 A3024 780 69 -500 000/00 RMK AO2
94908KDBQ DBQ20071103082509411/03/07 08:25:31  5-MIN KDBQ 031425Z 00000KT 10SM CLR 03/M02 A3024 780 69 -400 000/00 RMK AO2
94908KDBQ DBQ20071103083009411/03/07 08:30:31  5-MIN KDBQ 031430Z 00000KT 10SM CLR 03/M02 A3024 780 70 -400 000/00 RMK AO2
94908KDBQ DBQ20071103083509411/03/07 08:35:31  5-MIN KDBQ 031435Z 00000KT 10SM CLR 04/M02 A3024 780 67 -300 000/00 RMK AO2
94908KDBQ DBQ20071103084009411/03/07 08:40:31  5-MIN KDBQ 031440Z 00000KT 10SM CLR 04/M02 A3024 780 67 -300 000/00 RMK AO2
94908KDBQ DBQ20071103084509411/03/07 08:45:31  5-MIN KDBQ 031445Z 00000KT 10SM CLR 05/M02 A3024 780 59 -200 000/00 RMK AO2
94908KDBQ DBQ20071103085011711/03/07 08:50:31  5-MIN KDBQ 031450Z 00000KT 10SM CLR 05/M02 A3024 780 59 -100 000/00 RMK AO2 SLP249 T00501022 53001
94908KDBQ DBQ20071103085509411/03/07 08:55:31  5-MIN KDBQ 031455Z 00000KT 10SM CLR 05/M02 A3024 780 62 -100 000/00 RMK AO2
94908KDBQ DBQ20071103090009411/03/07 09:00:31  5-MIN KDBQ 031500Z 00000KT 10SM CLR 06/M02 A3024 780 59 -100 000/00 RMK AO2
94908KDBQ DBQ20071103090509111/03/07 09:05:31  5-MIN KDBQ 031505Z 00000KT 10SM CLR 06/M03 A3024 780 53 0 000/00 RMK AO2
94908KDBQ DBQ20071103091009111/03/07 09:10:31  5-MIN KDBQ 031510Z 00000KT 10SM CLR 07/M03 A3024 780 51 0 000/00 RMK AO2
94908KDBQ DBQ20071103091509111/03/07 09:15:31  5-MIN KDBQ 031515Z 34003KT 10SM CLR 07/M02 A3024 780 53 0 340/03 RMK AO2
94908KDBQ DBQ20071103092009311/03/07 09:20:31  5-MIN KDBQ 031520Z 31004KT 10SM CLR 07/M02 A3024 780 51 100 310/04 RMK AO2
94908KDBQ DBQ20071103092509311/03/07 09:25:31  5-MIN KDBQ 031525Z 34004KT 10SM CLR 07/M02 A3024 780 51 100 340/04 RMK AO2
94908KDBQ DBQ20071103093009311/03/07 09:30:31  5-MIN KDBQ 031530Z 33005KT 10SM CLR 08/M02 A3024 780 49 100 330/05 RMK AO2
94908KDBQ DBQ20071103093509311/03/07 09:35:31  5-MIN KDBQ 031535Z 32004KT 10SM CLR 07/M02 A3024 780 51 100 320/04 RMK AO2
94908KDBQ DBQ20071103094009311/03/07 09:40:31  5-MIN KDBQ 031540Z 36005KT 10SM CLR 08/M02 A3024 780 49 100 350/05 RMK AO2
94908KDBQ DBQ20071103094509311/03/07 09:45:31  5-MIN KDBQ 031545Z VRB03KT 10SM CLR 08/M02 A3024 790 47 200 VRB/03 RMK AO2
94908KDBQ DBQ20071103095011011/03/07 09:50:31  5-MIN KDBQ 031550Z 36005KT 10SM CLR 08/M02 A3024 790 47 200 360/05 RMK AO2 SLP245 T00831022
94908KDBQ DBQ20071103095509311/03/07 09:55:31  5-MIN KDBQ 031555Z VRB04KT 10SM CLR 08/M02 A3023 790 47 200 VRB/04 RMK AO2
94908KDBQ DBQ20071103100009311/03/07 10:00:31  5-MIN KDBQ 031600Z 31005KT 10SM CLR 09/M02 A3024 790 47 300 310/05 RMK AO2
94908KDBQ DBQ20071103100509311/03/07 10:05:31  5-MIN KDBQ 031605Z 30005KT 10SM CLR 08/M03 A3023 790 45 200 300/05 RMK AO2
94908KDBQ DBQ20071103101009311/03/07 10:10:31  5-MIN KDBQ 031610Z 34003KT 10SM CLR 08/M02 A3023 790 47 200 340/03 RMK AO2
94908KDBQ DBQ20071103101509311/03/07 10:15:31  5-MIN KDBQ 031615Z 34005KT 10SM CLR 09/M02 A3023 790 45 300 340/05 RMK AO2
94908KDBQ DBQ20071103102009311/03/07 10:20:31  5-MIN KDBQ 031620Z 35003KT 10SM CLR 09/M03 A3023 790 43 300 350/03 RMK AO2
94908KDBQ DBQ20071103102509311/03/07 10:25:31  5-MIN KDBQ 031625Z VRB03KT 10SM CLR 09/M02 A3023 790 47 300 VRB/03 RMK AO2
94908KDBQ DBQ20071103103009311/03/07 10:30:31  5-MIN KDBQ 031630Z 34005KT 10SM CLR 09/M02 A3023 790 44 400 340/05 RMK AO2
94908KDBQ DBQ20071103103509311/03/07 10:35:31  5-MIN KDBQ 031635Z 28004KT 10SM CLR 09/M02 A3023 790 45 400 280/04 RMK AO2
94908KDBQ DBQ20071103104009311/03/07 10:40:31  5-MIN KDBQ 031640Z 28006KT 10SM CLR 09/M02 A3023 790 45 400 280/06 RMK AO2
94908KDBQ DBQ20071103104509311/03/07 10:45:31  5-MIN KDBQ 031645Z 28008KT 10SM CLR 09/M03 A3022 800 42 400 280/08 RMK AO2
94908KDBQ DBQ20071103105011011/03/07 10:50:31  5-MIN KDBQ 031650Z 31008KT 10SM CLR 09/M03 A3022 800 42 400 310/08 RMK AO2 SLP240 T00941028
94908KDBQ DBQ20071103105509311/03/07 10:55:31  5-MIN KDBQ 031655Z 30008KT 10SM CLR 09/M03 A3022 800 42 400 300/08 RMK AO2
94908KDBQ DBQ20071103110009311/03/07 11:00:31  5-MIN KDBQ 031700Z 30011KT 10SM CLR 10/M03 A3022 800 40 400 290/11 RMK AO2
94908KDBQ DBQ20071103110509311/03/07 11:05:31  5-MIN KDBQ 031705Z 31006KT 10SM CLR 09/M03 A3022 800 42 400 310/06 RMK AO2
94908KDBQ DBQ20071103111009311/03/07 11:10:31  5-MIN KDBQ 031710Z 31008KT 10SM CLR 10/M03 A3022 800 40 400 310/08 RMK AO2
94908KDBQ DBQ20071103111510911/03/07 11:15:31  5-MIN KDBQ 031715Z 32008KT 280V340 10SM CLR 10/M02 A3022 810 42 400 320/08 280V340 RMK AO2
94908KDBQ DBQ20071103112009911/03/07 11:20:31  5-MIN KDBQ 031720Z 30009G18KT 10SM CLR 10/M03 A3021 810 40 400 300/09G18 RMK AO2
94908KDBQ DBQ20071103112509911/03/07 11:25:31  5-MIN KDBQ 031725Z 30012G18KT 10SM CLR 10/M03 A3021 810 40 400 300/12G18 RMK AO2
94908KDBQ DBQ20071103113009311/03/07 11:30:31  5-MIN KDBQ 031730Z 31009KT 10SM CLR 10/M03 A3021 810 40 500 310/09 RMK AO2
94908KDBQ DBQ20071103113509311/03/07 11:35:31  5-MIN KDBQ 031735Z 30011KT 10SM CLR 10/M03 A3020 820 39 500 300/11 RMK AO2
94908KDBQ DBQ20071103114009911/03/07 11:40:31  5-MIN KDBQ 031740Z 29008G16KT 10SM CLR 11/M03 A3020 820 39 500 290/08G16 RMK AO2
94908KDBQ DBQ20071103114509911/03/07 11:45:31  5-MIN KDBQ 031745Z 28011G17KT 10SM CLR 10/M03 A3020 820 39 500 280/11G17 RMK AO2
94908KDBQ DBQ20071103115012811/03/07 11:50:31  5-MIN KDBQ 031750Z 29009KT 10SM CLR 10/M03 A3020 820 39 500 290/09 RMK AO2 SLP233 T01001033 10106 21028 50006
94908KDBQ DBQ20071103115509311/03/07 11:55:31  5-MIN KDBQ 031755Z 30009KT 10SM CLR 11/M02 A3020 820 40 500 290/09 RMK AO2
94908KDBQ DBQ20071103120009311/03/07 12:00:31  5-MIN KDBQ 031800Z 27013KT 10SM CLR 11/M03 A3020 820 39 500 270/13 RMK AO2
94908KDBQ DBQ20071103120509911/03/07 12:05:31  5-MIN KDBQ 031805Z 29013G18KT 10SM CLR 11/M03 A3020 820 39 500 290/13G18 RMK AO2
94908KDBQ DBQ20071103121009311/03/07 12:10:31  5-MIN KDBQ 031810Z 28011KT 10SM CLR 11/M03 A3020 820 39 500 280/11 RMK AO2
94908KDBQ DBQ20071103121509311/03/07 12:15:31  5-MIN KDBQ 031815Z 30010KT 10SM CLR 11/M02 A3020 830 40 500 300/10 RMK AO2
94908KDBQ DBQ20071103122009911/03/07 12:20:31  5-MIN KDBQ 031820Z 28013G17KT 10SM CLR 11/M02 A3019 830 40 500 280/13G17 RMK AO2
94908KDBQ DBQ20071103122509311/03/07 12:25:31  5-MIN KDBQ 031825Z 30012KT 10SM CLR 11/M03 A3019 830 37 500 300/12 RMK AO2
94908KDBQ DBQ20071103123009911/03/07 12:30:31  5-MIN KDBQ 031830Z 30009G17KT 10SM CLR 11/M03 A3018 840 39 500 300/09G17 RMK AO2
94908KDBQ DBQ20071103123509911/03/07 12:35:31  5-MIN KDBQ 031835Z 28010G16KT 10SM CLR 11/M03 A3018 840 39 500 280/10G16 RMK AO2
94908KDBQ DBQ20071103124009311/03/07 12:40:31  5-MIN KDBQ 031840Z 29011KT 10SM CLR 11/M03 A3018 840 39 500 290/11 RMK AO2
94908KDBQ DBQ20071103124509311/03/07 12:45:31  5-MIN KDBQ 031845Z 30010KT 10SM CLR 11/M03 A3018 840 39 600 300/10 RMK AO2
94908KDBQ DBQ20071103125011011/03/07 12:50:31  5-MIN KDBQ 031850Z 29012KT 10SM CLR 11/M03 A3017 840 36 600 290/12 RMK AO2 SLP224 T01111033
94908KDBQ DBQ20071103125509911/03/07 12:55:31  5-MIN KDBQ 031855Z 28007G16KT 10SM CLR 11/M03 A3017 850 37 600 280/07G16 RMK AO2
94908KDBQ DBQ20071103130009311/03/07 13:00:31  5-MIN KDBQ 031900Z 28007KT 10SM CLR 11/M03 A3016 860 37 600 280/07 RMK AO2
94908KDBQ DBQ20071103130509311/03/07 13:05:31  5-MIN KDBQ 031905Z 33008KT 10SM CLR 11/M03 A3016 860 36 600 330/08 RMK AO2
94908KDBQ DBQ20071103131009311/03/07 13:10:31  5-MIN KDBQ 031910Z 28006KT 10SM CLR 11/M03 A3015 860 36 600 280/06 RMK AO2
94908KDBQ DBQ20071103131509311/03/07 13:15:31  5-MIN KDBQ 031915Z 27011KT 10SM CLR 11/M03 A3015 870 37 600 270/11 RMK AO2
94908KDBQ DBQ20071103132009311/03/07 13:20:31  5-MIN KDBQ 031920Z 27011KT 10SM CLR 11/M03 A3015 870 36 700 270/11 RMK AO2
94908KDBQ DBQ20071103132509311/03/07 13:25:31  5-MIN KDBQ 031925Z 27011KT 10SM CLR 11/M03 A3015 870 36 700 270/11 RMK AO2
94908KDBQ DBQ20071103133009311/03/07 13:30:31  5-MIN KDBQ 031930Z 27011KT 10SM CLR 11/M03 A3015 870 37 600 270/11 RMK AO2
94908KDBQ DBQ20071103133509311/03/07 13:35:31  5-MIN KDBQ 031935Z 28007KT 10SM CLR 11/M03 A3014 870 37 600 280/07 RMK AO2
94908KDBQ DBQ20071103134009311/03/07 13:40:31  5-MIN KDBQ 031940Z 27011KT 10SM CLR 11/M04 A3014 870 36 600 270/11 RMK AO2
94908KDBQ DBQ20071103134509311/03/07 13:45:31  5-MIN KDBQ 031945Z 29008KT 10SM CLR 11/M03 A3014 880 36 700 290/08 RMK AO2
94908KDBQ DBQ20071103135011011/03/07 13:50:31  5-MIN KDBQ 031950Z 29008KT 10SM CLR 11/M03 A3014 880 36 700 290/08 RMK AO2 SLP212 T01111033
94908KDBQ DBQ20071103135509311/03/07 13:55:31  5-MIN KDBQ 031955Z 28006KT 10SM CLR 11/M03 A3014 880 36 700 280/06 RMK AO2
94908KDBQ DBQ20071103140009311/03/07 14:00:31  5-MIN KDBQ 032000Z 26010KT 10SM CLR 11/M03 A3014 880 36 700 260/10 RMK AO2
94908KDBQ DBQ20071103140509311/03/07 14:05:31  5-MIN KDBQ 032005Z 31009KT 10SM CLR 11/M03 A3013 880 36 700 310/09 RMK AO2
94908KDBQ DBQ20071103141009311/03/07 14:10:31  5-MIN KDBQ 032010Z 27009KT 10SM CLR 11/M03 A3013 890 37 600 270/09 RMK AO2
94908KDBQ DBQ20071103141509311/03/07 14:15:31  5-MIN KDBQ 032015Z 28009KT 10SM CLR 11/M04 A3013 890 36 600 280/09 RMK AO2
94908KDBQ DBQ20071103142009311/03/07 14:20:31  5-MIN KDBQ 032020Z 28011KT 10SM CLR 11/M03 A3013 890 36 700 280/11 RMK AO2
94908KDBQ DBQ20071103142509311/03/07 14:25:31  5-MIN KDBQ 032025Z 27007KT 10SM CLR 11/M04 A3013 890 36 600 270/07 RMK AO2
94908KDBQ DBQ20071103143009311/03/07 14:30:31  5-MIN KDBQ 032030Z 28008KT 10SM CLR 11/M03 A3013 890 37 600 270/08 RMK AO2
94908KDBQ DBQ20071103143509911/03/07 14:35:31  5-MIN KDBQ 032035Z 26009G15KT 10SM CLR 12/M03 A3013 890 35 700 260/09G15 RMK AO2
94908KDBQ DBQ20071103144009911/03/07 14:40:31  5-MIN KDBQ 032040Z 28009G17KT 10SM CLR 12/M03 A3013 890 35 700 280/09G17 RMK AO2
94908KDBQ DBQ20071103144509911/03/07 14:45:31  5-MIN KDBQ 032045Z 28012G17KT 10SM CLR 12/M04 A3013 880 33 700 280/12G17 RMK AO2
94908KDBQ DBQ20071103145011611/03/07 14:50:31  5-MIN KDBQ 032050Z 30009KT 10SM CLR 11/M04 A3013 880 34 700 300/09 RMK AO2 SLP209 T01111039 58015
94908KDBQ DBQ20071103145509911/03/07 14:55:31  5-MIN KDBQ 032055Z 28010G17KT 10SM CLR 11/M04 A3013 890 33 700 280/10G17 RMK AO2
94908KDBQ DBQ20071103150009911/03/07 15:00:31  5-MIN KDBQ 032100Z 29010G17KT 10SM CLR 11/M04 A3012 890 36 600 280/10G17 RMK AO2
94908KDBQ DBQ20071103150509311/03/07 15:05:31  5-MIN KDBQ 032105Z 28010KT 10SM CLR 11/M04 A3012 890 36 600 280/10 RMK AO2
94908KDBQ DBQ20071103151009311/03/07 15:10:31  5-MIN KDBQ 032110Z 28008KT 10SM CLR 11/M04 A3012 890 36 600 280/08 RMK AO2
94908KDBQ DBQ20071103151509311/03/07 15:15:31  5-MIN KDBQ 032115Z 28007KT 10SM CLR 10/M03 A3012 900 39 600 280/07 RMK AO2
94908KDBQ DBQ20071103152009311/03/07 15:20:31  5-MIN KDBQ 032120Z 26010KT 10SM CLR 10/M04 A3012 890 37 500 260/10 RMK AO2
94908KDBQ DBQ20071103152509311/03/07 15:25:31  5-MIN KDBQ 032125Z 26007KT 10SM CLR 10/M03 A3012 900 39 600 260/07 RMK AO2
94908KDBQ DBQ20071103153009311/03/07 15:30:31  5-MIN KDBQ 032130Z 27007KT 10SM CLR 10/M03 A3012 890 39 500 270/07 RMK AO2
94908KDBQ DBQ20071103153509311/03/07 15:35:31  5-MIN KDBQ 032135Z 27008KT 10SM CLR 10/M03 A3012 900 39 600 260/08 RMK AO2
94908KDBQ DBQ20071103154009311/03/07 15:40:31  5-MIN KDBQ 032140Z 27007KT 10SM CLR 10/M03 A3012 900 39 600 270/07 RMK AO2
94908KDBQ DBQ20071103154509311/03/07 15:45:31  5-MIN KDBQ 032145Z 26006KT 10SM CLR 09/M03 A3011 900 40 500 260/06 RMK AO2
94908KDBQ DBQ20071103155011011/03/07 15:50:31  5-MIN KDBQ 032150Z 26006KT 10SM CLR 09/M03 A3011 910 40 500 260/06 RMK AO2 SLP202 T00941033
94908KDBQ DBQ20071103155509311/03/07 15:55:31  5-MIN KDBQ 032155Z 25005KT 10SM CLR 09/M03 A3010 910 40 500 250/05 RMK AO2
94908KDBQ DBQ20071103160009311/03/07 16:00:31  5-MIN KDBQ 032200Z 25005KT 10SM CLR 09/M03 A3010 910 42 500 250/05 RMK AO2
94908KDBQ DBQ20071103160509311/03/07 16:05:31  5-MIN KDBQ 032205Z 26006KT 10SM CLR 09/M03 A3010 910 42 500 250/06 RMK AO2
94908KDBQ DBQ20071103161009311/03/07 16:10:31  5-MIN KDBQ 032210Z 25006KT 10SM CLR 09/M03 A3010 910 42 500 250/06 RMK AO2
94908KDBQ DBQ20071103161509311/03/07 16:15:31  5-MIN KDBQ 032215Z 26006KT 10SM CLR 09/M03 A3010 910 43 400 260/06 RMK AO2
94908KDBQ DBQ20071103162009311/03/07 16:20:31  5-MIN KDBQ 032220Z 26006KT 10SM CLR 09/M03 A3010 910 42 400 260/06 RMK AO2
94908KDBQ DBQ20071103162509311/03/07 16:25:31  5-MIN KDBQ 032225Z 26005KT 10SM CLR 08/M03 A3010 910 43 400 250/05 RMK AO2
94908KDBQ DBQ20071103163009311/03/07 16:30:31  5-MIN KDBQ 032230Z 25004KT 10SM CLR 08/M03 A3010 920 43 400 250/04 RMK AO2
94908KDBQ DBQ20071103163509311/03/07 16:35:31  5-MIN KDBQ 032235Z 25003KT 10SM CLR 08/M03 A3009 920 43 400 250/03 RMK AO2
94908KDBQ DBQ20071103164009311/03/07 16:40:31  5-MIN KDBQ 032240Z 00000KT 10SM CLR 09/M04 A3009 920 40 500 000/00 RMK AO2
94908KDBQ DBQ20071103164509311/03/07 16:45:31  5-MIN KDBQ 032245Z 00000KT 10SM CLR 09/M04 A3008 930 40 500 000/00 RMK AO2
94908KDBQ DBQ20071103165011011/03/07 16:50:31  5-MIN KDBQ 032250Z 00000KT 10SM CLR 08/M04 A3008 930 42 400 000/00 RMK AO2 SLP194 T00831039
94908KDBQ DBQ20071103165509311/03/07 16:55:31  5-MIN KDBQ 032255Z 00000KT 10SM CLR 08/M04 A3007 940 40 400 000/00 RMK AO2
94908KDBQ DBQ20071103170009311/03/07 17:00:31  5-MIN KDBQ 032300Z 00000KT 10SM CLR 08/M04 A3007 940 43 300 000/00 RMK AO2
94908KDBQ DBQ20071103170509311/03/07 17:05:31  5-MIN KDBQ 032305Z 00000KT 10SM CLR 07/M03 A3008 930 49 200 000/00 RMK AO2
94908KDBQ DBQ20071103171009311/03/07 17:10:31  5-MIN KDBQ 032310Z 00000KT 10SM CLR 06/M03 A3008 930 55 100 000/00 RMK AO2
94908KDBQ DBQ20071103171509111/03/07 17:15:31  5-MIN KDBQ 032315Z 00000KT 10SM CLR 06/M02 A3009 930 57 0 000/00 RMK AO2
94908KDBQ DBQ20071103172009411/03/07 17:20:31  5-MIN KDBQ 032320Z 24003KT 10SM FEW120 05/M02 A3009 920 62 0 240/03 RMK AO2
94908KDBQ DBQ20071103172509411/03/07 17:25:31  5-MIN KDBQ 032325Z 23003KT 10SM SCT110 06/M02 A3009 920 57 0 230/03 RMK AO2
94908KDBQ DBQ20071103173009411/03/07 17:30:31  5-MIN KDBQ 032330Z 24003KT 10SM SCT110 06/M03 A3009 920 55 0 240/03 RMK AO2
94908KDBQ DBQ20071103173509411/03/07 17:35:31  5-MIN KDBQ 032335Z 00000KT 10SM BKN110 06/M03 A3009 920 55 0 000/00 RMK AO2
94908KDBQ DBQ20071103174009411/03/07 17:40:31  5-MIN KDBQ 032340Z 00000KT 10SM BKN110 06/M03 A3009 920 55 0 000/00 RMK AO2
94908KDBQ DBQ20071103174509411/03/07 17:45:31  5-MIN KDBQ 032345Z 00000KT 10SM OVC110 05/M03 A3009 920 57 0 000/00 RMK AO2
94908KDBQ DBQ20071103181009911/03/07 18:10:31  5-MIN KDBQ 040010Z AUTO 00000KT 10SM OVC120 04/M03 A3009 930 59 0 000/00 RMK AO2
94908KDBQ DBQ20071103181509911/03/07 18:15:31  5-MIN KDBQ 040015Z AUTO 00000KT 10SM OVC110 04/M02 A3008 930 62 0 000/00 RMK AO2
94908KDBQ DBQ20071103182009911/03/07 18:20:31  5-MIN KDBQ 040020Z AUTO 00000KT 10SM OVC110 05/M03 A3008 930 57 0 000/00 RMK AO2
94908KDBQ DBQ20071103182510811/03/07 18:25:31  5-MIN KDBQ 040025Z AUTO 00000KT 10SM SCT090 OVC110 06/M02 A3008 930 57 100 000/00 RMK AO2
94908KDBQ DBQ20071103183010811/03/07 18:30:31  5-MIN KDBQ 040030Z AUTO 00000KT 10SM BKN090 OVC110 06/M03 A3008 930 55 100 000/00 RMK AO2
94908KDBQ DBQ20071103183510611/03/07 18:35:31  5-MIN KDBQ 040035Z AUTO 00000KT 10SM BKN090 OVC110 05/M02 A3008 930 59 0 000/00 RMK AO2
94908KDBQ DBQ20071103184010611/03/07 18:40:31  5-MIN KDBQ 040040Z AUTO 19003KT 10SM BKN090 OVC110 05/M02 A3008 940 59 0 190/03 RMK AO2
94908KDBQ DBQ20071103184510111/03/07 18:45:31  5-MIN KDBQ 040045Z AUTO 18004KT 10SM OVC090 06/M02 A3007 940 57 100 180/04 RMK AO2
94908KDBQ DBQ20071103185011811/03/07 18:50:31  5-MIN KDBQ 040050Z AUTO 18003KT 10SM OVC085 06/M02 A3007 940 57 100 180/03 RMK AO2 SLP195 T00561022
94908KDBQ DBQ20071103185510111/03/07 18:55:31  5-MIN KDBQ 040055Z AUTO 00000KT 10SM OVC085 06/M02 A3007 940 55 100 000/00 RMK AO2
94908KDBQ DBQ20071103190010111/03/07 19:00:31  5-MIN KDBQ 040100Z AUTO 20004KT 10SM OVC085 06/M02 A3007 940 59 100 200/04 RMK AO2
94908KDBQ DBQ20071103190510111/03/07 19:05:31  5-MIN KDBQ 040105Z AUTO 20003KT 10SM OVC085 06/M01 A3007 940 62 100 200/03 RMK AO2
94908KDBQ DBQ20071103191009911/03/07 19:10:31  5-MIN KDBQ 040110Z AUTO 23003KT 10SM OVC080 05/M01 A3007 940 64 0 230/03 RMK AO2
94908KDBQ DBQ20071103191509911/03/07 19:15:31  5-MIN KDBQ 040115Z AUTO 22004KT 10SM OVC075 05/M01 A3008 930 64 0 220/04 RMK AO2
94908KDBQ DBQ20071103192010111/03/07 19:20:31  5-MIN KDBQ 040120Z AUTO 25005KT 10SM OVC070 06/M02 A3008 930 59 100 250/05 RMK AO2
94908KDBQ DBQ20071103192510111/03/07 19:25:31  5-MIN KDBQ 040125Z AUTO 23008KT 10SM OVC060 07/M03 A3008 930 51 200 220/08 RMK AO2
94908KDBQ DBQ20071103193010111/03/07 19:30:31  5-MIN KDBQ 040130Z AUTO 00000KT 10SM OVC050 07/M03 A3008 930 49 300 000/00 RMK AO2
94908KDBQ DBQ20071103193510111/03/07 19:35:31  5-MIN KDBQ 040135Z AUTO 29006KT 10SM OVC050 07/M03 A3007 940 49 300 280/06 RMK AO2
94908KDBQ DBQ20071103194010111/03/07 19:40:31  5-MIN KDBQ 040140Z AUTO 34004KT 10SM OVC050 08/M03 A3007 940 45 400 340/04 RMK AO2
94908KDBQ DBQ20071103194510811/03/07 19:45:31  5-MIN KDBQ 040145Z AUTO 31005KT 10SM BKN055 OVC090 08/M02 A3007 940 51 300 310/05 RMK AO2
94908KDBQ DBQ20071103195011811/03/07 19:50:31  5-MIN KDBQ 040150Z AUTO 33003KT 10SM OVC055 08/M02 A3006 950 49 400 330/03 RMK AO2 SLP189 T00831017
94908KDBQ DBQ20071103195510111/03/07 19:55:31  5-MIN KDBQ 040155Z AUTO 35004KT 10SM OVC055 08/M01 A3006 950 55 400 350/04 RMK AO2
94908KDBQ DBQ20071103200010011/03/07 20:00:31  5-MIN KDBQ 040200Z AUTO 00000KT 10SM OVC060 07/00 A3006 950 60 300 000/00 RMK AO2
94908KDBQ DBQ20071103200510811/03/07 20:05:31  5-MIN KDBQ 040205Z AUTO 00000KT 10SM BKN065 OVC095 08/M01 A3005 960 51 400 000/00 RMK AO2
94908KDBQ DBQ20071103201011511/03/07 20:10:31  5-MIN KDBQ 040210Z AUTO 14005KT 10SM BKN070 BKN100 BKN110 08/M02 A3005 960 51 400 140/05 RMK AO2
94908KDBQ DBQ20071103201511511/03/07 20:15:31  5-MIN KDBQ 040215Z AUTO 10003KT 10SM BKN070 BKN100 BKN110 08/M02 A3005 960 51 400 100/03 RMK AO2
94908KDBQ DBQ20071103202010811/03/07 20:20:31  5-MIN KDBQ 040220Z AUTO 17003KT 10SM BKN070 BKN100 08/M02 A3004 960 49 400 170/03 RMK AO2
94908KDBQ DBQ20071103202510811/03/07 20:25:31  5-MIN KDBQ 040225Z AUTO 00000KT 10SM BKN075 BKN100 08/M02 A3004 970 51 400 000/00 RMK AO2
94908KDBQ DBQ20071103203010811/03/07 20:30:31  5-MIN KDBQ 040230Z AUTO 14003KT 10SM BKN080 BKN110 08/M02 A3004 970 51 400 140/03 RMK AO2
94908KDBQ DBQ20071103203510811/03/07 20:35:31  5-MIN KDBQ 040235Z AUTO 00000KT 10SM SCT080 BKN110 08/M02 A3004 960 51 400 000/00 RMK AO2
94908KDBQ DBQ20071103204010111/03/07 20:40:31  5-MIN KDBQ 040240Z AUTO 00000KT 10SM BKN075 07/M02 A3004 960 53 300 000/00 RMK AO2
94908KDBQ DBQ20071103204510111/03/07 20:45:31  5-MIN KDBQ 040245Z AUTO 00000KT 10SM BKN080 07/M02 A3004 970 53 300 000/00 RMK AO2
94908KDBQ DBQ20071103205012411/03/07 20:50:31  5-MIN KDBQ 040250Z AUTO 00000KT 10SM BKN080 07/M02 A3004 970 53 300 000/00 RMK AO2 SLP180 T00721017 55014
94908KDBQ DBQ20071103205510111/03/07 20:55:31  5-MIN KDBQ 040255Z AUTO 11003KT 10SM BKN080 07/M02 A3004 970 53 300 100/03 RMK AO2
94908KDBQ DBQ20071103210010111/03/07 21:00:31  5-MIN KDBQ 040300Z AUTO 00000KT 10SM OVC080 07/M01 A3004 970 55 300 000/00 RMK AO2
94908KDBQ DBQ20071103210510111/03/07 21:05:31  5-MIN KDBQ 040305Z AUTO 00000KT 10SM OVC080 07/M02 A3004 970 53 300 000/00 RMK AO2
94908KDBQ DBQ20071103211010111/03/07 21:10:31  5-MIN KDBQ 040310Z AUTO 17006KT 10SM OVC080 07/M01 A3004 970 57 200 170/06 RMK AO2
94908KDBQ DBQ20071103211510111/03/07 21:15:31  5-MIN KDBQ 040315Z AUTO 16003KT 10SM OVC080 07/M02 A3003 970 53 300 150/03 RMK AO2
94908KDBQ DBQ20071103212010111/03/07 21:20:31  5-MIN KDBQ 040320Z AUTO 17005KT 10SM OVC080 08/M02 A3003 970 49 400 170/05 RMK AO2
94908KDBQ DBQ20071103212510811/03/07 21:25:31  5-MIN KDBQ 040325Z AUTO 17007KT 10SM BKN080 OVC090 07/M02 A3003 980 51 300 160/07 RMK AO2
94908KDBQ DBQ20071103213010811/03/07 21:30:31  5-MIN KDBQ 040330Z AUTO 16006KT 10SM BKN080 OVC095 07/M02 A3003 980 51 300 160/06 RMK AO2
94908KDBQ DBQ20071103213510111/03/07 21:35:31  5-MIN KDBQ 040335Z AUTO 15005KT 10SM OVC085 07/M02 A3003 980 51 300 150/05 RMK AO2
94908KDBQ DBQ20071103214010111/03/07 21:40:31  5-MIN KDBQ 040340Z AUTO 15006KT 10SM OVC080 07/M02 A3002 980 51 300 150/06 RMK AO2
94908KDBQ DBQ20071103214510111/03/07 21:45:31  5-MIN KDBQ 040345Z AUTO 14004KT 10SM OVC080 07/M02 A3002 990 51 300 140/04 RMK AO2
94908KDBQ DBQ20071103215011811/03/07 21:50:31  5-MIN KDBQ 040350Z AUTO 14004KT 10SM OVC085 07/M02 A3002 990 51 300 140/04 RMK AO2 SLP170 T00721022
94908KDBQ DBQ20071103215510811/03/07 21:55:31  5-MIN KDBQ 040355Z AUTO 17006KT 10SM BKN080 OVC100 08/M03 A3002 990 47 400 170/06 RMK AO2
94908KDBQ DBQ20071103220010811/03/07 22:00:31  5-MIN KDBQ 040400Z AUTO 17006KT 10SM BKN080 OVC090 08/M03 A3002 990 47 400 170/06 RMK AO2
94908KDBQ DBQ20071103220510111/03/07 22:05:31  5-MIN KDBQ 040405Z AUTO 18005KT 10SM OVC070 07/M02 A3002 990 51 300 180/05 RMK AO2
94908KDBQ DBQ20071103221012311/03/07 22:10:31  5-MIN KDBQ 040410Z AUTO 22010G18KT 190V250 10SM OVC070 07/M02 A3001 990 51 300 220/10G18 190V250 RMK AO2
94908KDBQ DBQ20071103221511511/03/07 22:15:31  5-MIN KDBQ 040415Z AUTO 17008G18KT 10SM BKN070 OVC090 08/M03 A3001 1000 47 400 170/08G18 RMK AO2
94908KDBQ DBQ20071103222010211/03/07 22:20:31  5-MIN KDBQ 040420Z AUTO 18006KT 10SM OVC070 08/M03 A3001 1000 45 400 180/06 RMK AO2
94908KDBQ DBQ20071103222511611/03/07 22:25:31  5-MIN KDBQ 040425Z AUTO 17004KT 10SM BKN065 BKN080 OVC095 08/M03 A3000 1000 47 400 170/04 RMK AO2
94908KDBQ DBQ20071103223011611/03/07 22:30:31  5-MIN KDBQ 040430Z AUTO 15004KT 10SM BKN065 BKN080 OVC095 08/M03 A3000 1010 47 400 150/04 RMK AO2
94908KDBQ DBQ20071103223510911/03/07 22:35:31  5-MIN KDBQ 040435Z AUTO 14006KT 10SM BKN070 OVC080 08/M03 A2999 1010 45 400 140/06 RMK AO2
94908KDBQ DBQ20071103224011611/03/07 22:40:31  5-MIN KDBQ 040440Z AUTO 15007KT 10SM BKN075 OVC100 08/M03 A2998 1020 45 400 150/07 RMK AO2 PRESFR
94908KDBQ DBQ20071103224512311/03/07 22:45:31  5-MIN KDBQ 040445Z AUTO 14006KT 10SM FEW070 BKN085 OVC110 07/M03 A2998 1030 47 400 140/06 RMK AO2 PRESFR
94908KDBQ DBQ20071103225012611/03/07 22:50:31  5-MIN KDBQ 040450Z AUTO 13006KT 10SM BKN075 OVC100 07/M03 A2997 1030 49 400 130/06 RMK AO2 SLP155 T00721028
94908KDBQ DBQ20071103225510911/03/07 22:55:31  5-MIN KDBQ 040455Z AUTO 13006KT 10SM BKN075 OVC090 07/M02 A2997 1030 53 400 130/06 RMK AO2
94908KDBQ DBQ20071103230010911/03/07 23:00:31  5-MIN KDBQ 040500Z AUTO 13007KT 10SM BKN075 OVC090 07/M02 A2997 1030 53 400 130/07 RMK AO2
94908KDBQ DBQ20071103230511611/03/07 23:05:31  5-MIN KDBQ 040505Z AUTO 13007KT 10SM BKN070 OVC090 07/M02 A2995 1050 53 400 130/07 RMK AO2 PRESFR
94908KDBQ DBQ20071103231012311/03/07 23:10:31  5-MIN KDBQ 040510Z AUTO 12009KT 10SM SCT065 BKN080 OVC100 07/M02 A2994 1060 53 400 120/09 RMK AO2 PRESFR
94908KDBQ DBQ20071103231510911/03/07 23:15:31  5-MIN KDBQ 040515Z AUTO 13009KT 10SM BKN070 OVC090 07/M02 A2994 1060 55 400 130/09 RMK AO2
94908KDBQ DBQ20071103232011611/03/07 23:20:31  5-MIN KDBQ 040520Z AUTO 13009KT 10SM FEW060 BKN080 OVC100 07/M02 A2994 1060 53 400 130/09 RMK AO2
94908KDBQ DBQ20071103232510911/03/07 23:25:31  5-MIN KDBQ 040525Z AUTO 14006KT 10SM SCT070 OVC090 07/M02 A2994 1060 55 400 140/06 RMK AO2
94908KDBQ DBQ20071103233010911/03/07 23:30:31  5-MIN KDBQ 040530Z AUTO 15008KT 10SM FEW065 OVC090 07/M01 A2993 1070 57 400 150/08 RMK AO2
94908KDBQ DBQ20071103233510211/03/07 23:35:31  5-MIN KDBQ 040535Z AUTO 15008KT 10SM OVC095 07/M01 A2993 1070 57 400 150/08 RMK AO2
94908KDBQ DBQ20071103234010211/03/07 23:40:31  5-MIN KDBQ 040540Z AUTO 15008KT 10SM OVC095 07/M01 A2993 1070 57 400 150/08 RMK AO2
94908KDBQ DBQ20071103234510211/03/07 23:45:31  5-MIN KDBQ 040545Z AUTO 15007KT 10SM OVC100 07/M01 A2992 1070 57 400 150/07 RMK AO2
94908KDBQ DBQ20071103235014711/03/07 23:50:31  5-MIN KDBQ 040550Z AUTO 15008KT 10SM OVC100 06/M02 A2992 1080 57 300 150/08 RMK AO2 SLP136 T00611017 10083 20044 401171028 58016
94908KDBQ DBQ20071103235510211/03/07 23:55:31  5-MIN KDBQ 040555Z AUTO 15008KT 10SM OVC100 07/M02 A2991 1090 55 400 150/08 RMK AO2
94908KDBQ DBQ20071104000010211/04/07 00:00:38  5-MIN KDBQ 040600Z AUTO 14008KT 10SM OVC100 07/M02 A2991 1090 55 400 140/08 RMK AO2
94908KDBQ DBQ20071104000510211/04/07 00:05:31  5-MIN KDBQ 040605Z AUTO 15008KT 10SM OVC100 07/M02 A2991 1090 53 400 150/08 RMK AO2
94908KDBQ DBQ20071104001010211/04/07 00:10:31  5-MIN KDBQ 040610Z AUTO 15005KT 10SM OVC100 06/M02 A2991 1090 55 300 150/05 RMK AO2
94908KDBQ DBQ20071104001510211/04/07 00:15:31  5-MIN KDBQ 040615Z AUTO 15007KT 10SM OVC100 06/M02 A2990 1090 55 300 150/07 RMK AO2
94908KDBQ DBQ20071104002010211/04/07 00:20:31  5-MIN KDBQ 040620Z AUTO 16007KT 10SM OVC095 06/M03 A2990 1100 53 300 160/07 RMK AO2
94908KDBQ DBQ20071104002510211/04/07 00:25:31  5-MIN KDBQ 040625Z AUTO 16008KT 10SM BKN095 06/M03 A2990 1100 55 300 160/08 RMK AO2
94908KDBQ DBQ20071104003010211/04/07 00:30:31  5-MIN KDBQ 040630Z AUTO 16009KT 10SM SCT095 06/M03 A2990 1100 53 300 160/09 RMK AO2
94908KDBQ DBQ20071104003510211/04/07 00:35:31  5-MIN KDBQ 040635Z AUTO 17008KT 10SM SCT095 06/M03 A2990 1100 55 300 160/08 RMK AO2
94908KDBQ DBQ20071104004010211/04/07 00:40:31  5-MIN KDBQ 040640Z AUTO 18006KT 10SM FEW095 05/M03 A2989 1100 57 200 180/06 RMK AO2
94908KDBQ DBQ20071104004510211/04/07 00:45:31  5-MIN KDBQ 040645Z AUTO 20005KT 10SM FEW095 04/M03 A2989 1100 59 100 200/05 RMK AO2
94908KDBQ DBQ20071104005011411/04/07 00:50:31  5-MIN KDBQ 040650Z AUTO 22005KT 10SM CLR 03/M03 A2989 1110 64 0 220/05 RMK AO2 SLP128 T00331028
94908KDBQ DBQ20071104005509711/04/07 00:55:31  5-MIN KDBQ 040655Z AUTO 20004KT 10SM CLR 03/M03 A2989 1110 64 0 200/04 RMK AO2
94908KDBQ DBQ20071104010009711/04/07 01:00:31  5-MIN KDBQ 040700Z AUTO 21004KT 10SM CLR 03/M03 A2989 1110 64 0 210/04 RMK AO2
94908KDBQ DBQ20071104010509711/04/07 01:05:31  5-MIN KDBQ 040705Z AUTO 19003KT 10SM CLR 03/M03 A2988 1110 61 0 190/03 RMK AO2
94908KDBQ DBQ20071104011009711/04/07 01:10:31  5-MIN KDBQ 040710Z AUTO 21004KT 10SM CLR 03/M03 A2988 1110 61 0 210/04 RMK AO2
94908KDBQ DBQ20071104011509711/04/07 01:15:31  5-MIN KDBQ 040715Z AUTO 23004KT 10SM CLR 03/M03 A2988 1120 61 0 230/04 RMK AO2
94908KDBQ DBQ20071104012009711/04/07 01:20:31  5-MIN KDBQ 040720Z AUTO 21005KT 10SM CLR 03/M03 A2988 1120 61 0 210/05 RMK AO2
94908KDBQ DBQ20071104012509911/04/07 01:25:31  5-MIN KDBQ 040725Z AUTO 19008KT 10SM CLR 04/M03 A2987 1120 59 100 190/08 RMK AO2
94908KDBQ DBQ20071104013009911/04/07 01:30:31  5-MIN KDBQ 040730Z AUTO 19009KT 10SM CLR 04/M03 A2987 1120 57 200 190/09 RMK AO2
94908KDBQ DBQ20071104013509911/04/07 01:35:31  5-MIN KDBQ 040735Z AUTO 19007KT 10SM CLR 04/M03 A2987 1120 59 100 190/07 RMK AO2
94908KDBQ DBQ20071104014009911/04/07 01:40:31  5-MIN KDBQ 040740Z AUTO 20008KT 10SM CLR 04/M03 A2987 1120 59 100 200/08 RMK AO2
94908KDBQ DBQ20071104014509711/04/07 01:45:31  5-MIN KDBQ 040745Z AUTO 20008KT 10SM CLR 03/M03 A2987 1120 64 0 200/08 RMK AO2
94908KDBQ DBQ20071104015011411/04/07 01:50:31  5-MIN KDBQ 040750Z AUTO 21010KT 10SM CLR 03/M03 A2987 1130 61 0 200/10 RMK AO2 SLP120 T00331033
94908KDBQ DBQ20071104015509911/04/07 01:55:31  5-MIN KDBQ 040755Z AUTO 21009KT 10SM CLR 04/M03 A2987 1130 62 100 210/09 RMK AO2
94908KDBQ DBQ20071104020009911/04/07 02:00:31  5-MIN KDBQ 040800Z AUTO 21009KT 10SM CLR 04/M03 A2987 1120 62 100 210/09 RMK AO2
94908KDBQ DBQ20071104020509911/04/07 02:05:31  5-MIN KDBQ 040805Z AUTO 23007KT 10SM CLR 04/M03 A2987 1120 62 100 230/07 RMK AO2
94908KDBQ DBQ20071104021009711/04/07 02:10:31  5-MIN KDBQ 040810Z AUTO 23007KT 10SM CLR 03/M03 A2987 1120 64 0 230/07 RMK AO2
94908KDBQ DBQ20071104021509711/04/07 02:15:31  5-MIN KDBQ 040815Z AUTO 23007KT 10SM CLR 03/M03 A2987 1120 67 0 230/07 RMK AO2
94908KDBQ DBQ20071104022009711/04/07 02:20:31  5-MIN KDBQ 040820Z AUTO 24008KT 10SM CLR 03/M03 A2987 1130 67 0 240/08 RMK AO2
94908KDBQ DBQ20071104022509711/04/07 02:25:31  5-MIN KDBQ 040825Z AUTO 24010KT 10SM CLR 03/M03 A2987 1130 67 0 240/10 RMK AO2
94908KDBQ DBQ20071104023009711/04/07 02:30:31  5-MIN KDBQ 040830Z AUTO 24010KT 10SM CLR 03/M03 A2987 1130 64 0 240/10 RMK AO2
94908KDBQ DBQ20071104023509711/04/07 02:35:31  5-MIN KDBQ 040835Z AUTO 25009KT 10SM CLR 03/M03 A2987 1130 64 0 250/09 RMK AO2
94908KDBQ DBQ20071104024009711/04/07 02:40:31  5-MIN KDBQ 040840Z AUTO 25009KT 10SM CLR 03/M02 A2987 1130 67 0 250/09 RMK AO2
94908KDBQ DBQ20071104024509711/04/07 02:45:31  5-MIN KDBQ 040845Z AUTO 25009KT 10SM CLR 03/M02 A2987 1130 69 0 250/09 RMK AO2
94908KDBQ DBQ20071104025012011/04/07 02:50:31  5-MIN KDBQ 040850Z AUTO 25010KT 10SM CLR 03/M02 A2987 1120 67 0 250/10 RMK AO2 SLP121 T00331022 58041
94908KDBQ DBQ20071104025509711/04/07 02:55:31  5-MIN KDBQ 040855Z AUTO 25009KT 10SM CLR 03/M02 A2987 1130 67 0 250/09 RMK AO2
94908KDBQ DBQ20071104030009711/04/07 03:00:31  5-MIN KDBQ 040900Z AUTO 26009KT 10SM CLR 03/M02 A2987 1130 67 0 260/09 RMK AO2
94908KDBQ DBQ20071104030509711/04/07 03:05:31  5-MIN KDBQ 040905Z AUTO 26011KT 10SM CLR 03/M02 A2987 1130 67 0 260/11 RMK AO2
94908KDBQ DBQ20071104031009911/04/07 03:10:31  5-MIN KDBQ 040910Z AUTO 26011KT 10SM CLR 04/M02 A2987 1130 64 100 260/11 RMK AO2
94908KDBQ DBQ20071104031509911/04/07 03:15:31  5-MIN KDBQ 040915Z AUTO 27011KT 10SM CLR 04/M02 A2987 1120 64 100 270/11 RMK AO2
94908KDBQ DBQ20071104032010511/04/07 03:20:31  5-MIN KDBQ 040920Z AUTO 27012G18KT 10SM CLR 04/M02 A2987 1120 64 100 270/12G18 RMK AO2
94908KDBQ DBQ20071104032509911/04/07 03:25:31  5-MIN KDBQ 040925Z AUTO 27012KT 10SM CLR 04/M02 A2987 1120 64 100 270/12 RMK AO2
94908KDBQ DBQ20071104033009911/04/07 03:30:31  5-MIN KDBQ 040930Z AUTO 27012KT 10SM CLR 04/M02 A2987 1120 64 100 270/12 RMK AO2
94908KDBQ DBQ20071104033509711/04/07 03:35:31  5-MIN KDBQ 040935Z AUTO 27012KT 10SM CLR 03/M02 A2987 1120 67 0 270/12 RMK AO2
94908KDBQ DBQ20071104034009711/04/07 03:40:31  5-MIN KDBQ 040940Z AUTO 27013KT 10SM CLR 03/M02 A2987 1130 67 0 270/13 RMK AO2
94908KDBQ DBQ20071104034509711/04/07 03:45:31  5-MIN KDBQ 040945Z AUTO 28013KT 10SM CLR 03/M02 A2987 1130 67 0 270/13 RMK AO2
94908KDBQ DBQ20071104035011411/04/07 03:50:31  5-MIN KDBQ 040950Z AUTO 28012KT 10SM CLR 03/M02 A2987 1130 67 0 270/12 RMK AO2 SLP121 T00331022
94908KDBQ DBQ20071104035509711/04/07 03:55:31  5-MIN KDBQ 040955Z AUTO 28011KT 10SM CLR 03/M02 A2987 1130 67 0 280/11 RMK AO2
94908KDBQ DBQ20071104040009711/04/07 04:00:31  5-MIN KDBQ 041000Z AUTO 28011KT 10SM CLR 03/M02 A2987 1120 67 0 280/11 RMK AO2
94908KDBQ DBQ20071104040509711/04/07 04:05:31  5-MIN KDBQ 041005Z AUTO 28013KT 10SM CLR 03/M02 A2987 1120 67 0 280/13 RMK AO2
94908KDBQ DBQ20071104041009711/04/07 04:10:31  5-MIN KDBQ 041010Z AUTO 28012KT 10SM CLR 03/M02 A2987 1120 67 0 280/12 RMK AO2
94908KDBQ DBQ20071104041509711/04/07 04:15:31  5-MIN KDBQ 041015Z AUTO 28012KT 10SM CLR 03/M02 A2987 1120 67 0 280/12 RMK AO2
94908KDBQ DBQ20071104042009711/04/07 04:20:31  5-MIN KDBQ 041020Z AUTO 28012KT 10SM CLR 03/M02 A2988 1120 67 0 280/12 RMK AO2
94908KDBQ DBQ20071104042509711/04/07 04:25:31  5-MIN KDBQ 041025Z AUTO 28013KT 10SM CLR 03/M02 A2988 1110 67 0 280/13 RMK AO2
94908KDBQ DBQ20071104043009711/04/07 04:30:31  5-MIN KDBQ 041030Z AUTO 28010KT 10SM CLR 03/M02 A2988 1120 69 0 280/10 RMK AO2
94908KDBQ DBQ20071104043509711/04/07 04:35:31  5-MIN KDBQ 041035Z AUTO 28013KT 10SM CLR 03/M02 A2988 1110 67 0 280/13 RMK AO2
94908KDBQ DBQ20071104044009711/04/07 04:40:31  5-MIN KDBQ 041040Z AUTO 28012KT 10SM CLR 03/M02 A2988 1120 69 0 280/12 RMK AO2
94908KDBQ DBQ20071104044509711/04/07 04:45:31  5-MIN KDBQ 041045Z AUTO 28011KT 10SM CLR 03/M02 A2988 1120 69 0 280/11 RMK AO2
94908KDBQ DBQ20071104045011411/04/07 04:50:31  5-MIN KDBQ 041050Z AUTO 28010KT 10SM CLR 03/M02 A2988 1110 69 0 280/10 RMK AO2 SLP125 T00281022
94908KDBQ DBQ20071104045509711/04/07 04:55:31  5-MIN KDBQ 041055Z AUTO 28010KT 10SM CLR 03/M02 A2988 1110 69 0 280/10 RMK AO2
94908KDBQ DBQ20071104050009711/04/07 05:00:31  5-MIN KDBQ 041100Z AUTO 28010KT 10SM CLR 03/M02 A2988 1110 69 0 280/10 RMK AO2
94908KDBQ DBQ20071104050509711/04/07 05:05:31  5-MIN KDBQ 041105Z AUTO 28014KT 10SM CLR 03/M02 A2989 1110 69 0 280/14 RMK AO2
94908KDBQ DBQ20071104051009711/04/07 05:10:31  5-MIN KDBQ 041110Z AUTO 28012KT 10SM CLR 03/M02 A2989 1110 69 0 280/12 RMK AO2
94908KDBQ DBQ20071104051509711/04/07 05:15:31  5-MIN KDBQ 041115Z AUTO 29011KT 10SM CLR 03/M02 A2989 1110 69 0 290/11 RMK AO2
94908KDBQ DBQ20071104052009711/04/07 05:20:31  5-MIN KDBQ 041120Z AUTO 29012KT 10SM CLR 03/M02 A2989 1110 69 0 280/12 RMK AO2
94908KDBQ DBQ20071104052510011/04/07 05:25:31  5-MIN KDBQ 041125Z AUTO 29012KT 10SM CLR 02/M02 A2989 1110 72 -100 290/12 RMK AO2
94908KDBQ DBQ20071104053010011/04/07 05:30:31  5-MIN KDBQ 041130Z AUTO 29012KT 10SM CLR 02/M02 A2989 1110 72 -100 290/12 RMK AO2
94908KDBQ DBQ20071104053510011/04/07 05:35:31  5-MIN KDBQ 041135Z AUTO 29012KT 10SM CLR 02/M02 A2989 1110 72 -100 280/12 RMK AO2
94908KDBQ DBQ20071104054010011/04/07 05:40:31  5-MIN KDBQ 041140Z AUTO 29011KT 10SM CLR 02/M02 A2989 1100 72 -100 290/11 RMK AO2
94908KDBQ DBQ20071104054510011/04/07 05:45:31  5-MIN KDBQ 041145Z AUTO 29011KT 10SM CLR 02/M02 A2989 1100 72 -100 290/11 RMK AO2
94908KDBQ DBQ20071104055013511/04/07 05:50:31  5-MIN KDBQ 041150Z AUTO 29008KT 10SM CLR 02/M02 A2990 1100 72 -100 290/08 RMK AO2 SLP132 T00221022 10067 20022 55015
94908KDBQ DBQ20071104055509511/04/07 05:55:31  5-MIN KDBQ 041155Z 28009KT 10SM CLR 02/M02 A2989 1100 72 -100 280/09 RMK AO2
94908KDBQ DBQ20071104060009511/04/07 06:00:31  5-MIN KDBQ 041200Z 29009KT 10SM CLR 02/M02 A2989 1100 72 -100 290/09 RMK AO2
94908KDBQ DBQ20071104060510111/04/07 06:05:31  5-MIN KDBQ 041205Z 29009G16KT 10SM CLR 02/M02 A2989 1100 75 -200 290/09G16 RMK AO2
94908KDBQ DBQ20071104072509511/04/07 07:25:31  5-MIN KDBQ 041325Z 29009KT 10SM CLR 02/M02 A2991 1090 75 -100 290/09 RMK AO2
94908KDBQ DBQ20071104073009511/04/07 07:30:31  5-MIN KDBQ 041330Z 29011KT 10SM CLR 02/M02 A2991 1090 75 -100 290/11 RMK AO2
94908KDBQ DBQ20071104073509511/04/07 07:35:31  5-MIN KDBQ 041335Z 28012KT 10SM CLR 02/M02 A2992 1080 75 -100 280/12 RMK AO2
94908KDBQ DBQ20071104074009511/04/07 07:40:31  5-MIN KDBQ 041340Z 29012KT 10SM CLR 03/M02 A2992 1080 72 -100 290/12 RMK AO2
94908KDBQ DBQ20071104074509511/04/07 07:45:31  5-MIN KDBQ 041345Z 29009KT 10SM CLR 03/M02 A2992 1080 72 -100 280/09 RMK AO2
94908KDBQ DBQ20071104075011211/04/07 07:50:31  5-MIN KDBQ 041350Z 29011KT 10SM CLR 03/M02 A2992 1080 72 -100 290/11 RMK AO2 SLP140 T00281017
94908KDBQ DBQ20071104075509211/04/07 07:55:31  5-MIN KDBQ 041355Z 29012KT 10SM CLR 03/M02 A2992 1080 70 0 290/12 RMK AO2
94908KDBQ DBQ20071104080009211/04/07 08:00:31  5-MIN KDBQ 041400Z 29012KT 10SM CLR 03/M02 A2992 1070 70 0 290/12 RMK AO2
94908KDBQ DBQ20071104080509211/04/07 08:05:31  5-MIN KDBQ 041405Z 30011KT 10SM CLR 03/M01 A2993 1070 72 0 290/11 RMK AO2
94908KDBQ DBQ20071104081009211/04/07 08:10:31  5-MIN KDBQ 041410Z 30011KT 10SM CLR 04/M01 A2993 1070 70 0 300/11 RMK AO2
94908KDBQ DBQ20071104081509411/04/07 08:15:31  5-MIN KDBQ 041415Z 31012KT 10SM CLR 04/M01 A2992 1070 67 100 310/12 RMK AO2
94908KDBQ DBQ20071104082009411/04/07 08:20:31  5-MIN KDBQ 041420Z 31011KT 10SM CLR 04/M01 A2992 1070 67 100 310/11 RMK AO2
94908KDBQ DBQ20071104082509411/04/07 08:25:31  5-MIN KDBQ 041425Z 31013KT 10SM CLR 05/M01 A2992 1080 64 200 310/13 RMK AO2
94908KDBQ DBQ20071104083009411/04/07 08:30:31  5-MIN KDBQ 041430Z 30013KT 10SM CLR 05/M01 A2993 1070 67 200 300/13 RMK AO2
94908KDBQ DBQ20071104083509411/04/07 08:35:31  5-MIN KDBQ 041435Z 31013KT 10SM CLR 06/M01 A2993 1070 65 200 310/13 RMK AO2
94908KDBQ DBQ20071104084009411/04/07 08:40:31  5-MIN KDBQ 041440Z 31012KT 10SM CLR 06/M01 A2993 1070 62 200 310/12 RMK AO2
94908KDBQ DBQ20071104084509411/04/07 08:45:31  5-MIN KDBQ 041445Z 31013KT 10SM CLR 06/M01 A2993 1070 65 200 310/13 RMK AO2
94908KDBQ DBQ20071104085012311/04/07 08:50:31  5-MIN KDBQ 041450Z 30011G20KT 10SM CLR 06/M01 A2993 1070 62 300 300/11G20 RMK AO2 SLP143 T00611006 53008
94908KDBQ DBQ20071104085510011/04/07 08:55:31  5-MIN KDBQ 041455Z 31012G20KT 10SM CLR 06/M01 A2993 1070 62 300 310/12G20 RMK AO2
94908KDBQ DBQ20071104090009411/04/07 09:00:31  5-MIN KDBQ 041500Z 30011KT 10SM CLR 06/M01 A2993 1070 62 300 300/11 RMK AO2
94908KDBQ DBQ20071104090509411/04/07 09:05:31  5-MIN KDBQ 041505Z 30011KT 10SM CLR 07/M01 A2994 1060 60 400 300/11 RMK AO2
94908KDBQ DBQ20071104091009311/04/07 09:10:31  5-MIN KDBQ 041510Z 30012KT 10SM CLR 07/00 A2993 1070 60 400 300/12 RMK AO2
94908KDBQ DBQ20071104091510011/04/07 09:15:31  5-MIN KDBQ 041515Z 30011G17KT 10SM CLR 07/M01 A2994 1060 57 400 300/11G17 RMK AO2
94908KDBQ DBQ20071104092009411/04/07 09:20:31  5-MIN KDBQ 041520Z 31012KT 10SM CLR 07/M01 A2994 1060 57 400 300/12 RMK AO2
94908KDBQ DBQ20071104092509411/04/07 09:25:31  5-MIN KDBQ 041525Z 30014KT 10SM CLR 08/M01 A2994 1060 55 500 300/14 RMK AO2
94908KDBQ DBQ20071104093009411/04/07 09:30:31  5-MIN KDBQ 041530Z 31010KT 10SM CLR 08/M01 A2994 1060 55 500 310/10 RMK AO2
94908KDBQ DBQ20071104093509411/04/07 09:35:31  5-MIN KDBQ 041535Z 31013KT 10SM CLR 08/M01 A2994 1060 53 600 310/13 RMK AO2
94908KDBQ DBQ20071104094009411/04/07 09:40:31  5-MIN KDBQ 041540Z 32015KT 10SM CLR 08/M01 A2994 1060 53 600 320/15 RMK AO2
94908KDBQ DBQ20071104094510011/04/07 09:45:31  5-MIN KDBQ 041545Z 32016G20KT 10SM CLR 08/M01 A2994 1060 51 600 320/16G20 RMK AO2
94908KDBQ DBQ20071104095011111/04/07 09:50:31  5-MIN KDBQ 041550Z 32014KT 10SM CLR 09/M01 A2994 1060 49 600 320/14 RMK AO2 SLP143 T00891011
94908KDBQ DBQ20071104095510011/04/07 09:55:31  5-MIN KDBQ 041555Z 32016G20KT 10SM CLR 09/M01 A2994 1060 51 600 320/16G20 RMK AO2
94908KDBQ DBQ20071104100010011/04/07 10:00:31  5-MIN KDBQ 041600Z 32012G20KT 10SM CLR 09/M01 A2994 1060 49 600 320/12G20 RMK AO2
94908KDBQ DBQ20071104100510011/04/07 10:05:31  5-MIN KDBQ 041605Z 32013G19KT 10SM CLR 09/M01 A2994 1060 49 700 320/13G19 RMK AO2
94908KDBQ DBQ20071104101010011/04/07 10:10:31  5-MIN KDBQ 041610Z 31015G19KT 10SM CLR 09/M01 A2994 1060 49 700 310/15G19 RMK AO2
94908KDBQ DBQ20071104101510011/04/07 10:15:31  5-MIN KDBQ 041615Z 32011G19KT 10SM CLR 09/M02 A2995 1050 45 700 320/11G19 RMK AO2
94908KDBQ DBQ20071104102009411/04/07 10:20:31  5-MIN KDBQ 041620Z 32012KT 10SM CLR 10/M01 A2995 1050 46 700 320/12 RMK AO2
94908KDBQ DBQ20071104102510011/04/07 10:25:31  5-MIN KDBQ 041625Z 33013G19KT 10SM CLR 10/M01 A2994 1060 46 700 330/13G19 RMK AO2
94908KDBQ DBQ20071104103010011/04/07 10:30:31  5-MIN KDBQ 041630Z 31011G19KT 10SM CLR 10/M01 A2995 1060 46 700 310/11G19 RMK AO2
94908KDBQ DBQ20071104103509411/04/07 10:35:31  5-MIN KDBQ 041635Z 31012KT 10SM CLR 10/M02 A2995 1050 44 700 310/12 RMK AO2
94908KDBQ DBQ20071104104009411/04/07 10:40:31  5-MIN KDBQ 041640Z 31011KT 10SM CLR 10/M02 A2995 1050 44 700 310/11 RMK AO2
94908KDBQ DBQ20071104104510011/04/07 10:45:31  5-MIN KDBQ 041645Z 31011G17KT 10SM CLR 11/M02 A2995 1050 42 800 310/11G17 RMK AO2
94908KDBQ DBQ20071104105011711/04/07 10:50:31  5-MIN KDBQ 041650Z 30014G22KT 10SM CLR 11/M02 A2995 1050 42 800 300/14G22 RMK AO2 SLP146 T01061017
94908KDBQ DBQ20071104105510011/04/07 10:55:31  5-MIN KDBQ 041655Z 31013G22KT 10SM CLR 11/M02 A2995 1050 40 800 310/13G22 RMK AO2
94908KDBQ DBQ20071104110010011/04/07 11:00:31  5-MIN KDBQ 041700Z 30013G19KT 10SM CLR 11/M02 A2995 1050 40 800 300/13G19 RMK AO2
94908KDBQ DBQ20071104110510011/04/07 11:05:31  5-MIN KDBQ 041705Z 31013G23KT 10SM CLR 11/M02 A2995 1050 40 800 310/13G23 RMK AO2
94908KDBQ DBQ20071104111008611/04/07 11:10:31  5-MIN KDBQ 041710Z 10SM CLR 11/M02 A2995 1050 39 900 M /M RMK AO2 $
94908KDBQ DBQ20071104111510211/04/07 11:15:31  5-MIN KDBQ 041715Z 31016G22KT 10SM CLR 11/M02 A2995 1050 41 900 310/16G22 RMK AO2 $
94908KDBQ DBQ20071104112010211/04/07 11:20:31  5-MIN KDBQ 041720Z 31016G22KT 10SM CLR 11/M03 A2995 1050 37 900 310/16G22 RMK AO2 $
94908KDBQ DBQ20071104112510211/04/07 11:25:31  5-MIN KDBQ 041725Z 31016G22KT 10SM CLR 11/M03 A2995 1050 37 900 310/16G22 RMK AO2 $
94908KDBQ DBQ20071104113010211/04/07 11:30:31  5-MIN KDBQ 041730Z 31016G22KT 10SM CLR 11/M03 A2995 1060 37 900 310/16G22 RMK AO2 $
94908KDBQ DBQ20071104113510211/04/07 11:35:31  5-MIN KDBQ 041735Z 31016G22KT 10SM CLR 11/M03 A2995 1060 36 900 310/16G22 RMK AO2 $
94908KDBQ DBQ20071104114010211/04/07 11:40:31  5-MIN KDBQ 041740Z 31016G22KT 10SM CLR 12/M03 A2995 1060 36 900 310/16G22 RMK AO2 $
94908KDBQ DBQ20071104114510211/04/07 11:45:31  5-MIN KDBQ 041745Z 31016G22KT 10SM CLR 12/M02 A2994 1060 38 900 310/16G22 RMK AO2 $
94908KDBQ DBQ20071104115013711/04/07 11:50:31  5-MIN KDBQ 041750Z 31016G22KT 10SM CLR 12/M03 A2994 1060 35 900 310/16G22 RMK AO2 SLP145 T01171033 10117 20017 52013 $
94908KDBQ DBQ20071104115510211/04/07 11:55:31  5-MIN KDBQ 041755Z 30017G25KT 10SM CLR 12/M03 A2994 1060 35 900 300/17G25 RMK AO2 $
94908KDBQ DBQ20071104120010311/04/07 12:00:31  5-MIN KDBQ 041800Z 31017G25KT 10SM CLR 12/M04 A2994 1060 33 1000 310/17G25 RMK AO2 $
94908KDBQ DBQ20071104120510311/04/07 12:05:31  5-MIN KDBQ 041805Z 32016G25KT 10SM CLR 12/M04 A2994 1060 33 1000 320/16G25 RMK AO2 $
94908KDBQ DBQ20071104121010311/04/07 12:10:31  5-MIN KDBQ 041810Z 31014G21KT 10SM CLR 12/M04 A2994 1060 33 1000 310/14G21 RMK AO2 $
94908KDBQ DBQ20071104121510311/04/07 12:15:31  5-MIN KDBQ 041815Z 31014G19KT 10SM CLR 12/M03 A2993 1070 33 1000 310/14G19 RMK AO2 $
94908KDBQ DBQ20071104122010311/04/07 12:20:31  5-MIN KDBQ 041820Z 30012G19KT 10SM CLR 13/M03 A2993 1070 33 1100 300/12G19 RMK AO2 $
94908KDBQ DBQ20071104122510311/04/07 12:25:31  5-MIN KDBQ 041825Z 30011G16KT 10SM CLR 12/M03 A2993 1070 35 1000 290/11G16 RMK AO2 $
94908KDBQ DBQ20071104123009711/04/07 12:30:31  5-MIN KDBQ 041830Z 31010KT 10SM CLR 12/M03 A2993 1070 35 1000 310/10 RMK AO2 $
94908KDBQ DBQ20071104123509711/04/07 12:35:31  5-MIN KDBQ 041835Z 29011KT 10SM CLR 13/M03 A2993 1070 33 1100 290/11 RMK AO2 $
94908KDBQ DBQ20071104124010311/04/07 12:40:31  5-MIN KDBQ 041840Z 28016G20KT 10SM CLR 12/M03 A2992 1080 33 1000 280/16G20 RMK AO2 $
94908KDBQ DBQ20071104124510311/04/07 12:45:31  5-MIN KDBQ 041845Z 29012G20KT 10SM CLR 12/M04 A2992 1080 32 1000 280/12G20 RMK AO2 $
94908KDBQ DBQ20071104125012011/04/07 12:50:31  5-MIN KDBQ 041850Z 30015G20KT 10SM CLR 12/M04 A2992 1080 32 1000 290/15G20 RMK AO2 SLP137 T01221039 $
94908KDBQ DBQ20071104125510311/04/07 12:55:31  5-MIN KDBQ 041855Z 29011G20KT 10SM CLR 12/M03 A2992 1080 33 1000 290/11G20 RMK AO2 $
94908KDBQ DBQ20071104130010311/04/07 13:00:31  5-MIN KDBQ 041900Z 30014G22KT 10SM CLR 13/M03 A2991 1080 32 1100 290/14G22 RMK AO2 $
94908KDBQ DBQ20071104130510311/04/07 13:05:31  5-MIN KDBQ 041905Z 30014G22KT 10SM CLR 13/M03 A2991 1090 32 1100 300/14G22 RMK AO2 $
94908KDBQ DBQ20071104131010311/04/07 13:10:31  5-MIN KDBQ 041910Z 28012G20KT 10SM CLR 13/M03 A2991 1090 32 1100 280/12G20 RMK AO2 $
94908KDBQ DBQ20071104131510311/04/07 13:15:31  5-MIN KDBQ 041915Z 29015G19KT 10SM CLR 13/M03 A2991 1090 33 1100 290/15G19 RMK AO2 $
94908KDBQ DBQ20071104132010311/04/07 13:20:31  5-MIN KDBQ 041920Z 28012G19KT 10SM CLR 13/M03 A2991 1090 32 1100 280/12G19 RMK AO2 $
94908KDBQ DBQ20071104132510311/04/07 13:25:31  5-MIN KDBQ 041925Z 27012G19KT 10SM CLR 13/M03 A2991 1090 32 1100 270/12G19 RMK AO2 $
94908KDBQ DBQ20071104133013711/04/07 13:30:31  5-MIN KDBQ 041930Z 27014G26KT 240V310 10SM CLR 12/M03 A2991 1090 33 1100 270/14G26 240V310 RMK AO2 PK WND 31026/1929 $
94908KDBQ DBQ20071104133512111/04/07 13:35:31  5-MIN KDBQ 041935Z 28014G26KT 10SM CLR 13/M03 A2991 1090 33 1100 280/14G26 RMK AO2 PK WND 31026/1929 $
94908KDBQ DBQ20071104134012111/04/07 13:40:31  5-MIN KDBQ 041940Z 26015G20KT 10SM CLR 13/M03 A2990 1090 32 1100 260/15G20 RMK AO2 PK WND 31026/1929 $
94908KDBQ DBQ20071104134512111/04/07 13:45:31  5-MIN KDBQ 041945Z 27017G20KT 10SM CLR 13/M03 A2990 1100 32 1100 270/17G20 RMK AO2 PK WND 31026/1929 $
94908KDBQ DBQ20071104135013811/04/07 13:50:31  5-MIN KDBQ 041950Z 28013G22KT 10SM CLR 13/M04 A2990 1090 31 1100 280/13G22 RMK AO2 PK WND 31026/1929 SLP131 T01281039 $
94908KDBQ DBQ20071104135510311/04/07 13:55:31  5-MIN KDBQ 041955Z 29011G22KT 10SM CLR 13/M03 A2990 1100 32 1100 290/11G22 RMK AO2 $
94908KDBQ DBQ20071104140010311/04/07 14:00:31  5-MIN KDBQ 042000Z 29013G19KT 10SM CLR 13/M03 A2990 1100 31 1200 290/13G19 RMK AO2 $
94908KDBQ DBQ20071104140509711/04/07 14:05:31  5-MIN KDBQ 042005Z 29010KT 10SM CLR 13/M03 A2990 1100 32 1100 290/10 RMK AO2 $
94908KDBQ DBQ20071104141009711/04/07 14:10:31  5-MIN KDBQ 042010Z 29010KT 10SM CLR 13/M03 A2990 1100 32 1200 290/10 RMK AO2 $
94908KDBQ DBQ20071104141509711/04/07 14:15:31  5-MIN KDBQ 042015Z 30009KT 10SM CLR 13/M03 A2990 1100 32 1200 300/09 RMK AO2 $
94908KDBQ DBQ20071104142010311/04/07 14:20:31  5-MIN KDBQ 042020Z 31011G15KT 10SM CLR 13/M03 A2989 1100 32 1200 310/11G15 RMK AO2 $
94908KDBQ DBQ20071104142510311/04/07 14:25:31  5-MIN KDBQ 042025Z 29008G15KT 10SM CLR 13/M03 A2989 1100 32 1200 290/08G15 RMK AO2 $
94908KDBQ DBQ20071104143009711/04/07 14:30:31  5-MIN KDBQ 042030Z 29010KT 10SM CLR 13/M03 A2989 1100 32 1200 290/10 RMK AO2 $
94908KDBQ DBQ20071104143510311/04/07 14:35:31  5-MIN KDBQ 042035Z 27011G16KT 10SM CLR 13/M03 A2989 1100 32 1200 270/11G16 RMK AO2 $
94908KDBQ DBQ20071104144009711/04/07 14:40:31  5-MIN KDBQ 042040Z 27011KT 10SM CLR 13/M03 A2989 1110 31 1200 270/11 RMK AO2 $
94908KDBQ DBQ20071104144509711/04/07 14:45:31  5-MIN KDBQ 042045Z 28010KT 10SM CLR 13/M03 A2989 1110 31 1200 280/10 RMK AO2 $
94908KDBQ DBQ20071104145012011/04/07 14:50:31  5-MIN KDBQ 042050Z 29012KT 10SM CLR 13/M03 A2989 1110 31 1200 290/12 RMK AO2 SLP126 T01331033 50003 $
94908KDBQ DBQ20071104145509711/04/07 14:55:31  5-MIN KDBQ 042055Z 28010KT 10SM CLR 13/M03 A2989 1110 31 1200 270/10 RMK AO2 $
94908KDBQ DBQ20071104150009711/04/07 15:00:31  5-MIN KDBQ 042100Z 28010KT 10SM CLR 13/M03 A2989 1110 31 1200 280/10 RMK AO2 $
94908KDBQ DBQ20071104150509711/04/07 15:05:31  5-MIN KDBQ 042105Z 27008KT 10SM CLR 13/M03 A2989 1110 31 1200 270/08 RMK AO2 $
94908KDBQ DBQ20071104151009711/04/07 15:10:31  5-MIN KDBQ 042110Z 29011KT 10SM CLR 13/M03 A2988 1110 31 1200 280/11 RMK AO2 $
94908KDBQ DBQ20071104151509711/04/07 15:15:31  5-MIN KDBQ 042115Z 28010KT 10SM CLR 13/M03 A2988 1110 31 1200 280/10 RMK AO2 $
94908KDBQ DBQ20071104152009711/04/07 15:20:31  5-MIN KDBQ 042120Z 28010KT 10SM CLR 13/M04 A2988 1110 30 1200 280/10 RMK AO2 $
94908KDBQ DBQ20071104152509711/04/07 15:25:31  5-MIN KDBQ 042125Z 28009KT 10SM CLR 13/M04 A2988 1110 30 1200 280/09 RMK AO2 $
94908KDBQ DBQ20071104153009711/04/07 15:30:31  5-MIN KDBQ 042130Z 26010KT 10SM CLR 13/M04 A2989 1110 30 1200 260/10 RMK AO2 $
94908KDBQ DBQ20071104153509711/04/07 15:35:31  5-MIN KDBQ 042135Z 26010KT 10SM CLR 13/M04 A2989 1110 31 1100 260/10 RMK AO2 $
94908KDBQ DBQ20071104154009711/04/07 15:40:31  5-MIN KDBQ 042140Z 27009KT 10SM CLR 13/M04 A2988 1110 31 1100 270/09 RMK AO2 $
94908KDBQ DBQ20071104154509711/04/07 15:45:31  5-MIN KDBQ 042145Z 28008KT 10SM CLR 13/M03 A2988 1110 32 1100 280/08 RMK AO2 $
94908KDBQ DBQ20071104155011411/04/07 15:50:31  5-MIN KDBQ 042150Z 27008KT 10SM CLR 13/M03 A2988 1120 32 1200 270/08 RMK AO2 SLP123 T01281033 $
94908KDBQ DBQ20071104155509711/04/07 15:55:31  5-MIN KDBQ 042155Z 26005KT 10SM CLR 12/M03 A2988 1120 33 1100 260/05 RMK AO2 $
94908KDBQ DBQ20071104160009711/04/07 16:00:31  5-MIN KDBQ 042200Z 27006KT 10SM CLR 12/M03 A2988 1120 35 1000 260/06 RMK AO2 $
94908KDBQ DBQ20071104160509711/04/07 16:05:31  5-MIN KDBQ 042205Z 26005KT 10SM CLR 12/M03 A2987 1120 35 1000 260/05 RMK AO2 $
94908KDBQ DBQ20071104161009911/04/07 16:10:31  5-MIN KDBQ 042210Z 26005KT 6SM HZ CLR 11/M03 A2987 1120 36 1000 260/05 RMK AO2 $
94908KDBQ DBQ20071104161509911/04/07 16:15:31  5-MIN KDBQ 042215Z 25005KT 6SM HZ CLR 11/M03 A2987 1130 36 1000 250/05 RMK AO2 $
94908KDBQ DBQ20071104162009511/04/07 16:20:31  5-MIN KDBQ 042220Z 24004KT 9SM CLR 11/M03 A2987 1130 37 900 240/04 RMK AO2 $
94908KDBQ DBQ20071104162509711/04/07 16:25:31  5-MIN KDBQ 042225Z 22003KT 10SM CLR 11/M03 A2987 1130 36 1000 220/03 RMK AO2 $
94908KDBQ DBQ20071104163009611/04/07 16:30:31  5-MIN KDBQ 042230Z 21004KT 10SM CLR 11/M03 A2987 1130 37 900 200/04 RMK AO2 $
94908KDBQ DBQ20071104163509611/04/07 16:35:31  5-MIN KDBQ 042235Z 21004KT 10SM CLR 10/M03 A2986 1130 39 800 210/04 RMK AO2 $
94908KDBQ DBQ20071104164009611/04/07 16:40:31  5-MIN KDBQ 042240Z 20003KT 10SM CLR 10/M03 A2986 1130 39 800 200/03 RMK AO2 $
94908KDBQ DBQ20071104164509611/04/07 16:45:31  5-MIN KDBQ 042245Z 21003KT 10SM CLR 10/M03 A2986 1130 39 800 210/03 RMK AO2 $
94908KDBQ DBQ20071104165011311/04/07 16:50:31  5-MIN KDBQ 042250Z 00000KT 10SM CLR 09/M04 A2986 1130 39 800 000/00 RMK AO2 SLP118 T00941039 $
94908KDBQ DBQ20071104165509911/04/07 16:55:31  5-MIN KDBQ 042255Z 00000KT 10SM FEW120 09/M04 A2986 1140 39 800 000/00 RMK AO2 $
94908KDBQ DBQ20071104170009911/04/07 17:00:31  5-MIN KDBQ 042300Z 21003KT 10SM SCT120 09/M04 A2986 1140 39 800 210/03 RMK AO2 $
94908KDBQ DBQ20071104170509911/04/07 17:05:31  5-MIN KDBQ 042305Z 21003KT 10SM SCT120 09/M03 A2986 1140 42 700 210/03 RMK AO2 $
94908KDBQ DBQ20071104171009911/04/07 17:10:31  5-MIN KDBQ 042310Z 21003KT 10SM SCT120 09/M03 A2986 1140 42 700 210/03 RMK AO2 $
94908KDBQ DBQ20071104171509911/04/07 17:15:31  5-MIN KDBQ 042315Z 20004KT 10SM SCT120 08/M03 A2985 1140 43 700 200/04 RMK AO2 $
94908KDBQ DBQ20071104172009911/04/07 17:20:31  5-MIN KDBQ 042320Z 19004KT 10SM SCT120 08/M03 A2985 1140 45 600 190/04 RMK AO2 $
94908KDBQ DBQ20071104172509911/04/07 17:25:31  5-MIN KDBQ 042325Z 18005KT 10SM FEW120 07/M03 A2985 1140 47 500 180/05 RMK AO2 $
94908KDBQ DBQ20071104173009911/04/07 17:30:31  5-MIN KDBQ 042330Z 18004KT 10SM FEW110 07/M03 A2985 1140 49 400 180/04 RMK AO2 $
94908KDBQ DBQ20071104173509911/04/07 17:35:31  5-MIN KDBQ 042335Z 18004KT 10SM SCT100 06/M02 A2985 1140 55 400 180/04 RMK AO2 $
94908KDBQ DBQ20071104174009911/04/07 17:40:31  5-MIN KDBQ 042340Z 18004KT 10SM BKN100 06/M02 A2985 1140 55 400 180/04 RMK AO2 $
94908KDBQ DBQ20071104174509911/04/07 17:45:31  5-MIN KDBQ 042345Z 17005KT 10SM BKN100 08/M03 A2985 1150 47 600 170/05 RMK AO2 $
94908KDBQ DBQ20071104175013411/04/07 17:50:31  5-MIN KDBQ 042350Z 18005KT 10SM BKN100 08/M03 A2985 1150 47 600 180/05 RMK AO2 SLP115 T00781028 10133 20061 56019 $
94908KDBQ DBQ20071104175509911/04/07 17:55:31  5-MIN KDBQ 042355Z 18005KT 10SM OVC100 08/M03 A2985 1150 47 600 180/05 RMK AO2 $
94908KDBQ DBQ20071104180009911/04/07 18:00:31  5-MIN KDBQ 050000Z 18005KT 10SM BKN100 08/M03 A2985 1150 47 600 180/05 RMK AO2 $
94908KDBQ DBQ20071104180509911/04/07 18:05:31  5-MIN KDBQ 050005Z 17004KT 10SM BKN100 08/M03 A2984 1150 47 600 170/04 RMK AO2 $
94908KDBQ DBQ20071104181009911/04/07 18:10:31  5-MIN KDBQ 050010Z 18004KT 10SM SCT100 08/M03 A2984 1150 47 600 180/04 RMK AO2 $
94908KDBQ DBQ20071104181509911/04/07 18:15:31  5-MIN KDBQ 050015Z 19006KT 10SM SCT100 07/M02 A2985 1150 51 500 190/06 RMK AO2 $
94908KDBQ DBQ20071104182009911/04/07 18:20:31  5-MIN KDBQ 050020Z 19004KT 10SM SCT110 08/M02 A2984 1150 49 600 180/04 RMK AO2 $
94908KDBQ DBQ20071104182509911/04/07 18:25:31  5-MIN KDBQ 050025Z 19004KT 10SM SCT120 07/M02 A2985 1150 51 500 180/04 RMK AO2 $
94908KDBQ DBQ20071104183009911/04/07 18:30:31  5-MIN KDBQ 050030Z 19004KT 10SM SCT110 08/M02 A2984 1150 49 600 190/04 RMK AO2 $
94908KDBQ DBQ20071104183509911/04/07 18:35:31  5-MIN KDBQ 050035Z 18005KT 10SM SCT120 08/M02 A2984 1150 49 600 180/05 RMK AO2 $
94908KDBQ DBQ20071104184009911/04/07 18:40:31  5-MIN KDBQ 050040Z 18004KT 10SM BKN120 08/M02 A2984 1150 51 600 180/04 RMK AO2 $
94908KDBQ DBQ20071104184509911/04/07 18:45:31  5-MIN KDBQ 050045Z 17006KT 10SM BKN120 08/M02 A2984 1150 47 700 170/06 RMK AO2 $
94908KDBQ DBQ20071104185011611/04/07 18:50:31  5-MIN KDBQ 050050Z 17007KT 10SM BKN120 09/M03 A2983 1160 43 700 170/07 RMK AO2 SLP109 T00891028 $
94908KDBQ DBQ20071104185509911/04/07 18:55:31  5-MIN KDBQ 050055Z 17008KT 10SM BKN120 09/M03 A2983 1160 42 800 170/08 RMK AO2 $
94908KDBQ DBQ20071104190009911/04/07 19:00:31  5-MIN KDBQ 050100Z 17008KT 10SM OVC120 09/M03 A2983 1160 42 800 170/08 RMK AO2 $
94908KDBQ DBQ20071104190509911/04/07 19:05:31  5-MIN KDBQ 050105Z 17008KT 10SM OVC120 09/M03 A2983 1160 42 800 170/08 RMK AO2 $
94908KDBQ DBQ20071104191009911/04/07 19:10:31  5-MIN KDBQ 050110Z 17007KT 10SM OVC120 09/M03 A2983 1160 42 800 170/07 RMK AO2 $
94908KDBQ DBQ20071104191509911/04/07 19:15:31  5-MIN KDBQ 050115Z 18006KT 10SM OVC120 09/M03 A2983 1160 42 800 180/06 RMK AO2 $
94908KDBQ DBQ20071104192009911/04/07 19:20:31  5-MIN KDBQ 050120Z 20004KT 10SM OVC120 08/M02 A2983 1160 47 700 200/04 RMK AO2 $
94908KDBQ DBQ20071104192509911/04/07 19:25:31  5-MIN KDBQ 050125Z 20005KT 10SM OVC120 08/M02 A2983 1160 49 700 200/05 RMK AO2 $
94908KDBQ DBQ20071104193009911/04/07 19:30:31  5-MIN KDBQ 050130Z 20005KT 10SM OVC120 09/M02 A2983 1160 45 700 200/05 RMK AO2 $
94908KDBQ DBQ20071104193509911/04/07 19:35:31  5-MIN KDBQ 050135Z 19005KT 10SM OVC120 08/M02 A2983 1160 49 700 190/05 RMK AO2 $
94908KDBQ DBQ20071104194009911/04/07 19:40:31  5-MIN KDBQ 050140Z 19005KT 10SM OVC120 08/M02 A2983 1170 49 700 190/05 RMK AO2 $
94908KDBQ DBQ20071104194509911/04/07 19:45:31  5-MIN KDBQ 050145Z 19005KT 10SM OVC120 08/M02 A2982 1170 49 700 190/05 RMK AO2 $
94908KDBQ DBQ20071104195012311/04/07 19:50:31  5-MIN KDBQ 050150Z 19006KT 10SM SCT100 OVC120 08/M02 A2982 1170 49 700 190/06 RMK AO2 SLP104 T00831017 $
94908KDBQ DBQ20071104195510611/04/07 19:55:31  5-MIN KDBQ 050155Z 19007KT 10SM BKN100 OVC120 08/M02 A2981 1180 49 700 190/07 RMK AO2 $
94908KDBQ DBQ20071104200010911/04/07 20:00:31  5-MIN KDBQ 050200Z AUTO 19006KT 10SM OVC110 08/M02 A2982 1170 49 700 190/06 RMK AO2 TSNO $
94908KDBQ DBQ20071104200510911/04/07 20:05:31  5-MIN KDBQ 050205Z AUTO 21006KT 10SM OVC110 08/M02 A2982 1180 49 700 210/06 RMK AO2 TSNO $
94908KDBQ DBQ20071104201010911/04/07 20:10:31  5-MIN KDBQ 050210Z AUTO 21006KT 10SM OVC110 08/M02 A2981 1180 51 600 210/06 RMK AO2 TSNO $
94908KDBQ DBQ20071104201510911/04/07 20:15:31  5-MIN KDBQ 050215Z AUTO 20006KT 10SM OVC110 08/M02 A2981 1180 51 600 200/06 RMK AO2 TSNO $
94908KDBQ DBQ20071104202010911/04/07 20:20:31  5-MIN KDBQ 050220Z AUTO 19007KT 10SM OVC110 08/M02 A2981 1180 51 600 190/07 RMK AO2 TSNO $
94908KDBQ DBQ20071104202510911/04/07 20:25:31  5-MIN KDBQ 050225Z AUTO 19007KT 10SM OVC110 08/M02 A2981 1180 49 700 190/07 RMK AO2 TSNO $
94908KDBQ DBQ20071104203010911/04/07 20:30:31  5-MIN KDBQ 050230Z AUTO 20007KT 10SM OVC110 08/M02 A2981 1180 47 700 190/07 RMK AO2 TSNO $
94908KDBQ DBQ20071104203510911/04/07 20:35:31  5-MIN KDBQ 050235Z AUTO 20007KT 10SM OVC110 08/M02 A2981 1180 49 700 200/07 RMK AO2 TSNO $
94908KDBQ DBQ20071104204010911/04/07 20:40:31  5-MIN KDBQ 050240Z AUTO 20007KT 10SM OVC110 08/M02 A2981 1180 49 700 200/07 RMK AO2 TSNO $
94908KDBQ DBQ20071104204510911/04/07 20:45:31  5-MIN KDBQ 050245Z AUTO 20008KT 10SM OVC110 08/M02 A2980 1190 49 700 200/08 RMK AO2 TSNO $
94908KDBQ DBQ20071104205013211/04/07 20:50:31  5-MIN KDBQ 050250Z AUTO 21007KT 10SM OVC110 08/M02 A2980 1190 49 700 210/07 RMK AO2 SLP097 T00831017 58013 TSNO $
94908KDBQ DBQ20071104205510911/04/07 20:55:31  5-MIN KDBQ 050255Z AUTO 20008KT 10SM OVC110 08/M02 A2980 1190 51 600 200/08 RMK AO2 TSNO $
94908KDBQ DBQ20071104210010911/04/07 21:00:31  5-MIN KDBQ 050300Z AUTO 20010KT 10SM OVC110 08/M02 A2980 1190 47 700 200/10 RMK AO2 TSNO $
94908KDBQ DBQ20071104210510911/04/07 21:05:31  5-MIN KDBQ 050305Z AUTO 20010KT 10SM OVC110 08/M02 A2980 1190 47 700 200/10 RMK AO2 TSNO $
94908KDBQ DBQ20071104211010911/04/07 21:10:31  5-MIN KDBQ 050310Z AUTO 21010KT 10SM OVC110 08/M02 A2980 1190 47 700 200/10 RMK AO2 TSNO $
94908KDBQ DBQ20071104211510911/04/07 21:15:31  5-MIN KDBQ 050315Z AUTO 21010KT 10SM OVC110 08/M02 A2980 1190 49 700 210/10 RMK AO2 TSNO $
94908KDBQ DBQ20071104212010911/04/07 21:20:31  5-MIN KDBQ 050320Z AUTO 21010KT 10SM OVC110 08/M02 A2980 1190 47 700 210/10 RMK AO2 TSNO $
94908KDBQ DBQ20071104212510911/04/07 21:25:31  5-MIN KDBQ 050325Z AUTO 21010KT 10SM OVC110 08/M02 A2980 1190 49 700 200/10 RMK AO2 TSNO $
94908KDBQ DBQ20071104213010911/04/07 21:30:31  5-MIN KDBQ 050330Z AUTO 20010KT 10SM OVC120 08/M02 A2980 1190 49 700 200/10 RMK AO2 TSNO $
94908KDBQ DBQ20071104213510911/04/07 21:35:31  5-MIN KDBQ 050335Z AUTO 20010KT 10SM OVC120 08/M02 A2979 1190 49 700 200/10 RMK AO2 TSNO $
94908KDBQ DBQ20071104214010911/04/07 21:40:31  5-MIN KDBQ 050340Z AUTO 20011KT 10SM OVC110 09/M02 A2979 1200 47 800 200/11 RMK AO2 TSNO $
94908KDBQ DBQ20071104214510911/04/07 21:45:31  5-MIN KDBQ 050345Z AUTO 20011KT 10SM OVC110 09/M02 A2979 1200 45 800 200/11 RMK AO2 TSNO $
94908KDBQ DBQ20071104215012611/04/07 21:50:31  5-MIN KDBQ 050350Z AUTO 20012KT 10SM OVC110 09/M02 A2979 1200 45 800 200/12 RMK AO2 SLP091 T00891022 TSNO $
94908KDBQ DBQ20071104215510911/04/07 21:55:31  5-MIN KDBQ 050355Z AUTO 20012KT 10SM OVC110 09/M02 A2978 1210 44 900 200/12 RMK AO2 TSNO $
94908KDBQ DBQ20071104220010911/04/07 22:00:31  5-MIN KDBQ 050400Z AUTO 20012KT 10SM OVC110 09/M02 A2978 1210 45 800 200/12 RMK AO2 TSNO $
94908KDBQ DBQ20071104220510911/04/07 22:05:31  5-MIN KDBQ 050405Z AUTO 20013KT 10SM OVC110 09/M02 A2977 1220 44 900 200/13 RMK AO2 TSNO $
94908KDBQ DBQ20071104221010911/04/07 22:10:31  5-MIN KDBQ 050410Z AUTO 20014KT 10SM OVC120 09/M02 A2977 1220 45 800 200/14 RMK AO2 TSNO $
94908KDBQ DBQ20071104221510911/04/07 22:15:31  5-MIN KDBQ 050415Z AUTO 20013KT 10SM BKN110 09/M02 A2976 1220 45 800 200/13 RMK AO2 TSNO $
94908KDBQ DBQ20071104222010911/04/07 22:20:31  5-MIN KDBQ 050420Z AUTO 20014KT 10SM BKN110 09/M02 A2976 1230 45 800 200/14 RMK AO2 TSNO $
94908KDBQ DBQ20071104222510911/04/07 22:25:31  5-MIN KDBQ 050425Z AUTO 20013KT 10SM BKN110 09/M02 A2976 1230 45 800 200/13 RMK AO2 TSNO $
94908KDBQ DBQ20071104223010911/04/07 22:30:31  5-MIN KDBQ 050430Z AUTO 20013KT 10SM BKN110 09/M02 A2976 1230 45 800 200/13 RMK AO2 TSNO $
94908KDBQ DBQ20071104223510911/04/07 22:35:31  5-MIN KDBQ 050435Z AUTO 20011KT 10SM BKN110 09/M02 A2976 1230 45 800 200/11 RMK AO2 TSNO $
94908KDBQ DBQ20071104224010911/04/07 22:40:31  5-MIN KDBQ 050440Z AUTO 20012KT 10SM BKN120 09/M02 A2976 1230 47 800 200/12 RMK AO2 TSNO $
94908KDBQ DBQ20071104224510911/04/07 22:45:31  5-MIN KDBQ 050445Z AUTO 20012KT 10SM BKN110 09/M02 A2975 1230 47 800 200/12 RMK AO2 TSNO $
94908KDBQ DBQ20071104225012611/04/07 22:50:31  5-MIN KDBQ 050450Z AUTO 20012KT 10SM BKN110 09/M02 A2975 1240 45 900 200/12 RMK AO2 SLP078 T00941017 TSNO $
94908KDBQ DBQ20071104225510911/04/07 22:55:31  5-MIN KDBQ 050455Z AUTO 20012KT 10SM OVC110 09/M02 A2975 1240 44 900 200/12 RMK AO2 TSNO $
94908KDBQ DBQ20071104230010911/04/07 23:00:31  5-MIN KDBQ 050500Z AUTO 20011KT 10SM OVC110 09/M02 A2974 1240 45 900 200/11 RMK AO2 TSNO $
94908KDBQ DBQ20071104230510911/04/07 23:05:31  5-MIN KDBQ 050505Z AUTO 20011KT 10SM OVC110 09/M02 A2974 1250 45 900 200/11 RMK AO2 TSNO $
94908KDBQ DBQ20071104231010911/04/07 23:10:31  5-MIN KDBQ 050510Z AUTO 20013KT 10SM OVC110 09/M02 A2973 1250 45 900 200/13 RMK AO2 TSNO $
94908KDBQ DBQ20071104231510911/04/07 23:15:31  5-MIN KDBQ 050515Z AUTO 20013KT 10SM OVC110 09/M02 A2973 1250 45 900 200/13 RMK AO2 TSNO $
94908KDBQ DBQ20071104232010911/04/07 23:20:31  5-MIN KDBQ 050520Z AUTO 20011KT 10SM OVC120 09/M02 A2973 1260 45 900 200/11 RMK AO2 TSNO $
94908KDBQ DBQ20071104232510911/04/07 23:25:31  5-MIN KDBQ 050525Z AUTO 20011KT 10SM OVC120 09/M02 A2973 1260 45 900 200/11 RMK AO2 TSNO $
94908KDBQ DBQ20071104233010911/04/07 23:30:31  5-MIN KDBQ 050530Z AUTO 20013KT 10SM OVC120 09/M02 A2972 1260 45 900 200/13 RMK AO2 TSNO $
94908KDBQ DBQ20071104233510911/04/07 23:35:31  5-MIN KDBQ 050535Z AUTO 20012KT 10SM OVC120 09/M02 A2972 1260 45 900 200/12 RMK AO2 TSNO $
94908KDBQ DBQ20071104234010911/04/07 23:40:31  5-MIN KDBQ 050540Z AUTO 20011KT 10SM OVC120 09/M02 A2972 1260 45 900 200/11 RMK AO2 TSNO $
94908KDBQ DBQ20071104234510911/04/07 23:45:31  5-MIN KDBQ 050545Z AUTO 20012KT 10SM OVC120 09/M02 A2972 1270 45 900 200/12 RMK AO2 TSNO $
94908KDBQ DBQ20071104235015411/04/07 23:50:31  5-MIN KDBQ 050550Z AUTO 20013KT 10SM OVC120 09/M02 A2972 1270 45 900 200/13 RMK AO2 SLP065 T00941017 10094 20072 401330017 56015 TSNO $
94908KDBQ DBQ20071104235510911/04/07 23:55:31  5-MIN KDBQ 050555Z AUTO 21011KT 10SM OVC120 09/M02 A2971 1270 45 900 210/11 RMK AO2 TSNO $
94908KDBQ DBQ20071105000010911/05/07 00:00:38  5-MIN KDBQ 050600Z AUTO 20011KT 10SM OVC120 09/M02 A2971 1270 45 900 200/11 RMK AO2 TSNO $
94908KDBQ DBQ20071105000511011/05/07 00:05:31  5-MIN KDBQ 050605Z AUTO 20011KT 10SM OVC120 09/M02 A2971 1270 45 1000 200/11 RMK AO2 TSNO $
94908KDBQ DBQ20071105001010911/05/07 00:10:31  5-MIN KDBQ 050610Z AUTO 21010KT 10SM OVC120 09/M01 A2971 1280 49 900 210/10 RMK AO2 TSNO $
94908KDBQ DBQ20071105001510911/05/07 00:15:32  5-MIN KDBQ 050615Z AUTO 20011KT 10SM BKN120 08/M01 A2970 1280 51 800 200/11 RMK AO2 TSNO $
94908KDBQ DBQ20071105002010911/05/07 00:20:31  5-MIN KDBQ 050620Z AUTO 20011KT 10SM BKN120 08/M01 A2970 1280 51 800 200/11 RMK AO2 TSNO $
94908KDBQ DBQ20071105002510911/05/07 00:25:31  5-MIN KDBQ 050625Z AUTO 20011KT 10SM SCT120 08/M01 A2970 1280 51 800 200/11 RMK AO2 TSNO $
94908KDBQ DBQ20071105003010911/05/07 00:30:31  5-MIN KDBQ 050630Z AUTO 21011KT 10SM FEW120 08/M01 A2970 1280 51 800 200/11 RMK AO2 TSNO $
94908KDBQ DBQ20071105003510911/05/07 00:35:31  5-MIN KDBQ 050635Z AUTO 20010KT 10SM FEW110 08/M01 A2970 1280 53 800 200/10 RMK AO2 TSNO $
94908KDBQ DBQ20071105004010911/05/07 00:40:31  5-MIN KDBQ 050640Z AUTO 20010KT 10SM FEW110 08/M01 A2970 1290 53 800 200/10 RMK AO2 TSNO $
94908KDBQ DBQ20071105004510911/05/07 00:45:31  5-MIN KDBQ 050645Z AUTO 21010KT 10SM SCT110 08/M01 A2969 1290 53 800 210/10 RMK AO2 TSNO $
94908KDBQ DBQ20071105005012611/05/07 00:50:31  5-MIN KDBQ 050650Z AUTO 21010KT 10SM SCT110 07/M01 A2969 1290 55 700 200/10 RMK AO2 SLP058 T00721011 TSNO $
94908KDBQ DBQ20071105005510911/05/07 00:55:31  5-MIN KDBQ 050655Z AUTO 21011KT 10SM SCT110 07/M01 A2969 1290 55 700 210/11 RMK AO2 TSNO $
94908KDBQ DBQ20071105010010911/05/07 01:00:31  5-MIN KDBQ 050700Z AUTO 21010KT 10SM BKN110 08/M01 A2969 1290 53 800 210/10 RMK AO2 TSNO $
94908KDBQ DBQ20071105010510911/05/07 01:05:31  5-MIN KDBQ 050705Z AUTO 21010KT 10SM BKN120 08/M01 A2969 1290 55 800 210/10 RMK AO2 TSNO $
94908KDBQ DBQ20071105011010911/05/07 01:10:31  5-MIN KDBQ 050710Z AUTO 21010KT 10SM BKN110 08/M01 A2969 1300 53 800 210/10 RMK AO2 TSNO $
94908KDBQ DBQ20071105011510911/05/07 01:15:31  5-MIN KDBQ 050715Z AUTO 21012KT 10SM BKN110 09/M01 A2968 1300 51 900 210/12 RMK AO2 TSNO $
94908KDBQ DBQ20071105012010911/05/07 01:20:31  5-MIN KDBQ 050720Z AUTO 21013KT 10SM OVC110 09/M01 A2968 1300 51 900 210/13 RMK AO2 TSNO $
94908KDBQ DBQ20071105012510911/05/07 01:25:31  5-MIN KDBQ 050725Z AUTO 21011KT 10SM OVC110 08/M01 A2968 1310 53 900 210/11 RMK AO2 TSNO $
94908KDBQ DBQ20071105013010911/05/07 01:30:31  5-MIN KDBQ 050730Z AUTO 21011KT 10SM BKN110 08/M01 A2968 1310 53 900 210/11 RMK AO2 TSNO $
94908KDBQ DBQ20071105013510911/05/07 01:35:31  5-MIN KDBQ 050735Z AUTO 21011KT 10SM BKN110 08/M01 A2967 1310 55 800 210/11 RMK AO2 TSNO $
94908KDBQ DBQ20071105014010911/05/07 01:40:31  5-MIN KDBQ 050740Z AUTO 21010KT 10SM SCT110 07/M01 A2967 1310 57 700 200/10 RMK AO2 TSNO $
94908KDBQ DBQ20071105014510911/05/07 01:45:31  5-MIN KDBQ 050745Z AUTO 21011KT 10SM FEW110 07/M01 A2967 1310 57 700 210/11 RMK AO2 TSNO $
94908KDBQ DBQ20071105015012611/05/07 01:50:31  5-MIN KDBQ 050750Z AUTO 20011KT 10SM FEW110 07/M01 A2966 1320 57 700 200/11 RMK AO2 SLP048 T00721006 TSNO $
94908KDBQ DBQ20071105015510611/05/07 01:55:31  5-MIN KDBQ 050755Z AUTO 21010KT 10SM CLR 07/M01 A2966 1320 57 700 210/10 RMK AO2 TSNO $
94908KDBQ DBQ20071105020010611/05/07 02:00:31  5-MIN KDBQ 050800Z AUTO 21010KT 10SM CLR 07/M01 A2966 1320 57 700 210/10 RMK AO2 TSNO $
94908KDBQ DBQ20071105020510611/05/07 02:05:31  5-MIN KDBQ 050805Z AUTO 22011KT 10SM CLR 07/M01 A2966 1320 57 700 220/11 RMK AO2 TSNO $
94908KDBQ DBQ20071105021010511/05/07 02:10:31  5-MIN KDBQ 050810Z AUTO 21010KT 10SM CLR 07/00 A2965 1330 62 700 210/10 RMK AO2 TSNO $
94908KDBQ DBQ20071105021510511/05/07 02:15:31  5-MIN KDBQ 050815Z AUTO 21010KT 10SM CLR 07/00 A2965 1330 62 700 210/10 RMK AO2 TSNO $
94908KDBQ DBQ20071105022010511/05/07 02:20:31  5-MIN KDBQ 050820Z AUTO 21010KT 10SM CLR 07/00 A2965 1330 62 700 210/10 RMK AO2 TSNO $
94908KDBQ DBQ20071105022510511/05/07 02:25:31  5-MIN KDBQ 050825Z AUTO 22009KT 10SM CLR 07/00 A2965 1330 62 700 210/09 RMK AO2 TSNO $
94908KDBQ DBQ20071105023010511/05/07 02:30:31  5-MIN KDBQ 050830Z AUTO 21010KT 10SM CLR 07/00 A2964 1340 62 700 210/10 RMK AO2 TSNO $
94908KDBQ DBQ20071105023510511/05/07 02:35:31  5-MIN KDBQ 050835Z AUTO 22009KT 10SM CLR 06/00 A2965 1330 65 600 220/09 RMK AO2 TSNO $
94908KDBQ DBQ20071105024010511/05/07 02:40:31  5-MIN KDBQ 050840Z AUTO 22010KT 10SM CLR 06/00 A2964 1330 65 600 220/10 RMK AO2 TSNO $
94908KDBQ DBQ20071105024510511/05/07 02:45:31  5-MIN KDBQ 050845Z AUTO 22009KT 10SM CLR 06/00 A2964 1340 65 600 220/09 RMK AO2 TSNO $
94908KDBQ DBQ20071105025012811/05/07 02:50:31  5-MIN KDBQ 050850Z AUTO 22008KT 10SM CLR 06/00 A2964 1340 65 600 220/08 RMK AO2 SLP041 T00610000 58028 TSNO $
94908KDBQ DBQ20071105025510511/05/07 02:55:31  5-MIN KDBQ 050855Z AUTO 23008KT 10SM CLR 06/00 A2964 1340 67 600 220/08 RMK AO2 TSNO $
94908KDBQ DBQ20071105030010511/05/07 03:00:31  5-MIN KDBQ 050900Z AUTO 22009KT 10SM CLR 06/00 A2964 1340 67 600 220/09 RMK AO2 TSNO $
94908KDBQ DBQ20071105030510511/05/07 03:05:31  5-MIN KDBQ 050905Z AUTO 22008KT 10SM CLR 06/00 A2964 1340 67 600 220/08 RMK AO2 TSNO $
94908KDBQ DBQ20071105031010511/05/07 03:10:31  5-MIN KDBQ 050910Z AUTO 23008KT 10SM CLR 06/00 A2965 1330 67 600 230/08 RMK AO2 TSNO $
94908KDBQ DBQ20071105031510511/05/07 03:15:31  5-MIN KDBQ 050915Z AUTO 23008KT 10SM CLR 05/00 A2964 1340 70 500 230/08 RMK AO2 TSNO $
94908KDBQ DBQ20071105032010511/05/07 03:20:31  5-MIN KDBQ 050920Z AUTO 23007KT 10SM CLR 05/00 A2964 1340 70 500 230/07 RMK AO2 TSNO $
94908KDBQ DBQ20071105032510511/05/07 03:25:31  5-MIN KDBQ 050925Z AUTO 24008KT 10SM CLR 05/00 A2964 1340 70 500 240/08 RMK AO2 TSNO $
94908KDBQ DBQ20071105033010511/05/07 03:30:31  5-MIN KDBQ 050930Z AUTO 24010KT 10SM CLR 05/00 A2964 1340 70 500 240/10 RMK AO2 TSNO $
94908KDBQ DBQ20071105033510511/05/07 03:35:31  5-MIN KDBQ 050935Z AUTO 24009KT 10SM CLR 05/00 A2963 1340 70 500 240/09 RMK AO2 TSNO $
94908KDBQ DBQ20071105034010511/05/07 03:40:31  5-MIN KDBQ 050940Z AUTO 24009KT 10SM CLR 05/01 A2964 1340 73 500 240/09 RMK AO2 TSNO $
94908KDBQ DBQ20071105034510511/05/07 03:45:31  5-MIN KDBQ 050945Z AUTO 25009KT 10SM CLR 06/01 A2964 1340 70 600 250/09 RMK AO2 TSNO $
94908KDBQ DBQ20071105035012211/05/07 03:50:31  5-MIN KDBQ 050950Z AUTO 25011KT 10SM CLR 06/01 A2964 1340 70 600 250/11 RMK AO2 SLP040 T00560006 TSNO $
94908KDBQ DBQ20071105035510511/05/07 03:55:31  5-MIN KDBQ 050955Z AUTO 25011KT 10SM CLR 06/01 A2964 1340 70 600 250/11 RMK AO2 TSNO $
94908KDBQ DBQ20071105040010511/05/07 04:00:31  5-MIN KDBQ 051000Z AUTO 25012KT 10SM CLR 06/01 A2964 1330 70 600 250/12 RMK AO2 TSNO $
94908KDBQ DBQ20071105051010511/05/07 05:10:31  5-MIN KDBQ 051110Z AUTO 27013KT 10SM CLR 07/01 A2967 1310 62 700 270/13 RMK AO2 TSNO $
94908KDBQ DBQ20071105051510511/05/07 05:15:31  5-MIN KDBQ 051115Z AUTO 28012KT 10SM CLR 07/01 A2967 1310 62 700 270/12 RMK AO2 TSNO $
94908KDBQ DBQ20071105052010511/05/07 05:20:31  5-MIN KDBQ 051120Z AUTO 29011KT 10SM CLR 07/01 A2967 1310 62 700 290/11 RMK AO2 TSNO $
94908KDBQ DBQ20071105052510511/05/07 05:25:31  5-MIN KDBQ 051125Z AUTO 29011KT 10SM CLR 07/01 A2968 1300 62 700 290/11 RMK AO2 TSNO $
94908KDBQ DBQ20071105053010511/05/07 05:30:31  5-MIN KDBQ 051130Z AUTO 29010KT 10SM CLR 07/01 A2968 1300 65 700 290/10 RMK AO2 TSNO $
94908KDBQ DBQ20071105053510511/05/07 05:35:31  5-MIN KDBQ 051135Z AUTO 29011KT 10SM CLR 07/01 A2968 1310 62 700 290/11 RMK AO2 TSNO $
94908KDBQ DBQ20071105054010511/05/07 05:40:31  5-MIN KDBQ 051140Z AUTO 30010KT 10SM CLR 07/01 A2967 1310 62 700 290/10 RMK AO2 TSNO $
94908KDBQ DBQ20071105054510511/05/07 05:45:31  5-MIN KDBQ 051145Z AUTO 30011KT 10SM CLR 07/01 A2968 1300 62 700 300/11 RMK AO2 TSNO $
94908KDBQ DBQ20071105055013011/05/07 05:50:31  5-MIN KDBQ 051150Z 30010KT 10SM CLR 07/01 A2968 1300 65 700 300/10 RMK AO2 SLP055 T00670006 10094 20050 56024 $
94908KDBQ DBQ20071105055509811/05/07 05:55:31  5-MIN KDBQ 051155Z 30011KT 10SM FEW120 07/01 A2969 1290 65 600 300/11 RMK AO2 $
94908KDBQ DBQ20071105060010511/05/07 06:00:31  5-MIN KDBQ 051200Z 30012KT 10SM FEW120 07/01 A2970 1290 67 600 300/12 RMK AO2 PRESRR $
94908KDBQ DBQ20071105060509811/05/07 06:05:31  5-MIN KDBQ 051205Z 30011KT 10SM FEW120 07/01 A2969 1290 67 600 300/11 RMK AO2 $
94908KDBQ DBQ20071105061009811/05/07 06:10:31  5-MIN KDBQ 051210Z 30012KT 10SM FEW120 07/01 A2969 1290 65 700 300/12 RMK AO2 $
94908KDBQ DBQ20071105061509811/05/07 06:15:31  5-MIN KDBQ 051215Z 30012KT 10SM SCT120 07/01 A2970 1280 65 700 300/12 RMK AO2 $
94908KDBQ DBQ20071105062009811/05/07 06:20:31  5-MIN KDBQ 051220Z 30013KT 10SM SCT120 07/01 A2970 1280 65 700 300/13 RMK AO2 $
94908KDBQ DBQ20071105062509811/05/07 06:25:31  5-MIN KDBQ 051225Z 30011KT 10SM FEW120 07/01 A2970 1280 62 700 300/11 RMK AO2 $
94908KDBQ DBQ20071105063009811/05/07 06:30:31  5-MIN KDBQ 051230Z 29012KT 10SM FEW120 07/01 A2971 1280 62 700 290/12 RMK AO2 $
94908KDBQ DBQ20071105063510411/05/07 06:35:31  5-MIN KDBQ 051235Z 29010G18KT 10SM FEW120 07/01 A2971 1270 62 700 290/10G18 RMK AO2 $
94908KDBQ DBQ20071105064009811/05/07 06:40:31  5-MIN KDBQ 051240Z 29011KT 10SM SCT120 07/01 A2971 1270 62 700 290/11 RMK AO2 $
94908KDBQ DBQ20071105064509811/05/07 06:45:31  5-MIN KDBQ 051245Z 30010KT 10SM SCT120 07/01 A2971 1270 62 700 300/10 RMK AO2 $
94908KDBQ DBQ20071105065011511/05/07 06:50:31  5-MIN KDBQ 051250Z 30011KT 10SM SCT110 07/01 A2972 1260 65 600 300/11 RMK AO2 SLP069 T00670006 $
94908KDBQ DBQ20071105065509811/05/07 06:55:31  5-MIN KDBQ 051255Z 30012KT 10SM FEW110 07/01 A2973 1260 65 600 300/12 RMK AO2 $
94908KDBQ DBQ20071105070009811/05/07 07:00:31  5-MIN KDBQ 051300Z 30011KT 10SM FEW110 07/01 A2973 1250 67 600 300/11 RMK AO2 $
94908KDBQ DBQ20071105070509811/05/07 07:05:31  5-MIN KDBQ 051305Z 30013KT 10SM FEW110 07/01 A2974 1250 67 600 300/13 RMK AO2 $
94908KDBQ DBQ20071105071009811/05/07 07:10:31  5-MIN KDBQ 051310Z 30010KT 10SM FEW110 07/01 A2974 1250 65 600 300/10 RMK AO2 $
94908KDBQ DBQ20071105071509811/05/07 07:15:31  5-MIN KDBQ 051315Z 31009KT 10SM FEW110 07/01 A2974 1250 65 600 310/09 RMK AO2 $
94908KDBQ DBQ20071105072009811/05/07 07:20:31  5-MIN KDBQ 051320Z 32009KT 10SM FEW110 07/01 A2974 1240 65 600 320/09 RMK AO2 $
94908KDBQ DBQ20071105072511911/05/07 07:25:31  5-MIN KDBQ 051325Z 33018G27KT 10SM CLR 08/01 A2974 1240 62 700 330/18G27 RMK AO2 PK WND 33027/1325 $
94908KDBQ DBQ20071105073012211/05/07 07:30:31  5-MIN KDBQ 051330Z 32018G27KT 10SM FEW120 08/01 A2975 1240 60 700 320/18G27 RMK AO2 PK WND 33027/1326 $
94908KDBQ DBQ20071105073512711/05/07 07:35:31  5-MIN KDBQ 051335Z 32018G29KT 10SM SCT120 08/01 A2976 1230 60 700 320/18G29 RMK AO2 PK WND 32029/1333 PRESRR
94908KDBQ DBQ20071105074012711/05/07 07:40:31  5-MIN KDBQ 051340Z 32022G30KT 10SM FEW100 SCT120 07/01 A2976 1220 62 600 320/22G30 RMK AO2 PK WND 33030/1337
94908KDBQ DBQ20071105074512011/05/07 07:45:31  5-MIN KDBQ 051345Z 32023G30KT 10SM FEW095 07/01 A2977 1220 62 600 320/23G30 RMK AO2 PK WND 31030/1345
94908KDBQ DBQ20071105075014411/05/07 07:50:31  5-MIN KDBQ 051350Z 32021G30KT 10SM FEW100 SCT120 07/01 A2977 1220 62 600 320/21G30 RMK AO2 PK WND 31030/1345 SLP087 T00720006
94908KDBQ DBQ20071105075512011/05/07 07:55:31  5-MIN KDBQ 051355Z 31019G28KT 10SM SCT110 07/01 A2977 1220 62 600 310/19G28 RMK AO2 PK WND 30028/1355
94908KDBQ DBQ20071105080012011/05/07 08:00:31  5-MIN KDBQ 051400Z 32018G28KT 10SM FEW100 07/01 A2976 1220 62 600 320/18G28 RMK AO2 PK WND 30028/1355
94908KDBQ DBQ20071105080512711/05/07 08:05:31  5-MIN KDBQ 051405Z 32015G24KT 10SM FEW095 SCT120 07/01 A2978 1210 62 600 320/15G24 RMK AO2 PK WND 30028/1355
94908KDBQ DBQ20071105081012711/05/07 08:10:31  5-MIN KDBQ 051410Z 31019G24KT 10SM FEW100 SCT120 07/01 A2979 1200 65 500 310/19G24 RMK AO2 PK WND 30028/1355
94908KDBQ DBQ20071105081512011/05/07 08:15:31  5-MIN KDBQ 051415Z 31017G24KT 10SM SCT110 07/01 A2978 1210 62 600 310/17G24 RMK AO2 PK WND 30028/1355
94908KDBQ DBQ20071105082012711/05/07 08:20:31  5-MIN KDBQ 051420Z 31013G24KT 10SM FEW100 SCT120 07/01 A2978 1210 65 500 310/13G24 RMK AO2 PK WND 30028/1355
94908KDBQ DBQ20071105082512711/05/07 08:25:31  5-MIN KDBQ 051425Z 31019G27KT 10SM FEW100 SCT120 07/01 A2980 1190 65 500 310/19G27 RMK AO2 PK WND 30028/1355
94908KDBQ DBQ20071105083012711/05/07 08:30:31  5-MIN KDBQ 051430Z 32022G32KT 10SM FEW100 SCT120 07/01 A2979 1200 62 600 320/22G32 RMK AO2 PK WND 31032/1427
94908KDBQ DBQ20071105083512011/05/07 08:35:31  5-MIN KDBQ 051435Z 32021G32KT 10SM FEW100 07/01 A2980 1190 65 500 310/21G32 RMK AO2 PK WND 31032/1427
94908KDBQ DBQ20071105084012011/05/07 08:40:31  5-MIN KDBQ 051440Z 33022G32KT 10SM FEW100 07/01 A2979 1190 65 500 330/22G32 RMK AO2 PK WND 32032/1438
94908KDBQ DBQ20071105084512011/05/07 08:45:31  5-MIN KDBQ 051445Z 33024G33KT 10SM FEW026 07/01 A2981 1180 65 500 320/24G33 RMK AO2 PK WND 33033/1443
94908KDBQ DBQ20071105085015011/05/07 08:50:31  5-MIN KDBQ 051450Z 32018G33KT 10SM SCT026 SCT090 07/01 A2980 1190 65 500 320/18G33 RMK AO2 PK WND 33033/1443 SLP097 T00670006 53014
94908KDBQ DBQ20071105085510911/05/07 08:55:31  5-MIN KDBQ 051455Z 33018G26KT 10SM BKN026 BKN090 07/01 A2980 1190 65 500 330/18G26 RMK AO2
94908KDBQ DBQ20071105090012011/05/07 09:00:31  5-MIN KDBQ 051500Z 31020G29KT 10SM BKN024 07/01 A2981 1180 65 500 310/20G29 RMK AO2 PK WND 33029/1456
94908KDBQ DBQ20071105090512011/05/07 09:05:31  5-MIN KDBQ 051505Z 32022G31KT 10SM BKN024 06/01 A2982 1180 67 400 310/22G31 RMK AO2 PK WND 32031/1501
94908KDBQ DBQ20071105091012011/05/07 09:10:31  5-MIN KDBQ 051510Z 32023G34KT 10SM BKN024 06/01 A2982 1170 67 400 320/23G34 RMK AO2 PK WND 32034/1506
94908KDBQ DBQ20071105091512011/05/07 09:15:31  5-MIN KDBQ 051515Z 32023G34KT 10SM OVC026 06/00 A2982 1170 65 400 320/23G34 RMK AO2 PK WND 32034/1506
94908KDBQ DBQ20071105092012011/05/07 09:20:31  5-MIN KDBQ 051520Z 32026G32KT 10SM OVC026 06/00 A2982 1170 65 400 320/26G32 RMK AO2 PK WND 32034/1506
94908KDBQ DBQ20071105092512011/05/07 09:25:31  5-MIN KDBQ 051525Z 32022G33KT 10SM OVC026 06/00 A2983 1170 65 400 320/22G33 RMK AO2 PK WND 32034/1506
94908KDBQ DBQ20071105093012011/05/07 09:30:31  5-MIN KDBQ 051530Z 32021G33KT 10SM OVC026 06/00 A2982 1170 65 400 320/21G33 RMK AO2 PK WND 32034/1506
94908KDBQ DBQ20071105093512011/05/07 09:35:31  5-MIN KDBQ 051535Z 32019G32KT 10SM OVC026 06/00 A2983 1170 65 400 320/19G32 RMK AO2 PK WND 32034/1506
94908KDBQ DBQ20071105094012011/05/07 09:40:31  5-MIN KDBQ 051540Z 32013G28KT 10SM OVC028 07/00 A2983 1170 62 500 320/13G28 RMK AO2 PK WND 32034/1506
94908KDBQ DBQ20071105094512011/05/07 09:45:31  5-MIN KDBQ 051545Z 31024G29KT 10SM BKN028 07/00 A2983 1160 62 500 310/24G29 RMK AO2 PK WND 32034/1506
94908KDBQ DBQ20071105095013811/05/07 09:50:31  5-MIN KDBQ 051550Z 32027G35KT 10SM BKN028 07/M01 A2983 1160 57 500 320/27G35 RMK AO2 PK WND 32035/1550 SLP107 T00671011
94908KDBQ DBQ20071105095512111/05/07 09:55:31  5-MIN KDBQ 051555Z 31024G35KT 10SM BKN028 06/M02 A2983 1160 57 400 310/24G35 RMK AO2 PK WND 33033/1554
94908KDBQ DBQ20071105100012111/05/07 10:00:31  5-MIN KDBQ 051600Z 31024G33KT 10SM BKN028 07/M02 A2984 1160 55 500 310/24G33 RMK AO2 PK WND 33033/1554
94908KDBQ DBQ20071105100512111/05/07 10:05:31  5-MIN KDBQ 051605Z 32020G31KT 10SM BKN028 06/M02 A2983 1160 57 400 310/20G31 RMK AO2 PK WND 33033/1554
94908KDBQ DBQ20071105101012111/05/07 10:10:31  5-MIN KDBQ 051610Z 32020G31KT 10SM BKN028 07/M02 A2984 1150 55 500 310/20G31 RMK AO2 PK WND 33033/1554
94908KDBQ DBQ20071105101512111/05/07 10:15:31  5-MIN KDBQ 051615Z 32025G35KT 10SM BKN028 07/M02 A2984 1150 53 500 320/25G35 RMK AO2 PK WND 31035/1615
94908KDBQ DBQ20071105102012111/05/07 10:20:31  5-MIN KDBQ 051620Z 32022G35KT 10SM BKN028 07/M02 A2984 1150 53 500 320/22G35 RMK AO2 PK WND 31035/1615
94908KDBQ DBQ20071105102512111/05/07 10:25:31  5-MIN KDBQ 051625Z 32025G33KT 10SM FEW036 07/M02 A2984 1150 51 500 320/25G33 RMK AO2 PK WND 31035/1615
94908KDBQ DBQ20071105103012111/05/07 10:30:31  5-MIN KDBQ 051630Z 32024G32KT 10SM FEW039 07/M02 A2984 1150 53 500 320/24G32 RMK AO2 PK WND 31035/1615
94908KDBQ DBQ20071105103512111/05/07 10:35:31  5-MIN KDBQ 051635Z 32020G31KT 10SM FEW039 07/M02 A2985 1140 51 500 320/20G31 RMK AO2 PK WND 31035/1615
94908KDBQ DBQ20071105104012111/05/07 10:40:31  5-MIN KDBQ 051640Z 32024G31KT 10SM FEW039 07/M02 A2985 1150 51 500 320/24G31 RMK AO2 PK WND 31035/1615
94908KDBQ DBQ20071105104512111/05/07 10:45:31  5-MIN KDBQ 051645Z 32018G30KT 10SM FEW039 07/M02 A2985 1150 53 500 320/18G30 RMK AO2 PK WND 31035/1615
94908KDBQ DBQ20071105105013811/05/07 10:50:31  5-MIN KDBQ 051650Z 31022G29KT 10SM FEW039 07/M02 A2985 1140 53 500 310/22G29 RMK AO2 PK WND 31035/1615 SLP112 T00721017
94908KDBQ DBQ20071105105512111/05/07 10:55:31  5-MIN KDBQ 051655Z 31021G29KT 10SM FEW039 08/M02 A2985 1150 51 600 310/21G29 RMK AO2 PK WND 30027/1654
94908KDBQ DBQ20071105110012111/05/07 11:00:31  5-MIN KDBQ 051700Z 32020G30KT 10SM FEW039 08/M02 A2984 1150 49 600 320/20G30 RMK AO2 PK WND 30030/1656
94908KDBQ DBQ20071105110512111/05/07 11:05:31  5-MIN KDBQ 051705Z 31018G30KT 10SM FEW039 08/M02 A2985 1150 51 600 310/18G30 RMK AO2 PK WND 30030/1656
94908KDBQ DBQ20071105111012111/05/07 11:10:31  5-MIN KDBQ 051710Z 33028G35KT 10SM FEW043 08/M03 A2985 1140 47 600 320/28G35 RMK AO2 PK WND 33035/1709
94908KDBQ DBQ20071105111512111/05/07 11:15:31  5-MIN KDBQ 051715Z 32019G35KT 10SM FEW043 08/M03 A2985 1140 45 600 310/19G35 RMK AO2 PK WND 33035/1709
94908KDBQ DBQ20071105112012111/05/07 11:20:31  5-MIN KDBQ 051720Z 32022G31KT 10SM FEW043 08/M03 A2985 1140 45 600 320/22G31 RMK AO2 PK WND 33035/1709
94908KDBQ DBQ20071105112512111/05/07 11:25:31  5-MIN KDBQ 051725Z 32026G31KT 10SM FEW043 08/M03 A2985 1140 47 600 320/26G31 RMK AO2 PK WND 33035/1709
94908KDBQ DBQ20071105113012111/05/07 11:30:31  5-MIN KDBQ 051730Z 31019G31KT 10SM FEW045 08/M03 A2985 1140 43 700 310/19G31 RMK AO2 PK WND 33035/1709
94908KDBQ DBQ20071105113512111/05/07 11:35:31  5-MIN KDBQ 051735Z 32020G27KT 10SM FEW045 08/M03 A2985 1140 43 700 320/20G27 RMK AO2 PK WND 33035/1709
94908KDBQ DBQ20071105114012111/05/07 11:40:31  5-MIN KDBQ 051740Z 32025G31KT 10SM FEW047 08/M03 A2986 1140 43 600 320/25G31 RMK AO2 PK WND 33035/1709
94908KDBQ DBQ20071105114512111/05/07 11:45:31  5-MIN KDBQ 051745Z 32022G32KT 10SM FEW047 08/M04 A2986 1140 43 600 320/22G32 RMK AO2 PK WND 33035/1709
94908KDBQ DBQ20071105115015611/05/07 11:50:31  5-MIN KDBQ 051750Z 31020G32KT 10SM FEW047 08/M03 A2985 1140 43 700 310/20G32 RMK AO2 PK WND 33035/1709 SLP114 T00831033 10083 20061 51041
94908KDBQ DBQ20071105115512111/05/07 11:55:31  5-MIN KDBQ 051755Z 31020G29KT 10SM FEW049 08/M03 A2985 1140 43 700 310/20G29 RMK AO2 PK WND 31028/1754
94908KDBQ DBQ20071105120012111/05/07 12:00:31  5-MIN KDBQ 051800Z 30022G29KT 10SM FEW049 09/M03 A2986 1140 43 700 300/22G29 RMK AO2 PK WND 31028/1758
94908KDBQ DBQ20071105120512111/05/07 12:05:31  5-MIN KDBQ 051805Z 31024G36KT 10SM SCT049 08/M03 A2986 1130 43 600 310/24G36 RMK AO2 PK WND 30036/1802
94908KDBQ DBQ20071105121012111/05/07 12:10:31  5-MIN KDBQ 051810Z 32020G36KT 10SM FEW049 08/M04 A2986 1130 42 600 320/20G36 RMK AO2 PK WND 30036/1802
94908KDBQ DBQ20071105121512111/05/07 12:15:31  5-MIN KDBQ 051815Z 31020G31KT 10SM FEW049 08/M03 A2986 1130 43 600 310/20G31 RMK AO2 PK WND 30036/1802
94908KDBQ DBQ20071105122012111/05/07 12:20:31  5-MIN KDBQ 051820Z 30026G33KT 10SM FEW049 08/M03 A2986 1130 43 600 300/26G33 RMK AO2 PK WND 30036/1802
94908KDBQ DBQ20071105122512111/05/07 12:25:31  5-MIN KDBQ 051825Z 31021G33KT 10SM FEW049 08/M03 A2987 1130 43 600 310/21G33 RMK AO2 PK WND 30036/1802
94908KDBQ DBQ20071105123012111/05/07 12:30:31  5-MIN KDBQ 051830Z 31023G35KT 10SM SCT049 08/M03 A2987 1130 43 600 310/23G35 RMK AO2 PK WND 30036/1802
94908KDBQ DBQ20071105123512111/05/07 12:35:31  5-MIN KDBQ 051835Z 30022G35KT 10SM SCT049 08/M03 A2987 1120 43 600 300/22G35 RMK AO2 PK WND 30036/1802
94908KDBQ DBQ20071105124012111/05/07 12:40:31  5-MIN KDBQ 051840Z 31022G32KT 10SM SCT049 08/M03 A2987 1120 43 600 310/22G32 RMK AO2 PK WND 30036/1802
94908KDBQ DBQ20071105124512111/05/07 12:45:31  5-MIN KDBQ 051845Z 30024G32KT 10SM SCT049 08/M03 A2988 1120 43 600 300/24G32 RMK AO2 PK WND 30036/1802
94908KDBQ DBQ20071105125014511/05/07 12:50:31  5-MIN KDBQ 051850Z 31021G32KT 10SM BKN049 BKN055 08/M03 A2988 1120 43 600 310/21G32 RMK AO2 PK WND 30036/1802 SLP124 T00831033
94908KDBQ DBQ20071105125512811/05/07 12:55:31  5-MIN KDBQ 051855Z 32021G32KT 10SM BKN049 BKN055 09/M03 A2988 1110 42 700 320/21G32 RMK AO2 PK WND 32026/1854
94908KDBQ DBQ20071105130012811/05/07 13:00:31  5-MIN KDBQ 051900Z 32023G32KT 10SM BKN049 BKN055 09/M03 A2989 1110 42 700 320/23G32 RMK AO2 PK WND 32031/1857
94908KDBQ DBQ20071105130512111/05/07 13:05:31  5-MIN KDBQ 051905Z 33023G31KT 10SM BKN049 08/M04 A2988 1110 43 600 330/23G31 RMK AO2 PK WND 32031/1902
94908KDBQ DBQ20071105131012111/05/07 13:10:31  5-MIN KDBQ 051910Z 32021G31KT 10SM BKN049 08/M04 A2988 1110 43 500 320/21G31 RMK AO2 PK WND 32031/1902
94908KDBQ DBQ20071105131512111/05/07 13:15:31  5-MIN KDBQ 051915Z 31020G28KT 10SM BKN049 08/M04 A2989 1110 43 500 310/20G28 RMK AO2 PK WND 32031/1902
94908KDBQ DBQ20071105132012111/05/07 13:20:31  5-MIN KDBQ 051920Z 30021G33KT 10SM BKN049 08/M03 A2989 1110 43 600 300/21G33 RMK AO2 PK WND 30033/1917
94908KDBQ DBQ20071105132512111/05/07 13:25:31  5-MIN KDBQ 051925Z 32023G33KT 10SM BKN049 08/M04 A2989 1100 43 500 320/23G33 RMK AO2 PK WND 32033/1922
94908KDBQ DBQ20071105133012111/05/07 13:30:31  5-MIN KDBQ 051930Z 31021G33KT 10SM BKN055 07/M04 A2989 1100 43 500 310/21G33 RMK AO2 PK WND 32033/1922
94908KDBQ DBQ20071105133512111/05/07 13:35:31  5-MIN KDBQ 051935Z 31020G29KT 10SM SCT050 07/M04 A2990 1100 45 400 310/20G29 RMK AO2 PK WND 32033/1922
94908KDBQ DBQ20071105134012111/05/07 13:40:31  5-MIN KDBQ 051940Z 32021G29KT 10SM BKN055 07/M04 A2990 1100 43 500 320/21G29 RMK AO2 PK WND 32033/1922
94908KDBQ DBQ20071105134512111/05/07 13:45:31  5-MIN KDBQ 051945Z 32022G30KT 10SM BKN060 07/M04 A2990 1100 45 400 320/22G30 RMK AO2 PK WND 32033/1922
94908KDBQ DBQ20071105135013811/05/07 13:50:31  5-MIN KDBQ 051950Z 31019G30KT 10SM BKN060 07/M04 A2990 1100 43 500 310/19G30 RMK AO2 PK WND 32033/1922 SLP129 T00721044
94908KDBQ DBQ20071105135512111/05/07 13:55:31  5-MIN KDBQ 051955Z 32024G30KT 10SM BKN060 08/M04 A2990 1100 41 500 320/24G30 RMK AO2 PK WND 32030/1954
94908KDBQ DBQ20071105140012111/05/07 14:00:31  5-MIN KDBQ 052000Z 31021G30KT 10SM BKN060 08/M04 A2990 1100 40 600 310/21G30 RMK AO2 PK WND 32030/1954
94908KDBQ DBQ20071105140512111/05/07 14:05:31  5-MIN KDBQ 052005Z 33020G28KT 10SM OVC060 08/M04 A2990 1100 43 500 330/20G28 RMK AO2 PK WND 32030/1954
94908KDBQ DBQ20071105141012111/05/07 14:10:31  5-MIN KDBQ 052010Z 32018G26KT 10SM OVC060 08/M04 A2990 1100 42 600 320/18G26 RMK AO2 PK WND 32030/1954
94908KDBQ DBQ20071105141512811/05/07 14:15:31  5-MIN KDBQ 052015Z 33021G29KT 10SM BKN055 OVC070 08/M04 A2990 1100 42 600 330/21G29 RMK AO2 PK WND 32030/1954
94908KDBQ DBQ20071105142012111/05/07 14:20:31  5-MIN KDBQ 052020Z 31022G32KT 10SM OVC060 08/M04 A2990 1100 40 600 310/22G32 RMK AO2 PK WND 30032/2020
94908KDBQ DBQ20071105142512811/05/07 14:25:31  5-MIN KDBQ 052025Z 31022G33KT 10SM BKN055 BKN070 07/M06 A2991 1090 38 500 310/22G33 RMK AO2 PK WND 31033/2021
94908KDBQ DBQ20071105143012811/05/07 14:30:31  5-MIN KDBQ 052030Z 32025G36KT 10SM SCT055 BKN070 08/M06 A2991 1090 38 500 320/25G36 RMK AO2 PK WND 32036/2028
94908KDBQ DBQ20071105143512111/05/07 14:35:31  5-MIN KDBQ 052035Z 33019G36KT 10SM BKN065 08/M06 A2991 1090 36 500 320/19G36 RMK AO2 PK WND 32036/2028
94908KDBQ DBQ20071105144012111/05/07 14:40:31  5-MIN KDBQ 052040Z 32020G29KT 10SM BKN060 08/M06 A2991 1090 37 600 320/20G29 RMK AO2 PK WND 32036/2028
94908KDBQ DBQ20071105144512111/05/07 14:45:31  5-MIN KDBQ 052045Z 31022G31KT 10SM BKN065 08/M06 A2991 1090 38 500 310/22G31 RMK AO2 PK WND 32036/2028
94908KDBQ DBQ20071105145014411/05/07 14:50:31  5-MIN KDBQ 052050Z 32023G33KT 10SM BKN065 08/M06 A2992 1080 36 500 320/23G33 RMK AO2 PK WND 32036/2028 SLP137 T00781061 51015
94908KDBQ DBQ20071105145512111/05/07 14:55:31  5-MIN KDBQ 052055Z 31023G33KT 10SM BKN065 08/M07 A2992 1080 35 500 310/23G33 RMK AO2 PK WND 31030/2054
94908KDBQ DBQ20071105150012111/05/07 15:00:31  5-MIN KDBQ 052100Z 32027G35KT 10SM BKN065 08/M06 A2992 1080 36 500 320/27G35 RMK AO2 PK WND 32035/2058
94908KDBQ DBQ20071105150512111/05/07 15:05:31  5-MIN KDBQ 052105Z 33022G35KT 10SM BKN065 08/M06 A2992 1080 36 500 330/22G35 RMK AO2 PK WND 32035/2058
94908KDBQ DBQ20071105151012111/05/07 15:10:31  5-MIN KDBQ 052110Z 32024G34KT 10SM BKN065 08/M07 A2992 1080 35 500 320/24G34 RMK AO2 PK WND 32035/2058
94908KDBQ DBQ20071105151512111/05/07 15:15:31  5-MIN KDBQ 052115Z 33026G35KT 10SM BKN060 08/M07 A2993 1070 35 500 320/26G35 RMK AO2 PK WND 32035/2115
94908KDBQ DBQ20071105152012111/05/07 15:20:31  5-MIN KDBQ 052120Z 32025G36KT 10SM OVC060 07/M07 A2993 1070 36 400 320/25G36 RMK AO2 PK WND 32036/2118
94908KDBQ DBQ20071105152512111/05/07 15:25:31  5-MIN KDBQ 052125Z 33026G36KT 10SM OVC060 07/M07 A2993 1070 38 400 330/26G36 RMK AO2 PK WND 32036/2118
94908KDBQ DBQ20071105153012111/05/07 15:30:31  5-MIN KDBQ 052130Z 31020G34KT 10SM BKN060 07/M06 A2993 1070 38 400 310/20G34 RMK AO2 PK WND 32036/2118
94908KDBQ DBQ20071105153512111/05/07 15:35:31  5-MIN KDBQ 052135Z 31025G34KT 10SM BKN060 06/M07 A2994 1060 38 300 300/25G34 RMK AO2 PK WND 32036/2118
94908KDBQ DBQ20071105154012111/05/07 15:40:31  5-MIN KDBQ 052140Z 30027G33KT 10SM SCT060 06/M07 A2994 1060 38 300 300/27G33 RMK AO2 PK WND 32036/2118
94908KDBQ DBQ20071105154512111/05/07 15:45:31  5-MIN KDBQ 052145Z 31020G33KT 10SM SCT060 06/M07 A2994 1060 38 300 310/20G33 RMK AO2 PK WND 32036/2118
94908KDBQ DBQ20071105155013811/05/07 15:50:31  5-MIN KDBQ 052150Z 30021G32KT 10SM FEW060 06/M07 A2994 1060 38 300 300/21G32 RMK AO2 PK WND 32036/2118 SLP146 T00611072
94908KDBQ DBQ20071105155510311/05/07 15:55:31  5-MIN KDBQ 052155Z 30019G28KT 10SM FEW070 07/M07 A2994 1060 38 300 300/19G28 RMK AO2
94908KDBQ DBQ20071105160012111/05/07 16:00:31  5-MIN KDBQ 052200Z 30018G28KT 10SM SCT070 07/M07 A2995 1060 38 300 300/18G28 RMK AO2 PK WND 30026/2156
94908KDBQ DBQ20071105160512111/05/07 16:05:31  5-MIN KDBQ 052205Z 31020G26KT 10SM BKN070 07/M06 A2995 1050 39 300 310/20G26 RMK AO2 PK WND 30026/2204
94908KDBQ DBQ20071105161012111/05/07 16:10:31  5-MIN KDBQ 052210Z 32021G31KT 10SM BKN070 07/M07 A2995 1050 38 300 320/21G31 RMK AO2 PK WND 31031/2208
94908KDBQ DBQ20071105161512111/05/07 16:15:31  5-MIN KDBQ 052215Z 32020G31KT 10SM BKN070 06/M07 A2995 1050 39 300 310/20G31 RMK AO2 PK WND 31031/2208
94908KDBQ DBQ20071105162012111/05/07 16:20:31  5-MIN KDBQ 052220Z 31015G26KT 10SM BKN070 06/M07 A2995 1050 39 300 310/15G26 RMK AO2 PK WND 31031/2208
94908KDBQ DBQ20071105162512111/05/07 16:25:31  5-MIN KDBQ 052225Z 30018G28KT 10SM OVC065 06/M06 A2995 1050 41 300 300/18G28 RMK AO2 PK WND 31031/2208
94908KDBQ DBQ20071105163012811/05/07 16:30:31  5-MIN KDBQ 052230Z 31017G28KT 10SM BKN060 OVC075 06/M06 A2996 1050 41 300 310/17G28 RMK AO2 PK WND 31031/2208
94908KDBQ DBQ20071105163512811/05/07 16:35:31  5-MIN KDBQ 052235Z 32018G26KT 10SM BKN060 OVC070 06/M06 A2996 1050 41 300 310/18G26 RMK AO2 PK WND 31031/2208
94908KDBQ DBQ20071105164012811/05/07 16:40:31  5-MIN KDBQ 052240Z 31017G27KT 10SM SCT060 OVC070 06/M06 A2996 1040 41 300 310/17G27 RMK AO2 PK WND 31031/2208
94908KDBQ DBQ20071105164512111/05/07 16:45:31  5-MIN KDBQ 052245Z 32016G27KT 10SM OVC065 06/M06 A2996 1040 43 200 320/16G27 RMK AO2 PK WND 31031/2208
94908KDBQ DBQ20071105165013811/05/07 16:50:31  5-MIN KDBQ 052250Z 31016G26KT 10SM OVC065 06/M06 A2996 1040 43 200 310/16G26 RMK AO2 PK WND 31031/2208 SLP153 T00561061
94908KDBQ DBQ20071105165511011/05/07 16:55:31  5-MIN KDBQ 052255Z 31016G23KT 10SM FEW055 BKN070 06/M07 A2996 1040 41 200 310/16G23 RMK AO2
94908KDBQ DBQ20071105170011011/05/07 17:00:31  5-MIN KDBQ 052300Z 31018G23KT 10SM FEW060 BKN070 05/M07 A2996 1040 42 100 310/18G23 RMK AO2
94908KDBQ DBQ20071105170512111/05/07 17:05:31  5-MIN KDBQ 052305Z 30017G31KT 10SM SCT070 05/M07 A2997 1030 42 100 300/17G31 RMK AO2 PK WND 31031/2301
94908KDBQ DBQ20071105171012111/05/07 17:10:31  5-MIN KDBQ 052310Z 30020G31KT 10SM FEW070 05/M06 A2997 1030 44 100 300/20G31 RMK AO2 PK WND 31031/2301
94908KDBQ DBQ20071105171512111/05/07 17:15:31  5-MIN KDBQ 052315Z 31022G33KT 10SM FEW070 05/M07 A2997 1030 42 100 310/22G33 RMK AO2 PK WND 30033/2311
94908KDBQ DBQ20071105172012111/05/07 17:20:31  5-MIN KDBQ 052320Z 31022G33KT 10SM FEW070 05/M07 A2998 1030 42 100 310/22G33 RMK AO2 PK WND 30033/2311
94908KDBQ DBQ20071105172512111/05/07 17:25:31  5-MIN KDBQ 052325Z 32016G31KT 10SM SCT070 05/M06 A2998 1030 44 100 310/16G31 RMK AO2 PK WND 30033/2311
94908KDBQ DBQ20071105173012111/05/07 17:30:31  5-MIN KDBQ 052330Z 31018G24KT 10SM BKN070 05/M06 A2998 1020 44 100 310/18G24 RMK AO2 PK WND 30033/2311
94908KDBQ DBQ20071105173511911/05/07 17:35:31  5-MIN KDBQ 052335Z 30017G24KT 10SM BKN070 04/M06 A2998 1020 46 0 300/17G24 RMK AO2 PK WND 30033/2311
94908KDBQ DBQ20071105174011911/05/07 17:40:31  5-MIN KDBQ 052340Z 30019G24KT 10SM BKN070 04/M06 A2998 1020 48 0 300/19G24 RMK AO2 PK WND 30033/2311
94908KDBQ DBQ20071105174511911/05/07 17:45:31  5-MIN KDBQ 052345Z 30017G28KT 10SM OVC070 04/M06 A2999 1020 46 0 300/17G28 RMK AO2 PK WND 30033/2311
94908KDBQ DBQ20071105175015411/05/07 17:50:31  5-MIN KDBQ 052350Z 30020G28KT 10SM OVC070 04/M06 A2999 1020 46 0 300/20G28 RMK AO2 PK WND 30033/2311 SLP162 T00441061 10089 20044 51021
94908KDBQ DBQ20071105175510811/05/07 17:55:31  5-MIN KDBQ 052355Z 30018G26KT 10SM FEW050 OVC070 04/M06 A2999 1010 46 0 300/18G26 RMK AO2
94908KDBQ DBQ20071105180010811/05/07 18:00:31  5-MIN KDBQ 060000Z 30015G24KT 10SM FEW050 BKN070 04/M06 A2999 1010 48 0 300/15G24 RMK AO2
94908KDBQ DBQ20071105180510811/05/07 18:05:31  5-MIN KDBQ 060005Z 30016G24KT 10SM FEW050 BKN065 04/M06 A3000 1010 48 0 300/16G24 RMK AO2
94908KDBQ DBQ20071105181010811/05/07 18:10:31  5-MIN KDBQ 060010Z 30018G25KT 10SM BKN060 BKN070 04/M06 A3000 1000 48 0 300/18G25 RMK AO2
94908KDBQ DBQ20071105181511911/05/07 18:15:31  5-MIN KDBQ 060015Z 31021G29KT 10SM BKN065 04/M07 A3000 1000 46 0 310/21G29 RMK AO2 PK WND 31029/0014
94908KDBQ DBQ20071105182012611/05/07 18:20:31  5-MIN KDBQ 060020Z 31018G29KT 10SM FEW050 BKN065 04/M07 A3000 1000 46 0 310/18G29 RMK AO2 PK WND 31029/0014
94908KDBQ DBQ20071105182511911/05/07 18:25:31  5-MIN KDBQ 060025Z 31018G27KT 10SM BKN060 04/M07 A3000 1000 46 0 310/18G27 RMK AO2 PK WND 31029/0014
94908KDBQ DBQ20071105183012611/05/07 18:30:31  5-MIN KDBQ 060030Z 31016G25KT 10SM FEW049 OVC060 04/M07 A3000 1000 46 0 310/16G25 RMK AO2 PK WND 31029/0014
94908KDBQ DBQ20071105183512611/05/07 18:35:31  5-MIN KDBQ 060035Z 31025G35KT 10SM FEW049 OVC060 04/M07 A3001 1000 46 0 310/25G35 RMK AO2 PK WND 32035/0033
94908KDBQ DBQ20071105184012611/05/07 18:40:31  5-MIN KDBQ 060040Z 31017G35KT 10SM FEW049 OVC060 04/M07 A3001 1000 46 0 310/17G35 RMK AO2 PK WND 32035/0033
94908KDBQ DBQ20071105184512611/05/07 18:45:31  5-MIN KDBQ 060045Z 31025G34KT 10SM FEW049 OVC060 04/M07 A3001 1000 46 0 310/25G34 RMK AO2 PK WND 32035/0033
94908KDBQ DBQ20071105185014211/05/07 18:50:31  5-MIN KDBQ 060050Z 31023G34KT 10SM FEW049 OVC060 04/M07 A3001 990 44 0 310/23G34 RMK AO2 PK WND 32035/0033 SLP170 T00391072
94908KDBQ DBQ20071105185510711/05/07 18:55:31  5-MIN KDBQ 060055Z 31019G29KT 10SM FEW049 OVC060 04/M07 A3001 990 44 0 310/19G29 RMK AO2
94908KDBQ DBQ20071105190010011/05/07 19:00:31  5-MIN KDBQ 060100Z 31017G26KT 10SM OVC060 04/M07 A3001 990 44 0 310/17G26 RMK AO2
94908KDBQ DBQ20071105190512811/05/07 19:05:31  5-MIN KDBQ 060105Z 30019G26KT 10SM FEW050 OVC060 03/M07 A3002 990 46 -100 300/19G26 RMK AO2 PK WND 30026/0105
94908KDBQ DBQ20071105191012111/05/07 19:10:31  5-MIN KDBQ 060110Z 30020G27KT 10SM OVC065 03/M07 A3002 990 48 -100 300/20G27 RMK AO2 PK WND 32027/0109
94908KDBQ DBQ20071105191512111/05/07 19:15:31  5-MIN KDBQ 060115Z 31017G27KT 10SM OVC065 03/M07 A3002 990 48 -100 310/17G27 RMK AO2 PK WND 32027/0109
94908KDBQ DBQ20071105192012111/05/07 19:20:31  5-MIN KDBQ 060120Z 31021G28KT 10SM OVC065 03/M07 A3002 990 48 -100 310/21G28 RMK AO2 PK WND 31028/0119
94908KDBQ DBQ20071105192512811/05/07 19:25:31  5-MIN KDBQ 060125Z 31019G28KT 10SM FEW049 OVC065 03/M07 A3002 990 48 -100 310/19G28 RMK AO2 PK WND 31028/0119
94908KDBQ DBQ20071105193012111/05/07 19:30:31  5-MIN KDBQ 060130Z 30017G27KT 10SM OVC065 03/M07 A3002 990 48 -100 300/17G27 RMK AO2 PK WND 31028/0119
94908KDBQ DBQ20071105193512811/05/07 19:35:31  5-MIN KDBQ 060135Z 31022G29KT 10SM FEW050 OVC065 03/M07 A3002 990 48 -100 310/22G29 RMK AO2 PK WND 30029/0132
94908KDBQ DBQ20071105194012811/05/07 19:40:31  5-MIN KDBQ 060140Z 31021G29KT 10SM FEW050 OVC065 03/M07 A3002 990 48 -100 310/21G29 RMK AO2 PK WND 30029/0132
94908KDBQ DBQ20071105194512811/05/07 19:45:31  5-MIN KDBQ 060145Z 32017G28KT 10SM FEW050 OVC065 03/M07 A3002 980 48 -100 320/17G28 RMK AO2 PK WND 30029/0132
94908KDBQ DBQ20071105195014511/05/07 19:50:31  5-MIN KDBQ 060150Z 32016G25KT 10SM FEW050 OVC065 03/M07 A3003 980 50 -200 320/16G25 RMK AO2 PK WND 30029/0132 SLP175 T00281067
94908KDBQ DBQ20071105195512811/05/07 19:55:31  5-MIN KDBQ 060155Z 31020G31KT 10SM FEW050 OVC065 03/M07 A3003 980 50 -200 310/20G31 RMK AO2 PK WND 30031/0155
94908KDBQ DBQ20071105200013311/05/07 20:00:31  5-MIN KDBQ 060200Z AUTO 32017G31KT 10SM FEW050 OVC070 03/M07 A3003 980 48 -200 320/17G31 RMK AO2 PK WND 30031/0155
94908KDBQ DBQ20071105200512611/05/07 20:05:31  5-MIN KDBQ 060205Z AUTO 31016G28KT 10SM OVC070 03/M07 A3002 980 48 -200 310/16G28 RMK AO2 PK WND 30031/0155
94908KDBQ DBQ20071105201012611/05/07 20:10:31  5-MIN KDBQ 060210Z AUTO 31017G24KT 10SM BKN070 03/M07 A3003 980 48 -200 310/17G24 RMK AO2 PK WND 30031/0155
94908KDBQ DBQ20071105201512611/05/07 20:15:31  5-MIN KDBQ 060215Z AUTO 30017G25KT 10SM BKN070 02/M07 A3003 980 50 -200 300/17G25 RMK AO2 PK WND 30031/0155
94908KDBQ DBQ20071105202012611/05/07 20:20:31  5-MIN KDBQ 060220Z AUTO 30022G27KT 10SM BKN070 02/M07 A3003 980 50 -200 300/22G27 RMK AO2 PK WND 30031/0155
94908KDBQ DBQ20071105202512611/05/07 20:25:31  5-MIN KDBQ 060225Z AUTO 31017G27KT 10SM SCT070 02/M07 A3003 980 50 -200 300/17G27 RMK AO2 PK WND 30031/0155
94908KDBQ DBQ20071105203012611/05/07 20:30:31  5-MIN KDBQ 060230Z AUTO 30020G26KT 10SM FEW070 02/M07 A3003 980 52 -200 300/20G26 RMK AO2 PK WND 30031/0155
94908KDBQ DBQ20071105203512611/05/07 20:35:31  5-MIN KDBQ 060235Z AUTO 30019G25KT 10SM FEW070 02/M07 A3003 980 52 -200 300/19G25 RMK AO2 PK WND 30031/0155
94908KDBQ DBQ20071105204012311/05/07 20:40:31  5-MIN KDBQ 060240Z AUTO 30017G25KT 10SM CLR 02/M07 A3003 980 52 -300 300/17G25 RMK AO2 PK WND 30031/0155
94908KDBQ DBQ20071105204512311/05/07 20:45:31  5-MIN KDBQ 060245Z AUTO 30021G26KT 10SM CLR 02/M06 A3003 970 54 -300 300/21G26 RMK AO2 PK WND 30031/0155
94908KDBQ DBQ20071105205014611/05/07 20:50:31  5-MIN KDBQ 060250Z AUTO 31020G26KT 10SM CLR 02/M06 A3004 970 54 -300 310/20G26 RMK AO2 PK WND 30031/0155 SLP180 T00221061 53024
94908KDBQ DBQ20071105205510511/05/07 20:55:31  5-MIN KDBQ 060255Z AUTO 31017G27KT 10SM CLR 02/M06 A3003 970 54 -300 310/17G27 RMK AO2
94908KDBQ DBQ20071105210010711/05/07 21:00:31  5-MIN KDBQ 060300Z AUTO 30017G27KT 10SM CLR 02/M06 A3004 970 56 -300 300/17G27 RMK AO2 $
94908KDBQ DBQ20071105210510711/05/07 21:05:31  5-MIN KDBQ 060305Z AUTO 30016G25KT 10SM CLR 02/M06 A3004 970 59 -300 300/16G25 RMK AO2 $
94908KDBQ DBQ20071105211010711/05/07 21:10:31  5-MIN KDBQ 060310Z AUTO 30013G25KT 10SM CLR 02/M06 A3004 970 59 -300 300/13G25 RMK AO2 $
94908KDBQ DBQ20071105211511011/05/07 21:15:31  5-MIN KDBQ 060315Z AUTO 30017G21KT 10SM FEW070 01/M06 A3004 970 61 -400 300/17G21 RMK AO2 $
94908KDBQ DBQ20071105212012811/05/07 21:20:31  5-MIN KDBQ 060320Z AUTO 30018G29KT 10SM SCT070 02/M06 A3004 970 59 -300 300/18G29 RMK AO2 PK WND 31029/0316 $
94908KDBQ DBQ20071105212512811/05/07 21:25:31  5-MIN KDBQ 060325Z AUTO 31017G29KT 10SM SCT070 02/M06 A3004 970 59 -300 310/17G29 RMK AO2 PK WND 31029/0316 $
94908KDBQ DBQ20071105213012811/05/07 21:30:31  5-MIN KDBQ 060330Z AUTO 31018G26KT 10SM SCT070 01/M06 A3004 970 61 -400 300/18G26 RMK AO2 PK WND 31029/0316 $
94908KDBQ DBQ20071105213512811/05/07 21:35:31  5-MIN KDBQ 060335Z AUTO 30018G26KT 10SM SCT070 02/M06 A3004 970 59 -300 300/18G26 RMK AO2 PK WND 31029/0316 $
94908KDBQ DBQ20071105214012811/05/07 21:40:31  5-MIN KDBQ 060340Z AUTO 31013G26KT 10SM BKN070 02/M06 A3004 960 59 -300 310/13G26 RMK AO2 PK WND 31029/0316 $
94908KDBQ DBQ20071105214512811/05/07 21:45:31  5-MIN KDBQ 060345Z AUTO 32016G28KT 10SM BKN070 02/M06 A3005 960 59 -300 320/16G28 RMK AO2 PK WND 31029/0316 $
94908KDBQ DBQ20071105215014511/05/07 21:50:31  5-MIN KDBQ 060350Z AUTO 31015G28KT 10SM SCT070 01/M06 A3005 960 61 -400 310/15G28 RMK AO2 PK WND 31029/0316 SLP183 T00111056 $
94908KDBQ DBQ20071105215511011/05/07 21:55:31  5-MIN KDBQ 060355Z AUTO 31013G22KT 10SM FEW070 01/M06 A3005 960 61 -400 310/13G22 RMK AO2 $
94908KDBQ DBQ20071105220011011/05/07 22:00:31  5-MIN KDBQ 060400Z AUTO 30020G25KT 10SM FEW070 01/M06 A3005 960 61 -400 300/20G25 RMK AO2 $
94908KDBQ DBQ20071105220511011/05/07 22:05:31  5-MIN KDBQ 060405Z AUTO 31019G25KT 10SM FEW070 01/M06 A3005 960 61 -400 310/19G25 RMK AO2 $
94908KDBQ DBQ20071105221010511/05/07 22:10:31  5-MIN KDBQ 060410Z AUTO 31014G24KT 10SM CLR 01/M06 A3005 960 61 -400 310/14G24 RMK AO2
94908KDBQ DBQ20071105221510511/05/07 22:15:31  5-MIN KDBQ 060415Z AUTO 31018G23KT 10SM CLR 01/M06 A3005 960 61 -400 310/18G23 RMK AO2
94908KDBQ DBQ20071105222010511/05/07 22:20:31  5-MIN KDBQ 060420Z AUTO 31015G23KT 10SM CLR 01/M06 A3005 950 61 -400 310/15G23 RMK AO2
94908KDBQ DBQ20071105222510511/05/07 22:25:31  5-MIN KDBQ 060425Z AUTO 31017G24KT 10SM CLR 01/M06 A3005 950 61 -400 310/17G24 RMK AO2
94908KDBQ DBQ20071105223010511/05/07 22:30:31  5-MIN KDBQ 060430Z AUTO 31015G24KT 10SM CLR 01/M06 A3005 950 61 -400 310/15G24 RMK AO2
94908KDBQ DBQ20071105223510511/05/07 22:35:31  5-MIN KDBQ 060435Z AUTO 31018G22KT 10SM CLR 01/M06 A3006 950 61 -400 300/18G22 RMK AO2
94908KDBQ DBQ20071105224010511/05/07 22:40:31  5-MIN KDBQ 060440Z AUTO 30017G24KT 10SM CLR 01/M06 A3006 950 58 -400 300/17G24 RMK AO2
94908KDBQ DBQ20071105224510511/05/07 22:45:31  5-MIN KDBQ 060445Z AUTO 31017G24KT 10SM CLR 01/M06 A3006 950 58 -400 310/17G24 RMK AO2
94908KDBQ DBQ20071105225012211/05/07 22:50:31  5-MIN KDBQ 060450Z AUTO 31020G24KT 10SM CLR 01/M06 A3006 950 58 -400 310/20G24 RMK AO2 SLP188 T00111061
94908KDBQ DBQ20071105225510511/05/07 22:55:31  5-MIN KDBQ 060455Z AUTO 30016G25KT 10SM CLR 01/M06 A3006 950 58 -400 300/16G25 RMK AO2
94908KDBQ DBQ20071105230010511/05/07 23:00:31  5-MIN KDBQ 060500Z AUTO 30019G25KT 10SM CLR 01/M06 A3006 950 58 -400 300/19G25 RMK AO2
94908KDBQ DBQ20071105230510511/05/07 23:05:31  5-MIN KDBQ 060505Z AUTO 30017G23KT 10SM CLR 01/M06 A3006 950 61 -500 300/17G23 RMK AO2
94908KDBQ DBQ20071105231010511/05/07 23:10:31  5-MIN KDBQ 060510Z AUTO 30020G25KT 10SM CLR 01/M06 A3007 940 61 -500 300/20G25 RMK AO2
94908KDBQ DBQ20071105231510811/05/07 23:15:31  5-MIN KDBQ 060515Z AUTO 30017G25KT 10SM FEW055 01/M06 A3007 940 61 -500 300/17G25 RMK AO2
94908KDBQ DBQ20071105232010811/05/07 23:20:31  5-MIN KDBQ 060520Z AUTO 30016G23KT 10SM SCT055 01/M06 A3007 940 58 -400 300/16G23 RMK AO2
94908KDBQ DBQ20071105232510811/05/07 23:25:31  5-MIN KDBQ 060525Z AUTO 31017G23KT 10SM SCT055 01/M06 A3007 940 61 -500 310/17G23 RMK AO2
94908KDBQ DBQ20071105233010811/05/07 23:30:31  5-MIN KDBQ 060530Z AUTO 30017G24KT 10SM BKN050 01/M06 A3007 940 58 -400 300/17G24 RMK AO2
94908KDBQ DBQ20071105233510811/05/07 23:35:31  5-MIN KDBQ 060535Z AUTO 31015G24KT 10SM BKN055 01/M06 A3007 940 58 -400 310/15G24 RMK AO2
94908KDBQ DBQ20071105234010811/05/07 23:40:31  5-MIN KDBQ 060540Z AUTO 31014G22KT 10SM BKN050 01/M06 A3007 940 58 -400 310/14G22 RMK AO2
94908KDBQ DBQ20071105234510811/05/07 23:45:31  5-MIN KDBQ 060545Z AUTO 31015G22KT 10SM OVC050 01/M06 A3007 940 58 -400 310/15G22 RMK AO2
94908KDBQ DBQ20071105235015311/05/07 23:50:31  5-MIN KDBQ 060550Z AUTO 31015G22KT 10SM BKN050 01/M06 A3007 940 58 -400 310/15G22 RMK AO2 SLP190 T00111061 10044 20006 400940006 51016
94908KDBQ DBQ20071105235510811/05/07 23:55:31  5-MIN KDBQ 060555Z AUTO 31016G22KT 10SM BKN050 01/M06 A3007 940 58 -400 310/16G22 RMK AO2
94908KDBQ DBQ20071106000010811/06/07 00:00:38  5-MIN KDBQ 060600Z AUTO 30016G22KT 10SM BKN050 01/M06 A3007 940 61 -500 300/16G22 RMK AO2
94908KDBQ DBQ20071106000510811/06/07 00:05:31  5-MIN KDBQ 060605Z AUTO 30016G22KT 10SM SCT050 01/M06 A3007 940 58 -400 300/16G22 RMK AO2
94908KDBQ DBQ20071106001010811/06/07 00:10:31  5-MIN KDBQ 060610Z AUTO 30017G22KT 10SM FEW050 01/M06 A3007 940 58 -400 300/17G22 RMK AO2
94908KDBQ DBQ20071106001510211/06/07 00:15:34  5-MIN KDBQ 060615Z AUTO 30017KT 10SM FEW050 01/M06 A3007 940 58 -400 300/17 RMK AO2
94908KDBQ DBQ20071106002010511/06/07 00:20:31  5-MIN KDBQ 060620Z AUTO 30013G21KT 10SM CLR 01/M06 A3007 940 61 -500 300/13G21 RMK AO2
94908KDBQ DBQ20071106002509911/06/07 00:25:31  5-MIN KDBQ 060625Z AUTO 30013KT 10SM CLR 01/M06 A3007 940 61 -500 300/13 RMK AO2
94908KDBQ DBQ20071106003009911/06/07 00:30:31  5-MIN KDBQ 060630Z AUTO 31017KT 10SM CLR 01/M06 A3007 940 61 -500 310/17 RMK AO2
94908KDBQ DBQ20071106003510511/06/07 00:35:31  5-MIN KDBQ 060635Z AUTO 31012G20KT 10SM CLR 01/M06 A3007 940 61 -500 310/12G20 RMK AO2
94908KDBQ DBQ20071106004010511/06/07 00:40:31  5-MIN KDBQ 060640Z AUTO 31012G20KT 10SM CLR 01/M06 A3007 940 61 -500 310/12G20 RMK AO2
94908KDBQ DBQ20071106004510511/06/07 00:45:31  5-MIN KDBQ 060645Z AUTO 31016G20KT 10SM CLR 01/M06 A3007 940 61 -500 310/16G20 RMK AO2
94908KDBQ DBQ20071106005012211/06/07 00:50:31  5-MIN KDBQ 060650Z AUTO 31013G20KT 10SM CLR 01/M06 A3007 940 61 -500 310/13G20 RMK AO2 SLP193 T00061061
94908KDBQ DBQ20071106005509911/06/07 00:55:31  5-MIN KDBQ 060655Z AUTO 31013KT 10SM CLR 01/M06 A3008 940 61 -500 310/13 RMK AO2
94908KDBQ DBQ20071106010010511/06/07 01:00:31  5-MIN KDBQ 060700Z AUTO 32014G19KT 10SM CLR 01/M06 A3007 940 61 -500 320/14G19 RMK AO2
94908KDBQ DBQ20071106010510511/06/07 01:05:31  5-MIN KDBQ 060705Z AUTO 31014G20KT 10SM CLR 01/M06 A3007 940 61 -500 310/14G20 RMK AO2
94908KDBQ DBQ20071106011010511/06/07 01:10:31  5-MIN KDBQ 060710Z AUTO 31014G21KT 10SM CLR 01/M06 A3007 940 61 -500 310/14G21 RMK AO2
94908KDBQ DBQ20071106011510511/06/07 01:15:31  5-MIN KDBQ 060715Z AUTO 31014G24KT 10SM CLR 01/M06 A3007 940 61 -500 310/14G24 RMK AO2
94908KDBQ DBQ20071106012010511/06/07 01:20:31  5-MIN KDBQ 060720Z AUTO 31013G24KT 10SM CLR 01/M06 A3007 940 61 -500 310/13G24 RMK AO2
94908KDBQ DBQ20071106012510511/06/07 01:25:31  5-MIN KDBQ 060725Z AUTO 31013G21KT 10SM CLR 01/M06 A3008 930 61 -500 310/13G21 RMK AO2
94908KDBQ DBQ20071106013010511/06/07 01:30:31  5-MIN KDBQ 060730Z AUTO 31013G21KT 10SM CLR 01/M06 A3008 930 61 -500 310/13G21 RMK AO2
94908KDBQ DBQ20071106013510511/06/07 01:35:31  5-MIN KDBQ 060735Z AUTO 31015G20KT 10SM CLR 01/M06 A3008 930 61 -500 310/15G20 RMK AO2
94908KDBQ DBQ20071106014010511/06/07 01:40:31  5-MIN KDBQ 060740Z AUTO 31015G22KT 10SM CLR 01/M06 A3008 930 61 -500 310/15G22 RMK AO2
94908KDBQ DBQ20071106014510511/06/07 01:45:31  5-MIN KDBQ 060745Z AUTO 31016G22KT 10SM CLR 01/M06 A3008 930 63 -500 310/16G22 RMK AO2
94908KDBQ DBQ20071106015012211/06/07 01:50:31  5-MIN KDBQ 060750Z AUTO 31016G21KT 10SM CLR 01/M06 A3008 930 63 -500 310/16G21 RMK AO2 SLP196 T00061056
94908KDBQ DBQ20071106015509911/06/07 01:55:31  5-MIN KDBQ 060755Z AUTO 31015KT 10SM CLR 01/M06 A3008 930 63 -500 310/15 RMK AO2
94908KDBQ DBQ20071106020009911/06/07 02:00:31  5-MIN KDBQ 060800Z AUTO 31014KT 10SM CLR 01/M06 A3008 930 63 -500 310/14 RMK AO2
94908KDBQ DBQ20071106020510511/06/07 02:05:31  5-MIN KDBQ 060805Z AUTO 31013G21KT 10SM CLR 01/M06 A3008 930 63 -500 310/13G21 RMK AO2
94908KDBQ DBQ20071106021010511/06/07 02:10:31  5-MIN KDBQ 060810Z AUTO 31015G21KT 10SM CLR 01/M06 A3009 930 63 -500 310/15G21 RMK AO2
94908KDBQ DBQ20071106021510511/06/07 02:15:31  5-MIN KDBQ 060815Z AUTO 32017G22KT 10SM CLR 01/M06 A3009 920 63 -500 310/17G22 RMK AO2
94908KDBQ DBQ20071106022010511/06/07 02:20:31  5-MIN KDBQ 060820Z AUTO 31016G22KT 10SM CLR 01/M06 A3009 920 63 -500 310/16G22 RMK AO2
94908KDBQ DBQ20071106022510811/06/07 02:25:31  5-MIN KDBQ 060825Z AUTO 31013G21KT 10SM FEW055 01/M06 A3009 920 63 -500 310/13G21 RMK AO2
94908KDBQ DBQ20071106023010811/06/07 02:30:31  5-MIN KDBQ 060830Z AUTO 31015G23KT 10SM SCT055 01/M06 A3009 920 61 -500 310/15G23 RMK AO2
94908KDBQ DBQ20071106023510811/06/07 02:35:31  5-MIN KDBQ 060835Z AUTO 31015G23KT 10SM BKN055 01/M05 A3009 920 64 -500 310/15G23 RMK AO2
94908KDBQ DBQ20071106024010811/06/07 02:40:31  5-MIN KDBQ 060840Z AUTO 31018G23KT 10SM BKN055 01/M05 A3009 920 64 -500 310/18G23 RMK AO2
94908KDBQ DBQ20071106024510811/06/07 02:45:31  5-MIN KDBQ 060845Z AUTO 31014G23KT 10SM BKN050 01/M05 A3009 920 64 -500 310/14G23 RMK AO2
94908KDBQ DBQ20071106025013111/06/07 02:50:31  5-MIN KDBQ 060850Z AUTO 31013G21KT 10SM OVC055 01/M05 A3009 920 64 -500 310/13G21 RMK AO2 SLP199 T00111050 53010
94908KDBQ DBQ20071106025510211/06/07 02:55:31  5-MIN KDBQ 060855Z AUTO 31015KT 10SM OVC055 01/M05 A3009 920 64 -500 300/15 RMK AO2
94908KDBQ DBQ20071106030010811/06/07 03:00:31  5-MIN KDBQ 060900Z AUTO 31019G24KT 10SM OVC050 01/M05 A3009 920 64 -500 310/19G24 RMK AO2
94908KDBQ DBQ20071106030510811/06/07 03:05:31  5-MIN KDBQ 060905Z AUTO 31012G24KT 10SM OVC050 02/M05 A3009 920 61 -400 310/12G24 RMK AO2
94908KDBQ DBQ20071106031010811/06/07 03:10:31  5-MIN KDBQ 060910Z AUTO 31016G22KT 10SM OVC050 01/M05 A3009 920 64 -500 310/16G22 RMK AO2
94908KDBQ DBQ20071106031510811/06/07 03:15:31  5-MIN KDBQ 060915Z AUTO 31014G23KT 10SM OVC050 02/M05 A3009 920 61 -400 310/14G23 RMK AO2
94908KDBQ DBQ20071106032010811/06/07 03:20:31  5-MIN KDBQ 060920Z AUTO 31016G24KT 10SM OVC050 02/M04 A3009 920 64 -400 310/16G24 RMK AO2
94908KDBQ DBQ20071106032510811/06/07 03:25:31  5-MIN KDBQ 060925Z AUTO 31016G25KT 10SM OVC050 02/M04 A3009 920 64 -400 310/16G25 RMK AO2
94908KDBQ DBQ20071106033010811/06/07 03:30:31  5-MIN KDBQ 060930Z AUTO 31014G25KT 10SM OVC050 02/M04 A3010 920 64 -400 310/14G25 RMK AO2
94908KDBQ DBQ20071106033510811/06/07 03:35:31  5-MIN KDBQ 060935Z AUTO 31013G21KT 10SM OVC050 02/M04 A3010 920 64 -400 310/13G21 RMK AO2
94908KDBQ DBQ20071106034010811/06/07 03:40:31  5-MIN KDBQ 060940Z AUTO 31017G22KT 10SM OVC050 02/M04 A3010 920 64 -400 310/17G22 RMK AO2
94908KDBQ DBQ20071106034510811/06/07 03:45:31  5-MIN KDBQ 060945Z AUTO 31016G22KT 10SM OVC050 02/M04 A3010 920 64 -400 310/16G22 RMK AO2
94908KDBQ DBQ20071106035012511/06/07 03:50:31  5-MIN KDBQ 060950Z AUTO 31014G22KT 10SM OVC050 02/M04 A3010 920 64 -400 310/14G22 RMK AO2 SLP201 T00171044
94908KDBQ DBQ20071106035510811/06/07 03:55:31  5-MIN KDBQ 060955Z AUTO 31016G21KT 10SM OVC050 02/M04 A3010 910 64 -400 310/16G21 RMK AO2
94908KDBQ DBQ20071106040010811/06/07 04:00:31  5-MIN KDBQ 061000Z AUTO 31014G21KT 10SM OVC050 02/M04 A3010 910 64 -400 310/14G21 RMK AO2
94908KDBQ DBQ20071106040510211/06/07 04:05:31  5-MIN KDBQ 061005Z AUTO 31013KT 10SM OVC048 02/M04 A3010 910 64 -400 310/13 RMK AO2
94908KDBQ DBQ20071106041010211/06/07 04:10:31  5-MIN KDBQ 061010Z AUTO 30012KT 10SM BKN048 01/M04 A3010 910 66 -500 300/12 RMK AO2
94908KDBQ DBQ20071106041510211/06/07 04:15:31  5-MIN KDBQ 061015Z AUTO 31015KT 10SM BKN048 01/M04 A3011 910 66 -500 300/15 RMK AO2
94908KDBQ DBQ20071106042010211/06/07 04:20:31  5-MIN KDBQ 061020Z AUTO 30013KT 10SM BKN048 01/M04 A3011 910 66 -500 300/13 RMK AO2
94908KDBQ DBQ20071106042510811/06/07 04:25:31  5-MIN KDBQ 061025Z AUTO 30015G20KT 10SM BKN048 01/M04 A3011 900 66 -500 300/15G20 RMK AO2
94908KDBQ DBQ20071106043010811/06/07 04:30:31  5-MIN KDBQ 061030Z AUTO 31015G20KT 10SM BKN048 01/M04 A3011 900 66 -500 300/15G20 RMK AO2
94908KDBQ DBQ20071106043510811/06/07 04:35:31  5-MIN KDBQ 061035Z AUTO 31013G20KT 10SM BKN046 01/M04 A3011 900 66 -500 300/13G20 RMK AO2
94908KDBQ DBQ20071106044010211/06/07 04:40:31  5-MIN KDBQ 061040Z AUTO 31013KT 10SM BKN046 01/M04 A3011 900 66 -500 310/13 RMK AO2
94908KDBQ DBQ20071106044510211/06/07 04:45:31  5-MIN KDBQ 061045Z AUTO 31013KT 10SM BKN046 01/M04 A3011 900 66 -500 310/13 RMK AO2
94908KDBQ DBQ20071106045012511/06/07 04:50:31  5-MIN KDBQ 061050Z AUTO 31016G21KT 10SM SCT046 01/M04 A3011 900 66 -500 310/16G21 RMK AO2 SLP207 T00111044
94908KDBQ DBQ20071106045510811/06/07 04:55:31  5-MIN KDBQ 061055Z AUTO 31013G21KT 10SM SCT046 01/M04 A3012 900 66 -500 300/13G21 RMK AO2
94908KDBQ DBQ20071106050010811/06/07 05:00:31  5-MIN KDBQ 061100Z AUTO 31013G19KT 10SM BKN048 01/M04 A3012 900 66 -500 310/13G19 RMK AO2
94908KDBQ DBQ20071106050510211/06/07 05:05:31  5-MIN KDBQ 061105Z AUTO 31012KT 10SM BKN048 01/M04 A3012 890 66 -500 310/12 RMK AO2
94908KDBQ DBQ20071106051010811/06/07 05:10:31  5-MIN KDBQ 061110Z AUTO 31012G20KT 10SM BKN048 02/M04 A3012 890 64 -400 310/12G20 RMK AO2
94908KDBQ DBQ20071106051510311/06/07 05:15:31  5-MIN KDBQ 061115Z 31014G20KT 10SM BKN048 02/M04 A3012 890 64 -400 310/14G20 RMK AO2
94908KDBQ DBQ20071106052010311/06/07 05:20:31  5-MIN KDBQ 061120Z 31014G21KT 10SM OVC048 02/M04 A3012 890 64 -400 310/14G21 RMK AO2
94908KDBQ DBQ20071106052510311/06/07 05:25:31  5-MIN KDBQ 061125Z 31015G21KT 10SM OVC048 02/M04 A3012 890 64 -400 310/15G21 RMK AO2
94908KDBQ DBQ20071106053009711/06/07 05:30:31  5-MIN KDBQ 061130Z 31015KT 10SM OVC048 02/M04 A3012 890 64 -400 310/15 RMK AO2
94908KDBQ DBQ20071106053510311/06/07 05:35:31  5-MIN KDBQ 061135Z 31014G21KT 10SM OVC048 02/M04 A3012 890 64 -400 310/14G21 RMK AO2
94908KDBQ DBQ20071106054009711/06/07 05:40:31  5-MIN KDBQ 061140Z 31014KT 10SM OVC048 02/M04 A3013 890 64 -400 310/14 RMK AO2
94908KDBQ DBQ20071106054512111/06/07 05:45:31  5-MIN KDBQ 061145Z 31014G28KT 10SM OVC048 02/M04 A3013 890 64 -400 310/14G28 RMK AO2 PK WND 32028/1142
94908KDBQ DBQ20071106055015611/06/07 05:50:31  5-MIN KDBQ 061150Z 31016G28KT 10SM OVC046 02/M04 A3013 890 61 -400 310/16G28 RMK AO2 PK WND 32028/1142 SLP211 T00221044 10022 20006 53007
94908KDBQ DBQ20071106055512111/06/07 05:55:31  5-MIN KDBQ 061155Z 32019G26KT 10SM OVC046 02/M04 A3013 890 61 -400 320/19G26 RMK AO2 PK WND 32026/1155
94908KDBQ DBQ20071106060012111/06/07 06:00:31  5-MIN KDBQ 061200Z 31016G26KT 10SM OVC043 02/M04 A3013 890 61 -400 310/16G26 RMK AO2 PK WND 32026/1155
94908KDBQ DBQ20071106060512111/06/07 06:05:31  5-MIN KDBQ 061205Z 31017G23KT 10SM OVC043 02/M05 A3013 890 59 -400 310/17G23 RMK AO2 PK WND 32026/1155
94908KDBQ DBQ20071106061012111/06/07 06:10:31  5-MIN KDBQ 061210Z 31013G23KT 10SM OVC043 02/M04 A3013 890 61 -400 310/13G23 RMK AO2 PK WND 32026/1155
94908KDBQ DBQ20071106061512111/06/07 06:15:31  5-MIN KDBQ 061215Z 31014G23KT 10SM OVC041 02/M04 A3013 880 61 -400 310/14G23 RMK AO2 PK WND 32026/1155
94908KDBQ DBQ20071106062012111/06/07 06:20:31  5-MIN KDBQ 061220Z 32016G24KT 10SM OVC041 02/M04 A3013 880 61 -400 310/16G24 RMK AO2 PK WND 32026/1155
94908KDBQ DBQ20071106062512111/06/07 06:25:31  5-MIN KDBQ 061225Z 32015G24KT 10SM OVC041 02/M04 A3014 880 61 -400 320/15G24 RMK AO2 PK WND 32026/1155
94908KDBQ DBQ20071106063012111/06/07 06:30:31  5-MIN KDBQ 061230Z 31014G24KT 10SM OVC041 02/M04 A3014 880 61 -400 310/14G24 RMK AO2 PK WND 32026/1155
94908KDBQ DBQ20071106063512111/06/07 06:35:31  5-MIN KDBQ 061235Z 32014G22KT 10SM OVC041 02/M04 A3014 880 61 -400 310/14G22 RMK AO2 PK WND 32026/1155
94908KDBQ DBQ20071106064012111/06/07 06:40:31  5-MIN KDBQ 061240Z 32015G22KT 10SM OVC041 02/M04 A3014 880 61 -400 320/15G22 RMK AO2 PK WND 32026/1155
94908KDBQ DBQ20071106064511511/06/07 06:45:31  5-MIN KDBQ 061245Z 33014KT 10SM OVC041 02/M04 A3014 870 61 -400 320/14 RMK AO2 PK WND 32026/1155
94908KDBQ DBQ20071106065013811/06/07 06:50:31  5-MIN KDBQ 061250Z 32015G23KT 10SM OVC043 02/M04 A3014 870 61 -400 320/15G23 RMK AO2 PK WND 32026/1155 SLP217 T00221044
94908KDBQ DBQ20071106065510311/06/07 06:55:31  5-MIN KDBQ 061255Z 32012G24KT 10SM OVC043 02/M04 A3015 870 61 -400 310/12G24 RMK AO2
94908KDBQ DBQ20071106070010311/06/07 07:00:31  5-MIN KDBQ 061300Z 32014G24KT 10SM OVC043 02/M04 A3015 870 61 -400 320/14G24 RMK AO2
94908KDBQ DBQ20071106070510311/06/07 07:05:31  5-MIN KDBQ 061305Z 32013G21KT 10SM OVC043 02/M04 A3015 870 61 -400 320/13G21 RMK AO2
94908KDBQ DBQ20071106071010311/06/07 07:10:31  5-MIN KDBQ 061310Z 31016G22KT 10SM OVC045 02/M04 A3015 870 61 -400 310/16G22 RMK AO2
94908KDBQ DBQ20071106071510311/06/07 07:15:31  5-MIN KDBQ 061315Z 32018G23KT 10SM OVC045 02/M04 A3015 860 61 -400 320/18G23 RMK AO2
94908KDBQ DBQ20071106072010311/06/07 07:20:31  5-MIN KDBQ 061320Z 31017G23KT 10SM OVC045 02/M04 A3016 860 61 -400 310/17G23 RMK AO2
94908KDBQ DBQ20071106072510311/06/07 07:25:31  5-MIN KDBQ 061325Z 32015G23KT 10SM OVC045 02/M04 A3016 860 61 -400 320/15G23 RMK AO2
94908KDBQ DBQ20071106073010311/06/07 07:30:31  5-MIN KDBQ 061330Z 32016G23KT 10SM OVC045 02/M04 A3016 860 61 -400 320/16G23 RMK AO2
94908KDBQ DBQ20071106073510311/06/07 07:35:31  5-MIN KDBQ 061335Z 32014G23KT 10SM OVC045 02/M04 A3016 850 61 -400 320/14G23 RMK AO2
94908KDBQ DBQ20071106074010311/06/07 07:40:31  5-MIN KDBQ 061340Z 32015G23KT 10SM OVC045 02/M04 A3017 850 61 -400 320/15G23 RMK AO2
94908KDBQ DBQ20071106074510311/06/07 07:45:31  5-MIN KDBQ 061345Z 32015G24KT 10SM OVC043 02/M04 A3017 850 61 -400 320/15G24 RMK AO2
94908KDBQ DBQ20071106075012011/06/07 07:50:31  5-MIN KDBQ 061350Z 32017G25KT 10SM OVC043 02/M04 A3017 850 61 -400 320/17G25 RMK AO2 SLP227 T00221044
94908KDBQ DBQ20071106075510311/06/07 07:55:31  5-MIN KDBQ 061355Z 32015G25KT 10SM OVC043 03/M04 A3017 850 59 -300 320/15G25 RMK AO2
94908KDBQ DBQ20071106080010311/06/07 08:00:31  5-MIN KDBQ 061400Z 32015G22KT 10SM OVC043 03/M04 A3017 840 59 -300 320/15G22 RMK AO2
94908KDBQ DBQ20071106080510311/06/07 08:05:31  5-MIN KDBQ 061405Z 32017G24KT 10SM OVC043 03/M04 A3017 840 59 -300 320/17G24 RMK AO2
94908KDBQ DBQ20071106081010311/06/07 08:10:31  5-MIN KDBQ 061410Z 32016G24KT 10SM OVC043 03/M04 A3017 840 59 -300 320/16G24 RMK AO2
94908KDBQ DBQ20071106081509711/06/07 08:15:31  5-MIN KDBQ 061415Z 32014KT 10SM OVC043 03/M04 A3018 840 59 -300 320/14 RMK AO2
94908KDBQ DBQ20071106082010311/06/07 08:20:31  5-MIN KDBQ 061420Z 32018G23KT 10SM OVC043 03/M04 A3018 840 59 -300 320/18G23 RMK AO2
94908KDBQ DBQ20071106082510311/06/07 08:25:31  5-MIN KDBQ 061425Z 32016G23KT 10SM OVC043 03/M05 A3018 840 56 -400 320/16G23 RMK AO2
94908KDBQ DBQ20071106083010311/06/07 08:30:31  5-MIN KDBQ 061430Z 32014G22KT 10SM OVC043 03/M04 A3018 840 59 -400 320/14G22 RMK AO2
94908KDBQ DBQ20071106083510311/06/07 08:35:31  5-MIN KDBQ 061435Z 32017G25KT 10SM OVC043 03/M05 A3019 830 56 -400 320/17G25 RMK AO2
94908KDBQ DBQ20071106084010311/06/07 08:40:31  5-MIN KDBQ 061440Z 32016G25KT 10SM OVC043 03/M05 A3019 830 56 -400 320/16G25 RMK AO2
94908KDBQ DBQ20071106084510311/06/07 08:45:31  5-MIN KDBQ 061445Z 32015G23KT 10SM OVC043 03/M05 A3019 830 56 -400 320/15G23 RMK AO2
94908KDBQ DBQ20071106085012611/06/07 08:50:31  5-MIN KDBQ 061450Z 33016G22KT 10SM OVC043 03/M05 A3019 830 54 -300 330/16G22 RMK AO2 SLP234 T00331050 53012
94908KDBQ DBQ20071106085510311/06/07 08:55:31  5-MIN KDBQ 061455Z 33018G23KT 10SM OVC043 03/M05 A3019 830 54 -300 330/18G23 RMK AO2
94908KDBQ DBQ20071106090010311/06/07 09:00:31  5-MIN KDBQ 061500Z 33015G23KT 10SM OVC043 03/M05 A3020 820 54 -300 330/15G23 RMK AO2
94908KDBQ DBQ20071106090510311/06/07 09:05:31  5-MIN KDBQ 061505Z 33016G23KT 10SM OVC043 03/M05 A3020 820 54 -300 330/16G23 RMK AO2
94908KDBQ DBQ20071106091010311/06/07 09:10:31  5-MIN KDBQ 061510Z 33016G24KT 10SM OVC043 03/M06 A3020 820 52 -300 330/16G24 RMK AO2
94908KDBQ DBQ20071106091512111/06/07 09:15:31  5-MIN KDBQ 061515Z 33019G29KT 10SM OVC041 04/M05 A3020 820 52 -200 330/19G29 RMK AO2 PK WND 33029/1512
94908KDBQ DBQ20071106092012111/06/07 09:20:31  5-MIN KDBQ 061520Z 33017G29KT 10SM OVC041 04/M06 A3020 820 50 -200 330/17G29 RMK AO2 PK WND 33029/1512
94908KDBQ DBQ20071106092512111/06/07 09:25:31  5-MIN KDBQ 061525Z 32014G23KT 10SM OVC041 04/M05 A3020 820 52 -200 320/14G23 RMK AO2 PK WND 33029/1512
94908KDBQ DBQ20071106093012111/06/07 09:30:31  5-MIN KDBQ 061530Z 33015G23KT 10SM BKN041 04/M06 A3020 820 50 -200 330/15G23 RMK AO2 PK WND 33029/1512
94908KDBQ DBQ20071106093512111/06/07 09:35:31  5-MIN KDBQ 061535Z 33017G24KT 10SM BKN041 04/M06 A3020 820 50 -200 330/17G24 RMK AO2 PK WND 33029/1512
94908KDBQ DBQ20071106094012111/06/07 09:40:31  5-MIN KDBQ 061540Z 32013G24KT 10SM OVC041 04/M06 A3021 820 50 -200 320/13G24 RMK AO2 PK WND 33029/1512
94908KDBQ DBQ20071106094512111/06/07 09:45:31  5-MIN KDBQ 061545Z 33016G23KT 10SM BKN041 04/M06 A3021 810 50 -300 330/16G23 RMK AO2 PK WND 33029/1512
94908KDBQ DBQ20071106095013811/06/07 09:50:31  5-MIN KDBQ 061550Z 33014G23KT 10SM BKN041 04/M06 A3021 810 50 -300 330/14G23 RMK AO2 PK WND 33029/1512 SLP241 T00391056
94908KDBQ DBQ20071106095512111/06/07 09:55:31  5-MIN KDBQ 061555Z 31020G26KT 10SM BKN041 04/M06 A3021 810 48 -300 310/20G26 RMK AO2 PK WND 31026/1555
94908KDBQ DBQ20071106100012111/06/07 10:00:31  5-MIN KDBQ 061600Z 32021G28KT 10SM BKN041 04/M07 A3022 800 46 -300 320/21G28 RMK AO2 PK WND 31028/1556
94908KDBQ DBQ20071106100512111/06/07 10:05:31  5-MIN KDBQ 061605Z 34015G28KT 10SM BKN043 04/M06 A3022 800 46 -200 340/15G28 RMK AO2 PK WND 31028/1556
94908KDBQ DBQ20071106101012111/06/07 10:10:31  5-MIN KDBQ 061610Z 34019G26KT 10SM BKN043 05/M06 A3022 800 46 -100 340/19G26 RMK AO2 PK WND 31028/1556
94908KDBQ DBQ20071106101512111/06/07 10:15:31  5-MIN KDBQ 061615Z 35020G26KT 10SM BKN043 04/M07 A3022 800 44 -200 350/20G26 RMK AO2 PK WND 31028/1556
94908KDBQ DBQ20071106102012111/06/07 10:20:31  5-MIN KDBQ 061620Z 33018G24KT 10SM BKN045 04/M06 A3022 800 46 -200 320/18G24 RMK AO2 PK WND 31028/1556
94908KDBQ DBQ20071106102512111/06/07 10:25:31  5-MIN KDBQ 061625Z 32016G23KT 10SM SCT045 04/M07 A3023 800 44 -200 320/16G23 RMK AO2 PK WND 31028/1556
94908KDBQ DBQ20071106103012111/06/07 10:30:31  5-MIN KDBQ 061630Z 33014G23KT 10SM SCT045 05/M06 A3023 800 44 -100 330/14G23 RMK AO2 PK WND 31028/1556
94908KDBQ DBQ20071106103512111/06/07 10:35:31  5-MIN KDBQ 061635Z 32015G23KT 10SM FEW045 05/M06 A3023 790 44 -100 320/15G23 RMK AO2 PK WND 31028/1556
94908KDBQ DBQ20071106104012111/06/07 10:40:31  5-MIN KDBQ 061640Z 33015G22KT 10SM SCT047 05/M06 A3023 790 44 -100 330/15G22 RMK AO2 PK WND 31028/1556
94908KDBQ DBQ20071106104512111/06/07 10:45:31  5-MIN KDBQ 061645Z 33015G22KT 10SM SCT047 05/M06 A3023 790 46 -100 330/15G22 RMK AO2 PK WND 31028/1556
94908KDBQ DBQ20071106105013811/06/07 10:50:31  5-MIN KDBQ 061650Z 32014G22KT 10SM SCT045 05/M06 A3023 790 46 -100 320/14G22 RMK AO2 PK WND 31028/1556 SLP247 T00501056
94908KDBQ DBQ20071106105510311/06/07 10:55:31  5-MIN KDBQ 061655Z 33016G22KT 10SM BKN045 06/M05 A3023 790 46 -100 330/16G22 RMK AO2
94908KDBQ DBQ20071106110012111/06/07 11:00:31  5-MIN KDBQ 061700Z 31018G26KT 10SM BKN045 05/M05 A3023 790 48 -100 310/18G26 RMK AO2 PK WND 32026/1658
94908KDBQ DBQ20071106110512111/06/07 11:05:31  5-MIN KDBQ 061705Z 31019G26KT 10SM BKN043 05/M05 A3023 790 48 -100 310/19G26 RMK AO2 PK WND 32026/1658
94908KDBQ DBQ20071106111012111/06/07 11:10:31  5-MIN KDBQ 061710Z 30020G24KT 10SM BKN043 05/M06 A3023 800 46 -100 300/20G24 RMK AO2 PK WND 32026/1658
94908KDBQ DBQ20071106111512111/06/07 11:15:31  5-MIN KDBQ 061715Z 32016G25KT 10SM BKN043 06/M05 A3023 790 46 -100 320/16G25 RMK AO2 PK WND 32026/1658
94908KDBQ DBQ20071106112012111/06/07 11:20:31  5-MIN KDBQ 061720Z 33019G25KT 10SM BKN041 06/M05 A3023 790 46 -100 330/19G25 RMK AO2 PK WND 32026/1658
94908KDBQ DBQ20071106112512111/06/07 11:25:31  5-MIN KDBQ 061725Z 33014G25KT 10SM SCT041 05/M06 A3023 790 46 -100 330/14G25 RMK AO2 PK WND 32026/1658
94908KDBQ DBQ20071106113011511/06/07 11:30:31  5-MIN KDBQ 061730Z 31013KT 10SM BKN041 06/M04 A3023 790 48 -100 310/13 RMK AO2 PK WND 32026/1658
94908KDBQ DBQ20071106113512111/06/07 11:35:31  5-MIN KDBQ 061735Z 32019G24KT 10SM BKN041 05/M04 A3024 790 50 -100 320/19G24 RMK AO2 PK WND 32026/1658
94908KDBQ DBQ20071106114012111/06/07 11:40:31  5-MIN KDBQ 061740Z 32017G24KT 10SM BKN041 04/M05 A3024 790 50 -200 310/17G24 RMK AO2 PK WND 32026/1658
94908KDBQ DBQ20071106114511511/06/07 11:45:31  5-MIN KDBQ 061745Z 30017KT 10SM BKN041 04/M05 A3023 790 50 -200 300/17 RMK AO2 PK WND 32026/1658
94908KDBQ DBQ20071106115015611/06/07 11:50:31  5-MIN KDBQ 061750Z 32014G26KT 10SM BKN041 04/M06 A3024 790 48 -200 320/14G26 RMK AO2 PK WND 31026/1748 SLP249 T00441056 10056 20022 53021
94908KDBQ DBQ20071106115510311/06/07 11:55:31  5-MIN KDBQ 061755Z 32018G26KT 10SM BKN041 05/M05 A3024 790 48 -100 320/18G26 RMK AO2
94908KDBQ DBQ20071106120010311/06/07 12:00:31  5-MIN KDBQ 061800Z 32018G24KT 10SM BKN041 04/M05 A3024 790 50 -200 320/18G24 RMK AO2
94908KDBQ DBQ20071106120510311/06/07 12:05:31  5-MIN KDBQ 061805Z 32015G23KT 10SM BKN041 04/M05 A3024 790 50 -200 320/15G23 RMK AO2
94908KDBQ DBQ20071106121010311/06/07 12:10:31  5-MIN KDBQ 061810Z 34016G22KT 10SM BKN041 06/M05 A3024 790 46 -100 340/16G22 RMK AO2
94908KDBQ DBQ20071106121510311/06/07 12:15:31  5-MIN KDBQ 061815Z 34016G24KT 10SM BKN041 05/M05 A3024 790 48 -100 340/16G24 RMK AO2
94908KDBQ DBQ20071106122010311/06/07 12:20:31  5-MIN KDBQ 061820Z 34016G24KT 10SM BKN041 04/M05 A3024 780 50 -200 340/16G24 RMK AO2
94908KDBQ DBQ20071106122510311/06/07 12:25:31  5-MIN KDBQ 061825Z 34016G21KT 10SM BKN041 04/M06 A3024 780 50 -300 340/16G21 RMK AO2
94908KDBQ DBQ20071106123009711/06/07 12:30:31  5-MIN KDBQ 061830Z 34015KT 10SM BKN041 05/M05 A3024 780 48 -100 330/15 RMK AO2
94908KDBQ DBQ20071106123509711/06/07 12:35:31  5-MIN KDBQ 061835Z 34018KT 10SM OVC041 05/M05 A3024 780 48 -100 340/18 RMK AO2
94908KDBQ DBQ20071106124010311/06/07 12:40:31  5-MIN KDBQ 061840Z 35016G21KT 10SM OVC041 04/M05 A3024 780 50 -200 350/16G21 RMK AO2
94908KDBQ DBQ20071106124510311/06/07 12:45:31  5-MIN KDBQ 061845Z 33016G22KT 10SM OVC041 04/M05 A3024 780 50 -200 320/16G22 RMK AO2
94908KDBQ DBQ20071106125012011/06/07 12:50:31  5-MIN KDBQ 061850Z 31018G23KT 10SM OVC041 06/M05 A3024 780 46 -100 310/18G23 RMK AO2 SLP249 T00561050
94908KDBQ DBQ20071106125510311/06/07 12:55:31  5-MIN KDBQ 061855Z 31014G23KT 10SM OVC041 06/M05 A3023 790 46 -100 310/14G23 RMK AO2
94908KDBQ DBQ20071106130010311/06/07 13:00:31  5-MIN KDBQ 061900Z 33014G21KT 10SM BKN041 06/M04 A3023 790 48 -100 330/14G21 RMK AO2
94908KDBQ DBQ20071106130510311/06/07 13:05:31  5-MIN KDBQ 061905Z 33017G25KT 10SM BKN041 06/M05 A3023 790 46 -100 330/17G25 RMK AO2
94908KDBQ DBQ20071106131010311/06/07 13:10:31  5-MIN KDBQ 061910Z 34016G25KT 10SM BKN041 06/M05 A3023 790 46 -100 340/16G25 RMK AO2
94908KDBQ DBQ20071106131510311/06/07 13:15:31  5-MIN KDBQ 061915Z 35014G22KT 10SM SCT041 05/M05 A3023 790 48 -100 350/14G22 RMK AO2
94908KDBQ DBQ20071106132010311/06/07 13:20:31  5-MIN KDBQ 061920Z 33016G21KT 10SM SCT043 05/M05 A3024 790 48 -100 330/16G21 RMK AO2
94908KDBQ DBQ20071106132510311/06/07 13:25:31  5-MIN KDBQ 061925Z 32016G21KT 10SM SCT043 05/M05 A3023 790 48 -100 320/16G21 RMK AO2
94908KDBQ DBQ20071106133010311/06/07 13:30:31  5-MIN KDBQ 061930Z 34014G22KT 10SM SCT043 05/M05 A3023 790 48 -100 340/14G22 RMK AO2
94908KDBQ DBQ20071106133510011/06/07 13:35:31  5-MIN KDBQ 061935Z 33015G22KT 10SM SCT043 06/M05 A3024 790 45 0 330/15G22 RMK AO2
94908KDBQ DBQ20071106134010311/06/07 13:40:31  5-MIN KDBQ 061940Z 34017G22KT 10SM SCT043 06/M05 A3023 790 46 -100 340/17G22 RMK AO2
94908KDBQ DBQ20071106134509711/06/07 13:45:31  5-MIN KDBQ 061945Z 34018KT 10SM BKN043 06/M05 A3024 780 46 -100 340/18 RMK AO2
94908KDBQ DBQ20071106135011411/06/07 13:50:31  5-MIN KDBQ 061950Z 35014KT 10SM BKN041 05/M06 A3024 780 46 -200 350/14 RMK AO2 SLP252 T00501056
94908KDBQ DBQ20071106135509711/06/07 13:55:31  5-MIN KDBQ 061955Z 34013KT 10SM BKN041 04/M06 A3025 780 48 -200 340/13 RMK AO2
94908KDBQ DBQ20071106140009711/06/07 14:00:31  5-MIN KDBQ 062000Z 33011KT 10SM BKN041 06/M05 A3025 780 46 -100 330/11 RMK AO2
94908KDBQ DBQ20071106140510311/06/07 14:05:31  5-MIN KDBQ 062005Z 32014G22KT 10SM BKN041 05/M05 A3025 780 48 -200 320/14G22 RMK AO2
94908KDBQ DBQ20071106141010311/06/07 14:10:31  5-MIN KDBQ 062010Z 33012G22KT 10SM BKN041 04/M06 A3025 780 48 -200 330/12G22 RMK AO2
94908KDBQ DBQ20071106141510311/06/07 14:15:31  5-MIN KDBQ 062015Z 33016G21KT 10SM SCT041 05/M06 A3025 780 46 -200 330/16G21 RMK AO2
94908KDBQ DBQ20071106142010311/06/07 14:20:31  5-MIN KDBQ 062020Z 34015G21KT 10SM SCT041 05/M05 A3025 770 48 -200 340/15G21 RMK AO2
94908KDBQ DBQ20071106142510311/06/07 14:25:31  5-MIN KDBQ 062025Z 34017G23KT 10SM SCT041 04/M06 A3025 770 48 -200 340/17G23 RMK AO2
94908KDBQ DBQ20071106143010311/06/07 14:30:31  5-MIN KDBQ 062030Z 33014G23KT 10SM FEW041 04/M06 A3025 770 50 -300 330/14G23 RMK AO2
94908KDBQ DBQ20071106143509711/06/07 14:35:31  5-MIN KDBQ 062035Z 32016KT 10SM FEW041 04/M06 A3025 770 48 -200 320/16 RMK AO2
94908KDBQ DBQ20071106144009711/06/07 14:40:31  5-MIN KDBQ 062040Z 33015KT 10SM SCT041 05/M05 A3025 770 48 -200 330/15 RMK AO2
94908KDBQ DBQ20071106144510311/06/07 14:45:31  5-MIN KDBQ 062045Z 34014G21KT 10SM SCT041 05/M05 A3025 770 48 -200 340/14G21 RMK AO2
94908KDBQ DBQ20071106145012611/06/07 14:50:31  5-MIN KDBQ 062050Z 35015G21KT 10SM SCT041 05/M05 A3025 770 48 -200 350/15G21 RMK AO2 SLP254 T00501050 51014
94908KDBQ DBQ20071106145510311/06/07 14:55:31  5-MIN KDBQ 062055Z 33016G23KT 10SM SCT041 04/M06 A3026 770 48 -200 330/16G23 RMK AO2
94908KDBQ DBQ20071106150010311/06/07 15:00:31  5-MIN KDBQ 062100Z 31013G23KT 10SM FEW041 04/M06 A3026 770 50 -300 310/13G23 RMK AO2
94908KDBQ DBQ20071106150510311/06/07 15:05:31  5-MIN KDBQ 062105Z 30014G20KT 10SM FEW041 04/M06 A3026 770 48 -200 300/14G20 RMK AO2
94908KDBQ DBQ20071106151010311/06/07 15:10:31  5-MIN KDBQ 062110Z 31016G22KT 10SM FEW041 04/M06 A3026 770 48 -200 310/16G22 RMK AO2
94908KDBQ DBQ20071106151510311/06/07 15:15:31  5-MIN KDBQ 062115Z 34013G22KT 10SM SCT041 04/M06 A3026 760 48 -200 340/13G22 RMK AO2
94908KDBQ DBQ20071106152009711/06/07 15:20:31  5-MIN KDBQ 062120Z 34012KT 10SM SCT041 04/M06 A3026 760 48 -200 340/12 RMK AO2
94908KDBQ DBQ20071106152510311/06/07 15:25:31  5-MIN KDBQ 062125Z 31011G17KT 10SM SCT041 04/M06 A3026 760 48 -200 310/11G17 RMK AO2
94908KDBQ DBQ20071106153010311/06/07 15:30:31  5-MIN KDBQ 062130Z 31015G21KT 10SM SCT041 04/M06 A3027 760 50 -300 310/15G21 RMK AO2
94908KDBQ DBQ20071106153510311/06/07 15:35:31  5-MIN KDBQ 062135Z 32010G21KT 10SM BKN041 04/M06 A3027 760 50 -300 320/10G21 RMK AO2
94908KDBQ DBQ20071106154009711/06/07 15:40:31  5-MIN KDBQ 062140Z 33015KT 10SM SCT041 03/M06 A3027 750 52 -400 330/15 RMK AO2
94908KDBQ DBQ20071106154509711/06/07 15:45:31  5-MIN KDBQ 062145Z 33013KT 10SM FEW041 03/M06 A3027 750 50 -400 330/13 RMK AO2
94908KDBQ DBQ20071106155011411/06/07 15:50:31  5-MIN KDBQ 062150Z 33012KT 10SM FEW041 03/M06 A3028 750 52 -400 330/12 RMK AO2 SLP263 T00331056
94908KDBQ DBQ20071106155509711/06/07 15:55:31  5-MIN KDBQ 062155Z 34013KT 10SM FEW041 03/M06 A3028 750 52 -400 340/13 RMK AO2
94908KDBQ DBQ20071106160009711/06/07 16:00:31  5-MIN KDBQ 062200Z 34013KT 10SM SCT041 03/M06 A3028 750 52 -400 330/13 RMK AO2
94908KDBQ DBQ20071106160509711/06/07 16:05:31  5-MIN KDBQ 062205Z 33015KT 10SM FEW041 03/M06 A3028 750 54 -500 330/15 RMK AO2
94908KDBQ DBQ20071106161010311/06/07 16:10:31  5-MIN KDBQ 062210Z 32012G20KT 10SM FEW041 03/M06 A3028 750 52 -500 320/12G20 RMK AO2
94908KDBQ DBQ20071106161509711/06/07 16:15:31  5-MIN KDBQ 062215Z 32013KT 10SM FEW041 03/M06 A3028 750 52 -500 320/13 RMK AO2
94908KDBQ DBQ20071106162010311/06/07 16:20:31  5-MIN KDBQ 062220Z 33016G20KT 10SM FEW041 03/M06 A3028 750 52 -500 330/16G20 RMK AO2
94908KDBQ DBQ20071106162510311/06/07 16:25:31  5-MIN KDBQ 062225Z 32013G20KT 10SM FEW041 02/M06 A3028 740 54 -500 320/13G20 RMK AO2
94908KDBQ DBQ20071106163009711/06/07 16:30:31  5-MIN KDBQ 062230Z 33012KT 10SM FEW041 03/M06 A3028 740 52 -500 330/12 RMK AO2
94908KDBQ DBQ20071106163509711/06/07 16:35:31  5-MIN KDBQ 062235Z 33013KT 10SM SCT041 03/M06 A3029 740 54 -500 330/13 RMK AO2
94908KDBQ DBQ20071106164009711/06/07 16:40:31  5-MIN KDBQ 062240Z 33010KT 10SM BKN041 03/M06 A3029 740 54 -500 330/10 RMK AO2
94908KDBQ DBQ20071106164509711/06/07 16:45:31  5-MIN KDBQ 062245Z 34011KT 10SM BKN041 03/M06 A3029 740 54 -500 330/11 RMK AO2
94908KDBQ DBQ20071106165011411/06/07 16:50:31  5-MIN KDBQ 062250Z 33009KT 10SM BKN041 03/M06 A3029 740 54 -500 320/09 RMK AO2 SLP267 T00281056
94908KDBQ DBQ20071106165509711/06/07 16:55:31  5-MIN KDBQ 062255Z 31011KT 10SM OVC041 03/M06 A3029 740 54 -500 310/11 RMK AO2
94908KDBQ DBQ20071106170009711/06/07 17:00:31  5-MIN KDBQ 062300Z 31011KT 10SM OVC039 03/M06 A3029 740 54 -500 300/11 RMK AO2
94908KDBQ DBQ20071106170509711/06/07 17:05:31  5-MIN KDBQ 062305Z 31009KT 10SM OVC039 02/M06 A3029 730 56 -600 310/09 RMK AO2
94908KDBQ DBQ20071106171009711/06/07 17:10:31  5-MIN KDBQ 062310Z 32009KT 10SM OVC039 02/M06 A3030 730 56 -600 320/09 RMK AO2
94908KDBQ DBQ20071106171510311/06/07 17:15:31  5-MIN KDBQ 062315Z 32014G18KT 10SM OVC039 02/M06 A3030 730 56 -600 320/14G18 RMK AO2
94908KDBQ DBQ20071106172010311/06/07 17:20:31  5-MIN KDBQ 062320Z 31012G18KT 10SM OVC039 02/M06 A3030 730 54 -600 310/12G18 RMK AO2
94908KDBQ DBQ20071106172510311/06/07 17:25:31  5-MIN KDBQ 062325Z 31013G18KT 10SM OVC039 02/M06 A3030 730 54 -600 310/13G18 RMK AO2
94908KDBQ DBQ20071106173009711/06/07 17:30:31  5-MIN KDBQ 062330Z 32012KT 10SM OVC039 02/M06 A3030 730 54 -600 320/12 RMK AO2
94908KDBQ DBQ20071106173509711/06/07 17:35:31  5-MIN KDBQ 062335Z 32012KT 10SM OVC039 02/M06 A3030 730 54 -600 310/12 RMK AO2
94908KDBQ DBQ20071106174010311/06/07 17:40:31  5-MIN KDBQ 062340Z 31010G18KT 10SM OVC039 02/M06 A3030 730 54 -600 310/10G18 RMK AO2
94908KDBQ DBQ20071106174509711/06/07 17:45:31  5-MIN KDBQ 062345Z 32011KT 10SM OVC039 02/M06 A3030 720 54 -600 320/11 RMK AO2
94908KDBQ DBQ20071106175013211/06/07 17:50:31  5-MIN KDBQ 062350Z 33009KT 10SM OVC039 02/M06 A3031 720 56 -600 330/09 RMK AO2 SLP273 T00171061 10061 20017 53007
94908KDBQ DBQ20071106175510311/06/07 17:55:31  5-MIN KDBQ 062355Z 32014G18KT 10SM OVC039 02/M06 A3031 720 56 -600 320/14G18 RMK AO2
94908KDBQ DBQ20071106180010311/06/07 18:00:31  5-MIN KDBQ 070000Z 32012G18KT 10SM OVC039 02/M06 A3031 720 56 -600 320/12G18 RMK AO2
94908KDBQ DBQ20071106180509711/06/07 18:05:31  5-MIN KDBQ 070005Z 31011KT 10SM OVC039 02/M06 A3031 720 56 -600 310/11 RMK AO2
94908KDBQ DBQ20071106181009711/06/07 18:10:31  5-MIN KDBQ 070010Z 32008KT 10SM OVC039 02/M06 A3031 720 56 -600 320/08 RMK AO2
94908KDBQ DBQ20071106181509711/06/07 18:15:31  5-MIN KDBQ 070015Z 32012KT 10SM OVC039 02/M06 A3031 720 56 -600 320/12 RMK AO2
94908KDBQ DBQ20071106182009911/06/07 18:20:31  5-MIN KDBQ 070020Z 31009KT 10SM OVC039 02/M06 A3031 720 56 -600 310/09 RMK AO2 $
94908KDBQ DBQ20071106182509911/06/07 18:25:31  5-MIN KDBQ 070025Z 32009KT 10SM OVC039 02/M06 A3031 720 56 -600 320/09 RMK AO2 $
94908KDBQ DBQ20071106183009911/06/07 18:30:31  5-MIN KDBQ 070030Z 32010KT 10SM OVC039 02/M06 A3031 720 56 -600 320/10 RMK AO2 $
94908KDBQ DBQ20071106183509911/06/07 18:35:31  5-MIN KDBQ 070035Z 32013KT 10SM OVC039 02/M06 A3031 720 56 -600 320/13 RMK AO2 $
94908KDBQ DBQ20071106184009911/06/07 18:40:31  5-MIN KDBQ 070040Z 34012KT 10SM OVC039 02/M06 A3031 720 56 -600 330/12 RMK AO2 $
94908KDBQ DBQ20071106184509911/06/07 18:45:31  5-MIN KDBQ 070045Z 33012KT 10SM OVC039 02/M06 A3032 710 56 -600 330/12 RMK AO2 $
94908KDBQ DBQ20071106185011611/06/07 18:50:31  5-MIN KDBQ 070050Z 33013KT 10SM OVC039 02/M07 A3032 710 54 -600 330/13 RMK AO2 SLP277 T00171067 $
94908KDBQ DBQ20071106185509911/06/07 18:55:31  5-MIN KDBQ 070055Z 33011KT 10SM OVC039 02/M07 A3032 710 54 -600 330/11 RMK AO2 $
94908KDBQ DBQ20071106190009911/06/07 19:00:31  5-MIN KDBQ 070100Z 32010KT 10SM OVC039 02/M06 A3032 710 56 -600 320/10 RMK AO2 $
94908KDBQ DBQ20071106190509911/06/07 19:05:31  5-MIN KDBQ 070105Z 34011KT 10SM OVC039 02/M06 A3031 720 56 -600 340/11 RMK AO2 $
94908KDBQ DBQ20071106191010511/06/07 19:10:31  5-MIN KDBQ 070110Z 33009G16KT 10SM OVC039 01/M06 A3032 710 58 -700 330/09G16 RMK AO2 $
94908KDBQ DBQ20071106191509911/06/07 19:15:31  5-MIN KDBQ 070115Z 33011KT 10SM OVC039 01/M06 A3032 710 58 -700 330/11 RMK AO2 $
94908KDBQ DBQ20071106192009911/06/07 19:20:31  5-MIN KDBQ 070120Z 33008KT 10SM OVC039 01/M06 A3032 710 58 -700 330/08 RMK AO2 $
94908KDBQ DBQ20071106192509911/06/07 19:25:31  5-MIN KDBQ 070125Z 32006KT 10SM OVC039 01/M06 A3032 710 58 -700 310/06 RMK AO2 $
94908KDBQ DBQ20071106193009911/06/07 19:30:31  5-MIN KDBQ 070130Z 32008KT 10SM OVC039 01/M06 A3032 710 58 -700 320/08 RMK AO2 $
94908KDBQ DBQ20071106193509911/06/07 19:35:31  5-MIN KDBQ 070135Z 33013KT 10SM OVC039 02/M06 A3032 710 56 -700 330/13 RMK AO2 $
94908KDBQ DBQ20071106194009911/06/07 19:40:31  5-MIN KDBQ 070140Z 32009KT 10SM OVC039 01/M06 A3032 710 58 -700 320/09 RMK AO2 $
94908KDBQ DBQ20071106194509911/06/07 19:45:31  5-MIN KDBQ 070145Z 33010KT 10SM OVC039 01/M06 A3032 710 58 -700 330/10 RMK AO2 $
94908KDBQ DBQ20071106195012111/06/07 19:50:31  5-MIN KDBQ 070150Z AUTO 32010KT 10SM OVC039 01/M06 A3032 710 58 -700 320/10 RMK AO2 SLP280 T00111061 $
94908KDBQ DBQ20071106195510411/06/07 19:55:31  5-MIN KDBQ 070155Z AUTO 33010KT 10SM OVC039 01/M06 A3032 710 58 -700 330/10 RMK AO2 $
94908KDBQ DBQ20071106200010411/06/07 20:00:31  5-MIN KDBQ 070200Z AUTO 33008KT 10SM OVC039 01/M06 A3032 710 58 -700 330/08 RMK AO2 $
94908KDBQ DBQ20071106200510411/06/07 20:05:31  5-MIN KDBQ 070205Z AUTO 34010KT 10SM OVC039 01/M06 A3033 710 61 -800 330/10 RMK AO2 $
94908KDBQ DBQ20071106201010411/06/07 20:10:31  5-MIN KDBQ 070210Z AUTO 34008KT 10SM OVC039 01/M06 A3033 700 58 -700 330/08 RMK AO2 $
94908KDBQ DBQ20071106201510411/06/07 20:15:31  5-MIN KDBQ 070215Z AUTO 33008KT 10SM OVC039 01/M06 A3033 700 61 -800 330/08 RMK AO2 $
94908KDBQ DBQ20071106202010411/06/07 20:20:31  5-MIN KDBQ 070220Z AUTO 33009KT 10SM OVC039 01/M06 A3033 700 58 -700 330/09 RMK AO2 $
94908KDBQ DBQ20071106202510411/06/07 20:25:31  5-MIN KDBQ 070225Z AUTO 33008KT 10SM OVC039 01/M06 A3033 700 58 -700 330/08 RMK AO2 $
94908KDBQ DBQ20071106203010411/06/07 20:30:31  5-MIN KDBQ 070230Z AUTO 34008KT 10SM OVC039 01/M06 A3033 700 61 -800 340/08 RMK AO2 $
94908KDBQ DBQ20071106203510411/06/07 20:35:31  5-MIN KDBQ 070235Z AUTO 33007KT 10SM OVC039 01/M06 A3033 700 58 -700 330/07 RMK AO2 $
94908KDBQ DBQ20071106204010411/06/07 20:40:31  5-MIN KDBQ 070240Z AUTO 33006KT 10SM OVC039 01/M06 A3033 700 61 -800 330/06 RMK AO2 $
94908KDBQ DBQ20071106204510411/06/07 20:45:31  5-MIN KDBQ 070245Z AUTO 32007KT 10SM OVC039 01/M06 A3033 700 61 -800 320/07 RMK AO2 $
94908KDBQ DBQ20071106205012711/06/07 20:50:31  5-MIN KDBQ 070250Z AUTO 32007KT 10SM OVC039 01/M06 A3033 700 61 -800 310/07 RMK AO2 SLP282 T00061061 51017 $
94908KDBQ DBQ20071106205510411/06/07 20:55:31  5-MIN KDBQ 070255Z AUTO 32005KT 10SM OVC039 01/M06 A3033 700 61 -800 320/05 RMK AO2 $
94908KDBQ DBQ20071106210010411/06/07 21:00:31  5-MIN KDBQ 070300Z AUTO 32007KT 10SM OVC039 01/M06 A3033 700 61 -800 320/07 RMK AO2 $
94908KDBQ DBQ20071106210510411/06/07 21:05:31  5-MIN KDBQ 070305Z AUTO 32007KT 10SM OVC039 01/M06 A3033 700 61 -800 320/07 RMK AO2 $
94908KDBQ DBQ20071106211010411/06/07 21:10:31  5-MIN KDBQ 070310Z AUTO 32006KT 10SM OVC039 01/M06 A3033 700 61 -800 320/06 RMK AO2 $
94908KDBQ DBQ20071106211510411/06/07 21:15:31  5-MIN KDBQ 070315Z AUTO 33006KT 10SM OVC039 00/M06 A3033 700 63 -900 330/06 RMK AO2 $
94908KDBQ DBQ20071106212010411/06/07 21:20:31  5-MIN KDBQ 070320Z AUTO 33006KT 10SM BKN039 00/M06 A3033 700 63 -900 320/06 RMK AO2 $
94908KDBQ DBQ20071106212510511/06/07 21:25:31  5-MIN KDBQ 070325Z AUTO 33006KT 10SM BKN039 M01/M06 A3033 700 66 -900 330/06 RMK AO2 $
94908KDBQ DBQ20071106213010411/06/07 21:30:31  5-MIN KDBQ 070330Z AUTO 33006KT 10SM BKN039 00/M06 A3033 700 63 -900 330/06 RMK AO2 $
94908KDBQ DBQ20071106213510411/06/07 21:35:31  5-MIN KDBQ 070335Z AUTO 33005KT 10SM BKN039 00/M06 A3033 700 63 -900 330/05 RMK AO2 $
94908KDBQ DBQ20071106214010511/06/07 21:40:31  5-MIN KDBQ 070340Z AUTO 33004KT 10SM BKN039 M01/M06 A3034 700 66 -900 320/04 RMK AO2 $
94908KDBQ DBQ20071106214510511/06/07 21:45:31  5-MIN KDBQ 070345Z AUTO 31003KT 10SM BKN039 M01/M06 A3034 700 66 -900 310/03 RMK AO2 $
94908KDBQ DBQ20071106215012311/06/07 21:50:31  5-MIN KDBQ 070350Z AUTO 29003KT 10SM OVC039 M01/M06 A3034 700 69 -1000 290/03 RMK AO2 SLP285 T10111061 $
94908KDBQ DBQ20071106215510611/06/07 21:55:31  5-MIN KDBQ 070355Z AUTO 29003KT 10SM OVC039 M01/M06 A3034 700 72 -1000 290/03 RMK AO2 $
94908KDBQ DBQ20071106220010611/06/07 22:00:31  5-MIN KDBQ 070400Z AUTO 30004KT 10SM OVC039 M01/M06 A3034 700 69 -1000 300/04 RMK AO2 $
94908KDBQ DBQ20071106220510611/06/07 22:05:31  5-MIN KDBQ 070405Z AUTO 30005KT 10SM BKN039 M01/M06 A3033 700 69 -1000 300/05 RMK AO2 $
94908KDBQ DBQ20071106221010611/06/07 22:10:31  5-MIN KDBQ 070410Z AUTO 30004KT 10SM BKN039 M01/M07 A3033 700 66 -1000 300/04 RMK AO2 $
94908KDBQ DBQ20071106221510611/06/07 22:15:31  5-MIN KDBQ 070415Z AUTO 30005KT 10SM SCT039 M02/M07 A3034 700 69 -1100 300/05 RMK AO2 $
94908KDBQ DBQ20071106222010611/06/07 22:20:31  5-MIN KDBQ 070420Z AUTO 29005KT 10SM FEW039 M02/M07 A3034 700 69 -1100 290/05 RMK AO2 $
94908KDBQ DBQ20071106222510611/06/07 22:25:31  5-MIN KDBQ 070425Z AUTO 29006KT 10SM FEW039 M02/M07 A3033 700 69 -1100 290/06 RMK AO2 $
94908KDBQ DBQ20071106223010311/06/07 22:30:31  5-MIN KDBQ 070430Z AUTO 29004KT 10SM CLR M02/M07 A3034 700 72 -1200 290/04 RMK AO2 $
94908KDBQ DBQ20071106223510611/06/07 22:35:31  5-MIN KDBQ 070435Z AUTO 30006KT 10SM FEW042 M02/M07 A3033 700 72 -1200 290/06 RMK AO2 $
94908KDBQ DBQ20071106224010311/06/07 22:40:31  5-MIN KDBQ 070440Z AUTO 29006KT 10SM CLR M02/M07 A3033 700 72 -1200 290/06 RMK AO2 $
94908KDBQ DBQ20071106224510311/06/07 22:45:31  5-MIN KDBQ 070445Z AUTO 29005KT 10SM CLR M03/M07 A3033 700 75 -1200 290/05 RMK AO2 $
94908KDBQ DBQ20071106225012311/06/07 22:50:31  5-MIN KDBQ 070450Z AUTO 30006KT 10SM FEW042 M03/M07 A3033 700 75 -1200 300/06 RMK AO2 SLP284 T10281067 $
94908KDBQ DBQ20071106225510611/06/07 22:55:31  5-MIN KDBQ 070455Z AUTO 30006KT 10SM FEW042 M03/M07 A3033 700 75 -1200 300/06 RMK AO2 $
94908KDBQ DBQ20071106230010611/06/07 23:00:31  5-MIN KDBQ 070500Z AUTO 30007KT 10SM FEW042 M03/M07 A3033 700 75 -1200 300/07 RMK AO2 $
94908KDBQ DBQ20071106230510611/06/07 23:05:31  5-MIN KDBQ 070505Z AUTO 30007KT 10SM FEW042 M02/M07 A3034 700 72 -1200 300/07 RMK AO2 $
94908KDBQ DBQ20071106231010611/06/07 23:10:31  5-MIN KDBQ 070510Z AUTO 30007KT 10SM FEW042 M02/M07 A3034 700 72 -1200 300/07 RMK AO2 $
94908KDBQ DBQ20071106231510611/06/07 23:15:31  5-MIN KDBQ 070515Z AUTO 30007KT 10SM FEW042 M02/M07 A3033 700 72 -1200 300/07 RMK AO2 $
94908KDBQ DBQ20071106232010611/06/07 23:20:31  5-MIN KDBQ 070520Z AUTO 30007KT 10SM SCT042 M02/M07 A3033 700 72 -1200 300/07 RMK AO2 $
94908KDBQ DBQ20071106232510611/06/07 23:25:31  5-MIN KDBQ 070525Z AUTO 30006KT 10SM FEW042 M02/M07 A3033 700 72 -1200 300/06 RMK AO2 $
94908KDBQ DBQ20071106233010611/06/07 23:30:31  5-MIN KDBQ 070530Z AUTO 30007KT 10SM FEW042 M02/M07 A3033 700 72 -1200 300/07 RMK AO2 $
94908KDBQ DBQ20071106233510611/06/07 23:35:31  5-MIN KDBQ 070535Z AUTO 30007KT 10SM FEW042 M03/M07 A3033 700 75 -1200 300/07 RMK AO2 $
94908KDBQ DBQ20071106234010611/06/07 23:40:31  5-MIN KDBQ 070540Z AUTO 30007KT 10SM FEW042 M03/M07 A3034 700 75 -1200 300/07 RMK AO2 $
94908KDBQ DBQ20071106234510611/06/07 23:45:31  5-MIN KDBQ 070545Z AUTO 30007KT 10SM FEW040 M03/M07 A3033 700 75 -1200 300/07 RMK AO2 $
94908KDBQ DBQ20071106235015111/06/07 23:50:31  5-MIN KDBQ 070550Z AUTO 30008KT 10SM FEW040 M03/M07 A3033 700 75 -1200 300/08 RMK AO2 SLP282 T10281067 10017 21028 400611028 51008 $
94908KDBQ DBQ20071106235510611/06/07 23:55:31  5-MIN KDBQ 070555Z AUTO 30006KT 10SM FEW040 M03/M07 A3033 700 75 -1200 300/06 RMK AO2 $
94908KDBQ DBQ20071107000010611/07/07 00:00:38  5-MIN KDBQ 070600Z AUTO 30007KT 10SM FEW040 M03/M07 A3033 700 71 -1200 300/07 RMK AO2 $
94908KDBQ DBQ20071107020010311/07/07 02:00:31  5-MIN KDBQ 070800Z AUTO 00000KT 10SM CLR M05/M08 A3033 700 81 -1500 000/00 RMK AO2 $
94908KDBQ DBQ20071107020510311/07/07 02:05:31  5-MIN KDBQ 070805Z AUTO 00000KT 10SM CLR M05/M08 A3033 700 81 -1500 000/00 RMK AO2 $
94908KDBQ DBQ20071107021010311/07/07 02:10:31  5-MIN KDBQ 070810Z AUTO 00000KT 10SM CLR M04/M07 A3033 700 78 -1400 000/00 RMK AO2 $
94908KDBQ DBQ20071107021510311/07/07 02:15:31  5-MIN KDBQ 070815Z AUTO 04003KT 10SM CLR M04/M07 A3033 700 78 -1400 040/03 RMK AO2 $
94908KDBQ DBQ20071107022010311/07/07 02:20:31  5-MIN KDBQ 070820Z AUTO 00000KT 10SM CLR M03/M07 A3033 700 74 -1300 000/00 RMK AO2 $
94908KDBQ DBQ20071107022510311/07/07 02:25:31  5-MIN KDBQ 070825Z AUTO 00000KT 10SM CLR M03/M07 A3033 700 74 -1300 000/00 RMK AO2 $
94908KDBQ DBQ20071107023010311/07/07 02:30:31  5-MIN KDBQ 070830Z AUTO 00000KT 10SM CLR M04/M08 A3033 700 78 -1400 000/00 RMK AO2 $
94908KDBQ DBQ20071107023510311/07/07 02:35:31  5-MIN KDBQ 070835Z AUTO 00000KT 10SM CLR M04/M07 A3033 700 78 -1400 000/00 RMK AO2 $
94908KDBQ DBQ20071107024010311/07/07 02:40:31  5-MIN KDBQ 070840Z AUTO 00000KT 10SM CLR M03/M07 A3033 700 74 -1300 000/00 RMK AO2 $
94908KDBQ DBQ20071107024510311/07/07 02:45:31  5-MIN KDBQ 070845Z AUTO 00000KT 10SM CLR M04/M08 A3033 700 78 -1400 000/00 RMK AO2 $
94908KDBQ DBQ20071107025012611/07/07 02:50:31  5-MIN KDBQ 070850Z AUTO 00000KT 10SM CLR M04/M08 A3033 700 78 -1400 000/00 RMK AO2 SLP283 T10441078 58001 $
94908KDBQ DBQ20071107025510311/07/07 02:55:31  5-MIN KDBQ 070855Z AUTO 00000KT 10SM CLR M04/M08 A3033 700 74 -1400 000/00 RMK AO2 $
94908KDBQ DBQ20071107030010311/07/07 03:00:31  5-MIN KDBQ 070900Z AUTO 00000KT 10SM CLR M05/M08 A3033 700 81 -1500 000/00 RMK AO2 $
94908KDBQ DBQ20071107030510311/07/07 03:05:31  5-MIN KDBQ 070905Z AUTO 00000KT 10SM CLR M06/M08 A3033 700 81 -1600 000/00 RMK AO2 $
94908KDBQ DBQ20071107031010311/07/07 03:10:31  5-MIN KDBQ 070910Z AUTO 00000KT 10SM CLR M06/M08 A3033 700 81 -1600 000/00 RMK AO2 $
94908KDBQ DBQ20071107031510311/07/07 03:15:31  5-MIN KDBQ 070915Z AUTO 00000KT 10SM CLR M06/M08 A3033 700 81 -1600 000/00 RMK AO2 $
94908KDBQ DBQ20071107032010311/07/07 03:20:31  5-MIN KDBQ 070920Z AUTO 00000KT 10SM CLR M06/M08 A3033 700 81 -1600 000/00 RMK AO2 $
94908KDBQ DBQ20071107032510311/07/07 03:25:31  5-MIN KDBQ 070925Z AUTO 00000KT 10SM CLR M06/M08 A3033 700 81 -1600 000/00 RMK AO2 $
94908KDBQ DBQ20071107033010311/07/07 03:30:31  5-MIN KDBQ 070930Z AUTO 00000KT 10SM CLR M06/M08 A3033 700 81 -1600 000/00 RMK AO2 $
94908KDBQ DBQ20071107033510311/07/07 03:35:31  5-MIN KDBQ 070935Z AUTO 00000KT 10SM CLR M06/M08 A3033 700 81 -1600 000/00 RMK AO2 $
94908KDBQ DBQ20071107034010311/07/07 03:40:31  5-MIN KDBQ 070940Z AUTO 00000KT 10SM CLR M06/M08 A3033 700 81 -1600 000/00 RMK AO2 $
94908KDBQ DBQ20071107034510311/07/07 03:45:31  5-MIN KDBQ 070945Z AUTO 00000KT 10SM CLR M06/M08 A3033 700 81 -1600 000/00 RMK AO2 $
94908KDBQ DBQ20071107035012011/07/07 03:50:31  5-MIN KDBQ 070950Z AUTO 00000KT 10SM CLR M06/M08 A3033 700 81 -1600 000/00 RMK AO2 SLP284 T10561083 $
94908KDBQ DBQ20071107035510311/07/07 03:55:31  5-MIN KDBQ 070955Z AUTO 00000KT 10SM CLR M06/M08 A3033 700 81 -1600 000/00 RMK AO2 $
94908KDBQ DBQ20071107040010311/07/07 04:00:31  5-MIN KDBQ 071000Z AUTO 00000KT 10SM CLR M06/M08 A3033 700 81 -1600 000/00 RMK AO2 $
94908KDBQ DBQ20071107040510311/07/07 04:05:31  5-MIN KDBQ 071005Z AUTO 00000KT 10SM CLR M05/M08 A3032 710 81 -1500 000/00 RMK AO2 $
94908KDBQ DBQ20071107041010311/07/07 04:10:31  5-MIN KDBQ 071010Z AUTO 02003KT 10SM CLR M05/M08 A3032 710 81 -1500 010/03 RMK AO2 $
94908KDBQ DBQ20071107041510311/07/07 04:15:31  5-MIN KDBQ 071015Z AUTO 36003KT 10SM CLR M06/M08 A3033 710 84 -1600 360/03 RMK AO2 $
94908KDBQ DBQ20071107042010311/07/07 04:20:31  5-MIN KDBQ 071020Z AUTO 36004KT 10SM CLR M07/M09 A3032 710 84 -1700 360/04 RMK AO2 $
94908KDBQ DBQ20071107042510311/07/07 04:25:31  5-MIN KDBQ 071025Z AUTO 36003KT 10SM CLR M06/M09 A3032 710 81 -1600 360/03 RMK AO2 $
94908KDBQ DBQ20071107043010311/07/07 04:30:31  5-MIN KDBQ 071030Z AUTO 00000KT 10SM CLR M06/M08 A3032 710 84 -1600 000/00 RMK AO2 $
94908KDBQ DBQ20071107043510311/07/07 04:35:31  5-MIN KDBQ 071035Z AUTO 00000KT 10SM CLR M06/M08 A3033 700 84 -1600 000/00 RMK AO2 $
94908KDBQ DBQ20071107044010311/07/07 04:40:31  5-MIN KDBQ 071040Z AUTO 00000KT 10SM CLR M06/M08 A3033 710 84 -1600 000/00 RMK AO2 $
94908KDBQ DBQ20071107044510311/07/07 04:45:31  5-MIN KDBQ 071045Z AUTO 00000KT 10SM CLR M06/M08 A3033 710 81 -1600 000/00 RMK AO2 $
94908KDBQ DBQ20071107045012011/07/07 04:50:31  5-MIN KDBQ 071050Z AUTO 00000KT 10SM CLR M06/M08 A3033 700 84 -1600 000/00 RMK AO2 SLP284 T10611083 $
94908KDBQ DBQ20071107045510211/07/07 04:55:31  5-MIN KDBQ 071055Z AUTO 00000KT 9SM CLR M07/M09 A3033 700 84 -1700 000/00 RMK AO2 $
94908KDBQ DBQ20071107050010211/07/07 05:00:31  5-MIN KDBQ 071100Z AUTO 00000KT 9SM CLR M07/M09 A3033 700 84 -1700 000/00 RMK AO2 $
94908KDBQ DBQ20071107050510211/07/07 05:05:31  5-MIN KDBQ 071105Z AUTO 00000KT 9SM CLR M07/M09 A3033 700 84 -1700 000/00 RMK AO2 $
94908KDBQ DBQ20071107051010211/07/07 05:10:31  5-MIN KDBQ 071110Z AUTO 00000KT 9SM CLR M07/M09 A3033 700 84 -1700 000/00 RMK AO2 $
94908KDBQ DBQ20071107051510211/07/07 05:15:31  5-MIN KDBQ 071115Z AUTO 00000KT 9SM CLR M07/M09 A3033 700 84 -1700 000/00 RMK AO2 $
94908KDBQ DBQ20071107052010211/07/07 05:20:31  5-MIN KDBQ 071120Z AUTO 00000KT 9SM CLR M07/M09 A3033 700 84 -1700 000/00 RMK AO2 $
94908KDBQ DBQ20071107052510211/07/07 05:25:31  5-MIN KDBQ 071125Z AUTO 00000KT 9SM CLR M07/M09 A3033 700 84 -1700 000/00 RMK AO2 $
94908KDBQ DBQ20071107053010211/07/07 05:30:31  5-MIN KDBQ 071130Z AUTO 00000KT 9SM CLR M07/M09 A3032 710 84 -1700 000/00 RMK AO2 $
94908KDBQ DBQ20071107053510211/07/07 05:35:31  5-MIN KDBQ 071135Z AUTO 00000KT 9SM CLR M07/M09 A3033 710 84 -1700 000/00 RMK AO2 $
94908KDBQ DBQ20071107054010211/07/07 05:40:31  5-MIN KDBQ 071140Z AUTO 00000KT 9SM CLR M07/M09 A3033 700 84 -1700 000/00 RMK AO2 $
94908KDBQ DBQ20071107054510211/07/07 05:45:31  5-MIN KDBQ 071145Z AUTO 00000KT 9SM CLR M07/M09 A3033 710 84 -1700 000/00 RMK AO2 $
94908KDBQ DBQ20071107055013711/07/07 05:50:31  5-MIN KDBQ 071150Z AUTO 00000KT 9SM CLR M07/M09 A3033 700 84 -1700 000/00 RMK AO2 SLP285 T10671089 11028 21067 53000 $
94908KDBQ DBQ20071107055509711/07/07 05:55:31  5-MIN KDBQ 071155Z 00000KT 9SM CLR M07/M09 A3033 700 84 -1700 000/00 RMK AO2 $
94908KDBQ DBQ20071107060009711/07/07 06:00:31  5-MIN KDBQ 071200Z 00000KT 9SM CLR M06/M09 A3032 710 81 -1600 000/00 RMK AO2 $
94908KDBQ DBQ20071107060509711/07/07 06:05:31  5-MIN KDBQ 071205Z 00000KT 9SM CLR M07/M09 A3033 710 84 -1700 000/00 RMK AO2 $
94908KDBQ DBQ20071107061009711/07/07 06:10:31  5-MIN KDBQ 071210Z 00000KT 9SM CLR M07/M09 A3033 710 84 -1700 000/00 RMK AO2 $
94908KDBQ DBQ20071107061509711/07/07 06:15:31  5-MIN KDBQ 071215Z 00000KT 9SM CLR M07/M09 A3032 710 84 -1700 000/00 RMK AO2 $
94908KDBQ DBQ20071107062009711/07/07 06:20:31  5-MIN KDBQ 071220Z 00000KT 9SM CLR M07/M09 A3032 710 84 -1700 000/00 RMK AO2 $
94908KDBQ DBQ20071107062509711/07/07 06:25:31  5-MIN KDBQ 071225Z 00000KT 9SM CLR M07/M09 A3032 710 81 -1700 000/00 RMK AO2 $
94908KDBQ DBQ20071107063009711/07/07 06:30:31  5-MIN KDBQ 071230Z 00000KT 9SM CLR M07/M09 A3032 710 81 -1700 000/00 RMK AO2 $
94908KDBQ DBQ20071107063509711/07/07 06:35:31  5-MIN KDBQ 071235Z 00000KT 9SM CLR M07/M09 A3032 710 81 -1700 000/00 RMK AO2 $
94908KDBQ DBQ20071107064009711/07/07 06:40:31  5-MIN KDBQ 071240Z 00000KT 8SM CLR M07/M09 A3032 710 81 -1700 000/00 RMK AO2 $
94908KDBQ DBQ20071107064509711/07/07 06:45:31  5-MIN KDBQ 071245Z 00000KT 8SM CLR M07/M09 A3032 710 81 -1700 000/00 RMK AO2 $
94908KDBQ DBQ20071107065011411/07/07 06:50:31  5-MIN KDBQ 071250Z 00000KT 8SM CLR M07/M09 A3032 710 81 -1700 000/00 RMK AO2 SLP281 T10671094 $
94908KDBQ DBQ20071107065509711/07/07 06:55:31  5-MIN KDBQ 071255Z 00000KT 7SM CLR M07/M09 A3032 710 84 -1800 000/00 RMK AO2 $
94908KDBQ DBQ20071107070009711/07/07 07:00:31  5-MIN KDBQ 071300Z 21003KT 7SM CLR M07/M09 A3032 710 84 -1800 210/03 RMK AO2 $
94908KDBQ DBQ20071107070509711/07/07 07:05:31  5-MIN KDBQ 071305Z 00000KT 8SM CLR M07/M09 A3032 710 84 -1800 000/00 RMK AO2 $
94908KDBQ DBQ20071107071009711/07/07 07:10:31  5-MIN KDBQ 071310Z 00000KT 7SM CLR M08/M09 A3032 710 88 -1900 000/00 RMK AO2 $
94908KDBQ DBQ20071107071509711/07/07 07:15:31  5-MIN KDBQ 071315Z 00000KT 7SM CLR M07/M09 A3032 710 84 -1800 000/00 RMK AO2 $
94908KDBQ DBQ20071107072009711/07/07 07:20:31  5-MIN KDBQ 071320Z 00000KT 7SM CLR M07/M09 A3032 710 84 -1800 000/00 RMK AO2 $
94908KDBQ DBQ20071107072509711/07/07 07:25:31  5-MIN KDBQ 071325Z 00000KT 7SM CLR M07/M09 A3032 710 84 -1700 000/00 RMK AO2 $
94908KDBQ DBQ20071107073009711/07/07 07:30:31  5-MIN KDBQ 071330Z 00000KT 7SM CLR M07/M08 A3032 710 88 -1700 000/00 RMK AO2 $
94908KDBQ DBQ20071107073509711/07/07 07:35:31  5-MIN KDBQ 071335Z 00000KT 7SM CLR M06/M08 A3032 710 84 -1600 000/00 RMK AO2 $
94908KDBQ DBQ20071107074009711/07/07 07:40:31  5-MIN KDBQ 071340Z 00000KT 7SM CLR M06/M08 A3032 710 88 -1600 000/00 RMK AO2 $
94908KDBQ DBQ20071107074509711/07/07 07:45:31  5-MIN KDBQ 071345Z 00000KT 7SM CLR M06/M08 A3032 710 84 -1600 000/00 RMK AO2 $
94908KDBQ DBQ20071107075011411/07/07 07:50:31  5-MIN KDBQ 071350Z 00000KT 7SM CLR M06/M07 A3032 710 88 -1600 000/00 RMK AO2 SLP281 T10561072 $
94908KDBQ DBQ20071107075509711/07/07 07:55:31  5-MIN KDBQ 071355Z 00000KT 7SM CLR M06/M07 A3032 710 88 -1600 000/00 RMK AO2 $
94908KDBQ DBQ20071107080009711/07/07 08:00:31  5-MIN KDBQ 071400Z 00000KT 7SM CLR M05/M07 A3032 710 84 -1500 000/00 RMK AO2 $
94908KDBQ DBQ20071107080509711/07/07 08:05:31  5-MIN KDBQ 071405Z 00000KT 7SM CLR M05/M07 A3032 710 88 -1500 000/00 RMK AO2 $
94908KDBQ DBQ20071107081009711/07/07 08:10:31  5-MIN KDBQ 071410Z 00000KT 7SM CLR M04/M06 A3032 710 85 -1400 000/00 RMK AO2 $
94908KDBQ DBQ20071107081509711/07/07 08:15:31  5-MIN KDBQ 071415Z 23003KT 7SM CLR M04/M06 A3032 710 88 -1400 230/03 RMK AO2 $
94908KDBQ DBQ20071107082010011/07/07 08:20:31  5-MIN KDBQ 071420Z 00000KT 6SM BR CLR M04/M06 A3032 710 88 -1400 000/00 RMK AO2 $
94908KDBQ DBQ20071107082510011/07/07 08:25:31  5-MIN KDBQ 071425Z 00000KT 6SM BR CLR M04/M06 A3033 700 85 -1400 000/00 RMK AO2 $
94908KDBQ DBQ20071107083010011/07/07 08:30:31  5-MIN KDBQ 071430Z 00000KT 6SM BR CLR M04/M06 A3032 710 88 -1400 000/00 RMK AO2 $
94908KDBQ DBQ20071107083510011/07/07 08:35:31  5-MIN KDBQ 071435Z 17004KT 6SM BR CLR M03/M06 A3031 720 85 -1300 170/04 RMK AO2 $
94908KDBQ DBQ20071107084009711/07/07 08:40:31  5-MIN KDBQ 071440Z 19004KT 7SM CLR M03/M05 A3031 720 85 -1200 180/04 RMK AO2 $
94908KDBQ DBQ20071107084509711/07/07 08:45:31  5-MIN KDBQ 071445Z 19006KT 8SM CLR M02/M05 A3031 720 81 -1100 180/06 RMK AO2 $
94908KDBQ DBQ20071107085012011/07/07 08:50:31  5-MIN KDBQ 071450Z 18005KT 9SM CLR M02/M04 A3031 720 81 -1100 180/05 RMK AO2 SLP277 T10171044 55000 $
94908KDBQ DBQ20071107085509811/07/07 08:55:31  5-MIN KDBQ 071455Z 18005KT 10SM CLR M01/M04 A3031 720 78 -1000 180/05 RMK AO2 $
94908KDBQ DBQ20071107090009811/07/07 09:00:31  5-MIN KDBQ 071500Z 18007KT 10SM CLR M01/M04 A3031 720 78 -1000 180/07 RMK AO2 $
94908KDBQ DBQ20071107090509811/07/07 09:05:31  5-MIN KDBQ 071505Z 17007KT 10SM CLR M01/M05 A3031 720 75 -1000 170/07 RMK AO2 $
94908KDBQ DBQ20071107091009811/07/07 09:10:31  5-MIN KDBQ 071510Z 19007KT 10SM CLR M01/M05 A3031 720 75 -1000 190/07 RMK AO2 $
94908KDBQ DBQ20071107091509711/07/07 09:15:31  5-MIN KDBQ 071515Z 20008KT 10SM CLR M01/M05 A3031 720 72 -900 200/08 RMK AO2 $
94908KDBQ DBQ20071107092009811/07/07 09:20:31  5-MIN KDBQ 071520Z 17007KT 10SM CLR M01/M06 A3031 720 72 -1000 170/07 RMK AO2 $
94908KDBQ DBQ20071107092509711/07/07 09:25:31  5-MIN KDBQ 071525Z 18007KT 10SM CLR M01/M06 A3030 730 69 -900 180/07 RMK AO2 $
94908KDBQ DBQ20071107093009711/07/07 09:30:31  5-MIN KDBQ 071530Z 18007KT 10SM CLR M01/M05 A3030 730 72 -900 180/07 RMK AO2 $
94908KDBQ DBQ20071107093509611/07/07 09:35:31  5-MIN KDBQ 071535Z 18007KT 10SM CLR 00/M05 A3030 730 69 -800 180/07 RMK AO2 $
94908KDBQ DBQ20071107094009611/07/07 09:40:31  5-MIN KDBQ 071540Z 17008KT 10SM CLR 01/M05 A3030 730 66 -800 170/08 RMK AO2 $
94908KDBQ DBQ20071107094509611/07/07 09:45:31  5-MIN KDBQ 071545Z 17010KT 10SM CLR 01/M06 A3030 730 63 -800 170/10 RMK AO2 $
94908KDBQ DBQ20071107095011311/07/07 09:50:31  5-MIN KDBQ 071550Z 19008KT 10SM CLR 01/M05 A3030 730 66 -800 180/08 RMK AO2 SLP272 T00061050 $
94908KDBQ DBQ20071107095509611/07/07 09:55:31  5-MIN KDBQ 071555Z 19009KT 10SM CLR 01/M05 A3029 740 66 -800 190/09 RMK AO2 $
94908KDBQ DBQ20071107100009611/07/07 10:00:31  5-MIN KDBQ 071600Z 17010KT 10SM CLR 01/M05 A3029 740 64 -700 170/10 RMK AO2 $
94908KDBQ DBQ20071107100509611/07/07 10:05:31  5-MIN KDBQ 071605Z 17009KT 10SM CLR 01/M06 A3028 740 61 -700 170/09 RMK AO2 $
94908KDBQ DBQ20071107101009611/07/07 10:10:31  5-MIN KDBQ 071610Z 17011KT 10SM CLR 01/M06 A3028 750 61 -700 170/11 RMK AO2 $
94908KDBQ DBQ20071107101509511/07/07 10:15:31  5-MIN KDBQ 071615Z 18011KT 8SM CLR 01/M06 A3028 750 61 -700 180/11 RMK AO2 $
94908KDBQ DBQ20071107102009511/07/07 10:20:31  5-MIN KDBQ 071620Z 18009KT 8SM CLR 01/M06 A3028 750 61 -700 180/09 RMK AO2 $
94908KDBQ DBQ20071107102509611/07/07 10:25:31  5-MIN KDBQ 071625Z 18009KT 10SM CLR 01/M06 A3028 750 61 -700 180/09 RMK AO2 $
94908KDBQ DBQ20071107103009511/07/07 10:30:31  5-MIN KDBQ 071630Z 18010KT 9SM CLR 02/M05 A3028 750 61 -600 180/10 RMK AO2 $
94908KDBQ DBQ20071107103509511/07/07 10:35:31  5-MIN KDBQ 071635Z 18009KT 9SM CLR 02/M05 A3027 750 61 -600 180/09 RMK AO2 $
94908KDBQ DBQ20071107104009611/07/07 10:40:31  5-MIN KDBQ 071640Z 18011KT 10SM CLR 02/M05 A3027 750 61 -600 180/11 RMK AO2 $
94908KDBQ DBQ20071107104509611/07/07 10:45:31  5-MIN KDBQ 071645Z 21009KT 10SM CLR 02/M05 A3028 750 61 -600 210/09 RMK AO2 $
94908KDBQ DBQ20071107105011311/07/07 10:50:31  5-MIN KDBQ 071650Z 20009KT 10SM CLR 02/M05 A3027 750 61 -600 200/09 RMK AO2 SLP265 T00171050 $
94908KDBQ DBQ20071107105509611/07/07 10:55:31  5-MIN KDBQ 071655Z 21009KT 10SM CLR 02/M05 A3027 750 59 -500 200/09 RMK AO2 $
94908KDBQ DBQ20071107110009611/07/07 11:00:31  5-MIN KDBQ 071700Z 22009KT 10SM CLR 02/M05 A3027 750 59 -500 220/09 RMK AO2 $
94908KDBQ DBQ20071107110510511/07/07 11:05:31  5-MIN KDBQ 071705Z 21010G15KT 10SM FEW110 02/M06 A3027 760 56 -500 200/10G15 RMK AO2 $
94908KDBQ DBQ20071107111009911/07/07 11:10:31  5-MIN KDBQ 071710Z 20011KT 10SM SCT110 02/M06 A3027 760 59 -600 200/11 RMK AO2 $
94908KDBQ DBQ20071107111509911/07/07 11:15:31  5-MIN KDBQ 071715Z 20012KT 10SM BKN110 02/M06 A3026 770 59 -600 200/12 RMK AO2 $
94908KDBQ DBQ20071107112009911/07/07 11:20:31  5-MIN KDBQ 071720Z 21011KT 10SM BKN110 02/M06 A3026 770 56 -500 210/11 RMK AO2 $
94908KDBQ DBQ20071107112509911/07/07 11:25:31  5-MIN KDBQ 071725Z 20011KT 10SM BKN120 02/M05 A3026 770 59 -500 200/11 RMK AO2 $
94908KDBQ DBQ20071107113009911/07/07 11:30:31  5-MIN KDBQ 071730Z 23009KT 10SM OVC120 02/M05 A3026 770 59 -500 230/09 RMK AO2 $
94908KDBQ DBQ20071107113509911/07/07 11:35:31  5-MIN KDBQ 071735Z 22012KT 10SM BKN120 03/M05 A3025 770 56 -400 210/12 RMK AO2 $
94908KDBQ DBQ20071107114009911/07/07 11:40:31  5-MIN KDBQ 071740Z 21011KT 10SM BKN120 03/M05 A3025 780 56 -400 200/11 RMK AO2 $
94908KDBQ DBQ20071107114509911/07/07 11:45:31  5-MIN KDBQ 071745Z 20010KT 10SM BKN120 03/M04 A3024 780 59 -400 200/10 RMK AO2 $
94908KDBQ DBQ20071107115013411/07/07 11:50:31  5-MIN KDBQ 071750Z 21012KT 10SM BKN120 03/M04 A3024 780 57 -400 210/12 RMK AO2 SLP253 T00331044 10033 21078 58007 $
94908KDBQ DBQ20071107115509911/07/07 11:55:31  5-MIN KDBQ 071755Z 22011KT 10SM BKN120 03/M05 A3024 780 56 -400 220/11 RMK AO2 $
94908KDBQ DBQ20071107120009911/07/07 12:00:31  5-MIN KDBQ 071800Z 21010KT 10SM BKN120 03/M05 A3024 790 54 -300 210/10 RMK AO2 $
94908KDBQ DBQ20071107120509911/07/07 12:05:31  5-MIN KDBQ 071805Z 22008KT 10SM SCT120 03/M05 A3023 790 56 -400 220/08 RMK AO2 $
94908KDBQ DBQ20071107121009911/07/07 12:10:31  5-MIN KDBQ 071810Z 22009KT 10SM FEW120 03/M05 A3023 790 56 -400 220/09 RMK AO2 $
94908KDBQ DBQ20071107121509911/07/07 12:15:31  5-MIN KDBQ 071815Z 22009KT 10SM FEW120 03/M05 A3022 800 54 -300 220/09 RMK AO2 $
94908KDBQ DBQ20071107122009911/07/07 12:20:31  5-MIN KDBQ 071820Z 23011KT 10SM FEW120 03/M05 A3022 800 54 -300 230/11 RMK AO2 $
94908KDBQ DBQ20071107122509611/07/07 12:25:31  5-MIN KDBQ 071825Z 23010KT 10SM CLR 03/M05 A3022 800 54 -300 230/10 RMK AO2 $
94908KDBQ DBQ20071107123009611/07/07 12:30:31  5-MIN KDBQ 071830Z 22009KT 10SM CLR 03/M05 A3021 810 54 -300 220/09 RMK AO2 $
94908KDBQ DBQ20071107123509611/07/07 12:35:31  5-MIN KDBQ 071835Z 21009KT 10SM CLR 03/M05 A3021 810 54 -300 210/09 RMK AO2 $
94908KDBQ DBQ20071107124009611/07/07 12:40:31  5-MIN KDBQ 071840Z 19010KT 10SM CLR 03/M05 A3020 820 54 -300 190/10 RMK AO2 $
94908KDBQ DBQ20071107124510011/07/07 12:45:31  5-MIN KDBQ 071845Z 22011KT 10SM CLR 05/M04 A3020 820 50 -100 220/11 RMK AO2 PNO $
94908KDBQ DBQ20071107125011711/07/07 12:50:31  5-MIN KDBQ 071850Z 20009KT 10SM CLR 04/M05 A3020 820 50 -200 200/09 RMK AO2 SLP239 T00441050 PNO $
94908KDBQ DBQ20071107125509011/07/07 12:55:31  5-MIN KDBQ 071855Z 10SM CLR 04/M05 A3020 820 50 -200 M /M RMK AO2 PNO $
94908KDBQ DBQ20071107130009411/07/07 13:00:31  5-MIN KDBQ 071900Z 20010KT 10SM CLR 04/M05 A3020 820 50 -200 200/10 RMK AO2
94908KDBQ DBQ20071107130509411/07/07 13:05:31  5-MIN KDBQ 071905Z 20010KT 10SM CLR 04/M06 A3019 830 50 -200 200/10 RMK AO2
94908KDBQ DBQ20071107131009411/07/07 13:10:31  5-MIN KDBQ 071910Z 20010KT 10SM CLR 04/M05 A3019 830 52 -200 200/10 RMK AO2
94908KDBQ DBQ20071107131509411/07/07 13:15:31  5-MIN KDBQ 071915Z 20010KT 10SM CLR 04/M05 A3018 830 52 -200 200/10 RMK AO2
94908KDBQ DBQ20071107132009411/07/07 13:20:31  5-MIN KDBQ 071920Z 20010KT 10SM CLR 04/M06 A3018 840 50 -200 200/10 RMK AO2
94908KDBQ DBQ20071107132509711/07/07 13:25:31  5-MIN KDBQ 071925Z 20010KT 10SM FEW120 04/M06 A3018 840 50 -200 200/10 RMK AO2
94908KDBQ DBQ20071107133009711/07/07 13:30:31  5-MIN KDBQ 071930Z 20010KT 10SM SCT120 04/M06 A3017 850 50 -200 200/10 RMK AO2
94908KDBQ DBQ20071107133509711/07/07 13:35:31  5-MIN KDBQ 071935Z 20010KT 10SM FEW120 04/M06 A3017 850 50 -200 200/10 RMK AO2
94908KDBQ DBQ20071107134009711/07/07 13:40:31  5-MIN KDBQ 071940Z 20010KT 10SM FEW120 04/M06 A3017 850 48 -200 200/10 RMK AO2
94908KDBQ DBQ20071107134509711/07/07 13:45:31  5-MIN KDBQ 071945Z 20010KT 10SM FEW120 04/M06 A3016 860 48 -200 200/10 RMK AO2
94908KDBQ DBQ20071107135011411/07/07 13:50:31  5-MIN KDBQ 071950Z 20010KT 10SM FEW120 04/M06 A3016 860 48 -200 200/10 RMK AO2 SLP224 T00391061
94908KDBQ DBQ20071107135510311/07/07 13:55:31  5-MIN KDBQ 071955Z 20011G14KT 10SM FEW120 03/M06 A3015 870 52 -200 200/11G14 RMK AO2
94908KDBQ DBQ20071107140009411/07/07 14:00:31  5-MIN KDBQ 072000Z 20007KT 10SM CLR 04/M06 A3015 870 50 -200 200/07 RMK AO2
94908KDBQ DBQ20071107140509411/07/07 14:05:31  5-MIN KDBQ 072005Z 20011KT 10SM CLR 04/M06 A3014 870 48 -200 200/11 RMK AO2
94908KDBQ DBQ20071107141009411/07/07 14:10:31  5-MIN KDBQ 072010Z 22010KT 10SM CLR 04/M06 A3014 880 50 -200 210/10 RMK AO2
94908KDBQ DBQ20071107141509411/07/07 14:15:31  5-MIN KDBQ 072015Z 20008KT 10SM CLR 04/M06 A3014 880 50 -200 200/08 RMK AO2
94908KDBQ DBQ20071107142009411/07/07 14:20:31  5-MIN KDBQ 072020Z 19008KT 10SM CLR 04/M06 A3014 880 48 -200 190/08 RMK AO2
94908KDBQ DBQ20071107142509411/07/07 14:25:31  5-MIN KDBQ 072025Z 19009KT 10SM CLR 04/M06 A3013 880 48 -200 190/09 RMK AO2
94908KDBQ DBQ20071107143009411/07/07 14:30:31  5-MIN KDBQ 072030Z 20009KT 10SM CLR 04/M06 A3013 890 48 -200 190/09 RMK AO2
94908KDBQ DBQ20071107143509411/07/07 14:35:31  5-MIN KDBQ 072035Z 18009KT 10SM CLR 04/M06 A3013 890 50 -200 180/09 RMK AO2
94908KDBQ DBQ20071107144009411/07/07 14:40:31  5-MIN KDBQ 072040Z 20010KT 10SM CLR 04/M06 A3013 890 48 -100 200/10 RMK AO2
94908KDBQ DBQ20071107144509411/07/07 14:45:31  5-MIN KDBQ 072045Z 18010KT 10SM CLR 04/M06 A3012 890 46 -100 180/10 RMK AO2
94908KDBQ DBQ20071107145012311/07/07 14:50:31  5-MIN KDBQ 072050Z 19009KT 10SM CLR 04/M06 A3012 900 46 -100 190/09 RMK AO2 SLP211 6//// T00441061 58021
94908KDBQ DBQ20071107145510411/07/07 14:55:31  5-MIN KDBQ 072055Z AUTO 18008KT 10SM CLR 04/M06 A3012 900 48 -100 180/08 RMK AO2 TSNO
94908KDBQ DBQ20071107150010411/07/07 15:00:31  5-MIN KDBQ 072100Z AUTO 20011KT 10SM CLR 04/M06 A3011 900 46 -100 200/11 RMK AO2 TSNO
94908KDBQ DBQ20071107150510411/07/07 15:05:31  5-MIN KDBQ 072105Z AUTO 20011KT 10SM CLR 04/M06 A3011 900 48 -100 200/11 RMK AO2 TSNO
94908KDBQ DBQ20071107151010411/07/07 15:10:31  5-MIN KDBQ 072110Z AUTO 18010KT 10SM CLR 04/M06 A3011 910 46 -100 180/10 RMK AO2 TSNO
94908KDBQ DBQ20071107151510411/07/07 15:15:31  5-MIN KDBQ 072115Z AUTO 17008KT 10SM CLR 04/M06 A3011 910 48 -100 170/08 RMK AO2 TSNO
94908KDBQ DBQ20071107152010411/07/07 15:20:31  5-MIN KDBQ 072120Z AUTO 18011KT 10SM CLR 04/M06 A3010 910 48 -100 180/11 RMK AO2 TSNO
94908KDBQ DBQ20071107152510411/07/07 15:25:31  5-MIN KDBQ 072125Z AUTO 19012KT 10SM CLR 04/M06 A3010 910 50 -100 180/12 RMK AO2 TSNO
94908KDBQ DBQ20071107153009411/07/07 15:30:31  5-MIN KDBQ 072130Z 19014KT 10SM CLR 04/M06 A3010 920 48 -100 190/14 RMK AO2
94908KDBQ DBQ20071107153509411/07/07 15:35:31  5-MIN KDBQ 072135Z 19011KT 10SM CLR 04/M06 A3010 920 48 -100 190/11 RMK AO2
94908KDBQ DBQ20071107154009411/07/07 15:40:31  5-MIN KDBQ 072140Z 20012KT 10SM CLR 04/M06 A3009 920 50 -100 190/12 RMK AO2
94908KDBQ DBQ20071107154509411/07/07 15:45:31  5-MIN KDBQ 072145Z 20011KT 10SM CLR 04/M06 A3009 920 50 -100 190/11 RMK AO2
94908KDBQ DBQ20071107155011111/07/07 15:50:31  5-MIN KDBQ 072150Z 18011KT 10SM CLR 04/M06 A3009 920 48 -100 180/11 RMK AO2 SLP202 T00391061
94908KDBQ DBQ20071107155509411/07/07 15:55:31  5-MIN KDBQ 072155Z 19011KT 10SM CLR 03/M06 A3009 920 50 -200 190/11 RMK AO2
94908KDBQ DBQ20071107160009411/07/07 16:00:31  5-MIN KDBQ 072200Z 19011KT 10SM CLR 03/M06 A3008 930 50 -200 190/11 RMK AO2
94908KDBQ DBQ20071107160509411/07/07 16:05:31  5-MIN KDBQ 072205Z 19008KT 10SM CLR 03/M06 A3008 930 50 -200 190/08 RMK AO2
94908KDBQ DBQ20071107161009411/07/07 16:10:31  5-MIN KDBQ 072210Z 19011KT 10SM CLR 03/M06 A3008 930 52 -200 190/11 RMK AO2
94908KDBQ DBQ20071107161509411/07/07 16:15:31  5-MIN KDBQ 072215Z 18011KT 10SM CLR 03/M06 A3008 930 50 -200 180/11 RMK AO2
94908KDBQ DBQ20071107162009411/07/07 16:20:31  5-MIN KDBQ 072220Z 18011KT 10SM CLR 03/M06 A3008 940 50 -200 180/11 RMK AO2
94908KDBQ DBQ20071107162509311/07/07 16:25:31  5-MIN KDBQ 072225Z 18009KT 9SM CLR 03/M06 A3007 940 50 -200 180/09 RMK AO2
94908KDBQ DBQ20071107163009311/07/07 16:30:31  5-MIN KDBQ 072230Z 18010KT 9SM CLR 03/M06 A3007 940 50 -200 180/10 RMK AO2
94908KDBQ DBQ20071107163509311/07/07 16:35:31  5-MIN KDBQ 072235Z 17010KT 9SM CLR 03/M06 A3007 940 50 -200 170/10 RMK AO2
94908KDBQ DBQ20071107164009311/07/07 16:40:31  5-MIN KDBQ 072240Z 17008KT 9SM CLR 03/M06 A3007 940 54 -200 170/08 RMK AO2
94908KDBQ DBQ20071107164509611/07/07 16:45:31  5-MIN KDBQ 072245Z 17010KT 9SM FEW120 03/M06 A3006 950 54 -200 170/10 RMK AO2
94908KDBQ DBQ20071107165011411/07/07 16:50:31  5-MIN KDBQ 072250Z 17008KT 10SM SCT120 03/M06 A3006 950 54 -200 170/08 RMK AO2 SLP192 T00281056
94908KDBQ DBQ20071107165509711/07/07 16:55:31  5-MIN KDBQ 072255Z 17009KT 10SM BKN120 03/M06 A3005 960 54 -200 160/09 RMK AO2
94908KDBQ DBQ20071107170009711/07/07 17:00:31  5-MIN KDBQ 072300Z 17009KT 10SM BKN120 03/M06 A3005 960 54 -200 170/09 RMK AO2
94908KDBQ DBQ20071107170509711/07/07 17:05:31  5-MIN KDBQ 072305Z 17010KT 10SM BKN120 03/M06 A3005 960 54 -200 170/10 RMK AO2
94908KDBQ DBQ20071107171009711/07/07 17:10:31  5-MIN KDBQ 072310Z 17008KT 10SM BKN120 03/M06 A3005 960 54 -200 170/08 RMK AO2
94908KDBQ DBQ20071107171509711/07/07 17:15:31  5-MIN KDBQ 072315Z 17010KT 10SM BKN120 03/M06 A3005 960 54 -200 170/10 RMK AO2
94908KDBQ DBQ20071107172009711/07/07 17:20:31  5-MIN KDBQ 072320Z 17009KT 10SM BKN110 03/M06 A3005 960 54 -200 170/09 RMK AO2
94908KDBQ DBQ20071107172509711/07/07 17:25:31  5-MIN KDBQ 072325Z 17010KT 10SM BKN110 03/M06 A3004 960 54 -200 170/10 RMK AO2
94908KDBQ DBQ20071107173009711/07/07 17:30:31  5-MIN KDBQ 072330Z 17011KT 10SM BKN110 03/M06 A3004 960 54 -200 170/11 RMK AO2
94908KDBQ DBQ20071107173509711/07/07 17:35:31  5-MIN KDBQ 072335Z 17009KT 10SM SCT100 03/M06 A3004 970 54 -200 170/09 RMK AO2
94908KDBQ DBQ20071107174009611/07/07 17:40:31  5-MIN KDBQ 072340Z 17009KT 9SM SCT100 03/M06 A3004 970 54 -200 170/09 RMK AO2
94908KDBQ DBQ20071107174509711/07/07 17:45:31  5-MIN KDBQ 072345Z 17009KT 10SM BKN100 03/M06 A3004 970 54 -200 170/09 RMK AO2
94908KDBQ DBQ20071107175013811/07/07 17:50:31  5-MIN KDBQ 072350Z 16009KT 10SM BKN100 03/M06 A3004 970 54 -200 160/09 RMK AO2 SLP186 6//// T00281056 10050 20028 56042
94908KDBQ DBQ20071107175509711/07/07 17:55:31  5-MIN KDBQ 072355Z 16010KT 10SM SCT095 03/M06 A3003 980 54 -200 160/10 RMK AO2
94908KDBQ DBQ20071107180010411/07/07 18:00:31  5-MIN KDBQ 080000Z 16010KT 10SM FEW090 SCT100 03/M06 A3003 980 54 -200 160/10 RMK AO2
94908KDBQ DBQ20071107180510411/07/07 18:05:31  5-MIN KDBQ 080005Z 16011KT 10SM SCT085 SCT100 03/M06 A3003 980 54 -200 160/11 RMK AO2
94908KDBQ DBQ20071107181010411/07/07 18:10:31  5-MIN KDBQ 080010Z 17011KT 10SM BKN080 BKN100 03/M06 A3003 980 54 -200 160/11 RMK AO2
94908KDBQ DBQ20071107181510411/07/07 18:15:31  5-MIN KDBQ 080015Z 17011KT 10SM SCT080 BKN095 03/M06 A3003 980 54 -200 160/11 RMK AO2
94908KDBQ DBQ20071107182010411/07/07 18:20:31  5-MIN KDBQ 080020Z 17011KT 10SM SCT080 BKN100 03/M06 A3004 970 54 -200 170/11 RMK AO2
94908KDBQ DBQ20071107182510411/07/07 18:25:31  5-MIN KDBQ 080025Z 17011KT 10SM BKN085 BKN110 03/M06 A3004 970 54 -200 170/11 RMK AO2
94908KDBQ DBQ20071107183009711/07/07 18:30:31  5-MIN KDBQ 080030Z 17010KT 10SM OVC090 03/M06 A3003 970 54 -200 170/10 RMK AO2
94908KDBQ DBQ20071107183509711/07/07 18:35:31  5-MIN KDBQ 080035Z 17011KT 10SM OVC085 03/M06 A3003 980 54 -200 170/11 RMK AO2
94908KDBQ DBQ20071107184010411/07/07 18:40:31  5-MIN KDBQ 080040Z 17011KT 10SM BKN080 OVC095 03/M06 A3003 980 54 -200 170/11 RMK AO2
94908KDBQ DBQ20071107184510411/07/07 18:45:31  5-MIN KDBQ 080045Z 18010KT 10SM BKN080 OVC100 03/M06 A3004 970 54 -200 180/10 RMK AO2
94908KDBQ DBQ20071107185011411/07/07 18:50:31  5-MIN KDBQ 080050Z 19009KT 10SM OVC080 03/M05 A3005 960 56 -200 190/09 RMK AO2 SLP191 T00281050
94908KDBQ DBQ20071107185511111/07/07 18:55:31  5-MIN KDBQ 080055Z 20008KT 10SM BKN080 OVC095 03/M05 A3006 950 56 -200 200/08 RMK AO2 PRESRR
94908KDBQ DBQ20071107190009711/07/07 19:00:31  5-MIN KDBQ 080100Z 21008KT 10SM OVC080 03/M05 A3006 950 56 -200 210/08 RMK AO2
94908KDBQ DBQ20071107190509711/07/07 19:05:31  5-MIN KDBQ 080105Z 21007KT 10SM OVC080 03/M05 A3006 950 56 -200 200/07 RMK AO2
94908KDBQ DBQ20071107191009711/07/07 19:10:31  5-MIN KDBQ 080110Z 20008KT 10SM OVC080 03/M05 A3005 960 56 -200 200/08 RMK AO2
94908KDBQ DBQ20071107191509711/07/07 19:15:31  5-MIN KDBQ 080115Z 19008KT 10SM OVC075 03/M05 A3005 960 56 -200 190/08 RMK AO2
94908KDBQ DBQ20071107192009711/07/07 19:20:31  5-MIN KDBQ 080120Z 19007KT 10SM OVC070 03/M05 A3005 960 56 -200 190/07 RMK AO2
94908KDBQ DBQ20071107192510411/07/07 19:25:31  5-MIN KDBQ 080125Z 19008KT 10SM BKN075 OVC110 03/M05 A3005 960 56 -200 190/08 RMK AO2
94908KDBQ DBQ20071107193010411/07/07 19:30:31  5-MIN KDBQ 080130Z 19008KT 10SM BKN070 OVC110 03/M05 A3004 960 56 -200 190/08 RMK AO2
94908KDBQ DBQ20071107193510411/07/07 19:35:31  5-MIN KDBQ 080135Z 19008KT 10SM SCT070 OVC110 03/M05 A3004 970 56 -200 190/08 RMK AO2
94908KDBQ DBQ20071107194010411/07/07 19:40:31  5-MIN KDBQ 080140Z 19009KT 10SM FEW070 BKN110 03/M05 A3004 970 56 -200 190/09 RMK AO2
94908KDBQ DBQ20071107194510411/07/07 19:45:31  5-MIN KDBQ 080145Z 19009KT 10SM FEW070 BKN110 03/M05 A3004 970 56 -200 190/09 RMK AO2
94908KDBQ DBQ20071107195012611/07/07 19:50:31  5-MIN KDBQ 080150Z AUTO 19009KT 10SM FEW085 BKN110 03/M05 A3004 970 56 -200 190/09 RMK AO2 SLP184 T00281050
94908KDBQ DBQ20071107195510911/07/07 19:55:31  5-MIN KDBQ 080155Z AUTO 19009KT 10SM SCT085 BKN110 03/M05 A3003 970 56 -200 190/09 RMK AO2
94908KDBQ DBQ20071107200010911/07/07 20:00:31  5-MIN KDBQ 080200Z AUTO 19009KT 10SM FEW085 BKN110 03/M05 A3003 980 56 -200 180/09 RMK AO2
94908KDBQ DBQ20071107200510911/07/07 20:05:31  5-MIN KDBQ 080205Z AUTO 19009KT 10SM SCT100 SCT120 03/M05 A3003 980 56 -200 180/09 RMK AO2
94908KDBQ DBQ20071107201010911/07/07 20:10:31  5-MIN KDBQ 080210Z AUTO 18009KT 10SM BKN100 BKN120 03/M05 A3002 980 56 -200 180/09 RMK AO2
94908KDBQ DBQ20071107201510911/07/07 20:15:31  5-MIN KDBQ 080215Z AUTO 18009KT 10SM BKN095 BKN120 03/M05 A3002 980 56 -200 180/09 RMK AO2
94908KDBQ DBQ20071107202011611/07/07 20:20:31  5-MIN KDBQ 080220Z AUTO 18011KT 10SM FEW075 BKN090 BKN110 03/M05 A3002 980 56 -200 180/11 RMK AO2
94908KDBQ DBQ20071107202510911/07/07 20:25:31  5-MIN KDBQ 080225Z AUTO 18010KT 10SM BKN085 OVC110 03/M05 A3002 990 56 -200 180/10 RMK AO2
94908KDBQ DBQ20071107203010911/07/07 20:30:31  5-MIN KDBQ 080230Z AUTO 18011KT 10SM BKN075 OVC090 03/M05 A3002 990 56 -200 180/11 RMK AO2
94908KDBQ DBQ20071107203510911/07/07 20:35:31  5-MIN KDBQ 080235Z AUTO 18010KT 10SM BKN070 OVC085 03/M05 A3002 990 56 -200 180/10 RMK AO2
94908KDBQ DBQ20071107204010911/07/07 20:40:31  5-MIN KDBQ 080240Z AUTO 18010KT 10SM BKN060 OVC080 03/M05 A3002 990 56 -200 180/10 RMK AO2
94908KDBQ DBQ20071107204510911/07/07 20:45:31  5-MIN KDBQ 080245Z AUTO 18010KT 10SM BKN055 OVC075 03/M05 A3002 990 56 -200 180/10 RMK AO2
94908KDBQ DBQ20071107205013211/07/07 20:50:31  5-MIN KDBQ 080250Z AUTO 17011KT 10SM BKN055 OVC075 03/M05 A3001 990 56 -200 170/11 RMK AO2 SLP174 T00281050 56026
94908KDBQ DBQ20071107205510311/07/07 20:55:31  5-MIN KDBQ 080255Z AUTO 18010KT 10SM OVC055 03/M05 A3001 1000 56 -200 180/10 RMK AO2
94908KDBQ DBQ20071107210010311/07/07 21:00:31  5-MIN KDBQ 080300Z AUTO 17011KT 10SM OVC050 03/M05 A3001 1000 56 -200 170/11 RMK AO2
94908KDBQ DBQ20071107210510311/07/07 21:05:31  5-MIN KDBQ 080305Z AUTO 18011KT 10SM OVC050 03/M05 A3001 1000 56 -200 170/11 RMK AO2
94908KDBQ DBQ20071107211010311/07/07 21:10:31  5-MIN KDBQ 080310Z AUTO 17011KT 10SM OVC050 03/M05 A3000 1000 56 -100 170/11 RMK AO2
94908KDBQ DBQ20071107211510311/07/07 21:15:31  5-MIN KDBQ 080315Z AUTO 17011KT 10SM OVC050 03/M05 A3000 1010 56 -100 170/11 RMK AO2
94908KDBQ DBQ20071107212011011/07/07 21:20:31  5-MIN KDBQ 080320Z AUTO 17011KT 10SM BKN050 OVC080 03/M05 A3000 1010 56 -100 170/11 RMK AO2
94908KDBQ DBQ20071107212511011/07/07 21:25:31  5-MIN KDBQ 080325Z AUTO 17011KT 10SM BKN050 OVC080 03/M05 A3000 1010 56 -100 170/11 RMK AO2
94908KDBQ DBQ20071107213011011/07/07 21:30:31  5-MIN KDBQ 080330Z AUTO 17012KT 10SM SCT050 OVC080 03/M05 A3000 1010 54 -100 170/12 RMK AO2
94908KDBQ DBQ20071107213511011/07/07 21:35:31  5-MIN KDBQ 080335Z AUTO 17013KT 10SM FEW050 OVC080 03/M05 A2999 1010 54 -100 170/13 RMK AO2
94908KDBQ DBQ20071107214011011/07/07 21:40:31  5-MIN KDBQ 080340Z AUTO 17012KT 10SM FEW050 OVC080 03/M05 A2999 1010 54 -100 170/12 RMK AO2
94908KDBQ DBQ20071107214510311/07/07 21:45:31  5-MIN KDBQ 080345Z AUTO 17012KT 10SM OVC075 03/M05 A2999 1010 54 -100 170/12 RMK AO2
94908KDBQ DBQ20071107215012711/07/07 21:50:31  5-MIN KDBQ 080350Z AUTO 17013KT 10SM BKN070 OVC080 03/M05 A2999 1020 54 -100 170/13 RMK AO2 SLP164 T00331050
94908KDBQ DBQ20071107215510311/07/07 21:55:31  5-MIN KDBQ 080355Z AUTO 17013KT 10SM OVC070 03/M05 A2999 1020 54 -100 170/13 RMK AO2
94908KDBQ DBQ20071107220010311/07/07 22:00:31  5-MIN KDBQ 080400Z AUTO 17012KT 10SM OVC070 03/M05 A2998 1020 54 -100 170/12 RMK AO2
94908KDBQ DBQ20071107220510311/07/07 22:05:31  5-MIN KDBQ 080405Z AUTO 17012KT 10SM OVC065 03/M05 A2998 1020 54 -100 170/12 RMK AO2
94908KDBQ DBQ20071107221010311/07/07 22:10:31  5-MIN KDBQ 080410Z AUTO 17012KT 10SM OVC065 03/M05 A2998 1020 54 -100 170/12 RMK AO2
94908KDBQ DBQ20071107221510011/07/07 22:15:31  5-MIN KDBQ 080415Z AUTO 17012KT 10SM OVC065 03/M05 A2998 1030 54 0 170/12 RMK AO2
94908KDBQ DBQ20071107222010011/07/07 22:20:31  5-MIN KDBQ 080420Z AUTO 17012KT 10SM OVC065 03/M05 A2997 1030 54 0 170/12 RMK AO2
94908KDBQ DBQ20071107222510011/07/07 22:25:31  5-MIN KDBQ 080425Z AUTO 17014KT 10SM OVC065 03/M05 A2997 1030 54 0 170/14 RMK AO2
94908KDBQ DBQ20071107223010011/07/07 22:30:31  5-MIN KDBQ 080430Z AUTO 18012KT 10SM OVC065 03/M05 A2997 1030 54 0 170/12 RMK AO2
94908KDBQ DBQ20071107223510011/07/07 22:35:31  5-MIN KDBQ 080435Z AUTO 18013KT 10SM OVC065 03/M05 A2997 1030 54 0 180/13 RMK AO2
94908KDBQ DBQ20071107224010011/07/07 22:40:31  5-MIN KDBQ 080440Z AUTO 18012KT 10SM OVC065 03/M05 A2997 1040 54 0 170/12 RMK AO2
94908KDBQ DBQ20071107224510011/07/07 22:45:31  5-MIN KDBQ 080445Z AUTO 18010KT 10SM OVC065 03/M05 A2996 1040 54 0 180/10 RMK AO2
94908KDBQ DBQ20071107225011711/07/07 22:50:31  5-MIN KDBQ 080450Z AUTO 17012KT 10SM OVC065 03/M05 A2996 1040 54 0 170/12 RMK AO2 SLP155 T00331050
94908KDBQ DBQ20071107225510011/07/07 22:55:31  5-MIN KDBQ 080455Z AUTO 17012KT 10SM OVC065 03/M05 A2996 1040 54 0 170/12 RMK AO2
94908KDBQ DBQ20071107230010011/07/07 23:00:31  5-MIN KDBQ 080500Z AUTO 17011KT 10SM OVC065 03/M05 A2996 1040 54 0 170/11 RMK AO2
94908KDBQ DBQ20071107230510011/07/07 23:05:31  5-MIN KDBQ 080505Z AUTO 17011KT 10SM OVC065 03/M05 A2996 1050 54 0 170/11 RMK AO2
94908KDBQ DBQ20071107231010011/07/07 23:10:31  5-MIN KDBQ 080510Z AUTO 17011KT 10SM OVC065 03/M05 A2995 1050 54 0 170/11 RMK AO2
94908KDBQ DBQ20071107231510011/07/07 23:15:31  5-MIN KDBQ 080515Z AUTO 18011KT 10SM OVC065 03/M05 A2995 1050 54 0 170/11 RMK AO2
94908KDBQ DBQ20071107232010011/07/07 23:20:31  5-MIN KDBQ 080520Z AUTO 18010KT 10SM OVC065 03/M05 A2995 1050 54 0 180/10 RMK AO2
94908KDBQ DBQ20071107232510011/07/07 23:25:31  5-MIN KDBQ 080525Z AUTO 17012KT 10SM OVC065 03/M05 A2995 1050 54 0 170/12 RMK AO2
94908KDBQ DBQ20071107233010011/07/07 23:30:31  5-MIN KDBQ 080530Z AUTO 18010KT 10SM OVC065 04/M05 A2994 1060 52 0 180/10 RMK AO2
94908KDBQ DBQ20071107233510011/07/07 23:35:31  5-MIN KDBQ 080535Z AUTO 18009KT 10SM OVC065 04/M05 A2994 1060 52 0 180/09 RMK AO2
94908KDBQ DBQ20071107234010011/07/07 23:40:31  5-MIN KDBQ 080540Z AUTO 18009KT 10SM OVC065 03/M05 A2994 1060 54 0 180/09 RMK AO2
94908KDBQ DBQ20071107234510011/07/07 23:45:31  5-MIN KDBQ 080545Z AUTO 18010KT 10SM OVC065 04/M05 A2994 1060 52 0 180/10 RMK AO2
94908KDBQ DBQ20071107235014511/07/07 23:50:31  5-MIN KDBQ 080550Z AUTO 18009KT 10SM OVC065 04/M05 A2994 1060 52 0 180/09 RMK AO2 SLP146 T00391050 10039 20028 400501078 58008
94908KDBQ DBQ20071107235510011/07/07 23:55:31  5-MIN KDBQ 080555Z AUTO 18010KT 10SM OVC065 04/M05 A2993 1070 52 0 180/10 RMK AO2
94908KDBQ DBQ20071108000010011/08/07 00:00:38  5-MIN KDBQ 080600Z AUTO 18009KT 10SM OVC065 04/M05 A2993 1070 52 0 180/09 RMK AO2
94908KDBQ DBQ20071108000510711/08/07 00:05:31  5-MIN KDBQ 080605Z AUTO 18011KT 10SM BKN065 OVC085 04/M05 A2993 1070 52 0 180/11 RMK AO2
94908KDBQ DBQ20071108001010711/08/07 00:10:31  5-MIN KDBQ 080610Z AUTO 18011KT 10SM BKN065 OVC085 04/M05 A2993 1070 52 0 180/11 RMK AO2
94908KDBQ DBQ20071108001510711/08/07 00:15:31  5-MIN KDBQ 080615Z AUTO 18012KT 10SM BKN065 OVC080 04/M05 A2992 1070 52 0 180/12 RMK AO2
94908KDBQ DBQ20071108002010711/08/07 00:20:31  5-MIN KDBQ 080620Z AUTO 18009KT 10SM SCT065 OVC085 04/M05 A2992 1080 52 0 180/09 RMK AO2
94908KDBQ DBQ20071108002511411/08/07 00:25:31  5-MIN KDBQ 080625Z AUTO 18012KT 10SM FEW065 BKN085 OVC100 04/M05 A2992 1080 52 0 180/12 RMK AO2
94908KDBQ DBQ20071108003011411/08/07 00:30:31  5-MIN KDBQ 080630Z AUTO 19012KT 10SM FEW065 BKN085 OVC100 04/M05 A2992 1080 52 0 190/12 RMK AO2
94908KDBQ DBQ20071108003510711/08/07 00:35:31  5-MIN KDBQ 080635Z AUTO 19010KT 10SM BKN080 OVC100 04/M05 A2992 1080 52 0 190/10 RMK AO2
94908KDBQ DBQ20071108004010711/08/07 00:40:31  5-MIN KDBQ 080640Z AUTO 18010KT 10SM BKN080 OVC100 04/M05 A2992 1080 52 0 180/10 RMK AO2
94908KDBQ DBQ20071108004510711/08/07 00:45:31  5-MIN KDBQ 080645Z AUTO 19009KT 10SM SCT085 OVC100 04/M05 A2991 1080 52 0 190/09 RMK AO2
94908KDBQ DBQ20071108005012411/08/07 00:50:31  5-MIN KDBQ 080650Z AUTO 17010KT 10SM FEW080 OVC100 04/M05 A2991 1090 52 0 170/10 RMK AO2 SLP137 T00391050
94908KDBQ DBQ20071108005510711/08/07 00:55:31  5-MIN KDBQ 080655Z AUTO 17012KT 10SM FEW080 OVC100 04/M05 A2991 1090 52 0 170/12 RMK AO2
94908KDBQ DBQ20071108010010711/08/07 01:00:31  5-MIN KDBQ 080700Z AUTO 18010KT 10SM FEW080 OVC100 04/M05 A2991 1090 52 0 170/10 RMK AO2
94908KDBQ DBQ20071108010510011/08/07 01:05:31  5-MIN KDBQ 080705Z AUTO 18010KT 10SM OVC100 04/M05 A2991 1090 52 0 180/10 RMK AO2
94908KDBQ DBQ20071108011010011/08/07 01:10:31  5-MIN KDBQ 080710Z AUTO 18010KT 10SM OVC100 04/M05 A2991 1090 52 0 180/10 RMK AO2
94908KDBQ DBQ20071108011510811/08/07 01:15:31  5-MIN KDBQ 080715Z AUTO 18011G18KT 10SM OVC100 04/M05 A2990 1100 52 100 180/11G18 RMK AO2
94908KDBQ DBQ20071108012010811/08/07 01:20:31  5-MIN KDBQ 080720Z AUTO 18011G18KT 10SM OVC100 04/M05 A2990 1090 52 100 180/11G18 RMK AO2
94908KDBQ DBQ20071108012510811/08/07 01:25:31  5-MIN KDBQ 080725Z AUTO 19008G17KT 10SM OVC100 04/M04 A2990 1090 54 100 190/08G17 RMK AO2
94908KDBQ DBQ20071108013010211/08/07 01:30:31  5-MIN KDBQ 080730Z AUTO 19009KT 10SM OVC100 04/M04 A2990 1100 54 100 190/09 RMK AO2
94908KDBQ DBQ20071108013510211/08/07 01:35:31  5-MIN KDBQ 080735Z AUTO 18011KT 10SM OVC100 04/M05 A2990 1100 52 100 180/11 RMK AO2
94908KDBQ DBQ20071108014010211/08/07 01:40:31  5-MIN KDBQ 080740Z AUTO 19008KT 10SM OVC100 04/M05 A2990 1100 52 100 190/08 RMK AO2
94908KDBQ DBQ20071108014510211/08/07 01:45:31  5-MIN KDBQ 080745Z AUTO 18008KT 10SM OVC100 04/M05 A2990 1100 52 100 180/08 RMK AO2
94908KDBQ DBQ20071108015011711/08/07 01:50:31  5-MIN KDBQ 080750Z AUTO 19008KT 10SM OVC100 03/M05 A2990 1100 54 0 180/08 RMK AO2 SLP133 T00331050
94908KDBQ DBQ20071108015510011/08/07 01:55:31  5-MIN KDBQ 080755Z AUTO 19007KT 10SM OVC100 03/M04 A2990 1100 57 0 190/07 RMK AO2
94908KDBQ DBQ20071108020010011/08/07 02:00:31  5-MIN KDBQ 080800Z AUTO 17008KT 10SM OVC100 03/M04 A2990 1100 57 0 170/08 RMK AO2
94908KDBQ DBQ20071108020510011/08/07 02:05:31  5-MIN KDBQ 080805Z AUTO 16010KT 10SM BKN100 03/M04 A2990 1100 59 0 160/10 RMK AO2
94908KDBQ DBQ20071108021010311/08/07 02:10:31  5-MIN KDBQ 080810Z AUTO 18007KT 10SM BKN100 02/M04 A2990 1100 61 -100 180/07 RMK AO2
94908KDBQ DBQ20071108021510311/08/07 02:15:31  5-MIN KDBQ 080815Z AUTO 18006KT 10SM SCT100 02/M04 A2990 1100 61 -100 180/06 RMK AO2
94908KDBQ DBQ20071108022010311/08/07 02:20:31  5-MIN KDBQ 080820Z AUTO 20007KT 10SM FEW100 02/M04 A2989 1100 64 -200 200/07 RMK AO2
94908KDBQ DBQ20071108022510311/08/07 02:25:31  5-MIN KDBQ 080825Z AUTO 19006KT 10SM FEW100 02/M04 A2989 1100 64 -200 190/06 RMK AO2
94908KDBQ DBQ20071108023010011/08/07 02:30:31  5-MIN KDBQ 080830Z AUTO 19007KT 10SM CLR 01/M04 A2989 1110 66 -200 190/07 RMK AO2
94908KDBQ DBQ20071108023510011/08/07 02:35:31  5-MIN KDBQ 080835Z AUTO 19006KT 10SM CLR 02/M04 A2989 1110 64 -200 190/06 RMK AO2
94908KDBQ DBQ20071108024010011/08/07 02:40:31  5-MIN KDBQ 080840Z AUTO 18005KT 10SM CLR 01/M04 A2989 1110 69 -300 180/05 RMK AO2
94908KDBQ DBQ20071108024510011/08/07 02:45:31  5-MIN KDBQ 080845Z AUTO 19004KT 10SM CLR 01/M04 A2988 1110 69 -300 190/04 RMK AO2
94908KDBQ DBQ20071108025012311/08/07 02:50:31  5-MIN KDBQ 080850Z AUTO 19005KT 10SM CLR 00/M04 A2988 1110 72 -400 190/05 RMK AO2 SLP128 T00001044 58025
94908KDBQ DBQ20071108025510011/08/07 02:55:31  5-MIN KDBQ 080855Z AUTO 18004KT 10SM CLR 01/M04 A2988 1110 69 -300 180/04 RMK AO2
94908KDBQ DBQ20071108030010011/08/07 03:00:31  5-MIN KDBQ 080900Z AUTO 18004KT 10SM CLR 00/M05 A2988 1120 69 -400 180/04 RMK AO2
94908KDBQ DBQ20071108030510011/08/07 03:05:31  5-MIN KDBQ 080905Z AUTO 18004KT 10SM CLR 00/M05 A2988 1120 69 -400 180/04 RMK AO2
94908KDBQ DBQ20071108031010011/08/07 03:10:31  5-MIN KDBQ 080910Z AUTO 17005KT 10SM CLR 00/M05 A2988 1120 69 -400 170/05 RMK AO2
94908KDBQ DBQ20071108031510011/08/07 03:15:31  5-MIN KDBQ 080915Z AUTO 18004KT 10SM CLR 01/M05 A2988 1120 66 -300 180/04 RMK AO2
94908KDBQ DBQ20071108032010011/08/07 03:20:31  5-MIN KDBQ 080920Z AUTO 17004KT 10SM CLR 00/M05 A2987 1120 69 -300 170/04 RMK AO2
94908KDBQ DBQ20071108032510011/08/07 03:25:31  5-MIN KDBQ 080925Z AUTO 17005KT 10SM CLR 00/M05 A2987 1120 69 -300 170/05 RMK AO2
94908KDBQ DBQ20071108033010011/08/07 03:30:31  5-MIN KDBQ 080930Z AUTO 18004KT 10SM CLR 01/M05 A2987 1120 66 -300 180/04 RMK AO2
94908KDBQ DBQ20071108033510111/08/07 03:35:31  5-MIN KDBQ 080935Z AUTO 21004KT 10SM CLR M01/M05 A2987 1120 72 -400 210/04 RMK AO2
94908KDBQ DBQ20071108034010011/08/07 03:40:31  5-MIN KDBQ 080940Z AUTO 17003KT 10SM CLR 00/M05 A2987 1120 69 -300 170/03 RMK AO2
94908KDBQ DBQ20071108034510111/08/07 03:45:31  5-MIN KDBQ 080945Z AUTO 21003KT 10SM CLR M01/M05 A2987 1120 72 -400 210/03 RMK AO2
94908KDBQ DBQ20071108035011711/08/07 03:50:31  5-MIN KDBQ 080950Z AUTO 17004KT 10SM CLR 00/M05 A2987 1120 69 -300 170/04 RMK AO2 SLP125 T00001050
94908KDBQ DBQ20071108035510111/08/07 03:55:31  5-MIN KDBQ 080955Z AUTO 20003KT 10SM CLR M01/M05 A2987 1120 72 -400 190/03 RMK AO2
94908KDBQ DBQ20071108040010111/08/07 04:00:31  5-MIN KDBQ 081000Z AUTO 19004KT 10SM CLR M01/M05 A2987 1120 72 -400 190/04 RMK AO2
94908KDBQ DBQ20071108040510011/08/07 04:05:31  5-MIN KDBQ 081005Z AUTO 18005KT 10SM CLR 00/M05 A2987 1120 69 -300 180/05 RMK AO2
94908KDBQ DBQ20071108041010111/08/07 04:10:31  5-MIN KDBQ 081010Z AUTO 18005KT 10SM CLR M01/M05 A2987 1120 72 -400 180/05 RMK AO2
94908KDBQ DBQ20071108041510111/08/07 04:15:31  5-MIN KDBQ 081015Z AUTO 18005KT 10SM CLR M01/M05 A2987 1120 72 -400 180/05 RMK AO2
94908KDBQ DBQ20071108042010111/08/07 04:20:31  5-MIN KDBQ 081020Z AUTO 18004KT 10SM CLR M01/M05 A2987 1120 72 -400 180/04 RMK AO2
94908KDBQ DBQ20071108042510111/08/07 04:25:31  5-MIN KDBQ 081025Z AUTO 18003KT 10SM CLR M01/M05 A2987 1120 72 -400 180/03 RMK AO2
94908KDBQ DBQ20071108043010011/08/07 04:30:31  5-MIN KDBQ 081030Z AUTO 17004KT 10SM CLR 00/M05 A2987 1120 69 -300 170/04 RMK AO2
94908KDBQ DBQ20071108043510011/08/07 04:35:31  5-MIN KDBQ 081035Z AUTO 17004KT 10SM CLR 00/M05 A2987 1120 69 -300 170/04 RMK AO2
94908KDBQ DBQ20071108044010011/08/07 04:40:31  5-MIN KDBQ 081040Z AUTO 18004KT 10SM CLR 00/M05 A2987 1130 69 -300 180/04 RMK AO2
94908KDBQ DBQ20071108044510011/08/07 04:45:31  5-MIN KDBQ 081045Z AUTO 17005KT 10SM CLR 00/M05 A2987 1130 69 -300 170/05 RMK AO2
94908KDBQ DBQ20071108045011811/08/07 04:50:31  5-MIN KDBQ 081050Z AUTO 18004KT 10SM CLR M01/M05 A2987 1130 72 -400 180/04 RMK AO2 SLP125 T10061050
94908KDBQ DBQ20071108045510111/08/07 04:55:31  5-MIN KDBQ 081055Z AUTO 19003KT 10SM CLR M01/M05 A2987 1130 72 -400 190/03 RMK AO2
94908KDBQ DBQ20071108050010111/08/07 05:00:31  5-MIN KDBQ 081100Z AUTO 18004KT 10SM CLR M01/M05 A2987 1130 75 -500 180/04 RMK AO2
94908KDBQ DBQ20071108050510111/08/07 05:05:31  5-MIN KDBQ 081105Z AUTO 18004KT 10SM CLR M01/M05 A2987 1130 72 -400 180/04 RMK AO2
94908KDBQ DBQ20071108051010111/08/07 05:10:31  5-MIN KDBQ 081110Z AUTO 19004KT 10SM CLR M01/M05 A2987 1130 75 -500 190/04 RMK AO2
94908KDBQ DBQ20071108051510111/08/07 05:15:31  5-MIN KDBQ 081115Z AUTO 18003KT 10SM CLR M01/M05 A2987 1130 72 -400 180/03 RMK AO2
94908KDBQ DBQ20071108052010111/08/07 05:20:31  5-MIN KDBQ 081120Z AUTO 21003KT 10SM CLR M01/M05 A2987 1130 72 -400 210/03 RMK AO2
94908KDBQ DBQ20071108052510111/08/07 05:25:31  5-MIN KDBQ 081125Z AUTO 00000KT 10SM CLR M01/M05 A2987 1130 72 -400 000/00 RMK AO2
94908KDBQ DBQ20071108053010011/08/07 05:30:31  5-MIN KDBQ 081130Z AUTO 19003KT 10SM CLR 00/M05 A2987 1130 69 -300 190/03 RMK AO2
94908KDBQ DBQ20071108053510011/08/07 05:35:31  5-MIN KDBQ 081135Z AUTO 17004KT 10SM CLR 00/M05 A2986 1130 69 -300 170/04 RMK AO2
94908KDBQ DBQ20071108054010011/08/07 05:40:31  5-MIN KDBQ 081140Z AUTO 18004KT 10SM CLR 00/M05 A2987 1130 69 -300 180/04 RMK AO2
94908KDBQ DBQ20071108054510111/08/07 05:45:31  5-MIN KDBQ 081145Z AUTO 20003KT 10SM CLR M01/M05 A2987 1130 72 -400 200/03 RMK AO2
94908KDBQ DBQ20071108055014111/08/07 05:50:31  5-MIN KDBQ 081150Z AUTO 20003KT 10SM CLR 00/M05 A2987 1130 69 -300 200/03 RMK AO2 SLP124 7//// T00001050 10039 21011 56017
94908KDBQ DBQ20071108055509611/08/07 05:55:31  5-MIN KDBQ 081155Z 21003KT 10SM CLR M01/M05 A2987 1130 72 -400 210/03 RMK AO2
94908KDBQ DBQ20071108060009611/08/07 06:00:31  5-MIN KDBQ 081200Z 00000KT 10SM CLR M01/M06 A2987 1130 69 -400 000/00 RMK AO2
94908KDBQ DBQ20071108060509611/08/07 06:05:31  5-MIN KDBQ 081205Z 00000KT 10SM CLR M01/M06 A2987 1130 72 -500 000/00 RMK AO2
94908KDBQ DBQ20071108061009611/08/07 06:10:31  5-MIN KDBQ 081210Z 00000KT 10SM CLR M01/M06 A2987 1130 72 -500 000/00 RMK AO2
94908KDBQ DBQ20071108061509611/08/07 06:15:31  5-MIN KDBQ 081215Z 00000KT 10SM CLR M01/M06 A2987 1130 72 -500 000/00 RMK AO2
94908KDBQ DBQ20071108062009611/08/07 06:20:31  5-MIN KDBQ 081220Z 00000KT 10SM CLR M02/M06 A2987 1130 75 -600 000/00 RMK AO2
94908KDBQ DBQ20071108062509611/08/07 06:25:31  5-MIN KDBQ 081225Z 00000KT 10SM CLR M02/M06 A2987 1120 75 -600 000/00 RMK AO2
94908KDBQ DBQ20071108063009611/08/07 06:30:31  5-MIN KDBQ 081230Z 00000KT 10SM CLR M01/M06 A2987 1120 72 -500 000/00 RMK AO2
94908KDBQ DBQ20071108063509611/08/07 06:35:31  5-MIN KDBQ 081235Z 00000KT 10SM CLR M01/M06 A2987 1120 72 -500 000/00 RMK AO2
94908KDBQ DBQ20071108064009611/08/07 06:40:31  5-MIN KDBQ 081240Z 00000KT 10SM CLR M01/M06 A2988 1120 72 -500 000/00 RMK AO2
94908KDBQ DBQ20071108064509611/08/07 06:45:31  5-MIN KDBQ 081245Z 00000KT 10SM CLR M02/M06 A2988 1120 75 -600 000/00 RMK AO2
94908KDBQ DBQ20071108065011311/08/07 06:50:31  5-MIN KDBQ 081250Z 00000KT 10SM CLR M02/M06 A2988 1120 75 -600 000/00 RMK AO2 SLP128 T10171056
94908KDBQ DBQ20071108065509611/08/07 06:55:31  5-MIN KDBQ 081255Z 00000KT 10SM CLR M02/M06 A2987 1120 75 -600 000/00 RMK AO2
94908KDBQ DBQ20071108070009611/08/07 07:00:31  5-MIN KDBQ 081300Z 00000KT 10SM CLR M02/M06 A2987 1120 75 -600 000/00 RMK AO2
94908KDBQ DBQ20071108070509611/08/07 07:05:31  5-MIN KDBQ 081305Z 00000KT 10SM CLR M01/M06 A2988 1120 72 -500 000/00 RMK AO2
94908KDBQ DBQ20071108071009611/08/07 07:10:31  5-MIN KDBQ 081310Z 00000KT 10SM CLR M01/M06 A2988 1120 69 -400 000/00 RMK AO2
94908KDBQ DBQ20071108071509611/08/07 07:15:31  5-MIN KDBQ 081315Z 00000KT 10SM CLR M01/M06 A2988 1120 72 -500 000/00 RMK AO2
94908KDBQ DBQ20071108072009611/08/07 07:20:31  5-MIN KDBQ 081320Z 00000KT 10SM CLR M01/M06 A2988 1120 72 -500 000/00 RMK AO2
94908KDBQ DBQ20071108072509611/08/07 07:25:31  5-MIN KDBQ 081325Z 24003KT 10SM CLR M01/M05 A2988 1120 75 -500 240/03 RMK AO2
94908KDBQ DBQ20071108073009611/08/07 07:30:31  5-MIN KDBQ 081330Z 25003KT 10SM CLR M01/M05 A2988 1120 75 -500 250/03 RMK AO2
94908KDBQ DBQ20071108073509611/08/07 07:35:31  5-MIN KDBQ 081335Z 25003KT 10SM CLR M01/M04 A2988 1120 78 -500 250/03 RMK AO2
94908KDBQ DBQ20071108074009611/08/07 07:40:31  5-MIN KDBQ 081340Z 28003KT 10SM CLR M01/M04 A2988 1110 78 -400 270/03 RMK AO2
94908KDBQ DBQ20071108074509511/08/07 07:45:31  5-MIN KDBQ 081345Z 31004KT 10SM CLR 00/M04 A2988 1110 75 -400 310/04 RMK AO2
94908KDBQ DBQ20071108075011211/08/07 07:50:31  5-MIN KDBQ 081350Z 31005KT 10SM CLR 01/M03 A2988 1110 75 -300 310/05 RMK AO2 SLP130 T00061033
94908KDBQ DBQ20071108075509511/08/07 07:55:31  5-MIN KDBQ 081355Z 32005KT 10SM CLR 01/M03 A2988 1110 72 -200 320/05 RMK AO2
94908KDBQ DBQ20071108080009511/08/07 08:00:31  5-MIN KDBQ 081400Z 32005KT 10SM CLR 02/M03 A2989 1110 67 -100 320/05 RMK AO2
94908KDBQ DBQ20071108080509511/08/07 08:05:31  5-MIN KDBQ 081405Z 32004KT 10SM CLR 02/M03 A2989 1110 67 -100 320/04 RMK AO2
94908KDBQ DBQ20071108081009511/08/07 08:10:31  5-MIN KDBQ 081410Z 34005KT 10SM CLR 02/M03 A2989 1110 67 -100 340/05 RMK AO2
94908KDBQ DBQ20071108081509511/08/07 08:15:31  5-MIN KDBQ 081415Z 33003KT 10SM CLR 02/M03 A2989 1110 67 -100 330/03 RMK AO2
94908KDBQ DBQ20071108082009511/08/07 08:20:31  5-MIN KDBQ 081420Z 36003KT 10SM CLR 02/M03 A2989 1110 69 -100 360/03 RMK AO2
94908KDBQ DBQ20071108082509211/08/07 08:25:31  5-MIN KDBQ 081425Z 00000KT 10SM CLR 03/M03 A2989 1100 67 0 000/00 RMK AO2
94908KDBQ DBQ20071108083009211/08/07 08:30:31  5-MIN KDBQ 081430Z 33003KT 10SM CLR 03/M03 A2989 1100 64 0 330/03 RMK AO2
94908KDBQ DBQ20071108083509211/08/07 08:35:31  5-MIN KDBQ 081435Z 34004KT 10SM CLR 03/M03 A2990 1100 64 0 330/04 RMK AO2
94908KDBQ DBQ20071108084009211/08/07 08:40:31  5-MIN KDBQ 081440Z 33005KT 10SM CLR 03/M03 A2990 1100 61 0 330/05 RMK AO2
94908KDBQ DBQ20071108084509211/08/07 08:45:31  5-MIN KDBQ 081445Z 33004KT 10SM CLR 03/M03 A2990 1100 64 0 330/04 RMK AO2
94908KDBQ DBQ20071108085011511/08/07 08:50:31  5-MIN KDBQ 081450Z 33005KT 10SM CLR 03/M03 A2990 1100 61 0 330/05 RMK AO2 SLP132 T00331033 56004
94908KDBQ DBQ20071108085509411/08/07 08:55:31  5-MIN KDBQ 081455Z 33005KT 10SM CLR 04/M03 A2990 1100 62 100 330/05 RMK AO2
94908KDBQ DBQ20071108090009411/08/07 09:00:31  5-MIN KDBQ 081500Z 34005KT 10SM CLR 04/M03 A2990 1100 62 100 340/05 RMK AO2
94908KDBQ DBQ20071108090509411/08/07 09:05:31  5-MIN KDBQ 081505Z 33006KT 10SM CLR 04/M03 A2990 1090 59 100 330/06 RMK AO2
94908KDBQ DBQ20071108091009411/08/07 09:10:31  5-MIN KDBQ 081510Z 34004KT 10SM CLR 04/M03 A2990 1100 59 100 340/04 RMK AO2
94908KDBQ DBQ20071108091509411/08/07 09:15:31  5-MIN KDBQ 081515Z 33005KT 10SM CLR 04/M03 A2990 1090 59 100 330/05 RMK AO2
94908KDBQ DBQ20071108092009411/08/07 09:20:31  5-MIN KDBQ 081520Z 34004KT 10SM CLR 05/M03 A2990 1090 57 200 340/04 RMK AO2
94908KDBQ DBQ20071108092509411/08/07 09:25:31  5-MIN KDBQ 081525Z 33005KT 10SM CLR 05/M03 A2991 1090 57 200 330/05 RMK AO2
94908KDBQ DBQ20071108093009411/08/07 09:30:31  5-MIN KDBQ 081530Z 34004KT 10SM CLR 05/M03 A2991 1090 57 200 340/04 RMK AO2
94908KDBQ DBQ20071108093509411/08/07 09:35:31  5-MIN KDBQ 081535Z 35006KT 10SM CLR 06/M02 A2991 1090 57 300 340/06 RMK AO2
94908KDBQ DBQ20071108094009411/08/07 09:40:31  5-MIN KDBQ 081540Z 34006KT 10SM CLR 05/M03 A2991 1090 57 200 340/06 RMK AO2
94908KDBQ DBQ20071108094509411/08/07 09:45:31  5-MIN KDBQ 081545Z 35005KT 10SM CLR 06/M03 A2991 1090 55 300 350/05 RMK AO2
94908KDBQ DBQ20071108095011111/08/07 09:50:31  5-MIN KDBQ 081550Z VRB05KT 10SM CLR 06/M02 A2991 1090 55 300 VRB/05 RMK AO2 SLP135 T00611022
94908KDBQ DBQ20071108095509411/08/07 09:55:31  5-MIN KDBQ 081555Z 34007KT 10SM CLR 06/M02 A2991 1090 55 300 340/07 RMK AO2
94908KDBQ DBQ20071108100009411/08/07 10:00:31  5-MIN KDBQ 081600Z VRB05KT 10SM CLR 06/M02 A2990 1090 55 300 VRB/05 RMK AO2
94908KDBQ DBQ20071108100509411/08/07 10:05:31  5-MIN KDBQ 081605Z 34007KT 10SM CLR 06/M03 A2990 1090 53 300 340/07 RMK AO2
94908KDBQ DBQ20071108101009411/08/07 10:10:31  5-MIN KDBQ 081610Z 33007KT 10SM CLR 07/M03 A2991 1090 51 400 330/07 RMK AO2
94908KDBQ DBQ20071108101509411/08/07 10:15:31  5-MIN KDBQ 081615Z 34007KT 10SM CLR 07/M02 A2990 1090 53 400 340/07 RMK AO2
94908KDBQ DBQ20071108102009411/08/07 10:20:31  5-MIN KDBQ 081620Z 34008KT 10SM CLR 07/M02 A2990 1090 51 500 340/08 RMK AO2
94908KDBQ DBQ20071108102509411/08/07 10:25:31  5-MIN KDBQ 081625Z 34008KT 10SM CLR 07/M02 A2991 1090 53 400 330/08 RMK AO2
94908KDBQ DBQ20071108103009411/08/07 10:30:31  5-MIN KDBQ 081630Z 31007KT 10SM CLR 07/M03 A2990 1090 51 400 310/07 RMK AO2
94908KDBQ DBQ20071108103509411/08/07 10:35:31  5-MIN KDBQ 081635Z 34007KT 10SM CLR 07/M02 A2990 1090 53 400 340/07 RMK AO2
94908KDBQ DBQ20071108104009411/08/07 10:40:31  5-MIN KDBQ 081640Z 33007KT 10SM CLR 07/M03 A2991 1090 51 400 330/07 RMK AO2
94908KDBQ DBQ20071108104509411/08/07 10:45:31  5-MIN KDBQ 081645Z 34009KT 10SM CLR 07/M02 A2991 1090 51 500 340/09 RMK AO2
94908KDBQ DBQ20071108105011111/08/07 10:50:31  5-MIN KDBQ 081650Z 34010KT 10SM CLR 08/M02 A2991 1090 49 500 340/10 RMK AO2 SLP135 T00781022
94908KDBQ DBQ20071108105509411/08/07 10:55:31  5-MIN KDBQ 081655Z 34011KT 10SM CLR 07/M03 A2991 1090 49 500 340/11 RMK AO2
94908KDBQ DBQ20071108110009411/08/07 11:00:31  5-MIN KDBQ 081700Z 33008KT 10SM CLR 08/M02 A2991 1090 49 500 330/08 RMK AO2
94908KDBQ DBQ20071108110509411/08/07 11:05:31  5-MIN KDBQ 081705Z 31009KT 10SM CLR 07/M03 A2991 1090 49 500 310/09 RMK AO2
94908KDBQ DBQ20071108111009411/08/07 11:10:31  5-MIN KDBQ 081710Z 33010KT 10SM CLR 07/M03 A2990 1090 49 500 320/10 RMK AO2
94908KDBQ DBQ20071108111509411/08/07 11:15:31  5-MIN KDBQ 081715Z 31008KT 10SM CLR 07/M03 A2991 1090 49 500 310/08 RMK AO2
94908KDBQ DBQ20071108112009411/08/07 11:20:31  5-MIN KDBQ 081720Z 31010KT 10SM CLR 08/M02 A2991 1090 49 500 310/10 RMK AO2
94908KDBQ DBQ20071108112509411/08/07 11:25:31  5-MIN KDBQ 081725Z 30010KT 10SM CLR 08/M02 A2990 1090 49 500 300/10 RMK AO2
94908KDBQ DBQ20071108113009411/08/07 11:30:31  5-MIN KDBQ 081730Z 30010KT 10SM CLR 07/M02 A2990 1100 51 500 300/10 RMK AO2
94908KDBQ DBQ20071108113509411/08/07 11:35:31  5-MIN KDBQ 081735Z 30011KT 10SM CLR 07/M03 A2990 1100 49 500 300/11 RMK AO2
94908KDBQ DBQ20071108114009411/08/07 11:40:31  5-MIN KDBQ 081740Z 30011KT 10SM CLR 07/M03 A2990 1090 49 500 300/11 RMK AO2
94908KDBQ DBQ20071108114509411/08/07 11:45:31  5-MIN KDBQ 081745Z 31010KT 10SM CLR 08/M03 A2990 1090 47 500 310/10 RMK AO2
94908KDBQ DBQ20071108115012911/08/07 11:50:31  5-MIN KDBQ 081750Z 32010KT 10SM CLR 08/M03 A2991 1090 47 500 320/10 RMK AO2 SLP133 T00781028 10078 21022 53009
94908KDBQ DBQ20071108115509411/08/07 11:55:31  5-MIN KDBQ 081755Z 32012KT 10SM CLR 07/M03 A2990 1090 49 500 320/12 RMK AO2
94908KDBQ DBQ20071108120009411/08/07 12:00:31  5-MIN KDBQ 081800Z 33008KT 10SM CLR 07/M03 A2991 1090 49 500 330/08 RMK AO2
94908KDBQ DBQ20071108120509411/08/07 12:05:31  5-MIN KDBQ 081805Z 33009KT 10SM CLR 07/M02 A2990 1100 51 500 330/09 RMK AO2
94908KDBQ DBQ20071108121009411/08/07 12:10:31  5-MIN KDBQ 081810Z 31008KT 10SM CLR 07/M03 A2990 1100 49 500 310/08 RMK AO2
94908KDBQ DBQ20071108121509411/08/07 12:15:31  5-MIN KDBQ 081815Z 30009KT 10SM CLR 07/M02 A2990 1100 51 500 300/09 RMK AO2
94908KDBQ DBQ20071108122009411/08/07 12:20:31  5-MIN KDBQ 081820Z 31009KT 10SM CLR 07/M03 A2990 1100 49 500 310/09 RMK AO2
94908KDBQ DBQ20071108122509411/08/07 12:25:31  5-MIN KDBQ 081825Z 30010KT 10SM CLR 07/M03 A2990 1100 49 500 300/10 RMK AO2
94908KDBQ DBQ20071108123009411/08/07 12:30:31  5-MIN KDBQ 081830Z 32008KT 10SM CLR 07/M03 A2990 1100 49 500 310/08 RMK AO2
94908KDBQ DBQ20071108123509411/08/07 12:35:31  5-MIN KDBQ 081835Z 30009KT 10SM CLR 07/M03 A2990 1100 49 500 300/09 RMK AO2
94908KDBQ DBQ20071108124009411/08/07 12:40:31  5-MIN KDBQ 081840Z 29008KT 10SM CLR 07/M03 A2990 1100 49 500 290/08 RMK AO2
94908KDBQ DBQ20071108124509411/08/07 12:45:31  5-MIN KDBQ 081845Z 30010KT 10SM CLR 07/M03 A2990 1100 51 400 300/10 RMK AO2
94908KDBQ DBQ20071108125011111/08/07 12:50:31  5-MIN KDBQ 081850Z 30011KT 10SM CLR 07/M03 A2990 1100 51 400 300/11 RMK AO2 SLP132 T00671028
94908KDBQ DBQ20071108125509411/08/07 12:55:31  5-MIN KDBQ 081855Z 32010KT 10SM CLR 07/M03 A2990 1100 51 400 320/10 RMK AO2
94908KDBQ DBQ20071108130009411/08/07 13:00:31  5-MIN KDBQ 081900Z 31009KT 10SM CLR 07/M03 A2990 1100 51 400 310/09 RMK AO2
94908KDBQ DBQ20071108130509411/08/07 13:05:31  5-MIN KDBQ 081905Z 33009KT 10SM CLR 07/M02 A2990 1100 51 500 320/09 RMK AO2
94908KDBQ DBQ20071108131009411/08/07 13:10:31  5-MIN KDBQ 081910Z 30011KT 10SM CLR 07/M02 A2990 1100 51 500 300/11 RMK AO2
94908KDBQ DBQ20071108131509411/08/07 13:15:31  5-MIN KDBQ 081915Z 29011KT 10SM CLR 07/M02 A2990 1100 51 500 290/11 RMK AO2
94908KDBQ DBQ20071108132009711/08/07 13:20:31  5-MIN KDBQ 081920Z 30013KT 10SM FEW120 07/M03 A2990 1100 49 500 300/13 RMK AO2
94908KDBQ DBQ20071108132509711/08/07 13:25:31  5-MIN KDBQ 081925Z 31012KT 10SM FEW120 08/M02 A2989 1100 49 500 310/12 RMK AO2
94908KDBQ DBQ20071108133009711/08/07 13:30:31  5-MIN KDBQ 081930Z 29011KT 10SM FEW120 08/M02 A2990 1100 49 500 290/11 RMK AO2
94908KDBQ DBQ20071108133509711/08/07 13:35:31  5-MIN KDBQ 081935Z 32012KT 10SM FEW120 08/M03 A2990 1100 47 500 320/12 RMK AO2
94908KDBQ DBQ20071108134009711/08/07 13:40:31  5-MIN KDBQ 081940Z 31011KT 10SM FEW120 07/M03 A2990 1100 49 500 310/11 RMK AO2
94908KDBQ DBQ20071108134509711/08/07 13:45:31  5-MIN KDBQ 081945Z 31012KT 10SM FEW120 08/M03 A2990 1100 47 500 310/12 RMK AO2
94908KDBQ DBQ20071108135011111/08/07 13:50:31  5-MIN KDBQ 081950Z 31012KT 10SM CLR 08/M03 A2990 1100 45 600 310/12 RMK AO2 SLP131 T00831028
94908KDBQ DBQ20071108135509411/08/07 13:55:31  5-MIN KDBQ 081955Z 32011KT 10SM CLR 08/M03 A2990 1100 47 500 320/11 RMK AO2
94908KDBQ DBQ20071108140009711/08/07 14:00:31  5-MIN KDBQ 082000Z 30014KT 10SM FEW120 07/M03 A2990 1100 49 500 300/14 RMK AO2
94908KDBQ DBQ20071108140509711/08/07 14:05:31  5-MIN KDBQ 082005Z 30013KT 10SM FEW120 07/M03 A2990 1100 49 500 300/13 RMK AO2
94908KDBQ DBQ20071108141009711/08/07 14:10:31  5-MIN KDBQ 082010Z 30013KT 10SM FEW120 07/M03 A2990 1090 47 500 300/13 RMK AO2
94908KDBQ DBQ20071108141509711/08/07 14:15:31  5-MIN KDBQ 082015Z 29009KT 10SM FEW120 07/M03 A2990 1100 49 500 290/09 RMK AO2
94908KDBQ DBQ20071108142009711/08/07 14:20:31  5-MIN KDBQ 082020Z 30007KT 10SM FEW120 07/M03 A2990 1100 49 500 300/07 RMK AO2
94908KDBQ DBQ20071108142509711/08/07 14:25:31  5-MIN KDBQ 082025Z 32008KT 10SM FEW120 07/M02 A2990 1100 51 500 320/08 RMK AO2
94908KDBQ DBQ20071108143009411/08/07 14:30:31  5-MIN KDBQ 082030Z 30013KT 10SM CLR 07/M03 A2990 1100 49 500 290/13 RMK AO2
94908KDBQ DBQ20071108143509411/08/07 14:35:31  5-MIN KDBQ 082035Z 31010KT 10SM CLR 07/M03 A2990 1100 51 400 310/10 RMK AO2
94908KDBQ DBQ20071108144009411/08/07 14:40:31  5-MIN KDBQ 082040Z 32011KT 10SM CLR 07/M03 A2990 1100 51 400 320/11 RMK AO2
94908KDBQ DBQ20071108144509411/08/07 14:45:31  5-MIN KDBQ 082045Z 32010KT 10SM CLR 07/M03 A2990 1100 49 500 320/10 RMK AO2
94908KDBQ DBQ20071108145011711/08/07 14:50:31  5-MIN KDBQ 082050Z 32011KT 10SM CLR 07/M03 A2990 1100 49 500 320/11 RMK AO2 SLP134 T00721028 50003
94908KDBQ DBQ20071108145510711/08/07 14:55:31  5-MIN KDBQ 082055Z AUTO 30008KT 10SM FEW110 07/M02 A2990 1090 51 500 300/08 RMK AO2 TSNO
94908KDBQ DBQ20071108150010711/08/07 15:00:31  5-MIN KDBQ 082100Z AUTO 31007KT 10SM FEW110 07/M03 A2990 1100 49 500 310/07 RMK AO2 TSNO
94908KDBQ DBQ20071108150510711/08/07 15:05:31  5-MIN KDBQ 082105Z AUTO 33010KT 10SM SCT110 07/M03 A2990 1100 49 500 330/10 RMK AO2 TSNO
94908KDBQ DBQ20071108151010711/08/07 15:10:31  5-MIN KDBQ 082110Z AUTO 33009KT 10SM FEW110 06/M03 A2991 1090 53 300 320/09 RMK AO2 TSNO
94908KDBQ DBQ20071108151510711/08/07 15:15:31  5-MIN KDBQ 082115Z AUTO 32007KT 10SM FEW110 07/M03 A2990 1090 51 400 320/07 RMK AO2 TSNO
94908KDBQ DBQ20071108152010711/08/07 15:20:31  5-MIN KDBQ 082120Z AUTO 30008KT 10SM FEW110 07/M03 A2991 1090 49 500 300/08 RMK AO2 TSNO
94908KDBQ DBQ20071108152510711/08/07 15:25:31  5-MIN KDBQ 082125Z AUTO 30009KT 10SM FEW110 07/M03 A2991 1090 49 500 300/09 RMK AO2 TSNO
94908KDBQ DBQ20071108153010711/08/07 15:30:31  5-MIN KDBQ 082130Z AUTO 30008KT 10SM FEW110 07/M03 A2991 1090 51 400 300/08 RMK AO2 TSNO
94908KDBQ DBQ20071108153509711/08/07 15:35:31  5-MIN KDBQ 082135Z 32008KT 10SM FEW110 07/M03 A2991 1090 51 400 310/08 RMK AO2
94908KDBQ DBQ20071108154009711/08/07 15:40:31  5-MIN KDBQ 082140Z 33009KT 10SM FEW110 07/M03 A2991 1080 51 400 330/09 RMK AO2
94908KDBQ DBQ20071108154509711/08/07 15:45:31  5-MIN KDBQ 082145Z 34008KT 10SM FEW120 06/M03 A2992 1080 53 300 330/08 RMK AO2
94908KDBQ DBQ20071108155011411/08/07 15:50:31  5-MIN KDBQ 082150Z 33007KT 10SM FEW120 06/M03 A2992 1080 53 300 330/07 RMK AO2 SLP139 T00611028
94908KDBQ DBQ20071108155509711/08/07 15:55:31  5-MIN KDBQ 082155Z 33007KT 10SM FEW120 06/M03 A2992 1080 55 200 330/07 RMK AO2
94908KDBQ DBQ20071108160009711/08/07 16:00:31  5-MIN KDBQ 082200Z 32008KT 10SM FEW120 06/M03 A2992 1080 55 200 320/08 RMK AO2
94908KDBQ DBQ20071108160509711/08/07 16:05:31  5-MIN KDBQ 082205Z 33007KT 10SM FEW120 06/M03 A2992 1070 55 200 330/07 RMK AO2
94908KDBQ DBQ20071108161009411/08/07 16:10:31  5-MIN KDBQ 082210Z 33009KT 10SM CLR 06/M03 A2992 1070 55 200 330/09 RMK AO2
94908KDBQ DBQ20071108161509411/08/07 16:15:31  5-MIN KDBQ 082215Z 32008KT 10SM CLR 05/M03 A2992 1080 57 200 320/08 RMK AO2
94908KDBQ DBQ20071108162009411/08/07 16:20:31  5-MIN KDBQ 082220Z 32007KT 10SM CLR 05/M03 A2993 1070 57 200 320/07 RMK AO2
94908KDBQ DBQ20071108162509411/08/07 16:25:31  5-MIN KDBQ 082225Z 33006KT 10SM CLR 04/M03 A2993 1070 59 100 330/06 RMK AO2
94908KDBQ DBQ20071108163009211/08/07 16:30:31  5-MIN KDBQ 082230Z 34006KT 10SM CLR 04/M03 A2993 1070 62 0 340/06 RMK AO2
94908KDBQ DBQ20071108163509211/08/07 16:35:31  5-MIN KDBQ 082235Z 33006KT 10SM CLR 04/M03 A2993 1070 62 0 330/06 RMK AO2
94908KDBQ DBQ20071108164009211/08/07 16:40:31  5-MIN KDBQ 082240Z 33005KT 10SM CLR 03/M03 A2993 1070 64 0 330/05 RMK AO2
94908KDBQ DBQ20071108164509211/08/07 16:45:31  5-MIN KDBQ 082245Z 34005KT 10SM CLR 03/M03 A2993 1070 64 0 340/05 RMK AO2
94908KDBQ DBQ20071108165011211/08/07 16:50:31  5-MIN KDBQ 082250Z 33004KT 10SM CLR 03/M03 A2994 1060 67 -100 330/04 RMK AO2 SLP148 T00281028
94908KDBQ DBQ20071108165509511/08/07 16:55:31  5-MIN KDBQ 082255Z 33004KT 10SM CLR 03/M03 A2994 1060 64 -100 330/04 RMK AO2
94908KDBQ DBQ20071108170009511/08/07 17:00:31  5-MIN KDBQ 082300Z 32005KT 10SM CLR 03/M03 A2994 1060 64 -100 320/05 RMK AO2
94908KDBQ DBQ20071108170509511/08/07 17:05:31  5-MIN KDBQ 082305Z 33005KT 10SM CLR 03/M03 A2994 1060 64 -100 330/05 RMK AO2
94908KDBQ DBQ20071108171009511/08/07 17:10:31  5-MIN KDBQ 082310Z 32005KT 10SM CLR 02/M03 A2994 1060 67 -100 320/05 RMK AO2
94908KDBQ DBQ20071108171509811/08/07 17:15:31  5-MIN KDBQ 082315Z 33006KT 10SM FEW110 02/M03 A2994 1060 67 -100 330/06 RMK AO2
94908KDBQ DBQ20071108172009811/08/07 17:20:31  5-MIN KDBQ 082320Z 32007KT 10SM FEW110 02/M03 A2994 1060 67 -100 320/07 RMK AO2
94908KDBQ DBQ20071108172509811/08/07 17:25:31  5-MIN KDBQ 082325Z 32009KT 10SM FEW110 03/M03 A2994 1060 64 -100 320/09 RMK AO2
94908KDBQ DBQ20071108173009511/08/07 17:30:31  5-MIN KDBQ 082330Z 32007KT 10SM FEW120 03/M03 A2995 1060 64 0 320/07 RMK AO2
94908KDBQ DBQ20071108173509511/08/07 17:35:31  5-MIN KDBQ 082335Z 32008KT 10SM SCT120 03/M03 A2995 1060 64 0 320/08 RMK AO2
94908KDBQ DBQ20071108174009511/08/07 17:40:31  5-MIN KDBQ 082340Z 33008KT 10SM SCT120 03/M03 A2995 1050 64 0 330/08 RMK AO2
94908KDBQ DBQ20071108174509511/08/07 17:45:31  5-MIN KDBQ 082345Z 33008KT 10SM SCT120 03/M03 A2995 1050 64 0 320/08 RMK AO2
94908KDBQ DBQ20071108175013011/08/07 17:50:31  5-MIN KDBQ 082350Z 33010KT 10SM FEW120 03/M03 A2995 1060 64 0 330/10 RMK AO2 SLP151 T00331028 10083 20022 55001
94908KDBQ DBQ20071108175509511/08/07 17:55:31  5-MIN KDBQ 082355Z 32007KT 10SM FEW120 04/M03 A2994 1060 62 0 320/07 RMK AO2
94908KDBQ DBQ20071108180009511/08/07 18:00:31  5-MIN KDBQ 090000Z 32009KT 10SM FEW120 04/M03 A2995 1050 62 0 320/09 RMK AO2
94908KDBQ DBQ20071108180509711/08/07 18:05:31  5-MIN KDBQ 090005Z 32009KT 10SM FEW120 04/M03 A2995 1050 59 100 320/09 RMK AO2
94908KDBQ DBQ20071108181009511/08/07 18:10:31  5-MIN KDBQ 090010Z 32007KT 10SM FEW120 04/M03 A2995 1050 62 0 320/07 RMK AO2
94908KDBQ DBQ20071108181509711/08/07 18:15:31  5-MIN KDBQ 090015Z 32009KT 10SM SCT120 04/M03 A2995 1050 59 100 320/09 RMK AO2
94908KDBQ DBQ20071108182009511/08/07 18:20:31  5-MIN KDBQ 090020Z 33009KT 10SM BKN120 04/M03 A2995 1050 62 0 330/09 RMK AO2
94908KDBQ DBQ20071108182509511/08/07 18:25:31  5-MIN KDBQ 090025Z 32008KT 10SM SCT120 04/M03 A2995 1050 62 0 320/08 RMK AO2
94908KDBQ DBQ20071108183009511/08/07 18:30:31  5-MIN KDBQ 090030Z 32007KT 10SM SCT120 04/M03 A2995 1050 62 0 320/07 RMK AO2
94908KDBQ DBQ20071108183509511/08/07 18:35:31  5-MIN KDBQ 090035Z 32005KT 10SM SCT120 04/M03 A2995 1050 62 0 320/05 RMK AO2
94908KDBQ DBQ20071108184009511/08/07 18:40:31  5-MIN KDBQ 090040Z 32007KT 10SM SCT120 04/M03 A2996 1040 62 0 320/07 RMK AO2
94908KDBQ DBQ20071108184509511/08/07 18:45:31  5-MIN KDBQ 090045Z 32005KT 10SM SCT120 03/M03 A2996 1040 64 0 320/05 RMK AO2
94908KDBQ DBQ20071108185011211/08/07 18:50:31  5-MIN KDBQ 090050Z 32006KT 10SM SCT120 03/M03 A2996 1040 64 0 320/06 RMK AO2 SLP156 T00331028
94908KDBQ DBQ20071108185509511/08/07 18:55:31  5-MIN KDBQ 090055Z 32005KT 10SM FEW120 03/M03 A2996 1040 64 0 320/05 RMK AO2
94908KDBQ DBQ20071108190009511/08/07 19:00:31  5-MIN KDBQ 090100Z 32007KT 10SM FEW120 03/M03 A2997 1030 64 0 310/07 RMK AO2
94908KDBQ DBQ20071108190509511/08/07 19:05:31  5-MIN KDBQ 090105Z 31006KT 10SM FEW120 04/M03 A2996 1040 62 0 310/06 RMK AO2
94908KDBQ DBQ20071108191009511/08/07 19:10:31  5-MIN KDBQ 090110Z 31007KT 10SM FEW120 04/M03 A2997 1030 62 0 310/07 RMK AO2
94908KDBQ DBQ20071108191509511/08/07 19:15:31  5-MIN KDBQ 090115Z 32007KT 10SM FEW085 04/M03 A2996 1040 62 0 320/07 RMK AO2
94908KDBQ DBQ20071108192009511/08/07 19:20:31  5-MIN KDBQ 090120Z 32006KT 10SM SCT085 03/M03 A2996 1040 64 0 320/06 RMK AO2
94908KDBQ DBQ20071108192509511/08/07 19:25:31  5-MIN KDBQ 090125Z 32007KT 10SM FEW085 03/M03 A2996 1040 64 0 320/07 RMK AO2
94908KDBQ DBQ20071108193009511/08/07 19:30:31  5-MIN KDBQ 090130Z 33006KT 10SM FEW090 03/M03 A2996 1040 64 0 330/06 RMK AO2
94908KDBQ DBQ20071108193509511/08/07 19:35:31  5-MIN KDBQ 090135Z 33006KT 10SM FEW090 03/M03 A2996 1040 64 0 330/06 RMK AO2
94908KDBQ DBQ20071108194009511/08/07 19:40:31  5-MIN KDBQ 090140Z 33006KT 10SM FEW085 03/M03 A2997 1040 64 0 330/06 RMK AO2
94908KDBQ DBQ20071108194509511/08/07 19:45:31  5-MIN KDBQ 090145Z 34006KT 10SM SCT090 03/M03 A2996 1040 64 0 340/06 RMK AO2
94908KDBQ DBQ20071108195011711/08/07 19:50:31  5-MIN KDBQ 090150Z AUTO 36007KT 10SM SCT095 03/M03 A2995 1050 64 0 360/07 RMK AO2 SLP153 T00331028
94908KDBQ DBQ20071108195510011/08/07 19:55:31  5-MIN KDBQ 090155Z AUTO 34007KT 10SM BKN095 03/M02 A2996 1040 67 0 340/07 RMK AO2
94908KDBQ DBQ20071108200010011/08/07 20:00:31  5-MIN KDBQ 090200Z AUTO 34008KT 10SM BKN090 03/M03 A2996 1040 64 0 340/08 RMK AO2
94908KDBQ DBQ20071108200510711/08/07 20:05:31  5-MIN KDBQ 090205Z AUTO 34008KT 10SM BKN090 BKN110 03/M02 A2997 1030 67 0 330/08 RMK AO2
94908KDBQ DBQ20071108201010711/08/07 20:10:31  5-MIN KDBQ 090210Z AUTO 34007KT 10SM BKN090 OVC110 03/M03 A2996 1040 64 0 340/07 RMK AO2
94908KDBQ DBQ20071108201510711/08/07 20:15:31  5-MIN KDBQ 090215Z AUTO 34008KT 10SM BKN090 OVC110 03/M02 A2997 1030 67 0 340/08 RMK AO2
94908KDBQ DBQ20071108202010711/08/07 20:20:31  5-MIN KDBQ 090220Z AUTO 33008KT 10SM BKN090 OVC110 03/M03 A2997 1030 64 0 330/08 RMK AO2
94908KDBQ DBQ20071108202511011/08/07 20:25:31  5-MIN KDBQ 090225Z AUTO 33009KT 10SM SCT085 OVC110 03/M03 A2998 1020 64 -100 330/09 RMK AO2
94908KDBQ DBQ20071108203011011/08/07 20:30:31  5-MIN KDBQ 090230Z AUTO 32008KT 10SM FEW085 OVC110 03/M02 A2998 1020 67 -100 320/08 RMK AO2
94908KDBQ DBQ20071108203511011/08/07 20:35:31  5-MIN KDBQ 090235Z AUTO 32009KT 10SM FEW085 OVC110 03/M03 A2998 1020 64 -100 320/09 RMK AO2
94908KDBQ DBQ20071108204011011/08/07 20:40:31  5-MIN KDBQ 090240Z AUTO 32007KT 10SM FEW085 OVC110 03/M03 A2998 1020 64 -100 320/07 RMK AO2
94908KDBQ DBQ20071108204510311/08/07 20:45:31  5-MIN KDBQ 090245Z AUTO 33008KT 10SM OVC110 03/M03 A2998 1020 64 -100 330/08 RMK AO2
94908KDBQ DBQ20071108205012611/08/07 20:50:31  5-MIN KDBQ 090250Z AUTO 33008KT 10SM OVC110 03/M03 A2999 1020 64 -100 320/08 RMK AO2 SLP163 T00331028 51013
94908KDBQ DBQ20071108205510711/08/07 20:55:31  5-MIN KDBQ 090255Z AUTO 33007KT 10SM SCT080 OVC110 04/M03 A2999 1020 62 0 330/07 RMK AO2
94908KDBQ DBQ20071108210011711/08/07 21:00:31  5-MIN KDBQ 090300Z AUTO 32009KT 10SM BKN080 BKN090 OVC120 03/M02 A2999 1020 67 -100 320/09 RMK AO2
94908KDBQ DBQ20071108210511711/08/07 21:05:31  5-MIN KDBQ 090305Z AUTO 33009KT 10SM BKN080 BKN090 OVC110 03/M03 A2999 1020 64 -100 330/09 RMK AO2
94908KDBQ DBQ20071108211011711/08/07 21:10:31  5-MIN KDBQ 090310Z AUTO 34010KT 10SM BKN080 BKN090 BKN110 03/M03 A2999 1010 64 -100 340/10 RMK AO2
94908KDBQ DBQ20071108211510311/08/07 21:15:31  5-MIN KDBQ 090315Z AUTO 34009KT 10SM BKN080 03/M03 A2999 1010 64 -100 340/09 RMK AO2
94908KDBQ DBQ20071108212011011/08/07 21:20:31  5-MIN KDBQ 090320Z AUTO 34007KT 10SM BKN075 OVC090 03/M03 A2999 1010 64 -100 340/07 RMK AO2
94908KDBQ DBQ20071108212511011/08/07 21:25:31  5-MIN KDBQ 090325Z AUTO 34008KT 10SM BKN075 OVC100 03/M03 A2999 1010 64 -100 330/08 RMK AO2
94908KDBQ DBQ20071108213011011/08/07 21:30:31  5-MIN KDBQ 090330Z AUTO 34007KT 10SM BKN085 BKN110 03/M02 A2999 1010 67 -100 340/07 RMK AO2
94908KDBQ DBQ20071108213511011/08/07 21:35:31  5-MIN KDBQ 090335Z AUTO 34006KT 10SM FEW075 BKN100 03/M02 A2999 1020 69 -100 340/06 RMK AO2
94908KDBQ DBQ20071108214011011/08/07 21:40:31  5-MIN KDBQ 090340Z AUTO 34007KT 10SM FEW075 BKN100 03/M03 A2999 1010 67 -100 340/07 RMK AO2
94908KDBQ DBQ20071108214511011/08/07 21:45:31  5-MIN KDBQ 090345Z AUTO 34007KT 10SM FEW080 BKN100 03/M03 A2999 1010 67 -100 340/07 RMK AO2
94908KDBQ DBQ20071108215011911/08/07 21:50:31  5-MIN KDBQ 090350Z AUTO 34009KT 9SM BKN100 02/M03 A2999 1010 69 -200 340/09 RMK AO2 SLP166 T00221028
94908KDBQ DBQ20071108215510211/08/07 21:55:31  5-MIN KDBQ 090355Z AUTO 34008KT 9SM BKN100 02/M03 A3000 1010 69 -200 340/08 RMK AO2
94908KDBQ DBQ20071108220010211/08/07 22:00:31  5-MIN KDBQ 090400Z AUTO 33008KT 9SM BKN095 03/M03 A3000 1000 67 -100 330/08 RMK AO2
94908KDBQ DBQ20071108220510211/08/07 22:05:31  5-MIN KDBQ 090405Z AUTO 33008KT 9SM BKN090 03/M02 A3000 1010 69 -100 330/08 RMK AO2
94908KDBQ DBQ20071108221010211/08/07 22:10:31  5-MIN KDBQ 090410Z AUTO 34008KT 9SM BKN090 03/M02 A2999 1010 69 -100 340/08 RMK AO2
94908KDBQ DBQ20071108221510211/08/07 22:15:31  5-MIN KDBQ 090415Z AUTO 34008KT 9SM BKN085 03/M02 A3000 1010 69 -100 340/08 RMK AO2
94908KDBQ DBQ20071108222010211/08/07 22:20:31  5-MIN KDBQ 090420Z AUTO 33008KT 9SM BKN090 03/M03 A3000 1000 67 -100 330/08 RMK AO2
94908KDBQ DBQ20071108222510211/08/07 22:25:31  5-MIN KDBQ 090425Z AUTO 34007KT 9SM BKN085 03/M03 A3000 1010 67 -100 340/07 RMK AO2
94908KDBQ DBQ20071108223010211/08/07 22:30:31  5-MIN KDBQ 090430Z AUTO 34006KT 9SM BKN085 03/M03 A2999 1010 67 -100 340/06 RMK AO2
94908KDBQ DBQ20071108223510211/08/07 22:35:31  5-MIN KDBQ 090435Z AUTO 34006KT 9SM BKN080 03/M02 A3000 1010 69 -100 340/06 RMK AO2
94908KDBQ DBQ20071108224010211/08/07 22:40:31  5-MIN KDBQ 090440Z AUTO 34006KT 9SM BKN080 03/M02 A3000 1010 69 -100 340/06 RMK AO2
94908KDBQ DBQ20071108224510211/08/07 22:45:31  5-MIN KDBQ 090445Z AUTO 34006KT 9SM BKN080 03/M02 A3000 1010 69 -100 330/06 RMK AO2
94908KDBQ DBQ20071108225011911/08/07 22:50:31  5-MIN KDBQ 090450Z AUTO 34006KT 9SM OVC080 03/M02 A2999 1010 69 -100 340/06 RMK AO2 SLP164 T00281022
94908KDBQ DBQ20071108225510211/08/07 22:55:31  5-MIN KDBQ 090455Z AUTO 33007KT 9SM OVC080 03/M02 A3000 1010 69 -100 330/07 RMK AO2
94908KDBQ DBQ20071108230010211/08/07 23:00:31  5-MIN KDBQ 090500Z AUTO 33006KT 9SM OVC080 03/M03 A3000 1010 67 -100 330/06 RMK AO2
94908KDBQ DBQ20071108230510211/08/07 23:05:31  5-MIN KDBQ 090505Z AUTO 33006KT 9SM OVC080 02/M03 A3000 1010 69 -200 330/06 RMK AO2
94908KDBQ DBQ20071108231010211/08/07 23:10:31  5-MIN KDBQ 090510Z AUTO 34006KT 9SM OVC085 02/M03 A2999 1010 69 -200 340/06 RMK AO2
94908KDBQ DBQ20071108231510911/08/07 23:15:31  5-MIN KDBQ 090515Z AUTO 34006KT 9SM FEW060 BKN085 02/M03 A3000 1010 69 -200 340/06 RMK AO2
94908KDBQ DBQ20071108232010911/08/07 23:20:31  5-MIN KDBQ 090520Z AUTO 33006KT 9SM FEW060 BKN085 02/M03 A3000 1010 72 -300 330/06 RMK AO2
94908KDBQ DBQ20071108232510211/08/07 23:25:31  5-MIN KDBQ 090525Z AUTO 34006KT 9SM BKN085 02/M03 A3000 1010 72 -300 340/06 RMK AO2
94908KDBQ DBQ20071108233010211/08/07 23:30:31  5-MIN KDBQ 090530Z AUTO 34005KT 9SM BKN085 01/M03 A3000 1010 75 -400 330/05 RMK AO2
94908KDBQ DBQ20071108233510911/08/07 23:35:31  5-MIN KDBQ 090535Z AUTO 33006KT 9SM SCT085 BKN110 01/M03 A3000 1000 75 -400 330/06 RMK AO2
94908KDBQ DBQ20071108234010911/08/07 23:40:31  5-MIN KDBQ 090540Z AUTO 34006KT 9SM SCT090 BKN110 01/M03 A3000 1010 75 -300 340/06 RMK AO2
94908KDBQ DBQ20071108234510911/08/07 23:45:31  5-MIN KDBQ 090545Z AUTO 34006KT 9SM FEW085 BKN110 01/M03 A2999 1010 75 -300 340/06 RMK AO2
94908KDBQ DBQ20071108235015411/08/07 23:50:31  5-MIN KDBQ 090550Z AUTO 35006KT 9SM FEW085 SCT110 01/M03 A2999 1010 75 -300 350/06 RMK AO2 SLP164 T00111028 10044 20011 400831022 53014
94908KDBQ DBQ20071108235510911/08/07 23:55:31  5-MIN KDBQ 090555Z AUTO 36004KT 9SM FEW085 SCT110 01/M03 A2999 1010 75 -400 360/04 RMK AO2
94908KDBQ DBQ20071109000010211/09/07 00:00:38  5-MIN KDBQ 090600Z AUTO 01005KT 9SM FEW110 01/M03 A3000 1010 75 -400 010/05 RMK AO2
94908KDBQ DBQ20071109000510211/09/07 00:05:31  5-MIN KDBQ 090605Z AUTO 01003KT 9SM FEW110 01/M03 A2999 1010 75 -400 010/03 RMK AO2
94908KDBQ DBQ20071109001009911/09/07 00:10:31  5-MIN KDBQ 090610Z AUTO 01003KT 9SM CLR 01/M03 A2999 1010 72 -300 010/03 RMK AO2
94908KDBQ DBQ20071109001509911/09/07 00:15:31  5-MIN KDBQ 090615Z AUTO 02004KT 9SM CLR 01/M03 A2999 1010 75 -400 020/04 RMK AO2
94908KDBQ DBQ20071109002009911/09/07 00:20:31  5-MIN KDBQ 090620Z AUTO 02003KT 9SM CLR 01/M03 A2999 1010 75 -400 020/03 RMK AO2
94908KDBQ DBQ20071109002509911/09/07 00:25:31  5-MIN KDBQ 090625Z AUTO 01003KT 9SM CLR 01/M03 A3000 1010 75 -400 010/03 RMK AO2
94908KDBQ DBQ20071109003009911/09/07 00:30:31  5-MIN KDBQ 090630Z AUTO 02003KT 9SM CLR 01/M03 A3000 1010 75 -400 020/03 RMK AO2
94908KDBQ DBQ20071109003509911/09/07 00:35:31  5-MIN KDBQ 090635Z AUTO 01003KT 9SM CLR 01/M03 A3000 1010 72 -300 010/03 RMK AO2
94908KDBQ DBQ20071109004009911/09/07 00:40:31  5-MIN KDBQ 090640Z AUTO 00000KT 9SM CLR 01/M03 A3000 1010 72 -300 000/00 RMK AO2
94908KDBQ DBQ20071109004509911/09/07 00:45:31  5-MIN KDBQ 090645Z AUTO 36003KT 9SM CLR 01/M03 A3000 1010 72 -400 360/03 RMK AO2
94908KDBQ DBQ20071109005011611/09/07 00:50:31  5-MIN KDBQ 090650Z AUTO 36003KT 9SM CLR 01/M03 A3000 1000 72 -400 360/03 RMK AO2 SLP168 T00111033
94908KDBQ DBQ20071109005509911/09/07 00:55:31  5-MIN KDBQ 090655Z AUTO 36003KT 9SM CLR 01/M03 A3000 1000 72 -400 360/03 RMK AO2
94908KDBQ DBQ20071109010009911/09/07 01:00:31  5-MIN KDBQ 090700Z AUTO 01003KT 9SM CLR 01/M03 A3000 1010 72 -400 010/03 RMK AO2
94908KDBQ DBQ20071109010509911/09/07 01:05:31  5-MIN KDBQ 090705Z AUTO 36003KT 9SM CLR 01/M03 A3000 1000 75 -400 360/03 RMK AO2
94908KDBQ DBQ20071109011009911/09/07 01:10:31  5-MIN KDBQ 090710Z AUTO 35004KT 8SM CLR 01/M03 A3000 1000 75 -400 350/04 RMK AO2
94908KDBQ DBQ20071109011509911/09/07 01:15:31  5-MIN KDBQ 090715Z AUTO 34005KT 8SM CLR 00/M04 A3000 1000 75 -500 340/05 RMK AO2
94908KDBQ DBQ20071109012010011/09/07 01:20:31  5-MIN KDBQ 090720Z AUTO 34005KT 8SM CLR M01/M04 A3001 1000 78 -600 330/05 RMK AO2
94908KDBQ DBQ20071109012510011/09/07 01:25:31  5-MIN KDBQ 090725Z AUTO 34005KT 8SM CLR M01/M04 A3000 1000 78 -600 340/05 RMK AO2
94908KDBQ DBQ20071109013010011/09/07 01:30:31  5-MIN KDBQ 090730Z AUTO 33005KT 8SM CLR M01/M04 A3000 1000 78 -600 330/05 RMK AO2
94908KDBQ DBQ20071109013510011/09/07 01:35:31  5-MIN KDBQ 090735Z AUTO 33004KT 8SM CLR M01/M04 A3000 1000 78 -600 330/04 RMK AO2
94908KDBQ DBQ20071109014010011/09/07 01:40:31  5-MIN KDBQ 090740Z AUTO 33005KT 8SM CLR M01/M04 A3000 1000 78 -600 330/05 RMK AO2
94908KDBQ DBQ20071109014510011/09/07 01:45:31  5-MIN KDBQ 090745Z AUTO 33004KT 8SM CLR M01/M04 A3001 1000 78 -600 330/04 RMK AO2
94908KDBQ DBQ20071109015011711/09/07 01:50:31  5-MIN KDBQ 090750Z AUTO 33004KT 8SM CLR M01/M04 A3001 1000 78 -600 330/04 RMK AO2 SLP170 T10061039
94908KDBQ DBQ20071109015509911/09/07 01:55:31  5-MIN KDBQ 090755Z AUTO 33004KT 8SM CLR 00/M04 A3001 1000 75 -500 330/04 RMK AO2
94908KDBQ DBQ20071109020010011/09/07 02:00:31  5-MIN KDBQ 090800Z AUTO 33004KT 8SM CLR M01/M04 A3001 1000 78 -600 330/04 RMK AO2
94908KDBQ DBQ20071109020510011/09/07 02:05:31  5-MIN KDBQ 090805Z AUTO 34004KT 8SM CLR M01/M04 A3001 1000 78 -600 340/04 RMK AO2
94908KDBQ DBQ20071109021010011/09/07 02:10:31  5-MIN KDBQ 090810Z AUTO 33004KT 8SM CLR M01/M04 A3001 1000 78 -600 330/04 RMK AO2
94908KDBQ DBQ20071109021509911/09/07 02:15:31  5-MIN KDBQ 090815Z AUTO 34004KT 8SM CLR M01/M04 A3001 990 78 -600 330/04 RMK AO2
94908KDBQ DBQ20071109022009911/09/07 02:20:31  5-MIN KDBQ 090820Z AUTO 34005KT 8SM CLR M01/M04 A3001 990 78 -600 340/05 RMK AO2
94908KDBQ DBQ20071109022509911/09/07 02:25:31  5-MIN KDBQ 090825Z AUTO 34004KT 7SM CLR M01/M04 A3001 990 81 -600 340/04 RMK AO2
94908KDBQ DBQ20071109023009911/09/07 02:30:31  5-MIN KDBQ 090830Z AUTO 33004KT 7SM CLR M01/M04 A3001 990 78 -600 330/04 RMK AO2
94908KDBQ DBQ20071109023509911/09/07 02:35:31  5-MIN KDBQ 090835Z AUTO 34005KT 7SM CLR M01/M04 A3001 990 78 -600 330/05 RMK AO2
94908KDBQ DBQ20071109024009911/09/07 02:40:31  5-MIN KDBQ 090840Z AUTO 34005KT 7SM CLR M01/M04 A3001 990 81 -600 340/05 RMK AO2
94908KDBQ DBQ20071109024510011/09/07 02:45:31  5-MIN KDBQ 090845Z AUTO 34004KT 7SM CLR M01/M04 A3001 1000 81 -600 340/04 RMK AO2
94908KDBQ DBQ20071109025012211/09/07 02:50:31  5-MIN KDBQ 090850Z AUTO 34005KT 7SM CLR M01/M04 A3001 990 81 -600 340/05 RMK AO2 SLP172 T10111039 50002
94908KDBQ DBQ20071109025509911/09/07 02:55:31  5-MIN KDBQ 090855Z AUTO 35004KT 7SM CLR M01/M04 A3001 990 81 -600 350/04 RMK AO2
94908KDBQ DBQ20071109030009911/09/07 03:00:31  5-MIN KDBQ 090900Z AUTO 36003KT 7SM CLR M01/M04 A3001 990 81 -600 360/03 RMK AO2
94908KDBQ DBQ20071109030509911/09/07 03:05:31  5-MIN KDBQ 090905Z AUTO 36003KT 7SM CLR M01/M04 A3001 990 78 -600 360/03 RMK AO2
94908KDBQ DBQ20071109031009911/09/07 03:10:31  5-MIN KDBQ 090910Z AUTO 36003KT 7SM CLR M01/M04 A3001 990 81 -600 360/03 RMK AO2
94908KDBQ DBQ20071109031509911/09/07 03:15:31  5-MIN KDBQ 090915Z AUTO 36004KT 7SM CLR M01/M04 A3001 990 78 -600 350/04 RMK AO2
94908KDBQ DBQ20071109032009911/09/07 03:20:31  5-MIN KDBQ 090920Z AUTO 01003KT 7SM CLR M01/M04 A3001 990 78 -600 010/03 RMK AO2
94908KDBQ DBQ20071109032509911/09/07 03:25:31  5-MIN KDBQ 090925Z AUTO 01003KT 8SM CLR M01/M04 A3001 990 78 -600 010/03 RMK AO2
94908KDBQ DBQ20071109033009911/09/07 03:30:31  5-MIN KDBQ 090930Z AUTO 01004KT 8SM CLR M01/M04 A3001 990 78 -600 010/04 RMK AO2
94908KDBQ DBQ20071109033509911/09/07 03:35:31  5-MIN KDBQ 090935Z AUTO 02004KT 8SM CLR M01/M04 A3001 990 78 -600 020/04 RMK AO2
94908KDBQ DBQ20071109034009911/09/07 03:40:31  5-MIN KDBQ 090940Z AUTO 01003KT 8SM CLR M01/M04 A3001 990 78 -600 010/03 RMK AO2
94908KDBQ DBQ20071109034509811/09/07 03:45:31  5-MIN KDBQ 090945Z AUTO 01003KT 8SM CLR 00/M04 A3001 990 75 -500 010/03 RMK AO2
94908KDBQ DBQ20071109035011611/09/07 03:50:31  5-MIN KDBQ 090950Z AUTO 01004KT 8SM CLR M01/M04 A3001 990 78 -600 010/04 RMK AO2 SLP173 T10061039
94908KDBQ DBQ20071109035510011/09/07 03:55:31  5-MIN KDBQ 090955Z AUTO 02004KT 8SM CLR M01/M04 A3001 1000 78 -600 020/04 RMK AO2
94908KDBQ DBQ20071109040010011/09/07 04:00:31  5-MIN KDBQ 091000Z AUTO 01004KT 8SM CLR M01/M04 A3001 1000 78 -600 010/04 RMK AO2
94908KDBQ DBQ20071109040510011/09/07 04:05:31  5-MIN KDBQ 091005Z AUTO 36004KT 8SM CLR M01/M04 A3001 1000 78 -600 360/04 RMK AO2
94908KDBQ DBQ20071109041010011/09/07 04:10:31  5-MIN KDBQ 091010Z AUTO 36003KT 8SM CLR M01/M04 A3001 1000 78 -600 360/03 RMK AO2
94908KDBQ DBQ20071109041509911/09/07 04:15:31  5-MIN KDBQ 091015Z AUTO 35003KT 8SM CLR M01/M04 A3001 990 78 -600 350/03 RMK AO2
94908KDBQ DBQ20071109042009911/09/07 04:20:31  5-MIN KDBQ 091020Z AUTO 35003KT 8SM CLR M01/M04 A3002 990 78 -600 350/03 RMK AO2
94908KDBQ DBQ20071109042509911/09/07 04:25:31  5-MIN KDBQ 091025Z AUTO 35003KT 8SM CLR M01/M04 A3002 990 78 -600 350/03 RMK AO2
94908KDBQ DBQ20071109043009911/09/07 04:30:31  5-MIN KDBQ 091030Z AUTO 00000KT 7SM CLR M01/M04 A3002 990 78 -600 000/00 RMK AO2
94908KDBQ DBQ20071109043509911/09/07 04:35:31  5-MIN KDBQ 091035Z AUTO 00000KT 7SM CLR M01/M04 A3002 990 81 -700 000/00 RMK AO2
94908KDBQ DBQ20071109044009911/09/07 04:40:31  5-MIN KDBQ 091040Z AUTO 00000KT 7SM CLR M01/M04 A3002 980 81 -700 000/00 RMK AO2
94908KDBQ DBQ20071109044509911/09/07 04:45:31  5-MIN KDBQ 091045Z AUTO 00000KT 7SM CLR M01/M04 A3002 980 78 -700 000/00 RMK AO2
94908KDBQ DBQ20071109045011611/09/07 04:50:31  5-MIN KDBQ 091050Z AUTO 00000KT 7SM CLR M01/M04 A3002 990 78 -700 000/00 RMK AO2 SLP177 T10111044
94908KDBQ DBQ20071109045509911/09/07 04:55:31  5-MIN KDBQ 091055Z AUTO 00000KT 7SM CLR M01/M04 A3002 990 78 -700 000/00 RMK AO2
94908KDBQ DBQ20071109050009911/09/07 05:00:31  5-MIN KDBQ 091100Z AUTO 02003KT 7SM CLR M01/M04 A3002 990 78 -700 020/03 RMK AO2
94908KDBQ DBQ20071109050509911/09/07 05:05:31  5-MIN KDBQ 091105Z AUTO 01004KT 7SM CLR M01/M04 A3002 990 78 -700 010/04 RMK AO2
94908KDBQ DBQ20071109051009911/09/07 05:10:31  5-MIN KDBQ 091110Z AUTO 02003KT 8SM CLR M01/M04 A3002 990 78 -600 020/03 RMK AO2
94908KDBQ DBQ20071109051509911/09/07 05:15:31  5-MIN KDBQ 091115Z AUTO 01003KT 8SM CLR M01/M04 A3002 980 78 -600 010/03 RMK AO2
94908KDBQ DBQ20071109052009911/09/07 05:20:31  5-MIN KDBQ 091120Z AUTO 01003KT 8SM CLR M01/M04 A3002 980 78 -600 010/03 RMK AO2
94908KDBQ DBQ20071109052509911/09/07 05:25:31  5-MIN KDBQ 091125Z AUTO 36003KT 8SM CLR M01/M04 A3002 980 78 -600 360/03 RMK AO2
94908KDBQ DBQ20071109053009811/09/07 05:30:31  5-MIN KDBQ 091130Z AUTO 36003KT 8SM CLR 00/M04 A3002 980 75 -500 360/03 RMK AO2
94908KDBQ DBQ20071109053509911/09/07 05:35:31  5-MIN KDBQ 091135Z AUTO 36003KT 8SM CLR M01/M04 A3003 980 78 -600 360/03 RMK AO2
94908KDBQ DBQ20071109054009911/09/07 05:40:31  5-MIN KDBQ 091140Z AUTO 36003KT 8SM CLR M01/M04 A3002 980 81 -700 360/03 RMK AO2
94908KDBQ DBQ20071109054509911/09/07 05:45:31  5-MIN KDBQ 091145Z AUTO 00000KT 8SM CLR M01/M04 A3002 980 78 -600 000/00 RMK AO2
94908KDBQ DBQ20071109055013411/09/07 05:50:31  5-MIN KDBQ 091150Z AUTO 00000KT 8SM CLR M01/M04 A3002 980 78 -600 000/00 RMK AO2 SLP178 T10061039 10011 21011 51007
94908KDBQ DBQ20071109055509411/09/07 05:55:31  5-MIN KDBQ 091155Z 00000KT 8SM CLR M01/M04 A3003 980 78 -600 000/00 RMK AO2
94908KDBQ DBQ20071109060009411/09/07 06:00:31  5-MIN KDBQ 091200Z 00000KT 8SM CLR M01/M04 A3003 980 78 -600 000/00 RMK AO2
94908KDBQ DBQ20071109060509411/09/07 06:05:31  5-MIN KDBQ 091205Z 35003KT 8SM CLR M01/M04 A3003 980 81 -700 350/03 RMK AO2
94908KDBQ DBQ20071109061009411/09/07 06:10:31  5-MIN KDBQ 091210Z 36003KT 8SM CLR M01/M04 A3003 970 78 -600 360/03 RMK AO2
94908KDBQ DBQ20071109061509411/09/07 06:15:31  5-MIN KDBQ 091215Z 36003KT 7SM CLR M01/M04 A3004 970 78 -700 360/03 RMK AO2
94908KDBQ DBQ20071109062009411/09/07 06:20:31  5-MIN KDBQ 091220Z 00000KT 7SM CLR M01/M04 A3004 970 78 -700 000/00 RMK AO2
94908KDBQ DBQ20071109062509411/09/07 06:25:31  5-MIN KDBQ 091225Z 00000KT 7SM CLR M02/M04 A3004 970 81 -700 000/00 RMK AO2
94908KDBQ DBQ20071109063009411/09/07 06:30:31  5-MIN KDBQ 091230Z 00000KT 7SM CLR M02/M05 A3004 970 81 -800 000/00 RMK AO2
94908KDBQ DBQ20071109063509411/09/07 06:35:31  5-MIN KDBQ 091235Z 00000KT 7SM CLR M02/M05 A3004 970 81 -800 000/00 RMK AO2
94908KDBQ DBQ20071109064009411/09/07 06:40:31  5-MIN KDBQ 091240Z 00000KT 7SM CLR M02/M04 A3004 970 81 -700 000/00 RMK AO2
94908KDBQ DBQ20071109064509711/09/07 06:45:31  5-MIN KDBQ 091245Z 00000KT 6SM HZ CLR M02/M05 A3004 970 81 -800 000/00 RMK AO2
94908KDBQ DBQ20071109065011411/09/07 06:50:31  5-MIN KDBQ 091250Z 00000KT 5SM BR CLR M02/M04 A3004 960 85 -800 000/00 RMK AO2 SLP185 T10221044
94908KDBQ DBQ20071109065509711/09/07 06:55:31  5-MIN KDBQ 091255Z 00000KT 5SM HZ CLR M02/M04 A3005 960 81 -800 000/00 RMK AO2
94908KDBQ DBQ20071109070009711/09/07 07:00:31  5-MIN KDBQ 091300Z 00000KT 6SM HZ CLR M02/M04 A3005 960 81 -800 000/00 RMK AO2
94908KDBQ DBQ20071109070509711/09/07 07:05:31  5-MIN KDBQ 091305Z 00000KT 6SM HZ CLR M02/M04 A3005 960 81 -800 000/00 RMK AO2
94908KDBQ DBQ20071109071009711/09/07 07:10:31  5-MIN KDBQ 091310Z 36003KT 6SM HZ CLR M02/M04 A3005 960 81 -800 360/03 RMK AO2
94908KDBQ DBQ20071109071509711/09/07 07:15:31  5-MIN KDBQ 091315Z 01003KT 6SM HZ CLR M02/M04 A3005 960 81 -800 360/03 RMK AO2
94908KDBQ DBQ20071109072009711/09/07 07:20:31  5-MIN KDBQ 091320Z 36003KT 6SM HZ CLR M02/M04 A3006 950 81 -800 360/03 RMK AO2
94908KDBQ DBQ20071109072509711/09/07 07:25:31  5-MIN KDBQ 091325Z 36004KT 6SM HZ CLR M01/M04 A3006 950 81 -700 360/04 RMK AO2
94908KDBQ DBQ20071109073009711/09/07 07:30:31  5-MIN KDBQ 091330Z 36004KT 6SM HZ CLR M01/M04 A3006 950 81 -700 360/04 RMK AO2
94908KDBQ DBQ20071109073509711/09/07 07:35:31  5-MIN KDBQ 091335Z 36005KT 6SM HZ CLR M01/M04 A3006 950 81 -700 360/05 RMK AO2
94908KDBQ DBQ20071109074009711/09/07 07:40:31  5-MIN KDBQ 091340Z 01005KT 6SM HZ CLR M01/M03 A3006 950 81 -600 010/05 RMK AO2
94908KDBQ DBQ20071109074509711/09/07 07:45:31  5-MIN KDBQ 091345Z 36006KT 6SM HZ CLR M01/M03 A3006 950 81 -600 360/06 RMK AO2
94908KDBQ DBQ20071109075011311/09/07 07:50:31  5-MIN KDBQ 091350Z 35007KT 6SM HZ CLR 00/M03 A3007 940 78 -600 350/07 RMK AO2 SLP192 T00001033
94908KDBQ DBQ20071109075509611/09/07 07:55:31  5-MIN KDBQ 091355Z 35008KT 6SM HZ CLR 00/M03 A3007 940 78 -600 340/08 RMK AO2
94908KDBQ DBQ20071109080009611/09/07 08:00:31  5-MIN KDBQ 091400Z 35009KT 6SM HZ CLR 00/M03 A3007 940 78 -600 350/09 RMK AO2
94908KDBQ DBQ20071109080509611/09/07 08:05:31  5-MIN KDBQ 091405Z 35008KT 6SM HZ CLR 00/M03 A3007 940 78 -600 350/08 RMK AO2
94908KDBQ DBQ20071109081009611/09/07 08:10:31  5-MIN KDBQ 091410Z 35008KT 6SM HZ CLR 00/M03 A3007 940 81 -600 350/08 RMK AO2
94908KDBQ DBQ20071109081509611/09/07 08:15:31  5-MIN KDBQ 091415Z 35009KT 6SM HZ CLR 01/M03 A3008 940 78 -500 350/09 RMK AO2
94908KDBQ DBQ20071109082009611/09/07 08:20:31  5-MIN KDBQ 091420Z 35008KT 6SM HZ CLR 01/M03 A3008 930 78 -500 350/08 RMK AO2
94908KDBQ DBQ20071109082509611/09/07 08:25:31  5-MIN KDBQ 091425Z 35009KT 6SM HZ CLR 01/M03 A3008 930 78 -500 350/09 RMK AO2
94908KDBQ DBQ20071109083009611/09/07 08:30:31  5-MIN KDBQ 091430Z 34008KT 6SM HZ CLR 01/M03 A3008 930 75 -400 340/08 RMK AO2
94908KDBQ DBQ20071109083509611/09/07 08:35:31  5-MIN KDBQ 091435Z 35006KT 6SM HZ CLR 01/M03 A3008 930 75 -400 350/06 RMK AO2
94908KDBQ DBQ20071109084009611/09/07 08:40:31  5-MIN KDBQ 091440Z 35006KT 6SM HZ CLR 01/M02 A3007 940 78 -400 350/06 RMK AO2
94908KDBQ DBQ20071109084509311/09/07 08:45:31  5-MIN KDBQ 091445Z 35006KT 7SM CLR 01/M02 A3008 930 78 -400 350/06 RMK AO2
94908KDBQ DBQ20071109085011611/09/07 08:50:31  5-MIN KDBQ 091450Z 36007KT 7SM CLR 02/M02 A3007 940 75 -400 360/07 RMK AO2 SLP194 T00171022 53004
94908KDBQ DBQ20071109085509311/09/07 08:55:31  5-MIN KDBQ 091455Z 36008KT 7SM CLR 02/M02 A3008 930 75 -400 360/08 RMK AO2
94908KDBQ DBQ20071109090009311/09/07 09:00:31  5-MIN KDBQ 091500Z 36008KT 7SM CLR 02/M02 A3008 930 75 -400 360/08 RMK AO2
94908KDBQ DBQ20071109090509311/09/07 09:05:31  5-MIN KDBQ 091505Z 36007KT 7SM CLR 02/M02 A3008 930 72 -300 360/07 RMK AO2
94908KDBQ DBQ20071109091009311/09/07 09:10:31  5-MIN KDBQ 091510Z 36007KT 7SM CLR 02/M02 A3008 930 75 -300 360/07 RMK AO2
94908KDBQ DBQ20071109091509311/09/07 09:15:31  5-MIN KDBQ 091515Z 36008KT 7SM CLR 03/M02 A3008 930 72 -200 360/08 RMK AO2
94908KDBQ DBQ20071109092009311/09/07 09:20:31  5-MIN KDBQ 091520Z 34007KT 7SM CLR 03/M02 A3008 930 72 -200 340/07 RMK AO2
94908KDBQ DBQ20071109092509311/09/07 09:25:31  5-MIN KDBQ 091525Z 35008KT 7SM CLR 03/M02 A3008 930 72 -200 350/08 RMK AO2
94908KDBQ DBQ20071109093009311/09/07 09:30:31  5-MIN KDBQ 091530Z 35009KT 8SM CLR 03/M02 A3008 930 69 -200 350/09 RMK AO2
94908KDBQ DBQ20071109093509311/09/07 09:35:31  5-MIN KDBQ 091535Z 35007KT 8SM CLR 03/M02 A3008 930 69 -200 350/07 RMK AO2
94908KDBQ DBQ20071109094009311/09/07 09:40:31  5-MIN KDBQ 091540Z 35009KT 8SM CLR 03/M02 A3008 930 67 -200 350/09 RMK AO2
94908KDBQ DBQ20071109094509311/09/07 09:45:31  5-MIN KDBQ 091545Z 34008KT 8SM CLR 03/M02 A3008 930 70 -200 340/08 RMK AO2
94908KDBQ DBQ20071109095011011/09/07 09:50:31  5-MIN KDBQ 091550Z 36007KT 8SM CLR 04/M02 A3007 940 67 -100 360/07 RMK AO2 SLP193 T00391017
94908KDBQ DBQ20071109095509311/09/07 09:55:31  5-MIN KDBQ 091555Z 34006KT 9SM CLR 04/M02 A3007 940 67 -100 340/06 RMK AO2
94908KDBQ DBQ20071109100009311/09/07 10:00:31  5-MIN KDBQ 091600Z 35008KT 9SM CLR 04/M02 A3007 940 64 -100 350/08 RMK AO2
94908KDBQ DBQ20071109100509311/09/07 10:05:31  5-MIN KDBQ 091605Z 35008KT 9SM CLR 04/M02 A3008 930 64 -100 350/08 RMK AO2
94908KDBQ DBQ20071109101009011/09/07 10:10:31  5-MIN KDBQ 091610Z 34009KT 9SM CLR 04/M02 A3008 930 62 0 340/09 RMK AO2
94908KDBQ DBQ20071109101509411/09/07 10:15:31  5-MIN KDBQ 091615Z 34009KT 10SM CLR 04/M02 A3008 930 64 -100 340/09 RMK AO2
94908KDBQ DBQ20071109102009111/09/07 10:20:31  5-MIN KDBQ 091620Z 34008KT 10SM CLR 04/M03 A3008 930 59 0 340/08 RMK AO2
94908KDBQ DBQ20071109102509111/09/07 10:25:31  5-MIN KDBQ 091625Z 36007KT 10SM CLR 04/M02 A3007 940 62 0 360/07 RMK AO2
94908KDBQ DBQ20071109103009111/09/07 10:30:31  5-MIN KDBQ 091630Z 36007KT 10SM CLR 05/M03 A3007 940 57 0 360/07 RMK AO2
94908KDBQ DBQ20071109103509111/09/07 10:35:31  5-MIN KDBQ 091635Z 36008KT 10SM CLR 05/M03 A3007 940 57 0 360/08 RMK AO2
94908KDBQ DBQ20071109104009111/09/07 10:40:31  5-MIN KDBQ 091640Z 36008KT 10SM CLR 05/M03 A3008 930 57 0 360/08 RMK AO2
94908KDBQ DBQ20071109104509111/09/07 10:45:31  5-MIN KDBQ 091645Z 35008KT 10SM CLR 05/M03 A3008 930 57 0 350/08 RMK AO2
94908KDBQ DBQ20071109105011011/09/07 10:50:31  5-MIN KDBQ 091650Z 01009KT 10SM CLR 06/M03 A3008 930 55 100 010/09 RMK AO2 SLP195 T00561028
94908KDBQ DBQ20071109105509111/09/07 10:55:31  5-MIN KDBQ 091655Z 02009KT 10SM CLR 05/M03 A3008 930 57 0 020/09 RMK AO2
94908KDBQ DBQ20071109110009311/09/07 11:00:31  5-MIN KDBQ 091700Z 33010KT 10SM CLR 06/M03 A3008 930 55 100 330/10 RMK AO2
94908KDBQ DBQ20071109110509311/09/07 11:05:31  5-MIN KDBQ 091705Z 34012KT 10SM CLR 06/M03 A3008 930 55 100 340/12 RMK AO2
94908KDBQ DBQ20071109111009311/09/07 11:10:31  5-MIN KDBQ 091710Z 35009KT 10SM CLR 06/M03 A3008 930 55 100 350/09 RMK AO2
94908KDBQ DBQ20071109111509111/09/07 11:15:31  5-MIN KDBQ 091715Z 35008KT 10SM CLR 06/M03 A3009 930 55 0 350/08 RMK AO2
94908KDBQ DBQ20071109112009911/09/07 11:20:31  5-MIN KDBQ 091720Z 34010G15KT 10SM CLR 06/M03 A3008 930 55 100 330/10G15 RMK AO2
94908KDBQ DBQ20071109112509311/09/07 11:25:31  5-MIN KDBQ 091725Z 34012KT 10SM CLR 06/M03 A3008 930 55 100 340/12 RMK AO2
94908KDBQ DBQ20071109113009311/09/07 11:30:31  5-MIN KDBQ 091730Z 31008KT 10SM CLR 06/M03 A3008 930 55 100 310/08 RMK AO2
94908KDBQ DBQ20071109113509911/09/07 11:35:31  5-MIN KDBQ 091735Z 31010G15KT 10SM CLR 06/M03 A3008 930 53 100 310/10G15 RMK AO2
94908KDBQ DBQ20071109114009311/09/07 11:40:31  5-MIN KDBQ 091740Z 34011KT 10SM CLR 06/M03 A3008 930 51 100 330/11 RMK AO2
94908KDBQ DBQ20071109114509311/09/07 11:45:31  5-MIN KDBQ 091745Z 35009KT 10SM CLR 06/M03 A3008 930 51 100 340/09 RMK AO2
94908KDBQ DBQ20071109115012811/09/07 11:50:31  5-MIN KDBQ 091750Z 34009KT 10SM CLR 06/M03 A3007 940 51 100 340/09 RMK AO2 SLP193 T00611033 10061 21022 51017
94908KDBQ DBQ20071109115509311/09/07 11:55:31  5-MIN KDBQ 091755Z 34009KT 10SM CLR 06/M03 A3007 940 53 100 340/09 RMK AO2
94908KDBQ DBQ20071109120009311/09/07 12:00:31  5-MIN KDBQ 091800Z 34008KT 10SM CLR 06/M04 A3007 940 48 100 340/08 RMK AO2
94908KDBQ DBQ20071109120509311/09/07 12:05:31  5-MIN KDBQ 091805Z 33008KT 10SM CLR 07/M03 A3007 940 49 200 330/08 RMK AO2
94908KDBQ DBQ20071109121009911/09/07 12:10:31  5-MIN KDBQ 091810Z 33010G15KT 10SM CLR 07/M03 A3008 940 51 200 330/10G15 RMK AO2
94908KDBQ DBQ20071109121509911/09/07 12:15:31  5-MIN KDBQ 091815Z 34007G15KT 10SM CLR 07/M03 A3007 940 51 200 340/07G15 RMK AO2
94908KDBQ DBQ20071109122009311/09/07 12:20:31  5-MIN KDBQ 091820Z 33009KT 10SM CLR 07/M03 A3007 940 51 200 330/09 RMK AO2
94908KDBQ DBQ20071109122509311/09/07 12:25:31  5-MIN KDBQ 091825Z 34007KT 10SM CLR 07/M03 A3006 950 51 200 340/07 RMK AO2
94908KDBQ DBQ20071109123009311/09/07 12:30:31  5-MIN KDBQ 091830Z 30008KT 10SM CLR 07/M03 A3007 940 51 200 300/08 RMK AO2
94908KDBQ DBQ20071109123509311/09/07 12:35:31  5-MIN KDBQ 091835Z 32010KT 10SM CLR 07/M03 A3007 940 49 200 320/10 RMK AO2
94908KDBQ DBQ20071109124009311/09/07 12:40:31  5-MIN KDBQ 091840Z 33009KT 10SM CLR 07/M03 A3007 940 49 200 330/09 RMK AO2
94908KDBQ DBQ20071109124509311/09/07 12:45:31  5-MIN KDBQ 091845Z 33010KT 10SM CLR 07/M03 A3007 940 49 200 330/10 RMK AO2
94908KDBQ DBQ20071109125011011/09/07 12:50:31  5-MIN KDBQ 091850Z 32009KT 10SM CLR 07/M03 A3007 940 49 300 310/09 RMK AO2 SLP193 T00721028
94908KDBQ DBQ20071109125509311/09/07 12:55:31  5-MIN KDBQ 091855Z 32010KT 10SM CLR 07/M03 A3007 940 49 200 320/10 RMK AO2
94908KDBQ DBQ20071109130009311/09/07 13:00:31  5-MIN KDBQ 091900Z 29009KT 10SM CLR 07/M03 A3007 940 49 300 290/09 RMK AO2
94908KDBQ DBQ20071109130509311/09/07 13:05:31  5-MIN KDBQ 091905Z 30008KT 10SM CLR 07/M03 A3006 950 47 300 300/08 RMK AO2
94908KDBQ DBQ20071109131009311/09/07 13:10:31  5-MIN KDBQ 091910Z 31009KT 10SM CLR 07/M03 A3007 940 49 300 310/09 RMK AO2
94908KDBQ DBQ20071109131509311/09/07 13:15:31  5-MIN KDBQ 091915Z 30010KT 10SM CLR 07/M03 A3007 940 47 300 300/10 RMK AO2
94908KDBQ DBQ20071109132009611/09/07 13:20:31  5-MIN KDBQ 091920Z 31007KT 10SM FEW100 07/M03 A3007 940 49 300 310/07 RMK AO2
94908KDBQ DBQ20071109132509611/09/07 13:25:31  5-MIN KDBQ 091925Z 29012KT 10SM SCT095 07/M03 A3006 950 49 300 290/12 RMK AO2
94908KDBQ DBQ20071109133009611/09/07 13:30:31  5-MIN KDBQ 091930Z 31010KT 10SM SCT095 07/M03 A3006 950 49 300 300/10 RMK AO2
94908KDBQ DBQ20071109133510311/09/07 13:35:31  5-MIN KDBQ 091935Z 31010KT 10SM FEW065 SCT095 08/M02 A3006 950 49 300 310/10 RMK AO2
94908KDBQ DBQ20071109134010311/09/07 13:40:31  5-MIN KDBQ 091940Z 32010KT 10SM SCT044 BKN095 07/M03 A3007 940 49 300 320/10 RMK AO2
94908KDBQ DBQ20071109134511011/09/07 13:45:31  5-MIN KDBQ 091945Z 32011KT 10SM SCT040 BKN095 BKN110 07/M02 A3007 940 51 300 320/11 RMK AO2
94908KDBQ DBQ20071109135012011/09/07 13:50:31  5-MIN KDBQ 091950Z 31011KT 10SM SCT038 BKN100 07/M02 A3007 940 53 200 310/11 RMK AO2 SLP192 T00671022
94908KDBQ DBQ20071109135511011/09/07 13:55:31  5-MIN KDBQ 091955Z 31009KT 10SM SCT038 SCT090 BKN110 06/M03 A3007 940 53 100 310/09 RMK AO2
94908KDBQ DBQ20071109140011011/09/07 14:00:31  5-MIN KDBQ 092000Z 31009KT 10SM FEW032 SCT060 BKN110 07/M03 A3007 940 51 200 310/09 RMK AO2
94908KDBQ DBQ20071109140511011/09/07 14:05:31  5-MIN KDBQ 092005Z 29009KT 10SM FEW029 SCT065 BKN100 07/M03 A3007 940 49 300 290/09 RMK AO2
94908KDBQ DBQ20071109141011011/09/07 14:10:31  5-MIN KDBQ 092010Z 31008KT 10SM FEW026 SCT070 BKN100 08/M03 A3007 940 47 300 310/08 RMK AO2
94908KDBQ DBQ20071109141511011/09/07 14:15:31  5-MIN KDBQ 092015Z 33010KT 10SM FEW060 SCT075 BKN100 08/M02 A3007 940 49 300 330/10 RMK AO2
94908KDBQ DBQ20071109142011011/09/07 14:20:31  5-MIN KDBQ 092020Z 35010KT 10SM FEW060 SCT075 BKN100 08/M02 A3007 940 47 400 350/10 RMK AO2
94908KDBQ DBQ20071109142510311/09/07 14:25:31  5-MIN KDBQ 092025Z 34010KT 10SM FEW070 BKN100 08/M02 A3007 940 47 400 340/10 RMK AO2
94908KDBQ DBQ20071109143010311/09/07 14:30:31  5-MIN KDBQ 092030Z 33008KT 10SM FEW075 BKN100 08/M03 A3007 940 47 300 330/08 RMK AO2
94908KDBQ DBQ20071109143509611/09/07 14:35:31  5-MIN KDBQ 092035Z 31009KT 10SM BKN090 08/M03 A3006 950 47 300 310/09 RMK AO2
94908KDBQ DBQ20071109144009611/09/07 14:40:31  5-MIN KDBQ 092040Z 30008KT 10SM BKN090 07/M03 A3007 940 49 300 300/08 RMK AO2
94908KDBQ DBQ20071109144509611/09/07 14:45:31  5-MIN KDBQ 092045Z 33009KT 10SM SCT090 08/M02 A3007 940 49 300 330/09 RMK AO2
94908KDBQ DBQ20071109145012611/09/07 14:50:31  5-MIN KDBQ 092050Z 33007KT 10SM FEW070 SCT090 08/M02 A3007 940 49 300 330/07 RMK AO2 SLP192 T00781022 58001
94908KDBQ DBQ20071109145510311/09/07 14:55:31  5-MIN KDBQ 092055Z 34007KT 10SM SCT065 BKN090 08/M02 A3007 940 49 300 340/07 RMK AO2
94908KDBQ DBQ20071109150010311/09/07 15:00:31  5-MIN KDBQ 092100Z 35007KT 10SM FEW065 SCT090 07/M02 A3007 940 53 200 350/07 RMK AO2
94908KDBQ DBQ20071109150510311/09/07 15:05:31  5-MIN KDBQ 092105Z 36008KT 10SM FEW065 SCT090 07/M02 A3007 940 51 300 360/08 RMK AO2
94908KDBQ DBQ20071109151009611/09/07 15:10:31  5-MIN KDBQ 092110Z 36007KT 10SM FEW065 07/M02 A3007 940 53 200 360/07 RMK AO2
94908KDBQ DBQ20071109151509611/09/07 15:15:31  5-MIN KDBQ 092115Z 01007KT 10SM FEW065 07/M02 A3007 940 51 300 010/07 RMK AO2
94908KDBQ DBQ20071109152009611/09/07 15:20:31  5-MIN KDBQ 092120Z 36008KT 10SM FEW065 07/M02 A3008 930 51 300 360/08 RMK AO2
94908KDBQ DBQ20071109152509311/09/07 15:25:31  5-MIN KDBQ 092125Z 35007KT 10SM CLR 07/M02 A3008 930 53 200 350/07 RMK AO2
94908KDBQ DBQ20071109153009611/09/07 15:30:31  5-MIN KDBQ 092130Z 01008KT 10SM FEW090 07/M02 A3008 930 53 200 010/08 RMK AO2
94908KDBQ DBQ20071109153510311/09/07 15:35:31  5-MIN KDBQ 092135Z 36009KT 10SM FEW060 SCT085 07/M02 A3008 930 53 200 360/09 RMK AO2
94908KDBQ DBQ20071109154010311/09/07 15:40:31  5-MIN KDBQ 092140Z 36010KT 10SM SCT060 SCT085 07/M02 A3008 930 53 200 360/10 RMK AO2
94908KDBQ DBQ20071109154510311/09/07 15:45:31  5-MIN KDBQ 092145Z 36008KT 10SM SCT055 SCT070 07/M02 A3009 930 53 200 360/08 RMK AO2
94908KDBQ DBQ20071109155012011/09/07 15:50:31  5-MIN KDBQ 092150Z 35009KT 10SM SCT050 BKN065 07/M02 A3009 920 53 200 350/09 RMK AO2 SLP197 T00671022
94908KDBQ DBQ20071109155510311/09/07 15:55:31  5-MIN KDBQ 092155Z 35008KT 10SM BKN050 BKN065 07/M02 A3009 920 53 200 350/08 RMK AO2
94908KDBQ DBQ20071109160011011/09/07 16:00:31  5-MIN KDBQ 092200Z 36009KT 10SM BKN050 BKN065 BKN080 07/M02 A3009 920 53 200 360/09 RMK AO2
94908KDBQ DBQ20071109160511011/09/07 16:05:31  5-MIN KDBQ 092205Z 35007KT 10SM SCT050 BKN065 BKN080 06/M02 A3009 920 55 100 350/07 RMK AO2
94908KDBQ DBQ20071109161011011/09/07 16:10:31  5-MIN KDBQ 092210Z 36009KT 10SM SCT050 BKN070 BKN080 06/M02 A3009 930 55 100 350/09 RMK AO2
94908KDBQ DBQ20071109161510311/09/07 16:15:31  5-MIN KDBQ 092215Z 01005KT 10SM SCT048 BKN080 06/M02 A3009 930 55 100 010/05 RMK AO2
94908KDBQ DBQ20071109162010111/09/07 16:20:31  5-MIN KDBQ 092220Z 35007KT 10SM SCT048 SCT080 06/M02 A3009 920 57 0 350/07 RMK AO2
94908KDBQ DBQ20071109162510811/09/07 16:25:31  5-MIN KDBQ 092225Z 36005KT 10SM SCT046 SCT070 BKN080 06/M02 A3010 920 57 0 360/05 RMK AO2
94908KDBQ DBQ20071109163010111/09/07 16:30:31  5-MIN KDBQ 092230Z 36008KT 10SM SCT044 BKN075 06/M02 A3010 910 57 0 360/08 RMK AO2
94908KDBQ DBQ20071109163510311/09/07 16:35:31  5-MIN KDBQ 092235Z 01006KT 10SM BKN044 BKN080 06/M02 A3010 910 55 100 010/06 RMK AO2
94908KDBQ DBQ20071109164009411/09/07 16:40:31  5-MIN KDBQ 092240Z 36006KT 10SM BKN044 06/M02 A3010 910 59 0 360/06 RMK AO2
94908KDBQ DBQ20071109164509611/09/07 16:45:31  5-MIN KDBQ 092245Z 36007KT 10SM OVC044 06/M02 A3011 910 55 100 360/07 RMK AO2
94908KDBQ DBQ20071109165011111/09/07 16:50:31  5-MIN KDBQ 092250Z 36006KT 10SM OVC044 06/M02 A3010 910 57 0 360/06 RMK AO2 SLP204 T00561022
94908KDBQ DBQ20071109165509411/09/07 16:55:31  5-MIN KDBQ 092255Z 36006KT 10SM OVC044 06/M02 A3011 910 57 0 360/06 RMK AO2
94908KDBQ DBQ20071109170010111/09/07 17:00:31  5-MIN KDBQ 092300Z 35006KT 10SM BKN044 OVC065 06/M02 A3011 910 59 0 350/06 RMK AO2
94908KDBQ DBQ20071109170510111/09/07 17:05:31  5-MIN KDBQ 092305Z 35006KT 10SM BKN044 OVC060 05/M02 A3011 900 62 0 350/06 RMK AO2
94908KDBQ DBQ20071109171010111/09/07 17:10:31  5-MIN KDBQ 092310Z 35008KT 10SM BKN046 OVC060 05/M02 A3011 900 62 0 350/08 RMK AO2
94908KDBQ DBQ20071109171510111/09/07 17:15:31  5-MIN KDBQ 092315Z 35007KT 10SM BKN048 OVC060 06/M02 A3011 900 59 0 350/07 RMK AO2
94908KDBQ DBQ20071109172010111/09/07 17:20:31  5-MIN KDBQ 092320Z 35006KT 10SM BKN048 OVC060 05/M02 A3011 900 62 0 350/06 RMK AO2
94908KDBQ DBQ20071109172510111/09/07 17:25:31  5-MIN KDBQ 092325Z 35006KT 10SM BKN046 OVC060 05/M02 A3012 900 62 0 350/06 RMK AO2
94908KDBQ DBQ20071109173010111/09/07 17:30:31  5-MIN KDBQ 092330Z 36005KT 10SM BKN048 OVC060 05/M02 A3012 900 62 0 360/05 RMK AO2
94908KDBQ DBQ20071109173509411/09/07 17:35:31  5-MIN KDBQ 092335Z 01005KT 10SM OVC048 05/M02 A3011 900 62 0 010/05 RMK AO2
94908KDBQ DBQ20071109174009411/09/07 17:40:31  5-MIN KDBQ 092340Z 01006KT 10SM OVC048 05/M02 A3011 900 62 0 010/06 RMK AO2
94908KDBQ DBQ20071109174509411/09/07 17:45:31  5-MIN KDBQ 092345Z 36005KT 10SM OVC048 06/M02 A3012 900 57 0 360/05 RMK AO2
94908KDBQ DBQ20071109175012911/09/07 17:50:31  5-MIN KDBQ 092350Z 35005KT 10SM OVC046 05/M02 A3012 900 62 0 350/05 RMK AO2 SLP209 T00501017 10083 20050 55000
94908KDBQ DBQ20071109175509411/09/07 17:55:31  5-MIN KDBQ 092355Z 36005KT 10SM OVC046 05/M02 A3012 890 62 0 360/05 RMK AO2
94908KDBQ DBQ20071109180009411/09/07 18:00:31  5-MIN KDBQ 100000Z 01004KT 10SM OVC046 05/M02 A3012 890 62 0 010/04 RMK AO2
94908KDBQ DBQ20071109180509411/09/07 18:05:31  5-MIN KDBQ 100005Z 01005KT 10SM OVC046 05/M02 A3012 890 62 0 010/05 RMK AO2
94908KDBQ DBQ20071109181009411/09/07 18:10:31  5-MIN KDBQ 100010Z 02005KT 10SM OVC046 05/M02 A3012 890 62 0 020/05 RMK AO2
94908KDBQ DBQ20071109181509711/09/07 18:15:31  5-MIN KDBQ 100015Z 01005KT 10SM OVC046 04/M02 A3012 900 64 -100 010/05 RMK AO2
94908KDBQ DBQ20071109182009611/09/07 18:20:31  5-MIN KDBQ 100020Z 03005KT 9SM OVC049 04/M02 A3012 890 64 -100 030/05 RMK AO2
94908KDBQ DBQ20071109182509611/09/07 18:25:31  5-MIN KDBQ 100025Z 02004KT 8SM OVC049 04/M02 A3012 900 64 -100 020/04 RMK AO2
94908KDBQ DBQ20071109183009611/09/07 18:30:31  5-MIN KDBQ 100030Z 01005KT 9SM OVC049 04/M02 A3012 890 64 -100 010/05 RMK AO2
94908KDBQ DBQ20071109183509711/09/07 18:35:31  5-MIN KDBQ 100035Z 36005KT 10SM OVC049 04/M02 A3012 890 64 -100 360/05 RMK AO2
94908KDBQ DBQ20071109184009711/09/07 18:40:31  5-MIN KDBQ 100040Z 02005KT 10SM OVC049 04/M02 A3012 890 64 -100 020/05 RMK AO2
94908KDBQ DBQ20071109184509711/09/07 18:45:31  5-MIN KDBQ 100045Z 02005KT 10SM OVC049 04/M02 A3012 890 64 -100 020/05 RMK AO2
94908KDBQ DBQ20071109185011411/09/07 18:50:31  5-MIN KDBQ 100050Z 01005KT 10SM OVC049 04/M02 A3012 890 64 -100 010/05 RMK AO2 SLP211 T00441017
94908KDBQ DBQ20071109185509711/09/07 18:55:31  5-MIN KDBQ 100055Z 01004KT 10SM OVC049 04/M02 A3012 890 64 -100 010/04 RMK AO2
94908KDBQ DBQ20071109190009711/09/07 19:00:31  5-MIN KDBQ 100100Z 02005KT 10SM OVC049 04/M02 A3012 890 64 -100 020/05 RMK AO2
94908KDBQ DBQ20071109190509711/09/07 19:05:31  5-MIN KDBQ 100105Z 03004KT 10SM OVC049 04/M02 A3012 890 64 -100 030/04 RMK AO2
94908KDBQ DBQ20071109191010111/09/07 19:10:31  5-MIN KDBQ 100110Z AUTO 03003KT 9SM OVC049 04/M02 A3012 890 67 -100 030/03 RMK AO2
94908KDBQ DBQ20071109191510111/09/07 19:15:31  5-MIN KDBQ 100115Z AUTO 04003KT 9SM OVC049 04/M02 A3012 890 64 -100 040/03 RMK AO2
94908KDBQ DBQ20071109192010211/09/07 19:20:31  5-MIN KDBQ 100120Z AUTO 04004KT 10SM OVC047 04/M02 A3013 890 64 -200 040/04 RMK AO2
94908KDBQ DBQ20071109192510211/09/07 19:25:31  5-MIN KDBQ 100125Z AUTO 03003KT 10SM OVC047 03/M02 A3013 890 67 -200 030/03 RMK AO2
94908KDBQ DBQ20071109193010211/09/07 19:30:31  5-MIN KDBQ 100130Z AUTO 04003KT 10SM BKN047 03/M02 A3013 890 67 -200 040/03 RMK AO2
94908KDBQ DBQ20071109193510111/09/07 19:35:31  5-MIN KDBQ 100135Z AUTO 04004KT 9SM BKN047 03/M02 A3013 890 67 -200 040/04 RMK AO2
94908KDBQ DBQ20071109194010111/09/07 19:40:31  5-MIN KDBQ 100140Z AUTO 04004KT 8SM BKN047 03/M02 A3013 890 69 -300 040/04 RMK AO2
94908KDBQ DBQ20071109194510111/09/07 19:45:31  5-MIN KDBQ 100145Z AUTO 05005KT 8SM BKN047 03/M02 A3013 890 69 -300 050/05 RMK AO2
94908KDBQ DBQ20071109195011811/09/07 19:50:31  5-MIN KDBQ 100150Z AUTO 05005KT 7SM BKN047 03/M02 A3013 880 67 -200 050/05 RMK AO2 SLP215 T00331022
94908KDBQ DBQ20071109195510111/09/07 19:55:31  5-MIN KDBQ 100155Z AUTO 04005KT 7SM BKN047 03/M02 A3013 880 72 -300 040/05 RMK AO2
94908KDBQ DBQ20071109200010111/09/07 20:00:31  5-MIN KDBQ 100200Z AUTO 04005KT 8SM OVC045 03/M02 A3014 880 72 -300 040/05 RMK AO2
94908KDBQ DBQ20071109200510111/09/07 20:05:31  5-MIN KDBQ 100205Z AUTO 03006KT 9SM OVC045 03/M02 A3014 880 72 -300 030/06 RMK AO2
94908KDBQ DBQ20071109201010111/09/07 20:10:31  5-MIN KDBQ 100210Z AUTO 04006KT 9SM OVC045 03/M02 A3014 880 70 -200 040/06 RMK AO2
94908KDBQ DBQ20071109201510111/09/07 20:15:31  5-MIN KDBQ 100215Z AUTO 05006KT 9SM OVC045 03/M02 A3014 870 67 -200 050/06 RMK AO2
94908KDBQ DBQ20071109202010111/09/07 20:20:31  5-MIN KDBQ 100220Z AUTO 04006KT 9SM OVC045 03/M02 A3014 870 69 -300 040/06 RMK AO2
94908KDBQ DBQ20071109202510111/09/07 20:25:31  5-MIN KDBQ 100225Z AUTO 04007KT 9SM OVC045 03/M02 A3015 870 69 -300 040/07 RMK AO2
94908KDBQ DBQ20071109203010111/09/07 20:30:31  5-MIN KDBQ 100230Z AUTO 05006KT 9SM OVC043 03/M02 A3015 870 69 -300 040/06 RMK AO2
94908KDBQ DBQ20071109203510111/09/07 20:35:31  5-MIN KDBQ 100235Z AUTO 05005KT 9SM OVC043 02/M02 A3015 870 72 -400 050/05 RMK AO2
94908KDBQ DBQ20071109204010111/09/07 20:40:31  5-MIN KDBQ 100240Z AUTO 05005KT 8SM BKN043 02/M02 A3015 860 72 -400 050/05 RMK AO2
94908KDBQ DBQ20071109204510111/09/07 20:45:31  5-MIN KDBQ 100245Z AUTO 05006KT 8SM BKN043 02/M03 A3015 870 72 -500 050/06 RMK AO2
94908KDBQ DBQ20071109205012411/09/07 20:50:31  5-MIN KDBQ 100250Z AUTO 05008KT 8SM BKN043 02/M03 A3015 860 69 -400 050/08 RMK AO2 SLP221 T00221028 51016
94908KDBQ DBQ20071109205510111/09/07 20:55:31  5-MIN KDBQ 100255Z AUTO 05008KT 9SM SCT043 02/M03 A3016 860 69 -400 050/08 RMK AO2
94908KDBQ DBQ20071109210010111/09/07 21:00:31  5-MIN KDBQ 100300Z AUTO 05007KT 9SM FEW043 02/M03 A3016 860 72 -500 050/07 RMK AO2
94908KDBQ DBQ20071109210510111/09/07 21:05:31  5-MIN KDBQ 100305Z AUTO 05007KT 9SM FEW043 02/M03 A3016 860 72 -500 050/07 RMK AO2
94908KDBQ DBQ20071109211010111/09/07 21:10:31  5-MIN KDBQ 100310Z AUTO 05006KT 9SM FEW041 01/M03 A3016 860 75 -500 050/06 RMK AO2
94908KDBQ DBQ20071109211509811/09/07 21:15:31  5-MIN KDBQ 100315Z AUTO 05007KT 9SM CLR 01/M03 A3016 860 75 -500 050/07 RMK AO2
94908KDBQ DBQ20071109212009811/09/07 21:20:31  5-MIN KDBQ 100320Z AUTO 05007KT 9SM CLR 01/M03 A3016 860 75 -500 050/07 RMK AO2
94908KDBQ DBQ20071109212509811/09/07 21:25:31  5-MIN KDBQ 100325Z AUTO 05007KT 9SM CLR 01/M03 A3016 860 75 -500 050/07 RMK AO2
94908KDBQ DBQ20071109213009811/09/07 21:30:31  5-MIN KDBQ 100330Z AUTO 06007KT 9SM CLR 02/M03 A3016 860 72 -500 060/07 RMK AO2
94908KDBQ DBQ20071109213509811/09/07 21:35:31  5-MIN KDBQ 100335Z AUTO 05006KT 9SM CLR 01/M03 A3016 860 75 -500 050/06 RMK AO2
94908KDBQ DBQ20071109214009811/09/07 21:40:31  5-MIN KDBQ 100340Z AUTO 05006KT 9SM CLR 01/M03 A3016 860 75 -500 050/06 RMK AO2
94908KDBQ DBQ20071109214509911/09/07 21:45:31  5-MIN KDBQ 100345Z AUTO 05006KT 10SM CLR 01/M03 A3016 850 75 -500 050/06 RMK AO2
94908KDBQ DBQ20071109215011511/09/07 21:50:31  5-MIN KDBQ 100350Z AUTO 05006KT 9SM CLR 01/M03 A3016 850 78 -600 050/06 RMK AO2 SLP225 T00061028
94908KDBQ DBQ20071109215509811/09/07 21:55:31  5-MIN KDBQ 100355Z AUTO 05006KT 9SM CLR 00/M03 A3016 850 78 -700 050/06 RMK AO2
94908KDBQ DBQ20071109220009811/09/07 22:00:31  5-MIN KDBQ 100400Z AUTO 06006KT 9SM CLR 01/M03 A3016 850 75 -600 050/06 RMK AO2
94908KDBQ DBQ20071109220509911/09/07 22:05:31  5-MIN KDBQ 100405Z AUTO 05006KT 10SM CLR 01/M03 A3016 850 75 -600 050/06 RMK AO2
94908KDBQ DBQ20071109221009811/09/07 22:10:31  5-MIN KDBQ 100410Z AUTO 05006KT 9SM CLR 01/M03 A3016 850 75 -600 050/06 RMK AO2
94908KDBQ DBQ20071109221509811/09/07 22:15:31  5-MIN KDBQ 100415Z AUTO 05005KT 9SM CLR 00/M03 A3017 850 78 -700 040/05 RMK AO2
94908KDBQ DBQ20071109222009811/09/07 22:20:31  5-MIN KDBQ 100420Z AUTO 05006KT 9SM CLR 00/M03 A3017 850 78 -700 040/06 RMK AO2
94908KDBQ DBQ20071109222509811/09/07 22:25:31  5-MIN KDBQ 100425Z AUTO 04006KT 9SM CLR 00/M03 A3017 840 78 -700 040/06 RMK AO2
94908KDBQ DBQ20071109223009811/09/07 22:30:31  5-MIN KDBQ 100430Z AUTO 03006KT 9SM CLR 00/M03 A3018 840 78 -700 030/06 RMK AO2
94908KDBQ DBQ20071109223509811/09/07 22:35:31  5-MIN KDBQ 100435Z AUTO 04007KT 9SM CLR 00/M03 A3017 850 78 -700 040/07 RMK AO2
94908KDBQ DBQ20071109224009811/09/07 22:40:31  5-MIN KDBQ 100440Z AUTO 04006KT 9SM CLR 00/M03 A3017 850 78 -700 040/06 RMK AO2
94908KDBQ DBQ20071109224509911/09/07 22:45:31  5-MIN KDBQ 100445Z AUTO 05006KT 9SM CLR M01/M03 A3017 850 81 -800 050/06 RMK AO2
94908KDBQ DBQ20071109225011611/09/07 22:50:31  5-MIN KDBQ 100450Z AUTO 05006KT 9SM CLR M01/M03 A3017 850 81 -800 050/06 RMK AO2 SLP226 T10061033
94908KDBQ DBQ20071109225509811/09/07 22:55:31  5-MIN KDBQ 100455Z AUTO 05006KT 9SM CLR 00/M03 A3017 850 78 -700 050/06 RMK AO2
94908KDBQ DBQ20071109230009811/09/07 23:00:31  5-MIN KDBQ 100500Z AUTO 05006KT 9SM CLR 00/M03 A3017 850 78 -700 050/06 RMK AO2
94908KDBQ DBQ20071109230509911/09/07 23:05:31  5-MIN KDBQ 100505Z AUTO 05006KT 9SM CLR M01/M03 A3017 850 81 -800 050/06 RMK AO2
94908KDBQ DBQ20071109231009911/09/07 23:10:31  5-MIN KDBQ 100510Z AUTO 05006KT 9SM CLR M01/M03 A3017 850 81 -800 050/06 RMK AO2
94908KDBQ DBQ20071109231509911/09/07 23:15:31  5-MIN KDBQ 100515Z AUTO 05007KT 9SM CLR M01/M03 A3017 850 81 -800 050/07 RMK AO2
94908KDBQ DBQ20071109232009911/09/07 23:20:31  5-MIN KDBQ 100520Z AUTO 05007KT 9SM CLR M01/M03 A3017 850 81 -800 050/07 RMK AO2
94908KDBQ DBQ20071109232509911/09/07 23:25:31  5-MIN KDBQ 100525Z AUTO 04007KT 9SM CLR M01/M03 A3018 840 81 -800 040/07 RMK AO2
94908KDBQ DBQ20071109233009911/09/07 23:30:31  5-MIN KDBQ 100530Z AUTO 04006KT 9SM CLR M01/M03 A3018 840 81 -800 040/06 RMK AO2
94908KDBQ DBQ20071109233509911/09/07 23:35:31  5-MIN KDBQ 100535Z AUTO 04006KT 9SM CLR M01/M03 A3018 840 81 -800 030/06 RMK AO2
94908KDBQ DBQ20071109234009911/09/07 23:40:31  5-MIN KDBQ 100540Z AUTO 04005KT 9SM CLR M01/M03 A3018 840 81 -800 040/05 RMK AO2
94908KDBQ DBQ20071109234509911/09/07 23:45:31  5-MIN KDBQ 100545Z AUTO 04004KT 9SM CLR M01/M04 A3018 840 78 -800 040/04 RMK AO2
94908KDBQ DBQ20071109235014411/09/07 23:50:31  5-MIN KDBQ 100550Z AUTO 04004KT 8SM CLR M01/M04 A3019 830 81 -800 030/04 RMK AO2 SLP232 T10111039 10050 21011 400831022 53012
94908KDBQ DBQ20071109235509911/09/07 23:55:31  5-MIN KDBQ 100555Z AUTO 03004KT 9SM CLR M01/M04 A3019 830 81 -800 030/04 RMK AO2
94908KDBQ DBQ20071110000009911/10/07 00:00:38  5-MIN KDBQ 100600Z AUTO 03004KT 9SM CLR M02/M04 A3019 830 85 -900 030/04 RMK AO2
94908KDBQ DBQ20071110000509911/10/07 00:05:31  5-MIN KDBQ 100605Z AUTO 03004KT 9SM CLR M02/M04 A3019 830 85 -900 030/04 RMK AO2
94908KDBQ DBQ20071110001009911/10/07 00:10:31  5-MIN KDBQ 100610Z AUTO 02003KT 9SM CLR M02/M04 A3019 830 85 -900 020/03 RMK AO2
94908KDBQ DBQ20071110001509911/10/07 00:15:31  5-MIN KDBQ 100615Z AUTO 03004KT 8SM CLR M02/M04 A3019 830 85 -900 030/04 RMK AO2
94908KDBQ DBQ20071110002009911/10/07 00:20:31  5-MIN KDBQ 100620Z AUTO 04003KT 8SM CLR M01/M04 A3019 830 81 -900 040/03 RMK AO2
94908KDBQ DBQ20071110002509911/10/07 00:25:31  5-MIN KDBQ 100625Z AUTO 00000KT 8SM CLR M02/M04 A3020 830 85 -900 000/00 RMK AO2
94908KDBQ DBQ20071110003010011/10/07 00:30:31  5-MIN KDBQ 100630Z AUTO 00000KT 8SM CLR M02/M04 A3020 830 85 -1000 000/00 RMK AO2
94908KDBQ DBQ20071110003510011/10/07 00:35:31  5-MIN KDBQ 100635Z AUTO 00000KT 8SM CLR M02/M05 A3020 820 81 -1000 000/00 RMK AO2
94908KDBQ DBQ20071110004009911/10/07 00:40:31  5-MIN KDBQ 100640Z AUTO 00000KT 8SM CLR M02/M04 A3020 820 81 -900 000/00 RMK AO2
94908KDBQ DBQ20071110004510011/10/07 00:45:31  5-MIN KDBQ 100645Z AUTO 00000KT 7SM CLR M02/M04 A3020 820 85 -1000 000/00 RMK AO2
94908KDBQ DBQ20071110005011711/10/07 00:50:31  5-MIN KDBQ 100650Z AUTO 00000KT 8SM CLR M03/M04 A3019 830 88 -1100 000/00 RMK AO2 SLP235 T10281044
94908KDBQ DBQ20071110005510011/10/07 00:55:31  5-MIN KDBQ 100655Z AUTO 00000KT 7SM CLR M03/M05 A3019 830 85 -1100 000/00 RMK AO2
94908KDBQ DBQ20071110010010011/10/07 01:00:31  5-MIN KDBQ 100700Z AUTO 00000KT 7SM CLR M03/M05 A3019 830 85 -1100 000/00 RMK AO2
94908KDBQ DBQ20071110010510011/10/07 01:05:31  5-MIN KDBQ 100705Z AUTO 00000KT 7SM CLR M02/M04 A3020 830 85 -1000 000/00 RMK AO2
94908KDBQ DBQ20071110011010011/10/07 01:10:31  5-MIN KDBQ 100710Z AUTO 00000KT 7SM CLR M03/M04 A3020 820 88 -1100 000/00 RMK AO2
94908KDBQ DBQ20071110011510011/10/07 01:15:31  5-MIN KDBQ 100715Z AUTO 00000KT 7SM CLR M02/M04 A3020 820 85 -1000 000/00 RMK AO2
94908KDBQ DBQ20071110012010011/10/07 01:20:31  5-MIN KDBQ 100720Z AUTO 00000KT 8SM CLR M03/M06 A3020 820 85 -1100 000/00 RMK AO2
94908KDBQ DBQ20071110012510011/10/07 01:25:31  5-MIN KDBQ 100725Z AUTO 00000KT 8SM CLR M03/M06 A3020 820 85 -1100 000/00 RMK AO2
94908KDBQ DBQ20071110013010011/10/07 01:30:31  5-MIN KDBQ 100730Z AUTO 06003KT 7SM CLR M03/M06 A3020 820 85 -1100 060/03 RMK AO2
94908KDBQ DBQ20071110013510011/10/07 01:35:31  5-MIN KDBQ 100735Z AUTO 00000KT 7SM CLR M04/M06 A3020 820 88 -1200 000/00 RMK AO2
94908KDBQ DBQ20071110014010011/10/07 01:40:31  5-MIN KDBQ 100740Z AUTO 00000KT 7SM CLR M04/M06 A3020 820 88 -1200 000/00 RMK AO2
94908KDBQ DBQ20071110014510011/10/07 01:45:31  5-MIN KDBQ 100745Z AUTO 00000KT 7SM CLR M04/M06 A3020 820 88 -1200 000/00 RMK AO2
94908KDBQ DBQ20071110015011711/10/07 01:50:31  5-MIN KDBQ 100750Z AUTO 00000KT 7SM CLR M03/M06 A3020 820 85 -1100 000/00 RMK AO2 SLP238 T10331056
94908KDBQ DBQ20071110015510011/10/07 01:55:31  5-MIN KDBQ 100755Z AUTO 00000KT 7SM CLR M03/M06 A3020 820 85 -1100 000/00 RMK AO2
94908KDBQ DBQ20071110020010011/10/07 02:00:31  5-MIN KDBQ 100800Z AUTO 00000KT 7SM CLR M03/M06 A3020 820 85 -1100 000/00 RMK AO2
94908KDBQ DBQ20071110020510011/10/07 02:05:31  5-MIN KDBQ 100805Z AUTO 07003KT 7SM CLR M03/M06 A3020 820 85 -1100 070/03 RMK AO2
94908KDBQ DBQ20071110021010011/10/07 02:10:31  5-MIN KDBQ 100810Z AUTO 07003KT 7SM CLR M04/M06 A3020 820 88 -1200 070/03 RMK AO2
94908KDBQ DBQ20071110021510011/10/07 02:15:31  5-MIN KDBQ 100815Z AUTO 07003KT 7SM CLR M03/M06 A3020 820 85 -1100 070/03 RMK AO2
94908KDBQ DBQ20071110022010011/10/07 02:20:31  5-MIN KDBQ 100820Z AUTO 07004KT 7SM CLR M03/M06 A3020 820 85 -1100 070/04 RMK AO2
94908KDBQ DBQ20071110022510011/10/07 02:25:31  5-MIN KDBQ 100825Z AUTO 07006KT 7SM CLR M03/M05 A3020 820 85 -1100 070/06 RMK AO2
94908KDBQ DBQ20071110023010011/10/07 02:30:31  5-MIN KDBQ 100830Z AUTO 07006KT 7SM CLR M02/M04 A3020 830 85 -1000 070/06 RMK AO2
94908KDBQ DBQ20071110023509911/10/07 02:35:31  5-MIN KDBQ 100835Z AUTO 07005KT 7SM CLR M02/M04 A3019 830 81 -900 070/05 RMK AO2
94908KDBQ DBQ20071110024009911/10/07 02:40:31  5-MIN KDBQ 100840Z AUTO 07005KT 7SM CLR M02/M04 A3019 830 85 -900 070/05 RMK AO2
94908KDBQ DBQ20071110024509911/10/07 02:45:31  5-MIN KDBQ 100845Z AUTO 07005KT 7SM CLR M01/M04 A3019 830 81 -800 070/05 RMK AO2
94908KDBQ DBQ20071110025012211/10/07 02:50:31  5-MIN KDBQ 100850Z AUTO 07005KT 7SM CLR M02/M04 A3019 830 85 -900 070/05 RMK AO2 SLP233 T10171039 53010
94908KDBQ DBQ20071110025509911/10/07 02:55:31  5-MIN KDBQ 100855Z AUTO 07005KT 7SM CLR M01/M04 A3019 830 81 -900 070/05 RMK AO2
94908KDBQ DBQ20071110030009911/10/07 03:00:31  5-MIN KDBQ 100900Z AUTO 07004KT 7SM CLR M01/M04 A3019 830 81 -900 070/04 RMK AO2
94908KDBQ DBQ20071110030509911/10/07 03:05:31  5-MIN KDBQ 100905Z AUTO 07004KT 7SM CLR M02/M04 A3019 830 85 -900 060/04 RMK AO2
94908KDBQ DBQ20071110031010011/10/07 03:10:31  5-MIN KDBQ 100910Z AUTO 06004KT 7SM CLR M02/M04 A3019 830 85 -1000 060/04 RMK AO2
94908KDBQ DBQ20071110031510011/10/07 03:15:31  5-MIN KDBQ 100915Z AUTO 06003KT 7SM CLR M02/M04 A3019 830 85 -1000 060/03 RMK AO2
94908KDBQ DBQ20071110032010011/10/07 03:20:31  5-MIN KDBQ 100920Z AUTO 05003KT 7SM CLR M03/M05 A3019 830 88 -1100 050/03 RMK AO2
94908KDBQ DBQ20071110032510311/10/07 03:25:31  5-MIN KDBQ 100925Z AUTO 05003KT 6SM BR CLR M03/M05 A3019 830 88 -1100 050/03 RMK AO2
94908KDBQ DBQ20071110033010311/10/07 03:30:31  5-MIN KDBQ 100930Z AUTO 00000KT 6SM BR CLR M04/M06 A3019 830 88 -1200 000/00 RMK AO2
94908KDBQ DBQ20071110033510311/10/07 03:35:31  5-MIN KDBQ 100935Z AUTO 00000KT 6SM HZ CLR M03/M06 A3019 830 81 -1100 000/00 RMK AO2
94908KDBQ DBQ20071110034010311/10/07 03:40:31  5-MIN KDBQ 100940Z AUTO 00000KT 6SM BR CLR M03/M05 A3020 820 85 -1100 000/00 RMK AO2
94908KDBQ DBQ20071110034510311/10/07 03:45:31  5-MIN KDBQ 100945Z AUTO 00000KT 6SM BR CLR M03/M05 A3020 820 85 -1100 000/00 RMK AO2
94908KDBQ DBQ20071110035012011/10/07 03:50:31  5-MIN KDBQ 100950Z AUTO 00000KT 6SM BR CLR M03/M06 A3020 820 85 -1100 000/00 RMK AO2 SLP237 T10331056
94908KDBQ DBQ20071110035510311/10/07 03:55:31  5-MIN KDBQ 100955Z AUTO 00000KT 6SM BR CLR M03/M06 A3020 820 85 -1100 000/00 RMK AO2
94908KDBQ DBQ20071110040010311/10/07 04:00:31  5-MIN KDBQ 101000Z AUTO 00000KT 6SM HZ CLR M03/M06 A3020 820 81 -1100 000/00 RMK AO2
94908KDBQ DBQ20071110040510311/10/07 04:05:31  5-MIN KDBQ 101005Z AUTO 00000KT 5SM BR CLR M03/M05 A3021 820 88 -1100 000/00 RMK AO2
94908KDBQ DBQ20071110041010311/10/07 04:10:31  5-MIN KDBQ 101010Z AUTO 00000KT 6SM BR CLR M03/M06 A3021 810 85 -1200 000/00 RMK AO2
94908KDBQ DBQ20071110041510311/10/07 04:15:31  5-MIN KDBQ 101015Z AUTO 00000KT 6SM BR CLR M03/M05 A3021 810 85 -1100 000/00 RMK AO2
94908KDBQ DBQ20071110042010311/10/07 04:20:31  5-MIN KDBQ 101020Z AUTO 00000KT 6SM BR CLR M03/M05 A3021 810 88 -1200 000/00 RMK AO2
94908KDBQ DBQ20071110042510311/10/07 04:25:31  5-MIN KDBQ 101025Z AUTO 00000KT 6SM BR CLR M04/M06 A3021 810 88 -1200 000/00 RMK AO2
94908KDBQ DBQ20071110043010311/10/07 04:30:31  5-MIN KDBQ 101030Z AUTO 00000KT 6SM BR CLR M04/M06 A3021 810 88 -1200 000/00 RMK AO2
94908KDBQ DBQ20071110043510311/10/07 04:35:31  5-MIN KDBQ 101035Z AUTO 00000KT 6SM BR CLR M03/M06 A3021 810 85 -1200 000/00 RMK AO2
94908KDBQ DBQ20071110044010311/10/07 04:40:31  5-MIN KDBQ 101040Z AUTO 00000KT 6SM BR CLR M03/M05 A3020 820 85 -1100 000/00 RMK AO2
94908KDBQ DBQ20071110044510311/10/07 04:45:31  5-MIN KDBQ 101045Z AUTO 00000KT 5SM BR CLR M03/M05 A3020 820 88 -1100 000/00 RMK AO2
94908KDBQ DBQ20071110045012011/10/07 04:50:31  5-MIN KDBQ 101050Z AUTO 00000KT 5SM BR CLR M03/M05 A3020 820 85 -1100 000/00 RMK AO2 SLP239 T10281050
94908KDBQ DBQ20071110045510311/10/07 04:55:31  5-MIN KDBQ 101055Z AUTO 00000KT 5SM BR CLR M03/M05 A3020 820 85 -1100 000/00 RMK AO2
94908KDBQ DBQ20071110050010311/10/07 05:00:31  5-MIN KDBQ 101100Z AUTO 11004KT 5SM BR CLR M03/M05 A3020 820 88 -1100 110/04 RMK AO2
94908KDBQ DBQ20071110050510311/10/07 05:05:31  5-MIN KDBQ 101105Z AUTO 10004KT 6SM BR CLR M03/M05 A3020 820 85 -1100 100/04 RMK AO2
94908KDBQ DBQ20071110051010311/10/07 05:10:31  5-MIN KDBQ 101110Z AUTO 10005KT 6SM BR CLR M02/M04 A3020 820 85 -1000 100/05 RMK AO2
94908KDBQ DBQ20071110051510311/10/07 05:15:31  5-MIN KDBQ 101115Z AUTO 10005KT 6SM BR CLR M02/M04 A3020 820 85 -1000 100/05 RMK AO2
94908KDBQ DBQ20071110052010311/10/07 05:20:31  5-MIN KDBQ 101120Z AUTO 11005KT 6SM BR CLR M02/M04 A3020 820 85 -1000 100/05 RMK AO2
94908KDBQ DBQ20071110052510311/10/07 05:25:31  5-MIN KDBQ 101125Z AUTO 11004KT 6SM BR CLR M02/M04 A3020 820 85 -1000 110/04 RMK AO2
94908KDBQ DBQ20071110053010311/10/07 05:30:31  5-MIN KDBQ 101130Z AUTO 00000KT 6SM BR CLR M03/M04 A3020 820 88 -1100 000/00 RMK AO2
94908KDBQ DBQ20071110053510311/10/07 05:35:31  5-MIN KDBQ 101135Z AUTO 00000KT 6SM BR CLR M03/M04 A3020 820 88 -1100 000/00 RMK AO2
94908KDBQ DBQ20071110054010311/10/07 05:40:31  5-MIN KDBQ 101140Z AUTO 11003KT 6SM BR CLR M03/M05 A3020 820 85 -1100 110/03 RMK AO2
94908KDBQ DBQ20071110054510311/10/07 05:45:31  5-MIN KDBQ 101145Z AUTO 11004KT 6SM BR CLR M03/M04 A3020 820 88 -1100 110/04 RMK AO2
94908KDBQ DBQ20071110055013311/10/07 05:50:31  5-MIN KDBQ 101150Z 11004KT 6SM BR CLR M03/M04 A3021 810 88 -1100 110/04 RMK AO2 SLP240 T10281044 11011 21039 50001
94908KDBQ DBQ20071110055509811/10/07 05:55:31  5-MIN KDBQ 101155Z 11003KT 6SM BR CLR M02/M04 A3021 810 85 -1000 110/03 RMK AO2
94908KDBQ DBQ20071110060009811/10/07 06:00:31  5-MIN KDBQ 101200Z 11003KT 6SM BR CLR M02/M04 A3021 810 85 -1000 110/03 RMK AO2
94908KDBQ DBQ20071110060509811/10/07 06:05:31  5-MIN KDBQ 101205Z 11005KT 6SM BR CLR M02/M04 A3020 820 85 -1000 110/05 RMK AO2
94908KDBQ DBQ20071110061009811/10/07 06:10:31  5-MIN KDBQ 101210Z 10005KT 6SM BR CLR M03/M04 A3020 820 88 -1100 100/05 RMK AO2
94908KDBQ DBQ20071110061509811/10/07 06:15:31  5-MIN KDBQ 101215Z 11004KT 6SM BR CLR M03/M05 A3020 820 85 -1100 110/04 RMK AO2
94908KDBQ DBQ20071110062009811/10/07 06:20:31  5-MIN KDBQ 101220Z 12007KT 6SM BR CLR M02/M04 A3020 820 88 -1000 110/07 RMK AO2
94908KDBQ DBQ20071110062509711/10/07 06:25:31  5-MIN KDBQ 101225Z 12004KT 6SM BR CLR M02/M04 A3021 810 85 -900 120/04 RMK AO2
94908KDBQ DBQ20071110063009811/10/07 06:30:31  5-MIN KDBQ 101230Z 13003KT 6SM BR CLR M02/M04 A3021 810 88 -1000 130/03 RMK AO2
94908KDBQ DBQ20071110063509811/10/07 06:35:31  5-MIN KDBQ 101235Z 12005KT 6SM BR CLR M02/M04 A3021 810 88 -1000 120/05 RMK AO2
94908KDBQ DBQ20071110064009811/10/07 06:40:31  5-MIN KDBQ 101240Z 12004KT 6SM BR CLR M02/M04 A3022 810 85 -1000 120/04 RMK AO2
94908KDBQ DBQ20071110064509811/10/07 06:45:31  5-MIN KDBQ 101245Z 12005KT 5SM BR CLR M02/M04 A3021 810 85 -1000 120/05 RMK AO2
94908KDBQ DBQ20071110065011511/10/07 06:50:31  5-MIN KDBQ 101250Z 13004KT 5SM BR CLR M02/M04 A3021 810 85 -1000 130/04 RMK AO2 SLP242 T10221044
94908KDBQ DBQ20071110065509811/10/07 06:55:31  5-MIN KDBQ 101255Z 12005KT 5SM BR CLR M02/M04 A3021 810 88 -1000 120/05 RMK AO2
94908KDBQ DBQ20071110114509111/10/07 11:45:31  5-MIN KDBQ 101745Z 15013KT 10SM CLR 06/M01 A3015 870 62 0 150/13 RMK AO2
94908KDBQ DBQ20071110115013211/10/07 11:50:31  5-MIN KDBQ 101750Z 17012G21KT 10SM CLR 06/M01 A3015 860 62 0 170/12G21 RMK AO2 SLP222 T00611006 10061 21028 50005
94908KDBQ DBQ20071110115509611/10/07 11:55:31  5-MIN KDBQ 101755Z 16011G21KT 9SM CLR 06/M01 A3015 860 62 0 160/11G21 RMK AO2
94908KDBQ DBQ20071110120009211/10/07 12:00:31  5-MIN KDBQ 101800Z 17012KT 9SM CLR 07/M01 A3016 860 60 100 170/12 RMK AO2
94908KDBQ DBQ20071110120509311/10/07 12:05:31  5-MIN KDBQ 101805Z 17012KT 10SM CLR 07/M01 A3016 860 60 100 170/12 RMK AO2
94908KDBQ DBQ20071110121009311/10/07 12:10:31  5-MIN KDBQ 101810Z 17012KT 10SM CLR 07/M01 A3016 850 60 100 160/12 RMK AO2
94908KDBQ DBQ20071110121509311/10/07 12:15:31  5-MIN KDBQ 101815Z 17011KT 10SM CLR 07/M01 A3016 860 60 100 170/11 RMK AO2
94908KDBQ DBQ20071110122009311/10/07 12:20:31  5-MIN KDBQ 101820Z 17010KT 10SM CLR 07/M01 A3015 870 60 100 170/10 RMK AO2
94908KDBQ DBQ20071110122509311/10/07 12:25:31  5-MIN KDBQ 101825Z 16013KT 10SM CLR 07/M01 A3014 870 57 200 160/13 RMK AO2
94908KDBQ DBQ20071110123010011/10/07 12:30:31  5-MIN KDBQ 101830Z 17015KT 10SM CLR 08/M01 A3014 880 55 300 170/15 RMK AO2 PRESFR
94908KDBQ DBQ20071110123510011/10/07 12:35:31  5-MIN KDBQ 101835Z 18015KT 10SM CLR 07/M01 A3013 880 57 200 180/15 RMK AO2 PRESFR
94908KDBQ DBQ20071110124009311/10/07 12:40:31  5-MIN KDBQ 101840Z 17015KT 10SM CLR 07/M01 A3013 880 57 200 160/15 RMK AO2
94908KDBQ DBQ20071110124509211/10/07 12:45:31  5-MIN KDBQ 101845Z 17013KT 9SM CLR 07/M01 A3013 880 60 100 170/13 RMK AO2
94908KDBQ DBQ20071110125011511/10/07 12:50:31  5-MIN KDBQ 101850Z 17012G17KT 9SM CLR 07/M01 A3013 880 57 200 170/12G17 RMK AO2 SLP213 T00721006
94908KDBQ DBQ20071110125509811/10/07 12:55:31  5-MIN KDBQ 101855Z 16014G17KT 9SM CLR 07/M01 A3012 890 57 200 160/14G17 RMK AO2
94908KDBQ DBQ20071110130009311/10/07 13:00:31  5-MIN KDBQ 101900Z 17013KT 10SM CLR 08/M01 A3012 900 55 300 170/13 RMK AO2
94908KDBQ DBQ20071110130509311/10/07 13:05:31  5-MIN KDBQ 101905Z 16014KT 10SM CLR 08/M01 A3011 900 55 300 160/14 RMK AO2
94908KDBQ DBQ20071110131009211/10/07 13:10:31  5-MIN KDBQ 101910Z 17013KT 9SM CLR 07/M01 A3011 900 57 200 170/13 RMK AO2
94908KDBQ DBQ20071110131509211/10/07 13:15:31  5-MIN KDBQ 101915Z 15012KT 9SM CLR 07/M01 A3010 910 57 200 150/12 RMK AO2
94908KDBQ DBQ20071110132009211/10/07 13:20:31  5-MIN KDBQ 101920Z 16011KT 9SM CLR 08/M01 A3010 910 55 300 160/11 RMK AO2
94908KDBQ DBQ20071110132509811/10/07 13:25:31  5-MIN KDBQ 101925Z 17012G18KT 9SM CLR 08/M01 A3010 910 55 300 170/12G18 RMK AO2
94908KDBQ DBQ20071110133009911/10/07 13:30:31  5-MIN KDBQ 101930Z 17013G18KT 10SM CLR 08/M01 A3010 910 53 400 170/13G18 RMK AO2
94908KDBQ DBQ20071110133509311/10/07 13:35:31  5-MIN KDBQ 101935Z 18014KT 10SM CLR 08/M01 A3010 910 53 400 180/14 RMK AO2
94908KDBQ DBQ20071110134009311/10/07 13:40:31  5-MIN KDBQ 101940Z 18014KT 10SM CLR 08/M01 A3009 920 53 400 180/14 RMK AO2
94908KDBQ DBQ20071110134510611/10/07 13:45:31  5-MIN KDBQ 101945Z 17016G21KT 10SM CLR 08/M01 A3008 930 53 400 170/16G21 RMK AO2 PRESFR
94908KDBQ DBQ20071110135012511/10/07 13:50:31  5-MIN KDBQ 101950Z 17013G17KT 10SM CLR 08/M01 A3007 940 53 400 170/13G17 RMK AO2 PRESFR SLP194 T00831006 $
94908KDBQ DBQ20071110135509111/10/07 13:55:31  5-MIN KDBQ 101955Z 9SM CLR 08/M01 A3007 940 53 400 M /M RMK AO2 PRESFR $
94908KDBQ DBQ20071110140010711/10/07 14:00:31  5-MIN KDBQ 102000Z 17013G17KT 9SM CLR 08/M01 A3006 950 55 300 170/13G17 RMK AO2 PRESFR $
94908KDBQ DBQ20071110140510711/10/07 14:05:31  5-MIN KDBQ 102005Z 17013G17KT 9SM CLR 08/M01 A3005 960 53 400 170/13G17 RMK AO2 PRESFR $
94908KDBQ DBQ20071110141010011/10/07 14:10:31  5-MIN KDBQ 102010Z 17013G17KT 9SM CLR 08/M01 A3006 950 55 400 170/13G17 RMK AO2 $
94908KDBQ DBQ20071110141510011/10/07 14:15:31  5-MIN KDBQ 102015Z 17013G17KT 9SM CLR 08/M01 A3006 950 53 400 170/13G17 RMK AO2 $
94908KDBQ DBQ20071110142010011/10/07 14:20:31  5-MIN KDBQ 102020Z 17013G17KT 9SM CLR 08/M01 A3007 940 55 300 170/13G17 RMK AO2 $
94908KDBQ DBQ20071110142509411/10/07 14:25:31  5-MIN KDBQ 102025Z 17012KT 9SM CLR 08/M01 A3007 940 55 300 170/12 RMK AO2 $
94908KDBQ DBQ20071110143009411/10/07 14:30:31  5-MIN KDBQ 102030Z 17014KT 9SM CLR 08/M01 A3007 940 55 300 170/14 RMK AO2 $
94908KDBQ DBQ20071110143509411/10/07 14:35:31  5-MIN KDBQ 102035Z 17013KT 9SM CLR 08/M01 A3006 950 55 400 170/13 RMK AO2 $
94908KDBQ DBQ20071110144009411/10/07 14:40:31  5-MIN KDBQ 102040Z 16012KT 9SM CLR 08/M01 A3006 950 55 400 160/12 RMK AO2 $
94908KDBQ DBQ20071110144509411/10/07 14:45:31  5-MIN KDBQ 102045Z 16011KT 9SM CLR 08/M01 A3006 950 55 400 160/11 RMK AO2 $
94908KDBQ DBQ20071110145011711/10/07 14:50:31  5-MIN KDBQ 102050Z 17010KT 9SM CLR 08/M01 A3006 950 55 300 160/10 RMK AO2 SLP188 T00781006 58022 $
94908KDBQ DBQ20071110145509411/10/07 14:55:31  5-MIN KDBQ 102055Z 16011KT 9SM CLR 08/M01 A3005 950 55 400 160/11 RMK AO2 $
94908KDBQ DBQ20071110150009411/10/07 15:00:31  5-MIN KDBQ 102100Z 17010KT 9SM CLR 08/M01 A3005 960 55 400 170/10 RMK AO2 $
94908KDBQ DBQ20071110150510011/10/07 15:05:31  5-MIN KDBQ 102105Z 17013G18KT 9SM CLR 08/M01 A3005 960 55 400 170/13G18 RMK AO2 $
94908KDBQ DBQ20071110151009411/10/07 15:10:31  5-MIN KDBQ 102110Z 16012KT 9SM CLR 08/M01 A3004 970 55 400 160/12 RMK AO2 $
94908KDBQ DBQ20071110151509411/10/07 15:15:31  5-MIN KDBQ 102115Z 17012KT 9SM CLR 08/M01 A3004 970 55 400 170/12 RMK AO2 $
94908KDBQ DBQ20071110152009411/10/07 15:20:31  5-MIN KDBQ 102120Z 17012KT 9SM CLR 08/M01 A3004 970 55 400 170/12 RMK AO2 $
94908KDBQ DBQ20071110152509411/10/07 15:25:31  5-MIN KDBQ 102125Z 16013KT 9SM CLR 08/M01 A3003 970 55 400 160/13 RMK AO2 $
94908KDBQ DBQ20071110153009511/10/07 15:30:31  5-MIN KDBQ 102130Z 17014KT 10SM CLR 08/M01 A3003 970 55 400 170/14 RMK AO2 $
94908KDBQ DBQ20071110153509411/10/07 15:35:31  5-MIN KDBQ 102135Z 16012KT 9SM CLR 08/M01 A3003 980 55 400 160/12 RMK AO2 $
94908KDBQ DBQ20071110154009411/10/07 15:40:31  5-MIN KDBQ 102140Z 16010KT 9SM CLR 08/M01 A3003 980 55 400 160/10 RMK AO2 $
94908KDBQ DBQ20071110154509411/10/07 15:45:31  5-MIN KDBQ 102145Z 16011KT 9SM CLR 08/M01 A3002 990 55 400 160/11 RMK AO2 $
94908KDBQ DBQ20071110155011711/10/07 15:50:31  5-MIN KDBQ 102150Z 16014G19KT 9SM CLR 08/M01 A3002 990 55 400 160/14G19 RMK AO2 SLP175 T00781006 $
94908KDBQ DBQ20071110155510011/10/07 15:55:31  5-MIN KDBQ 102155Z 16012G19KT 9SM CLR 07/M01 A3001 990 57 300 160/12G19 RMK AO2 $
94908KDBQ DBQ20071110160009611/10/07 16:00:31  5-MIN KDBQ 102200Z 16011KT 10SM CLR 07/M01 A3001 1000 57 300 160/11 RMK AO2 $
94908KDBQ DBQ20071110160509511/10/07 16:05:31  5-MIN KDBQ 102205Z 16011KT 9SM CLR 07/M01 A3000 1000 57 300 160/11 RMK AO2 $
94908KDBQ DBQ20071110161009511/10/07 16:10:31  5-MIN KDBQ 102210Z 16011KT 9SM CLR 07/M01 A3000 1000 55 300 160/11 RMK AO2 $
94908KDBQ DBQ20071110161509511/10/07 16:15:31  5-MIN KDBQ 102215Z 16013KT 9SM CLR 07/M01 A3000 1000 55 300 160/13 RMK AO2 $
94908KDBQ DBQ20071110162009511/10/07 16:20:31  5-MIN KDBQ 102220Z 16012KT 9SM CLR 07/M01 A3000 1000 55 300 160/12 RMK AO2 $
94908KDBQ DBQ20071110162509511/10/07 16:25:31  5-MIN KDBQ 102225Z 16014KT 9SM CLR 07/M01 A3000 1010 55 400 160/14 RMK AO2 $
94908KDBQ DBQ20071110163009511/10/07 16:30:31  5-MIN KDBQ 102230Z 16011KT 9SM CLR 07/M01 A3000 1010 55 400 160/11 RMK AO2 $
94908KDBQ DBQ20071110163509511/10/07 16:35:31  5-MIN KDBQ 102235Z 16012KT 9SM CLR 07/M01 A3000 1010 55 400 160/12 RMK AO2 $
94908KDBQ DBQ20071110164009511/10/07 16:40:31  5-MIN KDBQ 102240Z 16010KT 9SM CLR 07/M01 A3000 1010 57 300 160/10 RMK AO2 $
94908KDBQ DBQ20071110164510111/10/07 16:45:31  5-MIN KDBQ 102245Z 17010G17KT 9SM CLR 07/M01 A2999 1010 57 300 170/10G17 RMK AO2 $
94908KDBQ DBQ20071110165011811/10/07 16:50:31  5-MIN KDBQ 102250Z 16012G17KT 9SM CLR 07/M01 A2999 1020 57 300 160/12G17 RMK AO2 SLP165 T00671011 $
94908KDBQ DBQ20071110165509611/10/07 16:55:31  5-MIN KDBQ 102255Z 17013KT 10SM CLR 07/M01 A2999 1020 57 300 170/13 RMK AO2 $
94908KDBQ DBQ20071110170009611/10/07 17:00:31  5-MIN KDBQ 102300Z 17012KT 10SM CLR 07/M01 A2999 1010 57 300 160/12 RMK AO2 $
94908KDBQ DBQ20071110170509611/10/07 17:05:31  5-MIN KDBQ 102305Z 16010KT 10SM CLR 07/M01 A2999 1020 57 300 160/10 RMK AO2 $
94908KDBQ DBQ20071110171009611/10/07 17:10:31  5-MIN KDBQ 102310Z 16011KT 10SM CLR 07/M01 A2998 1020 57 300 160/11 RMK AO2 $
94908KDBQ DBQ20071110171509611/10/07 17:15:31  5-MIN KDBQ 102315Z 16014KT 10SM CLR 07/M01 A2998 1030 57 300 160/14 RMK AO2 $
94908KDBQ DBQ20071110172009611/10/07 17:20:31  5-MIN KDBQ 102320Z 16012KT 10SM CLR 07/M01 A2997 1030 57 300 160/12 RMK AO2 $
94908KDBQ DBQ20071110172509611/10/07 17:25:31  5-MIN KDBQ 102325Z 16013KT 10SM CLR 07/M01 A2997 1030 57 300 160/13 RMK AO2 $
94908KDBQ DBQ20071110173009611/10/07 17:30:31  5-MIN KDBQ 102330Z 15013KT 10SM CLR 07/M01 A2996 1040 57 300 150/13 RMK AO2 $
94908KDBQ DBQ20071110173509611/10/07 17:35:31  5-MIN KDBQ 102335Z 15015KT 10SM CLR 07/M01 A2996 1040 57 300 150/15 RMK AO2 $
94908KDBQ DBQ20071110174010211/10/07 17:40:31  5-MIN KDBQ 102340Z 15015G21KT 10SM CLR 07/M02 A2996 1040 55 300 150/15G21 RMK AO2 $
94908KDBQ DBQ20071110174510211/10/07 17:45:31  5-MIN KDBQ 102345Z 15015G21KT 10SM CLR 07/M02 A2996 1040 55 300 150/15G21 RMK AO2 $
94908KDBQ DBQ20071110175013711/10/07 17:50:31  5-MIN KDBQ 102350Z 15013G20KT 10SM CLR 07/M02 A2996 1040 55 300 150/13G20 RMK AO2 SLP155 T00671017 10083 20061 56032 $
94908KDBQ DBQ20071110175509611/10/07 17:55:31  5-MIN KDBQ 102355Z 15013KT 10SM CLR 07/M02 A2996 1050 55 300 150/13 RMK AO2 $
94908KDBQ DBQ20071110180009611/10/07 18:00:31  5-MIN KDBQ 110000Z 16014KT 10SM CLR 07/M02 A2996 1040 55 300 160/14 RMK AO2 $
94908KDBQ DBQ20071110180510211/10/07 18:05:31  5-MIN KDBQ 110005Z 16013G19KT 10SM CLR 07/M02 A2996 1040 55 300 160/13G19 RMK AO2 $
94908KDBQ DBQ20071110181009611/10/07 18:10:31  5-MIN KDBQ 110010Z 16011KT 10SM CLR 07/M02 A2996 1040 55 300 160/11 RMK AO2 $
94908KDBQ DBQ20071110181510211/10/07 18:15:31  5-MIN KDBQ 110015Z 16013G19KT 10SM CLR 07/M02 A2996 1040 55 300 160/13G19 RMK AO2 $
94908KDBQ DBQ20071110182010211/10/07 18:20:31  5-MIN KDBQ 110020Z 16014G19KT 10SM CLR 07/M02 A2996 1040 55 300 160/14G19 RMK AO2 $
94908KDBQ DBQ20071110182509611/10/07 18:25:31  5-MIN KDBQ 110025Z 16013KT 10SM CLR 07/M02 A2995 1050 55 300 160/13 RMK AO2 $
94908KDBQ DBQ20071110183009611/10/07 18:30:31  5-MIN KDBQ 110030Z 16013KT 10SM CLR 07/M02 A2995 1050 55 300 150/13 RMK AO2 $
94908KDBQ DBQ20071110183509611/10/07 18:35:31  5-MIN KDBQ 110035Z 16013KT 10SM CLR 06/M02 A2995 1050 57 300 160/13 RMK AO2 $
94908KDBQ DBQ20071110184009611/10/07 18:40:31  5-MIN KDBQ 110040Z 16014KT 10SM CLR 06/M02 A2995 1050 57 300 160/14 RMK AO2 $
94908KDBQ DBQ20071110184509611/10/07 18:45:31  5-MIN KDBQ 110045Z 16013KT 10SM CLR 06/M02 A2995 1050 57 300 160/13 RMK AO2 $
94908KDBQ DBQ20071110185011911/10/07 18:50:31  5-MIN KDBQ 110050Z 16014G19KT 10SM CLR 06/M02 A2995 1050 57 300 160/14G19 RMK AO2 SLP151 T00611017 $
94908KDBQ DBQ20071110185510211/10/07 18:55:31  5-MIN KDBQ 110055Z 16012G19KT 10SM CLR 07/M02 A2994 1060 55 300 150/12G19 RMK AO2 $
94908KDBQ DBQ20071110190009611/10/07 19:00:31  5-MIN KDBQ 110100Z 16012KT 10SM CLR 07/M02 A2995 1050 55 300 160/12 RMK AO2 $
94908KDBQ DBQ20071110190510211/10/07 19:05:31  5-MIN KDBQ 110105Z 16012G18KT 10SM CLR 07/M02 A2994 1060 53 300 160/12G18 RMK AO2 $
94908KDBQ DBQ20071110191010511/10/07 19:10:31  5-MIN KDBQ 110110Z 15016G19KT 10SM FEW120 07/M02 A2993 1070 53 400 150/16G19 RMK AO2 $
94908KDBQ DBQ20071110191509911/10/07 19:15:31  5-MIN KDBQ 110115Z 16014KT 10SM FEW110 07/M02 A2994 1060 53 400 160/14 RMK AO2 $
94908KDBQ DBQ20071110192010411/10/07 19:20:31  5-MIN KDBQ 110120Z AUTO 16015KT 10SM SCT110 07/M02 A2993 1070 53 400 160/15 RMK AO2 $
94908KDBQ DBQ20071110192510411/10/07 19:25:31  5-MIN KDBQ 110125Z AUTO 16014KT 10SM SCT120 07/M02 A2993 1070 53 400 160/14 RMK AO2 $
94908KDBQ DBQ20071110193010411/10/07 19:30:31  5-MIN KDBQ 110130Z AUTO 16014KT 10SM SCT120 07/M02 A2993 1070 53 400 160/14 RMK AO2 $
94908KDBQ DBQ20071110193510411/10/07 19:35:31  5-MIN KDBQ 110135Z AUTO 16015KT 10SM SCT120 07/M02 A2993 1070 53 400 160/15 RMK AO2 $
94908KDBQ DBQ20071110194010411/10/07 19:40:31  5-MIN KDBQ 110140Z AUTO 16014KT 10SM SCT120 07/M02 A2993 1070 53 400 160/14 RMK AO2 $
94908KDBQ DBQ20071110194510411/10/07 19:45:31  5-MIN KDBQ 110145Z AUTO 16014KT 10SM FEW120 07/M02 A2993 1070 53 400 160/14 RMK AO2 $
94908KDBQ DBQ20071110195012711/10/07 19:50:31  5-MIN KDBQ 110150Z AUTO 16009G20KT 10SM FEW120 07/M02 A2993 1070 53 400 160/09G20 RMK AO2 SLP144 T00671022 $
94908KDBQ DBQ20071110195511011/10/07 19:55:31  5-MIN KDBQ 110155Z AUTO 16010G17KT 10SM SCT055 07/M02 A2994 1060 55 300 160/10G17 RMK AO2 $
94908KDBQ DBQ20071110200011011/10/07 20:00:31  5-MIN KDBQ 110200Z AUTO 16010G17KT 10SM BKN055 07/M02 A2994 1060 53 300 160/10G17 RMK AO2 $
94908KDBQ DBQ20071110200510411/10/07 20:05:31  5-MIN KDBQ 110205Z AUTO 15007KT 10SM BKN050 07/M02 A2995 1050 51 400 150/07 RMK AO2 $
94908KDBQ DBQ20071110201010411/10/07 20:10:31  5-MIN KDBQ 110210Z AUTO 15008KT 10SM BKN050 07/M02 A2995 1050 51 400 150/08 RMK AO2 $
94908KDBQ DBQ20071110201510411/10/07 20:15:31  5-MIN KDBQ 110215Z AUTO 15008KT 10SM BKN050 07/M02 A2994 1060 51 400 150/08 RMK AO2 $
94908KDBQ DBQ20071110202010411/10/07 20:20:31  5-MIN KDBQ 110220Z AUTO 17007KT 10SM OVC050 07/M02 A2994 1060 53 400 160/07 RMK AO2 $
94908KDBQ DBQ20071110202510411/10/07 20:25:31  5-MIN KDBQ 110225Z AUTO 16009KT 10SM OVC050 07/M02 A2994 1060 53 400 160/09 RMK AO2 $
94908KDBQ DBQ20071110203010411/10/07 20:30:31  5-MIN KDBQ 110230Z AUTO 16010KT 10SM OVC050 07/M02 A2994 1060 53 400 160/10 RMK AO2 $
94908KDBQ DBQ20071110203511011/10/07 20:35:31  5-MIN KDBQ 110235Z AUTO 16011G18KT 10SM OVC048 07/M02 A2994 1060 51 400 160/11G18 RMK AO2 $
94908KDBQ DBQ20071110204011011/10/07 20:40:31  5-MIN KDBQ 110240Z AUTO 17011G18KT 10SM OVC048 07/M02 A2994 1060 53 400 170/11G18 RMK AO2 $
94908KDBQ DBQ20071110204510411/10/07 20:45:31  5-MIN KDBQ 110245Z AUTO 17011KT 10SM OVC048 07/M02 A2994 1060 53 400 170/11 RMK AO2 $
94908KDBQ DBQ20071110205012711/10/07 20:50:31  5-MIN KDBQ 110250Z AUTO 17011KT 10SM OVC046 07/M02 A2994 1060 53 400 170/11 RMK AO2 SLP146 T00721017 56033 $
94908KDBQ DBQ20071110205511111/10/07 20:55:31  5-MIN KDBQ 110255Z AUTO 17011KT 10SM BKN046 OVC055 07/M02 A2993 1070 53 400 170/11 RMK AO2 $
94908KDBQ DBQ20071110210010411/10/07 21:00:31  5-MIN KDBQ 110300Z AUTO 16012KT 10SM OVC046 08/M02 A2994 1060 51 500 160/12 RMK AO2 $
94908KDBQ DBQ20071110210510411/10/07 21:05:31  5-MIN KDBQ 110305Z AUTO 17013KT 10SM OVC046 08/M02 A2994 1060 51 500 170/13 RMK AO2 $
94908KDBQ DBQ20071110211010411/10/07 21:10:31  5-MIN KDBQ 110310Z AUTO 17012KT 10SM OVC044 08/M02 A2993 1070 51 500 170/12 RMK AO2 $
94908KDBQ DBQ20071110211510411/10/07 21:15:31  5-MIN KDBQ 110315Z AUTO 17012KT 10SM OVC044 08/M02 A2993 1070 51 500 170/12 RMK AO2 $
94908KDBQ DBQ20071110212010411/10/07 21:20:31  5-MIN KDBQ 110320Z AUTO 17011KT 10SM OVC042 08/M02 A2993 1070 51 500 170/11 RMK AO2 $
94908KDBQ DBQ20071110212510411/10/07 21:25:31  5-MIN KDBQ 110325Z AUTO 17013KT 10SM OVC042 08/M02 A2994 1060 51 500 170/13 RMK AO2 $
94908KDBQ DBQ20071110213010411/10/07 21:30:31  5-MIN KDBQ 110330Z AUTO 16013KT 10SM OVC042 08/M02 A2993 1070 51 500 160/13 RMK AO2 $
94908KDBQ DBQ20071110213510411/10/07 21:35:31  5-MIN KDBQ 110335Z AUTO 16013KT 10SM OVC040 08/M02 A2993 1070 51 500 160/13 RMK AO2 $
94908KDBQ DBQ20071110214010411/10/07 21:40:31  5-MIN KDBQ 110340Z AUTO 16013KT 10SM OVC038 08/M02 A2993 1070 51 500 160/13 RMK AO2 $
94908KDBQ DBQ20071110214511111/10/07 21:45:31  5-MIN KDBQ 110345Z AUTO 16014KT 10SM BKN034 OVC041 08/M02 A2993 1070 51 500 160/14 RMK AO2 $
94908KDBQ DBQ20071110215012811/10/07 21:50:31  5-MIN KDBQ 110350Z AUTO 16014KT 10SM BKN032 OVC041 08/M02 A2993 1070 51 500 160/14 RMK AO2 SLP141 T00781017 $
94908KDBQ DBQ20071110215511111/10/07 21:55:31  5-MIN KDBQ 110355Z AUTO 16014KT 10SM BKN032 OVC040 08/M02 A2993 1070 51 500 160/14 RMK AO2 $
94908KDBQ DBQ20071110220012211/10/07 22:00:31  5-MIN KDBQ 110400Z AUTO 17013KT 10SM -RA OVC034 08/M01 A2992 1080 53 500 160/13 RMK AO2 RAB0359 P0000 $
94908KDBQ DBQ20071110220512211/10/07 22:05:31  5-MIN KDBQ 110405Z AUTO 16013KT 10SM -RA OVC034 08/M01 A2992 1080 53 500 160/13 RMK AO2 RAB0359 P0000 $
94908KDBQ DBQ20071110221012111/10/07 22:10:31  5-MIN KDBQ 110410Z AUTO 17015KT 10SM OVC034 08/M01 A2992 1080 53 500 170/15 RMK AO2 RAB0359E08 P0000 $
94908KDBQ DBQ20071110221512111/10/07 22:15:31  5-MIN KDBQ 110415Z AUTO 17014KT 10SM OVC036 08/M01 A2992 1080 53 500 170/14 RMK AO2 RAB0359E08 P0000 $
94908KDBQ DBQ20071110222012111/10/07 22:20:31  5-MIN KDBQ 110420Z AUTO 17014KT 10SM OVC038 08/M01 A2991 1090 53 500 170/14 RMK AO2 RAB0359E08 P0000 $
94908KDBQ DBQ20071110222512111/10/07 22:25:31  5-MIN KDBQ 110425Z AUTO 17013KT 10SM OVC038 08/M01 A2991 1090 53 500 170/13 RMK AO2 RAB0359E08 P0000 $
94908KDBQ DBQ20071110223012111/10/07 22:30:31  5-MIN KDBQ 110430Z AUTO 17012KT 10SM OVC038 08/M01 A2991 1090 53 500 170/12 RMK AO2 RAB0359E08 P0000 $
94908KDBQ DBQ20071110223512111/10/07 22:35:31  5-MIN KDBQ 110435Z AUTO 17012KT 10SM OVC040 08/M01 A2991 1090 53 500 170/12 RMK AO2 RAB0359E08 P0000 $
94908KDBQ DBQ20071110224012111/10/07 22:40:31  5-MIN KDBQ 110440Z AUTO 17009KT 10SM OVC040 08/M01 A2991 1090 53 500 170/09 RMK AO2 RAB0359E08 P0000 $
94908KDBQ DBQ20071110224512111/10/07 22:45:31  5-MIN KDBQ 110445Z AUTO 17010KT 10SM OVC040 08/M01 A2991 1090 53 500 170/10 RMK AO2 RAB0359E08 P0000 $
94908KDBQ DBQ20071110225013811/10/07 22:50:31  5-MIN KDBQ 110450Z AUTO 17010KT 10SM OVC040 08/M01 A2991 1090 53 500 170/10 RMK AO2 RAB0359E08 SLP135 P0000 T00781011 $
94908KDBQ DBQ20071110225510411/10/07 22:55:31  5-MIN KDBQ 110455Z AUTO 17011KT 10SM OVC040 08/M01 A2991 1090 53 500 170/11 RMK AO2 $
94908KDBQ DBQ20071110230010411/10/07 23:00:31  5-MIN KDBQ 110500Z AUTO 17010KT 10SM OVC042 08/M01 A2990 1090 55 500 170/10 RMK AO2 $
94908KDBQ DBQ20071110230510411/10/07 23:05:31  5-MIN KDBQ 110505Z AUTO 17009KT 10SM OVC042 08/M01 A2990 1090 55 500 170/09 RMK AO2 $
94908KDBQ DBQ20071110231010411/10/07 23:10:31  5-MIN KDBQ 110510Z AUTO 17008KT 10SM OVC042 08/M01 A2990 1100 55 500 170/08 RMK AO2 $
94908KDBQ DBQ20071110231510411/10/07 23:15:31  5-MIN KDBQ 110515Z AUTO 17009KT 10SM OVC042 08/M01 A2990 1100 55 500 170/09 RMK AO2 $
94908KDBQ DBQ20071110232010411/10/07 23:20:31  5-MIN KDBQ 110520Z AUTO 17010KT 10SM OVC042 08/M01 A2990 1100 53 500 160/10 RMK AO2 $
94908KDBQ DBQ20071110232511011/10/07 23:25:31  5-MIN KDBQ 110525Z AUTO 17009G16KT 10SM OVC042 08/M01 A2990 1100 55 500 170/09G16 RMK AO2 $
94908KDBQ DBQ20071110233011011/10/07 23:30:31  5-MIN KDBQ 110530Z AUTO 17009G16KT 10SM OVC042 08/M01 A2989 1100 55 500 170/09G16 RMK AO2 $
94908KDBQ DBQ20071110233510411/10/07 23:35:31  5-MIN KDBQ 110535Z AUTO 17010KT 10SM OVC042 08/M01 A2989 1100 55 500 170/10 RMK AO2 $
94908KDBQ DBQ20071110234010411/10/07 23:40:31  5-MIN KDBQ 110540Z AUTO 17009KT 10SM OVC042 08/M01 A2989 1110 55 500 170/09 RMK AO2 $
94908KDBQ DBQ20071110234510411/10/07 23:45:31  5-MIN KDBQ 110545Z AUTO 17011KT 10SM OVC042 08/M01 A2989 1110 55 500 170/11 RMK AO2 $
94908KDBQ DBQ20071110235015511/10/07 23:50:31  5-MIN KDBQ 110550Z AUTO 17011KT 10SM OVC042 08/M01 A2989 1110 53 600 170/11 RMK AO2 SLP127 60000 T00831006 10083 20061 400831039 56007 $
94908KDBQ DBQ20071110235510411/10/07 23:55:31  5-MIN KDBQ 110555Z AUTO 17012KT 10SM OVC042 08/M01 A2989 1110 53 600 170/12 RMK AO2 $
94908KDBQ DBQ20071111000010411/11/07 00:00:38  5-MIN KDBQ 110600Z AUTO 17011KT 10SM OVC042 08/M01 A2989 1110 53 600 170/11 RMK AO2 $
94908KDBQ DBQ20071111000510411/11/07 00:05:31  5-MIN KDBQ 110605Z AUTO 17011KT 10SM OVC042 08/M01 A2989 1100 53 600 170/11 RMK AO2 $
94908KDBQ DBQ20071111001010411/11/07 00:10:31  5-MIN KDBQ 110610Z AUTO 17011KT 10SM OVC040 08/M01 A2989 1110 53 600 170/11 RMK AO2 $
94908KDBQ DBQ20071111001510411/11/07 00:15:31  5-MIN KDBQ 110615Z AUTO 17011KT 10SM OVC040 08/M01 A2989 1110 53 600 170/11 RMK AO2 $
94908KDBQ DBQ20071111002010411/11/07 00:20:31  5-MIN KDBQ 110620Z AUTO 17011KT 10SM OVC040 08/M01 A2989 1110 53 600 170/11 RMK AO2 $
94908KDBQ DBQ20071111002510311/11/07 00:25:31  5-MIN KDBQ 110625Z AUTO 17009KT 10SM OVC040 08/00 A2989 1110 55 600 170/09 RMK AO2 $
94908KDBQ DBQ20071111003010311/11/07 00:30:31  5-MIN KDBQ 110630Z AUTO 17011KT 10SM OVC040 08/00 A2988 1110 55 600 170/11 RMK AO2 $
94908KDBQ DBQ20071111003510311/11/07 00:35:31  5-MIN KDBQ 110635Z AUTO 17011KT 10SM OVC040 08/00 A2988 1110 55 600 170/11 RMK AO2 $
94908KDBQ DBQ20071111004010311/11/07 00:40:31  5-MIN KDBQ 110640Z AUTO 17009KT 10SM OVC040 08/00 A2988 1120 55 600 170/09 RMK AO2 $
94908KDBQ DBQ20071111004510311/11/07 00:45:31  5-MIN KDBQ 110645Z AUTO 17010KT 10SM OVC040 08/00 A2988 1120 55 600 170/10 RMK AO2 $
94908KDBQ DBQ20071111005012011/11/07 00:50:31  5-MIN KDBQ 110650Z AUTO 16009KT 10SM OVC040 08/00 A2987 1120 55 600 160/09 RMK AO2 SLP122 T00830000 $
94908KDBQ DBQ20071111005510311/11/07 00:55:31  5-MIN KDBQ 110655Z AUTO 16008KT 10SM OVC038 08/00 A2987 1120 55 600 160/08 RMK AO2 $
94908KDBQ DBQ20071111010010311/11/07 01:00:31  5-MIN KDBQ 110700Z AUTO 16008KT 10SM OVC038 08/00 A2987 1120 55 600 160/08 RMK AO2 $
94908KDBQ DBQ20071111010510311/11/07 01:05:31  5-MIN KDBQ 110705Z AUTO 16008KT 10SM OVC038 08/01 A2987 1120 58 600 160/08 RMK AO2 $
94908KDBQ DBQ20071111011010311/11/07 01:10:31  5-MIN KDBQ 110710Z AUTO 16008KT 10SM OVC036 08/01 A2987 1120 58 600 160/08 RMK AO2 $
94908KDBQ DBQ20071111011510311/11/07 01:15:31  5-MIN KDBQ 110715Z AUTO 16007KT 10SM OVC036 08/01 A2987 1130 58 600 160/07 RMK AO2 $
94908KDBQ DBQ20071111012010311/11/07 01:20:31  5-MIN KDBQ 110720Z AUTO 16008KT 10SM OVC036 08/01 A2987 1130 58 600 160/08 RMK AO2 $
94908KDBQ DBQ20071111012510311/11/07 01:25:31  5-MIN KDBQ 110725Z AUTO 17008KT 10SM OVC036 08/01 A2987 1130 58 600 170/08 RMK AO2 $
94908KDBQ DBQ20071111013010311/11/07 01:30:31  5-MIN KDBQ 110730Z AUTO 17009KT 10SM OVC036 08/01 A2987 1130 58 600 160/09 RMK AO2 $
94908KDBQ DBQ20071111013510311/11/07 01:35:31  5-MIN KDBQ 110735Z AUTO 17008KT 10SM OVC036 08/01 A2987 1130 58 600 160/08 RMK AO2 $
94908KDBQ DBQ20071111014010311/11/07 01:40:31  5-MIN KDBQ 110740Z AUTO 17009KT 10SM OVC036 08/01 A2987 1130 58 600 170/09 RMK AO2 $
94908KDBQ DBQ20071111014510311/11/07 01:45:31  5-MIN KDBQ 110745Z AUTO 17009KT 10SM OVC036 08/01 A2986 1130 58 600 170/09 RMK AO2 $
94908KDBQ DBQ20071111015012011/11/07 01:50:31  5-MIN KDBQ 110750Z AUTO 17009KT 10SM OVC036 08/01 A2986 1130 58 600 160/09 RMK AO2 SLP117 T00830006 $
94908KDBQ DBQ20071111015510311/11/07 01:55:31  5-MIN KDBQ 110755Z AUTO 17009KT 10SM OVC034 08/01 A2986 1130 58 600 170/09 RMK AO2 $
94908KDBQ DBQ20071111020010311/11/07 02:00:31  5-MIN KDBQ 110800Z AUTO 17009KT 10SM OVC034 08/01 A2986 1130 58 600 170/09 RMK AO2 $
94908KDBQ DBQ20071111020510311/11/07 02:05:31  5-MIN KDBQ 110805Z AUTO 17009KT 10SM OVC034 08/01 A2986 1130 58 600 170/09 RMK AO2 $
94908KDBQ DBQ20071111021010311/11/07 02:10:31  5-MIN KDBQ 110810Z AUTO 17010KT 10SM OVC032 08/01 A2986 1140 58 600 170/10 RMK AO2 $
94908KDBQ DBQ20071111021510311/11/07 02:15:31  5-MIN KDBQ 110815Z AUTO 16007KT 10SM OVC032 08/01 A2986 1140 58 700 160/07 RMK AO2 $
94908KDBQ DBQ20071111022010311/11/07 02:20:31  5-MIN KDBQ 110820Z AUTO 17008KT 10SM OVC032 08/01 A2985 1140 58 700 170/08 RMK AO2 $
94908KDBQ DBQ20071111022510311/11/07 02:25:31  5-MIN KDBQ 110825Z AUTO 17008KT 10SM OVC032 08/01 A2985 1140 58 700 160/08 RMK AO2 $
94908KDBQ DBQ20071111023010311/11/07 02:30:31  5-MIN KDBQ 110830Z AUTO 17009KT 10SM OVC032 08/01 A2985 1140 58 700 170/09 RMK AO2 $
94908KDBQ DBQ20071111023511011/11/07 02:35:31  5-MIN KDBQ 110835Z AUTO 17007KT 10SM BKN032 OVC050 08/01 A2985 1150 60 700 160/07 RMK AO2 $
94908KDBQ DBQ20071111024011011/11/07 02:40:31  5-MIN KDBQ 110840Z AUTO 17009KT 10SM BKN032 OVC050 08/01 A2985 1140 60 700 170/09 RMK AO2 $
94908KDBQ DBQ20071111024511011/11/07 02:45:31  5-MIN KDBQ 110845Z AUTO 17009KT 10SM BKN032 OVC050 08/01 A2985 1150 60 700 160/09 RMK AO2 $
94908KDBQ DBQ20071111025013311/11/07 02:50:31  5-MIN KDBQ 110850Z AUTO 17008KT 10SM BKN032 OVC050 08/01 A2985 1150 60 700 170/08 RMK AO2 SLP111 T00830011 58015 $
94908KDBQ DBQ20071111025511011/11/07 02:55:31  5-MIN KDBQ 110855Z AUTO 17009KT 10SM BKN034 OVC050 08/01 A2985 1150 60 700 170/09 RMK AO2 $
94908KDBQ DBQ20071111030011011/11/07 03:00:31  5-MIN KDBQ 110900Z AUTO 17009KT 10SM BKN034 OVC050 08/01 A2985 1150 60 700 170/09 RMK AO2 $
94908KDBQ DBQ20071111030511011/11/07 03:05:31  5-MIN KDBQ 110905Z AUTO 17009KT 10SM BKN034 OVC050 08/01 A2984 1150 60 700 170/09 RMK AO2 $
94908KDBQ DBQ20071111031010311/11/07 03:10:31  5-MIN KDBQ 110910Z AUTO 17008KT 10SM OVC034 08/01 A2984 1150 60 700 170/08 RMK AO2 $
94908KDBQ DBQ20071111031510311/11/07 03:15:31  5-MIN KDBQ 110915Z AUTO 17008KT 10SM OVC034 08/01 A2984 1150 60 700 170/08 RMK AO2 $
94908KDBQ DBQ20071111032010311/11/07 03:20:31  5-MIN KDBQ 110920Z AUTO 17009KT 10SM OVC034 08/01 A2984 1150 60 700 170/09 RMK AO2 $
94908KDBQ DBQ20071111032510311/11/07 03:25:31  5-MIN KDBQ 110925Z AUTO 17008KT 10SM OVC034 08/01 A2984 1150 60 700 170/08 RMK AO2 $
94908KDBQ DBQ20071111033011011/11/07 03:30:31  5-MIN KDBQ 110930Z AUTO 17007KT 10SM BKN034 OVC055 08/01 A2984 1150 60 700 160/07 RMK AO2 $
94908KDBQ DBQ20071111033511011/11/07 03:35:31  5-MIN KDBQ 110935Z AUTO 16007KT 10SM BKN034 OVC055 08/01 A2984 1150 60 700 160/07 RMK AO2 $
94908KDBQ DBQ20071111034010311/11/07 03:40:31  5-MIN KDBQ 110940Z AUTO 16007KT 10SM OVC034 08/01 A2984 1150 60 700 160/07 RMK AO2 $
94908KDBQ DBQ20071111034510311/11/07 03:45:31  5-MIN KDBQ 110945Z AUTO 16007KT 10SM OVC032 08/02 A2984 1150 63 700 160/07 RMK AO2 $
94908KDBQ DBQ20071111035011011/11/07 03:50:31  5-MIN KDBQ 110950Z AUTO 16007KT 10SM BKN029 OVC034 08/02 A2984 1160 63 700 160/07 RMK AO2 $
94908KDBQ DBQ20071111035511011/11/07 03:55:31  5-MIN KDBQ 110955Z AUTO 15007KT 10SM BKN029 OVC034 08/02 A2984 1160 63 700 150/07 RMK AO2 $
94908KDBQ DBQ20071111040010311/11/07 04:00:31  5-MIN KDBQ 111000Z AUTO 15007KT 10SM OVC029 08/02 A2983 1160 63 700 150/07 RMK AO2 $
94908KDBQ DBQ20071111040510311/11/07 04:05:31  5-MIN KDBQ 111005Z AUTO 15006KT 10SM OVC027 08/02 A2984 1160 63 700 150/06 RMK AO2 $
94908KDBQ DBQ20071111041010311/11/07 04:10:31  5-MIN KDBQ 111010Z AUTO 15007KT 10SM OVC027 08/02 A2984 1160 63 700 150/07 RMK AO2 $
94908KDBQ DBQ20071111041510311/11/07 04:15:31  5-MIN KDBQ 111015Z AUTO 15007KT 10SM OVC027 08/02 A2983 1160 63 700 150/07 RMK AO2 $
94908KDBQ DBQ20071111042010311/11/07 04:20:31  5-MIN KDBQ 111020Z AUTO 15007KT 10SM OVC027 08/02 A2983 1160 63 700 150/07 RMK AO2 $
94908KDBQ DBQ20071111042510311/11/07 04:25:31  5-MIN KDBQ 111025Z AUTO 15007KT 10SM OVC027 08/02 A2984 1160 63 700 150/07 RMK AO2 $
94908KDBQ DBQ20071111043010311/11/07 04:30:31  5-MIN KDBQ 111030Z AUTO 15007KT 10SM OVC027 08/02 A2984 1160 63 700 150/07 RMK AO2 $
94908KDBQ DBQ20071111043510311/11/07 04:35:31  5-MIN KDBQ 111035Z AUTO 16007KT 10SM OVC027 08/02 A2984 1160 63 700 160/07 RMK AO2 $
94908KDBQ DBQ20071111044010311/11/07 04:40:31  5-MIN KDBQ 111040Z AUTO 15008KT 10SM OVC027 08/02 A2984 1160 63 700 150/08 RMK AO2 $
94908KDBQ DBQ20071111044510311/11/07 04:45:31  5-MIN KDBQ 111045Z AUTO 16008KT 10SM OVC027 08/02 A2984 1150 63 700 160/08 RMK AO2 $
94908KDBQ DBQ20071111045012011/11/07 04:50:31  5-MIN KDBQ 111050Z AUTO 16008KT 10SM OVC027 08/02 A2984 1150 63 700 160/08 RMK AO2 SLP110 T00830017 $
94908KDBQ DBQ20071111045510311/11/07 04:55:31  5-MIN KDBQ 111055Z AUTO 15008KT 10SM OVC027 09/02 A2984 1150 60 700 150/08 RMK AO2 $
94908KDBQ DBQ20071111050010311/11/07 05:00:31  5-MIN KDBQ 111100Z AUTO 16008KT 10SM OVC027 09/02 A2984 1160 60 700 160/08 RMK AO2 $
94908KDBQ DBQ20071111050510311/11/07 05:05:31  5-MIN KDBQ 111105Z AUTO 16009KT 10SM OVC027 09/02 A2983 1160 60 700 150/09 RMK AO2 $
94908KDBQ DBQ20071111051010311/11/07 05:10:31  5-MIN KDBQ 111110Z AUTO 16009KT 10SM OVC027 09/02 A2983 1160 60 700 160/09 RMK AO2 $
94908KDBQ DBQ20071111051510311/11/07 05:15:31  5-MIN KDBQ 111115Z AUTO 16009KT 10SM OVC027 09/02 A2983 1160 60 700 160/09 RMK AO2 $
94908KDBQ DBQ20071111052010311/11/07 05:20:31  5-MIN KDBQ 111120Z AUTO 16009KT 10SM OVC025 09/02 A2983 1160 60 700 150/09 RMK AO2 $
94908KDBQ DBQ20071111052510311/11/07 05:25:31  5-MIN KDBQ 111125Z AUTO 15009KT 10SM OVC025 09/02 A2983 1160 60 700 150/09 RMK AO2 $
94908KDBQ DBQ20071111053010311/11/07 05:30:31  5-MIN KDBQ 111130Z AUTO 16009KT 10SM OVC025 09/02 A2983 1160 60 700 160/09 RMK AO2 $
94908KDBQ DBQ20071111053510311/11/07 05:35:31  5-MIN KDBQ 111135Z AUTO 16008KT 10SM OVC025 09/02 A2983 1160 60 700 160/08 RMK AO2 $
94908KDBQ DBQ20071111054010311/11/07 05:40:31  5-MIN KDBQ 111140Z AUTO 16009KT 10SM OVC023 09/02 A2983 1160 63 700 160/09 RMK AO2 $
94908KDBQ DBQ20071111054510311/11/07 05:45:31  5-MIN KDBQ 111145Z AUTO 15008KT 10SM OVC023 09/02 A2983 1160 63 700 150/08 RMK AO2 $
94908KDBQ DBQ20071111055013811/11/07 05:50:31  5-MIN KDBQ 111150Z AUTO 15010KT 10SM OVC023 09/02 A2983 1160 63 700 150/10 RMK AO2 SLP106 T00890022 10089 20083 58014 $
94908KDBQ DBQ20071111055510311/11/07 05:55:31  5-MIN KDBQ 111155Z AUTO 15009KT 10SM OVC023 09/02 A2983 1160 63 700 150/09 RMK AO2 $
94908KDBQ DBQ20071111060009811/11/07 06:00:31  5-MIN KDBQ 111200Z 16009KT 10SM OVC021 09/02 A2983 1160 63 700 150/09 RMK AO2 $
94908KDBQ DBQ20071111060510511/11/07 06:05:31  5-MIN KDBQ 111205Z 16009KT 10SM SCT016 OVC021 09/02 A2983 1160 63 700 160/09 RMK AO2 $
94908KDBQ DBQ20071111061010511/11/07 06:10:31  5-MIN KDBQ 111210Z 16008KT 10SM BKN016 OVC023 09/02 A2983 1160 63 700 150/08 RMK AO2 $
94908KDBQ DBQ20071111061510511/11/07 06:15:31  5-MIN KDBQ 111215Z 15009KT 10SM BKN016 OVC023 09/02 A2983 1160 63 700 150/09 RMK AO2 $
94908KDBQ DBQ20071111062010511/11/07 06:20:31  5-MIN KDBQ 111220Z 15010KT 10SM BKN016 OVC021 09/02 A2983 1160 63 700 150/10 RMK AO2 $
94908KDBQ DBQ20071111062509811/11/07 06:25:31  5-MIN KDBQ 111225Z 16008KT 10SM OVC016 09/02 A2983 1160 63 700 160/08 RMK AO2 $
94908KDBQ DBQ20071111063009811/11/07 06:30:31  5-MIN KDBQ 111230Z 15007KT 10SM OVC016 09/02 A2983 1160 63 700 150/07 RMK AO2 $
94908KDBQ DBQ20071111063509811/11/07 06:35:31  5-MIN KDBQ 111235Z 15008KT 10SM OVC016 09/02 A2983 1160 63 700 150/08 RMK AO2 $
94908KDBQ DBQ20071111064009811/11/07 06:40:31  5-MIN KDBQ 111240Z 15006KT 10SM OVC016 09/02 A2983 1160 63 700 150/06 RMK AO2 $
94908KDBQ DBQ20071111064509811/11/07 06:45:31  5-MIN KDBQ 111245Z 15008KT 10SM OVC016 09/02 A2983 1160 63 700 150/08 RMK AO2 $
94908KDBQ DBQ20071111065011511/11/07 06:50:31  5-MIN KDBQ 111250Z 15009KT 10SM OVC016 09/02 A2983 1160 63 700 150/09 RMK AO2 SLP106 T00890022 $
94908KDBQ DBQ20071111065509811/11/07 06:55:31  5-MIN KDBQ 111255Z 16008KT 10SM OVC016 09/03 A2983 1160 65 700 160/08 RMK AO2 $
94908KDBQ DBQ20071111070009811/11/07 07:00:31  5-MIN KDBQ 111300Z 16008KT 10SM OVC016 09/03 A2983 1160 65 700 160/08 RMK AO2 $
94908KDBQ DBQ20071111070509811/11/07 07:05:31  5-MIN KDBQ 111305Z 16009KT 10SM OVC016 09/03 A2983 1160 65 700 150/09 RMK AO2 $
94908KDBQ DBQ20071111071009811/11/07 07:10:31  5-MIN KDBQ 111310Z 16009KT 10SM OVC016 09/03 A2984 1160 65 700 160/09 RMK AO2 $
94908KDBQ DBQ20071111071509811/11/07 07:15:31  5-MIN KDBQ 111315Z 16009KT 10SM OVC016 09/03 A2984 1150 65 700 160/09 RMK AO2 $
94908KDBQ DBQ20071111072009811/11/07 07:20:31  5-MIN KDBQ 111320Z 16008KT 10SM OVC016 09/03 A2984 1150 65 700 160/08 RMK AO2 $
94908KDBQ DBQ20071111072509811/11/07 07:25:31  5-MIN KDBQ 111325Z 16008KT 10SM OVC016 09/03 A2984 1150 65 700 160/08 RMK AO2 $
94908KDBQ DBQ20071111073009811/11/07 07:30:31  5-MIN KDBQ 111330Z 16009KT 10SM OVC014 09/03 A2984 1150 68 700 160/09 RMK AO2 $
94908KDBQ DBQ20071111073509711/11/07 07:35:31  5-MIN KDBQ 111335Z 16008KT 9SM OVC014 09/03 A2984 1150 65 800 160/08 RMK AO2 $
94908KDBQ DBQ20071111074009711/11/07 07:40:31  5-MIN KDBQ 111340Z 16008KT 9SM OVC014 09/03 A2984 1150 65 800 160/08 RMK AO2 $
94908KDBQ DBQ20071111074509711/11/07 07:45:31  5-MIN KDBQ 111345Z 16008KT 9SM OVC014 09/04 A2984 1150 68 800 160/08 RMK AO2 $
94908KDBQ DBQ20071111075011511/11/07 07:50:31  5-MIN KDBQ 111350Z 16009KT 10SM OVC014 10/04 A2984 1150 65 900 160/09 RMK AO2 SLP110 T01000039 $
94908KDBQ DBQ20071111075509811/11/07 07:55:31  5-MIN KDBQ 111355Z 16009KT 10SM OVC014 10/04 A2984 1150 65 900 160/09 RMK AO2 $
94908KDBQ DBQ20071111080009811/11/07 08:00:31  5-MIN KDBQ 111400Z 16009KT 10SM OVC014 10/04 A2984 1150 65 900 160/09 RMK AO2 $
94908KDBQ DBQ20071111080509811/11/07 08:05:31  5-MIN KDBQ 111405Z 16009KT 10SM OVC014 10/04 A2984 1150 65 900 160/09 RMK AO2 $
94908KDBQ DBQ20071111081009811/11/07 08:10:31  5-MIN KDBQ 111410Z 16009KT 10SM OVC014 10/04 A2984 1150 65 900 160/09 RMK AO2 $
94908KDBQ DBQ20071111081509811/11/07 08:15:31  5-MIN KDBQ 111415Z 16009KT 10SM OVC014 10/04 A2984 1150 65 900 160/09 RMK AO2 $
94908KDBQ DBQ20071111082009811/11/07 08:20:31  5-MIN KDBQ 111420Z 16008KT 10SM OVC014 10/04 A2984 1150 65 900 160/08 RMK AO2 $
94908KDBQ DBQ20071111082509811/11/07 08:25:31  5-MIN KDBQ 111425Z 16009KT 10SM OVC014 10/04 A2984 1150 68 900 160/09 RMK AO2 $
94908KDBQ DBQ20071111083009811/11/07 08:30:31  5-MIN KDBQ 111430Z 17008KT 10SM OVC014 10/04 A2984 1150 68 900 170/08 RMK AO2 $
94908KDBQ DBQ20071111083509811/11/07 08:35:31  5-MIN KDBQ 111435Z 17007KT 10SM OVC014 10/04 A2984 1150 68 900 170/07 RMK AO2 $
94908KDBQ DBQ20071111084009811/11/07 08:40:31  5-MIN KDBQ 111440Z 17008KT 10SM OVC014 10/04 A2985 1150 68 900 170/08 RMK AO2 $
94908KDBQ DBQ20071111084509811/11/07 08:45:31  5-MIN KDBQ 111445Z 17009KT 10SM OVC014 10/04 A2985 1150 68 900 170/09 RMK AO2 $
94908KDBQ DBQ20071111085012111/11/07 08:50:31  5-MIN KDBQ 111450Z 16008KT 10SM OVC014 10/04 A2984 1150 68 900 160/08 RMK AO2 SLP111 T01000044 58006 $
94908KDBQ DBQ20071111085509811/11/07 08:55:31  5-MIN KDBQ 111455Z 17009KT 10SM OVC014 11/05 A2985 1150 68 900 170/09 RMK AO2 $
94908KDBQ DBQ20071111090009811/11/07 09:00:31  5-MIN KDBQ 111500Z 16009KT 10SM OVC014 11/05 A2984 1150 68 900 160/09 RMK AO2 $
94908KDBQ DBQ20071111090509811/11/07 09:05:31  5-MIN KDBQ 111505Z 16009KT 10SM OVC014 11/05 A2985 1150 68 900 160/09 RMK AO2 $
94908KDBQ DBQ20071111091009811/11/07 09:10:31  5-MIN KDBQ 111510Z 17009KT 10SM OVC014 11/05 A2985 1150 68 900 170/09 RMK AO2 $
94908KDBQ DBQ20071111091509811/11/07 09:15:31  5-MIN KDBQ 111515Z 17010KT 10SM OVC014 11/05 A2985 1150 68 900 170/10 RMK AO2 $
94908KDBQ DBQ20071111092009811/11/07 09:20:31  5-MIN KDBQ 111520Z 17009KT 10SM OVC014 11/05 A2985 1150 68 900 170/09 RMK AO2 $
94908KDBQ DBQ20071111092509811/11/07 09:25:31  5-MIN KDBQ 111525Z 17010KT 10SM OVC012 11/06 A2985 1150 71 900 170/10 RMK AO2 $
94908KDBQ DBQ20071111093009711/11/07 09:30:31  5-MIN KDBQ 111530Z 17009KT 9SM OVC012 11/06 A2985 1150 71 900 170/09 RMK AO2 $
94908KDBQ DBQ20071111093509711/11/07 09:35:31  5-MIN KDBQ 111535Z 18009KT 8SM OVC012 11/06 A2985 1140 71 900 180/09 RMK AO2 $
94908KDBQ DBQ20071111094009711/11/07 09:40:31  5-MIN KDBQ 111540Z 18008KT 7SM OVC012 11/06 A2985 1150 74 900 180/08 RMK AO2 $
94908KDBQ DBQ20071111094510011/11/07 09:45:31  5-MIN KDBQ 111545Z 17008KT 6SM HZ OVC012 11/07 A2985 1140 77 900 170/08 RMK AO2 $
94908KDBQ DBQ20071111095011711/11/07 09:50:31  5-MIN KDBQ 111550Z 18008KT 5SM HZ OVC010 11/07 A2985 1150 77 900 180/08 RMK AO2 SLP111 T01060067 $
94908KDBQ DBQ20071111095510011/11/07 09:55:31  5-MIN KDBQ 111555Z 18007KT 6SM HZ OVC010 11/07 A2985 1150 80 900 180/07 RMK AO2 $
94908KDBQ DBQ20071111100010011/11/07 10:00:31  5-MIN KDBQ 111600Z 18006KT 5SM HZ OVC010 11/07 A2985 1150 80 900 180/06 RMK AO2 $
94908KDBQ DBQ20071111100510011/11/07 10:05:31  5-MIN KDBQ 111605Z 18007KT 5SM HZ OVC010 11/07 A2984 1150 80 900 180/07 RMK AO2 $
94908KDBQ DBQ20071111101010011/11/07 10:10:31  5-MIN KDBQ 111610Z 18008KT 5SM HZ OVC010 11/08 A2985 1150 83 900 180/08 RMK AO2 $
94908KDBQ DBQ20071111101510011/11/07 10:15:31  5-MIN KDBQ 111615Z 19008KT 5SM HZ OVC010 11/08 A2985 1150 83 900 190/08 RMK AO2 $
94908KDBQ DBQ20071111102010011/11/07 10:20:31  5-MIN KDBQ 111620Z 18007KT 5SM HZ OVC010 11/08 A2984 1150 83 900 180/07 RMK AO2 $
94908KDBQ DBQ20071111102510011/11/07 10:25:31  5-MIN KDBQ 111625Z 18008KT 5SM BR OVC010 11/08 A2985 1150 86 900 180/08 RMK AO2 $
94908KDBQ DBQ20071111103010011/11/07 10:30:31  5-MIN KDBQ 111630Z 18007KT 5SM BR OVC010 11/08 A2985 1150 86 900 180/07 RMK AO2 $
94908KDBQ DBQ20071111103510111/11/07 10:35:31  5-MIN KDBQ 111635Z 19006KT 6SM HZ OVC010 11/08 A2985 1150 83 1000 190/06 RMK AO2 $
94908KDBQ DBQ20071111104010111/11/07 10:40:31  5-MIN KDBQ 111640Z 19007KT 5SM HZ OVC010 11/08 A2985 1150 83 1000 190/07 RMK AO2 $
94908KDBQ DBQ20071111104510111/11/07 10:45:31  5-MIN KDBQ 111645Z 18008KT 5SM HZ OVC010 11/08 A2984 1150 83 1000 180/08 RMK AO2 $
94908KDBQ DBQ20071111105011811/11/07 10:50:31  5-MIN KDBQ 111650Z 18007KT 6SM HZ OVC010 11/08 A2984 1150 83 1000 180/07 RMK AO2 SLP109 T01110083 $
94908KDBQ DBQ20071111105510111/11/07 10:55:31  5-MIN KDBQ 111655Z 17007KT 6SM HZ OVC010 11/08 A2984 1150 83 1000 170/07 RMK AO2 $
94908KDBQ DBQ20071111110009811/11/07 11:00:31  5-MIN KDBQ 111700Z 18006KT 7SM OVC010 12/08 A2984 1150 80 1100 180/06 RMK AO2 $
94908KDBQ DBQ20071111110509811/11/07 11:05:31  5-MIN KDBQ 111705Z 18007KT 7SM OVC010 12/08 A2984 1150 80 1100 180/07 RMK AO2 $
94908KDBQ DBQ20071111111009811/11/07 11:10:31  5-MIN KDBQ 111710Z 18006KT 7SM OVC010 12/08 A2984 1150 80 1100 180/06 RMK AO2 $
94908KDBQ DBQ20071111111509811/11/07 11:15:31  5-MIN KDBQ 111715Z 18007KT 7SM OVC010 12/09 A2984 1160 80 1100 180/07 RMK AO2 $
94908KDBQ DBQ20071111112009811/11/07 11:20:31  5-MIN KDBQ 111720Z 19009KT 7SM OVC010 12/09 A2983 1160 80 1100 190/09 RMK AO2 $
94908KDBQ DBQ20071111112509811/11/07 11:25:31  5-MIN KDBQ 111725Z 19009KT 7SM OVC010 12/09 A2983 1160 80 1100 190/09 RMK AO2 $
94908KDBQ DBQ20071111113009811/11/07 11:30:31  5-MIN KDBQ 111730Z 19009KT 7SM OVC010 12/09 A2983 1160 80 1100 190/09 RMK AO2 $
94908KDBQ DBQ20071111113509811/11/07 11:35:31  5-MIN KDBQ 111735Z 19009KT 7SM OVC012 13/09 A2983 1170 77 1200 190/09 RMK AO2 $
94908KDBQ DBQ20071111114009811/11/07 11:40:31  5-MIN KDBQ 111740Z 19009KT 7SM OVC012 13/09 A2983 1170 77 1300 190/09 RMK AO2 $
94908KDBQ DBQ20071111114509811/11/07 11:45:31  5-MIN KDBQ 111745Z 20009KT 7SM OVC012 13/09 A2982 1170 77 1300 200/09 RMK AO2 $
94908KDBQ DBQ20071111115013311/11/07 11:50:31  5-MIN KDBQ 111750Z 19009KT 7SM OVC012 13/09 A2982 1170 77 1300 190/09 RMK AO2 SLP101 T01330094 10133 20089 53005 $
94908KDBQ DBQ20071111115509811/11/07 11:55:31  5-MIN KDBQ 111755Z 19010KT 7SM OVC012 14/10 A2982 1170 77 1400 190/10 RMK AO2 $
94908KDBQ DBQ20071111120009811/11/07 12:00:31  5-MIN KDBQ 111800Z 20008KT 7SM OVC012 14/10 A2982 1170 77 1400 200/08 RMK AO2 $
94908KDBQ DBQ20071111120510111/11/07 12:05:31  5-MIN KDBQ 111805Z 19008KT 6SM HZ OVC012 14/10 A2982 1170 77 1400 190/08 RMK AO2 $
94908KDBQ DBQ20071111121010111/11/07 12:10:31  5-MIN KDBQ 111810Z 18007KT 6SM HZ OVC012 14/10 A2982 1170 77 1400 180/07 RMK AO2 $
94908KDBQ DBQ20071111121510111/11/07 12:15:31  5-MIN KDBQ 111815Z 18007KT 6SM HZ OVC012 14/10 A2982 1180 77 1400 180/07 RMK AO2 $
94908KDBQ DBQ20071111122009811/11/07 12:20:31  5-MIN KDBQ 111820Z 19007KT 7SM OVC012 14/10 A2981 1180 77 1400 180/07 RMK AO2 $
94908KDBQ DBQ20071111122509811/11/07 12:25:31  5-MIN KDBQ 111825Z 19007KT 7SM OVC012 14/10 A2981 1180 77 1400 190/07 RMK AO2 $
94908KDBQ DBQ20071111123010111/11/07 12:30:31  5-MIN KDBQ 111830Z 20007KT 6SM HZ OVC012 14/11 A2981 1180 77 1400 200/07 RMK AO2 $
94908KDBQ DBQ20071111123510111/11/07 12:35:31  5-MIN KDBQ 111835Z 20009KT 6SM HZ OVC012 15/11 A2981 1180 77 1500 200/09 RMK AO2 $
94908KDBQ DBQ20071111124010111/11/07 12:40:31  5-MIN KDBQ 111840Z 21008KT 6SM HZ OVC012 15/11 A2981 1190 77 1500 210/08 RMK AO2 $
94908KDBQ DBQ20071111124509811/11/07 12:45:31  5-MIN KDBQ 111845Z 21008KT 7SM OVC014 16/12 A2980 1190 77 1600 210/08 RMK AO2 $
94908KDBQ DBQ20071111125011511/11/07 12:50:31  5-MIN KDBQ 111850Z 21009KT 7SM OVC014 16/12 A2980 1190 75 1600 210/09 RMK AO2 SLP093 T01610117 $
94908KDBQ DBQ20071111125510111/11/07 12:55:31  5-MIN KDBQ 111855Z 22008KT 6SM HZ OVC014 16/12 A2980 1190 75 1600 220/08 RMK AO2 $
94908KDBQ DBQ20071111130010111/11/07 13:00:31  5-MIN KDBQ 111900Z 21010KT 6SM HZ OVC014 16/12 A2980 1190 75 1600 210/10 RMK AO2 $
94908KDBQ DBQ20071111130510111/11/07 13:05:31  5-MIN KDBQ 111905Z 21008KT 6SM HZ OVC014 16/12 A2980 1190 75 1600 210/08 RMK AO2 $
94908KDBQ DBQ20071111131010111/11/07 13:10:31  5-MIN KDBQ 111910Z 21010KT 6SM HZ OVC014 16/12 A2980 1190 77 1600 210/10 RMK AO2 $
94908KDBQ DBQ20071111131510111/11/07 13:15:31  5-MIN KDBQ 111915Z 22009KT 6SM HZ OVC014 16/12 A2980 1190 75 1600 220/09 RMK AO2 $
94908KDBQ DBQ20071111132010111/11/07 13:20:31  5-MIN KDBQ 111920Z 21010KT 6SM HZ OVC014 16/12 A2980 1190 77 1600 210/10 RMK AO2 $
94908KDBQ DBQ20071111132510111/11/07 13:25:31  5-MIN KDBQ 111925Z 20009KT 6SM HZ OVC014 16/12 A2980 1190 77 1600 200/09 RMK AO2 $
94908KDBQ DBQ20071111133010111/11/07 13:30:31  5-MIN KDBQ 111930Z 21009KT 6SM HZ OVC014 16/12 A2980 1190 77 1600 210/09 RMK AO2 $
94908KDBQ DBQ20071111133510111/11/07 13:35:31  5-MIN KDBQ 111935Z 20008KT 6SM HZ OVC014 16/12 A2980 1190 77 1600 200/08 RMK AO2 $
94908KDBQ DBQ20071111134010111/11/07 13:40:31  5-MIN KDBQ 111940Z 20007KT 6SM HZ OVC014 16/12 A2980 1190 77 1600 200/07 RMK AO2 $
94908KDBQ DBQ20071111134510111/11/07 13:45:31  5-MIN KDBQ 111945Z 19007KT 6SM HZ OVC014 16/12 A2979 1190 77 1600 190/07 RMK AO2 $
94908KDBQ DBQ20071111135010111/11/07 13:50:31  5-MIN KDBQ 111950Z 19008KT 6SM HZ OVC017 16/12 A2979 1200 77 1600 190/08 RMK AO2 $
94908KDBQ DBQ20071111135510111/11/07 13:55:31  5-MIN KDBQ 111955Z 20008KT 6SM HZ OVC017 16/12 A2979 1200 77 1600 200/08 RMK AO2 $
94908KDBQ DBQ20071111140010111/11/07 14:00:31  5-MIN KDBQ 112000Z 19008KT 6SM HZ OVC017 17/12 A2979 1200 75 1700 190/08 RMK AO2 $
94908KDBQ DBQ20071111140510111/11/07 14:05:31  5-MIN KDBQ 112005Z 19009KT 6SM HZ OVC017 17/12 A2979 1200 75 1700 190/09 RMK AO2 $
94908KDBQ DBQ20071111141010111/11/07 14:10:31  5-MIN KDBQ 112010Z 19008KT 6SM HZ OVC017 17/12 A2979 1200 75 1700 190/08 RMK AO2 $
94908KDBQ DBQ20071111141510111/11/07 14:15:31  5-MIN KDBQ 112015Z 20008KT 6SM HZ OVC017 17/13 A2979 1200 77 1700 190/08 RMK AO2 $
94908KDBQ DBQ20071111142010111/11/07 14:20:31  5-MIN KDBQ 112020Z 18008KT 6SM HZ OVC017 17/13 A2979 1200 77 1700 180/08 RMK AO2 $
94908KDBQ DBQ20071111142509911/11/07 14:25:31  5-MIN KDBQ 112025Z 17007KT 6SM HZ OVC017 17/13 A2979 1200 77 1700 170/07 RMK AO2
94908KDBQ DBQ20071111143009911/11/07 14:30:31  5-MIN KDBQ 112030Z 19009KT 6SM HZ OVC017 17/13 A2979 1200 77 1700 190/09 RMK AO2
94908KDBQ DBQ20071111143509911/11/07 14:35:31  5-MIN KDBQ 112035Z 19007KT 6SM HZ OVC017 17/13 A2979 1200 77 1700 190/07 RMK AO2
94908KDBQ DBQ20071111144009911/11/07 14:40:31  5-MIN KDBQ 112040Z 19008KT 6SM HZ OVC017 17/13 A2979 1200 77 1700 190/08 RMK AO2
94908KDBQ DBQ20071111144509911/11/07 14:45:31  5-MIN KDBQ 112045Z 20008KT 6SM HZ OVC017 17/13 A2979 1200 80 1700 200/08 RMK AO2
94908KDBQ DBQ20071111145012211/11/07 14:50:31  5-MIN KDBQ 112050Z 21010KT 5SM HZ OVC017 17/13 A2979 1200 80 1700 200/10 RMK AO2 SLP091 T01670133 58008
94908KDBQ DBQ20071111145510611/11/07 14:55:31  5-MIN KDBQ 112055Z 21011KT 5SM HZ BKN017 OVC023 17/13 A2980 1190 80 1700 210/11 RMK AO2
94908KDBQ DBQ20071111150010611/11/07 15:00:31  5-MIN KDBQ 112100Z 20011KT 5SM HZ BKN017 OVC023 17/13 A2980 1190 77 1700 200/11 RMK AO2
94908KDBQ DBQ20071111150509911/11/07 15:05:31  5-MIN KDBQ 112105Z 21009KT 5SM HZ OVC021 17/13 A2980 1190 77 1700 210/09 RMK AO2
94908KDBQ DBQ20071111151009911/11/07 15:10:31  5-MIN KDBQ 112110Z 20009KT 5SM HZ OVC021 17/13 A2980 1190 77 1700 200/09 RMK AO2
94908KDBQ DBQ20071111151509911/11/07 15:15:31  5-MIN KDBQ 112115Z 20009KT 5SM HZ OVC023 17/13 A2981 1180 77 1700 200/09 RMK AO2
94908KDBQ DBQ20071111152010611/11/07 15:20:31  5-MIN KDBQ 112120Z 20007KT 5SM HZ SCT017 OVC023 16/13 A2981 1180 80 1600 200/07 RMK AO2
94908KDBQ DBQ20071111152510611/11/07 15:25:31  5-MIN KDBQ 112125Z 21010KT 5SM HZ SCT017 OVC023 16/13 A2981 1180 80 1600 210/10 RMK AO2
94908KDBQ DBQ20071111153010611/11/07 15:30:31  5-MIN KDBQ 112130Z 21010KT 5SM HZ BKN017 OVC023 16/13 A2981 1180 80 1600 210/10 RMK AO2
94908KDBQ DBQ20071111153510611/11/07 15:35:31  5-MIN KDBQ 112135Z 20008KT 5SM HZ SCT017 OVC023 16/13 A2981 1180 80 1600 200/08 RMK AO2
94908KDBQ DBQ20071111154010611/11/07 15:40:31  5-MIN KDBQ 112140Z 20008KT 5SM HZ SCT017 OVC023 16/13 A2981 1180 80 1600 200/08 RMK AO2
94908KDBQ DBQ20071111154510611/11/07 15:45:31  5-MIN KDBQ 112145Z 20007KT 5SM HZ FEW017 OVC025 16/13 A2981 1180 80 1600 190/07 RMK AO2
94908KDBQ DBQ20071111155012311/11/07 15:50:31  5-MIN KDBQ 112150Z 19006KT 5SM HZ FEW017 OVC025 16/13 A2981 1180 80 1600 190/06 RMK AO2 SLP096 T01610128
94908KDBQ DBQ20071111155509911/11/07 15:55:31  5-MIN KDBQ 112155Z 19007KT 5SM HZ OVC025 16/13 A2981 1180 80 1600 190/07 RMK AO2
94908KDBQ DBQ20071111160009911/11/07 16:00:31  5-MIN KDBQ 112200Z 19007KT 5SM HZ OVC025 16/13 A2981 1180 80 1600 190/07 RMK AO2
94908KDBQ DBQ20071111160509911/11/07 16:05:31  5-MIN KDBQ 112205Z 19007KT 5SM HZ OVC025 16/13 A2981 1180 80 1600 190/07 RMK AO2
94908KDBQ DBQ20071111161009911/11/07 16:10:31  5-MIN KDBQ 112210Z 19008KT 5SM HZ OVC027 16/13 A2981 1180 80 1600 190/08 RMK AO2
94908KDBQ DBQ20071111161509911/11/07 16:15:31  5-MIN KDBQ 112215Z 19009KT 5SM HZ OVC027 16/13 A2981 1180 80 1600 190/09 RMK AO2
94908KDBQ DBQ20071111162010611/11/07 16:20:31  5-MIN KDBQ 112220Z 19008KT 5SM HZ FEW017 OVC027 16/13 A2981 1180 80 1600 190/08 RMK AO2
94908KDBQ DBQ20071111162510611/11/07 16:25:31  5-MIN KDBQ 112225Z 18010KT 5SM HZ FEW017 OVC027 16/13 A2981 1180 80 1600 180/10 RMK AO2
94908KDBQ DBQ20071111163010611/11/07 16:30:31  5-MIN KDBQ 112230Z 18010KT 5SM HZ FEW017 OVC029 16/13 A2981 1180 80 1600 180/10 RMK AO2
94908KDBQ DBQ20071111163510611/11/07 16:35:31  5-MIN KDBQ 112235Z 18009KT 5SM HZ FEW017 OVC029 16/13 A2981 1180 80 1600 180/09 RMK AO2
94908KDBQ DBQ20071111164010611/11/07 16:40:31  5-MIN KDBQ 112240Z 19009KT 5SM HZ FEW017 OVC029 16/13 A2982 1180 80 1600 180/09 RMK AO2
94908KDBQ DBQ20071111164509911/11/07 16:45:31  5-MIN KDBQ 112245Z 18011KT 5SM HZ OVC029 16/13 A2982 1170 80 1600 180/11 RMK AO2
94908KDBQ DBQ20071111165012311/11/07 16:50:31  5-MIN KDBQ 112250Z 18009KT 5SM HZ FEW021 OVC029 16/13 A2982 1170 80 1600 180/09 RMK AO2 SLP099 T01610128
94908KDBQ DBQ20071111165510611/11/07 16:55:31  5-MIN KDBQ 112255Z 18008KT 6SM HZ SCT021 OVC029 16/13 A2982 1170 83 1600 180/08 RMK AO2
94908KDBQ DBQ20071111170010611/11/07 17:00:31  5-MIN KDBQ 112300Z 18008KT 6SM HZ SCT021 OVC029 16/13 A2982 1170 83 1500 180/08 RMK AO2
94908KDBQ DBQ20071111170510311/11/07 17:05:31  5-MIN KDBQ 112305Z 18008KT 7SM SCT021 OVC029 16/13 A2982 1170 83 1500 180/08 RMK AO2
94908KDBQ DBQ20071111171010311/11/07 17:10:31  5-MIN KDBQ 112310Z 18008KT 7SM SCT021 OVC029 16/13 A2982 1170 83 1500 180/08 RMK AO2
94908KDBQ DBQ20071111171510311/11/07 17:15:31  5-MIN KDBQ 112315Z 19009KT 7SM SCT021 OVC029 16/13 A2982 1170 83 1500 190/09 RMK AO2
94908KDBQ DBQ20071111172010311/11/07 17:20:31  5-MIN KDBQ 112320Z 18009KT 7SM SCT021 OVC029 16/13 A2982 1170 83 1500 180/09 RMK AO2
94908KDBQ DBQ20071111172510311/11/07 17:25:31  5-MIN KDBQ 112325Z 18010KT 7SM SCT021 OVC029 16/12 A2982 1170 80 1500 180/10 RMK AO2
94908KDBQ DBQ20071111173010611/11/07 17:30:31  5-MIN KDBQ 112330Z 18010KT 6SM HZ SCT021 OVC029 16/12 A2982 1170 80 1500 180/10 RMK AO2
94908KDBQ DBQ20071111173510611/11/07 17:35:31  5-MIN KDBQ 112335Z 18010KT 6SM HZ SCT021 OVC029 16/12 A2982 1170 80 1500 180/10 RMK AO2
94908KDBQ DBQ20071111174010611/11/07 17:40:31  5-MIN KDBQ 112340Z 18009KT 6SM HZ SCT021 OVC029 16/12 A2982 1170 80 1500 180/09 RMK AO2
94908KDBQ DBQ20071111174510611/11/07 17:45:31  5-MIN KDBQ 112345Z 18011KT 6SM HZ SCT021 OVC029 16/12 A2983 1170 80 1500 180/11 RMK AO2
94908KDBQ DBQ20071111175014111/11/07 17:50:31  5-MIN KDBQ 112350Z 18010KT 6SM HZ FEW019 OVC029 16/12 A2983 1160 80 1500 180/10 RMK AO2 SLP102 T01560122 10167 20139 55007
94908KDBQ DBQ20071111175510911/11/07 17:55:31  5-MIN KDBQ 112355Z AUTO 18009KT 6SM HZ OVC029 16/12 A2983 1160 80 1500 180/09 RMK AO2 TSNO
94908KDBQ DBQ20071111180010611/11/07 18:00:31  5-MIN KDBQ 120000Z 18009KT 6SM HZ FEW016 OVC029 16/12 A2983 1160 80 1500 180/09 RMK AO2
94908KDBQ DBQ20071111180510611/11/07 18:05:31  5-MIN KDBQ 120005Z 19009KT 6SM HZ SCT016 OVC029 16/12 A2983 1160 80 1500 190/09 RMK AO2
94908KDBQ DBQ20071111181010611/11/07 18:10:31  5-MIN KDBQ 120010Z 19009KT 6SM HZ SCT016 OVC029 16/12 A2983 1160 80 1500 190/09 RMK AO2
94908KDBQ DBQ20071111181510611/11/07 18:15:31  5-MIN KDBQ 120015Z 19010KT 6SM HZ SCT016 OVC027 16/12 A2983 1160 80 1500 180/10 RMK AO2
94908KDBQ DBQ20071111182010611/11/07 18:20:31  5-MIN KDBQ 120020Z 18009KT 6SM HZ FEW016 OVC027 16/12 A2983 1160 80 1500 180/09 RMK AO2
94908KDBQ DBQ20071111182510611/11/07 18:25:31  5-MIN KDBQ 120025Z 18010KT 6SM HZ FEW016 OVC025 16/12 A2983 1160 80 1500 180/10 RMK AO2
94908KDBQ DBQ20071111183010611/11/07 18:30:31  5-MIN KDBQ 120030Z 19011KT 6SM HZ FEW016 OVC025 16/12 A2983 1160 80 1500 190/11 RMK AO2
94908KDBQ DBQ20071111183510611/11/07 18:35:31  5-MIN KDBQ 120035Z 19011KT 6SM HZ FEW016 OVC025 16/12 A2983 1160 80 1500 180/11 RMK AO2
94908KDBQ DBQ20071111184009911/11/07 18:40:31  5-MIN KDBQ 120040Z 18010KT 6SM HZ OVC025 16/12 A2983 1160 80 1500 180/10 RMK AO2
94908KDBQ DBQ20071111184509911/11/07 18:45:31  5-MIN KDBQ 120045Z 19011KT 6SM HZ OVC025 16/12 A2983 1160 80 1500 180/11 RMK AO2
94908KDBQ DBQ20071111185011611/11/07 18:50:31  5-MIN KDBQ 120050Z 19011KT 6SM HZ OVC025 16/12 A2984 1160 80 1500 190/11 RMK AO2 SLP105 T01560122
94908KDBQ DBQ20071111185510611/11/07 18:55:31  5-MIN KDBQ 120055Z 19009KT 6SM HZ FEW013 OVC025 16/12 A2984 1150 80 1500 190/09 RMK AO2
94908KDBQ DBQ20071111190011311/11/07 19:00:31  5-MIN KDBQ 120100Z 19008KT 6SM HZ FEW013 SCT020 OVC025 16/13 A2984 1150 83 1500 190/08 RMK AO2
94908KDBQ DBQ20071111190511311/11/07 19:05:31  5-MIN KDBQ 120105Z 20008KT 6SM HZ SCT013 SCT020 OVC025 16/13 A2985 1150 83 1500 200/08 RMK AO2
94908KDBQ DBQ20071111191010611/11/07 19:10:31  5-MIN KDBQ 120110Z 20007KT 6SM BR SCT013 OVC025 15/13 A2985 1150 86 1500 200/07 RMK AO2
94908KDBQ DBQ20071111191510611/11/07 19:15:31  5-MIN KDBQ 120115Z 20008KT 6SM BR FEW013 OVC025 15/13 A2985 1140 86 1500 200/08 RMK AO2
94908KDBQ DBQ20071111192010611/11/07 19:20:31  5-MIN KDBQ 120120Z 20008KT 6SM BR SCT013 OVC025 15/13 A2985 1140 86 1400 200/08 RMK AO2
94908KDBQ DBQ20071111192510611/11/07 19:25:31  5-MIN KDBQ 120125Z 20008KT 6SM BR FEW013 OVC025 15/13 A2985 1140 86 1400 200/08 RMK AO2
94908KDBQ DBQ20071111193010611/11/07 19:30:31  5-MIN KDBQ 120130Z 20009KT 6SM BR FEW013 OVC025 15/13 A2986 1140 86 1400 200/09 RMK AO2
94908KDBQ DBQ20071111193509911/11/07 19:35:31  5-MIN KDBQ 120135Z 19008KT 6SM BR OVC025 15/13 A2986 1140 86 1400 190/08 RMK AO2
94908KDBQ DBQ20071111194010611/11/07 19:40:31  5-MIN KDBQ 120140Z 19007KT 6SM BR FEW018 OVC027 15/13 A2986 1140 86 1400 190/07 RMK AO2
94908KDBQ DBQ20071111194510611/11/07 19:45:31  5-MIN KDBQ 120145Z 19007KT 6SM BR BKN025 OVC030 15/13 A2986 1130 86 1400 190/07 RMK AO2
94908KDBQ DBQ20071111195012311/11/07 19:50:31  5-MIN KDBQ 120150Z 19006KT 6SM BR BKN026 OVC032 15/13 A2986 1130 86 1400 190/06 RMK AO2 SLP113 T01500128
94908KDBQ DBQ20071111195511111/11/07 19:55:31  5-MIN KDBQ 120155Z AUTO 19006KT 6SM BR FEW024 OVC031 15/13 A2986 1130 86 1400 190/06 RMK AO2
94908KDBQ DBQ20071111200011811/11/07 20:00:31  5-MIN KDBQ 120200Z AUTO 19005KT 6SM BR FEW020 BKN029 OVC034 15/13 A2986 1130 86 1400 190/05 RMK AO2
94908KDBQ DBQ20071111200510411/11/07 20:05:31  5-MIN KDBQ 120205Z AUTO 20005KT 6SM BR OVC032 15/13 A2986 1130 86 1400 200/05 RMK AO2
94908KDBQ DBQ20071111201011111/11/07 20:10:31  5-MIN KDBQ 120210Z AUTO 20005KT 6SM BR FEW023 OVC033 15/13 A2987 1130 86 1400 200/05 RMK AO2
94908KDBQ DBQ20071111201510411/11/07 20:15:31  5-MIN KDBQ 120215Z AUTO 20005KT 6SM BR OVC033 15/13 A2987 1130 86 1400 200/05 RMK AO2
94908KDBQ DBQ20071111202010411/11/07 20:20:31  5-MIN KDBQ 120220Z AUTO 20005KT 6SM BR OVC033 15/13 A2987 1130 86 1400 200/05 RMK AO2
94908KDBQ DBQ20071111202510411/11/07 20:25:31  5-MIN KDBQ 120225Z AUTO 19006KT 6SM BR OVC035 15/13 A2987 1130 86 1400 190/06 RMK AO2
94908KDBQ DBQ20071111203010411/11/07 20:30:31  5-MIN KDBQ 120230Z AUTO 19006KT 6SM BR OVC035 15/13 A2986 1130 86 1400 190/06 RMK AO2
94908KDBQ DBQ20071111203511111/11/07 20:35:31  5-MIN KDBQ 120235Z AUTO 19007KT 5SM BR FEW028 OVC035 15/13 A2986 1130 86 1400 190/07 RMK AO2
94908KDBQ DBQ20071111204011111/11/07 20:40:31  5-MIN KDBQ 120240Z AUTO 20007KT 5SM BR SCT028 OVC035 15/13 A2987 1130 86 1400 200/07 RMK AO2
94908KDBQ DBQ20071111204511111/11/07 20:45:31  5-MIN KDBQ 120245Z AUTO 20006KT 5SM BR FEW025 OVC035 15/13 A2987 1130 86 1400 190/06 RMK AO2
94908KDBQ DBQ20071111205013411/11/07 20:50:31  5-MIN KDBQ 120250Z AUTO 19006KT 5SM BR FEW025 OVC035 15/13 A2987 1130 86 1400 190/06 RMK AO2 SLP115 T01500128 51011
94908KDBQ DBQ20071111205511111/11/07 20:55:31  5-MIN KDBQ 120255Z AUTO 20006KT 5SM BR FEW025 OVC037 15/13 A2987 1130 86 1400 200/06 RMK AO2
94908KDBQ DBQ20071111210011111/11/07 21:00:31  5-MIN KDBQ 120300Z AUTO 20006KT 5SM BR FEW025 OVC037 15/13 A2987 1130 86 1400 200/06 RMK AO2
94908KDBQ DBQ20071111210510411/11/07 21:05:31  5-MIN KDBQ 120305Z AUTO 19006KT 6SM BR OVC039 15/13 A2987 1130 86 1400 190/06 RMK AO2
94908KDBQ DBQ20071111211011111/11/07 21:10:31  5-MIN KDBQ 120310Z AUTO 19006KT 6SM BR BKN039 OVC046 15/13 A2987 1120 86 1400 190/06 RMK AO2
94908KDBQ DBQ20071111211510411/11/07 21:15:31  5-MIN KDBQ 120315Z AUTO 20006KT 6SM BR OVC041 15/13 A2988 1120 86 1400 190/06 RMK AO2
94908KDBQ DBQ20071111212010411/11/07 21:20:31  5-MIN KDBQ 120320Z AUTO 19007KT 6SM BR OVC039 15/13 A2987 1120 86 1400 190/07 RMK AO2
94908KDBQ DBQ20071111212510411/11/07 21:25:31  5-MIN KDBQ 120325Z AUTO 19007KT 5SM BR OVC039 15/13 A2988 1120 86 1400 190/07 RMK AO2
94908KDBQ DBQ20071111213010411/11/07 21:30:31  5-MIN KDBQ 120330Z AUTO 19006KT 5SM BR OVC041 15/13 A2988 1120 86 1400 190/06 RMK AO2
94908KDBQ DBQ20071111213510411/11/07 21:35:31  5-MIN KDBQ 120335Z AUTO 19007KT 5SM BR OVC041 15/13 A2988 1120 86 1400 190/07 RMK AO2
94908KDBQ DBQ20071111214011111/11/07 21:40:31  5-MIN KDBQ 120340Z AUTO 19006KT 5SM BR FEW036 OVC043 15/13 A2988 1120 86 1400 190/06 RMK AO2
94908KDBQ DBQ20071111214511111/11/07 21:45:31  5-MIN KDBQ 120345Z AUTO 19006KT 5SM BR SCT036 OVC043 15/13 A2988 1120 86 1400 190/06 RMK AO2
94908KDBQ DBQ20071111215013511/11/07 21:50:31  5-MIN KDBQ 120350Z AUTO 20005KT 5SM BR FEW025 SCT035 OVC045 15/13 A2988 1110 86 1400 200/05 RMK AO2 SLP120 T01500128
94908KDBQ DBQ20071111215511111/11/07 21:55:31  5-MIN KDBQ 120355Z AUTO 19006KT 5SM BR FEW025 OVC045 15/13 A2988 1110 86 1400 190/06 RMK AO2
94908KDBQ DBQ20071111220011111/11/07 22:00:31  5-MIN KDBQ 120400Z AUTO 19007KT 5SM BR FEW027 OVC045 15/13 A2988 1110 86 1400 190/07 RMK AO2
94908KDBQ DBQ20071111220511111/11/07 22:05:31  5-MIN KDBQ 120405Z AUTO 19007KT 4SM BR FEW027 OVC045 15/13 A2988 1110 86 1400 190/07 RMK AO2
94908KDBQ DBQ20071111221011111/11/07 22:10:31  5-MIN KDBQ 120410Z AUTO 19007KT 5SM BR FEW034 OVC045 15/13 A2988 1120 90 1400 180/07 RMK AO2
94908KDBQ DBQ20071111221511111/11/07 22:15:31  5-MIN KDBQ 120415Z AUTO 18007KT 5SM BR FEW025 OVC045 15/13 A2988 1110 90 1400 180/07 RMK AO2
94908KDBQ DBQ20071111222011811/11/07 22:20:31  5-MIN KDBQ 120420Z AUTO 18007KT 5SM BR SCT025 SCT032 OVC045 15/13 A2988 1120 90 1400 180/07 RMK AO2
94908KDBQ DBQ20071111222511811/11/07 22:25:31  5-MIN KDBQ 120425Z AUTO 18007KT 5SM BR SCT025 BKN036 OVC045 15/13 A2988 1120 90 1400 180/07 RMK AO2
94908KDBQ DBQ20071111223011811/11/07 22:30:31  5-MIN KDBQ 120430Z AUTO 18008KT 5SM BR FEW025 BKN045 OVC055 15/13 A2988 1120 90 1400 180/08 RMK AO2
94908KDBQ DBQ20071111223511811/11/07 22:35:31  5-MIN KDBQ 120435Z AUTO 18008KT 5SM BR FEW025 BKN048 OVC060 15/13 A2988 1120 90 1400 180/08 RMK AO2
94908KDBQ DBQ20071111224011811/11/07 22:40:31  5-MIN KDBQ 120440Z AUTO 19008KT 5SM BR FEW025 BKN048 OVC060 15/13 A2988 1120 90 1400 190/08 RMK AO2
94908KDBQ DBQ20071111224511811/11/07 22:45:31  5-MIN KDBQ 120445Z AUTO 19007KT 5SM BR FEW025 BKN045 OVC060 15/13 A2988 1110 90 1400 190/07 RMK AO2
94908KDBQ DBQ20071111225013511/11/07 22:50:31  5-MIN KDBQ 120450Z AUTO 19007KT 5SM BR BKN042 BKN049 OVC060 15/13 A2988 1110 90 1400 190/07 RMK AO2 SLP120 T01500133
94908KDBQ DBQ20071111225511811/11/07 22:55:31  5-MIN KDBQ 120455Z AUTO 20007KT 5SM BR FEW026 BKN042 OVC060 15/13 A2988 1110 90 1400 190/07 RMK AO2
94908KDBQ DBQ20071111230011811/11/07 23:00:31  5-MIN KDBQ 120500Z AUTO 20007KT 5SM BR FEW018 BKN042 OVC060 15/13 A2988 1110 90 1400 200/07 RMK AO2
94908KDBQ DBQ20071111230511811/11/07 23:05:31  5-MIN KDBQ 120505Z AUTO 20007KT 5SM BR FEW018 SCT025 OVC042 15/13 A2989 1110 90 1400 200/07 RMK AO2
94908KDBQ DBQ20071111231011111/11/07 23:10:31  5-MIN KDBQ 120510Z AUTO 20006KT 5SM BR BKN024 OVC042 15/13 A2989 1110 90 1400 200/06 RMK AO2
94908KDBQ DBQ20071111231511811/11/07 23:15:31  5-MIN KDBQ 120515Z AUTO 20006KT 5SM BR FEW021 BKN026 OVC042 15/13 A2989 1110 90 1400 200/06 RMK AO2
94908KDBQ DBQ20071111232011811/11/07 23:20:31  5-MIN KDBQ 120520Z AUTO 20006KT 5SM BR SCT021 BKN026 OVC042 15/13 A2989 1110 90 1400 200/06 RMK AO2
94908KDBQ DBQ20071111232511811/11/07 23:25:31  5-MIN KDBQ 120525Z AUTO 20006KT 5SM BR BKN021 BKN032 OVC040 15/13 A2989 1110 90 1400 200/06 RMK AO2
94908KDBQ DBQ20071111233011811/11/07 23:30:31  5-MIN KDBQ 120530Z AUTO 20006KT 5SM BR BKN021 BKN029 OVC040 15/13 A2989 1110 90 1400 200/06 RMK AO2
94908KDBQ DBQ20071111233511811/11/07 23:35:31  5-MIN KDBQ 120535Z AUTO 21006KT 5SM BR BKN021 BKN029 OVC038 15/13 A2989 1110 90 1400 200/06 RMK AO2
94908KDBQ DBQ20071111234011811/11/07 23:40:31  5-MIN KDBQ 120540Z AUTO 21006KT 4SM BR SCT021 BKN031 OVC038 15/13 A2989 1110 90 1400 210/06 RMK AO2
94908KDBQ DBQ20071111234511811/11/07 23:45:31  5-MIN KDBQ 120545Z AUTO 20006KT 4SM BR SCT021 BKN031 OVC060 15/13 A2989 1110 90 1400 200/06 RMK AO2
94908KDBQ DBQ20071111235016311/11/07 23:50:31  5-MIN KDBQ 120550Z AUTO 20006KT 5SM BR FEW021 BKN039 OVC060 15/13 A2988 1110 90 1400 200/06 RMK AO2 SLP120 T01500133 10156 20150 401670083 51013
94908KDBQ DBQ20071111235511811/11/07 23:55:31  5-MIN KDBQ 120555Z AUTO 20006KT 5SM BR FEW021 BKN048 OVC060 15/13 A2988 1110 90 1400 200/06 RMK AO2
94908KDBQ DBQ20071112000011811/12/07 00:00:38  5-MIN KDBQ 120600Z AUTO 21006KT 5SM BR FEW021 SCT039 OVC060 14/13 A2988 1110 93 1300 200/06 RMK AO2
94908KDBQ DBQ20071112000511111/12/07 00:05:31  5-MIN KDBQ 120605Z AUTO 21006KT 5SM BR FEW021 OVC060 14/13 A2988 1110 93 1300 210/06 RMK AO2
94908KDBQ DBQ20071112001011811/12/07 00:10:31  5-MIN KDBQ 120610Z AUTO 21005KT 5SM BR FEW021 SCT029 OVC060 14/13 A2988 1110 93 1300 210/05 RMK AO2
94908KDBQ DBQ20071112001511811/12/07 00:15:32  5-MIN KDBQ 120615Z AUTO 21006KT 5SM BR FEW023 BKN047 OVC060 15/13 A2988 1110 90 1400 210/06 RMK AO2
94908KDBQ DBQ20071112002011811/12/07 00:20:31  5-MIN KDBQ 120620Z AUTO 21005KT 5SM BR FEW022 SCT028 OVC060 15/13 A2988 1110 90 1400 210/05 RMK AO2
94908KDBQ DBQ20071112002511811/12/07 00:25:31  5-MIN KDBQ 120625Z AUTO 20005KT 5SM BR FEW022 SCT028 OVC060 14/13 A2988 1110 93 1300 200/05 RMK AO2
94908KDBQ DBQ20071112003011811/12/07 00:30:31  5-MIN KDBQ 120630Z AUTO 21005KT 5SM BR FEW022 SCT028 OVC065 14/13 A2988 1110 93 1300 210/05 RMK AO2
94908KDBQ DBQ20071112003511811/12/07 00:35:31  5-MIN KDBQ 120635Z AUTO 21005KT 5SM BR SCT022 SCT028 OVC065 14/13 A2989 1110 90 1300 210/05 RMK AO2
94908KDBQ DBQ20071112004011811/12/07 00:40:31  5-MIN KDBQ 120640Z AUTO 22004KT 5SM BR SCT020 SCT028 OVC065 14/13 A2988 1110 90 1300 220/04 RMK AO2
94908KDBQ DBQ20071112004511111/12/07 00:45:31  5-MIN KDBQ 120645Z AUTO 21004KT 5SM BR FEW020 OVC065 14/13 A2988 1110 90 1300 210/04 RMK AO2
94908KDBQ DBQ20071112005012811/12/07 00:50:31  5-MIN KDBQ 120650Z AUTO 21005KT 4SM BR FEW020 BKN065 14/13 A2989 1110 93 1300 210/05 RMK AO2 SLP121 T01390128
94908KDBQ DBQ20071112005511111/12/07 00:55:31  5-MIN KDBQ 120655Z AUTO 22004KT 4SM BR FEW020 BKN065 14/13 A2989 1110 93 1300 220/04 RMK AO2
94908KDBQ DBQ20071112010011111/12/07 01:00:31  5-MIN KDBQ 120700Z AUTO 22005KT 4SM BR FEW020 BKN065 14/13 A2989 1110 93 1300 220/05 RMK AO2
94908KDBQ DBQ20071112010511111/12/07 01:05:31  5-MIN KDBQ 120705Z AUTO 23005KT 4SM BR FEW022 BKN065 14/13 A2989 1110 93 1300 230/05 RMK AO2
94908KDBQ DBQ20071112011010411/12/07 01:10:31  5-MIN KDBQ 120710Z AUTO 23004KT 4SM BR BKN065 14/13 A2989 1100 93 1300 230/04 RMK AO2
94908KDBQ DBQ20071112011510411/12/07 01:15:31  5-MIN KDBQ 120715Z AUTO 23005KT 4SM BR BKN065 14/12 A2990 1100 90 1300 230/05 RMK AO2
94908KDBQ DBQ20071112012010411/12/07 01:20:31  5-MIN KDBQ 120720Z AUTO 24005KT 4SM BR BKN065 13/12 A2990 1100 93 1200 240/05 RMK AO2
94908KDBQ DBQ20071112012511111/12/07 01:25:31  5-MIN KDBQ 120725Z AUTO 24005KT 4SM BR FEW016 BKN065 13/12 A2990 1100 93 1200 230/05 RMK AO2
94908KDBQ DBQ20071112013011111/12/07 01:30:31  5-MIN KDBQ 120730Z AUTO 23005KT 4SM BR SCT016 BKN065 14/12 A2990 1100 90 1300 230/05 RMK AO2
94908KDBQ DBQ20071112013511111/12/07 01:35:31  5-MIN KDBQ 120735Z AUTO 24004KT 4SM BR BKN016 BKN065 14/13 A2990 1090 93 1300 240/04 RMK AO2
94908KDBQ DBQ20071112014011111/12/07 01:40:31  5-MIN KDBQ 120740Z AUTO 24004KT 4SM BR BKN014 OVC065 14/13 A2990 1090 93 1300 230/04 RMK AO2
94908KDBQ DBQ20071112014511111/12/07 01:45:31  5-MIN KDBQ 120745Z AUTO 24005KT 4SM BR BKN014 OVC065 14/13 A2991 1090 93 1300 240/05 RMK AO2
94908KDBQ DBQ20071112015012111/12/07 01:50:31  5-MIN KDBQ 120750Z AUTO 24005KT 4SM BR OVC014 14/13 A2991 1090 93 1300 240/05 RMK AO2 SLP127 T01390128
94908KDBQ DBQ20071112015511811/12/07 01:55:31  5-MIN KDBQ 120755Z AUTO 24006KT 4SM BR BKN011 BKN018 OVC029 14/13 A2991 1090 90 1300 240/06 RMK AO2
94908KDBQ DBQ20071112020011811/12/07 02:00:31  5-MIN KDBQ 120800Z AUTO 25007KT 4SM BR BKN011 BKN020 OVC029 14/13 A2991 1090 90 1300 250/07 RMK AO2
94908KDBQ DBQ20071112020511811/12/07 02:05:31  5-MIN KDBQ 120805Z AUTO 25005KT 4SM BR SCT011 BKN017 OVC029 14/13 A2991 1090 90 1300 250/05 RMK AO2
94908KDBQ DBQ20071112021011811/12/07 02:10:31  5-MIN KDBQ 120810Z AUTO 25005KT 4SM BR SCT011 BKN017 OVC029 14/13 A2991 1090 90 1300 250/05 RMK AO2
94908KDBQ DBQ20071112021513011/12/07 02:15:31  5-MIN KDBQ 120815Z AUTO 26005KT 4SM BR BKN011 BKN019 OVC029 14/13 A2992 1080 93 1200 260/05 RMK AO2 CIG 008V013
94908KDBQ DBQ20071112022012311/12/07 02:20:31  5-MIN KDBQ 120820Z AUTO 27007KT 4SM BR BKN009 OVC029 14/13 A2992 1080 90 1300 270/07 RMK AO2 CIG 007V012
94908KDBQ DBQ20071112022512311/12/07 02:25:31  5-MIN KDBQ 120825Z AUTO 28007KT 4SM BR BKN009 OVC029 14/13 A2992 1080 93 1300 280/07 RMK AO2 CIG 007V012
94908KDBQ DBQ20071112023012311/12/07 02:30:31  5-MIN KDBQ 120830Z AUTO 28007KT 4SM BR BKN009 BKN029 14/13 A2991 1080 93 1300 280/07 RMK AO2 CIG 007V011
94908KDBQ DBQ20071112023511611/12/07 02:35:31  5-MIN KDBQ 120835Z AUTO 29006KT 4SM BR BKN007 14/13 A2992 1080 93 1300 290/06 RMK AO2 CIG 005V011
94908KDBQ DBQ20071112024010411/12/07 02:40:31  5-MIN KDBQ 120840Z AUTO 29005KT 4SM BR SCT007 14/13 A2991 1080 90 1300 290/05 RMK AO2
94908KDBQ DBQ20071112024510411/12/07 02:45:31  5-MIN KDBQ 120845Z AUTO 31007KT 3SM BR SCT007 14/13 A2991 1090 93 1200 310/07 RMK AO2
94908KDBQ DBQ20071112025011611/12/07 02:50:31  5-MIN KDBQ 120850Z AUTO 31009KT 3SM BR BKN005 14/13 A2991 1090 90 1300 310/09 RMK AO2 CIG 004V008
94908KDBQ DBQ20071112025510411/12/07 02:55:31  5-MIN KDBQ 120855Z AUTO 31008KT 3SM BR BKN005 14/13 A2991 1080 93 1300 310/08 RMK AO2
94908KDBQ DBQ20071112030010411/12/07 03:00:31  5-MIN KDBQ 120900Z AUTO 31007KT 3SM BR BKN005 14/13 A2991 1080 93 1300 310/07 RMK AO2
94908KDBQ DBQ20071112030510411/12/07 03:05:31  5-MIN KDBQ 120905Z AUTO 31005KT 3SM BR BKN005 14/13 A2991 1090 93 1300 310/05 RMK AO2
94908KDBQ DBQ20071112031010411/12/07 03:10:31  5-MIN KDBQ 120910Z AUTO 32004KT 3SM BR BKN005 14/13 A2991 1090 93 1200 320/04 RMK AO2
94908KDBQ DBQ20071112031510411/12/07 03:15:31  5-MIN KDBQ 120915Z AUTO 32004KT 3SM BR BKN005 13/12 A2991 1090 93 1200 320/04 RMK AO2
94908KDBQ DBQ20071112032010811/12/07 03:20:31  5-MIN KDBQ 120920Z AUTO 00000KT 2 1/2SM BR BKN005 13/12 A2991 1090 93 1200 000/00 RMK AO2
94908KDBQ DBQ20071112032510411/12/07 03:25:31  5-MIN KDBQ 120925Z AUTO 00000KT 2SM BR SCT005 13/12 A2991 1090 93 1100 000/00 RMK AO2
94908KDBQ DBQ20071112033010811/12/07 03:30:31  5-MIN KDBQ 120930Z AUTO 21004KT 1 1/2SM BR FEW005 13/12 A2991 1090 93 1100 200/04 RMK AO2
94908KDBQ DBQ20071112033510811/12/07 03:35:31  5-MIN KDBQ 120935Z AUTO 22004KT 1 1/2SM BR FEW005 12/11 A2991 1080 93 1000 220/04 RMK AO2
94908KDBQ DBQ20071112034010511/12/07 03:40:31  5-MIN KDBQ 120940Z AUTO 22005KT 1 3/4SM BR CLR 12/11 A2992 1080 93 1000 220/05 RMK AO2
94908KDBQ DBQ20071112034510811/12/07 03:45:31  5-MIN KDBQ 120945Z AUTO 23005KT 1 1/4SM BR FEW006 12/11 A2991 1090 96 1000 230/05 RMK AO2
94908KDBQ DBQ20071112035010311/12/07 03:50:31  5-MIN KDBQ 120950Z AUTO 24004KT 1SM BR VV005 12/11 A2992 1080 96 1000 240/04 RMK AO2
94908KDBQ DBQ20071112035510611/12/07 03:55:31  5-MIN KDBQ 120955Z AUTO 25004KT 1/2SM FG BKN006 12/11 A2992 1080 96 1000 250/04 RMK AO2
94908KDBQ DBQ20071112040010611/12/07 04:00:31  5-MIN KDBQ 121000Z AUTO 24004KT 1/4SM FG BKN006 12/11 A2992 1080 96 1000 240/04 RMK AO2
94908KDBQ DBQ20071112040510611/12/07 04:05:31  5-MIN KDBQ 121005Z AUTO 26003KT 1/4SM FG BKN004 12/11 A2992 1080 96 1000 250/03 RMK AO2
94908KDBQ DBQ20071112041010511/12/07 04:10:31  5-MIN KDBQ 121010Z AUTO 27005KT 1/4SM FG OVC004 11/11 A2992 1080 96 900 270/05 RMK AO2
94908KDBQ DBQ20071112041510511/12/07 04:15:31  5-MIN KDBQ 121015Z AUTO 30004KT 1/4SM FG OVC004 11/11 A2993 1070 96 900 300/04 RMK AO2
94908KDBQ DBQ20071112042010611/12/07 04:20:31  5-MIN KDBQ 121020Z AUTO 32005KT 1/4SM FG OVC004 12/11 A2993 1070 96 1000 310/05 RMK AO2
94908KDBQ DBQ20071112042510611/12/07 04:25:31  5-MIN KDBQ 121025Z AUTO 33007KT 3/4SM BR BKN004 12/11 A2993 1070 93 1000 330/07 RMK AO2
94908KDBQ DBQ20071112043010311/12/07 04:30:31  5-MIN KDBQ 121030Z AUTO 33006KT 3SM BR BKN004 11/10 A2994 1060 93 900 330/06 RMK AO2
94908KDBQ DBQ20071112043510311/12/07 04:35:31  5-MIN KDBQ 121035Z AUTO 32006KT 4SM BR SCT004 11/10 A2994 1060 96 800 320/06 RMK AO2
94908KDBQ DBQ20071112044010311/12/07 04:40:31  5-MIN KDBQ 121040Z AUTO 32006KT 4SM BR FEW004 11/09 A2995 1050 93 800 320/06 RMK AO2
94908KDBQ DBQ20071112044511011/12/07 04:45:31  5-MIN KDBQ 121045Z AUTO 32007KT 4SM BR FEW006 11/09 A2996 1050 93 800 320/07 RMK AO2 PRESRR
94908KDBQ DBQ20071112045011711/12/07 04:50:31  5-MIN KDBQ 121050Z AUTO 32007KT 5SM BR CLR 10/09 A2996 1050 93 700 320/07 RMK AO2 SLP145 T01000089
94908KDBQ DBQ20071112045510011/12/07 04:55:31  5-MIN KDBQ 121055Z AUTO 32005KT 5SM BR CLR 10/09 A2996 1040 93 700 320/05 RMK AO2
94908KDBQ DBQ20071112050010011/12/07 05:00:31  5-MIN KDBQ 121100Z AUTO 33005KT 5SM BR CLR 10/08 A2996 1040 89 700 330/05 RMK AO2
94908KDBQ DBQ20071112050510011/12/07 05:05:31  5-MIN KDBQ 121105Z AUTO 34008KT 5SM BR CLR 10/08 A2996 1040 89 700 340/08 RMK AO2
94908KDBQ DBQ20071112051010011/12/07 05:10:31  5-MIN KDBQ 121110Z AUTO 34007KT 5SM BR CLR 10/08 A2996 1040 89 700 340/07 RMK AO2
94908KDBQ DBQ20071112051510011/12/07 05:15:31  5-MIN KDBQ 121115Z AUTO 35009KT 5SM BR CLR 10/08 A2996 1040 89 700 350/09 RMK AO2
94908KDBQ DBQ20071112052010011/12/07 05:20:31  5-MIN KDBQ 121120Z AUTO 34007KT 5SM BR CLR 10/08 A2997 1030 89 700 340/07 RMK AO2
94908KDBQ DBQ20071112052510011/12/07 05:25:31  5-MIN KDBQ 121125Z AUTO 35008KT 5SM BR CLR 10/08 A2997 1030 86 700 340/08 RMK AO2
94908KDBQ DBQ20071112053010011/12/07 05:30:31  5-MIN KDBQ 121130Z AUTO 34008KT 5SM BR CLR 09/08 A2997 1030 89 600 340/08 RMK AO2
94908KDBQ DBQ20071112053510011/12/07 05:35:31  5-MIN KDBQ 121135Z AUTO 35009KT 5SM BR CLR 10/08 A2998 1030 86 700 350/09 RMK AO2
94908KDBQ DBQ20071112054009511/12/07 05:40:31  5-MIN KDBQ 121140Z 35009KT 4SM BR CLR 09/08 A2998 1030 89 600 350/09 RMK AO2
94908KDBQ DBQ20071112054509511/12/07 05:45:31  5-MIN KDBQ 121145Z 36007KT 4SM BR CLR 09/08 A2998 1020 89 600 360/07 RMK AO2
94908KDBQ DBQ20071112055013011/12/07 05:50:31  5-MIN KDBQ 121150Z 36006KT 4SM BR CLR 09/08 A2999 1020 89 600 360/06 RMK AO2 SLP156 T00940078 10150 20094 51009
94908KDBQ DBQ20071112055509511/12/07 05:55:31  5-MIN KDBQ 121155Z 36007KT 4SM BR CLR 09/07 A2999 1020 86 600 360/07 RMK AO2
94908KDBQ DBQ20071112060009511/12/07 06:00:31  5-MIN KDBQ 121200Z 01007KT 4SM BR CLR 09/07 A2999 1010 86 600 010/07 RMK AO2
94908KDBQ DBQ20071112060509511/12/07 06:05:31  5-MIN KDBQ 121205Z 02007KT 4SM BR CLR 09/07 A2999 1010 86 600 020/07 RMK AO2
94908KDBQ DBQ20071112061009511/12/07 06:10:31  5-MIN KDBQ 121210Z 02007KT 5SM BR CLR 09/07 A3000 1010 89 600 020/07 RMK AO2
94908KDBQ DBQ20071112061509511/12/07 06:15:31  5-MIN KDBQ 121215Z 01007KT 4SM BR CLR 09/07 A3000 1000 89 500 010/07 RMK AO2
94908KDBQ DBQ20071112062009511/12/07 06:20:31  5-MIN KDBQ 121220Z 01007KT 4SM BR CLR 09/07 A3000 1000 89 500 010/07 RMK AO2
94908KDBQ DBQ20071112062509511/12/07 06:25:31  5-MIN KDBQ 121225Z 01009KT 4SM BR CLR 09/07 A3000 1000 89 500 010/09 RMK AO2
94908KDBQ DBQ20071112063009511/12/07 06:30:31  5-MIN KDBQ 121230Z 01008KT 4SM BR CLR 09/07 A3000 1000 89 600 010/08 RMK AO2
94908KDBQ DBQ20071112063509511/12/07 06:35:31  5-MIN KDBQ 121235Z 01008KT 5SM BR CLR 09/07 A3000 1000 89 500 010/08 RMK AO2
94908KDBQ DBQ20071112064009511/12/07 06:40:31  5-MIN KDBQ 121240Z 36010KT 5SM BR CLR 09/07 A3001 1000 86 500 360/10 RMK AO2
94908KDBQ DBQ20071112064509511/12/07 06:45:31  5-MIN KDBQ 121245Z 36010KT 5SM BR CLR 09/07 A3001 1000 86 500 360/10 RMK AO2
94908KDBQ DBQ20071112065011111/12/07 06:50:31  5-MIN KDBQ 121250Z 36010KT 4SM BR CLR 09/07 A3001 990 86 500 360/10 RMK AO2 SLP165 T00890067
94908KDBQ DBQ20071112065509411/12/07 06:55:31  5-MIN KDBQ 121255Z 36009KT 4SM BR CLR 09/07 A3001 990 86 500 360/09 RMK AO2
94908KDBQ DBQ20071112070009411/12/07 07:00:31  5-MIN KDBQ 121300Z 35011KT 4SM BR CLR 08/07 A3001 990 89 500 350/11 RMK AO2
94908KDBQ DBQ20071112070509411/12/07 07:05:31  5-MIN KDBQ 121305Z 36009KT 4SM BR CLR 08/06 A3002 990 86 500 360/09 RMK AO2
94908KDBQ DBQ20071112071009411/12/07 07:10:31  5-MIN KDBQ 121310Z 36008KT 4SM BR CLR 08/06 A3002 990 86 500 350/08 RMK AO2
94908KDBQ DBQ20071112071509411/12/07 07:15:31  5-MIN KDBQ 121315Z 36007KT 4SM BR CLR 08/06 A3002 980 86 500 350/07 RMK AO2
94908KDBQ DBQ20071112072009411/12/07 07:20:31  5-MIN KDBQ 121320Z 36006KT 4SM BR CLR 08/06 A3003 980 86 500 360/06 RMK AO2
94908KDBQ DBQ20071112072509411/12/07 07:25:31  5-MIN KDBQ 121325Z 36006KT 4SM BR CLR 08/06 A3003 980 86 400 360/06 RMK AO2
94908KDBQ DBQ20071112073009411/12/07 07:30:31  5-MIN KDBQ 121330Z 01008KT 4SM BR CLR 08/06 A3003 980 86 500 010/08 RMK AO2
94908KDBQ DBQ20071112073509411/12/07 07:35:31  5-MIN KDBQ 121335Z 36008KT 4SM BR CLR 08/06 A3003 980 86 400 360/08 RMK AO2
94908KDBQ DBQ20071112074009411/12/07 07:40:31  5-MIN KDBQ 121340Z 36008KT 5SM HZ CLR 09/06 A3003 980 83 500 360/08 RMK AO2
94908KDBQ DBQ20071112074509411/12/07 07:45:31  5-MIN KDBQ 121345Z 36008KT 5SM HZ CLR 09/06 A3004 970 83 500 360/08 RMK AO2
94908KDBQ DBQ20071112075011111/12/07 07:50:31  5-MIN KDBQ 121350Z 36006KT 5SM HZ CLR 09/06 A3004 970 83 500 360/06 RMK AO2 SLP175 T00890061
94908KDBQ DBQ20071112075509411/12/07 07:55:31  5-MIN KDBQ 121355Z 01009KT 5SM HZ CLR 09/06 A3004 970 83 500 010/09 RMK AO2
94908KDBQ DBQ20071112080009411/12/07 08:00:31  5-MIN KDBQ 121400Z 01008KT 5SM HZ CLR 09/06 A3005 960 83 500 010/08 RMK AO2
94908KDBQ DBQ20071112080509411/12/07 08:05:31  5-MIN KDBQ 121405Z 36007KT 5SM HZ CLR 09/06 A3005 960 79 500 360/07 RMK AO2
94908KDBQ DBQ20071112081009411/12/07 08:10:31  5-MIN KDBQ 121410Z 01006KT 5SM HZ CLR 09/06 A3005 960 83 500 360/06 RMK AO2
94908KDBQ DBQ20071112081509411/12/07 08:15:31  5-MIN KDBQ 121415Z 01005KT 5SM HZ CLR 09/06 A3006 950 79 500 010/05 RMK AO2
94908KDBQ DBQ20071112082009411/12/07 08:20:31  5-MIN KDBQ 121420Z 01006KT 6SM HZ CLR 09/06 A3006 950 76 500 010/06 RMK AO2
94908KDBQ DBQ20071112082509411/12/07 08:25:31  5-MIN KDBQ 121425Z 35006KT 6SM HZ CLR 09/06 A3006 950 76 500 350/06 RMK AO2
94908KDBQ DBQ20071112083009411/12/07 08:30:31  5-MIN KDBQ 121430Z 36006KT 6SM HZ CLR 09/06 A3007 940 76 500 360/06 RMK AO2
94908KDBQ DBQ20071112083509411/12/07 08:35:31  5-MIN KDBQ 121435Z 01007KT 6SM HZ CLR 09/06 A3007 940 76 500 010/07 RMK AO2
94908KDBQ DBQ20071112084009111/12/07 08:40:31  5-MIN KDBQ 121440Z 36006KT 7SM CLR 10/06 A3008 940 74 600 360/06 RMK AO2
94908KDBQ DBQ20071112084509111/12/07 08:45:31  5-MIN KDBQ 121445Z 01006KT 7SM CLR 10/06 A3007 940 74 600 360/06 RMK AO2
94908KDBQ DBQ20071112085011411/12/07 08:50:31  5-MIN KDBQ 121450Z 01007KT 8SM CLR 10/06 A3007 940 74 600 360/07 RMK AO2 SLP186 T01000056 53024
94908KDBQ DBQ20071112085509111/12/07 08:55:31  5-MIN KDBQ 121455Z 01009KT 7SM CLR 10/06 A3007 940 74 600 010/09 RMK AO2
94908KDBQ DBQ20071112090009111/12/07 09:00:31  5-MIN KDBQ 121500Z 01008KT 8SM CLR 10/05 A3008 930 71 600 010/08 RMK AO2
94908KDBQ DBQ20071112090509111/12/07 09:05:31  5-MIN KDBQ 121505Z 36008KT 9SM CLR 11/05 A3008 930 68 700 360/08 RMK AO2
94908KDBQ DBQ20071112091009111/12/07 09:10:31  5-MIN KDBQ 121510Z 36008KT 9SM CLR 11/05 A3008 930 68 700 360/08 RMK AO2
94908KDBQ DBQ20071112091509811/12/07 09:15:31  5-MIN KDBQ 121515Z 01013G17KT 10SM CLR 11/04 A3008 930 63 700 360/13G17 RMK AO2
94908KDBQ DBQ20071112092009811/12/07 09:20:31  5-MIN KDBQ 121520Z 01010G17KT 10SM CLR 11/03 A3008 930 61 700 010/10G17 RMK AO2
94908KDBQ DBQ20071112092509211/12/07 09:25:31  5-MIN KDBQ 121525Z 36012KT 10SM CLR 11/04 A3009 920 61 700 360/12 RMK AO2
94908KDBQ DBQ20071112093009211/12/07 09:30:31  5-MIN KDBQ 121530Z 36010KT 10SM CLR 11/03 A3009 920 58 700 360/10 RMK AO2
94908KDBQ DBQ20071112093509211/12/07 09:35:31  5-MIN KDBQ 121535Z 35012KT 10SM CLR 11/03 A3009 920 58 700 350/12 RMK AO2
94908KDBQ DBQ20071112094009211/12/07 09:40:31  5-MIN KDBQ 121540Z 36013KT 10SM CLR 11/03 A3009 920 56 700 360/13 RMK AO2
94908KDBQ DBQ20071112094509211/12/07 09:45:31  5-MIN KDBQ 121545Z 36014KT 10SM CLR 11/03 A3009 920 56 700 350/14 RMK AO2
94908KDBQ DBQ20071112095010911/12/07 09:50:31  5-MIN KDBQ 121550Z 35013KT 10SM CLR 11/03 A3009 930 56 700 350/13 RMK AO2 SLP189 T01110028
94908KDBQ DBQ20071112095509211/12/07 09:55:31  5-MIN KDBQ 121555Z 36011KT 10SM CLR 11/03 A3009 930 58 700 360/11 RMK AO2
94908KDBQ DBQ20071112100009211/12/07 10:00:31  5-MIN KDBQ 121600Z 01010KT 10SM CLR 12/03 A3009 920 56 800 010/10 RMK AO2
94908KDBQ DBQ20071112100509211/12/07 10:05:31  5-MIN KDBQ 121605Z 01012KT 10SM CLR 12/03 A3009 920 56 800 010/12 RMK AO2
94908KDBQ DBQ20071112101009211/12/07 10:10:31  5-MIN KDBQ 121610Z 35010KT 10SM CLR 12/03 A3009 920 56 800 350/10 RMK AO2
94908KDBQ DBQ20071112101509211/12/07 10:15:31  5-MIN KDBQ 121615Z 35012KT 10SM CLR 12/03 A3010 920 56 800 350/12 RMK AO2
94908KDBQ DBQ20071112102009211/12/07 10:20:31  5-MIN KDBQ 121620Z 36010KT 10SM CLR 12/03 A3010 910 56 800 360/10 RMK AO2
94908KDBQ DBQ20071112102509811/12/07 10:25:31  5-MIN KDBQ 121625Z 35013G16KT 10SM CLR 12/03 A3010 910 56 800 350/13G16 RMK AO2
94908KDBQ DBQ20071112103009211/12/07 10:30:31  5-MIN KDBQ 121630Z 34011KT 10SM CLR 12/03 A3010 910 56 800 340/11 RMK AO2
94908KDBQ DBQ20071112103509211/12/07 10:35:31  5-MIN KDBQ 121635Z 35011KT 10SM CLR 12/03 A3010 910 54 800 350/11 RMK AO2
94908KDBQ DBQ20071112104009211/12/07 10:40:31  5-MIN KDBQ 121640Z 35011KT 10SM CLR 12/03 A3010 910 52 800 350/11 RMK AO2
94908KDBQ DBQ20071112104509211/12/07 10:45:31  5-MIN KDBQ 121645Z 36011KT 10SM CLR 12/03 A3010 910 52 800 360/11 RMK AO2
94908KDBQ DBQ20071112105010911/12/07 10:50:31  5-MIN KDBQ 121650Z 35010KT 10SM CLR 12/03 A3010 910 52 800 350/10 RMK AO2 SLP194 T01220028
94908KDBQ DBQ20071112105509211/12/07 10:55:31  5-MIN KDBQ 121655Z 36010KT 10SM CLR 12/02 A3010 920 50 800 360/10 RMK AO2
94908KDBQ DBQ20071112110009211/12/07 11:00:31  5-MIN KDBQ 121700Z 35012KT 10SM CLR 13/02 A3009 920 46 900 350/12 RMK AO2
94908KDBQ DBQ20071112110509211/12/07 11:05:31  5-MIN KDBQ 121705Z 36011KT 10SM CLR 13/02 A3009 920 46 900 350/11 RMK AO2
94908KDBQ DBQ20071112111009211/12/07 11:10:31  5-MIN KDBQ 121710Z 36013KT 10SM CLR 13/02 A3009 920 46 900 360/13 RMK AO2
94908KDBQ DBQ20071112111509211/12/07 11:15:31  5-MIN KDBQ 121715Z 36012KT 10SM CLR 13/01 A3009 920 44 900 360/12 RMK AO2
94908KDBQ DBQ20071112112009911/12/07 11:20:31  5-MIN KDBQ 121720Z 36009G18KT 10SM CLR 13/02 A3009 920 45 1000 360/09G18 RMK AO2
94908KDBQ DBQ20071112112509311/12/07 11:25:31  5-MIN KDBQ 121725Z 35011KT 10SM CLR 13/02 A3009 920 45 1000 350/11 RMK AO2
94908KDBQ DBQ20071112113009311/12/07 11:30:31  5-MIN KDBQ 121730Z 34014KT 10SM CLR 13/02 A3009 920 45 1000 340/14 RMK AO2
94908KDBQ DBQ20071112113509311/12/07 11:35:31  5-MIN KDBQ 121735Z 34012KT 10SM CLR 13/01 A3009 920 43 1000 340/12 RMK AO2
94908KDBQ DBQ20071112114009311/12/07 11:40:31  5-MIN KDBQ 121740Z 35010KT 10SM CLR 13/02 A3009 930 45 1000 350/10 RMK AO2
94908KDBQ DBQ20071112114509311/12/07 11:45:31  5-MIN KDBQ 121745Z 36010KT 10SM CLR 13/01 A3009 930 43 1000 360/10 RMK AO2
94908KDBQ DBQ20071112115012811/12/07 11:50:31  5-MIN KDBQ 121750Z 36011KT 10SM CLR 13/01 A3008 930 43 1000 360/11 RMK AO2 SLP188 T01330011 10133 20083 53028
94908KDBQ DBQ20071112115509311/12/07 11:55:31  5-MIN KDBQ 121755Z 33014KT 10SM CLR 14/01 A3008 930 41 1100 330/14 RMK AO2
94908KDBQ DBQ20071112120009311/12/07 12:00:31  5-MIN KDBQ 121800Z 34013KT 10SM CLR 13/01 A3008 930 41 1000 340/13 RMK AO2
94908KDBQ DBQ20071112120509311/12/07 12:05:31  5-MIN KDBQ 121805Z 35011KT 10SM CLR 14/00 A3008 930 38 1100 350/11 RMK AO2
94908KDBQ DBQ20071112121009311/12/07 12:10:31  5-MIN KDBQ 121810Z 34012KT 10SM CLR 14/00 A3008 930 38 1100 340/12 RMK AO2
94908KDBQ DBQ20071112121509311/12/07 12:15:31  5-MIN KDBQ 121815Z 34012KT 10SM CLR 14/00 A3008 930 38 1100 340/12 RMK AO2
94908KDBQ DBQ20071112122009411/12/07 12:20:31  5-MIN KDBQ 121820Z 35012KT 10SM CLR 14/M01 A3008 930 37 1100 350/12 RMK AO2
94908KDBQ DBQ20071112122509311/12/07 12:25:31  5-MIN KDBQ 121825Z 35010KT 10SM CLR 14/00 A3008 930 38 1100 350/10 RMK AO2
94908KDBQ DBQ20071112123009311/12/07 12:30:31  5-MIN KDBQ 121830Z 35009KT 10SM CLR 14/00 A3008 930 37 1100 350/09 RMK AO2
94908KDBQ DBQ20071112123509411/12/07 12:35:31  5-MIN KDBQ 121835Z 35012KT 10SM CLR 14/M01 A3008 940 35 1100 350/12 RMK AO2
94908KDBQ DBQ20071112124009411/12/07 12:40:31  5-MIN KDBQ 121840Z 35011KT 10SM CLR 14/M01 A3008 940 35 1100 350/11 RMK AO2
94908KDBQ DBQ20071112124509311/12/07 12:45:31  5-MIN KDBQ 121845Z 33012KT 10SM CLR 14/00 A3008 940 37 1100 330/12 RMK AO2
94908KDBQ DBQ20071112125011111/12/07 12:50:31  5-MIN KDBQ 121850Z 34012KT 10SM CLR 14/M01 A3007 940 35 1100 340/12 RMK AO2 SLP185 T01391011
94908KDBQ DBQ20071112125509411/12/07 12:55:31  5-MIN KDBQ 121855Z 34012KT 10SM CLR 14/M01 A3007 940 35 1100 340/12 RMK AO2
94908KDBQ DBQ20071112130009411/12/07 13:00:31  5-MIN KDBQ 121900Z 34015KT 10SM CLR 14/M01 A3007 940 35 1100 340/15 RMK AO2
94908KDBQ DBQ20071112130509411/12/07 13:05:31  5-MIN KDBQ 121905Z 34013KT 10SM CLR 14/M02 A3007 940 34 1100 340/13 RMK AO2
94908KDBQ DBQ20071112131009411/12/07 13:10:31  5-MIN KDBQ 121910Z 34015KT 10SM CLR 14/M01 A3007 940 35 1100 340/15 RMK AO2
94908KDBQ DBQ20071112131509411/12/07 13:15:31  5-MIN KDBQ 121915Z 34015KT 10SM CLR 14/M01 A3007 940 35 1100 340/15 RMK AO2
94908KDBQ DBQ20071112132009411/12/07 13:20:31  5-MIN KDBQ 121920Z 36013KT 10SM CLR 14/M01 A3007 940 35 1100 360/13 RMK AO2
94908KDBQ DBQ20071112132509411/12/07 13:25:31  5-MIN KDBQ 121925Z 35012KT 10SM CLR 14/M02 A3008 940 34 1100 350/12 RMK AO2
94908KDBQ DBQ20071112133009411/12/07 13:30:31  5-MIN KDBQ 121930Z 35011KT 10SM CLR 14/M01 A3008 930 34 1100 350/11 RMK AO2
94908KDBQ DBQ20071112133509411/12/07 13:35:31  5-MIN KDBQ 121935Z 34011KT 10SM CLR 14/M01 A3008 940 34 1100 340/11 RMK AO2
94908KDBQ DBQ20071112134009411/12/07 13:40:31  5-MIN KDBQ 121940Z 34010KT 10SM CLR 14/M01 A3008 930 35 1100 340/10 RMK AO2
94908KDBQ DBQ20071112134509411/12/07 13:45:31  5-MIN KDBQ 121945Z 36011KT 10SM CLR 14/M01 A3008 930 34 1100 360/11 RMK AO2
94908KDBQ DBQ20071112135011111/12/07 13:50:31  5-MIN KDBQ 121950Z 33011KT 10SM CLR 14/M02 A3008 930 33 1100 330/11 RMK AO2 SLP185 T01441017
94908KDBQ DBQ20071112135509411/12/07 13:55:31  5-MIN KDBQ 121955Z 34011KT 10SM CLR 14/M02 A3008 940 31 1100 340/11 RMK AO2
94908KDBQ DBQ20071112140009411/12/07 14:00:31  5-MIN KDBQ 122000Z 34012KT 10SM CLR 14/M02 A3008 930 31 1100 340/12 RMK AO2
94908KDBQ DBQ20071112140509411/12/07 14:05:31  5-MIN KDBQ 122005Z 35014KT 10SM CLR 14/M03 A3008 930 30 1100 350/14 RMK AO2
94908KDBQ DBQ20071112141009411/12/07 14:10:31  5-MIN KDBQ 122010Z 33014KT 10SM CLR 14/M03 A3008 930 29 1100 320/14 RMK AO2
94908KDBQ DBQ20071112141509411/12/07 14:15:31  5-MIN KDBQ 122015Z 33013KT 10SM CLR 14/M03 A3008 930 29 1100 330/13 RMK AO2
94908KDBQ DBQ20071112142009411/12/07 14:20:31  5-MIN KDBQ 122020Z 33012KT 10SM CLR 14/M03 A3008 930 29 1100 330/12 RMK AO2
94908KDBQ DBQ20071112142509411/12/07 14:25:31  5-MIN KDBQ 122025Z 34016KT 10SM CLR 14/M03 A3008 930 29 1100 340/16 RMK AO2
94908KDBQ DBQ20071112143009411/12/07 14:30:31  5-MIN KDBQ 122030Z 34016KT 10SM CLR 14/M03 A3008 930 29 1100 330/16 RMK AO2
94908KDBQ DBQ20071112143509411/12/07 14:35:31  5-MIN KDBQ 122035Z 34012KT 10SM CLR 14/M03 A3008 930 29 1100 340/12 RMK AO2
94908KDBQ DBQ20071112144011011/12/07 14:40:31  5-MIN KDBQ 122040Z AUTO 36015G20KT 10SM CLR 14/M03 A3008 930 29 1100 350/15G20 RMK AO2 TSNO
94908KDBQ DBQ20071112144510011/12/07 14:45:31  5-MIN KDBQ 122045Z 36012G20KT 10SM CLR 14/M04 A3008 930 27 1100 350/12G20 RMK AO2
94908KDBQ DBQ20071112145011711/12/07 14:50:31  5-MIN KDBQ 122050Z 36014KT 10SM CLR 13/M04 A3008 930 30 1000 350/14 RMK AO2 SLP188 T01331039 50004
94908KDBQ DBQ20071112145509411/12/07 14:55:31  5-MIN KDBQ 122055Z 35015KT 10SM CLR 13/M04 A3008 930 28 1000 350/15 RMK AO2
94908KDBQ DBQ20071112150010011/12/07 15:00:31  5-MIN KDBQ 122100Z 35011G19KT 10SM CLR 13/M04 A3008 930 30 1000 350/11G19 RMK AO2
94908KDBQ DBQ20071112150509411/12/07 15:05:31  5-MIN KDBQ 122105Z 35013KT 10SM CLR 13/M04 A3008 930 30 1000 350/13 RMK AO2
94908KDBQ DBQ20071112151009411/12/07 15:10:31  5-MIN KDBQ 122110Z 35011KT 10SM CLR 13/M03 A3008 930 31 1000 350/11 RMK AO2
94908KDBQ DBQ20071112151510011/12/07 15:15:31  5-MIN KDBQ 122115Z 34010G18KT 10SM CLR 13/M03 A3008 930 31 1000 340/10G18 RMK AO2
94908KDBQ DBQ20071112152010011/12/07 15:20:31  5-MIN KDBQ 122120Z 35010G18KT 10SM CLR 13/M03 A3008 930 32 1000 340/10G18 RMK AO2
94908KDBQ DBQ20071112152509311/12/07 15:25:31  5-MIN KDBQ 122125Z 35012KT 10SM CLR 13/M03 A3008 930 32 900 350/12 RMK AO2
94908KDBQ DBQ20071112153009311/12/07 15:30:31  5-MIN KDBQ 122130Z 35009KT 10SM CLR 13/M03 A3008 930 32 900 350/09 RMK AO2
94908KDBQ DBQ20071112153509311/12/07 15:35:31  5-MIN KDBQ 122135Z 35011KT 10SM CLR 13/M03 A3008 930 32 900 350/11 RMK AO2
94908KDBQ DBQ20071112154009911/12/07 15:40:31  5-MIN KDBQ 122140Z 35012G17KT 10SM CLR 13/M03 A3008 930 32 900 350/12G17 RMK AO2
94908KDBQ DBQ20071112154509911/12/07 15:45:31  5-MIN KDBQ 122145Z 36012G17KT 10SM CLR 12/M05 A3009 930 29 900 360/12G17 RMK AO2
94908KDBQ DBQ20071112155011011/12/07 15:50:31  5-MIN KDBQ 122150Z 36009KT 10SM CLR 12/M04 A3009 920 31 900 360/09 RMK AO2 SLP191 T01221044
94908KDBQ DBQ20071112155509311/12/07 15:55:31  5-MIN KDBQ 122155Z 36008KT 10SM CLR 12/M04 A3009 920 31 900 360/08 RMK AO2
94908KDBQ DBQ20071112160009311/12/07 16:00:31  5-MIN KDBQ 122200Z 35009KT 10SM CLR 12/M04 A3009 920 33 800 350/09 RMK AO2
94908KDBQ DBQ20071112160509311/12/07 16:05:31  5-MIN KDBQ 122205Z 35008KT 10SM CLR 11/M04 A3010 920 34 700 350/08 RMK AO2
94908KDBQ DBQ20071112161009311/12/07 16:10:31  5-MIN KDBQ 122210Z 35007KT 10SM CLR 11/M03 A3010 920 36 700 350/07 RMK AO2
94908KDBQ DBQ20071112161509311/12/07 16:15:31  5-MIN KDBQ 122215Z 35006KT 10SM CLR 11/M03 A3010 920 36 700 350/06 RMK AO2
94908KDBQ DBQ20071112162009611/12/07 16:20:31  5-MIN KDBQ 122220Z 34006KT 10SM FEW120 11/M03 A3010 910 37 600 340/06 RMK AO2
94908KDBQ DBQ20071112162509611/12/07 16:25:31  5-MIN KDBQ 122225Z 35008KT 10SM SCT120 11/M03 A3010 910 39 600 350/08 RMK AO2
94908KDBQ DBQ20071112163009611/12/07 16:30:31  5-MIN KDBQ 122230Z 35008KT 10SM SCT120 11/M03 A3010 910 37 600 350/08 RMK AO2
94908KDBQ DBQ20071112163509611/12/07 16:35:31  5-MIN KDBQ 122235Z 35007KT 10SM SCT120 10/M03 A3010 910 40 600 350/07 RMK AO2
94908KDBQ DBQ20071112164009611/12/07 16:40:31  5-MIN KDBQ 122240Z 35006KT 10SM BKN110 09/M03 A3010 910 42 500 350/06 RMK AO2
94908KDBQ DBQ20071112164509611/12/07 16:45:31  5-MIN KDBQ 122245Z 35005KT 10SM BKN110 09/M02 A3010 910 44 500 350/05 RMK AO2
94908KDBQ DBQ20071112165011311/12/07 16:50:31  5-MIN KDBQ 122250Z 35006KT 10SM OVC110 09/M02 A3011 910 45 500 350/06 RMK AO2 SLP199 T00941017
94908KDBQ DBQ20071112165509611/12/07 16:55:31  5-MIN KDBQ 122255Z 35007KT 10SM OVC110 09/M02 A3011 910 45 500 350/07 RMK AO2
94908KDBQ DBQ20071112170009611/12/07 17:00:31  5-MIN KDBQ 122300Z 35006KT 10SM OVC100 10/M02 A3011 910 44 600 350/06 RMK AO2
94908KDBQ DBQ20071112170509611/12/07 17:05:31  5-MIN KDBQ 122305Z 34006KT 10SM OVC100 10/M02 A3011 910 44 600 340/06 RMK AO2
94908KDBQ DBQ20071112171010311/12/07 17:10:31  5-MIN KDBQ 122310Z 34006KT 10SM BKN100 OVC120 10/M02 A3011 900 44 600 340/06 RMK AO2
94908KDBQ DBQ20071112171509611/12/07 17:15:31  5-MIN KDBQ 122315Z 34006KT 10SM OVC100 10/M02 A3011 910 44 600 330/06 RMK AO2
94908KDBQ DBQ20071112172009611/12/07 17:20:31  5-MIN KDBQ 122320Z 34008KT 10SM OVC095 11/M03 A3011 900 39 600 330/08 RMK AO2
94908KDBQ DBQ20071112172509611/12/07 17:25:31  5-MIN KDBQ 122325Z 34008KT 10SM OVC095 11/M03 A3011 910 39 600 340/08 RMK AO2
94908KDBQ DBQ20071112173010311/12/07 17:30:31  5-MIN KDBQ 122330Z 34009KT 10SM BKN090 OVC110 11/M03 A3011 900 39 600 340/09 RMK AO2
94908KDBQ DBQ20071112173509611/12/07 17:35:31  5-MIN KDBQ 122335Z 35009KT 10SM OVC085 10/M03 A3011 900 40 600 350/09 RMK AO2
94908KDBQ DBQ20071112174009611/12/07 17:40:31  5-MIN KDBQ 122340Z 34009KT 10SM OVC085 11/M03 A3011 900 39 600 340/09 RMK AO2
94908KDBQ DBQ20071112174509611/12/07 17:45:31  5-MIN KDBQ 122345Z 33009KT 10SM OVC080 10/M03 A3012 900 40 600 330/09 RMK AO2
94908KDBQ DBQ20071112175013111/12/07 17:50:31  5-MIN KDBQ 122350Z 33007KT 10SM OVC080 10/M03 A3012 890 40 500 330/07 RMK AO2 SLP204 T01001028 10150 20094 55001
94908KDBQ DBQ20071112175509611/12/07 17:55:31  5-MIN KDBQ 122355Z 32011KT 10SM OVC080 10/M02 A3013 890 42 500 320/11 RMK AO2
94908KDBQ DBQ20071112180009611/12/07 18:00:31  5-MIN KDBQ 130000Z 33008KT 10SM OVC080 11/M03 A3011 900 39 600 330/08 RMK AO2
94908KDBQ DBQ20071112180509611/12/07 18:05:31  5-MIN KDBQ 130005Z 33011KT 10SM OVC085 10/M02 A3012 900 42 600 330/11 RMK AO2
94908KDBQ DBQ20071112181010311/12/07 18:10:31  5-MIN KDBQ 130010Z 33007KT 10SM BKN085 OVC100 10/M02 A3012 890 42 500 330/07 RMK AO2
94908KDBQ DBQ20071112181510311/12/07 18:15:31  5-MIN KDBQ 130015Z 32008KT 10SM BKN085 OVC100 10/M02 A3012 890 44 500 320/08 RMK AO2
94908KDBQ DBQ20071112182010311/12/07 18:20:31  5-MIN KDBQ 130020Z 33008KT 10SM BKN080 OVC100 10/M02 A3012 890 44 500 320/08 RMK AO2
94908KDBQ DBQ20071112182510311/12/07 18:25:31  5-MIN KDBQ 130025Z 33008KT 10SM BKN080 OVC100 09/M02 A3012 900 45 500 330/08 RMK AO2
94908KDBQ DBQ20071112183010311/12/07 18:30:31  5-MIN KDBQ 130030Z 33008KT 10SM SCT080 OVC100 09/M02 A3012 900 45 500 330/08 RMK AO2
94908KDBQ DBQ20071112183510311/12/07 18:35:31  5-MIN KDBQ 130035Z 32006KT 10SM SCT080 OVC100 09/M02 A3011 900 45 500 320/06 RMK AO2
94908KDBQ DBQ20071112184010311/12/07 18:40:31  5-MIN KDBQ 130040Z 32006KT 10SM SCT080 OVC100 09/M01 A3011 900 47 500 320/06 RMK AO2
94908KDBQ DBQ20071112184510311/12/07 18:45:31  5-MIN KDBQ 130045Z 32008KT 10SM FEW080 OVC100 09/M01 A3012 890 49 400 320/08 RMK AO2
94908KDBQ DBQ20071112185012011/12/07 18:50:31  5-MIN KDBQ 130050Z 32006KT 10SM FEW080 OVC100 09/M02 A3012 890 45 500 320/06 RMK AO2 SLP204 T00941017
94908KDBQ DBQ20071112185509611/12/07 18:55:31  5-MIN KDBQ 130055Z 32007KT 10SM OVC100 09/M01 A3012 900 47 500 320/07 RMK AO2
94908KDBQ DBQ20071112190009611/12/07 19:00:31  5-MIN KDBQ 130100Z 33006KT 10SM OVC100 09/M01 A3012 900 49 400 330/06 RMK AO2
94908KDBQ DBQ20071112190509611/12/07 19:05:31  5-MIN KDBQ 130105Z 32007KT 10SM OVC100 08/M01 A3012 890 51 300 320/07 RMK AO2
94908KDBQ DBQ20071112191009611/12/07 19:10:31  5-MIN KDBQ 130110Z 32008KT 10SM BKN100 08/M01 A3012 890 53 300 320/08 RMK AO2
94908KDBQ DBQ20071112191509611/12/07 19:15:31  5-MIN KDBQ 130115Z 33008KT 10SM SCT100 07/M02 A3012 890 53 200 330/08 RMK AO2
94908KDBQ DBQ20071112192009611/12/07 19:20:31  5-MIN KDBQ 130120Z 33008KT 10SM SCT110 07/M02 A3013 890 53 200 330/08 RMK AO2
94908KDBQ DBQ20071112192509611/12/07 19:25:31  5-MIN KDBQ 130125Z 34007KT 10SM FEW110 07/M02 A3013 890 55 100 330/07 RMK AO2
94908KDBQ DBQ20071112193009611/12/07 19:30:31  5-MIN KDBQ 130130Z 34008KT 10SM FEW110 06/M02 A3013 890 57 100 340/08 RMK AO2
94908KDBQ DBQ20071112193509311/12/07 19:35:31  5-MIN KDBQ 130135Z 34009KT 10SM CLR 06/M02 A3013 890 57 100 340/09 RMK AO2
94908KDBQ DBQ20071112194009311/12/07 19:40:31  5-MIN KDBQ 130140Z 34009KT 10SM CLR 07/M02 A3013 890 55 100 340/09 RMK AO2
94908KDBQ DBQ20071112194509311/12/07 19:45:31  5-MIN KDBQ 130145Z 34009KT 10SM CLR 07/M02 A3013 890 55 100 340/09 RMK AO2
94908KDBQ DBQ20071112195011011/12/07 19:50:31  5-MIN KDBQ 130150Z 35010KT 10SM CLR 07/M02 A3013 890 55 100 350/10 RMK AO2 SLP209 T00671017
94908KDBQ DBQ20071112195509311/12/07 19:55:31  5-MIN KDBQ 130155Z 35011KT 10SM CLR 07/M02 A3013 890 55 100 350/11 RMK AO2
94908KDBQ DBQ20071112200009311/12/07 20:00:31  5-MIN KDBQ 130200Z 35010KT 10SM CLR 07/M02 A3013 890 55 100 350/10 RMK AO2
94908KDBQ DBQ20071112200509311/12/07 20:05:31  5-MIN KDBQ 130205Z 36010KT 10SM CLR 06/M02 A3013 890 57 100 350/10 RMK AO2
94908KDBQ DBQ20071112201009111/12/07 20:10:31  5-MIN KDBQ 130210Z 36010KT 10SM CLR 06/M02 A3013 890 59 0 350/10 RMK AO2
94908KDBQ DBQ20071112201509111/12/07 20:15:31  5-MIN KDBQ 130215Z 36010KT 10SM CLR 06/M02 A3013 890 59 0 360/10 RMK AO2
94908KDBQ DBQ20071112202009111/12/07 20:20:31  5-MIN KDBQ 130220Z 36010KT 10SM CLR 06/M02 A3013 890 59 0 360/10 RMK AO2
94908KDBQ DBQ20071112202509311/12/07 20:25:31  5-MIN KDBQ 130225Z 01010KT 10SM CLR 06/M02 A3013 890 57 100 360/10 RMK AO2
94908KDBQ DBQ20071112203009311/12/07 20:30:31  5-MIN KDBQ 130230Z 36011KT 10SM CLR 06/M02 A3013 890 57 100 360/11 RMK AO2
94908KDBQ DBQ20071112203509311/12/07 20:35:31  5-MIN KDBQ 130235Z 01011KT 10SM CLR 06/M02 A3013 890 57 100 360/11 RMK AO2
94908KDBQ DBQ20071112204009311/12/07 20:40:31  5-MIN KDBQ 130240Z 01010KT 10SM CLR 06/M02 A3013 890 57 100 010/10 RMK AO2
94908KDBQ DBQ20071112204509311/12/07 20:45:31  5-MIN KDBQ 130245Z 01011KT 10SM CLR 06/M02 A3013 890 57 100 010/11 RMK AO2
94908KDBQ DBQ20071112205011411/12/07 20:50:31  5-MIN KDBQ 130250Z 01012KT 10SM CLR 06/M02 A3013 880 59 0 010/12 RMK AO2 SLP210 T00561017 53015
94908KDBQ DBQ20071112205509311/12/07 20:55:31  5-MIN KDBQ 130255Z 01012KT 10SM CLR 06/M02 A3013 880 57 100 010/12 RMK AO2
94908KDBQ DBQ20071112210009111/12/07 21:00:31  5-MIN KDBQ 130300Z 01012KT 10SM CLR 06/M02 A3013 880 59 0 010/12 RMK AO2
94908KDBQ DBQ20071112210509111/12/07 21:05:31  5-MIN KDBQ 130305Z 01011KT 10SM CLR 06/M02 A3013 880 59 0 010/11 RMK AO2
94908KDBQ DBQ20071112211009111/12/07 21:10:31  5-MIN KDBQ 130310Z 01012KT 10SM CLR 06/M02 A3013 880 59 0 010/12 RMK AO2
94908KDBQ DBQ20071112211509611/12/07 21:15:31  5-MIN KDBQ 130315Z AUTO 01011KT 10SM CLR 06/M02 A3013 880 57 0 010/11 RMK AO2
94908KDBQ DBQ20071112212009611/12/07 21:20:31  5-MIN KDBQ 130320Z AUTO 01012KT 10SM CLR 06/M02 A3013 880 57 0 010/12 RMK AO2
94908KDBQ DBQ20071112212509611/12/07 21:25:31  5-MIN KDBQ 130325Z AUTO 01012KT 10SM CLR 06/M02 A3013 880 57 0 010/12 RMK AO2
94908KDBQ DBQ20071112213009611/12/07 21:30:31  5-MIN KDBQ 130330Z AUTO 01012KT 10SM CLR 05/M02 A3013 880 59 0 010/12 RMK AO2
94908KDBQ DBQ20071112213509611/12/07 21:35:31  5-MIN KDBQ 130335Z AUTO 01011KT 10SM CLR 06/M02 A3013 880 57 0 010/11 RMK AO2
94908KDBQ DBQ20071112214009611/12/07 21:40:31  5-MIN KDBQ 130340Z AUTO 02012KT 10SM CLR 05/M02 A3013 890 59 0 020/12 RMK AO2
94908KDBQ DBQ20071112214509611/12/07 21:45:31  5-MIN KDBQ 130345Z AUTO 02011KT 10SM CLR 05/M02 A3013 890 59 0 020/11 RMK AO2
94908KDBQ DBQ20071112215011311/12/07 21:50:31  5-MIN KDBQ 130350Z AUTO 02010KT 10SM CLR 05/M02 A3013 890 59 0 020/10 RMK AO2 SLP207 T00501022
94908KDBQ DBQ20071112215509611/12/07 21:55:31  5-MIN KDBQ 130355Z AUTO 02010KT 10SM CLR 05/M02 A3012 890 59 0 020/10 RMK AO2
94908KDBQ DBQ20071112220009611/12/07 22:00:31  5-MIN KDBQ 130400Z AUTO 01010KT 10SM CLR 05/M02 A3013 890 59 0 010/10 RMK AO2
94908KDBQ DBQ20071112220509911/12/07 22:05:31  5-MIN KDBQ 130405Z AUTO 02009KT 10SM CLR 04/M02 A3012 890 62 -100 010/09 RMK AO2
94908KDBQ DBQ20071112221009611/12/07 22:10:31  5-MIN KDBQ 130410Z AUTO 02008KT 10SM CLR 05/M02 A3012 900 59 0 020/08 RMK AO2
94908KDBQ DBQ20071112221509911/12/07 22:15:31  5-MIN KDBQ 130415Z AUTO 02007KT 10SM CLR 04/M02 A3012 900 62 -100 020/07 RMK AO2
94908KDBQ DBQ20071112222009911/12/07 22:20:31  5-MIN KDBQ 130420Z AUTO 02005KT 10SM CLR 04/M02 A3012 900 64 -100 020/05 RMK AO2
94908KDBQ DBQ20071112222509911/12/07 22:25:31  5-MIN KDBQ 130425Z AUTO 03005KT 10SM CLR 03/M03 A3011 900 64 -200 030/05 RMK AO2
94908KDBQ DBQ20071112223009911/12/07 22:30:31  5-MIN KDBQ 130430Z AUTO 03004KT 10SM CLR 03/M03 A3011 900 67 -300 030/04 RMK AO2
94908KDBQ DBQ20071112223509911/12/07 22:35:31  5-MIN KDBQ 130435Z AUTO 02004KT 10SM CLR 03/M03 A3011 900 64 -200 020/04 RMK AO2
94908KDBQ DBQ20071112224009911/12/07 22:40:31  5-MIN KDBQ 130440Z AUTO 01004KT 10SM CLR 03/M03 A3011 900 67 -300 010/04 RMK AO2
94908KDBQ DBQ20071112224509911/12/07 22:45:31  5-MIN KDBQ 130445Z AUTO 01007KT 10SM CLR 03/M03 A3012 900 67 -300 010/07 RMK AO2
94908KDBQ DBQ20071112225011611/12/07 22:50:31  5-MIN KDBQ 130450Z AUTO 01008KT 10SM CLR 03/M03 A3012 890 67 -300 010/08 RMK AO2 SLP206 T00281028
94908KDBQ DBQ20071112225509911/12/07 22:55:31  5-MIN KDBQ 130455Z AUTO 01009KT 10SM CLR 03/M03 A3012 890 67 -300 010/09 RMK AO2
94908KDBQ DBQ20071112230009911/12/07 23:00:31  5-MIN KDBQ 130500Z AUTO 01009KT 10SM CLR 03/M03 A3012 890 64 -200 010/09 RMK AO2
94908KDBQ DBQ20071112230509911/12/07 23:05:31  5-MIN KDBQ 130505Z AUTO 02008KT 10SM CLR 03/M03 A3012 890 64 -200 020/08 RMK AO2
94908KDBQ DBQ20071112231009911/12/07 23:10:31  5-MIN KDBQ 130510Z AUTO 02007KT 10SM CLR 04/M03 A3012 900 62 -100 020/07 RMK AO2
94908KDBQ DBQ20071112231509911/12/07 23:15:31  5-MIN KDBQ 130515Z AUTO 02007KT 10SM CLR 04/M03 A3012 900 62 -100 010/07 RMK AO2
94908KDBQ DBQ20071112232009911/12/07 23:20:31  5-MIN KDBQ 130520Z AUTO 01005KT 10SM CLR 03/M03 A3012 890 64 -200 360/05 RMK AO2
94908KDBQ DBQ20071112232509911/12/07 23:25:31  5-MIN KDBQ 130525Z AUTO 01004KT 10SM CLR 03/M03 A3012 890 67 -300 010/04 RMK AO2
94908KDBQ DBQ20071112233009911/12/07 23:30:31  5-MIN KDBQ 130530Z AUTO 02005KT 10SM CLR 03/M03 A3012 900 67 -300 020/05 RMK AO2
94908KDBQ DBQ20071112233509911/12/07 23:35:31  5-MIN KDBQ 130535Z AUTO 00000KT 10SM CLR 02/M03 A3011 900 67 -300 000/00 RMK AO2
94908KDBQ DBQ20071112234009911/12/07 23:40:31  5-MIN KDBQ 130540Z AUTO 00000KT 10SM CLR 00/M04 A3011 900 75 -600 000/00 RMK AO2
94908KDBQ DBQ20071112234509911/12/07 23:45:31  5-MIN KDBQ 130545Z AUTO 00000KT 10SM CLR 00/M04 A3011 900 75 -600 000/00 RMK AO2
94908KDBQ DBQ20071112235014411/12/07 23:50:31  5-MIN KDBQ 130550Z AUTO 00000KT 10SM CLR 00/M04 A3011 900 75 -600 000/00 RMK AO2 SLP205 T00001039 10106 20000 401500000 53002
94908KDBQ DBQ20071112235509911/12/07 23:55:31  5-MIN KDBQ 130555Z AUTO 00000KT 10SM CLR 01/M04 A3011 900 72 -600 000/00 RMK AO2
94908KDBQ DBQ20071113000009911/13/07 00:00:38  5-MIN KDBQ 130600Z AUTO 00000KT 10SM CLR 01/M04 A3011 900 72 -500 000/00 RMK AO2
94908KDBQ DBQ20071113000509911/13/07 00:05:31  5-MIN KDBQ 130605Z AUTO 00000KT 10SM CLR 00/M04 A3011 900 75 -600 000/00 RMK AO2
94908KDBQ DBQ20071113001009911/13/07 00:10:31  5-MIN KDBQ 130610Z AUTO 00000KT 10SM CLR 01/M04 A3011 910 72 -500 000/00 RMK AO2
94908KDBQ DBQ20071113001510011/13/07 00:15:31  5-MIN KDBQ 130615Z AUTO 00000KT 10SM CLR M01/M04 A3010 910 78 -700 000/00 RMK AO2
94908KDBQ DBQ20071113002010011/13/07 00:20:31  5-MIN KDBQ 130620Z AUTO 00000KT 10SM CLR M01/M04 A3010 910 78 -700 000/00 RMK AO2
94908KDBQ DBQ20071113002510011/13/07 00:25:31  5-MIN KDBQ 130625Z AUTO 22003KT 10SM CLR M01/M04 A3010 910 75 -700 220/03 RMK AO2
94908KDBQ DBQ20071113003010011/13/07 00:30:31  5-MIN KDBQ 130630Z AUTO 18003KT 10SM CLR M01/M04 A3010 920 78 -700 180/03 RMK AO2
94908KDBQ DBQ20071113003510011/13/07 00:35:31  5-MIN KDBQ 130635Z AUTO 00000KT 10SM CLR M01/M04 A3009 920 78 -700 000/00 RMK AO2
94908KDBQ DBQ20071113004010011/13/07 00:40:31  5-MIN KDBQ 130640Z AUTO 00000KT 10SM CLR M01/M04 A3009 920 78 -700 000/00 RMK AO2
94908KDBQ DBQ20071113004510011/13/07 00:45:31  5-MIN KDBQ 130645Z AUTO 00000KT 10SM CLR M01/M04 A3009 930 78 -700 000/00 RMK AO2
94908KDBQ DBQ20071113005011711/13/07 00:50:31  5-MIN KDBQ 130650Z AUTO 00000KT 10SM CLR M01/M04 A3008 930 78 -700 000/00 RMK AO2 SLP194 T10111044
94908KDBQ DBQ20071113005510011/13/07 00:55:31  5-MIN KDBQ 130655Z AUTO 00000KT 10SM CLR M02/M05 A3008 930 78 -800 000/00 RMK AO2
94908KDBQ DBQ20071113010010011/13/07 01:00:31  5-MIN KDBQ 130700Z AUTO 00000KT 10SM CLR M02/M05 A3008 930 81 -900 000/00 RMK AO2
94908KDBQ DBQ20071113010510011/13/07 01:05:31  5-MIN KDBQ 130705Z AUTO 00000KT 10SM CLR M02/M04 A3008 930 81 -800 000/00 RMK AO2
94908KDBQ DBQ20071113011010011/13/07 01:10:31  5-MIN KDBQ 130710Z AUTO 00000KT 10SM CLR M02/M05 A3008 930 78 -800 000/00 RMK AO2
94908KDBQ DBQ20071113011510011/13/07 01:15:31  5-MIN KDBQ 130715Z AUTO 00000KT 10SM CLR M02/M05 A3008 930 78 -800 000/00 RMK AO2
94908KDBQ DBQ20071113012010011/13/07 01:20:31  5-MIN KDBQ 130720Z AUTO 00000KT 10SM CLR M02/M05 A3008 930 81 -900 000/00 RMK AO2
94908KDBQ DBQ20071113012510011/13/07 01:25:31  5-MIN KDBQ 130725Z AUTO 00000KT 10SM CLR M02/M05 A3008 930 81 -900 000/00 RMK AO2
94908KDBQ DBQ20071113013010011/13/07 01:30:31  5-MIN KDBQ 130730Z AUTO 00000KT 10SM CLR M02/M05 A3008 930 81 -900 000/00 RMK AO2
94908KDBQ DBQ20071113013510011/13/07 01:35:31  5-MIN KDBQ 130735Z AUTO 00000KT 10SM CLR M02/M05 A3008 930 81 -900 000/00 RMK AO2
94908KDBQ DBQ20071113014010011/13/07 01:40:31  5-MIN KDBQ 130740Z AUTO 00000KT 10SM CLR M02/M05 A3008 930 81 -900 000/00 RMK AO2
94908KDBQ DBQ20071113014510011/13/07 01:45:31  5-MIN KDBQ 130745Z AUTO 00000KT 10SM CLR M02/M05 A3008 930 78 -800 000/00 RMK AO2
94908KDBQ DBQ20071113015011711/13/07 01:50:31  5-MIN KDBQ 130750Z AUTO 00000KT 10SM CLR M02/M05 A3008 930 81 -900 000/00 RMK AO2 SLP193 T10221050
94908KDBQ DBQ20071113015510011/13/07 01:55:31  5-MIN KDBQ 130755Z AUTO 00000KT 10SM CLR M02/M05 A3008 930 78 -800 000/00 RMK AO2
94908KDBQ DBQ20071113020010011/13/07 02:00:31  5-MIN KDBQ 130800Z AUTO 00000KT 10SM CLR M02/M05 A3008 930 81 -900 000/00 RMK AO2
94908KDBQ DBQ20071113020510011/13/07 02:05:31  5-MIN KDBQ 130805Z AUTO 00000KT 10SM CLR M02/M05 A3009 920 81 -900 000/00 RMK AO2
94908KDBQ DBQ20071113021010011/13/07 02:10:31  5-MIN KDBQ 130810Z AUTO 00000KT 10SM CLR M02/M05 A3009 920 81 -900 000/00 RMK AO2
94908KDBQ DBQ20071113021510011/13/07 02:15:31  5-MIN KDBQ 130815Z AUTO 00000KT 10SM CLR M02/M05 A3009 920 81 -900 000/00 RMK AO2
94908KDBQ DBQ20071113022010011/13/07 02:20:31  5-MIN KDBQ 130820Z AUTO 00000KT 10SM CLR M02/M05 A3009 920 81 -900 000/00 RMK AO2
94908KDBQ DBQ20071113022510011/13/07 02:25:31  5-MIN KDBQ 130825Z AUTO 00000KT 10SM CLR M02/M05 A3009 920 81 -900 000/00 RMK AO2
94908KDBQ DBQ20071113023010011/13/07 02:30:31  5-MIN KDBQ 130830Z AUTO 00000KT 10SM CLR M02/M05 A3009 920 81 -900 000/00 RMK AO2
94908KDBQ DBQ20071113023510011/13/07 02:35:31  5-MIN KDBQ 130835Z AUTO 00000KT 10SM CLR M03/M06 A3009 920 81 -900 000/00 RMK AO2
94908KDBQ DBQ20071113024010111/13/07 02:40:31  5-MIN KDBQ 130840Z AUTO 00000KT 10SM CLR M03/M06 A3008 930 85 -1000 000/00 RMK AO2
94908KDBQ DBQ20071113024510111/13/07 02:45:31  5-MIN KDBQ 130845Z AUTO 00000KT 10SM CLR M03/M06 A3008 930 81 -1000 000/00 RMK AO2
94908KDBQ DBQ20071113025012411/13/07 02:50:31  5-MIN KDBQ 130850Z AUTO 00000KT 10SM CLR M03/M06 A3008 930 85 -1000 000/00 RMK AO2 SLP195 T10331056 58007
94908KDBQ DBQ20071113025510011/13/07 02:55:31  5-MIN KDBQ 130855Z AUTO 00000KT 10SM CLR M03/M06 A3008 930 81 -900 000/00 RMK AO2
94908KDBQ DBQ20071113030010011/13/07 03:00:31  5-MIN KDBQ 130900Z AUTO 00000KT 10SM CLR M03/M06 A3007 940 81 -900 000/00 RMK AO2
94908KDBQ DBQ20071113030510011/13/07 03:05:31  5-MIN KDBQ 130905Z AUTO 00000KT 10SM CLR M03/M06 A3007 940 81 -900 000/00 RMK AO2
94908KDBQ DBQ20071113031010111/13/07 03:10:31  5-MIN KDBQ 130910Z AUTO 00000KT 10SM CLR M03/M06 A3007 940 85 -1000 000/00 RMK AO2
94908KDBQ DBQ20071113031510011/13/07 03:15:31  5-MIN KDBQ 130915Z AUTO 00000KT 10SM CLR M03/M06 A3006 950 81 -900 000/00 RMK AO2
94908KDBQ DBQ20071113032010111/13/07 03:20:31  5-MIN KDBQ 130920Z AUTO 00000KT 10SM CLR M03/M06 A3006 950 85 -1000 000/00 RMK AO2
94908KDBQ DBQ20071113032510111/13/07 03:25:31  5-MIN KDBQ 130925Z AUTO 00000KT 10SM CLR M03/M06 A3006 950 85 -1000 000/00 RMK AO2
94908KDBQ DBQ20071113033010111/13/07 03:30:31  5-MIN KDBQ 130930Z AUTO 23003KT 10SM CLR M03/M06 A3006 950 85 -1000 230/03 RMK AO2
94908KDBQ DBQ20071113033510111/13/07 03:35:31  5-MIN KDBQ 130935Z AUTO 22003KT 10SM CLR M04/M06 A3005 960 85 -1000 220/03 RMK AO2
94908KDBQ DBQ20071113034010111/13/07 03:40:31  5-MIN KDBQ 130940Z AUTO 21003KT 10SM CLR M03/M06 A3005 960 81 -1000 210/03 RMK AO2
94908KDBQ DBQ20071113034510111/13/07 03:45:31  5-MIN KDBQ 130945Z AUTO 00000KT 10SM CLR M03/M06 A3005 960 85 -1000 000/00 RMK AO2
94908KDBQ DBQ20071113035011811/13/07 03:50:31  5-MIN KDBQ 130950Z AUTO 00000KT 10SM CLR M03/M06 A3005 960 85 -1000 000/00 RMK AO2 SLP185 T10331056
94908KDBQ DBQ20071113035510111/13/07 03:55:31  5-MIN KDBQ 130955Z AUTO 00000KT 10SM CLR M03/M06 A3006 950 81 -1000 000/00 RMK AO2
94908KDBQ DBQ20071113040010111/13/07 04:00:31  5-MIN KDBQ 131000Z AUTO 00000KT 10SM CLR M04/M06 A3006 950 85 -1100 000/00 RMK AO2
94908KDBQ DBQ20071113040510111/13/07 04:05:31  5-MIN KDBQ 131005Z AUTO 00000KT 10SM CLR M04/M06 A3005 960 85 -1000 000/00 RMK AO2
94908KDBQ DBQ20071113041010111/13/07 04:10:31  5-MIN KDBQ 131010Z AUTO 00000KT 10SM CLR M03/M06 A3005 960 81 -1000 000/00 RMK AO2
94908KDBQ DBQ20071113041510111/13/07 04:15:31  5-MIN KDBQ 131015Z AUTO 00000KT 10SM CLR M04/M06 A3005 950 85 -1000 000/00 RMK AO2
94908KDBQ DBQ20071113042010111/13/07 04:20:31  5-MIN KDBQ 131020Z AUTO 00000KT 10SM CLR M04/M06 A3006 950 85 -1000 000/00 RMK AO2
94908KDBQ DBQ20071113042510111/13/07 04:25:31  5-MIN KDBQ 131025Z AUTO 00000KT 10SM CLR M03/M06 A3006 950 81 -1000 000/00 RMK AO2
94908KDBQ DBQ20071113043010011/13/07 04:30:31  5-MIN KDBQ 131030Z AUTO 00000KT 10SM CLR M03/M06 A3006 950 81 -900 000/00 RMK AO2
94908KDBQ DBQ20071113043510111/13/07 04:35:31  5-MIN KDBQ 131035Z AUTO 00000KT 10SM CLR M04/M06 A3006 950 88 -1000 000/00 RMK AO2
94908KDBQ DBQ20071113044010111/13/07 04:40:31  5-MIN KDBQ 131040Z AUTO 00000KT 10SM CLR M04/M06 A3005 950 88 -1100 000/00 RMK AO2
94908KDBQ DBQ20071113044510111/13/07 04:45:31  5-MIN KDBQ 131045Z AUTO 00000KT 10SM CLR M04/M06 A3005 950 88 -1100 000/00 RMK AO2
94908KDBQ DBQ20071113045011811/13/07 04:50:31  5-MIN KDBQ 131050Z AUTO 20003KT 10SM CLR M04/M06 A3005 960 88 -1100 200/03 RMK AO2 SLP186 T10441061
94908KDBQ DBQ20071113045510111/13/07 04:55:31  5-MIN KDBQ 131055Z AUTO 20004KT 10SM CLR M04/M06 A3005 960 85 -1000 200/04 RMK AO2
94908KDBQ DBQ20071113050010111/13/07 05:00:31  5-MIN KDBQ 131100Z AUTO 20003KT 10SM CLR M03/M06 A3005 960 81 -1000 200/03 RMK AO2
94908KDBQ DBQ20071113050510111/13/07 05:05:31  5-MIN KDBQ 131105Z AUTO 21004KT 10SM CLR M04/M06 A3005 960 85 -1000 200/04 RMK AO2
94908KDBQ DBQ20071113051009611/13/07 05:10:31  5-MIN KDBQ 131110Z 21004KT 10SM CLR M04/M07 A3005 960 84 -1100 200/04 RMK AO2
94908KDBQ DBQ20071113051509611/13/07 05:15:31  5-MIN KDBQ 131115Z 21003KT 10SM CLR M05/M07 A3005 960 88 -1200 210/03 RMK AO2
94908KDBQ DBQ20071113052009611/13/07 05:20:31  5-MIN KDBQ 131120Z 21003KT 10SM CLR M04/M07 A3005 960 84 -1100 210/03 RMK AO2
94908KDBQ DBQ20071113052509611/13/07 05:25:31  5-MIN KDBQ 131125Z 21003KT 10SM CLR M04/M07 A3005 960 84 -1100 210/03 RMK AO2
94908KDBQ DBQ20071113053009611/13/07 05:30:31  5-MIN KDBQ 131130Z 21004KT 10SM CLR M03/M06 A3005 960 81 -1000 200/04 RMK AO2
94908KDBQ DBQ20071113053509611/13/07 05:35:31  5-MIN KDBQ 131135Z 20004KT 10SM CLR M03/M06 A3004 960 81 -1000 200/04 RMK AO2
94908KDBQ DBQ20071113054009611/13/07 05:40:31  5-MIN KDBQ 131140Z 20004KT 10SM CLR M04/M06 A3005 960 85 -1000 200/04 RMK AO2
94908KDBQ DBQ20071113054509611/13/07 05:45:31  5-MIN KDBQ 131145Z 21004KT 10SM CLR M04/M07 A3005 960 81 -1000 200/04 RMK AO2
94908KDBQ DBQ20071113055013111/13/07 05:50:31  5-MIN KDBQ 131150Z 20004KT 10SM CLR M04/M06 A3005 960 85 -1000 200/04 RMK AO2 SLP183 T10391061 10006 21050 55010
94908KDBQ DBQ20071113055509611/13/07 05:55:31  5-MIN KDBQ 131155Z 20004KT 10SM CLR M04/M06 A3005 960 85 -1000 200/04 RMK AO2
94908KDBQ DBQ20071113060009611/13/07 06:00:31  5-MIN KDBQ 131200Z 21004KT 10SM CLR M04/M06 A3005 960 85 -1000 210/04 RMK AO2
94908KDBQ DBQ20071113060509611/13/07 06:05:31  5-MIN KDBQ 131205Z 21004KT 10SM CLR M04/M06 A3005 960 85 -1000 210/04 RMK AO2
94908KDBQ DBQ20071113061009611/13/07 06:10:31  5-MIN KDBQ 131210Z 21004KT 10SM CLR M04/M06 A3005 960 85 -1000 210/04 RMK AO2
94908KDBQ DBQ20071113061509611/13/07 06:15:31  5-MIN KDBQ 131215Z 20004KT 10SM CLR M03/M06 A3004 960 85 -1000 200/04 RMK AO2
94908KDBQ DBQ20071113062009611/13/07 06:20:31  5-MIN KDBQ 131220Z 20005KT 10SM CLR M03/M06 A3004 970 85 -1000 200/05 RMK AO2
94908KDBQ DBQ20071113062509511/13/07 06:25:31  5-MIN KDBQ 131225Z 20004KT 10SM CLR M03/M05 A3004 970 85 -900 200/04 RMK AO2
94908KDBQ DBQ20071113063009511/13/07 06:30:31  5-MIN KDBQ 131230Z 21004KT 10SM CLR M03/M05 A3004 970 85 -900 210/04 RMK AO2
94908KDBQ DBQ20071113063509511/13/07 06:35:31  5-MIN KDBQ 131235Z 21004KT 10SM CLR M03/M05 A3004 970 85 -900 210/04 RMK AO2
94908KDBQ DBQ20071113064009511/13/07 06:40:31  5-MIN KDBQ 131240Z 20005KT 10SM CLR M03/M05 A3004 970 85 -900 200/05 RMK AO2
94908KDBQ DBQ20071113064509511/13/07 06:45:31  5-MIN KDBQ 131245Z 20005KT 10SM CLR M03/M05 A3003 970 85 -900 200/05 RMK AO2
94908KDBQ DBQ20071113065011211/13/07 06:50:31  5-MIN KDBQ 131250Z 20005KT 10SM CLR M03/M05 A3003 970 85 -900 200/05 RMK AO2 SLP179 T10281050
94908KDBQ DBQ20071113065509511/13/07 06:55:31  5-MIN KDBQ 131255Z 20005KT 10SM CLR M03/M05 A3003 980 85 -900 200/05 RMK AO2
94908KDBQ DBQ20071113070009511/13/07 07:00:31  5-MIN KDBQ 131300Z 21005KT 10SM CLR M03/M05 A3003 980 85 -900 210/05 RMK AO2
94908KDBQ DBQ20071113070509511/13/07 07:05:31  5-MIN KDBQ 131305Z 21005KT 10SM CLR M03/M06 A3002 980 85 -900 210/05 RMK AO2
94908KDBQ DBQ20071113071009611/13/07 07:10:31  5-MIN KDBQ 131310Z 21004KT 10SM CLR M04/M06 A3003 980 85 -1000 210/04 RMK AO2
94908KDBQ DBQ20071113071509611/13/07 07:15:31  5-MIN KDBQ 131315Z 21004KT 10SM CLR M04/M06 A3003 980 88 -1000 210/04 RMK AO2
94908KDBQ DBQ20071113072009511/13/07 07:20:31  5-MIN KDBQ 131320Z 22004KT 10SM CLR M03/M06 A3003 980 85 -900 210/04 RMK AO2
94908KDBQ DBQ20071113072509511/13/07 07:25:31  5-MIN KDBQ 131325Z 22004KT 10SM CLR M03/M05 A3003 980 88 -900 220/04 RMK AO2
94908KDBQ DBQ20071113073009511/13/07 07:30:31  5-MIN KDBQ 131330Z 21004KT 10SM CLR M03/M05 A3003 980 85 -900 210/04 RMK AO2
94908KDBQ DBQ20071113073509511/13/07 07:35:31  5-MIN KDBQ 131335Z 21004KT 10SM CLR M02/M04 A3003 980 85 -800 210/04 RMK AO2
94908KDBQ DBQ20071113074009511/13/07 07:40:31  5-MIN KDBQ 131340Z 22003KT 10SM CLR M02/M04 A3003 980 85 -700 220/03 RMK AO2
94908KDBQ DBQ20071113074509511/13/07 07:45:31  5-MIN KDBQ 131345Z 22003KT 10SM CLR M02/M04 A3003 980 85 -700 220/03 RMK AO2
94908KDBQ DBQ20071113075011211/13/07 07:50:31  5-MIN KDBQ 131350Z 22004KT 10SM CLR M01/M04 A3003 980 81 -700 220/04 RMK AO2 SLP178 T10111039
94908KDBQ DBQ20071113075509511/13/07 07:55:31  5-MIN KDBQ 131355Z 24004KT 10SM CLR M01/M03 A3003 980 85 -700 240/04 RMK AO2
94908KDBQ DBQ20071113080009511/13/07 08:00:31  5-MIN KDBQ 131400Z 22004KT 10SM CLR M01/M03 A3003 980 85 -700 220/04 RMK AO2
94908KDBQ DBQ20071113080509511/13/07 08:05:31  5-MIN KDBQ 131405Z 22004KT 10SM CLR M01/M03 A3003 980 85 -700 220/04 RMK AO2
94908KDBQ DBQ20071113081009511/13/07 08:10:31  5-MIN KDBQ 131410Z 22003KT 10SM CLR M01/M03 A3003 980 85 -600 210/03 RMK AO2
94908KDBQ DBQ20071113081509511/13/07 08:15:31  5-MIN KDBQ 131415Z 22003KT 10SM CLR M01/M03 A3003 980 85 -600 220/03 RMK AO2
94908KDBQ DBQ20071113082009411/13/07 08:20:31  5-MIN KDBQ 131420Z 22003KT 10SM CLR 00/M02 A3003 980 85 -500 220/03 RMK AO2
94908KDBQ DBQ20071113082509411/13/07 08:25:31  5-MIN KDBQ 131425Z 21003KT 10SM CLR 01/M02 A3002 980 82 -400 210/03 RMK AO2
94908KDBQ DBQ20071113083009411/13/07 08:30:31  5-MIN KDBQ 131430Z 20004KT 10SM CLR 01/M02 A3002 980 85 -400 200/04 RMK AO2
94908KDBQ DBQ20071113083509411/13/07 08:35:31  5-MIN KDBQ 131435Z 21005KT 10SM CLR 02/M02 A3002 980 78 -300 210/05 RMK AO2
94908KDBQ DBQ20071113084009411/13/07 08:40:31  5-MIN KDBQ 131440Z 20004KT 10SM CLR 02/M02 A3002 980 75 -200 200/04 RMK AO2
94908KDBQ DBQ20071113084509411/13/07 08:45:31  5-MIN KDBQ 131445Z 21005KT 10SM CLR 02/M01 A3002 990 78 -200 210/05 RMK AO2
94908KDBQ DBQ20071113085011711/13/07 08:50:31  5-MIN KDBQ 131450Z 21005KT 10SM CLR 03/M01 A3002 990 75 -200 210/05 RMK AO2 SLP175 T00281011 56012
94908KDBQ DBQ20071113085509411/13/07 08:55:31  5-MIN KDBQ 131455Z 22004KT 10SM CLR 03/M01 A3002 990 75 -200 220/04 RMK AO2
94908KDBQ DBQ20071113090009411/13/07 09:00:31  5-MIN KDBQ 131500Z 22005KT 10SM CLR 03/M01 A3002 990 76 -100 220/05 RMK AO2
94908KDBQ DBQ20071113090509411/13/07 09:05:31  5-MIN KDBQ 131505Z 23005KT 10SM CLR 03/M01 A3002 990 76 -100 230/05 RMK AO2
94908KDBQ DBQ20071113091009411/13/07 09:10:31  5-MIN KDBQ 131510Z 22005KT 10SM CLR 03/M01 A3002 990 72 -100 220/05 RMK AO2
94908KDBQ DBQ20071113091509111/13/07 09:15:31  5-MIN KDBQ 131515Z 22005KT 10SM CLR 04/M01 A3002 990 73 0 220/05 RMK AO2
94908KDBQ DBQ20071113092009111/13/07 09:20:31  5-MIN KDBQ 131520Z 21006KT 10SM CLR 04/M01 A3001 990 70 0 210/06 RMK AO2
94908KDBQ DBQ20071113092509211/13/07 09:25:31  5-MIN KDBQ 131525Z 21006KT 10SM CLR 04/M01 A3001 1000 70 0 210/06 RMK AO2
94908KDBQ DBQ20071113093009311/13/07 09:30:31  5-MIN KDBQ 131530Z 21006KT 10SM CLR 05/00 A3001 1000 70 100 210/06 RMK AO2
94908KDBQ DBQ20071113093509311/13/07 09:35:31  5-MIN KDBQ 131535Z 21007KT 10SM CLR 06/00 A3001 1000 67 100 210/07 RMK AO2
94908KDBQ DBQ20071113094009311/13/07 09:40:31  5-MIN KDBQ 131540Z 21006KT 10SM CLR 06/01 A3001 1000 67 200 210/06 RMK AO2
94908KDBQ DBQ20071113094509311/13/07 09:45:31  5-MIN KDBQ 131545Z 19008KT 10SM CLR 07/01 A3001 1000 65 300 190/08 RMK AO2
94908KDBQ DBQ20071113095011111/13/07 09:50:31  5-MIN KDBQ 131550Z 20009KT 10SM CLR 07/M01 A3001 1000 60 300 200/09 RMK AO2 SLP168 T00671006
94908KDBQ DBQ20071113095509411/13/07 09:55:31  5-MIN KDBQ 131555Z 20009KT 10SM CLR 07/M01 A3001 1000 57 300 200/09 RMK AO2
94908KDBQ DBQ20071113100009311/13/07 10:00:31  5-MIN KDBQ 131600Z 21008KT 10SM CLR 07/00 A3001 1000 60 300 210/08 RMK AO2
94908KDBQ DBQ20071113100509311/13/07 10:05:31  5-MIN KDBQ 131605Z 21008KT 10SM CLR 08/00 A3001 1000 58 400 210/08 RMK AO2
94908KDBQ DBQ20071113101009311/13/07 10:10:31  5-MIN KDBQ 131610Z 21007KT 10SM CLR 08/00 A3000 1000 58 400 210/07 RMK AO2
94908KDBQ DBQ20071113101509311/13/07 10:15:31  5-MIN KDBQ 131615Z 21008KT 10SM CLR 08/00 A3000 1000 55 500 210/08 RMK AO2
94908KDBQ DBQ20071113102009311/13/07 10:20:31  5-MIN KDBQ 131620Z 21009KT 10SM CLR 08/00 A3000 1000 55 500 210/09 RMK AO2
94908KDBQ DBQ20071113102509311/13/07 10:25:31  5-MIN KDBQ 131625Z 20009KT 10SM CLR 09/00 A3000 1010 53 600 200/09 RMK AO2
94908KDBQ DBQ20071113103009311/13/07 10:30:31  5-MIN KDBQ 131630Z 21008KT 10SM CLR 09/00 A2999 1010 53 600 210/08 RMK AO2
94908KDBQ DBQ20071113103509311/13/07 10:35:31  5-MIN KDBQ 131635Z 21012KT 10SM CLR 09/00 A2999 1010 51 600 210/12 RMK AO2
94908KDBQ DBQ20071113104009311/13/07 10:40:31  5-MIN KDBQ 131640Z 21009KT 10SM CLR 09/00 A2998 1020 51 600 210/09 RMK AO2
94908KDBQ DBQ20071113104509311/13/07 10:45:31  5-MIN KDBQ 131645Z 21011KT 10SM CLR 09/00 A2998 1020 51 600 200/11 RMK AO2
94908KDBQ DBQ20071113105011011/13/07 10:50:31  5-MIN KDBQ 131650Z 20011KT 10SM CLR 10/00 A2998 1030 49 700 200/11 RMK AO2 SLP158 T01000000
94908KDBQ DBQ20071113105510011/13/07 10:55:31  5-MIN KDBQ 131655Z 20012KT 10SM CLR 10/00 A2997 1030 49 700 200/12 RMK AO2 PRESFR
94908KDBQ DBQ20071113110010011/13/07 11:00:31  5-MIN KDBQ 131700Z 20012KT 10SM CLR 10/00 A2996 1040 49 700 200/12 RMK AO2 PRESFR
94908KDBQ DBQ20071113110509311/13/07 11:05:31  5-MIN KDBQ 131705Z 20012KT 10SM CLR 11/00 A2997 1040 48 800 200/12 RMK AO2
94908KDBQ DBQ20071113111009311/13/07 11:10:31  5-MIN KDBQ 131710Z 20011KT 10SM CLR 10/00 A2996 1040 49 700 200/11 RMK AO2
94908KDBQ DBQ20071113111509311/13/07 11:15:31  5-MIN KDBQ 131715Z 21011KT 10SM CLR 11/00 A2996 1040 48 800 210/11 RMK AO2
94908KDBQ DBQ20071113112009311/13/07 11:20:31  5-MIN KDBQ 131720Z 21012KT 10SM CLR 11/01 A2996 1040 50 800 210/12 RMK AO2
94908KDBQ DBQ20071113112509311/13/07 11:25:31  5-MIN KDBQ 131725Z 20013KT 10SM CLR 10/00 A2995 1050 49 700 200/13 RMK AO2
94908KDBQ DBQ20071113113009311/13/07 11:30:31  5-MIN KDBQ 131730Z 20012KT 10SM CLR 11/00 A2995 1050 48 800 200/12 RMK AO2
94908KDBQ DBQ20071113113509311/13/07 11:35:31  5-MIN KDBQ 131735Z 20012KT 10SM CLR 11/00 A2995 1060 48 800 200/12 RMK AO2
94908KDBQ DBQ20071113114009311/13/07 11:40:31  5-MIN KDBQ 131740Z 21012KT 10SM CLR 11/00 A2994 1060 48 800 210/12 RMK AO2
94908KDBQ DBQ20071113114509411/13/07 11:45:31  5-MIN KDBQ 131745Z 21011KT 10SM CLR 11/M01 A2993 1070 46 800 210/11 RMK AO2
94908KDBQ DBQ20071113115012911/13/07 11:50:31  5-MIN KDBQ 131750Z 21013KT 10SM CLR 11/M01 A2993 1070 46 800 210/13 RMK AO2 SLP141 T01061006 10106 21039 56008
94908KDBQ DBQ20071113115509411/13/07 11:55:31  5-MIN KDBQ 131755Z 20012KT 10SM CLR 11/M01 A2992 1080 44 900 200/12 RMK AO2
94908KDBQ DBQ20071113120010111/13/07 12:00:31  5-MIN KDBQ 131800Z 20012KT 10SM CLR 11/M01 A2991 1080 44 900 200/12 RMK AO2 PRESFR
94908KDBQ DBQ20071113120509411/13/07 12:05:31  5-MIN KDBQ 131805Z 21013KT 10SM CLR 11/M01 A2991 1090 42 900 210/13 RMK AO2
94908KDBQ DBQ20071113121010111/13/07 12:10:31  5-MIN KDBQ 131810Z 19013KT 10SM CLR 11/M01 A2990 1090 42 900 190/13 RMK AO2 PRESFR
94908KDBQ DBQ20071113121509511/13/07 12:15:31  5-MIN KDBQ 131815Z 19013KT 10SM CLR 12/M01 A2990 1100 41 1000 180/13 RMK AO2
94908KDBQ DBQ20071113122009411/13/07 12:20:31  5-MIN KDBQ 131820Z 19014KT 10SM CLR 11/M02 A2990 1100 41 900 190/14 RMK AO2
94908KDBQ DBQ20071113122509411/13/07 12:25:31  5-MIN KDBQ 131825Z 19011KT 10SM CLR 11/M01 A2989 1110 42 900 190/11 RMK AO2
94908KDBQ DBQ20071113123009411/13/07 12:30:31  5-MIN KDBQ 131830Z 19010KT 10SM CLR 11/M01 A2989 1110 42 900 190/10 RMK AO2
94908KDBQ DBQ20071113123510111/13/07 12:35:31  5-MIN KDBQ 131835Z 19013G18KT 10SM CLR 11/M02 A2988 1110 41 1000 190/13G18 RMK AO2
94908KDBQ DBQ20071113124009511/13/07 12:40:31  5-MIN KDBQ 131840Z 20013KT 10SM CLR 11/M02 A2988 1120 41 1000 200/13 RMK AO2
94908KDBQ DBQ20071113124509511/13/07 12:45:31  5-MIN KDBQ 131845Z 19013KT 10SM CLR 11/M01 A2988 1120 42 1000 190/13 RMK AO2
94908KDBQ DBQ20071113125011211/13/07 12:50:31  5-MIN KDBQ 131850Z 19012KT 10SM CLR 11/M01 A2987 1120 42 1000 190/12 RMK AO2 SLP123 T01111011
94908KDBQ DBQ20071113125509511/13/07 12:55:31  5-MIN KDBQ 131855Z 19011KT 10SM CLR 11/M01 A2987 1130 42 1000 190/11 RMK AO2
94908KDBQ DBQ20071113130009511/13/07 13:00:31  5-MIN KDBQ 131900Z 18012KT 10SM CLR 11/M01 A2986 1130 42 1000 180/12 RMK AO2
94908KDBQ DBQ20071113130510211/13/07 13:05:31  5-MIN KDBQ 131905Z 18013KT 10SM CLR 11/M01 A2985 1140 42 1000 180/13 RMK AO2 PRESFR
94908KDBQ DBQ20071113131009511/13/07 13:10:31  5-MIN KDBQ 131910Z 18013KT 10SM CLR 11/M01 A2985 1150 42 1000 170/13 RMK AO2
94908KDBQ DBQ20071113131509511/13/07 13:15:31  5-MIN KDBQ 131915Z 18013KT 10SM CLR 12/M01 A2984 1150 41 1100 180/13 RMK AO2
94908KDBQ DBQ20071113132009511/13/07 13:20:31  5-MIN KDBQ 131920Z 18013KT 10SM CLR 12/M01 A2984 1150 41 1100 180/13 RMK AO2
94908KDBQ DBQ20071113132510211/13/07 13:25:31  5-MIN KDBQ 131925Z 17012KT 10SM CLR 12/M01 A2983 1160 41 1100 170/12 RMK AO2 PRESFR
94908KDBQ DBQ20071113133010211/13/07 13:30:31  5-MIN KDBQ 131930Z 18015KT 10SM CLR 12/M01 A2982 1170 41 1100 180/15 RMK AO2 PRESFR
94908KDBQ DBQ20071113133509511/13/07 13:35:31  5-MIN KDBQ 131935Z 18014KT 10SM CLR 11/M01 A2982 1170 42 1000 180/14 RMK AO2
94908KDBQ DBQ20071113134009511/13/07 13:40:31  5-MIN KDBQ 131940Z 19014KT 10SM CLR 12/M01 A2982 1180 41 1100 180/14 RMK AO2
94908KDBQ DBQ20071113134510811/13/07 13:45:31  5-MIN KDBQ 131945Z 18015G19KT 10SM CLR 12/M01 A2981 1180 41 1200 170/15G19 RMK AO2 PRESFR
94908KDBQ DBQ20071113135011911/13/07 13:50:31  5-MIN KDBQ 131950Z 18015KT 10SM CLR 13/M01 A2980 1190 38 1200 180/15 RMK AO2 PRESFR SLP097 T01281011
94908KDBQ DBQ20071113135510811/13/07 13:55:31  5-MIN KDBQ 131955Z 18017G21KT 10SM CLR 13/M01 A2979 1200 38 1300 180/17G21 RMK AO2 PRESFR
94908KDBQ DBQ20071113140010811/13/07 14:00:31  5-MIN KDBQ 132000Z 17017G23KT 10SM CLR 13/M01 A2978 1210 38 1300 170/17G23 RMK AO2 PRESFR
94908KDBQ DBQ20071113140510811/13/07 14:05:31  5-MIN KDBQ 132005Z 17018G23KT 10SM CLR 12/M02 A2976 1230 38 1200 170/18G23 RMK AO2 PRESFR
94908KDBQ DBQ20071113141010811/13/07 14:10:31  5-MIN KDBQ 132010Z 16016G23KT 10SM CLR 12/M02 A2975 1240 38 1200 160/16G23 RMK AO2 PRESFR
94908KDBQ DBQ20071113141509511/13/07 14:15:31  5-MIN KDBQ 132015Z 17016KT 10SM CLR 12/M02 A2975 1240 38 1200 170/16 RMK AO2
94908KDBQ DBQ20071113142010111/13/07 14:20:31  5-MIN KDBQ 132020Z 19015G22KT 10SM CLR 12/M02 A2977 1220 38 1200 190/15G22 RMK AO2
94908KDBQ DBQ20071113142510111/13/07 14:25:31  5-MIN KDBQ 132025Z 18018G23KT 10SM CLR 12/M02 A2975 1240 38 1200 180/18G23 RMK AO2
94908KDBQ DBQ20071113143010111/13/07 14:30:31  5-MIN KDBQ 132030Z 18017G23KT 10SM CLR 12/M02 A2974 1240 36 1200 180/17G23 RMK AO2
94908KDBQ DBQ20071113143511911/13/07 14:35:31  5-MIN KDBQ 132035Z 19018G26KT 10SM CLR 13/M02 A2975 1240 35 1300 190/18G26 RMK AO2 PK WND 18026/2032
94908KDBQ DBQ20071113144011911/13/07 14:40:31  5-MIN KDBQ 132040Z 18017G26KT 10SM CLR 12/M02 A2975 1230 36 1200 180/17G26 RMK AO2 PK WND 18026/2032
94908KDBQ DBQ20071113144512611/13/07 14:45:31  5-MIN KDBQ 132045Z 20018G25KT 10SM CLR 12/M02 A2977 1220 36 1200 200/18G25 RMK AO2 PK WND 18026/2032 PRESRR
94908KDBQ DBQ20071113145013611/13/07 14:50:31  5-MIN KDBQ 132050Z 20016KT 10SM CLR 12/M02 A2977 1220 36 1200 200/16 RMK AO2 PK WND 18026/2032 SLP090 T01221022 58032
94908KDBQ DBQ20071113145509511/13/07 14:55:31  5-MIN KDBQ 132055Z 20015KT 10SM CLR 12/M02 A2977 1220 39 1100 190/15 RMK AO2
94908KDBQ DBQ20071113150009511/13/07 15:00:31  5-MIN KDBQ 132100Z 19013KT 10SM CLR 12/M02 A2977 1220 39 1200 190/13 RMK AO2
94908KDBQ DBQ20071113150509511/13/07 15:05:31  5-MIN KDBQ 132105Z 20014KT 10SM CLR 12/M02 A2977 1220 39 1100 200/14 RMK AO2
94908KDBQ DBQ20071113151009511/13/07 15:10:31  5-MIN KDBQ 132110Z 20012KT 10SM CLR 11/M01 A2977 1220 42 1100 200/12 RMK AO2
94908KDBQ DBQ20071113151509511/13/07 15:15:31  5-MIN KDBQ 132115Z 20010KT 10SM CLR 12/M01 A2977 1220 41 1100 200/10 RMK AO2
94908KDBQ DBQ20071113152009511/13/07 15:20:31  5-MIN KDBQ 132120Z 21012KT 10SM CLR 12/M01 A2977 1220 39 1200 200/12 RMK AO2
94908KDBQ DBQ20071113152509511/13/07 15:25:31  5-MIN KDBQ 132125Z 20012KT 10SM CLR 12/M01 A2977 1220 41 1200 200/12 RMK AO2
94908KDBQ DBQ20071113153009511/13/07 15:30:31  5-MIN KDBQ 132130Z 21012KT 10SM CLR 12/M01 A2976 1220 41 1200 210/12 RMK AO2
94908KDBQ DBQ20071113153509511/13/07 15:35:31  5-MIN KDBQ 132135Z 20011KT 10SM CLR 11/M01 A2976 1230 42 1100 200/11 RMK AO2
94908KDBQ DBQ20071113154009511/13/07 15:40:31  5-MIN KDBQ 132140Z 21010KT 10SM CLR 11/M01 A2976 1220 44 1100 210/10 RMK AO2
94908KDBQ DBQ20071113154509511/13/07 15:45:31  5-MIN KDBQ 132145Z 21010KT 10SM CLR 11/M01 A2977 1220 46 1000 210/10 RMK AO2
94908KDBQ DBQ20071113155011211/13/07 15:50:31  5-MIN KDBQ 132150Z 20009KT 10SM CLR 11/M01 A2977 1220 46 1000 200/09 RMK AO2 SLP088 T01061006
94908KDBQ DBQ20071113155509511/13/07 15:55:31  5-MIN KDBQ 132155Z 20009KT 10SM CLR 11/M01 A2976 1230 46 1000 200/09 RMK AO2
94908KDBQ DBQ20071113160009511/13/07 16:00:31  5-MIN KDBQ 132200Z 19010KT 10SM CLR 11/M01 A2975 1240 44 1000 190/10 RMK AO2
94908KDBQ DBQ20071113160509511/13/07 16:05:31  5-MIN KDBQ 132205Z 19011KT 10SM CLR 11/M02 A2975 1240 41 1100 190/11 RMK AO2
94908KDBQ DBQ20071113161009511/13/07 16:10:31  5-MIN KDBQ 132210Z 19012KT 10SM CLR 11/M02 A2975 1240 41 1100 190/12 RMK AO2
94908KDBQ DBQ20071113161509511/13/07 16:15:31  5-MIN KDBQ 132215Z 19011KT 10SM CLR 11/M02 A2974 1240 41 1100 190/11 RMK AO2
94908KDBQ DBQ20071113162009511/13/07 16:20:31  5-MIN KDBQ 132220Z 20012KT 10SM CLR 11/M02 A2974 1240 42 1000 200/12 RMK AO2
94908KDBQ DBQ20071113162509511/13/07 16:25:31  5-MIN KDBQ 132225Z 20011KT 10SM CLR 11/M02 A2974 1240 40 1000 200/11 RMK AO2
94908KDBQ DBQ20071113163009511/13/07 16:30:31  5-MIN KDBQ 132230Z 20011KT 10SM CLR 10/M02 A2974 1250 44 1000 200/11 RMK AO2
94908KDBQ DBQ20071113163509511/13/07 16:35:31  5-MIN KDBQ 132235Z 18011KT 10SM CLR 10/M02 A2973 1260 42 1000 180/11 RMK AO2
94908KDBQ DBQ20071113164009511/13/07 16:40:31  5-MIN KDBQ 132240Z 18011KT 10SM CLR 10/M02 A2972 1260 42 1000 180/11 RMK AO2
94908KDBQ DBQ20071113164509511/13/07 16:45:31  5-MIN KDBQ 132245Z 18010KT 10SM CLR 10/M03 A2972 1270 40 1000 180/10 RMK AO2
94908KDBQ DBQ20071113165011211/13/07 16:50:31  5-MIN KDBQ 132250Z 18010KT 10SM CLR 10/M03 A2971 1270 40 1000 180/10 RMK AO2 SLP071 T01001028
94908KDBQ DBQ20071113165509411/13/07 16:55:31  5-MIN KDBQ 132255Z 18011KT 10SM CLR 09/M03 A2971 1270 42 900 180/11 RMK AO2
94908KDBQ DBQ20071113170009411/13/07 17:00:31  5-MIN KDBQ 132300Z 18010KT 10SM CLR 09/M02 A2972 1270 44 900 180/10 RMK AO2
94908KDBQ DBQ20071113170509411/13/07 17:05:31  5-MIN KDBQ 132305Z 18010KT 10SM CLR 09/M02 A2972 1270 44 900 180/10 RMK AO2
94908KDBQ DBQ20071113171009411/13/07 17:10:31  5-MIN KDBQ 132310Z 18010KT 10SM CLR 09/M03 A2972 1270 42 900 180/10 RMK AO2
94908KDBQ DBQ20071113171509511/13/07 17:15:31  5-MIN KDBQ 132315Z 18012KT 10SM CLR 10/M03 A2971 1270 40 1000 180/12 RMK AO2
94908KDBQ DBQ20071113172009511/13/07 17:20:31  5-MIN KDBQ 132320Z 18011KT 10SM CLR 10/M03 A2971 1270 40 1000 180/11 RMK AO2
94908KDBQ DBQ20071113172509511/13/07 17:25:31  5-MIN KDBQ 132325Z 19011KT 10SM CLR 10/M03 A2971 1270 40 1000 190/11 RMK AO2
94908KDBQ DBQ20071113173009511/13/07 17:30:31  5-MIN KDBQ 132330Z 19012KT 10SM CLR 10/M03 A2971 1270 40 1000 180/12 RMK AO2
94908KDBQ DBQ20071113173509511/13/07 17:35:31  5-MIN KDBQ 132335Z 19012KT 10SM CLR 10/M03 A2970 1280 39 1000 190/12 RMK AO2
94908KDBQ DBQ20071113174009511/13/07 17:40:31  5-MIN KDBQ 132340Z 18011KT 10SM CLR 10/M03 A2970 1280 39 1000 180/11 RMK AO2
94908KDBQ DBQ20071113174509511/13/07 17:45:31  5-MIN KDBQ 132345Z 18012KT 10SM CLR 10/M03 A2970 1280 39 1000 180/12 RMK AO2
94908KDBQ DBQ20071113175013011/13/07 17:50:31  5-MIN KDBQ 132350Z 18012KT 10SM CLR 10/M03 A2970 1280 39 1000 180/12 RMK AO2 SLP065 T01001033 10128 20094 56050
94908KDBQ DBQ20071113175509511/13/07 17:55:31  5-MIN KDBQ 132355Z 18014KT 10SM CLR 10/M03 A2970 1290 39 1000 180/14 RMK AO2
94908KDBQ DBQ20071113180009511/13/07 18:00:31  5-MIN KDBQ 140000Z 18013KT 10SM CLR 10/M03 A2969 1290 39 1000 180/13 RMK AO2
94908KDBQ DBQ20071113180509511/13/07 18:05:31  5-MIN KDBQ 140005Z 18013KT 10SM CLR 10/M03 A2969 1290 39 1000 180/13 RMK AO2
94908KDBQ DBQ20071113181009511/13/07 18:10:31  5-MIN KDBQ 140010Z 18012KT 10SM CLR 10/M03 A2969 1290 39 1000 180/12 RMK AO2
94908KDBQ DBQ20071113181509511/13/07 18:15:31  5-MIN KDBQ 140015Z 18012KT 10SM CLR 10/M03 A2969 1290 39 1000 180/12 RMK AO2
94908KDBQ DBQ20071113182009511/13/07 18:20:31  5-MIN KDBQ 140020Z 18012KT 10SM CLR 10/M03 A2969 1290 39 1000 180/12 RMK AO2
94908KDBQ DBQ20071113182509511/13/07 18:25:31  5-MIN KDBQ 140025Z 18012KT 10SM CLR 10/M03 A2969 1290 39 1000 180/12 RMK AO2
94908KDBQ DBQ20071113183009511/13/07 18:30:31  5-MIN KDBQ 140030Z 18012KT 10SM CLR 10/M03 A2969 1300 39 1000 180/12 RMK AO2
94908KDBQ DBQ20071113183509511/13/07 18:35:31  5-MIN KDBQ 140035Z 18012KT 10SM CLR 09/M03 A2969 1300 40 1000 180/12 RMK AO2
94908KDBQ DBQ20071113184009511/13/07 18:40:31  5-MIN KDBQ 140040Z 18012KT 10SM CLR 09/M03 A2969 1290 40 1000 180/12 RMK AO2
94908KDBQ DBQ20071113184509511/13/07 18:45:31  5-MIN KDBQ 140045Z 18011KT 10SM CLR 09/M03 A2969 1300 42 1000 180/11 RMK AO2
94908KDBQ DBQ20071113185011211/13/07 18:50:31  5-MIN KDBQ 140050Z 18011KT 10SM CLR 09/M03 A2969 1300 42 1000 180/11 RMK AO2 SLP060 T00941028
94908KDBQ DBQ20071113185509511/13/07 18:55:31  5-MIN KDBQ 140055Z 18011KT 10SM CLR 09/M03 A2968 1300 42 1000 180/11 RMK AO2
94908KDBQ DBQ20071113190009511/13/07 19:00:31  5-MIN KDBQ 140100Z 18012KT 10SM CLR 09/M02 A2968 1300 44 1000 180/12 RMK AO2
94908KDBQ DBQ20071113190509411/13/07 19:05:31  5-MIN KDBQ 140105Z 18011KT 10SM CLR 09/M02 A2968 1300 45 900 180/11 RMK AO2
94908KDBQ DBQ20071113191009411/13/07 19:10:31  5-MIN KDBQ 140110Z 18011KT 10SM CLR 09/M02 A2969 1300 45 900 180/11 RMK AO2
94908KDBQ DBQ20071113191509411/13/07 19:15:31  5-MIN KDBQ 140115Z 18010KT 10SM CLR 09/M02 A2968 1300 45 900 180/10 RMK AO2
94908KDBQ DBQ20071113192009411/13/07 19:20:31  5-MIN KDBQ 140120Z 18010KT 10SM CLR 09/M02 A2969 1300 47 900 180/10 RMK AO2
94908KDBQ DBQ20071113192509411/13/07 19:25:31  5-MIN KDBQ 140125Z 19010KT 10SM CLR 09/M02 A2969 1290 47 900 190/10 RMK AO2
94908KDBQ DBQ20071113193009411/13/07 19:30:31  5-MIN KDBQ 140130Z 19009KT 10SM CLR 08/M02 A2969 1300 49 800 190/09 RMK AO2
94908KDBQ DBQ20071113193509411/13/07 19:35:31  5-MIN KDBQ 140135Z 19011KT 10SM CLR 08/M02 A2968 1300 49 800 190/11 RMK AO2
94908KDBQ DBQ20071113194009411/13/07 19:40:31  5-MIN KDBQ 140140Z 19011KT 10SM CLR 08/M01 A2968 1300 51 800 190/11 RMK AO2
94908KDBQ DBQ20071113194509411/13/07 19:45:31  5-MIN KDBQ 140145Z 19011KT 10SM CLR 09/M01 A2968 1300 49 900 190/11 RMK AO2
94908KDBQ DBQ20071113195011611/13/07 19:50:31  5-MIN KDBQ 140150Z AUTO 19010KT 10SM CLR 08/M01 A2969 1290 51 800 190/10 RMK AO2 SLP061 T00831011
94908KDBQ DBQ20071113195509911/13/07 19:55:31  5-MIN KDBQ 140155Z AUTO 19010KT 10SM CLR 08/M01 A2968 1300 51 800 180/10 RMK AO2
94908KDBQ DBQ20071113200009911/13/07 20:00:31  5-MIN KDBQ 140200Z AUTO 18011KT 10SM CLR 09/M01 A2968 1300 49 900 180/11 RMK AO2
94908KDBQ DBQ20071113200509911/13/07 20:05:31  5-MIN KDBQ 140205Z AUTO 18012KT 10SM CLR 09/M01 A2968 1300 49 900 180/12 RMK AO2
94908KDBQ DBQ20071113201009911/13/07 20:10:31  5-MIN KDBQ 140210Z AUTO 19011KT 10SM CLR 09/M01 A2969 1290 51 900 190/11 RMK AO2
94908KDBQ DBQ20071113201509911/13/07 20:15:31  5-MIN KDBQ 140215Z AUTO 20009KT 10SM CLR 09/M01 A2969 1290 51 900 200/09 RMK AO2
94908KDBQ DBQ20071113202009911/13/07 20:20:31  5-MIN KDBQ 140220Z AUTO 21008KT 10SM CLR 08/M01 A2970 1290 53 800 210/08 RMK AO2
94908KDBQ DBQ20071113202510211/13/07 20:25:31  5-MIN KDBQ 140225Z AUTO 21009KT 10SM FEW033 08/M01 A2970 1290 53 800 210/09 RMK AO2
94908KDBQ DBQ20071113203010211/13/07 20:30:31  5-MIN KDBQ 140230Z AUTO 20009KT 10SM SCT033 08/M01 A2969 1290 53 800 200/09 RMK AO2
94908KDBQ DBQ20071113203510111/13/07 20:35:31  5-MIN KDBQ 140235Z AUTO 22008KT 10SM BKN033 08/00 A2970 1290 55 800 220/08 RMK AO2
94908KDBQ DBQ20071113204010111/13/07 20:40:31  5-MIN KDBQ 140240Z AUTO 22008KT 10SM BKN033 08/00 A2969 1290 55 800 220/08 RMK AO2
94908KDBQ DBQ20071113204510111/13/07 20:45:31  5-MIN KDBQ 140245Z AUTO 21008KT 10SM SCT033 08/00 A2969 1290 55 800 210/08 RMK AO2
94908KDBQ DBQ20071113205012411/13/07 20:50:31  5-MIN KDBQ 140250Z AUTO 21009KT 10SM SCT033 08/00 A2969 1290 58 800 210/09 RMK AO2 SLP060 T00780000 57025
94908KDBQ DBQ20071113205510111/13/07 20:55:31  5-MIN KDBQ 140255Z AUTO 21009KT 10SM SCT033 08/00 A2969 1300 58 800 210/09 RMK AO2
94908KDBQ DBQ20071113210010111/13/07 21:00:31  5-MIN KDBQ 140300Z AUTO 21009KT 10SM FEW033 07/00 A2968 1300 60 700 210/09 RMK AO2
94908KDBQ DBQ20071113210509811/13/07 21:05:31  5-MIN KDBQ 140305Z AUTO 21009KT 10SM CLR 07/00 A2968 1300 60 700 210/09 RMK AO2
94908KDBQ DBQ20071113211009811/13/07 21:10:31  5-MIN KDBQ 140310Z AUTO 21009KT 10SM CLR 07/00 A2968 1300 62 600 210/09 RMK AO2
94908KDBQ DBQ20071113211509811/13/07 21:15:31  5-MIN KDBQ 140315Z AUTO 21009KT 10SM CLR 07/00 A2968 1300 62 700 210/09 RMK AO2
94908KDBQ DBQ20071113212009811/13/07 21:20:31  5-MIN KDBQ 140320Z AUTO 21009KT 10SM CLR 07/00 A2968 1310 62 700 200/09 RMK AO2
94908KDBQ DBQ20071113212509811/13/07 21:25:31  5-MIN KDBQ 140325Z AUTO 21010KT 10SM CLR 07/00 A2967 1310 62 700 210/10 RMK AO2
94908KDBQ DBQ20071113213009811/13/07 21:30:31  5-MIN KDBQ 140330Z AUTO 21009KT 10SM CLR 07/00 A2967 1310 60 700 210/09 RMK AO2
94908KDBQ DBQ20071113213509811/13/07 21:35:31  5-MIN KDBQ 140335Z AUTO 21010KT 10SM CLR 07/00 A2967 1310 60 700 210/10 RMK AO2
94908KDBQ DBQ20071113214009811/13/07 21:40:31  5-MIN KDBQ 140340Z AUTO 21010KT 10SM CLR 07/00 A2967 1310 60 700 210/10 RMK AO2
94908KDBQ DBQ20071113214509811/13/07 21:45:31  5-MIN KDBQ 140345Z AUTO 21009KT 10SM CLR 07/01 A2966 1320 62 700 210/09 RMK AO2
94908KDBQ DBQ20071113215011511/13/07 21:50:31  5-MIN KDBQ 140350Z AUTO 21010KT 10SM CLR 07/01 A2966 1320 62 700 210/10 RMK AO2 SLP049 T00720006
94908KDBQ DBQ20071113215509811/13/07 21:55:31  5-MIN KDBQ 140355Z AUTO 21009KT 10SM CLR 07/01 A2966 1320 62 700 210/09 RMK AO2
94908KDBQ DBQ20071113220009811/13/07 22:00:31  5-MIN KDBQ 140400Z AUTO 21010KT 10SM CLR 07/01 A2966 1320 62 700 200/10 RMK AO2
94908KDBQ DBQ20071113220509811/13/07 22:05:31  5-MIN KDBQ 140405Z AUTO 21010KT 10SM CLR 07/01 A2966 1320 62 700 210/10 RMK AO2
94908KDBQ DBQ20071113221009811/13/07 22:10:31  5-MIN KDBQ 140410Z AUTO 21010KT 10SM CLR 07/01 A2966 1320 62 700 210/10 RMK AO2
94908KDBQ DBQ20071113221509811/13/07 22:15:31  5-MIN KDBQ 140415Z AUTO 20010KT 10SM CLR 08/01 A2965 1330 60 800 200/10 RMK AO2
94908KDBQ DBQ20071113222009811/13/07 22:20:31  5-MIN KDBQ 140420Z AUTO 20010KT 10SM CLR 08/01 A2965 1330 60 800 200/10 RMK AO2
94908KDBQ DBQ20071113222509811/13/07 22:25:31  5-MIN KDBQ 140425Z AUTO 20011KT 10SM CLR 08/01 A2965 1330 62 800 200/11 RMK AO2
94908KDBQ DBQ20071113223009811/13/07 22:30:31  5-MIN KDBQ 140430Z AUTO 20010KT 10SM CLR 08/01 A2964 1330 62 800 200/10 RMK AO2
94908KDBQ DBQ20071113223509811/13/07 22:35:31  5-MIN KDBQ 140435Z AUTO 20010KT 10SM CLR 08/01 A2964 1340 62 800 200/10 RMK AO2
94908KDBQ DBQ20071113224009811/13/07 22:40:31  5-MIN KDBQ 140440Z AUTO 20009KT 10SM CLR 07/01 A2964 1340 65 800 200/09 RMK AO2
94908KDBQ DBQ20071113224509811/13/07 22:45:31  5-MIN KDBQ 140445Z AUTO 20009KT 10SM CLR 07/01 A2964 1340 65 800 200/09 RMK AO2
94908KDBQ DBQ20071113225011511/13/07 22:50:31  5-MIN KDBQ 140450Z AUTO 20009KT 10SM CLR 07/01 A2964 1340 65 800 200/09 RMK AO2 SLP040 T00720011
94908KDBQ DBQ20071113225509811/13/07 22:55:31  5-MIN KDBQ 140455Z AUTO 20009KT 10SM CLR 07/01 A2964 1340 65 800 200/09 RMK AO2
94908KDBQ DBQ20071113230009811/13/07 23:00:31  5-MIN KDBQ 140500Z AUTO 21009KT 10SM CLR 07/01 A2964 1340 67 700 210/09 RMK AO2
94908KDBQ DBQ20071113230509811/13/07 23:05:31  5-MIN KDBQ 140505Z AUTO 21009KT 10SM CLR 07/02 A2964 1340 70 700 200/09 RMK AO2
94908KDBQ DBQ20071113231009811/13/07 23:10:31  5-MIN KDBQ 140510Z AUTO 20009KT 10SM CLR 07/02 A2963 1350 70 700 200/09 RMK AO2
94908KDBQ DBQ20071113231509811/13/07 23:15:31  5-MIN KDBQ 140515Z AUTO 21009KT 10SM CLR 07/02 A2963 1350 68 800 210/09 RMK AO2
94908KDBQ DBQ20071113232009811/13/07 23:20:31  5-MIN KDBQ 140520Z AUTO 21009KT 10SM CLR 07/02 A2963 1350 70 700 210/09 RMK AO2
94908KDBQ DBQ20071113232509811/13/07 23:25:31  5-MIN KDBQ 140525Z AUTO 22008KT 10SM CLR 07/02 A2964 1340 70 800 220/08 RMK AO2
94908KDBQ DBQ20071113233009811/13/07 23:30:31  5-MIN KDBQ 140530Z AUTO 23006KT 10SM CLR 07/02 A2964 1340 70 800 230/06 RMK AO2
94908KDBQ DBQ20071113233509811/13/07 23:35:31  5-MIN KDBQ 140535Z AUTO 24005KT 10SM CLR 07/02 A2964 1340 73 700 240/05 RMK AO2
94908KDBQ DBQ20071113234009811/13/07 23:40:31  5-MIN KDBQ 140540Z AUTO 23007KT 10SM CLR 07/02 A2964 1340 70 700 230/07 RMK AO2
94908KDBQ DBQ20071113234509811/13/07 23:45:31  5-MIN KDBQ 140545Z AUTO 23008KT 10SM CLR 07/02 A2964 1340 73 700 230/08 RMK AO2
94908KDBQ DBQ20071113235014311/13/07 23:50:31  5-MIN KDBQ 140550Z AUTO 23007KT 10SM CLR 07/02 A2964 1340 73 700 230/07 RMK AO2 SLP041 T00670022 10100 20067 401281050 56003
94908KDBQ DBQ20071113235509811/13/07 23:55:31  5-MIN KDBQ 140555Z AUTO 25008KT 10SM CLR 07/02 A2965 1330 73 700 250/08 RMK AO2
94908KDBQ DBQ20071114000009811/14/07 00:00:38  5-MIN KDBQ 140600Z AUTO 25009KT 10SM CLR 07/03 A2965 1330 73 700 250/09 RMK AO2
94908KDBQ DBQ20071114000509811/14/07 00:05:31  5-MIN KDBQ 140605Z AUTO 25011KT 10SM CLR 07/03 A2966 1320 73 700 250/11 RMK AO2
94908KDBQ DBQ20071114001009811/14/07 00:10:31  5-MIN KDBQ 140610Z AUTO 26012KT 10SM CLR 07/03 A2966 1320 73 700 260/12 RMK AO2
94908KDBQ DBQ20071114001509811/14/07 00:15:31  5-MIN KDBQ 140615Z AUTO 26010KT 10SM CLR 07/02 A2966 1320 70 700 250/10 RMK AO2
94908KDBQ DBQ20071114002009811/14/07 00:20:31  5-MIN KDBQ 140620Z AUTO 26011KT 10SM CLR 07/02 A2966 1320 70 700 260/11 RMK AO2
94908KDBQ DBQ20071114002509811/14/07 00:25:31  5-MIN KDBQ 140625Z AUTO 27010KT 10SM CLR 08/02 A2966 1320 68 800 270/10 RMK AO2
94908KDBQ DBQ20071114003009811/14/07 00:30:31  5-MIN KDBQ 140630Z AUTO 26010KT 10SM CLR 08/02 A2966 1320 68 800 260/10 RMK AO2
94908KDBQ DBQ20071114003509811/14/07 00:35:31  5-MIN KDBQ 140635Z AUTO 26012KT 10SM CLR 08/02 A2967 1310 68 800 260/12 RMK AO2
94908KDBQ DBQ20071114004009811/14/07 00:40:31  5-MIN KDBQ 140640Z AUTO 27011KT 10SM CLR 08/02 A2967 1310 68 800 270/11 RMK AO2
94908KDBQ DBQ20071114004509811/14/07 00:45:31  5-MIN KDBQ 140645Z AUTO 27011KT 10SM CLR 08/02 A2967 1310 68 800 270/11 RMK AO2
94908KDBQ DBQ20071114005011511/14/07 00:50:31  5-MIN KDBQ 140650Z AUTO 28011KT 10SM CLR 08/02 A2968 1300 65 900 280/11 RMK AO2 SLP052 T00830022
94908KDBQ DBQ20071114005509811/14/07 00:55:31  5-MIN KDBQ 140655Z AUTO 28010KT 10SM CLR 08/02 A2967 1310 63 900 280/10 RMK AO2
94908KDBQ DBQ20071114010009811/14/07 01:00:31  5-MIN KDBQ 140700Z AUTO 28008KT 10SM CLR 08/02 A2966 1320 65 800 270/08 RMK AO2
94908KDBQ DBQ20071114010509811/14/07 01:05:31  5-MIN KDBQ 140705Z AUTO 28008KT 10SM CLR 08/02 A2967 1310 65 800 280/08 RMK AO2
94908KDBQ DBQ20071114011009811/14/07 01:10:31  5-MIN KDBQ 140710Z AUTO 29007KT 10SM CLR 08/02 A2967 1310 65 800 290/07 RMK AO2
94908KDBQ DBQ20071114011509811/14/07 01:15:31  5-MIN KDBQ 140715Z AUTO 30006KT 10SM CLR 08/01 A2967 1310 62 800 290/06 RMK AO2
94908KDBQ DBQ20071114012009811/14/07 01:20:31  5-MIN KDBQ 140720Z AUTO 30008KT 10SM CLR 07/01 A2968 1300 65 700 300/08 RMK AO2
94908KDBQ DBQ20071114012509811/14/07 01:25:31  5-MIN KDBQ 140725Z AUTO 30006KT 10SM CLR 07/01 A2968 1310 67 700 300/06 RMK AO2
94908KDBQ DBQ20071114013009811/14/07 01:30:31  5-MIN KDBQ 140730Z AUTO 31008KT 10SM CLR 07/01 A2968 1300 62 700 310/08 RMK AO2
94908KDBQ DBQ20071114013509811/14/07 01:35:31  5-MIN KDBQ 140735Z AUTO 32009KT 10SM CLR 07/01 A2968 1300 62 700 320/09 RMK AO2
94908KDBQ DBQ20071114014009811/14/07 01:40:31  5-MIN KDBQ 140740Z AUTO 32009KT 10SM CLR 08/01 A2968 1300 60 800 320/09 RMK AO2
94908KDBQ DBQ20071114014509811/14/07 01:45:31  5-MIN KDBQ 140745Z AUTO 32012KT 10SM CLR 08/01 A2968 1300 58 800 320/12 RMK AO2
94908KDBQ DBQ20071114015011511/14/07 01:50:31  5-MIN KDBQ 140750Z AUTO 32011KT 10SM CLR 08/00 A2969 1290 55 800 310/11 RMK AO2 SLP055 T00830000
94908KDBQ DBQ20071114015509811/14/07 01:55:31  5-MIN KDBQ 140755Z AUTO 32011KT 10SM CLR 08/00 A2970 1290 55 800 320/11 RMK AO2
94908KDBQ DBQ20071114020009811/14/07 02:00:31  5-MIN KDBQ 140800Z AUTO 32010KT 10SM CLR 08/00 A2970 1290 55 800 310/10 RMK AO2
94908KDBQ DBQ20071114020510111/14/07 02:05:31  5-MIN KDBQ 140805Z AUTO 33013KT 10SM FEW110 08/00 A2969 1290 55 800 320/13 RMK AO2
94908KDBQ DBQ20071114021010111/14/07 02:10:31  5-MIN KDBQ 140810Z AUTO 32011KT 10SM SCT120 09/00 A2969 1290 53 900 320/11 RMK AO2
94908KDBQ DBQ20071114021510111/14/07 02:15:31  5-MIN KDBQ 140815Z AUTO 32011KT 10SM BKN120 09/00 A2970 1290 53 900 320/11 RMK AO2
94908KDBQ DBQ20071114022010111/14/07 02:20:31  5-MIN KDBQ 140820Z AUTO 32011KT 10SM BKN120 09/00 A2971 1280 53 900 320/11 RMK AO2
94908KDBQ DBQ20071114022510111/14/07 02:25:31  5-MIN KDBQ 140825Z AUTO 32011KT 10SM BKN120 09/00 A2971 1280 53 900 320/11 RMK AO2
94908KDBQ DBQ20071114023010211/14/07 02:30:31  5-MIN KDBQ 140830Z AUTO 32011KT 10SM OVC120 09/M01 A2970 1280 51 900 320/11 RMK AO2
94908KDBQ DBQ20071114023510211/14/07 02:35:31  5-MIN KDBQ 140835Z AUTO 32008KT 10SM OVC120 09/M01 A2970 1280 51 900 320/08 RMK AO2
94908KDBQ DBQ20071114024010211/14/07 02:40:31  5-MIN KDBQ 140840Z AUTO 31008KT 10SM OVC120 09/M01 A2970 1290 51 900 310/08 RMK AO2
94908KDBQ DBQ20071114024510211/14/07 02:45:31  5-MIN KDBQ 140845Z AUTO 32009KT 10SM OVC120 09/M01 A2969 1290 51 900 320/09 RMK AO2
94908KDBQ DBQ20071114025012511/14/07 02:50:31  5-MIN KDBQ 140850Z AUTO 32009KT 10SM OVC120 09/M01 A2970 1290 51 900 320/09 RMK AO2 SLP058 T00891006 55013
94908KDBQ DBQ20071114025510211/14/07 02:55:31  5-MIN KDBQ 140855Z AUTO 31011KT 10SM OVC120 09/M01 A2970 1280 49 900 310/11 RMK AO2
94908KDBQ DBQ20071114030010211/14/07 03:00:31  5-MIN KDBQ 140900Z AUTO 31009KT 10SM BKN120 09/M01 A2970 1280 49 900 310/09 RMK AO2
94908KDBQ DBQ20071114030510211/14/07 03:05:31  5-MIN KDBQ 140905Z AUTO 31010KT 10SM BKN120 09/M01 A2970 1280 49 900 310/10 RMK AO2
94908KDBQ DBQ20071114031010211/14/07 03:10:31  5-MIN KDBQ 140910Z AUTO 31011KT 10SM BKN120 08/M01 A2970 1280 53 800 310/11 RMK AO2
94908KDBQ DBQ20071114031510211/14/07 03:15:31  5-MIN KDBQ 140915Z AUTO 31011KT 10SM SCT120 09/M01 A2970 1280 49 900 310/11 RMK AO2
94908KDBQ DBQ20071114032010211/14/07 03:20:31  5-MIN KDBQ 140920Z AUTO 32013KT 10SM SCT120 09/M01 A2970 1280 49 900 320/13 RMK AO2
94908KDBQ DBQ20071114032510211/14/07 03:25:31  5-MIN KDBQ 140925Z AUTO 31013KT 10SM SCT120 09/M01 A2970 1280 51 900 310/13 RMK AO2
94908KDBQ DBQ20071114033010211/14/07 03:30:31  5-MIN KDBQ 140930Z AUTO 31011KT 10SM FEW120 09/M01 A2970 1290 51 900 310/11 RMK AO2
94908KDBQ DBQ20071114033510211/14/07 03:35:31  5-MIN KDBQ 140935Z AUTO 31010KT 10SM FEW120 09/M01 A2969 1290 51 900 310/10 RMK AO2
94908KDBQ DBQ20071114034010211/14/07 03:40:31  5-MIN KDBQ 140940Z AUTO 30009KT 10SM FEW120 09/M01 A2970 1290 51 900 300/09 RMK AO2
94908KDBQ DBQ20071114034510211/14/07 03:45:31  5-MIN KDBQ 140945Z AUTO 30010KT 10SM FEW120 08/M01 A2970 1280 53 800 300/10 RMK AO2
94908KDBQ DBQ20071114035011611/14/07 03:50:31  5-MIN KDBQ 140950Z AUTO 30011KT 10SM CLR 08/M01 A2970 1280 53 800 300/11 RMK AO2 SLP062 T00831006
94908KDBQ DBQ20071114035509811/14/07 03:55:31  5-MIN KDBQ 140955Z AUTO 30011KT 10SM CLR 08/00 A2971 1270 55 800 300/11 RMK AO2
94908KDBQ DBQ20071114040009811/14/07 04:00:31  5-MIN KDBQ 141000Z AUTO 30012KT 10SM CLR 08/00 A2971 1270 55 800 300/12 RMK AO2
94908KDBQ DBQ20071114040509911/14/07 04:05:31  5-MIN KDBQ 141005Z AUTO 30012KT 10SM CLR 08/M01 A2972 1270 53 800 300/12 RMK AO2
94908KDBQ DBQ20071114041009911/14/07 04:10:31  5-MIN KDBQ 141010Z AUTO 30010KT 10SM CLR 08/M01 A2972 1260 53 800 300/10 RMK AO2
94908KDBQ DBQ20071114041509911/14/07 04:15:31  5-MIN KDBQ 141015Z AUTO 30011KT 10SM CLR 08/M01 A2972 1260 55 700 300/11 RMK AO2
94908KDBQ DBQ20071114042009911/14/07 04:20:31  5-MIN KDBQ 141020Z AUTO 29011KT 10SM CLR 08/M01 A2972 1260 55 700 290/11 RMK AO2
94908KDBQ DBQ20071114042509911/14/07 04:25:31  5-MIN KDBQ 141025Z AUTO 29011KT 10SM CLR 07/M01 A2973 1260 57 700 290/11 RMK AO2
94908KDBQ DBQ20071114043009911/14/07 04:30:31  5-MIN KDBQ 141030Z AUTO 29010KT 10SM CLR 07/M01 A2972 1260 57 700 290/10 RMK AO2
94908KDBQ DBQ20071114043509911/14/07 04:35:31  5-MIN KDBQ 141035Z AUTO 29008KT 10SM CLR 07/M01 A2973 1260 57 700 290/08 RMK AO2
94908KDBQ DBQ20071114044009911/14/07 04:40:31  5-MIN KDBQ 141040Z AUTO 29009KT 10SM CLR 07/M01 A2973 1260 60 600 280/09 RMK AO2
94908KDBQ DBQ20071114044509911/14/07 04:45:31  5-MIN KDBQ 141045Z AUTO 29011KT 10SM CLR 07/M01 A2973 1260 60 600 290/11 RMK AO2
94908KDBQ DBQ20071114045011611/14/07 04:50:31  5-MIN KDBQ 141050Z AUTO 29010KT 10SM CLR 07/M01 A2973 1260 60 600 290/10 RMK AO2 SLP072 T00671006
94908KDBQ DBQ20071114045509911/14/07 04:55:31  5-MIN KDBQ 141055Z AUTO 29011KT 10SM CLR 07/M01 A2973 1250 60 600 280/11 RMK AO2
94908KDBQ DBQ20071114050009911/14/07 05:00:31  5-MIN KDBQ 141100Z AUTO 28011KT 10SM CLR 07/M01 A2973 1250 60 600 280/11 RMK AO2
94908KDBQ DBQ20071114050509911/14/07 05:05:31  5-MIN KDBQ 141105Z AUTO 28012KT 10SM CLR 07/M01 A2973 1250 57 600 280/12 RMK AO2
94908KDBQ DBQ20071114051009911/14/07 05:10:31  5-MIN KDBQ 141110Z AUTO 28012KT 10SM CLR 07/M01 A2974 1250 57 600 280/12 RMK AO2
94908KDBQ DBQ20071114051509911/14/07 05:15:31  5-MIN KDBQ 141115Z AUTO 28011KT 10SM CLR 07/M01 A2974 1250 57 600 280/11 RMK AO2
94908KDBQ DBQ20071114052009911/14/07 05:20:31  5-MIN KDBQ 141120Z AUTO 29012KT 10SM CLR 07/M01 A2974 1250 57 600 290/12 RMK AO2
94908KDBQ DBQ20071114052509911/14/07 05:25:31  5-MIN KDBQ 141125Z AUTO 28013KT 10SM CLR 07/M01 A2974 1250 57 600 280/13 RMK AO2
94908KDBQ DBQ20071114053009911/14/07 05:30:31  5-MIN KDBQ 141130Z AUTO 28013KT 10SM CLR 06/M01 A2974 1250 62 500 280/13 RMK AO2
94908KDBQ DBQ20071114053509911/14/07 05:35:31  5-MIN KDBQ 141135Z AUTO 28013KT 10SM CLR 06/M01 A2975 1240 60 500 280/13 RMK AO2
94908KDBQ DBQ20071114054009911/14/07 05:40:31  5-MIN KDBQ 141140Z AUTO 27012KT 10SM CLR 06/M01 A2975 1240 62 500 270/12 RMK AO2
94908KDBQ DBQ20071114054509911/14/07 05:45:31  5-MIN KDBQ 141145Z AUTO 26012KT 10SM CLR 06/M01 A2975 1240 62 400 260/12 RMK AO2
94908KDBQ DBQ20071114055013411/14/07 05:50:31  5-MIN KDBQ 141150Z AUTO 26010KT 10SM CLR 06/M01 A2975 1240 62 400 260/10 RMK AO2 SLP080 T00561011 10094 20056 51017
94908KDBQ DBQ20071114055509411/14/07 05:55:31  5-MIN KDBQ 141155Z 25010KT 10SM CLR 04/M01 A2975 1240 67 300 250/10 RMK AO2
94908KDBQ DBQ20071114060009411/14/07 06:00:31  5-MIN KDBQ 141200Z 25009KT 10SM CLR 04/M01 A2975 1240 70 200 250/09 RMK AO2
94908KDBQ DBQ20071114060509411/14/07 06:05:31  5-MIN KDBQ 141205Z 25009KT 10SM CLR 04/M01 A2975 1240 70 200 250/09 RMK AO2
94908KDBQ DBQ20071114061009411/14/07 06:10:31  5-MIN KDBQ 141210Z 26010KT 10SM CLR 04/M01 A2975 1240 70 200 260/10 RMK AO2
94908KDBQ DBQ20071114061509411/14/07 06:15:31  5-MIN KDBQ 141215Z 26010KT 10SM CLR 04/M01 A2975 1240 70 200 260/10 RMK AO2
94908KDBQ DBQ20071114062009411/14/07 06:20:31  5-MIN KDBQ 141220Z 26010KT 10SM CLR 04/M01 A2975 1240 70 200 260/10 RMK AO2
94908KDBQ DBQ20071114062509411/14/07 06:25:31  5-MIN KDBQ 141225Z 26010KT 10SM CLR 04/M02 A2975 1240 64 300 260/10 RMK AO2
94908KDBQ DBQ20071114063009411/14/07 06:30:31  5-MIN KDBQ 141230Z 27011KT 10SM CLR 04/M02 A2975 1230 64 300 260/11 RMK AO2
94908KDBQ DBQ20071114063509411/14/07 06:35:31  5-MIN KDBQ 141235Z 27010KT 10SM CLR 04/M02 A2975 1240 64 300 270/10 RMK AO2
94908KDBQ DBQ20071114064009411/14/07 06:40:31  5-MIN KDBQ 141240Z 26010KT 10SM CLR 04/M02 A2975 1240 64 300 260/10 RMK AO2
94908KDBQ DBQ20071114064509411/14/07 06:45:31  5-MIN KDBQ 141245Z 26010KT 10SM CLR 04/M02 A2975 1240 67 200 260/10 RMK AO2
94908KDBQ DBQ20071114065011111/14/07 06:50:31  5-MIN KDBQ 141250Z 26010KT 10SM CLR 03/M02 A2975 1230 70 200 260/10 RMK AO2 SLP081 T00331017
94908KDBQ DBQ20071114065509411/14/07 06:55:31  5-MIN KDBQ 141255Z 26010KT 10SM CLR 03/M02 A2976 1230 67 200 260/10 RMK AO2
94908KDBQ DBQ20071114070009411/14/07 07:00:31  5-MIN KDBQ 141300Z 26011KT 10SM CLR 04/M02 A2976 1230 64 200 260/11 RMK AO2
94908KDBQ DBQ20071114070509411/14/07 07:05:31  5-MIN KDBQ 141305Z 26011KT 10SM CLR 04/M02 A2976 1230 62 300 260/11 RMK AO2
94908KDBQ DBQ20071114071009411/14/07 07:10:31  5-MIN KDBQ 141310Z 26011KT 10SM CLR 04/M02 A2977 1220 62 300 260/11 RMK AO2
94908KDBQ DBQ20071114071509411/14/07 07:15:31  5-MIN KDBQ 141315Z 27009KT 10SM CLR 04/M02 A2977 1220 64 200 270/09 RMK AO2
94908KDBQ DBQ20071114072009411/14/07 07:20:31  5-MIN KDBQ 141320Z 28012KT 10SM CLR 04/M02 A2977 1220 62 300 280/12 RMK AO2
94908KDBQ DBQ20071114072509411/14/07 07:25:31  5-MIN KDBQ 141325Z 28011KT 10SM CLR 04/M02 A2977 1220 62 300 280/11 RMK AO2
94908KDBQ DBQ20071114073010011/14/07 07:30:31  5-MIN KDBQ 141330Z 29012G18KT 10SM CLR 05/M03 A2977 1210 57 300 290/12G18 RMK AO2
94908KDBQ DBQ20071114073510011/14/07 07:35:31  5-MIN KDBQ 141335Z 29013G18KT 10SM CLR 04/M03 A2977 1210 59 300 280/13G18 RMK AO2
94908KDBQ DBQ20071114074009411/14/07 07:40:31  5-MIN KDBQ 141340Z 29014KT 10SM CLR 05/M03 A2978 1210 57 300 290/14 RMK AO2
94908KDBQ DBQ20071114074509411/14/07 07:45:31  5-MIN KDBQ 141345Z 29013KT 10SM CLR 05/M03 A2978 1210 57 300 290/13 RMK AO2
94908KDBQ DBQ20071114075011111/14/07 07:50:31  5-MIN KDBQ 141350Z 29012KT 10SM CLR 05/M03 A2977 1210 57 300 290/12 RMK AO2 SLP089 T00501028
94908KDBQ DBQ20071114075509411/14/07 07:55:31  5-MIN KDBQ 141355Z 29013KT 10SM CLR 05/M03 A2978 1210 57 300 280/13 RMK AO2
94908KDBQ DBQ20071114080009411/14/07 08:00:31  5-MIN KDBQ 141400Z 28014KT 10SM CLR 06/M03 A2978 1210 55 400 280/14 RMK AO2
94908KDBQ DBQ20071114080509411/14/07 08:05:31  5-MIN KDBQ 141405Z 28012KT 10SM CLR 06/M03 A2978 1210 55 400 280/12 RMK AO2
94908KDBQ DBQ20071114081010011/14/07 08:10:31  5-MIN KDBQ 141410Z 28013G19KT 10SM CLR 06/M03 A2978 1210 55 400 280/13G19 RMK AO2
94908KDBQ DBQ20071114081510011/14/07 08:15:31  5-MIN KDBQ 141415Z 28015G19KT 10SM CLR 06/M03 A2978 1210 53 500 280/15G19 RMK AO2
94908KDBQ DBQ20071114082009411/14/07 08:20:31  5-MIN KDBQ 141420Z 28014KT 10SM CLR 06/M03 A2978 1210 51 500 280/14 RMK AO2
94908KDBQ DBQ20071114082510011/14/07 08:25:31  5-MIN KDBQ 141425Z 28014G22KT 10SM CLR 07/M03 A2978 1210 49 500 280/14G22 RMK AO2
94908KDBQ DBQ20071114083010011/14/07 08:30:31  5-MIN KDBQ 141430Z 29014G22KT 10SM CLR 07/M03 A2978 1210 49 500 290/14G22 RMK AO2
94908KDBQ DBQ20071114083510011/14/07 08:35:31  5-MIN KDBQ 141435Z 29018G22KT 10SM CLR 06/M04 A2979 1200 48 500 290/18G22 RMK AO2
94908KDBQ DBQ20071114084010011/14/07 08:40:31  5-MIN KDBQ 141440Z 29015G22KT 10SM CLR 06/M04 A2979 1200 48 500 290/15G22 RMK AO2
94908KDBQ DBQ20071114084510011/14/07 08:45:31  5-MIN KDBQ 141445Z 29018G25KT 10SM CLR 07/M04 A2979 1200 47 500 290/18G25 RMK AO2
94908KDBQ DBQ20071114085012311/14/07 08:50:31  5-MIN KDBQ 141450Z 29018G25KT 10SM CLR 07/M04 A2980 1190 47 500 290/18G25 RMK AO2 SLP095 T00671039 53018
94908KDBQ DBQ20071114085510011/14/07 08:55:31  5-MIN KDBQ 141455Z 28019G25KT 10SM CLR 07/M04 A2979 1200 45 600 280/19G25 RMK AO2
94908KDBQ DBQ20071114090011811/14/07 09:00:31  5-MIN KDBQ 141500Z 29017G27KT 10SM CLR 07/M04 A2980 1190 45 600 280/17G27 RMK AO2 PK WND 28027/1456
94908KDBQ DBQ20071114090511811/14/07 09:05:31  5-MIN KDBQ 141505Z 29016G28KT 10SM CLR 07/M04 A2980 1190 47 500 280/16G28 RMK AO2 PK WND 29028/1502
94908KDBQ DBQ20071114091011811/14/07 09:10:31  5-MIN KDBQ 141510Z 29016G28KT 10SM CLR 07/M04 A2980 1190 45 500 290/16G28 RMK AO2 PK WND 29028/1502
94908KDBQ DBQ20071114091511811/14/07 09:15:31  5-MIN KDBQ 141515Z 29019G25KT 10SM CLR 07/M04 A2980 1190 47 500 290/19G25 RMK AO2 PK WND 29028/1502
94908KDBQ DBQ20071114092011811/14/07 09:20:31  5-MIN KDBQ 141520Z 29017G25KT 10SM CLR 07/M04 A2981 1180 47 500 290/17G25 RMK AO2 PK WND 29028/1502
94908KDBQ DBQ20071114092511811/14/07 09:25:31  5-MIN KDBQ 141525Z 30015G21KT 10SM CLR 07/M04 A2980 1190 45 600 300/15G21 RMK AO2 PK WND 29028/1502
94908KDBQ DBQ20071114093011811/14/07 09:30:31  5-MIN KDBQ 141530Z 29016G23KT 10SM CLR 07/M04 A2981 1180 45 600 290/16G23 RMK AO2 PK WND 29028/1502
94908KDBQ DBQ20071114093511811/14/07 09:35:31  5-MIN KDBQ 141535Z 29017G25KT 10SM CLR 07/M04 A2981 1180 43 600 290/17G25 RMK AO2 PK WND 29028/1502
94908KDBQ DBQ20071114094011811/14/07 09:40:31  5-MIN KDBQ 141540Z 30019G27KT 10SM CLR 07/M04 A2981 1180 43 600 300/19G27 RMK AO2 PK WND 29028/1502
94908KDBQ DBQ20071114094511811/14/07 09:45:31  5-MIN KDBQ 141545Z 29021G27KT 10SM CLR 07/M04 A2982 1170 43 600 290/21G27 RMK AO2 PK WND 29028/1502
94908KDBQ DBQ20071114095013511/14/07 09:50:31  5-MIN KDBQ 141550Z 29016G26KT 10SM CLR 07/M04 A2982 1170 43 600 280/16G26 RMK AO2 PK WND 29028/1502 SLP102 T00721044
94908KDBQ DBQ20071114095511811/14/07 09:55:31  5-MIN KDBQ 141555Z 28022G29KT 10SM CLR 07/M04 A2982 1170 43 600 280/22G29 RMK AO2 PK WND 28029/1554
94908KDBQ DBQ20071114100011811/14/07 10:00:31  5-MIN KDBQ 141600Z 29017G29KT 10SM CLR 07/M04 A2982 1170 43 600 290/17G29 RMK AO2 PK WND 28029/1554
94908KDBQ DBQ20071114100511811/14/07 10:05:31  5-MIN KDBQ 141605Z 29018G26KT 10SM CLR 07/M04 A2982 1170 43 600 290/18G26 RMK AO2 PK WND 28029/1554
94908KDBQ DBQ20071114101011811/14/07 10:10:31  5-MIN KDBQ 141610Z 28020G28KT 10SM CLR 07/M04 A2981 1180 45 500 280/20G28 RMK AO2 PK WND 28029/1554
94908KDBQ DBQ20071114101511811/14/07 10:15:31  5-MIN KDBQ 141615Z 28019G28KT 10SM CLR 07/M04 A2982 1170 43 600 280/19G28 RMK AO2 PK WND 28029/1554
94908KDBQ DBQ20071114102011811/14/07 10:20:31  5-MIN KDBQ 141620Z 28018G28KT 10SM CLR 08/M04 A2982 1170 43 600 280/18G28 RMK AO2 PK WND 28029/1554
94908KDBQ DBQ20071114102511811/14/07 10:25:31  5-MIN KDBQ 141625Z 29015G28KT 10SM CLR 08/M04 A2982 1170 43 600 290/15G28 RMK AO2 PK WND 28029/1554
94908KDBQ DBQ20071114103011811/14/07 10:30:31  5-MIN KDBQ 141630Z 29017G26KT 10SM CLR 08/M04 A2981 1180 43 600 290/17G26 RMK AO2 PK WND 28029/1554
94908KDBQ DBQ20071114103511811/14/07 10:35:31  5-MIN KDBQ 141635Z 30017G26KT 10SM CLR 08/M04 A2982 1170 43 600 290/17G26 RMK AO2 PK WND 28029/1554
94908KDBQ DBQ20071114104011811/14/07 10:40:31  5-MIN KDBQ 141640Z 30020G26KT 10SM CLR 08/M04 A2982 1180 42 700 300/20G26 RMK AO2 PK WND 28029/1554
94908KDBQ DBQ20071114104511811/14/07 10:45:31  5-MIN KDBQ 141645Z 30023G34KT 10SM CLR 08/M04 A2982 1170 42 700 300/23G34 RMK AO2 PK WND 31034/1641
94908KDBQ DBQ20071114105013511/14/07 10:50:31  5-MIN KDBQ 141650Z 30021G35KT 10SM CLR 08/M04 A2982 1180 40 700 300/21G35 RMK AO2 PK WND 31035/1647 SLP102 T00831044
94908KDBQ DBQ20071114105511811/14/07 10:55:31  5-MIN KDBQ 141655Z 30022G35KT 10SM CLR 08/M04 A2982 1170 43 600 300/22G35 RMK AO2 PK WND 31028/1655
94908KDBQ DBQ20071114110011811/14/07 11:00:31  5-MIN KDBQ 141700Z 29024G30KT 10SM CLR 09/M04 A2982 1170 38 800 290/24G30 RMK AO2 PK WND 28030/1700
94908KDBQ DBQ20071114110511811/14/07 11:05:31  5-MIN KDBQ 141705Z 29025G34KT 10SM CLR 08/M04 A2982 1170 40 700 290/25G34 RMK AO2 PK WND 29034/1703
94908KDBQ DBQ20071114111011811/14/07 11:10:31  5-MIN KDBQ 141710Z 29025G34KT 10SM CLR 08/M04 A2982 1170 40 700 290/25G34 RMK AO2 PK WND 29034/1703
94908KDBQ DBQ20071114111511811/14/07 11:15:31  5-MIN KDBQ 141715Z 29026G33KT 10SM CLR 09/M04 A2982 1180 38 800 290/26G33 RMK AO2 PK WND 29034/1703
94908KDBQ DBQ20071114112011811/14/07 11:20:31  5-MIN KDBQ 141720Z 29025G33KT 10SM CLR 09/M04 A2981 1180 37 800 290/25G33 RMK AO2 PK WND 29034/1703
94908KDBQ DBQ20071114112511811/14/07 11:25:31  5-MIN KDBQ 141725Z 29027G33KT 10SM CLR 09/M04 A2981 1180 38 800 290/27G33 RMK AO2 PK WND 29034/1703
94908KDBQ DBQ20071114113011811/14/07 11:30:31  5-MIN KDBQ 141730Z 29024G35KT 10SM CLR 09/M04 A2981 1180 38 800 290/24G35 RMK AO2 PK WND 29035/1726
94908KDBQ DBQ20071114113511811/14/07 11:35:31  5-MIN KDBQ 141735Z 30018G35KT 10SM CLR 09/M04 A2981 1180 39 800 300/18G35 RMK AO2 PK WND 29035/1726
94908KDBQ DBQ20071114114011811/14/07 11:40:31  5-MIN KDBQ 141740Z 31024G31KT 10SM CLR 09/M04 A2981 1180 39 800 300/24G31 RMK AO2 PK WND 29035/1726
94908KDBQ DBQ20071114114511811/14/07 11:45:31  5-MIN KDBQ 141745Z 30024G32KT 10SM CLR 09/M04 A2981 1180 39 800 300/24G32 RMK AO2 PK WND 29035/1726
94908KDBQ DBQ20071114115015311/14/07 11:50:31  5-MIN KDBQ 141750Z 29023G32KT 10SM CLR 09/M04 A2981 1180 37 800 290/23G32 RMK AO2 PK WND 29035/1726 SLP099 T00941044 10094 20033 53012
94908KDBQ DBQ20071114115510011/14/07 11:55:31  5-MIN KDBQ 141755Z 29020G32KT 10SM CLR 09/M04 A2981 1180 39 800 290/20G32 RMK AO2
94908KDBQ DBQ20071114120011811/14/07 12:00:31  5-MIN KDBQ 141800Z 30025G35KT 10SM CLR 09/M04 A2981 1180 38 800 300/25G35 RMK AO2 PK WND 30035/1800
94908KDBQ DBQ20071114120511811/14/07 12:05:31  5-MIN KDBQ 141805Z 30024G35KT 10SM CLR 09/M04 A2981 1180 38 800 300/24G35 RMK AO2 PK WND 30035/1800
94908KDBQ DBQ20071114121011811/14/07 12:10:31  5-MIN KDBQ 141810Z 30022G31KT 10SM CLR 09/M04 A2980 1190 37 800 300/22G31 RMK AO2 PK WND 30035/1800
94908KDBQ DBQ20071114121511811/14/07 12:15:31  5-MIN KDBQ 141815Z 30023G29KT 10SM CLR 09/M04 A2981 1180 38 800 300/23G29 RMK AO2 PK WND 30035/1800
94908KDBQ DBQ20071114122012111/14/07 12:20:31  5-MIN KDBQ 141820Z 30023G30KT 10SM FEW060 09/M04 A2981 1190 38 800 300/23G30 RMK AO2 PK WND 30035/1800
94908KDBQ DBQ20071114122512111/14/07 12:25:31  5-MIN KDBQ 141825Z 29024G31KT 10SM FEW060 09/M04 A2980 1190 37 800 290/24G31 RMK AO2 PK WND 30035/1800
94908KDBQ DBQ20071114123012111/14/07 12:30:31  5-MIN KDBQ 141830Z 29027G38KT 10SM FEW060 10/M04 A2980 1190 36 900 290/27G38 RMK AO2 PK WND 29038/1829
94908KDBQ DBQ20071114123512111/14/07 12:35:31  5-MIN KDBQ 141835Z 29027G38KT 10SM FEW060 09/M05 A2980 1190 35 800 290/27G38 RMK AO2 PK WND 29038/1829
94908KDBQ DBQ20071114124012111/14/07 12:40:31  5-MIN KDBQ 141840Z 28022G36KT 10SM SCT060 09/M04 A2980 1190 37 800 280/22G36 RMK AO2 PK WND 29038/1829
94908KDBQ DBQ20071114124512111/14/07 12:45:31  5-MIN KDBQ 141845Z 28021G33KT 10SM SCT060 10/M04 A2981 1180 36 900 280/21G33 RMK AO2 PK WND 29038/1829
94908KDBQ DBQ20071114125013811/14/07 12:50:31  5-MIN KDBQ 141850Z 30021G33KT 10SM BKN060 09/M04 A2981 1180 39 800 290/21G33 RMK AO2 PK WND 29038/1829 SLP098 T00941039
94908KDBQ DBQ20071114125512111/14/07 12:55:31  5-MIN KDBQ 141855Z 31019G29KT 10SM BKN055 09/M04 A2981 1180 38 800 310/19G29 RMK AO2 PK WND 31027/1854
94908KDBQ DBQ20071114130012111/14/07 13:00:31  5-MIN KDBQ 141900Z 31027G35KT 10SM BKN060 08/M04 A2981 1180 40 700 300/27G35 RMK AO2 PK WND 30035/1900
94908KDBQ DBQ20071114130512111/14/07 13:05:31  5-MIN KDBQ 141905Z 30020G35KT 10SM OVC060 08/M04 A2981 1180 40 700 300/20G35 RMK AO2 PK WND 30035/1900
94908KDBQ DBQ20071114131012111/14/07 13:10:31  5-MIN KDBQ 141910Z 30025G34KT 10SM OVC060 08/M04 A2981 1180 40 700 300/25G34 RMK AO2 PK WND 30035/1900
94908KDBQ DBQ20071114131512111/14/07 13:15:31  5-MIN KDBQ 141915Z 31026G34KT 10SM OVC060 08/M04 A2982 1170 40 700 310/26G34 RMK AO2 PK WND 30035/1900
94908KDBQ DBQ20071114132012111/14/07 13:20:31  5-MIN KDBQ 141920Z 29021G32KT 10SM OVC060 08/M04 A2982 1180 40 700 290/21G32 RMK AO2 PK WND 30035/1900
94908KDBQ DBQ20071114132512111/14/07 13:25:31  5-MIN KDBQ 141925Z 29026G35KT 10SM OVC060 08/M04 A2981 1180 40 700 290/26G35 RMK AO2 PK WND 30035/1924
94908KDBQ DBQ20071114133012111/14/07 13:30:31  5-MIN KDBQ 141930Z 29021G35KT 10SM OVC060 08/M05 A2982 1170 38 700 290/21G35 RMK AO2 PK WND 30035/1924
94908KDBQ DBQ20071114133512111/14/07 13:35:31  5-MIN KDBQ 141935Z 29025G32KT 10SM OVC060 08/M05 A2982 1170 38 700 290/25G32 RMK AO2 PK WND 30035/1924
94908KDBQ DBQ20071114134012111/14/07 13:40:31  5-MIN KDBQ 141940Z 29021G32KT 10SM OVC060 08/M04 A2982 1170 41 600 290/21G32 RMK AO2 PK WND 30035/1924
94908KDBQ DBQ20071114134512111/14/07 13:45:31  5-MIN KDBQ 141945Z 29022G33KT 10SM OVC060 08/M04 A2982 1170 41 600 290/22G33 RMK AO2 PK WND 30035/1924
94908KDBQ DBQ20071114135013811/14/07 13:50:31  5-MIN KDBQ 141950Z 29025G33KT 10SM OVC060 08/M04 A2982 1170 41 600 290/25G33 RMK AO2 PK WND 30035/1924 SLP102 T00781044
94908KDBQ DBQ20071114135512111/14/07 13:55:31  5-MIN KDBQ 141955Z 30021G32KT 10SM OVC060 08/M04 A2982 1170 41 600 300/21G32 RMK AO2 PK WND 31031/1955
94908KDBQ DBQ20071114140012111/14/07 14:00:31  5-MIN KDBQ 142000Z 30026G34KT 10SM OVC060 07/M04 A2983 1160 43 500 300/26G34 RMK AO2 PK WND 30034/1958
94908KDBQ DBQ20071114140512111/14/07 14:05:31  5-MIN KDBQ 142005Z 30019G34KT 10SM OVC055 07/M04 A2983 1160 43 500 300/19G34 RMK AO2 PK WND 30034/1958
94908KDBQ DBQ20071114141012111/14/07 14:10:31  5-MIN KDBQ 142010Z 29022G28KT 10SM OVC055 07/M04 A2983 1160 43 500 290/22G28 RMK AO2 PK WND 30034/1958
94908KDBQ DBQ20071114141512111/14/07 14:15:31  5-MIN KDBQ 142015Z 29024G31KT 10SM OVC055 07/M04 A2983 1160 43 500 290/24G31 RMK AO2 PK WND 30034/1958
94908KDBQ DBQ20071114142012111/14/07 14:20:31  5-MIN KDBQ 142020Z 29023G32KT 10SM OVC055 07/M04 A2983 1160 43 500 290/23G32 RMK AO2 PK WND 30034/1958
94908KDBQ DBQ20071114142512111/14/07 14:25:31  5-MIN KDBQ 142025Z 29022G32KT 10SM OVC055 07/M04 A2983 1160 43 500 290/22G32 RMK AO2 PK WND 30034/1958
94908KDBQ DBQ20071114143012111/14/07 14:30:31  5-MIN KDBQ 142030Z 30022G31KT 10SM OVC055 07/M04 A2983 1160 45 500 300/22G31 RMK AO2 PK WND 30034/1958
94908KDBQ DBQ20071114143512111/14/07 14:35:31  5-MIN KDBQ 142035Z 29018G31KT 10SM OVC055 07/M04 A2983 1160 43 500 290/18G31 RMK AO2 PK WND 30034/1958
94908KDBQ DBQ20071114144012111/14/07 14:40:31  5-MIN KDBQ 142040Z 29023G31KT 10SM OVC055 07/M04 A2983 1160 45 500 290/23G31 RMK AO2 PK WND 30034/1958
94908KDBQ DBQ20071114144512111/14/07 14:45:31  5-MIN KDBQ 142045Z 29023G29KT 10SM OVC055 07/M04 A2983 1160 43 500 290/23G29 RMK AO2 PK WND 30034/1958
94908KDBQ DBQ20071114145014411/14/07 14:50:31  5-MIN KDBQ 142050Z 29018G29KT 10SM OVC055 07/M04 A2983 1160 47 500 290/18G29 RMK AO2 PK WND 30034/1958 SLP107 T00671039 50007
94908KDBQ DBQ20071114145511311/14/07 14:55:31  5-MIN KDBQ 142055Z AUTO 29015G23KT 10SM OVC055 07/M04 A2983 1160 47 500 290/15G23 RMK AO2 TSNO
94908KDBQ DBQ20071114150013111/14/07 15:00:31  5-MIN KDBQ 142100Z AUTO 29020G28KT 10SM OVC055 07/M04 A2984 1160 47 500 290/20G28 RMK AO2 PK WND 29028/2059 TSNO
94908KDBQ DBQ20071114150513111/14/07 15:05:31  5-MIN KDBQ 142105Z AUTO 29020G28KT 10SM OVC055 07/M04 A2984 1160 47 500 290/20G28 RMK AO2 PK WND 29028/2059 TSNO
94908KDBQ DBQ20071114151013111/14/07 15:10:31  5-MIN KDBQ 142110Z AUTO 29015G26KT 10SM OVC055 07/M04 A2984 1160 47 500 290/15G26 RMK AO2 PK WND 29028/2059 TSNO
94908KDBQ DBQ20071114151513111/14/07 15:15:31  5-MIN KDBQ 142115Z AUTO 29019G26KT 10SM OVC055 07/M04 A2984 1150 47 500 280/19G26 RMK AO2 PK WND 29028/2059 TSNO
94908KDBQ DBQ20071114152013111/14/07 15:20:31  5-MIN KDBQ 142120Z AUTO 29016G26KT 10SM OVC055 07/M04 A2984 1150 47 500 290/16G26 RMK AO2 PK WND 29028/2059 TSNO
94908KDBQ DBQ20071114152513111/14/07 15:25:31  5-MIN KDBQ 142125Z AUTO 29017G25KT 10SM OVC055 07/M04 A2984 1150 47 500 290/17G25 RMK AO2 PK WND 29028/2059 TSNO
94908KDBQ DBQ20071114153013111/14/07 15:30:31  5-MIN KDBQ 142130Z AUTO 29018G25KT 10SM OVC055 07/M04 A2984 1150 47 500 290/18G25 RMK AO2 PK WND 29028/2059 TSNO
94908KDBQ DBQ20071114153513111/14/07 15:35:31  5-MIN KDBQ 142135Z AUTO 29021G29KT 10SM OVC055 07/M04 A2984 1150 47 500 290/21G29 RMK AO2 PK WND 29029/2134 TSNO
94908KDBQ DBQ20071114154013111/14/07 15:40:31  5-MIN KDBQ 142140Z AUTO 29019G29KT 10SM OVC055 07/M04 A2984 1150 47 500 290/19G29 RMK AO2 PK WND 29029/2134 TSNO
94908KDBQ DBQ20071114154513111/14/07 15:45:31  5-MIN KDBQ 142145Z AUTO 28026G34KT 10SM OVC050 06/M03 A2985 1140 51 400 280/26G34 RMK AO2 PK WND 30034/2143 TSNO
94908KDBQ DBQ20071114155014811/14/07 15:50:31  5-MIN KDBQ 142150Z AUTO 30019G34KT 10SM OVC050 06/M03 A2986 1140 53 400 300/19G34 RMK AO2 PK WND 30034/2143 SLP115 T00611028 TSNO
94908KDBQ DBQ20071114155510311/14/07 15:55:31  5-MIN KDBQ 142155Z 30020G29KT 10SM OVC055 06/M03 A2986 1130 51 400 300/20G29 RMK AO2
94908KDBQ DBQ20071114160010311/14/07 16:00:31  5-MIN KDBQ 142200Z 30018G29KT 10SM OVC055 06/M04 A2986 1130 48 400 300/18G29 RMK AO2
94908KDBQ DBQ20071114160512111/14/07 16:05:31  5-MIN KDBQ 142205Z 30022G31KT 10SM OVC055 06/M04 A2986 1130 48 300 300/22G31 RMK AO2 PK WND 30031/2204
94908KDBQ DBQ20071114161012811/14/07 16:10:31  5-MIN KDBQ 142210Z 31016G31KT 10SM FEW047 OVC060 06/M04 A2986 1130 48 300 300/16G31 RMK AO2 PK WND 30031/2204
94908KDBQ DBQ20071114161512111/14/07 16:15:31  5-MIN KDBQ 142215Z 31022G30KT 10SM OVC060 06/M05 A2987 1130 46 300 300/22G30 RMK AO2 PK WND 30031/2204
94908KDBQ DBQ20071114162012111/14/07 16:20:31  5-MIN KDBQ 142220Z 30021G30KT 10SM OVC060 06/M05 A2987 1130 46 300 300/21G30 RMK AO2 PK WND 30031/2204
94908KDBQ DBQ20071114162512111/14/07 16:25:31  5-MIN KDBQ 142225Z 31019G28KT 10SM OVC060 06/M05 A2987 1130 46 300 310/19G28 RMK AO2 PK WND 30031/2204
94908KDBQ DBQ20071114163012111/14/07 16:30:31  5-MIN KDBQ 142230Z 31016G28KT 10SM OVC060 06/M05 A2987 1130 46 300 300/16G28 RMK AO2 PK WND 30031/2204
94908KDBQ DBQ20071114163512111/14/07 16:35:31  5-MIN KDBQ 142235Z 30021G30KT 10SM OVC055 06/M05 A2987 1130 46 300 300/21G30 RMK AO2 PK WND 30031/2204
94908KDBQ DBQ20071114164012111/14/07 16:40:31  5-MIN KDBQ 142240Z 31018G30KT 10SM OVC055 06/M05 A2987 1120 46 300 310/18G30 RMK AO2 PK WND 30031/2204
94908KDBQ DBQ20071114164512111/14/07 16:45:31  5-MIN KDBQ 142245Z 31018G25KT 10SM OVC055 05/M05 A2987 1120 48 200 310/18G25 RMK AO2 PK WND 30031/2204
94908KDBQ DBQ20071114165013811/14/07 16:50:31  5-MIN KDBQ 142250Z 30016G25KT 10SM OVC055 05/M05 A2987 1120 48 200 300/16G25 RMK AO2 PK WND 30031/2204 SLP122 T00501050
94908KDBQ DBQ20071114165510311/14/07 16:55:31  5-MIN KDBQ 142255Z 30015G25KT 10SM OVC055 05/M05 A2987 1120 48 200 300/15G25 RMK AO2
94908KDBQ DBQ20071114170010311/14/07 17:00:31  5-MIN KDBQ 142300Z 30014G21KT 10SM OVC055 05/M04 A2988 1120 50 200 300/14G21 RMK AO2
94908KDBQ DBQ20071114170510311/14/07 17:05:31  5-MIN KDBQ 142305Z 30013G20KT 10SM OVC050 05/M04 A2988 1120 50 200 300/13G20 RMK AO2
94908KDBQ DBQ20071114171012111/14/07 17:10:31  5-MIN KDBQ 142310Z 30017G28KT 10SM OVC050 05/M04 A2988 1110 50 200 300/17G28 RMK AO2 PK WND 32028/2306
94908KDBQ DBQ20071114171512811/14/07 17:15:31  5-MIN KDBQ 142315Z 31020G28KT 10SM BKN047 OVC055 05/M05 A2988 1110 48 200 310/20G28 RMK AO2 PK WND 32028/2306
94908KDBQ DBQ20071114172012811/14/07 17:20:31  5-MIN KDBQ 142320Z 30017G27KT 10SM BKN045 OVC055 05/M05 A2989 1110 48 200 300/17G27 RMK AO2 PK WND 32028/2306
94908KDBQ DBQ20071114172512111/14/07 17:25:31  5-MIN KDBQ 142325Z 30020G33KT 10SM OVC045 05/M05 A2989 1110 48 200 300/20G33 RMK AO2 PK WND 30033/2323
94908KDBQ DBQ20071114173012111/14/07 17:30:31  5-MIN KDBQ 142330Z 30021G33KT 10SM OVC047 04/M04 A2989 1110 52 100 300/21G33 RMK AO2 PK WND 30033/2323
94908KDBQ DBQ20071114173512111/14/07 17:35:31  5-MIN KDBQ 142335Z 31021G32KT 10SM OVC047 04/M05 A2989 1100 50 100 300/21G32 RMK AO2 PK WND 30033/2323
94908KDBQ DBQ20071114174012111/14/07 17:40:31  5-MIN KDBQ 142340Z 30019G26KT 10SM OVC047 04/M05 A2989 1100 50 100 300/19G26 RMK AO2 PK WND 30033/2323
94908KDBQ DBQ20071114174512111/14/07 17:45:31  5-MIN KDBQ 142345Z 30019G29KT 10SM OVC049 04/M05 A2989 1100 50 100 300/19G29 RMK AO2 PK WND 30033/2323
94908KDBQ DBQ20071114175015611/14/07 17:50:31  5-MIN KDBQ 142350Z 30024G32KT 10SM OVC049 04/M05 A2990 1100 50 100 300/24G32 RMK AO2 PK WND 30033/2323 SLP131 T00441050 10100 20044 53007
94908KDBQ DBQ20071114175512111/14/07 17:55:31  5-MIN KDBQ 142355Z 30025G33KT 10SM OVC049 04/M06 A2990 1100 48 100 300/25G33 RMK AO2 PK WND 30033/2355
94908KDBQ DBQ20071114180012111/14/07 18:00:31  5-MIN KDBQ 150000Z 29026G37KT 10SM OVC049 04/M06 A2990 1100 48 100 290/26G37 RMK AO2 PK WND 29037/2356
94908KDBQ DBQ20071114180512111/14/07 18:05:31  5-MIN KDBQ 150005Z 29028G37KT 10SM OVC049 04/M06 A2990 1100 46 100 290/28G37 RMK AO2 PK WND 29037/0004
94908KDBQ DBQ20071114181012111/14/07 18:10:31  5-MIN KDBQ 150010Z 29016G37KT 10SM OVC049 04/M06 A2990 1100 46 100 290/16G37 RMK AO2 PK WND 29037/0004
94908KDBQ DBQ20071114181512111/14/07 18:15:31  5-MIN KDBQ 150015Z 30022G33KT 10SM OVC049 04/M06 A2990 1100 46 100 300/22G33 RMK AO2 PK WND 29037/0004
94908KDBQ DBQ20071114182012111/14/07 18:20:31  5-MIN KDBQ 150020Z 30024G33KT 10SM OVC049 04/M06 A2990 1090 46 100 300/24G33 RMK AO2 PK WND 29037/0004
94908KDBQ DBQ20071114182512111/14/07 18:25:31  5-MIN KDBQ 150025Z 30020G32KT 10SM OVC049 04/M06 A2990 1100 46 100 300/20G32 RMK AO2 PK WND 29037/0004
94908KDBQ DBQ20071114183012111/14/07 18:30:31  5-MIN KDBQ 150030Z 29020G32KT 10SM OVC049 04/M06 A2990 1100 46 100 290/20G32 RMK AO2 PK WND 29037/0004
94908KDBQ DBQ20071114183512111/14/07 18:35:31  5-MIN KDBQ 150035Z 29020G31KT 10SM OVC047 04/M06 A2990 1100 50 100 290/20G31 RMK AO2 PK WND 29037/0004
94908KDBQ DBQ20071114184012111/14/07 18:40:31  5-MIN KDBQ 150040Z 29018G28KT 10SM OVC047 04/M06 A2990 1100 50 100 290/18G28 RMK AO2 PK WND 29037/0004
94908KDBQ DBQ20071114184511911/14/07 18:45:31  5-MIN KDBQ 150045Z 29023G28KT 10SM OVC047 04/M06 A2991 1090 50 0 290/23G28 RMK AO2 PK WND 29037/0004
94908KDBQ DBQ20071114185013611/14/07 18:50:31  5-MIN KDBQ 150050Z 30018G28KT 10SM OVC045 04/M06 A2991 1090 50 0 300/18G28 RMK AO2 PK WND 29037/0004 SLP136 T00391056
94908KDBQ DBQ20071114185510111/14/07 18:55:31  5-MIN KDBQ 150055Z 30017G29KT 10SM OVC045 04/M06 A2991 1090 50 0 300/17G29 RMK AO2
94908KDBQ DBQ20071114190010111/14/07 19:00:31  5-MIN KDBQ 150100Z 30018G29KT 10SM OVC045 04/M06 A2991 1090 50 0 300/18G29 RMK AO2
94908KDBQ DBQ20071114190510111/14/07 19:05:31  5-MIN KDBQ 150105Z 30019G24KT 10SM OVC045 04/M06 A2991 1090 50 0 300/19G24 RMK AO2
94908KDBQ DBQ20071114191011911/14/07 19:10:31  5-MIN KDBQ 150110Z 30026G32KT 10SM OVC047 04/M06 A2991 1090 50 0 300/26G32 RMK AO2 PK WND 31032/0109
94908KDBQ DBQ20071114191511911/14/07 19:15:31  5-MIN KDBQ 150115Z 30025G32KT 10SM OVC049 04/M06 A2991 1090 48 0 300/25G32 RMK AO2 PK WND 30032/0111
94908KDBQ DBQ20071114192011911/14/07 19:20:31  5-MIN KDBQ 150120Z 31023G32KT 10SM OVC049 04/M06 A2991 1090 48 0 300/23G32 RMK AO2 PK WND 30032/0111
94908KDBQ DBQ20071114192511911/14/07 19:25:31  5-MIN KDBQ 150125Z 31023G32KT 10SM OVC049 03/M06 A2991 1090 50 0 310/23G32 RMK AO2 PK WND 31032/0124
94908KDBQ DBQ20071114193011911/14/07 19:30:31  5-MIN KDBQ 150130Z 31020G32KT 10SM OVC049 03/M06 A2991 1090 50 0 310/20G32 RMK AO2 PK WND 31032/0124
94908KDBQ DBQ20071114193511911/14/07 19:35:31  5-MIN KDBQ 150135Z 31020G29KT 10SM OVC049 03/M06 A2991 1080 50 0 310/20G29 RMK AO2 PK WND 31032/0124
94908KDBQ DBQ20071114194011911/14/07 19:40:31  5-MIN KDBQ 150140Z 31019G28KT 10SM OVC049 03/M06 A2991 1080 50 0 310/19G28 RMK AO2 PK WND 31032/0124
94908KDBQ DBQ20071114194511911/14/07 19:45:31  5-MIN KDBQ 150145Z 30019G28KT 10SM OVC049 03/M06 A2991 1080 50 0 300/19G28 RMK AO2 PK WND 31032/0124
94908KDBQ DBQ20071114195014111/14/07 19:50:31  5-MIN KDBQ 150150Z AUTO 30022G28KT 10SM OVC049 03/M06 A2992 1080 50 0 300/22G28 RMK AO2 PK WND 31032/0124 SLP139 T00331061
94908KDBQ DBQ20071114195510611/14/07 19:55:31  5-MIN KDBQ 150155Z AUTO 30016G26KT 10SM OVC049 03/M06 A2992 1080 50 0 300/16G26 RMK AO2
94908KDBQ DBQ20071114200012411/14/07 20:00:31  5-MIN KDBQ 150200Z AUTO 30020G28KT 10SM OVC049 03/M06 A2992 1080 50 0 300/20G28 RMK AO2 PK WND 30028/0157
94908KDBQ DBQ20071114200512411/14/07 20:05:31  5-MIN KDBQ 150205Z AUTO 31018G30KT 10SM OVC049 03/M06 A2992 1080 50 0 310/18G30 RMK AO2 PK WND 29030/0202
94908KDBQ DBQ20071114201012411/14/07 20:10:31  5-MIN KDBQ 150210Z AUTO 30015G30KT 10SM OVC049 03/M06 A2992 1080 50 0 300/15G30 RMK AO2 PK WND 29030/0202
94908KDBQ DBQ20071114201512411/14/07 20:15:31  5-MIN KDBQ 150215Z AUTO 31018G28KT 10SM OVC049 03/M06 A2992 1080 50 0 310/18G28 RMK AO2 PK WND 29030/0202
94908KDBQ DBQ20071114202012411/14/07 20:20:31  5-MIN KDBQ 150220Z AUTO 30022G28KT 10SM OVC049 03/M06 A2992 1070 50 0 300/22G28 RMK AO2 PK WND 29030/0202
94908KDBQ DBQ20071114202512711/14/07 20:25:31  5-MIN KDBQ 150225Z AUTO 31015G28KT 10SM OVC049 03/M06 A2993 1070 52 -100 310/15G28 RMK AO2 PK WND 29030/0202
94908KDBQ DBQ20071114203012711/14/07 20:30:31  5-MIN KDBQ 150230Z AUTO 31018G25KT 10SM OVC049 03/M06 A2993 1070 52 -100 310/18G25 RMK AO2 PK WND 29030/0202
94908KDBQ DBQ20071114203512711/14/07 20:35:31  5-MIN KDBQ 150235Z AUTO 31017G28KT 10SM OVC049 03/M06 A2993 1070 52 -100 310/17G28 RMK AO2 PK WND 29030/0202
94908KDBQ DBQ20071114204012711/14/07 20:40:31  5-MIN KDBQ 150240Z AUTO 31015G28KT 10SM OVC049 03/M06 A2993 1070 52 -100 310/15G28 RMK AO2 PK WND 29030/0202
94908KDBQ DBQ20071114204512711/14/07 20:45:31  5-MIN KDBQ 150245Z AUTO 31017G25KT 10SM OVC047 03/M06 A2993 1070 52 -100 310/17G25 RMK AO2 PK WND 29030/0202
94908KDBQ DBQ20071114205015011/14/07 20:50:31  5-MIN KDBQ 150250Z AUTO 31017G26KT 10SM OVC047 03/M06 A2993 1070 52 -100 310/17G26 RMK AO2 PK WND 29030/0202 SLP144 T00281061 53021
94908KDBQ DBQ20071114205511611/14/07 20:55:31  5-MIN KDBQ 150255Z AUTO 31019G27KT 10SM BKN047 OVC070 03/M06 A2993 1070 52 -100 310/19G27 RMK AO2
94908KDBQ DBQ20071114210012311/14/07 21:00:31  5-MIN KDBQ 150300Z AUTO 31015G27KT 10SM SCT045 BKN055 OVC070 03/M06 A2994 1060 52 -100 310/15G27 RMK AO2
94908KDBQ DBQ20071114210512311/14/07 21:05:31  5-MIN KDBQ 150305Z AUTO 32019G24KT 10SM BKN047 BKN055 OVC070 03/M06 A2994 1060 52 -100 320/19G24 RMK AO2
94908KDBQ DBQ20071114211014111/14/07 21:10:31  5-MIN KDBQ 150310Z AUTO 31021G27KT 10SM SCT044 BKN055 OVC070 03/M06 A2994 1060 52 -100 300/21G27 RMK AO2 PK WND 30027/0310
94908KDBQ DBQ20071114211513411/14/07 21:15:31  5-MIN KDBQ 150315Z AUTO 31019G27KT 10SM BKN050 OVC070 03/M06 A2994 1060 52 -100 310/19G27 RMK AO2 PK WND 30027/0315
94908KDBQ DBQ20071114212014111/14/07 21:20:31  5-MIN KDBQ 150320Z AUTO 32018G27KT 10SM FEW043 BKN055 OVC070 03/M06 A2994 1060 52 -100 310/18G27 RMK AO2 PK WND 30027/0315
94908KDBQ DBQ20071114212513411/14/07 21:25:31  5-MIN KDBQ 150325Z AUTO 32015G23KT 10SM FEW043 OVC055 03/M06 A2995 1060 54 -100 310/15G23 RMK AO2 PK WND 30027/0315
94908KDBQ DBQ20071114213013411/14/07 21:30:31  5-MIN KDBQ 150330Z AUTO 32016G21KT 10SM FEW043 OVC055 03/M06 A2995 1050 54 -100 310/16G21 RMK AO2 PK WND 30027/0315
94908KDBQ DBQ20071114213512711/14/07 21:35:31  5-MIN KDBQ 150335Z AUTO 31015G21KT 10SM OVC055 03/M06 A2995 1050 52 -100 310/15G21 RMK AO2 PK WND 30027/0315
94908KDBQ DBQ20071114214012711/14/07 21:40:31  5-MIN KDBQ 150340Z AUTO 32016G22KT 10SM OVC055 02/M06 A2995 1050 54 -200 320/16G22 RMK AO2 PK WND 30027/0315
94908KDBQ DBQ20071114214512111/14/07 21:45:31  5-MIN KDBQ 150345Z AUTO 31015KT 10SM OVC055 02/M06 A2995 1050 54 -200 310/15 RMK AO2 PK WND 30027/0315
94908KDBQ DBQ20071114215014411/14/07 21:50:31  5-MIN KDBQ 150350Z AUTO 31013G24KT 10SM OVC055 02/M06 A2995 1050 54 -200 310/13G24 RMK AO2 PK WND 30027/0315 SLP149 T00221061
94908KDBQ DBQ20071114215510911/14/07 21:55:31  5-MIN KDBQ 150355Z AUTO 31015G24KT 10SM OVC055 02/M06 A2995 1050 54 -200 310/15G24 RMK AO2
94908KDBQ DBQ20071114220010911/14/07 22:00:31  5-MIN KDBQ 150400Z AUTO 31016G22KT 10SM OVC060 02/M06 A2995 1050 54 -200 310/16G22 RMK AO2
94908KDBQ DBQ20071114220510911/14/07 22:05:31  5-MIN KDBQ 150405Z AUTO 32013G23KT 10SM OVC060 02/M06 A2995 1050 54 -200 310/13G23 RMK AO2
94908KDBQ DBQ20071114221010911/14/07 22:10:31  5-MIN KDBQ 150410Z AUTO 32011G23KT 10SM OVC060 02/M06 A2996 1050 54 -200 310/11G23 RMK AO2
94908KDBQ DBQ20071114221510911/14/07 22:15:31  5-MIN KDBQ 150415Z AUTO 31014G19KT 10SM OVC060 02/M06 A2996 1040 54 -200 310/14G19 RMK AO2
94908KDBQ DBQ20071114222010911/14/07 22:20:31  5-MIN KDBQ 150420Z AUTO 31014G21KT 10SM OVC060 02/M06 A2996 1040 54 -200 310/14G21 RMK AO2
94908KDBQ DBQ20071114222510911/14/07 22:25:31  5-MIN KDBQ 150425Z AUTO 31015G21KT 10SM OVC060 02/M06 A2996 1040 56 -200 310/15G21 RMK AO2
94908KDBQ DBQ20071114223010911/14/07 22:30:31  5-MIN KDBQ 150430Z AUTO 32015G23KT 10SM OVC060 02/M06 A2996 1040 56 -200 320/15G23 RMK AO2
94908KDBQ DBQ20071114223512711/14/07 22:35:31  5-MIN KDBQ 150435Z AUTO 31018G26KT 10SM OVC060 02/M06 A2996 1040 56 -200 310/18G26 RMK AO2 PK WND 31026/0432
94908KDBQ DBQ20071114224012711/14/07 22:40:31  5-MIN KDBQ 150440Z AUTO 32016G26KT 10SM OVC060 02/M06 A2996 1040 56 -200 320/16G26 RMK AO2 PK WND 31026/0432
94908KDBQ DBQ20071114224512711/14/07 22:45:31  5-MIN KDBQ 150445Z AUTO 32016G25KT 10SM OVC060 02/M06 A2996 1040 56 -200 320/16G25 RMK AO2 PK WND 31026/0432
94908KDBQ DBQ20071114225014411/14/07 22:50:31  5-MIN KDBQ 150450Z AUTO 32018G25KT 10SM OVC060 02/M06 A2996 1040 56 -200 320/18G25 RMK AO2 PK WND 31026/0432 SLP153 T00221056
94908KDBQ DBQ20071114225510911/14/07 22:55:31  5-MIN KDBQ 150455Z AUTO 31013G24KT 10SM OVC060 02/M06 A2996 1040 56 -200 310/13G24 RMK AO2
94908KDBQ DBQ20071114230010911/14/07 23:00:31  5-MIN KDBQ 150500Z AUTO 32018G23KT 10SM OVC055 02/M06 A2996 1040 56 -200 320/18G23 RMK AO2
94908KDBQ DBQ20071114230510911/14/07 23:05:31  5-MIN KDBQ 150505Z AUTO 32018G23KT 10SM OVC055 02/M06 A2997 1040 56 -200 320/18G23 RMK AO2
94908KDBQ DBQ20071114231012711/14/07 23:10:31  5-MIN KDBQ 150510Z AUTO 31021G28KT 10SM OVC055 02/M06 A2997 1030 56 -200 310/21G28 RMK AO2 PK WND 31028/0508
94908KDBQ DBQ20071114231512711/14/07 23:15:31  5-MIN KDBQ 150515Z AUTO 31015G28KT 10SM OVC060 02/M06 A2997 1030 56 -200 310/15G28 RMK AO2 PK WND 31028/0508
94908KDBQ DBQ20071114232012111/14/07 23:20:31  5-MIN KDBQ 150520Z AUTO 32017KT 10SM OVC060 02/M06 A2997 1030 56 -200 310/17 RMK AO2 PK WND 31028/0508
94908KDBQ DBQ20071114232512711/14/07 23:25:31  5-MIN KDBQ 150525Z AUTO 31012G22KT 10SM OVC055 02/M06 A2997 1030 56 -200 310/12G22 RMK AO2 PK WND 31028/0508
94908KDBQ DBQ20071114233012711/14/07 23:30:31  5-MIN KDBQ 150530Z AUTO 31016G24KT 10SM OVC060 02/M06 A2997 1030 56 -200 310/16G24 RMK AO2 PK WND 31028/0508
94908KDBQ DBQ20071114233512711/14/07 23:35:31  5-MIN KDBQ 150535Z AUTO 32017G25KT 10SM OVC060 02/M06 A2998 1030 56 -200 310/17G25 RMK AO2 PK WND 31028/0508
94908KDBQ DBQ20071114234012711/14/07 23:40:31  5-MIN KDBQ 150540Z AUTO 31012G25KT 10SM OVC060 02/M06 A2998 1030 56 -200 310/12G25 RMK AO2 PK WND 31028/0508
94908KDBQ DBQ20071114234512711/14/07 23:45:31  5-MIN KDBQ 150545Z AUTO 31019G26KT 10SM OVC060 02/M06 A2998 1030 56 -200 310/19G26 RMK AO2 PK WND 31028/0508
94908KDBQ DBQ20071114235017211/14/07 23:50:31  5-MIN KDBQ 150550Z AUTO 32017G26KT 10SM OVC060 02/M06 A2998 1020 56 -200 320/17G26 RMK AO2 PK WND 31028/0508 SLP158 T00221056 10044 20022 401000022 53012
94908KDBQ DBQ20071114235510911/14/07 23:55:31  5-MIN KDBQ 150555Z AUTO 32016G24KT 10SM OVC060 02/M06 A2998 1020 56 -200 320/16G24 RMK AO2
94908KDBQ DBQ20071115000010311/15/07 00:00:38  5-MIN KDBQ 150600Z AUTO 31013KT 10SM OVC060 02/M06 A2998 1020 56 -200 310/13 RMK AO2
94908KDBQ DBQ20071115000510911/15/07 00:05:31  5-MIN KDBQ 150605Z AUTO 32019G24KT 10SM OVC060 02/M06 A2998 1020 56 -200 320/19G24 RMK AO2
94908KDBQ DBQ20071115001010911/15/07 00:10:31  5-MIN KDBQ 150610Z AUTO 32015G24KT 10SM OVC060 02/M06 A2998 1020 56 -200 320/15G24 RMK AO2
94908KDBQ DBQ20071115001510911/15/07 00:15:32  5-MIN KDBQ 150615Z AUTO 33018G23KT 10SM OVC060 02/M06 A2999 1020 56 -200 320/18G23 RMK AO2
94908KDBQ DBQ20071115002010911/15/07 00:20:31  5-MIN KDBQ 150620Z AUTO 32017G23KT 10SM OVC060 02/M05 A2999 1010 59 -200 320/17G23 RMK AO2
94908KDBQ DBQ20071115002512711/15/07 00:25:31  5-MIN KDBQ 150625Z AUTO 32016G27KT 10SM OVC060 02/M06 A2999 1020 56 -200 320/16G27 RMK AO2 PK WND 33027/0623
94908KDBQ DBQ20071115003012711/15/07 00:30:31  5-MIN KDBQ 150630Z AUTO 32011G27KT 10SM OVC060 02/M06 A2999 1020 56 -200 310/11G27 RMK AO2 PK WND 33027/0623
94908KDBQ DBQ20071115003512711/15/07 00:35:31  5-MIN KDBQ 150635Z AUTO 31016G22KT 10SM OVC060 02/M06 A2999 1020 56 -200 310/16G22 RMK AO2 PK WND 33027/0623
94908KDBQ DBQ20071115004012711/15/07 00:40:31  5-MIN KDBQ 150640Z AUTO 31012G22KT 10SM OVC060 02/M05 A2999 1010 59 -200 310/12G22 RMK AO2 PK WND 33027/0623
94908KDBQ DBQ20071115004512711/15/07 00:45:31  5-MIN KDBQ 150645Z AUTO 31019G23KT 10SM OVC060 02/M06 A2999 1010 56 -200 310/19G23 RMK AO2 PK WND 33027/0623
94908KDBQ DBQ20071115005014411/15/07 00:50:31  5-MIN KDBQ 150650Z AUTO 32016G23KT 10SM OVC060 02/M06 A2999 1010 56 -200 320/16G23 RMK AO2 PK WND 33027/0623 SLP163 T00221056
94908KDBQ DBQ20071115005510911/15/07 00:55:31  5-MIN KDBQ 150655Z AUTO 32019G24KT 10SM OVC060 02/M06 A2999 1010 56 -200 320/19G24 RMK AO2
94908KDBQ DBQ20071115010010911/15/07 01:00:31  5-MIN KDBQ 150700Z AUTO 31017G25KT 10SM OVC060 02/M06 A2999 1010 56 -200 310/17G25 RMK AO2
94908KDBQ DBQ20071115010512711/15/07 01:05:31  5-MIN KDBQ 150705Z AUTO 31015G26KT 10SM OVC060 02/M06 A2999 1010 56 -200 310/15G26 RMK AO2 PK WND 31026/0701
94908KDBQ DBQ20071115011012711/15/07 01:10:31  5-MIN KDBQ 150710Z AUTO 31017G26KT 10SM OVC060 02/M06 A2999 1010 59 -300 310/17G26 RMK AO2 PK WND 31026/0701
94908KDBQ DBQ20071115011512711/15/07 01:15:31  5-MIN KDBQ 150715Z AUTO 31018G23KT 10SM OVC055 02/M06 A2999 1010 59 -300 310/18G23 RMK AO2 PK WND 31026/0701
94908KDBQ DBQ20071115012012711/15/07 01:20:31  5-MIN KDBQ 150720Z AUTO 32018G23KT 10SM OVC055 02/M06 A2999 1010 59 -300 310/18G23 RMK AO2 PK WND 31026/0701
94908KDBQ DBQ20071115012512711/15/07 01:25:31  5-MIN KDBQ 150725Z AUTO 31016G24KT 10SM OVC060 02/M06 A2999 1010 59 -300 310/16G24 RMK AO2 PK WND 31026/0701
94908KDBQ DBQ20071115013012711/15/07 01:30:31  5-MIN KDBQ 150730Z AUTO 32015G24KT 10SM OVC055 02/M06 A3000 1010 59 -300 320/15G24 RMK AO2 PK WND 31026/0701
94908KDBQ DBQ20071115013512711/15/07 01:35:31  5-MIN KDBQ 150735Z AUTO 31018G24KT 10SM OVC055 02/M06 A3000 1010 59 -300 310/18G24 RMK AO2 PK WND 31026/0701
94908KDBQ DBQ20071115014012711/15/07 01:40:31  5-MIN KDBQ 150740Z AUTO 32014G24KT 10SM OVC055 02/M06 A3000 1010 59 -300 320/14G24 RMK AO2 PK WND 31026/0701
94908KDBQ DBQ20071115014512711/15/07 01:45:31  5-MIN KDBQ 150745Z AUTO 32014G22KT 10SM OVC055 02/M06 A3000 1000 59 -300 320/14G22 RMK AO2 PK WND 31026/0701
94908KDBQ DBQ20071115015014411/15/07 01:50:31  5-MIN KDBQ 150750Z AUTO 31015G22KT 10SM OVC055 02/M06 A3000 1000 59 -300 310/15G22 RMK AO2 PK WND 31026/0701 SLP168 T00171056
94908KDBQ DBQ20071115015510911/15/07 01:55:31  5-MIN KDBQ 150755Z AUTO 31017G22KT 10SM OVC055 02/M06 A3000 1000 59 -300 310/17G22 RMK AO2
94908KDBQ DBQ20071115020010911/15/07 02:00:31  5-MIN KDBQ 150800Z AUTO 32019G23KT 10SM OVC050 02/M06 A3001 1000 56 -300 320/19G23 RMK AO2
94908KDBQ DBQ20071115020510911/15/07 02:05:31  5-MIN KDBQ 150805Z AUTO 32017G23KT 10SM OVC050 02/M06 A3001 1000 59 -300 320/17G23 RMK AO2
94908KDBQ DBQ20071115021013411/15/07 02:10:31  5-MIN KDBQ 150810Z AUTO 32017G27KT 10SM BKN047 OVC055 02/M06 A3001 1000 56 -300 320/17G27 RMK AO2 PK WND 32027/0807
94908KDBQ DBQ20071115021513411/15/07 02:15:31  5-MIN KDBQ 150815Z AUTO 32017G27KT 10SM BKN045 OVC055 02/M06 A3001 1000 56 -300 320/17G27 RMK AO2 PK WND 32027/0807
94908KDBQ DBQ20071115022013311/15/07 02:20:31  5-MIN KDBQ 150820Z AUTO 33017G24KT 10SM BKN042 OVC050 02/M06 A3001 990 56 -300 320/17G24 RMK AO2 PK WND 32027/0807
94908KDBQ DBQ20071115022513411/15/07 02:25:31  5-MIN KDBQ 150825Z AUTO 32013G22KT 10SM BKN040 OVC050 02/M06 A3001 1000 56 -300 320/13G22 RMK AO2 PK WND 32027/0807
94908KDBQ DBQ20071115023012111/15/07 02:30:31  5-MIN KDBQ 150830Z AUTO 32016KT 10SM OVC040 02/M06 A3001 1000 56 -300 320/16 RMK AO2 PK WND 32027/0807
94908KDBQ DBQ20071115023512611/15/07 02:35:31  5-MIN KDBQ 150835Z AUTO 32017G23KT 10SM OVC038 02/M06 A3001 990 56 -300 320/17G23 RMK AO2 PK WND 32027/0807
94908KDBQ DBQ20071115024012611/15/07 02:40:31  5-MIN KDBQ 150840Z AUTO 31011G23KT 10SM OVC038 02/M06 A3002 990 56 -300 310/11G23 RMK AO2 PK WND 32027/0807
94908KDBQ DBQ20071115024512611/15/07 02:45:31  5-MIN KDBQ 150845Z AUTO 31014G19KT 10SM OVC038 02/M06 A3002 990 56 -300 310/14G19 RMK AO2 PK WND 32027/0807
94908KDBQ DBQ20071115025014911/15/07 02:50:31  5-MIN KDBQ 150850Z AUTO 31011G20KT 10SM OVC038 02/M07 A3002 990 54 -300 310/11G20 RMK AO2 PK WND 32027/0807 SLP174 T00171067 53015
94908KDBQ DBQ20071115025510811/15/07 02:55:31  5-MIN KDBQ 150855Z AUTO 32012G20KT 10SM OVC038 02/M07 A3002 990 54 -300 320/12G20 RMK AO2
94908KDBQ DBQ20071115030010211/15/07 03:00:31  5-MIN KDBQ 150900Z AUTO 32015KT 10SM OVC038 02/M07 A3002 990 54 -300 320/15 RMK AO2
94908KDBQ DBQ20071115030510211/15/07 03:05:31  5-MIN KDBQ 150905Z AUTO 31012KT 10SM OVC038 02/M07 A3002 990 54 -300 310/12 RMK AO2
94908KDBQ DBQ20071115031010211/15/07 03:10:31  5-MIN KDBQ 150910Z AUTO 31014KT 10SM OVC038 01/M07 A3002 980 56 -400 310/14 RMK AO2
94908KDBQ DBQ20071115031510811/15/07 03:15:31  5-MIN KDBQ 150915Z AUTO 31017G21KT 10SM OVC038 01/M07 A3002 980 56 -400 310/17G21 RMK AO2
94908KDBQ DBQ20071115032010811/15/07 03:20:31  5-MIN KDBQ 150920Z AUTO 31014G21KT 10SM OVC038 01/M07 A3002 980 56 -400 310/14G21 RMK AO2
94908KDBQ DBQ20071115032510211/15/07 03:25:31  5-MIN KDBQ 150925Z AUTO 32015KT 10SM OVC038 01/M07 A3002 980 56 -400 320/15 RMK AO2
94908KDBQ DBQ20071115033010211/15/07 03:30:31  5-MIN KDBQ 150930Z AUTO 32012KT 10SM OVC038 01/M07 A3002 980 56 -400 310/12 RMK AO2
94908KDBQ DBQ20071115033510811/15/07 03:35:31  5-MIN KDBQ 150935Z AUTO 32016G22KT 10SM OVC038 01/M07 A3002 980 56 -400 320/16G22 RMK AO2
94908KDBQ DBQ20071115034010811/15/07 03:40:31  5-MIN KDBQ 150940Z AUTO 32017G22KT 10SM OVC038 01/M07 A3002 980 56 -400 310/17G22 RMK AO2
94908KDBQ DBQ20071115034510811/15/07 03:45:31  5-MIN KDBQ 150945Z AUTO 32013G22KT 10SM OVC038 01/M07 A3002 980 54 -400 320/13G22 RMK AO2
94908KDBQ DBQ20071115035012511/15/07 03:50:31  5-MIN KDBQ 150950Z AUTO 32014G22KT 10SM OVC038 01/M07 A3002 980 54 -400 320/14G22 RMK AO2 SLP175 T00111072
94908KDBQ DBQ20071115035510811/15/07 03:55:31  5-MIN KDBQ 150955Z AUTO 31013G22KT 10SM OVC038 01/M07 A3002 990 56 -400 310/13G22 RMK AO2
94908KDBQ DBQ20071115040010811/15/07 04:00:31  5-MIN KDBQ 151000Z AUTO 32015G21KT 10SM OVC038 01/M07 A3002 980 56 -400 320/15G21 RMK AO2
94908KDBQ DBQ20071115040510811/15/07 04:05:31  5-MIN KDBQ 151005Z AUTO 32017G21KT 10SM OVC038 01/M07 A3002 980 54 -400 320/17G21 RMK AO2
94908KDBQ DBQ20071115041010211/15/07 04:10:31  5-MIN KDBQ 151010Z AUTO 32018KT 10SM OVC038 01/M07 A3003 980 54 -400 310/18 RMK AO2
94908KDBQ DBQ20071115041510811/15/07 04:15:31  5-MIN KDBQ 151015Z AUTO 32017G22KT 10SM OVC038 01/M07 A3003 980 56 -400 320/17G22 RMK AO2
94908KDBQ DBQ20071115042010811/15/07 04:20:31  5-MIN KDBQ 151020Z AUTO 31016G22KT 10SM OVC038 01/M07 A3003 980 56 -400 310/16G22 RMK AO2
94908KDBQ DBQ20071115042510211/15/07 04:25:31  5-MIN KDBQ 151025Z AUTO 33014KT 10SM OVC038 01/M07 A3003 980 56 -400 330/14 RMK AO2
94908KDBQ DBQ20071115043010811/15/07 04:30:31  5-MIN KDBQ 151030Z AUTO 32013G20KT 10SM OVC038 01/M07 A3003 970 56 -400 320/13G20 RMK AO2
94908KDBQ DBQ20071115043510811/15/07 04:35:31  5-MIN KDBQ 151035Z AUTO 32016G22KT 10SM OVC038 01/M07 A3004 970 56 -400 310/16G22 RMK AO2
94908KDBQ DBQ20071115044010811/15/07 04:40:31  5-MIN KDBQ 151040Z AUTO 31015G22KT 10SM OVC038 01/M07 A3004 970 56 -400 310/15G22 RMK AO2
94908KDBQ DBQ20071115044510811/15/07 04:45:31  5-MIN KDBQ 151045Z AUTO 31018G22KT 10SM OVC038 01/M07 A3004 970 56 -400 310/18G22 RMK AO2
94908KDBQ DBQ20071115045012511/15/07 04:50:31  5-MIN KDBQ 151050Z AUTO 31016G22KT 10SM OVC038 01/M07 A3004 970 56 -400 310/16G22 RMK AO2 SLP181 T00111067
94908KDBQ DBQ20071115045510811/15/07 04:55:31  5-MIN KDBQ 151055Z AUTO 31013G22KT 10SM OVC038 01/M07 A3004 970 56 -400 310/13G22 RMK AO2
94908KDBQ DBQ20071115050010811/15/07 05:00:31  5-MIN KDBQ 151100Z AUTO 31014G22KT 10SM OVC038 01/M07 A3004 970 54 -400 310/14G22 RMK AO2
94908KDBQ DBQ20071115050510211/15/07 05:05:31  5-MIN KDBQ 151105Z AUTO 31015KT 10SM OVC038 01/M07 A3004 970 54 -400 310/15 RMK AO2
94908KDBQ DBQ20071115051010811/15/07 05:10:31  5-MIN KDBQ 151110Z AUTO 31015G21KT 10SM OVC038 01/M07 A3004 960 54 -400 310/15G21 RMK AO2
94908KDBQ DBQ20071115051510811/15/07 05:15:31  5-MIN KDBQ 151115Z AUTO 32015G21KT 10SM OVC038 01/M07 A3005 960 54 -400 310/15G21 RMK AO2
94908KDBQ DBQ20071115052010211/15/07 05:20:31  5-MIN KDBQ 151120Z AUTO 31015KT 10SM OVC036 01/M07 A3005 960 56 -500 310/15 RMK AO2
94908KDBQ DBQ20071115052510811/15/07 05:25:31  5-MIN KDBQ 151125Z AUTO 32017G22KT 10SM OVC036 01/M07 A3005 960 56 -500 310/17G22 RMK AO2
94908KDBQ DBQ20071115053010811/15/07 05:30:31  5-MIN KDBQ 151130Z AUTO 32014G22KT 10SM OVC036 01/M07 A3005 950 56 -500 320/14G22 RMK AO2
94908KDBQ DBQ20071115053510211/15/07 05:35:31  5-MIN KDBQ 151135Z AUTO 32015KT 10SM OVC036 01/M07 A3006 950 56 -500 320/15 RMK AO2
94908KDBQ DBQ20071115054010211/15/07 05:40:31  5-MIN KDBQ 151140Z AUTO 32015KT 10SM OVC036 01/M07 A3006 950 56 -500 320/15 RMK AO2
94908KDBQ DBQ20071115054510211/15/07 05:45:31  5-MIN KDBQ 151145Z AUTO 32016KT 10SM OVC036 01/M07 A3005 950 56 -500 320/16 RMK AO2
94908KDBQ DBQ20071115055014311/15/07 05:50:31  5-MIN KDBQ 151150Z AUTO 32016G20KT 10SM OVC036 01/M07 A3006 950 56 -500 320/16G20 RMK AO2 SLP188 T00061072 10022 20006 53013
94908KDBQ DBQ20071115055510311/15/07 05:55:31  5-MIN KDBQ 151155Z 32013G20KT 10SM OVC036 01/M07 A3006 950 56 -500 320/13G20 RMK AO2
94908KDBQ DBQ20071115060010311/15/07 06:00:31  5-MIN KDBQ 151200Z 33016G20KT 10SM OVC036 01/M07 A3006 950 56 -500 330/16G20 RMK AO2
94908KDBQ DBQ20071115060510311/15/07 06:05:31  5-MIN KDBQ 151205Z 32011G20KT 10SM OVC036 01/M07 A3006 950 56 -500 320/11G20 RMK AO2
94908KDBQ DBQ20071115061009711/15/07 06:10:31  5-MIN KDBQ 151210Z 32013KT 10SM OVC036 01/M07 A3006 950 56 -500 320/13 RMK AO2
94908KDBQ DBQ20071115061510311/15/07 06:15:31  5-MIN KDBQ 151215Z 31012G20KT 10SM OVC036 01/M07 A3006 950 56 -500 310/12G20 RMK AO2
94908KDBQ DBQ20071115062010311/15/07 06:20:31  5-MIN KDBQ 151220Z 31016G21KT 10SM OVC036 01/M07 A3007 940 56 -500 300/16G21 RMK AO2
94908KDBQ DBQ20071115062510311/15/07 06:25:31  5-MIN KDBQ 151225Z 32012G21KT 10SM OVC036 01/M07 A3007 940 56 -500 320/12G21 RMK AO2
94908KDBQ DBQ20071115063010311/15/07 06:30:31  5-MIN KDBQ 151230Z 32017G22KT 10SM OVC036 01/M07 A3007 940 56 -500 310/17G22 RMK AO2
94908KDBQ DBQ20071115063510311/15/07 06:35:31  5-MIN KDBQ 151235Z 31012G22KT 10SM OVC036 01/M07 A3008 930 56 -500 310/12G22 RMK AO2
94908KDBQ DBQ20071115064009711/15/07 06:40:31  5-MIN KDBQ 151240Z 31012KT 10SM OVC036 00/M07 A3008 930 58 -600 310/12 RMK AO2
94908KDBQ DBQ20071115064510311/15/07 06:45:31  5-MIN KDBQ 151245Z 31014G20KT 10SM OVC036 00/M07 A3008 930 58 -600 310/14G20 RMK AO2
94908KDBQ DBQ20071115065012011/15/07 06:50:31  5-MIN KDBQ 151250Z 32017G22KT 10SM OVC036 00/M07 A3008 930 58 -600 320/17G22 RMK AO2 SLP197 T00001072
94908KDBQ DBQ20071115065510311/15/07 06:55:31  5-MIN KDBQ 151255Z 32013G23KT 10SM OVC036 00/M07 A3008 930 58 -600 320/13G23 RMK AO2
94908KDBQ DBQ20071115070010311/15/07 07:00:31  5-MIN KDBQ 151300Z 32017G23KT 10SM OVC036 00/M07 A3009 930 58 -600 320/17G23 RMK AO2
94908KDBQ DBQ20071115070510311/15/07 07:05:31  5-MIN KDBQ 151305Z 33015G21KT 10SM OVC036 00/M07 A3008 930 58 -600 330/15G21 RMK AO2
94908KDBQ DBQ20071115071010311/15/07 07:10:31  5-MIN KDBQ 151310Z 33015G21KT 10SM OVC036 00/M07 A3009 920 58 -600 320/15G21 RMK AO2
94908KDBQ DBQ20071115071509711/15/07 07:15:31  5-MIN KDBQ 151315Z 31014KT 10SM OVC036 00/M08 A3009 920 56 -600 310/14 RMK AO2
94908KDBQ DBQ20071115072009711/15/07 07:20:31  5-MIN KDBQ 151320Z 32013KT 10SM OVC036 00/M07 A3010 920 58 -600 320/13 RMK AO2
94908KDBQ DBQ20071115072510311/15/07 07:25:31  5-MIN KDBQ 151325Z 32015G22KT 10SM OVC036 00/M07 A3010 920 58 -600 320/15G22 RMK AO2
94908KDBQ DBQ20071115073010311/15/07 07:30:31  5-MIN KDBQ 151330Z 32015G22KT 10SM OVC036 00/M07 A3010 910 58 -600 320/15G22 RMK AO2
94908KDBQ DBQ20071115073510311/15/07 07:35:31  5-MIN KDBQ 151335Z 31013G22KT 10SM OVC036 00/M08 A3010 910 56 -600 310/13G22 RMK AO2
94908KDBQ DBQ20071115074010311/15/07 07:40:31  5-MIN KDBQ 151340Z 31016G24KT 10SM OVC036 00/M07 A3011 910 58 -600 310/16G24 RMK AO2
94908KDBQ DBQ20071115074510311/15/07 07:45:31  5-MIN KDBQ 151345Z 32016G24KT 10SM OVC036 00/M07 A3011 910 58 -600 320/16G24 RMK AO2
94908KDBQ DBQ20071115075012011/15/07 07:50:31  5-MIN KDBQ 151350Z 33017G23KT 10SM OVC036 00/M08 A3011 910 56 -600 330/17G23 RMK AO2 SLP206 T00001078
94908KDBQ DBQ20071115075510311/15/07 07:55:31  5-MIN KDBQ 151355Z 32014G23KT 10SM OVC034 00/M08 A3011 900 56 -600 320/14G23 RMK AO2
94908KDBQ DBQ20071115080010311/15/07 08:00:31  5-MIN KDBQ 151400Z 32016G21KT 10SM OVC034 00/M08 A3011 900 56 -600 320/16G21 RMK AO2
94908KDBQ DBQ20071115082512111/15/07 08:25:31  5-MIN KDBQ 151425Z 32018G23KT 10SM BKN034 00/M07 A3012 900 58 -600 320/18G23 RMK AO2 PK WND 32028/1412
94908KDBQ DBQ20071115083012111/15/07 08:30:31  5-MIN KDBQ 151430Z 33017G24KT 10SM BKN034 00/M07 A3012 890 58 -600 330/17G24 RMK AO2 PK WND 32028/1412
94908KDBQ DBQ20071115083512111/15/07 08:35:31  5-MIN KDBQ 151435Z 34016G24KT 10SM BKN034 01/M07 A3012 890 56 -600 340/16G24 RMK AO2 PK WND 32028/1412
94908KDBQ DBQ20071115084012111/15/07 08:40:31  5-MIN KDBQ 151440Z 31020G25KT 10SM OVC034 01/M07 A3012 890 56 -600 310/20G25 RMK AO2 PK WND 32028/1412
94908KDBQ DBQ20071115084512111/15/07 08:45:31  5-MIN KDBQ 151445Z 32022G28KT 10SM OVC034 01/M07 A3012 890 56 -600 320/22G28 RMK AO2 PK WND 32028/1444
94908KDBQ DBQ20071115085014411/15/07 08:50:31  5-MIN KDBQ 151450Z 32016G28KT 10SM OVC034 01/M07 A3012 890 56 -600 320/16G28 RMK AO2 PK WND 32028/1444 SLP212 T00061072 53013
94908KDBQ DBQ20071115085510311/15/07 08:55:31  5-MIN KDBQ 151455Z 32016G25KT 10SM OVC034 01/M07 A3012 890 56 -600 320/16G25 RMK AO2
94908KDBQ DBQ20071115090010311/15/07 09:00:31  5-MIN KDBQ 151500Z 33014G24KT 10SM OVC034 01/M07 A3012 890 56 -600 320/14G24 RMK AO2
94908KDBQ DBQ20071115090510311/15/07 09:05:31  5-MIN KDBQ 151505Z 32015G22KT 10SM OVC034 01/M07 A3012 890 58 -600 320/15G22 RMK AO2
94908KDBQ DBQ20071115091010311/15/07 09:10:31  5-MIN KDBQ 151510Z 32017G21KT 10SM OVC034 01/M07 A3012 890 56 -600 320/17G21 RMK AO2
94908KDBQ DBQ20071115091509711/15/07 09:15:31  5-MIN KDBQ 151515Z 33013KT 10SM BKN034 01/M07 A3012 890 56 -600 330/13 RMK AO2
94908KDBQ DBQ20071115092012111/15/07 09:20:31  5-MIN KDBQ 151520Z 33021G26KT 10SM BKN034 01/M07 A3012 890 56 -600 330/21G26 RMK AO2 PK WND 33026/1518
94908KDBQ DBQ20071115092512111/15/07 09:25:31  5-MIN KDBQ 151525Z 33018G26KT 10SM SCT034 01/M07 A3012 900 54 -500 330/18G26 RMK AO2 PK WND 33026/1518
94908KDBQ DBQ20071115093012111/15/07 09:30:31  5-MIN KDBQ 151530Z 32020G25KT 10SM SCT034 01/M07 A3012 900 54 -500 320/20G25 RMK AO2 PK WND 33026/1518
94908KDBQ DBQ20071115093512111/15/07 09:35:31  5-MIN KDBQ 151535Z 31018G25KT 10SM SCT034 01/M07 A3012 890 54 -500 310/18G25 RMK AO2 PK WND 33026/1518
94908KDBQ DBQ20071115094012111/15/07 09:40:31  5-MIN KDBQ 151540Z 32016G25KT 10SM SCT034 01/M07 A3013 890 56 -500 320/16G25 RMK AO2 PK WND 33026/1518
94908KDBQ DBQ20071115094511511/15/07 09:45:31  5-MIN KDBQ 151545Z 32019KT 10SM SCT034 01/M07 A3013 890 56 -500 320/19 RMK AO2 PK WND 33026/1518
94908KDBQ DBQ20071115095013211/15/07 09:50:31  5-MIN KDBQ 151550Z 32017KT 10SM BKN034 01/M07 A3013 880 56 -500 320/17 RMK AO2 PK WND 33026/1518 SLP214 T00111067
94908KDBQ DBQ20071115095510311/15/07 09:55:31  5-MIN KDBQ 151555Z 32016G24KT 10SM BKN034 01/M07 A3013 890 56 -500 320/16G24 RMK AO2
94908KDBQ DBQ20071115100010311/15/07 10:00:31  5-MIN KDBQ 151600Z 34015G24KT 10SM OVC034 02/M07 A3013 890 54 -400 340/15G24 RMK AO2
94908KDBQ DBQ20071115100510311/15/07 10:05:31  5-MIN KDBQ 151605Z 32016G24KT 10SM OVC034 01/M07 A3013 890 56 -500 320/16G24 RMK AO2
94908KDBQ DBQ20071115101010311/15/07 10:10:31  5-MIN KDBQ 151610Z 33015G23KT 10SM BKN034 02/M07 A3013 890 54 -400 330/15G23 RMK AO2
94908KDBQ DBQ20071115101510311/15/07 10:15:31  5-MIN KDBQ 151615Z 32019G23KT 10SM BKN034 02/M07 A3012 890 54 -400 320/19G23 RMK AO2
94908KDBQ DBQ20071115102010311/15/07 10:20:31  5-MIN KDBQ 151620Z 31016G23KT 10SM BKN034 02/M07 A3012 890 54 -400 310/16G23 RMK AO2
94908KDBQ DBQ20071115102510311/15/07 10:25:31  5-MIN KDBQ 151625Z 32014G22KT 10SM BKN034 02/M07 A3012 890 52 -400 320/14G22 RMK AO2
94908KDBQ DBQ20071115103010311/15/07 10:30:31  5-MIN KDBQ 151630Z 32014G22KT 10SM BKN034 02/M07 A3012 890 52 -400 320/14G22 RMK AO2
94908KDBQ DBQ20071115103510311/15/07 10:35:31  5-MIN KDBQ 151635Z 33014G21KT 10SM BKN034 02/M07 A3013 890 54 -400 330/14G21 RMK AO2
94908KDBQ DBQ20071115104009711/15/07 10:40:31  5-MIN KDBQ 151640Z 34016KT 10SM OVC034 02/M07 A3012 890 54 -400 340/16 RMK AO2
94908KDBQ DBQ20071115104509711/15/07 10:45:31  5-MIN KDBQ 151645Z 34013KT 10SM OVC034 02/M07 A3013 890 52 -400 340/13 RMK AO2
94908KDBQ DBQ20071115105012011/15/07 10:50:31  5-MIN KDBQ 151650Z 31014G19KT 10SM OVC034 02/M06 A3013 890 54 -400 310/14G19 RMK AO2 SLP212 T00221061
94908KDBQ DBQ20071115105510311/15/07 10:55:31  5-MIN KDBQ 151655Z 34014G19KT 10SM OVC034 02/M06 A3013 890 54 -400 340/14G19 RMK AO2
94908KDBQ DBQ20071115110010311/15/07 11:00:31  5-MIN KDBQ 151700Z 33014G21KT 10SM OVC034 02/M06 A3013 890 54 -400 330/14G21 RMK AO2
94908KDBQ DBQ20071115110510311/15/07 11:05:31  5-MIN KDBQ 151705Z 33013G21KT 10SM OVC034 02/M07 A3013 890 54 -400 330/13G21 RMK AO2
94908KDBQ DBQ20071115111009711/15/07 11:10:31  5-MIN KDBQ 151710Z 33015KT 10SM OVC034 02/M07 A3013 880 52 -400 330/15 RMK AO2
94908KDBQ DBQ20071115111509711/15/07 11:15:31  5-MIN KDBQ 151715Z 34015KT 10SM OVC034 02/M06 A3013 890 54 -400 330/15 RMK AO2
94908KDBQ DBQ20071115112010311/15/07 11:20:31  5-MIN KDBQ 151720Z 33015G21KT 10SM OVC034 02/M06 A3013 890 54 -400 330/15G21 RMK AO2
94908KDBQ DBQ20071115112509711/15/07 11:25:31  5-MIN KDBQ 151725Z 34017KT 10SM OVC034 02/M07 A3013 890 52 -400 340/17 RMK AO2
94908KDBQ DBQ20071115113009711/15/07 11:30:31  5-MIN KDBQ 151730Z 33015KT 10SM OVC034 02/M06 A3012 890 54 -400 330/15 RMK AO2
94908KDBQ DBQ20071115113509711/15/07 11:35:31  5-MIN KDBQ 151735Z 32016KT 10SM OVC034 02/M06 A3012 890 54 -400 320/16 RMK AO2
94908KDBQ DBQ20071115114010311/15/07 11:40:31  5-MIN KDBQ 151740Z 33014G21KT 10SM OVC034 02/M06 A3012 890 54 -400 330/14G21 RMK AO2
94908KDBQ DBQ20071115114510311/15/07 11:45:31  5-MIN KDBQ 151745Z 32016G21KT 10SM OVC034 02/M06 A3012 890 54 -400 320/16G21 RMK AO2
94908KDBQ DBQ20071115115013211/15/07 11:50:31  5-MIN KDBQ 151750Z 32016KT 10SM OVC036 02/M07 A3012 890 52 -400 320/16 RMK AO2 SLP211 T00221067 10028 20000 51021
94908KDBQ DBQ20071115115510311/15/07 11:55:31  5-MIN KDBQ 151755Z 31016G21KT 10SM OVC036 02/M06 A3013 890 54 -400 310/16G21 RMK AO2
94908KDBQ DBQ20071115120009711/15/07 12:00:31  5-MIN KDBQ 151800Z 32016KT 10SM OVC036 02/M06 A3013 890 54 -400 310/16 RMK AO2
94908KDBQ DBQ20071115120510311/15/07 12:05:31  5-MIN KDBQ 151805Z 31014G22KT 10SM OVC036 02/M07 A3013 890 52 -400 310/14G22 RMK AO2
94908KDBQ DBQ20071115121010311/15/07 12:10:31  5-MIN KDBQ 151810Z 33013G22KT 10SM OVC036 02/M06 A3013 890 54 -400 330/13G22 RMK AO2
94908KDBQ DBQ20071115121510311/15/07 12:15:31  5-MIN KDBQ 151815Z 33016G19KT 10SM OVC034 02/M06 A3012 890 56 -400 330/16G19 RMK AO2
94908KDBQ DBQ20071115122009711/15/07 12:20:31  5-MIN KDBQ 151820Z 33016KT 10SM OVC034 02/M06 A3012 890 56 -400 330/16 RMK AO2
94908KDBQ DBQ20071115122509711/15/07 12:25:31  5-MIN KDBQ 151825Z 33014KT 10SM OVC034 02/M06 A3012 890 56 -400 330/14 RMK AO2
94908KDBQ DBQ20071115123009711/15/07 12:30:31  5-MIN KDBQ 151830Z 32014KT 10SM OVC034 02/M06 A3012 890 54 -400 320/14 RMK AO2
94908KDBQ DBQ20071115123510311/15/07 12:35:31  5-MIN KDBQ 151835Z 31018G23KT 10SM OVC034 02/M06 A3012 890 56 -400 310/18G23 RMK AO2
94908KDBQ DBQ20071115124010311/15/07 12:40:31  5-MIN KDBQ 151840Z 33018G23KT 10SM OVC034 02/M07 A3012 890 54 -400 320/18G23 RMK AO2
94908KDBQ DBQ20071115124510311/15/07 12:45:31  5-MIN KDBQ 151845Z 31014G22KT 10SM OVC034 02/M07 A3012 890 54 -400 310/14G22 RMK AO2
94908KDBQ DBQ20071115125012011/15/07 12:50:31  5-MIN KDBQ 151850Z 32013G21KT 10SM OVC034 02/M06 A3012 900 54 -300 320/13G21 RMK AO2 SLP209 T00221061
94908KDBQ DBQ20071115125510311/15/07 12:55:31  5-MIN KDBQ 151855Z 33013G17KT 10SM OVC034 02/M06 A3012 900 54 -300 330/13G17 RMK AO2
94908KDBQ DBQ20071115130010311/15/07 13:00:31  5-MIN KDBQ 151900Z 33012G20KT 10SM OVC036 02/M06 A3012 900 54 -300 330/12G20 RMK AO2
94908KDBQ DBQ20071115130510311/15/07 13:05:31  5-MIN KDBQ 151905Z 34013G20KT 10SM OVC036 02/M06 A3012 900 54 -300 340/13G20 RMK AO2
94908KDBQ DBQ20071115131009711/15/07 13:10:31  5-MIN KDBQ 151910Z 33013KT 10SM OVC036 02/M06 A3012 900 54 -300 330/13 RMK AO2
94908KDBQ DBQ20071115131509711/15/07 13:15:31  5-MIN KDBQ 151915Z 32014KT 10SM OVC036 02/M06 A3012 900 54 -300 320/14 RMK AO2
94908KDBQ DBQ20071115132010311/15/07 13:20:31  5-MIN KDBQ 151920Z 32013G19KT 10SM OVC036 03/M06 A3011 900 52 -300 320/13G19 RMK AO2
94908KDBQ DBQ20071115132509711/15/07 13:25:31  5-MIN KDBQ 151925Z 32014KT 10SM OVC038 03/M06 A3011 900 52 -300 320/14 RMK AO2
94908KDBQ DBQ20071115133009711/15/07 13:30:31  5-MIN KDBQ 151930Z 34014KT 10SM OVC038 03/M07 A3011 900 50 -300 340/14 RMK AO2
94908KDBQ DBQ20071115133509711/15/07 13:35:31  5-MIN KDBQ 151935Z 33014KT 10SM OVC038 03/M07 A3011 900 50 -300 330/14 RMK AO2
94908KDBQ DBQ20071115134010311/15/07 13:40:31  5-MIN KDBQ 151940Z 34015G21KT 10SM OVC038 03/M07 A3011 900 50 -300 340/15G21 RMK AO2
94908KDBQ DBQ20071115134510311/15/07 13:45:31  5-MIN KDBQ 151945Z 32016G22KT 10SM OVC038 03/M07 A3012 900 50 -300 320/16G22 RMK AO2
94908KDBQ DBQ20071115135012011/15/07 13:50:31  5-MIN KDBQ 151950Z 33015G22KT 10SM OVC038 03/M07 A3012 900 50 -300 330/15G22 RMK AO2 SLP208 T00281067
94908KDBQ DBQ20071115135509711/15/07 13:55:31  5-MIN KDBQ 151955Z 33016KT 10SM OVC038 02/M07 A3012 900 52 -300 330/16 RMK AO2
94908KDBQ DBQ20071115140010311/15/07 14:00:31  5-MIN KDBQ 152000Z 31017G21KT 10SM OVC038 03/M07 A3012 900 50 -300 310/17G21 RMK AO2
94908KDBQ DBQ20071115140510311/15/07 14:05:31  5-MIN KDBQ 152005Z 32015G23KT 10SM OVC038 02/M07 A3012 900 52 -300 320/15G23 RMK AO2
94908KDBQ DBQ20071115141010311/15/07 14:10:31  5-MIN KDBQ 152010Z 32013G23KT 10SM OVC040 02/M07 A3012 900 52 -400 320/13G23 RMK AO2
94908KDBQ DBQ20071115141510311/15/07 14:15:31  5-MIN KDBQ 152015Z 32016G20KT 10SM OVC040 02/M07 A3012 900 52 -400 320/16G20 RMK AO2
94908KDBQ DBQ20071115142009711/15/07 14:20:31  5-MIN KDBQ 152020Z 33015KT 10SM OVC040 03/M07 A3012 890 50 -300 330/15 RMK AO2
94908KDBQ DBQ20071115142509711/15/07 14:25:31  5-MIN KDBQ 152025Z 33014KT 10SM OVC040 03/M07 A3012 890 50 -300 330/14 RMK AO2
94908KDBQ DBQ20071115143009711/15/07 14:30:31  5-MIN KDBQ 152030Z 32010KT 10SM OVC040 03/M07 A3012 890 50 -300 320/10 RMK AO2
94908KDBQ DBQ20071115143509711/15/07 14:35:31  5-MIN KDBQ 152035Z 34014KT 10SM OVC042 03/M07 A3012 890 50 -300 340/14 RMK AO2
94908KDBQ DBQ20071115144009711/15/07 14:40:31  5-MIN KDBQ 152040Z 33013KT 10SM OVC042 03/M07 A3012 890 50 -300 330/13 RMK AO2
94908KDBQ DBQ20071115144509711/15/07 14:45:31  5-MIN KDBQ 152045Z 33011KT 10SM OVC042 03/M07 A3013 890 50 -300 330/11 RMK AO2
94908KDBQ DBQ20071115145012011/15/07 14:50:31  5-MIN KDBQ 152050Z 31011KT 10SM OVC042 03/M07 A3012 890 50 -300 310/11 RMK AO2 SLP210 T00281067 50001
94908KDBQ DBQ20071115145510711/15/07 14:55:31  5-MIN KDBQ 152055Z AUTO 31012KT 10SM OVC042 03/M07 A3013 890 50 -300 310/12 RMK AO2 TSNO
94908KDBQ DBQ20071115150010711/15/07 15:00:31  5-MIN KDBQ 152100Z AUTO 33011KT 10SM OVC042 03/M07 A3013 890 50 -300 330/11 RMK AO2 TSNO
94908KDBQ DBQ20071115150510711/15/07 15:05:31  5-MIN KDBQ 152105Z AUTO 32010KT 10SM OVC042 03/M07 A3013 890 50 -300 320/10 RMK AO2 TSNO
94908KDBQ DBQ20071115151010711/15/07 15:10:31  5-MIN KDBQ 152110Z AUTO 32012KT 10SM OVC042 03/M07 A3013 890 48 -200 320/12 RMK AO2 TSNO
94908KDBQ DBQ20071115151511311/15/07 15:15:31  5-MIN KDBQ 152115Z AUTO 32015G18KT 10SM BKN042 03/M07 A3013 890 50 -300 320/15G18 RMK AO2 TSNO
94908KDBQ DBQ20071115152010711/15/07 15:20:31  5-MIN KDBQ 152120Z AUTO 33012KT 10SM BKN042 03/M07 A3013 880 50 -300 320/12 RMK AO2 TSNO
94908KDBQ DBQ20071115152510711/15/07 15:25:31  5-MIN KDBQ 152125Z AUTO 33013KT 10SM SCT042 03/M07 A3013 890 48 -300 330/13 RMK AO2 TSNO
94908KDBQ DBQ20071115153010711/15/07 15:30:31  5-MIN KDBQ 152130Z AUTO 32012KT 10SM SCT042 03/M07 A3013 880 50 -300 320/12 RMK AO2 TSNO
94908KDBQ DBQ20071115153510711/15/07 15:35:31  5-MIN KDBQ 152135Z AUTO 30013KT 10SM FEW042 03/M07 A3013 880 50 -300 300/13 RMK AO2 TSNO
94908KDBQ DBQ20071115154010411/15/07 15:40:31  5-MIN KDBQ 152140Z AUTO 31011KT 10SM CLR 02/M07 A3013 880 52 -400 300/11 RMK AO2 TSNO
94908KDBQ DBQ20071115154510411/15/07 15:45:31  5-MIN KDBQ 152145Z AUTO 31013KT 10SM CLR 02/M07 A3014 880 52 -400 300/13 RMK AO2 TSNO
94908KDBQ DBQ20071115155012411/15/07 15:50:31  5-MIN KDBQ 152150Z AUTO 30010KT 10SM FEW041 02/M07 A3014 880 52 -400 300/10 RMK AO2 SLP216 T00221067 TSNO
94908KDBQ DBQ20071115155510711/15/07 15:55:31  5-MIN KDBQ 152155Z AUTO 32007KT 10SM SCT041 02/M07 A3014 880 52 -400 320/07 RMK AO2 TSNO
94908KDBQ DBQ20071115160009711/15/07 16:00:31  5-MIN KDBQ 152200Z 31008KT 10SM BKN041 02/M06 A3014 880 54 -400 300/08 RMK AO2
94908KDBQ DBQ20071115160509711/15/07 16:05:31  5-MIN KDBQ 152205Z 32009KT 10SM BKN041 02/M06 A3014 880 56 -400 320/09 RMK AO2
94908KDBQ DBQ20071115161009711/15/07 16:10:31  5-MIN KDBQ 152210Z 33008KT 10SM SCT041 02/M07 A3014 880 54 -400 330/08 RMK AO2
94908KDBQ DBQ20071115161509711/15/07 16:15:31  5-MIN KDBQ 152215Z 33011KT 10SM SCT041 01/M07 A3014 880 56 -500 320/11 RMK AO2
94908KDBQ DBQ20071115162009711/15/07 16:20:31  5-MIN KDBQ 152220Z 31009KT 10SM SCT041 02/M07 A3014 870 54 -400 300/09 RMK AO2
94908KDBQ DBQ20071115162509711/15/07 16:25:31  5-MIN KDBQ 152225Z 31007KT 10SM FEW041 01/M07 A3014 870 56 -500 300/07 RMK AO2
94908KDBQ DBQ20071115163009411/15/07 16:30:31  5-MIN KDBQ 152230Z 30008KT 10SM CLR 01/M06 A3014 870 61 -600 300/08 RMK AO2
94908KDBQ DBQ20071115163509411/15/07 16:35:31  5-MIN KDBQ 152235Z 30008KT 10SM CLR 01/M06 A3014 870 61 -600 300/08 RMK AO2
94908KDBQ DBQ20071115164009411/15/07 16:40:31  5-MIN KDBQ 152240Z 30009KT 10SM CLR 01/M07 A3014 870 58 -600 300/09 RMK AO2
94908KDBQ DBQ20071115164509411/15/07 16:45:31  5-MIN KDBQ 152245Z 30009KT 10SM CLR 01/M07 A3014 870 58 -600 300/09 RMK AO2
94908KDBQ DBQ20071115165011111/15/07 16:50:31  5-MIN KDBQ 152250Z 30010KT 10SM CLR 00/M06 A3015 870 63 -700 300/10 RMK AO2 SLP221 T00001061
94908KDBQ DBQ20071115165509411/15/07 16:55:31  5-MIN KDBQ 152255Z 31009KT 10SM CLR 00/M06 A3015 870 63 -700 300/09 RMK AO2
94908KDBQ DBQ20071115170009411/15/07 17:00:31  5-MIN KDBQ 152300Z 31008KT 10SM CLR 00/M06 A3015 870 63 -700 310/08 RMK AO2
94908KDBQ DBQ20071115170509411/15/07 17:05:31  5-MIN KDBQ 152305Z 31007KT 10SM CLR 00/M07 A3014 870 61 -700 310/07 RMK AO2
94908KDBQ DBQ20071115171009411/15/07 17:10:31  5-MIN KDBQ 152310Z 31008KT 10SM CLR 00/M07 A3014 870 61 -700 310/08 RMK AO2
94908KDBQ DBQ20071115171509411/15/07 17:15:31  5-MIN KDBQ 152315Z 32008KT 10SM CLR 00/M06 A3014 880 63 -700 320/08 RMK AO2
94908KDBQ DBQ20071115172009411/15/07 17:20:31  5-MIN KDBQ 152320Z 31009KT 10SM CLR 00/M06 A3014 880 63 -700 310/09 RMK AO2
94908KDBQ DBQ20071115172509411/15/07 17:25:31  5-MIN KDBQ 152325Z 31008KT 10SM CLR 00/M06 A3014 880 63 -700 310/08 RMK AO2
94908KDBQ DBQ20071115173009411/15/07 17:30:31  5-MIN KDBQ 152330Z 31009KT 10SM CLR 00/M06 A3014 870 63 -700 310/09 RMK AO2
94908KDBQ DBQ20071115173509411/15/07 17:35:31  5-MIN KDBQ 152335Z 32009KT 10SM CLR 00/M06 A3014 870 63 -700 320/09 RMK AO2
94908KDBQ DBQ20071115174009511/15/07 17:40:31  5-MIN KDBQ 152340Z 32009KT 10SM CLR M01/M07 A3014 870 63 -700 320/09 RMK AO2
94908KDBQ DBQ20071115174509511/15/07 17:45:31  5-MIN KDBQ 152345Z 31008KT 10SM CLR M01/M07 A3014 870 63 -700 310/08 RMK AO2
94908KDBQ DBQ20071115175013011/15/07 17:50:31  5-MIN KDBQ 152350Z 31006KT 10SM CLR M01/M06 A3014 870 69 -800 310/06 RMK AO2 SLP219 T10111061 10033 21011 55000
94908KDBQ DBQ20071115175509511/15/07 17:55:31  5-MIN KDBQ 152355Z 32007KT 10SM CLR M01/M07 A3014 870 66 -800 320/07 RMK AO2
94908KDBQ DBQ20071115180009511/15/07 18:00:31  5-MIN KDBQ 160000Z 32007KT 10SM CLR M01/M06 A3014 870 69 -800 320/07 RMK AO2
94908KDBQ DBQ20071115180509511/15/07 18:05:31  5-MIN KDBQ 160005Z 31007KT 10SM CLR M01/M07 A3014 870 66 -800 310/07 RMK AO2
94908KDBQ DBQ20071115181009511/15/07 18:10:31  5-MIN KDBQ 160010Z 31007KT 10SM CLR M01/M07 A3015 870 66 -800 310/07 RMK AO2
94908KDBQ DBQ20071115181509511/15/07 18:15:31  5-MIN KDBQ 160015Z 31007KT 10SM CLR M02/M07 A3015 870 69 -900 310/07 RMK AO2
94908KDBQ DBQ20071115182009511/15/07 18:20:31  5-MIN KDBQ 160020Z 31007KT 10SM CLR M02/M07 A3015 870 69 -900 310/07 RMK AO2
94908KDBQ DBQ20071115182509511/15/07 18:25:31  5-MIN KDBQ 160025Z 31007KT 10SM CLR M02/M07 A3015 870 69 -900 310/07 RMK AO2
94908KDBQ DBQ20071115183009511/15/07 18:30:31  5-MIN KDBQ 160030Z 31006KT 10SM CLR M02/M07 A3015 870 69 -900 310/06 RMK AO2
94908KDBQ DBQ20071115183509511/15/07 18:35:31  5-MIN KDBQ 160035Z 31006KT 10SM CLR M02/M07 A3015 870 69 -900 310/06 RMK AO2
94908KDBQ DBQ20071115184009511/15/07 18:40:31  5-MIN KDBQ 160040Z 31006KT 10SM CLR M02/M07 A3015 870 69 -900 310/06 RMK AO2
94908KDBQ DBQ20071115184509511/15/07 18:45:31  5-MIN KDBQ 160045Z 31007KT 10SM CLR M02/M07 A3015 870 69 -900 310/07 RMK AO2
94908KDBQ DBQ20071115185011211/15/07 18:50:31  5-MIN KDBQ 160050Z 31006KT 10SM CLR M02/M07 A3015 870 69 -900 310/06 RMK AO2 SLP222 T10171067
94908KDBQ DBQ20071115185509511/15/07 18:55:31  5-MIN KDBQ 160055Z 30006KT 10SM CLR M02/M07 A3015 870 69 -900 300/06 RMK AO2
94908KDBQ DBQ20071115190009511/15/07 19:00:31  5-MIN KDBQ 160100Z 30006KT 10SM CLR M02/M07 A3015 870 69 -900 300/06 RMK AO2
94908KDBQ DBQ20071115190509511/15/07 19:05:31  5-MIN KDBQ 160105Z 30005KT 10SM CLR M02/M07 A3015 870 69 -900 300/05 RMK AO2
94908KDBQ DBQ20071115191009511/15/07 19:10:31  5-MIN KDBQ 160110Z 30005KT 10SM CLR M01/M06 A3015 870 69 -800 300/05 RMK AO2
94908KDBQ DBQ20071115191509511/15/07 19:15:31  5-MIN KDBQ 160115Z 30004KT 10SM CLR M01/M06 A3015 870 69 -800 290/04 RMK AO2
94908KDBQ DBQ20071115192009511/15/07 19:20:31  5-MIN KDBQ 160120Z 30004KT 10SM CLR M01/M06 A3015 870 69 -800 300/04 RMK AO2
94908KDBQ DBQ20071115192509511/15/07 19:25:31  5-MIN KDBQ 160125Z 29003KT 10SM CLR M02/M06 A3015 870 72 -900 290/03 RMK AO2
94908KDBQ DBQ20071115193009511/15/07 19:30:31  5-MIN KDBQ 160130Z 00000KT 10SM CLR M02/M06 A3015 870 75 -900 000/00 RMK AO2
94908KDBQ DBQ20071115193509511/15/07 19:35:31  5-MIN KDBQ 160135Z 00000KT 10SM CLR M02/M07 A3015 870 69 -900 000/00 RMK AO2
94908KDBQ DBQ20071115194009511/15/07 19:40:31  5-MIN KDBQ 160140Z 00000KT 10SM CLR M02/M07 A3015 870 69 -900 000/00 RMK AO2
94908KDBQ DBQ20071115194509511/15/07 19:45:31  5-MIN KDBQ 160145Z 00000KT 10SM CLR M02/M06 A3015 870 75 -900 000/00 RMK AO2
94908KDBQ DBQ20071115195011711/15/07 19:50:31  5-MIN KDBQ 160150Z AUTO 20003KT 10SM CLR M02/M06 A3015 870 75 -900 200/03 RMK AO2 SLP223 T10221061
94908KDBQ DBQ20071115195510011/15/07 19:55:31  5-MIN KDBQ 160155Z AUTO 20003KT 10SM CLR M02/M06 A3015 870 72 -900 200/03 RMK AO2
94908KDBQ DBQ20071115200010011/15/07 20:00:31  5-MIN KDBQ 160200Z AUTO 20003KT 10SM CLR M02/M06 A3015 870 72 -900 200/03 RMK AO2
94908KDBQ DBQ20071115200510011/15/07 20:05:31  5-MIN KDBQ 160205Z AUTO 21003KT 10SM CLR M02/M06 A3015 870 72 -900 210/03 RMK AO2
94908KDBQ DBQ20071115201010011/15/07 20:10:31  5-MIN KDBQ 160210Z AUTO 21003KT 10SM CLR M02/M06 A3014 870 72 -900 210/03 RMK AO2
94908KDBQ DBQ20071115201510011/15/07 20:15:31  5-MIN KDBQ 160215Z AUTO 20003KT 10SM CLR M02/M06 A3014 870 72 -900 200/03 RMK AO2
94908KDBQ DBQ20071115202010011/15/07 20:20:31  5-MIN KDBQ 160220Z AUTO 22003KT 10SM CLR M02/M06 A3014 870 72 -900 210/03 RMK AO2
94908KDBQ DBQ20071115202510011/15/07 20:25:31  5-MIN KDBQ 160225Z AUTO 00000KT 10SM CLR M02/M06 A3014 870 75 -900 000/00 RMK AO2
94908KDBQ DBQ20071115203010011/15/07 20:30:31  5-MIN KDBQ 160230Z AUTO 00000KT 10SM CLR M02/M06 A3014 870 75 -900 000/00 RMK AO2
94908KDBQ DBQ20071115203510011/15/07 20:35:31  5-MIN KDBQ 160235Z AUTO 00000KT 10SM CLR M02/M06 A3014 880 75 -900 000/00 RMK AO2
94908KDBQ DBQ20071115204010011/15/07 20:40:31  5-MIN KDBQ 160240Z AUTO 00000KT 10SM CLR M02/M06 A3014 880 72 -900 000/00 RMK AO2
94908KDBQ DBQ20071115204510011/15/07 20:45:31  5-MIN KDBQ 160245Z AUTO 00000KT 10SM CLR M02/M06 A3014 880 72 -900 000/00 RMK AO2
94908KDBQ DBQ20071115205012311/15/07 20:50:31  5-MIN KDBQ 160250Z AUTO 00000KT 10SM CLR M02/M06 A3014 880 72 -900 000/00 RMK AO2 SLP219 T10171061 50006
94908KDBQ DBQ20071115205510011/15/07 20:55:31  5-MIN KDBQ 160255Z AUTO 23003KT 10SM CLR M02/M06 A3014 880 72 -900 230/03 RMK AO2
94908KDBQ DBQ20071115210010011/15/07 21:00:31  5-MIN KDBQ 160300Z AUTO 21003KT 10SM CLR M02/M06 A3014 880 78 -900 210/03 RMK AO2
94908KDBQ DBQ20071115210510011/15/07 21:05:31  5-MIN KDBQ 160305Z AUTO 22003KT 10SM CLR M02/M06 A3014 880 78 -900 210/03 RMK AO2
94908KDBQ DBQ20071115211010011/15/07 21:10:31  5-MIN KDBQ 160310Z AUTO 22003KT 10SM CLR M02/M06 A3013 880 78 -900 220/03 RMK AO2
94908KDBQ DBQ20071115211510011/15/07 21:15:31  5-MIN KDBQ 160315Z AUTO 22003KT 10SM CLR M02/M06 A3013 880 78 -900 220/03 RMK AO2
94908KDBQ DBQ20071115212010011/15/07 21:20:31  5-MIN KDBQ 160320Z AUTO 00000KT 10SM CLR M02/M06 A3014 880 75 -900 000/00 RMK AO2
94908KDBQ DBQ20071115212510011/15/07 21:25:31  5-MIN KDBQ 160325Z AUTO 00000KT 10SM CLR M02/M06 A3014 880 75 -900 000/00 RMK AO2
94908KDBQ DBQ20071115213010011/15/07 21:30:31  5-MIN KDBQ 160330Z AUTO 00000KT 10SM CLR M02/M06 A3013 880 75 -900 000/00 RMK AO2
94908KDBQ DBQ20071115213510011/15/07 21:35:31  5-MIN KDBQ 160335Z AUTO 00000KT 10SM CLR M02/M06 A3013 880 75 -900 000/00 RMK AO2
94908KDBQ DBQ20071115214010011/15/07 21:40:31  5-MIN KDBQ 160340Z AUTO 00000KT 10SM CLR M02/M06 A3014 880 75 -900 000/00 RMK AO2
94908KDBQ DBQ20071115214510011/15/07 21:45:31  5-MIN KDBQ 160345Z AUTO 00000KT 10SM CLR M02/M06 A3014 880 75 -900 000/00 RMK AO2
94908KDBQ DBQ20071115215011711/15/07 21:50:31  5-MIN KDBQ 160350Z AUTO 00000KT 10SM CLR M02/M06 A3014 870 75 -900 000/00 RMK AO2 SLP219 T10171056
94908KDBQ DBQ20071115215510011/15/07 21:55:31  5-MIN KDBQ 160355Z AUTO 00000KT 10SM CLR M02/M06 A3014 870 75 -900 000/00 RMK AO2
94908KDBQ DBQ20071115220010011/15/07 22:00:31  5-MIN KDBQ 160400Z AUTO 00000KT 10SM CLR M02/M06 A3014 870 75 -900 000/00 RMK AO2
94908KDBQ DBQ20071115220510011/15/07 22:05:31  5-MIN KDBQ 160405Z AUTO 00000KT 10SM CLR M02/M06 A3014 880 75 -900 000/00 RMK AO2
94908KDBQ DBQ20071115221010011/15/07 22:10:31  5-MIN KDBQ 160410Z AUTO 00000KT 10SM CLR M02/M06 A3014 880 75 -900 000/00 RMK AO2
94908KDBQ DBQ20071115221510011/15/07 22:15:31  5-MIN KDBQ 160415Z AUTO 20003KT 10SM CLR M02/M06 A3013 880 75 -900 200/03 RMK AO2
94908KDBQ DBQ20071115222010011/15/07 22:20:31  5-MIN KDBQ 160420Z AUTO 19003KT 10SM CLR M02/M06 A3013 890 75 -800 190/03 RMK AO2
94908KDBQ DBQ20071115222510011/15/07 22:25:31  5-MIN KDBQ 160425Z AUTO 00000KT 10SM CLR M02/M06 A3013 890 75 -800 000/00 RMK AO2
94908KDBQ DBQ20071115223010011/15/07 22:30:31  5-MIN KDBQ 160430Z AUTO 21003KT 10SM CLR M02/M06 A3013 890 75 -800 210/03 RMK AO2
94908KDBQ DBQ20071115223510011/15/07 22:35:31  5-MIN KDBQ 160435Z AUTO 00000KT 10SM CLR M02/M06 A3013 890 75 -800 000/00 RMK AO2
94908KDBQ DBQ20071115224010011/15/07 22:40:31  5-MIN KDBQ 160440Z AUTO 00000KT 10SM CLR M02/M06 A3012 900 75 -800 000/00 RMK AO2
94908KDBQ DBQ20071115224510011/15/07 22:45:31  5-MIN KDBQ 160445Z AUTO 00000KT 10SM CLR M02/M06 A3012 890 75 -800 000/00 RMK AO2
94908KDBQ DBQ20071115225011711/15/07 22:50:31  5-MIN KDBQ 160450Z AUTO 00000KT 10SM CLR M02/M06 A3012 900 75 -800 000/00 RMK AO2 SLP211 T10171056
94908KDBQ DBQ20071115225510011/15/07 22:55:31  5-MIN KDBQ 160455Z AUTO 00000KT 10SM CLR M01/M06 A3012 900 72 -800 000/00 RMK AO2
94908KDBQ DBQ20071115230010011/15/07 23:00:31  5-MIN KDBQ 160500Z AUTO 00000KT 10SM CLR M01/M06 A3012 900 72 -800 000/00 RMK AO2
94908KDBQ DBQ20071115230510011/15/07 23:05:31  5-MIN KDBQ 160505Z AUTO 00000KT 10SM CLR M01/M05 A3012 900 75 -800 000/00 RMK AO2
94908KDBQ DBQ20071115231010011/15/07 23:10:31  5-MIN KDBQ 160510Z AUTO 00000KT 10SM CLR M01/M06 A3011 900 72 -800 000/00 RMK AO2
94908KDBQ DBQ20071115231510011/15/07 23:15:31  5-MIN KDBQ 160515Z AUTO 00000KT 10SM CLR M01/M06 A3011 900 72 -800 000/00 RMK AO2
94908KDBQ DBQ20071115232010311/15/07 23:20:31  5-MIN KDBQ 160520Z AUTO 19003KT 10SM FEW120 M01/M06 A3011 900 72 -800 190/03 RMK AO2
94908KDBQ DBQ20071115232510311/15/07 23:25:31  5-MIN KDBQ 160525Z AUTO 00000KT 10SM SCT120 M01/M05 A3011 900 75 -800 000/00 RMK AO2
94908KDBQ DBQ20071115233010311/15/07 23:30:31  5-MIN KDBQ 160530Z AUTO 00000KT 10SM BKN120 M01/M05 A3011 910 75 -800 000/00 RMK AO2
94908KDBQ DBQ20071115233510311/15/07 23:35:31  5-MIN KDBQ 160535Z AUTO 00000KT 10SM BKN120 M01/M05 A3011 900 75 -800 000/00 RMK AO2
94908KDBQ DBQ20071115234010311/15/07 23:40:31  5-MIN KDBQ 160540Z AUTO 00000KT 10SM BKN120 M01/M05 A3011 910 75 -800 000/00 RMK AO2
94908KDBQ DBQ20071115234510311/15/07 23:45:31  5-MIN KDBQ 160545Z AUTO 00000KT 10SM OVC120 M01/M05 A3011 900 75 -800 000/00 RMK AO2
94908KDBQ DBQ20071115235014811/15/07 23:50:31  5-MIN KDBQ 160550Z AUTO 00000KT 10SM OVC120 M01/M06 A3010 910 72 -800 000/00 RMK AO2 SLP206 T10111056 11011 21022 400331022 58001
94908KDBQ DBQ20071115235510311/15/07 23:55:31  5-MIN KDBQ 160555Z AUTO 17003KT 10SM OVC120 M01/M06 A3010 910 72 -700 170/03 RMK AO2
94908KDBQ DBQ20071116000010311/16/07 00:00:38  5-MIN KDBQ 160600Z AUTO 00000KT 10SM OVC120 M01/M06 A3010 910 72 -800 000/00 RMK AO2
94908KDBQ DBQ20071116000510311/16/07 00:05:31  5-MIN KDBQ 160605Z AUTO 20004KT 10SM OVC120 M01/M05 A3010 910 75 -800 200/04 RMK AO2
94908KDBQ DBQ20071116001010311/16/07 00:10:31  5-MIN KDBQ 160610Z AUTO 21003KT 10SM OVC120 M02/M05 A3010 910 78 -800 210/03 RMK AO2
94908KDBQ DBQ20071116001510311/16/07 00:15:31  5-MIN KDBQ 160615Z AUTO 00000KT 10SM OVC120 M02/M05 A3010 910 78 -800 000/00 RMK AO2
94908KDBQ DBQ20071116002010311/16/07 00:20:31  5-MIN KDBQ 160620Z AUTO 00000KT 10SM OVC120 M02/M05 A3010 910 78 -800 000/00 RMK AO2
94908KDBQ DBQ20071116002510311/16/07 00:25:31  5-MIN KDBQ 160625Z AUTO 00000KT 10SM OVC120 M01/M06 A3010 910 72 -700 000/00 RMK AO2
94908KDBQ DBQ20071116003010311/16/07 00:30:31  5-MIN KDBQ 160630Z AUTO 00000KT 10SM OVC120 M01/M06 A3010 910 72 -700 000/00 RMK AO2
94908KDBQ DBQ20071116003510311/16/07 00:35:31  5-MIN KDBQ 160635Z AUTO 00000KT 10SM OVC120 M01/M06 A3010 910 72 -700 000/00 RMK AO2
94908KDBQ DBQ20071116004010311/16/07 00:40:31  5-MIN KDBQ 160640Z AUTO 00000KT 10SM BKN120 M02/M06 A3010 910 75 -800 000/00 RMK AO2
94908KDBQ DBQ20071116004510311/16/07 00:45:31  5-MIN KDBQ 160645Z AUTO 20004KT 10SM BKN120 M02/M06 A3009 920 78 -900 200/04 RMK AO2
94908KDBQ DBQ20071116005012111/16/07 00:50:31  5-MIN KDBQ 160650Z AUTO 20005KT 10SM SCT120 M03/M06 A3010 920 81 -1000 200/05 RMK AO2 SLP203 T10281056
94908KDBQ DBQ20071116005510411/16/07 00:55:31  5-MIN KDBQ 160655Z AUTO 19005KT 10SM FEW120 M03/M06 A3009 920 78 -1000 190/05 RMK AO2
94908KDBQ DBQ20071116010010311/16/07 01:00:31  5-MIN KDBQ 160700Z AUTO 19004KT 10SM FEW120 M03/M06 A3009 920 78 -900 190/04 RMK AO2
94908KDBQ DBQ20071116010510111/16/07 01:05:31  5-MIN KDBQ 160705Z AUTO 20004KT 10SM CLR M03/M06 A3010 920 78 -1000 200/04 RMK AO2
94908KDBQ DBQ20071116011010111/16/07 01:10:31  5-MIN KDBQ 160710Z AUTO 21005KT 10SM CLR M03/M06 A3010 920 81 -1000 210/05 RMK AO2
94908KDBQ DBQ20071116011510111/16/07 01:15:31  5-MIN KDBQ 160715Z AUTO 21004KT 10SM CLR M03/M07 A3010 910 75 -1000 210/04 RMK AO2
94908KDBQ DBQ20071116012010111/16/07 01:20:31  5-MIN KDBQ 160720Z AUTO 22003KT 10SM CLR M03/M07 A3010 910 78 -1000 220/03 RMK AO2
94908KDBQ DBQ20071116012510111/16/07 01:25:31  5-MIN KDBQ 160725Z AUTO 20003KT 10SM CLR M03/M07 A3010 910 78 -1000 200/03 RMK AO2
94908KDBQ DBQ20071116013010111/16/07 01:30:31  5-MIN KDBQ 160730Z AUTO 19003KT 10SM CLR M03/M07 A3010 920 78 -1000 190/03 RMK AO2
94908KDBQ DBQ20071116013510111/16/07 01:35:31  5-MIN KDBQ 160735Z AUTO 20003KT 10SM CLR M03/M07 A3010 920 78 -1000 200/03 RMK AO2
94908KDBQ DBQ20071116014010111/16/07 01:40:31  5-MIN KDBQ 160740Z AUTO 19003KT 10SM CLR M03/M06 A3009 920 81 -1000 190/03 RMK AO2
94908KDBQ DBQ20071116014510111/16/07 01:45:31  5-MIN KDBQ 160745Z AUTO 19003KT 10SM CLR M03/M06 A3010 920 81 -1000 190/03 RMK AO2
94908KDBQ DBQ20071116015011811/16/07 01:50:31  5-MIN KDBQ 160750Z AUTO 20004KT 10SM CLR M03/M06 A3010 920 81 -1000 190/04 RMK AO2 SLP204 T10331061
94908KDBQ DBQ20071116015510111/16/07 01:55:31  5-MIN KDBQ 160755Z AUTO 18003KT 10SM CLR M03/M06 A3009 920 78 -1000 180/03 RMK AO2
94908KDBQ DBQ20071116020010311/16/07 02:00:31  5-MIN KDBQ 160800Z AUTO 18003KT 10SM FEW120 M03/M06 A3009 920 81 -900 180/03 RMK AO2
94908KDBQ DBQ20071116020510011/16/07 02:05:31  5-MIN KDBQ 160805Z AUTO 17003KT 10SM CLR M02/M06 A3009 920 78 -900 170/03 RMK AO2
94908KDBQ DBQ20071116021010011/16/07 02:10:31  5-MIN KDBQ 160810Z AUTO 18003KT 10SM CLR M02/M06 A3009 920 78 -900 180/03 RMK AO2
94908KDBQ DBQ20071116021510011/16/07 02:15:31  5-MIN KDBQ 160815Z AUTO 18004KT 10SM CLR M02/M06 A3008 930 78 -900 180/04 RMK AO2
94908KDBQ DBQ20071116022010011/16/07 02:20:31  5-MIN KDBQ 160820Z AUTO 18004KT 10SM CLR M02/M06 A3009 930 78 -900 180/04 RMK AO2
94908KDBQ DBQ20071116022510011/16/07 02:25:31  5-MIN KDBQ 160825Z AUTO 20003KT 10SM CLR M02/M06 A3009 920 78 -900 190/03 RMK AO2
94908KDBQ DBQ20071116023010011/16/07 02:30:31  5-MIN KDBQ 160830Z AUTO 19003KT 10SM CLR M02/M06 A3009 920 75 -800 190/03 RMK AO2
94908KDBQ DBQ20071116023510311/16/07 02:35:31  5-MIN KDBQ 160835Z AUTO 00000KT 10SM FEW120 M02/M06 A3009 920 75 -800 000/00 RMK AO2
94908KDBQ DBQ20071116024010311/16/07 02:40:31  5-MIN KDBQ 160840Z AUTO 20003KT 10SM SCT120 M02/M06 A3009 920 75 -800 200/03 RMK AO2
94908KDBQ DBQ20071116024510311/16/07 02:45:31  5-MIN KDBQ 160845Z AUTO 20004KT 10SM SCT120 M02/M06 A3009 920 78 -900 190/04 RMK AO2
94908KDBQ DBQ20071116025012611/16/07 02:50:31  5-MIN KDBQ 160850Z AUTO 18004KT 10SM SCT120 M02/M06 A3008 930 78 -900 180/04 RMK AO2 SLP199 T10221056 58012
94908KDBQ DBQ20071116025510311/16/07 02:55:31  5-MIN KDBQ 160855Z AUTO 18004KT 10SM BKN120 M02/M06 A3008 930 78 -900 180/04 RMK AO2
94908KDBQ DBQ20071116030010311/16/07 03:00:31  5-MIN KDBQ 160900Z AUTO 18004KT 10SM BKN120 M02/M06 A3008 930 78 -900 180/04 RMK AO2
94908KDBQ DBQ20071116030510311/16/07 03:05:31  5-MIN KDBQ 160905Z AUTO 19004KT 10SM BKN120 M02/M06 A3008 930 78 -900 190/04 RMK AO2
94908KDBQ DBQ20071116031010311/16/07 03:10:31  5-MIN KDBQ 160910Z AUTO 20005KT 10SM BKN120 M02/M05 A3008 930 81 -900 200/05 RMK AO2
94908KDBQ DBQ20071116031510311/16/07 03:15:31  5-MIN KDBQ 160915Z AUTO 21003KT 10SM BKN120 M02/M05 A3008 930 81 -900 210/03 RMK AO2
94908KDBQ DBQ20071116032010311/16/07 03:20:31  5-MIN KDBQ 160920Z AUTO 21003KT 10SM SCT120 M03/M05 A3008 930 85 -900 210/03 RMK AO2
94908KDBQ DBQ20071116032510311/16/07 03:25:31  5-MIN KDBQ 160925Z AUTO 20005KT 10SM SCT120 M02/M05 A3008 930 81 -900 200/05 RMK AO2
94908KDBQ DBQ20071116033010311/16/07 03:30:31  5-MIN KDBQ 160930Z AUTO 20005KT 10SM FEW120 M02/M05 A3007 940 81 -900 200/05 RMK AO2
94908KDBQ DBQ20071116033510311/16/07 03:35:31  5-MIN KDBQ 160935Z AUTO 19005KT 10SM FEW120 M02/M05 A3007 940 81 -900 190/05 RMK AO2
94908KDBQ DBQ20071116034010311/16/07 03:40:31  5-MIN KDBQ 160940Z AUTO 18004KT 10SM FEW120 M02/M06 A3006 950 78 -800 180/04 RMK AO2
94908KDBQ DBQ20071116034510311/16/07 03:45:31  5-MIN KDBQ 160945Z AUTO 18005KT 10SM SCT110 M02/M06 A3006 950 78 -800 180/05 RMK AO2
94908KDBQ DBQ20071116035012011/16/07 03:50:31  5-MIN KDBQ 160950Z AUTO 18004KT 10SM SCT110 M03/M06 A3006 950 81 -900 180/04 RMK AO2 SLP191 T10281056
94908KDBQ DBQ20071116035510311/16/07 03:55:31  5-MIN KDBQ 160955Z AUTO 19004KT 10SM SCT110 M02/M06 A3006 950 78 -800 190/04 RMK AO2
94908KDBQ DBQ20071116040010311/16/07 04:00:31  5-MIN KDBQ 161000Z AUTO 18004KT 10SM SCT110 M02/M06 A3005 950 78 -800 180/04 RMK AO2
94908KDBQ DBQ20071116040510311/16/07 04:05:31  5-MIN KDBQ 161005Z AUTO 19003KT 10SM FEW110 M02/M06 A3005 960 78 -800 180/03 RMK AO2
94908KDBQ DBQ20071116041010311/16/07 04:10:31  5-MIN KDBQ 161010Z AUTO 18004KT 10SM FEW110 M02/M06 A3005 960 78 -800 180/04 RMK AO2
94908KDBQ DBQ20071116041510311/16/07 04:15:31  5-MIN KDBQ 161015Z AUTO 20004KT 10SM FEW110 M02/M06 A3005 960 78 -800 200/04 RMK AO2
94908KDBQ DBQ20071116042010011/16/07 04:20:31  5-MIN KDBQ 161020Z AUTO 20005KT 10SM CLR M02/M06 A3004 960 78 -800 200/05 RMK AO2
94908KDBQ DBQ20071116042510011/16/07 04:25:31  5-MIN KDBQ 161025Z AUTO 18005KT 10SM CLR M02/M06 A3004 970 78 -800 180/05 RMK AO2
94908KDBQ DBQ20071116043010011/16/07 04:30:31  5-MIN KDBQ 161030Z AUTO 18004KT 10SM CLR M02/M06 A3004 970 78 -800 180/04 RMK AO2
94908KDBQ DBQ20071116043510011/16/07 04:35:31  5-MIN KDBQ 161035Z AUTO 18005KT 10SM CLR M02/M06 A3004 970 78 -800 180/05 RMK AO2
94908KDBQ DBQ20071116044010011/16/07 04:40:31  5-MIN KDBQ 161040Z AUTO 18005KT 10SM CLR M02/M06 A3004 970 78 -800 180/05 RMK AO2
94908KDBQ DBQ20071116044510011/16/07 04:45:31  5-MIN KDBQ 161045Z AUTO 18006KT 10SM CLR M02/M06 A3004 970 78 -800 170/06 RMK AO2
94908KDBQ DBQ20071116045011711/16/07 04:50:31  5-MIN KDBQ 161050Z AUTO 17005KT 10SM CLR M02/M06 A3004 970 78 -800 170/05 RMK AO2 SLP184 T10221056
94908KDBQ DBQ20071116045510011/16/07 04:55:31  5-MIN KDBQ 161055Z AUTO 19005KT 10SM CLR M02/M06 A3004 970 78 -800 190/05 RMK AO2
94908KDBQ DBQ20071116050010011/16/07 05:00:31  5-MIN KDBQ 161100Z AUTO 19004KT 10SM CLR M03/M06 A3003 970 81 -900 190/04 RMK AO2
94908KDBQ DBQ20071116050510011/16/07 05:05:31  5-MIN KDBQ 161105Z AUTO 18006KT 10SM CLR M03/M06 A3003 980 78 -900 180/06 RMK AO2
94908KDBQ DBQ20071116051010011/16/07 05:10:31  5-MIN KDBQ 161110Z AUTO 18005KT 10SM CLR M03/M06 A3003 980 78 -900 180/05 RMK AO2
94908KDBQ DBQ20071116051510011/16/07 05:15:31  5-MIN KDBQ 161115Z AUTO 18006KT 10SM CLR M03/M06 A3003 980 78 -900 180/06 RMK AO2
94908KDBQ DBQ20071116052010311/16/07 05:20:31  5-MIN KDBQ 161120Z AUTO 18006KT 10SM FEW110 M02/M06 A3003 980 78 -800 180/06 RMK AO2
94908KDBQ DBQ20071116052510311/16/07 05:25:31  5-MIN KDBQ 161125Z AUTO 18006KT 10SM SCT110 M02/M06 A3002 980 78 -800 180/06 RMK AO2
94908KDBQ DBQ20071116053010311/16/07 05:30:31  5-MIN KDBQ 161130Z AUTO 19007KT 10SM BKN110 M02/M06 A3003 980 78 -800 190/07 RMK AO2
94908KDBQ DBQ20071116053510311/16/07 05:35:31  5-MIN KDBQ 161135Z AUTO 20006KT 10SM BKN120 M02/M06 A3002 980 78 -800 190/06 RMK AO2
94908KDBQ DBQ20071116054010311/16/07 05:40:31  5-MIN KDBQ 161140Z AUTO 19007KT 10SM BKN110 M02/M06 A3002 980 78 -800 190/07 RMK AO2
94908KDBQ DBQ20071116054510311/16/07 05:45:31  5-MIN KDBQ 161145Z AUTO 18007KT 10SM OVC120 M02/M06 A3002 990 75 -700 180/07 RMK AO2
94908KDBQ DBQ20071116055013311/16/07 05:50:31  5-MIN KDBQ 161150Z 18007KT 10SM OVC120 M02/M06 A3002 990 75 -700 180/07 RMK AO2 SLP177 T10171056 11011 21033 58007
94908KDBQ DBQ20071116055509911/16/07 05:55:31  5-MIN KDBQ 161155Z 18007KT 10SM OVC120 M02/M06 A3001 1000 75 -700 170/07 RMK AO2
94908KDBQ DBQ20071116060009911/16/07 06:00:31  5-MIN KDBQ 161200Z 17006KT 10SM OVC120 M02/M06 A3001 1000 75 -700 170/06 RMK AO2
94908KDBQ DBQ20071116060509911/16/07 06:05:31  5-MIN KDBQ 161205Z 17007KT 10SM OVC120 M02/M06 A3000 1000 75 -700 170/07 RMK AO2
94908KDBQ DBQ20071116061009911/16/07 06:10:31  5-MIN KDBQ 161210Z 17007KT 10SM OVC120 M02/M06 A3000 1010 75 -700 170/07 RMK AO2
94908KDBQ DBQ20071116061509911/16/07 06:15:31  5-MIN KDBQ 161215Z 17006KT 10SM OVC120 M02/M06 A3000 1000 75 -700 170/06 RMK AO2
94908KDBQ DBQ20071116062009911/16/07 06:20:31  5-MIN KDBQ 161220Z 17005KT 10SM OVC120 M01/M06 A3000 1000 72 -600 170/05 RMK AO2
94908KDBQ DBQ20071116062509911/16/07 06:25:31  5-MIN KDBQ 161225Z 18005KT 10SM OVC120 M01/M06 A3000 1000 72 -600 180/05 RMK AO2
94908KDBQ DBQ20071116063009911/16/07 06:30:31  5-MIN KDBQ 161230Z 18006KT 10SM OVC120 M01/M06 A3000 1010 72 -600 180/06 RMK AO2
94908KDBQ DBQ20071116063509911/16/07 06:35:31  5-MIN KDBQ 161235Z 16007KT 10SM OVC120 M01/M06 A2998 1020 72 -600 160/07 RMK AO2
94908KDBQ DBQ20071116064009911/16/07 06:40:31  5-MIN KDBQ 161240Z 16009KT 10SM OVC120 M01/M06 A2998 1020 72 -600 160/09 RMK AO2
94908KDBQ DBQ20071116064509911/16/07 06:45:31  5-MIN KDBQ 161245Z 16006KT 10SM OVC120 M01/M06 A2999 1010 72 -600 160/06 RMK AO2
94908KDBQ DBQ20071116065011611/16/07 06:50:31  5-MIN KDBQ 161250Z 16007KT 10SM OVC120 M01/M06 A2999 1010 72 -600 160/07 RMK AO2 SLP168 T10111056
94908KDBQ DBQ20071116065509911/16/07 06:55:31  5-MIN KDBQ 161255Z 16008KT 10SM OVC120 M01/M06 A2999 1020 72 -600 160/08 RMK AO2
94908KDBQ DBQ20071116070009911/16/07 07:00:31  5-MIN KDBQ 161300Z 16007KT 10SM OVC120 M01/M06 A2999 1010 69 -600 160/07 RMK AO2
94908KDBQ DBQ20071116070509911/16/07 07:05:31  5-MIN KDBQ 161305Z 16006KT 10SM OVC120 M01/M06 A3000 1010 69 -600 160/06 RMK AO2
94908KDBQ DBQ20071116071009911/16/07 07:10:31  5-MIN KDBQ 161310Z 16007KT 10SM BKN120 M01/M06 A3000 1010 69 -600 160/07 RMK AO2
94908KDBQ DBQ20071116071509911/16/07 07:15:31  5-MIN KDBQ 161315Z 15007KT 10SM BKN120 M01/M06 A3000 1010 69 -600 150/07 RMK AO2
94908KDBQ DBQ20071116072009911/16/07 07:20:31  5-MIN KDBQ 161320Z 15006KT 10SM SCT120 M01/M06 A3000 1010 69 -600 150/06 RMK AO2
94908KDBQ DBQ20071116072509911/16/07 07:25:31  5-MIN KDBQ 161325Z 15008KT 10SM SCT120 M01/M06 A2999 1010 69 -600 150/08 RMK AO2
94908KDBQ DBQ20071116073009811/16/07 07:30:31  5-MIN KDBQ 161330Z 15007KT 10SM SCT120 00/M06 A2999 1010 66 -500 150/07 RMK AO2
94908KDBQ DBQ20071116073509811/16/07 07:35:31  5-MIN KDBQ 161335Z 16009KT 10SM FEW120 00/M06 A2999 1010 66 -500 160/09 RMK AO2
94908KDBQ DBQ20071116074009811/16/07 07:40:31  5-MIN KDBQ 161340Z 16008KT 10SM SCT120 00/M06 A2999 1010 66 -500 160/08 RMK AO2
94908KDBQ DBQ20071116074509811/16/07 07:45:31  5-MIN KDBQ 161345Z 16009KT 10SM SCT120 00/M06 A2999 1010 66 -500 160/09 RMK AO2
94908KDBQ DBQ20071116075011511/16/07 07:50:31  5-MIN KDBQ 161350Z 16008KT 10SM SCT120 00/M06 A2999 1010 66 -500 160/08 RMK AO2 SLP169 T00001056
94908KDBQ DBQ20071116075509811/16/07 07:55:31  5-MIN KDBQ 161355Z 16008KT 10SM BKN120 00/M06 A2999 1010 66 -500 160/08 RMK AO2
94908KDBQ DBQ20071116080009811/16/07 08:00:31  5-MIN KDBQ 161400Z 16007KT 10SM BKN120 00/M05 A2999 1010 69 -500 160/07 RMK AO2
94908KDBQ DBQ20071116080509811/16/07 08:05:31  5-MIN KDBQ 161405Z 16009KT 10SM SCT120 00/M05 A2999 1010 69 -500 160/09 RMK AO2
94908KDBQ DBQ20071116081009811/16/07 08:10:31  5-MIN KDBQ 161410Z 16010KT 10SM BKN110 01/M05 A2998 1020 66 -400 160/10 RMK AO2
94908KDBQ DBQ20071116081509811/16/07 08:15:31  5-MIN KDBQ 161415Z 16011KT 10SM BKN110 01/M05 A2998 1020 66 -400 160/11 RMK AO2
94908KDBQ DBQ20071116082009811/16/07 08:20:31  5-MIN KDBQ 161420Z 16009KT 10SM BKN110 01/M05 A2998 1020 66 -400 160/09 RMK AO2
94908KDBQ DBQ20071116082509811/16/07 08:25:31  5-MIN KDBQ 161425Z 17009KT 10SM BKN120 01/M05 A2999 1020 66 -400 160/09 RMK AO2
94908KDBQ DBQ20071116083009811/16/07 08:30:31  5-MIN KDBQ 161430Z 16009KT 10SM BKN120 01/M05 A2998 1020 66 -400 160/09 RMK AO2
94908KDBQ DBQ20071116083509811/16/07 08:35:31  5-MIN KDBQ 161435Z 17009KT 10SM BKN120 01/M05 A2999 1020 64 -300 170/09 RMK AO2
94908KDBQ DBQ20071116084009811/16/07 08:40:31  5-MIN KDBQ 161440Z 17010KT 10SM SCT120 01/M05 A2999 1010 64 -300 170/10 RMK AO2
94908KDBQ DBQ20071116084509811/16/07 08:45:31  5-MIN KDBQ 161445Z 17011KT 10SM SCT120 01/M05 A2999 1020 64 -300 170/11 RMK AO2
94908KDBQ DBQ20071116085012111/16/07 08:50:31  5-MIN KDBQ 161450Z 16011KT 10SM BKN110 01/M05 A2999 1020 64 -300 160/11 RMK AO2 SLP166 T00111050 58023
94908KDBQ DBQ20071116085510511/16/07 08:55:31  5-MIN KDBQ 161455Z 17012KT 10SM FEW100 BKN110 01/M05 A2998 1020 64 -300 170/12 RMK AO2
94908KDBQ DBQ20071116090009811/16/07 09:00:31  5-MIN KDBQ 161500Z 17013KT 10SM SCT100 01/M05 A2998 1020 64 -300 170/13 RMK AO2
94908KDBQ DBQ20071116090510511/16/07 09:05:31  5-MIN KDBQ 161505Z 17010KT 10SM FEW100 SCT110 01/M05 A2998 1020 64 -300 170/10 RMK AO2
94908KDBQ DBQ20071116091010511/16/07 09:10:31  5-MIN KDBQ 161510Z 17009KT 10SM FEW100 SCT110 01/M05 A2998 1020 64 -300 170/09 RMK AO2
94908KDBQ DBQ20071116091510511/16/07 09:15:31  5-MIN KDBQ 161515Z 17012KT 10SM FEW100 SCT110 02/M05 A2998 1030 61 -300 160/12 RMK AO2
94908KDBQ DBQ20071116092009811/16/07 09:20:31  5-MIN KDBQ 161520Z 17012KT 10SM FEW100 02/M05 A2997 1030 61 -300 170/12 RMK AO2
94908KDBQ DBQ20071116092509811/16/07 09:25:31  5-MIN KDBQ 161525Z 17014KT 10SM FEW120 02/M05 A2997 1030 61 -200 170/14 RMK AO2
94908KDBQ DBQ20071116093009811/16/07 09:30:31  5-MIN KDBQ 161530Z 17012KT 10SM FEW120 02/M05 A2996 1040 61 -200 170/12 RMK AO2
94908KDBQ DBQ20071116093509811/16/07 09:35:31  5-MIN KDBQ 161535Z 17013KT 10SM FEW120 02/M05 A2996 1040 61 -200 170/13 RMK AO2
94908KDBQ DBQ20071116094009811/16/07 09:40:31  5-MIN KDBQ 161540Z 17012KT 10SM SCT120 02/M04 A2996 1040 61 -200 170/12 RMK AO2
94908KDBQ DBQ20071116094509811/16/07 09:45:31  5-MIN KDBQ 161545Z 17014KT 10SM SCT120 02/M05 A2996 1040 59 -200 170/14 RMK AO2
94908KDBQ DBQ20071116095012111/16/07 09:50:31  5-MIN KDBQ 161550Z 17014G21KT 10SM SCT120 02/M05 A2996 1050 59 -200 170/14G21 RMK AO2 SLP155 T00221050
94908KDBQ DBQ20071116095510411/16/07 09:55:31  5-MIN KDBQ 161555Z 17015G21KT 10SM FEW120 03/M05 A2995 1050 56 -100 170/15G21 RMK AO2
94908KDBQ DBQ20071116100009811/16/07 10:00:31  5-MIN KDBQ 161600Z 17014KT 10SM FEW120 03/M05 A2995 1050 56 -100 170/14 RMK AO2
94908KDBQ DBQ20071116100509811/16/07 10:05:31  5-MIN KDBQ 161605Z 17016KT 10SM FEW120 03/M05 A2995 1060 56 -100 170/16 RMK AO2
94908KDBQ DBQ20071116101009811/16/07 10:10:31  5-MIN KDBQ 161610Z 17013KT 10SM FEW120 03/M05 A2994 1060 56 -100 160/13 RMK AO2
94908KDBQ DBQ20071116101510111/16/07 10:15:31  5-MIN KDBQ 161615Z 16016G20KT 10SM CLR 03/M05 A2994 1060 56 -100 160/16G20 RMK AO2
94908KDBQ DBQ20071116102010111/16/07 10:20:31  5-MIN KDBQ 161620Z 17015G20KT 10SM CLR 03/M05 A2994 1060 56 -100 170/15G20 RMK AO2
94908KDBQ DBQ20071116102509511/16/07 10:25:31  5-MIN KDBQ 161625Z 17015KT 10SM FEW120 03/M04 A2993 1070 57 0 160/15 RMK AO2
94908KDBQ DBQ20071116103009511/16/07 10:30:31  5-MIN KDBQ 161630Z 16015KT 10SM FEW120 03/M05 A2993 1070 54 0 160/15 RMK AO2
94908KDBQ DBQ20071116103509511/16/07 10:35:31  5-MIN KDBQ 161635Z 16013KT 10SM FEW120 03/M04 A2993 1070 57 0 160/13 RMK AO2
94908KDBQ DBQ20071116104009511/16/07 10:40:31  5-MIN KDBQ 161640Z 16014KT 10SM SCT120 04/M04 A2992 1080 54 0 160/14 RMK AO2
94908KDBQ DBQ20071116104509511/16/07 10:45:31  5-MIN KDBQ 161645Z 16015KT 10SM SCT120 04/M05 A2992 1080 52 0 160/15 RMK AO2
94908KDBQ DBQ20071116105011211/16/07 10:50:31  5-MIN KDBQ 161650Z 16013KT 10SM SCT120 04/M04 A2991 1090 54 0 160/13 RMK AO2 SLP139 T00391044
94908KDBQ DBQ20071116105510311/16/07 10:55:31  5-MIN KDBQ 161655Z 16016G20KT 10SM SCT120 05/M04 A2991 1090 50 200 160/16G20 RMK AO2
94908KDBQ DBQ20071116110011011/16/07 11:00:31  5-MIN KDBQ 161700Z 16017G23KT 10SM SCT120 05/M05 A2990 1100 48 200 160/17G23 RMK AO2 PRESFR
94908KDBQ DBQ20071116110510311/16/07 11:05:31  5-MIN KDBQ 161705Z 16015G23KT 10SM FEW120 05/M04 A2989 1100 50 200 160/15G23 RMK AO2
94908KDBQ DBQ20071116111010311/16/07 11:10:31  5-MIN KDBQ 161710Z 15017G23KT 10SM FEW120 05/M04 A2989 1110 50 200 150/17G23 RMK AO2
94908KDBQ DBQ20071116111510311/16/07 11:15:31  5-MIN KDBQ 161715Z 16016G21KT 10SM FEW120 05/M05 A2989 1110 48 200 160/16G21 RMK AO2
94908KDBQ DBQ20071116112010011/16/07 11:20:31  5-MIN KDBQ 161720Z 16018G23KT 10SM CLR 05/M04 A2988 1110 50 200 160/18G23 RMK AO2
94908KDBQ DBQ20071116112510011/16/07 11:25:31  5-MIN KDBQ 161725Z 16015G23KT 10SM CLR 06/M05 A2988 1120 46 300 160/15G23 RMK AO2
94908KDBQ DBQ20071116113010011/16/07 11:30:31  5-MIN KDBQ 161730Z 17015G23KT 10SM CLR 06/M05 A2988 1120 46 300 170/15G23 RMK AO2
94908KDBQ DBQ20071116113509411/16/07 11:35:31  5-MIN KDBQ 161735Z 16016KT 10SM CLR 06/M05 A2987 1120 46 300 160/16 RMK AO2
94908KDBQ DBQ20071116114010011/16/07 11:40:31  5-MIN KDBQ 161740Z 17018G24KT 10SM CLR 07/M05 A2986 1130 43 400 170/18G24 RMK AO2
94908KDBQ DBQ20071116114511011/16/07 11:45:31  5-MIN KDBQ 161745Z 17017G24KT 10SM FEW120 07/M06 A2985 1140 41 500 160/17G24 RMK AO2 PRESFR
94908KDBQ DBQ20071116115014511/16/07 11:50:31  5-MIN KDBQ 161750Z 16017G24KT 10SM FEW120 06/M06 A2985 1150 43 400 160/17G24 RMK AO2 PRESFR SLP116 T00611056 10067 21017 56008
94908KDBQ DBQ20071116115510311/16/07 11:55:31  5-MIN KDBQ 161755Z 16019G25KT 10SM FEW120 07/M06 A2984 1150 41 500 160/19G25 RMK AO2
94908KDBQ DBQ20071116120010311/16/07 12:00:31  5-MIN KDBQ 161800Z 17021G25KT 10SM FEW120 07/M06 A2984 1160 41 500 160/21G25 RMK AO2
94908KDBQ DBQ20071116120511811/16/07 12:05:31  5-MIN KDBQ 161805Z 17020G26KT 10SM CLR 07/M06 A2984 1160 41 500 170/20G26 RMK AO2 PK WND 17026/1804
94908KDBQ DBQ20071116121011811/16/07 12:10:31  5-MIN KDBQ 161810Z 17017G26KT 10SM CLR 07/M05 A2983 1160 43 500 170/17G26 RMK AO2 PK WND 17026/1804
94908KDBQ DBQ20071116121511811/16/07 12:15:31  5-MIN KDBQ 161815Z 17017G25KT 10SM CLR 07/M05 A2983 1160 41 500 170/17G25 RMK AO2 PK WND 17026/1804
94908KDBQ DBQ20071116122011811/16/07 12:20:31  5-MIN KDBQ 161820Z 16018G25KT 10SM CLR 07/M05 A2982 1170 43 500 160/18G25 RMK AO2 PK WND 17026/1804
94908KDBQ DBQ20071116122511811/16/07 12:25:31  5-MIN KDBQ 161825Z 16015G25KT 10SM CLR 07/M05 A2982 1170 41 600 160/15G25 RMK AO2 PK WND 17026/1804
94908KDBQ DBQ20071116123011811/16/07 12:30:31  5-MIN KDBQ 161830Z 17021G26KT 10SM CLR 07/M05 A2981 1180 41 600 160/21G26 RMK AO2 PK WND 17026/1830
94908KDBQ DBQ20071116123511811/16/07 12:35:31  5-MIN KDBQ 161835Z 17018G26KT 10SM CLR 07/M06 A2981 1180 40 600 170/18G26 RMK AO2 PK WND 16026/1832
94908KDBQ DBQ20071116124011811/16/07 12:40:31  5-MIN KDBQ 161840Z 17018G26KT 10SM CLR 07/M05 A2981 1180 41 600 170/18G26 RMK AO2 PK WND 17026/1837
94908KDBQ DBQ20071116124511811/16/07 12:45:31  5-MIN KDBQ 161845Z 17022G27KT 10SM CLR 08/M05 A2981 1180 40 600 170/22G27 RMK AO2 PK WND 17027/1845
94908KDBQ DBQ20071116125013511/16/07 12:50:31  5-MIN KDBQ 161850Z 16020G27KT 10SM CLR 07/M05 A2981 1180 41 600 160/20G27 RMK AO2 PK WND 17027/1845 SLP103 T00721050
94908KDBQ DBQ20071116125510011/16/07 12:55:31  5-MIN KDBQ 161855Z 17019G26KT 10SM CLR 07/M05 A2980 1190 41 600 170/19G26 RMK AO2
94908KDBQ DBQ20071116130010011/16/07 13:00:31  5-MIN KDBQ 161900Z 17020G25KT 10SM CLR 08/M05 A2980 1190 40 600 170/20G25 RMK AO2
94908KDBQ DBQ20071116130510011/16/07 13:05:31  5-MIN KDBQ 161905Z 17018G25KT 10SM CLR 08/M05 A2979 1200 40 700 170/18G25 RMK AO2
94908KDBQ DBQ20071116131010011/16/07 13:10:31  5-MIN KDBQ 161910Z 17018G25KT 10SM CLR 08/M05 A2979 1200 40 700 170/18G25 RMK AO2
94908KDBQ DBQ20071116131510011/16/07 13:15:31  5-MIN KDBQ 161915Z 17016G25KT 10SM CLR 08/M05 A2979 1200 38 700 170/16G25 RMK AO2
94908KDBQ DBQ20071116132011811/16/07 13:20:31  5-MIN KDBQ 161920Z 18019G27KT 10SM CLR 08/M05 A2978 1200 38 700 180/19G27 RMK AO2 PK WND 18027/1918
94908KDBQ DBQ20071116132511811/16/07 13:25:31  5-MIN KDBQ 161925Z 18018G27KT 10SM CLR 09/M06 A2978 1210 35 800 180/18G27 RMK AO2 PK WND 18027/1922
94908KDBQ DBQ20071116133011811/16/07 13:30:31  5-MIN KDBQ 161930Z 18019G27KT 10SM CLR 09/M06 A2978 1210 34 900 180/19G27 RMK AO2 PK WND 18027/1922
94908KDBQ DBQ20071116133511811/16/07 13:35:31  5-MIN KDBQ 161935Z 17017G25KT 10SM CLR 09/M06 A2978 1210 33 900 170/17G25 RMK AO2 PK WND 18027/1922
94908KDBQ DBQ20071116134011811/16/07 13:40:31  5-MIN KDBQ 161940Z 18019G28KT 10SM CLR 09/M06 A2978 1210 34 900 180/19G28 RMK AO2 PK WND 18028/1940
94908KDBQ DBQ20071116134511811/16/07 13:45:31  5-MIN KDBQ 161945Z 18015G28KT 10SM CLR 09/M06 A2978 1210 34 800 180/15G28 RMK AO2 PK WND 18028/1940
94908KDBQ DBQ20071116135013511/16/07 13:50:31  5-MIN KDBQ 161950Z 18018G22KT 10SM CLR 09/M06 A2978 1210 34 800 180/18G22 RMK AO2 PK WND 18028/1940 SLP093 T00891061
94908KDBQ DBQ20071116135510011/16/07 13:55:31  5-MIN KDBQ 161955Z 18015G22KT 10SM CLR 09/M06 A2978 1210 34 800 180/15G22 RMK AO2
94908KDBQ DBQ20071116140010011/16/07 14:00:31  5-MIN KDBQ 162000Z 19018G25KT 10SM CLR 09/M06 A2977 1220 34 800 190/18G25 RMK AO2
94908KDBQ DBQ20071116140510011/16/07 14:05:31  5-MIN KDBQ 162005Z 18018G25KT 10SM CLR 09/M06 A2977 1220 35 800 180/18G25 RMK AO2
94908KDBQ DBQ20071116141009411/16/07 14:10:31  5-MIN KDBQ 162010Z 18014KT 10SM CLR 09/M06 A2977 1220 34 900 180/14 RMK AO2
94908KDBQ DBQ20071116141510011/16/07 14:15:31  5-MIN KDBQ 162015Z 19019G23KT 10SM CLR 09/M06 A2976 1220 34 900 190/19G23 RMK AO2
94908KDBQ DBQ20071116142010011/16/07 14:20:31  5-MIN KDBQ 162020Z 20017G24KT 10SM CLR 09/M06 A2977 1220 34 900 200/17G24 RMK AO2
94908KDBQ DBQ20071116142510011/16/07 14:25:31  5-MIN KDBQ 162025Z 20018G24KT 10SM CLR 09/M06 A2977 1220 34 900 200/18G24 RMK AO2
94908KDBQ DBQ20071116143010011/16/07 14:30:31  5-MIN KDBQ 162030Z 21016G24KT 10SM CLR 09/M06 A2977 1220 34 900 210/16G24 RMK AO2
94908KDBQ DBQ20071116143510011/16/07 14:35:31  5-MIN KDBQ 162035Z 20014G24KT 10SM CLR 09/M06 A2977 1220 34 900 200/14G24 RMK AO2
94908KDBQ DBQ20071116144009411/16/07 14:40:31  5-MIN KDBQ 162040Z 19014KT 10SM CLR 09/M06 A2977 1220 34 900 190/14 RMK AO2
94908KDBQ DBQ20071116144509411/16/07 14:45:31  5-MIN KDBQ 162045Z 19015KT 10SM CLR 09/M05 A2977 1220 35 900 190/15 RMK AO2
94908KDBQ DBQ20071116145012311/16/07 14:50:31  5-MIN KDBQ 162050Z 18017G20KT 10SM CLR 09/M06 A2977 1220 34 900 180/17G20 RMK AO2 SLP089 T00941056 58047
94908KDBQ DBQ20071116145509411/16/07 14:55:31  5-MIN KDBQ 162055Z 18015KT 10SM CLR 09/M06 A2977 1220 34 900 180/15 RMK AO2
94908KDBQ DBQ20071116150009411/16/07 15:00:31  5-MIN KDBQ 162100Z 20014KT 10SM CLR 09/M05 A2977 1220 35 900 200/14 RMK AO2
94908KDBQ DBQ20071116150509411/16/07 15:05:31  5-MIN KDBQ 162105Z 19013KT 10SM CLR 09/M05 A2977 1220 35 900 190/13 RMK AO2
94908KDBQ DBQ20071116151010011/16/07 15:10:31  5-MIN KDBQ 162110Z 19014G19KT 10SM CLR 10/M05 A2977 1220 34 900 190/14G19 RMK AO2
94908KDBQ DBQ20071116151509411/16/07 15:15:31  5-MIN KDBQ 162115Z 18013KT 10SM CLR 09/M05 A2977 1220 35 900 180/13 RMK AO2
94908KDBQ DBQ20071116152009411/16/07 15:20:31  5-MIN KDBQ 162120Z 19013KT 10SM CLR 09/M05 A2977 1220 35 900 190/13 RMK AO2
94908KDBQ DBQ20071116152510011/16/07 15:25:31  5-MIN KDBQ 162125Z 19014G20KT 10SM CLR 09/M06 A2977 1220 34 900 190/14G20 RMK AO2
94908KDBQ DBQ20071116153010011/16/07 15:30:31  5-MIN KDBQ 162130Z 19012G20KT 10SM CLR 09/M05 A2977 1220 35 900 190/12G20 RMK AO2
94908KDBQ DBQ20071116153509411/16/07 15:35:31  5-MIN KDBQ 162135Z 18010KT 10SM CLR 09/M05 A2977 1220 37 800 180/10 RMK AO2
94908KDBQ DBQ20071116154009411/16/07 15:40:31  5-MIN KDBQ 162140Z 18010KT 10SM CLR 09/M05 A2977 1220 37 800 180/10 RMK AO2
94908KDBQ DBQ20071116154509411/16/07 15:45:31  5-MIN KDBQ 162145Z 18011KT 10SM CLR 09/M05 A2977 1220 37 800 180/11 RMK AO2
94908KDBQ DBQ20071116155011111/16/07 15:50:31  5-MIN KDBQ 162150Z 18010KT 10SM CLR 09/M05 A2977 1220 37 800 170/10 RMK AO2 SLP089 T00891050
94908KDBQ DBQ20071116155509411/16/07 15:55:31  5-MIN KDBQ 162155Z 18008KT 10SM CLR 09/M05 A2977 1220 37 800 180/08 RMK AO2
94908KDBQ DBQ20071116160009411/16/07 16:00:31  5-MIN KDBQ 162200Z 18009KT 10SM CLR 09/M05 A2977 1220 37 800 180/09 RMK AO2
94908KDBQ DBQ20071116160509411/16/07 16:05:31  5-MIN KDBQ 162205Z 18009KT 10SM CLR 09/M05 A2977 1210 37 800 170/09 RMK AO2
94908KDBQ DBQ20071116161009411/16/07 16:10:31  5-MIN KDBQ 162210Z 17009KT 10SM CLR 09/M05 A2978 1210 37 800 170/09 RMK AO2
94908KDBQ DBQ20071116161509411/16/07 16:15:31  5-MIN KDBQ 162215Z 17008KT 10SM CLR 08/M05 A2978 1210 38 700 160/08 RMK AO2
94908KDBQ DBQ20071116162009411/16/07 16:20:31  5-MIN KDBQ 162220Z 17008KT 10SM CLR 08/M04 A2978 1210 41 700 160/08 RMK AO2
94908KDBQ DBQ20071116162509411/16/07 16:25:31  5-MIN KDBQ 162225Z 17007KT 10SM CLR 08/M04 A2978 1210 41 700 170/07 RMK AO2
94908KDBQ DBQ20071116163009411/16/07 16:30:31  5-MIN KDBQ 162230Z 17007KT 10SM CLR 07/M04 A2978 1210 43 600 170/07 RMK AO2
94908KDBQ DBQ20071116163509411/16/07 16:35:31  5-MIN KDBQ 162235Z 17007KT 10SM CLR 07/M04 A2978 1210 45 500 170/07 RMK AO2
94908KDBQ DBQ20071116164009411/16/07 16:40:31  5-MIN KDBQ 162240Z 16007KT 10SM CLR 07/M04 A2978 1210 45 500 160/07 RMK AO2
94908KDBQ DBQ20071116164509411/16/07 16:45:31  5-MIN KDBQ 162245Z 15006KT 10SM CLR 06/M04 A2978 1210 46 500 150/06 RMK AO2
94908KDBQ DBQ20071116165011111/16/07 16:50:31  5-MIN KDBQ 162250Z 15006KT 10SM CLR 07/M04 A2978 1210 45 500 150/06 RMK AO2 SLP094 T00671044
94908KDBQ DBQ20071116165509411/16/07 16:55:31  5-MIN KDBQ 162255Z 15008KT 10SM CLR 06/M04 A2978 1210 46 500 150/08 RMK AO2
94908KDBQ DBQ20071116170009411/16/07 17:00:31  5-MIN KDBQ 162300Z 16008KT 10SM CLR 06/M04 A2978 1210 46 500 160/08 RMK AO2
94908KDBQ DBQ20071116170509411/16/07 17:05:31  5-MIN KDBQ 162305Z 16007KT 10SM CLR 06/M04 A2978 1210 48 400 160/07 RMK AO2
94908KDBQ DBQ20071116171009411/16/07 17:10:31  5-MIN KDBQ 162310Z 15008KT 10SM CLR 06/M05 A2978 1210 46 400 150/08 RMK AO2
94908KDBQ DBQ20071116171509411/16/07 17:15:31  5-MIN KDBQ 162315Z 15007KT 10SM CLR 05/M04 A2978 1210 50 300 150/07 RMK AO2
94908KDBQ DBQ20071116172009411/16/07 17:20:31  5-MIN KDBQ 162320Z 14006KT 10SM CLR 06/M05 A2978 1210 46 400 140/06 RMK AO2
94908KDBQ DBQ20071116172509411/16/07 17:25:31  5-MIN KDBQ 162325Z 15008KT 10SM CLR 05/M04 A2977 1210 50 300 150/08 RMK AO2
94908KDBQ DBQ20071116173009411/16/07 17:30:31  5-MIN KDBQ 162330Z 15008KT 10SM CLR 05/M04 A2977 1210 50 300 150/08 RMK AO2
94908KDBQ DBQ20071116173509411/16/07 17:35:31  5-MIN KDBQ 162335Z 15009KT 10SM CLR 06/M05 A2977 1210 46 400 140/09 RMK AO2
94908KDBQ DBQ20071116174009411/16/07 17:40:31  5-MIN KDBQ 162340Z 14009KT 10SM CLR 05/M04 A2977 1210 50 300 140/09 RMK AO2
94908KDBQ DBQ20071116174509411/16/07 17:45:31  5-MIN KDBQ 162345Z 14008KT 10SM CLR 05/M05 A2978 1210 48 300 140/08 RMK AO2
94908KDBQ DBQ20071116175012911/16/07 17:50:31  5-MIN KDBQ 162350Z 15009KT 10SM CLR 04/M05 A2977 1210 50 300 150/09 RMK AO2 SLP093 T00441050 10100 20044 56025
94908KDBQ DBQ20071116175509411/16/07 17:55:31  5-MIN KDBQ 162355Z 15008KT 10SM CLR 04/M05 A2977 1210 50 300 150/08 RMK AO2
94908KDBQ DBQ20071116180009411/16/07 18:00:31  5-MIN KDBQ 170000Z 15008KT 10SM CLR 05/M05 A2978 1210 48 300 150/08 RMK AO2
94908KDBQ DBQ20071116180509411/16/07 18:05:31  5-MIN KDBQ 170005Z 15007KT 10SM CLR 04/M05 A2977 1210 50 300 150/07 RMK AO2
94908KDBQ DBQ20071116181009411/16/07 18:10:31  5-MIN KDBQ 170010Z 15008KT 10SM CLR 04/M04 A2977 1210 54 200 150/08 RMK AO2
94908KDBQ DBQ20071116181509411/16/07 18:15:31  5-MIN KDBQ 170015Z 14008KT 10SM CLR 04/M05 A2978 1210 50 300 140/08 RMK AO2
94908KDBQ DBQ20071116182009411/16/07 18:20:31  5-MIN KDBQ 170020Z 14009KT 10SM CLR 04/M05 A2978 1210 52 200 140/09 RMK AO2
94908KDBQ DBQ20071116182509411/16/07 18:25:31  5-MIN KDBQ 170025Z 14008KT 10SM CLR 04/M05 A2978 1210 52 200 140/08 RMK AO2
94908KDBQ DBQ20071116183009411/16/07 18:30:31  5-MIN KDBQ 170030Z 15009KT 10SM CLR 04/M05 A2978 1210 52 200 150/09 RMK AO2
94908KDBQ DBQ20071116183509411/16/07 18:35:31  5-MIN KDBQ 170035Z 15009KT 10SM CLR 04/M05 A2977 1210 52 200 140/09 RMK AO2
94908KDBQ DBQ20071116184009411/16/07 18:40:31  5-MIN KDBQ 170040Z 15009KT 10SM CLR 04/M05 A2977 1220 52 200 150/09 RMK AO2
94908KDBQ DBQ20071116184509411/16/07 18:45:31  5-MIN KDBQ 170045Z 15009KT 10SM CLR 04/M05 A2977 1220 52 200 150/09 RMK AO2
94908KDBQ DBQ20071116185011111/16/07 18:50:31  5-MIN KDBQ 170050Z 15007KT 10SM CLR 04/M05 A2977 1220 52 200 150/07 RMK AO2 SLP092 T00391050
94908KDBQ DBQ20071116185509411/16/07 18:55:31  5-MIN KDBQ 170055Z 15008KT 10SM CLR 04/M05 A2977 1220 52 200 150/08 RMK AO2
94908KDBQ DBQ20071116190009411/16/07 19:00:31  5-MIN KDBQ 170100Z 14009KT 10SM CLR 04/M05 A2977 1220 52 200 140/09 RMK AO2
94908KDBQ DBQ20071116190509411/16/07 19:05:31  5-MIN KDBQ 170105Z 14008KT 10SM CLR 03/M05 A2977 1210 54 100 140/08 RMK AO2
94908KDBQ DBQ20071116191009411/16/07 19:10:31  5-MIN KDBQ 170110Z 14008KT 10SM CLR 03/M05 A2977 1210 54 100 140/08 RMK AO2
94908KDBQ DBQ20071116191509411/16/07 19:15:31  5-MIN KDBQ 170115Z 15008KT 10SM CLR 03/M05 A2977 1220 54 100 150/08 RMK AO2
94908KDBQ DBQ20071116192009411/16/07 19:20:31  5-MIN KDBQ 170120Z 15008KT 10SM CLR 04/M05 A2977 1220 52 200 150/08 RMK AO2
94908KDBQ DBQ20071116192509411/16/07 19:25:31  5-MIN KDBQ 170125Z 15008KT 10SM CLR 04/M05 A2977 1220 52 200 150/08 RMK AO2
94908KDBQ DBQ20071116193009411/16/07 19:30:31  5-MIN KDBQ 170130Z 14009KT 10SM CLR 03/M05 A2977 1220 54 100 140/09 RMK AO2
94908KDBQ DBQ20071116193509411/16/07 19:35:31  5-MIN KDBQ 170135Z 15008KT 10SM CLR 03/M05 A2977 1220 54 100 150/08 RMK AO2
94908KDBQ DBQ20071116194009411/16/07 19:40:31  5-MIN KDBQ 170140Z 14008KT 10SM CLR 03/M05 A2977 1220 54 100 140/08 RMK AO2
94908KDBQ DBQ20071116194509911/16/07 19:45:31  5-MIN KDBQ 170145Z AUTO 14007KT 10SM CLR 03/M05 A2977 1220 56 100 140/07 RMK AO2
94908KDBQ DBQ20071116195011611/16/07 19:50:31  5-MIN KDBQ 170150Z AUTO 15007KT 10SM CLR 03/M05 A2977 1220 56 100 150/07 RMK AO2 SLP091 T00281050
94908KDBQ DBQ20071116195509911/16/07 19:55:31  5-MIN KDBQ 170155Z AUTO 15007KT 10SM CLR 03/M05 A2977 1220 54 100 150/07 RMK AO2
94908KDBQ DBQ20071116200009911/16/07 20:00:31  5-MIN KDBQ 170200Z AUTO 15006KT 10SM CLR 03/M05 A2977 1220 54 100 150/06 RMK AO2
94908KDBQ DBQ20071116200509911/16/07 20:05:31  5-MIN KDBQ 170205Z AUTO 15006KT 10SM CLR 03/M05 A2977 1220 54 100 150/06 RMK AO2
94908KDBQ DBQ20071116201009911/16/07 20:10:31  5-MIN KDBQ 170210Z AUTO 16005KT 10SM CLR 03/M05 A2977 1220 54 100 160/05 RMK AO2
94908KDBQ DBQ20071116201509911/16/07 20:15:31  5-MIN KDBQ 170215Z AUTO 17005KT 10SM CLR 03/M05 A2977 1220 54 100 170/05 RMK AO2
94908KDBQ DBQ20071116202009711/16/07 20:20:31  5-MIN KDBQ 170220Z AUTO 17004KT 10SM CLR 02/M05 A2977 1220 59 0 170/04 RMK AO2
94908KDBQ DBQ20071116202509711/16/07 20:25:31  5-MIN KDBQ 170225Z AUTO 18003KT 10SM CLR 02/M05 A2977 1220 61 0 180/03 RMK AO2
94908KDBQ DBQ20071116203009711/16/07 20:30:31  5-MIN KDBQ 170230Z AUTO 17003KT 10SM CLR 02/M05 A2977 1220 59 0 160/03 RMK AO2
94908KDBQ DBQ20071116203509711/16/07 20:35:31  5-MIN KDBQ 170235Z AUTO 19003KT 10SM CLR 02/M05 A2977 1220 61 0 190/03 RMK AO2
94908KDBQ DBQ20071116204009711/16/07 20:40:31  5-MIN KDBQ 170240Z AUTO 00000KT 10SM CLR 02/M05 A2977 1220 61 0 000/00 RMK AO2
94908KDBQ DBQ20071116204509711/16/07 20:45:31  5-MIN KDBQ 170245Z AUTO 00000KT 10SM CLR 02/M05 A2977 1220 61 0 000/00 RMK AO2
94908KDBQ DBQ20071116205012011/16/07 20:50:31  5-MIN KDBQ 170250Z AUTO 00000KT 10SM CLR 02/M05 A2977 1220 61 0 000/00 RMK AO2 SLP091 T00171050 50002
94908KDBQ DBQ20071116205509711/16/07 20:55:31  5-MIN KDBQ 170255Z AUTO 00000KT 10SM CLR 02/M05 A2977 1220 59 0 000/00 RMK AO2
94908KDBQ DBQ20071116210009711/16/07 21:00:31  5-MIN KDBQ 170300Z AUTO 00000KT 10SM CLR 02/M05 A2977 1220 59 0 000/00 RMK AO2
94908KDBQ DBQ20071116210509711/16/07 21:05:31  5-MIN KDBQ 170305Z AUTO 19003KT 10SM CLR 02/M05 A2977 1220 59 0 180/03 RMK AO2
94908KDBQ DBQ20071116211009711/16/07 21:10:31  5-MIN KDBQ 170310Z AUTO 17003KT 10SM CLR 02/M05 A2977 1220 59 0 170/03 RMK AO2
94908KDBQ DBQ20071116211509711/16/07 21:15:31  5-MIN KDBQ 170315Z AUTO 00000KT 10SM CLR 02/M05 A2977 1220 59 0 000/00 RMK AO2
94908KDBQ DBQ20071116212009711/16/07 21:20:31  5-MIN KDBQ 170320Z AUTO 00000KT 10SM CLR 02/M05 A2977 1220 59 0 000/00 RMK AO2
94908KDBQ DBQ20071116212509711/16/07 21:25:31  5-MIN KDBQ 170325Z AUTO 17003KT 10SM CLR 02/M05 A2977 1220 61 0 170/03 RMK AO2
94908KDBQ DBQ20071116213009711/16/07 21:30:31  5-MIN KDBQ 170330Z AUTO 00000KT 10SM CLR 02/M05 A2977 1220 59 0 000/00 RMK AO2
94908KDBQ DBQ20071116213509711/16/07 21:35:31  5-MIN KDBQ 170335Z AUTO 00000KT 10SM CLR 02/M05 A2977 1220 59 0 000/00 RMK AO2
94908KDBQ DBQ20071116214009711/16/07 21:40:31  5-MIN KDBQ 170340Z AUTO 00000KT 10SM CLR 02/M05 A2977 1220 59 0 000/00 RMK AO2
94908KDBQ DBQ20071116214510011/16/07 21:45:31  5-MIN KDBQ 170345Z AUTO 00000KT 10SM CLR 01/M05 A2977 1220 64 -100 000/00 RMK AO2
94908KDBQ DBQ20071116215011411/16/07 21:50:31  5-MIN KDBQ 170350Z AUTO 00000KT 10SM CLR 02/M05 A2977 1220 61 0 000/00 RMK AO2 SLP089 T00171050
94908KDBQ DBQ20071116215509711/16/07 21:55:31  5-MIN KDBQ 170355Z AUTO 00000KT 10SM CLR 02/M05 A2977 1220 61 0 000/00 RMK AO2
94908KDBQ DBQ20071116220010011/16/07 22:00:31  5-MIN KDBQ 170400Z AUTO 00000KT 10SM CLR 01/M05 A2977 1220 64 -100 000/00 RMK AO2
94908KDBQ DBQ20071116220509711/16/07 22:05:31  5-MIN KDBQ 170405Z AUTO 00000KT 10SM CLR 02/M05 A2977 1220 61 0 000/00 RMK AO2
94908KDBQ DBQ20071116221009711/16/07 22:10:31  5-MIN KDBQ 170410Z AUTO 00000KT 10SM CLR 02/M05 A2977 1220 61 0 000/00 RMK AO2
94908KDBQ DBQ20071116221509711/16/07 22:15:31  5-MIN KDBQ 170415Z AUTO 00000KT 10SM CLR 02/M05 A2977 1220 61 0 000/00 RMK AO2
94908KDBQ DBQ20071116222009711/16/07 22:20:31  5-MIN KDBQ 170420Z AUTO 00000KT 10SM CLR 02/M05 A2977 1220 59 0 000/00 RMK AO2
94908KDBQ DBQ20071116222509711/16/07 22:25:31  5-MIN KDBQ 170425Z AUTO 00000KT 10SM CLR 02/M05 A2977 1220 59 0 000/00 RMK AO2
94908KDBQ DBQ20071116223009711/16/07 22:30:31  5-MIN KDBQ 170430Z AUTO 16003KT 10SM CLR 02/M05 A2976 1220 59 0 160/03 RMK AO2
94908KDBQ DBQ20071116223509911/16/07 22:35:31  5-MIN KDBQ 170435Z AUTO 00000KT 10SM CLR 03/M05 A2976 1230 56 100 000/00 RMK AO2
94908KDBQ DBQ20071116224009711/16/07 22:40:31  5-MIN KDBQ 170440Z AUTO 14003KT 10SM CLR 02/M05 A2976 1230 59 0 140/03 RMK AO2
94908KDBQ DBQ20071116224509711/16/07 22:45:31  5-MIN KDBQ 170445Z AUTO 00000KT 10SM CLR 02/M05 A2976 1230 59 0 000/00 RMK AO2
94908KDBQ DBQ20071116225011411/16/07 22:50:31  5-MIN KDBQ 170450Z AUTO 00000KT 10SM CLR 02/M05 A2976 1230 59 0 000/00 RMK AO2 SLP085 T00221050
94908KDBQ DBQ20071116225509711/16/07 22:55:31  5-MIN KDBQ 170455Z AUTO 14003KT 10SM CLR 02/M05 A2976 1230 59 0 140/03 RMK AO2
94908KDBQ DBQ20071116230009711/16/07 23:00:31  5-MIN KDBQ 170500Z AUTO 14003KT 10SM CLR 02/M05 A2975 1230 59 0 140/03 RMK AO2
94908KDBQ DBQ20071116230509711/16/07 23:05:31  5-MIN KDBQ 170505Z AUTO 14003KT 10SM CLR 02/M05 A2975 1230 59 0 140/03 RMK AO2
94908KDBQ DBQ20071116231009711/16/07 23:10:31  5-MIN KDBQ 170510Z AUTO 00000KT 10SM CLR 02/M05 A2975 1230 61 0 000/00 RMK AO2
94908KDBQ DBQ20071116231510011/16/07 23:15:31  5-MIN KDBQ 170515Z AUTO 00000KT 10SM CLR 01/M05 A2975 1230 64 -100 000/00 RMK AO2
94908KDBQ DBQ20071116232010011/16/07 23:20:31  5-MIN KDBQ 170520Z AUTO 00000KT 10SM CLR 00/M05 A2975 1230 69 -200 000/00 RMK AO2
94908KDBQ DBQ20071116232510011/16/07 23:25:31  5-MIN KDBQ 170525Z AUTO 00000KT 10SM CLR 01/M05 A2975 1230 66 -100 000/00 RMK AO2
94908KDBQ DBQ20071116233010011/16/07 23:30:31  5-MIN KDBQ 170530Z AUTO 10004KT 10SM CLR 01/M05 A2975 1230 66 -100 100/04 RMK AO2
94908KDBQ DBQ20071116233509711/16/07 23:35:31  5-MIN KDBQ 170535Z AUTO 00000KT 10SM CLR 02/M05 A2975 1230 61 0 000/00 RMK AO2
94908KDBQ DBQ20071116234010011/16/07 23:40:31  5-MIN KDBQ 170540Z AUTO 00000KT 10SM CLR 01/M05 A2975 1240 66 -100 000/00 RMK AO2
94908KDBQ DBQ20071116234510011/16/07 23:45:31  5-MIN KDBQ 170545Z AUTO 08004KT 10SM CLR 01/M05 A2975 1240 64 -100 080/04 RMK AO2
94908KDBQ DBQ20071116235014511/16/07 23:50:31  5-MIN KDBQ 170550Z AUTO 07003KT 10SM CLR 01/M05 A2975 1240 66 -100 070/03 RMK AO2 SLP082 T00061050 10050 20000 401001033 58001
94908KDBQ DBQ20071116235510011/16/07 23:55:31  5-MIN KDBQ 170555Z AUTO 00000KT 10SM CLR 01/M05 A2975 1240 66 -100 000/00 RMK AO2
94908KDBQ DBQ20071117000010011/17/07 00:00:38  5-MIN KDBQ 170600Z AUTO 00000KT 10SM CLR 01/M05 A2975 1230 64 -100 000/00 RMK AO2
94908KDBQ DBQ20071117000510011/17/07 00:05:31  5-MIN KDBQ 170605Z AUTO 00000KT 10SM CLR 01/M04 A2975 1230 69 -100 000/00 RMK AO2
94908KDBQ DBQ20071117001010011/17/07 00:10:31  5-MIN KDBQ 170610Z AUTO 00000KT 10SM CLR 01/M04 A2975 1230 69 -100 000/00 RMK AO2
94908KDBQ DBQ20071117001510011/17/07 00:15:31  5-MIN KDBQ 170615Z AUTO 00000KT 10SM CLR 01/M04 A2975 1230 66 -100 000/00 RMK AO2
94908KDBQ DBQ20071117002010011/17/07 00:20:31  5-MIN KDBQ 170620Z AUTO 00000KT 10SM CLR 01/M04 A2975 1240 66 -100 000/00 RMK AO2
94908KDBQ DBQ20071117002509711/17/07 00:25:31  5-MIN KDBQ 170625Z AUTO 00000KT 10SM CLR 02/M04 A2975 1240 64 0 000/00 RMK AO2
94908KDBQ DBQ20071117003009711/17/07 00:30:31  5-MIN KDBQ 170630Z AUTO 17004KT 10SM CLR 02/M04 A2975 1240 64 0 170/04 RMK AO2
94908KDBQ DBQ20071117003510011/17/07 00:35:31  5-MIN KDBQ 170635Z AUTO 18004KT 10SM CLR 01/M04 A2975 1240 69 -100 180/04 RMK AO2
94908KDBQ DBQ20071117004009711/17/07 00:40:31  5-MIN KDBQ 170640Z AUTO 17003KT 10SM CLR 02/M04 A2975 1240 66 0 170/03 RMK AO2
94908KDBQ DBQ20071117004509711/17/07 00:45:31  5-MIN KDBQ 170645Z AUTO 18003KT 10SM CLR 02/M04 A2974 1240 66 0 180/03 RMK AO2
94908KDBQ DBQ20071117005011711/17/07 00:50:31  5-MIN KDBQ 170650Z AUTO 19003KT 10SM CLR 01/M04 A2975 1240 69 -100 190/03 RMK AO2 SLP081 T00111039
94908KDBQ DBQ20071117005510011/17/07 00:55:31  5-MIN KDBQ 170655Z AUTO 19003KT 10SM CLR 01/M04 A2975 1240 69 -100 190/03 RMK AO2
94908KDBQ DBQ20071117010009711/17/07 01:00:31  5-MIN KDBQ 170700Z AUTO 00000KT 10SM CLR 02/M03 A2974 1240 69 0 000/00 RMK AO2
94908KDBQ DBQ20071117010509711/17/07 01:05:31  5-MIN KDBQ 170705Z AUTO 00000KT 10SM CLR 02/M04 A2975 1240 66 0 000/00 RMK AO2
94908KDBQ DBQ20071117011010011/17/07 01:10:31  5-MIN KDBQ 170710Z AUTO 18003KT 10SM FEW120 02/M04 A2974 1240 64 0 180/03 RMK AO2
94908KDBQ DBQ20071117011510011/17/07 01:15:31  5-MIN KDBQ 170715Z AUTO 00000KT 10SM SCT120 02/M04 A2974 1240 64 0 000/00 RMK AO2
94908KDBQ DBQ20071117012010011/17/07 01:20:31  5-MIN KDBQ 170720Z AUTO 18003KT 10SM BKN120 02/M04 A2974 1240 64 0 180/03 RMK AO2
94908KDBQ DBQ20071117012510011/17/07 01:25:31  5-MIN KDBQ 170725Z AUTO 19003KT 10SM BKN120 02/M03 A2974 1240 67 0 190/03 RMK AO2
94908KDBQ DBQ20071117013010011/17/07 01:30:31  5-MIN KDBQ 170730Z AUTO 00000KT 10SM BKN120 02/M04 A2974 1240 64 0 000/00 RMK AO2
94908KDBQ DBQ20071117013510011/17/07 01:35:31  5-MIN KDBQ 170735Z AUTO 00000KT 10SM OVC120 02/M04 A2975 1240 66 0 000/00 RMK AO2
94908KDBQ DBQ20071117014010011/17/07 01:40:31  5-MIN KDBQ 170740Z AUTO 00000KT 10SM OVC120 02/M03 A2974 1240 69 0 000/00 RMK AO2
94908KDBQ DBQ20071117014510011/17/07 01:45:31  5-MIN KDBQ 170745Z AUTO 00000KT 10SM OVC110 02/M02 A2974 1240 75 0 000/00 RMK AO2
94908KDBQ DBQ20071117015012411/17/07 01:50:31  5-MIN KDBQ 170750Z AUTO 00000KT 10SM BKN100 OVC120 02/M02 A2975 1240 75 0 000/00 RMK AO2 SLP079 T00171022
94908KDBQ DBQ20071117015510711/17/07 01:55:31  5-MIN KDBQ 170755Z AUTO 00000KT 10SM BKN100 OVC120 02/M02 A2975 1240 75 0 000/00 RMK AO2
94908KDBQ DBQ20071117020010011/17/07 02:00:31  5-MIN KDBQ 170800Z AUTO 00000KT 10SM OVC110 02/M02 A2975 1230 75 0 000/00 RMK AO2
94908KDBQ DBQ20071117020510011/17/07 02:05:31  5-MIN KDBQ 170805Z AUTO 00000KT 10SM OVC110 02/M02 A2976 1230 75 0 000/00 RMK AO2
94908KDBQ DBQ20071117021010011/17/07 02:10:31  5-MIN KDBQ 170810Z AUTO 00000KT 10SM OVC110 02/M02 A2975 1230 75 0 000/00 RMK AO2
94908KDBQ DBQ20071117021510011/17/07 02:15:31  5-MIN KDBQ 170815Z AUTO 00000KT 10SM OVC110 02/M02 A2975 1230 75 0 000/00 RMK AO2
94908KDBQ DBQ20071117022010011/17/07 02:20:31  5-MIN KDBQ 170820Z AUTO 00000KT 10SM OVC110 02/M02 A2975 1230 75 0 000/00 RMK AO2
94908KDBQ DBQ20071117022510011/17/07 02:25:31  5-MIN KDBQ 170825Z AUTO 00000KT 10SM OVC110 02/M02 A2975 1240 75 0 000/00 RMK AO2
94908KDBQ DBQ20071117023010011/17/07 02:30:31  5-MIN KDBQ 170830Z AUTO 00000KT 10SM OVC110 02/M02 A2975 1240 72 0 000/00 RMK AO2
94908KDBQ DBQ20071117023510011/17/07 02:35:31  5-MIN KDBQ 170835Z AUTO 00000KT 10SM BKN110 02/M02 A2975 1240 75 0 000/00 RMK AO2
94908KDBQ DBQ20071117024010011/17/07 02:40:31  5-MIN KDBQ 170840Z AUTO 00000KT 10SM BKN110 02/M02 A2975 1240 75 0 000/00 RMK AO2
94908KDBQ DBQ20071117024510011/17/07 02:45:31  5-MIN KDBQ 170845Z AUTO 00000KT 10SM BKN110 02/M02 A2974 1240 75 0 000/00 RMK AO2
94908KDBQ DBQ20071117025012311/17/07 02:50:31  5-MIN KDBQ 170850Z AUTO 00000KT 10SM BKN110 02/M02 A2974 1240 78 0 000/00 RMK AO2 SLP077 T00171017 58006
94908KDBQ DBQ20071117025510011/17/07 02:55:31  5-MIN KDBQ 170855Z AUTO 01004KT 10SM BKN120 02/M02 A2974 1240 72 0 010/04 RMK AO2
94908KDBQ DBQ20071117030010011/17/07 03:00:31  5-MIN KDBQ 170900Z AUTO 01005KT 10SM BKN110 02/M03 A2975 1240 72 0 010/05 RMK AO2
94908KDBQ DBQ20071117030510011/17/07 03:05:31  5-MIN KDBQ 170905Z AUTO 02005KT 10SM BKN110 02/M03 A2975 1240 72 0 020/05 RMK AO2
94908KDBQ DBQ20071117031010011/17/07 03:10:31  5-MIN KDBQ 170910Z AUTO 02004KT 10SM BKN110 02/M03 A2975 1230 72 0 020/04 RMK AO2
94908KDBQ DBQ20071117031510011/17/07 03:15:31  5-MIN KDBQ 170915Z AUTO 03005KT 10SM BKN120 02/M03 A2975 1230 72 0 030/05 RMK AO2
94908KDBQ DBQ20071117032010311/17/07 03:20:31  5-MIN KDBQ 170920Z AUTO 03005KT 10SM BKN110 01/M03 A2976 1230 72 -100 030/05 RMK AO2
94908KDBQ DBQ20071117032510311/17/07 03:25:31  5-MIN KDBQ 170925Z AUTO 02004KT 10SM OVC110 01/M03 A2976 1230 72 -100 020/04 RMK AO2
94908KDBQ DBQ20071117033010311/17/07 03:30:31  5-MIN KDBQ 170930Z AUTO 02004KT 10SM OVC110 01/M03 A2976 1230 75 -100 020/04 RMK AO2
94908KDBQ DBQ20071117033510311/17/07 03:35:31  5-MIN KDBQ 170935Z AUTO 02003KT 10SM OVC110 01/M03 A2976 1230 75 -100 020/03 RMK AO2
94908KDBQ DBQ20071117034010311/17/07 03:40:31  5-MIN KDBQ 170940Z AUTO 02003KT 10SM OVC110 01/M03 A2976 1230 72 -100 020/03 RMK AO2
94908KDBQ DBQ20071117034510311/17/07 03:45:31  5-MIN KDBQ 170945Z AUTO 03003KT 10SM OVC110 01/M03 A2976 1230 75 -100 030/03 RMK AO2
94908KDBQ DBQ20071117035012011/17/07 03:50:31  5-MIN KDBQ 170950Z AUTO 03003KT 10SM OVC110 01/M03 A2976 1230 75 -100 030/03 RMK AO2 SLP085 T00111028
94908KDBQ DBQ20071117035510311/17/07 03:55:31  5-MIN KDBQ 170955Z AUTO 02004KT 10SM OVC110 01/M03 A2976 1230 75 -100 020/04 RMK AO2
94908KDBQ DBQ20071117040010311/17/07 04:00:31  5-MIN KDBQ 171000Z AUTO 03004KT 10SM OVC110 01/M03 A2976 1230 72 -100 020/04 RMK AO2
94908KDBQ DBQ20071117040510311/17/07 04:05:31  5-MIN KDBQ 171005Z AUTO 02005KT 10SM OVC100 01/M03 A2976 1230 75 -100 020/05 RMK AO2
94908KDBQ DBQ20071117041011011/17/07 04:10:31  5-MIN KDBQ 171010Z AUTO 03005KT 10SM BKN100 OVC110 01/M03 A2976 1230 75 -100 030/05 RMK AO2
94908KDBQ DBQ20071117041510311/17/07 04:15:31  5-MIN KDBQ 171015Z AUTO 02006KT 10SM OVC100 01/M03 A2976 1230 75 -100 020/06 RMK AO2
94908KDBQ DBQ20071117042011011/17/07 04:20:31  5-MIN KDBQ 171020Z AUTO 03007KT 10SM BKN090 OVC110 01/M03 A2976 1230 75 -100 030/07 RMK AO2
94908KDBQ DBQ20071117042511011/17/07 04:25:31  5-MIN KDBQ 171025Z AUTO 02008KT 10SM BKN085 OVC100 01/M03 A2976 1220 75 -100 020/08 RMK AO2
94908KDBQ DBQ20071117043011011/17/07 04:30:31  5-MIN KDBQ 171030Z AUTO 02008KT 10SM BKN085 OVC110 01/M03 A2976 1220 75 -100 020/08 RMK AO2
94908KDBQ DBQ20071117043511711/17/07 04:35:31  5-MIN KDBQ 171035Z AUTO 03009KT 10SM BKN080 BKN100 OVC120 01/M03 A2976 1220 75 -100 020/09 RMK AO2
94908KDBQ DBQ20071117044011011/17/07 04:40:31  5-MIN KDBQ 171040Z AUTO 02010KT 10SM SCT085 BKN120 01/M03 A2976 1220 75 -100 020/10 RMK AO2
94908KDBQ DBQ20071117044511011/17/07 04:45:31  5-MIN KDBQ 171045Z AUTO 02008KT 10SM SCT080 BKN120 01/M03 A2977 1220 75 -100 020/08 RMK AO2
94908KDBQ DBQ20071117045012711/17/07 04:50:31  5-MIN KDBQ 171050Z AUTO 02007KT 10SM BKN080 BKN120 01/M03 A2977 1210 75 -100 020/07 RMK AO2 SLP090 T00111028
94908KDBQ DBQ20071117045511011/17/07 04:55:31  5-MIN KDBQ 171055Z AUTO 02008KT 10SM BKN080 OVC120 01/M03 A2978 1210 75 -100 020/08 RMK AO2
94908KDBQ DBQ20071117050011011/17/07 05:00:31  5-MIN KDBQ 171100Z AUTO 02009KT 10SM BKN080 OVC120 01/M03 A2977 1220 75 -100 020/09 RMK AO2
94908KDBQ DBQ20071117050511011/17/07 05:05:31  5-MIN KDBQ 171105Z AUTO 02008KT 10SM BKN080 OVC120 01/M03 A2977 1210 75 -100 020/08 RMK AO2
94908KDBQ DBQ20071117051010311/17/07 05:10:31  5-MIN KDBQ 171110Z AUTO 02009KT 10SM OVC080 01/M03 A2978 1210 75 -100 020/09 RMK AO2
94908KDBQ DBQ20071117051511011/17/07 05:15:31  5-MIN KDBQ 171115Z AUTO 02010KT 10SM FEW065 OVC080 01/M03 A2978 1210 75 -100 020/10 RMK AO2
94908KDBQ DBQ20071117052011011/17/07 05:20:31  5-MIN KDBQ 171120Z AUTO 02010KT 10SM BKN065 OVC080 01/M03 A2978 1210 75 -100 020/10 RMK AO2
94908KDBQ DBQ20071117052511011/17/07 05:25:31  5-MIN KDBQ 171125Z AUTO 02011KT 10SM SCT060 OVC080 01/M03 A2978 1210 75 -100 020/11 RMK AO2
94908KDBQ DBQ20071117053011011/17/07 05:30:31  5-MIN KDBQ 171130Z AUTO 02011KT 10SM BKN060 OVC080 01/M03 A2978 1200 75 -100 020/11 RMK AO2
94908KDBQ DBQ20071117053511011/17/07 05:35:31  5-MIN KDBQ 171135Z AUTO 02012KT 10SM BKN065 OVC080 01/M03 A2978 1200 75 -100 020/12 RMK AO2
94908KDBQ DBQ20071117054010311/17/07 05:40:31  5-MIN KDBQ 171140Z AUTO 03010KT 10SM OVC065 01/M03 A2978 1210 75 -100 020/10 RMK AO2
94908KDBQ DBQ20071117054509811/17/07 05:45:31  5-MIN KDBQ 171145Z 03011KT 10SM OVC060 01/M03 A2978 1210 75 -100 030/11 RMK AO2
94908KDBQ DBQ20071117055013311/17/07 05:50:31  5-MIN KDBQ 171150Z 03011KT 10SM OVC060 01/M03 A2979 1200 75 -100 030/11 RMK AO2 SLP095 T00111028 10022 20006 56003
94908KDBQ DBQ20071117055509811/17/07 05:55:31  5-MIN KDBQ 171155Z 02010KT 10SM OVC060 01/M03 A2979 1200 75 -100 020/10 RMK AO2
94908KDBQ DBQ20071117060009811/17/07 06:00:31  5-MIN KDBQ 171200Z 02011KT 10SM OVC060 01/M03 A2979 1200 75 -100 020/11 RMK AO2
94908KDBQ DBQ20071117060510511/17/07 06:05:31  5-MIN KDBQ 171205Z 02011KT 10SM FEW050 OVC060 01/M03 A2979 1190 75 -100 020/11 RMK AO2
94908KDBQ DBQ20071117061010511/17/07 06:10:31  5-MIN KDBQ 171210Z 03012KT 10SM SCT050 OVC060 01/M03 A2979 1200 75 -100 030/12 RMK AO2
94908KDBQ DBQ20071117061510511/17/07 06:15:31  5-MIN KDBQ 171215Z 03012KT 10SM SCT050 OVC060 01/M03 A2979 1200 75 -100 030/12 RMK AO2
94908KDBQ DBQ20071117062009811/17/07 06:20:31  5-MIN KDBQ 171220Z 02012KT 10SM OVC055 01/M03 A2979 1200 75 -100 020/12 RMK AO2
94908KDBQ DBQ20071117062510511/17/07 06:25:31  5-MIN KDBQ 171225Z 02012KT 10SM BKN055 OVC075 01/M03 A2980 1190 75 -100 010/12 RMK AO2
94908KDBQ DBQ20071117063010511/17/07 06:30:31  5-MIN KDBQ 171230Z 02013KT 10SM BKN055 OVC085 01/M03 A2980 1190 75 -100 010/13 RMK AO2
94908KDBQ DBQ20071117063510511/17/07 06:35:31  5-MIN KDBQ 171235Z 01011KT 10SM SCT050 OVC085 01/M03 A2980 1190 75 -100 010/11 RMK AO2
94908KDBQ DBQ20071117064010511/17/07 06:40:31  5-MIN KDBQ 171240Z 02012KT 10SM SCT055 OVC085 01/M03 A2980 1190 75 -100 020/12 RMK AO2
94908KDBQ DBQ20071117064510511/17/07 06:45:31  5-MIN KDBQ 171245Z 02012KT 10SM FEW055 OVC085 01/M03 A2980 1190 75 -100 020/12 RMK AO2
94908KDBQ DBQ20071117065012211/17/07 06:50:31  5-MIN KDBQ 171250Z 03010KT 10SM FEW055 OVC090 01/M03 A2980 1190 75 -100 030/10 RMK AO2 SLP101 T00111028
94908KDBQ DBQ20071117065509811/17/07 06:55:31  5-MIN KDBQ 171255Z 03010KT 10SM BKN090 01/M03 A2980 1190 75 -100 030/10 RMK AO2
94908KDBQ DBQ20071117070010511/17/07 07:00:31  5-MIN KDBQ 171300Z 03011KT 10SM BKN090 BKN110 01/M03 A2981 1180 75 -100 030/11 RMK AO2
94908KDBQ DBQ20071117070511211/17/07 07:05:31  5-MIN KDBQ 171305Z 03011KT 10SM FEW080 BKN100 OVC120 01/M03 A2980 1190 75 -100 020/11 RMK AO2
94908KDBQ DBQ20071117071011211/17/07 07:10:31  5-MIN KDBQ 171310Z 02011KT 10SM FEW060 BKN100 OVC120 01/M03 A2981 1180 75 -100 020/11 RMK AO2
94908KDBQ DBQ20071117071511211/17/07 07:15:31  5-MIN KDBQ 171315Z 02011KT 10SM SCT055 BKN100 OVC120 01/M03 A2982 1170 75 -100 020/11 RMK AO2
94908KDBQ DBQ20071117072010511/17/07 07:20:31  5-MIN KDBQ 171320Z 02011KT 10SM BKN055 OVC110 01/M03 A2982 1170 75 -100 020/11 RMK AO2
94908KDBQ DBQ20071117072510511/17/07 07:25:31  5-MIN KDBQ 171325Z 02011KT 10SM BKN055 OVC110 01/M03 A2982 1170 75 -100 020/11 RMK AO2
94908KDBQ DBQ20071117073010511/17/07 07:30:31  5-MIN KDBQ 171330Z 02011KT 10SM BKN055 OVC100 01/M03 A2982 1170 75 -100 020/11 RMK AO2
94908KDBQ DBQ20071117073510511/17/07 07:35:31  5-MIN KDBQ 171335Z 02012KT 10SM BKN055 OVC100 01/M03 A2983 1160 75 -200 010/12 RMK AO2
94908KDBQ DBQ20071117074010511/17/07 07:40:31  5-MIN KDBQ 171340Z 02012KT 10SM BKN055 OVC095 01/M03 A2983 1160 75 -200 020/12 RMK AO2
94908KDBQ DBQ20071117074510511/17/07 07:45:31  5-MIN KDBQ 171345Z 02011KT 10SM BKN055 OVC095 01/M03 A2983 1160 75 -200 020/11 RMK AO2
94908KDBQ DBQ20071117075012211/17/07 07:50:31  5-MIN KDBQ 171350Z 02012KT 10SM SCT055 OVC095 01/M02 A2983 1160 78 -200 020/12 RMK AO2 SLP111 T00111022
94908KDBQ DBQ20071117075510511/17/07 07:55:31  5-MIN KDBQ 171355Z 02011KT 10SM FEW055 OVC090 01/M02 A2983 1160 78 -200 020/11 RMK AO2
94908KDBQ DBQ20071117080010511/17/07 08:00:31  5-MIN KDBQ 171400Z 02012KT 10SM FEW060 OVC090 01/M02 A2983 1160 78 -200 020/12 RMK AO2
94908KDBQ DBQ20071117080510511/17/07 08:05:31  5-MIN KDBQ 171405Z 02012KT 10SM FEW060 OVC090 01/M02 A2984 1160 78 -200 020/12 RMK AO2
94908KDBQ DBQ20071117081009811/17/07 08:10:31  5-MIN KDBQ 171410Z 02012KT 10SM OVC090 02/M03 A2985 1150 72 -100 010/12 RMK AO2
94908KDBQ DBQ20071117081510511/17/07 08:15:31  5-MIN KDBQ 171415Z 02013KT 10SM FEW070 OVC090 02/M02 A2985 1140 75 -100 020/13 RMK AO2
94908KDBQ DBQ20071117082010511/17/07 08:20:31  5-MIN KDBQ 171420Z 02011KT 10SM SCT070 OVC090 02/M03 A2985 1140 72 -100 020/11 RMK AO2
94908KDBQ DBQ20071117082510511/17/07 08:25:31  5-MIN KDBQ 171425Z 02013KT 10SM BKN070 OVC090 02/M02 A2985 1140 75 -100 020/13 RMK AO2
94908KDBQ DBQ20071117083010511/17/07 08:30:31  5-MIN KDBQ 171430Z 02014KT 10SM BKN070 OVC095 02/M02 A2985 1140 75 -100 020/14 RMK AO2
94908KDBQ DBQ20071117083510511/17/07 08:35:31  5-MIN KDBQ 171435Z 02014KT 10SM BKN070 OVC095 02/M03 A2986 1130 72 -100 020/14 RMK AO2
94908KDBQ DBQ20071117084009811/17/07 08:40:31  5-MIN KDBQ 171440Z 02014KT 10SM OVC070 02/M02 A2987 1130 75 -100 010/14 RMK AO2
94908KDBQ DBQ20071117084509811/17/07 08:45:31  5-MIN KDBQ 171445Z 02014KT 10SM OVC070 02/M03 A2987 1120 72 -100 020/14 RMK AO2
94908KDBQ DBQ20071117085012111/17/07 08:50:31  5-MIN KDBQ 171450Z 02013KT 10SM OVC070 02/M03 A2988 1120 72 -100 020/13 RMK AO2 SLP127 T00171028 51016
94908KDBQ DBQ20071117085509811/17/07 08:55:31  5-MIN KDBQ 171455Z 02014KT 10SM OVC070 02/M03 A2988 1120 72 -100 020/14 RMK AO2
94908KDBQ DBQ20071117090009811/17/07 09:00:31  5-MIN KDBQ 171500Z 02011KT 10SM OVC070 02/M03 A2988 1110 72 -100 020/11 RMK AO2
94908KDBQ DBQ20071117090509811/17/07 09:05:31  5-MIN KDBQ 171505Z 02013KT 10SM OVC070 02/M03 A2988 1120 72 -100 020/13 RMK AO2
94908KDBQ DBQ20071117091009811/17/07 09:10:31  5-MIN KDBQ 171510Z 03012KT 10SM OVC070 02/M03 A2988 1120 72 -100 030/12 RMK AO2
94908KDBQ DBQ20071117091509811/17/07 09:15:31  5-MIN KDBQ 171515Z 03013KT 10SM OVC070 02/M03 A2988 1120 72 -100 030/13 RMK AO2
94908KDBQ DBQ20071117092009811/17/07 09:20:31  5-MIN KDBQ 171520Z 02012KT 10SM OVC065 02/M02 A2988 1110 75 -100 020/12 RMK AO2
94908KDBQ DBQ20071117092509811/17/07 09:25:31  5-MIN KDBQ 171525Z 02012KT 10SM OVC065 02/M03 A2988 1110 72 -100 020/12 RMK AO2
94908KDBQ DBQ20071117093009811/17/07 09:30:31  5-MIN KDBQ 171530Z 03014KT 10SM OVC065 02/M03 A2988 1110 69 -100 030/14 RMK AO2
94908KDBQ DBQ20071117093510511/17/07 09:35:31  5-MIN KDBQ 171535Z 03014KT 10SM BKN060 OVC080 02/M02 A2988 1120 72 -100 030/14 RMK AO2
94908KDBQ DBQ20071117094010511/17/07 09:40:31  5-MIN KDBQ 171540Z 03014KT 10SM BKN060 OVC080 02/M02 A2988 1110 72 -100 030/14 RMK AO2
94908KDBQ DBQ20071117094511111/17/07 09:45:31  5-MIN KDBQ 171545Z 04016G20KT 10SM SCT060 OVC080 02/M02 A2989 1110 72 -100 030/16G20 RMK AO2
94908KDBQ DBQ20071117095012211/17/07 09:50:31  5-MIN KDBQ 171550Z 04016KT 10SM SCT060 OVC080 02/M03 A2989 1110 69 -100 040/16 RMK AO2 SLP131 T00221028
94908KDBQ DBQ20071117095510511/17/07 09:55:31  5-MIN KDBQ 171555Z 03015KT 10SM SCT065 OVC080 02/M02 A2989 1110 72 -100 030/15 RMK AO2
94908KDBQ DBQ20071117100010511/17/07 10:00:31  5-MIN KDBQ 171600Z 03014KT 10SM SCT065 OVC080 02/M02 A2989 1100 72 -100 030/14 RMK AO2
94908KDBQ DBQ20071117100510511/17/07 10:05:31  5-MIN KDBQ 171605Z 03013KT 10SM BKN065 OVC080 02/M02 A2989 1100 72 -100 030/13 RMK AO2
94908KDBQ DBQ20071117101010511/17/07 10:10:31  5-MIN KDBQ 171610Z 03015KT 10SM BKN065 OVC080 02/M02 A2990 1100 72 -100 030/15 RMK AO2
94908KDBQ DBQ20071117101510511/17/07 10:15:31  5-MIN KDBQ 171615Z 03015KT 10SM BKN065 OVC080 02/M02 A2990 1100 72 -100 030/15 RMK AO2
94908KDBQ DBQ20071117102010511/17/07 10:20:31  5-MIN KDBQ 171620Z 03014KT 10SM BKN065 OVC080 02/M02 A2990 1090 72 -100 020/14 RMK AO2
94908KDBQ DBQ20071117102510511/17/07 10:25:31  5-MIN KDBQ 171625Z 03015KT 10SM BKN065 OVC080 02/M02 A2990 1090 72 -100 030/15 RMK AO2
94908KDBQ DBQ20071117103009811/17/07 10:30:31  5-MIN KDBQ 171630Z 02014KT 10SM OVC065 02/M02 A2991 1090 72 -100 020/14 RMK AO2
94908KDBQ DBQ20071117103509811/17/07 10:35:31  5-MIN KDBQ 171635Z 03014KT 10SM OVC065 02/M02 A2991 1090 72 -100 030/14 RMK AO2
94908KDBQ DBQ20071117104009511/17/07 10:40:31  5-MIN KDBQ 171640Z 03014KT 10SM OVC065 03/M02 A2991 1090 69 0 030/14 RMK AO2
94908KDBQ DBQ20071117104510211/17/07 10:45:31  5-MIN KDBQ 171645Z 03015KT 10SM FEW050 OVC065 03/M02 A2991 1090 69 0 030/15 RMK AO2
94908KDBQ DBQ20071117105012611/17/07 10:50:31  5-MIN KDBQ 171650Z 03013KT 10SM FEW050 BKN065 OVC085 03/M02 A2991 1090 69 0 030/13 RMK AO2 SLP138 T00281022
94908KDBQ DBQ20071117105510911/17/07 10:55:31  5-MIN KDBQ 171655Z 03012KT 10SM FEW050 BKN065 OVC080 03/M02 A2991 1090 69 0 030/12 RMK AO2
94908KDBQ DBQ20071117110010911/17/07 11:00:31  5-MIN KDBQ 171700Z 04014KT 10SM FEW050 BKN065 OVC080 03/M02 A2990 1100 67 0 040/14 RMK AO2
94908KDBQ DBQ20071117110510911/17/07 11:05:31  5-MIN KDBQ 171705Z 03015KT 10SM FEW050 SCT065 OVC080 03/M02 A2990 1100 67 0 030/15 RMK AO2
94908KDBQ DBQ20071117111010211/17/07 11:10:31  5-MIN KDBQ 171710Z 04016KT 10SM FEW050 OVC080 03/M02 A2991 1090 70 0 030/16 RMK AO2
94908KDBQ DBQ20071117111510911/17/07 11:15:31  5-MIN KDBQ 171715Z 03015KT 10SM SCT050 SCT065 OVC080 03/M02 A2991 1090 70 0 030/15 RMK AO2
94908KDBQ DBQ20071117112010211/17/07 11:20:31  5-MIN KDBQ 171720Z 03014KT 10SM SCT050 OVC080 04/M02 A2991 1090 67 0 030/14 RMK AO2
94908KDBQ DBQ20071117112510211/17/07 11:25:31  5-MIN KDBQ 171725Z 03017KT 10SM SCT050 OVC080 04/M02 A2991 1090 67 0 030/17 RMK AO2
94908KDBQ DBQ20071117113010211/17/07 11:30:31  5-MIN KDBQ 171730Z 02015KT 10SM FEW050 OVC080 04/M02 A2991 1090 67 0 020/15 RMK AO2
94908KDBQ DBQ20071117113510311/17/07 11:35:31  5-MIN KDBQ 171735Z 03015KT 9SM FEW050 OVC080 04/M02 A2992 1080 64 100 030/15 RMK AO2
94908KDBQ DBQ20071117114011011/17/07 11:40:31  5-MIN KDBQ 171740Z 02014KT 9SM FEW050 SCT070 OVC080 04/M01 A2992 1080 67 100 020/14 RMK AO2
94908KDBQ DBQ20071117114511011/17/07 11:45:31  5-MIN KDBQ 171745Z 04014KT 9SM FEW050 BKN065 OVC080 04/M01 A2991 1080 67 100 040/14 RMK AO2
94908KDBQ DBQ20071117115013811/17/07 11:50:31  5-MIN KDBQ 171750Z 03011KT 9SM BKN065 OVC080 05/M01 A2992 1080 64 200 030/11 RMK AO2 SLP140 T00501011 10050 20011 53029
94908KDBQ DBQ20071117115510311/17/07 11:55:31  5-MIN KDBQ 171755Z 05013KT 9SM BKN065 OVC080 06/M01 A2991 1080 65 200 050/13 RMK AO2
94908KDBQ DBQ20071117120010311/17/07 12:00:31  5-MIN KDBQ 171800Z 03011KT 9SM BKN065 OVC080 05/M01 A2992 1080 67 200 030/11 RMK AO2
94908KDBQ DBQ20071117120509611/17/07 12:05:31  5-MIN KDBQ 171805Z 03014KT 9SM OVC065 05/M01 A2992 1080 64 200 030/14 RMK AO2
94908KDBQ DBQ20071117121009611/17/07 12:10:31  5-MIN KDBQ 171810Z 02013KT 9SM OVC065 05/M01 A2992 1080 64 200 020/13 RMK AO2
94908KDBQ DBQ20071117121509611/17/07 12:15:31  5-MIN KDBQ 171815Z 03013KT 9SM OVC065 05/M01 A2992 1080 67 200 030/13 RMK AO2
94908KDBQ DBQ20071117122009611/17/07 12:20:31  5-MIN KDBQ 171820Z 02013KT 8SM OVC065 05/M01 A2992 1080 67 200 020/13 RMK AO2
94908KDBQ DBQ20071117122509611/17/07 12:25:31  5-MIN KDBQ 171825Z 03013KT 8SM OVC065 05/M01 A2992 1080 67 200 030/13 RMK AO2
94908KDBQ DBQ20071117123009611/17/07 12:30:31  5-MIN KDBQ 171830Z 02011KT 8SM OVC060 05/M01 A2993 1070 67 200 020/11 RMK AO2
94908KDBQ DBQ20071117123509611/17/07 12:35:31  5-MIN KDBQ 171835Z 03011KT 7SM OVC060 04/M01 A2993 1070 70 100 030/11 RMK AO2
94908KDBQ DBQ20071117124009611/17/07 12:40:31  5-MIN KDBQ 171840Z 03012KT 7SM OVC060 05/M01 A2993 1070 67 200 030/12 RMK AO2
94908KDBQ DBQ20071117124509611/17/07 12:45:31  5-MIN KDBQ 171845Z 04011KT 7SM OVC060 05/M01 A2993 1070 67 200 030/11 RMK AO2
94908KDBQ DBQ20071117125011211/17/07 12:50:31  5-MIN KDBQ 171850Z 02011KT 7SM OVC060 05/00 A2993 1070 70 200 020/11 RMK AO2 SLP144 T00500000
94908KDBQ DBQ20071117125509511/17/07 12:55:31  5-MIN KDBQ 171855Z 03013KT 7SM OVC060 05/00 A2993 1070 70 200 030/13 RMK AO2
94908KDBQ DBQ20071117130010411/17/07 13:00:31  5-MIN KDBQ 171900Z 02009G16KT 6SM HZ OVC060 05/00 A2994 1060 70 200 020/09G16 RMK AO2
94908KDBQ DBQ20071117130510511/17/07 13:05:31  5-MIN KDBQ 171905Z 03009KT 6SM HZ FEW017 OVC060 05/00 A2994 1060 70 200 030/09 RMK AO2
94908KDBQ DBQ20071117131010511/17/07 13:10:31  5-MIN KDBQ 171910Z 03011KT 6SM HZ FEW017 OVC060 05/00 A2994 1060 70 200 030/11 RMK AO2
94908KDBQ DBQ20071117131510511/17/07 13:15:31  5-MIN KDBQ 171915Z 03011KT 6SM HZ FEW017 OVC055 04/00 A2994 1060 73 100 030/11 RMK AO2
94908KDBQ DBQ20071117132010511/17/07 13:20:31  5-MIN KDBQ 171920Z 02011KT 6SM HZ FEW017 OVC055 04/01 A2994 1060 76 100 020/11 RMK AO2
94908KDBQ DBQ20071117132510511/17/07 13:25:31  5-MIN KDBQ 171925Z 01011KT 5SM HZ SCT015 OVC055 04/01 A2994 1060 76 100 010/11 RMK AO2
94908KDBQ DBQ20071117133010511/17/07 13:30:31  5-MIN KDBQ 171930Z 02011KT 5SM HZ BKN015 OVC055 04/01 A2994 1060 76 100 020/11 RMK AO2
94908KDBQ DBQ20071117133510511/17/07 13:35:31  5-MIN KDBQ 171935Z 03011KT 5SM HZ BKN015 OVC055 04/01 A2995 1060 76 100 030/11 RMK AO2
94908KDBQ DBQ20071117134010511/17/07 13:40:31  5-MIN KDBQ 171940Z 03012KT 5SM HZ BKN015 OVC055 05/01 A2994 1060 73 100 020/12 RMK AO2
94908KDBQ DBQ20071117134510511/17/07 13:45:31  5-MIN KDBQ 171945Z 03012KT 5SM HZ BKN015 OVC055 05/01 A2994 1060 73 100 030/12 RMK AO2
94908KDBQ DBQ20071117135011511/17/07 13:50:31  5-MIN KDBQ 171950Z 03012KT 5SM HZ OVC015 05/01 A2994 1060 73 100 030/12 RMK AO2 SLP147 T00500006
94908KDBQ DBQ20071117135509811/17/07 13:55:31  5-MIN KDBQ 171955Z 04013KT 5SM HZ OVC015 05/01 A2995 1060 73 100 040/13 RMK AO2
94908KDBQ DBQ20071117140009811/17/07 14:00:31  5-MIN KDBQ 172000Z 02011KT 5SM HZ OVC015 04/01 A2995 1050 76 100 020/11 RMK AO2
94908KDBQ DBQ20071117140509811/17/07 14:05:31  5-MIN KDBQ 172005Z 03013KT 5SM HZ OVC015 04/01 A2995 1050 76 100 030/13 RMK AO2
94908KDBQ DBQ20071117141009811/17/07 14:10:31  5-MIN KDBQ 172010Z 03010KT 5SM HZ OVC013 04/01 A2995 1050 76 100 020/10 RMK AO2
94908KDBQ DBQ20071117141509811/17/07 14:15:31  5-MIN KDBQ 172015Z 03012KT 5SM HZ OVC013 04/01 A2996 1050 76 100 030/12 RMK AO2
94908KDBQ DBQ20071117142009811/17/07 14:20:31  5-MIN KDBQ 172020Z 03010KT 5SM HZ OVC013 04/01 A2996 1040 76 100 030/10 RMK AO2
94908KDBQ DBQ20071117142509811/17/07 14:25:31  5-MIN KDBQ 172025Z 03012KT 4SM HZ OVC013 04/01 A2996 1040 76 100 030/12 RMK AO2
94908KDBQ DBQ20071117143009611/17/07 14:30:31  5-MIN KDBQ 172030Z 03010KT 5SM HZ OVC013 04/01 A2996 1040 79 0 030/10 RMK AO2
94908KDBQ DBQ20071117143509611/17/07 14:35:31  5-MIN KDBQ 172035Z 04015KT 5SM HZ OVC013 04/01 A2996 1040 79 0 040/15 RMK AO2
94908KDBQ DBQ20071117144009611/17/07 14:40:31  5-MIN KDBQ 172040Z 03013KT 5SM HZ OVC011 04/01 A2997 1040 79 0 030/13 RMK AO2
94908KDBQ DBQ20071117144509611/17/07 14:45:31  5-MIN KDBQ 172045Z 03012KT 5SM HZ OVC011 04/01 A2997 1030 79 0 030/12 RMK AO2
94908KDBQ DBQ20071117145011911/17/07 14:50:31  5-MIN KDBQ 172050Z 04011KT 5SM HZ OVC011 04/01 A2998 1030 79 0 030/11 RMK AO2 SLP161 T00390006 51012
94908KDBQ DBQ20071117145509611/17/07 14:55:31  5-MIN KDBQ 172055Z 04012KT 5SM HZ OVC011 04/01 A2998 1030 79 0 040/12 RMK AO2
94908KDBQ DBQ20071117150009611/17/07 15:00:31  5-MIN KDBQ 172100Z 03013KT 5SM HZ OVC011 04/01 A2998 1030 79 0 030/13 RMK AO2
94908KDBQ DBQ20071117150510511/17/07 15:05:31  5-MIN KDBQ 172105Z 04013G20KT 6SM HZ OVC011 03/01 A2998 1020 82 -100 040/13G20 RMK AO2
94908KDBQ DBQ20071117151010211/17/07 15:10:31  5-MIN KDBQ 172110Z 04012G20KT 7SM OVC011 03/00 A2998 1020 79 -100 040/12G20 RMK AO2
94908KDBQ DBQ20071117151510211/17/07 15:15:31  5-MIN KDBQ 172115Z 04010G19KT 7SM OVC011 03/00 A2999 1020 79 -100 040/10G19 RMK AO2
94908KDBQ DBQ20071117152009611/17/07 15:20:31  5-MIN KDBQ 172120Z 03011KT 7SM OVC011 03/00 A2999 1010 79 -100 030/11 RMK AO2
94908KDBQ DBQ20071117152510211/17/07 15:25:31  5-MIN KDBQ 172125Z 03010G17KT 7SM OVC011 03/00 A3000 1010 79 -100 030/10G17 RMK AO2
94908KDBQ DBQ20071117153010211/17/07 15:30:31  5-MIN KDBQ 172130Z 04010G17KT 7SM OVC011 03/00 A3000 1010 79 -100 040/10G17 RMK AO2
94908KDBQ DBQ20071117153509611/17/07 15:35:31  5-MIN KDBQ 172135Z 04009KT 7SM OVC011 03/00 A3000 1010 79 -100 030/09 RMK AO2
94908KDBQ DBQ20071117154010211/17/07 15:40:31  5-MIN KDBQ 172140Z 04010G17KT 7SM OVC011 03/00 A3000 1000 79 -100 040/10G17 RMK AO2
94908KDBQ DBQ20071117154510211/17/07 15:45:31  5-MIN KDBQ 172145Z 04012G17KT 8SM OVC011 03/00 A3000 1000 82 -100 040/12G17 RMK AO2
94908KDBQ DBQ20071117155011411/17/07 15:50:31  5-MIN KDBQ 172150Z 04011KT 8SM OVC011 03/M01 A3001 1000 79 -200 040/11 RMK AO2 SLP172 T00281006
94908KDBQ DBQ20071117155509711/17/07 15:55:31  5-MIN KDBQ 172155Z 04013KT 8SM OVC011 03/M01 A3001 1000 79 -200 040/13 RMK AO2
94908KDBQ DBQ20071117160009611/17/07 16:00:31  5-MIN KDBQ 172200Z 04013KT 9SM OVC011 03/M01 A3001 990 79 -200 040/13 RMK AO2
94908KDBQ DBQ20071117160509611/17/07 16:05:31  5-MIN KDBQ 172205Z 04014KT 9SM OVC011 03/M01 A3002 990 79 -200 040/14 RMK AO2
94908KDBQ DBQ20071117161009611/17/07 16:10:31  5-MIN KDBQ 172210Z 04012KT 9SM OVC011 03/M01 A3002 980 79 -200 040/12 RMK AO2
94908KDBQ DBQ20071117161509611/17/07 16:15:31  5-MIN KDBQ 172215Z 04011KT 9SM OVC011 03/M01 A3002 980 79 -200 040/11 RMK AO2
94908KDBQ DBQ20071117162009611/17/07 16:20:31  5-MIN KDBQ 172220Z 04010KT 9SM OVC011 03/M01 A3003 980 79 -200 040/10 RMK AO2
94908KDBQ DBQ20071117162509611/17/07 16:25:31  5-MIN KDBQ 172225Z 04011KT 9SM OVC011 02/M01 A3003 980 82 -200 040/11 RMK AO2
94908KDBQ DBQ20071117163009611/17/07 16:30:31  5-MIN KDBQ 172230Z 04011KT 8SM OVC011 02/M01 A3003 970 82 -300 040/11 RMK AO2
94908KDBQ DBQ20071117163510211/17/07 16:35:31  5-MIN KDBQ 172235Z 03008G17KT 9SM OVC011 02/M01 A3004 970 82 -300 030/08G17 RMK AO2
94908KDBQ DBQ20071117164009611/17/07 16:40:31  5-MIN KDBQ 172240Z 05012KT 9SM OVC011 02/M01 A3004 970 82 -300 050/12 RMK AO2
94908KDBQ DBQ20071117164509611/17/07 16:45:31  5-MIN KDBQ 172245Z 04012KT 9SM OVC011 02/M01 A3004 970 82 -300 040/12 RMK AO2
94908KDBQ DBQ20071117165011311/17/07 16:50:31  5-MIN KDBQ 172250Z 04012KT 9SM OVC011 02/M01 A3004 970 82 -300 040/12 RMK AO2 SLP183 T00221006
94908KDBQ DBQ20071117165509611/17/07 16:55:31  5-MIN KDBQ 172255Z 04011KT 9SM OVC011 02/M01 A3004 960 82 -300 040/11 RMK AO2
94908KDBQ DBQ20071117170009611/17/07 17:00:31  5-MIN KDBQ 172300Z 04009KT 9SM OVC011 02/M01 A3005 960 82 -300 030/09 RMK AO2
94908KDBQ DBQ20071117170509611/17/07 17:05:31  5-MIN KDBQ 172305Z 04010KT 8SM OVC011 02/M01 A3005 960 82 -300 040/10 RMK AO2
94908KDBQ DBQ20071117171009611/17/07 17:10:31  5-MIN KDBQ 172310Z 04010KT 7SM OVC011 02/M01 A3005 950 82 -300 040/10 RMK AO2
94908KDBQ DBQ20071117171509911/17/07 17:15:31  5-MIN KDBQ 172315Z 04012KT 6SM HZ OVC011 02/M01 A3005 950 82 -300 040/12 RMK AO2
94908KDBQ DBQ20071117172009911/17/07 17:20:31  5-MIN KDBQ 172320Z 04011KT 6SM BR OVC011 02/M01 A3005 960 85 -300 040/11 RMK AO2
94908KDBQ DBQ20071117172509911/17/07 17:25:31  5-MIN KDBQ 172325Z 04011KT 5SM BR OVC011 02/M01 A3006 950 85 -300 030/11 RMK AO2
94908KDBQ DBQ20071117173009911/17/07 17:30:31  5-MIN KDBQ 172330Z 04012KT 5SM BR OVC011 02/M01 A3006 950 85 -400 040/12 RMK AO2
94908KDBQ DBQ20071117173509911/17/07 17:35:31  5-MIN KDBQ 172335Z 04012KT 5SM BR OVC008 02/M01 A3006 950 85 -400 040/12 RMK AO2
94908KDBQ DBQ20071117174009811/17/07 17:40:31  5-MIN KDBQ 172340Z 04009KT 5SM BR OVC008 02/00 A3007 940 89 -400 040/09 RMK AO2
94908KDBQ DBQ20071117174509811/17/07 17:45:31  5-MIN KDBQ 172345Z 04009KT 6SM BR OVC008 02/00 A3007 940 89 -400 040/09 RMK AO2
94908KDBQ DBQ20071117175013311/17/07 17:50:31  5-MIN KDBQ 172350Z 03009KT 6SM BR OVC008 02/00 A3007 940 89 -400 030/09 RMK AO2 SLP194 T00170000 10056 20017 53021
94908KDBQ DBQ20071117175509811/17/07 17:55:31  5-MIN KDBQ 172355Z 04008KT 6SM BR OVC008 02/00 A3007 940 89 -400 040/08 RMK AO2
94908KDBQ DBQ20071117180009811/17/07 18:00:31  5-MIN KDBQ 180000Z 04009KT 6SM BR OVC008 02/00 A3007 940 89 -400 040/09 RMK AO2
94908KDBQ DBQ20071117180509511/17/07 18:05:31  5-MIN KDBQ 180005Z 04009KT 7SM OVC008 02/00 A3007 940 89 -400 040/09 RMK AO2
94908KDBQ DBQ20071117181009511/17/07 18:10:31  5-MIN KDBQ 180010Z 04007KT 7SM OVC008 02/00 A3007 940 89 -400 040/07 RMK AO2
94908KDBQ DBQ20071117181509511/17/07 18:15:31  5-MIN KDBQ 180015Z 04007KT 7SM OVC008 02/00 A3008 930 89 -400 040/07 RMK AO2
94908KDBQ DBQ20071117182009811/17/07 18:20:31  5-MIN KDBQ 180020Z 04007KT 6SM BR OVC008 02/00 A3008 930 89 -400 040/07 RMK AO2
94908KDBQ DBQ20071117182509811/17/07 18:25:31  5-MIN KDBQ 180025Z 04008KT 6SM BR OVC008 02/00 A3008 930 89 -400 040/08 RMK AO2
94908KDBQ DBQ20071117183009811/17/07 18:30:31  5-MIN KDBQ 180030Z 04009KT 6SM BR OVC008 02/00 A3009 930 89 -400 040/09 RMK AO2
94908KDBQ DBQ20071117183511011/17/07 18:35:31  5-MIN KDBQ 180035Z 04009KT 6SM BR OVC008 02/00 A3009 920 89 -400 040/09 RMK AO2 CIG 006V011
94908KDBQ DBQ20071117184011011/17/07 18:40:31  5-MIN KDBQ 180040Z 04009KT 6SM BR OVC008 02/00 A3009 920 89 -400 040/09 RMK AO2 CIG 006V011
94908KDBQ DBQ20071117184509911/17/07 18:45:31  5-MIN KDBQ 180045Z 04008KT 6SM BR OVC008 02/M01 A3009 920 85 -400 040/08 RMK AO2
94908KDBQ DBQ20071117185011511/17/07 18:50:31  5-MIN KDBQ 180050Z 03009KT 6SM BR OVC008 02/00 A3009 920 89 -400 030/09 RMK AO2 SLP201 T00170000
94908KDBQ DBQ20071117185509911/17/07 18:55:31  5-MIN KDBQ 180055Z 04008KT 6SM BR OVC008 02/M01 A3009 920 85 -400 040/08 RMK AO2
94908KDBQ DBQ20071117190009811/17/07 19:00:31  5-MIN KDBQ 180100Z 04008KT 6SM BR OVC008 02/00 A3009 920 89 -400 040/08 RMK AO2
94908KDBQ DBQ20071117190509811/17/07 19:05:31  5-MIN KDBQ 180105Z 04007KT 6SM BR OVC008 02/00 A3010 920 89 -400 040/07 RMK AO2
94908KDBQ DBQ20071117191009811/17/07 19:10:31  5-MIN KDBQ 180110Z 04007KT 6SM BR OVC008 02/00 A3010 910 89 -400 040/07 RMK AO2
94908KDBQ DBQ20071117191509811/17/07 19:15:31  5-MIN KDBQ 180115Z 04006KT 5SM BR OVC008 02/00 A3010 910 89 -400 040/06 RMK AO2
94908KDBQ DBQ20071117192009811/17/07 19:20:31  5-MIN KDBQ 180120Z 04008KT 6SM BR OVC008 02/00 A3010 910 89 -400 030/08 RMK AO2
94908KDBQ DBQ20071117192509811/17/07 19:25:31  5-MIN KDBQ 180125Z 04008KT 6SM BR OVC008 02/00 A3010 910 89 -400 040/08 RMK AO2
94908KDBQ DBQ20071117193009811/17/07 19:30:31  5-MIN KDBQ 180130Z 04007KT 5SM BR OVC008 02/00 A3010 910 89 -400 040/07 RMK AO2
94908KDBQ DBQ20071117193509811/17/07 19:35:31  5-MIN KDBQ 180135Z 04008KT 5SM BR OVC008 02/00 A3010 910 89 -400 040/08 RMK AO2
94908KDBQ DBQ20071117194009811/17/07 19:40:31  5-MIN KDBQ 180140Z 04007KT 5SM BR OVC008 02/00 A3010 910 89 -400 040/07 RMK AO2
94908KDBQ DBQ20071117194511411/17/07 19:45:31  5-MIN KDBQ 180145Z 04007KT 4SM -SN BR OVC008 02/00 A3011 910 89 -400 040/07 RMK AO2 SNB41 P0000
94908KDBQ DBQ20071117195011411/17/07 19:50:31  5-MIN KDBQ 180150Z 04008KT 5SM -SN BR OVC010 02/00 A3010 910 89 -400 040/08 RMK AO2 SNB41 P0000
94908KDBQ DBQ20071117195511511/17/07 19:55:31  5-MIN KDBQ 180155Z AUTO 05008KT 5SM BR OVC010 02/00 A3011 910 89 -400 040/08 RMK AO2 CIG 008V014
94908KDBQ DBQ20071117200011511/17/07 20:00:31  5-MIN KDBQ 180200Z AUTO 04008KT 5SM BR OVC010 02/00 A3011 910 89 -400 040/08 RMK AO2 CIG 008V014
94908KDBQ DBQ20071117200511511/17/07 20:05:31  5-MIN KDBQ 180205Z AUTO 04008KT 5SM BR OVC010 02/00 A3011 910 89 -400 040/08 RMK AO2 CIG 009V014
94908KDBQ DBQ20071117201010311/17/07 20:10:31  5-MIN KDBQ 180210Z AUTO 05007KT 5SM BR OVC010 02/00 A3011 910 89 -400 040/07 RMK AO2
94908KDBQ DBQ20071117201511511/17/07 20:15:31  5-MIN KDBQ 180215Z AUTO 05008KT 5SM BR OVC010 02/00 A3011 900 89 -400 040/08 RMK AO2 CIG 008V014
94908KDBQ DBQ20071117202010311/17/07 20:20:31  5-MIN KDBQ 180220Z AUTO 05006KT 6SM BR OVC010 02/00 A3011 900 89 -400 050/06 RMK AO2
94908KDBQ DBQ20071117202511511/17/07 20:25:31  5-MIN KDBQ 180225Z AUTO 04006KT 6SM BR OVC010 02/00 A3012 900 89 -400 040/06 RMK AO2 CIG 008V013
94908KDBQ DBQ20071117203011511/17/07 20:30:31  5-MIN KDBQ 180230Z AUTO 04007KT 6SM BR OVC010 02/00 A3012 900 89 -400 040/07 RMK AO2 CIG 008V013
94908KDBQ DBQ20071117203511511/17/07 20:35:31  5-MIN KDBQ 180235Z AUTO 05008KT 6SM BR OVC010 02/00 A3012 890 89 -400 040/08 RMK AO2 CIG 008V013
94908KDBQ DBQ20071117204011511/17/07 20:40:31  5-MIN KDBQ 180240Z AUTO 05008KT 6SM BR OVC010 02/00 A3012 890 89 -400 050/08 RMK AO2 CIG 008V013
94908KDBQ DBQ20071117204511611/17/07 20:45:31  5-MIN KDBQ 180245Z AUTO 05009KT 6SM BR OVC010 02/M01 A3012 890 85 -400 050/09 RMK AO2 CIG 008V013
94908KDBQ DBQ20071117205013311/17/07 20:50:31  5-MIN KDBQ 180250Z AUTO 04008KT 6SM BR OVC010 02/M01 A3012 890 85 -400 040/08 RMK AO2 SLP212 60000 T00171006 51030
94908KDBQ DBQ20071117205510411/17/07 20:55:31  5-MIN KDBQ 180255Z AUTO 05008KT 6SM BR OVC010 02/M01 A3013 890 85 -400 040/08 RMK AO2
94908KDBQ DBQ20071117210010411/17/07 21:00:31  5-MIN KDBQ 180300Z AUTO 05008KT 6SM BR OVC010 02/M01 A3013 890 85 -400 050/08 RMK AO2
94908KDBQ DBQ20071117210510411/17/07 21:05:31  5-MIN KDBQ 180305Z AUTO 05008KT 6SM BR OVC010 02/M01 A3013 890 85 -400 050/08 RMK AO2
94908KDBQ DBQ20071117211010111/17/07 21:10:31  5-MIN KDBQ 180310Z AUTO 04010KT 7SM OVC010 02/M01 A3013 890 85 -400 040/10 RMK AO2
94908KDBQ DBQ20071117211510111/17/07 21:15:31  5-MIN KDBQ 180315Z AUTO 05010KT 7SM OVC010 02/M01 A3013 890 85 -400 040/10 RMK AO2
94908KDBQ DBQ20071117212010111/17/07 21:20:31  5-MIN KDBQ 180320Z AUTO 05011KT 7SM OVC010 02/M01 A3013 890 85 -400 050/11 RMK AO2
94908KDBQ DBQ20071117212510111/17/07 21:25:31  5-MIN KDBQ 180325Z AUTO 05010KT 8SM OVC012 02/M01 A3013 890 85 -400 050/10 RMK AO2
94908KDBQ DBQ20071117213010111/17/07 21:30:31  5-MIN KDBQ 180330Z AUTO 05009KT 8SM OVC012 02/M01 A3013 880 85 -400 050/09 RMK AO2
94908KDBQ DBQ20071117213510111/17/07 21:35:31  5-MIN KDBQ 180335Z AUTO 05009KT 8SM OVC012 01/M01 A3013 880 89 -500 050/09 RMK AO2
94908KDBQ DBQ20071117214010111/17/07 21:40:31  5-MIN KDBQ 180340Z AUTO 05008KT 8SM OVC012 01/M01 A3013 880 85 -500 050/08 RMK AO2
94908KDBQ DBQ20071117214510111/17/07 21:45:31  5-MIN KDBQ 180345Z AUTO 04009KT 9SM OVC014 01/M01 A3013 880 85 -500 040/09 RMK AO2
94908KDBQ DBQ20071117215011811/17/07 21:50:31  5-MIN KDBQ 180350Z AUTO 05008KT 9SM OVC014 01/M01 A3014 880 85 -500 050/08 RMK AO2 SLP217 T00111011
94908KDBQ DBQ20071117215510111/17/07 21:55:31  5-MIN KDBQ 180355Z AUTO 05009KT 9SM OVC014 01/M01 A3014 880 85 -500 050/09 RMK AO2
94908KDBQ DBQ20071117220010211/17/07 22:00:31  5-MIN KDBQ 180400Z AUTO 05009KT 10SM OVC014 01/M01 A3014 880 85 -500 050/09 RMK AO2
94908KDBQ DBQ20071117220510911/17/07 22:05:31  5-MIN KDBQ 180405Z AUTO 05009KT 10SM BKN014 OVC037 01/M01 A3014 880 85 -500 050/09 RMK AO2
94908KDBQ DBQ20071117221010911/17/07 22:10:31  5-MIN KDBQ 180410Z AUTO 06011KT 10SM BKN014 OVC037 01/M01 A3014 870 85 -500 050/11 RMK AO2
94908KDBQ DBQ20071117221510911/17/07 22:15:31  5-MIN KDBQ 180415Z AUTO 05010KT 10SM BKN014 OVC037 01/M02 A3014 870 82 -500 050/10 RMK AO2
94908KDBQ DBQ20071117222010911/17/07 22:20:31  5-MIN KDBQ 180420Z AUTO 05010KT 10SM BKN014 OVC037 01/M01 A3015 870 85 -500 050/10 RMK AO2
94908KDBQ DBQ20071117222510911/17/07 22:25:31  5-MIN KDBQ 180425Z AUTO 05010KT 10SM SCT014 OVC037 01/M01 A3015 870 85 -500 050/10 RMK AO2
94908KDBQ DBQ20071117223010911/17/07 22:30:31  5-MIN KDBQ 180430Z AUTO 06010KT 10SM FEW014 OVC037 01/M02 A3015 870 82 -500 060/10 RMK AO2
94908KDBQ DBQ20071117223510911/17/07 22:35:31  5-MIN KDBQ 180435Z AUTO 05012KT 10SM FEW014 OVC037 01/M02 A3015 870 82 -500 050/12 RMK AO2
94908KDBQ DBQ20071117224010911/17/07 22:40:31  5-MIN KDBQ 180440Z AUTO 05010KT 10SM FEW016 OVC039 01/M02 A3015 870 82 -500 050/10 RMK AO2
94908KDBQ DBQ20071117224510211/17/07 22:45:31  5-MIN KDBQ 180445Z AUTO 05010KT 10SM OVC041 01/M02 A3015 870 82 -500 050/10 RMK AO2
94908KDBQ DBQ20071117225011911/17/07 22:50:31  5-MIN KDBQ 180450Z AUTO 05010KT 10SM OVC041 01/M02 A3015 870 82 -500 050/10 RMK AO2 SLP219 T00111017
94908KDBQ DBQ20071117225510911/17/07 22:55:31  5-MIN KDBQ 180455Z AUTO 05010KT 10SM FEW014 OVC043 01/M02 A3015 870 82 -500 050/10 RMK AO2
94908KDBQ DBQ20071117230010211/17/07 23:00:31  5-MIN KDBQ 180500Z AUTO 05008KT 10SM OVC043 01/M02 A3015 870 82 -500 050/08 RMK AO2
94908KDBQ DBQ20071117230510211/17/07 23:05:31  5-MIN KDBQ 180505Z AUTO 05010KT 10SM OVC045 01/M02 A3015 870 82 -500 050/10 RMK AO2
94908KDBQ DBQ20071117231010211/17/07 23:10:31  5-MIN KDBQ 180510Z AUTO 05010KT 10SM OVC045 01/M02 A3015 870 82 -500 050/10 RMK AO2
94908KDBQ DBQ20071117231510211/17/07 23:15:31  5-MIN KDBQ 180515Z AUTO 05009KT 10SM OVC047 01/M02 A3015 860 82 -500 050/09 RMK AO2
94908KDBQ DBQ20071117232010211/17/07 23:20:31  5-MIN KDBQ 180520Z AUTO 05010KT 10SM OVC047 01/M02 A3015 860 82 -500 050/10 RMK AO2
94908KDBQ DBQ20071117232510211/17/07 23:25:31  5-MIN KDBQ 180525Z AUTO 05009KT 10SM OVC047 01/M02 A3016 860 82 -500 050/09 RMK AO2
94908KDBQ DBQ20071117233010211/17/07 23:30:31  5-MIN KDBQ 180530Z AUTO 06011KT 10SM OVC047 01/M02 A3016 860 78 -500 060/11 RMK AO2
94908KDBQ DBQ20071117233510211/17/07 23:35:31  5-MIN KDBQ 180535Z AUTO 05008KT 10SM OVC047 01/M02 A3016 860 78 -500 050/08 RMK AO2
94908KDBQ DBQ20071117234010211/17/07 23:40:31  5-MIN KDBQ 180540Z AUTO 06008KT 10SM OVC047 01/M02 A3016 860 78 -500 060/08 RMK AO2
94908KDBQ DBQ20071117234510211/17/07 23:45:31  5-MIN KDBQ 180545Z AUTO 06007KT 10SM OVC047 01/M02 A3016 860 78 -500 060/07 RMK AO2
94908KDBQ DBQ20071117235015311/17/07 23:50:31  5-MIN KDBQ 180550Z AUTO 06008KT 10SM OVC047 01/M02 A3016 850 78 -500 060/08 RMK AO2 SLP224 60000 T00111022 10017 20011 400560006 51019
94908KDBQ DBQ20071117235510211/17/07 23:55:31  5-MIN KDBQ 180555Z AUTO 06007KT 10SM OVC049 01/M02 A3016 860 78 -500 060/07 RMK AO2
94908KDBQ DBQ20071118000010211/18/07 00:00:38  5-MIN KDBQ 180600Z AUTO 06008KT 10SM OVC049 01/M02 A3016 850 78 -500 060/08 RMK AO2
94908KDBQ DBQ20071118000510211/18/07 00:05:31  5-MIN KDBQ 180605Z AUTO 06011KT 10SM OVC049 01/M02 A3016 850 78 -500 060/11 RMK AO2
94908KDBQ DBQ20071118001010211/18/07 00:10:31  5-MIN KDBQ 180610Z AUTO 05010KT 10SM OVC049 01/M02 A3017 850 78 -500 050/10 RMK AO2
94908KDBQ DBQ20071118001510211/18/07 00:15:32  5-MIN KDBQ 180615Z AUTO 05009KT 10SM OVC049 01/M03 A3017 850 75 -500 050/09 RMK AO2
94908KDBQ DBQ20071118002010211/18/07 00:20:31  5-MIN KDBQ 180620Z AUTO 05008KT 10SM OVC047 01/M02 A3017 850 78 -500 050/08 RMK AO2
94908KDBQ DBQ20071118002510211/18/07 00:25:31  5-MIN KDBQ 180625Z AUTO 05011KT 10SM OVC047 01/M03 A3017 850 75 -600 050/11 RMK AO2
94908KDBQ DBQ20071118003010211/18/07 00:30:31  5-MIN KDBQ 180630Z AUTO 06009KT 10SM OVC047 01/M03 A3017 840 75 -600 060/09 RMK AO2
94908KDBQ DBQ20071118003510211/18/07 00:35:31  5-MIN KDBQ 180635Z AUTO 06008KT 10SM OVC045 01/M03 A3018 840 75 -600 060/08 RMK AO2
94908KDBQ DBQ20071118004010211/18/07 00:40:31  5-MIN KDBQ 180640Z AUTO 05008KT 10SM OVC045 01/M03 A3018 840 75 -600 050/08 RMK AO2
94908KDBQ DBQ20071118004510211/18/07 00:45:31  5-MIN KDBQ 180645Z AUTO 06011KT 10SM OVC045 01/M03 A3018 840 75 -600 060/11 RMK AO2
94908KDBQ DBQ20071118005011911/18/07 00:50:31  5-MIN KDBQ 180650Z AUTO 06010KT 10SM OVC045 01/M03 A3018 840 75 -600 060/10 RMK AO2 SLP229 T00111028
94908KDBQ DBQ20071118005510211/18/07 00:55:31  5-MIN KDBQ 180655Z AUTO 06008KT 10SM OVC045 01/M03 A3018 840 75 -600 060/08 RMK AO2
94908KDBQ DBQ20071118010010211/18/07 01:00:31  5-MIN KDBQ 180700Z AUTO 05009KT 10SM OVC045 01/M03 A3018 840 75 -600 050/09 RMK AO2
94908KDBQ DBQ20071118010510211/18/07 01:05:31  5-MIN KDBQ 180705Z AUTO 06009KT 10SM OVC045 01/M03 A3018 840 75 -600 060/09 RMK AO2
94908KDBQ DBQ20071118011010211/18/07 01:10:31  5-MIN KDBQ 180710Z AUTO 06010KT 10SM OVC045 01/M03 A3018 840 72 -600 060/10 RMK AO2
94908KDBQ DBQ20071118011510911/18/07 01:15:31  5-MIN KDBQ 180715Z AUTO 06010KT 10SM BKN045 OVC055 01/M03 A3018 840 72 -600 050/10 RMK AO2
94908KDBQ DBQ20071118012010911/18/07 01:20:31  5-MIN KDBQ 180720Z AUTO 06011KT 10SM BKN047 OVC060 01/M03 A3018 840 72 -600 060/11 RMK AO2
94908KDBQ DBQ20071118012510911/18/07 01:25:31  5-MIN KDBQ 180725Z AUTO 05009KT 10SM BKN047 OVC060 01/M03 A3018 840 72 -600 050/09 RMK AO2
94908KDBQ DBQ20071118013010911/18/07 01:30:31  5-MIN KDBQ 180730Z AUTO 05009KT 10SM BKN049 OVC060 01/M03 A3018 840 75 -600 050/09 RMK AO2
94908KDBQ DBQ20071118013510911/18/07 01:35:31  5-MIN KDBQ 180735Z AUTO 05008KT 10SM SCT049 OVC060 01/M03 A3019 830 75 -600 050/08 RMK AO2
94908KDBQ DBQ20071118014010211/18/07 01:40:31  5-MIN KDBQ 180740Z AUTO 04007KT 10SM OVC055 01/M03 A3019 830 78 -600 040/07 RMK AO2
94908KDBQ DBQ20071118014510211/18/07 01:45:31  5-MIN KDBQ 180745Z AUTO 05007KT 10SM OVC055 01/M03 A3019 830 78 -600 040/07 RMK AO2
94908KDBQ DBQ20071118015011911/18/07 01:50:31  5-MIN KDBQ 180750Z AUTO 05007KT 10SM OVC060 01/M03 A3019 830 78 -600 050/07 RMK AO2 SLP234 T00061028
94908KDBQ DBQ20071118015510211/18/07 01:55:31  5-MIN KDBQ 180755Z AUTO 05010KT 10SM OVC060 01/M03 A3019 830 78 -600 050/10 RMK AO2
94908KDBQ DBQ20071118020010211/18/07 02:00:31  5-MIN KDBQ 180800Z AUTO 05009KT 10SM OVC060 01/M03 A3019 830 78 -600 050/09 RMK AO2
94908KDBQ DBQ20071118021510211/18/07 02:15:31  5-MIN KDBQ 180815Z AUTO 05010KT 10SM OVC060 01/M03 A3019 830 75 -600 050/10 RMK AO2
94908KDBQ DBQ20071118022010211/18/07 02:20:31  5-MIN KDBQ 180820Z AUTO 06010KT 10SM OVC060 01/M03 A3019 830 75 -600 050/10 RMK AO2
94908KDBQ DBQ20071118022510211/18/07 02:25:31  5-MIN KDBQ 180825Z AUTO 06010KT 10SM OVC060 01/M03 A3019 830 75 -600 060/10 RMK AO2
94908KDBQ DBQ20071118023010211/18/07 02:30:31  5-MIN KDBQ 180830Z AUTO 05011KT 10SM OVC060 01/M03 A3019 830 75 -600 050/11 RMK AO2
94908KDBQ DBQ20071118023510211/18/07 02:35:31  5-MIN KDBQ 180835Z AUTO 05010KT 10SM OVC060 01/M03 A3020 820 75 -600 050/10 RMK AO2
94908KDBQ DBQ20071118024010211/18/07 02:40:31  5-MIN KDBQ 180840Z AUTO 05009KT 10SM OVC060 01/M03 A3020 820 75 -600 050/09 RMK AO2
94908KDBQ DBQ20071118024510211/18/07 02:45:31  5-MIN KDBQ 180845Z AUTO 05007KT 10SM OVC060 01/M03 A3020 820 75 -700 050/07 RMK AO2
94908KDBQ DBQ20071118025012511/18/07 02:50:31  5-MIN KDBQ 180850Z AUTO 04008KT 10SM OVC060 00/M03 A3020 820 78 -700 040/08 RMK AO2 SLP237 T00001033 53013
94908KDBQ DBQ20071118025510211/18/07 02:55:31  5-MIN KDBQ 180855Z AUTO 04007KT 10SM OVC060 00/M03 A3020 820 78 -700 040/07 RMK AO2
94908KDBQ DBQ20071118030010211/18/07 03:00:31  5-MIN KDBQ 180900Z AUTO 04006KT 10SM OVC060 00/M03 A3020 820 78 -700 040/06 RMK AO2
94908KDBQ DBQ20071118030510911/18/07 03:05:31  5-MIN KDBQ 180905Z AUTO 03006KT 10SM FEW016 OVC060 00/M03 A3021 820 78 -700 030/06 RMK AO2
94908KDBQ DBQ20071118031010911/18/07 03:10:31  5-MIN KDBQ 180910Z AUTO 04006KT 10SM FEW016 OVC060 00/M03 A3021 810 78 -700 040/06 RMK AO2
94908KDBQ DBQ20071118031510911/18/07 03:15:31  5-MIN KDBQ 180915Z AUTO 04006KT 10SM FEW016 OVC060 00/M04 A3021 810 75 -700 030/06 RMK AO2
94908KDBQ DBQ20071118032010911/18/07 03:20:31  5-MIN KDBQ 180920Z AUTO 04008KT 10SM FEW016 OVC055 00/M04 A3021 810 75 -700 040/08 RMK AO2
94908KDBQ DBQ20071118032510911/18/07 03:25:31  5-MIN KDBQ 180925Z AUTO 04007KT 10SM FEW016 OVC055 00/M04 A3020 820 75 -700 040/07 RMK AO2
94908KDBQ DBQ20071118033010911/18/07 03:30:31  5-MIN KDBQ 180930Z AUTO 04008KT 10SM FEW016 OVC055 00/M04 A3020 820 75 -700 040/08 RMK AO2
94908KDBQ DBQ20071118033510211/18/07 03:35:31  5-MIN KDBQ 180935Z AUTO 05008KT 10SM OVC055 00/M04 A3020 820 75 -700 050/08 RMK AO2
94908KDBQ DBQ20071118034010211/18/07 03:40:31  5-MIN KDBQ 180940Z AUTO 05009KT 10SM OVC055 00/M04 A3020 820 75 -700 040/09 RMK AO2
94908KDBQ DBQ20071118034510211/18/07 03:45:31  5-MIN KDBQ 180945Z AUTO 05009KT 10SM OVC060 00/M04 A3021 820 75 -700 050/09 RMK AO2
94908KDBQ DBQ20071118035011911/18/07 03:50:31  5-MIN KDBQ 180950Z AUTO 05007KT 10SM OVC060 00/M04 A3021 810 75 -700 050/07 RMK AO2 SLP240 T00001039
94908KDBQ DBQ20071118035510211/18/07 03:55:31  5-MIN KDBQ 180955Z AUTO 04008KT 10SM OVC060 00/M04 A3021 810 75 -700 040/08 RMK AO2
94908KDBQ DBQ20071118040010211/18/07 04:00:31  5-MIN KDBQ 181000Z AUTO 05007KT 10SM OVC060 00/M04 A3021 810 75 -700 040/07 RMK AO2
94908KDBQ DBQ20071118040510211/18/07 04:05:31  5-MIN KDBQ 181005Z AUTO 05006KT 10SM OVC060 00/M04 A3021 810 75 -700 050/06 RMK AO2
94908KDBQ DBQ20071118041010211/18/07 04:10:31  5-MIN KDBQ 181010Z AUTO 05008KT 10SM OVC060 00/M04 A3020 820 75 -700 050/08 RMK AO2
94908KDBQ DBQ20071118041510211/18/07 04:15:31  5-MIN KDBQ 181015Z AUTO 05008KT 10SM OVC060 00/M04 A3020 820 75 -700 050/08 RMK AO2
94908KDBQ DBQ20071118042010311/18/07 04:20:31  5-MIN KDBQ 181020Z AUTO 05007KT 10SM OVC060 M01/M04 A3021 820 78 -800 050/07 RMK AO2
94908KDBQ DBQ20071118042510311/18/07 04:25:31  5-MIN KDBQ 181025Z AUTO 04007KT 10SM OVC060 M01/M04 A3021 810 78 -800 040/07 RMK AO2
94908KDBQ DBQ20071118043010311/18/07 04:30:31  5-MIN KDBQ 181030Z AUTO 05006KT 10SM OVC060 M01/M04 A3021 810 78 -800 050/06 RMK AO2
94908KDBQ DBQ20071118043510311/18/07 04:35:31  5-MIN KDBQ 181035Z AUTO 04005KT 10SM OVC060 M01/M04 A3021 810 78 -800 040/05 RMK AO2
94908KDBQ DBQ20071118044010311/18/07 04:40:31  5-MIN KDBQ 181040Z AUTO 04007KT 10SM OVC060 M01/M04 A3021 810 78 -800 040/07 RMK AO2
94908KDBQ DBQ20071118044510311/18/07 04:45:31  5-MIN KDBQ 181045Z AUTO 04007KT 10SM BKN060 M01/M04 A3021 810 81 -900 040/07 RMK AO2
94908KDBQ DBQ20071118045012011/18/07 04:50:31  5-MIN KDBQ 181050Z AUTO 05007KT 10SM BKN060 M01/M04 A3021 810 81 -900 040/07 RMK AO2 SLP242 T10111039
94908KDBQ DBQ20071118045510311/18/07 04:55:31  5-MIN KDBQ 181055Z AUTO 04008KT 10SM BKN060 M01/M04 A3021 820 81 -900 040/08 RMK AO2
94908KDBQ DBQ20071118050010311/18/07 05:00:31  5-MIN KDBQ 181100Z AUTO 05006KT 10SM BKN060 M01/M04 A3020 820 81 -900 050/06 RMK AO2
94908KDBQ DBQ20071118050510311/18/07 05:05:31  5-MIN KDBQ 181105Z AUTO 06008KT 10SM BKN060 M01/M04 A3021 820 78 -800 060/08 RMK AO2
94908KDBQ DBQ20071118051010311/18/07 05:10:31  5-MIN KDBQ 181110Z AUTO 05007KT 10SM BKN060 M01/M04 A3020 820 78 -800 050/07 RMK AO2
94908KDBQ DBQ20071118051510311/18/07 05:15:31  5-MIN KDBQ 181115Z AUTO 05006KT 10SM BKN060 M01/M04 A3020 820 78 -800 050/06 RMK AO2
94908KDBQ DBQ20071118052010311/18/07 05:20:31  5-MIN KDBQ 181120Z AUTO 04006KT 10SM OVC060 M01/M04 A3021 810 78 -800 040/06 RMK AO2
94908KDBQ DBQ20071118052510311/18/07 05:25:31  5-MIN KDBQ 181125Z AUTO 04006KT 10SM OVC060 M01/M04 A3021 810 78 -800 040/06 RMK AO2
94908KDBQ DBQ20071118053010311/18/07 05:30:31  5-MIN KDBQ 181130Z AUTO 05006KT 10SM OVC060 M01/M04 A3020 820 81 -900 050/06 RMK AO2
94908KDBQ DBQ20071118053510311/18/07 05:35:31  5-MIN KDBQ 181135Z AUTO 05006KT 10SM BKN060 M01/M04 A3020 820 81 -900 050/06 RMK AO2
94908KDBQ DBQ20071118054010311/18/07 05:40:31  5-MIN KDBQ 181140Z AUTO 05007KT 10SM BKN060 M01/M04 A3020 820 81 -900 050/07 RMK AO2
94908KDBQ DBQ20071118054510311/18/07 05:45:31  5-MIN KDBQ 181145Z AUTO 05005KT 10SM SCT060 M01/M04 A3020 820 81 -900 050/05 RMK AO2
94908KDBQ DBQ20071118055013811/18/07 05:50:31  5-MIN KDBQ 181150Z AUTO 05005KT 10SM FEW060 M01/M04 A3020 820 81 -900 050/05 RMK AO2 SLP240 T10111039 10011 21011 51012
94908KDBQ DBQ20071118055509811/18/07 05:55:31  5-MIN KDBQ 181155Z 06006KT 10SM FEW060 M01/M04 A3020 820 81 -900 060/06 RMK AO2
94908KDBQ DBQ20071118060009511/18/07 06:00:31  5-MIN KDBQ 181200Z 06006KT 10SM CLR M01/M04 A3020 820 81 -900 060/06 RMK AO2
94908KDBQ DBQ20071118060509511/18/07 06:05:31  5-MIN KDBQ 181205Z 06006KT 10SM CLR M01/M04 A3021 810 81 -900 060/06 RMK AO2
94908KDBQ DBQ20071118061009511/18/07 06:10:31  5-MIN KDBQ 181210Z 06004KT 10SM CLR M01/M04 A3021 810 81 -900 060/04 RMK AO2
94908KDBQ DBQ20071118061509511/18/07 06:15:31  5-MIN KDBQ 181215Z 07005KT 10SM CLR M01/M04 A3021 810 78 -900 070/05 RMK AO2
94908KDBQ DBQ20071118062009511/18/07 06:20:31  5-MIN KDBQ 181220Z 07005KT 10SM CLR M02/M04 A3021 810 81 -900 070/05 RMK AO2
94908KDBQ DBQ20071118062509611/18/07 06:25:31  5-MIN KDBQ 181225Z 06004KT 10SM CLR M02/M04 A3022 800 81 -1000 060/04 RMK AO2
94908KDBQ DBQ20071118063009611/18/07 06:30:31  5-MIN KDBQ 181230Z 06004KT 10SM CLR M02/M04 A3022 800 81 -1000 060/04 RMK AO2
94908KDBQ DBQ20071118063509611/18/07 06:35:31  5-MIN KDBQ 181235Z 06004KT 10SM CLR M02/M04 A3022 800 81 -1000 060/04 RMK AO2
94908KDBQ DBQ20071118064009611/18/07 06:40:31  5-MIN KDBQ 181240Z 06004KT 10SM CLR M02/M04 A3022 800 81 -1000 060/04 RMK AO2
94908KDBQ DBQ20071118064509611/18/07 06:45:31  5-MIN KDBQ 181245Z 07004KT 10SM CLR M02/M04 A3023 800 81 -1000 060/04 RMK AO2
94908KDBQ DBQ20071118065011311/18/07 06:50:31  5-MIN KDBQ 181250Z 06005KT 10SM CLR M02/M04 A3023 800 81 -1000 060/05 RMK AO2 SLP248 T10171044
94908KDBQ DBQ20071118065509611/18/07 06:55:31  5-MIN KDBQ 181255Z 06005KT 10SM CLR M02/M04 A3023 790 85 -1000 060/05 RMK AO2
94908KDBQ DBQ20071118070009611/18/07 07:00:31  5-MIN KDBQ 181300Z 06006KT 10SM CLR M02/M04 A3023 790 85 -1000 060/06 RMK AO2
94908KDBQ DBQ20071118070509611/18/07 07:05:31  5-MIN KDBQ 181305Z 06006KT 10SM CLR M02/M04 A3023 790 81 -1000 060/06 RMK AO2
94908KDBQ DBQ20071118071009611/18/07 07:10:31  5-MIN KDBQ 181310Z 05006KT 10SM CLR M02/M04 A3023 790 85 -1000 050/06 RMK AO2
94908KDBQ DBQ20071118071509611/18/07 07:15:31  5-MIN KDBQ 181315Z 06007KT 10SM CLR M02/M04 A3023 800 85 -1000 060/07 RMK AO2
94908KDBQ DBQ20071118072009611/18/07 07:20:31  5-MIN KDBQ 181320Z 06005KT 10SM CLR M02/M04 A3023 790 85 -1000 060/05 RMK AO2
94908KDBQ DBQ20071118072509611/18/07 07:25:31  5-MIN KDBQ 181325Z 06006KT 10SM CLR M02/M04 A3023 790 85 -1000 060/06 RMK AO2
94908KDBQ DBQ20071118073009511/18/07 07:30:31  5-MIN KDBQ 181330Z 06006KT 10SM CLR M01/M04 A3023 790 81 -900 060/06 RMK AO2
94908KDBQ DBQ20071118073509511/18/07 07:35:31  5-MIN KDBQ 181335Z 06005KT 10SM CLR M01/M03 A3024 790 85 -900 060/05 RMK AO2
94908KDBQ DBQ20071118074009511/18/07 07:40:31  5-MIN KDBQ 181340Z 06006KT 10SM CLR M01/M03 A3023 790 85 -900 060/06 RMK AO2
94908KDBQ DBQ20071118074509511/18/07 07:45:31  5-MIN KDBQ 181345Z 07005KT 10SM CLR M01/M03 A3024 790 85 -900 060/05 RMK AO2
94908KDBQ DBQ20071118075011211/18/07 07:50:31  5-MIN KDBQ 181350Z 06005KT 10SM CLR M01/M03 A3024 780 81 -800 060/05 RMK AO2 SLP253 T10061033
94908KDBQ DBQ20071118075509511/18/07 07:55:31  5-MIN KDBQ 181355Z 07006KT 10SM CLR M01/M03 A3024 780 81 -800 060/06 RMK AO2
94908KDBQ DBQ20071118080009511/18/07 08:00:31  5-MIN KDBQ 181400Z 07006KT 10SM CLR M01/M03 A3025 780 85 -800 060/06 RMK AO2
94908KDBQ DBQ20071118080509511/18/07 08:05:31  5-MIN KDBQ 181405Z 07006KT 10SM CLR M01/M03 A3025 780 85 -800 060/06 RMK AO2
94908KDBQ DBQ20071118081009411/18/07 08:10:31  5-MIN KDBQ 181410Z 07006KT 10SM CLR 00/M03 A3025 780 81 -800 060/06 RMK AO2
94908KDBQ DBQ20071118081509411/18/07 08:15:31  5-MIN KDBQ 181415Z 06007KT 10SM CLR 00/M03 A3025 780 81 -800 060/07 RMK AO2
94908KDBQ DBQ20071118082009411/18/07 08:20:31  5-MIN KDBQ 181420Z 07006KT 10SM CLR 00/M03 A3025 780 81 -800 070/06 RMK AO2
94908KDBQ DBQ20071118082509411/18/07 08:25:31  5-MIN KDBQ 181425Z 08005KT 10SM CLR 00/M03 A3025 770 81 -800 080/05 RMK AO2
94908KDBQ DBQ20071118083009411/18/07 08:30:31  5-MIN KDBQ 181430Z 09006KT 10SM CLR 01/M02 A3025 770 82 -700 090/06 RMK AO2
94908KDBQ DBQ20071118083509411/18/07 08:35:31  5-MIN KDBQ 181435Z 09006KT 10SM CLR 01/M02 A3025 770 82 -700 080/06 RMK AO2
94908KDBQ DBQ20071118084009411/18/07 08:40:31  5-MIN KDBQ 181440Z 10005KT 10SM CLR 01/M02 A3026 770 78 -600 090/05 RMK AO2
94908KDBQ DBQ20071118084509411/18/07 08:45:31  5-MIN KDBQ 181445Z 10007KT 10SM CLR 01/M02 A3026 770 82 -600 100/07 RMK AO2
94908KDBQ DBQ20071118085011711/18/07 08:50:31  5-MIN KDBQ 181450Z 11007KT 10SM CLR 02/M02 A3026 760 78 -600 110/07 RMK AO2 SLP259 T00171017 50001
94908KDBQ DBQ20071118085509411/18/07 08:55:31  5-MIN KDBQ 181455Z 11006KT 10SM CLR 02/M02 A3027 760 78 -600 110/06 RMK AO2
94908KDBQ DBQ20071118090009411/18/07 09:00:31  5-MIN KDBQ 181500Z 11009KT 10SM CLR 02/M02 A3027 760 78 -600 110/09 RMK AO2
94908KDBQ DBQ20071118090509711/18/07 09:05:31  5-MIN KDBQ 181505Z 11007KT 10SM FEW090 02/M02 A3027 760 78 -600 110/07 RMK AO2
94908KDBQ DBQ20071118091009711/18/07 09:10:31  5-MIN KDBQ 181510Z 11009KT 10SM FEW090 02/M02 A3027 760 78 -600 110/09 RMK AO2
94908KDBQ DBQ20071118091509711/18/07 09:15:31  5-MIN KDBQ 181515Z 11009KT 10SM FEW085 02/M02 A3027 760 78 -600 110/09 RMK AO2
94908KDBQ DBQ20071118092009711/18/07 09:20:31  5-MIN KDBQ 181520Z 11006KT 10SM SCT085 02/M02 A3027 760 75 -500 110/06 RMK AO2
94908KDBQ DBQ20071118092509711/18/07 09:25:31  5-MIN KDBQ 181525Z 12007KT 10SM SCT085 02/M01 A3027 760 78 -500 120/07 RMK AO2
94908KDBQ DBQ20071118093009711/18/07 09:30:31  5-MIN KDBQ 181530Z 12009KT 10SM SCT085 03/M01 A3027 750 75 -500 110/09 RMK AO2
94908KDBQ DBQ20071118093509711/18/07 09:35:31  5-MIN KDBQ 181535Z 13007KT 10SM SCT085 03/M01 A3027 760 75 -500 130/07 RMK AO2
94908KDBQ DBQ20071118094009711/18/07 09:40:31  5-MIN KDBQ 181540Z 12009KT 10SM BKN085 03/M01 A3027 760 72 -400 120/09 RMK AO2
94908KDBQ DBQ20071118094510311/18/07 09:45:31  5-MIN KDBQ 181545Z 13010G15KT 10SM BKN085 03/M01 A3027 760 72 -400 130/10G15 RMK AO2
94908KDBQ DBQ20071118095011411/18/07 09:50:31  5-MIN KDBQ 181550Z 13011KT 10SM BKN085 03/M01 A3027 760 72 -400 130/11 RMK AO2 SLP260 T00331011
94908KDBQ DBQ20071118095509711/18/07 09:55:31  5-MIN KDBQ 181555Z 13009KT 10SM BKN090 04/M01 A3027 760 73 -300 130/09 RMK AO2
94908KDBQ DBQ20071118100010311/18/07 10:00:31  5-MIN KDBQ 181600Z 13011G16KT 10SM BKN090 03/M01 A3027 760 72 -400 130/11G16 RMK AO2
94908KDBQ DBQ20071118100509711/18/07 10:05:31  5-MIN KDBQ 181605Z 13010KT 10SM BKN090 04/M01 A3027 760 73 -300 130/10 RMK AO2
94908KDBQ DBQ20071118101009711/18/07 10:10:31  5-MIN KDBQ 181610Z 14009KT 10SM BKN095 04/M01 A3027 760 73 -300 140/09 RMK AO2
94908KDBQ DBQ20071118101509711/18/07 10:15:31  5-MIN KDBQ 181615Z 14012KT 10SM BKN095 04/M01 A3027 760 73 -300 140/12 RMK AO2
94908KDBQ DBQ20071118102010311/18/07 10:20:31  5-MIN KDBQ 181620Z 14012G17KT 10SM OVC095 04/M01 A3027 760 70 -200 140/12G17 RMK AO2
94908KDBQ DBQ20071118102510311/18/07 10:25:31  5-MIN KDBQ 181625Z 14012G18KT 10SM OVC095 04/M01 A3027 760 70 -200 140/12G18 RMK AO2
94908KDBQ DBQ20071118103010311/18/07 10:30:31  5-MIN KDBQ 181630Z 14011G18KT 10SM OVC095 04/M01 A3026 760 73 -300 140/11G18 RMK AO2
94908KDBQ DBQ20071118103509711/18/07 10:35:31  5-MIN KDBQ 181635Z 13011KT 10SM BKN095 04/M01 A3027 760 70 -200 130/11 RMK AO2
94908KDBQ DBQ20071118104010311/18/07 10:40:31  5-MIN KDBQ 181640Z 14010G16KT 10SM BKN095 04/M01 A3027 760 70 -200 140/10G16 RMK AO2
94908KDBQ DBQ20071118104510311/18/07 10:45:31  5-MIN KDBQ 181645Z 13013G18KT 10SM BKN095 04/M01 A3026 770 70 -200 120/13G18 RMK AO2
94908KDBQ DBQ20071118105011411/18/07 10:50:31  5-MIN KDBQ 181650Z 14012KT 10SM BKN095 04/M01 A3026 760 70 -200 140/12 RMK AO2 SLP258 T00441006
94908KDBQ DBQ20071118105509711/18/07 10:55:31  5-MIN KDBQ 181655Z 14011KT 10SM BKN090 04/M01 A3026 770 70 -200 140/11 RMK AO2
94908KDBQ DBQ20071118110009711/18/07 11:00:31  5-MIN KDBQ 181700Z 13011KT 10SM BKN090 05/M01 A3026 770 67 -200 130/11 RMK AO2
94908KDBQ DBQ20071118110509711/18/07 11:05:31  5-MIN KDBQ 181705Z 12010KT 10SM BKN090 05/M01 A3026 770 67 -200 120/10 RMK AO2
94908KDBQ DBQ20071118111010411/18/07 11:10:31  5-MIN KDBQ 181710Z 13010KT 10SM BKN090 BKN110 05/M01 A3026 760 67 -200 130/10 RMK AO2
94908KDBQ DBQ20071118111510411/18/07 11:15:31  5-MIN KDBQ 181715Z 15012KT 10SM SCT090 SCT110 06/M01 A3026 760 65 -100 150/12 RMK AO2
94908KDBQ DBQ20071118112010811/18/07 11:20:31  5-MIN KDBQ 181720Z 14013KT 10SM FEW025 SCT090 SCT110 06/M01 A3026 770 62 0 140/13 RMK AO2
94908KDBQ DBQ20071118112511111/18/07 11:25:31  5-MIN KDBQ 181725Z 14011KT 10SM FEW025 SCT090 SCT110 06/M01 A3026 770 62 -100 130/11 RMK AO2
94908KDBQ DBQ20071118113011111/18/07 11:30:31  5-MIN KDBQ 181730Z 15013KT 10SM FEW027 SCT075 BKN110 06/M02 A3025 770 59 -100 140/13 RMK AO2
94908KDBQ DBQ20071118113511111/18/07 11:35:31  5-MIN KDBQ 181735Z 15012KT 10SM FEW027 SCT075 BKN090 06/M02 A3025 770 59 -100 150/12 RMK AO2
94908KDBQ DBQ20071118114010411/18/07 11:40:31  5-MIN KDBQ 181740Z 16013KT 10SM SCT075 BKN090 06/M02 A3025 770 59 -100 150/13 RMK AO2
94908KDBQ DBQ20071118114511011/18/07 11:45:31  5-MIN KDBQ 181745Z 15009G17KT 10SM BKN075 BKN090 06/M02 A3025 780 59 -100 150/09G17 RMK AO2
94908KDBQ DBQ20071118115014511/18/07 11:50:31  5-MIN KDBQ 181750Z 16010G17KT 10SM BKN070 BKN090 05/M01 A3025 780 64 -200 160/10G17 RMK AO2 SLP252 T00501011 10061 21022 51020
94908KDBQ DBQ20071118115510311/18/07 11:55:31  5-MIN KDBQ 181755Z 14010G17KT 10SM OVC070 05/M02 A3024 780 62 -200 140/10G17 RMK AO2
94908KDBQ DBQ20071118120010311/18/07 12:00:31  5-MIN KDBQ 181800Z 15009G16KT 10SM OVC070 05/M01 A3024 780 64 -100 150/09G16 RMK AO2
94908KDBQ DBQ20071118120510311/18/07 12:05:31  5-MIN KDBQ 181805Z 15014G18KT 10SM OVC070 06/M02 A3023 790 59 -100 150/14G18 RMK AO2
94908KDBQ DBQ20071118121009711/18/07 12:10:31  5-MIN KDBQ 181810Z 15012KT 10SM OVC070 06/M02 A3023 790 59 -100 150/12 RMK AO2
94908KDBQ DBQ20071118121509711/18/07 12:15:31  5-MIN KDBQ 181815Z 14011KT 10SM OVC070 06/M01 A3023 790 62 -100 140/11 RMK AO2
94908KDBQ DBQ20071118122010411/18/07 12:20:31  5-MIN KDBQ 181820Z 14010KT 10SM BKN070 OVC085 06/M01 A3023 790 62 -100 140/10 RMK AO2
94908KDBQ DBQ20071118122510411/18/07 12:25:31  5-MIN KDBQ 181825Z 12012KT 10SM BKN070 OVC085 06/M01 A3023 790 62 -100 120/12 RMK AO2
94908KDBQ DBQ20071118123010411/18/07 12:30:31  5-MIN KDBQ 181830Z 12009KT 10SM BKN070 OVC085 05/M01 A3023 800 64 -100 120/09 RMK AO2
94908KDBQ DBQ20071118123510411/18/07 12:35:31  5-MIN KDBQ 181835Z 12010KT 10SM BKN065 OVC085 05/M01 A3022 800 64 -100 120/10 RMK AO2
94908KDBQ DBQ20071118124011111/18/07 12:40:31  5-MIN KDBQ 181840Z 12009KT 10SM BKN055 BKN070 OVC085 05/M02 A3022 800 62 -100 120/09 RMK AO2
94908KDBQ DBQ20071118124510411/18/07 12:45:31  5-MIN KDBQ 181845Z 12011KT 10SM BKN050 OVC065 05/M01 A3022 800 64 -100 120/11 RMK AO2
94908KDBQ DBQ20071118125012111/18/07 12:50:31  5-MIN KDBQ 181850Z 13009KT 10SM BKN050 OVC060 05/M02 A3022 800 62 -100 130/09 RMK AO2 SLP243 T00501017
94908KDBQ DBQ20071118125510411/18/07 12:55:31  5-MIN KDBQ 181855Z 12011KT 10SM BKN050 OVC060 05/M01 A3022 800 64 -100 120/11 RMK AO2
94908KDBQ DBQ20071118130010411/18/07 13:00:31  5-MIN KDBQ 181900Z 13008KT 10SM SCT050 OVC065 05/M02 A3023 790 62 -100 130/08 RMK AO2
94908KDBQ DBQ20071118130511011/18/07 13:05:31  5-MIN KDBQ 181905Z 13007KT 9SM BKN045 BKN050 OVC065 05/M01 A3023 790 64 -100 120/07 RMK AO2
94908KDBQ DBQ20071118131010311/18/07 13:10:31  5-MIN KDBQ 181910Z 13005KT 9SM BKN045 OVC065 05/M01 A3022 800 64 -100 130/05 RMK AO2
94908KDBQ DBQ20071118131510311/18/07 13:15:31  5-MIN KDBQ 181915Z 13008KT 8SM BKN043 OVC065 05/M01 A3022 800 64 -100 130/08 RMK AO2
94908KDBQ DBQ20071118132010311/18/07 13:20:31  5-MIN KDBQ 181920Z 13007KT 8SM BKN043 OVC065 05/M01 A3022 800 64 -100 130/07 RMK AO2
94908KDBQ DBQ20071118132511911/18/07 13:25:31  5-MIN KDBQ 181925Z 12009KT 8SM -RA FEW027 OVC043 05/M01 A3022 800 67 -100 120/09 RMK AO2 RAB24 P0000
94908KDBQ DBQ20071118133011911/18/07 13:30:31  5-MIN KDBQ 181930Z 13009KT 8SM -RA SCT025 OVC043 05/M01 A3021 810 67 -100 130/09 RMK AO2 RAB24 P0000
94908KDBQ DBQ20071118133511711/18/07 13:35:31  5-MIN KDBQ 181935Z 12009KT 9SM SCT023 BKN043 05/00 A3021 810 70 -100 120/09 RMK AO2 RAB24E33 P0000
94908KDBQ DBQ20071118134012511/18/07 13:40:31  5-MIN KDBQ 181940Z 14008KT 7SM -RA FEW023 SCT027 BKN043 05/00 A3021 820 70 -100 130/08 RMK AO2 RAB24 P0000
94908KDBQ DBQ20071118134512511/18/07 13:45:31  5-MIN KDBQ 181945Z 13008KT 6SM -RA FEW023 SCT029 BKN043 04/00 A3020 820 73 -200 130/08 RMK AO2 RAB24 P0000
94908KDBQ DBQ20071118135014211/18/07 13:50:31  5-MIN KDBQ 181950Z 13010KT 7SM -RA FEW023 SCT036 BKN043 04/00 A3020 820 73 -200 130/10 RMK AO2 RAB24 SLP237 P0000 T00440000
94908KDBQ DBQ20071118135511911/18/07 13:55:31  5-MIN KDBQ 181955Z 13008KT 6SM -RA FEW023 BKN040 BKN050 04/00 A3020 820 73 -200 130/08 RMK AO2 P0000
94908KDBQ DBQ20071118140011211/18/07 14:00:31  5-MIN KDBQ 182000Z 13006KT 6SM -RA SCT042 BKN050 04/00 A3019 830 73 -200 130/06 RMK AO2 P0000
94908KDBQ DBQ20071118140511211/18/07 14:05:31  5-MIN KDBQ 182005Z 13007KT 6SM -RA SCT043 BKN050 04/01 A3019 830 76 -200 130/07 RMK AO2 P0000
94908KDBQ DBQ20071118141011911/18/07 14:10:31  5-MIN KDBQ 182010Z 12008KT 6SM -RA SCT036 BKN044 BKN050 04/01 A3019 830 76 -200 120/08 RMK AO2 P0000
94908KDBQ DBQ20071118141511911/18/07 14:15:31  5-MIN KDBQ 182015Z 13008KT 6SM -RA SCT036 BKN044 BKN060 04/01 A3018 840 76 -100 130/08 RMK AO2 P0000
94908KDBQ DBQ20071118142011411/18/07 14:20:31  5-MIN KDBQ 182020Z 12007KT 7SM FEW034 BKN060 04/01 A3018 840 76 -200 120/07 RMK AO2 RAE16 P0000
94908KDBQ DBQ20071118142511411/18/07 14:25:31  5-MIN KDBQ 182025Z 12008KT 7SM FEW034 OVC060 05/01 A3018 840 73 -100 120/08 RMK AO2 RAE16 P0000
94908KDBQ DBQ20071118143011411/18/07 14:30:31  5-MIN KDBQ 182030Z 13009KT 7SM FEW034 OVC060 05/01 A3018 840 73 -100 130/09 RMK AO2 RAE16 P0000
94908KDBQ DBQ20071118143511411/18/07 14:35:31  5-MIN KDBQ 182035Z 13007KT 8SM FEW029 BKN060 05/01 A3017 850 73 -100 130/07 RMK AO2 RAE16 P0000
94908KDBQ DBQ20071118144010711/18/07 14:40:31  5-MIN KDBQ 182040Z 13009KT 8SM BKN060 05/01 A3017 850 73 -100 130/09 RMK AO2 RAE16 P0000
94908KDBQ DBQ20071118144511411/18/07 14:45:31  5-MIN KDBQ 182045Z 13007KT 8SM BKN060 BKN120 05/01 A3017 850 73 -100 130/07 RMK AO2 RAE16 P0000
94908KDBQ DBQ20071118145014311/18/07 14:50:31  5-MIN KDBQ 182050Z 14006KT 8SM SCT060 BKN120 05/01 A3017 850 73 -100 130/06 RMK AO2 RAE16 SLP227 P0000 60001 T00500006 58006
94908KDBQ DBQ20071118145510911/18/07 14:55:31  5-MIN KDBQ 182055Z 13008KT 7SM FEW055 SCT100 SCT120 05/01 A3017 850 73 -100 130/08 RMK AO2
94908KDBQ DBQ20071118150010211/18/07 15:00:31  5-MIN KDBQ 182100Z 13008KT 8SM FEW060 SCT100 05/01 A3017 850 73 -100 130/08 RMK AO2
94908KDBQ DBQ20071118150510211/18/07 15:05:31  5-MIN KDBQ 182105Z 12007KT 8SM FEW060 SCT100 05/01 A3016 850 73 -100 120/07 RMK AO2
94908KDBQ DBQ20071118151010211/18/07 15:10:31  5-MIN KDBQ 182110Z 13007KT 8SM FEW070 SCT100 05/00 A3016 850 70 -100 130/07 RMK AO2
94908KDBQ DBQ20071118151510911/18/07 15:15:31  5-MIN KDBQ 182115Z 13009KT 9SM FEW055 SCT070 BKN100 05/00 A3016 860 70 -100 130/09 RMK AO2
94908KDBQ DBQ20071118152010911/18/07 15:20:31  5-MIN KDBQ 182120Z 13010KT 9SM FEW055 BKN070 BKN100 05/00 A3016 860 70 -100 120/10 RMK AO2
94908KDBQ DBQ20071118152511011/18/07 15:25:31  5-MIN KDBQ 182125Z 13009KT 9SM SCT055 BKN070 BKN100 05/M01 A3016 850 67 -100 130/09 RMK AO2
94908KDBQ DBQ20071118153010911/18/07 15:30:31  5-MIN KDBQ 182130Z 13008KT 9SM BKN055 BKN070 BKN100 05/00 A3016 850 70 -100 130/08 RMK AO2
94908KDBQ DBQ20071118153510211/18/07 15:35:31  5-MIN KDBQ 182135Z 13008KT 9SM BKN055 OVC070 05/00 A3016 860 70 -100 130/08 RMK AO2
94908KDBQ DBQ20071118154010211/18/07 15:40:31  5-MIN KDBQ 182140Z 13007KT 9SM BKN055 OVC070 05/00 A3016 860 70 -100 130/07 RMK AO2
94908KDBQ DBQ20071118154510211/18/07 15:45:31  5-MIN KDBQ 182145Z 13008KT 9SM BKN050 OVC070 05/00 A3016 860 70 -100 130/08 RMK AO2
94908KDBQ DBQ20071118155011211/18/07 15:50:31  5-MIN KDBQ 182150Z 13008KT 9SM OVC050 05/00 A3016 860 70 -100 130/08 RMK AO2 SLP222 T00500000
94908KDBQ DBQ20071118155509211/18/07 15:55:31  5-MIN KDBQ 182155Z 13006KT 9SM OVC050 05/00 A3015 860 70 0 130/06 RMK AO2
94908KDBQ DBQ20071118160009211/18/07 16:00:31  5-MIN KDBQ 182200Z 13009KT 9SM BKN050 05/00 A3015 870 70 0 130/09 RMK AO2
94908KDBQ DBQ20071118160509911/18/07 16:05:31  5-MIN KDBQ 182205Z 13009KT 9SM BKN050 BKN110 05/00 A3015 870 70 0 130/09 RMK AO2
94908KDBQ DBQ20071118161009311/18/07 16:10:31  5-MIN KDBQ 182210Z 13008KT 9SM SCT050 05/M01 A3015 870 67 0 130/08 RMK AO2
94908KDBQ DBQ20071118161509311/18/07 16:15:31  5-MIN KDBQ 182215Z 13007KT 9SM BKN050 05/M01 A3015 860 67 0 130/07 RMK AO2
94908KDBQ DBQ20071118162009311/18/07 16:20:31  5-MIN KDBQ 182220Z 14008KT 9SM BKN055 05/M01 A3015 870 67 0 130/08 RMK AO2
94908KDBQ DBQ20071118162510311/18/07 16:25:31  5-MIN KDBQ 182225Z 13008KT 9SM BKN055 BKN085 04/M01 A3014 870 70 -100 130/08 RMK AO2
94908KDBQ DBQ20071118163010011/18/07 16:30:31  5-MIN KDBQ 182230Z 14010KT 9SM SCT055 BKN085 05/M01 A3014 880 67 0 140/10 RMK AO2
94908KDBQ DBQ20071118163510311/18/07 16:35:31  5-MIN KDBQ 182235Z 14009KT 9SM SCT055 OVC080 04/M01 A3014 880 70 -100 140/09 RMK AO2
94908KDBQ DBQ20071118164010211/18/07 16:40:31  5-MIN KDBQ 182240Z 14008KT 9SM SCT055 OVC080 04/00 A3014 880 73 -100 140/08 RMK AO2
94908KDBQ DBQ20071118164510211/18/07 16:45:31  5-MIN KDBQ 182245Z 14007KT 9SM SCT060 OVC080 04/00 A3014 880 73 -100 140/07 RMK AO2
94908KDBQ DBQ20071118165011911/18/07 16:50:31  5-MIN KDBQ 182250Z 15008KT 9SM BKN065 OVC080 04/00 A3014 870 73 -100 140/08 RMK AO2 SLP219 T00440000
94908KDBQ DBQ20071118165511811/18/07 16:55:31  5-MIN KDBQ 182255Z 15009KT 8SM -RA BKN060 OVC080 04/00 A3014 870 73 -100 150/09 RMK AO2 RAB54 P0000
94908KDBQ DBQ20071118170012011/18/07 17:00:31  5-MIN KDBQ 182300Z 15008KT 8SM -RA BKN060 OVC075 04/00 A3014 870 73 -100 140/08 RMK AO2 RAB2254 P0000
94908KDBQ DBQ20071118170512011/18/07 17:05:31  5-MIN KDBQ 182305Z 16007KT 8SM -RA BKN060 OVC075 04/00 A3014 870 73 -100 160/07 RMK AO2 RAB2254 P0000
94908KDBQ DBQ20071118171011311/18/07 17:10:31  5-MIN KDBQ 182310Z 15008KT 8SM -RA OVC055 04/01 A3014 870 76 -100 150/08 RMK AO2 RAB2254 P0000
94908KDBQ DBQ20071118171511311/18/07 17:15:31  5-MIN KDBQ 182315Z 15007KT 8SM -RA OVC055 04/01 A3014 880 76 -100 150/07 RMK AO2 RAB2254 P0000
94908KDBQ DBQ20071118172012011/18/07 17:20:31  5-MIN KDBQ 182320Z 14009KT 8SM -RA BKN055 OVC070 04/00 A3014 880 73 -100 140/09 RMK AO2 RAB2254 P0000
94908KDBQ DBQ20071118172512011/18/07 17:25:31  5-MIN KDBQ 182325Z 14008KT 7SM -RA BKN060 OVC070 04/01 A3013 880 76 -100 140/08 RMK AO2 RAB2254 P0000
94908KDBQ DBQ20071118173012011/18/07 17:30:31  5-MIN KDBQ 182330Z 13010KT 7SM -RA BKN060 OVC070 04/01 A3013 890 79 -200 130/10 RMK AO2 RAB2254 P0001
94908KDBQ DBQ20071118173512611/18/07 17:35:31  5-MIN KDBQ 182335Z 13010G17KT 6SM -RA FEW042 OVC065 04/01 A3012 890 79 -100 130/10G17 RMK AO2 RAB2254 P0001
94908KDBQ DBQ20071118174012611/18/07 17:40:31  5-MIN KDBQ 182340Z 15007G17KT 6SM -RA FEW042 OVC065 04/01 A3013 880 79 -200 150/07G17 RMK AO2 RAB2254 P0001
94908KDBQ DBQ20071118174512711/18/07 17:45:31  5-MIN KDBQ 182345Z 16009KT 7SM -RA FEW042 BKN060 OVC070 04/01 A3014 870 79 -200 160/09 RMK AO2 RAB2254 P0001
94908KDBQ DBQ20071118175016111/18/07 17:50:31  5-MIN KDBQ 182350Z 16008KT 7SM -RA SCT050 OVC060 04/01 A3014 880 79 -200 150/08 RMK AO2 RAB2254 SLP217 P0001 60002 T00390006 10056 20039 58025
94908KDBQ DBQ20071118175511211/18/07 17:55:31  5-MIN KDBQ 182355Z 15010KT 6SM -RA SCT050 OVC060 04/01 A3013 880 79 -200 150/10 RMK AO2 P0001
94908KDBQ DBQ20071118180011211/18/07 18:00:31  5-MIN KDBQ 190000Z 14010KT 5SM -RA SCT050 OVC070 04/01 A3012 890 82 -100 140/10 RMK AO2 P0001
94908KDBQ DBQ20071118180511211/18/07 18:05:31  5-MIN KDBQ 190005Z 15010KT 6SM -RA BKN060 OVC070 04/01 A3013 890 82 -200 150/10 RMK AO2 P0002
94908KDBQ DBQ20071118181011211/18/07 18:10:31  5-MIN KDBQ 190010Z 14008KT 7SM -RA BKN055 OVC075 04/01 A3013 890 82 -200 140/08 RMK AO2 P0002
94908KDBQ DBQ20071118181512011/18/07 18:15:31  5-MIN KDBQ 190015Z 12012G16KT 7SM BKN055 OVC070 04/01 A3011 900 82 -100 120/12G16 RMK AO2 RAE13 P0002
94908KDBQ DBQ20071118182010711/18/07 18:20:31  5-MIN KDBQ 190020Z 15009KT 7SM OVC060 04/01 A3012 890 82 -100 150/09 RMK AO2 RAE13 P0002
94908KDBQ DBQ20071118182511411/18/07 18:25:31  5-MIN KDBQ 190025Z 15008KT 7SM BKN060 OVC070 04/01 A3012 890 82 -100 150/08 RMK AO2 RAE13 P0002
94908KDBQ DBQ20071118183012111/18/07 18:30:31  5-MIN KDBQ 190030Z 15008KT 7SM BKN060 BKN100 OVC110 04/01 A3013 890 82 -200 150/08 RMK AO2 RAE13 P0002
94908KDBQ DBQ20071118183511411/18/07 18:35:31  5-MIN KDBQ 190035Z 15009KT 7SM BKN060 OVC110 04/01 A3013 890 82 -200 150/09 RMK AO2 RAE13 P0002
94908KDBQ DBQ20071118184011411/18/07 18:40:31  5-MIN KDBQ 190040Z 15008KT 7SM BKN055 OVC110 04/01 A3013 890 82 -200 150/08 RMK AO2 RAE13 P0002
94908KDBQ DBQ20071118184511411/18/07 18:45:31  5-MIN KDBQ 190045Z 16009KT 7SM BKN055 OVC110 04/01 A3012 890 82 -200 150/09 RMK AO2 RAE13 P0002
94908KDBQ DBQ20071118185013411/18/07 18:50:31  5-MIN KDBQ 190050Z 16008KT 6SM HZ SCT055 OVC110 04/01 A3013 890 82 -200 160/08 RMK AO2 RAE13 SLP213 P0002 T00390011
94908KDBQ DBQ20071118185510511/18/07 18:55:31  5-MIN KDBQ 190055Z 16009KT 6SM HZ FEW055 OVC110 04/01 A3012 890 82 -200 160/09 RMK AO2
94908KDBQ DBQ20071118190010511/18/07 19:00:31  5-MIN KDBQ 190100Z 15011KT 6SM HZ FEW055 OVC110 04/01 A3012 900 82 -100 150/11 RMK AO2
94908KDBQ DBQ20071118190510511/18/07 19:05:31  5-MIN KDBQ 190105Z 15010KT 6SM BR FEW055 OVC110 04/02 A3012 900 85 -100 150/10 RMK AO2
94908KDBQ DBQ20071118191011111/18/07 19:10:31  5-MIN KDBQ 190110Z 15013G18KT 6SM BR FEW050 OVC110 04/02 A3011 900 85 -100 150/13G18 RMK AO2
94908KDBQ DBQ20071118191510411/18/07 19:15:31  5-MIN KDBQ 190115Z 15012G18KT 6SM BR OVC110 04/02 A3011 900 85 -100 150/12G18 RMK AO2
94908KDBQ DBQ20071118192009811/18/07 19:20:31  5-MIN KDBQ 190120Z 15012KT 6SM BR OVC120 04/02 A3011 900 85 -100 150/12 RMK AO2
94908KDBQ DBQ20071118192509811/18/07 19:25:31  5-MIN KDBQ 190125Z 15011KT 6SM BR BKN120 04/02 A3011 900 85 -100 150/11 RMK AO2
94908KDBQ DBQ20071118193010411/18/07 19:30:31  5-MIN KDBQ 190130Z 14010G17KT 6SM BR BKN120 04/02 A3011 900 85 -100 140/10G17 RMK AO2
94908KDBQ DBQ20071118193511111/18/07 19:35:31  5-MIN KDBQ 190135Z 14011G17KT 6SM BR FEW100 BKN120 04/02 A3011 910 85 -100 140/11G17 RMK AO2
94908KDBQ DBQ20071118194010511/18/07 19:40:31  5-MIN KDBQ 190140Z 15011KT 6SM BR FEW100 BKN120 04/02 A3011 900 85 -100 150/11 RMK AO2
94908KDBQ DBQ20071118194510511/18/07 19:45:31  5-MIN KDBQ 190145Z 15009KT 6SM BR FEW100 BKN120 04/02 A3011 910 85 -100 140/09 RMK AO2
94908KDBQ DBQ20071118195012811/18/07 19:50:31  5-MIN KDBQ 190150Z 14013G18KT 6SM BR FEW100 BKN120 04/02 A3010 910 85 -100 140/13G18 RMK AO2 SLP204 T00390017
94908KDBQ DBQ20071118195511111/18/07 19:55:31  5-MIN KDBQ 190155Z 14012G18KT 6SM BR FEW100 BKN120 04/02 A3010 910 85 -100 140/12G18 RMK AO2
94908KDBQ DBQ20071118200011611/18/07 20:00:31  5-MIN KDBQ 190200Z AUTO 14013G18KT 6SM BR FEW100 SCT120 04/02 A3010 920 85 -100 140/13G18 RMK AO2
94908KDBQ DBQ20071118200511611/18/07 20:05:31  5-MIN KDBQ 190205Z AUTO 14013G20KT 6SM BR FEW014 SCT120 04/02 A3010 910 85 -100 140/13G20 RMK AO2
94908KDBQ DBQ20071118201011611/18/07 20:10:31  5-MIN KDBQ 190210Z AUTO 15012G20KT 6SM BR SCT014 BKN120 04/02 A3010 920 85 -100 140/12G20 RMK AO2
94908KDBQ DBQ20071118201511611/18/07 20:15:31  5-MIN KDBQ 190215Z AUTO 15014G21KT 6SM BR BKN014 BKN120 04/02 A3010 910 85 -100 150/14G21 RMK AO2
94908KDBQ DBQ20071118202010911/18/07 20:20:31  5-MIN KDBQ 190220Z AUTO 15014G21KT 6SM BR BKN014 04/02 A3010 910 85 -100 150/14G21 RMK AO2
94908KDBQ DBQ20071118202510311/18/07 20:25:31  5-MIN KDBQ 190225Z AUTO 15013KT 6SM BR BKN014 04/02 A3010 910 85 -100 140/13 RMK AO2
94908KDBQ DBQ20071118203010911/18/07 20:30:31  5-MIN KDBQ 190230Z AUTO 15012G19KT 6SM BR OVC012 04/02 A3010 910 85 -100 150/12G19 RMK AO2
94908KDBQ DBQ20071118203510311/18/07 20:35:31  5-MIN KDBQ 190235Z AUTO 15013KT 6SM BR OVC012 04/02 A3011 900 85 -100 150/13 RMK AO2
94908KDBQ DBQ20071118204010311/18/07 20:40:31  5-MIN KDBQ 190240Z AUTO 15012KT 6SM BR OVC012 04/02 A3011 900 85 -100 150/12 RMK AO2
94908KDBQ DBQ20071118204510911/18/07 20:45:31  5-MIN KDBQ 190245Z AUTO 15014G20KT 6SM BR OVC012 04/02 A3012 900 85 -100 150/14G20 RMK AO2
94908KDBQ DBQ20071118205013811/18/07 20:50:31  5-MIN KDBQ 190250Z AUTO 15012G20KT 5SM BR OVC012 04/02 A3012 900 85 -100 150/12G20 RMK AO2 SLP209 60002 T00390017 56012
94908KDBQ DBQ20071118205510311/18/07 20:55:31  5-MIN KDBQ 190255Z AUTO 15013KT 5SM BR OVC010 04/02 A3012 890 85 -100 150/13 RMK AO2
94908KDBQ DBQ20071118210010911/18/07 21:00:31  5-MIN KDBQ 190300Z AUTO 15011G19KT 5SM BR OVC010 04/02 A3012 890 85 -200 150/11G19 RMK AO2
94908KDBQ DBQ20071118210510911/18/07 21:05:31  5-MIN KDBQ 190305Z AUTO 15011G19KT 5SM BR OVC010 04/02 A3012 890 85 -100 150/11G19 RMK AO2
94908KDBQ DBQ20071118211010311/18/07 21:10:31  5-MIN KDBQ 190310Z AUTO 15012KT 5SM BR OVC010 04/02 A3012 890 85 -100 150/12 RMK AO2
94908KDBQ DBQ20071118211510311/18/07 21:15:31  5-MIN KDBQ 190315Z AUTO 15012KT 5SM BR OVC010 04/02 A3012 890 85 -100 150/12 RMK AO2
94908KDBQ DBQ20071118212010311/18/07 21:20:31  5-MIN KDBQ 190320Z AUTO 15014KT 5SM BR OVC010 04/02 A3012 890 85 -200 150/14 RMK AO2
94908KDBQ DBQ20071118212510311/18/07 21:25:31  5-MIN KDBQ 190325Z AUTO 15012KT 5SM BR OVC010 04/02 A3012 890 85 -100 150/12 RMK AO2
94908KDBQ DBQ20071118213010311/18/07 21:30:31  5-MIN KDBQ 190330Z AUTO 15011KT 5SM BR OVC010 04/02 A3012 900 85 -100 150/11 RMK AO2
94908KDBQ DBQ20071118213510311/18/07 21:35:31  5-MIN KDBQ 190335Z AUTO 15013KT 4SM BR OVC010 04/02 A3011 900 85 -100 150/13 RMK AO2
94908KDBQ DBQ20071118214010911/18/07 21:40:31  5-MIN KDBQ 190340Z AUTO 15015G21KT 4SM BR OVC010 04/02 A3011 910 85 -100 150/15G21 RMK AO2
94908KDBQ DBQ20071118214510911/18/07 21:45:31  5-MIN KDBQ 190345Z AUTO 15014G21KT 4SM BR OVC010 04/02 A3010 910 85 -100 150/14G21 RMK AO2
94908KDBQ DBQ20071118215010911/18/07 21:50:31  5-MIN KDBQ 190350Z AUTO 15017G21KT 4SM BR OVC008 04/02 A3010 920 89 -100 150/17G21 RMK AO2
94908KDBQ DBQ20071118215512111/18/07 21:55:31  5-MIN KDBQ 190355Z AUTO 15017G22KT 4SM BR OVC008 04/02 A3009 920 85 -100 140/17G22 RMK AO2 CIG 008V012
94908KDBQ DBQ20071118220012111/18/07 22:00:31  5-MIN KDBQ 190400Z AUTO 15017G23KT 4SM BR OVC008 04/02 A3009 930 85 -100 150/17G23 RMK AO2 CIG 007V012
94908KDBQ DBQ20071118220512111/18/07 22:05:31  5-MIN KDBQ 190405Z AUTO 15015G24KT 4SM BR OVC008 04/02 A3008 930 85 -100 140/15G24 RMK AO2 CIG 007V012
94908KDBQ DBQ20071118221012111/18/07 22:10:31  5-MIN KDBQ 190410Z AUTO 15016G24KT 4SM BR OVC008 04/02 A3009 930 85 -100 140/16G24 RMK AO2 CIG 007V012
94908KDBQ DBQ20071118221512111/18/07 22:15:31  5-MIN KDBQ 190415Z AUTO 15014G21KT 4SM BR OVC008 04/02 A3009 920 85 -100 140/14G21 RMK AO2 CIG 007V012
94908KDBQ DBQ20071118222012111/18/07 22:20:31  5-MIN KDBQ 190420Z AUTO 15013G20KT 4SM BR OVC008 04/02 A3009 920 85 -100 140/13G20 RMK AO2 CIG 007V012
94908KDBQ DBQ20071118222512111/18/07 22:25:31  5-MIN KDBQ 190425Z AUTO 15015G20KT 4SM BR BKN008 04/02 A3009 930 85 -100 150/15G20 RMK AO2 CIG 007V012
94908KDBQ DBQ20071118223012111/18/07 22:30:31  5-MIN KDBQ 190430Z AUTO 15012G20KT 4SM BR BKN008 03/02 A3009 930 89 -200 150/12G20 RMK AO2 CIG 007V012
94908KDBQ DBQ20071118223512111/18/07 22:35:31  5-MIN KDBQ 190435Z AUTO 15014G21KT 4SM BR BKN008 04/02 A3009 920 85 -100 150/14G21 RMK AO2 CIG 008V012
94908KDBQ DBQ20071118224010911/18/07 22:40:31  5-MIN KDBQ 190440Z AUTO 15015G21KT 4SM BR BKN008 04/02 A3008 930 85 -100 150/15G21 RMK AO2
94908KDBQ DBQ20071118224511511/18/07 22:45:31  5-MIN KDBQ 190445Z AUTO 15015KT 4SM BR BKN008 04/02 A3008 930 85 -100 150/15 RMK AO2 CIG 008V012
94908KDBQ DBQ20071118225013811/18/07 22:50:31  5-MIN KDBQ 190450Z AUTO 15014G20KT 4SM BR OVC008 04/02 A3008 930 85 -100 150/14G20 RMK AO2 CIG 007V012 SLP196 T00390017
94908KDBQ DBQ20071118225510911/18/07 22:55:31  5-MIN KDBQ 190455Z AUTO 15013G21KT 4SM BR OVC008 04/02 A3008 930 85 -100 150/13G21 RMK AO2
94908KDBQ DBQ20071118230010911/18/07 23:00:31  5-MIN KDBQ 190500Z AUTO 16013G21KT 4SM BR OVC008 04/02 A3009 930 89 -100 160/13G21 RMK AO2
94908KDBQ DBQ20071118230510911/18/07 23:05:31  5-MIN KDBQ 190505Z AUTO 16012G20KT 4SM BR OVC008 04/02 A3009 920 89 -100 160/12G20 RMK AO2
94908KDBQ DBQ20071118231010311/18/07 23:10:31  5-MIN KDBQ 190510Z AUTO 16011KT 4SM BR OVC008 04/02 A3009 920 89 -100 150/11 RMK AO2
94908KDBQ DBQ20071118231510311/18/07 23:15:31  5-MIN KDBQ 190515Z AUTO 16010KT 4SM BR OVC008 04/02 A3009 920 89 -100 160/10 RMK AO2
94908KDBQ DBQ20071118232010911/18/07 23:20:31  5-MIN KDBQ 190520Z AUTO 16011G17KT 4SM BR OVC008 04/02 A3008 930 89 -100 160/11G17 RMK AO2
94908KDBQ DBQ20071118232510911/18/07 23:25:31  5-MIN KDBQ 190525Z AUTO 16013G17KT 4SM BR OVC008 04/02 A3008 930 89 -100 160/13G17 RMK AO2
94908KDBQ DBQ20071118233010911/18/07 23:30:31  5-MIN KDBQ 190530Z AUTO 17014G21KT 4SM BR OVC008 04/02 A3008 930 89 -100 160/14G21 RMK AO2
94908KDBQ DBQ20071118233510911/18/07 23:35:31  5-MIN KDBQ 190535Z AUTO 17014G21KT 4SM BR OVC008 04/02 A3008 930 89 -100 160/14G21 RMK AO2
94908KDBQ DBQ20071118234010311/18/07 23:40:31  5-MIN KDBQ 190540Z AUTO 16013KT 4SM BR OVC008 04/02 A3008 930 89 -100 160/13 RMK AO2
94908KDBQ DBQ20071118234510311/18/07 23:45:31  5-MIN KDBQ 190545Z AUTO 17014KT 4SM BR OVC008 04/02 A3008 930 89 -100 160/14 RMK AO2
94908KDBQ DBQ20071118235016011/18/07 23:50:31  5-MIN KDBQ 190550Z AUTO 17010G18KT 4SM BR OVC008 04/02 A3009 930 89 -100 170/10G18 RMK AO2 SLP197 60002 T00390022 10039 20033 400611022 55004
94908KDBQ DBQ20071118235510311/18/07 23:55:31  5-MIN KDBQ 190555Z AUTO 16011KT 3SM BR OVC006 04/02 A3008 930 89 -100 160/11 RMK AO2
94908KDBQ DBQ20071119000010311/19/07 00:00:38  5-MIN KDBQ 190600Z AUTO 16009KT 3SM BR OVC006 04/02 A3008 930 89 -100 160/09 RMK AO2
94908KDBQ DBQ20071119000510311/19/07 00:05:31  5-MIN KDBQ 190605Z AUTO 16010KT 3SM BR OVC006 03/02 A3007 940 92 -200 160/10 RMK AO2
94908KDBQ DBQ20071119001010911/19/07 00:10:31  5-MIN KDBQ 190610Z AUTO 17009G16KT 3SM BR OVC006 04/02 A3007 940 89 -100 160/09G16 RMK AO2
94908KDBQ DBQ20071119001510311/19/07 00:15:32  5-MIN KDBQ 190615Z AUTO 17009KT 3SM BR OVC006 04/02 A3007 940 89 -100 170/09 RMK AO2
94908KDBQ DBQ20071119002010311/19/07 00:20:31  5-MIN KDBQ 190620Z AUTO 17010KT 3SM BR OVC006 04/02 A3007 940 89 -100 160/10 RMK AO2
94908KDBQ DBQ20071119002510311/19/07 00:25:31  5-MIN KDBQ 190625Z AUTO 16009KT 3SM BR OVC006 04/02 A3007 940 89 -100 160/09 RMK AO2
94908KDBQ DBQ20071119003010311/19/07 00:30:31  5-MIN KDBQ 190630Z AUTO 17009KT 3SM BR OVC006 03/02 A3007 940 92 -200 170/09 RMK AO2
94908KDBQ DBQ20071119003510311/19/07 00:35:31  5-MIN KDBQ 190635Z AUTO 17007KT 3SM BR OVC006 04/02 A3007 940 89 -100 170/07 RMK AO2
94908KDBQ DBQ20071119004010311/19/07 00:40:31  5-MIN KDBQ 190640Z AUTO 17008KT 3SM BR OVC006 03/02 A3007 940 92 -200 170/08 RMK AO2
94908KDBQ DBQ20071119004510311/19/07 00:45:31  5-MIN KDBQ 190645Z AUTO 17011KT 3SM BR OVC006 04/02 A3006 950 89 -100 170/11 RMK AO2
94908KDBQ DBQ20071119005012011/19/07 00:50:31  5-MIN KDBQ 190650Z AUTO 17009KT 3SM BR OVC006 04/02 A3006 950 89 -100 170/09 RMK AO2 SLP187 T00390022
94908KDBQ DBQ20071119005511011/19/07 00:55:31  5-MIN KDBQ 190655Z AUTO 17009KT 3SM BR OVC006 04/02 A3005 960 89 -100 170/09 RMK AO2 PRESFR
94908KDBQ DBQ20071119010010311/19/07 01:00:31  5-MIN KDBQ 190700Z AUTO 17008KT 3SM BR OVC006 03/02 A3005 960 92 -100 170/08 RMK AO2
94908KDBQ DBQ20071119010510311/19/07 01:05:31  5-MIN KDBQ 190705Z AUTO 17010KT 3SM BR OVC006 04/02 A3005 960 89 -100 170/10 RMK AO2
94908KDBQ DBQ20071119011010311/19/07 01:10:31  5-MIN KDBQ 190710Z AUTO 17010KT 3SM BR OVC006 04/02 A3005 960 89 -100 170/10 RMK AO2
94908KDBQ DBQ20071119011510311/19/07 01:15:31  5-MIN KDBQ 190715Z AUTO 18009KT 3SM BR OVC006 04/02 A3005 960 89 -100 180/09 RMK AO2
94908KDBQ DBQ20071119012010311/19/07 01:20:31  5-MIN KDBQ 190720Z AUTO 18007KT 3SM BR OVC006 04/02 A3006 950 89 -100 180/07 RMK AO2
94908KDBQ DBQ20071119012510311/19/07 01:25:31  5-MIN KDBQ 190725Z AUTO 17010KT 3SM BR OVC006 04/02 A3005 960 89 -100 170/10 RMK AO2
94908KDBQ DBQ20071119013010311/19/07 01:30:31  5-MIN KDBQ 190730Z AUTO 17008KT 3SM BR OVC006 04/02 A3005 960 89 -100 170/08 RMK AO2
94908KDBQ DBQ20071119013510311/19/07 01:35:31  5-MIN KDBQ 190735Z AUTO 17009KT 3SM BR OVC006 04/02 A3005 960 89 -100 170/09 RMK AO2
94908KDBQ DBQ20071119014010311/19/07 01:40:31  5-MIN KDBQ 190740Z AUTO 17008KT 3SM BR OVC006 04/02 A3005 960 89 -100 170/08 RMK AO2
94908KDBQ DBQ20071119014510311/19/07 01:45:31  5-MIN KDBQ 190745Z AUTO 17010KT 3SM BR OVC006 04/02 A3005 960 89 -100 170/10 RMK AO2
94908KDBQ DBQ20071119015012011/19/07 01:50:31  5-MIN KDBQ 190750Z AUTO 17011KT 3SM BR OVC006 03/02 A3004 970 92 -100 170/11 RMK AO2 SLP181 T00330022
94908KDBQ DBQ20071119015510311/19/07 01:55:31  5-MIN KDBQ 190755Z AUTO 17008KT 3SM BR OVC006 03/02 A3004 960 92 -100 170/08 RMK AO2
94908KDBQ DBQ20071119020010311/19/07 02:00:31  5-MIN KDBQ 190800Z AUTO 16007KT 3SM BR OVC006 03/02 A3005 960 92 -100 160/07 RMK AO2
94908KDBQ DBQ20071119020510311/19/07 02:05:31  5-MIN KDBQ 190805Z AUTO 17009KT 3SM BR OVC006 03/02 A3004 970 92 -100 160/09 RMK AO2
94908KDBQ DBQ20071119021010311/19/07 02:10:31  5-MIN KDBQ 190810Z AUTO 17010KT 3SM BR OVC006 03/02 A3004 970 92 -100 170/10 RMK AO2
94908KDBQ DBQ20071119021510311/19/07 02:15:31  5-MIN KDBQ 190815Z AUTO 16008KT 3SM BR OVC006 03/02 A3004 970 92 -100 160/08 RMK AO2
94908KDBQ DBQ20071119022010311/19/07 02:20:31  5-MIN KDBQ 190820Z AUTO 17011KT 3SM BR OVC006 03/02 A3003 980 92 -100 170/11 RMK AO2
94908KDBQ DBQ20071119022510311/19/07 02:25:31  5-MIN KDBQ 190825Z AUTO 17011KT 3SM BR OVC006 03/02 A3002 980 92 -100 170/11 RMK AO2
94908KDBQ DBQ20071119023010311/19/07 02:30:31  5-MIN KDBQ 190830Z AUTO 17009KT 3SM BR OVC006 03/02 A3002 980 92 -100 170/09 RMK AO2
94908KDBQ DBQ20071119023510311/19/07 02:35:31  5-MIN KDBQ 190835Z AUTO 18008KT 3SM BR OVC004 03/02 A3002 980 92 -100 170/08 RMK AO2
94908KDBQ DBQ20071119024010311/19/07 02:40:31  5-MIN KDBQ 190840Z AUTO 17008KT 3SM BR OVC004 03/02 A3003 980 92 -100 170/08 RMK AO2
94908KDBQ DBQ20071119024510311/19/07 02:45:31  5-MIN KDBQ 190845Z AUTO 17008KT 3SM BR OVC004 03/02 A3003 980 92 -100 170/08 RMK AO2
94908KDBQ DBQ20071119025012611/19/07 02:50:31  5-MIN KDBQ 190850Z AUTO 17009KT 3SM BR OVC004 03/02 A3002 980 92 -100 170/09 RMK AO2 SLP175 T00330022 55012
94908KDBQ DBQ20071119025510311/19/07 02:55:31  5-MIN KDBQ 190855Z AUTO 17009KT 3SM BR OVC004 03/02 A3002 990 92 -100 170/09 RMK AO2
94908KDBQ DBQ20071119030010311/19/07 03:00:31  5-MIN KDBQ 190900Z AUTO 17007KT 3SM BR OVC004 03/02 A3002 990 92 -100 170/07 RMK AO2
94908KDBQ DBQ20071119030510711/19/07 03:05:31  5-MIN KDBQ 190905Z AUTO 17008KT 2 1/2SM BR OVC004 03/02 A3002 990 92 -100 170/08 RMK AO2
94908KDBQ DBQ20071119031010711/19/07 03:10:31  5-MIN KDBQ 190910Z AUTO 17008KT 2 1/2SM BR OVC004 03/02 A3001 990 92 -100 160/08 RMK AO2
94908KDBQ DBQ20071119031510711/19/07 03:15:31  5-MIN KDBQ 190915Z AUTO 17009KT 2 1/2SM BR OVC004 03/02 A3001 990 92 -100 170/09 RMK AO2
94908KDBQ DBQ20071119032010311/19/07 03:20:31  5-MIN KDBQ 190920Z AUTO 16007KT 3SM BR OVC004 03/02 A3002 990 92 -100 160/07 RMK AO2
94908KDBQ DBQ20071119032510711/19/07 03:25:31  5-MIN KDBQ 190925Z AUTO 17007KT 2 1/2SM BR OVC004 03/02 A3002 990 92 -100 170/07 RMK AO2
94908KDBQ DBQ20071119033010711/19/07 03:30:31  5-MIN KDBQ 190930Z AUTO 16007KT 2 1/2SM BR OVC004 03/02 A3001 990 92 -100 160/07 RMK AO2
94908KDBQ DBQ20071119033510811/19/07 03:35:31  5-MIN KDBQ 190935Z AUTO 17009KT 2 1/2SM BR OVC004 03/02 A3001 1000 92 -100 170/09 RMK AO2
94908KDBQ DBQ20071119034010811/19/07 03:40:31  5-MIN KDBQ 190940Z AUTO 17008KT 2 1/2SM BR OVC004 03/02 A3001 1000 92 -100 170/08 RMK AO2
94908KDBQ DBQ20071119034510811/19/07 03:45:31  5-MIN KDBQ 190945Z AUTO 17009KT 2 1/2SM BR OVC004 03/02 A3001 1000 92 -100 160/09 RMK AO2
94908KDBQ DBQ20071119035012511/19/07 03:50:31  5-MIN KDBQ 190950Z AUTO 17008KT 2 1/2SM BR OVC004 03/02 A3001 1000 92 -100 170/08 RMK AO2 SLP170 T00330022
94908KDBQ DBQ20071119035510411/19/07 03:55:31  5-MIN KDBQ 190955Z AUTO 17007KT 2SM BR OVC004 03/02 A3001 1000 92 -100 170/07 RMK AO2
94908KDBQ DBQ20071119040010411/19/07 04:00:31  5-MIN KDBQ 191000Z AUTO 16008KT 2SM BR OVC004 03/02 A3001 1000 92 -100 160/08 RMK AO2
94908KDBQ DBQ20071119040510411/19/07 04:05:31  5-MIN KDBQ 191005Z AUTO 16008KT 2SM BR OVC004 03/02 A3000 1000 92 -100 160/08 RMK AO2
94908KDBQ DBQ20071119041010411/19/07 04:10:31  5-MIN KDBQ 191010Z AUTO 16009KT 2SM BR OVC004 03/02 A3000 1000 92 -100 160/09 RMK AO2
94908KDBQ DBQ20071119041510411/19/07 04:15:31  5-MIN KDBQ 191015Z AUTO 16008KT 2SM BR OVC002 03/02 A3000 1000 92 -100 160/08 RMK AO2
94908KDBQ DBQ20071119042010411/19/07 04:20:31  5-MIN KDBQ 191020Z AUTO 17007KT 2SM BR OVC002 03/02 A3000 1000 92 -100 170/07 RMK AO2
94908KDBQ DBQ20071119042510411/19/07 04:25:31  5-MIN KDBQ 191025Z AUTO 17008KT 2SM BR OVC002 03/02 A3000 1000 96 -200 170/08 RMK AO2
94908KDBQ DBQ20071119043010811/19/07 04:30:31  5-MIN KDBQ 191030Z AUTO 16006KT 1 3/4SM BR OVC002 03/02 A3000 1000 96 -200 160/06 RMK AO2
94908KDBQ DBQ20071119043510811/19/07 04:35:31  5-MIN KDBQ 191035Z AUTO 16008KT 1 3/4SM BR OVC002 03/02 A3000 1000 96 -100 160/08 RMK AO2
94908KDBQ DBQ20071119044010811/19/07 04:40:31  5-MIN KDBQ 191040Z AUTO 17008KT 1 3/4SM BR OVC002 03/02 A3000 1010 96 -100 160/08 RMK AO2
94908KDBQ DBQ20071119044510811/19/07 04:45:31  5-MIN KDBQ 191045Z AUTO 17008KT 1 3/4SM BR OVC002 03/02 A3000 1010 92 -100 170/08 RMK AO2
94908KDBQ DBQ20071119045012511/19/07 04:50:31  5-MIN KDBQ 191050Z AUTO 17007KT 1 3/4SM BR OVC002 03/02 A3000 1000 96 -100 170/07 RMK AO2 SLP168 T00280022
94908KDBQ DBQ20071119045510811/19/07 04:55:31  5-MIN KDBQ 191055Z AUTO 16008KT 1 3/4SM BR OVC002 03/02 A3000 1000 96 -100 160/08 RMK AO2
94908KDBQ DBQ20071119050010811/19/07 05:00:31  5-MIN KDBQ 191100Z AUTO 16006KT 1 3/4SM BR OVC002 03/02 A3000 1010 92 -100 160/06 RMK AO2
94908KDBQ DBQ20071119050510811/19/07 05:05:31  5-MIN KDBQ 191105Z AUTO 16006KT 1 3/4SM BR OVC002 03/02 A3000 1010 92 -100 160/06 RMK AO2
94908KDBQ DBQ20071119051010411/19/07 05:10:31  5-MIN KDBQ 191110Z AUTO 15007KT 2SM BR OVC002 03/02 A2999 1010 92 -100 150/07 RMK AO2
94908KDBQ DBQ20071119051510411/19/07 05:15:31  5-MIN KDBQ 191115Z AUTO 16007KT 2SM BR OVC002 03/02 A2999 1020 92 -100 160/07 RMK AO2
94908KDBQ DBQ20071119052010411/19/07 05:20:31  5-MIN KDBQ 191120Z AUTO 15008KT 2SM BR OVC002 03/02 A2998 1020 92 -100 150/08 RMK AO2
94908KDBQ DBQ20071119052510811/19/07 05:25:31  5-MIN KDBQ 191125Z AUTO 15008KT 1 3/4SM BR OVC002 03/02 A2998 1030 92 -100 150/08 RMK AO2
94908KDBQ DBQ20071119053010811/19/07 05:30:31  5-MIN KDBQ 191130Z AUTO 15007KT 1 3/4SM BR OVC002 03/02 A2997 1030 92 -100 150/07 RMK AO2
94908KDBQ DBQ20071119053510311/19/07 05:35:31  5-MIN KDBQ 191135Z 15008KT 1 1/2SM BR OVC002 03/02 A2997 1030 92 -100 150/08 RMK AO2
94908KDBQ DBQ20071119054010311/19/07 05:40:31  5-MIN KDBQ 191140Z 16007KT 1 1/2SM BR OVC002 03/02 A2997 1030 92 -100 160/07 RMK AO2
94908KDBQ DBQ20071119054510311/19/07 05:45:31  5-MIN KDBQ 191145Z 16008KT 1 1/2SM BR OVC002 03/02 A2997 1030 92 -100 150/08 RMK AO2
94908KDBQ DBQ20071119055014411/19/07 05:50:31  5-MIN KDBQ 191150Z 16006KT 1 1/2SM BR OVC002 03/02 A2997 1030 92 -100 160/06 RMK AO2 SLP159 70004 T00280017 10039 20028 56022
94908KDBQ DBQ20071119055510311/19/07 05:55:31  5-MIN KDBQ 191155Z 17008KT 1 1/2SM BR OVC002 02/02 A2997 1030 96 -200 170/08 RMK AO2
94908KDBQ DBQ20071119060011511/19/07 06:00:31  5-MIN KDBQ 191200Z 16006KT 1 1/2SM BR OVC002 02/02 A2996 1040 96 -200 160/06 RMK AO2 CIG 001V005
94908KDBQ DBQ20071119060511511/19/07 06:05:31  5-MIN KDBQ 191205Z 16006KT 1 1/2SM BR OVC002 02/02 A2996 1040 96 -200 160/06 RMK AO2 CIG 001V005
94908KDBQ DBQ20071119061011511/19/07 06:10:31  5-MIN KDBQ 191210Z 16004KT 1 1/2SM BR OVC002 02/02 A2997 1030 96 -200 160/04 RMK AO2 CIG 001V005
94908KDBQ DBQ20071119061511511/19/07 06:15:31  5-MIN KDBQ 191215Z 17004KT 1 1/2SM BR OVC002 02/02 A2998 1030 96 -200 170/04 RMK AO2 CIG 001V005
94908KDBQ DBQ20071119062011511/19/07 06:20:31  5-MIN KDBQ 191220Z 17005KT 1 1/2SM BR OVC002 02/02 A2998 1030 96 -200 170/05 RMK AO2 CIG 001V005
94908KDBQ DBQ20071119062511511/19/07 06:25:31  5-MIN KDBQ 191225Z 17007KT 1 1/2SM BR OVC002 03/02 A2998 1020 92 -100 170/07 RMK AO2 CIG 001V005
94908KDBQ DBQ20071119063010311/19/07 06:30:31  5-MIN KDBQ 191230Z 17007KT 1 1/2SM BR OVC002 03/02 A2998 1030 92 -100 170/07 RMK AO2
94908KDBQ DBQ20071119063510311/19/07 06:35:31  5-MIN KDBQ 191235Z 17007KT 1 3/4SM BR OVC002 03/02 A2998 1020 92 -100 170/07 RMK AO2
94908KDBQ DBQ20071119064010311/19/07 06:40:31  5-MIN KDBQ 191240Z 16008KT 1 3/4SM BR OVC002 03/02 A2998 1020 92 -100 160/08 RMK AO2
94908KDBQ DBQ20071119064510311/19/07 06:45:31  5-MIN KDBQ 191245Z 17007KT 1 3/4SM BR OVC002 03/02 A2998 1020 92 -100 170/07 RMK AO2
94908KDBQ DBQ20071119065012011/19/07 06:50:31  5-MIN KDBQ 191250Z 16009KT 1 3/4SM BR OVC002 03/02 A2998 1030 92 -100 160/09 RMK AO2 SLP160 T00280017
94908KDBQ DBQ20071119065510311/19/07 06:55:31  5-MIN KDBQ 191255Z 17009KT 1 1/2SM BR OVC002 03/02 A2997 1030 96 -100 170/09 RMK AO2
94908KDBQ DBQ20071119070009911/19/07 07:00:31  5-MIN KDBQ 191300Z 17008KT 1SM BR OVC002 03/02 A2998 1020 96 -100 170/08 RMK AO2
94908KDBQ DBQ20071119070510111/19/07 07:05:31  5-MIN KDBQ 191305Z 17005KT 3/4SM BR OVC002 03/02 A2998 1020 96 -100 170/05 RMK AO2
94908KDBQ DBQ20071119071010111/19/07 07:10:31  5-MIN KDBQ 191310Z 18006KT 1/4SM FG OVC002 03/02 A2998 1020 96 -100 170/06 RMK AO2
94908KDBQ DBQ20071119071510011/19/07 07:15:31  5-MIN KDBQ 191315Z 18006KT 1/4SM FG VV001 03/02 A2998 1020 92 -100 180/06 RMK AO2
94908KDBQ DBQ20071119072009711/19/07 07:20:31  5-MIN KDBQ 191320Z 17006KT 1/4SM FG VV001 03/03 A2997 1030 96 0 170/06 RMK AO2
94908KDBQ DBQ20071119072509711/19/07 07:25:31  5-MIN KDBQ 191325Z 18005KT 1/4SM FG VV001 03/03 A2998 1030 96 0 180/05 RMK AO2
94908KDBQ DBQ20071119073010011/19/07 07:30:31  5-MIN KDBQ 191330Z 18005KT 1/4SM FG VV001 03/03 A2998 1030 96 -100 180/05 RMK AO2
94908KDBQ DBQ20071119073510011/19/07 07:35:31  5-MIN KDBQ 191335Z 18007KT 1/4SM FG VV001 03/03 A2998 1020 96 -100 180/07 RMK AO2
94908KDBQ DBQ20071119074009811/19/07 07:40:31  5-MIN KDBQ 191340Z 18007KT M1/4SM FG VV001 03/03 A2998 1030 96 0 180/07 RMK AO2
94908KDBQ DBQ20071119074509811/19/07 07:45:31  5-MIN KDBQ 191345Z 18004KT M1/4SM FG VV001 03/03 A2997 1030 96 0 180/04 RMK AO2
94908KDBQ DBQ20071119075011511/19/07 07:50:31  5-MIN KDBQ 191350Z 18005KT M1/4SM FG VV001 03/03 A2998 1030 96 0 180/05 RMK AO2 SLP160 T00330028
94908KDBQ DBQ20071119075510111/19/07 07:55:31  5-MIN KDBQ 191355Z 20005KT M1/4SM FG VV001 03/03 A2998 1020 96 -100 200/05 RMK AO2
94908KDBQ DBQ20071119080010111/19/07 08:00:31  5-MIN KDBQ 191400Z 20004KT M1/4SM FG VV001 03/03 A2998 1020 96 -100 200/04 RMK AO2
94908KDBQ DBQ20071119080509811/19/07 08:05:31  5-MIN KDBQ 191405Z 20004KT M1/4SM FG VV001 03/03 A2997 1030 96 0 190/04 RMK AO2
94908KDBQ DBQ20071119081009911/19/07 08:10:31  5-MIN KDBQ 191410Z 16005KT M1/4SM FG VV001 03/03 A2997 1030 100 0 160/05 RMK AO2
94908KDBQ DBQ20071119081509811/19/07 08:15:31  5-MIN KDBQ 191415Z 15004KT M1/4SM FG VV001 04/03 A2997 1030 96 0 150/04 RMK AO2
94908KDBQ DBQ20071119082009811/19/07 08:20:31  5-MIN KDBQ 191420Z 15008KT M1/4SM FG VV001 04/03 A2996 1040 96 0 150/08 RMK AO2
94908KDBQ DBQ20071119082509811/19/07 08:25:31  5-MIN KDBQ 191425Z 15008KT M1/4SM FG VV001 04/03 A2996 1040 96 0 150/08 RMK AO2
94908KDBQ DBQ20071119083009811/19/07 08:30:31  5-MIN KDBQ 191430Z 15008KT M1/4SM FG VV001 04/03 A2995 1050 96 0 150/08 RMK AO2
94908KDBQ DBQ20071119083510611/19/07 08:35:31  5-MIN KDBQ 191435Z 15008KT M1/4SM FG VV001 04/04 A2995 1050 100 0 150/08 RMK AO2 PRESFR
94908KDBQ DBQ20071119084009911/19/07 08:40:31  5-MIN KDBQ 191440Z 16009KT 1/4SM FG VV001 04/04 A2995 1050 96 100 160/09 RMK AO2
94908KDBQ DBQ20071119084509911/19/07 08:45:31  5-MIN KDBQ 191445Z 15009KT 1/4SM FG VV001 04/04 A2994 1060 96 100 150/09 RMK AO2
94908KDBQ DBQ20071119085012211/19/07 08:50:31  5-MIN KDBQ 191450Z 15009KT 1/4SM FG VV001 04/04 A2994 1060 96 100 150/09 RMK AO2 SLP147 T00440039 58016
94908KDBQ DBQ20071119085509911/19/07 08:55:31  5-MIN KDBQ 191455Z 15009KT 1/4SM FG VV001 04/04 A2994 1060 96 100 150/09 RMK AO2
94908KDBQ DBQ20071119090009911/19/07 09:00:31  5-MIN KDBQ 191500Z 15008KT 1/4SM FG VV001 05/04 A2993 1070 96 200 150/08 RMK AO2
94908KDBQ DBQ20071119090509911/19/07 09:05:31  5-MIN KDBQ 191505Z 15011KT 1/4SM FG VV001 05/04 A2993 1070 96 200 150/11 RMK AO2
94908KDBQ DBQ20071119091009911/19/07 09:10:31  5-MIN KDBQ 191510Z 16010KT 1/4SM FG VV001 05/04 A2993 1070 96 200 160/10 RMK AO2
94908KDBQ DBQ20071119091509911/19/07 09:15:31  5-MIN KDBQ 191515Z 17009KT 1/4SM FG VV001 06/05 A2993 1070 96 200 170/09 RMK AO2
94908KDBQ DBQ20071119092010111/19/07 09:20:31  5-MIN KDBQ 191520Z 18012KT 1/4SM FG VV001 06/05 A2993 1070 96 200 180/12 RMK AO2 $
94908KDBQ DBQ20071119092510111/19/07 09:25:31  5-MIN KDBQ 191525Z 17010KT 1/4SM FG VV001 06/05 A2993 1070 96 200 170/10 RMK AO2 $
94908KDBQ DBQ20071119093010111/19/07 09:30:31  5-MIN KDBQ 191530Z 18009KT 1/4SM FG VV001 06/05 A2993 1070 96 200 180/09 RMK AO2 $
94908KDBQ DBQ20071119093510111/19/07 09:35:31  5-MIN KDBQ 191535Z 18010KT 1/4SM FG VV001 06/05 A2993 1070 96 200 180/10 RMK AO2 $
94908KDBQ DBQ20071119094010111/19/07 09:40:31  5-MIN KDBQ 191540Z 18008KT 1/4SM FG VV001 06/05 A2993 1070 96 200 180/08 RMK AO2 $
94908KDBQ DBQ20071119094510111/19/07 09:45:31  5-MIN KDBQ 191545Z 18011KT 1/4SM FG VV001 06/05 A2993 1070 96 200 180/11 RMK AO2 $
94908KDBQ DBQ20071119095011911/19/07 09:50:31  5-MIN KDBQ 191550Z 19011KT 1/4SM FG VV001 06/06 A2993 1070 100 200 190/11 RMK AO2 SLP143 T00560056 $
94908KDBQ DBQ20071119095510111/19/07 09:55:31  5-MIN KDBQ 191555Z 20011KT 1/4SM FG VV001 06/06 A2993 1070 96 300 190/11 RMK AO2 $
94908KDBQ DBQ20071119100010111/19/07 10:00:31  5-MIN KDBQ 191600Z 20011KT 1/4SM FG VV001 06/06 A2993 1070 96 300 190/11 RMK AO2 $
94908KDBQ DBQ20071119100510111/19/07 10:05:31  5-MIN KDBQ 191605Z 19009KT 1/4SM FG VV001 06/06 A2994 1060 96 300 190/09 RMK AO2 $
94908KDBQ DBQ20071119101010111/19/07 10:10:31  5-MIN KDBQ 191610Z 20010KT 1/4SM FG VV001 06/06 A2994 1060 96 300 190/10 RMK AO2 $
94908KDBQ DBQ20071119101510111/19/07 10:15:31  5-MIN KDBQ 191615Z 19011KT 1/4SM FG VV001 06/06 A2993 1070 96 300 190/11 RMK AO2 $
94908KDBQ DBQ20071119102010111/19/07 10:20:31  5-MIN KDBQ 191620Z 18013KT 1/4SM FG VV001 06/06 A2992 1080 96 300 180/13 RMK AO2 $
94908KDBQ DBQ20071119102510811/19/07 10:25:31  5-MIN KDBQ 191625Z 18009KT 1/4SM FG VV001 06/06 A2991 1090 96 300 180/09 RMK AO2 PRESFR $
94908KDBQ DBQ20071119103010211/19/07 10:30:31  5-MIN KDBQ 191630Z 18009KT 1/4SM FG VV001 06/06 A2991 1090 100 300 180/09 RMK AO2 $
94908KDBQ DBQ20071119103510211/19/07 10:35:31  5-MIN KDBQ 191635Z 17009KT M1/4SM FG VV001 07/06 A2990 1090 96 400 170/09 RMK AO2 $
94908KDBQ DBQ20071119104010111/19/07 10:40:31  5-MIN KDBQ 191640Z 17009KT 1/4SM FG VV001 07/06 A2990 1100 96 400 170/09 RMK AO2 $
94908KDBQ DBQ20071119104510111/19/07 10:45:31  5-MIN KDBQ 191645Z 17010KT 1/4SM FG VV001 07/06 A2990 1100 96 400 170/10 RMK AO2 $
94908KDBQ DBQ20071119132510611/19/07 13:25:31  5-MIN KDBQ 191925Z 19015G20KT 1/4SM FG OVC001 10/09 A2979 1200 96 900 190/15G20 RMK AO2
94908KDBQ DBQ20071119133010611/19/07 13:30:31  5-MIN KDBQ 191930Z 20015G20KT 1/2SM FG OVC001 10/09 A2979 1200 96 900 200/15G20 RMK AO2
94908KDBQ DBQ20071119133510611/19/07 13:35:31  5-MIN KDBQ 191935Z 20012KT 1/2SM FG OVC001 10/09 A2979 1200 96 900 200/12 RMK AO2 P0001
94908KDBQ DBQ20071119134011211/19/07 13:40:31  5-MIN KDBQ 191940Z 20015G23KT 1/2SM FG OVC001 10/09 A2979 1200 96 900 200/15G23 RMK AO2 P0001
94908KDBQ DBQ20071119134511311/19/07 13:45:31  5-MIN KDBQ 191945Z 20015G23KT 3/4SM BR OVC001 11/09 A2978 1200 93 1000 200/15G23 RMK AO2 P0001
94908KDBQ DBQ20071119135012411/19/07 13:50:31  5-MIN KDBQ 191950Z 20015KT 3/4SM BR OVC001 11/09 A2978 1210 93 1000 200/15 RMK AO2 SLP090 P0001 T01060094
94908KDBQ DBQ20071119135510111/19/07 13:55:31  5-MIN KDBQ 191955Z 20014KT 3/4SM BR OVC001 11/10 A2977 1210 96 1000 200/14 RMK AO2
94908KDBQ DBQ20071119140010111/19/07 14:00:31  5-MIN KDBQ 192000Z 19013KT 3/4SM BR OVC001 11/10 A2977 1220 96 1000 190/13 RMK AO2
94908KDBQ DBQ20071119140510811/19/07 14:05:31  5-MIN KDBQ 192005Z 19013KT 3/4SM BR OVC001 11/10 A2976 1230 96 1000 190/13 RMK AO2 PRESFR
94908KDBQ DBQ20071119141010511/19/07 14:10:31  5-MIN KDBQ 192010Z 19015G19KT 1SM BR OVC001 11/10 A2975 1230 96 1000 180/15G19 RMK AO2
94908KDBQ DBQ20071119141511711/19/07 14:15:31  5-MIN KDBQ 192015Z 18015G19KT 1SM BR OVC001 11/10 A2975 1230 96 1000 180/15G19 RMK AO2 CIG 001V005
94908KDBQ DBQ20071119142011511/19/07 14:20:31  5-MIN KDBQ 192020Z 20014KT 1 1/4SM BR OVC001 11/10 A2976 1230 96 1000 190/14 RMK AO2 CIG 001V006
94908KDBQ DBQ20071119142511511/19/07 14:25:31  5-MIN KDBQ 192025Z 21013KT 1 1/4SM BR OVC003 11/10 A2977 1210 96 1000 210/13 RMK AO2 CIG 001V006
94908KDBQ DBQ20071119143011011/19/07 14:30:31  5-MIN KDBQ 192030Z 21013KT 1 1/4SM BR OVC003 11/10 A2978 1210 93 1100 210/13 RMK AO2 PRESRR
94908KDBQ DBQ20071119143510311/19/07 14:35:31  5-MIN KDBQ 192035Z 22012KT 1 1/4SM BR OVC003 11/10 A2978 1210 96 1000 210/12 RMK AO2
94908KDBQ DBQ20071119144010911/19/07 14:40:31  5-MIN KDBQ 192040Z 22013G20KT 1 1/2SM BR OVC003 11/10 A2978 1210 93 1100 220/13G20 RMK AO2
94908KDBQ DBQ20071119144510911/19/07 14:45:31  5-MIN KDBQ 192045Z 21014G20KT 1 1/2SM BR OVC003 11/10 A2978 1210 93 1100 210/14G20 RMK AO2
94908KDBQ DBQ20071119145010911/19/07 14:50:31  5-MIN KDBQ 192050Z 22012KT 1 1/2SM BR OVC005 11/10 A2978 1210 93 1100 220/12 RMK AO2 P0001
94908KDBQ DBQ20071119145510311/19/07 14:55:31  5-MIN KDBQ 192055Z 22011KT 1 3/4SM BR OVC005 11/10 A2978 1200 93 1100 220/11 RMK AO2
94908KDBQ DBQ20071119150010311/19/07 15:00:31  5-MIN KDBQ 192100Z 22009KT 1 3/4SM BR OVC005 11/10 A2979 1200 93 1100 220/09 RMK AO2
94908KDBQ DBQ20071119150510311/19/07 15:05:31  5-MIN KDBQ 192105Z 22011KT 1 3/4SM BR OVC005 11/10 A2979 1200 93 1100 220/11 RMK AO2
94908KDBQ DBQ20071119151010311/19/07 15:10:31  5-MIN KDBQ 192110Z 21010KT 1 3/4SM BR OVC005 11/10 A2979 1200 93 1100 210/10 RMK AO2
94908KDBQ DBQ20071119151510311/19/07 15:15:31  5-MIN KDBQ 192115Z 22008KT 1 3/4SM BR OVC005 11/10 A2979 1200 93 1100 220/08 RMK AO2
94908KDBQ DBQ20071119152010311/19/07 15:20:31  5-MIN KDBQ 192120Z 22010KT 1 3/4SM BR OVC005 11/11 A2979 1200 96 1100 220/10 RMK AO2
94908KDBQ DBQ20071119152510311/19/07 15:25:31  5-MIN KDBQ 192125Z 22008KT 1 3/4SM BR OVC005 12/11 A2979 1200 93 1100 220/08 RMK AO2
94908KDBQ DBQ20071119153010311/19/07 15:30:31  5-MIN KDBQ 192130Z 22008KT 1 3/4SM BR OVC005 12/11 A2979 1190 93 1100 220/08 RMK AO2
94908KDBQ DBQ20071119153510311/19/07 15:35:31  5-MIN KDBQ 192135Z 22007KT 1 3/4SM BR OVC005 12/11 A2980 1190 93 1100 220/07 RMK AO2
94908KDBQ DBQ20071119154010311/19/07 15:40:31  5-MIN KDBQ 192140Z 23007KT 1 3/4SM BR OVC005 12/11 A2980 1190 93 1100 220/07 RMK AO2
94908KDBQ DBQ20071119154510311/19/07 15:45:31  5-MIN KDBQ 192145Z 22007KT 1 3/4SM BR OVC005 12/11 A2980 1190 93 1100 220/07 RMK AO2
94908KDBQ DBQ20071119155009911/19/07 15:50:31  5-MIN KDBQ 192150Z 21007KT 2SM BR OVC005 12/11 A2979 1200 93 1100 210/07 RMK AO2
94908KDBQ DBQ20071119155509911/19/07 15:55:31  5-MIN KDBQ 192155Z 23006KT 2SM BR OVC005 12/11 A2980 1190 93 1100 230/06 RMK AO2
94908KDBQ DBQ20071119160009911/19/07 16:00:31  5-MIN KDBQ 192200Z 23005KT 2SM BR OVC005 12/11 A2980 1190 93 1100 230/05 RMK AO2
94908KDBQ DBQ20071119160509911/19/07 16:05:31  5-MIN KDBQ 192205Z 22005KT 2SM BR OVC005 12/11 A2980 1190 93 1100 220/05 RMK AO2
94908KDBQ DBQ20071119161009911/19/07 16:10:31  5-MIN KDBQ 192210Z 22004KT 2SM BR OVC005 12/11 A2980 1190 93 1100 220/04 RMK AO2
94908KDBQ DBQ20071119161510311/19/07 16:15:31  5-MIN KDBQ 192215Z 22004KT 1 3/4SM BR OVC005 12/11 A2980 1190 93 1100 220/04 RMK AO2
94908KDBQ DBQ20071119162010311/19/07 16:20:31  5-MIN KDBQ 192220Z 21003KT 1 3/4SM BR OVC005 12/11 A2980 1190 93 1100 210/03 RMK AO2
94908KDBQ DBQ20071119162510311/19/07 16:25:31  5-MIN KDBQ 192225Z 22003KT 1 3/4SM BR OVC005 12/11 A2980 1190 93 1100 210/03 RMK AO2
94908KDBQ DBQ20071119163010311/19/07 16:30:31  5-MIN KDBQ 192230Z 21003KT 1 3/4SM BR OVC005 12/11 A2980 1190 93 1100 210/03 RMK AO2
94908KDBQ DBQ20071119163510311/19/07 16:35:31  5-MIN KDBQ 192235Z 00000KT 1 3/4SM BR OVC005 12/11 A2980 1190 93 1100 000/00 RMK AO2
94908KDBQ DBQ20071119164009911/19/07 16:40:31  5-MIN KDBQ 192240Z 00000KT 2SM BR OVC005 12/11 A2981 1180 93 1100 000/00 RMK AO2
94908KDBQ DBQ20071119164510311/19/07 16:45:31  5-MIN KDBQ 192245Z 00000KT 2 1/2SM BR OVC005 12/11 A2981 1180 93 1100 000/00 RMK AO2
94908KDBQ DBQ20071119165012011/19/07 16:50:31  5-MIN KDBQ 192250Z 00000KT 2 1/2SM BR OVC005 12/11 A2981 1180 93 1100 000/00 RMK AO2 SLP099 T01170106
94908KDBQ DBQ20071119165510311/19/07 16:55:31  5-MIN KDBQ 192255Z 00000KT 2 1/2SM BR OVC003 12/11 A2981 1180 93 1100 000/00 RMK AO2
94908KDBQ DBQ20071119170010311/19/07 17:00:31  5-MIN KDBQ 192300Z 00000KT 2 1/2SM BR OVC003 12/11 A2981 1180 93 1100 000/00 RMK AO2
94908KDBQ DBQ20071119170510311/19/07 17:05:31  5-MIN KDBQ 192305Z 00000KT 2 1/2SM BR OVC003 11/11 A2981 1180 96 1000 000/00 RMK AO2
94908KDBQ DBQ20071119171010311/19/07 17:10:31  5-MIN KDBQ 192310Z 00000KT 2 1/2SM BR OVC003 11/11 A2981 1180 96 1000 000/00 RMK AO2
94908KDBQ DBQ20071119171510311/19/07 17:15:31  5-MIN KDBQ 192315Z 20003KT 2 1/2SM BR OVC003 12/11 A2981 1180 93 1100 200/03 RMK AO2
94908KDBQ DBQ20071119172010311/19/07 17:20:31  5-MIN KDBQ 192320Z 19003KT 2 1/2SM BR OVC003 11/11 A2981 1180 96 1000 190/03 RMK AO2
94908KDBQ DBQ20071119172510311/19/07 17:25:31  5-MIN KDBQ 192325Z 19003KT 2 1/2SM BR OVC003 12/11 A2981 1180 93 1100 190/03 RMK AO2
94908KDBQ DBQ20071119173010311/19/07 17:30:31  5-MIN KDBQ 192330Z 19003KT 2 1/2SM BR OVC003 12/11 A2981 1180 93 1100 190/03 RMK AO2
94908KDBQ DBQ20071119173510311/19/07 17:35:31  5-MIN KDBQ 192335Z 00000KT 2 1/2SM BR OVC003 12/11 A2982 1180 93 1100 000/00 RMK AO2
94908KDBQ DBQ20071119174009911/19/07 17:40:31  5-MIN KDBQ 192340Z 20003KT 2SM BR OVC003 12/11 A2982 1180 93 1100 200/03 RMK AO2
94908KDBQ DBQ20071119174509911/19/07 17:45:31  5-MIN KDBQ 192345Z 20003KT 2SM BR OVC003 12/11 A2982 1170 93 1100 200/03 RMK AO2
94908KDBQ DBQ20071119175014011/19/07 17:50:31  5-MIN KDBQ 192350Z 21003KT 2SM BR OVC003 12/11 A2982 1170 93 1100 210/03 RMK AO2 SLP102 60002 T01170106 10117 20083 55021
94908KDBQ DBQ20071119175509911/19/07 17:55:31  5-MIN KDBQ 192355Z 00000KT 2SM BR OVC003 12/11 A2982 1170 93 1100 000/00 RMK AO2
94908KDBQ DBQ20071119180010311/19/07 18:00:31  5-MIN KDBQ 200000Z 00000KT 1 3/4SM BR OVC003 12/11 A2982 1170 93 1100 000/00 RMK AO2
94908KDBQ DBQ20071119180510311/19/07 18:05:31  5-MIN KDBQ 200005Z 00000KT 1 3/4SM BR OVC003 12/11 A2982 1170 93 1100 000/00 RMK AO2
94908KDBQ DBQ20071119181009911/19/07 18:10:31  5-MIN KDBQ 200010Z 00000KT 2SM BR OVC003 12/11 A2983 1170 93 1100 000/00 RMK AO2
94908KDBQ DBQ20071119181510311/19/07 18:15:31  5-MIN KDBQ 200015Z 00000KT 1 3/4SM BR OVC001 12/11 A2983 1160 93 1100 000/00 RMK AO2
94908KDBQ DBQ20071119182010311/19/07 18:20:31  5-MIN KDBQ 200020Z 34003KT 1 3/4SM BR OVC001 11/10 A2983 1160 93 1000 340/03 RMK AO2
94908KDBQ DBQ20071119182510311/19/07 18:25:31  5-MIN KDBQ 200025Z 34005KT 1 1/4SM BR OVC001 11/10 A2983 1160 93 1000 340/05 RMK AO2
94908KDBQ DBQ20071119183009911/19/07 18:30:31  5-MIN KDBQ 200030Z 35004KT 1SM BR OVC001 12/11 A2983 1160 93 1100 350/04 RMK AO2
94908KDBQ DBQ20071119183509911/19/07 18:35:31  5-MIN KDBQ 200035Z 36004KT 1SM BR OVC001 12/11 A2983 1160 93 1100 360/04 RMK AO2
94908KDBQ DBQ20071119184010311/19/07 18:40:31  5-MIN KDBQ 200040Z 01004KT 1 1/2SM BR OVC001 12/11 A2983 1160 93 1100 010/04 RMK AO2
94908KDBQ DBQ20071119184510311/19/07 18:45:31  5-MIN KDBQ 200045Z 02004KT 1 1/2SM BR OVC001 12/11 A2983 1160 93 1100 020/04 RMK AO2
94908KDBQ DBQ20071119185012011/19/07 18:50:31  5-MIN KDBQ 200050Z 01005KT 1 1/2SM BR OVC001 12/11 A2983 1160 93 1100 010/05 RMK AO2 SLP108 T01170106
94908KDBQ DBQ20071119185510311/19/07 18:55:31  5-MIN KDBQ 200055Z 01005KT 1 1/2SM BR OVC001 12/11 A2984 1160 93 1100 010/05 RMK AO2
94908KDBQ DBQ20071119190010311/19/07 19:00:31  5-MIN KDBQ 200100Z 36005KT 1 1/4SM BR OVC001 12/11 A2984 1150 93 1100 360/05 RMK AO2
94908KDBQ DBQ20071119190510311/19/07 19:05:31  5-MIN KDBQ 200105Z 36005KT 1 1/4SM BR OVC001 12/11 A2984 1150 93 1100 360/05 RMK AO2
94908KDBQ DBQ20071119191010311/19/07 19:10:31  5-MIN KDBQ 200110Z 01004KT 1 1/4SM BR OVC001 12/11 A2985 1150 93 1100 360/04 RMK AO2
94908KDBQ DBQ20071119191510311/19/07 19:15:31  5-MIN KDBQ 200115Z 36006KT 1 1/2SM BR OVC001 12/11 A2985 1150 93 1100 360/06 RMK AO2
94908KDBQ DBQ20071119192010311/19/07 19:20:31  5-MIN KDBQ 200120Z 36005KT 1 1/4SM BR OVC001 11/11 A2985 1140 96 1000 360/05 RMK AO2
94908KDBQ DBQ20071119192510311/19/07 19:25:31  5-MIN KDBQ 200125Z 36006KT 1 1/4SM BR OVC001 11/11 A2985 1140 96 1000 360/06 RMK AO2
94908KDBQ DBQ20071119193010311/19/07 19:30:31  5-MIN KDBQ 200130Z 35007KT 1 1/4SM BR OVC001 11/11 A2985 1140 96 1000 350/07 RMK AO2
94908KDBQ DBQ20071119193510311/19/07 19:35:31  5-MIN KDBQ 200135Z 35006KT 1 1/4SM BR OVC001 11/11 A2986 1140 96 1000 350/06 RMK AO2
94908KDBQ DBQ20071119194010311/19/07 19:40:31  5-MIN KDBQ 200140Z 35006KT 1 1/4SM BR OVC001 11/11 A2986 1140 96 1000 350/06 RMK AO2
94908KDBQ DBQ20071119194510311/19/07 19:45:31  5-MIN KDBQ 200145Z 35008KT 1 1/2SM BR OVC001 11/10 A2986 1140 93 1000 350/08 RMK AO2
94908KDBQ DBQ20071119195012011/19/07 19:50:31  5-MIN KDBQ 200150Z 36010KT 1 3/4SM BR OVC001 11/10 A2986 1130 93 1000 360/10 RMK AO2 SLP117 T01110100
94908KDBQ DBQ20071119195510311/19/07 19:55:31  5-MIN KDBQ 200155Z 36010KT 1 3/4SM BR OVC003 11/10 A2986 1130 93 1000 360/10 RMK AO2
94908KDBQ DBQ20071119200010811/19/07 20:00:31  5-MIN KDBQ 200200Z AUTO 36007KT 1 3/4SM BR OVC003 11/10 A2986 1130 93 1000 360/07 RMK AO2
94908KDBQ DBQ20071119200510811/19/07 20:05:31  5-MIN KDBQ 200205Z AUTO 01007KT 1 3/4SM BR OVC003 11/10 A2986 1140 93 1000 010/07 RMK AO2
94908KDBQ DBQ20071119201010811/19/07 20:10:31  5-MIN KDBQ 200210Z AUTO 01009KT 1 3/4SM BR OVC003 11/10 A2986 1130 93 1000 010/09 RMK AO2
94908KDBQ DBQ20071119201510811/19/07 20:15:31  5-MIN KDBQ 200215Z AUTO 36009KT 1 3/4SM BR OVC003 11/10 A2986 1130 93 1000 360/09 RMK AO2
94908KDBQ DBQ20071119202010711/19/07 20:20:31  5-MIN KDBQ 200220Z AUTO 01009KT 1 3/4SM BR OVC003 11/09 A2986 1130 93 900 360/09 RMK AO2
94908KDBQ DBQ20071119202510711/19/07 20:25:31  5-MIN KDBQ 200225Z AUTO 01010KT 1 3/4SM BR OVC003 11/09 A2987 1130 93 900 010/10 RMK AO2
94908KDBQ DBQ20071119203010311/19/07 20:30:31  5-MIN KDBQ 200230Z AUTO 01010KT 2SM BR OVC003 11/09 A2987 1130 93 900 010/10 RMK AO2
94908KDBQ DBQ20071119203510311/19/07 20:35:31  5-MIN KDBQ 200235Z AUTO 35013KT 2SM BR OVC003 11/09 A2987 1120 93 900 350/13 RMK AO2
94908KDBQ DBQ20071119204011511/19/07 20:40:31  5-MIN KDBQ 200240Z AUTO 36010KT 2SM BR OVC005 10/09 A2987 1120 93 800 360/10 RMK AO2 CIG 002V007
94908KDBQ DBQ20071119204511911/19/07 20:45:31  5-MIN KDBQ 200245Z AUTO 36010KT 2 1/2SM BR OVC005 10/09 A2987 1120 93 800 360/10 RMK AO2 CIG 003V008
94908KDBQ DBQ20071119205011511/19/07 20:50:31  5-MIN KDBQ 200250Z AUTO 36008KT 3SM BR OVC005 10/08 A2987 1120 89 800 360/08 RMK AO2 CIG 003V008
94908KDBQ DBQ20071119205511511/19/07 20:55:31  5-MIN KDBQ 200255Z AUTO 36006KT 3SM BR OVC007 10/08 A2988 1120 89 800 360/06 RMK AO2 CIG 003V008
94908KDBQ DBQ20071119210011511/19/07 21:00:31  5-MIN KDBQ 200300Z AUTO 36007KT 3SM BR OVC007 10/08 A2988 1120 89 800 360/07 RMK AO2 CIG 003V008
94908KDBQ DBQ20071119210510311/19/07 21:05:31  5-MIN KDBQ 200305Z AUTO 35008KT 3SM BR OVC007 10/08 A2988 1110 89 800 350/08 RMK AO2
94908KDBQ DBQ20071119211010311/19/07 21:10:31  5-MIN KDBQ 200310Z AUTO 36007KT 3SM BR OVC007 10/08 A2988 1110 89 800 350/07 RMK AO2
94908KDBQ DBQ20071119211510311/19/07 21:15:31  5-MIN KDBQ 200315Z AUTO 36007KT 3SM BR OVC007 10/08 A2989 1110 89 800 360/07 RMK AO2
94908KDBQ DBQ20071119212010311/19/07 21:20:31  5-MIN KDBQ 200320Z AUTO 36009KT 3SM BR OVC007 10/08 A2989 1110 89 800 360/09 RMK AO2
94908KDBQ DBQ20071119212510311/19/07 21:25:31  5-MIN KDBQ 200325Z AUTO 35008KT 3SM BR OVC007 09/08 A2989 1110 93 700 350/08 RMK AO2
94908KDBQ DBQ20071119213010311/19/07 21:30:31  5-MIN KDBQ 200330Z AUTO 36008KT 3SM BR OVC007 09/08 A2989 1100 89 700 360/08 RMK AO2
94908KDBQ DBQ20071119213510311/19/07 21:35:31  5-MIN KDBQ 200335Z AUTO 36010KT 3SM BR OVC007 09/08 A2989 1100 89 700 360/10 RMK AO2
94908KDBQ DBQ20071119214010311/19/07 21:40:31  5-MIN KDBQ 200340Z AUTO 36009KT 3SM BR OVC007 09/08 A2990 1100 89 700 360/09 RMK AO2
94908KDBQ DBQ20071119214510311/19/07 21:45:31  5-MIN KDBQ 200345Z AUTO 36011KT 3SM BR OVC007 09/07 A2990 1100 89 700 350/11 RMK AO2
94908KDBQ DBQ20071119215012011/19/07 21:50:31  5-MIN KDBQ 200350Z AUTO 35009KT 3SM BR OVC007 09/07 A2990 1100 89 700 350/09 RMK AO2 SLP131 T00890072
94908KDBQ DBQ20071119215510311/19/07 21:55:31  5-MIN KDBQ 200355Z AUTO 35009KT 3SM BR OVC007 09/07 A2990 1100 89 700 350/09 RMK AO2
94908KDBQ DBQ20071119220010311/19/07 22:00:31  5-MIN KDBQ 200400Z AUTO 35009KT 4SM BR OVC007 09/07 A2990 1100 89 700 350/09 RMK AO2
94908KDBQ DBQ20071119220510311/19/07 22:05:31  5-MIN KDBQ 200405Z AUTO 36008KT 4SM BR OVC007 08/07 A2990 1100 89 600 360/08 RMK AO2
94908KDBQ DBQ20071119221010311/19/07 22:10:31  5-MIN KDBQ 200410Z AUTO 36008KT 4SM BR OVC007 08/07 A2990 1100 89 600 360/08 RMK AO2
94908KDBQ DBQ20071119221510311/19/07 22:15:31  5-MIN KDBQ 200415Z AUTO 36007KT 4SM BR OVC007 08/07 A2990 1090 89 600 350/07 RMK AO2
94908KDBQ DBQ20071119222010311/19/07 22:20:31  5-MIN KDBQ 200420Z AUTO 35010KT 4SM BR OVC007 08/07 A2991 1090 89 600 350/10 RMK AO2
94908KDBQ DBQ20071119222510311/19/07 22:25:31  5-MIN KDBQ 200425Z AUTO 36007KT 4SM BR OVC007 08/07 A2991 1090 89 600 360/07 RMK AO2
94908KDBQ DBQ20071119223010311/19/07 22:30:31  5-MIN KDBQ 200430Z AUTO 36009KT 4SM BR OVC007 08/07 A2991 1090 89 600 360/09 RMK AO2
94908KDBQ DBQ20071119223510311/19/07 22:35:31  5-MIN KDBQ 200435Z AUTO 01007KT 4SM BR OVC007 08/06 A2992 1080 86 600 360/07 RMK AO2
94908KDBQ DBQ20071119224010311/19/07 22:40:31  5-MIN KDBQ 200440Z AUTO 36009KT 4SM BR OVC007 08/06 A2992 1080 86 600 360/09 RMK AO2
94908KDBQ DBQ20071119224510311/19/07 22:45:31  5-MIN KDBQ 200445Z AUTO 35010KT 4SM BR OVC007 08/06 A2992 1080 89 500 350/10 RMK AO2
94908KDBQ DBQ20071119225012011/19/07 22:50:31  5-MIN KDBQ 200450Z AUTO 36010KT 4SM BR OVC007 08/06 A2993 1070 89 500 360/10 RMK AO2 SLP140 T00780061
94908KDBQ DBQ20071119225510311/19/07 22:55:31  5-MIN KDBQ 200455Z AUTO 36010KT 4SM BR OVC007 08/06 A2993 1070 89 500 360/10 RMK AO2
94908KDBQ DBQ20071119230010311/19/07 23:00:31  5-MIN KDBQ 200500Z AUTO 36010KT 4SM BR OVC007 08/06 A2993 1070 89 500 360/10 RMK AO2
94908KDBQ DBQ20071119230510311/19/07 23:05:31  5-MIN KDBQ 200505Z AUTO 36010KT 3SM BR OVC007 08/06 A2993 1070 89 500 360/10 RMK AO2
94908KDBQ DBQ20071119231010311/19/07 23:10:31  5-MIN KDBQ 200510Z AUTO 36009KT 3SM BR OVC007 08/06 A2994 1060 89 500 360/09 RMK AO2
94908KDBQ DBQ20071119231510311/19/07 23:15:31  5-MIN KDBQ 200515Z AUTO 36009KT 3SM BR OVC007 08/06 A2994 1060 89 500 360/09 RMK AO2
94908KDBQ DBQ20071119232010311/19/07 23:20:31  5-MIN KDBQ 200520Z AUTO 36009KT 3SM BR OVC007 07/06 A2993 1070 89 400 360/09 RMK AO2
94908KDBQ DBQ20071119232510311/19/07 23:25:31  5-MIN KDBQ 200525Z AUTO 02010KT 3SM BR OVC007 07/06 A2993 1070 89 400 010/10 RMK AO2
94908KDBQ DBQ20071119233010311/19/07 23:30:31  5-MIN KDBQ 200530Z AUTO 01012KT 3SM BR OVC007 07/06 A2993 1070 89 400 010/12 RMK AO2
94908KDBQ DBQ20071119233510311/19/07 23:35:31  5-MIN KDBQ 200535Z AUTO 01009KT 3SM BR OVC005 07/06 A2993 1070 93 400 010/09 RMK AO2
94908KDBQ DBQ20071119234010311/19/07 23:40:31  5-MIN KDBQ 200540Z AUTO 01010KT 3SM BR OVC005 07/05 A2993 1070 89 400 010/10 RMK AO2
94908KDBQ DBQ20071119234510311/19/07 23:45:31  5-MIN KDBQ 200545Z AUTO 02011KT 3SM BR OVC005 07/05 A2991 1080 89 400 020/11 RMK AO2
94908KDBQ DBQ20071119235014811/19/07 23:50:31  5-MIN KDBQ 200550Z AUTO 02009KT 3SM BR OVC005 07/05 A2991 1090 89 400 020/09 RMK AO2 SLP134 T00670050 10117 20067 401170022 51020
94908KDBQ DBQ20071119235511011/19/07 23:55:31  5-MIN KDBQ 200555Z AUTO 02010KT 3SM BR OVC005 07/05 A2990 1090 89 400 020/10 RMK AO2 PRESFR
94908KDBQ DBQ20071120000010311/20/07 00:00:38  5-MIN KDBQ 200600Z AUTO 02010KT 3SM BR OVC005 07/05 A2990 1100 89 400 020/10 RMK AO2
94908KDBQ DBQ20071120000510311/20/07 00:05:31  5-MIN KDBQ 200605Z AUTO 01010KT 3SM BR OVC005 07/05 A2990 1090 89 400 010/10 RMK AO2
94908KDBQ DBQ20071120001010311/20/07 00:10:31  5-MIN KDBQ 200610Z AUTO 02009KT 3SM BR OVC005 07/05 A2990 1090 89 400 020/09 RMK AO2
94908KDBQ DBQ20071120001510311/20/07 00:15:32  5-MIN KDBQ 200615Z AUTO 02009KT 3SM BR OVC005 07/05 A2991 1090 89 400 020/09 RMK AO2
94908KDBQ DBQ20071120002010311/20/07 00:20:31  5-MIN KDBQ 200620Z AUTO 02009KT 3SM BR OVC005 07/05 A2991 1090 89 400 020/09 RMK AO2
94908KDBQ DBQ20071120002510311/20/07 00:25:31  5-MIN KDBQ 200625Z AUTO 02011KT 3SM BR OVC005 07/05 A2991 1090 89 400 020/11 RMK AO2
94908KDBQ DBQ20071120003010311/20/07 00:30:31  5-MIN KDBQ 200630Z AUTO 02009KT 3SM BR OVC005 07/05 A2991 1080 89 400 010/09 RMK AO2
94908KDBQ DBQ20071120003510311/20/07 00:35:31  5-MIN KDBQ 200635Z AUTO 02011KT 3SM BR OVC005 07/05 A2991 1080 89 400 020/11 RMK AO2
94908KDBQ DBQ20071120004010311/20/07 00:40:31  5-MIN KDBQ 200640Z AUTO 02011KT 3SM BR OVC005 07/05 A2992 1080 89 400 020/11 RMK AO2
94908KDBQ DBQ20071120004510311/20/07 00:45:31  5-MIN KDBQ 200645Z AUTO 03012KT 3SM BR OVC005 07/05 A2992 1080 89 400 030/12 RMK AO2
94908KDBQ DBQ20071120005012011/20/07 00:50:31  5-MIN KDBQ 200650Z AUTO 04010KT 3SM BR OVC005 06/04 A2992 1080 89 300 040/10 RMK AO2 SLP138 T00610044
94908KDBQ DBQ20071120005510311/20/07 00:55:31  5-MIN KDBQ 200655Z AUTO 03010KT 3SM BR OVC005 06/04 A2992 1080 89 300 020/10 RMK AO2
94908KDBQ DBQ20071120010010311/20/07 01:00:31  5-MIN KDBQ 200700Z AUTO 02009KT 3SM BR OVC005 06/04 A2993 1070 89 300 020/09 RMK AO2
94908KDBQ DBQ20071120010510311/20/07 01:05:31  5-MIN KDBQ 200705Z AUTO 03009KT 3SM BR OVC005 06/04 A2993 1070 89 300 030/09 RMK AO2
94908KDBQ DBQ20071120011010311/20/07 01:10:31  5-MIN KDBQ 200710Z AUTO 04008KT 3SM BR OVC005 06/04 A2993 1070 89 300 040/08 RMK AO2
94908KDBQ DBQ20071120011510311/20/07 01:15:31  5-MIN KDBQ 200715Z AUTO 02007KT 3SM BR OVC005 06/04 A2993 1070 89 300 020/07 RMK AO2
94908KDBQ DBQ20071120012010311/20/07 01:20:31  5-MIN KDBQ 200720Z AUTO 03007KT 3SM BR OVC005 06/04 A2993 1070 89 300 030/07 RMK AO2
94908KDBQ DBQ20071120012510311/20/07 01:25:31  5-MIN KDBQ 200725Z AUTO 03006KT 3SM BR OVC005 06/04 A2993 1070 89 300 030/06 RMK AO2
94908KDBQ DBQ20071120013010311/20/07 01:30:31  5-MIN KDBQ 200730Z AUTO 03005KT 3SM BR OVC005 06/04 A2994 1060 89 300 030/05 RMK AO2
94908KDBQ DBQ20071120013510311/20/07 01:35:31  5-MIN KDBQ 200735Z AUTO 04007KT 3SM BR OVC005 06/05 A2994 1060 93 300 040/07 RMK AO2
94908KDBQ DBQ20071120014010311/20/07 01:40:31  5-MIN KDBQ 200740Z AUTO 05008KT 3SM BR OVC005 06/04 A2994 1060 89 300 050/08 RMK AO2
94908KDBQ DBQ20071120014510311/20/07 01:45:31  5-MIN KDBQ 200745Z AUTO 05008KT 3SM BR OVC005 06/04 A2994 1060 89 300 050/08 RMK AO2
94908KDBQ DBQ20071120015012011/20/07 01:50:31  5-MIN KDBQ 200750Z AUTO 05009KT 3SM BR OVC005 06/04 A2994 1060 89 300 050/09 RMK AO2 SLP142 T00610044
94908KDBQ DBQ20071120015510311/20/07 01:55:31  5-MIN KDBQ 200755Z AUTO 04004KT 3SM BR OVC005 06/04 A2994 1060 89 300 040/04 RMK AO2
94908KDBQ DBQ20071120020010311/20/07 02:00:31  5-MIN KDBQ 200800Z AUTO 05006KT 3SM BR OVC005 06/04 A2995 1060 89 300 040/06 RMK AO2
94908KDBQ DBQ20071120020510311/20/07 02:05:31  5-MIN KDBQ 200805Z AUTO 03009KT 3SM BR OVC005 06/04 A2995 1050 89 300 030/09 RMK AO2
94908KDBQ DBQ20071120021010311/20/07 02:10:31  5-MIN KDBQ 200810Z AUTO 05008KT 3SM BR OVC005 06/04 A2995 1050 89 300 050/08 RMK AO2
94908KDBQ DBQ20071120021510311/20/07 02:15:31  5-MIN KDBQ 200815Z AUTO 06008KT 3SM BR OVC005 06/04 A2995 1050 89 300 060/08 RMK AO2
94908KDBQ DBQ20071120022010311/20/07 02:20:31  5-MIN KDBQ 200820Z AUTO 06008KT 3SM BR OVC005 06/04 A2995 1060 89 300 060/08 RMK AO2
94908KDBQ DBQ20071120022510311/20/07 02:25:31  5-MIN KDBQ 200825Z AUTO 05008KT 3SM BR OVC005 06/04 A2995 1050 92 200 050/08 RMK AO2
94908KDBQ DBQ20071120023010311/20/07 02:30:31  5-MIN KDBQ 200830Z AUTO 05007KT 3SM BR OVC005 06/04 A2995 1050 89 300 050/07 RMK AO2
94908KDBQ DBQ20071120023510311/20/07 02:35:31  5-MIN KDBQ 200835Z AUTO 05006KT 3SM BR OVC005 06/04 A2995 1050 89 300 050/06 RMK AO2
94908KDBQ DBQ20071120024010311/20/07 02:40:31  5-MIN KDBQ 200840Z AUTO 06006KT 3SM BR OVC005 06/04 A2996 1050 89 300 060/06 RMK AO2
94908KDBQ DBQ20071120024510311/20/07 02:45:31  5-MIN KDBQ 200845Z AUTO 06009KT 3SM BR OVC005 06/04 A2995 1050 89 300 060/09 RMK AO2
94908KDBQ DBQ20071120025012611/20/07 02:50:31  5-MIN KDBQ 200850Z AUTO 07008KT 3SM BR OVC005 06/04 A2995 1050 89 300 070/08 RMK AO2 SLP146 T00610044 50010
94908KDBQ DBQ20071120025510311/20/07 02:55:31  5-MIN KDBQ 200855Z AUTO 06006KT 3SM BR OVC005 06/04 A2995 1050 89 300 060/06 RMK AO2
94908KDBQ DBQ20071120030010311/20/07 03:00:31  5-MIN KDBQ 200900Z AUTO 06005KT 3SM BR OVC005 06/04 A2995 1050 89 300 060/05 RMK AO2
94908KDBQ DBQ20071120030510311/20/07 03:05:31  5-MIN KDBQ 200905Z AUTO 07007KT 3SM BR OVC005 06/04 A2996 1040 92 200 060/07 RMK AO2
94908KDBQ DBQ20071120031010311/20/07 03:10:31  5-MIN KDBQ 200910Z AUTO 09005KT 3SM BR OVC005 06/04 A2996 1050 89 300 090/05 RMK AO2
94908KDBQ DBQ20071120031510311/20/07 03:15:31  5-MIN KDBQ 200915Z AUTO 06005KT 3SM BR OVC005 06/04 A2995 1050 89 300 060/05 RMK AO2
94908KDBQ DBQ20071120032010311/20/07 03:20:31  5-MIN KDBQ 200920Z AUTO 06007KT 3SM BR OVC005 06/04 A2995 1050 89 300 060/07 RMK AO2
94908KDBQ DBQ20071120032510311/20/07 03:25:31  5-MIN KDBQ 200925Z AUTO 06006KT 3SM BR OVC005 06/04 A2995 1050 89 300 060/06 RMK AO2
94908KDBQ DBQ20071120033010311/20/07 03:30:31  5-MIN KDBQ 200930Z AUTO 06005KT 3SM BR OVC005 06/04 A2995 1060 89 300 060/05 RMK AO2
94908KDBQ DBQ20071120033510311/20/07 03:35:31  5-MIN KDBQ 200935Z AUTO 06005KT 3SM BR OVC005 06/04 A2995 1050 89 300 060/05 RMK AO2
94908KDBQ DBQ20071120034010311/20/07 03:40:31  5-MIN KDBQ 200940Z AUTO 05006KT 3SM BR OVC005 06/04 A2995 1050 89 300 040/06 RMK AO2
94908KDBQ DBQ20071120034510311/20/07 03:45:31  5-MIN KDBQ 200945Z AUTO 06005KT 3SM BR OVC005 06/04 A2995 1050 89 300 060/05 RMK AO2
94908KDBQ DBQ20071120035012011/20/07 03:50:31  5-MIN KDBQ 200950Z AUTO 09004KT 3SM BR OVC005 06/04 A2995 1050 89 300 090/04 RMK AO2 SLP147 T00610044
94908KDBQ DBQ20071120035510311/20/07 03:55:31  5-MIN KDBQ 200955Z AUTO 08005KT 3SM BR OVC005 06/04 A2995 1050 89 300 080/05 RMK AO2
94908KDBQ DBQ20071120040010311/20/07 04:00:31  5-MIN KDBQ 201000Z AUTO 08007KT 3SM BR OVC005 06/04 A2995 1050 86 300 080/07 RMK AO2
94908KDBQ DBQ20071120040510311/20/07 04:05:31  5-MIN KDBQ 201005Z AUTO 09007KT 3SM BR OVC005 06/04 A2995 1050 89 300 080/07 RMK AO2
94908KDBQ DBQ20071120041010311/20/07 04:10:31  5-MIN KDBQ 201010Z AUTO 07006KT 3SM BR OVC005 06/04 A2995 1050 86 300 070/06 RMK AO2
94908KDBQ DBQ20071120041510311/20/07 04:15:31  5-MIN KDBQ 201015Z AUTO 07008KT 3SM BR OVC005 06/04 A2995 1050 86 300 070/08 RMK AO2
94908KDBQ DBQ20071120042010311/20/07 04:20:31  5-MIN KDBQ 201020Z AUTO 06006KT 3SM BR OVC005 06/04 A2995 1050 86 300 060/06 RMK AO2
94908KDBQ DBQ20071120042510311/20/07 04:25:31  5-MIN KDBQ 201025Z AUTO 07007KT 3SM BR OVC005 06/04 A2995 1050 89 300 070/07 RMK AO2
94908KDBQ DBQ20071120043010311/20/07 04:30:31  5-MIN KDBQ 201030Z AUTO 07005KT 3SM BR OVC005 06/04 A2995 1050 86 300 070/05 RMK AO2
94908KDBQ DBQ20071120043510311/20/07 04:35:31  5-MIN KDBQ 201035Z AUTO 06008KT 3SM BR OVC005 06/04 A2995 1050 89 300 060/08 RMK AO2
94908KDBQ DBQ20071120044010311/20/07 04:40:31  5-MIN KDBQ 201040Z AUTO 06009KT 3SM BR OVC005 06/04 A2995 1050 86 300 060/09 RMK AO2
94908KDBQ DBQ20071120044510311/20/07 04:45:31  5-MIN KDBQ 201045Z AUTO 07009KT 3SM BR OVC005 06/04 A2995 1050 89 200 070/09 RMK AO2
94908KDBQ DBQ20071120045012011/20/07 04:50:31  5-MIN KDBQ 201050Z AUTO 08009KT 3SM BR OVC005 06/04 A2995 1050 86 300 080/09 RMK AO2 SLP148 T00610039
94908KDBQ DBQ20071120045510311/20/07 04:55:31  5-MIN KDBQ 201055Z AUTO 08010KT 3SM BR OVC005 06/04 A2995 1050 89 200 080/10 RMK AO2
94908KDBQ DBQ20071120050010311/20/07 05:00:31  5-MIN KDBQ 201100Z AUTO 07007KT 3SM BR OVC007 06/04 A2995 1060 89 200 070/07 RMK AO2
94908KDBQ DBQ20071120050510311/20/07 05:05:31  5-MIN KDBQ 201105Z AUTO 09010KT 3SM BR OVC007 06/04 A2995 1050 89 200 090/10 RMK AO2
94908KDBQ DBQ20071120051010311/20/07 05:10:31  5-MIN KDBQ 201110Z AUTO 07008KT 3SM BR OVC007 06/04 A2995 1050 89 200 070/08 RMK AO2
94908KDBQ DBQ20071120051510311/20/07 05:15:31  5-MIN KDBQ 201115Z AUTO 08009KT 3SM BR OVC007 06/04 A2995 1050 89 200 080/09 RMK AO2
94908KDBQ DBQ20071120052010311/20/07 05:20:31  5-MIN KDBQ 201120Z AUTO 08011KT 3SM BR OVC007 06/04 A2994 1060 89 200 080/11 RMK AO2
94908KDBQ DBQ20071120052510311/20/07 05:25:31  5-MIN KDBQ 201125Z AUTO 08009KT 3SM BR OVC007 06/04 A2994 1060 89 200 080/09 RMK AO2
94908KDBQ DBQ20071120053010311/20/07 05:30:31  5-MIN KDBQ 201130Z AUTO 09009KT 3SM BR OVC007 06/04 A2995 1050 86 300 090/09 RMK AO2
94908KDBQ DBQ20071120053510311/20/07 05:35:31  5-MIN KDBQ 201135Z AUTO 08010KT 3SM BR OVC007 06/04 A2995 1050 89 200 080/10 RMK AO2
94908KDBQ DBQ20071120054009811/20/07 05:40:31  5-MIN KDBQ 201140Z 09009KT 3SM BR OVC007 06/04 A2996 1050 86 300 090/09 RMK AO2
94908KDBQ DBQ20071120054509811/20/07 05:45:31  5-MIN KDBQ 201145Z 08009KT 3SM BR OVC007 06/04 A2996 1040 89 200 080/09 RMK AO2
94908KDBQ DBQ20071120055013911/20/07 05:50:31  5-MIN KDBQ 201150Z 09010KT 3SM BR OVC007 06/04 A2996 1040 89 200 090/10 RMK AO2 SLP150 70003 T00560039 10067 20056 51014
94908KDBQ DBQ20071120055509811/20/07 05:55:31  5-MIN KDBQ 201155Z 09008KT 3SM BR OVC007 06/04 A2996 1040 89 200 080/08 RMK AO2
94908KDBQ DBQ20071120060009811/20/07 06:00:31  5-MIN KDBQ 201200Z 09008KT 3SM BR OVC007 06/04 A2996 1040 89 200 090/08 RMK AO2
94908KDBQ DBQ20071120060509811/20/07 06:05:31  5-MIN KDBQ 201205Z 09008KT 3SM BR OVC007 06/04 A2997 1040 89 200 090/08 RMK AO2
94908KDBQ DBQ20071120061009811/20/07 06:10:31  5-MIN KDBQ 201210Z 08007KT 3SM BR OVC007 06/04 A2997 1030 89 200 080/07 RMK AO2
94908KDBQ DBQ20071120061509811/20/07 06:15:31  5-MIN KDBQ 201215Z 09006KT 3SM BR OVC007 06/04 A2997 1030 86 300 090/06 RMK AO2
94908KDBQ DBQ20071120062009811/20/07 06:20:31  5-MIN KDBQ 201220Z 08008KT 3SM BR OVC007 06/04 A2996 1040 86 300 080/08 RMK AO2
94908KDBQ DBQ20071120062509811/20/07 06:25:31  5-MIN KDBQ 201225Z 08007KT 3SM BR OVC007 06/04 A2996 1040 89 200 080/07 RMK AO2
94908KDBQ DBQ20071120063009811/20/07 06:30:31  5-MIN KDBQ 201230Z 07009KT 3SM BR OVC007 06/04 A2995 1050 89 200 070/09 RMK AO2
94908KDBQ DBQ20071120063509811/20/07 06:35:31  5-MIN KDBQ 201235Z 07010KT 3SM BR OVC007 06/04 A2995 1050 89 200 070/10 RMK AO2
94908KDBQ DBQ20071120064009811/20/07 06:40:31  5-MIN KDBQ 201240Z 08008KT 3SM BR OVC007 06/04 A2995 1050 89 200 070/08 RMK AO2
94908KDBQ DBQ20071120064509811/20/07 06:45:31  5-MIN KDBQ 201245Z 08008KT 3SM BR OVC007 06/04 A2995 1050 89 200 080/08 RMK AO2
94908KDBQ DBQ20071120065011511/20/07 06:50:31  5-MIN KDBQ 201250Z 07009KT 3SM BR OVC007 06/04 A2995 1050 89 200 070/09 RMK AO2 SLP146 T00560039
94908KDBQ DBQ20071120065509811/20/07 06:55:31  5-MIN KDBQ 201255Z 07007KT 3SM BR OVC007 06/04 A2995 1050 89 200 070/07 RMK AO2
94908KDBQ DBQ20071120070009811/20/07 07:00:31  5-MIN KDBQ 201300Z 08008KT 3SM BR OVC007 06/04 A2995 1060 89 200 080/08 RMK AO2
94908KDBQ DBQ20071120070509811/20/07 07:05:31  5-MIN KDBQ 201305Z 09007KT 3SM BR OVC007 06/04 A2995 1050 89 200 090/07 RMK AO2
94908KDBQ DBQ20071120071009811/20/07 07:10:31  5-MIN KDBQ 201310Z 09010KT 3SM BR OVC007 06/04 A2995 1050 89 200 090/10 RMK AO2
94908KDBQ DBQ20071120071509811/20/07 07:15:31  5-MIN KDBQ 201315Z 09009KT 3SM BR OVC007 06/04 A2995 1060 89 200 090/09 RMK AO2
94908KDBQ DBQ20071120072009811/20/07 07:20:31  5-MIN KDBQ 201320Z 08010KT 3SM BR OVC007 06/04 A2994 1060 89 200 080/10 RMK AO2
94908KDBQ DBQ20071120072509811/20/07 07:25:31  5-MIN KDBQ 201325Z 08009KT 2SM BR OVC007 06/04 A2994 1060 89 200 080/09 RMK AO2
94908KDBQ DBQ20071120073009811/20/07 07:30:31  5-MIN KDBQ 201330Z 08010KT 2SM BR OVC005 06/04 A2994 1060 89 200 080/10 RMK AO2
94908KDBQ DBQ20071120073509811/20/07 07:35:31  5-MIN KDBQ 201335Z 08010KT 2SM BR OVC005 06/04 A2994 1060 89 200 080/10 RMK AO2
94908KDBQ DBQ20071120074009811/20/07 07:40:31  5-MIN KDBQ 201340Z 08008KT 2SM BR OVC005 06/04 A2993 1070 89 200 080/08 RMK AO2
94908KDBQ DBQ20071120074509811/20/07 07:45:31  5-MIN KDBQ 201345Z 08009KT 2SM BR OVC005 06/04 A2993 1070 89 200 080/09 RMK AO2
94908KDBQ DBQ20071120075010211/20/07 07:50:31  5-MIN KDBQ 201350Z 07010KT 1 1/4SM BR OVC005 06/04 A2994 1060 89 200 070/10 RMK AO2
94908KDBQ DBQ20071120075510211/20/07 07:55:31  5-MIN KDBQ 201355Z 08009KT 1 1/4SM BR OVC005 06/04 A2994 1060 89 200 080/09 RMK AO2
94908KDBQ DBQ20071120080010211/20/07 08:00:31  5-MIN KDBQ 201400Z 08007KT 1 1/4SM BR OVC005 06/04 A2994 1060 92 200 080/07 RMK AO2
94908KDBQ DBQ20071120080510211/20/07 08:05:31  5-MIN KDBQ 201405Z 09007KT 1 1/4SM BR OVC005 06/04 A2994 1060 92 200 090/07 RMK AO2
94908KDBQ DBQ20071120081010211/20/07 08:10:31  5-MIN KDBQ 201410Z 09010KT 1 1/4SM BR OVC005 06/04 A2994 1060 92 200 090/10 RMK AO2
94908KDBQ DBQ20071120081509811/20/07 08:15:31  5-MIN KDBQ 201415Z 08010KT 1SM BR OVC005 06/04 A2994 1060 89 200 080/10 RMK AO2
94908KDBQ DBQ20071120082009811/20/07 08:20:31  5-MIN KDBQ 201420Z 09009KT 1SM BR OVC005 06/04 A2994 1060 89 200 080/09 RMK AO2
94908KDBQ DBQ20071120082509811/20/07 08:25:31  5-MIN KDBQ 201425Z 08009KT 1SM BR OVC005 06/04 A2994 1060 92 200 080/09 RMK AO2
94908KDBQ DBQ20071120083009811/20/07 08:30:31  5-MIN KDBQ 201430Z 08008KT 1SM BR OVC005 06/04 A2994 1060 92 200 080/08 RMK AO2
94908KDBQ DBQ20071120083509811/20/07 08:35:31  5-MIN KDBQ 201435Z 08007KT 1SM BR OVC005 06/04 A2994 1060 92 200 080/07 RMK AO2
94908KDBQ DBQ20071120084009811/20/07 08:40:31  5-MIN KDBQ 201440Z 08007KT 1SM BR OVC005 06/04 A2994 1060 92 200 080/07 RMK AO2
94908KDBQ DBQ20071120084509811/20/07 08:45:31  5-MIN KDBQ 201445Z 08008KT 1SM BR OVC005 06/04 A2994 1060 92 200 080/08 RMK AO2
94908KDBQ DBQ20071120085012111/20/07 08:50:31  5-MIN KDBQ 201450Z 08006KT 1SM BR OVC005 06/04 A2994 1060 92 200 080/06 RMK AO2 SLP144 T00560044 53004
94908KDBQ DBQ20071120085510611/20/07 08:55:31  5-MIN KDBQ 201455Z 08006KT 3/4SM BR OVC005 06/04 A2994 1060 92 200 070/06 RMK AO2 P0001
94908KDBQ DBQ20071120090010611/20/07 09:00:31  5-MIN KDBQ 201500Z 07008KT 3/4SM BR OVC005 06/04 A2993 1070 92 200 070/08 RMK AO2 P0001
94908KDBQ DBQ20071120090510611/20/07 09:05:31  5-MIN KDBQ 201505Z 07007KT 3/4SM BR OVC005 06/04 A2993 1070 92 200 070/07 RMK AO2 P0001
94908KDBQ DBQ20071120091010611/20/07 09:10:31  5-MIN KDBQ 201510Z 07008KT 3/4SM BR OVC005 06/04 A2993 1070 92 200 070/08 RMK AO2 P0001
94908KDBQ DBQ20071120091510611/20/07 09:15:31  5-MIN KDBQ 201515Z 07007KT 3/4SM BR OVC003 06/04 A2993 1070 92 200 070/07 RMK AO2 P0001
94908KDBQ DBQ20071120092010611/20/07 09:20:31  5-MIN KDBQ 201520Z 07006KT 3/4SM BR OVC003 06/04 A2993 1070 92 200 070/06 RMK AO2 P0001
94908KDBQ DBQ20071120092510611/20/07 09:25:31  5-MIN KDBQ 201525Z 07009KT 3/4SM BR OVC003 06/04 A2992 1080 92 200 070/09 RMK AO2 P0001
94908KDBQ DBQ20071120093010611/20/07 09:30:31  5-MIN KDBQ 201530Z 08007KT 3/4SM BR OVC003 06/04 A2993 1070 92 200 080/07 RMK AO2 P0001
94908KDBQ DBQ20071120093510611/20/07 09:35:31  5-MIN KDBQ 201535Z 09009KT 3/4SM BR OVC003 06/04 A2992 1080 92 200 080/09 RMK AO2 P0001
94908KDBQ DBQ20071120094010611/20/07 09:40:31  5-MIN KDBQ 201540Z 08007KT 3/4SM BR OVC003 06/04 A2993 1070 92 200 080/07 RMK AO2 P0001
94908KDBQ DBQ20071120094510611/20/07 09:45:31  5-MIN KDBQ 201545Z 07007KT 3/4SM BR OVC003 06/04 A2993 1070 92 200 070/07 RMK AO2 P0001
94908KDBQ DBQ20071120095012311/20/07 09:50:31  5-MIN KDBQ 201550Z 08008KT 3/4SM BR OVC003 06/04 A2992 1080 92 200 080/08 RMK AO2 SLP139 P0001 T00560044
94908KDBQ DBQ20071120095510011/20/07 09:55:31  5-MIN KDBQ 201555Z 08009KT 3/4SM BR OVC003 06/04 A2992 1080 92 200 080/09 RMK AO2
94908KDBQ DBQ20071120100010011/20/07 10:00:31  5-MIN KDBQ 201600Z 07008KT 3/4SM BR OVC003 06/04 A2992 1080 92 200 070/08 RMK AO2
94908KDBQ DBQ20071120100510011/20/07 10:05:31  5-MIN KDBQ 201605Z 08007KT 3/4SM BR OVC003 06/04 A2992 1080 92 200 080/07 RMK AO2
94908KDBQ DBQ20071120101010011/20/07 10:10:31  5-MIN KDBQ 201610Z 08011KT 1/2SM FG OVC003 06/04 A2991 1080 92 200 080/11 RMK AO2
94908KDBQ DBQ20071120101510011/20/07 10:15:31  5-MIN KDBQ 201615Z 08009KT 1/2SM FG OVC003 06/04 A2992 1080 92 200 080/09 RMK AO2
94908KDBQ DBQ20071120102010011/20/07 10:20:31  5-MIN KDBQ 201620Z 08008KT 1/2SM FG OVC003 06/04 A2992 1080 92 200 080/08 RMK AO2
94908KDBQ DBQ20071120102510011/20/07 10:25:31  5-MIN KDBQ 201625Z 08007KT 1/2SM FG OVC003 06/05 A2992 1080 96 200 070/07 RMK AO2
94908KDBQ DBQ20071120103010011/20/07 10:30:31  5-MIN KDBQ 201630Z 08008KT 1/2SM FG OVC003 06/05 A2991 1090 96 200 080/08 RMK AO2
94908KDBQ DBQ20071120103510011/20/07 10:35:31  5-MIN KDBQ 201635Z 08009KT 1/2SM FG OVC003 06/05 A2991 1090 96 200 080/09 RMK AO2
94908KDBQ DBQ20071120104010011/20/07 10:40:31  5-MIN KDBQ 201640Z 07010KT 1/2SM FG OVC003 06/05 A2991 1080 96 200 070/10 RMK AO2
94908KDBQ DBQ20071120104510011/20/07 10:45:31  5-MIN KDBQ 201645Z 07008KT 1/2SM FG OVC003 06/05 A2991 1090 96 200 070/08 RMK AO2
94908KDBQ DBQ20071120105011711/20/07 10:50:31  5-MIN KDBQ 201650Z 07009KT 1/2SM FG OVC003 06/05 A2991 1090 96 200 060/09 RMK AO2 SLP135 T00560050
94908KDBQ DBQ20071120105510011/20/07 10:55:31  5-MIN KDBQ 201655Z 06006KT 1/2SM FG OVC003 06/05 A2991 1090 96 300 060/06 RMK AO2
94908KDBQ DBQ20071120110010011/20/07 11:00:31  5-MIN KDBQ 201700Z 07006KT 1/2SM FG OVC003 06/05 A2991 1090 96 300 070/06 RMK AO2
94908KDBQ DBQ20071120110510011/20/07 11:05:31  5-MIN KDBQ 201705Z 06006KT 1/4SM FG OVC003 06/05 A2990 1090 96 300 060/06 RMK AO2
94908KDBQ DBQ20071120111010011/20/07 11:10:31  5-MIN KDBQ 201710Z 06007KT 1/4SM FG OVC001 06/05 A2990 1100 96 300 060/07 RMK AO2
94908KDBQ DBQ20071120111510011/20/07 11:15:31  5-MIN KDBQ 201715Z 06008KT 1/4SM FG OVC001 06/05 A2990 1100 96 300 060/08 RMK AO2
94908KDBQ DBQ20071120112010011/20/07 11:20:31  5-MIN KDBQ 201720Z 06007KT 1/4SM FG OVC001 06/05 A2990 1100 96 300 060/07 RMK AO2
94908KDBQ DBQ20071120112510011/20/07 11:25:31  5-MIN KDBQ 201725Z 05006KT 1/4SM FG OVC001 06/05 A2990 1100 93 300 050/06 RMK AO2
94908KDBQ DBQ20071120113010011/20/07 11:30:31  5-MIN KDBQ 201730Z 05008KT 1/4SM FG OVC001 06/05 A2989 1100 96 300 050/08 RMK AO2
94908KDBQ DBQ20071120113510011/20/07 11:35:31  5-MIN KDBQ 201735Z 06006KT 1/4SM FG OVC001 06/05 A2989 1100 96 300 060/06 RMK AO2
94908KDBQ DBQ20071120114010011/20/07 11:40:31  5-MIN KDBQ 201740Z 05005KT 1/4SM FG OVC001 06/05 A2989 1110 96 300 050/05 RMK AO2
94908KDBQ DBQ20071120114510011/20/07 11:45:31  5-MIN KDBQ 201745Z 06005KT 1/4SM FG OVC001 06/05 A2989 1110 96 300 060/05 RMK AO2
94908KDBQ DBQ20071120115014111/20/07 11:50:31  5-MIN KDBQ 201750Z 04006KT 1/4SM FG OVC001 06/05 A2989 1110 96 300 040/06 RMK AO2 SLP127 60001 T00560050 10061 20056 56007
94908KDBQ DBQ20071120115509911/20/07 11:55:31  5-MIN KDBQ 201755Z 04006KT 1/4SM FG VV001 06/05 A2988 1110 96 300 040/06 RMK AO2
94908KDBQ DBQ20071120120010011/20/07 12:00:31  5-MIN KDBQ 201800Z 05008KT M1/4SM FG VV001 06/05 A2988 1110 96 300 040/08 RMK AO2
94908KDBQ DBQ20071120120510011/20/07 12:05:31  5-MIN KDBQ 201805Z 06007KT M1/4SM FG VV001 06/05 A2987 1120 96 300 060/07 RMK AO2
94908KDBQ DBQ20071120121009911/20/07 12:10:31  5-MIN KDBQ 201810Z 06007KT 1/4SM FG VV001 06/05 A2987 1120 96 300 060/07 RMK AO2
94908KDBQ DBQ20071120121509911/20/07 12:15:31  5-MIN KDBQ 201815Z 06008KT 1/4SM FG VV001 06/05 A2987 1120 96 300 050/08 RMK AO2
94908KDBQ DBQ20071120122009911/20/07 12:20:31  5-MIN KDBQ 201820Z 05007KT 1/4SM FG VV001 06/05 A2987 1120 96 300 050/07 RMK AO2
94908KDBQ DBQ20071120122509911/20/07 12:25:31  5-MIN KDBQ 201825Z 06008KT 1/4SM FG VV001 06/05 A2987 1130 96 300 060/08 RMK AO2
94908KDBQ DBQ20071120123010011/20/07 12:30:31  5-MIN KDBQ 201830Z 05008KT 1/4SM FG VV001 06/06 A2987 1130 100 300 050/08 RMK AO2
94908KDBQ DBQ20071120123510111/20/07 12:35:31  5-MIN KDBQ 201835Z 05009KT 1/4SM FG OVC001 06/06 A2987 1120 100 300 040/09 RMK AO2
94908KDBQ DBQ20071120124010111/20/07 12:40:31  5-MIN KDBQ 201840Z 04007KT 1/4SM FG OVC001 06/06 A2987 1120 100 300 040/07 RMK AO2
94908KDBQ DBQ20071120124510711/20/07 12:45:31  5-MIN KDBQ 201845Z 04009KT 1/4SM FG OVC001 06/06 A2987 1120 100 300 040/09 RMK AO2 P0001
94908KDBQ DBQ20071120125012311/20/07 12:50:31  5-MIN KDBQ 201850Z 05009KT 1/4SM FG OVC001 06/06 A2987 1130 96 400 050/09 RMK AO2 SLP121 P0001 T00610056
94908KDBQ DBQ20071120125510011/20/07 12:55:31  5-MIN KDBQ 201855Z 04008KT 1/4SM FG OVC001 06/06 A2987 1130 96 400 040/08 RMK AO2
94908KDBQ DBQ20071120130010011/20/07 13:00:31  5-MIN KDBQ 201900Z 04008KT 1/4SM FG OVC001 06/06 A2986 1130 96 400 040/08 RMK AO2
94908KDBQ DBQ20071120130510011/20/07 13:05:31  5-MIN KDBQ 201905Z 05007KT 1/4SM FG OVC001 06/06 A2986 1130 96 400 050/07 RMK AO2
94908KDBQ DBQ20071120131009911/20/07 13:10:31  5-MIN KDBQ 201910Z 05007KT 1/4SM FG VV001 06/06 A2986 1130 96 400 050/07 RMK AO2
94908KDBQ DBQ20071120131509911/20/07 13:15:31  5-MIN KDBQ 201915Z 04008KT 1/4SM FG VV001 06/06 A2986 1140 96 400 040/08 RMK AO2
94908KDBQ DBQ20071120132010011/20/07 13:20:31  5-MIN KDBQ 201920Z 05008KT M1/4SM FG VV001 06/06 A2986 1140 96 400 050/08 RMK AO2
94908KDBQ DBQ20071120132509911/20/07 13:25:31  5-MIN KDBQ 201925Z 04008KT 1/4SM FG VV001 06/06 A2986 1140 96 400 040/08 RMK AO2
94908KDBQ DBQ20071120133009911/20/07 13:30:31  5-MIN KDBQ 201930Z 05008KT 1/4SM FG VV001 06/06 A2985 1140 96 400 050/08 RMK AO2
94908KDBQ DBQ20071120133509911/20/07 13:35:31  5-MIN KDBQ 201935Z 05009KT 1/4SM FG VV001 06/06 A2985 1150 96 400 050/09 RMK AO2
94908KDBQ DBQ20071120134009911/20/07 13:40:31  5-MIN KDBQ 201940Z 06010KT 1/4SM FG VV001 06/06 A2984 1150 96 400 060/10 RMK AO2
94908KDBQ DBQ20071120134509911/20/07 13:45:31  5-MIN KDBQ 201945Z 05010KT 1/4SM FG VV001 06/06 A2984 1150 96 400 050/10 RMK AO2
94908KDBQ DBQ20071120135011611/20/07 13:50:31  5-MIN KDBQ 201950Z 05009KT 1/4SM FG VV001 06/06 A2984 1150 96 400 050/09 RMK AO2 SLP112 T00610056
94908KDBQ DBQ20071120135509911/20/07 13:55:31  5-MIN KDBQ 201955Z 05009KT 1/4SM FG VV001 06/06 A2984 1150 96 400 050/09 RMK AO2
94908KDBQ DBQ20071120140010011/20/07 14:00:31  5-MIN KDBQ 202000Z 05009KT 1/4SM FG VV001 06/06 A2984 1150 100 400 050/09 RMK AO2
94908KDBQ DBQ20071120140510011/20/07 14:05:31  5-MIN KDBQ 202005Z 04010KT 1/4SM FG OVC001 06/06 A2984 1150 96 400 040/10 RMK AO2
94908KDBQ DBQ20071120141010111/20/07 14:10:31  5-MIN KDBQ 202010Z 05009KT 1/4SM FG OVC001 06/06 A2985 1150 100 400 050/09 RMK AO2
94908KDBQ DBQ20071120141510011/20/07 14:15:31  5-MIN KDBQ 202015Z 05010KT 1/4SM FG OVC001 06/06 A2984 1150 96 400 050/10 RMK AO2
94908KDBQ DBQ20071120142010011/20/07 14:20:31  5-MIN KDBQ 202020Z 04011KT 1/4SM FG OVC001 06/06 A2984 1150 96 400 040/11 RMK AO2
94908KDBQ DBQ20071120142510011/20/07 14:25:31  5-MIN KDBQ 202025Z 05008KT 1/4SM FG VV001 06/06 A2984 1150 100 400 050/08 RMK AO2
94908KDBQ DBQ20071120143010011/20/07 14:30:31  5-MIN KDBQ 202030Z 04009KT 1/4SM FG VV001 06/06 A2985 1150 100 400 040/09 RMK AO2
94908KDBQ DBQ20071120143509911/20/07 14:35:31  5-MIN KDBQ 202035Z 04008KT 1/4SM FG VV001 06/06 A2985 1150 96 400 040/08 RMK AO2
94908KDBQ DBQ20071120144011011/20/07 14:40:31  5-MIN KDBQ 202040Z AUTO 04010KT 1/4SM FG VV001 06/06 A2984 1150 100 300 040/10 RMK AO2 TSNO
94908KDBQ DBQ20071120144510011/20/07 14:45:31  5-MIN KDBQ 202045Z 04009KT 1/4SM FG VV001 06/06 A2984 1150 100 300 040/09 RMK AO2
94908KDBQ DBQ20071120145014611/20/07 14:50:31  5-MIN KDBQ 202050Z 03009KT M1/4SM -RA FG VV001 06/06 A2984 1150 100 300 030/09 RMK AO2 RAB49 SLP112 P0000 60001 T00560056 58017
94908KDBQ DBQ20071120145511111/20/07 14:55:31  5-MIN KDBQ 202055Z 04010KT M1/4SM -RA FG VV001 06/06 A2984 1150 100 300 040/10 RMK AO2 P0000
94908KDBQ DBQ20071120161010011/20/07 16:10:31  5-MIN KDBQ 202210Z 03012KT 1/4SM FG VV001 05/05 A2985 1140 100 200 030/12 RMK AO2
94908KDBQ DBQ20071120161510011/20/07 16:15:31  5-MIN KDBQ 202215Z 04012KT 1/4SM FG VV001 05/05 A2986 1140 100 200 030/12 RMK AO2
94908KDBQ DBQ20071120162011611/20/07 16:20:31  5-MIN KDBQ 202220Z 03013KT 1/4SM -RA FG VV001 05/05 A2986 1140 100 200 030/13 RMK AO2 RAB17 P0000
94908KDBQ DBQ20071120162511611/20/07 16:25:31  5-MIN KDBQ 202225Z 03014KT 1/4SM -RA FG VV001 05/05 A2986 1140 100 200 030/14 RMK AO2 RAB17 P0001
94908KDBQ DBQ20071120163011511/20/07 16:30:31  5-MIN KDBQ 202230Z 03014KT 1/4SM FG VV001 05/05 A2986 1130 100 200 030/14 RMK AO2 RAB17E29 P0001
94908KDBQ DBQ20071120163511511/20/07 16:35:31  5-MIN KDBQ 202235Z 03013KT 1/2SM FG VV001 05/05 A2986 1130 100 200 030/13 RMK AO2 RAB17E29 P0001
94908KDBQ DBQ20071120164011511/20/07 16:40:31  5-MIN KDBQ 202240Z 02013KT 1/2SM FG VV001 05/05 A2987 1120 100 200 020/13 RMK AO2 RAB17E29 P0001
94908KDBQ DBQ20071120164511311/20/07 16:45:31  5-MIN KDBQ 202245Z 02013KT 1SM BR VV001 05/05 A2987 1120 100 200 020/13 RMK AO2 RAB17E29 P0001
94908KDBQ DBQ20071120165012411/20/07 16:50:31  5-MIN KDBQ 202250Z 02016G20KT 1 1/2SM BR OVC001 05/05 A2987 1120 100 200 020/16G20 RMK AO2 RAB17E29 P0001
94908KDBQ DBQ20071120165511911/20/07 16:55:31  5-MIN KDBQ 202255Z 03016G21KT 1 1/2SM -RA BR OVC001 05/05 A2987 1120 100 200 030/16G21 RMK AO2 P0000
94908KDBQ DBQ20071120170011311/20/07 17:00:31  5-MIN KDBQ 202300Z 02017KT 1 3/4SM -RA BR OVC001 05/05 A2988 1120 100 200 020/17 RMK AO2 P0000
94908KDBQ DBQ20071120170511311/20/07 17:05:31  5-MIN KDBQ 202305Z 02017KT 1 3/4SM -RA BR OVC001 05/05 A2988 1110 100 200 020/17 RMK AO2 P0000
94908KDBQ DBQ20071120171010911/20/07 17:10:31  5-MIN KDBQ 202310Z 02016KT 2SM -RA BR OVC001 05/05 A2989 1110 100 200 020/16 RMK AO2 P0000
94908KDBQ DBQ20071120171511511/20/07 17:15:31  5-MIN KDBQ 202315Z 02014G21KT 2SM -RA BR OVC001 05/05 A2988 1110 100 200 020/14G21 RMK AO2 P0000
94908KDBQ DBQ20071120172011511/20/07 17:20:31  5-MIN KDBQ 202320Z 02017G22KT 2SM -RA BR OVC001 05/05 A2989 1110 100 200 020/17G22 RMK AO2 P0000
94908KDBQ DBQ20071120172510811/20/07 17:25:31  5-MIN KDBQ 202325Z 03016KT 2SM -RA BR OVC001 05/04 A2989 1110 96 200 020/16 RMK AO2 P0001
94908KDBQ DBQ20071120173012011/20/07 17:30:31  5-MIN KDBQ 202330Z 02017KT 2SM -RA BR OVC001 05/04 A2989 1110 96 200 020/17 RMK AO2 CIG 001V007 P0001
94908KDBQ DBQ20071120173512111/20/07 17:35:31  5-MIN KDBQ 202335Z 02015KT 2SM -RA BR OVC003 04/04 A2989 1100 100 100 020/15 RMK AO2 CIG 001V006 P0001
94908KDBQ DBQ20071120174010911/20/07 17:40:31  5-MIN KDBQ 202340Z 02018KT 2SM +RA BR OVC003 04/04 A2990 1100 100 100 020/18 RMK AO2 P0003
94908KDBQ DBQ20071120174512511/20/07 17:45:31  5-MIN KDBQ 202345Z 03017KT 2 1/2SM -RA BR OVC003 04/04 A2989 1100 100 100 020/17 RMK AO2 CIG 002V005 P0003
94908KDBQ DBQ20071120175012111/20/07 17:50:31  5-MIN KDBQ 202350Z 03016KT 3SM -RA BR OVC003 04/04 A2989 1100 100 100 030/16 RMK AO2 CIG 002V005 P0004
94908KDBQ DBQ20071120175512111/20/07 17:55:31  5-MIN KDBQ 202355Z 02016KT 3SM -RA BR OVC003 04/04 A2990 1100 100 100 020/16 RMK AO2 CIG 002V005 P0000
94908KDBQ DBQ20071120180012511/20/07 18:00:31  5-MIN KDBQ 210000Z 03015KT 2 1/2SM +RA BR OVC003 04/04 A2990 1100 100 100 020/15 RMK AO2 CIG 002V005 P0001
94908KDBQ DBQ20071120180512511/20/07 18:05:31  5-MIN KDBQ 210005Z 03015KT 2 1/2SM -RA BR OVC003 04/04 A2990 1100 100 100 030/15 RMK AO2 CIG 002V005 P0002
94908KDBQ DBQ20071120181012511/20/07 18:10:31  5-MIN KDBQ 210010Z 03017KT 2 1/2SM -RA BR OVC003 04/04 A2990 1100 100 100 030/17 RMK AO2 CIG 002V005 P0002
94908KDBQ DBQ20071120181512911/20/07 18:15:31  5-MIN KDBQ 210015Z 02014G22KT 3SM BR OVC003 04/04 A2990 1100 100 100 020/14G22 RMK AO2 RAE15 CIG 002V005 P0002
94908KDBQ DBQ20071120182012711/20/07 18:20:31  5-MIN KDBQ 210020Z 02013KT 2 1/2SM BR OVC003 04/04 A2989 1100 100 100 020/13 RMK AO2 RAE15 CIG 002V005 P0002
94908KDBQ DBQ20071120182512111/20/07 18:25:31  5-MIN KDBQ 210025Z 02016G22KT 2 1/2SM BR OVC003 04/04 A2990 1100 100 100 020/16G22 RMK AO2 RAE15 P0002
94908KDBQ DBQ20071120183012111/20/07 18:30:31  5-MIN KDBQ 210030Z 02016G22KT 2 1/2SM BR OVC003 04/04 A2990 1100 100 100 020/16G22 RMK AO2 RAE15 P0002
94908KDBQ DBQ20071120183511511/20/07 18:35:31  5-MIN KDBQ 210035Z 03016KT 2 1/2SM BR OVC003 04/04 A2990 1100 100 100 020/16 RMK AO2 RAE15 P0002
94908KDBQ DBQ20071120184011511/20/07 18:40:31  5-MIN KDBQ 210040Z 03016KT 2 1/2SM BR OVC003 04/04 A2990 1100 100 100 030/16 RMK AO2 RAE15 P0002
94908KDBQ DBQ20071120184511511/20/07 18:45:31  5-MIN KDBQ 210045Z 03014KT 2 1/2SM BR OVC003 04/04 A2990 1100 100 100 030/14 RMK AO2 RAE15 P0002
94908KDBQ DBQ20071120185014411/20/07 18:50:31  5-MIN KDBQ 210050Z 03015KT 2 1/2SM BR OVC003 04/04 A2990 1100 100 100 030/15 RMK AO2 RAE15 CIG 002V006 SLP132 P0002 T00440044
94908KDBQ DBQ20071120185510311/20/07 18:55:31  5-MIN KDBQ 210055Z 03015KT 2 1/2SM BR OVC003 04/04 A2990 1100 100 100 030/15 RMK AO2
94908KDBQ DBQ20071120190010311/20/07 19:00:31  5-MIN KDBQ 210100Z 03015KT 2 1/2SM BR OVC003 04/04 A2990 1100 100 100 020/15 RMK AO2
94908KDBQ DBQ20071120190510311/20/07 19:05:31  5-MIN KDBQ 210105Z 02015KT 2 1/2SM BR OVC003 04/04 A2991 1090 100 100 020/15 RMK AO2
94908KDBQ DBQ20071120191011711/20/07 19:10:31  5-MIN KDBQ 210110Z 02012G20KT 2SM BR OVC003 04/04 A2991 1090 100 100 020/12G20 RMK AO2 CIG 002V006
94908KDBQ DBQ20071120191513311/20/07 19:15:31  5-MIN KDBQ 210115Z 02015G20KT 2SM -RA BR OVC003 04/04 A2991 1090 100 100 020/15G20 RMK AO2 RAB14 CIG 002V005 P0000
94908KDBQ DBQ20071120192013111/20/07 19:20:31  5-MIN KDBQ 210120Z 03016KT 2 1/2SM -RA BR OVC003 04/04 A2991 1090 100 100 030/16 RMK AO2 RAB14 CIG 002V008 P0000
94908KDBQ DBQ20071120192513111/20/07 19:25:31  5-MIN KDBQ 210125Z 02017KT 2 1/2SM -RA BR OVC003 04/04 A2991 1090 100 100 020/17 RMK AO2 RAB14 CIG 002V008 P0000
94908KDBQ DBQ20071120193013611/20/07 19:30:31  5-MIN KDBQ 210130Z 03016G21KT 2 1/2SM BR OVC003 04/04 A2991 1090 100 100 030/16G21 RMK AO2 RAB14E29 CIG 002V008 P0000
94908KDBQ DBQ20071120193513211/20/07 19:35:31  5-MIN KDBQ 210135Z 03015G21KT 2SM BR OVC003 04/04 A2991 1090 100 100 030/15G21 RMK AO2 RAB14E29 CIG 002V008 P0000
94908KDBQ DBQ20071120194013211/20/07 19:40:31  5-MIN KDBQ 210140Z 02016G23KT 2SM BR OVC003 04/04 A2992 1080 100 100 020/16G23 RMK AO2 RAB14E29 CIG 002V008 P0000
94908KDBQ DBQ20071120194513211/20/07 19:45:31  5-MIN KDBQ 210145Z 02015G23KT 2SM BR OVC003 04/04 A2992 1080 100 100 020/15G23 RMK AO2 RAB14E29 CIG 002V008 P0000
94908KDBQ DBQ20071120195015311/20/07 19:50:31  5-MIN KDBQ 210150Z 02014G21KT 2 1/2SM BR OVC003 04/04 A2992 1080 100 100 020/14G21 RMK AO2 RAB14E29 CIG 002V006 SLP140 P0000 T00440044
94908KDBQ DBQ20071120195512611/20/07 19:55:31  5-MIN KDBQ 210155Z AUTO 02016G21KT 2 1/2SM BR OVC003 04/04 A2992 1080 100 100 020/16G21 RMK AO2 CIG 002V007
94908KDBQ DBQ20071120200012011/20/07 20:00:31  5-MIN KDBQ 210200Z AUTO 02015KT 2 1/2SM BR OVC005 04/04 A2992 1070 100 100 020/15 RMK AO2 CIG 002V007
94908KDBQ DBQ20071120200511611/20/07 20:05:31  5-MIN KDBQ 210205Z AUTO 03014KT 3SM BR OVC005 04/04 A2992 1080 100 100 030/14 RMK AO2 CIG 002V007
94908KDBQ DBQ20071120201011611/20/07 20:10:31  5-MIN KDBQ 210210Z AUTO 03014KT 3SM BR OVC005 04/04 A2992 1080 100 100 030/14 RMK AO2 CIG 003V008
94908KDBQ DBQ20071120201512311/20/07 20:15:31  5-MIN KDBQ 210215Z AUTO 04015KT 3SM BR BKN005 OVC022 04/04 A2991 1080 100 100 040/15 RMK AO2 CIG 003V008
94908KDBQ DBQ20071120202013011/20/07 20:20:31  5-MIN KDBQ 210220Z AUTO 03014KT 3SM BR BKN005 BKN008 OVC022 04/04 A2991 1080 100 100 030/14 RMK AO2 CIG 003V006
94908KDBQ DBQ20071120202512911/20/07 20:25:31  5-MIN KDBQ 210225Z AUTO 03016G22KT 3SM BR BKN005 OVC022 04/04 A2991 1090 100 100 030/16G22 RMK AO2 CIG 003V010
94908KDBQ DBQ20071120203012811/20/07 20:30:31  5-MIN KDBQ 210230Z AUTO 03013G22KT 3SM BR BKN005 OVC022 05/04 A2991 1080 96 200 030/13G22 RMK AO2 CIG 003V010
94908KDBQ DBQ20071120203512911/20/07 20:35:31  5-MIN KDBQ 210235Z AUTO 03013G20KT 3SM BR BKN005 OVC022 04/04 A2992 1080 100 100 030/13G20 RMK AO2 CIG 003V010
94908KDBQ DBQ20071120204012211/20/07 20:40:31  5-MIN KDBQ 210240Z AUTO 03013KT 3SM BR BKN007 OVC022 05/04 A2993 1070 96 200 030/13 RMK AO2 CIG 003V010
94908KDBQ DBQ20071120204511511/20/07 20:45:31  5-MIN KDBQ 210245Z AUTO 03012KT 3SM BR OVC007 05/04 A2993 1070 96 200 030/12 RMK AO2 CIG 003V010
94908KDBQ DBQ20071120205014411/20/07 20:50:31  5-MIN KDBQ 210250Z AUTO 02012KT 3SM BR OVC007 05/04 A2993 1070 96 200 020/12 RMK AO2 CIG 003V010 SLP141 60002 T00500044 52016
94908KDBQ DBQ20071120205511511/20/07 20:55:31  5-MIN KDBQ 210255Z AUTO 03013KT 3SM BR OVC007 05/04 A2993 1070 96 200 030/13 RMK AO2 CIG 003V010
94908KDBQ DBQ20071120210011511/20/07 21:00:31  5-MIN KDBQ 210300Z AUTO 03014KT 4SM BR OVC007 05/04 A2993 1070 96 200 030/14 RMK AO2 CIG 003V010
94908KDBQ DBQ20071120210512211/20/07 21:05:31  5-MIN KDBQ 210305Z AUTO 03013KT 4SM BR BKN005 OVC008 05/04 A2994 1060 96 200 020/13 RMK AO2 CIG 003V007
94908KDBQ DBQ20071120211011511/20/07 21:10:31  5-MIN KDBQ 210310Z AUTO 02012KT 4SM BR OVC005 05/04 A2994 1060 96 200 020/12 RMK AO2 CIG 003V007
94908KDBQ DBQ20071120211511611/20/07 21:15:31  5-MIN KDBQ 210315Z AUTO 02012KT 4SM BR OVC005 04/04 A2994 1060 100 100 020/12 RMK AO2 CIG 003V009
94908KDBQ DBQ20071120212010411/20/07 21:20:31  5-MIN KDBQ 210320Z AUTO 02014KT 4SM BR OVC005 04/04 A2993 1070 100 100 020/14 RMK AO2
94908KDBQ DBQ20071120212512211/20/07 21:25:31  5-MIN KDBQ 210325Z AUTO 02014G20KT 4SM BR OVC005 04/04 A2992 1080 100 100 020/14G20 RMK AO2 CIG 004V011
94908KDBQ DBQ20071120213012211/20/07 21:30:31  5-MIN KDBQ 210330Z AUTO 03013G20KT 4SM BR OVC005 04/04 A2992 1070 100 100 020/13G20 RMK AO2 CIG 004V011
94908KDBQ DBQ20071120213511111/20/07 21:35:31  5-MIN KDBQ 210335Z AUTO 03012KT 4SM BR BKN005 OVC009 04/04 A2993 1070 100 100 030/12 RMK AO2
94908KDBQ DBQ20071120214011611/20/07 21:40:31  5-MIN KDBQ 210340Z AUTO 03015KT 4SM BR OVC007 04/04 A2993 1070 100 100 030/15 RMK AO2 CIG 004V011
94908KDBQ DBQ20071120214511611/20/07 21:45:31  5-MIN KDBQ 210345Z AUTO 02016KT 4SM BR OVC007 04/04 A2993 1070 100 100 020/16 RMK AO2 CIG 005V011
94908KDBQ DBQ20071120215013911/20/07 21:50:31  5-MIN KDBQ 210350Z AUTO 02013G20KT 4SM BR OVC007 04/04 A2994 1060 100 100 020/13G20 RMK AO2 CIG 005V011 SLP145 T00440044
94908KDBQ DBQ20071120215511611/20/07 21:55:31  5-MIN KDBQ 210355Z AUTO 03015KT 4SM BR OVC007 04/04 A2994 1060 100 100 020/15 RMK AO2 CIG 005V009
94908KDBQ DBQ20071120220012111/20/07 22:00:31  5-MIN KDBQ 210400Z AUTO 02015G21KT 4SM BR OVC007 04/04 A2994 1060 96 100 020/15G21 RMK AO2 CIG 005V010
94908KDBQ DBQ20071120220512111/20/07 22:05:31  5-MIN KDBQ 210405Z AUTO 03011G21KT 5SM BR OVC007 04/04 A2994 1060 96 100 030/11G21 RMK AO2 CIG 005V010
94908KDBQ DBQ20071120221013611/20/07 22:10:31  5-MIN KDBQ 210410Z AUTO 02015G21KT 5SM BR BKN007 BKN014 OVC022 04/04 A2995 1050 100 100 020/15G21 RMK AO2 CIG 005V011
94908KDBQ DBQ20071120221513511/20/07 22:15:31  5-MIN KDBQ 210415Z AUTO 02012G19KT 5SM BR BKN007 BKN014 OVC022 04/04 A2995 1050 96 100 020/12G19 RMK AO2 CIG 006V011
94908KDBQ DBQ20071120222013011/20/07 22:20:31  5-MIN KDBQ 210420Z AUTO 02013KT 5SM BR BKN009 BKN014 OVC022 04/04 A2995 1050 100 100 020/13 RMK AO2 CIG 006V011
94908KDBQ DBQ20071120222512811/20/07 22:25:31  5-MIN KDBQ 210425Z AUTO 02014G21KT 5SM BR BKN009 OVC022 04/04 A2994 1060 96 100 020/14G21 RMK AO2 CIG 006V011
94908KDBQ DBQ20071120223011611/20/07 22:30:31  5-MIN KDBQ 210430Z AUTO 02014G21KT 5SM BR BKN009 OVC024 04/04 A2994 1060 96 100 020/14G21 RMK AO2
94908KDBQ DBQ20071120223512811/20/07 22:35:31  5-MIN KDBQ 210435Z AUTO 02016G21KT 5SM BR BKN009 OVC024 04/04 A2994 1060 96 100 020/16G21 RMK AO2 CIG 007V013
94908KDBQ DBQ20071120224010911/20/07 22:40:31  5-MIN KDBQ 210440Z AUTO 02016G23KT 5SM BR OVC011 04/04 A2994 1060 96 100 020/16G23 RMK AO2
94908KDBQ DBQ20071120224510911/20/07 22:45:31  5-MIN KDBQ 210445Z AUTO 02015G23KT 5SM BR OVC011 04/04 A2993 1070 96 100 020/15G23 RMK AO2
94908KDBQ DBQ20071120225013911/20/07 22:50:31  5-MIN KDBQ 210450Z AUTO 03014KT 5SM BR BKN011 OVC026 04/04 A2993 1070 96 100 030/14 RMK AO2 CIG 007V014 SLP143 T00440039
94908KDBQ DBQ20071120225512911/20/07 22:55:31  5-MIN KDBQ 210455Z AUTO 03013KT 5SM BR BKN009 BKN013 OVC026 04/04 A2993 1070 96 100 030/13 RMK AO2 CIG 006V012
94908KDBQ DBQ20071120230011511/20/07 23:00:31  5-MIN KDBQ 210500Z AUTO 03012KT 5SM BR OVC009 04/04 A2994 1060 96 100 030/12 RMK AO2 CIG 006V014
94908KDBQ DBQ20071120230511611/20/07 23:05:31  5-MIN KDBQ 210505Z AUTO 03012KT 5SM BR OVC009 04/04 A2994 1060 100 100 020/12 RMK AO2 CIG 006V014
94908KDBQ DBQ20071120231012311/20/07 23:10:31  5-MIN KDBQ 210510Z AUTO 03012KT 5SM BR BKN009 OVC034 04/04 A2995 1050 100 100 030/12 RMK AO2 CIG 006V012
94908KDBQ DBQ20071120231511611/20/07 23:15:31  5-MIN KDBQ 210515Z AUTO 03010KT 5SM BR OVC009 04/04 A2995 1050 100 100 030/10 RMK AO2 CIG 006V013
94908KDBQ DBQ20071120232011611/20/07 23:20:31  5-MIN KDBQ 210520Z AUTO 03012KT 5SM BR OVC009 04/04 A2995 1050 100 100 030/12 RMK AO2 CIG 006V011
94908KDBQ DBQ20071120232510311/20/07 23:25:31  5-MIN KDBQ 210525Z AUTO 03013KT 5SM BR OVC009 04/04 A2995 1050 96 100 030/13 RMK AO2
94908KDBQ DBQ20071120233010911/20/07 23:30:31  5-MIN KDBQ 210530Z AUTO 03014G19KT 5SM BR OVC009 04/04 A2995 1050 96 100 030/14G19 RMK AO2
94908KDBQ DBQ20071120233510911/20/07 23:35:31  5-MIN KDBQ 210535Z AUTO 03013G19KT 5SM BR OVC009 04/04 A2995 1050 96 100 030/13G19 RMK AO2
94908KDBQ DBQ20071120234010311/20/07 23:40:31  5-MIN KDBQ 210540Z AUTO 02011KT 5SM BR OVC009 04/04 A2995 1050 96 100 020/11 RMK AO2
94908KDBQ DBQ20071120234510311/20/07 23:45:31  5-MIN KDBQ 210545Z AUTO 01012KT 5SM BR OVC009 04/04 A2995 1050 96 100 010/12 RMK AO2
94908KDBQ DBQ20071120235015411/20/07 23:50:31  5-MIN KDBQ 210550Z AUTO 02012KT 5SM BR OVC009 04/04 A2995 1050 96 100 020/12 RMK AO2 SLP149 60002 T00440039 10050 20044 400670044 53010
94908KDBQ DBQ20071120235510911/20/07 23:55:31  5-MIN KDBQ 210555Z AUTO 01013G19KT 5SM BR OVC009 04/04 A2995 1050 96 100 010/13G19 RMK AO2
94908KDBQ DBQ20071121000012111/21/07 00:00:38  5-MIN KDBQ 210600Z AUTO 01014G20KT 6SM BR OVC009 04/03 A2995 1050 92 100 010/14G20 RMK AO2 CIG 007V011
94908KDBQ DBQ20071121000512111/21/07 00:05:31  5-MIN KDBQ 210605Z AUTO 01013G20KT 6SM BR OVC009 04/03 A2996 1040 92 100 010/13G20 RMK AO2 CIG 007V011
94908KDBQ DBQ20071121001010911/21/07 00:10:31  5-MIN KDBQ 210610Z AUTO 02011G19KT 6SM BR OVC009 04/03 A2996 1040 92 100 020/11G19 RMK AO2
94908KDBQ DBQ20071121001510711/21/07 00:15:33  5-MIN KDBQ 210615Z AUTO 01012G19KT 6SM BR OVC009 04/03 A2997 1040 92 0 010/12G19 RMK AO2
94908KDBQ DBQ20071121002010111/21/07 00:20:31  5-MIN KDBQ 210620Z AUTO 02013KT 6SM BR OVC009 04/03 A2997 1040 92 0 010/13 RMK AO2
94908KDBQ DBQ20071121002511311/21/07 00:25:31  5-MIN KDBQ 210625Z AUTO 01012KT 6SM BR OVC009 04/03 A2997 1040 92 0 010/12 RMK AO2 CIG 007V011
94908KDBQ DBQ20071121003011611/21/07 00:30:31  5-MIN KDBQ 210630Z AUTO 02014G19KT 7SM OVC009 04/02 A2996 1040 89 0 020/14G19 RMK AO2 CIG 007V012
94908KDBQ DBQ20071121003511611/21/07 00:35:31  5-MIN KDBQ 210635Z AUTO 02012G21KT 7SM OVC009 04/02 A2996 1040 89 0 010/12G21 RMK AO2 CIG 007V012
94908KDBQ DBQ20071121004011611/21/07 00:40:31  5-MIN KDBQ 210640Z AUTO 01011G21KT 8SM OVC009 04/02 A2997 1030 89 0 010/11G21 RMK AO2 CIG 008V014
94908KDBQ DBQ20071121004510411/21/07 00:45:31  5-MIN KDBQ 210645Z AUTO 01012G18KT 8SM OVC011 04/02 A2997 1040 85 0 010/12G18 RMK AO2
94908KDBQ DBQ20071121005012111/21/07 00:50:31  5-MIN KDBQ 210650Z AUTO 02013G19KT 9SM OVC013 04/02 A2997 1040 85 0 020/13G19 RMK AO2 SLP155 T00390017
94908KDBQ DBQ20071121005510411/21/07 00:55:31  5-MIN KDBQ 210655Z AUTO 02015G21KT 9SM OVC013 04/02 A2996 1040 85 0 020/15G21 RMK AO2
94908KDBQ DBQ20071121010010511/21/07 01:00:31  5-MIN KDBQ 210700Z AUTO 02012G21KT 10SM OVC013 04/02 A2996 1040 85 0 020/12G21 RMK AO2
94908KDBQ DBQ20071121010510511/21/07 01:05:31  5-MIN KDBQ 210705Z AUTO 02013G18KT 10SM OVC015 04/01 A2996 1040 82 0 020/13G18 RMK AO2
94908KDBQ DBQ20071121011010511/21/07 01:10:31  5-MIN KDBQ 210710Z AUTO 02010G18KT 10SM OVC015 04/01 A2996 1040 82 0 020/10G18 RMK AO2
94908KDBQ DBQ20071121011510511/21/07 01:15:31  5-MIN KDBQ 210715Z AUTO 02015G21KT 10SM OVC015 04/01 A2996 1040 82 0 020/15G21 RMK AO2
94908KDBQ DBQ20071121012010511/21/07 01:20:31  5-MIN KDBQ 210720Z AUTO 02014G21KT 10SM OVC017 04/01 A2996 1040 82 0 020/14G21 RMK AO2
94908KDBQ DBQ20071121012510511/21/07 01:25:31  5-MIN KDBQ 210725Z AUTO 02014G21KT 10SM OVC017 04/01 A2996 1040 82 0 020/14G21 RMK AO2
94908KDBQ DBQ20071121013010511/21/07 01:30:31  5-MIN KDBQ 210730Z AUTO 02016G21KT 10SM OVC017 03/01 A2996 1040 82 0 020/16G21 RMK AO2
94908KDBQ DBQ20071121013510511/21/07 01:35:31  5-MIN KDBQ 210735Z AUTO 02014G20KT 10SM OVC017 04/01 A2996 1040 79 0 020/14G20 RMK AO2
94908KDBQ DBQ20071121014010511/21/07 01:40:31  5-MIN KDBQ 210740Z AUTO 02013G22KT 10SM OVC019 03/01 A2996 1040 82 0 020/13G22 RMK AO2
94908KDBQ DBQ20071121014510511/21/07 01:45:31  5-MIN KDBQ 210745Z AUTO 03014G22KT 10SM OVC019 03/01 A2996 1040 82 0 030/14G22 RMK AO2
94908KDBQ DBQ20071121015012211/21/07 01:50:31  5-MIN KDBQ 210750Z AUTO 02014G20KT 10SM OVC019 03/01 A2997 1040 82 0 020/14G20 RMK AO2 SLP155 T00330006
94908KDBQ DBQ20071121015510511/21/07 01:55:31  5-MIN KDBQ 210755Z AUTO 02016G21KT 10SM OVC019 03/01 A2997 1030 82 0 020/16G21 RMK AO2
94908KDBQ DBQ20071121020010511/21/07 02:00:31  5-MIN KDBQ 210800Z AUTO 02012G21KT 10SM OVC019 03/00 A2997 1030 79 0 020/12G21 RMK AO2
94908KDBQ DBQ20071121020510511/21/07 02:05:31  5-MIN KDBQ 210805Z AUTO 02013G21KT 10SM OVC019 03/01 A2998 1030 82 0 020/13G21 RMK AO2
94908KDBQ DBQ20071121021010811/21/07 02:10:31  5-MIN KDBQ 210810Z AUTO 02013G19KT 10SM OVC019 03/00 A2998 1020 79 -100 020/13G19 RMK AO2
94908KDBQ DBQ20071121021510811/21/07 02:15:31  5-MIN KDBQ 210815Z AUTO 02014G19KT 10SM OVC019 03/00 A2998 1020 79 -100 020/14G19 RMK AO2
94908KDBQ DBQ20071121022010211/21/07 02:20:31  5-MIN KDBQ 210820Z AUTO 02011KT 10SM OVC019 03/00 A2999 1020 79 -100 020/11 RMK AO2
94908KDBQ DBQ20071121022510211/21/07 02:25:31  5-MIN KDBQ 210825Z AUTO 02010KT 10SM OVC019 03/00 A2999 1010 79 -100 020/10 RMK AO2
94908KDBQ DBQ20071121023010211/21/07 02:30:31  5-MIN KDBQ 210830Z AUTO 02013KT 10SM OVC019 03/00 A2999 1010 79 -100 020/13 RMK AO2
94908KDBQ DBQ20071121023510811/21/07 02:35:31  5-MIN KDBQ 210835Z AUTO 02014G21KT 10SM OVC019 03/00 A3000 1010 79 -100 020/14G21 RMK AO2
94908KDBQ DBQ20071121024010811/21/07 02:40:31  5-MIN KDBQ 210840Z AUTO 02011G21KT 10SM OVC019 03/00 A3000 1000 79 -100 020/11G21 RMK AO2
94908KDBQ DBQ20071121024510811/21/07 02:45:31  5-MIN KDBQ 210845Z AUTO 02013G19KT 10SM OVC019 03/00 A3001 1000 79 -100 020/13G19 RMK AO2
94908KDBQ DBQ20071121025013811/21/07 02:50:31  5-MIN KDBQ 210850Z AUTO 02011G19KT 10SM BKN019 OVC049 03/00 A3000 1000 82 -200 020/11G19 RMK AO2 SLP169 T00280000 53007
94908KDBQ DBQ20071121025510911/21/07 02:55:31  5-MIN KDBQ 210855Z AUTO 01011KT 10SM BKN019 OVC049 03/00 A3000 1000 82 -100 010/11 RMK AO2
94908KDBQ DBQ20071121030010911/21/07 03:00:31  5-MIN KDBQ 210900Z AUTO 02012KT 10SM SCT019 OVC049 03/00 A3000 1000 82 -100 020/12 RMK AO2
94908KDBQ DBQ20071121030510911/21/07 03:05:31  5-MIN KDBQ 210905Z AUTO 02011KT 10SM FEW019 OVC049 03/00 A3000 1000 82 -100 020/11 RMK AO2
94908KDBQ DBQ20071121031011011/21/07 03:10:31  5-MIN KDBQ 210910Z AUTO 02010KT 10SM FEW019 BKN049 03/M01 A3000 1000 79 -100 020/10 RMK AO2
94908KDBQ DBQ20071121031510311/21/07 03:15:31  5-MIN KDBQ 210915Z AUTO 02012KT 10SM SCT049 02/M01 A3000 1000 82 -200 020/12 RMK AO2
94908KDBQ DBQ20071121032010311/21/07 03:20:31  5-MIN KDBQ 210920Z AUTO 02011KT 10SM SCT049 02/M01 A3001 1000 82 -200 020/11 RMK AO2
94908KDBQ DBQ20071121032510311/21/07 03:25:31  5-MIN KDBQ 210925Z AUTO 02010KT 10SM FEW049 02/M01 A3001 1000 82 -200 020/10 RMK AO2
94908KDBQ DBQ20071121033010311/21/07 03:30:31  5-MIN KDBQ 210930Z AUTO 02009KT 10SM FEW049 02/M01 A3001 1000 82 -200 020/09 RMK AO2
94908KDBQ DBQ20071121033510011/21/07 03:35:31  5-MIN KDBQ 210935Z AUTO 02011KT 10SM CLR 02/M01 A3001 1000 82 -200 020/11 RMK AO2
94908KDBQ DBQ20071121034010011/21/07 03:40:31  5-MIN KDBQ 210940Z AUTO 02009KT 10SM CLR 02/M01 A3000 1000 82 -200 020/09 RMK AO2
94908KDBQ DBQ20071121034510011/21/07 03:45:31  5-MIN KDBQ 210945Z AUTO 02011KT 10SM CLR 02/M01 A3001 1000 82 -200 010/11 RMK AO2
94908KDBQ DBQ20071121035011711/21/07 03:50:31  5-MIN KDBQ 210950Z AUTO 02009KT 10SM CLR 02/M01 A3001 1000 82 -200 020/09 RMK AO2 SLP170 T00221006
94908KDBQ DBQ20071121035510011/21/07 03:55:31  5-MIN KDBQ 210955Z AUTO 01012KT 10SM CLR 02/M01 A3001 1000 82 -200 010/12 RMK AO2
94908KDBQ DBQ20071121040010011/21/07 04:00:31  5-MIN KDBQ 211000Z AUTO 02010KT 10SM CLR 02/M01 A3001 1000 82 -200 010/10 RMK AO2
94908KDBQ DBQ20071121040510011/21/07 04:05:31  5-MIN KDBQ 211005Z AUTO 01011KT 10SM CLR 02/M01 A3001 1000 82 -200 010/11 RMK AO2
94908KDBQ DBQ20071121041010611/21/07 04:10:31  5-MIN KDBQ 211010Z AUTO 01012G17KT 10SM CLR 02/M01 A3000 1000 82 -200 010/12G17 RMK AO2
94908KDBQ DBQ20071121041510011/21/07 04:15:31  5-MIN KDBQ 211015Z AUTO 02012KT 10SM CLR 02/M01 A3000 1000 85 -300 010/12 RMK AO2
94908KDBQ DBQ20071121042010611/21/07 04:20:31  5-MIN KDBQ 211020Z AUTO 01013G19KT 10SM CLR 02/M01 A3000 1010 82 -200 010/13G19 RMK AO2
94908KDBQ DBQ20071121042510011/21/07 04:25:31  5-MIN KDBQ 211025Z AUTO 01015KT 10SM CLR 02/M01 A2999 1020 82 -200 010/15 RMK AO2
94908KDBQ DBQ20071121043010011/21/07 04:30:31  5-MIN KDBQ 211030Z AUTO 01014KT 10SM CLR 02/M01 A2999 1020 82 -200 010/14 RMK AO2
94908KDBQ DBQ20071121043510011/21/07 04:35:31  5-MIN KDBQ 211035Z AUTO 01012KT 10SM CLR 02/M01 A2999 1010 82 -200 010/12 RMK AO2
94908KDBQ DBQ20071121044010611/21/07 04:40:31  5-MIN KDBQ 211040Z AUTO 36012G17KT 10SM CLR 02/M01 A3000 1000 82 -200 360/12G17 RMK AO2
94908KDBQ DBQ20071121044511311/21/07 04:45:31  5-MIN KDBQ 211045Z AUTO 36010G17KT 10SM CLR 02/M01 A3001 1000 85 -300 360/10G17 RMK AO2 PRESRR
94908KDBQ DBQ20071121045012611/21/07 04:50:31  5-MIN KDBQ 211050Z AUTO 36010KT 10SM FEW016 02/M01 A3002 990 82 -200 360/10 RMK AO2 PRESRR SLP174 T00221006
94908KDBQ DBQ20071121045510211/21/07 04:55:31  5-MIN KDBQ 211055Z AUTO 36009KT 10SM SCT016 02/M01 A3002 990 85 -300 360/09 RMK AO2
94908KDBQ DBQ20071121050010211/21/07 05:00:31  5-MIN KDBQ 211100Z AUTO 36011KT 10SM BKN016 02/M01 A3003 980 85 -300 360/11 RMK AO2
94908KDBQ DBQ20071121050510211/21/07 05:05:31  5-MIN KDBQ 211105Z AUTO 36012KT 10SM BKN016 02/M01 A3002 980 85 -300 360/12 RMK AO2
94908KDBQ DBQ20071121051010211/21/07 05:10:31  5-MIN KDBQ 211110Z AUTO 36011KT 10SM BKN016 02/M01 A3002 990 85 -300 360/11 RMK AO2
94908KDBQ DBQ20071121051510211/21/07 05:15:31  5-MIN KDBQ 211115Z AUTO 01011KT 10SM BKN016 02/M01 A3002 990 85 -300 010/11 RMK AO2
94908KDBQ DBQ20071121052010211/21/07 05:20:31  5-MIN KDBQ 211120Z AUTO 36009KT 10SM BKN016 02/M01 A3002 990 85 -300 360/09 RMK AO2
94908KDBQ DBQ20071121052510211/21/07 05:25:31  5-MIN KDBQ 211125Z AUTO 01012KT 10SM SCT016 02/M01 A3002 990 85 -300 010/12 RMK AO2
94908KDBQ DBQ20071121053010211/21/07 05:30:31  5-MIN KDBQ 211130Z AUTO 01010KT 10SM FEW016 02/M01 A3002 990 85 -300 010/10 RMK AO2
94908KDBQ DBQ20071121053510211/21/07 05:35:31  5-MIN KDBQ 211135Z AUTO 01012KT 10SM FEW016 02/M01 A3001 990 85 -300 010/12 RMK AO2
94908KDBQ DBQ20071121054010311/21/07 05:40:31  5-MIN KDBQ 211140Z AUTO 01012KT 10SM FEW080 02/M01 A3000 1000 85 -300 010/12 RMK AO2
94908KDBQ DBQ20071121054511611/21/07 05:45:31  5-MIN KDBQ 211145Z AUTO 01016G21KT 10SM SCT075 02/M01 A2999 1010 85 -300 010/16G21 RMK AO2 PRESFR
94908KDBQ DBQ20071121055015011/21/07 05:50:31  5-MIN KDBQ 211150Z AUTO 01013G21KT 10SM BKN075 02/M01 A2999 1010 85 -300 010/13G21 RMK AO2 SLP165 70010 T00171006 10044 20017 53013
94908KDBQ DBQ20071121055510411/21/07 05:55:31  5-MIN KDBQ 211155Z 36012G19KT 10SM BKN075 02/M01 A3000 1000 82 -200 360/12G19 RMK AO2
94908KDBQ DBQ20071121060010311/21/07 06:00:31  5-MIN KDBQ 211200Z 01009G18KT 10SM BKN075 02/M01 A3002 990 82 -200 360/09G18 RMK AO2
94908KDBQ DBQ20071121060510411/21/07 06:05:31  5-MIN KDBQ 211205Z 36008KT 10SM OVC075 02/M01 A3003 980 82 -300 360/08 RMK AO2 PRESRR
94908KDBQ DBQ20071121061009711/21/07 06:10:31  5-MIN KDBQ 211210Z 36009KT 10SM OVC080 02/M01 A3004 970 82 -300 360/09 RMK AO2
94908KDBQ DBQ20071121061509711/21/07 06:15:31  5-MIN KDBQ 211215Z 01009KT 10SM OVC080 02/M01 A3003 980 82 -200 010/09 RMK AO2
94908KDBQ DBQ20071121062009711/21/07 06:20:31  5-MIN KDBQ 211220Z 01012KT 10SM OVC080 02/M01 A3003 980 82 -200 010/12 RMK AO2
94908KDBQ DBQ20071121062509711/21/07 06:25:31  5-MIN KDBQ 211225Z 02012KT 10SM OVC080 02/M01 A3003 980 82 -200 010/12 RMK AO2
94908KDBQ DBQ20071121063010411/21/07 06:30:31  5-MIN KDBQ 211230Z 02011KT 10SM FEW014 OVC080 02/M01 A3003 980 85 -300 020/11 RMK AO2
94908KDBQ DBQ20071121063510411/21/07 06:35:31  5-MIN KDBQ 211235Z 02010KT 10SM FEW016 OVC080 02/M01 A3003 970 85 -300 020/10 RMK AO2
94908KDBQ DBQ20071121064010411/21/07 06:40:31  5-MIN KDBQ 211240Z 02012KT 10SM FEW016 OVC080 02/M01 A3003 980 85 -300 020/12 RMK AO2
94908KDBQ DBQ20071121064510411/21/07 06:45:31  5-MIN KDBQ 211245Z 01012KT 10SM FEW016 OVC080 02/M01 A3003 980 85 -300 010/12 RMK AO2
94908KDBQ DBQ20071121065012711/21/07 06:50:31  5-MIN KDBQ 211250Z 01010G17KT 10SM FEW016 OVC080 02/M01 A3003 980 85 -300 010/10G17 RMK AO2 SLP177 T00171006
94908KDBQ DBQ20071121065511011/21/07 06:55:31  5-MIN KDBQ 211255Z 01010G17KT 10SM FEW016 OVC080 02/M01 A3002 980 85 -300 010/10G17 RMK AO2
94908KDBQ DBQ20071121070010411/21/07 07:00:31  5-MIN KDBQ 211300Z 01010KT 10SM FEW016 OVC080 02/M01 A3003 980 85 -300 010/10 RMK AO2
94908KDBQ DBQ20071121070510411/21/07 07:05:31  5-MIN KDBQ 211305Z 02008KT 10SM SCT016 OVC080 02/M01 A3003 970 85 -300 020/08 RMK AO2
94908KDBQ DBQ20071121071010411/21/07 07:10:31  5-MIN KDBQ 211310Z 01009KT 10SM SCT016 OVC080 02/M01 A3004 970 85 -300 010/09 RMK AO2
94908KDBQ DBQ20071121071511011/21/07 07:15:31  5-MIN KDBQ 211315Z 01011G17KT 10SM FEW016 OVC080 02/M01 A3004 970 85 -300 010/11G17 RMK AO2
94908KDBQ DBQ20071121072010411/21/07 07:20:31  5-MIN KDBQ 211320Z 01011KT 10SM FEW016 OVC080 02/M01 A3004 970 85 -300 010/11 RMK AO2
94908KDBQ DBQ20071121072510411/21/07 07:25:31  5-MIN KDBQ 211325Z 01012KT 10SM FEW016 OVC085 02/M01 A3005 960 85 -300 010/12 RMK AO2
94908KDBQ DBQ20071121073010411/21/07 07:30:31  5-MIN KDBQ 211330Z 01011KT 10SM FEW016 OVC085 02/M01 A3005 960 85 -300 010/11 RMK AO2
94908KDBQ DBQ20071121073510411/21/07 07:35:31  5-MIN KDBQ 211335Z 01012KT 10SM FEW014 OVC085 02/M01 A3005 960 85 -300 010/12 RMK AO2
94908KDBQ DBQ20071121074011011/21/07 07:40:31  5-MIN KDBQ 211340Z 01013G19KT 10SM FEW014 OVC085 02/M01 A3004 970 85 -300 010/13G19 RMK AO2
94908KDBQ DBQ20071121074511011/21/07 07:45:31  5-MIN KDBQ 211345Z 01016G21KT 10SM FEW014 OVC085 02/M01 A3003 980 85 -300 010/16G21 RMK AO2
94908KDBQ DBQ20071121075013411/21/07 07:50:31  5-MIN KDBQ 211350Z 01014G21KT 10SM FEW014 OVC085 02/M01 A3002 990 82 -300 010/14G21 RMK AO2 PRESFR SLP175 T00171011
94908KDBQ DBQ20071121075511811/21/07 07:55:31  5-MIN KDBQ 211355Z 02015G20KT 10SM FEW014 OVC085 02/M01 A3001 1000 82 -300 020/15G20 RMK AO2 PRESFR
94908KDBQ DBQ20071121080011111/21/07 08:00:31  5-MIN KDBQ 211400Z 01015G21KT 10SM FEW014 OVC085 01/M01 A3000 1000 85 -400 010/15G21 RMK AO2
94908KDBQ DBQ20071121080510311/21/07 08:05:31  5-MIN KDBQ 211405Z 01012G21KT 10SM OVC085 01/M01 A3002 980 85 -400 010/12G21 RMK AO2
94908KDBQ DBQ20071121081009711/21/07 08:10:31  5-MIN KDBQ 211410Z 01011KT 10SM OVC085 01/M01 A3004 970 85 -400 010/11 RMK AO2
94908KDBQ DBQ20071121081511011/21/07 08:15:31  5-MIN KDBQ 211415Z 01011G19KT 10SM OVC090 01/M01 A3006 950 85 -400 010/11G19 RMK AO2 PRESRR
94908KDBQ DBQ20071121082011711/21/07 08:20:31  5-MIN KDBQ 211420Z 01011G19KT 10SM FEW012 OVC090 01/M01 A3006 950 85 -400 010/11G19 RMK AO2 PRESRR
94908KDBQ DBQ20071121082511011/21/07 08:25:31  5-MIN KDBQ 211425Z 02013G17KT 10SM FEW012 OVC090 01/M01 A3005 960 85 -400 020/13G17 RMK AO2
94908KDBQ DBQ20071121083009711/21/07 08:30:31  5-MIN KDBQ 211430Z 01014KT 10SM OVC090 01/M01 A3005 960 85 -400 010/14 RMK AO2
94908KDBQ DBQ20071121083509711/21/07 08:35:31  5-MIN KDBQ 211435Z 02014KT 10SM OVC095 01/M01 A3005 960 85 -400 020/14 RMK AO2
94908KDBQ DBQ20071121084010411/21/07 08:40:31  5-MIN KDBQ 211440Z 02016KT 10SM FEW012 OVC095 01/M01 A3004 960 85 -400 020/16 RMK AO2
94908KDBQ DBQ20071121084510411/21/07 08:45:31  5-MIN KDBQ 211445Z 02013KT 10SM FEW012 OVC095 01/M01 A3005 960 85 -400 020/13 RMK AO2
94908KDBQ DBQ20071121085012711/21/07 08:50:31  5-MIN KDBQ 211450Z 02015KT 10SM FEW012 OVC095 02/M01 A3004 960 82 -300 020/15 RMK AO2 SLP183 T00171011 58001
94908KDBQ DBQ20071121085511011/21/07 08:55:31  5-MIN KDBQ 211455Z 01013G20KT 10SM FEW012 OVC095 01/M01 A3005 960 85 -400 010/13G20 RMK AO2
94908KDBQ DBQ20071121090009711/21/07 09:00:31  5-MIN KDBQ 211500Z 01016KT 10SM OVC100 01/M01 A3005 960 85 -400 010/16 RMK AO2
94908KDBQ DBQ20071121090511011/21/07 09:05:31  5-MIN KDBQ 211505Z 01013G19KT 10SM SCT075 OVC100 01/M01 A3004 960 85 -400 010/13G19 RMK AO2
94908KDBQ DBQ20071121091010411/21/07 09:10:31  5-MIN KDBQ 211510Z 02013KT 10SM SCT075 OVC100 01/M01 A3004 970 85 -400 020/13 RMK AO2
94908KDBQ DBQ20071121091510411/21/07 09:15:31  5-MIN KDBQ 211515Z 02013KT 10SM SCT075 OVC100 01/M01 A3004 970 85 -400 020/13 RMK AO2
94908KDBQ DBQ20071121092010411/21/07 09:20:31  5-MIN KDBQ 211520Z 01011KT 10SM FEW075 OVC100 01/M01 A3004 970 85 -400 010/11 RMK AO2
94908KDBQ DBQ20071121092511011/21/07 09:25:31  5-MIN KDBQ 211525Z 02013G19KT 10SM FEW075 OVC100 01/M01 A3003 980 85 -400 010/13G19 RMK AO2
94908KDBQ DBQ20071121093011011/21/07 09:30:31  5-MIN KDBQ 211530Z 01014G20KT 10SM FEW075 OVC100 01/M01 A3003 980 85 -400 010/14G20 RMK AO2
94908KDBQ DBQ20071121093511011/21/07 09:35:31  5-MIN KDBQ 211535Z 02012G20KT 10SM FEW013 OVC100 02/M01 A3003 980 82 -300 020/12G20 RMK AO2
94908KDBQ DBQ20071121094011011/21/07 09:40:31  5-MIN KDBQ 211540Z 02014G20KT 10SM FEW013 BKN100 02/M01 A3002 980 82 -300 020/14G20 RMK AO2
94908KDBQ DBQ20071121094511011/21/07 09:45:31  5-MIN KDBQ 211545Z 02014G20KT 10SM FEW014 BKN100 02/M01 A3002 980 82 -300 020/14G20 RMK AO2
94908KDBQ DBQ20071121095012111/21/07 09:50:31  5-MIN KDBQ 211550Z 03014KT 10SM FEW014 BKN100 02/M01 A3002 990 78 -200 030/14 RMK AO2 SLP174 T00221011
94908KDBQ DBQ20071121095510411/21/07 09:55:31  5-MIN KDBQ 211555Z 03015KT 10SM SCT014 BKN100 02/M01 A3001 990 78 -200 030/15 RMK AO2
94908KDBQ DBQ20071121100010411/21/07 10:00:31  5-MIN KDBQ 211600Z 03013KT 10SM SCT014 BKN100 02/M01 A3001 990 78 -200 030/13 RMK AO2
94908KDBQ DBQ20071121100511111/21/07 10:05:31  5-MIN KDBQ 211605Z 03018G23KT 10SM SCT014 BKN100 02/M01 A3001 1000 78 -200 030/18G23 RMK AO2
94908KDBQ DBQ20071121101011111/21/07 10:10:31  5-MIN KDBQ 211610Z 02016G23KT 10SM BKN014 02/M01 A3000 1010 82 -300 020/16G23 RMK AO2 PRESFR
94908KDBQ DBQ20071121101510311/21/07 10:15:31  5-MIN KDBQ 211615Z 02015G23KT 10SM BKN014 02/M01 A3001 990 82 -300 020/15G23 RMK AO2
94908KDBQ DBQ20071121102011011/21/07 10:20:31  5-MIN KDBQ 211620Z 01014G23KT 10SM BKN014 02/M01 A3004 970 82 -300 010/14G23 RMK AO2 PRESRR
94908KDBQ DBQ20071121102511011/21/07 10:25:31  5-MIN KDBQ 211625Z 01016G23KT 10SM BKN014 02/M01 A3006 950 78 -300 010/16G23 RMK AO2 PRESRR
94908KDBQ DBQ20071121103010311/21/07 10:30:31  5-MIN KDBQ 211630Z 01015G23KT 10SM OVC014 02/M01 A3006 950 82 -400 010/15G23 RMK AO2
94908KDBQ DBQ20071121103510311/21/07 10:35:31  5-MIN KDBQ 211635Z 01017G23KT 10SM OVC014 02/M01 A3006 950 82 -400 010/17G23 RMK AO2
94908KDBQ DBQ20071121104010311/21/07 10:40:31  5-MIN KDBQ 211640Z 01016G22KT 10SM OVC014 02/M01 A3004 970 82 -300 010/16G22 RMK AO2
94908KDBQ DBQ20071121104510311/21/07 10:45:31  5-MIN KDBQ 211645Z 01014G22KT 10SM OVC014 02/M01 A3003 980 82 -300 010/14G22 RMK AO2
94908KDBQ DBQ20071121105012011/21/07 10:50:31  5-MIN KDBQ 211650Z 01018G24KT 10SM OVC014 02/M01 A3003 980 82 -300 010/18G24 RMK AO2 SLP177 T00171011
94908KDBQ DBQ20071121105510311/21/07 10:55:31  5-MIN KDBQ 211655Z 36013G24KT 10SM OVC014 02/M01 A3005 960 82 -300 360/13G24 RMK AO2
94908KDBQ DBQ20071121110010411/21/07 11:00:31  5-MIN KDBQ 211700Z 36013KT 10SM OVC014 02/M01 A3006 950 82 -400 360/13 RMK AO2 PRESRR
94908KDBQ DBQ20071121110510311/21/07 11:05:31  5-MIN KDBQ 211705Z 36014G19KT 10SM OVC014 02/M01 A3006 950 82 -400 360/14G19 RMK AO2
94908KDBQ DBQ20071121111010311/21/07 11:10:31  5-MIN KDBQ 211710Z 36015G19KT 10SM OVC016 02/M02 A3006 950 78 -400 360/15G19 RMK AO2
94908KDBQ DBQ20071121111510311/21/07 11:15:31  5-MIN KDBQ 211715Z 36013G20KT 10SM OVC016 02/M02 A3005 960 78 -300 360/13G20 RMK AO2
94908KDBQ DBQ20071121112010311/21/07 11:20:31  5-MIN KDBQ 211720Z 01013G20KT 10SM OVC016 02/M02 A3005 960 78 -300 010/13G20 RMK AO2
94908KDBQ DBQ20071121112510411/21/07 11:25:31  5-MIN KDBQ 211725Z 01014KT 10SM OVC016 02/M02 A3004 970 78 -300 010/14 RMK AO2 PRESFR
94908KDBQ DBQ20071121113009711/21/07 11:30:31  5-MIN KDBQ 211730Z 02013KT 10SM OVC016 02/M02 A3004 970 78 -300 010/13 RMK AO2
94908KDBQ DBQ20071121113510411/21/07 11:35:31  5-MIN KDBQ 211735Z 01013KT 10SM OVC016 02/M02 A3003 980 78 -300 010/13 RMK AO2 PRESFR
94908KDBQ DBQ20071121114010411/21/07 11:40:31  5-MIN KDBQ 211740Z 01013KT 10SM OVC016 02/M02 A3001 990 78 -300 010/13 RMK AO2 PRESFR
94908KDBQ DBQ20071121114510311/21/07 11:45:31  5-MIN KDBQ 211745Z 02013G20KT 10SM OVC016 02/M02 A3001 990 78 -300 020/13G20 RMK AO2
94908KDBQ DBQ20071121115013811/21/07 11:50:31  5-MIN KDBQ 211750Z 02014G20KT 10SM OVC016 02/M01 A3002 990 82 -300 020/14G20 RMK AO2 SLP173 T00171011 10022 20011 53015
94908KDBQ DBQ20071121115510311/21/07 11:55:31  5-MIN KDBQ 211755Z 01015G20KT 10SM OVC016 02/M01 A3001 990 82 -300 010/15G20 RMK AO2
94908KDBQ DBQ20071121120009711/21/07 12:00:31  5-MIN KDBQ 211800Z 02013KT 10SM OVC016 02/M01 A3001 990 82 -300 010/13 RMK AO2
94908KDBQ DBQ20071121120509811/21/07 12:05:31  5-MIN KDBQ 211805Z 02013KT 10SM OVC016 02/M01 A3001 1000 78 -200 020/13 RMK AO2
94908KDBQ DBQ20071121121011111/21/07 12:10:31  5-MIN KDBQ 211810Z 03017G21KT 10SM OVC016 02/M01 A3000 1010 78 -200 020/17G21 RMK AO2 PRESFR
94908KDBQ DBQ20071121121510411/21/07 12:15:31  5-MIN KDBQ 211815Z 02014G21KT 10SM OVC016 02/M01 A3000 1000 78 -200 020/14G21 RMK AO2
94908KDBQ DBQ20071121122010311/21/07 12:20:31  5-MIN KDBQ 211820Z 01010G21KT 10SM OVC016 02/M01 A3002 990 78 -200 010/10G21 RMK AO2
94908KDBQ DBQ20071121122509711/21/07 12:25:31  5-MIN KDBQ 211825Z 01014KT 10SM OVC016 02/M01 A3001 990 78 -200 010/14 RMK AO2
94908KDBQ DBQ20071121123010311/21/07 12:30:31  5-MIN KDBQ 211830Z 01015G23KT 10SM OVC016 02/M01 A3001 990 78 -200 010/15G23 RMK AO2
94908KDBQ DBQ20071121123510411/21/07 12:35:31  5-MIN KDBQ 211835Z 01015G23KT 10SM OVC016 02/M01 A3001 1000 78 -200 010/15G23 RMK AO2
94908KDBQ DBQ20071121124010311/21/07 12:40:31  5-MIN KDBQ 211840Z 01015G21KT 10SM OVC016 02/M01 A3002 990 78 -200 010/15G21 RMK AO2
94908KDBQ DBQ20071121124510311/21/07 12:45:31  5-MIN KDBQ 211845Z 36013G21KT 10SM OVC016 02/M01 A3002 980 78 -200 360/13G21 RMK AO2
94908KDBQ DBQ20071121125012011/21/07 12:50:31  5-MIN KDBQ 211850Z 01012G21KT 10SM OVC016 02/M01 A3002 980 78 -200 010/12G21 RMK AO2 SLP176 T00221011
94908KDBQ DBQ20071121125509711/21/07 12:55:31  5-MIN KDBQ 211855Z 36013KT 10SM OVC016 02/M01 A3002 980 78 -200 360/13 RMK AO2
94908KDBQ DBQ20071123211010111/23/07 21:10:31  5-MIN KDBQ 240310Z AUTO 19009KT 10SM CLR M04/M07 A3027 760 78 -1300 190/09 RMK AO2
94908KDBQ DBQ20071123211510111/23/07 21:15:31  5-MIN KDBQ 240315Z AUTO 19009KT 10SM CLR M04/M07 A3027 760 78 -1300 190/09 RMK AO2
94908KDBQ DBQ20071123212010111/23/07 21:20:31  5-MIN KDBQ 240320Z AUTO 19008KT 10SM CLR M04/M07 A3027 760 81 -1400 190/08 RMK AO2
94908KDBQ DBQ20071123212510111/23/07 21:25:31  5-MIN KDBQ 240325Z AUTO 19009KT 10SM CLR M04/M07 A3027 760 81 -1400 190/09 RMK AO2
94908KDBQ DBQ20071123213010111/23/07 21:30:31  5-MIN KDBQ 240330Z AUTO 19008KT 10SM CLR M04/M07 A3027 760 81 -1400 190/08 RMK AO2
94908KDBQ DBQ20071123213510111/23/07 21:35:31  5-MIN KDBQ 240335Z AUTO 20008KT 10SM CLR M04/M07 A3027 760 81 -1400 200/08 RMK AO2
94908KDBQ DBQ20071123214010111/23/07 21:40:31  5-MIN KDBQ 240340Z AUTO 21007KT 10SM CLR M04/M07 A3027 760 81 -1400 210/07 RMK AO2
94908KDBQ DBQ20071123214510111/23/07 21:45:31  5-MIN KDBQ 240345Z AUTO 21007KT 10SM CLR M04/M07 A3027 760 81 -1400 210/07 RMK AO2
94908KDBQ DBQ20071123215011811/23/07 21:50:31  5-MIN KDBQ 240350Z AUTO 21008KT 10SM CLR M04/M07 A3027 760 84 -1400 210/08 RMK AO2 SLP268 T10441067
94908KDBQ DBQ20071123215510111/23/07 21:55:31  5-MIN KDBQ 240355Z AUTO 21008KT 10SM CLR M04/M07 A3027 760 81 -1300 210/08 RMK AO2
94908KDBQ DBQ20071123220010111/23/07 22:00:31  5-MIN KDBQ 240400Z AUTO 22008KT 10SM CLR M04/M07 A3027 750 81 -1300 210/08 RMK AO2
94908KDBQ DBQ20071123220510111/23/07 22:05:31  5-MIN KDBQ 240405Z AUTO 22008KT 10SM CLR M04/M07 A3027 760 81 -1300 220/08 RMK AO2
94908KDBQ DBQ20071123221010111/23/07 22:10:31  5-MIN KDBQ 240410Z AUTO 21009KT 10SM CLR M04/M07 A3027 760 81 -1300 210/09 RMK AO2
94908KDBQ DBQ20071123221510111/23/07 22:15:31  5-MIN KDBQ 240415Z AUTO 21009KT 10SM CLR M04/M07 A3026 760 81 -1300 210/09 RMK AO2
94908KDBQ DBQ20071123222010111/23/07 22:20:31  5-MIN KDBQ 240420Z AUTO 21010KT 10SM CLR M04/M07 A3026 760 81 -1300 210/10 RMK AO2
94908KDBQ DBQ20071123222510111/23/07 22:25:31  5-MIN KDBQ 240425Z AUTO 21009KT 10SM CLR M04/M07 A3026 760 81 -1300 210/09 RMK AO2
94908KDBQ DBQ20071123223010111/23/07 22:30:31  5-MIN KDBQ 240430Z AUTO 21009KT 10SM CLR M04/M07 A3026 760 81 -1300 210/09 RMK AO2
94908KDBQ DBQ20071123223510111/23/07 22:35:31  5-MIN KDBQ 240435Z AUTO 21009KT 10SM CLR M04/M07 A3026 770 81 -1300 210/09 RMK AO2
94908KDBQ DBQ20071123224010111/23/07 22:40:31  5-MIN KDBQ 240440Z AUTO 20010KT 10SM CLR M04/M07 A3026 770 81 -1300 200/10 RMK AO2
94908KDBQ DBQ20071123224510111/23/07 22:45:31  5-MIN KDBQ 240445Z AUTO 20009KT 10SM CLR M04/M07 A3026 760 81 -1300 200/09 RMK AO2
94908KDBQ DBQ20071123225011811/23/07 22:50:31  5-MIN KDBQ 240450Z AUTO 20010KT 10SM CLR M04/M07 A3026 760 81 -1300 200/10 RMK AO2 SLP264 T10391067
94908KDBQ DBQ20071123225510111/23/07 22:55:31  5-MIN KDBQ 240455Z AUTO 20011KT 10SM CLR M04/M07 A3026 770 81 -1300 200/11 RMK AO2
94908KDBQ DBQ20071123230010111/23/07 23:00:31  5-MIN KDBQ 240500Z AUTO 20011KT 10SM CLR M04/M07 A3026 770 81 -1300 200/11 RMK AO2
94908KDBQ DBQ20071123230510111/23/07 23:05:31  5-MIN KDBQ 240505Z AUTO 20010KT 10SM CLR M04/M07 A3026 770 81 -1300 200/10 RMK AO2
94908KDBQ DBQ20071123231010111/23/07 23:10:31  5-MIN KDBQ 240510Z AUTO 20011KT 10SM CLR M04/M07 A3026 770 81 -1300 200/11 RMK AO2
94908KDBQ DBQ20071123231510111/23/07 23:15:31  5-MIN KDBQ 240515Z AUTO 20010KT 10SM CLR M04/M07 A3026 760 81 -1300 200/10 RMK AO2
94908KDBQ DBQ20071123232010111/23/07 23:20:31  5-MIN KDBQ 240520Z AUTO 21010KT 10SM CLR M04/M07 A3026 760 81 -1300 210/10 RMK AO2
94908KDBQ DBQ20071123232510111/23/07 23:25:31  5-MIN KDBQ 240525Z AUTO 21011KT 10SM CLR M03/M07 A3026 760 78 -1200 210/11 RMK AO2
94908KDBQ DBQ20071123233010111/23/07 23:30:31  5-MIN KDBQ 240530Z AUTO 21011KT 10SM CLR M03/M07 A3026 760 78 -1200 210/11 RMK AO2
94908KDBQ DBQ20071123233510111/23/07 23:35:31  5-MIN KDBQ 240535Z AUTO 21011KT 10SM CLR M03/M07 A3027 760 78 -1200 210/11 RMK AO2
94908KDBQ DBQ20071123234010111/23/07 23:40:31  5-MIN KDBQ 240540Z AUTO 21011KT 10SM CLR M04/M07 A3027 760 81 -1300 210/11 RMK AO2
94908KDBQ DBQ20071123234510111/23/07 23:45:31  5-MIN KDBQ 240545Z AUTO 21011KT 10SM CLR M04/M07 A3027 760 81 -1300 210/11 RMK AO2
94908KDBQ DBQ20071123235014611/23/07 23:50:31  5-MIN KDBQ 240550Z AUTO 21010KT 10SM CLR M04/M07 A3027 760 81 -1300 210/10 RMK AO2 SLP265 T10391067 11033 21056 410171100 58004
94908KDBQ DBQ20071123235510111/23/07 23:55:31  5-MIN KDBQ 240555Z AUTO 21010KT 10SM CLR M04/M07 A3027 760 81 -1300 210/10 RMK AO2
94908KDBQ DBQ20071124000010111/24/07 00:00:38  5-MIN KDBQ 240600Z AUTO 21010KT 10SM CLR M04/M07 A3027 760 81 -1300 210/10 RMK AO2
94908KDBQ DBQ20071124000510111/24/07 00:05:31  5-MIN KDBQ 240605Z AUTO 21010KT 10SM CLR M04/M07 A3026 760 81 -1300 210/10 RMK AO2
94908KDBQ DBQ20071124001010111/24/07 00:10:31  5-MIN KDBQ 240610Z AUTO 21010KT 10SM CLR M04/M07 A3026 760 81 -1300 210/10 RMK AO2
94908KDBQ DBQ20071124001510111/24/07 00:15:31  5-MIN KDBQ 240615Z AUTO 21011KT 10SM CLR M04/M07 A3026 760 81 -1300 210/11 RMK AO2
94908KDBQ DBQ20071124002010111/24/07 00:20:31  5-MIN KDBQ 240620Z AUTO 21011KT 10SM CLR M04/M07 A3026 760 81 -1300 210/11 RMK AO2
94908KDBQ DBQ20071124002510111/24/07 00:25:31  5-MIN KDBQ 240625Z AUTO 21011KT 10SM CLR M04/M07 A3026 760 81 -1300 210/11 RMK AO2
94908KDBQ DBQ20071124003010111/24/07 00:30:31  5-MIN KDBQ 240630Z AUTO 21011KT 10SM CLR M04/M07 A3026 770 81 -1300 200/11 RMK AO2
94908KDBQ DBQ20071124003510111/24/07 00:35:31  5-MIN KDBQ 240635Z AUTO 20012KT 10SM CLR M04/M07 A3026 770 81 -1300 200/12 RMK AO2
94908KDBQ DBQ20071124004010111/24/07 00:40:31  5-MIN KDBQ 240640Z AUTO 20012KT 10SM CLR M04/M07 A3026 770 81 -1300 200/12 RMK AO2
94908KDBQ DBQ20071124004510111/24/07 00:45:31  5-MIN KDBQ 240645Z AUTO 21012KT 10SM CLR M04/M07 A3026 770 81 -1300 210/12 RMK AO2
94908KDBQ DBQ20071124005011811/24/07 00:50:31  5-MIN KDBQ 240650Z AUTO 21011KT 10SM CLR M04/M07 A3026 770 81 -1300 210/11 RMK AO2 SLP262 T10391067
94908KDBQ DBQ20071124005510111/24/07 00:55:31  5-MIN KDBQ 240655Z AUTO 21011KT 10SM CLR M04/M07 A3026 770 81 -1300 210/11 RMK AO2
94908KDBQ DBQ20071124010010111/24/07 01:00:31  5-MIN KDBQ 240700Z AUTO 21011KT 10SM CLR M03/M07 A3026 770 78 -1200 210/11 RMK AO2
94908KDBQ DBQ20071124010510111/24/07 01:05:31  5-MIN KDBQ 240705Z AUTO 21012KT 10SM CLR M03/M07 A3026 770 78 -1200 210/12 RMK AO2
94908KDBQ DBQ20071124011010111/24/07 01:10:31  5-MIN KDBQ 240710Z AUTO 21011KT 10SM CLR M03/M07 A3025 770 78 -1200 210/11 RMK AO2
94908KDBQ DBQ20071124011510111/24/07 01:15:31  5-MIN KDBQ 240715Z AUTO 20011KT 10SM CLR M04/M07 A3025 780 81 -1300 200/11 RMK AO2
94908KDBQ DBQ20071124012010111/24/07 01:20:31  5-MIN KDBQ 240720Z AUTO 21012KT 10SM CLR M04/M07 A3025 780 81 -1300 210/12 RMK AO2
94908KDBQ DBQ20071124012510111/24/07 01:25:31  5-MIN KDBQ 240725Z AUTO 21012KT 10SM CLR M03/M07 A3025 780 78 -1200 200/12 RMK AO2
94908KDBQ DBQ20071124013010111/24/07 01:30:31  5-MIN KDBQ 240730Z AUTO 20011KT 10SM CLR M04/M07 A3025 780 81 -1300 200/11 RMK AO2
94908KDBQ DBQ20071124013510111/24/07 01:35:31  5-MIN KDBQ 240735Z AUTO 20010KT 10SM CLR M04/M07 A3025 780 81 -1300 200/10 RMK AO2
94908KDBQ DBQ20071124014010111/24/07 01:40:31  5-MIN KDBQ 240740Z AUTO 20011KT 10SM CLR M04/M07 A3025 780 81 -1300 200/11 RMK AO2
94908KDBQ DBQ20071124014510111/24/07 01:45:31  5-MIN KDBQ 240745Z AUTO 21010KT 10SM CLR M03/M07 A3025 780 78 -1200 200/10 RMK AO2
94908KDBQ DBQ20071124015011811/24/07 01:50:31  5-MIN KDBQ 240750Z AUTO 20012KT 10SM CLR M03/M07 A3025 780 78 -1200 200/12 RMK AO2 SLP257 T10331067
94908KDBQ DBQ20071124015510111/24/07 01:55:31  5-MIN KDBQ 240755Z AUTO 20011KT 10SM CLR M03/M07 A3024 780 78 -1200 200/11 RMK AO2
94908KDBQ DBQ20071124020010111/24/07 02:00:31  5-MIN KDBQ 240800Z AUTO 20011KT 10SM CLR M03/M07 A3024 780 78 -1200 200/11 RMK AO2
94908KDBQ DBQ20071124020510111/24/07 02:05:31  5-MIN KDBQ 240805Z AUTO 21011KT 10SM CLR M03/M07 A3024 780 78 -1200 210/11 RMK AO2
94908KDBQ DBQ20071124021010111/24/07 02:10:31  5-MIN KDBQ 240810Z AUTO 21011KT 10SM CLR M03/M07 A3024 780 78 -1200 210/11 RMK AO2
94908KDBQ DBQ20071124021510411/24/07 02:15:31  5-MIN KDBQ 240815Z AUTO 21011KT 10SM FEW055 M03/M07 A3024 780 78 -1200 210/11 RMK AO2
94908KDBQ DBQ20071124022010411/24/07 02:20:31  5-MIN KDBQ 240820Z AUTO 21011KT 10SM FEW055 M03/M07 A3024 790 78 -1200 210/11 RMK AO2
94908KDBQ DBQ20071124022510411/24/07 02:25:31  5-MIN KDBQ 240825Z AUTO 21010KT 10SM FEW055 M03/M06 A3024 790 81 -1200 210/10 RMK AO2
94908KDBQ DBQ20071124023010411/24/07 02:30:31  5-MIN KDBQ 240830Z AUTO 21010KT 10SM FEW055 M03/M06 A3024 790 81 -1200 210/10 RMK AO2
94908KDBQ DBQ20071124023510411/24/07 02:35:31  5-MIN KDBQ 240835Z AUTO 21010KT 10SM FEW055 M03/M06 A3024 790 81 -1200 210/10 RMK AO2
94908KDBQ DBQ20071124024010111/24/07 02:40:31  5-MIN KDBQ 240840Z AUTO 21009KT 10SM CLR M03/M06 A3024 790 81 -1200 210/09 RMK AO2
94908KDBQ DBQ20071124024510111/24/07 02:45:31  5-MIN KDBQ 240845Z AUTO 21009KT 10SM CLR M03/M06 A3024 790 81 -1200 210/09 RMK AO2
94908KDBQ DBQ20071124025012411/24/07 02:50:31  5-MIN KDBQ 240850Z AUTO 21010KT 10SM CLR M03/M06 A3024 790 81 -1200 210/10 RMK AO2 SLP253 T10331061 55003
94908KDBQ DBQ20071124025510111/24/07 02:55:31  5-MIN KDBQ 240855Z AUTO 22010KT 10SM CLR M03/M06 A3024 790 81 -1200 210/10 RMK AO2
94908KDBQ DBQ20071124030010111/24/07 03:00:31  5-MIN KDBQ 240900Z AUTO 21009KT 10SM CLR M03/M06 A3023 790 81 -1200 210/09 RMK AO2
94908KDBQ DBQ20071124030510111/24/07 03:05:31  5-MIN KDBQ 240905Z AUTO 22010KT 10SM CLR M03/M06 A3023 790 81 -1200 220/10 RMK AO2
94908KDBQ DBQ20071124031010111/24/07 03:10:31  5-MIN KDBQ 240910Z AUTO 21011KT 10SM CLR M03/M07 A3023 790 78 -1200 210/11 RMK AO2
94908KDBQ DBQ20071124031510111/24/07 03:15:31  5-MIN KDBQ 240915Z AUTO 21012KT 10SM CLR M03/M07 A3023 790 78 -1200 210/12 RMK AO2
94908KDBQ DBQ20071124032010111/24/07 03:20:31  5-MIN KDBQ 240920Z AUTO 22012KT 10SM CLR M03/M07 A3023 790 78 -1200 220/12 RMK AO2
94908KDBQ DBQ20071124032510111/24/07 03:25:31  5-MIN KDBQ 240925Z AUTO 22011KT 10SM CLR M03/M07 A3023 790 78 -1200 220/11 RMK AO2
94908KDBQ DBQ20071124033010111/24/07 03:30:31  5-MIN KDBQ 240930Z AUTO 22012KT 10SM CLR M03/M07 A3023 790 78 -1200 210/12 RMK AO2
94908KDBQ DBQ20071124033510111/24/07 03:35:31  5-MIN KDBQ 240935Z AUTO 22013KT 10SM CLR M03/M07 A3023 790 78 -1200 220/13 RMK AO2
94908KDBQ DBQ20071124034010111/24/07 03:40:31  5-MIN KDBQ 240940Z AUTO 22012KT 10SM CLR M03/M07 A3023 800 78 -1200 220/12 RMK AO2
94908KDBQ DBQ20071124034510111/24/07 03:45:31  5-MIN KDBQ 240945Z AUTO 22011KT 10SM CLR M03/M07 A3023 800 78 -1200 220/11 RMK AO2
94908KDBQ DBQ20071124035011811/24/07 03:50:31  5-MIN KDBQ 240950Z AUTO 21011KT 10SM CLR M04/M07 A3023 800 81 -1200 210/11 RMK AO2 SLP251 T10391067
94908KDBQ DBQ20071124035510111/24/07 03:55:31  5-MIN KDBQ 240955Z AUTO 21012KT 10SM CLR M03/M07 A3022 800 78 -1200 210/12 RMK AO2
94908KDBQ DBQ20071124040010111/24/07 04:00:31  5-MIN KDBQ 241000Z AUTO 21011KT 10SM CLR M03/M07 A3022 800 78 -1200 210/11 RMK AO2
94908KDBQ DBQ20071124040510111/24/07 04:05:31  5-MIN KDBQ 241005Z AUTO 21010KT 10SM CLR M03/M07 A3022 800 78 -1200 210/10 RMK AO2
94908KDBQ DBQ20071124041010411/24/07 04:10:31  5-MIN KDBQ 241010Z AUTO 21010KT 10SM FEW060 M03/M07 A3022 800 78 -1200 210/10 RMK AO2
94908KDBQ DBQ20071124041510411/24/07 04:15:31  5-MIN KDBQ 241015Z AUTO 21011KT 10SM SCT060 M03/M06 A3022 800 81 -1200 210/11 RMK AO2
94908KDBQ DBQ20071124042010411/24/07 04:20:31  5-MIN KDBQ 241020Z AUTO 21010KT 10SM BKN060 M03/M06 A3022 800 81 -1200 210/10 RMK AO2
94908KDBQ DBQ20071124042510411/24/07 04:25:31  5-MIN KDBQ 241025Z AUTO 21010KT 10SM BKN065 M03/M06 A3022 800 81 -1200 210/10 RMK AO2
94908KDBQ DBQ20071124043010411/24/07 04:30:31  5-MIN KDBQ 241030Z AUTO 21011KT 10SM BKN065 M03/M06 A3022 800 81 -1200 210/11 RMK AO2
94908KDBQ DBQ20071124043510411/24/07 04:35:31  5-MIN KDBQ 241035Z AUTO 21010KT 10SM OVC065 M03/M06 A3022 800 81 -1200 210/10 RMK AO2
94908KDBQ DBQ20071124044010411/24/07 04:40:31  5-MIN KDBQ 241040Z AUTO 21010KT 10SM OVC065 M03/M06 A3022 800 81 -1200 210/10 RMK AO2
94908KDBQ DBQ20071124044510411/24/07 04:45:31  5-MIN KDBQ 241045Z AUTO 21011KT 10SM OVC065 M03/M06 A3022 800 81 -1200 210/11 RMK AO2
94908KDBQ DBQ20071124045012111/24/07 04:50:31  5-MIN KDBQ 241050Z AUTO 21010KT 10SM OVC060 M03/M06 A3022 800 81 -1200 210/10 RMK AO2 SLP249 T10331061
94908KDBQ DBQ20071124045511811/24/07 04:55:31  5-MIN KDBQ 241055Z AUTO 21009KT 10SM SCT055 BKN070 BKN110 M03/M06 A3022 800 81 -1200 210/09 RMK AO2
94908KDBQ DBQ20071124050011811/24/07 05:00:31  5-MIN KDBQ 241100Z AUTO 21011KT 10SM SCT055 BKN070 BKN090 M03/M06 A3022 800 81 -1200 210/11 RMK AO2
94908KDBQ DBQ20071124050511811/24/07 05:05:31  5-MIN KDBQ 241105Z AUTO 21012KT 10SM SCT055 BKN070 BKN100 M03/M07 A3022 800 78 -1200 210/12 RMK AO2
94908KDBQ DBQ20071124051011111/24/07 05:10:31  5-MIN KDBQ 241110Z AUTO 21011KT 10SM SCT055 BKN110 M03/M07 A3022 810 78 -1200 210/11 RMK AO2
94908KDBQ DBQ20071124051511111/24/07 05:15:31  5-MIN KDBQ 241115Z AUTO 21010KT 10SM BKN055 BKN110 M03/M07 A3021 810 78 -1200 210/10 RMK AO2
94908KDBQ DBQ20071124052011811/24/07 05:20:31  5-MIN KDBQ 241120Z AUTO 21011KT 10SM BKN055 BKN075 BKN110 M03/M07 A3021 810 78 -1200 210/11 RMK AO2
94908KDBQ DBQ20071124052511111/24/07 05:25:31  5-MIN KDBQ 241125Z AUTO 21011KT 10SM BKN055 BKN110 M04/M07 A3021 810 81 -1200 210/11 RMK AO2
94908KDBQ DBQ20071124053011111/24/07 05:30:31  5-MIN KDBQ 241130Z AUTO 20012KT 10SM BKN060 OVC110 M04/M07 A3021 810 81 -1200 200/12 RMK AO2
94908KDBQ DBQ20071124053511111/24/07 05:35:31  5-MIN KDBQ 241135Z AUTO 21012KT 10SM BKN055 OVC110 M03/M06 A3021 810 81 -1200 210/12 RMK AO2
94908KDBQ DBQ20071124054011111/24/07 05:40:31  5-MIN KDBQ 241140Z AUTO 21013KT 10SM BKN055 BKN110 M03/M06 A3021 810 81 -1200 200/13 RMK AO2
94908KDBQ DBQ20071124054511111/24/07 05:45:31  5-MIN KDBQ 241145Z AUTO 20012KT 10SM BKN060 BKN110 M03/M06 A3020 820 81 -1100 200/12 RMK AO2
94908KDBQ DBQ20071124055014111/24/07 05:50:31  5-MIN KDBQ 241150Z 21014KT 10SM SCT060 BKN110 M03/M06 A3020 820 81 -1100 210/14 RMK AO2 SLP244 T10331061 11033 21039 57010
94908KDBQ DBQ20071124055510611/24/07 05:55:31  5-MIN KDBQ 241155Z 21013KT 10SM SCT060 BKN110 M04/M06 A3020 820 85 -1200 210/13 RMK AO2
94908KDBQ DBQ20071124060010611/24/07 06:00:31  5-MIN KDBQ 241200Z 21012KT 10SM BKN060 BKN110 M03/M06 A3020 820 81 -1100 210/12 RMK AO2
94908KDBQ DBQ20071124060510611/24/07 06:05:31  5-MIN KDBQ 241205Z 20012KT 10SM BKN060 BKN100 M03/M06 A3020 820 81 -1100 200/12 RMK AO2
94908KDBQ DBQ20071124061010611/24/07 06:10:31  5-MIN KDBQ 241210Z 20013KT 10SM BKN065 BKN100 M04/M06 A3020 820 85 -1200 200/13 RMK AO2
94908KDBQ DBQ20071124061511311/24/07 06:15:31  5-MIN KDBQ 241215Z 20014KT 10SM BKN065 BKN080 OVC100 M03/M06 A3020 820 81 -1100 200/14 RMK AO2
94908KDBQ DBQ20071124062010611/24/07 06:20:31  5-MIN KDBQ 241220Z 21013KT 10SM BKN065 OVC100 M03/M06 A3020 820 81 -1100 210/13 RMK AO2
94908KDBQ DBQ20071124062510611/24/07 06:25:31  5-MIN KDBQ 241225Z 21012KT 10SM BKN065 OVC100 M03/M06 A3020 820 81 -1100 200/12 RMK AO2
94908KDBQ DBQ20071124063010611/24/07 06:30:31  5-MIN KDBQ 241230Z 21013KT 10SM BKN065 OVC100 M04/M06 A3020 820 85 -1200 210/13 RMK AO2
94908KDBQ DBQ20071124063510611/24/07 06:35:31  5-MIN KDBQ 241235Z 21012KT 10SM SCT065 OVC100 M04/M06 A3020 820 85 -1200 210/12 RMK AO2
94908KDBQ DBQ20071124064010611/24/07 06:40:31  5-MIN KDBQ 241240Z 21012KT 10SM SCT065 OVC100 M04/M06 A3021 820 85 -1200 210/12 RMK AO2
94908KDBQ DBQ20071124064510611/24/07 06:45:31  5-MIN KDBQ 241245Z 21012KT 10SM SCT070 OVC100 M03/M07 A3021 810 78 -1200 210/12 RMK AO2
94908KDBQ DBQ20071124065012311/24/07 06:50:31  5-MIN KDBQ 241250Z 21012KT 10SM FEW070 OVC095 M04/M07 A3021 810 81 -1200 210/12 RMK AO2 SLP245 T10391067
94908KDBQ DBQ20071124065509911/24/07 06:55:31  5-MIN KDBQ 241255Z 21012KT 10SM OVC095 M04/M07 A3021 810 81 -1200 210/12 RMK AO2
94908KDBQ DBQ20071124070009911/24/07 07:00:31  5-MIN KDBQ 241300Z 21012KT 10SM OVC095 M04/M07 A3021 810 81 -1200 210/12 RMK AO2
94908KDBQ DBQ20071124070509911/24/07 07:05:31  5-MIN KDBQ 241305Z 20012KT 10SM OVC090 M04/M07 A3020 820 81 -1200 200/12 RMK AO2
94908KDBQ DBQ20071124071010611/24/07 07:10:31  5-MIN KDBQ 241310Z 20012KT 10SM SCT060 OVC090 M03/M07 A3021 810 78 -1200 200/12 RMK AO2
94908KDBQ DBQ20071124071510511/24/07 07:15:31  5-MIN KDBQ 241315Z 20011KT 9SM BKN060 OVC090 M03/M06 A3021 810 81 -1200 200/11 RMK AO2
94908KDBQ DBQ20071124072010511/24/07 07:20:31  5-MIN KDBQ 241320Z 20012KT 9SM BKN060 OVC090 M03/M06 A3021 820 81 -1100 200/12 RMK AO2
94908KDBQ DBQ20071124072510511/24/07 07:25:31  5-MIN KDBQ 241325Z 20010KT 9SM BKN060 OVC090 M03/M06 A3020 820 81 -1100 200/10 RMK AO2
94908KDBQ DBQ20071124073009811/24/07 07:30:31  5-MIN KDBQ 241330Z 20011KT 9SM OVC060 M03/M06 A3020 820 81 -1100 200/11 RMK AO2
94908KDBQ DBQ20071124073509811/24/07 07:35:31  5-MIN KDBQ 241335Z 20011KT 9SM OVC060 M04/M06 A3021 820 85 -1200 200/11 RMK AO2
94908KDBQ DBQ20071124074009811/24/07 07:40:31  5-MIN KDBQ 241340Z 20012KT 9SM OVC055 M03/M06 A3021 810 81 -1200 200/12 RMK AO2
94908KDBQ DBQ20071124074509811/24/07 07:45:31  5-MIN KDBQ 241345Z 20011KT 9SM BKN060 M03/M06 A3021 810 81 -1200 200/11 RMK AO2
94908KDBQ DBQ20071124075011511/24/07 07:50:31  5-MIN KDBQ 241350Z 20012KT 9SM BKN060 M04/M06 A3021 810 85 -1200 200/12 RMK AO2 SLP246 T10391061
94908KDBQ DBQ20071124075509811/24/07 07:55:31  5-MIN KDBQ 241355Z 20010KT 9SM SCT055 M04/M06 A3021 810 85 -1200 200/10 RMK AO2
94908KDBQ DBQ20071124080009811/24/07 08:00:31  5-MIN KDBQ 241400Z 20011KT 9SM SCT055 M04/M06 A3021 820 85 -1200 190/11 RMK AO2
94908KDBQ DBQ20071124080510511/24/07 08:05:31  5-MIN KDBQ 241405Z 20011KT 9SM FEW050 SCT060 M03/M06 A3021 810 81 -1200 200/11 RMK AO2
94908KDBQ DBQ20071124081009811/24/07 08:10:31  5-MIN KDBQ 241410Z 20010KT 9SM FEW050 M03/M06 A3021 810 81 -1200 200/10 RMK AO2
94908KDBQ DBQ20071124081509811/24/07 08:15:31  5-MIN KDBQ 241415Z 20011KT 9SM FEW050 M03/M06 A3021 810 81 -1200 200/11 RMK AO2
94908KDBQ DBQ20071124082009811/24/07 08:20:31  5-MIN KDBQ 241420Z 21010KT 9SM FEW050 M03/M06 A3021 810 81 -1200 210/10 RMK AO2
94908KDBQ DBQ20071124082509511/24/07 08:25:31  5-MIN KDBQ 241425Z 20012KT 9SM CLR M03/M06 A3021 810 81 -1200 200/12 RMK AO2
94908KDBQ DBQ20071124083009511/24/07 08:30:31  5-MIN KDBQ 241430Z 21012KT 9SM CLR M03/M06 A3021 810 81 -1100 210/12 RMK AO2
94908KDBQ DBQ20071124083509611/24/07 08:35:31  5-MIN KDBQ 241435Z 21011KT 10SM CLR M03/M06 A3021 810 81 -1100 210/11 RMK AO2
94908KDBQ DBQ20071124084009611/24/07 08:40:31  5-MIN KDBQ 241440Z 21012KT 10SM CLR M03/M06 A3021 810 81 -1100 210/12 RMK AO2
94908KDBQ DBQ20071124084509611/24/07 08:45:31  5-MIN KDBQ 241445Z 22012KT 10SM CLR M03/M06 A3021 810 81 -1100 210/12 RMK AO2
94908KDBQ DBQ20071124085012211/24/07 08:50:31  5-MIN KDBQ 241450Z 21013KT 10SM FEW055 M02/M06 A3020 820 78 -1000 210/13 RMK AO2 SLP244 T10221056 58011
94908KDBQ DBQ20071124085509911/24/07 08:55:31  5-MIN KDBQ 241455Z 21014KT 10SM SCT055 M02/M06 A3020 820 78 -1000 210/14 RMK AO2
94908KDBQ DBQ20071124090009911/24/07 09:00:31  5-MIN KDBQ 241500Z 22012KT 10SM BKN050 M02/M06 A3020 820 78 -1000 220/12 RMK AO2
94908KDBQ DBQ20071124090509911/24/07 09:05:31  5-MIN KDBQ 241505Z 22013KT 10SM BKN050 M02/M06 A3021 820 78 -1000 220/13 RMK AO2
94908KDBQ DBQ20071127080509611/27/07 08:05:31  5-MIN KDBQ 271405Z 32012KT 10SM CLR M07/M15 A3026 770 52 -1600 320/12 RMK AO2
94908KDBQ DBQ20071127081010211/27/07 08:10:31  5-MIN KDBQ 271410Z 31016G20KT 10SM CLR M07/M16 A3026 760 49 -1600 310/16G20 RMK AO2
94908KDBQ DBQ20071127081509611/27/07 08:15:31  5-MIN KDBQ 271415Z 32013KT 10SM CLR M07/M16 A3026 760 49 -1600 320/13 RMK AO2
94908KDBQ DBQ20071127082009611/27/07 08:20:31  5-MIN KDBQ 271420Z 32016KT 10SM CLR M07/M16 A3027 760 49 -1600 320/16 RMK AO2
94908KDBQ DBQ20071127082510211/27/07 08:25:31  5-MIN KDBQ 271425Z 31018G22KT 10SM CLR M06/M16 A3027 760 47 -1600 310/18G22 RMK AO2
94908KDBQ DBQ20071127083010211/27/07 08:30:31  5-MIN KDBQ 271430Z 32016G23KT 10SM CLR M06/M16 A3027 750 45 -1600 320/16G23 RMK AO2
94908KDBQ DBQ20071127083510211/27/07 08:35:31  5-MIN KDBQ 271435Z 32015G23KT 10SM CLR M06/M16 A3028 750 45 -1600 320/15G23 RMK AO2
94908KDBQ DBQ20071127084009611/27/07 08:40:31  5-MIN KDBQ 271440Z 32015KT 10SM CLR M07/M17 A3027 750 45 -1700 320/15 RMK AO2
94908KDBQ DBQ20071127084510211/27/07 08:45:31  5-MIN KDBQ 271445Z 32012G18KT 10SM CLR M06/M17 A3028 750 43 -1600 320/12G18 RMK AO2
94908KDBQ DBQ20071127085011911/27/07 08:50:31  5-MIN KDBQ 271450Z 32012KT 10SM CLR M06/M17 A3028 740 43 -1600 320/12 RMK AO2 SLP272 T10611167 53019
94908KDBQ DBQ20071127085509611/27/07 08:55:31  5-MIN KDBQ 271455Z 32010KT 10SM CLR M06/M17 A3029 740 43 -1600 320/10 RMK AO2
94908KDBQ DBQ20071127090009611/27/07 09:00:31  5-MIN KDBQ 271500Z 31013KT 10SM CLR M06/M17 A3029 740 43 -1600 310/13 RMK AO2
94908KDBQ DBQ20071127090509611/27/07 09:05:31  5-MIN KDBQ 271505Z 32013KT 10SM CLR M06/M16 A3029 740 45 -1600 320/13 RMK AO2
94908KDBQ DBQ20071127091009611/27/07 09:10:31  5-MIN KDBQ 271510Z 31010KT 10SM CLR M06/M16 A3029 740 45 -1600 310/10 RMK AO2
94908KDBQ DBQ20071127091509611/27/07 09:15:31  5-MIN KDBQ 271515Z 34014KT 10SM CLR M06/M16 A3029 730 43 -1500 340/14 RMK AO2
94908KDBQ DBQ20071127092009611/27/07 09:20:31  5-MIN KDBQ 271520Z 34012KT 10SM CLR M06/M17 A3030 730 41 -1500 340/12 RMK AO2
94908KDBQ DBQ20071127092510211/27/07 09:25:31  5-MIN KDBQ 271525Z 33014G20KT 10SM CLR M06/M17 A3030 730 41 -1500 330/14G20 RMK AO2
94908KDBQ DBQ20071127093010211/27/07 09:30:31  5-MIN KDBQ 271530Z 34014G20KT 10SM CLR M06/M17 A3031 720 40 -1600 340/14G20 RMK AO2
94908KDBQ DBQ20071127093509611/27/07 09:35:31  5-MIN KDBQ 271535Z 33013KT 10SM CLR M06/M17 A3031 720 41 -1600 330/13 RMK AO2
94908KDBQ DBQ20071127094009611/27/07 09:40:31  5-MIN KDBQ 271540Z 33013KT 10SM CLR M06/M17 A3032 710 40 -1600 330/13 RMK AO2
94908KDBQ DBQ20071127094509611/27/07 09:45:31  5-MIN KDBQ 271545Z 34017KT 10SM CLR M06/M17 A3032 710 41 -1600 340/17 RMK AO2
94908KDBQ DBQ20071127095011311/27/07 09:50:31  5-MIN KDBQ 271550Z 34014KT 10SM CLR M06/M17 A3032 710 40 -1600 340/14 RMK AO2 SLP283 T10561172
94908KDBQ DBQ20071127095509611/27/07 09:55:31  5-MIN KDBQ 271555Z 33013KT 10SM CLR M06/M17 A3032 710 41 -1600 330/13 RMK AO2
94908KDBQ DBQ20071127100009611/27/07 10:00:31  5-MIN KDBQ 271600Z 34014KT 10SM CLR M05/M17 A3032 710 38 -1500 340/14 RMK AO2
94908KDBQ DBQ20071127100509611/27/07 10:05:31  5-MIN KDBQ 271605Z 33012KT 10SM CLR M06/M17 A3032 710 41 -1600 330/12 RMK AO2
94908KDBQ DBQ20071127101009611/27/07 10:10:31  5-MIN KDBQ 271610Z 34009KT 10SM CLR M05/M17 A3032 710 40 -1500 340/09 RMK AO2
94908KDBQ DBQ20071127101509611/27/07 10:15:31  5-MIN KDBQ 271615Z 34010KT 10SM CLR M05/M17 A3032 710 40 -1500 330/10 RMK AO2
94908KDBQ DBQ20071127102009611/27/07 10:20:31  5-MIN KDBQ 271620Z 34009KT 10SM CLR M04/M17 A3032 710 38 -1400 340/09 RMK AO2
94908KDBQ DBQ20071127102509611/27/07 10:25:31  5-MIN KDBQ 271625Z 35009KT 10SM CLR M04/M16 A3032 710 40 -1400 350/09 RMK AO2
94908KDBQ DBQ20071127103009611/27/07 10:30:31  5-MIN KDBQ 271630Z 35008KT 10SM CLR M05/M17 A3032 710 40 -1500 350/08 RMK AO2
94908KDBQ DBQ20071127103509611/27/07 10:35:31  5-MIN KDBQ 271635Z 34010KT 10SM CLR M05/M17 A3033 710 40 -1500 340/10 RMK AO2
94908KDBQ DBQ20071127104009611/27/07 10:40:31  5-MIN KDBQ 271640Z 34008KT 10SM CLR M04/M16 A3033 700 40 -1400 340/08 RMK AO2
94908KDBQ DBQ20071127104509611/27/07 10:45:31  5-MIN KDBQ 271645Z 35010KT 10SM CLR M04/M16 A3033 700 40 -1400 350/10 RMK AO2
94908KDBQ DBQ20071127105011311/27/07 10:50:31  5-MIN KDBQ 271650Z 34008KT 10SM CLR M04/M16 A3033 710 40 -1400 340/08 RMK AO2 SLP286 T10441161
94908KDBQ DBQ20071127105509611/27/07 10:55:31  5-MIN KDBQ 271655Z 33010KT 10SM CLR M04/M16 A3033 700 42 -1400 330/10 RMK AO2
94908KDBQ DBQ20071127110009611/27/07 11:00:31  5-MIN KDBQ 271700Z 33011KT 10SM CLR M04/M16 A3033 700 40 -1400 330/11 RMK AO2
94908KDBQ DBQ20071127110509611/27/07 11:05:31  5-MIN KDBQ 271705Z 34010KT 10SM CLR M04/M16 A3033 700 40 -1400 340/10 RMK AO2
94908KDBQ DBQ20071127111009611/27/07 11:10:31  5-MIN KDBQ 271710Z 34008KT 10SM CLR M04/M16 A3033 700 40 -1400 330/08 RMK AO2
94908KDBQ DBQ20071127111509611/27/07 11:15:31  5-MIN KDBQ 271715Z 32010KT 10SM CLR M04/M15 A3033 700 44 -1400 320/10 RMK AO2
94908KDBQ DBQ20071127112009611/27/07 11:20:31  5-MIN KDBQ 271720Z 33010KT 10SM CLR M04/M15 A3033 700 44 -1400 330/10 RMK AO2
94908KDBQ DBQ20071127112509611/27/07 11:25:31  5-MIN KDBQ 271725Z 32009KT 10SM CLR M04/M16 A3033 700 42 -1400 320/09 RMK AO2
94908KDBQ DBQ20071127113009611/27/07 11:30:31  5-MIN KDBQ 271730Z 33009KT 10SM CLR M04/M16 A3033 700 42 -1400 330/09 RMK AO2
94908KDBQ DBQ20071127113509611/27/07 11:35:31  5-MIN KDBQ 271735Z 30008KT 10SM CLR M04/M16 A3032 710 42 -1400 300/08 RMK AO2
94908KDBQ DBQ20071127114009611/27/07 11:40:31  5-MIN KDBQ 271740Z 31009KT 10SM CLR M04/M16 A3033 700 40 -1400 310/09 RMK AO2
94908KDBQ DBQ20071127114509611/27/07 11:45:31  5-MIN KDBQ 271745Z 31008KT 10SM CLR M04/M16 A3033 700 40 -1400 300/08 RMK AO2
94908KDBQ DBQ20071127115013111/27/07 11:50:31  5-MIN KDBQ 271750Z 33007KT 10SM CLR M04/M16 A3034 690 42 -1400 330/07 RMK AO2 SLP290 T10441156 11017 21067 51048
94908KDBQ DBQ20071127115509611/27/07 11:55:31  5-MIN KDBQ 271755Z 33009KT 10SM CLR M04/M16 A3033 700 40 -1400 330/09 RMK AO2
94908KDBQ DBQ20071127120009611/27/07 12:00:31  5-MIN KDBQ 271800Z 31010KT 10SM CLR M04/M16 A3032 710 40 -1400 310/10 RMK AO2
94908KDBQ DBQ20071127120509611/27/07 12:05:31  5-MIN KDBQ 271805Z 31010KT 10SM CLR M04/M16 A3033 700 42 -1400 310/10 RMK AO2
94908KDBQ DBQ20071127121009611/27/07 12:10:31  5-MIN KDBQ 271810Z 32007KT 10SM CLR M04/M16 A3033 700 42 -1400 320/07 RMK AO2
94908KDBQ DBQ20071127121509611/27/07 12:15:31  5-MIN KDBQ 271815Z 34005KT 10SM CLR M04/M16 A3033 700 40 -1400 340/05 RMK AO2
94908KDBQ DBQ20071127122009611/27/07 12:20:31  5-MIN KDBQ 271820Z 32005KT 10SM CLR M04/M16 A3033 700 38 -1400 320/05 RMK AO2
94908KDBQ DBQ20071127122509611/27/07 12:25:31  5-MIN KDBQ 271825Z 32011KT 10SM CLR M04/M16 A3033 700 38 -1400 320/11 RMK AO2
94908KDBQ DBQ20071127123009611/27/07 12:30:31  5-MIN KDBQ 271830Z 35008KT 10SM CLR M04/M16 A3033 700 40 -1400 340/08 RMK AO2
94908KDBQ DBQ20071127123509611/27/07 12:35:31  5-MIN KDBQ 271835Z 01008KT 10SM CLR M03/M17 A3032 710 35 -1300 360/08 RMK AO2
94908KDBQ DBQ20071127124009611/27/07 12:40:31  5-MIN KDBQ 271840Z 02006KT 10SM CLR M04/M17 A3031 720 37 -1300 020/06 RMK AO2
94908KDBQ DBQ20071127124509611/27/07 12:45:31  5-MIN KDBQ 271845Z 02010KT 10SM CLR M03/M16 A3032 710 37 -1300 020/10 RMK AO2
94908KDBQ DBQ20071127125011311/27/07 12:50:31  5-MIN KDBQ 271850Z 35011KT 10SM CLR M03/M16 A3032 710 38 -1300 350/11 RMK AO2 SLP282 T10331156
94908KDBQ DBQ20071127125509611/27/07 12:55:31  5-MIN KDBQ 271855Z 36007KT 10SM CLR M04/M17 A3031 720 37 -1300 360/07 RMK AO2
94908KDBQ DBQ20071127130009611/27/07 13:00:31  5-MIN KDBQ 271900Z 35007KT 10SM CLR M03/M16 A3031 720 37 -1300 350/07 RMK AO2
94908KDBQ DBQ20071127130509611/27/07 13:05:31  5-MIN KDBQ 271905Z 34010KT 10SM CLR M03/M16 A3032 710 37 -1300 340/10 RMK AO2
94908KDBQ DBQ20071127131009611/27/07 13:10:31  5-MIN KDBQ 271910Z 36007KT 10SM CLR M03/M16 A3031 720 37 -1300 360/07 RMK AO2
94908KDBQ DBQ20071127131509611/27/07 13:15:31  5-MIN KDBQ 271915Z 36008KT 10SM CLR M03/M16 A3031 720 37 -1300 360/08 RMK AO2
94908KDBQ DBQ20071127132009611/27/07 13:20:31  5-MIN KDBQ 271920Z 03005KT 10SM CLR M04/M16 A3032 710 38 -1400 030/05 RMK AO2
94908KDBQ DBQ20071127132509611/27/07 13:25:31  5-MIN KDBQ 271925Z 34007KT 10SM CLR M03/M16 A3032 710 38 -1300 340/07 RMK AO2
94908KDBQ DBQ20071127133009611/27/07 13:30:31  5-MIN KDBQ 271930Z 33007KT 10SM CLR M03/M16 A3032 710 37 -1300 330/07 RMK AO2
94908KDBQ DBQ20071127133509611/27/07 13:35:31  5-MIN KDBQ 271935Z 33004KT 10SM CLR M04/M16 A3032 710 38 -1400 330/04 RMK AO2
94908KDBQ DBQ20071127134009611/27/07 13:40:31  5-MIN KDBQ 271940Z 34006KT 10SM CLR M03/M16 A3033 700 37 -1300 340/06 RMK AO2
94908KDBQ DBQ20071127134509611/27/07 13:45:31  5-MIN KDBQ 271945Z 01004KT 10SM CLR M03/M16 A3033 700 35 -1200 360/04 RMK AO2
94908KDBQ DBQ20071127135011311/27/07 13:50:31  5-MIN KDBQ 271950Z 36003KT 10SM CLR M03/M16 A3032 710 37 -1300 360/03 RMK AO2 SLP284 T10331161
94908KDBQ DBQ20071127135509611/27/07 13:55:31  5-MIN KDBQ 271955Z 35004KT 10SM CLR M03/M16 A3032 710 37 -1300 350/04 RMK AO2
94908KDBQ DBQ20071127140009611/27/07 14:00:31  5-MIN KDBQ 272000Z 32006KT 10SM CLR M03/M17 A3032 710 35 -1300 320/06 RMK AO2
94908KDBQ DBQ20071127140509611/27/07 14:05:31  5-MIN KDBQ 272005Z 02006KT 10SM CLR M03/M17 A3032 710 34 -1200 020/06 RMK AO2
94908KDBQ DBQ20071127141009611/27/07 14:10:31  5-MIN KDBQ 272010Z VRB04KT 10SM CLR M03/M17 A3032 710 34 -1200 VRB/04 RMK AO2
94908KDBQ DBQ20071127141509611/27/07 14:15:31  5-MIN KDBQ 272015Z 02007KT 10SM CLR M03/M17 A3031 720 34 -1200 020/07 RMK AO2
94908KDBQ DBQ20071127142009611/27/07 14:20:31  5-MIN KDBQ 272020Z 03006KT 10SM CLR M03/M17 A3031 720 32 -1200 030/06 RMK AO2
94908KDBQ DBQ20071127142509611/27/07 14:25:31  5-MIN KDBQ 272025Z 01006KT 10SM CLR M03/M17 A3031 720 34 -1200 010/06 RMK AO2
94908KDBQ DBQ20071127143009611/27/07 14:30:31  5-MIN KDBQ 272030Z 35005KT 10SM CLR M03/M17 A3031 720 32 -1200 350/05 RMK AO2
94908KDBQ DBQ20071127143509611/27/07 14:35:31  5-MIN KDBQ 272035Z 01005KT 10SM CLR M03/M17 A3031 720 34 -1200 010/05 RMK AO2
94908KDBQ DBQ20071127144009611/27/07 14:40:31  5-MIN KDBQ 272040Z 35005KT 10SM CLR M03/M17 A3031 720 32 -1200 350/05 RMK AO2
94908KDBQ DBQ20071127144509611/27/07 14:45:31  5-MIN KDBQ 272045Z 35004KT 10SM CLR M03/M17 A3032 710 32 -1200 350/04 RMK AO2
94908KDBQ DBQ20071127145011911/27/07 14:50:31  5-MIN KDBQ 272050Z 34005KT 10SM CLR M03/M17 A3032 710 34 -1200 340/05 RMK AO2 SLP284 T10281167 51017
94908KDBQ DBQ20071127145509611/27/07 14:55:31  5-MIN KDBQ 272055Z 36004KT 10SM CLR M03/M17 A3033 710 34 -1200 360/04 RMK AO2
94908KDBQ DBQ20071127150009611/27/07 15:00:31  5-MIN KDBQ 272100Z 01004KT 10SM CLR M03/M17 A3032 710 33 -1300 010/04 RMK AO2
94908KDBQ DBQ20071127150509611/27/07 15:05:31  5-MIN KDBQ 272105Z 03003KT 10SM CLR M03/M17 A3032 710 34 -1200 030/03 RMK AO2
94908KDBQ DBQ20071127151009611/27/07 15:10:31  5-MIN KDBQ 272110Z 00000KT 10SM CLR M03/M17 A3032 710 33 -1300 000/00 RMK AO2
94908KDBQ DBQ20071127151509611/27/07 15:15:31  5-MIN KDBQ 272115Z 00000KT 10SM CLR M03/M17 A3032 710 33 -1300 000/00 RMK AO2
94908KDBQ DBQ20071127152009611/27/07 15:20:31  5-MIN KDBQ 272120Z 00000KT 10SM CLR M03/M17 A3032 710 33 -1300 000/00 RMK AO2
94908KDBQ DBQ20071127152509611/27/07 15:25:31  5-MIN KDBQ 272125Z 00000KT 10SM CLR M04/M18 A3032 710 33 -1300 000/00 RMK AO2
94908KDBQ DBQ20071127153009611/27/07 15:30:31  5-MIN KDBQ 272130Z 00000KT 10SM CLR M04/M17 A3032 710 35 -1300 000/00 RMK AO2
94908KDBQ DBQ20071127153509611/27/07 15:35:31  5-MIN KDBQ 272135Z 00000KT 10SM CLR M04/M17 A3032 710 37 -1300 000/00 RMK AO2
94908KDBQ DBQ20071127154009611/27/07 15:40:31  5-MIN KDBQ 272140Z 00000KT 10SM CLR M04/M17 A3033 700 37 -1400 000/00 RMK AO2
94908KDBQ DBQ20071127154509611/27/07 15:45:31  5-MIN KDBQ 272145Z 00000KT 10SM CLR M04/M17 A3033 700 37 -1400 000/00 RMK AO2
94908KDBQ DBQ20071127155011311/27/07 15:50:31  5-MIN KDBQ 272150Z 00000KT 10SM CLR M04/M15 A3034 700 42 -1400 000/00 RMK AO2 SLP287 T10391150
94908KDBQ DBQ20071127155509611/27/07 15:55:31  5-MIN KDBQ 272155Z 00000KT 10SM CLR M04/M14 A3033 700 46 -1400 000/00 RMK AO2
94908KDBQ DBQ20071127160009611/27/07 16:00:31  5-MIN KDBQ 272200Z 00000KT 10SM CLR M04/M14 A3033 700 44 -1400 000/00 RMK AO2
94908KDBQ DBQ20071127160509611/27/07 16:05:31  5-MIN KDBQ 272205Z 00000KT 10SM CLR M04/M17 A3033 700 37 -1400 000/00 RMK AO2
94908KDBQ DBQ20071127161009611/27/07 16:10:31  5-MIN KDBQ 272210Z 00000KT 10SM CLR M04/M15 A3033 700 42 -1400 000/00 RMK AO2
94908KDBQ DBQ20071127161509611/27/07 16:15:31  5-MIN KDBQ 272215Z 05004KT 10SM CLR M04/M14 A3032 710 48 -1400 050/04 RMK AO2
94908KDBQ DBQ20071127162009611/27/07 16:20:31  5-MIN KDBQ 272220Z 05003KT 10SM CLR M05/M14 A3033 710 50 -1500 050/03 RMK AO2
94908KDBQ DBQ20071127162509611/27/07 16:25:31  5-MIN KDBQ 272225Z 04003KT 10SM CLR M05/M13 A3032 710 52 -1500 040/03 RMK AO2
94908KDBQ DBQ20071127163009611/27/07 16:30:31  5-MIN KDBQ 272230Z 05004KT 10SM CLR M05/M14 A3032 710 50 -1500 050/04 RMK AO2
94908KDBQ DBQ20071127163509611/27/07 16:35:31  5-MIN KDBQ 272235Z 00000KT 10SM CLR M05/M14 A3033 700 48 -1500 000/00 RMK AO2
94908KDBQ DBQ20071127164009611/27/07 16:40:31  5-MIN KDBQ 272240Z 00000KT 10SM CLR M05/M14 A3034 700 48 -1500 000/00 RMK AO2
94908KDBQ DBQ20071127164509611/27/07 16:45:31  5-MIN KDBQ 272245Z 00000KT 10SM CLR M04/M15 A3033 700 44 -1400 000/00 RMK AO2
94908KDBQ DBQ20071127165011311/27/07 16:50:31  5-MIN KDBQ 272250Z 00000KT 10SM CLR M04/M15 A3033 700 44 -1400 000/00 RMK AO2 SLP286 T10441150
94908KDBQ DBQ20071127165509611/27/07 16:55:31  5-MIN KDBQ 272255Z 00000KT 10SM CLR M04/M14 A3033 710 48 -1400 000/00 RMK AO2
94908KDBQ DBQ20071127170010311/27/07 17:00:31  5-MIN KDBQ 272300Z 09004KT 10SM CLR M04/M13 A3031 720 50 -1400 090/04 RMK AO2 PRESFR
94908KDBQ DBQ20071127170509611/27/07 17:05:31  5-MIN KDBQ 272305Z 09004KT 10SM CLR M05/M13 A3031 720 52 -1500 090/04 RMK AO2
94908KDBQ DBQ20071127171009611/27/07 17:10:31  5-MIN KDBQ 272310Z 08005KT 10SM CLR M05/M13 A3031 720 52 -1500 080/05 RMK AO2
94908KDBQ DBQ20071127171509611/27/07 17:15:31  5-MIN KDBQ 272315Z 10003KT 10SM CLR M05/M13 A3031 720 52 -1500 100/03 RMK AO2
94908KDBQ DBQ20071127172009611/27/07 17:20:31  5-MIN KDBQ 272320Z 00000KT 10SM CLR M05/M14 A3032 710 50 -1500 000/00 RMK AO2
94908KDBQ DBQ20071127172509611/27/07 17:25:31  5-MIN KDBQ 272325Z 00000KT 10SM CLR M05/M13 A3032 710 52 -1500 000/00 RMK AO2
94908KDBQ DBQ20071127173009611/27/07 17:30:31  5-MIN KDBQ 272330Z 00000KT 10SM CLR M05/M13 A3032 710 55 -1500 000/00 RMK AO2
94908KDBQ DBQ20071127173509611/27/07 17:35:31  5-MIN KDBQ 272335Z 12003KT 10SM CLR M05/M13 A3032 710 52 -1500 120/03 RMK AO2
94908KDBQ DBQ20071127174009611/27/07 17:40:31  5-MIN KDBQ 272340Z 00000KT 10SM CLR M05/M13 A3032 710 55 -1500 000/00 RMK AO2
94908KDBQ DBQ20071127174509611/27/07 17:45:31  5-MIN KDBQ 272345Z 11003KT 10SM CLR M06/M13 A3032 710 57 -1600 110/03 RMK AO2
94908KDBQ DBQ20071127175013111/27/07 17:50:31  5-MIN KDBQ 272350Z 10003KT 10SM CLR M05/M13 A3032 710 55 -1500 100/03 RMK AO2 SLP282 T10501128 11028 21056 55003
94908KDBQ DBQ20071127175509611/27/07 17:55:31  5-MIN KDBQ 272355Z 09003KT 10SM CLR M06/M12 A3031 720 59 -1600 090/03 RMK AO2
94908KDBQ DBQ20071127180009611/27/07 18:00:31  5-MIN KDBQ 280000Z 10004KT 10SM CLR M06/M12 A3032 710 59 -1600 100/04 RMK AO2
94908KDBQ DBQ20071127180509611/27/07 18:05:31  5-MIN KDBQ 280005Z 10004KT 10SM CLR M06/M12 A3031 720 59 -1600 090/04 RMK AO2
94908KDBQ DBQ20071127181009611/27/07 18:10:31  5-MIN KDBQ 280010Z 10004KT 10SM CLR M06/M13 A3031 720 57 -1600 100/04 RMK AO2
94908KDBQ DBQ20071127181509611/27/07 18:15:31  5-MIN KDBQ 280015Z 10004KT 10SM CLR M06/M13 A3031 720 57 -1600 100/04 RMK AO2
94908KDBQ DBQ20071127182009611/27/07 18:20:31  5-MIN KDBQ 280020Z 10004KT 10SM CLR M06/M12 A3031 720 59 -1600 100/04 RMK AO2
94908KDBQ DBQ20071127182509611/27/07 18:25:31  5-MIN KDBQ 280025Z 10004KT 10SM CLR M06/M12 A3030 730 62 -1600 100/04 RMK AO2
94908KDBQ DBQ20071127183009611/27/07 18:30:31  5-MIN KDBQ 280030Z 11004KT 10SM CLR M06/M13 A3030 730 59 -1600 110/04 RMK AO2
94908KDBQ DBQ20071127183509611/27/07 18:35:31  5-MIN KDBQ 280035Z 11005KT 10SM CLR M06/M13 A3030 730 57 -1600 110/05 RMK AO2
94908KDBQ DBQ20071127184009611/27/07 18:40:31  5-MIN KDBQ 280040Z 11004KT 10SM CLR M06/M13 A3030 730 57 -1600 110/04 RMK AO2
94908KDBQ DBQ20071127184509611/27/07 18:45:31  5-MIN KDBQ 280045Z 11005KT 10SM CLR M07/M13 A3030 730 59 -1700 110/05 RMK AO2
94908KDBQ DBQ20071127185011311/27/07 18:50:31  5-MIN KDBQ 280050Z 11005KT 10SM CLR M07/M13 A3030 730 59 -1700 110/05 RMK AO2 SLP278 T10671133
94908KDBQ DBQ20071127185509611/27/07 18:55:31  5-MIN KDBQ 280055Z 11005KT 10SM CLR M06/M13 A3029 730 57 -1600 110/05 RMK AO2
94908KDBQ DBQ20071127190009611/27/07 19:00:31  5-MIN KDBQ 280100Z 12006KT 10SM CLR M06/M14 A3029 730 54 -1600 120/06 RMK AO2
94908KDBQ DBQ20071127190509611/27/07 19:05:31  5-MIN KDBQ 280105Z 12006KT 10SM CLR M06/M13 A3029 730 57 -1600 120/06 RMK AO2
94908KDBQ DBQ20071127191009611/27/07 19:10:31  5-MIN KDBQ 280110Z 12005KT 10SM CLR M06/M14 A3029 740 54 -1600 120/05 RMK AO2
94908KDBQ DBQ20071127191509611/27/07 19:15:31  5-MIN KDBQ 280115Z 11006KT 10SM CLR M07/M13 A3029 740 59 -1700 110/06 RMK AO2
94908KDBQ DBQ20071127192009611/27/07 19:20:31  5-MIN KDBQ 280120Z 12005KT 10SM CLR M07/M13 A3029 740 59 -1700 120/05 RMK AO2
94908KDBQ DBQ20071127192509611/27/07 19:25:31  5-MIN KDBQ 280125Z 12006KT 10SM CLR M07/M13 A3028 740 59 -1700 120/06 RMK AO2
94908KDBQ DBQ20071127193009611/27/07 19:30:31  5-MIN KDBQ 280130Z 12007KT 10SM CLR M06/M13 A3028 750 57 -1600 120/07 RMK AO2
94908KDBQ DBQ20071127193509611/27/07 19:35:31  5-MIN KDBQ 280135Z 11007KT 10SM CLR M06/M14 A3028 750 54 -1600 110/07 RMK AO2
94908KDBQ DBQ20071127194009611/27/07 19:40:31  5-MIN KDBQ 280140Z 11007KT 10SM CLR M06/M14 A3027 760 54 -1600 110/07 RMK AO2
94908KDBQ DBQ20071127194509611/27/07 19:45:31  5-MIN KDBQ 280145Z 12006KT 10SM CLR M06/M14 A3027 760 54 -1600 110/06 RMK AO2
94908KDBQ DBQ20071127195011311/27/07 19:50:31  5-MIN KDBQ 280150Z 12005KT 10SM CLR M06/M14 A3027 760 54 -1600 120/05 RMK AO2 SLP268 T10611139
94908KDBQ DBQ20071127195510111/27/07 19:55:31  5-MIN KDBQ 280155Z AUTO 13005KT 10SM CLR M06/M14 A3027 760 54 -1600 130/05 RMK AO2
94908KDBQ DBQ20071127200010111/27/07 20:00:31  5-MIN KDBQ 280200Z AUTO 13005KT 10SM CLR M06/M14 A3027 760 54 -1600 130/05 RMK AO2
94908KDBQ DBQ20071127200510111/27/07 20:05:31  5-MIN KDBQ 280205Z AUTO 12006KT 10SM CLR M06/M14 A3027 760 54 -1600 120/06 RMK AO2
94908KDBQ DBQ20071127201010111/27/07 20:10:31  5-MIN KDBQ 280210Z AUTO 12006KT 10SM CLR M06/M14 A3027 760 54 -1600 120/06 RMK AO2
94908KDBQ DBQ20071127201510111/27/07 20:15:31  5-MIN KDBQ 280215Z AUTO 11006KT 10SM CLR M07/M14 A3026 760 57 -1600 110/06 RMK AO2
94908KDBQ DBQ20071127202010111/27/07 20:20:31  5-MIN KDBQ 280220Z AUTO 11006KT 10SM CLR M07/M13 A3026 760 59 -1600 110/06 RMK AO2
94908KDBQ DBQ20071127202510111/27/07 20:25:31  5-MIN KDBQ 280225Z AUTO 11005KT 10SM CLR M06/M13 A3027 760 57 -1600 110/05 RMK AO2
94908KDBQ DBQ20071127203010111/27/07 20:30:31  5-MIN KDBQ 280230Z AUTO 10004KT 10SM CLR M07/M13 A3027 760 59 -1600 100/04 RMK AO2
94908KDBQ DBQ20071127203510111/27/07 20:35:31  5-MIN KDBQ 280235Z AUTO 10005KT 10SM CLR M07/M13 A3026 760 59 -1600 100/05 RMK AO2
94908KDBQ DBQ20071127204010111/27/07 20:40:31  5-MIN KDBQ 280240Z AUTO 11006KT 10SM CLR M07/M13 A3026 760 59 -1600 100/06 RMK AO2
94908KDBQ DBQ20071127204510111/27/07 20:45:31  5-MIN KDBQ 280245Z AUTO 11006KT 10SM CLR M07/M13 A3026 770 59 -1600 110/06 RMK AO2
94908KDBQ DBQ20071127205012411/27/07 20:50:31  5-MIN KDBQ 280250Z AUTO 11005KT 10SM CLR M07/M13 A3026 770 59 -1600 110/05 RMK AO2 SLP264 T10671133 58003
94908KDBQ DBQ20071127205510111/27/07 20:55:31  5-MIN KDBQ 280255Z AUTO 11005KT 10SM CLR M07/M13 A3026 770 59 -1600 110/05 RMK AO2
94908KDBQ DBQ20071127210010111/27/07 21:00:31  5-MIN KDBQ 280300Z AUTO 11005KT 10SM CLR M07/M13 A3026 770 59 -1600 100/05 RMK AO2
94908KDBQ DBQ20071127210510111/27/07 21:05:31  5-MIN KDBQ 280305Z AUTO 12004KT 10SM CLR M07/M13 A3026 770 59 -1600 110/04 RMK AO2
94908KDBQ DBQ20071127211010111/27/07 21:10:31  5-MIN KDBQ 280310Z AUTO 12005KT 10SM CLR M07/M13 A3026 770 59 -1600 120/05 RMK AO2
94908KDBQ DBQ20071127211510111/27/07 21:15:31  5-MIN KDBQ 280315Z AUTO 12005KT 10SM CLR M06/M13 A3026 760 57 -1600 110/05 RMK AO2
94908KDBQ DBQ20071127212010111/27/07 21:20:31  5-MIN KDBQ 280320Z AUTO 12006KT 10SM CLR M06/M13 A3026 770 57 -1600 120/06 RMK AO2
94908KDBQ DBQ20071127212510111/27/07 21:25:31  5-MIN KDBQ 280325Z AUTO 13005KT 10SM CLR M06/M14 A3026 760 54 -1600 130/05 RMK AO2
94908KDBQ DBQ20071127213010111/27/07 21:30:31  5-MIN KDBQ 280330Z AUTO 12006KT 10SM CLR M06/M14 A3026 760 54 -1600 120/06 RMK AO2
94908KDBQ DBQ20071127213510111/27/07 21:35:31  5-MIN KDBQ 280335Z AUTO 12006KT 10SM CLR M06/M14 A3026 770 52 -1500 120/06 RMK AO2
94908KDBQ DBQ20071127214010111/27/07 21:40:31  5-MIN KDBQ 280340Z AUTO 13006KT 10SM CLR M06/M14 A3026 770 52 -1500 120/06 RMK AO2
94908KDBQ DBQ20071127214510111/27/07 21:45:31  5-MIN KDBQ 280345Z AUTO 13007KT 10SM CLR M06/M14 A3026 770 52 -1500 130/07 RMK AO2
94908KDBQ DBQ20071127215011811/27/07 21:50:31  5-MIN KDBQ 280350Z AUTO 13007KT 10SM CLR M06/M14 A3026 770 52 -1500 130/07 RMK AO2 SLP264 T10561139
94908KDBQ DBQ20071127215510111/27/07 21:55:31  5-MIN KDBQ 280355Z AUTO 13007KT 10SM CLR M06/M14 A3025 770 52 -1500 130/07 RMK AO2
94908KDBQ DBQ20071127220010111/27/07 22:00:31  5-MIN KDBQ 280400Z AUTO 13007KT 10SM CLR M06/M14 A3025 770 52 -1500 130/07 RMK AO2
94908KDBQ DBQ20071127220510111/27/07 22:05:31  5-MIN KDBQ 280405Z AUTO 13008KT 10SM CLR M06/M14 A3025 780 52 -1500 130/08 RMK AO2
94908KDBQ DBQ20071127221010111/27/07 22:10:31  5-MIN KDBQ 280410Z AUTO 13007KT 10SM CLR M06/M14 A3025 780 52 -1500 130/07 RMK AO2
94908KDBQ DBQ20071127221510111/27/07 22:15:31  5-MIN KDBQ 280415Z AUTO 14008KT 10SM CLR M06/M13 A3025 780 54 -1500 140/08 RMK AO2
94908KDBQ DBQ20071127222010111/27/07 22:20:31  5-MIN KDBQ 280420Z AUTO 14007KT 10SM CLR M06/M13 A3025 780 54 -1500 140/07 RMK AO2
94908KDBQ DBQ20071127222510111/27/07 22:25:31  5-MIN KDBQ 280425Z AUTO 14008KT 10SM CLR M06/M13 A3024 780 54 -1500 140/08 RMK AO2
94908KDBQ DBQ20071127223010111/27/07 22:30:31  5-MIN KDBQ 280430Z AUTO 13010KT 10SM CLR M06/M13 A3024 780 54 -1500 130/10 RMK AO2
94908KDBQ DBQ20071127223510111/27/07 22:35:31  5-MIN KDBQ 280435Z AUTO 14010KT 10SM CLR M05/M13 A3024 780 52 -1400 130/10 RMK AO2
94908KDBQ DBQ20071127224010111/27/07 22:40:31  5-MIN KDBQ 280440Z AUTO 14009KT 10SM CLR M05/M13 A3024 780 52 -1400 140/09 RMK AO2
94908KDBQ DBQ20071127224510111/27/07 22:45:31  5-MIN KDBQ 280445Z AUTO 13009KT 10SM CLR M05/M13 A3024 780 52 -1400 130/09 RMK AO2
94908KDBQ DBQ20071127225011811/27/07 22:50:31  5-MIN KDBQ 280450Z AUTO 13011KT 10SM CLR M05/M13 A3023 790 52 -1400 130/11 RMK AO2 SLP253 T10501133
94908KDBQ DBQ20071127225510111/27/07 22:55:31  5-MIN KDBQ 280455Z AUTO 13011KT 10SM CLR M05/M13 A3022 800 52 -1400 130/11 RMK AO2
94908KDBQ DBQ20071127230010811/27/07 23:00:31  5-MIN KDBQ 280500Z AUTO 13013KT 10SM CLR M05/M13 A3021 810 52 -1400 130/13 RMK AO2 PRESFR
94908KDBQ DBQ20071127230510111/27/07 23:05:31  5-MIN KDBQ 280505Z AUTO 13012KT 10SM CLR M05/M13 A3021 810 52 -1400 130/12 RMK AO2
94908KDBQ DBQ20071127231010111/27/07 23:10:31  5-MIN KDBQ 280510Z AUTO 13014KT 10SM CLR M05/M13 A3021 810 52 -1400 130/14 RMK AO2
94908KDBQ DBQ20071127231510111/27/07 23:15:31  5-MIN KDBQ 280515Z AUTO 14014KT 10SM CLR M05/M13 A3020 820 52 -1400 130/14 RMK AO2
94908KDBQ DBQ20071127232010711/27/07 23:20:31  5-MIN KDBQ 280520Z AUTO 14012G18KT 10SM CLR M05/M13 A3020 820 55 -1400 140/12G18 RMK AO2
94908KDBQ DBQ20071127232510711/27/07 23:25:31  5-MIN KDBQ 280525Z AUTO 13013G20KT 10SM CLR M05/M13 A3019 830 55 -1300 130/13G20 RMK AO2
94908KDBQ DBQ20071127233010711/27/07 23:30:31  5-MIN KDBQ 280530Z AUTO 13015G20KT 10SM CLR M04/M13 A3019 830 50 -1300 130/15G20 RMK AO2
94908KDBQ DBQ20071127233510111/27/07 23:35:31  5-MIN KDBQ 280535Z AUTO 14013KT 10SM CLR M04/M13 A3019 830 50 -1300 140/13 RMK AO2
94908KDBQ DBQ20071127234010111/27/07 23:40:31  5-MIN KDBQ 280540Z AUTO 14015KT 10SM CLR M04/M13 A3019 830 52 -1300 140/15 RMK AO2
94908KDBQ DBQ20071127234510111/27/07 23:45:31  5-MIN KDBQ 280545Z AUTO 14011KT 10SM CLR M04/M13 A3020 820 52 -1300 140/11 RMK AO2
94908KDBQ DBQ20071127235015211/27/07 23:50:31  5-MIN KDBQ 280550Z AUTO 14012G18KT 10SM CLR M05/M13 A3019 830 55 -1300 140/12G18 RMK AO2 SLP241 T10501128 11044 21067 400001067 56019
94908KDBQ DBQ20071127235510711/27/07 23:55:31  5-MIN KDBQ 280555Z AUTO 14012G18KT 10SM CLR M04/M13 A3019 830 52 -1300 140/12G18 RMK AO2
94908KDBQ DBQ20071128000010111/28/07 00:00:38  5-MIN KDBQ 280600Z AUTO 14012KT 10SM CLR M04/M13 A3019 830 52 -1300 130/12 RMK AO2
94908KDBQ DBQ20071128000510111/28/07 00:05:31  5-MIN KDBQ 280605Z AUTO 14013KT 10SM CLR M04/M13 A3019 830 52 -1300 140/13 RMK AO2
94908KDBQ DBQ20071128001010111/28/07 00:10:31  5-MIN KDBQ 280610Z AUTO 14011KT 10SM CLR M04/M12 A3018 840 55 -1300 140/11 RMK AO2
94908KDBQ DBQ20071128001510111/28/07 00:15:31  5-MIN KDBQ 280615Z AUTO 14014KT 10SM CLR M04/M12 A3018 840 55 -1300 140/14 RMK AO2
94908KDBQ DBQ20071128002010111/28/07 00:20:31  5-MIN KDBQ 280620Z AUTO 14012KT 10SM CLR M04/M12 A3018 840 55 -1300 140/12 RMK AO2
94908KDBQ DBQ20071128002510111/28/07 00:25:31  5-MIN KDBQ 280625Z AUTO 14012KT 10SM CLR M04/M12 A3018 840 55 -1300 140/12 RMK AO2
94908KDBQ DBQ20071128003010111/28/07 00:30:31  5-MIN KDBQ 280630Z AUTO 14013KT 10SM CLR M04/M12 A3017 850 55 -1300 140/13 RMK AO2
94908KDBQ DBQ20071128003510711/28/07 00:35:31  5-MIN KDBQ 280635Z AUTO 14012G19KT 10SM CLR M04/M12 A3016 860 57 -1200 140/12G19 RMK AO2
94908KDBQ DBQ20071128004011411/28/07 00:40:31  5-MIN KDBQ 280640Z AUTO 14011G19KT 10SM CLR M04/M12 A3015 860 57 -1200 140/11G19 RMK AO2 PRESFR
94908KDBQ DBQ20071128004511411/28/07 00:45:31  5-MIN KDBQ 280645Z AUTO 14015G20KT 10SM CLR M04/M12 A3015 870 57 -1200 140/15G20 RMK AO2 PRESFR
94908KDBQ DBQ20071128005012411/28/07 00:50:31  5-MIN KDBQ 280650Z AUTO 15014G20KT 10SM CLR M04/M12 A3014 870 57 -1200 150/14G20 RMK AO2 SLP224 T10441117
94908KDBQ DBQ20071128005510711/28/07 00:55:31  5-MIN KDBQ 280655Z AUTO 15013G19KT 10SM CLR M04/M12 A3014 870 57 -1200 150/13G19 RMK AO2
94908KDBQ DBQ20071128010010111/28/07 01:00:31  5-MIN KDBQ 280700Z AUTO 15014KT 10SM CLR M04/M12 A3014 880 57 -1200 150/14 RMK AO2
94908KDBQ DBQ20071128010510111/28/07 01:05:31  5-MIN KDBQ 280705Z AUTO 15012KT 10SM CLR M04/M12 A3014 880 57 -1200 150/12 RMK AO2
94908KDBQ DBQ20071128011010111/28/07 01:10:31  5-MIN KDBQ 280710Z AUTO 15013KT 10SM CLR M04/M11 A3014 880 60 -1200 150/13 RMK AO2
94908KDBQ DBQ20071128011510111/28/07 01:15:31  5-MIN KDBQ 280715Z AUTO 15014KT 10SM CLR M04/M11 A3013 880 60 -1200 150/14 RMK AO2
94908KDBQ DBQ20071128012010711/28/07 01:20:31  5-MIN KDBQ 280720Z AUTO 14016G21KT 10SM CLR M04/M11 A3013 880 60 -1200 140/16G21 RMK AO2
94908KDBQ DBQ20071128012510711/28/07 01:25:31  5-MIN KDBQ 280725Z AUTO 15014G21KT 10SM CLR M04/M11 A3013 890 57 -1100 150/14G21 RMK AO2
94908KDBQ DBQ20071128013010111/28/07 01:30:31  5-MIN KDBQ 280730Z AUTO 15015KT 10SM CLR M04/M11 A3013 890 57 -1100 150/15 RMK AO2
94908KDBQ DBQ20071128013510111/28/07 01:35:31  5-MIN KDBQ 280735Z AUTO 15015KT 10SM CLR M04/M11 A3013 890 57 -1100 150/15 RMK AO2
94908KDBQ DBQ20071128014010711/28/07 01:40:31  5-MIN KDBQ 280740Z AUTO 15015G21KT 10SM CLR M04/M11 A3012 890 57 -1100 150/15G21 RMK AO2
94908KDBQ DBQ20071128014510711/28/07 01:45:31  5-MIN KDBQ 280745Z AUTO 15014G21KT 10SM CLR M04/M11 A3012 890 57 -1100 150/14G21 RMK AO2
94908KDBQ DBQ20071128015011811/28/07 01:50:31  5-MIN KDBQ 280750Z AUTO 15015KT 10SM CLR M04/M11 A3012 890 60 -1100 150/15 RMK AO2 SLP216 T10391106
94908KDBQ DBQ20071128015510711/28/07 01:55:31  5-MIN KDBQ 280755Z AUTO 15015G21KT 10SM CLR M04/M11 A3012 900 60 -1100 150/15G21 RMK AO2
94908KDBQ DBQ20071128020010711/28/07 02:00:31  5-MIN KDBQ 280800Z AUTO 15015G21KT 10SM CLR M04/M11 A3011 900 60 -1100 140/15G21 RMK AO2
94908KDBQ DBQ20071128020510711/28/07 02:05:31  5-MIN KDBQ 280805Z AUTO 15017G23KT 10SM CLR M04/M11 A3011 910 60 -1100 150/17G23 RMK AO2
94908KDBQ DBQ20071128021010711/28/07 02:10:31  5-MIN KDBQ 280810Z AUTO 15018G24KT 10SM CLR M04/M10 A3011 910 63 -1100 140/18G24 RMK AO2
94908KDBQ DBQ20071128021510711/28/07 02:15:31  5-MIN KDBQ 280815Z AUTO 15017G24KT 10SM CLR M03/M10 A3010 910 60 -1000 150/17G24 RMK AO2
94908KDBQ DBQ20071128022010711/28/07 02:20:31  5-MIN KDBQ 280820Z AUTO 15019G24KT 10SM CLR M03/M10 A3009 920 60 -1000 150/19G24 RMK AO2
94908KDBQ DBQ20071128022510711/28/07 02:25:31  5-MIN KDBQ 280825Z AUTO 15018G25KT 10SM CLR M03/M09 A3009 920 63 -1000 150/18G25 RMK AO2
94908KDBQ DBQ20071128023012511/28/07 02:30:31  5-MIN KDBQ 280830Z AUTO 15018G28KT 10SM CLR M03/M09 A3009 920 63 -1000 150/18G28 RMK AO2 PK WND 14028/0828
94908KDBQ DBQ20071128023512511/28/07 02:35:31  5-MIN KDBQ 280835Z AUTO 15016G28KT 10SM CLR M03/M09 A3009 920 63 -1000 150/16G28 RMK AO2 PK WND 14028/0828
94908KDBQ DBQ20071128024012511/28/07 02:40:31  5-MIN KDBQ 280840Z AUTO 15015G23KT 10SM CLR M03/M09 A3009 920 65 -1000 150/15G23 RMK AO2 PK WND 14028/0828
94908KDBQ DBQ20071128024512411/28/07 02:45:31  5-MIN KDBQ 280845Z AUTO 15016G21KT 10SM CLR M03/M09 A3009 920 63 -900 150/16G21 RMK AO2 PK WND 14028/0828
94908KDBQ DBQ20071128025014711/28/07 02:50:31  5-MIN KDBQ 280850Z AUTO 15016G21KT 10SM CLR M03/M08 A3009 930 66 -900 150/16G21 RMK AO2 PK WND 14028/0828 SLP203 T10281083 58022
94908KDBQ DBQ20071128025510611/28/07 02:55:31  5-MIN KDBQ 280855Z AUTO 15015G21KT 10SM CLR M03/M08 A3007 940 66 -900 150/15G21 RMK AO2
94908KDBQ DBQ20071128030011311/28/07 03:00:31  5-MIN KDBQ 280900Z AUTO 15017G25KT 10SM CLR M03/M08 A3007 940 66 -900 150/17G25 RMK AO2 PRESFR
94908KDBQ DBQ20071128030511311/28/07 03:05:31  5-MIN KDBQ 280905Z AUTO 15013G25KT 10SM CLR M02/M08 A3006 950 66 -800 150/13G25 RMK AO2 PRESFR
94908KDBQ DBQ20071128031010611/28/07 03:10:31  5-MIN KDBQ 280910Z AUTO 15017G23KT 10SM CLR M02/M08 A3006 950 66 -800 140/17G23 RMK AO2
94908KDBQ DBQ20071128031510611/28/07 03:15:31  5-MIN KDBQ 280915Z AUTO 15015G23KT 10SM CLR M02/M08 A3006 950 66 -800 150/15G23 RMK AO2
94908KDBQ DBQ20071128032010611/28/07 03:20:31  5-MIN KDBQ 280920Z AUTO 15011G20KT 10SM CLR M02/M08 A3006 950 66 -800 150/11G20 RMK AO2
94908KDBQ DBQ20071128032510611/28/07 03:25:31  5-MIN KDBQ 280925Z AUTO 16014G20KT 10SM CLR M02/M08 A3006 950 66 -800 150/14G20 RMK AO2
94908KDBQ DBQ20071128033010611/28/07 03:30:31  5-MIN KDBQ 280930Z AUTO 15015G20KT 10SM CLR M02/M07 A3006 950 69 -800 150/15G20 RMK AO2
94908KDBQ DBQ20071128033510611/28/07 03:35:31  5-MIN KDBQ 280935Z AUTO 15015G20KT 10SM CLR M02/M07 A3005 960 69 -800 150/15G20 RMK AO2
94908KDBQ DBQ20071128034011311/28/07 03:40:31  5-MIN KDBQ 280940Z AUTO 15016G22KT 10SM CLR M02/M07 A3004 970 69 -800 150/16G22 RMK AO2 PRESFR
94908KDBQ DBQ20071128034510611/28/07 03:45:31  5-MIN KDBQ 280945Z AUTO 15018G24KT 10SM CLR M02/M07 A3003 970 72 -800 150/18G24 RMK AO2
94908KDBQ DBQ20071128035012311/28/07 03:50:31  5-MIN KDBQ 280950Z AUTO 15019G24KT 10SM CLR M02/M07 A3003 980 72 -800 150/19G24 RMK AO2 SLP183 T10221067
94908KDBQ DBQ20071128035513111/28/07 03:55:31  5-MIN KDBQ 280955Z AUTO 15017G27KT 10SM CLR M02/M07 A3002 990 72 -800 150/17G27 RMK AO2 PK WND 15027/0954 PRESFR
94908KDBQ DBQ20071128040013111/28/07 04:00:31  5-MIN KDBQ 281000Z AUTO 15019G27KT 10SM CLR M02/M07 A3001 990 72 -800 140/19G27 RMK AO2 PK WND 15027/0954 PRESFR
94908KDBQ DBQ20071128040513211/28/07 04:05:31  5-MIN KDBQ 281005Z AUTO 15019G26KT 10SM CLR M02/M07 A3001 1000 72 -800 150/19G26 RMK AO2 PK WND 15027/0954 PRESFR
94908KDBQ DBQ20071128041012511/28/07 04:10:31  5-MIN KDBQ 281010Z AUTO 15018G28KT 10SM CLR M02/M07 A3000 1000 72 -800 150/18G28 RMK AO2 PK WND 15028/1006
94908KDBQ DBQ20071128041512511/28/07 04:15:31  5-MIN KDBQ 281015Z AUTO 15019G28KT 10SM CLR M02/M07 A3000 1010 72 -800 150/19G28 RMK AO2 PK WND 15028/1006
94908KDBQ DBQ20071128042012511/28/07 04:20:31  5-MIN KDBQ 281020Z AUTO 15018G27KT 10SM CLR M02/M07 A3000 1000 72 -800 150/18G27 RMK AO2 PK WND 15028/1006
94908KDBQ DBQ20071128042512511/28/07 04:25:31  5-MIN KDBQ 281025Z AUTO 15018G25KT 10SM CLR M02/M07 A3000 1010 72 -800 150/18G25 RMK AO2 PK WND 15028/1006
94908KDBQ DBQ20071128043012511/28/07 04:30:31  5-MIN KDBQ 281030Z AUTO 15016G25KT 10SM CLR M03/M07 A3000 1000 75 -800 150/16G25 RMK AO2 PK WND 15028/1006
94908KDBQ DBQ20071128043512511/28/07 04:35:31  5-MIN KDBQ 281035Z AUTO 15017G23KT 10SM CLR M03/M07 A3000 1000 75 -800 150/17G23 RMK AO2 PK WND 15028/1006
94908KDBQ DBQ20071128044012511/28/07 04:40:31  5-MIN KDBQ 281040Z AUTO 15017G23KT 10SM CLR M03/M07 A3000 1000 75 -800 150/17G23 RMK AO2 PK WND 15028/1006
94908KDBQ DBQ20071128044511911/28/07 04:45:31  5-MIN KDBQ 281045Z AUTO 15017KT 10SM CLR M03/M06 A3000 1000 78 -800 150/17 RMK AO2 PK WND 15028/1006
94908KDBQ DBQ20071128045014211/28/07 04:50:31  5-MIN KDBQ 281050Z AUTO 15019G23KT 10SM CLR M03/M06 A3000 1000 78 -800 150/19G23 RMK AO2 PK WND 15028/1006 SLP174 T10281061
94908KDBQ DBQ20071128045510711/28/07 04:55:31  5-MIN KDBQ 281055Z AUTO 16017G23KT 10SM CLR M03/M06 A3000 1000 78 -800 150/17G23 RMK AO2
94908KDBQ DBQ20071128050010711/28/07 05:00:31  5-MIN KDBQ 281100Z AUTO 15018G25KT 10SM CLR M02/M06 A3000 1010 75 -800 150/18G25 RMK AO2
94908KDBQ DBQ20071128050510711/28/07 05:05:31  5-MIN KDBQ 281105Z AUTO 15017G25KT 10SM CLR M02/M06 A2999 1020 75 -800 150/17G25 RMK AO2
94908KDBQ DBQ20071128051012511/28/07 05:10:31  5-MIN KDBQ 281110Z AUTO 15019G26KT 10SM CLR M02/M06 A2998 1020 75 -700 150/19G26 RMK AO2 PK WND 15026/1110
94908KDBQ DBQ20071128051513211/28/07 05:15:31  5-MIN KDBQ 281115Z AUTO 15019G26KT 10SM CLR M02/M06 A2997 1030 75 -700 150/19G26 RMK AO2 PK WND 15026/1110 PRESFR
94908KDBQ DBQ20071128052012511/28/07 05:20:31  5-MIN KDBQ 281120Z AUTO 15019G24KT 10SM CLR M02/M06 A2998 1030 75 -700 150/19G24 RMK AO2 PK WND 15026/1110
94908KDBQ DBQ20071128052512511/28/07 05:25:31  5-MIN KDBQ 281125Z AUTO 16019G25KT 10SM CLR M02/M06 A2997 1030 78 -700 160/19G25 RMK AO2 PK WND 15026/1110
94908KDBQ DBQ20071128053012511/28/07 05:30:31  5-MIN KDBQ 281130Z AUTO 15018G25KT 10SM CLR M02/M06 A2997 1030 78 -700 150/18G25 RMK AO2 PK WND 15026/1110
94908KDBQ DBQ20071128053512511/28/07 05:35:31  5-MIN KDBQ 281135Z AUTO 15019G24KT 10SM CLR M02/M06 A2996 1040 78 -700 150/19G24 RMK AO2 PK WND 15026/1110
94908KDBQ DBQ20071128054011911/28/07 05:40:31  5-MIN KDBQ 281140Z AUTO 15017KT 10SM CLR M02/M06 A2996 1040 78 -700 150/17 RMK AO2 PK WND 15026/1110
94908KDBQ DBQ20071128054511911/28/07 05:45:31  5-MIN KDBQ 281145Z AUTO 16017KT 10SM CLR M02/M06 A2997 1030 78 -700 160/17 RMK AO2 PK WND 15026/1110
94908KDBQ DBQ20071128055016011/28/07 05:50:31  5-MIN KDBQ 281150Z AUTO 16017G23KT 10SM CLR M02/M05 A2997 1040 81 -700 160/17G23 RMK AO2 PK WND 15026/1110 SLP162 T10221050 11022 21044 56036
94908KDBQ DBQ20071128055510211/28/07 05:55:31  5-MIN KDBQ 281155Z 16018G23KT 10SM CLR M02/M05 A2996 1040 81 -700 150/18G23 RMK AO2
94908KDBQ DBQ20071128060009611/28/07 06:00:31  5-MIN KDBQ 281200Z 16018KT 10SM CLR M02/M05 A2996 1040 81 -700 150/18 RMK AO2
94908KDBQ DBQ20071128060509611/28/07 06:05:31  5-MIN KDBQ 281205Z 16016KT 10SM CLR M02/M05 A2996 1050 81 -700 160/16 RMK AO2
94908KDBQ DBQ20071128061009611/28/07 06:10:31  5-MIN KDBQ 281210Z 16017KT 10SM CLR M02/M05 A2996 1040 78 -700 160/17 RMK AO2
94908KDBQ DBQ20071128061510211/28/07 06:15:31  5-MIN KDBQ 281215Z 16014G22KT 10SM CLR M02/M05 A2996 1040 78 -700 160/14G22 RMK AO2
94908KDBQ DBQ20071128062009611/28/07 06:20:31  5-MIN KDBQ 281220Z 16013KT 10SM CLR M02/M04 A2996 1040 81 -700 160/13 RMK AO2
94908KDBQ DBQ20071128062509611/28/07 06:25:31  5-MIN KDBQ 281225Z 16014KT 10SM CLR M02/M04 A2996 1050 81 -700 160/14 RMK AO2
94908KDBQ DBQ20071128063010211/28/07 06:30:31  5-MIN KDBQ 281230Z 16013G20KT 10SM CLR M02/M04 A2995 1050 81 -600 160/13G20 RMK AO2
94908KDBQ DBQ20071128063510211/28/07 06:35:31  5-MIN KDBQ 281235Z 16015G20KT 10SM CLR M02/M04 A2995 1050 81 -600 160/15G20 RMK AO2
94908KDBQ DBQ20071128064010211/28/07 06:40:31  5-MIN KDBQ 281240Z 16017G20KT 10SM CLR M02/M04 A2994 1060 81 -600 160/17G20 RMK AO2
94908KDBQ DBQ20071128064509611/28/07 06:45:31  5-MIN KDBQ 281245Z 16018KT 10SM CLR M01/M04 A2994 1060 81 -600 160/18 RMK AO2
94908KDBQ DBQ20071128065011311/28/07 06:50:31  5-MIN KDBQ 281250Z 16016KT 10SM CLR M01/M04 A2995 1060 81 -600 160/16 RMK AO2 SLP156 T10111039
94908KDBQ DBQ20071128065509611/28/07 06:55:31  5-MIN KDBQ 281255Z 16018KT 10SM CLR M01/M04 A2994 1060 78 -500 160/18 RMK AO2
94908KDBQ DBQ20071128070012011/28/07 07:00:31  5-MIN KDBQ 281300Z 16018G26KT 10SM CLR M01/M04 A2993 1070 78 -500 160/18G26 RMK AO2 PK WND 16026/1259
94908KDBQ DBQ20071128070512011/28/07 07:05:31  5-MIN KDBQ 281305Z 17019G26KT 10SM CLR M01/M03 A2993 1070 81 -500 160/19G26 RMK AO2 PK WND 16026/1259
94908KDBQ DBQ20071128071012011/28/07 07:10:31  5-MIN KDBQ 281310Z 17017G24KT 10SM CLR M01/M03 A2993 1070 81 -500 160/17G24 RMK AO2 PK WND 16026/1259
94908KDBQ DBQ20071128071512011/28/07 07:15:31  5-MIN KDBQ 281315Z 16018G23KT 10SM CLR M01/M03 A2993 1070 81 -500 160/18G23 RMK AO2 PK WND 16026/1259
94908KDBQ DBQ20071128072012011/28/07 07:20:31  5-MIN KDBQ 281320Z 16019G23KT 10SM CLR M01/M03 A2993 1070 81 -500 160/19G23 RMK AO2 PK WND 16026/1259
94908KDBQ DBQ20071128072511911/28/07 07:25:31  5-MIN KDBQ 281325Z 16016G23KT 10SM CLR 00/M03 A2993 1070 78 -400 160/16G23 RMK AO2 PK WND 16026/1259
94908KDBQ DBQ20071128073011911/28/07 07:30:31  5-MIN KDBQ 281330Z 17016G22KT 10SM CLR 00/M03 A2993 1070 78 -400 170/16G22 RMK AO2 PK WND 16026/1259
94908KDBQ DBQ20071128073511911/28/07 07:35:31  5-MIN KDBQ 281335Z 17016G22KT 10SM CLR 00/M03 A2993 1070 78 -400 160/16G22 RMK AO2 PK WND 16026/1259
94908KDBQ DBQ20071128074011911/28/07 07:40:31  5-MIN KDBQ 281340Z 17014G22KT 10SM CLR 00/M03 A2993 1070 78 -400 170/14G22 RMK AO2 PK WND 16026/1259
94908KDBQ DBQ20071128074511911/28/07 07:45:31  5-MIN KDBQ 281345Z 17016G20KT 10SM CLR 00/M03 A2993 1070 78 -400 170/16G20 RMK AO2 PK WND 16026/1259
94908KDBQ DBQ20071128075013511/28/07 07:50:31  5-MIN KDBQ 281350Z 17012G20KT 9SM CLR 00/M03 A2993 1070 81 -400 170/12G20 RMK AO2 PK WND 16026/1259 SLP151 T00001028
94908KDBQ DBQ20071128075509411/28/07 07:55:31  5-MIN KDBQ 281355Z 17011KT 9SM CLR 00/M03 A2993 1070 81 -400 170/11 RMK AO2
94908KDBQ DBQ20071128080009411/28/07 08:00:31  5-MIN KDBQ 281400Z 18010KT 9SM CLR 00/M03 A2993 1070 81 -400 180/10 RMK AO2
94908KDBQ DBQ20071128080509411/28/07 08:05:31  5-MIN KDBQ 281405Z 18009KT 9SM CLR 01/M03 A2993 1070 78 -300 180/09 RMK AO2
94908KDBQ DBQ20071128081009411/28/07 08:10:31  5-MIN KDBQ 281410Z 19009KT 9SM CLR 01/M03 A2994 1060 78 -300 190/09 RMK AO2
94908KDBQ DBQ20071128081509411/28/07 08:15:31  5-MIN KDBQ 281415Z 19008KT 9SM CLR 01/M03 A2993 1070 78 -300 190/08 RMK AO2
94908KDBQ DBQ20071128082009411/28/07 08:20:31  5-MIN KDBQ 281420Z 19009KT 9SM CLR 01/M03 A2993 1070 78 -300 190/09 RMK AO2
94908KDBQ DBQ20071128082509411/28/07 08:25:31  5-MIN KDBQ 281425Z 18009KT 9SM CLR 01/M03 A2993 1070 78 -300 180/09 RMK AO2
94908KDBQ DBQ20071128083009411/28/07 08:30:31  5-MIN KDBQ 281430Z 18008KT 9SM CLR 01/M03 A2992 1080 78 -300 180/08 RMK AO2
94908KDBQ DBQ20071128083509411/28/07 08:35:31  5-MIN KDBQ 281435Z 19009KT 9SM CLR 01/M03 A2992 1070 78 -300 190/09 RMK AO2
94908KDBQ DBQ20071128084009411/28/07 08:40:31  5-MIN KDBQ 281440Z 19008KT 9SM CLR 01/M02 A2993 1070 78 -300 190/08 RMK AO2
94908KDBQ DBQ20071128084509511/28/07 08:45:31  5-MIN KDBQ 281445Z 18011KT 10SM CLR 01/M02 A2993 1070 78 -300 180/11 RMK AO2
94908KDBQ DBQ20071128085011811/28/07 08:50:31  5-MIN KDBQ 281450Z 18011KT 10SM CLR 02/M02 A2992 1080 75 -200 180/11 RMK AO2 SLP146 T00171022 56039
94908KDBQ DBQ20071128085510511/28/07 08:55:31  5-MIN KDBQ 281455Z 18012KT 10SM FEW039 SCT060 02/M02 A2993 1070 75 -200 180/12 RMK AO2
94908KDBQ DBQ20071128090009811/28/07 09:00:31  5-MIN KDBQ 281500Z 18011KT 10SM SCT039 02/M02 A2993 1070 72 -100 180/11 RMK AO2
94908KDBQ DBQ20071128090509811/28/07 09:05:31  5-MIN KDBQ 281505Z 19010KT 10SM BKN039 02/M02 A2993 1070 72 -100 190/10 RMK AO2
94908KDBQ DBQ20071128091009811/28/07 09:10:31  5-MIN KDBQ 281510Z 19010KT 10SM BKN039 02/M02 A2992 1070 72 -100 190/10 RMK AO2
94908KDBQ DBQ20071128091509811/28/07 09:15:31  5-MIN KDBQ 281515Z 19011KT 10SM BKN039 03/M02 A2992 1080 69 -100 180/11 RMK AO2
94908KDBQ DBQ20071128092009811/28/07 09:20:31  5-MIN KDBQ 281520Z 19011KT 10SM OVC039 03/M02 A2992 1080 69 -100 190/11 RMK AO2
94908KDBQ DBQ20071128092509511/28/07 09:25:31  5-MIN KDBQ 281525Z 19010KT 10SM OVC039 03/M02 A2991 1080 69 0 190/10 RMK AO2
94908KDBQ DBQ20071128093009511/28/07 09:30:31  5-MIN KDBQ 281530Z 19010KT 10SM OVC037 03/M02 A2991 1090 72 0 190/10 RMK AO2
94908KDBQ DBQ20071128093509511/28/07 09:35:31  5-MIN KDBQ 281535Z 19009KT 10SM OVC039 03/M02 A2990 1090 70 0 190/09 RMK AO2
94908KDBQ DBQ20071128094009511/28/07 09:40:31  5-MIN KDBQ 281540Z 19012KT 10SM OVC039 03/M02 A2991 1090 70 0 190/12 RMK AO2
94908KDBQ DBQ20071128094509711/28/07 09:45:31  5-MIN KDBQ 281545Z 19012KT 10SM OVC039 04/M02 A2990 1090 67 100 190/12 RMK AO2
94908KDBQ DBQ20071128095011411/28/07 09:50:31  5-MIN KDBQ 281550Z 19011KT 10SM OVC039 04/M02 A2990 1090 67 100 190/11 RMK AO2 SLP138 T00391017
94908KDBQ DBQ20071128095509711/28/07 09:55:31  5-MIN KDBQ 281555Z 19012KT 10SM OVC037 04/M02 A2990 1100 67 100 190/12 RMK AO2
94908KDBQ DBQ20071128100009711/28/07 10:00:31  5-MIN KDBQ 281600Z 19009KT 10SM OVC037 04/M02 A2990 1100 67 100 190/09 RMK AO2
94908KDBQ DBQ20071128100509711/28/07 10:05:31  5-MIN KDBQ 281605Z 19010KT 10SM OVC037 04/M02 A2990 1100 64 100 190/10 RMK AO2
94908KDBQ DBQ20071128101009711/28/07 10:10:31  5-MIN KDBQ 281610Z 20010KT 10SM OVC037 04/M02 A2990 1100 64 100 200/10 RMK AO2
94908KDBQ DBQ20071128101509711/28/07 10:15:31  5-MIN KDBQ 281615Z 20012KT 10SM OVC037 04/M02 A2990 1090 64 100 200/12 RMK AO2
94908KDBQ DBQ20071128102009711/28/07 10:20:31  5-MIN KDBQ 281620Z 20012KT 10SM OVC035 04/M02 A2990 1100 64 100 200/12 RMK AO2
94908KDBQ DBQ20071128102509711/28/07 10:25:31  5-MIN KDBQ 281625Z 20012KT 10SM OVC035 04/M02 A2990 1100 64 100 200/12 RMK AO2
94908KDBQ DBQ20071128103009711/28/07 10:30:31  5-MIN KDBQ 281630Z 20012KT 10SM OVC035 04/M02 A2990 1100 64 100 200/12 RMK AO2
94908KDBQ DBQ20071128103509711/28/07 10:35:31  5-MIN KDBQ 281635Z 20011KT 10SM OVC033 05/M02 A2989 1110 62 200 200/11 RMK AO2
94908KDBQ DBQ20071128104009711/28/07 10:40:31  5-MIN KDBQ 281640Z 20011KT 10SM OVC033 05/M02 A2989 1110 62 200 200/11 RMK AO2
94908KDBQ DBQ20071128104509711/28/07 10:45:31  5-MIN KDBQ 281645Z 20011KT 10SM OVC033 05/M02 A2988 1110 62 200 200/11 RMK AO2
94908KDBQ DBQ20071128105011411/28/07 10:50:31  5-MIN KDBQ 281650Z 21009KT 10SM OVC033 05/M02 A2988 1120 62 200 210/09 RMK AO2 SLP130 T00501017
94908KDBQ DBQ20071128105509711/28/07 10:55:31  5-MIN KDBQ 281655Z 21012KT 10SM OVC033 05/M02 A2988 1120 62 200 210/12 RMK AO2
94908KDBQ DBQ20071128110009711/28/07 11:00:31  5-MIN KDBQ 281700Z 21010KT 10SM OVC033 06/M01 A2987 1120 62 300 210/10 RMK AO2
94908KDBQ DBQ20071128110509711/28/07 11:05:31  5-MIN KDBQ 281705Z 22010KT 10SM OVC031 06/M02 A2987 1120 59 300 210/10 RMK AO2
94908KDBQ DBQ20071128111009711/28/07 11:10:31  5-MIN KDBQ 281710Z 22011KT 10SM OVC031 06/M01 A2988 1120 62 300 220/11 RMK AO2
94908KDBQ DBQ20071128111509711/28/07 11:15:31  5-MIN KDBQ 281715Z 22009KT 10SM OVC031 06/M01 A2988 1120 62 300 220/09 RMK AO2
94908KDBQ DBQ20071128112009711/28/07 11:20:31  5-MIN KDBQ 281720Z 22010KT 10SM OVC031 06/M01 A2988 1120 62 300 220/10 RMK AO2
94908KDBQ DBQ20071128112509711/28/07 11:25:31  5-MIN KDBQ 281725Z 22011KT 10SM OVC031 06/M01 A2987 1120 62 300 220/11 RMK AO2
94908KDBQ DBQ20071128113010311/28/07 11:30:31  5-MIN KDBQ 281730Z 22012G19KT 10SM OVC031 06/M01 A2986 1130 62 300 220/12G19 RMK AO2
94908KDBQ DBQ20071128113511711/28/07 11:35:31  5-MIN KDBQ 281735Z 22011G19KT 10SM BKN031 OVC036 06/M01 A2985 1140 60 400 220/11G19 RMK AO2 PRESFR
94908KDBQ DBQ20071128114010411/28/07 11:40:31  5-MIN KDBQ 281740Z 22012KT 10SM BKN029 OVC036 06/M01 A2985 1140 60 400 210/12 RMK AO2
94908KDBQ DBQ20071128114510411/28/07 11:45:31  5-MIN KDBQ 281745Z 21014KT 10SM BKN029 BKN036 06/M01 A2985 1140 60 400 210/14 RMK AO2
94908KDBQ DBQ20071128115013911/28/07 11:50:31  5-MIN KDBQ 281750Z 21012KT 10SM BKN029 OVC036 07/M01 A2985 1150 60 500 210/12 RMK AO2 SLP117 T00671006 10067 21022 56013
94908KDBQ DBQ20071128115511011/28/07 11:55:31  5-MIN KDBQ 281755Z 23015G19KT 10SM BKN029 OVC036 07/M01 A2985 1140 60 500 230/15G19 RMK AO2
94908KDBQ DBQ20071128120011011/28/07 12:00:31  5-MIN KDBQ 281800Z 22013G20KT 10SM BKN029 OVC036 07/M01 A2985 1140 57 500 220/13G20 RMK AO2
94908KDBQ DBQ20071128120510311/28/07 12:05:31  5-MIN KDBQ 281805Z 23013G20KT 10SM OVC029 07/M01 A2985 1140 60 500 230/13G20 RMK AO2
94908KDBQ DBQ20071128121009711/28/07 12:10:31  5-MIN KDBQ 281810Z 23015KT 10SM OVC029 07/M01 A2985 1140 60 500 230/15 RMK AO2
94908KDBQ DBQ20071128121509711/28/07 12:15:31  5-MIN KDBQ 281815Z 23014KT 10SM OVC029 07/M01 A2985 1140 60 500 230/14 RMK AO2
94908KDBQ DBQ20071128122009711/28/07 12:20:31  5-MIN KDBQ 281820Z 23014KT 10SM OVC029 07/M01 A2986 1140 60 400 230/14 RMK AO2
94908KDBQ DBQ20071128122510311/28/07 12:25:31  5-MIN KDBQ 281825Z 23014G20KT 10SM OVC027 06/M01 A2985 1140 62 400 230/14G20 RMK AO2
94908KDBQ DBQ20071128123009711/28/07 12:30:31  5-MIN KDBQ 281830Z 23013KT 10SM OVC027 06/M01 A2985 1140 62 400 230/13 RMK AO2
94908KDBQ DBQ20071128123509711/28/07 12:35:31  5-MIN KDBQ 281835Z 24011KT 10SM OVC027 06/M01 A2985 1140 62 400 240/11 RMK AO2
94908KDBQ DBQ20071128124009711/28/07 12:40:31  5-MIN KDBQ 281840Z 24012KT 10SM OVC027 06/M01 A2984 1150 62 400 240/12 RMK AO2
94908KDBQ DBQ20071128124509611/28/07 12:45:31  5-MIN KDBQ 281845Z 24010KT 10SM OVC027 06/00 A2984 1150 65 400 240/10 RMK AO2
94908KDBQ DBQ20071128125011911/28/07 12:50:31  5-MIN KDBQ 281850Z 25015G20KT 10SM OVC027 07/00 A2984 1150 62 500 250/15G20 RMK AO2 SLP117 T00670000
94908KDBQ DBQ20071128125509611/28/07 12:55:31  5-MIN KDBQ 281855Z 25013KT 10SM OVC027 07/00 A2984 1150 62 500 250/13 RMK AO2
94908KDBQ DBQ20071128130009611/28/07 13:00:31  5-MIN KDBQ 281900Z 25015KT 10SM OVC027 07/00 A2984 1150 62 500 250/15 RMK AO2
94908KDBQ DBQ20071128130510211/28/07 13:05:31  5-MIN KDBQ 281905Z 25013G20KT 10SM OVC027 07/00 A2984 1150 62 500 250/13G20 RMK AO2
94908KDBQ DBQ20071128131009611/28/07 13:10:31  5-MIN KDBQ 281910Z 24013KT 10SM BKN027 07/01 A2983 1160 65 500 240/13 RMK AO2
94908KDBQ DBQ20071128131509611/28/07 13:15:31  5-MIN KDBQ 281915Z 25012KT 10SM BKN027 07/01 A2983 1160 65 500 250/12 RMK AO2
94908KDBQ DBQ20071128132009611/28/07 13:20:31  5-MIN KDBQ 281920Z 25013KT 10SM BKN027 07/01 A2983 1160 65 500 250/13 RMK AO2
94908KDBQ DBQ20071128132509611/28/07 13:25:31  5-MIN KDBQ 281925Z 25013KT 10SM SCT027 07/01 A2983 1160 65 500 240/13 RMK AO2
94908KDBQ DBQ20071128133009611/28/07 13:30:31  5-MIN KDBQ 281930Z 25016KT 10SM FEW029 07/01 A2984 1160 65 500 250/16 RMK AO2
94908KDBQ DBQ20071128133509611/28/07 13:35:31  5-MIN KDBQ 281935Z 25014KT 10SM SCT027 07/01 A2983 1160 65 500 250/14 RMK AO2
94908KDBQ DBQ20071128134009611/28/07 13:40:31  5-MIN KDBQ 281940Z 26012KT 10SM SCT027 07/01 A2984 1160 65 500 260/12 RMK AO2
94908KDBQ DBQ20071128134509611/28/07 13:45:31  5-MIN KDBQ 281945Z 26014KT 10SM SCT025 07/01 A2984 1150 65 500 260/14 RMK AO2
94908KDBQ DBQ20071128135009611/28/07 13:50:31  5-MIN KDBQ 281950Z 26013KT 10SM BKN025 07/01 A2984 1150 65 500 260/13 RMK AO2
94908KDBQ DBQ20071128135510211/28/07 13:55:31  5-MIN KDBQ 281955Z 26016G19KT 10SM BKN025 06/01 A2984 1160 67 400 260/16G19 RMK AO2
94908KDBQ DBQ20071128140009611/28/07 14:00:31  5-MIN KDBQ 282000Z 26013KT 10SM BKN025 06/00 A2984 1150 65 400 260/13 RMK AO2
94908KDBQ DBQ20071128140510111/28/07 14:05:31  5-MIN KDBQ 282005Z 26015G20KT 9SM BKN025 06/00 A2984 1150 65 400 260/15G20 RMK AO2
94908KDBQ DBQ20071128141010111/28/07 14:10:31  5-MIN KDBQ 282010Z 26015G20KT 9SM OVC025 06/00 A2985 1150 65 400 260/15G20 RMK AO2
94908KDBQ DBQ20071128141509511/28/07 14:15:31  5-MIN KDBQ 282015Z 26013KT 9SM OVC025 06/00 A2985 1140 65 400 260/13 RMK AO2
94908KDBQ DBQ20071128142009511/28/07 14:20:31  5-MIN KDBQ 282020Z 27015KT 9SM OVC025 06/00 A2984 1150 67 300 270/15 RMK AO2
94908KDBQ DBQ20071128142509511/28/07 14:25:31  5-MIN KDBQ 282025Z 27017KT 9SM BKN025 06/00 A2985 1150 67 300 270/17 RMK AO2
94908KDBQ DBQ20071128143009511/28/07 14:30:31  5-MIN KDBQ 282030Z 28017KT 9SM BKN025 06/00 A2985 1140 67 300 280/17 RMK AO2
94908KDBQ DBQ20071128143510111/28/07 14:35:31  5-MIN KDBQ 282035Z 28011G21KT 9SM SCT025 06/00 A2984 1150 67 300 280/11G21 RMK AO2
94908KDBQ DBQ20071128144010111/28/07 14:40:31  5-MIN KDBQ 282040Z 28016G21KT 9SM SCT025 05/00 A2985 1140 70 200 280/16G21 RMK AO2
94908KDBQ DBQ20071128144509611/28/07 14:45:31  5-MIN KDBQ 282045Z 28016KT 9SM SCT025 05/M01 A2985 1140 67 300 280/16 RMK AO2
94908KDBQ DBQ20071128145011911/28/07 14:50:31  5-MIN KDBQ 282050Z 28014KT 9SM FEW023 05/M01 A2985 1140 67 300 280/14 RMK AO2 SLP119 T00501006 58025
94908KDBQ DBQ20071128145511211/28/07 14:55:31  5-MIN KDBQ 282055Z AUTO 28017G23KT 9SM FEW023 05/M01 A2986 1140 67 200 280/17G23 RMK AO2 TSNO
94908KDBQ DBQ20071128150011211/28/07 15:00:31  5-MIN KDBQ 282100Z AUTO 29014G23KT 9SM FEW023 04/M01 A2986 1130 70 200 280/14G23 RMK AO2 TSNO
94908KDBQ DBQ20071128150510211/28/07 15:05:31  5-MIN KDBQ 282105Z 28016G22KT 9SM FEW023 04/M01 A2987 1130 67 200 280/16G22 RMK AO2
94908KDBQ DBQ20071128151009911/28/07 15:10:31  5-MIN KDBQ 282110Z 28014G22KT 9SM CLR 04/M01 A2987 1120 70 100 280/14G22 RMK AO2
94908KDBQ DBQ20071128151509911/28/07 15:15:31  5-MIN KDBQ 282115Z 27012G22KT 9SM CLR 04/M01 A2987 1120 70 100 270/12G22 RMK AO2
94908KDBQ DBQ20071128152009911/28/07 15:20:31  5-MIN KDBQ 282120Z 27014G20KT 9SM CLR 04/M02 A2988 1120 67 100 270/14G20 RMK AO2
94908KDBQ DBQ20071128152509711/28/07 15:25:31  5-MIN KDBQ 282125Z 28015G21KT 9SM CLR 03/M02 A2988 1110 70 0 280/15G21 RMK AO2
94908KDBQ DBQ20071128153009811/28/07 15:30:31  5-MIN KDBQ 282130Z 28017G21KT 10SM CLR 03/M02 A2989 1110 67 0 280/17G21 RMK AO2
94908KDBQ DBQ20071128153509811/28/07 15:35:31  5-MIN KDBQ 282135Z 28016G22KT 10SM CLR 03/M03 A2988 1110 67 0 280/16G22 RMK AO2
94908KDBQ DBQ20071128154009811/28/07 15:40:31  5-MIN KDBQ 282140Z 28015G22KT 10SM CLR 03/M03 A2989 1110 67 0 280/15G22 RMK AO2
94908KDBQ DBQ20071128154509811/28/07 15:45:31  5-MIN KDBQ 282145Z 28014G21KT 10SM CLR 03/M03 A2989 1110 64 0 280/14G21 RMK AO2
94908KDBQ DBQ20071128155011211/28/07 15:50:31  5-MIN KDBQ 282150Z 29014KT 10SM CLR 02/M03 A2989 1100 67 -100 290/14 RMK AO2 SLP134 T00221033
94908KDBQ DBQ20071128155509511/28/07 15:55:31  5-MIN KDBQ 282155Z 28012KT 10SM CLR 02/M03 A2990 1100 67 -100 280/12 RMK AO2
94908KDBQ DBQ20071128160010111/28/07 16:00:31  5-MIN KDBQ 282200Z 29015G23KT 10SM CLR 02/M04 A2990 1100 64 -100 280/15G23 RMK AO2
94908KDBQ DBQ20071128160510111/28/07 16:05:31  5-MIN KDBQ 282205Z 28014G23KT 10SM CLR 02/M04 A2990 1100 64 -200 280/14G23 RMK AO2
94908KDBQ DBQ20071129021010111/29/07 02:10:31  5-MIN KDBQ 290810Z AUTO 29013KT 10SM CLR M09/M16 A3011 900 59 -1800 290/13 RMK AO2
94908KDBQ DBQ20071129021510111/29/07 02:15:31  5-MIN KDBQ 290815Z AUTO 28012KT 10SM CLR M09/M16 A3012 890 59 -1800 280/12 RMK AO2
94908KDBQ DBQ20071129022010111/29/07 02:20:31  5-MIN KDBQ 290820Z AUTO 28010KT 10SM CLR M09/M16 A3012 890 59 -1800 280/10 RMK AO2
94908KDBQ DBQ20071129022510111/29/07 02:25:31  5-MIN KDBQ 290825Z AUTO 28011KT 10SM CLR M09/M16 A3012 890 59 -1800 280/11 RMK AO2
94908KDBQ DBQ20071129023010111/29/07 02:30:31  5-MIN KDBQ 290830Z AUTO 28010KT 10SM CLR M09/M16 A3012 900 59 -1800 280/10 RMK AO2
94908KDBQ DBQ20071129023510111/29/07 02:35:31  5-MIN KDBQ 290835Z AUTO 28013KT 10SM CLR M09/M16 A3012 900 56 -1800 280/13 RMK AO2
94908KDBQ DBQ20071129024010711/29/07 02:40:31  5-MIN KDBQ 290840Z AUTO 29011G18KT 10SM CLR M09/M16 A3011 900 59 -1800 280/11G18 RMK AO2
94908KDBQ DBQ20071129024510711/29/07 02:45:31  5-MIN KDBQ 290845Z AUTO 28012G19KT 10SM CLR M09/M16 A3012 900 59 -1800 280/12G19 RMK AO2
94908KDBQ DBQ20071129025013011/29/07 02:50:31  5-MIN KDBQ 290850Z AUTO 28012G19KT 10SM CLR M09/M16 A3012 890 56 -1800 280/12G19 RMK AO2 SLP214 T10891161 51026
94908KDBQ DBQ20071129025510111/29/07 02:55:31  5-MIN KDBQ 290855Z AUTO 28013KT 10SM CLR M09/M16 A3012 890 56 -1800 280/13 RMK AO2
94908KDBQ DBQ20071129030010711/29/07 03:00:31  5-MIN KDBQ 290900Z AUTO 27017G21KT 10SM CLR M09/M16 A3013 890 56 -1800 270/17G21 RMK AO2
94908KDBQ DBQ20071129030510711/29/07 03:05:31  5-MIN KDBQ 290905Z AUTO 28016G21KT 10SM CLR M09/M16 A3013 890 56 -1800 280/16G21 RMK AO2
94908KDBQ DBQ20071129031010711/29/07 03:10:31  5-MIN KDBQ 290910Z AUTO 28014G20KT 10SM CLR M09/M16 A3013 890 56 -1800 280/14G20 RMK AO2
94908KDBQ DBQ20071129031510111/29/07 03:15:31  5-MIN KDBQ 290915Z AUTO 27014KT 10SM CLR M09/M16 A3013 890 56 -1800 270/14 RMK AO2
94908KDBQ DBQ20071129032010711/29/07 03:20:31  5-MIN KDBQ 290920Z AUTO 27015G21KT 10SM CLR M09/M16 A3013 890 56 -1800 270/15G21 RMK AO2
94908KDBQ DBQ20071129032510711/29/07 03:25:31  5-MIN KDBQ 290925Z AUTO 27013G24KT 10SM CLR M09/M16 A3012 890 56 -1800 270/13G24 RMK AO2
94908KDBQ DBQ20071129033010711/29/07 03:30:31  5-MIN KDBQ 290930Z AUTO 27014G24KT 10SM CLR M09/M16 A3012 890 56 -1800 270/14G24 RMK AO2
94908KDBQ DBQ20071129033510711/29/07 03:35:31  5-MIN KDBQ 290935Z AUTO 27015G20KT 10SM CLR M09/M16 A3012 900 56 -1800 270/15G20 RMK AO2
94908KDBQ DBQ20071129034010111/29/07 03:40:31  5-MIN KDBQ 290940Z AUTO 27015KT 10SM CLR M09/M16 A3012 890 56 -1800 260/15 RMK AO2
94908KDBQ DBQ20071129034510111/29/07 03:45:31  5-MIN KDBQ 290945Z AUTO 27013KT 10SM CLR M09/M16 A3013 890 56 -1800 270/13 RMK AO2
94908KDBQ DBQ20071129035012411/29/07 03:50:31  5-MIN KDBQ 290950Z AUTO 27015G22KT 10SM CLR M09/M16 A3013 890 56 -1800 270/15G22 RMK AO2 SLP216 T10891161
94908KDBQ DBQ20071129035510711/29/07 03:55:31  5-MIN KDBQ 290955Z AUTO 27014G23KT 10SM CLR M09/M16 A3013 890 56 -1800 270/14G23 RMK AO2
94908KDBQ DBQ20071129040010711/29/07 04:00:31  5-MIN KDBQ 291000Z AUTO 27016G23KT 10SM CLR M09/M16 A3013 880 56 -1800 270/16G23 RMK AO2
94908KDBQ DBQ20071129040510711/29/07 04:05:31  5-MIN KDBQ 291005Z AUTO 26015G22KT 10SM CLR M09/M16 A3014 880 56 -1800 260/15G22 RMK AO2
94908KDBQ DBQ20071129041010711/29/07 04:10:31  5-MIN KDBQ 291010Z AUTO 27015G22KT 10SM CLR M09/M16 A3014 880 59 -1800 260/15G22 RMK AO2
94908KDBQ DBQ20071129041510111/29/07 04:15:31  5-MIN KDBQ 291015Z AUTO 27015KT 10SM CLR M09/M16 A3014 880 59 -1800 270/15 RMK AO2
94908KDBQ DBQ20071129042010111/29/07 04:20:31  5-MIN KDBQ 291020Z AUTO 27013KT 10SM CLR M09/M16 A3014 870 59 -1800 270/13 RMK AO2
94908KDBQ DBQ20071129042510111/29/07 04:25:31  5-MIN KDBQ 291025Z AUTO 27014KT 10SM CLR M09/M16 A3015 870 59 -1800 270/14 RMK AO2
94908KDBQ DBQ20071129043010711/29/07 04:30:31  5-MIN KDBQ 291030Z AUTO 28015G21KT 10SM CLR M09/M16 A3015 870 59 -1800 280/15G21 RMK AO2
94908KDBQ DBQ20071129043510711/29/07 04:35:31  5-MIN KDBQ 291035Z AUTO 28015G21KT 10SM CLR M09/M16 A3015 860 59 -1800 280/15G21 RMK AO2
94908KDBQ DBQ20071129044010711/29/07 04:40:31  5-MIN KDBQ 291040Z AUTO 28015G20KT 10SM CLR M09/M16 A3016 860 59 -1800 280/15G20 RMK AO2
94908KDBQ DBQ20071129044510111/29/07 04:45:31  5-MIN KDBQ 291045Z AUTO 28012KT 10SM CLR M09/M16 A3016 860 59 -1800 280/12 RMK AO2
94908KDBQ DBQ20071129045012411/29/07 04:50:31  5-MIN KDBQ 291050Z AUTO 28014G19KT 10SM CLR M09/M16 A3015 860 59 -1800 280/14G19 RMK AO2 SLP227 T10891156
94908KDBQ DBQ20071129045510711/29/07 04:55:31  5-MIN KDBQ 291055Z AUTO 28012G19KT 10SM CLR M09/M16 A3016 860 59 -1800 280/12G19 RMK AO2
94908KDBQ DBQ20071129050010711/29/07 05:00:31  5-MIN KDBQ 291100Z AUTO 28013G19KT 10SM CLR M09/M16 A3016 860 59 -1800 280/13G19 RMK AO2
94908KDBQ DBQ20071129050510711/29/07 05:05:31  5-MIN KDBQ 291105Z AUTO 28011G19KT 10SM CLR M09/M16 A3016 860 59 -1800 280/11G19 RMK AO2
94908KDBQ DBQ20071129051010711/29/07 05:10:31  5-MIN KDBQ 291110Z AUTO 28011G18KT 10SM CLR M09/M15 A3016 850 61 -1800 280/11G18 RMK AO2
94908KDBQ DBQ20071129051510711/29/07 05:15:31  5-MIN KDBQ 291115Z AUTO 29015G21KT 10SM CLR M09/M15 A3017 850 61 -1800 280/15G21 RMK AO2
94908KDBQ DBQ20071129052010711/29/07 05:20:31  5-MIN KDBQ 291120Z AUTO 29015G21KT 10SM CLR M09/M15 A3016 850 61 -1800 290/15G21 RMK AO2
94908KDBQ DBQ20071129052510111/29/07 05:25:31  5-MIN KDBQ 291125Z AUTO 29012KT 10SM CLR M09/M15 A3016 850 61 -1800 290/12 RMK AO2
94908KDBQ DBQ20071129053010111/29/07 05:30:31  5-MIN KDBQ 291130Z AUTO 30012KT 10SM CLR M09/M15 A3016 850 61 -1800 300/12 RMK AO2
94908KDBQ DBQ20071129053510711/29/07 05:35:31  5-MIN KDBQ 291135Z AUTO 30013G20KT 10SM CLR M09/M15 A3016 850 61 -1800 300/13G20 RMK AO2
94908KDBQ DBQ20071129054010711/29/07 05:40:31  5-MIN KDBQ 291140Z AUTO 29012G20KT 10SM CLR M09/M15 A3016 850 61 -1800 290/12G20 RMK AO2
94908KDBQ DBQ20071129054510111/29/07 05:45:31  5-MIN KDBQ 291145Z AUTO 30011KT 10SM CLR M09/M15 A3017 850 61 -1800 300/11 RMK AO2
94908KDBQ DBQ20071129055013611/29/07 05:50:31  5-MIN KDBQ 291150Z AUTO 29011KT 10SM CLR M09/M15 A3017 850 61 -1800 290/11 RMK AO2 SLP233 T10891150 11072 21089 51007
94908KDBQ DBQ20071129055509611/29/07 05:55:31  5-MIN KDBQ 291155Z 29010KT 10SM CLR M09/M15 A3017 850 61 -1800 290/10 RMK AO2
94908KDBQ DBQ20071129060009611/29/07 06:00:31  5-MIN KDBQ 291200Z 29008KT 10SM CLR M09/M15 A3017 850 61 -1800 290/08 RMK AO2
94908KDBQ DBQ20071129060509611/29/07 06:05:31  5-MIN KDBQ 291205Z 29010KT 10SM CLR M09/M15 A3017 850 64 -1900 290/10 RMK AO2
94908KDBQ DBQ20071129061009611/29/07 06:10:31  5-MIN KDBQ 291210Z 29008KT 10SM CLR M09/M15 A3017 850 61 -1800 290/08 RMK AO2
94908KDBQ DBQ20071129061509611/29/07 06:15:31  5-MIN KDBQ 291215Z 29009KT 10SM CLR M09/M15 A3017 850 64 -1900 290/09 RMK AO2
94908KDBQ DBQ20071129062009611/29/07 06:20:31  5-MIN KDBQ 291220Z 29008KT 10SM CLR M09/M15 A3017 850 64 -1900 280/08 RMK AO2
94908KDBQ DBQ20071129062509611/29/07 06:25:31  5-MIN KDBQ 291225Z 29008KT 10SM CLR M09/M15 A3017 840 61 -1800 290/08 RMK AO2
94908KDBQ DBQ20071129063009611/29/07 06:30:31  5-MIN KDBQ 291230Z 28009KT 10SM CLR M09/M15 A3018 840 64 -1900 280/09 RMK AO2
94908KDBQ DBQ20071129063509611/29/07 06:35:31  5-MIN KDBQ 291235Z 28007KT 10SM CLR M09/M15 A3018 840 64 -1900 280/07 RMK AO2
94908KDBQ DBQ20071129064009611/29/07 06:40:31  5-MIN KDBQ 291240Z 28008KT 10SM CLR M09/M15 A3018 840 64 -1900 280/08 RMK AO2
94908KDBQ DBQ20071129064509611/29/07 06:45:31  5-MIN KDBQ 291245Z 28009KT 10SM CLR M09/M15 A3019 830 64 -1900 280/09 RMK AO2
94908KDBQ DBQ20071129065011311/29/07 06:50:31  5-MIN KDBQ 291250Z 28009KT 10SM CLR M09/M14 A3019 830 67 -1900 270/09 RMK AO2 SLP241 T10941144
94908KDBQ DBQ20071129065509611/29/07 06:55:31  5-MIN KDBQ 291255Z 27008KT 10SM CLR M09/M15 A3019 830 64 -1900 270/08 RMK AO2
94908KDBQ DBQ20071129070009611/29/07 07:00:31  5-MIN KDBQ 291300Z 27010KT 10SM CLR M09/M14 A3020 820 67 -1900 270/10 RMK AO2
94908KDBQ DBQ20071129070509611/29/07 07:05:31  5-MIN KDBQ 291305Z 27008KT 10SM CLR M09/M14 A3020 820 67 -1900 270/08 RMK AO2
94908KDBQ DBQ20071129071009611/29/07 07:10:31  5-MIN KDBQ 291310Z 26009KT 10SM CLR M09/M15 A3020 820 64 -1900 260/09 RMK AO2
94908KDBQ DBQ20071129071509611/29/07 07:15:31  5-MIN KDBQ 291315Z 25008KT 10SM CLR M09/M14 A3020 820 67 -1900 250/08 RMK AO2
94908KDBQ DBQ20071129072009611/29/07 07:20:31  5-MIN KDBQ 291320Z 25009KT 10SM CLR M09/M14 A3021 820 67 -1900 250/09 RMK AO2
94908KDBQ DBQ20071129072509611/29/07 07:25:31  5-MIN KDBQ 291325Z 25009KT 10SM CLR M09/M14 A3021 810 67 -1900 250/09 RMK AO2
94908KDBQ DBQ20071129073009611/29/07 07:30:31  5-MIN KDBQ 291330Z 25008KT 10SM CLR M09/M14 A3021 810 67 -1900 250/08 RMK AO2
94908KDBQ DBQ20071129073509611/29/07 07:35:31  5-MIN KDBQ 291335Z 25009KT 10SM CLR M09/M14 A3021 810 67 -1900 250/09 RMK AO2
94908KDBQ DBQ20071129074009611/29/07 07:40:31  5-MIN KDBQ 291340Z 25006KT 10SM CLR M09/M14 A3021 810 67 -1900 250/06 RMK AO2
94908KDBQ DBQ20071129074509611/29/07 07:45:31  5-MIN KDBQ 291345Z 25006KT 10SM CLR M09/M14 A3021 810 67 -1900 250/06 RMK AO2
94908KDBQ DBQ20071129075011311/29/07 07:50:31  5-MIN KDBQ 291350Z 25005KT 10SM CLR M09/M14 A3021 810 70 -1900 250/05 RMK AO2 SLP248 T10941139
94908KDBQ DBQ20071129075509611/29/07 07:55:31  5-MIN KDBQ 291355Z 24007KT 10SM CLR M09/M14 A3021 810 67 -1900 240/07 RMK AO2
94908KDBQ DBQ20071129080009611/29/07 08:00:31  5-MIN KDBQ 291400Z 25006KT 10SM CLR M09/M14 A3021 810 67 -1900 250/06 RMK AO2
94908KDBQ DBQ20071129080509611/29/07 08:05:31  5-MIN KDBQ 291405Z 25008KT 10SM CLR M09/M14 A3022 810 67 -1900 250/08 RMK AO2
94908KDBQ DBQ20071129081009611/29/07 08:10:31  5-MIN KDBQ 291410Z 25009KT 10SM CLR M08/M14 A3022 800 64 -1800 250/09 RMK AO2
94908KDBQ DBQ20071129081509611/29/07 08:15:31  5-MIN KDBQ 291415Z 25011KT 10SM CLR M08/M14 A3022 800 64 -1800 250/11 RMK AO2
94908KDBQ DBQ20071129082009611/29/07 08:20:31  5-MIN KDBQ 291420Z 26011KT 10SM CLR M08/M14 A3022 800 64 -1800 250/11 RMK AO2
94908KDBQ DBQ20071129082509611/29/07 08:25:31  5-MIN KDBQ 291425Z 24009KT 10SM CLR M08/M13 A3022 800 64 -1700 240/09 RMK AO2
94908KDBQ DBQ20071129083009611/29/07 08:30:31  5-MIN KDBQ 291430Z 26010KT 10SM CLR M08/M13 A3022 800 64 -1700 260/10 RMK AO2
94908KDBQ DBQ20071129083509611/29/07 08:35:31  5-MIN KDBQ 291435Z 27009KT 10SM CLR M08/M13 A3022 800 64 -1700 270/09 RMK AO2
94908KDBQ DBQ20071129084009611/29/07 08:40:31  5-MIN KDBQ 291440Z 25009KT 10SM CLR M08/M13 A3022 800 64 -1700 250/09 RMK AO2
94908KDBQ DBQ20071129084509611/29/07 08:45:31  5-MIN KDBQ 291445Z 26007KT 10SM CLR M07/M13 A3022 800 62 -1700 260/07 RMK AO2
94908KDBQ DBQ20071129085011911/29/07 08:50:31  5-MIN KDBQ 291450Z 28009KT 10SM CLR M07/M13 A3022 800 62 -1700 270/09 RMK AO2 SLP252 T10721133 53016
94908KDBQ DBQ20071129085509611/29/07 08:55:31  5-MIN KDBQ 291455Z 28009KT 10SM CLR M07/M13 A3022 800 59 -1600 280/09 RMK AO2
94908KDBQ DBQ20071129090009611/29/07 09:00:31  5-MIN KDBQ 291500Z 28010KT 10SM CLR M07/M13 A3022 800 59 -1600 280/10 RMK AO2
94908KDBQ DBQ20071129090509611/29/07 09:05:31  5-MIN KDBQ 291505Z 28010KT 10SM CLR M07/M13 A3022 800 59 -1600 280/10 RMK AO2
94908KDBQ DBQ20071129091009611/29/07 09:10:31  5-MIN KDBQ 291510Z 28009KT 10SM CLR M06/M13 A3022 800 57 -1500 280/09 RMK AO2
94908KDBQ DBQ20071129091509611/29/07 09:15:31  5-MIN KDBQ 291515Z 28009KT 10SM CLR M06/M13 A3022 800 59 -1500 280/09 RMK AO2
94908KDBQ DBQ20071129092009611/29/07 09:20:31  5-MIN KDBQ 291520Z 29010KT 10SM CLR M06/M13 A3022 800 59 -1500 290/10 RMK AO2
94908KDBQ DBQ20071129092509611/29/07 09:25:31  5-MIN KDBQ 291525Z 28008KT 10SM CLR M06/M13 A3022 800 57 -1500 280/08 RMK AO2
94908KDBQ DBQ20071129093009611/29/07 09:30:31  5-MIN KDBQ 291530Z 29010KT 10SM CLR M06/M13 A3022 800 57 -1500 290/10 RMK AO2
94908KDBQ DBQ20071129093509611/29/07 09:35:31  5-MIN KDBQ 291535Z 29010KT 10SM CLR M05/M13 A3022 800 55 -1400 290/10 RMK AO2
94908KDBQ DBQ20071129094009611/29/07 09:40:31  5-MIN KDBQ 291540Z 30012KT 10SM CLR M05/M13 A3022 800 55 -1400 300/12 RMK AO2
94908KDBQ DBQ20071129094509611/29/07 09:45:31  5-MIN KDBQ 291545Z 30011KT 10SM CLR M05/M13 A3022 800 55 -1400 300/11 RMK AO2
94908KDBQ DBQ20071129095011311/29/07 09:50:31  5-MIN KDBQ 291550Z 29012KT 10SM CLR M05/M13 A3022 800 55 -1400 280/12 RMK AO2 SLP250 T10501128
94908KDBQ DBQ20071129095509611/29/07 09:55:31  5-MIN KDBQ 291555Z 30011KT 10SM CLR M04/M13 A3022 810 52 -1300 300/11 RMK AO2
94908KDBQ DBQ20071129100009611/29/07 10:00:31  5-MIN KDBQ 291600Z 29010KT 10SM CLR M04/M13 A3022 800 52 -1300 290/10 RMK AO2
94908KDBQ DBQ20071129100509611/29/07 10:05:31  5-MIN KDBQ 291605Z 29010KT 10SM CLR M04/M13 A3022 800 50 -1200 280/10 RMK AO2
94908KDBQ DBQ20071129101009611/29/07 10:10:31  5-MIN KDBQ 291610Z 29011KT 10SM CLR M04/M13 A3022 800 50 -1200 290/11 RMK AO2
94908KDBQ DBQ20071129101509611/29/07 10:15:31  5-MIN KDBQ 291615Z 29012KT 10SM CLR M04/M13 A3023 800 50 -1200 290/12 RMK AO2
94908KDBQ DBQ20071129102009611/29/07 10:20:31  5-MIN KDBQ 291620Z 28012KT 10SM CLR M04/M13 A3023 800 50 -1200 280/12 RMK AO2
94908KDBQ DBQ20071129102509611/29/07 10:25:31  5-MIN KDBQ 291625Z 29013KT 10SM CLR M03/M13 A3022 800 48 -1200 290/13 RMK AO2
94908KDBQ DBQ20071129103009611/29/07 10:30:31  5-MIN KDBQ 291630Z 29013KT 10SM CLR M03/M13 A3022 800 48 -1200 290/13 RMK AO2
94908KDBQ DBQ20071129103509611/29/07 10:35:31  5-MIN KDBQ 291635Z 28012KT 10SM CLR M03/M13 A3023 800 48 -1200 280/12 RMK AO2
94908KDBQ DBQ20071129104009611/29/07 10:40:31  5-MIN KDBQ 291640Z 29012KT 10SM CLR M03/M13 A3022 800 46 -1100 290/12 RMK AO2
94908KDBQ DBQ20071129104510211/29/07 10:45:31  5-MIN KDBQ 291645Z 29012G20KT 10SM CLR M03/M13 A3022 800 46 -1100 290/12G20 RMK AO2
94908KDBQ DBQ20071129105011911/29/07 10:50:31  5-MIN KDBQ 291650Z 30013G20KT 10SM CLR M03/M13 A3022 810 44 -1100 290/13G20 RMK AO2 SLP248 T10281133
94908KDBQ DBQ20071129105510211/29/07 10:55:31  5-MIN KDBQ 291655Z 31012G18KT 10SM CLR M03/M13 A3022 810 46 -1100 310/12G18 RMK AO2
94908KDBQ DBQ20071129110010211/29/07 11:00:31  5-MIN KDBQ 291700Z 31012G18KT 10SM CLR M03/M13 A3021 810 44 -1100 310/12G18 RMK AO2
94908KDBQ DBQ20071129110509611/29/07 11:05:31  5-MIN KDBQ 291705Z 31011KT 10SM CLR M03/M13 A3021 810 46 -1100 310/11 RMK AO2
94908KDBQ DBQ20071129111009611/29/07 11:10:31  5-MIN KDBQ 291710Z 30010KT 10SM CLR M02/M13 A3021 810 44 -1000 300/10 RMK AO2
94908KDBQ DBQ20071129111510211/29/07 11:15:31  5-MIN KDBQ 291715Z 30013G17KT 10SM CLR M03/M13 A3021 810 44 -1100 300/13G17 RMK AO2
94908KDBQ DBQ20071129112009611/29/07 11:20:31  5-MIN KDBQ 291720Z 30012KT 10SM CLR M02/M13 A3021 810 42 -1000 300/12 RMK AO2
94908KDBQ DBQ20071129112509611/29/07 11:25:31  5-MIN KDBQ 291725Z 30009KT 10SM CLR M02/M13 A3021 810 42 -1000 300/09 RMK AO2
94908KDBQ DBQ20071129113009611/29/07 11:30:31  5-MIN KDBQ 291730Z 30010KT 10SM CLR M02/M13 A3021 810 42 -1000 300/10 RMK AO2
94908KDBQ DBQ20071129113509611/29/07 11:35:31  5-MIN KDBQ 291735Z 28011KT 10SM CLR M02/M13 A3021 810 42 -1000 280/11 RMK AO2
94908KDBQ DBQ20071129114009611/29/07 11:40:31  5-MIN KDBQ 291740Z 30012KT 10SM CLR M02/M13 A3021 820 42 -1000 300/12 RMK AO2
94908KDBQ DBQ20071129114509611/29/07 11:45:31  5-MIN KDBQ 291745Z 30012KT 10SM CLR M02/M13 A3020 820 42 -1000 300/12 RMK AO2
94908KDBQ DBQ20071129115013111/29/07 11:50:31  5-MIN KDBQ 291750Z 29012KT 10SM CLR M02/M13 A3020 820 42 -1000 290/12 RMK AO2 SLP244 T10221133 11022 21094 51017
94908KDBQ DBQ20071129115509511/29/07 11:55:31  5-MIN KDBQ 291755Z 28012KT 10SM CLR M02/M13 A3021 810 41 -900 280/12 RMK AO2
94908KDBQ DBQ20071129120010111/29/07 12:00:31  5-MIN KDBQ 291800Z 29012G20KT 10SM CLR M02/M13 A3021 810 41 -900 290/12G20 RMK AO2
94908KDBQ DBQ20071129120510111/29/07 12:05:31  5-MIN KDBQ 291805Z 28015G20KT 10SM CLR M02/M13 A3021 810 41 -900 280/15G20 RMK AO2
94908KDBQ DBQ20071129121010111/29/07 12:10:31  5-MIN KDBQ 291810Z 30014G20KT 10SM CLR M01/M14 A3022 810 37 -900 300/14G20 RMK AO2
94908KDBQ DBQ20071129121509511/29/07 12:15:31  5-MIN KDBQ 291815Z 30015KT 10SM CLR M01/M14 A3022 810 37 -900 300/15 RMK AO2
94908KDBQ DBQ20071129122009511/29/07 12:20:31  5-MIN KDBQ 291820Z 28013KT 10SM CLR M01/M14 A3022 810 37 -900 280/13 RMK AO2
94908KDBQ DBQ20071129122509511/29/07 12:25:31  5-MIN KDBQ 291825Z 28016KT 10SM CLR M01/M14 A3022 810 37 -900 280/16 RMK AO2
94908KDBQ DBQ20071129123009511/29/07 12:30:31  5-MIN KDBQ 291830Z 29014KT 10SM CLR M01/M14 A3022 810 37 -900 290/14 RMK AO2
94908KDBQ DBQ20071129123510111/29/07 12:35:31  5-MIN KDBQ 291835Z 29013G20KT 10SM CLR M01/M14 A3022 810 37 -900 290/13G20 RMK AO2
94908KDBQ DBQ20071129124010111/29/07 12:40:31  5-MIN KDBQ 291840Z 28015G20KT 10SM CLR M01/M14 A3022 810 36 -800 280/15G20 RMK AO2
94908KDBQ DBQ20071129124510111/29/07 12:45:31  5-MIN KDBQ 291845Z 28013G20KT 10SM CLR M01/M14 A3022 810 34 -800 280/13G20 RMK AO2
94908KDBQ DBQ20071129125011211/29/07 12:50:31  5-MIN KDBQ 291850Z 26013KT 10SM CLR M01/M13 A3022 800 39 -900 260/13 RMK AO2 SLP251 T10111133
94908KDBQ DBQ20071129125509511/29/07 12:55:31  5-MIN KDBQ 291855Z 25015KT 10SM CLR M01/M13 A3022 800 37 -800 250/15 RMK AO2
94908KDBQ DBQ20071129130010111/29/07 13:00:31  5-MIN KDBQ 291900Z 26013G19KT 10SM CLR M01/M13 A3022 810 39 -800 260/13G19 RMK AO2
94908KDBQ DBQ20071129130510111/29/07 13:05:31  5-MIN KDBQ 291905Z 27014G19KT 10SM CLR M01/M13 A3021 810 37 -800 270/14G19 RMK AO2
94908KDBQ DBQ20071129131009511/29/07 13:10:31  5-MIN KDBQ 291910Z 26013KT 10SM CLR M01/M13 A3021 810 37 -800 260/13 RMK AO2
94908KDBQ DBQ20071129131510111/29/07 13:15:31  5-MIN KDBQ 291915Z 28011G17KT 10SM CLR M01/M13 A3021 810 37 -800 280/11G17 RMK AO2
94908KDBQ DBQ20071129132010111/29/07 13:20:31  5-MIN KDBQ 291920Z 28014G19KT 10SM CLR M01/M14 A3020 820 36 -800 270/14G19 RMK AO2
94908KDBQ DBQ20071129132510111/29/07 13:25:31  5-MIN KDBQ 291925Z 29015G21KT 10SM CLR M01/M14 A3021 810 36 -800 290/15G21 RMK AO2
94908KDBQ DBQ20071129133010011/29/07 13:30:31  5-MIN KDBQ 291930Z 28013G21KT 10SM CLR 00/M13 A3021 810 36 -700 280/13G21 RMK AO2
94908KDBQ DBQ20071129133509411/29/07 13:35:31  5-MIN KDBQ 291935Z 28015KT 10SM CLR 00/M13 A3021 810 38 -700 280/15 RMK AO2
94908KDBQ DBQ20071129134009511/29/07 13:40:31  5-MIN KDBQ 291940Z 25014KT 10SM CLR M01/M13 A3021 810 39 -800 250/14 RMK AO2
94908KDBQ DBQ20071129134509511/29/07 13:45:31  5-MIN KDBQ 291945Z 26013KT 10SM CLR M01/M12 A3020 820 41 -800 260/13 RMK AO2
94908KDBQ DBQ20071129135011211/29/07 13:50:31  5-MIN KDBQ 291950Z 24014KT 10SM CLR M01/M12 A3021 820 41 -800 240/14 RMK AO2 SLP245 T10061122
94908KDBQ DBQ20071129135509511/29/07 13:55:31  5-MIN KDBQ 291955Z 26012KT 10SM CLR M01/M12 A3021 810 41 -800 260/12 RMK AO2
94908KDBQ DBQ20071129140009511/29/07 14:00:31  5-MIN KDBQ 292000Z 28014KT 10SM CLR M01/M12 A3021 810 41 -800 270/14 RMK AO2
94908KDBQ DBQ20071129140510011/29/07 14:05:31  5-MIN KDBQ 292005Z 25016G22KT 10SM CLR 00/M12 A3021 810 39 -700 250/16G22 RMK AO2
94908KDBQ DBQ20071129141010111/29/07 14:10:31  5-MIN KDBQ 292010Z 27012G22KT 10SM CLR M01/M12 A3020 820 41 -800 270/12G22 RMK AO2
94908KDBQ DBQ20071129141509411/29/07 14:15:31  5-MIN KDBQ 292015Z 26014KT 10SM CLR 00/M12 A3021 810 39 -700 260/14 RMK AO2
94908KDBQ DBQ20071129142009511/29/07 14:20:31  5-MIN KDBQ 292020Z 27014KT 10SM CLR M01/M12 A3021 810 41 -800 270/14 RMK AO2
94908KDBQ DBQ20071129142509411/29/07 14:25:31  5-MIN KDBQ 292025Z 27013KT 10SM CLR 00/M12 A3021 810 39 -700 270/13 RMK AO2
94908KDBQ DBQ20071129143009411/29/07 14:30:31  5-MIN KDBQ 292030Z 26014KT 10SM CLR 00/M12 A3020 820 41 -700 260/14 RMK AO2
94908KDBQ DBQ20071129143509511/29/07 14:35:31  5-MIN KDBQ 292035Z 26014KT 10SM CLR M01/M12 A3020 820 43 -800 250/14 RMK AO2
94908KDBQ DBQ20071129144009511/29/07 14:40:31  5-MIN KDBQ 292040Z 26014KT 10SM CLR M01/M12 A3020 820 43 -800 260/14 RMK AO2
94908KDBQ DBQ20071129144509511/29/07 14:45:31  5-MIN KDBQ 292045Z 26015KT 10SM CLR M01/M12 A3020 820 43 -800 260/15 RMK AO2
94908KDBQ DBQ20071129145012311/29/07 14:50:31  5-MIN KDBQ 292050Z AUTO 26014KT 10SM CLR M01/M12 A3020 820 45 -900 260/14 RMK AO2 SLP245 T10111117 58005
94908KDBQ DBQ20071129145510511/29/07 14:55:31  5-MIN KDBQ 292055Z AUTO 26012KT 10SM CLR M01/M12 A3021 810 45 -900 260/12 RMK AO2 TSNO
94908KDBQ DBQ20071129150010811/29/07 15:00:31  5-MIN KDBQ 292100Z AUTO 26012KT 10SM FEW085 M01/M12 A3021 810 45 -900 260/12 RMK AO2 TSNO
94908KDBQ DBQ20071129150510811/29/07 15:05:31  5-MIN KDBQ 292105Z AUTO 26009KT 10SM SCT090 M01/M11 A3021 810 45 -800 260/09 RMK AO2 TSNO
94908KDBQ DBQ20071129151010811/29/07 15:10:31  5-MIN KDBQ 292110Z AUTO 27010KT 10SM BKN090 M01/M11 A3021 810 45 -800 270/10 RMK AO2 TSNO
94908KDBQ DBQ20071129151510711/29/07 15:15:31  5-MIN KDBQ 292115Z AUTO 27010KT 10SM BKN090 00/M11 A3021 810 43 -700 270/10 RMK AO2 TSNO
94908KDBQ DBQ20071129152010811/29/07 15:20:31  5-MIN KDBQ 292120Z AUTO 26011KT 10SM OVC085 M01/M11 A3021 810 45 -800 260/11 RMK AO2 TSNO
94908KDBQ DBQ20071129152510811/29/07 15:25:31  5-MIN KDBQ 292125Z AUTO 28010KT 10SM OVC090 M01/M11 A3021 810 45 -800 280/10 RMK AO2 TSNO
94908KDBQ DBQ20071129153010811/29/07 15:30:31  5-MIN KDBQ 292130Z AUTO 26009KT 10SM BKN090 M01/M11 A3021 810 45 -800 260/09 RMK AO2 TSNO
94908KDBQ DBQ20071129153510811/29/07 15:35:31  5-MIN KDBQ 292135Z AUTO 26010KT 10SM BKN090 M01/M11 A3021 810 45 -800 260/10 RMK AO2 TSNO
94908KDBQ DBQ20071129154010811/29/07 15:40:31  5-MIN KDBQ 292140Z AUTO 26007KT 10SM SCT090 M01/M11 A3021 810 45 -800 260/07 RMK AO2 TSNO
94908KDBQ DBQ20071129154510811/29/07 15:45:31  5-MIN KDBQ 292145Z AUTO 26007KT 10SM SCT090 M01/M11 A3021 810 47 -800 260/07 RMK AO2 TSNO
94908KDBQ DBQ20071129155012511/29/07 15:50:31  5-MIN KDBQ 292150Z AUTO 25010KT 10SM FEW090 M01/M11 A3021 810 47 -800 250/10 RMK AO2 SLP245 T10061106 TSNO
94908KDBQ DBQ20071129155510811/29/07 15:55:31  5-MIN KDBQ 292155Z AUTO 25008KT 10SM FEW090 M01/M11 A3021 820 47 -800 250/08 RMK AO2 TSNO
94908KDBQ DBQ20071129160010511/29/07 16:00:31  5-MIN KDBQ 292200Z AUTO 25007KT 10SM CLR M01/M11 A3020 820 47 -800 250/07 RMK AO2 TSNO
94908KDBQ DBQ20071129160510511/29/07 16:05:31  5-MIN KDBQ 292205Z AUTO 26008KT 10SM CLR M01/M11 A3020 820 47 -800 260/08 RMK AO2 TSNO
94908KDBQ DBQ20071129161010511/29/07 16:10:31  5-MIN KDBQ 292210Z AUTO 25006KT 10SM CLR M01/M11 A3020 820 47 -800 250/06 RMK AO2 TSNO
94908KDBQ DBQ20071129161510511/29/07 16:15:31  5-MIN KDBQ 292215Z AUTO 25006KT 10SM CLR M01/M10 A3020 820 51 -900 240/06 RMK AO2 TSNO
94908KDBQ DBQ20071129162010511/29/07 16:20:31  5-MIN KDBQ 292220Z AUTO 25006KT 10SM CLR M01/M10 A3020 820 51 -900 250/06 RMK AO2 TSNO
94908KDBQ DBQ20071129162510511/29/07 16:25:31  5-MIN KDBQ 292225Z AUTO 25006KT 10SM CLR M01/M10 A3020 820 51 -900 250/06 RMK AO2 TSNO
94908KDBQ DBQ20071129163010511/29/07 16:30:31  5-MIN KDBQ 292230Z AUTO 25005KT 10SM CLR M01/M10 A3021 820 51 -900 250/05 RMK AO2 TSNO
94908KDBQ DBQ20071129163510511/29/07 16:35:31  5-MIN KDBQ 292235Z AUTO 25004KT 10SM CLR M01/M10 A3020 820 51 -900 250/04 RMK AO2 TSNO
94908KDBQ DBQ20071129164009511/29/07 16:40:31  5-MIN KDBQ 292240Z 26003KT 10SM CLR M02/M10 A3020 820 53 -900 260/03 RMK AO2
94908KDBQ DBQ20071129164509511/29/07 16:45:31  5-MIN KDBQ 292245Z 26003KT 10SM CLR M02/M10 A3020 820 53 -900 260/03 RMK AO2
94908KDBQ DBQ20071129165011211/29/07 16:50:31  5-MIN KDBQ 292250Z 26003KT 10SM CLR M02/M10 A3020 820 53 -900 260/03 RMK AO2 SLP244 T10171100
94908KDBQ DBQ20071129165509511/29/07 16:55:31  5-MIN KDBQ 292255Z 24003KT 10SM CLR M02/M10 A3020 820 53 -900 240/03 RMK AO2
94908KDBQ DBQ20071129170009811/29/07 17:00:31  5-MIN KDBQ 292300Z 00000KT 10SM FEW120 M02/M09 A3020 820 55 -900 000/00 RMK AO2
94908KDBQ DBQ20071129170509811/29/07 17:05:31  5-MIN KDBQ 292305Z 20003KT 10SM SCT120 M02/M09 A3020 820 55 -900 200/03 RMK AO2
94908KDBQ DBQ20071129171009811/29/07 17:10:31  5-MIN KDBQ 292310Z 20003KT 10SM BKN110 M02/M09 A3020 820 55 -900 200/03 RMK AO2
94908KDBQ DBQ20071129171509811/29/07 17:15:31  5-MIN KDBQ 292315Z 21004KT 10SM BKN110 M02/M09 A3020 820 55 -900 210/04 RMK AO2
94908KDBQ DBQ20071129172009911/29/07 17:20:31  5-MIN KDBQ 292320Z 20005KT 10SM BKN110 M02/M09 A3020 820 60 -1000 200/05 RMK AO2
94908KDBQ DBQ20071129172509911/29/07 17:25:31  5-MIN KDBQ 292325Z 20004KT 10SM OVC110 M02/M09 A3020 820 60 -1000 200/04 RMK AO2
94908KDBQ DBQ20071129173009911/29/07 17:30:31  5-MIN KDBQ 292330Z 21003KT 10SM OVC110 M02/M09 A3020 820 58 -1000 210/03 RMK AO2
94908KDBQ DBQ20071129173509911/29/07 17:35:31  5-MIN KDBQ 292335Z 19003KT 10SM OVC110 M02/M09 A3019 830 58 -1000 190/03 RMK AO2
94908KDBQ DBQ20071129174009911/29/07 17:40:31  5-MIN KDBQ 292340Z 19004KT 10SM OVC110 M02/M09 A3019 830 58 -1000 190/04 RMK AO2
94908KDBQ DBQ20071129174509911/29/07 17:45:31  5-MIN KDBQ 292345Z 19004KT 10SM OVC110 M02/M09 A3019 830 60 -1000 190/04 RMK AO2
94908KDBQ DBQ20071129175013411/29/07 17:50:31  5-MIN KDBQ 292350Z 19004KT 10SM OVC110 M02/M09 A3019 830 60 -1000 190/04 RMK AO2 SLP242 T10221089 10000 21022 50001
94908KDBQ DBQ20071129175509911/29/07 17:55:31  5-MIN KDBQ 292355Z 19005KT 10SM OVC110 M02/M09 A3019 830 60 -1000 190/05 RMK AO2
94908KDBQ DBQ20071129180009911/29/07 18:00:31  5-MIN KDBQ 300000Z 19004KT 10SM OVC110 M02/M09 A3020 820 60 -1000 190/04 RMK AO2
94908KDBQ DBQ20071129180509911/29/07 18:05:31  5-MIN KDBQ 300005Z 19004KT 10SM OVC110 M02/M09 A3020 820 60 -1000 190/04 RMK AO2
94908KDBQ DBQ20071129181009911/29/07 18:10:31  5-MIN KDBQ 300010Z 19003KT 10SM OVC110 M02/M09 A3020 820 60 -1000 190/03 RMK AO2
94908KDBQ DBQ20071129181509911/29/07 18:15:31  5-MIN KDBQ 300015Z 00000KT 10SM OVC110 M02/M09 A3020 820 60 -1000 000/00 RMK AO2
94908KDBQ DBQ20071129182009911/29/07 18:20:31  5-MIN KDBQ 300020Z 18003KT 10SM OVC110 M02/M09 A3020 820 60 -1000 180/03 RMK AO2
94908KDBQ DBQ20071129182509911/29/07 18:25:31  5-MIN KDBQ 300025Z 19004KT 10SM OVC120 M02/M09 A3019 830 60 -1000 180/04 RMK AO2
94908KDBQ DBQ20071129183009911/29/07 18:30:31  5-MIN KDBQ 300030Z 19004KT 10SM OVC120 M02/M09 A3019 830 60 -1000 190/04 RMK AO2
94908KDBQ DBQ20071129183509911/29/07 18:35:31  5-MIN KDBQ 300035Z 19003KT 10SM OVC120 M02/M09 A3019 830 60 -1000 180/03 RMK AO2
94908KDBQ DBQ20071129184009911/29/07 18:40:31  5-MIN KDBQ 300040Z 20003KT 10SM OVC110 M02/M09 A3019 830 60 -1000 200/03 RMK AO2
94908KDBQ DBQ20071129184509911/29/07 18:45:31  5-MIN KDBQ 300045Z 21003KT 10SM OVC110 M02/M09 A3019 830 60 -1000 210/03 RMK AO2
94908KDBQ DBQ20071129185011611/29/07 18:50:31  5-MIN KDBQ 300050Z 22003KT 10SM OVC110 M02/M09 A3019 830 60 -1000 220/03 RMK AO2 SLP242 T10221089
94908KDBQ DBQ20071129185509811/29/07 18:55:31  5-MIN KDBQ 300055Z 00000KT 10SM OVC110 M02/M09 A3019 830 58 -900 000/00 RMK AO2
94908KDBQ DBQ20071129190009811/29/07 19:00:31  5-MIN KDBQ 300100Z 20003KT 10SM OVC100 M02/M09 A3020 820 58 -900 200/03 RMK AO2
94908KDBQ DBQ20071129190509911/29/07 19:05:31  5-MIN KDBQ 300105Z 21003KT 10SM OVC100 M02/M09 A3019 830 60 -1000 200/03 RMK AO2
94908KDBQ DBQ20071129191009911/29/07 19:10:31  5-MIN KDBQ 300110Z 00000KT 10SM OVC095 M02/M08 A3019 830 63 -1000 000/00 RMK AO2
94908KDBQ DBQ20071129191509811/29/07 19:15:31  5-MIN KDBQ 300115Z 00000KT 10SM OVC095 M02/M08 A3019 830 60 -900 000/00 RMK AO2
94908KDBQ DBQ20071129192009811/29/07 19:20:31  5-MIN KDBQ 300120Z 00000KT 10SM OVC090 M02/M08 A3019 830 60 -900 000/00 RMK AO2
94908KDBQ DBQ20071129192509811/29/07 19:25:31  5-MIN KDBQ 300125Z 00000KT 10SM OVC090 M02/M09 A3019 830 58 -900 000/00 RMK AO2
94908KDBQ DBQ20071129193009811/29/07 19:30:31  5-MIN KDBQ 300130Z 17003KT 10SM OVC090 M02/M08 A3019 830 60 -900 170/03 RMK AO2
94908KDBQ DBQ20071129193509811/29/07 19:35:31  5-MIN KDBQ 300135Z 16004KT 10SM OVC090 M02/M08 A3019 830 60 -900 160/04 RMK AO2
94908KDBQ DBQ20071129194009811/29/07 19:40:31  5-MIN KDBQ 300140Z 16003KT 10SM OVC090 M02/M08 A3018 840 60 -900 160/03 RMK AO2
94908KDBQ DBQ20071129194509811/29/07 19:45:31  5-MIN KDBQ 300145Z 17005KT 10SM OVC090 M02/M08 A3018 830 60 -900 170/05 RMK AO2
94908KDBQ DBQ20071129195011511/29/07 19:50:31  5-MIN KDBQ 300150Z 16006KT 10SM OVC090 M01/M08 A3018 840 58 -800 160/06 RMK AO2 SLP238 T10111083
94908KDBQ DBQ20071129195510311/29/07 19:55:31  5-MIN KDBQ 300155Z AUTO 16006KT 10SM OVC095 M01/M08 A3018 840 58 -800 160/06 RMK AO2
94908KDBQ DBQ20071129200010311/29/07 20:00:31  5-MIN KDBQ 300200Z AUTO 16006KT 10SM OVC100 M02/M08 A3017 850 60 -900 160/06 RMK AO2
94908KDBQ DBQ20071129200510311/29/07 20:05:31  5-MIN KDBQ 300205Z AUTO 16005KT 10SM OVC100 M02/M08 A3017 850 60 -900 160/05 RMK AO2
94908KDBQ DBQ20071129201010311/29/07 20:10:31  5-MIN KDBQ 300210Z AUTO 16005KT 10SM BKN100 M02/M08 A3017 850 60 -900 160/05 RMK AO2
94908KDBQ DBQ20071129201510311/29/07 20:15:31  5-MIN KDBQ 300215Z AUTO 16005KT 10SM BKN100 M02/M08 A3017 850 60 -900 160/05 RMK AO2
94908KDBQ DBQ20071129202010311/29/07 20:20:31  5-MIN KDBQ 300220Z AUTO 16005KT 10SM SCT100 M02/M08 A3017 850 60 -900 160/05 RMK AO2
94908KDBQ DBQ20071129202510311/29/07 20:25:31  5-MIN KDBQ 300225Z AUTO 16005KT 10SM SCT100 M02/M08 A3017 850 60 -900 160/05 RMK AO2
94908KDBQ DBQ20071129203010411/29/07 20:30:31  5-MIN KDBQ 300230Z AUTO 17004KT 10SM FEW110 M02/M08 A3017 850 63 -1000 160/04 RMK AO2
94908KDBQ DBQ20071129203510411/29/07 20:35:31  5-MIN KDBQ 300235Z AUTO 16004KT 10SM FEW110 M02/M08 A3017 850 63 -1000 160/04 RMK AO2
94908KDBQ DBQ20071129204010411/29/07 20:40:31  5-MIN KDBQ 300240Z AUTO 16004KT 10SM FEW120 M03/M08 A3017 850 66 -1000 160/04 RMK AO2
94908KDBQ DBQ20071129204510411/29/07 20:45:31  5-MIN KDBQ 300245Z AUTO 17004KT 10SM SCT120 M03/M08 A3017 850 66 -1000 170/04 RMK AO2
94908KDBQ DBQ20071129205012711/29/07 20:50:31  5-MIN KDBQ 300250Z AUTO 18003KT 10SM SCT120 M03/M08 A3017 850 68 -1100 180/03 RMK AO2 SLP234 T10331083 58005
94908KDBQ DBQ20071129205510411/29/07 20:55:31  5-MIN KDBQ 300255Z AUTO 19003KT 10SM BKN110 M03/M08 A3017 850 66 -1000 190/03 RMK AO2
94908KDBQ DBQ20071129210010411/29/07 21:00:31  5-MIN KDBQ 300300Z AUTO 19004KT 10SM BKN110 M03/M08 A3017 850 66 -1000 190/04 RMK AO2
94908KDBQ DBQ20071129210510411/29/07 21:05:31  5-MIN KDBQ 300305Z AUTO 17005KT 10SM OVC110 M03/M08 A3016 850 66 -1000 170/05 RMK AO2
94908KDBQ DBQ20071129211010411/29/07 21:10:31  5-MIN KDBQ 300310Z AUTO 17006KT 10SM OVC110 M03/M08 A3016 860 66 -1000 170/06 RMK AO2
94908KDBQ DBQ20071129211510411/29/07 21:15:31  5-MIN KDBQ 300315Z AUTO 17006KT 10SM OVC110 M02/M08 A3016 860 63 -1000 170/06 RMK AO2
94908KDBQ DBQ20071129212010411/29/07 21:20:31  5-MIN KDBQ 300320Z AUTO 17007KT 10SM OVC110 M02/M08 A3016 860 63 -1000 170/07 RMK AO2
94908KDBQ DBQ20071129212510411/29/07 21:25:31  5-MIN KDBQ 300325Z AUTO 17007KT 10SM OVC110 M02/M08 A3016 860 63 -1000 170/07 RMK AO2
94908KDBQ DBQ20071129213010411/29/07 21:30:31  5-MIN KDBQ 300330Z AUTO 18007KT 10SM BKN110 M02/M08 A3016 860 66 -1000 180/07 RMK AO2
94908KDBQ DBQ20071129213510411/29/07 21:35:31  5-MIN KDBQ 300335Z AUTO 18006KT 10SM BKN110 M02/M08 A3016 860 66 -1000 180/06 RMK AO2
94908KDBQ DBQ20071129214010311/29/07 21:40:31  5-MIN KDBQ 300340Z AUTO 17008KT 10SM SCT110 M02/M08 A3015 870 66 -900 170/08 RMK AO2
94908KDBQ DBQ20071129214510311/29/07 21:45:31  5-MIN KDBQ 300345Z AUTO 17009KT 10SM SCT110 M02/M08 A3014 870 63 -900 170/09 RMK AO2
94908KDBQ DBQ20071129215012011/29/07 21:50:31  5-MIN KDBQ 300350Z AUTO 17008KT 10SM FEW110 M02/M08 A3014 870 63 -900 170/08 RMK AO2 SLP223 T10171078
94908KDBQ DBQ20071129215510311/29/07 21:55:31  5-MIN KDBQ 300355Z AUTO 17008KT 10SM FEW110 M02/M08 A3014 870 63 -900 170/08 RMK AO2
94908KDBQ DBQ20071129220010311/29/07 22:00:31  5-MIN KDBQ 300400Z AUTO 18007KT 10SM FEW100 M02/M08 A3014 880 63 -900 180/07 RMK AO2
94908KDBQ DBQ20071129220510311/29/07 22:05:31  5-MIN KDBQ 300405Z AUTO 18008KT 10SM SCT110 M02/M08 A3014 880 63 -900 180/08 RMK AO2
94908KDBQ DBQ20071129221010311/29/07 22:10:31  5-MIN KDBQ 300410Z AUTO 18008KT 10SM BKN110 M01/M08 A3014 880 60 -800 180/08 RMK AO2
94908KDBQ DBQ20071129221510311/29/07 22:15:31  5-MIN KDBQ 300415Z AUTO 19008KT 10SM BKN100 M01/M07 A3014 880 63 -800 190/08 RMK AO2
94908KDBQ DBQ20071129222010311/29/07 22:20:31  5-MIN KDBQ 300420Z AUTO 19008KT 10SM BKN100 M01/M07 A3013 880 63 -800 190/08 RMK AO2
94908KDBQ DBQ20071129222510311/29/07 22:25:31  5-MIN KDBQ 300425Z AUTO 19008KT 10SM OVC100 M01/M07 A3013 890 63 -800 190/08 RMK AO2
94908KDBQ DBQ20071129223010311/29/07 22:30:31  5-MIN KDBQ 300430Z AUTO 19009KT 10SM OVC100 M01/M07 A3013 890 63 -800 190/09 RMK AO2
94908KDBQ DBQ20071129223510311/29/07 22:35:31  5-MIN KDBQ 300435Z AUTO 19010KT 10SM OVC100 M01/M07 A3013 890 63 -800 190/10 RMK AO2
94908KDBQ DBQ20071129224010311/29/07 22:40:31  5-MIN KDBQ 300440Z AUTO 20009KT 10SM OVC095 M01/M07 A3013 890 63 -800 200/09 RMK AO2
94908KDBQ DBQ20071129224510311/29/07 22:45:31  5-MIN KDBQ 300445Z AUTO 20010KT 10SM OVC095 M01/M07 A3012 890 63 -800 200/10 RMK AO2
94908KDBQ DBQ20071129225012011/29/07 22:50:31  5-MIN KDBQ 300450Z AUTO 20010KT 10SM OVC095 M01/M07 A3012 890 63 -800 200/10 RMK AO2 SLP213 T10111072
94908KDBQ DBQ20071129225510311/29/07 22:55:31  5-MIN KDBQ 300455Z AUTO 20010KT 10SM OVC095 M01/M07 A3011 900 63 -800 200/10 RMK AO2
94908KDBQ DBQ20071129230010311/29/07 23:00:31  5-MIN KDBQ 300500Z AUTO 20011KT 10SM OVC095 M01/M07 A3011 900 63 -800 200/11 RMK AO2
94908KDBQ DBQ20071129230510311/29/07 23:05:31  5-MIN KDBQ 300505Z AUTO 20012KT 10SM OVC100 M01/M07 A3011 900 63 -700 200/12 RMK AO2
94908KDBQ DBQ20071129231010311/29/07 23:10:31  5-MIN KDBQ 300510Z AUTO 20011KT 10SM OVC100 M01/M07 A3011 900 63 -700 200/11 RMK AO2
94908KDBQ DBQ20071129231510311/29/07 23:15:31  5-MIN KDBQ 300515Z AUTO 20010KT 10SM OVC100 M01/M07 A3011 910 63 -700 200/10 RMK AO2
94908KDBQ DBQ20071129232010311/29/07 23:20:31  5-MIN KDBQ 300520Z AUTO 20011KT 10SM OVC100 M01/M07 A3010 910 63 -700 200/11 RMK AO2
94908KDBQ DBQ20071129232510311/29/07 23:25:31  5-MIN KDBQ 300525Z AUTO 19013KT 10SM OVC100 M01/M07 A3009 920 63 -700 190/13 RMK AO2
94908KDBQ DBQ20071129233010211/29/07 23:30:31  5-MIN KDBQ 300530Z AUTO 20011KT 10SM OVC100 00/M07 A3010 910 61 -600 200/11 RMK AO2
94908KDBQ DBQ20071129233510211/29/07 23:35:31  5-MIN KDBQ 300535Z AUTO 21011KT 10SM OVC100 00/M07 A3010 910 61 -600 210/11 RMK AO2
94908KDBQ DBQ20071129234010211/29/07 23:40:31  5-MIN KDBQ 300540Z AUTO 21011KT 10SM OVC100 00/M07 A3010 920 61 -600 210/11 RMK AO2
94908KDBQ DBQ20071129234510211/29/07 23:45:31  5-MIN KDBQ 300545Z AUTO 20012KT 10SM OVC100 00/M07 A3009 920 61 -600 200/12 RMK AO2
94908KDBQ DBQ20071129235014711/29/07 23:50:31  5-MIN KDBQ 300550Z AUTO 20012KT 10SM OVC100 00/M07 A3010 920 61 -600 200/12 RMK AO2 SLP204 T00001067 10000 21033 400001094 58007
94908KDBQ DBQ20071129235510211/29/07 23:55:31  5-MIN KDBQ 300555Z AUTO 20013KT 10SM OVC100 00/M07 A3009 920 61 -600 200/13 RMK AO2
94908KDBQ DBQ20071130000010211/30/07 00:00:38  5-MIN KDBQ 300600Z AUTO 20013KT 10SM OVC100 00/M07 A3009 920 61 -600 200/13 RMK AO2
94908KDBQ DBQ20071130000510211/30/07 00:05:31  5-MIN KDBQ 300605Z AUTO 20013KT 10SM OVC100 01/M07 A3009 920 58 -500 200/13 RMK AO2
94908KDBQ DBQ20071130001010211/30/07 00:10:31  5-MIN KDBQ 300610Z AUTO 20013KT 10SM OVC100 01/M07 A3009 920 58 -500 200/13 RMK AO2
94908KDBQ DBQ20071130001510211/30/07 00:15:31  5-MIN KDBQ 300615Z AUTO 21013KT 10SM OVC100 01/M07 A3009 930 58 -500 200/13 RMK AO2
94908KDBQ DBQ20071130002010211/30/07 00:20:31  5-MIN KDBQ 300620Z AUTO 21014KT 10SM OVC100 01/M07 A3008 930 58 -500 210/14 RMK AO2
94908KDBQ DBQ20071130002510911/30/07 00:25:31  5-MIN KDBQ 300625Z AUTO 20013KT 10SM FEW085 OVC100 01/M07 A3008 930 58 -500 200/13 RMK AO2
94908KDBQ DBQ20071130003010211/30/07 00:30:31  5-MIN KDBQ 300630Z AUTO 21015KT 10SM OVC100 01/M07 A3008 930 56 -400 210/15 RMK AO2
94908KDBQ DBQ20071130003510211/30/07 00:35:31  5-MIN KDBQ 300635Z AUTO 21014KT 10SM OVC100 01/M07 A3008 930 56 -400 210/14 RMK AO2
94908KDBQ DBQ20071130004010211/30/07 00:40:31  5-MIN KDBQ 300640Z AUTO 21015KT 10SM OVC100 01/M07 A3008 930 54 -400 210/15 RMK AO2
94908KDBQ DBQ20071130004510211/30/07 00:45:31  5-MIN KDBQ 300645Z AUTO 21014KT 10SM OVC100 01/M07 A3008 940 54 -400 210/14 RMK AO2
94908KDBQ DBQ20071130005011911/30/07 00:50:31  5-MIN KDBQ 300650Z AUTO 21013KT 10SM OVC100 01/M07 A3008 930 54 -400 210/13 RMK AO2 SLP197 T00111072
94908KDBQ DBQ20071130005510211/30/07 00:55:31  5-MIN KDBQ 300655Z AUTO 21014KT 10SM OVC095 01/M07 A3008 930 54 -400 210/14 RMK AO2
94908KDBQ DBQ20071130010010211/30/07 01:00:31  5-MIN KDBQ 300700Z AUTO 22014KT 10SM OVC095 02/M07 A3008 930 52 -400 220/14 RMK AO2
94908KDBQ DBQ20071130021010211/30/07 02:10:31  5-MIN KDBQ 300810Z AUTO 28010KT 10SM OVC100 01/M07 A3012 900 56 -600 280/10 RMK AO2
94908KDBQ DBQ20071130021510211/30/07 02:15:31  5-MIN KDBQ 300815Z AUTO 29008KT 10SM OVC100 01/M07 A3012 890 54 -500 290/08 RMK AO2
94908KDBQ DBQ20071130022010211/30/07 02:20:31  5-MIN KDBQ 300820Z AUTO 30010KT 10SM OVC100 01/M07 A3012 890 56 -500 300/10 RMK AO2
94908KDBQ DBQ20071130022510211/30/07 02:25:31  5-MIN KDBQ 300825Z AUTO 30012KT 10SM OVC100 01/M07 A3013 880 56 -500 300/12 RMK AO2
94908KDBQ DBQ20071130023010211/30/07 02:30:31  5-MIN KDBQ 300830Z AUTO 31011KT 10SM OVC100 01/M07 A3014 880 58 -600 310/11 RMK AO2
94908KDBQ DBQ20071130023510211/30/07 02:35:31  5-MIN KDBQ 300835Z AUTO 34009KT 10SM OVC100 01/M07 A3014 880 58 -600 330/09 RMK AO2
94908KDBQ DBQ20071130024010311/30/07 02:40:31  5-MIN KDBQ 300840Z AUTO 35008KT 10SM OVC095 M01/M07 A3014 880 63 -700 350/08 RMK AO2
94908KDBQ DBQ20071130024510311/30/07 02:45:31  5-MIN KDBQ 300845Z AUTO 35009KT 10SM OVC095 M01/M07 A3014 870 63 -800 350/09 RMK AO2
94908KDBQ DBQ20071130025012611/30/07 02:50:31  5-MIN KDBQ 300850Z AUTO 35011KT 10SM BKN095 M02/M08 A3014 870 63 -900 350/11 RMK AO2 SLP220 T10171078 56025
94908KDBQ DBQ20071130025510311/30/07 02:55:31  5-MIN KDBQ 300855Z AUTO 35012KT 10SM BKN095 M02/M08 A3015 870 66 -900 350/12 RMK AO2
94908KDBQ DBQ20071130030010311/30/07 03:00:31  5-MIN KDBQ 300900Z AUTO 35015KT 10SM SCT095 M02/M08 A3015 870 63 -900 340/15 RMK AO2
94908KDBQ DBQ20071130030510411/30/07 03:05:31  5-MIN KDBQ 300905Z AUTO 34015KT 10SM FEW095 M03/M08 A3015 870 66 -1000 340/15 RMK AO2
94908KDBQ DBQ20071130031010411/30/07 03:10:31  5-MIN KDBQ 300910Z AUTO 34013KT 10SM FEW095 M03/M08 A3015 870 68 -1100 340/13 RMK AO2
94908KDBQ DBQ20071130031510111/30/07 03:15:31  5-MIN KDBQ 300915Z AUTO 34012KT 10SM CLR M03/M09 A3015 860 65 -1100 340/12 RMK AO2
94908KDBQ DBQ20071130032010111/30/07 03:20:31  5-MIN KDBQ 300920Z AUTO 34012KT 10SM CLR M03/M09 A3016 860 65 -1100 340/12 RMK AO2
94908KDBQ DBQ20071130032510111/30/07 03:25:31  5-MIN KDBQ 300925Z AUTO 35011KT 10SM CLR M04/M08 A3016 860 71 -1200 340/11 RMK AO2
94908KDBQ DBQ20071130033010111/30/07 03:30:31  5-MIN KDBQ 300930Z AUTO 35012KT 10SM CLR M04/M08 A3016 860 71 -1200 340/12 RMK AO2
94908KDBQ DBQ20071130033510111/30/07 03:35:31  5-MIN KDBQ 300935Z AUTO 34012KT 10SM CLR M04/M08 A3016 860 71 -1200 340/12 RMK AO2
94908KDBQ DBQ20071130034010111/30/07 03:40:31  5-MIN KDBQ 300940Z AUTO 35012KT 10SM CLR M04/M08 A3017 850 71 -1200 340/12 RMK AO2
94908KDBQ DBQ20071130034510111/30/07 03:45:31  5-MIN KDBQ 300945Z AUTO 34012KT 10SM CLR M04/M08 A3017 850 71 -1200 340/12 RMK AO2
94908KDBQ DBQ20071130035011811/30/07 03:50:31  5-MIN KDBQ 300950Z AUTO 34014KT 10SM CLR M04/M08 A3017 850 71 -1200 340/14 RMK AO2 SLP230 T10391083
94908KDBQ DBQ20071130035510111/30/07 03:55:31  5-MIN KDBQ 300955Z AUTO 33011KT 10SM CLR M04/M08 A3017 850 78 -1300 330/11 RMK AO2
94908KDBQ DBQ20071130040010411/30/07 04:00:31  5-MIN KDBQ 301000Z AUTO 33011KT 10SM FEW012 M04/M08 A3018 840 78 -1300 330/11 RMK AO2
94908KDBQ DBQ20071130040510411/30/07 04:05:31  5-MIN KDBQ 301005Z AUTO 34013KT 10SM SCT012 M04/M08 A3018 840 78 -1300 340/13 RMK AO2
94908KDBQ DBQ20071130041011111/30/07 04:10:31  5-MIN KDBQ 301010Z AUTO 34010KT 10SM SCT012 BKN041 M04/M07 A3018 840 78 -1200 340/10 RMK AO2
94908KDBQ DBQ20071130041511111/30/07 04:15:31  5-MIN KDBQ 301015Z AUTO 34009KT 10SM SCT012 BKN041 M04/M07 A3018 840 78 -1200 340/09 RMK AO2
94908KDBQ DBQ20071130042011111/30/07 04:20:31  5-MIN KDBQ 301020Z AUTO 34008KT 10SM FEW012 BKN039 M04/M07 A3018 840 78 -1200 340/08 RMK AO2
94908KDBQ DBQ20071130042511111/30/07 04:25:31  5-MIN KDBQ 301025Z AUTO 34008KT 10SM FEW012 OVC039 M04/M07 A3019 830 81 -1200 340/08 RMK AO2
94908KDBQ DBQ20071130043011111/30/07 04:30:31  5-MIN KDBQ 301030Z AUTO 33008KT 10SM FEW012 OVC039 M04/M07 A3018 830 78 -1200 330/08 RMK AO2
94908KDBQ DBQ20071130043511111/30/07 04:35:31  5-MIN KDBQ 301035Z AUTO 33006KT 10SM FEW012 OVC039 M04/M07 A3018 840 78 -1200 330/06 RMK AO2
94908KDBQ DBQ20071130044010411/30/07 04:40:31  5-MIN KDBQ 301040Z AUTO 32006KT 10SM OVC037 M04/M07 A3019 830 78 -1200 320/06 RMK AO2
94908KDBQ DBQ20071130044510411/30/07 04:45:31  5-MIN KDBQ 301045Z AUTO 32008KT 10SM BKN037 M04/M07 A3020 820 81 -1300 320/08 RMK AO2
94908KDBQ DBQ20071130045013511/30/07 04:50:31  5-MIN KDBQ 301050Z AUTO 31010KT 10SM FEW013 BKN037 M04/M07 A3021 810 81 -1300 310/10 RMK AO2 PRESRR SLP244 T10441072
94908KDBQ DBQ20071130045512411/30/07 04:55:31  5-MIN KDBQ 301055Z AUTO 31012G18KT 10SM SCT015 OVC037 M04/M07 A3021 810 78 -1200 310/12G18 RMK AO2 PRESRR
94908KDBQ DBQ20071130050011711/30/07 05:00:31  5-MIN KDBQ 301100Z AUTO 31015G20KT 10SM BKN015 OVC037 M04/M08 A3022 800 78 -1300 310/15G20 RMK AO2
94908KDBQ DBQ20071130050511711/30/07 05:05:31  5-MIN KDBQ 301105Z AUTO 34016G23KT 10SM BKN015 OVC039 M04/M08 A3022 800 74 -1300 330/16G23 RMK AO2
94908KDBQ DBQ20071130051011711/30/07 05:10:31  5-MIN KDBQ 301110Z AUTO 32011G23KT 10SM BKN015 OVC039 M04/M08 A3023 800 74 -1300 320/11G23 RMK AO2
94908KDBQ DBQ20071130051510411/30/07 05:15:31  5-MIN KDBQ 301115Z AUTO 32013KT 10SM OVC015 M05/M08 A3023 790 77 -1400 320/13 RMK AO2
94908KDBQ DBQ20071130052010411/30/07 05:20:31  5-MIN KDBQ 301120Z AUTO 33012KT 10SM OVC015 M05/M08 A3023 790 77 -1400 330/12 RMK AO2
94908KDBQ DBQ20071130052510411/30/07 05:25:31  5-MIN KDBQ 301125Z AUTO 32013KT 10SM OVC015 M05/M08 A3023 790 77 -1400 320/13 RMK AO2
94908KDBQ DBQ20071130053011011/30/07 05:30:31  5-MIN KDBQ 301130Z AUTO 32013G19KT 10SM OVC015 M05/M09 A3024 780 74 -1400 310/13G19 RMK AO2
94908KDBQ DBQ20071130053510411/30/07 05:35:31  5-MIN KDBQ 301135Z AUTO 31012KT 10SM OVC015 M06/M09 A3025 780 77 -1500 310/12 RMK AO2
94908KDBQ DBQ20071130054010411/30/07 05:40:31  5-MIN KDBQ 301140Z AUTO 32014KT 10SM OVC015 M06/M09 A3025 780 74 -1500 320/14 RMK AO2
94908KDBQ DBQ20071130054511011/30/07 05:45:31  5-MIN KDBQ 301145Z AUTO 32012G20KT 10SM OVC017 M06/M09 A3025 770 74 -1500 320/12G20 RMK AO2
94908KDBQ DBQ20071130055014511/30/07 05:50:31  5-MIN KDBQ 301150Z AUTO 31010G20KT 10SM BKN017 M06/M09 A3025 770 74 -1500 310/10G20 RMK AO2 SLP260 T10561094 10017 21056 53017
94908KDBQ DBQ20071130055509911/30/07 05:55:31  5-MIN KDBQ 301155Z 32013KT 10SM BKN017 M06/M10 A3025 770 74 -1600 320/13 RMK AO2
94908KDBQ DBQ20071130060009911/30/07 06:00:31  5-MIN KDBQ 301200Z 32011KT 10SM SCT017 M06/M10 A3025 770 74 -1600 320/11 RMK AO2
94908KDBQ DBQ20071130060510511/30/07 06:05:31  5-MIN KDBQ 301205Z 32015G18KT 10SM SCT017 M07/M11 A3026 770 71 -1600 320/15G18 RMK AO2
94908KDBQ DBQ20071130061010511/30/07 06:10:31  5-MIN KDBQ 301210Z 31011G18KT 10SM FEW017 M07/M12 A3026 760 68 -1600 310/11G18 RMK AO2
94908KDBQ DBQ20071130061509911/30/07 06:15:31  5-MIN KDBQ 301215Z 30009KT 10SM FEW019 M07/M11 A3026 760 74 -1700 300/09 RMK AO2
94908KDBQ DBQ20071130062009611/30/07 06:20:31  5-MIN KDBQ 301220Z 30012KT 10SM CLR M07/M12 A3027 760 71 -1700 300/12 RMK AO2
94908KDBQ DBQ20071130062510311/30/07 06:25:31  5-MIN KDBQ 301225Z 30009KT 10SM CLR M07/M12 A3028 750 68 -1700 300/09 RMK AO2 PRESRR
94908KDBQ DBQ20071130063010311/30/07 06:30:31  5-MIN KDBQ 301230Z 31010KT 10SM CLR M07/M13 A3029 740 65 -1700 300/10 RMK AO2 PRESRR
94908KDBQ DBQ20071130063510211/30/07 06:35:31  5-MIN KDBQ 301235Z 32014G20KT 10SM CLR M08/M13 A3029 740 64 -1800 320/14G20 RMK AO2
94908KDBQ DBQ20071130064010911/30/07 06:40:31  5-MIN KDBQ 301240Z 32014G24KT 10SM CLR M08/M14 A3030 730 59 -1800 320/14G24 RMK AO2 PRESRR
94908KDBQ DBQ20071130064510211/30/07 06:45:31  5-MIN KDBQ 301245Z 32012G24KT 10SM CLR M08/M14 A3030 730 59 -1800 320/12G24 RMK AO2
94908KDBQ DBQ20071130065011911/30/07 06:50:31  5-MIN KDBQ 301250Z 32013G19KT 10SM CLR M08/M15 A3030 720 56 -1800 320/13G19 RMK AO2 SLP279 T10781150
94908KDBQ DBQ20071130065510211/30/07 06:55:31  5-MIN KDBQ 301255Z 32017G27KT 10SM CLR M08/M15 A3030 720 59 -1900 320/17G27 RMK AO2
94908KDBQ DBQ20071130070010211/30/07 07:00:31  5-MIN KDBQ 301300Z 32013G27KT 10SM CLR M08/M15 A3031 720 59 -1900 320/13G27 RMK AO2
94908KDBQ DBQ20071130070510211/30/07 07:05:31  5-MIN KDBQ 301305Z 32017G20KT 10SM CLR M08/M16 A3031 720 56 -1900 320/17G20 RMK AO2
94908KDBQ DBQ20071130071010211/30/07 07:10:31  5-MIN KDBQ 301310Z 32014G20KT 10SM CLR M08/M16 A3031 720 56 -1900 320/14G20 RMK AO2
94908KDBQ DBQ20071130071510211/30/07 07:15:31  5-MIN KDBQ 301315Z 32017G24KT 10SM CLR M08/M16 A3031 720 56 -1900 320/17G24 RMK AO2
94908KDBQ DBQ20071130072010211/30/07 07:20:31  5-MIN KDBQ 301320Z 32017G24KT 10SM CLR M08/M16 A3031 720 56 -1900 320/17G24 RMK AO2
94908KDBQ DBQ20071130072510211/30/07 07:25:31  5-MIN KDBQ 301325Z 32014G23KT 10SM CLR M09/M16 A3031 720 59 -2000 320/14G23 RMK AO2
94908KDBQ DBQ20071130073010211/30/07 07:30:31  5-MIN KDBQ 301330Z 32015G21KT 10SM CLR M08/M16 A3032 710 56 -1900 320/15G21 RMK AO2
94908KDBQ DBQ20071130073510211/30/07 07:35:31  5-MIN KDBQ 301335Z 32013G21KT 10SM CLR M09/M16 A3032 710 59 -2000 320/13G21 RMK AO2
94908KDBQ DBQ20071130074010211/30/07 07:40:31  5-MIN KDBQ 301340Z 32016G20KT 10SM CLR M09/M16 A3033 710 59 -2000 320/16G20 RMK AO2
94908KDBQ DBQ20071130074509611/30/07 07:45:31  5-MIN KDBQ 301345Z 32016KT 10SM CLR M09/M16 A3033 700 59 -2000 320/16 RMK AO2
94908KDBQ DBQ20071130075011311/30/07 07:50:31  5-MIN KDBQ 301350Z 32015KT 10SM CLR M08/M16 A3033 700 56 -1900 320/15 RMK AO2 SLP287 T10831156
94908KDBQ DBQ20071130075510211/30/07 07:55:31  5-MIN KDBQ 301355Z 32012G20KT 10SM CLR M09/M16 A3033 700 59 -2000 320/12G20 RMK AO2
94908KDBQ DBQ20071130080009611/30/07 08:00:31  5-MIN KDBQ 301400Z 32010KT 10SM CLR M08/M16 A3033 700 56 -1900 310/10 RMK AO2
94908KDBQ DBQ20071130080509611/30/07 08:05:31  5-MIN KDBQ 301405Z 32010KT 10SM CLR M08/M15 A3033 700 59 -1900 320/10 RMK AO2
94908KDBQ DBQ20071130081009611/30/07 08:10:31  5-MIN KDBQ 301410Z 31011KT 10SM CLR M08/M15 A3033 700 59 -1900 310/11 RMK AO2
94908KDBQ DBQ20071130081509611/30/07 08:15:31  5-MIN KDBQ 301415Z 32009KT 10SM CLR M08/M15 A3033 700 59 -1900 320/09 RMK AO2
94908KDBQ DBQ20071130082009611/30/07 08:20:31  5-MIN KDBQ 301420Z 32010KT 10SM CLR M08/M15 A3033 700 59 -1900 320/10 RMK AO2
94908KDBQ DBQ20071130082509611/30/07 08:25:31  5-MIN KDBQ 301425Z 31010KT 10SM CLR M08/M15 A3033 700 59 -1900 310/10 RMK AO2
94908KDBQ DBQ20071130083010211/30/07 08:30:31  5-MIN KDBQ 301430Z 31014G19KT 10SM CLR M08/M15 A3034 690 59 -1900 310/14G19 RMK AO2
94908KDBQ DBQ20071130083510211/30/07 08:35:31  5-MIN KDBQ 301435Z 32019G25KT 10SM CLR M08/M16 A3034 690 56 -2000 320/19G25 RMK AO2
94908KDBQ DBQ20071130084012011/30/07 08:40:31  5-MIN KDBQ 301440Z 32020G26KT 10SM CLR M08/M16 A3034 690 54 -2000 320/20G26 RMK AO2 PK WND 33026/1440
94908KDBQ DBQ20071130084512011/30/07 08:45:31  5-MIN KDBQ 301445Z 32017G26KT 10SM CLR M08/M17 A3034 690 51 -2000 320/17G26 RMK AO2 PK WND 33026/1440
94908KDBQ DBQ20071130085014311/30/07 08:50:31  5-MIN KDBQ 301450Z 33015G23KT 10SM CLR M08/M16 A3034 690 54 -2000 320/15G23 RMK AO2 PK WND 33026/1440 SLP294 T10831161 53035
94908KDBQ DBQ20071130085509611/30/07 08:55:31  5-MIN KDBQ 301455Z 32010KT 10SM CLR M08/M16 A3035 690 51 -1900 320/10 RMK AO2
94908KDBQ DBQ20071130090009611/30/07 09:00:31  5-MIN KDBQ 301500Z 30015KT 10SM CLR M08/M16 A3035 680 54 -1900 300/15 RMK AO2
94908KDBQ DBQ20071130090509611/30/07 09:05:31  5-MIN KDBQ 301505Z 31016KT 10SM CLR M08/M16 A3035 680 54 -1900 300/16 RMK AO2
94908KDBQ DBQ20071130091009611/30/07 09:10:31  5-MIN KDBQ 301510Z 31014KT 10SM CLR M08/M16 A3035 680 51 -1900 310/14 RMK AO2
94908KDBQ DBQ20071130091509611/30/07 09:15:31  5-MIN KDBQ 301515Z 30015KT 10SM CLR M08/M16 A3036 680 51 -1900 300/15 RMK AO2
94908KDBQ DBQ20071130092010211/30/07 09:20:31  5-MIN KDBQ 301520Z 32011G19KT 10SM CLR M08/M16 A3035 680 51 -1900 310/11G19 RMK AO2
94908KDBQ DBQ20071130092510211/30/07 09:25:31  5-MIN KDBQ 301525Z 30015G19KT 10SM CLR M07/M16 A3036 680 49 -1800 300/15G19 RMK AO2
94908KDBQ DBQ20071130093010211/30/07 09:30:31  5-MIN KDBQ 301530Z 32017G22KT 10SM CLR M08/M17 A3036 680 47 -1900 320/17G22 RMK AO2
94908KDBQ DBQ20071130093510211/30/07 09:35:31  5-MIN KDBQ 301535Z 32016G25KT 10SM CLR M07/M18 A3036 680 43 -1800 320/16G25 RMK AO2
94908KDBQ DBQ20071130094010211/30/07 09:40:31  5-MIN KDBQ 301540Z 31013G25KT 10SM CLR M07/M17 A3036 670 45 -1800 310/13G25 RMK AO2
94908KDBQ DBQ20071130094510211/30/07 09:45:31  5-MIN KDBQ 301545Z 31019G23KT 10SM CLR M07/M18 A3036 670 43 -1800 310/19G23 RMK AO2
94908KDBQ DBQ20071130095011911/30/07 09:50:31  5-MIN KDBQ 301550Z 31019G23KT 10SM CLR M08/M18 A3037 670 43 -1900 310/19G23 RMK AO2 SLP301 T10781183
94908KDBQ DBQ20071130095510211/30/07 09:55:31  5-MIN KDBQ 301555Z 30017G22KT 10SM CLR M08/M18 A3037 660 45 -1900 300/17G22 RMK AO2
94908KDBQ DBQ20071130100010211/30/07 10:00:31  5-MIN KDBQ 301600Z 30016G21KT 10SM CLR M08/M18 A3037 660 45 -1900 300/16G21 RMK AO2
94908KDBQ DBQ20071130100510211/30/07 10:05:31  5-MIN KDBQ 301605Z 30017G22KT 10SM CLR M08/M18 A3038 660 43 -1900 300/17G22 RMK AO2
94908KDBQ DBQ20071130101010211/30/07 10:10:31  5-MIN KDBQ 301610Z 32015G22KT 10SM CLR M08/M18 A3038 660 43 -1900 320/15G22 RMK AO2
94908KDBQ DBQ20071130101510211/30/07 10:15:31  5-MIN KDBQ 301615Z 32017G23KT 10SM CLR M07/M18 A3038 660 41 -1800 320/17G23 RMK AO2
94908KDBQ DBQ20071130102010211/30/07 10:20:31  5-MIN KDBQ 301620Z 32015G23KT 10SM CLR M07/M18 A3038 660 41 -1800 320/15G23 RMK AO2
94908KDBQ DBQ20071130102509611/30/07 10:25:31  5-MIN KDBQ 301625Z 31014KT 10SM CLR M07/M18 A3038 660 41 -1800 310/14 RMK AO2
94908KDBQ DBQ20071130103010211/30/07 10:30:31  5-MIN KDBQ 301630Z 30013G21KT 10SM CLR M07/M18 A3037 660 43 -1800 300/13G21 RMK AO2
94908KDBQ DBQ20071130103510211/30/07 10:35:31  5-MIN KDBQ 301635Z 31014G21KT 10SM CLR M07/M18 A3037 670 43 -1800 310/14G21 RMK AO2
94908KDBQ DBQ20071130104010211/30/07 10:40:31  5-MIN KDBQ 301640Z 31017G21KT 10SM CLR M07/M18 A3037 660 41 -1800 310/17G21 RMK AO2
94908KDBQ DBQ20071130104510211/30/07 10:45:31  5-MIN KDBQ 301645Z 31013G21KT 10SM CLR M07/M18 A3037 660 39 -1800 310/13G21 RMK AO2
94908KDBQ DBQ20071130105011311/30/07 10:50:31  5-MIN KDBQ 301650Z 30013KT 10SM CLR M07/M18 A3037 660 41 -1800 300/13 RMK AO2 SLP302 T10671178
94908KDBQ DBQ20071130105509611/30/07 10:55:31  5-MIN KDBQ 301655Z 32013KT 10SM CLR M07/M18 A3038 660 41 -1800 320/13 RMK AO2
94908KDBQ DBQ20071130110010211/30/07 11:00:31  5-MIN KDBQ 301700Z 32015G19KT 10SM CLR M07/M18 A3037 660 41 -1800 320/15G19 RMK AO2
94908KDBQ DBQ20071130110510211/30/07 11:05:31  5-MIN KDBQ 301705Z 31015G19KT 10SM CLR M07/M18 A3037 660 39 -1800 310/15G19 RMK AO2
94908KDBQ DBQ20071130111010211/30/07 11:10:31  5-MIN KDBQ 301710Z 31012G19KT 10SM CLR M07/M18 A3038 660 39 -1800 310/12G19 RMK AO2
94908KDBQ DBQ20071130111510211/30/07 11:15:31  5-MIN KDBQ 301715Z 32016G22KT 10SM CLR M07/M18 A3038 660 39 -1800 320/16G22 RMK AO2
94908KDBQ DBQ20071130112010211/30/07 11:20:31  5-MIN KDBQ 301720Z 33012G22KT 10SM CLR M06/M18 A3038 660 38 -1700 330/12G22 RMK AO2
94908KDBQ DBQ20071130112509611/30/07 11:25:31  5-MIN KDBQ 301725Z 32012KT 10SM CLR M06/M19 A3038 660 36 -1700 320/12 RMK AO2
94908KDBQ DBQ20071130113010211/30/07 11:30:31  5-MIN KDBQ 301730Z 33010G18KT 10SM CLR M06/M18 A3038 650 38 -1700 330/10G18 RMK AO2
94908KDBQ DBQ20071130113510211/30/07 11:35:31  5-MIN KDBQ 301735Z 31013G20KT 10SM CLR M06/M18 A3038 650 36 -1600 310/13G20 RMK AO2
94908KDBQ DBQ20071130114010211/30/07 11:40:31  5-MIN KDBQ 301740Z 31015G20KT 10SM CLR M06/M19 A3039 650 36 -1700 310/15G20 RMK AO2
94908KDBQ DBQ20071130114509611/30/07 11:45:31  5-MIN KDBQ 301745Z 30014KT 10SM CLR M06/M19 A3039 650 34 -1700 300/14 RMK AO2
94908KDBQ DBQ20071130115013111/30/07 11:50:31  5-MIN KDBQ 301750Z 29013KT 10SM CLR M06/M19 A3039 650 36 -1700 290/13 RMK AO2 SLP306 T10611189 11056 21089 51031
94908KDBQ DBQ20071130115509611/30/07 11:55:31  5-MIN KDBQ 301755Z 32013KT 10SM CLR M06/M19 A3039 650 34 -1700 320/13 RMK AO2
94908KDBQ DBQ20071130120009611/30/07 12:00:31  5-MIN KDBQ 301800Z 32012KT 10SM CLR M06/M19 A3039 650 33 -1600 320/12 RMK AO2
94908KDBQ DBQ20071130120509611/30/07 12:05:31  5-MIN KDBQ 301805Z 31012KT 10SM CLR M06/M19 A3039 650 34 -1600 310/12 RMK AO2
94908KDBQ DBQ20071130121009611/30/07 12:10:31  5-MIN KDBQ 301810Z 31014KT 10SM CLR M06/M19 A3039 640 34 -1600 310/14 RMK AO2
94908KDBQ DBQ20071130121509611/30/07 12:15:31  5-MIN KDBQ 301815Z 29011KT 10SM CLR M06/M18 A3039 650 36 -1600 290/11 RMK AO2
94908KDBQ DBQ20071130122009611/30/07 12:20:31  5-MIN KDBQ 301820Z 30012KT 10SM CLR M06/M18 A3039 650 36 -1600 300/12 RMK AO2
94908KDBQ DBQ20071130122509611/30/07 12:25:31  5-MIN KDBQ 301825Z 31013KT 10SM CLR M06/M19 A3038 650 34 -1600 300/13 RMK AO2
94908KDBQ DBQ20071130123009611/30/07 12:30:31  5-MIN KDBQ 301830Z 30013KT 10SM CLR M06/M19 A3038 650 33 -1600 300/13 RMK AO2
94908KDBQ DBQ20071130123509611/30/07 12:35:31  5-MIN KDBQ 301835Z 30012KT 10SM CLR M06/M19 A3038 650 33 -1600 290/12 RMK AO2
94908KDBQ DBQ20071130124009611/30/07 12:40:31  5-MIN KDBQ 301840Z 29014KT 10SM CLR M06/M19 A3039 650 34 -1600 290/14 RMK AO2
94908KDBQ DBQ20071130124509611/30/07 12:45:31  5-MIN KDBQ 301845Z 29013KT 10SM CLR M06/M19 A3039 650 33 -1600 290/13 RMK AO2
94908KDBQ DBQ20071130125011311/30/07 12:50:31  5-MIN KDBQ 301850Z 32013KT 10SM CLR M05/M19 A3039 650 31 -1600 320/13 RMK AO2 SLP305 T10501194
94908KDBQ DBQ20071130125510211/30/07 12:55:31  5-MIN KDBQ 301855Z 32013G20KT 10SM CLR M05/M20 A3038 650 30 -1600 320/13G20 RMK AO2
94908KDBQ DBQ20071130130010211/30/07 13:00:31  5-MIN KDBQ 301900Z 32012G20KT 10SM CLR M05/M19 A3038 650 31 -1600 320/12G20 RMK AO2
94908KDBQ DBQ20071130130509611/30/07 13:05:31  5-MIN KDBQ 301905Z 33012KT 10SM CLR M05/M19 A3038 650 33 -1600 330/12 RMK AO2
94908KDBQ DBQ20071130131009611/30/07 13:10:31  5-MIN KDBQ 301910Z 32012KT 10SM CLR M05/M19 A3039 650 33 -1600 320/12 RMK AO2
94908KDBQ DBQ20071130131509611/30/07 13:15:31  5-MIN KDBQ 301915Z 29011KT 10SM CLR M05/M19 A3038 650 33 -1600 290/11 RMK AO2
94908KDBQ DBQ20071130132010211/30/07 13:20:31  5-MIN KDBQ 301920Z 31014G19KT 10SM CLR M05/M19 A3039 650 33 -1600 300/14G19 RMK AO2
94908KDBQ DBQ20071130132510211/30/07 13:25:31  5-MIN KDBQ 301925Z 31012G19KT 10SM CLR M05/M19 A3039 650 31 -1600 310/12G19 RMK AO2
94908KDBQ DBQ20071130133010211/30/07 13:30:31  5-MIN KDBQ 301930Z 31010G18KT 10SM CLR M04/M19 A3038 650 32 -1500 310/10G18 RMK AO2
94908KDBQ DBQ20071130133509611/30/07 13:35:31  5-MIN KDBQ 301935Z 32010KT 10SM CLR M05/M19 A3038 650 33 -1600 320/10 RMK AO2
94908KDBQ DBQ20071130134009611/30/07 13:40:31  5-MIN KDBQ 301940Z 30012KT 10SM CLR M05/M19 A3039 650 33 -1600 300/12 RMK AO2
94908KDBQ DBQ20071130134509611/30/07 13:45:31  5-MIN KDBQ 301945Z 28011KT 10SM CLR M05/M19 A3039 650 33 -1600 280/11 RMK AO2
94908KDBQ DBQ20071130135011311/30/07 13:50:31  5-MIN KDBQ 301950Z 30011KT 10SM CLR M06/M19 A3039 650 34 -1600 300/11 RMK AO2 SLP305 T10561189
94908KDBQ DBQ20071130135509611/30/07 13:55:31  5-MIN KDBQ 301955Z 30012KT 10SM CLR M05/M19 A3039 650 33 -1600 300/12 RMK AO2
94908KDBQ DBQ20071130140009611/30/07 14:00:31  5-MIN KDBQ 302000Z 29010KT 10SM CLR M06/M19 A3039 650 34 -1600 290/10 RMK AO2
94908KDBQ DBQ20071130140509611/30/07 14:05:31  5-MIN KDBQ 302005Z 28012KT 10SM CLR M06/M19 A3039 640 34 -1600 280/12 RMK AO2
94908KDBQ DBQ20071130141009611/30/07 14:10:31  5-MIN KDBQ 302010Z 28009KT 10SM CLR M06/M19 A3039 640 34 -1700 280/09 RMK AO2
94908KDBQ DBQ20071130141509611/30/07 14:15:31  5-MIN KDBQ 302015Z 30010KT 10SM CLR M06/M19 A3040 640 34 -1700 300/10 RMK AO2
94908KDBQ DBQ20071130142009611/30/07 14:20:31  5-MIN KDBQ 302020Z 29011KT 10SM CLR M06/M19 A3039 640 34 -1700 290/11 RMK AO2
94908KDBQ DBQ20071130142509611/30/07 14:25:31  5-MIN KDBQ 302025Z 29010KT 10SM CLR M06/M19 A3040 640 34 -1700 290/10 RMK AO2
94908KDBQ DBQ20071130143009611/30/07 14:30:31  5-MIN KDBQ 302030Z 28011KT 10SM CLR M06/M18 A3040 640 36 -1700 280/11 RMK AO2
94908KDBQ DBQ20071130143509611/30/07 14:35:31  5-MIN KDBQ 302035Z 28011KT 10SM CLR M06/M19 A3040 640 34 -1700 280/11 RMK AO2
94908KDBQ DBQ20071130144009611/30/07 14:40:31  5-MIN KDBQ 302040Z 29012KT 10SM CLR M06/M19 A3040 630 34 -1700 290/12 RMK AO2
94908KDBQ DBQ20071130144509611/30/07 14:45:31  5-MIN KDBQ 302045Z 30010KT 10SM CLR M06/M19 A3040 640 33 -1700 300/10 RMK AO2
94908KDBQ DBQ20071130145011911/30/07 14:50:31  5-MIN KDBQ 302050Z 30012KT 10SM CLR M06/M19 A3040 640 34 -1700 290/12 RMK AO2 SLP311 T10561189 51013
94908KDBQ DBQ20071130145509611/30/07 14:55:31  5-MIN KDBQ 302055Z 30011KT 10SM CLR M06/M19 A3040 640 34 -1700 300/11 RMK AO2
94908KDBQ DBQ20071130150009611/30/07 15:00:31  5-MIN KDBQ 302100Z 29011KT 10SM CLR M06/M19 A3040 630 34 -1700 290/11 RMK AO2
94908KDBQ DBQ20071130150509611/30/07 15:05:31  5-MIN KDBQ 302105Z 29009KT 10SM CLR M06/M19 A3040 630 34 -1700 290/09 RMK AO2
94908KDBQ DBQ20071130151009611/30/07 15:10:31  5-MIN KDBQ 302110Z 29011KT 10SM CLR M06/M19 A3041 630 34 -1700 290/11 RMK AO2
94908KDBQ DBQ20071130151509611/30/07 15:15:31  5-MIN KDBQ 302115Z 29011KT 10SM CLR M06/M19 A3041 630 34 -1700 290/11 RMK AO2
94908KDBQ DBQ20071130152009611/30/07 15:20:31  5-MIN KDBQ 302120Z 30012KT 10SM CLR M06/M19 A3041 630 34 -1700 300/12 RMK AO2
94908KDBQ DBQ20071130152509611/30/07 15:25:31  5-MIN KDBQ 302125Z 29011KT 10SM CLR M06/M20 A3041 630 33 -1700 290/11 RMK AO2
94908KDBQ DBQ20071130153009611/30/07 15:30:31  5-MIN KDBQ 302130Z 30008KT 10SM CLR M06/M19 A3041 630 34 -1700 300/08 RMK AO2
94908KDBQ DBQ20071130153509611/30/07 15:35:31  5-MIN KDBQ 302135Z 30009KT 10SM CLR M06/M19 A3041 630 34 -1700 300/09 RMK AO2
94908KDBQ DBQ20071130154009611/30/07 15:40:31  5-MIN KDBQ 302140Z 30007KT 10SM CLR M06/M19 A3041 620 34 -1700 300/07 RMK AO2
94908KDBQ DBQ20071130154509611/30/07 15:45:31  5-MIN KDBQ 302145Z 31007KT 10SM CLR M06/M19 A3041 630 36 -1700 300/07 RMK AO2
94908KDBQ DBQ20071130155011311/30/07 15:50:31  5-MIN KDBQ 302150Z 29005KT 10SM CLR M06/M18 A3041 630 38 -1700 290/05 RMK AO2 SLP316 T10611183
94908KDBQ DBQ20071130155509611/30/07 15:55:31  5-MIN KDBQ 302155Z 27007KT 10SM CLR M07/M18 A3041 630 41 -1800 270/07 RMK AO2
94908KDBQ DBQ20071130160009611/30/07 16:00:31  5-MIN KDBQ 302200Z 28009KT 10SM CLR M07/M18 A3041 630 41 -1800 270/09 RMK AO2
94908KDBQ DBQ20071130160509611/30/07 16:05:31  5-MIN KDBQ 302205Z 26007KT 10SM CLR M07/M18 A3042 620 41 -1800 260/07 RMK AO2
94908KDBQ DBQ20071130161009611/30/07 16:10:31  5-MIN KDBQ 302210Z 27008KT 10SM CLR M07/M18 A3042 620 43 -1900 270/08 RMK AO2
94908KDBQ DBQ20071130161509611/30/07 16:15:31  5-MIN KDBQ 302215Z 27008KT 10SM CLR M07/M18 A3042 620 43 -1900 260/08 RMK AO2
94908KDBQ DBQ20071130162009611/30/07 16:20:31  5-MIN KDBQ 302220Z 27008KT 10SM CLR M07/M18 A3042 620 43 -1900 270/08 RMK AO2
94908KDBQ DBQ20071130162509611/30/07 16:25:31  5-MIN KDBQ 302225Z 27010KT 10SM CLR M08/M18 A3042 620 45 -2000 270/10 RMK AO2
94908KDBQ DBQ20071130163009611/30/07 16:30:31  5-MIN KDBQ 302230Z 27010KT 10SM CLR M07/M18 A3042 620 43 -1900 270/10 RMK AO2
94908KDBQ DBQ20071130163509611/30/07 16:35:31  5-MIN KDBQ 302235Z 27008KT 10SM CLR M08/M18 A3041 630 45 -2000 270/08 RMK AO2
94908KDBQ DBQ20071130164009611/30/07 16:40:31  5-MIN KDBQ 302240Z 27008KT 10SM CLR M08/M18 A3041 630 45 -2000 270/08 RMK AO2
94908KDBQ DBQ20071130164509611/30/07 16:45:31  5-MIN KDBQ 302245Z 27007KT 10SM CLR M08/M18 A3041 620 45 -2000 270/07 RMK AO2
94908KDBQ DBQ20071130165011311/30/07 16:50:31  5-MIN KDBQ 302250Z 25007KT 10SM CLR M08/M18 A3042 620 45 -2000 250/07 RMK AO2 SLP319 T10781178
94908KDBQ DBQ20071130165509611/30/07 16:55:31  5-MIN KDBQ 302255Z 25007KT 10SM CLR M08/M18 A3042 620 47 -2000 250/07 RMK AO2
94908KDBQ DBQ20071130170009611/30/07 17:00:31  5-MIN KDBQ 302300Z 25008KT 10SM CLR M09/M17 A3042 620 53 -2200 250/08 RMK AO2
94908KDBQ DBQ20071130170509611/30/07 17:05:31  5-MIN KDBQ 302305Z 26008KT 10SM CLR M09/M17 A3042 620 53 -2200 260/08 RMK AO2
94908KDBQ DBQ20071130171009611/30/07 17:10:31  5-MIN KDBQ 302310Z 25008KT 10SM CLR M09/M17 A3042 620 51 -2100 250/08 RMK AO2
94908KDBQ DBQ20071130171509611/30/07 17:15:31  5-MIN KDBQ 302315Z 26007KT 10SM CLR M09/M17 A3042 620 53 -2200 260/07 RMK AO2
94908KDBQ DBQ20071130172009611/30/07 17:20:31  5-MIN KDBQ 302320Z 27005KT 10SM CLR M09/M17 A3042 620 51 -2100 270/05 RMK AO2
94908KDBQ DBQ20071130172509611/30/07 17:25:31  5-MIN KDBQ 302325Z 28005KT 10SM CLR M09/M17 A3043 610 51 -2100 280/05 RMK AO2
94908KDBQ DBQ20071130173009611/30/07 17:30:31  5-MIN KDBQ 302330Z 29004KT 10SM CLR M09/M17 A3043 610 51 -2100 280/04 RMK AO2
94908KDBQ DBQ20071130173509611/30/07 17:35:31  5-MIN KDBQ 302335Z 28005KT 10SM CLR M09/M17 A3042 620 51 -2100 280/05 RMK AO2
94908KDBQ DBQ20071130174009611/30/07 17:40:31  5-MIN KDBQ 302340Z 28005KT 10SM CLR M09/M18 A3042 620 49 -2100 280/05 RMK AO2
94908KDBQ DBQ20071130174509611/30/07 17:45:31  5-MIN KDBQ 302345Z 29006KT 10SM CLR M09/M17 A3042 620 51 -2100 290/06 RMK AO2
94908KDBQ DBQ20071130175013111/30/07 17:50:31  5-MIN KDBQ 302350Z 30007KT 10SM CLR M09/M17 A3042 620 53 -2200 300/07 RMK AO2 SLP322 T10941172 11044 21094 53004
94908KDBQ DBQ20071130175509611/30/07 17:55:31  5-MIN KDBQ 302355Z 29006KT 10SM CLR M09/M17 A3042 620 53 -2200 290/06 RMK AO2
94908KDBQ DBQ20071130180009611/30/07 18:00:31  5-MIN KDBQ 010000Z 28004KT 10SM CLR M09/M17 A3043 610 51 -2100 280/04 RMK AO2
94908KDBQ DBQ20071130180509611/30/07 18:05:31  5-MIN KDBQ 010005Z 29003KT 10SM CLR M09/M17 A3042 620 51 -2100 290/03 RMK AO2
94908KDBQ DBQ20071130181009611/30/07 18:10:31  5-MIN KDBQ 010010Z 28003KT 10SM CLR M09/M17 A3042 620 51 -2100 280/03 RMK AO2
94908KDBQ DBQ20071130181509611/30/07 18:15:31  5-MIN KDBQ 010015Z 28005KT 10SM CLR M09/M17 A3042 620 53 -2200 280/05 RMK AO2
94908KDBQ DBQ20071130182009611/30/07 18:20:31  5-MIN KDBQ 010020Z 28005KT 10SM CLR M09/M17 A3042 620 53 -2200 270/05 RMK AO2
94908KDBQ DBQ20071130182509611/30/07 18:25:31  5-MIN KDBQ 010025Z 26004KT 10SM CLR M09/M17 A3043 610 53 -2200 260/04 RMK AO2
94908KDBQ DBQ20071130183009611/30/07 18:30:31  5-MIN KDBQ 010030Z 26003KT 10SM CLR M09/M17 A3043 610 56 -2200 260/03 RMK AO2
94908KDBQ DBQ20071130183509611/30/07 18:35:31  5-MIN KDBQ 010035Z 00000KT 10SM CLR M09/M17 A3043 610 54 -2100 000/00 RMK AO2
94908KDBQ DBQ20071130184009611/30/07 18:40:31  5-MIN KDBQ 010040Z 25003KT 10SM CLR M09/M17 A3043 610 56 -2200 250/03 RMK AO2
94908KDBQ DBQ20071130184509611/30/07 18:45:31  5-MIN KDBQ 010045Z 25003KT 10SM CLR M09/M17 A3043 610 56 -2200 250/03 RMK AO2
94908KDBQ DBQ20071130185011311/30/07 18:50:31  5-MIN KDBQ 010050Z 24003KT 10SM CLR M10/M16 A3043 610 61 -2300 240/03 RMK AO2 SLP328 T11001161
94908KDBQ DBQ20071130185509611/30/07 18:55:31  5-MIN KDBQ 010055Z 24003KT 10SM CLR M09/M16 A3044 600 59 -2200 230/03 RMK AO2
94908KDBQ DBQ20071130190010111/30/07 19:00:31  5-MIN KDBQ 010100Z AUTO 24003KT 10SM CLR M09/M16 A3044 600 59 -2200 240/03 RMK AO2
94908KDBQ DBQ20071130190510111/30/07 19:05:31  5-MIN KDBQ 010105Z AUTO 24003KT 10SM CLR M09/M17 A3043 610 54 -2100 240/03 RMK AO2
94908KDBQ DBQ20071130191010111/30/07 19:10:31  5-MIN KDBQ 010110Z AUTO 25003KT 10SM CLR M09/M17 A3043 610 56 -2200 250/03 RMK AO2
94908KDBQ DBQ20071130191510111/30/07 19:15:31  5-MIN KDBQ 010115Z AUTO 00000KT 10SM CLR M09/M17 A3043 610 54 -2100 000/00 RMK AO2
94908KDBQ DBQ20071130192010111/30/07 19:20:31  5-MIN KDBQ 010120Z AUTO 00000KT 10SM CLR M09/M17 A3042 620 54 -2100 000/00 RMK AO2
94908KDBQ DBQ20071130192510111/30/07 19:25:31  5-MIN KDBQ 010125Z AUTO 00000KT 10SM CLR M09/M17 A3042 620 54 -2100 000/00 RMK AO2
94908KDBQ DBQ20071130193010111/30/07 19:30:31  5-MIN KDBQ 010130Z AUTO 00000KT 10SM CLR M09/M17 A3043 610 54 -2100 000/00 RMK AO2
94908KDBQ DBQ20071130193510111/30/07 19:35:31  5-MIN KDBQ 010135Z AUTO 30003KT 10SM CLR M09/M17 A3043 610 54 -2100 290/03 RMK AO2
94908KDBQ DBQ20071130194010111/30/07 19:40:31  5-MIN KDBQ 010140Z AUTO 30004KT 10SM CLR M08/M16 A3043 610 54 -2000 300/04 RMK AO2
94908KDBQ DBQ20071130194510111/30/07 19:45:31  5-MIN KDBQ 010145Z AUTO 31005KT 10SM CLR M08/M16 A3043 610 56 -2000 300/05 RMK AO2
94908KDBQ DBQ20071130195011811/30/07 19:50:31  5-MIN KDBQ 010150Z AUTO 32004KT 10SM CLR M08/M16 A3042 610 54 -2000 310/04 RMK AO2 SLP324 T10831161
94908KDBQ DBQ20071130195510111/30/07 19:55:31  5-MIN KDBQ 010155Z AUTO 33005KT 10SM CLR M08/M16 A3042 620 54 -2000 330/05 RMK AO2
94908KDBQ DBQ20071130200010111/30/07 20:00:31  5-MIN KDBQ 010200Z AUTO 34006KT 10SM CLR M08/M16 A3042 620 54 -2000 340/06 RMK AO2
94908KDBQ DBQ20071130200510111/30/07 20:05:31  5-MIN KDBQ 010205Z AUTO 34007KT 10SM CLR M08/M16 A3042 620 54 -2000 330/07 RMK AO2
94908KDBQ DBQ20071130201010111/30/07 20:10:31  5-MIN KDBQ 010210Z AUTO 35006KT 10SM CLR M08/M16 A3042 620 54 -2000 340/06 RMK AO2
94908KDBQ DBQ20071130201510111/30/07 20:15:31  5-MIN KDBQ 010215Z AUTO 34004KT 10SM CLR M08/M17 A3042 620 51 -2000 340/04 RMK AO2
94908KDBQ DBQ20071130202010111/30/07 20:20:31  5-MIN KDBQ 010220Z AUTO 31003KT 10SM CLR M08/M16 A3043 610 54 -2100 310/03 RMK AO2
94908KDBQ DBQ20071130202510111/30/07 20:25:31  5-MIN KDBQ 010225Z AUTO 00000KT 10SM CLR M08/M16 A3043 610 56 -2100 000/00 RMK AO2
94908KDBQ DBQ20071130203010111/30/07 20:30:31  5-MIN KDBQ 010230Z AUTO 00000KT 10SM CLR M08/M16 A3043 610 56 -2000 000/00 RMK AO2
94908KDBQ DBQ20071130203510111/30/07 20:35:31  5-MIN KDBQ 010235Z AUTO 24003KT 10SM CLR M08/M16 A3043 610 56 -2100 240/03 RMK AO2
94908KDBQ DBQ20071130204010111/30/07 20:40:31  5-MIN KDBQ 010240Z AUTO 23003KT 10SM CLR M08/M15 A3043 610 59 -2100 230/03 RMK AO2
94908KDBQ DBQ20071130204510111/30/07 20:45:31  5-MIN KDBQ 010245Z AUTO 22003KT 10SM CLR M08/M15 A3043 610 59 -2100 220/03 RMK AO2
94908KDBQ DBQ20071130205012411/30/07 20:50:31  5-MIN KDBQ 010250Z AUTO 22003KT 10SM CLR M08/M15 A3043 610 59 -2100 220/03 RMK AO2 SLP325 T10831150 51007
94908KDBQ DBQ20071130205510111/30/07 20:55:31  5-MIN KDBQ 010255Z AUTO 20004KT 10SM CLR M08/M15 A3043 610 59 -2100 200/04 RMK AO2
94908KDBQ DBQ20071130210010111/30/07 21:00:31  5-MIN KDBQ 010300Z AUTO 20003KT 10SM CLR M08/M15 A3043 610 59 -2100 190/03 RMK AO2
94908KDBQ DBQ20071130210510111/30/07 21:05:31  5-MIN KDBQ 010305Z AUTO 00000KT 10SM CLR M08/M15 A3042 620 59 -2000 000/00 RMK AO2
94908KDBQ DBQ20071130211010111/30/07 21:10:31  5-MIN KDBQ 010310Z AUTO 21003KT 10SM CLR M08/M15 A3043 610 59 -2100 210/03 RMK AO2
94908KDBQ DBQ20071130211510111/30/07 21:15:31  5-MIN KDBQ 010315Z AUTO 22003KT 10SM CLR M08/M14 A3043 610 62 -2100 210/03 RMK AO2
94908KDBQ DBQ20071130212010111/30/07 21:20:31  5-MIN KDBQ 010320Z AUTO 20003KT 10SM CLR M08/M14 A3042 620 62 -2000 200/03 RMK AO2
94908KDBQ DBQ20071130212510111/30/07 21:25:31  5-MIN KDBQ 010325Z AUTO 20004KT 10SM CLR M08/M14 A3043 610 64 -2100 200/04 RMK AO2
94908KDBQ DBQ20071130213010111/30/07 21:30:31  5-MIN KDBQ 010330Z AUTO 19003KT 10SM CLR M08/M14 A3043 610 62 -2100 190/03 RMK AO2
94908KDBQ DBQ20071130213510111/30/07 21:35:31  5-MIN KDBQ 010335Z AUTO 00000KT 10SM CLR M08/M14 A3044 600 62 -2100 000/00 RMK AO2
94908KDBQ DBQ20071130214010111/30/07 21:40:31  5-MIN KDBQ 010340Z AUTO 19003KT 10SM CLR M08/M14 A3044 600 62 -2100 190/03 RMK AO2
94908KDBQ DBQ20071130214510111/30/07 21:45:31  5-MIN KDBQ 010345Z AUTO 00000KT 10SM CLR M08/M14 A3043 610 62 -2100 000/00 RMK AO2
94908KDBQ DBQ20071130215011811/30/07 21:50:31  5-MIN KDBQ 010350Z AUTO 00000KT 10SM CLR M08/M14 A3044 600 62 -2100 000/00 RMK AO2 SLP327 T10831144
94908KDBQ DBQ20071130215510111/30/07 21:55:31  5-MIN KDBQ 010355Z AUTO 00000KT 10SM CLR M08/M14 A3044 600 62 -2100 000/00 RMK AO2
94908KDBQ DBQ20071130220010111/30/07 22:00:31  5-MIN KDBQ 010400Z AUTO 22003KT 10SM CLR M08/M14 A3044 600 62 -2100 210/03 RMK AO2
94908KDBQ DBQ20071130220510111/30/07 22:05:31  5-MIN KDBQ 010405Z AUTO 22003KT 10SM CLR M08/M14 A3044 600 62 -2100 220/03 RMK AO2
94908KDBQ DBQ20071130221010111/30/07 22:10:31  5-MIN KDBQ 010410Z AUTO 21003KT 10SM CLR M08/M14 A3043 610 62 -2100 210/03 RMK AO2
94908KDBQ DBQ20071130221510111/30/07 22:15:31  5-MIN KDBQ 010415Z AUTO 00000KT 10SM CLR M08/M14 A3043 610 62 -2100 000/00 RMK AO2
94908KDBQ DBQ20071130222010111/30/07 22:20:31  5-MIN KDBQ 010420Z AUTO 00000KT 10SM CLR M08/M14 A3044 600 62 -2100 000/00 RMK AO2
94908KDBQ DBQ20071130222510111/30/07 22:25:31  5-MIN KDBQ 010425Z AUTO 00000KT 10SM CLR M08/M14 A3044 610 62 -2100 000/00 RMK AO2
94908KDBQ DBQ20071130223010111/30/07 22:30:31  5-MIN KDBQ 010430Z AUTO 00000KT 10SM CLR M08/M14 A3043 610 62 -2100 000/00 RMK AO2
94908KDBQ DBQ20071130223510111/30/07 22:35:31  5-MIN KDBQ 010435Z AUTO 00000KT 10SM CLR M08/M14 A3043 610 62 -2100 000/00 RMK AO2
94908KDBQ DBQ20071130224010111/30/07 22:40:31  5-MIN KDBQ 010440Z AUTO 00000KT 10SM CLR M08/M14 A3043 610 62 -2100 000/00 RMK AO2
94908KDBQ DBQ20071130224510111/30/07 22:45:31  5-MIN KDBQ 010445Z AUTO 00000KT 10SM CLR M08/M14 A3043 610 62 -2000 000/00 RMK AO2
94908KDBQ DBQ20071130225011811/30/07 22:50:31  5-MIN KDBQ 010450Z AUTO 00000KT 10SM CLR M08/M14 A3042 610 62 -2000 000/00 RMK AO2 SLP323 T10831144
94908KDBQ DBQ20071130225510111/30/07 22:55:31  5-MIN KDBQ 010455Z AUTO 00000KT 10SM CLR M08/M15 A3042 610 59 -2000 000/00 RMK AO2
94908KDBQ DBQ20071130230010111/30/07 23:00:31  5-MIN KDBQ 010500Z AUTO 00000KT 10SM CLR M08/M15 A3043 610 59 -2100 000/00 RMK AO2
94908KDBQ DBQ20071130230510111/30/07 23:05:31  5-MIN KDBQ 010505Z AUTO 19003KT 10SM CLR M08/M15 A3043 610 59 -2100 190/03 RMK AO2
94908KDBQ DBQ20071130231010111/30/07 23:10:31  5-MIN KDBQ 010510Z AUTO 00000KT 10SM CLR M08/M15 A3044 600 56 -2000 000/00 RMK AO2
94908KDBQ DBQ20071130231510111/30/07 23:15:31  5-MIN KDBQ 010515Z AUTO 18003KT 10SM CLR M08/M15 A3043 610 56 -2000 180/03 RMK AO2
94908KDBQ DBQ20071130232010111/30/07 23:20:31  5-MIN KDBQ 010520Z AUTO 00000KT 10SM CLR M08/M15 A3043 610 56 -2000 000/00 RMK AO2
94908KDBQ DBQ20071130232510111/30/07 23:25:31  5-MIN KDBQ 010525Z AUTO 00000KT 10SM CLR M08/M14 A3043 610 59 -2000 000/00 RMK AO2
94908KDBQ DBQ20071130233010111/30/07 23:30:31  5-MIN KDBQ 010530Z AUTO 00000KT 10SM CLR M08/M14 A3043 610 59 -2000 000/00 RMK AO2
94908KDBQ DBQ20071130233510111/30/07 23:35:31  5-MIN KDBQ 010535Z AUTO 00000KT 10SM CLR M08/M14 A3043 610 59 -2000 000/00 RMK AO2
94908KDBQ DBQ20071130234010111/30/07 23:40:31  5-MIN KDBQ 010540Z AUTO 00000KT 10SM CLR M08/M14 A3043 610 62 -2000 000/00 RMK AO2
94908KDBQ DBQ20071130234510111/30/07 23:45:31  5-MIN KDBQ 010545Z AUTO 00000KT 10SM CLR M08/M14 A3043 610 59 -2000 000/00 RMK AO2
94908KDBQ DBQ20071130235014611/30/07 23:50:31  5-MIN KDBQ 010550Z AUTO 00000KT 10SM CLR M08/M15 A3043 610 56 -2000 000/00 RMK AO2 SLP325 T10781150 11078 21100 400171100 51001
94908KDBQ DBQ20071130235510111/30/07 23:55:31  5-MIN KDBQ 010555Z AUTO 00000KT 10SM CLR M08/M15 A3043 610 56 -2000 000/00 RMK AO2
