94908KDBQ DBQ20070305114009503/05/07 11:40:31  5-MIN KDBQ 051740Z 36010KT 10SM CLR M01/M13 A3034 690 37 -900 360/10 RMK AO2
94908KDBQ DBQ20070305114509503/05/07 11:45:31  5-MIN KDBQ 051745Z 36012KT 10SM CLR M01/M13 A3034 690 39 -900 360/12 RMK AO2
94908KDBQ DBQ20070305115013003/05/07 11:50:31  5-MIN KDBQ 051750Z 36010KT 10SM CLR M01/M14 A3034 690 36 -900 360/10 RMK AO2 SLP288 T10061139 11006 21039 51030
94908KDBQ DBQ20070305115513103/05/07 11:55:31  5-MIN KDBQ 051755Z 36011KT 10SM CLR M01/M14 A3034 690 34 -1000 360/11 RMK AO2 SLP290 T10061144 11006 21039 51025
94908KDBQ DBQ20070305120009603/05/07 12:00:31  5-MIN KDBQ 051800Z 35012KT 10SM CLR M01/M15 A3035 690 34 -1000 350/12 RMK AO2
94908KDBQ DBQ20070305120509603/05/07 12:05:31  5-MIN KDBQ 051805Z 02011KT 10SM CLR M01/M14 A3035 690 36 -1000 010/11 RMK AO2
94908KDBQ DBQ20070305121009603/05/07 12:10:31  5-MIN KDBQ 051810Z 35013KT 10SM CLR M01/M15 A3035 690 33 -1000 350/13 RMK AO2
94908KDBQ DBQ20070305121509603/05/07 12:15:31  5-MIN KDBQ 051815Z 35012KT 10SM CLR M01/M16 A3035 690 33 -1000 350/12 RMK AO2
94908KDBQ DBQ20070305122009603/05/07 12:20:31  5-MIN KDBQ 051820Z 36013KT 10SM CLR M01/M17 A3035 690 30 -1000 350/13 RMK AO2
94908KDBQ DBQ20070305122509603/05/07 12:25:31  5-MIN KDBQ 051825Z 36012KT 10SM CLR M01/M17 A3035 680 30 -1000 360/12 RMK AO2
94908KDBQ DBQ20070305123009603/05/07 12:30:31  5-MIN KDBQ 051830Z 35011KT 10SM CLR M01/M16 A3035 680 31 -1000 350/11 RMK AO2
94908KDBQ DBQ20070305123509603/05/07 12:35:31  5-MIN KDBQ 051835Z 33013KT 10SM CLR M01/M16 A3035 680 33 -1000 330/13 RMK AO2
94908KDBQ DBQ20070305124009603/05/07 12:40:31  5-MIN KDBQ 051840Z 36011KT 10SM CLR M01/M16 A3035 680 31 -1000 360/11 RMK AO2
94908KDBQ DBQ20070305124509603/05/07 12:45:31  5-MIN KDBQ 051845Z 34012KT 10SM CLR M01/M16 A3035 680 33 -1000 340/12 RMK AO2
94908KDBQ DBQ20070305125011303/05/07 12:50:31  5-MIN KDBQ 051850Z 34011KT 10SM CLR M01/M16 A3035 680 31 -1000 340/11 RMK AO2 SLP292 T10111161
94908KDBQ DBQ20070305125511303/05/07 12:55:31  5-MIN KDBQ 051855Z 33012KT 10SM CLR M01/M15 A3035 680 34 -1000 330/12 RMK AO2 SLP293 T10111150
94908KDBQ DBQ20070305130009603/05/07 13:00:31  5-MIN KDBQ 051900Z 35009KT 10SM CLR M01/M16 A3035 680 31 -1000 350/09 RMK AO2
94908KDBQ DBQ20070305130509603/05/07 13:05:31  5-MIN KDBQ 051905Z 35011KT 10SM CLR M01/M16 A3035 680 31 -1000 350/11 RMK AO2
94908KDBQ DBQ20070305131009603/05/07 13:10:31  5-MIN KDBQ 051910Z 35008KT 10SM CLR M01/M16 A3035 680 33 -1000 350/08 RMK AO2
94908KDBQ DBQ20070305131509603/05/07 13:15:31  5-MIN KDBQ 051915Z 33012KT 10SM CLR M01/M15 A3036 680 34 -1000 330/12 RMK AO2
94908KDBQ DBQ20070305132009603/05/07 13:20:31  5-MIN KDBQ 051920Z 34011KT 10SM CLR M01/M16 A3036 670 33 -1000 340/11 RMK AO2
94908KDBQ DBQ20070305132509603/05/07 13:25:31  5-MIN KDBQ 051925Z 36010KT 10SM CLR M01/M16 A3036 670 31 -1000 360/10 RMK AO2
94908KDBQ DBQ20070305133009603/05/07 13:30:31  5-MIN KDBQ 051930Z 34013KT 10SM CLR M01/M15 A3036 670 34 -1000 340/13 RMK AO2
94908KDBQ DBQ20070305133509603/05/07 13:35:31  5-MIN KDBQ 051935Z 35013KT 10SM CLR M01/M16 A3036 670 31 -1000 350/13 RMK AO2
94908KDBQ DBQ20070305134009603/05/07 13:40:31  5-MIN KDBQ 051940Z 36012KT 10SM CLR M01/M15 A3036 670 34 -1000 360/12 RMK AO2
94908KDBQ DBQ20070305134509603/05/07 13:45:31  5-MIN KDBQ 051945Z 36009KT 10SM CLR M01/M16 A3036 670 33 -1000 350/09 RMK AO2
94908KDBQ DBQ20070305135011303/05/07 13:50:31  5-MIN KDBQ 051950Z 35010KT 10SM CLR M01/M15 A3036 670 34 -1000 350/10 RMK AO2 SLP296 T10111150
94908KDBQ DBQ20070305135511303/05/07 13:55:31  5-MIN KDBQ 051955Z 35009KT 10SM CLR M01/M14 A3036 670 36 -1000 340/09 RMK AO2 SLP296 T10111144
94908KDBQ DBQ20070305140009603/05/07 14:00:31  5-MIN KDBQ 052000Z 34009KT 10SM CLR M01/M14 A3037 670 36 -1100 340/09 RMK AO2
94908KDBQ DBQ20070305140509603/05/07 14:05:31  5-MIN KDBQ 052005Z 33010KT 10SM CLR M01/M14 A3037 670 37 -1100 330/10 RMK AO2
94908KDBQ DBQ20070305141009603/05/07 14:10:31  5-MIN KDBQ 052010Z 32010KT 10SM CLR M01/M13 A3037 670 39 -1100 320/10 RMK AO2
94908KDBQ DBQ20070305141509603/05/07 14:15:31  5-MIN KDBQ 052015Z 35009KT 10SM CLR M01/M14 A3037 670 37 -1100 350/09 RMK AO2
94908KDBQ DBQ20070305142009603/05/07 14:20:31  5-MIN KDBQ 052020Z 35010KT 10SM CLR M01/M14 A3037 670 37 -1100 350/10 RMK AO2
94908KDBQ DBQ20070305142509603/05/07 14:25:31  5-MIN KDBQ 052025Z 34009KT 10SM CLR M01/M13 A3037 660 39 -1100 340/09 RMK AO2
94908KDBQ DBQ20070305143009603/05/07 14:30:31  5-MIN KDBQ 052030Z 34011KT 10SM CLR M01/M12 A3037 660 43 -1100 330/11 RMK AO2
94908KDBQ DBQ20070305143509603/05/07 14:35:31  5-MIN KDBQ 052035Z 33011KT 10SM CLR M01/M13 A3037 660 41 -1100 330/11 RMK AO2
94908KDBQ DBQ20070305144009603/05/07 14:40:31  5-MIN KDBQ 052040Z 33012KT 10SM CLR M01/M12 A3038 660 43 -1100 330/12 RMK AO2
94908KDBQ DBQ20070305144509603/05/07 14:45:31  5-MIN KDBQ 052045Z 32010KT 10SM CLR M01/M13 A3037 660 41 -1100 320/10 RMK AO2
94908KDBQ DBQ20070305145011903/05/07 14:50:31  5-MIN KDBQ 052050Z 33011KT 10SM CLR M01/M13 A3038 660 41 -1100 330/11 RMK AO2 SLP301 T10111128 51025
94908KDBQ DBQ20070305145511903/05/07 14:55:31  5-MIN KDBQ 052055Z 35012KT 10SM CLR M01/M13 A3038 660 39 -1100 350/12 RMK AO2 SLP301 T10111133 53011
94908KDBQ DBQ20070305150009603/05/07 15:00:31  5-MIN KDBQ 052100Z 33010KT 10SM CLR M01/M13 A3038 660 39 -1100 330/10 RMK AO2
94908KDBQ DBQ20070305150509603/05/07 15:05:31  5-MIN KDBQ 052105Z 33010KT 10SM CLR M01/M13 A3038 660 41 -1100 330/10 RMK AO2
94908KDBQ DBQ20070305151009603/05/07 15:10:31  5-MIN KDBQ 052110Z 33009KT 10SM CLR M01/M13 A3037 660 39 -1100 330/09 RMK AO2
94908KDBQ DBQ20070305151509603/05/07 15:15:31  5-MIN KDBQ 052115Z 34009KT 10SM CLR M01/M14 A3038 660 37 -1100 340/09 RMK AO2
94908KDBQ DBQ20070305152009603/05/07 15:20:31  5-MIN KDBQ 052120Z 34009KT 10SM CLR M01/M14 A3038 660 37 -1100 340/09 RMK AO2
94908KDBQ DBQ20070305152509603/05/07 15:25:31  5-MIN KDBQ 052125Z 35010KT 10SM CLR M01/M14 A3038 660 37 -1100 350/10 RMK AO2
94908KDBQ DBQ20070305153009603/05/07 15:30:31  5-MIN KDBQ 052130Z 34011KT 10SM CLR M01/M15 A3038 650 34 -1100 340/11 RMK AO2
94908KDBQ DBQ20070305153509603/05/07 15:35:31  5-MIN KDBQ 052135Z 35012KT 10SM CLR M01/M14 A3038 650 36 -1100 350/12 RMK AO2
94908KDBQ DBQ20070305154010203/05/07 15:40:31  5-MIN KDBQ 052140Z 36007G16KT 10SM CLR M01/M15 A3038 650 34 -1100 360/07G16 RMK AO2
94908KDBQ DBQ20070305154509603/05/07 15:45:31  5-MIN KDBQ 052145Z 02008KT 10SM CLR M01/M16 A3038 650 31 -1100 010/08 RMK AO2
94908KDBQ DBQ20070305155011303/05/07 15:50:31  5-MIN KDBQ 052150Z 36009KT 10SM CLR M01/M16 A3038 650 33 -1100 360/09 RMK AO2 SLP304 T10111156
94908KDBQ DBQ20070305155511303/05/07 15:55:31  5-MIN KDBQ 052155Z 35007KT 10SM CLR M02/M16 A3039 650 32 -1100 350/07 RMK AO2 SLP304 T10171161
94908KDBQ DBQ20070305160009603/05/07 16:00:31  5-MIN KDBQ 052200Z 36008KT 10SM CLR M02/M16 A3039 650 34 -1100 360/08 RMK AO2
94908KDBQ DBQ20070305160509603/05/07 16:05:31  5-MIN KDBQ 052205Z 35009KT 10SM CLR M02/M16 A3039 640 34 -1200 350/09 RMK AO2
94908KDBQ DBQ20070305161009603/05/07 16:10:31  5-MIN KDBQ 052210Z 35010KT 10SM CLR M02/M16 A3040 640 34 -1200 350/10 RMK AO2
94908KDBQ DBQ20070305161509603/05/07 16:15:31  5-MIN KDBQ 052215Z 36009KT 10SM CLR M02/M16 A3040 640 34 -1200 360/09 RMK AO2
94908KDBQ DBQ20070305162009603/05/07 16:20:31  5-MIN KDBQ 052220Z 35011KT 10SM CLR M02/M16 A3040 640 32 -1200 350/11 RMK AO2
94908KDBQ DBQ20070305162509603/05/07 16:25:31  5-MIN KDBQ 052225Z 35012KT 10SM CLR M02/M16 A3040 630 34 -1200 350/12 RMK AO2
94908KDBQ DBQ20070305163009603/05/07 16:30:31  5-MIN KDBQ 052230Z 35010KT 10SM CLR M02/M16 A3041 630 35 -1200 350/10 RMK AO2
94908KDBQ DBQ20070305163509603/05/07 16:35:31  5-MIN KDBQ 052235Z 34011KT 10SM CLR M02/M16 A3041 630 34 -1200 340/11 RMK AO2
94908KDBQ DBQ20070305164009603/05/07 16:40:31  5-MIN KDBQ 052240Z 34010KT 10SM CLR M02/M16 A3041 630 35 -1200 340/10 RMK AO2
94908KDBQ DBQ20070305164509603/05/07 16:45:31  5-MIN KDBQ 052245Z 35010KT 10SM CLR M02/M15 A3041 620 37 -1200 350/10 RMK AO2
94908KDBQ DBQ20070305165011303/05/07 16:50:31  5-MIN KDBQ 052250Z 35009KT 10SM CLR M02/M15 A3042 620 37 -1300 350/09 RMK AO2 SLP315 T10221150
94908KDBQ DBQ20070305165511303/05/07 16:55:31  5-MIN KDBQ 052255Z 35010KT 10SM CLR M02/M14 A3042 620 39 -1300 350/10 RMK AO2 SLP316 T10221144
94908KDBQ DBQ20070305170009603/05/07 17:00:31  5-MIN KDBQ 052300Z 35011KT 10SM CLR M02/M15 A3042 620 37 -1300 350/11 RMK AO2
94908KDBQ DBQ20070305170509603/05/07 17:05:31  5-MIN KDBQ 052305Z 35010KT 10SM CLR M03/M15 A3042 620 39 -1300 350/10 RMK AO2
94908KDBQ DBQ20070305171009603/05/07 17:10:31  5-MIN KDBQ 052310Z 36008KT 10SM CLR M03/M15 A3042 620 39 -1300 360/08 RMK AO2
94908KDBQ DBQ20070305171509603/05/07 17:15:31  5-MIN KDBQ 052315Z 01009KT 10SM CLR M03/M14 A3042 620 40 -1300 010/09 RMK AO2
94908KDBQ DBQ20070305172009603/05/07 17:20:31  5-MIN KDBQ 052320Z 01009KT 10SM CLR M03/M16 A3042 620 37 -1300 010/09 RMK AO2
94908KDBQ DBQ20070305172509603/05/07 17:25:31  5-MIN KDBQ 052325Z 36009KT 10SM CLR M03/M16 A3043 610 35 -1300 360/09 RMK AO2
94908KDBQ DBQ20070305173009603/05/07 17:30:31  5-MIN KDBQ 052330Z 02009KT 10SM CLR M03/M16 A3043 610 37 -1400 020/09 RMK AO2
94908KDBQ DBQ20070305173509603/05/07 17:35:31  5-MIN KDBQ 052335Z 02010KT 10SM CLR M03/M17 A3043 610 35 -1400 020/10 RMK AO2
94908KDBQ DBQ20070305174009603/05/07 17:40:31  5-MIN KDBQ 052340Z 01008KT 10SM CLR M03/M17 A3043 610 35 -1400 010/08 RMK AO2
94908KDBQ DBQ20070305174509603/05/07 17:45:31  5-MIN KDBQ 052345Z 01007KT 10SM CLR M03/M17 A3043 610 35 -1400 010/07 RMK AO2
94908KDBQ DBQ20070305175013103/05/07 17:50:31  5-MIN KDBQ 052350Z 01008KT 10SM CLR M03/M17 A3043 610 35 -1400 010/08 RMK AO2 SLP320 T10331167 11006 21033 53011
94908KDBQ DBQ20070305175513103/05/07 17:55:31  5-MIN KDBQ 052355Z 02008KT 10SM CLR M04/M17 A3043 610 37 -1500 020/08 RMK AO2 SLP320 T10391167 11006 21039 52017
94908KDBQ DBQ20070305180009603/05/07 18:00:31  5-MIN KDBQ 060000Z 02008KT 10SM CLR M04/M17 A3043 610 37 -1500 020/08 RMK AO2
94908KDBQ DBQ20070305180509603/05/07 18:05:31  5-MIN KDBQ 060005Z 03009KT 10SM CLR M04/M17 A3043 610 37 -1500 020/09 RMK AO2
94908KDBQ DBQ20070305181009603/05/07 18:10:31  5-MIN KDBQ 060010Z 03009KT 10SM CLR M04/M17 A3043 610 38 -1600 020/09 RMK AO2
94908KDBQ DBQ20070305181509603/05/07 18:15:31  5-MIN KDBQ 060015Z 02009KT 10SM CLR M04/M17 A3044 600 38 -1600 020/09 RMK AO2
94908KDBQ DBQ20070305182009603/05/07 18:20:31  5-MIN KDBQ 060020Z 02009KT 10SM CLR M04/M17 A3044 600 36 -1600 020/09 RMK AO2
94908KDBQ DBQ20070305182509603/05/07 18:25:31  5-MIN KDBQ 060025Z 02008KT 10SM CLR M04/M17 A3044 600 36 -1600 020/08 RMK AO2
94908KDBQ DBQ20070305183009603/05/07 18:30:31  5-MIN KDBQ 060030Z 02010KT 10SM CLR M05/M17 A3044 600 38 -1600 020/10 RMK AO2
94908KDBQ DBQ20070305183509603/05/07 18:35:31  5-MIN KDBQ 060035Z 02010KT 10SM CLR M05/M17 A3045 600 38 -1600 020/10 RMK AO2
94908KDBQ DBQ20070305184009603/05/07 18:40:31  5-MIN KDBQ 060040Z 02010KT 10SM CLR M05/M17 A3045 600 38 -1600 020/10 RMK AO2
94908KDBQ DBQ20070305184509603/05/07 18:45:31  5-MIN KDBQ 060045Z 02009KT 10SM CLR M05/M18 A3045 590 36 -1600 020/09 RMK AO2
94908KDBQ DBQ20070305185011303/05/07 18:50:31  5-MIN KDBQ 060050Z 02008KT 10SM CLR M05/M17 A3045 590 38 -1600 020/08 RMK AO2 SLP329 T10501172
94908KDBQ DBQ20070305185511303/05/07 18:55:31  5-MIN KDBQ 060055Z 02008KT 10SM CLR M05/M18 A3045 590 36 -1600 020/08 RMK AO2 SLP329 T10501178
94908KDBQ DBQ20070305190009603/05/07 19:00:31  5-MIN KDBQ 060100Z 01007KT 10SM CLR M05/M18 A3045 590 36 -1600 010/07 RMK AO2
94908KDBQ DBQ20070305190509603/05/07 19:05:31  5-MIN KDBQ 060105Z 01008KT 10SM CLR M05/M17 A3046 590 38 -1700 010/08 RMK AO2
94908KDBQ DBQ20070305191009603/05/07 19:10:31  5-MIN KDBQ 060110Z 01007KT 10SM CLR M05/M18 A3046 580 36 -1700 010/07 RMK AO2
94908KDBQ DBQ20070305191509603/05/07 19:15:31  5-MIN KDBQ 060115Z 02007KT 10SM CLR M05/M18 A3046 580 36 -1700 020/07 RMK AO2
94908KDBQ DBQ20070305192009603/05/07 19:20:31  5-MIN KDBQ 060120Z 01007KT 10SM CLR M06/M18 A3046 580 38 -1700 010/07 RMK AO2
94908KDBQ DBQ20070305192509603/05/07 19:25:31  5-MIN KDBQ 060125Z 01007KT 10SM CLR M06/M18 A3047 580 36 -1700 010/07 RMK AO2
94908KDBQ DBQ20070305193009603/05/07 19:30:31  5-MIN KDBQ 060130Z 01008KT 10SM CLR M06/M18 A3047 580 38 -1700 010/08 RMK AO2
94908KDBQ DBQ20070305193509603/05/07 19:35:31  5-MIN KDBQ 060135Z 36009KT 10SM CLR M06/M17 A3047 570 40 -1700 360/09 RMK AO2
94908KDBQ DBQ20070305194009603/05/07 19:40:31  5-MIN KDBQ 060140Z 01009KT 10SM CLR M06/M18 A3047 570 38 -1700 010/09 RMK AO2
94908KDBQ DBQ20070305194509603/05/07 19:45:31  5-MIN KDBQ 060145Z 01009KT 10SM CLR M06/M17 A3047 570 41 -1800 360/09 RMK AO2
94908KDBQ DBQ20070305195011303/05/07 19:50:31  5-MIN KDBQ 060150Z 01008KT 10SM CLR M06/M18 A3048 570 39 -1800 010/08 RMK AO2 SLP337 T10611178
94908KDBQ DBQ20070305195512303/05/07 19:55:31  5-MIN KDBQ 060155Z AUTO 01008KT 10SM CLR M06/M18 A3048 570 39 -1800 010/08 RMK AO2 SLP338 T10611178 TSNO
94908KDBQ DBQ20070305200010603/05/07 20:00:31  5-MIN KDBQ 060200Z AUTO 01007KT 10SM CLR M06/M18 A3048 570 39 -1800 010/07 RMK AO2 TSNO
94908KDBQ DBQ20070305200510603/05/07 20:05:31  5-MIN KDBQ 060205Z AUTO 01007KT 10SM CLR M06/M18 A3048 560 39 -1800 010/07 RMK AO2 TSNO
94908KDBQ DBQ20070305201010603/05/07 20:10:31  5-MIN KDBQ 060210Z AUTO 01006KT 10SM CLR M06/M18 A3048 560 38 -1800 010/06 RMK AO2 TSNO
94908KDBQ DBQ20070305201510603/05/07 20:15:31  5-MIN KDBQ 060215Z AUTO 01007KT 10SM CLR M06/M18 A3049 560 38 -1800 010/07 RMK AO2 TSNO
94908KDBQ DBQ20070305202010603/05/07 20:20:31  5-MIN KDBQ 060220Z AUTO 02007KT 10SM CLR M07/M18 A3049 560 41 -1900 020/07 RMK AO2 TSNO
94908KDBQ DBQ20070305202510603/05/07 20:25:31  5-MIN KDBQ 060225Z AUTO 02008KT 10SM CLR M07/M18 A3048 560 41 -1900 020/08 RMK AO2 TSNO
94908KDBQ DBQ20070305203010603/05/07 20:30:31  5-MIN KDBQ 060230Z AUTO 02008KT 10SM CLR M07/M18 A3048 560 41 -1900 020/08 RMK AO2 TSNO
94908KDBQ DBQ20070305203510603/05/07 20:35:31  5-MIN KDBQ 060235Z AUTO 02008KT 10SM CLR M07/M18 A3048 560 41 -1900 020/08 RMK AO2 TSNO
94908KDBQ DBQ20070305204010603/05/07 20:40:31  5-MIN KDBQ 060240Z AUTO 02008KT 10SM CLR M07/M18 A3048 560 41 -1900 020/08 RMK AO2 TSNO
94908KDBQ DBQ20070305204510603/05/07 20:45:31  5-MIN KDBQ 060245Z AUTO 03008KT 10SM CLR M07/M18 A3049 560 39 -1900 030/08 RMK AO2 TSNO
94908KDBQ DBQ20070305205012903/05/07 20:50:31  5-MIN KDBQ 060250Z AUTO 02007KT 10SM CLR M07/M18 A3049 560 41 -1900 020/07 RMK AO2 SLP342 T10671178 52017 TSNO
94908KDBQ DBQ20070305205512903/05/07 20:55:31  5-MIN KDBQ 060255Z AUTO 02008KT 10SM CLR M07/M18 A3049 560 39 -1900 020/08 RMK AO2 SLP342 T10671183 51020 TSNO
94908KDBQ DBQ20070305210010603/05/07 21:00:31  5-MIN KDBQ 060300Z AUTO 02008KT 10SM CLR M07/M18 A3049 550 39 -1900 020/08 RMK AO2 TSNO
94908KDBQ DBQ20070305210510603/05/07 21:05:31  5-MIN KDBQ 060305Z AUTO 02008KT 10SM CLR M07/M18 A3050 550 43 -2000 020/08 RMK AO2 TSNO
94908KDBQ DBQ20070305211010603/05/07 21:10:31  5-MIN KDBQ 060310Z AUTO 02008KT 10SM CLR M07/M17 A3050 550 45 -2000 020/08 RMK AO2 TSNO
94908KDBQ DBQ20070305211510603/05/07 21:15:31  5-MIN KDBQ 060315Z AUTO 02007KT 10SM CLR M07/M17 A3050 550 45 -2000 020/07 RMK AO2 TSNO
94908KDBQ DBQ20070305212010603/05/07 21:20:31  5-MIN KDBQ 060320Z AUTO 02006KT 10SM CLR M07/M17 A3051 540 45 -2000 020/06 RMK AO2 TSNO
94908KDBQ DBQ20070305212510603/05/07 21:25:31  5-MIN KDBQ 060325Z AUTO 02007KT 10SM CLR M07/M17 A3051 540 45 -2000 020/07 RMK AO2 TSNO
94908KDBQ DBQ20070305213010603/05/07 21:30:31  5-MIN KDBQ 060330Z AUTO 03006KT 10SM CLR M08/M17 A3051 540 47 -2100 030/06 RMK AO2 TSNO
94908KDBQ DBQ20070305213510603/05/07 21:35:31  5-MIN KDBQ 060335Z AUTO 03007KT 10SM CLR M08/M17 A3052 530 47 -2100 030/07 RMK AO2 TSNO
94908KDBQ DBQ20070305214010603/05/07 21:40:31  5-MIN KDBQ 060340Z AUTO 01006KT 10SM CLR M07/M17 A3052 530 45 -2000 010/06 RMK AO2 TSNO
94908KDBQ DBQ20070305214510603/05/07 21:45:31  5-MIN KDBQ 060345Z AUTO 02005KT 10SM CLR M08/M17 A3052 530 47 -2100 020/05 RMK AO2 TSNO
94908KDBQ DBQ20070305215012303/05/07 21:50:31  5-MIN KDBQ 060350Z AUTO 03006KT 10SM CLR M08/M17 A3052 530 49 -2200 030/06 RMK AO2 SLP351 T10831172 TSNO
94908KDBQ DBQ20070305215512303/05/07 21:55:31  5-MIN KDBQ 060355Z AUTO 03005KT 10SM CLR M08/M17 A3052 530 47 -2100 030/05 RMK AO2 SLP351 T10781172 TSNO
94908KDBQ DBQ20070305220010603/05/07 22:00:31  5-MIN KDBQ 060400Z AUTO 04005KT 10SM CLR M08/M17 A3052 530 49 -2200 040/05 RMK AO2 TSNO
94908KDBQ DBQ20070305220510603/05/07 22:05:31  5-MIN KDBQ 060405Z AUTO 03006KT 10SM CLR M08/M17 A3052 530 47 -2100 030/06 RMK AO2 TSNO
94908KDBQ DBQ20070305221010603/05/07 22:10:31  5-MIN KDBQ 060410Z AUTO 04006KT 10SM CLR M08/M17 A3051 530 47 -2100 040/06 RMK AO2 TSNO
94908KDBQ DBQ20070305221510603/05/07 22:15:31  5-MIN KDBQ 060415Z AUTO 04006KT 10SM CLR M08/M17 A3051 530 47 -2100 040/06 RMK AO2 TSNO
94908KDBQ DBQ20070305222010603/05/07 22:20:31  5-MIN KDBQ 060420Z AUTO 04007KT 10SM CLR M08/M17 A3052 530 47 -2100 040/07 RMK AO2 TSNO
94908KDBQ DBQ20070305222510603/05/07 22:25:31  5-MIN KDBQ 060425Z AUTO 04006KT 10SM CLR M08/M17 A3051 530 49 -2100 040/06 RMK AO2 TSNO
94908KDBQ DBQ20070305223010603/05/07 22:30:31  5-MIN KDBQ 060430Z AUTO 05007KT 10SM CLR M08/M17 A3052 530 49 -2200 050/07 RMK AO2 TSNO
94908KDBQ DBQ20070305223510603/05/07 22:35:31  5-MIN KDBQ 060435Z AUTO 04007KT 10SM CLR M08/M17 A3052 530 51 -2200 040/07 RMK AO2 TSNO
94908KDBQ DBQ20070305224010603/05/07 22:40:31  5-MIN KDBQ 060440Z AUTO 04006KT 10SM CLR M08/M17 A3052 530 49 -2200 040/06 RMK AO2 TSNO
94908KDBQ DBQ20070305224510603/05/07 22:45:31  5-MIN KDBQ 060445Z AUTO 04008KT 10SM CLR M08/M17 A3052 530 49 -2200 040/08 RMK AO2 TSNO
94908KDBQ DBQ20070305225012303/05/07 22:50:31  5-MIN KDBQ 060450Z AUTO 04008KT 10SM CLR M08/M17 A3052 530 49 -2200 040/08 RMK AO2 SLP353 T10831172 TSNO
94908KDBQ DBQ20070305225512303/05/07 22:55:31  5-MIN KDBQ 060455Z AUTO 04007KT 10SM CLR M08/M17 A3052 530 51 -2200 040/07 RMK AO2 SLP352 T10831167 TSNO
94908KDBQ DBQ20070305230010603/05/07 23:00:31  5-MIN KDBQ 060500Z AUTO 04007KT 10SM CLR M09/M17 A3052 530 54 -2200 040/07 RMK AO2 TSNO
94908KDBQ DBQ20070305230510603/05/07 23:05:31  5-MIN KDBQ 060505Z AUTO 04007KT 10SM CLR M09/M17 A3052 530 54 -2200 040/07 RMK AO2 TSNO
94908KDBQ DBQ20070305231010603/05/07 23:10:31  5-MIN KDBQ 060510Z AUTO 05007KT 10SM CLR M09/M17 A3052 530 54 -2200 050/07 RMK AO2 TSNO
94908KDBQ DBQ20070305231510603/05/07 23:15:31  5-MIN KDBQ 060515Z AUTO 05008KT 10SM CLR M08/M17 A3052 530 49 -2200 050/08 RMK AO2 TSNO
94908KDBQ DBQ20070305232010603/05/07 23:20:31  5-MIN KDBQ 060520Z AUTO 05009KT 10SM CLR M09/M17 A3052 530 54 -2200 050/09 RMK AO2 TSNO
94908KDBQ DBQ20070305232510603/05/07 23:25:31  5-MIN KDBQ 060525Z AUTO 05008KT 10SM CLR M09/M17 A3052 530 54 -2200 050/08 RMK AO2 TSNO
94908KDBQ DBQ20070305233010603/05/07 23:30:31  5-MIN KDBQ 060530Z AUTO 04008KT 10SM CLR M09/M17 A3052 530 54 -2200 040/08 RMK AO2 TSNO
94908KDBQ DBQ20070305233510603/05/07 23:35:31  5-MIN KDBQ 060535Z AUTO 04008KT 10SM CLR M09/M17 A3052 530 54 -2200 040/08 RMK AO2 TSNO
94908KDBQ DBQ20070306095011603/06/07 09:50:31  5-MIN KDBQ 061550Z 11008KT 10SM SCT110 M08/M15 A3048 560 59 -2100 110/08 RMK AO2 SLP344 T10831150
94908KDBQ DBQ20070306095511603/06/07 09:55:31  5-MIN KDBQ 061555Z 11007KT 10SM FEW120 M08/M15 A3049 560 59 -2100 110/07 RMK AO2 SLP345 T10831150
94908KDBQ DBQ20070306100009903/06/07 10:00:31  5-MIN KDBQ 061600Z 12005KT 10SM FEW120 M08/M15 A3049 560 59 -2100 120/05 RMK AO2
94908KDBQ DBQ20070306100509903/06/07 10:05:31  5-MIN KDBQ 061605Z 13005KT 10SM SCT110 M08/M14 A3049 560 59 -2000 130/05 RMK AO2
94908KDBQ DBQ20070306101009903/06/07 10:10:31  5-MIN KDBQ 061610Z 13005KT 10SM SCT110 M08/M15 A3049 560 56 -2000 130/05 RMK AO2
94908KDBQ DBQ20070306101509903/06/07 10:15:31  5-MIN KDBQ 061615Z 14006KT 10SM SCT110 M08/M14 A3049 560 59 -2000 130/06 RMK AO2
94908KDBQ DBQ20070306102009903/06/07 10:20:31  5-MIN KDBQ 061620Z 13006KT 10SM SCT110 M08/M14 A3049 560 59 -2000 130/06 RMK AO2
94908KDBQ DBQ20070306102509903/06/07 10:25:31  5-MIN KDBQ 061625Z 14007KT 10SM SCT110 M07/M14 A3049 560 59 -2000 140/07 RMK AO2
94908KDBQ DBQ20070306103009903/06/07 10:30:31  5-MIN KDBQ 061630Z 14007KT 10SM FEW110 M08/M14 A3049 560 59 -2000 140/07 RMK AO2
94908KDBQ DBQ20070306103509903/06/07 10:35:31  5-MIN KDBQ 061635Z 14007KT 10SM FEW110 M08/M14 A3049 560 59 -2000 140/07 RMK AO2
94908KDBQ DBQ20070306104009903/06/07 10:40:31  5-MIN KDBQ 061640Z 13006KT 10SM FEW120 M07/M14 A3049 560 56 -2000 130/06 RMK AO2
94908KDBQ DBQ20070306104509903/06/07 10:45:31  5-MIN KDBQ 061645Z 14006KT 10SM SCT120 M07/M14 A3049 560 59 -2000 140/06 RMK AO2
94908KDBQ DBQ20070306105011603/06/07 10:50:31  5-MIN KDBQ 061650Z 14006KT 10SM SCT120 M07/M14 A3049 560 59 -2000 140/06 RMK AO2 SLP346 T10721139
94908KDBQ DBQ20070306105511603/06/07 10:55:31  5-MIN KDBQ 061655Z 13006KT 10SM BKN120 M07/M14 A3048 560 59 -2000 130/06 RMK AO2 SLP343 T10721139
94908KDBQ DBQ20070306110009903/06/07 11:00:31  5-MIN KDBQ 061700Z 15007KT 10SM BKN120 M07/M14 A3048 570 59 -2000 150/07 RMK AO2
94908KDBQ DBQ20070306110509903/06/07 11:05:31  5-MIN KDBQ 061705Z 16009KT 10SM BKN120 M07/M13 A3048 570 59 -1900 160/09 RMK AO2
94908KDBQ DBQ20070306111009903/06/07 11:10:31  5-MIN KDBQ 061710Z 16009KT 10SM OVC120 M07/M13 A3047 570 59 -1900 150/09 RMK AO2
94908KDBQ DBQ20070306111509903/06/07 11:15:31  5-MIN KDBQ 061715Z 15011KT 10SM OVC120 M07/M13 A3046 580 62 -1900 150/11 RMK AO2
94908KDBQ DBQ20070306112010603/06/07 11:20:31  5-MIN KDBQ 061720Z 15010KT 10SM OVC120 M07/M13 A3046 590 62 -1900 150/10 RMK AO2 PRESFR
94908KDBQ DBQ20070306112509903/06/07 11:25:31  5-MIN KDBQ 061725Z 16011KT 10SM OVC120 M07/M13 A3045 590 62 -1900 150/11 RMK AO2
94908KDBQ DBQ20070306113009903/06/07 11:30:31  5-MIN KDBQ 061730Z 15012KT 10SM OVC120 M07/M13 A3045 590 62 -1900 150/12 RMK AO2
94908KDBQ DBQ20070306113509903/06/07 11:35:31  5-MIN KDBQ 061735Z 16010KT 10SM OVC120 M07/M12 A3045 590 65 -1900 160/10 RMK AO2
94908KDBQ DBQ20070306114009903/06/07 11:40:31  5-MIN KDBQ 061740Z 15011KT 10SM OVC120 M07/M12 A3045 600 65 -1900 150/11 RMK AO2
94908KDBQ DBQ20070306114509903/06/07 11:45:31  5-MIN KDBQ 061745Z 16011KT 10SM BKN120 M07/M12 A3044 600 65 -1900 150/11 RMK AO2
94908KDBQ DBQ20070306115013403/06/07 11:50:31  5-MIN KDBQ 061750Z 16012KT 10SM SCT110 M06/M12 A3044 600 65 -1800 160/12 RMK AO2 SLP327 T10611117 11061 21117 56003
94908KDBQ DBQ20070306115513403/06/07 11:55:31  5-MIN KDBQ 061755Z 15011KT 10SM SCT110 M06/M12 A3043 610 65 -1800 140/11 RMK AO2 SLP326 T10611117 11061 21117 58023
94908KDBQ DBQ20070306120009903/06/07 12:00:31  5-MIN KDBQ 061800Z 15010KT 10SM SCT110 M06/M12 A3043 610 65 -1800 150/10 RMK AO2
94908KDBQ DBQ20070306120509903/06/07 12:05:31  5-MIN KDBQ 061805Z 15013KT 10SM SCT110 M06/M12 A3042 620 65 -1800 150/13 RMK AO2
94908KDBQ DBQ20070306121009903/06/07 12:10:31  5-MIN KDBQ 061810Z 15013KT 10SM FEW110 M06/M12 A3042 620 65 -1800 150/13 RMK AO2
94908KDBQ DBQ20070306121509903/06/07 12:15:31  5-MIN KDBQ 061815Z 16012KT 10SM FEW110 M06/M11 A3042 620 68 -1700 150/12 RMK AO2
94908KDBQ DBQ20070306122009903/06/07 12:20:31  5-MIN KDBQ 061820Z 16012KT 10SM FEW110 M06/M11 A3041 630 65 -1700 160/12 RMK AO2
94908KDBQ DBQ20070306122509903/06/07 12:25:31  5-MIN KDBQ 061825Z 15011KT 10SM FEW110 M06/M11 A3041 630 65 -1700 150/11 RMK AO2
94908KDBQ DBQ20070306123009903/06/07 12:30:31  5-MIN KDBQ 061830Z 15014KT 10SM FEW110 M06/M11 A3040 630 65 -1700 140/14 RMK AO2
94908KDBQ DBQ20070306123509603/06/07 12:35:31  5-MIN KDBQ 061835Z 15013KT 10SM CLR M06/M11 A3040 640 68 -1700 150/13 RMK AO2
94908KDBQ DBQ20070306124009603/06/07 12:40:31  5-MIN KDBQ 061840Z 15011KT 10SM CLR M06/M11 A3040 640 68 -1700 150/11 RMK AO2
94908KDBQ DBQ20070306124509603/06/07 12:45:31  5-MIN KDBQ 061845Z 15012KT 10SM CLR M06/M11 A3040 640 68 -1700 150/12 RMK AO2
94908KDBQ DBQ20070306125011303/06/07 12:50:31  5-MIN KDBQ 061850Z 14010KT 10SM CLR M05/M11 A3039 640 65 -1600 140/10 RMK AO2 SLP312 T10501106
94908KDBQ DBQ20070306125511303/06/07 12:55:31  5-MIN KDBQ 061855Z 15011KT 10SM CLR M05/M11 A3039 650 65 -1600 150/11 RMK AO2 SLP310 T10501106
94908KDBQ DBQ20070306130009603/06/07 13:00:31  5-MIN KDBQ 061900Z 14012KT 10SM CLR M05/M10 A3038 660 68 -1600 140/12 RMK AO2
94908KDBQ DBQ20070306130509603/06/07 13:05:31  5-MIN KDBQ 061905Z 16013KT 10SM CLR M05/M10 A3038 660 68 -1600 150/13 RMK AO2
94908KDBQ DBQ20070306131009603/06/07 13:10:31  5-MIN KDBQ 061910Z 14012KT 10SM CLR M05/M09 A3037 660 71 -1600 140/12 RMK AO2
94908KDBQ DBQ20070306131509903/06/07 13:15:31  5-MIN KDBQ 061915Z 15011KT 10SM FEW080 M05/M10 A3037 670 68 -1600 150/11 RMK AO2
94908KDBQ DBQ20070306132010603/06/07 13:20:31  5-MIN KDBQ 061920Z 15013KT 10SM FEW080 SCT100 M04/M09 A3037 670 68 -1500 150/13 RMK AO2
94908KDBQ DBQ20070306132509903/06/07 13:25:31  5-MIN KDBQ 061925Z 15014KT 10SM FEW075 M04/M10 A3036 670 65 -1500 150/14 RMK AO2
94908KDBQ DBQ20070306133009903/06/07 13:30:31  5-MIN KDBQ 061930Z 15013KT 10SM SCT070 M04/M10 A3036 670 65 -1500 150/13 RMK AO2
94908KDBQ DBQ20070306133510603/06/07 13:35:31  5-MIN KDBQ 061935Z 15013KT 10SM FEW060 SCT075 M04/M10 A3035 680 65 -1500 150/13 RMK AO2
94908KDBQ DBQ20070306134009903/06/07 13:40:31  5-MIN KDBQ 061940Z 16013KT 10SM FEW080 M04/M09 A3035 680 68 -1500 160/13 RMK AO2
94908KDBQ DBQ20070306134509903/06/07 13:45:31  5-MIN KDBQ 061945Z 16011KT 10SM FEW085 M04/M09 A3035 680 68 -1500 160/11 RMK AO2
94908KDBQ DBQ20070306135012303/06/07 13:50:31  5-MIN KDBQ 061950Z 15013KT 10SM FEW080 SCT110 M04/M09 A3035 680 68 -1500 150/13 RMK AO2 SLP297 T10441094
94908KDBQ DBQ20070306135511603/06/07 13:55:31  5-MIN KDBQ 061955Z 15011KT 10SM BKN100 M04/M10 A3034 690 65 -1400 150/11 RMK AO2 SLP294 T10441100
94908KDBQ DBQ20070306140009903/06/07 14:00:31  5-MIN KDBQ 062000Z 15011KT 10SM BKN110 M04/M09 A3034 700 68 -1400 150/11 RMK AO2
94908KDBQ DBQ20070306140510603/06/07 14:05:31  5-MIN KDBQ 062005Z 15011KT 10SM BKN110 M04/M10 A3033 700 63 -1400 150/11 RMK AO2 PRESFR
94908KDBQ DBQ20070306141009903/06/07 14:10:31  5-MIN KDBQ 062010Z 15013KT 10SM OVC110 M04/M10 A3033 710 65 -1400 150/13 RMK AO2
94908KDBQ DBQ20070306141509903/06/07 14:15:31  5-MIN KDBQ 062015Z 15013KT 10SM OVC110 M04/M10 A3032 710 65 -1400 150/13 RMK AO2
94908KDBQ DBQ20070306142009903/06/07 14:20:31  5-MIN KDBQ 062020Z 16013KT 10SM OVC110 M04/M10 A3032 710 65 -1400 160/13 RMK AO2
94908KDBQ DBQ20070306142509903/06/07 14:25:31  5-MIN KDBQ 062025Z 15013KT 10SM OVC110 M04/M10 A3032 710 63 -1300 150/13 RMK AO2
94908KDBQ DBQ20070306143009903/06/07 14:30:31  5-MIN KDBQ 062030Z 15012KT 10SM OVC110 M04/M10 A3031 720 63 -1300 150/12 RMK AO2
94908KDBQ DBQ20070306143509903/06/07 14:35:31  5-MIN KDBQ 062035Z 14013KT 10SM OVC110 M04/M09 A3031 720 65 -1300 140/13 RMK AO2
94908KDBQ DBQ20070306144009903/06/07 14:40:31  5-MIN KDBQ 062040Z 14013KT 10SM OVC110 M04/M09 A3031 720 65 -1300 140/13 RMK AO2
94908KDBQ DBQ20070306144509903/06/07 14:45:31  5-MIN KDBQ 062045Z 15011KT 10SM OVC110 M04/M09 A3030 720 65 -1300 140/11 RMK AO2
94908KDBQ DBQ20070306145012203/06/07 14:50:31  5-MIN KDBQ 062050Z 15014KT 10SM BKN110 M04/M09 A3030 730 68 -1300 150/14 RMK AO2 SLP279 T10391089 58023
94908KDBQ DBQ20070306145512203/06/07 14:55:31  5-MIN KDBQ 062055Z 14012KT 10SM BKN110 M04/M09 A3029 740 68 -1300 140/12 RMK AO2 SLP277 T10391089 58045
94908KDBQ DBQ20070306150009903/06/07 15:00:31  5-MIN KDBQ 062100Z 16012KT 10SM BKN100 M04/M09 A3029 740 68 -1300 150/12 RMK AO2
94908KDBQ DBQ20070306150509903/06/07 15:05:31  5-MIN KDBQ 062105Z 15012KT 10SM BKN100 M04/M09 A3029 740 68 -1300 150/12 RMK AO2
94908KDBQ DBQ20070306151009903/06/07 15:10:31  5-MIN KDBQ 062110Z 15011KT 10SM BKN100 M04/M08 A3029 740 71 -1300 150/11 RMK AO2
94908KDBQ DBQ20070306151509903/06/07 15:15:31  5-MIN KDBQ 062115Z 14011KT 10SM BKN100 M03/M08 A3029 740 68 -1200 140/11 RMK AO2
94908KDBQ DBQ20070306152009903/06/07 15:20:31  5-MIN KDBQ 062120Z 15011KT 10SM BKN100 M03/M08 A3028 740 68 -1200 150/11 RMK AO2
94908KDBQ DBQ20070306152509903/06/07 15:25:31  5-MIN KDBQ 062125Z 14010KT 10SM BKN100 M03/M08 A3028 750 68 -1200 140/10 RMK AO2
94908KDBQ DBQ20070306153009903/06/07 15:30:31  5-MIN KDBQ 062130Z 15011KT 10SM BKN100 M03/M08 A3028 750 68 -1200 140/11 RMK AO2
94908KDBQ DBQ20070306153509903/06/07 15:35:31  5-MIN KDBQ 062135Z 14011KT 10SM BKN110 M03/M08 A3027 750 68 -1200 140/11 RMK AO2
94908KDBQ DBQ20070306154009903/06/07 15:40:31  5-MIN KDBQ 062140Z 14010KT 10SM BKN110 M03/M08 A3027 750 68 -1200 140/10 RMK AO2
94908KDBQ DBQ20070306154509903/06/07 15:45:31  5-MIN KDBQ 062145Z 14012KT 10SM BKN110 M03/M08 A3027 760 68 -1200 130/12 RMK AO2
94908KDBQ DBQ20070306155011603/06/07 15:50:31  5-MIN KDBQ 062150Z 13010KT 10SM BKN110 M03/M08 A3026 760 68 -1200 130/10 RMK AO2 SLP267 T10331083
94908KDBQ DBQ20070306155511603/06/07 15:55:31  5-MIN KDBQ 062155Z 15012KT 10SM OVC110 M03/M08 A3026 770 68 -1200 150/12 RMK AO2 SLP266 T10331083
94908KDBQ DBQ20070306160010603/06/07 16:00:31  5-MIN KDBQ 062200Z 14013KT 10SM BKN100 BKN120 M03/M08 A3026 760 68 -1200 140/13 RMK AO2
94908KDBQ DBQ20070306160510603/06/07 16:05:31  5-MIN KDBQ 062205Z 15011KT 10SM BKN095 BKN120 M03/M08 A3026 770 68 -1200 150/11 RMK AO2
94908KDBQ DBQ20070306161010603/06/07 16:10:31  5-MIN KDBQ 062210Z 15010KT 10SM BKN090 BKN120 M03/M08 A3026 770 71 -1200 150/10 RMK AO2
94908KDBQ DBQ20070306161510603/06/07 16:15:31  5-MIN KDBQ 062215Z 14010KT 10SM SCT090 BKN120 M03/M08 A3026 770 71 -1200 140/10 RMK AO2
94908KDBQ DBQ20070306162009903/06/07 16:20:31  5-MIN KDBQ 062220Z 14009KT 10SM SCT090 M03/M08 A3025 770 71 -1200 140/09 RMK AO2
94908KDBQ DBQ20070306162509903/06/07 16:25:31  5-MIN KDBQ 062225Z 14010KT 10SM SCT085 M03/M08 A3025 770 71 -1200 140/10 RMK AO2
94908KDBQ DBQ20070306163010603/06/07 16:30:31  5-MIN KDBQ 062230Z 14008KT 10SM FEW075 SCT090 M03/M08 A3025 780 71 -1200 140/08 RMK AO2
94908KDBQ DBQ20070306163510603/06/07 16:35:31  5-MIN KDBQ 062235Z 13008KT 10SM FEW075 SCT090 M03/M08 A3025 780 71 -1200 130/08 RMK AO2
94908KDBQ DBQ20070306164010603/06/07 16:40:31  5-MIN KDBQ 062240Z 12009KT 10SM SCT075 SCT090 M03/M08 A3025 780 71 -1200 120/09 RMK AO2
94908KDBQ DBQ20070306164510603/06/07 16:45:31  5-MIN KDBQ 062245Z 12010KT 10SM SCT070 BKN090 M03/M08 A3025 780 71 -1200 120/10 RMK AO2
94908KDBQ DBQ20070306165011603/06/07 16:50:31  5-MIN KDBQ 062250Z 14008KT 10SM SCT070 M03/M08 A3025 780 71 -1200 140/08 RMK AO2 SLP262 T10331078
94908KDBQ DBQ20070306165511603/06/07 16:55:31  5-MIN KDBQ 062255Z 12011KT 10SM SCT070 M03/M08 A3024 780 71 -1200 120/11 RMK AO2 SLP261 T10331078
94908KDBQ DBQ20070306170009903/06/07 17:00:31  5-MIN KDBQ 062300Z 13009KT 10SM SCT070 M03/M08 A3024 780 71 -1200 130/09 RMK AO2
94908KDBQ DBQ20070306170509903/06/07 17:05:31  5-MIN KDBQ 062305Z 14010KT 10SM BKN070 M03/M08 A3024 780 71 -1200 140/10 RMK AO2
94908KDBQ DBQ20070306171009903/06/07 17:10:31  5-MIN KDBQ 062310Z 13010KT 10SM BKN070 M03/M08 A3024 790 71 -1200 130/10 RMK AO2
94908KDBQ DBQ20070306171509903/06/07 17:15:31  5-MIN KDBQ 062315Z 14007KT 10SM BKN070 M03/M08 A3024 790 71 -1200 130/07 RMK AO2
94908KDBQ DBQ20070306172009903/06/07 17:20:31  5-MIN KDBQ 062320Z 13010KT 10SM BKN070 M03/M08 A3023 790 71 -1200 130/10 RMK AO2
94908KDBQ DBQ20070306172509903/06/07 17:25:31  5-MIN KDBQ 062325Z 14012KT 10SM BKN070 M03/M08 A3023 800 71 -1200 140/12 RMK AO2
94908KDBQ DBQ20070306173009903/06/07 17:30:31  5-MIN KDBQ 062330Z 13010KT 10SM BKN070 M03/M08 A3022 800 71 -1200 130/10 RMK AO2
94908KDBQ DBQ20070306173510603/06/07 17:35:31  5-MIN KDBQ 062335Z 14011KT 10SM SCT070 BKN100 M03/M08 A3022 800 71 -1200 140/11 RMK AO2
94908KDBQ DBQ20070306174010603/06/07 17:40:31  5-MIN KDBQ 062340Z 13010KT 10SM BKN080 BKN100 M03/M08 A3022 800 71 -1200 130/10 RMK AO2
94908KDBQ DBQ20070306174510603/06/07 17:45:31  5-MIN KDBQ 062345Z 14009KT 10SM BKN080 BKN100 M03/M08 A3022 800 71 -1200 130/09 RMK AO2
94908KDBQ DBQ20070306175014803/06/07 17:50:31  5-MIN KDBQ 062350Z 14009KT 10SM FEW075 BKN090 BKN100 M03/M08 A3022 800 71 -1200 140/09 RMK AO2 SLP254 T10331078 11033 21061 58045
94908KDBQ DBQ20070306175513403/06/07 17:55:31  5-MIN KDBQ 062355Z 13008KT 10SM BKN100 M03/M08 A3023 800 71 -1200 130/08 RMK AO2 SLP255 T10331078 11033 21061 56021
94908KDBQ DBQ20070306180010603/06/07 18:00:31  5-MIN KDBQ 070000Z 12011KT 10SM FEW075 OVC095 M03/M08 A3022 800 71 -1200 120/11 RMK AO2
94908KDBQ DBQ20070306180511303/06/07 18:05:31  5-MIN KDBQ 070005Z 13010KT 10SM FEW065 BKN085 OVC100 M03/M08 A3022 800 71 -1200 130/10 RMK AO2
94908KDBQ DBQ20070306181011303/06/07 18:10:31  5-MIN KDBQ 070010Z 14010KT 10SM BKN070 BKN090 OVC100 M03/M08 A3022 800 71 -1200 140/10 RMK AO2
94908KDBQ DBQ20070306181511303/06/07 18:15:31  5-MIN KDBQ 070015Z 13010KT 10SM BKN070 BKN090 OVC100 M03/M08 A3022 800 71 -1200 130/10 RMK AO2
94908KDBQ DBQ20070306182010603/06/07 18:20:31  5-MIN KDBQ 070020Z 14009KT 10SM BKN075 OVC095 M03/M08 A3022 800 71 -1200 140/09 RMK AO2
94908KDBQ DBQ20070306182510603/06/07 18:25:31  5-MIN KDBQ 070025Z 12010KT 10SM BKN070 OVC090 M03/M08 A3022 800 71 -1200 120/10 RMK AO2
94908KDBQ DBQ20070306183010603/06/07 18:30:31  5-MIN KDBQ 070030Z 13011KT 10SM BKN070 OVC095 M04/M08 A3022 800 74 -1200 130/11 RMK AO2
94908KDBQ DBQ20070306183510603/06/07 18:35:31  5-MIN KDBQ 070035Z 13010KT 10SM BKN075 OVC095 M04/M08 A3022 800 74 -1200 120/10 RMK AO2
94908KDBQ DBQ20070306184009903/06/07 18:40:31  5-MIN KDBQ 070040Z 12010KT 10SM OVC090 M04/M08 A3022 800 74 -1200 120/10 RMK AO2
94908KDBQ DBQ20070306184509903/06/07 18:45:31  5-MIN KDBQ 070045Z 12010KT 10SM OVC085 M04/M08 A3022 800 74 -1200 120/10 RMK AO2
94908KDBQ DBQ20070306185012303/06/07 18:50:31  5-MIN KDBQ 070050Z 12010KT 10SM BKN080 OVC095 M04/M08 A3022 800 71 -1200 120/10 RMK AO2 SLP253 T10391083
94908KDBQ DBQ20070306185512303/06/07 18:55:31  5-MIN KDBQ 070055Z 12009KT 10SM BKN075 OVC090 M04/M08 A3022 800 71 -1200 120/09 RMK AO2 SLP254 T10391083
94908KDBQ DBQ20070306190010603/06/07 19:00:31  5-MIN KDBQ 070100Z 14007KT 10SM BKN075 OVC090 M04/M08 A3023 790 74 -1200 140/07 RMK AO2
94908KDBQ DBQ20070306190510603/06/07 19:05:31  5-MIN KDBQ 070105Z 13007KT 10SM BKN070 OVC090 M04/M08 A3023 800 71 -1200 130/07 RMK AO2
94908KDBQ DBQ20070306191010603/06/07 19:10:31  5-MIN KDBQ 070110Z 14007KT 10SM BKN070 OVC090 M04/M08 A3023 790 71 -1300 140/07 RMK AO2
94908KDBQ DBQ20070306191510603/06/07 19:15:31  5-MIN KDBQ 070115Z 13007KT 10SM BKN070 OVC090 M04/M08 A3023 790 71 -1200 130/07 RMK AO2
94908KDBQ DBQ20070306192010603/06/07 19:20:31  5-MIN KDBQ 070120Z 14008KT 10SM BKN070 OVC090 M04/M08 A3023 800 71 -1200 140/08 RMK AO2
94908KDBQ DBQ20070306192510603/06/07 19:25:31  5-MIN KDBQ 070125Z 14007KT 10SM BKN065 OVC085 M04/M08 A3023 790 71 -1300 140/07 RMK AO2
94908KDBQ DBQ20070306193010603/06/07 19:30:31  5-MIN KDBQ 070130Z 14006KT 10SM BKN070 OVC080 M04/M08 A3024 790 71 -1300 140/06 RMK AO2
94908KDBQ DBQ20070306193509903/06/07 19:35:31  5-MIN KDBQ 070135Z 15007KT 10SM OVC070 M04/M08 A3024 780 74 -1300 150/07 RMK AO2
94908KDBQ DBQ20070306194010603/06/07 19:40:31  5-MIN KDBQ 070140Z 14006KT 10SM BKN070 OVC095 M04/M08 A3024 780 71 -1300 140/06 RMK AO2
94908KDBQ DBQ20070306194510603/06/07 19:45:31  5-MIN KDBQ 070145Z 14007KT 10SM BKN070 OVC095 M04/M08 A3024 780 74 -1300 140/07 RMK AO2
94908KDBQ DBQ20070306195012303/06/07 19:50:31  5-MIN KDBQ 070150Z 15008KT 10SM BKN070 OVC095 M04/M08 A3024 780 74 -1300 150/08 RMK AO2 SLP260 T10391078
94908KDBQ DBQ20070306195512303/06/07 19:55:31  5-MIN KDBQ 070155Z 15007KT 10SM BKN070 OVC095 M04/M08 A3024 790 71 -1300 150/07 RMK AO2 SLP259 T10391083
94908KDBQ DBQ20070306200010603/06/07 20:00:31  5-MIN KDBQ 070200Z 14008KT 10SM BKN070 OVC095 M04/M08 A3024 790 71 -1300 140/08 RMK AO2
94908KDBQ DBQ20070306200509903/06/07 20:05:31  5-MIN KDBQ 070205Z 14008KT 10SM OVC070 M04/M08 A3024 790 71 -1300 140/08 RMK AO2
94908KDBQ DBQ20070306201009903/06/07 20:10:31  5-MIN KDBQ 070210Z 14009KT 10SM OVC070 M04/M08 A3023 790 71 -1300 140/09 RMK AO2
94908KDBQ DBQ20070306201509903/06/07 20:15:31  5-MIN KDBQ 070215Z 14007KT 10SM OVC070 M04/M08 A3023 790 74 -1300 140/07 RMK AO2
94908KDBQ DBQ20070306202009903/06/07 20:20:31  5-MIN KDBQ 070220Z 13006KT 10SM OVC065 M04/M08 A3023 790 74 -1300 130/06 RMK AO2
94908KDBQ DBQ20070306202509903/06/07 20:25:31  5-MIN KDBQ 070225Z 13007KT 10SM OVC065 M04/M08 A3023 790 74 -1300 130/07 RMK AO2
94908KDBQ DBQ20070306203009903/06/07 20:30:31  5-MIN KDBQ 070230Z 13007KT 10SM OVC065 M04/M08 A3023 790 71 -1200 130/07 RMK AO2
94908KDBQ DBQ20070306203510603/06/07 20:35:31  5-MIN KDBQ 070235Z 12007KT 10SM BKN065 OVC090 M04/M08 A3023 800 71 -1200 120/07 RMK AO2
94908KDBQ DBQ20070306204010603/06/07 20:40:31  5-MIN KDBQ 070240Z 13007KT 10SM BKN065 OVC085 M04/M08 A3022 800 74 -1200 130/07 RMK AO2
94908KDBQ DBQ20070306204511303/06/07 20:45:31  5-MIN KDBQ 070245Z 12007KT 10SM BKN065 BKN085 OVC110 M04/M08 A3023 790 71 -1200 120/07 RMK AO2
94908KDBQ DBQ20070306205013603/06/07 20:50:31  5-MIN KDBQ 070250Z 11008KT 10SM SCT065 BKN085 OVC110 M04/M08 A3023 790 74 -1200 110/08 RMK AO2 SLP255 T10391078 56021
94908KDBQ DBQ20070306205513603/06/07 20:55:31  5-MIN KDBQ 070255Z 10007KT 10SM FEW070 SCT085 OVC110 M04/M08 A3023 800 74 -1200 100/07 RMK AO2 SLP254 T10391078 58000
94908KDBQ DBQ20070306210010603/06/07 21:00:31  5-MIN KDBQ 070300Z 10006KT 10SM FEW070 OVC110 M04/M08 A3023 800 74 -1200 090/06 RMK AO2
94908KDBQ DBQ20070306210510603/06/07 21:05:31  5-MIN KDBQ 070305Z 10006KT 10SM FEW090 OVC110 M04/M08 A3023 800 74 -1200 100/06 RMK AO2
94908KDBQ DBQ20070306211009903/06/07 21:10:31  5-MIN KDBQ 070310Z 10006KT 10SM OVC110 M04/M08 A3022 800 74 -1200 100/06 RMK AO2
94908KDBQ DBQ20070306211510403/06/07 21:15:31  5-MIN KDBQ 070315Z AUTO 10007KT 10SM OVC110 M04/M08 A3023 800 74 -1200 100/07 RMK AO2
94908KDBQ DBQ20070306212010903/06/07 21:20:31  5-MIN KDBQ 070320Z AUTO 09006KT 10SM OVC110 M04/M08 A3023 800 74 -1200 090/06 RMK AO2 TSNO
94908KDBQ DBQ20070306212510903/06/07 21:25:31  5-MIN KDBQ 070325Z AUTO 09007KT 10SM OVC110 M04/M08 A3023 800 74 -1200 090/07 RMK AO2 TSNO
94908KDBQ DBQ20070306213010903/06/07 21:30:31  5-MIN KDBQ 070330Z AUTO 07005KT 10SM OVC110 M04/M08 A3023 800 74 -1200 070/05 RMK AO2 TSNO
94908KDBQ DBQ20070306213510903/06/07 21:35:31  5-MIN KDBQ 070335Z AUTO 06005KT 10SM OVC110 M04/M08 A3023 790 71 -1300 050/05 RMK AO2 TSNO
94908KDBQ DBQ20070306214010903/06/07 21:40:31  5-MIN KDBQ 070340Z AUTO 07005KT 10SM OVC110 M04/M08 A3023 790 74 -1200 070/05 RMK AO2 TSNO
94908KDBQ DBQ20070306214510903/06/07 21:45:31  5-MIN KDBQ 070345Z AUTO 07006KT 10SM OVC110 M04/M08 A3023 790 71 -1200 070/06 RMK AO2 TSNO
94908KDBQ DBQ20070307085013103/07/07 08:50:31  5-MIN KDBQ 071450Z 03016KT 5SM HZ FEW014 OVC030 M05/M08 A3029 740 77 -1500 030/16 RMK AO2 SLP273 T10501083 53008
94908KDBQ DBQ20070307085513103/07/07 08:55:31  5-MIN KDBQ 071455Z 04016KT 5SM HZ FEW014 OVC030 M06/M08 A3029 740 81 -1500 040/16 RMK AO2 SLP273 T10561083 53026
94908KDBQ DBQ20070307090010103/07/07 09:00:31  5-MIN KDBQ 071500Z 04014KT 5SM HZ OVC030 M06/M08 A3029 740 81 -1500 040/14 RMK AO2
94908KDBQ DBQ20070307090510103/07/07 09:05:31  5-MIN KDBQ 071505Z 03014KT 5SM HZ OVC030 M05/M08 A3029 740 77 -1500 030/14 RMK AO2
94908KDBQ DBQ20070307091010103/07/07 09:10:31  5-MIN KDBQ 071510Z 04015KT 5SM HZ OVC030 M05/M08 A3029 730 77 -1500 040/15 RMK AO2
94908KDBQ DBQ20070307091510103/07/07 09:15:31  5-MIN KDBQ 071515Z 04016KT 5SM HZ OVC030 M05/M08 A3030 730 77 -1500 030/16 RMK AO2
94908KDBQ DBQ20070307092010103/07/07 09:20:31  5-MIN KDBQ 071520Z 04016KT 5SM HZ OVC030 M05/M08 A3030 730 77 -1500 040/16 RMK AO2
94908KDBQ DBQ20070307092510103/07/07 09:25:31  5-MIN KDBQ 071525Z 04015KT 5SM HZ OVC030 M05/M08 A3030 730 77 -1500 040/15 RMK AO2
94908KDBQ DBQ20070307093010103/07/07 09:30:31  5-MIN KDBQ 071530Z 03015KT 5SM HZ OVC030 M05/M08 A3030 720 77 -1500 030/15 RMK AO2
94908KDBQ DBQ20070307093510103/07/07 09:35:31  5-MIN KDBQ 071535Z 03016KT 5SM HZ OVC030 M06/M08 A3031 720 81 -1500 030/16 RMK AO2
94908KDBQ DBQ20070307094010103/07/07 09:40:31  5-MIN KDBQ 071540Z 04015KT 5SM HZ OVC028 M06/M08 A3031 720 81 -1600 040/15 RMK AO2
94908KDBQ DBQ20070307094510103/07/07 09:45:31  5-MIN KDBQ 071545Z 03015KT 5SM HZ OVC028 M06/M08 A3031 720 81 -1600 030/15 RMK AO2
94908KDBQ DBQ20070307095011803/07/07 09:50:31  5-MIN KDBQ 071550Z 04014KT 5SM HZ OVC028 M05/M08 A3031 720 77 -1500 040/14 RMK AO2 SLP282 T10501083
94908KDBQ DBQ20070307095511803/07/07 09:55:31  5-MIN KDBQ 071555Z 03014KT 5SM HZ OVC028 M05/M08 A3032 720 77 -1500 030/14 RMK AO2 SLP282 T10501083
94908KDBQ DBQ20070307100010103/07/07 10:00:31  5-MIN KDBQ 071600Z 03013KT 5SM HZ OVC028 M05/M08 A3032 710 77 -1500 030/13 RMK AO2
94908KDBQ DBQ20070307100510103/07/07 10:05:31  5-MIN KDBQ 071605Z 04013KT 5SM HZ OVC028 M05/M08 A3032 710 77 -1500 040/13 RMK AO2
94908KDBQ DBQ20070307101010103/07/07 10:10:31  5-MIN KDBQ 071610Z 04015KT 5SM HZ OVC028 M05/M08 A3033 710 77 -1500 040/15 RMK AO2
94908KDBQ DBQ20070307101510103/07/07 10:15:31  5-MIN KDBQ 071615Z 04015KT 5SM HZ OVC028 M05/M09 A3033 700 74 -1500 030/15 RMK AO2
94908KDBQ DBQ20070307102010103/07/07 10:20:31  5-MIN KDBQ 071620Z 04015KT 6SM HZ OVC028 M05/M09 A3033 700 74 -1500 040/15 RMK AO2
94908KDBQ DBQ20070307102509803/07/07 10:25:31  5-MIN KDBQ 071625Z 05013KT 7SM OVC028 M05/M09 A3033 700 74 -1500 040/13 RMK AO2
94908KDBQ DBQ20070307103009803/07/07 10:30:31  5-MIN KDBQ 071630Z 04013KT 7SM OVC028 M05/M09 A3033 700 74 -1500 040/13 RMK AO2
94908KDBQ DBQ20070307103510103/07/07 10:35:31  5-MIN KDBQ 071635Z 04014KT 6SM HZ OVC028 M05/M09 A3033 700 74 -1500 040/14 RMK AO2
94908KDBQ DBQ20070307104009803/07/07 10:40:31  5-MIN KDBQ 071640Z 04014KT 7SM OVC028 M05/M09 A3033 700 74 -1500 040/14 RMK AO2
94908KDBQ DBQ20070307104509803/07/07 10:45:31  5-MIN KDBQ 071645Z 04014KT 7SM OVC028 M05/M09 A3033 700 74 -1500 040/14 RMK AO2
94908KDBQ DBQ20070307105011503/07/07 10:50:31  5-MIN KDBQ 071650Z 04013KT 7SM OVC028 M05/M09 A3034 700 74 -1500 040/13 RMK AO2 SLP289 T10501089
94908KDBQ DBQ20070307105511503/07/07 10:55:31  5-MIN KDBQ 071655Z 04012KT 7SM OVC028 M05/M09 A3034 690 74 -1500 040/12 RMK AO2 SLP290 T10501089
94908KDBQ DBQ20070307110009803/07/07 11:00:31  5-MIN KDBQ 071700Z 04013KT 8SM OVC028 M05/M09 A3034 690 74 -1500 040/13 RMK AO2
94908KDBQ DBQ20070307110509803/07/07 11:05:31  5-MIN KDBQ 071705Z 05014KT 8SM OVC028 M05/M09 A3034 690 71 -1500 050/14 RMK AO2
94908KDBQ DBQ20070307111009803/07/07 11:10:31  5-MIN KDBQ 071710Z 04013KT 9SM OVC028 M05/M09 A3034 690 74 -1500 040/13 RMK AO2
94908KDBQ DBQ20070307111509803/07/07 11:15:31  5-MIN KDBQ 071715Z 04012KT 9SM OVC028 M05/M09 A3034 690 74 -1500 040/12 RMK AO2
94908KDBQ DBQ20070307112009803/07/07 11:20:31  5-MIN KDBQ 071720Z 05012KT 9SM OVC028 M05/M09 A3034 690 74 -1500 050/12 RMK AO2
94908KDBQ DBQ20070307112509803/07/07 11:25:31  5-MIN KDBQ 071725Z 03014KT 9SM OVC028 M05/M09 A3034 690 74 -1500 030/14 RMK AO2
94908KDBQ DBQ20070307113009803/07/07 11:30:31  5-MIN KDBQ 071730Z 04014KT 9SM OVC028 M05/M09 A3034 690 74 -1500 040/14 RMK AO2
94908KDBQ DBQ20070307113509903/07/07 11:35:31  5-MIN KDBQ 071735Z 03014KT 10SM OVC028 M05/M09 A3034 690 74 -1500 030/14 RMK AO2
94908KDBQ DBQ20070307114009903/07/07 11:40:31  5-MIN KDBQ 071740Z 04013KT 10SM OVC028 M05/M09 A3034 690 74 -1500 040/13 RMK AO2
94908KDBQ DBQ20070307114509903/07/07 11:45:31  5-MIN KDBQ 071745Z 04013KT 10SM OVC028 M05/M09 A3034 690 71 -1500 040/13 RMK AO2
94908KDBQ DBQ20070307115013403/07/07 11:50:31  5-MIN KDBQ 071750Z 04013KT 10SM OVC028 M05/M09 A3034 690 71 -1500 040/13 RMK AO2 SLP292 T10501094 11050 21061 53026
94908KDBQ DBQ20070307115513403/07/07 11:55:31  5-MIN KDBQ 071755Z 04014KT 10SM OVC028 M05/M09 A3035 690 71 -1500 040/14 RMK AO2 SLP292 T10501094 11050 21061 51019
94908KDBQ DBQ20070307120009903/07/07 12:00:31  5-MIN KDBQ 071800Z 04013KT 10SM OVC028 M05/M09 A3035 690 71 -1500 040/13 RMK AO2
94908KDBQ DBQ20070307120509903/07/07 12:05:31  5-MIN KDBQ 071805Z 04011KT 10SM OVC028 M05/M09 A3035 690 71 -1500 040/11 RMK AO2
94908KDBQ DBQ20070307121009903/07/07 12:10:31  5-MIN KDBQ 071810Z 03013KT 10SM OVC028 M05/M09 A3035 690 74 -1500 030/13 RMK AO2
94908KDBQ DBQ20070307121509903/07/07 12:15:31  5-MIN KDBQ 071815Z 03013KT 10SM OVC028 M05/M09 A3035 690 74 -1500 030/13 RMK AO2
94908KDBQ DBQ20070307122009903/07/07 12:20:31  5-MIN KDBQ 071820Z 04013KT 10SM OVC028 M05/M09 A3035 690 74 -1500 040/13 RMK AO2
94908KDBQ DBQ20070307122509903/07/07 12:25:31  5-MIN KDBQ 071825Z 04013KT 10SM OVC028 M05/M09 A3035 690 74 -1500 040/13 RMK AO2
94908KDBQ DBQ20070307123009903/07/07 12:30:31  5-MIN KDBQ 071830Z 04013KT 10SM OVC028 M05/M09 A3034 690 74 -1500 040/13 RMK AO2
94908KDBQ DBQ20070307123509903/07/07 12:35:31  5-MIN KDBQ 071835Z 04012KT 10SM OVC028 M05/M09 A3034 690 74 -1500 040/12 RMK AO2
94908KDBQ DBQ20070307124009903/07/07 12:40:31  5-MIN KDBQ 071840Z 03013KT 10SM OVC028 M04/M09 A3034 690 71 -1400 030/13 RMK AO2
94908KDBQ DBQ20070307124509903/07/07 12:45:31  5-MIN KDBQ 071845Z 04013KT 10SM OVC028 M04/M09 A3034 690 71 -1400 030/13 RMK AO2
94908KDBQ DBQ20070307125009903/07/07 12:50:31  5-MIN KDBQ 071850Z 04012KT 10SM OVC030 M04/M09 A3034 690 71 -1400 040/12 RMK AO2
94908KDBQ DBQ20070307125511603/07/07 12:55:31  5-MIN KDBQ 071855Z 03012KT 10SM OVC030 M04/M09 A3034 690 71 -1400 030/12 RMK AO2 SLP290 T10441089
94908KDBQ DBQ20070307130009903/07/07 13:00:31  5-MIN KDBQ 071900Z 05011KT 10SM OVC030 M04/M09 A3034 690 71 -1400 050/11 RMK AO2
94908KDBQ DBQ20070307130509903/07/07 13:05:31  5-MIN KDBQ 071905Z 03013KT 10SM OVC030 M04/M09 A3034 690 71 -1400 030/13 RMK AO2
94908KDBQ DBQ20070307131009903/07/07 13:10:31  5-MIN KDBQ 071910Z 04011KT 10SM OVC030 M04/M09 A3033 700 71 -1400 040/11 RMK AO2
94908KDBQ DBQ20070307131509903/07/07 13:15:31  5-MIN KDBQ 071915Z 04011KT 10SM OVC030 M04/M09 A3033 700 71 -1400 040/11 RMK AO2
94908KDBQ DBQ20070307132009903/07/07 13:20:31  5-MIN KDBQ 071920Z 05011KT 10SM OVC030 M04/M09 A3033 700 71 -1400 050/11 RMK AO2
94908KDBQ DBQ20070307132509903/07/07 13:25:31  5-MIN KDBQ 071925Z 05011KT 10SM OVC030 M04/M09 A3033 700 71 -1400 050/11 RMK AO2
94908KDBQ DBQ20070307133009903/07/07 13:30:31  5-MIN KDBQ 071930Z 03011KT 10SM OVC030 M04/M09 A3033 700 71 -1400 030/11 RMK AO2
94908KDBQ DBQ20070307133509903/07/07 13:35:31  5-MIN KDBQ 071935Z 03010KT 10SM OVC030 M04/M09 A3033 700 68 -1400 030/10 RMK AO2
94908KDBQ DBQ20070307134009903/07/07 13:40:31  5-MIN KDBQ 071940Z 04011KT 10SM OVC030 M04/M09 A3033 710 68 -1400 040/11 RMK AO2
94908KDBQ DBQ20070307134509903/07/07 13:45:31  5-MIN KDBQ 071945Z 04010KT 10SM BKN030 M04/M09 A3032 710 65 -1400 030/10 RMK AO2
94908KDBQ DBQ20070307135011603/07/07 13:50:31  5-MIN KDBQ 071950Z 04010KT 10SM BKN030 M04/M09 A3032 710 68 -1400 040/10 RMK AO2 SLP286 T10391089
94908KDBQ DBQ20070307135511603/07/07 13:55:31  5-MIN KDBQ 071955Z 03010KT 10SM SCT030 M04/M09 A3032 710 68 -1400 030/10 RMK AO2 SLP285 T10391089
94908KDBQ DBQ20070307140009903/07/07 14:00:31  5-MIN KDBQ 072000Z 05010KT 10SM FEW030 M04/M09 A3032 710 68 -1400 050/10 RMK AO2
94908KDBQ DBQ20070307140509903/07/07 14:05:31  5-MIN KDBQ 072005Z 03008KT 10SM FEW030 M03/M09 A3032 710 65 -1300 030/08 RMK AO2
94908KDBQ DBQ20070307141009603/07/07 14:10:31  5-MIN KDBQ 072010Z 05008KT 10SM CLR M03/M09 A3032 710 65 -1300 050/08 RMK AO2
94908KDBQ DBQ20070307141509603/07/07 14:15:31  5-MIN KDBQ 072015Z 04009KT 10SM CLR M03/M09 A3032 710 65 -1300 030/09 RMK AO2
94908KDBQ DBQ20070307142009603/07/07 14:20:31  5-MIN KDBQ 072020Z 04009KT 10SM CLR M03/M09 A3032 710 65 -1300 040/09 RMK AO2
94908KDBQ DBQ20070307142509603/07/07 14:25:31  5-MIN KDBQ 072025Z 04008KT 10SM CLR M03/M09 A3032 710 65 -1300 040/08 RMK AO2
94908KDBQ DBQ20070307143009603/07/07 14:30:31  5-MIN KDBQ 072030Z 06008KT 10SM CLR M03/M09 A3032 710 65 -1300 060/08 RMK AO2
94908KDBQ DBQ20070307143509603/07/07 14:35:31  5-MIN KDBQ 072035Z 04007KT 10SM CLR M03/M09 A3032 710 65 -1300 040/07 RMK AO2
94908KDBQ DBQ20070307144009603/07/07 14:40:31  5-MIN KDBQ 072040Z 05007KT 10SM CLR M03/M09 A3033 710 65 -1300 050/07 RMK AO2
94908KDBQ DBQ20070307144509603/07/07 14:45:31  5-MIN KDBQ 072045Z 04005KT 10SM CLR M03/M09 A3033 710 65 -1300 040/05 RMK AO2
94908KDBQ DBQ20070307145011903/07/07 14:50:31  5-MIN KDBQ 072050Z 04004KT 10SM CLR M03/M09 A3033 710 63 -1200 040/04 RMK AO2 SLP286 T10281089 51019
94908KDBQ DBQ20070307145511903/07/07 14:55:31  5-MIN KDBQ 072055Z 04005KT 10SM CLR M03/M09 A3033 710 63 -1200 040/05 RMK AO2 SLP286 T10281089 55004
94908KDBQ DBQ20070307150009603/07/07 15:00:31  5-MIN KDBQ 072100Z 03005KT 10SM CLR M03/M09 A3033 710 63 -1200 030/05 RMK AO2
94908KDBQ DBQ20070307150509603/07/07 15:05:31  5-MIN KDBQ 072105Z 06005KT 10SM CLR M02/M09 A3033 710 60 -1100 050/05 RMK AO2
94908KDBQ DBQ20070307151009603/07/07 15:10:31  5-MIN KDBQ 072110Z 05005KT 10SM CLR M03/M09 A3032 710 63 -1200 050/05 RMK AO2
94908KDBQ DBQ20070307151509603/07/07 15:15:31  5-MIN KDBQ 072115Z 06003KT 10SM CLR M03/M09 A3032 710 63 -1200 060/03 RMK AO2
94908KDBQ DBQ20070307152009603/07/07 15:20:31  5-MIN KDBQ 072120Z 07005KT 10SM CLR M03/M09 A3032 710 63 -1200 070/05 RMK AO2
94908KDBQ DBQ20070307152509603/07/07 15:25:31  5-MIN KDBQ 072125Z 07004KT 10SM CLR M03/M09 A3032 710 63 -1200 070/04 RMK AO2
94908KDBQ DBQ20070307153009603/07/07 15:30:31  5-MIN KDBQ 072130Z 06004KT 10SM CLR M02/M08 A3032 710 63 -1100 050/04 RMK AO2
94908KDBQ DBQ20070307153509603/07/07 15:35:31  5-MIN KDBQ 072135Z 06003KT 10SM CLR M02/M09 A3032 710 60 -1100 060/03 RMK AO2
94908KDBQ DBQ20070307154009603/07/07 15:40:31  5-MIN KDBQ 072140Z 05005KT 10SM CLR M02/M09 A3032 710 60 -1100 040/05 RMK AO2
94908KDBQ DBQ20070307154509603/07/07 15:45:31  5-MIN KDBQ 072145Z 04003KT 10SM CLR M02/M09 A3032 710 60 -1100 040/03 RMK AO2
94908KDBQ DBQ20070307155011303/07/07 15:50:31  5-MIN KDBQ 072150Z 04004KT 10SM CLR M02/M09 A3032 710 60 -1100 040/04 RMK AO2 SLP284 T10221089
94908KDBQ DBQ20070307155511303/07/07 15:55:31  5-MIN KDBQ 072155Z VRB04KT 10SM CLR M02/M08 A3032 710 63 -1100 VRB/04 RMK AO2 SLP284 T10221083
94908KDBQ DBQ20070307160009603/07/07 16:00:31  5-MIN KDBQ 072200Z 04005KT 10SM CLR M02/M09 A3032 710 60 -1100 040/05 RMK AO2
94908KDBQ DBQ20070307160509603/07/07 16:05:31  5-MIN KDBQ 072205Z 00000KT 10SM CLR M02/M09 A3032 710 60 -1100 000/00 RMK AO2
94908KDBQ DBQ20070307161009603/07/07 16:10:31  5-MIN KDBQ 072210Z 00000KT 10SM CLR M02/M09 A3032 710 60 -1100 000/00 RMK AO2
94908KDBQ DBQ20070307161509603/07/07 16:15:31  5-MIN KDBQ 072215Z 00000KT 10SM CLR M02/M09 A3032 710 60 -1100 000/00 RMK AO2
94908KDBQ DBQ20070307162009603/07/07 16:20:31  5-MIN KDBQ 072220Z 00000KT 10SM CLR M02/M09 A3032 710 60 -1100 000/00 RMK AO2
94908KDBQ DBQ20070307162509603/07/07 16:25:31  5-MIN KDBQ 072225Z 00000KT 10SM CLR M03/M09 A3032 710 63 -1200 000/00 RMK AO2
94908KDBQ DBQ20070307163009603/07/07 16:30:31  5-MIN KDBQ 072230Z 05004KT 10SM CLR M02/M09 A3032 710 60 -1100 050/04 RMK AO2
94908KDBQ DBQ20070307163509603/07/07 16:35:31  5-MIN KDBQ 072235Z 00000KT 10SM CLR M02/M09 A3032 710 60 -1100 000/00 RMK AO2
94908KDBQ DBQ20070307164009603/07/07 16:40:31  5-MIN KDBQ 072240Z 00000KT 10SM CLR M02/M08 A3032 710 63 -1100 000/00 RMK AO2
94908KDBQ DBQ20070307164509603/07/07 16:45:31  5-MIN KDBQ 072245Z 00000KT 10SM CLR M03/M09 A3032 710 63 -1200 000/00 RMK AO2
94908KDBQ DBQ20070307165011303/07/07 16:50:31  5-MIN KDBQ 072250Z 00000KT 10SM CLR M03/M09 A3032 710 63 -1200 000/00 RMK AO2 SLP285 T10281089
94908KDBQ DBQ20070307165511303/07/07 16:55:31  5-MIN KDBQ 072255Z 00000KT 10SM CLR M03/M08 A3032 710 66 -1200 000/00 RMK AO2 SLP285 T10281083
94908KDBQ DBQ20070307170009603/07/07 17:00:31  5-MIN KDBQ 072300Z 17003KT 10SM CLR M03/M08 A3032 710 66 -1200 170/03 RMK AO2
94908KDBQ DBQ20070307170509603/07/07 17:05:31  5-MIN KDBQ 072305Z 17003KT 10SM CLR M03/M09 A3032 710 63 -1200 170/03 RMK AO2
94908KDBQ DBQ20070307171009603/07/07 17:10:31  5-MIN KDBQ 072310Z 00000KT 10SM CLR M03/M09 A3032 710 65 -1300 000/00 RMK AO2
94908KDBQ DBQ20070307171509603/07/07 17:15:31  5-MIN KDBQ 072315Z 00000KT 10SM CLR M03/M09 A3032 710 65 -1300 000/00 RMK AO2
94908KDBQ DBQ20070307172009603/07/07 17:20:31  5-MIN KDBQ 072320Z 00000KT 10SM CLR M03/M09 A3032 710 65 -1300 000/00 RMK AO2
94908KDBQ DBQ20070307172509603/07/07 17:25:31  5-MIN KDBQ 072325Z 00000KT 10SM CLR M03/M09 A3032 710 65 -1300 000/00 RMK AO2
94908KDBQ DBQ20070307173009603/07/07 17:30:31  5-MIN KDBQ 072330Z 18003KT 10SM CLR M03/M09 A3032 710 65 -1300 170/03 RMK AO2
94908KDBQ DBQ20070307173509603/07/07 17:35:31  5-MIN KDBQ 072335Z 19003KT 10SM CLR M03/M08 A3032 710 68 -1300 190/03 RMK AO2
94908KDBQ DBQ20070307174009603/07/07 17:40:31  5-MIN KDBQ 072340Z 00000KT 10SM CLR M03/M08 A3032 710 68 -1300 000/00 RMK AO2
94908KDBQ DBQ20070307174509603/07/07 17:45:31  5-MIN KDBQ 072345Z 00000KT 10SM CLR M04/M08 A3032 710 71 -1400 000/00 RMK AO2
94908KDBQ DBQ20070307175013103/07/07 17:50:31  5-MIN KDBQ 072350Z 00000KT 10SM CLR M03/M08 A3032 710 68 -1300 000/00 RMK AO2 SLP284 T10331083 11022 21050 55004
94908KDBQ DBQ20070307175513103/07/07 17:55:31  5-MIN KDBQ 072355Z 00000KT 10SM CLR M04/M08 A3032 710 71 -1400 000/00 RMK AO2 SLP285 T10391083 11022 21050 56002
94908KDBQ DBQ20070307180009603/07/07 18:00:31  5-MIN KDBQ 080000Z 00000KT 10SM CLR M04/M09 A3032 710 68 -1400 000/00 RMK AO2
94908KDBQ DBQ20070307180509603/07/07 18:05:31  5-MIN KDBQ 080005Z 19003KT 10SM CLR M04/M09 A3032 710 68 -1300 190/03 RMK AO2
94908KDBQ DBQ20070307181009603/07/07 18:10:31  5-MIN KDBQ 080010Z 19003KT 10SM CLR M04/M09 A3032 710 68 -1300 190/03 RMK AO2
94908KDBQ DBQ20070307181509603/07/07 18:15:31  5-MIN KDBQ 080015Z 19003KT 10SM CLR M04/M09 A3031 720 71 -1400 190/03 RMK AO2
94908KDBQ DBQ20070307182009603/07/07 18:20:31  5-MIN KDBQ 080020Z 19003KT 10SM CLR M04/M09 A3031 720 71 -1400 190/03 RMK AO2
94908KDBQ DBQ20070307182509603/07/07 18:25:31  5-MIN KDBQ 080025Z 00000KT 10SM CLR M04/M09 A3031 720 71 -1400 000/00 RMK AO2
94908KDBQ DBQ20070307183009603/07/07 18:30:31  5-MIN KDBQ 080030Z 20003KT 10SM CLR M05/M09 A3031 720 74 -1500 200/03 RMK AO2
94908KDBQ DBQ20070307183509603/07/07 18:35:31  5-MIN KDBQ 080035Z 21004KT 10SM CLR M05/M09 A3031 720 71 -1500 210/04 RMK AO2
94908KDBQ DBQ20070307184009603/07/07 18:40:31  5-MIN KDBQ 080040Z 22004KT 10SM CLR M05/M09 A3031 720 71 -1500 220/04 RMK AO2
94908KDBQ DBQ20070307184509603/07/07 18:45:31  5-MIN KDBQ 080045Z 23004KT 10SM CLR M05/M09 A3030 730 74 -1500 230/04 RMK AO2
94908KDBQ DBQ20070307185011303/07/07 18:50:31  5-MIN KDBQ 080050Z 23003KT 10SM CLR M05/M09 A3030 730 74 -1500 230/03 RMK AO2 SLP279 T10501089
94908KDBQ DBQ20070307185511303/07/07 18:55:31  5-MIN KDBQ 080055Z 00000KT 10SM CLR M05/M09 A3030 720 74 -1500 000/00 RMK AO2 SLP280 T10501089
94908KDBQ DBQ20070307190009603/07/07 19:00:31  5-MIN KDBQ 080100Z 23003KT 10SM CLR M06/M09 A3030 730 77 -1500 230/03 RMK AO2
94908KDBQ DBQ20070307190509503/07/07 19:05:31  5-MIN KDBQ 080105Z 00000KT 9SM CLR M06/M09 A3030 720 77 -1500 000/00 RMK AO2
94908KDBQ DBQ20070307191009503/07/07 19:10:31  5-MIN KDBQ 080110Z 00000KT 9SM CLR M06/M09 A3031 720 77 -1600 000/00 RMK AO2
94908KDBQ DBQ20070307191509503/07/07 19:15:31  5-MIN KDBQ 080115Z 00000KT 9SM CLR M06/M09 A3031 720 77 -1600 000/00 RMK AO2
94908KDBQ DBQ20070307192009503/07/07 19:20:31  5-MIN KDBQ 080120Z 00000KT 8SM CLR M06/M09 A3031 720 77 -1600 000/00 RMK AO2
94908KDBQ DBQ20070307192509503/07/07 19:25:31  5-MIN KDBQ 080125Z 00000KT 8SM CLR M06/M09 A3031 720 77 -1600 000/00 RMK AO2
94908KDBQ DBQ20070307193009503/07/07 19:30:31  5-MIN KDBQ 080130Z 00000KT 8SM CLR M06/M09 A3032 710 77 -1600 000/00 RMK AO2
94908KDBQ DBQ20070307193509503/07/07 19:35:31  5-MIN KDBQ 080135Z 00000KT 8SM CLR M06/M09 A3032 710 77 -1600 000/00 RMK AO2
94908KDBQ DBQ20070307194009503/07/07 19:40:31  5-MIN KDBQ 080140Z 00000KT 8SM CLR M06/M09 A3032 710 77 -1600 000/00 RMK AO2
94908KDBQ DBQ20070307194510503/07/07 19:45:31  5-MIN KDBQ 080145Z AUTO 00000KT 8SM CLR M06/M09 A3032 710 77 -1600 000/00 RMK AO2 TSNO
94908KDBQ DBQ20070307195012203/07/07 19:50:31  5-MIN KDBQ 080150Z AUTO 00000KT 8SM CLR M06/M09 A3032 710 77 -1600 000/00 RMK AO2 SLP286 T10611094 TSNO
94908KDBQ DBQ20070307195512203/07/07 19:55:31  5-MIN KDBQ 080155Z AUTO 00000KT 8SM CLR M06/M09 A3032 710 77 -1600 000/00 RMK AO2 SLP285 T10611094 TSNO
94908KDBQ DBQ20070307200010503/07/07 20:00:31  5-MIN KDBQ 080200Z AUTO 00000KT 8SM CLR M06/M09 A3032 710 77 -1600 000/00 RMK AO2 TSNO
94908KDBQ DBQ20070307200510503/07/07 20:05:31  5-MIN KDBQ 080205Z AUTO 00000KT 8SM CLR M06/M09 A3032 710 74 -1600 000/00 RMK AO2 TSNO
94908KDBQ DBQ20070307201010503/07/07 20:10:31  5-MIN KDBQ 080210Z AUTO 00000KT 8SM CLR M07/M09 A3032 710 81 -1700 000/00 RMK AO2 TSNO
94908KDBQ DBQ20070307201510503/07/07 20:15:31  5-MIN KDBQ 080215Z AUTO 00000KT 7SM CLR M07/M09 A3032 710 81 -1700 000/00 RMK AO2 TSNO
94908KDBQ DBQ20070307202010503/07/07 20:20:31  5-MIN KDBQ 080220Z AUTO 00000KT 7SM CLR M07/M09 A3032 710 81 -1700 000/00 RMK AO2 TSNO
94908KDBQ DBQ20070307202510503/07/07 20:25:31  5-MIN KDBQ 080225Z AUTO 00000KT 7SM CLR M07/M09 A3031 720 81 -1700 000/00 RMK AO2 TSNO
94908KDBQ DBQ20070307203010503/07/07 20:30:31  5-MIN KDBQ 080230Z AUTO 00000KT 7SM CLR M07/M09 A3031 720 84 -1800 000/00 RMK AO2 TSNO
94908KDBQ DBQ20070307203510503/07/07 20:35:31  5-MIN KDBQ 080235Z AUTO 00000KT 7SM CLR M07/M09 A3032 710 84 -1800 000/00 RMK AO2 TSNO
94908KDBQ DBQ20070307204010503/07/07 20:40:31  5-MIN KDBQ 080240Z AUTO 00000KT 7SM CLR M07/M10 A3032 710 77 -1700 000/00 RMK AO2 TSNO
94908KDBQ DBQ20070307204510503/07/07 20:45:31  5-MIN KDBQ 080245Z AUTO 00000KT 8SM CLR M07/M10 A3032 710 77 -1700 000/00 RMK AO2 TSNO
94908KDBQ DBQ20070307205012803/07/07 20:50:31  5-MIN KDBQ 080250Z AUTO 00000KT 8SM CLR M07/M09 A3031 720 81 -1700 000/00 RMK AO2 SLP284 T10671094 56002 TSNO
94908KDBQ DBQ20070307205512803/07/07 20:55:31  5-MIN KDBQ 080255Z AUTO 00000KT 8SM CLR M07/M10 A3031 720 81 -1800 000/00 RMK AO2 SLP284 T10721100 56002 TSNO
94908KDBQ DBQ20070307210010503/07/07 21:00:31  5-MIN KDBQ 080300Z AUTO 00000KT 7SM CLR M07/M10 A3031 720 81 -1800 000/00 RMK AO2 TSNO
94908KDBQ DBQ20070307210510503/07/07 21:05:31  5-MIN KDBQ 080305Z AUTO 00000KT 8SM CLR M07/M11 A3031 720 77 -1800 000/00 RMK AO2 TSNO
94908KDBQ DBQ20070307211010503/07/07 21:10:31  5-MIN KDBQ 080310Z AUTO 00000KT 7SM CLR M08/M11 A3031 720 80 -1800 000/00 RMK AO2 TSNO
94908KDBQ DBQ20070307211510803/07/07 21:15:31  5-MIN KDBQ 080315Z AUTO 00000KT 6SM BR CLR M08/M10 A3031 720 84 -1800 000/00 RMK AO2 TSNO
94908KDBQ DBQ20070307212010803/07/07 21:20:31  5-MIN KDBQ 080320Z AUTO 00000KT 6SM BR CLR M08/M11 A3032 710 84 -1900 000/00 RMK AO2 TSNO
94908KDBQ DBQ20070307212510803/07/07 21:25:31  5-MIN KDBQ 080325Z AUTO 00000KT 6SM HZ CLR M08/M11 A3032 710 80 -1900 000/00 RMK AO2 TSNO
94908KDBQ DBQ20070307213010803/07/07 21:30:31  5-MIN KDBQ 080330Z AUTO 00000KT 6SM BR CLR M09/M11 A3032 710 84 -2000 000/00 RMK AO2 TSNO
94908KDBQ DBQ20070307213510803/07/07 21:35:31  5-MIN KDBQ 080335Z AUTO 00000KT 6SM HZ CLR M08/M11 A3032 710 80 -1900 000/00 RMK AO2 TSNO
94908KDBQ DBQ20070307214010803/07/07 21:40:31  5-MIN KDBQ 080340Z AUTO 00000KT 6SM HZ CLR M08/M11 A3032 710 80 -1900 000/00 RMK AO2 TSNO
94908KDBQ DBQ20070307214510803/07/07 21:45:31  5-MIN KDBQ 080345Z AUTO 00000KT 6SM BR CLR M08/M11 A3032 710 84 -1900 000/00 RMK AO2 TSNO
94908KDBQ DBQ20070307215012503/07/07 21:50:31  5-MIN KDBQ 080350Z AUTO 00000KT 6SM BR CLR M08/M11 A3032 720 84 -1900 000/00 RMK AO2 SLP285 T10831106 TSNO
94908KDBQ DBQ20070307215512503/07/07 21:55:31  5-MIN KDBQ 080355Z AUTO 00000KT 6SM HZ CLR M08/M11 A3031 720 80 -1800 000/00 RMK AO2 SLP284 T10781106 TSNO
94908KDBQ DBQ20070307220010803/07/07 22:00:31  5-MIN KDBQ 080400Z AUTO 00000KT 6SM HZ CLR M08/M11 A3031 720 80 -1900 000/00 RMK AO2 TSNO
94908KDBQ DBQ20070307220510803/07/07 22:05:31  5-MIN KDBQ 080405Z AUTO 00000KT 6SM HZ CLR M08/M11 A3031 720 80 -1900 000/00 RMK AO2 TSNO
94908KDBQ DBQ20070307221010803/07/07 22:10:31  5-MIN KDBQ 080410Z AUTO 00000KT 6SM HZ CLR M08/M11 A3031 720 80 -1900 000/00 RMK AO2 TSNO
94908KDBQ DBQ20070307221510803/07/07 22:15:31  5-MIN KDBQ 080415Z AUTO 00000KT 6SM HZ CLR M08/M11 A3031 720 80 -1900 000/00 RMK AO2 TSNO
94908KDBQ DBQ20070307222010803/07/07 22:20:31  5-MIN KDBQ 080420Z AUTO 00000KT 6SM BR CLR M09/M11 A3031 720 84 -2000 000/00 RMK AO2 TSNO
94908KDBQ DBQ20070307222510803/07/07 22:25:31  5-MIN KDBQ 080425Z AUTO 00000KT 6SM HZ CLR M08/M11 A3031 720 80 -1900 000/00 RMK AO2 TSNO
94908KDBQ DBQ20070307223010803/07/07 22:30:31  5-MIN KDBQ 080430Z AUTO 00000KT 6SM BR CLR M09/M11 A3030 730 84 -2000 000/00 RMK AO2 TSNO
94908KDBQ DBQ20070307223510803/07/07 22:35:31  5-MIN KDBQ 080435Z AUTO 00000KT 6SM BR CLR M09/M11 A3030 730 84 -2000 000/00 RMK AO2 TSNO
94908KDBQ DBQ20070307224010803/07/07 22:40:31  5-MIN KDBQ 080440Z AUTO 00000KT 6SM BR CLR M09/M11 A3030 730 84 -2000 000/00 RMK AO2 TSNO
94908KDBQ DBQ20070307224510803/07/07 22:45:31  5-MIN KDBQ 080445Z AUTO 00000KT 6SM BR CLR M09/M11 A3030 730 84 -2000 000/00 RMK AO2 TSNO
94908KDBQ DBQ20070307225012503/07/07 22:50:31  5-MIN KDBQ 080450Z AUTO 00000KT 5SM BR CLR M09/M11 A3030 730 84 -2000 000/00 RMK AO2 SLP279 T10891111 TSNO
94908KDBQ DBQ20070307225512503/07/07 22:55:31  5-MIN KDBQ 080455Z AUTO 14003KT 5SM BR CLR M09/M11 A3029 740 84 -2000 140/03 RMK AO2 SLP278 T10891111 TSNO
94908KDBQ DBQ20070307230010803/07/07 23:00:31  5-MIN KDBQ 080500Z AUTO 00000KT 5SM HZ CLR M09/M12 A3029 740 80 -2000 000/00 RMK AO2 TSNO
94908KDBQ DBQ20070307230510803/07/07 23:05:31  5-MIN KDBQ 080505Z AUTO 00000KT 5SM HZ CLR M09/M12 A3029 740 80 -2000 000/00 RMK AO2 TSNO
94908KDBQ DBQ20070307231010803/07/07 23:10:31  5-MIN KDBQ 080510Z AUTO 17003KT 5SM BR CLR M09/M12 A3029 740 84 -2000 160/03 RMK AO2 TSNO
94908KDBQ DBQ20070307231510803/07/07 23:15:31  5-MIN KDBQ 080515Z AUTO 17003KT 5SM BR CLR M09/M12 A3029 740 84 -2000 170/03 RMK AO2 TSNO
94908KDBQ DBQ20070307232010803/07/07 23:20:31  5-MIN KDBQ 080520Z AUTO 18003KT 6SM BR CLR M09/M12 A3029 740 84 -2000 180/03 RMK AO2 TSNO
94908KDBQ DBQ20070307232510803/07/07 23:25:31  5-MIN KDBQ 080525Z AUTO 00000KT 6SM BR CLR M09/M12 A3029 740 84 -2000 000/00 RMK AO2 TSNO
94908KDBQ DBQ20070307233010803/07/07 23:30:31  5-MIN KDBQ 080530Z AUTO 00000KT 6SM HZ CLR M09/M12 A3029 740 80 -2000 000/00 RMK AO2 TSNO
94908KDBQ DBQ20070307233510803/07/07 23:35:31  5-MIN KDBQ 080535Z AUTO 00000KT 5SM BR CLR M09/M11 A3029 740 84 -2000 000/00 RMK AO2 TSNO
94908KDBQ DBQ20070307234010803/07/07 23:40:31  5-MIN KDBQ 080540Z AUTO 00000KT 5SM BR CLR M09/M11 A3029 740 84 -2000 000/00 RMK AO2 TSNO
94908KDBQ DBQ20070307234510803/07/07 23:45:31  5-MIN KDBQ 080545Z AUTO 00000KT 5SM BR CLR M09/M11 A3029 740 84 -2000 000/00 RMK AO2 TSNO
94908KDBQ DBQ20070307235015303/07/07 23:50:31  5-MIN KDBQ 080550Z AUTO 00000KT 5SM HZ CLR M08/M11 A3029 740 80 -1900 000/00 RMK AO2 SLP276 T10831111 11039 21094 410221094 56002 TSNO
94908KDBQ DBQ20070307235515303/07/07 23:55:31  5-MIN KDBQ 080555Z AUTO 00000KT 5SM HZ CLR M08/M11 A3029 740 80 -1900 000/00 RMK AO2 SLP276 T10831111 11039 21094 410221094 58008 TSNO
94908KDBQ DBQ20070308000010803/08/07 00:00:38  5-MIN KDBQ 080600Z AUTO 00000KT 5SM HZ CLR M08/M11 A3029 740 80 -1900 000/00 RMK AO2 TSNO
94908KDBQ DBQ20070308000510803/08/07 00:05:31  5-MIN KDBQ 080605Z AUTO 00000KT 5SM HZ CLR M08/M11 A3029 740 80 -1900 000/00 RMK AO2 TSNO
94908KDBQ DBQ20070308001010803/08/07 00:10:31  5-MIN KDBQ 080610Z AUTO 00000KT 5SM HZ CLR M08/M11 A3029 740 80 -1900 000/00 RMK AO2 TSNO
94908KDBQ DBQ20070308001510803/08/07 00:15:32  5-MIN KDBQ 080615Z AUTO 20003KT 5SM HZ CLR M08/M11 A3029 740 80 -1900 200/03 RMK AO2 TSNO
94908KDBQ DBQ20070308002010803/08/07 00:20:31  5-MIN KDBQ 080620Z AUTO 19004KT 5SM BR CLR M09/M11 A3028 740 84 -2000 190/04 RMK AO2 TSNO
94908KDBQ DBQ20070308002510803/08/07 00:25:31  5-MIN KDBQ 080625Z AUTO 19004KT 5SM BR CLR M09/M11 A3028 750 88 -2000 190/04 RMK AO2 TSNO
94908KDBQ DBQ20070308003010803/08/07 00:30:31  5-MIN KDBQ 080630Z AUTO 20003KT 5SM HZ CLR M09/M12 A3028 750 80 -2000 200/03 RMK AO2 TSNO
94908KDBQ DBQ20070308003510803/08/07 00:35:31  5-MIN KDBQ 080635Z AUTO 20003KT 6SM BR CLR M09/M12 A3028 750 84 -2000 200/03 RMK AO2 TSNO
94908KDBQ DBQ20070308004010803/08/07 00:40:31  5-MIN KDBQ 080640Z AUTO 20003KT 6SM HZ CLR M09/M12 A3028 750 80 -2000 200/03 RMK AO2 TSNO
94908KDBQ DBQ20070308004510503/08/07 00:45:31  5-MIN KDBQ 080645Z AUTO 00000KT 7SM CLR M09/M12 A3028 740 80 -2000 000/00 RMK AO2 TSNO
94908KDBQ DBQ20070308005012203/08/07 00:50:31  5-MIN KDBQ 080650Z AUTO 00000KT 7SM CLR M09/M12 A3029 740 80 -2000 000/00 RMK AO2 SLP276 T10891117 TSNO
94908KDBQ DBQ20070308005512203/08/07 00:55:31  5-MIN KDBQ 080655Z AUTO 00000KT 7SM CLR M09/M12 A3028 740 80 -2000 000/00 RMK AO2 SLP275 T10891117 TSNO
94908KDBQ DBQ20070308010010503/08/07 01:00:31  5-MIN KDBQ 080700Z AUTO 00000KT 7SM CLR M09/M12 A3028 740 80 -2000 000/00 RMK AO2 TSNO
94908KDBQ DBQ20070308010510503/08/07 01:05:31  5-MIN KDBQ 080705Z AUTO 00000KT 7SM CLR M08/M11 A3028 750 80 -1900 000/00 RMK AO2 TSNO
94908KDBQ DBQ20070308011010803/08/07 01:10:31  5-MIN KDBQ 080710Z AUTO 00000KT 7SM FEW020 M08/M11 A3029 740 80 -1900 000/00 RMK AO2 TSNO
94908KDBQ DBQ20070308011510803/08/07 01:15:31  5-MIN KDBQ 080715Z AUTO 00000KT 7SM SCT020 M09/M11 A3029 740 84 -2000 000/00 RMK AO2 TSNO
94908KDBQ DBQ20070308012011103/08/07 01:20:31  5-MIN KDBQ 080720Z AUTO 00000KT 6SM BR BKN020 M09/M11 A3029 740 84 -2000 000/00 RMK AO2 TSNO
94908KDBQ DBQ20070308012511103/08/07 01:25:31  5-MIN KDBQ 080725Z AUTO 00000KT 5SM BR BKN020 M09/M11 A3028 740 84 -2000 000/00 RMK AO2 TSNO
94908KDBQ DBQ20070308013011103/08/07 01:30:31  5-MIN KDBQ 080730Z AUTO 00000KT 5SM BR BKN020 M09/M11 A3028 740 84 -2000 000/00 RMK AO2 TSNO
94908KDBQ DBQ20070308013511103/08/07 01:35:31  5-MIN KDBQ 080735Z AUTO 00000KT 5SM BR OVC020 M08/M11 A3028 740 84 -1900 000/00 RMK AO2 TSNO
94908KDBQ DBQ20070308014011103/08/07 01:40:31  5-MIN KDBQ 080740Z AUTO 00000KT 6SM BR OVC020 M08/M11 A3028 750 84 -1900 000/00 RMK AO2 TSNO
94908KDBQ DBQ20070308014511103/08/07 01:45:31  5-MIN KDBQ 080745Z AUTO 00000KT 6SM BR OVC020 M08/M11 A3028 750 84 -1900 000/00 RMK AO2 TSNO
94908KDBQ DBQ20070308015012803/08/07 01:50:31  5-MIN KDBQ 080750Z AUTO 00000KT 6SM BR OVC020 M08/M11 A3028 750 84 -1900 000/00 RMK AO2 SLP271 T10831106 TSNO
94908KDBQ DBQ20070308015512803/08/07 01:55:31  5-MIN KDBQ 080755Z AUTO 00000KT 6SM BR OVC020 M08/M10 A3028 750 84 -1800 000/00 RMK AO2 SLP272 T10781100 TSNO
94908KDBQ DBQ20070308020011103/08/07 02:00:31  5-MIN KDBQ 080800Z AUTO 00000KT 6SM BR OVC018 M08/M10 A3028 750 88 -1900 000/00 RMK AO2 TSNO
94908KDBQ DBQ20070308020511103/08/07 02:05:31  5-MIN KDBQ 080805Z AUTO 00000KT 6SM BR OVC018 M08/M10 A3028 750 88 -1900 000/00 RMK AO2 TSNO
94908KDBQ DBQ20070308021011103/08/07 02:10:31  5-MIN KDBQ 080810Z AUTO 00000KT 6SM BR OVC018 M08/M10 A3027 750 84 -1800 000/00 RMK AO2 TSNO
94908KDBQ DBQ20070308021511103/08/07 02:15:31  5-MIN KDBQ 080815Z AUTO 18003KT 6SM BR OVC018 M08/M10 A3027 760 84 -1800 180/03 RMK AO2 TSNO
94908KDBQ DBQ20070308022010803/08/07 02:20:31  5-MIN KDBQ 080820Z AUTO 19003KT 7SM OVC018 M07/M10 A3027 760 81 -1700 190/03 RMK AO2 TSNO
94908KDBQ DBQ20070308022510803/08/07 02:25:31  5-MIN KDBQ 080825Z AUTO 00000KT 7SM OVC018 M07/M10 A3027 760 81 -1700 000/00 RMK AO2 TSNO
94908KDBQ DBQ20070308023010803/08/07 02:30:31  5-MIN KDBQ 080830Z AUTO 00000KT 7SM OVC018 M07/M09 A3027 760 84 -1700 000/00 RMK AO2 TSNO
94908KDBQ DBQ20070308023510803/08/07 02:35:31  5-MIN KDBQ 080835Z AUTO 00000KT 7SM OVC016 M07/M09 A3026 760 84 -1700 000/00 RMK AO2 TSNO
94908KDBQ DBQ20070308024010803/08/07 02:40:31  5-MIN KDBQ 080840Z AUTO 17003KT 7SM OVC016 M07/M09 A3026 770 81 -1600 170/03 RMK AO2 TSNO
94908KDBQ DBQ20070308024510803/08/07 02:45:31  5-MIN KDBQ 080845Z AUTO 17004KT 7SM OVC016 M07/M09 A3026 760 81 -1600 170/04 RMK AO2 TSNO
94908KDBQ DBQ20070308025013103/08/07 02:50:31  5-MIN KDBQ 080850Z AUTO 17003KT 7SM OVC016 M07/M09 A3026 760 81 -1600 170/03 RMK AO2 SLP264 T10671094 58008 TSNO
94908KDBQ DBQ20070308025513103/08/07 02:55:31  5-MIN KDBQ 080855Z AUTO 19003KT 7SM OVC016 M06/M09 A3026 760 81 -1600 190/03 RMK AO2 SLP264 T10611089 58009 TSNO
94908KDBQ DBQ20070308030010803/08/07 03:00:31  5-MIN KDBQ 080900Z AUTO 17004KT 7SM OVC016 M06/M09 A3026 770 81 -1600 170/04 RMK AO2 TSNO
94908KDBQ DBQ20070308030510803/08/07 03:05:31  5-MIN KDBQ 080905Z AUTO 17005KT 7SM OVC016 M06/M09 A3026 770 81 -1600 170/05 RMK AO2 TSNO
94908KDBQ DBQ20070308031010803/08/07 03:10:31  5-MIN KDBQ 080910Z AUTO 18004KT 7SM OVC016 M06/M09 A3026 770 81 -1600 180/04 RMK AO2 TSNO
94908KDBQ DBQ20070308031510803/08/07 03:15:31  5-MIN KDBQ 080915Z AUTO 18004KT 7SM OVC016 M06/M09 A3025 770 81 -1600 180/04 RMK AO2 TSNO
94908KDBQ DBQ20070308032010803/08/07 03:20:31  5-MIN KDBQ 080920Z AUTO 16005KT 7SM OVC016 M06/M09 A3025 770 81 -1600 160/05 RMK AO2 TSNO
94908KDBQ DBQ20070308032510803/08/07 03:25:31  5-MIN KDBQ 080925Z AUTO 20003KT 7SM OVC016 M06/M09 A3025 780 81 -1600 200/03 RMK AO2 TSNO
94908KDBQ DBQ20070308033010803/08/07 03:30:31  5-MIN KDBQ 080930Z AUTO 19004KT 7SM OVC016 M06/M09 A3025 780 81 -1600 190/04 RMK AO2 TSNO
94908KDBQ DBQ20070308033510803/08/07 03:35:31  5-MIN KDBQ 080935Z AUTO 19004KT 7SM OVC016 M06/M08 A3025 780 84 -1600 190/04 RMK AO2 TSNO
94908KDBQ DBQ20070308034010803/08/07 03:40:31  5-MIN KDBQ 080940Z AUTO 20004KT 7SM OVC016 M06/M08 A3024 780 84 -1600 200/04 RMK AO2 TSNO
94908KDBQ DBQ20070308034511103/08/07 03:45:31  5-MIN KDBQ 080945Z AUTO 17004KT 6SM BR OVC016 M06/M08 A3025 780 84 -1600 170/04 RMK AO2 TSNO
94908KDBQ DBQ20070308035012803/08/07 03:50:31  5-MIN KDBQ 080950Z AUTO 20004KT 6SM BR OVC016 M06/M08 A3025 780 84 -1600 190/04 RMK AO2 SLP259 T10611083 TSNO
94908KDBQ DBQ20070308035512803/08/07 03:55:31  5-MIN KDBQ 080955Z AUTO 19003KT 6SM BR OVC016 M06/M08 A3025 780 84 -1600 180/03 RMK AO2 SLP259 T10611083 TSNO
94908KDBQ DBQ20070308040011103/08/07 04:00:31  5-MIN KDBQ 081000Z AUTO 21003KT 6SM BR OVC016 M06/M08 A3025 780 84 -1600 210/03 RMK AO2 TSNO
94908KDBQ DBQ20070308040511103/08/07 04:05:31  5-MIN KDBQ 081005Z AUTO 00000KT 6SM BR OVC014 M06/M08 A3025 780 84 -1600 000/00 RMK AO2 TSNO
94908KDBQ DBQ20070308041011103/08/07 04:10:31  5-MIN KDBQ 081010Z AUTO 00000KT 6SM BR OVC014 M06/M08 A3025 780 84 -1600 000/00 RMK AO2 TSNO
94908KDBQ DBQ20070308041511103/08/07 04:15:31  5-MIN KDBQ 081015Z AUTO 00000KT 6SM BR OVC014 M06/M08 A3025 780 84 -1600 000/00 RMK AO2 TSNO
94908KDBQ DBQ20070308042011103/08/07 04:20:31  5-MIN KDBQ 081020Z AUTO 00000KT 6SM HZ OVC014 M06/M08 A3025 780 81 -1500 000/00 RMK AO2 TSNO
94908KDBQ DBQ20070308042511103/08/07 04:25:31  5-MIN KDBQ 081025Z AUTO 00000KT 6SM HZ OVC014 M06/M08 A3025 780 81 -1500 000/00 RMK AO2 TSNO
94908KDBQ DBQ20070308043011103/08/07 04:30:31  5-MIN KDBQ 081030Z AUTO 00000KT 6SM BR OVC014 M06/M08 A3025 770 84 -1600 000/00 RMK AO2 TSNO
94908KDBQ DBQ20070308043511103/08/07 04:35:31  5-MIN KDBQ 081035Z AUTO 00000KT 6SM BR OVC014 M06/M08 A3025 780 84 -1600 000/00 RMK AO2 TSNO
94908KDBQ DBQ20070308044011103/08/07 04:40:31  5-MIN KDBQ 081040Z AUTO 20003KT 6SM BR OVC014 M06/M08 A3025 780 84 -1600 200/03 RMK AO2 TSNO
94908KDBQ DBQ20070308044511103/08/07 04:45:31  5-MIN KDBQ 081045Z AUTO 20003KT 6SM BR OVC014 M06/M08 A3025 780 84 -1600 200/03 RMK AO2 TSNO
94908KDBQ DBQ20070308045012803/08/07 04:50:31  5-MIN KDBQ 081050Z AUTO 17004KT 6SM BR OVC014 M06/M08 A3025 780 84 -1600 170/04 RMK AO2 SLP259 T10611083 TSNO
94908KDBQ DBQ20070308045512803/08/07 04:55:31  5-MIN KDBQ 081055Z AUTO 00000KT 6SM BR OVC014 M06/M08 A3025 780 84 -1600 000/00 RMK AO2 SLP259 T10611083 TSNO
94908KDBQ DBQ20070308050011103/08/07 05:00:31  5-MIN KDBQ 081100Z AUTO 15003KT 6SM BR OVC014 M06/M08 A3025 780 84 -1600 150/03 RMK AO2 TSNO
94908KDBQ DBQ20070308050511103/08/07 05:05:31  5-MIN KDBQ 081105Z AUTO 16004KT 6SM HZ OVC014 M06/M09 A3025 780 81 -1600 160/04 RMK AO2 TSNO
94908KDBQ DBQ20070308051011103/08/07 05:10:31  5-MIN KDBQ 081110Z AUTO 18003KT 6SM BR OVC014 M06/M08 A3025 780 84 -1600 180/03 RMK AO2 TSNO
94908KDBQ DBQ20070308051511103/08/07 05:15:31  5-MIN KDBQ 081115Z AUTO 20003KT 6SM BR OVC014 M06/M08 A3025 780 84 -1600 200/03 RMK AO2 TSNO
94908KDBQ DBQ20070308052011103/08/07 05:20:31  5-MIN KDBQ 081120Z AUTO 00000KT 6SM BR OVC014 M06/M08 A3025 780 84 -1600 000/00 RMK AO2 TSNO
94908KDBQ DBQ20070308052511103/08/07 05:25:31  5-MIN KDBQ 081125Z AUTO 00000KT 6SM HZ OVC014 M06/M08 A3025 780 81 -1500 000/00 RMK AO2 TSNO
94908KDBQ DBQ20070308053011103/08/07 05:30:31  5-MIN KDBQ 081130Z AUTO 00000KT 6SM HZ OVC014 M06/M08 A3025 780 81 -1500 000/00 RMK AO2 TSNO
94908KDBQ DBQ20070308053511103/08/07 05:35:31  5-MIN KDBQ 081135Z AUTO 18003KT 6SM HZ OVC014 M06/M08 A3025 780 81 -1500 180/03 RMK AO2 TSNO
94908KDBQ DBQ20070308054011103/08/07 05:40:31  5-MIN KDBQ 081140Z AUTO 20003KT 6SM HZ OVC014 M06/M08 A3025 780 81 -1500 200/03 RMK AO2 TSNO
94908KDBQ DBQ20070308054511103/08/07 05:45:31  5-MIN KDBQ 081145Z AUTO 00000KT 6SM HZ OVC014 M06/M08 A3025 780 81 -1500 000/00 RMK AO2 TSNO
94908KDBQ DBQ20070308055014603/08/07 05:50:31  5-MIN KDBQ 081150Z AUTO 18003KT 6SM HZ OVC014 M06/M08 A3025 780 81 -1500 180/03 RMK AO2 SLP259 T10561083 11056 21094 58009 TSNO
94908KDBQ DBQ20070308055513603/08/07 05:55:31  5-MIN KDBQ 081155Z 17004KT 6SM HZ OVC014 M06/M08 A3025 780 81 -1500 160/04 RMK AO2 SLP259 T10561083 11056 21094 55004
94908KDBQ DBQ20070308060010103/08/07 06:00:31  5-MIN KDBQ 081200Z 17003KT 6SM HZ OVC014 M06/M08 A3025 780 81 -1500 170/03 RMK AO2
94908KDBQ DBQ20070308060510103/08/07 06:05:31  5-MIN KDBQ 081205Z 18004KT 6SM HZ OVC014 M06/M08 A3025 780 81 -1500 180/04 RMK AO2
94908KDBQ DBQ20070308061010103/08/07 06:10:31  5-MIN KDBQ 081210Z 17005KT 6SM HZ OVC014 M06/M08 A3025 780 81 -1500 170/05 RMK AO2
94908KDBQ DBQ20070308061510103/08/07 06:15:31  5-MIN KDBQ 081215Z 18004KT 6SM HZ OVC012 M06/M08 A3024 780 81 -1500 180/04 RMK AO2
94908KDBQ DBQ20070308062010103/08/07 06:20:31  5-MIN KDBQ 081220Z 18005KT 6SM HZ OVC012 M06/M08 A3025 780 81 -1500 180/05 RMK AO2
94908KDBQ DBQ20070308062510103/08/07 06:25:31  5-MIN KDBQ 081225Z 19004KT 6SM HZ OVC012 M06/M08 A3025 780 81 -1500 190/04 RMK AO2
94908KDBQ DBQ20070308063010103/08/07 06:30:31  5-MIN KDBQ 081230Z 18005KT 6SM HZ OVC012 M06/M08 A3025 780 81 -1500 180/05 RMK AO2
94908KDBQ DBQ20070308063510103/08/07 06:35:31  5-MIN KDBQ 081235Z 19004KT 6SM BR OVC012 M06/M08 A3025 780 84 -1500 190/04 RMK AO2
94908KDBQ DBQ20070308064010103/08/07 06:40:31  5-MIN KDBQ 081240Z 20003KT 5SM BR OVC012 M06/M08 A3025 780 84 -1500 200/03 RMK AO2
94908KDBQ DBQ20070308064510103/08/07 06:45:31  5-MIN KDBQ 081245Z 18003KT 4SM BR OVC012 M06/M08 A3025 780 84 -1500 180/03 RMK AO2
94908KDBQ DBQ20070308065011803/08/07 06:50:31  5-MIN KDBQ 081250Z 17004KT 4SM BR OVC012 M06/M08 A3025 780 84 -1500 170/04 RMK AO2 SLP260 T10561078
94908KDBQ DBQ20070308065511803/08/07 06:55:31  5-MIN KDBQ 081255Z 16006KT 4SM BR OVC012 M06/M08 A3025 780 84 -1500 160/06 RMK AO2 SLP260 T10561078
94908KDBQ DBQ20070308070010103/08/07 07:00:31  5-MIN KDBQ 081300Z 16006KT 4SM BR OVC012 M06/M08 A3025 780 84 -1500 160/06 RMK AO2
94908KDBQ DBQ20070308070510103/08/07 07:05:31  5-MIN KDBQ 081305Z 16006KT 4SM BR OVC012 M06/M08 A3025 770 84 -1500 160/06 RMK AO2
94908KDBQ DBQ20070308071010103/08/07 07:10:31  5-MIN KDBQ 081310Z 16006KT 4SM BR OVC012 M06/M08 A3025 770 84 -1500 160/06 RMK AO2
94908KDBQ DBQ20070308071510103/08/07 07:15:31  5-MIN KDBQ 081315Z 15007KT 4SM BR OVC012 M06/M08 A3025 780 84 -1500 150/07 RMK AO2
94908KDBQ DBQ20070308072010103/08/07 07:20:31  5-MIN KDBQ 081320Z 16007KT 4SM BR OVC012 M06/M08 A3025 780 84 -1500 160/07 RMK AO2
94908KDBQ DBQ20070308072510103/08/07 07:25:31  5-MIN KDBQ 081325Z 16007KT 4SM BR OVC012 M06/M08 A3025 780 84 -1500 160/07 RMK AO2
94908KDBQ DBQ20070308073010103/08/07 07:30:31  5-MIN KDBQ 081330Z 16007KT 4SM BR OVC012 M06/M08 A3024 780 84 -1500 160/07 RMK AO2
94908KDBQ DBQ20070308073510103/08/07 07:35:31  5-MIN KDBQ 081335Z 16007KT 4SM BR OVC012 M06/M08 A3024 780 84 -1500 160/07 RMK AO2
94908KDBQ DBQ20070308074010103/08/07 07:40:31  5-MIN KDBQ 081340Z 17007KT 4SM BR OVC012 M06/M08 A3024 780 84 -1500 160/07 RMK AO2
94908KDBQ DBQ20070308074510103/08/07 07:45:31  5-MIN KDBQ 081345Z 17008KT 4SM BR OVC012 M06/M08 A3025 780 84 -1500 170/08 RMK AO2
94908KDBQ DBQ20070308075011803/08/07 07:50:31  5-MIN KDBQ 081350Z 17007KT 4SM BR OVC012 M06/M08 A3025 780 84 -1500 170/07 RMK AO2 SLP261 T10561078
94908KDBQ DBQ20070308075511803/08/07 07:55:31  5-MIN KDBQ 081355Z 17008KT 4SM BR OVC012 M06/M08 A3024 780 84 -1500 170/08 RMK AO2 SLP260 T10561078
94908KDBQ DBQ20070308080010103/08/07 08:00:31  5-MIN KDBQ 081400Z 18007KT 4SM BR OVC012 M06/M07 A3024 780 88 -1500 170/07 RMK AO2
94908KDBQ DBQ20070308080510103/08/07 08:05:31  5-MIN KDBQ 081405Z 18009KT 4SM BR OVC012 M05/M07 A3024 790 84 -1400 170/09 RMK AO2
94908KDBQ DBQ20070308081010103/08/07 08:10:31  5-MIN KDBQ 081410Z 17009KT 4SM BR OVC012 M05/M07 A3024 790 84 -1400 170/09 RMK AO2
94908KDBQ DBQ20070308081510103/08/07 08:15:31  5-MIN KDBQ 081415Z 17009KT 3SM BR OVC012 M05/M07 A3024 790 84 -1400 170/09 RMK AO2
94908KDBQ DBQ20070308082010103/08/07 08:20:31  5-MIN KDBQ 081420Z 17008KT 3SM BR OVC012 M05/M07 A3024 780 84 -1400 170/08 RMK AO2
94908KDBQ DBQ20070308082510103/08/07 08:25:31  5-MIN KDBQ 081425Z 17009KT 4SM BR OVC012 M05/M07 A3024 790 84 -1400 170/09 RMK AO2
94908KDBQ DBQ20070308083010103/08/07 08:30:31  5-MIN KDBQ 081430Z 17009KT 4SM BR OVC012 M05/M07 A3024 790 84 -1400 170/09 RMK AO2
94908KDBQ DBQ20070308083510103/08/07 08:35:31  5-MIN KDBQ 081435Z 17009KT 4SM BR OVC012 M05/M07 A3024 790 84 -1400 160/09 RMK AO2
94908KDBQ DBQ20070308084011303/08/07 08:40:31  5-MIN KDBQ 081440Z 17008KT 4SM BR OVC010 M05/M07 A3024 790 84 -1400 170/08 RMK AO2 CIG 008V012
94908KDBQ DBQ20070308084511303/08/07 08:45:31  5-MIN KDBQ 081445Z 17009KT 4SM BR OVC010 M05/M07 A3023 790 84 -1400 170/09 RMK AO2 CIG 008V012
94908KDBQ DBQ20070308085012403/08/07 08:50:31  5-MIN KDBQ 081450Z 17008KT 4SM HZ OVC010 M04/M07 A3023 790 81 -1300 170/08 RMK AO2 SLP256 T10441072 55004
94908KDBQ DBQ20070308085513603/08/07 08:55:31  5-MIN KDBQ 081455Z 17008KT 4SM HZ OVC010 M04/M07 A3023 790 81 -1300 170/08 RMK AO2 CIG 008V013 SLP256 T10441072 58005
94908KDBQ DBQ20070308090011303/08/07 09:00:31  5-MIN KDBQ 081500Z 17008KT 4SM HZ OVC010 M04/M07 A3023 790 81 -1300 170/08 RMK AO2 CIG 008V013
94908KDBQ DBQ20070308090511303/08/07 09:05:31  5-MIN KDBQ 081505Z 17009KT 4SM HZ OVC010 M04/M07 A3023 790 81 -1300 170/09 RMK AO2 CIG 008V013
94908KDBQ DBQ20070308091010103/08/07 09:10:31  5-MIN KDBQ 081510Z 18008KT 5SM HZ OVC010 M04/M07 A3023 790 81 -1300 180/08 RMK AO2
94908KDBQ DBQ20070308091510103/08/07 09:15:31  5-MIN KDBQ 081515Z 17010KT 5SM BR OVC010 M04/M07 A3023 790 84 -1300 170/10 RMK AO2
94908KDBQ DBQ20070308092010103/08/07 09:20:31  5-MIN KDBQ 081520Z 17007KT 5SM HZ OVC010 M04/M07 A3023 790 81 -1200 170/07 RMK AO2
94908KDBQ DBQ20070308092510103/08/07 09:25:31  5-MIN KDBQ 081525Z 17009KT 5SM HZ OVC010 M04/M07 A3023 790 81 -1200 170/09 RMK AO2
94908KDBQ DBQ20070308093010103/08/07 09:30:31  5-MIN KDBQ 081530Z 18010KT 5SM HZ OVC010 M04/M07 A3023 800 81 -1200 180/10 RMK AO2
94908KDBQ DBQ20070308093510103/08/07 09:35:31  5-MIN KDBQ 081535Z 17009KT 5SM HZ OVC010 M04/M07 A3022 800 81 -1200 170/09 RMK AO2
94908KDBQ DBQ20070308094010103/08/07 09:40:31  5-MIN KDBQ 081540Z 17011KT 5SM HZ OVC010 M04/M07 A3022 800 81 -1200 170/11 RMK AO2
94908KDBQ DBQ20070308094510103/08/07 09:45:31  5-MIN KDBQ 081545Z 18010KT 5SM HZ OVC010 M03/M06 A3022 800 81 -1200 180/10 RMK AO2
94908KDBQ DBQ20070308095011803/08/07 09:50:31  5-MIN KDBQ 081550Z 18011KT 5SM HZ OVC010 M03/M06 A3022 800 81 -1200 180/11 RMK AO2 SLP251 T10331061
94908KDBQ DBQ20070308095511803/08/07 09:55:31  5-MIN KDBQ 081555Z 18011KT 5SM HZ OVC010 M03/M06 A3022 800 81 -1200 180/11 RMK AO2 SLP251 T10331061
94908KDBQ DBQ20070308100010103/08/07 10:00:31  5-MIN KDBQ 081600Z 18011KT 5SM HZ OVC010 M03/M06 A3022 810 81 -1200 180/11 RMK AO2
94908KDBQ DBQ20070308100510103/08/07 10:05:31  5-MIN KDBQ 081605Z 18010KT 5SM HZ OVC012 M03/M06 A3021 810 81 -1200 180/10 RMK AO2
94908KDBQ DBQ20070308101010103/08/07 10:10:31  5-MIN KDBQ 081610Z 19013KT 6SM HZ OVC012 M03/M06 A3021 810 78 -1100 180/13 RMK AO2
94908KDBQ DBQ20070308101509803/08/07 10:15:31  5-MIN KDBQ 081615Z 19012KT 7SM OVC012 M03/M06 A3021 810 78 -1100 190/12 RMK AO2
94908KDBQ DBQ20070308102009803/08/07 10:20:31  5-MIN KDBQ 081620Z 20012KT 8SM OVC012 M03/M06 A3021 810 78 -1100 190/12 RMK AO2
94908KDBQ DBQ20070308102509903/08/07 10:25:31  5-MIN KDBQ 081625Z 20013KT 10SM OVC014 M03/M06 A3020 820 81 -1100 200/13 RMK AO2
94908KDBQ DBQ20070308103009903/08/07 10:30:31  5-MIN KDBQ 081630Z 20013KT 10SM OVC014 M02/M06 A3020 820 75 -1000 200/13 RMK AO2
94908KDBQ DBQ20070308103509903/08/07 10:35:31  5-MIN KDBQ 081635Z 20012KT 10SM OVC014 M02/M06 A3020 820 78 -1000 200/12 RMK AO2
94908KDBQ DBQ20070308104009903/08/07 10:40:31  5-MIN KDBQ 081640Z 19012KT 10SM OVC014 M02/M06 A3020 820 78 -1000 190/12 RMK AO2
94908KDBQ DBQ20070308104509903/08/07 10:45:31  5-MIN KDBQ 081645Z 19012KT 10SM OVC014 M02/M06 A3020 820 78 -1000 180/12 RMK AO2
94908KDBQ DBQ20070308105011503/08/07 10:50:31  5-MIN KDBQ 081650Z 20013KT 10SM OVC014 M02/M06 A3020 820 75 -900 200/13 RMK AO2 SLP244 T10171056
94908KDBQ DBQ20070308105511503/08/07 10:55:31  5-MIN KDBQ 081655Z 19012KT 10SM OVC014 M02/M06 A3020 820 75 -900 190/12 RMK AO2 SLP244 T10171056
94908KDBQ DBQ20070308110009803/08/07 11:00:31  5-MIN KDBQ 081700Z 19011KT 10SM OVC014 M02/M06 A3020 820 75 -900 190/11 RMK AO2
94908KDBQ DBQ20070308110509803/08/07 11:05:31  5-MIN KDBQ 081705Z 19012KT 10SM OVC016 M02/M06 A3020 820 75 -900 190/12 RMK AO2
94908KDBQ DBQ20070308111009803/08/07 11:10:31  5-MIN KDBQ 081710Z 19011KT 10SM OVC016 M02/M06 A3020 820 75 -900 190/11 RMK AO2
94908KDBQ DBQ20070308111509803/08/07 11:15:31  5-MIN KDBQ 081715Z 19011KT 10SM OVC016 M02/M06 A3020 820 75 -900 190/11 RMK AO2
94908KDBQ DBQ20070308112009803/08/07 11:20:31  5-MIN KDBQ 081720Z 19009KT 10SM BKN016 M02/M05 A3020 820 78 -900 190/09 RMK AO2
94908KDBQ DBQ20070308112509803/08/07 11:25:31  5-MIN KDBQ 081725Z 19011KT 10SM BKN016 M01/M06 A3020 820 72 -900 190/11 RMK AO2
94908KDBQ DBQ20070308113009803/08/07 11:30:31  5-MIN KDBQ 081730Z 20011KT 10SM OVC016 M01/M05 A3019 830 75 -900 200/11 RMK AO2
94908KDBQ DBQ20070308113509803/08/07 11:35:31  5-MIN KDBQ 081735Z 18011KT 10SM OVC016 M01/M05 A3019 830 75 -900 180/11 RMK AO2
94908KDBQ DBQ20070308114009803/08/07 11:40:31  5-MIN KDBQ 081740Z 20012KT 10SM BKN016 M01/M05 A3019 830 75 -900 200/12 RMK AO2
94908KDBQ DBQ20070308114509803/08/07 11:45:31  5-MIN KDBQ 081745Z 18012KT 10SM OVC016 M01/M05 A3019 830 75 -900 180/12 RMK AO2
94908KDBQ DBQ20070308115013303/08/07 11:50:31  5-MIN KDBQ 081750Z 19011KT 10SM OVC016 M01/M05 A3019 830 75 -900 190/11 RMK AO2 SLP240 T10111050 11011 21056 58005
94908KDBQ DBQ20070308115513303/08/07 11:55:31  5-MIN KDBQ 081755Z 19012KT 10SM OVC016 M01/M05 A3019 830 75 -900 190/12 RMK AO2 SLP241 T10111050 11011 21056 56013
94908KDBQ DBQ20070308120009803/08/07 12:00:31  5-MIN KDBQ 081800Z 21011KT 10SM OVC016 M01/M04 A3019 830 75 -800 210/11 RMK AO2
94908KDBQ DBQ20070308120509803/08/07 12:05:31  5-MIN KDBQ 081805Z 20012KT 10SM OVC016 M01/M04 A3019 830 75 -800 200/12 RMK AO2
94908KDBQ DBQ20070308121009803/08/07 12:10:31  5-MIN KDBQ 081810Z 19011KT 10SM OVC016 M01/M04 A3019 830 78 -800 190/11 RMK AO2
94908KDBQ DBQ20070308121509803/08/07 12:15:31  5-MIN KDBQ 081815Z 20011KT 10SM OVC016 M01/M04 A3018 830 75 -800 200/11 RMK AO2
94908KDBQ DBQ20070308122009803/08/07 12:20:31  5-MIN KDBQ 081820Z 20010KT 10SM OVC016 M01/M04 A3018 840 75 -800 200/10 RMK AO2
94908KDBQ DBQ20070308122509803/08/07 12:25:31  5-MIN KDBQ 081825Z 18012KT 10SM OVC016 M01/M04 A3018 840 75 -800 180/12 RMK AO2
94908KDBQ DBQ20070308123009803/08/07 12:30:31  5-MIN KDBQ 081830Z 18010KT 10SM OVC016 M01/M04 A3018 840 75 -800 180/10 RMK AO2
94908KDBQ DBQ20070308123509803/08/07 12:35:31  5-MIN KDBQ 081835Z 18009KT 10SM OVC016 M01/M04 A3018 840 78 -800 180/09 RMK AO2
94908KDBQ DBQ20070308124009803/08/07 12:40:31  5-MIN KDBQ 081840Z 18012KT 10SM OVC016 M01/M04 A3018 840 75 -800 180/12 RMK AO2
94908KDBQ DBQ20070308124509703/08/07 12:45:31  5-MIN KDBQ 081845Z 18009KT 9SM OVC016 M01/M04 A3018 840 75 -800 180/09 RMK AO2
94908KDBQ DBQ20070308125011403/08/07 12:50:31  5-MIN KDBQ 081850Z 19010KT 8SM OVC016 M01/M04 A3018 840 78 -800 190/10 RMK AO2 SLP235 T10061039
94908KDBQ DBQ20070308125511403/08/07 12:55:31  5-MIN KDBQ 081855Z 18009KT 7SM OVC016 M01/M04 A3017 840 75 -800 180/09 RMK AO2 SLP234 T10061044
94908KDBQ DBQ20070308130009703/08/07 13:00:31  5-MIN KDBQ 081900Z 19010KT 8SM OVC016 M01/M04 A3017 850 75 -800 190/10 RMK AO2
94908KDBQ DBQ20070308130509703/08/07 13:05:31  5-MIN KDBQ 081905Z 17010KT 8SM OVC016 M01/M04 A3017 850 75 -800 170/10 RMK AO2
94908KDBQ DBQ20070308131009703/08/07 13:10:31  5-MIN KDBQ 081910Z 19011KT 8SM OVC016 M01/M04 A3017 850 78 -800 190/11 RMK AO2
94908KDBQ DBQ20070308131509703/08/07 13:15:31  5-MIN KDBQ 081915Z 19009KT 8SM OVC016 M01/M04 A3017 850 78 -800 190/09 RMK AO2
94908KDBQ DBQ20070308132009703/08/07 13:20:31  5-MIN KDBQ 081920Z 19009KT 7SM OVC016 M01/M04 A3017 850 78 -800 190/09 RMK AO2
94908KDBQ DBQ20070308132509703/08/07 13:25:31  5-MIN KDBQ 081925Z 19009KT 7SM OVC016 M01/M04 A3017 850 78 -800 190/09 RMK AO2
94908KDBQ DBQ20070308133009703/08/07 13:30:31  5-MIN KDBQ 081930Z 19009KT 8SM OVC016 M01/M04 A3017 850 78 -800 190/09 RMK AO2
94908KDBQ DBQ20070308133509703/08/07 13:35:31  5-MIN KDBQ 081935Z 19010KT 8SM OVC016 M01/M04 A3017 850 78 -800 190/10 RMK AO2
94908KDBQ DBQ20070308134009703/08/07 13:40:31  5-MIN KDBQ 081940Z 19010KT 8SM OVC016 M01/M04 A3016 860 78 -700 190/10 RMK AO2
94908KDBQ DBQ20070308134509703/08/07 13:45:31  5-MIN KDBQ 081945Z 19008KT 8SM OVC016 M01/M04 A3016 860 78 -700 190/08 RMK AO2
94908KDBQ DBQ20070308135011403/08/07 13:50:31  5-MIN KDBQ 081950Z 18009KT 7SM OVC016 M01/M04 A3016 860 78 -700 180/09 RMK AO2 SLP228 T10061039
94908KDBQ DBQ20070308135511303/08/07 13:55:31  5-MIN KDBQ 081955Z 18008KT 8SM OVC016 00/M04 A3015 860 75 -700 180/08 RMK AO2 SLP227 T00001039
94908KDBQ DBQ20070308140009603/08/07 14:00:31  5-MIN KDBQ 082000Z 18008KT 9SM OVC016 00/M04 A3015 860 75 -700 180/08 RMK AO2
94908KDBQ DBQ20070308140509603/08/07 14:05:31  5-MIN KDBQ 082005Z 17009KT 8SM OVC016 00/M03 A3015 870 78 -700 170/09 RMK AO2
94908KDBQ DBQ20070308141009603/08/07 14:10:31  5-MIN KDBQ 082010Z 18008KT 8SM OVC016 00/M04 A3015 870 75 -700 180/08 RMK AO2
94908KDBQ DBQ20070308141509703/08/07 14:15:31  5-MIN KDBQ 082015Z 18008KT 10SM OVC016 00/M04 A3015 870 75 -700 180/08 RMK AO2
94908KDBQ DBQ20070308142009603/08/07 14:20:31  5-MIN KDBQ 082020Z 18008KT 8SM OVC016 00/M03 A3014 870 78 -700 180/08 RMK AO2
94908KDBQ DBQ20070308142509603/08/07 14:25:31  5-MIN KDBQ 082025Z 16008KT 7SM OVC014 00/M03 A3014 870 78 -700 160/08 RMK AO2
94908KDBQ DBQ20070308143010003/08/07 14:30:31  5-MIN KDBQ 082030Z 16008KT 6SM HZ OVC014 M01/M03 A3014 870 81 -700 160/08 RMK AO2
94908KDBQ DBQ20070308143509903/08/07 14:35:31  5-MIN KDBQ 082035Z 16009KT 6SM HZ OVC014 00/M03 A3014 880 78 -700 160/09 RMK AO2
94908KDBQ DBQ20070308144009903/08/07 14:40:31  5-MIN KDBQ 082040Z 16011KT 6SM HZ OVC014 00/M03 A3014 880 78 -600 160/11 RMK AO2
94908KDBQ DBQ20070308144510003/08/07 14:45:31  5-MIN KDBQ 082045Z 15010KT 6SM HZ OVC014 M01/M03 A3013 880 81 -700 150/10 RMK AO2
94908KDBQ DBQ20070308145012703/08/07 14:50:31  5-MIN KDBQ 082050Z AUTO 16011KT 6SM HZ OVC014 00/M03 A3013 880 78 -600 160/11 RMK AO2 SLP219 T00001033 56013
94908KDBQ DBQ20070308145513203/08/07 14:55:31  5-MIN KDBQ 082055Z AUTO 17010KT 6SM HZ OVC014 00/M03 A3013 880 78 -600 160/10 RMK AO2 SLP218 T00001033 58021 TSNO
94908KDBQ DBQ20070308150009903/08/07 15:00:31  5-MIN KDBQ 082100Z 17011KT 6SM HZ OVC014 00/M03 A3013 890 78 -600 170/11 RMK AO2
94908KDBQ DBQ20070308150509603/08/07 15:05:31  5-MIN KDBQ 082105Z 15011KT 7SM OVC014 00/M03 A3013 890 78 -600 150/11 RMK AO2
94908KDBQ DBQ20070308151009603/08/07 15:10:31  5-MIN KDBQ 082110Z 16010KT 7SM OVC014 00/M03 A3012 890 78 -600 150/10 RMK AO2
94908KDBQ DBQ20070308151509603/08/07 15:15:31  5-MIN KDBQ 082115Z 16010KT 7SM OVC014 00/M03 A3012 890 81 -600 150/10 RMK AO2
94908KDBQ DBQ20070308152009603/08/07 15:20:31  5-MIN KDBQ 082120Z 16011KT 7SM OVC012 00/M03 A3012 890 81 -600 160/11 RMK AO2
94908KDBQ DBQ20070308152509903/08/07 15:25:31  5-MIN KDBQ 082125Z 17011KT 6SM HZ BKN012 00/M03 A3012 900 78 -600 160/11 RMK AO2
94908KDBQ DBQ20070308153009903/08/07 15:30:31  5-MIN KDBQ 082130Z 17010KT 5SM HZ BKN012 00/M03 A3012 900 78 -600 170/10 RMK AO2
94908KDBQ DBQ20070308153509903/08/07 15:35:31  5-MIN KDBQ 082135Z 15011KT 6SM HZ BKN012 00/M03 A3012 900 78 -600 150/11 RMK AO2
94908KDBQ DBQ20070308154009903/08/07 15:40:31  5-MIN KDBQ 082140Z 16009KT 6SM HZ BKN012 00/M03 A3011 900 78 -600 160/09 RMK AO2
94908KDBQ DBQ20070308154509903/08/07 15:45:31  5-MIN KDBQ 082145Z 17009KT 5SM HZ BKN012 00/M03 A3011 900 81 -600 170/09 RMK AO2
94908KDBQ DBQ20070308155011603/08/07 15:50:31  5-MIN KDBQ 082150Z 17009KT 5SM HZ BKN012 00/M03 A3011 900 81 -600 170/09 RMK AO2 SLP212 T00001028
94908KDBQ DBQ20070308155511303/08/07 15:55:31  5-MIN KDBQ 082155Z 17009KT 5SM HZ CLR 01/M03 A3011 910 78 -500 170/09 RMK AO2 SLP210 T00061028
94908KDBQ DBQ20070308160009603/08/07 16:00:31  5-MIN KDBQ 082200Z 17009KT 5SM HZ CLR 01/M03 A3011 910 78 -500 160/09 RMK AO2
94908KDBQ DBQ20070308160509603/08/07 16:05:31  5-MIN KDBQ 082205Z 16010KT 5SM HZ CLR 01/M03 A3011 910 78 -500 160/10 RMK AO2
94908KDBQ DBQ20070308161009603/08/07 16:10:31  5-MIN KDBQ 082210Z 16008KT 5SM HZ CLR 01/M03 A3010 910 78 -500 160/08 RMK AO2
94908KDBQ DBQ20070308161509603/08/07 16:15:31  5-MIN KDBQ 082215Z 16008KT 5SM HZ CLR 01/M03 A3010 910 78 -500 160/08 RMK AO2
94908KDBQ DBQ20070308162009603/08/07 16:20:31  5-MIN KDBQ 082220Z 16010KT 5SM HZ CLR 01/M03 A3010 910 78 -500 160/10 RMK AO2
94908KDBQ DBQ20070308162509603/08/07 16:25:31  5-MIN KDBQ 082225Z 15010KT 5SM HZ CLR 01/M03 A3010 910 78 -500 150/10 RMK AO2
94908KDBQ DBQ20070308163009603/08/07 16:30:31  5-MIN KDBQ 082230Z 15011KT 5SM HZ CLR 01/M03 A3010 910 78 -500 150/11 RMK AO2
94908KDBQ DBQ20070308163509603/08/07 16:35:31  5-MIN KDBQ 082235Z 15009KT 5SM HZ CLR 01/M03 A3010 910 78 -500 150/09 RMK AO2
94908KDBQ DBQ20070308164009603/08/07 16:40:31  5-MIN KDBQ 082240Z 15010KT 5SM HZ CLR 01/M03 A3009 920 78 -500 150/10 RMK AO2
94908KDBQ DBQ20070308164509603/08/07 16:45:31  5-MIN KDBQ 082245Z 15011KT 5SM HZ CLR 01/M03 A3009 920 78 -500 150/11 RMK AO2
94908KDBQ DBQ20070308165011303/08/07 16:50:31  5-MIN KDBQ 082250Z 15010KT 5SM HZ CLR 01/M03 A3009 920 78 -500 150/10 RMK AO2 SLP204 T00061028
94908KDBQ DBQ20070308165511303/08/07 16:55:31  5-MIN KDBQ 082255Z 15009KT 5SM HZ CLR 01/M03 A3009 920 78 -500 150/09 RMK AO2 SLP204 T00061028
94908KDBQ DBQ20070308170009603/08/07 17:00:31  5-MIN KDBQ 082300Z 15009KT 4SM HZ CLR 01/M03 A3009 920 78 -500 150/09 RMK AO2
94908KDBQ DBQ20070308170509603/08/07 17:05:31  5-MIN KDBQ 082305Z 15009KT 4SM HZ CLR 01/M03 A3009 920 78 -500 150/09 RMK AO2
94908KDBQ DBQ20070308171009603/08/07 17:10:31  5-MIN KDBQ 082310Z 15009KT 4SM HZ CLR 01/M03 A3009 920 75 -500 150/09 RMK AO2
94908KDBQ DBQ20070308171509603/08/07 17:15:31  5-MIN KDBQ 082315Z 15009KT 4SM HZ CLR 00/M03 A3009 920 78 -600 150/09 RMK AO2
94908KDBQ DBQ20070308172009603/08/07 17:20:31  5-MIN KDBQ 082320Z 15008KT 4SM HZ CLR 00/M03 A3009 920 78 -600 150/08 RMK AO2
94908KDBQ DBQ20070308172509603/08/07 17:25:31  5-MIN KDBQ 082325Z 14009KT 4SM HZ CLR 00/M03 A3009 920 78 -600 140/09 RMK AO2
94908KDBQ DBQ20070308173009603/08/07 17:30:31  5-MIN KDBQ 082330Z 15008KT 4SM HZ CLR 00/M03 A3008 930 78 -600 150/08 RMK AO2
94908KDBQ DBQ20070308173509603/08/07 17:35:31  5-MIN KDBQ 082335Z 15009KT 4SM HZ CLR 00/M03 A3008 930 78 -600 140/09 RMK AO2
94908KDBQ DBQ20070308174009603/08/07 17:40:31  5-MIN KDBQ 082340Z 15008KT 4SM HZ CLR 00/M03 A3008 930 78 -600 140/08 RMK AO2
94908KDBQ DBQ20070308174509603/08/07 17:45:31  5-MIN KDBQ 082345Z 15008KT 4SM HZ CLR 00/M03 A3008 930 78 -600 140/08 RMK AO2
94908KDBQ DBQ20070308175013103/08/07 17:50:31  5-MIN KDBQ 082350Z 15009KT 4SM HZ CLR 00/M03 A3008 930 78 -600 150/09 RMK AO2 SLP202 T00001033 10006 21011 58021
94908KDBQ DBQ20070308180009703/08/07 18:00:31  5-MIN KDBQ 090000Z 15008KT 4SM HZ CLR M01/M03 A3008 930 81 -700 150/08 RMK AO2
94908KDBQ DBQ20070308180509703/08/07 18:05:31  5-MIN KDBQ 090005Z 15008KT 4SM HZ CLR M01/M03 A3008 930 81 -700 150/08 RMK AO2
94908KDBQ DBQ20070308181009703/08/07 18:10:31  5-MIN KDBQ 090010Z 15006KT 4SM HZ CLR M01/M03 A3009 930 81 -700 150/06 RMK AO2
94908KDBQ DBQ20070308181509703/08/07 18:15:31  5-MIN KDBQ 090015Z 15006KT 4SM HZ CLR M01/M03 A3009 920 81 -700 150/06 RMK AO2
94908KDBQ DBQ20070308182009703/08/07 18:20:31  5-MIN KDBQ 090020Z 15006KT 5SM HZ CLR M01/M03 A3009 920 81 -700 150/06 RMK AO2
94908KDBQ DBQ20070308182509703/08/07 18:25:31  5-MIN KDBQ 090025Z 15006KT 5SM HZ CLR M01/M03 A3009 930 81 -700 150/06 RMK AO2
94908KDBQ DBQ20070308183009703/08/07 18:30:31  5-MIN KDBQ 090030Z 14006KT 5SM HZ CLR M01/M03 A3008 930 81 -700 140/06 RMK AO2
94908KDBQ DBQ20070308183509703/08/07 18:35:31  5-MIN KDBQ 090035Z 14006KT 5SM HZ CLR M01/M03 A3008 930 81 -700 140/06 RMK AO2
94908KDBQ DBQ20070308184009703/08/07 18:40:31  5-MIN KDBQ 090040Z 14005KT 5SM HZ CLR M01/M03 A3009 930 81 -700 140/05 RMK AO2
94908KDBQ DBQ20070308184509703/08/07 18:45:31  5-MIN KDBQ 090045Z 14004KT 5SM HZ CLR M01/M03 A3008 930 81 -700 140/04 RMK AO2
94908KDBQ DBQ20070308185011403/08/07 18:50:31  5-MIN KDBQ 090050Z 14003KT 5SM HZ CLR M01/M03 A3009 930 81 -700 140/03 RMK AO2 SLP203 T10061033
94908KDBQ DBQ20070308185511403/08/07 18:55:31  5-MIN KDBQ 090055Z 14005KT 5SM HZ CLR M01/M04 A3008 930 78 -700 140/05 RMK AO2 SLP202 T10061039
94908KDBQ DBQ20070308190009703/08/07 19:00:31  5-MIN KDBQ 090100Z 13006KT 5SM HZ CLR M01/M04 A3008 930 81 -700 130/06 RMK AO2
94908KDBQ DBQ20070308190509703/08/07 19:05:31  5-MIN KDBQ 090105Z 13007KT 5SM HZ CLR M01/M04 A3007 940 78 -600 130/07 RMK AO2
94908KDBQ DBQ20070308191009703/08/07 19:10:31  5-MIN KDBQ 090110Z 13006KT 5SM HZ CLR M01/M03 A3007 940 81 -600 130/06 RMK AO2
94908KDBQ DBQ20070308191509703/08/07 19:15:31  5-MIN KDBQ 090115Z 13006KT 5SM HZ CLR M01/M03 A3007 940 81 -600 130/06 RMK AO2
94908KDBQ DBQ20070308192009703/08/07 19:20:31  5-MIN KDBQ 090120Z 14006KT 5SM HZ CLR M01/M03 A3006 950 81 -600 130/06 RMK AO2
94908KDBQ DBQ20070308192509703/08/07 19:25:31  5-MIN KDBQ 090125Z 14007KT 5SM HZ CLR M01/M03 A3006 950 81 -600 140/07 RMK AO2
94908KDBQ DBQ20070308193009703/08/07 19:30:31  5-MIN KDBQ 090130Z 14006KT 5SM HZ CLR M01/M03 A3006 950 81 -600 140/06 RMK AO2
94908KDBQ DBQ20070308193509703/08/07 19:35:31  5-MIN KDBQ 090135Z 14009KT 5SM HZ CLR M01/M03 A3006 950 81 -600 140/09 RMK AO2
94908KDBQ DBQ20070308194009703/08/07 19:40:31  5-MIN KDBQ 090140Z 14009KT 5SM HZ CLR M01/M03 A3006 950 81 -600 140/09 RMK AO2
94908KDBQ DBQ20070308194509703/08/07 19:45:31  5-MIN KDBQ 090145Z 14009KT 5SM HZ CLR M01/M03 A3005 960 81 -600 140/09 RMK AO2
94908KDBQ DBQ20070308195011403/08/07 19:50:31  5-MIN KDBQ 090150Z 15009KT 5SM HZ CLR M01/M03 A3005 950 81 -600 150/09 RMK AO2 SLP192 T10061033
94908KDBQ DBQ20070308195511403/08/07 19:55:31  5-MIN KDBQ 090155Z 14009KT 5SM HZ CLR M01/M03 A3005 950 81 -600 140/09 RMK AO2 SLP192 T10061033
94908KDBQ DBQ20070308200010703/08/07 20:00:31  5-MIN KDBQ 090200Z AUTO 15010KT 5SM HZ CLR M01/M03 A3005 960 81 -600 150/10 RMK AO2 TSNO
94908KDBQ DBQ20070308200510603/08/07 20:05:31  5-MIN KDBQ 090205Z AUTO 15009KT 5SM HZ CLR 00/M03 A3005 960 78 -600 150/09 RMK AO2 TSNO
94908KDBQ DBQ20070308201010603/08/07 20:10:31  5-MIN KDBQ 090210Z AUTO 15008KT 5SM HZ CLR 00/M03 A3006 950 78 -600 150/08 RMK AO2 TSNO
94908KDBQ DBQ20070308201510603/08/07 20:15:31  5-MIN KDBQ 090215Z AUTO 15009KT 5SM HZ CLR 00/M03 A3006 950 78 -600 150/09 RMK AO2 TSNO
94908KDBQ DBQ20070308202010603/08/07 20:20:31  5-MIN KDBQ 090220Z AUTO 15009KT 5SM HZ CLR 00/M03 A3005 960 81 -600 150/09 RMK AO2 TSNO
94908KDBQ DBQ20070308202510603/08/07 20:25:31  5-MIN KDBQ 090225Z AUTO 15010KT 5SM HZ CLR 00/M03 A3005 960 81 -500 150/10 RMK AO2 TSNO
94908KDBQ DBQ20070308203010603/08/07 20:30:31  5-MIN KDBQ 090230Z AUTO 15009KT 6SM HZ CLR 00/M03 A3005 960 81 -500 150/09 RMK AO2 TSNO
94908KDBQ DBQ20070308203510603/08/07 20:35:31  5-MIN KDBQ 090235Z AUTO 15012KT 6SM HZ CLR 01/M03 A3004 970 78 -500 150/12 RMK AO2 TSNO
94908KDBQ DBQ20070308204010603/08/07 20:40:31  5-MIN KDBQ 090240Z AUTO 15012KT 6SM HZ CLR 01/M03 A3004 970 78 -500 150/12 RMK AO2 TSNO
94908KDBQ DBQ20070308204510603/08/07 20:45:31  5-MIN KDBQ 090245Z AUTO 15011KT 6SM HZ CLR 01/M03 A3003 970 78 -500 150/11 RMK AO2 TSNO
94908KDBQ DBQ20070308205012903/08/07 20:50:31  5-MIN KDBQ 090250Z AUTO 15013KT 6SM HZ CLR 01/M03 A3004 970 78 -500 150/13 RMK AO2 SLP185 T00061028 56017 TSNO
94908KDBQ DBQ20070308205512903/08/07 20:55:31  5-MIN KDBQ 090255Z AUTO 16012KT 6SM HZ CLR 01/M03 A3004 970 78 -500 160/12 RMK AO2 SLP186 T00061028 58013 TSNO
94908KDBQ DBQ20070308210010603/08/07 21:00:31  5-MIN KDBQ 090300Z AUTO 16014KT 6SM HZ CLR 00/M03 A3004 970 81 -500 160/14 RMK AO2 TSNO
94908KDBQ DBQ20070308210510603/08/07 21:05:31  5-MIN KDBQ 090305Z AUTO 16013KT 6SM HZ CLR 01/M03 A3004 970 78 -500 160/13 RMK AO2 TSNO
94908KDBQ DBQ20070308211010603/08/07 21:10:31  5-MIN KDBQ 090310Z AUTO 16012KT 6SM HZ CLR 01/M03 A3004 970 78 -500 160/12 RMK AO2 TSNO
94908KDBQ DBQ20070308211510603/08/07 21:15:31  5-MIN KDBQ 090315Z AUTO 16013KT 6SM HZ CLR 01/M03 A3004 970 78 -500 160/13 RMK AO2 TSNO
94908KDBQ DBQ20070308212010603/08/07 21:20:31  5-MIN KDBQ 090320Z AUTO 16010KT 6SM HZ CLR 01/M03 A3005 960 78 -500 160/10 RMK AO2 TSNO
94908KDBQ DBQ20070308212510603/08/07 21:25:31  5-MIN KDBQ 090325Z AUTO 17010KT 6SM HZ CLR 01/M03 A3005 960 78 -500 170/10 RMK AO2 TSNO
94908KDBQ DBQ20070308213010603/08/07 21:30:31  5-MIN KDBQ 090330Z AUTO 17010KT 6SM HZ CLR 01/M03 A3005 960 78 -500 170/10 RMK AO2 TSNO
94908KDBQ DBQ20070308213510603/08/07 21:35:31  5-MIN KDBQ 090335Z AUTO 18009KT 6SM HZ CLR 01/M03 A3006 950 75 -500 170/09 RMK AO2 TSNO
94908KDBQ DBQ20070308214010603/08/07 21:40:31  5-MIN KDBQ 090340Z AUTO 17008KT 6SM HZ CLR 00/M03 A3006 950 78 -600 170/08 RMK AO2 TSNO
94908KDBQ DBQ20070308214510603/08/07 21:45:31  5-MIN KDBQ 090345Z AUTO 17009KT 6SM HZ CLR 00/M03 A3005 960 78 -500 170/09 RMK AO2 TSNO
94908KDBQ DBQ20070308215012403/08/07 21:50:31  5-MIN KDBQ 090350Z AUTO 17010KT 6SM HZ CLR M01/M03 A3004 970 81 -600 170/10 RMK AO2 SLP187 T10061033 TSNO
94908KDBQ DBQ20070308215512303/08/07 21:55:31  5-MIN KDBQ 090355Z AUTO 17012KT 6SM HZ CLR 00/M03 A3004 970 78 -500 170/12 RMK AO2 SLP186 T00001033 TSNO
94908KDBQ DBQ20070308220010603/08/07 22:00:31  5-MIN KDBQ 090400Z AUTO 17011KT 6SM HZ CLR 00/M03 A3004 970 78 -500 170/11 RMK AO2 TSNO
94908KDBQ DBQ20070308220510603/08/07 22:05:31  5-MIN KDBQ 090405Z AUTO 17012KT 6SM HZ CLR 00/M03 A3004 970 78 -500 170/12 RMK AO2 TSNO
94908KDBQ DBQ20070308221010603/08/07 22:10:31  5-MIN KDBQ 090410Z AUTO 17011KT 6SM HZ CLR 00/M03 A3004 970 78 -500 170/11 RMK AO2 TSNO
94908KDBQ DBQ20070308221510603/08/07 22:15:31  5-MIN KDBQ 090415Z AUTO 18012KT 6SM HZ CLR 00/M03 A3004 970 78 -500 180/12 RMK AO2 TSNO
94908KDBQ DBQ20070308222010703/08/07 22:20:31  5-MIN KDBQ 090420Z AUTO 18012KT 6SM HZ CLR M01/M03 A3004 970 81 -600 180/12 RMK AO2 TSNO
94908KDBQ DBQ20070308222510703/08/07 22:25:31  5-MIN KDBQ 090425Z AUTO 17012KT 6SM HZ CLR M01/M03 A3003 970 81 -600 170/12 RMK AO2 TSNO
94908KDBQ DBQ20070308223010703/08/07 22:30:31  5-MIN KDBQ 090430Z AUTO 17012KT 6SM HZ CLR M01/M03 A3003 970 81 -600 170/12 RMK AO2 TSNO
94908KDBQ DBQ20070308223510703/08/07 22:35:31  5-MIN KDBQ 090435Z AUTO 18012KT 6SM HZ CLR M01/M03 A3003 970 81 -600 170/12 RMK AO2 TSNO
94908KDBQ DBQ20070308224010703/08/07 22:40:31  5-MIN KDBQ 090440Z AUTO 17013KT 6SM HZ CLR M01/M03 A3003 980 81 -600 170/13 RMK AO2 TSNO
94908KDBQ DBQ20070308224510703/08/07 22:45:31  5-MIN KDBQ 090445Z AUTO 17014KT 6SM HZ CLR M01/M03 A3003 980 81 -600 170/14 RMK AO2 TSNO
94908KDBQ DBQ20070308225012403/08/07 22:50:31  5-MIN KDBQ 090450Z AUTO 17014KT 6SM HZ CLR M01/M03 A3002 980 81 -600 170/14 RMK AO2 SLP180 T10061033 TSNO
94908KDBQ DBQ20070308225512403/08/07 22:55:31  5-MIN KDBQ 090455Z AUTO 17015KT 6SM HZ CLR M01/M03 A3002 990 81 -600 160/15 RMK AO2 SLP178 T10061033 TSNO
94908KDBQ DBQ20070308230010703/08/07 23:00:31  5-MIN KDBQ 090500Z AUTO 16013KT 6SM HZ CLR M01/M03 A3002 990 81 -600 160/13 RMK AO2 TSNO
94908KDBQ DBQ20070308230510703/08/07 23:05:31  5-MIN KDBQ 090505Z AUTO 17012KT 6SM HZ CLR M01/M03 A3003 980 81 -600 170/12 RMK AO2 TSNO
94908KDBQ DBQ20070308231010703/08/07 23:10:31  5-MIN KDBQ 090510Z AUTO 17012KT 6SM HZ CLR M01/M03 A3002 980 81 -600 160/12 RMK AO2 TSNO
94908KDBQ DBQ20070308231510703/08/07 23:15:31  5-MIN KDBQ 090515Z AUTO 17011KT 6SM HZ CLR M01/M03 A3003 980 81 -600 170/11 RMK AO2 TSNO
94908KDBQ DBQ20070308232010703/08/07 23:20:31  5-MIN KDBQ 090520Z AUTO 17012KT 6SM HZ CLR M01/M03 A3002 980 81 -600 170/12 RMK AO2 TSNO
94908KDBQ DBQ20070308232510703/08/07 23:25:31  5-MIN KDBQ 090525Z AUTO 16012KT 6SM HZ CLR M01/M03 A3002 990 81 -600 160/12 RMK AO2 TSNO
94908KDBQ DBQ20070308233010703/08/07 23:30:31  5-MIN KDBQ 090530Z AUTO 17012KT 6SM HZ CLR M01/M03 A3002 990 81 -600 160/12 RMK AO2 TSNO
94908KDBQ DBQ20070308233510703/08/07 23:35:31  5-MIN KDBQ 090535Z AUTO 16012KT 6SM HZ CLR M01/M03 A3001 990 81 -600 160/12 RMK AO2 TSNO
94908KDBQ DBQ20070308234010803/08/07 23:40:31  5-MIN KDBQ 090540Z AUTO 17013KT 6SM HZ CLR M01/M03 A3001 1000 81 -600 160/13 RMK AO2 TSNO
94908KDBQ DBQ20070308234510703/08/07 23:45:31  5-MIN KDBQ 090545Z AUTO 17013KT 6SM HZ CLR M01/M03 A3001 990 81 -600 170/13 RMK AO2 TSNO
94908KDBQ DBQ20070308235015303/08/07 23:50:31  5-MIN KDBQ 090550Z AUTO 17013KT 6SM HZ CLR M01/M03 A3001 1000 81 -600 160/13 RMK AO2 SLP175 T10061033 10006 21011 400061094 58013 TSNO
94908KDBQ DBQ20070308235515303/08/07 23:55:31  5-MIN KDBQ 090555Z AUTO 17013KT 6SM HZ CLR M01/M03 A3001 1000 81 -600 170/13 RMK AO2 SLP174 T10061033 10006 21011 400061094 58010 TSNO
94908KDBQ DBQ20070309000010803/09/07 00:00:38  5-MIN KDBQ 090600Z AUTO 17013KT 6SM HZ CLR M01/M03 A3001 1000 81 -600 170/13 RMK AO2 TSNO
94908KDBQ DBQ20070309000510803/09/07 00:05:31  5-MIN KDBQ 090605Z AUTO 17013KT 6SM HZ CLR M01/M03 A3000 1000 81 -600 160/13 RMK AO2 TSNO
94908KDBQ DBQ20070309001010803/09/07 00:10:31  5-MIN KDBQ 090610Z AUTO 17013KT 6SM HZ CLR M01/M03 A3001 1000 81 -600 160/13 RMK AO2 TSNO
94908KDBQ DBQ20070309001510803/09/07 00:15:32  5-MIN KDBQ 090615Z AUTO 17013KT 6SM HZ CLR M01/M03 A3001 1000 81 -600 170/13 RMK AO2 TSNO
94908KDBQ DBQ20070309002010803/09/07 00:20:31  5-MIN KDBQ 090620Z AUTO 17013KT 6SM HZ CLR M01/M03 A3000 1000 81 -600 160/13 RMK AO2 TSNO
94908KDBQ DBQ20070309002510803/09/07 00:25:31  5-MIN KDBQ 090625Z AUTO 17012KT 6SM HZ CLR M01/M03 A3000 1000 81 -600 170/12 RMK AO2 TSNO
94908KDBQ DBQ20070309003010803/09/07 00:30:31  5-MIN KDBQ 090630Z AUTO 17012KT 6SM HZ CLR M01/M03 A3000 1000 81 -600 170/12 RMK AO2 TSNO
94908KDBQ DBQ20070309003510803/09/07 00:35:31  5-MIN KDBQ 090635Z AUTO 17012KT 6SM HZ CLR M01/M03 A3000 1000 81 -600 170/12 RMK AO2 TSNO
94908KDBQ DBQ20070309004010803/09/07 00:40:31  5-MIN KDBQ 090640Z AUTO 17011KT 5SM HZ CLR M01/M03 A3000 1000 81 -600 170/11 RMK AO2 TSNO
94908KDBQ DBQ20070309004510803/09/07 00:45:31  5-MIN KDBQ 090645Z AUTO 17012KT 5SM HZ CLR M01/M03 A3000 1000 81 -600 170/12 RMK AO2 TSNO
94908KDBQ DBQ20070309005012503/09/07 00:50:31  5-MIN KDBQ 090650Z AUTO 17011KT 5SM HZ CLR M01/M03 A3000 1000 81 -600 170/11 RMK AO2 SLP172 T10061033 TSNO
94908KDBQ DBQ20070309005512503/09/07 00:55:31  5-MIN KDBQ 090655Z AUTO 17011KT 5SM HZ CLR M01/M03 A3000 1000 81 -600 170/11 RMK AO2 SLP173 T10061033 TSNO
94908KDBQ DBQ20070309010010803/09/07 01:00:31  5-MIN KDBQ 090700Z AUTO 17011KT 5SM HZ CLR M01/M03 A3000 1000 81 -600 170/11 RMK AO2 TSNO
94908KDBQ DBQ20070309010510803/09/07 01:05:31  5-MIN KDBQ 090705Z AUTO 17010KT 5SM HZ CLR M01/M03 A3001 1000 81 -600 170/10 RMK AO2 TSNO
94908KDBQ DBQ20070309011010803/09/07 01:10:31  5-MIN KDBQ 090710Z AUTO 18010KT 5SM HZ CLR M01/M03 A3001 1000 81 -600 180/10 RMK AO2 TSNO
94908KDBQ DBQ20070309011510803/09/07 01:15:31  5-MIN KDBQ 090715Z AUTO 19009KT 5SM HZ CLR M01/M03 A3001 1000 81 -600 190/09 RMK AO2 TSNO
94908KDBQ DBQ20070309012010803/09/07 01:20:31  5-MIN KDBQ 090720Z AUTO 19009KT 5SM HZ CLR M01/M03 A3001 1000 81 -600 190/09 RMK AO2 TSNO
94908KDBQ DBQ20070309012510803/09/07 01:25:31  5-MIN KDBQ 090725Z AUTO 18009KT 5SM BR CLR M01/M03 A3001 1000 85 -600 180/09 RMK AO2 TSNO
94908KDBQ DBQ20070309013010803/09/07 01:30:31  5-MIN KDBQ 090730Z AUTO 18009KT 5SM BR CLR M01/M03 A3000 1000 85 -600 180/09 RMK AO2 TSNO
94908KDBQ DBQ20070309013510803/09/07 01:35:31  5-MIN KDBQ 090735Z AUTO 18009KT 5SM BR CLR M01/M03 A3000 1000 85 -600 180/09 RMK AO2 TSNO
94908KDBQ DBQ20070309014010803/09/07 01:40:31  5-MIN KDBQ 090740Z AUTO 18009KT 5SM BR CLR M01/M03 A3000 1010 85 -600 180/09 RMK AO2 TSNO
94908KDBQ DBQ20070309014510803/09/07 01:45:31  5-MIN KDBQ 090745Z AUTO 18009KT 5SM HZ CLR M01/M03 A3000 1010 81 -600 170/09 RMK AO2 TSNO
94908KDBQ DBQ20070309015012503/09/07 01:50:31  5-MIN KDBQ 090750Z AUTO 18009KT 5SM BR CLR M01/M03 A3000 1010 85 -600 180/09 RMK AO2 SLP170 T10111033 TSNO
94908KDBQ DBQ20070309015512503/09/07 01:55:31  5-MIN KDBQ 090755Z AUTO 19009KT 5SM BR CLR M01/M03 A2999 1010 85 -600 190/09 RMK AO2 SLP169 T10111033 TSNO
94908KDBQ DBQ20070309020010803/09/07 02:00:31  5-MIN KDBQ 090800Z AUTO 19008KT 5SM BR CLR M01/M03 A2999 1010 85 -600 180/08 RMK AO2 TSNO
94908KDBQ DBQ20070309020510803/09/07 02:05:31  5-MIN KDBQ 090805Z AUTO 19009KT 5SM BR CLR M01/M03 A2999 1020 85 -600 190/09 RMK AO2 TSNO
94908KDBQ DBQ20070309021010803/09/07 02:10:31  5-MIN KDBQ 090810Z AUTO 19009KT 5SM BR CLR M01/M03 A2999 1020 85 -600 190/09 RMK AO2 TSNO
94908KDBQ DBQ20070309021510803/09/07 02:15:31  5-MIN KDBQ 090815Z AUTO 20009KT 5SM BR CLR M01/M03 A2999 1020 85 -600 200/09 RMK AO2 TSNO
94908KDBQ DBQ20070309022010803/09/07 02:20:31  5-MIN KDBQ 090820Z AUTO 19009KT 4SM BR CLR M01/M03 A2998 1020 85 -600 190/09 RMK AO2 TSNO
94908KDBQ DBQ20070309022510803/09/07 02:25:31  5-MIN KDBQ 090825Z AUTO 19009KT 4SM BR CLR M01/M03 A2998 1020 85 -600 190/09 RMK AO2 TSNO
94908KDBQ DBQ20070309023010803/09/07 02:30:31  5-MIN KDBQ 090830Z AUTO 19010KT 4SM BR CLR M01/M03 A2998 1020 85 -600 190/10 RMK AO2 TSNO
94908KDBQ DBQ20070309023510803/09/07 02:35:31  5-MIN KDBQ 090835Z AUTO 19009KT 4SM BR CLR M01/M03 A2998 1030 85 -600 190/09 RMK AO2 TSNO
94908KDBQ DBQ20070309024010803/09/07 02:40:31  5-MIN KDBQ 090840Z AUTO 19009KT 4SM BR CLR M01/M03 A2998 1030 85 -600 190/09 RMK AO2 TSNO
94908KDBQ DBQ20070309024510803/09/07 02:45:31  5-MIN KDBQ 090845Z AUTO 19009KT 4SM BR CLR M01/M03 A2997 1030 85 -600 190/09 RMK AO2 TSNO
94908KDBQ DBQ20070309025013103/09/07 02:50:31  5-MIN KDBQ 090850Z AUTO 18010KT 4SM BR CLR M01/M03 A2997 1030 85 -600 180/10 RMK AO2 SLP162 T10111033 58010 TSNO
94908KDBQ DBQ20070309025513103/09/07 02:55:31  5-MIN KDBQ 090855Z AUTO 18010KT 4SM BR CLR M01/M03 A2997 1030 85 -600 180/10 RMK AO2 SLP162 T10111033 58012 TSNO
94908KDBQ DBQ20070309030010803/09/07 03:00:31  5-MIN KDBQ 090900Z AUTO 18010KT 4SM BR CLR M01/M03 A2997 1030 85 -600 180/10 RMK AO2 TSNO
94908KDBQ DBQ20070309030510803/09/07 03:05:31  5-MIN KDBQ 090905Z AUTO 18010KT 4SM BR CLR M01/M03 A2997 1030 85 -600 180/10 RMK AO2 TSNO
94908KDBQ DBQ20070309031010803/09/07 03:10:31  5-MIN KDBQ 090910Z AUTO 18010KT 4SM BR CLR M01/M03 A2997 1030 85 -600 180/10 RMK AO2 TSNO
94908KDBQ DBQ20070309031510803/09/07 03:15:31  5-MIN KDBQ 090915Z AUTO 18010KT 4SM BR CLR M01/M03 A2997 1030 85 -600 180/10 RMK AO2 TSNO
94908KDBQ DBQ20070309032010803/09/07 03:20:31  5-MIN KDBQ 090920Z AUTO 18010KT 4SM BR CLR M01/M03 A2997 1040 85 -600 180/10 RMK AO2 TSNO
94908KDBQ DBQ20070309032510803/09/07 03:25:31  5-MIN KDBQ 090925Z AUTO 18010KT 4SM BR CLR M01/M03 A2997 1040 85 -600 180/10 RMK AO2 TSNO
94908KDBQ DBQ20070309033010803/09/07 03:30:31  5-MIN KDBQ 090930Z AUTO 18009KT 4SM BR CLR M01/M03 A2997 1040 85 -600 180/09 RMK AO2 TSNO
94908KDBQ DBQ20070309033510803/09/07 03:35:31  5-MIN KDBQ 090935Z AUTO 18008KT 4SM BR CLR M01/M03 A2996 1040 85 -600 180/08 RMK AO2 TSNO
94908KDBQ DBQ20070309034010803/09/07 03:40:31  5-MIN KDBQ 090940Z AUTO 18009KT 4SM BR CLR M01/M03 A2996 1040 85 -600 180/09 RMK AO2 TSNO
94908KDBQ DBQ20070309034510803/09/07 03:45:31  5-MIN KDBQ 090945Z AUTO 19009KT 4SM BR CLR M01/M03 A2996 1040 85 -600 190/09 RMK AO2 TSNO
94908KDBQ DBQ20070309035012503/09/07 03:50:31  5-MIN KDBQ 090950Z AUTO 18010KT 4SM BR CLR M01/M03 A2996 1040 85 -600 180/10 RMK AO2 SLP158 T10111033 TSNO
94908KDBQ DBQ20070309035512503/09/07 03:55:31  5-MIN KDBQ 090955Z AUTO 18009KT 4SM BR CLR M01/M03 A2996 1040 85 -600 180/09 RMK AO2 SLP157 T10111033 TSNO
94908KDBQ DBQ20070309040010803/09/07 04:00:31  5-MIN KDBQ 091000Z AUTO 18009KT 4SM BR CLR M01/M03 A2996 1040 85 -600 180/09 RMK AO2 TSNO
94908KDBQ DBQ20070309040510803/09/07 04:05:31  5-MIN KDBQ 091005Z AUTO 18009KT 4SM BR CLR M01/M03 A2996 1040 85 -600 180/09 RMK AO2 TSNO
94908KDBQ DBQ20070309041010803/09/07 04:10:31  5-MIN KDBQ 091010Z AUTO 18009KT 4SM BR CLR M01/M03 A2996 1040 85 -600 180/09 RMK AO2 TSNO
94908KDBQ DBQ20070309041510803/09/07 04:15:31  5-MIN KDBQ 091015Z AUTO 18009KT 4SM BR CLR M01/M03 A2995 1050 85 -600 180/09 RMK AO2 TSNO
94908KDBQ DBQ20070309042010803/09/07 04:20:31  5-MIN KDBQ 091020Z AUTO 18009KT 4SM BR CLR M01/M03 A2996 1050 85 -600 180/09 RMK AO2 TSNO
94908KDBQ DBQ20070309042510803/09/07 04:25:31  5-MIN KDBQ 091025Z AUTO 18010KT 4SM BR CLR M01/M03 A2995 1050 85 -500 180/10 RMK AO2 TSNO
94908KDBQ DBQ20070309043010803/09/07 04:30:31  5-MIN KDBQ 091030Z AUTO 18010KT 4SM BR CLR M01/M03 A2995 1050 85 -500 180/10 RMK AO2 TSNO
94908KDBQ DBQ20070309043510803/09/07 04:35:31  5-MIN KDBQ 091035Z AUTO 18009KT 4SM BR CLR M01/M03 A2996 1050 85 -500 180/09 RMK AO2 TSNO
94908KDBQ DBQ20070309044010803/09/07 04:40:31  5-MIN KDBQ 091040Z AUTO 18009KT 4SM BR CLR M01/M03 A2996 1050 85 -500 170/09 RMK AO2 TSNO
94908KDBQ DBQ20070309044510803/09/07 04:45:31  5-MIN KDBQ 091045Z AUTO 17009KT 4SM BR CLR M01/M03 A2995 1050 85 -500 170/09 RMK AO2 TSNO
94908KDBQ DBQ20070309045012503/09/07 04:50:31  5-MIN KDBQ 091050Z AUTO 17009KT 4SM BR CLR M01/M03 A2995 1050 85 -500 170/09 RMK AO2 SLP154 T10061028 TSNO
94908KDBQ DBQ20070309045512503/09/07 04:55:31  5-MIN KDBQ 091055Z AUTO 17009KT 4SM BR CLR M01/M03 A2995 1050 85 -500 170/09 RMK AO2 SLP154 T10061028 TSNO
94908KDBQ DBQ20070309050010803/09/07 05:00:31  5-MIN KDBQ 091100Z AUTO 17010KT 4SM BR CLR M01/M03 A2995 1050 85 -500 170/10 RMK AO2 TSNO
94908KDBQ DBQ20070309050510803/09/07 05:05:31  5-MIN KDBQ 091105Z AUTO 17009KT 4SM BR CLR M01/M03 A2995 1050 85 -500 170/09 RMK AO2 TSNO
94908KDBQ DBQ20070309051010803/09/07 05:10:31  5-MIN KDBQ 091110Z AUTO 18008KT 4SM BR CLR M01/M03 A2995 1050 85 -500 170/08 RMK AO2 TSNO
94908KDBQ DBQ20070309051510803/09/07 05:15:31  5-MIN KDBQ 091115Z AUTO 17008KT 4SM BR CLR M01/M03 A2995 1050 85 -500 170/08 RMK AO2 TSNO
94908KDBQ DBQ20070309052010803/09/07 05:20:31  5-MIN KDBQ 091120Z AUTO 17007KT 4SM BR CLR M01/M03 A2995 1050 85 -500 170/07 RMK AO2 TSNO
94908KDBQ DBQ20070309052510803/09/07 05:25:31  5-MIN KDBQ 091125Z AUTO 17007KT 4SM BR CLR M01/M03 A2995 1050 85 -500 170/07 RMK AO2 TSNO
94908KDBQ DBQ20070309053010803/09/07 05:30:31  5-MIN KDBQ 091130Z AUTO 18006KT 4SM BR CLR M01/M03 A2995 1050 85 -500 170/06 RMK AO2 TSNO
94908KDBQ DBQ20070309053510803/09/07 05:35:31  5-MIN KDBQ 091135Z AUTO 17007KT 4SM BR CLR M01/M03 A2995 1050 85 -500 170/07 RMK AO2 TSNO
94908KDBQ DBQ20070309054010803/09/07 05:40:31  5-MIN KDBQ 091140Z AUTO 17007KT 4SM BR CLR M01/M03 A2995 1060 85 -500 170/07 RMK AO2 TSNO
94908KDBQ DBQ20070309054510803/09/07 05:45:31  5-MIN KDBQ 091145Z AUTO 16008KT 4SM BR CLR M01/M03 A2994 1060 85 -500 160/08 RMK AO2 TSNO
94908KDBQ DBQ20070309055014303/09/07 05:50:31  5-MIN KDBQ 091150Z AUTO 16008KT 4SM BR CLR M01/M03 A2994 1060 85 -500 160/08 RMK AO2 SLP151 T10061028 11006 21011 58012 TSNO
94908KDBQ DBQ20070309055514203/09/07 05:55:31  5-MIN KDBQ 091155Z AUTO 17008KT 4SM HZ CLR 00/M03 A2994 1060 81 -400 160/08 RMK AO2 SLP151 T00001028 10000 21011 56010 TSNO
94908KDBQ DBQ20070309115514003/09/07 11:55:31  5-MIN KDBQ 091755Z 20009KT 4SM HZ BKN070 OVC090 04/00 A2991 1090 76 100 190/09 RMK AO2 SLP137 T00390000 10044 21006 58007
94908KDBQ DBQ20070309120009803/09/07 12:00:31  5-MIN KDBQ 091800Z 20008KT 4SM HZ OVC070 04/00 A2990 1100 76 100 200/08 RMK AO2
94908KDBQ DBQ20070309120509803/09/07 12:05:31  5-MIN KDBQ 091805Z 20009KT 4SM HZ OVC065 04/00 A2990 1090 76 100 200/09 RMK AO2
94908KDBQ DBQ20070309121009803/09/07 12:10:31  5-MIN KDBQ 091810Z 20009KT 3SM HZ OVC065 04/01 A2990 1090 79 100 200/09 RMK AO2
94908KDBQ DBQ20070309121509803/09/07 12:15:31  5-MIN KDBQ 091815Z 21008KT 3SM HZ OVC070 04/01 A2990 1100 79 100 210/08 RMK AO2
94908KDBQ DBQ20070309122009803/09/07 12:20:31  5-MIN KDBQ 091820Z 21007KT 3SM HZ OVC065 04/01 A2990 1100 79 100 210/07 RMK AO2
94908KDBQ DBQ20070309122511803/09/07 12:25:31  5-MIN KDBQ 091825Z 22005KT 3SM -RA FEW047 OVC065 04/01 A2989 1100 79 100 210/05 RMK AO2 RAB25 P0000
94908KDBQ DBQ20070309123011803/09/07 12:30:31  5-MIN KDBQ 091830Z 24005KT 3SM -RA SCT038 OVC065 04/01 A2989 1100 82 100 240/05 RMK AO2 RAB25 P0000
94908KDBQ DBQ20070309123511603/09/07 12:35:31  5-MIN KDBQ 091835Z 27005KT 3SM -RA FEW036 OVC065 03/01 A2989 1100 82 0 260/05 RMK AO2 RAB25 P0000
94908KDBQ DBQ20070309124011603/09/07 12:40:31  5-MIN KDBQ 091840Z 24006KT 3SM -RA FEW036 OVC065 03/01 A2989 1110 82 0 240/06 RMK AO2 RAB25 P0001
94908KDBQ DBQ20070309124511903/09/07 12:45:31  5-MIN KDBQ 091845Z 22005KT 3SM -RA BR FEW036 OVC060 03/01 A2989 1110 85 0 220/05 RMK AO2 RAB25 P0001
94908KDBQ DBQ20070309125012303/09/07 12:50:31  5-MIN KDBQ 091850Z 23006KT 2 1/2SM -RA BR FEW041 OVC060 03/01 A2989 1110 85 0 220/06 RMK AO2 RAB25 P0001
94908KDBQ DBQ20070309125514003/09/07 12:55:31  5-MIN KDBQ 091855Z 24005KT 2 1/2SM -RA BR FEW039 OVC060 03/01 A2989 1110 85 0 240/05 RMK AO2 RAB25 SLP131 P0001 T00330011
94908KDBQ DBQ20070309130011703/09/07 13:00:31  5-MIN KDBQ 091900Z 23005KT 2 1/2SM -RA BR FEW033 OVC060 03/01 A2988 1110 85 0 230/05 RMK AO2 P0000
94908KDBQ DBQ20070309130511703/09/07 13:05:31  5-MIN KDBQ 091905Z 23005KT 2 1/2SM -RA BR FEW027 BKN060 03/01 A2988 1120 85 0 230/05 RMK AO2 P0001
94908KDBQ DBQ20070309131011703/09/07 13:10:31  5-MIN KDBQ 091910Z 23005KT 2 1/2SM -RA BR FEW027 BKN060 03/01 A2988 1120 85 0 230/05 RMK AO2 P0001
94908KDBQ DBQ20070309131511703/09/07 13:15:31  5-MIN KDBQ 091915Z 22004KT 2 1/2SM -RA BR FEW034 OVC060 03/02 A2988 1120 89 0 220/04 RMK AO2 P0001
94908KDBQ DBQ20070309132011903/09/07 13:20:31  5-MIN KDBQ 091920Z 17003KT 2 1/2SM -RA BR FEW029 BKN060 04/02 A2987 1120 85 100 170/03 RMK AO2 P0001
94908KDBQ DBQ20070309132511903/09/07 13:25:31  5-MIN KDBQ 091925Z 13003KT 2 1/2SM -RA BR SCT027 BKN060 04/02 A2987 1130 89 100 130/03 RMK AO2 P0001
94908KDBQ DBQ20070309133011503/09/07 13:30:31  5-MIN KDBQ 091930Z 15004KT 2SM -RA BR FEW027 BKN060 04/02 A2987 1130 89 100 150/04 RMK AO2 P0002
94908KDBQ DBQ20070309133511303/09/07 13:35:31  5-MIN KDBQ 091935Z 16008KT 2SM -RA BR FEW030 OVC065 03/02 A2987 1130 89 0 160/08 RMK AO2 P0002
94908KDBQ DBQ20070309134011303/09/07 13:40:31  5-MIN KDBQ 091940Z 15004KT 2SM -RA BR FEW032 OVC065 03/02 A2986 1130 89 0 150/04 RMK AO2 P0002
94908KDBQ DBQ20070309134511703/09/07 13:45:31  5-MIN KDBQ 091945Z 14004KT 1 3/4SM -RA BR SCT032 OVC065 03/02 A2986 1130 89 0 140/04 RMK AO2 P0002
94908KDBQ DBQ20070309135013403/09/07 13:50:31  5-MIN KDBQ 091950Z 16003KT 1 3/4SM -RA BR SCT034 OVC065 03/02 A2986 1130 92 0 150/03 RMK AO2 SLP123 P0002 T00280017
94908KDBQ DBQ20070309135513403/09/07 13:55:31  5-MIN KDBQ 091955Z 16006KT 1 1/2SM -RA BR FEW034 OVC060 03/02 A2987 1130 89 0 160/06 RMK AO2 SLP124 P0003 T00330017
94908KDBQ DBQ20070309140011703/09/07 14:00:31  5-MIN KDBQ 092000Z 17009KT 1 1/2SM -RA BR FEW034 OVC060 03/02 A2987 1120 92 0 170/09 RMK AO2 P0000
94908KDBQ DBQ20070309140512403/09/07 14:05:31  5-MIN KDBQ 092005Z 18012KT 1 1/4SM -RA BR FEW036 SCT044 OVC065 03/01 A2988 1110 89 0 180/12 RMK AO2 P0000
94908KDBQ DBQ20070309141013403/09/07 14:10:31  5-MIN KDBQ 092010Z 17008KT 1 1/4SM UP BR FEW036 SCT044 OVC060 03/01 A2988 1120 89 0 170/08 RMK AO2 RAE06UPB06 P0000
94908KDBQ DBQ20070309141512203/09/07 14:15:31  5-MIN KDBQ 092015Z 18009KT 1SM -RA BR FEW044 OVC060 03/02 A2987 1120 92 0 180/09 RMK AO2 UPB06E13 P0000
94908KDBQ DBQ20070309142012903/09/07 14:20:31  5-MIN KDBQ 092020Z 17008KT 1SM -RA BR FEW036 SCT045 OVC060 03/02 A2987 1120 92 0 170/08 RMK AO2 UPB06E13 P0001
94908KDBQ DBQ20070309142512103/09/07 14:25:31  5-MIN KDBQ 092025Z 17007KT 1SM RA BR SCT040 OVC060 03/02 A2987 1130 92 0 170/07 RMK AO2 UPB06E13 P0002
94908KDBQ DBQ20070309143012903/09/07 14:30:31  5-MIN KDBQ 092030Z 16005KT 1SM -RA BR FEW037 SCT047 OVC060 03/02 A2986 1130 92 0 160/05 RMK AO2 UPB06E13 P0003
94908KDBQ DBQ20070309143512903/09/07 14:35:31  5-MIN KDBQ 092035Z 18004KT 1SM -RA BR FEW032 SCT043 OVC060 03/02 A2987 1130 92 0 180/04 RMK AO2 UPB06E13 P0003
94908KDBQ DBQ20070309144012903/09/07 14:40:31  5-MIN KDBQ 092040Z 22003KT 1SM UP BR SCT030 OVC060 03/02 A2986 1130 92 0 220/03 RMK AO2 RAE40UPB06E13B40 P0004
94908KDBQ DBQ20070309144513603/09/07 14:45:31  5-MIN KDBQ 092045Z 19003KT 1SM UP BR SCT030 SCT049 OVC060 03/02 A2986 1130 96 0 190/03 RMK AO2 RAE40UPB06E13B40 P0004
94908KDBQ DBQ20070309145016503/09/07 14:50:31  5-MIN KDBQ 092050Z 17003KT 1SM UP BR SCT030 SCT047 OVC060 03/02 A2986 1130 96 0 170/03 RMK AO2 RAE40UPB06E13B40 SLP122 P0004 60008 T00280022 58007
94908KDBQ DBQ20070309145516703/09/07 14:55:31  5-MIN KDBQ 092055Z 00000KT 1/2SM UP FG SCT026 SCT050 OVC060 03/02 A2986 1140 96 0 000/00 RMK AO2 RAE40UPB06E13B40 SLP120 P0004 60008 T00280022 56017
94908KDBQ DBQ20070309150012103/09/07 15:00:31  5-MIN KDBQ 092100Z 00000KT 1/2SM UP FG SCT026 SCT050 OVC060 03/02 A2985 1140 96 0 000/00 RMK AO2 P0000
94908KDBQ DBQ20070309150512103/09/07 15:05:31  5-MIN KDBQ 092105Z 00000KT 1/2SM UP FG SCT024 SCT049 OVC060 03/02 A2985 1140 96 0 000/00 RMK AO2 P0001
94908KDBQ DBQ20070309151012103/09/07 15:10:31  5-MIN KDBQ 092110Z 00000KT 1/2SM UP FG FEW024 SCT049 OVC060 03/02 A2985 1140 96 0 000/00 RMK AO2 P0001
94908KDBQ DBQ20070309151512103/09/07 15:15:31  5-MIN KDBQ 092115Z 05003KT 1/2SM UP FG FEW024 SCT044 OVC060 03/02 A2985 1140 96 0 050/03 RMK AO2 P0001
94908KDBQ DBQ20070309152013603/09/07 15:20:31  5-MIN KDBQ 092120Z 15003KT 1/2SM -RA FG FEW024 BKN050 OVC060 02/02 A2986 1130 96 -100 150/03 RMK AO2 UPE19RAB19 P0001
94908KDBQ DBQ20070309152513303/09/07 15:25:31  5-MIN KDBQ 092125Z 19003KT 1/2SM -RA FG FEW022 BKN040 OVC060 03/02 A2987 1130 96 0 190/03 RMK AO2 UPE19RAB19 P0002
94908KDBQ DBQ20070309153013303/09/07 15:30:31  5-MIN KDBQ 092130Z 20007KT 1/2SM -RA FG BKN040 OVC055 03/02 A2988 1120 92 0 200/07 RMK AO2 UPE19RAB19 PRESRR P0003
94908KDBQ DBQ20070309153513603/09/07 15:35:31  5-MIN KDBQ 092135Z 23003KT 1/4SM -RA FG FEW005 BKN040 OVC060 02/02 A2987 1120 96 -100 230/03 RMK AO2 UPE19RAB19 P0003
94908KDBQ DBQ20070309154013603/09/07 15:40:31  5-MIN KDBQ 092140Z 22004KT 1/4SM -RA FG BKN005 BKN038 OVC048 02/02 A2988 1120 96 -100 220/04 RMK AO2 UPE19RAB19 P0004
94908KDBQ DBQ20070309154512803/09/07 15:45:31  5-MIN KDBQ 092145Z 27003KT 1/4SM RA FG BKN003 OVC038 02/02 A2987 1130 96 -100 270/03 RMK AO2 UPE19RAB19 P0004
94908KDBQ DBQ20070309155014603/09/07 15:50:31  5-MIN KDBQ 092150Z 26004KT 1/4SM -RA FG BKN003 OVC038 02/02 A2987 1120 96 -100 260/04 RMK AO2 UPE19RAB19 SLP127 P0005 T00220017
94908KDBQ DBQ20070309155514703/09/07 15:55:31  5-MIN KDBQ 092155Z 26005KT M1/4SM -RA FG BKN003 OVC036 02/01 A2988 1120 92 -100 260/05 RMK AO2 UPE19RAB19 SLP129 P0005 T00220011
94908KDBQ DBQ20070309160011203/09/07 16:00:31  5-MIN KDBQ 092200Z 23004KT M1/4SM -RA FG OVC003 02/02 A2988 1120 96 -100 230/04 RMK AO2 P0001
94908KDBQ DBQ20070309160511203/09/07 16:05:31  5-MIN KDBQ 092205Z 24004KT M1/4SM -RA FG OVC001 02/02 A2988 1120 96 -100 240/04 RMK AO2 P0001
94908KDBQ DBQ20070309161011203/09/07 16:10:31  5-MIN KDBQ 092210Z 24004KT M1/4SM -RA FG OVC001 02/02 A2988 1110 96 -100 240/04 RMK AO2 P0001
94908KDBQ DBQ20070309161511103/09/07 16:15:31  5-MIN KDBQ 092215Z 22005KT M1/4SM -RA FG VV001 02/02 A2989 1110 96 -100 220/05 RMK AO2 P0002
94908KDBQ DBQ20070309162011103/09/07 16:20:31  5-MIN KDBQ 092220Z 23006KT M1/4SM -RA FG VV001 02/02 A2989 1110 96 -100 230/06 RMK AO2 P0002
94908KDBQ DBQ20070309162511903/09/07 16:25:31  5-MIN KDBQ 092225Z 25006KT M1/4SM -RA FG BKN001 OVC009 02/02 A2989 1110 96 -100 250/06 RMK AO2 P0002
94908KDBQ DBQ20070309163012903/09/07 16:30:31  5-MIN KDBQ 092230Z 24005KT M1/4SM UP FG BKN001 OVC009 02/02 A2989 1110 96 -100 240/05 RMK AO2 RAE28UPB28 P0002
94908KDBQ DBQ20070309163512103/09/07 16:35:31  5-MIN KDBQ 092235Z 25005KT M1/4SM UP FG VV001 02/02 A2989 1110 96 -100 250/05 RMK AO2 RAE28UPB28 P0002
94908KDBQ DBQ20070309164012103/09/07 16:40:31  5-MIN KDBQ 092240Z 26007KT M1/4SM UP FG VV001 02/02 A2989 1110 96 -100 260/07 RMK AO2 RAE28UPB28 P0003
94908KDBQ DBQ20070309164512103/09/07 16:45:31  5-MIN KDBQ 092245Z 26006KT M1/4SM UP FG VV001 02/02 A2989 1110 96 -100 260/06 RMK AO2 RAE28UPB28 P0003
94908KDBQ DBQ20070309165013803/09/07 16:50:31  5-MIN KDBQ 092250Z 25004KT M1/4SM UP FG VV001 02/02 A2989 1110 96 -100 250/04 RMK AO2 RAE28UPB28 SLP131 P0003 T00220017
94908KDBQ DBQ20070309165514603/09/07 16:55:31  5-MIN KDBQ 092255Z 26004KT M1/4SM UP FG BKN001 OVC018 02/02 A2988 1110 96 -100 260/04 RMK AO2 RAE28UPB28 SLP130 P0003 T00220017
94908KDBQ DBQ20070309170013003/09/07 17:00:31  5-MIN KDBQ 092300Z 29006KT M1/4SM -RA FG BKN001 OVC018 02/02 A2988 1110 96 -100 290/06 RMK AO2 UPE00RAB00 P0000
94908KDBQ DBQ20070309170513603/09/07 17:05:31  5-MIN KDBQ 092305Z 29006KT 1/4SM -RA FG BKN001 BKN018 OVC031 02/02 A2988 1110 96 -100 290/06 RMK AO2 UPE00RAB00 P0001
94908KDBQ DBQ20070309171013303/09/07 17:10:31  5-MIN KDBQ 092310Z 29006KT 1/2SM UP FG SCT001 SCT018 OVC031 02/02 A2988 1110 96 -100 290/06 RMK AO2 RAB00E10 P0001
94908KDBQ DBQ20070309171513303/09/07 17:15:31  5-MIN KDBQ 092315Z 29004KT 1/2SM UP FG SCT001 BKN018 OVC031 02/02 A2989 1110 96 -100 290/04 RMK AO2 RAB00E10 P0001
94908KDBQ DBQ20070309172013503/09/07 17:20:31  5-MIN KDBQ 092320Z 29007KT 1/2SM FG SCT001 BKN018 OVC033 02/02 A2989 1110 96 -100 290/07 RMK AO2 UPE17RAB00E10 P0001
94908KDBQ DBQ20070309172513503/09/07 17:25:31  5-MIN KDBQ 092325Z 29009KT 1/2SM FG SCT001 BKN028 OVC033 02/02 A2989 1100 96 -100 280/09 RMK AO2 UPE17RAB00E10 P0001
94908KDBQ DBQ20070309173012803/09/07 17:30:31  5-MIN KDBQ 092330Z 28007KT 3/4SM BR FEW001 OVC028 02/02 A2989 1100 96 -100 280/07 RMK AO2 UPE17RAB00E10 P0001
94908KDBQ DBQ20070309173512803/09/07 17:35:31  5-MIN KDBQ 092335Z 28005KT 3/4SM BR FEW001 OVC028 02/02 A2989 1110 96 -100 270/05 RMK AO2 UPE17RAB00E10 P0001
94908KDBQ DBQ20070309174012803/09/07 17:40:31  5-MIN KDBQ 092340Z 27005KT 3/4SM BR FEW001 OVC028 02/02 A2989 1110 96 -100 270/05 RMK AO2 UPE17RAB00E10 P0001
94908KDBQ DBQ20070309174513403/09/07 17:45:31  5-MIN KDBQ 092345Z 27005KT 3/4SM UP BR FEW001 OVC028 02/02 A2989 1110 96 -100 270/05 RMK AO2 UPE17B43RAB00E10 P0001
94908KDBQ DBQ20070309175012703/09/07 17:50:31  5-MIN KDBQ 092350Z 28004KT 3/4SM UP BR OVC030 02/02 A2989 1110 96 -100 280/04 RMK AO2 UPE17B43RAB00E10 P0001
94908KDBQ DBQ20070309175516803/09/07 17:55:31  5-MIN KDBQ 092355Z 00000KT 1/2SM UP FG OVC033 02/02 A2989 1110 96 -100 000/00 RMK AO2 UPE17B43RAB00E10 SLP130 P0001 60017 T00220017 10039 20022 50002
94908KDBQ DBQ20070309180011003/09/07 18:00:31  5-MIN KDBQ 100000Z 00000KT 1/2SM UP FG OVC033 02/02 A2989 1110 96 -100 000/00 RMK AO2 P0000
94908KDBQ DBQ20070309180511003/09/07 18:05:31  5-MIN KDBQ 100005Z 26005KT 1/2SM UP FG OVC034 02/02 A2989 1110 96 -100 260/05 RMK AO2 P0000
94908KDBQ DBQ20070309181011003/09/07 18:10:31  5-MIN KDBQ 100010Z 30008KT 3/4SM UP BR OVC034 02/01 A2990 1100 92 -100 300/08 RMK AO2 P0001
94908KDBQ DBQ20070309181512503/09/07 18:15:31  5-MIN KDBQ 100015Z 29005KT 1SM BR FEW002 BKN036 OVC042 02/01 A2990 1090 92 -100 290/05 RMK AO2 UPE13 P0001
94908KDBQ DBQ20070309182012503/09/07 18:20:31  5-MIN KDBQ 100020Z 29006KT 1SM BR FEW002 BKN036 OVC044 02/01 A2990 1100 92 -100 290/06 RMK AO2 UPE13 P0001
94908KDBQ DBQ20070309182512903/09/07 18:25:31  5-MIN KDBQ 100025Z 28006KT 1 1/4SM BR FEW002 BKN044 OVC050 02/02 A2991 1090 96 -100 280/06 RMK AO2 UPE13 P0001
94908KDBQ DBQ20070309183012903/09/07 18:30:31  5-MIN KDBQ 100030Z 27004KT 1 1/4SM BR FEW002 BKN036 OVC055 02/02 A2991 1090 96 -100 270/04 RMK AO2 UPE13 P0001
94908KDBQ DBQ20070309183512903/09/07 18:35:31  5-MIN KDBQ 100035Z 27004KT 1 1/2SM BR SCT002 BKN036 OVC055 02/02 A2991 1090 96 -100 270/04 RMK AO2 UPE13 P0001
94908KDBQ DBQ20070309184012903/09/07 18:40:31  5-MIN KDBQ 100040Z 00000KT 1 1/2SM BR SCT002 BKN044 OVC060 02/02 A2991 1090 96 -100 000/00 RMK AO2 UPE13 P0001
94908KDBQ DBQ20070309184512903/09/07 18:45:31  5-MIN KDBQ 100045Z 27005KT 1 1/2SM BR BKN002 BKN044 OVC055 02/02 A2991 1090 96 -100 270/05 RMK AO2 UPE13 P0001
94908KDBQ DBQ20070309185013903/09/07 18:50:31  5-MIN KDBQ 100050Z 28006KT 1 1/2SM BR BKN002 OVC055 02/01 A2991 1090 92 -100 280/06 RMK AO2 UPE13 SLP138 P0001 T00220011
94908KDBQ DBQ20070309185513903/09/07 18:55:31  5-MIN KDBQ 100055Z 28006KT 1 1/2SM BR BKN002 OVC065 02/01 A2991 1090 92 -100 280/06 RMK AO2 UPE13 SLP139 P0001 T00220011
94908KDBQ DBQ20070309190011003/09/07 19:00:31  5-MIN KDBQ 100100Z 28006KT 1 1/4SM BR BKN002 OVC065 02/01 A2991 1090 92 -100 280/06 RMK AO2
94908KDBQ DBQ20070309190511003/09/07 19:05:31  5-MIN KDBQ 100105Z 27006KT 1 1/4SM BR BKN002 OVC065 02/01 A2991 1080 92 -100 270/06 RMK AO2
94908KDBQ DBQ20070309191011003/09/07 19:10:31  5-MIN KDBQ 100110Z 26005KT 1 1/4SM BR BKN002 OVC065 02/01 A2991 1090 96 -200 260/05 RMK AO2
94908KDBQ DBQ20070309191511003/09/07 19:15:31  5-MIN KDBQ 100115Z 26004KT 1 1/4SM BR SCT002 OVC065 02/01 A2991 1080 96 -200 260/04 RMK AO2
94908KDBQ DBQ20070309192011003/09/07 19:20:31  5-MIN KDBQ 100120Z 00000KT 1 1/4SM BR BKN002 OVC065 02/01 A2991 1090 96 -200 000/00 RMK AO2
94908KDBQ DBQ20070309192511003/09/07 19:25:31  5-MIN KDBQ 100125Z VRB03KT 1 1/4SM BR BKN002 OVC065 02/01 A2991 1090 92 -100 VRB/03 RMK AO2
94908KDBQ DBQ20070309193011003/09/07 19:30:31  5-MIN KDBQ 100130Z 00000KT 1 1/4SM BR BKN002 OVC065 02/01 A2991 1090 92 -100 000/00 RMK AO2
94908KDBQ DBQ20070309193511003/09/07 19:35:31  5-MIN KDBQ 100135Z 27003KT 1 1/2SM BR BKN002 OVC065 02/01 A2991 1090 96 -200 270/03 RMK AO2
94908KDBQ DBQ20070309194012003/09/07 19:40:31  5-MIN KDBQ 100140Z AUTO 26004KT 1 1/2SM BR BKN075 OVC110 02/01 A2991 1090 96 -200 260/04 RMK AO2 TSNO
94908KDBQ DBQ20070309194512003/09/07 19:45:31  5-MIN KDBQ 100145Z AUTO 25004KT 1 1/2SM BR BKN075 OVC110 02/01 A2992 1080 92 -200 250/04 RMK AO2 TSNO
94908KDBQ DBQ20070309195013703/09/07 19:50:31  5-MIN KDBQ 100150Z AUTO 25004KT 1 1/2SM BR SCT075 OVC110 02/01 A2991 1080 92 -200 250/04 RMK AO2 SLP140 T00170006 TSNO
94908KDBQ DBQ20070309195513703/09/07 19:55:31  5-MIN KDBQ 100155Z AUTO VRB03KT 1 1/2SM BR SCT075 BKN110 02/01 A2992 1080 92 -200 VRB/03 RMK AO2 SLP141 T00170006 TSNO
94908KDBQ DBQ20070309200012003/09/07 20:00:31  5-MIN KDBQ 100200Z AUTO 22003KT 1 1/2SM BR FEW075 BKN110 02/01 A2991 1080 92 -200 220/03 RMK AO2 TSNO
94908KDBQ DBQ20070309200512003/09/07 20:05:31  5-MIN KDBQ 100205Z AUTO VRB04KT 1 1/2SM BR FEW080 SCT110 02/01 A2991 1080 92 -200 VRB/04 RMK AO2 TSNO
94908KDBQ DBQ20070309201011303/09/07 20:10:31  5-MIN KDBQ 100210Z AUTO 21005KT 1 1/2SM BR FEW110 02/01 A2991 1080 92 -200 210/05 RMK AO2 TSNO
94908KDBQ DBQ20070309201511303/09/07 20:15:31  5-MIN KDBQ 100215Z AUTO 21005KT 1 3/4SM BR FEW110 02/01 A2991 1080 92 -200 210/05 RMK AO2 TSNO
94908KDBQ DBQ20070309202011003/09/07 20:20:31  5-MIN KDBQ 100220Z AUTO 23005KT 1 3/4SM BR CLR 02/00 A2991 1080 89 -200 230/05 RMK AO2 TSNO
94908KDBQ DBQ20070309202510603/09/07 20:25:31  5-MIN KDBQ 100225Z AUTO 24005KT 2SM BR CLR 02/00 A2992 1080 89 -200 240/05 RMK AO2 TSNO
94908KDBQ DBQ20070309203011003/09/07 20:30:31  5-MIN KDBQ 100230Z AUTO 26005KT 1 3/4SM BR CLR 01/00 A2992 1080 92 -300 260/05 RMK AO2 TSNO
94908KDBQ DBQ20070309203510603/09/07 20:35:31  5-MIN KDBQ 100235Z AUTO 28006KT 2SM BR CLR 01/00 A2992 1080 92 -300 280/06 RMK AO2 TSNO
94908KDBQ DBQ20070309204010603/09/07 20:40:31  5-MIN KDBQ 100240Z AUTO 28005KT 2SM BR CLR 01/00 A2992 1080 92 -300 280/05 RMK AO2 TSNO
94908KDBQ DBQ20070309204511003/09/07 20:45:31  5-MIN KDBQ 100245Z AUTO 29005KT 2 1/2SM BR CLR 01/00 A2993 1070 92 -300 290/05 RMK AO2 TSNO
94908KDBQ DBQ20070309205013903/09/07 20:50:31  5-MIN KDBQ 100250Z AUTO 31007KT 2 1/2SM BR CLR 02/00 A2992 1080 89 -200 300/07 RMK AO2 SLP144 60001 T00170000 50002 TSNO
94908KDBQ DBQ20070309205513503/09/07 20:55:31  5-MIN KDBQ 100255Z AUTO 30005KT 3SM BR CLR 01/00 A2992 1070 92 -300 300/05 RMK AO2 SLP144 60001 T00110000 51013 TSNO
94908KDBQ DBQ20070309210011003/09/07 21:00:31  5-MIN KDBQ 100300Z AUTO 00000KT 2 1/2SM BR CLR 01/00 A2992 1070 92 -300 000/00 RMK AO2 TSNO
94908KDBQ DBQ20070309210511003/09/07 21:05:31  5-MIN KDBQ 100305Z AUTO 00000KT 2 1/2SM BR CLR 01/00 A2993 1070 92 -300 000/00 RMK AO2 TSNO
94908KDBQ DBQ20070309211011103/09/07 21:10:31  5-MIN KDBQ 100310Z AUTO VRB03KT 2 1/2SM BR CLR 01/M01 A2993 1070 89 -300 VRB/03 RMK AO2 TSNO
94908KDBQ DBQ20070309211511103/09/07 21:15:31  5-MIN KDBQ 100315Z AUTO VRB03KT 2 1/2SM BR CLR 01/M01 A2993 1070 89 -300 VRB/03 RMK AO2 TSNO
94908KDBQ DBQ20070309212010703/09/07 21:20:31  5-MIN KDBQ 100320Z AUTO VRB03KT 2SM BR CLR 01/M01 A2993 1070 89 -300 VRB/03 RMK AO2 TSNO
94908KDBQ DBQ20070309212510703/09/07 21:25:31  5-MIN KDBQ 100325Z AUTO 21003KT 2SM BR CLR 01/M01 A2993 1070 92 -300 210/03 RMK AO2 TSNO
94908KDBQ DBQ20070309213010703/09/07 21:30:31  5-MIN KDBQ 100330Z AUTO 22003KT 2SM BR CLR 01/M01 A2993 1070 92 -300 210/03 RMK AO2 TSNO
94908KDBQ DBQ20070309213510703/09/07 21:35:31  5-MIN KDBQ 100335Z AUTO 00000KT 2SM BR CLR 01/M01 A2993 1070 92 -300 000/00 RMK AO2 TSNO
94908KDBQ DBQ20070309214010703/09/07 21:40:31  5-MIN KDBQ 100340Z AUTO 00000KT 2SM BR CLR 01/M01 A2993 1070 92 -300 000/00 RMK AO2 TSNO
94908KDBQ DBQ20070309214510703/09/07 21:45:31  5-MIN KDBQ 100345Z AUTO 25003KT 2SM BR CLR 01/M01 A2993 1070 92 -300 240/03 RMK AO2 TSNO
94908KDBQ DBQ20070309215012803/09/07 21:50:31  5-MIN KDBQ 100350Z AUTO 22003KT 2 1/2SM BR CLR 01/M01 A2994 1060 89 -300 220/03 RMK AO2 SLP148 T00061011 TSNO
94908KDBQ DBQ20070309215512403/09/07 21:55:31  5-MIN KDBQ 100355Z AUTO VRB03KT 3SM BR CLR 01/M01 A2994 1060 89 -400 VRB/03 RMK AO2 SLP148 T00061011 TSNO
94908KDBQ DBQ20070309220010703/09/07 22:00:31  5-MIN KDBQ 100400Z AUTO VRB05KT 3SM BR CLR 01/M01 A2994 1060 89 -400 VRB/05 RMK AO2 TSNO
94908KDBQ DBQ20070309220510703/09/07 22:05:31  5-MIN KDBQ 100405Z AUTO 30007KT 3SM BR CLR 01/M01 A2994 1060 85 -300 300/07 RMK AO2 TSNO
94908KDBQ DBQ20070309221010703/09/07 22:10:31  5-MIN KDBQ 100410Z AUTO 30009KT 4SM BR CLR 01/M01 A2995 1060 85 -300 300/09 RMK AO2 TSNO
94908KDBQ DBQ20070309221510703/09/07 22:15:31  5-MIN KDBQ 100415Z AUTO 30010KT 4SM BR CLR 01/M01 A2995 1050 85 -300 300/10 RMK AO2 TSNO
94908KDBQ DBQ20070309222010703/09/07 22:20:31  5-MIN KDBQ 100420Z AUTO 30010KT 4SM BR CLR 01/M01 A2995 1050 85 -300 300/10 RMK AO2 TSNO
94908KDBQ DBQ20070309222510703/09/07 22:25:31  5-MIN KDBQ 100425Z AUTO 31009KT 4SM BR CLR 01/M01 A2995 1050 85 -300 310/09 RMK AO2 TSNO
94908KDBQ DBQ20070309223010703/09/07 22:30:31  5-MIN KDBQ 100430Z AUTO 31010KT 4SM BR CLR 01/M01 A2995 1050 85 -300 310/10 RMK AO2 TSNO
94908KDBQ DBQ20070309223510703/09/07 22:35:31  5-MIN KDBQ 100435Z AUTO 31010KT 5SM BR CLR 01/M01 A2995 1050 85 -300 310/10 RMK AO2 TSNO
94908KDBQ DBQ20070309224010703/09/07 22:40:31  5-MIN KDBQ 100440Z AUTO 31011KT 5SM HZ CLR 02/M01 A2995 1050 82 -200 310/11 RMK AO2 TSNO
94908KDBQ DBQ20070309224510703/09/07 22:45:31  5-MIN KDBQ 100445Z AUTO 31011KT 6SM HZ CLR 02/M01 A2995 1050 82 -200 310/11 RMK AO2 TSNO
94908KDBQ DBQ20070309225012403/09/07 22:50:31  5-MIN KDBQ 100450Z AUTO 31011KT 6SM HZ CLR 02/M01 A2995 1050 82 -200 310/11 RMK AO2 SLP153 T00171011 TSNO
94908KDBQ DBQ20070309225512103/09/07 22:55:31  5-MIN KDBQ 100455Z AUTO 31010KT 7SM CLR 02/M01 A2996 1050 82 -200 310/10 RMK AO2 SLP153 T00171011 TSNO
94908KDBQ DBQ20070309230010403/09/07 23:00:31  5-MIN KDBQ 100500Z AUTO 31011KT 7SM CLR 02/M01 A2996 1040 82 -200 310/11 RMK AO2 TSNO
94908KDBQ DBQ20070309230510403/09/07 23:05:31  5-MIN KDBQ 100505Z AUTO 31011KT 7SM CLR 02/M01 A2996 1040 82 -200 310/11 RMK AO2 TSNO
94908KDBQ DBQ20070309231010403/09/07 23:10:31  5-MIN KDBQ 100510Z AUTO 31011KT 7SM CLR 02/M01 A2996 1040 82 -200 310/11 RMK AO2 TSNO
94908KDBQ DBQ20070309231510403/09/07 23:15:31  5-MIN KDBQ 100515Z AUTO 31011KT 7SM CLR 02/M01 A2996 1040 82 -200 310/11 RMK AO2 TSNO
94908KDBQ DBQ20070309232010403/09/07 23:20:31  5-MIN KDBQ 100520Z AUTO 31011KT 7SM CLR 02/M01 A2996 1040 82 -200 310/11 RMK AO2 TSNO
94908KDBQ DBQ20070309232510403/09/07 23:25:31  5-MIN KDBQ 100525Z AUTO 31011KT 7SM CLR 02/M01 A2996 1040 82 -200 310/11 RMK AO2 TSNO
94908KDBQ DBQ20070309233010403/09/07 23:30:31  5-MIN KDBQ 100530Z AUTO 31012KT 8SM CLR 02/M01 A2996 1040 82 -200 310/12 RMK AO2 TSNO
94908KDBQ DBQ20070309233510403/09/07 23:35:31  5-MIN KDBQ 100535Z AUTO 31012KT 9SM CLR 02/M01 A2996 1040 82 -200 310/12 RMK AO2 TSNO
94908KDBQ DBQ20070309234010403/09/07 23:40:31  5-MIN KDBQ 100540Z AUTO 32012KT 9SM CLR 02/M01 A2996 1040 82 -200 320/12 RMK AO2 TSNO
94908KDBQ DBQ20070309234510403/09/07 23:45:31  5-MIN KDBQ 100545Z AUTO 32012KT 9SM CLR 02/M02 A2997 1040 78 -200 320/12 RMK AO2 TSNO
94908KDBQ DBQ20070309235015503/09/07 23:50:31  5-MIN KDBQ 100550Z AUTO 31011KT 9SM CLR 02/M02 A2997 1030 78 -200 310/11 RMK AO2 SLP158 60001 T00171017 10022 20006 400441011 51013 TSNO
94908KDBQ DBQ20070309235515503/09/07 23:55:31  5-MIN KDBQ 100555Z AUTO 31011KT 9SM CLR 02/M02 A2997 1030 78 -200 310/11 RMK AO2 SLP158 60001 T00171017 10022 20006 400441011 51015 TSNO
94908KDBQ DBQ20070310000010503/10/07 00:00:38  5-MIN KDBQ 100600Z AUTO 31010KT 10SM CLR 02/M02 A2997 1030 78 -200 310/10 RMK AO2 TSNO
94908KDBQ DBQ20070310000510503/10/07 00:05:31  5-MIN KDBQ 100605Z AUTO 32010KT 10SM CLR 02/M02 A2997 1030 78 -300 320/10 RMK AO2 TSNO
94908KDBQ DBQ20070310001010503/10/07 00:10:31  5-MIN KDBQ 100610Z AUTO 31010KT 10SM CLR 02/M02 A2997 1030 78 -300 310/10 RMK AO2 TSNO
94908KDBQ DBQ20070310001510503/10/07 00:15:33  5-MIN KDBQ 100615Z AUTO 32010KT 10SM CLR 02/M02 A2997 1030 78 -300 310/10 RMK AO2 TSNO
94908KDBQ DBQ20070310002010503/10/07 00:20:31  5-MIN KDBQ 100620Z AUTO 32011KT 10SM CLR 02/M02 A2998 1030 78 -300 320/11 RMK AO2 TSNO
94908KDBQ DBQ20070310002510503/10/07 00:25:31  5-MIN KDBQ 100625Z AUTO 31011KT 10SM CLR 02/M02 A2998 1030 75 -200 310/11 RMK AO2 TSNO
94908KDBQ DBQ20070310003010503/10/07 00:30:31  5-MIN KDBQ 100630Z AUTO 31012KT 10SM CLR 02/M02 A2998 1020 78 -300 310/12 RMK AO2 TSNO
94908KDBQ DBQ20070310003510503/10/07 00:35:31  5-MIN KDBQ 100635Z AUTO 31012KT 10SM CLR 02/M02 A2998 1020 75 -200 310/12 RMK AO2 TSNO
94908KDBQ DBQ20070310004010503/10/07 00:40:31  5-MIN KDBQ 100640Z AUTO 31011KT 10SM CLR 02/M02 A2998 1020 75 -200 310/11 RMK AO2 TSNO
94908KDBQ DBQ20070310004510503/10/07 00:45:31  5-MIN KDBQ 100645Z AUTO 31012KT 10SM CLR 02/M02 A2999 1020 75 -200 310/12 RMK AO2 TSNO
94908KDBQ DBQ20070310005012203/10/07 00:50:31  5-MIN KDBQ 100650Z AUTO 31012KT 10SM CLR 02/M02 A2999 1010 75 -200 310/12 RMK AO2 SLP166 T00221017 TSNO
94908KDBQ DBQ20070310005512203/10/07 00:55:31  5-MIN KDBQ 100655Z AUTO 31011KT 10SM CLR 02/M02 A2999 1010 72 -200 310/11 RMK AO2 SLP167 T00221022 TSNO
94908KDBQ DBQ20070310010010503/10/07 01:00:31  5-MIN KDBQ 100700Z AUTO 31012KT 10SM CLR 02/M02 A3000 1010 72 -200 310/12 RMK AO2 TSNO
94908KDBQ DBQ20070310010510503/10/07 01:05:31  5-MIN KDBQ 100705Z AUTO 31012KT 10SM CLR 02/M02 A3000 1010 72 -200 310/12 RMK AO2 TSNO
94908KDBQ DBQ20070310011010503/10/07 01:10:31  5-MIN KDBQ 100710Z AUTO 31012KT 10SM CLR 02/M02 A3000 1010 72 -200 310/12 RMK AO2 TSNO
94908KDBQ DBQ20070310011510503/10/07 01:15:31  5-MIN KDBQ 100715Z AUTO 31013KT 10SM CLR 02/M02 A3000 1000 72 -200 310/13 RMK AO2 TSNO
94908KDBQ DBQ20070310012010503/10/07 01:20:31  5-MIN KDBQ 100720Z AUTO 32012KT 10SM CLR 02/M02 A3000 1000 75 -300 320/12 RMK AO2 TSNO
94908KDBQ DBQ20070310012510503/10/07 01:25:31  5-MIN KDBQ 100725Z AUTO 32012KT 10SM CLR 02/M02 A3001 1000 75 -300 320/12 RMK AO2 TSNO
94908KDBQ DBQ20070310013010503/10/07 01:30:31  5-MIN KDBQ 100730Z AUTO 32013KT 10SM CLR 02/M02 A3001 1000 75 -300 320/13 RMK AO2 TSNO
94908KDBQ DBQ20070310013510503/10/07 01:35:31  5-MIN KDBQ 100735Z AUTO 32012KT 10SM CLR 02/M02 A3001 1000 75 -300 320/12 RMK AO2 TSNO
94908KDBQ DBQ20070310014010503/10/07 01:40:31  5-MIN KDBQ 100740Z AUTO 32013KT 10SM CLR 02/M02 A3001 1000 75 -300 320/13 RMK AO2 TSNO
94908KDBQ DBQ20070310014510503/10/07 01:45:31  5-MIN KDBQ 100745Z AUTO 32012KT 10SM CLR 02/M02 A3001 1000 75 -300 320/12 RMK AO2 TSNO
94908KDBQ DBQ20070310015012203/10/07 01:50:31  5-MIN KDBQ 100750Z AUTO 31013KT 10SM CLR 02/M02 A3001 1000 75 -300 310/13 RMK AO2 SLP172 T00171022 TSNO
94908KDBQ DBQ20070310015512103/10/07 01:55:31  5-MIN KDBQ 100755Z AUTO 31013KT 10SM CLR 02/M02 A3001 990 75 -300 310/13 RMK AO2 SLP172 T00171022 TSNO
94908KDBQ DBQ20070310020010403/10/07 02:00:31  5-MIN KDBQ 100800Z AUTO 31012KT 10SM CLR 02/M02 A3001 990 75 -300 310/12 RMK AO2 TSNO
94908KDBQ DBQ20070310020510403/10/07 02:05:31  5-MIN KDBQ 100805Z AUTO 31012KT 10SM CLR 02/M02 A3001 990 75 -300 310/12 RMK AO2 TSNO
94908KDBQ DBQ20070310021010403/10/07 02:10:31  5-MIN KDBQ 100810Z AUTO 31011KT 10SM CLR 01/M02 A3001 990 78 -400 310/11 RMK AO2 TSNO
94908KDBQ DBQ20070310021510403/10/07 02:15:31  5-MIN KDBQ 100815Z AUTO 31010KT 10SM CLR 01/M02 A3001 990 78 -400 310/10 RMK AO2 TSNO
94908KDBQ DBQ20070310022010403/10/07 02:20:31  5-MIN KDBQ 100820Z AUTO 31010KT 10SM CLR 01/M03 A3001 990 78 -400 310/10 RMK AO2 TSNO
94908KDBQ DBQ20070310022510403/10/07 02:25:31  5-MIN KDBQ 100825Z AUTO 30009KT 10SM CLR 00/M03 A3001 990 81 -500 300/09 RMK AO2 TSNO
94908KDBQ DBQ20070310023010403/10/07 02:30:31  5-MIN KDBQ 100830Z AUTO 31010KT 10SM CLR 00/M03 A3002 990 81 -500 310/10 RMK AO2 TSNO
94908KDBQ DBQ20070310023510403/10/07 02:35:31  5-MIN KDBQ 100835Z AUTO 31010KT 10SM CLR 00/M03 A3002 990 81 -500 300/10 RMK AO2 TSNO
94908KDBQ DBQ20070310024010403/10/07 02:40:31  5-MIN KDBQ 100840Z AUTO 31010KT 10SM CLR 00/M03 A3002 990 81 -500 310/10 RMK AO2 TSNO
94908KDBQ DBQ20070310024510403/10/07 02:45:31  5-MIN KDBQ 100845Z AUTO 30010KT 10SM CLR 00/M03 A3001 990 81 -500 300/10 RMK AO2 TSNO
94908KDBQ DBQ20070310025012703/10/07 02:50:31  5-MIN KDBQ 100850Z AUTO 30010KT 10SM CLR 00/M03 A3002 990 81 -500 300/10 RMK AO2 SLP175 T00001028 51015 TSNO
94908KDBQ DBQ20070310025512703/10/07 02:55:31  5-MIN KDBQ 100855Z AUTO 30009KT 10SM CLR 00/M03 A3001 990 81 -500 300/09 RMK AO2 SLP175 T00001028 51015 TSNO
94908KDBQ DBQ20070310030010403/10/07 03:00:31  5-MIN KDBQ 100900Z AUTO 30009KT 10SM CLR 00/M03 A3001 990 81 -500 300/09 RMK AO2 TSNO
94908KDBQ DBQ20070310030510403/10/07 03:05:31  5-MIN KDBQ 100905Z AUTO 30010KT 10SM CLR 00/M03 A3002 990 81 -500 300/10 RMK AO2 TSNO
94908KDBQ DBQ20070310031010403/10/07 03:10:31  5-MIN KDBQ 100910Z AUTO 30010KT 10SM CLR 00/M03 A3002 990 81 -500 300/10 RMK AO2 TSNO
94908KDBQ DBQ20070310031510403/10/07 03:15:31  5-MIN KDBQ 100915Z AUTO 30009KT 10SM CLR 00/M03 A3002 980 81 -500 300/09 RMK AO2 TSNO
94908KDBQ DBQ20070310032010403/10/07 03:20:31  5-MIN KDBQ 100920Z AUTO 30008KT 10SM CLR 00/M03 A3002 980 78 -500 300/08 RMK AO2 TSNO
94908KDBQ DBQ20070310032510503/10/07 03:25:31  5-MIN KDBQ 100925Z AUTO 30009KT 10SM CLR M01/M03 A3003 980 81 -600 300/09 RMK AO2 TSNO
94908KDBQ DBQ20070310033010403/10/07 03:30:31  5-MIN KDBQ 100930Z AUTO 30010KT 10SM CLR 00/M03 A3003 980 81 -500 300/10 RMK AO2 TSNO
94908KDBQ DBQ20070310033510403/10/07 03:35:31  5-MIN KDBQ 100935Z AUTO 31012KT 10SM CLR 00/M03 A3003 970 81 -500 310/12 RMK AO2 TSNO
94908KDBQ DBQ20070310034010403/10/07 03:40:31  5-MIN KDBQ 100940Z AUTO 31011KT 10SM CLR 00/M03 A3003 970 81 -500 300/11 RMK AO2 TSNO
94908KDBQ DBQ20070310034510403/10/07 03:45:31  5-MIN KDBQ 100945Z AUTO 30011KT 10SM CLR 00/M03 A3003 970 78 -500 300/11 RMK AO2 TSNO
94908KDBQ DBQ20070310035012103/10/07 03:50:31  5-MIN KDBQ 100950Z AUTO 31011KT 10SM CLR 00/M03 A3004 970 78 -500 300/11 RMK AO2 SLP182 T00001033 TSNO
94908KDBQ DBQ20070310035512103/10/07 03:55:31  5-MIN KDBQ 100955Z AUTO 31011KT 10SM CLR 01/M03 A3004 970 75 -500 310/11 RMK AO2 SLP183 T00061033 TSNO
94908KDBQ DBQ20070310040010403/10/07 04:00:31  5-MIN KDBQ 101000Z AUTO 30010KT 10SM CLR 01/M03 A3004 970 75 -500 300/10 RMK AO2 TSNO
94908KDBQ DBQ20070310040510403/10/07 04:05:31  5-MIN KDBQ 101005Z AUTO 30010KT 10SM CLR 00/M03 A3004 970 78 -500 300/10 RMK AO2 TSNO
94908KDBQ DBQ20070310041010503/10/07 04:10:31  5-MIN KDBQ 101010Z AUTO 30009KT 10SM CLR M01/M03 A3004 960 81 -600 300/09 RMK AO2 TSNO
94908KDBQ DBQ20070310041510503/10/07 04:15:31  5-MIN KDBQ 101015Z AUTO 30009KT 10SM CLR M01/M03 A3005 960 81 -600 300/09 RMK AO2 TSNO
94908KDBQ DBQ20070310042010503/10/07 04:20:31  5-MIN KDBQ 101020Z AUTO 30008KT 10SM CLR M01/M03 A3005 960 81 -600 300/08 RMK AO2 TSNO
94908KDBQ DBQ20070310042510503/10/07 04:25:31  5-MIN KDBQ 101025Z AUTO 30007KT 10SM CLR M01/M03 A3006 950 81 -600 300/07 RMK AO2 TSNO
94908KDBQ DBQ20070310043010503/10/07 04:30:31  5-MIN KDBQ 101030Z AUTO 30007KT 10SM CLR M01/M03 A3006 950 85 -700 300/07 RMK AO2 TSNO
94908KDBQ DBQ20070310043510503/10/07 04:35:31  5-MIN KDBQ 101035Z AUTO 31006KT 10SM CLR M01/M03 A3006 950 85 -700 310/06 RMK AO2 TSNO
94908KDBQ DBQ20070310044010503/10/07 04:40:31  5-MIN KDBQ 101040Z AUTO 31006KT 10SM CLR M01/M03 A3007 940 85 -700 310/06 RMK AO2 TSNO
94908KDBQ DBQ20070310044510503/10/07 04:45:31  5-MIN KDBQ 101045Z AUTO 30006KT 10SM CLR M01/M03 A3007 940 81 -600 300/06 RMK AO2 TSNO
94908KDBQ DBQ20070310045012203/10/07 04:50:31  5-MIN KDBQ 101050Z AUTO 30004KT 10SM CLR M01/M03 A3007 940 85 -700 300/04 RMK AO2 SLP193 T10111033 TSNO
94908KDBQ DBQ20070310045512203/10/07 04:55:31  5-MIN KDBQ 101055Z AUTO 30004KT 10SM CLR M01/M03 A3007 940 85 -700 300/04 RMK AO2 SLP194 T10111033 TSNO
94908KDBQ DBQ20070310050010503/10/07 05:00:31  5-MIN KDBQ 101100Z AUTO 30004KT 10SM CLR M01/M03 A3007 940 85 -700 300/04 RMK AO2 TSNO
94908KDBQ DBQ20070310050510503/10/07 05:05:31  5-MIN KDBQ 101105Z AUTO 29005KT 10SM CLR M01/M04 A3007 940 81 -700 290/05 RMK AO2 TSNO
94908KDBQ DBQ20070310051010503/10/07 05:10:31  5-MIN KDBQ 101110Z AUTO 29005KT 10SM CLR M02/M04 A3007 940 85 -800 290/05 RMK AO2 TSNO
94908KDBQ DBQ20070310051510503/10/07 05:15:31  5-MIN KDBQ 101115Z AUTO 29006KT 10SM CLR M01/M04 A3007 940 81 -700 290/06 RMK AO2 TSNO
94908KDBQ DBQ20070310052010503/10/07 05:20:31  5-MIN KDBQ 101120Z AUTO 30007KT 10SM CLR M01/M04 A3007 940 81 -700 290/07 RMK AO2 TSNO
94908KDBQ DBQ20070310052510503/10/07 05:25:31  5-MIN KDBQ 101125Z AUTO 30007KT 10SM CLR M01/M03 A3008 940 85 -700 300/07 RMK AO2 TSNO
94908KDBQ DBQ20070310053010503/10/07 05:30:31  5-MIN KDBQ 101130Z AUTO 31007KT 10SM CLR M01/M04 A3007 940 81 -700 300/07 RMK AO2 TSNO
94908KDBQ DBQ20070310053510503/10/07 05:35:31  5-MIN KDBQ 101135Z AUTO 32007KT 10SM CLR M01/M03 A3007 940 81 -600 310/07 RMK AO2 TSNO
94908KDBQ DBQ20070310054010403/10/07 05:40:31  5-MIN KDBQ 101140Z AUTO 31009KT 10SM CLR 00/M03 A3007 940 78 -600 310/09 RMK AO2 TSNO
94908KDBQ DBQ20070310054510403/10/07 05:45:31  5-MIN KDBQ 101145Z AUTO 31010KT 10SM CLR 00/M03 A3008 930 78 -600 300/10 RMK AO2 TSNO
94908KDBQ DBQ20070310055014503/10/07 05:50:31  5-MIN KDBQ 101150Z AUTO 31009KT 10SM CLR 00/M03 A3008 930 78 -600 310/09 RMK AO2 SLP197 70018 T00001033 10022 21017 51015 TSNO
94908KDBQ DBQ20070310055513503/10/07 05:55:31  5-MIN KDBQ 101155Z 31009KT 10SM CLR 00/M03 A3008 930 78 -600 310/09 RMK AO2 SLP198 70018 T00001033 10022 21017 51022
94908KDBQ DBQ20070310060009403/10/07 06:00:31  5-MIN KDBQ 101200Z 31009KT 10SM CLR 00/M03 A3008 930 78 -600 310/09 RMK AO2
94908KDBQ DBQ20070310060509403/10/07 06:05:31  5-MIN KDBQ 101205Z 31009KT 10SM CLR 00/M03 A3009 930 78 -600 310/09 RMK AO2
94908KDBQ DBQ20070310061009403/10/07 06:10:31  5-MIN KDBQ 101210Z 31008KT 10SM CLR 00/M03 A3009 920 78 -600 310/08 RMK AO2
94908KDBQ DBQ20070310061509403/10/07 06:15:31  5-MIN KDBQ 101215Z 31008KT 10SM CLR 00/M03 A3009 920 78 -600 310/08 RMK AO2
94908KDBQ DBQ20070310062009403/10/07 06:20:31  5-MIN KDBQ 101220Z 31008KT 10SM CLR 00/M03 A3009 920 78 -600 310/08 RMK AO2
94908KDBQ DBQ20070310062509403/10/07 06:25:31  5-MIN KDBQ 101225Z 30008KT 10SM CLR 00/M03 A3009 920 78 -600 300/08 RMK AO2
94908KDBQ DBQ20070310063009503/10/07 06:30:31  5-MIN KDBQ 101230Z 30008KT 10SM CLR M01/M03 A3010 910 81 -700 300/08 RMK AO2
94908KDBQ DBQ20070310063509503/10/07 06:35:31  5-MIN KDBQ 101235Z 30009KT 10SM CLR M01/M03 A3010 910 81 -700 300/09 RMK AO2
94908KDBQ DBQ20070310064009503/10/07 06:40:31  5-MIN KDBQ 101240Z 30010KT 10SM CLR M01/M03 A3010 910 81 -700 290/10 RMK AO2
94908KDBQ DBQ20070310064509403/10/07 06:45:31  5-MIN KDBQ 101245Z 29009KT 10SM CLR 00/M03 A3010 910 78 -600 290/09 RMK AO2
94908KDBQ DBQ20070310065011203/10/07 06:50:31  5-MIN KDBQ 101250Z 30008KT 10SM CLR M01/M03 A3010 910 81 -700 290/08 RMK AO2 SLP205 T10061033
94908KDBQ DBQ20070310065511203/10/07 06:55:31  5-MIN KDBQ 101255Z 28007KT 10SM CLR M01/M03 A3010 910 81 -700 280/07 RMK AO2 SLP205 T10061033
94908KDBQ DBQ20070310070009503/10/07 07:00:31  5-MIN KDBQ 101300Z 26005KT 10SM CLR M01/M03 A3011 910 85 -800 260/05 RMK AO2
94908KDBQ DBQ20070310070509503/10/07 07:05:31  5-MIN KDBQ 101305Z 27006KT 10SM CLR M01/M03 A3011 900 81 -700 270/06 RMK AO2
94908KDBQ DBQ20070310071009403/10/07 07:10:31  5-MIN KDBQ 101310Z 27005KT 9SM CLR M01/M03 A3011 900 85 -800 270/05 RMK AO2
94908KDBQ DBQ20070310071509403/10/07 07:15:31  5-MIN KDBQ 101315Z 27006KT 9SM CLR M01/M03 A3012 900 85 -800 270/06 RMK AO2
94908KDBQ DBQ20070310072009403/10/07 07:20:31  5-MIN KDBQ 101320Z 28007KT 9SM CLR M01/M03 A3012 900 81 -700 280/07 RMK AO2
94908KDBQ DBQ20070310072509403/10/07 07:25:31  5-MIN KDBQ 101325Z 29006KT 9SM CLR M01/M03 A3012 890 81 -700 290/06 RMK AO2
94908KDBQ DBQ20070310073009403/10/07 07:30:31  5-MIN KDBQ 101330Z 30006KT 9SM CLR M01/M03 A3012 890 81 -700 300/06 RMK AO2
94908KDBQ DBQ20070310073509403/10/07 07:35:31  5-MIN KDBQ 101335Z 29006KT 10SM CLR 00/M03 A3012 890 81 -600 290/06 RMK AO2
94908KDBQ DBQ20070310074009503/10/07 07:40:31  5-MIN KDBQ 101340Z 28007KT 10SM CLR M01/M03 A3012 890 85 -700 280/07 RMK AO2
94908KDBQ DBQ20070310074509403/10/07 07:45:31  5-MIN KDBQ 101345Z 29006KT 10SM CLR 00/M03 A3013 890 81 -600 290/06 RMK AO2
94908KDBQ DBQ20070310075011103/10/07 07:50:31  5-MIN KDBQ 101350Z 29005KT 10SM CLR 00/M03 A3013 890 81 -600 290/05 RMK AO2 SLP213 T00001028
94908KDBQ DBQ20070310075511103/10/07 07:55:31  5-MIN KDBQ 101355Z 30006KT 10SM CLR 00/M03 A3013 880 81 -600 290/06 RMK AO2 SLP214 T00001028
94908KDBQ DBQ20070310080009403/10/07 08:00:31  5-MIN KDBQ 101400Z 29007KT 10SM CLR 00/M03 A3013 880 81 -600 290/07 RMK AO2
94908KDBQ DBQ20070310080509403/10/07 08:05:31  5-MIN KDBQ 101405Z 30007KT 10SM CLR 01/M02 A3014 880 82 -600 290/07 RMK AO2
94908KDBQ DBQ20070310081009403/10/07 08:10:31  5-MIN KDBQ 101410Z 29006KT 10SM CLR 01/M02 A3014 880 82 -600 290/06 RMK AO2
94908KDBQ DBQ20070310081509403/10/07 08:15:31  5-MIN KDBQ 101415Z 28006KT 10SM CLR 01/M02 A3014 880 82 -600 280/06 RMK AO2
94908KDBQ DBQ20070310082009403/10/07 08:20:31  5-MIN KDBQ 101420Z 29006KT 10SM CLR 01/M02 A3014 870 78 -500 290/06 RMK AO2
94908KDBQ DBQ20070310082509403/10/07 08:25:31  5-MIN KDBQ 101425Z 28006KT 10SM CLR 01/M02 A3014 870 78 -500 280/06 RMK AO2
94908KDBQ DBQ20070310083009403/10/07 08:30:31  5-MIN KDBQ 101430Z 28006KT 10SM CLR 01/M02 A3015 870 78 -500 280/06 RMK AO2
94908KDBQ DBQ20070310083509403/10/07 08:35:31  5-MIN KDBQ 101435Z 27006KT 10SM CLR 01/M02 A3015 870 78 -500 270/06 RMK AO2
94908KDBQ DBQ20070310084009403/10/07 08:40:31  5-MIN KDBQ 101440Z 27007KT 10SM CLR 01/M02 A3015 870 78 -500 270/07 RMK AO2
94908KDBQ DBQ20070310084509403/10/07 08:45:31  5-MIN KDBQ 101445Z 28006KT 10SM CLR 01/M02 A3015 860 82 -500 280/06 RMK AO2
94908KDBQ DBQ20070310085011703/10/07 08:50:31  5-MIN KDBQ 101450Z 28006KT 10SM CLR 01/M02 A3015 860 82 -500 280/06 RMK AO2 SLP222 T00111017 51022
94908KDBQ DBQ20070310085511703/10/07 08:55:31  5-MIN KDBQ 101455Z 28005KT 10SM CLR 02/M02 A3016 860 78 -500 280/05 RMK AO2 SLP223 T00171017 53024
94908KDBQ DBQ20070310090009403/10/07 09:00:31  5-MIN KDBQ 101500Z 27005KT 10SM CLR 02/M02 A3016 860 78 -500 270/05 RMK AO2
94908KDBQ DBQ20070310090509403/10/07 09:05:31  5-MIN KDBQ 101505Z 27006KT 10SM CLR 02/M02 A3016 860 78 -500 270/06 RMK AO2
94908KDBQ DBQ20070310091009403/10/07 09:10:31  5-MIN KDBQ 101510Z 29006KT 10SM CLR 02/M02 A3016 860 78 -500 280/06 RMK AO2
94908KDBQ DBQ20070310091509403/10/07 09:15:31  5-MIN KDBQ 101515Z 29006KT 10SM CLR 02/M01 A3016 860 78 -400 290/06 RMK AO2
94908KDBQ DBQ20070310092009403/10/07 09:20:31  5-MIN KDBQ 101520Z 29006KT 10SM CLR 02/M02 A3016 850 75 -400 290/06 RMK AO2
94908KDBQ DBQ20070310092509403/10/07 09:25:31  5-MIN KDBQ 101525Z 30006KT 10SM CLR 03/M02 A3017 850 72 -300 300/06 RMK AO2
94908KDBQ DBQ20070310093009403/10/07 09:30:31  5-MIN KDBQ 101530Z 31007KT 10SM CLR 03/M01 A3017 850 75 -300 310/07 RMK AO2
94908KDBQ DBQ20070310093509403/10/07 09:35:31  5-MIN KDBQ 101535Z 31006KT 10SM CLR 03/M02 A3017 850 72 -300 310/06 RMK AO2
94908KDBQ DBQ20070310094009403/10/07 09:40:31  5-MIN KDBQ 101540Z 32005KT 10SM CLR 03/M02 A3017 840 72 -300 320/05 RMK AO2
94908KDBQ DBQ20070310094509403/10/07 09:45:31  5-MIN KDBQ 101545Z 32005KT 10SM CLR 03/M01 A3018 840 75 -300 320/05 RMK AO2
94908KDBQ DBQ20070310095011103/10/07 09:50:31  5-MIN KDBQ 101550Z 32005KT 10SM CLR 03/M01 A3018 840 72 -300 310/05 RMK AO2 SLP230 T00331011
94908KDBQ DBQ20070310095511103/10/07 09:55:31  5-MIN KDBQ 101555Z 32005KT 10SM CLR 03/M01 A3018 840 72 -300 320/05 RMK AO2 SLP230 T00331011
94908KDBQ DBQ20070310100009403/10/07 10:00:31  5-MIN KDBQ 101600Z 34009KT 10SM CLR 04/M02 A3018 840 67 -200 340/09 RMK AO2
94908KDBQ DBQ20070310100509403/10/07 10:05:31  5-MIN KDBQ 101605Z 33008KT 10SM CLR 04/M01 A3018 840 70 -200 330/08 RMK AO2
94908KDBQ DBQ20070310101009403/10/07 10:10:31  5-MIN KDBQ 101610Z 33007KT 10SM CLR 04/M01 A3018 840 70 -200 330/07 RMK AO2
94908KDBQ DBQ20070310101509403/10/07 10:15:31  5-MIN KDBQ 101615Z 32007KT 10SM CLR 04/M01 A3018 840 70 -200 320/07 RMK AO2
94908KDBQ DBQ20070310102009403/10/07 10:20:31  5-MIN KDBQ 101620Z 29006KT 10SM CLR 04/M01 A3018 840 70 -200 290/06 RMK AO2
94908KDBQ DBQ20070310102509403/10/07 10:25:31  5-MIN KDBQ 101625Z 29006KT 10SM CLR 04/M01 A3018 840 70 -200 290/06 RMK AO2
94908KDBQ DBQ20070310103009403/10/07 10:30:31  5-MIN KDBQ 101630Z 30006KT 10SM CLR 04/M01 A3018 830 70 -200 300/06 RMK AO2
94908KDBQ DBQ20070310103509403/10/07 10:35:31  5-MIN KDBQ 101635Z 30006KT 10SM CLR 04/M01 A3018 840 70 -200 300/06 RMK AO2
94908KDBQ DBQ20070310104009403/10/07 10:40:31  5-MIN KDBQ 101640Z 30005KT 10SM CLR 04/M01 A3019 830 70 -200 300/05 RMK AO2
94908KDBQ DBQ20070310104509403/10/07 10:45:31  5-MIN KDBQ 101645Z 30005KT 10SM CLR 04/M01 A3019 830 70 -200 300/05 RMK AO2
94908KDBQ DBQ20070310105011103/10/07 10:50:31  5-MIN KDBQ 101650Z 30006KT 10SM CLR 05/M01 A3019 830 67 -100 300/06 RMK AO2 SLP232 T00501006
94908KDBQ DBQ20070310105511103/10/07 10:55:31  5-MIN KDBQ 101655Z 30005KT 10SM CLR 05/M01 A3019 830 67 -100 300/05 RMK AO2 SLP234 T00501006
94908KDBQ DBQ20070310110009403/10/07 11:00:31  5-MIN KDBQ 101700Z 31007KT 10SM CLR 05/M01 A3019 830 67 -100 310/07 RMK AO2
94908KDBQ DBQ20070310110509403/10/07 11:05:31  5-MIN KDBQ 101705Z 34008KT 10SM CLR 05/M01 A3019 830 67 -100 340/08 RMK AO2
94908KDBQ DBQ20070310111009103/10/07 11:10:31  5-MIN KDBQ 101710Z 36008KT 10SM CLR 06/M01 A3020 820 65 0 360/08 RMK AO2
94908KDBQ DBQ20070310111509103/10/07 11:15:31  5-MIN KDBQ 101715Z 34011KT 10SM CLR 06/M02 A3020 820 59 0 340/11 RMK AO2
94908KDBQ DBQ20070310112009103/10/07 11:20:31  5-MIN KDBQ 101720Z 36010KT 10SM CLR 06/M02 A3020 820 59 0 350/10 RMK AO2
94908KDBQ DBQ20070310112509403/10/07 11:25:31  5-MIN KDBQ 101725Z 35011KT 10SM CLR 05/M02 A3020 820 62 -100 350/11 RMK AO2
94908KDBQ DBQ20070310113009103/10/07 11:30:31  5-MIN KDBQ 101730Z 33012KT 10SM CLR 06/M02 A3020 820 57 0 330/12 RMK AO2
94908KDBQ DBQ20070310113509103/10/07 11:35:31  5-MIN KDBQ 101735Z 34011KT 10SM CLR 06/M02 A3020 820 59 0 340/11 RMK AO2
94908KDBQ DBQ20070310114009103/10/07 11:40:31  5-MIN KDBQ 101740Z 34009KT 10SM CLR 06/M02 A3020 820 59 0 340/09 RMK AO2
94908KDBQ DBQ20070310114509103/10/07 11:45:31  5-MIN KDBQ 101745Z 34009KT 10SM CLR 06/M02 A3020 820 59 0 340/09 RMK AO2
94908KDBQ DBQ20070310115012603/10/07 11:50:31  5-MIN KDBQ 101750Z 34010KT 10SM CLR 06/M02 A3021 820 57 0 340/10 RMK AO2 SLP238 T00561022 10056 21011 53024
94908KDBQ DBQ20070310115512603/10/07 11:55:31  5-MIN KDBQ 101755Z 34010KT 10SM CLR 06/M02 A3021 810 57 0 330/10 RMK AO2 SLP238 T00561022 10056 21011 51017
94908KDBQ DBQ20070310120009103/10/07 12:00:31  5-MIN KDBQ 101800Z 34011KT 10SM CLR 06/M02 A3021 810 57 0 340/11 RMK AO2
94908KDBQ DBQ20070310120509103/10/07 12:05:31  5-MIN KDBQ 101805Z 34010KT 10SM CLR 06/M02 A3021 810 57 0 340/10 RMK AO2
94908KDBQ DBQ20070310121009103/10/07 12:10:31  5-MIN KDBQ 101810Z 34010KT 10SM CLR 06/M02 A3021 810 57 0 340/10 RMK AO2
94908KDBQ DBQ20070310121509103/10/07 12:15:31  5-MIN KDBQ 101815Z 34009KT 10SM CLR 06/M02 A3021 810 55 0 340/09 RMK AO2
94908KDBQ DBQ20070310122009103/10/07 12:20:31  5-MIN KDBQ 101820Z 33008KT 10SM CLR 06/M03 A3021 810 53 0 330/08 RMK AO2
94908KDBQ DBQ20070310122509103/10/07 12:25:31  5-MIN KDBQ 101825Z 27006KT 10SM CLR 06/M01 A3021 810 62 0 270/06 RMK AO2
94908KDBQ DBQ20070310123009003/10/07 12:30:31  5-MIN KDBQ 101830Z 27006KT 10SM CLR 06/00 A3021 810 67 0 270/06 RMK AO2
94908KDBQ DBQ20070310123509003/10/07 12:35:31  5-MIN KDBQ 101835Z 28006KT 10SM CLR 06/00 A3021 810 67 0 270/06 RMK AO2
94908KDBQ DBQ20070310124009003/10/07 12:40:31  5-MIN KDBQ 101840Z 28005KT 10SM CLR 06/00 A3021 810 67 0 280/05 RMK AO2
94908KDBQ DBQ20070310124509003/10/07 12:45:31  5-MIN KDBQ 101845Z 26005KT 10SM CLR 06/00 A3021 810 67 0 260/05 RMK AO2
94908KDBQ DBQ20070310125010703/10/07 12:50:31  5-MIN KDBQ 101850Z 26006KT 10SM CLR 06/00 A3021 810 67 0 260/06 RMK AO2 SLP239 T00560000
94908KDBQ DBQ20070310125510703/10/07 12:55:31  5-MIN KDBQ 101855Z 26007KT 10SM CLR 06/01 A3021 810 70 0 260/07 RMK AO2 SLP239 T00560006
94908KDBQ DBQ20070310130009003/10/07 13:00:31  5-MIN KDBQ 101900Z 26008KT 10SM CLR 06/01 A3021 810 70 0 260/08 RMK AO2
94908KDBQ DBQ20070310130509303/10/07 13:05:31  5-MIN KDBQ 101905Z 26009KT 10SM CLR 05/01 A3021 810 73 -100 260/09 RMK AO2
94908KDBQ DBQ20070310131009003/10/07 13:10:31  5-MIN KDBQ 101910Z 26007KT 10SM CLR 06/01 A3021 810 70 0 260/07 RMK AO2
94908KDBQ DBQ20070310131509003/10/07 13:15:31  5-MIN KDBQ 101915Z 27006KT 10SM CLR 06/01 A3021 810 70 0 270/06 RMK AO2
94908KDBQ DBQ20070310132009003/10/07 13:20:31  5-MIN KDBQ 101920Z 27007KT 10SM CLR 06/00 A3021 810 67 0 270/07 RMK AO2
94908KDBQ DBQ20070310132509003/10/07 13:25:31  5-MIN KDBQ 101925Z 27007KT 10SM CLR 06/01 A3021 810 70 0 270/07 RMK AO2
94908KDBQ DBQ20070310133009003/10/07 13:30:31  5-MIN KDBQ 101930Z 27008KT 10SM CLR 06/00 A3021 810 65 0 270/08 RMK AO2
94908KDBQ DBQ20070310133509003/10/07 13:35:31  5-MIN KDBQ 101935Z 28007KT 10SM CLR 06/00 A3021 810 65 0 270/07 RMK AO2
94908KDBQ DBQ20070310134009003/10/07 13:40:31  5-MIN KDBQ 101940Z 27008KT 10SM CLR 06/00 A3021 810 65 0 270/08 RMK AO2
94908KDBQ DBQ20070310134509003/10/07 13:45:31  5-MIN KDBQ 101945Z 27008KT 10SM CLR 06/00 A3022 810 65 0 270/08 RMK AO2
94908KDBQ DBQ20070310135010803/10/07 13:50:31  5-MIN KDBQ 101950Z 27007KT 10SM CLR 06/M01 A3022 810 62 0 270/07 RMK AO2 SLP242 T00611006
94908KDBQ DBQ20070310135510703/10/07 13:55:31  5-MIN KDBQ 101955Z 27008KT 10SM CLR 06/00 A3022 800 65 0 270/08 RMK AO2 SLP242 T00610000
94908KDBQ DBQ20070310140009003/10/07 14:00:31  5-MIN KDBQ 102000Z 27007KT 10SM CLR 06/00 A3022 800 65 0 270/07 RMK AO2
94908KDBQ DBQ20070310140509003/10/07 14:05:31  5-MIN KDBQ 102005Z 27007KT 10SM CLR 06/00 A3022 800 65 0 270/07 RMK AO2
94908KDBQ DBQ20070310141009003/10/07 14:10:31  5-MIN KDBQ 102010Z 27008KT 10SM CLR 06/00 A3022 800 65 0 270/08 RMK AO2
94908KDBQ DBQ20070310141509103/10/07 14:15:31  5-MIN KDBQ 102015Z 28006KT 10SM CLR 06/M01 A3022 800 62 0 280/06 RMK AO2
94908KDBQ DBQ20070310142009003/10/07 14:20:31  5-MIN KDBQ 102020Z 28006KT 10SM CLR 06/00 A3022 800 65 0 280/06 RMK AO2
94908KDBQ DBQ20070310142509003/10/07 14:25:31  5-MIN KDBQ 102025Z 29005KT 10SM CLR 07/00 A3023 800 62 0 290/05 RMK AO2
94908KDBQ DBQ20070310143009103/10/07 14:30:31  5-MIN KDBQ 102030Z 30005KT 10SM CLR 07/M01 A3023 800 60 0 300/05 RMK AO2
94908KDBQ DBQ20070310143509203/10/07 14:35:31  5-MIN KDBQ 102035Z 29005KT 10SM CLR 07/00 A3023 790 60 100 290/05 RMK AO2
94908KDBQ DBQ20070310144009303/10/07 14:40:31  5-MIN KDBQ 102040Z 29006KT 10SM CLR 07/M01 A3023 790 55 100 290/06 RMK AO2
94908KDBQ DBQ20070310144509303/10/07 14:45:31  5-MIN KDBQ 102045Z 30005KT 10SM CLR 07/M02 A3023 790 53 100 300/05 RMK AO2
94908KDBQ DBQ20070310145011603/10/07 14:50:31  5-MIN KDBQ 102050Z 28005KT 10SM CLR 07/M01 A3023 790 57 100 280/05 RMK AO2 SLP247 T00721006 51017
94908KDBQ DBQ20070310145511303/10/07 14:55:31  5-MIN KDBQ 102055Z 28005KT 10SM CLR 07/00 A3023 790 62 0 280/05 RMK AO2 SLP247 T00670000 53009
94908KDBQ DBQ20070310150009203/10/07 15:00:31  5-MIN KDBQ 102100Z 29005KT 10SM CLR 07/00 A3023 790 60 100 290/05 RMK AO2
94908KDBQ DBQ20070310150509003/10/07 15:05:31  5-MIN KDBQ 102105Z 27007KT 10SM CLR 07/00 A3024 790 62 0 270/07 RMK AO2
94908KDBQ DBQ20070310151009003/10/07 15:10:31  5-MIN KDBQ 102110Z 28008KT 10SM CLR 07/00 A3024 790 62 0 270/08 RMK AO2
94908KDBQ DBQ20070310151509003/10/07 15:15:31  5-MIN KDBQ 102115Z 28007KT 10SM CLR 07/00 A3024 790 62 0 280/07 RMK AO2
94908KDBQ DBQ20070310152009103/10/07 15:20:31  5-MIN KDBQ 102120Z 28006KT 10SM CLR 07/M01 A3024 780 60 0 280/06 RMK AO2
94908KDBQ DBQ20070310152509103/10/07 15:25:31  5-MIN KDBQ 102125Z 29006KT 10SM CLR 07/M01 A3024 780 60 0 290/06 RMK AO2
94908KDBQ DBQ20070310153009003/10/07 15:30:31  5-MIN KDBQ 102130Z 29006KT 10SM CLR 07/00 A3024 780 62 0 290/06 RMK AO2
94908KDBQ DBQ20070310153509003/10/07 15:35:31  5-MIN KDBQ 102135Z 29005KT 10SM CLR 07/00 A3024 780 62 0 290/05 RMK AO2
94908KDBQ DBQ20070310154009303/10/07 15:40:31  5-MIN KDBQ 102140Z 30007KT 10SM CLR 07/M01 A3024 780 57 100 300/07 RMK AO2
94908KDBQ DBQ20070310154509103/10/07 15:45:31  5-MIN KDBQ 102145Z 30007KT 10SM CLR 07/M01 A3025 780 57 0 300/07 RMK AO2
94908KDBQ DBQ20070310155010803/10/07 15:50:31  5-MIN KDBQ 102150Z 30007KT 10SM CLR 07/M01 A3025 780 57 0 300/07 RMK AO2 SLP252 T00671011
94908KDBQ DBQ20070310155510803/10/07 15:55:31  5-MIN KDBQ 102155Z 30008KT 10SM CLR 07/M02 A3025 780 55 0 300/08 RMK AO2 SLP252 T00671017
94908KDBQ DBQ20070310160009103/10/07 16:00:31  5-MIN KDBQ 102200Z 29008KT 10SM CLR 07/M02 A3025 780 55 0 290/08 RMK AO2
94908KDBQ DBQ20070310160509103/10/07 16:05:31  5-MIN KDBQ 102205Z 30008KT 10SM CLR 07/M01 A3025 770 57 0 290/08 RMK AO2
94908KDBQ DBQ20070310161009103/10/07 16:10:31  5-MIN KDBQ 102210Z 30008KT 10SM CLR 07/M01 A3025 770 57 0 300/08 RMK AO2
94908KDBQ DBQ20070310161509103/10/07 16:15:31  5-MIN KDBQ 102215Z 30008KT 10SM CLR 07/M01 A3025 770 57 0 300/08 RMK AO2
94908KDBQ DBQ20070310162009103/10/07 16:20:31  5-MIN KDBQ 102220Z 29009KT 10SM CLR 06/M01 A3025 770 60 0 290/09 RMK AO2
94908KDBQ DBQ20070310162509103/10/07 16:25:31  5-MIN KDBQ 102225Z 29009KT 10SM CLR 07/M02 A3026 770 55 0 290/09 RMK AO2
94908KDBQ DBQ20070310163009103/10/07 16:30:31  5-MIN KDBQ 102230Z 29009KT 10SM CLR 07/M02 A3026 770 55 0 290/09 RMK AO2
94908KDBQ DBQ20070310163509103/10/07 16:35:31  5-MIN KDBQ 102235Z 29008KT 10SM CLR 06/M02 A3026 760 57 0 280/08 RMK AO2
94908KDBQ DBQ20070310164009403/10/07 16:40:31  5-MIN KDBQ 102240Z 27008KT 10SM CLR 06/M01 A3026 760 62 -100 270/08 RMK AO2
94908KDBQ DBQ20070310164509403/10/07 16:45:31  5-MIN KDBQ 102245Z 28010KT 10SM CLR 06/M01 A3027 760 65 -100 270/10 RMK AO2
94908KDBQ DBQ20070310165011103/10/07 16:50:31  5-MIN KDBQ 102250Z 28009KT 10SM CLR 06/M01 A3027 760 65 -100 280/09 RMK AO2 SLP260 T00561006
94908KDBQ DBQ20070310165511103/10/07 16:55:31  5-MIN KDBQ 102255Z 29008KT 10SM CLR 06/M01 A3027 760 65 -100 280/08 RMK AO2 SLP260 T00561006
94908KDBQ DBQ20070310170009403/10/07 17:00:31  5-MIN KDBQ 102300Z 29008KT 10SM CLR 06/M01 A3027 760 62 -100 290/08 RMK AO2
94908KDBQ DBQ20070310170509403/10/07 17:05:31  5-MIN KDBQ 102305Z 29008KT 10SM CLR 06/M01 A3027 760 62 -100 290/08 RMK AO2
94908KDBQ DBQ20070310171009403/10/07 17:10:31  5-MIN KDBQ 102310Z 29007KT 10SM CLR 05/M01 A3027 760 67 -200 290/07 RMK AO2
94908KDBQ DBQ20070310171509403/10/07 17:15:31  5-MIN KDBQ 102315Z 29007KT 10SM CLR 05/M01 A3027 760 64 -200 290/07 RMK AO2
94908KDBQ DBQ20070310172009403/10/07 17:20:31  5-MIN KDBQ 102320Z 29008KT 10SM CLR 05/M01 A3027 760 64 -200 290/08 RMK AO2
94908KDBQ DBQ20070310172509403/10/07 17:25:31  5-MIN KDBQ 102325Z 29008KT 10SM CLR 05/M01 A3027 750 64 -200 290/08 RMK AO2
94908KDBQ DBQ20070310173009403/10/07 17:30:31  5-MIN KDBQ 102330Z 29008KT 10SM CLR 04/M01 A3027 750 67 -300 290/08 RMK AO2
94908KDBQ DBQ20070310173509403/10/07 17:35:31  5-MIN KDBQ 102335Z 29009KT 10SM CLR 04/M01 A3028 750 70 -300 290/09 RMK AO2
94908KDBQ DBQ20070310174009303/10/07 17:40:31  5-MIN KDBQ 102340Z 28007KT 10SM CLR 04/00 A3028 750 73 -300 280/07 RMK AO2
94908KDBQ DBQ20070310174509403/10/07 17:45:31  5-MIN KDBQ 102345Z 27007KT 10SM CLR 04/M01 A3028 750 73 -300 270/07 RMK AO2
94908KDBQ DBQ20070310175012903/10/07 17:50:31  5-MIN KDBQ 102350Z 26006KT 10SM CLR 03/M01 A3028 740 76 -400 260/06 RMK AO2 SLP266 T00331006 10072 20033 53009
94908KDBQ DBQ20070310175512903/10/07 17:55:31  5-MIN KDBQ 102355Z 26008KT 10SM CLR 03/M01 A3029 740 76 -400 260/08 RMK AO2 SLP268 T00331006 10072 20033 53018
94908KDBQ DBQ20070310180009403/10/07 18:00:31  5-MIN KDBQ 110000Z 26007KT 10SM CLR 03/M01 A3029 740 76 -400 260/07 RMK AO2
94908KDBQ DBQ20070310180509403/10/07 18:05:31  5-MIN KDBQ 110005Z 26006KT 10SM CLR 03/M01 A3029 740 76 -400 260/06 RMK AO2
94908KDBQ DBQ20070310181009403/10/07 18:10:31  5-MIN KDBQ 110010Z 25007KT 10SM CLR 03/M01 A3029 740 76 -400 250/07 RMK AO2
94908KDBQ DBQ20070310181509403/10/07 18:15:31  5-MIN KDBQ 110015Z 25006KT 10SM CLR 03/M01 A3029 730 79 -500 250/06 RMK AO2
94908KDBQ DBQ20070310182009403/10/07 18:20:31  5-MIN KDBQ 110020Z 25006KT 10SM CLR 03/M01 A3029 730 75 -500 250/06 RMK AO2
94908KDBQ DBQ20070310182509403/10/07 18:25:31  5-MIN KDBQ 110025Z 23005KT 10SM CLR 02/M01 A3030 730 78 -600 230/05 RMK AO2
94908KDBQ DBQ20070310183009403/10/07 18:30:31  5-MIN KDBQ 110030Z 23005KT 10SM CLR 02/M01 A3030 730 78 -600 230/05 RMK AO2
94908KDBQ DBQ20070310183509403/10/07 18:35:31  5-MIN KDBQ 110035Z 23004KT 10SM CLR 02/M01 A3030 730 78 -600 230/04 RMK AO2
94908KDBQ DBQ20070310184009403/10/07 18:40:31  5-MIN KDBQ 110040Z 22005KT 10SM CLR 02/M01 A3030 730 78 -600 220/05 RMK AO2
94908KDBQ DBQ20070310184509403/10/07 18:45:31  5-MIN KDBQ 110045Z 21004KT 10SM CLR 02/M01 A3031 720 82 -600 200/04 RMK AO2
94908KDBQ DBQ20070310185011103/10/07 18:50:31  5-MIN KDBQ 110050Z 19004KT 10SM CLR 02/M01 A3031 720 78 -600 190/04 RMK AO2 SLP274 T00221011
94908KDBQ DBQ20070310185511103/10/07 18:55:31  5-MIN KDBQ 110055Z 18004KT 10SM CLR 02/M01 A3031 720 78 -600 180/04 RMK AO2 SLP275 T00221011
94908KDBQ DBQ20070310190010403/10/07 19:00:31  5-MIN KDBQ 110100Z AUTO 17003KT 10SM CLR 02/M01 A3031 720 78 -600 170/03 RMK AO2 TSNO
94908KDBQ DBQ20070310190510403/10/07 19:05:31  5-MIN KDBQ 110105Z AUTO 16003KT 10SM CLR 02/M01 A3031 720 78 -600 160/03 RMK AO2 TSNO
94908KDBQ DBQ20070310191010403/10/07 19:10:31  5-MIN KDBQ 110110Z AUTO 18003KT 10SM CLR 03/M01 A3031 720 75 -500 180/03 RMK AO2 TSNO
94908KDBQ DBQ20070310191510403/10/07 19:15:31  5-MIN KDBQ 110115Z AUTO 20003KT 10SM CLR 02/M01 A3031 720 78 -600 200/03 RMK AO2 TSNO
94908KDBQ DBQ20070310192010403/10/07 19:20:31  5-MIN KDBQ 110120Z AUTO VRB03KT 10SM CLR 03/M02 A3031 720 72 -500 VRB/03 RMK AO2 TSNO
94908KDBQ DBQ20070310192510403/10/07 19:25:31  5-MIN KDBQ 110125Z AUTO 28007KT 10SM CLR 03/M02 A3031 720 70 -400 280/07 RMK AO2 TSNO
94908KDBQ DBQ20070310193010403/10/07 19:30:31  5-MIN KDBQ 110130Z AUTO 29006KT 10SM CLR 03/M02 A3032 710 70 -400 290/06 RMK AO2 TSNO
94908KDBQ DBQ20070310193510403/10/07 19:35:31  5-MIN KDBQ 110135Z AUTO 29007KT 10SM CLR 03/M02 A3032 710 72 -500 290/07 RMK AO2 TSNO
94908KDBQ DBQ20070310194010403/10/07 19:40:31  5-MIN KDBQ 110140Z AUTO 30008KT 10SM CLR 03/M02 A3032 710 69 -500 300/08 RMK AO2 TSNO
94908KDBQ DBQ20070310194510403/10/07 19:45:31  5-MIN KDBQ 110145Z AUTO 29007KT 10SM CLR 03/M02 A3032 710 69 -500 290/07 RMK AO2 TSNO
94908KDBQ DBQ20070310195012103/10/07 19:50:31  5-MIN KDBQ 110150Z AUTO 29007KT 10SM CLR 02/M02 A3032 710 72 -600 290/07 RMK AO2 SLP278 T00221022 TSNO
94908KDBQ DBQ20070310195512103/10/07 19:55:31  5-MIN KDBQ 110155Z AUTO 29006KT 10SM CLR 02/M02 A3032 710 72 -600 290/06 RMK AO2 SLP279 T00221022 TSNO
94908KDBQ DBQ20070310200010403/10/07 20:00:31  5-MIN KDBQ 110200Z AUTO 30007KT 10SM CLR 02/M02 A3032 710 75 -700 300/07 RMK AO2 TSNO
94908KDBQ DBQ20070310200510403/10/07 20:05:31  5-MIN KDBQ 110205Z AUTO 30006KT 10SM CLR 02/M02 A3032 710 75 -700 300/06 RMK AO2 TSNO
94908KDBQ DBQ20070310201010403/10/07 20:10:31  5-MIN KDBQ 110210Z AUTO 30006KT 10SM CLR 02/M02 A3032 710 75 -700 300/06 RMK AO2 TSNO
94908KDBQ DBQ20070310201510403/10/07 20:15:31  5-MIN KDBQ 110215Z AUTO 29006KT 10SM CLR 02/M03 A3032 710 72 -700 290/06 RMK AO2 TSNO
94908KDBQ DBQ20070310202010403/10/07 20:20:31  5-MIN KDBQ 110220Z AUTO 30006KT 10SM CLR 02/M03 A3032 710 72 -700 300/06 RMK AO2 TSNO
94908KDBQ DBQ20070310202510403/10/07 20:25:31  5-MIN KDBQ 110225Z AUTO 30006KT 10SM CLR 02/M03 A3032 710 72 -700 300/06 RMK AO2 TSNO
94908KDBQ DBQ20070310203010403/10/07 20:30:31  5-MIN KDBQ 110230Z AUTO 31007KT 10SM CLR 02/M03 A3032 710 72 -700 310/07 RMK AO2 TSNO
94908KDBQ DBQ20070310203510403/10/07 20:35:31  5-MIN KDBQ 110235Z AUTO 31007KT 10SM CLR 01/M03 A3032 710 75 -700 310/07 RMK AO2 TSNO
94908KDBQ DBQ20070310204010403/10/07 20:40:31  5-MIN KDBQ 110240Z AUTO 31008KT 10SM CLR 02/M03 A3033 710 69 -700 310/08 RMK AO2 TSNO
94908KDBQ DBQ20070310204510403/10/07 20:45:31  5-MIN KDBQ 110245Z AUTO 31007KT 10SM CLR 02/M03 A3033 700 69 -700 310/07 RMK AO2 TSNO
94908KDBQ DBQ20070310205012703/10/07 20:50:31  5-MIN KDBQ 110250Z AUTO 32006KT 10SM CLR 01/M03 A3032 710 72 -700 320/06 RMK AO2 SLP281 T00111033 53018 TSNO
94908KDBQ DBQ20070310205512703/10/07 20:55:31  5-MIN KDBQ 110255Z AUTO 32007KT 10SM CLR 02/M03 A3033 710 69 -700 320/07 RMK AO2 SLP281 T00171033 51013 TSNO
94908KDBQ DBQ20070310210010403/10/07 21:00:31  5-MIN KDBQ 110300Z AUTO 32006KT 10SM CLR 02/M03 A3033 700 69 -700 320/06 RMK AO2 TSNO
94908KDBQ DBQ20070310210510403/10/07 21:05:31  5-MIN KDBQ 110305Z AUTO 33005KT 10SM CLR 02/M03 A3033 700 67 -600 330/05 RMK AO2 TSNO
94908KDBQ DBQ20070310211010403/10/07 21:10:31  5-MIN KDBQ 110310Z AUTO 33003KT 10SM CLR 02/M03 A3033 700 67 -600 330/03 RMK AO2 TSNO
94908KDBQ DBQ20070310211510403/10/07 21:15:31  5-MIN KDBQ 110315Z AUTO 00000KT 10SM CLR 02/M04 A3033 700 66 -700 000/00 RMK AO2 TSNO
94908KDBQ DBQ20070310212010403/10/07 21:20:31  5-MIN KDBQ 110320Z AUTO 00000KT 10SM CLR 00/M03 A3033 700 78 -900 000/00 RMK AO2 TSNO
94908KDBQ DBQ20070310212510403/10/07 21:25:31  5-MIN KDBQ 110325Z AUTO 00000KT 10SM CLR 01/M03 A3034 700 75 -800 000/00 RMK AO2 TSNO
94908KDBQ DBQ20070310213010403/10/07 21:30:31  5-MIN KDBQ 110330Z AUTO 00000KT 10SM CLR 01/M03 A3034 690 72 -700 000/00 RMK AO2 TSNO
94908KDBQ DBQ20070310213510403/10/07 21:35:31  5-MIN KDBQ 110335Z AUTO 00000KT 10SM CLR 00/M04 A3034 690 75 -900 000/00 RMK AO2 TSNO
94908KDBQ DBQ20070310214010603/10/07 21:40:31  5-MIN KDBQ 110340Z AUTO 00000KT 10SM CLR M01/M04 A3035 690 75 -1000 000/00 RMK AO2 TSNO
94908KDBQ DBQ20070310214510603/10/07 21:45:31  5-MIN KDBQ 110345Z AUTO 00000KT 10SM CLR M01/M04 A3035 690 78 -1000 000/00 RMK AO2 TSNO
94908KDBQ DBQ20070310215012303/10/07 21:50:31  5-MIN KDBQ 110350Z AUTO 00000KT 10SM CLR M02/M04 A3035 690 81 -1100 000/00 RMK AO2 SLP288 T10171044 TSNO
94908KDBQ DBQ20070310215512303/10/07 21:55:31  5-MIN KDBQ 110355Z AUTO 00000KT 10SM CLR M02/M04 A3035 690 81 -1100 000/00 RMK AO2 SLP288 T10171044 TSNO
94908KDBQ DBQ20070310220010603/10/07 22:00:31  5-MIN KDBQ 110400Z AUTO 00000KT 10SM CLR M01/M04 A3035 680 78 -1000 000/00 RMK AO2 TSNO
94908KDBQ DBQ20070310220510603/10/07 22:05:31  5-MIN KDBQ 110405Z AUTO 26003KT 10SM CLR M01/M04 A3035 680 78 -1000 260/03 RMK AO2 TSNO
94908KDBQ DBQ20070310221010603/10/07 22:10:31  5-MIN KDBQ 110410Z AUTO 27003KT 10SM CLR M01/M04 A3035 680 78 -1000 270/03 RMK AO2 TSNO
94908KDBQ DBQ20070310221510603/10/07 22:15:31  5-MIN KDBQ 110415Z AUTO 00000KT 10SM CLR M01/M04 A3035 680 78 -1000 000/00 RMK AO2 TSNO
94908KDBQ DBQ20070310222010603/10/07 22:20:31  5-MIN KDBQ 110420Z AUTO 00000KT 10SM CLR M01/M04 A3035 680 75 -1000 000/00 RMK AO2 TSNO
94908KDBQ DBQ20070310222510603/10/07 22:25:31  5-MIN KDBQ 110425Z AUTO 00000KT 10SM CLR M01/M04 A3035 680 78 -1000 000/00 RMK AO2 TSNO
94908KDBQ DBQ20070310223010403/10/07 22:30:31  5-MIN KDBQ 110430Z AUTO 00000KT 10SM CLR 00/M04 A3035 680 75 -900 000/00 RMK AO2 TSNO
94908KDBQ DBQ20070310223510603/10/07 22:35:31  5-MIN KDBQ 110435Z AUTO 00000KT 10SM CLR M01/M04 A3035 680 75 -1000 000/00 RMK AO2 TSNO
94908KDBQ DBQ20070310224010603/10/07 22:40:31  5-MIN KDBQ 110440Z AUTO 00000KT 10SM CLR M01/M04 A3035 680 78 -1000 000/00 RMK AO2 TSNO
94908KDBQ DBQ20070310224510603/10/07 22:45:31  5-MIN KDBQ 110445Z AUTO 00000KT 10SM CLR M02/M05 A3036 680 81 -1200 000/00 RMK AO2 TSNO
94908KDBQ DBQ20070310225012203/10/07 22:50:31  5-MIN KDBQ 110450Z AUTO 00000KT 9SM CLR M02/M05 A3035 680 78 -1100 000/00 RMK AO2 SLP291 T10171050 TSNO
94908KDBQ DBQ20070310225512303/10/07 22:55:31  5-MIN KDBQ 110455Z AUTO 00000KT 10SM CLR M03/M06 A3035 680 85 -1300 000/00 RMK AO2 SLP290 T10331056 TSNO
94908KDBQ DBQ20070310230010503/10/07 23:00:31  5-MIN KDBQ 110500Z AUTO 00000KT 9SM CLR M03/M06 A3035 680 81 -1300 000/00 RMK AO2 TSNO
94908KDBQ DBQ20070310230510503/10/07 23:05:31  5-MIN KDBQ 110505Z AUTO 00000KT 9SM CLR M02/M05 A3036 680 81 -1200 000/00 RMK AO2 TSNO
94908KDBQ DBQ20070310231010603/10/07 23:10:31  5-MIN KDBQ 110510Z AUTO 00000KT 10SM CLR M03/M05 A3036 680 85 -1300 000/00 RMK AO2 TSNO
94908KDBQ DBQ20070310231510603/10/07 23:15:31  5-MIN KDBQ 110515Z AUTO 00000KT 10SM CLR M02/M05 A3036 680 81 -1200 000/00 RMK AO2 TSNO
94908KDBQ DBQ20070310232010603/10/07 23:20:31  5-MIN KDBQ 110520Z AUTO 00000KT 10SM CLR M02/M05 A3036 680 78 -1100 000/00 RMK AO2 TSNO
94908KDBQ DBQ20070310232510603/10/07 23:25:31  5-MIN KDBQ 110525Z AUTO 00000KT 10SM CLR M02/M06 A3036 680 78 -1200 000/00 RMK AO2 TSNO
94908KDBQ DBQ20070310233010603/10/07 23:30:31  5-MIN KDBQ 110530Z AUTO 00000KT 10SM CLR M02/M06 A3036 680 75 -1100 000/00 RMK AO2 TSNO
94908KDBQ DBQ20070310233510603/10/07 23:35:31  5-MIN KDBQ 110535Z AUTO 00000KT 10SM CLR M02/M05 A3036 680 78 -1100 000/00 RMK AO2 TSNO
94908KDBQ DBQ20070310234010603/10/07 23:40:31  5-MIN KDBQ 110540Z AUTO 00000KT 10SM CLR M03/M05 A3036 680 85 -1300 000/00 RMK AO2 TSNO
94908KDBQ DBQ20070310234510603/10/07 23:45:31  5-MIN KDBQ 110545Z AUTO 00000KT 10SM CLR M03/M06 A3036 680 85 -1300 000/00 RMK AO2 TSNO
94908KDBQ DBQ20070310235015103/10/07 23:50:31  5-MIN KDBQ 110550Z AUTO 00000KT 10SM CLR M03/M07 A3036 670 78 -1300 000/00 RMK AO2 SLP293 T10331067 10033 21033 400721033 51013 TSNO
94908KDBQ DBQ20070310235515103/10/07 23:55:31  5-MIN KDBQ 110555Z AUTO 00000KT 10SM CLR M03/M07 A3036 670 78 -1300 000/00 RMK AO2 SLP294 T10331067 10033 21039 400721039 51012 TSNO
94908KDBQ DBQ20070311000010603/11/07 00:00:38  5-MIN KDBQ 110600Z AUTO 00000KT 10SM CLR M03/M06 A3036 670 81 -1300 000/00 RMK AO2 TSNO
94908KDBQ DBQ20070311000510603/11/07 00:05:31  5-MIN KDBQ 110605Z AUTO 00000KT 10SM CLR M03/M06 A3036 670 81 -1300 000/00 RMK AO2 TSNO
94908KDBQ DBQ20070311001010603/11/07 00:10:31  5-MIN KDBQ 110610Z AUTO 01004KT 10SM CLR M02/M05 A3037 670 81 -1200 010/04 RMK AO2 TSNO
94908KDBQ DBQ20070311001510603/11/07 00:15:32  5-MIN KDBQ 110615Z AUTO 01003KT 10SM CLR M02/M04 A3036 670 81 -1100 010/03 RMK AO2 TSNO
94908KDBQ DBQ20070311002010603/11/07 00:20:31  5-MIN KDBQ 110620Z AUTO 02003KT 10SM CLR M02/M05 A3036 670 81 -1200 010/03 RMK AO2 TSNO
94908KDBQ DBQ20070311002510603/11/07 00:25:31  5-MIN KDBQ 110625Z AUTO 00000KT 10SM CLR M02/M05 A3037 670 78 -1100 000/00 RMK AO2 TSNO
94908KDBQ DBQ20070311003010603/11/07 00:30:31  5-MIN KDBQ 110630Z AUTO 02003KT 10SM CLR M02/M05 A3037 670 81 -1200 020/03 RMK AO2 TSNO
94908KDBQ DBQ20070311003510603/11/07 00:35:31  5-MIN KDBQ 110635Z AUTO 02004KT 10SM CLR M02/M05 A3036 670 78 -1100 020/04 RMK AO2 TSNO
94908KDBQ DBQ20070311004010603/11/07 00:40:31  5-MIN KDBQ 110640Z AUTO 02004KT 10SM CLR M01/M04 A3036 670 75 -1000 010/04 RMK AO2 TSNO
94908KDBQ DBQ20070311004510603/11/07 00:45:31  5-MIN KDBQ 110645Z AUTO 01005KT 10SM CLR M01/M04 A3037 670 75 -1000 010/05 RMK AO2 TSNO
94908KDBQ DBQ20070311005012303/11/07 00:50:31  5-MIN KDBQ 110650Z AUTO 01005KT 10SM CLR M01/M05 A3037 670 75 -1100 010/05 RMK AO2 SLP294 T10111050 TSNO
94908KDBQ DBQ20070311005512303/11/07 00:55:31  5-MIN KDBQ 110655Z AUTO 01006KT 10SM CLR M01/M05 A3037 670 75 -1100 010/06 RMK AO2 SLP294 T10111050 TSNO
94908KDBQ DBQ20070311010010603/11/07 01:00:31  5-MIN KDBQ 110700Z AUTO 01006KT 10SM CLR M02/M06 A3037 670 78 -1200 010/06 RMK AO2 TSNO
94908KDBQ DBQ20070311010510603/11/07 01:05:31  5-MIN KDBQ 110705Z AUTO 01006KT 10SM CLR M02/M06 A3037 670 78 -1200 010/06 RMK AO2 TSNO
94908KDBQ DBQ20070311011010603/11/07 01:10:31  5-MIN KDBQ 110710Z AUTO 01005KT 10SM CLR M02/M06 A3037 670 78 -1200 010/05 RMK AO2 TSNO
94908KDBQ DBQ20070311011510603/11/07 01:15:31  5-MIN KDBQ 110715Z AUTO 03003KT 10SM CLR M01/M04 A3037 670 75 -1000 030/03 RMK AO2 TSNO
94908KDBQ DBQ20070311012010403/11/07 01:20:31  5-MIN KDBQ 110720Z AUTO 03003KT 10SM CLR 00/M04 A3037 670 72 -900 030/03 RMK AO2 TSNO
94908KDBQ DBQ20070311012510603/11/07 01:25:31  5-MIN KDBQ 110725Z AUTO 03003KT 10SM CLR M01/M04 A3037 670 75 -1000 030/03 RMK AO2 TSNO
94908KDBQ DBQ20070311013010603/11/07 01:30:31  5-MIN KDBQ 110730Z AUTO 03004KT 10SM CLR M01/M04 A3037 670 75 -1000 030/04 RMK AO2 TSNO
94908KDBQ DBQ20070311013510603/11/07 01:35:31  5-MIN KDBQ 110735Z AUTO 03004KT 10SM CLR M01/M04 A3037 670 75 -1000 030/04 RMK AO2 TSNO
94908KDBQ DBQ20070311014010603/11/07 01:40:31  5-MIN KDBQ 110740Z AUTO 03005KT 10SM CLR M01/M05 A3037 670 75 -1100 030/05 RMK AO2 TSNO
94908KDBQ DBQ20070311014510603/11/07 01:45:31  5-MIN KDBQ 110745Z AUTO 02006KT 10SM CLR M02/M05 A3037 670 81 -1200 020/06 RMK AO2 TSNO
94908KDBQ DBQ20070311015012303/11/07 01:50:31  5-MIN KDBQ 110750Z AUTO 03006KT 10SM CLR M03/M06 A3037 670 81 -1300 030/06 RMK AO2 SLP295 T10331061 TSNO
94908KDBQ DBQ20070311015512303/11/07 01:55:31  5-MIN KDBQ 110755Z AUTO 03006KT 10SM CLR M03/M06 A3037 670 81 -1300 020/06 RMK AO2 SLP295 T10281056 TSNO
94908KDBQ DBQ20070311020010603/11/07 02:00:31  5-MIN KDBQ 110800Z AUTO 03006KT 10SM CLR M02/M05 A3037 670 81 -1200 030/06 RMK AO2 TSNO
94908KDBQ DBQ20070311020510603/11/07 02:05:31  5-MIN KDBQ 110805Z AUTO 03007KT 10SM CLR M02/M05 A3037 670 78 -1100 030/07 RMK AO2 TSNO
94908KDBQ DBQ20070311021010603/11/07 02:10:31  5-MIN KDBQ 110810Z AUTO 04007KT 10SM CLR M02/M06 A3036 670 78 -1200 040/07 RMK AO2 TSNO
94908KDBQ DBQ20070311021510603/11/07 02:15:31  5-MIN KDBQ 110815Z AUTO 04007KT 10SM CLR M02/M06 A3036 670 78 -1200 040/07 RMK AO2 TSNO
94908KDBQ DBQ20070311022010603/11/07 02:20:31  5-MIN KDBQ 110820Z AUTO 04007KT 10SM CLR M03/M06 A3036 670 81 -1300 040/07 RMK AO2 TSNO
94908KDBQ DBQ20070311022510603/11/07 02:25:31  5-MIN KDBQ 110825Z AUTO 04006KT 10SM CLR M02/M06 A3036 680 78 -1200 030/06 RMK AO2 TSNO
94908KDBQ DBQ20070311023010603/11/07 02:30:31  5-MIN KDBQ 110830Z AUTO 04005KT 10SM CLR M02/M06 A3036 670 78 -1200 040/05 RMK AO2 TSNO
94908KDBQ DBQ20070311023510603/11/07 02:35:31  5-MIN KDBQ 110835Z AUTO 04005KT 10SM CLR M02/M05 A3036 680 81 -1200 040/05 RMK AO2 TSNO
94908KDBQ DBQ20070311024010603/11/07 02:40:31  5-MIN KDBQ 110840Z AUTO 04005KT 10SM CLR M02/M05 A3036 670 81 -1200 040/05 RMK AO2 TSNO
94908KDBQ DBQ20070311024510603/11/07 02:45:31  5-MIN KDBQ 110845Z AUTO 04004KT 10SM CLR M03/M05 A3036 670 85 -1300 040/04 RMK AO2 TSNO
94908KDBQ DBQ20070311025012903/11/07 02:50:31  5-MIN KDBQ 110850Z AUTO 00000KT 10SM CLR M02/M05 A3036 670 81 -1200 000/00 RMK AO2 SLP292 T10221050 51012 TSNO
94908KDBQ DBQ20070311025512903/11/07 02:55:31  5-MIN KDBQ 110855Z AUTO 05003KT 10SM CLR M02/M05 A3036 670 78 -1100 040/03 RMK AO2 SLP292 T10171050 50000 TSNO
94908KDBQ DBQ20070311030010603/11/07 03:00:31  5-MIN KDBQ 110900Z AUTO 04005KT 10SM CLR M01/M04 A3036 670 78 -1000 030/05 RMK AO2 TSNO
94908KDBQ DBQ20070311030510603/11/07 03:05:31  5-MIN KDBQ 110905Z AUTO 04005KT 10SM CLR M02/M04 A3036 670 81 -1100 040/05 RMK AO2 TSNO
94908KDBQ DBQ20070311031010603/11/07 03:10:31  5-MIN KDBQ 110910Z AUTO 04004KT 10SM CLR M02/M04 A3037 670 81 -1100 040/04 RMK AO2 TSNO
94908KDBQ DBQ20070311031510603/11/07 03:15:31  5-MIN KDBQ 110915Z AUTO 04004KT 10SM CLR M02/M04 A3037 670 81 -1100 040/04 RMK AO2 TSNO
94908KDBQ DBQ20070311032010603/11/07 03:20:31  5-MIN KDBQ 110920Z AUTO 03005KT 10SM CLR M02/M04 A3037 660 81 -1100 030/05 RMK AO2 TSNO
94908KDBQ DBQ20070311032510603/11/07 03:25:31  5-MIN KDBQ 110925Z AUTO 03005KT 10SM CLR M02/M04 A3037 660 81 -1100 030/05 RMK AO2 TSNO
94908KDBQ DBQ20070311033010503/11/07 03:30:31  5-MIN KDBQ 110930Z AUTO 03004KT 9SM CLR M02/M04 A3038 660 85 -1200 030/04 RMK AO2 TSNO
94908KDBQ DBQ20070311033510503/11/07 03:35:31  5-MIN KDBQ 110935Z AUTO 04004KT 9SM CLR M02/M04 A3038 660 85 -1200 040/04 RMK AO2 TSNO
94908KDBQ DBQ20070311034010503/11/07 03:40:31  5-MIN KDBQ 110940Z AUTO 04004KT 8SM CLR M02/M04 A3038 650 85 -1200 040/04 RMK AO2 TSNO
94908KDBQ DBQ20070311034510503/11/07 03:45:31  5-MIN KDBQ 110945Z AUTO 04003KT 8SM CLR M02/M04 A3038 650 85 -1200 040/03 RMK AO2 TSNO
94908KDBQ DBQ20070311035012203/11/07 03:50:31  5-MIN KDBQ 110950Z AUTO 04003KT 8SM CLR M02/M04 A3038 650 85 -1100 040/03 RMK AO2 SLP300 T10171039 TSNO
94908KDBQ DBQ20070311035512203/11/07 03:55:31  5-MIN KDBQ 110955Z AUTO 00000KT 8SM CLR M02/M04 A3039 650 85 -1100 000/00 RMK AO2 SLP301 T10171039 TSNO
94908KDBQ DBQ20070311040010503/11/07 04:00:31  5-MIN KDBQ 111000Z AUTO 04003KT 7SM CLR M02/M04 A3039 650 85 -1200 040/03 RMK AO2 TSNO
94908KDBQ DBQ20070311040510503/11/07 04:05:31  5-MIN KDBQ 111005Z AUTO 00000KT 7SM CLR M02/M04 A3039 650 85 -1200 000/00 RMK AO2 TSNO
94908KDBQ DBQ20070311041010803/11/07 04:10:31  5-MIN KDBQ 111010Z AUTO 04005KT 6SM BR CLR M02/M04 A3039 650 85 -1200 040/05 RMK AO2 TSNO
94908KDBQ DBQ20070311041510803/11/07 04:15:31  5-MIN KDBQ 111015Z AUTO 05005KT 6SM BR CLR M02/M04 A3039 650 88 -1200 050/05 RMK AO2 TSNO
94908KDBQ DBQ20070311042010503/11/07 04:20:31  5-MIN KDBQ 111020Z AUTO 04005KT 7SM CLR M02/M04 A3039 640 85 -1200 040/05 RMK AO2 TSNO
94908KDBQ DBQ20070311042510803/11/07 04:25:31  5-MIN KDBQ 111025Z AUTO 05005KT 6SM BR CLR M02/M04 A3040 640 88 -1200 050/05 RMK AO2 TSNO
94908KDBQ DBQ20070311043010803/11/07 04:30:31  5-MIN KDBQ 111030Z AUTO 05004KT 6SM BR CLR M02/M04 A3040 640 88 -1200 050/04 RMK AO2 TSNO
94908KDBQ DBQ20070311043510803/11/07 04:35:31  5-MIN KDBQ 111035Z AUTO 03003KT 6SM BR CLR M02/M04 A3040 640 85 -1200 030/03 RMK AO2 TSNO
94908KDBQ DBQ20070311044010803/11/07 04:40:31  5-MIN KDBQ 111040Z AUTO 03003KT 5SM BR CLR M02/M04 A3040 640 88 -1200 030/03 RMK AO2 TSNO
94908KDBQ DBQ20070311044510803/11/07 04:45:31  5-MIN KDBQ 111045Z AUTO 00000KT 5SM BR CLR M02/M04 A3040 640 85 -1200 000/00 RMK AO2 TSNO
94908KDBQ DBQ20070311045012503/11/07 04:50:31  5-MIN KDBQ 111050Z AUTO 00000KT 5SM BR CLR M02/M04 A3040 640 85 -1200 000/00 RMK AO2 SLP306 T10171039 TSNO
94908KDBQ DBQ20070311045512503/11/07 04:55:31  5-MIN KDBQ 111055Z AUTO 25008KT 5SM BR CLR M03/M04 A3041 630 92 -1400 250/08 RMK AO2 SLP308 T10331044 TSNO
94908KDBQ DBQ20070311050009803/11/07 05:00:31  5-MIN KDBQ 111100Z 29003KT 4SM BR CLR M05/M07 A3041 630 88 -1600 290/03 RMK AO2
94908KDBQ DBQ20070311050509803/11/07 05:05:31  5-MIN KDBQ 111105Z 24004KT 4SM BR CLR M04/M07 A3041 630 84 -1500 240/04 RMK AO2
94908KDBQ DBQ20070311051009803/11/07 05:10:31  5-MIN KDBQ 111110Z 00000KT 5SM BR CLR M04/M06 A3041 630 85 -1500 000/00 RMK AO2
94908KDBQ DBQ20070311051509803/11/07 05:15:31  5-MIN KDBQ 111115Z 00000KT 5SM BR CLR M04/M06 A3041 630 88 -1500 000/00 RMK AO2
94908KDBQ DBQ20070311052009803/11/07 05:20:31  5-MIN KDBQ 111120Z 00000KT 6SM BR CLR M04/M06 A3041 630 88 -1500 000/00 RMK AO2
94908KDBQ DBQ20070311052509803/11/07 05:25:31  5-MIN KDBQ 111125Z 00000KT 5SM BR CLR M05/M07 A3041 630 88 -1600 000/00 RMK AO2
94908KDBQ DBQ20070311053009803/11/07 05:30:31  5-MIN KDBQ 111130Z 00000KT 5SM BR CLR M05/M07 A3041 630 88 -1600 000/00 RMK AO2
94908KDBQ DBQ20070311053509803/11/07 05:35:31  5-MIN KDBQ 111135Z 21003KT 4SM HZ CLR M04/M07 A3041 630 81 -1500 210/03 RMK AO2
94908KDBQ DBQ20070311054009803/11/07 05:40:31  5-MIN KDBQ 111140Z 00000KT 4SM BR CLR M04/M06 A3041 630 88 -1500 000/00 RMK AO2
94908KDBQ DBQ20070311054509803/11/07 05:45:31  5-MIN KDBQ 111145Z 21004KT 5SM BR CLR M05/M07 A3042 620 88 -1600 210/04 RMK AO2
94908KDBQ DBQ20070311055013303/11/07 05:50:31  5-MIN KDBQ 111150Z 22004KT 4SM BR CLR M05/M07 A3042 620 88 -1600 220/04 RMK AO2 SLP314 T10501067 10000 21056 50000
94908KDBQ DBQ20070311055513303/11/07 05:55:31  5-MIN KDBQ 111155Z 21005KT 4SM BR CLR M05/M07 A3042 620 88 -1600 210/05 RMK AO2 SLP314 T10501067 10000 21056 51018
94908KDBQ DBQ20070311060009803/11/07 06:00:31  5-MIN KDBQ 111200Z 21005KT 5SM BR CLR M05/M07 A3042 620 88 -1600 210/05 RMK AO2
94908KDBQ DBQ20070311060509803/11/07 06:05:31  5-MIN KDBQ 111205Z 21004KT 5SM BR CLR M05/M07 A3042 620 88 -1600 210/04 RMK AO2
94908KDBQ DBQ20070311061009803/11/07 06:10:31  5-MIN KDBQ 111210Z 22004KT 5SM BR CLR M04/M06 A3042 620 88 -1500 220/04 RMK AO2
94908KDBQ DBQ20070311061509803/11/07 06:15:31  5-MIN KDBQ 111215Z 21003KT 5SM BR CLR M05/M06 A3042 620 92 -1600 210/03 RMK AO2
94908KDBQ DBQ20070311062009803/11/07 06:20:31  5-MIN KDBQ 111220Z 21003KT 5SM BR CLR M04/M06 A3042 620 88 -1500 210/03 RMK AO2
94908KDBQ DBQ20070311062509803/11/07 06:25:31  5-MIN KDBQ 111225Z 21003KT 4SM BR CLR M04/M06 A3042 620 88 -1500 210/03 RMK AO2
94908KDBQ DBQ20070311063009803/11/07 06:30:31  5-MIN KDBQ 111230Z 21003KT 4SM BR CLR M04/M06 A3042 620 88 -1500 210/03 RMK AO2
94908KDBQ DBQ20070311063509803/11/07 06:35:31  5-MIN KDBQ 111235Z 00000KT 4SM BR CLR M04/M06 A3043 610 88 -1500 000/00 RMK AO2
94908KDBQ DBQ20070311064009803/11/07 06:40:31  5-MIN KDBQ 111240Z 00000KT 4SM BR CLR M04/M06 A3043 610 88 -1500 000/00 RMK AO2
94908KDBQ DBQ20070311064509803/11/07 06:45:31  5-MIN KDBQ 111245Z 22003KT 4SM BR CLR M04/M06 A3043 610 88 -1500 220/03 RMK AO2
94908KDBQ DBQ20070311065011503/11/07 06:50:31  5-MIN KDBQ 111250Z 22003KT 4SM BR CLR M05/M06 A3043 610 92 -1600 220/03 RMK AO2 SLP318 T10501061
94908KDBQ DBQ20070311065511503/11/07 06:55:31  5-MIN KDBQ 111255Z 22004KT 3SM BR CLR M04/M06 A3043 610 88 -1500 220/04 RMK AO2 SLP318 T10441061
94908KDBQ DBQ20070311070009803/11/07 07:00:31  5-MIN KDBQ 111300Z 21003KT 3SM BR CLR M04/M06 A3043 610 88 -1500 210/03 RMK AO2
94908KDBQ DBQ20070311070509803/11/07 07:05:31  5-MIN KDBQ 111305Z 00000KT 3SM BR CLR M04/M06 A3043 610 88 -1500 000/00 RMK AO2
94908KDBQ DBQ20070311071009803/11/07 07:10:31  5-MIN KDBQ 111310Z 00000KT 3SM BR CLR M04/M06 A3043 610 88 -1500 000/00 RMK AO2
94908KDBQ DBQ20070311071509803/11/07 07:15:31  5-MIN KDBQ 111315Z 00000KT 3SM BR CLR M03/M06 A3043 610 85 -1400 000/00 RMK AO2
94908KDBQ DBQ20070311072009803/11/07 07:20:31  5-MIN KDBQ 111320Z 00000KT 4SM BR CLR M03/M05 A3043 610 88 -1400 000/00 RMK AO2
94908KDBQ DBQ20070311072509803/11/07 07:25:31  5-MIN KDBQ 111325Z 00000KT 4SM BR CLR M04/M06 A3043 610 88 -1500 000/00 RMK AO2
94908KDBQ DBQ20070311073009803/11/07 07:30:31  5-MIN KDBQ 111330Z 00000KT 4SM BR CLR M03/M05 A3043 610 88 -1400 000/00 RMK AO2
94908KDBQ DBQ20070311073509803/11/07 07:35:31  5-MIN KDBQ 111335Z 00000KT 5SM BR CLR M02/M04 A3043 610 85 -1300 000/00 RMK AO2
94908KDBQ DBQ20070311074009803/11/07 07:40:31  5-MIN KDBQ 111340Z 00000KT 5SM BR CLR M02/M04 A3044 600 88 -1300 000/00 RMK AO2
94908KDBQ DBQ20070311074509803/11/07 07:45:31  5-MIN KDBQ 111345Z 00000KT 5SM BR CLR M02/M04 A3044 600 85 -1200 000/00 RMK AO2
94908KDBQ DBQ20070311075011503/11/07 07:50:31  5-MIN KDBQ 111350Z 00000KT 6SM HZ CLR M01/M04 A3044 600 81 -1100 000/00 RMK AO2 SLP320 T10111039
94908KDBQ DBQ20070311075511503/11/07 07:55:31  5-MIN KDBQ 111355Z 05003KT 6SM HZ CLR M01/M04 A3044 600 81 -1100 050/03 RMK AO2 SLP320 T10111039
94908KDBQ DBQ20070311080009403/11/07 08:00:31  5-MIN KDBQ 111400Z 06003KT 7SM CLR 00/M03 A3044 600 81 -1000 060/03 RMK AO2
94908KDBQ DBQ20070311080509703/11/07 08:05:31  5-MIN KDBQ 111405Z 05003KT 6SM BR CLR 00/M02 A3044 600 85 -1000 050/03 RMK AO2
94908KDBQ DBQ20070311081009703/11/07 08:10:31  5-MIN KDBQ 111410Z 00000KT 6SM BR CLR 00/M02 A3045 590 85 -1000 000/00 RMK AO2
94908KDBQ DBQ20070311081509403/11/07 08:15:31  5-MIN KDBQ 111415Z 00000KT 7SM CLR 00/M02 A3045 590 85 -1000 000/00 RMK AO2
94908KDBQ DBQ20070311082009303/11/07 08:20:31  5-MIN KDBQ 111420Z 00000KT 7SM CLR 01/M02 A3046 590 82 -900 000/00 RMK AO2
94908KDBQ DBQ20070311082509703/11/07 08:25:31  5-MIN KDBQ 111425Z 00000KT 6SM BR CLR 00/M02 A3046 590 85 -1000 000/00 RMK AO2
94908KDBQ DBQ20070311083009703/11/07 08:30:31  5-MIN KDBQ 111430Z 00000KT 6SM BR CLR 00/M02 A3046 590 85 -1000 000/00 RMK AO2
94908KDBQ DBQ20070311083509603/11/07 08:35:31  5-MIN KDBQ 111435Z 00000KT 6SM HZ CLR 01/M02 A3045 590 78 -900 000/00 RMK AO2
94908KDBQ DBQ20070311175012803/11/07 17:50:31  5-MIN KDBQ 112350Z 17009KT 10SM CLR 05/01 A3031 720 73 -200 170/09 RMK AO2 SLP275 T00500006 10083 20050 58031
94908KDBQ DBQ20070311175512803/11/07 17:55:31  5-MIN KDBQ 112355Z 17010KT 10SM CLR 04/01 A3030 730 76 -300 170/10 RMK AO2 SLP274 T00440006 10083 20044 56011
94908KDBQ DBQ20070311180009503/11/07 18:00:31  5-MIN KDBQ 120000Z 17011KT 10SM CLR 04/00 A3030 730 73 -300 170/11 RMK AO2 $
94908KDBQ DBQ20070311180509503/11/07 18:05:31  5-MIN KDBQ 120005Z 17010KT 10SM CLR 04/00 A3029 730 73 -300 170/10 RMK AO2 $
94908KDBQ DBQ20070311181009503/11/07 18:10:31  5-MIN KDBQ 120010Z 17010KT 10SM CLR 04/00 A3030 730 73 -300 170/10 RMK AO2 $
94908KDBQ DBQ20070311181509503/11/07 18:15:31  5-MIN KDBQ 120015Z 17009KT 10SM CLR 04/00 A3030 730 73 -300 170/09 RMK AO2 $
94908KDBQ DBQ20070311182009503/11/07 18:20:31  5-MIN KDBQ 120020Z 17009KT 10SM CLR 04/00 A3030 730 76 -300 170/09 RMK AO2 $
94908KDBQ DBQ20070311182509503/11/07 18:25:31  5-MIN KDBQ 120025Z 16009KT 10SM CLR 04/00 A3029 740 73 -300 160/09 RMK AO2 $
94908KDBQ DBQ20070311183009503/11/07 18:30:31  5-MIN KDBQ 120030Z 16009KT 10SM CLR 04/00 A3029 740 73 -300 160/09 RMK AO2 $
94908KDBQ DBQ20070311183510503/11/07 18:35:31  5-MIN KDBQ 120035Z AUTO 16009KT 10SM CLR 04/00 A3029 730 73 -300 160/09 RMK AO2 TSNO $
94908KDBQ DBQ20070311184010503/11/07 18:40:31  5-MIN KDBQ 120040Z AUTO 16009KT 10SM CLR 05/00 A3029 730 70 -200 160/09 RMK AO2 TSNO $
94908KDBQ DBQ20070311184510503/11/07 18:45:31  5-MIN KDBQ 120045Z AUTO 16009KT 10SM CLR 05/00 A3029 740 70 -200 160/09 RMK AO2 TSNO $
94908KDBQ DBQ20070311185012503/11/07 18:50:31  5-MIN KDBQ 120050Z AUTO 16009KT 10SM FEW120 05/00 A3029 740 70 -200 160/09 RMK AO2 SLP270 T00500000 TSNO $
94908KDBQ DBQ20070311185512503/11/07 18:55:31  5-MIN KDBQ 120055Z AUTO 16009KT 10SM SCT120 05/00 A3029 740 70 -200 160/09 RMK AO2 SLP270 T00500000 TSNO $
94908KDBQ DBQ20070311190010803/11/07 19:00:31  5-MIN KDBQ 120100Z AUTO 16007KT 10SM BKN120 04/00 A3029 740 73 -300 160/07 RMK AO2 TSNO $
94908KDBQ DBQ20070311190510803/11/07 19:05:31  5-MIN KDBQ 120105Z AUTO 16008KT 10SM BKN120 04/00 A3029 740 76 -300 160/08 RMK AO2 TSNO $
94908KDBQ DBQ20070311191010803/11/07 19:10:31  5-MIN KDBQ 120110Z AUTO 16008KT 10SM BKN120 04/00 A3029 740 73 -300 160/08 RMK AO2 TSNO $
94908KDBQ DBQ20070311191510803/11/07 19:15:31  5-MIN KDBQ 120115Z AUTO 16009KT 10SM BKN120 05/00 A3029 740 70 -200 160/09 RMK AO2 TSNO $
94908KDBQ DBQ20070311192010803/11/07 19:20:31  5-MIN KDBQ 120120Z AUTO 16009KT 10SM BKN120 05/00 A3029 740 70 -200 160/09 RMK AO2 TSNO $
94908KDBQ DBQ20070311192510803/11/07 19:25:31  5-MIN KDBQ 120125Z AUTO 16009KT 10SM BKN120 05/00 A3029 740 70 -200 160/09 RMK AO2 TSNO $
94908KDBQ DBQ20070311193010803/11/07 19:30:31  5-MIN KDBQ 120130Z AUTO 16009KT 10SM BKN120 05/00 A3028 740 70 -200 160/09 RMK AO2 TSNO $
94908KDBQ DBQ20070311193510803/11/07 19:35:31  5-MIN KDBQ 120135Z AUTO 16010KT 10SM BKN120 05/00 A3028 750 70 -200 160/10 RMK AO2 TSNO $
94908KDBQ DBQ20070311194010803/11/07 19:40:31  5-MIN KDBQ 120140Z AUTO 16010KT 10SM BKN120 05/00 A3028 750 70 -200 160/10 RMK AO2 TSNO $
94908KDBQ DBQ20070311194510803/11/07 19:45:31  5-MIN KDBQ 120145Z AUTO 16010KT 10SM BKN120 05/00 A3028 750 70 -200 160/10 RMK AO2 TSNO $
94908KDBQ DBQ20070311195012503/11/07 19:50:31  5-MIN KDBQ 120150Z AUTO 16010KT 10SM BKN120 04/00 A3028 750 73 -300 160/10 RMK AO2 SLP264 T00440000 TSNO $
94908KDBQ DBQ20070311195512503/11/07 19:55:31  5-MIN KDBQ 120155Z AUTO 17010KT 10SM BKN120 04/00 A3027 750 73 -300 160/10 RMK AO2 SLP263 T00440000 TSNO $
94908KDBQ DBQ20070311200010803/11/07 20:00:31  5-MIN KDBQ 120200Z AUTO 17010KT 10SM BKN120 04/00 A3027 750 73 -300 170/10 RMK AO2 TSNO $
94908KDBQ DBQ20070311200510803/11/07 20:05:31  5-MIN KDBQ 120205Z AUTO 17010KT 10SM BKN120 04/00 A3027 760 76 -300 170/10 RMK AO2 TSNO $
94908KDBQ DBQ20070311201010803/11/07 20:10:31  5-MIN KDBQ 120210Z AUTO 17010KT 10SM BKN120 04/00 A3027 760 76 -300 170/10 RMK AO2 TSNO $
94908KDBQ DBQ20070311201510803/11/07 20:15:31  5-MIN KDBQ 120215Z AUTO 17010KT 10SM BKN120 04/00 A3027 760 76 -300 170/10 RMK AO2 TSNO $
94908KDBQ DBQ20070311202010803/11/07 20:20:31  5-MIN KDBQ 120220Z AUTO 17010KT 10SM BKN120 04/00 A3026 760 76 -300 170/10 RMK AO2 TSNO $
94908KDBQ DBQ20070311202510803/11/07 20:25:31  5-MIN KDBQ 120225Z AUTO 17010KT 10SM BKN120 04/00 A3026 760 76 -300 170/10 RMK AO2 TSNO $
94908KDBQ DBQ20070311203010803/11/07 20:30:31  5-MIN KDBQ 120230Z AUTO 17010KT 10SM BKN120 04/00 A3026 760 76 -300 170/10 RMK AO2 TSNO $
94908KDBQ DBQ20070311203510803/11/07 20:35:31  5-MIN KDBQ 120235Z AUTO 17010KT 10SM BKN120 04/00 A3026 760 76 -300 170/10 RMK AO2 TSNO $
94908KDBQ DBQ20070311204010803/11/07 20:40:31  5-MIN KDBQ 120240Z AUTO 17009KT 10SM OVC120 04/00 A3026 770 76 -300 170/09 RMK AO2 TSNO $
94908KDBQ DBQ20070311204510803/11/07 20:45:31  5-MIN KDBQ 120245Z AUTO 17009KT 10SM OVC120 04/00 A3026 770 76 -300 170/09 RMK AO2 TSNO $
94908KDBQ DBQ20070311205013103/11/07 20:50:31  5-MIN KDBQ 120250Z AUTO 17010KT 10SM OVC120 04/00 A3026 770 76 -300 170/10 RMK AO2 SLP255 T00390000 56011 TSNO $
94908KDBQ DBQ20070311205513103/11/07 20:55:31  5-MIN KDBQ 120255Z AUTO 17010KT 10SM OVC120 04/00 A3025 770 76 -300 170/10 RMK AO2 SLP254 T00390000 58016 TSNO $
94908KDBQ DBQ20070311210010803/11/07 21:00:31  5-MIN KDBQ 120300Z AUTO 18010KT 10SM BKN120 04/00 A3025 770 76 -300 180/10 RMK AO2 TSNO $
94908KDBQ DBQ20070311210510803/11/07 21:05:31  5-MIN KDBQ 120305Z AUTO 18010KT 10SM BKN120 04/00 A3026 770 76 -300 180/10 RMK AO2 TSNO $
94908KDBQ DBQ20070311211010803/11/07 21:10:31  5-MIN KDBQ 120310Z AUTO 18010KT 10SM BKN120 04/00 A3026 770 76 -300 180/10 RMK AO2 TSNO $
94908KDBQ DBQ20070311211510803/11/07 21:15:31  5-MIN KDBQ 120315Z AUTO 18011KT 10SM BKN120 04/00 A3026 770 76 -300 180/11 RMK AO2 TSNO $
94908KDBQ DBQ20070311212010803/11/07 21:20:31  5-MIN KDBQ 120320Z AUTO 18010KT 10SM BKN120 04/00 A3026 770 73 -200 180/10 RMK AO2 TSNO $
94908KDBQ DBQ20070311212510903/11/07 21:25:31  5-MIN KDBQ 120325Z AUTO 18009KT 10SM BKN120 04/M01 A3025 770 70 -200 180/09 RMK AO2 TSNO $
94908KDBQ DBQ20070311213010903/11/07 21:30:31  5-MIN KDBQ 120330Z AUTO 19009KT 10SM OVC120 04/M01 A3025 770 70 -200 180/09 RMK AO2 TSNO $
94908KDBQ DBQ20070311213510903/11/07 21:35:31  5-MIN KDBQ 120335Z AUTO 19009KT 10SM OVC120 04/M01 A3025 780 73 -300 190/09 RMK AO2 TSNO $
94908KDBQ DBQ20070311214010903/11/07 21:40:31  5-MIN KDBQ 120340Z AUTO 19009KT 10SM OVC120 04/M01 A3025 780 73 -300 190/09 RMK AO2 TSNO $
94908KDBQ DBQ20070311214510903/11/07 21:45:31  5-MIN KDBQ 120345Z AUTO 19008KT 10SM OVC120 04/M01 A3025 780 73 -300 190/08 RMK AO2 TSNO $
94908KDBQ DBQ20070311215012603/11/07 21:50:31  5-MIN KDBQ 120350Z AUTO 18010KT 10SM OVC120 04/M01 A3024 780 73 -300 180/10 RMK AO2 SLP251 T00391006 TSNO $
94908KDBQ DBQ20070311215512603/11/07 21:55:31  5-MIN KDBQ 120355Z AUTO 18010KT 10SM OVC120 04/M01 A3024 780 70 -200 170/10 RMK AO2 SLP250 T00441006 TSNO $
94908KDBQ DBQ20070311220010903/11/07 22:00:31  5-MIN KDBQ 120400Z AUTO 17011KT 10SM OVC120 04/M01 A3024 780 70 -200 170/11 RMK AO2 TSNO $
94908KDBQ DBQ20070311220510903/11/07 22:05:31  5-MIN KDBQ 120405Z AUTO 17010KT 10SM OVC120 04/M01 A3024 780 70 -200 170/10 RMK AO2 TSNO $
94908KDBQ DBQ20070311221010903/11/07 22:10:31  5-MIN KDBQ 120410Z AUTO 18009KT 10SM OVC120 04/M01 A3024 780 70 -200 180/09 RMK AO2 TSNO $
94908KDBQ DBQ20070311221510903/11/07 22:15:31  5-MIN KDBQ 120415Z AUTO 18010KT 10SM OVC120 04/M01 A3024 790 70 -200 170/10 RMK AO2 TSNO $
94908KDBQ DBQ20070311222010903/11/07 22:20:31  5-MIN KDBQ 120420Z AUTO 17011KT 10SM OVC120 04/M01 A3023 800 70 -200 170/11 RMK AO2 TSNO $
94908KDBQ DBQ20070311222510903/11/07 22:25:31  5-MIN KDBQ 120425Z AUTO 17012KT 10SM OVC120 04/M01 A3022 800 67 -200 170/12 RMK AO2 TSNO $
94908KDBQ DBQ20070311223010903/11/07 22:30:31  5-MIN KDBQ 120430Z AUTO 17012KT 10SM BKN120 04/M01 A3022 800 67 -200 170/12 RMK AO2 TSNO $
94908KDBQ DBQ20070311223510903/11/07 22:35:31  5-MIN KDBQ 120435Z AUTO 17011KT 10SM BKN120 04/M01 A3022 810 67 -200 170/11 RMK AO2 TSNO $
94908KDBQ DBQ20070311224010903/11/07 22:40:31  5-MIN KDBQ 120440Z AUTO 17010KT 10SM SCT120 04/M01 A3022 810 70 -300 170/10 RMK AO2 TSNO $
94908KDBQ DBQ20070311224510903/11/07 22:45:31  5-MIN KDBQ 120445Z AUTO 18009KT 10SM SCT120 04/M01 A3022 810 70 -300 180/09 RMK AO2 TSNO $
94908KDBQ DBQ20070311225012603/11/07 22:50:31  5-MIN KDBQ 120450Z AUTO 18009KT 10SM FEW120 04/M01 A3022 800 70 -300 180/09 RMK AO2 SLP242 T00391011 TSNO $
94908KDBQ DBQ20070311225512603/11/07 22:55:31  5-MIN KDBQ 120455Z AUTO 19010KT 10SM FEW120 04/M01 A3022 800 67 -200 180/10 RMK AO2 SLP242 T00441011 TSNO $
94908KDBQ DBQ20070311230010603/11/07 23:00:31  5-MIN KDBQ 120500Z AUTO 19010KT 10SM CLR 04/M01 A3022 810 67 -200 190/10 RMK AO2 TSNO $
94908KDBQ DBQ20070311230510603/11/07 23:05:31  5-MIN KDBQ 120505Z AUTO 19011KT 10SM CLR 04/M01 A3021 810 67 -200 190/11 RMK AO2 TSNO $
94908KDBQ DBQ20070311231010603/11/07 23:10:31  5-MIN KDBQ 120510Z AUTO 19011KT 10SM CLR 04/M02 A3021 820 64 -200 190/11 RMK AO2 TSNO $
94908KDBQ DBQ20070311231510603/11/07 23:15:31  5-MIN KDBQ 120515Z AUTO 19011KT 10SM CLR 04/M02 A3020 820 64 -200 190/11 RMK AO2 TSNO $
94908KDBQ DBQ20070311232010603/11/07 23:20:31  5-MIN KDBQ 120520Z AUTO 19012KT 10SM CLR 04/M02 A3020 820 64 -200 190/12 RMK AO2 TSNO $
94908KDBQ DBQ20070311232510603/11/07 23:25:31  5-MIN KDBQ 120525Z AUTO 19012KT 10SM CLR 04/M02 A3020 820 64 -200 190/12 RMK AO2 TSNO $
94908KDBQ DBQ20070311233010603/11/07 23:30:31  5-MIN KDBQ 120530Z AUTO 20012KT 10SM CLR 04/M02 A3020 820 64 -200 190/12 RMK AO2 TSNO $
94908KDBQ DBQ20070311233510603/11/07 23:35:31  5-MIN KDBQ 120535Z AUTO 20011KT 10SM CLR 04/M02 A3019 830 64 -200 200/11 RMK AO2 TSNO $
94908KDBQ DBQ20070311234010603/11/07 23:40:31  5-MIN KDBQ 120540Z AUTO 20011KT 10SM CLR 04/M02 A3019 830 67 -200 200/11 RMK AO2 TSNO $
94908KDBQ DBQ20070311234510603/11/07 23:45:31  5-MIN KDBQ 120545Z AUTO 20011KT 10SM CLR 04/M02 A3019 830 67 -200 200/11 RMK AO2 TSNO $
94908KDBQ DBQ20070311235015103/11/07 23:50:31  5-MIN KDBQ 120550Z AUTO 20010KT 10SM CLR 04/M02 A3019 830 67 -200 200/10 RMK AO2 SLP231 T00391017 10050 20039 400831056 58016 TSNO $
94908KDBQ DBQ20070311235515103/11/07 23:55:31  5-MIN KDBQ 120555Z AUTO 20010KT 10SM CLR 04/M02 A3019 830 67 -200 200/10 RMK AO2 SLP230 T00391017 10050 20039 400831056 58022 TSNO $
94908KDBQ DBQ20070312000010603/12/07 00:00:38  5-MIN KDBQ 120600Z AUTO 21010KT 10SM CLR 04/M02 A3018 840 67 -200 210/10 RMK AO2 TSNO $
94908KDBQ DBQ20070312000510603/12/07 00:05:31  5-MIN KDBQ 120605Z AUTO 21009KT 10SM CLR 03/M02 A3018 840 70 -300 210/09 RMK AO2 TSNO $
94908KDBQ DBQ20070312001010603/12/07 00:10:31  5-MIN KDBQ 120610Z AUTO 21010KT 10SM CLR 03/M02 A3017 840 70 -300 210/10 RMK AO2 TSNO $
94908KDBQ DBQ20070312001510603/12/07 00:15:31  5-MIN KDBQ 120615Z AUTO 21009KT 10SM CLR 03/M02 A3017 850 70 -300 210/09 RMK AO2 TSNO $
94908KDBQ DBQ20070312002011303/12/07 00:20:31  5-MIN KDBQ 120620Z AUTO 21010KT 10SM CLR 03/M02 A3016 860 70 -300 210/10 RMK AO2 PRESFR TSNO $
94908KDBQ DBQ20070312002511303/12/07 00:25:31  5-MIN KDBQ 120625Z AUTO 21011KT 10SM CLR 03/M02 A3016 860 70 -300 210/11 RMK AO2 PRESFR TSNO $
94908KDBQ DBQ20070312003010603/12/07 00:30:31  5-MIN KDBQ 120630Z AUTO 21010KT 10SM CLR 03/M02 A3016 860 70 -300 210/10 RMK AO2 TSNO $
94908KDBQ DBQ20070312003510603/12/07 00:35:31  5-MIN KDBQ 120635Z AUTO 22009KT 10SM CLR 03/M02 A3016 860 70 -300 220/09 RMK AO2 TSNO $
94908KDBQ DBQ20070312004010603/12/07 00:40:31  5-MIN KDBQ 120640Z AUTO 22009KT 10SM CLR 03/M02 A3016 860 70 -300 220/09 RMK AO2 TSNO $
94908KDBQ DBQ20070312004510603/12/07 00:45:31  5-MIN KDBQ 120645Z AUTO 21009KT 10SM CLR 03/M02 A3016 860 67 -300 210/09 RMK AO2 TSNO $
94908KDBQ DBQ20070312005012303/12/07 00:50:31  5-MIN KDBQ 120650Z AUTO 21010KT 10SM CLR 03/M02 A3016 860 67 -300 210/10 RMK AO2 SLP221 T00331022 TSNO $
94908KDBQ DBQ20070312005512303/12/07 00:55:31  5-MIN KDBQ 120655Z AUTO 20010KT 10SM CLR 04/M02 A3016 850 64 -200 200/10 RMK AO2 SLP222 T00391022 TSNO $
94908KDBQ DBQ20070312010010903/12/07 01:00:31  5-MIN KDBQ 120700Z AUTO 20010KT 10SM FEW070 04/M02 A3016 850 64 -200 200/10 RMK AO2 TSNO $
94908KDBQ DBQ20070312010510903/12/07 01:05:31  5-MIN KDBQ 120705Z AUTO 20009KT 10SM SCT070 04/M02 A3016 860 67 -200 200/09 RMK AO2 TSNO $
94908KDBQ DBQ20070312011010903/12/07 01:10:31  5-MIN KDBQ 120710Z AUTO 20011KT 10SM BKN070 03/M02 A3016 860 70 -300 200/11 RMK AO2 TSNO $
94908KDBQ DBQ20070312011510903/12/07 01:15:31  5-MIN KDBQ 120715Z AUTO 20011KT 10SM BKN070 03/M02 A3015 860 70 -300 200/11 RMK AO2 TSNO $
94908KDBQ DBQ20070312012011603/12/07 01:20:31  5-MIN KDBQ 120720Z AUTO 21011KT 10SM BKN070 BKN100 03/M02 A3015 860 70 -300 210/11 RMK AO2 TSNO $
94908KDBQ DBQ20070312012511603/12/07 01:25:31  5-MIN KDBQ 120725Z AUTO 21011KT 10SM BKN070 BKN100 04/M02 A3015 870 67 -200 210/11 RMK AO2 TSNO $
94908KDBQ DBQ20070312013011603/12/07 01:30:31  5-MIN KDBQ 120730Z AUTO 21010KT 10SM SCT070 BKN100 03/M02 A3015 870 70 -200 210/10 RMK AO2 TSNO $
94908KDBQ DBQ20070312013511603/12/07 01:35:31  5-MIN KDBQ 120735Z AUTO 21009KT 10SM SCT075 BKN100 03/M02 A3014 870 70 -200 210/09 RMK AO2 TSNO $
94908KDBQ DBQ20070312014011603/12/07 01:40:31  5-MIN KDBQ 120740Z AUTO 21009KT 10SM FEW075 SCT100 03/M02 A3015 870 70 -200 210/09 RMK AO2 TSNO $
94908KDBQ DBQ20070312014510903/12/07 01:45:31  5-MIN KDBQ 120745Z AUTO 22008KT 10SM SCT100 04/M02 A3015 860 67 -200 220/08 RMK AO2 TSNO $
94908KDBQ DBQ20070312015012603/12/07 01:50:31  5-MIN KDBQ 120750Z AUTO 22008KT 10SM BKN100 04/M02 A3015 870 67 -200 220/08 RMK AO2 SLP217 T00391017 TSNO $
94908KDBQ DBQ20070312015513303/12/07 01:55:31  5-MIN KDBQ 120755Z AUTO 22008KT 10SM FEW075 BKN100 04/M02 A3015 870 64 -200 220/08 RMK AO2 SLP216 T00391022 TSNO $
94908KDBQ DBQ20070312020011603/12/07 02:00:31  5-MIN KDBQ 120800Z AUTO 22009KT 10SM FEW075 BKN100 04/M02 A3015 870 67 -200 220/09 RMK AO2 TSNO $
94908KDBQ DBQ20070312020510903/12/07 02:05:31  5-MIN KDBQ 120805Z AUTO 22010KT 10SM BKN100 04/M02 A3014 870 64 -200 210/10 RMK AO2 TSNO $
94908KDBQ DBQ20070312021011603/12/07 02:10:31  5-MIN KDBQ 120810Z AUTO 21010KT 10SM FEW080 OVC100 04/M02 A3014 870 62 -100 210/10 RMK AO2 TSNO $
94908KDBQ DBQ20070312021511603/12/07 02:15:31  5-MIN KDBQ 120815Z AUTO 21011KT 10SM SCT080 OVC100 04/M02 A3014 880 62 -100 210/11 RMK AO2 TSNO $
94908KDBQ DBQ20070312022011603/12/07 02:20:31  5-MIN KDBQ 120820Z AUTO 21011KT 10SM BKN080 OVC100 04/M02 A3014 880 62 -100 210/11 RMK AO2 TSNO $
94908KDBQ DBQ20070312022511603/12/07 02:25:31  5-MIN KDBQ 120825Z AUTO 22010KT 10SM BKN080 OVC100 04/M02 A3014 870 64 -100 210/10 RMK AO2 TSNO $
94908KDBQ DBQ20070312023011603/12/07 02:30:31  5-MIN KDBQ 120830Z AUTO 22010KT 10SM BKN080 OVC100 04/M02 A3014 870 62 -100 220/10 RMK AO2 TSNO $
94908KDBQ DBQ20070312023510903/12/07 02:35:31  5-MIN KDBQ 120835Z AUTO 22010KT 10SM OVC075 04/M02 A3014 870 64 -100 220/10 RMK AO2 TSNO $
94908KDBQ DBQ20070312024010903/12/07 02:40:31  5-MIN KDBQ 120840Z AUTO 22010KT 10SM OVC075 04/M02 A3014 880 64 -100 220/10 RMK AO2 TSNO $
94908KDBQ DBQ20070312024510903/12/07 02:45:31  5-MIN KDBQ 120845Z AUTO 22009KT 10SM OVC070 04/M02 A3014 880 64 -100 220/09 RMK AO2 TSNO $
94908KDBQ DBQ20070312025014603/12/07 02:50:31  5-MIN KDBQ 120850Z AUTO 22009KT 10SM FEW049 BKN065 OVC080 04/M02 A3014 880 64 -100 220/09 RMK AO2 SLP214 T00441017 58022 TSNO $
94908KDBQ DBQ20070312025513903/12/07 02:55:31  5-MIN KDBQ 120855Z AUTO 22008KT 10SM SCT049 OVC065 04/M02 A3014 880 64 -100 220/08 RMK AO2 SLP213 T00441017 56015 TSNO $
94908KDBQ DBQ20070312030011603/12/07 03:00:31  5-MIN KDBQ 120900Z AUTO 22008KT 10SM SCT049 OVC065 04/M02 A3014 880 67 -200 220/08 RMK AO2 TSNO $
94908KDBQ DBQ20070312030511603/12/07 03:05:31  5-MIN KDBQ 120905Z AUTO 22007KT 10SM BKN049 OVC065 04/M01 A3014 880 70 -200 220/07 RMK AO2 TSNO $
94908KDBQ DBQ20070312031011603/12/07 03:10:31  5-MIN KDBQ 120910Z AUTO 22008KT 10SM BKN049 OVC065 04/M01 A3013 880 70 -200 220/08 RMK AO2 TSNO $
94908KDBQ DBQ20070312031511603/12/07 03:15:31  5-MIN KDBQ 120915Z AUTO 21008KT 10SM BKN049 OVC065 04/M01 A3013 880 70 -200 210/08 RMK AO2 TSNO $
94908KDBQ DBQ20070312032011603/12/07 03:20:31  5-MIN KDBQ 120920Z AUTO 21009KT 10SM BKN049 OVC065 03/M01 A3013 890 72 -200 210/09 RMK AO2 TSNO $
94908KDBQ DBQ20070312032511603/12/07 03:25:31  5-MIN KDBQ 120925Z AUTO 22009KT 10SM BKN049 OVC065 03/M01 A3013 880 72 -200 220/09 RMK AO2 TSNO $
94908KDBQ DBQ20070312033011603/12/07 03:30:31  5-MIN KDBQ 120930Z AUTO 21009KT 10SM BKN049 OVC060 03/M01 A3013 890 72 -200 210/09 RMK AO2 TSNO $
94908KDBQ DBQ20070312033510903/12/07 03:35:31  5-MIN KDBQ 120935Z AUTO 21009KT 10SM OVC049 04/M01 A3012 890 70 -200 210/09 RMK AO2 TSNO $
94908KDBQ DBQ20070312034010903/12/07 03:40:31  5-MIN KDBQ 120940Z AUTO 21009KT 10SM OVC049 04/M01 A3012 890 70 -100 210/09 RMK AO2 TSNO $
94908KDBQ DBQ20070312034510903/12/07 03:45:31  5-MIN KDBQ 120945Z AUTO 21009KT 10SM OVC049 04/M01 A3012 890 67 -100 210/09 RMK AO2 TSNO $
94908KDBQ DBQ20070312035012603/12/07 03:50:31  5-MIN KDBQ 120950Z AUTO 22010KT 10SM OVC047 04/M01 A3012 890 67 -100 210/10 RMK AO2 SLP207 T00441011 TSNO $
94908KDBQ DBQ20070312035513303/12/07 03:55:31  5-MIN KDBQ 120955Z AUTO 22010KT 10SM BKN043 OVC050 04/M02 A3012 900 64 -100 210/10 RMK AO2 SLP206 T00441017 TSNO $
94908KDBQ DBQ20070312040010903/12/07 04:00:31  5-MIN KDBQ 121000Z AUTO 21011KT 10SM OVC043 04/M02 A3012 900 64 -100 210/11 RMK AO2 TSNO $
94908KDBQ DBQ20070312040510903/12/07 04:05:31  5-MIN KDBQ 121005Z AUTO 21011KT 10SM OVC041 04/M01 A3011 900 67 -100 210/11 RMK AO2 TSNO $
94908KDBQ DBQ20070312041010903/12/07 04:10:31  5-MIN KDBQ 121010Z AUTO 20011KT 10SM OVC041 04/M01 A3011 900 67 -100 200/11 RMK AO2 TSNO $
94908KDBQ DBQ20070312041511603/12/07 04:15:31  5-MIN KDBQ 121015Z AUTO 20011KT 10SM BKN041 OVC060 04/M01 A3011 910 67 -100 200/11 RMK AO2 TSNO $
94908KDBQ DBQ20070312042011603/12/07 04:20:31  5-MIN KDBQ 121020Z AUTO 20012KT 10SM SCT041 OVC060 04/M01 A3010 910 67 -100 200/12 RMK AO2 TSNO $
94908KDBQ DBQ20070312042511603/12/07 04:25:31  5-MIN KDBQ 121025Z AUTO 21011KT 10SM SCT041 OVC065 04/M01 A3010 910 67 -100 210/11 RMK AO2 TSNO $
94908KDBQ DBQ20070312043011603/12/07 04:30:31  5-MIN KDBQ 121030Z AUTO 21011KT 10SM FEW041 OVC065 04/M01 A3011 910 67 -100 210/11 RMK AO2 TSNO $
94908KDBQ DBQ20070312043512303/12/07 04:35:31  5-MIN KDBQ 121035Z AUTO 21011KT 10SM FEW041 BKN065 OVC090 04/M01 A3011 900 67 -100 210/11 RMK AO2 TSNO $
94908KDBQ DBQ20070312044011603/12/07 04:40:31  5-MIN KDBQ 121040Z AUTO 22011KT 10SM BKN065 OVC090 04/M02 A3011 900 64 -100 220/11 RMK AO2 TSNO $
94908KDBQ DBQ20070312044512303/12/07 04:45:31  5-MIN KDBQ 121045Z AUTO 22011KT 10SM FEW049 BKN070 OVC090 04/M01 A3011 900 67 -100 210/11 RMK AO2 TSNO $
94908KDBQ DBQ20070312045013003/12/07 04:50:31  5-MIN KDBQ 121050Z 22010KT 10SM SCT049 BKN070 OVC090 04/M01 A3011 900 67 -100 220/10 RMK AO2 SLP204 T00441011 $
94908KDBQ DBQ20070312045513003/12/07 04:55:31  5-MIN KDBQ 121055Z 22009KT 10SM SCT049 BKN070 OVC090 04/M01 A3011 900 67 -100 220/09 RMK AO2 SLP203 T00441011 $
94908KDBQ DBQ20070312050010603/12/07 05:00:31  5-MIN KDBQ 121100Z 22008KT 10SM BKN047 OVC070 04/M01 A3011 900 67 -100 220/08 RMK AO2 $
94908KDBQ DBQ20070312050510603/12/07 05:05:31  5-MIN KDBQ 121105Z 22009KT 10SM BKN047 OVC075 04/M01 A3011 910 67 -100 220/09 RMK AO2 $
94908KDBQ DBQ20070312051010603/12/07 05:10:31  5-MIN KDBQ 121110Z 21009KT 10SM SCT047 BKN075 04/M01 A3010 910 70 -100 210/09 RMK AO2 $
94908KDBQ DBQ20070312051510603/12/07 05:15:31  5-MIN KDBQ 121115Z 21010KT 10SM SCT047 BKN075 04/M01 A3010 910 70 -100 210/10 RMK AO2 $
94908KDBQ DBQ20070312052010603/12/07 05:20:31  5-MIN KDBQ 121120Z 21011KT 10SM FEW047 BKN075 04/M02 A3010 910 67 -100 210/11 RMK AO2 $
94908KDBQ DBQ20070312052510603/12/07 05:25:31  5-MIN KDBQ 121125Z 21011KT 10SM FEW047 SCT075 04/M02 A3010 920 67 -100 210/11 RMK AO2 $
94908KDBQ DBQ20070312053009903/12/07 05:30:31  5-MIN KDBQ 121130Z 21011KT 10SM FEW075 04/M02 A3010 920 67 -100 210/11 RMK AO2 $
94908KDBQ DBQ20070312053509903/12/07 05:35:31  5-MIN KDBQ 121135Z 21011KT 10SM FEW075 04/M02 A3010 920 67 -100 210/11 RMK AO2 $
94908KDBQ DBQ20070312054009603/12/07 05:40:31  5-MIN KDBQ 121140Z 21011KT 10SM CLR 04/M02 A3009 920 67 -100 210/11 RMK AO2 $
94908KDBQ DBQ20070312054509603/12/07 05:45:31  5-MIN KDBQ 121145Z 21012KT 10SM CLR 03/M02 A3009 920 70 -200 210/12 RMK AO2 $
94908KDBQ DBQ20070312055013103/12/07 05:50:31  5-MIN KDBQ 121150Z 21013KT 10SM CLR 03/M02 A3009 920 70 -200 210/13 RMK AO2 SLP197 T00331017 10044 20033 56015 $
94908KDBQ DBQ20070312055513403/12/07 05:55:31  5-MIN KDBQ 121155Z 22011KT 10SM FEW028 04/M02 A3009 930 67 -100 220/11 RMK AO2 SLP197 T00391017 10044 20033 58018 $
94908KDBQ DBQ20070312060009903/12/07 06:00:31  5-MIN KDBQ 121200Z 22012KT 10SM FEW028 04/M02 A3008 930 67 -100 220/12 RMK AO2 $
94908KDBQ DBQ20070312060509903/12/07 06:05:31  5-MIN KDBQ 121205Z 22012KT 10SM FEW028 04/M02 A3009 930 67 -100 220/12 RMK AO2 $
94908KDBQ DBQ20070312061009903/12/07 06:10:31  5-MIN KDBQ 121210Z 22011KT 10SM FEW028 03/M02 A3009 930 70 -200 220/11 RMK AO2 $
94908KDBQ DBQ20070312061509903/12/07 06:15:31  5-MIN KDBQ 121215Z 22011KT 10SM FEW028 03/M02 A3008 930 70 -200 220/11 RMK AO2 $
94908KDBQ DBQ20070312062009903/12/07 06:20:31  5-MIN KDBQ 121220Z 22010KT 10SM FEW028 03/M02 A3008 930 70 -200 220/10 RMK AO2 $
94908KDBQ DBQ20070312062509603/12/07 06:25:31  5-MIN KDBQ 121225Z 22009KT 10SM CLR 03/M01 A3008 930 75 -200 220/09 RMK AO2 $
94908KDBQ DBQ20070312063009603/12/07 06:30:31  5-MIN KDBQ 121230Z 22011KT 10SM CLR 03/M01 A3008 930 72 -200 220/11 RMK AO2 $
94908KDBQ DBQ20070312063509603/12/07 06:35:31  5-MIN KDBQ 121235Z 23010KT 10SM CLR 03/M01 A3008 930 75 -200 230/10 RMK AO2 $
94908KDBQ DBQ20070312064009603/12/07 06:40:31  5-MIN KDBQ 121240Z 23011KT 10SM CLR 03/M01 A3008 930 72 -200 220/11 RMK AO2 $
94908KDBQ DBQ20070312064509603/12/07 06:45:31  5-MIN KDBQ 121245Z 23010KT 10SM CLR 03/M01 A3008 930 72 -200 220/10 RMK AO2 $
94908KDBQ DBQ20070312065011303/12/07 06:50:31  5-MIN KDBQ 121250Z 23010KT 10SM CLR 03/M01 A3008 930 72 -200 230/10 RMK AO2 SLP196 T00331011 $
94908KDBQ DBQ20070312065511303/12/07 06:55:31  5-MIN KDBQ 121255Z 22010KT 10SM CLR 03/M01 A3008 930 75 -200 220/10 RMK AO2 SLP196 T00281011 $
94908KDBQ DBQ20070312070009603/12/07 07:00:31  5-MIN KDBQ 121300Z 23010KT 10SM CLR 03/M01 A3008 930 72 -200 230/10 RMK AO2 $
94908KDBQ DBQ20070312070509603/12/07 07:05:31  5-MIN KDBQ 121305Z 23010KT 10SM CLR 03/M01 A3008 930 72 -200 230/10 RMK AO2 $
94908KDBQ DBQ20070312071009603/12/07 07:10:31  5-MIN KDBQ 121310Z 22011KT 10SM CLR 03/M01 A3008 930 72 -200 220/11 RMK AO2 $
94908KDBQ DBQ20070312071509603/12/07 07:15:31  5-MIN KDBQ 121315Z 22011KT 10SM CLR 04/M01 A3008 930 73 -100 220/11 RMK AO2 $
94908KDBQ DBQ20070312072009603/12/07 07:20:31  5-MIN KDBQ 121320Z 23011KT 10SM CLR 04/M01 A3008 930 73 -100 220/11 RMK AO2 $
94908KDBQ DBQ20070312072509603/12/07 07:25:31  5-MIN KDBQ 121325Z 22011KT 10SM CLR 04/M01 A3008 930 73 -100 220/11 RMK AO2 $
94908KDBQ DBQ20070312073009303/12/07 07:30:31  5-MIN KDBQ 121330Z 22011KT 10SM CLR 04/M01 A3008 930 70 0 220/11 RMK AO2 $
94908KDBQ DBQ20070312073509303/12/07 07:35:31  5-MIN KDBQ 121335Z 22011KT 10SM CLR 04/M01 A3008 930 70 0 220/11 RMK AO2 $
94908KDBQ DBQ20070312074009303/12/07 07:40:31  5-MIN KDBQ 121340Z 22011KT 10SM CLR 04/M01 A3008 930 70 0 220/11 RMK AO2 $
94908KDBQ DBQ20070312074509003/12/07 07:45:31  5-MIN KDBQ 121345Z 22011KT 10SM CLR 05/00 A3008 930 70 0 220/11 RMK AO2
94908KDBQ DBQ20070312075010703/12/07 07:50:31  5-MIN KDBQ 121350Z 22012KT 10SM CLR 05/00 A3008 930 70 0 220/12 RMK AO2 SLP193 T00500000
94908KDBQ DBQ20070312075510703/12/07 07:55:31  5-MIN KDBQ 121355Z 22012KT 10SM CLR 05/00 A3008 930 70 0 220/12 RMK AO2 SLP193 T00500000
94908KDBQ DBQ20070312080009203/12/07 08:00:31  5-MIN KDBQ 121400Z 22012KT 10SM CLR 06/00 A3007 940 67 100 220/12 RMK AO2
94908KDBQ DBQ20070312080509203/12/07 08:05:31  5-MIN KDBQ 121405Z 22012KT 10SM CLR 06/00 A3007 940 67 100 220/12 RMK AO2
94908KDBQ DBQ20070312081009203/12/07 08:10:31  5-MIN KDBQ 121410Z 22012KT 10SM CLR 06/01 A3007 940 70 100 220/12 RMK AO2
94908KDBQ DBQ20070312081509203/12/07 08:15:31  5-MIN KDBQ 121415Z 22012KT 10SM CLR 06/01 A3007 940 67 100 220/12 RMK AO2
94908KDBQ DBQ20070312082009203/12/07 08:20:31  5-MIN KDBQ 121420Z 22013KT 10SM CLR 06/01 A3006 940 67 100 220/13 RMK AO2
94908KDBQ DBQ20070312082509203/12/07 08:25:31  5-MIN KDBQ 121425Z 22013KT 10SM CLR 06/01 A3007 940 70 100 220/13 RMK AO2
94908KDBQ DBQ20070312083009203/12/07 08:30:31  5-MIN KDBQ 121430Z 22012KT 10SM CLR 06/01 A3006 950 70 100 220/12 RMK AO2
94908KDBQ DBQ20070312083509203/12/07 08:35:31  5-MIN KDBQ 121435Z 23013KT 10SM CLR 06/02 A3006 950 73 100 220/13 RMK AO2
94908KDBQ DBQ20070312084009203/12/07 08:40:31  5-MIN KDBQ 121440Z 23013KT 10SM CLR 07/02 A3006 950 70 200 220/13 RMK AO2
94908KDBQ DBQ20070312084509203/12/07 08:45:31  5-MIN KDBQ 121445Z 23012KT 10SM CLR 07/02 A3006 950 73 200 220/12 RMK AO2
94908KDBQ DBQ20070312085011503/12/07 08:50:31  5-MIN KDBQ 121450Z 22012KT 10SM CLR 07/02 A3006 950 70 300 220/12 RMK AO2 SLP187 T00720022 58018
94908KDBQ DBQ20070312085511503/12/07 08:55:31  5-MIN KDBQ 121455Z 22013KT 10SM CLR 07/02 A3006 950 70 300 220/13 RMK AO2 SLP186 T00720022 58008
94908KDBQ DBQ20070312090009203/12/07 09:00:31  5-MIN KDBQ 121500Z 22013KT 10SM CLR 07/03 A3006 950 73 300 220/13 RMK AO2
94908KDBQ DBQ20070312090509203/12/07 09:05:31  5-MIN KDBQ 121505Z 22013KT 10SM CLR 08/03 A3006 950 70 400 220/13 RMK AO2
94908KDBQ DBQ20070312091009203/12/07 09:10:31  5-MIN KDBQ 121510Z 22012KT 10SM CLR 08/03 A3006 950 70 400 220/12 RMK AO2
94908KDBQ DBQ20070312091509203/12/07 09:15:31  5-MIN KDBQ 121515Z 22012KT 10SM CLR 08/03 A3006 950 73 400 220/12 RMK AO2
94908KDBQ DBQ20070312092009203/12/07 09:20:31  5-MIN KDBQ 121520Z 22012KT 10SM CLR 08/03 A3005 960 73 400 220/12 RMK AO2
94908KDBQ DBQ20070312092509203/12/07 09:25:31  5-MIN KDBQ 121525Z 23012KT 10SM CLR 08/04 A3005 960 73 400 230/12 RMK AO2
94908KDBQ DBQ20070312093009203/12/07 09:30:31  5-MIN KDBQ 121530Z 23012KT 10SM CLR 08/04 A3005 960 73 400 230/12 RMK AO2
94908KDBQ DBQ20070312093509203/12/07 09:35:31  5-MIN KDBQ 121535Z 24012KT 10SM CLR 09/04 A3005 960 73 500 240/12 RMK AO2
94908KDBQ DBQ20070312094009103/12/07 09:40:31  5-MIN KDBQ 121540Z 24015KT 9SM CLR 09/05 A3005 960 76 500 240/15 RMK AO2
94908KDBQ DBQ20070312094509103/12/07 09:45:31  5-MIN KDBQ 121545Z 24014KT 9SM CLR 09/05 A3006 950 76 500 240/14 RMK AO2
94908KDBQ DBQ20070312095010803/12/07 09:50:31  5-MIN KDBQ 121550Z 25012KT 9SM CLR 09/06 A3006 950 76 600 250/12 RMK AO2 SLP185 T00940056
94908KDBQ DBQ20070312095510803/12/07 09:55:31  5-MIN KDBQ 121555Z 25014KT 8SM CLR 09/06 A3006 950 76 600 240/14 RMK AO2 SLP184 T00940056
94908KDBQ DBQ20070312100009103/12/07 10:00:31  5-MIN KDBQ 121600Z 25013KT 9SM CLR 09/06 A3006 950 76 500 240/13 RMK AO2
94908KDBQ DBQ20070312100509103/12/07 10:05:31  5-MIN KDBQ 121605Z 24013KT 9SM CLR 09/06 A3006 950 76 500 240/13 RMK AO2
94908KDBQ DBQ20070312101009103/12/07 10:10:31  5-MIN KDBQ 121610Z 25012KT 8SM CLR 10/06 A3007 940 77 600 250/12 RMK AO2
94908KDBQ DBQ20070312101509103/12/07 10:15:31  5-MIN KDBQ 121615Z 25013KT 8SM CLR 10/06 A3006 950 77 600 250/13 RMK AO2
94908KDBQ DBQ20070312102009103/12/07 10:20:31  5-MIN KDBQ 121620Z 25013KT 8SM CLR 10/06 A3007 940 77 600 250/13 RMK AO2
94908KDBQ DBQ20070312102509103/12/07 10:25:31  5-MIN KDBQ 121625Z 25011KT 8SM CLR 10/06 A3006 950 77 600 250/11 RMK AO2
94908KDBQ DBQ20070312103009103/12/07 10:30:31  5-MIN KDBQ 121630Z 25010KT 8SM CLR 10/06 A3006 950 77 600 250/10 RMK AO2
94908KDBQ DBQ20070312103509103/12/07 10:35:31  5-MIN KDBQ 121635Z 25009KT 8SM CLR 11/07 A3006 950 77 700 250/09 RMK AO2
94908KDBQ DBQ20070312104009103/12/07 10:40:31  5-MIN KDBQ 121640Z 26012KT 8SM CLR 11/07 A3006 950 77 700 260/12 RMK AO2
94908KDBQ DBQ20070312104509103/12/07 10:45:31  5-MIN KDBQ 121645Z 26011KT 8SM CLR 11/07 A3006 950 77 700 250/11 RMK AO2
94908KDBQ DBQ20070312105010803/12/07 10:50:31  5-MIN KDBQ 121650Z 26012KT 8SM CLR 11/07 A3005 960 77 700 260/12 RMK AO2 SLP183 T01060067
94908KDBQ DBQ20070312105510803/12/07 10:55:31  5-MIN KDBQ 121655Z 25011KT 8SM CLR 11/07 A3005 960 77 700 250/11 RMK AO2 SLP183 T01060067
94908KDBQ DBQ20070312110009103/12/07 11:00:31  5-MIN KDBQ 121700Z 26011KT 8SM CLR 11/07 A3005 960 77 800 260/11 RMK AO2
94908KDBQ DBQ20070312110509103/12/07 11:05:31  5-MIN KDBQ 121705Z 26011KT 8SM CLR 11/07 A3005 960 77 800 260/11 RMK AO2
94908KDBQ DBQ20070312111009103/12/07 11:10:31  5-MIN KDBQ 121710Z 25011KT 8SM CLR 11/07 A3005 960 77 800 250/11 RMK AO2
94908KDBQ DBQ20070312111509103/12/07 11:15:31  5-MIN KDBQ 121715Z 25011KT 8SM CLR 11/07 A3005 960 77 800 250/11 RMK AO2
94908KDBQ DBQ20070312112009103/12/07 11:20:31  5-MIN KDBQ 121720Z 26009KT 8SM CLR 12/07 A3005 960 74 800 260/09 RMK AO2
94908KDBQ DBQ20070312112509103/12/07 11:25:31  5-MIN KDBQ 121725Z 26009KT 8SM CLR 12/08 A3004 960 77 800 250/09 RMK AO2
94908KDBQ DBQ20070312113009103/12/07 11:30:31  5-MIN KDBQ 121730Z 26010KT 8SM CLR 12/08 A3004 970 77 800 260/10 RMK AO2
94908KDBQ DBQ20070312113509103/12/07 11:35:31  5-MIN KDBQ 121735Z 27008KT 8SM CLR 12/08 A3004 970 77 800 260/08 RMK AO2
94908KDBQ DBQ20070312114009103/12/07 11:40:31  5-MIN KDBQ 121740Z 26012KT 9SM CLR 12/08 A3004 970 77 800 260/12 RMK AO2
94908KDBQ DBQ20070312114509103/12/07 11:45:31  5-MIN KDBQ 121745Z 26010KT 9SM CLR 12/08 A3004 970 77 800 260/10 RMK AO2
94908KDBQ DBQ20070312115012603/12/07 11:50:31  5-MIN KDBQ 121750Z 26009KT 9SM CLR 12/08 A3004 970 74 900 260/09 RMK AO2 SLP177 T01220078 10122 20028 58008
94908KDBQ DBQ20070312115512603/12/07 11:55:31  5-MIN KDBQ 121755Z 26010KT 9SM CLR 12/08 A3004 970 74 900 250/10 RMK AO2 SLP177 T01220078 10122 20028 58007
94908KDBQ DBQ20070312120009103/12/07 12:00:31  5-MIN KDBQ 121800Z 26010KT 9SM CLR 12/08 A3004 970 74 900 260/10 RMK AO2
94908KDBQ DBQ20070312120509103/12/07 12:05:31  5-MIN KDBQ 121805Z 26010KT 8SM CLR 12/08 A3004 970 74 900 260/10 RMK AO2
94908KDBQ DBQ20070312121009103/12/07 12:10:31  5-MIN KDBQ 121810Z 26009KT 8SM CLR 12/08 A3003 970 74 900 260/09 RMK AO2
94908KDBQ DBQ20070312121509103/12/07 12:15:31  5-MIN KDBQ 121815Z 25009KT 8SM CLR 12/08 A3003 970 74 900 250/09 RMK AO2
94908KDBQ DBQ20070312122009103/12/07 12:20:31  5-MIN KDBQ 121820Z 25010KT 8SM CLR 12/08 A3003 970 77 900 250/10 RMK AO2
94908KDBQ DBQ20070312122509203/12/07 12:25:31  5-MIN KDBQ 121825Z 26009KT 8SM CLR 13/08 A3003 970 74 1000 260/09 RMK AO2
94908KDBQ DBQ20070312123009103/12/07 12:30:31  5-MIN KDBQ 121830Z 26009KT 8SM CLR 12/08 A3003 980 77 900 260/09 RMK AO2
94908KDBQ DBQ20070312123509103/12/07 12:35:31  5-MIN KDBQ 121835Z 26009KT 8SM CLR 12/08 A3003 980 77 900 260/09 RMK AO2
94908KDBQ DBQ20070312124009203/12/07 12:40:31  5-MIN KDBQ 121840Z 26009KT 8SM CLR 13/08 A3003 980 74 1000 260/09 RMK AO2
94908KDBQ DBQ20070312124509203/12/07 12:45:31  5-MIN KDBQ 121845Z 26008KT 8SM CLR 13/08 A3003 980 74 1000 260/08 RMK AO2
94908KDBQ DBQ20070312125010903/12/07 12:50:31  5-MIN KDBQ 121850Z 26008KT 8SM CLR 13/09 A3002 980 77 1000 260/08 RMK AO2 SLP171 T01280089
94908KDBQ DBQ20070312125510903/12/07 12:55:31  5-MIN KDBQ 121855Z 27010KT 8SM CLR 13/09 A3002 990 74 1100 270/10 RMK AO2 SLP170 T01330089
94908KDBQ DBQ20070312130009203/12/07 13:00:31  5-MIN KDBQ 121900Z 26010KT 8SM CLR 13/08 A3002 990 74 1000 260/10 RMK AO2
94908KDBQ DBQ20070312130509203/12/07 13:05:31  5-MIN KDBQ 121905Z 25008KT 8SM CLR 13/08 A3001 990 74 1000 250/08 RMK AO2
94908KDBQ DBQ20070312131009203/12/07 13:10:31  5-MIN KDBQ 121910Z 26010KT 8SM CLR 13/09 A3001 990 74 1100 260/10 RMK AO2
94908KDBQ DBQ20070312131509303/12/07 13:15:31  5-MIN KDBQ 121915Z 25011KT 8SM CLR 13/09 A3001 1000 74 1100 250/11 RMK AO2
94908KDBQ DBQ20070312132009303/12/07 13:20:31  5-MIN KDBQ 121920Z 26011KT 8SM CLR 13/09 A3001 1000 74 1100 260/11 RMK AO2
94908KDBQ DBQ20070312132509303/12/07 13:25:31  5-MIN KDBQ 121925Z 25010KT 8SM CLR 13/09 A3001 1000 74 1100 250/10 RMK AO2
94908KDBQ DBQ20070312133009303/12/07 13:30:31  5-MIN KDBQ 121930Z 25012KT 8SM CLR 13/09 A3000 1000 74 1100 250/12 RMK AO2
94908KDBQ DBQ20070312133509303/12/07 13:35:31  5-MIN KDBQ 121935Z 26010KT 8SM CLR 13/09 A3000 1000 74 1100 250/10 RMK AO2
94908KDBQ DBQ20070312134009303/12/07 13:40:31  5-MIN KDBQ 121940Z 25012KT 8SM CLR 14/09 A3000 1000 74 1100 250/12 RMK AO2
94908KDBQ DBQ20070312134509303/12/07 13:45:31  5-MIN KDBQ 121945Z 25010KT 8SM CLR 13/09 A3001 1000 77 1100 250/10 RMK AO2
94908KDBQ DBQ20070312135011003/12/07 13:50:31  5-MIN KDBQ 121950Z 25012KT 8SM CLR 14/09 A3001 1000 74 1100 250/12 RMK AO2 SLP166 T01390094
94908KDBQ DBQ20070312135511003/12/07 13:55:31  5-MIN KDBQ 121955Z 25011KT 8SM CLR 14/09 A3000 1000 74 1100 250/11 RMK AO2 SLP165 T01390094
94908KDBQ DBQ20070312140009303/12/07 14:00:31  5-MIN KDBQ 122000Z 26010KT 8SM CLR 14/09 A3000 1000 74 1100 260/10 RMK AO2
94908KDBQ DBQ20070312140509303/12/07 14:05:31  5-MIN KDBQ 122005Z 26009KT 7SM CLR 14/09 A3000 1000 74 1100 250/09 RMK AO2
94908KDBQ DBQ20070312141009303/12/07 14:10:31  5-MIN KDBQ 122010Z 26009KT 7SM CLR 14/09 A3000 1000 74 1100 260/09 RMK AO2
94908KDBQ DBQ20070312141509303/12/07 14:15:31  5-MIN KDBQ 122015Z 26008KT 7SM CLR 14/09 A3000 1010 74 1100 260/08 RMK AO2
94908KDBQ DBQ20070312142009303/12/07 14:20:31  5-MIN KDBQ 122020Z 26008KT 7SM CLR 14/09 A3000 1010 74 1100 260/08 RMK AO2
94908KDBQ DBQ20070312142509303/12/07 14:25:31  5-MIN KDBQ 122025Z 25010KT 7SM CLR 14/10 A3000 1010 77 1200 250/10 RMK AO2
94908KDBQ DBQ20070312143009303/12/07 14:30:31  5-MIN KDBQ 122030Z 25009KT 7SM CLR 14/09 A3000 1010 74 1200 250/09 RMK AO2
94908KDBQ DBQ20070312143509303/12/07 14:35:31  5-MIN KDBQ 122035Z 25009KT 7SM CLR 14/10 A3000 1010 77 1200 250/09 RMK AO2
94908KDBQ DBQ20070312144009303/12/07 14:40:31  5-MIN KDBQ 122040Z 25011KT 7SM CLR 14/10 A2999 1010 77 1200 250/11 RMK AO2
94908KDBQ DBQ20070312144509303/12/07 14:45:31  5-MIN KDBQ 122045Z 25011KT 7SM CLR 14/10 A2999 1010 77 1200 250/11 RMK AO2
94908KDBQ DBQ20070312145011603/12/07 14:50:31  5-MIN KDBQ 122050Z 25011KT 7SM CLR 14/09 A2999 1010 74 1200 250/11 RMK AO2 SLP160 T01390094 58007
94908KDBQ DBQ20070312145511603/12/07 14:55:31  5-MIN KDBQ 122055Z 25010KT 8SM CLR 14/09 A2999 1010 74 1200 250/10 RMK AO2 SLP160 T01390094 56015
94908KDBQ DBQ20070312150009303/12/07 15:00:31  5-MIN KDBQ 122100Z 25012KT 8SM CLR 14/10 A2999 1010 74 1200 250/12 RMK AO2
94908KDBQ DBQ20070312150509303/12/07 15:05:31  5-MIN KDBQ 122105Z 26010KT 8SM CLR 15/10 A2999 1010 72 1300 260/10 RMK AO2
94908KDBQ DBQ20070312151009303/12/07 15:10:31  5-MIN KDBQ 122110Z 25011KT 8SM CLR 15/11 A2999 1010 74 1300 250/11 RMK AO2
94908KDBQ DBQ20070312151509303/12/07 15:15:31  5-MIN KDBQ 122115Z 25008KT 8SM CLR 15/10 A2999 1020 72 1300 250/08 RMK AO2
94908KDBQ DBQ20070312152009303/12/07 15:20:31  5-MIN KDBQ 122120Z 25011KT 8SM CLR 15/11 A2998 1020 74 1300 250/11 RMK AO2
94908KDBQ DBQ20070312152509303/12/07 15:25:31  5-MIN KDBQ 122125Z 25010KT 8SM CLR 15/10 A2998 1020 72 1300 250/10 RMK AO2
94908KDBQ DBQ20070312153009303/12/07 15:30:31  5-MIN KDBQ 122130Z 25011KT 8SM CLR 14/10 A2998 1020 74 1200 240/11 RMK AO2
94908KDBQ DBQ20070312153509303/12/07 15:35:31  5-MIN KDBQ 122135Z 25010KT 8SM CLR 14/10 A2998 1020 74 1200 250/10 RMK AO2
94908KDBQ DBQ20070312154009303/12/07 15:40:31  5-MIN KDBQ 122140Z 25011KT 8SM CLR 15/11 A2998 1020 74 1300 250/11 RMK AO2
94908KDBQ DBQ20070312154509303/12/07 15:45:31  5-MIN KDBQ 122145Z 25011KT 8SM CLR 15/11 A2998 1030 74 1300 250/11 RMK AO2
94908KDBQ DBQ20070312155011003/12/07 15:50:31  5-MIN KDBQ 122150Z 25010KT 8SM CLR 15/11 A2998 1030 74 1300 250/10 RMK AO2 SLP155 T01500106
94908KDBQ DBQ20070312155511003/12/07 15:55:31  5-MIN KDBQ 122155Z 25011KT 8SM CLR 15/10 A2998 1030 72 1300 250/11 RMK AO2 SLP155 T01500100
94908KDBQ DBQ20070312160009303/12/07 16:00:31  5-MIN KDBQ 122200Z 25011KT 8SM CLR 14/10 A2998 1030 74 1200 250/11 RMK AO2
94908KDBQ DBQ20070312160509303/12/07 16:05:31  5-MIN KDBQ 122205Z 25011KT 8SM CLR 14/10 A2998 1020 74 1200 250/11 RMK AO2
94908KDBQ DBQ20070312161009303/12/07 16:10:31  5-MIN KDBQ 122210Z 25011KT 8SM CLR 14/10 A2998 1020 74 1200 240/11 RMK AO2
94908KDBQ DBQ20070312161509303/12/07 16:15:31  5-MIN KDBQ 122215Z 24009KT 8SM CLR 14/10 A2998 1020 74 1200 240/09 RMK AO2
94908KDBQ DBQ20070312162009303/12/07 16:20:31  5-MIN KDBQ 122220Z 25009KT 7SM CLR 14/10 A2998 1020 77 1200 250/09 RMK AO2
94908KDBQ DBQ20070312162509303/12/07 16:25:31  5-MIN KDBQ 122225Z 25009KT 7SM CLR 14/10 A2998 1020 77 1200 250/09 RMK AO2
94908KDBQ DBQ20070312163009303/12/07 16:30:31  5-MIN KDBQ 122230Z 25010KT 7SM CLR 14/10 A2998 1020 74 1200 250/10 RMK AO2
94908KDBQ DBQ20070312163509303/12/07 16:35:31  5-MIN KDBQ 122235Z 26008KT 7SM CLR 14/10 A2999 1020 77 1200 260/08 RMK AO2
94908KDBQ DBQ20070312164009303/12/07 16:40:31  5-MIN KDBQ 122240Z 27007KT 7SM CLR 13/09 A2999 1010 77 1100 270/07 RMK AO2
94908KDBQ DBQ20070312164509303/12/07 16:45:31  5-MIN KDBQ 122245Z 26008KT 7SM CLR 14/10 A2999 1020 77 1200 260/08 RMK AO2
94908KDBQ DBQ20070312165011303/12/07 16:50:31  5-MIN KDBQ 122250Z 26008KT 6SM HZ CLR 14/09 A2998 1020 74 1200 260/08 RMK AO2 SLP157 T01390094
94908KDBQ DBQ20070312165511303/12/07 16:55:31  5-MIN KDBQ 122255Z 26006KT 6SM HZ CLR 13/09 A2998 1020 77 1100 260/06 RMK AO2 SLP157 T01330094
94908KDBQ DBQ20070312170009603/12/07 17:00:31  5-MIN KDBQ 122300Z 26005KT 6SM HZ CLR 13/09 A2997 1030 77 1100 260/05 RMK AO2
94908KDBQ DBQ20070312170509603/12/07 17:05:31  5-MIN KDBQ 122305Z 26006KT 6SM HZ CLR 13/09 A2997 1030 80 1000 260/06 RMK AO2
94908KDBQ DBQ20070312171009603/12/07 17:10:31  5-MIN KDBQ 122310Z 27006KT 6SM HZ CLR 13/09 A2997 1030 80 1000 270/06 RMK AO2
94908KDBQ DBQ20070312171509603/12/07 17:15:31  5-MIN KDBQ 122315Z 26006KT 5SM HZ CLR 12/09 A2997 1030 83 1000 260/06 RMK AO2
94908KDBQ DBQ20070312172009603/12/07 17:20:31  5-MIN KDBQ 122320Z 27007KT 5SM HZ CLR 12/09 A2998 1030 83 1000 270/07 RMK AO2
94908KDBQ DBQ20070312172509603/12/07 17:25:31  5-MIN KDBQ 122325Z 27006KT 5SM HZ CLR 12/09 A2998 1020 80 1000 270/06 RMK AO2
94908KDBQ DBQ20070312173009503/12/07 17:30:31  5-MIN KDBQ 122330Z 28007KT 5SM HZ CLR 12/09 A2998 1020 83 900 270/07 RMK AO2
94908KDBQ DBQ20070312173509503/12/07 17:35:31  5-MIN KDBQ 122335Z 27005KT 5SM HZ CLR 12/09 A2998 1020 83 900 270/05 RMK AO2
94908KDBQ DBQ20070312174009503/12/07 17:40:31  5-MIN KDBQ 122340Z 26004KT 5SM HZ CLR 11/08 A2998 1020 83 800 260/04 RMK AO2
94908KDBQ DBQ20070312174509503/12/07 17:45:31  5-MIN KDBQ 122345Z 00000KT 5SM HZ CLR 11/08 A2999 1020 83 800 000/00 RMK AO2
94908KDBQ DBQ20070312175013003/12/07 17:50:31  5-MIN KDBQ 122350Z 00000KT 5SM HZ CLR 11/08 A2998 1020 83 800 000/00 RMK AO2 SLP159 T01110083 10150 20111 56015
94908KDBQ DBQ20070312175513003/12/07 17:55:31  5-MIN KDBQ 122355Z 00000KT 4SM BR CLR 11/08 A2998 1020 86 800 000/00 RMK AO2 SLP159 T01060083 10150 20106 55003
94908KDBQ DBQ20070312180009503/12/07 18:00:31  5-MIN KDBQ 130000Z VRB03KT 4SM HZ CLR 11/08 A2998 1020 83 800 VRB/03 RMK AO2
94908KDBQ DBQ20070312180509503/12/07 18:05:31  5-MIN KDBQ 130005Z 20003KT 4SM HZ CLR 11/08 A2998 1020 83 800 200/03 RMK AO2
94908KDBQ DBQ20070312181009503/12/07 18:10:31  5-MIN KDBQ 130010Z 21004KT 4SM BR CLR 11/08 A2998 1020 86 800 210/04 RMK AO2
94908KDBQ DBQ20070312181509503/12/07 18:15:31  5-MIN KDBQ 130015Z 21004KT 5SM BR CLR 11/08 A2998 1020 86 800 210/04 RMK AO2
94908KDBQ DBQ20070312182009503/12/07 18:20:31  5-MIN KDBQ 130020Z 23003KT 5SM BR CLR 11/08 A2998 1020 86 800 230/03 RMK AO2
94908KDBQ DBQ20070312182509503/12/07 18:25:31  5-MIN KDBQ 130025Z 24003KT 6SM BR CLR 10/08 A2998 1020 89 700 240/03 RMK AO2
94908KDBQ DBQ20070312183009503/12/07 18:30:31  5-MIN KDBQ 130030Z 25003KT 5SM BR CLR 09/08 A2999 1020 89 600 250/03 RMK AO2
94908KDBQ DBQ20070312183509503/12/07 18:35:31  5-MIN KDBQ 130035Z 23003KT 5SM BR CLR 09/08 A2998 1020 89 600 230/03 RMK AO2
94908KDBQ DBQ20070312184009503/12/07 18:40:31  5-MIN KDBQ 130040Z 00000KT 5SM BR CLR 10/08 A2998 1020 86 700 000/00 RMK AO2
94908KDBQ DBQ20070312184509503/12/07 18:45:31  5-MIN KDBQ 130045Z 00000KT 5SM BR CLR 10/08 A2998 1020 86 700 000/00 RMK AO2
94908KDBQ DBQ20070312185012203/12/07 18:50:31  5-MIN KDBQ 130050Z AUTO 00000KT 5SM BR CLR 10/08 A2998 1020 89 700 000/00 RMK AO2 SLP160 T01000083 TSNO
94908KDBQ DBQ20070312185512203/12/07 18:55:31  5-MIN KDBQ 130055Z AUTO 00000KT 5SM BR CLR 09/08 A2999 1020 89 600 000/00 RMK AO2 SLP161 T00940078 TSNO
94908KDBQ DBQ20070312190010503/12/07 19:00:31  5-MIN KDBQ 130100Z AUTO 00000KT 5SM BR CLR 08/07 A2999 1020 93 500 000/00 RMK AO2 TSNO
94908KDBQ DBQ20070312190510603/12/07 19:05:31  5-MIN KDBQ 130105Z AUTO 00000KT 3SM BR CLR 07/07 A2998 1020 100 400 000/00 RMK AO2 TSNO
94908KDBQ DBQ20070312191010503/12/07 19:10:31  5-MIN KDBQ 130110Z AUTO 00000KT 2SM BR CLR 08/07 A2998 1020 96 400 000/00 RMK AO2 TSNO
94908KDBQ DBQ20070312191510903/12/07 19:15:31  5-MIN KDBQ 130115Z AUTO 00000KT 2 1/2SM BR CLR 08/07 A2998 1020 93 400 000/00 RMK AO2 TSNO
94908KDBQ DBQ20070312192010903/12/07 19:20:31  5-MIN KDBQ 130120Z AUTO 00000KT 2 1/2SM BR CLR 07/06 A2998 1020 96 300 000/00 RMK AO2 TSNO
94908KDBQ DBQ20070312192510903/12/07 19:25:31  5-MIN KDBQ 130125Z AUTO 00000KT 2 1/2SM BR CLR 07/06 A2998 1020 93 300 000/00 RMK AO2 TSNO
94908KDBQ DBQ20070312193010503/12/07 19:30:31  5-MIN KDBQ 130130Z AUTO 00000KT 3SM BR CLR 07/06 A2998 1020 96 300 000/00 RMK AO2 TSNO
94908KDBQ DBQ20070312193511003/12/07 19:35:31  5-MIN KDBQ 130135Z AUTO 22003KT 1 1/2SM BR CLR 06/06 A2998 1020 100 200 220/03 RMK AO2 TSNO
94908KDBQ DBQ20070312194010703/12/07 19:40:31  5-MIN KDBQ 130140Z AUTO 22003KT 1/2SM FG CLR 06/05 A2998 1030 96 200 220/03 RMK AO2 TSNO
94908KDBQ DBQ20070312194510703/12/07 19:45:31  5-MIN KDBQ 130145Z AUTO 22004KT 1/4SM FG CLR 06/05 A2998 1030 96 200 220/04 RMK AO2 TSNO
94908KDBQ DBQ20070312195010903/12/07 19:50:31  5-MIN KDBQ 130150Z AUTO 22004KT 1/4SM FG VV001 05/04 A2997 1030 96 100 220/04 RMK AO2 TSNO
94908KDBQ DBQ20070312195512603/12/07 19:55:31  5-MIN KDBQ 130155Z AUTO 22004KT 1/4SM FG VV001 06/05 A2997 1030 96 200 220/04 RMK AO2 SLP157 T00560050 TSNO
94908KDBQ DBQ20070312200010903/12/07 20:00:31  5-MIN KDBQ 130200Z AUTO 22004KT 1/4SM FG VV001 05/04 A2997 1030 96 100 220/04 RMK AO2 TSNO
94908KDBQ DBQ20070312200510903/12/07 20:05:31  5-MIN KDBQ 130205Z AUTO 21005KT 1/4SM FG VV001 05/04 A2997 1030 96 100 210/05 RMK AO2 TSNO
94908KDBQ DBQ20070312201010703/12/07 20:10:31  5-MIN KDBQ 130210Z AUTO 21005KT 1/4SM FG VV001 04/04 A2997 1030 96 0 210/05 RMK AO2 TSNO
94908KDBQ DBQ20070312201510703/12/07 20:15:31  5-MIN KDBQ 130215Z AUTO 22005KT 1/4SM FG VV001 04/04 A2997 1030 96 0 220/05 RMK AO2 TSNO
94908KDBQ DBQ20070312202010703/12/07 20:20:31  5-MIN KDBQ 130220Z AUTO 23005KT 1/4SM FG VV001 04/04 A2997 1030 96 0 230/05 RMK AO2 TSNO
94908KDBQ DBQ20070312202510703/12/07 20:25:31  5-MIN KDBQ 130225Z AUTO 22005KT 1/4SM FG VV001 04/03 A2997 1030 96 0 220/05 RMK AO2 TSNO
94908KDBQ DBQ20070312203010703/12/07 20:30:31  5-MIN KDBQ 130230Z AUTO 23005KT 1/4SM FG VV001 04/04 A2997 1030 96 0 230/05 RMK AO2 TSNO
94908KDBQ DBQ20070312203510703/12/07 20:35:31  5-MIN KDBQ 130235Z AUTO 23005KT 1/4SM FG VV001 04/04 A2997 1030 96 0 230/05 RMK AO2 TSNO
94908KDBQ DBQ20070312204010703/12/07 20:40:31  5-MIN KDBQ 130240Z AUTO 23005KT 1/4SM FG VV001 04/04 A2997 1030 96 0 230/05 RMK AO2 TSNO
94908KDBQ DBQ20070312204510703/12/07 20:45:31  5-MIN KDBQ 130245Z AUTO 23005KT 1/4SM FG VV001 04/04 A2997 1030 96 0 220/05 RMK AO2 TSNO
94908KDBQ DBQ20070312205013003/12/07 20:50:31  5-MIN KDBQ 130250Z AUTO 23004KT 1/4SM FG VV001 04/04 A2997 1030 96 0 230/04 RMK AO2 SLP155 T00440039 55003 TSNO
94908KDBQ DBQ20070312205513003/12/07 20:55:31  5-MIN KDBQ 130255Z AUTO 22004KT 1/4SM FG VV001 04/03 A2997 1040 96 0 220/04 RMK AO2 SLP155 T00390033 58005 TSNO
94908KDBQ DBQ20070312210010703/12/07 21:00:31  5-MIN KDBQ 130300Z AUTO 22004KT 1/4SM FG VV001 04/04 A2997 1040 96 0 210/04 RMK AO2 TSNO
94908KDBQ DBQ20070312210510803/12/07 21:05:31  5-MIN KDBQ 130305Z AUTO 21004KT 1/4SM FG VV001 04/04 A2997 1040 100 0 210/04 RMK AO2 TSNO
94908KDBQ DBQ20070312211010903/12/07 21:10:31  5-MIN KDBQ 130310Z AUTO 22005KT M1/4SM FG VV001 04/04 A2997 1040 100 0 220/05 RMK AO2 TSNO
94908KDBQ DBQ20070312211510803/12/07 21:15:31  5-MIN KDBQ 130315Z AUTO 23005KT M1/4SM FG VV002 04/03 A2997 1040 96 0 230/05 RMK AO2 TSNO
94908KDBQ DBQ20070312212010803/12/07 21:20:31  5-MIN KDBQ 130320Z AUTO 22005KT M1/4SM FG VV002 04/03 A2997 1040 96 0 220/05 RMK AO2 TSNO
94908KDBQ DBQ20070312212510803/12/07 21:25:31  5-MIN KDBQ 130325Z AUTO 22005KT M1/4SM FG VV001 04/03 A2996 1040 96 0 220/05 RMK AO2 TSNO
94908KDBQ DBQ20070312213010803/12/07 21:30:31  5-MIN KDBQ 130330Z AUTO 22005KT M1/4SM FG VV001 03/03 A2996 1040 96 0 220/05 RMK AO2 TSNO
94908KDBQ DBQ20070312213510703/12/07 21:35:31  5-MIN KDBQ 130335Z AUTO 23005KT 1/4SM FG VV001 04/03 A2996 1040 96 0 230/05 RMK AO2 TSNO
94908KDBQ DBQ20070312214010803/12/07 21:40:31  5-MIN KDBQ 130340Z AUTO 23005KT 1/4SM FG VV001 03/03 A2996 1040 100 0 230/05 RMK AO2 TSNO
94908KDBQ DBQ20070312214510703/12/07 21:45:31  5-MIN KDBQ 130345Z AUTO 22006KT 1/4SM FG VV001 03/03 A2996 1040 96 0 220/06 RMK AO2 TSNO
94908KDBQ DBQ20070312215012703/12/07 21:50:31  5-MIN KDBQ 130350Z AUTO 23005KT 1/4SM FG VV001 03/02 A2996 1040 96 -100 230/05 RMK AO2 SLP153 T00280022 TSNO
94908KDBQ DBQ20070312215512703/12/07 21:55:31  5-MIN KDBQ 130355Z AUTO 23005KT 1/4SM FG VV001 03/02 A2996 1040 96 -100 230/05 RMK AO2 SLP152 T00280022 TSNO
94908KDBQ DBQ20070312220010703/12/07 22:00:31  5-MIN KDBQ 130400Z AUTO 21004KT 1/4SM FG VV001 04/03 A2996 1050 92 0 210/04 RMK AO2 TSNO
94908KDBQ DBQ20070312220510703/12/07 22:05:31  5-MIN KDBQ 130405Z AUTO 20004KT 1/4SM FG VV001 04/03 A2995 1050 96 0 200/04 RMK AO2 TSNO
94908KDBQ DBQ20070312221010903/12/07 22:10:31  5-MIN KDBQ 130410Z AUTO 21004KT 1/4SM FG VV001 04/03 A2996 1050 92 100 210/04 RMK AO2 TSNO
94908KDBQ DBQ20070312221510703/12/07 22:15:31  5-MIN KDBQ 130415Z AUTO 22004KT 1/4SM FG VV001 04/03 A2995 1050 96 0 210/04 RMK AO2 TSNO
94908KDBQ DBQ20070312222010703/12/07 22:20:31  5-MIN KDBQ 130420Z AUTO 21004KT 1/4SM FG VV001 04/03 A2995 1050 96 0 210/04 RMK AO2 TSNO
94908KDBQ DBQ20070312222510703/12/07 22:25:31  5-MIN KDBQ 130425Z AUTO 21005KT 1/4SM FG VV001 04/03 A2995 1050 96 0 210/05 RMK AO2 TSNO
94908KDBQ DBQ20070312223010803/12/07 22:30:31  5-MIN KDBQ 130430Z AUTO 20005KT 1/4SM FG VV001 03/03 A2994 1060 100 0 200/05 RMK AO2 TSNO
94908KDBQ DBQ20070312223510703/12/07 22:35:31  5-MIN KDBQ 130435Z AUTO 20006KT 1/4SM FG VV001 03/03 A2994 1060 96 0 200/06 RMK AO2 TSNO
94908KDBQ DBQ20070312224010803/12/07 22:40:31  5-MIN KDBQ 130440Z AUTO 21006KT 1/4SM FG VV001 03/03 A2994 1060 100 0 210/06 RMK AO2 TSNO
94908KDBQ DBQ20070312224511003/12/07 22:45:31  5-MIN KDBQ 130445Z AUTO 21006KT 1/4SM FG VV001 02/02 A2994 1060 96 -100 210/06 RMK AO2 TSNO
94908KDBQ DBQ20070312225012703/12/07 22:50:31  5-MIN KDBQ 130450Z AUTO 22005KT 1/4SM FG VV001 02/01 A2994 1060 96 -200 220/05 RMK AO2 SLP146 T00170011 TSNO
94908KDBQ DBQ20070312225512703/12/07 22:55:31  5-MIN KDBQ 130455Z AUTO 22006KT 1/4SM FG VV001 01/01 A2994 1060 96 -300 220/06 RMK AO2 SLP146 T00110006 TSNO
94908KDBQ DBQ20070312230011003/12/07 23:00:31  5-MIN KDBQ 130500Z AUTO 22006KT 1/4SM FG VV001 02/01 A2994 1060 96 -200 220/06 RMK AO2 TSNO
94908KDBQ DBQ20070312230511003/12/07 23:05:31  5-MIN KDBQ 130505Z AUTO 22006KT 1/4SM FG VV001 02/02 A2994 1060 96 -100 220/06 RMK AO2 TSNO
94908KDBQ DBQ20070312231011003/12/07 23:10:31  5-MIN KDBQ 130510Z AUTO 21007KT 1/4SM FG VV001 03/02 A2994 1060 96 -100 210/07 RMK AO2 TSNO
94908KDBQ DBQ20070312231511003/12/07 23:15:31  5-MIN KDBQ 130515Z AUTO 21007KT 1/4SM FG VV001 03/02 A2994 1060 96 -100 210/07 RMK AO2 TSNO
94908KDBQ DBQ20070312232011003/12/07 23:20:31  5-MIN KDBQ 130520Z AUTO 21007KT 1/4SM FG VV001 03/02 A2993 1070 96 -100 210/07 RMK AO2 TSNO
94908KDBQ DBQ20070312232510703/12/07 23:25:31  5-MIN KDBQ 130525Z AUTO 21007KT 1/4SM FG VV001 03/02 A2993 1070 92 0 210/07 RMK AO2 TSNO
94908KDBQ DBQ20070312233011003/12/07 23:30:31  5-MIN KDBQ 130530Z AUTO 21007KT 1/4SM FG VV001 03/02 A2993 1070 96 -100 210/07 RMK AO2 TSNO
94908KDBQ DBQ20070312233511003/12/07 23:35:31  5-MIN KDBQ 130535Z AUTO 20008KT 1/4SM FG VV001 03/02 A2993 1070 96 -100 200/08 RMK AO2 TSNO
94908KDBQ DBQ20070312234011003/12/07 23:40:31  5-MIN KDBQ 130540Z AUTO 21008KT 1/4SM FG VV001 03/02 A2993 1070 96 -100 210/08 RMK AO2 TSNO
94908KDBQ DBQ20070312234511003/12/07 23:45:31  5-MIN KDBQ 130545Z AUTO 21008KT 1/4SM FG VV001 02/02 A2993 1070 96 -100 210/08 RMK AO2 TSNO
94908KDBQ DBQ20070312235015503/12/07 23:50:31  5-MIN KDBQ 130550Z AUTO 21008KT 1/4SM FG VV001 02/02 A2993 1070 96 -100 210/08 RMK AO2 SLP140 T00220017 10111 20011 401500011 58005 TSNO
94908KDBQ DBQ20070312235515203/12/07 23:55:31  5-MIN KDBQ 130555Z AUTO 21008KT 1/4SM FG VV001 03/03 A2993 1070 96 0 210/08 RMK AO2 SLP140 T00330028 10111 20011 401500011 58013 TSNO
94908KDBQ DBQ20070313000010703/13/07 00:00:38  5-MIN KDBQ 130600Z AUTO 21007KT 1/4SM FG VV002 03/03 A2993 1070 96 0 210/07 RMK AO2 TSNO
94908KDBQ DBQ20070313000510703/13/07 00:05:31  5-MIN KDBQ 130605Z AUTO 21007KT 1/4SM FG VV002 03/03 A2992 1070 96 0 200/07 RMK AO2 TSNO
94908KDBQ DBQ20070313001010703/13/07 00:10:31  5-MIN KDBQ 130610Z AUTO 20007KT 1/4SM FG VV002 03/03 A2992 1080 96 0 200/07 RMK AO2 TSNO
94908KDBQ DBQ20070313001510803/13/07 00:15:32  5-MIN KDBQ 130615Z AUTO 21008KT 1/4SM FG VV002 03/03 A2992 1080 100 0 210/08 RMK AO2 TSNO
94908KDBQ DBQ20070313002011103/13/07 00:20:31  5-MIN KDBQ 130620Z AUTO 21008KT 1/4SM FG VV002 02/02 A2992 1080 100 -100 210/08 RMK AO2 TSNO
94908KDBQ DBQ20070313002511003/13/07 00:25:31  5-MIN KDBQ 130625Z AUTO 21008KT 1/4SM FG VV002 02/02 A2992 1080 96 -100 210/08 RMK AO2 TSNO
94908KDBQ DBQ20070313003011003/13/07 00:30:31  5-MIN KDBQ 130630Z AUTO 21008KT 1/4SM FG VV002 02/02 A2992 1080 96 -100 210/08 RMK AO2 TSNO
94908KDBQ DBQ20070313003511003/13/07 00:35:31  5-MIN KDBQ 130635Z AUTO 20009KT 1/4SM FG VV001 03/02 A2992 1080 96 -100 200/09 RMK AO2 TSNO
94908KDBQ DBQ20070313004010703/13/07 00:40:31  5-MIN KDBQ 130640Z AUTO 20008KT 1/4SM FG VV001 04/03 A2992 1080 96 0 200/08 RMK AO2 TSNO
94908KDBQ DBQ20070313004510703/13/07 00:45:31  5-MIN KDBQ 130645Z AUTO 21008KT 1/2SM FG VV001 04/03 A2992 1080 96 0 210/08 RMK AO2 TSNO
94908KDBQ DBQ20070313005010703/13/07 00:50:31  5-MIN KDBQ 130650Z AUTO 21007KT 3/4SM BR VV001 04/03 A2991 1080 96 0 210/07 RMK AO2 TSNO
94908KDBQ DBQ20070313005512403/13/07 00:55:31  5-MIN KDBQ 130655Z AUTO 21007KT 1SM BR VV001 04/04 A2991 1080 96 100 210/07 RMK AO2 SLP135 T00440039 TSNO
94908KDBQ DBQ20070313010010703/13/07 01:00:31  5-MIN KDBQ 130700Z AUTO 21007KT 1/2SM FG VV001 04/03 A2992 1080 96 0 210/07 RMK AO2 TSNO
94908KDBQ DBQ20070313010510603/13/07 01:05:31  5-MIN KDBQ 130705Z AUTO 22007KT 1/4SM FG CLR 03/03 A2992 1080 100 0 220/07 RMK AO2 TSNO
94908KDBQ DBQ20070313011010503/13/07 01:10:31  5-MIN KDBQ 130710Z AUTO 22007KT 1/4SM FG CLR 03/03 A2992 1080 96 0 220/07 RMK AO2 TSNO
94908KDBQ DBQ20070313011510503/13/07 01:15:31  5-MIN KDBQ 130715Z AUTO 22008KT 1/2SM FG CLR 04/03 A2992 1080 96 0 220/08 RMK AO2 TSNO
94908KDBQ DBQ20070313012010303/13/07 01:20:31  5-MIN KDBQ 130720Z AUTO 22008KT 1SM BR CLR 04/03 A2992 1080 96 0 220/08 RMK AO2 TSNO
94908KDBQ DBQ20070313012510303/13/07 01:25:31  5-MIN KDBQ 130725Z AUTO 22009KT 3SM BR CLR 04/03 A2992 1080 96 0 220/09 RMK AO2 TSNO
94908KDBQ DBQ20070313013010503/13/07 01:30:31  5-MIN KDBQ 130730Z AUTO 22009KT 5SM BR CLR 04/03 A2992 1080 92 100 210/09 RMK AO2 TSNO
94908KDBQ DBQ20070313013510503/13/07 01:35:31  5-MIN KDBQ 130735Z AUTO 22009KT 5SM BR CLR 04/03 A2992 1080 92 100 210/09 RMK AO2 TSNO
94908KDBQ DBQ20070313014010503/13/07 01:40:31  5-MIN KDBQ 130740Z AUTO 22009KT 5SM BR CLR 04/03 A2992 1080 92 100 210/09 RMK AO2 TSNO
94908KDBQ DBQ20070313014510303/13/07 01:45:31  5-MIN KDBQ 130745Z AUTO 22007KT 6SM BR CLR 04/03 A2992 1080 96 0 220/07 RMK AO2 TSNO
94908KDBQ DBQ20070313015012003/13/07 01:50:31  5-MIN KDBQ 130750Z AUTO 22007KT 5SM BR CLR 04/03 A2992 1080 96 0 220/07 RMK AO2 SLP135 T00390033 TSNO
94908KDBQ DBQ20070313015512003/13/07 01:55:31  5-MIN KDBQ 130755Z AUTO 22008KT 4SM BR CLR 03/03 A2992 1080 96 0 220/08 RMK AO2 SLP135 T00330028 TSNO
94908KDBQ DBQ20070313020010303/13/07 02:00:31  5-MIN KDBQ 130800Z AUTO 22008KT 4SM BR CLR 04/03 A2991 1080 96 0 220/08 RMK AO2 TSNO
94908KDBQ DBQ20070313020510503/13/07 02:05:31  5-MIN KDBQ 130805Z AUTO 22009KT 5SM BR CLR 04/03 A2991 1080 92 100 220/09 RMK AO2 TSNO
94908KDBQ DBQ20070313021010503/13/07 02:10:31  5-MIN KDBQ 130810Z AUTO 22008KT 5SM BR CLR 04/03 A2991 1080 92 100 220/08 RMK AO2 TSNO
94908KDBQ DBQ20070313021510303/13/07 02:15:31  5-MIN KDBQ 130815Z AUTO 22008KT 5SM BR CLR 04/03 A2991 1090 96 0 220/08 RMK AO2 TSNO
94908KDBQ DBQ20070313022010503/13/07 02:20:31  5-MIN KDBQ 130820Z AUTO 22008KT 6SM BR CLR 04/04 A2991 1090 96 100 220/08 RMK AO2 TSNO
94908KDBQ DBQ20070313022510503/13/07 02:25:31  5-MIN KDBQ 130825Z AUTO 22008KT 6SM BR CLR 04/03 A2991 1090 92 100 220/08 RMK AO2 TSNO
94908KDBQ DBQ20070313023010303/13/07 02:30:31  5-MIN KDBQ 130830Z AUTO 22008KT 6SM BR CLR 04/03 A2991 1090 96 0 220/08 RMK AO2 TSNO
94908KDBQ DBQ20070313023510503/13/07 02:35:31  5-MIN KDBQ 130835Z AUTO 22008KT 5SM BR CLR 04/03 A2991 1090 92 100 220/08 RMK AO2 TSNO
94908KDBQ DBQ20070313024010503/13/07 02:40:31  5-MIN KDBQ 130840Z AUTO 22008KT 5SM BR CLR 04/03 A2991 1090 92 100 220/08 RMK AO2 TSNO
94908KDBQ DBQ20070313024510503/13/07 02:45:31  5-MIN KDBQ 130845Z AUTO 22008KT 6SM BR CLR 04/04 A2990 1090 96 100 220/08 RMK AO2 TSNO
94908KDBQ DBQ20070313025012803/13/07 02:50:31  5-MIN KDBQ 130850Z AUTO 22008KT 6SM BR CLR 04/04 A2990 1090 96 100 220/08 RMK AO2 SLP130 T00440039 58013 TSNO
94908KDBQ DBQ20070313025512803/13/07 02:55:31  5-MIN KDBQ 130855Z AUTO 22008KT 6SM BR CLR 04/04 A2990 1100 96 100 220/08 RMK AO2 SLP129 T00440039 58004 TSNO
94908KDBQ DBQ20070313030010503/13/07 03:00:31  5-MIN KDBQ 130900Z AUTO 22008KT 6SM BR CLR 04/04 A2990 1100 96 100 220/08 RMK AO2 TSNO
94908KDBQ DBQ20070313030510503/13/07 03:05:31  5-MIN KDBQ 130905Z AUTO 22008KT 6SM BR CLR 04/04 A2990 1100 96 100 220/08 RMK AO2 TSNO
94908KDBQ DBQ20070313031010503/13/07 03:10:31  5-MIN KDBQ 130910Z AUTO 22009KT 6SM BR CLR 04/04 A2990 1100 96 100 220/09 RMK AO2 TSNO
94908KDBQ DBQ20070313031510203/13/07 03:15:31  5-MIN KDBQ 130915Z AUTO 22009KT 7SM CLR 04/04 A2989 1100 96 100 220/09 RMK AO2 TSNO
94908KDBQ DBQ20070313032010203/13/07 03:20:31  5-MIN KDBQ 130920Z AUTO 22008KT 7SM CLR 05/04 A2989 1100 96 200 220/08 RMK AO2 TSNO
94908KDBQ DBQ20070313053009503/13/07 05:30:31  5-MIN KDBQ 131130Z 22009KT 6SM BR CLR 05/04 A2988 1120 92 200 220/09 RMK AO2
94908KDBQ DBQ20070313053509503/13/07 05:35:31  5-MIN KDBQ 131135Z 22009KT 6SM BR CLR 05/04 A2988 1120 92 200 220/09 RMK AO2
94908KDBQ DBQ20070313054009503/13/07 05:40:31  5-MIN KDBQ 131140Z 21009KT 6SM BR CLR 05/04 A2988 1120 92 200 210/09 RMK AO2
94908KDBQ DBQ20070313054509503/13/07 05:45:31  5-MIN KDBQ 131145Z 21009KT 6SM BR CLR 05/04 A2988 1120 92 200 210/09 RMK AO2
94908KDBQ DBQ20070313055013003/13/07 05:50:31  5-MIN KDBQ 131150Z 21009KT 5SM BR CLR 04/03 A2988 1120 92 200 210/09 RMK AO2 SLP122 T00440033 10050 20022 58004
94908KDBQ DBQ20070313055513003/13/07 05:55:31  5-MIN KDBQ 131155Z 21009KT 5SM BR CLR 04/03 A2988 1120 92 200 210/09 RMK AO2 SLP122 T00440033 10050 20022 56008
94908KDBQ DBQ20070313060009503/13/07 06:00:31  5-MIN KDBQ 131200Z 21010KT 5SM BR CLR 04/04 A2988 1120 96 200 210/10 RMK AO2
94908KDBQ DBQ20070313060509503/13/07 06:05:31  5-MIN KDBQ 131205Z 21010KT 5SM BR CLR 04/04 A2988 1120 96 200 210/10 RMK AO2
94908KDBQ DBQ20070313061009503/13/07 06:10:31  5-MIN KDBQ 131210Z 21010KT 5SM BR CLR 04/04 A2988 1120 96 200 210/10 RMK AO2
94908KDBQ DBQ20070313061509503/13/07 06:15:31  5-MIN KDBQ 131215Z 21011KT 4SM BR CLR 04/03 A2988 1120 92 200 210/11 RMK AO2
94908KDBQ DBQ20070313062009503/13/07 06:20:31  5-MIN KDBQ 131220Z 21011KT 4SM BR CLR 04/04 A2988 1120 96 200 210/11 RMK AO2
94908KDBQ DBQ20070313062509503/13/07 06:25:31  5-MIN KDBQ 131225Z 21011KT 4SM BR CLR 05/04 A2988 1120 92 200 210/11 RMK AO2
94908KDBQ DBQ20070313063009203/13/07 06:30:31  5-MIN KDBQ 131230Z 21010KT 8SM CLR 05/04 A2988 1120 92 200 210/10 RMK AO2
94908KDBQ DBQ20070313063509203/13/07 06:35:31  5-MIN KDBQ 131235Z 21010KT 8SM CLR 05/04 A2988 1120 92 200 210/10 RMK AO2
94908KDBQ DBQ20070313064009203/13/07 06:40:31  5-MIN KDBQ 131240Z 21010KT 8SM CLR 05/04 A2988 1120 92 200 210/10 RMK AO2
94908KDBQ DBQ20070313064509203/13/07 06:45:31  5-MIN KDBQ 131245Z 21011KT 8SM CLR 05/04 A2988 1120 96 200 210/11 RMK AO2
94908KDBQ DBQ20070313065010903/13/07 06:50:31  5-MIN KDBQ 131250Z 21010KT 8SM CLR 06/04 A2988 1120 92 300 210/10 RMK AO2 SLP124 T00560044
94908KDBQ DBQ20070313065510903/13/07 06:55:31  5-MIN KDBQ 131255Z 21010KT 8SM CLR 06/04 A2988 1120 92 300 210/10 RMK AO2 SLP123 T00560044
94908KDBQ DBQ20070313070009203/13/07 07:00:31  5-MIN KDBQ 131300Z 21011KT 8SM CLR 06/04 A2988 1120 92 300 210/11 RMK AO2
94908KDBQ DBQ20070313070509203/13/07 07:05:31  5-MIN KDBQ 131305Z 21011KT 8SM CLR 06/05 A2987 1120 93 400 210/11 RMK AO2
94908KDBQ DBQ20070313071009203/13/07 07:10:31  5-MIN KDBQ 131310Z 21011KT 8SM CLR 06/05 A2987 1120 93 400 210/11 RMK AO2
94908KDBQ DBQ20070313071509203/13/07 07:15:31  5-MIN KDBQ 131315Z 22010KT 8SM CLR 07/05 A2987 1120 89 400 210/10 RMK AO2
94908KDBQ DBQ20070313072009203/13/07 07:20:31  5-MIN KDBQ 131320Z 22010KT 8SM CLR 07/06 A2987 1120 93 400 210/10 RMK AO2
94908KDBQ DBQ20070313072509203/13/07 07:25:31  5-MIN KDBQ 131325Z 22010KT 8SM CLR 07/06 A2987 1120 93 400 210/10 RMK AO2
94908KDBQ DBQ20070313073009203/13/07 07:30:31  5-MIN KDBQ 131330Z 21011KT 8SM CLR 07/06 A2987 1120 89 500 210/11 RMK AO2
94908KDBQ DBQ20070313073509203/13/07 07:35:31  5-MIN KDBQ 131335Z 22010KT 8SM CLR 07/06 A2987 1130 93 500 220/10 RMK AO2
94908KDBQ DBQ20070313074009203/13/07 07:40:31  5-MIN KDBQ 131340Z 22010KT 8SM CLR 08/06 A2987 1130 89 600 220/10 RMK AO2
94908KDBQ DBQ20070313074509203/13/07 07:45:31  5-MIN KDBQ 131345Z 22010KT 8SM CLR 08/06 A2987 1120 89 600 210/10 RMK AO2
94908KDBQ DBQ20070313075010903/13/07 07:50:31  5-MIN KDBQ 131350Z 21008KT 8SM CLR 08/06 A2987 1120 89 600 210/08 RMK AO2 SLP122 T00780061
94908KDBQ DBQ20070313075510903/13/07 07:55:31  5-MIN KDBQ 131355Z 21009KT 8SM CLR 08/07 A2987 1120 89 600 210/09 RMK AO2 SLP121 T00830067
94908KDBQ DBQ20070313080009203/13/07 08:00:31  5-MIN KDBQ 131400Z 21010KT 8SM CLR 08/07 A2987 1120 89 600 210/10 RMK AO2
94908KDBQ DBQ20070313080509203/13/07 08:05:31  5-MIN KDBQ 131405Z 21010KT 8SM CLR 09/07 A2987 1120 89 700 210/10 RMK AO2
94908KDBQ DBQ20070313081009203/13/07 08:10:31  5-MIN KDBQ 131410Z 21011KT 8SM CLR 09/07 A2987 1120 89 700 210/11 RMK AO2
94908KDBQ DBQ20070313081509403/13/07 08:15:31  5-MIN KDBQ 131415Z 21011KT 8SM CLR 09/07 A2987 1120 86 800 210/11 RMK AO2 $
94908KDBQ DBQ20070313082009403/13/07 08:20:31  5-MIN KDBQ 131420Z 22012KT 8SM CLR 09/07 A2987 1120 86 800 220/12 RMK AO2 $
94908KDBQ DBQ20070313082509403/13/07 08:25:31  5-MIN KDBQ 131425Z 22012KT 8SM CLR 09/07 A2987 1120 86 800 220/12 RMK AO2 $
94908KDBQ DBQ20070313083008203/13/07 08:30:31  5-MIN KDBQ 131430Z 22012KT 8SM CLR A2987 M M M 220/12 RMK AO2 $
94908KDBQ DBQ20070313083508203/13/07 08:35:31  5-MIN KDBQ 131435Z 22013KT 8SM CLR A2987 M M M 220/13 RMK AO2 $
94908KDBQ DBQ20070313084008203/13/07 08:40:31  5-MIN KDBQ 131440Z 22014KT 8SM CLR A2987 M M M 220/14 RMK AO2 $
94908KDBQ DBQ20070313084509403/13/07 08:45:31  5-MIN KDBQ 131445Z 22013KT 8SM CLR 11/08 A2986 1130 83 900 220/13 RMK AO2 $
94908KDBQ DBQ20070313085011303/13/07 08:50:31  5-MIN KDBQ 131450Z 22013KT 8SM 11/08 A2986 1130 86 900 220/13 RMK AO2 SLP119 T01060083 56008 $
94908KDBQ DBQ20070313085511403/13/07 08:55:31  5-MIN KDBQ 131455Z 23013KT 8SM 11/08 A2986 1130 83 1000 220/13 RMK AO2 SLP118 T01110083 58004 $
94908KDBQ DBQ20070313090009103/13/07 09:00:31  5-MIN KDBQ 131500Z 23015KT 8SM 11/08 A2986 1130 83 1000 220/15 RMK AO2 $
94908KDBQ DBQ20070313090509103/13/07 09:05:31  5-MIN KDBQ 131505Z 23015KT 9SM 12/08 A2986 1130 80 1000 220/15 RMK AO2 $
94908KDBQ DBQ20070313091009103/13/07 09:10:31  5-MIN KDBQ 131510Z 23014KT 9SM 12/09 A2986 1140 83 1000 230/14 RMK AO2 $
94908KDBQ DBQ20070313091509103/13/07 09:15:31  5-MIN KDBQ 131515Z 23014KT 9SM 12/09 A2986 1130 83 1000 230/14 RMK AO2 $
94908KDBQ DBQ20070313092009103/13/07 09:20:31  5-MIN KDBQ 131520Z 23012KT 8SM 12/09 A2986 1130 80 1100 230/12 RMK AO2 $
94908KDBQ DBQ20070313092508703/13/07 09:25:31  5-MIN KDBQ 131525Z 23013KT 12/09 A2986 1130 83 1100 230/13 RMK AO2 $
94908KDBQ DBQ20070313093008703/13/07 09:30:31  5-MIN KDBQ 131530Z 23016KT 12/09 A2986 1130 80 1100 230/16 RMK AO2 $
94908KDBQ DBQ20070313093508703/13/07 09:35:31  5-MIN KDBQ 131535Z 23015KT 12/09 A2986 1130 80 1100 230/15 RMK AO2 $
94908KDBQ DBQ20070313094008703/13/07 09:40:31  5-MIN KDBQ 131540Z 24014KT 13/09 A2987 1130 77 1200 230/14 RMK AO2 $
94908KDBQ DBQ20070313094509103/13/07 09:45:31  5-MIN KDBQ 131545Z 24014KT CLR 13/09 A2987 1130 80 1200 240/14 RMK AO2 $
94908KDBQ DBQ20070313095010803/13/07 09:50:31  5-MIN KDBQ 131550Z 24013KT CLR 13/09 A2987 1130 80 1200 230/13 RMK AO2 SLP119 T01280094 $
94908KDBQ DBQ20070313095510803/13/07 09:55:31  5-MIN KDBQ 131555Z 23014KT CLR 13/09 A2987 1130 77 1200 230/14 RMK AO2 SLP118 T01330094 $
94908KDBQ DBQ20070313100009103/13/07 10:00:31  5-MIN KDBQ 131600Z 23013KT CLR 13/09 A2987 1130 77 1200 230/13 RMK AO2 $
94908KDBQ DBQ20070313100509103/13/07 10:05:31  5-MIN KDBQ 131605Z 24013KT CLR 14/09 A2987 1130 74 1300 230/13 RMK AO2 $
94908KDBQ DBQ20070313101009303/13/07 10:10:31  5-MIN KDBQ 131610Z 23015KT 7SM CLR 14/10 A2986 1130 77 1300 230/15 RMK AO2
94908KDBQ DBQ20070313101509303/13/07 10:15:31  5-MIN KDBQ 131615Z 23015KT 7SM CLR 14/10 A2986 1130 74 1400 230/15 RMK AO2
94908KDBQ DBQ20070313102009303/13/07 10:20:31  5-MIN KDBQ 131620Z 23014KT 8SM CLR 14/10 A2986 1130 74 1400 230/14 RMK AO2
94908KDBQ DBQ20070313102509303/13/07 10:25:31  5-MIN KDBQ 131625Z 24014KT 8SM CLR 15/11 A2986 1130 74 1400 240/14 RMK AO2
94908KDBQ DBQ20070313103009303/13/07 10:30:31  5-MIN KDBQ 131630Z 24016KT 8SM CLR 15/11 A2986 1130 74 1400 240/16 RMK AO2
94908KDBQ DBQ20070313103509303/13/07 10:35:31  5-MIN KDBQ 131635Z 24015KT 9SM CLR 16/11 A2986 1140 72 1500 240/15 RMK AO2
94908KDBQ DBQ20070313104009303/13/07 10:40:31  5-MIN KDBQ 131640Z 24014KT 9SM CLR 16/11 A2985 1140 72 1600 230/14 RMK AO2
94908KDBQ DBQ20070313104509303/13/07 10:45:31  5-MIN KDBQ 131645Z 23015KT 9SM CLR 16/11 A2985 1140 72 1600 230/15 RMK AO2
94908KDBQ DBQ20070313105011003/13/07 10:50:31  5-MIN KDBQ 131650Z 24016KT 9SM CLR 17/11 A2985 1150 69 1600 240/16 RMK AO2 SLP111 T01670111
94908KDBQ DBQ20070313105511603/13/07 10:55:31  5-MIN KDBQ 131655Z 24016G20KT 9SM CLR 17/11 A2985 1150 67 1700 230/16G20 RMK AO2 SLP110 T01720111
94908KDBQ DBQ20070313110009303/13/07 11:00:31  5-MIN KDBQ 131700Z 24015KT 9SM CLR 17/11 A2984 1150 67 1700 240/15 RMK AO2
94908KDBQ DBQ20070313110509303/13/07 11:05:31  5-MIN KDBQ 131705Z 24015KT 9SM CLR 17/11 A2984 1150 67 1700 240/15 RMK AO2
94908KDBQ DBQ20070313111009303/13/07 11:10:31  5-MIN KDBQ 131710Z 24014KT 9SM CLR 17/12 A2984 1160 69 1700 240/14 RMK AO2
94908KDBQ DBQ20070313111509303/13/07 11:15:31  5-MIN KDBQ 131715Z 24013KT 9SM CLR 18/12 A2983 1160 67 1800 240/13 RMK AO2
94908KDBQ DBQ20070313112009303/13/07 11:20:31  5-MIN KDBQ 131720Z 24017KT 9SM CLR 18/12 A2983 1160 65 1900 230/17 RMK AO2
94908KDBQ DBQ20070313112510003/13/07 11:25:31  5-MIN KDBQ 131725Z 24019G23KT 10SM CLR 18/11 A2983 1160 62 1900 240/19G23 RMK AO2
94908KDBQ DBQ20070313113010003/13/07 11:30:31  5-MIN KDBQ 131730Z 23017G23KT 10SM CLR 18/12 A2983 1160 65 1900 230/17G23 RMK AO2
94908KDBQ DBQ20070313113509403/13/07 11:35:31  5-MIN KDBQ 131735Z 24018KT 10SM CLR 18/12 A2983 1160 65 1900 240/18 RMK AO2
94908KDBQ DBQ20070313114009403/13/07 11:40:31  5-MIN KDBQ 131740Z 24017KT 10SM CLR 18/12 A2983 1170 65 1900 240/17 RMK AO2
94908KDBQ DBQ20070313114510003/13/07 11:45:31  5-MIN KDBQ 131745Z 23014G23KT 10SM CLR 18/12 A2982 1170 65 1900 230/14G23 RMK AO2
94908KDBQ DBQ20070313115013503/13/07 11:50:31  5-MIN KDBQ 131750Z 23016G20KT 10SM CLR 19/12 A2982 1170 62 1900 230/16G20 RMK AO2 SLP101 T01890117 10189 20044 58004
94908KDBQ DBQ20070313115512903/13/07 11:55:31  5-MIN KDBQ 131755Z 23016KT 10SM CLR 19/11 A2982 1170 60 1900 230/16 RMK AO2 SLP101 T01890111 10189 20044 58014
94908KDBQ DBQ20070313120009403/13/07 12:00:31  5-MIN KDBQ 131800Z 23014KT 10SM CLR 19/12 A2983 1170 62 1900 230/14 RMK AO2
94908KDBQ DBQ20070313120509403/13/07 12:05:31  5-MIN KDBQ 131805Z 22014KT 10SM CLR 19/12 A2982 1170 62 1900 220/14 RMK AO2
94908KDBQ DBQ20070313121009403/13/07 12:10:31  5-MIN KDBQ 131810Z 22019KT 10SM CLR 19/12 A2982 1170 62 2000 220/19 RMK AO2
94908KDBQ DBQ20070313121509403/13/07 12:15:31  5-MIN KDBQ 131815Z 23018KT 10SM CLR 19/12 A2981 1180 62 1900 230/18 RMK AO2
94908KDBQ DBQ20070313122010003/13/07 12:20:31  5-MIN KDBQ 131820Z 23021G25KT 10SM CLR 19/11 A2981 1180 60 1900 230/21G25 RMK AO2
94908KDBQ DBQ20070313122511803/13/07 12:25:31  5-MIN KDBQ 131825Z 23021G26KT 10SM CLR 19/12 A2981 1180 62 2000 230/21G26 RMK AO2 PK WND 23026/1825
94908KDBQ DBQ20070313123011803/13/07 12:30:31  5-MIN KDBQ 131830Z 23018G26KT 10SM CLR 19/12 A2981 1180 60 2000 230/18G26 RMK AO2 PK WND 23026/1825
94908KDBQ DBQ20070313123511803/13/07 12:35:31  5-MIN KDBQ 131835Z 23017G23KT 10SM CLR 19/12 A2980 1190 60 2000 230/17G23 RMK AO2 PK WND 23026/1825
94908KDBQ DBQ20070313124011803/13/07 12:40:31  5-MIN KDBQ 131840Z 22017G25KT 10SM CLR 19/12 A2980 1190 60 2000 220/17G25 RMK AO2 PK WND 23026/1825
94908KDBQ DBQ20070313124511803/13/07 12:45:31  5-MIN KDBQ 131845Z 23020G25KT 10SM CLR 20/12 A2980 1190 58 2100 230/20G25 RMK AO2 PK WND 23026/1825
94908KDBQ DBQ20070313125013503/13/07 12:50:31  5-MIN KDBQ 131850Z 23021G25KT 10SM CLR 19/12 A2979 1200 60 2000 230/21G25 RMK AO2 PK WND 23026/1825 SLP090 T01940117
94908KDBQ DBQ20070313125513503/13/07 12:55:31  5-MIN KDBQ 131855Z 23020G25KT 10SM CLR 19/12 A2979 1200 60 2000 230/20G25 RMK AO2 PK WND 23026/1825 SLP090 T01940117
94908KDBQ DBQ20070313130009403/13/07 13:00:31  5-MIN KDBQ 131900Z 23020KT 10SM CLR 19/12 A2979 1200 60 2000 220/20 RMK AO2
94908KDBQ DBQ20070313130511803/13/07 13:05:31  5-MIN KDBQ 131905Z 23022G29KT 10SM CLR 20/12 A2979 1200 58 2100 230/22G29 RMK AO2 PK WND 24029/1905
94908KDBQ DBQ20070313131011803/13/07 13:10:31  5-MIN KDBQ 131910Z 23020G29KT 10SM CLR 20/12 A2978 1210 58 2100 230/20G29 RMK AO2 PK WND 24029/1905
94908KDBQ DBQ20070313131511803/13/07 13:15:31  5-MIN KDBQ 131915Z 23019G25KT 10SM CLR 20/12 A2978 1210 58 2100 230/19G25 RMK AO2 PK WND 24029/1905
94908KDBQ DBQ20070313132011803/13/07 13:20:31  5-MIN KDBQ 131920Z 23019G24KT 10SM CLR 20/12 A2978 1210 58 2100 230/19G24 RMK AO2 PK WND 24029/1905
94908KDBQ DBQ20070313132511203/13/07 13:25:31  5-MIN KDBQ 131925Z 23018KT 10SM CLR 21/12 A2978 1210 56 2200 230/18 RMK AO2 PK WND 24029/1905
94908KDBQ DBQ20070313133011203/13/07 13:30:31  5-MIN KDBQ 131930Z 23021KT 10SM CLR 21/12 A2977 1210 56 2200 230/21 RMK AO2 PK WND 24029/1905
94908KDBQ DBQ20070313133511203/13/07 13:35:31  5-MIN KDBQ 131935Z 23020KT 10SM CLR 21/12 A2977 1220 56 2200 230/20 RMK AO2 PK WND 24029/1905
94908KDBQ DBQ20070313134011203/13/07 13:40:31  5-MIN KDBQ 131940Z 22019KT 10SM CLR 21/12 A2977 1220 56 2200 220/19 RMK AO2 PK WND 24029/1905
94908KDBQ DBQ20070313134511803/13/07 13:45:31  5-MIN KDBQ 131945Z 22018G25KT 10SM CLR 21/12 A2977 1220 56 2200 220/18G25 RMK AO2 PK WND 24029/1905
94908KDBQ DBQ20070313135013503/13/07 13:50:31  5-MIN KDBQ 131950Z 22019G25KT 10SM CLR 21/12 A2977 1220 56 2200 220/19G25 RMK AO2 PK WND 24029/1905 SLP083 T02060117
94908KDBQ DBQ20070313135513503/13/07 13:55:31  5-MIN KDBQ 131955Z 23018G25KT 10SM CLR 21/12 A2977 1220 54 2200 220/18G25 RMK AO2 PK WND 24029/1905 SLP083 T02110117
94908KDBQ DBQ20070313140009403/13/07 14:00:31  5-MIN KDBQ 132000Z 22019KT 10SM CLR 21/12 A2977 1220 54 2200 220/19 RMK AO2
94908KDBQ DBQ20070313140510003/13/07 14:05:31  5-MIN KDBQ 132005Z 23017G24KT 10SM CLR 21/12 A2976 1220 54 2300 230/17G24 RMK AO2
94908KDBQ DBQ20070313141010003/13/07 14:10:31  5-MIN KDBQ 132010Z 22015G24KT 10SM CLR 21/12 A2977 1220 56 2300 220/15G24 RMK AO2
94908KDBQ DBQ20070313141509403/13/07 14:15:31  5-MIN KDBQ 132015Z 22021KT 10SM CLR 21/11 A2977 1220 52 2200 220/21 RMK AO2
94908KDBQ DBQ20070313142011803/13/07 14:20:31  5-MIN KDBQ 132020Z 23019G26KT 10SM CLR 21/11 A2977 1220 52 2300 220/19G26 RMK AO2 PK WND 23026/2016
94908KDBQ DBQ20070313142511803/13/07 14:25:31  5-MIN KDBQ 132025Z 22018G26KT 10SM CLR 21/11 A2977 1220 52 2300 220/18G26 RMK AO2 PK WND 23026/2016
94908KDBQ DBQ20070313143011803/13/07 14:30:31  5-MIN KDBQ 132030Z 23017G23KT 10SM CLR 21/12 A2976 1220 54 2300 220/17G23 RMK AO2 PK WND 23026/2016
94908KDBQ DBQ20070313143511203/13/07 14:35:31  5-MIN KDBQ 132035Z 23017KT 10SM CLR 21/12 A2977 1220 54 2300 230/17 RMK AO2 PK WND 23026/2016
94908KDBQ DBQ20070313144011803/13/07 14:40:31  5-MIN KDBQ 132040Z 23020G24KT 10SM CLR 22/11 A2976 1230 50 2300 220/20G24 RMK AO2 PK WND 23026/2016
94908KDBQ DBQ20070313144511803/13/07 14:45:31  5-MIN KDBQ 132045Z 23021G27KT 10SM CLR 22/11 A2976 1230 50 2300 230/21G27 RMK AO2 PK WND 23027/2042
94908KDBQ DBQ20070313145014103/13/07 14:50:31  5-MIN KDBQ 132050Z 22019G27KT 10SM CLR 21/11 A2976 1230 50 2300 220/19G27 RMK AO2 PK WND 23027/2042 SLP078 T02110106 58014
94908KDBQ DBQ20070313145514103/13/07 14:55:31  5-MIN KDBQ 132055Z 23017G26KT 10SM CLR 21/11 A2976 1220 50 2300 230/17G26 RMK AO2 PK WND 23027/2042 SLP080 T02110106 56019
94908KDBQ DBQ20070313150011803/13/07 15:00:31  5-MIN KDBQ 132100Z 23020G27KT 10SM CLR 21/11 A2976 1230 50 2300 220/20G27 RMK AO2 PK WND 22027/2100
94908KDBQ DBQ20070313150511803/13/07 15:05:31  5-MIN KDBQ 132105Z 22022G27KT 10SM CLR 21/11 A2976 1230 50 2300 220/22G27 RMK AO2 PK WND 22027/2100
94908KDBQ DBQ20070313151011803/13/07 15:10:31  5-MIN KDBQ 132110Z 23022G28KT 10SM CLR 21/10 A2976 1230 48 2300 230/22G28 RMK AO2 PK WND 22028/2108
94908KDBQ DBQ20070313151511803/13/07 15:15:31  5-MIN KDBQ 132115Z 23018G28KT 10SM CLR 21/09 A2976 1230 47 2300 220/18G28 RMK AO2 PK WND 22028/2108
94908KDBQ DBQ20070313152011203/13/07 15:20:31  5-MIN KDBQ 132120Z 23021KT 10SM CLR 21/09 A2976 1230 47 2300 230/21 RMK AO2 PK WND 22028/2108
94908KDBQ DBQ20070313152511803/13/07 15:25:31  5-MIN KDBQ 132125Z 23018G25KT 10SM CLR 21/09 A2976 1230 47 2300 230/18G25 RMK AO2 PK WND 22028/2108
94908KDBQ DBQ20070313153011803/13/07 15:30:31  5-MIN KDBQ 132130Z 23016G24KT 10SM CLR 21/10 A2976 1230 48 2300 230/16G24 RMK AO2 PK WND 22028/2108
94908KDBQ DBQ20070313153511803/13/07 15:35:31  5-MIN KDBQ 132135Z 23016G23KT 10SM CLR 21/10 A2975 1230 48 2300 230/16G23 RMK AO2 PK WND 22028/2108
94908KDBQ DBQ20070313154011203/13/07 15:40:31  5-MIN KDBQ 132140Z 23017KT 10SM CLR 21/10 A2975 1230 48 2300 230/17 RMK AO2 PK WND 22028/2108
94908KDBQ DBQ20070313154511803/13/07 15:45:31  5-MIN KDBQ 132145Z 23014G21KT 10SM CLR 21/11 A2975 1230 52 2200 230/14G21 RMK AO2 PK WND 22028/2108
94908KDBQ DBQ20070313155013503/13/07 15:50:31  5-MIN KDBQ 132150Z 23016G21KT 10SM CLR 21/11 A2975 1230 50 2300 230/16G21 RMK AO2 PK WND 22028/2108 SLP077 T02110106
94908KDBQ DBQ20070313155512903/13/07 15:55:31  5-MIN KDBQ 132155Z 23014KT 10SM CLR 21/11 A2975 1230 52 2300 230/14 RMK AO2 PK WND 22028/2108 SLP077 T02110111
94908KDBQ DBQ20070313160009403/13/07 16:00:31  5-MIN KDBQ 132200Z 23013KT 10SM CLR 21/11 A2975 1230 52 2300 230/13 RMK AO2
94908KDBQ DBQ20070313160509403/13/07 16:05:31  5-MIN KDBQ 132205Z 23014KT 10SM CLR 21/11 A2975 1230 52 2300 230/14 RMK AO2
94908KDBQ DBQ20070313161009403/13/07 16:10:31  5-MIN KDBQ 132210Z 23014KT 10SM CLR 21/11 A2975 1240 54 2200 220/14 RMK AO2
94908KDBQ DBQ20070313161509403/13/07 16:15:31  5-MIN KDBQ 132215Z 22016KT 10SM CLR 21/12 A2975 1240 54 2300 220/16 RMK AO2
94908KDBQ DBQ20070313162009403/13/07 16:20:31  5-MIN KDBQ 132220Z 22014KT 10SM CLR 21/12 A2975 1240 54 2300 220/14 RMK AO2
94908KDBQ DBQ20070313162509403/13/07 16:25:31  5-MIN KDBQ 132225Z 22013KT 10SM CLR 21/12 A2975 1240 56 2200 220/13 RMK AO2
94908KDBQ DBQ20070313163009403/13/07 16:30:31  5-MIN KDBQ 132230Z 22016KT 10SM CLR 21/12 A2975 1240 56 2200 220/16 RMK AO2
94908KDBQ DBQ20070313163510003/13/07 16:35:31  5-MIN KDBQ 132235Z 23018G24KT 10SM CLR 21/12 A2974 1240 56 2200 230/18G24 RMK AO2
94908KDBQ DBQ20070313164010003/13/07 16:40:31  5-MIN KDBQ 132240Z 23019G24KT 10SM CLR 21/12 A2974 1240 56 2200 230/19G24 RMK AO2
94908KDBQ DBQ20070313164510003/13/07 16:45:31  5-MIN KDBQ 132245Z 23014G23KT 10SM CLR 21/12 A2974 1240 56 2200 230/14G23 RMK AO2
94908KDBQ DBQ20070313165011103/13/07 16:50:31  5-MIN KDBQ 132250Z 23013KT 10SM CLR 21/12 A2975 1240 56 2200 230/13 RMK AO2 SLP075 T02060117
94908KDBQ DBQ20070313165511103/13/07 16:55:31  5-MIN KDBQ 132255Z 23014KT 10SM CLR 21/12 A2975 1240 56 2200 220/14 RMK AO2 SLP076 T02060117
94908KDBQ DBQ20070313170009403/13/07 17:00:31  5-MIN KDBQ 132300Z 22014KT 10SM CLR 20/12 A2975 1240 58 2100 220/14 RMK AO2
94908KDBQ DBQ20070313170509403/13/07 17:05:31  5-MIN KDBQ 132305Z 22012KT 10SM CLR 19/12 A2975 1240 60 2100 220/12 RMK AO2
94908KDBQ DBQ20070313171009403/13/07 17:10:31  5-MIN KDBQ 132310Z 22011KT 10SM CLR 19/12 A2975 1240 60 2100 220/11 RMK AO2
94908KDBQ DBQ20070313171509403/13/07 17:15:31  5-MIN KDBQ 132315Z 22011KT 10SM CLR 19/12 A2975 1240 60 2100 220/11 RMK AO2
94908KDBQ DBQ20070313172009403/13/07 17:20:31  5-MIN KDBQ 132320Z 22011KT 10SM CLR 19/12 A2975 1240 60 2100 220/11 RMK AO2
94908KDBQ DBQ20070313172509403/13/07 17:25:31  5-MIN KDBQ 132325Z 22009KT 10SM CLR 19/12 A2975 1240 62 2000 220/09 RMK AO2
94908KDBQ DBQ20070313173009403/13/07 17:30:31  5-MIN KDBQ 132330Z 23008KT 10SM CLR 18/12 A2975 1240 65 2000 230/08 RMK AO2
94908KDBQ DBQ20070313173509403/13/07 17:35:31  5-MIN KDBQ 132335Z 22008KT 10SM CLR 18/12 A2975 1230 67 1900 220/08 RMK AO2
94908KDBQ DBQ20070313174009403/13/07 17:40:31  5-MIN KDBQ 132340Z 22008KT 10SM CLR 18/12 A2975 1230 67 1900 220/08 RMK AO2
94908KDBQ DBQ20070313174509403/13/07 17:45:31  5-MIN KDBQ 132345Z 22009KT 10SM CLR 17/11 A2975 1230 67 1800 220/09 RMK AO2
94908KDBQ DBQ20070313175012903/13/07 17:50:31  5-MIN KDBQ 132350Z 22007KT 10SM CLR 17/11 A2975 1240 69 1800 210/07 RMK AO2 SLP077 T01670111 10217 20167 56019
94908KDBQ DBQ20070313175512903/13/07 17:55:31  5-MIN KDBQ 132355Z 21008KT 10SM CLR 16/11 A2975 1240 72 1600 210/08 RMK AO2 SLP078 T01560106 10217 20156 55004
94908KDBQ DBQ20070313180009403/13/07 18:00:31  5-MIN KDBQ 140000Z 22008KT 10SM CLR 16/11 A2975 1230 69 1700 220/08 RMK AO2
94908KDBQ DBQ20070313180509403/13/07 18:05:31  5-MIN KDBQ 140005Z 22007KT 10SM CLR 16/11 A2975 1230 69 1700 220/07 RMK AO2
94908KDBQ DBQ20070313181009403/13/07 18:10:31  5-MIN KDBQ 140010Z 22008KT 10SM CLR 15/11 A2976 1230 74 1600 210/08 RMK AO2
94908KDBQ DBQ20070313181509403/13/07 18:15:31  5-MIN KDBQ 140015Z 22007KT 10SM CLR 15/11 A2976 1230 74 1600 220/07 RMK AO2
94908KDBQ DBQ20070313182009403/13/07 18:20:31  5-MIN KDBQ 140020Z 22007KT 10SM CLR 15/11 A2976 1230 74 1600 220/07 RMK AO2
94908KDBQ DBQ20070313182509403/13/07 18:25:31  5-MIN KDBQ 140025Z 20008KT 10SM CLR 14/10 A2976 1230 77 1400 200/08 RMK AO2
94908KDBQ DBQ20070313183009403/13/07 18:30:31  5-MIN KDBQ 140030Z 21009KT 10SM CLR 14/11 A2976 1230 80 1400 210/09 RMK AO2
94908KDBQ DBQ20070313183509403/13/07 18:35:31  5-MIN KDBQ 140035Z 21009KT 10SM CLR 14/10 A2976 1230 77 1400 210/09 RMK AO2
94908KDBQ DBQ20070313184009403/13/07 18:40:31  5-MIN KDBQ 140040Z 21008KT 10SM CLR 13/10 A2976 1230 80 1400 210/08 RMK AO2
94908KDBQ DBQ20070313184509403/13/07 18:45:31  5-MIN KDBQ 140045Z 22008KT 10SM CLR 14/10 A2976 1220 77 1400 220/08 RMK AO2
94908KDBQ DBQ20070313185011103/13/07 18:50:31  5-MIN KDBQ 140050Z 22007KT 10SM CLR 13/10 A2976 1220 80 1400 220/07 RMK AO2 SLP082 T01330100
94908KDBQ DBQ20070313185511103/13/07 18:55:31  5-MIN KDBQ 140055Z 22008KT 10SM CLR 13/10 A2976 1220 80 1400 220/08 RMK AO2 SLP082 T01330100
94908KDBQ DBQ20070313190009403/13/07 19:00:31  5-MIN KDBQ 140100Z 21008KT 10SM CLR 12/09 A2977 1220 83 1200 210/08 RMK AO2
94908KDBQ DBQ20070313190509303/13/07 19:05:31  5-MIN KDBQ 140105Z 21009KT 9SM CLR 13/09 A2977 1220 80 1300 210/09 RMK AO2
94908KDBQ DBQ20070313191009303/13/07 19:10:31  5-MIN KDBQ 140110Z 21008KT 9SM CLR 13/09 A2977 1220 80 1300 210/08 RMK AO2
94908KDBQ DBQ20070313191509403/13/07 19:15:31  5-MIN KDBQ 140115Z 21008KT 10SM CLR 13/10 A2977 1220 80 1300 210/08 RMK AO2
94908KDBQ DBQ20070313192009303/13/07 19:20:31  5-MIN KDBQ 140120Z 21008KT 9SM CLR 13/09 A2977 1220 80 1300 210/08 RMK AO2
94908KDBQ DBQ20070313192509303/13/07 19:25:31  5-MIN KDBQ 140125Z 21008KT 9SM CLR 13/09 A2977 1220 80 1300 210/08 RMK AO2
94908KDBQ DBQ20070313193009303/13/07 19:30:31  5-MIN KDBQ 140130Z 20009KT 9SM CLR 12/09 A2977 1220 83 1200 200/09 RMK AO2
94908KDBQ DBQ20070313193509303/13/07 19:35:31  5-MIN KDBQ 140135Z 21007KT 9SM CLR 12/09 A2977 1220 83 1200 210/07 RMK AO2
94908KDBQ DBQ20070313194009303/13/07 19:40:31  5-MIN KDBQ 140140Z 21008KT 9SM CLR 13/10 A2977 1220 80 1300 210/08 RMK AO2
94908KDBQ DBQ20070313194509303/13/07 19:45:31  5-MIN KDBQ 140145Z 21007KT 9SM CLR 13/09 A2977 1220 80 1300 210/07 RMK AO2
94908KDBQ DBQ20070313195011003/13/07 19:50:31  5-MIN KDBQ 140150Z 21008KT 9SM CLR 12/09 A2977 1220 83 1200 210/08 RMK AO2 SLP084 T01220094
94908KDBQ DBQ20070313195511003/13/07 19:55:31  5-MIN KDBQ 140155Z 21007KT 9SM CLR 12/09 A2977 1220 86 1100 210/07 RMK AO2 SLP084 T01170094
94908KDBQ DBQ20070313200009303/13/07 20:00:31  5-MIN KDBQ 140200Z 21007KT 9SM CLR 12/09 A2977 1220 86 1100 210/07 RMK AO2
94908KDBQ DBQ20070313200509303/13/07 20:05:31  5-MIN KDBQ 140205Z 21007KT 9SM CLR 12/09 A2977 1210 86 1100 210/07 RMK AO2
94908KDBQ DBQ20070313201009303/13/07 20:10:31  5-MIN KDBQ 140210Z 21007KT 9SM CLR 12/09 A2978 1210 86 1100 210/07 RMK AO2
94908KDBQ DBQ20070313201509303/13/07 20:15:31  5-MIN KDBQ 140215Z 20008KT 9SM CLR 12/09 A2978 1210 86 1100 200/08 RMK AO2
94908KDBQ DBQ20070313202009303/13/07 20:20:31  5-MIN KDBQ 140220Z 21007KT 9SM CLR 12/09 A2978 1210 83 1200 210/07 RMK AO2
94908KDBQ DBQ20070313202509303/13/07 20:25:31  5-MIN KDBQ 140225Z 20007KT 9SM CLR 12/09 A2978 1210 86 1100 200/07 RMK AO2
94908KDBQ DBQ20070313203009903/13/07 20:30:31  5-MIN KDBQ 140230Z 32011G15KT 8SM CLR 11/09 A2979 1200 86 1100 320/11G15 RMK AO2
94908KDBQ DBQ20070313203509903/13/07 20:35:31  5-MIN KDBQ 140235Z 27008G15KT 9SM CLR 14/10 A2979 1200 77 1400 270/08G15 RMK AO2
94908KDBQ DBQ20070313204009303/13/07 20:40:31  5-MIN KDBQ 140240Z 30007KT 9SM CLR 14/10 A2979 1200 77 1400 300/07 RMK AO2
94908KDBQ DBQ20070313204509303/13/07 20:45:31  5-MIN KDBQ 140245Z 27006KT 9SM CLR 14/10 A2979 1200 77 1400 270/06 RMK AO2
94908KDBQ DBQ20070313205011603/13/07 20:50:31  5-MIN KDBQ 140250Z 28006KT 9SM CLR 13/10 A2979 1200 80 1300 280/06 RMK AO2 SLP089 T01330100 55004
94908KDBQ DBQ20070313205511603/13/07 20:55:31  5-MIN KDBQ 140255Z 17003KT 8SM CLR 13/09 A2979 1200 80 1300 170/03 RMK AO2 SLP089 T01280094 53012
94908KDBQ DBQ20070313210009303/13/07 21:00:31  5-MIN KDBQ 140300Z 21003KT 8SM CLR 13/09 A2979 1200 80 1300 210/03 RMK AO2
94908KDBQ DBQ20070313210509603/13/07 21:05:31  5-MIN KDBQ 140305Z 20004KT 8SM FEW055 13/09 A2979 1200 77 1300 200/04 RMK AO2
94908KDBQ DBQ20070313211009603/13/07 21:10:31  5-MIN KDBQ 140310Z 21004KT 8SM FEW055 13/09 A2979 1200 80 1300 210/04 RMK AO2
94908KDBQ DBQ20070313211510103/13/07 21:15:31  5-MIN KDBQ 140315Z AUTO 24003KT 8SM SCT055 13/09 A2979 1200 80 1300 240/03 RMK AO2
94908KDBQ DBQ20070313212010603/13/07 21:20:31  5-MIN KDBQ 140320Z AUTO 00000KT 8SM BKN055 12/09 A2979 1200 86 1100 000/00 RMK AO2 TSNO
94908KDBQ DBQ20070313212510603/13/07 21:25:31  5-MIN KDBQ 140325Z AUTO 22003KT 8SM BKN055 12/09 A2979 1200 83 1100 220/03 RMK AO2 TSNO
94908KDBQ DBQ20070313213010603/13/07 21:30:31  5-MIN KDBQ 140330Z AUTO 00000KT 7SM BKN055 11/09 A2979 1200 86 1100 000/00 RMK AO2 TSNO
94908KDBQ DBQ20070313213510603/13/07 21:35:31  5-MIN KDBQ 140335Z AUTO 00000KT 7SM BKN055 11/09 A2979 1200 89 1000 000/00 RMK AO2 TSNO
94908KDBQ DBQ20070313214010603/13/07 21:40:31  5-MIN KDBQ 140340Z AUTO 00000KT 7SM BKN055 11/09 A2979 1200 89 1000 000/00 RMK AO2 TSNO
94908KDBQ DBQ20070313214510503/13/07 21:45:31  5-MIN KDBQ 140345Z AUTO 00000KT 7SM SCT055 10/09 A2979 1200 93 900 000/00 RMK AO2 TSNO
94908KDBQ DBQ20070313215012303/13/07 21:50:31  5-MIN KDBQ 140350Z AUTO 00000KT 7SM FEW055 11/09 A2979 1200 86 1100 000/00 RMK AO2 SLP088 T01110089 TSNO
94908KDBQ DBQ20070313215512303/13/07 21:55:31  5-MIN KDBQ 140355Z AUTO 00000KT 7SM FEW055 11/09 A2978 1200 89 1100 000/00 RMK AO2 SLP087 T01110094 TSNO
94908KDBQ DBQ20070313220010303/13/07 22:00:31  5-MIN KDBQ 140400Z AUTO 00000KT 7SM CLR 11/09 A2978 1210 89 1000 000/00 RMK AO2 TSNO
94908KDBQ DBQ20070313220510303/13/07 22:05:31  5-MIN KDBQ 140405Z AUTO 00000KT 7SM CLR 11/09 A2978 1210 86 1100 000/00 RMK AO2 TSNO
94908KDBQ DBQ20070313221010503/13/07 22:10:31  5-MIN KDBQ 140410Z AUTO 20003KT 6SM BR CLR 10/09 A2978 1210 93 900 200/03 RMK AO2 TSNO
94908KDBQ DBQ20070313221510503/13/07 22:15:31  5-MIN KDBQ 140415Z AUTO 20003KT 6SM BR CLR 10/09 A2978 1210 93 900 200/03 RMK AO2 TSNO
94908KDBQ DBQ20070313222010503/13/07 22:20:31  5-MIN KDBQ 140420Z AUTO 20003KT 6SM BR CLR 09/08 A2978 1210 93 800 200/03 RMK AO2 TSNO
94908KDBQ DBQ20070313222510503/13/07 22:25:31  5-MIN KDBQ 140425Z AUTO 21003KT 5SM BR CLR 08/07 A2978 1210 93 700 210/03 RMK AO2 TSNO
94908KDBQ DBQ20070313223010503/13/07 22:30:31  5-MIN KDBQ 140430Z AUTO 00000KT 4SM BR CLR 08/07 A2978 1210 93 700 000/00 RMK AO2 TSNO
94908KDBQ DBQ20070313223510503/13/07 22:35:31  5-MIN KDBQ 140435Z AUTO 23003KT 3SM BR CLR 08/08 A2978 1210 96 700 230/03 RMK AO2 TSNO
94908KDBQ DBQ20070313224010503/13/07 22:40:31  5-MIN KDBQ 140440Z AUTO 22003KT 3SM BR CLR 09/08 A2978 1210 93 800 220/03 RMK AO2 TSNO
94908KDBQ DBQ20070313224510503/13/07 22:45:31  5-MIN KDBQ 140445Z AUTO 21003KT 4SM BR CLR 09/08 A2978 1210 93 900 210/03 RMK AO2 TSNO
94908KDBQ DBQ20070313225012203/13/07 22:50:31  5-MIN KDBQ 140450Z AUTO 21004KT 4SM BR CLR 08/07 A2978 1210 93 700 210/04 RMK AO2 SLP086 T00830072 TSNO
94908KDBQ DBQ20070313225512203/13/07 22:55:31  5-MIN KDBQ 140455Z AUTO 21004KT 3SM BR CLR 09/08 A2978 1210 93 800 210/04 RMK AO2 SLP084 T00890078 TSNO
94908KDBQ DBQ20070313230010503/13/07 23:00:31  5-MIN KDBQ 140500Z AUTO 21004KT 3SM BR CLR 08/08 A2978 1210 96 700 210/04 RMK AO2 TSNO
94908KDBQ DBQ20070313230510503/13/07 23:05:31  5-MIN KDBQ 140505Z AUTO 21004KT 3SM BR CLR 08/08 A2978 1210 96 700 210/04 RMK AO2 TSNO
94908KDBQ DBQ20070313231010503/13/07 23:10:31  5-MIN KDBQ 140510Z AUTO 21004KT 3SM BR CLR 08/07 A2978 1210 93 700 210/04 RMK AO2 TSNO
94908KDBQ DBQ20070313231510503/13/07 23:15:31  5-MIN KDBQ 140515Z AUTO 21004KT 3SM BR CLR 08/07 A2978 1210 96 700 210/04 RMK AO2 TSNO
94908KDBQ DBQ20070313232010903/13/07 23:20:31  5-MIN KDBQ 140520Z AUTO 21004KT 2 1/2SM BR CLR 08/07 A2978 1210 93 700 210/04 RMK AO2 TSNO
94908KDBQ DBQ20070313232510503/13/07 23:25:31  5-MIN KDBQ 140525Z AUTO 22003KT 2SM BR CLR 07/07 A2977 1210 96 600 220/03 RMK AO2 TSNO
94908KDBQ DBQ20070313233010903/13/07 23:30:31  5-MIN KDBQ 140530Z AUTO 21003KT 1 3/4SM BR CLR 08/07 A2977 1210 93 700 210/03 RMK AO2 TSNO
94908KDBQ DBQ20070313233510903/13/07 23:35:31  5-MIN KDBQ 140535Z AUTO 21003KT 1 3/4SM BR CLR 08/07 A2977 1210 93 700 210/03 RMK AO2 TSNO
94908KDBQ DBQ20070313234010903/13/07 23:40:31  5-MIN KDBQ 140540Z AUTO 00000KT 1 3/4SM BR CLR 08/07 A2977 1210 93 700 000/00 RMK AO2 TSNO
94908KDBQ DBQ20070313234510503/13/07 23:45:31  5-MIN KDBQ 140545Z AUTO 00000KT 1SM BR CLR 08/07 A2978 1210 96 700 000/00 RMK AO2 TSNO
94908KDBQ DBQ20070313235011703/13/07 23:50:31  5-MIN KDBQ 140550Z AUTO 00000KT 3/4SM BR CLR 08/07 A2978 1210 93 700 000/00 RMK AO2 402170022 TSNO
94908KDBQ DBQ20070313235510703/13/07 23:55:31  5-MIN KDBQ 140555Z AUTO 00000KT 1/4SM FG CLR 07/06 A2978 1210 96 500 000/00 RMK AO2 TSNO
94908KDBQ DBQ20070314000010903/14/07 00:00:38  5-MIN KDBQ 140600Z AUTO 00000KT 1/4SM FG VV001 07/07 A2978 1210 96 600 000/00 RMK AO2 TSNO
94908KDBQ DBQ20070314000511003/14/07 00:05:31  5-MIN KDBQ 140605Z AUTO 00000KT 1/4SM FG VV001 06/06 A2978 1210 100 500 000/00 RMK AO2 TSNO
94908KDBQ DBQ20070314001010903/14/07 00:10:31  5-MIN KDBQ 140610Z AUTO 34003KT 1/4SM FG VV001 06/05 A2978 1210 96 400 340/03 RMK AO2 TSNO
94908KDBQ DBQ20070314001510903/14/07 00:15:31  5-MIN KDBQ 140615Z AUTO 34005KT 1/2SM FG VV001 07/06 A2978 1210 96 500 340/05 RMK AO2 TSNO
94908KDBQ DBQ20070314002011303/14/07 00:20:31  5-MIN KDBQ 140620Z AUTO 33005KT 2 1/2SM BR FEW001 07/07 A2978 1210 100 500 330/05 RMK AO2 TSNO
94908KDBQ DBQ20070314002510803/14/07 00:25:31  5-MIN KDBQ 140625Z AUTO 34003KT 4SM BR FEW001 08/08 A2978 1210 96 700 340/03 RMK AO2 TSNO
94908KDBQ DBQ20070314003010503/14/07 00:30:31  5-MIN KDBQ 140630Z AUTO 00000KT 4SM BR CLR 07/07 A2978 1210 96 600 000/00 RMK AO2 TSNO
94908KDBQ DBQ20070314003510603/14/07 00:35:31  5-MIN KDBQ 140635Z AUTO 00000KT 3SM BR CLR 06/06 A2978 1210 100 500 000/00 RMK AO2 TSNO
94908KDBQ DBQ20070314004010503/14/07 00:40:31  5-MIN KDBQ 140640Z AUTO 00000KT 3SM BR CLR 07/06 A2977 1210 93 500 000/00 RMK AO2 TSNO
94908KDBQ DBQ20070314004510903/14/07 00:45:31  5-MIN KDBQ 140645Z AUTO 00000KT 1 1/2SM BR CLR 06/06 A2977 1210 96 500 000/00 RMK AO2 TSNO
94908KDBQ DBQ20070314005012703/14/07 00:50:31  5-MIN KDBQ 140650Z AUTO 00000KT 1/2SM FG VV001 05/05 A2977 1210 100 300 000/00 RMK AO2 SLP084 T00500050 TSNO
94908KDBQ DBQ20070314005512603/14/07 00:55:31  5-MIN KDBQ 140655Z AUTO 00000KT 1/4SM FG VV001 04/04 A2977 1220 96 300 000/00 RMK AO2 SLP083 T00440039 TSNO
94908KDBQ DBQ20070314010010903/14/07 01:00:31  5-MIN KDBQ 140700Z AUTO 00000KT 1/4SM FG VV001 06/05 A2977 1210 96 400 000/00 RMK AO2 TSNO
94908KDBQ DBQ20070314010510703/14/07 01:05:31  5-MIN KDBQ 140705Z AUTO 00000KT 1/4SM FG CLR 06/05 A2977 1210 96 400 000/00 RMK AO2 TSNO
94908KDBQ DBQ20070314011010803/14/07 01:10:31  5-MIN KDBQ 140710Z AUTO 00000KT 1/4SM FG CLR 05/05 A2978 1210 100 300 000/00 RMK AO2 TSNO
94908KDBQ DBQ20070314011510703/14/07 01:15:31  5-MIN KDBQ 140715Z AUTO 00000KT 1/2SM FG CLR 08/07 A2978 1210 93 700 000/00 RMK AO2 TSNO
94908KDBQ DBQ20070314012011903/14/07 01:20:31  5-MIN KDBQ 140720Z AUTO 07003KT 1 3/4SM BR CLR 09/08 A2977 1210 93 900 070/03 RMK AO2 VIS 3/4V3 TSNO
94908KDBQ DBQ20070314012510503/14/07 01:25:31  5-MIN KDBQ 140725Z AUTO 07004KT 3SM BR CLR 09/08 A2977 1210 96 800 070/04 RMK AO2 TSNO
94908KDBQ DBQ20070314013010503/14/07 01:30:31  5-MIN KDBQ 140730Z AUTO 05004KT 3SM BR CLR 07/06 A2978 1210 96 500 050/04 RMK AO2 TSNO
94908KDBQ DBQ20070314013510503/14/07 01:35:31  5-MIN KDBQ 140735Z AUTO 04003KT 3SM BR CLR 07/06 A2978 1210 96 500 040/03 RMK AO2 TSNO
94908KDBQ DBQ20070314014010503/14/07 01:40:31  5-MIN KDBQ 140740Z AUTO 03005KT 4SM BR CLR 07/06 A2978 1210 93 600 030/05 RMK AO2 TSNO
94908KDBQ DBQ20070314014510503/14/07 01:45:31  5-MIN KDBQ 140745Z AUTO 04003KT 4SM BR CLR 07/06 A2977 1220 96 500 040/03 RMK AO2 TSNO
94908KDBQ DBQ20070314015010503/14/07 01:50:31  5-MIN KDBQ 140750Z AUTO 00000KT 2SM BR CLR 06/06 A2977 1220 96 500 000/00 RMK AO2 TSNO
94908KDBQ DBQ20070314015512603/14/07 01:55:31  5-MIN KDBQ 140755Z AUTO 00000KT 1 1/2SM BR CLR 07/06 A2977 1220 93 500 000/00 RMK AO2 SLP081 T00670056 TSNO
94908KDBQ DBQ20070314020010603/14/07 02:00:31  5-MIN KDBQ 140800Z AUTO 00000KT 2SM BR CLR 05/05 A2977 1220 100 300 000/00 RMK AO2 TSNO
94908KDBQ DBQ20070314020510503/14/07 02:05:31  5-MIN KDBQ 140805Z AUTO 00000KT 3SM BR CLR 06/05 A2977 1220 96 400 000/00 RMK AO2 TSNO
94908KDBQ DBQ20070314021010903/14/07 02:10:31  5-MIN KDBQ 140810Z AUTO 00000KT 2 1/2SM BR CLR 06/05 A2977 1220 96 400 000/00 RMK AO2 TSNO
94908KDBQ DBQ20070314021510503/14/07 02:15:31  5-MIN KDBQ 140815Z AUTO 00000KT 2SM BR CLR 07/06 A2977 1220 93 500 000/00 RMK AO2 TSNO
94908KDBQ DBQ20070314022010503/14/07 02:20:31  5-MIN KDBQ 140820Z AUTO 00000KT 2SM BR CLR 06/06 A2977 1220 96 500 000/00 RMK AO2 TSNO
94908KDBQ DBQ20070314022510503/14/07 02:25:31  5-MIN KDBQ 140825Z AUTO 01003KT 2SM BR CLR 07/06 A2977 1220 96 500 010/03 RMK AO2 TSNO
94908KDBQ DBQ20070314023010903/14/07 02:30:31  5-MIN KDBQ 140830Z AUTO 03003KT 2 1/2SM BR CLR 08/07 A2977 1220 93 700 030/03 RMK AO2 TSNO
94908KDBQ DBQ20070314023510503/14/07 02:35:31  5-MIN KDBQ 140835Z AUTO 04003KT 3SM BR CLR 07/07 A2977 1220 96 600 040/03 RMK AO2 TSNO
94908KDBQ DBQ20070314024010703/14/07 02:40:31  5-MIN KDBQ 140840Z AUTO 00000KT 3/4SM BR CLR 06/06 A2977 1220 96 500 000/00 RMK AO2 TSNO
94908KDBQ DBQ20070314024510903/14/07 02:45:31  5-MIN KDBQ 140845Z AUTO 04003KT 1/4SM FG VV001 07/06 A2976 1220 93 600 040/03 RMK AO2 TSNO
94908KDBQ DBQ20070314025013203/14/07 02:50:31  5-MIN KDBQ 140850Z AUTO 02004KT 1/4SM FG VV001 07/06 A2977 1220 96 600 020/04 RMK AO2 SLP080 T00670061 55003 TSNO
94908KDBQ DBQ20070314025513203/14/07 02:55:31  5-MIN KDBQ 140855Z AUTO 03006KT 1/4SM FG VV001 06/06 A2977 1220 96 500 030/06 RMK AO2 SLP080 T00610056 56004 TSNO
94908KDBQ DBQ20070314030010903/14/07 03:00:31  5-MIN KDBQ 140900Z AUTO 03007KT 3/4SM BR VV001 06/06 A2976 1220 96 500 030/07 RMK AO2 TSNO
94908KDBQ DBQ20070314030511203/14/07 03:05:31  5-MIN KDBQ 140905Z AUTO 02007KT 2 1/2SM BR FEW001 07/06 A2976 1220 96 600 020/07 RMK AO2 TSNO
94908KDBQ DBQ20070314031010803/14/07 03:10:31  5-MIN KDBQ 140910Z AUTO 02005KT 3SM BR FEW001 07/06 A2976 1220 96 600 020/05 RMK AO2 TSNO
94908KDBQ DBQ20070314031510503/14/07 03:15:31  5-MIN KDBQ 140915Z AUTO 02008KT 5SM BR CLR 07/06 A2976 1220 96 600 020/08 RMK AO2 TSNO
94908KDBQ DBQ20070314032010503/14/07 03:20:31  5-MIN KDBQ 140920Z AUTO 02006KT 5SM BR CLR 07/06 A2976 1230 96 600 020/06 RMK AO2 TSNO
94908KDBQ DBQ20070314032510503/14/07 03:25:31  5-MIN KDBQ 140925Z AUTO 03003KT 5SM BR CLR 07/06 A2976 1230 93 600 030/03 RMK AO2 TSNO
94908KDBQ DBQ20070314033010503/14/07 03:30:31  5-MIN KDBQ 140930Z AUTO 03003KT 4SM BR CLR 07/07 A2976 1230 96 600 030/03 RMK AO2 TSNO
94908KDBQ DBQ20070314033510903/14/07 03:35:31  5-MIN KDBQ 140935Z AUTO 00000KT 2 1/2SM BR CLR 07/07 A2976 1230 96 600 000/00 RMK AO2 TSNO
94908KDBQ DBQ20070314034010903/14/07 03:40:31  5-MIN KDBQ 140940Z AUTO 04003KT 2 1/2SM BR CLR 07/07 A2976 1230 96 600 040/03 RMK AO2 TSNO
94908KDBQ DBQ20070314034510903/14/07 03:45:31  5-MIN KDBQ 140945Z AUTO 00000KT 2 1/2SM BR CLR 07/06 A2976 1230 93 600 000/00 RMK AO2 TSNO
94908KDBQ DBQ20070314035013803/14/07 03:50:31  5-MIN KDBQ 140950Z AUTO 00000KT 2 1/2SM BR CLR 07/06 A2976 1230 96 600 000/00 RMK AO2 VIS 1 3/4V4 SLP077 T00670061 TSNO
94908KDBQ DBQ20070314035512203/14/07 03:55:31  5-MIN KDBQ 140955Z AUTO 00000KT 3SM BR CLR 06/05 A2976 1230 96 400 000/00 RMK AO2 SLP078 T00560050 TSNO
94908KDBQ DBQ20070314040010503/14/07 04:00:31  5-MIN KDBQ 141000Z AUTO 36004KT 2SM BR CLR 06/06 A2976 1220 96 500 360/04 RMK AO2 TSNO
94908KDBQ DBQ20070314040510903/14/07 04:05:31  5-MIN KDBQ 141005Z AUTO 01004KT 2 1/2SM BR CLR 07/06 A2976 1220 96 600 010/04 RMK AO2 TSNO
94908KDBQ DBQ20070314041010503/14/07 04:10:31  5-MIN KDBQ 141010Z AUTO 02004KT 3SM BR CLR 07/06 A2976 1220 96 600 020/04 RMK AO2 TSNO
94908KDBQ DBQ20070314041510503/14/07 04:15:31  5-MIN KDBQ 141015Z AUTO 02003KT 4SM BR CLR 07/06 A2976 1220 93 600 020/03 RMK AO2 TSNO
94908KDBQ DBQ20070314042010503/14/07 04:20:31  5-MIN KDBQ 141020Z AUTO 01004KT 4SM BR CLR 06/06 A2977 1220 96 500 010/04 RMK AO2 TSNO
94908KDBQ DBQ20070314042510503/14/07 04:25:31  5-MIN KDBQ 141025Z AUTO 02005KT 4SM BR CLR 07/06 A2977 1220 93 500 020/05 RMK AO2 TSNO
94908KDBQ DBQ20070314043010503/14/07 04:30:31  5-MIN KDBQ 141030Z AUTO 02005KT 4SM BR CLR 06/06 A2977 1220 96 500 020/05 RMK AO2 TSNO
94908KDBQ DBQ20070314043510503/14/07 04:35:31  5-MIN KDBQ 141035Z AUTO 03006KT 4SM BR CLR 06/04 A2977 1220 92 400 020/06 RMK AO2 TSNO
94908KDBQ DBQ20070314044010503/14/07 04:40:31  5-MIN KDBQ 141040Z AUTO 02006KT 5SM BR CLR 07/06 A2977 1220 93 500 020/06 RMK AO2 TSNO
94908KDBQ DBQ20070314044510503/14/07 04:45:31  5-MIN KDBQ 141045Z AUTO 01008KT 5SM BR CLR 06/05 A2978 1210 93 500 010/08 RMK AO2 TSNO
94908KDBQ DBQ20070314045012203/14/07 04:50:31  5-MIN KDBQ 141050Z AUTO 01008KT 5SM BR CLR 07/05 A2978 1210 89 500 010/08 RMK AO2 SLP083 T00670050 TSNO
94908KDBQ DBQ20070314045511203/14/07 04:55:31  5-MIN KDBQ 141055Z 01009KT 5SM BR CLR 07/05 A2978 1210 89 500 010/09 RMK AO2 SLP083 T00670050
94908KDBQ DBQ20070314050009503/14/07 05:00:31  5-MIN KDBQ 141100Z 01009KT 5SM BR CLR 07/05 A2978 1210 89 500 360/09 RMK AO2
94908KDBQ DBQ20070314050509503/14/07 05:05:31  5-MIN KDBQ 141105Z 01009KT 5SM BR CLR 07/05 A2978 1210 89 500 010/09 RMK AO2
94908KDBQ DBQ20070314051009503/14/07 05:10:31  5-MIN KDBQ 141110Z 01010KT 5SM BR CLR 07/05 A2979 1200 89 500 010/10 RMK AO2
94908KDBQ DBQ20070314051509503/14/07 05:15:31  5-MIN KDBQ 141115Z 36009KT 5SM BR CLR 07/05 A2979 1200 89 500 360/09 RMK AO2
94908KDBQ DBQ20070314052009503/14/07 05:20:31  5-MIN KDBQ 141120Z 36009KT 5SM BR CLR 07/05 A2979 1200 89 500 360/09 RMK AO2
94908KDBQ DBQ20070314052509503/14/07 05:25:31  5-MIN KDBQ 141125Z 01010KT 5SM BR CLR 07/05 A2979 1200 89 500 010/10 RMK AO2
94908KDBQ DBQ20070314053009503/14/07 05:30:31  5-MIN KDBQ 141130Z 01010KT 5SM BR CLR 07/04 A2979 1200 86 500 010/10 RMK AO2
94908KDBQ DBQ20070314053509503/14/07 05:35:31  5-MIN KDBQ 141135Z 01010KT 5SM BR CLR 07/04 A2980 1190 86 500 010/10 RMK AO2
94908KDBQ DBQ20070314054009503/14/07 05:40:31  5-MIN KDBQ 141140Z 01009KT 5SM BR CLR 07/04 A2980 1190 86 500 010/09 RMK AO2
94908KDBQ DBQ20070314054509503/14/07 05:45:31  5-MIN KDBQ 141145Z 01010KT 5SM BR CLR 07/04 A2980 1190 86 500 010/10 RMK AO2
94908KDBQ DBQ20070314055013003/14/07 05:50:31  5-MIN KDBQ 141150Z 02009KT 5SM BR CLR 06/04 A2980 1190 89 400 020/09 RMK AO2 SLP091 T00610044 10094 20044 56004
94908KDBQ DBQ20070314055513003/14/07 05:55:31  5-MIN KDBQ 141155Z 02008KT 5SM BR CLR 06/04 A2979 1200 89 500 020/08 RMK AO2 SLP092 T00610044 10094 20044 53009
94908KDBQ DBQ20070314060009503/14/07 06:00:31  5-MIN KDBQ 141200Z 02008KT 5SM BR CLR 06/04 A2980 1190 89 400 020/08 RMK AO2
94908KDBQ DBQ20070314060509503/14/07 06:05:31  5-MIN KDBQ 141205Z 02008KT 5SM BR CLR 06/04 A2980 1190 89 400 020/08 RMK AO2
94908KDBQ DBQ20070314061009503/14/07 06:10:31  5-MIN KDBQ 141210Z 02008KT 5SM BR CLR 06/04 A2980 1190 89 400 020/08 RMK AO2
94908KDBQ DBQ20070314061509503/14/07 06:15:31  5-MIN KDBQ 141215Z 02008KT 5SM BR CLR 06/04 A2980 1190 89 400 020/08 RMK AO2
94908KDBQ DBQ20070314062009503/14/07 06:20:31  5-MIN KDBQ 141220Z 03007KT 4SM BR CLR 06/04 A2980 1190 89 400 020/07 RMK AO2
94908KDBQ DBQ20070314062509503/14/07 06:25:31  5-MIN KDBQ 141225Z 04005KT 4SM BR CLR 06/04 A2981 1190 89 400 040/05 RMK AO2
94908KDBQ DBQ20070314063009503/14/07 06:30:31  5-MIN KDBQ 141230Z 04004KT 3SM BR CLR 06/04 A2981 1180 89 400 040/04 RMK AO2
94908KDBQ DBQ20070314063509503/14/07 06:35:31  5-MIN KDBQ 141235Z 03004KT 3SM BR CLR 06/04 A2981 1180 89 400 030/04 RMK AO2
94908KDBQ DBQ20070314064009503/14/07 06:40:31  5-MIN KDBQ 141240Z 01006KT 3SM BR CLR 06/04 A2982 1170 89 400 010/06 RMK AO2
94908KDBQ DBQ20070314064509503/14/07 06:45:31  5-MIN KDBQ 141245Z 02005KT 3SM BR CLR 06/04 A2982 1170 89 400 020/05 RMK AO2
94908KDBQ DBQ20070314065011203/14/07 06:50:31  5-MIN KDBQ 141250Z 04004KT 3SM BR CLR 06/04 A2982 1170 89 400 030/04 RMK AO2 SLP100 T00560039
94908KDBQ DBQ20070314065511203/14/07 06:55:31  5-MIN KDBQ 141255Z 03005KT 3SM BR CLR 06/04 A2982 1170 89 400 030/05 RMK AO2 SLP102 T00560039
94908KDBQ DBQ20070314070009503/14/07 07:00:31  5-MIN KDBQ 141300Z 03006KT 4SM BR CLR 06/04 A2983 1170 89 400 030/06 RMK AO2
94908KDBQ DBQ20070314070509503/14/07 07:05:31  5-MIN KDBQ 141305Z 02007KT 4SM BR CLR 06/04 A2983 1160 89 400 020/07 RMK AO2
94908KDBQ DBQ20070314071009503/14/07 07:10:31  5-MIN KDBQ 141310Z 02008KT 4SM BR CLR 07/04 A2983 1160 86 500 020/08 RMK AO2
94908KDBQ DBQ20070314071509503/14/07 07:15:31  5-MIN KDBQ 141315Z 02007KT 4SM BR CLR 07/04 A2984 1160 86 500 020/07 RMK AO2
94908KDBQ DBQ20070314072009503/14/07 07:20:31  5-MIN KDBQ 141320Z 02006KT 4SM BR CLR 07/05 A2984 1150 86 500 020/06 RMK AO2
94908KDBQ DBQ20070314072509503/14/07 07:25:31  5-MIN KDBQ 141325Z 01010KT 4SM BR CLR 07/05 A2985 1150 86 500 010/10 RMK AO2
94908KDBQ DBQ20070314073009503/14/07 07:30:31  5-MIN KDBQ 141330Z 36010KT 4SM BR CLR 07/05 A2985 1140 86 500 360/10 RMK AO2
94908KDBQ DBQ20070314073509503/14/07 07:35:31  5-MIN KDBQ 141335Z 01009KT 4SM HZ CLR 07/04 A2985 1140 82 500 010/09 RMK AO2
94908KDBQ DBQ20070314074009503/14/07 07:40:31  5-MIN KDBQ 141340Z 01008KT 4SM HZ CLR 07/04 A2985 1140 82 500 010/08 RMK AO2
94908KDBQ DBQ20070314074509503/14/07 07:45:31  5-MIN KDBQ 141345Z 02008KT 4SM HZ CLR 07/04 A2985 1140 82 500 010/08 RMK AO2
94908KDBQ DBQ20070314075011203/14/07 07:50:31  5-MIN KDBQ 141350Z 02009KT 4SM HZ CLR 07/04 A2985 1140 82 500 020/09 RMK AO2 SLP112 T00720044
94908KDBQ DBQ20070314075511203/14/07 07:55:31  5-MIN KDBQ 141355Z 02009KT 5SM HZ CLR 07/04 A2985 1140 82 500 020/09 RMK AO2 SLP112 T00720044
94908KDBQ DBQ20070314080009503/14/07 08:00:31  5-MIN KDBQ 141400Z 03010KT 5SM HZ CLR 08/04 A2985 1140 79 600 030/10 RMK AO2
94908KDBQ DBQ20070314080509503/14/07 08:05:31  5-MIN KDBQ 141405Z 02009KT 5SM HZ CLR 08/04 A2985 1140 76 700 020/09 RMK AO2
94908KDBQ DBQ20070314081009503/14/07 08:10:31  5-MIN KDBQ 141410Z 03010KT 6SM HZ CLR 08/05 A2985 1140 79 700 020/10 RMK AO2
94908KDBQ DBQ20070314081509503/14/07 08:15:31  5-MIN KDBQ 141415Z 03009KT 6SM HZ CLR 08/04 A2985 1140 76 700 030/09 RMK AO2
94908KDBQ DBQ20070314082009503/14/07 08:20:31  5-MIN KDBQ 141420Z 03010KT 6SM HZ CLR 08/05 A2985 1140 79 700 030/10 RMK AO2
94908KDBQ DBQ20070314082509503/14/07 08:25:31  5-MIN KDBQ 141425Z 03009KT 6SM HZ CLR 08/04 A2985 1140 76 700 030/09 RMK AO2
94908KDBQ DBQ20070314083009503/14/07 08:30:31  5-MIN KDBQ 141430Z 03010KT 6SM HZ CLR 09/05 A2985 1140 76 700 030/10 RMK AO2
94908KDBQ DBQ20070314083509203/14/07 08:35:31  5-MIN KDBQ 141435Z 03013KT 7SM CLR 09/04 A2986 1140 73 700 030/13 RMK AO2
94908KDBQ DBQ20070314084009203/14/07 08:40:31  5-MIN KDBQ 141440Z 03012KT 7SM CLR 09/04 A2986 1140 73 700 030/12 RMK AO2
94908KDBQ DBQ20070314084509203/14/07 08:45:31  5-MIN KDBQ 141445Z 03012KT 8SM CLR 09/04 A2986 1140 73 700 030/12 RMK AO2
94908KDBQ DBQ20070314085011503/14/07 08:50:31  5-MIN KDBQ 141450Z 04010KT 7SM CLR 09/04 A2986 1140 73 700 040/10 RMK AO2 SLP114 T00890044 53009
94908KDBQ DBQ20070314085511503/14/07 08:55:31  5-MIN KDBQ 141455Z 03011KT 7SM CLR 09/04 A2986 1130 71 800 030/11 RMK AO2 SLP114 T00940044 51021
94908KDBQ DBQ20070314090009503/14/07 09:00:31  5-MIN KDBQ 141500Z 04010KT 7SM FEW065 09/05 A2986 1130 74 800 040/10 RMK AO2
94908KDBQ DBQ20070314090509503/14/07 09:05:31  5-MIN KDBQ 141505Z 04009KT 7SM FEW065 09/04 A2986 1130 71 800 040/09 RMK AO2
94908KDBQ DBQ20070314091009503/14/07 09:10:31  5-MIN KDBQ 141510Z 03010KT 8SM FEW065 10/05 A2986 1130 71 800 030/10 RMK AO2
94908KDBQ DBQ20070314091509503/14/07 09:15:31  5-MIN KDBQ 141515Z 03012KT 8SM FEW065 10/05 A2987 1130 71 800 020/12 RMK AO2
94908KDBQ DBQ20070314092009503/14/07 09:20:31  5-MIN KDBQ 141520Z 04010KT 8SM FEW065 10/04 A2987 1130 68 800 040/10 RMK AO2
94908KDBQ DBQ20070314092509503/14/07 09:25:31  5-MIN KDBQ 141525Z 04009KT 9SM FEW070 10/04 A2987 1130 68 800 040/09 RMK AO2
94908KDBQ DBQ20070314093009503/14/07 09:30:31  5-MIN KDBQ 141530Z 04009KT 9SM FEW070 11/04 A2987 1120 66 900 040/09 RMK AO2
94908KDBQ DBQ20070314093509503/14/07 09:35:31  5-MIN KDBQ 141535Z 04010KT 9SM FEW070 11/05 A2987 1120 68 900 040/10 RMK AO2
94908KDBQ DBQ20070314094009703/14/07 09:40:31  5-MIN KDBQ 141540Z 03010KT 10SM FEW070 11/05 A2987 1130 66 1000 030/10 RMK AO2
94908KDBQ DBQ20070314094509403/14/07 09:45:31  5-MIN KDBQ 141545Z 03012KT 10SM CLR 11/04 A2987 1130 63 1000 030/12 RMK AO2
94908KDBQ DBQ20070314095011103/14/07 09:50:31  5-MIN KDBQ 141550Z 03012KT 10SM CLR 11/04 A2987 1120 63 1000 030/12 RMK AO2 SLP118 T01110044
94908KDBQ DBQ20070314095511703/14/07 09:55:31  5-MIN KDBQ 141555Z 04010G18KT 10SM CLR 12/05 A2987 1120 63 1000 040/10G18 RMK AO2 SLP117 T01170050
94908KDBQ DBQ20070314100010003/14/07 10:00:31  5-MIN KDBQ 141600Z 04012G16KT 10SM CLR 12/04 A2987 1120 61 1000 040/12G16 RMK AO2
94908KDBQ DBQ20070314100510303/14/07 10:05:31  5-MIN KDBQ 141605Z 04014G18KT 10SM FEW060 12/04 A2987 1120 59 1100 040/14G18 RMK AO2
94908KDBQ DBQ20070314101010303/14/07 10:10:31  5-MIN KDBQ 141610Z 04012G18KT 10SM SCT060 12/04 A2987 1120 59 1100 040/12G18 RMK AO2
94908KDBQ DBQ20070314101509703/14/07 10:15:31  5-MIN KDBQ 141615Z 04013KT 10SM BKN060 13/04 A2987 1130 56 1200 040/13 RMK AO2
94908KDBQ DBQ20070314102009703/14/07 10:20:31  5-MIN KDBQ 141620Z 03012KT 10SM BKN060 13/04 A2987 1130 56 1200 030/12 RMK AO2
94908KDBQ DBQ20070314102509703/14/07 10:25:31  5-MIN KDBQ 141625Z 04015KT 10SM SCT060 13/04 A2987 1130 56 1200 040/15 RMK AO2
94908KDBQ DBQ20070314103009703/14/07 10:30:31  5-MIN KDBQ 141630Z 04016KT 10SM SCT060 13/04 A2987 1130 54 1200 040/16 RMK AO2
94908KDBQ DBQ20070314103509703/14/07 10:35:31  5-MIN KDBQ 141635Z 04017KT 10SM SCT060 13/03 A2987 1130 50 1200 040/17 RMK AO2
94908KDBQ DBQ20070314104009703/14/07 10:40:31  5-MIN KDBQ 141640Z 04016KT 10SM FEW060 13/03 A2987 1120 50 1200 030/16 RMK AO2
94908KDBQ DBQ20070314104510003/14/07 10:45:31  5-MIN KDBQ 141645Z 03015G21KT 10SM CLR 13/03 A2986 1130 50 1200 030/15G21 RMK AO2
94908KDBQ DBQ20070314105011703/14/07 10:50:31  5-MIN KDBQ 141650Z 03014G21KT 10SM CLR 13/04 A2987 1130 52 1200 030/14G21 RMK AO2 SLP117 T01330039
94908KDBQ DBQ20070314105511703/14/07 10:55:31  5-MIN KDBQ 141655Z 03014G20KT 10SM CLR 13/04 A2987 1120 52 1200 030/14G20 RMK AO2 SLP119 T01330039
94908KDBQ DBQ20070314110009403/14/07 11:00:31  5-MIN KDBQ 141700Z 04015KT 10SM CLR 14/04 A2988 1120 50 1300 040/15 RMK AO2
94908KDBQ DBQ20070314110510003/14/07 11:05:31  5-MIN KDBQ 141705Z 04016G23KT 10SM CLR 14/03 A2988 1120 47 1300 040/16G23 RMK AO2
94908KDBQ DBQ20070314111010303/14/07 11:10:31  5-MIN KDBQ 141710Z 05019G23KT 10SM FEW065 14/03 A2988 1110 47 1300 050/19G23 RMK AO2
94908KDBQ DBQ20070314111510303/14/07 11:15:31  5-MIN KDBQ 141715Z 04019G24KT 10SM SCT060 14/02 A2988 1110 45 1300 040/19G24 RMK AO2
94908KDBQ DBQ20070314112010303/14/07 11:20:31  5-MIN KDBQ 141720Z 04018G24KT 10SM BKN060 14/03 A2988 1110 47 1300 040/18G24 RMK AO2
94908KDBQ DBQ20070314112510303/14/07 11:25:31  5-MIN KDBQ 141725Z 05013G22KT 10SM BKN060 14/03 A2989 1110 47 1300 050/13G22 RMK AO2
94908KDBQ DBQ20070314113009703/14/07 11:30:31  5-MIN KDBQ 141730Z 03017KT 10SM BKN060 14/03 A2989 1110 48 1300 030/17 RMK AO2
94908KDBQ DBQ20070314113510303/14/07 11:35:31  5-MIN KDBQ 141735Z 03016G22KT 10SM OVC065 14/03 A2989 1110 47 1300 030/16G22 RMK AO2
94908KDBQ DBQ20070314114010303/14/07 11:40:31  5-MIN KDBQ 141740Z 04016G24KT 10SM OVC060 14/02 A2989 1110 45 1300 040/16G24 RMK AO2
94908KDBQ DBQ20070314114511003/14/07 11:45:31  5-MIN KDBQ 141745Z 05014G24KT 10SM BKN060 BKN100 14/02 A2989 1110 43 1300 050/14G24 RMK AO2
94908KDBQ DBQ20070314115014503/14/07 11:50:31  5-MIN KDBQ 141750Z 05015G23KT 10SM BKN065 OVC100 15/02 A2989 1100 40 1400 050/15G23 RMK AO2 SLP125 T01500017 10150 20056 51021
94908KDBQ DBQ20070314115513803/14/07 11:55:31  5-MIN KDBQ 141755Z 05013G23KT 10SM BKN065 14/01 A2990 1100 41 1300 050/13G23 RMK AO2 SLP127 T01390011 10150 20056 53013
94908KDBQ DBQ20070314120009703/14/07 12:00:31  5-MIN KDBQ 141800Z 04015KT 10SM BKN065 14/02 A2990 1100 41 1300 040/15 RMK AO2
94908KDBQ DBQ20070314120510303/14/07 12:05:31  5-MIN KDBQ 141805Z 04012G19KT 10SM BKN065 14/02 A2990 1100 43 1300 040/12G19 RMK AO2
94908KDBQ DBQ20070314121009703/14/07 12:10:31  5-MIN KDBQ 141810Z 03019KT 10SM OVC065 14/02 A2990 1100 45 1300 030/19 RMK AO2
94908KDBQ DBQ20070314121509703/14/07 12:15:31  5-MIN KDBQ 141815Z 04016KT 10SM OVC065 14/01 A2990 1100 41 1300 040/16 RMK AO2
94908KDBQ DBQ20070314122009703/14/07 12:20:31  5-MIN KDBQ 141820Z 04012KT 10SM OVC065 13/02 A2991 1090 45 1200 040/12 RMK AO2
94908KDBQ DBQ20070314122510303/14/07 12:25:31  5-MIN KDBQ 141825Z 02018G21KT 10SM OVC065 14/02 A2990 1090 43 1300 020/18G21 RMK AO2
94908KDBQ DBQ20070314123009703/14/07 12:30:31  5-MIN KDBQ 141830Z 04014KT 10SM OVC065 13/01 A2991 1090 43 1200 040/14 RMK AO2
94908KDBQ DBQ20070314123510303/14/07 12:35:31  5-MIN KDBQ 141835Z 04012G19KT 10SM OVC065 14/02 A2990 1100 43 1300 040/12G19 RMK AO2
94908KDBQ DBQ20070314124010303/14/07 12:40:31  5-MIN KDBQ 141840Z 02017G21KT 10SM OVC065 14/02 A2990 1100 43 1300 020/17G21 RMK AO2
94908KDBQ DBQ20070314124510303/14/07 12:45:31  5-MIN KDBQ 141845Z 02014G22KT 10SM OVC065 14/02 A2990 1100 43 1300 020/14G22 RMK AO2
94908KDBQ DBQ20070314125012003/14/07 12:50:31  5-MIN KDBQ 141850Z 03014G22KT 10SM OVC065 14/02 A2990 1100 41 1300 030/14G22 RMK AO2 SLP129 T01440017
94908KDBQ DBQ20070314125511403/14/07 12:55:31  5-MIN KDBQ 141855Z 04016KT 10SM OVC065 14/02 A2990 1100 43 1300 040/16 RMK AO2 SLP129 T01390017
94908KDBQ DBQ20070314130009703/14/07 13:00:31  5-MIN KDBQ 141900Z 03010KT 10SM OVC065 14/02 A2990 1090 43 1300 030/10 RMK AO2
94908KDBQ DBQ20070314130510303/14/07 13:05:31  5-MIN KDBQ 141905Z 02016G19KT 10SM OVC065 14/02 A2990 1100 45 1300 010/16G19 RMK AO2
94908KDBQ DBQ20070314131009703/14/07 13:10:31  5-MIN KDBQ 141910Z 02012KT 10SM OVC070 13/02 A2991 1090 45 1200 020/12 RMK AO2
94908KDBQ DBQ20070314131510303/14/07 13:15:31  5-MIN KDBQ 141915Z 03014G19KT 10SM OVC070 13/02 A2991 1090 45 1200 030/14G19 RMK AO2
94908KDBQ DBQ20070314132010303/14/07 13:20:31  5-MIN KDBQ 141920Z 02013G19KT 10SM OVC070 13/01 A2991 1090 43 1200 020/13G19 RMK AO2
94908KDBQ DBQ20070314132509703/14/07 13:25:31  5-MIN KDBQ 141925Z 03012KT 10SM OVC070 13/01 A2991 1090 43 1200 030/12 RMK AO2
94908KDBQ DBQ20070314133009703/14/07 13:30:31  5-MIN KDBQ 141930Z 02011KT 10SM OVC070 13/02 A2991 1080 46 1100 020/11 RMK AO2
94908KDBQ DBQ20070314133509703/14/07 13:35:31  5-MIN KDBQ 141935Z 03012KT 10SM OVC070 13/01 A2991 1090 44 1100 030/12 RMK AO2
94908KDBQ DBQ20070314134009703/14/07 13:40:31  5-MIN KDBQ 141940Z 04011KT 10SM OVC070 13/01 A2991 1080 44 1100 030/11 RMK AO2
94908KDBQ DBQ20070314134509703/14/07 13:45:31  5-MIN KDBQ 141945Z 04009KT 10SM OVC070 13/02 A2992 1080 45 1200 040/09 RMK AO2
94908KDBQ DBQ20070314135011403/14/07 13:50:31  5-MIN KDBQ 141950Z 03007KT 10SM OVC070 13/02 A2992 1080 46 1100 030/07 RMK AO2 SLP135 T01280017
94908KDBQ DBQ20070314135511403/14/07 13:55:31  5-MIN KDBQ 141955Z 01009KT 10SM OVC070 13/02 A2992 1080 46 1100 010/09 RMK AO2 SLP135 T01280017
94908KDBQ DBQ20070314140009703/14/07 14:00:31  5-MIN KDBQ 142000Z 01012KT 10SM OVC070 13/01 A2992 1080 44 1100 010/12 RMK AO2
94908KDBQ DBQ20070314140509703/14/07 14:05:31  5-MIN KDBQ 142005Z 01011KT 10SM OVC070 12/01 A2992 1080 46 1000 010/11 RMK AO2
94908KDBQ DBQ20070314141009703/14/07 14:10:31  5-MIN KDBQ 142010Z 01012KT 10SM OVC070 13/01 A2992 1080 43 1100 010/12 RMK AO2
94908KDBQ DBQ20070314141509703/14/07 14:15:31  5-MIN KDBQ 142015Z 01013KT 10SM OVC070 13/01 A2992 1080 44 1100 010/13 RMK AO2
94908KDBQ DBQ20070314142010303/14/07 14:20:31  5-MIN KDBQ 142020Z 35015G19KT 10SM OVC070 12/01 A2993 1070 48 1000 350/15G19 RMK AO2
94908KDBQ DBQ20070314142511003/14/07 14:25:31  5-MIN KDBQ 142025Z 01013G19KT 10SM BKN070 OVC095 12/01 A2992 1080 48 1000 360/13G19 RMK AO2
94908KDBQ DBQ20070314143011003/14/07 14:30:31  5-MIN KDBQ 142030Z 35017G22KT 10SM BKN070 OVC095 12/01 A2993 1070 48 1000 350/17G22 RMK AO2
94908KDBQ DBQ20070314143510203/14/07 14:35:31  5-MIN KDBQ 142035Z 36018G22KT 10SM OVC070 11/01 A2993 1070 50 900 360/18G22 RMK AO2
94908KDBQ DBQ20070314144009603/14/07 14:40:31  5-MIN KDBQ 142040Z 36012KT 10SM OVC070 11/01 A2993 1070 50 900 360/12 RMK AO2
94908KDBQ DBQ20070314144509603/14/07 14:45:31  5-MIN KDBQ 142045Z 36018KT 10SM OVC070 11/02 A2994 1060 54 800 350/18 RMK AO2
94908KDBQ DBQ20070314145011903/14/07 14:50:31  5-MIN KDBQ 142050Z 35017KT 10SM OVC070 10/02 A2994 1060 56 800 350/17 RMK AO2 SLP142 T01000017 53013
94908KDBQ DBQ20070314145511903/14/07 14:55:31  5-MIN KDBQ 142055Z 36019KT 10SM OVC070 10/01 A2994 1060 54 800 360/19 RMK AO2 SLP144 T01000011 53014
94908KDBQ DBQ20070314150010203/14/07 15:00:31  5-MIN KDBQ 142100Z 36017G23KT 10SM OVC070 10/02 A2995 1050 56 700 360/17G23 RMK AO2
94908KDBQ DBQ20070314150509603/14/07 15:05:31  5-MIN KDBQ 142105Z 35017KT 10SM OVC070 09/02 A2995 1050 58 700 350/17 RMK AO2
94908KDBQ DBQ20070314151010203/14/07 15:10:31  5-MIN KDBQ 142110Z 36016G22KT 10SM OVC070 09/01 A2995 1050 56 700 360/16G22 RMK AO2
94908KDBQ DBQ20070314151510203/14/07 15:15:31  5-MIN KDBQ 142115Z 01019G24KT 10SM OVC070 09/01 A2995 1050 58 600 010/19G24 RMK AO2
94908KDBQ DBQ20070314152010203/14/07 15:20:31  5-MIN KDBQ 142120Z 02018G24KT 10SM OVC070 08/01 A2995 1050 58 500 020/18G24 RMK AO2
94908KDBQ DBQ20070314152512003/14/07 15:25:31  5-MIN KDBQ 142125Z 36018G29KT 10SM OVC070 08/01 A2995 1050 58 500 360/18G29 RMK AO2 PK WND 02029/2121
94908KDBQ DBQ20070314153012003/14/07 15:30:31  5-MIN KDBQ 142130Z 02022G29KT 10SM OVC070 08/01 A2995 1050 58 500 020/22G29 RMK AO2 PK WND 01029/2130
94908KDBQ DBQ20070314153512003/14/07 15:35:31  5-MIN KDBQ 142135Z 02021G29KT 10SM OVC070 08/01 A2995 1050 60 500 020/21G29 RMK AO2 PK WND 01029/2130
94908KDBQ DBQ20070314154012003/14/07 15:40:31  5-MIN KDBQ 142140Z 01021G29KT 10SM OVC070 07/01 A2996 1040 62 400 010/21G29 RMK AO2 PK WND 02029/2138
94908KDBQ DBQ20070314154512003/14/07 15:45:31  5-MIN KDBQ 142145Z 02024G30KT 10SM OVC070 07/01 A2996 1040 62 400 020/24G30 RMK AO2 PK WND 02030/2142
94908KDBQ DBQ20070314155013703/14/07 15:50:31  5-MIN KDBQ 142150Z 01019G30KT 10SM OVC070 07/01 A2996 1040 62 400 010/19G30 RMK AO2 PK WND 02030/2142 SLP152 T00720006
94908KDBQ DBQ20070314155513703/14/07 15:55:31  5-MIN KDBQ 142155Z 01020G28KT 10SM OVC070 07/00 A2997 1040 62 300 010/20G28 RMK AO2 PK WND 02030/2142 SLP154 T00670000
94908KDBQ DBQ20070314160010203/14/07 16:00:31  5-MIN KDBQ 142200Z 01018G28KT 10SM OVC070 07/00 A2997 1040 62 300 010/18G28 RMK AO2
94908KDBQ DBQ20070314160512003/14/07 16:05:31  5-MIN KDBQ 142205Z 02019G26KT 10SM OVC070 06/00 A2997 1030 65 200 020/19G26 RMK AO2 PK WND 02026/2205
94908KDBQ DBQ20070314161012003/14/07 16:10:31  5-MIN KDBQ 142210Z 02017G26KT 10SM OVC070 06/00 A2997 1030 65 300 020/17G26 RMK AO2 PK WND 02026/2205
94908KDBQ DBQ20070314161512003/14/07 16:15:31  5-MIN KDBQ 142215Z 01020G26KT 10SM OVC070 06/00 A2997 1040 65 300 010/20G26 RMK AO2 PK WND 01026/2214
94908KDBQ DBQ20070314162012803/14/07 16:20:31  5-MIN KDBQ 142220Z 02020G26KT 10SM BKN070 OVC090 06/M01 A2997 1040 65 200 010/20G26 RMK AO2 PK WND 02026/2218
94908KDBQ DBQ20070314162512803/14/07 16:25:31  5-MIN KDBQ 142225Z 01016G26KT 10SM BKN070 OVC090 06/M01 A2997 1040 65 200 010/16G26 RMK AO2 PK WND 02026/2221
94908KDBQ DBQ20070314163012803/14/07 16:30:31  5-MIN KDBQ 142230Z 02019G26KT 10SM BKN070 OVC090 06/M01 A2997 1030 65 200 020/19G26 RMK AO2 PK WND 02026/2221
94908KDBQ DBQ20070314163512803/14/07 16:35:31  5-MIN KDBQ 142235Z 02020G24KT 10SM BKN070 OVC090 05/M01 A2998 1030 67 100 020/20G24 RMK AO2 PK WND 02026/2221
94908KDBQ DBQ20070314164012803/14/07 16:40:31  5-MIN KDBQ 142240Z 02018G25KT 10SM BKN070 OVC090 05/M01 A2998 1020 67 100 010/18G25 RMK AO2 PK WND 02026/2221
94908KDBQ DBQ20070314164512603/14/07 16:45:31  5-MIN KDBQ 142245Z 02024G29KT 10SM BKN070 OVC090 04/M01 A2997 1030 70 0 020/24G29 RMK AO2 PK WND 02029/2244
94908KDBQ DBQ20070314165014303/14/07 16:50:31  5-MIN KDBQ 142250Z 03021G29KT 10SM BKN070 OVC090 04/M01 A2998 1020 70 0 030/21G29 RMK AO2 PK WND 02029/2244 SLP159 T00441006
94908KDBQ DBQ20070314165514303/14/07 16:55:31  5-MIN KDBQ 142255Z 03017G24KT 10SM FEW045 OVC070 04/M01 A2999 1020 70 0 020/17G24 RMK AO2 PK WND 02029/2244 SLP162 T00441006
94908KDBQ DBQ20070314170010803/14/07 17:00:31  5-MIN KDBQ 142300Z 03019G25KT 10SM SCT045 OVC070 04/M01 A2999 1010 70 0 030/19G25 RMK AO2
94908KDBQ DBQ20070314170510803/14/07 17:05:31  5-MIN KDBQ 142305Z 02018G25KT 10SM SCT045 OVC070 04/M01 A3000 1010 73 0 010/18G25 RMK AO2
94908KDBQ DBQ20070314171010803/14/07 17:10:31  5-MIN KDBQ 142310Z 02016G25KT 10SM SCT045 OVC070 04/M01 A3000 1000 73 0 020/16G25 RMK AO2
94908KDBQ DBQ20070314171511503/14/07 17:15:31  5-MIN KDBQ 142315Z 02014G25KT 10SM FEW021 SCT045 OVC070 04/M01 A3000 1000 73 0 020/14G25 RMK AO2
94908KDBQ DBQ20070314172011803/14/07 17:20:31  5-MIN KDBQ 142320Z 03021G25KT 10SM SCT021 BKN045 OVC065 03/M01 A3000 1010 72 -100 030/21G25 RMK AO2
94908KDBQ DBQ20070314172513603/14/07 17:25:31  5-MIN KDBQ 142325Z 03020G29KT 10SM SCT021 SCT045 OVC065 03/M01 A3000 1000 72 -100 030/20G29 RMK AO2 PK WND 03029/2323
94908KDBQ DBQ20070314173012903/14/07 17:30:31  5-MIN KDBQ 142330Z 03018G29KT 10SM FEW021 OVC065 03/M01 A3000 1000 76 -100 030/18G29 RMK AO2 PK WND 03029/2323
94908KDBQ DBQ20070314173512903/14/07 17:35:31  5-MIN KDBQ 142335Z 03020G29KT 10SM FEW021 OVC065 03/M01 A3000 1000 75 -200 030/20G29 RMK AO2 PK WND 04029/2333
94908KDBQ DBQ20070314174012903/14/07 17:40:31  5-MIN KDBQ 142340Z 03019G29KT 10SM SCT021 OVC065 03/M01 A3001 1000 75 -200 030/19G29 RMK AO2 PK WND 04029/2333
94908KDBQ DBQ20070314174513603/14/07 17:45:31  5-MIN KDBQ 142345Z 03017G25KT 10SM SCT017 SCT021 OVC065 03/M01 A3001 1000 79 -200 030/17G25 RMK AO2 PK WND 04029/2333
94908KDBQ DBQ20070314175016403/14/07 17:50:31  5-MIN KDBQ 142350Z 03018G28KT 10SM SCT017 OVC065 03/M01 A3000 1010 79 -100 030/18G28 RMK AO2 PK WND 04029/2333 SLP168 T00281006 10144 20028 53014
94908KDBQ DBQ20070314175516403/14/07 17:55:31  5-MIN KDBQ 142355Z 03023G28KT 10SM SCT017 OVC065 02/M01 A3000 1000 82 -200 030/23G28 RMK AO2 PK WND 04029/2333 SLP169 T00221006 10144 20022 51020
94908KDBQ DBQ20070314180012903/14/07 18:00:31  5-MIN KDBQ 150000Z 03019G28KT 10SM SCT015 OVC065 02/M01 A3001 1000 82 -200 030/19G28 RMK AO2 PK WND 02027/2358
94908KDBQ DBQ20070314180512903/14/07 18:05:31  5-MIN KDBQ 150005Z 03020G27KT 10SM SCT015 OVC065 02/M01 A3000 1000 82 -200 030/20G27 RMK AO2 PK WND 02027/2358
94908KDBQ DBQ20070314181012903/14/07 18:10:31  5-MIN KDBQ 150010Z 03021G25KT 10SM FEW015 OVC065 02/M01 A3000 1010 82 -200 030/21G25 RMK AO2 PK WND 02027/2358
94908KDBQ DBQ20070314181514403/14/07 18:15:31  5-MIN KDBQ 150015Z 03020G25KT 9SM -SN SCT015 OVC065 02/M01 A3001 1000 85 -300 030/20G25 RMK AO2 PK WND 02027/2358 SNB15 P0000
94908KDBQ DBQ20070314182014203/14/07 18:20:31  5-MIN KDBQ 150020Z 03017G25KT 8SM -SN SCT013 OVC065 02/00 A3001 990 89 -300 030/17G25 RMK AO2 PK WND 02027/2358 SNB15 P0000
94908KDBQ DBQ20070314182514303/14/07 18:25:31  5-MIN KDBQ 150025Z 03017KT 7SM -SN SCT010 BKN016 OVC065 02/00 A3002 990 89 -300 020/17 RMK AO2 PK WND 02027/2358 SNB15 P0000
94908KDBQ DBQ20070314183014603/14/07 18:30:31  5-MIN KDBQ 150030Z 03018KT 6SM -SN BR SCT009 BKN014 OVC065 01/00 A3002 990 92 -400 020/18 RMK AO2 PK WND 02027/2358 SNB15 P0000
94908KDBQ DBQ20070314183514603/14/07 18:35:31  5-MIN KDBQ 150035Z 02018KT 5SM -SN BR SCT006 BKN013 OVC065 01/00 A3002 980 92 -400 020/18 RMK AO2 PK WND 02027/2358 SNB15 P0000
94908KDBQ DBQ20070314184013903/14/07 18:40:31  5-MIN KDBQ 150040Z 03017KT 4SM -SN BR BKN010 OVC014 01/00 A3003 980 92 -400 030/17 RMK AO2 PK WND 02027/2358 SNB15 P0000
94908KDBQ DBQ20070314184514403/14/07 18:45:31  5-MIN KDBQ 150045Z 03014KT 2 1/2SM -SN BR SCT005 OVC010 01/M01 A3003 970 92 -500 030/14 RMK AO2 PK WND 02027/2358 SNB15 P0001
94908KDBQ DBQ20070314185014403/14/07 18:50:31  5-MIN KDBQ 150050Z 03014KT 1 3/4SM -SN BR BKN005 OVC010 01/M01 A3004 970 92 -500 020/14 RMK AO2 PK WND 02027/2358 SNB15 P0001
94908KDBQ DBQ20070314185517103/14/07 18:55:31  5-MIN KDBQ 150055Z AUTO 03012KT 1 1/2SM -SN BR BKN005 OVC010 01/M01 A3004 970 92 -500 030/12 RMK AO2 PK WND 02027/2358 SNB15 SLP182 P0002 T00061006 TSNO
94908KDBQ DBQ20070314190012303/14/07 19:00:31  5-MIN KDBQ 150100Z AUTO 03014KT 1 1/2SM -SN BR OVC005 01/M01 A3005 960 92 -500 030/14 RMK AO2 P0000 TSNO
94908KDBQ DBQ20070314190513003/14/07 19:05:31  5-MIN KDBQ 150105Z AUTO 03012KT 1 3/4SM -SN BR BKN005 OVC009 01/M01 A3004 960 92 -500 030/12 RMK AO2 P0001 TSNO
94908KDBQ DBQ20070314191013703/14/07 19:10:31  5-MIN KDBQ 150110Z AUTO 03013KT 2 1/2SM -SN BR SCT005 BKN009 OVC018 01/M01 A3004 970 92 -500 030/13 RMK AO2 P0001 TSNO
94908KDBQ DBQ20070314191513303/14/07 19:15:31  5-MIN KDBQ 150115Z AUTO 04013KT 5SM -SN BR SCT005 BKN011 OVC070 01/M01 A3004 960 89 -400 030/13 RMK AO2 P0001 TSNO
94908KDBQ DBQ20070314192013203/14/07 19:20:31  5-MIN KDBQ 150120Z AUTO 04012KT 8SM FEW005 BKN037 OVC070 01/M01 A3004 970 89 -400 040/12 RMK AO2 SNE19 P0001 TSNO
94908KDBQ DBQ20070314192513303/14/07 19:25:31  5-MIN KDBQ 150125Z AUTO 04013KT 10SM FEW005 BKN041 OVC070 01/M01 A3004 960 89 -400 040/13 RMK AO2 SNE19 P0001 TSNO
94908KDBQ DBQ20070314193013303/14/07 19:30:31  5-MIN KDBQ 150130Z AUTO 04012KT 10SM FEW008 BKN043 OVC070 01/M01 A3005 960 89 -400 040/12 RMK AO2 SNE19 P0001 TSNO
94908KDBQ DBQ20070314193513303/14/07 19:35:31  5-MIN KDBQ 150135Z AUTO 04013KT 10SM BKN047 BKN055 OVC075 01/M01 A3004 970 89 -400 040/13 RMK AO2 SNE19 P0001 TSNO
94908KDBQ DBQ20070314194012603/14/07 19:40:31  5-MIN KDBQ 150140Z AUTO 04011KT 10SM SCT049 OVC075 01/M01 A3005 960 89 -400 040/11 RMK AO2 SNE19 P0001 TSNO
94908KDBQ DBQ20070314194512503/14/07 19:45:31  5-MIN KDBQ 150145Z AUTO 04011KT 9SM SCT044 OVC080 01/M01 A3005 960 89 -400 040/11 RMK AO2 SNE19 P0001 TSNO
94908KDBQ DBQ20070314195014203/14/07 19:50:31  5-MIN KDBQ 150150Z AUTO 05012KT 8SM SCT041 OVC080 01/M01 A3005 960 89 -400 050/12 RMK AO2 SNE19 SLP184 P0001 T00111006 TSNO
94908KDBQ DBQ20070314195514203/14/07 19:55:31  5-MIN KDBQ 150155Z AUTO 06009KT 9SM SCT039 OVC080 01/M01 A3006 950 89 -400 060/09 RMK AO2 SNE19 SLP187 P0001 T00111006 TSNO
94908KDBQ DBQ20070314200011403/14/07 20:00:31  5-MIN KDBQ 150200Z AUTO 04011KT 10SM FEW041 OVC080 01/M01 A3006 950 89 -400 040/11 RMK AO2 TSNO
94908KDBQ DBQ20070314200512103/14/07 20:05:31  5-MIN KDBQ 150205Z AUTO 03011KT 10SM FEW030 SCT055 OVC075 01/M01 A3006 940 89 -400 030/11 RMK AO2 TSNO
94908KDBQ DBQ20070314201012103/14/07 20:10:31  5-MIN KDBQ 150210Z AUTO 04011KT 10SM FEW030 SCT060 OVC080 01/M01 A3006 940 89 -400 040/11 RMK AO2 TSNO
94908KDBQ DBQ20070314201511403/14/07 20:15:31  5-MIN KDBQ 150215Z AUTO 04010KT 10SM FEW060 OVC080 01/M01 A3007 940 89 -400 040/10 RMK AO2 TSNO
94908KDBQ DBQ20070314202012103/14/07 20:20:31  5-MIN KDBQ 150220Z AUTO 03011KT 10SM SCT060 OVC080 01/M01 A3008 930 89 -400 030/11 RMK AO2 PRESRR TSNO
94908KDBQ DBQ20070314202511403/14/07 20:25:31  5-MIN KDBQ 150225Z AUTO 04010KT 10SM BKN065 OVC080 01/M01 A3008 930 89 -400 030/10 RMK AO2 TSNO
94908KDBQ DBQ20070314203011303/14/07 20:30:31  5-MIN KDBQ 150230Z AUTO 03011KT 10SM BKN060 OVC080 01/00 A3009 930 92 -500 030/11 RMK AO2 TSNO
94908KDBQ DBQ20070314203511303/14/07 20:35:31  5-MIN KDBQ 150235Z AUTO 04009KT 10SM SCT065 OVC085 01/00 A3009 920 92 -500 040/09 RMK AO2 TSNO
94908KDBQ DBQ20070314204011403/14/07 20:40:31  5-MIN KDBQ 150240Z AUTO 04009KT 10SM FEW065 OVC085 01/M01 A3009 920 89 -500 040/09 RMK AO2 TSNO
94908KDBQ DBQ20070314204511403/14/07 20:45:31  5-MIN KDBQ 150245Z AUTO 04010KT 10SM FEW065 OVC090 01/M01 A3009 920 89 -500 040/10 RMK AO2 TSNO
94908KDBQ DBQ20070314205014303/14/07 20:50:31  5-MIN KDBQ 150250Z AUTO 04010KT 10SM FEW065 OVC090 01/M01 A3009 920 89 -500 030/10 RMK AO2 SLP199 60003 T00111006 51020 TSNO
94908KDBQ DBQ20070314205513603/14/07 20:55:31  5-MIN KDBQ 150255Z AUTO 04009KT 10SM OVC090 01/M01 A3010 920 89 -500 040/09 RMK AO2 SLP198 60003 T00111006 53030 TSNO
94908KDBQ DBQ20070314210010703/14/07 21:00:31  5-MIN KDBQ 150300Z AUTO 05009KT 10SM OVC090 01/M01 A3010 910 89 -500 050/09 RMK AO2 TSNO
94908KDBQ DBQ20070314210510703/14/07 21:05:31  5-MIN KDBQ 150305Z AUTO 04008KT 10SM OVC085 01/M01 A3010 910 89 -500 040/08 RMK AO2 TSNO
94908KDBQ DBQ20070314211011403/14/07 21:10:31  5-MIN KDBQ 150310Z AUTO 04009KT 10SM FEW060 OVC090 01/M01 A3011 910 89 -500 040/09 RMK AO2 TSNO
94908KDBQ DBQ20070314211511403/14/07 21:15:31  5-MIN KDBQ 150315Z AUTO 05009KT 10SM SCT055 OVC090 01/M01 A3011 910 89 -500 050/09 RMK AO2 TSNO
94908KDBQ DBQ20070314212011403/14/07 21:20:31  5-MIN KDBQ 150320Z AUTO 04007KT 10SM BKN055 OVC085 01/M01 A3011 900 89 -500 040/07 RMK AO2 TSNO
94908KDBQ DBQ20070314212511403/14/07 21:25:31  5-MIN KDBQ 150325Z AUTO 05009KT 10SM BKN055 OVC085 01/M01 A3011 910 89 -500 050/09 RMK AO2 TSNO
94908KDBQ DBQ20070314213011403/14/07 21:30:31  5-MIN KDBQ 150330Z AUTO 04008KT 10SM BKN055 OVC085 01/M01 A3011 910 89 -500 030/08 RMK AO2 TSNO
94908KDBQ DBQ20070314213510703/14/07 21:35:31  5-MIN KDBQ 150335Z AUTO 04009KT 10SM OVC055 01/M01 A3010 910 89 -500 040/09 RMK AO2 TSNO
94908KDBQ DBQ20070314214011403/14/07 21:40:31  5-MIN KDBQ 150340Z AUTO 04009KT 10SM BKN055 OVC085 01/M01 A3010 910 89 -500 040/09 RMK AO2 TSNO
94908KDBQ DBQ20070314214511403/14/07 21:45:31  5-MIN KDBQ 150345Z AUTO 05009KT 10SM BKN055 OVC085 01/M01 A3011 910 89 -500 040/09 RMK AO2 TSNO
94908KDBQ DBQ20070314215013103/14/07 21:50:31  5-MIN KDBQ 150350Z AUTO 05006KT 10SM SCT055 OVC080 01/M01 A3011 900 89 -500 050/06 RMK AO2 SLP205 T00111006 TSNO
94908KDBQ DBQ20070314215513103/14/07 21:55:31  5-MIN KDBQ 150355Z AUTO 05007KT 10SM FEW055 OVC080 01/M01 A3011 900 89 -500 050/07 RMK AO2 SLP205 T00111006 TSNO
94908KDBQ DBQ20070314220011403/14/07 22:00:31  5-MIN KDBQ 150400Z AUTO 05007KT 10SM FEW060 OVC080 01/M01 A3011 900 89 -500 050/07 RMK AO2 TSNO
94908KDBQ DBQ20070314220510703/14/07 22:05:31  5-MIN KDBQ 150405Z AUTO 05006KT 10SM OVC080 01/M01 A3012 900 89 -500 050/06 RMK AO2 TSNO
94908KDBQ DBQ20070314221010703/14/07 22:10:31  5-MIN KDBQ 150410Z AUTO 04006KT 10SM OVC080 01/M01 A3011 900 89 -500 040/06 RMK AO2 TSNO
94908KDBQ DBQ20070314221510703/14/07 22:15:31  5-MIN KDBQ 150415Z AUTO 04006KT 10SM OVC080 01/M01 A3012 900 89 -500 040/06 RMK AO2 TSNO
94908KDBQ DBQ20070314222010703/14/07 22:20:31  5-MIN KDBQ 150420Z AUTO 04006KT 10SM OVC090 01/M01 A3012 890 89 -500 040/06 RMK AO2 TSNO
94908KDBQ DBQ20070314222510703/14/07 22:25:31  5-MIN KDBQ 150425Z AUTO 04006KT 10SM OVC090 01/M01 A3012 890 89 -500 040/06 RMK AO2 TSNO
94908KDBQ DBQ20070314223010703/14/07 22:30:31  5-MIN KDBQ 150430Z AUTO 05005KT 10SM OVC090 01/M01 A3012 890 89 -500 050/05 RMK AO2 TSNO
94908KDBQ DBQ20070314223510703/14/07 22:35:31  5-MIN KDBQ 150435Z AUTO 06005KT 10SM OVC095 01/M01 A3011 900 89 -500 060/05 RMK AO2 TSNO
94908KDBQ DBQ20070314224010703/14/07 22:40:31  5-MIN KDBQ 150440Z AUTO 06006KT 10SM OVC095 01/M01 A3011 900 89 -500 060/06 RMK AO2 TSNO
94908KDBQ DBQ20070314224510703/14/07 22:45:31  5-MIN KDBQ 150445Z AUTO 06008KT 10SM OVC095 01/M01 A3011 900 89 -500 060/08 RMK AO2 TSNO
94908KDBQ DBQ20070314225012403/14/07 22:50:31  5-MIN KDBQ 150450Z AUTO 05007KT 10SM OVC100 01/M01 A3011 900 89 -500 050/07 RMK AO2 SLP203 T00111006 TSNO
94908KDBQ DBQ20070314225512403/14/07 22:55:31  5-MIN KDBQ 150455Z AUTO 06007KT 10SM OVC100 01/M01 A3011 900 89 -500 060/07 RMK AO2 SLP203 T00111006 TSNO
94908KDBQ DBQ20070314230010703/14/07 23:00:31  5-MIN KDBQ 150500Z AUTO 06006KT 10SM OVC100 01/M01 A3011 900 89 -500 060/06 RMK AO2 TSNO
94908KDBQ DBQ20070314230511403/14/07 23:05:31  5-MIN KDBQ 150505Z AUTO 06006KT 10SM BKN100 OVC120 01/M01 A3011 900 89 -500 060/06 RMK AO2 TSNO
94908KDBQ DBQ20070314231010703/14/07 23:10:31  5-MIN KDBQ 150510Z AUTO 04005KT 10SM OVC110 01/M01 A3011 900 89 -500 040/05 RMK AO2 TSNO
94908KDBQ DBQ20070314231510703/14/07 23:15:31  5-MIN KDBQ 150515Z AUTO 03006KT 10SM BKN110 01/M01 A3011 900 89 -500 030/06 RMK AO2 TSNO
94908KDBQ DBQ20070314232010703/14/07 23:20:31  5-MIN KDBQ 150520Z AUTO 03005KT 10SM BKN110 01/M01 A3012 900 92 -600 030/05 RMK AO2 TSNO
94908KDBQ DBQ20070314232510703/14/07 23:25:31  5-MIN KDBQ 150525Z AUTO 03006KT 10SM OVC110 01/M01 A3011 900 92 -600 030/06 RMK AO2 TSNO
94908KDBQ DBQ20070314233010703/14/07 23:30:31  5-MIN KDBQ 150530Z AUTO 04007KT 10SM OVC110 01/M01 A3011 900 92 -500 040/07 RMK AO2 TSNO
94908KDBQ DBQ20070314235515803/14/07 23:55:31  5-MIN KDBQ 150555Z AUTO 02006KT 10SM SCT110 01/M01 A3012 890 92 -600 020/06 RMK AO2 SLP206 60003 T00061006 10022 20006 401500006 51008 TSNO
94908KDBQ DBQ20070315000010703/15/07 00:00:38  5-MIN KDBQ 150600Z AUTO 02007KT 10SM FEW110 01/M01 A3012 890 92 -600 020/07 RMK AO2 TSNO
94908KDBQ DBQ20070315000510703/15/07 00:05:31  5-MIN KDBQ 150605Z AUTO 02006KT 10SM FEW100 01/M01 A3012 890 89 -600 010/06 RMK AO2 TSNO
94908KDBQ DBQ20070315001010703/15/07 00:10:31  5-MIN KDBQ 150610Z AUTO 01006KT 10SM FEW100 01/M01 A3013 890 89 -600 010/06 RMK AO2 TSNO
94908KDBQ DBQ20070315001510703/15/07 00:15:32  5-MIN KDBQ 150615Z AUTO 02005KT 10SM FEW100 00/M01 A3013 890 92 -600 020/05 RMK AO2 TSNO
94908KDBQ DBQ20070315002010703/15/07 00:20:31  5-MIN KDBQ 150620Z AUTO 03004KT 10SM FEW100 00/M01 A3012 890 92 -600 030/04 RMK AO2 TSNO
94908KDBQ DBQ20070315002510703/15/07 00:25:31  5-MIN KDBQ 150625Z AUTO 04005KT 10SM FEW100 00/M01 A3012 890 92 -600 040/05 RMK AO2 TSNO
94908KDBQ DBQ20070315003010703/15/07 00:30:31  5-MIN KDBQ 150630Z AUTO 03005KT 10SM FEW100 00/M01 A3012 890 92 -600 030/05 RMK AO2 TSNO
94908KDBQ DBQ20070315003510403/15/07 00:35:31  5-MIN KDBQ 150635Z AUTO 03005KT 10SM CLR 00/M01 A3012 890 92 -600 030/05 RMK AO2 TSNO
94908KDBQ DBQ20070315004010503/15/07 00:40:31  5-MIN KDBQ 150640Z AUTO 01005KT 10SM CLR M01/M02 A3013 890 92 -700 010/05 RMK AO2 TSNO
94908KDBQ DBQ20070315004510803/15/07 00:45:31  5-MIN KDBQ 150645Z AUTO 02006KT 10SM FEW080 M01/M02 A3012 890 92 -700 020/06 RMK AO2 TSNO
94908KDBQ DBQ20070315005012503/15/07 00:50:31  5-MIN KDBQ 150650Z AUTO 03007KT 10SM FEW080 M01/M02 A3012 890 92 -700 030/07 RMK AO2 SLP207 T10061017 TSNO
94908KDBQ DBQ20070315005512503/15/07 00:55:31  5-MIN KDBQ 150655Z AUTO 01006KT 10SM FEW080 M01/M02 A3013 890 92 -700 010/06 RMK AO2 SLP209 T10061017 TSNO
94908KDBQ DBQ20070315010010803/15/07 01:00:31  5-MIN KDBQ 150700Z AUTO 02005KT 10SM FEW080 M01/M02 A3012 890 92 -700 020/05 RMK AO2 TSNO
94908KDBQ DBQ20070315010510803/15/07 01:05:31  5-MIN KDBQ 150705Z AUTO 02005KT 10SM FEW080 M01/M02 A3013 890 92 -700 010/05 RMK AO2 TSNO
94908KDBQ DBQ20070315011010803/15/07 01:10:31  5-MIN KDBQ 150710Z AUTO 01005KT 10SM FEW080 M01/M02 A3013 890 96 -800 010/05 RMK AO2 TSNO
94908KDBQ DBQ20070315011510503/15/07 01:15:31  5-MIN KDBQ 150715Z AUTO 01005KT 10SM CLR M01/M02 A3013 890 92 -800 010/05 RMK AO2 TSNO
94908KDBQ DBQ20070315012010503/15/07 01:20:31  5-MIN KDBQ 150720Z AUTO 02005KT 10SM CLR M01/M02 A3013 890 92 -800 010/05 RMK AO2 TSNO
94908KDBQ DBQ20070315012510403/15/07 01:25:31  5-MIN KDBQ 150725Z AUTO 02004KT 9SM CLR M01/M02 A3012 890 92 -800 010/04 RMK AO2 TSNO
94908KDBQ DBQ20070315013010403/15/07 01:30:31  5-MIN KDBQ 150730Z AUTO 02004KT 9SM CLR M02/M02 A3013 880 96 -900 010/04 RMK AO2 TSNO
94908KDBQ DBQ20070315013510403/15/07 01:35:31  5-MIN KDBQ 150735Z AUTO 02005KT 9SM CLR M01/M02 A3013 880 92 -800 010/05 RMK AO2 TSNO
94908KDBQ DBQ20070315014010403/15/07 01:40:31  5-MIN KDBQ 150740Z AUTO 02005KT 9SM CLR M01/M02 A3013 890 92 -800 010/05 RMK AO2 TSNO
94908KDBQ DBQ20070315014510403/15/07 01:45:31  5-MIN KDBQ 150745Z AUTO 02005KT 9SM CLR M02/M02 A3013 880 96 -900 010/05 RMK AO2 TSNO
94908KDBQ DBQ20070315015012103/15/07 01:50:31  5-MIN KDBQ 150750Z AUTO 02004KT 9SM CLR M01/M02 A3013 880 92 -800 010/04 RMK AO2 SLP210 T10111022 TSNO
94908KDBQ DBQ20070315015512103/15/07 01:55:31  5-MIN KDBQ 150755Z AUTO 02006KT 9SM CLR M01/M02 A3013 880 92 -800 010/06 RMK AO2 SLP211 T10111022 TSNO
94908KDBQ DBQ20070315020010403/15/07 02:00:31  5-MIN KDBQ 150800Z AUTO 02004KT 9SM CLR M01/M02 A3013 890 92 -800 010/04 RMK AO2 TSNO
94908KDBQ DBQ20070315020510503/15/07 02:05:31  5-MIN KDBQ 150805Z AUTO 00000KT 10SM CLR M01/M02 A3013 890 92 -800 000/00 RMK AO2 TSNO
94908KDBQ DBQ20070315021010503/15/07 02:10:31  5-MIN KDBQ 150810Z AUTO 00000KT 10SM CLR M01/M03 A3012 890 88 -800 000/00 RMK AO2 TSNO
94908KDBQ DBQ20070315021510503/15/07 02:15:31  5-MIN KDBQ 150815Z AUTO 00000KT 10SM CLR M01/M03 A3012 890 88 -800 000/00 RMK AO2 TSNO
94908KDBQ DBQ20070315022010503/15/07 02:20:31  5-MIN KDBQ 150820Z AUTO 00000KT 10SM CLR M01/M03 A3013 890 85 -700 000/00 RMK AO2 TSNO
94908KDBQ DBQ20070315022510503/15/07 02:25:31  5-MIN KDBQ 150825Z AUTO 00000KT 10SM CLR M01/M03 A3013 890 85 -700 000/00 RMK AO2 TSNO
94908KDBQ DBQ20070315023010503/15/07 02:30:31  5-MIN KDBQ 150830Z AUTO 00000KT 10SM CLR M01/M02 A3013 880 88 -700 000/00 RMK AO2 TSNO
94908KDBQ DBQ20070315023510503/15/07 02:35:31  5-MIN KDBQ 150835Z AUTO 00000KT 10SM CLR M01/M03 A3013 880 85 -700 000/00 RMK AO2 TSNO
94908KDBQ DBQ20070315024010503/15/07 02:40:31  5-MIN KDBQ 150840Z AUTO 00000KT 10SM CLR M01/M03 A3014 880 88 -800 000/00 RMK AO2 TSNO
94908KDBQ DBQ20070315024510503/15/07 02:45:31  5-MIN KDBQ 150845Z AUTO 00000KT 10SM CLR M01/M02 A3014 880 88 -700 000/00 RMK AO2 TSNO
94908KDBQ DBQ20070315025012803/15/07 02:50:31  5-MIN KDBQ 150850Z AUTO 00000KT 10SM CLR M01/M02 A3014 870 92 -800 000/00 RMK AO2 SLP216 T10111022 51008 TSNO
94908KDBQ DBQ20070315025512803/15/07 02:55:31  5-MIN KDBQ 150855Z AUTO 00000KT 10SM CLR M01/M03 A3014 870 88 -800 000/00 RMK AO2 SLP217 T10111028 53008 TSNO
94908KDBQ DBQ20070315030010503/15/07 03:00:31  5-MIN KDBQ 150900Z AUTO 00000KT 10SM CLR M01/M03 A3014 870 88 -800 000/00 RMK AO2 TSNO
94908KDBQ DBQ20070315030510503/15/07 03:05:31  5-MIN KDBQ 150905Z AUTO 00000KT 10SM CLR M01/M03 A3014 880 88 -800 000/00 RMK AO2 TSNO
94908KDBQ DBQ20070315031010503/15/07 03:10:31  5-MIN KDBQ 150910Z AUTO 00000KT 10SM CLR M01/M03 A3014 880 88 -800 000/00 RMK AO2 TSNO
94908KDBQ DBQ20070315031510503/15/07 03:15:31  5-MIN KDBQ 150915Z AUTO 00000KT 10SM CLR M01/M03 A3014 880 88 -800 000/00 RMK AO2 TSNO
94908KDBQ DBQ20070315032010503/15/07 03:20:31  5-MIN KDBQ 150920Z AUTO 00000KT 10SM CLR M01/M03 A3013 890 88 -800 000/00 RMK AO2 TSNO
94908KDBQ DBQ20070315032510503/15/07 03:25:31  5-MIN KDBQ 150925Z AUTO 00000KT 10SM CLR M01/M03 A3013 890 88 -800 000/00 RMK AO2 TSNO
94908KDBQ DBQ20070315033010503/15/07 03:30:31  5-MIN KDBQ 150930Z AUTO 00000KT 10SM CLR M01/M03 A3012 890 88 -800 000/00 RMK AO2 TSNO
94908KDBQ DBQ20070315033510503/15/07 03:35:31  5-MIN KDBQ 150935Z AUTO 00000KT 10SM CLR M01/M03 A3012 890 85 -800 000/00 RMK AO2 TSNO
94908KDBQ DBQ20070315034010503/15/07 03:40:31  5-MIN KDBQ 150940Z AUTO 00000KT 10SM CLR M01/M03 A3012 890 81 -700 000/00 RMK AO2 TSNO
94908KDBQ DBQ20070315034510503/15/07 03:45:31  5-MIN KDBQ 150945Z AUTO 00000KT 10SM CLR M01/M03 A3013 890 81 -700 000/00 RMK AO2 TSNO
94908KDBQ DBQ20070315035012203/15/07 03:50:31  5-MIN KDBQ 150950Z AUTO 00000KT 10SM CLR M01/M03 A3013 880 81 -700 000/00 RMK AO2 SLP213 T10061033 TSNO
94908KDBQ DBQ20070315035512203/15/07 03:55:31  5-MIN KDBQ 150955Z AUTO 00000KT 10SM CLR M01/M03 A3014 880 85 -800 000/00 RMK AO2 SLP215 T10111033 TSNO
94908KDBQ DBQ20070315040010503/15/07 04:00:31  5-MIN KDBQ 151000Z AUTO 00000KT 10SM CLR M01/M03 A3014 880 85 -800 000/00 RMK AO2 TSNO
94908KDBQ DBQ20070315040510503/15/07 04:05:31  5-MIN KDBQ 151005Z AUTO 00000KT 10SM CLR M01/M03 A3014 870 85 -800 000/00 RMK AO2 TSNO
94908KDBQ DBQ20070315041010503/15/07 04:10:31  5-MIN KDBQ 151010Z AUTO 00000KT 10SM CLR M01/M03 A3015 870 85 -800 000/00 RMK AO2 TSNO
94908KDBQ DBQ20070315041510503/15/07 04:15:31  5-MIN KDBQ 151015Z AUTO 00000KT 10SM CLR M01/M03 A3015 870 85 -800 000/00 RMK AO2 TSNO
94908KDBQ DBQ20070315042010503/15/07 04:20:31  5-MIN KDBQ 151020Z AUTO 00000KT 10SM CLR M02/M04 A3015 870 85 -900 000/00 RMK AO2 TSNO
94908KDBQ DBQ20070315042510503/15/07 04:25:31  5-MIN KDBQ 151025Z AUTO 00000KT 10SM CLR M02/M04 A3015 870 85 -900 000/00 RMK AO2 TSNO
94908KDBQ DBQ20070315043010503/15/07 04:30:31  5-MIN KDBQ 151030Z AUTO 00000KT 10SM CLR M02/M04 A3015 870 85 -900 000/00 RMK AO2 TSNO
94908KDBQ DBQ20070315043510503/15/07 04:35:31  5-MIN KDBQ 151035Z AUTO 00000KT 10SM CLR M02/M04 A3015 860 88 -900 000/00 RMK AO2 TSNO
94908KDBQ DBQ20070315044010503/15/07 04:40:31  5-MIN KDBQ 151040Z AUTO 00000KT 10SM CLR M02/M04 A3016 860 85 -900 000/00 RMK AO2 TSNO
94908KDBQ DBQ20070315044510503/15/07 04:45:31  5-MIN KDBQ 151045Z AUTO 00000KT 10SM CLR M02/M04 A3016 860 81 -900 000/00 RMK AO2 TSNO
94908KDBQ DBQ20070315045011203/15/07 04:50:31  5-MIN KDBQ 151050Z 00000KT 10SM CLR M02/M04 A3016 860 81 -900 000/00 RMK AO2 SLP224 T10171044
94908KDBQ DBQ20070315045511203/15/07 04:55:31  5-MIN KDBQ 151055Z 00000KT 10SM CLR M02/M04 A3016 860 81 -900 000/00 RMK AO2 SLP225 T10171044
94908KDBQ DBQ20070315050009603/15/07 05:00:31  5-MIN KDBQ 151100Z 00000KT 10SM CLR M02/M04 A3016 850 85 -1000 000/00 RMK AO2
94908KDBQ DBQ20070315050509603/15/07 05:05:31  5-MIN KDBQ 151105Z 00000KT 10SM CLR M02/M05 A3017 850 81 -1000 000/00 RMK AO2
94908KDBQ DBQ20070315051009603/15/07 05:10:31  5-MIN KDBQ 151110Z 00000KT 10SM CLR M02/M05 A3016 850 81 -1000 000/00 RMK AO2
94908KDBQ DBQ20070315051509603/15/07 05:15:31  5-MIN KDBQ 151115Z 00000KT 10SM CLR M02/M06 A3016 860 78 -1000 000/00 RMK AO2
94908KDBQ DBQ20070315052009503/15/07 05:20:31  5-MIN KDBQ 151120Z 00000KT 10SM CLR M02/M06 A3017 850 75 -900 000/00 RMK AO2
94908KDBQ DBQ20070315052509503/15/07 05:25:31  5-MIN KDBQ 151125Z 00000KT 10SM CLR M02/M06 A3017 850 72 -900 000/00 RMK AO2
94908KDBQ DBQ20070315053009503/15/07 05:30:31  5-MIN KDBQ 151130Z 00000KT 10SM CLR M02/M06 A3017 850 72 -900 000/00 RMK AO2
94908KDBQ DBQ20070315053509503/15/07 05:35:31  5-MIN KDBQ 151135Z 00000KT 10SM CLR M01/M06 A3017 850 69 -800 000/00 RMK AO2
94908KDBQ DBQ20070315054009503/15/07 05:40:31  5-MIN KDBQ 151140Z 00000KT 10SM CLR M02/M06 A3017 850 72 -900 000/00 RMK AO2
94908KDBQ DBQ20070315054509503/15/07 05:45:31  5-MIN KDBQ 151145Z 00000KT 10SM CLR M02/M06 A3017 850 72 -900 000/00 RMK AO2
94908KDBQ DBQ20070315055013603/15/07 05:50:31  5-MIN KDBQ 151150Z 00000KT 10SM CLR M02/M06 A3017 850 72 -900 000/00 RMK AO2 SLP230 70003 T10171061 10006 21022 53008
94908KDBQ DBQ20070315055513603/15/07 05:55:31  5-MIN KDBQ 151155Z 00000KT 10SM CLR M02/M06 A3018 840 72 -900 000/00 RMK AO2 SLP232 70003 T10171061 10006 21022 53012
94908KDBQ DBQ20070315060009503/15/07 06:00:31  5-MIN KDBQ 151200Z 00000KT 10SM CLR M01/M06 A3018 840 69 -800 000/00 RMK AO2
94908KDBQ DBQ20070315060509503/15/07 06:05:31  5-MIN KDBQ 151205Z 00000KT 10SM CLR M01/M06 A3019 830 69 -800 000/00 RMK AO2
94908KDBQ DBQ20070315061009503/15/07 06:10:31  5-MIN KDBQ 151210Z 00000KT 10SM CLR M02/M06 A3019 830 72 -900 000/00 RMK AO2
94908KDBQ DBQ20070315061509503/15/07 06:15:31  5-MIN KDBQ 151215Z 00000KT 10SM CLR M02/M06 A3019 830 72 -900 000/00 RMK AO2
94908KDBQ DBQ20070315062009503/15/07 06:20:31  5-MIN KDBQ 151220Z 00000KT 10SM CLR M02/M06 A3019 830 72 -900 000/00 RMK AO2
94908KDBQ DBQ20070315062509503/15/07 06:25:31  5-MIN KDBQ 151225Z 00000KT 10SM CLR M01/M06 A3020 820 69 -900 000/00 RMK AO2
94908KDBQ DBQ20070315063009503/15/07 06:30:31  5-MIN KDBQ 151230Z 00000KT 10SM CLR M02/M06 A3020 820 72 -900 000/00 RMK AO2
94908KDBQ DBQ20070315063509503/15/07 06:35:31  5-MIN KDBQ 151235Z 00000KT 10SM CLR M02/M06 A3020 820 75 -900 000/00 RMK AO2
94908KDBQ DBQ20070315064009503/15/07 06:40:31  5-MIN KDBQ 151240Z 00000KT 10SM CLR M01/M06 A3021 810 72 -900 000/00 RMK AO2
94908KDBQ DBQ20070315064509503/15/07 06:45:31  5-MIN KDBQ 151245Z 00000KT 10SM CLR M01/M06 A3021 810 72 -900 000/00 RMK AO2
94908KDBQ DBQ20070315065011203/15/07 06:50:31  5-MIN KDBQ 151250Z 00000KT 10SM CLR M02/M06 A3021 810 75 -900 000/00 RMK AO2 SLP245 T10171056
94908KDBQ DBQ20070315065511203/15/07 06:55:31  5-MIN KDBQ 151255Z 00000KT 10SM CLR M01/M06 A3022 800 72 -900 000/00 RMK AO2 SLP245 T10111056
94908KDBQ DBQ20070315070009503/15/07 07:00:31  5-MIN KDBQ 151300Z 00000KT 10SM CLR M01/M06 A3022 800 72 -900 000/00 RMK AO2
94908KDBQ DBQ20070315070509503/15/07 07:05:31  5-MIN KDBQ 151305Z 00000KT 10SM CLR M01/M05 A3022 800 75 -900 000/00 RMK AO2
94908KDBQ DBQ20070315071009503/15/07 07:10:31  5-MIN KDBQ 151310Z 00000KT 10SM CLR M01/M06 A3022 800 72 -900 000/00 RMK AO2
94908KDBQ DBQ20070315071509503/15/07 07:15:31  5-MIN KDBQ 151315Z 00000KT 10SM CLR M01/M05 A3022 800 75 -900 000/00 RMK AO2
94908KDBQ DBQ20070315072009503/15/07 07:20:31  5-MIN KDBQ 151320Z 02003KT 10SM CLR M01/M05 A3022 800 75 -900 010/03 RMK AO2
94908KDBQ DBQ20070315072509503/15/07 07:25:31  5-MIN KDBQ 151325Z 02007KT 10SM CLR M01/M06 A3022 800 72 -900 010/07 RMK AO2
94908KDBQ DBQ20070315073008703/15/07 07:30:31  5-MIN KDBQ 151330Z 10SM CLR M01/M06 A3022 800 69 -800 M /M RMK AO2 $
94908KDBQ DBQ20070315073509703/15/07 07:35:31  5-MIN KDBQ 151335Z 05009KT 10SM CLR M01/M06 A3022 800 69 -800 050/09 RMK AO2 $
94908KDBQ DBQ20070315074009703/15/07 07:40:31  5-MIN KDBQ 151340Z 05009KT 10SM CLR M01/M06 A3022 800 69 -800 050/09 RMK AO2 $
94908KDBQ DBQ20070315074509703/15/07 07:45:31  5-MIN KDBQ 151345Z 05009KT 10SM CLR M01/M06 A3022 800 66 -800 050/09 RMK AO2 $
94908KDBQ DBQ20070315075011403/15/07 07:50:31  5-MIN KDBQ 151350Z 05009KT 10SM CLR M01/M06 A3022 800 66 -800 050/09 RMK AO2 SLP245 T10061061 $
94908KDBQ DBQ20070315075511303/15/07 07:55:31  5-MIN KDBQ 151355Z 05009KT 10SM CLR 00/M06 A3022 800 66 -700 050/09 RMK AO2 SLP245 T00001056 $
94908KDBQ DBQ20070315080008703/15/07 08:00:31  5-MIN KDBQ 151400Z 10SM CLR M01/M06 A3022 800 69 -800 M /M RMK AO2 $
94908KDBQ DBQ20070315080509603/15/07 08:05:31  5-MIN KDBQ 151405Z 06011KT 10SM CLR 00/M06 A3022 800 66 -700 060/11 RMK AO2 $
94908KDBQ DBQ20070315081009603/15/07 08:10:31  5-MIN KDBQ 151410Z 07011KT 10SM CLR 00/M06 A3022 810 66 -700 060/11 RMK AO2 $
94908KDBQ DBQ20070315081509603/15/07 08:15:31  5-MIN KDBQ 151415Z 08009KT 10SM CLR 00/M06 A3022 800 66 -700 080/09 RMK AO2 $
94908KDBQ DBQ20070315082009603/15/07 08:20:31  5-MIN KDBQ 151420Z 07010KT 10SM CLR 00/M06 A3022 800 66 -700 070/10 RMK AO2 $
94908KDBQ DBQ20070315082509403/15/07 08:25:31  5-MIN KDBQ 151425Z 07009KT 10SM CLR 00/M06 A3022 800 66 -700 070/09 RMK AO2
94908KDBQ DBQ20070315083009403/15/07 08:30:31  5-MIN KDBQ 151430Z 08009KT 10SM CLR 01/M06 A3023 790 63 -700 080/09 RMK AO2
94908KDBQ DBQ20070315083509403/15/07 08:35:31  5-MIN KDBQ 151435Z 07008KT 10SM CLR 01/M05 A3023 790 66 -700 060/08 RMK AO2
94908KDBQ DBQ20070315084009403/15/07 08:40:31  5-MIN KDBQ 151440Z 07009KT 10SM CLR 01/M05 A3023 790 66 -700 070/09 RMK AO2
94908KDBQ DBQ20070315084509403/15/07 08:45:31  5-MIN KDBQ 151445Z 07009KT 10SM CLR 01/M05 A3024 790 66 -700 070/09 RMK AO2
94908KDBQ DBQ20070315085011703/15/07 08:50:31  5-MIN KDBQ 151450Z 08008KT 10SM CLR 01/M05 A3023 790 64 -600 070/08 RMK AO2 SLP249 T00111050 53012
94908KDBQ DBQ20070315085511703/15/07 08:55:31  5-MIN KDBQ 151455Z 08009KT 10SM CLR 01/M04 A3024 790 66 -600 080/09 RMK AO2 SLP250 T00111044 51018
94908KDBQ DBQ20070315090009403/15/07 09:00:31  5-MIN KDBQ 151500Z 07013KT 10SM CLR 01/M05 A3024 780 64 -600 070/13 RMK AO2
94908KDBQ DBQ20070315090509403/15/07 09:05:31  5-MIN KDBQ 151505Z 08012KT 10SM CLR 01/M05 A3024 780 66 -700 080/12 RMK AO2
94908KDBQ DBQ20070315091009403/15/07 09:10:31  5-MIN KDBQ 151510Z 09013KT 10SM CLR 01/M05 A3025 780 66 -700 080/13 RMK AO2
94908KDBQ DBQ20070315091509403/15/07 09:15:31  5-MIN KDBQ 151515Z 08010KT 10SM CLR 01/M04 A3025 770 66 -600 080/10 RMK AO2
94908KDBQ DBQ20070315092009403/15/07 09:20:31  5-MIN KDBQ 151520Z 07010KT 10SM CLR 01/M04 A3026 770 66 -600 070/10 RMK AO2
94908KDBQ DBQ20070315092509403/15/07 09:25:31  5-MIN KDBQ 151525Z 06010KT 10SM CLR 01/M04 A3026 770 69 -600 060/10 RMK AO2
94908KDBQ DBQ20070315093009403/15/07 09:30:31  5-MIN KDBQ 151530Z 07010KT 10SM CLR 01/M04 A3026 760 66 -700 070/10 RMK AO2
94908KDBQ DBQ20070315093509403/15/07 09:35:31  5-MIN KDBQ 151535Z 05010KT 10SM CLR 02/M04 A3027 760 66 -600 050/10 RMK AO2
94908KDBQ DBQ20070315094009403/15/07 09:40:31  5-MIN KDBQ 151540Z 06009KT 10SM CLR 02/M03 A3027 760 69 -600 060/09 RMK AO2
94908KDBQ DBQ20070315094509403/15/07 09:45:31  5-MIN KDBQ 151545Z 06009KT 10SM CLR 02/M04 A3027 760 66 -600 060/09 RMK AO2
94908KDBQ DBQ20070315095011403/15/07 09:50:31  5-MIN KDBQ 151550Z 07010KT 10SM FEW085 02/M04 A3027 750 66 -600 070/10 RMK AO2 SLP263 T00171039
94908KDBQ DBQ20070315095511403/15/07 09:55:31  5-MIN KDBQ 151555Z 08008KT 10SM SCT085 02/M04 A3028 750 66 -600 080/08 RMK AO2 SLP264 T00171039
94908KDBQ DBQ20070315100009703/15/07 10:00:31  5-MIN KDBQ 151600Z 08008KT 10SM BKN085 02/M03 A3028 750 67 -500 080/08 RMK AO2
94908KDBQ DBQ20070315100509703/15/07 10:05:31  5-MIN KDBQ 151605Z 06010KT 10SM BKN085 02/M04 A3029 740 64 -500 060/10 RMK AO2
94908KDBQ DBQ20070315101010403/15/07 10:10:31  5-MIN KDBQ 151610Z 06008KT 10SM BKN085 02/M04 A3029 730 64 -600 060/08 RMK AO2 PRESRR
94908KDBQ DBQ20070315101509703/15/07 10:15:31  5-MIN KDBQ 151615Z VRB06KT 10SM OVC085 02/M03 A3030 730 69 -600 VRB/06 RMK AO2
94908KDBQ DBQ20070315102009703/15/07 10:20:31  5-MIN KDBQ 151620Z 06006KT 10SM OVC085 03/M03 A3030 730 67 -500 060/06 RMK AO2
94908KDBQ DBQ20070315102509703/15/07 10:25:31  5-MIN KDBQ 151625Z 07008KT 10SM OVC085 03/M03 A3030 730 67 -500 060/08 RMK AO2
94908KDBQ DBQ20070315103009703/15/07 10:30:31  5-MIN KDBQ 151630Z 09007KT 10SM OVC085 02/M03 A3030 730 67 -600 080/07 RMK AO2
94908KDBQ DBQ20070315103509703/15/07 10:35:31  5-MIN KDBQ 151635Z 06010KT 10SM OVC085 02/M03 A3029 740 67 -600 060/10 RMK AO2
94908KDBQ DBQ20070315104009703/15/07 10:40:31  5-MIN KDBQ 151640Z 05010KT 10SM OVC085 02/M03 A3029 740 67 -500 050/10 RMK AO2
94908KDBQ DBQ20070315104509703/15/07 10:45:31  5-MIN KDBQ 151645Z 09008KT 10SM OVC085 02/M03 A3029 740 69 -500 090/08 RMK AO2
94908KDBQ DBQ20070315105012103/15/07 10:50:31  5-MIN KDBQ 151650Z 04010KT 10SM FEW022 OVC085 03/M02 A3029 740 69 -500 040/10 RMK AO2 SLP268 T00281022
94908KDBQ DBQ20070315105512103/15/07 10:55:31  5-MIN KDBQ 151655Z 05008KT 10SM FEW022 OVC090 03/M02 A3030 730 69 -500 050/08 RMK AO2 SLP270 T00281022
94908KDBQ DBQ20070315110009703/15/07 11:00:31  5-MIN KDBQ 151700Z 06009KT 10SM OVC090 03/M02 A3030 730 69 -500 060/09 RMK AO2
94908KDBQ DBQ20070315110509703/15/07 11:05:31  5-MIN KDBQ 151705Z 09010KT 10SM OVC090 02/M03 A3030 730 69 -600 080/10 RMK AO2
94908KDBQ DBQ20070315111010403/15/07 11:10:31  5-MIN KDBQ 151710Z 06009KT 10SM FEW023 BKN090 02/M03 A3030 730 67 -600 050/09 RMK AO2
94908KDBQ DBQ20070315111510403/15/07 11:15:31  5-MIN KDBQ 151715Z 04008KT 10SM FEW023 BKN090 03/M02 A3030 730 69 -500 040/08 RMK AO2
94908KDBQ DBQ20070315112010403/15/07 11:20:31  5-MIN KDBQ 151720Z 04010KT 10SM FEW021 BKN090 03/M02 A3030 730 72 -500 040/10 RMK AO2
94908KDBQ DBQ20070315112510403/15/07 11:25:31  5-MIN KDBQ 151725Z 05010KT 10SM SCT021 BKN095 02/M02 A3030 730 75 -600 040/10 RMK AO2
94908KDBQ DBQ20070315113010403/15/07 11:30:31  5-MIN KDBQ 151730Z 04011KT 10SM SCT021 BKN095 02/M02 A3030 730 72 -600 030/11 RMK AO2
94908KDBQ DBQ20070315113509703/15/07 11:35:31  5-MIN KDBQ 151735Z 03012KT 10SM BKN021 02/M02 A3031 720 72 -600 030/12 RMK AO2
94908KDBQ DBQ20070315114010403/15/07 11:40:31  5-MIN KDBQ 151740Z 05012KT 10SM BKN021 BKN110 02/M02 A3030 730 72 -600 050/12 RMK AO2
94908KDBQ DBQ20070315114510403/15/07 11:45:31  5-MIN KDBQ 151745Z 03012KT 10SM BKN021 BKN110 02/M02 A3030 720 72 -600 030/12 RMK AO2
94908KDBQ DBQ20070315115013903/15/07 11:50:31  5-MIN KDBQ 151750Z 04011KT 10SM BKN021 BKN110 03/M02 A3030 730 69 -500 040/11 RMK AO2 SLP272 T00281022 10028 21017 51018
94908KDBQ DBQ20070315115513903/15/07 11:55:31  5-MIN KDBQ 151755Z 06011KT 10SM SCT021 BKN110 03/M02 A3030 730 69 -500 050/11 RMK AO2 SLP272 T00281022 10028 21017 51021
94908KDBQ DBQ20070315120010403/15/07 12:00:31  5-MIN KDBQ 151800Z 05010KT 10SM FEW021 SCT110 03/M03 A3030 730 67 -500 050/10 RMK AO2
94908KDBQ DBQ20070315120510403/15/07 12:05:31  5-MIN KDBQ 151805Z 06011KT 10SM FEW021 SCT110 03/M02 A3030 730 69 -500 060/11 RMK AO2
94908KDBQ DBQ20070315121010403/15/07 12:10:31  5-MIN KDBQ 151810Z 05010KT 10SM FEW021 SCT110 03/M03 A3030 730 67 -500 050/10 RMK AO2
94908KDBQ DBQ20070315121510403/15/07 12:15:31  5-MIN KDBQ 151815Z 06011KT 10SM FEW023 BKN110 03/M02 A3030 730 69 -500 050/11 RMK AO2
94908KDBQ DBQ20070315122010403/15/07 12:20:31  5-MIN KDBQ 151820Z 06011KT 10SM FEW023 BKN100 03/M02 A3029 740 69 -500 060/11 RMK AO2
94908KDBQ DBQ20070315122509703/15/07 12:25:31  5-MIN KDBQ 151825Z 06012KT 10SM BKN110 03/M02 A3029 740 67 -400 060/12 RMK AO2
94908KDBQ DBQ20070315123009703/15/07 12:30:31  5-MIN KDBQ 151830Z 08010KT 10SM BKN100 03/M03 A3028 750 64 -400 080/10 RMK AO2
94908KDBQ DBQ20070315123510403/15/07 12:35:31  5-MIN KDBQ 151835Z 06014KT 10SM SCT090 OVC110 03/M02 A3028 740 67 -400 050/14 RMK AO2
94908KDBQ DBQ20070315124010403/15/07 12:40:31  5-MIN KDBQ 151840Z 05011KT 10SM FEW085 OVC110 03/M02 A3029 740 67 -400 050/11 RMK AO2
94908KDBQ DBQ20070315124509703/15/07 12:45:31  5-MIN KDBQ 151845Z 05011KT 10SM OVC100 03/M03 A3029 740 67 -500 050/11 RMK AO2
94908KDBQ DBQ20070315125011403/15/07 12:50:31  5-MIN KDBQ 151850Z 06011KT 10SM OVC100 03/M03 A3029 740 64 -500 060/11 RMK AO2 SLP267 T00281033
94908KDBQ DBQ20070315125511403/15/07 12:55:31  5-MIN KDBQ 151855Z 04012KT 10SM OVC100 03/M03 A3029 740 61 -400 040/12 RMK AO2 SLP268 T00331033
94908KDBQ DBQ20070315130009703/15/07 13:00:31  5-MIN KDBQ 151900Z 06010KT 10SM OVC100 03/M03 A3029 740 64 -400 060/10 RMK AO2
94908KDBQ DBQ20070315130509703/15/07 13:05:31  5-MIN KDBQ 151905Z 07010KT 10SM OVC100 03/M03 A3028 740 61 -400 070/10 RMK AO2
94908KDBQ DBQ20070315131009703/15/07 13:10:31  5-MIN KDBQ 151910Z 05013KT 10SM BKN100 03/M03 A3029 740 64 -400 050/13 RMK AO2
94908KDBQ DBQ20070315131509703/15/07 13:15:31  5-MIN KDBQ 151915Z 05011KT 10SM BKN100 03/M03 A3029 740 61 -400 050/11 RMK AO2
94908KDBQ DBQ20070315132009703/15/07 13:20:31  5-MIN KDBQ 151920Z 05011KT 10SM BKN100 04/M03 A3028 750 59 -300 050/11 RMK AO2
94908KDBQ DBQ20070315132509703/15/07 13:25:31  5-MIN KDBQ 151925Z 06009KT 10SM BKN095 03/M03 A3028 750 61 -400 060/09 RMK AO2
94908KDBQ DBQ20070315133009703/15/07 13:30:31  5-MIN KDBQ 151930Z 07011KT 10SM SCT095 03/M03 A3028 750 61 -400 070/11 RMK AO2
94908KDBQ DBQ20070315133509703/15/07 13:35:31  5-MIN KDBQ 151935Z 07010KT 10SM FEW095 03/M03 A3027 750 61 -400 070/10 RMK AO2
94908KDBQ DBQ20070315134010403/15/07 13:40:31  5-MIN KDBQ 151940Z 04011KT 10SM FEW027 SCT100 04/M03 A3027 760 62 -300 040/11 RMK AO2
94908KDBQ DBQ20070315134509703/15/07 13:45:31  5-MIN KDBQ 151945Z 05012KT 10SM FEW027 03/M03 A3027 760 64 -400 040/12 RMK AO2
94908KDBQ DBQ20070315135011403/15/07 13:50:31  5-MIN KDBQ 151950Z 07011KT 10SM FEW027 03/M03 A3027 760 64 -400 070/11 RMK AO2 SLP261 T00331028
94908KDBQ DBQ20070315135511403/15/07 13:55:31  5-MIN KDBQ 151955Z 07010KT 10SM FEW027 03/M04 A3027 760 59 -400 070/10 RMK AO2 SLP262 T00331039
94908KDBQ DBQ20070315140010403/15/07 14:00:31  5-MIN KDBQ 152000Z 04011KT 10SM FEW027 SCT120 03/M04 A3027 750 59 -400 040/11 RMK AO2
94908KDBQ DBQ20070315140509703/15/07 14:05:31  5-MIN KDBQ 152005Z 06010KT 10SM FEW027 03/M04 A3027 760 59 -400 060/10 RMK AO2
94908KDBQ DBQ20070315141009703/15/07 14:10:31  5-MIN KDBQ 152010Z 06010KT 10SM FEW120 04/M03 A3026 770 62 -300 060/10 RMK AO2
94908KDBQ DBQ20070315141509703/15/07 14:15:31  5-MIN KDBQ 152015Z 06013KT 10SM FEW120 04/M03 A3026 760 62 -300 060/13 RMK AO2
94908KDBQ DBQ20070315142009703/15/07 14:20:31  5-MIN KDBQ 152020Z 04010KT 10SM FEW120 03/M03 A3027 760 61 -400 040/10 RMK AO2
94908KDBQ DBQ20070315142510303/15/07 14:25:31  5-MIN KDBQ 152025Z 03014G18KT 10SM FEW090 04/M03 A3027 760 62 -300 030/14G18 RMK AO2
94908KDBQ DBQ20070315143010303/15/07 14:30:31  5-MIN KDBQ 152030Z 06013G18KT 10SM FEW090 03/M03 A3027 760 64 -400 060/13G18 RMK AO2
94908KDBQ DBQ20070315143509703/15/07 14:35:31  5-MIN KDBQ 152035Z 07010KT 10SM FEW090 04/M03 A3026 760 59 -300 070/10 RMK AO2
94908KDBQ DBQ20070315144009703/15/07 14:40:31  5-MIN KDBQ 152040Z 08012KT 10SM FEW090 04/M03 A3026 760 59 -300 080/12 RMK AO2
94908KDBQ DBQ20070315144509703/15/07 14:45:31  5-MIN KDBQ 152045Z 07011KT 10SM FEW090 04/M03 A3026 760 59 -300 070/11 RMK AO2
94908KDBQ DBQ20070315145012003/15/07 14:50:31  5-MIN KDBQ 152050Z 07009KT 10SM FEW090 04/M04 A3026 760 57 -300 070/09 RMK AO2 SLP259 T00391039 51021
94908KDBQ DBQ20070315145511703/15/07 14:55:31  5-MIN KDBQ 152055Z 06009KT 10SM CLR 04/M03 A3026 760 59 -300 060/09 RMK AO2 SLP259 T00391033 56012
94908KDBQ DBQ20070315150009703/15/07 15:00:31  5-MIN KDBQ 152100Z 04009KT 10SM FEW031 04/M03 A3026 760 59 -300 040/09 RMK AO2
94908KDBQ DBQ20070315150509703/15/07 15:05:31  5-MIN KDBQ 152105Z 05011KT 10SM SCT031 04/M03 A3026 760 59 -300 050/11 RMK AO2
94908KDBQ DBQ20070315151009703/15/07 15:10:31  5-MIN KDBQ 152110Z 07008KT 10SM SCT031 03/M04 A3026 760 59 -400 070/08 RMK AO2
94908KDBQ DBQ20070315151509703/15/07 15:15:31  5-MIN KDBQ 152115Z 06009KT 10SM FEW031 04/M04 A3026 760 57 -300 060/09 RMK AO2
94908KDBQ DBQ20070315152009703/15/07 15:20:31  5-MIN KDBQ 152120Z 05009KT 10SM SCT031 04/M03 A3026 760 59 -300 050/09 RMK AO2
94908KDBQ DBQ20070315152509703/15/07 15:25:31  5-MIN KDBQ 152125Z 05009KT 10SM SCT031 04/M03 A3027 760 59 -300 050/09 RMK AO2
94908KDBQ DBQ20070315153009703/15/07 15:30:31  5-MIN KDBQ 152130Z 04010KT 10SM FEW031 04/M03 A3027 760 59 -300 040/10 RMK AO2
94908KDBQ DBQ20070315153509703/15/07 15:35:31  5-MIN KDBQ 152135Z 06006KT 10SM FEW031 03/M04 A3027 760 57 -400 060/06 RMK AO2
94908KDBQ DBQ20070315154009703/15/07 15:40:31  5-MIN KDBQ 152140Z 06009KT 10SM FEW031 04/M04 A3027 760 55 -200 060/09 RMK AO2
94908KDBQ DBQ20070315154509703/15/07 15:45:31  5-MIN KDBQ 152145Z 07006KT 10SM FEW031 04/M04 A3027 760 54 -300 070/06 RMK AO2
94908KDBQ DBQ20070315155011103/15/07 15:50:31  5-MIN KDBQ 152150Z 08007KT 10SM CLR 04/M04 A3026 760 57 -300 070/07 RMK AO2 SLP260 T00391039
94908KDBQ DBQ20070315155511103/15/07 15:55:31  5-MIN KDBQ 152155Z 07009KT 10SM CLR 04/M04 A3026 760 54 -300 070/09 RMK AO2 SLP259 T00391044
94908KDBQ DBQ20070315160009403/15/07 16:00:31  5-MIN KDBQ 152200Z 07007KT 10SM CLR 04/M04 A3026 760 54 -300 070/07 RMK AO2
94908KDBQ DBQ20070315160509403/15/07 16:05:31  5-MIN KDBQ 152205Z 05008KT 10SM CLR 04/M04 A3026 760 57 -300 050/08 RMK AO2
94908KDBQ DBQ20070315161009403/15/07 16:10:31  5-MIN KDBQ 152210Z 06008KT 10SM CLR 04/M04 A3026 760 57 -300 060/08 RMK AO2
94908KDBQ DBQ20070315161509403/15/07 16:15:31  5-MIN KDBQ 152215Z 08007KT 10SM CLR 04/M04 A3026 760 54 -300 070/07 RMK AO2
94908KDBQ DBQ20070315162009403/15/07 16:20:31  5-MIN KDBQ 152220Z 10006KT 10SM CLR 03/M05 A3026 770 54 -400 100/06 RMK AO2
94908KDBQ DBQ20070315162511003/15/07 16:25:31  5-MIN KDBQ 152225Z 09007KT 050V140 10SM CLR 03/M05 A3026 760 54 -400 090/07 050V140 RMK AO2
94908KDBQ DBQ20070315163009403/15/07 16:30:31  5-MIN KDBQ 152230Z 05008KT 10SM CLR 04/M04 A3026 760 57 -300 050/08 RMK AO2
94908KDBQ DBQ20070315163509403/15/07 16:35:31  5-MIN KDBQ 152235Z 06009KT 10SM CLR 03/M04 A3026 760 59 -400 060/09 RMK AO2
94908KDBQ DBQ20070315164009403/15/07 16:40:31  5-MIN KDBQ 152240Z 08009KT 10SM CLR 03/M04 A3027 760 59 -400 080/09 RMK AO2
94908KDBQ DBQ20070315164509403/15/07 16:45:31  5-MIN KDBQ 152245Z 05009KT 10SM CLR 03/M04 A3027 760 59 -400 050/09 RMK AO2
94908KDBQ DBQ20070315165011103/15/07 16:50:31  5-MIN KDBQ 152250Z 04007KT 10SM CLR 03/M04 A3027 760 59 -400 040/07 RMK AO2 SLP262 T00331039
94908KDBQ DBQ20070315165511103/15/07 16:55:31  5-MIN KDBQ 152255Z 07009KT 10SM CLR 03/M04 A3027 760 57 -400 070/09 RMK AO2 SLP261 T00331044
94908KDBQ DBQ20070315170009403/15/07 17:00:31  5-MIN KDBQ 152300Z 05008KT 10SM CLR 03/M04 A3027 760 59 -500 050/08 RMK AO2
94908KDBQ DBQ20070315170509403/15/07 17:05:31  5-MIN KDBQ 152305Z 05006KT 10SM CLR 03/M04 A3027 750 59 -400 050/06 RMK AO2
94908KDBQ DBQ20070315171009403/15/07 17:10:31  5-MIN KDBQ 152310Z 05008KT 10SM CLR 03/M04 A3027 750 59 -500 050/08 RMK AO2
94908KDBQ DBQ20070315171509403/15/07 17:15:31  5-MIN KDBQ 152315Z 05010KT 10SM CLR 03/M04 A3028 750 59 -500 050/10 RMK AO2
94908KDBQ DBQ20070315172009403/15/07 17:20:31  5-MIN KDBQ 152320Z 04008KT 10SM CLR 02/M04 A3028 750 61 -500 040/08 RMK AO2
94908KDBQ DBQ20070315172509403/15/07 17:25:31  5-MIN KDBQ 152325Z 05008KT 10SM CLR 02/M04 A3028 750 61 -500 050/08 RMK AO2
94908KDBQ DBQ20070315173009403/15/07 17:30:31  5-MIN KDBQ 152330Z 05008KT 10SM CLR 02/M05 A3028 750 59 -500 050/08 RMK AO2
94908KDBQ DBQ20070315173509403/15/07 17:35:31  5-MIN KDBQ 152335Z 05007KT 10SM CLR 02/M05 A3028 750 59 -500 050/07 RMK AO2
94908KDBQ DBQ20070315174009403/15/07 17:40:31  5-MIN KDBQ 152340Z 05007KT 10SM CLR 02/M04 A3028 740 64 -600 050/07 RMK AO2
94908KDBQ DBQ20070315174509403/15/07 17:45:31  5-MIN KDBQ 152345Z 05008KT 10SM CLR 02/M04 A3028 750 64 -600 050/08 RMK AO2
94908KDBQ DBQ20070315175013203/15/07 17:50:31  5-MIN KDBQ 152350Z 06008KT 10SM FEW090 02/M04 A3028 740 64 -600 060/08 RMK AO2 SLP268 T00171044 10044 20017 56012
94908KDBQ DBQ20070315175513203/15/07 17:55:31  5-MIN KDBQ 152355Z 05007KT 10SM SCT090 01/M04 A3029 740 66 -700 050/07 RMK AO2 SLP269 T00111044 10044 20011 53009
94908KDBQ DBQ20070315180009703/15/07 18:00:31  5-MIN KDBQ 160000Z 06006KT 10SM SCT090 01/M05 A3029 740 64 -700 060/06 RMK AO2
94908KDBQ DBQ20070315180509703/15/07 18:05:31  5-MIN KDBQ 160005Z 06006KT 10SM SCT090 01/M05 A3029 740 64 -700 060/06 RMK AO2
94908KDBQ DBQ20070315181009703/15/07 18:10:31  5-MIN KDBQ 160010Z 06006KT 10SM FEW090 01/M05 A3029 740 66 -800 060/06 RMK AO2
94908KDBQ DBQ20070315181509703/15/07 18:15:31  5-MIN KDBQ 160015Z 06006KT 10SM SCT090 01/M05 A3029 740 66 -800 060/06 RMK AO2
94908KDBQ DBQ20070315182009703/15/07 18:20:31  5-MIN KDBQ 160020Z 06006KT 10SM SCT090 01/M05 A3029 740 66 -800 060/06 RMK AO2
94908KDBQ DBQ20070315182509703/15/07 18:25:31  5-MIN KDBQ 160025Z 05007KT 10SM BKN095 01/M05 A3029 740 66 -800 050/07 RMK AO2
94908KDBQ DBQ20070315183009703/15/07 18:30:31  5-MIN KDBQ 160030Z 06007KT 10SM BKN095 01/M05 A3029 740 66 -800 060/07 RMK AO2
94908KDBQ DBQ20070315183509703/15/07 18:35:31  5-MIN KDBQ 160035Z 06007KT 10SM BKN090 01/M05 A3029 740 66 -800 060/07 RMK AO2
94908KDBQ DBQ20070315184009703/15/07 18:40:31  5-MIN KDBQ 160040Z 06006KT 10SM BKN090 00/M05 A3029 740 69 -800 060/06 RMK AO2
94908KDBQ DBQ20070315184509703/15/07 18:45:31  5-MIN KDBQ 160045Z 06006KT 10SM OVC090 00/M05 A3029 740 69 -800 060/06 RMK AO2
94908KDBQ DBQ20070315185012403/15/07 18:50:31  5-MIN KDBQ 160050Z AUTO 07006KT 10SM OVC090 00/M05 A3029 730 69 -800 060/06 RMK AO2 SLP272 T00001050 TSNO
94908KDBQ DBQ20070315185512403/15/07 18:55:31  5-MIN KDBQ 160055Z AUTO 06007KT 10SM OVC090 00/M05 A3030 730 69 -800 060/07 RMK AO2 SLP273 T00001050 TSNO
94908KDBQ DBQ20070315190010703/15/07 19:00:31  5-MIN KDBQ 160100Z AUTO 05005KT 10SM OVC090 00/M05 A3030 730 69 -800 050/05 RMK AO2 TSNO
94908KDBQ DBQ20070315190510803/15/07 19:05:31  5-MIN KDBQ 160105Z AUTO 06005KT 10SM OVC090 M01/M05 A3030 730 72 -900 050/05 RMK AO2 TSNO
94908KDBQ DBQ20070315191010803/15/07 19:10:31  5-MIN KDBQ 160110Z AUTO 05006KT 10SM OVC085 M01/M05 A3030 730 72 -900 050/06 RMK AO2 TSNO
94908KDBQ DBQ20070315191510903/15/07 19:15:31  5-MIN KDBQ 160115Z AUTO 05006KT 10SM BKN085 M01/M05 A3030 730 75 -1000 050/06 RMK AO2 TSNO
94908KDBQ DBQ20070315192010903/15/07 19:20:31  5-MIN KDBQ 160120Z AUTO 07005KT 10SM BKN085 M01/M05 A3030 730 75 -1000 070/05 RMK AO2 TSNO
94908KDBQ DBQ20070315192510903/15/07 19:25:31  5-MIN KDBQ 160125Z AUTO 07005KT 10SM SCT085 M01/M05 A3030 730 75 -1000 070/05 RMK AO2 TSNO
94908KDBQ DBQ20070315193010903/15/07 19:30:31  5-MIN KDBQ 160130Z AUTO 08006KT 10SM FEW085 M01/M06 A3030 730 72 -1000 070/06 RMK AO2 TSNO
94908KDBQ DBQ20070315193510903/15/07 19:35:31  5-MIN KDBQ 160135Z AUTO 07007KT 10SM FEW080 M01/M05 A3030 730 75 -1000 070/07 RMK AO2 TSNO
94908KDBQ DBQ20070315194010603/15/07 19:40:31  5-MIN KDBQ 160140Z AUTO 08007KT 10SM CLR M01/M05 A3030 730 75 -1000 080/07 RMK AO2 TSNO
94908KDBQ DBQ20070315194510603/15/07 19:45:31  5-MIN KDBQ 160145Z AUTO 07006KT 10SM CLR M01/M05 A3029 730 75 -1000 070/06 RMK AO2 TSNO
94908KDBQ DBQ20070315195012303/15/07 19:50:31  5-MIN KDBQ 160150Z AUTO 07007KT 10SM CLR M01/M06 A3029 730 72 -1000 070/07 RMK AO2 SLP272 T10111056 TSNO
94908KDBQ DBQ20070315195512303/15/07 19:55:31  5-MIN KDBQ 160155Z AUTO 07006KT 10SM CLR M02/M06 A3029 730 75 -1000 070/06 RMK AO2 SLP272 T10171056 TSNO
94908KDBQ DBQ20070315200010603/15/07 20:00:31  5-MIN KDBQ 160200Z AUTO 07006KT 10SM CLR M02/M06 A3029 730 75 -1000 070/06 RMK AO2 TSNO
94908KDBQ DBQ20070315200510603/15/07 20:05:31  5-MIN KDBQ 160205Z AUTO 07007KT 10SM CLR M02/M06 A3029 740 75 -1000 070/07 RMK AO2 TSNO
94908KDBQ DBQ20070315201010603/15/07 20:10:31  5-MIN KDBQ 160210Z AUTO 08007KT 10SM CLR M02/M06 A3029 730 75 -1000 080/07 RMK AO2 TSNO
94908KDBQ DBQ20070315201510603/15/07 20:15:31  5-MIN KDBQ 160215Z AUTO 08006KT 10SM CLR M02/M06 A3029 740 75 -1000 080/06 RMK AO2 TSNO
94908KDBQ DBQ20070315202010603/15/07 20:20:31  5-MIN KDBQ 160220Z AUTO 08007KT 10SM CLR M02/M06 A3029 740 75 -1000 070/07 RMK AO2 TSNO
94908KDBQ DBQ20070315202510603/15/07 20:25:31  5-MIN KDBQ 160225Z AUTO 08007KT 10SM CLR M02/M06 A3029 730 75 -1000 080/07 RMK AO2 TSNO
94908KDBQ DBQ20070315203010603/15/07 20:30:31  5-MIN KDBQ 160230Z AUTO 08007KT 10SM CLR M02/M06 A3029 730 75 -1000 080/07 RMK AO2 TSNO
94908KDBQ DBQ20070315203510603/15/07 20:35:31  5-MIN KDBQ 160235Z AUTO 07006KT 10SM CLR M02/M06 A3029 730 78 -1100 070/06 RMK AO2 TSNO
94908KDBQ DBQ20070315204010603/15/07 20:40:31  5-MIN KDBQ 160240Z AUTO 07006KT 10SM CLR M02/M06 A3029 730 78 -1100 070/06 RMK AO2 TSNO
94908KDBQ DBQ20070315204510603/15/07 20:45:31  5-MIN KDBQ 160245Z AUTO 07006KT 10SM CLR M02/M06 A3030 730 75 -1100 070/06 RMK AO2 TSNO
94908KDBQ DBQ20070315205012903/15/07 20:50:31  5-MIN KDBQ 160250Z AUTO 07005KT 10SM CLR M02/M06 A3030 730 75 -1100 070/05 RMK AO2 SLP273 T10221061 53009 TSNO
94908KDBQ DBQ20070315205512903/15/07 20:55:31  5-MIN KDBQ 160255Z AUTO 07006KT 10SM CLR M02/M06 A3030 730 75 -1100 070/06 RMK AO2 SLP273 T10221061 51003 TSNO
94908KDBQ DBQ20070315210010603/15/07 21:00:31  5-MIN KDBQ 160300Z AUTO 08006KT 10SM CLR M02/M06 A3030 730 75 -1100 080/06 RMK AO2 TSNO
94908KDBQ DBQ20070315210510603/15/07 21:05:31  5-MIN KDBQ 160305Z AUTO 07006KT 10SM CLR M03/M06 A3029 730 78 -1200 070/06 RMK AO2 TSNO
94908KDBQ DBQ20070315211010603/15/07 21:10:31  5-MIN KDBQ 160310Z AUTO 07006KT 10SM CLR M03/M06 A3030 730 78 -1200 070/06 RMK AO2 TSNO
94908KDBQ DBQ20070315211510603/15/07 21:15:31  5-MIN KDBQ 160315Z AUTO 07006KT 10SM CLR M03/M06 A3030 730 78 -1200 070/06 RMK AO2 TSNO
94908KDBQ DBQ20070315212010603/15/07 21:20:31  5-MIN KDBQ 160320Z AUTO 07005KT 10SM CLR M03/M06 A3030 730 78 -1200 070/05 RMK AO2 TSNO
94908KDBQ DBQ20070315212510603/15/07 21:25:31  5-MIN KDBQ 160325Z AUTO 07006KT 10SM CLR M03/M06 A3030 730 78 -1200 070/06 RMK AO2 TSNO
94908KDBQ DBQ20070315213010603/15/07 21:30:31  5-MIN KDBQ 160330Z AUTO 07005KT 10SM CLR M03/M06 A3030 730 78 -1200 070/05 RMK AO2 TSNO
94908KDBQ DBQ20070315213510603/15/07 21:35:31  5-MIN KDBQ 160335Z AUTO 07005KT 10SM CLR M03/M06 A3030 730 78 -1200 070/05 RMK AO2 TSNO
94908KDBQ DBQ20070315214010603/15/07 21:40:31  5-MIN KDBQ 160340Z AUTO 07005KT 10SM CLR M03/M06 A3030 730 78 -1200 070/05 RMK AO2 TSNO
94908KDBQ DBQ20070315214510603/15/07 21:45:31  5-MIN KDBQ 160345Z AUTO 07006KT 10SM CLR M03/M06 A3030 730 78 -1200 070/06 RMK AO2 TSNO
94908KDBQ DBQ20070315215012303/15/07 21:50:31  5-MIN KDBQ 160350Z AUTO 07006KT 10SM CLR M03/M06 A3030 730 81 -1300 070/06 RMK AO2 SLP272 T10331061 TSNO
94908KDBQ DBQ20070315215512303/15/07 21:55:31  5-MIN KDBQ 160355Z AUTO 07006KT 10SM CLR M03/M06 A3030 730 81 -1300 070/06 RMK AO2 SLP272 T10331061 TSNO
94908KDBQ DBQ20070315220010603/15/07 22:00:31  5-MIN KDBQ 160400Z AUTO 08005KT 10SM CLR M03/M06 A3029 730 81 -1300 070/05 RMK AO2 TSNO
94908KDBQ DBQ20070315220510603/15/07 22:05:31  5-MIN KDBQ 160405Z AUTO 07005KT 10SM CLR M03/M06 A3029 730 81 -1300 070/05 RMK AO2 TSNO
94908KDBQ DBQ20070315221010603/15/07 22:10:31  5-MIN KDBQ 160410Z AUTO 07005KT 10SM CLR M03/M07 A3029 740 78 -1200 060/05 RMK AO2 TSNO
94908KDBQ DBQ20070315221510603/15/07 22:15:31  5-MIN KDBQ 160415Z AUTO 07005KT 10SM CLR M03/M07 A3029 740 78 -1200 060/05 RMK AO2 TSNO
94908KDBQ DBQ20070315222010603/15/07 22:20:31  5-MIN KDBQ 160420Z AUTO 06005KT 10SM CLR M03/M07 A3029 740 78 -1200 060/05 RMK AO2 TSNO
94908KDBQ DBQ20070315222510603/15/07 22:25:31  5-MIN KDBQ 160425Z AUTO 07004KT 10SM CLR M03/M06 A3029 740 78 -1200 070/04 RMK AO2 TSNO
94908KDBQ DBQ20070315223010603/15/07 22:30:31  5-MIN KDBQ 160430Z AUTO 07005KT 10SM CLR M03/M06 A3029 740 78 -1200 070/05 RMK AO2 TSNO
94908KDBQ DBQ20070315223510603/15/07 22:35:31  5-MIN KDBQ 160435Z AUTO 07005KT 10SM CLR M03/M07 A3029 740 75 -1200 070/05 RMK AO2 TSNO
94908KDBQ DBQ20070315224010603/15/07 22:40:31  5-MIN KDBQ 160440Z AUTO 08005KT 10SM CLR M03/M07 A3029 740 75 -1200 080/05 RMK AO2 TSNO
94908KDBQ DBQ20070315224510603/15/07 22:45:31  5-MIN KDBQ 160445Z AUTO 08004KT 10SM CLR M03/M07 A3029 740 78 -1200 070/04 RMK AO2 TSNO
94908KDBQ DBQ20070315225012303/15/07 22:50:31  5-MIN KDBQ 160450Z AUTO 08004KT 10SM CLR M03/M06 A3028 740 78 -1200 080/04 RMK AO2 SLP268 T10281061 TSNO
94908KDBQ DBQ20070315225512303/15/07 22:55:31  5-MIN KDBQ 160455Z AUTO 09004KT 10SM CLR M03/M06 A3028 740 78 -1200 090/04 RMK AO2 SLP268 T10281061 TSNO
94908KDBQ DBQ20070315230010603/15/07 23:00:31  5-MIN KDBQ 160500Z AUTO 09003KT 10SM CLR M03/M07 A3028 740 78 -1200 090/03 RMK AO2 TSNO
94908KDBQ DBQ20070315230510603/15/07 23:05:31  5-MIN KDBQ 160505Z AUTO 09003KT 10SM CLR M03/M07 A3028 740 78 -1200 090/03 RMK AO2 TSNO
94908KDBQ DBQ20070315231010603/15/07 23:10:31  5-MIN KDBQ 160510Z AUTO 09003KT 10SM CLR M03/M07 A3028 740 78 -1200 090/03 RMK AO2 TSNO
94908KDBQ DBQ20070315231510603/15/07 23:15:31  5-MIN KDBQ 160515Z AUTO 00000KT 10SM CLR M03/M07 A3028 750 78 -1200 000/00 RMK AO2 TSNO
94908KDBQ DBQ20070315232010603/15/07 23:20:31  5-MIN KDBQ 160520Z AUTO 00000KT 10SM CLR M03/M07 A3028 740 78 -1200 000/00 RMK AO2 TSNO
94908KDBQ DBQ20070315232510603/15/07 23:25:31  5-MIN KDBQ 160525Z AUTO 00000KT 10SM CLR M03/M06 A3029 740 78 -1200 000/00 RMK AO2 TSNO
94908KDBQ DBQ20070315233010603/15/07 23:30:31  5-MIN KDBQ 160530Z AUTO 00000KT 10SM CLR M03/M06 A3028 740 78 -1200 000/00 RMK AO2 TSNO
94908KDBQ DBQ20070315233510603/15/07 23:35:31  5-MIN KDBQ 160535Z AUTO 00000KT 10SM CLR M04/M07 A3028 750 81 -1300 000/00 RMK AO2 TSNO
94908KDBQ DBQ20070315234010603/15/07 23:40:31  5-MIN KDBQ 160540Z AUTO 00000KT 10SM CLR M04/M07 A3028 750 81 -1300 000/00 RMK AO2 TSNO
94908KDBQ DBQ20070315234510603/15/07 23:45:31  5-MIN KDBQ 160545Z AUTO 00000KT 10SM CLR M04/M07 A3028 750 81 -1300 000/00 RMK AO2 TSNO
94908KDBQ DBQ20070315235015103/15/07 23:50:31  5-MIN KDBQ 160550Z AUTO 00000KT 10SM CLR M03/M07 A3027 750 78 -1200 000/00 RMK AO2 SLP264 T10331067 10011 21039 400441039 51003 TSNO
94908KDBQ DBQ20070315235515103/15/07 23:55:31  5-MIN KDBQ 160555Z AUTO 00000KT 10SM CLR M03/M07 A3027 760 75 -1200 000/00 RMK AO2 SLP263 T10281067 10011 21039 400441039 58009 TSNO
94908KDBQ DBQ20070316000010603/16/07 00:00:38  5-MIN KDBQ 160600Z AUTO 12003KT 10SM CLR M03/M07 A3027 760 78 -1200 120/03 RMK AO2 TSNO
94908KDBQ DBQ20070316000510603/16/07 00:05:31  5-MIN KDBQ 160605Z AUTO 00000KT 10SM CLR M03/M06 A3027 760 78 -1100 000/00 RMK AO2 TSNO
94908KDBQ DBQ20070316001010603/16/07 00:10:31  5-MIN KDBQ 160610Z AUTO 15004KT 10SM CLR M02/M06 A3027 760 75 -1100 150/04 RMK AO2 TSNO
94908KDBQ DBQ20070316001510603/16/07 00:15:32  5-MIN KDBQ 160615Z AUTO 00000KT 10SM CLR M02/M06 A3027 760 75 -1100 000/00 RMK AO2 TSNO
94908KDBQ DBQ20070316002010603/16/07 00:20:31  5-MIN KDBQ 160620Z AUTO 00000KT 10SM CLR M03/M06 A3026 760 78 -1100 000/00 RMK AO2 TSNO
94908KDBQ DBQ20070316002510603/16/07 00:25:31  5-MIN KDBQ 160625Z AUTO 12004KT 10SM CLR M02/M06 A3026 770 75 -1100 120/04 RMK AO2 TSNO
94908KDBQ DBQ20070316003010603/16/07 00:30:31  5-MIN KDBQ 160630Z AUTO 11003KT 10SM CLR M03/M06 A3026 760 78 -1100 110/03 RMK AO2 TSNO
94908KDBQ DBQ20070316003510603/16/07 00:35:31  5-MIN KDBQ 160635Z AUTO 00000KT 10SM CLR M03/M06 A3027 760 78 -1100 000/00 RMK AO2 TSNO
94908KDBQ DBQ20070316004010903/16/07 00:40:31  5-MIN KDBQ 160640Z AUTO 00000KT 10SM FEW055 M03/M06 A3027 760 78 -1100 000/00 RMK AO2 TSNO
94908KDBQ DBQ20070316004510903/16/07 00:45:31  5-MIN KDBQ 160645Z AUTO 00000KT 10SM SCT055 M04/M07 A3026 760 81 -1300 000/00 RMK AO2 TSNO
94908KDBQ DBQ20070316005012603/16/07 00:50:31  5-MIN KDBQ 160650Z AUTO 00000KT 10SM BKN060 M03/M07 A3026 760 78 -1200 000/00 RMK AO2 SLP260 T10331067 TSNO
94908KDBQ DBQ20070316005512603/16/07 00:55:31  5-MIN KDBQ 160655Z AUTO 00000KT 10SM BKN065 M03/M06 A3026 760 78 -1100 000/00 RMK AO2 SLP260 T10281061 TSNO
94908KDBQ DBQ20070316010010903/16/07 01:00:31  5-MIN KDBQ 160700Z AUTO 00000KT 10SM BKN065 M03/M06 A3026 770 78 -1100 000/00 RMK AO2 TSNO
94908KDBQ DBQ20070316010510903/16/07 01:05:31  5-MIN KDBQ 160705Z AUTO 00000KT 10SM OVC065 M03/M06 A3026 770 78 -1100 000/00 RMK AO2 TSNO
94908KDBQ DBQ20070316011010903/16/07 01:10:31  5-MIN KDBQ 160710Z AUTO 00000KT 10SM BKN070 M03/M06 A3026 770 78 -1100 000/00 RMK AO2 TSNO
94908KDBQ DBQ20070316011510903/16/07 01:15:31  5-MIN KDBQ 160715Z AUTO 00000KT 10SM BKN070 M03/M06 A3026 770 78 -1100 000/00 RMK AO2 TSNO
94908KDBQ DBQ20070316012010903/16/07 01:20:31  5-MIN KDBQ 160720Z AUTO 00000KT 10SM SCT070 M03/M06 A3026 770 78 -1100 000/00 RMK AO2 TSNO
94908KDBQ DBQ20070316012510903/16/07 01:25:31  5-MIN KDBQ 160725Z AUTO 00000KT 10SM SCT070 M03/M06 A3026 770 81 -1200 000/00 RMK AO2 TSNO
94908KDBQ DBQ20070316013010903/16/07 01:30:31  5-MIN KDBQ 160730Z AUTO 00000KT 10SM FEW070 M03/M06 A3026 770 81 -1200 000/00 RMK AO2 TSNO
94908KDBQ DBQ20070316013510903/16/07 01:35:31  5-MIN KDBQ 160735Z AUTO 00000KT 10SM FEW041 M03/M06 A3026 770 78 -1100 000/00 RMK AO2 TSNO
94908KDBQ DBQ20070316014010903/16/07 01:40:31  5-MIN KDBQ 160740Z AUTO 00000KT 10SM SCT041 M03/M06 A3026 770 81 -1200 000/00 RMK AO2 TSNO
94908KDBQ DBQ20070316014510903/16/07 01:45:31  5-MIN KDBQ 160745Z AUTO 00000KT 10SM BKN041 M03/M06 A3026 770 81 -1200 000/00 RMK AO2 TSNO
94908KDBQ DBQ20070316015012603/16/07 01:50:31  5-MIN KDBQ 160750Z AUTO 00000KT 10SM BKN041 M03/M06 A3026 770 85 -1200 000/00 RMK AO2 SLP260 T10331056 TSNO
94908KDBQ DBQ20070316015512603/16/07 01:55:31  5-MIN KDBQ 160755Z AUTO 00000KT 10SM BKN041 M03/M06 A3026 760 78 -1100 000/00 RMK AO2 SLP260 T10281061 TSNO
94908KDBQ DBQ20070316020010903/16/07 02:00:31  5-MIN KDBQ 160800Z AUTO 00000KT 10SM BKN041 M03/M06 A3026 760 81 -1200 000/00 RMK AO2 TSNO
94908KDBQ DBQ20070316020510903/16/07 02:05:31  5-MIN KDBQ 160805Z AUTO 00000KT 10SM BKN041 M04/M06 A3026 760 85 -1300 000/00 RMK AO2 TSNO
94908KDBQ DBQ20070316021011603/16/07 02:10:31  5-MIN KDBQ 160810Z AUTO 00000KT 10SM BKN039 BKN047 M04/M06 A3026 760 85 -1300 000/00 RMK AO2 TSNO
94908KDBQ DBQ20070316021511603/16/07 02:15:31  5-MIN KDBQ 160815Z AUTO 00000KT 10SM FEW030 BKN039 M03/M06 A3026 760 81 -1200 000/00 RMK AO2 TSNO
94908KDBQ DBQ20070316022011603/16/07 02:20:31  5-MIN KDBQ 160820Z AUTO 30003KT 10SM SCT030 BKN039 M03/M06 A3027 760 85 -1200 300/03 RMK AO2 TSNO
94908KDBQ DBQ20070316022511603/16/07 02:25:31  5-MIN KDBQ 160825Z AUTO 00000KT 10SM BKN030 OVC039 M03/M06 A3026 760 85 -1200 000/00 RMK AO2 TSNO
94908KDBQ DBQ20070316023011603/16/07 02:30:31  5-MIN KDBQ 160830Z AUTO 30004KT 10SM BKN030 OVC039 M03/M06 A3026 760 81 -1100 300/04 RMK AO2 TSNO
94908KDBQ DBQ20070316023511603/16/07 02:35:31  5-MIN KDBQ 160835Z AUTO 30006KT 10SM BKN028 OVC039 M03/M05 A3027 760 85 -1100 300/06 RMK AO2 TSNO
94908KDBQ DBQ20070316024010903/16/07 02:40:31  5-MIN KDBQ 160840Z AUTO 30007KT 10SM OVC028 M03/M05 A3027 760 85 -1200 300/07 RMK AO2 TSNO
94908KDBQ DBQ20070316024510903/16/07 02:45:31  5-MIN KDBQ 160845Z AUTO 29007KT 10SM OVC028 M02/M05 A3027 760 81 -1100 290/07 RMK AO2 TSNO
94908KDBQ DBQ20070316025013203/16/07 02:50:31  5-MIN KDBQ 160850Z AUTO 30006KT 10SM OVC026 M02/M05 A3027 760 81 -1100 300/06 RMK AO2 SLP261 T10221050 58009 TSNO
94908KDBQ DBQ20070316025513203/16/07 02:55:31  5-MIN KDBQ 160855Z AUTO 30006KT 10SM OVC026 M02/M05 A3027 760 81 -1100 300/06 RMK AO2 SLP262 T10221050 55000 TSNO
94908KDBQ DBQ20070316030010903/16/07 03:00:31  5-MIN KDBQ 160900Z AUTO 31006KT 10SM OVC026 M02/M05 A3027 760 81 -1100 310/06 RMK AO2 TSNO
94908KDBQ DBQ20070316030510903/16/07 03:05:31  5-MIN KDBQ 160905Z AUTO 31006KT 10SM OVC026 M02/M05 A3027 760 81 -1100 310/06 RMK AO2 TSNO
94908KDBQ DBQ20070316031010903/16/07 03:10:31  5-MIN KDBQ 160910Z AUTO 31005KT 10SM OVC024 M02/M05 A3027 760 81 -1100 310/05 RMK AO2 TSNO
94908KDBQ DBQ20070316031510903/16/07 03:15:31  5-MIN KDBQ 160915Z AUTO 31005KT 10SM OVC024 M02/M05 A3027 760 81 -1100 310/05 RMK AO2 TSNO
94908KDBQ DBQ20070316032010903/16/07 03:20:31  5-MIN KDBQ 160920Z AUTO 31007KT 10SM OVC024 M02/M05 A3027 760 81 -1100 310/07 RMK AO2 TSNO
94908KDBQ DBQ20070316032510903/16/07 03:25:31  5-MIN KDBQ 160925Z AUTO 31006KT 10SM OVC024 M02/M05 A3027 760 81 -1100 310/06 RMK AO2 TSNO
94908KDBQ DBQ20070316033010903/16/07 03:30:31  5-MIN KDBQ 160930Z AUTO 30003KT 10SM OVC024 M02/M05 A3027 760 81 -1100 300/03 RMK AO2 TSNO
94908KDBQ DBQ20070316033510903/16/07 03:35:31  5-MIN KDBQ 160935Z AUTO 31004KT 10SM OVC024 M02/M04 A3027 760 85 -1100 310/04 RMK AO2 TSNO
94908KDBQ DBQ20070316034010903/16/07 03:40:31  5-MIN KDBQ 160940Z AUTO 30004KT 10SM OVC022 M02/M04 A3027 760 85 -1100 300/04 RMK AO2 TSNO
94908KDBQ DBQ20070316034510903/16/07 03:45:31  5-MIN KDBQ 160945Z AUTO 29004KT 10SM OVC022 M02/M04 A3027 760 85 -1100 290/04 RMK AO2 TSNO
94908KDBQ DBQ20070316035012603/16/07 03:50:31  5-MIN KDBQ 160950Z AUTO 29003KT 10SM OVC020 M02/M04 A3027 760 85 -1100 290/03 RMK AO2 SLP262 T10221044 TSNO
94908KDBQ DBQ20070316035512603/16/07 03:55:31  5-MIN KDBQ 160955Z AUTO 30003KT 10SM OVC020 M02/M04 A3027 760 85 -1100 290/03 RMK AO2 SLP262 T10221044 TSNO
94908KDBQ DBQ20070316040010903/16/07 04:00:31  5-MIN KDBQ 161000Z AUTO 30004KT 10SM OVC020 M02/M04 A3027 760 81 -1000 300/04 RMK AO2 TSNO
94908KDBQ DBQ20070316040510903/16/07 04:05:31  5-MIN KDBQ 161005Z AUTO 31005KT 10SM OVC020 M02/M04 A3027 760 81 -1000 310/05 RMK AO2 TSNO
94908KDBQ DBQ20070316041010903/16/07 04:10:31  5-MIN KDBQ 161010Z AUTO 31006KT 10SM OVC020 M02/M04 A3027 750 81 -1000 310/06 RMK AO2 TSNO
94908KDBQ DBQ20070316041510903/16/07 04:15:31  5-MIN KDBQ 161015Z AUTO 31007KT 10SM OVC020 M02/M04 A3027 760 81 -1000 310/07 RMK AO2 TSNO
94908KDBQ DBQ20070316042010903/16/07 04:20:31  5-MIN KDBQ 161020Z AUTO 30007KT 10SM OVC022 M02/M04 A3027 750 81 -1000 300/07 RMK AO2 TSNO
94908KDBQ DBQ20070316042510903/16/07 04:25:31  5-MIN KDBQ 161025Z AUTO 31007KT 10SM OVC022 M02/M04 A3027 750 85 -1000 310/07 RMK AO2 TSNO
94908KDBQ DBQ20070316043010903/16/07 04:30:31  5-MIN KDBQ 161030Z AUTO 31007KT 10SM OVC024 M02/M04 A3027 750 85 -1000 310/07 RMK AO2 TSNO
94908KDBQ DBQ20070316043511503/16/07 04:35:31  5-MIN KDBQ 161035Z AUTO 32008KT 10SM FEW017 OVC024 M01/M04 A3027 750 78 -900 310/08 RMK AO2 TSNO
94908KDBQ DBQ20070316044012203/16/07 04:40:31  5-MIN KDBQ 161040Z AUTO 32008KT 10SM FEW017 BKN024 OVC029 M01/M04 A3027 750 78 -900 320/08 RMK AO2 TSNO
94908KDBQ DBQ20070316044511503/16/07 04:45:31  5-MIN KDBQ 161045Z AUTO 32009KT 10SM SCT017 OVC027 M01/M04 A3028 750 81 -900 320/09 RMK AO2 TSNO
94908KDBQ DBQ20070316045013903/16/07 04:50:31  5-MIN KDBQ 161050Z AUTO 32008KT 10SM SCT017 BKN025 OVC030 M01/M04 A3028 750 81 -900 320/08 RMK AO2 SLP264 T10111039 TSNO
94908KDBQ DBQ20070316045513303/16/07 04:55:31  5-MIN KDBQ 161055Z AUTO 32009KT 10SM BKN017 OVC028 M01/M04 A3028 750 81 -1000 320/09 RMK AO2 SLP264 T10111039 TSNO
94908KDBQ DBQ20070316050010603/16/07 05:00:31  5-MIN KDBQ 161100Z 32010KT 10SM BKN017 OVC028 M01/M04 A3028 750 81 -1000 320/10 RMK AO2
94908KDBQ DBQ20070316050510403/16/07 05:05:31  5-MIN KDBQ 161105Z 33013KT 9SM BKN015 OVC028 M01/M04 A3028 750 78 -900 330/13 RMK AO2
94908KDBQ DBQ20070316051009803/16/07 05:10:31  5-MIN KDBQ 161110Z 33011KT 9SM OVC015 M01/M04 A3028 750 78 -1000 330/11 RMK AO2
94908KDBQ DBQ20070316051509703/16/07 05:15:31  5-MIN KDBQ 161115Z 33012KT 8SM OVC015 M01/M04 A3028 750 78 -900 330/12 RMK AO2
94908KDBQ DBQ20070316052009703/16/07 05:20:31  5-MIN KDBQ 161120Z 34012KT 8SM OVC015 M01/M04 A3028 750 78 -900 340/12 RMK AO2
94908KDBQ DBQ20070316052509803/16/07 05:25:31  5-MIN KDBQ 161125Z 34012KT 9SM OVC017 M01/M04 A3028 750 78 -1000 340/12 RMK AO2
94908KDBQ DBQ20070316053009703/16/07 05:30:31  5-MIN KDBQ 161130Z 34011KT 9SM OVC017 M01/M04 A3028 750 78 -900 340/11 RMK AO2
94908KDBQ DBQ20070316053509803/16/07 05:35:31  5-MIN KDBQ 161135Z 34010KT 9SM OVC017 M01/M04 A3028 750 78 -1000 340/10 RMK AO2
94908KDBQ DBQ20070316054009803/16/07 05:40:31  5-MIN KDBQ 161140Z 34009KT 9SM OVC017 M01/M04 A3028 750 78 -1000 340/09 RMK AO2
94908KDBQ DBQ20070316054509803/16/07 05:45:31  5-MIN KDBQ 161145Z 34008KT 9SM OVC017 M01/M04 A3028 750 78 -1000 340/08 RMK AO2
94908KDBQ DBQ20070316055013303/16/07 05:50:31  5-MIN KDBQ 161150Z 35008KT 9SM OVC017 M01/M04 A3028 750 78 -1000 350/08 RMK AO2 SLP267 T10111044 11011 21039 55000
94908KDBQ DBQ20070316055513303/16/07 05:55:31  5-MIN KDBQ 161155Z 35008KT 9SM OVC017 M01/M04 A3028 740 78 -1000 340/08 RMK AO2 SLP267 T10111044 11011 21039 53004
94908KDBQ DBQ20070316060009803/16/07 06:00:31  5-MIN KDBQ 161200Z 34008KT 9SM OVC017 M01/M04 A3028 740 78 -1000 340/08 RMK AO2
94908KDBQ DBQ20070316060510503/16/07 06:05:31  5-MIN KDBQ 161205Z 35008KT 9SM BKN017 OVC024 M01/M04 A3028 740 78 -1000 340/08 RMK AO2
94908KDBQ DBQ20070316061010503/16/07 06:10:31  5-MIN KDBQ 161210Z 34008KT 9SM BKN019 OVC027 M01/M04 A3028 740 78 -1000 340/08 RMK AO2
94908KDBQ DBQ20070316061510503/16/07 06:15:31  5-MIN KDBQ 161215Z 35006KT 9SM BKN017 OVC023 M01/M04 A3028 740 81 -1000 350/06 RMK AO2
94908KDBQ DBQ20070316062009803/16/07 06:20:31  5-MIN KDBQ 161220Z 35007KT 9SM OVC019 M01/M04 A3029 740 78 -1000 350/07 RMK AO2
94908KDBQ DBQ20070316062509803/16/07 06:25:31  5-MIN KDBQ 161225Z 34007KT 8SM OVC019 M01/M04 A3029 740 81 -1000 340/07 RMK AO2
94908KDBQ DBQ20070316063009803/16/07 06:30:31  5-MIN KDBQ 161230Z 34008KT 7SM OVC019 M01/M04 A3029 740 81 -1000 340/08 RMK AO2
94908KDBQ DBQ20070316063509803/16/07 06:35:31  5-MIN KDBQ 161235Z 34007KT 7SM OVC021 M01/M04 A3029 740 81 -1000 340/07 RMK AO2
94908KDBQ DBQ20070316064009803/16/07 06:40:31  5-MIN KDBQ 161240Z 34008KT 7SM OVC021 M01/M04 A3029 740 81 -1000 340/08 RMK AO2
94908KDBQ DBQ20070316064509803/16/07 06:45:31  5-MIN KDBQ 161245Z 34006KT 7SM OVC021 M01/M04 A3029 730 81 -1000 340/06 RMK AO2
94908KDBQ DBQ20070316065011503/16/07 06:50:31  5-MIN KDBQ 161250Z 34008KT 7SM OVC021 M01/M04 A3029 730 81 -1000 340/08 RMK AO2 SLP272 T10111039
94908KDBQ DBQ20070316065511503/16/07 06:55:31  5-MIN KDBQ 161255Z 34007KT 7SM OVC021 M01/M04 A3030 730 81 -1000 340/07 RMK AO2 SLP273 T10111039
94908KDBQ DBQ20070316070009803/16/07 07:00:31  5-MIN KDBQ 161300Z 34007KT 7SM OVC021 M01/M04 A3030 730 81 -1000 340/07 RMK AO2
94908KDBQ DBQ20070316070509803/16/07 07:05:31  5-MIN KDBQ 161305Z 34007KT 7SM OVC021 M01/M04 A3030 730 81 -1000 340/07 RMK AO2
94908KDBQ DBQ20070316071010503/16/07 07:10:31  5-MIN KDBQ 161310Z 34008KT 7SM BKN021 OVC031 M01/M04 A3030 730 81 -1000 340/08 RMK AO2
94908KDBQ DBQ20070316071510503/16/07 07:15:31  5-MIN KDBQ 161315Z 34008KT 7SM BKN021 OVC031 M01/M04 A3030 730 81 -1000 330/08 RMK AO2
94908KDBQ DBQ20070316072010503/16/07 07:20:31  5-MIN KDBQ 161320Z 34007KT 7SM BKN019 OVC031 M01/M04 A3030 730 81 -1000 340/07 RMK AO2
94908KDBQ DBQ20070316072510503/16/07 07:25:31  5-MIN KDBQ 161325Z 34008KT 7SM BKN019 OVC031 M01/M04 A3030 730 81 -1000 340/08 RMK AO2
94908KDBQ DBQ20070316073011503/16/07 07:30:31  5-MIN KDBQ 161330Z 33007KT 6SM HZ SCT019 BKN031 OVC041 M01/M04 A3030 730 81 -1000 330/07 RMK AO2
94908KDBQ DBQ20070316073511403/16/07 07:35:31  5-MIN KDBQ 161335Z 34008KT 6SM HZ FEW019 BKN031 OVC043 M01/M04 A3030 730 78 -900 340/08 RMK AO2
94908KDBQ DBQ20070316074011103/16/07 07:40:31  5-MIN KDBQ 161340Z 34008KT 7SM SCT019 BKN031 OVC043 M01/M04 A3031 720 78 -900 340/08 RMK AO2
94908KDBQ DBQ20070316074511103/16/07 07:45:31  5-MIN KDBQ 161345Z 34009KT 7SM SCT019 BKN033 OVC043 M01/M04 A3031 720 78 -900 340/09 RMK AO2
94908KDBQ DBQ20070316075013103/16/07 07:50:31  5-MIN KDBQ 161350Z 34009KT 6SM HZ FEW021 SCT033 OVC043 M01/M04 A3031 720 78 -900 340/09 RMK AO2 SLP277 T10061039
94908KDBQ DBQ20070316075513103/16/07 07:55:31  5-MIN KDBQ 161355Z 33009KT 6SM HZ SCT021 SCT033 OVC043 M01/M03 A3031 720 81 -900 330/09 RMK AO2 SLP277 T10061033
94908KDBQ DBQ20070316080010703/16/07 08:00:31  5-MIN KDBQ 161400Z 33009KT 6SM HZ SCT021 OVC043 M01/M04 A3031 720 78 -900 330/09 RMK AO2
94908KDBQ DBQ20070316080510703/16/07 08:05:31  5-MIN KDBQ 161405Z 32009KT 6SM HZ SCT021 OVC043 M01/M04 A3031 720 78 -900 320/09 RMK AO2
94908KDBQ DBQ20070316081011403/16/07 08:10:31  5-MIN KDBQ 161410Z 33009KT 6SM HZ SCT017 BKN035 OVC043 M01/M03 A3031 720 81 -900 330/09 RMK AO2
94908KDBQ DBQ20070316081511403/16/07 08:15:31  5-MIN KDBQ 161415Z 33012KT 5SM HZ SCT017 BKN022 OVC043 M01/M03 A3031 720 81 -900 330/12 RMK AO2
94908KDBQ DBQ20070316082011403/16/07 08:20:31  5-MIN KDBQ 161420Z 34013KT 4SM HZ BKN017 BKN022 OVC041 M01/M03 A3032 710 81 -900 340/13 RMK AO2
94908KDBQ DBQ20070316082510603/16/07 08:25:31  5-MIN KDBQ 161425Z 33012KT 5SM HZ BKN017 OVC041 00/M03 A3032 710 78 -900 330/12 RMK AO2
94908KDBQ DBQ20070316083010703/16/07 08:30:31  5-MIN KDBQ 161430Z 34014KT 5SM HZ BKN017 OVC039 M01/M03 A3032 710 81 -900 340/14 RMK AO2
94908KDBQ DBQ20070316083510703/16/07 08:35:31  5-MIN KDBQ 161435Z 33012KT 5SM HZ BKN015 OVC039 M01/M03 A3032 710 81 -900 330/12 RMK AO2
94908KDBQ DBQ20070316084010703/16/07 08:40:31  5-MIN KDBQ 161440Z 34015KT 6SM HZ BKN015 OVC039 M01/M03 A3032 710 81 -900 340/15 RMK AO2
94908KDBQ DBQ20070316084510703/16/07 08:45:31  5-MIN KDBQ 161445Z 34013KT 5SM HZ BKN015 OVC039 M01/M03 A3032 710 81 -900 330/13 RMK AO2
94908KDBQ DBQ20070316085010703/16/07 08:50:31  5-MIN KDBQ 161450Z 33013KT 4SM HZ BKN013 OVC039 M01/M03 A3032 710 81 -900 330/13 RMK AO2
94908KDBQ DBQ20070316085513003/16/07 08:55:31  5-MIN KDBQ 161455Z 33011KT 5SM HZ BKN013 OVC039 M01/M03 A3032 710 81 -900 330/11 RMK AO2 SLP282 T10061033 51008
94908KDBQ DBQ20070316090010703/16/07 09:00:31  5-MIN KDBQ 161500Z 33015KT 5SM HZ BKN013 OVC039 M01/M03 A3032 710 81 -900 330/15 RMK AO2
94908KDBQ DBQ20070316090510003/16/07 09:05:31  5-MIN KDBQ 161505Z 34014KT 6SM HZ OVC013 M01/M03 A3033 710 81 -900 340/14 RMK AO2
94908KDBQ DBQ20070316091009903/16/07 09:10:31  5-MIN KDBQ 161510Z 34016KT 6SM HZ OVC013 00/M03 A3033 700 78 -900 340/16 RMK AO2
94908KDBQ DBQ20070316091509903/16/07 09:15:31  5-MIN KDBQ 161515Z 35014KT 6SM HZ OVC013 00/M03 A3033 710 78 -900 350/14 RMK AO2
94908KDBQ DBQ20070316092010703/16/07 09:20:31  5-MIN KDBQ 161520Z 34015KT 6SM HZ BKN013 OVC037 M01/M03 A3032 710 81 -900 340/15 RMK AO2
94908KDBQ DBQ20070316092511303/16/07 09:25:31  5-MIN KDBQ 161525Z 35013KT 6SM HZ BKN013 BKN018 OVC037 00/M03 A3032 710 78 -900 350/13 RMK AO2
94908KDBQ DBQ20070316093011303/16/07 09:30:31  5-MIN KDBQ 161530Z 36012KT 6SM HZ BKN013 BKN018 OVC037 00/M03 A3032 710 78 -900 360/12 RMK AO2
94908KDBQ DBQ20070316093510603/16/07 09:35:31  5-MIN KDBQ 161535Z 35013KT 6SM HZ BKN015 OVC037 00/M03 A3032 710 78 -900 350/13 RMK AO2
94908KDBQ DBQ20070316094010603/16/07 09:40:31  5-MIN KDBQ 161540Z 35014KT 6SM HZ BKN015 OVC037 01/M03 A3032 710 75 -800 340/14 RMK AO2
94908KDBQ DBQ20070316094510303/16/07 09:45:31  5-MIN KDBQ 161545Z 35013KT 7SM SCT015 OVC037 01/M04 A3032 710 72 -800 350/13 RMK AO2
94908KDBQ DBQ20070316095012003/16/07 09:50:31  5-MIN KDBQ 161550Z 35011KT 7SM SCT015 OVC037 01/M03 A3032 710 75 -800 350/11 RMK AO2 SLP281 T00061033
94908KDBQ DBQ20070316095512603/16/07 09:55:31  5-MIN KDBQ 161555Z 35014G18KT 7SM SCT017 OVC037 01/M03 A3032 710 75 -800 350/14G18 RMK AO2 SLP282 T00061033
94908KDBQ DBQ20070316100010303/16/07 10:00:31  5-MIN KDBQ 161600Z 01013KT 7SM SCT017 OVC037 01/M04 A3033 710 72 -800 010/13 RMK AO2
94908KDBQ DBQ20070316100511003/16/07 10:05:31  5-MIN KDBQ 161605Z 36013KT 7SM BKN017 BKN023 OVC037 00/M04 A3033 700 75 -900 360/13 RMK AO2
94908KDBQ DBQ20070316101011003/16/07 10:10:31  5-MIN KDBQ 161610Z 36012KT 7SM BKN017 BKN023 OVC037 01/M04 A3033 700 72 -800 360/12 RMK AO2
94908KDBQ DBQ20070316101511003/16/07 10:15:31  5-MIN KDBQ 161615Z 35013KT 7SM BKN017 BKN023 OVC037 00/M04 A3033 700 75 -900 350/13 RMK AO2
94908KDBQ DBQ20070316102011303/16/07 10:20:31  5-MIN KDBQ 161620Z 34011KT 6SM HZ BKN017 BKN023 OVC035 00/M04 A3033 700 75 -900 340/11 RMK AO2
94908KDBQ DBQ20070316102510303/16/07 10:25:31  5-MIN KDBQ 161625Z 35010KT 7SM SCT017 OVC026 00/M04 A3034 700 75 -900 350/10 RMK AO2
94908KDBQ DBQ20070316103011603/16/07 10:30:31  5-MIN KDBQ 161630Z 34013G17KT 7SM SCT017 BKN026 OVC031 00/M04 A3034 700 75 -900 330/13G17 RMK AO2
94908KDBQ DBQ20070316103511603/16/07 10:35:31  5-MIN KDBQ 161635Z 34014G17KT 8SM SCT017 BKN026 OVC031 00/M04 A3034 700 75 -900 340/14G17 RMK AO2
94908KDBQ DBQ20070316104011003/16/07 10:40:31  5-MIN KDBQ 161640Z 35011KT 8SM BKN017 BKN026 OVC031 00/M04 A3034 690 75 -900 350/11 RMK AO2
94908KDBQ DBQ20070316104510503/16/07 10:45:31  5-MIN KDBQ 161645Z 34011KT 8SM BKN017 OVC026 M01/M04 A3034 690 78 -1000 340/11 RMK AO2
94908KDBQ DBQ20070316105012203/16/07 10:50:31  5-MIN KDBQ 161650Z 36013KT 7SM BKN015 OVC026 M01/M04 A3034 690 78 -1000 360/13 RMK AO2 SLP288 T10061039
94908KDBQ DBQ20070316105512203/16/07 10:55:31  5-MIN KDBQ 161655Z 36014KT 8SM BKN015 OVC027 M01/M04 A3034 690 78 -1000 360/14 RMK AO2 SLP289 T10111044
94908KDBQ DBQ20070316110009803/16/07 11:00:31  5-MIN KDBQ 161700Z 01013KT 8SM OVC015 M01/M04 A3034 690 78 -1000 010/13 RMK AO2
94908KDBQ DBQ20070316110509803/16/07 11:05:31  5-MIN KDBQ 161705Z 36010KT 9SM OVC015 M01/M04 A3034 690 78 -1000 360/10 RMK AO2
94908KDBQ DBQ20070316111009803/16/07 11:10:31  5-MIN KDBQ 161710Z 35012KT 9SM OVC015 M01/M04 A3034 690 78 -1000 350/12 RMK AO2
94908KDBQ DBQ20070316111509803/16/07 11:15:31  5-MIN KDBQ 161715Z 01011KT 9SM OVC015 M01/M04 A3034 690 81 -1000 010/11 RMK AO2
94908KDBQ DBQ20070316112009803/16/07 11:20:31  5-MIN KDBQ 161720Z 35011KT 9SM OVC013 M01/M04 A3034 690 75 -1000 350/11 RMK AO2
94908KDBQ DBQ20070316112509803/16/07 11:25:31  5-MIN KDBQ 161725Z 36011KT 9SM OVC013 M01/M04 A3034 690 78 -1000 360/11 RMK AO2
94908KDBQ DBQ20070316113009803/16/07 11:30:31  5-MIN KDBQ 161730Z 35012KT 9SM OVC013 M01/M04 A3034 690 78 -1000 350/12 RMK AO2
94908KDBQ DBQ20070316113509803/16/07 11:35:31  5-MIN KDBQ 161735Z 36011KT 9SM OVC013 M01/M04 A3034 690 78 -1000 360/11 RMK AO2
94908KDBQ DBQ20070316114009803/16/07 11:40:31  5-MIN KDBQ 161740Z 36011KT 9SM OVC013 M01/M04 A3034 690 78 -1000 360/11 RMK AO2
94908KDBQ DBQ20070316114509803/16/07 11:45:31  5-MIN KDBQ 161745Z 35012KT 9SM OVC013 M01/M04 A3034 690 78 -1000 350/12 RMK AO2
94908KDBQ DBQ20070316115013203/16/07 11:50:31  5-MIN KDBQ 161750Z 35011KT 9SM OVC013 M01/M04 A3034 690 75 -900 350/11 RMK AO2 SLP288 T10061044 10006 21011 51008
94908KDBQ DBQ20070316115513303/16/07 11:55:31  5-MIN KDBQ 161755Z 36009KT 10SM OVC015 M01/M04 A3034 690 75 -900 360/09 RMK AO2 SLP288 T10061044 10006 21011 50005
94908KDBQ DBQ20070316120009803/16/07 12:00:31  5-MIN KDBQ 161800Z 34012KT 10SM OVC015 M01/M04 A3034 700 75 -900 340/12 RMK AO2
94908KDBQ DBQ20070316120509803/16/07 12:05:31  5-MIN KDBQ 161805Z 35011KT 10SM OVC017 M01/M04 A3034 700 75 -900 350/11 RMK AO2
94908KDBQ DBQ20070316121010503/16/07 12:10:31  5-MIN KDBQ 161810Z 35012KT 10SM BKN017 OVC024 M01/M05 A3034 700 72 -900 350/12 RMK AO2
94908KDBQ DBQ20070316121510503/16/07 12:15:31  5-MIN KDBQ 161815Z 34013KT 10SM BKN019 OVC023 M01/M05 A3033 700 72 -900 340/13 RMK AO2
94908KDBQ DBQ20070316122009703/16/07 12:20:31  5-MIN KDBQ 161820Z 35013KT 9SM OVC019 M01/M05 A3033 700 72 -900 350/13 RMK AO2
94908KDBQ DBQ20070316122509703/16/07 12:25:31  5-MIN KDBQ 161825Z 01011KT 9SM OVC019 M01/M05 A3033 700 72 -900 360/11 RMK AO2
94908KDBQ DBQ20070316123009803/16/07 12:30:31  5-MIN KDBQ 161830Z 35009KT 10SM OVC019 M01/M05 A3033 700 72 -900 350/09 RMK AO2
94908KDBQ DBQ20070316123509803/16/07 12:35:31  5-MIN KDBQ 161835Z 01008KT 10SM OVC019 M01/M05 A3033 700 72 -900 360/08 RMK AO2
94908KDBQ DBQ20070316124009803/16/07 12:40:31  5-MIN KDBQ 161840Z 01010KT 10SM OVC019 M01/M05 A3033 700 72 -900 010/10 RMK AO2
94908KDBQ DBQ20070316124509803/16/07 12:45:31  5-MIN KDBQ 161845Z 35011KT 10SM OVC019 M01/M06 A3033 700 69 -900 350/11 RMK AO2
94908KDBQ DBQ20070316125011503/16/07 12:50:31  5-MIN KDBQ 161850Z 36010KT 10SM OVC019 M01/M06 A3033 700 69 -900 360/10 RMK AO2 SLP284 T10061056
94908KDBQ DBQ20070316125511403/16/07 12:55:31  5-MIN KDBQ 161855Z 34012KT 9SM OVC019 M01/M05 A3033 710 72 -900 340/12 RMK AO2 SLP284 T10061050
94908KDBQ DBQ20070316130009703/16/07 13:00:31  5-MIN KDBQ 161900Z 35011KT 9SM OVC019 M01/M06 A3033 710 69 -900 350/11 RMK AO2
94908KDBQ DBQ20070316130509703/16/07 13:05:31  5-MIN KDBQ 161905Z 35010KT 9SM OVC019 M01/M06 A3033 710 69 -900 350/10 RMK AO2
94908KDBQ DBQ20070316131009703/16/07 13:10:31  5-MIN KDBQ 161910Z 35010KT 9SM OVC021 M01/M06 A3032 710 69 -900 350/10 RMK AO2
94908KDBQ DBQ20070316131509703/16/07 13:15:31  5-MIN KDBQ 161915Z 35011KT 9SM OVC021 M01/M06 A3032 710 69 -900 350/11 RMK AO2
94908KDBQ DBQ20070316132009703/16/07 13:20:31  5-MIN KDBQ 161920Z 36010KT 9SM OVC021 M01/M06 A3032 710 69 -900 360/10 RMK AO2
94908KDBQ DBQ20070316132509703/16/07 13:25:31  5-MIN KDBQ 161925Z 36008KT 9SM OVC021 M01/M06 A3032 710 66 -900 360/08 RMK AO2
94908KDBQ DBQ20070316133009703/16/07 13:30:31  5-MIN KDBQ 161930Z 01010KT 9SM OVC021 M01/M06 A3032 710 69 -900 010/10 RMK AO2
94908KDBQ DBQ20070316133509703/16/07 13:35:31  5-MIN KDBQ 161935Z 34011KT 8SM OVC021 M01/M06 A3031 720 69 -900 340/11 RMK AO2
94908KDBQ DBQ20070316134009703/16/07 13:40:31  5-MIN KDBQ 161940Z 01010KT 8SM OVC021 M01/M06 A3031 720 69 -900 010/10 RMK AO2
94908KDBQ DBQ20070316134509703/16/07 13:45:31  5-MIN KDBQ 161945Z 02011KT 8SM OVC021 M01/M06 A3031 720 69 -900 020/11 RMK AO2
94908KDBQ DBQ20070316135011403/16/07 13:50:31  5-MIN KDBQ 161950Z 01009KT 8SM OVC021 M01/M06 A3031 720 66 -900 010/09 RMK AO2 SLP278 T10061061
94908KDBQ DBQ20070316135511403/16/07 13:55:31  5-MIN KDBQ 161955Z 36008KT 8SM OVC021 M01/M06 A3031 720 69 -900 360/08 RMK AO2 SLP278 T10061056
94908KDBQ DBQ20070316140009703/16/07 14:00:31  5-MIN KDBQ 162000Z 34013KT 8SM OVC021 M01/M06 A3031 720 69 -900 340/13 RMK AO2
94908KDBQ DBQ20070316140509703/16/07 14:05:31  5-MIN KDBQ 162005Z 35010KT 8SM OVC021 M01/M06 A3031 720 69 -900 350/10 RMK AO2
94908KDBQ DBQ20070316141009603/16/07 14:10:31  5-MIN KDBQ 162010Z 34012KT 8SM OVC023 00/M06 A3031 720 63 -800 340/12 RMK AO2
94908KDBQ DBQ20070316141509603/16/07 14:15:31  5-MIN KDBQ 162015Z 34011KT 8SM OVC023 00/M06 A3031 720 63 -800 340/11 RMK AO2
94908KDBQ DBQ20070316142009603/16/07 14:20:31  5-MIN KDBQ 162020Z 36010KT 8SM OVC025 00/M06 A3031 720 63 -800 360/10 RMK AO2
94908KDBQ DBQ20070316142509603/16/07 14:25:31  5-MIN KDBQ 162025Z 33010KT 9SM OVC025 01/M06 A3031 720 63 -800 330/10 RMK AO2
94908KDBQ DBQ20070316143009603/16/07 14:30:31  5-MIN KDBQ 162030Z 36012KT 9SM OVC025 00/M06 A3031 720 63 -900 360/12 RMK AO2
94908KDBQ DBQ20070316143509603/16/07 14:35:31  5-MIN KDBQ 162035Z 36011KT 8SM OVC025 00/M06 A3031 720 63 -800 360/11 RMK AO2
94908KDBQ DBQ20070316144009603/16/07 14:40:31  5-MIN KDBQ 162040Z 36009KT 8SM OVC025 00/M06 A3031 720 63 -900 360/09 RMK AO2
94908KDBQ DBQ20070316144509603/16/07 14:45:31  5-MIN KDBQ 162045Z 33010KT 8SM OVC025 00/M06 A3032 710 66 -900 330/10 RMK AO2
94908KDBQ DBQ20070316145011903/16/07 14:50:31  5-MIN KDBQ 162050Z 33010KT 8SM OVC025 00/M06 A3032 710 66 -900 330/10 RMK AO2 SLP280 T00001056 50005
94908KDBQ DBQ20070316145511903/16/07 14:55:31  5-MIN KDBQ 162055Z 35010KT 8SM OVC025 00/M06 A3032 710 66 -900 350/10 RMK AO2 SLP280 T00001056 55006
94908KDBQ DBQ20070316150009603/16/07 15:00:31  5-MIN KDBQ 162100Z 36009KT 9SM OVC027 00/M06 A3032 710 63 -900 360/09 RMK AO2
94908KDBQ DBQ20070316150509603/16/07 15:05:31  5-MIN KDBQ 162105Z 35009KT 9SM OVC029 00/M06 A3032 710 63 -900 350/09 RMK AO2
94908KDBQ DBQ20070316151009603/16/07 15:10:31  5-MIN KDBQ 162110Z 36007KT 9SM OVC029 00/M06 A3032 710 63 -900 360/07 RMK AO2
94908KDBQ DBQ20070316151509603/16/07 15:15:31  5-MIN KDBQ 162115Z 35008KT 9SM OVC029 01/M06 A3031 720 61 -800 350/08 RMK AO2
94908KDBQ DBQ20070316152009603/16/07 15:20:31  5-MIN KDBQ 162120Z 35007KT 9SM OVC029 01/M06 A3031 720 61 -800 350/07 RMK AO2
94908KDBQ DBQ20070316152509603/16/07 15:25:31  5-MIN KDBQ 162125Z 33010KT 9SM OVC029 01/M06 A3031 720 63 -800 330/10 RMK AO2
94908KDBQ DBQ20070316153009603/16/07 15:30:31  5-MIN KDBQ 162130Z 33011KT 9SM OVC029 00/M06 A3031 720 63 -800 320/11 RMK AO2
94908KDBQ DBQ20070316153509603/16/07 15:35:31  5-MIN KDBQ 162135Z 35011KT 9SM OVC031 01/M06 A3031 720 61 -800 350/11 RMK AO2
94908KDBQ DBQ20070316154009703/16/07 15:40:31  5-MIN KDBQ 162140Z 34011KT 10SM OVC029 00/M06 A3031 720 63 -800 340/11 RMK AO2
94908KDBQ DBQ20070316154509703/16/07 15:45:31  5-MIN KDBQ 162145Z 34011KT 10SM OVC029 00/M07 A3031 720 61 -800 340/11 RMK AO2
94908KDBQ DBQ20070316155009703/16/07 15:50:31  5-MIN KDBQ 162150Z 35010KT 10SM OVC031 01/M06 A3031 720 61 -800 350/10 RMK AO2
94908KDBQ DBQ20070316155511403/16/07 15:55:31  5-MIN KDBQ 162155Z 36009KT 10SM OVC031 01/M06 A3031 720 58 -700 360/09 RMK AO2 SLP277 T00111061
94908KDBQ DBQ20070316160009703/16/07 16:00:31  5-MIN KDBQ 162200Z 36011KT 10SM BKN031 01/M06 A3031 720 61 -800 360/11 RMK AO2
94908KDBQ DBQ20070316160509703/16/07 16:05:31  5-MIN KDBQ 162205Z 35010KT 10SM BKN031 00/M07 A3031 720 61 -800 350/10 RMK AO2
94908KDBQ DBQ20070316161009703/16/07 16:10:31  5-MIN KDBQ 162210Z 36008KT 10SM BKN031 00/M07 A3030 730 61 -800 360/08 RMK AO2
94908KDBQ DBQ20070316161509703/16/07 16:15:31  5-MIN KDBQ 162215Z 35010KT 10SM BKN031 01/M06 A3030 730 58 -700 350/10 RMK AO2
94908KDBQ DBQ20070316162009703/16/07 16:20:31  5-MIN KDBQ 162220Z 35010KT 10SM BKN031 01/M06 A3030 720 61 -800 350/10 RMK AO2
94908KDBQ DBQ20070316162509703/16/07 16:25:31  5-MIN KDBQ 162225Z 34008KT 10SM BKN031 01/M06 A3031 720 58 -700 340/08 RMK AO2
94908KDBQ DBQ20070316163009703/16/07 16:30:31  5-MIN KDBQ 162230Z 34008KT 10SM BKN031 01/M06 A3031 720 58 -700 340/08 RMK AO2
94908KDBQ DBQ20070316163509703/16/07 16:35:31  5-MIN KDBQ 162235Z 33009KT 10SM OVC033 01/M06 A3030 720 58 -700 330/09 RMK AO2
94908KDBQ DBQ20070316164009703/16/07 16:40:31  5-MIN KDBQ 162240Z 36009KT 10SM BKN033 01/M07 A3030 720 58 -800 350/09 RMK AO2
94908KDBQ DBQ20070316164509703/16/07 16:45:31  5-MIN KDBQ 162245Z 02007KT 10SM BKN033 01/M07 A3031 720 58 -800 020/07 RMK AO2
94908KDBQ DBQ20070316165011403/16/07 16:50:31  5-MIN KDBQ 162250Z 01007KT 10SM BKN033 01/M07 A3031 720 58 -800 360/07 RMK AO2 SLP275 T00061067
94908KDBQ DBQ20070316165511403/16/07 16:55:31  5-MIN KDBQ 162255Z 02006KT 10SM BKN033 01/M07 A3030 730 56 -700 020/06 RMK AO2 SLP274 T00111067
94908KDBQ DBQ20070316170009703/16/07 17:00:31  5-MIN KDBQ 162300Z 02007KT 10SM SCT033 01/M07 A3030 730 58 -800 020/07 RMK AO2
94908KDBQ DBQ20070316170509703/16/07 17:05:31  5-MIN KDBQ 162305Z 36006KT 10SM SCT033 01/M07 A3030 730 58 -800 360/06 RMK AO2
94908KDBQ DBQ20070316171009703/16/07 17:10:31  5-MIN KDBQ 162310Z 01006KT 10SM BKN033 01/M07 A3030 730 58 -800 010/06 RMK AO2
94908KDBQ DBQ20070316171509703/16/07 17:15:31  5-MIN KDBQ 162315Z 34010KT 10SM BKN033 01/M07 A3030 730 58 -800 340/10 RMK AO2
94908KDBQ DBQ20070316172009703/16/07 17:20:31  5-MIN KDBQ 162320Z 02007KT 10SM BKN033 01/M07 A3030 730 58 -800 020/07 RMK AO2
94908KDBQ DBQ20070316172509703/16/07 17:25:31  5-MIN KDBQ 162325Z 34006KT 10SM SCT035 01/M07 A3030 730 58 -800 340/06 RMK AO2
94908KDBQ DBQ20070316173009703/16/07 17:30:31  5-MIN KDBQ 162330Z 34009KT 10SM BKN035 01/M07 A3030 730 58 -800 340/09 RMK AO2
94908KDBQ DBQ20070316173509703/16/07 17:35:31  5-MIN KDBQ 162335Z 34010KT 10SM BKN035 01/M07 A3030 730 58 -800 340/10 RMK AO2
94908KDBQ DBQ20070316174009703/16/07 17:40:31  5-MIN KDBQ 162340Z 35009KT 10SM BKN035 00/M07 A3030 730 61 -800 350/09 RMK AO2
94908KDBQ DBQ20070316174509703/16/07 17:45:31  5-MIN KDBQ 162345Z 36007KT 10SM SCT035 00/M07 A3030 730 58 -800 360/07 RMK AO2
94908KDBQ DBQ20070316175013303/16/07 17:50:31  5-MIN KDBQ 162350Z 35007KT 10SM SCT035 M01/M07 A3030 730 61 -900 350/07 RMK AO2 SLP274 T10061072 10011 21006 55006
94908KDBQ DBQ20070316175513303/16/07 17:55:31  5-MIN KDBQ 162355Z 35008KT 10SM SCT035 M01/M07 A3030 730 61 -900 350/08 RMK AO2 SLP275 T10061072 10011 21006 56005
94908KDBQ DBQ20070316180009903/16/07 18:00:31  5-MIN KDBQ 170000Z 35008KT 10SM FEW035 M01/M07 A3030 730 63 -1000 350/08 RMK AO2
94908KDBQ DBQ20070316180509903/16/07 18:05:31  5-MIN KDBQ 170005Z 34007KT 10SM FEW035 M01/M07 A3030 730 63 -1000 340/07 RMK AO2
94908KDBQ DBQ20070316181009603/16/07 18:10:31  5-MIN KDBQ 170010Z 35006KT 10SM CLR M01/M07 A3030 730 63 -1000 350/06 RMK AO2
94908KDBQ DBQ20070316181509903/16/07 18:15:31  5-MIN KDBQ 170015Z 35005KT 10SM FEW037 M02/M07 A3030 730 66 -1000 350/05 RMK AO2
94908KDBQ DBQ20070316182010903/16/07 18:20:31  5-MIN KDBQ 170020Z AUTO 34004KT 10SM SCT037 M02/M08 A3030 730 63 -1000 340/04 RMK AO2 TSNO
94908KDBQ DBQ20070316182510903/16/07 18:25:31  5-MIN KDBQ 170025Z AUTO 36004KT 10SM SCT037 M01/M08 A3030 730 60 -1000 360/04 RMK AO2 TSNO
94908KDBQ DBQ20070316183010903/16/07 18:30:31  5-MIN KDBQ 170030Z AUTO 36004KT 10SM BKN037 M01/M08 A3030 730 60 -1000 360/04 RMK AO2 TSNO
94908KDBQ DBQ20070316183510903/16/07 18:35:31  5-MIN KDBQ 170035Z AUTO 35004KT 10SM BKN037 M01/M08 A3030 730 60 -1000 350/04 RMK AO2 TSNO
94908KDBQ DBQ20070316184010903/16/07 18:40:31  5-MIN KDBQ 170040Z AUTO 35004KT 10SM SCT037 M01/M07 A3030 730 63 -1000 340/04 RMK AO2 TSNO
94908KDBQ DBQ20070316184510903/16/07 18:45:31  5-MIN KDBQ 170045Z AUTO 34005KT 10SM SCT037 M01/M07 A3030 730 66 -1000 340/05 RMK AO2 TSNO
94908KDBQ DBQ20070316185012603/16/07 18:50:31  5-MIN KDBQ 170050Z AUTO 34005KT 10SM SCT037 M02/M07 A3030 730 69 -1100 340/05 RMK AO2 SLP276 T10221072 TSNO
94908KDBQ DBQ20070316185512603/16/07 18:55:31  5-MIN KDBQ 170055Z AUTO 34005KT 10SM FEW037 M02/M07 A3030 730 69 -1100 340/05 RMK AO2 SLP276 T10221072 TSNO
94908KDBQ DBQ20070316190010903/16/07 19:00:31  5-MIN KDBQ 170100Z AUTO 34005KT 10SM FEW037 M02/M07 A3030 730 69 -1000 340/05 RMK AO2 TSNO
94908KDBQ DBQ20070316190510903/16/07 19:05:31  5-MIN KDBQ 170105Z AUTO 34005KT 10SM SCT037 M01/M07 A3030 730 66 -1000 340/05 RMK AO2 TSNO
94908KDBQ DBQ20070316191010903/16/07 19:10:31  5-MIN KDBQ 170110Z AUTO 34005KT 10SM BKN037 M02/M07 A3030 730 69 -1000 340/05 RMK AO2 TSNO
94908KDBQ DBQ20070316191510903/16/07 19:15:31  5-MIN KDBQ 170115Z AUTO 33005KT 10SM BKN037 M02/M06 A3030 730 75 -1100 330/05 RMK AO2 TSNO
94908KDBQ DBQ20070316192010903/16/07 19:20:31  5-MIN KDBQ 170120Z AUTO 33005KT 10SM BKN037 M02/M06 A3030 730 75 -1100 330/05 RMK AO2 TSNO
94908KDBQ DBQ20070316192510903/16/07 19:25:31  5-MIN KDBQ 170125Z AUTO 33005KT 10SM BKN037 M02/M06 A3030 730 75 -1100 330/05 RMK AO2 TSNO
94908KDBQ DBQ20070316193010903/16/07 19:30:31  5-MIN KDBQ 170130Z AUTO 33005KT 10SM BKN037 M03/M07 A3030 730 75 -1200 330/05 RMK AO2 TSNO
94908KDBQ DBQ20070316193510903/16/07 19:35:31  5-MIN KDBQ 170135Z AUTO 33005KT 10SM SCT037 M03/M07 A3030 730 75 -1200 330/05 RMK AO2 TSNO
94908KDBQ DBQ20070316194010903/16/07 19:40:31  5-MIN KDBQ 170140Z AUTO 33006KT 10SM SCT037 M02/M07 A3030 730 72 -1100 330/06 RMK AO2 TSNO
94908KDBQ DBQ20070316194510903/16/07 19:45:31  5-MIN KDBQ 170145Z AUTO 33006KT 10SM FEW037 M03/M07 A3030 720 75 -1200 330/06 RMK AO2 TSNO
94908KDBQ DBQ20070316195012303/16/07 19:50:31  5-MIN KDBQ 170150Z AUTO 33006KT 10SM CLR M03/M07 A3030 730 71 -1200 330/06 RMK AO2 SLP276 T10281072 TSNO
94908KDBQ DBQ20070316195512303/16/07 19:55:31  5-MIN KDBQ 170155Z AUTO 33006KT 10SM CLR M03/M07 A3030 730 74 -1300 330/06 RMK AO2 SLP276 T10331072 TSNO
94908KDBQ DBQ20070316200010603/16/07 20:00:31  5-MIN KDBQ 170200Z AUTO 33005KT 10SM CLR M03/M07 A3030 730 71 -1200 330/05 RMK AO2 TSNO
94908KDBQ DBQ20070316200510603/16/07 20:05:31  5-MIN KDBQ 170205Z AUTO 34005KT 10SM CLR M02/M07 A3030 730 72 -1100 340/05 RMK AO2 TSNO
94908KDBQ DBQ20070316201010603/16/07 20:10:31  5-MIN KDBQ 170210Z AUTO 34006KT 10SM CLR M03/M07 A3030 730 71 -1200 340/06 RMK AO2 TSNO
94908KDBQ DBQ20070316201510603/16/07 20:15:31  5-MIN KDBQ 170215Z AUTO 34006KT 10SM CLR M04/M08 A3030 730 74 -1300 340/06 RMK AO2 TSNO
94908KDBQ DBQ20070316202010603/16/07 20:20:31  5-MIN KDBQ 170220Z AUTO 34006KT 10SM CLR M04/M08 A3030 730 74 -1300 340/06 RMK AO2 TSNO
94908KDBQ DBQ20070316202510603/16/07 20:25:31  5-MIN KDBQ 170225Z AUTO 34006KT 10SM CLR M04/M08 A3030 720 71 -1300 340/06 RMK AO2 TSNO
94908KDBQ DBQ20070316203010603/16/07 20:30:31  5-MIN KDBQ 170230Z AUTO 34006KT 10SM CLR M04/M08 A3031 720 74 -1300 340/06 RMK AO2 TSNO
94908KDBQ DBQ20070316203510603/16/07 20:35:31  5-MIN KDBQ 170235Z AUTO 34006KT 10SM CLR M04/M08 A3031 720 71 -1300 340/06 RMK AO2 TSNO
94908KDBQ DBQ20070316204010603/16/07 20:40:31  5-MIN KDBQ 170240Z AUTO 34005KT 10SM CLR M04/M08 A3031 720 71 -1300 340/05 RMK AO2 TSNO
94908KDBQ DBQ20070316204510603/16/07 20:45:31  5-MIN KDBQ 170245Z AUTO 34005KT 10SM CLR M04/M08 A3031 720 71 -1300 340/05 RMK AO2 TSNO
94908KDBQ DBQ20070316205012903/16/07 20:50:31  5-MIN KDBQ 170250Z AUTO 35004KT 10SM CLR M03/M08 A3031 720 68 -1300 350/04 RMK AO2 SLP277 T10331083 56005 TSNO
94908KDBQ DBQ20070316205512903/16/07 20:55:31  5-MIN KDBQ 170255Z AUTO 35003KT 10SM CLR M02/M08 A3030 720 66 -1100 350/03 RMK AO2 SLP276 T10221078 53001 TSNO
94908KDBQ DBQ20070316210010603/16/07 21:00:31  5-MIN KDBQ 170300Z AUTO 35003KT 10SM CLR M02/M08 A3031 720 63 -1100 350/03 RMK AO2 TSNO
94908KDBQ DBQ20070316210510603/16/07 21:05:31  5-MIN KDBQ 170305Z AUTO 35003KT 10SM CLR M03/M08 A3031 720 66 -1200 350/03 RMK AO2 TSNO
94908KDBQ DBQ20070316211010603/16/07 21:10:31  5-MIN KDBQ 170310Z AUTO 35003KT 10SM CLR M02/M08 A3031 720 66 -1100 350/03 RMK AO2 TSNO
94908KDBQ DBQ20070316211510603/16/07 21:15:31  5-MIN KDBQ 170315Z AUTO 36003KT 10SM CLR M02/M08 A3031 720 66 -1100 350/03 RMK AO2 TSNO
94908KDBQ DBQ20070316212010603/16/07 21:20:31  5-MIN KDBQ 170320Z AUTO 00000KT 10SM CLR M02/M08 A3031 720 66 -1100 000/00 RMK AO2 TSNO
94908KDBQ DBQ20070316212510603/16/07 21:25:31  5-MIN KDBQ 170325Z AUTO 36003KT 10SM CLR M03/M08 A3031 720 66 -1200 360/03 RMK AO2 TSNO
94908KDBQ DBQ20070316213010603/16/07 21:30:31  5-MIN KDBQ 170330Z AUTO 00000KT 10SM CLR M03/M08 A3031 720 66 -1200 000/00 RMK AO2 TSNO
94908KDBQ DBQ20070316213510603/16/07 21:35:31  5-MIN KDBQ 170335Z AUTO 35003KT 10SM CLR M03/M08 A3031 720 68 -1300 350/03 RMK AO2 TSNO
94908KDBQ DBQ20070316214010603/16/07 21:40:31  5-MIN KDBQ 170340Z AUTO 35003KT 10SM CLR M02/M08 A3031 720 63 -1100 350/03 RMK AO2 TSNO
94908KDBQ DBQ20070316214510603/16/07 21:45:31  5-MIN KDBQ 170345Z AUTO 00000KT 10SM CLR M02/M08 A3030 730 63 -1100 000/00 RMK AO2 TSNO
94908KDBQ DBQ20070316215012303/16/07 21:50:31  5-MIN KDBQ 170350Z AUTO 00000KT 10SM CLR M04/M08 A3031 720 71 -1300 000/00 RMK AO2 SLP277 T10391083 TSNO
94908KDBQ DBQ20070316215512303/16/07 21:55:31  5-MIN KDBQ 170355Z AUTO 00000KT 10SM CLR M04/M07 A3030 730 81 -1300 000/00 RMK AO2 SLP276 T10391067 TSNO
94908KDBQ DBQ20070316220010603/16/07 22:00:31  5-MIN KDBQ 170400Z AUTO 00000KT 10SM CLR M04/M07 A3030 730 81 -1300 000/00 RMK AO2 TSNO
94908KDBQ DBQ20070316220510603/16/07 22:05:31  5-MIN KDBQ 170405Z AUTO 00000KT 10SM CLR M04/M07 A3030 730 81 -1300 000/00 RMK AO2 TSNO
94908KDBQ DBQ20070316221010603/16/07 22:10:31  5-MIN KDBQ 170410Z AUTO 00000KT 10SM CLR M04/M07 A3030 730 81 -1300 000/00 RMK AO2 TSNO
94908KDBQ DBQ20070316221510603/16/07 22:15:31  5-MIN KDBQ 170415Z AUTO 00000KT 10SM CLR M04/M07 A3030 730 81 -1300 000/00 RMK AO2 TSNO
94908KDBQ DBQ20070316222010503/16/07 22:20:31  5-MIN KDBQ 170420Z AUTO 00000KT 9SM CLR M04/M07 A3030 730 81 -1300 000/00 RMK AO2 TSNO
94908KDBQ DBQ20070316222510503/16/07 22:25:31  5-MIN KDBQ 170425Z AUTO 00000KT 9SM CLR M05/M07 A3030 730 84 -1500 000/00 RMK AO2 TSNO
94908KDBQ DBQ20070316223010603/16/07 22:30:31  5-MIN KDBQ 170430Z AUTO 00000KT 10SM CLR M05/M08 A3030 730 81 -1500 000/00 RMK AO2 TSNO
94908KDBQ DBQ20070316223510603/16/07 22:35:31  5-MIN KDBQ 170435Z AUTO 00000KT 10SM CLR M04/M07 A3030 730 81 -1400 000/00 RMK AO2 TSNO
94908KDBQ DBQ20070316224010603/16/07 22:40:31  5-MIN KDBQ 170440Z AUTO 00000KT 10SM CLR M04/M07 A3030 730 84 -1400 000/00 RMK AO2 TSNO
94908KDBQ DBQ20070316224510603/16/07 22:45:31  5-MIN KDBQ 170445Z AUTO 00000KT 10SM CLR M04/M07 A3029 730 81 -1300 000/00 RMK AO2 TSNO
94908KDBQ DBQ20070316225012303/16/07 22:50:31  5-MIN KDBQ 170450Z AUTO 00000KT 10SM CLR M04/M07 A3029 740 81 -1300 000/00 RMK AO2 SLP273 T10391067 TSNO
94908KDBQ DBQ20070316225512303/16/07 22:55:31  5-MIN KDBQ 170455Z AUTO 00000KT 10SM CLR M04/M07 A3029 740 81 -1300 000/00 RMK AO2 SLP272 T10391067 TSNO
94908KDBQ DBQ20070316230010603/16/07 23:00:31  5-MIN KDBQ 170500Z AUTO 00000KT 10SM CLR M04/M07 A3029 740 84 -1400 000/00 RMK AO2 TSNO
94908KDBQ DBQ20070316230510603/16/07 23:05:31  5-MIN KDBQ 170505Z AUTO 00000KT 10SM CLR M04/M07 A3029 740 81 -1400 000/00 RMK AO2 TSNO
94908KDBQ DBQ20070316231010603/16/07 23:10:31  5-MIN KDBQ 170510Z AUTO 00000KT 10SM CLR M04/M07 A3029 740 81 -1400 000/00 RMK AO2 TSNO
94908KDBQ DBQ20070316231510603/16/07 23:15:31  5-MIN KDBQ 170515Z AUTO 00000KT 10SM CLR M04/M07 A3029 740 81 -1400 000/00 RMK AO2 TSNO
94908KDBQ DBQ20070316232010603/16/07 23:20:31  5-MIN KDBQ 170520Z AUTO 00000KT 10SM CLR M04/M08 A3029 740 74 -1300 000/00 RMK AO2 TSNO
94908KDBQ DBQ20070316232510603/16/07 23:25:31  5-MIN KDBQ 170525Z AUTO 00000KT 10SM CLR M04/M08 A3028 740 71 -1300 000/00 RMK AO2 TSNO
94908KDBQ DBQ20070316233010603/16/07 23:30:31  5-MIN KDBQ 170530Z AUTO 36003KT 10SM CLR M03/M08 A3028 750 71 -1200 360/03 RMK AO2 TSNO
94908KDBQ DBQ20070316233510603/16/07 23:35:31  5-MIN KDBQ 170535Z AUTO 36003KT 10SM CLR M03/M08 A3028 750 71 -1200 360/03 RMK AO2 TSNO
94908KDBQ DBQ20070316234010603/16/07 23:40:31  5-MIN KDBQ 170540Z AUTO 36003KT 10SM CLR M03/M08 A3028 750 71 -1200 360/03 RMK AO2 TSNO
94908KDBQ DBQ20070316234510603/16/07 23:45:31  5-MIN KDBQ 170545Z AUTO 36003KT 10SM CLR M03/M08 A3028 750 71 -1200 360/03 RMK AO2 TSNO
94908KDBQ DBQ20070316235015103/16/07 23:50:31  5-MIN KDBQ 170550Z AUTO 35003KT 10SM CLR M03/M08 A3027 750 71 -1200 350/03 RMK AO2 SLP266 T10331078 11006 21056 400111056 53001 TSNO
94908KDBQ DBQ20070316235515103/16/07 23:55:31  5-MIN KDBQ 170555Z AUTO 35004KT 10SM CLR M03/M08 A3027 750 71 -1200 350/04 RMK AO2 SLP266 T10331078 11006 21056 400111056 58010 TSNO
94908KDBQ DBQ20070317000010603/17/07 00:00:38  5-MIN KDBQ 170600Z AUTO 35004KT 10SM CLR M03/M08 A3027 750 71 -1200 340/04 RMK AO2 TSNO
94908KDBQ DBQ20070317000510603/17/07 00:05:31  5-MIN KDBQ 170605Z AUTO 36004KT 10SM CLR M04/M08 A3027 750 71 -1300 350/04 RMK AO2 TSNO
94908KDBQ DBQ20070317001010603/17/07 00:10:31  5-MIN KDBQ 170610Z AUTO 36004KT 10SM CLR M04/M08 A3027 750 71 -1300 360/04 RMK AO2 TSNO
94908KDBQ DBQ20070317001510603/17/07 00:15:32  5-MIN KDBQ 170615Z AUTO 36005KT 10SM CLR M04/M08 A3027 750 74 -1400 360/05 RMK AO2 TSNO
94908KDBQ DBQ20070317002010603/17/07 00:20:31  5-MIN KDBQ 170620Z AUTO 36004KT 10SM CLR M04/M08 A3027 750 74 -1400 360/04 RMK AO2 TSNO
94908KDBQ DBQ20070317002510603/17/07 00:25:31  5-MIN KDBQ 170625Z AUTO 36005KT 10SM CLR M04/M08 A3027 750 74 -1400 360/05 RMK AO2 TSNO
94908KDBQ DBQ20070317003010603/17/07 00:30:31  5-MIN KDBQ 170630Z AUTO 36005KT 10SM CLR M04/M08 A3027 750 71 -1300 360/05 RMK AO2 TSNO
94908KDBQ DBQ20070317003510603/17/07 00:35:31  5-MIN KDBQ 170635Z AUTO 36005KT 10SM CLR M04/M08 A3027 750 74 -1400 360/05 RMK AO2 TSNO
94908KDBQ DBQ20070317004010603/17/07 00:40:31  5-MIN KDBQ 170640Z AUTO 36005KT 10SM CLR M04/M08 A3027 760 74 -1400 360/05 RMK AO2 TSNO
94908KDBQ DBQ20070317004510603/17/07 00:45:31  5-MIN KDBQ 170645Z AUTO 01006KT 10SM CLR M04/M08 A3027 750 74 -1400 010/06 RMK AO2 TSNO
94908KDBQ DBQ20070317005012303/17/07 00:50:31  5-MIN KDBQ 170650Z AUTO 01005KT 10SM CLR M04/M08 A3027 760 74 -1400 010/05 RMK AO2 SLP265 T10441083 TSNO
94908KDBQ DBQ20070317005512303/17/07 00:55:31  5-MIN KDBQ 170655Z AUTO 01005KT 10SM CLR M04/M08 A3027 760 74 -1400 010/05 RMK AO2 SLP264 T10441083 TSNO
94908KDBQ DBQ20070317010010603/17/07 01:00:31  5-MIN KDBQ 170700Z AUTO 01005KT 10SM CLR M04/M08 A3027 760 71 -1300 010/05 RMK AO2 TSNO
94908KDBQ DBQ20070317010510603/17/07 01:05:31  5-MIN KDBQ 170705Z AUTO 01005KT 10SM CLR M04/M08 A3027 760 71 -1300 010/05 RMK AO2 TSNO
94908KDBQ DBQ20070317011010603/17/07 01:10:31  5-MIN KDBQ 170710Z AUTO 36005KT 10SM CLR M04/M08 A3027 760 71 -1300 360/05 RMK AO2 TSNO
94908KDBQ DBQ20070317011510603/17/07 01:15:31  5-MIN KDBQ 170715Z AUTO 36005KT 10SM CLR M04/M08 A3027 760 71 -1300 360/05 RMK AO2 TSNO
94908KDBQ DBQ20070317012010603/17/07 01:20:31  5-MIN KDBQ 170720Z AUTO 36005KT 10SM CLR M04/M08 A3027 760 74 -1400 360/05 RMK AO2 TSNO
94908KDBQ DBQ20070317012510603/17/07 01:25:31  5-MIN KDBQ 170725Z AUTO 36005KT 10SM CLR M04/M08 A3027 760 74 -1400 360/05 RMK AO2 TSNO
94908KDBQ DBQ20070317013010603/17/07 01:30:31  5-MIN KDBQ 170730Z AUTO 36006KT 10SM CLR M04/M08 A3027 760 74 -1400 360/06 RMK AO2 TSNO
94908KDBQ DBQ20070317013510603/17/07 01:35:31  5-MIN KDBQ 170735Z AUTO 36006KT 10SM CLR M04/M08 A3027 760 74 -1400 360/06 RMK AO2 TSNO
94908KDBQ DBQ20070317014010803/17/07 01:40:31  5-MIN KDBQ 170740Z AUTO 36006KT 10SM CLR M04/M08 A3027 760 78 -1400 360/06 RMK AO2 TSNO $
94908KDBQ DBQ20070317014510803/17/07 01:45:31  5-MIN KDBQ 170745Z AUTO 01007KT 10SM CLR M04/M08 A3027 760 78 -1400 010/07 RMK AO2 TSNO $
94908KDBQ DBQ20070317015012503/17/07 01:50:31  5-MIN KDBQ 170750Z AUTO 01007KT 10SM CLR M04/M08 A3027 760 78 -1400 010/07 RMK AO2 SLP263 T10441078 TSNO $
94908KDBQ DBQ20070317015512503/17/07 01:55:31  5-MIN KDBQ 170755Z AUTO 01007KT 10SM CLR M04/M08 A3026 760 78 -1400 010/07 RMK AO2 SLP263 T10441078 TSNO $
94908KDBQ DBQ20070317020010803/17/07 02:00:31  5-MIN KDBQ 170800Z AUTO 01007KT 10SM CLR M04/M08 A3026 760 78 -1400 010/07 RMK AO2 TSNO $
94908KDBQ DBQ20070317020510803/17/07 02:05:31  5-MIN KDBQ 170805Z AUTO 01007KT 10SM CLR M04/M08 A3026 770 78 -1400 010/07 RMK AO2 TSNO $
94908KDBQ DBQ20070317021010803/17/07 02:10:31  5-MIN KDBQ 170810Z AUTO 01006KT 10SM CLR M04/M08 A3026 770 78 -1400 010/06 RMK AO2 TSNO $
94908KDBQ DBQ20070317021510803/17/07 02:15:31  5-MIN KDBQ 170815Z AUTO 01006KT 10SM CLR M04/M08 A3026 770 78 -1400 010/06 RMK AO2 TSNO $
94908KDBQ DBQ20070317022010803/17/07 02:20:31  5-MIN KDBQ 170820Z AUTO 36007KT 10SM CLR M04/M08 A3026 770 78 -1400 360/07 RMK AO2 TSNO $
94908KDBQ DBQ20070317022510803/17/07 02:25:31  5-MIN KDBQ 170825Z AUTO 01007KT 10SM CLR M04/M08 A3025 770 78 -1300 360/07 RMK AO2 TSNO $
94908KDBQ DBQ20070317023010803/17/07 02:30:31  5-MIN KDBQ 170830Z AUTO 01007KT 10SM CLR M04/M08 A3025 770 78 -1300 010/07 RMK AO2 TSNO $
94908KDBQ DBQ20070317023510803/17/07 02:35:31  5-MIN KDBQ 170835Z AUTO 01007KT 10SM CLR M05/M08 A3025 770 77 -1400 010/07 RMK AO2 TSNO $
94908KDBQ DBQ20070317024010803/17/07 02:40:31  5-MIN KDBQ 170840Z AUTO 01007KT 10SM CLR M05/M08 A3025 770 81 -1400 010/07 RMK AO2 TSNO $
94908KDBQ DBQ20070317024510803/17/07 02:45:31  5-MIN KDBQ 170845Z AUTO 01007KT 10SM CLR M05/M08 A3025 770 77 -1400 010/07 RMK AO2 TSNO $
94908KDBQ DBQ20070317025013103/17/07 02:50:31  5-MIN KDBQ 170850Z AUTO 01007KT 10SM CLR M05/M08 A3025 770 77 -1400 010/07 RMK AO2 SLP258 T10501083 58010 TSNO $
94908KDBQ DBQ20070317025513103/17/07 02:55:31  5-MIN KDBQ 170855Z AUTO 01007KT 10SM CLR M05/M08 A3025 770 77 -1400 010/07 RMK AO2 SLP258 T10501083 58008 TSNO $
94908KDBQ DBQ20070317030010803/17/07 03:00:31  5-MIN KDBQ 170900Z AUTO 36007KT 10SM CLR M05/M08 A3025 770 81 -1400 360/07 RMK AO2 TSNO $
94908KDBQ DBQ20070317030510803/17/07 03:05:31  5-MIN KDBQ 170905Z AUTO 36007KT 10SM CLR M05/M08 A3025 770 81 -1400 360/07 RMK AO2 TSNO $
94908KDBQ DBQ20070317031010803/17/07 03:10:31  5-MIN KDBQ 170910Z AUTO 01007KT 10SM CLR M05/M08 A3025 770 81 -1400 010/07 RMK AO2 TSNO $
94908KDBQ DBQ20070317031510803/17/07 03:15:31  5-MIN KDBQ 170915Z AUTO 01007KT 10SM CLR M05/M08 A3025 770 77 -1400 010/07 RMK AO2 TSNO $
94908KDBQ DBQ20070317032010803/17/07 03:20:31  5-MIN KDBQ 170920Z AUTO 01007KT 10SM CLR M05/M08 A3025 770 77 -1400 010/07 RMK AO2 TSNO $
94908KDBQ DBQ20070317032510803/17/07 03:25:31  5-MIN KDBQ 170925Z AUTO 01007KT 10SM CLR M05/M08 A3025 770 77 -1400 010/07 RMK AO2 TSNO $
94908KDBQ DBQ20070317033010803/17/07 03:30:31  5-MIN KDBQ 170930Z AUTO 01007KT 10SM CLR M06/M08 A3025 770 81 -1500 010/07 RMK AO2 TSNO $
94908KDBQ DBQ20070317033510803/17/07 03:35:31  5-MIN KDBQ 170935Z AUTO 01008KT 10SM CLR M05/M08 A3025 770 77 -1400 010/08 RMK AO2 TSNO $
94908KDBQ DBQ20070317034010803/17/07 03:40:31  5-MIN KDBQ 170940Z AUTO 02008KT 10SM CLR M05/M08 A3025 770 81 -1400 020/08 RMK AO2 TSNO $
94908KDBQ DBQ20070317034510803/17/07 03:45:31  5-MIN KDBQ 170945Z AUTO 01008KT 10SM CLR M05/M08 A3025 770 81 -1400 010/08 RMK AO2 TSNO $
94908KDBQ DBQ20070317035012503/17/07 03:50:31  5-MIN KDBQ 170950Z AUTO 02008KT 10SM CLR M05/M08 A3025 770 81 -1400 020/08 RMK AO2 SLP259 T10501078 TSNO $
94908KDBQ DBQ20070317035512503/17/07 03:55:31  5-MIN KDBQ 170955Z AUTO 02007KT 10SM CLR M04/M08 A3025 770 78 -1300 020/07 RMK AO2 SLP258 T10441078 TSNO $
94908KDBQ DBQ20070317040010803/17/07 04:00:31  5-MIN KDBQ 171000Z AUTO 02007KT 10SM CLR M04/M08 A3025 780 78 -1300 020/07 RMK AO2 TSNO $
94908KDBQ DBQ20070317040510803/17/07 04:05:31  5-MIN KDBQ 171005Z AUTO 02006KT 10SM CLR M05/M08 A3025 780 81 -1400 020/06 RMK AO2 TSNO $
94908KDBQ DBQ20070317041010803/17/07 04:10:31  5-MIN KDBQ 171010Z AUTO 02006KT 10SM CLR M05/M08 A3025 780 81 -1400 020/06 RMK AO2 TSNO $
94908KDBQ DBQ20070317041510803/17/07 04:15:31  5-MIN KDBQ 171015Z AUTO 01005KT 10SM CLR M06/M08 A3025 770 81 -1500 010/05 RMK AO2 TSNO $
94908KDBQ DBQ20070317042010803/17/07 04:20:31  5-MIN KDBQ 171020Z AUTO 01004KT 10SM CLR M06/M08 A3025 780 81 -1500 010/04 RMK AO2 TSNO $
94908KDBQ DBQ20070317042510703/17/07 04:25:31  5-MIN KDBQ 171025Z AUTO 00000KT 9SM CLR M06/M08 A3025 780 84 -1600 000/00 RMK AO2 TSNO $
94908KDBQ DBQ20070317043010803/17/07 04:30:31  5-MIN KDBQ 171030Z AUTO 00000KT 10SM CLR M06/M08 A3025 780 81 -1500 000/00 RMK AO2 TSNO $
94908KDBQ DBQ20070317043510803/17/07 04:35:31  5-MIN KDBQ 171035Z AUTO 00000KT 10SM CLR M05/M08 A3025 780 77 -1400 000/00 RMK AO2 TSNO $
94908KDBQ DBQ20070317044010803/17/07 04:40:31  5-MIN KDBQ 171040Z AUTO 00000KT 10SM CLR M05/M08 A3025 780 77 -1400 000/00 RMK AO2 TSNO $
94908KDBQ DBQ20070317044510803/17/07 04:45:31  5-MIN KDBQ 171045Z AUTO 00000KT 10SM CLR M05/M08 A3025 780 77 -1400 000/00 RMK AO2 TSNO $
94908KDBQ DBQ20070317045012003/17/07 04:50:31  5-MIN KDBQ 171050Z 00000KT 10SM CLR M05/M08 A3025 780 77 -1400 000/00 RMK AO2 SLP258 T10501083 TSNO $
94908KDBQ DBQ20070317045511503/17/07 04:55:31  5-MIN KDBQ 171055Z 00000KT 10SM CLR M05/M08 A3025 770 81 -1400 000/00 RMK AO2 SLP258 T10501078 $
94908KDBQ DBQ20070317050009803/17/07 05:00:31  5-MIN KDBQ 171100Z 00000KT 10SM CLR M05/M08 A3025 780 77 -1400 000/00 RMK AO2 $
94908KDBQ DBQ20070317050509803/17/07 05:05:31  5-MIN KDBQ 171105Z 00000KT 10SM CLR M05/M08 A3025 780 77 -1400 000/00 RMK AO2 $
94908KDBQ DBQ20070317051009803/17/07 05:10:31  5-MIN KDBQ 171110Z 00000KT 10SM CLR M05/M08 A3025 780 77 -1400 000/00 RMK AO2 $
94908KDBQ DBQ20070317051509803/17/07 05:15:31  5-MIN KDBQ 171115Z 00000KT 10SM CLR M05/M08 A3025 780 77 -1400 000/00 RMK AO2 $
94908KDBQ DBQ20070317052009803/17/07 05:20:31  5-MIN KDBQ 171120Z 00000KT 10SM CLR M05/M08 A3025 780 81 -1400 000/00 RMK AO2 $
94908KDBQ DBQ20070317052509803/17/07 05:25:31  5-MIN KDBQ 171125Z 00000KT 10SM CLR M06/M08 A3025 780 81 -1500 000/00 RMK AO2 $
94908KDBQ DBQ20070317053009803/17/07 05:30:31  5-MIN KDBQ 171130Z 00000KT 10SM CLR M06/M08 A3025 780 81 -1500 000/00 RMK AO2 $
94908KDBQ DBQ20070317053509803/17/07 05:35:31  5-MIN KDBQ 171135Z 00000KT 10SM CLR M06/M08 A3025 780 81 -1500 000/00 RMK AO2 $
94908KDBQ DBQ20070317054009803/17/07 05:40:31  5-MIN KDBQ 171140Z 05004KT 10SM CLR M05/M08 A3025 780 77 -1400 050/04 RMK AO2 $
94908KDBQ DBQ20070317054509703/17/07 05:45:31  5-MIN KDBQ 171145Z 03007KT 9SM CLR M06/M08 A3025 780 84 -1600 030/07 RMK AO2 $
94908KDBQ DBQ20070317055013203/17/07 05:50:31  5-MIN KDBQ 171150Z 03007KT 9SM CLR M06/M08 A3025 780 84 -1500 030/07 RMK AO2 SLP257 T10561078 11033 21061 58008 $
94908KDBQ DBQ20070317055513203/17/07 05:55:31  5-MIN KDBQ 171155Z 03008KT 9SM CLR M05/M08 A3025 780 81 -1400 030/08 RMK AO2 SLP257 T10501078 11033 21061 58002 $
94908KDBQ DBQ20070317060009703/17/07 06:00:31  5-MIN KDBQ 171200Z 03007KT 9SM CLR M05/M08 A3025 780 81 -1400 030/07 RMK AO2 $
94908KDBQ DBQ20070317060509703/17/07 06:05:31  5-MIN KDBQ 171205Z 03007KT 8SM CLR M05/M07 A3025 780 84 -1400 030/07 RMK AO2 $
94908KDBQ DBQ20070317061009703/17/07 06:10:31  5-MIN KDBQ 171210Z 02007KT 7SM CLR M05/M07 A3025 780 84 -1400 020/07 RMK AO2 $
94908KDBQ DBQ20070317061509703/17/07 06:15:31  5-MIN KDBQ 171215Z 02007KT 7SM CLR M05/M07 A3025 770 84 -1400 010/07 RMK AO2 $
94908KDBQ DBQ20070317062009703/17/07 06:20:31  5-MIN KDBQ 171220Z 02007KT 7SM CLR M05/M07 A3025 770 84 -1400 010/07 RMK AO2 $
94908KDBQ DBQ20070317062509703/17/07 06:25:31  5-MIN KDBQ 171225Z 02007KT 8SM CLR M04/M07 A3025 770 81 -1300 020/07 RMK AO2 $
94908KDBQ DBQ20070317085012103/17/07 08:50:31  5-MIN KDBQ 171450Z 04006KT 10SM CLR M01/M06 A3029 740 69 -1000 040/06 RMK AO2 SLP270 T10111061 58002 $
94908KDBQ DBQ20070317085512003/17/07 08:55:31  5-MIN KDBQ 171455Z 04005KT 10SM CLR M01/M06 A3029 740 66 -900 040/05 RMK AO2 SLP270 T10061061 51014 $
94908KDBQ DBQ20070317090009703/17/07 09:00:31  5-MIN KDBQ 171500Z 04006KT 10SM CLR M01/M06 A3029 740 66 -900 040/06 RMK AO2 $
94908KDBQ DBQ20070317090509703/17/07 09:05:31  5-MIN KDBQ 171505Z 04006KT 10SM CLR M01/M07 A3029 740 61 -900 040/06 RMK AO2 $
94908KDBQ DBQ20070317091009703/17/07 09:10:31  5-MIN KDBQ 171510Z 05006KT 10SM CLR M01/M07 A3028 740 63 -900 040/06 RMK AO2 $
94908KDBQ DBQ20070317091509703/17/07 09:15:31  5-MIN KDBQ 171515Z 05006KT 10SM CLR M01/M07 A3028 740 63 -900 050/06 RMK AO2 $
94908KDBQ DBQ20070317092009603/17/07 09:20:31  5-MIN KDBQ 171520Z 05006KT 10SM CLR 00/M07 A3028 740 61 -800 050/06 RMK AO2 $
94908KDBQ DBQ20070317092509603/17/07 09:25:31  5-MIN KDBQ 171525Z 04006KT 10SM CLR 00/M07 A3028 750 61 -800 040/06 RMK AO2 $
94908KDBQ DBQ20070317093009603/17/07 09:30:31  5-MIN KDBQ 171530Z 04005KT 10SM CLR 00/M07 A3028 750 58 -800 040/05 RMK AO2 $
94908KDBQ DBQ20070317093509603/17/07 09:35:31  5-MIN KDBQ 171535Z 03003KT 10SM CLR 00/M07 A3028 740 61 -800 030/03 RMK AO2 $
94908KDBQ DBQ20070317094009603/17/07 09:40:31  5-MIN KDBQ 171540Z 06004KT 10SM CLR 01/M07 A3028 740 58 -700 060/04 RMK AO2 $
94908KDBQ DBQ20070317094509603/17/07 09:45:31  5-MIN KDBQ 171545Z 08004KT 10SM CLR 00/M08 A3028 750 56 -800 080/04 RMK AO2 $
94908KDBQ DBQ20070317095011303/17/07 09:50:31  5-MIN KDBQ 171550Z 06004KT 10SM CLR 01/M07 A3028 750 56 -700 060/04 RMK AO2 SLP268 T00061072 $
94908KDBQ DBQ20070317095511303/17/07 09:55:31  5-MIN KDBQ 171555Z VRB05KT 10SM CLR 01/M07 A3028 750 56 -700 VRB/05 RMK AO2 SLP266 T00111067 $
94908KDBQ DBQ20070317100009603/17/07 10:00:31  5-MIN KDBQ 171600Z 00000KT 10SM CLR 01/M07 A3028 750 54 -700 000/00 RMK AO2 $
94908KDBQ DBQ20070317100509903/17/07 10:05:31  5-MIN KDBQ 171605Z 02005KT 10SM FEW032 01/M07 A3028 750 56 -700 020/05 RMK AO2 $
94908KDBQ DBQ20070317101009903/17/07 10:10:31  5-MIN KDBQ 171610Z 00000KT 10SM FEW032 01/M08 A3028 750 54 -700 000/00 RMK AO2 $
94908KDBQ DBQ20070317101509603/17/07 10:15:31  5-MIN KDBQ 171615Z 02005KT 10SM CLR 02/M06 A3028 750 56 -600 020/05 RMK AO2 $
94908KDBQ DBQ20070317102009603/17/07 10:20:31  5-MIN KDBQ 171620Z 34005KT 10SM CLR 01/M07 A3027 750 56 -700 340/05 RMK AO2 $
94908KDBQ DBQ20070317102509903/17/07 10:25:31  5-MIN KDBQ 171625Z 26004KT 10SM FEW032 01/M07 A3027 750 56 -700 260/04 RMK AO2 $
94908KDBQ DBQ20070317103009903/17/07 10:30:31  5-MIN KDBQ 171630Z 32007KT 10SM FEW032 01/M07 A3028 750 54 -700 320/07 RMK AO2 $
94908KDBQ DBQ20070317103509603/17/07 10:35:31  5-MIN KDBQ 171635Z 33004KT 10SM CLR 01/M07 A3028 750 56 -700 330/04 RMK AO2 $
94908KDBQ DBQ20070317104009603/17/07 10:40:31  5-MIN KDBQ 171640Z 27004KT 10SM CLR 01/M07 A3028 750 54 -700 260/04 RMK AO2 $
94908KDBQ DBQ20070317104509603/17/07 10:45:31  5-MIN KDBQ 171645Z VRB04KT 10SM CLR 01/M07 A3027 750 54 -700 VRB/04 RMK AO2 $
94908KDBQ DBQ20070317105011303/17/07 10:50:31  5-MIN KDBQ 171650Z VRB03KT 10SM CLR 02/M07 A3027 750 54 -600 VRB/03 RMK AO2 SLP265 T00171067 $
94908KDBQ DBQ20070317105511303/17/07 10:55:31  5-MIN KDBQ 171655Z 32007KT 10SM CLR 02/M07 A3027 750 54 -600 320/07 RMK AO2 SLP265 T00171067 $
94908KDBQ DBQ20070317110009603/17/07 11:00:31  5-MIN KDBQ 171700Z 30006KT 10SM CLR 01/M08 A3027 750 51 -700 300/06 RMK AO2 $
94908KDBQ DBQ20070317110509603/17/07 11:05:31  5-MIN KDBQ 171705Z 00000KT 10SM CLR 01/M08 A3027 750 51 -700 000/00 RMK AO2 $
94908KDBQ DBQ20070317111009603/17/07 11:10:31  5-MIN KDBQ 171710Z 00000KT 10SM CLR 01/M08 A3027 750 51 -700 000/00 RMK AO2 $
94908KDBQ DBQ20070317111509603/17/07 11:15:31  5-MIN KDBQ 171715Z VRB04KT 10SM CLR 02/M07 A3027 760 52 -600 VRB/04 RMK AO2 $
94908KDBQ DBQ20070317112009603/17/07 11:20:31  5-MIN KDBQ 171720Z VRB04KT 10SM CLR 02/M07 A3027 760 54 -600 VRB/04 RMK AO2 $
94908KDBQ DBQ20070317112509603/17/07 11:25:31  5-MIN KDBQ 171725Z 33006KT 10SM CLR 03/M06 A3027 760 52 -500 330/06 RMK AO2 $
94908KDBQ DBQ20070317113009603/17/07 11:30:31  5-MIN KDBQ 171730Z 34003KT 10SM CLR 02/M08 A3027 760 49 -600 340/03 RMK AO2 $
94908KDBQ DBQ20070317113509603/17/07 11:35:31  5-MIN KDBQ 171735Z 30004KT 10SM CLR 02/M07 A3026 760 52 -500 300/04 RMK AO2 $
94908KDBQ DBQ20070317114009603/17/07 11:40:31  5-MIN KDBQ 171740Z 28005KT 10SM CLR 02/M08 A3026 760 49 -600 280/05 RMK AO2 $
94908KDBQ DBQ20070317114509603/17/07 11:45:31  5-MIN KDBQ 171745Z 32006KT 10SM CLR 02/M07 A3026 760 50 -500 320/06 RMK AO2 $
94908KDBQ DBQ20070317115013103/17/07 11:50:31  5-MIN KDBQ 171750Z VRB06KT 10SM CLR 02/M07 A3026 760 52 -500 VRB/06 RMK AO2 SLP261 T00221067 10028 21050 51014 $
94908KDBQ DBQ20070317115513103/17/07 11:55:31  5-MIN KDBQ 171755Z 30006KT 10SM CLR 02/M07 A3026 760 52 -500 300/06 RMK AO2 SLP261 T00221067 10028 21050 58008 $
94908KDBQ DBQ20070317120009603/17/07 12:00:31  5-MIN KDBQ 171800Z 33005KT 10SM CLR 02/M07 A3026 770 50 -500 330/05 RMK AO2 $
94908KDBQ DBQ20070317120509603/17/07 12:05:31  5-MIN KDBQ 171805Z VRB04KT 10SM CLR 02/M07 A3026 770 50 -500 VRB/04 RMK AO2 $
94908KDBQ DBQ20070317121009603/17/07 12:10:31  5-MIN KDBQ 171810Z VRB03KT 10SM CLR 02/M08 A3026 770 47 -500 VRB/03 RMK AO2 $
94908KDBQ DBQ20070317121511203/17/07 12:15:31  5-MIN KDBQ 171815Z 01007KT 320V030 10SM CLR 03/M07 A3026 770 48 -400 010/07 320V030 RMK AO2 $
94908KDBQ DBQ20070317122009603/17/07 12:20:31  5-MIN KDBQ 171820Z 02005KT 10SM CLR 03/M08 A3026 770 46 -400 020/05 RMK AO2 $
94908KDBQ DBQ20070317122509603/17/07 12:25:31  5-MIN KDBQ 171825Z 35006KT 10SM CLR 03/M08 A3025 770 44 -400 350/06 RMK AO2 $
94908KDBQ DBQ20070317123009603/17/07 12:30:31  5-MIN KDBQ 171830Z 00000KT 10SM CLR 02/M09 A3025 770 44 -500 000/00 RMK AO2 $
94908KDBQ DBQ20070317123509603/17/07 12:35:31  5-MIN KDBQ 171835Z 34004KT 10SM CLR 03/M08 A3025 770 46 -400 340/04 RMK AO2 $
94908KDBQ DBQ20070317124009603/17/07 12:40:31  5-MIN KDBQ 171840Z 00000KT 10SM CLR 03/M08 A3025 780 44 -400 000/00 RMK AO2 $
94908KDBQ DBQ20070317124509603/17/07 12:45:31  5-MIN KDBQ 171845Z 06005KT 10SM CLR 03/M08 A3025 780 44 -400 060/05 RMK AO2 $
94908KDBQ DBQ20070317125011303/17/07 12:50:31  5-MIN KDBQ 171850Z 34008KT 10SM CLR 03/M08 A3025 780 44 -400 340/08 RMK AO2 SLP256 T00331078 $
94908KDBQ DBQ20070317125511303/17/07 12:55:31  5-MIN KDBQ 171855Z 33006KT 10SM CLR 03/M08 A3024 780 44 -400 330/06 RMK AO2 SLP255 T00331078 $
94908KDBQ DBQ20070317130009603/17/07 13:00:31  5-MIN KDBQ 171900Z 33007KT 10SM CLR 03/M08 A3024 780 44 -400 330/07 RMK AO2 $
94908KDBQ DBQ20070317130509603/17/07 13:05:31  5-MIN KDBQ 171905Z 00000KT 10SM CLR 03/M09 A3024 790 42 -400 000/00 RMK AO2 $
94908KDBQ DBQ20070317131009603/17/07 13:10:31  5-MIN KDBQ 171910Z VRB06KT 10SM CLR 04/M08 A3024 790 40 -300 VRB/06 RMK AO2 $
94908KDBQ DBQ20070317131509603/17/07 13:15:31  5-MIN KDBQ 171915Z 06006KT 10SM CLR 04/M08 A3023 790 40 -300 060/06 RMK AO2 $
94908KDBQ DBQ20070317132009603/17/07 13:20:31  5-MIN KDBQ 171920Z 36007KT 10SM CLR 04/M08 A3023 790 40 -300 360/07 RMK AO2 $
94908KDBQ DBQ20070317132509603/17/07 13:25:31  5-MIN KDBQ 171925Z 36005KT 10SM CLR 04/M09 A3023 790 39 -300 350/05 RMK AO2 $
94908KDBQ DBQ20070317133009603/17/07 13:30:31  5-MIN KDBQ 171930Z 35006KT 10SM CLR 04/M09 A3023 800 39 -300 350/06 RMK AO2 $
94908KDBQ DBQ20070317133509603/17/07 13:35:31  5-MIN KDBQ 171935Z 31005KT 10SM CLR 03/M09 A3022 800 40 -300 310/05 RMK AO2 $
94908KDBQ DBQ20070317134009603/17/07 13:40:31  5-MIN KDBQ 171940Z 35006KT 10SM CLR 04/M09 A3022 800 37 -300 350/06 RMK AO2 $
94908KDBQ DBQ20070317134509603/17/07 13:45:31  5-MIN KDBQ 171945Z VRB05KT 10SM CLR 03/M10 A3022 800 37 -300 VRB/05 RMK AO2 $
94908KDBQ DBQ20070317135011303/17/07 13:50:31  5-MIN KDBQ 171950Z 34006KT 10SM CLR 04/M09 A3022 800 37 -300 330/06 RMK AO2 SLP246 T00391094 $
94908KDBQ DBQ20070317135511303/17/07 13:55:31  5-MIN KDBQ 171955Z VRB03KT 10SM CLR 04/M09 A3022 800 39 -300 VRB/03 RMK AO2 SLP246 T00391089 $
94908KDBQ DBQ20070317140009603/17/07 14:00:31  5-MIN KDBQ 172000Z 01006KT 10SM CLR 04/M10 A3022 800 35 -300 010/06 RMK AO2 $
94908KDBQ DBQ20070317140509603/17/07 14:05:31  5-MIN KDBQ 172005Z 31007KT 10SM CLR 04/M10 A3022 800 34 -200 310/07 RMK AO2 $
94908KDBQ DBQ20070317141011203/17/07 14:10:31  5-MIN KDBQ 172010Z 32007KT 280V350 10SM CLR 04/M12 A3022 800 31 -300 320/07 280V350 RMK AO2 $
94908KDBQ DBQ20070317141509603/17/07 14:15:31  5-MIN KDBQ 172015Z 36005KT 10SM CLR 04/M12 A3022 810 31 -300 350/05 RMK AO2 $
94908KDBQ DBQ20070317142009603/17/07 14:20:31  5-MIN KDBQ 172020Z 36007KT 10SM CLR 04/M11 A3021 810 33 -200 360/07 RMK AO2 $
94908KDBQ DBQ20070317142509603/17/07 14:25:31  5-MIN KDBQ 172025Z VRB04KT 10SM CLR 04/M12 A3021 810 31 -300 VRB/04 RMK AO2 $
94908KDBQ DBQ20070317143009603/17/07 14:30:31  5-MIN KDBQ 172030Z 01009KT 10SM CLR 04/M10 A3021 810 34 -200 010/09 RMK AO2 $
94908KDBQ DBQ20070317143509603/17/07 14:35:31  5-MIN KDBQ 172035Z 03006KT 10SM CLR 04/M11 A3022 810 34 -300 030/06 RMK AO2 $
94908KDBQ DBQ20070317144009603/17/07 14:40:31  5-MIN KDBQ 172040Z 36006KT 10SM CLR 04/M10 A3021 810 34 -200 360/06 RMK AO2 $
94908KDBQ DBQ20070317144509603/17/07 14:45:31  5-MIN KDBQ 172045Z VRB04KT 10SM CLR 04/M10 A3021 810 34 -200 VRB/04 RMK AO2 $
94908KDBQ DBQ20070317145011903/17/07 14:50:31  5-MIN KDBQ 172050Z 02006KT 10SM CLR 05/M09 A3021 810 36 -100 020/06 RMK AO2 SLP242 T00501089 58008 $
94908KDBQ DBQ20070317145511903/17/07 14:55:31  5-MIN KDBQ 172055Z 03006KT 10SM CLR 04/M11 A3021 810 33 -200 030/06 RMK AO2 SLP243 T00441106 56017 $
94908KDBQ DBQ20070317150009603/17/07 15:00:31  5-MIN KDBQ 172100Z 35007KT 10SM CLR 04/M11 A3021 810 33 -200 350/07 RMK AO2 $
94908KDBQ DBQ20070317150509603/17/07 15:05:31  5-MIN KDBQ 172105Z 33006KT 10SM CLR 04/M11 A3021 810 33 -200 330/06 RMK AO2 $
94908KDBQ DBQ20070317151011203/17/07 15:10:31  5-MIN KDBQ 172110Z 33007KT 310V020 10SM CLR 04/M11 A3021 810 31 -200 330/07 310V020 RMK AO2 $
94908KDBQ DBQ20070317151509603/17/07 15:15:31  5-MIN KDBQ 172115Z 34008KT 10SM CLR 04/M11 A3021 810 31 -200 340/08 RMK AO2 $
94908KDBQ DBQ20070317152009603/17/07 15:20:31  5-MIN KDBQ 172120Z 36008KT 10SM CLR 04/M11 A3021 810 33 -200 350/08 RMK AO2 $
94908KDBQ DBQ20070317152509603/17/07 15:25:31  5-MIN KDBQ 172125Z 03006KT 10SM CLR 04/M10 A3021 820 34 -200 030/06 RMK AO2 $
94908KDBQ DBQ20070317153009603/17/07 15:30:31  5-MIN KDBQ 172130Z 30006KT 10SM CLR 04/M11 A3021 820 33 -200 300/06 RMK AO2 $
94908KDBQ DBQ20070317153509603/17/07 15:35:31  5-MIN KDBQ 172135Z 34006KT 10SM CLR 04/M10 A3020 820 34 -200 330/06 RMK AO2 $
94908KDBQ DBQ20070317154009603/17/07 15:40:31  5-MIN KDBQ 172140Z 36007KT 10SM CLR 04/M10 A3020 820 34 -200 360/07 RMK AO2 $
94908KDBQ DBQ20070317154509603/17/07 15:45:31  5-MIN KDBQ 172145Z 35008KT 10SM CLR 04/M11 A3021 820 33 -200 340/08 RMK AO2 $
94908KDBQ DBQ20070317155011303/17/07 15:50:31  5-MIN KDBQ 172150Z 01008KT 10SM CLR 04/M11 A3020 820 31 -200 010/08 RMK AO2 SLP240 T00441111 $
94908KDBQ DBQ20070317155511303/17/07 15:55:31  5-MIN KDBQ 172155Z 01009KT 10SM CLR 04/M11 A3020 820 31 -200 010/09 RMK AO2 SLP240 T00441111 $
94908KDBQ DBQ20070317160009603/17/07 16:00:31  5-MIN KDBQ 172200Z 36008KT 10SM CLR 04/M11 A3020 820 31 -200 360/08 RMK AO2 $
94908KDBQ DBQ20070317160509603/17/07 16:05:31  5-MIN KDBQ 172205Z 35008KT 10SM CLR 04/M11 A3020 820 33 -200 350/08 RMK AO2 $
94908KDBQ DBQ20070317161009603/17/07 16:10:31  5-MIN KDBQ 172210Z 36007KT 10SM CLR 04/M11 A3020 820 33 -200 360/07 RMK AO2 $
94908KDBQ DBQ20070317161509603/17/07 16:15:31  5-MIN KDBQ 172215Z 32005KT 10SM CLR 04/M11 A3020 820 32 -200 320/05 RMK AO2 $
94908KDBQ DBQ20070317162009603/17/07 16:20:31  5-MIN KDBQ 172220Z VRB04KT 10SM CLR 04/M12 A3020 820 31 -200 VRB/04 RMK AO2 $
94908KDBQ DBQ20070317162509603/17/07 16:25:31  5-MIN KDBQ 172225Z 32008KT 10SM CLR 04/M11 A3020 820 34 -200 320/08 RMK AO2 $
94908KDBQ DBQ20070317163009603/17/07 16:30:31  5-MIN KDBQ 172230Z 35008KT 10SM CLR 04/M11 A3020 820 33 -200 350/08 RMK AO2 $
94908KDBQ DBQ20070317163509603/17/07 16:35:31  5-MIN KDBQ 172235Z 01007KT 10SM CLR 04/M11 A3020 820 32 -200 010/07 RMK AO2 $
94908KDBQ DBQ20070317164009603/17/07 16:40:31  5-MIN KDBQ 172240Z 36007KT 10SM CLR 04/M11 A3020 820 32 -200 360/07 RMK AO2 $
94908KDBQ DBQ20070317164509603/17/07 16:45:31  5-MIN KDBQ 172245Z 34009KT 10SM CLR 04/M11 A3020 820 34 -200 340/09 RMK AO2 $
94908KDBQ DBQ20070317165011303/17/07 16:50:31  5-MIN KDBQ 172250Z 33006KT 10SM CLR 04/M11 A3020 820 34 -200 330/06 RMK AO2 SLP239 T00391106 $
94908KDBQ DBQ20070317165511303/17/07 16:55:31  5-MIN KDBQ 172255Z 34008KT 10SM CLR 04/M11 A3020 820 34 -200 340/08 RMK AO2 SLP240 T00391106 $
94908KDBQ DBQ20070317170009603/17/07 17:00:31  5-MIN KDBQ 172300Z 35006KT 10SM CLR 04/M11 A3020 820 32 -200 350/06 RMK AO2 $
94908KDBQ DBQ20070317170509603/17/07 17:05:31  5-MIN KDBQ 172305Z 34008KT 10SM CLR 04/M11 A3020 820 34 -200 340/08 RMK AO2 $
94908KDBQ DBQ20070317171009603/17/07 17:10:31  5-MIN KDBQ 172310Z 34008KT 10SM CLR 03/M11 A3020 820 34 -300 340/08 RMK AO2 $
94908KDBQ DBQ20070317171509603/17/07 17:15:31  5-MIN KDBQ 172315Z 35005KT 10SM CLR 03/M11 A3020 820 35 -300 350/05 RMK AO2 $
94908KDBQ DBQ20070317172009603/17/07 17:20:31  5-MIN KDBQ 172320Z 36005KT 10SM CLR 03/M11 A3020 820 34 -300 360/05 RMK AO2 $
94908KDBQ DBQ20070317172509603/17/07 17:25:31  5-MIN KDBQ 172325Z 01007KT 10SM CLR 03/M11 A3020 820 34 -300 010/07 RMK AO2 $
94908KDBQ DBQ20070317173009603/17/07 17:30:31  5-MIN KDBQ 172330Z 35007KT 10SM CLR 03/M11 A3021 810 35 -400 350/07 RMK AO2 $
94908KDBQ DBQ20070317173509603/17/07 17:35:31  5-MIN KDBQ 172335Z 34006KT 10SM CLR 03/M11 A3021 810 37 -400 340/06 RMK AO2 $
94908KDBQ DBQ20070317174009603/17/07 17:40:31  5-MIN KDBQ 172340Z 32006KT 10SM CLR 02/M10 A3021 810 40 -500 320/06 RMK AO2 $
94908KDBQ DBQ20070317174509603/17/07 17:45:31  5-MIN KDBQ 172345Z 32007KT 10SM CLR 02/M09 A3021 810 44 -500 320/07 RMK AO2 $
94908KDBQ DBQ20070317175013103/17/07 17:50:31  5-MIN KDBQ 172350Z 33006KT 10SM CLR 02/M09 A3021 810 45 -500 330/06 RMK AO2 SLP245 T00171089 10050 20017 56017 $
94908KDBQ DBQ20070317175513103/17/07 17:55:31  5-MIN KDBQ 172355Z 33006KT 10SM CLR 02/M09 A3021 810 45 -500 330/06 RMK AO2 SLP245 T00171089 10050 20017 53000 $
94908KDBQ DBQ20070317180009603/17/07 18:00:31  5-MIN KDBQ 180000Z 34005KT 10SM CLR 01/M09 A3021 810 47 -600 340/05 RMK AO2 $
94908KDBQ DBQ20070317180509603/17/07 18:05:31  5-MIN KDBQ 180005Z 34004KT 10SM CLR 02/M09 A3022 810 43 -500 340/04 RMK AO2 $
94908KDBQ DBQ20070317181009603/17/07 18:10:31  5-MIN KDBQ 180010Z 34005KT 10SM CLR 01/M11 A3021 810 40 -600 340/05 RMK AO2 $
94908KDBQ DBQ20070317181509603/17/07 18:15:31  5-MIN KDBQ 180015Z 34005KT 10SM CLR 01/M11 A3021 810 41 -700 340/05 RMK AO2 $
94908KDBQ DBQ20070317182009603/17/07 18:20:31  5-MIN KDBQ 180020Z 34005KT 10SM CLR 02/M11 A3021 810 38 -500 340/05 RMK AO2 $
94908KDBQ DBQ20070317182510603/17/07 18:25:31  5-MIN KDBQ 180025Z AUTO 34005KT 10SM CLR 01/M12 A3022 810 38 -600 340/05 RMK AO2 TSNO $
94908KDBQ DBQ20070317183010603/17/07 18:30:31  5-MIN KDBQ 180030Z AUTO 34004KT 10SM CLR 02/M12 A3021 810 35 -500 340/04 RMK AO2 TSNO $
94908KDBQ DBQ20070317183510603/17/07 18:35:31  5-MIN KDBQ 180035Z AUTO 34004KT 10SM CLR 02/M12 A3022 810 35 -500 340/04 RMK AO2 TSNO $
94908KDBQ DBQ20070317184010603/17/07 18:40:31  5-MIN KDBQ 180040Z AUTO 34005KT 10SM CLR 02/M11 A3021 810 38 -500 340/05 RMK AO2 TSNO $
94908KDBQ DBQ20070317184510603/17/07 18:45:31  5-MIN KDBQ 180045Z AUTO 35004KT 10SM CLR 01/M12 A3021 810 38 -600 350/04 RMK AO2 TSNO $
94908KDBQ DBQ20070317185012303/17/07 18:50:31  5-MIN KDBQ 180050Z AUTO 35004KT 10SM CLR 01/M12 A3021 810 39 -700 350/04 RMK AO2 SLP245 T00061117 TSNO $
94908KDBQ DBQ20070317185512303/17/07 18:55:31  5-MIN KDBQ 180055Z AUTO 36004KT 10SM CLR 01/M12 A3021 810 39 -700 360/04 RMK AO2 SLP244 T00061117 TSNO $
94908KDBQ DBQ20070317190010603/17/07 19:00:31  5-MIN KDBQ 180100Z AUTO 35004KT 10SM CLR 00/M12 A3021 810 41 -700 350/04 RMK AO2 TSNO $
94908KDBQ DBQ20070317190510603/17/07 19:05:31  5-MIN KDBQ 180105Z AUTO 34004KT 10SM CLR 01/M12 A3021 810 39 -700 340/04 RMK AO2 TSNO $
94908KDBQ DBQ20070317191010603/17/07 19:10:31  5-MIN KDBQ 180110Z AUTO 34004KT 10SM CLR 00/M11 A3021 810 45 -700 340/04 RMK AO2 TSNO $
94908KDBQ DBQ20070317191510603/17/07 19:15:31  5-MIN KDBQ 180115Z AUTO 33004KT 10SM CLR 00/M11 A3021 810 45 -700 330/04 RMK AO2 TSNO $
94908KDBQ DBQ20070317192010703/17/07 19:20:31  5-MIN KDBQ 180120Z AUTO 33004KT 10SM CLR M01/M10 A3021 810 51 -900 330/04 RMK AO2 TSNO $
94908KDBQ DBQ20070317192510703/17/07 19:25:31  5-MIN KDBQ 180125Z AUTO 33004KT 10SM CLR M01/M09 A3022 810 53 -900 330/04 RMK AO2 TSNO $
94908KDBQ DBQ20070317193010703/17/07 19:30:31  5-MIN KDBQ 180130Z AUTO 33004KT 10SM CLR M01/M09 A3022 810 55 -900 330/04 RMK AO2 TSNO $
94908KDBQ DBQ20070317193510803/17/07 19:35:31  5-MIN KDBQ 180135Z AUTO 33003KT 10SM CLR M02/M09 A3022 800 60 -1000 320/03 RMK AO2 TSNO $
94908KDBQ DBQ20070317194010803/17/07 19:40:31  5-MIN KDBQ 180140Z AUTO 33003KT 10SM CLR M02/M09 A3022 800 60 -1000 320/03 RMK AO2 TSNO $
94908KDBQ DBQ20070317194510803/17/07 19:45:31  5-MIN KDBQ 180145Z AUTO 32003KT 10SM CLR M02/M09 A3022 800 58 -1000 320/03 RMK AO2 TSNO $
94908KDBQ DBQ20070317195012403/17/07 19:50:31  5-MIN KDBQ 180150Z AUTO 00000KT 10SM CLR M01/M09 A3022 800 55 -900 000/00 RMK AO2 SLP249 T10111089 TSNO $
94908KDBQ DBQ20070317195512503/17/07 19:55:31  5-MIN KDBQ 180155Z AUTO 00000KT 10SM CLR M02/M09 A3022 800 58 -1000 000/00 RMK AO2 SLP249 T10171089 TSNO $
94908KDBQ DBQ20070317200010803/17/07 20:00:31  5-MIN KDBQ 180200Z AUTO 00000KT 10SM CLR M02/M09 A3023 800 58 -1000 000/00 RMK AO2 TSNO $
94908KDBQ DBQ20070317200510803/17/07 20:05:31  5-MIN KDBQ 180205Z AUTO 00000KT 10SM CLR M02/M09 A3023 800 58 -1000 000/00 RMK AO2 TSNO $
94908KDBQ DBQ20070317201010803/17/07 20:10:31  5-MIN KDBQ 180210Z AUTO 00000KT 10SM CLR M02/M09 A3023 800 55 -1000 000/00 RMK AO2 TSNO $
94908KDBQ DBQ20070317201510803/17/07 20:15:31  5-MIN KDBQ 180215Z AUTO 32003KT 10SM CLR M02/M09 A3023 790 58 -1000 310/03 RMK AO2 TSNO $
94908KDBQ DBQ20070317202010803/17/07 20:20:31  5-MIN KDBQ 180220Z AUTO 32004KT 10SM CLR M03/M09 A3023 790 63 -1200 310/04 RMK AO2 TSNO $
94908KDBQ DBQ20070317202510803/17/07 20:25:31  5-MIN KDBQ 180225Z AUTO 31003KT 10SM CLR M03/M09 A3023 790 60 -1100 310/03 RMK AO2 TSNO $
94908KDBQ DBQ20070317203010803/17/07 20:30:31  5-MIN KDBQ 180230Z AUTO 00000KT 10SM CLR M03/M09 A3023 790 65 -1200 000/00 RMK AO2 TSNO $
94908KDBQ DBQ20070317203510803/17/07 20:35:31  5-MIN KDBQ 180235Z AUTO 32003KT 10SM CLR M03/M08 A3023 790 66 -1100 320/03 RMK AO2 TSNO $
94908KDBQ DBQ20070317204010803/17/07 20:40:31  5-MIN KDBQ 180240Z AUTO 31003KT 10SM CLR M02/M08 A3023 790 63 -1000 310/03 RMK AO2 TSNO $
94908KDBQ DBQ20070317204510803/17/07 20:45:31  5-MIN KDBQ 180245Z AUTO 32003KT 10SM CLR M02/M07 A3024 790 72 -1000 320/03 RMK AO2 TSNO $
94908KDBQ DBQ20070317205013103/17/07 20:50:31  5-MIN KDBQ 180250Z AUTO 32004KT 10SM CLR M02/M08 A3023 790 60 -1000 320/04 RMK AO2 SLP251 T10171083 53000 TSNO $
94908KDBQ DBQ20070317205513103/17/07 20:55:31  5-MIN KDBQ 180255Z AUTO 33005KT 10SM CLR M02/M09 A3024 790 55 -1000 330/05 RMK AO2 SLP252 T10171094 53007 TSNO $
94908KDBQ DBQ20070317210010803/17/07 21:00:31  5-MIN KDBQ 180300Z AUTO 33005KT 10SM CLR M02/M09 A3023 790 58 -1000 330/05 RMK AO2 TSNO $
94908KDBQ DBQ20070317210510803/17/07 21:05:31  5-MIN KDBQ 180305Z AUTO 33005KT 10SM CLR M02/M09 A3023 790 60 -1000 330/05 RMK AO2 TSNO $
94908KDBQ DBQ20070317211010803/17/07 21:10:31  5-MIN KDBQ 180310Z AUTO 33005KT 10SM CLR M03/M09 A3024 790 63 -1100 320/05 RMK AO2 TSNO $
94908KDBQ DBQ20070317211510803/17/07 21:15:31  5-MIN KDBQ 180315Z AUTO 33004KT 10SM CLR M03/M09 A3024 790 65 -1200 330/04 RMK AO2 TSNO $
94908KDBQ DBQ20070317212010803/17/07 21:20:31  5-MIN KDBQ 180320Z AUTO 33003KT 10SM CLR M04/M09 A3024 790 71 -1300 330/03 RMK AO2 TSNO $
94908KDBQ DBQ20070317212510803/17/07 21:25:31  5-MIN KDBQ 180325Z AUTO 33003KT 10SM CLR M03/M09 A3024 790 65 -1200 330/03 RMK AO2 TSNO $
94908KDBQ DBQ20070317213010803/17/07 21:30:31  5-MIN KDBQ 180330Z AUTO 34004KT 10SM CLR M03/M09 A3024 790 63 -1200 340/04 RMK AO2 TSNO $
94908KDBQ DBQ20070317213510803/17/07 21:35:31  5-MIN KDBQ 180335Z AUTO 34005KT 10SM CLR M03/M09 A3024 790 63 -1200 340/05 RMK AO2 TSNO $
94908KDBQ DBQ20070317214010803/17/07 21:40:31  5-MIN KDBQ 180340Z AUTO 34005KT 10SM CLR M02/M10 A3024 780 55 -1000 340/05 RMK AO2 TSNO $
94908KDBQ DBQ20070317214510803/17/07 21:45:31  5-MIN KDBQ 180345Z AUTO 00000KT 10SM CLR M03/M09 A3024 790 63 -1100 000/00 RMK AO2 TSNO $
94908KDBQ DBQ20070317215012503/17/07 21:50:31  5-MIN KDBQ 180350Z AUTO 00000KT 10SM CLR M02/M09 A3024 790 58 -1000 000/00 RMK AO2 SLP253 T10221094 TSNO $
94908KDBQ DBQ20070317215512503/17/07 21:55:31  5-MIN KDBQ 180355Z AUTO 00000KT 10SM CLR M02/M09 A3024 780 58 -1000 000/00 RMK AO2 SLP252 T10171089 TSNO $
94908KDBQ DBQ20070317220010803/17/07 22:00:31  5-MIN KDBQ 180400Z AUTO 00000KT 10SM CLR M02/M09 A3024 780 55 -1000 000/00 RMK AO2 TSNO $
94908KDBQ DBQ20070317220510803/17/07 22:05:31  5-MIN KDBQ 180405Z AUTO 00000KT 10SM CLR M02/M09 A3024 780 55 -1000 000/00 RMK AO2 TSNO $
94908KDBQ DBQ20070317221010703/17/07 22:10:31  5-MIN KDBQ 180410Z AUTO 36003KT 10SM CLR M01/M09 A3024 780 53 -900 360/03 RMK AO2 TSNO $
94908KDBQ DBQ20070317221510703/17/07 22:15:31  5-MIN KDBQ 180415Z AUTO 36004KT 10SM CLR M01/M09 A3024 780 51 -800 360/04 RMK AO2 TSNO $
94908KDBQ DBQ20070317222010703/17/07 22:20:31  5-MIN KDBQ 180420Z AUTO 01004KT 10SM CLR M01/M09 A3024 780 51 -800 010/04 RMK AO2 TSNO $
94908KDBQ DBQ20070317222510703/17/07 22:25:31  5-MIN KDBQ 180425Z AUTO 01004KT 10SM CLR M01/M09 A3024 780 53 -900 010/04 RMK AO2 TSNO $
94908KDBQ DBQ20070317223010703/17/07 22:30:31  5-MIN KDBQ 180430Z AUTO 01003KT 10SM CLR M01/M09 A3024 780 53 -900 010/03 RMK AO2 TSNO $
94908KDBQ DBQ20070317223510603/17/07 22:35:31  5-MIN KDBQ 180435Z AUTO 36003KT 10SM CLR 00/M10 A3024 780 47 -800 360/03 RMK AO2 TSNO $
94908KDBQ DBQ20070317224010603/17/07 22:40:31  5-MIN KDBQ 180440Z AUTO 36003KT 10SM CLR 00/M10 A3024 780 47 -800 360/03 RMK AO2 TSNO $
94908KDBQ DBQ20070317224510703/17/07 22:45:31  5-MIN KDBQ 180445Z AUTO 36003KT 10SM CLR M01/M10 A3024 780 49 -800 360/03 RMK AO2 TSNO $
94908KDBQ DBQ20070317225012403/17/07 22:50:31  5-MIN KDBQ 180450Z AUTO 36003KT 10SM CLR M01/M10 A3024 790 49 -800 360/03 RMK AO2 SLP252 T10061100 TSNO $
94908KDBQ DBQ20070317225512403/17/07 22:55:31  5-MIN KDBQ 180455Z AUTO 36004KT 10SM CLR M01/M09 A3024 790 53 -900 360/04 RMK AO2 SLP252 T10111094 TSNO $
94908KDBQ DBQ20070317230010703/17/07 23:00:31  5-MIN KDBQ 180500Z AUTO 01004KT 10SM CLR M01/M09 A3024 790 53 -900 360/04 RMK AO2 TSNO $
94908KDBQ DBQ20070317230510803/17/07 23:05:31  5-MIN KDBQ 180505Z AUTO 01004KT 10SM CLR M02/M09 A3024 790 55 -1000 010/04 RMK AO2 TSNO $
94908KDBQ DBQ20070317231010703/17/07 23:10:31  5-MIN KDBQ 180510Z AUTO 01004KT 10SM CLR M01/M09 A3024 790 53 -900 010/04 RMK AO2 TSNO $
94908KDBQ DBQ20070317231510803/17/07 23:15:31  5-MIN KDBQ 180515Z AUTO 01004KT 10SM CLR M02/M09 A3024 790 55 -1000 010/04 RMK AO2 TSNO $
94908KDBQ DBQ20070317232010703/17/07 23:20:31  5-MIN KDBQ 180520Z AUTO 01003KT 10SM CLR M01/M09 A3024 790 53 -900 010/03 RMK AO2 TSNO $
94908KDBQ DBQ20070317232510703/17/07 23:25:31  5-MIN KDBQ 180525Z AUTO 01003KT 10SM CLR M01/M10 A3024 790 51 -900 010/03 RMK AO2 TSNO $
94908KDBQ DBQ20070317233010703/17/07 23:30:31  5-MIN KDBQ 180530Z AUTO 36003KT 10SM CLR M01/M09 A3024 790 53 -900 360/03 RMK AO2 TSNO $
94908KDBQ DBQ20070317233510703/17/07 23:35:31  5-MIN KDBQ 180535Z AUTO 36003KT 10SM CLR M01/M09 A3024 790 53 -900 360/03 RMK AO2 TSNO $
94908KDBQ DBQ20070317234010603/17/07 23:40:31  5-MIN KDBQ 180540Z AUTO 36003KT 10SM CLR 00/M10 A3024 790 47 -800 360/03 RMK AO2 TSNO $
94908KDBQ DBQ20070317234510603/17/07 23:45:31  5-MIN KDBQ 180545Z AUTO 36003KT 10SM CLR 00/M10 A3024 790 47 -800 360/03 RMK AO2 TSNO $
94908KDBQ DBQ20070317235015103/17/07 23:50:31  5-MIN KDBQ 180550Z AUTO 36004KT 10SM CLR 00/M09 A3024 790 49 -800 360/04 RMK AO2 SLP251 T00001094 10022 21044 400501061 53007 TSNO $
94908KDBQ DBQ20070317235515103/17/07 23:55:31  5-MIN KDBQ 180555Z AUTO 36004KT 10SM CLR 00/M09 A3024 790 49 -800 360/04 RMK AO2 SLP250 T00001094 10022 21044 400501061 50000 TSNO $
94908KDBQ DBQ20070318000010603/18/07 00:00:38  5-MIN KDBQ 180600Z AUTO 36004KT 10SM CLR 00/M09 A3023 790 49 -800 360/04 RMK AO2 TSNO $
94908KDBQ DBQ20070318000510703/18/07 00:05:31  5-MIN KDBQ 180605Z AUTO 36003KT 10SM CLR M01/M09 A3023 790 51 -800 360/03 RMK AO2 TSNO $
94908KDBQ DBQ20070318001010803/18/07 00:10:31  5-MIN KDBQ 180610Z AUTO 36004KT 10SM CLR M02/M09 A3023 790 58 -1000 360/04 RMK AO2 TSNO $
94908KDBQ DBQ20070318001510803/18/07 00:15:31  5-MIN KDBQ 180615Z AUTO 36004KT 10SM CLR M02/M09 A3023 790 58 -1000 360/04 RMK AO2 TSNO $
94908KDBQ DBQ20070318002010803/18/07 00:20:31  5-MIN KDBQ 180620Z AUTO 36003KT 10SM CLR M03/M09 A3023 790 60 -1100 360/03 RMK AO2 TSNO $
94908KDBQ DBQ20070318002510803/18/07 00:25:31  5-MIN KDBQ 180625Z AUTO 36003KT 10SM CLR M02/M09 A3024 790 58 -1000 360/03 RMK AO2 TSNO $
94908KDBQ DBQ20070318003010803/18/07 00:30:31  5-MIN KDBQ 180630Z AUTO 35004KT 10SM CLR M02/M10 A3023 790 55 -1000 350/04 RMK AO2 TSNO $
94908KDBQ DBQ20070318003510803/18/07 00:35:31  5-MIN KDBQ 180635Z AUTO 36003KT 10SM CLR M02/M10 A3023 790 55 -1000 360/03 RMK AO2 TSNO $
94908KDBQ DBQ20070318004010803/18/07 00:40:31  5-MIN KDBQ 180640Z AUTO 00000KT 10SM CLR M02/M10 A3023 790 55 -1000 000/00 RMK AO2 TSNO $
94908KDBQ DBQ20070318004510803/18/07 00:45:31  5-MIN KDBQ 180645Z AUTO 00000KT 10SM CLR M03/M09 A3023 790 63 -1100 000/00 RMK AO2 TSNO $
94908KDBQ DBQ20070318005012503/18/07 00:50:31  5-MIN KDBQ 180650Z AUTO 00000KT 10SM CLR M03/M07 A3023 790 74 -1200 000/00 RMK AO2 SLP250 T10331072 TSNO $
94908KDBQ DBQ20070318005512503/18/07 00:55:31  5-MIN KDBQ 180655Z AUTO 00000KT 10SM CLR M03/M07 A3023 790 74 -1200 000/00 RMK AO2 SLP250 T10331072 TSNO $
94908KDBQ DBQ20070318010010803/18/07 01:00:31  5-MIN KDBQ 180700Z AUTO 00000KT 10SM CLR M03/M08 A3024 790 68 -1100 000/00 RMK AO2 TSNO $
94908KDBQ DBQ20070318010510803/18/07 01:05:31  5-MIN KDBQ 180705Z AUTO 00000KT 10SM CLR M03/M08 A3023 790 66 -1100 000/00 RMK AO2 TSNO $
94908KDBQ DBQ20070318011010803/18/07 01:10:31  5-MIN KDBQ 180710Z AUTO 00000KT 10SM CLR M03/M08 A3023 790 66 -1100 000/00 RMK AO2 TSNO $
94908KDBQ DBQ20070318011510803/18/07 01:15:31  5-MIN KDBQ 180715Z AUTO 00000KT 10SM CLR M04/M08 A3023 790 74 -1300 000/00 RMK AO2 TSNO $
94908KDBQ DBQ20070318012010803/18/07 01:20:31  5-MIN KDBQ 180720Z AUTO 00000KT 10SM CLR M03/M07 A3023 790 78 -1200 000/00 RMK AO2 TSNO $
94908KDBQ DBQ20070318012510803/18/07 01:25:31  5-MIN KDBQ 180725Z AUTO 00000KT 10SM CLR M03/M07 A3023 790 74 -1200 000/00 RMK AO2 TSNO $
94908KDBQ DBQ20070318013010803/18/07 01:30:31  5-MIN KDBQ 180730Z AUTO 00000KT 10SM CLR M03/M08 A3023 790 71 -1200 000/00 RMK AO2 TSNO $
94908KDBQ DBQ20070318013510803/18/07 01:35:31  5-MIN KDBQ 180735Z AUTO 00000KT 10SM CLR M02/M08 A3023 790 63 -1000 000/00 RMK AO2 TSNO $
94908KDBQ DBQ20070318014010803/18/07 01:40:31  5-MIN KDBQ 180740Z AUTO 00000KT 10SM CLR M02/M09 A3023 790 60 -1000 000/00 RMK AO2 TSNO $
94908KDBQ DBQ20070318014510803/18/07 01:45:31  5-MIN KDBQ 180745Z AUTO 00000KT 10SM CLR M02/M09 A3023 790 60 -1000 000/00 RMK AO2 TSNO $
94908KDBQ DBQ20070318015012503/18/07 01:50:31  5-MIN KDBQ 180750Z AUTO 00000KT 10SM CLR M03/M08 A3023 790 68 -1200 000/00 RMK AO2 SLP250 T10331083 TSNO $
94908KDBQ DBQ20070318015512503/18/07 01:55:31  5-MIN KDBQ 180755Z AUTO 00000KT 10SM CLR M04/M09 A3023 790 71 -1300 000/00 RMK AO2 SLP250 T10441089 TSNO $
94908KDBQ DBQ20070318020010803/18/07 02:00:31  5-MIN KDBQ 180800Z AUTO 00000KT 10SM CLR M04/M08 A3023 790 74 -1300 000/00 RMK AO2 TSNO $
94908KDBQ DBQ20070318020510803/18/07 02:05:31  5-MIN KDBQ 180805Z AUTO 00000KT 10SM CLR M05/M09 A3023 790 74 -1400 000/00 RMK AO2 TSNO $
94908KDBQ DBQ20070318021010803/18/07 02:10:31  5-MIN KDBQ 180810Z AUTO 00000KT 10SM CLR M04/M08 A3023 790 78 -1300 000/00 RMK AO2 TSNO $
94908KDBQ DBQ20070318021510803/18/07 02:15:31  5-MIN KDBQ 180815Z AUTO 00000KT 10SM CLR M04/M08 A3023 800 78 -1300 000/00 RMK AO2 TSNO $
94908KDBQ DBQ20070318022010803/18/07 02:20:31  5-MIN KDBQ 180820Z AUTO 00000KT 10SM CLR M04/M08 A3023 800 74 -1300 000/00 RMK AO2 TSNO $
94908KDBQ DBQ20070318022510803/18/07 02:25:31  5-MIN KDBQ 180825Z AUTO 00000KT 10SM CLR M05/M08 A3023 790 77 -1400 000/00 RMK AO2 TSNO $
94908KDBQ DBQ20070318023010803/18/07 02:30:31  5-MIN KDBQ 180830Z AUTO 00000KT 10SM CLR M06/M09 A3023 800 77 -1500 000/00 RMK AO2 TSNO $
94908KDBQ DBQ20070318023510803/18/07 02:35:31  5-MIN KDBQ 180835Z AUTO 00000KT 10SM CLR M05/M08 A3023 790 77 -1400 000/00 RMK AO2 TSNO $
94908KDBQ DBQ20070318024010803/18/07 02:40:31  5-MIN KDBQ 180840Z AUTO 00000KT 10SM CLR M04/M08 A3023 800 71 -1200 000/00 RMK AO2 TSNO $
94908KDBQ DBQ20070318024510803/18/07 02:45:31  5-MIN KDBQ 180845Z AUTO 00000KT 10SM CLR M03/M08 A3022 800 71 -1200 000/00 RMK AO2 TSNO $
94908KDBQ DBQ20070318025013103/18/07 02:50:31  5-MIN KDBQ 180850Z AUTO 00000KT 10SM CLR M04/M07 A3022 800 81 -1300 000/00 RMK AO2 SLP246 T10441072 50000 TSNO $
94908KDBQ DBQ20070318025513103/18/07 02:55:31  5-MIN KDBQ 180855Z AUTO 00000KT 10SM CLR M05/M08 A3022 800 81 -1400 000/00 RMK AO2 SLP246 T10501078 58005 TSNO $
94908KDBQ DBQ20070318030010803/18/07 03:00:31  5-MIN KDBQ 180900Z AUTO 00000KT 10SM CLR M05/M08 A3022 800 81 -1400 000/00 RMK AO2 TSNO $
94908KDBQ DBQ20070318030510803/18/07 03:05:31  5-MIN KDBQ 180905Z AUTO 00000KT 10SM CLR M04/M08 A3022 800 74 -1300 000/00 RMK AO2 TSNO $
94908KDBQ DBQ20070318031010803/18/07 03:10:31  5-MIN KDBQ 180910Z AUTO 00000KT 10SM CLR M04/M08 A3022 800 71 -1200 000/00 RMK AO2 TSNO $
94908KDBQ DBQ20070318031510803/18/07 03:15:31  5-MIN KDBQ 180915Z AUTO 00000KT 10SM CLR M04/M08 A3022 800 74 -1200 000/00 RMK AO2 TSNO $
94908KDBQ DBQ20070318032010803/18/07 03:20:31  5-MIN KDBQ 180920Z AUTO 00000KT 10SM CLR M04/M07 A3022 800 81 -1200 000/00 RMK AO2 TSNO $
94908KDBQ DBQ20070318032510803/18/07 03:25:31  5-MIN KDBQ 180925Z AUTO 00000KT 10SM CLR M03/M07 A3022 800 78 -1200 000/00 RMK AO2 TSNO $
94908KDBQ DBQ20070318033010803/18/07 03:30:31  5-MIN KDBQ 180930Z AUTO 00000KT 10SM CLR M03/M07 A3022 800 78 -1200 000/00 RMK AO2 TSNO $
94908KDBQ DBQ20070318033510803/18/07 03:35:31  5-MIN KDBQ 180935Z AUTO 00000KT 10SM CLR M03/M07 A3022 800 78 -1200 000/00 RMK AO2 TSNO $
94908KDBQ DBQ20070318034010803/18/07 03:40:31  5-MIN KDBQ 180940Z AUTO 00000KT 10SM CLR M03/M07 A3022 810 75 -1100 000/00 RMK AO2 TSNO $
94908KDBQ DBQ20070318034511103/18/07 03:45:31  5-MIN KDBQ 180945Z AUTO 00000KT 10SM FEW120 M03/M07 A3022 810 71 -1100 000/00 RMK AO2 TSNO $
94908KDBQ DBQ20070318035012803/18/07 03:50:31  5-MIN KDBQ 180950Z AUTO 00000KT 10SM FEW120 M03/M07 A3021 810 75 -1100 000/00 RMK AO2 SLP243 T10281067 TSNO $
94908KDBQ DBQ20070318035512803/18/07 03:55:31  5-MIN KDBQ 180955Z AUTO 00000KT 10SM FEW120 M03/M06 A3021 810 78 -1100 000/00 RMK AO2 SLP243 T10281061 TSNO $
94908KDBQ DBQ20070318040011103/18/07 04:00:31  5-MIN KDBQ 181000Z AUTO 00000KT 10SM FEW120 M03/M06 A3021 810 78 -1100 000/00 RMK AO2 TSNO $
94908KDBQ DBQ20070318040511103/18/07 04:05:31  5-MIN KDBQ 181005Z AUTO 00000KT 10SM FEW120 M03/M07 A3021 810 78 -1200 000/00 RMK AO2 TSNO $
94908KDBQ DBQ20070318041010803/18/07 04:10:31  5-MIN KDBQ 181010Z AUTO 00000KT 10SM CLR M04/M07 A3021 810 78 -1200 000/00 RMK AO2 TSNO $
94908KDBQ DBQ20070318041510803/18/07 04:15:31  5-MIN KDBQ 181015Z AUTO 00000KT 10SM CLR M03/M08 A3022 810 71 -1200 000/00 RMK AO2 TSNO $
94908KDBQ DBQ20070318042010803/18/07 04:20:31  5-MIN KDBQ 181020Z AUTO 00000KT 10SM CLR M03/M07 A3022 800 74 -1200 000/00 RMK AO2 TSNO $
94908KDBQ DBQ20070318042510803/18/07 04:25:31  5-MIN KDBQ 181025Z AUTO 00000KT 10SM CLR M03/M08 A3022 800 71 -1200 000/00 RMK AO2 TSNO $
94908KDBQ DBQ20070318043010803/18/07 04:30:31  5-MIN KDBQ 181030Z AUTO 00000KT 10SM CLR M03/M08 A3022 800 68 -1200 000/00 RMK AO2 TSNO $
94908KDBQ DBQ20070318043510803/18/07 04:35:31  5-MIN KDBQ 181035Z AUTO 00000KT 10SM CLR M04/M08 A3022 800 74 -1200 000/00 RMK AO2 TSNO $
94908KDBQ DBQ20070318044010803/18/07 04:40:31  5-MIN KDBQ 181040Z AUTO 00000KT 10SM CLR M04/M07 A3022 800 78 -1200 000/00 RMK AO2 TSNO $
94908KDBQ DBQ20070318044510803/18/07 04:45:31  5-MIN KDBQ 181045Z AUTO 00000KT 10SM CLR M04/M07 A3022 800 78 -1200 000/00 RMK AO2 TSNO $
94908KDBQ DBQ20070318045012503/18/07 04:50:31  5-MIN KDBQ 181050Z AUTO 00000KT 10SM CLR M04/M07 A3022 800 81 -1200 000/00 RMK AO2 SLP247 T10391067 TSNO $
94908KDBQ DBQ20070318045512503/18/07 04:55:31  5-MIN KDBQ 181055Z AUTO 00000KT 10SM CLR M04/M06 A3022 800 85 -1200 000/00 RMK AO2 SLP247 T10391061 TSNO $
94908KDBQ DBQ20070318050009703/18/07 05:00:31  5-MIN KDBQ 181100Z 00000KT 9SM CLR M04/M07 A3022 800 84 -1300 000/00 RMK AO2 $
94908KDBQ DBQ20070318050509703/18/07 05:05:31  5-MIN KDBQ 181105Z 00000KT 9SM CLR M04/M07 A3022 800 84 -1300 000/00 RMK AO2 $
94908KDBQ DBQ20070318051009703/18/07 05:10:31  5-MIN KDBQ 181110Z 00000KT 9SM CLR M04/M07 A3022 800 81 -1300 000/00 RMK AO2 $
94908KDBQ DBQ20070318051509803/18/07 05:15:31  5-MIN KDBQ 181115Z 00000KT 10SM CLR M04/M08 A3022 800 78 -1300 000/00 RMK AO2 $
94908KDBQ DBQ20070318052009803/18/07 05:20:31  5-MIN KDBQ 181120Z 00000KT 10SM CLR M04/M08 A3023 800 78 -1300 000/00 RMK AO2 $
94908KDBQ DBQ20070318052509803/18/07 05:25:31  5-MIN KDBQ 181125Z 11003KT 10SM CLR M04/M08 A3022 800 74 -1300 110/03 RMK AO2 $
94908KDBQ DBQ20070318053009803/18/07 05:30:31  5-MIN KDBQ 181130Z 11004KT 10SM CLR M04/M09 A3022 800 68 -1200 110/04 RMK AO2 $
94908KDBQ DBQ20070318053509803/18/07 05:35:31  5-MIN KDBQ 181135Z 12004KT 10SM CLR M03/M09 A3022 800 65 -1200 110/04 RMK AO2 $
94908KDBQ DBQ20070318054009803/18/07 05:40:31  5-MIN KDBQ 181140Z 11004KT 10SM CLR M03/M09 A3022 800 65 -1200 110/04 RMK AO2 $
94908KDBQ DBQ20070318054509803/18/07 05:45:31  5-MIN KDBQ 181145Z 11004KT 10SM CLR M03/M09 A3023 800 65 -1200 110/04 RMK AO2 $
94908KDBQ DBQ20070318055013303/18/07 05:50:31  5-MIN KDBQ 181150Z 12004KT 10SM CLR M03/M09 A3023 800 65 -1200 110/04 RMK AO2 SLP249 T10331089 10000 21056 58005 $
94908KDBQ DBQ20070318055513303/18/07 05:55:31  5-MIN KDBQ 181155Z 11004KT 10SM CLR M03/M09 A3023 800 60 -1100 110/04 RMK AO2 SLP249 T10281094 10000 21056 53002 $
94908KDBQ DBQ20070318060009703/18/07 06:00:31  5-MIN KDBQ 181200Z 11004KT 9SM CLR M03/M09 A3023 800 60 -1100 110/04 RMK AO2 $
94908KDBQ DBQ20070318060510003/18/07 06:05:31  5-MIN KDBQ 181205Z 11003KT 6SM HZ CLR M03/M09 A3023 790 60 -1100 110/03 RMK AO2 $
94908KDBQ DBQ20070318061009703/18/07 06:10:31  5-MIN KDBQ 181210Z 11003KT 7SM CLR M03/M09 A3023 790 63 -1100 110/03 RMK AO2 $
94908KDBQ DBQ20070318061509703/18/07 06:15:31  5-MIN KDBQ 181215Z 11003KT 9SM CLR M03/M09 A3023 790 60 -1100 110/03 RMK AO2 $
94908KDBQ DBQ20070318062009803/18/07 06:20:31  5-MIN KDBQ 181220Z 00000KT 10SM CLR M03/M09 A3023 790 65 -1200 000/00 RMK AO2 $
94908KDBQ DBQ20070318062509703/18/07 06:25:31  5-MIN KDBQ 181225Z 00000KT 8SM CLR M04/M09 A3023 790 68 -1300 000/00 RMK AO2 $
94908KDBQ DBQ20070318063009703/18/07 06:30:31  5-MIN KDBQ 181230Z 11003KT 7SM CLR M04/M09 A3023 790 68 -1300 100/03 RMK AO2 $
94908KDBQ DBQ20070318063509703/18/07 06:35:31  5-MIN KDBQ 181235Z 00000KT 8SM CLR M05/M09 A3024 790 71 -1400 000/00 RMK AO2 $
94908KDBQ DBQ20070318064009703/18/07 06:40:31  5-MIN KDBQ 181240Z 00000KT 8SM CLR M04/M09 A3024 790 71 -1300 000/00 RMK AO2 $
94908KDBQ DBQ20070318064509703/18/07 06:45:31  5-MIN KDBQ 181245Z 00000KT 9SM CLR M03/M09 A3024 780 65 -1200 000/00 RMK AO2 $
94908KDBQ DBQ20070318065011403/18/07 06:50:31  5-MIN KDBQ 181250Z 00000KT 9SM CLR M03/M09 A3024 780 63 -1100 000/00 RMK AO2 SLP254 T10281089 $
94908KDBQ DBQ20070318065511403/18/07 06:55:31  5-MIN KDBQ 181255Z 00000KT 9SM CLR M02/M09 A3024 780 60 -1000 000/00 RMK AO2 SLP254 T10221089 $
94908KDBQ DBQ20070318070009803/18/07 07:00:31  5-MIN KDBQ 181300Z 12003KT 10SM CLR M02/M08 A3024 780 60 -1000 120/03 RMK AO2 $
94908KDBQ DBQ20070318070509803/18/07 07:05:31  5-MIN KDBQ 181305Z 11003KT 10SM CLR M02/M08 A3024 780 63 -1000 110/03 RMK AO2 $
94908KDBQ DBQ20070318071009803/18/07 07:10:31  5-MIN KDBQ 181310Z 10003KT 10SM CLR M02/M07 A3024 780 66 -1000 100/03 RMK AO2 $
94908KDBQ DBQ20070318071509703/18/07 07:15:31  5-MIN KDBQ 181315Z 10003KT 10SM CLR M01/M07 A3024 780 63 -900 100/03 RMK AO2 $
94908KDBQ DBQ20070318072009703/18/07 07:20:31  5-MIN KDBQ 181320Z 11003KT 10SM CLR M01/M07 A3024 780 61 -800 110/03 RMK AO2 $
94908KDBQ DBQ20070318072509703/18/07 07:25:31  5-MIN KDBQ 181325Z 11004KT 10SM CLR M01/M07 A3025 780 63 -800 110/04 RMK AO2 $
94908KDBQ DBQ20070318073009603/18/07 07:30:31  5-MIN KDBQ 181330Z 14003KT 10SM CLR 00/M06 A3025 780 63 -800 130/03 RMK AO2 $
94908KDBQ DBQ20070318073509603/18/07 07:35:31  5-MIN KDBQ 181335Z 13004KT 10SM CLR 00/M07 A3025 780 58 -800 130/04 RMK AO2 $
94908KDBQ DBQ20070318074009603/18/07 07:40:31  5-MIN KDBQ 181340Z 14004KT 10SM CLR 01/M07 A3025 780 56 -700 140/04 RMK AO2 $
94908KDBQ DBQ20070318074509603/18/07 07:45:31  5-MIN KDBQ 181345Z 14005KT 10SM CLR 01/M07 A3025 780 54 -600 140/05 RMK AO2 $
94908KDBQ DBQ20070318075011303/18/07 07:50:31  5-MIN KDBQ 181350Z 15005KT 10SM CLR 01/M08 A3025 770 51 -600 150/05 RMK AO2 SLP256 T00111078 $
94908KDBQ DBQ20070318075511303/18/07 07:55:31  5-MIN KDBQ 181355Z 16005KT 10SM CLR 01/M07 A3025 770 54 -600 160/05 RMK AO2 SLP256 T00111072 $
94908KDBQ DBQ20070318080009603/18/07 08:00:31  5-MIN KDBQ 181400Z 17006KT 10SM CLR 01/M08 A3025 770 51 -600 160/06 RMK AO2 $
94908KDBQ DBQ20070318080509603/18/07 08:05:31  5-MIN KDBQ 181405Z 15006KT 10SM CLR 01/M08 A3025 770 51 -600 150/06 RMK AO2 $
94908KDBQ DBQ20070318081009603/18/07 08:10:31  5-MIN KDBQ 181410Z 16005KT 10SM CLR 02/M08 A3025 770 49 -600 160/05 RMK AO2 $
94908KDBQ DBQ20070318081509603/18/07 08:15:31  5-MIN KDBQ 181415Z 16006KT 10SM CLR 02/M08 A3025 770 49 -600 160/06 RMK AO2 $
94908KDBQ DBQ20070318082009603/18/07 08:20:31  5-MIN KDBQ 181420Z 15006KT 10SM CLR 02/M08 A3025 770 49 -600 150/06 RMK AO2 $
94908KDBQ DBQ20070318082509603/18/07 08:25:31  5-MIN KDBQ 181425Z 16005KT 10SM CLR 02/M07 A3025 770 50 -500 160/05 RMK AO2 $
94908KDBQ DBQ20070318083009603/18/07 08:30:31  5-MIN KDBQ 181430Z 17005KT 10SM CLR 02/M07 A3025 770 50 -500 170/05 RMK AO2 $
94908KDBQ DBQ20070318083509603/18/07 08:35:31  5-MIN KDBQ 181435Z 17007KT 10SM CLR 02/M07 A3026 770 50 -500 160/07 RMK AO2 $
94908KDBQ DBQ20070318084009603/18/07 08:40:31  5-MIN KDBQ 181440Z 19008KT 10SM CLR 03/M07 A3026 770 48 -400 190/08 RMK AO2 $
94908KDBQ DBQ20070318084509603/18/07 08:45:31  5-MIN KDBQ 181445Z 19008KT 10SM CLR 03/M08 A3025 770 46 -400 190/08 RMK AO2 $
94908KDBQ DBQ20070318085011903/18/07 08:50:31  5-MIN KDBQ 181450Z 18007KT 10SM CLR 03/M08 A3026 770 44 -400 180/07 RMK AO2 SLP258 T00281083 53002 $
94908KDBQ DBQ20070318085511903/18/07 08:55:31  5-MIN KDBQ 181455Z 17007KT 10SM CLR 03/M08 A3025 770 44 -400 170/07 RMK AO2 SLP257 T00281083 51008 $
94908KDBQ DBQ20070318090009603/18/07 09:00:31  5-MIN KDBQ 181500Z 18008KT 10SM CLR 03/M08 A3025 770 44 -400 180/08 RMK AO2 $
94908KDBQ DBQ20070318090509603/18/07 09:05:31  5-MIN KDBQ 181505Z 19008KT 10SM CLR 03/M08 A3025 770 42 -400 190/08 RMK AO2 $
94908KDBQ DBQ20070318091009603/18/07 09:10:31  5-MIN KDBQ 181510Z 18008KT 10SM CLR 03/M08 A3025 780 44 -400 180/08 RMK AO2 $
94908KDBQ DBQ20070318091509603/18/07 09:15:31  5-MIN KDBQ 181515Z 18009KT 10SM CLR 03/M07 A3025 780 46 -400 180/09 RMK AO2 $
94908KDBQ DBQ20070318092009603/18/07 09:20:31  5-MIN KDBQ 181520Z 19009KT 10SM CLR 03/M08 A3024 780 46 -400 190/09 RMK AO2 $
94908KDBQ DBQ20070318092509603/18/07 09:25:31  5-MIN KDBQ 181525Z 18009KT 10SM CLR 03/M07 A3024 780 46 -400 180/09 RMK AO2 $
94908KDBQ DBQ20070318093009603/18/07 09:30:31  5-MIN KDBQ 181530Z 18008KT 10SM CLR 03/M07 A3024 780 46 -400 180/08 RMK AO2 $
94908KDBQ DBQ20070318093509603/18/07 09:35:31  5-MIN KDBQ 181535Z 17008KT 10SM CLR 03/M07 A3024 780 46 -400 170/08 RMK AO2 $
94908KDBQ DBQ20070318094009603/18/07 09:40:31  5-MIN KDBQ 181540Z 17008KT 10SM CLR 03/M07 A3024 780 48 -400 170/08 RMK AO2 $
94908KDBQ DBQ20070318094509603/18/07 09:45:31  5-MIN KDBQ 181545Z 18010KT 10SM CLR 04/M06 A3024 780 48 -300 180/10 RMK AO2 $
94908KDBQ DBQ20070318095011303/18/07 09:50:31  5-MIN KDBQ 181550Z 18008KT 10SM CLR 04/M07 A3024 780 46 -300 180/08 RMK AO2 SLP252 T00391067 $
94908KDBQ DBQ20070318095511303/18/07 09:55:31  5-MIN KDBQ 181555Z 19009KT 10SM CLR 04/M06 A3024 790 48 -300 190/09 RMK AO2 SLP251 T00391061 $
94908KDBQ DBQ20070318100009603/18/07 10:00:31  5-MIN KDBQ 181600Z 19008KT 10SM CLR 04/M07 A3024 790 46 -300 190/08 RMK AO2 $
94908KDBQ DBQ20070318100509603/18/07 10:05:31  5-MIN KDBQ 181605Z 18010KT 10SM CLR 04/M06 A3023 790 48 -300 180/10 RMK AO2 $
94908KDBQ DBQ20070318101009603/18/07 10:10:31  5-MIN KDBQ 181610Z 19010KT 10SM CLR 04/M07 A3023 790 46 -300 190/10 RMK AO2 $
94908KDBQ DBQ20070318101509603/18/07 10:15:31  5-MIN KDBQ 181615Z 21010KT 10SM CLR 04/M07 A3023 790 46 -300 210/10 RMK AO2 $
94908KDBQ DBQ20070318102009603/18/07 10:20:31  5-MIN KDBQ 181620Z 22011KT 10SM CLR 04/M07 A3023 790 44 -200 220/11 RMK AO2 $
94908KDBQ DBQ20070318102509603/18/07 10:25:31  5-MIN KDBQ 181625Z 19012KT 10SM CLR 04/M06 A3023 800 46 -200 190/12 RMK AO2 $
94908KDBQ DBQ20070318103009603/18/07 10:30:31  5-MIN KDBQ 181630Z 22009KT 10SM CLR 04/M07 A3022 800 44 -200 220/09 RMK AO2 $
94908KDBQ DBQ20070318103509603/18/07 10:35:31  5-MIN KDBQ 181635Z 22010KT 10SM CLR 05/M06 A3022 800 46 -100 220/10 RMK AO2 $
94908KDBQ DBQ20070318104009603/18/07 10:40:31  5-MIN KDBQ 181640Z 18008KT 10SM CLR 04/M06 A3022 800 46 -200 180/08 RMK AO2 $
94908KDBQ DBQ20070318104509603/18/07 10:45:31  5-MIN KDBQ 181645Z 18011KT 10SM CLR 05/M06 A3021 810 44 -100 180/11 RMK AO2 $
94908KDBQ DBQ20070318105011303/18/07 10:50:31  5-MIN KDBQ 181650Z 19012KT 10SM CLR 05/M06 A3021 810 44 -100 190/12 RMK AO2 SLP241 T00501061 $
94908KDBQ DBQ20070318105511303/18/07 10:55:31  5-MIN KDBQ 181655Z 20012KT 10SM CLR 05/M06 A3021 810 44 -100 200/12 RMK AO2 SLP241 T00501061 $
94908KDBQ DBQ20070318110009603/18/07 11:00:31  5-MIN KDBQ 181700Z 18011KT 10SM CLR 05/M07 A3021 810 42 -100 180/11 RMK AO2 $
94908KDBQ DBQ20070318110509603/18/07 11:05:31  5-MIN KDBQ 181705Z 19013KT 10SM CLR 05/M06 A3021 810 44 -100 190/13 RMK AO2 $
94908KDBQ DBQ20070318111009603/18/07 11:10:31  5-MIN KDBQ 181710Z 18010KT 10SM CLR 05/M06 A3021 810 44 -100 180/10 RMK AO2 $
94908KDBQ DBQ20070318111509603/18/07 11:15:31  5-MIN KDBQ 181715Z 18012KT 10SM CLR 05/M06 A3020 820 46 -100 180/12 RMK AO2 $
94908KDBQ DBQ20070318112009603/18/07 11:20:31  5-MIN KDBQ 181720Z 20012KT 10SM CLR 05/M06 A3020 820 46 -100 200/12 RMK AO2 $
94908KDBQ DBQ20070318112509303/18/07 11:25:31  5-MIN KDBQ 181725Z 20012KT 10SM CLR 06/M06 A3020 820 43 0 200/12 RMK AO2 $
94908KDBQ DBQ20070318113009303/18/07 11:30:31  5-MIN KDBQ 181730Z 19011KT 10SM CLR 06/M06 A3020 820 44 0 180/11 RMK AO2 $
94908KDBQ DBQ20070318113509603/18/07 11:35:31  5-MIN KDBQ 181735Z 18013KT 10SM CLR 05/M06 A3019 830 46 -100 170/13 RMK AO2 $
94908KDBQ DBQ20070318114009903/18/07 11:40:31  5-MIN KDBQ 181740Z 20014G17KT 10SM CLR 06/M05 A3019 830 46 0 200/14G17 RMK AO2 $
94908KDBQ DBQ20070318114509903/18/07 11:45:31  5-MIN KDBQ 181745Z 16013G17KT 10SM CLR 06/M06 A3019 830 44 0 160/13G17 RMK AO2 $
94908KDBQ DBQ20070318115012803/18/07 11:50:31  5-MIN KDBQ 181750Z 17013KT 10SM CLR 06/M06 A3019 830 43 0 170/13 RMK AO2 SLP234 T00561061 10056 21050 51008 $
94908KDBQ DBQ20070318115512803/18/07 11:55:31  5-MIN KDBQ 181755Z 18011KT 10SM CLR 06/M06 A3019 830 43 0 180/11 RMK AO2 SLP234 T00561061 10056 21050 58020 $
94908KDBQ DBQ20070318120009303/18/07 12:00:31  5-MIN KDBQ 181800Z 17010KT 10SM CLR 06/M06 A3019 830 43 0 170/10 RMK AO2 $
94908KDBQ DBQ20070318120509903/18/07 12:05:31  5-MIN KDBQ 181805Z 18012G17KT 10SM CLR 06/M05 A3019 830 45 0 180/12G17 RMK AO2 $
94908KDBQ DBQ20070318121009903/18/07 12:10:31  5-MIN KDBQ 181810Z 18014G17KT 10SM CLR 06/M05 A3018 830 45 0 180/14G17 RMK AO2 $
94908KDBQ DBQ20070318121509303/18/07 12:15:31  5-MIN KDBQ 181815Z 16011KT 10SM CLR 06/M06 A3018 840 44 0 160/11 RMK AO2 $
94908KDBQ DBQ20070318122009303/18/07 12:20:31  5-MIN KDBQ 181820Z 18013KT 10SM CLR 06/M05 A3018 840 45 0 180/13 RMK AO2 $
94908KDBQ DBQ20070318122509303/18/07 12:25:31  5-MIN KDBQ 181825Z 17012KT 10SM CLR 06/M05 A3018 840 45 0 170/12 RMK AO2 $
94908KDBQ DBQ20070318123009303/18/07 12:30:31  5-MIN KDBQ 181830Z 17015KT 10SM CLR 06/M05 A3017 840 45 0 170/15 RMK AO2 $
94908KDBQ DBQ20070318123509303/18/07 12:35:31  5-MIN KDBQ 181835Z 17013KT 10SM CLR 06/M06 A3017 850 43 0 170/13 RMK AO2 $
94908KDBQ DBQ20070318124009903/18/07 12:40:31  5-MIN KDBQ 181840Z 18011G19KT 10SM CLR 06/M06 A3017 850 43 0 170/11G19 RMK AO2 $
94908KDBQ DBQ20070318124509903/18/07 12:45:31  5-MIN KDBQ 181845Z 17013G19KT 10SM CLR 06/M06 A3017 850 43 0 170/13G19 RMK AO2 $
94908KDBQ DBQ20070318125011003/18/07 12:50:31  5-MIN KDBQ 181850Z 18012KT 10SM CLR 06/M06 A3016 850 43 0 180/12 RMK AO2 SLP226 T00611056 $
94908KDBQ DBQ20070318125511003/18/07 12:55:31  5-MIN KDBQ 181855Z 17014KT 10SM CLR 06/M05 A3016 860 45 0 170/14 RMK AO2 SLP225 T00611050 $
94908KDBQ DBQ20070318130009503/18/07 13:00:31  5-MIN KDBQ 181900Z 19014KT 10SM CLR 07/M06 A3016 860 41 100 190/14 RMK AO2 $
94908KDBQ DBQ20070318130509303/18/07 13:05:31  5-MIN KDBQ 181905Z 17014KT 10SM CLR 06/M06 A3015 860 41 0 170/14 RMK AO2 $
94908KDBQ DBQ20070318131009903/18/07 13:10:31  5-MIN KDBQ 181910Z 17012G17KT 10SM CLR 06/M06 A3015 870 43 0 170/12G17 RMK AO2 $
94908KDBQ DBQ20070318131509903/18/07 13:15:31  5-MIN KDBQ 181915Z 17016G20KT 10SM CLR 06/M06 A3014 870 43 0 170/16G20 RMK AO2 $
94908KDBQ DBQ20070318132009503/18/07 13:20:31  5-MIN KDBQ 181920Z 18011KT 10SM CLR 06/M06 A3014 870 41 100 180/11 RMK AO2 $
94908KDBQ DBQ20070318132509503/18/07 13:25:31  5-MIN KDBQ 181925Z 18012KT 10SM CLR 07/M06 A3014 880 41 100 180/12 RMK AO2 $
94908KDBQ DBQ20070318133009503/18/07 13:30:31  5-MIN KDBQ 181930Z 17014KT 10SM CLR 07/M05 A3014 880 43 100 170/14 RMK AO2 $
94908KDBQ DBQ20070318133509503/18/07 13:35:31  5-MIN KDBQ 181935Z 19016KT 10SM CLR 07/M06 A3013 880 41 100 190/16 RMK AO2 $
94908KDBQ DBQ20070318134010103/18/07 13:40:31  5-MIN KDBQ 181940Z 18014G18KT 10SM CLR 07/M06 A3013 880 39 100 180/14G18 RMK AO2 $
94908KDBQ DBQ20070318134509503/18/07 13:45:31  5-MIN KDBQ 181945Z 18013KT 10SM CLR 07/M06 A3013 880 39 100 180/13 RMK AO2 $
94908KDBQ DBQ20070318135011203/18/07 13:50:31  5-MIN KDBQ 181950Z 18013KT 10SM CLR 07/M05 A3013 890 43 100 180/13 RMK AO2 SLP214 T00671050 $
94908KDBQ DBQ20070318135511203/18/07 13:55:31  5-MIN KDBQ 181955Z 19012KT 10SM CLR 07/M05 A3012 890 43 100 180/12 RMK AO2 SLP211 T00671050 $
94908KDBQ DBQ20070318140009503/18/07 14:00:31  5-MIN KDBQ 182000Z 18015KT 10SM CLR 07/M05 A3012 890 43 100 180/15 RMK AO2 $
94908KDBQ DBQ20070318140509503/18/07 14:05:31  5-MIN KDBQ 182005Z 17016KT 10SM CLR 06/M06 A3012 900 41 100 170/16 RMK AO2 $
94908KDBQ DBQ20070318141009503/18/07 14:10:31  5-MIN KDBQ 182010Z 19015KT 10SM CLR 06/M06 A3011 900 41 100 190/15 RMK AO2 $
94908KDBQ DBQ20070318141510103/18/07 14:15:31  5-MIN KDBQ 182015Z 18015G19KT 10SM CLR 07/M07 A3011 900 38 200 180/15G19 RMK AO2 $
94908KDBQ DBQ20070318142010103/18/07 14:20:31  5-MIN KDBQ 182020Z 18014G18KT 10SM CLR 07/M06 A3011 910 39 200 180/14G18 RMK AO2 $
94908KDBQ DBQ20070318142509503/18/07 14:25:31  5-MIN KDBQ 182025Z 18013KT 10SM CLR 07/M06 A3010 910 38 200 180/13 RMK AO2 $
94908KDBQ DBQ20070318143009503/18/07 14:30:31  5-MIN KDBQ 182030Z 16012KT 10SM CLR 07/M06 A3010 910 41 200 160/12 RMK AO2 $
94908KDBQ DBQ20070318143509503/18/07 14:35:31  5-MIN KDBQ 182035Z 17013KT 10SM CLR 07/M05 A3010 910 41 200 170/13 RMK AO2 $
94908KDBQ DBQ20070318144009503/18/07 14:40:31  5-MIN KDBQ 182040Z 18014KT 10SM CLR 07/M06 A3010 910 40 200 180/14 RMK AO2 $
94908KDBQ DBQ20070318144509503/18/07 14:45:31  5-MIN KDBQ 182045Z 16013KT 10SM CLR 07/M06 A3010 920 40 200 160/13 RMK AO2 $
94908KDBQ DBQ20070318145012403/18/07 14:50:31  5-MIN KDBQ 182050Z 18016G19KT 10SM CLR 07/M05 A3009 920 41 200 180/16G19 RMK AO2 SLP201 T00721050 58020 $
94908KDBQ DBQ20070318145512403/18/07 14:55:31  5-MIN KDBQ 182055Z 18014G19KT 10SM CLR 07/M06 A3009 920 40 200 180/14G19 RMK AO2 SLP200 T00721056 58033 $
94908KDBQ DBQ20070318150009503/18/07 15:00:31  5-MIN KDBQ 182100Z 17014KT 10SM CLR 07/M05 A3009 930 41 300 160/14 RMK AO2 $
94908KDBQ DBQ20070318150510103/18/07 15:05:31  5-MIN KDBQ 182105Z 17017G20KT 10SM CLR 07/M06 A3008 930 41 200 160/17G20 RMK AO2 $
94908KDBQ DBQ20070318151010103/18/07 15:10:31  5-MIN KDBQ 182110Z 18015G20KT 10SM CLR 07/M06 A3008 930 41 200 170/15G20 RMK AO2 $
94908KDBQ DBQ20070318151509503/18/07 15:15:31  5-MIN KDBQ 182115Z 17015KT 10SM CLR 07/M06 A3008 930 41 200 170/15 RMK AO2 $
94908KDBQ DBQ20070318152010103/18/07 15:20:31  5-MIN KDBQ 182120Z 18016G21KT 10SM CLR 07/M06 A3008 930 41 200 180/16G21 RMK AO2 $
94908KDBQ DBQ20070318152509503/18/07 15:25:31  5-MIN KDBQ 182125Z 17017KT 10SM CLR 07/M06 A3008 930 41 200 170/17 RMK AO2 $
94908KDBQ DBQ20070318153010103/18/07 15:30:31  5-MIN KDBQ 182130Z 16014G22KT 10SM CLR 07/M06 A3008 930 41 200 160/14G22 RMK AO2 $
94908KDBQ DBQ20070318153509503/18/07 15:35:31  5-MIN KDBQ 182135Z 16015KT 10SM CLR 07/M05 A3008 940 43 200 160/15 RMK AO2 $
94908KDBQ DBQ20070318154009503/18/07 15:40:31  5-MIN KDBQ 182140Z 17018KT 10SM CLR 07/M05 A3007 940 41 300 170/18 RMK AO2 $
94908KDBQ DBQ20070318154509503/18/07 15:45:31  5-MIN KDBQ 182145Z 18015KT 10SM CLR 07/M06 A3007 940 41 200 180/15 RMK AO2 $
94908KDBQ DBQ20070318155011503/18/07 15:50:31  5-MIN KDBQ 182150Z 18015KT 10SM FEW100 07/M06 A3007 940 39 200 180/15 RMK AO2 SLP193 T00671061 $
94908KDBQ DBQ20070318155511503/18/07 15:55:31  5-MIN KDBQ 182155Z 17017KT 10SM FEW100 06/M06 A3007 940 43 100 170/17 RMK AO2 SLP193 T00611056 $
94908KDBQ DBQ20070318160009803/18/07 16:00:31  5-MIN KDBQ 182200Z 17017KT 10SM FEW100 07/M06 A3007 940 41 200 170/17 RMK AO2 $
94908KDBQ DBQ20070318160509803/18/07 16:05:31  5-MIN KDBQ 182205Z 17014KT 10SM SCT100 07/M05 A3006 950 43 200 170/14 RMK AO2 $
94908KDBQ DBQ20070318161009803/18/07 16:10:31  5-MIN KDBQ 182210Z 17015KT 10SM BKN100 06/M06 A3006 950 43 100 160/15 RMK AO2 $
94908KDBQ DBQ20070318161509803/18/07 16:15:31  5-MIN KDBQ 182215Z 17015KT 10SM BKN100 06/M05 A3006 950 45 100 170/15 RMK AO2 $
94908KDBQ DBQ20070318162010403/18/07 16:20:31  5-MIN KDBQ 182220Z 17014G21KT 10SM BKN100 06/M05 A3006 950 45 100 160/14G21 RMK AO2 $
94908KDBQ DBQ20070318162510403/18/07 16:25:31  5-MIN KDBQ 182225Z 17013G21KT 10SM OVC100 06/M04 A3006 950 46 100 170/13G21 RMK AO2 $
94908KDBQ DBQ20070318163009803/18/07 16:30:31  5-MIN KDBQ 182230Z 18012KT 10SM OVC100 06/M04 A3006 950 46 100 170/12 RMK AO2 $
94908KDBQ DBQ20070318163509803/18/07 16:35:31  5-MIN KDBQ 182235Z 17013KT 10SM OVC095 06/M04 A3006 950 46 100 170/13 RMK AO2 $
94908KDBQ DBQ20070318164009803/18/07 16:40:31  5-MIN KDBQ 182240Z 17014KT 10SM OVC100 06/M04 A3005 960 46 200 170/14 RMK AO2 $
94908KDBQ DBQ20070318164509803/18/07 16:45:31  5-MIN KDBQ 182245Z 17015KT 10SM OVC100 06/M04 A3005 960 46 200 170/15 RMK AO2 $
94908KDBQ DBQ20070318165011503/18/07 16:50:31  5-MIN KDBQ 182250Z 17013KT 10SM OVC100 06/M04 A3004 960 46 200 160/13 RMK AO2 SLP185 T00611044 $
94908KDBQ DBQ20070318165511503/18/07 16:55:31  5-MIN KDBQ 182255Z 17014KT 10SM OVC100 06/M04 A3004 970 46 200 160/14 RMK AO2 SLP184 T00611044 $
94908KDBQ DBQ20070318170011103/18/07 17:00:31  5-MIN KDBQ 182300Z 17010G18KT 10SM BKN090 OVC110 06/M04 A3005 960 46 200 170/10G18 RMK AO2 $
94908KDBQ DBQ20070318170510503/18/07 17:05:31  5-MIN KDBQ 182305Z 17010KT 10SM BKN090 OVC110 06/M04 A3005 960 50 100 170/10 RMK AO2 $
94908KDBQ DBQ20070318171010503/18/07 17:10:31  5-MIN KDBQ 182310Z 17011KT 10SM BKN090 OVC110 06/M04 A3005 960 48 200 170/11 RMK AO2 $
94908KDBQ DBQ20070318171510503/18/07 17:15:31  5-MIN KDBQ 182315Z 18011KT 10SM BKN085 OVC110 06/M04 A3005 960 46 200 180/11 RMK AO2 $
94908KDBQ DBQ20070318172009803/18/07 17:20:31  5-MIN KDBQ 182320Z 18011KT 10SM OVC085 06/M04 A3006 950 48 100 180/11 RMK AO2 $
94908KDBQ DBQ20070318172509803/18/07 17:25:31  5-MIN KDBQ 182325Z 18011KT 10SM OVC085 06/M04 A3006 950 48 100 170/11 RMK AO2 $
94908KDBQ DBQ20070318173009803/18/07 17:30:31  5-MIN KDBQ 182330Z 17010KT 10SM OVC085 06/M04 A3004 960 48 100 170/10 RMK AO2 $
94908KDBQ DBQ20070318173510503/18/07 17:35:31  5-MIN KDBQ 182335Z 17010KT 10SM SCT070 OVC085 06/M04 A3004 970 48 100 170/10 RMK AO2 $
94908KDBQ DBQ20070318174011203/18/07 17:40:31  5-MIN KDBQ 182340Z 17010KT 10SM BKN065 OVC090 06/M03 A3003 980 53 100 160/10 RMK AO2 PRESFR $
94908KDBQ DBQ20070318174510503/18/07 17:45:31  5-MIN KDBQ 182345Z 16011KT 10SM SCT065 OVC090 06/M04 A3003 980 50 100 160/11 RMK AO2 $
94908KDBQ DBQ20070318175014003/18/07 17:50:31  5-MIN KDBQ 182350Z 16011KT 10SM SCT065 OVC095 06/M04 A3002 990 50 100 160/11 RMK AO2 SLP176 T00561039 10072 20056 58033 $
94908KDBQ DBQ20070318175515703/18/07 17:55:31  5-MIN KDBQ 182355Z AUTO 16012KT 10SM SCT065 SCT080 OVC095 06/M04 A3002 990 48 100 160/12 RMK AO2 SLP176 T00561044 10072 20056 58024 TSNO $
94908KDBQ DBQ20070318180012203/18/07 18:00:31  5-MIN KDBQ 190000Z AUTO 16011KT 10SM FEW060 BKN080 OVC095 06/M04 A3002 990 48 100 160/11 RMK AO2 TSNO $
94908KDBQ DBQ20070318180512203/18/07 18:05:31  5-MIN KDBQ 190005Z AUTO 16012KT 10SM FEW060 BKN080 OVC095 05/M04 A3001 990 50 100 160/12 RMK AO2 TSNO $
94908KDBQ DBQ20070318181010803/18/07 18:10:31  5-MIN KDBQ 190010Z AUTO 16012KT 10SM OVC090 05/M04 A3001 990 50 100 160/12 RMK AO2 TSNO $
94908KDBQ DBQ20070318181510803/18/07 18:15:31  5-MIN KDBQ 190015Z AUTO 16012KT 10SM OVC090 05/M04 A3001 990 50 100 160/12 RMK AO2 TSNO $
94908KDBQ DBQ20070318182011603/18/07 18:20:31  5-MIN KDBQ 190020Z AUTO 16013KT 10SM SCT080 OVC100 05/M05 A3001 1000 48 100 160/13 RMK AO2 TSNO $
94908KDBQ DBQ20070318182511503/18/07 18:25:31  5-MIN KDBQ 190025Z AUTO 16011KT 10SM SCT080 OVC100 05/M04 A3001 990 50 100 160/11 RMK AO2 TSNO $
94908KDBQ DBQ20070318183010903/18/07 18:30:31  5-MIN KDBQ 190030Z AUTO 16012KT 10SM OVC100 05/M04 A3001 1000 50 100 160/12 RMK AO2 TSNO $
94908KDBQ DBQ20070318183510903/18/07 18:35:31  5-MIN KDBQ 190035Z AUTO 16012KT 10SM OVC100 05/M04 A3000 1000 50 100 160/12 RMK AO2 TSNO $
94908KDBQ DBQ20070318184010903/18/07 18:40:31  5-MIN KDBQ 190040Z AUTO 16013KT 10SM OVC100 05/M04 A3000 1000 50 100 160/13 RMK AO2 TSNO $
94908KDBQ DBQ20070318184510903/18/07 18:45:31  5-MIN KDBQ 190045Z AUTO 16013KT 10SM OVC100 05/M05 A2999 1010 48 100 160/13 RMK AO2 TSNO $
94908KDBQ DBQ20070318185012603/18/07 18:50:31  5-MIN KDBQ 190050Z AUTO 16013KT 10SM OVC100 05/M05 A2999 1010 48 100 160/13 RMK AO2 SLP167 T00501050 TSNO $
94908KDBQ DBQ20070318185512603/18/07 18:55:31  5-MIN KDBQ 190055Z AUTO 15012KT 10SM OVC100 05/M04 A2999 1020 50 100 150/12 RMK AO2 SLP165 T00501044 TSNO $
94908KDBQ DBQ20070318190010903/18/07 19:00:31  5-MIN KDBQ 190100Z AUTO 15013KT 10SM OVC100 05/M05 A2998 1020 48 100 150/13 RMK AO2 TSNO $
94908KDBQ DBQ20070318190510903/18/07 19:05:31  5-MIN KDBQ 190105Z AUTO 16014KT 10SM OVC095 05/M05 A2998 1020 48 100 160/14 RMK AO2 TSNO $
94908KDBQ DBQ20070318191010903/18/07 19:10:31  5-MIN KDBQ 190110Z AUTO 16015KT 10SM OVC095 05/M05 A2998 1030 48 100 160/15 RMK AO2 TSNO $
94908KDBQ DBQ20070318191510703/18/07 19:15:31  5-MIN KDBQ 190115Z AUTO 16014KT 10SM BKN095 04/M05 A2998 1030 50 0 160/14 RMK AO2 TSNO $
94908KDBQ DBQ20070318192011603/18/07 19:20:31  5-MIN KDBQ 190120Z AUTO 16016KT 10SM BKN095 BKN120 05/M05 A2998 1020 48 100 160/16 RMK AO2 TSNO $
94908KDBQ DBQ20070318192512003/18/07 19:25:31  5-MIN KDBQ 190125Z AUTO 16013G19KT 10SM BKN095 BKN120 04/M05 A2998 1030 50 0 160/13G19 RMK AO2 TSNO $
94908KDBQ DBQ20070318193011403/18/07 19:30:31  5-MIN KDBQ 190130Z AUTO 16014KT 10SM SCT100 OVC120 04/M05 A2997 1030 50 0 160/14 RMK AO2 TSNO $
94908KDBQ DBQ20070318193511603/18/07 19:35:31  5-MIN KDBQ 190135Z AUTO 16016KT 10SM SCT100 BKN120 04/M05 A2996 1040 50 100 160/16 RMK AO2 TSNO $
94908KDBQ DBQ20070318194011603/18/07 19:40:31  5-MIN KDBQ 190140Z AUTO 16014KT 10SM FEW100 BKN120 04/M05 A2996 1040 50 100 160/14 RMK AO2 TSNO $
94908KDBQ DBQ20070318194510903/18/07 19:45:31  5-MIN KDBQ 190145Z AUTO 16014KT 10SM OVC110 04/M05 A2996 1040 50 100 160/14 RMK AO2 TSNO $
94908KDBQ DBQ20070318195012603/18/07 19:50:31  5-MIN KDBQ 190150Z AUTO 16017KT 10SM BKN110 04/M05 A2996 1040 50 100 160/17 RMK AO2 SLP155 T00441050 TSNO $
94908KDBQ DBQ20070318195512603/18/07 19:55:31  5-MIN KDBQ 190155Z AUTO 16016KT 10SM OVC110 04/M05 A2996 1050 50 100 160/16 RMK AO2 SLP153 T00441050 TSNO $
94908KDBQ DBQ20070318200010903/18/07 20:00:31  5-MIN KDBQ 190200Z AUTO 16016KT 10SM OVC110 04/M05 A2995 1050 50 100 160/16 RMK AO2 TSNO $
94908KDBQ DBQ20070318200510903/18/07 20:05:31  5-MIN KDBQ 190205Z AUTO 17015KT 10SM OVC110 04/M06 A2995 1050 48 100 160/15 RMK AO2 TSNO $
94908KDBQ DBQ20070318201010903/18/07 20:10:31  5-MIN KDBQ 190210Z AUTO 16016KT 10SM OVC110 04/M05 A2995 1050 50 100 160/16 RMK AO2 TSNO $
94908KDBQ DBQ20070318201510903/18/07 20:15:31  5-MIN KDBQ 190215Z AUTO 17016KT 10SM OVC110 04/M05 A2995 1050 50 100 170/16 RMK AO2 TSNO $
94908KDBQ DBQ20070318202010903/18/07 20:20:31  5-MIN KDBQ 190220Z AUTO 17016KT 10SM OVC110 04/M05 A2995 1050 50 100 170/16 RMK AO2 TSNO $
94908KDBQ DBQ20070318202510903/18/07 20:25:31  5-MIN KDBQ 190225Z AUTO 17017KT 10SM OVC120 04/M05 A2995 1050 50 100 170/17 RMK AO2 TSNO $
94908KDBQ DBQ20070318203010903/18/07 20:30:31  5-MIN KDBQ 190230Z AUTO 17018KT 10SM OVC110 04/M05 A2994 1060 50 100 170/18 RMK AO2 TSNO $
94908KDBQ DBQ20070318203510903/18/07 20:35:31  5-MIN KDBQ 190235Z AUTO 17016KT 10SM OVC110 04/M05 A2994 1060 50 100 160/16 RMK AO2 TSNO $
94908KDBQ DBQ20070318204010903/18/07 20:40:31  5-MIN KDBQ 190240Z AUTO 17018KT 10SM OVC110 04/M05 A2994 1060 50 100 170/18 RMK AO2 TSNO $
94908KDBQ DBQ20070318204511503/18/07 20:45:31  5-MIN KDBQ 190245Z AUTO 17017G23KT 10SM OVC110 04/M05 A2994 1060 50 100 170/17G23 RMK AO2 TSNO $
94908KDBQ DBQ20070318205013803/18/07 20:50:31  5-MIN KDBQ 190250Z AUTO 17017G23KT 10SM OVC110 04/M05 A2994 1060 50 100 170/17G23 RMK AO2 SLP147 T00441050 58024 TSNO $
94908KDBQ DBQ20070318205513203/18/07 20:55:31  5-MIN KDBQ 190255Z AUTO 17018KT 10SM OVC110 04/M05 A2994 1060 50 100 170/18 RMK AO2 SLP147 T00441050 56026 TSNO $
94908KDBQ DBQ20070318210010903/18/07 21:00:31  5-MIN KDBQ 190300Z AUTO 17018KT 10SM OVC110 04/M05 A2994 1060 50 100 170/18 RMK AO2 TSNO $
94908KDBQ DBQ20070318210511503/18/07 21:05:31  5-MIN KDBQ 190305Z AUTO 17019G24KT 10SM OVC110 04/M04 A2994 1060 52 100 170/19G24 RMK AO2 TSNO $
94908KDBQ DBQ20070318211011503/18/07 21:10:31  5-MIN KDBQ 190310Z AUTO 18018G24KT 10SM OVC110 04/M04 A2993 1060 52 100 170/18G24 RMK AO2 TSNO $
94908KDBQ DBQ20070318211510903/18/07 21:15:31  5-MIN KDBQ 190315Z AUTO 17017KT 10SM OVC110 04/M04 A2993 1070 52 100 170/17 RMK AO2 TSNO $
94908KDBQ DBQ20070318212010903/18/07 21:20:31  5-MIN KDBQ 190320Z AUTO 17018KT 10SM OVC110 04/M04 A2992 1070 52 100 170/18 RMK AO2 TSNO $
94908KDBQ DBQ20070318212512203/18/07 21:25:31  5-MIN KDBQ 190325Z AUTO 17019G24KT 10SM OVC110 04/M04 A2991 1080 52 100 170/19G24 RMK AO2 PRESFR TSNO $
94908KDBQ DBQ20070318213014003/18/07 21:30:31  5-MIN KDBQ 190330Z AUTO 16022G26KT 10SM OVC110 04/M04 A2990 1100 52 100 160/22G26 RMK AO2 PK WND 16026/0330 PRESFR TSNO $
94908KDBQ DBQ20070318213513303/18/07 21:35:31  5-MIN KDBQ 190335Z AUTO 17021G26KT 10SM OVC110 04/M04 A2990 1100 52 100 170/21G26 RMK AO2 PK WND 16026/0330 TSNO $
94908KDBQ DBQ20070318214012703/18/07 21:40:31  5-MIN KDBQ 190340Z AUTO 18020KT 10SM OVC110 04/M04 A2990 1090 52 100 180/20 RMK AO2 PK WND 16026/0330 TSNO $
94908KDBQ DBQ20070318214512703/18/07 21:45:31  5-MIN KDBQ 190345Z AUTO 18019KT 10SM OVC120 04/M04 A2991 1090 52 100 180/19 RMK AO2 PK WND 16026/0330 TSNO $
94908KDBQ DBQ20070318215015003/18/07 21:50:31  5-MIN KDBQ 190350Z AUTO 18022G25KT 10SM OVC120 04/M04 A2991 1090 52 100 180/22G25 RMK AO2 PK WND 16026/0330 SLP136 T00441044 TSNO $
94908KDBQ DBQ20070318215515003/18/07 21:55:31  5-MIN KDBQ 190355Z AUTO 18020G26KT 10SM OVC120 04/M04 A2991 1090 52 100 180/20G26 RMK AO2 PK WND 18026/0355 SLP137 T00441044 TSNO $
94908KDBQ DBQ20070318220011503/18/07 22:00:31  5-MIN KDBQ 190400Z AUTO 18019G26KT 10SM OVC120 04/M04 A2991 1090 52 100 180/19G26 RMK AO2 TSNO $
94908KDBQ DBQ20070318220510903/18/07 22:05:31  5-MIN KDBQ 190405Z AUTO 18020KT 10SM OVC120 04/M04 A2991 1090 52 100 180/20 RMK AO2 TSNO $
94908KDBQ DBQ20070318221012203/18/07 22:10:31  5-MIN KDBQ 190410Z AUTO 18021G25KT 10SM FEW075 OVC120 04/M04 A2990 1100 55 100 180/21G25 RMK AO2 TSNO $
94908KDBQ DBQ20070318221512903/18/07 22:15:31  5-MIN KDBQ 190415Z AUTO 18020G25KT 10SM FEW050 SCT070 OVC120 04/M04 A2989 1100 55 100 180/20G25 RMK AO2 TSNO $
94908KDBQ DBQ20070318222012903/18/07 22:20:31  5-MIN KDBQ 190420Z AUTO 18020G25KT 10SM FEW050 SCT070 OVC120 04/M04 A2989 1100 55 100 180/20G25 RMK AO2 TSNO $
94908KDBQ DBQ20070318222512903/18/07 22:25:31  5-MIN KDBQ 190425Z AUTO 18019G24KT 10SM FEW048 BKN070 OVC120 04/M04 A2989 1100 55 100 180/19G24 RMK AO2 TSNO $
94908KDBQ DBQ20070318223014703/18/07 22:30:31  5-MIN KDBQ 190430Z AUTO 19019G26KT 10SM FEW048 BKN075 OVC120 04/M04 A2989 1100 55 100 190/19G26 RMK AO2 PK WND 18026/0428 TSNO $
94908KDBQ DBQ20070318223514703/18/07 22:35:31  5-MIN KDBQ 190435Z AUTO 19019G26KT 10SM FEW049 BKN060 OVC120 04/M04 A2989 1100 55 100 180/19G26 RMK AO2 PK WND 18026/0428 TSNO $
94908KDBQ DBQ20070318224014003/18/07 22:40:31  5-MIN KDBQ 190440Z AUTO 18016G23KT 10SM BKN060 OVC075 04/M04 A2990 1100 55 100 180/16G23 RMK AO2 PK WND 18026/0428 TSNO $
94908KDBQ DBQ20070318224514703/18/07 22:45:31  5-MIN KDBQ 190445Z AUTO 19017G23KT 10SM FEW050 BKN060 OVC075 04/M04 A2989 1110 55 100 180/17G23 RMK AO2 PK WND 18026/0428 TSNO $
94908KDBQ DBQ20070318225015103/18/07 22:50:31  5-MIN KDBQ 190450Z AUTO 19017KT 10SM SCT055 OVC070 04/M04 A2989 1110 55 100 190/17 RMK AO2 PK WND 18026/0428 SLP129 T00441039 TSNO $
94908KDBQ DBQ20070318225515703/18/07 22:55:31  5-MIN KDBQ 190455Z AUTO 19017G22KT 10SM BKN055 OVC070 04/M04 A2989 1110 55 100 190/17G22 RMK AO2 PK WND 18026/0428 SLP129 T00441039 TSNO $
94908KDBQ DBQ20070318230012203/18/07 23:00:31  5-MIN KDBQ 190500Z AUTO 19018G23KT 10SM BKN055 OVC070 04/M04 A2989 1110 55 100 190/18G23 RMK AO2 TSNO $
94908KDBQ DBQ20070318230511603/18/07 23:05:31  5-MIN KDBQ 190505Z AUTO 19017KT 10SM BKN050 OVC070 04/M03 A2989 1110 57 100 190/17 RMK AO2 TSNO $
94908KDBQ DBQ20070318231011603/18/07 23:10:31  5-MIN KDBQ 190510Z AUTO 19017KT 10SM BKN050 OVC070 04/M03 A2989 1110 57 100 190/17 RMK AO2 TSNO $
94908KDBQ DBQ20070318231511603/18/07 23:15:31  5-MIN KDBQ 190515Z AUTO 19017KT 10SM BKN050 OVC065 04/M03 A2989 1110 57 100 190/17 RMK AO2 TSNO $
94908KDBQ DBQ20070318232010903/18/07 23:20:31  5-MIN KDBQ 190520Z AUTO 19014KT 10SM OVC060 04/M03 A2989 1110 57 100 190/14 RMK AO2 TSNO $
94908KDBQ DBQ20070318232510903/18/07 23:25:31  5-MIN KDBQ 190525Z AUTO 19014KT 10SM OVC060 04/M03 A2988 1110 57 100 190/14 RMK AO2 TSNO $
94908KDBQ DBQ20070318233011503/18/07 23:30:31  5-MIN KDBQ 190530Z AUTO 19017G20KT 10SM OVC060 04/M03 A2988 1110 57 100 190/17G20 RMK AO2 TSNO $
94908KDBQ DBQ20070318233511503/18/07 23:35:31  5-MIN KDBQ 190535Z AUTO 19016G22KT 10SM OVC055 04/M03 A2988 1110 57 100 190/16G22 RMK AO2 TSNO $
94908KDBQ DBQ20070318234012203/18/07 23:40:31  5-MIN KDBQ 190540Z AUTO 19014G22KT 10SM BKN050 OVC060 04/M03 A2989 1110 57 100 190/14G22 RMK AO2 TSNO $
94908KDBQ DBQ20070318234511603/18/07 23:45:31  5-MIN KDBQ 190545Z AUTO 19014KT 10SM BKN050 OVC060 04/M03 A2989 1110 57 100 190/14 RMK AO2 TSNO $
94908KDBQ DBQ20070318235016103/18/07 23:50:31  5-MIN KDBQ 190550Z AUTO 20013KT 10SM BKN050 OVC060 04/M03 A2989 1110 57 100 190/13 RMK AO2 SLP128 T00441033 10056 20044 400721056 56026 TSNO $
94908KDBQ DBQ20070318235515403/18/07 23:55:31  5-MIN KDBQ 190555Z AUTO 19016KT 10SM OVC048 04/M03 A2989 1110 57 100 190/16 RMK AO2 SLP128 T00441033 10056 20044 400721056 56017 TSNO $
94908KDBQ DBQ20070319000010903/19/07 00:00:38  5-MIN KDBQ 190600Z AUTO 19015KT 10SM OVC048 04/M03 A2988 1110 57 100 190/15 RMK AO2 TSNO $
94908KDBQ DBQ20070319000510903/19/07 00:05:31  5-MIN KDBQ 190605Z AUTO 19016KT 10SM OVC046 04/M03 A2988 1120 57 200 190/16 RMK AO2 TSNO $
94908KDBQ DBQ20070319001011603/19/07 00:10:31  5-MIN KDBQ 190610Z AUTO 19017KT 10SM BKN046 OVC065 04/M03 A2987 1120 57 200 190/17 RMK AO2 TSNO $
94908KDBQ DBQ20070319001511603/19/07 00:15:32  5-MIN KDBQ 190615Z AUTO 19016KT 10SM BKN046 OVC070 04/M03 A2987 1120 57 200 190/16 RMK AO2 TSNO $
94908KDBQ DBQ20070319002012303/19/07 00:20:31  5-MIN KDBQ 190620Z AUTO 19017KT 10SM BKN046 BKN055 OVC070 05/M03 A2987 1130 55 200 190/17 RMK AO2 TSNO $
94908KDBQ DBQ20070319002512303/19/07 00:25:31  5-MIN KDBQ 190625Z AUTO 19016KT 10SM SCT046 BKN055 OVC070 05/M03 A2987 1130 55 200 190/16 RMK AO2 TSNO $
94908KDBQ DBQ20070319003012303/19/07 00:30:31  5-MIN KDBQ 190630Z AUTO 20016KT 10SM SCT046 SCT055 OVC070 05/M03 A2987 1130 57 200 200/16 RMK AO2 TSNO $
94908KDBQ DBQ20070319003511603/19/07 00:35:31  5-MIN KDBQ 190635Z AUTO 20016KT 10SM FEW046 OVC070 05/M03 A2987 1130 55 200 200/16 RMK AO2 TSNO $
94908KDBQ DBQ20070319004011603/19/07 00:40:31  5-MIN KDBQ 190640Z AUTO 20015KT 10SM FEW046 OVC070 05/M03 A2986 1130 57 200 200/15 RMK AO2 TSNO $
94908KDBQ DBQ20070319004511603/19/07 00:45:31  5-MIN KDBQ 190645Z AUTO 20015KT 10SM FEW046 OVC070 04/M03 A2986 1140 59 200 200/15 RMK AO2 TSNO $
94908KDBQ DBQ20070319005013303/19/07 00:50:31  5-MIN KDBQ 190650Z AUTO 20016KT 10SM FEW046 OVC070 05/M03 A2985 1140 57 200 200/16 RMK AO2 SLP115 T00501028 TSNO $
94908KDBQ DBQ20070319005513203/19/07 00:55:31  5-MIN KDBQ 190655Z AUTO 20017G21KT 10SM OVC075 04/M03 A2985 1150 59 200 200/17G21 RMK AO2 SLP113 T00441028 TSNO $
94908KDBQ DBQ20070319010010903/19/07 01:00:31  5-MIN KDBQ 190700Z AUTO 20016KT 10SM OVC075 05/M03 A2985 1150 57 300 200/16 RMK AO2 TSNO $
94908KDBQ DBQ20070319010510903/19/07 01:05:31  5-MIN KDBQ 190705Z AUTO 20015KT 10SM OVC075 04/M03 A2985 1150 59 200 200/15 RMK AO2 TSNO $
94908KDBQ DBQ20070319011010903/19/07 01:10:31  5-MIN KDBQ 190710Z AUTO 20016KT 10SM OVC075 05/M03 A2984 1150 57 300 200/16 RMK AO2 TSNO $
94908KDBQ DBQ20070319011510903/19/07 01:15:31  5-MIN KDBQ 190715Z AUTO 20016KT 10SM OVC075 04/M03 A2984 1150 59 200 200/16 RMK AO2 TSNO $
94908KDBQ DBQ20070319012010903/19/07 01:20:31  5-MIN KDBQ 190720Z AUTO 20017KT 10SM OVC075 05/M03 A2984 1160 57 300 200/17 RMK AO2 TSNO $
94908KDBQ DBQ20070319012510903/19/07 01:25:31  5-MIN KDBQ 190725Z AUTO 20017KT 10SM OVC075 05/M03 A2983 1160 57 300 200/17 RMK AO2 TSNO $
94908KDBQ DBQ20070319013010903/19/07 01:30:31  5-MIN KDBQ 190730Z AUTO 20018KT 10SM OVC075 05/M03 A2983 1160 57 300 190/18 RMK AO2 TSNO $
94908KDBQ DBQ20070319013510903/19/07 01:35:31  5-MIN KDBQ 190735Z AUTO 20017KT 10SM OVC075 04/M03 A2983 1160 59 200 200/17 RMK AO2 TSNO $
94908KDBQ DBQ20070319014011503/19/07 01:40:31  5-MIN KDBQ 190740Z AUTO 20018G23KT 10SM OVC075 04/M03 A2983 1170 59 200 200/18G23 RMK AO2 TSNO $
94908KDBQ DBQ20070319014510903/19/07 01:45:31  5-MIN KDBQ 190745Z AUTO 20016KT 10SM OVC070 05/M03 A2982 1170 57 300 200/16 RMK AO2 TSNO $
94908KDBQ DBQ20070319015012603/19/07 01:50:31  5-MIN KDBQ 190750Z AUTO 20017KT 10SM OVC070 04/M03 A2982 1170 59 200 200/17 RMK AO2 SLP104 T00441028 TSNO $
94908KDBQ DBQ20070319015512603/19/07 01:55:31  5-MIN KDBQ 190755Z AUTO 20017KT 10SM OVC070 05/M03 A2981 1180 57 300 200/17 RMK AO2 SLP101 T00501028 TSNO $
94908KDBQ DBQ20070319020010903/19/07 02:00:31  5-MIN KDBQ 190800Z AUTO 20016KT 10SM OVC065 04/M02 A2981 1180 62 200 190/16 RMK AO2 TSNO $
94908KDBQ DBQ20070319020510903/19/07 02:05:31  5-MIN KDBQ 190805Z AUTO 20016KT 10SM OVC065 04/M03 A2981 1180 59 200 200/16 RMK AO2 TSNO $
94908KDBQ DBQ20070319021011603/19/07 02:10:31  5-MIN KDBQ 190810Z AUTO 20016KT 10SM BKN065 OVC120 04/M02 A2981 1190 62 200 200/16 RMK AO2 TSNO $
94908KDBQ DBQ20070319021510903/19/07 02:15:31  5-MIN KDBQ 190815Z AUTO 20014KT 10SM BKN060 04/M02 A2980 1190 62 200 200/14 RMK AO2 TSNO $
94908KDBQ DBQ20070319022010903/19/07 02:20:31  5-MIN KDBQ 190820Z AUTO 20014KT 10SM BKN060 04/M02 A2980 1190 62 200 200/14 RMK AO2 TSNO $
94908KDBQ DBQ20070319022510903/19/07 02:25:31  5-MIN KDBQ 190825Z AUTO 20014KT 10SM BKN060 04/M02 A2980 1190 62 200 200/14 RMK AO2 TSNO $
94908KDBQ DBQ20070319023010903/19/07 02:30:31  5-MIN KDBQ 190830Z AUTO 20014KT 10SM BKN060 04/M02 A2980 1190 62 200 200/14 RMK AO2 TSNO $
94908KDBQ DBQ20070319023510903/19/07 02:35:31  5-MIN KDBQ 190835Z AUTO 20014KT 10SM BKN065 04/M02 A2979 1200 64 200 200/14 RMK AO2 TSNO $
94908KDBQ DBQ20070319024010903/19/07 02:40:31  5-MIN KDBQ 190840Z AUTO 20014KT 10SM SCT060 04/M02 A2979 1200 64 200 200/14 RMK AO2 TSNO $
94908KDBQ DBQ20070319024510903/19/07 02:45:31  5-MIN KDBQ 190845Z AUTO 20015KT 10SM SCT060 04/M02 A2979 1200 64 200 200/15 RMK AO2 TSNO $
94908KDBQ DBQ20070319025013203/19/07 02:50:31  5-MIN KDBQ 190850Z AUTO 20013KT 10SM FEW065 04/M02 A2979 1200 64 200 200/13 RMK AO2 SLP094 T00391022 56017 TSNO $
94908KDBQ DBQ20070319025513203/19/07 02:55:31  5-MIN KDBQ 190855Z AUTO 20014KT 10SM FEW065 04/M02 A2979 1200 64 200 200/14 RMK AO2 SLP094 T00391022 56031 TSNO $
94908KDBQ DBQ20070319030010603/19/07 03:00:31  5-MIN KDBQ 190900Z AUTO 20013KT 10SM CLR 04/M02 A2979 1200 64 200 200/13 RMK AO2 TSNO $
94908KDBQ DBQ20070319030510603/19/07 03:05:31  5-MIN KDBQ 190905Z AUTO 20012KT 10SM CLR 04/M02 A2979 1200 64 200 200/12 RMK AO2 TSNO $
94908KDBQ DBQ20070319031010603/19/07 03:10:31  5-MIN KDBQ 190910Z AUTO 20012KT 10SM CLR 04/M02 A2979 1200 64 200 200/12 RMK AO2 TSNO $
94908KDBQ DBQ20070319031510903/19/07 03:15:31  5-MIN KDBQ 190915Z AUTO 20013KT 10SM FEW120 04/M02 A2978 1200 64 200 200/13 RMK AO2 TSNO $
94908KDBQ DBQ20070319032010603/19/07 03:20:31  5-MIN KDBQ 190920Z AUTO 20014KT 10SM CLR 03/M02 A2979 1200 67 100 200/14 RMK AO2 TSNO $
94908KDBQ DBQ20070319032510603/19/07 03:25:31  5-MIN KDBQ 190925Z AUTO 20013KT 10SM CLR 03/M02 A2979 1200 67 100 200/13 RMK AO2 TSNO $
94908KDBQ DBQ20070319033010603/19/07 03:30:31  5-MIN KDBQ 190930Z AUTO 20012KT 10SM CLR 03/M02 A2979 1200 67 100 200/12 RMK AO2 TSNO $
94908KDBQ DBQ20070319033510603/19/07 03:35:31  5-MIN KDBQ 190935Z AUTO 20012KT 10SM CLR 03/M02 A2979 1200 67 100 200/12 RMK AO2 TSNO $
94908KDBQ DBQ20070319034010603/19/07 03:40:31  5-MIN KDBQ 190940Z AUTO 20012KT 10SM CLR 03/M02 A2979 1200 70 100 200/12 RMK AO2 TSNO $
94908KDBQ DBQ20070319034510403/19/07 03:45:31  5-MIN KDBQ 190945Z AUTO 20012KT 10SM CLR 03/M02 A2979 1200 72 0 200/12 RMK AO2 TSNO $
94908KDBQ DBQ20070319035012103/19/07 03:50:31  5-MIN KDBQ 190950Z AUTO 20010KT 10SM CLR 03/M02 A2979 1200 72 0 200/10 RMK AO2 SLP095 T00281017 TSNO $
94908KDBQ DBQ20070319035512103/19/07 03:55:31  5-MIN KDBQ 190955Z AUTO 20010KT 10SM CLR 03/M02 A2979 1200 72 0 190/10 RMK AO2 SLP097 T00281017 TSNO $
94908KDBQ DBQ20070319040010703/19/07 04:00:31  5-MIN KDBQ 191000Z AUTO 19010KT 10SM FEW120 03/M02 A2979 1200 72 0 190/10 RMK AO2 TSNO $
94908KDBQ DBQ20070319040510703/19/07 04:05:31  5-MIN KDBQ 191005Z AUTO 20010KT 10SM FEW110 03/M02 A2979 1200 72 0 190/10 RMK AO2 TSNO $
94908KDBQ DBQ20070319041010703/19/07 04:10:31  5-MIN KDBQ 191010Z AUTO 20009KT 10SM FEW110 03/M02 A2980 1190 72 0 190/09 RMK AO2 TSNO $
94908KDBQ DBQ20070319041510703/19/07 04:15:31  5-MIN KDBQ 191015Z AUTO 20008KT 10SM FEW110 02/M02 A2980 1190 75 0 190/08 RMK AO2 TSNO $
94908KDBQ DBQ20070319042010703/19/07 04:20:31  5-MIN KDBQ 191020Z AUTO 19010KT 10SM FEW110 02/M02 A2980 1190 75 0 190/10 RMK AO2 TSNO $
94908KDBQ DBQ20070319042509703/19/07 04:25:31  5-MIN KDBQ 191025Z 20008KT 10SM FEW110 02/M02 A2980 1190 72 0 200/08 RMK AO2 $
94908KDBQ DBQ20070319043009703/19/07 04:30:31  5-MIN KDBQ 191030Z 20007KT 10SM CLR 02/M02 A2980 1190 75 -100 200/07 RMK AO2 $
94908KDBQ DBQ20070319043509703/19/07 04:35:31  5-MIN KDBQ 191035Z 20009KT 10SM CLR 02/M02 A2980 1190 75 -100 200/09 RMK AO2 $
94908KDBQ DBQ20070319044009403/19/07 04:40:31  5-MIN KDBQ 191040Z 19010KT 10SM CLR 02/M02 A2980 1190 75 0 190/10 RMK AO2 $
94908KDBQ DBQ20070319044509703/19/07 04:45:31  5-MIN KDBQ 191045Z 20009KT 10SM CLR 02/M02 A2980 1190 75 -100 200/09 RMK AO2 $
94908KDBQ DBQ20070319045011403/19/07 04:50:31  5-MIN KDBQ 191050Z 21008KT 10SM CLR 02/M02 A2980 1190 75 -100 210/08 RMK AO2 SLP099 T00171022 $
94908KDBQ DBQ20070319045511103/19/07 04:55:31  5-MIN KDBQ 191055Z 19010KT 10SM CLR 02/M02 A2980 1190 72 0 190/10 RMK AO2 SLP099 T00221022 $
94908KDBQ DBQ20070319050009403/19/07 05:00:31  5-MIN KDBQ 191100Z 19010KT 10SM CLR 02/M02 A2980 1190 72 0 190/10 RMK AO2 $
94908KDBQ DBQ20070319050509403/19/07 05:05:31  5-MIN KDBQ 191105Z 19008KT 10SM CLR 02/M02 A2980 1190 75 0 190/08 RMK AO2 $
94908KDBQ DBQ20070319051009703/19/07 05:10:31  5-MIN KDBQ 191110Z 20010KT 10SM CLR 02/M02 A2980 1190 75 -100 190/10 RMK AO2 $
94908KDBQ DBQ20070319051509703/19/07 05:15:31  5-MIN KDBQ 191115Z 20009KT 10SM CLR 01/M02 A2980 1190 78 -100 200/09 RMK AO2 $
94908KDBQ DBQ20070319052009703/19/07 05:20:31  5-MIN KDBQ 191120Z 20008KT 10SM CLR 01/M02 A2980 1190 78 -100 200/08 RMK AO2 $
94908KDBQ DBQ20070319052509703/19/07 05:25:31  5-MIN KDBQ 191125Z 20011KT 10SM CLR 01/M02 A2980 1190 78 -100 190/11 RMK AO2 $
94908KDBQ DBQ20070319053009703/19/07 05:30:31  5-MIN KDBQ 191130Z 19013KT 10SM CLR 02/M02 A2981 1180 75 -100 190/13 RMK AO2 $
94908KDBQ DBQ20070319053509403/19/07 05:35:31  5-MIN KDBQ 191135Z 20010KT 10SM CLR 02/M02 A2981 1180 75 0 200/10 RMK AO2 $
94908KDBQ DBQ20070319054009703/19/07 05:40:31  5-MIN KDBQ 191140Z 20008KT 10SM CLR 01/M02 A2981 1180 82 -100 200/08 RMK AO2 $
94908KDBQ DBQ20070319054509703/19/07 05:45:31  5-MIN KDBQ 191145Z 19008KT 10SM CLR 01/M02 A2981 1180 82 -200 190/08 RMK AO2 $
94908KDBQ DBQ20070319055013103/19/07 05:50:31  5-MIN KDBQ 191150Z 21006KT 9SM CLR 01/M02 A2981 1180 78 -100 200/06 RMK AO2 SLP104 T00111022 10050 20006 56031 $
94908KDBQ DBQ20070319055513103/19/07 05:55:31  5-MIN KDBQ 191155Z 20007KT 9SM CLR 01/M02 A2981 1180 82 -200 200/07 RMK AO2 SLP104 T00061022 10050 20006 53008 $
94908KDBQ DBQ20070319060009603/19/07 06:00:31  5-MIN KDBQ 191200Z 20008KT 9SM CLR 01/M02 A2982 1180 82 -200 200/08 RMK AO2 $
94908KDBQ DBQ20070319060509603/19/07 06:05:31  5-MIN KDBQ 191205Z 20007KT 9SM CLR 01/M02 A2982 1170 82 -200 200/07 RMK AO2 $
94908KDBQ DBQ20070319061009603/19/07 06:10:31  5-MIN KDBQ 191210Z 20008KT 8SM CLR 00/M03 A2982 1170 81 -300 200/08 RMK AO2 $
94908KDBQ DBQ20070319061509603/19/07 06:15:31  5-MIN KDBQ 191215Z 21009KT 7SM CLR 00/M03 A2982 1170 81 -300 210/09 RMK AO2 $
94908KDBQ DBQ20070319062009603/19/07 06:20:31  5-MIN KDBQ 191220Z 21007KT 7SM CLR 01/M02 A2982 1170 82 -200 210/07 RMK AO2 $
94908KDBQ DBQ20070319062509603/19/07 06:25:31  5-MIN KDBQ 191225Z 22007KT 8SM CLR 01/M02 A2982 1170 82 -200 220/07 RMK AO2 $
94908KDBQ DBQ20070319063009603/19/07 06:30:31  5-MIN KDBQ 191230Z 22006KT 8SM CLR 00/M02 A2983 1160 85 -300 220/06 RMK AO2 $
94908KDBQ DBQ20070319063509603/19/07 06:35:31  5-MIN KDBQ 191235Z 22006KT 8SM CLR 01/M02 A2983 1160 82 -200 220/06 RMK AO2 $
94908KDBQ DBQ20070319064009603/19/07 06:40:31  5-MIN KDBQ 191240Z 22008KT 8SM CLR 01/M02 A2983 1160 82 -200 220/08 RMK AO2 $
94908KDBQ DBQ20070319064509603/19/07 06:45:31  5-MIN KDBQ 191245Z 23006KT 8SM CLR 01/M02 A2983 1160 82 -200 230/06 RMK AO2 $
94908KDBQ DBQ20070319065011103/19/07 06:50:31  5-MIN KDBQ 191250Z 23007KT 8SM CLR 01/M02 A2983 1160 85 -200 230/07 RMK AO2 SLP112 T00061017
94908KDBQ DBQ20070319065511103/19/07 06:55:31  5-MIN KDBQ 191255Z 24005KT 8SM CLR 01/M02 A2984 1160 85 -200 240/05 RMK AO2 SLP113 T00061017
94908KDBQ DBQ20070319070009403/19/07 07:00:31  5-MIN KDBQ 191300Z 24005KT 8SM CLR 01/M02 A2984 1160 85 -200 230/05 RMK AO2
94908KDBQ DBQ20070319070509403/19/07 07:05:31  5-MIN KDBQ 191305Z 23005KT 8SM CLR 01/M02 A2984 1150 82 -200 230/05 RMK AO2
94908KDBQ DBQ20070319071009403/19/07 07:10:31  5-MIN KDBQ 191310Z 24006KT 8SM CLR 02/M01 A2984 1150 82 -100 240/06 RMK AO2
94908KDBQ DBQ20070319071509403/19/07 07:15:31  5-MIN KDBQ 191315Z 24006KT 8SM CLR 02/M01 A2984 1150 82 -100 230/06 RMK AO2
94908KDBQ DBQ20070319072009103/19/07 07:20:31  5-MIN KDBQ 191320Z 24006KT 8SM CLR 02/M01 A2985 1150 78 0 240/06 RMK AO2
94908KDBQ DBQ20070319072509103/19/07 07:25:31  5-MIN KDBQ 191325Z 24006KT 8SM CLR 02/M01 A2985 1150 82 0 240/06 RMK AO2
94908KDBQ DBQ20070319073009103/19/07 07:30:31  5-MIN KDBQ 191330Z 25006KT 8SM CLR 03/M01 A2985 1140 79 0 240/06 RMK AO2
94908KDBQ DBQ20070319073509003/19/07 07:35:31  5-MIN KDBQ 191335Z 25008KT 8SM CLR 03/00 A2985 1140 79 0 250/08 RMK AO2
94908KDBQ DBQ20070319074009203/19/07 07:40:31  5-MIN KDBQ 191340Z 26009KT 8SM CLR 04/00 A2985 1140 76 100 260/09 RMK AO2
94908KDBQ DBQ20070319074509203/19/07 07:45:31  5-MIN KDBQ 191345Z 26008KT 8SM CLR 04/00 A2985 1140 76 100 250/08 RMK AO2
94908KDBQ DBQ20070319075010903/19/07 07:50:31  5-MIN KDBQ 191350Z 27010KT 9SM CLR 05/00 A2986 1140 70 200 270/10 RMK AO2 SLP118 T00500000
94908KDBQ DBQ20070319075510903/19/07 07:55:31  5-MIN KDBQ 191355Z 27010KT 9SM CLR 05/00 A2986 1130 70 200 270/10 RMK AO2 SLP119 T00500000
94908KDBQ DBQ20070319080009203/19/07 08:00:31  5-MIN KDBQ 191400Z 29010KT 9SM CLR 06/00 A2986 1130 67 300 280/10 RMK AO2
94908KDBQ DBQ20070319080509303/19/07 08:05:31  5-MIN KDBQ 191405Z 29009KT 10SM CLR 06/01 A2987 1130 67 400 290/09 RMK AO2
94908KDBQ DBQ20070319081009303/19/07 08:10:31  5-MIN KDBQ 191410Z 30011KT 10SM CLR 06/01 A2987 1130 67 400 300/11 RMK AO2
94908KDBQ DBQ20070319081509303/19/07 08:15:31  5-MIN KDBQ 191415Z 30013KT 10SM CLR 06/01 A2987 1130 67 400 300/13 RMK AO2
94908KDBQ DBQ20070319082009303/19/07 08:20:31  5-MIN KDBQ 191420Z 31013KT 10SM CLR 07/01 A2987 1130 65 400 310/13 RMK AO2
94908KDBQ DBQ20070319082509303/19/07 08:25:31  5-MIN KDBQ 191425Z 32012KT 10SM CLR 07/01 A2987 1120 65 400 320/12 RMK AO2
94908KDBQ DBQ20070319083009303/19/07 08:30:31  5-MIN KDBQ 191430Z 32014KT 10SM CLR 07/01 A2987 1120 62 500 320/14 RMK AO2
94908KDBQ DBQ20070319083509203/19/07 08:35:31  5-MIN KDBQ 191435Z 32015KT 9SM CLR 07/01 A2987 1120 62 500 320/15 RMK AO2
94908KDBQ DBQ20070319084009203/19/07 08:40:31  5-MIN KDBQ 191440Z 32014KT 9SM CLR 07/01 A2987 1120 62 500 320/14 RMK AO2
94908KDBQ DBQ20070319084509203/19/07 08:45:31  5-MIN KDBQ 191445Z 33015KT 9SM CLR 07/01 A2988 1120 62 500 330/15 RMK AO2
94908KDBQ DBQ20070319085011503/19/07 08:50:31  5-MIN KDBQ 191450Z 34015KT 9SM CLR 08/01 A2988 1120 62 600 340/15 RMK AO2 SLP125 T00780011 53008
94908KDBQ DBQ20070319085512103/19/07 08:55:31  5-MIN KDBQ 191455Z 33018G21KT 9SM CLR 08/01 A2988 1110 62 600 330/18G21 RMK AO2 SLP125 T00780011 51022
94908KDBQ DBQ20070319090009803/19/07 09:00:31  5-MIN KDBQ 191500Z 34016G21KT 9SM CLR 08/01 A2988 1110 62 600 340/16G21 RMK AO2
94908KDBQ DBQ20070319090509203/19/07 09:05:31  5-MIN KDBQ 191505Z 35017KT 8SM CLR 08/01 A2988 1110 62 600 340/17 RMK AO2
94908KDBQ DBQ20070319091009803/19/07 09:10:31  5-MIN KDBQ 191510Z 34018G23KT 8SM CLR 08/02 A2989 1110 63 600 340/18G23 RMK AO2
94908KDBQ DBQ20070319091509803/19/07 09:15:31  5-MIN KDBQ 191515Z 35018G23KT 8SM CLR 08/02 A2989 1110 63 600 350/18G23 RMK AO2
94908KDBQ DBQ20070319092009203/19/07 09:20:31  5-MIN KDBQ 191520Z 34017KT 8SM CLR 08/02 A2990 1100 63 600 340/17 RMK AO2
94908KDBQ DBQ20070319092509203/19/07 09:25:31  5-MIN KDBQ 191525Z 35018KT 8SM CLR 08/02 A2990 1100 63 600 350/18 RMK AO2
94908KDBQ DBQ20070319093009203/19/07 09:30:31  5-MIN KDBQ 191530Z 35017KT 7SM CLR 08/02 A2990 1090 63 600 350/17 RMK AO2
94908KDBQ DBQ20070319093509203/19/07 09:35:31  5-MIN KDBQ 191535Z 34015KT 7SM CLR 08/02 A2990 1090 65 600 340/15 RMK AO2
94908KDBQ DBQ20070319094009203/19/07 09:40:31  5-MIN KDBQ 191540Z 35018KT 7SM CLR 09/03 A2991 1090 65 700 350/18 RMK AO2
94908KDBQ DBQ20070319094509203/19/07 09:45:31  5-MIN KDBQ 191545Z 35016KT 7SM CLR 08/02 A2991 1090 65 600 350/16 RMK AO2
94908KDBQ DBQ20070319095011203/19/07 09:50:31  5-MIN KDBQ 191550Z 34018KT 6SM HZ CLR 08/03 A2991 1090 68 600 340/18 RMK AO2 SLP135 T00830028
94908KDBQ DBQ20070319095510903/19/07 09:55:31  5-MIN KDBQ 191555Z 35018KT 7SM CLR 08/02 A2991 1090 65 600 350/18 RMK AO2 SLP136 T00830022
94908KDBQ DBQ20070319100009203/19/07 10:00:31  5-MIN KDBQ 191600Z 35015KT 7SM CLR 09/03 A2992 1080 65 600 350/15 RMK AO2
94908KDBQ DBQ20070319100509203/19/07 10:05:31  5-MIN KDBQ 191605Z 33018KT 7SM CLR 09/03 A2992 1080 65 600 330/18 RMK AO2
94908KDBQ DBQ20070319101009203/19/07 10:10:31  5-MIN KDBQ 191610Z 35016KT 8SM CLR 09/03 A2993 1070 65 600 350/16 RMK AO2
94908KDBQ DBQ20070319101509203/19/07 10:15:31  5-MIN KDBQ 191615Z 34018KT 8SM CLR 09/02 A2993 1070 63 600 340/18 RMK AO2
94908KDBQ DBQ20070319102009203/19/07 10:20:31  5-MIN KDBQ 191620Z 34014KT 8SM CLR 09/02 A2993 1070 63 600 340/14 RMK AO2
94908KDBQ DBQ20070319102509203/19/07 10:25:31  5-MIN KDBQ 191625Z 33016KT 8SM CLR 09/03 A2994 1060 65 600 330/16 RMK AO2
94908KDBQ DBQ20070319103009203/19/07 10:30:31  5-MIN KDBQ 191630Z 33015KT 8SM CLR 09/02 A2994 1060 63 600 330/15 RMK AO2
94908KDBQ DBQ20070319103509203/19/07 10:35:31  5-MIN KDBQ 191635Z 34015KT 9SM CLR 09/02 A2994 1060 63 600 340/15 RMK AO2
94908KDBQ DBQ20070319104009203/19/07 10:40:31  5-MIN KDBQ 191640Z 34015KT 9SM CLR 09/02 A2994 1060 63 600 340/15 RMK AO2
94908KDBQ DBQ20070319104509203/19/07 10:45:31  5-MIN KDBQ 191645Z 34013KT 9SM CLR 09/02 A2995 1050 60 700 340/13 RMK AO2
94908KDBQ DBQ20070319105010903/19/07 10:50:31  5-MIN KDBQ 191650Z 33012KT 9SM CLR 09/02 A2995 1050 60 700 330/12 RMK AO2 SLP147 T00940022
94908KDBQ DBQ20070319105510903/19/07 10:55:31  5-MIN KDBQ 191655Z 34014KT 9SM CLR 09/02 A2995 1050 60 700 340/14 RMK AO2 SLP149 T00940022
94908KDBQ DBQ20070319110009303/19/07 11:00:31  5-MIN KDBQ 191700Z 33015KT 10SM CLR 09/02 A2995 1050 60 700 330/15 RMK AO2
94908KDBQ DBQ20070319110509303/19/07 11:05:31  5-MIN KDBQ 191705Z 34013KT 10SM CLR 09/02 A2996 1050 58 700 340/13 RMK AO2
94908KDBQ DBQ20070319111009903/19/07 11:10:31  5-MIN KDBQ 191710Z 33015G19KT 10SM CLR 10/01 A2996 1040 54 700 330/15G19 RMK AO2
94908KDBQ DBQ20070319111509303/19/07 11:15:31  5-MIN KDBQ 191715Z 33013KT 10SM CLR 10/01 A2996 1040 52 700 330/13 RMK AO2
94908KDBQ DBQ20070319112009303/19/07 11:20:31  5-MIN KDBQ 191720Z 33015KT 10SM CLR 11/01 A2996 1040 50 800 330/15 RMK AO2
94908KDBQ DBQ20070319112509303/19/07 11:25:31  5-MIN KDBQ 191725Z 33015KT 10SM CLR 10/01 A2996 1040 52 700 330/15 RMK AO2
94908KDBQ DBQ20070319113009303/19/07 11:30:31  5-MIN KDBQ 191730Z 33012KT 10SM CLR 11/01 A2997 1040 50 800 330/12 RMK AO2
94908KDBQ DBQ20070319113509303/19/07 11:35:31  5-MIN KDBQ 191735Z 32014KT 10SM CLR 11/01 A2997 1030 50 800 320/14 RMK AO2
94908KDBQ DBQ20070319114009303/19/07 11:40:31  5-MIN KDBQ 191740Z 32019KT 10SM CLR 11/01 A2997 1030 48 800 320/19 RMK AO2
94908KDBQ DBQ20070319114510003/19/07 11:45:31  5-MIN KDBQ 191745Z 34014G21KT 10SM CLR 11/M01 A2997 1030 44 900 340/14G21 RMK AO2
94908KDBQ DBQ20070319115013403/19/07 11:50:31  5-MIN KDBQ 191750Z 33014G20KT 10SM CLR 11/00 A2997 1030 46 900 330/14G20 RMK AO2 SLP155 T01110000 10111 20000 51022
94908KDBQ DBQ20070319115512903/19/07 11:55:31  5-MIN KDBQ 191755Z 33017KT 10SM CLR 11/M01 A2998 1030 44 800 330/17 RMK AO2 SLP156 T01111006 10111 20000 51031
94908KDBQ DBQ20070319120009403/19/07 12:00:31  5-MIN KDBQ 191800Z 34017KT 10SM CLR 11/M01 A2998 1020 42 800 340/17 RMK AO2
94908KDBQ DBQ20070319120509403/19/07 12:05:31  5-MIN KDBQ 191805Z 32015KT 10SM CLR 11/M01 A2998 1020 44 800 320/15 RMK AO2
94908KDBQ DBQ20070319121009403/19/07 12:10:31  5-MIN KDBQ 191810Z 33016KT 10SM CLR 12/M01 A2998 1020 42 900 330/16 RMK AO2
94908KDBQ DBQ20070319121509403/19/07 12:15:31  5-MIN KDBQ 191815Z 33016KT 10SM CLR 12/M01 A2998 1020 41 900 330/16 RMK AO2
94908KDBQ DBQ20070319122010003/19/07 12:20:31  5-MIN KDBQ 191820Z 34018G22KT 10SM CLR 12/M02 A2998 1020 39 900 340/18G22 RMK AO2
94908KDBQ DBQ20070319122509403/19/07 12:25:31  5-MIN KDBQ 191825Z 34016KT 10SM CLR 12/M01 A2998 1020 41 900 340/16 RMK AO2
94908KDBQ DBQ20070319123010103/19/07 12:30:31  5-MIN KDBQ 191830Z 34018G23KT 10SM CLR 12/M02 A2998 1020 38 1000 340/18G23 RMK AO2
94908KDBQ DBQ20070319123510103/19/07 12:35:31  5-MIN KDBQ 191835Z 34016G23KT 10SM CLR 12/M02 A2999 1020 38 1000 340/16G23 RMK AO2
94908KDBQ DBQ20070319124010103/19/07 12:40:31  5-MIN KDBQ 191840Z 34018G22KT 10SM CLR 12/M02 A2999 1020 38 1000 340/18G22 RMK AO2
94908KDBQ DBQ20070319124509503/19/07 12:45:31  5-MIN KDBQ 191845Z 35016KT 10SM CLR 13/M02 A2999 1020 36 1000 350/16 RMK AO2
94908KDBQ DBQ20070319125011203/19/07 12:50:31  5-MIN KDBQ 191850Z 34015KT 10SM CLR 13/M02 A2999 1020 35 1000 340/15 RMK AO2 SLP160 T01281022
94908KDBQ DBQ20070319125511203/19/07 12:55:31  5-MIN KDBQ 191855Z 32014KT 10SM CLR 13/M01 A2999 1010 39 1000 320/14 RMK AO2 SLP160 T01281006
94908KDBQ DBQ20070319130009503/19/07 13:00:31  5-MIN KDBQ 191900Z 32015KT 10SM CLR 12/M01 A2999 1020 41 1000 320/15 RMK AO2
94908KDBQ DBQ20070319130509503/19/07 13:05:31  5-MIN KDBQ 191905Z 32017KT 10SM CLR 13/M01 A2999 1020 38 1000 320/17 RMK AO2
94908KDBQ DBQ20070319131010103/19/07 13:10:31  5-MIN KDBQ 191910Z 33017G21KT 10SM CLR 13/M02 A2999 1020 36 1000 330/17G21 RMK AO2
94908KDBQ DBQ20070319131510103/19/07 13:15:31  5-MIN KDBQ 191915Z 34012G21KT 10SM CLR 13/M02 A2999 1010 36 1000 340/12G21 RMK AO2
94908KDBQ DBQ20070319132009503/19/07 13:20:31  5-MIN KDBQ 191920Z 33012KT 10SM CLR 13/M01 A2999 1010 38 1000 330/12 RMK AO2
94908KDBQ DBQ20070319132510103/19/07 13:25:31  5-MIN KDBQ 191925Z 31015G19KT 10SM CLR 13/M02 A2999 1010 36 1000 310/15G19 RMK AO2
94908KDBQ DBQ20070319133010103/19/07 13:30:31  5-MIN KDBQ 191930Z 33017G20KT 10SM CLR 13/M02 A2999 1010 34 1100 330/17G20 RMK AO2
94908KDBQ DBQ20070319133509503/19/07 13:35:31  5-MIN KDBQ 191935Z 33016KT 10SM CLR 13/M02 A3000 1010 35 1000 320/16 RMK AO2
94908KDBQ DBQ20070319134010103/19/07 13:40:31  5-MIN KDBQ 191940Z 31020G25KT 10SM CLR 13/M02 A2999 1010 35 1000 300/20G25 RMK AO2
94908KDBQ DBQ20070319135511803/19/07 13:55:31  5-MIN KDBQ 191955Z 32017G24KT 10SM CLR 13/M02 A3000 1010 35 1000 320/17G24 RMK AO2 SLP163 T01281022
94908KDBQ DBQ20070319140010103/19/07 14:00:31  5-MIN KDBQ 192000Z 32018G25KT 10SM CLR 13/M02 A3000 1000 35 1000 320/18G25 RMK AO2
94908KDBQ DBQ20070319140510103/19/07 14:05:31  5-MIN KDBQ 192005Z 33017G25KT 10SM CLR 13/M02 A3000 1000 35 1000 330/17G25 RMK AO2
94908KDBQ DBQ20070319141010103/19/07 14:10:31  5-MIN KDBQ 192010Z 34013G22KT 10SM CLR 13/M02 A3000 1000 35 1100 340/13G22 RMK AO2
94908KDBQ DBQ20070319141510103/19/07 14:15:31  5-MIN KDBQ 192015Z 32018G23KT 10SM CLR 13/M02 A3001 1000 35 1100 320/18G23 RMK AO2
94908KDBQ DBQ20070319142010003/19/07 14:20:31  5-MIN KDBQ 192020Z 31017G25KT 10SM CLR 13/M03 A3001 990 32 1100 310/17G25 RMK AO2
94908KDBQ DBQ20070319142511803/19/07 14:25:31  5-MIN KDBQ 192025Z 31019G27KT 10SM CLR 13/M03 A3001 990 32 1000 310/19G27 RMK AO2 PK WND 32027/2021
94908KDBQ DBQ20070319143011703/19/07 14:30:31  5-MIN KDBQ 192030Z 33017G27KT 10SM CLR 12/M03 A3001 990 33 900 330/17G27 RMK AO2 PK WND 32027/2021
94908KDBQ DBQ20070319143511703/19/07 14:35:31  5-MIN KDBQ 192035Z 32018G25KT 10SM CLR 12/M04 A3002 990 32 900 310/18G25 RMK AO2 PK WND 32027/2021
94908KDBQ DBQ20070319144011203/19/07 14:40:31  5-MIN KDBQ 192040Z 34017KT 10SM CLR 13/M03 A3002 990 33 1000 340/17 RMK AO2 PK WND 32027/2021
94908KDBQ DBQ20070319144511203/19/07 14:45:31  5-MIN KDBQ 192045Z 31015KT 10SM CLR 13/M03 A3002 990 33 1000 300/15 RMK AO2 PK WND 32027/2021
94908KDBQ DBQ20070319145014003/19/07 14:50:31  5-MIN KDBQ 192050Z 32017G22KT 10SM CLR 12/M03 A3002 990 35 900 320/17G22 RMK AO2 PK WND 32027/2021 SLP171 T01221028 51031
94908KDBQ DBQ20070319145514003/19/07 14:55:31  5-MIN KDBQ 192055Z 33015G22KT 10SM CLR 12/M03 A3002 980 33 900 330/15G22 RMK AO2 PK WND 32027/2021 SLP172 T01221033 53016
94908KDBQ DBQ20070319150009903/19/07 15:00:31  5-MIN KDBQ 192100Z 31019G25KT 10SM CLR 12/M03 A3003 980 33 900 310/19G25 RMK AO2
94908KDBQ DBQ20070319150509903/19/07 15:05:31  5-MIN KDBQ 192105Z 32019G25KT 10SM CLR 12/M04 A3003 980 33 900 320/19G25 RMK AO2
94908KDBQ DBQ20070319151009303/19/07 15:10:31  5-MIN KDBQ 192110Z 32018KT 10SM CLR 12/M03 A3003 980 33 900 320/18 RMK AO2
94908KDBQ DBQ20070319151509303/19/07 15:15:31  5-MIN KDBQ 192115Z 31018KT 10SM CLR 12/M03 A3003 970 35 800 310/18 RMK AO2
94908KDBQ DBQ20070319152009903/19/07 15:20:31  5-MIN KDBQ 192120Z 31019G23KT 10SM CLR 12/M04 A3003 970 33 800 310/19G23 RMK AO2
94908KDBQ DBQ20070319152509903/19/07 15:25:31  5-MIN KDBQ 192125Z 31019G24KT 10SM CLR 12/M04 A3004 970 33 800 310/19G24 RMK AO2
94908KDBQ DBQ20070319153009903/19/07 15:30:31  5-MIN KDBQ 192130Z 31019G24KT 10SM CLR 11/M04 A3004 970 34 800 310/19G24 RMK AO2
94908KDBQ DBQ20070319153509903/19/07 15:35:31  5-MIN KDBQ 192135Z 30015G21KT 10SM CLR 12/M04 A3004 960 33 800 300/15G21 RMK AO2
94908KDBQ DBQ20070319154009903/19/07 15:40:31  5-MIN KDBQ 192140Z 31014G23KT 10SM CLR 12/M04 A3004 960 33 800 310/14G23 RMK AO2
94908KDBQ DBQ20070319154509903/19/07 15:45:31  5-MIN KDBQ 192145Z 32020G24KT 10SM CLR 11/M04 A3005 960 33 800 320/20G24 RMK AO2
94908KDBQ DBQ20070319155011603/19/07 15:50:31  5-MIN KDBQ 192150Z 31016G24KT 10SM CLR 11/M04 A3005 960 33 800 310/16G24 RMK AO2 SLP181 T01111044
94908KDBQ DBQ20070319155511003/19/07 15:55:31  5-MIN KDBQ 192155Z 32015KT 10SM CLR 11/M03 A3005 960 36 800 320/15 RMK AO2 SLP182 T01111033
94908KDBQ DBQ20070319160009903/19/07 16:00:31  5-MIN KDBQ 192200Z 31016G22KT 10SM CLR 11/M03 A3005 950 36 800 310/16G22 RMK AO2
94908KDBQ DBQ20070319160509903/19/07 16:05:31  5-MIN KDBQ 192205Z 33019G22KT 10SM CLR 11/M03 A3006 950 37 700 330/19G22 RMK AO2
94908KDBQ DBQ20070319161009903/19/07 16:10:31  5-MIN KDBQ 192210Z 31017G22KT 10SM CLR 11/M04 A3006 950 34 700 310/17G22 RMK AO2
94908KDBQ DBQ20070319161509303/19/07 16:15:31  5-MIN KDBQ 192215Z 32016KT 10SM CLR 11/M04 A3007 940 34 700 320/16 RMK AO2
94908KDBQ DBQ20070319162009303/19/07 16:20:31  5-MIN KDBQ 192220Z 33019KT 10SM CLR 11/M04 A3007 940 34 700 320/19 RMK AO2
94908KDBQ DBQ20070319162509303/19/07 16:25:31  5-MIN KDBQ 192225Z 33017KT 10SM CLR 10/M04 A3007 940 37 600 330/17 RMK AO2
94908KDBQ DBQ20070319163009903/19/07 16:30:31  5-MIN KDBQ 192230Z 31016G24KT 10SM CLR 10/M04 A3008 930 36 600 310/16G24 RMK AO2
94908KDBQ DBQ20070319163509903/19/07 16:35:31  5-MIN KDBQ 192235Z 33018G24KT 10SM CLR 10/M04 A3008 930 36 600 330/18G24 RMK AO2
94908KDBQ DBQ20070319164009903/19/07 16:40:31  5-MIN KDBQ 192240Z 33014G23KT 10SM CLR 10/M04 A3008 930 36 600 330/14G23 RMK AO2
94908KDBQ DBQ20070319164509303/19/07 16:45:31  5-MIN KDBQ 192245Z 33011KT 10SM CLR 10/M04 A3008 930 37 600 320/11 RMK AO2
94908KDBQ DBQ20070319165011003/19/07 16:50:31  5-MIN KDBQ 192250Z 32013KT 10SM CLR 10/M03 A3008 930 39 600 320/13 RMK AO2 SLP195 T01001033
94908KDBQ DBQ20070319165511003/19/07 16:55:31  5-MIN KDBQ 192255Z 31015KT 10SM CLR 09/M02 A3009 920 44 500 310/15 RMK AO2 SLP197 T00941022
94908KDBQ DBQ20070319170009303/19/07 17:00:31  5-MIN KDBQ 192300Z 32016KT 10SM CLR 09/M03 A3009 920 40 500 320/16 RMK AO2
94908KDBQ DBQ20070319170509303/19/07 17:05:31  5-MIN KDBQ 192305Z 33016KT 10SM CLR 09/M03 A3010 920 42 400 330/16 RMK AO2
94908KDBQ DBQ20070319171009303/19/07 17:10:31  5-MIN KDBQ 192310Z 32011KT 10SM CLR 09/M03 A3010 910 43 400 320/11 RMK AO2
94908KDBQ DBQ20070319171509903/19/07 17:15:31  5-MIN KDBQ 192315Z 31017G21KT 10SM CLR 08/M02 A3010 910 47 400 310/17G21 RMK AO2
94908KDBQ DBQ20070319172009903/19/07 17:20:31  5-MIN KDBQ 192320Z 32015G21KT 10SM CLR 08/M02 A3011 910 47 400 320/15G21 RMK AO2
94908KDBQ DBQ20070319172509303/19/07 17:25:31  5-MIN KDBQ 192325Z 33017KT 10SM CLR 08/M02 A3011 910 49 300 320/17 RMK AO2
94908KDBQ DBQ20070319173009903/19/07 17:30:31  5-MIN KDBQ 192330Z 32013G20KT 10SM CLR 08/M02 A3011 900 49 300 320/13G20 RMK AO2
94908KDBQ DBQ20070319173509303/19/07 17:35:31  5-MIN KDBQ 192335Z 32015KT 10SM CLR 08/M02 A3012 900 51 300 320/15 RMK AO2
94908KDBQ DBQ20070319174009303/19/07 17:40:31  5-MIN KDBQ 192340Z 33012KT 10SM CLR 07/M02 A3012 890 51 200 330/12 RMK AO2
94908KDBQ DBQ20070319174509303/19/07 17:45:31  5-MIN KDBQ 192345Z 33013KT 10SM CLR 07/M02 A3012 890 53 100 330/13 RMK AO2
94908KDBQ DBQ20070319175012803/19/07 17:50:31  5-MIN KDBQ 192350Z 33013KT 10SM CLR 07/M02 A3013 890 53 100 330/13 RMK AO2 SLP211 T00671022 10133 20067 53016
94908KDBQ DBQ20070319175512803/19/07 17:55:31  5-MIN KDBQ 192355Z 33013KT 10SM CLR 07/M02 A3013 880 53 100 330/13 RMK AO2 SLP213 T00671022 10133 20067 53036
94908KDBQ DBQ20070319180009303/19/07 18:00:31  5-MIN KDBQ 200000Z 32013KT 10SM CLR 06/M02 A3014 880 55 100 320/13 RMK AO2
94908KDBQ DBQ20070319180509303/19/07 18:05:31  5-MIN KDBQ 200005Z 33010KT 10SM CLR 06/M02 A3014 870 55 100 320/10 RMK AO2
94908KDBQ DBQ20070319181009103/19/07 18:10:31  5-MIN KDBQ 200010Z 32012KT 10SM CLR 06/M02 A3014 870 57 0 320/12 RMK AO2
94908KDBQ DBQ20070319181509103/19/07 18:15:31  5-MIN KDBQ 200015Z 33013KT 10SM CLR 06/M02 A3015 870 57 0 330/13 RMK AO2
94908KDBQ DBQ20070319182009103/19/07 18:20:31  5-MIN KDBQ 200020Z 32010KT 10SM CLR 05/M02 A3015 870 59 0 320/10 RMK AO2
94908KDBQ DBQ20070319182509703/19/07 18:25:31  5-MIN KDBQ 200025Z 32015G20KT 10SM CLR 05/M02 A3015 870 59 0 320/15G20 RMK AO2
94908KDBQ DBQ20070319183009703/19/07 18:30:31  5-MIN KDBQ 200030Z 33013G20KT 10SM CLR 05/M02 A3015 870 59 0 320/13G20 RMK AO2
94908KDBQ DBQ20070319183509103/19/07 18:35:31  5-MIN KDBQ 200035Z 32011KT 10SM CLR 05/M02 A3015 860 59 0 320/11 RMK AO2
94908KDBQ DBQ20070319184009403/19/07 18:40:31  5-MIN KDBQ 200040Z 32010KT 10SM CLR 04/M02 A3016 860 62 -100 320/10 RMK AO2
94908KDBQ DBQ20070319184509403/19/07 18:45:31  5-MIN KDBQ 200045Z 31009KT 10SM CLR 04/M02 A3016 860 62 -100 310/09 RMK AO2
94908KDBQ DBQ20070319185012103/19/07 18:50:31  5-MIN KDBQ 200050Z AUTO 31011KT 10SM CLR 04/M02 A3016 850 62 -100 310/11 RMK AO2 SLP225 T00441022 TSNO
94908KDBQ DBQ20070319185512103/19/07 18:55:31  5-MIN KDBQ 200055Z AUTO 30008KT 10SM CLR 04/M02 A3017 850 64 -200 300/08 RMK AO2 SLP226 T00391022 TSNO
94908KDBQ DBQ20070319190010403/19/07 19:00:31  5-MIN KDBQ 200100Z AUTO 32009KT 10SM CLR 04/M02 A3017 850 64 -200 320/09 RMK AO2 TSNO
94908KDBQ DBQ20070319190510403/19/07 19:05:31  5-MIN KDBQ 200105Z AUTO 32010KT 10SM CLR 04/M02 A3018 840 64 -200 320/10 RMK AO2 TSNO
94908KDBQ DBQ20070319191010403/19/07 19:10:31  5-MIN KDBQ 200110Z AUTO 31009KT 10SM CLR 04/M02 A3018 840 64 -200 310/09 RMK AO2 TSNO
94908KDBQ DBQ20070319191510403/19/07 19:15:31  5-MIN KDBQ 200115Z AUTO 31010KT 10SM CLR 04/M02 A3019 830 64 -200 310/10 RMK AO2 TSNO
94908KDBQ DBQ20070319192010403/19/07 19:20:31  5-MIN KDBQ 200120Z AUTO 32009KT 10SM CLR 04/M02 A3019 830 64 -200 320/09 RMK AO2 TSNO
94908KDBQ DBQ20070319192510403/19/07 19:25:31  5-MIN KDBQ 200125Z AUTO 31009KT 10SM CLR 03/M03 A3020 830 64 -300 310/09 RMK AO2 TSNO
94908KDBQ DBQ20070319193010403/19/07 19:30:31  5-MIN KDBQ 200130Z AUTO 31009KT 10SM CLR 04/M03 A3020 820 62 -200 310/09 RMK AO2 TSNO
94908KDBQ DBQ20070319193510403/19/07 19:35:31  5-MIN KDBQ 200135Z AUTO 32009KT 10SM CLR 03/M03 A3020 820 64 -300 320/09 RMK AO2 TSNO
94908KDBQ DBQ20070319194010403/19/07 19:40:31  5-MIN KDBQ 200140Z AUTO 32011KT 10SM CLR 03/M03 A3020 820 64 -300 320/11 RMK AO2 TSNO
94908KDBQ DBQ20070319194510403/19/07 19:45:31  5-MIN KDBQ 200145Z AUTO 32014KT 10SM CLR 03/M03 A3020 820 64 -300 320/14 RMK AO2 TSNO
94908KDBQ DBQ20070319195012103/19/07 19:50:31  5-MIN KDBQ 200150Z AUTO 32011KT 10SM CLR 03/M03 A3020 820 64 -300 320/11 RMK AO2 SLP238 T00331028 TSNO
94908KDBQ DBQ20070319195512103/19/07 19:55:31  5-MIN KDBQ 200155Z AUTO 32011KT 10SM CLR 03/M03 A3021 810 64 -300 320/11 RMK AO2 SLP239 T00331028 TSNO
94908KDBQ DBQ20070319200010403/19/07 20:00:31  5-MIN KDBQ 200200Z AUTO 32011KT 10SM CLR 03/M03 A3021 810 67 -400 320/11 RMK AO2 TSNO
94908KDBQ DBQ20070319200510403/19/07 20:05:31  5-MIN KDBQ 200205Z AUTO 32011KT 10SM CLR 03/M03 A3021 810 67 -400 320/11 RMK AO2 TSNO
94908KDBQ DBQ20070319201010403/19/07 20:10:31  5-MIN KDBQ 200210Z AUTO 32012KT 10SM CLR 03/M03 A3022 810 67 -400 320/12 RMK AO2 TSNO
94908KDBQ DBQ20070319201510403/19/07 20:15:31  5-MIN KDBQ 200215Z AUTO 32010KT 10SM CLR 03/M03 A3022 800 64 -400 320/10 RMK AO2 TSNO
94908KDBQ DBQ20070319202010403/19/07 20:20:31  5-MIN KDBQ 200220Z AUTO 31010KT 10SM CLR 03/M03 A3022 800 64 -400 310/10 RMK AO2 TSNO
94908KDBQ DBQ20070319202510403/19/07 20:25:31  5-MIN KDBQ 200225Z AUTO 32011KT 10SM CLR 03/M03 A3023 790 64 -400 320/11 RMK AO2 TSNO
94908KDBQ DBQ20070319203010403/19/07 20:30:31  5-MIN KDBQ 200230Z AUTO 32010KT 10SM CLR 03/M03 A3023 790 64 -400 320/10 RMK AO2 TSNO
94908KDBQ DBQ20070319203510403/19/07 20:35:31  5-MIN KDBQ 200235Z AUTO 32012KT 10SM CLR 02/M03 A3023 790 67 -500 320/12 RMK AO2 TSNO
94908KDBQ DBQ20070319204010403/19/07 20:40:31  5-MIN KDBQ 200240Z AUTO 32012KT 10SM CLR 02/M03 A3023 790 67 -500 320/12 RMK AO2 TSNO
94908KDBQ DBQ20070319204510403/19/07 20:45:31  5-MIN KDBQ 200245Z AUTO 32011KT 10SM CLR 02/M03 A3024 780 67 -500 320/11 RMK AO2 TSNO
94908KDBQ DBQ20070319205012703/19/07 20:50:31  5-MIN KDBQ 200250Z AUTO 32010KT 10SM CLR 02/M03 A3024 780 67 -500 320/10 RMK AO2 SLP249 T00221033 53036 TSNO
94908KDBQ DBQ20070319205512703/19/07 20:55:31  5-MIN KDBQ 200255Z AUTO 32011KT 10SM CLR 02/M03 A3024 780 67 -500 320/11 RMK AO2 SLP249 T00221033 51036 TSNO
94908KDBQ DBQ20070319210010403/19/07 21:00:31  5-MIN KDBQ 200300Z AUTO 32011KT 10SM CLR 02/M03 A3024 780 67 -500 320/11 RMK AO2 TSNO
94908KDBQ DBQ20070319210510403/19/07 21:05:31  5-MIN KDBQ 200305Z AUTO 33012KT 10SM CLR 02/M03 A3025 780 67 -500 330/12 RMK AO2 TSNO
94908KDBQ DBQ20070319211010403/19/07 21:10:31  5-MIN KDBQ 200310Z AUTO 33010KT 10SM CLR 02/M04 A3025 770 64 -500 330/10 RMK AO2 TSNO
94908KDBQ DBQ20070319211510403/19/07 21:15:31  5-MIN KDBQ 200315Z AUTO 33010KT 10SM CLR 02/M04 A3026 770 64 -500 330/10 RMK AO2 TSNO
94908KDBQ DBQ20070319212010403/19/07 21:20:31  5-MIN KDBQ 200320Z AUTO 34009KT 10SM CLR 02/M04 A3026 770 64 -500 340/09 RMK AO2 TSNO
94908KDBQ DBQ20070319212510403/19/07 21:25:31  5-MIN KDBQ 200325Z AUTO 34008KT 10SM CLR 02/M04 A3026 760 66 -600 330/08 RMK AO2 TSNO
94908KDBQ DBQ20070319213010403/19/07 21:30:31  5-MIN KDBQ 200330Z AUTO 34008KT 10SM CLR 02/M04 A3026 760 66 -600 340/08 RMK AO2 TSNO
94908KDBQ DBQ20070319213510403/19/07 21:35:31  5-MIN KDBQ 200335Z AUTO 34008KT 10SM CLR 02/M04 A3027 760 64 -600 340/08 RMK AO2 TSNO
94908KDBQ DBQ20070319214010403/19/07 21:40:31  5-MIN KDBQ 200340Z AUTO 35005KT 10SM CLR 02/M04 A3027 760 64 -600 350/05 RMK AO2 TSNO
94908KDBQ DBQ20070319214510403/19/07 21:45:31  5-MIN KDBQ 200345Z AUTO 35005KT 10SM CLR 01/M04 A3027 750 66 -700 350/05 RMK AO2 TSNO
94908KDBQ DBQ20070319215012103/19/07 21:50:31  5-MIN KDBQ 200350Z AUTO 34006KT 10SM CLR 01/M04 A3028 750 66 -700 340/06 RMK AO2 SLP261 T00111044 TSNO
94908KDBQ DBQ20070319215512103/19/07 21:55:31  5-MIN KDBQ 200355Z AUTO 35007KT 10SM CLR 01/M04 A3028 750 66 -700 350/07 RMK AO2 SLP262 T00111044 TSNO
94908KDBQ DBQ20070319220010403/19/07 22:00:31  5-MIN KDBQ 200400Z AUTO 34006KT 10SM CLR 01/M04 A3028 750 66 -700 340/06 RMK AO2 TSNO
94908KDBQ DBQ20070319220510403/19/07 22:05:31  5-MIN KDBQ 200405Z AUTO 34008KT 10SM CLR 01/M04 A3028 740 66 -700 340/08 RMK AO2 TSNO
94908KDBQ DBQ20070319221010403/19/07 22:10:31  5-MIN KDBQ 200410Z AUTO 34009KT 10SM CLR 01/M04 A3028 740 66 -700 340/09 RMK AO2 TSNO
94908KDBQ DBQ20070319221510403/19/07 22:15:31  5-MIN KDBQ 200415Z AUTO 34010KT 10SM CLR 01/M04 A3029 740 66 -700 340/10 RMK AO2 TSNO
94908KDBQ DBQ20070319222010403/19/07 22:20:31  5-MIN KDBQ 200420Z AUTO 34011KT 10SM CLR 01/M04 A3029 740 66 -700 340/11 RMK AO2 TSNO
94908KDBQ DBQ20070319222510403/19/07 22:25:31  5-MIN KDBQ 200425Z AUTO 35010KT 10SM CLR 01/M04 A3029 740 66 -700 340/10 RMK AO2 TSNO
94908KDBQ DBQ20070319223010403/19/07 22:30:31  5-MIN KDBQ 200430Z AUTO 35009KT 10SM CLR 01/M04 A3029 740 69 -800 350/09 RMK AO2 TSNO
94908KDBQ DBQ20070319223510403/19/07 22:35:31  5-MIN KDBQ 200435Z AUTO 35009KT 10SM CLR 01/M04 A3029 740 69 -800 350/09 RMK AO2 TSNO
94908KDBQ DBQ20070319224010403/19/07 22:40:31  5-MIN KDBQ 200440Z AUTO 35010KT 10SM CLR 01/M04 A3029 740 69 -800 350/10 RMK AO2 TSNO
94908KDBQ DBQ20070319224510403/19/07 22:45:31  5-MIN KDBQ 200445Z AUTO 35009KT 10SM CLR 01/M04 A3029 740 69 -800 350/09 RMK AO2 TSNO
94908KDBQ DBQ20070319225012103/19/07 22:50:31  5-MIN KDBQ 200450Z AUTO 35008KT 10SM CLR 01/M04 A3030 730 69 -800 350/08 RMK AO2 SLP268 T00061044 TSNO
94908KDBQ DBQ20070319225512103/19/07 22:55:31  5-MIN KDBQ 200455Z AUTO 36008KT 10SM CLR 00/M04 A3030 730 72 -800 350/08 RMK AO2 SLP269 T00001044 TSNO
94908KDBQ DBQ20070319230010503/19/07 23:00:31  5-MIN KDBQ 200500Z AUTO 35009KT 10SM CLR M01/M04 A3030 730 75 -900 350/09 RMK AO2 TSNO
94908KDBQ DBQ20070319230510403/19/07 23:05:31  5-MIN KDBQ 200505Z AUTO 35009KT 10SM CLR 00/M04 A3030 730 72 -800 340/09 RMK AO2 TSNO
94908KDBQ DBQ20070319231010403/19/07 23:10:31  5-MIN KDBQ 200510Z AUTO 35008KT 10SM CLR 00/M04 A3030 730 72 -800 350/08 RMK AO2 TSNO
94908KDBQ DBQ20070319231510503/19/07 23:15:31  5-MIN KDBQ 200515Z AUTO 35008KT 10SM CLR M01/M04 A3031 720 75 -900 350/08 RMK AO2 TSNO
94908KDBQ DBQ20070319232010503/19/07 23:20:31  5-MIN KDBQ 200520Z AUTO 35007KT 10SM CLR M01/M05 A3031 720 72 -900 350/07 RMK AO2 TSNO
94908KDBQ DBQ20070319232510503/19/07 23:25:31  5-MIN KDBQ 200525Z AUTO 35008KT 10SM CLR M01/M05 A3031 720 72 -900 350/08 RMK AO2 TSNO
94908KDBQ DBQ20070319233010503/19/07 23:30:31  5-MIN KDBQ 200530Z AUTO 36007KT 10SM CLR M01/M05 A3031 720 72 -900 360/07 RMK AO2 TSNO
94908KDBQ DBQ20070319233510503/19/07 23:35:31  5-MIN KDBQ 200535Z AUTO 01008KT 10SM CLR M01/M05 A3031 720 72 -900 010/08 RMK AO2 TSNO
94908KDBQ DBQ20070319234010503/19/07 23:40:31  5-MIN KDBQ 200540Z AUTO 36009KT 10SM CLR M01/M05 A3031 720 72 -900 360/09 RMK AO2 TSNO
94908KDBQ DBQ20070319234510503/19/07 23:45:31  5-MIN KDBQ 200545Z AUTO 01010KT 10SM CLR M01/M05 A3032 710 72 -900 010/10 RMK AO2 TSNO
94908KDBQ DBQ20070319235014903/19/07 23:50:31  5-MIN KDBQ 200550Z AUTO 01009KT 10SM CLR 00/M05 A3032 710 69 -900 010/09 RMK AO2 SLP275 T00001050 10067 21006 401331006 51036 TSNO
94908KDBQ DBQ20070319235515003/19/07 23:55:31  5-MIN KDBQ 200555Z AUTO 01008KT 10SM CLR M01/M05 A3032 710 72 -900 010/08 RMK AO2 SLP275 T10061050 10067 21006 401331006 51025 TSNO
94908KDBQ DBQ20070320000010503/20/07 00:00:38  5-MIN KDBQ 200600Z AUTO 02009KT 10SM CLR M01/M05 A3032 710 72 -900 010/09 RMK AO2 TSNO
94908KDBQ DBQ20070320000510503/20/07 00:05:31  5-MIN KDBQ 200605Z AUTO 01010KT 10SM CLR M01/M05 A3032 710 72 -900 010/10 RMK AO2 TSNO
94908KDBQ DBQ20070320001010403/20/07 00:10:31  5-MIN KDBQ 200610Z AUTO 02011KT 10SM CLR 00/M05 A3032 710 69 -900 020/11 RMK AO2 TSNO
94908KDBQ DBQ20070320001510403/20/07 00:15:31  5-MIN KDBQ 200615Z AUTO 03010KT 10SM CLR 00/M05 A3032 710 69 -900 030/10 RMK AO2 TSNO
94908KDBQ DBQ20070320002010403/20/07 00:20:31  5-MIN KDBQ 200620Z AUTO 02010KT 10SM CLR 00/M05 A3032 710 69 -900 020/10 RMK AO2 TSNO
94908KDBQ DBQ20070320002510403/20/07 00:25:31  5-MIN KDBQ 200625Z AUTO 02010KT 10SM CLR 00/M05 A3032 710 69 -900 020/10 RMK AO2 TSNO
94908KDBQ DBQ20070320003010403/20/07 00:30:31  5-MIN KDBQ 200630Z AUTO 03011KT 10SM CLR 00/M05 A3032 710 69 -900 020/11 RMK AO2 TSNO
94908KDBQ DBQ20070320003510403/20/07 00:35:31  5-MIN KDBQ 200635Z AUTO 02011KT 10SM CLR 00/M06 A3033 700 66 -900 020/11 RMK AO2 TSNO
94908KDBQ DBQ20070320004010403/20/07 00:40:31  5-MIN KDBQ 200640Z AUTO 02011KT 10SM CLR 00/M06 A3033 700 66 -900 020/11 RMK AO2 TSNO
94908KDBQ DBQ20070320004510403/20/07 00:45:31  5-MIN KDBQ 200645Z AUTO 02010KT 10SM CLR 00/M06 A3033 700 66 -900 020/10 RMK AO2 TSNO
94908KDBQ DBQ20070320005012103/20/07 00:50:31  5-MIN KDBQ 200650Z AUTO 02011KT 10SM CLR 00/M06 A3033 700 66 -900 020/11 RMK AO2 SLP278 T00001056 TSNO
94908KDBQ DBQ20070320005512103/20/07 00:55:31  5-MIN KDBQ 200655Z AUTO 02009KT 10SM CLR 00/M06 A3033 700 66 -900 020/09 RMK AO2 SLP279 T00001056 TSNO
94908KDBQ DBQ20070320010010403/20/07 01:00:31  5-MIN KDBQ 200700Z AUTO 03006KT 10SM CLR 00/M06 A3033 700 63 -900 030/06 RMK AO2 TSNO
94908KDBQ DBQ20070320010510503/20/07 01:05:31  5-MIN KDBQ 200705Z AUTO 02006KT 10SM CLR M01/M06 A3033 700 66 -900 020/06 RMK AO2 TSNO
94908KDBQ DBQ20070320011010503/20/07 01:10:31  5-MIN KDBQ 200710Z AUTO 02006KT 10SM CLR M01/M06 A3033 700 66 -900 020/06 RMK AO2 TSNO
94908KDBQ DBQ20070320011510603/20/07 01:15:31  5-MIN KDBQ 200715Z AUTO 03006KT 10SM CLR M01/M07 A3034 700 66 -1000 030/06 RMK AO2 TSNO
94908KDBQ DBQ20070320012010603/20/07 01:20:31  5-MIN KDBQ 200720Z AUTO 02009KT 10SM CLR M01/M07 A3034 700 66 -1000 020/09 RMK AO2 TSNO
94908KDBQ DBQ20070320012510503/20/07 01:25:31  5-MIN KDBQ 200725Z AUTO 03009KT 10SM CLR M01/M07 A3033 700 63 -900 030/09 RMK AO2 TSNO
94908KDBQ DBQ20070320013010603/20/07 01:30:31  5-MIN KDBQ 200730Z AUTO 03006KT 10SM CLR M01/M07 A3034 690 63 -1000 030/06 RMK AO2 TSNO
94908KDBQ DBQ20070320013510603/20/07 01:35:31  5-MIN KDBQ 200735Z AUTO 03007KT 10SM CLR M01/M07 A3034 690 61 -1000 030/07 RMK AO2 TSNO
94908KDBQ DBQ20070320014010603/20/07 01:40:31  5-MIN KDBQ 200740Z AUTO 03008KT 10SM CLR M01/M07 A3034 690 63 -1000 030/08 RMK AO2 TSNO
94908KDBQ DBQ20070320014510603/20/07 01:45:31  5-MIN KDBQ 200745Z AUTO 03009KT 10SM CLR M01/M07 A3034 690 66 -1000 030/09 RMK AO2 TSNO
94908KDBQ DBQ20070320015012303/20/07 01:50:31  5-MIN KDBQ 200750Z AUTO 02010KT 10SM CLR M01/M07 A3034 690 66 -1000 020/10 RMK AO2 SLP282 T10111067 TSNO
94908KDBQ DBQ20070320015512303/20/07 01:55:31  5-MIN KDBQ 200755Z AUTO 02009KT 10SM CLR M01/M07 A3034 690 63 -1000 020/09 RMK AO2 SLP283 T10061067 TSNO
94908KDBQ DBQ20070320020010603/20/07 02:00:31  5-MIN KDBQ 200800Z AUTO 02010KT 10SM CLR M01/M07 A3035 690 61 -1000 020/10 RMK AO2 TSNO
94908KDBQ DBQ20070320020510603/20/07 02:05:31  5-MIN KDBQ 200805Z AUTO 02010KT 10SM CLR M01/M07 A3034 690 66 -1000 020/10 RMK AO2 TSNO
94908KDBQ DBQ20070320021010603/20/07 02:10:31  5-MIN KDBQ 200810Z AUTO 02007KT 10SM CLR M01/M07 A3035 680 66 -1000 020/07 RMK AO2 TSNO
94908KDBQ DBQ20070320021510603/20/07 02:15:31  5-MIN KDBQ 200815Z AUTO 02009KT 10SM CLR M01/M07 A3034 690 63 -1000 020/09 RMK AO2 TSNO
94908KDBQ DBQ20070320022010603/20/07 02:20:31  5-MIN KDBQ 200820Z AUTO 02008KT 10SM CLR M01/M07 A3035 680 63 -1000 020/08 RMK AO2 TSNO
94908KDBQ DBQ20070320022510603/20/07 02:25:31  5-MIN KDBQ 200825Z AUTO 03007KT 10SM CLR M01/M07 A3035 680 63 -1000 030/07 RMK AO2 TSNO
94908KDBQ DBQ20070320023010603/20/07 02:30:31  5-MIN KDBQ 200830Z AUTO 02007KT 10SM CLR M01/M07 A3035 680 63 -1000 020/07 RMK AO2 TSNO
94908KDBQ DBQ20070320023510603/20/07 02:35:31  5-MIN KDBQ 200835Z AUTO 03006KT 10SM CLR M01/M07 A3036 680 63 -1000 030/06 RMK AO2 TSNO
94908KDBQ DBQ20070320024010603/20/07 02:40:31  5-MIN KDBQ 200840Z AUTO 04004KT 10SM CLR M02/M07 A3036 680 66 -1100 040/04 RMK AO2 TSNO
94908KDBQ DBQ20070320024510603/20/07 02:45:31  5-MIN KDBQ 200845Z AUTO 03005KT 10SM CLR M02/M08 A3036 670 63 -1100 030/05 RMK AO2 TSNO
94908KDBQ DBQ20070320025012903/20/07 02:50:31  5-MIN KDBQ 200850Z AUTO 02007KT 10SM CLR M02/M08 A3036 680 66 -1200 020/07 RMK AO2 SLP289 T10221078 51025 TSNO
94908KDBQ DBQ20070320025512903/20/07 02:55:31  5-MIN KDBQ 200855Z AUTO 03007KT 10SM CLR M02/M07 A3036 680 69 -1200 030/07 RMK AO2 SLP289 T10221072 53013 TSNO
94908KDBQ DBQ20070320030010603/20/07 03:00:31  5-MIN KDBQ 200900Z AUTO 03005KT 10SM CLR M02/M07 A3036 680 66 -1100 030/05 RMK AO2 TSNO
94908KDBQ DBQ20070320030510603/20/07 03:05:31  5-MIN KDBQ 200905Z AUTO 04005KT 10SM CLR M02/M08 A3036 670 66 -1200 040/05 RMK AO2 TSNO
94908KDBQ DBQ20070320031010603/20/07 03:10:31  5-MIN KDBQ 200910Z AUTO 04007KT 10SM CLR M02/M08 A3036 670 63 -1100 040/07 RMK AO2 TSNO
94908KDBQ DBQ20070320031510603/20/07 03:15:31  5-MIN KDBQ 200915Z AUTO 03008KT 10SM CLR M02/M07 A3036 680 66 -1100 030/08 RMK AO2 TSNO
94908KDBQ DBQ20070320032010603/20/07 03:20:31  5-MIN KDBQ 200920Z AUTO 03008KT 10SM CLR M02/M07 A3036 680 66 -1100 030/08 RMK AO2 TSNO
94908KDBQ DBQ20070320032510603/20/07 03:25:31  5-MIN KDBQ 200925Z AUTO 03008KT 10SM CLR M02/M07 A3036 670 66 -1100 030/08 RMK AO2 TSNO
94908KDBQ DBQ20070320033010603/20/07 03:30:31  5-MIN KDBQ 200930Z AUTO 04007KT 10SM CLR M02/M07 A3036 680 66 -1100 040/07 RMK AO2 TSNO
94908KDBQ DBQ20070320033510603/20/07 03:35:31  5-MIN KDBQ 200935Z AUTO 04008KT 10SM CLR M02/M07 A3036 670 69 -1200 040/08 RMK AO2 TSNO
94908KDBQ DBQ20070320034010603/20/07 03:40:31  5-MIN KDBQ 200940Z AUTO 04007KT 10SM CLR M02/M07 A3036 670 66 -1100 040/07 RMK AO2 TSNO
94908KDBQ DBQ20070320034510603/20/07 03:45:31  5-MIN KDBQ 200945Z AUTO 04007KT 10SM CLR M02/M07 A3037 670 66 -1100 040/07 RMK AO2 TSNO
94908KDBQ DBQ20070320035012303/20/07 03:50:31  5-MIN KDBQ 200950Z AUTO 04007KT 10SM CLR M02/M07 A3037 670 69 -1200 040/07 RMK AO2 SLP293 T10221072 TSNO
94908KDBQ DBQ20070320035512303/20/07 03:55:31  5-MIN KDBQ 200955Z AUTO 03007KT 10SM CLR M02/M07 A3037 670 69 -1200 030/07 RMK AO2 SLP293 T10221072 TSNO
94908KDBQ DBQ20070320040010603/20/07 04:00:31  5-MIN KDBQ 201000Z AUTO 04008KT 10SM CLR M02/M07 A3037 670 69 -1200 030/08 RMK AO2 TSNO
94908KDBQ DBQ20070320040510603/20/07 04:05:31  5-MIN KDBQ 201005Z AUTO 04007KT 10SM CLR M02/M07 A3037 670 69 -1200 040/07 RMK AO2 TSNO
94908KDBQ DBQ20070320041010603/20/07 04:10:31  5-MIN KDBQ 201010Z AUTO 04007KT 10SM CLR M02/M07 A3037 660 69 -1200 040/07 RMK AO2 TSNO
94908KDBQ DBQ20070320041510603/20/07 04:15:31  5-MIN KDBQ 201015Z AUTO 04007KT 10SM CLR M02/M07 A3037 660 69 -1200 030/07 RMK AO2 TSNO
94908KDBQ DBQ20070320042010603/20/07 04:20:31  5-MIN KDBQ 201020Z AUTO 04008KT 10SM CLR M02/M07 A3037 660 69 -1200 040/08 RMK AO2 TSNO
94908KDBQ DBQ20070320042510603/20/07 04:25:31  5-MIN KDBQ 201025Z AUTO 04008KT 10SM CLR M02/M07 A3037 660 69 -1200 040/08 RMK AO2 TSNO
94908KDBQ DBQ20070320043010603/20/07 04:30:31  5-MIN KDBQ 201030Z AUTO 05009KT 10SM CLR M02/M07 A3038 660 69 -1200 040/09 RMK AO2 TSNO
94908KDBQ DBQ20070320043510603/20/07 04:35:31  5-MIN KDBQ 201035Z AUTO 04010KT 10SM CLR M02/M07 A3037 660 69 -1200 040/10 RMK AO2 TSNO
94908KDBQ DBQ20070320044009603/20/07 04:40:31  5-MIN KDBQ 201040Z 04010KT 10SM CLR M02/M07 A3037 670 66 -1100 040/10 RMK AO2
94908KDBQ DBQ20070320044509603/20/07 04:45:31  5-MIN KDBQ 201045Z 05010KT 10SM CLR M02/M08 A3037 660 63 -1100 050/10 RMK AO2
94908KDBQ DBQ20070320045011303/20/07 04:50:31  5-MIN KDBQ 201050Z 05009KT 10SM CLR M02/M08 A3038 660 63 -1100 050/09 RMK AO2 SLP296 T10171078
94908KDBQ DBQ20070320045511303/20/07 04:55:31  5-MIN KDBQ 201055Z 05009KT 10SM CLR M02/M08 A3038 650 66 -1200 050/09 RMK AO2 SLP298 T10221078
94908KDBQ DBQ20070320050009603/20/07 05:00:31  5-MIN KDBQ 201100Z 05010KT 10SM CLR M02/M08 A3038 650 66 -1200 050/10 RMK AO2
94908KDBQ DBQ20070320050509603/20/07 05:05:31  5-MIN KDBQ 201105Z 05010KT 10SM CLR M02/M08 A3039 650 66 -1200 050/10 RMK AO2
94908KDBQ DBQ20070320051009603/20/07 05:10:31  5-MIN KDBQ 201110Z 05009KT 10SM CLR M02/M08 A3039 650 66 -1200 050/09 RMK AO2
94908KDBQ DBQ20070320051509603/20/07 05:15:31  5-MIN KDBQ 201115Z 05008KT 10SM CLR M02/M08 A3039 650 66 -1200 050/08 RMK AO2
94908KDBQ DBQ20070320052009603/20/07 05:20:31  5-MIN KDBQ 201120Z 05010KT 10SM CLR M02/M08 A3040 640 66 -1200 050/10 RMK AO2
94908KDBQ DBQ20070320052509603/20/07 05:25:31  5-MIN KDBQ 201125Z 04010KT 10SM CLR M02/M08 A3040 640 66 -1200 040/10 RMK AO2
94908KDBQ DBQ20070320053009603/20/07 05:30:31  5-MIN KDBQ 201130Z 05008KT 10SM CLR M03/M08 A3040 630 68 -1300 050/08 RMK AO2
94908KDBQ DBQ20070320053509603/20/07 05:35:31  5-MIN KDBQ 201135Z 05009KT 10SM CLR M02/M08 A3041 630 63 -1200 050/09 RMK AO2
94908KDBQ DBQ20070320054009603/20/07 05:40:31  5-MIN KDBQ 201140Z 05009KT 10SM CLR M02/M08 A3041 630 63 -1200 050/09 RMK AO2
94908KDBQ DBQ20070320054509603/20/07 05:45:31  5-MIN KDBQ 201145Z 07009KT 10SM CLR M02/M08 A3042 620 63 -1200 070/09 RMK AO2
94908KDBQ DBQ20070320055013103/20/07 05:50:31  5-MIN KDBQ 201150Z 07011KT 10SM CLR M02/M08 A3042 620 63 -1300 070/11 RMK AO2 SLP313 T10221083 10000 21028 53013
94908KDBQ DBQ20070320055513103/20/07 05:55:31  5-MIN KDBQ 201155Z 07009KT 10SM CLR M02/M08 A3043 610 63 -1300 070/09 RMK AO2 SLP314 T10221083 10000 21028 53023
94908KDBQ DBQ20070320060009603/20/07 06:00:31  5-MIN KDBQ 201200Z 07010KT 10SM CLR M02/M08 A3042 620 63 -1300 070/10 RMK AO2
94908KDBQ DBQ20070320060509603/20/07 06:05:31  5-MIN KDBQ 201205Z 07009KT 10SM CLR M03/M08 A3043 610 66 -1300 070/09 RMK AO2
94908KDBQ DBQ20070320061009603/20/07 06:10:31  5-MIN KDBQ 201210Z 08009KT 10SM CLR M02/M08 A3043 610 63 -1300 070/09 RMK AO2
94908KDBQ DBQ20070320061509603/20/07 06:15:31  5-MIN KDBQ 201215Z 07009KT 10SM CLR M03/M08 A3043 610 66 -1300 070/09 RMK AO2
94908KDBQ DBQ20070320062009603/20/07 06:20:31  5-MIN KDBQ 201220Z 07009KT 10SM CLR M03/M08 A3043 610 66 -1300 070/09 RMK AO2
94908KDBQ DBQ20070320062509603/20/07 06:25:31  5-MIN KDBQ 201225Z 07009KT 10SM CLR M03/M08 A3043 610 66 -1300 070/09 RMK AO2
94908KDBQ DBQ20070320063009603/20/07 06:30:31  5-MIN KDBQ 201230Z 07009KT 10SM CLR M03/M09 A3044 600 63 -1300 070/09 RMK AO2
94908KDBQ DBQ20070320063509603/20/07 06:35:31  5-MIN KDBQ 201235Z 07008KT 10SM CLR M02/M08 A3044 600 63 -1300 070/08 RMK AO2
94908KDBQ DBQ20070320064009603/20/07 06:40:31  5-MIN KDBQ 201240Z 07008KT 10SM CLR M02/M08 A3044 600 63 -1300 070/08 RMK AO2
94908KDBQ DBQ20070320064509603/20/07 06:45:31  5-MIN KDBQ 201245Z 07008KT 10SM CLR M02/M08 A3045 600 63 -1300 070/08 RMK AO2
94908KDBQ DBQ20070320065011303/20/07 06:50:31  5-MIN KDBQ 201250Z 07008KT 10SM CLR M02/M08 A3045 590 63 -1300 070/08 RMK AO2 SLP322 T10221083
94908KDBQ DBQ20070320065511303/20/07 06:55:31  5-MIN KDBQ 201255Z 07008KT 10SM CLR M02/M08 A3045 600 63 -1300 070/08 RMK AO2 SLP322 T10221083
94908KDBQ DBQ20070320070009603/20/07 07:00:31  5-MIN KDBQ 201300Z 08007KT 10SM CLR M02/M08 A3045 590 60 -1200 080/07 RMK AO2
94908KDBQ DBQ20070320070509603/20/07 07:05:31  5-MIN KDBQ 201305Z 08007KT 10SM CLR M02/M08 A3045 590 60 -1200 070/07 RMK AO2
94908KDBQ DBQ20070320071009603/20/07 07:10:31  5-MIN KDBQ 201310Z 09008KT 10SM CLR M02/M08 A3045 590 60 -1200 080/08 RMK AO2
94908KDBQ DBQ20070320071509603/20/07 07:15:31  5-MIN KDBQ 201315Z 08009KT 10SM CLR M02/M08 A3045 590 60 -1200 080/09 RMK AO2
94908KDBQ DBQ20070320072009603/20/07 07:20:31  5-MIN KDBQ 201320Z 08009KT 10SM CLR M01/M08 A3045 590 58 -1100 080/09 RMK AO2
94908KDBQ DBQ20070320072509603/20/07 07:25:31  5-MIN KDBQ 201325Z 10009KT 10SM CLR M01/M08 A3045 590 60 -1100 100/09 RMK AO2
94908KDBQ DBQ20070320073009603/20/07 07:30:31  5-MIN KDBQ 201330Z 09014KT 10SM CLR M01/M08 A3045 590 60 -1100 090/14 RMK AO2
94908KDBQ DBQ20070320073509603/20/07 07:35:31  5-MIN KDBQ 201335Z 09014KT 10SM CLR M01/M08 A3045 590 60 -1100 090/14 RMK AO2
94908KDBQ DBQ20070320074009603/20/07 07:40:31  5-MIN KDBQ 201340Z 10011KT 10SM CLR M01/M07 A3045 590 63 -1100 100/11 RMK AO2
94908KDBQ DBQ20070320074509603/20/07 07:45:31  5-MIN KDBQ 201345Z 10012KT 10SM CLR M01/M07 A3045 590 63 -1200 100/12 RMK AO2
94908KDBQ DBQ20070320075011303/20/07 07:50:31  5-MIN KDBQ 201350Z 10012KT 10SM CLR M01/M07 A3046 590 63 -1100 100/12 RMK AO2 SLP325 T10061067
94908KDBQ DBQ20070320075511303/20/07 07:55:31  5-MIN KDBQ 201355Z 11012KT 10SM CLR M01/M07 A3046 580 63 -1100 110/12 RMK AO2 SLP326 T10061067
94908KDBQ DBQ20070320080010203/20/07 08:00:31  5-MIN KDBQ 201400Z 12015G19KT 10SM CLR M01/M07 A3046 590 63 -1100 110/15G19 RMK AO2
94908KDBQ DBQ20070320080509603/20/07 08:05:31  5-MIN KDBQ 201405Z 11015KT 10SM CLR M01/M07 A3046 590 63 -1100 110/15 RMK AO2
94908KDBQ DBQ20070320081010203/20/07 08:10:31  5-MIN KDBQ 201410Z 12013G21KT 10SM CLR M01/M06 A3046 590 66 -1100 120/13G21 RMK AO2
94908KDBQ DBQ20070320081510103/20/07 08:15:31  5-MIN KDBQ 201415Z 11014G21KT 10SM CLR 00/M06 A3046 590 63 -1000 110/14G21 RMK AO2
94908KDBQ DBQ20070320082009503/20/07 08:20:31  5-MIN KDBQ 201420Z 12013KT 10SM CLR 00/M06 A3046 580 63 -1000 110/13 RMK AO2
94908KDBQ DBQ20070320082509503/20/07 08:25:31  5-MIN KDBQ 201425Z 12014KT 10SM CLR 00/M06 A3046 580 63 -1000 120/14 RMK AO2
94908KDBQ DBQ20070320083009503/20/07 08:30:31  5-MIN KDBQ 201430Z 11013KT 10SM CLR 00/M06 A3046 580 63 -1000 110/13 RMK AO2
94908KDBQ DBQ20070320083509403/20/07 08:35:31  5-MIN KDBQ 201435Z 12013KT 10SM CLR 01/M06 A3046 590 63 -900 120/13 RMK AO2
94908KDBQ DBQ20070320084009503/20/07 08:40:31  5-MIN KDBQ 201440Z 13017KT 10SM CLR 00/M06 A3046 590 66 -1000 130/17 RMK AO2
94908KDBQ DBQ20070320084509403/20/07 08:45:31  5-MIN KDBQ 201445Z 13013KT 10SM CLR 01/M06 A3046 580 63 -900 120/13 RMK AO2
94908KDBQ DBQ20070320085011803/20/07 08:50:31  5-MIN KDBQ 201450Z 11016KT 10SM CLR 01/M06 A3046 580 63 -1000 110/16 RMK AO2 SLP328 T00061056 53023
94908KDBQ DBQ20070320085512403/20/07 08:55:31  5-MIN KDBQ 201455Z 12018G22KT 10SM CLR 01/M05 A3046 580 66 -1000 120/18G22 RMK AO2 SLP328 T00061050 51012
94908KDBQ DBQ20070320090010103/20/07 09:00:31  5-MIN KDBQ 201500Z 12010G22KT 10SM CLR 01/M06 A3046 580 63 -1000 120/10G22 RMK AO2
94908KDBQ DBQ20070320090509403/20/07 09:05:31  5-MIN KDBQ 201505Z 11014KT 10SM CLR 01/M05 A3046 580 64 -900 110/14 RMK AO2
94908KDBQ DBQ20070320091009503/20/07 09:10:31  5-MIN KDBQ 201510Z 12013KT 10SM CLR 01/M06 A3047 570 63 -1000 120/13 RMK AO2
94908KDBQ DBQ20070320091509403/20/07 09:15:31  5-MIN KDBQ 201515Z 13012KT 10SM CLR 01/M05 A3047 570 64 -900 130/12 RMK AO2
94908KDBQ DBQ20070320092009403/20/07 09:20:31  5-MIN KDBQ 201520Z 13013KT 10SM CLR 01/M05 A3048 560 64 -900 130/13 RMK AO2
94908KDBQ DBQ20070320092509403/20/07 09:25:31  5-MIN KDBQ 201525Z 13014KT 10SM CLR 01/M06 A3048 560 61 -900 130/14 RMK AO2
94908KDBQ DBQ20070320093009403/20/07 09:30:31  5-MIN KDBQ 201530Z 12012KT 10SM CLR 01/M05 A3048 560 64 -900 120/12 RMK AO2
94908KDBQ DBQ20070320093509403/20/07 09:35:31  5-MIN KDBQ 201535Z 14012KT 10SM CLR 02/M05 A3048 560 61 -800 130/12 RMK AO2
94908KDBQ DBQ20070320094009403/20/07 09:40:31  5-MIN KDBQ 201540Z 12014KT 10SM CLR 02/M06 A3048 570 59 -800 120/14 RMK AO2
94908KDBQ DBQ20070320094509403/20/07 09:45:31  5-MIN KDBQ 201545Z 12013KT 10SM CLR 02/M06 A3048 570 59 -800 120/13 RMK AO2
94908KDBQ DBQ20070320095011103/20/07 09:50:31  5-MIN KDBQ 201550Z 13010KT 10SM CLR 02/M05 A3048 560 61 -800 130/10 RMK AO2 SLP334 T00171050
94908KDBQ DBQ20070320095511103/20/07 09:55:31  5-MIN KDBQ 201555Z 12011KT 10SM CLR 02/M05 A3048 560 61 -800 120/11 RMK AO2 SLP334 T00171050
94908KDBQ DBQ20070320100009403/20/07 10:00:31  5-MIN KDBQ 201600Z 14011KT 10SM CLR 02/M05 A3048 570 61 -800 140/11 RMK AO2
94908KDBQ DBQ20070320100509403/20/07 10:05:31  5-MIN KDBQ 201605Z 12010KT 10SM CLR 02/M05 A3047 570 59 -800 120/10 RMK AO2
94908KDBQ DBQ20070320101009403/20/07 10:10:31  5-MIN KDBQ 201610Z 11012KT 10SM CLR 02/M05 A3047 570 59 -800 110/12 RMK AO2
94908KDBQ DBQ20070320101509403/20/07 10:15:31  5-MIN KDBQ 201615Z 12012KT 10SM CLR 02/M06 A3046 580 56 -700 120/12 RMK AO2
94908KDBQ DBQ20070320102009403/20/07 10:20:31  5-MIN KDBQ 201620Z 13012KT 10SM CLR 03/M05 A3047 580 56 -700 120/12 RMK AO2
94908KDBQ DBQ20070320102510003/20/07 10:25:31  5-MIN KDBQ 201625Z 11010G16KT 10SM CLR 03/M05 A3047 580 56 -700 110/10G16 RMK AO2
94908KDBQ DBQ20070320103009403/20/07 10:30:31  5-MIN KDBQ 201630Z 12010KT 10SM CLR 03/M06 A3046 580 54 -700 120/10 RMK AO2
94908KDBQ DBQ20070320103509403/20/07 10:35:31  5-MIN KDBQ 201635Z 13010KT 10SM CLR 03/M06 A3046 580 52 -600 130/10 RMK AO2
94908KDBQ DBQ20070320104009403/20/07 10:40:31  5-MIN KDBQ 201640Z 13009KT 10SM CLR 03/M06 A3046 580 52 -600 130/09 RMK AO2
94908KDBQ DBQ20070320104509403/20/07 10:45:31  5-MIN KDBQ 201645Z 11010KT 10SM CLR 03/M06 A3046 580 52 -600 100/10 RMK AO2
94908KDBQ DBQ20070320105011703/20/07 10:50:31  5-MIN KDBQ 201650Z 11013G17KT 10SM CLR 03/M06 A3046 580 52 -600 110/13G17 RMK AO2 SLP326 T00331056
94908KDBQ DBQ20070320105511703/20/07 10:55:31  5-MIN KDBQ 201655Z 12011G17KT 10SM CLR 03/M06 A3046 580 52 -600 120/11G17 RMK AO2 SLP326 T00331056
94908KDBQ DBQ20070320110009403/20/07 11:00:31  5-MIN KDBQ 201700Z 12010KT 10SM CLR 04/M06 A3045 590 50 -500 120/10 RMK AO2
94908KDBQ DBQ20070320110509403/20/07 11:05:31  5-MIN KDBQ 201705Z 12011KT 10SM CLR 04/M06 A3045 590 50 -500 120/11 RMK AO2
94908KDBQ DBQ20070320111009403/20/07 11:10:31  5-MIN KDBQ 201710Z 10012KT 10SM CLR 04/M06 A3045 590 48 -400 100/12 RMK AO2
94908KDBQ DBQ20070320111509403/20/07 11:15:31  5-MIN KDBQ 201715Z 11014KT 10SM CLR 04/M06 A3044 600 48 -400 110/14 RMK AO2
94908KDBQ DBQ20070320112009403/20/07 11:20:31  5-MIN KDBQ 201720Z 12012KT 10SM CLR 04/M06 A3044 600 48 -500 110/12 RMK AO2
94908KDBQ DBQ20070320112509403/20/07 11:25:31  5-MIN KDBQ 201725Z 12011KT 10SM CLR 05/M06 A3044 610 46 -400 120/11 RMK AO2
94908KDBQ DBQ20070320113009403/20/07 11:30:31  5-MIN KDBQ 201730Z 08010KT 10SM CLR 05/M05 A3044 600 48 -400 080/10 RMK AO2
94908KDBQ DBQ20070320113509403/20/07 11:35:31  5-MIN KDBQ 201735Z 09009KT 10SM CLR 06/M05 A3043 610 46 -300 090/09 RMK AO2
94908KDBQ DBQ20070320114009403/20/07 11:40:31  5-MIN KDBQ 201740Z 09013KT 10SM CLR 06/M04 A3043 610 48 -300 090/13 RMK AO2
94908KDBQ DBQ20070320114509403/20/07 11:45:31  5-MIN KDBQ 201745Z 10010KT 10SM CLR 05/M05 A3043 610 48 -400 100/10 RMK AO2
94908KDBQ DBQ20070320115013503/20/07 11:50:31  5-MIN KDBQ 201750Z 11013G18KT 10SM CLR 05/M05 A3043 610 48 -400 110/13G18 RMK AO2 SLP314 T00501050 10056 21028 51012
94908KDBQ DBQ20070320120510003/20/07 12:05:31  5-MIN KDBQ 201805Z 12011G17KT 10SM CLR 06/M04 A3042 620 48 -300 120/11G17 RMK AO2
94908KDBQ DBQ20070320121010003/20/07 12:10:31  5-MIN KDBQ 201810Z 13012G19KT 10SM CLR 06/M05 A3042 620 46 -300 130/12G19 RMK AO2
94908KDBQ DBQ20070320121510003/20/07 12:15:31  5-MIN KDBQ 201815Z 12009G19KT 10SM CLR 06/M05 A3042 620 46 -300 120/09G19 RMK AO2
94908KDBQ DBQ20070320122009403/20/07 12:20:31  5-MIN KDBQ 201820Z 11011KT 10SM CLR 06/M04 A3042 620 46 -200 100/11 RMK AO2
94908KDBQ DBQ20070320122509403/20/07 12:25:31  5-MIN KDBQ 201825Z 11013KT 10SM CLR 06/M04 A3041 620 46 -200 110/13 RMK AO2
94908KDBQ DBQ20070320123009403/20/07 12:30:31  5-MIN KDBQ 201830Z 11012KT 10SM CLR 06/M05 A3041 620 45 -200 110/12 RMK AO2
94908KDBQ DBQ20070320123509403/20/07 12:35:31  5-MIN KDBQ 201835Z 12011KT 10SM CLR 06/M04 A3041 630 46 -200 120/11 RMK AO2
94908KDBQ DBQ20070320124009403/20/07 12:40:31  5-MIN KDBQ 201840Z 11013KT 10SM CLR 06/M05 A3041 630 45 -200 110/13 RMK AO2
94908KDBQ DBQ20070320124509403/20/07 12:45:31  5-MIN KDBQ 201845Z 13011KT 10SM CLR 06/M05 A3041 630 45 -200 130/11 RMK AO2
94908KDBQ DBQ20070320125011103/20/07 12:50:31  5-MIN KDBQ 201850Z 11010KT 10SM CLR 06/M04 A3041 630 46 -200 110/10 RMK AO2 SLP306 T00611044
94908KDBQ DBQ20070320125511703/20/07 12:55:31  5-MIN KDBQ 201855Z 12014G17KT 10SM CLR 07/M04 A3040 640 45 -100 120/14G17 RMK AO2 SLP305 T00671044
94908KDBQ DBQ20070320130010003/20/07 13:00:31  5-MIN KDBQ 201900Z 11012G17KT 10SM CLR 07/M04 A3040 640 45 -100 110/12G17 RMK AO2
94908KDBQ DBQ20070320130509103/20/07 13:05:31  5-MIN KDBQ 201905Z 12010KT 10SM CLR 07/M04 A3039 640 45 0 120/10 RMK AO2
94908KDBQ DBQ20070320131009403/20/07 13:10:31  5-MIN KDBQ 201910Z 13013KT 10SM CLR 07/M04 A3039 640 47 -100 130/13 RMK AO2
94908KDBQ DBQ20070320131509403/20/07 13:15:31  5-MIN KDBQ 201915Z 12012KT 10SM CLR 07/M04 A3039 650 45 -100 120/12 RMK AO2
94908KDBQ DBQ20070320132009103/20/07 13:20:31  5-MIN KDBQ 201920Z 14011KT 10SM CLR 08/M03 A3039 650 45 0 140/11 RMK AO2
94908KDBQ DBQ20070320132509703/20/07 13:25:31  5-MIN KDBQ 201925Z 14012G17KT 10SM CLR 08/M03 A3038 650 45 0 140/12G17 RMK AO2
94908KDBQ DBQ20070320133009703/20/07 13:30:31  5-MIN KDBQ 201930Z 13010G17KT 10SM CLR 07/M04 A3038 660 45 0 130/10G17 RMK AO2
94908KDBQ DBQ20070320133509703/20/07 13:35:31  5-MIN KDBQ 201935Z 13011G17KT 10SM CLR 07/M04 A3038 660 45 0 130/11G17 RMK AO2
94908KDBQ DBQ20070320134010703/20/07 13:40:31  5-MIN KDBQ 201940Z AUTO 14013G17KT 10SM CLR 07/M04 A3037 660 45 0 140/13G17 RMK AO2 TSNO
94908KDBQ DBQ20070320134509103/20/07 13:45:31  5-MIN KDBQ 201945Z 12012KT 10SM CLR 08/M04 A3037 670 43 0 120/12 RMK AO2
94908KDBQ DBQ20070320135010803/20/07 13:50:31  5-MIN KDBQ 201950Z 13012KT 10SM CLR 08/M04 A3036 680 43 0 130/12 RMK AO2 SLP290 T00781039
94908KDBQ DBQ20070320135511403/20/07 13:55:31  5-MIN KDBQ 201955Z 15014G17KT 10SM CLR 08/M04 A3036 680 43 0 150/14G17 RMK AO2 SLP289 T00781039
94908KDBQ DBQ20070320140009703/20/07 14:00:31  5-MIN KDBQ 202000Z 14013G17KT 10SM CLR 08/M04 A3035 680 43 0 130/13G17 RMK AO2
94908KDBQ DBQ20070320140509103/20/07 14:05:31  5-MIN KDBQ 202005Z 13013KT 10SM CLR 08/M04 A3035 690 43 0 130/13 RMK AO2
94908KDBQ DBQ20070320141009303/20/07 14:10:31  5-MIN KDBQ 202010Z 13014KT 10SM CLR 08/M04 A3035 680 42 100 130/14 RMK AO2
94908KDBQ DBQ20070320141509103/20/07 14:15:31  5-MIN KDBQ 202015Z 13014KT 10SM CLR 08/M04 A3034 690 41 0 120/14 RMK AO2
94908KDBQ DBQ20070320142009103/20/07 14:20:31  5-MIN KDBQ 202020Z 12015KT 10SM CLR 08/M04 A3034 690 41 0 120/15 RMK AO2
94908KDBQ DBQ20070320142509103/20/07 14:25:31  5-MIN KDBQ 202025Z 13015KT 10SM CLR 08/M04 A3034 690 41 0 130/15 RMK AO2
94908KDBQ DBQ20070320143009103/20/07 14:30:31  5-MIN KDBQ 202030Z 13015KT 10SM CLR 08/M05 A3034 690 40 0 130/15 RMK AO2
94908KDBQ DBQ20070320143509103/20/07 14:35:31  5-MIN KDBQ 202035Z 12015KT 10SM CLR 08/M04 A3034 690 41 0 120/15 RMK AO2
94908KDBQ DBQ20070320144009303/20/07 14:40:31  5-MIN KDBQ 202040Z 12013KT 10SM CLR 08/M04 A3034 700 42 100 120/13 RMK AO2
94908KDBQ DBQ20070320144509303/20/07 14:45:31  5-MIN KDBQ 202045Z 12011KT 10SM CLR 08/M04 A3034 700 42 100 120/11 RMK AO2
94908KDBQ DBQ20070320145011603/20/07 14:50:31  5-MIN KDBQ 202050Z 12016KT 10SM CLR 08/M04 A3034 700 42 100 120/16 RMK AO2 SLP282 T00831039 58012
94908KDBQ DBQ20070320145511603/20/07 14:55:31  5-MIN KDBQ 202055Z 12011KT 10SM CLR 08/M04 A3033 700 40 100 120/11 RMK AO2 SLP281 T00831044 56031
94908KDBQ DBQ20070320150009903/20/07 15:00:31  5-MIN KDBQ 202100Z 12016G21KT 10SM CLR 08/M04 A3033 700 42 100 120/16G21 RMK AO2
94908KDBQ DBQ20070320150509903/20/07 15:05:31  5-MIN KDBQ 202105Z 13011G21KT 10SM CLR 08/M04 A3033 700 42 100 130/11G21 RMK AO2
94908KDBQ DBQ20070320151009903/20/07 15:10:31  5-MIN KDBQ 202110Z 13017G21KT 10SM CLR 08/M04 A3033 700 42 100 130/17G21 RMK AO2
94908KDBQ DBQ20070320151509903/20/07 15:15:31  5-MIN KDBQ 202115Z 13013G21KT 10SM CLR 08/M04 A3033 700 42 100 130/13G21 RMK AO2
94908KDBQ DBQ20070320152009303/20/07 15:20:31  5-MIN KDBQ 202120Z 13014KT 10SM CLR 08/M04 A3033 700 42 100 130/14 RMK AO2
94908KDBQ DBQ20070320152509303/20/07 15:25:31  5-MIN KDBQ 202125Z 13012KT 10SM CLR 08/M04 A3033 710 42 100 130/12 RMK AO2
94908KDBQ DBQ20070320153009303/20/07 15:30:31  5-MIN KDBQ 202130Z 13015KT 10SM CLR 09/M03 A3032 710 42 200 130/15 RMK AO2
94908KDBQ DBQ20070320153509303/20/07 15:35:31  5-MIN KDBQ 202135Z 15015KT 10SM CLR 08/M04 A3032 710 42 100 150/15 RMK AO2
94908KDBQ DBQ20070320154009903/20/07 15:40:31  5-MIN KDBQ 202140Z 13017G22KT 10SM CLR 09/M04 A3032 710 40 200 130/17G22 RMK AO2
94908KDBQ DBQ20070320154509903/20/07 15:45:31  5-MIN KDBQ 202145Z 13017G23KT 10SM CLR 08/M04 A3032 710 40 100 130/17G23 RMK AO2
94908KDBQ DBQ20070320155011603/20/07 15:50:31  5-MIN KDBQ 202150Z 12016G23KT 10SM CLR 08/M04 A3032 720 40 100 120/16G23 RMK AO2 SLP275 T00831044
94908KDBQ DBQ20070320155511603/20/07 15:55:31  5-MIN KDBQ 202155Z 13016G22KT 10SM CLR 08/M04 A3031 720 40 100 130/16G22 RMK AO2 SLP275 T00831044
94908KDBQ DBQ20070320160009903/20/07 16:00:31  5-MIN KDBQ 202200Z 13016G20KT 10SM CLR 08/M04 A3031 720 40 100 130/16G20 RMK AO2
94908KDBQ DBQ20070320160509903/20/07 16:05:31  5-MIN KDBQ 202205Z 13016G20KT 10SM CLR 08/M04 A3031 720 42 100 130/16G20 RMK AO2
94908KDBQ DBQ20070320161009303/20/07 16:10:31  5-MIN KDBQ 202210Z 12016KT 10SM CLR 08/M04 A3030 720 42 100 120/16 RMK AO2
94908KDBQ DBQ20070320161509303/20/07 16:15:31  5-MIN KDBQ 202215Z 14014KT 10SM CLR 09/M03 A3030 730 42 200 140/14 RMK AO2
94908KDBQ DBQ20070320162009903/20/07 16:20:31  5-MIN KDBQ 202220Z 13014G19KT 10SM CLR 08/M03 A3030 730 43 100 130/14G19 RMK AO2
94908KDBQ DBQ20070320162509903/20/07 16:25:31  5-MIN KDBQ 202225Z 13013G19KT 10SM CLR 08/M03 A3030 730 43 100 130/13G19 RMK AO2
94908KDBQ DBQ20070320163009903/20/07 16:30:31  5-MIN KDBQ 202230Z 13013G20KT 10SM CLR 08/M03 A3030 730 43 100 130/13G20 RMK AO2
94908KDBQ DBQ20070320163510203/20/07 16:35:31  5-MIN KDBQ 202235Z 14016G20KT 10SM FEW110 08/M03 A3030 730 43 100 140/16G20 RMK AO2
94908KDBQ DBQ20070320164010203/20/07 16:40:31  5-MIN KDBQ 202240Z 15015G21KT 10SM FEW110 08/M03 A3030 730 45 100 140/15G21 RMK AO2
94908KDBQ DBQ20070320164510203/20/07 16:45:31  5-MIN KDBQ 202245Z 14013G21KT 10SM FEW110 08/M03 A3030 730 45 100 140/13G21 RMK AO2
94908KDBQ DBQ20070320165011303/20/07 16:50:31  5-MIN KDBQ 202250Z 14014KT 10SM FEW110 08/M02 A3030 730 47 100 140/14 RMK AO2 SLP271 T00831022
94908KDBQ DBQ20070320165511303/20/07 16:55:31  5-MIN KDBQ 202255Z 15012KT 10SM FEW110 08/M02 A3030 730 47 100 150/12 RMK AO2 SLP270 T00831022
94908KDBQ DBQ20070320170010203/20/07 17:00:31  5-MIN KDBQ 202300Z 15015G19KT 10SM FEW110 08/M02 A3030 730 47 100 150/15G19 RMK AO2
94908KDBQ DBQ20070320170509903/20/07 17:05:31  5-MIN KDBQ 202305Z 14015G21KT 10SM CLR 08/M02 A3030 730 47 100 140/15G21 RMK AO2
94908KDBQ DBQ20070320171009903/20/07 17:10:31  5-MIN KDBQ 202310Z 14013G20KT 10SM CLR 08/M02 A3030 730 47 100 140/13G20 RMK AO2
94908KDBQ DBQ20070320171509303/20/07 17:15:31  5-MIN KDBQ 202315Z 14011KT 10SM CLR 08/M02 A3030 730 47 100 140/11 RMK AO2
94908KDBQ DBQ20070320172009903/20/07 17:20:31  5-MIN KDBQ 202320Z 14012G18KT 10SM CLR 08/M02 A3030 730 47 100 140/12G18 RMK AO2
94908KDBQ DBQ20070320172509303/20/07 17:25:31  5-MIN KDBQ 202325Z 14013KT 10SM CLR 08/M02 A3029 740 49 100 140/13 RMK AO2
94908KDBQ DBQ20070320173009303/20/07 17:30:31  5-MIN KDBQ 202330Z 14011KT 10SM CLR 08/M02 A3029 740 49 100 140/11 RMK AO2
94908KDBQ DBQ20070320173509303/20/07 17:35:31  5-MIN KDBQ 202335Z 14012KT 10SM CLR 08/M02 A3029 740 49 100 140/12 RMK AO2
94908KDBQ DBQ20070320174009303/20/07 17:40:31  5-MIN KDBQ 202340Z 14010KT 10SM CLR 08/M02 A3029 740 49 100 140/10 RMK AO2
94908KDBQ DBQ20070320174509103/20/07 17:45:31  5-MIN KDBQ 202345Z 14011KT 10SM CLR 07/M02 A3029 740 51 0 140/11 RMK AO2
94908KDBQ DBQ20070320175012603/20/07 17:50:31  5-MIN KDBQ 202350Z 13009KT 10SM CLR 07/M02 A3029 740 51 0 130/09 RMK AO2 SLP268 T00721022 10089 20056 56031
94908KDBQ DBQ20070320175512603/20/07 17:55:31  5-MIN KDBQ 202355Z 13009KT 10SM CLR 07/M02 A3029 740 51 0 130/09 RMK AO2 SLP267 T00721022 10089 20056 56014
94908KDBQ DBQ20070320180009403/20/07 18:00:31  5-MIN KDBQ 210000Z 14013KT 10SM SCT100 07/M02 A3029 740 51 0 140/13 RMK AO2
94908KDBQ DBQ20070320180509403/20/07 18:05:31  5-MIN KDBQ 210005Z 14010KT 10SM SCT100 07/M02 A3028 740 51 0 140/10 RMK AO2
94908KDBQ DBQ20070320181009403/20/07 18:10:31  5-MIN KDBQ 210010Z 13009KT 10SM SCT100 07/M02 A3028 740 53 0 130/09 RMK AO2
94908KDBQ DBQ20070320181509403/20/07 18:15:31  5-MIN KDBQ 210015Z 13009KT 10SM FEW100 07/M02 A3028 750 53 0 130/09 RMK AO2
94908KDBQ DBQ20070320182009403/20/07 18:20:31  5-MIN KDBQ 210020Z 13010KT 10SM FEW100 07/M03 A3028 750 51 0 130/10 RMK AO2
94908KDBQ DBQ20070320182509403/20/07 18:25:31  5-MIN KDBQ 210025Z 13011KT 10SM FEW100 07/M03 A3027 750 51 0 130/11 RMK AO2
94908KDBQ DBQ20070320183009403/20/07 18:30:31  5-MIN KDBQ 210030Z 13010KT 10SM FEW100 07/M03 A3027 750 51 0 130/10 RMK AO2
94908KDBQ DBQ20070320183509403/20/07 18:35:31  5-MIN KDBQ 210035Z 13010KT 10SM FEW100 07/M03 A3027 750 51 0 130/10 RMK AO2
94908KDBQ DBQ20070320184009403/20/07 18:40:31  5-MIN KDBQ 210040Z 13011KT 10SM FEW060 07/M03 A3027 760 51 0 130/11 RMK AO2
94908KDBQ DBQ20070320184510103/20/07 18:45:31  5-MIN KDBQ 210045Z 13011KT 10SM FEW060 SCT100 07/M03 A3027 760 51 0 130/11 RMK AO2
94908KDBQ DBQ20070320185012503/20/07 18:50:31  5-MIN KDBQ 210050Z 13012KT 10SM FEW048 SCT060 SCT100 07/M03 A3027 760 51 0 130/12 RMK AO2 SLP260 T00671028
94908KDBQ DBQ20070320185512503/20/07 18:55:31  5-MIN KDBQ 210055Z 13011KT 10SM SCT050 BKN060 BKN100 07/M02 A3027 760 53 0 130/11 RMK AO2 SLP259 T00671022
94908KDBQ DBQ20070320190010403/20/07 19:00:31  5-MIN KDBQ 210100Z AUTO 13011KT 10SM BKN055 07/M02 A3027 760 53 0 130/11 RMK AO2 TSNO
94908KDBQ DBQ20070320190511103/20/07 19:05:31  5-MIN KDBQ 210105Z AUTO 13011KT 10SM BKN050 BKN060 07/M02 A3027 760 53 0 130/11 RMK AO2 TSNO
94908KDBQ DBQ20070320191010403/20/07 19:10:31  5-MIN KDBQ 210110Z AUTO 13012KT 10SM BKN050 07/M02 A3027 760 53 0 130/12 RMK AO2 TSNO
94908KDBQ DBQ20070320191510403/20/07 19:15:31  5-MIN KDBQ 210115Z AUTO 13011KT 10SM OVC050 07/M02 A3027 760 53 0 130/11 RMK AO2 TSNO
94908KDBQ DBQ20070320192010403/20/07 19:20:31  5-MIN KDBQ 210120Z AUTO 13012KT 10SM OVC050 07/M02 A3027 760 53 0 130/12 RMK AO2 TSNO
94908KDBQ DBQ20070320192510403/20/07 19:25:31  5-MIN KDBQ 210125Z AUTO 13011KT 10SM OVC050 07/M02 A3027 760 53 0 130/11 RMK AO2 TSNO
94908KDBQ DBQ20070320193010403/20/07 19:30:31  5-MIN KDBQ 210130Z AUTO 13011KT 10SM OVC048 07/M02 A3027 760 53 0 130/11 RMK AO2 TSNO
94908KDBQ DBQ20070320193510403/20/07 19:35:31  5-MIN KDBQ 210135Z AUTO 13010KT 10SM OVC048 07/M02 A3026 760 53 0 130/10 RMK AO2 TSNO
94908KDBQ DBQ20070320194010403/20/07 19:40:31  5-MIN KDBQ 210140Z AUTO 13012KT 10SM OVC048 07/M02 A3026 760 53 0 130/12 RMK AO2 TSNO
94908KDBQ DBQ20070320194510403/20/07 19:45:31  5-MIN KDBQ 210145Z AUTO 13012KT 10SM OVC045 07/M02 A3026 770 53 0 130/12 RMK AO2 TSNO
94908KDBQ DBQ20070320195012103/20/07 19:50:31  5-MIN KDBQ 210150Z AUTO 13012KT 10SM OVC045 07/M02 A3026 770 55 0 130/12 RMK AO2 SLP256 T00671017 TSNO
94908KDBQ DBQ20070320195512103/20/07 19:55:31  5-MIN KDBQ 210155Z AUTO 13012KT 10SM OVC045 07/M02 A3026 770 53 0 130/12 RMK AO2 SLP255 T00671022 TSNO
94908KDBQ DBQ20070320200010403/20/07 20:00:31  5-MIN KDBQ 210200Z AUTO 13012KT 10SM OVC043 07/M02 A3026 770 55 0 130/12 RMK AO2 TSNO
94908KDBQ DBQ20070320200510403/20/07 20:05:31  5-MIN KDBQ 210205Z AUTO 13013KT 10SM OVC043 07/M02 A3025 770 55 0 130/13 RMK AO2 TSNO
94908KDBQ DBQ20070320201010403/20/07 20:10:31  5-MIN KDBQ 210210Z AUTO 13014KT 10SM OVC043 07/M02 A3025 770 55 0 130/14 RMK AO2 TSNO
94908KDBQ DBQ20070320201510403/20/07 20:15:31  5-MIN KDBQ 210215Z AUTO 13013KT 10SM OVC043 07/M02 A3025 770 55 0 130/13 RMK AO2 TSNO
94908KDBQ DBQ20070320202010403/20/07 20:20:31  5-MIN KDBQ 210220Z AUTO 13013KT 10SM OVC043 07/M02 A3025 770 55 0 130/13 RMK AO2 TSNO
94908KDBQ DBQ20070320202510403/20/07 20:25:31  5-MIN KDBQ 210225Z AUTO 13012KT 10SM OVC043 07/M02 A3025 770 55 0 130/12 RMK AO2 TSNO
94908KDBQ DBQ20070320203011003/20/07 20:30:31  5-MIN KDBQ 210230Z AUTO 13014G19KT 10SM OVC043 07/M02 A3025 770 55 0 130/14G19 RMK AO2 TSNO
94908KDBQ DBQ20070320203511003/20/07 20:35:31  5-MIN KDBQ 210235Z AUTO 14013G19KT 10SM OVC043 07/M01 A3025 770 57 0 130/13G19 RMK AO2 TSNO
94908KDBQ DBQ20070320204011103/20/07 20:40:31  5-MIN KDBQ 210240Z AUTO 14012KT 10SM BKN043 OVC100 07/M01 A3025 770 57 0 140/12 RMK AO2 TSNO
94908KDBQ DBQ20070320204511103/20/07 20:45:31  5-MIN KDBQ 210245Z AUTO 14012KT 10SM BKN043 OVC100 07/M01 A3025 780 57 0 130/12 RMK AO2 TSNO
94908KDBQ DBQ20070320205014003/20/07 20:50:31  5-MIN KDBQ 210250Z AUTO 14012G18KT 10SM BKN043 OVC100 07/M01 A3025 780 57 0 140/12G18 RMK AO2 SLP253 T00671011 56014 TSNO
94908KDBQ DBQ20070320205514003/20/07 20:55:31  5-MIN KDBQ 210255Z AUTO 13011G18KT 10SM BKN043 OVC100 07/M01 A3025 780 57 0 130/11G18 RMK AO2 SLP252 T00671011 56014 TSNO
94908KDBQ DBQ20070320210011103/20/07 21:00:31  5-MIN KDBQ 210300Z AUTO 13013KT 10SM BKN043 OVC100 07/M01 A3024 780 57 0 130/13 RMK AO2 TSNO
94908KDBQ DBQ20070320210510403/20/07 21:05:31  5-MIN KDBQ 210305Z AUTO 13012KT 10SM OVC041 07/M01 A3025 780 57 0 130/12 RMK AO2 TSNO
94908KDBQ DBQ20070320211010403/20/07 21:10:31  5-MIN KDBQ 210310Z AUTO 13013KT 10SM OVC039 07/M01 A3024 780 57 0 130/13 RMK AO2 TSNO
94908KDBQ DBQ20070320211510403/20/07 21:15:31  5-MIN KDBQ 210315Z AUTO 13014KT 10SM OVC039 07/M01 A3024 780 57 0 130/14 RMK AO2 TSNO
94908KDBQ DBQ20070320212011103/20/07 21:20:31  5-MIN KDBQ 210320Z AUTO 13013KT 10SM BKN039 OVC070 07/M01 A3024 790 57 0 130/13 RMK AO2 TSNO
94908KDBQ DBQ20070320212511703/20/07 21:25:31  5-MIN KDBQ 210325Z AUTO 13013G19KT 10SM BKN039 OVC070 06/M01 A3024 790 60 0 130/13G19 RMK AO2 TSNO
94908KDBQ DBQ20070320213011703/20/07 21:30:31  5-MIN KDBQ 210330Z AUTO 14013G19KT 10SM BKN037 OVC070 06/M01 A3023 790 62 0 130/13G19 RMK AO2 TSNO
94908KDBQ DBQ20070320213511103/20/07 21:35:31  5-MIN KDBQ 210335Z AUTO 14012KT 10SM BKN037 OVC070 06/M01 A3023 790 62 0 130/12 RMK AO2 TSNO
94908KDBQ DBQ20070320214011703/20/07 21:40:31  5-MIN KDBQ 210340Z AUTO 14014G19KT 10SM BKN037 OVC070 06/M01 A3023 800 62 0 130/14G19 RMK AO2 TSNO
94908KDBQ DBQ20070320214511703/20/07 21:45:31  5-MIN KDBQ 210345Z AUTO 14016G19KT 10SM BKN035 OVC075 06/M01 A3022 800 62 0 140/16G19 RMK AO2 TSNO
94908KDBQ DBQ20070320215012803/20/07 21:50:31  5-MIN KDBQ 210350Z AUTO 14015KT 10SM SCT035 OVC075 06/M01 A3022 800 62 0 140/15 RMK AO2 SLP243 T00611006 TSNO
94908KDBQ DBQ20070320215513403/20/07 21:55:31  5-MIN KDBQ 210355Z AUTO 14015G20KT 10SM SCT035 BKN075 06/M01 A3022 800 62 0 140/15G20 RMK AO2 SLP243 T00611006 TSNO
94908KDBQ DBQ20070320220011703/20/07 22:00:31  5-MIN KDBQ 210400Z AUTO 14014G20KT 10SM SCT035 BKN075 06/M01 A3022 800 62 0 140/14G20 RMK AO2 TSNO
94908KDBQ DBQ20070320220511703/20/07 22:05:31  5-MIN KDBQ 210405Z AUTO 13014G20KT 10SM SCT035 BKN075 06/M01 A3022 800 62 0 130/14G20 RMK AO2 TSNO
94908KDBQ DBQ20070320221011703/20/07 22:10:31  5-MIN KDBQ 210410Z AUTO 13015G20KT 10SM BKN035 BKN080 06/M01 A3022 810 62 0 130/15G20 RMK AO2 TSNO
94908KDBQ DBQ20070320221511103/20/07 22:15:31  5-MIN KDBQ 210415Z AUTO 14016KT 10SM BKN035 BKN080 06/M01 A3021 810 62 0 140/16 RMK AO2 TSNO
94908KDBQ DBQ20070320222011003/20/07 22:20:31  5-MIN KDBQ 210420Z AUTO 15015G20KT 10SM BKN035 06/M01 A3021 810 62 0 140/15G20 RMK AO2 TSNO
94908KDBQ DBQ20070320222510403/20/07 22:25:31  5-MIN KDBQ 210425Z AUTO 14014KT 10SM BKN035 06/M01 A3021 810 62 0 140/14 RMK AO2 TSNO
94908KDBQ DBQ20070320223010303/20/07 22:30:31  5-MIN KDBQ 210430Z AUTO 15014KT 10SM OVC035 06/00 A3021 810 65 0 140/14 RMK AO2 TSNO
94908KDBQ DBQ20070320223510303/20/07 22:35:31  5-MIN KDBQ 210435Z AUTO 15016KT 10SM OVC037 06/00 A3021 810 65 0 140/16 RMK AO2 TSNO
94908KDBQ DBQ20070320224010903/20/07 22:40:31  5-MIN KDBQ 210440Z AUTO 14018G22KT 10SM OVC037 06/00 A3020 820 65 0 140/18G22 RMK AO2 TSNO
94908KDBQ DBQ20070320224510903/20/07 22:45:31  5-MIN KDBQ 210445Z AUTO 15017G23KT 10SM OVC037 06/00 A3020 820 65 0 150/17G23 RMK AO2 TSNO
94908KDBQ DBQ20070320225012603/20/07 22:50:31  5-MIN KDBQ 210450Z AUTO 14019G24KT 10SM OVC037 06/00 A3020 820 65 0 140/19G24 RMK AO2 SLP235 T00610000 TSNO
94908KDBQ DBQ20070320225513303/20/07 22:55:31  5-MIN KDBQ 210455Z AUTO 15018G24KT 10SM SCT030 OVC037 06/00 A3020 820 65 0 150/18G24 RMK AO2 SLP236 T00610000 TSNO
94908KDBQ DBQ20070320230011603/20/07 23:00:31  5-MIN KDBQ 210500Z AUTO 15018G24KT 10SM BKN030 OVC037 06/00 A3020 820 65 0 140/18G24 RMK AO2 TSNO
94908KDBQ DBQ20070320230511603/20/07 23:05:31  5-MIN KDBQ 210505Z AUTO 15018G24KT 10SM BKN028 OVC037 06/00 A3020 820 65 0 140/18G24 RMK AO2 TSNO
94908KDBQ DBQ20070320231012303/20/07 23:10:31  5-MIN KDBQ 210510Z AUTO 15019G22KT 10SM BKN025 BKN030 OVC037 06/00 A3019 830 65 0 150/19G22 RMK AO2 TSNO
94908KDBQ DBQ20070320231511603/20/07 23:15:31  5-MIN KDBQ 210515Z AUTO 15019G22KT 10SM BKN025 OVC030 06/01 A3019 830 67 0 150/19G22 RMK AO2 TSNO
94908KDBQ DBQ20070320232011603/20/07 23:20:31  5-MIN KDBQ 210520Z AUTO 15017G22KT 10SM BKN023 OVC030 06/01 A3019 830 67 0 150/17G22 RMK AO2 TSNO
94908KDBQ DBQ20070320232511603/20/07 23:25:31  5-MIN KDBQ 210525Z AUTO 14017G22KT 10SM BKN023 OVC028 06/01 A3018 840 67 0 140/17G22 RMK AO2 TSNO
94908KDBQ DBQ20070320233011603/20/07 23:30:31  5-MIN KDBQ 210530Z AUTO 15018G22KT 10SM BKN023 OVC036 06/01 A3018 840 67 0 150/18G22 RMK AO2 TSNO
94908KDBQ DBQ20070320233511603/20/07 23:35:31  5-MIN KDBQ 210535Z AUTO 15018G23KT 10SM BKN023 OVC070 06/01 A3018 840 67 0 150/18G23 RMK AO2 TSNO
94908KDBQ DBQ20070320234012303/20/07 23:40:31  5-MIN KDBQ 210540Z AUTO 15017G23KT 10SM BKN023 BKN038 OVC075 06/01 A3017 840 67 0 150/17G23 RMK AO2 TSNO
94908KDBQ DBQ20070320234513803/20/07 23:45:31  5-MIN KDBQ 210545Z AUTO 15015G23KT 8SM -RA BKN021 BKN038 OVC075 06/01 A3017 850 73 0 150/15G23 RMK AO2 RAB43 P0000 TSNO
94908KDBQ DBQ20070320235018203/20/07 23:50:31  5-MIN KDBQ 210550Z AUTO 15018G23KT 7SM -RA BKN021 OVC075 06/02 A3017 850 76 0 150/18G23 RMK AO2 RAB43 SLP224 P0000 60000 T00560017 10072 20056 400891028 56014 TSNO
94908KDBQ DBQ20070320235517503/20/07 23:55:31  5-MIN KDBQ 210555Z AUTO 15016G22KT 8SM -RA OVC021 06/02 A3017 850 76 0 150/16G22 RMK AO2 RAB43 SLP223 P0000 60000 T00560017 10072 20056 400891028 58026 TSNO
94908KDBQ DBQ20070321000011203/21/07 00:00:38  5-MIN KDBQ 210600Z AUTO 15016KT 9SM -RA OVC019 06/02 A3017 850 76 0 150/16 RMK AO2 P0000 TSNO
94908KDBQ DBQ20070321000511403/21/07 00:05:31  5-MIN KDBQ 210605Z AUTO 15015KT 9SM OVC019 06/02 A3017 850 79 0 150/15 RMK AO2 RAE01 P0000 TSNO
94908KDBQ DBQ20070321001011403/21/07 00:10:31  5-MIN KDBQ 210610Z AUTO 15016KT 8SM OVC019 06/02 A3016 860 79 0 150/16 RMK AO2 RAE01 P0000 TSNO
94908KDBQ DBQ20070321001511803/21/07 00:15:32  5-MIN KDBQ 210615Z AUTO 15015G20KT 6SM -RA OVC019 06/03 A3016 860 82 0 150/15G20 RMK AO2 P0000 TSNO
94908KDBQ DBQ20070321002012803/21/07 00:20:31  5-MIN KDBQ 210620Z AUTO 14012G20KT 6SM -RA BR BKN019 OVC049 05/03 A3015 860 85 0 140/12G20 RMK AO2 P0000 TSNO
94908KDBQ DBQ20070321002513503/21/07 00:25:31  5-MIN KDBQ 210625Z AUTO 15015G20KT 6SM -RA BR FEW012 BKN019 OVC049 05/03 A3015 870 85 0 150/15G20 RMK AO2 P0000 TSNO
94908KDBQ DBQ20070321003012903/21/07 00:30:31  5-MIN KDBQ 210630Z AUTO 15014KT 6SM -RA BR SCT012 BKN019 OVC049 05/03 A3015 870 89 0 140/14 RMK AO2 P0000 TSNO
94908KDBQ DBQ20070321003512903/21/07 00:35:31  5-MIN KDBQ 210635Z AUTO 14015KT 6SM -RA BR SCT012 BKN019 OVC049 05/03 A3014 880 89 0 140/15 RMK AO2 P0000 TSNO
94908KDBQ DBQ20070321004013703/21/07 00:40:31  5-MIN KDBQ 210640Z AUTO 15017G22KT 5SM BR SCT012 BKN019 OVC049 05/03 A3014 880 89 0 150/17G22 RMK AO2 RAE37 P0000 TSNO
94908KDBQ DBQ20070321004514903/21/07 00:45:31  5-MIN KDBQ 210645Z AUTO 14016G22KT 5SM BR BKN010 BKN017 OVC049 05/03 A3013 880 89 0 140/16G22 RMK AO2 RAE37 CIG 008V014 P0000 TSNO
94908KDBQ DBQ20070321005016403/21/07 00:50:31  5-MIN KDBQ 210650Z AUTO 14015G20KT 4SM -RA BR BKN010 BKN017 OVC049 05/03 A3013 890 89 0 140/15G20 RMK AO2 CIG 007V013 SLP210 P0000 T00500033 TSNO
94908KDBQ DBQ20070321005515703/21/07 00:55:31  5-MIN KDBQ 210655Z AUTO 14015G20KT 4SM -RA BR BKN010 OVC017 05/03 A3012 890 89 0 130/15G20 RMK AO2 CIG 007V012 SLP207 P0000 T00500033 TSNO
94908KDBQ DBQ20070321010012203/21/07 01:00:31  5-MIN KDBQ 210700Z AUTO 14015KT 4SM -RA BR SCT010 OVC017 05/04 A3012 900 92 0 140/15 RMK AO2 P0001 TSNO
94908KDBQ DBQ20070321010512203/21/07 01:05:31  5-MIN KDBQ 210705Z AUTO 14016KT 4SM -RA BR SCT010 OVC015 05/04 A3011 900 92 0 140/16 RMK AO2 P0001 TSNO
94908KDBQ DBQ20070321011014203/21/07 01:10:31  5-MIN KDBQ 210710Z AUTO 14017G25KT 4SM -RA BR SCT010 BKN015 OVC075 06/04 A3011 910 89 0 140/17G25 RMK AO2 PRESFR P0001 TSNO
94908KDBQ DBQ20070321011513503/21/07 01:15:31  5-MIN KDBQ 210715Z AUTO 14018G25KT 4SM -RA BR SCT008 BKN015 OVC075 05/04 A3011 910 92 0 140/18G25 RMK AO2 P0002 TSNO
94908KDBQ DBQ20070321012012803/21/07 01:20:31  5-MIN KDBQ 210720Z AUTO 14017G25KT 4SM -RA BR SCT008 OVC015 05/04 A3010 910 92 0 140/17G25 RMK AO2 P0002 TSNO
94908KDBQ DBQ20070321012513903/21/07 01:25:31  5-MIN KDBQ 210725Z AUTO 14018G25KT 3SM RA BR BKN008 OVC015 05/04 A3011 910 92 0 140/18G25 RMK AO2 CIG 006V012 P0003 TSNO
94908KDBQ DBQ20070321013014003/21/07 01:30:31  5-MIN KDBQ 210730Z AUTO 14015G24KT 3SM -RA BR BKN008 OVC013 05/04 A3011 900 92 0 140/15G24 RMK AO2 CIG 006V009 P0003 TSNO
94908KDBQ DBQ20070321013513903/21/07 01:35:31  5-MIN KDBQ 210735Z AUTO 15015G24KT 3SM RA BR BKN008 OVC013 05/04 A3011 900 92 0 150/15G24 RMK AO2 CIG 006V009 P0005 TSNO
94908KDBQ DBQ20070321014014303/21/07 01:40:31  5-MIN KDBQ 210740Z AUTO 15017G22KT 2 1/2SM RA BR BKN008 OVC012 06/04 A3011 910 89 0 150/17G22 RMK AO2 CIG 005V009 P0006 TSNO
94908KDBQ DBQ20070321014514303/21/07 01:45:31  5-MIN KDBQ 210745Z AUTO 15016G22KT 2 1/2SM RA BR BKN008 OVC012 06/04 A3011 910 89 0 150/16G22 RMK AO2 CIG 005V009 P0007 TSNO
94908KDBQ DBQ20070321015014503/21/07 01:50:31  5-MIN KDBQ 210750Z AUTO 15018G23KT 2SM +RA BR BKN008 OVC012 05/04 A3010 910 92 0 150/18G23 RMK AO2 SLP200 P0011 T00500039 TSNO
94908KDBQ DBQ20070321015515103/21/07 01:55:31  5-MIN KDBQ 210755Z AUTO 15019G23KT 2SM RA BR BKN006 BKN010 OVC016 06/04 A3010 910 92 0 150/19G23 RMK AO2 SLP200 P0012 T00560044 TSNO
94908KDBQ DBQ20070321020012003/21/07 02:00:31  5-MIN KDBQ 210800Z AUTO 15017G23KT 3SM RA BR OVC006 06/04 A3010 910 92 0 150/17G23 RMK AO2 P0001 TSNO
94908KDBQ DBQ20070321020512803/21/07 02:05:31  5-MIN KDBQ 210805Z AUTO 15015G22KT 3SM -RA BR BKN006 OVC011 06/04 A3010 920 92 0 150/15G22 RMK AO2 P0002 TSNO
94908KDBQ DBQ20070321021013403/21/07 02:10:31  5-MIN KDBQ 210810Z AUTO 15016G21KT 3SM RA BR BKN006 BKN010 OVC029 06/04 A3009 920 92 0 150/16G21 RMK AO2 P0003 TSNO
94908KDBQ DBQ20070321021513503/21/07 02:15:31  5-MIN KDBQ 210815Z AUTO 15015G21KT 3SM -RA BR BKN006 BKN010 OVC027 06/04 A3009 920 92 0 150/15G21 RMK AO2 P0004 TSNO
94908KDBQ DBQ20070321022014103/21/07 02:20:31  5-MIN KDBQ 210820Z AUTO 15015KT 3SM -RA BR BKN006 BKN010 OVC017 06/04 A3009 930 92 0 150/15 RMK AO2 CIG 004V009 P0004 TSNO
94908KDBQ DBQ20070321022514303/21/07 02:25:31  5-MIN KDBQ 210825Z AUTO 15015KT 3SM -RA BR BKN006 BKN010 OVC017 06/04 A3008 930 92 100 150/15 RMK AO2 CIG 004V010 P0004 TSNO
94908KDBQ DBQ20070321023014903/21/07 02:30:31  5-MIN KDBQ 210830Z AUTO 15017G21KT 4SM -RA BR BKN006 BKN010 OVC017 06/04 A3008 930 92 100 150/17G21 RMK AO2 CIG 004V009 P0005 TSNO
94908KDBQ DBQ20070321023513903/21/07 02:35:31  5-MIN KDBQ 210835Z AUTO 15016G21KT 4SM BR BKN006 BKN010 OVC027 06/04 A3008 930 92 100 150/16G21 RMK AO2 RAE35 P0006 TSNO
94908KDBQ DBQ20070321024013803/21/07 02:40:31  5-MIN KDBQ 210840Z AUTO 15015KT 4SM BR BKN006 OVC010 06/04 A3007 940 92 100 150/15 RMK AO2 RAE35 CIG 004V008 P0006 TSNO
94908KDBQ DBQ20070321024513103/21/07 02:45:31  5-MIN KDBQ 210845Z AUTO 15014KT 4SM BR OVC006 06/04 A3007 940 92 100 150/14 RMK AO2 RAE35 CIG 004V010 P0006 TSNO
94908KDBQ DBQ20070321025013103/21/07 02:50:31  5-MIN KDBQ 210850Z AUTO 15016KT 3SM BR OVC004 06/04 A3007 940 92 100 150/16 RMK AO2 RAE35 CIG 004V010 P0006 TSNO
94908KDBQ DBQ20070321025514803/21/07 02:55:31  5-MIN KDBQ 210855Z AUTO 16014KT 3SM BR OVC004 06/04 A3007 940 92 100 150/14 RMK AO2 RAE35 SLP188 P0006 60018 T00560044 56033 TSNO
94908KDBQ DBQ20070321030011703/21/07 03:00:31  5-MIN KDBQ 210900Z AUTO 15016G21KT 2 1/2SM BR OVC004 06/04 A3007 940 92 100 150/16G21 RMK AO2 TSNO
94908KDBQ DBQ20070321030511703/21/07 03:05:31  5-MIN KDBQ 210905Z AUTO 16017G22KT 2 1/2SM BR OVC004 06/04 A3006 950 92 100 160/17G22 RMK AO2 TSNO
94908KDBQ DBQ20070321031011703/21/07 03:10:31  5-MIN KDBQ 210910Z AUTO 15016G22KT 2 1/2SM BR OVC004 06/04 A3006 950 92 100 150/16G22 RMK AO2 TSNO
94908KDBQ DBQ20070321031511703/21/07 03:15:31  5-MIN KDBQ 210915Z AUTO 15017G23KT 2 1/2SM BR OVC004 06/04 A3006 950 92 100 150/17G23 RMK AO2 TSNO
94908KDBQ DBQ20070321032011703/21/07 03:20:31  5-MIN KDBQ 210920Z AUTO 16015G23KT 2 1/2SM BR OVC004 06/04 A3006 950 92 100 160/15G23 RMK AO2 TSNO
94908KDBQ DBQ20070321032510703/21/07 03:25:31  5-MIN KDBQ 210925Z AUTO 16016KT 2SM BR OVC004 06/04 A3006 950 92 100 160/16 RMK AO2 TSNO
94908KDBQ DBQ20070321033011103/21/07 03:30:31  5-MIN KDBQ 210930Z AUTO 16014KT 1 3/4SM BR OVC004 06/04 A3006 950 92 100 160/14 RMK AO2 TSNO
94908KDBQ DBQ20070321033511103/21/07 03:35:31  5-MIN KDBQ 210935Z AUTO 16015KT 1 3/4SM BR OVC004 06/04 A3005 960 92 100 160/15 RMK AO2 TSNO
94908KDBQ DBQ20070321034011103/21/07 03:40:31  5-MIN KDBQ 210940Z AUTO 16017KT 1 3/4SM BR OVC004 06/04 A3005 960 92 100 150/17 RMK AO2 TSNO
94908KDBQ DBQ20070321034510703/21/07 03:45:31  5-MIN KDBQ 210945Z AUTO 16014KT 2SM BR OVC004 06/04 A3005 960 92 100 160/14 RMK AO2 TSNO
94908KDBQ DBQ20070321035011103/21/07 03:50:31  5-MIN KDBQ 210950Z AUTO 15016KT 1 3/4SM BR OVC004 06/04 A3004 960 92 100 150/16 RMK AO2 TSNO
94908KDBQ DBQ20070321035513403/21/07 03:55:31  5-MIN KDBQ 210955Z AUTO 16016G21KT 1 1/2SM BR OVC002 06/04 A3005 960 92 100 160/16G21 RMK AO2 SLP181 T00560044 TSNO
94908KDBQ DBQ20070321040011703/21/07 04:00:31  5-MIN KDBQ 211000Z AUTO 15014G21KT 1 3/4SM BR OVC002 06/04 A3004 970 92 100 150/14G21 RMK AO2 TSNO
94908KDBQ DBQ20070321040511103/21/07 04:05:31  5-MIN KDBQ 211005Z AUTO 15015KT 1 3/4SM BR OVC002 06/04 A3004 970 92 100 150/15 RMK AO2 TSNO
94908KDBQ DBQ20070321041011103/21/07 04:10:31  5-MIN KDBQ 211010Z AUTO 15015KT 1 3/4SM BR OVC002 06/04 A3004 970 92 100 150/15 RMK AO2 TSNO
94908KDBQ DBQ20070321041511103/21/07 04:15:31  5-MIN KDBQ 211015Z AUTO 15017KT 1 3/4SM BR OVC002 06/04 A3004 970 92 100 150/17 RMK AO2 TSNO
94908KDBQ DBQ20070321042011703/21/07 04:20:31  5-MIN KDBQ 211020Z AUTO 16013G20KT 1 1/2SM BR OVC002 06/04 A3004 970 92 100 160/13G20 RMK AO2 TSNO
94908KDBQ DBQ20070321042511103/21/07 04:25:31  5-MIN KDBQ 211025Z AUTO 15013KT 1 1/2SM BR OVC002 06/04 A3004 970 92 100 150/13 RMK AO2 TSNO
94908KDBQ DBQ20070321043011103/21/07 04:30:31  5-MIN KDBQ 211030Z AUTO 16015KT 1 1/2SM BR OVC002 06/04 A3004 970 92 100 160/15 RMK AO2 TSNO
94908KDBQ DBQ20070321043511103/21/07 04:35:31  5-MIN KDBQ 211035Z AUTO 16014KT 1 1/2SM BR OVC002 06/05 A3004 970 96 100 160/14 RMK AO2 TSNO
94908KDBQ DBQ20070321044012703/21/07 04:40:31  5-MIN KDBQ 211040Z AUTO 16015KT 1 1/2SM -RA BR OVC002 06/05 A3003 970 96 100 160/15 RMK AO2 RAB36 P0000 TSNO
94908KDBQ DBQ20070321044512703/21/07 04:45:31  5-MIN KDBQ 211045Z AUTO 16014KT 1 1/2SM -RA BR OVC002 06/05 A3003 970 96 100 160/14 RMK AO2 RAB36 P0001 TSNO
94908KDBQ DBQ20070321045013403/21/07 04:50:31  5-MIN KDBQ 211050Z 16014KT 1 3/4SM -RA BR OVC002 06/05 A3003 980 96 100 160/14 RMK AO2 RAB36 SLP176 P0001 T00560050
94908KDBQ DBQ20070321045513003/21/07 04:55:31  5-MIN KDBQ 211055Z 15013KT 2SM -RA BR OVC002 06/05 A3003 980 96 100 150/13 RMK AO2 RAB36 SLP175 P0002 T00560050
94908KDBQ DBQ20070321050011503/21/07 05:00:31  5-MIN KDBQ 211100Z 16011KT 2 1/2SM BR OVC002 06/05 A3003 980 96 100 160/11 RMK AO2 RAE1058 P0000
94908KDBQ DBQ20070321050511503/21/07 05:05:31  5-MIN KDBQ 211105Z 16014KT 2 1/2SM BR OVC002 06/05 A3003 980 96 100 150/14 RMK AO2 RAE1058 P0000
94908KDBQ DBQ20070321051011503/21/07 05:10:31  5-MIN KDBQ 211110Z 16013KT 2 1/2SM BR OVC002 06/05 A3003 970 96 100 160/13 RMK AO2 RAE1058 P0000
94908KDBQ DBQ20070321051512203/21/07 05:15:31  5-MIN KDBQ 211115Z 17010KT 2 1/2SM BR BKN002 OVC008 06/05 A3003 980 96 100 170/10 RMK AO2 RAE1058 P0000
94908KDBQ DBQ20070321052012203/21/07 05:20:31  5-MIN KDBQ 211120Z 17012KT 2 1/2SM BR BKN002 OVC008 06/05 A3003 980 96 100 170/12 RMK AO2 RAE1058 P0000
94908KDBQ DBQ20070321052511803/21/07 05:25:31  5-MIN KDBQ 211125Z 17012KT 3SM -RA BR OVC002 06/05 A3003 980 96 100 170/12 RMK AO2 RAE1058B23 P0000
94908KDBQ DBQ20070321053011803/21/07 05:30:31  5-MIN KDBQ 211130Z 17012KT 3SM -RA BR OVC002 06/05 A3003 980 96 100 170/12 RMK AO2 RAE1058B23 P0001
94908KDBQ DBQ20070321053512903/21/07 05:35:31  5-MIN KDBQ 211135Z 16014KT 2 1/2SM -RA BR BKN002 OVC007 06/05 A3001 990 93 200 160/14 RMK AO2 RAE1058B23 P0002
94908KDBQ DBQ20070321054013203/21/07 05:40:31  5-MIN KDBQ 211140Z 16015KT 3SM -RA BR BKN002 BKN007 OVC015 06/05 A3001 990 93 200 160/15 RMK AO2 RAE1058B23 P0002
94908KDBQ DBQ20070321054513603/21/07 05:45:31  5-MIN KDBQ 211145Z 16013KT 3SM BR BKN002 OVC009 06/06 A3001 990 96 200 160/13 RMK AO2 RAE1058B23E45 CIG 002V006 P0002
94908KDBQ DBQ20070321055017203/21/07 05:50:31  5-MIN KDBQ 211150Z 17014KT 3SM -RA BR BKN002 OVC007 06/06 A3002 990 96 200 170/14 RMK AO2 RAE1058B23 SLP171 P0002 60022 70022 T00610056 10061 20050 56033
94908KDBQ DBQ20070321055517203/21/07 05:55:31  5-MIN KDBQ 211155Z 17012KT 3SM -RA BR BKN002 OVC007 06/06 A3002 990 96 200 170/12 RMK AO2 RAE1058B23 SLP172 P0003 60023 70023 T00610056 10061 20050 56017
94908KDBQ DBQ20070321060011303/21/07 06:00:31  5-MIN KDBQ 211200Z 17011KT 3SM RA BR BKN002 OVC007 06/06 A3001 990 96 200 160/11 RMK AO2 P0001
94908KDBQ DBQ20070321060512903/21/07 06:05:31  5-MIN KDBQ 211205Z 17013G17KT 2 1/2SM RA BR OVC002 06/06 A3001 1000 96 200 170/13G17 RMK AO2 CIG 002V006 P0003
94908KDBQ DBQ20070321061012403/21/07 06:10:31  5-MIN KDBQ 211210Z 16016KT 2 1/2SM -RA BR OVC002 07/06 A3000 1000 96 300 160/16 RMK AO2 CIG 002V006 P0004
94908KDBQ DBQ20070321061511803/21/07 06:15:31  5-MIN KDBQ 211215Z 16015KT 2 1/2SM RA BR OVC002 07/06 A3000 1010 96 300 160/15 RMK AO2 PRESFR P0004
94908KDBQ DBQ20070321062011203/21/07 06:20:31  5-MIN KDBQ 211220Z 16015KT 2 1/2SM -RA BR OVC002 07/06 A3000 1000 96 300 160/15 RMK AO2 P0005
94908KDBQ DBQ20070321062511403/21/07 06:25:31  5-MIN KDBQ 211225Z 17015G23KT 3SM -RA BR OVC002 07/06 A3000 1000 93 300 170/15G23 RMK AO2 P0005
94908KDBQ DBQ20070321063011303/21/07 06:30:31  5-MIN KDBQ 211230Z 17016G23KT 4SM RA BR OVC002 07/06 A3000 1010 93 400 170/16G23 RMK AO2 P0006
94908KDBQ DBQ20070321063510803/21/07 06:35:31  5-MIN KDBQ 211235Z 18014KT 3SM -RA BR OVC002 07/06 A3000 1000 96 300 180/14 RMK AO2 P0007
94908KDBQ DBQ20070321064011103/21/07 06:40:31  5-MIN KDBQ 211240Z 18012KT 2 1/2SM RA BR OVC002 07/06 A3001 1000 93 300 180/12 RMK AO2 P0008
94908KDBQ DBQ20070321064510703/21/07 06:45:31  5-MIN KDBQ 211245Z 19010KT 3SM -RA BR OVC002 07/06 A3001 990 96 300 190/10 RMK AO2 P0009
94908KDBQ DBQ20070321065011203/21/07 06:50:31  5-MIN KDBQ 211250Z 19011KT 2 1/2SM -RA BR OVC002 07/07 A3001 1000 96 300 190/11 RMK AO2 P0009
94908KDBQ DBQ20070321065512403/21/07 06:55:31  5-MIN KDBQ 211255Z 18012KT 2SM RA BR OVC002 07/07 A3001 1000 96 300 180/12 RMK AO2 SLP168 P0010 T00720067
94908KDBQ DBQ20070321070010803/21/07 07:00:31  5-MIN KDBQ 211300Z 17012KT 2SM -RA BR OVC002 07/07 A3001 1000 96 300 170/12 RMK AO2 P0000
94908KDBQ DBQ20070321070511003/21/07 07:05:31  5-MIN KDBQ 211305Z 18011KT 1 1/2SM RA BR OVC002 07/07 A3001 990 96 300 180/11 RMK AO2 P0001
94908KDBQ DBQ20070321071011803/21/07 07:10:31  5-MIN KDBQ 211310Z 16015KT 1 1/4SM RA BR BKN002 OVC050 07/07 A3000 1000 96 300 160/15 RMK AO2 P0003
94908KDBQ DBQ20070321071512603/21/07 07:15:31  5-MIN KDBQ 211315Z 16013KT 1 1/4SM +RA BR BKN002 BKN024 OVC055 07/07 A2999 1010 96 400 150/13 RMK AO2 P0007
94908KDBQ DBQ20070321072012603/21/07 07:20:31  5-MIN KDBQ 211320Z 17013KT 1 1/2SM -RA BR SCT002 BKN021 OVC055 07/07 A3000 1010 96 400 160/13 RMK AO2 P0009
94908KDBQ DBQ20070321072512203/21/07 07:25:31  5-MIN KDBQ 211325Z 16015KT 2SM -RA BR SCT002 BKN043 OVC050 07/07 A3000 1010 96 400 160/15 RMK AO2 P0009
94908KDBQ DBQ20070321073012503/21/07 07:30:31  5-MIN KDBQ 211330Z 16012KT 1 1/2SM RA BR BKN002 BKN043 OVC050 08/07 A3001 1000 93 400 160/12 RMK AO2 P0013
94908KDBQ DBQ20070321073512603/21/07 07:35:31  5-MIN KDBQ 211335Z 17008KT 1 1/2SM -RA BR BKN002 BKN043 OVC050 08/07 A3001 1000 96 400 170/08 RMK AO2 P0013
94908KDBQ DBQ20070321074011803/21/07 07:40:31  5-MIN KDBQ 211340Z 16008KT 2SM BR BKN002 OVC043 07/07 A3000 1000 100 300 160/08 RMK AO2 RAE40 P0013
94908KDBQ DBQ20070321074512903/21/07 07:45:31  5-MIN KDBQ 211345Z 15009KT 2SM BR BKN002 OVC043 08/07 A3001 1000 96 400 150/09 RMK AO2 RAE40 CIG 001V006 P0013
94908KDBQ DBQ20070321075014303/21/07 07:50:31  5-MIN KDBQ 211350Z 15007KT 1 3/4SM BR OVC002 08/07 A3000 1000 96 400 150/07 RMK AO2 RAE40 CIG 001V006 SLP166 P0013 T00780072
94908KDBQ DBQ20070321075513103/21/07 07:55:31  5-MIN KDBQ 211355Z 14008KT 1 3/4SM BR OVC002 08/07 A3001 1000 96 400 140/08 RMK AO2 RAE40 SLP167 P0014 T00780072
94908KDBQ DBQ20070321080010203/21/07 08:00:31  5-MIN KDBQ 211400Z 16008KT 1 1/4SM BR OVC002 08/07 A3000 1000 96 400 160/08 RMK AO2
94908KDBQ DBQ20070321080509803/21/07 08:05:31  5-MIN KDBQ 211405Z 16008KT 1SM BR OVC002 08/07 A3000 1000 96 400 160/08 RMK AO2
94908KDBQ DBQ20070321081011603/21/07 08:10:31  5-MIN KDBQ 211410Z 16008KT 3/4SM -RA BR OVC002 08/07 A3000 1000 96 400 160/08 RMK AO2 RAB08 P0000
94908KDBQ DBQ20070321081511603/21/07 08:15:31  5-MIN KDBQ 211415Z 15012KT 1/2SM -RA FG OVC002 08/07 A3000 1010 96 400 150/12 RMK AO2 RAB08 P0000
94908KDBQ DBQ20070321082011503/21/07 08:20:31  5-MIN KDBQ 211420Z 16011KT 1/2SM FG OVC002 08/08 A2999 1010 96 500 160/11 RMK AO2 RAB08E17 P0000
94908KDBQ DBQ20070321082511503/21/07 08:25:31  5-MIN KDBQ 211425Z 16014KT 1/4SM FG OVC002 08/08 A2999 1020 96 500 160/14 RMK AO2 RAB08E17 P0000
94908KDBQ DBQ20070321083011403/21/07 08:30:31  5-MIN KDBQ 211430Z 16014KT 1/4SM FG VV001 08/08 A2999 1020 96 500 160/14 RMK AO2 RAB08E17 P0000
94908KDBQ DBQ20070321083511403/21/07 08:35:31  5-MIN KDBQ 211435Z 16014KT 1/4SM FG VV001 08/08 A2998 1020 96 500 160/14 RMK AO2 RAB08E17 P0000
94908KDBQ DBQ20070321084011403/21/07 08:40:31  5-MIN KDBQ 211440Z 16013KT 1/4SM FG VV001 08/08 A2998 1020 96 500 160/13 RMK AO2 RAB08E17 P0000
94908KDBQ DBQ20070321084511403/21/07 08:45:31  5-MIN KDBQ 211445Z 16014KT 1/4SM FG VV001 08/08 A2998 1020 96 500 160/14 RMK AO2 RAB08E17 P0000
94908KDBQ DBQ20070321085014303/21/07 08:50:31  5-MIN KDBQ 211450Z 17013KT 1/4SM FG VV001 09/08 A2998 1020 96 600 170/13 RMK AO2 RAB08E17 SLP159 P0000 60024 T00890083 56017
94908KDBQ DBQ20070321085514303/21/07 08:55:31  5-MIN KDBQ 211455Z 17013KT 1/4SM FG VV001 09/08 A2998 1020 96 600 170/13 RMK AO2 RAB08E17 SLP159 P0000 60024 T00890083 58012
94908KDBQ DBQ20070321090009903/21/07 09:00:31  5-MIN KDBQ 211500Z 16014KT 1/4SM FG VV001 09/08 A2998 1020 96 600 160/14 RMK AO2
94908KDBQ DBQ20070321090509903/21/07 09:05:31  5-MIN KDBQ 211505Z 17012KT 1/4SM FG VV001 09/09 A2998 1020 96 600 170/12 RMK AO2
94908KDBQ DBQ20070321091010603/21/07 09:10:31  5-MIN KDBQ 211510Z 18012G19KT 1/2SM FG OVC001 10/09 A2998 1030 96 700 180/12G19 RMK AO2
94908KDBQ DBQ20070321091510403/21/07 09:15:31  5-MIN KDBQ 211515Z 17014G19KT 1SM BR OVC001 10/09 A2997 1030 96 700 170/14G19 RMK AO2
94908KDBQ DBQ20070321092009803/21/07 09:20:31  5-MIN KDBQ 211520Z 17014KT 1SM BR OVC001 10/09 A2997 1030 96 700 170/14 RMK AO2
94908KDBQ DBQ20070321092509803/21/07 09:25:31  5-MIN KDBQ 211525Z 17016KT 1SM BR OVC001 10/09 A2997 1030 96 700 170/16 RMK AO2
94908KDBQ DBQ20070321093009803/21/07 09:30:31  5-MIN KDBQ 211530Z 17016KT 1SM BR OVC001 11/10 A2997 1040 96 800 170/16 RMK AO2
94908KDBQ DBQ20070321093510203/21/07 09:35:31  5-MIN KDBQ 211535Z 17015KT 1 1/4SM BR OVC001 11/11 A2997 1040 96 900 170/15 RMK AO2
94908KDBQ DBQ20070321094011503/21/07 09:40:31  5-MIN KDBQ 211540Z 18015G20KT 1 1/4SM BR BKN001 OVC010 12/11 A2997 1040 93 900 170/15G20 RMK AO2
94908KDBQ DBQ20070321094511403/21/07 09:45:31  5-MIN KDBQ 211545Z 18016KT 1 1/2SM BR OVC003 12/11 A2997 1030 93 900 180/16 RMK AO2 CIG 001V008
94908KDBQ DBQ20070321095013103/21/07 09:50:31  5-MIN KDBQ 211550Z 18015KT 1 3/4SM BR OVC003 12/11 A2997 1030 93 900 180/15 RMK AO2 CIG 002V006 SLP154 T01170106
94908KDBQ DBQ20070321095513803/21/07 09:55:31  5-MIN KDBQ 211555Z 18015KT 1 1/2SM BR BKN003 OVC009 12/11 A2997 1030 93 900 180/15 RMK AO2 CIG 002V006 SLP154 T01170106
94908KDBQ DBQ20070321100011403/21/07 10:00:31  5-MIN KDBQ 211600Z 17013KT 1 1/2SM BR OVC005 12/11 A2997 1030 93 900 170/13 RMK AO2 CIG 002V008
94908KDBQ DBQ20070321100512003/21/07 10:05:31  5-MIN KDBQ 211605Z 18012KT 1 1/2SM BR OVC005 12/11 A2997 1030 96 900 180/12 RMK AO2 CIG 003V008 P0001
94908KDBQ DBQ20070321101012103/21/07 10:10:31  5-MIN KDBQ 211610Z 19013KT 1 1/2SM BR OVC005 12/11 A2997 1040 93 1000 180/13 RMK AO2 CIG 003V008 P0001
94908KDBQ DBQ20070321101512803/21/07 10:15:31  5-MIN KDBQ 211615Z 18014KT 1 3/4SM BR BKN005 OVC009 13/12 A2997 1040 93 1100 180/14 RMK AO2 CIG 003V006 P0001
94908KDBQ DBQ20070321102012303/21/07 10:20:31  5-MIN KDBQ 211620Z 19014G19KT 2SM BR OVC005 13/12 A2997 1040 93 1100 190/14G19 RMK AO2 CIG 003V010 P0001
94908KDBQ DBQ20070321102513403/21/07 10:25:31  5-MIN KDBQ 211625Z 19018G22KT 2 1/2SM BR BKN005 OVC011 14/12 A2996 1040 90 1200 190/18G22 RMK AO2 CIG 003V008 P0001
94908KDBQ DBQ20070321103012803/21/07 10:30:31  5-MIN KDBQ 211630Z 19017KT 2 1/2SM BR BKN007 OVC032 13/12 A2996 1040 89 1100 190/17 RMK AO2 CIG 003V010 P0001
94908KDBQ DBQ20070321103510903/21/07 10:35:31  5-MIN KDBQ 211635Z 19018KT 2 1/2SM BR BKN007 14/12 A2996 1040 90 1200 190/18 RMK AO2 P0001
94908KDBQ DBQ20070321104011603/21/07 10:40:31  5-MIN KDBQ 211640Z 19015KT 2 1/2SM BR BKN007 BKN011 14/12 A2995 1050 90 1200 190/15 RMK AO2 P0001
94908KDBQ DBQ20070321104511203/21/07 10:45:31  5-MIN KDBQ 211645Z 19015KT 3SM BR BKN009 BKN075 14/12 A2995 1050 86 1300 190/15 RMK AO2 P0001
94908KDBQ DBQ20070321105011203/21/07 10:50:31  5-MIN KDBQ 211650Z 19017KT 3SM BR BKN009 BKN085 14/12 A2995 1050 86 1300 190/17 RMK AO2 P0001
94908KDBQ DBQ20070321105513603/21/07 10:55:31  5-MIN KDBQ 211655Z 20019KT 3SM BR BKN009 BKN015 BKN095 14/13 A2994 1060 90 1300 190/19 RMK AO2 SLP143 P0001 T01440128
94908KDBQ DBQ20070321110011903/21/07 11:00:31  5-MIN KDBQ 211700Z 20016G22KT 3SM BR BKN009 BKN015 BKN095 14/13 A2994 1060 90 1300 200/16G22 RMK AO2
94908KDBQ DBQ20070321110510603/21/07 11:05:31  5-MIN KDBQ 211705Z 19016KT 3SM BR BKN009 BKN015 15/13 A2994 1060 86 1300 190/16 RMK AO2
94908KDBQ DBQ20070321111011303/21/07 11:10:31  5-MIN KDBQ 211710Z 19015KT 3SM BR SCT009 BKN015 BKN100 15/13 A2994 1060 86 1300 190/15 RMK AO2
94908KDBQ DBQ20070321111511303/21/07 11:15:31  5-MIN KDBQ 211715Z 20017KT 3SM BR BKN009 BKN015 BKN100 15/13 A2994 1060 86 1300 200/17 RMK AO2
94908KDBQ DBQ20070321112011303/21/07 11:20:31  5-MIN KDBQ 211720Z 20018KT 4SM BR BKN009 BKN015 BKN100 15/13 A2994 1060 86 1400 200/18 RMK AO2
94908KDBQ DBQ20070321112511303/21/07 11:25:31  5-MIN KDBQ 211725Z 20017KT 4SM BR BKN009 BKN015 BKN100 15/13 A2994 1060 86 1400 200/17 RMK AO2
94908KDBQ DBQ20070321113011303/21/07 11:30:31  5-MIN KDBQ 211730Z 20014KT 4SM BR BKN009 BKN015 BKN100 15/13 A2993 1070 86 1400 200/14 RMK AO2
94908KDBQ DBQ20070321113511303/21/07 11:35:31  5-MIN KDBQ 211735Z 20014KT 4SM BR BKN009 BKN015 BKN100 15/13 A2993 1070 86 1400 200/14 RMK AO2
94908KDBQ DBQ20070321114011303/21/07 11:40:31  5-MIN KDBQ 211740Z 19014KT 4SM BR BKN009 BKN015 BKN100 15/13 A2993 1070 86 1400 190/14 RMK AO2
94908KDBQ DBQ20070321114510603/21/07 11:45:31  5-MIN KDBQ 211745Z 20014KT 4SM BR BKN014 OVC020 15/13 A2993 1070 86 1400 200/14 RMK AO2
94908KDBQ DBQ20070321115011203/21/07 11:50:31  5-MIN KDBQ 211750Z 20014KT 4SM BR BKN015 OVC020 15/13 A2993 1070 86 1400 200/14 RMK AO2 P0001
94908KDBQ DBQ20070321115519003/21/07 11:55:31  5-MIN KDBQ 211755Z 22014KT 4SM TS BKN016 OVC021 15/13 A2994 1060 86 1300 220/14 RMK AO2 TSB53 SLP141 TSTMS SW MOV NE FREQ LGTICCCCG P0001 60026 T01500128 10150 20072 56014
94908KDBQ DBQ20070321120012203/21/07 12:00:31  5-MIN KDBQ 211800Z 25012KT 3SM TSRA BKN016 OVC021 15/13 A2994 1060 86 1300 250/12 RMK AO2 RAB1758 P0000
94908KDBQ DBQ20070321120512703/21/07 12:05:31  5-MIN KDBQ 211805Z 22012KT 1 3/4SM +TSRA BKN014 OVC019 14/13 A2993 1070 90 1300 220/12 RMK AO2 RAB1758 P0004
94908KDBQ DBQ20070321121013003/21/07 12:10:31  5-MIN KDBQ 211810Z 21012KT 2SM -TSRA SCT014 BKN019 OVC070 14/13 A2992 1070 90 1300 210/12 RMK AO2 RAB1758 P0006
94908KDBQ DBQ20070321121513003/21/07 12:15:31  5-MIN KDBQ 211815Z 21012KT 4SM -TSRA SCT014 BKN019 OVC070 15/13 A2992 1080 86 1400 210/12 RMK AO2 RAB1758 P0006
94908KDBQ DBQ20070321122013403/21/07 12:20:31  5-MIN KDBQ 211820Z 21014KT 2 1/2SM -TSRA SCT014 BKN021 OVC070 15/13 A2992 1080 86 1400 210/14 RMK AO2 RAB1758 P0007
94908KDBQ DBQ20070321122513003/21/07 12:25:31  5-MIN KDBQ 211825Z 20012KT 2SM -TSRA FEW014 SCT026 OVC070 14/13 A2991 1080 93 1300 190/12 RMK AO2 RAB1758 P0012
94908KDBQ DBQ20070321123013703/21/07 12:30:31  5-MIN KDBQ 211830Z 18012KT 3SM -TSRA FEW016 SCT043 OVC070 14/13 A2990 1100 90 1300 180/12 RMK AO2 RAB1758 PRESFR P0012
94908KDBQ DBQ20070321123513703/21/07 12:35:31  5-MIN KDBQ 211835Z 19015KT 4SM -TSRA FEW018 SCT046 BKN070 14/13 A2990 1100 90 1300 190/15 RMK AO2 RAB1758 PRESFR P0012
94908KDBQ DBQ20070321124014303/21/07 12:40:31  5-MIN KDBQ 211840Z 17014KT 4SM -RA BR FEW016 SCT044 BKN070 14/13 A2988 1110 90 1300 170/14 RMK AO2 TSE36RAB1758 PRESFR P0012
94908KDBQ DBQ20070321124514903/21/07 12:45:31  5-MIN KDBQ 211845Z 17015G21KT 4SM -RA BR FEW016 SCT049 BKN070 14/13 A2986 1130 90 1400 170/15G21 RMK AO2 TSE36RAB1758 PRESFR P0012
94908KDBQ DBQ20070321125015903/21/07 12:50:31  5-MIN KDBQ 211850Z 17017KT 4SM BR FEW016 SCT070 BKN090 14/13 A2985 1150 90 1400 170/17 RMK AO2 TSE36RAB1758E46 PRESFR SLP110 P0012 T01440128
94908KDBQ DBQ20070321125513803/21/07 12:55:31  5-MIN KDBQ 211855Z 18017KT 4SM BR FEW016 14/13 A2986 1140 93 1400 180/17 RMK AO2 TSE36RAB1758E46 SLP114 P0012 T01440133
94908KDBQ DBQ20070321130009903/21/07 13:00:31  5-MIN KDBQ 211900Z 19017KT 4SM BR FEW016 14/13 A2987 1120 93 1400 190/17 RMK AO2
94908KDBQ DBQ20070321130509903/21/07 13:05:31  5-MIN KDBQ 211905Z 20015KT 4SM BR FEW090 15/13 A2988 1120 90 1400 190/15 RMK AO2
94908KDBQ DBQ20070321131009603/21/07 13:10:31  5-MIN KDBQ 211910Z 20013KT 4SM BR CLR 15/13 A2987 1120 90 1400 200/13 RMK AO2
94908KDBQ DBQ20070321131510203/21/07 13:15:31  5-MIN KDBQ 211915Z 19014KT 4SM BR CLR 15/13 A2987 1130 90 1400 190/14 RMK AO2 P0001
94908KDBQ DBQ20070321132010203/21/07 13:20:31  5-MIN KDBQ 211920Z 20016KT 5SM BR CLR 15/13 A2987 1120 90 1400 200/16 RMK AO2 P0001
94908KDBQ DBQ20070321132510203/21/07 13:25:31  5-MIN KDBQ 211925Z 21016KT 5SM BR CLR 15/13 A2987 1120 90 1400 210/16 RMK AO2 P0001
94908KDBQ DBQ20070321133010503/21/07 13:30:31  5-MIN KDBQ 211930Z 23017KT 6SM BR FEW020 15/13 A2989 1110 90 1400 220/17 RMK AO2 P0001
94908KDBQ DBQ20070321133510203/21/07 13:35:31  5-MIN KDBQ 211935Z 21014KT 7SM FEW020 15/13 A2987 1120 90 1400 210/14 RMK AO2 P0001
94908KDBQ DBQ20070321134010203/21/07 13:40:31  5-MIN KDBQ 211940Z 20018KT 8SM FEW022 15/13 A2986 1130 86 1400 200/18 RMK AO2 P0001
94908KDBQ DBQ20070321134511303/21/07 13:45:31  5-MIN KDBQ 211945Z AUTO 20017KT 10SM FEW022 15/13 A2986 1130 86 1400 200/17 RMK AO2 P0001 TSNO
94908KDBQ DBQ20070321135012003/21/07 13:50:31  5-MIN KDBQ 211950Z 21018KT 10SM FEW022 16/13 A2986 1130 86 1500 210/18 RMK AO2 SLP115 P0001 T01560133
94908KDBQ DBQ20070321135511903/21/07 13:55:31  5-MIN KDBQ 211955Z 22016KT 9SM FEW020 16/13 A2986 1130 86 1500 210/16 RMK AO2 SLP116 P0001 T01560133
94908KDBQ DBQ20070321140009303/21/07 14:00:31  5-MIN KDBQ 212000Z 22017KT 9SM CLR 16/13 A2986 1130 83 1600 220/17 RMK AO2
94908KDBQ DBQ20070321140509603/21/07 14:05:31  5-MIN KDBQ 212005Z 23017KT 8SM FEW023 16/14 A2987 1120 86 1600 220/17 RMK AO2
94908KDBQ DBQ20070321141009603/21/07 14:10:31  5-MIN KDBQ 212010Z 22016KT 8SM FEW023 16/14 A2987 1120 86 1600 220/16 RMK AO2
94908KDBQ DBQ20070321141510303/21/07 14:15:31  5-MIN KDBQ 212015Z 21016KT 8SM FEW014 SCT023 16/14 A2987 1130 86 1600 210/16 RMK AO2
94908KDBQ DBQ20070321142010303/21/07 14:20:31  5-MIN KDBQ 212020Z 22017KT 8SM FEW014 SCT021 16/14 A2986 1130 86 1600 220/17 RMK AO2
94908KDBQ DBQ20070321142510303/21/07 14:25:31  5-MIN KDBQ 212025Z 22015KT 8SM BKN021 BKN029 16/14 A2987 1130 86 1600 210/15 RMK AO2
94908KDBQ DBQ20070321143010303/21/07 14:30:31  5-MIN KDBQ 212030Z 21015KT 8SM SCT021 BKN029 16/14 A2986 1130 86 1600 210/15 RMK AO2
94908KDBQ DBQ20070321143511003/21/07 14:35:31  5-MIN KDBQ 212035Z 22017KT 8SM FEW014 SCT021 SCT027 17/14 A2987 1130 83 1600 220/17 RMK AO2
94908KDBQ DBQ20070321144010903/21/07 14:40:31  5-MIN KDBQ 212040Z 22018G24KT 9SM SCT018 SCT027 16/14 A2987 1130 86 1600 220/18G24 RMK AO2
94908KDBQ DBQ20070321144511603/21/07 14:45:31  5-MIN KDBQ 212045Z 22017G24KT 9SM FEW015 SCT020 SCT027 16/14 A2986 1130 86 1600 220/17G24 RMK AO2
94908KDBQ DBQ20070321145013803/21/07 14:50:31  5-MIN KDBQ 212050Z 22015G22KT 8SM FEW016 SCT027 16/14 A2986 1130 86 1600 220/15G22 RMK AO2 SLP115 60013 T01610139 56014
94908KDBQ DBQ20070321145513803/21/07 14:55:31  5-MIN KDBQ 212055Z 21015G22KT 8SM FEW016 SCT024 16/14 A2986 1130 86 1600 210/15G22 RMK AO2 SLP115 60013 T01610139 56025
94908KDBQ DBQ20070321150010303/21/07 15:00:31  5-MIN KDBQ 212100Z 22015KT 8SM FEW016 SCT024 16/14 A2986 1130 86 1600 220/15 RMK AO2
94908KDBQ DBQ20070321150510303/21/07 15:05:31  5-MIN KDBQ 212105Z 21014KT 8SM SCT014 BKN024 16/13 A2987 1130 83 1600 210/14 RMK AO2
94908KDBQ DBQ20070321151010303/21/07 15:10:31  5-MIN KDBQ 212110Z 21015KT 8SM BKN012 BKN024 16/13 A2987 1130 86 1500 210/15 RMK AO2
94908KDBQ DBQ20070321151510303/21/07 15:15:31  5-MIN KDBQ 212115Z 20014KT 7SM BKN012 BKN022 16/13 A2987 1130 86 1500 200/14 RMK AO2
94908KDBQ DBQ20070321152010303/21/07 15:20:31  5-MIN KDBQ 212120Z 21014KT 7SM SCT012 OVC022 16/13 A2987 1130 86 1500 200/14 RMK AO2
94908KDBQ DBQ20070321152510603/21/07 15:25:31  5-MIN KDBQ 212125Z 21012KT 6SM BR SCT012 OVC022 15/13 A2987 1130 90 1400 210/12 RMK AO2
94908KDBQ DBQ20070321153010603/21/07 15:30:31  5-MIN KDBQ 212130Z 21011KT 6SM BR SCT012 OVC022 15/13 A2987 1130 90 1400 210/11 RMK AO2
94908KDBQ DBQ20070321153510603/21/07 15:35:31  5-MIN KDBQ 212135Z 20009KT 5SM BR FEW012 OVC022 15/13 A2986 1130 90 1400 200/09 RMK AO2
94908KDBQ DBQ20070321154009903/21/07 15:40:31  5-MIN KDBQ 212140Z 21009KT 5SM BR OVC022 15/13 A2986 1130 90 1400 210/09 RMK AO2
94908KDBQ DBQ20070321154509903/21/07 15:45:31  5-MIN KDBQ 212145Z 21009KT 5SM BR OVC022 15/13 A2986 1130 90 1400 210/09 RMK AO2
94908KDBQ DBQ20070321155011603/21/07 15:50:31  5-MIN KDBQ 212150Z 20009KT 5SM BR OVC024 15/14 A2986 1130 93 1400 200/09 RMK AO2 SLP114 T01500139
94908KDBQ DBQ20070321155511603/21/07 15:55:31  5-MIN KDBQ 212155Z 20007KT 5SM BR OVC024 15/13 A2986 1130 90 1400 200/07 RMK AO2 SLP114 T01500133
94908KDBQ DBQ20070321160010603/21/07 16:00:31  5-MIN KDBQ 212200Z 19007KT 4SM BR BKN024 OVC033 15/13 A2986 1130 90 1400 190/07 RMK AO2
94908KDBQ DBQ20070321160510603/21/07 16:05:31  5-MIN KDBQ 212205Z 20007KT 4SM BR BKN024 OVC033 14/13 A2986 1140 93 1400 200/07 RMK AO2
94908KDBQ DBQ20070321161010603/21/07 16:10:31  5-MIN KDBQ 212210Z 20008KT 4SM BR SCT026 OVC031 14/13 A2986 1140 93 1400 200/08 RMK AO2
94908KDBQ DBQ20070321161510603/21/07 16:15:31  5-MIN KDBQ 212215Z 20008KT 4SM BR BKN028 OVC033 14/13 A2986 1140 93 1400 200/08 RMK AO2
94908KDBQ DBQ20070321162010603/21/07 16:20:31  5-MIN KDBQ 212220Z 20008KT 4SM BR BKN028 OVC034 14/13 A2986 1140 93 1400 200/08 RMK AO2
94908KDBQ DBQ20070321162509903/21/07 16:25:31  5-MIN KDBQ 212225Z 20007KT 4SM BR OVC031 14/13 A2986 1140 93 1400 200/07 RMK AO2
94908KDBQ DBQ20070321163009903/21/07 16:30:31  5-MIN KDBQ 212230Z 20008KT 4SM BR OVC031 14/13 A2986 1140 93 1400 200/08 RMK AO2
94908KDBQ DBQ20070321163510603/21/07 16:35:31  5-MIN KDBQ 212235Z 20008KT 5SM BR BKN031 OVC038 15/13 A2986 1140 90 1400 200/08 RMK AO2
94908KDBQ DBQ20070321164010603/21/07 16:40:31  5-MIN KDBQ 212240Z 20008KT 5SM BR SCT031 OVC038 15/13 A2986 1140 90 1400 190/08 RMK AO2
94908KDBQ DBQ20070321164510603/21/07 16:45:31  5-MIN KDBQ 212245Z 19008KT 5SM BR SCT031 OVC040 15/13 A2986 1140 90 1400 190/08 RMK AO2
94908KDBQ DBQ20070321165012303/21/07 16:50:31  5-MIN KDBQ 212250Z 19007KT 5SM BR FEW031 OVC040 15/13 A2986 1140 90 1400 190/07 RMK AO2 SLP113 T01500133
94908KDBQ DBQ20070321165512303/21/07 16:55:31  5-MIN KDBQ 212255Z 19006KT 5SM BR FEW031 OVC042 15/13 A2986 1140 90 1400 190/06 RMK AO2 SLP113 T01500133
94908KDBQ DBQ20070321170009903/21/07 17:00:31  5-MIN KDBQ 212300Z 19007KT 5SM BR OVC042 15/13 A2985 1140 90 1400 190/07 RMK AO2
94908KDBQ DBQ20070321170509903/21/07 17:05:31  5-MIN KDBQ 212305Z 18008KT 6SM BR OVC042 15/13 A2985 1140 90 1400 180/08 RMK AO2
94908KDBQ DBQ20070321171010603/21/07 17:10:31  5-MIN KDBQ 212310Z 18008KT 6SM BR BKN042 OVC050 15/13 A2985 1140 90 1500 180/08 RMK AO2
94908KDBQ DBQ20070321171510603/21/07 17:15:31  5-MIN KDBQ 212315Z 18009KT 6SM BR BKN042 OVC050 15/13 A2985 1140 90 1500 180/09 RMK AO2
94908KDBQ DBQ20070321172009603/21/07 17:20:31  5-MIN KDBQ 212320Z 18009KT 7SM OVC042 15/13 A2985 1140 90 1500 180/09 RMK AO2
94908KDBQ DBQ20070321172510303/21/07 17:25:31  5-MIN KDBQ 212325Z 18010KT 7SM BKN040 OVC065 15/13 A2985 1150 90 1500 180/10 RMK AO2
94908KDBQ DBQ20070321173010303/21/07 17:30:31  5-MIN KDBQ 212330Z 18011KT 7SM BKN040 OVC065 15/13 A2984 1150 90 1500 180/11 RMK AO2
94908KDBQ DBQ20070321173510303/21/07 17:35:31  5-MIN KDBQ 212335Z 18012KT 7SM BKN040 OVC065 15/13 A2984 1150 90 1500 180/12 RMK AO2
94908KDBQ DBQ20070321174010303/21/07 17:40:31  5-MIN KDBQ 212340Z 18012KT 8SM BKN040 OVC065 15/13 A2984 1150 90 1500 180/12 RMK AO2
94908KDBQ DBQ20070321174510303/21/07 17:45:31  5-MIN KDBQ 212345Z 18012KT 8SM SCT040 OVC065 15/13 A2984 1150 90 1500 180/12 RMK AO2
94908KDBQ DBQ20070321175015103/21/07 17:50:31  5-MIN KDBQ 212350Z 18012KT 8SM SCT038 SCT045 OVC065 15/13 A2984 1150 90 1500 180/12 RMK AO2 SLP109 60013 T01500133 10167 20144 56025
94908KDBQ DBQ20070321175515103/21/07 17:55:31  5-MIN KDBQ 212355Z 19012KT 7SM SCT038 BKN050 OVC065 15/13 A2984 1150 90 1500 180/12 RMK AO2 SLP108 60013 T01500133 10167 20144 58006
94908KDBQ DBQ20070321180011003/21/07 18:00:31  5-MIN KDBQ 220000Z 19012KT 7SM SCT036 SCT045 OVC060 15/13 A2984 1150 90 1500 190/12 RMK AO2
94908KDBQ DBQ20070321180511303/21/07 18:05:31  5-MIN KDBQ 220005Z 19011KT 6SM BR SCT036 BKN047 OVC060 15/13 A2984 1150 90 1500 190/11 RMK AO2
94908KDBQ DBQ20070321181011003/21/07 18:10:31  5-MIN KDBQ 220010Z 19011KT 7SM SCT040 BKN048 OVC075 15/13 A2984 1160 90 1500 190/11 RMK AO2
94908KDBQ DBQ20070321181511003/21/07 18:15:31  5-MIN KDBQ 220015Z 19012KT 7SM FEW036 BKN050 OVC075 15/13 A2984 1160 90 1500 190/12 RMK AO2
94908KDBQ DBQ20070321182011003/21/07 18:20:31  5-MIN KDBQ 220020Z 19012KT 7SM FEW036 BKN050 OVC075 15/13 A2983 1160 90 1500 190/12 RMK AO2
94908KDBQ DBQ20070321182511003/21/07 18:25:31  5-MIN KDBQ 220025Z 19013KT 8SM SCT041 BKN050 OVC075 15/13 A2983 1160 90 1500 190/13 RMK AO2
94908KDBQ DBQ20070321183011003/21/07 18:30:31  5-MIN KDBQ 220030Z 19013KT 8SM FEW041 BKN050 OVC075 15/13 A2983 1160 90 1500 190/13 RMK AO2
94908KDBQ DBQ20070321183511003/21/07 18:35:31  5-MIN KDBQ 220035Z 18014KT 8SM FEW041 SCT055 OVC080 15/13 A2983 1160 90 1500 180/14 RMK AO2
94908KDBQ DBQ20070321184011003/21/07 18:40:31  5-MIN KDBQ 220040Z 19013KT 8SM FEW050 BKN060 OVC080 15/13 A2983 1160 90 1500 190/13 RMK AO2
94908KDBQ DBQ20070321184511003/21/07 18:45:31  5-MIN KDBQ 220045Z 19014KT 8SM SCT050 BKN060 OVC080 15/13 A2982 1170 90 1500 180/14 RMK AO2
94908KDBQ DBQ20070321185012703/21/07 18:50:31  5-MIN KDBQ 220050Z 18014KT 8SM FEW048 SCT055 OVC080 15/13 A2982 1170 90 1500 180/14 RMK AO2 SLP101 T01500133
94908KDBQ DBQ20070321185512003/21/07 18:55:31  5-MIN KDBQ 220055Z 18014KT 8SM FEW048 OVC080 15/13 A2982 1170 90 1500 180/14 RMK AO2 SLP101 T01500133
94908KDBQ DBQ20070321190011303/21/07 19:00:31  5-MIN KDBQ 220100Z AUTO 18013KT 8SM FEW050 OVC080 15/13 A2982 1170 90 1500 180/13 RMK AO2 TSNO
94908KDBQ DBQ20070321190511303/21/07 19:05:31  5-MIN KDBQ 220105Z AUTO 19012KT 8SM FEW050 OVC080 15/13 A2982 1170 90 1500 190/12 RMK AO2 TSNO
94908KDBQ DBQ20070321191011303/21/07 19:10:31  5-MIN KDBQ 220110Z AUTO 19012KT 8SM SCT050 OVC080 15/13 A2982 1170 90 1500 190/12 RMK AO2 TSNO
94908KDBQ DBQ20070321191511303/21/07 19:15:31  5-MIN KDBQ 220115Z AUTO 20012KT 8SM SCT050 OVC080 15/13 A2982 1170 90 1500 200/12 RMK AO2 TSNO
94908KDBQ DBQ20070321192011303/21/07 19:20:31  5-MIN KDBQ 220120Z AUTO 20011KT 8SM SCT050 OVC080 15/13 A2982 1170 90 1500 200/11 RMK AO2 TSNO
94908KDBQ DBQ20070321192512003/21/07 19:25:31  5-MIN KDBQ 220125Z AUTO 20012KT 8SM SCT050 SCT070 OVC085 15/13 A2982 1170 90 1500 200/12 RMK AO2 TSNO
94908KDBQ DBQ20070321193012003/21/07 19:30:31  5-MIN KDBQ 220130Z AUTO 19013KT 8SM FEW047 BKN075 OVC085 15/13 A2982 1180 90 1500 190/13 RMK AO2 TSNO
94908KDBQ DBQ20070321193511303/21/07 19:35:31  5-MIN KDBQ 220135Z AUTO 20012KT 8SM SCT060 OVC085 16/13 A2982 1170 86 1600 200/12 RMK AO2 TSNO
94908KDBQ DBQ20070321194011303/21/07 19:40:31  5-MIN KDBQ 220140Z AUTO 20013KT 7SM SCT060 OVC085 15/13 A2982 1170 90 1500 200/13 RMK AO2 TSNO
94908KDBQ DBQ20070321194512003/21/07 19:45:31  5-MIN KDBQ 220145Z AUTO 20012KT 7SM SCT055 SCT070 OVC090 15/13 A2982 1170 90 1500 200/12 RMK AO2 TSNO
94908KDBQ DBQ20070321195013703/21/07 19:50:31  5-MIN KDBQ 220150Z AUTO 22011KT 7SM SCT050 SCT070 OVC090 15/13 A2982 1170 90 1500 220/11 RMK AO2 SLP099 T01500133 TSNO
94908KDBQ DBQ20070321195514003/21/07 19:55:31  5-MIN KDBQ 220155Z AUTO 21010KT 6SM BR SCT050 SCT070 OVC090 15/13 A2981 1180 90 1500 210/10 RMK AO2 SLP097 T01500133 TSNO
94908KDBQ DBQ20070321200012303/21/07 20:00:31  5-MIN KDBQ 220200Z AUTO 20010KT 6SM BR FEW046 SCT075 OVC095 14/13 A2981 1180 93 1400 200/10 RMK AO2 TSNO
94908KDBQ DBQ20070321200511603/21/07 20:05:31  5-MIN KDBQ 220205Z AUTO 21010KT 6SM BR FEW046 BKN095 14/13 A2981 1180 93 1400 210/10 RMK AO2 TSNO
94908KDBQ DBQ20070321201011603/21/07 20:10:31  5-MIN KDBQ 220210Z AUTO 21010KT 6SM BR FEW050 BKN090 14/13 A2981 1180 93 1400 200/10 RMK AO2 TSNO
94908KDBQ DBQ20070321201511603/21/07 20:15:31  5-MIN KDBQ 220215Z AUTO 21010KT 6SM BR FEW048 BKN090 14/13 A2981 1180 93 1400 210/10 RMK AO2 TSNO
94908KDBQ DBQ20070321202011603/21/07 20:20:31  5-MIN KDBQ 220220Z AUTO 23010KT 6SM BR FEW044 BKN090 14/13 A2981 1180 90 1400 230/10 RMK AO2 TSNO
94908KDBQ DBQ20070321202511603/21/07 20:25:31  5-MIN KDBQ 220225Z AUTO 22011KT 6SM BR FEW044 BKN090 14/13 A2981 1180 93 1400 220/11 RMK AO2 TSNO
94908KDBQ DBQ20070321203010903/21/07 20:30:31  5-MIN KDBQ 220230Z AUTO 21011KT 6SM BR BKN090 15/13 A2981 1180 90 1500 210/11 RMK AO2 TSNO
94908KDBQ DBQ20070321203511603/21/07 20:35:31  5-MIN KDBQ 220235Z AUTO 21011KT 6SM BR FEW044 OVC090 15/13 A2981 1180 90 1500 210/11 RMK AO2 TSNO
94908KDBQ DBQ20070321220011303/21/07 22:00:31  5-MIN KDBQ 220400Z AUTO 21009KT 9SM SCT045 BKN090 15/13 A2978 1210 86 1500 210/09 RMK AO2 TSNO
94908KDBQ DBQ20070321220512003/21/07 22:05:31  5-MIN KDBQ 220405Z AUTO 21010KT 8SM FEW042 SCT049 BKN090 14/13 A2978 1210 90 1500 210/10 RMK AO2 TSNO
94908KDBQ DBQ20070321221011303/21/07 22:10:31  5-MIN KDBQ 220410Z AUTO 21010KT 8SM FEW047 BKN090 15/13 A2978 1210 86 1500 210/10 RMK AO2 TSNO
94908KDBQ DBQ20070321221510603/21/07 22:15:31  5-MIN KDBQ 220415Z AUTO 21011KT 9SM FEW085 15/12 A2978 1210 83 1500 210/11 RMK AO2 TSNO
94908KDBQ DBQ20070321222011303/21/07 22:20:31  5-MIN KDBQ 220420Z AUTO 21011KT 9SM FEW075 SCT090 15/12 A2978 1210 83 1500 210/11 RMK AO2 TSNO
94908KDBQ DBQ20070321222511303/21/07 22:25:31  5-MIN KDBQ 220425Z AUTO 21011KT 9SM SCT065 BKN090 15/13 A2977 1210 86 1500 210/11 RMK AO2 TSNO
94908KDBQ DBQ20070321223011303/21/07 22:30:31  5-MIN KDBQ 220430Z AUTO 20011KT 9SM SCT065 BKN090 15/13 A2977 1220 86 1500 200/11 RMK AO2 TSNO
94908KDBQ DBQ20070321223511303/21/07 22:35:31  5-MIN KDBQ 220435Z AUTO 21012KT 9SM FEW065 SCT085 15/13 A2976 1220 86 1500 200/12 RMK AO2 TSNO
94908KDBQ DBQ20070321224011403/21/07 22:40:31  5-MIN KDBQ 220440Z AUTO 20015KT 10SM FEW049 SCT065 16/13 A2976 1230 83 1600 200/15 RMK AO2 TSNO
94908KDBQ DBQ20070321224511403/21/07 22:45:31  5-MIN KDBQ 220445Z AUTO 20016KT 10SM FEW049 SCT065 16/13 A2975 1240 83 1600 200/16 RMK AO2 TSNO
94908KDBQ DBQ20070321225013103/21/07 22:50:31  5-MIN KDBQ 220450Z AUTO 21017KT 10SM FEW047 SCT065 16/13 A2975 1240 83 1600 210/17 RMK AO2 SLP073 T01560128 TSNO
94908KDBQ DBQ20070321225513003/21/07 22:55:31  5-MIN KDBQ 220455Z AUTO 21017G24KT 10SM SCT045 16/13 A2975 1240 80 1700 210/17G24 RMK AO2 SLP073 T01610128 TSNO
94908KDBQ DBQ20070321230012003/21/07 23:00:31  5-MIN KDBQ 220500Z AUTO 21018G24KT 10SM SCT043 BKN050 17/13 A2975 1230 77 1800 210/18G24 RMK AO2 TSNO
94908KDBQ DBQ20070321230510703/21/07 23:05:31  5-MIN KDBQ 220505Z AUTO 21017KT 10SM BKN045 17/13 A2975 1230 77 1800 210/17 RMK AO2 TSNO
94908KDBQ DBQ20070321231011403/21/07 23:10:31  5-MIN KDBQ 220510Z AUTO 21016KT 10SM BKN045 BKN090 17/13 A2975 1240 77 1800 210/16 RMK AO2 TSNO
94908KDBQ DBQ20070321231511403/21/07 23:15:31  5-MIN KDBQ 220515Z AUTO 21017KT 10SM BKN045 BKN100 17/13 A2974 1240 77 1800 210/17 RMK AO2 TSNO
94908KDBQ DBQ20070321232012103/21/07 23:20:31  5-MIN KDBQ 220520Z AUTO 21019KT 10SM BKN045 BKN070 OVC090 17/13 A2974 1240 77 1800 210/19 RMK AO2 TSNO
94908KDBQ DBQ20070321232512103/21/07 23:25:31  5-MIN KDBQ 220525Z AUTO 21016KT 10SM BKN045 BKN070 OVC100 17/13 A2974 1240 77 1800 210/16 RMK AO2 TSNO
94908KDBQ DBQ20070321233012103/21/07 23:30:31  5-MIN KDBQ 220530Z AUTO 21017KT 10SM BKN045 BKN055 OVC100 17/13 A2975 1240 77 1800 210/17 RMK AO2 TSNO
94908KDBQ DBQ20070321233512703/21/07 23:35:31  5-MIN KDBQ 220535Z AUTO 21019G24KT 10SM SCT045 BKN055 OVC090 17/13 A2974 1240 77 1800 210/19G24 RMK AO2 TSNO
94908KDBQ DBQ20070321234012703/21/07 23:40:31  5-MIN KDBQ 220540Z AUTO 21018G24KT 10SM SCT041 BKN055 OVC095 17/13 A2974 1250 77 1800 210/18G24 RMK AO2 TSNO
94908KDBQ DBQ20070321234512703/21/07 23:45:31  5-MIN KDBQ 220545Z AUTO 21019G23KT 10SM SCT036 BKN043 OVC075 17/13 A2974 1250 77 1800 210/19G23 RMK AO2 TSNO
94908KDBQ DBQ20070321235017203/21/07 23:50:31  5-MIN KDBQ 220550Z AUTO 21016G23KT 10SM SCT036 BKN043 OVC055 17/13 A2973 1250 75 1800 210/16G23 RMK AO2 SLP067 T01720128 10172 20144 401720050 56014 TSNO
94908KDBQ DBQ20070321235516603/21/07 23:55:31  5-MIN KDBQ 220555Z AUTO 21017KT 10SM BKN036 BKN045 OVC055 17/13 A2974 1250 77 1800 210/17 RMK AO2 SLP068 T01670128 10172 20144 401720050 56022 TSNO
94908KDBQ DBQ20070322000011403/22/07 00:00:38  5-MIN KDBQ 220600Z AUTO 21016KT 10SM BKN036 OVC047 17/13 A2973 1250 77 1800 210/16 RMK AO2 TSNO
94908KDBQ DBQ20070322000510703/22/07 00:05:31  5-MIN KDBQ 220605Z AUTO 21017KT 10SM OVC036 17/13 A2974 1250 77 1800 210/17 RMK AO2 TSNO
94908KDBQ DBQ20070322001011403/22/07 00:10:31  5-MIN KDBQ 220610Z AUTO 22017KT 10SM BKN036 OVC047 17/13 A2974 1250 77 1800 210/17 RMK AO2 TSNO
94908KDBQ DBQ20070322001511403/22/07 00:15:34  5-MIN KDBQ 220615Z AUTO 21016KT 10SM BKN036 OVC050 17/13 A2973 1250 77 1800 210/16 RMK AO2 TSNO
94908KDBQ DBQ20070322002011403/22/07 00:20:31  5-MIN KDBQ 220620Z AUTO 22018KT 10SM BKN034 OVC050 17/13 A2973 1250 75 1800 220/18 RMK AO2 TSNO
94908KDBQ DBQ20070322002512003/22/07 00:25:31  5-MIN KDBQ 220625Z AUTO 23018G25KT 10SM BKN032 OVC041 17/13 A2973 1260 75 1800 230/18G25 RMK AO2 TSNO
94908KDBQ DBQ20070322003012703/22/07 00:30:31  5-MIN KDBQ 220630Z AUTO 22020G25KT 10SM BKN032 BKN041 OVC049 17/13 A2972 1260 78 1900 220/20G25 RMK AO2 TSNO
94908KDBQ DBQ20070322003514503/22/07 00:35:31  5-MIN KDBQ 220635Z AUTO 23020G30KT 10SM BKN034 BKN041 OVC049 17/13 A2972 1260 78 1900 220/20G30 RMK AO2 PK WND 22030/0631 TSNO
94908KDBQ DBQ20070322004014503/22/07 00:40:31  5-MIN KDBQ 220640Z AUTO 24021G30KT 10SM BKN034 BKN041 OVC060 17/13 A2974 1250 78 1800 240/21G30 RMK AO2 PK WND 22030/0631 TSNO
94908KDBQ DBQ20070322004516003/22/07 00:45:31  5-MIN KDBQ 220645Z AUTO 23020G26KT 5SM -RA BKN032 BKN043 OVC100 17/13 A2974 1250 80 1800 220/20G26 RMK AO2 PK WND 22030/0631 RAB42 P0000 TSNO
94908KDBQ DBQ20070322005017203/22/07 00:50:31  5-MIN KDBQ 220650Z AUTO 22023G28KT 4SM RA BR BKN032 OVC046 16/14 A2974 1240 86 1700 220/23G28 RMK AO2 PK WND 22030/0631 RAB42 SLP071 P0004 T01610139 TSNO
94908KDBQ DBQ20070322005518003/22/07 00:55:31  5-MIN KDBQ 220655Z AUTO 24024G36KT 6SM -RA BR SCT028 BKN036 OVC046 16/14 A2974 1240 86 1700 240/24G36 RMK AO2 PK WND 23036/0652 RAB42 SLP071 P0004 T01610139 TSNO
94908KDBQ DBQ20070322010013903/22/07 01:00:31  5-MIN KDBQ 220700Z AUTO 24018G36KT 10SM BKN030 OVC040 16/14 A2976 1230 86 1700 240/18G36 RMK AO2 RAE00 PRESRR P0000 TSNO
94908KDBQ DBQ20070322010516403/22/07 01:05:31  5-MIN KDBQ 220705Z AUTO 24016G26KT 10SM SCT022 BKN028 OVC046 16/14 A2977 1220 86 1700 230/16G26 RMK AO2 PK WND 23026/0701 RAE00 PRESRR P0000 TSNO
94908KDBQ DBQ20070322011015703/22/07 01:10:31  5-MIN KDBQ 220710Z AUTO 25016G26KT 10SM FEW018 BKN026 OVC036 16/14 A2977 1220 86 1700 250/16G26 RMK AO2 PK WND 23026/0701 RAE00 P0001 TSNO
94908KDBQ DBQ20070322011515603/22/07 01:15:31  5-MIN KDBQ 220715Z AUTO 26014G23KT 9SM BKN021 BKN028 OVC036 16/14 A2977 1220 86 1700 260/14G23 RMK AO2 PK WND 23026/0701 RAE00 P0001 TSNO
94908KDBQ DBQ20070322012014303/22/07 01:20:31  5-MIN KDBQ 220720Z AUTO 25016KT 9SM BKN021 OVC030 16/14 A2976 1220 86 1700 250/16 RMK AO2 PK WND 23026/0701 RAE00 P0001 TSNO
94908KDBQ DBQ20070322012514303/22/07 01:25:31  5-MIN KDBQ 220725Z AUTO 26014KT 9SM BKN023 OVC029 16/14 A2977 1210 86 1700 250/14 RMK AO2 PK WND 23026/0701 RAE00 P0001 TSNO
94908KDBQ DBQ20070322013013603/22/07 01:30:31  5-MIN KDBQ 220730Z AUTO 27013KT 8SM OVC023 16/14 A2978 1210 90 1600 270/13 RMK AO2 PK WND 23026/0701 RAE00 P0001 TSNO
94908KDBQ DBQ20070322013514303/22/07 01:35:31  5-MIN KDBQ 220735Z AUTO 27012KT 8SM BKN016 OVC023 16/14 A2978 1210 86 1700 270/12 RMK AO2 PK WND 23026/0701 RAE00 P0001 TSNO
94908KDBQ DBQ20070322014014303/22/07 01:40:31  5-MIN KDBQ 220740Z AUTO 26013KT 7SM BKN016 OVC023 16/14 A2979 1200 86 1600 260/13 RMK AO2 PK WND 23026/0701 RAE00 P0001 TSNO
94908KDBQ DBQ20070322014515603/22/07 01:45:31  5-MIN KDBQ 220745Z AUTO 29019G24KT 7SM FEW009 BKN014 OVC021 16/14 A2979 1200 86 1600 290/19G24 RMK AO2 PK WND 23026/0701 RAE00 P0001 TSNO
94908KDBQ DBQ20070322015015603/22/07 01:50:31  5-MIN KDBQ 220750Z AUTO 29016G24KT 7SM SCT009 BKN015 OVC021 15/13 A2980 1190 86 1500 290/16G24 RMK AO2 PK WND 23026/0701 RAE00 P0001 TSNO
94908KDBQ DBQ20070322015516603/22/07 01:55:31  5-MIN KDBQ 220755Z AUTO 29015G22KT 8SM OVC013 15/13 A2981 1180 86 1500 290/15G22 RMK AO2 PK WND 23026/0701 RAE00 PRESRR SLP092 P0001 T01500128 TSNO
94908KDBQ DBQ20070322020011903/22/07 02:00:31  5-MIN KDBQ 220800Z AUTO 29016G22KT 9SM OVC013 14/12 A2982 1170 86 1400 290/16G22 RMK AO2 PRESRR TSNO
94908KDBQ DBQ20070322020513703/22/07 02:05:31  5-MIN KDBQ 220805Z AUTO 31021G28KT 9SM OVC013 14/12 A2983 1160 86 1400 310/21G28 RMK AO2 PK WND 30028/0805 PRESRR TSNO
94908KDBQ DBQ20070322021013003/22/07 02:10:31  5-MIN KDBQ 220810Z AUTO 31018G28KT 9SM OVC013 14/12 A2982 1170 86 1300 310/18G28 RMK AO2 PK WND 30028/0805 TSNO
94908KDBQ DBQ20070322021513103/22/07 02:15:31  5-MIN KDBQ 220815Z AUTO 32016KT 9SM BKN013 OVC019 14/12 A2983 1170 86 1300 310/16 RMK AO2 PK WND 30028/0805 TSNO
94908KDBQ DBQ20070322022014403/22/07 02:20:31  5-MIN KDBQ 220820Z AUTO 31012G21KT 9SM FEW010 BKN014 OVC019 13/12 A2983 1160 89 1300 310/12G21 RMK AO2 PK WND 30028/0805 TSNO
94908KDBQ DBQ20070322022514503/22/07 02:25:31  5-MIN KDBQ 220825Z AUTO 31013G21KT 10SM FEW011 SCT014 OVC019 13/11 A2984 1150 83 1300 310/13G21 RMK AO2 PK WND 30028/0805 TSNO
94908KDBQ DBQ20070322023013903/22/07 02:30:31  5-MIN KDBQ 220830Z AUTO 32015KT 10SM FEW011 BKN021 OVC025 13/11 A2984 1160 86 1200 320/15 RMK AO2 PK WND 30028/0805 TSNO
94908KDBQ DBQ20070322023513903/22/07 02:35:31  5-MIN KDBQ 220835Z AUTO 32015KT 10SM FEW013 SCT019 OVC025 12/10 A2984 1150 86 1100 320/15 RMK AO2 PK WND 30028/0805 TSNO
94908KDBQ DBQ20070322024013903/22/07 02:40:31  5-MIN KDBQ 220840Z AUTO 33014KT 10SM SCT019 BKN025 OVC030 12/10 A2984 1150 86 1100 330/14 RMK AO2 PK WND 30028/0805 TSNO
94908KDBQ DBQ20070322024513903/22/07 02:45:31  5-MIN KDBQ 220845Z AUTO 32014KT 10SM FEW010 SCT020 OVC025 12/10 A2984 1150 89 1100 320/14 RMK AO2 PK WND 30028/0805 TSNO
94908KDBQ DBQ20070322025017303/22/07 02:50:31  5-MIN KDBQ 220850Z AUTO 32018G23KT 9SM SCT010 BKN023 OVC031 12/10 A2985 1150 89 1100 320/18G23 RMK AO2 PK WND 30028/0805 SLP108 60005 T01170100 56022 TSNO
94908KDBQ DBQ20070322025517303/22/07 02:55:31  5-MIN KDBQ 220855Z AUTO 32010G23KT 9SM SCT010 BKN025 OVC031 12/09 A2985 1140 86 1100 320/10G23 RMK AO2 PK WND 30028/0805 SLP109 60005 T01170094 51035 TSNO
94908KDBQ DBQ20070322030012003/22/07 03:00:31  5-MIN KDBQ 220900Z AUTO 31013KT 9SM SCT010 OVC028 11/09 A2986 1130 89 1000 310/13 RMK AO2 PRESRR TSNO
94908KDBQ DBQ20070322030511303/22/07 03:05:31  5-MIN KDBQ 220905Z AUTO 32014KT 8SM FEW010 OVC028 11/09 A2986 1130 89 1000 310/14 RMK AO2 TSNO
94908KDBQ DBQ20070322031011303/22/07 03:10:31  5-MIN KDBQ 220910Z AUTO 32015KT 8SM FEW010 OVC028 11/09 A2987 1130 86 1000 320/15 RMK AO2 TSNO
94908KDBQ DBQ20070322031511303/22/07 03:15:31  5-MIN KDBQ 220915Z AUTO 32017KT 8SM FEW010 OVC030 11/09 A2987 1130 86 1000 320/17 RMK AO2 TSNO
94908KDBQ DBQ20070322032010603/22/07 03:20:31  5-MIN KDBQ 220920Z AUTO 33020KT 9SM OVC030 11/08 A2987 1120 80 1000 330/20 RMK AO2 TSNO
94908KDBQ DBQ20070322032512003/22/07 03:25:31  5-MIN KDBQ 220925Z AUTO 33018G22KT 10SM BKN030 OVC042 11/07 A2987 1130 77 1000 330/18G22 RMK AO2 TSNO
94908KDBQ DBQ20070322033013403/22/07 03:30:31  5-MIN KDBQ 220930Z AUTO 34020G24KT 9SM -RA BKN030 OVC042 11/07 A2987 1130 80 900 340/20G24 RMK AO2 RAB27 P0000 TSNO
94908KDBQ DBQ20070322033513403/22/07 03:35:31  5-MIN KDBQ 220935Z AUTO 34016G24KT 9SM -RA BKN032 OVC042 11/07 A2987 1120 77 900 340/16G24 RMK AO2 RAB27 P0000 TSNO
94908KDBQ DBQ20070322034012903/22/07 03:40:31  5-MIN KDBQ 220940Z AUTO 34017KT 10SM -RA SCT034 OVC044 11/07 A2988 1110 77 900 330/17 RMK AO2 RAB27 P0000 TSNO
94908KDBQ DBQ20070322034512803/22/07 03:45:31  5-MIN KDBQ 220945Z AUTO 33018KT 10SM SCT037 OVC047 11/07 A2988 1110 77 900 330/18 RMK AO2 RAB27E43 P0000 TSNO
94908KDBQ DBQ20070322035015103/22/07 03:50:31  5-MIN KDBQ 220950Z AUTO 34021G24KT 10SM FEW039 OVC047 11/07 A2988 1110 77 900 330/21G24 RMK AO2 RAB27E43 SLP121 P0000 T01060067 TSNO
94908KDBQ DBQ20070322035515103/22/07 03:55:31  5-MIN KDBQ 220955Z AUTO 33017G24KT 10SM BKN047 OVC055 10/06 A2989 1110 77 800 330/17G24 RMK AO2 RAB27E43 SLP122 P0000 T01000061 TSNO
94908KDBQ DBQ20070322040012503/22/07 04:00:31  5-MIN KDBQ 221000Z AUTO 33019G22KT 9SM FEW040 BKN047 OVC060 10/07 A2989 1100 80 800 330/19G22 RMK AO2 TSNO
94908KDBQ DBQ20070322040512503/22/07 04:05:31  5-MIN KDBQ 221005Z AUTO 33016G22KT 9SM SCT047 BKN060 OVC075 10/06 A2989 1110 77 800 330/16G22 RMK AO2 TSNO
94908KDBQ DBQ20070322041011903/22/07 04:10:31  5-MIN KDBQ 221010Z AUTO 33016KT 8SM SCT049 BKN060 OVC075 09/06 A2989 1110 79 700 330/16 RMK AO2 TSNO
94908KDBQ DBQ20070322041511903/22/07 04:15:31  5-MIN KDBQ 221015Z AUTO 33017KT 8SM FEW049 BKN060 OVC075 09/06 A2989 1110 79 700 330/17 RMK AO2 TSNO
94908KDBQ DBQ20070322042011903/22/07 04:20:31  5-MIN KDBQ 221020Z AUTO 33013KT 8SM FEW017 BKN060 OVC070 09/06 A2990 1100 83 700 330/13 RMK AO2 TSNO
94908KDBQ DBQ20070322042511203/22/07 04:25:31  5-MIN KDBQ 221025Z AUTO 33013KT 8SM FEW017 OVC070 09/06 A2990 1100 83 700 330/13 RMK AO2 TSNO
94908KDBQ DBQ20070322043011203/22/07 04:30:31  5-MIN KDBQ 221030Z AUTO 33014KT 8SM FEW017 BKN070 09/06 A2991 1090 79 700 330/14 RMK AO2 TSNO
94908KDBQ DBQ20070322043511203/22/07 04:35:31  5-MIN KDBQ 221035Z AUTO 34013KT 7SM FEW017 BKN070 09/06 A2991 1090 79 700 330/13 RMK AO2 TSNO
94908KDBQ DBQ20070322044011203/22/07 04:40:31  5-MIN KDBQ 221040Z AUTO 34012KT 7SM FEW017 SCT070 08/06 A2991 1080 82 600 330/12 RMK AO2 TSNO
94908KDBQ DBQ20070322044511203/22/07 04:45:31  5-MIN KDBQ 221045Z AUTO 33010KT 7SM FEW017 SCT070 08/06 A2992 1080 82 600 330/10 RMK AO2 TSNO
94908KDBQ DBQ20070322045011203/22/07 04:50:31  5-MIN KDBQ 221050Z 34010KT 7SM FEW070 08/06 A2992 1080 82 600 340/10 RMK AO2 SLP134 T00830056
94908KDBQ DBQ20070322045510903/22/07 04:55:31  5-MIN KDBQ 221055Z 33010KT 7SM CLR 08/05 A2992 1080 79 600 330/10 RMK AO2 SLP135 T00830050
94908KDBQ DBQ20070322050009203/22/07 05:00:31  5-MIN KDBQ 221100Z 33010KT 7SM CLR 08/05 A2993 1070 79 600 330/10 RMK AO2
94908KDBQ DBQ20070322050509203/22/07 05:05:31  5-MIN KDBQ 221105Z 32008KT 7SM CLR 08/05 A2993 1070 82 500 310/08 RMK AO2
94908KDBQ DBQ20070322051009203/22/07 05:10:31  5-MIN KDBQ 221110Z 32011KT 7SM CLR 08/05 A2993 1070 82 500 320/11 RMK AO2
94908KDBQ DBQ20070322051509203/22/07 05:15:31  5-MIN KDBQ 221115Z 32009KT 7SM CLR 07/04 A2993 1070 82 400 320/09 RMK AO2
94908KDBQ DBQ20070322052009203/22/07 05:20:31  5-MIN KDBQ 221120Z 32009KT 7SM CLR 07/04 A2994 1060 82 400 320/09 RMK AO2
94908KDBQ DBQ20070322052509203/22/07 05:25:31  5-MIN KDBQ 221125Z 31007KT 8SM CLR 07/04 A2994 1060 86 300 310/07 RMK AO2
94908KDBQ DBQ20070322053009203/22/07 05:30:31  5-MIN KDBQ 221130Z 32009KT 8SM CLR 07/04 A2995 1050 82 300 320/09 RMK AO2
94908KDBQ DBQ20070322053509203/22/07 05:35:31  5-MIN KDBQ 221135Z 32011KT 9SM CLR 07/03 A2995 1050 79 300 320/11 RMK AO2
94908KDBQ DBQ20070322054009303/22/07 05:40:31  5-MIN KDBQ 221140Z 33013KT 10SM CLR 07/03 A2995 1050 76 300 320/13 RMK AO2
94908KDBQ DBQ20070322054509303/22/07 05:45:31  5-MIN KDBQ 221145Z 32012KT 10SM CLR 07/03 A2996 1040 76 300 320/12 RMK AO2
94908KDBQ DBQ20070322055014003/22/07 05:50:31  5-MIN KDBQ 221150Z 32012KT 10SM CLR 07/03 A2997 1040 76 300 320/12 RMK AO2 SLP151 60005 70044 T00670028 10172 20067 51035
94908KDBQ DBQ20070322055514003/22/07 05:55:31  5-MIN KDBQ 221155Z 32014KT 10SM CLR 07/03 A2996 1040 76 300 320/14 RMK AO2 SLP150 60005 70044 T00670028 10172 20067 53038
94908KDBQ DBQ20070322060009303/22/07 06:00:31  5-MIN KDBQ 221200Z 32013KT 10SM CLR 07/02 A2996 1040 73 300 320/13 RMK AO2
94908KDBQ DBQ20070322060509303/22/07 06:05:31  5-MIN KDBQ 221205Z 32012KT 10SM CLR 06/02 A2997 1030 76 300 320/12 RMK AO2
94908KDBQ DBQ20070322061009303/22/07 06:10:31  5-MIN KDBQ 221210Z 32013KT 10SM CLR 06/02 A2997 1030 73 200 320/13 RMK AO2
94908KDBQ DBQ20070322061509303/22/07 06:15:31  5-MIN KDBQ 221215Z 32010KT 10SM CLR 06/02 A2998 1030 76 200 320/10 RMK AO2
94908KDBQ DBQ20070322062009303/22/07 06:20:31  5-MIN KDBQ 221220Z 31010KT 10SM CLR 06/02 A2998 1020 73 200 310/10 RMK AO2
94908KDBQ DBQ20070322062509303/22/07 06:25:31  5-MIN KDBQ 221225Z 32012KT 10SM CLR 06/02 A2999 1020 76 200 320/12 RMK AO2
94908KDBQ DBQ20070322063009303/22/07 06:30:31  5-MIN KDBQ 221230Z 32011KT 10SM CLR 06/02 A2999 1020 76 200 320/11 RMK AO2
94908KDBQ DBQ20070322063509303/22/07 06:35:31  5-MIN KDBQ 221235Z 31008KT 10SM CLR 06/02 A2999 1010 76 200 310/08 RMK AO2
94908KDBQ DBQ20070322064009303/22/07 06:40:31  5-MIN KDBQ 221240Z 30008KT 10SM CLR 05/02 A3000 1010 82 100 300/08 RMK AO2
94908KDBQ DBQ20070322064509303/22/07 06:45:31  5-MIN KDBQ 221245Z 31010KT 10SM CLR 06/02 A3000 1010 79 100 310/10 RMK AO2
94908KDBQ DBQ20070322065011003/22/07 06:50:31  5-MIN KDBQ 221250Z 32012KT 10SM CLR 06/02 A3000 1000 79 100 310/12 RMK AO2 SLP164 T00560022
94908KDBQ DBQ20070322065511003/22/07 06:55:31  5-MIN KDBQ 221255Z 32014KT 10SM CLR 06/02 A3001 1000 76 100 320/14 RMK AO2 SLP164 T00560017
94908KDBQ DBQ20070322070009303/22/07 07:00:31  5-MIN KDBQ 221300Z 32012KT 10SM CLR 06/02 A3001 1000 76 100 320/12 RMK AO2
94908KDBQ DBQ20070322070509203/22/07 07:05:31  5-MIN KDBQ 221305Z 32012KT 10SM CLR 06/02 A3001 990 79 100 320/12 RMK AO2
94908KDBQ DBQ20070322071009203/22/07 07:10:31  5-MIN KDBQ 221310Z 32013KT 10SM CLR 06/02 A3001 990 79 100 320/13 RMK AO2
94908KDBQ DBQ20070322071509203/22/07 07:15:31  5-MIN KDBQ 221315Z 32013KT 10SM CLR 06/02 A3002 990 79 100 320/13 RMK AO2
94908KDBQ DBQ20070322072009203/22/07 07:20:31  5-MIN KDBQ 221320Z 32013KT 10SM CLR 06/02 A3002 980 79 100 310/13 RMK AO2
94908KDBQ DBQ20070322072509203/22/07 07:25:31  5-MIN KDBQ 221325Z 32012KT 10SM CLR 06/02 A3003 980 79 100 320/12 RMK AO2
94908KDBQ DBQ20070322073009203/22/07 07:30:31  5-MIN KDBQ 221330Z 32012KT 10SM CLR 06/02 A3003 970 79 100 310/12 RMK AO2
94908KDBQ DBQ20070322073509203/22/07 07:35:31  5-MIN KDBQ 221335Z 32013KT 10SM CLR 06/02 A3004 970 79 100 320/13 RMK AO2
94908KDBQ DBQ20070322074009203/22/07 07:40:31  5-MIN KDBQ 221340Z 33013KT 10SM CLR 06/02 A3003 970 79 100 320/13 RMK AO2
94908KDBQ DBQ20070322074509203/22/07 07:45:31  5-MIN KDBQ 221345Z 32012KT 10SM CLR 06/02 A3003 980 76 200 310/12 RMK AO2
94908KDBQ DBQ20070322075010903/22/07 07:50:31  5-MIN KDBQ 221350Z 33011KT 10SM CLR 06/03 A3003 980 79 200 330/11 RMK AO2 SLP172 T00610028
94908KDBQ DBQ20070322075510903/22/07 07:55:31  5-MIN KDBQ 221355Z 33015KT 10SM CLR 06/02 A3003 980 76 200 330/15 RMK AO2 SLP172 T00610022
94908KDBQ DBQ20070322080009203/22/07 08:00:31  5-MIN KDBQ 221400Z 33014KT 10SM CLR 06/02 A3003 980 76 200 330/14 RMK AO2
94908KDBQ DBQ20070322080509203/22/07 08:05:31  5-MIN KDBQ 221405Z 33013KT 10SM CLR 06/02 A3003 970 73 200 330/13 RMK AO2
94908KDBQ DBQ20070322081009203/22/07 08:10:31  5-MIN KDBQ 221410Z 32014KT 10SM CLR 06/02 A3003 970 76 200 320/14 RMK AO2
94908KDBQ DBQ20070322081509203/22/07 08:15:31  5-MIN KDBQ 221415Z 33014KT 10SM CLR 06/02 A3004 970 76 200 330/14 RMK AO2
94908KDBQ DBQ20070322082009203/22/07 08:20:31  5-MIN KDBQ 221420Z 32014KT 10SM CLR 06/02 A3004 960 76 200 320/14 RMK AO2
94908KDBQ DBQ20070322082509203/22/07 08:25:31  5-MIN KDBQ 221425Z 34013KT 10SM CLR 06/02 A3005 960 76 200 340/13 RMK AO2
94908KDBQ DBQ20070322083009903/22/07 08:30:31  5-MIN KDBQ 221430Z 33010KT 10SM CLR 07/03 A3006 950 76 200 330/10 RMK AO2 PRESRR
94908KDBQ DBQ20070322083509203/22/07 08:35:31  5-MIN KDBQ 221435Z 33011KT 10SM CLR 07/03 A3006 950 76 200 330/11 RMK AO2
94908KDBQ DBQ20070322084009203/22/07 08:40:31  5-MIN KDBQ 221440Z 33012KT 10SM CLR 07/02 A3006 950 73 200 330/12 RMK AO2
94908KDBQ DBQ20070322084509203/22/07 08:45:31  5-MIN KDBQ 221445Z 35012KT 10SM CLR 07/02 A3006 950 73 200 340/12 RMK AO2
94908KDBQ DBQ20070322085011503/22/07 08:50:31  5-MIN KDBQ 221450Z 34012KT 10SM CLR 07/02 A3006 950 73 200 340/12 RMK AO2 SLP181 T00670022 53038
94908KDBQ DBQ20070322085511503/22/07 08:55:31  5-MIN KDBQ 221455Z 34012KT 10SM CLR 07/02 A3006 950 73 200 340/12 RMK AO2 SLP182 T00670022 51031
94908KDBQ DBQ20070322090009203/22/07 09:00:31  5-MIN KDBQ 221500Z 34010KT 10SM CLR 07/03 A3006 950 76 200 340/10 RMK AO2
94908KDBQ DBQ20070322090509203/22/07 09:05:31  5-MIN KDBQ 221505Z 34011KT 10SM CLR 07/03 A3006 940 73 300 340/11 RMK AO2
94908KDBQ DBQ20070322091009203/22/07 09:10:31  5-MIN KDBQ 221510Z 34010KT 10SM CLR 07/03 A3007 940 76 200 340/10 RMK AO2
94908KDBQ DBQ20070322091509203/22/07 09:15:31  5-MIN KDBQ 221515Z 34012KT 10SM CLR 07/03 A3007 940 76 200 340/12 RMK AO2
94908KDBQ DBQ20070322092009203/22/07 09:20:31  5-MIN KDBQ 221520Z 36010KT 10SM CLR 07/02 A3007 940 73 200 360/10 RMK AO2
94908KDBQ DBQ20070322092509203/22/07 09:25:31  5-MIN KDBQ 221525Z 35011KT 10SM CLR 07/02 A3008 930 70 300 350/11 RMK AO2
94908KDBQ DBQ20070322093009203/22/07 09:30:31  5-MIN KDBQ 221530Z 35011KT 10SM CLR 07/02 A3008 930 73 200 350/11 RMK AO2
94908KDBQ DBQ20070322093509203/22/07 09:35:31  5-MIN KDBQ 221535Z 35009KT 10SM CLR 07/02 A3009 930 73 200 350/09 RMK AO2
94908KDBQ DBQ20070322094009203/22/07 09:40:31  5-MIN KDBQ 221540Z 34011KT 10SM CLR 07/02 A3009 920 70 200 340/11 RMK AO2
94908KDBQ DBQ20070322094509203/22/07 09:45:31  5-MIN KDBQ 221545Z 34010KT 10SM CLR 07/02 A3009 920 70 200 340/10 RMK AO2
94908KDBQ DBQ20070322095010903/22/07 09:50:31  5-MIN KDBQ 221550Z 34009KT 10SM CLR 07/02 A3009 920 70 200 340/09 RMK AO2 SLP192 T00720022
94908KDBQ DBQ20070322095510903/22/07 09:55:31  5-MIN KDBQ 221555Z 33011KT 10SM CLR 07/02 A3009 920 68 200 330/11 RMK AO2 SLP193 T00720017
94908KDBQ DBQ20070322103009203/22/07 10:30:31  5-MIN KDBQ 221630Z 33011KT 10SM CLR 08/02 A3009 920 68 300 330/11 RMK AO2
94908KDBQ DBQ20070322103509203/22/07 10:35:31  5-MIN KDBQ 221635Z 33010KT 10SM CLR 08/02 A3010 920 63 400 320/10 RMK AO2
94908KDBQ DBQ20070322104009203/22/07 10:40:31  5-MIN KDBQ 221640Z 34009KT 10SM CLR 08/02 A3010 910 63 400 340/09 RMK AO2
94908KDBQ DBQ20070322104509203/22/07 10:45:31  5-MIN KDBQ 221645Z 34007KT 10SM CLR 08/02 A3010 910 63 400 340/07 RMK AO2
94908KDBQ DBQ20070322105011503/22/07 10:50:31  5-MIN KDBQ 221650Z 36009G14KT 10SM CLR 09/02 A3010 910 60 400 360/09G14 RMK AO2 SLP195 T00890017
94908KDBQ DBQ20070322105510903/22/07 10:55:31  5-MIN KDBQ 221655Z 34009KT 10SM CLR 08/01 A3010 910 60 400 340/09 RMK AO2 SLP195 T00830011
94908KDBQ DBQ20070322110009203/22/07 11:00:31  5-MIN KDBQ 221700Z 01009KT 10SM CLR 09/02 A3010 910 58 500 360/09 RMK AO2
94908KDBQ DBQ20070322110509203/22/07 11:05:31  5-MIN KDBQ 221705Z 34009KT 10SM CLR 09/01 A3010 910 56 500 340/09 RMK AO2
94908KDBQ DBQ20070322111009203/22/07 11:10:31  5-MIN KDBQ 221710Z 01009KT 10SM CLR 09/01 A3010 920 56 500 360/09 RMK AO2
94908KDBQ DBQ20070322111509203/22/07 11:15:31  5-MIN KDBQ 221715Z 34010KT 10SM CLR 09/02 A3010 920 58 500 340/10 RMK AO2
94908KDBQ DBQ20070322112009203/22/07 11:20:31  5-MIN KDBQ 221720Z 35007KT 10SM CLR 09/02 A3010 910 60 400 350/07 RMK AO2
94908KDBQ DBQ20070322112509203/22/07 11:25:31  5-MIN KDBQ 221725Z 35008KT 10SM CLR 10/02 A3010 910 58 600 350/08 RMK AO2
94908KDBQ DBQ20070322113009203/22/07 11:30:31  5-MIN KDBQ 221730Z 36010KT 10SM CLR 10/02 A3010 910 56 600 360/10 RMK AO2
94908KDBQ DBQ20070322113509203/22/07 11:35:31  5-MIN KDBQ 221735Z 33008KT 10SM CLR 10/02 A3011 910 56 600 330/08 RMK AO2
94908KDBQ DBQ20070322114009203/22/07 11:40:31  5-MIN KDBQ 221740Z 33006KT 10SM CLR 10/01 A3011 900 54 600 330/06 RMK AO2
94908KDBQ DBQ20070322114509203/22/07 11:45:31  5-MIN KDBQ 221745Z 35008KT 10SM CLR 10/01 A3011 900 54 600 350/08 RMK AO2
94908KDBQ DBQ20070322115012703/22/07 11:50:31  5-MIN KDBQ 221750Z 34007KT 10SM CLR 10/01 A3011 900 52 600 340/07 RMK AO2 SLP198 T01000006 10100 20050 51031
94908KDBQ DBQ20070322115512703/22/07 11:55:31  5-MIN KDBQ 221755Z 31009KT 10SM CLR 10/01 A3011 910 52 600 310/09 RMK AO2 SLP197 T01000006 10100 20050 51016
94908KDBQ DBQ20070322120009203/22/07 12:00:31  5-MIN KDBQ 221800Z 34009KT 10SM CLR 11/01 A3010 910 52 600 340/09 RMK AO2
94908KDBQ DBQ20070322120509203/22/07 12:05:31  5-MIN KDBQ 221805Z 33008KT 10SM CLR 11/01 A3010 910 50 600 330/08 RMK AO2
94908KDBQ DBQ20070322121009203/22/07 12:10:31  5-MIN KDBQ 221810Z 34007KT 10SM CLR 11/01 A3010 910 50 600 340/07 RMK AO2
94908KDBQ DBQ20070322121509803/22/07 12:15:31  5-MIN KDBQ 221815Z 01011G15KT 10SM CLR 11/01 A3009 920 50 700 010/11G15 RMK AO2
94908KDBQ DBQ20070322122009903/22/07 12:20:31  5-MIN KDBQ 221820Z 36010G15KT 10SM CLR 11/M01 A3009 920 46 600 360/10G15 RMK AO2
94908KDBQ DBQ20070322122509303/22/07 12:25:31  5-MIN KDBQ 221825Z 34008KT 10SM CLR 11/M01 A3009 920 44 700 340/08 RMK AO2
94908KDBQ DBQ20070322123009303/22/07 12:30:31  5-MIN KDBQ 221830Z 35009KT 10SM CLR 11/M02 A3008 930 41 700 350/09 RMK AO2
94908KDBQ DBQ20070322123509303/22/07 12:35:31  5-MIN KDBQ 221835Z 02008KT 10SM CLR 11/M01 A3008 930 42 700 020/08 RMK AO2
94908KDBQ DBQ20070322124009303/22/07 12:40:31  5-MIN KDBQ 221840Z 34011KT 10SM CLR 11/M03 A3008 930 37 700 340/11 RMK AO2
94908KDBQ DBQ20070322124509903/22/07 12:45:31  5-MIN KDBQ 221845Z 34007G14KT 10SM CLR 11/M04 A3008 930 34 700 340/07G14 RMK AO2
94908KDBQ DBQ20070322125011603/22/07 12:50:31  5-MIN KDBQ 221850Z 01010G17KT 10SM CLR 11/M03 A3008 940 36 700 010/10G17 RMK AO2 SLP186 T01111033
94908KDBQ DBQ20070322125511603/22/07 12:55:31  5-MIN KDBQ 221855Z 36008G17KT 10SM CLR 12/M04 A3007 940 32 800 360/08G17 RMK AO2 SLP185 T01171044
94908KDBQ DBQ20070322130009303/22/07 13:00:31  5-MIN KDBQ 221900Z 36006KT 10SM CLR 12/M04 A3007 940 33 800 350/06 RMK AO2
94908KDBQ DBQ20070322130509303/22/07 13:05:31  5-MIN KDBQ 221905Z 01006KT 10SM CLR 12/M04 A3007 940 33 800 010/06 RMK AO2
94908KDBQ DBQ20070322131009303/22/07 13:10:31  5-MIN KDBQ 221910Z 36008KT 10SM CLR 12/M04 A3008 930 32 800 360/08 RMK AO2
94908KDBQ DBQ20070322131509303/22/07 13:15:31  5-MIN KDBQ 221915Z 36008KT 10SM CLR 12/M04 A3007 940 31 900 360/08 RMK AO2
94908KDBQ DBQ20070322132009303/22/07 13:20:31  5-MIN KDBQ 221920Z 36006KT 10SM CLR 12/M05 A3007 940 30 800 360/06 RMK AO2
94908KDBQ DBQ20070322132509303/22/07 13:25:31  5-MIN KDBQ 221925Z 30004KT 10SM CLR 11/M07 A3007 940 28 700 300/04 RMK AO2
94908KDBQ DBQ20070322133009303/22/07 13:30:31  5-MIN KDBQ 221930Z 00000KT 10SM CLR 12/M06 A3008 940 28 900 000/00 RMK AO2
94908KDBQ DBQ20070322133509303/22/07 13:35:31  5-MIN KDBQ 221935Z VRB04KT 10SM CLR 12/M07 A3008 930 27 800 VRB/04 RMK AO2
94908KDBQ DBQ20070322134009303/22/07 13:40:31  5-MIN KDBQ 221940Z 32006KT 10SM CLR 12/M06 A3008 930 27 900 310/06 RMK AO2
94908KDBQ DBQ20070322134509303/22/07 13:45:31  5-MIN KDBQ 221945Z 36004KT 10SM CLR 12/M05 A3008 930 29 900 360/04 RMK AO2
94908KDBQ DBQ20070322135011003/22/07 13:50:31  5-MIN KDBQ 221950Z 32006KT 10SM CLR 12/M05 A3008 930 29 900 310/06 RMK AO2 SLP186 T01221050
94908KDBQ DBQ20070322135511003/22/07 13:55:31  5-MIN KDBQ 221955Z 34007KT 10SM CLR 12/M05 A3007 940 29 900 340/07 RMK AO2 SLP185 T01221050
94908KDBQ DBQ20070322140009303/22/07 14:00:31  5-MIN KDBQ 222000Z 03003KT 10SM CLR 12/M06 A3007 940 27 900 030/03 RMK AO2
94908KDBQ DBQ20070322140509303/22/07 14:05:31  5-MIN KDBQ 222005Z 00000KT 10SM CLR 12/M06 A3007 940 27 900 000/00 RMK AO2
94908KDBQ DBQ20070322141009303/22/07 14:10:31  5-MIN KDBQ 222010Z VRB05KT 10SM CLR 12/M06 A3007 940 28 900 VRB/05 RMK AO2
94908KDBQ DBQ20070322141509303/22/07 14:15:31  5-MIN KDBQ 222015Z 29009KT 10SM CLR 13/M05 A3007 940 28 900 290/09 RMK AO2
94908KDBQ DBQ20070322142009303/22/07 14:20:31  5-MIN KDBQ 222020Z 33007KT 10SM CLR 12/M04 A3007 940 31 900 330/07 RMK AO2
94908KDBQ DBQ20070322142509303/22/07 14:25:31  5-MIN KDBQ 222025Z VRB05KT 10SM CLR 12/M06 A3007 940 28 900 VRB/05 RMK AO2
94908KDBQ DBQ20070322143009303/22/07 14:30:31  5-MIN KDBQ 222030Z 31006KT 10SM CLR 13/M04 A3007 940 30 900 310/06 RMK AO2
94908KDBQ DBQ20070322143509303/22/07 14:35:31  5-MIN KDBQ 222035Z 31007KT 10SM CLR 13/M04 A3007 940 31 900 310/07 RMK AO2
94908KDBQ DBQ20070322144009303/22/07 14:40:31  5-MIN KDBQ 222040Z 00000KT 10SM CLR 12/M05 A3007 940 29 900 000/00 RMK AO2
94908KDBQ DBQ20070322144509303/22/07 14:45:31  5-MIN KDBQ 222045Z VRB05KT 10SM CLR 13/M05 A3006 940 28 900 VRB/05 RMK AO2
94908KDBQ DBQ20070322145011603/22/07 14:50:31  5-MIN KDBQ 222050Z 30004KT 10SM CLR 12/M04 A3006 950 31 900 300/04 RMK AO2 SLP182 T01221044 51016
94908KDBQ DBQ20070322145511703/22/07 14:55:31  5-MIN KDBQ 222055Z 32003KT 10SM CLR 13/M04 A3005 950 30 1000 320/03 RMK AO2 SLP180 T01281044 56017
94908KDBQ DBQ20070322150009403/22/07 15:00:31  5-MIN KDBQ 222100Z 32007KT 10SM CLR 13/M04 A3005 950 30 1000 320/07 RMK AO2
94908KDBQ DBQ20070322150509403/22/07 15:05:31  5-MIN KDBQ 222105Z VRB04KT 10SM CLR 13/M05 A3005 960 28 1000 VRB/04 RMK AO2
94908KDBQ DBQ20070322151009303/22/07 15:10:31  5-MIN KDBQ 222110Z 00000KT 10SM CLR 12/M05 A3005 960 29 900 000/00 RMK AO2
94908KDBQ DBQ20070322151509403/22/07 15:15:31  5-MIN KDBQ 222115Z 35006KT 10SM CLR 13/M04 A3005 960 30 1000 350/06 RMK AO2
94908KDBQ DBQ20070322152009403/22/07 15:20:31  5-MIN KDBQ 222120Z 35003KT 10SM CLR 13/M04 A3005 960 30 1000 350/03 RMK AO2
94908KDBQ DBQ20070322152509403/22/07 15:25:31  5-MIN KDBQ 222125Z 00000KT 10SM CLR 13/M04 A3005 960 30 1000 000/00 RMK AO2
94908KDBQ DBQ20070322153009403/22/07 15:30:31  5-MIN KDBQ 222130Z 00000KT 10SM CLR 13/M06 A3005 960 26 1000 000/00 RMK AO2
94908KDBQ DBQ20070322153509403/22/07 15:35:31  5-MIN KDBQ 222135Z VRB05KT 10SM CLR 13/M06 A3006 950 26 1000 VRB/05 RMK AO2
94908KDBQ DBQ20070322154009403/22/07 15:40:31  5-MIN KDBQ 222140Z 26003KT 10SM CLR 13/M05 A3005 960 28 1000 260/03 RMK AO2
94908KDBQ DBQ20070322154509403/22/07 15:45:31  5-MIN KDBQ 222145Z 00000KT 10SM CLR 13/M06 A3005 960 26 1000 000/00 RMK AO2
94908KDBQ DBQ20070322155011103/22/07 15:50:31  5-MIN KDBQ 222150Z 22004KT 10SM CLR 13/M06 A3005 960 26 1000 220/04 RMK AO2 SLP177 T01281061
94908KDBQ DBQ20070322155511103/22/07 15:55:31  5-MIN KDBQ 222155Z 27005KT 10SM CLR 13/M06 A3005 960 27 1000 270/05 RMK AO2 SLP178 T01281056
94908KDBQ DBQ20070322160009403/22/07 16:00:31  5-MIN KDBQ 222200Z 25004KT 10SM CLR 13/M06 A3005 960 27 1000 250/04 RMK AO2
94908KDBQ DBQ20070322160509403/22/07 16:05:31  5-MIN KDBQ 222205Z VRB03KT 10SM CLR 13/M06 A3005 960 27 1000 VRB/03 RMK AO2
94908KDBQ DBQ20070322161009403/22/07 16:10:31  5-MIN KDBQ 222210Z 27003KT 10SM CLR 13/M05 A3005 950 28 1000 270/03 RMK AO2
94908KDBQ DBQ20070322161509403/22/07 16:15:31  5-MIN KDBQ 222215Z 00000KT 10SM CLR 13/M06 A3006 950 27 1000 000/00 RMK AO2
94908KDBQ DBQ20070322162009403/22/07 16:20:31  5-MIN KDBQ 222220Z 00000KT 10SM CLR 13/M06 A3005 960 27 1000 000/00 RMK AO2
94908KDBQ DBQ20070322162509403/22/07 16:25:31  5-MIN KDBQ 222225Z VRB03KT 10SM CLR 13/M05 A3005 960 28 1000 VRB/03 RMK AO2
94908KDBQ DBQ20070322163009303/22/07 16:30:31  5-MIN KDBQ 222230Z 23004KT 10SM CLR 12/M05 A3005 950 29 900 230/04 RMK AO2
94908KDBQ DBQ20070322163509303/22/07 16:35:31  5-MIN KDBQ 222235Z 20004KT 10SM CLR 12/M05 A3005 960 29 900 200/04 RMK AO2
94908KDBQ DBQ20070322164009303/22/07 16:40:31  5-MIN KDBQ 222240Z 25005KT 10SM CLR 12/M03 A3005 950 33 900 250/05 RMK AO2
94908KDBQ DBQ20070322164509303/22/07 16:45:31  5-MIN KDBQ 222245Z 25005KT 10SM CLR 12/M04 A3005 950 31 900 250/05 RMK AO2
94908KDBQ DBQ20070322165011003/22/07 16:50:31  5-MIN KDBQ 222250Z 23006KT 10SM CLR 12/M03 A3006 950 36 800 230/06 RMK AO2 SLP183 T01171028
94908KDBQ DBQ20070322165511003/22/07 16:55:31  5-MIN KDBQ 222255Z 24005KT 10SM CLR 12/M03 A3006 950 35 800 240/05 RMK AO2 SLP183 T01171033
94908KDBQ DBQ20070322170009303/22/07 17:00:31  5-MIN KDBQ 222300Z 26005KT 10SM CLR 12/M03 A3006 950 35 800 260/05 RMK AO2
94908KDBQ DBQ20070322170509303/22/07 17:05:31  5-MIN KDBQ 222305Z 23004KT 10SM CLR 12/M03 A3006 950 36 800 230/04 RMK AO2
94908KDBQ DBQ20070322171009303/22/07 17:10:31  5-MIN KDBQ 222310Z 22004KT 10SM CLR 12/M03 A3006 950 36 800 220/04 RMK AO2
94908KDBQ DBQ20070322171509303/22/07 17:15:31  5-MIN KDBQ 222315Z 23004KT 10SM CLR 12/M02 A3006 950 38 800 230/04 RMK AO2
94908KDBQ DBQ20070322172009303/22/07 17:20:31  5-MIN KDBQ 222320Z 23003KT 10SM CLR 11/M02 A3006 950 41 700 230/03 RMK AO2
94908KDBQ DBQ20070322172509303/22/07 17:25:31  5-MIN KDBQ 222325Z 22004KT 10SM CLR 12/M02 A3006 950 38 800 220/04 RMK AO2
94908KDBQ DBQ20070322173009303/22/07 17:30:31  5-MIN KDBQ 222330Z 22003KT 10SM CLR 12/M03 A3006 950 36 800 220/03 RMK AO2
94908KDBQ DBQ20070322173509303/22/07 17:35:31  5-MIN KDBQ 222335Z 21003KT 10SM CLR 12/M03 A3006 950 36 800 210/03 RMK AO2
94908KDBQ DBQ20070322174009303/22/07 17:40:31  5-MIN KDBQ 222340Z 21003KT 10SM CLR 12/M03 A3006 950 36 800 210/03 RMK AO2
94908KDBQ DBQ20070322174509303/22/07 17:45:31  5-MIN KDBQ 222345Z 22003KT 10SM CLR 12/M04 A3007 940 33 800 220/03 RMK AO2
94908KDBQ DBQ20070322175012803/22/07 17:50:31  5-MIN KDBQ 222350Z 22003KT 10SM CLR 11/M03 A3007 940 36 700 220/03 RMK AO2 SLP188 T01111033 10133 20100 56017
94908KDBQ DBQ20070322175512803/22/07 17:55:31  5-MIN KDBQ 222355Z 22003KT 10SM CLR 11/M03 A3007 940 37 700 220/03 RMK AO2 SLP188 T01111028 10133 20100 53005
94908KDBQ DBQ20070322180009303/22/07 18:00:31  5-MIN KDBQ 230000Z 22004KT 10SM CLR 11/M03 A3007 940 36 700 220/04 RMK AO2
94908KDBQ DBQ20070322180509303/22/07 18:05:31  5-MIN KDBQ 230005Z 22004KT 10SM CLR 11/M03 A3007 940 37 700 220/04 RMK AO2
94908KDBQ DBQ20070322181009303/22/07 18:10:31  5-MIN KDBQ 230010Z 22003KT 10SM CLR 11/M03 A3007 940 37 700 220/03 RMK AO2
94908KDBQ DBQ20070322181509303/22/07 18:15:31  5-MIN KDBQ 230015Z 22003KT 10SM CLR 11/M03 A3008 940 37 700 220/03 RMK AO2
94908KDBQ DBQ20070322182009303/22/07 18:20:31  5-MIN KDBQ 230020Z 23003KT 10SM CLR 11/M02 A3007 940 42 700 230/03 RMK AO2
94908KDBQ DBQ20070322182509203/22/07 18:25:31  5-MIN KDBQ 230025Z 00000KT 10SM CLR 10/01 A3007 940 54 600 000/00 RMK AO2
94908KDBQ DBQ20070322183009203/22/07 18:30:31  5-MIN KDBQ 230030Z 00000KT 10SM CLR 10/01 A3007 940 52 600 000/00 RMK AO2
94908KDBQ DBQ20070322183509603/22/07 18:35:31  5-MIN KDBQ 230035Z 00000KT 10SM FEW120 10/M01 A3006 940 47 600 000/00 RMK AO2
94908KDBQ DBQ20070322184009603/22/07 18:40:31  5-MIN KDBQ 230040Z 00000KT 10SM FEW120 11/M01 A3007 940 46 700 000/00 RMK AO2
94908KDBQ DBQ20070322184509503/22/07 18:45:31  5-MIN KDBQ 230045Z 00000KT 10SM SCT120 09/01 A3006 950 53 500 000/00 RMK AO2
94908KDBQ DBQ20070322185012303/22/07 18:50:31  5-MIN KDBQ 230050Z AUTO 00000KT 10SM BKN110 10/M01 A3005 960 47 600 000/00 RMK AO2 SLP183 T01001006 TSNO
94908KDBQ DBQ20070322185513003/22/07 18:55:31  5-MIN KDBQ 230055Z AUTO 06004KT 10SM BKN110 10/M01 A3004 970 46 600 060/04 RMK AO2 PRESFR SLP179 T01001011 TSNO
94908KDBQ DBQ20070322190011303/22/07 19:00:31  5-MIN KDBQ 230100Z AUTO 05005KT 10SM BKN110 09/M01 A3003 970 49 600 050/05 RMK AO2 PRESFR TSNO
94908KDBQ DBQ20070322190510603/22/07 19:05:31  5-MIN KDBQ 230105Z AUTO 04006KT 10SM BKN110 09/M01 A3003 980 51 500 040/06 RMK AO2 TSNO
94908KDBQ DBQ20070322191010603/22/07 19:10:31  5-MIN KDBQ 230110Z AUTO 04006KT 10SM BKN110 09/M01 A3003 980 51 500 040/06 RMK AO2 TSNO
94908KDBQ DBQ20070322191510603/22/07 19:15:31  5-MIN KDBQ 230115Z AUTO 04006KT 10SM BKN110 09/M01 A3003 980 51 500 040/06 RMK AO2 TSNO
94908KDBQ DBQ20070322192010503/22/07 19:20:31  5-MIN KDBQ 230120Z AUTO 03005KT 10SM BKN110 09/00 A3003 970 53 500 030/05 RMK AO2 TSNO
94908KDBQ DBQ20070322192510503/22/07 19:25:31  5-MIN KDBQ 230125Z AUTO 04004KT 10SM SCT120 09/00 A3003 970 53 500 030/04 RMK AO2 TSNO
94908KDBQ DBQ20070322193010603/22/07 19:30:31  5-MIN KDBQ 230130Z AUTO 05003KT 10SM SCT110 09/M01 A3003 970 49 600 050/03 RMK AO2 TSNO
94908KDBQ DBQ20070322193510603/22/07 19:35:31  5-MIN KDBQ 230135Z AUTO 00000KT 10SM SCT120 09/M01 A3004 970 49 600 000/00 RMK AO2 TSNO
94908KDBQ DBQ20070322194011303/22/07 19:40:31  5-MIN KDBQ 230140Z AUTO 19003KT 10SM SCT120 09/M01 A3006 950 49 600 190/03 RMK AO2 PRESRR TSNO
94908KDBQ DBQ20070322194511203/22/07 19:45:31  5-MIN KDBQ 230145Z AUTO 21006KT 10SM SCT120 08/01 A3006 950 58 400 210/06 RMK AO2 PRESRR TSNO
94908KDBQ DBQ20070322195012203/22/07 19:50:31  5-MIN KDBQ 230150Z AUTO 20004KT 10SM BKN120 08/01 A3007 940 58 400 200/04 RMK AO2 SLP187 T00830006 TSNO
94908KDBQ DBQ20070322195512203/22/07 19:55:31  5-MIN KDBQ 230155Z AUTO 20006KT 10SM BKN120 08/01 A3007 940 60 400 200/06 RMK AO2 SLP189 T00830011 TSNO
94908KDBQ DBQ20070322200010503/22/07 20:00:31  5-MIN KDBQ 230200Z AUTO 18006KT 10SM BKN120 08/00 A3007 940 55 400 180/06 RMK AO2 TSNO
94908KDBQ DBQ20070322200510503/22/07 20:05:31  5-MIN KDBQ 230205Z AUTO 00000KT 10SM BKN120 08/01 A3006 950 60 400 000/00 RMK AO2 TSNO
94908KDBQ DBQ20070322201010503/22/07 20:10:31  5-MIN KDBQ 230210Z AUTO 15004KT 10SM BKN120 09/02 A3006 950 60 500 150/04 RMK AO2 TSNO
94908KDBQ DBQ20070322201510503/22/07 20:15:31  5-MIN KDBQ 230215Z AUTO 15007KT 10SM BKN120 09/01 A3006 950 58 500 150/07 RMK AO2 TSNO
94908KDBQ DBQ20070322202010503/22/07 20:20:31  5-MIN KDBQ 230220Z AUTO 15006KT 10SM BKN120 08/01 A3005 950 60 400 150/06 RMK AO2 TSNO
94908KDBQ DBQ20070322202510503/22/07 20:25:31  5-MIN KDBQ 230225Z AUTO 15005KT 10SM BKN120 08/01 A3006 950 60 400 150/05 RMK AO2 TSNO
94908KDBQ DBQ20070322203010503/22/07 20:30:31  5-MIN KDBQ 230230Z AUTO 15006KT 10SM BKN120 09/01 A3006 950 56 500 150/06 RMK AO2 TSNO
94908KDBQ DBQ20070322203510503/22/07 20:35:31  5-MIN KDBQ 230235Z AUTO 17004KT 10SM BKN120 08/01 A3007 940 60 400 170/04 RMK AO2 TSNO
94908KDBQ DBQ20070322204010503/22/07 20:40:31  5-MIN KDBQ 230240Z AUTO 17007KT 10SM BKN120 08/01 A3007 940 58 400 170/07 RMK AO2 TSNO
94908KDBQ DBQ20070322204510503/22/07 20:45:31  5-MIN KDBQ 230245Z AUTO 15004KT 10SM BKN120 08/01 A3007 940 58 400 150/04 RMK AO2 TSNO
94908KDBQ DBQ20070322205012803/22/07 20:50:31  5-MIN KDBQ 230250Z AUTO 16006KT 10SM BKN120 08/02 A3006 950 63 400 160/06 RMK AO2 SLP186 T00830017 53005 TSNO
94908KDBQ DBQ20070322205512803/22/07 20:55:31  5-MIN KDBQ 230255Z AUTO 16008KT 10SM OVC120 09/01 A3006 950 56 500 160/08 RMK AO2 SLP184 T00890006 56004 TSNO
94908KDBQ DBQ20070322210010503/22/07 21:00:31  5-MIN KDBQ 230300Z AUTO 17008KT 10SM OVC120 09/00 A3006 950 53 500 160/08 RMK AO2 TSNO
94908KDBQ DBQ20070322210510503/22/07 21:05:31  5-MIN KDBQ 230305Z AUTO 17009KT 10SM OVC120 09/00 A3005 960 53 500 170/09 RMK AO2 TSNO
94908KDBQ DBQ20070322211010503/22/07 21:10:31  5-MIN KDBQ 230310Z AUTO 16008KT 10SM OVC120 09/00 A3005 960 53 500 160/08 RMK AO2 TSNO
94908KDBQ DBQ20070322211510503/22/07 21:15:31  5-MIN KDBQ 230315Z AUTO 16007KT 10SM OVC120 08/01 A3004 960 58 400 160/07 RMK AO2 TSNO
94908KDBQ DBQ20070322212010503/22/07 21:20:31  5-MIN KDBQ 230320Z AUTO 17009KT 10SM OVC120 08/01 A3004 960 58 400 170/09 RMK AO2 TSNO
94908KDBQ DBQ20070322212510503/22/07 21:25:31  5-MIN KDBQ 230325Z AUTO 17008KT 10SM OVC120 09/00 A3004 960 53 500 170/08 RMK AO2 TSNO
94908KDBQ DBQ20070322213010503/22/07 21:30:31  5-MIN KDBQ 230330Z AUTO 16009KT 10SM OVC120 08/01 A3004 970 58 400 160/09 RMK AO2 TSNO
94908KDBQ DBQ20070322213510503/22/07 21:35:31  5-MIN KDBQ 230335Z AUTO 17010KT 10SM OVC120 08/01 A3003 980 58 400 170/10 RMK AO2 TSNO
94908KDBQ DBQ20070322214010503/22/07 21:40:31  5-MIN KDBQ 230340Z AUTO 17010KT 10SM OVC120 09/01 A3003 980 56 500 170/10 RMK AO2 TSNO
94908KDBQ DBQ20070322214511203/22/07 21:45:31  5-MIN KDBQ 230345Z AUTO 16007KT 10SM OVC110 09/01 A3002 990 56 500 160/07 RMK AO2 PRESFR TSNO
94908KDBQ DBQ20070322215012203/22/07 21:50:31  5-MIN KDBQ 230350Z AUTO 14005KT 10SM OVC110 09/01 A3002 990 56 500 140/05 RMK AO2 SLP169 T00890006 TSNO
94908KDBQ DBQ20070322215512203/22/07 21:55:31  5-MIN KDBQ 230355Z AUTO 12003KT 10SM BKN110 09/01 A3002 980 56 500 120/03 RMK AO2 SLP172 T00890006 TSNO
94908KDBQ DBQ20070322220010503/22/07 22:00:31  5-MIN KDBQ 230400Z AUTO 04007KT 10SM BKN110 08/01 A3003 970 60 400 040/07 RMK AO2 TSNO
94908KDBQ DBQ20070322220510503/22/07 22:05:31  5-MIN KDBQ 230405Z AUTO 03008KT 10SM SCT110 08/01 A3003 980 62 400 030/08 RMK AO2 TSNO
94908KDBQ DBQ20070322221010503/22/07 22:10:31  5-MIN KDBQ 230410Z AUTO 08004KT 10SM SCT110 08/01 A3002 990 58 500 080/04 RMK AO2 TSNO
94908KDBQ DBQ20070322221510503/22/07 22:15:31  5-MIN KDBQ 230415Z AUTO 15006KT 10SM FEW110 08/01 A3001 990 58 500 150/06 RMK AO2 TSNO
94908KDBQ DBQ20070322222010603/22/07 22:20:31  5-MIN KDBQ 230420Z AUTO 16007KT 10SM SCT110 08/01 A3001 1000 62 400 160/07 RMK AO2 TSNO
94908KDBQ DBQ20070322222510603/22/07 22:25:31  5-MIN KDBQ 230425Z AUTO 16009KT 10SM SCT110 08/01 A3001 1000 60 500 160/09 RMK AO2 TSNO
94908KDBQ DBQ20070322223010603/22/07 22:30:31  5-MIN KDBQ 230430Z AUTO 17009KT 10SM SCT110 08/02 A3000 1000 63 500 170/09 RMK AO2 TSNO
94908KDBQ DBQ20070322223510503/22/07 22:35:31  5-MIN KDBQ 230435Z AUTO 17009KT 10SM BKN110 08/02 A3001 990 65 400 170/09 RMK AO2 TSNO
94908KDBQ DBQ20070322224010503/22/07 22:40:31  5-MIN KDBQ 230440Z AUTO 13004KT 10SM BKN110 08/02 A3002 990 68 400 130/04 RMK AO2 TSNO
94908KDBQ DBQ20070322224510503/22/07 22:45:31  5-MIN KDBQ 230445Z AUTO 16005KT 10SM BKN110 08/02 A3001 990 63 500 150/05 RMK AO2 TSNO
94908KDBQ DBQ20070322225012203/22/07 22:50:31  5-MIN KDBQ 230450Z AUTO 18005KT 10SM BKN110 08/02 A3002 990 68 400 180/05 RMK AO2 SLP170 T00780022 TSNO
94908KDBQ DBQ20070322225512203/22/07 22:55:31  5-MIN KDBQ 230455Z AUTO 17006KT 10SM BKN110 07/02 A3002 990 70 300 170/06 RMK AO2 SLP170 T00720022 TSNO
94908KDBQ DBQ20070322230010503/22/07 23:00:31  5-MIN KDBQ 230500Z AUTO 17007KT 10SM BKN110 07/02 A3002 990 70 300 170/07 RMK AO2 TSNO
94908KDBQ DBQ20070322230510503/22/07 23:05:31  5-MIN KDBQ 230505Z AUTO 17007KT 10SM OVC110 07/02 A3001 990 70 300 170/07 RMK AO2 TSNO
94908KDBQ DBQ20070322231010503/22/07 23:10:31  5-MIN KDBQ 230510Z AUTO 17007KT 10SM OVC110 07/02 A3001 990 70 300 170/07 RMK AO2 TSNO
94908KDBQ DBQ20070322231510503/22/07 23:15:31  5-MIN KDBQ 230515Z AUTO 17006KT 10SM OVC110 07/02 A3001 990 70 300 170/06 RMK AO2 TSNO
94908KDBQ DBQ20070322232010603/22/07 23:20:31  5-MIN KDBQ 230520Z AUTO 17005KT 10SM OVC110 07/02 A3001 1000 70 300 170/05 RMK AO2 TSNO
94908KDBQ DBQ20070322232510503/22/07 23:25:31  5-MIN KDBQ 230525Z AUTO 18008KT 10SM BKN110 07/02 A3001 990 70 300 180/08 RMK AO2 TSNO
94908KDBQ DBQ20070322233010503/22/07 23:30:31  5-MIN KDBQ 230530Z AUTO 18005KT 10SM BKN110 07/03 A3002 990 73 300 180/05 RMK AO2 TSNO
94908KDBQ DBQ20070322233510503/22/07 23:35:31  5-MIN KDBQ 230535Z AUTO 19005KT 10SM BKN110 07/03 A3003 980 76 300 190/05 RMK AO2 TSNO
94908KDBQ DBQ20070322234010503/22/07 23:40:31  5-MIN KDBQ 230540Z AUTO 19004KT 10SM BKN110 07/03 A3003 980 76 200 190/04 RMK AO2 TSNO
94908KDBQ DBQ20070322234510503/22/07 23:45:31  5-MIN KDBQ 230545Z AUTO 18004KT 10SM BKN110 07/03 A3002 980 76 300 180/04 RMK AO2 TSNO
94908KDBQ DBQ20070322235015703/22/07 23:50:31  5-MIN KDBQ 230550Z AUTO 18003KT 10SM FEW028 BKN110 07/03 A3003 980 76 200 180/03 RMK AO2 SLP173 T00670028 10117 20067 401720050 56004 TSNO
94908KDBQ DBQ20070322235515703/22/07 23:55:31  5-MIN KDBQ 230555Z AUTO 18004KT 10SM SCT028 OVC110 07/03 A3002 980 76 300 180/04 RMK AO2 SLP172 T00670028 10117 20067 401720050 55011 TSNO
94908KDBQ DBQ20070323000011203/23/07 00:00:38  5-MIN KDBQ 230600Z AUTO 18007KT 10SM BKN026 OVC110 07/03 A3002 990 79 300 180/07 RMK AO2 TSNO
94908KDBQ DBQ20070323000511203/23/07 00:05:31  5-MIN KDBQ 230605Z AUTO 18005KT 10SM BKN026 OVC110 07/03 A3003 980 79 300 180/05 RMK AO2 TSNO
94908KDBQ DBQ20070323001011203/23/07 00:10:31  5-MIN KDBQ 230610Z AUTO 17005KT 10SM BKN026 OVC110 07/03 A3002 980 79 300 170/05 RMK AO2 TSNO
94908KDBQ DBQ20070323001511203/23/07 00:15:33  5-MIN KDBQ 230615Z AUTO 17003KT 10SM BKN026 OVC120 07/04 A3002 990 82 300 170/03 RMK AO2 TSNO
94908KDBQ DBQ20070323002011203/23/07 00:20:31  5-MIN KDBQ 230620Z AUTO 15003KT 10SM SCT026 BKN120 07/04 A3002 990 82 300 150/03 RMK AO2 TSNO
94908KDBQ DBQ20070323002511203/23/07 00:25:31  5-MIN KDBQ 230625Z AUTO 14003KT 10SM SCT026 BKN120 07/04 A3002 990 82 300 140/03 RMK AO2 TSNO
94908KDBQ DBQ20070323003011203/23/07 00:30:31  5-MIN KDBQ 230630Z AUTO 00000KT 10SM FEW026 SCT110 07/04 A3002 980 82 300 000/00 RMK AO2 TSNO
94908KDBQ DBQ20070323003511203/23/07 00:35:31  5-MIN KDBQ 230635Z AUTO 00000KT 10SM FEW029 SCT120 07/04 A3002 980 79 300 000/00 RMK AO2 TSNO
94908KDBQ DBQ20070323004011203/23/07 00:40:31  5-MIN KDBQ 230640Z AUTO 13003KT 10SM FEW031 SCT120 07/03 A3002 990 79 300 130/03 RMK AO2 TSNO
94908KDBQ DBQ20070323004510503/23/07 00:45:31  5-MIN KDBQ 230645Z AUTO 13003KT 10SM FEW110 07/04 A3002 990 82 300 130/03 RMK AO2 TSNO
94908KDBQ DBQ20070323005012203/23/07 00:50:31  5-MIN KDBQ 230650Z AUTO 00000KT 10SM FEW110 07/03 A3002 990 79 300 000/00 RMK AO2 SLP171 T00670033 TSNO
94908KDBQ DBQ20070323005511903/23/07 00:55:31  5-MIN KDBQ 230655Z AUTO 00000KT 10SM CLR 06/03 A3003 980 82 200 000/00 RMK AO2 SLP173 T00610033 TSNO
94908KDBQ DBQ20070323010010503/23/07 01:00:31  5-MIN KDBQ 230700Z AUTO 00000KT 10SM FEW032 06/03 A3002 990 82 200 000/00 RMK AO2 TSNO
94908KDBQ DBQ20070323010510503/23/07 01:05:31  5-MIN KDBQ 230705Z AUTO 00000KT 10SM SCT034 06/03 A3002 990 82 200 000/00 RMK AO2 TSNO
94908KDBQ DBQ20070323011010503/23/07 01:10:31  5-MIN KDBQ 230710Z AUTO 00000KT 10SM BKN034 06/03 A3003 980 85 100 000/00 RMK AO2 TSNO
94908KDBQ DBQ20070323011510503/23/07 01:15:31  5-MIN KDBQ 230715Z AUTO 00000KT 10SM BKN034 06/03 A3003 980 85 100 000/00 RMK AO2 TSNO
94908KDBQ DBQ20070323012010503/23/07 01:20:31  5-MIN KDBQ 230720Z AUTO 00000KT 10SM BKN034 06/03 A3003 970 82 200 000/00 RMK AO2 TSNO
94908KDBQ DBQ20070323012510503/23/07 01:25:31  5-MIN KDBQ 230725Z AUTO 00000KT 10SM OVC034 06/04 A3003 970 86 200 000/00 RMK AO2 TSNO
94908KDBQ DBQ20070323013010503/23/07 01:30:31  5-MIN KDBQ 230730Z AUTO 00000KT 10SM OVC032 06/04 A3004 970 86 200 000/00 RMK AO2 TSNO
94908KDBQ DBQ20070323013510503/23/07 01:35:31  5-MIN KDBQ 230735Z AUTO 00000KT 10SM OVC032 07/04 A3004 970 86 200 000/00 RMK AO2 TSNO
94908KDBQ DBQ20070323014010503/23/07 01:40:31  5-MIN KDBQ 230740Z AUTO 00000KT 10SM OVC032 07/04 A3004 970 79 300 000/00 RMK AO2 TSNO
94908KDBQ DBQ20070323014510503/23/07 01:45:31  5-MIN KDBQ 230745Z AUTO 00000KT 10SM OVC032 07/04 A3005 960 79 300 000/00 RMK AO2 TSNO
94908KDBQ DBQ20070323015012203/23/07 01:50:31  5-MIN KDBQ 230750Z AUTO 04003KT 10SM OVC032 07/04 A3005 960 82 300 040/03 RMK AO2 SLP179 T00720044 TSNO
94908KDBQ DBQ20070323015512203/23/07 01:55:31  5-MIN KDBQ 230755Z AUTO 00000KT 10SM OVC032 07/04 A3005 960 82 300 000/00 RMK AO2 SLP180 T00720044 TSNO
94908KDBQ DBQ20070323020010503/23/07 02:00:31  5-MIN KDBQ 230800Z AUTO 00000KT 10SM OVC032 07/04 A3005 960 79 300 000/00 RMK AO2 TSNO
94908KDBQ DBQ20070323020510503/23/07 02:05:31  5-MIN KDBQ 230805Z AUTO 05004KT 10SM OVC032 07/04 A3004 970 82 300 050/04 RMK AO2 TSNO
94908KDBQ DBQ20070323021010503/23/07 02:10:31  5-MIN KDBQ 230810Z AUTO 06003KT 10SM OVC032 07/04 A3004 970 79 300 060/03 RMK AO2 TSNO
94908KDBQ DBQ20070323021510503/23/07 02:15:31  5-MIN KDBQ 230815Z AUTO 07005KT 10SM OVC032 07/04 A3004 970 79 300 070/05 RMK AO2 TSNO
94908KDBQ DBQ20070323022010503/23/07 02:20:31  5-MIN KDBQ 230820Z AUTO 05005KT 10SM OVC032 07/04 A3004 970 79 300 050/05 RMK AO2 TSNO
94908KDBQ DBQ20070323022510503/23/07 02:25:31  5-MIN KDBQ 230825Z AUTO 07005KT 10SM OVC032 07/04 A3004 970 79 300 070/05 RMK AO2 TSNO
94908KDBQ DBQ20070323023011203/23/07 02:30:31  5-MIN KDBQ 230830Z AUTO 07005KT 10SM BKN032 OVC100 07/04 A3004 970 79 300 070/05 RMK AO2 TSNO
94908KDBQ DBQ20070323023511903/23/07 02:35:31  5-MIN KDBQ 230835Z AUTO 08004KT 10SM BKN032 BKN042 OVC100 07/04 A3004 960 79 300 080/04 RMK AO2 TSNO
94908KDBQ DBQ20070323024011903/23/07 02:40:31  5-MIN KDBQ 230840Z AUTO 06003KT 10SM FEW028 BKN044 OVC100 07/04 A3004 960 79 300 060/03 RMK AO2 TSNO
94908KDBQ DBQ20070323024511903/23/07 02:45:31  5-MIN KDBQ 230845Z AUTO 00000KT 10SM SCT034 BKN044 OVC100 07/04 A3005 960 79 300 000/00 RMK AO2 TSNO
94908KDBQ DBQ20070323025014203/23/07 02:50:31  5-MIN KDBQ 230850Z AUTO 00000KT 10SM FEW036 BKN044 OVC100 07/04 A3005 960 79 300 000/00 RMK AO2 SLP179 T00720039 55011 TSNO
94908KDBQ DBQ20070323025514203/23/07 02:55:31  5-MIN KDBQ 230855Z AUTO 00000KT 10SM SCT032 BKN042 OVC100 07/04 A3005 960 79 300 000/00 RMK AO2 SLP178 T00720039 50007 TSNO
94908KDBQ DBQ20070323030011903/23/07 03:00:31  5-MIN KDBQ 230900Z AUTO 09003KT 10SM SCT032 BKN042 OVC100 07/04 A3004 970 79 300 090/03 RMK AO2 TSNO
94908KDBQ DBQ20070323030511203/23/07 03:05:31  5-MIN KDBQ 230905Z AUTO 09003KT 10SM FEW032 OVC044 07/04 A3004 970 82 200 080/03 RMK AO2 TSNO
94908KDBQ DBQ20070323031011203/23/07 03:10:31  5-MIN KDBQ 230910Z AUTO 00000KT 10SM FEW032 OVC044 07/04 A3004 970 82 200 000/00 RMK AO2 TSNO
94908KDBQ DBQ20070323031511203/23/07 03:15:31  5-MIN KDBQ 230915Z AUTO 00000KT 10SM FEW032 OVC044 07/04 A3004 970 82 200 000/00 RMK AO2 TSNO
94908KDBQ DBQ20070323032011203/23/07 03:20:31  5-MIN KDBQ 230920Z AUTO 00000KT 10SM FEW032 OVC044 07/04 A3004 960 82 200 000/00 RMK AO2 TSNO
94908KDBQ DBQ20070323032511203/23/07 03:25:31  5-MIN KDBQ 230925Z AUTO 00000KT 10SM FEW032 OVC044 07/04 A3004 960 82 200 000/00 RMK AO2 TSNO
94908KDBQ DBQ20070323033010503/23/07 03:30:31  5-MIN KDBQ 230930Z AUTO 00000KT 10SM OVC044 07/04 A3005 960 82 200 000/00 RMK AO2 TSNO
94908KDBQ DBQ20070323033510503/23/07 03:35:31  5-MIN KDBQ 230935Z AUTO 12004KT 10SM OVC042 07/04 A3004 970 82 200 110/04 RMK AO2 TSNO
94908KDBQ DBQ20070323034010503/23/07 03:40:31  5-MIN KDBQ 230940Z AUTO 14003KT 10SM OVC040 07/04 A3004 970 86 200 140/03 RMK AO2 TSNO
94908KDBQ DBQ20070323034510503/23/07 03:45:31  5-MIN KDBQ 230945Z AUTO 14004KT 10SM OVC040 07/04 A3004 960 86 200 140/04 RMK AO2 TSNO
94908KDBQ DBQ20070323035012203/23/07 03:50:31  5-MIN KDBQ 230950Z AUTO 14004KT 10SM OVC040 07/04 A3004 970 86 200 140/04 RMK AO2 SLP177 T00670044 TSNO
94908KDBQ DBQ20070323035512203/23/07 03:55:31  5-MIN KDBQ 230955Z AUTO 12005KT 10SM OVC040 07/04 A3004 970 82 300 120/05 RMK AO2 SLP176 T00720044 TSNO
94908KDBQ DBQ20070323040010503/23/07 04:00:31  5-MIN KDBQ 231000Z AUTO 12005KT 10SM OVC040 07/04 A3004 970 82 300 120/05 RMK AO2 TSNO
94908KDBQ DBQ20070323040510503/23/07 04:05:31  5-MIN KDBQ 231005Z AUTO 14005KT 10SM OVC040 07/04 A3003 970 82 300 130/05 RMK AO2 TSNO
94908KDBQ DBQ20070323041010503/23/07 04:10:31  5-MIN KDBQ 231010Z AUTO 15007KT 10SM OVC038 07/04 A3003 980 82 300 150/07 RMK AO2 TSNO
94908KDBQ DBQ20070323041510503/23/07 04:15:31  5-MIN KDBQ 231015Z AUTO 13006KT 10SM OVC038 07/04 A3003 970 82 300 130/06 RMK AO2 TSNO
94908KDBQ DBQ20070323042010503/23/07 04:20:31  5-MIN KDBQ 231020Z AUTO 14007KT 10SM OVC038 07/04 A3003 980 82 300 140/07 RMK AO2 TSNO
94908KDBQ DBQ20070323042510503/23/07 04:25:31  5-MIN KDBQ 231025Z AUTO 12008KT 10SM OVC038 07/04 A3003 980 82 300 120/08 RMK AO2 TSNO
94908KDBQ DBQ20070323043010503/23/07 04:30:31  5-MIN KDBQ 231030Z AUTO 13007KT 10SM OVC038 07/04 A3003 980 82 300 130/07 RMK AO2 TSNO
94908KDBQ DBQ20070323043510503/23/07 04:35:31  5-MIN KDBQ 231035Z AUTO 12007KT 10SM OVC038 07/04 A3003 980 82 300 120/07 RMK AO2 TSNO
94908KDBQ DBQ20070323044010503/23/07 04:40:31  5-MIN KDBQ 231040Z AUTO 13007KT 10SM OVC038 07/04 A3003 980 82 300 130/07 RMK AO2 TSNO
94908KDBQ DBQ20070323044510503/23/07 04:45:31  5-MIN KDBQ 231045Z AUTO 11006KT 10SM OVC040 07/04 A3003 980 82 300 110/06 RMK AO2 TSNO
94908KDBQ DBQ20070323045012203/23/07 04:50:31  5-MIN KDBQ 231050Z AUTO 11007KT 10SM OVC040 07/05 A3002 990 86 300 110/07 RMK AO2 SLP169 T00720050 TSNO
94908KDBQ DBQ20070323045512203/23/07 04:55:31  5-MIN KDBQ 231055Z AUTO 11009KT 10SM OVC040 07/05 A3001 990 86 300 110/09 RMK AO2 SLP168 T00720050 TSNO
94908KDBQ DBQ20070323050010503/23/07 05:00:31  5-MIN KDBQ 231100Z AUTO 11008KT 10SM OVC040 07/05 A3001 990 86 300 110/08 RMK AO2 TSNO
94908KDBQ DBQ20070323050509503/23/07 05:05:31  5-MIN KDBQ 231105Z 12006KT 10SM OVC040 07/05 A3002 990 86 300 120/06 RMK AO2
94908KDBQ DBQ20070323051010203/23/07 05:10:31  5-MIN KDBQ 231110Z 07005KT 10SM BKN040 OVC055 07/05 A3002 980 86 300 070/05 RMK AO2
94908KDBQ DBQ20070323051509503/23/07 05:15:31  5-MIN KDBQ 231115Z 07003KT 10SM OVC042 08/05 A3003 980 82 400 070/03 RMK AO2
94908KDBQ DBQ20070323052009503/23/07 05:20:31  5-MIN KDBQ 231120Z 08003KT 10SM OVC042 08/05 A3003 980 82 400 080/03 RMK AO2
94908KDBQ DBQ20070323052509503/23/07 05:25:31  5-MIN KDBQ 231125Z 08005KT 10SM OVC044 08/05 A3003 980 82 400 070/05 RMK AO2
94908KDBQ DBQ20070323053009503/23/07 05:30:31  5-MIN KDBQ 231130Z 16005KT 10SM OVC044 08/05 A3003 970 82 400 160/05 RMK AO2
94908KDBQ DBQ20070323053509503/23/07 05:35:31  5-MIN KDBQ 231135Z 16005KT 10SM OVC046 07/05 A3004 970 86 300 160/05 RMK AO2
94908KDBQ DBQ20070323054009503/23/07 05:40:31  5-MIN KDBQ 231140Z 17005KT 10SM OVC046 07/05 A3004 970 86 300 170/05 RMK AO2
94908KDBQ DBQ20070323054509503/23/07 05:45:31  5-MIN KDBQ 231145Z 13004KT 10SM OVC046 07/05 A3004 970 86 300 130/04 RMK AO2
94908KDBQ DBQ20070323055012903/23/07 05:50:31  5-MIN KDBQ 231150Z 13004KT 9SM OVC048 07/05 A3004 970 86 300 120/04 RMK AO2 SLP175 T00720050 10078 20056 50007
94908KDBQ DBQ20070323055513003/23/07 05:55:31  5-MIN KDBQ 231155Z 13005KT 10SM OVC048 07/05 A3004 970 86 300 130/05 RMK AO2 SLP175 T00720050 10078 20056 55003
94908KDBQ DBQ20070323060009403/23/07 06:00:31  5-MIN KDBQ 231200Z 15005KT 9SM OVC048 07/05 A3004 970 86 300 150/05 RMK AO2
94908KDBQ DBQ20070323060509403/23/07 06:05:31  5-MIN KDBQ 231205Z 11003KT 9SM OVC048 07/05 A3004 970 86 300 110/03 RMK AO2
94908KDBQ DBQ20070323061009403/23/07 06:10:31  5-MIN KDBQ 231210Z 10004KT 9SM OVC050 07/05 A3004 970 86 300 100/04 RMK AO2
94908KDBQ DBQ20070323061509403/23/07 06:15:31  5-MIN KDBQ 231215Z 10004KT 9SM OVC050 07/05 A3004 970 86 300 100/04 RMK AO2
94908KDBQ DBQ20070323062009403/23/07 06:20:31  5-MIN KDBQ 231220Z 09005KT 9SM OVC050 07/05 A3003 970 86 300 090/05 RMK AO2
94908KDBQ DBQ20070323062509403/23/07 06:25:31  5-MIN KDBQ 231225Z 09006KT 9SM OVC050 07/05 A3003 970 86 300 090/06 RMK AO2
94908KDBQ DBQ20070323063009403/23/07 06:30:31  5-MIN KDBQ 231230Z 09008KT 9SM OVC050 07/05 A3003 980 86 300 080/08 RMK AO2
94908KDBQ DBQ20070323063509403/23/07 06:35:31  5-MIN KDBQ 231235Z 09007KT 8SM OVC050 07/05 A3003 980 86 300 090/07 RMK AO2
94908KDBQ DBQ20070323064009403/23/07 06:40:31  5-MIN KDBQ 231240Z 10006KT 8SM OVC050 07/05 A3003 980 86 300 100/06 RMK AO2
94908KDBQ DBQ20070323064509403/23/07 06:45:31  5-MIN KDBQ 231245Z 09005KT 9SM OVC050 07/05 A3004 970 86 300 090/05 RMK AO2
94908KDBQ DBQ20070323065011103/23/07 06:50:31  5-MIN KDBQ 231250Z 07006KT 9SM OVC050 08/06 A3003 970 86 400 070/06 RMK AO2 SLP175 T00780056
94908KDBQ DBQ20070323065511103/23/07 06:55:31  5-MIN KDBQ 231255Z 11005KT 8SM OVC050 08/06 A3004 970 86 400 110/05 RMK AO2 SLP177 T00780056
94908KDBQ DBQ20070323070009403/23/07 07:00:31  5-MIN KDBQ 231300Z 10005KT 9SM OVC050 08/06 A3004 970 86 400 100/05 RMK AO2
94908KDBQ DBQ20070323070509403/23/07 07:05:31  5-MIN KDBQ 231305Z 09004KT 8SM OVC055 08/06 A3004 970 86 400 090/04 RMK AO2
94908KDBQ DBQ20070323071009403/23/07 07:10:31  5-MIN KDBQ 231310Z 10006KT 8SM OVC055 08/06 A3004 970 86 400 090/06 RMK AO2
94908KDBQ DBQ20070323071509403/23/07 07:15:31  5-MIN KDBQ 231315Z 09005KT 8SM OVC055 08/06 A3004 970 86 400 090/05 RMK AO2
94908KDBQ DBQ20070323072009403/23/07 07:20:31  5-MIN KDBQ 231320Z 10005KT 9SM OVC055 08/06 A3004 970 86 400 100/05 RMK AO2
94908KDBQ DBQ20070323072509403/23/07 07:25:31  5-MIN KDBQ 231325Z 13005KT 9SM OVC055 08/06 A3004 960 86 400 130/05 RMK AO2
94908KDBQ DBQ20070323073009403/23/07 07:30:31  5-MIN KDBQ 231330Z 13006KT 8SM OVC055 08/06 A3005 960 86 400 130/06 RMK AO2
94908KDBQ DBQ20070323073509403/23/07 07:35:31  5-MIN KDBQ 231335Z 14006KT 7SM OVC055 08/06 A3005 960 86 400 140/06 RMK AO2
94908KDBQ DBQ20070323074009403/23/07 07:40:31  5-MIN KDBQ 231340Z 12006KT 8SM OVC050 08/06 A3005 960 86 400 120/06 RMK AO2
94908KDBQ DBQ20070323074509403/23/07 07:45:31  5-MIN KDBQ 231345Z 13005KT 8SM OVC050 08/06 A3005 960 86 400 130/05 RMK AO2
94908KDBQ DBQ20070323075011103/23/07 07:50:31  5-MIN KDBQ 231350Z 13005KT 8SM OVC050 08/06 A3005 960 86 400 130/05 RMK AO2 SLP181 T00780056
94908KDBQ DBQ20070323075511103/23/07 07:55:31  5-MIN KDBQ 231355Z 12005KT 8SM OVC050 08/06 A3005 960 86 400 120/05 RMK AO2 SLP180 T00780056
94908KDBQ DBQ20070323080009403/23/07 08:00:31  5-MIN KDBQ 231400Z 13005KT 8SM OVC050 08/06 A3005 960 86 400 130/05 RMK AO2
94908KDBQ DBQ20070323080509403/23/07 08:05:31  5-MIN KDBQ 231405Z 10004KT 8SM OVC050 08/06 A3005 960 89 400 100/04 RMK AO2
94908KDBQ DBQ20070323081009403/23/07 08:10:31  5-MIN KDBQ 231410Z 12005KT 8SM OVC050 08/06 A3005 960 86 400 120/05 RMK AO2
94908KDBQ DBQ20070323081510103/23/07 08:15:31  5-MIN KDBQ 231415Z 13006KT 8SM BKN050 OVC065 08/06 A3005 960 86 400 130/06 RMK AO2
94908KDBQ DBQ20070323082010103/23/07 08:20:31  5-MIN KDBQ 231420Z 12005KT 8SM BKN050 OVC065 08/06 A3005 960 86 400 120/05 RMK AO2
94908KDBQ DBQ20070323082510103/23/07 08:25:31  5-MIN KDBQ 231425Z 11006KT 8SM SCT050 OVC065 08/06 A3004 960 86 400 110/06 RMK AO2
94908KDBQ DBQ20070323083010803/23/07 08:30:31  5-MIN KDBQ 231430Z 13006KT 8SM FEW008 SCT050 OVC065 09/06 A3005 960 83 500 130/06 RMK AO2
94908KDBQ DBQ20070323083510803/23/07 08:35:31  5-MIN KDBQ 231435Z 13006KT 8SM SCT008 SCT050 OVC065 09/06 A3005 960 83 500 130/06 RMK AO2
94908KDBQ DBQ20070323084010803/23/07 08:40:31  5-MIN KDBQ 231440Z 14006KT 8SM FEW008 SCT050 OVC065 09/07 A3005 960 86 500 130/06 RMK AO2
94908KDBQ DBQ20070323084510803/23/07 08:45:31  5-MIN KDBQ 231445Z 13008KT 8SM FEW008 SCT048 OVC065 09/07 A3005 960 83 600 130/08 RMK AO2
94908KDBQ DBQ20070323085013103/23/07 08:50:31  5-MIN KDBQ 231450Z 14007KT 8SM FEW008 SCT048 OVC065 09/07 A3005 960 83 600 140/07 RMK AO2 SLP180 T00940067 55003
94908KDBQ DBQ20070323085513103/23/07 08:55:31  5-MIN KDBQ 231455Z 14009KT 9SM FEW008 BKN048 OVC065 09/07 A3005 960 83 600 140/09 RMK AO2 SLP179 T00940067 51004
94908KDBQ DBQ20070323090010803/23/07 09:00:31  5-MIN KDBQ 231500Z 14011KT 9SM FEW008 BKN046 OVC065 10/07 A3004 960 80 600 130/11 RMK AO2
94908KDBQ DBQ20070323090510103/23/07 09:05:31  5-MIN KDBQ 231505Z 14009KT 9SM BKN046 OVC060 10/07 A3004 970 80 600 140/09 RMK AO2
94908KDBQ DBQ20070323091010203/23/07 09:10:31  5-MIN KDBQ 231510Z 15011KT 10SM BKN046 OVC060 10/07 A3004 960 83 600 150/11 RMK AO2
94908KDBQ DBQ20070323091510203/23/07 09:15:31  5-MIN KDBQ 231515Z 15009KT 10SM BKN046 OVC060 10/07 A3004 970 83 600 150/09 RMK AO2
94908KDBQ DBQ20070323092010903/23/07 09:20:31  5-MIN KDBQ 231520Z 15010KT 10SM FEW010 BKN046 OVC060 10/07 A3004 970 83 600 150/10 RMK AO2
94908KDBQ DBQ20070323092510903/23/07 09:25:31  5-MIN KDBQ 231525Z 15008KT 10SM SCT010 BKN046 OVC060 11/07 A3004 960 80 700 150/08 RMK AO2
94908KDBQ DBQ20070323093010903/23/07 09:30:31  5-MIN KDBQ 231530Z 15009KT 10SM BKN010 BKN046 OVC060 11/08 A3004 960 83 700 150/09 RMK AO2
94908KDBQ DBQ20070323093510203/23/07 09:35:31  5-MIN KDBQ 231535Z 15012KT 10SM BKN010 OVC046 10/07 A3005 960 83 600 150/12 RMK AO2
94908KDBQ DBQ20070323094010103/23/07 09:40:31  5-MIN KDBQ 231540Z 14012KT 9SM BKN010 OVC046 10/07 A3005 960 83 600 140/12 RMK AO2
94908KDBQ DBQ20070323094509403/23/07 09:45:31  5-MIN KDBQ 231545Z 14008KT 9SM OVC010 11/07 A3005 960 80 700 140/08 RMK AO2
94908KDBQ DBQ20070323095011103/23/07 09:50:31  5-MIN KDBQ 231550Z 14010KT 9SM OVC010 11/08 A3005 960 83 700 140/10 RMK AO2 SLP179 T01060078
94908KDBQ DBQ20070323095511103/23/07 09:55:31  5-MIN KDBQ 231555Z 14009KT 9SM OVC010 11/08 A3005 960 80 800 140/09 RMK AO2 SLP179 T01110078
94908KDBQ DBQ20070323100009403/23/07 10:00:31  5-MIN KDBQ 231600Z 14009KT 9SM OVC010 11/08 A3005 960 83 700 140/09 RMK AO2
94908KDBQ DBQ20070323100509403/23/07 10:05:31  5-MIN KDBQ 231605Z 13010KT 9SM OVC010 11/08 A3004 960 83 700 130/10 RMK AO2
94908KDBQ DBQ20070323101009403/23/07 10:10:31  5-MIN KDBQ 231610Z 14009KT 9SM OVC010 11/08 A3004 970 83 700 140/09 RMK AO2
94908KDBQ DBQ20070323101509403/23/07 10:15:31  5-MIN KDBQ 231615Z 15008KT 9SM OVC010 11/08 A3004 970 80 800 150/08 RMK AO2
94908KDBQ DBQ20070323102009503/23/07 10:20:31  5-MIN KDBQ 231620Z 14008KT 10SM OVC010 11/08 A3004 970 80 800 140/08 RMK AO2
94908KDBQ DBQ20070323102509503/23/07 10:25:31  5-MIN KDBQ 231625Z 14008KT 10SM OVC010 11/08 A3004 960 80 800 130/08 RMK AO2
94908KDBQ DBQ20070323103010203/23/07 10:30:31  5-MIN KDBQ 231630Z 13007KT 10SM BKN010 OVC048 11/08 A3004 970 83 800 130/07 RMK AO2
94908KDBQ DBQ20070323103510203/23/07 10:35:31  5-MIN KDBQ 231635Z 13008KT 10SM BKN010 OVC048 12/08 A3004 970 80 800 120/08 RMK AO2
94908KDBQ DBQ20070323104010203/23/07 10:40:31  5-MIN KDBQ 231640Z 14007KT 10SM BKN010 OVC048 12/08 A3004 970 80 800 140/07 RMK AO2
94908KDBQ DBQ20070323104510203/23/07 10:45:31  5-MIN KDBQ 231645Z 14007KT 10SM SCT010 OVC048 12/08 A3004 970 77 900 140/07 RMK AO2
94908KDBQ DBQ20070323105010203/23/07 10:50:31  5-MIN KDBQ 231650Z 15008KT 10SM SCT012 OVC048 12/08 A3004 970 80 800 150/08 RMK AO2
94908KDBQ DBQ20070323105512603/23/07 10:55:31  5-MIN KDBQ 231655Z 15007KT 10SM SCT012 BKN023 OVC048 12/08 A3004 970 77 900 150/07 RMK AO2 SLP175 T01220083
94908KDBQ DBQ20070323110010903/23/07 11:00:31  5-MIN KDBQ 231700Z 16009KT 10SM SCT012 BKN023 OVC048 12/08 A3004 970 77 900 160/09 RMK AO2
94908KDBQ DBQ20070323110510903/23/07 11:05:31  5-MIN KDBQ 231705Z 14007KT 10SM SCT012 BKN023 OVC048 12/08 A3004 970 77 900 140/07 RMK AO2
94908KDBQ DBQ20070323111010203/23/07 11:10:31  5-MIN KDBQ 231710Z 16008KT 10SM SCT012 OVC023 12/09 A3003 970 80 900 150/08 RMK AO2
94908KDBQ DBQ20070323111510203/23/07 11:15:31  5-MIN KDBQ 231715Z 15009KT 10SM FEW012 OVC023 12/09 A3003 970 80 900 150/09 RMK AO2
94908KDBQ DBQ20070323112010203/23/07 11:20:31  5-MIN KDBQ 231720Z 15007KT 10SM SCT012 OVC023 12/09 A3003 970 80 900 150/07 RMK AO2
94908KDBQ DBQ20070323112510203/23/07 11:25:31  5-MIN KDBQ 231725Z 14008KT 10SM BKN012 OVC023 12/08 A3003 970 77 900 140/08 RMK AO2
94908KDBQ DBQ20070323113010203/23/07 11:30:31  5-MIN KDBQ 231730Z 13008KT 10SM BKN012 OVC023 12/08 A3003 970 77 900 130/08 RMK AO2
94908KDBQ DBQ20070323113511803/23/07 11:35:31  5-MIN KDBQ 231735Z 14007KT 110V180 10SM BKN012 OVC023 12/09 A3003 980 80 900 140/07 110V180 RMK AO2
94908KDBQ DBQ20070323114009503/23/07 11:40:31  5-MIN KDBQ 231740Z 14006KT 10SM OVC012 12/09 A3003 980 80 900 140/06 RMK AO2
94908KDBQ DBQ20070323114509503/23/07 11:45:31  5-MIN KDBQ 231745Z 16009KT 10SM OVC012 12/09 A3003 980 80 900 160/09 RMK AO2
94908KDBQ DBQ20070323115013003/23/07 11:50:31  5-MIN KDBQ 231750Z 15007KT 10SM OVC012 12/09 A3003 980 80 900 150/07 RMK AO2 SLP172 T01220089 10122 20072 51004
94908KDBQ DBQ20070323115512903/23/07 11:55:31  5-MIN KDBQ 231755Z 16011KT 9SM OVC012 12/09 A3003 980 80 900 160/11 RMK AO2 SLP171 T01220089 10122 20072 58007
94908KDBQ DBQ20070323120009403/23/07 12:00:31  5-MIN KDBQ 231800Z 14008KT 8SM OVC012 12/09 A3003 980 83 900 140/08 RMK AO2
94908KDBQ DBQ20070323120509403/23/07 12:05:31  5-MIN KDBQ 231805Z 16011KT 7SM OVC012 12/09 A3003 980 80 900 160/11 RMK AO2
94908KDBQ DBQ20070323121011603/23/07 12:10:31  5-MIN KDBQ 231810Z 17011KT 6SM BR BKN009 OVC012 12/09 A3003 980 86 900 170/11 RMK AO2 CIG 008V012
94908KDBQ DBQ20070323121511603/23/07 12:15:31  5-MIN KDBQ 231815Z 17009KT 5SM BR BKN009 OVC012 12/09 A3003 980 86 900 170/09 RMK AO2 CIG 007V012
94908KDBQ DBQ20070323122010903/23/07 12:20:31  5-MIN KDBQ 231820Z 17008KT 5SM BR OVC009 12/09 A3003 980 86 900 170/08 RMK AO2 CIG 007V013
94908KDBQ DBQ20070323122510903/23/07 12:25:31  5-MIN KDBQ 231825Z 16010KT 4SM BR OVC007 12/09 A3003 980 86 900 150/10 RMK AO2 CIG 006V011
94908KDBQ DBQ20070323123010903/23/07 12:30:31  5-MIN KDBQ 231830Z 15008KT 4SM BR OVC007 11/09 A3003 980 89 800 150/08 RMK AO2 CIG 005V010
94908KDBQ DBQ20070323123510903/23/07 12:35:31  5-MIN KDBQ 231835Z 15008KT 3SM BR OVC007 11/09 A3003 980 89 800 150/08 RMK AO2 CIG 004V009
94908KDBQ DBQ20070323124010903/23/07 12:40:31  5-MIN KDBQ 231840Z 15008KT 3SM BR OVC007 11/09 A3002 980 89 800 150/08 RMK AO2 CIG 003V008
94908KDBQ DBQ20070323124512003/23/07 12:45:31  5-MIN KDBQ 231845Z 14007KT 2 1/2SM BR BKN003 OVC007 11/09 A3002 980 89 800 140/07 RMK AO2 CIG 003V006
94908KDBQ DBQ20070323125013003/23/07 12:50:31  5-MIN KDBQ 231850Z 15007KT 2 1/2SM BR OVC003 11/09 A3002 990 89 800 140/07 RMK AO2 CIG 003V006 SLP171 T01110094
94908KDBQ DBQ20070323125511803/23/07 12:55:31  5-MIN KDBQ 231855Z 15008KT 2 1/2SM BR OVC003 11/09 A3002 990 89 800 150/08 RMK AO2 SLP170 T01110094
94908KDBQ DBQ20070323130010103/23/07 13:00:31  5-MIN KDBQ 231900Z 16008KT 2 1/2SM BR OVC003 11/10 A3001 990 93 800 150/08 RMK AO2
94908KDBQ DBQ20070323130510103/23/07 13:05:31  5-MIN KDBQ 231905Z 15009KT 2 1/2SM BR OVC003 11/10 A3001 990 93 800 150/09 RMK AO2
94908KDBQ DBQ20070323131009703/23/07 13:10:31  5-MIN KDBQ 231910Z 16009KT 2SM BR OVC003 11/10 A3001 990 93 800 160/09 RMK AO2
94908KDBQ DBQ20070323131510203/23/07 13:15:31  5-MIN KDBQ 231915Z 16009KT 2 1/2SM BR OVC003 11/10 A3001 1000 93 800 160/09 RMK AO2
94908KDBQ DBQ20070323132009803/23/07 13:20:31  5-MIN KDBQ 231920Z 16008KT 3SM BR OVC003 12/10 A3001 1000 89 900 160/08 RMK AO2
94908KDBQ DBQ20070323132511003/23/07 13:25:31  5-MIN KDBQ 231925Z 16007KT 3SM BR OVC003 12/10 A3001 1000 89 900 160/07 RMK AO2 CIG 002V006
94908KDBQ DBQ20070323133011003/23/07 13:30:31  5-MIN KDBQ 231930Z 14008KT 3SM BR OVC003 12/10 A3001 1000 89 900 140/08 RMK AO2 CIG 002V006
94908KDBQ DBQ20070323133509803/23/07 13:35:31  5-MIN KDBQ 231935Z 17008KT 4SM BR OVC003 12/10 A3001 1000 89 900 170/08 RMK AO2
94908KDBQ DBQ20070323134009703/23/07 13:40:31  5-MIN KDBQ 231940Z 17009KT 4SM BR OVC003 12/10 A3001 990 89 900 170/09 RMK AO2
94908KDBQ DBQ20070323134509703/23/07 13:45:31  5-MIN KDBQ 231945Z 17007KT 3SM BR OVC003 11/10 A3001 990 93 800 160/07 RMK AO2
94908KDBQ DBQ20070323135011503/23/07 13:50:31  5-MIN KDBQ 231950Z 17007KT 3SM BR OVC003 12/10 A3001 1000 89 900 160/07 RMK AO2 SLP166 T01170100
94908KDBQ DBQ20070323135511503/23/07 13:55:31  5-MIN KDBQ 231955Z 17008KT 3SM BR OVC003 12/10 A3001 1000 89 900 170/08 RMK AO2 SLP166 T01170100
94908KDBQ DBQ20070323140009803/23/07 14:00:31  5-MIN KDBQ 232000Z 17006KT 3SM BR OVC003 12/10 A3001 1000 89 900 170/06 RMK AO2
94908KDBQ DBQ20070323140509703/23/07 14:05:31  5-MIN KDBQ 232005Z 17006KT 3SM BR OVC003 12/10 A3001 990 89 900 170/06 RMK AO2
94908KDBQ DBQ20070323141009803/23/07 14:10:31  5-MIN KDBQ 232010Z 18007KT 3SM BR OVC003 12/10 A3001 1000 89 900 180/07 RMK AO2
94908KDBQ DBQ20070323141510203/23/07 14:15:31  5-MIN KDBQ 232015Z 18006KT 2 1/2SM BR OVC003 12/10 A3001 1000 89 900 170/06 RMK AO2
94908KDBQ DBQ20070323142010203/23/07 14:20:31  5-MIN KDBQ 232020Z 17007KT 2 1/2SM BR OVC003 12/10 A3001 1000 89 900 170/07 RMK AO2
94908KDBQ DBQ20070323142510203/23/07 14:25:31  5-MIN KDBQ 232025Z 17007KT 2 1/2SM BR OVC003 12/10 A3001 1000 89 900 170/07 RMK AO2
94908KDBQ DBQ20070323143009803/23/07 14:30:31  5-MIN KDBQ 232030Z 16006KT 2SM BR OVC003 12/10 A3001 1000 89 900 160/06 RMK AO2
94908KDBQ DBQ20070323143509803/23/07 14:35:31  5-MIN KDBQ 232035Z 16008KT 2SM BR OVC003 12/10 A3000 1000 89 900 160/08 RMK AO2
94908KDBQ DBQ20070323144009803/23/07 14:40:31  5-MIN KDBQ 232040Z 17006KT 2SM BR OVC003 12/10 A3000 1000 89 900 170/06 RMK AO2
94908KDBQ DBQ20070323144510203/23/07 14:45:31  5-MIN KDBQ 232045Z 16006KT 2 1/2SM BR OVC003 12/10 A3001 1000 89 900 160/06 RMK AO2
94908KDBQ DBQ20070323145012503/23/07 14:50:31  5-MIN KDBQ 232050Z 18006KT 2 1/2SM BR OVC003 12/10 A3001 1000 89 900 180/06 RMK AO2 SLP166 T01170100 58007
94908KDBQ DBQ20070323145512403/23/07 14:55:31  5-MIN KDBQ 232055Z 18006KT 2 1/2SM BR OVC003 12/10 A3001 990 89 900 180/06 RMK AO2 SLP167 T01170100 55005
94908KDBQ DBQ20070323150010103/23/07 15:00:31  5-MIN KDBQ 232100Z 16006KT 2 1/2SM BR OVC003 12/10 A3001 990 89 900 160/06 RMK AO2
94908KDBQ DBQ20070323150510103/23/07 15:05:31  5-MIN KDBQ 232105Z 16005KT 2 1/2SM BR OVC003 12/10 A3001 990 89 900 160/05 RMK AO2
94908KDBQ DBQ20070323151010203/23/07 15:10:31  5-MIN KDBQ 232110Z 15005KT 2 1/2SM BR OVC003 12/10 A3001 1000 89 900 150/05 RMK AO2
94908KDBQ DBQ20070323151510203/23/07 15:15:31  5-MIN KDBQ 232115Z 16006KT 2 1/2SM BR OVC003 12/10 A3001 1000 89 900 160/06 RMK AO2
94908KDBQ DBQ20070323152009803/23/07 15:20:31  5-MIN KDBQ 232120Z 16006KT 3SM BR OVC003 12/10 A3001 1000 89 900 160/06 RMK AO2
94908KDBQ DBQ20070323152509803/23/07 15:25:31  5-MIN KDBQ 232125Z 15005KT 3SM BR OVC003 12/10 A3001 1000 89 900 150/05 RMK AO2
94908KDBQ DBQ20070323153009703/23/07 15:30:31  5-MIN KDBQ 232130Z 14006KT 3SM BR OVC003 12/10 A3001 990 89 900 140/06 RMK AO2
94908KDBQ DBQ20070323153509803/23/07 15:35:31  5-MIN KDBQ 232135Z 15005KT 3SM BR OVC005 12/10 A3001 1000 89 900 150/05 RMK AO2
94908KDBQ DBQ20070323154009803/23/07 15:40:31  5-MIN KDBQ 232140Z 16006KT 3SM BR OVC005 12/10 A3001 1000 89 900 160/06 RMK AO2
94908KDBQ DBQ20070323154509703/23/07 15:45:31  5-MIN KDBQ 232145Z 15005KT 3SM BR OVC005 12/10 A3001 990 89 900 150/05 RMK AO2
94908KDBQ DBQ20070323155011403/23/07 15:50:31  5-MIN KDBQ 232150Z 15004KT 3SM BR OVC005 12/10 A3001 990 89 900 150/04 RMK AO2 SLP167 T01170100
94908KDBQ DBQ20070323155511403/23/07 15:55:31  5-MIN KDBQ 232155Z 15005KT 3SM BR OVC005 12/10 A3001 990 89 900 150/05 RMK AO2 SLP167 T01170100
94908KDBQ DBQ20070323160009703/23/07 16:00:31  5-MIN KDBQ 232200Z 16004KT 3SM BR OVC005 12/10 A3001 990 89 900 150/04 RMK AO2
94908KDBQ DBQ20070323160509703/23/07 16:05:31  5-MIN KDBQ 232205Z 14003KT 3SM BR OVC005 12/10 A3001 990 89 900 140/03 RMK AO2
94908KDBQ DBQ20070323161009703/23/07 16:10:31  5-MIN KDBQ 232210Z 13004KT 3SM BR OVC005 12/10 A3001 990 89 900 120/04 RMK AO2
94908KDBQ DBQ20070323161509703/23/07 16:15:31  5-MIN KDBQ 232215Z 13004KT 3SM BR OVC005 12/10 A3002 990 89 900 130/04 RMK AO2
94908KDBQ DBQ20070323162010103/23/07 16:20:31  5-MIN KDBQ 232220Z 14005KT 2 1/2SM BR OVC005 12/10 A3002 990 89 900 140/05 RMK AO2
94908KDBQ DBQ20070323162510103/23/07 16:25:31  5-MIN KDBQ 232225Z 15005KT 2 1/2SM BR OVC005 12/10 A3002 990 89 900 150/05 RMK AO2
94908KDBQ DBQ20070323163009703/23/07 16:30:31  5-MIN KDBQ 232230Z 16005KT 2SM BR OVC005 12/10 A3002 990 89 900 160/05 RMK AO2
94908KDBQ DBQ20070323163509703/23/07 16:35:31  5-MIN KDBQ 232235Z 17004KT 2SM BR OVC005 12/10 A3002 990 89 900 170/04 RMK AO2
94908KDBQ DBQ20070323164009703/23/07 16:40:31  5-MIN KDBQ 232240Z 16004KT 2SM BR OVC005 12/10 A3002 990 89 900 160/04 RMK AO2
94908KDBQ DBQ20070323164509703/23/07 16:45:31  5-MIN KDBQ 232245Z 15005KT 2SM BR OVC005 12/10 A3002 990 89 900 150/05 RMK AO2
94908KDBQ DBQ20070323165011403/23/07 16:50:31  5-MIN KDBQ 232250Z 14004KT 2SM BR OVC005 12/10 A3002 990 89 900 140/04 RMK AO2 SLP170 T01170100
94908KDBQ DBQ20070323165511403/23/07 16:55:31  5-MIN KDBQ 232255Z 13003KT 2SM BR OVC005 12/10 A3002 980 89 900 130/03 RMK AO2 SLP170 T01170100
94908KDBQ DBQ20070323170009703/23/07 17:00:31  5-MIN KDBQ 232300Z 00000KT 2SM BR OVC005 12/10 A3002 980 89 900 000/00 RMK AO2
94908KDBQ DBQ20070323170509703/23/07 17:05:31  5-MIN KDBQ 232305Z 00000KT 2SM BR OVC003 12/11 A3002 980 93 900 000/00 RMK AO2
94908KDBQ DBQ20070323171010103/23/07 17:10:31  5-MIN KDBQ 232310Z 00000KT 1 3/4SM BR OVC003 11/11 A3003 980 96 800 000/00 RMK AO2
94908KDBQ DBQ20070323171510103/23/07 17:15:31  5-MIN KDBQ 232315Z 00000KT 1 3/4SM BR OVC003 11/11 A3003 980 96 800 000/00 RMK AO2
94908KDBQ DBQ20070323172010103/23/07 17:20:31  5-MIN KDBQ 232320Z 00000KT 1 1/2SM BR OVC003 11/11 A3003 980 96 800 000/00 RMK AO2
94908KDBQ DBQ20070323172510103/23/07 17:25:31  5-MIN KDBQ 232325Z 00000KT 1 1/4SM BR OVC003 11/11 A3002 980 96 800 000/00 RMK AO2
94908KDBQ DBQ20070323173009703/23/07 17:30:31  5-MIN KDBQ 232330Z 00000KT 1SM BR OVC003 11/11 A3002 980 96 800 000/00 RMK AO2
94908KDBQ DBQ20070323173509903/23/07 17:35:31  5-MIN KDBQ 232335Z 00000KT 3/4SM BR OVC003 11/11 A3002 980 96 800 000/00 RMK AO2
94908KDBQ DBQ20070323174009903/23/07 17:40:31  5-MIN KDBQ 232340Z 09003KT 3/4SM BR OVC003 11/11 A3002 980 96 800 090/03 RMK AO2
94908KDBQ DBQ20070323174509903/23/07 17:45:31  5-MIN KDBQ 232345Z 00000KT 3/4SM BR OVC003 11/11 A3002 980 96 800 000/00 RMK AO2
94908KDBQ DBQ20070323175013403/23/07 17:50:31  5-MIN KDBQ 232350Z 00000KT 1/2SM FG OVC003 11/11 A3003 980 96 800 000/00 RMK AO2 SLP172 T01110106 10122 20111 55005
94908KDBQ DBQ20070323175513403/23/07 17:55:31  5-MIN KDBQ 232355Z 00000KT 1/2SM FG OVC003 11/11 A3003 980 96 800 000/00 RMK AO2 SLP173 T01110106 10122 20111 53006
94908KDBQ DBQ20070323180009903/23/07 18:00:31  5-MIN KDBQ 240000Z 00000KT 3/4SM BR OVC003 11/11 A3003 970 96 800 000/00 RMK AO2
94908KDBQ DBQ20070323180509903/23/07 18:05:31  5-MIN KDBQ 240005Z 00000KT 3/4SM BR OVC003 11/11 A3003 970 96 800 000/00 RMK AO2
94908KDBQ DBQ20070323181009903/23/07 18:10:31  5-MIN KDBQ 240010Z 00000KT 3/4SM BR OVC003 11/10 A3003 970 93 800 000/00 RMK AO2
94908KDBQ DBQ20070323181509903/23/07 18:15:31  5-MIN KDBQ 240015Z 00000KT 3/4SM BR OVC003 11/10 A3003 970 93 800 000/00 RMK AO2
94908KDBQ DBQ20070323182009703/23/07 18:20:31  5-MIN KDBQ 240020Z 00000KT 1SM BR OVC003 11/10 A3003 970 96 700 000/00 RMK AO2
94908KDBQ DBQ20070323182509703/23/07 18:25:31  5-MIN KDBQ 240025Z 00000KT 1SM BR OVC001 11/10 A3004 970 93 800 000/00 RMK AO2
94908KDBQ DBQ20070323183010103/23/07 18:30:31  5-MIN KDBQ 240030Z 08003KT 1 1/4SM BR OVC001 11/10 A3004 970 93 800 080/03 RMK AO2
94908KDBQ DBQ20070323183509903/23/07 18:35:31  5-MIN KDBQ 240035Z 06003KT 3/4SM BR OVC001 11/10 A3003 970 96 700 060/03 RMK AO2
94908KDBQ DBQ20070323184009903/23/07 18:40:31  5-MIN KDBQ 240040Z 06005KT 3/4SM BR OVC001 11/10 A3003 980 96 700 060/05 RMK AO2
94908KDBQ DBQ20070323184509903/23/07 18:45:31  5-MIN KDBQ 240045Z 07004KT 1/2SM FG OVC001 11/10 A3003 980 96 700 070/04 RMK AO2
94908KDBQ DBQ20070323185011603/23/07 18:50:31  5-MIN KDBQ 240050Z 07004KT 1/2SM FG OVC001 11/10 A3003 980 96 700 070/04 RMK AO2 SLP173 T01060100
94908KDBQ DBQ20070323185511603/23/07 18:55:31  5-MIN KDBQ 240055Z 08003KT 1/2SM FG OVC001 11/10 A3003 980 96 700 080/03 RMK AO2 SLP174 T01060100
94908KDBQ DBQ20070323190009903/23/07 19:00:31  5-MIN KDBQ 240100Z 00000KT 1/2SM FG OVC001 11/10 A3003 970 96 700 000/00 RMK AO2
94908KDBQ DBQ20070323190509803/23/07 19:05:31  5-MIN KDBQ 240105Z 00000KT 1/4SM FG VV001 11/10 A3003 980 96 700 000/00 RMK AO2
94908KDBQ DBQ20070323191009803/23/07 19:10:31  5-MIN KDBQ 240110Z 00000KT 1/4SM FG VV001 11/10 A3004 970 96 700 000/00 RMK AO2
94908KDBQ DBQ20070323191509803/23/07 19:15:31  5-MIN KDBQ 240115Z 00000KT 1/4SM FG VV001 11/10 A3003 970 96 700 000/00 RMK AO2
94908KDBQ DBQ20070323192009803/23/07 19:20:31  5-MIN KDBQ 240120Z 08003KT 1/4SM FG VV001 11/10 A3003 970 96 700 080/03 RMK AO2
94908KDBQ DBQ20070323192509803/23/07 19:25:31  5-MIN KDBQ 240125Z 09004KT 1/4SM FG VV001 11/10 A3003 970 96 700 090/04 RMK AO2
94908KDBQ DBQ20070323193009803/23/07 19:30:31  5-MIN KDBQ 240130Z 10004KT 1/4SM FG VV001 11/10 A3004 970 96 700 100/04 RMK AO2
94908KDBQ DBQ20070323193509803/23/07 19:35:31  5-MIN KDBQ 240135Z 09003KT 1/4SM FG VV001 11/10 A3004 970 96 700 090/03 RMK AO2
94908KDBQ DBQ20070323194009803/23/07 19:40:31  5-MIN KDBQ 240140Z 10003KT 1/4SM FG VV001 11/10 A3004 970 96 700 090/03 RMK AO2
94908KDBQ DBQ20070323194509803/23/07 19:45:31  5-MIN KDBQ 240145Z 00000KT 1/4SM FG VV001 11/10 A3004 960 96 700 000/00 RMK AO2
94908KDBQ DBQ20070323195011503/23/07 19:50:31  5-MIN KDBQ 240150Z 00000KT 1/4SM FG VV001 11/10 A3005 960 96 700 000/00 RMK AO2 SLP178 T01060100
94908KDBQ DBQ20070323195511503/23/07 19:55:31  5-MIN KDBQ 240155Z 00000KT 1/4SM FG VV001 11/10 A3005 960 96 700 000/00 RMK AO2 SLP179 T01060100
94908KDBQ DBQ20070323200009803/23/07 20:00:31  5-MIN KDBQ 240200Z 00000KT 1/4SM FG VV001 11/10 A3005 960 96 700 000/00 RMK AO2
94908KDBQ DBQ20070323200509803/23/07 20:05:31  5-MIN KDBQ 240205Z 04003KT 1/4SM FG VV001 11/10 A3005 960 96 700 040/03 RMK AO2
94908KDBQ DBQ20070323201009803/23/07 20:10:31  5-MIN KDBQ 240210Z 00000KT 1/4SM FG VV001 11/10 A3005 960 96 700 000/00 RMK AO2
94908KDBQ DBQ20070323201509803/23/07 20:15:31  5-MIN KDBQ 240215Z 00000KT 1/4SM FG VV001 11/10 A3005 960 96 700 000/00 RMK AO2
94908KDBQ DBQ20070323202009803/23/07 20:20:31  5-MIN KDBQ 240220Z 00000KT 1/4SM FG VV001 11/10 A3004 960 96 700 000/00 RMK AO2
94908KDBQ DBQ20070323202509803/23/07 20:25:31  5-MIN KDBQ 240225Z 00000KT 1/4SM FG VV001 11/10 A3004 970 96 700 000/00 RMK AO2
94908KDBQ DBQ20070323203009803/23/07 20:30:31  5-MIN KDBQ 240230Z 00000KT 1/4SM FG VV001 11/10 A3005 960 96 700 000/00 RMK AO2
94908KDBQ DBQ20070323203509803/23/07 20:35:31  5-MIN KDBQ 240235Z 09003KT 1/4SM FG VV001 11/10 A3004 960 96 700 090/03 RMK AO2
94908KDBQ DBQ20070323204009803/23/07 20:40:31  5-MIN KDBQ 240240Z 00000KT 1/4SM FG VV001 11/10 A3004 960 96 700 000/00 RMK AO2
94908KDBQ DBQ20070323204509803/23/07 20:45:31  5-MIN KDBQ 240245Z 00000KT 1/4SM FG VV001 11/10 A3004 960 96 700 000/00 RMK AO2
94908KDBQ DBQ20070323205012103/23/07 20:50:31  5-MIN KDBQ 240250Z 00000KT 1/4SM FG VV001 11/10 A3004 960 96 700 000/00 RMK AO2 SLP178 T01060100 53006
94908KDBQ DBQ20070323205512103/23/07 20:55:31  5-MIN KDBQ 240255Z 00000KT 1/4SM FG VV001 11/10 A3005 960 96 700 000/00 RMK AO2 SLP178 T01060100 51005
94908KDBQ DBQ20070323210009803/23/07 21:00:31  5-MIN KDBQ 240300Z 00000KT 1/4SM FG VV001 11/10 A3005 960 96 700 000/00 RMK AO2
94908KDBQ DBQ20070323210509803/23/07 21:05:31  5-MIN KDBQ 240305Z 08003KT 1/4SM FG VV001 11/10 A3004 960 96 700 080/03 RMK AO2
94908KDBQ DBQ20070323211009803/23/07 21:10:31  5-MIN KDBQ 240310Z 08003KT 1/4SM FG VV001 11/10 A3004 960 96 700 080/03 RMK AO2
94908KDBQ DBQ20070323211510303/23/07 21:15:31  5-MIN KDBQ 240315Z AUTO 08003KT 1/4SM FG VV001 11/10 A3004 970 96 700 080/03 RMK AO2
94908KDBQ DBQ20070323212010803/23/07 21:20:31  5-MIN KDBQ 240320Z AUTO 10004KT 1/4SM FG VV001 11/10 A3004 960 96 700 100/04 RMK AO2 TSNO
94908KDBQ DBQ20070323212510803/23/07 21:25:31  5-MIN KDBQ 240325Z AUTO 10003KT 1/4SM FG VV001 11/10 A3005 960 96 700 100/03 RMK AO2 TSNO
94908KDBQ DBQ20070323213010803/23/07 21:30:31  5-MIN KDBQ 240330Z AUTO 09003KT 1/4SM FG VV001 11/10 A3005 960 96 700 090/03 RMK AO2 TSNO
94908KDBQ DBQ20070323213510803/23/07 21:35:31  5-MIN KDBQ 240335Z AUTO 09003KT 1/4SM FG VV001 11/10 A3005 960 96 700 090/03 RMK AO2 TSNO
94908KDBQ DBQ20070323214010803/23/07 21:40:31  5-MIN KDBQ 240340Z AUTO 09003KT 1/4SM FG VV001 11/10 A3004 960 96 700 090/03 RMK AO2 TSNO
94908KDBQ DBQ20070323214510803/23/07 21:45:31  5-MIN KDBQ 240345Z AUTO 09003KT 1/4SM FG VV001 11/10 A3005 960 96 700 090/03 RMK AO2 TSNO
94908KDBQ DBQ20070323215012503/23/07 21:50:31  5-MIN KDBQ 240350Z AUTO 10003KT 1/4SM FG VV001 11/10 A3005 960 96 700 100/03 RMK AO2 SLP178 T01060100 TSNO
94908KDBQ DBQ20070323215512503/23/07 21:55:31  5-MIN KDBQ 240355Z AUTO 00000KT 1/4SM FG VV001 11/10 A3005 960 96 700 000/00 RMK AO2 SLP179 T01060100 TSNO
94908KDBQ DBQ20070323220010803/23/07 22:00:31  5-MIN KDBQ 240400Z AUTO 10003KT 1/4SM FG VV001 11/10 A3005 960 96 700 100/03 RMK AO2 TSNO
94908KDBQ DBQ20070323220510803/23/07 22:05:31  5-MIN KDBQ 240405Z AUTO 00000KT 1/4SM FG VV001 11/10 A3005 960 96 700 000/00 RMK AO2 TSNO
94908KDBQ DBQ20070323221010803/23/07 22:10:31  5-MIN KDBQ 240410Z AUTO 00000KT 1/4SM FG VV001 11/10 A3005 960 96 700 000/00 RMK AO2 TSNO
94908KDBQ DBQ20070323221510803/23/07 22:15:31  5-MIN KDBQ 240415Z AUTO 00000KT 1/4SM FG VV001 11/10 A3005 960 96 700 000/00 RMK AO2 TSNO
94908KDBQ DBQ20070323222010803/23/07 22:20:31  5-MIN KDBQ 240420Z AUTO 00000KT 1/4SM FG VV001 11/10 A3005 960 96 700 000/00 RMK AO2 TSNO
94908KDBQ DBQ20070323222510803/23/07 22:25:31  5-MIN KDBQ 240425Z AUTO 00000KT 1/2SM FG VV001 11/10 A3004 960 96 700 000/00 RMK AO2 TSNO
94908KDBQ DBQ20070323223010803/23/07 22:30:31  5-MIN KDBQ 240430Z AUTO 08004KT 1/2SM FG VV001 11/10 A3004 970 96 700 080/04 RMK AO2 TSNO
94908KDBQ DBQ20070323223510803/23/07 22:35:31  5-MIN KDBQ 240435Z AUTO 00000KT 1/2SM FG VV001 11/10 A3004 960 96 700 000/00 RMK AO2 TSNO
94908KDBQ DBQ20070323224010903/23/07 22:40:31  5-MIN KDBQ 240440Z AUTO 04003KT 1/2SM FG VV001 11/11 A3004 960 100 700 030/03 RMK AO2 TSNO
94908KDBQ DBQ20070323224510803/23/07 22:45:31  5-MIN KDBQ 240445Z AUTO 36003KT 1/4SM FG VV001 11/10 A3005 960 96 700 360/03 RMK AO2 TSNO
94908KDBQ DBQ20070323225012503/23/07 22:50:31  5-MIN KDBQ 240450Z AUTO 35003KT 1/4SM FG VV001 11/10 A3005 960 96 700 350/03 RMK AO2 SLP177 T01060100 TSNO
94908KDBQ DBQ20070323225512503/23/07 22:55:31  5-MIN KDBQ 240455Z AUTO 01004KT 1/4SM FG VV001 11/10 A3005 960 96 700 360/04 RMK AO2 SLP177 T01060100 TSNO
94908KDBQ DBQ20070323230010803/23/07 23:00:31  5-MIN KDBQ 240500Z AUTO 01003KT 1/4SM FG VV001 11/10 A3005 960 96 700 010/03 RMK AO2 TSNO
94908KDBQ DBQ20070323230510803/23/07 23:05:31  5-MIN KDBQ 240505Z AUTO 00000KT 1/4SM FG VV001 11/10 A3005 960 96 700 000/00 RMK AO2 TSNO
94908KDBQ DBQ20070323231010803/23/07 23:10:31  5-MIN KDBQ 240510Z AUTO 00000KT 1/4SM FG VV001 11/10 A3005 960 96 700 000/00 RMK AO2 TSNO
94908KDBQ DBQ20070323231510803/23/07 23:15:31  5-MIN KDBQ 240515Z AUTO 02003KT 1/4SM FG VV001 11/10 A3005 960 96 700 020/03 RMK AO2 TSNO
94908KDBQ DBQ20070323232010803/23/07 23:20:31  5-MIN KDBQ 240520Z AUTO 02004KT 1/4SM FG VV001 11/09 A3005 960 93 700 020/04 RMK AO2 TSNO
94908KDBQ DBQ20070323232510803/23/07 23:25:31  5-MIN KDBQ 240525Z AUTO 35003KT 1/4SM FG VV001 11/10 A3006 950 96 700 350/03 RMK AO2 TSNO
94908KDBQ DBQ20070323233010903/23/07 23:30:31  5-MIN KDBQ 240530Z AUTO 34004KT 1/4SM FG VV001 10/10 A3006 950 100 600 340/04 RMK AO2 TSNO
94908KDBQ DBQ20070323233510903/23/07 23:35:31  5-MIN KDBQ 240535Z AUTO 34003KT 1/4SM FG VV001 10/10 A3006 950 100 600 340/03 RMK AO2 TSNO
94908KDBQ DBQ20070323234010903/23/07 23:40:31  5-MIN KDBQ 240540Z AUTO 00000KT 1/4SM FG VV001 10/10 A3006 950 100 600 000/00 RMK AO2 TSNO
94908KDBQ DBQ20070323234510903/23/07 23:45:31  5-MIN KDBQ 240545Z AUTO 35003KT 1/4SM FG VV001 10/10 A3006 950 100 600 350/03 RMK AO2 TSNO
94908KDBQ DBQ20070323235015303/23/07 23:50:31  5-MIN KDBQ 240550Z AUTO 00000KT 1/4SM FG VV001 10/09 A3006 950 96 600 000/00 RMK AO2 SLP183 T01000094 10111 20100 401220056 51005 TSNO
94908KDBQ DBQ20070323235515303/23/07 23:55:31  5-MIN KDBQ 240555Z AUTO 00000KT 1/4SM FG VV001 10/09 A3006 950 96 600 000/00 RMK AO2 SLP182 T01000094 10111 20100 401220056 53003 TSNO
94908KDBQ DBQ20070324000010803/24/07 00:00:38  5-MIN KDBQ 240600Z AUTO 00000KT 1/4SM FG VV001 10/09 A3006 950 96 600 000/00 RMK AO2 TSNO
94908KDBQ DBQ20070324000510803/24/07 00:05:31  5-MIN KDBQ 240605Z AUTO 00000KT 1/4SM FG VV001 10/09 A3006 950 96 600 000/00 RMK AO2 TSNO
94908KDBQ DBQ20070324001010803/24/07 00:10:31  5-MIN KDBQ 240610Z AUTO 00000KT 1/4SM FG VV001 10/09 A3006 950 96 600 000/00 RMK AO2 TSNO
94908KDBQ DBQ20070324001510803/24/07 00:15:32  5-MIN KDBQ 240615Z AUTO 15003KT 1/4SM FG VV001 10/09 A3006 950 96 600 150/03 RMK AO2 TSNO
94908KDBQ DBQ20070324002010803/24/07 00:20:31  5-MIN KDBQ 240620Z AUTO 00000KT 1/4SM FG VV001 10/09 A3006 950 96 600 000/00 RMK AO2 TSNO
94908KDBQ DBQ20070324002511603/24/07 00:25:31  5-MIN KDBQ 240625Z AUTO 00000KT 1/4SM FG BKN001 OVC038 10/09 A3006 950 96 600 000/00 RMK AO2 TSNO
94908KDBQ DBQ20070324003011603/24/07 00:30:31  5-MIN KDBQ 240630Z AUTO 00000KT 1/4SM FG BKN001 OVC038 10/09 A3006 950 96 600 000/00 RMK AO2 TSNO
94908KDBQ DBQ20070324003511603/24/07 00:35:31  5-MIN KDBQ 240635Z AUTO 00000KT 1/4SM FG SCT001 OVC038 10/09 A3007 940 96 600 000/00 RMK AO2 TSNO
94908KDBQ DBQ20070324004011603/24/07 00:40:31  5-MIN KDBQ 240640Z AUTO 00000KT 1/4SM FG SCT001 OVC038 10/09 A3007 940 96 600 000/00 RMK AO2 TSNO
94908KDBQ DBQ20070324004511603/24/07 00:45:31  5-MIN KDBQ 240645Z AUTO 21004KT 1/4SM FG BKN001 OVC038 10/09 A3007 940 96 600 210/04 RMK AO2 TSNO
94908KDBQ DBQ20070324005013303/24/07 00:50:31  5-MIN KDBQ 240650Z AUTO 00000KT 1/4SM FG BKN001 OVC038 10/09 A3007 940 96 600 000/00 RMK AO2 SLP185 T01000094 TSNO
94908KDBQ DBQ20070324005513303/24/07 00:55:31  5-MIN KDBQ 240655Z AUTO 00000KT 1/4SM FG BKN001 OVC038 10/09 A3007 940 96 600 000/00 RMK AO2 SLP185 T01000094 TSNO
94908KDBQ DBQ20070324010011603/24/07 01:00:31  5-MIN KDBQ 240700Z AUTO 00000KT 1/4SM FG BKN001 OVC031 10/09 A3006 950 96 600 000/00 RMK AO2 TSNO
94908KDBQ DBQ20070324010511603/24/07 01:05:31  5-MIN KDBQ 240705Z AUTO 00000KT 1/4SM FG BKN001 OVC031 09/09 A3006 950 96 500 000/00 RMK AO2 TSNO
94908KDBQ DBQ20070324011011603/24/07 01:10:31  5-MIN KDBQ 240710Z AUTO 01003KT 1/4SM FG BKN001 OVC031 09/09 A3007 940 96 500 010/03 RMK AO2 TSNO
94908KDBQ DBQ20070324011510803/24/07 01:15:31  5-MIN KDBQ 240715Z AUTO 36003KT 1/4SM FG VV001 09/09 A3007 940 96 500 360/03 RMK AO2 TSNO
94908KDBQ DBQ20070324012010803/24/07 01:20:31  5-MIN KDBQ 240720Z AUTO 00000KT 1/4SM FG VV001 10/09 A3006 950 93 600 000/00 RMK AO2 TSNO
94908KDBQ DBQ20070324012510803/24/07 01:25:31  5-MIN KDBQ 240725Z AUTO 00000KT 1/4SM FG VV001 10/09 A3006 950 96 600 000/00 RMK AO2 TSNO
94908KDBQ DBQ20070324013010803/24/07 01:30:31  5-MIN KDBQ 240730Z AUTO 00000KT 1/4SM FG VV001 10/09 A3007 940 96 600 000/00 RMK AO2 TSNO
94908KDBQ DBQ20070324013510803/24/07 01:35:31  5-MIN KDBQ 240735Z AUTO 00000KT 1/4SM FG VV001 10/09 A3007 940 96 600 000/00 RMK AO2 TSNO
94908KDBQ DBQ20070324014010803/24/07 01:40:31  5-MIN KDBQ 240740Z AUTO 00000KT 1/4SM FG VV001 10/09 A3007 940 96 600 000/00 RMK AO2 TSNO
94908KDBQ DBQ20070324014510803/24/07 01:45:31  5-MIN KDBQ 240745Z AUTO 00000KT 1/4SM FG VV001 10/09 A3006 950 96 600 000/00 RMK AO2 TSNO
94908KDBQ DBQ20070324015012603/24/07 01:50:31  5-MIN KDBQ 240750Z AUTO 00000KT 1/4SM FG VV001 09/09 A3006 950 100 500 000/00 RMK AO2 SLP183 T00940094 TSNO
94908KDBQ DBQ20070324015512503/24/07 01:55:31  5-MIN KDBQ 240755Z AUTO 00000KT 1/4SM FG VV001 09/09 A3006 950 96 500 000/00 RMK AO2 SLP183 T00940089 TSNO
94908KDBQ DBQ20070324020010803/24/07 02:00:31  5-MIN KDBQ 240800Z AUTO 00000KT 1/4SM FG VV001 09/09 A3006 950 96 500 000/00 RMK AO2 TSNO
94908KDBQ DBQ20070324020510903/24/07 02:05:31  5-MIN KDBQ 240805Z AUTO 00000KT M1/4SM FG VV001 09/09 A3006 950 96 500 000/00 RMK AO2 TSNO
94908KDBQ DBQ20070324021010803/24/07 02:10:31  5-MIN KDBQ 240810Z AUTO 00000KT 1/4SM FG VV001 09/09 A3007 940 96 500 000/00 RMK AO2 TSNO
94908KDBQ DBQ20070324021510803/24/07 02:15:31  5-MIN KDBQ 240815Z AUTO 00000KT 1/4SM FG VV001 09/09 A3007 940 96 500 000/00 RMK AO2 TSNO
94908KDBQ DBQ20070324022010803/24/07 02:20:31  5-MIN KDBQ 240820Z AUTO 00000KT 1/4SM FG VV001 09/08 A3007 940 96 500 000/00 RMK AO2 TSNO
94908KDBQ DBQ20070324025013903/24/07 02:50:31  5-MIN KDBQ 240850Z AUTO 02003KT 1/4SM FG SCT001 OVC021 10/09 A3008 930 93 600 020/03 RMK AO2 SLP188 T01000089 53005 TSNO
94908KDBQ DBQ20070324025513903/24/07 02:55:31  5-MIN KDBQ 240855Z AUTO 00000KT 1/4SM FG FEW001 OVC021 10/09 A3008 930 96 600 000/00 RMK AO2 SLP188 T01000094 53003 TSNO
94908KDBQ DBQ20070324030010903/24/07 03:00:31  5-MIN KDBQ 240900Z AUTO 02003KT 1/4SM FG OVC021 10/09 A3008 930 96 600 020/03 RMK AO2 TSNO
94908KDBQ DBQ20070324030510903/24/07 03:05:31  5-MIN KDBQ 240905Z AUTO 01004KT 1/4SM FG OVC021 10/09 A3008 930 96 600 010/04 RMK AO2 TSNO
94908KDBQ DBQ20070324031011603/24/07 03:10:31  5-MIN KDBQ 240910Z AUTO 01004KT 1/4SM FG FEW002 OVC021 10/09 A3008 930 96 600 010/04 RMK AO2 TSNO
94908KDBQ DBQ20070324031511603/24/07 03:15:31  5-MIN KDBQ 240915Z AUTO 03004KT 1/2SM FG SCT002 OVC021 10/09 A3008 930 96 600 030/04 RMK AO2 TSNO
94908KDBQ DBQ20070324032011603/24/07 03:20:31  5-MIN KDBQ 240920Z AUTO 03004KT 1/4SM FG BKN002 OVC021 10/09 A3008 930 96 600 030/04 RMK AO2 TSNO
94908KDBQ DBQ20070324032511603/24/07 03:25:31  5-MIN KDBQ 240925Z AUTO 03004KT 1/4SM FG BKN002 OVC021 10/09 A3008 930 96 600 030/04 RMK AO2 TSNO
94908KDBQ DBQ20070324033011603/24/07 03:30:31  5-MIN KDBQ 240930Z AUTO 04003KT 1/4SM FG BKN002 OVC019 10/09 A3007 940 96 600 040/03 RMK AO2 TSNO
94908KDBQ DBQ20070324033511603/24/07 03:35:31  5-MIN KDBQ 240935Z AUTO 00000KT 1/4SM FG BKN002 OVC019 10/09 A3007 940 96 600 000/00 RMK AO2 TSNO
94908KDBQ DBQ20070324034010903/24/07 03:40:31  5-MIN KDBQ 240940Z AUTO 00000KT 1/4SM FG OVC002 10/09 A3007 940 96 600 000/00 RMK AO2 TSNO
94908KDBQ DBQ20070324034511603/24/07 03:45:31  5-MIN KDBQ 240945Z AUTO 04003KT 1/4SM FG BKN002 OVC018 10/09 A3007 940 96 600 040/03 RMK AO2 TSNO
94908KDBQ DBQ20070324035013303/24/07 03:50:31  5-MIN KDBQ 240950Z AUTO 00000KT 1/4SM FG BKN002 OVC018 10/09 A3007 940 96 600 000/00 RMK AO2 SLP187 T01000094 TSNO
94908KDBQ DBQ20070324035512603/24/07 03:55:31  5-MIN KDBQ 240955Z AUTO 03003KT 1/4SM FG VV002 09/09 A3007 940 100 500 030/03 RMK AO2 SLP187 T00940094 TSNO
94908KDBQ DBQ20070324040010803/24/07 04:00:31  5-MIN KDBQ 241000Z AUTO 02006KT 1/4SM FG VV001 09/09 A3007 940 96 500 020/06 RMK AO2 TSNO
94908KDBQ DBQ20070324040510903/24/07 04:05:31  5-MIN KDBQ 241005Z AUTO 02007KT M1/4SM FG VV001 10/09 A3007 940 96 600 020/07 RMK AO2 TSNO
94908KDBQ DBQ20070324041010903/24/07 04:10:31  5-MIN KDBQ 241010Z AUTO 04004KT M1/4SM FG VV001 10/09 A3008 940 96 600 030/04 RMK AO2 TSNO
94908KDBQ DBQ20070324041510903/24/07 04:15:31  5-MIN KDBQ 241015Z AUTO 00000KT M1/4SM FG VV001 10/09 A3008 930 96 600 000/00 RMK AO2 TSNO
94908KDBQ DBQ20070324042011003/24/07 04:20:31  5-MIN KDBQ 241020Z AUTO 00000KT M1/4SM FG VV001 09/09 A3008 930 100 500 000/00 RMK AO2 TSNO
94908KDBQ DBQ20070324042510903/24/07 04:25:31  5-MIN KDBQ 241025Z AUTO 00000KT M1/4SM FG VV001 09/09 A3008 930 96 500 000/00 RMK AO2 TSNO
94908KDBQ DBQ20070324043011703/24/07 04:30:31  5-MIN KDBQ 241030Z AUTO 00000KT M1/4SM FG BKN001 OVC009 09/09 A3008 930 96 500 000/00 RMK AO2 TSNO
94908KDBQ DBQ20070324043511603/24/07 04:35:31  5-MIN KDBQ 241035Z AUTO 00000KT 1/4SM FG BKN001 OVC009 09/08 A3009 930 96 500 000/00 RMK AO2 TSNO
94908KDBQ DBQ20070324044011603/24/07 04:40:31  5-MIN KDBQ 241040Z AUTO 00000KT 1/4SM FG BKN001 OVC009 09/08 A3009 920 96 400 000/00 RMK AO2 TSNO
94908KDBQ DBQ20070324044511603/24/07 04:45:31  5-MIN KDBQ 241045Z AUTO 00000KT 1/4SM FG SCT001 OVC011 09/08 A3009 920 96 400 000/00 RMK AO2 TSNO
94908KDBQ DBQ20070324045013303/24/07 04:50:31  5-MIN KDBQ 241050Z AUTO 00000KT 1/4SM FG FEW001 OVC011 09/08 A3010 920 96 400 000/00 RMK AO2 SLP194 T00890083 TSNO
94908KDBQ DBQ20070324045511603/24/07 04:55:31  5-MIN KDBQ 241055Z 00000KT 1/4SM FG OVC011 09/09 A3010 910 96 500 000/00 RMK AO2 SLP195 T00940089
94908KDBQ DBQ20070324050009903/24/07 05:00:31  5-MIN KDBQ 241100Z 00000KT 1/4SM FG OVC011 09/09 A3010 910 96 500 000/00 RMK AO2
94908KDBQ DBQ20070324050509903/24/07 05:05:31  5-MIN KDBQ 241105Z 00000KT 1/4SM FG OVC009 09/09 A3010 910 96 500 000/00 RMK AO2
94908KDBQ DBQ20070324051011103/24/07 05:10:31  5-MIN KDBQ 241110Z 00000KT 1/4SM FG OVC009 09/08 A3011 910 96 400 000/00 RMK AO2 CIG 007V012
94908KDBQ DBQ20070324051510603/24/07 05:15:31  5-MIN KDBQ 241115Z 00000KT 1/4SM FG BKN007 OVC011 09/09 A3011 900 96 500 000/00 RMK AO2
94908KDBQ DBQ20070324052011103/24/07 05:20:31  5-MIN KDBQ 241120Z 07003KT 1/4SM FG OVC007 09/09 A3011 910 96 500 070/03 RMK AO2 CIG 005V011
94908KDBQ DBQ20070324052511103/24/07 05:25:31  5-MIN KDBQ 241125Z 00000KT 1/4SM FG OVC007 09/09 A3010 910 96 500 000/00 RMK AO2 CIG 005V009
94908KDBQ DBQ20070324053010603/24/07 05:30:31  5-MIN KDBQ 241130Z 11004KT 1/4SM FG FEW001 OVC007 09/09 A3010 910 96 500 110/04 RMK AO2
94908KDBQ DBQ20070324053510603/24/07 05:35:31  5-MIN KDBQ 241135Z 09004KT 1/4SM FG SCT001 OVC007 09/08 A3010 910 93 500 090/04 RMK AO2
94908KDBQ DBQ20070324054009903/24/07 05:40:31  5-MIN KDBQ 241140Z 09003KT 1/4SM FG OVC007 09/08 A3011 910 96 400 090/03 RMK AO2
94908KDBQ DBQ20070324054511303/24/07 05:45:31  5-MIN KDBQ 241145Z 07004KT 1/4SM FG BKN001 BKN006 BKN055 08/08 A3011 900 96 400 070/04 RMK AO2
94908KDBQ DBQ20070324055014803/24/07 05:50:31  5-MIN KDBQ 241150Z 06003KT 1/2SM FG SCT001 BKN006 BKN055 08/08 A3011 900 96 400 060/03 RMK AO2 SLP201 T00830078 10100 20083 53003
94908KDBQ DBQ20070324055513303/24/07 05:55:31  5-MIN KDBQ 241155Z 04003KT 1/2SM FG VV001 08/08 A3012 900 96 400 040/03 RMK AO2 SLP202 T00830078 10100 20083 53013
94908KDBQ DBQ20070324060009803/24/07 06:00:31  5-MIN KDBQ 241200Z 04004KT 1/4SM FG VV001 08/08 A3012 900 96 400 040/04 RMK AO2
94908KDBQ DBQ20070324060509803/24/07 06:05:31  5-MIN KDBQ 241205Z 04003KT 1/4SM FG VV001 08/08 A3012 890 96 300 040/03 RMK AO2
94908KDBQ DBQ20070324061010703/24/07 06:10:31  5-MIN KDBQ 241210Z 05003KT M1/4SM FG BKN001 BKN006 08/08 A3012 890 96 300 050/03 RMK AO2
94908KDBQ DBQ20070324061510703/24/07 06:15:31  5-MIN KDBQ 241215Z 03004KT M1/4SM FG BKN001 BKN006 08/08 A3013 890 96 300 030/04 RMK AO2
94908KDBQ DBQ20070324062010703/24/07 06:20:31  5-MIN KDBQ 241220Z 04004KT M1/4SM FG BKN001 OVC006 08/08 A3013 880 96 300 040/04 RMK AO2
94908KDBQ DBQ20070324062510703/24/07 06:25:31  5-MIN KDBQ 241225Z 00000KT M1/4SM FG BKN001 OVC006 09/08 A3014 880 96 400 000/00 RMK AO2
94908KDBQ DBQ20070324063010803/24/07 06:30:31  5-MIN KDBQ 241230Z 00000KT M1/4SM FG BKN001 OVC006 08/08 A3014 870 100 300 000/00 RMK AO2
94908KDBQ DBQ20070324063510103/24/07 06:35:31  5-MIN KDBQ 241235Z 00000KT M1/4SM FG OVC004 08/08 A3014 870 100 300 000/00 RMK AO2
94908KDBQ DBQ20070324064010003/24/07 06:40:31  5-MIN KDBQ 241240Z 00000KT M1/4SM FG OVC004 09/08 A3014 870 96 400 000/00 RMK AO2
94908KDBQ DBQ20070324064510003/24/07 06:45:31  5-MIN KDBQ 241245Z 07003KT M1/4SM FG OVC004 09/08 A3014 870 96 400 070/03 RMK AO2
94908KDBQ DBQ20070324065011703/24/07 06:50:31  5-MIN KDBQ 241250Z 08003KT M1/4SM FG OVC002 09/09 A3014 880 96 500 070/03 RMK AO2 SLP209 T00940089
94908KDBQ DBQ20070324065511603/24/07 06:55:31  5-MIN KDBQ 241255Z 15003KT 1/4SM FG OVC002 09/09 A3014 880 96 500 140/03 RMK AO2 SLP209 T00940089
94908KDBQ DBQ20070324070010003/24/07 07:00:31  5-MIN KDBQ 241300Z 00000KT 1/4SM FG OVC002 09/09 A3014 880 100 400 000/00 RMK AO2
94908KDBQ DBQ20070324070509903/24/07 07:05:31  5-MIN KDBQ 241305Z 00000KT 1/4SM FG OVC002 09/09 A3014 880 96 500 000/00 RMK AO2
94908KDBQ DBQ20070324071009903/24/07 07:10:31  5-MIN KDBQ 241310Z 00000KT 1/2SM FG OVC002 09/09 A3014 880 96 500 000/00 RMK AO2
94908KDBQ DBQ20070324071510103/24/07 07:15:31  5-MIN KDBQ 241315Z 00000KT 1 1/2SM BR OVC002 09/09 A3014 880 96 500 000/00 RMK AO2
94908KDBQ DBQ20070324072010103/24/07 07:20:31  5-MIN KDBQ 241320Z 00000KT 1 3/4SM BR OVC002 09/09 A3014 880 96 500 000/00 RMK AO2
94908KDBQ DBQ20070324072509903/24/07 07:25:31  5-MIN KDBQ 241325Z 18003KT 1/2SM FG OVC002 10/09 A3014 870 96 500 180/03 RMK AO2
94908KDBQ DBQ20070324073009903/24/07 07:30:31  5-MIN KDBQ 241330Z 16003KT 1/4SM FG OVC002 10/09 A3015 870 96 500 160/03 RMK AO2
94908KDBQ DBQ20070324073509903/24/07 07:35:31  5-MIN KDBQ 241335Z 00000KT M1/4SM FG VV001 10/09 A3015 870 96 500 000/00 RMK AO2
94908KDBQ DBQ20070324074009903/24/07 07:40:31  5-MIN KDBQ 241340Z 15004KT M1/4SM FG VV001 10/09 A3015 870 96 500 150/04 RMK AO2
94908KDBQ DBQ20070324074509903/24/07 07:45:31  5-MIN KDBQ 241345Z 17004KT M1/4SM FG VV001 10/09 A3015 870 96 500 170/04 RMK AO2
94908KDBQ DBQ20070324075011703/24/07 07:50:31  5-MIN KDBQ 241350Z 18006KT M1/4SM FG VV001 10/10 A3015 870 100 500 180/06 RMK AO2 SLP213 T01000100
94908KDBQ DBQ20070324075511603/24/07 07:55:31  5-MIN KDBQ 241355Z 19005KT M1/4SM FG VV001 11/10 A3016 860 96 600 180/05 RMK AO2 SLP215 T01060100
94908KDBQ DBQ20070324080009903/24/07 08:00:31  5-MIN KDBQ 241400Z 18004KT M1/4SM FG VV001 11/10 A3016 860 96 600 170/04 RMK AO2
94908KDBQ DBQ20070324080510003/24/07 08:05:31  5-MIN KDBQ 241405Z 19005KT M1/4SM FG VV001 11/11 A3016 860 100 600 190/05 RMK AO2
94908KDBQ DBQ20070324081009903/24/07 08:10:31  5-MIN KDBQ 241410Z 19007KT M1/4SM FG VV001 11/11 A3016 860 96 600 190/07 RMK AO2
94908KDBQ DBQ20070324081509903/24/07 08:15:31  5-MIN KDBQ 241415Z 20007KT M1/4SM FG VV001 11/11 A3017 850 96 600 190/07 RMK AO2
94908KDBQ DBQ20070324082009903/24/07 08:20:31  5-MIN KDBQ 241420Z 20007KT 1/4SM FG VV001 11/11 A3017 850 100 600 200/07 RMK AO2
94908KDBQ DBQ20070324082509803/24/07 08:25:31  5-MIN KDBQ 241425Z 20007KT 1/4SM FG VV001 12/11 A3017 850 96 700 200/07 RMK AO2
94908KDBQ DBQ20070324083009903/24/07 08:30:31  5-MIN KDBQ 241430Z 20008KT M1/4SM FG VV001 12/11 A3017 850 96 700 200/08 RMK AO2
94908KDBQ DBQ20070324083509903/24/07 08:35:31  5-MIN KDBQ 241435Z 20009KT M1/4SM FG VV001 12/11 A3016 860 96 700 200/09 RMK AO2
94908KDBQ DBQ20070324084010003/24/07 08:40:31  5-MIN KDBQ 241440Z 19008KT M1/4SM FG VV001 12/12 A3016 860 100 700 190/08 RMK AO2
94908KDBQ DBQ20070324084509903/24/07 08:45:31  5-MIN KDBQ 241445Z 20006KT M1/4SM FG VV001 12/12 A3016 850 96 800 200/06 RMK AO2
94908KDBQ DBQ20070324085012103/24/07 08:50:31  5-MIN KDBQ 241450Z 20006KT 1/4SM FG VV001 12/12 A3016 850 96 800 200/06 RMK AO2 SLP217 T01220117 53013
94908KDBQ DBQ20070324085512203/24/07 08:55:31  5-MIN KDBQ 241455Z 20006KT 1/4SM FG VV001 12/12 A3017 850 100 800 200/06 RMK AO2 SLP217 T01220122 51017
94908KDBQ DBQ20070324090009903/24/07 09:00:31  5-MIN KDBQ 241500Z 20004KT 1/4SM FG VV001 12/12 A3016 850 100 800 200/04 RMK AO2
94908KDBQ DBQ20070324090509803/24/07 09:05:31  5-MIN KDBQ 241505Z 20004KT 1/4SM FG VV001 13/12 A3017 850 96 800 200/04 RMK AO2
94908KDBQ DBQ20070324091009803/24/07 09:10:31  5-MIN KDBQ 241510Z 00000KT 1/4SM FG VV001 13/12 A3018 840 96 800 000/00 RMK AO2
94908KDBQ DBQ20070324091510503/24/07 09:15:31  5-MIN KDBQ 241515Z 03005KT 1/4SM FG VV001 13/12 A3019 830 96 800 020/05 RMK AO2 PRESRR
94908KDBQ DBQ20070324092010503/24/07 09:20:31  5-MIN KDBQ 241520Z 00000KT 1/4SM FG VV001 13/12 A3019 830 96 800 000/00 RMK AO2 PRESRR
94908KDBQ DBQ20070324092510503/24/07 09:25:31  5-MIN KDBQ 241525Z 00000KT 1/4SM FG VV001 13/12 A3020 820 96 800 000/00 RMK AO2 PRESRR
94908KDBQ DBQ20070324093009803/24/07 09:30:31  5-MIN KDBQ 241530Z 00000KT 1/4SM FG VV001 13/12 A3020 820 96 800 000/00 RMK AO2
94908KDBQ DBQ20070324093509803/24/07 09:35:31  5-MIN KDBQ 241535Z 21003KT 1/4SM FG VV001 13/12 A3021 810 96 800 200/03 RMK AO2
94908KDBQ DBQ20070324094009803/24/07 09:40:31  5-MIN KDBQ 241540Z 00000KT 1/4SM FG VV001 13/12 A3021 810 96 800 000/00 RMK AO2
94908KDBQ DBQ20070324094509803/24/07 09:45:31  5-MIN KDBQ 241545Z 00000KT 1/4SM FG VV001 13/12 A3021 810 96 800 000/00 RMK AO2
94908KDBQ DBQ20070324095011503/24/07 09:50:31  5-MIN KDBQ 241550Z 00000KT 1/4SM FG VV001 13/12 A3021 810 96 800 000/00 RMK AO2 SLP232 T01280122
94908KDBQ DBQ20070324095511503/24/07 09:55:31  5-MIN KDBQ 241555Z 04004KT 1/4SM FG VV001 12/12 A3020 820 96 700 040/04 RMK AO2 SLP230 T01220117
94908KDBQ DBQ20070324100009903/24/07 10:00:31  5-MIN KDBQ 241600Z 05005KT M1/4SM FG VV001 12/11 A3020 820 96 700 050/05 RMK AO2
94908KDBQ DBQ20070324100509903/24/07 10:05:31  5-MIN KDBQ 241605Z 03006KT M1/4SM FG VV001 12/11 A3020 820 96 700 030/06 RMK AO2
94908KDBQ DBQ20070324101009903/24/07 10:10:31  5-MIN KDBQ 241610Z 05005KT M1/4SM FG VV001 12/11 A3019 830 96 700 050/05 RMK AO2
94908KDBQ DBQ20070324101509903/24/07 10:15:31  5-MIN KDBQ 241615Z 00000KT M1/4SM FG VV001 12/11 A3020 820 96 700 000/00 RMK AO2
94908KDBQ DBQ20070324102010003/24/07 10:20:31  5-MIN KDBQ 241620Z 00000KT M1/4SM FG VV001 12/12 A3020 820 100 700 000/00 RMK AO2
94908KDBQ DBQ20070324102510003/24/07 10:25:31  5-MIN KDBQ 241625Z 00000KT M1/4SM FG VV001 12/12 A3020 820 100 700 000/00 RMK AO2
94908KDBQ DBQ20070324103009903/24/07 10:30:31  5-MIN KDBQ 241630Z 00000KT M1/4SM FG VV001 12/12 A3020 820 96 700 000/00 RMK AO2
94908KDBQ DBQ20070324103509903/24/07 10:35:31  5-MIN KDBQ 241635Z 00000KT M1/4SM FG VV001 12/12 A3019 830 96 700 000/00 RMK AO2
94908KDBQ DBQ20070324104009903/24/07 10:40:31  5-MIN KDBQ 241640Z 14003KT M1/4SM FG VV001 13/12 A3019 830 96 800 130/03 RMK AO2
94908KDBQ DBQ20070324104510003/24/07 10:45:31  5-MIN KDBQ 241645Z 00000KT M1/4SM FG VV001 13/13 A3019 830 100 800 000/00 RMK AO2
94908KDBQ DBQ20070324105011603/24/07 10:50:31  5-MIN KDBQ 241650Z 13004KT M1/4SM FG VV001 13/13 A3018 840 96 900 130/04 RMK AO2 SLP223 T01330128
94908KDBQ DBQ20070324105511603/24/07 10:55:31  5-MIN KDBQ 241655Z 09005KT M1/4SM FG VV001 13/13 A3018 840 96 900 090/05 RMK AO2 SLP222 T01330128
94908KDBQ DBQ20070324110009903/24/07 11:00:31  5-MIN KDBQ 241700Z 08003KT M1/4SM FG VV001 14/13 A3019 830 96 900 080/03 RMK AO2
94908KDBQ DBQ20070324110509803/24/07 11:05:31  5-MIN KDBQ 241705Z 03004KT 1/4SM FG VV001 14/13 A3019 830 96 900 030/04 RMK AO2
94908KDBQ DBQ20070324111009803/24/07 11:10:31  5-MIN KDBQ 241710Z 06003KT 1/4SM FG VV001 13/12 A3019 830 96 800 060/03 RMK AO2
94908KDBQ DBQ20070324111509803/24/07 11:15:31  5-MIN KDBQ 241715Z 02007KT 1/4SM FG VV001 13/12 A3019 830 96 800 020/07 RMK AO2
94908KDBQ DBQ20070324112009803/24/07 11:20:31  5-MIN KDBQ 241720Z 03007KT 1/4SM FG VV001 13/12 A3020 820 96 800 020/07 RMK AO2
94908KDBQ DBQ20070324112509903/24/07 11:25:31  5-MIN KDBQ 241725Z 04005KT M1/4SM FG VV001 12/12 A3020 820 96 700 040/05 RMK AO2
94908KDBQ DBQ20070324113010003/24/07 11:30:31  5-MIN KDBQ 241730Z 03006KT M1/4SM FG VV001 12/12 A3020 820 100 700 030/06 RMK AO2
94908KDBQ DBQ20070324113509903/24/07 11:35:31  5-MIN KDBQ 241735Z 02007KT M1/4SM FG VV001 13/12 A3021 810 96 800 020/07 RMK AO2
94908KDBQ DBQ20070324114009903/24/07 11:40:31  5-MIN KDBQ 241740Z 03006KT M1/4SM FG VV001 13/12 A3021 810 96 800 030/06 RMK AO2
94908KDBQ DBQ20070324114510003/24/07 11:45:31  5-MIN KDBQ 241745Z 05006KT M1/4SM FG VV001 12/12 A3020 820 100 700 040/06 RMK AO2
94908KDBQ DBQ20070324115013403/24/07 11:50:31  5-MIN KDBQ 241750Z 05005KT M1/4SM FG VV001 13/12 A3020 820 96 800 050/05 RMK AO2 SLP230 T01280122 10139 20083 51017
94908KDBQ DBQ20070324115513403/24/07 11:55:31  5-MIN KDBQ 241755Z 02007KT M1/4SM FG VV001 13/12 A3021 810 96 800 020/07 RMK AO2 SLP232 T01280122 10139 20083 51015
94908KDBQ DBQ20070324120010003/24/07 12:00:31  5-MIN KDBQ 241800Z 04006KT M1/4SM FG VV001 12/12 A3021 810 100 700 040/06 RMK AO2
94908KDBQ DBQ20070324120509903/24/07 12:05:31  5-MIN KDBQ 241805Z 05003KT M1/4SM FG VV001 13/12 A3021 810 96 800 050/03 RMK AO2
94908KDBQ DBQ20070324121009803/24/07 12:10:31  5-MIN KDBQ 241810Z 06003KT 1/4SM FG VV001 13/12 A3021 810 96 800 060/03 RMK AO2
94908KDBQ DBQ20070324121509803/24/07 12:15:31  5-MIN KDBQ 241815Z 01005KT 1/4SM FG VV001 13/12 A3022 800 96 800 010/05 RMK AO2
94908KDBQ DBQ20070324122009803/24/07 12:20:31  5-MIN KDBQ 241820Z 00000KT 1/4SM FG VV001 13/12 A3022 800 96 800 000/00 RMK AO2
94908KDBQ DBQ20070324122509803/24/07 12:25:31  5-MIN KDBQ 241825Z 02005KT 1/4SM FG VV001 13/12 A3022 800 96 800 010/05 RMK AO2
94908KDBQ DBQ20070324123009803/24/07 12:30:31  5-MIN KDBQ 241830Z 02005KT 1/4SM FG VV001 13/12 A3022 800 96 800 020/05 RMK AO2
94908KDBQ DBQ20070324123509903/24/07 12:35:31  5-MIN KDBQ 241835Z 01005KT M1/4SM FG VV001 13/12 A3022 800 96 800 010/05 RMK AO2
94908KDBQ DBQ20070324124011503/24/07 12:40:31  5-MIN KDBQ 241840Z 00000KT M1/4SM -RA FG VV001 13/12 A3022 810 96 800 000/00 RMK AO2 RAB36 P0000
94908KDBQ DBQ20070324124511403/24/07 12:45:31  5-MIN KDBQ 241845Z 00000KT 1/4SM -RA FG VV001 13/12 A3021 810 96 800 000/00 RMK AO2 RAB36 P0000
94908KDBQ DBQ20070324125013103/24/07 12:50:31  5-MIN KDBQ 241850Z 00000KT 1/4SM -RA FG VV001 13/13 A3021 820 96 800 000/00 RMK AO2 RAB36 SLP231 P0000 T01330128
94908KDBQ DBQ20070324125513103/24/07 12:55:31  5-MIN KDBQ 241855Z 00000KT 1/4SM -RA FG VV001 13/13 A3020 820 96 900 000/00 RMK AO2 RAB36 SLP231 P0000 T01330128
94908KDBQ DBQ20070324130011203/24/07 13:00:31  5-MIN KDBQ 241900Z 08003KT 1/2SM FG VV001 13/13 A3020 820 96 900 070/03 RMK AO2 RAE1858 P0000
94908KDBQ DBQ20070324130511303/24/07 13:05:31  5-MIN KDBQ 241905Z 03007KT 3/4SM BR OVC001 14/13 A3020 820 96 900 030/07 RMK AO2 RAE1858 P0001
94908KDBQ DBQ20070324131011203/24/07 13:10:31  5-MIN KDBQ 241910Z 03009KT 1/4SM FG VV001 13/12 A3020 820 96 800 030/09 RMK AO2 RAE1858 P0001
94908KDBQ DBQ20070324131511303/24/07 13:15:31  5-MIN KDBQ 241915Z 04009KT M1/4SM FG VV001 13/12 A3019 830 96 800 030/09 RMK AO2 RAE1858 P0001
94908KDBQ DBQ20070324132011303/24/07 13:20:31  5-MIN KDBQ 241920Z 04009KT M1/4SM FG VV001 13/12 A3018 840 96 800 040/09 RMK AO2 RAE1858 P0001
94908KDBQ DBQ20070324132512003/24/07 13:25:31  5-MIN KDBQ 241925Z 05008KT M1/4SM FG VV001 13/12 A3018 840 96 800 050/08 RMK AO2 RAE1858 PRESFR P0001
94908KDBQ DBQ20070324133011303/24/07 13:30:31  5-MIN KDBQ 241930Z 05008KT M1/4SM FG VV001 13/12 A3017 840 96 800 050/08 RMK AO2 RAE1858 P0001
94908KDBQ DBQ20070324133511303/24/07 13:35:31  5-MIN KDBQ 241935Z 07007KT M1/4SM FG VV001 13/13 A3017 850 96 900 060/07 RMK AO2 RAE1858 P0001
94908KDBQ DBQ20070324134011203/24/07 13:40:31  5-MIN KDBQ 241940Z 07006KT 1/4SM FG VV001 13/13 A3017 850 96 900 070/06 RMK AO2 RAE1858 P0001
94908KDBQ DBQ20070324134511203/24/07 13:45:31  5-MIN KDBQ 241945Z 08007KT 1/4SM FG VV001 13/13 A3017 850 96 900 070/07 RMK AO2 RAE1858 P0001
94908KDBQ DBQ20070324135012903/24/07 13:50:31  5-MIN KDBQ 241950Z 07006KT 1/4SM FG VV001 13/13 A3017 850 96 900 070/06 RMK AO2 RAE1858 SLP219 P0001 T01330128
94908KDBQ DBQ20070324135513003/24/07 13:55:31  5-MIN KDBQ 241955Z 05007KT 1/4SM FG VV001 13/13 A3017 850 100 900 050/07 RMK AO2 RAE1858 SLP218 P0001 T01330133
94908KDBQ DBQ20070324140009903/24/07 14:00:31  5-MIN KDBQ 242000Z 05007KT 1/4SM FG VV001 13/13 A3016 850 100 900 050/07 RMK AO2
94908KDBQ DBQ20070324140509903/24/07 14:05:31  5-MIN KDBQ 242005Z 06007KT 1/4SM FG VV001 14/13 A3016 860 96 1000 060/07 RMK AO2
94908KDBQ DBQ20070324141010003/24/07 14:10:31  5-MIN KDBQ 242010Z 07006KT 1/4SM FG OVC001 14/13 A3017 850 96 1000 070/06 RMK AO2
94908KDBQ DBQ20070324141510003/24/07 14:15:31  5-MIN KDBQ 242015Z 07006KT 1/2SM FG OVC001 14/13 A3017 850 96 1000 070/06 RMK AO2
94908KDBQ DBQ20070324142010003/24/07 14:20:31  5-MIN KDBQ 242020Z 08006KT 1/2SM FG OVC001 14/13 A3017 850 96 1000 080/06 RMK AO2
94908KDBQ DBQ20070324142510003/24/07 14:25:31  5-MIN KDBQ 242025Z 09007KT 1/2SM FG OVC001 14/13 A3016 850 96 1000 090/07 RMK AO2
94908KDBQ DBQ20070324143010003/24/07 14:30:31  5-MIN KDBQ 242030Z 09008KT 1/2SM FG OVC001 14/14 A3016 860 96 1000 090/08 RMK AO2
94908KDBQ DBQ20070324143510003/24/07 14:35:31  5-MIN KDBQ 242035Z 09009KT 3/4SM BR OVC001 14/14 A3015 860 96 1000 090/09 RMK AO2
94908KDBQ DBQ20070324144010903/24/07 14:40:31  5-MIN KDBQ 242040Z 10009KT 1 1/4SM BR OVC001 14/14 A3015 870 96 1000 100/09 RMK AO2 PRESFR
94908KDBQ DBQ20070324144510203/24/07 14:45:31  5-MIN KDBQ 242045Z 09010KT 1 1/4SM BR OVC001 14/14 A3015 870 96 1000 090/10 RMK AO2
94908KDBQ DBQ20070324145013103/24/07 14:50:31  5-MIN KDBQ 242050Z 09007KT 1 1/4SM BR OVC001 14/14 A3016 860 96 1000 090/07 RMK AO2 SLP214 60001 T01440139 51015
94908KDBQ DBQ20070324145513103/24/07 14:55:31  5-MIN KDBQ 242055Z 11009KT 1 1/2SM BR OVC001 14/14 A3016 860 96 1000 110/09 RMK AO2 SLP214 60001 T01440139 58018
94908KDBQ DBQ20070324150009803/24/07 15:00:31  5-MIN KDBQ 242100Z 12010KT 2SM BR OVC001 14/14 A3015 870 96 1000 120/10 RMK AO2
94908KDBQ DBQ20070324150510203/24/07 15:05:31  5-MIN KDBQ 242105Z 11011KT 1 3/4SM BR OVC001 14/14 A3014 870 96 1100 110/11 RMK AO2
94908KDBQ DBQ20070324151010903/24/07 15:10:31  5-MIN KDBQ 242110Z 10012KT 1 1/4SM BR OVC001 14/14 A3013 890 96 1100 100/12 RMK AO2 PRESFR
94908KDBQ DBQ20070324151509803/24/07 15:15:31  5-MIN KDBQ 242115Z 11008KT 1SM BR OVC001 15/14 A3014 870 93 1100 110/08 RMK AO2
94908KDBQ DBQ20070324152009803/24/07 15:20:31  5-MIN KDBQ 242120Z 12010KT 1SM BR OVC001 14/14 A3015 870 96 1000 120/10 RMK AO2
94908KDBQ DBQ20070324152511403/24/07 15:25:31  5-MIN KDBQ 242125Z 11008KT 1 3/4SM BR OVC003 15/14 A3014 880 93 1100 110/08 RMK AO2 CIG 001V005
94908KDBQ DBQ20070324153011003/24/07 15:30:31  5-MIN KDBQ 242130Z 11011KT 2SM BR OVC003 15/14 A3014 880 93 1100 100/11 RMK AO2 CIG 001V005
94908KDBQ DBQ20070324153511003/24/07 15:35:31  5-MIN KDBQ 242135Z 11006KT 2SM BR OVC003 15/14 A3015 870 93 1100 110/06 RMK AO2 CIG 001V005
94908KDBQ DBQ20070324154011003/24/07 15:40:31  5-MIN KDBQ 242140Z 11007KT 2SM BR OVC003 15/14 A3015 860 93 1100 110/07 RMK AO2 CIG 001V005
94908KDBQ DBQ20070324154511003/24/07 15:45:31  5-MIN KDBQ 242145Z 10008KT 2SM BR OVC003 15/14 A3014 870 93 1100 100/08 RMK AO2 CIG 001V005
94908KDBQ DBQ20070324155011503/24/07 15:50:31  5-MIN KDBQ 242150Z 11009KT 2SM BR OVC003 15/14 A3013 890 93 1100 100/09 RMK AO2 SLP205 T01500139
94908KDBQ DBQ20070324155511503/24/07 15:55:31  5-MIN KDBQ 242155Z 13007KT 2SM BR OVC003 15/14 A3015 870 93 1100 130/07 RMK AO2 SLP211 T01500139
94908KDBQ DBQ20070324160009803/24/07 16:00:31  5-MIN KDBQ 242200Z 12009KT 2SM BR OVC003 15/14 A3014 870 93 1100 120/09 RMK AO2
94908KDBQ DBQ20070324160509803/24/07 16:05:31  5-MIN KDBQ 242205Z 12011KT 2SM BR OVC003 15/14 A3014 880 93 1100 120/11 RMK AO2
94908KDBQ DBQ20070324161009803/24/07 16:10:31  5-MIN KDBQ 242210Z 11009KT 2SM BR OVC003 15/14 A3013 890 93 1100 110/09 RMK AO2
94908KDBQ DBQ20070324161510503/24/07 16:15:31  5-MIN KDBQ 242215Z 11010KT 2SM BR OVC003 15/14 A3011 900 93 1200 110/10 RMK AO2 PRESFR
94908KDBQ DBQ20070324162009803/24/07 16:20:31  5-MIN KDBQ 242220Z 12010KT 2SM BR OVC003 15/14 A3011 900 93 1100 120/10 RMK AO2
94908KDBQ DBQ20070324162509803/24/07 16:25:31  5-MIN KDBQ 242225Z 13008KT 2SM BR OVC003 15/14 A3013 890 96 1100 130/08 RMK AO2
94908KDBQ DBQ20070324163009803/24/07 16:30:31  5-MIN KDBQ 242230Z 13006KT 2SM BR OVC003 15/14 A3013 880 96 1100 120/06 RMK AO2
94908KDBQ DBQ20070324163510503/24/07 16:35:31  5-MIN KDBQ 242235Z 14006KT 2SM BR OVC003 15/14 A3014 880 96 1100 140/06 RMK AO2 PRESRR
94908KDBQ DBQ20070324164010203/24/07 16:40:31  5-MIN KDBQ 242240Z 13007KT 1 3/4SM BR OVC003 15/14 A3014 880 96 1100 130/07 RMK AO2
94908KDBQ DBQ20070324164509803/24/07 16:45:31  5-MIN KDBQ 242245Z 13006KT 1SM BR OVC003 15/14 A3014 870 96 1100 130/06 RMK AO2
94908KDBQ DBQ20070324165011703/24/07 16:50:31  5-MIN KDBQ 242250Z 12007KT 1/2SM FG OVC001 15/14 A3014 880 96 1100 110/07 RMK AO2 SLP208 T01500144
94908KDBQ DBQ20070324165511703/24/07 16:55:31  5-MIN KDBQ 242255Z 12005KT 1/2SM FG OVC001 15/14 A3015 870 96 1100 120/05 RMK AO2 SLP211 T01500144
94908KDBQ DBQ20070324170010003/24/07 17:00:31  5-MIN KDBQ 242300Z 12003KT 1/2SM FG OVC001 15/14 A3015 870 96 1100 120/03 RMK AO2
94908KDBQ DBQ20070324170510003/24/07 17:05:31  5-MIN KDBQ 242305Z 12004KT 1/2SM FG OVC001 15/14 A3016 860 96 1100 120/04 RMK AO2
94908KDBQ DBQ20070324171010003/24/07 17:10:31  5-MIN KDBQ 242310Z 11005KT 1/2SM FG OVC001 15/14 A3016 860 96 1100 110/05 RMK AO2
94908KDBQ DBQ20070324171510003/24/07 17:15:31  5-MIN KDBQ 242315Z 12006KT 1/2SM FG OVC001 15/14 A3016 860 96 1100 120/06 RMK AO2
94908KDBQ DBQ20070324172010003/24/07 17:20:31  5-MIN KDBQ 242320Z 11005KT 1/2SM FG OVC001 15/14 A3016 860 96 1100 110/05 RMK AO2
94908KDBQ DBQ20070324172510003/24/07 17:25:31  5-MIN KDBQ 242325Z 11004KT 1/2SM FG OVC001 15/14 A3016 860 96 1100 110/04 RMK AO2
94908KDBQ DBQ20070324173009803/24/07 17:30:31  5-MIN KDBQ 242330Z 12004KT 1SM BR OVC001 15/14 A3016 860 96 1100 120/04 RMK AO2
94908KDBQ DBQ20070324173510203/24/07 17:35:31  5-MIN KDBQ 242335Z 12005KT 1 1/4SM BR OVC001 15/14 A3016 860 96 1100 120/05 RMK AO2
94908KDBQ DBQ20070324174010203/24/07 17:40:31  5-MIN KDBQ 242340Z 13005KT 1 1/4SM BR OVC001 15/14 A3016 860 96 1100 130/05 RMK AO2
94908KDBQ DBQ20070324174510203/24/07 17:45:31  5-MIN KDBQ 242345Z 13005KT 1 1/4SM BR OVC001 15/14 A3016 860 96 1100 130/05 RMK AO2
94908KDBQ DBQ20070324175014303/24/07 17:50:31  5-MIN KDBQ 242350Z 13005KT 1 1/4SM BR OVC001 15/14 A3016 860 96 1100 130/05 RMK AO2 SLP216 60001 T01500144 10150 20122 58018
94908KDBQ DBQ20070324175514303/24/07 17:55:31  5-MIN KDBQ 242355Z 14005KT 1 1/4SM BR OVC001 15/14 A3016 850 96 1100 140/05 RMK AO2 SLP217 60001 T01500144 10150 20122 53003
94908KDBQ DBQ20070324180010203/24/07 18:00:31  5-MIN KDBQ 250000Z 13005KT 1 1/4SM BR OVC001 15/14 A3017 850 96 1100 130/05 RMK AO2
94908KDBQ DBQ20070324180510203/24/07 18:05:31  5-MIN KDBQ 250005Z 13005KT 1 1/4SM BR OVC001 15/14 A3016 850 96 1100 130/05 RMK AO2
94908KDBQ DBQ20070324181010203/24/07 18:10:31  5-MIN KDBQ 250010Z 14006KT 1 1/4SM BR OVC001 15/14 A3017 850 96 1100 140/06 RMK AO2
94908KDBQ DBQ20070324181510203/24/07 18:15:31  5-MIN KDBQ 250015Z 14006KT 1 1/4SM BR OVC001 15/14 A3017 850 96 1100 130/06 RMK AO2
94908KDBQ DBQ20070324182009803/24/07 18:20:31  5-MIN KDBQ 250020Z 14007KT 1SM BR OVC001 15/14 A3017 850 96 1100 140/07 RMK AO2
94908KDBQ DBQ20070324182509803/24/07 18:25:31  5-MIN KDBQ 250025Z 14007KT 1SM BR OVC001 15/14 A3017 850 96 1100 140/07 RMK AO2
94908KDBQ DBQ20070324183009803/24/07 18:30:31  5-MIN KDBQ 250030Z 13006KT 1SM BR OVC001 15/14 A3017 850 96 1100 130/06 RMK AO2
94908KDBQ DBQ20070324183510003/24/07 18:35:31  5-MIN KDBQ 250035Z 13007KT 3/4SM BR OVC001 15/14 A3017 850 96 1100 130/07 RMK AO2
94908KDBQ DBQ20070324184010003/24/07 18:40:31  5-MIN KDBQ 250040Z 13007KT 3/4SM BR OVC001 15/14 A3017 840 96 1100 130/07 RMK AO2
94908KDBQ DBQ20070324184509903/24/07 18:45:31  5-MIN KDBQ 250045Z 13007KT 1/2SM FG VV001 15/14 A3018 840 96 1100 130/07 RMK AO2
94908KDBQ DBQ20070324185012603/24/07 18:50:31  5-MIN KDBQ 250050Z AUTO 13008KT 1/2SM FG VV001 15/14 A3018 840 96 1100 130/08 RMK AO2 SLP222 T01500144 TSNO
94908KDBQ DBQ20070324185512603/24/07 18:55:31  5-MIN KDBQ 250055Z AUTO 13009KT 1/2SM FG VV001 15/14 A3018 840 96 1100 130/09 RMK AO2 SLP222 T01500144 TSNO
94908KDBQ DBQ20070324190010903/24/07 19:00:31  5-MIN KDBQ 250100Z AUTO 13009KT 1/2SM FG VV001 15/14 A3018 840 96 1100 130/09 RMK AO2 TSNO
94908KDBQ DBQ20070324190510903/24/07 19:05:31  5-MIN KDBQ 250105Z AUTO 13008KT 1/2SM FG VV001 15/14 A3018 840 96 1100 130/08 RMK AO2 TSNO
94908KDBQ DBQ20070324191010903/24/07 19:10:31  5-MIN KDBQ 250110Z AUTO 13007KT 1/2SM FG VV001 15/14 A3018 840 96 1100 130/07 RMK AO2 TSNO
94908KDBQ DBQ20070324191510903/24/07 19:15:31  5-MIN KDBQ 250115Z AUTO 12007KT 3/4SM BR VV001 15/14 A3018 840 96 1100 120/07 RMK AO2 TSNO
94908KDBQ DBQ20070324192010803/24/07 19:20:31  5-MIN KDBQ 250120Z AUTO 12007KT 1SM BR OVC001 15/14 A3018 840 96 1100 120/07 RMK AO2 TSNO
94908KDBQ DBQ20070324192510803/24/07 19:25:31  5-MIN KDBQ 250125Z AUTO 12008KT 1SM BR OVC001 15/14 A3019 830 96 1100 120/08 RMK AO2 TSNO
94908KDBQ DBQ20070324193011203/24/07 19:30:31  5-MIN KDBQ 250130Z AUTO 12007KT 1 1/4SM BR OVC001 15/14 A3019 830 96 1100 120/07 RMK AO2 TSNO
94908KDBQ DBQ20070324193511203/24/07 19:35:31  5-MIN KDBQ 250135Z AUTO 12007KT 1 1/2SM BR OVC001 15/14 A3019 830 96 1100 120/07 RMK AO2 TSNO
94908KDBQ DBQ20070324194011203/24/07 19:40:31  5-MIN KDBQ 250140Z AUTO 12007KT 1 3/4SM BR OVC001 15/14 A3019 830 96 1100 120/07 RMK AO2 TSNO
94908KDBQ DBQ20070324194511203/24/07 19:45:31  5-MIN KDBQ 250145Z AUTO 12007KT 1 3/4SM BR OVC001 15/14 A3019 830 96 1100 120/07 RMK AO2 TSNO
94908KDBQ DBQ20070324195012903/24/07 19:50:31  5-MIN KDBQ 250150Z AUTO 12008KT 1 3/4SM BR OVC001 15/14 A3019 830 96 1100 120/08 RMK AO2 SLP225 T01500144 TSNO
94908KDBQ DBQ20070324195512903/24/07 19:55:31  5-MIN KDBQ 250155Z AUTO 12008KT 1 3/4SM BR OVC001 15/14 A3019 830 96 1100 120/08 RMK AO2 SLP225 T01500144 TSNO
94908KDBQ DBQ20070324200011203/24/07 20:00:31  5-MIN KDBQ 250200Z AUTO 12008KT 1 3/4SM BR OVC001 15/14 A3019 830 96 1100 120/08 RMK AO2 TSNO
94908KDBQ DBQ20070324200511203/24/07 20:05:31  5-MIN KDBQ 250205Z AUTO 12009KT 1 3/4SM BR OVC001 15/14 A3019 830 96 1100 120/09 RMK AO2 TSNO
94908KDBQ DBQ20070324201011203/24/07 20:10:31  5-MIN KDBQ 250210Z AUTO 13009KT 1 3/4SM BR OVC001 16/14 A3019 830 93 1100 120/09 RMK AO2 TSNO
94908KDBQ DBQ20070324201511203/24/07 20:15:31  5-MIN KDBQ 250215Z AUTO 13010KT 1 3/4SM BR OVC001 16/14 A3019 830 93 1100 130/10 RMK AO2 TSNO
94908KDBQ DBQ20070324202010803/24/07 20:20:31  5-MIN KDBQ 250220Z AUTO 13010KT 2SM BR OVC001 15/14 A3019 830 96 1100 130/10 RMK AO2 TSNO
94908KDBQ DBQ20070324202510803/24/07 20:25:31  5-MIN KDBQ 250225Z AUTO 13010KT 2SM BR OVC001 16/14 A3018 840 93 1100 130/10 RMK AO2 TSNO
94908KDBQ DBQ20070324203010803/24/07 20:30:31  5-MIN KDBQ 250230Z AUTO 13010KT 2SM BR OVC001 16/14 A3018 840 93 1100 130/10 RMK AO2 TSNO
94908KDBQ DBQ20070324203510803/24/07 20:35:31  5-MIN KDBQ 250235Z AUTO 14010KT 2SM BR OVC001 15/14 A3018 840 96 1100 130/10 RMK AO2 TSNO
94908KDBQ DBQ20070324204010803/24/07 20:40:31  5-MIN KDBQ 250240Z AUTO 14010KT 2SM BR OVC001 15/14 A3018 840 96 1100 140/10 RMK AO2 TSNO
94908KDBQ DBQ20070324204511203/24/07 20:45:31  5-MIN KDBQ 250245Z AUTO 14010KT 1 3/4SM BR OVC001 15/14 A3018 840 96 1100 140/10 RMK AO2 TSNO
94908KDBQ DBQ20070324205011203/24/07 20:50:31  5-MIN KDBQ 250250Z AUTO 14011KT 1 3/4SM BR OVC001 15/14 A3018 840 96 1100 140/11 RMK AO2 TSNO
94908KDBQ DBQ20070324205513503/24/07 20:55:31  5-MIN KDBQ 250255Z AUTO 13009KT 1 1/2SM BR OVC001 15/14 A3017 840 96 1100 130/09 RMK AO2 SLP219 T01500144 50003 TSNO
94908KDBQ DBQ20070324210011203/24/07 21:00:31  5-MIN KDBQ 250300Z AUTO 14010KT 1 1/2SM BR OVC001 15/14 A3017 850 96 1100 140/10 RMK AO2 TSNO
94908KDBQ DBQ20070324210511203/24/07 21:05:31  5-MIN KDBQ 250305Z AUTO 14009KT 1 1/2SM BR OVC001 15/14 A3017 850 96 1100 140/09 RMK AO2 TSNO
94908KDBQ DBQ20070324211011203/24/07 21:10:31  5-MIN KDBQ 250310Z AUTO 14010KT 1 1/4SM BR OVC001 15/14 A3017 850 96 1100 140/10 RMK AO2 TSNO
94908KDBQ DBQ20070324211510803/24/07 21:15:31  5-MIN KDBQ 250315Z AUTO 14009KT 1SM BR OVC001 15/14 A3017 850 96 1100 140/09 RMK AO2 TSNO
94908KDBQ DBQ20070324212011003/24/07 21:20:31  5-MIN KDBQ 250320Z AUTO 14009KT 3/4SM BR OVC001 15/14 A3017 850 96 1100 140/09 RMK AO2 TSNO
94908KDBQ DBQ20070324212510903/24/07 21:25:31  5-MIN KDBQ 250325Z AUTO 14010KT 3/4SM BR VV001 15/14 A3017 850 96 1100 140/10 RMK AO2 TSNO
94908KDBQ DBQ20070324213010903/24/07 21:30:31  5-MIN KDBQ 250330Z AUTO 14011KT 3/4SM BR VV001 15/14 A3016 850 96 1100 140/11 RMK AO2 TSNO
94908KDBQ DBQ20070324213510903/24/07 21:35:31  5-MIN KDBQ 250335Z AUTO 14011KT 3/4SM BR VV001 15/14 A3017 850 96 1100 140/11 RMK AO2 TSNO
94908KDBQ DBQ20070324214010703/24/07 21:40:31  5-MIN KDBQ 250340Z AUTO 14010KT 1SM BR VV001 15/14 A3016 850 96 1100 140/10 RMK AO2 TSNO
94908KDBQ DBQ20070324214510703/24/07 21:45:31  5-MIN KDBQ 250345Z AUTO 14010KT 1SM BR VV001 15/14 A3017 850 96 1100 140/10 RMK AO2 TSNO
94908KDBQ DBQ20070324215010903/24/07 21:50:31  5-MIN KDBQ 250350Z AUTO 14010KT 3/4SM BR VV001 15/14 A3016 850 96 1100 140/10 RMK AO2 TSNO
94908KDBQ DBQ20070324215512703/24/07 21:55:31  5-MIN KDBQ 250355Z AUTO 14010KT 3/4SM BR OVC001 15/14 A3016 850 96 1100 140/10 RMK AO2 SLP216 T01500144 TSNO
94908KDBQ DBQ20070324220011003/24/07 22:00:31  5-MIN KDBQ 250400Z AUTO 14010KT 3/4SM BR OVC001 15/14 A3016 860 96 1100 130/10 RMK AO2 TSNO
94908KDBQ DBQ20070324220510903/24/07 22:05:31  5-MIN KDBQ 250405Z AUTO 14010KT 3/4SM BR VV001 15/14 A3016 860 96 1100 140/10 RMK AO2 TSNO
94908KDBQ DBQ20070324221010903/24/07 22:10:31  5-MIN KDBQ 250410Z AUTO 14010KT 1/2SM FG VV001 15/14 A3016 860 96 1100 140/10 RMK AO2 TSNO
94908KDBQ DBQ20070324221510903/24/07 22:15:31  5-MIN KDBQ 250415Z AUTO 14009KT 3/4SM BR VV001 15/14 A3016 860 96 1100 140/09 RMK AO2 TSNO
94908KDBQ DBQ20070324222010903/24/07 22:20:31  5-MIN KDBQ 250420Z AUTO 14009KT 3/4SM BR VV001 15/14 A3015 860 96 1100 140/09 RMK AO2 TSNO
94908KDBQ DBQ20070324222510903/24/07 22:25:31  5-MIN KDBQ 250425Z AUTO 14010KT 3/4SM BR VV001 15/14 A3015 860 96 1100 140/10 RMK AO2 TSNO
94908KDBQ DBQ20070324223010903/24/07 22:30:31  5-MIN KDBQ 250430Z AUTO 14009KT 3/4SM BR VV001 15/14 A3015 870 96 1100 140/09 RMK AO2 TSNO
94908KDBQ DBQ20070324223510703/24/07 22:35:31  5-MIN KDBQ 250435Z AUTO 14009KT 1SM BR VV001 15/14 A3015 870 96 1100 140/09 RMK AO2 TSNO
94908KDBQ DBQ20070324224010803/24/07 22:40:31  5-MIN KDBQ 250440Z AUTO 14009KT 1SM BR OVC001 15/14 A3015 870 96 1100 140/09 RMK AO2 TSNO
94908KDBQ DBQ20070324224511203/24/07 22:45:31  5-MIN KDBQ 250445Z AUTO 14009KT 1 1/4SM BR OVC001 15/14 A3015 870 96 1100 140/09 RMK AO2 TSNO
94908KDBQ DBQ20070324225012903/24/07 22:50:31  5-MIN KDBQ 250450Z AUTO 14010KT 1 1/4SM BR OVC001 15/14 A3015 870 96 1100 140/10 RMK AO2 SLP209 T01500144 TSNO
94908KDBQ DBQ20070324225512903/24/07 22:55:31  5-MIN KDBQ 250455Z AUTO 15009KT 1 1/2SM BR OVC001 15/14 A3015 870 96 1100 150/09 RMK AO2 SLP210 T01500144 TSNO
94908KDBQ DBQ20070324230011203/24/07 23:00:31  5-MIN KDBQ 250500Z AUTO 15010KT 1 1/4SM BR OVC001 15/14 A3015 870 96 1100 150/10 RMK AO2 TSNO
94908KDBQ DBQ20070324230511203/24/07 23:05:31  5-MIN KDBQ 250505Z AUTO 15009KT 1 1/2SM BR OVC001 15/14 A3015 870 96 1100 150/09 RMK AO2 TSNO
94908KDBQ DBQ20070324231011203/24/07 23:10:31  5-MIN KDBQ 250510Z AUTO 15010KT 1 3/4SM BR OVC001 15/14 A3015 860 96 1100 150/10 RMK AO2 TSNO
94908KDBQ DBQ20070324231511203/24/07 23:15:31  5-MIN KDBQ 250515Z AUTO 15010KT 1 3/4SM BR OVC001 15/14 A3015 860 96 1100 150/10 RMK AO2 TSNO
94908KDBQ DBQ20070324232011203/24/07 23:20:31  5-MIN KDBQ 250520Z AUTO 15011KT 1 1/2SM BR OVC001 15/14 A3015 860 96 1100 150/11 RMK AO2 TSNO
94908KDBQ DBQ20070324232511203/24/07 23:25:31  5-MIN KDBQ 250525Z AUTO 15011KT 1 1/4SM BR OVC001 15/14 A3015 860 96 1100 150/11 RMK AO2 TSNO
94908KDBQ DBQ20070324233011203/24/07 23:30:31  5-MIN KDBQ 250530Z AUTO 15011KT 1 1/4SM BR OVC001 15/14 A3015 870 96 1100 150/11 RMK AO2 TSNO
94908KDBQ DBQ20070324233511203/24/07 23:35:31  5-MIN KDBQ 250535Z AUTO 15011KT 1 1/4SM BR OVC001 15/14 A3015 870 96 1100 150/11 RMK AO2 TSNO
94908KDBQ DBQ20070324234011203/24/07 23:40:31  5-MIN KDBQ 250540Z AUTO 15011KT 1 1/4SM BR OVC001 15/14 A3015 870 96 1100 150/11 RMK AO2 TSNO
94908KDBQ DBQ20070324234511203/24/07 23:45:31  5-MIN KDBQ 250545Z AUTO 15012KT 1 1/4SM BR OVC001 15/14 A3015 870 96 1100 150/12 RMK AO2 TSNO
94908KDBQ DBQ20070324235015703/24/07 23:50:31  5-MIN KDBQ 250550Z AUTO 15012KT 1 3/4SM BR BKN001 15/14 A3015 870 93 1100 150/12 RMK AO2 SLP210 T01500139 10156 20150 401560083 50003 TSNO
94908KDBQ DBQ20070324235515303/24/07 23:55:31  5-MIN KDBQ 250555Z AUTO 15012KT 2SM BR BKN001 15/14 A3014 870 93 1100 150/12 RMK AO2 SLP209 T01500139 10156 20150 401560083 56010 TSNO
94908KDBQ DBQ20070325000011203/25/07 00:00:38  5-MIN KDBQ 250600Z AUTO 15012KT 2 1/2SM BR SCT001 15/14 A3014 870 96 1100 150/12 RMK AO2 TSNO
94908KDBQ DBQ20070325000510803/25/07 00:05:31  5-MIN KDBQ 250605Z AUTO 15012KT 2SM BR BKN001 15/14 A3014 870 93 1100 140/12 RMK AO2 TSNO
94908KDBQ DBQ20070325001010803/25/07 00:10:31  5-MIN KDBQ 250610Z AUTO 14012KT 2SM BR BKN001 15/14 A3014 880 96 1100 140/12 RMK AO2 TSNO
94908KDBQ DBQ20070325001510803/25/07 00:15:32  5-MIN KDBQ 250615Z AUTO 15013KT 2SM BR BKN001 15/14 A3014 880 96 1100 150/13 RMK AO2 TSNO
94908KDBQ DBQ20070325002010803/25/07 00:20:31  5-MIN KDBQ 250620Z AUTO 15011KT 2SM BR BKN001 15/14 A3014 880 96 1100 150/11 RMK AO2 TSNO
94908KDBQ DBQ20070325002510803/25/07 00:25:31  5-MIN KDBQ 250625Z AUTO 15012KT 2SM BR BKN001 15/14 A3014 880 93 1100 150/12 RMK AO2 TSNO
94908KDBQ DBQ20070325003010803/25/07 00:30:31  5-MIN KDBQ 250630Z AUTO 15012KT 2SM BR OVC001 15/14 A3013 880 93 1100 150/12 RMK AO2 TSNO
94908KDBQ DBQ20070325003510803/25/07 00:35:31  5-MIN KDBQ 250635Z AUTO 15012KT 2SM BR BKN001 15/14 A3013 880 93 1100 150/12 RMK AO2 TSNO
94908KDBQ DBQ20070325004010803/25/07 00:40:31  5-MIN KDBQ 250640Z AUTO 15011KT 2SM BR BKN001 15/14 A3013 880 93 1100 150/11 RMK AO2 TSNO
94908KDBQ DBQ20070325004510803/25/07 00:45:31  5-MIN KDBQ 250645Z AUTO 15011KT 2SM BR BKN003 15/14 A3013 880 93 1100 150/11 RMK AO2 TSNO
94908KDBQ DBQ20070325005010803/25/07 00:50:31  5-MIN KDBQ 250650Z AUTO 15011KT 2SM BR BKN003 15/14 A3013 880 93 1100 150/11 RMK AO2 TSNO
94908KDBQ DBQ20070325005512503/25/07 00:55:31  5-MIN KDBQ 250655Z AUTO 15010KT 2SM BR BKN003 14/14 A3013 890 96 1100 150/10 RMK AO2 SLP203 T01440139 TSNO
94908KDBQ DBQ20070325010010803/25/07 01:00:31  5-MIN KDBQ 250700Z AUTO 15010KT 2SM BR BKN003 14/14 A3013 890 96 1100 150/10 RMK AO2 TSNO
94908KDBQ DBQ20070325010510803/25/07 01:05:31  5-MIN KDBQ 250705Z AUTO 15011KT 2SM BR SCT003 14/14 A3013 890 96 1100 150/11 RMK AO2 TSNO
94908KDBQ DBQ20070325011011203/25/07 01:10:31  5-MIN KDBQ 250710Z AUTO 15010KT 2 1/2SM BR SCT003 14/14 A3013 890 96 1100 150/10 RMK AO2 TSNO
94908KDBQ DBQ20070325011510803/25/07 01:15:31  5-MIN KDBQ 250715Z AUTO 16012KT 2SM BR SCT003 14/14 A3012 890 96 1100 150/12 RMK AO2 TSNO
94908KDBQ DBQ20070325012010803/25/07 01:20:31  5-MIN KDBQ 250720Z AUTO 16012KT 2SM BR SCT003 14/14 A3012 890 96 1100 160/12 RMK AO2 TSNO
94908KDBQ DBQ20070325012510803/25/07 01:25:31  5-MIN KDBQ 250725Z AUTO 16012KT 2SM BR SCT003 14/14 A3012 890 96 1100 160/12 RMK AO2 TSNO
94908KDBQ DBQ20070325013010803/25/07 01:30:31  5-MIN KDBQ 250730Z AUTO 16012KT 2SM BR SCT003 14/14 A3012 890 96 1100 160/12 RMK AO2 TSNO
94908KDBQ DBQ20070325013511203/25/07 01:35:31  5-MIN KDBQ 250735Z AUTO 16012KT 1 3/4SM BR BKN003 14/14 A3012 900 96 1100 160/12 RMK AO2 TSNO
94908KDBQ DBQ20070325014011203/25/07 01:40:31  5-MIN KDBQ 250740Z AUTO 16012KT 1 3/4SM BR BKN003 14/14 A3012 900 96 1100 160/12 RMK AO2 TSNO
94908KDBQ DBQ20070325014511203/25/07 01:45:31  5-MIN KDBQ 250745Z AUTO 15011KT 1 3/4SM BR BKN003 14/14 A3011 900 96 1100 150/11 RMK AO2 TSNO
94908KDBQ DBQ20070325015012503/25/07 01:50:31  5-MIN KDBQ 250750Z AUTO 15010KT 2SM BR SCT003 14/14 A3011 900 96 1100 150/10 RMK AO2 SLP199 T01440139 TSNO
94908KDBQ DBQ20070325015512503/25/07 01:55:31  5-MIN KDBQ 250755Z AUTO 15010KT 2SM BR SCT003 14/14 A3011 900 96 1100 150/10 RMK AO2 SLP199 T01440139 TSNO
94908KDBQ DBQ20070325020011203/25/07 02:00:31  5-MIN KDBQ 250800Z AUTO 16009KT 2 1/2SM BR FEW003 14/14 A3011 900 96 1100 150/09 RMK AO2 TSNO
94908KDBQ DBQ20070325020511203/25/07 02:05:31  5-MIN KDBQ 250805Z AUTO 15008KT 2 1/2SM BR FEW003 14/14 A3011 900 96 1100 150/08 RMK AO2 TSNO
94908KDBQ DBQ20070325021010903/25/07 02:10:31  5-MIN KDBQ 250810Z AUTO 16009KT 2 1/2SM BR CLR 14/14 A3011 900 96 1100 160/09 RMK AO2 TSNO
94908KDBQ DBQ20070325021510903/25/07 02:15:31  5-MIN KDBQ 250815Z AUTO 15009KT 2 1/2SM BR CLR 14/13 A3011 900 93 1100 150/09 RMK AO2 TSNO
94908KDBQ DBQ20070325022010903/25/07 02:20:31  5-MIN KDBQ 250820Z AUTO 15008KT 2 1/2SM BR CLR 14/13 A3011 900 93 1100 150/08 RMK AO2 TSNO
94908KDBQ DBQ20070325022510903/25/07 02:25:31  5-MIN KDBQ 250825Z AUTO 15008KT 2 1/2SM BR CLR 14/14 A3011 900 96 1100 150/08 RMK AO2 TSNO
94908KDBQ DBQ20070325023010903/25/07 02:30:31  5-MIN KDBQ 250830Z AUTO 15009KT 2 1/2SM BR CLR 14/14 A3011 900 96 1100 150/09 RMK AO2 TSNO
94908KDBQ DBQ20070325023510903/25/07 02:35:31  5-MIN KDBQ 250835Z AUTO 15010KT 2 1/2SM BR CLR 14/14 A3010 910 96 1100 150/10 RMK AO2 TSNO
94908KDBQ DBQ20070325024010903/25/07 02:40:31  5-MIN KDBQ 250840Z AUTO 15010KT 2 1/2SM BR CLR 14/13 A3010 910 93 1100 150/10 RMK AO2 TSNO
94908KDBQ DBQ20070325024510903/25/07 02:45:31  5-MIN KDBQ 250845Z AUTO 15009KT 2 1/2SM BR CLR 14/13 A3010 910 93 1100 150/09 RMK AO2 TSNO
94908KDBQ DBQ20070325025013203/25/07 02:50:31  5-MIN KDBQ 250850Z AUTO 16010KT 2 1/2SM BR CLR 14/13 A3010 910 93 1100 160/10 RMK AO2 SLP194 T01440133 56010 TSNO
94908KDBQ DBQ20070325025513203/25/07 02:55:31  5-MIN KDBQ 250855Z AUTO 17006KT 2 1/2SM BR CLR 14/13 A3010 910 93 1100 170/06 RMK AO2 SLP195 T01440133 58008 TSNO
94908KDBQ DBQ20070325030010803/25/07 03:00:31  5-MIN KDBQ 250900Z AUTO 19006KT 2SM BR FEW003 14/13 A3010 910 96 1000 180/06 RMK AO2 TSNO
94908KDBQ DBQ20070325030510803/25/07 03:05:31  5-MIN KDBQ 250905Z AUTO 20005KT 2SM BR SCT003 14/13 A3011 910 93 1000 200/05 RMK AO2 TSNO
94908KDBQ DBQ20070325031011203/25/07 03:10:31  5-MIN KDBQ 250910Z AUTO 19006KT 1 3/4SM BR BKN003 13/13 A3011 910 96 1000 190/06 RMK AO2 TSNO
94908KDBQ DBQ20070325031511203/25/07 03:15:31  5-MIN KDBQ 250915Z AUTO 16007KT 1 3/4SM BR BKN003 14/13 A3010 910 93 1000 160/07 RMK AO2 TSNO
94908KDBQ DBQ20070325032011203/25/07 03:20:31  5-MIN KDBQ 250920Z AUTO 16008KT 1 3/4SM BR BKN003 14/13 A3010 910 96 1000 160/08 RMK AO2 TSNO
94908KDBQ DBQ20070325032511203/25/07 03:25:31  5-MIN KDBQ 250925Z AUTO 17007KT 1 3/4SM BR OVC003 14/13 A3010 910 96 1000 160/07 RMK AO2 TSNO
94908KDBQ DBQ20070325033011203/25/07 03:30:31  5-MIN KDBQ 250930Z AUTO 16008KT 1 3/4SM BR OVC003 14/13 A3010 910 96 1000 160/08 RMK AO2 TSNO
94908KDBQ DBQ20070325033511203/25/07 03:35:31  5-MIN KDBQ 250935Z AUTO 16008KT 1 1/2SM BR OVC003 14/13 A3010 910 96 1000 160/08 RMK AO2 TSNO
94908KDBQ DBQ20070325034011203/25/07 03:40:31  5-MIN KDBQ 250940Z AUTO 16009KT 1 3/4SM BR OVC003 14/13 A3010 910 96 1000 150/09 RMK AO2 TSNO
94908KDBQ DBQ20070325034511203/25/07 03:45:31  5-MIN KDBQ 250945Z AUTO 16007KT 1 3/4SM BR OVC003 14/13 A3010 920 96 1000 160/07 RMK AO2 TSNO
94908KDBQ DBQ20070325035012903/25/07 03:50:31  5-MIN KDBQ 250950Z AUTO 16007KT 1 3/4SM BR OVC003 14/13 A3010 910 96 1000 160/07 RMK AO2 SLP192 T01390133 TSNO
94908KDBQ DBQ20070325035512903/25/07 03:55:31  5-MIN KDBQ 250955Z AUTO 17007KT 1 3/4SM BR OVC003 14/13 A3010 920 96 1000 170/07 RMK AO2 SLP191 T01390133 TSNO
94908KDBQ DBQ20070325040010803/25/07 04:00:31  5-MIN KDBQ 251000Z AUTO 16009KT 2SM BR BKN003 14/13 A3009 920 96 1000 150/09 RMK AO2 TSNO
94908KDBQ DBQ20070325040511203/25/07 04:05:31  5-MIN KDBQ 251005Z AUTO 15009KT 2 1/2SM BR BKN003 14/13 A3009 920 96 1000 150/09 RMK AO2 TSNO
94908KDBQ DBQ20070325041011203/25/07 04:10:31  5-MIN KDBQ 251010Z AUTO 15010KT 2 1/2SM BR SCT003 14/13 A3009 920 96 1000 150/10 RMK AO2 TSNO
94908KDBQ DBQ20070325041510803/25/07 04:15:31  5-MIN KDBQ 251015Z AUTO 15009KT 2SM BR FEW003 14/13 A3009 920 93 1000 150/09 RMK AO2 TSNO
94908KDBQ DBQ20070325042011203/25/07 04:20:31  5-MIN KDBQ 251020Z AUTO 15009KT 1 1/2SM BR FEW001 14/13 A3009 920 93 1000 150/09 RMK AO2 TSNO
94908KDBQ DBQ20070325042511203/25/07 04:25:31  5-MIN KDBQ 251025Z AUTO 15009KT 1 1/4SM BR FEW001 14/13 A3009 920 93 1000 150/09 RMK AO2 TSNO
94908KDBQ DBQ20070325043011203/25/07 04:30:31  5-MIN KDBQ 251030Z AUTO 15011KT 1 1/2SM BR FEW001 14/13 A3009 920 93 1000 150/11 RMK AO2 TSNO
94908KDBQ DBQ20070325043511903/25/07 04:35:31  5-MIN KDBQ 251035Z AUTO 15008KT 1 3/4SM BR FEW001 SCT065 14/13 A3009 920 93 1000 150/08 RMK AO2 TSNO
94908KDBQ DBQ20070325044011903/25/07 04:40:31  5-MIN KDBQ 251040Z AUTO 16009KT 2 1/2SM BR FEW001 SCT065 14/13 A3009 920 96 1000 160/09 RMK AO2 TSNO
94908KDBQ DBQ20070325044511503/25/07 04:45:31  5-MIN KDBQ 251045Z AUTO 18008KT 3SM BR FEW001 BKN065 14/13 A3009 920 96 1000 180/08 RMK AO2 TSNO
94908KDBQ DBQ20070325045012503/25/07 04:50:31  5-MIN KDBQ 251050Z AUTO 18008KT 3SM BR BKN060 14/13 A3009 920 96 1000 180/08 RMK AO2 SLP191 T01390133 TSNO
94908KDBQ DBQ20070325045512503/25/07 04:55:31  5-MIN KDBQ 251055Z AUTO 17008KT 3SM BR BKN065 14/13 A3009 920 93 1000 170/08 RMK AO2 SLP190 T01390128 TSNO
94908KDBQ DBQ20070325050010803/25/07 05:00:31  5-MIN KDBQ 251100Z AUTO 17007KT 3SM BR BKN065 14/13 A3009 920 93 1000 170/07 RMK AO2 TSNO
94908KDBQ DBQ20070325050510803/25/07 05:05:31  5-MIN KDBQ 251105Z AUTO 17008KT 3SM BR BKN065 14/13 A3009 920 93 1000 170/08 RMK AO2 TSNO
94908KDBQ DBQ20070325051010803/25/07 05:10:31  5-MIN KDBQ 251110Z AUTO 18009KT 3SM BR BKN060 14/13 A3009 920 93 1000 170/09 RMK AO2 TSNO
94908KDBQ DBQ20070325051510803/25/07 05:15:31  5-MIN KDBQ 251115Z AUTO 16010KT 3SM BR OVC065 14/13 A3009 920 93 1000 160/10 RMK AO2 TSNO
94908KDBQ DBQ20070325052010803/25/07 05:20:31  5-MIN KDBQ 251120Z AUTO 16009KT 3SM BR OVC065 14/13 A3009 920 93 1000 160/09 RMK AO2 TSNO
94908KDBQ DBQ20070325052510803/25/07 05:25:31  5-MIN KDBQ 251125Z AUTO 18008KT 4SM BR OVC060 14/13 A3009 920 93 1000 170/08 RMK AO2 TSNO
94908KDBQ DBQ20070325053010803/25/07 05:30:31  5-MIN KDBQ 251130Z AUTO 18009KT 4SM BR OVC060 14/13 A3009 920 93 1100 180/09 RMK AO2 TSNO
94908KDBQ DBQ20070325053510803/25/07 05:35:31  5-MIN KDBQ 251135Z AUTO 19009KT 4SM BR OVC060 14/13 A3009 920 93 1100 190/09 RMK AO2 TSNO
94908KDBQ DBQ20070325054010803/25/07 05:40:31  5-MIN KDBQ 251140Z AUTO 18009KT 4SM BR OVC060 14/13 A3009 920 93 1100 180/09 RMK AO2 TSNO
94908KDBQ DBQ20070325054510803/25/07 05:45:31  5-MIN KDBQ 251145Z AUTO 18010KT 4SM BR OVC055 14/13 A3009 920 93 1100 170/10 RMK AO2 TSNO
94908KDBQ DBQ20070325055014903/25/07 05:50:31  5-MIN KDBQ 251150Z AUTO 17010KT 4SM BR OVC055 14/13 A3009 920 93 1100 170/10 RMK AO2 SLP190 70001 T01440133 10150 20133 58008 TSNO
94908KDBQ DBQ20070325055514903/25/07 05:55:31  5-MIN KDBQ 251155Z AUTO 18010KT 4SM BR OVC055 14/13 A3009 920 93 1100 180/10 RMK AO2 SLP190 70001 T01440133 10150 20133 56002 TSNO
94908KDBQ DBQ20070325060010803/25/07 06:00:31  5-MIN KDBQ 251200Z AUTO 18009KT 4SM BR OVC055 14/13 A3009 930 90 1100 180/09 RMK AO2 TSNO
94908KDBQ DBQ20070325060510803/25/07 06:05:31  5-MIN KDBQ 251205Z AUTO 18007KT 4SM BR OVC055 14/13 A3008 930 93 1100 180/07 RMK AO2 TSNO
94908KDBQ DBQ20070325061011503/25/07 06:10:31  5-MIN KDBQ 251210Z AUTO 18009KT 3SM BR BKN055 OVC070 14/13 A3008 930 90 1100 180/09 RMK AO2 TSNO
94908KDBQ DBQ20070325061511503/25/07 06:15:31  5-MIN KDBQ 251215Z AUTO 19009KT 3SM BR BKN060 OVC075 14/13 A3008 930 90 1100 190/09 RMK AO2 TSNO
94908KDBQ DBQ20070325062011503/25/07 06:20:31  5-MIN KDBQ 251220Z AUTO 19008KT 3SM BR BKN060 OVC075 14/13 A3009 930 93 1100 190/08 RMK AO2 TSNO
94908KDBQ DBQ20070325062511503/25/07 06:25:31  5-MIN KDBQ 251225Z AUTO 19008KT 3SM BR SCT060 BKN075 14/13 A3008 930 93 1100 190/08 RMK AO2 TSNO
94908KDBQ DBQ20070325063011503/25/07 06:30:31  5-MIN KDBQ 251230Z AUTO 19008KT 3SM BR FEW055 BKN075 14/13 A3008 930 93 1100 190/08 RMK AO2 TSNO
94908KDBQ DBQ20070325063511503/25/07 06:35:31  5-MIN KDBQ 251235Z AUTO 18009KT 3SM BR SCT055 OVC075 14/13 A3008 930 90 1100 180/09 RMK AO2 TSNO
94908KDBQ DBQ20070325064011503/25/07 06:40:31  5-MIN KDBQ 251240Z AUTO 18009KT 3SM BR SCT055 BKN080 14/13 A3008 930 90 1100 180/09 RMK AO2 TSNO
94908KDBQ DBQ20070325064511503/25/07 06:45:31  5-MIN KDBQ 251245Z AUTO 18009KT 3SM BR SCT050 BKN080 14/13 A3008 930 90 1100 180/09 RMK AO2 TSNO
94908KDBQ DBQ20070325065013203/25/07 06:50:31  5-MIN KDBQ 251250Z AUTO 18008KT 3SM BR BKN050 BKN080 14/13 A3008 930 90 1100 180/08 RMK AO2 SLP187 T01440128 TSNO
94908KDBQ DBQ20070325065513203/25/07 06:55:31  5-MIN KDBQ 251255Z AUTO 18009KT 4SM BR BKN050 OVC080 14/13 A3008 930 90 1100 180/09 RMK AO2 SLP187 T01440128 TSNO
94908KDBQ DBQ20070325070011503/25/07 07:00:31  5-MIN KDBQ 251300Z AUTO 19009KT 4SM BR BKN050 OVC080 14/13 A3008 930 93 1100 190/09 RMK AO2 TSNO
94908KDBQ DBQ20070325070511503/25/07 07:05:31  5-MIN KDBQ 251305Z AUTO 18009KT 4SM BR BKN050 OVC075 15/13 A3008 930 90 1200 180/09 RMK AO2 TSNO
94908KDBQ DBQ20070325071011503/25/07 07:10:31  5-MIN KDBQ 251310Z AUTO 19008KT 5SM BR BKN050 OVC075 15/13 A3008 930 90 1200 190/08 RMK AO2 TSNO
94908KDBQ DBQ20070325071511503/25/07 07:15:31  5-MIN KDBQ 251315Z AUTO 19009KT 5SM BR BKN055 OVC075 15/13 A3008 930 90 1200 190/09 RMK AO2 TSNO
94908KDBQ DBQ20070325072011503/25/07 07:20:31  5-MIN KDBQ 251320Z AUTO 19008KT 5SM BR BKN055 OVC075 15/13 A3008 930 90 1200 190/08 RMK AO2 TSNO
94908KDBQ DBQ20070325072511503/25/07 07:25:31  5-MIN KDBQ 251325Z AUTO 19009KT 5SM BR BKN055 OVC075 15/13 A3008 930 90 1200 190/09 RMK AO2 TSNO
94908KDBQ DBQ20070325073010803/25/07 07:30:31  5-MIN KDBQ 251330Z AUTO 19009KT 5SM BR OVC055 16/13 A3008 930 86 1300 190/09 RMK AO2 TSNO
94908KDBQ DBQ20070325073510803/25/07 07:35:31  5-MIN KDBQ 251335Z AUTO 19009KT 6SM BR OVC050 16/13 A3008 930 86 1300 190/09 RMK AO2 TSNO
94908KDBQ DBQ20070325074010503/25/07 07:40:31  5-MIN KDBQ 251340Z 20008KT 6SM BR BKN050 OVC070 16/13 A3008 940 86 1300 200/08 RMK AO2
94908KDBQ DBQ20070325074510503/25/07 07:45:31  5-MIN KDBQ 251345Z 20008KT 6SM BR BKN055 OVC070 16/13 A3007 940 86 1300 200/08 RMK AO2
94908KDBQ DBQ20070325075012203/25/07 07:50:31  5-MIN KDBQ 251350Z 20008KT 6SM BR SCT050 OVC065 16/13 A3007 940 86 1300 200/08 RMK AO2 SLP183 T01560133
94908KDBQ DBQ20070325075512203/25/07 07:55:31  5-MIN KDBQ 251355Z 20008KT 6SM BR SCT050 OVC065 16/13 A3007 940 86 1300 200/08 RMK AO2 SLP183 T01560133
94908KDBQ DBQ20070325080010503/25/07 08:00:31  5-MIN KDBQ 251400Z 19008KT 6SM BR FEW050 OVC065 16/13 A3007 940 86 1300 190/08 RMK AO2
94908KDBQ DBQ20070325080509803/25/07 08:05:31  5-MIN KDBQ 251405Z 20007KT 6SM BR OVC070 16/13 A3007 940 86 1300 190/07 RMK AO2
94908KDBQ DBQ20070325081009803/25/07 08:10:31  5-MIN KDBQ 251410Z 19008KT 6SM BR OVC070 16/13 A3007 940 86 1300 190/08 RMK AO2
94908KDBQ DBQ20070325081509803/25/07 08:15:31  5-MIN KDBQ 251415Z 18008KT 6SM HZ BKN070 16/13 A3007 940 83 1300 180/08 RMK AO2
94908KDBQ DBQ20070325082009503/25/07 08:20:31  5-MIN KDBQ 251420Z 20009KT 7SM BKN070 17/14 A3007 940 83 1400 190/09 RMK AO2
94908KDBQ DBQ20070325082509503/25/07 08:25:31  5-MIN KDBQ 251425Z 19009KT 7SM BKN070 17/14 A3007 940 83 1400 180/09 RMK AO2
94908KDBQ DBQ20070325083009503/25/07 08:30:31  5-MIN KDBQ 251430Z 19011KT 7SM SCT075 17/14 A3007 940 80 1500 190/11 RMK AO2
94908KDBQ DBQ20070325083510203/25/07 08:35:31  5-MIN KDBQ 251435Z 19012KT 8SM FEW065 SCT080 18/14 A3007 940 78 1500 190/12 RMK AO2
94908KDBQ DBQ20070325084010203/25/07 08:40:31  5-MIN KDBQ 251440Z 19012KT 8SM SCT065 SCT080 18/14 A3007 940 78 1500 190/12 RMK AO2
94908KDBQ DBQ20070325084510203/25/07 08:45:31  5-MIN KDBQ 251445Z 20012KT 8SM FEW050 SCT060 18/14 A3006 940 75 1600 200/12 RMK AO2
94908KDBQ DBQ20070325085012503/25/07 08:50:31  5-MIN KDBQ 251450Z 19010KT 8SM FEW050 SCT060 18/14 A3007 940 78 1500 190/10 RMK AO2 SLP179 T01780139 56002
94908KDBQ DBQ20070325085512503/25/07 08:55:31  5-MIN KDBQ 251455Z 20012KT 8SM FEW050 BKN060 18/14 A3006 950 75 1600 200/12 RMK AO2 SLP178 T01830139 58009
94908KDBQ DBQ20070325090010203/25/07 09:00:31  5-MIN KDBQ 251500Z 20014KT 8SM FEW050 BKN060 18/13 A3006 950 72 1600 200/14 RMK AO2
94908KDBQ DBQ20070325090510203/25/07 09:05:31  5-MIN KDBQ 251505Z 20015KT 8SM FEW048 BKN060 19/14 A3005 950 70 1700 200/15 RMK AO2
94908KDBQ DBQ20070325091010203/25/07 09:10:31  5-MIN KDBQ 251510Z 20017KT 8SM SCT048 BKN055 19/14 A3005 960 70 1700 200/17 RMK AO2
94908KDBQ DBQ20070325091510203/25/07 09:15:31  5-MIN KDBQ 251515Z 20016KT 7SM FEW047 BKN055 19/13 A3005 960 70 1700 200/16 RMK AO2
94908KDBQ DBQ20070325092010203/25/07 09:20:31  5-MIN KDBQ 251520Z 20016KT 7SM SCT044 OVC055 18/13 A3005 960 72 1600 200/16 RMK AO2
94908KDBQ DBQ20070325092510203/25/07 09:25:31  5-MIN KDBQ 251525Z 20013KT 7SM BKN044 OVC055 19/13 A3005 960 70 1700 190/13 RMK AO2
94908KDBQ DBQ20070325093010203/25/07 09:30:31  5-MIN KDBQ 251530Z 20015KT 7SM BKN044 OVC055 19/13 A3005 960 70 1700 200/15 RMK AO2
94908KDBQ DBQ20070325093510203/25/07 09:35:31  5-MIN KDBQ 251535Z 19014KT 7SM BKN044 OVC055 19/13 A3005 960 67 1700 190/14 RMK AO2
94908KDBQ DBQ20070325094010803/25/07 09:40:31  5-MIN KDBQ 251540Z 21016G21KT 7SM BKN044 OVC050 20/13 A3005 960 65 1800 200/16G21 RMK AO2
94908KDBQ DBQ20070325094509503/25/07 09:45:31  5-MIN KDBQ 251545Z 20018KT 7SM OVC044 19/13 A3004 960 67 1700 200/18 RMK AO2
94908KDBQ DBQ20070325095012603/25/07 09:50:31  5-MIN KDBQ 251550Z 19016KT 7SM BKN044 BKN060 BKN100 19/13 A3004 970 67 1700 190/16 RMK AO2 SLP171 T01940133
94908KDBQ DBQ20070325095512603/25/07 09:55:31  5-MIN KDBQ 251555Z 19018KT 8SM SCT044 BKN060 BKN100 20/13 A3004 970 65 1800 190/18 RMK AO2 SLP170 T02000133
94908KDBQ DBQ20070325100010903/25/07 10:00:31  5-MIN KDBQ 251600Z 19015KT 8SM SCT046 SCT075 BKN100 20/14 A3004 970 67 1800 190/15 RMK AO2
94908KDBQ DBQ20070325100510903/25/07 10:05:31  5-MIN KDBQ 251605Z 19016KT 8SM FEW046 SCT080 BKN095 20/13 A3004 970 65 1800 190/16 RMK AO2
94908KDBQ DBQ20070325101010203/25/07 10:10:31  5-MIN KDBQ 251610Z 20019KT 8SM FEW047 BKN090 20/13 A3003 970 65 1800 200/19 RMK AO2
94908KDBQ DBQ20070325101510203/25/07 10:15:31  5-MIN KDBQ 251615Z 20017KT 8SM FEW065 BKN085 19/13 A3003 980 67 1800 190/17 RMK AO2
94908KDBQ DBQ20070325102010803/25/07 10:20:31  5-MIN KDBQ 251620Z 19016G21KT 8SM FEW065 BKN095 20/13 A3003 980 65 1800 190/16G21 RMK AO2
94908KDBQ DBQ20070325102510803/25/07 10:25:31  5-MIN KDBQ 251625Z 19019G22KT 8SM FEW070 BKN090 20/13 A3003 980 65 1800 190/19G22 RMK AO2
94908KDBQ DBQ20070325103010203/25/07 10:30:31  5-MIN KDBQ 251630Z 19018KT 8SM FEW065 BKN100 20/13 A3003 980 65 1800 190/18 RMK AO2
94908KDBQ DBQ20070325103510203/25/07 10:35:31  5-MIN KDBQ 251635Z 19017KT 8SM FEW065 BKN100 20/13 A3003 980 65 1800 190/17 RMK AO2
94908KDBQ DBQ20070325104010103/25/07 10:40:31  5-MIN KDBQ 251640Z 19016G23KT 9SM SCT100 21/13 A3002 980 63 1900 190/16G23 RMK AO2
94908KDBQ DBQ20070325104509503/25/07 10:45:31  5-MIN KDBQ 251645Z 19016KT 9SM FEW100 20/14 A3002 980 67 1800 190/16 RMK AO2
94908KDBQ DBQ20070325105011803/25/07 10:50:31  5-MIN KDBQ 251650Z 19019G23KT 9SM FEW100 21/14 A3002 990 65 1900 190/19G23 RMK AO2 SLP162 T02060139
94908KDBQ DBQ20070325105511903/25/07 10:55:31  5-MIN KDBQ 251655Z 21020G23KT 10SM FEW110 22/14 A3002 990 61 2000 210/20G23 RMK AO2 SLP163 T02170139
94908KDBQ DBQ20070325110009603/25/07 11:00:31  5-MIN KDBQ 251700Z 21020KT 10SM FEW070 22/14 A3002 990 61 2000 200/20 RMK AO2
94908KDBQ DBQ20070325110510203/25/07 11:05:31  5-MIN KDBQ 251705Z 20021G25KT 10SM FEW070 22/14 A3002 990 59 2100 190/21G25 RMK AO2
94908KDBQ DBQ20070325111012003/25/07 11:10:31  5-MIN KDBQ 251710Z 20022G27KT 10SM FEW070 22/14 A3001 990 59 2100 200/22G27 RMK AO2 PK WND 19027/1710
94908KDBQ DBQ20070325111512003/25/07 11:15:31  5-MIN KDBQ 251715Z 20022G27KT 10SM FEW070 22/14 A3001 990 59 2100 200/22G27 RMK AO2 PK WND 19027/1710
94908KDBQ DBQ20070325112011403/25/07 11:20:31  5-MIN KDBQ 251720Z 20018KT 10SM FEW070 22/14 A3001 990 59 2100 200/18 RMK AO2 PK WND 19027/1710
94908KDBQ DBQ20070325112512103/25/07 11:25:31  5-MIN KDBQ 251725Z 19018G26KT 10SM FEW070 22/14 A3000 1000 59 2100 190/18G26 RMK AO2 PK WND 19027/1710
94908KDBQ DBQ20070325113011803/25/07 11:30:31  5-MIN KDBQ 251730Z 19019G26KT 10SM CLR 23/14 A3000 1000 57 2200 190/19G26 RMK AO2 PK WND 19027/1710
94908KDBQ DBQ20070325113511803/25/07 11:35:31  5-MIN KDBQ 251735Z 20018G24KT 10SM CLR 23/14 A3000 1010 57 2200 200/18G24 RMK AO2 PK WND 19027/1710
94908KDBQ DBQ20070325114011803/25/07 11:40:31  5-MIN KDBQ 251740Z 19021G25KT 10SM CLR 23/14 A2999 1010 59 2200 190/21G25 RMK AO2 PK WND 19027/1710
94908KDBQ DBQ20070325114511803/25/07 11:45:31  5-MIN KDBQ 251745Z 20018G25KT 10SM CLR 23/14 A2999 1010 59 2200 200/18G25 RMK AO2 PK WND 19027/1710
94908KDBQ DBQ20070325115014703/25/07 11:50:31  5-MIN KDBQ 251750Z 20018KT 10SM CLR 23/14 A2999 1010 59 2200 200/18 RMK AO2 PK WND 19027/1710 SLP153 T02280144 10228 20139 58009
94908KDBQ DBQ20070325115514703/25/07 11:55:31  5-MIN KDBQ 251755Z 19018KT 10SM CLR 23/14 A2999 1020 57 2300 190/18 RMK AO2 PK WND 19027/1710 SLP151 T02330144 10233 20139 58024
94908KDBQ DBQ20070325120009403/25/07 12:00:31  5-MIN KDBQ 251800Z 20016KT 10SM CLR 24/14 A2998 1020 55 2300 200/16 RMK AO2
94908KDBQ DBQ20070325120509403/25/07 12:05:31  5-MIN KDBQ 251805Z 19017KT 10SM CLR 24/14 A2998 1020 55 2300 190/17 RMK AO2
94908KDBQ DBQ20070325121009403/25/07 12:10:31  5-MIN KDBQ 251810Z 20020KT 10SM CLR 24/14 A2997 1030 55 2300 200/20 RMK AO2
94908KDBQ DBQ20070325121509403/25/07 12:15:31  5-MIN KDBQ 251815Z 20021KT 10SM CLR 24/14 A2997 1030 55 2300 200/21 RMK AO2
94908KDBQ DBQ20070325122011803/25/07 12:20:31  5-MIN KDBQ 251820Z 20021G26KT 10SM CLR 24/14 A2997 1030 55 2300 200/21G26 RMK AO2 PK WND 20026/1820
94908KDBQ DBQ20070325122511803/25/07 12:25:31  5-MIN KDBQ 251825Z 19020G26KT 10SM CLR 24/14 A2996 1040 51 2400 190/20G26 RMK AO2 PK WND 20026/1820
94908KDBQ DBQ20070325123011803/25/07 12:30:31  5-MIN KDBQ 251830Z 19019G25KT 10SM CLR 24/14 A2996 1040 55 2300 190/19G25 RMK AO2 PK WND 20026/1820
94908KDBQ DBQ20070325123511203/25/07 12:35:31  5-MIN KDBQ 251835Z 20023KT 10SM CLR 24/14 A2996 1040 53 2400 200/23 RMK AO2 PK WND 20026/1834
94908KDBQ DBQ20070325124011803/25/07 12:40:31  5-MIN KDBQ 251840Z 19021G28KT 10SM CLR 24/14 A2995 1050 53 2400 190/21G28 RMK AO2 PK WND 20028/1837
94908KDBQ DBQ20070325124511803/25/07 12:45:31  5-MIN KDBQ 251845Z 20024G28KT 10SM CLR 24/14 A2995 1050 53 2400 200/24G28 RMK AO2 PK WND 20028/1844
94908KDBQ DBQ20070325125013503/25/07 12:50:31  5-MIN KDBQ 251850Z 19023G28KT 10SM CLR 24/14 A2995 1050 53 2400 190/23G28 RMK AO2 PK WND 20028/1846 SLP139 T02440144
94908KDBQ DBQ20070325125513503/25/07 12:55:31  5-MIN KDBQ 251855Z 19020G26KT 10SM CLR 24/14 A2995 1050 53 2400 190/20G26 RMK AO2 PK WND 19028/1852 SLP138 T02440144
94908KDBQ DBQ20070325130011803/25/07 13:00:31  5-MIN KDBQ 251900Z 19024G27KT 10SM CLR 24/15 A2994 1060 55 2400 190/24G27 RMK AO2 PK WND 18027/1858
94908KDBQ DBQ20070325130511803/25/07 13:05:31  5-MIN KDBQ 251905Z 20024G28KT 10SM CLR 24/14 A2994 1060 53 2400 200/24G28 RMK AO2 PK WND 19028/1904
94908KDBQ DBQ20070325131011803/25/07 13:10:31  5-MIN KDBQ 251910Z 19020G28KT 10SM CLR 24/15 A2994 1060 55 2400 190/20G28 RMK AO2 PK WND 19028/1904
94908KDBQ DBQ20070325131511803/25/07 13:15:31  5-MIN KDBQ 251915Z 20023G29KT 10SM CLR 25/15 A2994 1060 53 2500 200/23G29 RMK AO2 PK WND 19029/1913
94908KDBQ DBQ20070325132011803/25/07 13:20:31  5-MIN KDBQ 251920Z 19023G29KT 10SM CLR 24/15 A2994 1060 55 2400 190/23G29 RMK AO2 PK WND 19029/1913
94908KDBQ DBQ20070325132511203/25/07 13:25:31  5-MIN KDBQ 251925Z 19022KT 10SM CLR 25/15 A2993 1070 53 2500 190/22 RMK AO2 PK WND 19029/1913
94908KDBQ DBQ20070325133012103/25/07 13:30:31  5-MIN KDBQ 251930Z 19025G30KT 10SM FEW039 25/15 A2993 1070 53 2500 190/25G30 RMK AO2 PK WND 19030/1930
94908KDBQ DBQ20070325133512103/25/07 13:35:31  5-MIN KDBQ 251935Z 20024G30KT 10SM FEW039 25/15 A2993 1070 53 2500 200/24G30 RMK AO2 PK WND 19030/1930
94908KDBQ DBQ20070325134011803/25/07 13:40:31  5-MIN KDBQ 251940Z 20022G29KT 10SM CLR 24/14 A2993 1070 53 2400 200/22G29 RMK AO2 PK WND 19030/1930
94908KDBQ DBQ20070325134511803/25/07 13:45:31  5-MIN KDBQ 251945Z 20024G27KT 10SM CLR 24/14 A2992 1080 55 2400 200/24G27 RMK AO2 PK WND 19030/1930
94908KDBQ DBQ20070325135012903/25/07 13:50:31  5-MIN KDBQ 251950Z 19021KT 10SM CLR 24/14 A2992 1080 53 2500 190/21 RMK AO2 PK WND 19030/1930 SLP129 T02440144
94908KDBQ DBQ20070325135512903/25/07 13:55:31  5-MIN KDBQ 251955Z 18019KT 10SM CLR 24/15 A2992 1080 57 2400 180/19 RMK AO2 PK WND 19030/1930 SLP127 T02390150
94908KDBQ DBQ20070325140009403/25/07 14:00:31  5-MIN KDBQ 252000Z 20019KT 10SM CLR 24/14 A2992 1080 53 2500 200/19 RMK AO2
94908KDBQ DBQ20070325140511803/25/07 14:05:31  5-MIN KDBQ 252005Z 20022G28KT 10SM CLR 24/14 A2991 1080 53 2500 200/22G28 RMK AO2 PK WND 19028/2002
94908KDBQ DBQ20070325141011803/25/07 14:10:31  5-MIN KDBQ 252010Z 19022G28KT 10SM CLR 24/14 A2991 1080 53 2500 190/22G28 RMK AO2 PK WND 19028/2002
94908KDBQ DBQ20070325141511803/25/07 14:15:31  5-MIN KDBQ 252015Z 19022G28KT 10SM CLR 24/14 A2991 1080 53 2500 190/22G28 RMK AO2 PK WND 19028/2015
94908KDBQ DBQ20070325142011803/25/07 14:20:31  5-MIN KDBQ 252020Z 18021G28KT 10SM CLR 24/14 A2991 1080 53 2500 180/21G28 RMK AO2 PK WND 19028/2015
94908KDBQ DBQ20070325142511803/25/07 14:25:31  5-MIN KDBQ 252025Z 19021G24KT 10SM CLR 24/15 A2991 1090 55 2500 180/21G24 RMK AO2 PK WND 19028/2015
94908KDBQ DBQ20070325143011803/25/07 14:30:31  5-MIN KDBQ 252030Z 20020G26KT 10SM CLR 25/14 A2991 1090 51 2500 200/20G26 RMK AO2 PK WND 19028/2015
94908KDBQ DBQ20070325143511803/25/07 14:35:31  5-MIN KDBQ 252035Z 20023G28KT 10SM CLR 25/14 A2990 1090 51 2500 200/23G28 RMK AO2 PK WND 20028/2034
94908KDBQ DBQ20070325144012103/25/07 14:40:31  5-MIN KDBQ 252040Z 19024G28KT 10SM FEW049 24/14 A2991 1090 53 2500 190/24G28 RMK AO2 PK WND 19028/2039
94908KDBQ DBQ20070325144512103/25/07 14:45:31  5-MIN KDBQ 252045Z 20024G28KT 10SM FEW049 24/14 A2991 1090 53 2500 190/24G28 RMK AO2 PK WND 19028/2045
94908KDBQ DBQ20070325145015103/25/07 14:50:31  5-MIN KDBQ 252050Z 19021G28KT 10SM FEW049 SCT060 24/14 A2990 1090 53 2500 190/21G28 RMK AO2 PK WND 19028/2045 SLP123 T02440144 58024
94908KDBQ DBQ20070325145515103/25/07 14:55:31  5-MIN KDBQ 252055Z 19022G30KT 10SM FEW049 SCT060 24/14 A2990 1090 55 2400 190/22G30 RMK AO2 PK WND 19030/2052 SLP122 T02390144 56027
94908KDBQ DBQ20070325150013503/25/07 15:00:31  5-MIN KDBQ 252100Z 20020G30KT 10SM FEW041 SCT049 SCT060 24/15 A2990 1090 57 2400 190/20G30 RMK AO2 PK WND 19026/2057
94908KDBQ DBQ20070325150513503/25/07 15:05:31  5-MIN KDBQ 252105Z 19023G28KT 10SM FEW041 SCT048 BKN060 24/15 A2990 1100 55 2500 190/23G28 RMK AO2 PK WND 19028/2105
94908KDBQ DBQ20070325151012803/25/07 15:10:31  5-MIN KDBQ 252110Z 19021G28KT 10SM FEW041 SCT060 24/15 A2990 1100 55 2500 180/21G28 RMK AO2 PK WND 19028/2105
94908KDBQ DBQ20070325151512803/25/07 15:15:31  5-MIN KDBQ 252115Z 19022G27KT 10SM FEW043 SCT060 25/15 A2990 1100 53 2500 190/22G27 RMK AO2 PK WND 19028/2105
94908KDBQ DBQ20070325152012803/25/07 15:20:31  5-MIN KDBQ 252120Z 19024G30KT 10SM FEW043 SCT055 24/15 A2990 1100 55 2500 190/24G30 RMK AO2 PK WND 20030/2116
94908KDBQ DBQ20070325152512803/25/07 15:25:31  5-MIN KDBQ 252125Z 19024G30KT 10SM FEW043 SCT055 24/15 A2990 1100 55 2500 190/24G30 RMK AO2 PK WND 20030/2116
94908KDBQ DBQ20070325153012103/25/07 15:30:31  5-MIN KDBQ 252130Z 20024G28KT 10SM FEW043 24/15 A2990 1100 55 2500 200/24G28 RMK AO2 PK WND 20030/2116
94908KDBQ DBQ20070325153512803/25/07 15:35:31  5-MIN KDBQ 252135Z 19022G28KT 10SM FEW042 SCT055 24/15 A2989 1110 57 2400 190/22G28 RMK AO2 PK WND 20030/2116
94908KDBQ DBQ20070325154012803/25/07 15:40:31  5-MIN KDBQ 252140Z 19023G29KT 10SM FEW044 SCT055 24/15 A2989 1110 55 2500 190/23G29 RMK AO2 PK WND 20030/2116
94908KDBQ DBQ20070325154512803/25/07 15:45:31  5-MIN KDBQ 252145Z 19020G29KT 10SM FEW044 SCT055 24/15 A2989 1100 55 2500 190/20G29 RMK AO2 PK WND 20030/2116
94908KDBQ DBQ20070325155014503/25/07 15:50:31  5-MIN KDBQ 252150Z 19022G26KT 10SM FEW045 SCT055 24/15 A2989 1110 57 2400 190/22G26 RMK AO2 PK WND 20030/2116 SLP119 T02390150
94908KDBQ DBQ20070325155514503/25/07 15:55:31  5-MIN KDBQ 252155Z 19020G24KT 10SM FEW043 SCT055 24/15 A2989 1110 57 2400 190/20G24 RMK AO2 PK WND 20030/2116 SLP118 T02390150
94908KDBQ DBQ20070325160010303/25/07 16:00:31  5-MIN KDBQ 252200Z 19017G24KT 10SM FEW046 24/15 A2989 1110 55 2500 190/17G24 RMK AO2
94908KDBQ DBQ20070325160512103/25/07 16:05:31  5-MIN KDBQ 252205Z 19020G27KT 10SM FEW048 24/15 A2988 1110 57 2400 190/20G27 RMK AO2 PK WND 20027/2203
94908KDBQ DBQ20070325161012103/25/07 16:10:31  5-MIN KDBQ 252210Z 19020G27KT 10SM FEW060 24/15 A2988 1110 57 2400 190/20G27 RMK AO2 PK WND 20027/2203
94908KDBQ DBQ20070325161512103/25/07 16:15:31  5-MIN KDBQ 252215Z 19020G25KT 10SM FEW060 24/15 A2988 1120 55 2500 190/20G25 RMK AO2 PK WND 20027/2203
94908KDBQ DBQ20070325162012103/25/07 16:20:31  5-MIN KDBQ 252220Z 20019G26KT 10SM FEW060 24/15 A2988 1120 57 2400 190/19G26 RMK AO2 PK WND 20027/2203
94908KDBQ DBQ20070325162512803/25/07 16:25:31  5-MIN KDBQ 252225Z 20022G28KT 10SM FEW048 SCT060 24/15 A2988 1120 55 2500 200/22G28 RMK AO2 PK WND 20028/2225
94908KDBQ DBQ20070325163012803/25/07 16:30:31  5-MIN KDBQ 252230Z 20023G28KT 10SM FEW046 SCT060 24/15 A2987 1120 55 2500 200/23G28 RMK AO2 PK WND 20028/2229
94908KDBQ DBQ20070325163512803/25/07 16:35:31  5-MIN KDBQ 252235Z 20022G28KT 10SM FEW046 SCT060 24/15 A2988 1120 57 2400 200/22G28 RMK AO2 PK WND 20028/2229
94908KDBQ DBQ20070325164012103/25/07 16:40:31  5-MIN KDBQ 252240Z 20024G28KT 10SM FEW046 24/14 A2987 1120 55 2400 200/24G28 RMK AO2 PK WND 21028/2240
94908KDBQ DBQ20070325164512103/25/07 16:45:31  5-MIN KDBQ 252245Z 21024G28KT 10SM FEW046 24/14 A2987 1120 53 2400 210/24G28 RMK AO2 PK WND 21028/2240
94908KDBQ DBQ20070325165013803/25/07 16:50:31  5-MIN KDBQ 252250Z 20023G27KT 10SM FEW046 24/14 A2987 1130 53 2500 200/23G27 RMK AO2 PK WND 21028/2240 SLP112 T02390139
94908KDBQ DBQ20070325165513503/25/07 16:55:31  5-MIN KDBQ 252255Z 21021G27KT 10SM CLR 24/14 A2987 1130 53 2500 200/21G27 RMK AO2 PK WND 21028/2240 SLP111 T02390139
94908KDBQ DBQ20070325170010003/25/07 17:00:31  5-MIN KDBQ 252300Z 20021G25KT 10SM CLR 24/14 A2987 1130 53 2500 200/21G25 RMK AO2
94908KDBQ DBQ20070325170510003/25/07 17:05:31  5-MIN KDBQ 252305Z 20020G25KT 10SM CLR 24/14 A2987 1130 53 2500 200/20G25 RMK AO2
94908KDBQ DBQ20070325171009403/25/07 17:10:31  5-MIN KDBQ 252310Z 20019KT 10SM CLR 24/14 A2987 1130 53 2500 200/19 RMK AO2
94908KDBQ DBQ20070325171509403/25/07 17:15:31  5-MIN KDBQ 252315Z 20021KT 10SM CLR 23/14 A2987 1130 55 2400 200/21 RMK AO2
94908KDBQ DBQ20070325172009703/25/07 17:20:31  5-MIN KDBQ 252320Z 20017KT 10SM FEW060 23/14 A2987 1120 55 2400 200/17 RMK AO2
94908KDBQ DBQ20070325172512103/25/07 17:25:31  5-MIN KDBQ 252325Z 20021G26KT 10SM FEW060 23/14 A2987 1130 55 2400 200/21G26 RMK AO2 PK WND 19026/2324
94908KDBQ DBQ20070325173011803/25/07 17:30:31  5-MIN KDBQ 252330Z 20017G26KT 10SM CLR 23/14 A2987 1130 59 2300 200/17G26 RMK AO2 PK WND 19026/2324
94908KDBQ DBQ20070325173511203/25/07 17:35:31  5-MIN KDBQ 252335Z 20019KT 10SM CLR 23/14 A2987 1130 59 2300 200/19 RMK AO2 PK WND 19026/2324
94908KDBQ DBQ20070325174011503/25/07 17:40:31  5-MIN KDBQ 252340Z 20019KT 10SM FEW080 23/14 A2986 1130 57 2300 200/19 RMK AO2 PK WND 19026/2324
94908KDBQ DBQ20070325174512103/25/07 17:45:31  5-MIN KDBQ 252345Z 21020G29KT 10SM FEW070 23/14 A2987 1130 57 2300 200/20G29 RMK AO2 PK WND 20029/2341
94908KDBQ DBQ20070325175015603/25/07 17:50:31  5-MIN KDBQ 252350Z 20017G29KT 10SM FEW070 22/14 A2987 1130 59 2300 200/17G29 RMK AO2 PK WND 20029/2341 SLP111 T02220139 10250 20222 56027
94908KDBQ DBQ20070325175515003/25/07 17:55:31  5-MIN KDBQ 252355Z 20018KT 10SM FEW075 23/14 A2987 1130 57 2300 200/18 RMK AO2 PK WND 20029/2341 SLP112 T02280139 10250 20222 55012
94908KDBQ DBQ20070325180009703/25/07 18:00:31  5-MIN KDBQ 260000Z 20017KT 10SM FEW060 22/14 A2987 1130 59 2300 200/17 RMK AO2
94908KDBQ DBQ20070325180509703/25/07 18:05:31  5-MIN KDBQ 260005Z 20015KT 10SM FEW060 22/14 A2987 1120 59 2300 190/15 RMK AO2
94908KDBQ DBQ20070325181009703/25/07 18:10:31  5-MIN KDBQ 260010Z 20015KT 10SM FEW060 22/14 A2987 1120 61 2200 200/15 RMK AO2
94908KDBQ DBQ20070325181510303/25/07 18:15:31  5-MIN KDBQ 260015Z 20018G23KT 10SM FEW060 22/14 A2987 1130 61 2300 200/18G23 RMK AO2
94908KDBQ DBQ20070325182010303/25/07 18:20:31  5-MIN KDBQ 260020Z 20017G24KT 10SM FEW060 22/14 A2986 1130 61 2300 200/17G24 RMK AO2
94908KDBQ DBQ20070325182510303/25/07 18:25:31  5-MIN KDBQ 260025Z 20021G25KT 10SM FEW060 22/14 A2986 1130 63 2200 200/21G25 RMK AO2
94908KDBQ DBQ20070325183010303/25/07 18:30:31  5-MIN KDBQ 260030Z 20021G25KT 10SM FEW065 22/14 A2986 1130 63 2200 200/21G25 RMK AO2
94908KDBQ DBQ20070325183509703/25/07 18:35:31  5-MIN KDBQ 260035Z 20020KT 10SM FEW050 22/14 A2987 1130 63 2200 200/20 RMK AO2
94908KDBQ DBQ20070325184009703/25/07 18:40:31  5-MIN KDBQ 260040Z 20018KT 10SM FEW060 22/14 A2987 1130 63 2200 200/18 RMK AO2
94908KDBQ DBQ20070325184509703/25/07 18:45:31  5-MIN KDBQ 260045Z 20021KT 10SM FEW060 21/14 A2986 1130 65 2100 200/21 RMK AO2
94908KDBQ DBQ20070325185013503/25/07 18:50:31  5-MIN KDBQ 260050Z 20022G29KT 10SM CLR 22/14 A2986 1130 63 2200 200/22G29 RMK AO2 PK WND 21029/0048 SLP109 T02170144
94908KDBQ DBQ20070325185513503/25/07 18:55:31  5-MIN KDBQ 260055Z 21022G29KT 10SM CLR 22/14 A2986 1130 63 2200 200/22G29 RMK AO2 PK WND 21029/0048 SLP110 T02170144
94908KDBQ DBQ20070325190011803/25/07 19:00:31  5-MIN KDBQ 260100Z 21021G29KT 10SM CLR 21/14 A2986 1130 65 2100 210/21G29 RMK AO2 PK WND 21029/0059
94908KDBQ DBQ20070325190512803/25/07 19:05:31  5-MIN KDBQ 260105Z AUTO 21022G29KT 10SM CLR 21/14 A2987 1130 65 2100 200/22G29 RMK AO2 PK WND 21029/0059 TSNO
94908KDBQ DBQ20070325191012203/25/07 19:10:31  5-MIN KDBQ 260110Z AUTO 20021KT 10SM CLR 21/14 A2987 1130 65 2100 200/21 RMK AO2 PK WND 21029/0059 TSNO
94908KDBQ DBQ20070325191512203/25/07 19:15:31  5-MIN KDBQ 260115Z AUTO 20021KT 10SM CLR 21/14 A2987 1130 65 2100 200/21 RMK AO2 PK WND 21029/0059 TSNO
94908KDBQ DBQ20070325192012803/25/07 19:20:31  5-MIN KDBQ 260120Z AUTO 20023G29KT 10SM CLR 21/14 A2987 1130 65 2100 200/23G29 RMK AO2 PK WND 20029/0119 TSNO
94908KDBQ DBQ20070325192512803/25/07 19:25:31  5-MIN KDBQ 260125Z AUTO 21020G29KT 10SM CLR 21/14 A2987 1130 65 2100 200/20G29 RMK AO2 PK WND 20029/0119 TSNO
94908KDBQ DBQ20070325193012203/25/07 19:30:31  5-MIN KDBQ 260130Z AUTO 20018KT 10SM CLR 21/14 A2987 1120 67 2100 200/18 RMK AO2 PK WND 20029/0119 TSNO
94908KDBQ DBQ20070325193512803/25/07 19:35:31  5-MIN KDBQ 260135Z AUTO 20021G25KT 10SM CLR 21/14 A2987 1130 67 2100 200/21G25 RMK AO2 PK WND 20029/0119 TSNO
94908KDBQ DBQ20070325194012803/25/07 19:40:31  5-MIN KDBQ 260140Z AUTO 20020G25KT 10SM CLR 21/14 A2987 1120 67 2100 200/20G25 RMK AO2 PK WND 20029/0119 TSNO
94908KDBQ DBQ20070325194512803/25/07 19:45:31  5-MIN KDBQ 260145Z AUTO 20019G25KT 10SM CLR 21/14 A2987 1120 67 2100 200/19G25 RMK AO2 PK WND 20029/0119 TSNO
94908KDBQ DBQ20070325195013903/25/07 19:50:31  5-MIN KDBQ 260150Z AUTO 20016KT 10SM CLR 21/14 A2988 1120 67 2100 200/16 RMK AO2 PK WND 20029/0119 SLP114 T02060144 TSNO
94908KDBQ DBQ20070325195514503/25/07 19:55:31  5-MIN KDBQ 260155Z AUTO 20017G23KT 10SM CLR 21/14 A2987 1120 67 2100 200/17G23 RMK AO2 PK WND 20029/0119 SLP113 T02060144 TSNO
94908KDBQ DBQ20070325200010403/25/07 20:00:31  5-MIN KDBQ 260200Z AUTO 20018KT 10SM CLR 20/14 A2987 1120 70 2000 200/18 RMK AO2 TSNO
94908KDBQ DBQ20070325200510403/25/07 20:05:31  5-MIN KDBQ 260205Z AUTO 20019KT 10SM CLR 21/14 A2987 1120 67 2100 200/19 RMK AO2 TSNO
94908KDBQ DBQ20070325201010403/25/07 20:10:31  5-MIN KDBQ 260210Z AUTO 20020KT 10SM CLR 21/14 A2987 1120 67 2100 200/20 RMK AO2 TSNO
94908KDBQ DBQ20070325201511003/25/07 20:15:31  5-MIN KDBQ 260215Z AUTO 20018G25KT 10SM CLR 20/14 A2987 1120 70 2000 200/18G25 RMK AO2 TSNO
94908KDBQ DBQ20070325202011003/25/07 20:20:31  5-MIN KDBQ 260220Z AUTO 20018G25KT 10SM CLR 20/14 A2987 1120 70 2000 200/18G25 RMK AO2 TSNO
94908KDBQ DBQ20070325202510403/25/07 20:25:31  5-MIN KDBQ 260225Z AUTO 20017KT 10SM CLR 20/14 A2987 1120 70 2000 200/17 RMK AO2 TSNO
94908KDBQ DBQ20070325203011003/25/07 20:30:31  5-MIN KDBQ 260230Z AUTO 20020G25KT 10SM CLR 20/14 A2987 1120 70 2000 200/20G25 RMK AO2 TSNO
94908KDBQ DBQ20070325203511003/25/07 20:35:31  5-MIN KDBQ 260235Z AUTO 20020G25KT 10SM CLR 20/14 A2987 1120 70 2000 200/20G25 RMK AO2 TSNO
94908KDBQ DBQ20070325204012803/25/07 20:40:31  5-MIN KDBQ 260240Z AUTO 21021G27KT 10SM CLR 20/14 A2987 1130 70 2000 210/21G27 RMK AO2 PK WND 20027/0238 TSNO
94908KDBQ DBQ20070325204512803/25/07 20:45:31  5-MIN KDBQ 260245Z AUTO 21019G27KT 10SM CLR 20/14 A2987 1130 70 2000 210/19G27 RMK AO2 PK WND 20027/0238 TSNO
94908KDBQ DBQ20070325205015103/25/07 20:50:31  5-MIN KDBQ 260250Z AUTO 21023G28KT 10SM CLR 20/14 A2987 1120 70 2000 210/23G28 RMK AO2 PK WND 21028/0249 SLP112 T02000144 55012 TSNO
94908KDBQ DBQ20070325205515103/25/07 20:55:31  5-MIN KDBQ 260255Z AUTO 20019G28KT 10SM CLR 20/14 A2988 1120 70 2000 200/19G28 RMK AO2 PK WND 21028/0249 SLP112 T02000144 53002 TSNO
94908KDBQ DBQ20070325210010403/25/07 21:00:31  5-MIN KDBQ 260300Z AUTO 20020KT 10SM CLR 20/14 A2988 1120 70 2000 200/20 RMK AO2 TSNO
94908KDBQ DBQ20070325210510403/25/07 21:05:31  5-MIN KDBQ 260305Z AUTO 20021KT 10SM CLR 20/14 A2987 1120 70 2000 200/21 RMK AO2 TSNO
94908KDBQ DBQ20070325211010403/25/07 21:10:31  5-MIN KDBQ 260310Z AUTO 20020KT 10SM CLR 20/14 A2987 1120 70 2000 200/20 RMK AO2 TSNO
94908KDBQ DBQ20070325211510403/25/07 21:15:31  5-MIN KDBQ 260315Z AUTO 20019KT 10SM CLR 20/14 A2988 1120 70 2000 200/19 RMK AO2 TSNO
94908KDBQ DBQ20070325212010403/25/07 21:20:31  5-MIN KDBQ 260320Z AUTO 20017KT 10SM CLR 19/14 A2988 1120 72 1900 200/17 RMK AO2 TSNO
94908KDBQ DBQ20070325212510403/25/07 21:25:31  5-MIN KDBQ 260325Z AUTO 20019KT 10SM CLR 19/14 A2988 1120 72 1900 200/19 RMK AO2 TSNO
94908KDBQ DBQ20070325213012803/25/07 21:30:31  5-MIN KDBQ 260330Z AUTO 20020G26KT 10SM CLR 19/14 A2988 1120 72 1900 200/20G26 RMK AO2 PK WND 21026/0328 TSNO
94908KDBQ DBQ20070325213512803/25/07 21:35:31  5-MIN KDBQ 260335Z AUTO 21020G26KT 10SM CLR 19/14 A2988 1120 72 1900 200/20G26 RMK AO2 PK WND 21026/0328 TSNO
94908KDBQ DBQ20070325214012203/25/07 21:40:31  5-MIN KDBQ 260340Z AUTO 21019KT 10SM CLR 19/14 A2988 1120 72 1900 210/19 RMK AO2 PK WND 21026/0328 TSNO
94908KDBQ DBQ20070325214512803/25/07 21:45:31  5-MIN KDBQ 260345Z AUTO 21020G26KT 10SM CLR 19/14 A2988 1120 72 1900 210/20G26 RMK AO2 PK WND 21026/0345 TSNO
94908KDBQ DBQ20070325215014503/25/07 21:50:31  5-MIN KDBQ 260350Z AUTO 21019G26KT 10SM CLR 19/14 A2988 1120 72 1900 210/19G26 RMK AO2 PK WND 21026/0345 SLP114 T01940144 TSNO
94908KDBQ DBQ20070325215513903/25/07 21:55:31  5-MIN KDBQ 260355Z AUTO 21020KT 10SM CLR 19/14 A2988 1110 72 1900 210/20 RMK AO2 PK WND 21026/0345 SLP115 T01940144 TSNO
94908KDBQ DBQ20070325220012803/25/07 22:00:31  5-MIN KDBQ 260400Z AUTO 21019G28KT 10SM CLR 19/14 A2988 1120 72 1900 210/19G28 RMK AO2 PK WND 20028/0357 TSNO
94908KDBQ DBQ20070325220512803/25/07 22:05:31  5-MIN KDBQ 260405Z AUTO 21017G28KT 10SM CLR 19/14 A2988 1120 72 1900 210/17G28 RMK AO2 PK WND 20028/0357 TSNO
94908KDBQ DBQ20070325221012803/25/07 22:10:31  5-MIN KDBQ 260410Z AUTO 21018G27KT 10SM CLR 19/14 A2988 1120 72 1900 210/18G27 RMK AO2 PK WND 20028/0357 TSNO
94908KDBQ DBQ20070325221512803/25/07 22:15:31  5-MIN KDBQ 260415Z AUTO 21020G26KT 10SM CLR 19/14 A2988 1110 75 1900 210/20G26 RMK AO2 PK WND 20028/0357 TSNO
94908KDBQ DBQ20070325222012803/25/07 22:20:31  5-MIN KDBQ 260420Z AUTO 21020G24KT 10SM CLR 19/14 A2988 1110 75 1900 210/20G24 RMK AO2 PK WND 20028/0357 TSNO
94908KDBQ DBQ20070325222512803/25/07 22:25:31  5-MIN KDBQ 260425Z AUTO 21018G25KT 10SM CLR 19/14 A2988 1110 75 1900 210/18G25 RMK AO2 PK WND 20028/0357 TSNO
94908KDBQ DBQ20070325223012803/25/07 22:30:31  5-MIN KDBQ 260430Z AUTO 21018G25KT 10SM CLR 19/14 A2988 1110 75 1900 210/18G25 RMK AO2 PK WND 20028/0357 TSNO
94908KDBQ DBQ20070325223512203/25/07 22:35:31  5-MIN KDBQ 260435Z AUTO 21018KT 10SM CLR 19/14 A2989 1110 75 1900 210/18 RMK AO2 PK WND 20028/0357 TSNO
94908KDBQ DBQ20070325224012803/25/07 22:40:31  5-MIN KDBQ 260440Z AUTO 21022G25KT 10SM CLR 19/14 A2989 1110 75 1900 210/22G25 RMK AO2 PK WND 20028/0357 TSNO
94908KDBQ DBQ20070325224512803/25/07 22:45:31  5-MIN KDBQ 260445Z AUTO 21018G25KT 10SM CLR 19/14 A2989 1110 75 1900 210/18G25 RMK AO2 PK WND 20028/0357 TSNO
94908KDBQ DBQ20070325225013903/25/07 22:50:31  5-MIN KDBQ 260450Z AUTO 22018KT 10SM CLR 19/14 A2989 1110 75 1900 210/18 RMK AO2 PK WND 20028/0357 SLP118 T01890144 TSNO
94908KDBQ DBQ20070325225514503/25/07 22:55:31  5-MIN KDBQ 260455Z AUTO 21019G24KT 10SM CLR 19/14 A2989 1110 75 1900 210/19G24 RMK AO2 PK WND 20028/0357 SLP116 T01890144 TSNO
94908KDBQ DBQ20070325230011003/25/07 23:00:31  5-MIN KDBQ 260500Z AUTO 21018G25KT 10SM CLR 19/14 A2989 1110 75 1900 210/18G25 RMK AO2 TSNO
94908KDBQ DBQ20070325230511003/25/07 23:05:31  5-MIN KDBQ 260505Z AUTO 21020G25KT 10SM CLR 18/14 A2989 1110 78 1800 210/20G25 RMK AO2 TSNO
94908KDBQ DBQ20070325231011003/25/07 23:10:31  5-MIN KDBQ 260510Z AUTO 21015G24KT 10SM CLR 18/14 A2989 1110 78 1800 210/15G24 RMK AO2 TSNO
94908KDBQ DBQ20070325231511003/25/07 23:15:31  5-MIN KDBQ 260515Z AUTO 21018G25KT 10SM CLR 18/14 A2989 1110 78 1800 210/18G25 RMK AO2 TSNO
94908KDBQ DBQ20070325232011003/25/07 23:20:31  5-MIN KDBQ 260520Z AUTO 21017G25KT 10SM CLR 18/14 A2989 1100 78 1800 210/17G25 RMK AO2 TSNO
94908KDBQ DBQ20070325232510403/25/07 23:25:31  5-MIN KDBQ 260525Z AUTO 21017KT 10SM CLR 18/14 A2989 1100 78 1800 210/17 RMK AO2 TSNO
94908KDBQ DBQ20070325233010403/25/07 23:30:31  5-MIN KDBQ 260530Z AUTO 21016KT 10SM CLR 18/14 A2989 1100 78 1800 210/16 RMK AO2 TSNO
94908KDBQ DBQ20070325233511003/25/07 23:35:31  5-MIN KDBQ 260535Z AUTO 22019G24KT 10SM CLR 18/14 A2990 1100 75 1800 210/19G24 RMK AO2 TSNO
94908KDBQ DBQ20070325234011003/25/07 23:40:31  5-MIN KDBQ 260540Z AUTO 22017G24KT 10SM CLR 18/14 A2990 1100 75 1800 220/17G24 RMK AO2 TSNO
94908KDBQ DBQ20070325234510403/25/07 23:45:31  5-MIN KDBQ 260545Z AUTO 22016KT 10SM CLR 18/14 A2990 1100 75 1800 220/16 RMK AO2 TSNO
94908KDBQ DBQ20070325235014903/25/07 23:50:31  5-MIN KDBQ 260550Z AUTO 22017KT 10SM CLR 18/14 A2990 1100 75 1800 220/17 RMK AO2 SLP120 T01830139 10228 20183 402500133 53002 TSNO
94908KDBQ DBQ20070325235514903/25/07 23:55:31  5-MIN KDBQ 260555Z AUTO 22017KT 10SM CLR 18/14 A2990 1100 75 1800 220/17 RMK AO2 SLP121 T01830139 10228 20183 402500133 53009 TSNO
94908KDBQ DBQ20070326000011003/26/07 00:00:38  5-MIN KDBQ 260600Z AUTO 22013G21KT 10SM CLR 18/14 A2990 1090 75 1800 220/13G21 RMK AO2 TSNO
94908KDBQ DBQ20070326000511003/26/07 00:05:31  5-MIN KDBQ 260605Z AUTO 22015G21KT 10SM CLR 18/14 A2991 1090 75 1800 220/15G21 RMK AO2 TSNO
94908KDBQ DBQ20070326001010403/26/07 00:10:31  5-MIN KDBQ 260610Z AUTO 22016KT 10SM CLR 18/14 A2991 1090 75 1800 220/16 RMK AO2 TSNO
94908KDBQ DBQ20070326001510403/26/07 00:15:33  5-MIN KDBQ 260615Z AUTO 23015KT 10SM CLR 18/14 A2991 1090 75 1800 230/15 RMK AO2 TSNO
94908KDBQ DBQ20070326002010703/26/07 00:20:31  5-MIN KDBQ 260620Z AUTO 23014KT 10SM FEW065 18/14 A2991 1090 78 1700 230/14 RMK AO2 TSNO
94908KDBQ DBQ20070326002511303/26/07 00:25:31  5-MIN KDBQ 260625Z AUTO 23015G21KT 10SM FEW065 18/14 A2991 1090 78 1700 230/15G21 RMK AO2 TSNO
94908KDBQ DBQ20070326003011303/26/07 00:30:31  5-MIN KDBQ 260630Z AUTO 23014G21KT 10SM FEW065 18/14 A2991 1090 78 1700 230/14G21 RMK AO2 TSNO
94908KDBQ DBQ20070326003510703/26/07 00:35:31  5-MIN KDBQ 260635Z AUTO 23012KT 10SM FEW065 18/14 A2991 1080 78 1700 230/12 RMK AO2 TSNO
94908KDBQ DBQ20070326004010703/26/07 00:40:31  5-MIN KDBQ 260640Z AUTO 23012KT 10SM FEW035 17/14 A2991 1090 80 1600 230/12 RMK AO2 TSNO
94908KDBQ DBQ20070326004511403/26/07 00:45:31  5-MIN KDBQ 260645Z AUTO 23011KT 10SM FEW035 SCT065 18/14 A2991 1090 78 1700 230/11 RMK AO2 TSNO
94908KDBQ DBQ20070326005012403/26/07 00:50:31  5-MIN KDBQ 260650Z AUTO 23012KT 10SM FEW035 17/14 A2991 1090 80 1600 230/12 RMK AO2 SLP124 T01720139 TSNO
94908KDBQ DBQ20070326005512403/26/07 00:55:31  5-MIN KDBQ 260655Z AUTO 23014KT 10SM FEW035 17/14 A2991 1090 80 1600 230/14 RMK AO2 SLP124 T01720139 TSNO
94908KDBQ DBQ20070326010010703/26/07 01:00:31  5-MIN KDBQ 260700Z AUTO 23012KT 10SM FEW035 17/14 A2991 1090 80 1600 230/12 RMK AO2 TSNO
94908KDBQ DBQ20070326010510703/26/07 01:05:31  5-MIN KDBQ 260705Z AUTO 22012KT 10SM FEW035 17/13 A2991 1080 78 1600 220/12 RMK AO2 TSNO
94908KDBQ DBQ20070326011010703/26/07 01:10:31  5-MIN KDBQ 260710Z AUTO 22012KT 10SM FEW075 17/13 A2991 1080 78 1600 220/12 RMK AO2 TSNO
94908KDBQ DBQ20070326011510703/26/07 01:15:31  5-MIN KDBQ 260715Z AUTO 22011KT 10SM FEW075 17/13 A2991 1090 78 1600 220/11 RMK AO2 TSNO
94908KDBQ DBQ20070326012010703/26/07 01:20:31  5-MIN KDBQ 260720Z AUTO 22012KT 10SM FEW080 17/13 A2991 1080 78 1600 220/12 RMK AO2 TSNO
94908KDBQ DBQ20070326012510703/26/07 01:25:31  5-MIN KDBQ 260725Z AUTO 22012KT 10SM FEW075 17/13 A2991 1080 78 1600 220/12 RMK AO2 TSNO
94908KDBQ DBQ20070326013010403/26/07 01:30:31  5-MIN KDBQ 260730Z AUTO 22012KT 10SM CLR 17/13 A2991 1080 78 1600 220/12 RMK AO2 TSNO
94908KDBQ DBQ20070326013510403/26/07 01:35:31  5-MIN KDBQ 260735Z AUTO 23010KT 10SM CLR 17/13 A2991 1080 78 1600 220/10 RMK AO2 TSNO
94908KDBQ DBQ20070326014010403/26/07 01:40:31  5-MIN KDBQ 260740Z AUTO 23011KT 10SM CLR 17/13 A2991 1080 78 1600 230/11 RMK AO2 TSNO
94908KDBQ DBQ20070326014510403/26/07 01:45:31  5-MIN KDBQ 260745Z AUTO 23011KT 10SM CLR 17/13 A2991 1080 80 1600 230/11 RMK AO2 TSNO
94908KDBQ DBQ20070326015012103/26/07 01:50:31  5-MIN KDBQ 260750Z AUTO 23010KT 10SM CLR 17/13 A2991 1090 80 1600 230/10 RMK AO2 SLP124 T01670133 TSNO
94908KDBQ DBQ20070326015512103/26/07 01:55:31  5-MIN KDBQ 260755Z AUTO 23011KT 10SM CLR 17/13 A2991 1090 80 1600 230/11 RMK AO2 SLP124 T01670133 TSNO
94908KDBQ DBQ20070326020010703/26/07 02:00:31  5-MIN KDBQ 260800Z AUTO 22012KT 10SM FEW080 17/13 A2991 1090 80 1600 220/12 RMK AO2 TSNO
94908KDBQ DBQ20070326020510703/26/07 02:05:31  5-MIN KDBQ 260805Z AUTO 23010KT 10SM FEW080 17/13 A2991 1090 80 1600 230/10 RMK AO2 TSNO
94908KDBQ DBQ20070326021010703/26/07 02:10:31  5-MIN KDBQ 260810Z AUTO 23012KT 10SM SCT075 17/13 A2991 1090 80 1600 230/12 RMK AO2 TSNO
94908KDBQ DBQ20070326021510703/26/07 02:15:31  5-MIN KDBQ 260815Z AUTO 23011KT 10SM BKN080 17/13 A2991 1090 78 1600 230/11 RMK AO2 TSNO
94908KDBQ DBQ20070326022010703/26/07 02:20:31  5-MIN KDBQ 260820Z AUTO 23011KT 10SM BKN080 17/13 A2991 1090 80 1600 230/11 RMK AO2 TSNO
94908KDBQ DBQ20070326022510703/26/07 02:25:31  5-MIN KDBQ 260825Z AUTO 22012KT 10SM BKN080 17/13 A2991 1090 80 1600 220/12 RMK AO2 TSNO
94908KDBQ DBQ20070326023010703/26/07 02:30:31  5-MIN KDBQ 260830Z AUTO 22013KT 10SM BKN080 17/13 A2991 1090 78 1600 220/13 RMK AO2 TSNO
94908KDBQ DBQ20070326023510703/26/07 02:35:31  5-MIN KDBQ 260835Z AUTO 22012KT 10SM OVC080 17/13 A2991 1090 78 1600 220/12 RMK AO2 TSNO
94908KDBQ DBQ20070326024010703/26/07 02:40:31  5-MIN KDBQ 260840Z AUTO 22012KT 10SM OVC085 17/13 A2991 1090 78 1600 220/12 RMK AO2 TSNO
94908KDBQ DBQ20070326024510703/26/07 02:45:31  5-MIN KDBQ 260845Z AUTO 22013KT 10SM OVC085 17/14 A2991 1090 80 1600 220/13 RMK AO2 TSNO
94908KDBQ DBQ20070326025013003/26/07 02:50:31  5-MIN KDBQ 260850Z AUTO 23011KT 10SM OVC090 17/14 A2991 1090 80 1600 230/11 RMK AO2 SLP123 T01720139 53009 TSNO
94908KDBQ DBQ20070326025513003/26/07 02:55:31  5-MIN KDBQ 260855Z AUTO 23013KT 10SM OVC085 17/13 A2991 1090 78 1600 230/13 RMK AO2 SLP123 T01720133 50002 TSNO
94908KDBQ DBQ20070326030010703/26/07 03:00:31  5-MIN KDBQ 260900Z AUTO 23012KT 10SM BKN090 17/13 A2991 1090 78 1600 230/12 RMK AO2 TSNO
94908KDBQ DBQ20070326030510703/26/07 03:05:31  5-MIN KDBQ 260905Z AUTO 23013KT 10SM BKN090 17/13 A2991 1080 78 1600 230/13 RMK AO2 TSNO
94908KDBQ DBQ20070326031010703/26/07 03:10:31  5-MIN KDBQ 260910Z AUTO 24012KT 10SM SCT090 17/13 A2991 1090 80 1600 240/12 RMK AO2 TSNO
94908KDBQ DBQ20070326031510703/26/07 03:15:31  5-MIN KDBQ 260915Z AUTO 23011KT 10SM FEW090 17/13 A2991 1090 80 1600 230/11 RMK AO2 TSNO
94908KDBQ DBQ20070326032010703/26/07 03:20:31  5-MIN KDBQ 260920Z AUTO 23011KT 10SM FEW090 17/13 A2991 1090 80 1600 230/11 RMK AO2 TSNO
94908KDBQ DBQ20070326032510403/26/07 03:25:31  5-MIN KDBQ 260925Z AUTO 23012KT 10SM CLR 17/13 A2991 1090 80 1600 230/12 RMK AO2 TSNO
94908KDBQ DBQ20070326033010403/26/07 03:30:31  5-MIN KDBQ 260930Z AUTO 24010KT 10SM CLR 17/13 A2991 1080 80 1600 240/10 RMK AO2 TSNO
94908KDBQ DBQ20070326033510403/26/07 03:35:31  5-MIN KDBQ 260935Z AUTO 23011KT 10SM CLR 16/13 A2991 1080 83 1500 230/11 RMK AO2 TSNO
94908KDBQ DBQ20070326034010403/26/07 03:40:31  5-MIN KDBQ 260940Z AUTO 23011KT 10SM CLR 16/13 A2992 1080 83 1500 230/11 RMK AO2 TSNO
94908KDBQ DBQ20070326034510403/26/07 03:45:31  5-MIN KDBQ 260945Z AUTO 23011KT 10SM CLR 16/13 A2992 1080 83 1500 230/11 RMK AO2 TSNO
94908KDBQ DBQ20070326035012103/26/07 03:50:31  5-MIN KDBQ 260950Z AUTO 23010KT 10SM CLR 16/13 A2992 1080 83 1500 230/10 RMK AO2 SLP127 T01610133 TSNO
94908KDBQ DBQ20070326035512103/26/07 03:55:31  5-MIN KDBQ 260955Z AUTO 23010KT 10SM CLR 16/13 A2992 1080 83 1500 230/10 RMK AO2 SLP127 T01610133 TSNO
94908KDBQ DBQ20070326040010403/26/07 04:00:31  5-MIN KDBQ 261000Z AUTO 24010KT 10SM CLR 16/13 A2992 1080 86 1400 240/10 RMK AO2 TSNO
94908KDBQ DBQ20070326040510403/26/07 04:05:31  5-MIN KDBQ 261005Z AUTO 24009KT 10SM CLR 16/13 A2992 1080 86 1400 240/09 RMK AO2 TSNO
94908KDBQ DBQ20070326041010403/26/07 04:10:31  5-MIN KDBQ 261010Z AUTO 24009KT 10SM CLR 16/13 A2992 1080 86 1400 230/09 RMK AO2 TSNO
94908KDBQ DBQ20070326041510403/26/07 04:15:31  5-MIN KDBQ 261015Z AUTO 23009KT 10SM CLR 16/13 A2992 1080 86 1400 230/09 RMK AO2 TSNO
94908KDBQ DBQ20070326042010403/26/07 04:20:31  5-MIN KDBQ 261020Z AUTO 23009KT 10SM CLR 16/13 A2992 1080 86 1400 230/09 RMK AO2 TSNO
94908KDBQ DBQ20070326042510403/26/07 04:25:31  5-MIN KDBQ 261025Z AUTO 23008KT 10SM CLR 16/13 A2992 1070 86 1400 230/08 RMK AO2 TSNO
94908KDBQ DBQ20070326043010403/26/07 04:30:31  5-MIN KDBQ 261030Z AUTO 23008KT 10SM CLR 15/13 A2992 1070 90 1400 230/08 RMK AO2 TSNO
94908KDBQ DBQ20070326043510403/26/07 04:35:31  5-MIN KDBQ 261035Z AUTO 23009KT 10SM CLR 15/13 A2993 1070 90 1400 230/09 RMK AO2 TSNO
94908KDBQ DBQ20070326044010403/26/07 04:40:31  5-MIN KDBQ 261040Z AUTO 23009KT 10SM CLR 15/13 A2993 1070 86 1400 220/09 RMK AO2 TSNO
94908KDBQ DBQ20070326044510303/26/07 04:45:31  5-MIN KDBQ 261045Z AUTO 23009KT 9SM CLR 15/13 A2992 1070 90 1400 220/09 RMK AO2 TSNO
94908KDBQ DBQ20070326045012003/26/07 04:50:31  5-MIN KDBQ 261050Z AUTO 22009KT 9SM CLR 15/13 A2992 1070 86 1400 220/09 RMK AO2 SLP129 T01500128 TSNO
94908KDBQ DBQ20070326045511003/26/07 04:55:31  5-MIN KDBQ 261055Z 22009KT 9SM CLR 14/13 A2992 1080 90 1300 220/09 RMK AO2 SLP129 T01440128
94908KDBQ DBQ20070326050009303/26/07 05:00:31  5-MIN KDBQ 261100Z 22009KT 9SM CLR 14/13 A2993 1070 90 1300 220/09 RMK AO2
94908KDBQ DBQ20070326050509303/26/07 05:05:31  5-MIN KDBQ 261105Z 22009KT 9SM CLR 14/13 A2993 1070 90 1300 220/09 RMK AO2
94908KDBQ DBQ20070326051009303/26/07 05:10:31  5-MIN KDBQ 261110Z 22008KT 9SM CLR 14/13 A2993 1070 90 1300 220/08 RMK AO2
94908KDBQ DBQ20070326051509303/26/07 05:15:31  5-MIN KDBQ 261115Z 22008KT 9SM CLR 14/13 A2993 1070 90 1300 220/08 RMK AO2
94908KDBQ DBQ20070326052009303/26/07 05:20:31  5-MIN KDBQ 261120Z 22007KT 9SM CLR 14/13 A2993 1070 90 1300 220/07 RMK AO2
94908KDBQ DBQ20070326052509303/26/07 05:25:31  5-MIN KDBQ 261125Z 23007KT 9SM CLR 14/13 A2993 1070 93 1200 220/07 RMK AO2
94908KDBQ DBQ20070326053009303/26/07 05:30:31  5-MIN KDBQ 261130Z 23007KT 8SM CLR 14/13 A2993 1070 93 1200 230/07 RMK AO2
94908KDBQ DBQ20070326053509303/26/07 05:35:31  5-MIN KDBQ 261135Z 22007KT 8SM CLR 14/12 A2993 1070 90 1200 220/07 RMK AO2
94908KDBQ DBQ20070326054009303/26/07 05:40:31  5-MIN KDBQ 261140Z 23007KT 8SM CLR 14/12 A2993 1070 90 1200 220/07 RMK AO2
94908KDBQ DBQ20070326054509303/26/07 05:45:31  5-MIN KDBQ 261145Z 22007KT 8SM CLR 14/12 A2993 1070 90 1200 220/07 RMK AO2
94908KDBQ DBQ20070326055012803/26/07 05:50:31  5-MIN KDBQ 261150Z 22007KT 8SM CLR 14/12 A2993 1070 90 1200 220/07 RMK AO2 SLP133 T01390122 10183 20139 50002
94908KDBQ DBQ20070326055512803/26/07 05:55:31  5-MIN KDBQ 261155Z 22007KT 7SM CLR 14/12 A2993 1070 90 1200 220/07 RMK AO2 SLP133 T01390122 10183 20139 51007
94908KDBQ DBQ20070326060009603/26/07 06:00:31  5-MIN KDBQ 261200Z 22007KT 6SM BR CLR 14/12 A2993 1070 90 1200 220/07 RMK AO2
94908KDBQ DBQ20070326060509603/26/07 06:05:31  5-MIN KDBQ 261205Z 22007KT 6SM BR CLR 13/12 A2993 1070 93 1200 220/07 RMK AO2
94908KDBQ DBQ20070326061009603/26/07 06:10:31  5-MIN KDBQ 261210Z 22007KT 6SM BR CLR 13/12 A2993 1070 93 1200 220/07 RMK AO2
94908KDBQ DBQ20070326061509603/26/07 06:15:31  5-MIN KDBQ 261215Z 22008KT 6SM BR CLR 13/12 A2993 1070 93 1200 220/08 RMK AO2
94908KDBQ DBQ20070326062009603/26/07 06:20:31  5-MIN KDBQ 261220Z 22007KT 6SM BR CLR 13/12 A2993 1070 93 1200 220/07 RMK AO2
94908KDBQ DBQ20070326062509603/26/07 06:25:31  5-MIN KDBQ 261225Z 22007KT 6SM BR CLR 14/13 A2994 1060 93 1200 220/07 RMK AO2
94908KDBQ DBQ20070326063009603/26/07 06:30:31  5-MIN KDBQ 261230Z 22008KT 6SM BR CLR 14/13 A2994 1060 93 1200 220/08 RMK AO2
94908KDBQ DBQ20070326063509603/26/07 06:35:31  5-MIN KDBQ 261235Z 22008KT 6SM BR CLR 14/13 A2994 1060 93 1200 220/08 RMK AO2
94908KDBQ DBQ20070326064009603/26/07 06:40:31  5-MIN KDBQ 261240Z 22008KT 6SM BR CLR 14/13 A2994 1060 90 1300 220/08 RMK AO2
94908KDBQ DBQ20070326064509603/26/07 06:45:31  5-MIN KDBQ 261245Z 22009KT 6SM BR CLR 14/13 A2994 1060 90 1300 220/09 RMK AO2
94908KDBQ DBQ20070326065011003/26/07 06:50:31  5-MIN KDBQ 261250Z 22009KT 7SM CLR 14/13 A2994 1060 93 1300 220/09 RMK AO2 SLP135 T01440133
94908KDBQ DBQ20070326065511003/26/07 06:55:31  5-MIN KDBQ 261255Z 22008KT 7SM CLR 15/13 A2994 1060 90 1400 220/08 RMK AO2 SLP134 T01500133
94908KDBQ DBQ20070326070009303/26/07 07:00:31  5-MIN KDBQ 261300Z 22008KT 7SM CLR 15/13 A2994 1060 90 1300 220/08 RMK AO2
94908KDBQ DBQ20070326070509303/26/07 07:05:31  5-MIN KDBQ 261305Z 22009KT 7SM CLR 15/13 A2994 1060 90 1300 220/09 RMK AO2
94908KDBQ DBQ20070326071009303/26/07 07:10:31  5-MIN KDBQ 261310Z 22010KT 7SM CLR 15/13 A2994 1060 90 1300 220/10 RMK AO2
94908KDBQ DBQ20070326071509303/26/07 07:15:31  5-MIN KDBQ 261315Z 22010KT 7SM CLR 15/13 A2994 1060 90 1300 220/10 RMK AO2
94908KDBQ DBQ20070326072009303/26/07 07:20:31  5-MIN KDBQ 261320Z 22009KT 7SM CLR 16/14 A2994 1060 90 1400 220/09 RMK AO2
94908KDBQ DBQ20070326072509303/26/07 07:25:31  5-MIN KDBQ 261325Z 23009KT 7SM CLR 16/14 A2994 1060 90 1400 220/09 RMK AO2
94908KDBQ DBQ20070326073009303/26/07 07:30:31  5-MIN KDBQ 261330Z 23009KT 8SM CLR 16/14 A2994 1060 86 1500 220/09 RMK AO2
94908KDBQ DBQ20070326073509303/26/07 07:35:31  5-MIN KDBQ 261335Z 23009KT 8SM CLR 16/14 A2995 1050 86 1500 230/09 RMK AO2
94908KDBQ DBQ20070326074009303/26/07 07:40:31  5-MIN KDBQ 261340Z 23009KT 8SM CLR 16/14 A2995 1050 86 1500 230/09 RMK AO2
94908KDBQ DBQ20070326074509303/26/07 07:45:31  5-MIN KDBQ 261345Z 23010KT 8SM CLR 16/14 A2995 1060 86 1500 230/10 RMK AO2
94908KDBQ DBQ20070326075011003/26/07 07:50:31  5-MIN KDBQ 261350Z 23011KT 8SM CLR 17/14 A2994 1060 86 1500 230/11 RMK AO2 SLP137 T01670144
94908KDBQ DBQ20070326075511003/26/07 07:55:31  5-MIN KDBQ 261355Z 23011KT 9SM CLR 17/14 A2994 1060 86 1500 230/11 RMK AO2 SLP137 T01670144
94908KDBQ DBQ20070326080009303/26/07 08:00:31  5-MIN KDBQ 261400Z 23010KT 9SM CLR 17/14 A2994 1060 86 1500 220/10 RMK AO2
94908KDBQ DBQ20070326080509303/26/07 08:05:31  5-MIN KDBQ 261405Z 23010KT 9SM CLR 17/14 A2994 1060 86 1500 230/10 RMK AO2
94908KDBQ DBQ20070326081009303/26/07 08:10:31  5-MIN KDBQ 261410Z 23010KT 9SM CLR 17/14 A2994 1060 83 1600 230/10 RMK AO2
94908KDBQ DBQ20070326081509303/26/07 08:15:31  5-MIN KDBQ 261415Z 23012KT 9SM CLR 18/14 A2994 1060 81 1700 230/12 RMK AO2
94908KDBQ DBQ20070326082009303/26/07 08:20:31  5-MIN KDBQ 261420Z 23013KT 9SM CLR 18/15 A2995 1050 81 1700 230/13 RMK AO2
94908KDBQ DBQ20070326082509403/26/07 08:25:31  5-MIN KDBQ 261425Z 24012KT 10SM CLR 18/15 A2994 1060 81 1700 240/12 RMK AO2
94908KDBQ DBQ20070326083009403/26/07 08:30:31  5-MIN KDBQ 261430Z 24012KT 10SM CLR 18/14 A2994 1060 78 1700 240/12 RMK AO2
94908KDBQ DBQ20070326083509403/26/07 08:35:31  5-MIN KDBQ 261435Z 24015KT 10SM CLR 18/15 A2994 1060 81 1700 240/15 RMK AO2
94908KDBQ DBQ20070326084009403/26/07 08:40:31  5-MIN KDBQ 261440Z 24013KT 10SM CLR 19/15 A2994 1060 78 1800 240/13 RMK AO2
94908KDBQ DBQ20070326084509403/26/07 08:45:31  5-MIN KDBQ 261445Z 24017KT 10SM CLR 19/15 A2994 1060 78 1800 240/17 RMK AO2
94908KDBQ DBQ20070326085011703/26/07 08:50:31  5-MIN KDBQ 261450Z 25014KT 10SM CLR 19/15 A2994 1060 78 1800 250/14 RMK AO2 SLP136 T01890150 51007
94908KDBQ DBQ20070326085511703/26/07 08:55:31  5-MIN KDBQ 261455Z 25015KT 10SM CLR 19/15 A2994 1060 75 1900 240/15 RMK AO2 SLP135 T01940150 50003
94908KDBQ DBQ20070326090009403/26/07 09:00:31  5-MIN KDBQ 261500Z 24014KT 10SM CLR 19/15 A2994 1060 75 1900 240/14 RMK AO2
94908KDBQ DBQ20070326090509403/26/07 09:05:31  5-MIN KDBQ 261505Z 24013KT 10SM CLR 19/15 A2994 1060 75 1900 240/13 RMK AO2
94908KDBQ DBQ20070326091009403/26/07 09:10:31  5-MIN KDBQ 261510Z 25014KT 10SM CLR 20/16 A2994 1060 75 1900 250/14 RMK AO2
94908KDBQ DBQ20070326091509403/26/07 09:15:31  5-MIN KDBQ 261515Z 25015KT 10SM CLR 20/15 A2995 1050 72 1900 240/15 RMK AO2
94908KDBQ DBQ20070326092009403/26/07 09:20:31  5-MIN KDBQ 261520Z 26014KT 10SM CLR 20/15 A2995 1050 72 1900 260/14 RMK AO2
94908KDBQ DBQ20070326092509403/26/07 09:25:31  5-MIN KDBQ 261525Z 25014KT 10SM CLR 21/16 A2995 1050 73 2000 250/14 RMK AO2
94908KDBQ DBQ20070326094509403/26/07 09:45:31  5-MIN KDBQ 261545Z 25013KT 10SM CLR 21/16 A2995 1050 70 2000 250/13 RMK AO2
94908KDBQ DBQ20070326095011103/26/07 09:50:31  5-MIN KDBQ 261550Z 23015KT 10SM CLR 21/16 A2995 1050 70 2000 230/15 RMK AO2 SLP137 T02110156
94908KDBQ DBQ20070326095511103/26/07 09:55:31  5-MIN KDBQ 261555Z 23013KT 10SM CLR 21/16 A2995 1050 70 2000 230/13 RMK AO2 SLP137 T02110156
94908KDBQ DBQ20070326100009403/26/07 10:00:31  5-MIN KDBQ 261600Z 24013KT 10SM CLR 21/16 A2995 1050 70 2000 240/13 RMK AO2
94908KDBQ DBQ20070326100509403/26/07 10:05:31  5-MIN KDBQ 261605Z 24012KT 10SM CLR 21/15 A2995 1060 68 2000 240/12 RMK AO2
94908KDBQ DBQ20070326101009403/26/07 10:10:31  5-MIN KDBQ 261610Z 23012KT 10SM CLR 21/15 A2995 1050 68 2000 230/12 RMK AO2
94908KDBQ DBQ20070326101509403/26/07 10:15:31  5-MIN KDBQ 261615Z 23013KT 10SM CLR 22/16 A2995 1050 68 2100 230/13 RMK AO2
94908KDBQ DBQ20070326102009403/26/07 10:20:31  5-MIN KDBQ 261620Z 23011KT 10SM CLR 22/16 A2995 1050 68 2100 230/11 RMK AO2
94908KDBQ DBQ20070326102509403/26/07 10:25:31  5-MIN KDBQ 261625Z 21014KT 10SM CLR 22/15 A2995 1050 65 2100 210/14 RMK AO2
94908KDBQ DBQ20070326103009403/26/07 10:30:31  5-MIN KDBQ 261630Z 23013KT 10SM CLR 22/16 A2995 1050 68 2100 230/13 RMK AO2
94908KDBQ DBQ20070326103509403/26/07 10:35:31  5-MIN KDBQ 261635Z 24013KT 10SM CLR 22/16 A2995 1050 68 2100 240/13 RMK AO2
94908KDBQ DBQ20070326104009403/26/07 10:40:31  5-MIN KDBQ 261640Z 23012KT 10SM CLR 22/16 A2995 1050 65 2200 230/12 RMK AO2
94908KDBQ DBQ20070326104509403/26/07 10:45:31  5-MIN KDBQ 261645Z 23012KT 10SM CLR 22/16 A2995 1050 65 2200 230/12 RMK AO2
94908KDBQ DBQ20070326105011103/26/07 10:50:31  5-MIN KDBQ 261650Z 21012KT 10SM CLR 22/16 A2995 1050 65 2200 210/12 RMK AO2 SLP136 T02220156
94908KDBQ DBQ20070326105511103/26/07 10:55:31  5-MIN KDBQ 261655Z 21013KT 10SM CLR 22/15 A2995 1050 63 2200 210/13 RMK AO2 SLP136 T02220150
94908KDBQ DBQ20070326110009403/26/07 11:00:31  5-MIN KDBQ 261700Z 22014KT 10SM CLR 22/15 A2995 1050 63 2200 220/14 RMK AO2
94908KDBQ DBQ20070326110509403/26/07 11:05:31  5-MIN KDBQ 261705Z 22012KT 10SM CLR 22/16 A2995 1050 65 2200 220/12 RMK AO2
94908KDBQ DBQ20070326111009403/26/07 11:10:31  5-MIN KDBQ 261710Z 23014KT 10SM CLR 22/15 A2995 1050 63 2200 230/14 RMK AO2
94908KDBQ DBQ20070326111509403/26/07 11:15:31  5-MIN KDBQ 261715Z 23014KT 10SM CLR 23/15 A2994 1060 61 2200 220/14 RMK AO2
94908KDBQ DBQ20070326112009403/26/07 11:20:31  5-MIN KDBQ 261720Z 23011KT 10SM CLR 23/15 A2994 1060 61 2200 230/11 RMK AO2
94908KDBQ DBQ20070326112509403/26/07 11:25:31  5-MIN KDBQ 261725Z 24012KT 10SM CLR 23/15 A2994 1060 61 2200 240/12 RMK AO2
94908KDBQ DBQ20070326113009403/26/07 11:30:31  5-MIN KDBQ 261730Z 21012KT 10SM CLR 23/16 A2994 1060 61 2300 200/12 RMK AO2
94908KDBQ DBQ20070326113509403/26/07 11:35:31  5-MIN KDBQ 261735Z 23013KT 10SM CLR 23/15 A2994 1060 59 2300 230/13 RMK AO2
94908KDBQ DBQ20070326114009403/26/07 11:40:31  5-MIN KDBQ 261740Z 22011KT 10SM CLR 23/14 A2994 1060 57 2300 220/11 RMK AO2
94908KDBQ DBQ20070326114509403/26/07 11:45:31  5-MIN KDBQ 261745Z 24011KT 10SM CLR 23/14 A2994 1060 57 2300 230/11 RMK AO2
94908KDBQ DBQ20070326115012903/26/07 11:50:31  5-MIN KDBQ 261750Z 23009KT 10SM CLR 23/15 A2994 1060 59 2300 230/09 RMK AO2 SLP134 T02330150 10233 20133 50003
94908KDBQ DBQ20070326115513503/26/07 11:55:31  5-MIN KDBQ 261755Z 23013G17KT 10SM CLR 24/15 A2994 1060 57 2400 230/13G17 RMK AO2 SLP132 T02390150 10239 20133 58002
94908KDBQ DBQ20070326120010003/26/07 12:00:31  5-MIN KDBQ 261800Z 24010G17KT 10SM CLR 24/15 A2994 1060 57 2400 240/10G17 RMK AO2
94908KDBQ DBQ20070326120509403/26/07 12:05:31  5-MIN KDBQ 261805Z 24014KT 10SM CLR 24/15 A2993 1070 57 2400 240/14 RMK AO2
94908KDBQ DBQ20070326121009403/26/07 12:10:31  5-MIN KDBQ 261810Z 23011KT 10SM CLR 24/14 A2993 1070 55 2400 230/11 RMK AO2
94908KDBQ DBQ20070326121509403/26/07 12:15:31  5-MIN KDBQ 261815Z 25011KT 10SM CLR 24/14 A2993 1070 53 2400 250/11 RMK AO2
94908KDBQ DBQ20070326122009403/26/07 12:20:31  5-MIN KDBQ 261820Z 19011KT 10SM CLR 24/15 A2994 1060 55 2400 190/11 RMK AO2
94908KDBQ DBQ20070326122509403/26/07 12:25:31  5-MIN KDBQ 261825Z 19012KT 10SM CLR 24/15 A2994 1060 55 2400 190/12 RMK AO2
94908KDBQ DBQ20070326123009403/26/07 12:30:31  5-MIN KDBQ 261830Z 24011KT 10SM CLR 24/15 A2993 1070 55 2400 240/11 RMK AO2
94908KDBQ DBQ20070326123509403/26/07 12:35:31  5-MIN KDBQ 261835Z 22012KT 10SM CLR 24/15 A2994 1060 55 2400 220/12 RMK AO2
94908KDBQ DBQ20070326124009403/26/07 12:40:31  5-MIN KDBQ 261840Z 21012KT 10SM CLR 24/15 A2994 1060 55 2400 210/12 RMK AO2
94908KDBQ DBQ20070326124509403/26/07 12:45:31  5-MIN KDBQ 261845Z 22012KT 10SM CLR 25/15 A2994 1060 53 2500 220/12 RMK AO2
94908KDBQ DBQ20070326125011103/26/07 12:50:31  5-MIN KDBQ 261850Z 21014KT 10SM CLR 25/15 A2993 1070 53 2500 210/14 RMK AO2 SLP131 T02500150
94908KDBQ DBQ20070326125512003/26/07 12:55:31  5-MIN KDBQ 261855Z 21013G18KT 10SM FEW037 25/15 A2993 1070 53 2500 210/13G18 RMK AO2 SLP132 T02500150
94908KDBQ DBQ20070326130009703/26/07 13:00:31  5-MIN KDBQ 261900Z 20013KT 10SM FEW037 25/15 A2994 1060 53 2500 200/13 RMK AO2
94908KDBQ DBQ20070326130510303/26/07 13:05:31  5-MIN KDBQ 261905Z 21016G23KT 10SM FEW037 25/15 A2994 1060 53 2500 210/16G23 RMK AO2
94908KDBQ DBQ20070326131010303/26/07 13:10:31  5-MIN KDBQ 261910Z 19016G23KT 10SM SCT037 25/15 A2993 1070 53 2500 190/16G23 RMK AO2
94908KDBQ DBQ20070326131510303/26/07 13:15:31  5-MIN KDBQ 261915Z 23013G23KT 10SM FEW037 25/15 A2993 1070 53 2500 230/13G23 RMK AO2
94908KDBQ DBQ20070326132010303/26/07 13:20:31  5-MIN KDBQ 261920Z 21013G23KT 10SM FEW037 25/15 A2993 1070 53 2500 210/13G23 RMK AO2
94908KDBQ DBQ20070326132509703/26/07 13:25:31  5-MIN KDBQ 261925Z 22012KT 10SM FEW037 25/15 A2993 1070 53 2500 220/12 RMK AO2
94908KDBQ DBQ20070326133009703/26/07 13:30:31  5-MIN KDBQ 261930Z 22015KT 10SM FEW037 26/15 A2992 1080 51 2600 220/15 RMK AO2
94908KDBQ DBQ20070326133510303/26/07 13:35:31  5-MIN KDBQ 261935Z 20014G19KT 10SM FEW037 25/15 A2992 1080 53 2500 200/14G19 RMK AO2
94908KDBQ DBQ20070326134010303/26/07 13:40:31  5-MIN KDBQ 261940Z 21016G19KT 10SM FEW047 25/15 A2992 1070 53 2500 210/16G19 RMK AO2
94908KDBQ DBQ20070326134510303/26/07 13:45:31  5-MIN KDBQ 261945Z 23013G19KT 10SM FEW045 26/14 A2992 1080 49 2600 230/13G19 RMK AO2
94908KDBQ DBQ20070326135012003/26/07 13:50:31  5-MIN KDBQ 261950Z 24016G20KT 10SM FEW045 26/14 A2992 1080 48 2600 240/16G20 RMK AO2 SLP126 T02610144
94908KDBQ DBQ20070326135512003/26/07 13:55:31  5-MIN KDBQ 261955Z 22018G21KT 10SM SCT045 26/14 A2992 1080 49 2600 220/18G21 RMK AO2 SLP127 T02560144
94908KDBQ DBQ20070326140010303/26/07 14:00:31  5-MIN KDBQ 262000Z 21013G21KT 10SM SCT045 24/14 A2992 1080 53 2500 210/13G21 RMK AO2
94908KDBQ DBQ20070326140509703/26/07 14:05:31  5-MIN KDBQ 262005Z 21016KT 10SM SCT043 26/15 A2992 1080 51 2600 210/16 RMK AO2
94908KDBQ DBQ20070326141010303/26/07 14:10:31  5-MIN KDBQ 262010Z 20015G22KT 10SM SCT043 25/15 A2992 1080 53 2500 200/15G22 RMK AO2
94908KDBQ DBQ20070326141511003/26/07 14:15:31  5-MIN KDBQ 262015Z 22017G22KT 10SM FEW041 SCT049 25/15 A2992 1080 53 2500 220/17G22 RMK AO2
94908KDBQ DBQ20070326142009703/26/07 14:20:31  5-MIN KDBQ 262020Z 22017KT 10SM FEW043 25/14 A2992 1080 51 2500 220/17 RMK AO2
94908KDBQ DBQ20070326142509703/26/07 14:25:31  5-MIN KDBQ 262025Z 22015KT 10SM FEW043 24/14 A2992 1080 53 2500 220/15 RMK AO2
94908KDBQ DBQ20070326143009703/26/07 14:30:31  5-MIN KDBQ 262030Z 22019KT 10SM FEW043 26/14 A2991 1080 49 2600 220/19 RMK AO2
94908KDBQ DBQ20070326143510303/26/07 14:35:31  5-MIN KDBQ 262035Z 23015G21KT 10SM FEW043 25/14 A2991 1090 51 2500 230/15G21 RMK AO2
94908KDBQ DBQ20070326144009403/26/07 14:40:31  5-MIN KDBQ 262040Z 23017KT 10SM CLR 26/14 A2991 1090 49 2600 230/17 RMK AO2
94908KDBQ DBQ20070326144509403/26/07 14:45:31  5-MIN KDBQ 262045Z 23018KT 10SM CLR 25/14 A2991 1090 49 2500 230/18 RMK AO2
94908KDBQ DBQ20070326145011703/26/07 14:50:31  5-MIN KDBQ 262050Z 23015KT 10SM CLR 25/13 A2992 1080 48 2500 230/15 RMK AO2 SLP126 T02500133 58002
94908KDBQ DBQ20070326145512003/26/07 14:55:31  5-MIN KDBQ 262055Z 23015KT 10SM FEW048 24/14 A2991 1080 51 2500 230/15 RMK AO2 SLP125 T02440139 58007
94908KDBQ DBQ20070326150009703/26/07 15:00:31  5-MIN KDBQ 262100Z 24017KT 10SM FEW048 24/14 A2991 1080 51 2500 240/17 RMK AO2
94908KDBQ DBQ20070326150509703/26/07 15:05:31  5-MIN KDBQ 262105Z 22015KT 10SM FEW048 24/14 A2991 1090 53 2500 220/15 RMK AO2
94908KDBQ DBQ20070326151009703/26/07 15:10:31  5-MIN KDBQ 262110Z 23016KT 10SM FEW045 24/14 A2991 1090 53 2500 230/16 RMK AO2
94908KDBQ DBQ20070326151509703/26/07 15:15:31  5-MIN KDBQ 262115Z 23016KT 10SM FEW045 25/14 A2992 1080 51 2500 230/16 RMK AO2
94908KDBQ DBQ20070326152009703/26/07 15:20:31  5-MIN KDBQ 262120Z 22014KT 10SM FEW045 24/14 A2992 1080 55 2400 220/14 RMK AO2
94908KDBQ DBQ20070326152509703/26/07 15:25:31  5-MIN KDBQ 262125Z 22015KT 10SM SCT049 25/15 A2991 1090 53 2500 220/15 RMK AO2
94908KDBQ DBQ20070326153009703/26/07 15:30:31  5-MIN KDBQ 262130Z 23017KT 10SM SCT049 24/14 A2992 1080 53 2500 230/17 RMK AO2
94908KDBQ DBQ20070326153510303/26/07 15:35:31  5-MIN KDBQ 262135Z 23016G21KT 10SM FEW049 24/14 A2992 1080 53 2500 230/16G21 RMK AO2
94908KDBQ DBQ20070326154010303/26/07 15:40:31  5-MIN KDBQ 262140Z 23018G21KT 10SM FEW049 24/14 A2992 1080 53 2500 230/18G21 RMK AO2
94908KDBQ DBQ20070326154509703/26/07 15:45:31  5-MIN KDBQ 262145Z 21015KT 10SM FEW049 24/14 A2992 1080 53 2500 210/15 RMK AO2
94908KDBQ DBQ20070326155011403/26/07 15:50:31  5-MIN KDBQ 262150Z 23015KT 10SM FEW049 24/15 A2992 1080 55 2500 230/15 RMK AO2 SLP127 T02440150
94908KDBQ DBQ20070326155511103/26/07 15:55:31  5-MIN KDBQ 262155Z 23015KT 10SM CLR 24/14 A2992 1080 55 2400 230/15 RMK AO2 SLP129 T02390144
94908KDBQ DBQ20070326160010003/26/07 16:00:31  5-MIN KDBQ 262200Z 20018G21KT 10SM CLR 24/15 A2992 1070 57 2400 200/18G21 RMK AO2
94908KDBQ DBQ20070326160509403/26/07 16:05:31  5-MIN KDBQ 262205Z 22014KT 10SM CLR 24/15 A2993 1070 57 2400 210/14 RMK AO2
94908KDBQ DBQ20070326161009403/26/07 16:10:31  5-MIN KDBQ 262210Z 22015KT 10SM CLR 24/15 A2992 1070 57 2400 220/15 RMK AO2
94908KDBQ DBQ20070326161509403/26/07 16:15:31  5-MIN KDBQ 262215Z 23013KT 10SM CLR 24/15 A2993 1070 57 2400 220/13 RMK AO2
94908KDBQ DBQ20070326162009403/26/07 16:20:31  5-MIN KDBQ 262220Z 22015KT 10SM CLR 23/15 A2992 1070 59 2300 220/15 RMK AO2
94908KDBQ DBQ20070326162509403/26/07 16:25:31  5-MIN KDBQ 262225Z 23012KT 10SM CLR 23/15 A2993 1070 59 2300 230/12 RMK AO2
94908KDBQ DBQ20070326163009403/26/07 16:30:31  5-MIN KDBQ 262230Z 22017KT 10SM CLR 23/15 A2992 1070 59 2300 220/17 RMK AO2
94908KDBQ DBQ20070326163509403/26/07 16:35:31  5-MIN KDBQ 262235Z 22016KT 10SM CLR 23/15 A2992 1080 59 2300 220/16 RMK AO2
94908KDBQ DBQ20070326164009403/26/07 16:40:31  5-MIN KDBQ 262240Z 23016KT 10SM CLR 23/15 A2992 1070 59 2300 230/16 RMK AO2
94908KDBQ DBQ20070326164509403/26/07 16:45:31  5-MIN KDBQ 262245Z 23017KT 10SM CLR 23/15 A2992 1080 61 2300 230/17 RMK AO2
94908KDBQ DBQ20070326165011103/26/07 16:50:31  5-MIN KDBQ 262250Z 23015KT 10SM CLR 23/14 A2992 1080 59 2300 220/15 RMK AO2 SLP129 T02280144
94908KDBQ DBQ20070326165511103/26/07 16:55:31  5-MIN KDBQ 262255Z 23016KT 10SM CLR 23/14 A2992 1080 59 2300 230/16 RMK AO2 SLP128 T02280144
94908KDBQ DBQ20070326170009403/26/07 17:00:31  5-MIN KDBQ 262300Z 22015KT 10SM CLR 23/14 A2992 1080 59 2300 220/15 RMK AO2
94908KDBQ DBQ20070326170509403/26/07 17:05:31  5-MIN KDBQ 262305Z 23013KT 10SM CLR 23/14 A2992 1080 59 2300 230/13 RMK AO2
94908KDBQ DBQ20070326171009403/26/07 17:10:31  5-MIN KDBQ 262310Z 22011KT 10SM CLR 23/14 A2992 1080 59 2300 220/11 RMK AO2
94908KDBQ DBQ20070326171509403/26/07 17:15:31  5-MIN KDBQ 262315Z 22012KT 10SM CLR 23/14 A2993 1070 59 2300 220/12 RMK AO2
94908KDBQ DBQ20070326172009403/26/07 17:20:31  5-MIN KDBQ 262320Z 23013KT 10SM CLR 23/14 A2993 1070 59 2300 220/13 RMK AO2
94908KDBQ DBQ20070326172509403/26/07 17:25:31  5-MIN KDBQ 262325Z 22011KT 10SM CLR 23/14 A2992 1080 59 2300 220/11 RMK AO2
94908KDBQ DBQ20070326173009403/26/07 17:30:31  5-MIN KDBQ 262330Z 22011KT 10SM CLR 22/14 A2993 1070 61 2200 220/11 RMK AO2
94908KDBQ DBQ20070326173509403/26/07 17:35:31  5-MIN KDBQ 262335Z 22011KT 10SM CLR 22/14 A2993 1070 61 2200 220/11 RMK AO2
94908KDBQ DBQ20070326174009403/26/07 17:40:31  5-MIN KDBQ 262340Z 22012KT 10SM CLR 22/14 A2993 1070 61 2200 220/12 RMK AO2
94908KDBQ DBQ20070326174509403/26/07 17:45:31  5-MIN KDBQ 262345Z 21011KT 10SM CLR 22/14 A2993 1070 61 2200 210/11 RMK AO2
94908KDBQ DBQ20070326175012903/26/07 17:50:31  5-MIN KDBQ 262350Z 22011KT 10SM CLR 22/14 A2993 1070 61 2200 210/11 RMK AO2 SLP133 T02220144 10261 20222 58007
94908KDBQ DBQ20070326175512903/26/07 17:55:31  5-MIN KDBQ 262355Z 21010KT 10SM CLR 22/14 A2993 1070 63 2100 210/10 RMK AO2 SLP133 T02170144 10261 20217 53006
94908KDBQ DBQ20070326180009403/26/07 18:00:31  5-MIN KDBQ 270000Z 22010KT 10SM CLR 22/14 A2993 1070 63 2100 220/10 RMK AO2
94908KDBQ DBQ20070326180509403/26/07 18:05:31  5-MIN KDBQ 270005Z 22010KT 10SM CLR 22/14 A2993 1070 61 2100 210/10 RMK AO2
94908KDBQ DBQ20070326181009403/26/07 18:10:31  5-MIN KDBQ 270010Z 21011KT 10SM CLR 21/14 A2993 1070 63 2100 210/11 RMK AO2
94908KDBQ DBQ20070326181509403/26/07 18:15:31  5-MIN KDBQ 270015Z 21010KT 10SM CLR 21/14 A2993 1070 63 2100 210/10 RMK AO2
94908KDBQ DBQ20070326182009403/26/07 18:20:31  5-MIN KDBQ 270020Z 21010KT 10SM CLR 21/14 A2993 1070 65 2000 210/10 RMK AO2
94908KDBQ DBQ20070326182509403/26/07 18:25:31  5-MIN KDBQ 270025Z 21010KT 10SM CLR 21/14 A2993 1070 65 2000 210/10 RMK AO2
94908KDBQ DBQ20070326183009403/26/07 18:30:31  5-MIN KDBQ 270030Z 21010KT 10SM CLR 20/14 A2994 1060 67 1900 210/10 RMK AO2
94908KDBQ DBQ20070326183509403/26/07 18:35:31  5-MIN KDBQ 270035Z 21010KT 10SM CLR 20/14 A2994 1060 67 1900 210/10 RMK AO2
94908KDBQ DBQ20070326184009403/26/07 18:40:31  5-MIN KDBQ 270040Z 20011KT 10SM CLR 19/14 A2994 1060 70 1900 200/11 RMK AO2
94908KDBQ DBQ20070326184509403/26/07 18:45:31  5-MIN KDBQ 270045Z 20011KT 10SM CLR 19/14 A2994 1060 70 1900 200/11 RMK AO2
94908KDBQ DBQ20070326185011103/26/07 18:50:31  5-MIN KDBQ 270050Z 20010KT 10SM CLR 19/14 A2994 1060 70 1900 200/10 RMK AO2 SLP135 T01940139
94908KDBQ DBQ20070326185512103/26/07 18:55:31  5-MIN KDBQ 270055Z AUTO 21010KT 10SM CLR 19/14 A2994 1060 72 1800 210/10 RMK AO2 SLP136 T01890139 TSNO
94908KDBQ DBQ20070326190010403/26/07 19:00:31  5-MIN KDBQ 270100Z AUTO 21010KT 10SM CLR 19/14 A2994 1060 72 1800 210/10 RMK AO2 TSNO
94908KDBQ DBQ20070326190510403/26/07 19:05:31  5-MIN KDBQ 270105Z AUTO 22010KT 10SM CLR 19/14 A2994 1060 70 1900 210/10 RMK AO2 TSNO
94908KDBQ DBQ20070326191010403/26/07 19:10:31  5-MIN KDBQ 270110Z AUTO 22009KT 10SM CLR 19/14 A2995 1050 72 1800 210/09 RMK AO2 TSNO
94908KDBQ DBQ20070326191510403/26/07 19:15:31  5-MIN KDBQ 270115Z AUTO 21009KT 10SM CLR 19/14 A2995 1050 72 1800 210/09 RMK AO2 TSNO
94908KDBQ DBQ20070326192010403/26/07 19:20:31  5-MIN KDBQ 270120Z AUTO 22010KT 10SM CLR 19/14 A2995 1050 72 1800 210/10 RMK AO2 TSNO
94908KDBQ DBQ20070326192510403/26/07 19:25:31  5-MIN KDBQ 270125Z AUTO 21010KT 10SM CLR 19/14 A2995 1050 72 1800 210/10 RMK AO2 TSNO
94908KDBQ DBQ20070326193010403/26/07 19:30:31  5-MIN KDBQ 270130Z AUTO 21010KT 10SM CLR 19/14 A2995 1050 72 1800 210/10 RMK AO2 TSNO
94908KDBQ DBQ20070326193510403/26/07 19:35:31  5-MIN KDBQ 270135Z AUTO 21011KT 10SM CLR 19/14 A2995 1050 72 1800 210/11 RMK AO2 TSNO
94908KDBQ DBQ20070326194010403/26/07 19:40:31  5-MIN KDBQ 270140Z AUTO 21011KT 10SM CLR 19/14 A2995 1050 75 1800 210/11 RMK AO2 TSNO
94908KDBQ DBQ20070326194510403/26/07 19:45:31  5-MIN KDBQ 270145Z AUTO 21012KT 10SM CLR 19/14 A2996 1050 75 1800 210/12 RMK AO2 TSNO
94908KDBQ DBQ20070326195012103/26/07 19:50:31  5-MIN KDBQ 270150Z AUTO 21011KT 10SM CLR 19/14 A2996 1040 75 1800 210/11 RMK AO2 SLP141 T01890144 TSNO
94908KDBQ DBQ20070326195512103/26/07 19:55:31  5-MIN KDBQ 270155Z AUTO 21012KT 10SM CLR 19/14 A2996 1050 75 1800 210/12 RMK AO2 SLP141 T01890144 TSNO
94908KDBQ DBQ20070326200010403/26/07 20:00:31  5-MIN KDBQ 270200Z AUTO 21012KT 10SM CLR 19/14 A2996 1040 75 1800 210/12 RMK AO2 TSNO
94908KDBQ DBQ20070326200510403/26/07 20:05:31  5-MIN KDBQ 270205Z AUTO 21011KT 10SM CLR 19/14 A2996 1040 75 1800 210/11 RMK AO2 TSNO
94908KDBQ DBQ20070326201010403/26/07 20:10:31  5-MIN KDBQ 270210Z AUTO 21012KT 10SM CLR 19/14 A2997 1040 75 1800 210/12 RMK AO2 TSNO
94908KDBQ DBQ20070326201510403/26/07 20:15:31  5-MIN KDBQ 270215Z AUTO 21011KT 10SM CLR 19/14 A2997 1040 75 1800 210/11 RMK AO2 TSNO
94908KDBQ DBQ20070326202010403/26/07 20:20:31  5-MIN KDBQ 270220Z AUTO 21012KT 10SM CLR 19/14 A2997 1030 75 1800 210/12 RMK AO2 TSNO
94908KDBQ DBQ20070326202510403/26/07 20:25:31  5-MIN KDBQ 270225Z AUTO 22012KT 10SM CLR 20/14 A2997 1030 70 1900 210/12 RMK AO2 TSNO
94908KDBQ DBQ20070326203010403/26/07 20:30:31  5-MIN KDBQ 270230Z AUTO 22012KT 10SM CLR 19/14 A2997 1030 75 1800 220/12 RMK AO2 TSNO
94908KDBQ DBQ20070326203510403/26/07 20:35:31  5-MIN KDBQ 270235Z AUTO 21011KT 10SM CLR 19/14 A2997 1030 75 1800 210/11 RMK AO2 TSNO
94908KDBQ DBQ20070326204010403/26/07 20:40:31  5-MIN KDBQ 270240Z AUTO 21010KT 10SM CLR 19/14 A2998 1030 75 1800 210/10 RMK AO2 TSNO
94908KDBQ DBQ20070326204510403/26/07 20:45:31  5-MIN KDBQ 270245Z AUTO 21010KT 10SM CLR 18/14 A2998 1030 78 1700 210/10 RMK AO2 TSNO
94908KDBQ DBQ20070326205012703/26/07 20:50:31  5-MIN KDBQ 270250Z AUTO 22010KT 10SM CLR 18/14 A2998 1030 78 1700 220/10 RMK AO2 SLP148 T01830144 53006 TSNO
94908KDBQ DBQ20070326205512703/26/07 20:55:31  5-MIN KDBQ 270255Z AUTO 22009KT 10SM CLR 18/14 A2998 1020 78 1700 220/09 RMK AO2 SLP149 T01830144 53015 TSNO
94908KDBQ DBQ20070326210010403/26/07 21:00:31  5-MIN KDBQ 270300Z AUTO 22009KT 10SM CLR 18/14 A2998 1020 78 1700 220/09 RMK AO2 TSNO
94908KDBQ DBQ20070326210510403/26/07 21:05:31  5-MIN KDBQ 270305Z AUTO 21009KT 10SM CLR 18/14 A2998 1020 78 1700 210/09 RMK AO2 TSNO
94908KDBQ DBQ20070326211010403/26/07 21:10:31  5-MIN KDBQ 270310Z AUTO 21009KT 10SM CLR 18/14 A2998 1020 78 1600 210/09 RMK AO2 TSNO
94908KDBQ DBQ20070326211510403/26/07 21:15:31  5-MIN KDBQ 270315Z AUTO 21010KT 10SM CLR 18/14 A2998 1020 78 1600 210/10 RMK AO2 TSNO
94908KDBQ DBQ20070326212010403/26/07 21:20:31  5-MIN KDBQ 270320Z AUTO 21009KT 10SM CLR 18/14 A2998 1020 78 1700 210/09 RMK AO2 TSNO
94908KDBQ DBQ20070326212510403/26/07 21:25:31  5-MIN KDBQ 270325Z AUTO 22010KT 10SM CLR 18/14 A2999 1020 81 1600 220/10 RMK AO2 TSNO
94908KDBQ DBQ20070326213010403/26/07 21:30:31  5-MIN KDBQ 270330Z AUTO 21010KT 10SM CLR 18/14 A2999 1020 78 1700 210/10 RMK AO2 TSNO
94908KDBQ DBQ20070326213510403/26/07 21:35:31  5-MIN KDBQ 270335Z AUTO 21010KT 10SM CLR 18/14 A2999 1020 78 1600 210/10 RMK AO2 TSNO
94908KDBQ DBQ20070326214010403/26/07 21:40:31  5-MIN KDBQ 270340Z AUTO 22010KT 10SM CLR 18/14 A2999 1010 78 1700 220/10 RMK AO2 TSNO
94908KDBQ DBQ20070326214510403/26/07 21:45:31  5-MIN KDBQ 270345Z AUTO 22010KT 10SM CLR 18/14 A2999 1010 78 1700 220/10 RMK AO2 TSNO
94908KDBQ DBQ20070326215012103/26/07 21:50:31  5-MIN KDBQ 270350Z AUTO 22010KT 10SM CLR 18/14 A2999 1010 78 1700 220/10 RMK AO2 SLP151 T01830144 TSNO
94908KDBQ DBQ20070326215512103/26/07 21:55:31  5-MIN KDBQ 270355Z AUTO 21010KT 10SM CLR 18/14 A2999 1020 78 1700 210/10 RMK AO2 SLP151 T01830144 TSNO
94908KDBQ DBQ20070326220010403/26/07 22:00:31  5-MIN KDBQ 270400Z AUTO 21010KT 10SM CLR 18/14 A2999 1020 78 1600 200/10 RMK AO2 TSNO
94908KDBQ DBQ20070326220510403/26/07 22:05:31  5-MIN KDBQ 270405Z AUTO 21011KT 10SM CLR 18/14 A2999 1020 78 1600 200/11 RMK AO2 TSNO
94908KDBQ DBQ20070326221010403/26/07 22:10:31  5-MIN KDBQ 270410Z AUTO 21012KT 10SM CLR 18/14 A2998 1020 81 1600 210/12 RMK AO2 TSNO
94908KDBQ DBQ20070326221510403/26/07 22:15:31  5-MIN KDBQ 270415Z AUTO 21012KT 10SM CLR 18/14 A2998 1020 78 1700 210/12 RMK AO2 TSNO
94908KDBQ DBQ20070326222010403/26/07 22:20:31  5-MIN KDBQ 270420Z AUTO 21010KT 10SM CLR 18/14 A2999 1020 81 1600 210/10 RMK AO2 TSNO
94908KDBQ DBQ20070326222510403/26/07 22:25:31  5-MIN KDBQ 270425Z AUTO 21010KT 10SM CLR 18/14 A2999 1020 81 1600 210/10 RMK AO2 TSNO
94908KDBQ DBQ20070326223010403/26/07 22:30:31  5-MIN KDBQ 270430Z AUTO 21009KT 10SM CLR 18/14 A2999 1020 81 1600 210/09 RMK AO2 TSNO
94908KDBQ DBQ20070326223510403/26/07 22:35:31  5-MIN KDBQ 270435Z AUTO 21009KT 10SM CLR 18/14 A2999 1020 78 1600 210/09 RMK AO2 TSNO
94908KDBQ DBQ20070326224010403/26/07 22:40:31  5-MIN KDBQ 270440Z AUTO 21010KT 10SM CLR 17/14 A2999 1010 80 1600 210/10 RMK AO2 TSNO
94908KDBQ DBQ20070326224510403/26/07 22:45:31  5-MIN KDBQ 270445Z AUTO 21010KT 10SM CLR 17/14 A2999 1010 80 1600 210/10 RMK AO2 TSNO
94908KDBQ DBQ20070326225012103/26/07 22:50:31  5-MIN KDBQ 270450Z AUTO 21010KT 10SM CLR 18/14 A2999 1020 78 1600 210/10 RMK AO2 SLP151 T01780139 TSNO
94908KDBQ DBQ20070326225512103/26/07 22:55:31  5-MIN KDBQ 270455Z AUTO 22009KT 10SM CLR 18/14 A2999 1020 78 1600 220/09 RMK AO2 SLP151 T01780139 TSNO
94908KDBQ DBQ20070326230010403/26/07 23:00:31  5-MIN KDBQ 270500Z AUTO 22008KT 10SM CLR 17/14 A2999 1020 80 1600 220/08 RMK AO2 TSNO
94908KDBQ DBQ20070326230510303/26/07 23:05:31  5-MIN KDBQ 270505Z AUTO 22008KT 9SM CLR 17/14 A2998 1020 80 1600 210/08 RMK AO2 TSNO
94908KDBQ DBQ20070326231010303/26/07 23:10:31  5-MIN KDBQ 270510Z AUTO 21009KT 9SM CLR 17/14 A2999 1020 83 1500 210/09 RMK AO2 TSNO
94908KDBQ DBQ20070326231510303/26/07 23:15:31  5-MIN KDBQ 270515Z AUTO 21009KT 9SM CLR 17/14 A2998 1020 83 1500 210/09 RMK AO2 TSNO
94908KDBQ DBQ20070326232010303/26/07 23:20:31  5-MIN KDBQ 270520Z AUTO 21009KT 9SM CLR 17/14 A2998 1020 83 1500 210/09 RMK AO2 TSNO
94908KDBQ DBQ20070326232510303/26/07 23:25:31  5-MIN KDBQ 270525Z AUTO 21008KT 9SM CLR 17/14 A2998 1020 83 1500 210/08 RMK AO2 TSNO
94908KDBQ DBQ20070326233010303/26/07 23:30:31  5-MIN KDBQ 270530Z AUTO 22009KT 9SM CLR 17/14 A2998 1020 83 1500 220/09 RMK AO2 TSNO
94908KDBQ DBQ20070326233510303/26/07 23:35:31  5-MIN KDBQ 270535Z AUTO 22008KT 9SM CLR 17/14 A2998 1020 83 1500 220/08 RMK AO2 TSNO
94908KDBQ DBQ20070326234010303/26/07 23:40:31  5-MIN KDBQ 270540Z AUTO 22008KT 8SM CLR 17/14 A2998 1020 83 1500 220/08 RMK AO2 TSNO
94908KDBQ DBQ20070326234510303/26/07 23:45:31  5-MIN KDBQ 270545Z AUTO 22008KT 8SM CLR 17/14 A2998 1020 83 1500 220/08 RMK AO2 TSNO
94908KDBQ DBQ20070326235014803/26/07 23:50:31  5-MIN KDBQ 270550Z AUTO 22008KT 8SM CLR 16/14 A2998 1020 86 1400 210/08 RMK AO2 SLP149 T01610139 10217 20161 402610133 53015 TSNO
94908KDBQ DBQ20070326235514803/26/07 23:55:31  5-MIN KDBQ 270555Z AUTO 21008KT 8SM CLR 16/14 A2998 1020 86 1400 210/08 RMK AO2 SLP149 T01610139 10217 20161 402610133 50001 TSNO
94908KDBQ DBQ20070327000010303/27/07 00:00:38  5-MIN KDBQ 270600Z AUTO 21009KT 8SM CLR 16/13 A2998 1020 83 1400 210/09 RMK AO2 TSNO
94908KDBQ DBQ20070327000510303/27/07 00:05:31  5-MIN KDBQ 270605Z AUTO 21009KT 8SM CLR 16/14 A2998 1020 86 1400 210/09 RMK AO2 TSNO
94908KDBQ DBQ20070327001010303/27/07 00:10:31  5-MIN KDBQ 270610Z AUTO 21010KT 8SM CLR 16/13 A2998 1020 83 1400 210/10 RMK AO2 TSNO
94908KDBQ DBQ20070327001510303/27/07 00:15:31  5-MIN KDBQ 270615Z AUTO 20011KT 8SM CLR 16/13 A2998 1020 86 1400 200/11 RMK AO2 TSNO
94908KDBQ DBQ20070327002010303/27/07 00:20:31  5-MIN KDBQ 270620Z AUTO 21010KT 7SM CLR 16/13 A2998 1020 86 1400 200/10 RMK AO2 TSNO
94908KDBQ DBQ20070327002510303/27/07 00:25:31  5-MIN KDBQ 270625Z AUTO 21010KT 7SM CLR 16/13 A2998 1020 86 1400 210/10 RMK AO2 TSNO
94908KDBQ DBQ20070327003010303/27/07 00:30:31  5-MIN KDBQ 270630Z AUTO 21010KT 8SM CLR 16/14 A2998 1020 86 1400 210/10 RMK AO2 TSNO
94908KDBQ DBQ20070327003510303/27/07 00:35:31  5-MIN KDBQ 270635Z AUTO 21010KT 8SM CLR 16/14 A2999 1020 90 1400 210/10 RMK AO2 TSNO
94908KDBQ DBQ20070327004010303/27/07 00:40:31  5-MIN KDBQ 270640Z AUTO 21010KT 8SM CLR 16/13 A2999 1020 86 1400 210/10 RMK AO2 TSNO
94908KDBQ DBQ20070327004510303/27/07 00:45:31  5-MIN KDBQ 270645Z AUTO 21010KT 8SM CLR 16/13 A2999 1020 86 1400 210/10 RMK AO2 TSNO
94908KDBQ DBQ20070327005012003/27/07 00:50:31  5-MIN KDBQ 270650Z AUTO 22009KT 8SM CLR 16/14 A2999 1020 90 1400 220/09 RMK AO2 SLP149 T01560139 TSNO
94908KDBQ DBQ20070327005512003/27/07 00:55:31  5-MIN KDBQ 270655Z AUTO 22009KT 8SM CLR 16/14 A2999 1020 86 1400 220/09 RMK AO2 SLP149 T01610139 TSNO
94908KDBQ DBQ20070327010010303/27/07 01:00:31  5-MIN KDBQ 270700Z AUTO 22008KT 8SM CLR 16/14 A2999 1020 90 1400 220/08 RMK AO2 TSNO
94908KDBQ DBQ20070327010510303/27/07 01:05:31  5-MIN KDBQ 270705Z AUTO 23007KT 8SM CLR 16/13 A2999 1020 86 1400 220/07 RMK AO2 TSNO
94908KDBQ DBQ20070327011010303/27/07 01:10:31  5-MIN KDBQ 270710Z AUTO 22007KT 8SM CLR 16/13 A2999 1020 86 1400 220/07 RMK AO2 TSNO
94908KDBQ DBQ20070327011510303/27/07 01:15:31  5-MIN KDBQ 270715Z AUTO 22008KT 8SM CLR 16/13 A2999 1020 86 1400 220/08 RMK AO2 TSNO
94908KDBQ DBQ20070327012010303/27/07 01:20:31  5-MIN KDBQ 270720Z AUTO 22008KT 8SM CLR 16/13 A2998 1020 86 1400 220/08 RMK AO2 TSNO
94908KDBQ DBQ20070327012510303/27/07 01:25:31  5-MIN KDBQ 270725Z AUTO 22008KT 8SM CLR 15/13 A2998 1020 90 1300 220/08 RMK AO2 TSNO
94908KDBQ DBQ20070327013010303/27/07 01:30:31  5-MIN KDBQ 270730Z AUTO 22009KT 8SM CLR 15/13 A2998 1020 90 1300 220/09 RMK AO2 TSNO
94908KDBQ DBQ20070327013510303/27/07 01:35:31  5-MIN KDBQ 270735Z AUTO 22009KT 8SM CLR 16/13 A2998 1020 86 1400 220/09 RMK AO2 TSNO
94908KDBQ DBQ20070327014010303/27/07 01:40:31  5-MIN KDBQ 270740Z AUTO 22008KT 8SM CLR 16/13 A2998 1020 86 1400 220/08 RMK AO2 TSNO
94908KDBQ DBQ20070327014510303/27/07 01:45:31  5-MIN KDBQ 270745Z AUTO 22008KT 8SM CLR 16/13 A2998 1020 86 1400 220/08 RMK AO2 TSNO
94908KDBQ DBQ20070327015012003/27/07 01:50:31  5-MIN KDBQ 270750Z AUTO 22007KT 8SM CLR 15/13 A2998 1020 90 1300 220/07 RMK AO2 SLP148 T01500133 TSNO
94908KDBQ DBQ20070327015512003/27/07 01:55:31  5-MIN KDBQ 270755Z AUTO 23008KT 7SM CLR 15/13 A2998 1020 90 1300 220/08 RMK AO2 SLP148 T01500133 TSNO
94908KDBQ DBQ20070327020010303/27/07 02:00:31  5-MIN KDBQ 270800Z AUTO 22008KT 8SM CLR 15/13 A2998 1020 90 1300 220/08 RMK AO2 TSNO
94908KDBQ DBQ20070327020510303/27/07 02:05:31  5-MIN KDBQ 270805Z AUTO 23008KT 8SM CLR 16/13 A2998 1020 86 1400 230/08 RMK AO2 TSNO
94908KDBQ DBQ20070327021010303/27/07 02:10:31  5-MIN KDBQ 270810Z AUTO 23007KT 8SM CLR 15/13 A2998 1020 90 1300 230/07 RMK AO2 TSNO
94908KDBQ DBQ20070327021510303/27/07 02:15:31  5-MIN KDBQ 270815Z AUTO 23007KT 7SM CLR 15/13 A2998 1020 90 1300 230/07 RMK AO2 TSNO
94908KDBQ DBQ20070327022010303/27/07 02:20:31  5-MIN KDBQ 270820Z AUTO 23006KT 7SM CLR 15/13 A2998 1020 90 1300 230/06 RMK AO2 TSNO
94908KDBQ DBQ20070327022510303/27/07 02:25:31  5-MIN KDBQ 270825Z AUTO 23006KT 7SM CLR 15/13 A2998 1030 90 1300 230/06 RMK AO2 TSNO
94908KDBQ DBQ20070327023010303/27/07 02:30:31  5-MIN KDBQ 270830Z AUTO 22007KT 7SM CLR 15/13 A2998 1030 90 1300 220/07 RMK AO2 TSNO
94908KDBQ DBQ20070327023510303/27/07 02:35:31  5-MIN KDBQ 270835Z AUTO 22006KT 7SM CLR 15/13 A2998 1030 90 1300 220/06 RMK AO2 TSNO
94908KDBQ DBQ20070327024010303/27/07 02:40:31  5-MIN KDBQ 270840Z AUTO 23006KT 7SM CLR 14/13 A2998 1030 93 1200 230/06 RMK AO2 TSNO
94908KDBQ DBQ20070327024510303/27/07 02:45:31  5-MIN KDBQ 270845Z AUTO 22006KT 7SM CLR 14/13 A2998 1030 93 1200 220/06 RMK AO2 TSNO
94908KDBQ DBQ20070327025012603/27/07 02:50:31  5-MIN KDBQ 270850Z AUTO 22006KT 7SM CLR 14/13 A2998 1020 90 1200 220/06 RMK AO2 SLP148 T01440128 50001 TSNO
94908KDBQ DBQ20070327025512603/27/07 02:55:31  5-MIN KDBQ 270855Z AUTO 22006KT 7SM CLR 14/13 A2998 1020 90 1200 220/06 RMK AO2 SLP148 T01440128 58001 TSNO
94908KDBQ DBQ20070327030010303/27/07 03:00:31  5-MIN KDBQ 270900Z AUTO 23006KT 7SM CLR 14/13 A2998 1020 93 1200 230/06 RMK AO2 TSNO
94908KDBQ DBQ20070327030510603/27/07 03:05:31  5-MIN KDBQ 270905Z AUTO 23006KT 6SM BR CLR 14/13 A2998 1020 93 1200 230/06 RMK AO2 TSNO
94908KDBQ DBQ20070327031010603/27/07 03:10:31  5-MIN KDBQ 270910Z AUTO 22007KT 6SM BR CLR 14/13 A2998 1020 93 1200 220/07 RMK AO2 TSNO
94908KDBQ DBQ20070327031510603/27/07 03:15:31  5-MIN KDBQ 270915Z AUTO 22006KT 6SM BR CLR 14/13 A2998 1020 93 1200 220/06 RMK AO2 TSNO
94908KDBQ DBQ20070327032010303/27/07 03:20:31  5-MIN KDBQ 270920Z AUTO 22006KT 7SM CLR 14/13 A2998 1030 93 1200 220/06 RMK AO2 TSNO
94908KDBQ DBQ20070327032510303/27/07 03:25:31  5-MIN KDBQ 270925Z AUTO 23006KT 7SM CLR 14/13 A2998 1030 90 1200 230/06 RMK AO2 TSNO
94908KDBQ DBQ20070327033010303/27/07 03:30:31  5-MIN KDBQ 270930Z AUTO 22007KT 7SM CLR 14/13 A2998 1030 90 1200 210/07 RMK AO2 TSNO
94908KDBQ DBQ20070327033510303/27/07 03:35:31  5-MIN KDBQ 270935Z AUTO 20008KT 7SM CLR 14/13 A2998 1020 93 1200 200/08 RMK AO2 TSNO
94908KDBQ DBQ20070327034010303/27/07 03:40:31  5-MIN KDBQ 270940Z AUTO 21008KT 7SM CLR 14/13 A2998 1020 93 1200 210/08 RMK AO2 TSNO
94908KDBQ DBQ20070327034510303/27/07 03:45:31  5-MIN KDBQ 270945Z AUTO 22007KT 7SM CLR 14/13 A2998 1020 93 1200 220/07 RMK AO2 TSNO
94908KDBQ DBQ20070327035012003/27/07 03:50:31  5-MIN KDBQ 270950Z AUTO 22007KT 7SM CLR 14/13 A2998 1020 93 1200 220/07 RMK AO2 SLP150 T01390128 TSNO
94908KDBQ DBQ20070327035512003/27/07 03:55:31  5-MIN KDBQ 270955Z AUTO 23007KT 7SM CLR 14/13 A2998 1020 93 1200 230/07 RMK AO2 SLP151 T01390128 TSNO
94908KDBQ DBQ20070327040010303/27/07 04:00:31  5-MIN KDBQ 271000Z AUTO 22007KT 7SM CLR 14/13 A2998 1020 93 1200 220/07 RMK AO2 TSNO
94908KDBQ DBQ20070327040510303/27/07 04:05:31  5-MIN KDBQ 271005Z AUTO 22006KT 7SM CLR 14/13 A2998 1020 93 1200 220/06 RMK AO2 TSNO
94908KDBQ DBQ20070327041010303/27/07 04:10:31  5-MIN KDBQ 271010Z AUTO 22006KT 7SM CLR 14/13 A2999 1020 93 1200 220/06 RMK AO2 TSNO
94908KDBQ DBQ20070327041510303/27/07 04:15:31  5-MIN KDBQ 271015Z AUTO 22006KT 7SM CLR 14/13 A2999 1020 93 1200 220/06 RMK AO2 TSNO
94908KDBQ DBQ20070327042010303/27/07 04:20:31  5-MIN KDBQ 271020Z AUTO 22006KT 7SM CLR 14/13 A2999 1020 93 1200 220/06 RMK AO2 TSNO
94908KDBQ DBQ20070327042510303/27/07 04:25:31  5-MIN KDBQ 271025Z AUTO 21007KT 7SM CLR 14/12 A2999 1010 90 1200 210/07 RMK AO2 TSNO
94908KDBQ DBQ20070327043010303/27/07 04:30:31  5-MIN KDBQ 271030Z AUTO 21008KT 7SM CLR 13/12 A2999 1010 93 1100 210/08 RMK AO2 TSNO
94908KDBQ DBQ20070327043510303/27/07 04:35:31  5-MIN KDBQ 271035Z AUTO 22008KT 7SM CLR 14/12 A2999 1010 90 1200 220/08 RMK AO2 TSNO
94908KDBQ DBQ20070327044010303/27/07 04:40:31  5-MIN KDBQ 271040Z AUTO 22008KT 7SM CLR 14/13 A2999 1010 90 1200 210/08 RMK AO2 TSNO
94908KDBQ DBQ20070327044509303/27/07 04:45:31  5-MIN KDBQ 271045Z 21009KT 8SM CLR 14/13 A2999 1010 90 1200 210/09 RMK AO2
94908KDBQ DBQ20070327045011003/27/07 04:50:31  5-MIN KDBQ 271050Z 21009KT 8SM CLR 14/13 A3000 1010 90 1200 210/09 RMK AO2 SLP155 T01440128
94908KDBQ DBQ20070327045511003/27/07 04:55:31  5-MIN KDBQ 271055Z 21009KT 8SM CLR 14/13 A3000 1010 90 1200 210/09 RMK AO2 SLP156 T01440128
94908KDBQ DBQ20070327050009303/27/07 05:00:31  5-MIN KDBQ 271100Z 22008KT 9SM CLR 14/13 A3000 1010 90 1200 210/08 RMK AO2
94908KDBQ DBQ20070327050509303/27/07 05:05:31  5-MIN KDBQ 271105Z 22009KT 9SM CLR 14/13 A3000 1000 90 1200 220/09 RMK AO2
94908KDBQ DBQ20070327051009303/27/07 05:10:31  5-MIN KDBQ 271110Z 22008KT 9SM CLR 14/13 A3000 1000 90 1200 220/08 RMK AO2
94908KDBQ DBQ20070327051509303/27/07 05:15:31  5-MIN KDBQ 271115Z 22008KT 9SM CLR 14/13 A3000 1000 90 1200 220/08 RMK AO2
94908KDBQ DBQ20070327052009303/27/07 05:20:31  5-MIN KDBQ 271120Z 23006KT 9SM CLR 14/13 A3000 1000 90 1200 230/06 RMK AO2
94908KDBQ DBQ20070327052509303/27/07 05:25:31  5-MIN KDBQ 271125Z 22006KT 9SM CLR 14/13 A3001 1000 90 1200 220/06 RMK AO2
94908KDBQ DBQ20070327053009303/27/07 05:30:31  5-MIN KDBQ 271130Z 23006KT 9SM CLR 14/13 A3001 1000 90 1200 220/06 RMK AO2
94908KDBQ DBQ20070327053509303/27/07 05:35:31  5-MIN KDBQ 271135Z 23004KT 9SM CLR 14/13 A3001 1000 90 1200 230/04 RMK AO2
94908KDBQ DBQ20070327054009303/27/07 05:40:31  5-MIN KDBQ 271140Z 23005KT 9SM CLR 14/13 A3001 1000 90 1200 230/05 RMK AO2
94908KDBQ DBQ20070327054509203/27/07 05:45:31  5-MIN KDBQ 271145Z 22005KT 9SM CLR 14/13 A3001 990 90 1200 210/05 RMK AO2
94908KDBQ DBQ20070327055012703/27/07 05:50:31  5-MIN KDBQ 271150Z 22006KT 8SM CLR 14/13 A3002 990 93 1100 220/06 RMK AO2 SLP161 T01390128 10161 20133 58001
94908KDBQ DBQ20070327055512703/27/07 05:55:31  5-MIN KDBQ 271155Z 22005KT 8SM CLR 14/13 A3002 990 93 1100 220/05 RMK AO2 SLP163 T01390128 10161 20133 53013
94908KDBQ DBQ20070327060009203/27/07 06:00:31  5-MIN KDBQ 271200Z 24004KT 8SM CLR 14/13 A3002 980 93 1100 230/04 RMK AO2
94908KDBQ DBQ20070327060509203/27/07 06:05:31  5-MIN KDBQ 271205Z 23003KT 7SM CLR 14/13 A3002 980 93 1100 230/03 RMK AO2
94908KDBQ DBQ20070327061009203/27/07 06:10:31  5-MIN KDBQ 271210Z 23003KT 7SM CLR 14/13 A3002 980 93 1100 230/03 RMK AO2
94908KDBQ DBQ20070327061509203/27/07 06:15:31  5-MIN KDBQ 271215Z 23003KT 7SM CLR 14/13 A3003 980 93 1100 230/03 RMK AO2
94908KDBQ DBQ20070327062009203/27/07 06:20:31  5-MIN KDBQ 271220Z 00000KT 7SM CLR 14/13 A3003 970 93 1100 000/00 RMK AO2
94908KDBQ DBQ20070327062509203/27/07 06:25:31  5-MIN KDBQ 271225Z 00000KT 7SM CLR 14/13 A3004 970 93 1100 000/00 RMK AO2
94908KDBQ DBQ20070327063009203/27/07 06:30:31  5-MIN KDBQ 271230Z 00000KT 7SM CLR 14/13 A3004 970 90 1200 000/00 RMK AO2
94908KDBQ DBQ20070327063509203/27/07 06:35:31  5-MIN KDBQ 271235Z 00000KT 8SM CLR 14/13 A3003 970 90 1200 000/00 RMK AO2
94908KDBQ DBQ20070327064009203/27/07 06:40:31  5-MIN KDBQ 271240Z 00000KT 8SM CLR 15/13 A3003 970 86 1200 000/00 RMK AO2
94908KDBQ DBQ20070327064509203/27/07 06:45:31  5-MIN KDBQ 271245Z 22005KT 8SM CLR 14/13 A3004 970 90 1200 220/05 RMK AO2
94908KDBQ DBQ20070327065010903/27/07 06:50:31  5-MIN KDBQ 271250Z 23004KT 8SM CLR 14/13 A3004 970 90 1200 230/04 RMK AO2 SLP171 T01440128
94908KDBQ DBQ20070327065510903/27/07 06:55:31  5-MIN KDBQ 271255Z 00000KT 8SM CLR 14/13 A3004 970 90 1200 000/00 RMK AO2 SLP171 T01440128
94908KDBQ DBQ20070327070009203/27/07 07:00:31  5-MIN KDBQ 271300Z 00000KT 8SM CLR 14/13 A3004 970 90 1200 000/00 RMK AO2
94908KDBQ DBQ20070327070509203/27/07 07:05:31  5-MIN KDBQ 271305Z 00000KT 8SM CLR 14/13 A3004 970 90 1200 000/00 RMK AO2
94908KDBQ DBQ20070327071009203/27/07 07:10:31  5-MIN KDBQ 271310Z 00000KT 8SM CLR 14/13 A3004 970 90 1200 000/00 RMK AO2
94908KDBQ DBQ20070327071509203/27/07 07:15:31  5-MIN KDBQ 271315Z 00000KT 8SM CLR 14/13 A3004 970 93 1200 000/00 RMK AO2
94908KDBQ DBQ20070327072009203/27/07 07:20:31  5-MIN KDBQ 271320Z 00000KT 7SM CLR 15/13 A3004 970 90 1200 000/00 RMK AO2
94908KDBQ DBQ20070327072509203/27/07 07:25:31  5-MIN KDBQ 271325Z 00000KT 7SM CLR 15/13 A3004 970 90 1200 000/00 RMK AO2
94908KDBQ DBQ20070327073009203/27/07 07:30:31  5-MIN KDBQ 271330Z 00000KT 7SM CLR 15/13 A3004 960 90 1200 000/00 RMK AO2
94908KDBQ DBQ20070327073509203/27/07 07:35:31  5-MIN KDBQ 271335Z 21003KT 8SM CLR 16/13 A3004 960 86 1300 210/03 RMK AO2
94908KDBQ DBQ20070327074009203/27/07 07:40:31  5-MIN KDBQ 271340Z 22004KT 8SM CLR 16/14 A3005 960 90 1300 220/04 RMK AO2
94908KDBQ DBQ20070327120009303/27/07 12:00:31  5-MIN KDBQ 271800Z VRB04KT 10SM CLR 22/14 A3008 930 63 2000 VRB/04 RMK AO2
94908KDBQ DBQ20070327120509303/27/07 12:05:31  5-MIN KDBQ 271805Z 13006KT 10SM CLR 21/14 A3008 930 65 1900 130/06 RMK AO2
94908KDBQ DBQ20070327121009303/27/07 12:10:31  5-MIN KDBQ 271810Z VRB03KT 10SM CLR 21/14 A3007 940 65 1900 VRB/03 RMK AO2
94908KDBQ DBQ20070327121509303/27/07 12:15:31  5-MIN KDBQ 271815Z VRB03KT 10SM CLR 21/14 A3008 930 65 1900 VRB/03 RMK AO2
94908KDBQ DBQ20070327122009303/27/07 12:20:31  5-MIN KDBQ 271820Z 12006KT 10SM CLR 22/14 A3008 930 63 2000 120/06 RMK AO2
94908KDBQ DBQ20070327122509303/27/07 12:25:31  5-MIN KDBQ 271825Z 16004KT 10SM CLR 22/14 A3007 940 63 2000 160/04 RMK AO2
94908KDBQ DBQ20070327123009303/27/07 12:30:31  5-MIN KDBQ 271830Z 18007KT 10SM CLR 21/14 A3008 930 65 1900 180/07 RMK AO2
94908KDBQ DBQ20070327123509303/27/07 12:35:31  5-MIN KDBQ 271835Z 13006KT 10SM CLR 22/14 A3008 930 63 2000 130/06 RMK AO2
94908KDBQ DBQ20070327124009603/27/07 12:40:31  5-MIN KDBQ 271840Z 18006KT 10SM FEW029 22/14 A3007 940 63 2000 170/06 RMK AO2
94908KDBQ DBQ20070327124509603/27/07 12:45:31  5-MIN KDBQ 271845Z 18007KT 10SM FEW029 22/14 A3007 940 61 2000 180/07 RMK AO2
94908KDBQ DBQ20070327125011303/27/07 12:50:31  5-MIN KDBQ 271850Z 19006KT 10SM FEW029 22/14 A3007 940 61 2000 180/06 RMK AO2 SLP181 T02170139
94908KDBQ DBQ20070327125511303/27/07 12:55:31  5-MIN KDBQ 271855Z 21004KT 10SM FEW029 22/14 A3007 940 61 2000 210/04 RMK AO2 SLP180 T02170139
94908KDBQ DBQ20070327130009603/27/07 13:00:31  5-MIN KDBQ 271900Z 17005KT 10SM FEW029 22/14 A3006 950 61 2000 170/05 RMK AO2
94908KDBQ DBQ20070327130509603/27/07 13:05:31  5-MIN KDBQ 271905Z 17006KT 10SM FEW029 22/14 A3006 950 59 2000 170/06 RMK AO2
94908KDBQ DBQ20070327131009303/27/07 13:10:31  5-MIN KDBQ 271910Z 17005KT 10SM CLR 22/14 A3006 950 61 2000 170/05 RMK AO2
94908KDBQ DBQ20070327131509303/27/07 13:15:31  5-MIN KDBQ 271915Z 00000KT 10SM CLR 22/14 A3006 950 61 2000 000/00 RMK AO2
94908KDBQ DBQ20070327132009303/27/07 13:20:31  5-MIN KDBQ 271920Z 16005KT 10SM CLR 22/14 A3006 950 59 2000 160/05 RMK AO2
94908KDBQ DBQ20070327132509303/27/07 13:25:31  5-MIN KDBQ 271925Z 00000KT 10SM CLR 22/14 A3005 950 59 2100 000/00 RMK AO2
94908KDBQ DBQ20070327133009303/27/07 13:30:31  5-MIN KDBQ 271930Z VRB04KT 10SM CLR 22/14 A3006 950 59 2000 VRB/04 RMK AO2
94908KDBQ DBQ20070327133509303/27/07 13:35:31  5-MIN KDBQ 271935Z 17004KT 10SM CLR 22/13 A3006 950 56 2000 170/04 RMK AO2
94908KDBQ DBQ20070327134009303/27/07 13:40:31  5-MIN KDBQ 271940Z 15005KT 10SM CLR 22/13 A3006 950 54 2000 140/05 RMK AO2
94908KDBQ DBQ20070327134509303/27/07 13:45:31  5-MIN KDBQ 271945Z 00000KT 10SM CLR 22/13 A3006 950 56 2000 000/00 RMK AO2
94908KDBQ DBQ20070327135011003/27/07 13:50:31  5-MIN KDBQ 271950Z 14006KT 10SM CLR 22/13 A3006 950 56 2000 140/06 RMK AO2 SLP176 T02220133
94908KDBQ DBQ20070327135511003/27/07 13:55:31  5-MIN KDBQ 271955Z 18005KT 10SM CLR 22/13 A3006 950 56 2100 180/05 RMK AO2 SLP175 T02220133
94908KDBQ DBQ20070327140009303/27/07 14:00:31  5-MIN KDBQ 272000Z 13003KT 10SM CLR 22/13 A3006 950 56 2100 130/03 RMK AO2
94908KDBQ DBQ20070327140509303/27/07 14:05:31  5-MIN KDBQ 272005Z 15004KT 10SM CLR 22/13 A3005 960 56 2100 150/04 RMK AO2
94908KDBQ DBQ20070327141009303/27/07 14:10:31  5-MIN KDBQ 272010Z VRB03KT 10SM CLR 23/13 A3005 950 55 2100 VRB/03 RMK AO2
94908KDBQ DBQ20070327141509603/27/07 14:15:31  5-MIN KDBQ 272015Z 17005KT 10SM FEW038 23/13 A3005 960 55 2100 170/05 RMK AO2
94908KDBQ DBQ20070327142010303/27/07 14:20:31  5-MIN KDBQ 272020Z 17009KT 10SM SCT038 SCT090 23/13 A3005 960 55 2100 170/09 RMK AO2
94908KDBQ DBQ20070327142510303/27/07 14:25:31  5-MIN KDBQ 272025Z 17008KT 10SM FEW038 SCT090 23/13 A3005 960 53 2100 170/08 RMK AO2
94908KDBQ DBQ20070327143010303/27/07 14:30:31  5-MIN KDBQ 272030Z 17008KT 10SM FEW038 SCT090 23/13 A3005 960 53 2100 170/08 RMK AO2
94908KDBQ DBQ20070327143509603/27/07 14:35:31  5-MIN KDBQ 272035Z 17007KT 10SM FEW038 23/13 A3005 960 53 2100 170/07 RMK AO2
94908KDBQ DBQ20070327144010303/27/07 14:40:31  5-MIN KDBQ 272040Z 16006KT 10SM FEW038 SCT085 23/13 A3005 960 53 2100 160/06 RMK AO2
94908KDBQ DBQ20070327144509603/27/07 14:45:31  5-MIN KDBQ 272045Z 17007KT 10SM SCT080 23/13 A3005 960 53 2100 170/07 RMK AO2
94908KDBQ DBQ20070327145011903/27/07 14:50:31  5-MIN KDBQ 272050Z 16004KT 10SM SCT075 23/13 A3005 960 53 2100 160/04 RMK AO2 SLP172 T02280128 53004
94908KDBQ DBQ20070327145512603/27/07 14:55:31  5-MIN KDBQ 272055Z 00000KT 10SM FEW045 BKN075 23/13 A3004 960 53 2100 000/00 RMK AO2 SLP171 T02280128 58010
94908KDBQ DBQ20070327150010303/27/07 15:00:31  5-MIN KDBQ 272100Z 15004KT 10SM FEW045 BKN075 23/13 A3004 960 53 2100 140/04 RMK AO2
94908KDBQ DBQ20070327150510303/27/07 15:05:31  5-MIN KDBQ 272105Z 10006KT 10SM FEW045 BKN075 23/13 A3004 970 53 2100 100/06 RMK AO2
94908KDBQ DBQ20070327151010303/27/07 15:10:31  5-MIN KDBQ 272110Z 11005KT 10SM FEW045 BKN075 23/13 A3004 970 55 2100 110/05 RMK AO2
94908KDBQ DBQ20070327151510303/27/07 15:15:31  5-MIN KDBQ 272115Z 09004KT 10SM FEW045 BKN080 23/13 A3004 970 55 2100 090/04 RMK AO2
94908KDBQ DBQ20070327152010303/27/07 15:20:31  5-MIN KDBQ 272120Z 13006KT 10SM FEW045 BKN080 23/13 A3004 970 55 2100 130/06 RMK AO2
94908KDBQ DBQ20070327152510303/27/07 15:25:31  5-MIN KDBQ 272125Z 11006KT 10SM FEW045 BKN080 23/13 A3004 970 55 2100 110/06 RMK AO2
94908KDBQ DBQ20070327153010303/27/07 15:30:31  5-MIN KDBQ 272130Z 10006KT 10SM BKN075 BKN090 23/13 A3003 970 55 2100 100/06 RMK AO2
94908KDBQ DBQ20070327153510303/27/07 15:35:31  5-MIN KDBQ 272135Z 10006KT 10SM BKN070 BKN090 23/13 A3004 970 55 2100 100/06 RMK AO2
94908KDBQ DBQ20070327154009603/27/07 15:40:31  5-MIN KDBQ 272140Z VRB04KT 10SM BKN075 23/14 A3004 970 57 2100 VRB/04 RMK AO2
94908KDBQ DBQ20070327154509503/27/07 15:45:31  5-MIN KDBQ 272145Z 06012KT 8SM BKN070 22/14 A3004 970 63 2000 050/12 RMK AO2
94908KDBQ DBQ20070327155012203/27/07 15:50:31  5-MIN KDBQ 272150Z 04014KT 6SM HZ FEW044 OVC070 21/14 A3004 970 67 1900 040/14 RMK AO2 SLP172 T02060144
94908KDBQ DBQ20070327155512203/27/07 15:55:31  5-MIN KDBQ 272155Z 05012KT 6SM HZ SCT044 OVC070 20/14 A3005 960 67 1800 040/12 RMK AO2 SLP173 T02000139
94908KDBQ DBQ20070327160010503/27/07 16:00:31  5-MIN KDBQ 272200Z 05012KT 6SM HZ SCT044 OVC070 19/14 A3005 960 70 1700 050/12 RMK AO2
94908KDBQ DBQ20070327160510503/27/07 16:05:31  5-MIN KDBQ 272205Z 06012KT 6SM HZ FEW046 OVC070 19/14 A3005 960 70 1700 060/12 RMK AO2
94908KDBQ DBQ20070327161011203/27/07 16:10:31  5-MIN KDBQ 272210Z 06011KT 6SM HZ FEW046 BKN070 OVC090 19/14 A3005 960 70 1700 060/11 RMK AO2
94908KDBQ DBQ20070327161511203/27/07 16:15:31  5-MIN KDBQ 272215Z 05010KT 6SM HZ FEW046 BKN070 BKN090 19/14 A3005 960 70 1700 050/10 RMK AO2
94908KDBQ DBQ20070327162011203/27/07 16:20:31  5-MIN KDBQ 272220Z 06011KT 6SM HZ FEW046 SCT070 BKN085 19/14 A3005 960 72 1700 060/11 RMK AO2
94908KDBQ DBQ20070327162510503/27/07 16:25:31  5-MIN KDBQ 272225Z 06012KT 5SM HZ SCT075 BKN090 19/13 A3005 960 70 1700 060/12 RMK AO2
94908KDBQ DBQ20070327163011103/27/07 16:30:31  5-MIN KDBQ 272230Z 07014G18KT 5SM HZ SCT075 BKN090 19/13 A3005 960 70 1700 070/14G18 RMK AO2
94908KDBQ DBQ20070327163510403/27/07 16:35:31  5-MIN KDBQ 272235Z 07010G18KT 5SM HZ SCT085 19/13 A3005 960 70 1700 070/10G18 RMK AO2
94908KDBQ DBQ20070327164009803/27/07 16:40:31  5-MIN KDBQ 272240Z 06011KT 5SM HZ SCT085 19/13 A3005 960 70 1700 060/11 RMK AO2
94908KDBQ DBQ20070327164509803/27/07 16:45:31  5-MIN KDBQ 272245Z 06013KT 5SM HZ FEW085 18/13 A3006 950 72 1600 060/13 RMK AO2
94908KDBQ DBQ20070327165011503/27/07 16:50:31  5-MIN KDBQ 272250Z 07014KT 5SM HZ FEW085 18/13 A3006 950 72 1600 070/14 RMK AO2 SLP176 T01830133
94908KDBQ DBQ20070327165511503/27/07 16:55:31  5-MIN KDBQ 272255Z 06013KT 5SM HZ FEW080 18/13 A3006 950 72 1500 060/13 RMK AO2 SLP178 T01780128
94908KDBQ DBQ20070327170009803/27/07 17:00:31  5-MIN KDBQ 272300Z 07012KT 5SM HZ FEW085 18/13 A3006 950 72 1500 070/12 RMK AO2
94908KDBQ DBQ20070327170509503/27/07 17:05:31  5-MIN KDBQ 272305Z 06013KT 5SM HZ CLR 17/13 A3007 940 75 1500 060/13 RMK AO2
94908KDBQ DBQ20070327171009803/27/07 17:10:31  5-MIN KDBQ 272310Z 06013KT 5SM HZ FEW060 17/12 A3007 940 72 1500 060/13 RMK AO2
94908KDBQ DBQ20070327171510503/27/07 17:15:31  5-MIN KDBQ 272315Z 07012KT 5SM HZ FEW060 SCT075 17/12 A3006 950 72 1500 070/12 RMK AO2
94908KDBQ DBQ20070327172009803/27/07 17:20:31  5-MIN KDBQ 272320Z 06011KT 5SM HZ FEW060 17/12 A3007 940 75 1400 060/11 RMK AO2
94908KDBQ DBQ20070327172509803/27/07 17:25:31  5-MIN KDBQ 272325Z 05014KT 6SM HZ SCT065 17/12 A3007 940 75 1400 050/14 RMK AO2
94908KDBQ DBQ20070327173009803/27/07 17:30:31  5-MIN KDBQ 272330Z 06014KT 6SM HZ SCT060 17/12 A3007 940 75 1400 060/14 RMK AO2
94908KDBQ DBQ20070327173509803/27/07 17:35:31  5-MIN KDBQ 272335Z 07012KT 6SM HZ SCT060 17/12 A3006 950 75 1400 060/12 RMK AO2
94908KDBQ DBQ20070327174009803/27/07 17:40:31  5-MIN KDBQ 272340Z 07015KT 6SM HZ FEW065 16/12 A3007 940 75 1300 070/15 RMK AO2
94908KDBQ DBQ20070327174510403/27/07 17:45:31  5-MIN KDBQ 272345Z 07014G19KT 6SM HZ FEW065 16/12 A3007 940 75 1300 070/14G19 RMK AO2
94908KDBQ DBQ20070327175013903/27/07 17:50:31  5-MIN KDBQ 272350Z 07014G19KT 6SM HZ FEW065 16/12 A3007 940 77 1300 070/14G19 RMK AO2 SLP182 T01560117 10228 20156 58010
94908KDBQ DBQ20070327175513003/27/07 17:55:31  5-MIN KDBQ 272355Z 07015KT 6SM HZ CLR 16/12 A3007 940 77 1300 070/15 RMK AO2 SLP182 T01560117 10228 20156 53007
94908KDBQ DBQ20070327180009503/27/07 18:00:31  5-MIN KDBQ 280000Z 06012KT 6SM HZ CLR 16/12 A3007 940 77 1300 060/12 RMK AO2
94908KDBQ DBQ20070327180510103/27/07 18:05:31  5-MIN KDBQ 280005Z 07016G20KT 6SM HZ CLR 15/11 A3007 940 77 1200 070/16G20 RMK AO2
94908KDBQ DBQ20070327181009203/27/07 18:10:31  5-MIN KDBQ 280010Z 07016KT 7SM CLR 15/11 A3007 940 77 1200 070/16 RMK AO2
94908KDBQ DBQ20070327181509203/27/07 18:15:31  5-MIN KDBQ 280015Z 07014KT 7SM CLR 15/11 A3007 940 77 1200 070/14 RMK AO2
94908KDBQ DBQ20070327182009203/27/07 18:20:31  5-MIN KDBQ 280020Z 06014KT 7SM CLR 15/11 A3007 940 77 1200 060/14 RMK AO2
94908KDBQ DBQ20070327182509203/27/07 18:25:31  5-MIN KDBQ 280025Z 06014KT 7SM CLR 14/11 A3007 940 80 1100 060/14 RMK AO2
94908KDBQ DBQ20070327183009203/27/07 18:30:31  5-MIN KDBQ 280030Z 06012KT 7SM CLR 14/11 A3007 940 80 1100 060/12 RMK AO2
94908KDBQ DBQ20070327183509203/27/07 18:35:31  5-MIN KDBQ 280035Z 06012KT 8SM CLR 14/11 A3007 940 80 1100 060/12 RMK AO2
94908KDBQ DBQ20070327184009203/27/07 18:40:31  5-MIN KDBQ 280040Z 06013KT 8SM CLR 14/11 A3007 940 80 1100 060/13 RMK AO2
94908KDBQ DBQ20070327184509203/27/07 18:45:31  5-MIN KDBQ 280045Z 05015KT 8SM CLR 14/11 A3007 940 80 1100 050/15 RMK AO2
94908KDBQ DBQ20070327185010903/27/07 18:50:31  5-MIN KDBQ 280050Z 05014KT 8SM CLR 14/11 A3008 930 80 1100 050/14 RMK AO2 SLP185 T01390106
94908KDBQ DBQ20070327185511503/27/07 18:55:31  5-MIN KDBQ 280055Z 06016G22KT 8SM CLR 13/11 A3008 930 83 1000 060/16G22 RMK AO2 SLP188 T01330106
94908KDBQ DBQ20070327190009803/27/07 19:00:31  5-MIN KDBQ 280100Z 06015G22KT 9SM CLR 13/10 A3008 930 80 1000 060/15G22 RMK AO2
94908KDBQ DBQ20070327190509203/27/07 19:05:31  5-MIN KDBQ 280105Z 06014KT 9SM CLR 13/10 A3009 920 80 1000 060/14 RMK AO2
94908KDBQ DBQ20070327191009503/27/07 19:10:31  5-MIN KDBQ 280110Z 06012KT 9SM FEW013 13/10 A3009 920 80 1000 060/12 RMK AO2
94908KDBQ DBQ20070327191509503/27/07 19:15:31  5-MIN KDBQ 280115Z 06014KT 9SM FEW013 13/10 A3009 920 80 1000 060/14 RMK AO2
94908KDBQ DBQ20070327192010103/27/07 19:20:31  5-MIN KDBQ 280120Z 06017G21KT 9SM SCT013 13/10 A3009 920 80 1000 050/17G21 RMK AO2
94908KDBQ DBQ20070327192510003/27/07 19:25:31  5-MIN KDBQ 280125Z 06016G22KT 9SM BKN013 13/10 A3009 920 83 900 060/16G22 RMK AO2
94908KDBQ DBQ20070327193010003/27/07 19:30:31  5-MIN KDBQ 280130Z 06015G22KT 9SM BKN013 13/10 A3009 920 83 900 060/15G22 RMK AO2
94908KDBQ DBQ20070327193510003/27/07 19:35:31  5-MIN KDBQ 280135Z 06018G23KT 9SM BKN011 13/10 A3010 920 83 900 060/18G23 RMK AO2
94908KDBQ DBQ20070327194010003/27/07 19:40:31  5-MIN KDBQ 280140Z 07017G24KT 9SM OVC011 13/10 A3010 920 83 900 070/17G24 RMK AO2
94908KDBQ DBQ20070327194511803/27/07 19:45:31  5-MIN KDBQ 280145Z 07022G26KT 9SM OVC011 13/10 A3010 910 83 900 070/22G26 RMK AO2 PK WND 06026/0145
94908KDBQ DBQ20070327195013503/27/07 19:50:31  5-MIN KDBQ 280150Z 07020G26KT 9SM OVC011 12/09 A3010 910 83 800 070/20G26 RMK AO2 PK WND 06026/0145 SLP194 T01220094
94908KDBQ DBQ20070327195513503/27/07 19:55:31  5-MIN KDBQ 280155Z 06018G25KT 9SM OVC011 12/09 A3010 910 83 800 060/18G25 RMK AO2 PK WND 06026/0145 SLP193 T01220094
94908KDBQ DBQ20070327200010003/27/07 20:00:31  5-MIN KDBQ 280200Z 06018G23KT 9SM OVC011 12/09 A3010 910 83 800 060/18G23 RMK AO2
94908KDBQ DBQ20070327200510003/27/07 20:05:31  5-MIN KDBQ 280205Z 06017G23KT 9SM OVC011 12/09 A3010 920 83 800 060/17G23 RMK AO2
94908KDBQ DBQ20070327201010003/27/07 20:10:31  5-MIN KDBQ 280210Z 06016G23KT 9SM OVC011 12/09 A3010 910 83 800 060/16G23 RMK AO2
94908KDBQ DBQ20070327201510003/27/07 20:15:31  5-MIN KDBQ 280215Z 06014G22KT 9SM OVC011 12/09 A3010 910 83 800 060/14G22 RMK AO2
94908KDBQ DBQ20070327202010003/27/07 20:20:31  5-MIN KDBQ 280220Z 07018G22KT 9SM OVC011 12/09 A3010 910 83 800 070/18G22 RMK AO2
94908KDBQ DBQ20070327202510003/27/07 20:25:31  5-MIN KDBQ 280225Z 06017G25KT 9SM OVC011 12/09 A3011 910 83 800 060/17G25 RMK AO2
94908KDBQ DBQ20070327203010003/27/07 20:30:31  5-MIN KDBQ 280230Z 06016G25KT 9SM OVC011 12/09 A3011 910 86 800 060/16G25 RMK AO2
94908KDBQ DBQ20070327203510003/27/07 20:35:31  5-MIN KDBQ 280235Z 07016G22KT 9SM OVC011 12/09 A3010 910 83 800 060/16G22 RMK AO2
94908KDBQ DBQ20070327204010003/27/07 20:40:31  5-MIN KDBQ 280240Z 06018G24KT 9SM OVC011 12/09 A3011 910 83 800 060/18G24 RMK AO2
94908KDBQ DBQ20070327204510003/27/07 20:45:31  5-MIN KDBQ 280245Z 07016G24KT 9SM OVC011 12/09 A3011 900 83 800 060/16G24 RMK AO2
94908KDBQ DBQ20070327205012303/27/07 20:50:31  5-MIN KDBQ 280250Z 07014G22KT 9SM OVC011 12/09 A3011 910 83 800 070/14G22 RMK AO2 SLP196 T01170089 53007
94908KDBQ DBQ20070327205512303/27/07 20:55:31  5-MIN KDBQ 280255Z 06014G19KT 9SM OVC011 12/09 A3011 910 83 800 050/14G19 RMK AO2 SLP195 T01170089 51013
94908KDBQ DBQ20070327210010003/27/07 21:00:31  5-MIN KDBQ 280300Z 06016G23KT 9SM OVC011 12/09 A3010 910 83 800 060/16G23 RMK AO2
94908KDBQ DBQ20070327210510003/27/07 21:05:31  5-MIN KDBQ 280305Z 06016G23KT 9SM OVC011 12/09 A3010 910 83 800 060/16G23 RMK AO2
94908KDBQ DBQ20070327211009403/27/07 21:10:31  5-MIN KDBQ 280310Z 06018KT 9SM OVC011 12/09 A3011 910 83 800 060/18 RMK AO2
94908KDBQ DBQ20070327211510503/27/07 21:15:31  5-MIN KDBQ 280315Z AUTO 07016G23KT 9SM OVC011 12/09 A3011 900 83 800 070/16G23 RMK AO2
94908KDBQ DBQ20070327212011003/27/07 21:20:31  5-MIN KDBQ 280320Z AUTO 07017G23KT 9SM OVC011 12/09 A3011 900 83 800 070/17G23 RMK AO2 TSNO
94908KDBQ DBQ20070327212511003/27/07 21:25:31  5-MIN KDBQ 280325Z AUTO 07018G23KT 9SM OVC011 12/09 A3011 900 83 800 070/18G23 RMK AO2 TSNO
94908KDBQ DBQ20070327213011003/27/07 21:30:31  5-MIN KDBQ 280330Z AUTO 06017G23KT 9SM OVC011 12/09 A3011 900 83 800 060/17G23 RMK AO2 TSNO
94908KDBQ DBQ20070327213511003/27/07 21:35:31  5-MIN KDBQ 280335Z AUTO 07016G22KT 9SM OVC011 12/09 A3011 900 83 800 060/16G22 RMK AO2 TSNO
94908KDBQ DBQ20070327214011003/27/07 21:40:31  5-MIN KDBQ 280340Z AUTO 06019G22KT 9SM OVC011 11/08 A3011 900 83 700 060/19G22 RMK AO2 TSNO
94908KDBQ DBQ20070327214510403/27/07 21:45:31  5-MIN KDBQ 280345Z AUTO 06014KT 9SM OVC011 11/08 A3011 900 83 700 060/14 RMK AO2 TSNO
94908KDBQ DBQ20070327215012703/27/07 21:50:31  5-MIN KDBQ 280350Z AUTO 06017G22KT 9SM OVC011 11/08 A3011 900 83 700 050/17G22 RMK AO2 SLP197 T01110083 TSNO
94908KDBQ DBQ20070327215512803/27/07 21:55:31  5-MIN KDBQ 280355Z AUTO 06019G22KT 10SM OVC011 11/08 A3011 900 83 700 060/19G22 RMK AO2 SLP197 T01110083 TSNO
94908KDBQ DBQ20070327220010503/27/07 22:00:31  5-MIN KDBQ 280400Z AUTO 07017KT 10SM OVC011 11/08 A3011 900 83 700 070/17 RMK AO2 TSNO
94908KDBQ DBQ20070327220510503/27/07 22:05:31  5-MIN KDBQ 280405Z AUTO 06014KT 10SM OVC011 11/08 A3011 900 83 700 060/14 RMK AO2 TSNO
94908KDBQ DBQ20070327221011103/27/07 22:10:31  5-MIN KDBQ 280410Z AUTO 06018G22KT 10SM OVC011 11/08 A3011 900 83 700 060/18G22 RMK AO2 TSNO
94908KDBQ DBQ20070327221511103/27/07 22:15:31  5-MIN KDBQ 280415Z AUTO 06014G22KT 10SM OVC011 11/08 A3011 900 83 700 060/14G22 RMK AO2 TSNO
94908KDBQ DBQ20070327222010503/27/07 22:20:31  5-MIN KDBQ 280420Z AUTO 05016KT 10SM OVC011 11/08 A3011 900 80 700 050/16 RMK AO2 TSNO
94908KDBQ DBQ20070327222510503/27/07 22:25:31  5-MIN KDBQ 280425Z AUTO 06017KT 10SM OVC011 11/08 A3011 900 83 600 060/17 RMK AO2 TSNO
94908KDBQ DBQ20070327223010503/27/07 22:30:31  5-MIN KDBQ 280430Z AUTO 06017KT 10SM OVC011 11/07 A3011 900 80 600 060/17 RMK AO2 TSNO
94908KDBQ DBQ20070327223511103/27/07 22:35:31  5-MIN KDBQ 280435Z AUTO 06015G22KT 10SM OVC011 11/07 A3011 900 80 600 060/15G22 RMK AO2 TSNO
94908KDBQ DBQ20070327224012903/27/07 22:40:31  5-MIN KDBQ 280440Z AUTO 07021G26KT 10SM OVC011 11/07 A3011 900 77 600 070/21G26 RMK AO2 PK WND 07026/0440 TSNO
94908KDBQ DBQ20070327224512903/27/07 22:45:31  5-MIN KDBQ 280445Z AUTO 06020G26KT 10SM OVC011 11/07 A3011 900 77 600 060/20G26 RMK AO2 PK WND 07026/0440 TSNO
94908KDBQ DBQ20070327225014603/27/07 22:50:31  5-MIN KDBQ 280450Z AUTO 06015G25KT 10SM OVC011 11/07 A3010 910 77 600 060/15G25 RMK AO2 PK WND 07026/0440 SLP194 T01060067 TSNO
94908KDBQ DBQ20070327225514603/27/07 22:55:31  5-MIN KDBQ 280455Z AUTO 06018G22KT 10SM OVC013 11/07 A3010 910 77 600 060/18G22 RMK AO2 PK WND 07026/0440 SLP194 T01060067 TSNO
94908KDBQ DBQ20070327230011103/27/07 23:00:31  5-MIN KDBQ 280500Z AUTO 07017G22KT 10SM OVC013 11/07 A3010 910 77 600 070/17G22 RMK AO2 TSNO
94908KDBQ DBQ20070327230511103/27/07 23:05:31  5-MIN KDBQ 280505Z AUTO 06013G22KT 10SM OVC013 11/07 A3011 910 77 600 060/13G22 RMK AO2 TSNO
94908KDBQ DBQ20070327231011103/27/07 23:10:31  5-MIN KDBQ 280510Z AUTO 06015G20KT 10SM OVC013 10/07 A3010 910 80 600 060/15G20 RMK AO2 TSNO
94908KDBQ DBQ20070327231511103/27/07 23:15:31  5-MIN KDBQ 280515Z AUTO 06015G20KT 10SM OVC013 10/07 A3010 910 80 600 060/15G20 RMK AO2 TSNO
94908KDBQ DBQ20070327232010503/27/07 23:20:31  5-MIN KDBQ 280520Z AUTO 06016KT 10SM BKN013 10/07 A3010 910 80 600 060/16 RMK AO2 TSNO
94908KDBQ DBQ20070327232511103/27/07 23:25:31  5-MIN KDBQ 280525Z AUTO 06016G20KT 10SM BKN013 10/07 A3010 910 80 600 060/16G20 RMK AO2 TSNO
94908KDBQ DBQ20070327233011803/27/07 23:30:31  5-MIN KDBQ 280530Z AUTO 06015G21KT 10SM SCT013 BKN060 10/07 A3009 920 80 600 060/15G21 RMK AO2 TSNO
94908KDBQ DBQ20070327233511803/27/07 23:35:31  5-MIN KDBQ 280535Z AUTO 06019G24KT 10SM FEW013 SCT060 10/07 A3010 920 80 600 060/19G24 RMK AO2 TSNO
94908KDBQ DBQ20070327234012903/27/07 23:40:31  5-MIN KDBQ 280540Z AUTO 06018G26KT 10SM FEW013 10/06 A3010 920 77 600 060/18G26 RMK AO2 PK WND 06026/0536 TSNO
94908KDBQ DBQ20070327234512903/27/07 23:45:31  5-MIN KDBQ 280545Z AUTO 06014G26KT 10SM FEW060 10/06 A3010 920 77 600 050/14G26 RMK AO2 PK WND 06026/0536 TSNO
94908KDBQ DBQ20070327235016803/27/07 23:50:31  5-MIN KDBQ 280550Z AUTO 05012KT 10SM FEW060 10/06 A3010 920 77 600 050/12 RMK AO2 PK WND 06026/0536 SLP191 T01000061 10156 20100 402280100 51013 TSNO
94908KDBQ DBQ20070327235516803/27/07 23:55:31  5-MIN KDBQ 280555Z AUTO 05014KT 10SM FEW060 10/06 A3009 920 77 600 050/14 RMK AO2 PK WND 06026/0536 SLP190 T01000061 10156 20094 402280094 58004 TSNO
94908KDBQ DBQ20070328000010503/28/07 00:00:38  5-MIN KDBQ 280600Z AUTO 05014KT 10SM SCT060 10/06 A3010 920 77 600 050/14 RMK AO2 TSNO
94908KDBQ DBQ20070328000510503/28/07 00:05:31  5-MIN KDBQ 280605Z AUTO 05015KT 10SM BKN060 09/06 A3009 920 79 500 040/15 RMK AO2 TSNO
94908KDBQ DBQ20070328001010503/28/07 00:10:31  5-MIN KDBQ 280610Z AUTO 05014KT 10SM BKN060 09/06 A3010 920 79 500 050/14 RMK AO2 TSNO
94908KDBQ DBQ20070328001510503/28/07 00:15:32  5-MIN KDBQ 280615Z AUTO 06016KT 10SM BKN060 09/06 A3009 920 76 500 060/16 RMK AO2 TSNO
94908KDBQ DBQ20070328002010503/28/07 00:20:31  5-MIN KDBQ 280620Z AUTO 06017KT 10SM BKN060 09/06 A3009 920 76 500 060/17 RMK AO2 TSNO
94908KDBQ DBQ20070328002512903/28/07 00:25:31  5-MIN KDBQ 280625Z AUTO 06020G26KT 10SM BKN060 09/06 A3009 920 76 500 060/20G26 RMK AO2 PK WND 06026/0624 TSNO
94908KDBQ DBQ20070328003012903/28/07 00:30:31  5-MIN KDBQ 280630Z AUTO 05015G26KT 10SM BKN060 09/06 A3009 920 76 500 050/15G26 RMK AO2 PK WND 06026/0624 TSNO
94908KDBQ DBQ20070328003512903/28/07 00:35:31  5-MIN KDBQ 280635Z AUTO 05015G20KT 10SM SCT060 09/06 A3009 920 79 400 050/15G20 RMK AO2 PK WND 06026/0624 TSNO
94908KDBQ DBQ20070328004012903/28/07 00:40:31  5-MIN KDBQ 280640Z AUTO 05014G19KT 10SM FEW060 09/05 A3009 920 76 400 050/14G19 RMK AO2 PK WND 06026/0624 TSNO
94908KDBQ DBQ20070328004512303/28/07 00:45:31  5-MIN KDBQ 280645Z AUTO 06014KT 10SM FEW060 09/05 A3010 920 76 400 060/14 RMK AO2 PK WND 06026/0624 TSNO
94908KDBQ DBQ20070328005013703/28/07 00:50:31  5-MIN KDBQ 280650Z AUTO 06015KT 10SM CLR 09/05 A3009 930 76 500 060/15 RMK AO2 PK WND 06026/0624 SLP187 T00890050 TSNO
94908KDBQ DBQ20070328005513703/28/07 00:55:31  5-MIN KDBQ 280655Z AUTO 05016KT 10SM CLR 09/05 A3009 930 76 500 050/16 RMK AO2 PK WND 06026/0624 SLP187 T00890050 TSNO
94908KDBQ DBQ20070328010010203/28/07 01:00:31  5-MIN KDBQ 280700Z AUTO 05015KT 10SM CLR 09/05 A3009 920 76 500 050/15 RMK AO2 TSNO
94908KDBQ DBQ20070328010510203/28/07 01:05:31  5-MIN KDBQ 280705Z AUTO 05015KT 10SM CLR 09/05 A3008 930 76 500 050/15 RMK AO2 TSNO
94908KDBQ DBQ20070328011010803/28/07 01:10:31  5-MIN KDBQ 280710Z AUTO 06013G19KT 10SM CLR 09/05 A3008 930 76 500 060/13G19 RMK AO2 TSNO
94908KDBQ DBQ20070328011510503/28/07 01:15:31  5-MIN KDBQ 280715Z AUTO 06016KT 10SM FEW080 09/05 A3009 920 76 500 060/16 RMK AO2 TSNO
94908KDBQ DBQ20070328012011103/28/07 01:20:31  5-MIN KDBQ 280720Z AUTO 05014G21KT 10SM FEW075 09/05 A3009 930 76 500 050/14G21 RMK AO2 TSNO
94908KDBQ DBQ20070328012511103/28/07 01:25:31  5-MIN KDBQ 280725Z AUTO 05015G22KT 10SM FEW075 08/05 A3009 930 79 400 050/15G22 RMK AO2 TSNO
94908KDBQ DBQ20070328013011103/28/07 01:30:31  5-MIN KDBQ 280730Z AUTO 05016G22KT 10SM FEW090 08/06 A3008 930 82 400 050/16G22 RMK AO2 TSNO
94908KDBQ DBQ20070328013510203/28/07 01:35:31  5-MIN KDBQ 280735Z AUTO 05016KT 10SM CLR 08/05 A3008 930 79 400 050/16 RMK AO2 TSNO
94908KDBQ DBQ20070328014011103/28/07 01:40:31  5-MIN KDBQ 280740Z AUTO 05017G24KT 10SM FEW085 08/05 A3008 930 79 400 050/17G24 RMK AO2 TSNO
94908KDBQ DBQ20070328014511103/28/07 01:45:31  5-MIN KDBQ 280745Z AUTO 05015G24KT 10SM FEW085 08/05 A3008 930 79 400 050/15G24 RMK AO2 TSNO
94908KDBQ DBQ20070328015012803/28/07 01:50:31  5-MIN KDBQ 280750Z AUTO 06017G23KT 10SM FEW085 08/05 A3008 940 79 400 050/17G23 RMK AO2 SLP184 T00830050 TSNO
94908KDBQ DBQ20070328015512503/28/07 01:55:31  5-MIN KDBQ 280755Z AUTO 06017G23KT 10SM CLR 08/05 A3008 940 79 400 060/17G23 RMK AO2 SLP184 T00830050 TSNO
94908KDBQ DBQ20070328020010803/28/07 02:00:31  5-MIN KDBQ 280800Z AUTO 05015G24KT 10SM CLR 08/05 A3007 940 79 400 050/15G24 RMK AO2 TSNO
94908KDBQ DBQ20070328020511103/28/07 02:05:31  5-MIN KDBQ 280805Z AUTO 05015G24KT 10SM FEW085 08/05 A3008 930 79 400 050/15G24 RMK AO2 TSNO
94908KDBQ DBQ20070328021010203/28/07 02:10:31  5-MIN KDBQ 280810Z AUTO 05015KT 10SM CLR 08/05 A3008 930 79 400 050/15 RMK AO2 TSNO
94908KDBQ DBQ20070328021510203/28/07 02:15:31  5-MIN KDBQ 280815Z AUTO 05015KT 10SM CLR 08/05 A3008 930 79 400 050/15 RMK AO2 TSNO
94908KDBQ DBQ20070328022010203/28/07 02:20:31  5-MIN KDBQ 280820Z AUTO 05015KT 10SM CLR 08/05 A3008 930 79 400 050/15 RMK AO2 TSNO
94908KDBQ DBQ20070328022510203/28/07 02:25:31  5-MIN KDBQ 280825Z AUTO 06015KT 10SM CLR 08/05 A3008 930 79 400 060/15 RMK AO2 TSNO
94908KDBQ DBQ20070328023010503/28/07 02:30:31  5-MIN KDBQ 280830Z AUTO 06015KT 10SM SCT013 08/05 A3008 930 79 400 050/15 RMK AO2 TSNO
94908KDBQ DBQ20070328023510503/28/07 02:35:31  5-MIN KDBQ 280835Z AUTO 06015KT 10SM BKN011 08/06 A3008 930 82 400 060/15 RMK AO2 TSNO
94908KDBQ DBQ20070328024010503/28/07 02:40:31  5-MIN KDBQ 280840Z AUTO 06014KT 10SM BKN011 08/06 A3008 930 82 400 060/14 RMK AO2 TSNO
94908KDBQ DBQ20070328024511103/28/07 02:45:31  5-MIN KDBQ 280845Z AUTO 06015G21KT 10SM BKN011 08/06 A3008 930 82 400 050/15G21 RMK AO2 TSNO
94908KDBQ DBQ20070328025013403/28/07 02:50:31  5-MIN KDBQ 280850Z AUTO 06013G21KT 10SM OVC011 08/06 A3007 940 82 400 060/13G21 RMK AO2 SLP183 T00830056 58004 TSNO
94908KDBQ DBQ20070328025512803/28/07 02:55:31  5-MIN KDBQ 280855Z AUTO 06014KT 10SM OVC011 08/06 A3007 940 82 400 060/14 RMK AO2 SLP183 T00830056 56006 TSNO
94908KDBQ DBQ20070328030010503/28/07 03:00:31  5-MIN KDBQ 280900Z AUTO 05013KT 10SM OVC011 08/06 A3007 940 86 400 050/13 RMK AO2 TSNO
94908KDBQ DBQ20070328030510503/28/07 03:05:31  5-MIN KDBQ 280905Z AUTO 06013KT 10SM OVC009 09/06 A3008 930 83 500 060/13 RMK AO2 TSNO
94908KDBQ DBQ20070328031010503/28/07 03:10:31  5-MIN KDBQ 280910Z AUTO 05013KT 10SM OVC009 09/06 A3008 930 83 500 050/13 RMK AO2 TSNO
94908KDBQ DBQ20070328031510503/28/07 03:15:31  5-MIN KDBQ 280915Z AUTO 05013KT 10SM OVC009 09/06 A3007 940 83 500 050/13 RMK AO2 TSNO
94908KDBQ DBQ20070328032010503/28/07 03:20:31  5-MIN KDBQ 280920Z AUTO 05015KT 10SM OVC009 09/06 A3007 940 83 500 050/15 RMK AO2 TSNO
94908KDBQ DBQ20070328032510503/28/07 03:25:31  5-MIN KDBQ 280925Z AUTO 05015KT 10SM OVC009 09/07 A3007 940 86 500 040/15 RMK AO2 TSNO
94908KDBQ DBQ20070328033010403/28/07 03:30:31  5-MIN KDBQ 280930Z AUTO 06013KT 9SM OVC007 09/07 A3008 930 86 500 050/13 RMK AO2 TSNO
94908KDBQ DBQ20070328033510403/28/07 03:35:31  5-MIN KDBQ 280935Z AUTO 06014KT 9SM OVC007 09/07 A3008 930 86 500 060/14 RMK AO2 TSNO
94908KDBQ DBQ20070328034010403/28/07 03:40:31  5-MIN KDBQ 280940Z AUTO 06014KT 8SM OVC007 09/07 A3008 930 86 500 060/14 RMK AO2 TSNO
94908KDBQ DBQ20070328034510403/28/07 03:45:31  5-MIN KDBQ 280945Z AUTO 06015KT 8SM OVC007 09/07 A3008 930 89 500 060/15 RMK AO2 TSNO
94908KDBQ DBQ20070328035012103/28/07 03:50:31  5-MIN KDBQ 280950Z AUTO 06014KT 7SM OVC007 09/07 A3008 930 89 500 060/14 RMK AO2 SLP187 T00890072 TSNO
94908KDBQ DBQ20070328035512403/28/07 03:55:31  5-MIN KDBQ 280955Z AUTO 06015KT 6SM BR OVC005 09/07 A3008 930 89 500 060/15 RMK AO2 SLP187 T00890072 TSNO
94908KDBQ DBQ20070328040012503/28/07 04:00:31  5-MIN KDBQ 281000Z AUTO 07014G20KT 5SM BR OVC005 09/08 A3008 930 93 500 060/14G20 RMK AO2 CIG 003V007 TSNO
94908KDBQ DBQ20070328040511903/28/07 04:05:31  5-MIN KDBQ 281005Z AUTO 07016KT 4SM BR OVC005 09/08 A3008 930 93 500 070/16 RMK AO2 CIG 003V006 TSNO
94908KDBQ DBQ20070328041011903/28/07 04:10:31  5-MIN KDBQ 281010Z AUTO 06014KT 4SM BR OVC003 09/08 A3008 930 93 500 060/14 RMK AO2 CIG 003V006 TSNO
94908KDBQ DBQ20070328041510703/28/07 04:15:31  5-MIN KDBQ 281015Z AUTO 06015KT 3SM BR OVC003 09/08 A3008 930 93 500 060/15 RMK AO2 TSNO
94908KDBQ DBQ20070328042011103/28/07 04:20:31  5-MIN KDBQ 281020Z AUTO 07013KT 2 1/2SM BR OVC003 09/08 A3008 930 93 500 060/13 RMK AO2 TSNO
94908KDBQ DBQ20070328042511103/28/07 04:25:31  5-MIN KDBQ 281025Z AUTO 06013KT 2 1/2SM BR OVC003 09/08 A3008 930 96 500 060/13 RMK AO2 TSNO
94908KDBQ DBQ20070328043011703/28/07 04:30:31  5-MIN KDBQ 281030Z AUTO 06011G18KT 2 1/2SM BR OVC003 09/08 A3009 920 96 500 060/11G18 RMK AO2 TSNO
94908KDBQ DBQ20070328043511703/28/07 04:35:31  5-MIN KDBQ 281035Z AUTO 06011G18KT 2 1/2SM BR OVC003 09/08 A3009 920 96 500 060/11G18 RMK AO2 TSNO
94908KDBQ DBQ20070328044011103/28/07 04:40:31  5-MIN KDBQ 281040Z AUTO 06011KT 2 1/2SM BR OVC003 09/08 A3009 930 96 500 060/11 RMK AO2 TSNO
94908KDBQ DBQ20070328044510103/28/07 04:45:31  5-MIN KDBQ 281045Z 07011KT 2 1/2SM BR OVC003 09/08 A3009 930 93 500 070/11 RMK AO2
94908KDBQ DBQ20070328045011803/28/07 04:50:31  5-MIN KDBQ 281050Z 06013KT 2 1/2SM BR OVC003 09/08 A3009 920 93 500 060/13 RMK AO2 SLP190 T00940083
94908KDBQ DBQ20070328045512403/28/07 04:55:31  5-MIN KDBQ 281055Z 07011G16KT 2 1/2SM BR OVC003 09/08 A3009 920 93 500 070/11G16 RMK AO2 SLP190 T00940083
94908KDBQ DBQ20070328050010103/28/07 05:00:31  5-MIN KDBQ 281100Z 06010KT 2 1/2SM BR OVC003 09/08 A3009 920 93 500 060/10 RMK AO2
94908KDBQ DBQ20070328050510103/28/07 05:05:31  5-MIN KDBQ 281105Z 06010KT 2 1/2SM BR OVC003 09/08 A3009 920 93 500 060/10 RMK AO2
94908KDBQ DBQ20070328051010103/28/07 05:10:31  5-MIN KDBQ 281110Z 06011KT 2 1/2SM BR OVC003 09/08 A3010 920 93 500 060/11 RMK AO2
94908KDBQ DBQ20070328051510103/28/07 05:15:31  5-MIN KDBQ 281115Z 06011KT 2 1/2SM BR OVC003 09/08 A3010 920 93 500 060/11 RMK AO2
94908KDBQ DBQ20070328052010103/28/07 05:20:31  5-MIN KDBQ 281120Z 07012KT 2 1/2SM BR OVC003 09/08 A3010 920 93 500 070/12 RMK AO2
94908KDBQ DBQ20070328052510103/28/07 05:25:31  5-MIN KDBQ 281125Z 07012KT 2 1/2SM BR OVC003 09/08 A3010 910 93 500 070/12 RMK AO2
94908KDBQ DBQ20070328053010103/28/07 05:30:31  5-MIN KDBQ 281130Z 07012KT 2 1/2SM BR OVC003 09/08 A3010 910 93 500 070/12 RMK AO2
94908KDBQ DBQ20070328053510103/28/07 05:35:31  5-MIN KDBQ 281135Z 07015KT 2 1/2SM BR OVC003 10/09 A3010 910 93 600 070/15 RMK AO2
94908KDBQ DBQ20070328054010103/28/07 05:40:31  5-MIN KDBQ 281140Z 08014KT 2 1/2SM BR OVC003 10/09 A3010 910 93 600 080/14 RMK AO2
94908KDBQ DBQ20070328054510103/28/07 05:45:31  5-MIN KDBQ 281145Z 07013KT 2 1/2SM BR OVC003 10/09 A3010 910 93 600 070/13 RMK AO2
94908KDBQ DBQ20070328055009703/28/07 05:50:31  5-MIN KDBQ 281150Z 08014KT 3SM BR OVC003 10/09 A3011 910 93 600 080/14 RMK AO2
94908KDBQ DBQ20070328055513603/28/07 05:55:31  5-MIN KDBQ 281155Z 07014KT 2 1/2SM BR OVC003 10/09 A3011 910 93 600 070/14 RMK AO2 SLP197 T01000089 10100 20083 53010
94908KDBQ DBQ20070328060010103/28/07 06:00:31  5-MIN KDBQ 281200Z 08012KT 2 1/2SM BR OVC003 10/09 A3011 900 93 600 080/12 RMK AO2
94908KDBQ DBQ20070328060510103/28/07 06:05:31  5-MIN KDBQ 281205Z 07012KT 2 1/2SM BR OVC003 10/09 A3011 900 93 600 070/12 RMK AO2
94908KDBQ DBQ20070328061010103/28/07 06:10:31  5-MIN KDBQ 281210Z 08012KT 2 1/2SM BR OVC003 10/09 A3011 900 93 600 080/12 RMK AO2
94908KDBQ DBQ20070328061509703/28/07 06:15:31  5-MIN KDBQ 281215Z 07012KT 2SM BR OVC003 10/09 A3011 900 93 600 070/12 RMK AO2
94908KDBQ DBQ20070328062010103/28/07 06:20:31  5-MIN KDBQ 281220Z 08012KT 1 3/4SM BR OVC003 10/09 A3012 900 93 600 080/12 RMK AO2
94908KDBQ DBQ20070328062510303/28/07 06:25:31  5-MIN KDBQ 281225Z 07011G18KT 2SM BR OVC003 10/09 A3012 900 93 600 070/11G18 RMK AO2
94908KDBQ DBQ20070328063010303/28/07 06:30:31  5-MIN KDBQ 281230Z 08010G18KT 2SM BR OVC003 10/09 A3012 890 93 500 080/10G18 RMK AO2
94908KDBQ DBQ20070328063509703/28/07 06:35:31  5-MIN KDBQ 281235Z 08014KT 2SM BR OVC003 10/09 A3012 890 93 500 080/14 RMK AO2
94908KDBQ DBQ20070328064009703/28/07 06:40:31  5-MIN KDBQ 281240Z 07016KT 2SM BR OVC003 10/09 A3012 890 93 500 070/16 RMK AO2
94908KDBQ DBQ20070328064509703/28/07 06:45:31  5-MIN KDBQ 281245Z 07014KT 2SM BR OVC003 10/09 A3012 900 93 500 070/14 RMK AO2
94908KDBQ DBQ20070328065011403/28/07 06:50:31  5-MIN KDBQ 281250Z 07013KT 2SM BR OVC003 10/09 A3012 890 93 500 070/13 RMK AO2 SLP202 T01000089
94908KDBQ DBQ20070328065512403/28/07 06:55:31  5-MIN KDBQ 281255Z 08016G20KT 2 1/2SM BR OVC003 10/08 A3012 890 89 500 070/16G20 RMK AO2 SLP203 T01000083
94908KDBQ DBQ20070328070010703/28/07 07:00:31  5-MIN KDBQ 281300Z 08014G21KT 2 1/2SM BR OVC003 10/08 A3013 890 89 500 080/14G21 RMK AO2
94908KDBQ DBQ20070328070510303/28/07 07:05:31  5-MIN KDBQ 281305Z 08012G21KT 3SM BR OVC003 10/08 A3013 890 89 500 080/12G21 RMK AO2
94908KDBQ DBQ20070328071009703/28/07 07:10:31  5-MIN KDBQ 281310Z 07011KT 3SM BR OVC003 10/09 A3013 880 93 500 070/11 RMK AO2
94908KDBQ DBQ20070328071509703/28/07 07:15:31  5-MIN KDBQ 281315Z 07014KT 3SM BR OVC003 10/08 A3013 880 89 500 070/14 RMK AO2
94908KDBQ DBQ20070328072009703/28/07 07:20:31  5-MIN KDBQ 281320Z 08010KT 3SM BR OVC003 10/08 A3013 880 89 500 080/10 RMK AO2
94908KDBQ DBQ20070328072511303/28/07 07:25:31  5-MIN KDBQ 281325Z 08014KT 3SM -RA BR OVC003 10/08 A3014 880 89 500 080/14 RMK AO2 RAB21 P0000
94908KDBQ DBQ20070328073011903/28/07 07:30:31  5-MIN KDBQ 281330Z 09015G19KT 3SM -RA BR OVC003 10/08 A3014 880 89 500 090/15G19 RMK AO2 RAB21 P0000
94908KDBQ DBQ20070328073511803/28/07 07:35:31  5-MIN KDBQ 281335Z 08012G19KT 3SM BR OVC003 10/08 A3014 880 89 500 080/12G19 RMK AO2 RAB21E34 P0000
94908KDBQ DBQ20070328074011903/28/07 07:40:31  5-MIN KDBQ 281340Z 08014G19KT 3SM -RA BR OVC003 10/08 A3014 880 89 500 080/14G19 RMK AO2 RAB21 P0000
94908KDBQ DBQ20070328074511903/28/07 07:45:31  5-MIN KDBQ 281345Z 07012G19KT 3SM -RA BR OVC003 10/08 A3014 880 89 500 070/12G19 RMK AO2 RAB21 P0000
94908KDBQ DBQ20070328075013003/28/07 07:50:31  5-MIN KDBQ 281350Z 07013KT 3SM -RA BR OVC003 10/08 A3014 880 89 500 070/13 RMK AO2 RAB21 SLP209 P0000 T01000083
94908KDBQ DBQ20070328075512903/28/07 07:55:31  5-MIN KDBQ 281355Z 07010KT 3SM BR OVC003 10/08 A3014 870 89 500 070/10 RMK AO2 RAB21E55 SLP210 P0000 T01000083
94908KDBQ DBQ20070328080009703/28/07 08:00:31  5-MIN KDBQ 281400Z 08012KT 3SM BR OVC003 10/08 A3014 880 89 500 080/12 RMK AO2
94908KDBQ DBQ20070328080509703/28/07 08:05:31  5-MIN KDBQ 281405Z 08011KT 3SM BR OVC003 10/08 A3014 870 89 500 070/11 RMK AO2
94908KDBQ DBQ20070328081009703/28/07 08:10:31  5-MIN KDBQ 281410Z 08010KT 4SM BR OVC003 09/08 A3014 870 93 500 080/10 RMK AO2
94908KDBQ DBQ20070328081509703/28/07 08:15:31  5-MIN KDBQ 281415Z 07010KT 4SM BR OVC003 09/08 A3015 870 93 500 070/10 RMK AO2
94908KDBQ DBQ20070328082009703/28/07 08:20:31  5-MIN KDBQ 281420Z 08013KT 4SM BR OVC003 09/08 A3015 870 93 400 080/13 RMK AO2
94908KDBQ DBQ20070328082509703/28/07 08:25:31  5-MIN KDBQ 281425Z 08011KT 4SM BR OVC003 09/08 A3015 870 93 500 070/11 RMK AO2
94908KDBQ DBQ20070328083009703/28/07 08:30:31  5-MIN KDBQ 281430Z 07010KT 4SM BR OVC003 09/08 A3015 870 93 400 070/10 RMK AO2
94908KDBQ DBQ20070328083511303/28/07 08:35:31  5-MIN KDBQ 281435Z 07011KT 4SM -RA BR OVC003 09/08 A3015 870 93 400 070/11 RMK AO2 RAB32 P0000
94908KDBQ DBQ20070328084011303/28/07 08:40:31  5-MIN KDBQ 281440Z 07012KT 4SM -RA BR OVC003 09/08 A3015 870 93 400 070/12 RMK AO2 RAB32 P0000
94908KDBQ DBQ20070328084511303/28/07 08:45:31  5-MIN KDBQ 281445Z 07012KT 4SM -RA BR OVC003 09/08 A3015 870 93 500 070/12 RMK AO2 RAB32 P0000
94908KDBQ DBQ20070328085014803/28/07 08:50:31  5-MIN KDBQ 281450Z 08014G19KT 3SM -RA BR OVC003 09/08 A3015 870 93 500 070/14G19 RMK AO2 RAB32 SLP212 P0000 60000 T00940083 53010
94908KDBQ DBQ20070328085514503/28/07 08:55:31  5-MIN KDBQ 281455Z 07011KT 2 1/2SM RA BR OVC005 09/08 A3015 870 93 500 070/11 RMK AO2 RAB32 SLP212 P0002 60002 T00940083 51013
94908KDBQ DBQ20070328090011103/28/07 09:00:31  5-MIN KDBQ 281500Z 07013KT 2 1/2SM -RA BR OVC005 09/08 A3015 870 93 400 070/13 RMK AO2 P0000
94908KDBQ DBQ20070328090510703/28/07 09:05:31  5-MIN KDBQ 281505Z 07012KT 3SM -RA BR OVC005 09/08 A3015 870 93 400 070/12 RMK AO2 P0000
94908KDBQ DBQ20070328091010703/28/07 09:10:31  5-MIN KDBQ 281510Z 06012KT 4SM -RA BR OVC005 09/08 A3015 870 93 400 060/12 RMK AO2 P0001
94908KDBQ DBQ20070328091510703/28/07 09:15:31  5-MIN KDBQ 281515Z 07015KT 4SM -RA BR OVC005 09/08 A3015 860 93 400 070/15 RMK AO2 P0001
94908KDBQ DBQ20070328092011303/28/07 09:20:31  5-MIN KDBQ 281520Z 08014G19KT 4SM -RA BR OVC005 09/08 A3015 860 93 400 080/14G19 RMK AO2 P0001
94908KDBQ DBQ20070328092511303/28/07 09:25:31  5-MIN KDBQ 281525Z 07010G19KT 5SM -RA BR OVC005 09/08 A3016 860 93 400 070/10G19 RMK AO2 P0001
94908KDBQ DBQ20070328093010703/28/07 09:30:31  5-MIN KDBQ 281530Z 07012KT 6SM -RA BR OVC005 09/08 A3016 860 93 400 070/12 RMK AO2 P0001
94908KDBQ DBQ20070328093510903/28/07 09:35:31  5-MIN KDBQ 281535Z 07010KT 6SM BR OVC005 09/08 A3016 860 93 400 070/10 RMK AO2 RAE33 P0001
94908KDBQ DBQ20070328094010903/28/07 09:40:31  5-MIN KDBQ 281540Z 06011KT 6SM BR OVC005 09/08 A3016 860 93 400 060/11 RMK AO2 RAE33 P0001
94908KDBQ DBQ20070328094510903/28/07 09:45:31  5-MIN KDBQ 281545Z 07011KT 6SM BR OVC005 09/08 A3016 860 93 400 060/11 RMK AO2 RAE33 P0001
94908KDBQ DBQ20070328095013203/28/07 09:50:31  5-MIN KDBQ 281550Z 06014G18KT 6SM BR OVC005 09/08 A3016 860 93 400 060/14G18 RMK AO2 RAE33 SLP216 P0001 T00940083
94908KDBQ DBQ20070328095513203/28/07 09:55:31  5-MIN KDBQ 281555Z 07013G18KT 6SM BR OVC005 09/08 A3016 860 93 400 070/13G18 RMK AO2 RAE33 SLP216 P0001 T00940083
94908KDBQ DBQ20070328100009703/28/07 10:00:31  5-MIN KDBQ 281600Z 07015KT 6SM BR OVC005 10/08 A3016 860 89 500 070/15 RMK AO2
94908KDBQ DBQ20070328100509703/28/07 10:05:31  5-MIN KDBQ 281605Z 07015KT 6SM BR OVC005 10/08 A3016 860 89 500 070/15 RMK AO2
94908KDBQ DBQ20070328101009703/28/07 10:10:31  5-MIN KDBQ 281610Z 07015KT 6SM BR OVC005 09/08 A3016 850 93 400 070/15 RMK AO2
94908KDBQ DBQ20070328101509703/28/07 10:15:31  5-MIN KDBQ 281615Z 07013KT 6SM BR OVC005 09/08 A3017 850 93 400 070/13 RMK AO2
94908KDBQ DBQ20070328102009703/28/07 10:20:31  5-MIN KDBQ 281620Z 07015KT 6SM BR OVC005 09/08 A3016 850 93 400 070/15 RMK AO2
94908KDBQ DBQ20070328102509703/28/07 10:25:31  5-MIN KDBQ 281625Z 07012KT 6SM BR OVC005 09/08 A3017 850 93 400 070/12 RMK AO2
94908KDBQ DBQ20070328103009703/28/07 10:30:31  5-MIN KDBQ 281630Z 07012KT 5SM BR OVC005 09/08 A3017 850 93 400 070/12 RMK AO2
94908KDBQ DBQ20070328103509703/28/07 10:35:31  5-MIN KDBQ 281635Z 07014KT 5SM BR OVC005 09/08 A3017 850 93 400 070/14 RMK AO2
94908KDBQ DBQ20070328104009703/28/07 10:40:31  5-MIN KDBQ 281640Z 07014KT 5SM BR OVC005 09/08 A3017 850 93 400 070/14 RMK AO2
94908KDBQ DBQ20070328104509703/28/07 10:45:31  5-MIN KDBQ 281645Z 07014KT 5SM BR OVC005 09/08 A3017 850 93 400 070/14 RMK AO2
94908KDBQ DBQ20070328105012003/28/07 10:50:31  5-MIN KDBQ 281650Z 07011G19KT 5SM BR OVC005 09/08 A3017 850 93 400 070/11G19 RMK AO2 SLP220 T00940083
94908KDBQ DBQ20070328105511403/28/07 10:55:31  5-MIN KDBQ 281655Z 07013KT 5SM BR OVC005 09/08 A3017 850 93 400 070/13 RMK AO2 SLP220 T00940083
94908KDBQ DBQ20070328110010303/28/07 11:00:31  5-MIN KDBQ 281700Z 07014G20KT 5SM BR OVC005 09/08 A3017 850 93 400 070/14G20 RMK AO2
94908KDBQ DBQ20070328110510203/28/07 11:05:31  5-MIN KDBQ 281705Z AUTO 07014KT 4SM BR OVC005 09/08 A3017 850 93 400 070/14 RMK AO2
94908KDBQ DBQ20070328111009703/28/07 11:10:31  5-MIN KDBQ 281710Z 08015KT 4SM BR OVC005 09/08 A3017 850 93 400 080/15 RMK AO2
94908KDBQ DBQ20070328111509703/28/07 11:15:31  5-MIN KDBQ 281715Z 07013KT 4SM BR OVC005 09/08 A3017 850 93 400 070/13 RMK AO2
94908KDBQ DBQ20070328112009703/28/07 11:20:31  5-MIN KDBQ 281720Z 07013KT 4SM BR OVC005 09/08 A3017 850 93 400 070/13 RMK AO2
94908KDBQ DBQ20070328112509703/28/07 11:25:31  5-MIN KDBQ 281725Z 08014KT 4SM BR OVC005 09/08 A3017 840 93 400 070/14 RMK AO2
94908KDBQ DBQ20070328113009703/28/07 11:30:31  5-MIN KDBQ 281730Z 08015KT 3SM BR OVC005 09/08 A3018 840 93 400 080/15 RMK AO2
94908KDBQ DBQ20070328113509703/28/07 11:35:31  5-MIN KDBQ 281735Z 06013KT 3SM BR OVC005 09/08 A3018 840 93 400 060/13 RMK AO2
94908KDBQ DBQ20070328114009703/28/07 11:40:31  5-MIN KDBQ 281740Z 07011KT 3SM BR OVC005 09/08 A3018 840 93 400 070/11 RMK AO2
94908KDBQ DBQ20070328114512303/28/07 11:45:31  5-MIN KDBQ 281745Z 08011G18KT 2 1/2SM -RA BR OVC005 09/08 A3018 840 93 400 080/11G18 RMK AO2 RAB45 P0000
94908KDBQ DBQ20070328115015803/28/07 11:50:31  5-MIN KDBQ 281750Z 07012KT 2 1/2SM -RA BR OVC005 09/08 A3018 840 93 400 070/12 RMK AO2 RAB45 SLP224 P0000 60003 T00940083 10100 20094 51013
94908KDBQ DBQ20070328115515803/28/07 11:55:31  5-MIN KDBQ 281755Z 07015KT 2 1/2SM -RA BR OVC005 09/08 A3018 840 93 400 070/15 RMK AO2 RAB45 SLP224 P0001 60004 T00940083 10100 20094 51010
94908KDBQ DBQ20070328120011103/28/07 12:00:31  5-MIN KDBQ 281800Z 06013KT 2 1/2SM -RA BR OVC005 09/08 A3018 840 93 400 060/13 RMK AO2 P0000
94908KDBQ DBQ20070328120511003/28/07 12:05:31  5-MIN KDBQ 281805Z 07013KT 1 3/4SM RA BR OVC005 09/08 A3018 840 93 400 060/13 RMK AO2 P0001
94908KDBQ DBQ20070328121011003/28/07 12:10:31  5-MIN KDBQ 281810Z 06012KT 1 1/2SM RA BR OVC005 09/08 A3018 840 93 400 060/12 RMK AO2 P0002
94908KDBQ DBQ20070328121510703/28/07 12:15:31  5-MIN KDBQ 281815Z 06012KT 2SM -RA BR OVC005 09/08 A3018 840 93 400 060/12 RMK AO2 P0002
94908KDBQ DBQ20070328122010703/28/07 12:20:31  5-MIN KDBQ 281820Z 07011KT 3SM -RA BR OVC005 09/08 A3018 840 93 400 070/11 RMK AO2 P0002
94908KDBQ DBQ20070328122512103/28/07 12:25:31  5-MIN KDBQ 281825Z 06012KT 4SM BR OVC005 09/08 A3018 840 93 400 060/12 RMK AO2 RAE22 CIG 004V008 P0003
94908KDBQ DBQ20070328123010903/28/07 12:30:31  5-MIN KDBQ 281830Z 06012KT 4SM BR OVC005 09/08 A3018 840 93 400 060/12 RMK AO2 RAE22 P0003
94908KDBQ DBQ20070328123512103/28/07 12:35:31  5-MIN KDBQ 281835Z 06013KT 4SM BR OVC005 09/08 A3018 840 93 400 060/13 RMK AO2 RAE22 CIG 004V010 P0003
94908KDBQ DBQ20070328124010903/28/07 12:40:31  5-MIN KDBQ 281840Z 07013KT 4SM BR OVC005 09/08 A3018 840 93 400 070/13 RMK AO2 RAE22 P0003
94908KDBQ DBQ20070328124512103/28/07 12:45:31  5-MIN KDBQ 281845Z 07013KT 4SM BR OVC005 09/08 A3018 840 93 400 060/13 RMK AO2 RAE22 CIG 004V010 P0003
94908KDBQ DBQ20070328125014403/28/07 12:50:31  5-MIN KDBQ 281850Z 06012KT 3SM RA BR OVC005 09/08 A3018 840 89 400 060/12 RMK AO2 RAE22B46 CIG 004V010 SLP225 P0003 T00940078
94908KDBQ DBQ20070328125514303/28/07 12:55:31  5-MIN KDBQ 281855Z 07014KT 2 1/2SM RA BR BKN005 OVC009 09/08 A3018 840 93 300 060/14 RMK AO2 RAE22B46 SLP226 P0004 T00890078
94908KDBQ DBQ20070328130012603/28/07 13:00:31  5-MIN KDBQ 281900Z 07015KT 3SM -RA BR BKN005 OVC009 09/08 A3018 840 93 300 070/15 RMK AO2 CIG 004V008 P0000
94908KDBQ DBQ20070328130511903/28/07 13:05:31  5-MIN KDBQ 281905Z 07016KT 4SM -RA BR OVC005 09/08 A3018 840 93 300 070/16 RMK AO2 CIG 004V010 P0000
94908KDBQ DBQ20070328131012803/28/07 13:10:31  5-MIN KDBQ 281910Z 06014KT 5SM BR BKN007 OVC010 09/08 A3018 840 93 300 060/14 RMK AO2 RAE09 CIG 005V008 P0001
94908KDBQ DBQ20070328131512103/28/07 13:15:31  5-MIN KDBQ 281915Z 07012KT 5SM BR OVC007 09/08 A3018 840 93 300 070/12 RMK AO2 RAE09 CIG 005V010 P0001
94908KDBQ DBQ20070328132012503/28/07 13:20:31  5-MIN KDBQ 281920Z 08014G20KT 4SM -RA BR OVC007 09/08 A3018 840 93 300 080/14G20 RMK AO2 CIG 005V010 P0001
94908KDBQ DBQ20070328132512503/28/07 13:25:31  5-MIN KDBQ 281925Z 08012G20KT 3SM -RA BR OVC007 09/08 A3018 840 93 300 070/12G20 RMK AO2 CIG 005V010 P0001
94908KDBQ DBQ20070328133012503/28/07 13:30:31  5-MIN KDBQ 281930Z 07016G19KT 4SM -RA BR OVC007 09/08 A3018 840 93 300 070/16G19 RMK AO2 CIG 005V010 P0001
94908KDBQ DBQ20070328133512103/28/07 13:35:31  5-MIN KDBQ 281935Z 07015KT 5SM BR OVC007 09/08 A3018 840 93 300 070/15 RMK AO2 RAE33 CIG 005V010 P0001
94908KDBQ DBQ20070328134012103/28/07 13:40:31  5-MIN KDBQ 281940Z 08014KT 5SM BR OVC007 09/08 A3018 840 93 300 080/14 RMK AO2 RAE33 CIG 005V009 P0001
94908KDBQ DBQ20070328134512103/28/07 13:45:31  5-MIN KDBQ 281945Z 06015KT 5SM BR OVC005 09/08 A3018 840 93 300 060/15 RMK AO2 RAE33 CIG 004V009 P0001
94908KDBQ DBQ20070328135012603/28/07 13:50:31  5-MIN KDBQ 281950Z 08016KT 5SM BR OVC005 09/07 A3018 840 89 300 080/16 RMK AO2 RAE33 SLP226 P0001 T00890072
94908KDBQ DBQ20070328135513203/28/07 13:55:31  5-MIN KDBQ 281955Z 08017G23KT 4SM BR OVC005 09/07 A3018 840 89 300 070/17G23 RMK AO2 RAE33 SLP227 P0001 T00890072
94908KDBQ DBQ20070328140010303/28/07 14:00:31  5-MIN KDBQ 282000Z 07015G23KT 4SM BR OVC005 09/07 A3019 830 89 300 070/15G23 RMK AO2
94908KDBQ DBQ20070328140509703/28/07 14:05:31  5-MIN KDBQ 282005Z 08015KT 4SM BR OVC005 09/07 A3019 830 89 300 080/15 RMK AO2
94908KDBQ DBQ20070328141009703/28/07 14:10:31  5-MIN KDBQ 282010Z 07014KT 4SM BR OVC005 09/07 A3019 830 89 300 070/14 RMK AO2
94908KDBQ DBQ20070328141509703/28/07 14:15:31  5-MIN KDBQ 282015Z 06011KT 4SM BR OVC005 09/08 A3018 840 93 300 050/11 RMK AO2
94908KDBQ DBQ20070328142009703/28/07 14:20:31  5-MIN KDBQ 282020Z 06013KT 4SM BR OVC005 09/07 A3018 840 89 300 060/13 RMK AO2
94908KDBQ DBQ20070328142509703/28/07 14:25:31  5-MIN KDBQ 282025Z 06018KT 4SM BR OVC005 08/07 A3018 840 93 300 060/18 RMK AO2
94908KDBQ DBQ20070328143010303/28/07 14:30:31  5-MIN KDBQ 282030Z 07017G23KT 4SM BR OVC005 08/07 A3018 840 93 300 070/17G23 RMK AO2
94908KDBQ DBQ20070328143510303/28/07 14:35:31  5-MIN KDBQ 282035Z 07014G23KT 4SM BR OVC005 08/07 A3018 840 93 300 070/14G23 RMK AO2
94908KDBQ DBQ20070328144009703/28/07 14:40:31  5-MIN KDBQ 282040Z 07011KT 4SM BR OVC005 08/07 A3019 830 93 300 060/11 RMK AO2
94908KDBQ DBQ20070328144509703/28/07 14:45:31  5-MIN KDBQ 282045Z 06011KT 4SM BR OVC005 08/07 A3019 830 93 300 060/11 RMK AO2
94908KDBQ DBQ20070328145012603/28/07 14:50:31  5-MIN KDBQ 282050Z 07012KT 4SM BR OVC005 08/07 A3019 830 93 300 070/12 RMK AO2 SLP229 60005 T00830072 51010
94908KDBQ DBQ20070328145512603/28/07 14:55:31  5-MIN KDBQ 282055Z 06014KT 5SM BR OVC005 08/07 A3019 830 89 300 060/14 RMK AO2 SLP228 60005 T00830067 53003
94908KDBQ DBQ20070328150010303/28/07 15:00:31  5-MIN KDBQ 282100Z 07014G20KT 5SM BR OVC005 08/07 A3019 830 89 300 070/14G20 RMK AO2
94908KDBQ DBQ20070328150510303/28/07 15:05:31  5-MIN KDBQ 282105Z 07014G20KT 5SM BR OVC005 08/07 A3019 830 89 300 060/14G20 RMK AO2
94908KDBQ DBQ20070328151009703/28/07 15:10:31  5-MIN KDBQ 282110Z 07012KT 5SM BR OVC005 08/07 A3019 830 89 300 070/12 RMK AO2
94908KDBQ DBQ20070328151509703/28/07 15:15:31  5-MIN KDBQ 282115Z 06013KT 5SM BR OVC005 08/07 A3019 830 93 200 060/13 RMK AO2
94908KDBQ DBQ20070328152009703/28/07 15:20:31  5-MIN KDBQ 282120Z 06013KT 5SM BR OVC005 08/07 A3019 830 93 200 060/13 RMK AO2
94908KDBQ DBQ20070328152509703/28/07 15:25:31  5-MIN KDBQ 282125Z 06013KT 5SM BR OVC005 08/07 A3019 830 93 200 060/13 RMK AO2
94908KDBQ DBQ20070328153009703/28/07 15:30:31  5-MIN KDBQ 282130Z 06013KT 6SM BR OVC005 08/07 A3019 830 93 200 060/13 RMK AO2
94908KDBQ DBQ20070328153509703/28/07 15:35:31  5-MIN KDBQ 282135Z 07014KT 6SM BR OVC005 08/07 A3019 830 93 200 070/14 RMK AO2
94908KDBQ DBQ20070328154009703/28/07 15:40:31  5-MIN KDBQ 282140Z 06014KT 6SM BR OVC005 08/07 A3019 830 93 200 060/14 RMK AO2
94908KDBQ DBQ20070328154509703/28/07 15:45:31  5-MIN KDBQ 282145Z 06013KT 6SM BR OVC005 08/07 A3018 830 93 200 060/13 RMK AO2
94908KDBQ DBQ20070328155011403/28/07 15:50:31  5-MIN KDBQ 282150Z 07013KT 6SM BR OVC005 08/06 A3019 830 89 200 060/13 RMK AO2 SLP227 T00780061
94908KDBQ DBQ20070328155512003/28/07 15:55:31  5-MIN KDBQ 282155Z 07013G20KT 6SM BR OVC005 08/06 A3019 830 89 200 060/13G20 RMK AO2 SLP227 T00780061
94908KDBQ DBQ20070328160010303/28/07 16:00:31  5-MIN KDBQ 282200Z 06013G20KT 6SM BR OVC005 08/06 A3019 830 89 200 060/13G20 RMK AO2
94908KDBQ DBQ20070328160509703/28/07 16:05:31  5-MIN KDBQ 282205Z 06012KT 6SM BR OVC005 08/06 A3019 830 89 200 060/12 RMK AO2
94908KDBQ DBQ20070328161010303/28/07 16:10:31  5-MIN KDBQ 282210Z 06013G20KT 6SM BR OVC005 08/06 A3019 830 89 200 060/13G20 RMK AO2
94908KDBQ DBQ20070328161510303/28/07 16:15:31  5-MIN KDBQ 282215Z 06010G20KT 6SM BR OVC005 08/06 A3019 830 89 200 060/10G20 RMK AO2
94908KDBQ DBQ20070328162009703/28/07 16:20:31  5-MIN KDBQ 282220Z 06010KT 6SM BR OVC005 08/06 A3020 820 89 200 060/10 RMK AO2
94908KDBQ DBQ20070328162509703/28/07 16:25:31  5-MIN KDBQ 282225Z 06010KT 6SM BR OVC005 08/06 A3020 820 89 200 060/10 RMK AO2
94908KDBQ DBQ20070328163010303/28/07 16:30:31  5-MIN KDBQ 282230Z 06013G18KT 6SM BR OVC005 08/06 A3019 830 89 200 060/13G18 RMK AO2
94908KDBQ DBQ20070328163509703/28/07 16:35:31  5-MIN KDBQ 282235Z 06012KT 6SM BR OVC005 08/06 A3020 820 89 200 060/12 RMK AO2
94908KDBQ DBQ20070328164009703/28/07 16:40:31  5-MIN KDBQ 282240Z 06012KT 6SM BR OVC005 07/06 A3020 820 89 100 060/12 RMK AO2
94908KDBQ DBQ20070328164509403/28/07 16:45:31  5-MIN KDBQ 282245Z 06013KT 7SM OVC005 07/06 A3020 820 89 100 060/13 RMK AO2
94908KDBQ DBQ20070328165011103/28/07 16:50:31  5-MIN KDBQ 282250Z 07012KT 7SM OVC005 07/06 A3020 820 89 100 070/12 RMK AO2 SLP231 T00720056
94908KDBQ DBQ20070328165511103/28/07 16:55:31  5-MIN KDBQ 282255Z 07015KT 7SM OVC005 07/06 A3020 820 93 100 070/15 RMK AO2 SLP232 T00720061
94908KDBQ DBQ20070328170010003/28/07 17:00:31  5-MIN KDBQ 282300Z 07016G20KT 8SM OVC005 07/06 A3020 820 89 100 070/16G20 RMK AO2
94908KDBQ DBQ20070328170510003/28/07 17:05:31  5-MIN KDBQ 282305Z 07011G20KT 8SM OVC005 07/06 A3020 820 89 100 060/11G20 RMK AO2
94908KDBQ DBQ20070328171009403/28/07 17:10:31  5-MIN KDBQ 282310Z 06013KT 8SM OVC005 07/06 A3020 820 89 100 060/13 RMK AO2
94908KDBQ DBQ20070328171509403/28/07 17:15:31  5-MIN KDBQ 282315Z 06015KT 8SM OVC005 07/06 A3020 820 89 100 060/15 RMK AO2
94908KDBQ DBQ20070328172009403/28/07 17:20:31  5-MIN KDBQ 282320Z 07013KT 8SM OVC005 07/06 A3020 820 89 100 060/13 RMK AO2
94908KDBQ DBQ20070328172509403/28/07 17:25:31  5-MIN KDBQ 282325Z 06016KT 8SM OVC005 07/06 A3020 820 89 100 060/16 RMK AO2
94908KDBQ DBQ20070328173009403/28/07 17:30:31  5-MIN KDBQ 282330Z 07013KT 8SM OVC005 07/06 A3021 810 89 100 070/13 RMK AO2
94908KDBQ DBQ20070328173510003/28/07 17:35:31  5-MIN KDBQ 282335Z 07016G21KT 8SM OVC005 07/06 A3021 810 89 100 070/16G21 RMK AO2
94908KDBQ DBQ20070328174010003/28/07 17:40:31  5-MIN KDBQ 282340Z 07012G21KT 8SM OVC005 07/06 A3021 810 89 100 070/12G21 RMK AO2
94908KDBQ DBQ20070328174509403/28/07 17:45:31  5-MIN KDBQ 282345Z 07012KT 8SM OVC005 07/06 A3021 810 89 100 070/12 RMK AO2
94908KDBQ DBQ20070328175013503/28/07 17:50:31  5-MIN KDBQ 282350Z 06010KT 7SM OVC005 07/06 A3021 810 89 100 060/10 RMK AO2 SLP236 60005 T00720056 10094 20072 53003
94908KDBQ DBQ20070328175513503/28/07 17:55:31  5-MIN KDBQ 282355Z 07012KT 7SM OVC005 07/06 A3021 810 89 100 060/12 RMK AO2 SLP237 60005 T00720056 10094 20072 53008
94908KDBQ DBQ20070328180009403/28/07 18:00:31  5-MIN KDBQ 290000Z 06011KT 7SM OVC005 07/06 A3022 810 89 100 060/11 RMK AO2
94908KDBQ DBQ20070328180509403/28/07 18:05:31  5-MIN KDBQ 290005Z 06011KT 7SM OVC005 07/06 A3022 800 89 100 060/11 RMK AO2
94908KDBQ DBQ20070328181009403/28/07 18:10:31  5-MIN KDBQ 290010Z 06012KT 7SM OVC005 07/06 A3022 800 89 100 060/12 RMK AO2
94908KDBQ DBQ20070328181509403/28/07 18:15:31  5-MIN KDBQ 290015Z 06012KT 7SM OVC005 07/06 A3022 800 89 100 060/12 RMK AO2
94908KDBQ DBQ20070328182009403/28/07 18:20:31  5-MIN KDBQ 290020Z 06011KT 7SM OVC005 07/06 A3022 800 89 100 060/11 RMK AO2
94908KDBQ DBQ20070328182509403/28/07 18:25:31  5-MIN KDBQ 290025Z 07011KT 8SM OVC005 07/06 A3022 800 89 100 070/11 RMK AO2
94908KDBQ DBQ20070328183009403/28/07 18:30:31  5-MIN KDBQ 290030Z 07011KT 8SM OVC005 07/06 A3022 800 89 100 070/11 RMK AO2
94908KDBQ DBQ20070328183509403/28/07 18:35:31  5-MIN KDBQ 290035Z 06012KT 7SM OVC005 07/06 A3022 800 89 100 060/12 RMK AO2
94908KDBQ DBQ20070328184009403/28/07 18:40:31  5-MIN KDBQ 290040Z 07010KT 7SM OVC005 07/06 A3022 800 89 100 070/10 RMK AO2
94908KDBQ DBQ20070328184509403/28/07 18:45:31  5-MIN KDBQ 290045Z 07013KT 7SM OVC005 07/06 A3023 800 93 100 070/13 RMK AO2
94908KDBQ DBQ20070328185012103/28/07 18:50:31  5-MIN KDBQ 290050Z AUTO 07014KT 7SM OVC005 07/06 A3023 800 89 100 070/14 RMK AO2 SLP241 T00720056 TSNO
94908KDBQ DBQ20070328185512103/28/07 18:55:31  5-MIN KDBQ 290055Z AUTO 07011KT 7SM OVC005 07/06 A3023 800 93 100 070/11 RMK AO2 SLP242 T00720061 TSNO
94908KDBQ DBQ20070328190010403/28/07 19:00:31  5-MIN KDBQ 290100Z AUTO 08009KT 7SM OVC005 07/06 A3023 790 93 100 080/09 RMK AO2 TSNO
94908KDBQ DBQ20070328190511003/28/07 19:05:31  5-MIN KDBQ 290105Z AUTO 08012G16KT 7SM OVC005 07/06 A3023 790 93 100 070/12G16 RMK AO2 TSNO
94908KDBQ DBQ20070328191011003/28/07 19:10:31  5-MIN KDBQ 290110Z AUTO 07008G16KT 7SM OVC005 07/06 A3023 790 93 100 070/08G16 RMK AO2 TSNO
94908KDBQ DBQ20070328191510703/28/07 19:15:31  5-MIN KDBQ 290115Z AUTO 07008KT 6SM BR OVC005 07/06 A3023 790 93 100 070/08 RMK AO2 TSNO
94908KDBQ DBQ20070328192010703/28/07 19:20:31  5-MIN KDBQ 290120Z AUTO 07009KT 6SM BR OVC005 07/06 A3023 790 93 100 070/09 RMK AO2 TSNO
94908KDBQ DBQ20070328192510703/28/07 19:25:31  5-MIN KDBQ 290125Z AUTO 07008KT 6SM BR OVC005 07/06 A3023 790 93 100 070/08 RMK AO2 TSNO
94908KDBQ DBQ20070328193010703/28/07 19:30:31  5-MIN KDBQ 290130Z AUTO 07011KT 6SM BR OVC005 07/06 A3023 790 93 100 070/11 RMK AO2 TSNO
94908KDBQ DBQ20070328193510703/28/07 19:35:31  5-MIN KDBQ 290135Z AUTO 08012KT 6SM BR OVC005 07/06 A3023 790 93 100 070/12 RMK AO2 TSNO
94908KDBQ DBQ20070328194010703/28/07 19:40:31  5-MIN KDBQ 290140Z AUTO 07011KT 6SM BR OVC005 08/06 A3023 790 89 200 070/11 RMK AO2 TSNO
94908KDBQ DBQ20070328194510703/28/07 19:45:31  5-MIN KDBQ 290145Z AUTO 07012KT 6SM BR OVC005 08/06 A3023 790 89 200 070/12 RMK AO2 TSNO
94908KDBQ DBQ20070328195012403/28/07 19:50:31  5-MIN KDBQ 290150Z AUTO 07011KT 6SM BR OVC005 08/06 A3024 790 89 100 070/11 RMK AO2 SLP245 T00780061 TSNO
94908KDBQ DBQ20070328195512403/28/07 19:55:31  5-MIN KDBQ 290155Z AUTO 07010KT 6SM BR OVC005 08/06 A3024 790 89 100 070/10 RMK AO2 SLP245 T00780061 TSNO
94908KDBQ DBQ20070328200010703/28/07 20:00:31  5-MIN KDBQ 290200Z AUTO 07010KT 5SM BR OVC005 08/06 A3024 790 89 100 070/10 RMK AO2 TSNO
94908KDBQ DBQ20070328200510703/28/07 20:05:31  5-MIN KDBQ 290205Z AUTO 07010KT 5SM BR OVC005 08/06 A3023 790 89 200 070/10 RMK AO2 TSNO
94908KDBQ DBQ20070328201011303/28/07 20:10:31  5-MIN KDBQ 290210Z AUTO 07012G17KT 5SM BR OVC005 08/06 A3023 790 89 200 070/12G17 RMK AO2 TSNO
94908KDBQ DBQ20070328201510703/28/07 20:15:31  5-MIN KDBQ 290215Z AUTO 07011KT 5SM BR OVC005 08/06 A3023 790 89 200 070/11 RMK AO2 TSNO
94908KDBQ DBQ20070328202010703/28/07 20:20:31  5-MIN KDBQ 290220Z AUTO 08010KT 5SM BR OVC005 08/06 A3023 790 89 200 080/10 RMK AO2 TSNO
94908KDBQ DBQ20070328202511303/28/07 20:25:31  5-MIN KDBQ 290225Z AUTO 08013G18KT 5SM BR OVC005 08/06 A3023 790 89 200 080/13G18 RMK AO2 TSNO
94908KDBQ DBQ20070328203010703/28/07 20:30:31  5-MIN KDBQ 290230Z AUTO 08011KT 5SM BR OVC005 08/06 A3024 790 89 100 080/11 RMK AO2 TSNO
94908KDBQ DBQ20070328203510703/28/07 20:35:31  5-MIN KDBQ 290235Z AUTO 08010KT 5SM BR OVC005 08/06 A3024 790 89 100 080/10 RMK AO2 TSNO
94908KDBQ DBQ20070328204011303/28/07 20:40:31  5-MIN KDBQ 290240Z AUTO 08011G16KT 5SM BR OVC005 08/06 A3024 790 89 100 070/11G16 RMK AO2 TSNO
94908KDBQ DBQ20070328204510703/28/07 20:45:31  5-MIN KDBQ 290245Z AUTO 07011KT 5SM BR OVC005 08/06 A3024 780 89 100 070/11 RMK AO2 TSNO
94908KDBQ DBQ20070328205013003/28/07 20:50:31  5-MIN KDBQ 290250Z AUTO 07012KT 5SM BR OVC005 08/06 A3024 780 89 100 070/12 RMK AO2 SLP246 T00780061 53008 TSNO
94908KDBQ DBQ20070328205513003/28/07 20:55:31  5-MIN KDBQ 290255Z AUTO 08010KT 5SM BR OVC005 08/06 A3024 780 89 100 080/10 RMK AO2 SLP246 T00780061 51009 TSNO
94908KDBQ DBQ20070328210010703/28/07 21:00:31  5-MIN KDBQ 290300Z AUTO 08009KT 5SM BR OVC005 08/07 A3024 780 93 100 080/09 RMK AO2 TSNO
94908KDBQ DBQ20070328210510703/28/07 21:05:31  5-MIN KDBQ 290305Z AUTO 08011KT 5SM BR OVC005 08/07 A3025 780 93 100 080/11 RMK AO2 TSNO
94908KDBQ DBQ20070328211011303/28/07 21:10:31  5-MIN KDBQ 290310Z AUTO 09012G15KT 5SM BR OVC005 08/07 A3025 780 93 100 090/12G15 RMK AO2 TSNO
94908KDBQ DBQ20070328211510703/28/07 21:15:31  5-MIN KDBQ 290315Z AUTO 09010KT 5SM BR OVC005 08/07 A3025 780 89 200 090/10 RMK AO2 TSNO
94908KDBQ DBQ20070328212010703/28/07 21:20:31  5-MIN KDBQ 290320Z AUTO 08008KT 5SM BR OVC005 08/07 A3025 770 89 200 080/08 RMK AO2 TSNO
94908KDBQ DBQ20070328212510703/28/07 21:25:31  5-MIN KDBQ 290325Z AUTO 10006KT 5SM BR OVC005 08/07 A3025 780 89 200 100/06 RMK AO2 TSNO
94908KDBQ DBQ20070328213010703/28/07 21:30:31  5-MIN KDBQ 290330Z AUTO 08009KT 5SM BR OVC005 08/07 A3025 770 89 200 080/09 RMK AO2 TSNO
94908KDBQ DBQ20070328213510703/28/07 21:35:31  5-MIN KDBQ 290335Z AUTO 09010KT 5SM BR OVC005 08/07 A3025 780 89 200 090/10 RMK AO2 TSNO
94908KDBQ DBQ20070328214010703/28/07 21:40:31  5-MIN KDBQ 290340Z AUTO 09011KT 5SM BR OVC005 08/07 A3025 780 89 200 090/11 RMK AO2 TSNO
94908KDBQ DBQ20070328214510703/28/07 21:45:31  5-MIN KDBQ 290345Z AUTO 09012KT 5SM BR OVC005 08/07 A3024 780 89 200 090/12 RMK AO2 TSNO
94908KDBQ DBQ20070328215012403/28/07 21:50:31  5-MIN KDBQ 290350Z AUTO 10012KT 5SM BR OVC005 08/07 A3025 780 89 200 100/12 RMK AO2 SLP248 T00830067 TSNO
94908KDBQ DBQ20070328215512403/28/07 21:55:31  5-MIN KDBQ 290355Z AUTO 09013KT 5SM BR OVC005 08/07 A3024 780 89 200 090/13 RMK AO2 SLP247 T00830067 TSNO
94908KDBQ DBQ20070328220010703/28/07 22:00:31  5-MIN KDBQ 290400Z AUTO 10011KT 4SM BR OVC005 08/07 A3024 780 89 200 090/11 RMK AO2 TSNO
94908KDBQ DBQ20070328220510703/28/07 22:05:31  5-MIN KDBQ 290405Z AUTO 09012KT 4SM BR OVC005 08/07 A3024 790 89 200 090/12 RMK AO2 TSNO
94908KDBQ DBQ20070328221010703/28/07 22:10:31  5-MIN KDBQ 290410Z AUTO 09012KT 4SM BR OVC005 08/07 A3024 790 89 200 090/12 RMK AO2 TSNO
94908KDBQ DBQ20070328221510703/28/07 22:15:31  5-MIN KDBQ 290415Z AUTO 09011KT 4SM BR OVC005 08/07 A3024 790 89 200 080/11 RMK AO2 TSNO
94908KDBQ DBQ20070328222010703/28/07 22:20:31  5-MIN KDBQ 290420Z AUTO 08014KT 4SM BR OVC005 08/07 A3023 790 89 200 080/14 RMK AO2 TSNO
94908KDBQ DBQ20070328222510703/28/07 22:25:31  5-MIN KDBQ 290425Z AUTO 08012KT 4SM BR OVC005 08/07 A3023 790 89 200 080/12 RMK AO2 TSNO
94908KDBQ DBQ20070328223010703/28/07 22:30:31  5-MIN KDBQ 290430Z AUTO 09012KT 4SM BR OVC005 08/07 A3024 790 89 200 080/12 RMK AO2 TSNO
94908KDBQ DBQ20070328223510703/28/07 22:35:31  5-MIN KDBQ 290435Z AUTO 08011KT 4SM BR OVC005 08/07 A3024 790 89 200 080/11 RMK AO2 TSNO
94908KDBQ DBQ20070328224011303/28/07 22:40:31  5-MIN KDBQ 290440Z AUTO 08013G18KT 4SM BR OVC005 08/07 A3024 790 89 200 080/13G18 RMK AO2 TSNO
94908KDBQ DBQ20070328224511303/28/07 22:45:31  5-MIN KDBQ 290445Z AUTO 09012G18KT 4SM BR OVC005 08/07 A3023 790 89 200 080/12G18 RMK AO2 TSNO
94908KDBQ DBQ20070328225012403/28/07 22:50:31  5-MIN KDBQ 290450Z AUTO 08014KT 4SM BR OVC005 08/07 A3023 790 89 200 080/14 RMK AO2 SLP244 T00830067 TSNO
94908KDBQ DBQ20070328225512403/28/07 22:55:31  5-MIN KDBQ 290455Z AUTO 09010KT 4SM BR OVC005 08/07 A3023 790 89 200 090/10 RMK AO2 SLP243 T00830067 TSNO
94908KDBQ DBQ20070328230010703/28/07 23:00:31  5-MIN KDBQ 290500Z AUTO 07011KT 4SM BR OVC005 08/07 A3023 790 89 200 070/11 RMK AO2 TSNO
94908KDBQ DBQ20070328230511303/28/07 23:05:31  5-MIN KDBQ 290505Z AUTO 08013G18KT 4SM BR OVC005 08/07 A3023 790 89 200 080/13G18 RMK AO2 TSNO
94908KDBQ DBQ20070328231011303/28/07 23:10:31  5-MIN KDBQ 290510Z AUTO 09011G18KT 4SM BR OVC005 08/07 A3023 790 89 200 080/11G18 RMK AO2 TSNO
94908KDBQ DBQ20070328231510703/28/07 23:15:31  5-MIN KDBQ 290515Z AUTO 09012KT 4SM BR OVC005 08/07 A3023 790 89 200 090/12 RMK AO2 TSNO
94908KDBQ DBQ20070328232011303/28/07 23:20:31  5-MIN KDBQ 290520Z AUTO 09013G19KT 4SM BR OVC005 08/07 A3023 790 89 200 090/13G19 RMK AO2 TSNO
94908KDBQ DBQ20070328232512503/28/07 23:25:31  5-MIN KDBQ 290525Z AUTO 09015G19KT 5SM BR OVC005 08/07 A3023 790 89 200 090/15G19 RMK AO2 CIG 005V009 TSNO
94908KDBQ DBQ20070328233011903/28/07 23:30:31  5-MIN KDBQ 290530Z AUTO 09014KT 5SM BR OVC005 08/06 A3023 790 86 200 090/14 RMK AO2 CIG 005V009 TSNO
94908KDBQ DBQ20070328233510703/28/07 23:35:31  5-MIN KDBQ 290535Z AUTO 09013KT 5SM BR OVC007 08/06 A3023 800 86 200 090/13 RMK AO2 TSNO
94908KDBQ DBQ20070328234011303/28/07 23:40:31  5-MIN KDBQ 290540Z AUTO 10016G19KT 5SM BR OVC007 08/06 A3023 790 86 200 100/16G19 RMK AO2 TSNO
94908KDBQ DBQ20070328234511303/28/07 23:45:31  5-MIN KDBQ 290545Z AUTO 10012G19KT 5SM BR OVC007 08/06 A3023 790 86 200 100/12G19 RMK AO2 TSNO
94908KDBQ DBQ20070328235015203/28/07 23:50:31  5-MIN KDBQ 290550Z AUTO 10013KT 5SM BR OVC007 08/06 A3023 790 86 200 100/13 RMK AO2 SLP243 T00830061 10083 20072 401000072 51009 TSNO
94908KDBQ DBQ20070328235515203/28/07 23:55:31  5-MIN KDBQ 290555Z AUTO 10012KT 5SM BR OVC007 08/06 A3024 790 86 200 100/12 RMK AO2 SLP244 T00830061 10083 20072 401000072 55002 TSNO
94908KDBQ DBQ20070329000011903/29/07 00:00:38  5-MIN KDBQ 290600Z AUTO 10010KT 5SM BR OVC007 08/06 A3024 790 86 200 100/10 RMK AO2 CIG 006V011 TSNO
94908KDBQ DBQ20070329000511903/29/07 00:05:31  5-MIN KDBQ 290605Z AUTO 10012KT 6SM BR OVC009 08/06 A3024 780 86 200 100/12 RMK AO2 CIG 006V012 TSNO
94908KDBQ DBQ20070329001010703/29/07 00:10:31  5-MIN KDBQ 290610Z AUTO 11010KT 6SM BR OVC012 08/06 A3024 780 86 200 110/10 RMK AO2 TSNO
94908KDBQ DBQ20070329001513203/29/07 00:15:32  5-MIN KDBQ 290615Z AUTO 11014G18KT 6SM HZ BKN010 OVC014 08/06 A3024 780 82 200 110/14G18 RMK AO2 CIG 008V013 TSNO
94908KDBQ DBQ20070329002011103/29/07 00:20:31  5-MIN KDBQ 290620Z AUTO 11012KT 7SM SCT010 OVC014 08/06 A3024 780 82 200 110/12 RMK AO2 TSNO
94908KDBQ DBQ20070329002511003/29/07 00:25:31  5-MIN KDBQ 290625Z AUTO 11012G18KT 7SM OVC014 08/06 A3024 780 82 200 110/12G18 RMK AO2 TSNO
94908KDBQ DBQ20070329003011003/29/07 00:30:31  5-MIN KDBQ 290630Z AUTO 11014G18KT 7SM OVC014 08/06 A3024 780 82 200 110/14G18 RMK AO2 TSNO
94908KDBQ DBQ20070329003510403/29/07 00:35:31  5-MIN KDBQ 290635Z AUTO 10013KT 8SM OVC014 08/06 A3024 790 82 200 100/13 RMK AO2 TSNO
94908KDBQ DBQ20070329004010403/29/07 00:40:31  5-MIN KDBQ 290640Z AUTO 10013KT 8SM OVC014 08/05 A3024 790 79 200 100/13 RMK AO2 TSNO
94908KDBQ DBQ20070329004511003/29/07 00:45:31  5-MIN KDBQ 290645Z AUTO 10017G22KT 8SM OVC014 08/05 A3023 790 79 200 100/17G22 RMK AO2 TSNO
94908KDBQ DBQ20070329005013003/29/07 00:50:31  5-MIN KDBQ 290650Z AUTO 10016G24KT 6SM HZ OVC014 08/05 A3024 790 79 200 100/16G24 RMK AO2 SLP244 T00830050 TSNO
94908KDBQ DBQ20070329005513003/29/07 00:55:31  5-MIN KDBQ 290655Z AUTO 10017G24KT 6SM HZ OVC014 08/05 A3024 790 82 100 100/17G24 RMK AO2 SLP245 T00780050 TSNO
94908KDBQ DBQ20070329010011303/29/07 01:00:31  5-MIN KDBQ 290700Z AUTO 11020G23KT 6SM HZ OVC014 08/05 A3024 790 82 100 110/20G23 RMK AO2 TSNO
94908KDBQ DBQ20070329010511303/29/07 01:05:31  5-MIN KDBQ 290705Z AUTO 12012G23KT 6SM HZ OVC014 08/05 A3024 780 82 100 120/12G23 RMK AO2 TSNO
94908KDBQ DBQ20070329011011003/29/07 01:10:31  5-MIN KDBQ 290710Z AUTO 12015G19KT 7SM OVC014 08/05 A3025 780 82 100 120/15G19 RMK AO2 TSNO
94908KDBQ DBQ20070329011511003/29/07 01:15:31  5-MIN KDBQ 290715Z AUTO 12013G19KT 8SM OVC014 08/05 A3025 780 82 100 120/13G19 RMK AO2 TSNO
94908KDBQ DBQ20070329012010403/29/07 01:20:31  5-MIN KDBQ 290720Z AUTO 13010KT 8SM OVC014 08/05 A3026 770 82 100 130/10 RMK AO2 TSNO
94908KDBQ DBQ20070329012511003/29/07 01:25:31  5-MIN KDBQ 290725Z AUTO 12012G18KT 8SM OVC014 08/05 A3025 770 82 100 120/12G18 RMK AO2 TSNO
94908KDBQ DBQ20070329013011003/29/07 01:30:31  5-MIN KDBQ 290730Z AUTO 12013G18KT 8SM OVC014 08/04 A3025 780 76 200 120/13G18 RMK AO2 TSNO
94908KDBQ DBQ20070329013510403/29/07 01:35:31  5-MIN KDBQ 290735Z AUTO 11013KT 9SM OVC016 08/04 A3025 780 76 200 110/13 RMK AO2 TSNO
94908KDBQ DBQ20070329014010403/29/07 01:40:31  5-MIN KDBQ 290740Z AUTO 12011KT 9SM OVC016 08/04 A3025 780 76 200 120/11 RMK AO2 TSNO
94908KDBQ DBQ20070329014510403/29/07 01:45:31  5-MIN KDBQ 290745Z AUTO 12010KT 9SM OVC016 08/04 A3025 770 73 200 120/10 RMK AO2 TSNO
94908KDBQ DBQ20070329015012803/29/07 01:50:31  5-MIN KDBQ 290750Z AUTO 13010G16KT 10SM OVC016 08/04 A3026 770 73 200 130/10G16 RMK AO2 SLP252 T00830039 TSNO
94908KDBQ DBQ20070329015512803/29/07 01:55:31  5-MIN KDBQ 290755Z AUTO 12010G17KT 10SM OVC016 08/04 A3026 760 73 200 120/10G17 RMK AO2 SLP253 T00830039 TSNO
94908KDBQ DBQ20070329020011103/29/07 02:00:31  5-MIN KDBQ 290800Z AUTO 12010G17KT 10SM OVC016 08/04 A3026 770 73 200 110/10G17 RMK AO2 TSNO
94908KDBQ DBQ20070329020510503/29/07 02:05:31  5-MIN KDBQ 290805Z AUTO 12009KT 10SM OVC016 08/04 A3026 760 73 200 120/09 RMK AO2 TSNO
94908KDBQ DBQ20070329021010503/29/07 02:10:31  5-MIN KDBQ 290810Z AUTO 12007KT 10SM OVC016 08/04 A3027 760 73 200 120/07 RMK AO2 TSNO
94908KDBQ DBQ20070329021510503/29/07 02:15:31  5-MIN KDBQ 290815Z AUTO 12010KT 10SM OVC016 08/03 A3027 760 70 200 120/10 RMK AO2 TSNO
94908KDBQ DBQ20070329022010503/29/07 02:20:31  5-MIN KDBQ 290820Z AUTO 12008KT 10SM OVC018 08/04 A3027 750 73 200 120/08 RMK AO2 TSNO
94908KDBQ DBQ20070329022510503/29/07 02:25:31  5-MIN KDBQ 290825Z AUTO 12010KT 10SM OVC018 08/03 A3028 750 70 200 110/10 RMK AO2 TSNO
94908KDBQ DBQ20070329023010503/29/07 02:30:31  5-MIN KDBQ 290830Z AUTO 12007KT 10SM OVC018 08/03 A3028 750 70 200 120/07 RMK AO2 TSNO
94908KDBQ DBQ20070329023510503/29/07 02:35:31  5-MIN KDBQ 290835Z AUTO 11006KT 10SM OVC018 08/04 A3028 750 73 200 110/06 RMK AO2 TSNO
94908KDBQ DBQ20070329024010503/29/07 02:40:31  5-MIN KDBQ 290840Z AUTO 11009KT 10SM OVC018 08/04 A3028 750 73 200 110/09 RMK AO2 TSNO
94908KDBQ DBQ20070329024512003/29/07 02:45:31  5-MIN KDBQ 290845Z AUTO 12009KT 8SM -RA OVC018 08/04 A3028 740 73 200 120/09 RMK AO2 RAB43 P0000 TSNO
94908KDBQ DBQ20070329025014903/29/07 02:50:31  5-MIN KDBQ 290850Z AUTO 11009KT 8SM -RA OVC018 08/04 A3028 750 73 200 110/09 RMK AO2 RAB43 SLP260 P0000 60000 T00830039 55002 TSNO
94908KDBQ DBQ20070329025514903/29/07 02:55:31  5-MIN KDBQ 290855Z AUTO 11009KT 10SM OVC018 08/04 A3028 750 76 100 110/09 RMK AO2 RAB43E53 SLP259 P0000 60000 T00780039 53014 TSNO
94908KDBQ DBQ20070329030010403/29/07 03:00:31  5-MIN KDBQ 290900Z AUTO 10011KT 9SM OVC018 08/04 A3028 750 76 100 100/11 RMK AO2 TSNO
94908KDBQ DBQ20070329030510403/29/07 03:05:31  5-MIN KDBQ 290905Z AUTO 09009KT 9SM OVC018 08/04 A3027 750 76 100 090/09 RMK AO2 TSNO
94908KDBQ DBQ20070329031010403/29/07 03:10:31  5-MIN KDBQ 290910Z AUTO 08010KT 9SM OVC018 08/04 A3027 750 76 100 080/10 RMK AO2 TSNO
94908KDBQ DBQ20070329031510403/29/07 03:15:31  5-MIN KDBQ 290915Z AUTO 08008KT 9SM OVC018 08/04 A3028 750 76 100 080/08 RMK AO2 TSNO
94908KDBQ DBQ20070329032010503/29/07 03:20:31  5-MIN KDBQ 290920Z AUTO 08007KT 10SM OVC018 08/04 A3027 750 76 100 080/07 RMK AO2 TSNO
94908KDBQ DBQ20070329032510503/29/07 03:25:31  5-MIN KDBQ 290925Z AUTO 09008KT 10SM OVC018 08/04 A3027 760 76 100 090/08 RMK AO2 TSNO
94908KDBQ DBQ20070329033010503/29/07 03:30:31  5-MIN KDBQ 290930Z AUTO 09008KT 10SM OVC018 08/04 A3027 760 76 100 090/08 RMK AO2 TSNO
94908KDBQ DBQ20070329033510503/29/07 03:35:31  5-MIN KDBQ 290935Z AUTO 09007KT 10SM OVC018 08/04 A3027 750 76 100 090/07 RMK AO2 TSNO
94908KDBQ DBQ20070329034010503/29/07 03:40:31  5-MIN KDBQ 290940Z AUTO 09008KT 10SM OVC018 08/04 A3028 750 76 100 090/08 RMK AO2 TSNO
94908KDBQ DBQ20070329034510503/29/07 03:45:31  5-MIN KDBQ 290945Z AUTO 09009KT 10SM OVC018 08/03 A3027 750 73 100 090/09 RMK AO2 TSNO
94908KDBQ DBQ20070329035012203/29/07 03:50:31  5-MIN KDBQ 290950Z AUTO 09009KT 10SM OVC018 08/03 A3028 750 73 100 090/09 RMK AO2 SLP259 T00780033 TSNO
94908KDBQ DBQ20070329035512203/29/07 03:55:31  5-MIN KDBQ 290955Z AUTO 10009KT 10SM OVC018 08/03 A3028 750 73 100 100/09 RMK AO2 SLP260 T00780033 TSNO
94908KDBQ DBQ20070329040010503/29/07 04:00:31  5-MIN KDBQ 291000Z AUTO 10010KT 10SM OVC018 08/03 A3028 750 73 100 100/10 RMK AO2 TSNO
94908KDBQ DBQ20070329040510303/29/07 04:05:31  5-MIN KDBQ 291005Z AUTO 10012KT 10SM OVC018 07/03 A3028 750 76 0 100/12 RMK AO2 TSNO
94908KDBQ DBQ20070329041010303/29/07 04:10:31  5-MIN KDBQ 291010Z AUTO 09012KT 10SM OVC016 07/03 A3028 750 76 0 090/12 RMK AO2 TSNO
94908KDBQ DBQ20070329041510303/29/07 04:15:31  5-MIN KDBQ 291015Z AUTO 08009KT 10SM OVC016 07/03 A3028 750 76 0 080/09 RMK AO2 TSNO
94908KDBQ DBQ20070329042010303/29/07 04:20:31  5-MIN KDBQ 291020Z AUTO 09011KT 10SM OVC016 07/03 A3028 750 76 0 090/11 RMK AO2 TSNO
94908KDBQ DBQ20070329042510303/29/07 04:25:31  5-MIN KDBQ 291025Z AUTO 09011KT 10SM OVC016 07/03 A3028 750 76 0 080/11 RMK AO2 TSNO
94908KDBQ DBQ20070329043010303/29/07 04:30:31  5-MIN KDBQ 291030Z AUTO 08011KT 10SM OVC016 07/03 A3028 750 76 0 080/11 RMK AO2 TSNO
94908KDBQ DBQ20070329043510303/29/07 04:35:31  5-MIN KDBQ 291035Z AUTO 08012KT 10SM OVC016 07/04 A3028 750 79 0 080/12 RMK AO2 TSNO
94908KDBQ DBQ20070329044010303/29/07 04:40:31  5-MIN KDBQ 291040Z AUTO 08010KT 10SM OVC016 07/04 A3028 750 79 0 080/10 RMK AO2 TSNO
94908KDBQ DBQ20070329044510303/29/07 04:45:31  5-MIN KDBQ 291045Z AUTO 10011KT 10SM OVC016 07/04 A3029 740 79 0 100/11 RMK AO2 TSNO
94908KDBQ DBQ20070329045012603/29/07 04:50:31  5-MIN KDBQ 291050Z AUTO 10010G16KT 10SM OVC016 07/04 A3028 740 79 0 090/10G16 RMK AO2 SLP262 T00720039 TSNO
94908KDBQ DBQ20070329045511003/29/07 04:55:31  5-MIN KDBQ 291055Z 08012KT 10SM OVC016 07/04 A3028 750 79 0 080/12 RMK AO2 SLP261 T00720039
94908KDBQ DBQ20070329050009303/29/07 05:00:31  5-MIN KDBQ 291100Z 08013KT 10SM OVC016 07/04 A3028 750 79 0 080/13 RMK AO2
94908KDBQ DBQ20070329050509303/29/07 05:05:31  5-MIN KDBQ 291105Z 08012KT 10SM OVC016 07/04 A3028 750 79 0 080/12 RMK AO2
94908KDBQ DBQ20070329051009303/29/07 05:10:31  5-MIN KDBQ 291110Z 09010KT 10SM OVC016 07/04 A3028 740 79 0 080/10 RMK AO2
94908KDBQ DBQ20070329051509303/29/07 05:15:31  5-MIN KDBQ 291115Z 09013KT 10SM OVC016 07/04 A3029 740 79 0 090/13 RMK AO2
94908KDBQ DBQ20070329052009303/29/07 05:20:31  5-MIN KDBQ 291120Z 09011KT 10SM OVC016 07/04 A3029 730 82 0 090/11 RMK AO2
94908KDBQ DBQ20070329052509303/29/07 05:25:31  5-MIN KDBQ 291125Z 09010KT 10SM OVC016 07/04 A3030 730 82 0 090/10 RMK AO2
94908KDBQ DBQ20070329053009303/29/07 05:30:31  5-MIN KDBQ 291130Z 09012KT 10SM OVC016 07/04 A3029 740 82 0 090/12 RMK AO2
94908KDBQ DBQ20070329053509303/29/07 05:35:31  5-MIN KDBQ 291135Z 09012KT 10SM OVC016 07/04 A3029 740 82 0 090/12 RMK AO2
94908KDBQ DBQ20070329054009303/29/07 05:40:31  5-MIN KDBQ 291140Z 08012KT 10SM OVC016 07/04 A3029 740 82 0 080/12 RMK AO2
94908KDBQ DBQ20070329054509303/29/07 05:45:31  5-MIN KDBQ 291145Z 09010KT 10SM OVC016 07/04 A3030 730 82 0 090/10 RMK AO2
94908KDBQ DBQ20070329055014003/29/07 05:50:31  5-MIN KDBQ 291150Z 10009KT 10SM OVC016 07/04 A3030 730 82 0 100/09 RMK AO2 SLP267 60000 70009 T00670039 10083 20067 53014
94908KDBQ DBQ20070329055514003/29/07 05:55:31  5-MIN KDBQ 291155Z 09008KT 10SM OVC016 07/04 A3030 730 82 0 090/08 RMK AO2 SLP268 60000 70009 T00670039 10083 20067 53008
94908KDBQ DBQ20070329060009303/29/07 06:00:31  5-MIN KDBQ 291200Z 10009KT 10SM OVC016 07/04 A3030 720 82 0 090/09 RMK AO2
94908KDBQ DBQ20070329060509303/29/07 06:05:31  5-MIN KDBQ 291205Z 09010KT 10SM OVC016 07/04 A3030 730 82 0 090/10 RMK AO2
94908KDBQ DBQ20070329061009203/29/07 06:10:31  5-MIN KDBQ 291210Z 10010KT 9SM OVC016 07/04 A3030 730 82 0 100/10 RMK AO2
94908KDBQ DBQ20070329061509203/29/07 06:15:31  5-MIN KDBQ 291215Z 09010KT 9SM OVC016 07/04 A3030 730 82 0 090/10 RMK AO2
94908KDBQ DBQ20070329062009203/29/07 06:20:31  5-MIN KDBQ 291220Z 10010KT 9SM OVC016 07/04 A3030 730 82 0 100/10 RMK AO2
94908KDBQ DBQ20070329062509203/29/07 06:25:31  5-MIN KDBQ 291225Z 10010KT 9SM OVC016 07/04 A3031 720 82 0 100/10 RMK AO2
94908KDBQ DBQ20070329063009203/29/07 06:30:31  5-MIN KDBQ 291230Z 10011KT 9SM OVC016 07/03 A3031 720 79 0 100/11 RMK AO2
94908KDBQ DBQ20070329063509203/29/07 06:35:31  5-MIN KDBQ 291235Z 10012KT 9SM OVC016 07/03 A3030 730 79 0 100/12 RMK AO2
94908KDBQ DBQ20070329064009203/29/07 06:40:31  5-MIN KDBQ 291240Z 10014KT 9SM OVC016 07/03 A3031 720 79 0 100/14 RMK AO2
94908KDBQ DBQ20070329064509803/29/07 06:45:31  5-MIN KDBQ 291245Z 11010G18KT 9SM OVC014 07/03 A3031 720 79 0 110/10G18 RMK AO2
94908KDBQ DBQ20070329065009203/29/07 06:50:31  5-MIN KDBQ 291250Z 10014KT 9SM OVC014 07/03 A3030 720 79 0 100/14 RMK AO2
94908KDBQ DBQ20070329065510903/29/07 06:55:31  5-MIN KDBQ 291255Z 10014KT 9SM OVC014 07/03 A3030 730 79 0 100/14 RMK AO2 SLP268 T00670033
94908KDBQ DBQ20070329070009203/29/07 07:00:31  5-MIN KDBQ 291300Z 10013KT 9SM OVC014 07/03 A3030 730 79 0 100/13 RMK AO2
94908KDBQ DBQ20070329070509303/29/07 07:05:31  5-MIN KDBQ 291305Z 10014KT 10SM OVC014 07/03 A3030 730 79 0 100/14 RMK AO2
94908KDBQ DBQ20070329071009303/29/07 07:10:31  5-MIN KDBQ 291310Z 09014KT 10SM OVC014 07/03 A3029 740 79 0 090/14 RMK AO2
94908KDBQ DBQ20070329071509203/29/07 07:15:31  5-MIN KDBQ 291315Z 09011KT 9SM OVC014 07/03 A3029 730 79 0 090/11 RMK AO2
94908KDBQ DBQ20070329072009803/29/07 07:20:31  5-MIN KDBQ 291320Z 10015G19KT 9SM OVC014 07/03 A3030 730 76 0 100/15G19 RMK AO2
94908KDBQ DBQ20070329072509303/29/07 07:25:31  5-MIN KDBQ 291325Z 10014KT 10SM OVC014 07/03 A3030 730 79 0 100/14 RMK AO2
94908KDBQ DBQ20070329073009303/29/07 07:30:31  5-MIN KDBQ 291330Z 10015KT 10SM OVC014 07/03 A3030 730 79 0 100/15 RMK AO2
94908KDBQ DBQ20070329073509303/29/07 07:35:31  5-MIN KDBQ 291335Z 10014KT 10SM OVC014 07/03 A3030 730 79 0 100/14 RMK AO2
94908KDBQ DBQ20070329074009303/29/07 07:40:31  5-MIN KDBQ 291340Z 10014KT 10SM OVC014 07/03 A3029 730 79 0 100/14 RMK AO2
94908KDBQ DBQ20070329074509303/29/07 07:45:31  5-MIN KDBQ 291345Z 11014KT 10SM OVC014 07/04 A3029 730 82 0 110/14 RMK AO2
94908KDBQ DBQ20070329075011003/29/07 07:50:31  5-MIN KDBQ 291350Z 10014KT 10SM OVC014 07/04 A3029 730 79 0 100/14 RMK AO2 SLP265 T00720039
94908KDBQ DBQ20070329075511503/29/07 07:55:31  5-MIN KDBQ 291355Z 10012G20KT 9SM OVC014 07/04 A3030 730 79 0 100/12G20 RMK AO2 SLP267 T00720039
94908KDBQ DBQ20070329080009803/29/07 08:00:31  5-MIN KDBQ 291400Z 11011G20KT 9SM OVC012 07/04 A3030 720 79 0 100/11G20 RMK AO2
94908KDBQ DBQ20070329080509203/29/07 08:05:31  5-MIN KDBQ 291405Z 11010KT 9SM OVC012 07/04 A3031 720 79 0 110/10 RMK AO2
94908KDBQ DBQ20070329081009203/29/07 08:10:31  5-MIN KDBQ 291410Z 11013KT 9SM OVC012 07/04 A3031 720 79 0 110/13 RMK AO2
94908KDBQ DBQ20070329081509203/29/07 08:15:31  5-MIN KDBQ 291415Z 12011KT 9SM OVC012 07/04 A3031 720 82 0 110/11 RMK AO2
94908KDBQ DBQ20070329082009203/29/07 08:20:31  5-MIN KDBQ 291420Z 13011KT 9SM OVC012 07/04 A3032 710 79 0 120/11 RMK AO2
94908KDBQ DBQ20070329082509203/29/07 08:25:31  5-MIN KDBQ 291425Z 12012KT 9SM OVC012 07/04 A3032 710 79 0 120/12 RMK AO2
94908KDBQ DBQ20070329083009203/29/07 08:30:31  5-MIN KDBQ 291430Z 12012KT 9SM OVC012 07/04 A3032 710 79 0 120/12 RMK AO2
94908KDBQ DBQ20070329083509203/29/07 08:35:31  5-MIN KDBQ 291435Z 12013KT 9SM OVC012 07/04 A3032 710 79 0 120/13 RMK AO2
94908KDBQ DBQ20070329084009203/29/07 08:40:31  5-MIN KDBQ 291440Z 11013KT 9SM OVC012 07/04 A3032 710 79 0 110/13 RMK AO2
94908KDBQ DBQ20070329084509203/29/07 08:45:31  5-MIN KDBQ 291445Z 12011KT 9SM OVC012 07/04 A3032 710 79 0 120/11 RMK AO2
94908KDBQ DBQ20070329085011503/29/07 08:50:31  5-MIN KDBQ 291450Z 12012KT 9SM OVC012 07/04 A3032 710 79 0 120/12 RMK AO2 SLP274 T00720039 53008
94908KDBQ DBQ20070329085511503/29/07 08:55:31  5-MIN KDBQ 291455Z 11009KT 9SM OVC012 07/04 A3032 710 82 0 110/09 RMK AO2 SLP275 T00720044 53006
94908KDBQ DBQ20070329090009203/29/07 09:00:31  5-MIN KDBQ 291500Z 10013KT 9SM OVC012 07/04 A3032 710 79 0 090/13 RMK AO2
94908KDBQ DBQ20070329090509203/29/07 09:05:31  5-MIN KDBQ 291505Z 10013KT 9SM OVC012 07/04 A3032 710 79 0 100/13 RMK AO2
94908KDBQ DBQ20070329091009203/29/07 09:10:31  5-MIN KDBQ 291510Z 10014KT 9SM OVC012 07/04 A3031 720 79 0 100/14 RMK AO2
94908KDBQ DBQ20070329091509203/29/07 09:15:31  5-MIN KDBQ 291515Z 10012KT 9SM OVC012 07/04 A3032 710 82 0 100/12 RMK AO2
94908KDBQ DBQ20070329092009203/29/07 09:20:31  5-MIN KDBQ 291520Z 10012KT 9SM OVC012 07/04 A3031 720 82 0 100/12 RMK AO2
94908KDBQ DBQ20070329092509303/29/07 09:25:31  5-MIN KDBQ 291525Z 10011KT 10SM OVC012 07/04 A3031 720 79 0 100/11 RMK AO2
94908KDBQ DBQ20070329093009303/29/07 09:30:31  5-MIN KDBQ 291530Z 10014KT 10SM OVC012 07/04 A3031 720 79 0 100/14 RMK AO2
94908KDBQ DBQ20070329093509503/29/07 09:35:31  5-MIN KDBQ 291535Z 09015KT 10SM OVC012 08/04 A3032 710 79 100 090/15 RMK AO2
94908KDBQ DBQ20070329094009503/29/07 09:40:31  5-MIN KDBQ 291540Z 10014KT 10SM OVC012 08/04 A3031 720 79 100 100/14 RMK AO2
94908KDBQ DBQ20070329094509503/29/07 09:45:31  5-MIN KDBQ 291545Z 09014KT 10SM OVC012 08/04 A3032 710 79 100 090/14 RMK AO2
94908KDBQ DBQ20070329095011203/29/07 09:50:31  5-MIN KDBQ 291550Z 10013KT 10SM OVC012 08/04 A3031 720 79 100 100/13 RMK AO2 SLP271 T00780044
94908KDBQ DBQ20070329095511203/29/07 09:55:31  5-MIN KDBQ 291555Z 10011KT 10SM OVC012 08/04 A3032 710 79 100 100/11 RMK AO2 SLP272 T00780044
94908KDBQ DBQ20070329100009503/29/07 10:00:31  5-MIN KDBQ 291600Z 09012KT 10SM OVC012 08/04 A3032 710 79 100 090/12 RMK AO2
94908KDBQ DBQ20070329100509503/29/07 10:05:31  5-MIN KDBQ 291605Z 10012KT 10SM OVC012 08/04 A3032 710 79 100 100/12 RMK AO2
94908KDBQ DBQ20070329101009503/29/07 10:10:31  5-MIN KDBQ 291610Z 10013KT 10SM OVC012 08/04 A3031 720 79 100 100/13 RMK AO2
94908KDBQ DBQ20070329101509503/29/07 10:15:31  5-MIN KDBQ 291615Z 10012KT 10SM OVC012 08/04 A3031 720 79 100 100/12 RMK AO2
94908KDBQ DBQ20070329102009503/29/07 10:20:31  5-MIN KDBQ 291620Z 08014KT 10SM OVC012 08/04 A3031 720 76 100 080/14 RMK AO2
94908KDBQ DBQ20070329102509503/29/07 10:25:31  5-MIN KDBQ 291625Z 08013KT 10SM OVC012 08/04 A3030 730 76 100 080/13 RMK AO2
94908KDBQ DBQ20070329103009503/29/07 10:30:31  5-MIN KDBQ 291630Z 09013KT 10SM OVC012 08/04 A3030 730 76 100 090/13 RMK AO2
94908KDBQ DBQ20070329103510103/29/07 10:35:31  5-MIN KDBQ 291635Z 09014G20KT 10SM OVC012 09/05 A3030 730 76 200 090/14G20 RMK AO2
94908KDBQ DBQ20070329104010103/29/07 10:40:31  5-MIN KDBQ 291640Z 08014G20KT 10SM OVC012 09/05 A3030 730 76 200 080/14G20 RMK AO2
94908KDBQ DBQ20070329104509503/29/07 10:45:31  5-MIN KDBQ 291645Z 10014KT 10SM OVC012 09/05 A3030 730 76 200 100/14 RMK AO2
94908KDBQ DBQ20070329105011203/29/07 10:50:31  5-MIN KDBQ 291650Z 11013KT 10SM OVC012 09/05 A3031 720 76 200 110/13 RMK AO2 SLP270 T00890050
94908KDBQ DBQ20070329105511203/29/07 10:55:31  5-MIN KDBQ 291655Z 09012KT 10SM OVC012 09/05 A3031 720 76 200 090/12 RMK AO2 SLP271 T00890050
94908KDBQ DBQ20070329110009503/29/07 11:00:31  5-MIN KDBQ 291700Z 10011KT 10SM OVC012 09/06 A3031 720 76 300 100/11 RMK AO2
94908KDBQ DBQ20070329110509503/29/07 11:05:31  5-MIN KDBQ 291705Z 14008KT 10SM OVC012 09/05 A3032 710 76 200 140/08 RMK AO2
94908KDBQ DBQ20070329111009503/29/07 11:10:31  5-MIN KDBQ 291710Z 13008KT 10SM OVC012 09/05 A3033 700 76 200 130/08 RMK AO2
94908KDBQ DBQ20070329111509503/29/07 11:15:31  5-MIN KDBQ 291715Z 10008KT 10SM OVC012 09/04 A3033 710 73 200 100/08 RMK AO2
94908KDBQ DBQ20070329112009503/29/07 11:20:31  5-MIN KDBQ 291720Z 11008KT 10SM OVC014 09/05 A3032 710 76 200 110/08 RMK AO2
94908KDBQ DBQ20070329112509503/29/07 11:25:31  5-MIN KDBQ 291725Z 12009KT 10SM OVC014 09/05 A3032 710 76 200 120/09 RMK AO2
94908KDBQ DBQ20070329113009503/29/07 11:30:31  5-MIN KDBQ 291730Z 13008KT 10SM OVC014 09/05 A3033 700 76 200 130/08 RMK AO2
94908KDBQ DBQ20070329113509503/29/07 11:35:31  5-MIN KDBQ 291735Z 11010KT 10SM OVC014 09/05 A3032 710 74 300 110/10 RMK AO2
94908KDBQ DBQ20070329114009503/29/07 11:40:31  5-MIN KDBQ 291740Z 11009KT 10SM OVC014 09/05 A3032 710 74 300 110/09 RMK AO2
94908KDBQ DBQ20070329114509503/29/07 11:45:31  5-MIN KDBQ 291745Z 10011KT 10SM OVC014 10/06 A3031 720 74 300 100/11 RMK AO2
94908KDBQ DBQ20070329115013703/29/07 11:50:31  5-MIN KDBQ 291750Z 11008KT 10SM BKN014 OVC024 09/05 A3032 710 74 300 110/08 RMK AO2 SLP274 T00940050 10100 20067 53006
94908KDBQ DBQ20070329115513003/29/07 11:55:31  5-MIN KDBQ 291755Z 10009KT 10SM OVC014 09/05 A3032 710 74 300 090/09 RMK AO2 SLP272 T00940050 10100 20067 55001
94908KDBQ DBQ20070329120009503/29/07 12:00:31  5-MIN KDBQ 291800Z 11007KT 10SM OVC014 09/06 A3032 710 76 300 110/07 RMK AO2
94908KDBQ DBQ20070329120509503/29/07 12:05:31  5-MIN KDBQ 291805Z 10007KT 10SM OVC014 10/06 A3033 700 74 300 100/07 RMK AO2
94908KDBQ DBQ20070329121009503/29/07 12:10:31  5-MIN KDBQ 291810Z 10009KT 10SM OVC014 10/06 A3033 700 74 300 100/09 RMK AO2
94908KDBQ DBQ20070329121509503/29/07 12:15:31  5-MIN KDBQ 291815Z 12008KT 10SM OVC014 10/06 A3033 700 74 300 120/08 RMK AO2
94908KDBQ DBQ20070329122009503/29/07 12:20:31  5-MIN KDBQ 291820Z 10008KT 10SM OVC014 10/06 A3033 710 74 300 100/08 RMK AO2
94908KDBQ DBQ20070329122509503/29/07 12:25:31  5-MIN KDBQ 291825Z 11007KT 10SM OVC014 10/06 A3033 700 74 300 110/07 RMK AO2
94908KDBQ DBQ20070329123009503/29/07 12:30:31  5-MIN KDBQ 291830Z 09011KT 10SM OVC014 10/06 A3032 710 74 300 090/11 RMK AO2
94908KDBQ DBQ20070329123509503/29/07 12:35:31  5-MIN KDBQ 291835Z 10009KT 10SM OVC014 10/06 A3032 710 74 300 090/09 RMK AO2
94908KDBQ DBQ20070329124009503/29/07 12:40:31  5-MIN KDBQ 291840Z 11008KT 10SM OVC014 11/06 A3031 720 74 400 110/08 RMK AO2
94908KDBQ DBQ20070329124509503/29/07 12:45:31  5-MIN KDBQ 291845Z 12008KT 10SM OVC014 10/06 A3032 710 77 300 120/08 RMK AO2
94908KDBQ DBQ20070329125011203/29/07 12:50:31  5-MIN KDBQ 291850Z 10007KT 10SM OVC014 11/06 A3031 720 71 400 100/07 RMK AO2 SLP270 T01060056
94908KDBQ DBQ20070329125511203/29/07 12:55:31  5-MIN KDBQ 291855Z 10008KT 10SM OVC014 10/06 A3031 720 74 300 100/08 RMK AO2 SLP270 T01000056
94908KDBQ DBQ20070329130009503/29/07 13:00:31  5-MIN KDBQ 291900Z 11006KT 10SM OVC014 10/06 A3031 720 74 300 110/06 RMK AO2
94908KDBQ DBQ20070329130509503/29/07 13:05:31  5-MIN KDBQ 291905Z 09009KT 10SM OVC014 10/06 A3031 720 77 300 090/09 RMK AO2
94908KDBQ DBQ20070329131009503/29/07 13:10:31  5-MIN KDBQ 291910Z 10010KT 10SM OVC014 10/06 A3030 730 77 300 100/10 RMK AO2
94908KDBQ DBQ20070329131509503/29/07 13:15:31  5-MIN KDBQ 291915Z 11009KT 10SM OVC012 10/06 A3030 730 77 300 110/09 RMK AO2
94908KDBQ DBQ20070329132009503/29/07 13:20:31  5-MIN KDBQ 291920Z 09011KT 10SM OVC012 11/06 A3029 730 74 400 090/11 RMK AO2
94908KDBQ DBQ20070329132510203/29/07 13:25:31  5-MIN KDBQ 291925Z 08013KT 10SM OVC012 11/07 A3028 750 74 500 080/13 RMK AO2 PRESFR
94908KDBQ DBQ20070329133009503/29/07 13:30:31  5-MIN KDBQ 291930Z 09010KT 10SM OVC012 11/07 A3029 740 74 500 090/10 RMK AO2
94908KDBQ DBQ20070329133509503/29/07 13:35:31  5-MIN KDBQ 291935Z 09010KT 10SM OVC012 11/07 A3029 740 74 500 090/10 RMK AO2
94908KDBQ DBQ20070329134009503/29/07 13:40:31  5-MIN KDBQ 291940Z 09012KT 10SM OVC012 11/07 A3028 740 74 500 090/12 RMK AO2
94908KDBQ DBQ20070329134509503/29/07 13:45:31  5-MIN KDBQ 291945Z 09010KT 10SM OVC012 11/07 A3029 740 74 500 090/10 RMK AO2
94908KDBQ DBQ20070329135011203/29/07 13:50:31  5-MIN KDBQ 291950Z 08010KT 10SM OVC012 11/07 A3028 740 74 500 080/10 RMK AO2 SLP260 T01110067
94908KDBQ DBQ20070329135511203/29/07 13:55:31  5-MIN KDBQ 291955Z 08010KT 10SM OVC012 11/07 A3028 750 74 500 080/10 RMK AO2 SLP259 T01110067
94908KDBQ DBQ20070329140009503/29/07 14:00:31  5-MIN KDBQ 292000Z 09009KT 10SM OVC012 12/07 A3028 750 71 600 090/09 RMK AO2
94908KDBQ DBQ20070329140509503/29/07 14:05:31  5-MIN KDBQ 292005Z 08009KT 10SM OVC012 12/07 A3028 750 74 600 080/09 RMK AO2
94908KDBQ DBQ20070329141009403/29/07 14:10:31  5-MIN KDBQ 292010Z 10010KT 9SM OVC012 12/07 A3028 750 74 600 100/10 RMK AO2
94908KDBQ DBQ20070329141509403/29/07 14:15:31  5-MIN KDBQ 292015Z 11008KT 9SM OVC012 12/07 A3028 750 74 600 110/08 RMK AO2
94908KDBQ DBQ20070329142009403/29/07 14:20:31  5-MIN KDBQ 292020Z 07010KT 9SM OVC012 12/07 A3028 750 71 600 070/10 RMK AO2
94908KDBQ DBQ20070329142509403/29/07 14:25:31  5-MIN KDBQ 292025Z 07007KT 9SM OVC012 12/07 A3028 750 71 600 070/07 RMK AO2
94908KDBQ DBQ20070329143009403/29/07 14:30:31  5-MIN KDBQ 292030Z 10009KT 9SM OVC012 12/08 A3027 750 74 600 100/09 RMK AO2
94908KDBQ DBQ20070329143509403/29/07 14:35:31  5-MIN KDBQ 292035Z 09009KT 9SM OVC012 12/08 A3027 750 77 600 090/09 RMK AO2
94908KDBQ DBQ20070329144009403/29/07 14:40:31  5-MIN KDBQ 292040Z 10008KT 9SM OVC012 12/08 A3027 760 74 600 100/08 RMK AO2
94908KDBQ DBQ20070329144509403/29/07 14:45:31  5-MIN KDBQ 292045Z 09007KT 9SM OVC012 12/07 A3027 760 74 600 090/07 RMK AO2
94908KDBQ DBQ20070329145011703/29/07 14:50:31  5-MIN KDBQ 292050Z 11009KT 9SM OVC012 12/08 A3026 760 74 600 100/09 RMK AO2 SLP252 T01220078 55001
94908KDBQ DBQ20070329145511703/29/07 14:55:31  5-MIN KDBQ 292055Z 10010KT 9SM OVC012 12/08 A3026 760 74 700 100/10 RMK AO2 SLP252 T01220078 58019
94908KDBQ DBQ20070329150009403/29/07 15:00:31  5-MIN KDBQ 292100Z 10010KT 9SM OVC012 12/08 A3026 770 74 700 100/10 RMK AO2
94908KDBQ DBQ20070329170509403/29/07 17:05:31  5-MIN KDBQ 292305Z 09009KT 7SM OVC012 12/08 A3028 750 77 600 090/09 RMK AO2
94908KDBQ DBQ20070329171009403/29/07 17:10:31  5-MIN KDBQ 292310Z 09008KT 7SM OVC012 12/08 A3028 750 77 600 090/08 RMK AO2
94908KDBQ DBQ20070329171509403/29/07 17:15:31  5-MIN KDBQ 292315Z 10007KT 7SM OVC012 12/08 A3028 750 77 600 100/07 RMK AO2
94908KDBQ DBQ20070329172009403/29/07 17:20:31  5-MIN KDBQ 292320Z 10008KT 7SM OVC012 12/08 A3028 740 77 600 100/08 RMK AO2
94908KDBQ DBQ20070329172509403/29/07 17:25:31  5-MIN KDBQ 292325Z 10007KT 8SM OVC014 12/08 A3028 740 77 600 100/07 RMK AO2
94908KDBQ DBQ20070329173009403/29/07 17:30:31  5-MIN KDBQ 292330Z 09009KT 8SM OVC014 12/08 A3028 750 77 600 090/09 RMK AO2
94908KDBQ DBQ20070329173509403/29/07 17:35:31  5-MIN KDBQ 292335Z 11007KT 7SM OVC014 12/08 A3028 740 77 600 100/07 RMK AO2
94908KDBQ DBQ20070329174009403/29/07 17:40:31  5-MIN KDBQ 292340Z 10009KT 7SM OVC014 11/08 A3028 740 80 500 100/09 RMK AO2
94908KDBQ DBQ20070329174509403/29/07 17:45:31  5-MIN KDBQ 292345Z 10008KT 7SM OVC014 11/08 A3029 740 80 500 100/08 RMK AO2
94908KDBQ DBQ20070329175012903/29/07 17:50:31  5-MIN KDBQ 292350Z 10009KT 7SM OVC014 11/08 A3028 740 80 500 100/09 RMK AO2 SLP261 T01110078 10122 20094 58019
94908KDBQ DBQ20070329175512903/29/07 17:55:31  5-MIN KDBQ 292355Z 10008KT 7SM OVC014 11/08 A3029 740 80 500 100/08 RMK AO2 SLP261 T01110078 10122 20094 53008
94908KDBQ DBQ20070329180009403/29/07 18:00:31  5-MIN KDBQ 300000Z 09009KT 7SM OVC014 11/08 A3028 740 80 500 090/09 RMK AO2
94908KDBQ DBQ20070329180509403/29/07 18:05:31  5-MIN KDBQ 300005Z 10009KT 7SM OVC014 11/08 A3028 740 80 500 100/09 RMK AO2
94908KDBQ DBQ20070329181009403/29/07 18:10:31  5-MIN KDBQ 300010Z 10010KT 7SM OVC014 11/08 A3028 750 80 500 100/10 RMK AO2
94908KDBQ DBQ20070329181509403/29/07 18:15:31  5-MIN KDBQ 300015Z 10010KT 7SM OVC014 11/07 A3028 750 77 500 100/10 RMK AO2
94908KDBQ DBQ20070329182009403/29/07 18:20:31  5-MIN KDBQ 300020Z 09008KT 7SM OVC014 11/07 A3028 750 77 500 090/08 RMK AO2
94908KDBQ DBQ20070329182509403/29/07 18:25:31  5-MIN KDBQ 300025Z 09010KT 8SM OVC014 11/07 A3028 750 77 500 090/10 RMK AO2
94908KDBQ DBQ20070329183009403/29/07 18:30:31  5-MIN KDBQ 300030Z 09011KT 9SM OVC012 11/07 A3027 750 77 500 090/11 RMK AO2
94908KDBQ DBQ20070329183509403/29/07 18:35:31  5-MIN KDBQ 300035Z 08009KT 9SM OVC012 11/07 A3028 750 77 500 080/09 RMK AO2
94908KDBQ DBQ20070329184009403/29/07 18:40:31  5-MIN KDBQ 300040Z 09009KT 9SM OVC012 11/07 A3028 750 77 500 090/09 RMK AO2
94908KDBQ DBQ20070329184509403/29/07 18:45:31  5-MIN KDBQ 300045Z 08009KT 8SM OVC012 11/07 A3028 750 77 500 080/09 RMK AO2
94908KDBQ DBQ20070329185012103/29/07 18:50:31  5-MIN KDBQ 300050Z AUTO 08008KT 8SM OVC012 11/07 A3028 750 77 500 080/08 RMK AO2 SLP259 T01110072 TSNO
94908KDBQ DBQ20070329185512103/29/07 18:55:31  5-MIN KDBQ 300055Z AUTO 09006KT 8SM OVC012 11/07 A3028 740 77 500 090/06 RMK AO2 SLP261 T01110072 TSNO
94908KDBQ DBQ20070329190010403/29/07 19:00:31  5-MIN KDBQ 300100Z AUTO 09007KT 8SM OVC012 11/07 A3029 740 77 500 090/07 RMK AO2 TSNO
94908KDBQ DBQ20070329190510403/29/07 19:05:31  5-MIN KDBQ 300105Z AUTO 09007KT 8SM OVC012 11/07 A3029 740 77 500 090/07 RMK AO2 TSNO
94908KDBQ DBQ20070329191010403/29/07 19:10:31  5-MIN KDBQ 300110Z AUTO 08010KT 8SM OVC012 11/07 A3029 740 77 500 080/10 RMK AO2 TSNO
94908KDBQ DBQ20070329191510403/29/07 19:15:31  5-MIN KDBQ 300115Z AUTO 09008KT 9SM OVC012 11/07 A3029 740 74 500 090/08 RMK AO2 TSNO
94908KDBQ DBQ20070329192010403/29/07 19:20:31  5-MIN KDBQ 300120Z AUTO 09009KT 9SM OVC012 11/07 A3029 740 77 500 080/09 RMK AO2 TSNO
94908KDBQ DBQ20070329192510403/29/07 19:25:31  5-MIN KDBQ 300125Z AUTO 09007KT 9SM OVC012 11/07 A3029 740 74 500 080/07 RMK AO2 TSNO
94908KDBQ DBQ20070329193010403/29/07 19:30:31  5-MIN KDBQ 300130Z AUTO 07008KT 9SM OVC012 11/07 A3029 740 74 500 070/08 RMK AO2 TSNO
94908KDBQ DBQ20070329193510403/29/07 19:35:31  5-MIN KDBQ 300135Z AUTO 07009KT 9SM OVC012 11/07 A3029 740 74 500 070/09 RMK AO2 TSNO
94908KDBQ DBQ20070329194010403/29/07 19:40:31  5-MIN KDBQ 300140Z AUTO 07009KT 9SM OVC012 11/07 A3029 740 74 500 070/09 RMK AO2 TSNO
94908KDBQ DBQ20070329194510403/29/07 19:45:31  5-MIN KDBQ 300145Z AUTO 07008KT 9SM OVC012 11/07 A3029 740 74 500 070/08 RMK AO2 TSNO
94908KDBQ DBQ20070329195012103/29/07 19:50:31  5-MIN KDBQ 300150Z AUTO 08008KT 9SM OVC014 11/07 A3029 740 74 500 080/08 RMK AO2 SLP262 T01110067 TSNO
94908KDBQ DBQ20070329195512103/29/07 19:55:31  5-MIN KDBQ 300155Z AUTO 07007KT 9SM OVC014 11/07 A3030 730 74 500 070/07 RMK AO2 SLP264 T01110067 TSNO
94908KDBQ DBQ20070329200010403/29/07 20:00:31  5-MIN KDBQ 300200Z AUTO 06007KT 9SM OVC014 11/07 A3030 730 74 500 060/07 RMK AO2 TSNO
94908KDBQ DBQ20070329200510403/29/07 20:05:31  5-MIN KDBQ 300205Z AUTO 06006KT 9SM OVC014 11/07 A3030 730 74 500 060/06 RMK AO2 TSNO
94908KDBQ DBQ20070329201010403/29/07 20:10:31  5-MIN KDBQ 300210Z AUTO 07006KT 9SM OVC014 11/07 A3030 730 74 500 070/06 RMK AO2 TSNO
94908KDBQ DBQ20070329201510403/29/07 20:15:31  5-MIN KDBQ 300215Z AUTO 08006KT 9SM OVC014 11/07 A3030 720 74 500 080/06 RMK AO2 TSNO
94908KDBQ DBQ20070329202010403/29/07 20:20:31  5-MIN KDBQ 300220Z AUTO 08007KT 9SM OVC016 11/07 A3031 720 74 500 080/07 RMK AO2 TSNO
94908KDBQ DBQ20070329202510503/29/07 20:25:31  5-MIN KDBQ 300225Z AUTO 08008KT 10SM OVC016 11/06 A3030 730 71 500 080/08 RMK AO2 TSNO
94908KDBQ DBQ20070329203010503/29/07 20:30:31  5-MIN KDBQ 300230Z AUTO 07008KT 10SM OVC016 11/06 A3030 730 71 500 070/08 RMK AO2 TSNO
94908KDBQ DBQ20070329203510503/29/07 20:35:31  5-MIN KDBQ 300235Z AUTO 07009KT 10SM OVC016 11/06 A3030 730 71 500 070/09 RMK AO2 TSNO
94908KDBQ DBQ20070329204010503/29/07 20:40:31  5-MIN KDBQ 300240Z AUTO 07007KT 10SM OVC016 11/06 A3030 730 71 500 070/07 RMK AO2 TSNO
94908KDBQ DBQ20070329204510503/29/07 20:45:31  5-MIN KDBQ 300245Z AUTO 08007KT 10SM OVC018 11/06 A3031 720 71 500 080/07 RMK AO2 TSNO
94908KDBQ DBQ20070329205012803/29/07 20:50:31  5-MIN KDBQ 300250Z AUTO 07007KT 10SM OVC018 11/06 A3031 720 71 500 070/07 RMK AO2 SLP267 T01110061 53008 TSNO
94908KDBQ DBQ20070329205512803/29/07 20:55:31  5-MIN KDBQ 300255Z AUTO 07006KT 10SM OVC018 11/06 A3031 720 68 500 070/06 RMK AO2 SLP269 T01110056 53008 TSNO
94908KDBQ DBQ20070329210010503/29/07 21:00:31  5-MIN KDBQ 300300Z AUTO 07007KT 10SM OVC018 11/06 A3031 720 68 500 070/07 RMK AO2 TSNO
94908KDBQ DBQ20070329210510503/29/07 21:05:31  5-MIN KDBQ 300305Z AUTO 07004KT 10SM OVC018 11/06 A3031 720 68 500 070/04 RMK AO2 TSNO
94908KDBQ DBQ20070329211010503/29/07 21:10:31  5-MIN KDBQ 300310Z AUTO 06003KT 10SM OVC020 11/06 A3032 710 68 500 060/03 RMK AO2 TSNO
94908KDBQ DBQ20070329211510503/29/07 21:15:31  5-MIN KDBQ 300315Z AUTO 07006KT 10SM OVC020 11/06 A3031 720 68 500 070/06 RMK AO2 TSNO
94908KDBQ DBQ20070329212010503/29/07 21:20:31  5-MIN KDBQ 300320Z AUTO 07005KT 10SM OVC020 11/06 A3031 720 68 500 070/05 RMK AO2 TSNO
94908KDBQ DBQ20070329212510503/29/07 21:25:31  5-MIN KDBQ 300325Z AUTO 06006KT 10SM OVC020 11/06 A3031 720 68 500 060/06 RMK AO2 TSNO
94908KDBQ DBQ20070329213010503/29/07 21:30:31  5-MIN KDBQ 300330Z AUTO 07005KT 10SM OVC020 11/06 A3031 720 68 500 070/05 RMK AO2 TSNO
94908KDBQ DBQ20070329213510503/29/07 21:35:31  5-MIN KDBQ 300335Z AUTO 06005KT 10SM OVC020 11/06 A3031 720 68 500 060/05 RMK AO2 TSNO
94908KDBQ DBQ20070329214010503/29/07 21:40:31  5-MIN KDBQ 300340Z AUTO 05007KT 10SM OVC020 11/06 A3031 720 68 500 050/07 RMK AO2 TSNO
94908KDBQ DBQ20070329214510503/29/07 21:45:31  5-MIN KDBQ 300345Z AUTO 05007KT 10SM OVC022 11/06 A3031 720 68 500 050/07 RMK AO2 TSNO
94908KDBQ DBQ20070329215012203/29/07 21:50:31  5-MIN KDBQ 300350Z AUTO 05005KT 10SM OVC022 11/06 A3031 720 68 500 050/05 RMK AO2 SLP269 T01110056 TSNO
94908KDBQ DBQ20070329215512203/29/07 21:55:31  5-MIN KDBQ 300355Z AUTO 05004KT 10SM OVC022 11/06 A3031 720 68 500 050/04 RMK AO2 SLP270 T01110056 TSNO
94908KDBQ DBQ20070329220010503/29/07 22:00:31  5-MIN KDBQ 300400Z AUTO 03004KT 10SM OVC022 11/06 A3031 720 68 500 030/04 RMK AO2 TSNO
94908KDBQ DBQ20070329220510503/29/07 22:05:31  5-MIN KDBQ 300405Z AUTO 04004KT 10SM OVC022 11/06 A3031 720 74 400 040/04 RMK AO2 TSNO
94908KDBQ DBQ20070329221010403/29/07 22:10:31  5-MIN KDBQ 300410Z AUTO 05004KT 9SM OVC022 11/06 A3031 720 74 400 040/04 RMK AO2 TSNO
94908KDBQ DBQ20070329221510403/29/07 22:15:31  5-MIN KDBQ 300415Z AUTO 04005KT 9SM OVC022 11/06 A3031 720 74 400 040/05 RMK AO2 TSNO
94908KDBQ DBQ20070329222010403/29/07 22:20:31  5-MIN KDBQ 300420Z AUTO 05006KT 9SM OVC022 11/06 A3031 720 74 400 050/06 RMK AO2 TSNO
94908KDBQ DBQ20070329222510403/29/07 22:25:31  5-MIN KDBQ 300425Z AUTO 06007KT 9SM OVC022 11/06 A3030 720 74 400 060/07 RMK AO2 TSNO
94908KDBQ DBQ20070329223010403/29/07 22:30:31  5-MIN KDBQ 300430Z AUTO 06008KT 9SM OVC022 11/06 A3031 720 71 400 060/08 RMK AO2 TSNO
94908KDBQ DBQ20070329223510503/29/07 22:35:31  5-MIN KDBQ 300435Z AUTO 07006KT 10SM OVC022 11/06 A3031 720 68 500 070/06 RMK AO2 TSNO
94908KDBQ DBQ20070329224010503/29/07 22:40:31  5-MIN KDBQ 300440Z AUTO 08006KT 10SM OVC022 11/05 A3031 720 66 500 080/06 RMK AO2 TSNO
94908KDBQ DBQ20070329224510503/29/07 22:45:31  5-MIN KDBQ 300445Z AUTO 08007KT 10SM OVC022 11/05 A3031 720 66 500 080/07 RMK AO2 TSNO
94908KDBQ DBQ20070329225012203/29/07 22:50:31  5-MIN KDBQ 300450Z AUTO 07005KT 10SM OVC022 11/05 A3031 720 66 500 070/05 RMK AO2 SLP268 T01110050 TSNO
94908KDBQ DBQ20070329225512203/29/07 22:55:31  5-MIN KDBQ 300455Z AUTO 07006KT 10SM OVC022 11/05 A3031 720 66 500 070/06 RMK AO2 SLP268 T01110050 TSNO
94908KDBQ DBQ20070329230010503/29/07 23:00:31  5-MIN KDBQ 300500Z AUTO 06006KT 10SM OVC022 11/05 A3030 730 66 500 060/06 RMK AO2 TSNO
94908KDBQ DBQ20070329230510503/29/07 23:05:31  5-MIN KDBQ 300505Z AUTO 06005KT 10SM OVC022 11/05 A3030 730 66 500 060/05 RMK AO2 TSNO
94908KDBQ DBQ20070329231010503/29/07 23:10:31  5-MIN KDBQ 300510Z AUTO 06006KT 10SM OVC022 11/06 A3030 730 71 400 060/06 RMK AO2 TSNO
94908KDBQ DBQ20070329231510503/29/07 23:15:31  5-MIN KDBQ 300515Z AUTO 06005KT 10SM OVC022 11/06 A3030 730 71 400 060/05 RMK AO2 TSNO
94908KDBQ DBQ20070329232010503/29/07 23:20:31  5-MIN KDBQ 300520Z AUTO 05005KT 10SM OVC022 11/06 A3030 730 71 400 050/05 RMK AO2 TSNO
94908KDBQ DBQ20070329232510503/29/07 23:25:31  5-MIN KDBQ 300525Z AUTO 03005KT 10SM OVC022 11/06 A3030 730 71 400 030/05 RMK AO2 TSNO
94908KDBQ DBQ20070329233010403/29/07 23:30:31  5-MIN KDBQ 300530Z AUTO 03006KT 9SM OVC022 11/06 A3030 730 71 400 020/06 RMK AO2 TSNO
94908KDBQ DBQ20070329233511103/29/07 23:35:31  5-MIN KDBQ 300535Z AUTO 04006KT 9SM BKN022 OVC042 11/06 A3030 730 71 400 030/06 RMK AO2 TSNO
94908KDBQ DBQ20070329234011103/29/07 23:40:31  5-MIN KDBQ 300540Z AUTO 04006KT 9SM BKN022 OVC038 11/06 A3030 730 71 400 040/06 RMK AO2 TSNO
94908KDBQ DBQ20070329234511103/29/07 23:45:31  5-MIN KDBQ 300545Z AUTO 05005KT 9SM SCT022 OVC038 11/06 A3030 730 71 400 050/05 RMK AO2 TSNO
94908KDBQ DBQ20070329235015603/29/07 23:50:31  5-MIN KDBQ 300550Z AUTO 05004KT 9SM SCT022 OVC040 11/06 A3030 730 71 400 050/04 RMK AO2 SLP265 T01060056 10111 20106 401220067 58004 TSNO
94908KDBQ DBQ20070329235515603/29/07 23:55:31  5-MIN KDBQ 300555Z AUTO 05005KT 9SM FEW022 OVC042 11/06 A3030 730 71 400 050/05 RMK AO2 SLP264 T01060056 10111 20106 401220067 56006 TSNO
94908KDBQ DBQ20070330000010403/30/07 00:00:38  5-MIN KDBQ 300600Z AUTO 04006KT 9SM OVC040 11/06 A3029 730 71 400 040/06 RMK AO2 TSNO
94908KDBQ DBQ20070330000510403/30/07 00:05:31  5-MIN KDBQ 300605Z AUTO 04006KT 9SM OVC040 11/06 A3029 740 71 400 030/06 RMK AO2 TSNO
94908KDBQ DBQ20070330001010403/30/07 00:10:31  5-MIN KDBQ 300610Z AUTO 04006KT 9SM OVC042 11/06 A3029 740 71 400 040/06 RMK AO2 TSNO
94908KDBQ DBQ20070330001510403/30/07 00:15:32  5-MIN KDBQ 300615Z AUTO 04005KT 9SM OVC042 11/06 A3029 740 71 400 040/05 RMK AO2 TSNO
94908KDBQ DBQ20070330002010503/30/07 00:20:31  5-MIN KDBQ 300620Z AUTO 05005KT 10SM OVC042 11/05 A3029 730 66 500 050/05 RMK AO2 TSNO
94908KDBQ DBQ20070330002510503/30/07 00:25:31  5-MIN KDBQ 300625Z AUTO 06005KT 10SM OVC044 11/05 A3029 740 66 500 060/05 RMK AO2 TSNO
94908KDBQ DBQ20070330003011903/30/07 00:30:31  5-MIN KDBQ 300630Z AUTO 07003KT 10SM FEW029 SCT034 OVC044 11/05 A3029 730 66 500 070/03 RMK AO2 TSNO
94908KDBQ DBQ20070330003511903/30/07 00:35:31  5-MIN KDBQ 300635Z AUTO 07004KT 10SM SCT028 BKN033 OVC044 11/05 A3029 740 66 500 070/04 RMK AO2 TSNO
94908KDBQ DBQ20070330004011903/30/07 00:40:31  5-MIN KDBQ 300640Z AUTO 10006KT 10SM BKN028 BKN033 OVC044 11/05 A3029 740 66 500 100/06 RMK AO2 TSNO
94908KDBQ DBQ20070330004511203/30/07 00:45:31  5-MIN KDBQ 300645Z AUTO 10006KT 10SM BKN028 OVC044 12/06 A3029 740 66 600 100/06 RMK AO2 TSNO
94908KDBQ DBQ20070330005013603/30/07 00:50:31  5-MIN KDBQ 300650Z AUTO 10006KT 10SM BKN028 BKN034 OVC055 12/06 A3029 740 66 600 100/06 RMK AO2 SLP260 T01170056 TSNO
94908KDBQ DBQ20070330005512903/30/07 00:55:31  5-MIN KDBQ 300655Z AUTO 09006KT 10SM BKN028 OVC034 12/06 A3029 740 66 600 090/06 RMK AO2 SLP259 T01170056 TSNO
94908KDBQ DBQ20070330010011203/30/07 01:00:31  5-MIN KDBQ 300700Z AUTO 09006KT 10SM BKN028 OVC037 12/06 A3028 740 66 600 090/06 RMK AO2 TSNO
94908KDBQ DBQ20070330010511203/30/07 01:05:31  5-MIN KDBQ 300705Z AUTO 08006KT 10SM BKN028 OVC034 12/06 A3028 750 66 600 080/06 RMK AO2 TSNO
94908KDBQ DBQ20070330011011203/30/07 01:10:31  5-MIN KDBQ 300710Z AUTO VRB05KT 10SM BKN028 OVC034 12/06 A3028 740 66 600 VRB/05 RMK AO2 TSNO
94908KDBQ DBQ20070330011511203/30/07 01:15:31  5-MIN KDBQ 300715Z AUTO 09004KT 10SM BKN028 OVC034 12/06 A3028 750 66 600 090/04 RMK AO2 TSNO
94908KDBQ DBQ20070330012010503/30/07 01:20:31  5-MIN KDBQ 300720Z AUTO 10005KT 10SM OVC028 12/06 A3028 750 66 600 100/05 RMK AO2 TSNO
94908KDBQ DBQ20070330012510503/30/07 01:25:31  5-MIN KDBQ 300725Z AUTO 09006KT 10SM OVC028 12/06 A3028 750 66 600 090/06 RMK AO2 TSNO
94908KDBQ DBQ20070330013010503/30/07 01:30:31  5-MIN KDBQ 300730Z AUTO 09005KT 10SM OVC028 12/06 A3027 750 68 600 090/05 RMK AO2 TSNO
94908KDBQ DBQ20070330013510503/30/07 01:35:31  5-MIN KDBQ 300735Z AUTO 09005KT 10SM OVC028 12/06 A3027 750 68 600 090/05 RMK AO2 TSNO
94908KDBQ DBQ20070330014010503/30/07 01:40:31  5-MIN KDBQ 300740Z AUTO 09005KT 10SM OVC028 12/06 A3027 750 68 600 090/05 RMK AO2 TSNO
94908KDBQ DBQ20070330014510503/30/07 01:45:31  5-MIN KDBQ 300745Z AUTO 09006KT 10SM OVC028 12/06 A3027 760 68 600 090/06 RMK AO2 TSNO
94908KDBQ DBQ20070330015012203/30/07 01:50:31  5-MIN KDBQ 300750Z AUTO 10003KT 10SM OVC028 12/06 A3027 750 68 600 100/03 RMK AO2 SLP254 T01170061 TSNO
94908KDBQ DBQ20070330015513803/30/07 01:55:31  5-MIN KDBQ 300755Z AUTO 11004KT 10SM -RA OVC028 12/06 A3027 750 68 600 110/04 RMK AO2 RAB55 SLP254 P0000 T01170061 TSNO
94908KDBQ DBQ20070330020012203/30/07 02:00:31  5-MIN KDBQ 300800Z AUTO 11006KT 10SM -RA BKN028 OVC034 12/06 A3027 760 68 600 110/06 RMK AO2 P0000 TSNO
94908KDBQ DBQ20070330020512803/30/07 02:05:31  5-MIN KDBQ 300805Z AUTO 10007KT 9SM -RA BKN028 BKN034 OVC043 12/07 A3027 760 71 600 100/07 RMK AO2 P0000 TSNO
94908KDBQ DBQ20070330021012703/30/07 02:10:31  5-MIN KDBQ 300810Z AUTO 10005KT 6SM RA FEW018 BKN028 OVC060 11/07 A3027 760 77 500 100/05 RMK AO2 P0002 TSNO
94908KDBQ DBQ20070330021512803/30/07 02:15:31  5-MIN KDBQ 300815Z AUTO 10006KT 6SM -RA FEW018 BKN048 OVC085 11/07 A3026 760 77 500 100/06 RMK AO2 P0003 TSNO
94908KDBQ DBQ20070330022013103/30/07 02:20:31  5-MIN KDBQ 300820Z AUTO 10007KT 10SM FEW018 BKN065 OVC085 11/07 A3026 760 77 500 100/07 RMK AO2 RAE20 P0003 TSNO
94908KDBQ DBQ20070330022513103/30/07 02:25:31  5-MIN KDBQ 300825Z AUTO 09008KT 10SM FEW018 BKN070 OVC090 11/07 A3026 770 77 500 090/08 RMK AO2 RAE20 P0003 TSNO
94908KDBQ DBQ20070330023013003/30/07 02:30:31  5-MIN KDBQ 300830Z AUTO 10007KT 9SM FEW018 BKN070 OVC090 11/07 A3026 770 80 500 100/07 RMK AO2 RAE20 P0003 TSNO
94908KDBQ DBQ20070330023513003/30/07 02:35:31  5-MIN KDBQ 300835Z AUTO 12007KT 8SM FEW039 BKN070 OVC090 11/07 A3026 770 80 500 120/07 RMK AO2 RAE20 P0003 TSNO
94908KDBQ DBQ20070330024013003/30/07 02:40:31  5-MIN KDBQ 300840Z AUTO 13008KT 8SM SCT034 BKN070 OVC090 11/07 A3026 770 77 500 120/08 RMK AO2 RAE20 P0003 TSNO
94908KDBQ DBQ20070330024513003/30/07 02:45:31  5-MIN KDBQ 300845Z AUTO 12009KT 8SM SCT032 BKN070 OVC110 11/07 A3025 770 77 500 120/09 RMK AO2 RAE20 P0003 TSNO
94908KDBQ DBQ20070330025015903/30/07 02:50:31  5-MIN KDBQ 300850Z AUTO 12009KT 9SM FEW034 BKN090 OVC110 11/07 A3025 770 77 500 120/09 RMK AO2 RAE20 SLP247 P0003 60003 T01110072 56006 TSNO
94908KDBQ DBQ20070330025516003/30/07 02:55:31  5-MIN KDBQ 300855Z AUTO 12010KT 10SM FEW034 SCT065 OVC110 11/07 A3025 780 77 500 120/10 RMK AO2 RAE20 SLP245 P0003 60003 T01110072 58016 TSNO
94908KDBQ DBQ20070330030011903/30/07 03:00:31  5-MIN KDBQ 300900Z AUTO 11008KT 10SM FEW034 BKN065 OVC110 11/07 A3025 780 77 500 110/08 RMK AO2 TSNO
94908KDBQ DBQ20070330030511903/30/07 03:05:31  5-MIN KDBQ 300905Z AUTO 12008KT 10SM FEW029 BKN065 OVC110 11/07 A3024 780 77 500 120/08 RMK AO2 TSNO
94908KDBQ DBQ20070330031011203/30/07 03:10:31  5-MIN KDBQ 300910Z AUTO 11008KT 10SM SCT065 OVC110 11/07 A3024 780 77 500 110/08 RMK AO2 TSNO
94908KDBQ DBQ20070330031511903/30/07 03:15:31  5-MIN KDBQ 300915Z AUTO 12008KT 10SM SCT065 BKN100 OVC120 11/07 A3024 780 77 500 120/08 RMK AO2 TSNO
94908KDBQ DBQ20070330032011203/30/07 03:20:31  5-MIN KDBQ 300920Z AUTO 12007KT 10SM BKN065 OVC100 11/07 A3024 780 77 500 120/07 RMK AO2 TSNO
94908KDBQ DBQ20070330032511903/30/07 03:25:31  5-MIN KDBQ 300925Z AUTO 12007KT 10SM BKN060 BKN070 OVC100 11/07 A3024 780 74 500 120/07 RMK AO2 TSNO
94908KDBQ DBQ20070330033011903/30/07 03:30:31  5-MIN KDBQ 300930Z AUTO 13007KT 10SM BKN060 BKN070 OVC100 12/07 A3024 790 71 600 130/07 RMK AO2 TSNO
94908KDBQ DBQ20070330033511903/30/07 03:35:31  5-MIN KDBQ 300935Z AUTO 13008KT 10SM BKN060 BKN075 OVC100 12/07 A3024 790 71 600 130/08 RMK AO2 TSNO
94908KDBQ DBQ20070330034011903/30/07 03:40:31  5-MIN KDBQ 300940Z AUTO 16004KT 10SM BKN060 BKN070 BKN100 11/07 A3024 790 74 500 160/04 RMK AO2 TSNO
94908KDBQ DBQ20070330034511203/30/07 03:45:31  5-MIN KDBQ 300945Z AUTO VRB03KT 10SM BKN060 BKN070 11/07 A3023 790 74 600 VRB/03 RMK AO2 TSNO
94908KDBQ DBQ20070330035012903/30/07 03:50:31  5-MIN KDBQ 300950Z AUTO 00000KT 10SM SCT060 SCT070 11/07 A3024 790 74 600 000/00 RMK AO2 SLP241 T01110067 TSNO
94908KDBQ DBQ20070330035512203/30/07 03:55:31  5-MIN KDBQ 300955Z AUTO 00000KT 10SM SCT060 11/07 A3023 790 74 600 000/00 RMK AO2 SLP241 T01110067 TSNO
94908KDBQ DBQ20070330040010503/30/07 04:00:31  5-MIN KDBQ 301000Z AUTO 00000KT 10SM FEW060 11/07 A3023 790 74 600 000/00 RMK AO2 TSNO
94908KDBQ DBQ20070330040510503/30/07 04:05:31  5-MIN KDBQ 301005Z AUTO 00000KT 10SM FEW060 11/07 A3023 790 74 600 000/00 RMK AO2 TSNO
94908KDBQ DBQ20070330041010503/30/07 04:10:31  5-MIN KDBQ 301010Z AUTO 10003KT 10SM FEW030 11/07 A3023 790 74 600 100/03 RMK AO2 TSNO
94908KDBQ DBQ20070330041511203/30/07 04:15:31  5-MIN KDBQ 301015Z AUTO 09005KT 10SM FEW030 SCT070 11/07 A3023 790 74 600 090/05 RMK AO2 TSNO
94908KDBQ DBQ20070330042011203/30/07 04:20:31  5-MIN KDBQ 301020Z AUTO 09005KT 10SM SCT030 SCT065 11/07 A3023 800 74 600 090/05 RMK AO2 TSNO
94908KDBQ DBQ20070330042511203/30/07 04:25:31  5-MIN KDBQ 301025Z AUTO 08005KT 10SM SCT030 BKN065 11/07 A3023 800 74 600 080/05 RMK AO2 TSNO
94908KDBQ DBQ20070330043011203/30/07 04:30:31  5-MIN KDBQ 301030Z AUTO 09005KT 10SM SCT030 BKN060 11/07 A3023 800 74 600 090/05 RMK AO2 TSNO
94908KDBQ DBQ20070330043511203/30/07 04:35:31  5-MIN KDBQ 301035Z AUTO 09006KT 10SM BKN030 BKN060 11/07 A3022 800 74 600 090/06 RMK AO2 TSNO
94908KDBQ DBQ20070330044011203/30/07 04:40:31  5-MIN KDBQ 301040Z AUTO 09007KT 10SM BKN030 BKN060 11/07 A3022 800 74 600 090/07 RMK AO2 TSNO
94908KDBQ DBQ20070330044511203/30/07 04:45:31  5-MIN KDBQ 301045Z AUTO 10006KT 10SM BKN030 OVC060 11/07 A3022 800 74 600 100/06 RMK AO2 TSNO
94908KDBQ DBQ20070330045012903/30/07 04:50:31  5-MIN KDBQ 301050Z AUTO 09006KT 10SM BKN030 OVC060 11/07 A3022 800 74 600 090/06 RMK AO2 SLP237 T01110067 TSNO
94908KDBQ DBQ20070330045512903/30/07 04:55:31  5-MIN KDBQ 301055Z AUTO 10004KT 10SM BKN030 OVC060 11/07 A3022 800 74 600 100/04 RMK AO2 SLP237 T01110067 TSNO
94908KDBQ DBQ20070330050009503/30/07 05:00:31  5-MIN KDBQ 301100Z 08006KT 10SM OVC032 11/07 A3022 800 74 600 080/06 RMK AO2
94908KDBQ DBQ20070330091010703/30/07 09:10:31  5-MIN KDBQ 301510Z 09009KT 4SM -RA BR OVC004 09/08 A3024 780 93 300 090/09 RMK AO2 P0001
94908KDBQ DBQ20070330091510703/30/07 09:15:31  5-MIN KDBQ 301515Z 09008KT 4SM -RA BR OVC004 09/08 A3024 780 93 300 090/08 RMK AO2 P0001
94908KDBQ DBQ20070330092010703/30/07 09:20:31  5-MIN KDBQ 301520Z 09009KT 3SM -RA BR OVC004 09/08 A3024 780 93 300 080/09 RMK AO2 P0001
94908KDBQ DBQ20070330092510903/30/07 09:25:31  5-MIN KDBQ 301525Z 09009KT 3SM BR OVC004 09/08 A3024 780 93 300 080/09 RMK AO2 RAE24 P0001
94908KDBQ DBQ20070330093010903/30/07 09:30:31  5-MIN KDBQ 301530Z 09007KT 3SM BR OVC004 09/08 A3025 780 93 300 090/07 RMK AO2 RAE24 P0001
94908KDBQ DBQ20070330093510903/30/07 09:35:31  5-MIN KDBQ 301535Z 09007KT 3SM BR OVC004 09/08 A3025 780 93 300 090/07 RMK AO2 RAE24 P0001
94908KDBQ DBQ20070330094010903/30/07 09:40:31  5-MIN KDBQ 301540Z 07008KT 3SM BR OVC004 09/08 A3024 780 93 300 070/08 RMK AO2 RAE24 P0001
94908KDBQ DBQ20070330094510903/30/07 09:45:31  5-MIN KDBQ 301545Z 08009KT 3SM BR OVC004 09/08 A3024 780 93 300 080/09 RMK AO2 RAE24 P0001
94908KDBQ DBQ20070330095012603/30/07 09:50:31  5-MIN KDBQ 301550Z 07010KT 3SM BR OVC004 09/08 A3024 790 93 300 070/10 RMK AO2 RAE24 SLP243 P0001 T00940083
94908KDBQ DBQ20070330095512603/30/07 09:55:31  5-MIN KDBQ 301555Z 06008KT 3SM BR OVC004 09/08 A3023 790 93 400 060/08 RMK AO2 RAE24 SLP242 P0001 T00940083
94908KDBQ DBQ20070330100009703/30/07 10:00:31  5-MIN KDBQ 301600Z 07009KT 3SM BR OVC004 09/08 A3024 790 93 300 070/09 RMK AO2
94908KDBQ DBQ20070330100509703/30/07 10:05:31  5-MIN KDBQ 301605Z 07010KT 3SM BR OVC004 09/08 A3023 790 93 400 070/10 RMK AO2
94908KDBQ DBQ20070330101009703/30/07 10:10:31  5-MIN KDBQ 301610Z 07009KT 4SM BR OVC004 09/08 A3023 790 93 400 070/09 RMK AO2
94908KDBQ DBQ20070330101509703/30/07 10:15:31  5-MIN KDBQ 301615Z 07008KT 3SM BR OVC004 09/08 A3023 790 93 400 070/08 RMK AO2
94908KDBQ DBQ20070330102009703/30/07 10:20:31  5-MIN KDBQ 301620Z 07009KT 3SM BR OVC004 09/08 A3023 790 93 400 070/09 RMK AO2
94908KDBQ DBQ20070330102509703/30/07 10:25:31  5-MIN KDBQ 301625Z 07009KT 3SM BR OVC004 09/08 A3023 790 93 400 070/09 RMK AO2
94908KDBQ DBQ20070330103009703/30/07 10:30:31  5-MIN KDBQ 301630Z 07012KT 3SM BR OVC004 09/08 A3023 800 89 400 070/12 RMK AO2
94908KDBQ DBQ20070330103509703/30/07 10:35:31  5-MIN KDBQ 301635Z 07011KT 3SM BR OVC004 09/08 A3022 800 89 400 070/11 RMK AO2
94908KDBQ DBQ20070330104009703/30/07 10:40:31  5-MIN KDBQ 301640Z 08011KT 3SM BR OVC004 09/08 A3022 800 93 400 080/11 RMK AO2
94908KDBQ DBQ20070330104509703/30/07 10:45:31  5-MIN KDBQ 301645Z 08010KT 3SM BR OVC004 09/08 A3022 800 93 400 080/10 RMK AO2
94908KDBQ DBQ20070330105011403/30/07 10:50:31  5-MIN KDBQ 301650Z 08011KT 3SM BR OVC004 09/08 A3022 800 93 400 080/11 RMK AO2 SLP238 T00940083
94908KDBQ DBQ20070330105511403/30/07 10:55:31  5-MIN KDBQ 301655Z 08008KT 3SM BR OVC004 09/08 A3022 800 93 400 080/08 RMK AO2 SLP238 T00940083
94908KDBQ DBQ20070330110009703/30/07 11:00:31  5-MIN KDBQ 301700Z 07009KT 3SM BR OVC004 09/08 A3023 800 93 400 070/09 RMK AO2
94908KDBQ DBQ20070330110509703/30/07 11:05:31  5-MIN KDBQ 301705Z 09010KT 3SM BR OVC004 09/08 A3022 800 93 400 090/10 RMK AO2
94908KDBQ DBQ20070330111009703/30/07 11:10:31  5-MIN KDBQ 301710Z 09009KT 3SM BR OVC004 09/08 A3022 800 93 400 090/09 RMK AO2
94908KDBQ DBQ20070330111509703/30/07 11:15:31  5-MIN KDBQ 301715Z 09010KT 4SM BR OVC004 09/08 A3023 800 93 400 090/10 RMK AO2
94908KDBQ DBQ20070330112009703/30/07 11:20:31  5-MIN KDBQ 301720Z 08010KT 4SM BR OVC004 09/08 A3022 800 93 400 080/10 RMK AO2
94908KDBQ DBQ20070330112509703/30/07 11:25:31  5-MIN KDBQ 301725Z 09012KT 4SM BR OVC004 09/08 A3022 800 93 400 090/12 RMK AO2
94908KDBQ DBQ20070330113009703/30/07 11:30:31  5-MIN KDBQ 301730Z 09011KT 4SM BR OVC004 09/08 A3022 810 93 400 090/11 RMK AO2
94908KDBQ DBQ20070330113509703/30/07 11:35:31  5-MIN KDBQ 301735Z 09012KT 4SM BR OVC004 09/08 A3022 810 93 400 090/12 RMK AO2
94908KDBQ DBQ20070330114009703/30/07 11:40:31  5-MIN KDBQ 301740Z 09012KT 4SM BR OVC004 10/08 A3022 810 89 400 090/12 RMK AO2
94908KDBQ DBQ20070330114509703/30/07 11:45:31  5-MIN KDBQ 301745Z 09010KT 4SM BR OVC004 09/08 A3022 800 93 400 090/10 RMK AO2
94908KDBQ DBQ20070330115013803/30/07 11:50:31  5-MIN KDBQ 301750Z 09011KT 4SM BR OVC004 09/08 A3022 800 93 400 090/11 RMK AO2 SLP237 60048 T00940083 10111 20089 50002
94908KDBQ DBQ20070330115513803/30/07 11:55:31  5-MIN KDBQ 301755Z 08011KT 5SM BR OVC004 09/08 A3022 800 93 400 080/11 RMK AO2 SLP238 60048 T00940083 10111 20089 58006
94908KDBQ DBQ20070330120009703/30/07 12:00:31  5-MIN KDBQ 301800Z 09010KT 5SM BR OVC004 09/08 A3022 800 93 400 090/10 RMK AO2
94908KDBQ DBQ20070330120509703/30/07 12:05:31  5-MIN KDBQ 301805Z 09010KT 5SM BR OVC004 09/08 A3022 810 93 400 080/10 RMK AO2
94908KDBQ DBQ20070330121009703/30/07 12:10:31  5-MIN KDBQ 301810Z 09009KT 5SM BR OVC004 09/08 A3021 810 93 400 090/09 RMK AO2
94908KDBQ DBQ20070330121509703/30/07 12:15:31  5-MIN KDBQ 301815Z 10012KT 5SM BR OVC004 09/08 A3021 810 89 400 100/12 RMK AO2
94908KDBQ DBQ20070330122009703/30/07 12:20:31  5-MIN KDBQ 301820Z 10014KT 5SM BR OVC004 09/08 A3021 810 89 400 090/14 RMK AO2
94908KDBQ DBQ20070330122511303/30/07 12:25:31  5-MIN KDBQ 301825Z 09010KT 5SM -RA BR OVC004 09/08 A3021 810 89 400 090/10 RMK AO2 RAB24 P0000
94908KDBQ DBQ20070330123011303/30/07 12:30:31  5-MIN KDBQ 301830Z 08011KT 5SM -RA BR OVC006 09/08 A3021 810 89 400 080/11 RMK AO2 RAB24 P0000
94908KDBQ DBQ20070330123511303/30/07 12:35:31  5-MIN KDBQ 301835Z 09012KT 5SM -RA BR OVC006 09/08 A3021 810 89 400 090/12 RMK AO2 RAB24 P0000
94908KDBQ DBQ20070330124011303/30/07 12:40:31  5-MIN KDBQ 301840Z 10011KT 5SM -RA BR OVC006 09/08 A3021 810 89 400 100/11 RMK AO2 RAB24 P0000
94908KDBQ DBQ20070330124511203/30/07 12:45:31  5-MIN KDBQ 301845Z 10012KT 5SM BR OVC006 09/08 A3021 810 89 400 100/12 RMK AO2 RAB24E43 P0000
94908KDBQ DBQ20070330125012903/30/07 12:50:31  5-MIN KDBQ 301850Z 11011KT 4SM BR OVC006 09/08 A3020 820 89 400 100/11 RMK AO2 RAB24E43 SLP231 P0000 T00940078
94908KDBQ DBQ20070330125512903/30/07 12:55:31  5-MIN KDBQ 301855Z 09010KT 4SM BR OVC006 09/08 A3020 820 89 400 090/10 RMK AO2 RAB24E43 SLP230 P0000 T00940078
94908KDBQ DBQ20070330130009703/30/07 13:00:31  5-MIN KDBQ 301900Z 09009KT 4SM BR OVC006 09/08 A3020 820 89 400 090/09 RMK AO2
94908KDBQ DBQ20070330130509703/30/07 13:05:31  5-MIN KDBQ 301905Z 09008KT 4SM BR OVC006 09/08 A3020 820 93 400 090/08 RMK AO2
94908KDBQ DBQ20070330131009703/30/07 13:10:31  5-MIN KDBQ 301910Z 08010KT 4SM BR OVC006 09/08 A3020 820 89 400 080/10 RMK AO2
94908KDBQ DBQ20070330131509703/30/07 13:15:31  5-MIN KDBQ 301915Z 08010KT 4SM BR OVC004 09/08 A3019 830 93 300 080/10 RMK AO2
94908KDBQ DBQ20070330132009703/30/07 13:20:31  5-MIN KDBQ 301920Z 09010KT 4SM BR OVC004 09/08 A3019 830 93 300 090/10 RMK AO2
94908KDBQ DBQ20070330132509703/30/07 13:25:31  5-MIN KDBQ 301925Z 09011KT 4SM BR OVC004 09/08 A3019 830 93 300 090/11 RMK AO2
94908KDBQ DBQ20070330133009703/30/07 13:30:31  5-MIN KDBQ 301930Z 09011KT 4SM BR OVC004 09/07 A3019 830 89 300 090/11 RMK AO2
94908KDBQ DBQ20070330133509703/30/07 13:35:31  5-MIN KDBQ 301935Z 10009KT 4SM BR OVC004 09/08 A3019 830 93 300 100/09 RMK AO2
94908KDBQ DBQ20070330134009703/30/07 13:40:31  5-MIN KDBQ 301940Z 10010KT 4SM BR OVC004 09/07 A3019 830 89 300 100/10 RMK AO2
94908KDBQ DBQ20070330134509703/30/07 13:45:31  5-MIN KDBQ 301945Z 10010KT 4SM BR OVC004 09/08 A3019 830 93 300 090/10 RMK AO2
94908KDBQ DBQ20070330135009703/30/07 13:50:31  5-MIN KDBQ 301950Z 10010KT 4SM BR OVC006 09/08 A3018 840 93 300 100/10 RMK AO2
94908KDBQ DBQ20070330135511403/30/07 13:55:31  5-MIN KDBQ 301955Z 09010KT 4SM BR OVC006 09/08 A3018 840 93 300 090/10 RMK AO2 SLP224 T00890078
94908KDBQ DBQ20070330140009703/30/07 14:00:31  5-MIN KDBQ 302000Z 09011KT 4SM BR OVC006 09/08 A3018 840 93 300 090/11 RMK AO2
94908KDBQ DBQ20070330140509703/30/07 14:05:31  5-MIN KDBQ 302005Z 09011KT 4SM BR OVC006 09/08 A3018 840 89 400 090/11 RMK AO2
94908KDBQ DBQ20070330141009703/30/07 14:10:31  5-MIN KDBQ 302010Z 09009KT 4SM BR OVC006 09/08 A3018 840 93 400 090/09 RMK AO2
94908KDBQ DBQ20070330141509703/30/07 14:15:31  5-MIN KDBQ 302015Z 08010KT 4SM BR OVC006 09/08 A3017 850 93 400 080/10 RMK AO2
94908KDBQ DBQ20070330142011303/30/07 14:20:31  5-MIN KDBQ 302020Z 08009KT 4SM -RA BR OVC006 09/08 A3017 850 93 400 080/09 RMK AO2 RAB17 P0000
94908KDBQ DBQ20070330142511303/30/07 14:25:31  5-MIN KDBQ 302025Z 08008KT 4SM -RA BR OVC006 09/08 A3017 850 93 400 080/08 RMK AO2 RAB17 P0001
94908KDBQ DBQ20070330143011303/30/07 14:30:31  5-MIN KDBQ 302030Z 08010KT 4SM -RA BR OVC006 09/08 A3017 850 93 400 080/10 RMK AO2 RAB17 P0001
94908KDBQ DBQ20070330143511203/30/07 14:35:31  5-MIN KDBQ 302035Z 09009KT 5SM BR OVC006 09/07 A3017 850 89 400 090/09 RMK AO2 RAB17E32 P0001
94908KDBQ DBQ20070330144011203/30/07 14:40:31  5-MIN KDBQ 302040Z 08010KT 5SM BR OVC006 09/08 A3016 850 93 400 080/10 RMK AO2 RAB17E32 P0001
94908KDBQ DBQ20070330144511203/30/07 14:45:31  5-MIN KDBQ 302045Z 08009KT 5SM BR OVC006 09/08 A3016 860 89 400 080/09 RMK AO2 RAB17E32 P0001
94908KDBQ DBQ20070330145014103/30/07 14:50:31  5-MIN KDBQ 302050Z 08009KT 5SM BR OVC006 09/08 A3015 860 93 400 070/09 RMK AO2 RAB17E32 SLP215 P0001 60001 T00890078 58006
94908KDBQ DBQ20070330145514103/30/07 14:55:31  5-MIN KDBQ 302055Z 08007KT 4SM BR OVC006 09/08 A3015 870 89 400 080/07 RMK AO2 RAB17E32 SLP213 P0001 60001 T00940078 58022
94908KDBQ DBQ20070330150009703/30/07 15:00:31  5-MIN KDBQ 302100Z 08009KT 4SM BR OVC006 09/08 A3015 870 89 500 070/09 RMK AO2
94908KDBQ DBQ20070330150509703/30/07 15:05:31  5-MIN KDBQ 302105Z 09010KT 5SM BR OVC006 09/07 A3014 870 89 400 090/10 RMK AO2
94908KDBQ DBQ20070330151009703/30/07 15:10:31  5-MIN KDBQ 302110Z 08010KT 5SM BR OVC006 09/07 A3014 880 89 400 080/10 RMK AO2
94908KDBQ DBQ20070330151509703/30/07 15:15:31  5-MIN KDBQ 302115Z 07009KT 5SM BR OVC006 09/08 A3014 880 89 500 070/09 RMK AO2
94908KDBQ DBQ20070330152009703/30/07 15:20:31  5-MIN KDBQ 302120Z 08010KT 5SM BR OVC006 09/08 A3013 880 93 400 080/10 RMK AO2
94908KDBQ DBQ20070330152509703/30/07 15:25:31  5-MIN KDBQ 302125Z 08010KT 5SM BR OVC006 09/07 A3013 880 89 400 080/10 RMK AO2
94908KDBQ DBQ20070330153009703/30/07 15:30:31  5-MIN KDBQ 302130Z 07009KT 4SM BR OVC006 09/07 A3013 890 89 400 070/09 RMK AO2
94908KDBQ DBQ20070330153509703/30/07 15:35:31  5-MIN KDBQ 302135Z 06008KT 4SM BR OVC006 09/08 A3013 890 93 400 060/08 RMK AO2
94908KDBQ DBQ20070330154009703/30/07 15:40:31  5-MIN KDBQ 302140Z 08008KT 4SM BR OVC006 09/07 A3013 890 89 400 080/08 RMK AO2
94908KDBQ DBQ20070330154509703/30/07 15:45:31  5-MIN KDBQ 302145Z 06007KT 4SM BR OVC006 09/08 A3013 880 93 400 060/07 RMK AO2
94908KDBQ DBQ20070330155011403/30/07 15:50:31  5-MIN KDBQ 302150Z 07006KT 4SM BR OVC006 09/08 A3013 890 93 400 070/06 RMK AO2 SLP207 T00890078
94908KDBQ DBQ20070330155511403/30/07 15:55:31  5-MIN KDBQ 302155Z 05008KT 4SM BR OVC006 09/08 A3013 890 93 400 050/08 RMK AO2 SLP206 T00890078
94908KDBQ DBQ20070330160009703/30/07 16:00:31  5-MIN KDBQ 302200Z 06008KT 4SM BR OVC006 09/07 A3013 890 89 400 060/08 RMK AO2
94908KDBQ DBQ20070330160509703/30/07 16:05:31  5-MIN KDBQ 302205Z 07008KT 4SM BR OVC006 09/07 A3013 890 89 400 070/08 RMK AO2
94908KDBQ DBQ20070330161009703/30/07 16:10:31  5-MIN KDBQ 302210Z 07008KT 4SM BR OVC006 09/07 A3013 890 89 400 070/08 RMK AO2
94908KDBQ DBQ20070330161509703/30/07 16:15:31  5-MIN KDBQ 302215Z 06008KT 5SM BR OVC006 09/07 A3013 880 89 400 060/08 RMK AO2
94908KDBQ DBQ20070330162009703/30/07 16:20:31  5-MIN KDBQ 302220Z 06009KT 5SM BR OVC006 09/07 A3013 890 89 400 060/09 RMK AO2
94908KDBQ DBQ20070330162509703/30/07 16:25:31  5-MIN KDBQ 302225Z 07010KT 5SM BR OVC006 09/07 A3013 890 89 400 070/10 RMK AO2
94908KDBQ DBQ20070330163009703/30/07 16:30:31  5-MIN KDBQ 302230Z 07011KT 4SM BR OVC006 09/07 A3013 890 89 400 070/11 RMK AO2
94908KDBQ DBQ20070330163509703/30/07 16:35:31  5-MIN KDBQ 302235Z 07009KT 4SM BR OVC006 09/07 A3013 890 89 400 070/09 RMK AO2
94908KDBQ DBQ20070330164009703/30/07 16:40:31  5-MIN KDBQ 302240Z 08009KT 4SM BR OVC006 09/07 A3013 890 89 400 070/09 RMK AO2
94908KDBQ DBQ20070330164509703/30/07 16:45:31  5-MIN KDBQ 302245Z 07009KT 4SM BR OVC006 09/07 A3013 890 89 400 070/09 RMK AO2
94908KDBQ DBQ20070330165011403/30/07 16:50:31  5-MIN KDBQ 302250Z 07006KT 4SM BR OVC006 09/07 A3013 880 89 400 060/06 RMK AO2 SLP207 T00890072
94908KDBQ DBQ20070330165511403/30/07 16:55:31  5-MIN KDBQ 302255Z 07006KT 4SM BR OVC006 09/07 A3013 880 89 400 070/06 RMK AO2 SLP209 T00890072
94908KDBQ DBQ20070330170009703/30/07 17:00:31  5-MIN KDBQ 302300Z 07009KT 4SM BR OVC006 09/07 A3013 880 89 400 070/09 RMK AO2
94908KDBQ DBQ20070330170509703/30/07 17:05:31  5-MIN KDBQ 302305Z 07007KT 5SM BR OVC006 09/07 A3013 880 86 400 070/07 RMK AO2
94908KDBQ DBQ20070330171009703/30/07 17:10:31  5-MIN KDBQ 302310Z 07009KT 5SM BR OVC006 09/07 A3013 880 86 400 060/09 RMK AO2
94908KDBQ DBQ20070330171509703/30/07 17:15:31  5-MIN KDBQ 302315Z 07009KT 5SM BR OVC006 09/07 A3013 880 86 400 070/09 RMK AO2
94908KDBQ DBQ20070330172009703/30/07 17:20:31  5-MIN KDBQ 302320Z 08008KT 5SM BR OVC006 09/07 A3013 880 86 400 080/08 RMK AO2
94908KDBQ DBQ20070330172509703/30/07 17:25:31  5-MIN KDBQ 302325Z 08007KT 5SM BR OVC008 09/07 A3014 880 86 400 080/07 RMK AO2
94908KDBQ DBQ20070330173009703/30/07 17:30:31  5-MIN KDBQ 302330Z 08007KT 5SM BR OVC008 09/07 A3014 880 86 400 080/07 RMK AO2
94908KDBQ DBQ20070330173509703/30/07 17:35:31  5-MIN KDBQ 302335Z 08007KT 6SM BR OVC008 09/07 A3014 880 86 400 080/07 RMK AO2
94908KDBQ DBQ20070330174009703/30/07 17:40:31  5-MIN KDBQ 302340Z 08008KT 6SM HZ OVC008 09/06 A3014 880 83 400 080/08 RMK AO2
94908KDBQ DBQ20070330174509703/30/07 17:45:31  5-MIN KDBQ 302345Z 08008KT 6SM HZ OVC008 09/06 A3014 880 83 400 080/08 RMK AO2
94908KDBQ DBQ20070330175013803/30/07 17:50:31  5-MIN KDBQ 302350Z 08005KT 6SM HZ OVC008 09/06 A3014 870 83 400 080/05 RMK AO2 SLP212 60001 T00890061 10094 20089 58022
94908KDBQ DBQ20070330175513503/30/07 17:55:31  5-MIN KDBQ 302355Z 08006KT 7SM OVC010 09/06 A3014 870 83 400 080/06 RMK AO2 SLP212 60001 T00890061 10094 20089 55002
94908KDBQ DBQ20070330180009403/30/07 18:00:31  5-MIN KDBQ 310000Z 08005KT 7SM OVC010 09/07 A3015 870 86 400 080/05 RMK AO2
94908KDBQ DBQ20070330180509403/30/07 18:05:31  5-MIN KDBQ 310005Z 08006KT 7SM OVC010 09/07 A3015 870 86 400 080/06 RMK AO2
94908KDBQ DBQ20070330181009403/30/07 18:10:31  5-MIN KDBQ 310010Z 07006KT 7SM OVC010 09/06 A3015 870 83 400 070/06 RMK AO2
94908KDBQ DBQ20070330181509403/30/07 18:15:31  5-MIN KDBQ 310015Z 06006KT 7SM OVC010 09/06 A3015 870 83 400 060/06 RMK AO2
94908KDBQ DBQ20070330182009403/30/07 18:20:31  5-MIN KDBQ 310020Z 07004KT 7SM OVC010 09/06 A3015 870 83 400 070/04 RMK AO2
94908KDBQ DBQ20070330182509403/30/07 18:25:31  5-MIN KDBQ 310025Z 07006KT 7SM OVC010 09/06 A3015 870 83 400 070/06 RMK AO2
94908KDBQ DBQ20070330183009403/30/07 18:30:31  5-MIN KDBQ 310030Z 07005KT 8SM OVC010 09/07 A3015 870 86 400 070/05 RMK AO2
94908KDBQ DBQ20070330183509403/30/07 18:35:31  5-MIN KDBQ 310035Z 07006KT 8SM OVC010 09/07 A3015 870 86 400 070/06 RMK AO2
94908KDBQ DBQ20070330184010403/30/07 18:40:31  5-MIN KDBQ 310040Z AUTO 07004KT 8SM OVC010 09/07 A3015 870 86 400 070/04 RMK AO2 TSNO
94908KDBQ DBQ20070330184510403/30/07 18:45:31  5-MIN KDBQ 310045Z AUTO 08004KT 8SM OVC010 09/07 A3015 870 86 400 080/04 RMK AO2 TSNO
94908KDBQ DBQ20070330185012103/30/07 18:50:31  5-MIN KDBQ 310050Z AUTO 05005KT 8SM OVC010 09/07 A3014 870 86 400 050/05 RMK AO2 SLP212 T00890067 TSNO
94908KDBQ DBQ20070330185512103/30/07 18:55:31  5-MIN KDBQ 310055Z AUTO 06006KT 8SM OVC010 09/07 A3014 880 86 400 060/06 RMK AO2 SLP211 T00890067 TSNO
94908KDBQ DBQ20070330190010403/30/07 19:00:31  5-MIN KDBQ 310100Z AUTO 07007KT 8SM OVC010 09/07 A3014 880 86 400 070/07 RMK AO2 TSNO
94908KDBQ DBQ20070330190510403/30/07 19:05:31  5-MIN KDBQ 310105Z AUTO 08007KT 8SM OVC010 09/07 A3014 870 86 400 080/07 RMK AO2 TSNO
94908KDBQ DBQ20070330191010403/30/07 19:10:31  5-MIN KDBQ 310110Z AUTO 08008KT 8SM OVC010 09/07 A3014 870 86 400 080/08 RMK AO2 TSNO
94908KDBQ DBQ20070330191510403/30/07 19:15:31  5-MIN KDBQ 310115Z AUTO 08009KT 8SM OVC010 09/07 A3014 880 86 400 080/09 RMK AO2 TSNO
94908KDBQ DBQ20070330192010403/30/07 19:20:31  5-MIN KDBQ 310120Z AUTO 07008KT 8SM OVC010 09/06 A3014 870 83 400 070/08 RMK AO2 TSNO
94908KDBQ DBQ20070330192510403/30/07 19:25:31  5-MIN KDBQ 310125Z AUTO 07008KT 8SM OVC010 09/06 A3014 870 83 400 070/08 RMK AO2 TSNO
94908KDBQ DBQ20070330193010403/30/07 19:30:31  5-MIN KDBQ 310130Z AUTO 07006KT 8SM OVC010 09/06 A3014 870 83 400 060/06 RMK AO2 TSNO
94908KDBQ DBQ20070330193510403/30/07 19:35:31  5-MIN KDBQ 310135Z AUTO 05006KT 8SM OVC010 09/07 A3015 870 86 400 050/06 RMK AO2 TSNO
94908KDBQ DBQ20070330194010403/30/07 19:40:31  5-MIN KDBQ 310140Z AUTO 06008KT 7SM OVC010 09/07 A3015 870 86 400 060/08 RMK AO2 TSNO
94908KDBQ DBQ20070330194510403/30/07 19:45:31  5-MIN KDBQ 310145Z AUTO 06008KT 8SM OVC010 09/07 A3015 870 86 400 060/08 RMK AO2 TSNO
94908KDBQ DBQ20070330195012103/30/07 19:50:31  5-MIN KDBQ 310150Z AUTO 07008KT 8SM OVC010 09/06 A3014 870 83 400 070/08 RMK AO2 SLP212 T00890061 TSNO
94908KDBQ DBQ20070330195512103/30/07 19:55:31  5-MIN KDBQ 310155Z AUTO 08008KT 8SM OVC010 09/06 A3015 870 83 400 070/08 RMK AO2 SLP212 T00890061 TSNO
94908KDBQ DBQ20070330200010403/30/07 20:00:31  5-MIN KDBQ 310200Z AUTO 07008KT 8SM OVC010 09/06 A3014 870 83 400 070/08 RMK AO2 TSNO
94908KDBQ DBQ20070330200510403/30/07 20:05:31  5-MIN KDBQ 310205Z AUTO 07009KT 8SM OVC010 09/06 A3015 870 83 400 070/09 RMK AO2 TSNO
94908KDBQ DBQ20070330201010403/30/07 20:10:31  5-MIN KDBQ 310210Z AUTO 08008KT 8SM OVC008 09/06 A3015 870 83 400 080/08 RMK AO2 TSNO
94908KDBQ DBQ20070330201510403/30/07 20:15:31  5-MIN KDBQ 310215Z AUTO 07009KT 8SM OVC008 09/06 A3014 870 83 400 070/09 RMK AO2 TSNO
94908KDBQ DBQ20070330202010403/30/07 20:20:31  5-MIN KDBQ 310220Z AUTO 07008KT 8SM OVC008 09/06 A3014 870 83 400 070/08 RMK AO2 TSNO
94908KDBQ DBQ20070330202510403/30/07 20:25:31  5-MIN KDBQ 310225Z AUTO 07008KT 8SM OVC008 09/06 A3015 870 83 400 070/08 RMK AO2 TSNO
94908KDBQ DBQ20070330203010403/30/07 20:30:31  5-MIN KDBQ 310230Z AUTO 08007KT 8SM OVC008 09/06 A3014 870 83 400 070/07 RMK AO2 TSNO
94908KDBQ DBQ20070330203510403/30/07 20:35:31  5-MIN KDBQ 310235Z AUTO 07008KT 8SM OVC008 09/06 A3014 870 83 400 070/08 RMK AO2 TSNO
94908KDBQ DBQ20070330204010403/30/07 20:40:31  5-MIN KDBQ 310240Z AUTO 07008KT 8SM OVC008 09/06 A3014 870 83 400 070/08 RMK AO2 TSNO
94908KDBQ DBQ20070330204510403/30/07 20:45:31  5-MIN KDBQ 310245Z AUTO 08008KT 9SM OVC008 09/06 A3014 880 83 400 080/08 RMK AO2 TSNO
94908KDBQ DBQ20070330205013403/30/07 20:50:31  5-MIN KDBQ 310250Z AUTO 08007KT 9SM BKN008 OVC013 09/06 A3014 870 83 400 070/07 RMK AO2 SLP211 T00890061 55002 TSNO
94908KDBQ DBQ20070330205514603/30/07 20:55:31  5-MIN KDBQ 310255Z AUTO 08009KT 9SM BKN008 OVC013 09/06 A3013 880 83 400 070/09 RMK AO2 CIG 007V012 SLP209 T00890061 58003 TSNO
94908KDBQ DBQ20070330210012303/30/07 21:00:31  5-MIN KDBQ 310300Z AUTO 08009KT 9SM BKN008 OVC015 09/06 A3013 890 79 400 080/09 RMK AO2 CIG 007V012 TSNO
94908KDBQ DBQ20070330210511803/30/07 21:05:31  5-MIN KDBQ 310305Z AUTO 08010KT 9SM SCT008 OVC015 09/06 A3012 900 83 400 080/10 RMK AO2 PRESFR TSNO
94908KDBQ DBQ20070330211011803/30/07 21:10:31  5-MIN KDBQ 310310Z AUTO 08010KT 9SM FEW008 BKN015 08/06 A3011 900 82 400 070/10 RMK AO2 PRESFR TSNO
94908KDBQ DBQ20070330211511103/30/07 21:15:31  5-MIN KDBQ 310315Z AUTO 07010KT 9SM FEW008 BKN015 08/06 A3011 900 82 400 070/10 RMK AO2 TSNO
94908KDBQ DBQ20070330212010403/30/07 21:20:31  5-MIN KDBQ 310320Z AUTO 07010KT 9SM SCT015 08/06 A3010 910 82 400 070/10 RMK AO2 TSNO
94908KDBQ DBQ20070330212510403/30/07 21:25:31  5-MIN KDBQ 310325Z AUTO 07010KT 9SM SCT015 08/06 A3010 910 82 400 070/10 RMK AO2 TSNO
94908KDBQ DBQ20070330213010403/30/07 21:30:31  5-MIN KDBQ 310330Z AUTO 08009KT 9SM FEW015 08/06 A3010 920 82 400 080/09 RMK AO2 TSNO
94908KDBQ DBQ20070330213510103/30/07 21:35:31  5-MIN KDBQ 310335Z AUTO 07011KT 9SM CLR 08/06 A3009 920 82 400 070/11 RMK AO2 TSNO
94908KDBQ DBQ20070330214010103/30/07 21:40:31  5-MIN KDBQ 310340Z AUTO 08010KT 9SM CLR 08/06 A3009 920 82 400 070/10 RMK AO2 TSNO
94908KDBQ DBQ20070330214510103/30/07 21:45:31  5-MIN KDBQ 310345Z AUTO 09010KT 9SM CLR 08/06 A3009 920 82 400 080/10 RMK AO2 TSNO
94908KDBQ DBQ20070330215011803/30/07 21:50:31  5-MIN KDBQ 310350Z AUTO 09010KT 9SM CLR 08/06 A3009 930 82 400 090/10 RMK AO2 SLP193 T00830056 TSNO
94908KDBQ DBQ20070330215511803/30/07 21:55:31  5-MIN KDBQ 310355Z AUTO 09010KT 9SM CLR 08/06 A3008 930 82 400 090/10 RMK AO2 SLP192 T00830056 TSNO
94908KDBQ DBQ20070330220010103/30/07 22:00:31  5-MIN KDBQ 310400Z AUTO 10008KT 9SM CLR 08/05 A3009 920 79 400 100/08 RMK AO2 TSNO
94908KDBQ DBQ20070330220510103/30/07 22:05:31  5-MIN KDBQ 310405Z AUTO 10007KT 9SM CLR 08/05 A3009 920 79 400 100/07 RMK AO2 TSNO
94908KDBQ DBQ20070330221010403/30/07 22:10:31  5-MIN KDBQ 310410Z AUTO 09008KT 9SM FEW007 08/05 A3008 930 79 400 090/08 RMK AO2 TSNO
94908KDBQ DBQ20070330221510403/30/07 22:15:31  5-MIN KDBQ 310415Z AUTO 08007KT 9SM FEW007 08/05 A3008 930 79 400 080/07 RMK AO2 TSNO
94908KDBQ DBQ20070330222010403/30/07 22:20:31  5-MIN KDBQ 310420Z AUTO 09007KT 9SM SCT007 08/05 A3009 920 79 400 090/07 RMK AO2 TSNO
94908KDBQ DBQ20070330222510403/30/07 22:25:31  5-MIN KDBQ 310425Z AUTO 10006KT 9SM SCT009 08/05 A3009 930 79 400 100/06 RMK AO2 TSNO
94908KDBQ DBQ20070330223010403/30/07 22:30:31  5-MIN KDBQ 310430Z AUTO 11007KT 9SM BKN009 08/05 A3009 920 79 400 100/07 RMK AO2 TSNO
94908KDBQ DBQ20070330223511603/30/07 22:35:31  5-MIN KDBQ 310435Z AUTO 09010KT 8SM BKN007 08/05 A3008 930 79 400 090/10 RMK AO2 CIG 007V010 TSNO
94908KDBQ DBQ20070330224010403/30/07 22:40:31  5-MIN KDBQ 310440Z AUTO 10010KT 9SM BKN007 08/05 A3008 930 79 400 100/10 RMK AO2 TSNO
94908KDBQ DBQ20070330224511603/30/07 22:45:31  5-MIN KDBQ 310445Z AUTO 11009KT 9SM OVC007 08/06 A3008 930 82 400 100/09 RMK AO2 CIG 007V010 TSNO
94908KDBQ DBQ20070330225013303/30/07 22:50:31  5-MIN KDBQ 310450Z AUTO 11009KT 8SM OVC009 08/06 A3008 930 82 400 100/09 RMK AO2 CIG 007V010 SLP191 T00830056 TSNO
94908KDBQ DBQ20070330225513303/30/07 22:55:31  5-MIN KDBQ 310455Z AUTO 10010KT 8SM OVC009 08/06 A3007 940 82 400 100/10 RMK AO2 CIG 007V011 SLP189 T00830056 TSNO
94908KDBQ DBQ20070330230011603/30/07 23:00:31  5-MIN KDBQ 310500Z AUTO 11008KT 8SM OVC009 09/06 A3007 940 79 500 110/08 RMK AO2 CIG 007V011 TSNO
94908KDBQ DBQ20070330230511603/30/07 23:05:31  5-MIN KDBQ 310505Z AUTO 11009KT 9SM OVC009 08/06 A3007 940 82 400 110/09 RMK AO2 CIG 006V012 TSNO
94908KDBQ DBQ20070330231012303/30/07 23:10:31  5-MIN KDBQ 310510Z AUTO 11010KT 9SM BKN009 OVC012 09/05 A3007 940 76 500 100/10 RMK AO2 CIG 006V011 TSNO
94908KDBQ DBQ20070330231511103/30/07 23:15:31  5-MIN KDBQ 310515Z AUTO 10007KT 9SM BKN006 OVC012 09/05 A3007 940 76 500 100/07 RMK AO2 TSNO
94908KDBQ DBQ20070330232011103/30/07 23:20:31  5-MIN KDBQ 310520Z AUTO 09007KT 9SM BKN006 OVC012 09/05 A3007 940 76 500 090/07 RMK AO2 TSNO
94908KDBQ DBQ20070330232511103/30/07 23:25:31  5-MIN KDBQ 310525Z AUTO 09008KT 9SM BKN006 OVC012 09/05 A3007 940 76 500 090/08 RMK AO2 TSNO
94908KDBQ DBQ20070330233012303/30/07 23:30:31  5-MIN KDBQ 310530Z AUTO 09008KT 9SM BKN006 OVC012 08/05 A3006 950 79 400 090/08 RMK AO2 CIG 006V009 TSNO
94908KDBQ DBQ20070330233512303/30/07 23:35:31  5-MIN KDBQ 310535Z AUTO 08009KT 9SM BKN008 OVC012 09/05 A3006 950 76 500 080/09 RMK AO2 CIG 006V010 TSNO
94908KDBQ DBQ20070330234012303/30/07 23:40:31  5-MIN KDBQ 310540Z AUTO 07009KT 9SM BKN008 OVC014 09/05 A3006 950 76 500 070/09 RMK AO2 CIG 006V010 TSNO
94908KDBQ DBQ20070330234512303/30/07 23:45:31  5-MIN KDBQ 310545Z AUTO 08008KT 9SM BKN008 OVC014 09/05 A3005 950 76 500 080/08 RMK AO2 CIG 006V010 TSNO
94908KDBQ DBQ20070330235012103/30/07 23:50:31  5-MIN KDBQ 310550Z AUTO 09009KT 9SM BKN010 OVC014 09/05 A3005 960 76 500 090/09 RMK AO2 401170083 TSNO
94908KDBQ DBQ20070330235515703/30/07 23:55:31  5-MIN KDBQ 310555Z AUTO 08009KT 10SM BKN010 OVC016 08/04 A3005 960 76 400 080/09 RMK AO2 SLP180 T00830044 10089 20083 401170083 56012 TSNO
94908KDBQ DBQ20070331000011203/31/07 00:00:38  5-MIN KDBQ 310600Z AUTO 07008KT 10SM SCT010 OVC018 08/04 A3005 960 76 400 070/08 RMK AO2 TSNO
94908KDBQ DBQ20070331000511203/31/07 00:05:31  5-MIN KDBQ 310605Z AUTO 08009KT 10SM SCT010 OVC018 08/04 A3004 960 76 400 080/09 RMK AO2 TSNO
94908KDBQ DBQ20070331001011203/31/07 00:10:31  5-MIN KDBQ 310610Z AUTO 08009KT 10SM FEW010 OVC018 08/04 A3005 960 76 400 080/09 RMK AO2 TSNO
94908KDBQ DBQ20070331001511203/31/07 00:15:33  5-MIN KDBQ 310615Z AUTO 07009KT 10SM FEW010 OVC018 08/04 A3004 970 76 400 070/09 RMK AO2 TSNO
94908KDBQ DBQ20070331002010503/31/07 00:20:31  5-MIN KDBQ 310620Z AUTO 07008KT 10SM OVC018 08/04 A3004 970 73 400 070/08 RMK AO2 TSNO
94908KDBQ DBQ20070331002510503/31/07 00:25:31  5-MIN KDBQ 310625Z AUTO 08008KT 10SM OVC018 08/04 A3004 970 73 400 080/08 RMK AO2 TSNO
94908KDBQ DBQ20070331003010503/31/07 00:30:31  5-MIN KDBQ 310630Z AUTO 08007KT 10SM OVC018 08/04 A3004 960 73 400 080/07 RMK AO2 TSNO
94908KDBQ DBQ20070331003510503/31/07 00:35:31  5-MIN KDBQ 310635Z AUTO 08004KT 10SM OVC018 08/04 A3004 960 73 400 080/04 RMK AO2 TSNO
94908KDBQ DBQ20070331004010503/31/07 00:40:31  5-MIN KDBQ 310640Z AUTO 07004KT 10SM OVC018 08/04 A3004 960 73 400 070/04 RMK AO2 TSNO
94908KDBQ DBQ20070331004510503/31/07 00:45:31  5-MIN KDBQ 310645Z AUTO 06005KT 10SM OVC018 08/04 A3004 960 73 400 060/05 RMK AO2 TSNO
94908KDBQ DBQ20070331005012203/31/07 00:50:31  5-MIN KDBQ 310650Z AUTO 07005KT 10SM OVC018 08/04 A3004 970 73 400 070/05 RMK AO2 SLP178 T00830039 TSNO
94908KDBQ DBQ20070331005512203/31/07 00:55:31  5-MIN KDBQ 310655Z AUTO 05006KT 10SM OVC018 08/04 A3004 970 73 400 050/06 RMK AO2 SLP177 T00830039 TSNO
94908KDBQ DBQ20070331010010503/31/07 01:00:31  5-MIN KDBQ 310700Z AUTO 06007KT 10SM OVC018 08/04 A3003 970 73 400 060/07 RMK AO2 TSNO
94908KDBQ DBQ20070331010510503/31/07 01:05:31  5-MIN KDBQ 310705Z AUTO 06008KT 10SM OVC018 08/04 A3003 980 73 500 060/08 RMK AO2 TSNO
94908KDBQ DBQ20070331011010503/31/07 01:10:31  5-MIN KDBQ 310710Z AUTO 05007KT 10SM OVC018 08/04 A3003 980 73 500 050/07 RMK AO2 TSNO
94908KDBQ DBQ20070331011510503/31/07 01:15:31  5-MIN KDBQ 310715Z AUTO 05007KT 10SM OVC018 08/04 A3003 980 73 500 050/07 RMK AO2 TSNO
94908KDBQ DBQ20070331012010503/31/07 01:20:31  5-MIN KDBQ 310720Z AUTO 06006KT 10SM OVC018 08/04 A3002 980 73 500 060/06 RMK AO2 TSNO
94908KDBQ DBQ20070331012510503/31/07 01:25:31  5-MIN KDBQ 310725Z AUTO 06005KT 10SM OVC018 08/04 A3002 980 73 500 060/05 RMK AO2 TSNO
94908KDBQ DBQ20070331013010503/31/07 01:30:31  5-MIN KDBQ 310730Z AUTO VRB05KT 10SM OVC018 08/04 A3002 990 73 500 VRB/05 RMK AO2 TSNO
94908KDBQ DBQ20070331013510503/31/07 01:35:31  5-MIN KDBQ 310735Z AUTO 04005KT 10SM OVC018 08/04 A3001 990 76 500 040/05 RMK AO2 TSNO
94908KDBQ DBQ20070331014010503/31/07 01:40:31  5-MIN KDBQ 310740Z AUTO 05005KT 10SM OVC018 08/04 A3001 990 76 500 050/05 RMK AO2 TSNO
94908KDBQ DBQ20070331014510503/31/07 01:45:31  5-MIN KDBQ 310745Z AUTO 05005KT 10SM OVC018 08/04 A3001 990 73 500 050/05 RMK AO2 TSNO
94908KDBQ DBQ20070331015012303/31/07 01:50:31  5-MIN KDBQ 310750Z AUTO 04006KT 10SM BKN018 08/04 A3001 1000 76 400 040/06 RMK AO2 SLP166 T00780039 TSNO
94908KDBQ DBQ20070331015512303/31/07 01:55:31  5-MIN KDBQ 310755Z AUTO 06006KT 10SM BKN018 08/04 A3001 1000 76 400 060/06 RMK AO2 SLP166 T00780039 TSNO
94908KDBQ DBQ20070331020010603/31/07 02:00:31  5-MIN KDBQ 310800Z AUTO 07007KT 10SM SCT018 08/03 A3000 1000 73 400 060/07 RMK AO2 TSNO
94908KDBQ DBQ20070331020510603/31/07 02:05:31  5-MIN KDBQ 310805Z AUTO 06008KT 10SM SCT018 08/03 A3000 1010 73 400 060/08 RMK AO2 TSNO
94908KDBQ DBQ20070331021010603/31/07 02:10:31  5-MIN KDBQ 310810Z AUTO 05008KT 10SM FEW018 08/03 A2999 1010 73 400 050/08 RMK AO2 TSNO
94908KDBQ DBQ20070331021510303/31/07 02:15:31  5-MIN KDBQ 310815Z AUTO 06010KT 10SM CLR 08/03 A2999 1010 73 400 060/10 RMK AO2 TSNO
94908KDBQ DBQ20070331022010303/31/07 02:20:31  5-MIN KDBQ 310820Z AUTO 07009KT 10SM CLR 08/03 A2999 1020 73 400 060/09 RMK AO2 TSNO
94908KDBQ DBQ20070331022510603/31/07 02:25:31  5-MIN KDBQ 310825Z AUTO 08008KT 10SM FEW110 08/03 A2999 1010 73 400 070/08 RMK AO2 TSNO
94908KDBQ DBQ20070331023010603/31/07 02:30:31  5-MIN KDBQ 310830Z AUTO 07007KT 10SM SCT110 08/04 A2999 1010 76 400 070/07 RMK AO2 TSNO
94908KDBQ DBQ20070331023511303/31/07 02:35:31  5-MIN KDBQ 310835Z AUTO 05008KT 10SM FEW018 BKN110 08/04 A2998 1020 76 400 050/08 RMK AO2 TSNO
94908KDBQ DBQ20070331024011303/31/07 02:40:31  5-MIN KDBQ 310840Z AUTO 07008KT 10SM SCT018 BKN110 08/04 A2999 1020 76 400 060/08 RMK AO2 TSNO
94908KDBQ DBQ20070331024511303/31/07 02:45:31  5-MIN KDBQ 310845Z AUTO 06008KT 10SM BKN016 BKN110 08/04 A2999 1020 76 400 060/08 RMK AO2 TSNO
94908KDBQ DBQ20070331025013603/31/07 02:50:31  5-MIN KDBQ 310850Z AUTO 06008KT 10SM BKN016 OVC110 08/04 A2999 1020 76 400 060/08 RMK AO2 SLP159 T00780039 58020 TSNO
94908KDBQ DBQ20070331025513603/31/07 02:55:31  5-MIN KDBQ 310855Z AUTO 06008KT 10SM BKN016 OVC120 08/04 A2998 1020 76 400 060/08 RMK AO2 SLP158 T00780039 56018 TSNO
94908KDBQ DBQ20070331030011303/31/07 03:00:31  5-MIN KDBQ 310900Z AUTO 06009KT 10SM BKN013 OVC018 08/04 A2998 1020 76 400 060/09 RMK AO2 TSNO
94908KDBQ DBQ20070331030510603/31/07 03:05:31  5-MIN KDBQ 310905Z AUTO 06009KT 10SM OVC013 08/04 A2998 1030 76 400 060/09 RMK AO2 TSNO
94908KDBQ DBQ20070331031011303/31/07 03:10:31  5-MIN KDBQ 310910Z AUTO 06008KT 10SM BKN013 OVC090 08/04 A2997 1030 76 400 060/08 RMK AO2 TSNO
94908KDBQ DBQ20070331031512003/31/07 03:15:31  5-MIN KDBQ 310915Z AUTO 06009KT 10SM BKN013 BKN095 OVC110 08/04 A2997 1030 76 500 050/09 RMK AO2 TSNO
94908KDBQ DBQ20070331032011303/31/07 03:20:31  5-MIN KDBQ 310920Z AUTO 05008KT 10SM SCT013 OVC100 08/04 A2997 1040 76 500 050/08 RMK AO2 TSNO
94908KDBQ DBQ20070331032511203/31/07 03:25:31  5-MIN KDBQ 310925Z AUTO 04009KT 9SM SCT013 OVC100 08/04 A2996 1040 76 500 040/09 RMK AO2 TSNO
94908KDBQ DBQ20070331033011203/31/07 03:30:31  5-MIN KDBQ 310930Z AUTO 05007KT 9SM FEW013 OVC100 08/04 A2997 1040 76 500 050/07 RMK AO2 TSNO
94908KDBQ DBQ20070331033510503/31/07 03:35:31  5-MIN KDBQ 310935Z AUTO 03004KT 9SM OVC100 08/04 A2997 1040 76 500 030/04 RMK AO2 TSNO
94908KDBQ DBQ20070331034010503/31/07 03:40:31  5-MIN KDBQ 310940Z AUTO 05006KT 9SM OVC100 08/04 A2997 1030 76 500 050/06 RMK AO2 TSNO
94908KDBQ DBQ20070331034510503/31/07 03:45:31  5-MIN KDBQ 310945Z AUTO 06006KT 9SM OVC100 08/04 A2997 1040 76 500 060/06 RMK AO2 TSNO
94908KDBQ DBQ20070331035012203/31/07 03:50:31  5-MIN KDBQ 310950Z AUTO 06006KT 9SM OVC100 08/04 A2996 1040 76 500 060/06 RMK AO2 SLP151 T00780039 TSNO
94908KDBQ DBQ20070331035512903/31/07 03:55:31  5-MIN KDBQ 310955Z AUTO 07005KT 9SM FEW014 OVC100 08/04 A2997 1040 76 500 060/05 RMK AO2 SLP152 T00780039 TSNO
94908KDBQ DBQ20070331040011203/31/07 04:00:31  5-MIN KDBQ 311000Z AUTO 06007KT 9SM SCT014 OVC095 08/04 A2996 1040 76 500 060/07 RMK AO2 TSNO
94908KDBQ DBQ20070331040511903/31/07 04:05:31  5-MIN KDBQ 311005Z AUTO 06006KT 9SM SCT014 BKN043 OVC095 08/04 A2996 1040 76 500 060/06 RMK AO2 TSNO
94908KDBQ DBQ20070331041011903/31/07 04:10:31  5-MIN KDBQ 311010Z AUTO 07005KT 9SM SCT014 BKN043 OVC095 08/04 A2996 1040 76 500 070/05 RMK AO2 TSNO
94908KDBQ DBQ20070331041512003/31/07 04:15:31  5-MIN KDBQ 311015Z AUTO 07006KT 10SM BKN014 BKN041 OVC095 08/04 A2996 1040 76 500 070/06 RMK AO2 TSNO
94908KDBQ DBQ20070331042011303/31/07 04:20:31  5-MIN KDBQ 311020Z AUTO 07008KT 10SM BKN014 OVC041 08/04 A2995 1050 73 500 070/08 RMK AO2 TSNO
94908KDBQ DBQ20070331042511303/31/07 04:25:31  5-MIN KDBQ 311025Z AUTO 07005KT 10SM SCT014 OVC041 08/04 A2995 1050 73 500 070/05 RMK AO2 TSNO
94908KDBQ DBQ20070331043011303/31/07 04:30:31  5-MIN KDBQ 311030Z AUTO VRB04KT 10SM SCT016 OVC041 08/04 A2995 1050 73 500 VRB/04 RMK AO2 TSNO
94908KDBQ DBQ20070331043511303/31/07 04:35:31  5-MIN KDBQ 311035Z AUTO 03004KT 10SM SCT016 OVC041 08/04 A2995 1050 73 500 030/04 RMK AO2 TSNO
94908KDBQ DBQ20070331044011203/31/07 04:40:31  5-MIN KDBQ 311040Z AUTO 07005KT 9SM FEW016 OVC041 08/04 A2995 1050 76 500 060/05 RMK AO2 TSNO
94908KDBQ DBQ20070331044511303/31/07 04:45:31  5-MIN KDBQ 311045Z AUTO 06005KT 10SM FEW016 OVC041 08/04 A2994 1060 73 600 060/05 RMK AO2 TSNO
94908KDBQ DBQ20070331045013003/31/07 04:50:31  5-MIN KDBQ 311050Z AUTO 06005KT 10SM FEW016 OVC041 08/04 A2994 1060 73 600 060/05 RMK AO2 SLP144 T00830039 TSNO
94908KDBQ DBQ20070331045512003/31/07 04:55:31  5-MIN KDBQ 311055Z 06006KT 10SM FEW016 OVC041 08/04 A2994 1060 76 600 060/06 RMK AO2 SLP142 T00830044
94908KDBQ DBQ20070331050009503/31/07 05:00:31  5-MIN KDBQ 311100Z 06006KT 9SM OVC043 08/04 A2994 1060 79 500 050/06 RMK AO2
94908KDBQ DBQ20070331050510203/31/07 05:05:31  5-MIN KDBQ 311105Z 06008KT 9SM BKN043 OVC050 08/04 A2994 1060 76 500 060/08 RMK AO2
94908KDBQ DBQ20070331051010203/31/07 05:10:31  5-MIN KDBQ 311110Z 07009KT 9SM BKN043 OVC050 08/04 A2993 1070 76 500 070/09 RMK AO2
94908KDBQ DBQ20070331051509503/31/07 05:15:31  5-MIN KDBQ 311115Z 06009KT 9SM BKN043 08/04 A2993 1070 76 500 060/09 RMK AO2
94908KDBQ DBQ20070331052009503/31/07 05:20:31  5-MIN KDBQ 311120Z 07009KT 9SM BKN043 08/04 A2993 1070 76 500 070/09 RMK AO2
94908KDBQ DBQ20070331052509503/31/07 05:25:31  5-MIN KDBQ 311125Z 07008KT 9SM BKN041 08/04 A2992 1070 79 500 070/08 RMK AO2
94908KDBQ DBQ20070331053010203/31/07 05:30:31  5-MIN KDBQ 311130Z 07009KT 9SM SCT041 BKN095 08/04 A2992 1080 79 500 060/09 RMK AO2
94908KDBQ DBQ20070331053510203/31/07 05:35:31  5-MIN KDBQ 311135Z 06007KT 9SM SCT041 BKN095 08/04 A2993 1070 79 500 060/07 RMK AO2
94908KDBQ DBQ20070331054010203/31/07 05:40:31  5-MIN KDBQ 311140Z 06005KT 9SM FEW039 BKN095 08/04 A2993 1070 79 500 060/05 RMK AO2
94908KDBQ DBQ20070331054510903/31/07 05:45:31  5-MIN KDBQ 311145Z 07005KT 9SM FEW039 SCT055 OVC095 08/04 A2993 1070 73 600 070/05 RMK AO2
94908KDBQ DBQ20070331055015003/31/07 05:50:31  5-MIN KDBQ 311150Z 08006KT 9SM FEW039 BKN055 OVC095 08/04 A2993 1070 76 600 080/06 RMK AO2 SLP141 70049 T00830044 10083 20078 56018
94908KDBQ DBQ20070331055515003/31/07 05:55:31  5-MIN KDBQ 311155Z 09007KT 8SM FEW039 BKN050 OVC095 08/04 A2994 1060 76 600 090/07 RMK AO2 SLP142 70049 T00830044 10083 20078 56016
94908KDBQ DBQ20070331060010903/31/07 06:00:31  5-MIN KDBQ 311200Z 10007KT 8SM SCT039 BKN050 OVC095 08/04 A2994 1060 76 600 100/07 RMK AO2
94908KDBQ DBQ20070331060510903/31/07 06:05:31  5-MIN KDBQ 311205Z 08007KT 8SM SCT041 BKN050 OVC090 08/04 A2993 1070 76 600 080/07 RMK AO2
94908KDBQ DBQ20070331061010903/31/07 06:10:31  5-MIN KDBQ 311210Z 09008KT 7SM SCT041 BKN050 OVC085 08/04 A2993 1070 76 600 090/08 RMK AO2
94908KDBQ DBQ20070331061510903/31/07 06:15:31  5-MIN KDBQ 311215Z 09007KT 7SM FEW041 SCT050 OVC090 08/04 A2993 1070 76 600 090/07 RMK AO2
94908KDBQ DBQ20070331062012503/31/07 06:20:31  5-MIN KDBQ 311220Z 08008KT 6SM -RA SCT043 SCT065 OVC090 08/04 A2993 1070 76 600 080/08 RMK AO2 RAB19 P0000
94908KDBQ DBQ20070331062513203/31/07 06:25:31  5-MIN KDBQ 311225Z 07011KT 6SM -RA FEW041 BKN085 OVC100 08/04 A2991 1090 76 600 070/11 RMK AO2 RAB19 PRESFR P0000
94908KDBQ DBQ20070331063012403/31/07 06:30:31  5-MIN KDBQ 311230Z 07009KT 7SM FEW041 BKN070 BKN090 08/04 A2991 1090 76 600 070/09 RMK AO2 RAB19E29 P0000
94908KDBQ DBQ20070331063511703/31/07 06:35:31  5-MIN KDBQ 311235Z 08011KT 7SM SCT080 BKN100 08/04 A2991 1090 76 600 080/11 RMK AO2 RAB19E29 P0000
94908KDBQ DBQ20070331064011703/31/07 06:40:31  5-MIN KDBQ 311240Z 07010KT 8SM FEW070 SCT095 08/04 A2990 1090 76 600 070/10 RMK AO2 RAB19E29 P0000
94908KDBQ DBQ20070331064511703/31/07 06:45:31  5-MIN KDBQ 311245Z 06010KT 8SM FEW070 SCT100 08/05 A2990 1100 79 600 060/10 RMK AO2 RAB19E29 P0000
94908KDBQ DBQ20070331065012703/31/07 06:50:31  5-MIN KDBQ 311250Z 06010KT 8SM FEW055 08/05 A2989 1100 79 600 060/10 RMK AO2 RAB19E29 SLP128 P0000 T00830050
94908KDBQ DBQ20070331065512703/31/07 06:55:31  5-MIN KDBQ 311255Z 07010KT 8SM FEW055 08/05 A2989 1100 79 600 070/10 RMK AO2 RAB19E29 SLP128 P0000 T00830050
94908KDBQ DBQ20070331070009503/31/07 07:00:31  5-MIN KDBQ 311300Z 08011KT 8SM SCT050 09/05 A2990 1100 76 700 080/11 RMK AO2
94908KDBQ DBQ20070331070510203/31/07 07:05:31  5-MIN KDBQ 311305Z 08008KT 8SM SCT048 SCT055 09/05 A2990 1100 76 700 080/08 RMK AO2
94908KDBQ DBQ20070331071010203/31/07 07:10:31  5-MIN KDBQ 311310Z 09008KT 8SM BKN048 BKN060 09/05 A2991 1090 76 700 090/08 RMK AO2
94908KDBQ DBQ20070331071511703/31/07 07:15:31  5-MIN KDBQ 311315Z 08009KT 5SM RA FEW028 BKN045 09/06 A2989 1100 79 700 070/09 RMK AO2 RAB12 P0000
94908KDBQ DBQ20070331072011803/31/07 07:20:31  5-MIN KDBQ 311320Z 07009KT 5SM -RA FEW024 SCT046 09/06 A2989 1110 79 700 060/09 RMK AO2 RAB12 P0000
94908KDBQ DBQ20070331072511703/31/07 07:25:31  5-MIN KDBQ 311325Z 09011KT 8SM FEW028 SCT046 09/06 A2989 1110 79 700 090/11 RMK AO2 RAB12E25 P0000
94908KDBQ DBQ20070331073011703/31/07 07:30:31  5-MIN KDBQ 311330Z 10013KT 8SM FEW028 SCT046 09/06 A2989 1110 79 700 100/13 RMK AO2 RAB12E25 P0000
94908KDBQ DBQ20070331073511003/31/07 07:35:31  5-MIN KDBQ 311335Z 09012KT 8SM FEW028 09/06 A2988 1110 76 800 090/12 RMK AO2 RAB12E25 P0000
94908KDBQ DBQ20070331074011003/31/07 07:40:31  5-MIN KDBQ 311340Z 09011KT 8SM FEW019 09/06 A2989 1110 76 700 090/11 RMK AO2 RAB12E25 P0000
94908KDBQ DBQ20070331074511003/31/07 07:45:31  5-MIN KDBQ 311345Z 09009KT 8SM FEW035 09/06 A2989 1110 79 700 090/09 RMK AO2 RAB12E25 P0000
94908KDBQ DBQ20070331075012703/31/07 07:50:31  5-MIN KDBQ 311350Z 08010KT 8SM FEW035 09/06 A2988 1110 79 800 080/10 RMK AO2 RAB12E25 SLP123 P0000 T00940061
94908KDBQ DBQ20070331075512703/31/07 07:55:31  5-MIN KDBQ 311355Z 07009KT 8SM FEW035 09/06 A2988 1120 79 800 070/09 RMK AO2 RAB12E25 SLP121 P0000 T00940061
94908KDBQ DBQ20070331080009503/31/07 08:00:31  5-MIN KDBQ 311400Z 08007KT 8SM FEW035 09/06 A2987 1120 76 800 080/07 RMK AO2
94908KDBQ DBQ20070331080509503/31/07 08:05:31  5-MIN KDBQ 311405Z 08007KT 8SM FEW035 10/06 A2987 1130 77 800 080/07 RMK AO2
94908KDBQ DBQ20070331081009503/31/07 08:10:31  5-MIN KDBQ 311410Z 09008KT 8SM FEW035 10/06 A2987 1120 77 800 090/08 RMK AO2
94908KDBQ DBQ20070331081509503/31/07 08:15:31  5-MIN KDBQ 311415Z 08008KT 8SM FEW065 10/06 A2987 1130 77 800 080/08 RMK AO2
94908KDBQ DBQ20070331082009503/31/07 08:20:31  5-MIN KDBQ 311420Z 09010KT 8SM FEW065 10/07 A2986 1140 80 800 090/10 RMK AO2
94908KDBQ DBQ20070331082510203/31/07 08:25:31  5-MIN KDBQ 311425Z 10009KT 8SM FEW047 SCT065 10/07 A2986 1130 80 800 100/09 RMK AO2
94908KDBQ DBQ20070331083011203/31/07 08:30:31  5-MIN KDBQ 311430Z 10012KT 6SM HZ FEW029 SCT045 BKN065 10/07 A2986 1140 80 800 100/12 RMK AO2
94908KDBQ DBQ20070331083512503/31/07 08:35:31  5-MIN KDBQ 311435Z 10011KT 3SM +RA SCT024 BKN045 BKN065 09/07 A2986 1140 83 800 100/11 RMK AO2 RAB32 P0002
94908KDBQ DBQ20070331084013903/31/07 08:40:31  5-MIN KDBQ 311440Z 09012KT 1 3/4SM TS HZ BKN019 BKN045 BKN065 09/07 A2985 1140 83 800 080/12 RMK AO2 TSB37RAB32E37 P0009
94908KDBQ DBQ20070331084513903/31/07 08:45:31  5-MIN KDBQ 311445Z 08011KT 2 1/2SM TS BR SCT019 BKN047 BKN060 09/07 A2984 1150 86 800 080/11 RMK AO2 TSB37RAB32E37 P0013
94908KDBQ DBQ20070331085016403/31/07 08:50:31  5-MIN KDBQ 311450Z 08010KT 6SM TS HZ SCT019 BKN036 OVC060 10/07 A2984 1150 83 900 080/10 RMK AO2 TSB37RAB32E37 SLP109 P0013 60013 T01000072 56016
94908KDBQ DBQ20070331085516103/31/07 08:55:31  5-MIN KDBQ 311455Z 09014KT 7SM TS SCT019 SCT033 OVC043 10/07 A2984 1150 83 900 090/14 RMK AO2 TSB37RAB32E37 SLP108 P0013 60013 T01000072 56031
94908KDBQ DBQ20070331090011203/31/07 09:00:31  5-MIN KDBQ 311500Z 08014KT 7SM TS FEW017 BKN043 OVC055 11/08 A2984 1150 83 900 080/14 RMK AO2
94908KDBQ DBQ20070331090511203/31/07 09:05:31  5-MIN KDBQ 311505Z 09015KT 7SM TS FEW014 BKN041 OVC060 11/08 A2984 1150 83 900 090/15 RMK AO2
94908KDBQ DBQ20070331091011203/31/07 09:10:31  5-MIN KDBQ 311510Z 10013KT 7SM TS FEW032 BKN042 OVC060 11/08 A2984 1150 83 900 100/13 RMK AO2
94908KDBQ DBQ20070331091511903/31/07 09:15:31  5-MIN KDBQ 311515Z 10014G19KT 7SM TS FEW032 BKN042 OVC050 11/08 A2984 1160 80 1000 100/14G19 RMK AO2
94908KDBQ DBQ20070331092011303/31/07 09:20:31  5-MIN KDBQ 311520Z 10015KT 7SM TS FEW028 BKN040 OVC050 11/08 A2984 1150 80 1000 100/15 RMK AO2
94908KDBQ DBQ20070331092511303/31/07 09:25:31  5-MIN KDBQ 311525Z 11012KT 7SM TS SCT026 BKN040 OVC055 11/08 A2984 1150 83 1000 100/12 RMK AO2
94908KDBQ DBQ20070331093011203/31/07 09:30:31  5-MIN KDBQ 311530Z 11013KT 7SM TS FEW015 BKN026 OVC050 11/08 A2984 1160 83 900 110/13 RMK AO2
94908KDBQ DBQ20070331093511203/31/07 09:35:31  5-MIN KDBQ 311535Z 11013KT 7SM TS FEW015 BKN026 OVC055 11/08 A2984 1160 83 900 100/13 RMK AO2
94908KDBQ DBQ20070331094011203/31/07 09:40:31  5-MIN KDBQ 311540Z 10013KT 7SM TS FEW015 BKN026 OVC055 11/08 A2984 1160 83 900 100/13 RMK AO2
94908KDBQ DBQ20070331094510903/31/07 09:45:31  5-MIN KDBQ 311545Z 10013KT 6SM TS HZ FEW015 OVC026 11/08 A2983 1160 80 1000 100/13 RMK AO2
94908KDBQ DBQ20070331095012603/31/07 09:50:31  5-MIN KDBQ 311550Z 10012KT 6SM TS HZ FEW015 OVC024 11/08 A2983 1160 83 1000 100/12 RMK AO2 SLP104 T01110083
94908KDBQ DBQ20070331095512603/31/07 09:55:31  5-MIN KDBQ 311555Z 09014KT 6SM TS HZ FEW015 OVC024 12/08 A2982 1170 80 1100 090/14 RMK AO2 SLP102 T01170083
94908KDBQ DBQ20070331100010203/31/07 10:00:31  5-MIN KDBQ 311600Z 10012KT 6SM TS HZ OVC024 12/09 A2982 1170 83 1100 100/12 RMK AO2
94908KDBQ DBQ20070331100510203/31/07 10:05:31  5-MIN KDBQ 311605Z 11014KT 6SM TS HZ OVC024 12/09 A2982 1170 83 1100 110/14 RMK AO2
94908KDBQ DBQ20070331101010903/31/07 10:10:31  5-MIN KDBQ 311610Z 10011KT 6SM TS HZ SCT019 OVC024 12/09 A2982 1170 83 1100 100/11 RMK AO2
94908KDBQ DBQ20070331101510803/31/07 10:15:31  5-MIN KDBQ 311615Z 10011G18KT 6SM TS HZ OVC022 12/09 A2981 1180 83 1100 100/11G18 RMK AO2
94908KDBQ DBQ20070331102010903/31/07 10:20:31  5-MIN KDBQ 311620Z 10013KT 6SM TS HZ SCT019 OVC024 12/09 A2981 1180 83 1100 100/13 RMK AO2
94908KDBQ DBQ20070331102510903/31/07 10:25:31  5-MIN KDBQ 311625Z 10012KT 6SM FEW015 OVC022 12/09 A2981 1180 83 1100 090/12 RMK AO2 TSE23
94908KDBQ DBQ20070331103010903/31/07 10:30:31  5-MIN KDBQ 311630Z 10011KT 6SM BKN015 OVC022 12/09 A2981 1180 83 1100 100/11 RMK AO2 TSE23
94908KDBQ DBQ20070331103510903/31/07 10:35:31  5-MIN KDBQ 311635Z 09015KT 6SM BKN015 BKN022 12/09 A2980 1190 80 1200 090/15 RMK AO2 TSE23
94908KDBQ DBQ20070331104010903/31/07 10:40:31  5-MIN KDBQ 311640Z 09013KT 7SM SCT015 BKN022 12/09 A2980 1190 80 1200 090/13 RMK AO2 TSE23
94908KDBQ DBQ20070331104510903/31/07 10:45:31  5-MIN KDBQ 311645Z 10013KT 7SM SCT015 BKN022 12/09 A2980 1190 83 1200 100/13 RMK AO2 TSE23
94908KDBQ DBQ20070331105012603/31/07 10:50:31  5-MIN KDBQ 311650Z 09014KT 7SM SCT015 BKN022 12/09 A2979 1190 80 1200 090/14 RMK AO2 TSE23 SLP092 T01220089
94908KDBQ DBQ20070331105512603/31/07 10:55:31  5-MIN KDBQ 311655Z 10015KT 7SM SCT015 BKN022 13/09 A2979 1200 80 1300 100/15 RMK AO2 TSE23 SLP092 T01280094
94908KDBQ DBQ20070331110010303/31/07 11:00:31  5-MIN KDBQ 311700Z 11013KT 7SM FEW015 BKN049 13/09 A2980 1190 80 1200 110/13 RMK AO2
94908KDBQ DBQ20070331110510303/31/07 11:05:31  5-MIN KDBQ 311705Z 10014KT 7SM SCT013 BKN049 13/09 A2979 1200 77 1300 100/14 RMK AO2
94908KDBQ DBQ20070331111010303/31/07 11:10:31  5-MIN KDBQ 311710Z 10013KT 7SM BKN013 BKN049 13/10 A2979 1200 80 1300 100/13 RMK AO2
94908KDBQ DBQ20070331111510903/31/07 11:15:31  5-MIN KDBQ 311715Z 11012G18KT 7SM BKN013 BKN049 13/10 A2978 1210 80 1300 110/12G18 RMK AO2
94908KDBQ DBQ20070331112010903/31/07 11:20:31  5-MIN KDBQ 311720Z 12012G18KT 7SM BKN013 BKN047 14/10 A2978 1210 77 1400 110/12G18 RMK AO2
94908KDBQ DBQ20070331112509603/31/07 11:25:31  5-MIN KDBQ 311725Z 11015KT 7SM OVC013 14/10 A2977 1220 77 1400 110/15 RMK AO2
94908KDBQ DBQ20070331113009603/31/07 11:30:31  5-MIN KDBQ 311730Z 11015KT 7SM BKN013 14/10 A2977 1210 77 1400 110/15 RMK AO2
94908KDBQ DBQ20070331113509603/31/07 11:35:31  5-MIN KDBQ 311735Z 12017KT 7SM BKN013 14/10 A2977 1220 77 1400 120/17 RMK AO2
94908KDBQ DBQ20070331114010303/31/07 11:40:31  5-MIN KDBQ 311740Z 12014KT 7SM BKN013 BKN050 14/11 A2977 1220 77 1500 120/14 RMK AO2
94908KDBQ DBQ20070331114510303/31/07 11:45:31  5-MIN KDBQ 311745Z 12016KT 7SM SCT013 BKN048 14/11 A2977 1220 77 1500 120/16 RMK AO2
94908KDBQ DBQ20070331115015003/31/07 11:50:31  5-MIN KDBQ 311750Z 12017G22KT 7SM FEW013 SCT050 14/11 A2977 1220 77 1500 120/17G22 RMK AO2 SLP081 60013 T01440106 10144 20083 56031
94908KDBQ DBQ20070331115514303/31/07 11:55:31  5-MIN KDBQ 311755Z 12015G22KT 7SM FEW015 14/11 A2977 1220 77 1500 120/15G22 RMK AO2 SLP081 60013 T01440106 10144 20083 58024
94908KDBQ DBQ20070331120010203/31/07 12:00:31  5-MIN KDBQ 311800Z 12015G21KT 7SM FEW015 14/11 A2976 1220 77 1500 120/15G21 RMK AO2
94908KDBQ DBQ20070331120511203/31/07 12:05:31  5-MIN KDBQ 311805Z 13014G21KT 6SM HZ SCT015 SCT028 14/11 A2976 1230 77 1500 130/14G21 RMK AO2
94908KDBQ DBQ20070331121013203/31/07 12:10:31  5-MIN KDBQ 311810Z 11015G21KT 5SM -RA FEW015 SCT022 14/11 A2974 1250 83 1400 110/15G21 RMK AO2 RAB07 PRESFR P0000
94908KDBQ DBQ20070331121511903/31/07 12:15:31  5-MIN KDBQ 311815Z 12014KT 5SM -RA FEW015 SCT022 14/11 A2975 1240 83 1400 110/14 RMK AO2 RAB07 P0000
94908KDBQ DBQ20070331122012603/31/07 12:20:31  5-MIN KDBQ 311820Z 12015KT 6SM -RA FEW015 SCT031 SCT065 14/11 A2975 1240 80 1500 120/15 RMK AO2 RAB07 P0000
94908KDBQ DBQ20070331122512803/31/07 12:25:31  5-MIN KDBQ 311825Z 12015KT 6SM HZ FEW015 SCT070 BKN110 14/11 A2974 1240 83 1400 120/15 RMK AO2 RAB07E21 P0000
94908KDBQ DBQ20070331123012803/31/07 12:30:31  5-MIN KDBQ 311830Z 12013KT 6SM HZ FEW015 SCT070 BKN090 14/11 A2974 1250 83 1400 110/13 RMK AO2 RAB07E21 P0000
94908KDBQ DBQ20070331123512103/31/07 12:35:31  5-MIN KDBQ 311835Z 12015KT 6SM HZ FEW027 BKN100 14/11 A2974 1240 83 1400 120/15 RMK AO2 RAB07E21 P0000
94908KDBQ DBQ20070331124012103/31/07 12:40:31  5-MIN KDBQ 311840Z 12015KT 6SM HZ FEW070 BKN100 14/11 A2974 1250 80 1500 120/15 RMK AO2 RAB07E21 P0000
94908KDBQ DBQ20070331124512103/31/07 12:45:31  5-MIN KDBQ 311845Z 12015KT 6SM HZ FEW070 BKN100 14/12 A2973 1250 83 1500 120/15 RMK AO2 RAB07E21 P0000
94908KDBQ DBQ20070331125014403/31/07 12:50:31  5-MIN KDBQ 311850Z 12018G22KT 6SM HZ FEW070 BKN100 15/12 A2972 1260 80 1600 120/18G22 RMK AO2 RAB07E21 SLP067 P0000 T01500117
94908KDBQ DBQ20070331125513703/31/07 12:55:31  5-MIN KDBQ 311855Z 11015G22KT 6SM HZ SCT100 15/12 A2972 1260 80 1600 110/15G22 RMK AO2 RAB07E21 SLP065 P0000 T01500117
94908KDBQ DBQ20070331130010503/31/07 13:00:31  5-MIN KDBQ 311900Z 11015G21KT 6SM HZ FEW100 15/12 A2971 1270 80 1600 110/15G21 RMK AO2
94908KDBQ DBQ20070331130510203/31/07 13:05:31  5-MIN KDBQ 311905Z 11016G21KT 7SM FEW100 16/12 A2971 1270 80 1700 110/16G21 RMK AO2
94908KDBQ DBQ20070331131009903/31/07 13:10:31  5-MIN KDBQ 311910Z 11016G22KT 7SM CLR 16/12 A2971 1280 77 1700 110/16G22 RMK AO2
94908KDBQ DBQ20070331131509903/31/07 13:15:31  5-MIN KDBQ 311915Z 11014G22KT 7SM CLR 17/13 A2970 1280 77 1800 110/14G22 RMK AO2
94908KDBQ DBQ20070331132009903/31/07 13:20:31  5-MIN KDBQ 311920Z 12014G22KT 8SM CLR 17/13 A2970 1280 77 1800 120/14G22 RMK AO2
94908KDBQ DBQ20070331132509903/31/07 13:25:31  5-MIN KDBQ 311925Z 12017G22KT 7SM CLR 17/13 A2970 1280 77 1800 120/17G22 RMK AO2
94908KDBQ DBQ20070331133010203/31/07 13:30:31  5-MIN KDBQ 311930Z 12017G22KT 7SM SCT018 17/13 A2970 1290 77 1800 120/17G22 RMK AO2
94908KDBQ DBQ20070331133510203/31/07 13:35:31  5-MIN KDBQ 311935Z 12017G22KT 7SM SCT018 17/13 A2970 1290 75 1900 120/17G22 RMK AO2
94908KDBQ DBQ20070331134010903/31/07 13:40:31  5-MIN KDBQ 311940Z 11016G22KT 7SM BKN018 BKN024 17/13 A2969 1290 77 1800 110/16G22 RMK AO2
94908KDBQ DBQ20070331134510603/31/07 13:45:31  5-MIN KDBQ 311945Z 12015KT 6SM HZ BKN018 BKN024 17/13 A2969 1300 77 1800 120/15 RMK AO2
94908KDBQ DBQ20070331135012903/31/07 13:50:31  5-MIN KDBQ 311950Z 12018G22KT 6SM HZ BKN018 OVC025 17/13 A2968 1300 77 1800 120/18G22 RMK AO2 SLP052 T01670128
94908KDBQ DBQ20070331135513603/31/07 13:55:31  5-MIN KDBQ 311955Z 12016G22KT 6SM HZ BKN018 OVC025 17/13 A2967 1310 80 1800 120/16G22 RMK AO2 PRESFR SLP050 T01670133
94908KDBQ DBQ20070331140010603/31/07 14:00:31  5-MIN KDBQ 312000Z 11016KT 6SM HZ OVC018 17/13 A2966 1320 80 1900 110/16 RMK AO2 PRESFR
94908KDBQ DBQ20070331140510603/31/07 14:05:31  5-MIN KDBQ 312005Z 12015KT 6SM HZ BKN018 OVC023 17/13 A2966 1320 78 1900 110/15 RMK AO2
94908KDBQ DBQ20070331141010603/31/07 14:10:31  5-MIN KDBQ 312010Z 12014KT 6SM HZ BKN018 OVC023 17/14 A2966 1320 80 1900 120/14 RMK AO2
94908KDBQ DBQ20070331141509903/31/07 14:15:31  5-MIN KDBQ 312015Z 12012KT 6SM HZ OVC018 17/14 A2966 1320 80 1900 120/12 RMK AO2
94908KDBQ DBQ20070331142009903/31/07 14:20:31  5-MIN KDBQ 312020Z 12013KT 6SM HZ OVC018 17/14 A2965 1330 80 1900 120/13 RMK AO2
94908KDBQ DBQ20070331142511903/31/07 14:25:31  5-MIN KDBQ 312025Z 12016G21KT 6SM HZ BKN018 OVC023 17/14 A2964 1340 80 1900 120/16G21 RMK AO2 PRESFR
94908KDBQ DBQ20070331143011203/31/07 14:30:31  5-MIN KDBQ 312030Z 12018G23KT 6SM HZ BKN018 OVC023 18/14 A2964 1340 81 2000 120/18G23 RMK AO2
94908KDBQ DBQ20070331143511203/31/07 14:35:31  5-MIN KDBQ 312035Z 12018G23KT 5SM HZ BKN018 OVC025 18/14 A2963 1340 81 2000 120/18G23 RMK AO2
94908KDBQ DBQ20070331144011203/31/07 14:40:31  5-MIN KDBQ 312040Z 12018G23KT 5SM HZ BKN018 OVC025 18/14 A2963 1350 81 2000 120/18G23 RMK AO2
94908KDBQ DBQ20070331144511303/31/07 14:45:31  5-MIN KDBQ 312045Z 12018KT 5SM HZ BKN016 BKN023 OVC031 18/14 A2963 1350 81 2000 120/18 RMK AO2
94908KDBQ DBQ20070331145014803/31/07 14:50:31  5-MIN KDBQ 312050Z 12017G22KT 5SM HZ FEW014 BKN021 OVC031 17/14 A2962 1350 83 2000 120/17G22 RMK AO2 SLP033 60000 T01720144 58024
94908KDBQ DBQ20070331145514803/31/07 14:55:31  5-MIN KDBQ 312055Z 13017G22KT 5SM HZ BKN017 BKN023 OVC031 17/14 A2962 1360 83 2000 130/17G22 RMK AO2 SLP031 60000 T01720144 58048
94908KDBQ DBQ20070331150011903/31/07 15:00:31  5-MIN KDBQ 312100Z 12018G22KT 4SM HZ SCT014 BKN020 OVC034 17/14 A2962 1360 83 2000 120/18G22 RMK AO2
94908KDBQ DBQ20070331150511903/31/07 15:05:31  5-MIN KDBQ 312105Z 12017G25KT 4SM HZ SCT016 BKN022 OVC045 17/14 A2961 1370 83 2000 120/17G25 RMK AO2
94908KDBQ DBQ20070331151013203/31/07 15:10:31  5-MIN KDBQ 312110Z 13017G25KT 4SM -RA BKN017 BKN023 OVC045 17/14 A2961 1370 83 2000 120/17G25 RMK AO2 RAB09 P0000
94908KDBQ DBQ20070331151513403/31/07 15:15:31  5-MIN KDBQ 312115Z 12017G23KT 4SM HZ BKN017 BKN023 OVC045 17/14 A2961 1370 83 2000 120/17G23 RMK AO2 RAB09E12 P0000
94908KDBQ DBQ20070331152013403/31/07 15:20:31  5-MIN KDBQ 312120Z 12013G19KT 4SM HZ BKN017 BKN023 OVC045 17/14 A2960 1370 83 2000 120/13G19 RMK AO2 RAB09E12 P0000
94908KDBQ DBQ20070331152513403/31/07 15:25:31  5-MIN KDBQ 312125Z 12015G19KT 4SM HZ BKN017 BKN023 OVC045 17/14 A2959 1380 83 2000 120/15G19 RMK AO2 RAB09E12 P0000
94908KDBQ DBQ20070331153012803/31/07 15:30:31  5-MIN KDBQ 312130Z 12015KT 4SM BR BKN017 BKN023 OVC045 17/15 A2959 1380 87 2000 120/15 RMK AO2 RAB09E12 P0000
94908KDBQ DBQ20070331153514503/31/07 15:35:31  5-MIN KDBQ 312135Z 12017G22KT 2 1/2SM +RA BR SCT013 BKN017 OVC043 17/15 A2959 1390 87 2000 120/17G22 RMK AO2 RAB09E12B35 P0001
94908KDBQ DBQ20070331154014503/31/07 15:40:31  5-MIN KDBQ 312140Z 13018G22KT 2 1/2SM -RA BR BKN015 BKN027 OVC049 17/15 A2958 1390 87 2000 130/18G22 RMK AO2 RAB09E12B35 P0003
94908KDBQ DBQ20070331154514103/31/07 15:45:31  5-MIN KDBQ 312145Z 12018G22KT 3SM -RA BR SCT015 BKN022 OVC050 17/15 A2959 1390 87 2000 120/18G22 RMK AO2 RAB09E12B35 P0003
94908KDBQ DBQ20070331155015903/31/07 15:50:31  5-MIN KDBQ 312150Z 13022G29KT 4SM -RA BR SCT015 BKN022 OVC036 17/15 A2959 1390 87 2000 130/22G29 RMK AO2 PK WND 13029/2150 RAB09E12B35 P0003
94908KDBQ DBQ20070331155517603/31/07 15:55:31  5-MIN KDBQ 312155Z 13018G29KT 4SM -RA BR SCT016 BKN023 OVC036 17/15 A2959 1390 87 2000 130/18G29 RMK AO2 PK WND 12029/2151 RAB09E12B35 SLP020 P0003 T01720150
94908KDBQ DBQ20070331160012903/31/07 16:00:31  5-MIN KDBQ 312200Z 13014G29KT 3SM +RA BR FEW016 BKN023 OVC038 17/15 A2958 1390 87 2000 130/14G29 RMK AO2 P0002
94908KDBQ DBQ20070331160512303/31/07 16:05:31  5-MIN KDBQ 312205Z 12014KT 3SM +RA BR FEW021 BKN027 OVC036 17/15 A2958 1400 87 2000 120/14 RMK AO2 P0004
94908KDBQ DBQ20070331161012303/31/07 16:10:31  5-MIN KDBQ 312210Z 12013KT 3SM -RA BR FEW021 BKN027 OVC038 17/15 A2957 1400 87 2000 120/13 RMK AO2 P0006
94908KDBQ DBQ20070331161512503/31/07 16:15:31  5-MIN KDBQ 312215Z 13015KT 3SM BR FEW021 SCT027 BKN038 17/15 A2957 1400 87 2000 120/15 RMK AO2 RAE14 P0006
94908KDBQ DBQ20070331162012503/31/07 16:20:31  5-MIN KDBQ 312220Z 12013KT 4SM BR FEW021 BKN023 BKN038 17/15 A2957 1410 87 2000 120/13 RMK AO2 RAE14 P0006
94908KDBQ DBQ20070331162512303/31/07 16:25:31  5-MIN KDBQ 312225Z 13012KT 4SM -RA BR FEW021 BKN023 BKN038 17/15 A2957 1410 87 2000 120/12 RMK AO2 P0007
94908KDBQ DBQ20070331163012303/31/07 16:30:31  5-MIN KDBQ 312230Z 14011KT 4SM -RA BR FEW021 BKN023 BKN038 17/15 A2957 1400 87 2000 140/11 RMK AO2 P0007
94908KDBQ DBQ20070331163512503/31/07 16:35:31  5-MIN KDBQ 312235Z 14013KT 5SM BR FEW021 BKN023 BKN038 17/15 A2957 1400 87 2000 140/13 RMK AO2 RAE32 P0007
94908KDBQ DBQ20070331164012303/31/07 16:40:31  5-MIN KDBQ 312240Z 14009KT 4SM -RA BR FEW021 BKN023 BKN038 17/16 A2957 1410 90 2000 140/09 RMK AO2 P0007
94908KDBQ DBQ20070331164512603/31/07 16:45:31  5-MIN KDBQ 312245Z 14012KT 2 1/2SM RA BR FEW021 BKN023 BKN038 17/16 A2957 1400 90 2000 140/12 RMK AO2 P0007
94908KDBQ DBQ20070331165013303/31/07 16:50:31  5-MIN KDBQ 312250Z 18014G20KT 1 3/4SM +RA BR SCT014 BKN038 OVC044 17/16 A2957 1400 90 2000 170/14G20 RMK AO2 P0010
94908KDBQ DBQ20070331165518803/31/07 16:55:31  5-MIN KDBQ 312255Z 18020G23KT 1 3/4SM +TSRA FEW011 SCT018 OVC035 17/14 A2956 1410 86 2000 180/20G23 RMK AO2 TSB54 SLP012 TSRA SW MOV NE OCNL LTGICCCCG NE P0012 T01670144
94908KDBQ DBQ20070331170012803/31/07 17:00:31  5-MIN KDBQ 312300Z 19017G23KT 4SM -TSRA FEW013 BKN035 OVC095 16/12 A2956 1410 77 1800 190/17G23 RMK AO2 P0000
94908KDBQ DBQ20070331170513203/31/07 17:05:31  5-MIN KDBQ 312305Z 21020G23KT 10SM TS FEW013 BKN036 OVC100 16/12 A2958 1390 77 1800 210/20G23 RMK AO2 RAE05 P0000
94908KDBQ DBQ20070331171015003/31/07 17:10:31  5-MIN KDBQ 312310Z 23025G43KT 10SM TS FEW016 BKN036 OVC080 15/11 A2959 1390 74 1800 230/25G43 RMK AO2 PK WND 24043/2307 RAE05 P0000
94908KDBQ DBQ20070331171516103/31/07 17:15:31  5-MIN KDBQ 312315Z 23024G43KT 10SM TS FEW017 BKN035 OVC080 14/09 A2959 1390 74 1600 230/24G43 RMK AO2 PK WND 24043/2307 WSHFT 2258 RAE05 P0000
94908KDBQ DBQ20070331172015803/31/07 17:20:31  5-MIN KDBQ 312320Z 22025G34KT 10SM -TSRA FEW019 BKN044 OVC075 14/09 A2959 1380 74 1600 220/25G34 RMK AO2 PK WND 24043/2307 WSHFT 2258 P0000
94908KDBQ DBQ20070331172516303/31/07 17:25:31  5-MIN KDBQ 312325Z 23021G32KT 6SM TSRA FEW023 BKN042 OVC080 13/10 A2961 1370 80 1500 230/21G32 RMK AO2 PK WND 24043/2307 WSHFT 2258 PRESRR P0000
94908KDBQ DBQ20070331173016903/31/07 17:30:31  5-MIN KDBQ 312330Z 22023G29KT 2SM +TSRA SCT021 BKN045 OVC055 13/10 A2961 1360 83 1500 220/23G29 RMK AO2 PK WND 24043/2307 WSHFT 2258 VIS 1 1/4V5 P0004
94908KDBQ DBQ20070331173516803/31/07 17:35:31  5-MIN KDBQ 312335Z 22021G29KT 2SM TSRA FEW019 BKN043 OVC050 12/11 A2961 1370 89 1400 220/21G29 RMK AO2 PK WND 24043/2307 WSHFT 2258 VIS 1 1/4V4 P0011
94908KDBQ DBQ20070331174015603/31/07 17:40:31  5-MIN KDBQ 312340Z 21016G25KT 3SM TSRA SCT017 BKN026 OVC050 12/11 A2961 1370 89 1400 210/16G25 RMK AO2 PK WND 24043/2307 WSHFT 2258 P0011
94908KDBQ DBQ20070331174515303/31/07 17:45:31  5-MIN KDBQ 312345Z 22017G24KT 2 1/2SM TSRA SCT017 BKN043 12/11 A2960 1380 89 1400 220/17G24 RMK AO2 PK WND 24043/2307 WSHFT 2258 P0014
94908KDBQ DBQ20070331175016303/31/07 17:50:31  5-MIN KDBQ 312350Z 22014G22KT 4SM TSRA FEW014 BKN027 OVC055 12/11 A2959 1380 89 1400 220/14G22 RMK AO2 PK WND 24043/2307 WSHFT 2258 PRESFR P0016
94908KDBQ DBQ20070331175518403/31/07 17:55:31  5-MIN KDBQ 312355Z 22015KT 5SM TSRA FEW014 OVC027 12/11 A2960 1380 89 1400 210/15 RMK AO2 PK WND 24043/2307 WSHFT 2258 SLP024 P0017 60032 T01220106 10178 20122 55007
94908KDBQ DBQ20070331180011403/31/07 18:00:31  5-MIN KDBQ 010000Z 22011KT 5SM TSRA FEW014 OVC027 12/11 A2959 1380 89 1400 210/11 RMK AO2 P0002
94908KDBQ DBQ20070331180510703/31/07 18:05:31  5-MIN KDBQ 010005Z 22010KT 5SM TSRA OVC027 12/11 A2958 1390 89 1400 220/10 RMK AO2 P0003
94908KDBQ DBQ20070331181012203/31/07 18:10:31  5-MIN KDBQ 010010Z 20007KT 6SM -RA BR OVC034 12/11 A2957 1400 89 1400 200/07 RMK AO2 TSE09 PRESFR P0004
94908KDBQ DBQ20070331181513403/31/07 18:15:31  5-MIN KDBQ 010015Z 19011G20KT 170V240 8SM -RA OVC041 12/11 A2957 1400 89 1400 190/11G20 170V240 RMK AO2 TSE09 P0005
94908KDBQ DBQ20070331182011703/31/07 18:20:31  5-MIN KDBQ 010020Z 18011G20KT 9SM RA OVC041 12/11 A2957 1400 89 1400 180/11G20 RMK AO2 TSE09 P0005
94908KDBQ DBQ20070331182511803/31/07 18:25:31  5-MIN KDBQ 010025Z 17007KT 7SM RA BKN039 OVC065 12/11 A2957 1410 89 1400 170/07 RMK AO2 TSE09 P0006
94908KDBQ DBQ20070331183012603/31/07 18:30:31  5-MIN KDBQ 010030Z 11007KT 7SM -RA BKN044 OVC065 12/11 A2953 1440 89 1500 110/07 RMK AO2 TSE09 PRESFR P0007
94908KDBQ DBQ20070331183511903/31/07 18:35:31  5-MIN KDBQ 010035Z 15006KT 9SM -RA BKN060 OVC070 12/11 A2954 1430 89 1500 150/06 RMK AO2 TSE09 P0007
94908KDBQ DBQ20070331184012103/31/07 18:40:31  5-MIN KDBQ 010040Z 16007KT 10SM BKN065 OVC100 12/11 A2955 1430 89 1500 160/07 RMK AO2 TSE09RAE40 P0007
94908KDBQ DBQ20070331184512103/31/07 18:45:31  5-MIN KDBQ 010045Z 15012KT 10SM BKN070 OVC100 12/10 A2957 1410 86 1400 150/12 RMK AO2 TSE09RAE40 P0007
94908KDBQ DBQ20070331185014803/31/07 18:50:31  5-MIN KDBQ 010050Z AUTO 16013KT 10SM OVC070 12/10 A2958 1400 86 1400 160/13 RMK AO2 TSE09RAE40 PRESRR SLP018 P0007 T01220100 TSNO
94908KDBQ DBQ20070331185514003/31/07 18:55:31  5-MIN KDBQ 010055Z AUTO 12010KT 10SM -RA OVC070 12/11 A2954 1430 89 1500 120/10 RMK AO2 TSE09 SLP006 P0007 T01220106 TSNO
94908KDBQ DBQ20070331190012403/31/07 19:00:31  5-MIN KDBQ 010100Z AUTO 13012KT 10SM -RA BKN070 OVC090 12/11 A2955 1420 93 1400 130/12 RMK AO2 P0001 TSNO
94908KDBQ DBQ20070331190511903/31/07 19:05:31  5-MIN KDBQ 010105Z AUTO 14013KT 10SM OVC075 12/11 A2957 1410 93 1400 140/13 RMK AO2 RAE05 P0001 TSNO
94908KDBQ DBQ20070331191012603/31/07 19:10:31  5-MIN KDBQ 010110Z AUTO 13012KT 10SM BKN065 OVC080 12/11 A2956 1410 93 1400 130/12 RMK AO2 RAE05 P0001 TSNO
94908KDBQ DBQ20070331191512403/31/07 19:15:31  5-MIN KDBQ 010115Z AUTO 14011KT 10SM -RA BKN070 OVC080 12/11 A2956 1410 93 1400 140/11 RMK AO2 P0001 TSNO
94908KDBQ DBQ20070331192011703/31/07 19:20:31  5-MIN KDBQ 010120Z AUTO 15011KT 10SM -RA OVC070 12/11 A2957 1410 93 1400 150/11 RMK AO2 P0001 TSNO
94908KDBQ DBQ20070331192512603/31/07 19:25:31  5-MIN KDBQ 010125Z AUTO 16015KT 10SM FEW032 OVC070 12/11 A2957 1400 93 1400 160/15 RMK AO2 RAE22 P0001 TSNO
94908KDBQ DBQ20070331193012403/31/07 19:30:31  5-MIN KDBQ 010130Z AUTO 15012KT 10SM -RA FEW032 OVC065 12/11 A2956 1420 89 1500 150/12 RMK AO2 P0001 TSNO
94908KDBQ DBQ20070331193512403/31/07 19:35:31  5-MIN KDBQ 010135Z AUTO 14011KT 10SM -RA BKN065 OVC080 12/11 A2955 1430 89 1500 140/11 RMK AO2 P0001 TSNO
94908KDBQ DBQ20070331194011703/31/07 19:40:31  5-MIN KDBQ 010140Z AUTO 16012KT 10SM -RA OVC070 12/11 A2956 1410 89 1500 160/12 RMK AO2 P0001 TSNO
94908KDBQ DBQ20070331194513103/31/07 19:45:31  5-MIN KDBQ 010145Z AUTO 14011KT 10SM -RA FEW043 BKN070 OVC090 12/11 A2955 1420 89 1500 140/11 RMK AO2 P0001 TSNO
94908KDBQ DBQ20070331195014803/31/07 19:50:31  5-MIN KDBQ 010150Z AUTO 14011KT 10SM -RA FEW043 BKN080 OVC090 12/11 A2954 1430 89 1500 140/11 RMK AO2 SLP006 P0001 T01220106 TSNO
94908KDBQ DBQ20070331195515003/31/07 19:55:31  5-MIN KDBQ 010155Z AUTO 17014KT 10SM FEW034 BKN080 BKN090 12/11 A2957 1410 89 1400 170/14 RMK AO2 RAE55 SLP013 P0001 T01220106 TSNO
94908KDBQ DBQ20070331200012103/31/07 20:00:31  5-MIN KDBQ 010200Z AUTO 16012KT 10SM FEW031 SCT042 BKN080 12/11 A2955 1420 89 1500 150/12 RMK AO2 TSNO
94908KDBQ DBQ20070331200512103/31/07 20:05:31  5-MIN KDBQ 010205Z AUTO 15012KT 10SM FEW031 SCT060 OVC085 12/11 A2955 1430 89 1500 150/12 RMK AO2 TSNO
94908KDBQ DBQ20070331201012103/31/07 20:10:31  5-MIN KDBQ 010210Z AUTO 15013KT 10SM SCT037 SCT055 BKN090 12/11 A2955 1420 89 1500 150/13 RMK AO2 TSNO
94908KDBQ DBQ20070331201512103/31/07 20:15:31  5-MIN KDBQ 010215Z AUTO 14012KT 10SM SCT033 BKN050 BKN090 12/11 A2954 1440 89 1500 140/12 RMK AO2 TSNO
94908KDBQ DBQ20070331202012103/31/07 20:20:31  5-MIN KDBQ 010220Z AUTO 16011KT 10SM SCT032 BKN050 BKN095 12/11 A2954 1440 89 1500 160/11 RMK AO2 TSNO
94908KDBQ DBQ20070331202512703/31/07 20:25:31  5-MIN KDBQ 010225Z AUTO 17012G21KT 10SM FEW030 BKN050 OVC095 12/11 A2954 1430 89 1500 170/12G21 RMK AO2 TSNO
94908KDBQ DBQ20070331203012703/31/07 20:30:31  5-MIN KDBQ 010230Z AUTO 16012G21KT 10SM FEW023 BKN040 OVC095 12/11 A2955 1420 89 1500 160/12G21 RMK AO2 TSNO
94908KDBQ DBQ20070331203512103/31/07 20:35:31  5-MIN KDBQ 010235Z AUTO 17013KT 10SM SCT021 BKN033 OVC050 12/11 A2955 1420 89 1500 160/13 RMK AO2 TSNO
94908KDBQ DBQ20070331204012103/31/07 20:40:31  5-MIN KDBQ 010240Z AUTO 16013KT 10SM SCT017 BKN033 OVC050 12/11 A2955 1420 89 1500 160/13 RMK AO2 TSNO
94908KDBQ DBQ20070331204512103/31/07 20:45:31  5-MIN KDBQ 010245Z AUTO 17013KT 10SM SCT019 BKN042 BKN050 12/11 A2956 1420 93 1500 160/13 RMK AO2 TSNO
94908KDBQ DBQ20070331205015003/31/07 20:50:31  5-MIN KDBQ 010250Z AUTO 18015KT 10SM FEW015 BKN034 OVC050 13/11 A2955 1420 89 1500 180/15 RMK AO2 SLP009 60008 T01280111 55007 TSNO
94908KDBQ DBQ20070331205515603/31/07 20:55:31  5-MIN KDBQ 010255Z AUTO 18017G23KT 10SM SCT017 BKN022 OVC044 13/11 A2955 1420 89 1500 180/17G23 RMK AO2 SLP007 60008 T01280111 56016 TSNO
94908KDBQ DBQ20070331210014503/31/07 21:00:31  5-MIN KDBQ 010300Z AUTO 20023G29KT 10SM SCT019 BKN030 OVC044 13/09 A2954 1430 80 1500 200/23G29 RMK AO2 PK WND 20029/0258 TSNO
94908KDBQ DBQ20070331210514503/31/07 21:05:31  5-MIN KDBQ 010305Z AUTO 21019G29KT 10SM FEW019 BKN028 OVC055 12/08 A2954 1430 77 1500 210/19G29 RMK AO2 PK WND 20029/0258 TSNO
94908KDBQ DBQ20070331211013903/31/07 21:10:31  5-MIN KDBQ 010310Z AUTO 21019KT 10SM FEW019 BKN030 OVC055 12/07 A2955 1430 74 1400 200/19 RMK AO2 PK WND 20029/0258 TSNO
94908KDBQ DBQ20070331211513903/31/07 21:15:31  5-MIN KDBQ 010315Z AUTO 21019KT 10SM FEW019 BKN033 BKN055 11/07 A2955 1430 77 1300 210/19 RMK AO2 PK WND 20029/0258 TSNO
94908KDBQ DBQ20070331212013903/31/07 21:20:31  5-MIN KDBQ 010320Z AUTO 21018KT 10SM FEW019 BKN033 BKN055 11/07 A2955 1430 74 1300 210/18 RMK AO2 PK WND 20029/0258 TSNO
94908KDBQ DBQ20070331212513203/31/07 21:25:31  5-MIN KDBQ 010325Z AUTO 21017KT 10SM BKN033 OVC055 11/07 A2955 1420 74 1300 210/17 RMK AO2 PK WND 20029/0258 TSNO
94908KDBQ DBQ20070331213014503/31/07 21:30:31  5-MIN KDBQ 010330Z AUTO 21015G22KT 10SM FEW030 BKN035 BKN055 11/07 A2955 1420 80 1300 210/15G22 RMK AO2 PK WND 20029/0258 TSNO
94908KDBQ DBQ20070331213512503/31/07 21:35:31  5-MIN KDBQ 010335Z AUTO 21014KT 10SM BKN035 11/07 A2956 1410 80 1300 210/14 RMK AO2 PK WND 20029/0258 TSNO
94908KDBQ DBQ20070331214013803/31/07 21:40:31  5-MIN KDBQ 010340Z AUTO 21016G21KT 10SM BKN035 OVC046 11/07 A2956 1420 80 1300 210/16G21 RMK AO2 PK WND 20029/0258 TSNO
94908KDBQ DBQ20070331214513203/31/07 21:45:31  5-MIN KDBQ 010345Z AUTO 20016KT 10SM BKN035 OVC046 11/07 A2956 1410 77 1300 200/16 RMK AO2 PK WND 20029/0258 TSNO
94908KDBQ DBQ20070331215014903/31/07 21:50:31  5-MIN KDBQ 010350Z AUTO 21015KT 10SM SCT035 OVC046 11/07 A2956 1410 77 1300 210/15 RMK AO2 PK WND 20029/0258 SLP013 T01060067 TSNO
94908KDBQ DBQ20070331215514903/31/07 21:55:31  5-MIN KDBQ 010355Z AUTO 21018KT 10SM BKN038 OVC046 11/07 A2956 1410 77 1300 210/18 RMK AO2 PK WND 20029/0258 SLP012 T01060067 TSNO
94908KDBQ DBQ20070331220011303/31/07 22:00:31  5-MIN KDBQ 010400Z AUTO 21018G23KT 10SM OVC043 11/06 A2956 1420 74 1300 210/18G23 RMK AO2 TSNO
94908KDBQ DBQ20070331220511303/31/07 22:05:31  5-MIN KDBQ 010405Z AUTO 20017G23KT 10SM OVC043 10/06 A2956 1410 77 1200 200/17G23 RMK AO2 TSNO
94908KDBQ DBQ20070331221010703/31/07 22:10:31  5-MIN KDBQ 010410Z AUTO 20017KT 10SM OVC043 10/06 A2956 1410 77 1200 200/17 RMK AO2 TSNO
94908KDBQ DBQ20070331221510703/31/07 22:15:31  5-MIN KDBQ 010415Z AUTO 20015KT 10SM OVC043 10/06 A2957 1410 77 1200 200/15 RMK AO2 TSNO
94908KDBQ DBQ20070331222010703/31/07 22:20:31  5-MIN KDBQ 010420Z AUTO 20013KT 10SM OVC043 10/06 A2957 1410 77 1200 200/13 RMK AO2 TSNO
94908KDBQ DBQ20070331222510703/31/07 22:25:31  5-MIN KDBQ 010425Z AUTO 19013KT 10SM OVC043 10/06 A2956 1410 77 1200 190/13 RMK AO2 TSNO
94908KDBQ DBQ20070331223010703/31/07 22:30:31  5-MIN KDBQ 010430Z AUTO 19016KT 10SM OVC043 10/06 A2957 1410 77 1200 190/16 RMK AO2 TSNO
94908KDBQ DBQ20070331223510703/31/07 22:35:31  5-MIN KDBQ 010435Z AUTO 19015KT 10SM OVC043 10/06 A2957 1410 77 1200 190/15 RMK AO2 TSNO
94908KDBQ DBQ20070331224010703/31/07 22:40:31  5-MIN KDBQ 010440Z AUTO 20015KT 10SM OVC043 10/06 A2957 1410 74 1200 190/15 RMK AO2 TSNO
94908KDBQ DBQ20070331224510703/31/07 22:45:31  5-MIN KDBQ 010445Z AUTO 20014KT 10SM OVC043 10/06 A2957 1410 77 1200 200/14 RMK AO2 TSNO
94908KDBQ DBQ20070331225013103/31/07 22:50:31  5-MIN KDBQ 010450Z AUTO 20014KT 10SM SCT037 OVC047 10/06 A2957 1410 77 1200 200/14 RMK AO2 SLP015 T01000061 TSNO
94908KDBQ DBQ20070331225513703/31/07 22:55:31  5-MIN KDBQ 010455Z AUTO 19015G20KT 10SM BKN035 OVC047 10/06 A2957 1400 74 1200 190/15G20 RMK AO2 SLP014 T01000056 TSNO
94908KDBQ DBQ20070331230012003/31/07 23:00:31  5-MIN KDBQ 010500Z AUTO 19014G21KT 10SM BKN035 OVC047 10/06 A2957 1400 74 1200 190/14G21 RMK AO2 TSNO
94908KDBQ DBQ20070331230512703/31/07 23:05:31  5-MIN KDBQ 010505Z AUTO 20015G21KT 10SM FEW029 BKN035 OVC047 10/06 A2957 1400 74 1200 200/15G21 RMK AO2 TSNO
94908KDBQ DBQ20070331231012103/31/07 23:10:31  5-MIN KDBQ 010510Z AUTO 19017KT 10SM FEW029 BKN035 OVC045 10/06 A2957 1400 74 1200 190/17 RMK AO2 TSNO
94908KDBQ DBQ20070331231512103/31/07 23:15:31  5-MIN KDBQ 010515Z AUTO 20017KT 10SM FEW029 BKN035 OVC045 10/06 A2957 1410 74 1200 200/17 RMK AO2 TSNO
94908KDBQ DBQ20070331232012103/31/07 23:20:31  5-MIN KDBQ 010520Z AUTO 20018KT 10SM FEW029 BKN035 OVC045 10/06 A2956 1410 74 1200 200/18 RMK AO2 TSNO
94908KDBQ DBQ20070331232512703/31/07 23:25:31  5-MIN KDBQ 010525Z AUTO 20019G22KT 10SM FEW028 BKN037 OVC045 10/06 A2956 1410 74 1200 200/19G22 RMK AO2 TSNO
94908KDBQ DBQ20070331233012103/31/07 23:30:31  5-MIN KDBQ 010530Z AUTO 20018KT 10SM FEW026 BKN037 OVC045 09/06 A2956 1410 79 1100 190/18 RMK AO2 TSNO
94908KDBQ DBQ20070331233512003/31/07 23:35:31  5-MIN KDBQ 010535Z AUTO 20016G24KT 10SM FEW026 OVC042 10/06 A2956 1410 74 1200 200/16G24 RMK AO2 TSNO
94908KDBQ DBQ20070331234011303/31/07 23:40:31  5-MIN KDBQ 010540Z AUTO 20017G24KT 10SM OVC039 10/06 A2956 1410 74 1200 200/17G24 RMK AO2 TSNO
94908KDBQ DBQ20070331234512003/31/07 23:45:31  5-MIN KDBQ 010545Z AUTO 20020G23KT 10SM BKN039 OVC046 10/06 A2956 1410 74 1200 200/20G23 RMK AO2 TSNO
94908KDBQ DBQ20070331235017103/31/07 23:50:31  5-MIN KDBQ 010550Z AUTO 20018G25KT 10SM FEW029 OVC039 10/06 A2956 1410 74 1200 200/18G25 RMK AO2 SLP011 60008 T01000056 10128 20094 401780078 56016 TSNO
94908KDBQ DBQ20070331235517103/31/07 23:55:31  5-MIN KDBQ 010555Z AUTO 20016G25KT 10SM FEW029 OVC037 10/06 A2957 1410 74 1200 200/16G25 RMK AO2 SLP013 60008 T01000056 10128 20094 401780078 50005 TSNO
