94908KDBQ DBQ20000301015013603/01/00 01:50:31  5-MIN KDBQ 010750Z AUTO 30017G23KT 10SM FEW022 OVC031 06/02 A2971 1270 76 500 300/17G23 RMK AO2 SLP063 T00610022 TSNO
94908KDBQ DBQ20000301015514303/01/00 01:55:31  5-MIN KDBQ 010755Z AUTO 30016G22KT 10SM FEW022 BKN031 OVC041 06/02 A2971 1270 79 500 300/16G22 RMK AO2 SLP063 T00560022 TSNO
94908KDBQ DBQ20000301020011903/01/00 02:00:31  5-MIN KDBQ 010800Z AUTO 31019G23KT 10SM BKN031 OVC041 06/02 A2971 1270 76 500 300/19G23 RMK AO2 TSNO
94908KDBQ DBQ20000301020511303/01/00 02:05:31  5-MIN KDBQ 010805Z AUTO 30019KT 10SM SCT031 OVC043 06/02 A2972 1270 76 500 300/19 RMK AO2 TSNO
94908KDBQ DBQ20000301021011303/01/00 02:10:31  5-MIN KDBQ 010810Z AUTO 30015KT 10SM SCT033 OVC043 06/02 A2972 1270 76 500 300/15 RMK AO2 TSNO
94908KDBQ DBQ20000301021510603/01/00 02:15:31  5-MIN KDBQ 010815Z AUTO 30016KT 10SM OVC040 06/02 A2972 1260 76 500 300/16 RMK AO2 TSNO
94908KDBQ DBQ20000301022010603/01/00 02:20:31  5-MIN KDBQ 010820Z AUTO 30017KT 10SM OVC042 05/02 A2973 1260 79 400 300/17 RMK AO2 TSNO
94908KDBQ DBQ20000301022510603/01/00 02:25:31  5-MIN KDBQ 010825Z AUTO 31016KT 10SM OVC044 05/02 A2973 1260 79 400 310/16 RMK AO2 TSNO
94908KDBQ DBQ20000301023010603/01/00 02:30:31  5-MIN KDBQ 010830Z AUTO 30017KT 10SM OVC043 05/01 A2973 1250 76 400 300/17 RMK AO2 TSNO
94908KDBQ DBQ20000301023511203/01/00 02:35:31  5-MIN KDBQ 010835Z AUTO 31019G22KT 10SM OVC043 05/01 A2974 1250 76 400 300/19G22 RMK AO2 TSNO
94908KDBQ DBQ20000301024011203/01/00 02:40:31  5-MIN KDBQ 010840Z AUTO 30016G22KT 10SM OVC043 05/01 A2974 1240 76 400 300/16G22 RMK AO2 TSNO
94908KDBQ DBQ20000301024510603/01/00 02:45:31  5-MIN KDBQ 010845Z AUTO 30018KT 10SM OVC043 05/01 A2975 1240 76 400 290/18 RMK AO2 TSNO
94908KDBQ DBQ20000301025012903/01/00 02:50:31  5-MIN KDBQ 010850Z AUTO 29014KT 10SM OVC045 04/01 A2975 1240 76 300 290/14 RMK AO2 SLP078 T00440006 55004 TSNO
94908KDBQ DBQ20000301025512903/01/00 02:55:31  5-MIN KDBQ 010855Z AUTO 29014KT 10SM OVC045 04/01 A2975 1230 79 300 290/14 RMK AO2 SLP079 T00440011 53036 TSNO
94908KDBQ DBQ20000301030010603/01/00 03:00:31  5-MIN KDBQ 010900Z AUTO 29018KT 10SM OVC047 04/01 A2976 1230 76 300 290/18 RMK AO2 TSNO
94908KDBQ DBQ20000301030510603/01/00 03:05:31  5-MIN KDBQ 010905Z AUTO 29017KT 10SM OVC047 04/01 A2976 1230 76 300 290/17 RMK AO2 TSNO
94908KDBQ DBQ20000301031010603/01/00 03:10:31  5-MIN KDBQ 010910Z AUTO 30015KT 10SM OVC047 04/01 A2976 1220 79 200 300/15 RMK AO2 TSNO
94908KDBQ DBQ20000301031513003/01/00 03:15:31  5-MIN KDBQ 010915Z AUTO 30020G27KT 10SM OVC047 04/00 A2977 1220 76 200 300/20G27 RMK AO2 PK WND 30027/0915 TSNO
94908KDBQ DBQ20000301032013003/01/00 03:20:31  5-MIN KDBQ 010920Z AUTO 30019G27KT 10SM OVC047 04/00 A2977 1220 76 200 300/19G27 RMK AO2 PK WND 30027/0915 TSNO
94908KDBQ DBQ20000301032513103/01/00 03:25:31  5-MIN KDBQ 010925Z AUTO 30019G26KT 10SM BKN047 03/M01 A2977 1220 76 100 300/19G26 RMK AO2 PK WND 30027/0915 TSNO
94908KDBQ DBQ20000301033013103/01/00 03:30:31  5-MIN KDBQ 010930Z AUTO 30020G25KT 10SM BKN049 03/M01 A2978 1210 79 100 300/20G25 RMK AO2 PK WND 30027/0915 TSNO
94908KDBQ DBQ20000301033512503/01/00 03:35:31  5-MIN KDBQ 010935Z AUTO 30017KT 10SM SCT049 03/M01 A2978 1210 79 100 300/17 RMK AO2 PK WND 30027/0915 TSNO
94908KDBQ DBQ20000301034012503/01/00 03:40:31  5-MIN KDBQ 010940Z AUTO 30019KT 10SM FEW049 03/M01 A2978 1210 79 100 300/19 RMK AO2 PK WND 30027/0915 TSNO
94908KDBQ DBQ20000301034512303/01/00 03:45:31  5-MIN KDBQ 010945Z AUTO 29018KT 10SM FEW049 03/M01 A2979 1200 79 0 290/18 RMK AO2 PK WND 30027/0915 TSNO
94908KDBQ DBQ20000301035013703/01/00 03:50:31  5-MIN KDBQ 010950Z AUTO 30018KT 10SM CLR 02/M01 A2979 1200 82 0 300/18 RMK AO2 PK WND 30027/0915 SLP093 T00221006 TSNO
94908KDBQ DBQ20000301035513703/01/00 03:55:31  5-MIN KDBQ 010955Z AUTO 30019KT 10SM CLR 02/M01 A2980 1190 78 0 300/19 RMK AO2 PK WND 30027/0915 SLP095 T00221011 TSNO
94908KDBQ DBQ20000301040010203/01/00 04:00:31  5-MIN KDBQ 011000Z AUTO 31019KT 10SM CLR 02/M01 A2980 1190 78 0 300/19 RMK AO2 TSNO
94908KDBQ DBQ20000301040510203/01/00 04:05:31  5-MIN KDBQ 011005Z AUTO 31017KT 10SM CLR 02/M01 A2981 1180 78 0 300/17 RMK AO2 TSNO
94908KDBQ DBQ20000301041010203/01/00 04:10:31  5-MIN KDBQ 011010Z AUTO 31016KT 10SM CLR 02/M01 A2981 1180 78 0 310/16 RMK AO2 TSNO
94908KDBQ DBQ20000301041510503/01/00 04:15:31  5-MIN KDBQ 011015Z AUTO 31014KT 10SM CLR 02/M01 A2982 1180 82 -100 310/14 RMK AO2 TSNO
94908KDBQ DBQ20000301042010503/01/00 04:20:31  5-MIN KDBQ 011020Z AUTO 31017KT 10SM CLR 02/M01 A2982 1170 82 -100 310/17 RMK AO2 TSNO
94908KDBQ DBQ20000301042511203/01/00 04:25:31  5-MIN KDBQ 011025Z AUTO 30016KT 10SM CLR 02/M02 A2983 1160 78 -100 300/16 RMK AO2 PRESRR TSNO
94908KDBQ DBQ20000301043010503/01/00 04:30:31  5-MIN KDBQ 011030Z AUTO 30016KT 10SM CLR 02/M02 A2983 1160 78 -100 300/16 RMK AO2 TSNO
94908KDBQ DBQ20000301043510503/01/00 04:35:31  5-MIN KDBQ 011035Z AUTO 30018KT 10SM CLR 02/M02 A2984 1150 78 -100 300/18 RMK AO2 TSNO
94908KDBQ DBQ20000301044011103/01/00 04:40:31  5-MIN KDBQ 011040Z AUTO 31015G23KT 10SM CLR 02/M02 A2984 1150 75 -100 300/15G23 RMK AO2 TSNO
94908KDBQ DBQ20000301044511103/01/00 04:45:31  5-MIN KDBQ 011045Z AUTO 31016G23KT 10SM CLR 01/M02 A2985 1150 78 -200 300/16G23 RMK AO2 TSNO
94908KDBQ DBQ20000301045012803/01/00 04:50:31  5-MIN KDBQ 011050Z AUTO 30016G22KT 10SM CLR 02/M02 A2985 1140 75 -100 300/16G22 RMK AO2 SLP113 T00171022 TSNO
94908KDBQ DBQ20000301045512803/01/00 04:55:31  5-MIN KDBQ 011055Z AUTO 30016G23KT 10SM CLR 01/M02 A2985 1140 78 -200 300/16G23 RMK AO2 SLP115 T00111022 TSNO
94908KDBQ DBQ20000301050011103/01/00 05:00:31  5-MIN KDBQ 011100Z AUTO 30016G23KT 10SM CLR 01/M02 A2986 1140 78 -200 300/16G23 RMK AO2 TSNO
94908KDBQ DBQ20000301050510503/01/00 05:05:31  5-MIN KDBQ 011105Z AUTO 31014KT 10SM CLR 01/M02 A2986 1130 78 -200 300/14 RMK AO2 TSNO
94908KDBQ DBQ20000301051010503/01/00 05:10:31  5-MIN KDBQ 011110Z AUTO 31013KT 10SM CLR 01/M02 A2987 1130 78 -200 310/13 RMK AO2 TSNO
94908KDBQ DBQ20000301051510503/01/00 05:15:31  5-MIN KDBQ 011115Z AUTO 31013KT 10SM CLR 01/M02 A2987 1130 78 -200 310/13 RMK AO2 TSNO
94908KDBQ DBQ20000301052010503/01/00 05:20:31  5-MIN KDBQ 011120Z AUTO 31013KT 10SM CLR 01/M03 A2987 1130 75 -200 310/13 RMK AO2 TSNO
94908KDBQ DBQ20000301052511103/01/00 05:25:31  5-MIN KDBQ 011125Z AUTO 31012G18KT 10SM CLR 01/M03 A2987 1120 75 -200 310/12G18 RMK AO2 TSNO
94908KDBQ DBQ20000301053010503/01/00 05:30:31  5-MIN KDBQ 011130Z AUTO 30014KT 10SM CLR 01/M03 A2987 1120 75 -200 300/14 RMK AO2 TSNO
94908KDBQ DBQ20000301053510503/01/00 05:35:31  5-MIN KDBQ 011135Z AUTO 31014KT 10SM CLR 01/M03 A2988 1120 75 -200 310/14 RMK AO2 TSNO
94908KDBQ DBQ20000301054011103/01/00 05:40:31  5-MIN KDBQ 011140Z AUTO 31015G20KT 10SM CLR 01/M03 A2988 1120 75 -200 310/15G20 RMK AO2 TSNO
94908KDBQ DBQ20000301054510503/01/00 05:45:31  5-MIN KDBQ 011145Z AUTO 31015KT 10SM CLR 01/M03 A2988 1120 75 -200 310/15 RMK AO2 TSNO
94908KDBQ DBQ20000301055014603/01/00 05:50:31  5-MIN KDBQ 011150Z AUTO 31017KT 10SM CLR 01/M03 A2988 1120 75 -200 310/17 RMK AO2 SLP124 70006 T00111028 10089 20011 53036 TSNO
94908KDBQ DBQ20000301055514603/01/00 05:55:31  5-MIN KDBQ 011155Z AUTO 31016KT 10SM CLR 01/M03 A2988 1110 75 -200 310/16 RMK AO2 SLP126 70006 T00111028 10089 20011 51042 TSNO
94908KDBQ DBQ20000301060010503/01/00 06:00:31  5-MIN KDBQ 011200Z AUTO 31019KT 10SM CLR 01/M03 A2988 1110 75 -200 310/19 RMK AO2 TSNO
94908KDBQ DBQ20000301060511103/01/00 06:05:31  5-MIN KDBQ 011205Z AUTO 31016G23KT 10SM CLR 01/M03 A2989 1110 75 -200 310/16G23 RMK AO2 TSNO
94908KDBQ DBQ20000301061011103/01/00 06:10:31  5-MIN KDBQ 011210Z AUTO 31014G23KT 10SM CLR 01/M03 A2989 1110 78 -300 310/14G23 RMK AO2 TSNO
94908KDBQ DBQ20000301061510503/01/00 06:15:31  5-MIN KDBQ 011215Z AUTO 31014KT 10SM CLR 01/M03 A2989 1100 75 -200 310/14 RMK AO2 TSNO
94908KDBQ DBQ20000301062010503/01/00 06:20:31  5-MIN KDBQ 011220Z AUTO 31013KT 10SM CLR 01/M03 A2990 1100 75 -200 310/13 RMK AO2 TSNO
94908KDBQ DBQ20000301062510503/01/00 06:25:31  5-MIN KDBQ 011225Z AUTO 30017KT 10SM CLR 01/M03 A2990 1100 75 -200 300/17 RMK AO2 TSNO
94908KDBQ DBQ20000301063010803/01/00 06:30:31  5-MIN KDBQ 011230Z AUTO 31015KT 10SM FEW028 01/M03 A2990 1090 75 -200 300/15 RMK AO2 TSNO
94908KDBQ DBQ20000301063510803/01/00 06:35:31  5-MIN KDBQ 011235Z AUTO 30017KT 10SM SCT028 01/M03 A2991 1090 75 -200 300/17 RMK AO2 TSNO
94908KDBQ DBQ20000301064010803/01/00 06:40:31  5-MIN KDBQ 011240Z AUTO 31014KT 10SM BKN028 01/M03 A2991 1090 75 -200 310/14 RMK AO2 TSNO
94908KDBQ DBQ20000301064510803/01/00 06:45:31  5-MIN KDBQ 011245Z AUTO 30015KT 10SM BKN028 01/M03 A2991 1090 75 -200 300/15 RMK AO2 TSNO
94908KDBQ DBQ20000301065011503/01/00 06:50:31  5-MIN KDBQ 011250Z 31015KT 10SM BKN028 02/M03 A2991 1090 72 -200 310/15 RMK AO2 SLP135 T00171028
94908KDBQ DBQ20000301065511503/01/00 06:55:31  5-MIN KDBQ 011255Z 30016KT 10SM OVC028 02/M03 A2991 1080 72 -200 300/16 RMK AO2 SLP136 T00171028
94908KDBQ DBQ20000301070009803/01/00 07:00:31  5-MIN KDBQ 011300Z 30014KT 10SM OVC028 02/M03 A2992 1080 72 -200 300/14 RMK AO2
94908KDBQ DBQ20000301070509803/01/00 07:05:31  5-MIN KDBQ 011305Z 30014KT 10SM OVC028 02/M03 A2992 1070 72 -200 300/14 RMK AO2
94908KDBQ DBQ20000301071009803/01/00 07:10:31  5-MIN KDBQ 011310Z 30016KT 10SM OVC028 02/M03 A2993 1070 72 -200 300/16 RMK AO2
94908KDBQ DBQ20000301071509803/01/00 07:15:31  5-MIN KDBQ 011315Z 30018KT 10SM OVC028 02/M03 A2993 1070 72 -200 300/18 RMK AO2
94908KDBQ DBQ20000301072009803/01/00 07:20:31  5-MIN KDBQ 011320Z 30016KT 10SM OVC028 02/M03 A2993 1070 69 -100 300/16 RMK AO2
94908KDBQ DBQ20000301072509803/01/00 07:25:31  5-MIN KDBQ 011325Z 30015KT 10SM OVC028 02/M03 A2994 1060 69 -100 300/15 RMK AO2
94908KDBQ DBQ20000301073010403/01/00 07:30:31  5-MIN KDBQ 011330Z 30019G25KT 10SM OVC028 02/M03 A2994 1060 69 -100 300/19G25 RMK AO2
94908KDBQ DBQ20000301073510403/01/00 07:35:31  5-MIN KDBQ 011335Z 30017G25KT 10SM OVC028 02/M03 A2995 1060 69 -200 300/17G25 RMK AO2
94908KDBQ DBQ20000301074010403/01/00 07:40:31  5-MIN KDBQ 011340Z 30019G23KT 10SM OVC028 02/M03 A2995 1060 69 -200 300/19G23 RMK AO2
94908KDBQ DBQ20000301074509803/01/00 07:45:31  5-MIN KDBQ 011345Z 30016KT 10SM OVC028 02/M03 A2995 1050 69 -200 300/16 RMK AO2
94908KDBQ DBQ20000301075013903/01/00 07:50:31  5-MIN KDBQ 011350Z 31022G25KT 10SM OVC028 02/M03 A2995 1050 69 -200 310/22G25 RMK AO2 PK WND 31027/1348 SLP149 T00221028
94908KDBQ DBQ20000301075513303/01/00 07:55:31  5-MIN KDBQ 011355Z 30019KT 10SM OVC028 02/M03 A2996 1040 69 -200 300/19 RMK AO2 PK WND 31027/1348 SLP151 T00221028
94908KDBQ DBQ20000301080009803/01/00 08:00:31  5-MIN KDBQ 011400Z 30019KT 10SM OVC028 02/M03 A2996 1040 69 -200 300/19 RMK AO2
94908KDBQ DBQ20000301080512203/01/00 08:05:31  5-MIN KDBQ 011405Z 30021G27KT 10SM OVC028 02/M03 A2996 1040 69 -200 300/21G27 RMK AO2 PK WND 30027/1404
94908KDBQ DBQ20000301081012903/01/00 08:10:31  5-MIN KDBQ 011410Z 30022G28KT 10SM OVC028 03/M03 A2997 1030 67 -100 300/22G28 RMK AO2 PK WND 30028/1410 PRESRR
94908KDBQ DBQ20000301081512203/01/00 08:15:31  5-MIN KDBQ 011415Z 30021G30KT 10SM OVC028 03/M03 A2998 1030 67 -100 300/21G30 RMK AO2 PK WND 30030/1411
94908KDBQ DBQ20000301082012203/01/00 08:20:31  5-MIN KDBQ 011420Z 29020G30KT 10SM OVC028 03/M03 A2998 1020 67 -100 290/20G30 RMK AO2 PK WND 30030/1411
94908KDBQ DBQ20000301082512203/01/00 08:25:31  5-MIN KDBQ 011425Z 30021G24KT 10SM OVC028 03/M03 A2997 1030 67 -100 290/21G24 RMK AO2 PK WND 30030/1411
94908KDBQ DBQ20000301083012203/01/00 08:30:31  5-MIN KDBQ 011430Z 29021G28KT 10SM OVC028 03/M03 A2998 1030 67 -100 290/21G28 RMK AO2 PK WND 30030/1411
94908KDBQ DBQ20000301083512203/01/00 08:35:31  5-MIN KDBQ 011435Z 31023G28KT 10SM BKN028 03/M03 A2998 1020 67 -100 310/23G28 RMK AO2 PK WND 30030/1411
94908KDBQ DBQ20000301084012203/01/00 08:40:31  5-MIN KDBQ 011440Z 31020G25KT 10SM BKN028 03/M03 A2999 1020 64 -100 310/20G25 RMK AO2 PK WND 30030/1411
94908KDBQ DBQ20000301084512903/01/00 08:45:31  5-MIN KDBQ 011445Z 29023G29KT 10SM BKN028 03/M03 A2999 1010 64 -100 290/23G29 RMK AO2 PK WND 30030/1411 PRESRR
94908KDBQ DBQ20000301085014503/01/00 08:50:31  5-MIN KDBQ 011450Z 29024G29KT 10SM OVC030 03/M03 A2999 1010 64 -100 290/24G29 RMK AO2 PK WND 30030/1411 SLP162 T00331028 51042
94908KDBQ DBQ20000301085514503/01/00 08:55:31  5-MIN KDBQ 011455Z 30021G26KT 10SM BKN030 03/M03 A3000 1000 64 -100 300/21G26 RMK AO2 PK WND 30030/1411 SLP166 T00331028 53039
94908KDBQ DBQ20000301090010403/01/00 09:00:31  5-MIN KDBQ 011500Z 31019G26KT 10SM BKN030 03/M03 A3000 1000 64 -100 300/19G26 RMK AO2
94908KDBQ DBQ20000301090510103/01/00 09:05:31  5-MIN KDBQ 011505Z 30016G22KT 10SM OVC030 04/M02 A3001 1000 64 0 300/16G22 RMK AO2
94908KDBQ DBQ20000301091010103/01/00 09:10:31  5-MIN KDBQ 011510Z 30019G22KT 10SM OVC030 04/M02 A3001 1000 64 0 300/19G22 RMK AO2
94908KDBQ DBQ20000301091510303/01/00 09:15:31  5-MIN KDBQ 011515Z 29020G25KT 10SM OVC030 03/M03 A3001 990 64 -100 290/20G25 RMK AO2
94908KDBQ DBQ20000301092011903/01/00 09:20:31  5-MIN KDBQ 011520Z 30021G26KT 10SM BKN030 04/M03 A3000 1000 62 0 300/21G26 RMK AO2 PK WND 29026/1517
94908KDBQ DBQ20000301092511903/01/00 09:25:31  5-MIN KDBQ 011525Z 30018G26KT 10SM BKN030 04/M02 A3001 1000 64 0 300/18G26 RMK AO2 PK WND 31026/1523
94908KDBQ DBQ20000301093011803/01/00 09:30:31  5-MIN KDBQ 011530Z 30020G30KT 10SM BKN030 04/M02 A3001 990 64 0 300/20G30 RMK AO2 PK WND 30030/1530
94908KDBQ DBQ20000301093511803/01/00 09:35:31  5-MIN KDBQ 011535Z 29020G30KT 10SM BKN030 04/M03 A3001 990 62 0 290/20G30 RMK AO2 PK WND 30030/1530
94908KDBQ DBQ20000301094011803/01/00 09:40:31  5-MIN KDBQ 011540Z 29021G27KT 10SM SCT030 04/M02 A3001 990 62 0 290/21G27 RMK AO2 PK WND 30030/1530
94908KDBQ DBQ20000301094511203/01/00 09:45:31  5-MIN KDBQ 011545Z 30020KT 10SM SCT030 04/M02 A3001 990 62 0 300/20 RMK AO2 PK WND 30030/1530
94908KDBQ DBQ20000301095013003/01/00 09:50:31  5-MIN KDBQ 011550Z 29015KT 10SM SCT030 04/M02 A3001 1000 62 0 290/15 RMK AO2 PK WND 30030/1530 SLP169 T00441022
94908KDBQ DBQ20000301095513803/01/00 09:55:31  5-MIN KDBQ 011555Z 29017G23KT 10SM SCT030 05/M02 A3001 1000 62 100 290/17G23 RMK AO2 PK WND 30030/1530 SLP168 T00501017
94908KDBQ DBQ20000301100009603/01/00 10:00:31  5-MIN KDBQ 011600Z 27021KT 10SM SCT030 05/M02 A3001 990 62 100 270/21 RMK AO2
94908KDBQ DBQ20000301100509603/01/00 10:05:31  5-MIN KDBQ 011605Z 28019KT 10SM SCT030 05/M02 A3001 990 62 100 280/19 RMK AO2
94908KDBQ DBQ20000301101009603/01/00 10:10:31  5-MIN KDBQ 011610Z 30017KT 10SM BKN030 05/M02 A3002 990 62 100 300/17 RMK AO2
94908KDBQ DBQ20000301101511803/01/00 10:15:31  5-MIN KDBQ 011615Z 30022G26KT 10SM BKN030 04/M02 A3002 980 62 0 300/22G26 RMK AO2 PK WND 31026/1614
94908KDBQ DBQ20000301102011803/01/00 10:20:31  5-MIN KDBQ 011620Z 29021G26KT 10SM BKN030 05/M02 A3003 980 59 0 290/21G26 RMK AO2 PK WND 31026/1614
94908KDBQ DBQ20000301102511803/01/00 10:25:31  5-MIN KDBQ 011625Z 29021G26KT 10SM BKN030 05/M02 A3003 980 62 0 290/21G26 RMK AO2 PK WND 30026/1624
94908KDBQ DBQ20000301103012503/01/00 10:30:31  5-MIN KDBQ 011630Z 30019G26KT 10SM BKN030 BKN035 05/M02 A3003 980 62 0 300/19G26 RMK AO2 PK WND 30026/1624
94908KDBQ DBQ20000301103512503/01/00 10:35:31  5-MIN KDBQ 011635Z 28023G27KT 10SM SCT030 BKN035 04/M02 A3003 980 62 0 280/23G27 RMK AO2 PK WND 28027/1634
94908KDBQ DBQ20000301104011803/01/00 10:40:31  5-MIN KDBQ 011640Z 30021G27KT 10SM SCT030 05/M02 A3003 980 62 0 300/21G27 RMK AO2 PK WND 28027/1634
94908KDBQ DBQ20000301104512003/01/00 10:45:31  5-MIN KDBQ 011645Z 28017G23KT 10SM SCT030 06/M02 A3003 980 59 100 280/17G23 RMK AO2 PK WND 28027/1634
94908KDBQ DBQ20000301105013503/01/00 10:50:31  5-MIN KDBQ 011650Z 29019G24KT 10SM SCT030 05/M02 A3003 980 59 0 290/19G24 RMK AO2 PK WND 28027/1634 SLP175 T00501022
94908KDBQ DBQ20000301105513503/01/00 10:55:31  5-MIN KDBQ 011655Z 29020G28KT 10SM BKN030 05/M02 A3003 980 59 0 290/20G28 RMK AO2 PK WND 29028/1654 SLP175 T00501022
94908KDBQ DBQ20000301110010003/01/00 11:00:31  5-MIN KDBQ 011700Z 29020G28KT 10SM SCT032 05/M02 A3004 970 59 0 290/20G28 RMK AO2
94908KDBQ DBQ20000301110509403/01/00 11:05:31  5-MIN KDBQ 011705Z 31021KT 10SM SCT032 04/M03 A3004 970 59 0 310/21 RMK AO2
94908KDBQ DBQ20000301111009403/01/00 11:10:31  5-MIN KDBQ 011710Z 29018KT 10SM SCT032 04/M03 A3004 970 59 0 290/18 RMK AO2
94908KDBQ DBQ20000301111510003/01/00 11:15:31  5-MIN KDBQ 011715Z 29018G23KT 10SM SCT032 05/M02 A3003 980 62 0 290/18G23 RMK AO2
94908KDBQ DBQ20000301112010203/01/00 11:20:31  5-MIN KDBQ 011720Z 28019G23KT 10SM BKN032 06/M01 A3003 980 62 100 270/19G23 RMK AO2
94908KDBQ DBQ20000301112510203/01/00 11:25:31  5-MIN KDBQ 011725Z 29020G23KT 10SM BKN032 06/M02 A3003 980 59 100 290/20G23 RMK AO2
94908KDBQ DBQ20000301113009603/01/00 11:30:31  5-MIN KDBQ 011730Z 30019KT 10SM SCT032 06/M02 A3003 980 55 200 300/19 RMK AO2
94908KDBQ DBQ20000301113512003/01/00 11:35:31  5-MIN KDBQ 011735Z 29022G26KT 10SM SCT032 06/M02 A3003 980 57 200 290/22G26 RMK AO2 PK WND 28026/1733
94908KDBQ DBQ20000301114012003/01/00 11:40:31  5-MIN KDBQ 011740Z 28021G26KT 10SM SCT032 06/M02 A3003 970 59 100 280/21G26 RMK AO2 PK WND 28026/1733
94908KDBQ DBQ20000301114511403/01/00 11:45:31  5-MIN KDBQ 011745Z 27020KT 10SM SCT032 06/M02 A3003 970 57 200 270/20 RMK AO2 PK WND 28026/1733
94908KDBQ DBQ20000301115014903/01/00 11:50:31  5-MIN KDBQ 011750Z 27021KT 10SM SCT032 06/M01 A3003 970 60 200 270/21 RMK AO2 PK WND 28026/1733 SLP176 T00611011 10061 20006 53039
94908KDBQ DBQ20000301115515503/01/00 11:55:31  5-MIN KDBQ 011755Z 28017G27KT 10SM FEW032 06/M01 A3003 970 60 200 270/17G27 RMK AO2 PK WND 28027/1751 SLP176 T00611011 10061 20006 51011
94908KDBQ DBQ20000301120012003/01/00 12:00:31  5-MIN KDBQ 011800Z 29018G27KT 10SM FEW032 06/M02 A3003 980 57 200 290/18G27 RMK AO2 PK WND 27026/1758
94908KDBQ DBQ20000301120512003/01/00 12:05:31  5-MIN KDBQ 011805Z 29019G26KT 10SM FEW032 07/M02 A3003 970 55 200 290/19G26 RMK AO2 PK WND 28026/1805
94908KDBQ DBQ20000301121012003/01/00 12:10:31  5-MIN KDBQ 011810Z 28020G26KT 10SM FEW032 07/M02 A3003 970 55 200 280/20G26 RMK AO2 PK WND 28026/1805
94908KDBQ DBQ20000301121512003/01/00 12:15:31  5-MIN KDBQ 011815Z 29019G26KT 10SM FEW032 07/M02 A3003 970 55 200 290/19G26 RMK AO2 PK WND 29026/1811
94908KDBQ DBQ20000301122011703/01/00 12:20:31  5-MIN KDBQ 011820Z 30019G26KT 10SM CLR 07/M02 A3004 970 53 200 290/19G26 RMK AO2 PK WND 29026/1811
94908KDBQ DBQ20000301122511703/01/00 12:25:31  5-MIN KDBQ 011825Z 30020G26KT 10SM CLR 07/M02 A3004 970 53 200 290/20G26 RMK AO2 PK WND 29026/1823
94908KDBQ DBQ20000301123011703/01/00 12:30:31  5-MIN KDBQ 011830Z 28020G26KT 10SM CLR 07/M02 A3004 970 55 200 280/20G26 RMK AO2 PK WND 29026/1823
94908KDBQ DBQ20000301123511703/01/00 12:35:31  5-MIN KDBQ 011835Z 30019G25KT 10SM CLR 07/M02 A3004 970 51 300 300/19G25 RMK AO2 PK WND 29026/1823
94908KDBQ DBQ20000301124011103/01/00 12:40:31  5-MIN KDBQ 011840Z 28018KT 10SM CLR 07/M02 A3003 970 53 300 270/18 RMK AO2 PK WND 29026/1823
94908KDBQ DBQ20000301124511403/01/00 12:45:31  5-MIN KDBQ 011845Z 28016KT 10SM FEW033 07/M01 A3004 970 57 200 280/16 RMK AO2 PK WND 29026/1823
94908KDBQ DBQ20000301125013703/01/00 12:50:31  5-MIN KDBQ 011850Z 28018G23KT 10SM FEW033 07/M01 A3004 970 55 300 270/18G23 RMK AO2 PK WND 29026/1823 SLP179 T00721011
94908KDBQ DBQ20000301125513703/01/00 12:55:31  5-MIN KDBQ 011855Z 28019G23KT 10SM FEW033 07/M02 A3004 960 55 200 280/19G23 RMK AO2 PK WND 29026/1823 SLP180 T00671017
94908KDBQ DBQ20000301130009603/01/00 13:00:31  5-MIN KDBQ 011900Z 29017KT 10SM FEW035 07/M01 A3005 960 57 300 290/17 RMK AO2
94908KDBQ DBQ20000301130509603/01/00 13:05:31  5-MIN KDBQ 011905Z 29017KT 10SM FEW035 07/M02 A3004 960 53 300 290/17 RMK AO2
94908KDBQ DBQ20000301131010203/01/00 13:10:31  5-MIN KDBQ 011910Z 29018G23KT 10SM FEW035 07/M01 A3005 960 55 300 290/18G23 RMK AO2
94908KDBQ DBQ20000301131511703/01/00 13:15:31  5-MIN KDBQ 011915Z 31022G26KT 10SM CLR 08/M02 A3004 970 49 400 310/22G26 RMK AO2 PK WND 30026/1912
94908KDBQ DBQ20000301132011703/01/00 13:20:31  5-MIN KDBQ 011920Z 30018G26KT 10SM CLR 08/M02 A3005 960 49 400 300/18G26 RMK AO2 PK WND 30026/1916
94908KDBQ DBQ20000301132511703/01/00 13:25:31  5-MIN KDBQ 011925Z 30019G23KT 10SM CLR 07/M02 A3004 960 51 300 300/19G23 RMK AO2 PK WND 30026/1916
94908KDBQ DBQ20000301133011103/01/00 13:30:31  5-MIN KDBQ 011930Z 28020KT 10SM CLR 07/M02 A3004 970 51 300 280/20 RMK AO2 PK WND 30026/1916
94908KDBQ DBQ20000301133511103/01/00 13:35:31  5-MIN KDBQ 011935Z 28020KT 10SM CLR 08/M02 A3004 970 49 400 280/20 RMK AO2 PK WND 30026/1916
94908KDBQ DBQ20000301134011703/01/00 13:40:31  5-MIN KDBQ 011940Z 27023G27KT 10SM CLR 08/M02 A3004 970 49 400 270/23G27 RMK AO2 PK WND 28027/1940
94908KDBQ DBQ20000301134511703/01/00 13:45:31  5-MIN KDBQ 011945Z 28020G27KT 10SM CLR 08/M02 A3004 970 49 400 280/20G27 RMK AO2 PK WND 29027/1943
94908KDBQ DBQ20000301135013403/01/00 13:50:31  5-MIN KDBQ 011950Z 28020G27KT 10SM CLR 08/M02 A3004 970 51 400 280/20G27 RMK AO2 PK WND 29027/1943 SLP178 T00781017
94908KDBQ DBQ20000301135513403/01/00 13:55:31  5-MIN KDBQ 011955Z 28018G26KT 10SM CLR 08/M02 A3004 970 51 400 280/18G26 RMK AO2 PK WND 29027/1943 SLP180 T00781017
94908KDBQ DBQ20000301140009303/01/00 14:00:31  5-MIN KDBQ 012000Z 30019KT 10SM CLR 08/M02 A3004 970 49 400 290/19 RMK AO2
94908KDBQ DBQ20000301140511703/01/00 14:05:31  5-MIN KDBQ 012005Z 28021G26KT 10SM CLR 08/M02 A3004 970 49 400 280/21G26 RMK AO2 PK WND 27026/2002
94908KDBQ DBQ20000301141011703/01/00 14:10:31  5-MIN KDBQ 012010Z 28019G26KT 10SM CLR 08/M02 A3005 960 49 400 280/19G26 RMK AO2 PK WND 27026/2002
94908KDBQ DBQ20000301141511103/01/00 14:15:31  5-MIN KDBQ 012015Z 28020KT 10SM CLR 08/M02 A3005 960 49 400 280/20 RMK AO2 PK WND 27026/2002
94908KDBQ DBQ20000301142011103/01/00 14:20:31  5-MIN KDBQ 012020Z 27020KT 10SM CLR 08/M02 A3004 960 49 400 270/20 RMK AO2 PK WND 27026/2002
94908KDBQ DBQ20000301142511703/01/00 14:25:31  5-MIN KDBQ 012025Z 27021G27KT 10SM CLR 08/M02 A3005 960 49 400 270/21G27 RMK AO2 PK WND 27027/2024
94908KDBQ DBQ20000301143012003/01/00 14:30:31  5-MIN KDBQ 012030Z 27020G27KT 10SM FEW042 08/M02 A3005 960 51 400 270/20G27 RMK AO2 PK WND 27027/2024
94908KDBQ DBQ20000301143511403/01/00 14:35:31  5-MIN KDBQ 012035Z 29019KT 10SM FEW042 08/M02 A3005 960 49 400 290/19 RMK AO2 PK WND 27027/2024
94908KDBQ DBQ20000301144011103/01/00 14:40:31  5-MIN KDBQ 012040Z 28019KT 10SM CLR 08/M02 A3005 960 49 400 280/19 RMK AO2 PK WND 27027/2024
94908KDBQ DBQ20000301144511103/01/00 14:45:31  5-MIN KDBQ 012045Z 28018KT 10SM CLR 08/M02 A3005 950 47 400 280/18 RMK AO2 PK WND 27027/2024
94908KDBQ DBQ20000301145014303/01/00 14:50:31  5-MIN KDBQ 012050Z 28022G25KT 10SM FEW043 08/M02 A3006 950 51 400 280/22G25 RMK AO2 PK WND 27027/2024 SLP185 T00781017 51011
94908KDBQ DBQ20000301145514303/01/00 14:55:31  5-MIN KDBQ 012055Z 29020G25KT 10SM FEW043 08/M02 A3006 950 49 300 290/20G25 RMK AO2 PK WND 27027/2024 SLP186 T00781022 53008
94908KDBQ DBQ20000301150009303/01/00 15:00:31  5-MIN KDBQ 012100Z 29020KT 10SM CLR 08/M02 A3005 950 49 400 290/20 RMK AO2
94908KDBQ DBQ20000301150509303/01/00 15:05:31  5-MIN KDBQ 012105Z 30018KT 10SM CLR 08/M02 A3006 950 49 400 300/18 RMK AO2
94908KDBQ DBQ20000301151009303/01/00 15:10:31  5-MIN KDBQ 012110Z 30020KT 10SM CLR 08/M02 A3006 950 49 400 300/20 RMK AO2
94908KDBQ DBQ20000301151509603/01/00 15:15:31  5-MIN KDBQ 012115Z 31019KT 10SM FEW042 08/M02 A3006 950 49 300 310/19 RMK AO2
94908KDBQ DBQ20000301152009903/01/00 15:20:31  5-MIN KDBQ 012120Z 28018G25KT 10SM CLR 08/M02 A3007 940 49 300 280/18G25 RMK AO2
94908KDBQ DBQ20000301152510203/01/00 15:25:31  5-MIN KDBQ 012125Z 28019G24KT 10SM FEW042 08/M02 A3007 940 49 400 280/19G24 RMK AO2
94908KDBQ DBQ20000301153012003/01/00 15:30:31  5-MIN KDBQ 012130Z 28022G28KT 10SM FEW042 08/M02 A3007 940 51 300 280/22G28 RMK AO2 PK WND 29028/2130
94908KDBQ DBQ20000301153512003/01/00 15:35:31  5-MIN KDBQ 012135Z 29020G28KT 10SM FEW042 08/M02 A3008 930 49 300 290/20G28 RMK AO2 PK WND 29028/2130
94908KDBQ DBQ20000301154012003/01/00 15:40:31  5-MIN KDBQ 012140Z 30018G27KT 10SM FEW042 08/M02 A3008 930 49 300 300/18G27 RMK AO2 PK WND 29028/2130
94908KDBQ DBQ20000301154512003/01/00 15:45:31  5-MIN KDBQ 012145Z 29019G27KT 10SM FEW042 08/M02 A3008 930 49 300 290/19G27 RMK AO2 PK WND 29028/2130
94908KDBQ DBQ20000301155013703/01/00 15:50:31  5-MIN KDBQ 012150Z 29020G25KT 10SM FEW042 08/M02 A3008 930 49 300 290/20G25 RMK AO2 PK WND 29028/2130 SLP193 T00781022
94908KDBQ DBQ20000301155512803/01/00 15:55:31  5-MIN KDBQ 012155Z 31022KT 10SM CLR 08/M02 A3008 930 49 300 310/22 RMK AO2 PK WND 29028/2130 SLP193 T00781022
94908KDBQ DBQ20000301160009903/01/00 16:00:31  5-MIN KDBQ 012200Z 29019G23KT 10SM CLR 08/M02 A3008 930 49 300 290/19G23 RMK AO2
94908KDBQ DBQ20000301160509903/01/00 16:05:31  5-MIN KDBQ 012205Z 30020G24KT 10SM CLR 07/M02 A3008 930 51 300 300/20G24 RMK AO2
94908KDBQ DBQ20000301161009903/01/00 16:10:31  5-MIN KDBQ 012210Z 31018G24KT 10SM CLR 07/M02 A3008 930 51 300 310/18G24 RMK AO2
94908KDBQ DBQ20000301161509303/01/00 16:15:31  5-MIN KDBQ 012215Z 28015KT 10SM CLR 07/M02 A3008 930 51 300 280/15 RMK AO2
94908KDBQ DBQ20000301162010203/01/00 16:20:31  5-MIN KDBQ 012220Z 31018G22KT 10SM FEW041 08/M02 A3008 930 51 300 310/18G22 RMK AO2
94908KDBQ DBQ20000301162510203/01/00 16:25:31  5-MIN KDBQ 012225Z 31017G22KT 10SM FEW041 07/M02 A3008 930 51 300 300/17G22 RMK AO2
94908KDBQ DBQ20000301163009903/01/00 16:30:31  5-MIN KDBQ 012230Z 30015G24KT 10SM CLR 07/M02 A3008 930 51 300 290/15G24 RMK AO2
94908KDBQ DBQ20000301163509903/01/00 16:35:31  5-MIN KDBQ 012235Z 31016G24KT 10SM CLR 07/M02 A3008 930 51 300 310/16G24 RMK AO2
94908KDBQ DBQ20000301164009903/01/00 16:40:31  5-MIN KDBQ 012240Z 31016G23KT 10SM CLR 07/M02 A3009 930 51 300 310/16G23 RMK AO2
94908KDBQ DBQ20000301164509303/01/00 16:45:31  5-MIN KDBQ 012245Z 29014KT 10SM CLR 07/M02 A3009 920 51 300 290/14 RMK AO2
94908KDBQ DBQ20000301165011003/01/00 16:50:31  5-MIN KDBQ 012250Z 29013KT 10SM CLR 07/M02 A3009 920 53 200 290/13 RMK AO2 SLP198 T00671022
94908KDBQ DBQ20000301165511003/01/00 16:55:31  5-MIN KDBQ 012255Z 30015KT 10SM CLR 07/M02 A3009 920 53 200 300/15 RMK AO2 SLP198 T00671022
94908KDBQ DBQ20000301170009303/01/00 17:00:31  5-MIN KDBQ 012300Z 29014KT 10SM CLR 07/M02 A3009 920 53 200 290/14 RMK AO2
94908KDBQ DBQ20000301170509303/01/00 17:05:31  5-MIN KDBQ 012305Z 30013KT 10SM CLR 07/M02 A3009 920 53 200 290/13 RMK AO2
94908KDBQ DBQ20000301171009603/01/00 17:10:31  5-MIN KDBQ 012310Z 30012KT 10SM FEW040 07/M02 A3009 920 53 200 300/12 RMK AO2
94908KDBQ DBQ20000301171509303/01/00 17:15:31  5-MIN KDBQ 012315Z 31014KT 10SM CLR 06/M02 A3010 920 55 100 310/14 RMK AO2
94908KDBQ DBQ20000301172009903/01/00 17:20:31  5-MIN KDBQ 012320Z 31015G19KT 10SM CLR 06/M02 A3010 910 55 100 310/15G19 RMK AO2
94908KDBQ DBQ20000301172509703/01/00 17:25:31  5-MIN KDBQ 012325Z 31011G19KT 10SM CLR 06/M02 A3010 910 57 0 300/11G19 RMK AO2
94908KDBQ DBQ20000301173009103/01/00 17:30:31  5-MIN KDBQ 012330Z 31014KT 10SM CLR 06/M02 A3010 910 57 0 310/14 RMK AO2
94908KDBQ DBQ20000301173509103/01/00 17:35:31  5-MIN KDBQ 012335Z 31011KT 10SM CLR 06/M02 A3010 910 57 0 310/11 RMK AO2
94908KDBQ DBQ20000301174009103/01/00 17:40:31  5-MIN KDBQ 012340Z 32010KT 10SM CLR 06/M02 A3011 910 57 0 310/10 RMK AO2
94908KDBQ DBQ20000301174509403/01/00 17:45:31  5-MIN KDBQ 012345Z 30009KT 10SM CLR 04/M02 A3011 910 62 -100 300/09 RMK AO2
94908KDBQ DBQ20000301175012603/01/00 17:50:31  5-MIN KDBQ 012350Z 30011KT 10SM CLR 05/M02 A3011 900 59 0 300/11 RMK AO2 SLP205 T00501022 10083 20044 53008
94908KDBQ DBQ20000301175512603/01/00 17:55:31  5-MIN KDBQ 012355Z 30013KT 10SM CLR 05/M02 A3011 900 59 0 300/13 RMK AO2 SLP206 T00501022 10083 20044 53018
94908KDBQ DBQ20000301180009703/01/00 18:00:31  5-MIN KDBQ 020000Z 31018G23KT 10SM CLR 05/M02 A3011 900 59 0 300/18G23 RMK AO2
94908KDBQ DBQ20000301180509703/01/00 18:05:31  5-MIN KDBQ 020005Z 30015G23KT 10SM CLR 05/M02 A3012 900 59 0 300/15G23 RMK AO2
94908KDBQ DBQ20000301181009403/01/00 18:10:31  5-MIN KDBQ 020010Z 30014KT 10SM CLR 04/M02 A3012 890 62 -100 300/14 RMK AO2
94908KDBQ DBQ20000301181509403/01/00 18:15:31  5-MIN KDBQ 020015Z 30015KT 10SM CLR 04/M02 A3012 890 62 -100 300/15 RMK AO2
94908KDBQ DBQ20000301182010003/01/00 18:20:31  5-MIN KDBQ 020020Z 30017G20KT 10SM CLR 04/M03 A3012 890 59 -100 300/17G20 RMK AO2
94908KDBQ DBQ20000301182509403/01/00 18:25:31  5-MIN KDBQ 020025Z 30014KT 10SM CLR 04/M03 A3013 890 59 -100 300/14 RMK AO2
94908KDBQ DBQ20000301183009403/01/00 18:30:31  5-MIN KDBQ 020030Z 31013KT 10SM CLR 04/M03 A3013 890 59 -100 300/13 RMK AO2
94908KDBQ DBQ20000301183509403/01/00 18:35:31  5-MIN KDBQ 020035Z 30012KT 10SM CLR 04/M03 A3013 890 59 -100 300/12 RMK AO2
94908KDBQ DBQ20000301184009403/01/00 18:40:31  5-MIN KDBQ 020040Z 30014KT 10SM CLR 04/M02 A3013 880 62 -100 300/14 RMK AO2
94908KDBQ DBQ20000301184509403/01/00 18:45:31  5-MIN KDBQ 020045Z 30015KT 10SM CLR 04/M02 A3013 880 62 -100 300/15 RMK AO2
94908KDBQ DBQ20000301185011103/01/00 18:50:31  5-MIN KDBQ 020050Z 30013KT 10SM CLR 04/M02 A3013 880 62 -100 300/13 RMK AO2 SLP213 T00441022
94908KDBQ DBQ20000301185511103/01/00 18:55:31  5-MIN KDBQ 020055Z 30013KT 10SM CLR 04/M02 A3013 880 62 -100 300/13 RMK AO2 SLP214 T00441022
94908KDBQ DBQ20000301190009403/01/00 19:00:31  5-MIN KDBQ 020100Z 30012KT 10SM CLR 04/M02 A3013 880 64 -200 300/12 RMK AO2
94908KDBQ DBQ20000301190509403/01/00 19:05:31  5-MIN KDBQ 020105Z 30013KT 10SM CLR 04/M02 A3014 880 64 -200 300/13 RMK AO2
94908KDBQ DBQ20000301191009403/01/00 19:10:31  5-MIN KDBQ 020110Z 30012KT 10SM CLR 04/M02 A3014 880 64 -200 300/12 RMK AO2
94908KDBQ DBQ20000301191509403/01/00 19:15:31  5-MIN KDBQ 020115Z 30011KT 10SM CLR 03/M02 A3014 880 67 -200 300/11 RMK AO2
94908KDBQ DBQ20000301192009403/01/00 19:20:31  5-MIN KDBQ 020120Z 30012KT 10SM CLR 03/M02 A3014 870 67 -200 300/12 RMK AO2
94908KDBQ DBQ20000301192509403/01/00 19:25:31  5-MIN KDBQ 020125Z 30013KT 10SM CLR 04/M02 A3014 880 64 -200 300/13 RMK AO2
94908KDBQ DBQ20000301193009403/01/00 19:30:31  5-MIN KDBQ 020130Z 30013KT 10SM CLR 04/M02 A3014 870 64 -200 300/13 RMK AO2
94908KDBQ DBQ20000301193509403/01/00 19:35:31  5-MIN KDBQ 020135Z 30011KT 10SM CLR 03/M02 A3014 870 67 -200 300/11 RMK AO2
94908KDBQ DBQ20000301194009403/01/00 19:40:31  5-MIN KDBQ 020140Z 30010KT 10SM CLR 03/M02 A3015 870 67 -200 300/10 RMK AO2
94908KDBQ DBQ20000301194509403/01/00 19:45:31  5-MIN KDBQ 020145Z 30011KT 10SM CLR 03/M02 A3015 870 67 -200 300/11 RMK AO2
94908KDBQ DBQ20000301195011103/01/00 19:50:31  5-MIN KDBQ 020150Z 30010KT 10SM CLR 03/M02 A3015 870 67 -300 300/10 RMK AO2 SLP220 T00331022
94908KDBQ DBQ20000301195511103/01/00 19:55:31  5-MIN KDBQ 020155Z 30009KT 10SM CLR 03/M02 A3015 860 69 -300 300/09 RMK AO2 SLP221 T00281022
94908KDBQ DBQ20000301200009403/01/00 20:00:31  5-MIN KDBQ 020200Z 30009KT 10SM CLR 03/M02 A3015 860 69 -300 300/09 RMK AO2
94908KDBQ DBQ20000301200509403/01/00 20:05:31  5-MIN KDBQ 020205Z 29009KT 10SM CLR 03/M02 A3015 860 69 -300 290/09 RMK AO2
94908KDBQ DBQ20000301201009403/01/00 20:10:31  5-MIN KDBQ 020210Z 29009KT 10SM CLR 03/M02 A3016 860 69 -300 290/09 RMK AO2
94908KDBQ DBQ20000301201509403/01/00 20:15:31  5-MIN KDBQ 020215Z 29009KT 10SM CLR 02/M02 A3016 860 72 -400 290/09 RMK AO2
94908KDBQ DBQ20000301202009403/01/00 20:20:31  5-MIN KDBQ 020220Z 30009KT 10SM CLR 02/M02 A3016 860 72 -400 290/09 RMK AO2
94908KDBQ DBQ20000301202509403/01/00 20:25:31  5-MIN KDBQ 020225Z 29009KT 10SM CLR 02/M02 A3016 860 72 -400 290/09 RMK AO2
94908KDBQ DBQ20000301203009403/01/00 20:30:31  5-MIN KDBQ 020230Z 30010KT 10SM CLR 02/M02 A3016 860 72 -400 290/10 RMK AO2
94908KDBQ DBQ20000301203509403/01/00 20:35:31  5-MIN KDBQ 020235Z 29009KT 10SM CLR 02/M02 A3016 850 72 -400 290/09 RMK AO2
94908KDBQ DBQ20000301204009403/01/00 20:40:31  5-MIN KDBQ 020240Z 29009KT 10SM CLR 02/M02 A3016 850 72 -400 290/09 RMK AO2
94908KDBQ DBQ20000301204509403/01/00 20:45:31  5-MIN KDBQ 020245Z 29009KT 10SM CLR 02/M02 A3017 850 72 -400 290/09 RMK AO2
94908KDBQ DBQ20000301205011703/01/00 20:50:31  5-MIN KDBQ 020250Z 29009KT 10SM CLR 02/M02 A3017 850 75 -500 290/09 RMK AO2 SLP226 T00171022 53018
94908KDBQ DBQ20000301205511703/01/00 20:55:31  5-MIN KDBQ 020255Z 30009KT 10SM CLR 02/M02 A3017 850 72 -400 300/09 RMK AO2 SLP227 T00221022 51019
94908KDBQ DBQ20000301210010403/01/00 21:00:31  5-MIN KDBQ 020300Z AUTO 30009KT 10SM CLR 02/M02 A3017 850 75 -500 300/09 RMK AO2 TSNO
94908KDBQ DBQ20000301210510403/01/00 21:05:31  5-MIN KDBQ 020305Z AUTO 29008KT 10SM CLR 02/M02 A3017 850 75 -500 290/08 RMK AO2 TSNO
94908KDBQ DBQ20000301211010403/01/00 21:10:31  5-MIN KDBQ 020310Z AUTO 29009KT 10SM CLR 02/M02 A3017 840 75 -500 290/09 RMK AO2 TSNO
94908KDBQ DBQ20000301211510403/01/00 21:15:31  5-MIN KDBQ 020315Z AUTO 29007KT 10SM CLR 02/M02 A3018 840 75 -500 290/07 RMK AO2 TSNO
94908KDBQ DBQ20000301212010403/01/00 21:20:31  5-MIN KDBQ 020320Z AUTO 29008KT 10SM CLR 02/M02 A3018 840 75 -500 290/08 RMK AO2 TSNO
94908KDBQ DBQ20000301212510403/01/00 21:25:31  5-MIN KDBQ 020325Z AUTO 30008KT 10SM CLR 01/M03 A3018 840 75 -600 300/08 RMK AO2 TSNO
94908KDBQ DBQ20000301213010403/01/00 21:30:31  5-MIN KDBQ 020330Z AUTO 29008KT 10SM CLR 01/M03 A3018 840 75 -600 290/08 RMK AO2 TSNO
94908KDBQ DBQ20000301213510403/01/00 21:35:31  5-MIN KDBQ 020335Z AUTO 29007KT 10SM CLR 01/M03 A3018 840 75 -600 290/07 RMK AO2 TSNO
94908KDBQ DBQ20000301214010403/01/00 21:40:31  5-MIN KDBQ 020340Z AUTO 28008KT 10SM CLR 01/M03 A3018 830 75 -600 280/08 RMK AO2 TSNO
94908KDBQ DBQ20000301214510403/01/00 21:45:31  5-MIN KDBQ 020345Z AUTO 29007KT 10SM CLR 01/M03 A3018 840 75 -600 290/07 RMK AO2 TSNO
94908KDBQ DBQ20000301215012103/01/00 21:50:31  5-MIN KDBQ 020350Z AUTO 29008KT 10SM CLR 01/M03 A3018 840 78 -600 290/08 RMK AO2 SLP231 T00061028 TSNO
94908KDBQ DBQ20000301215512103/01/00 21:55:31  5-MIN KDBQ 020355Z AUTO 29008KT 10SM CLR 01/M03 A3018 830 78 -600 290/08 RMK AO2 SLP232 T00061028 TSNO
94908KDBQ DBQ20000301220010403/01/00 22:00:31  5-MIN KDBQ 020400Z AUTO 28008KT 10SM CLR 01/M03 A3019 830 78 -600 280/08 RMK AO2 TSNO
94908KDBQ DBQ20000301220510403/01/00 22:05:31  5-MIN KDBQ 020405Z AUTO 28007KT 10SM CLR 01/M03 A3019 830 78 -600 270/07 RMK AO2 TSNO
94908KDBQ DBQ20000301221010403/01/00 22:10:31  5-MIN KDBQ 020410Z AUTO 28008KT 10SM CLR 00/M03 A3019 830 81 -700 280/08 RMK AO2 TSNO
94908KDBQ DBQ20000301221510403/01/00 22:15:31  5-MIN KDBQ 020415Z AUTO 28008KT 10SM CLR 00/M03 A3018 830 81 -700 280/08 RMK AO2 TSNO
94908KDBQ DBQ20000301222010403/01/00 22:20:31  5-MIN KDBQ 020420Z AUTO 28008KT 10SM CLR 01/M03 A3019 830 78 -600 280/08 RMK AO2 TSNO
94908KDBQ DBQ20000301222510403/01/00 22:25:31  5-MIN KDBQ 020425Z AUTO 28008KT 10SM CLR 00/M03 A3019 830 81 -700 280/08 RMK AO2 TSNO
94908KDBQ DBQ20000301223010403/01/00 22:30:31  5-MIN KDBQ 020430Z AUTO 28008KT 10SM CLR 00/M02 A3019 830 85 -700 280/08 RMK AO2 TSNO
94908KDBQ DBQ20000301223510403/01/00 22:35:31  5-MIN KDBQ 020435Z AUTO 28008KT 10SM CLR 00/M02 A3019 830 85 -700 280/08 RMK AO2 TSNO
94908KDBQ DBQ20000301224010403/01/00 22:40:31  5-MIN KDBQ 020440Z AUTO 29008KT 10SM CLR 00/M03 A3019 830 81 -700 290/08 RMK AO2 TSNO
94908KDBQ DBQ20000301224510403/01/00 22:45:31  5-MIN KDBQ 020445Z AUTO 29008KT 10SM CLR 00/M03 A3019 830 81 -700 280/08 RMK AO2 TSNO
94908KDBQ DBQ20000301225012103/01/00 22:50:31  5-MIN KDBQ 020450Z AUTO 29008KT 10SM CLR 00/M03 A3019 830 81 -700 280/08 RMK AO2 SLP233 T00001028 TSNO
94908KDBQ DBQ20000301225512103/01/00 22:55:31  5-MIN KDBQ 020455Z AUTO 29008KT 10SM CLR 00/M03 A3019 830 81 -700 290/08 RMK AO2 SLP233 T00001028 TSNO
94908KDBQ DBQ20000301230010403/01/00 23:00:31  5-MIN KDBQ 020500Z AUTO 29009KT 10SM CLR 00/M03 A3019 830 81 -700 290/09 RMK AO2 TSNO
94908KDBQ DBQ20000301230510403/01/00 23:05:31  5-MIN KDBQ 020505Z AUTO 30010KT 10SM CLR 00/M03 A3019 830 81 -700 300/10 RMK AO2 TSNO
94908KDBQ DBQ20000301231010403/01/00 23:10:31  5-MIN KDBQ 020510Z AUTO 30011KT 10SM CLR 00/M03 A3019 830 81 -700 300/11 RMK AO2 TSNO
94908KDBQ DBQ20000301231510403/01/00 23:15:31  5-MIN KDBQ 020515Z AUTO 31010KT 10SM CLR 00/M03 A3019 830 81 -700 310/10 RMK AO2 TSNO
94908KDBQ DBQ20000301232010403/01/00 23:20:31  5-MIN KDBQ 020520Z AUTO 32010KT 10SM CLR 00/M03 A3018 830 78 -700 310/10 RMK AO2 TSNO
94908KDBQ DBQ20000301232510403/01/00 23:25:31  5-MIN KDBQ 020525Z AUTO 32010KT 10SM CLR 00/M03 A3019 830 78 -700 320/10 RMK AO2 TSNO
94908KDBQ DBQ20000301233010403/01/00 23:30:31  5-MIN KDBQ 020530Z AUTO 32010KT 10SM CLR 00/M03 A3019 830 78 -700 310/10 RMK AO2 TSNO
94908KDBQ DBQ20000301233510403/01/00 23:35:31  5-MIN KDBQ 020535Z AUTO 32010KT 10SM CLR 01/M03 A3019 830 75 -600 320/10 RMK AO2 TSNO
94908KDBQ DBQ20000301234010403/01/00 23:40:31  5-MIN KDBQ 020540Z AUTO 32012KT 10SM CLR 01/M03 A3019 830 75 -600 320/12 RMK AO2 TSNO
94908KDBQ DBQ20000301234510403/01/00 23:45:31  5-MIN KDBQ 020545Z AUTO 33010KT 10SM CLR 01/M03 A3019 830 72 -600 320/10 RMK AO2 TSNO
94908KDBQ DBQ20000301235014903/01/00 23:50:31  5-MIN KDBQ 020550Z AUTO 33011KT 10SM CLR 01/M03 A3019 830 72 -600 320/11 RMK AO2 SLP232 T00111033 10050 21006 400831006 51019 TSNO
94908KDBQ DBQ20000301235514903/01/00 23:55:31  5-MIN KDBQ 020555Z AUTO 33011KT 10SM CLR 01/M03 A3019 830 72 -600 330/11 RMK AO2 SLP231 T00111033 10050 21006 400831006 50005 TSNO
94908KDBQ DBQ20000302000010403/02/00 00:00:31  5-MIN KDBQ 020600Z AUTO 33010KT 10SM CLR 01/M03 A3019 830 72 -600 330/10 RMK AO2 TSNO
94908KDBQ DBQ20000302000510403/02/00 00:05:31  5-MIN KDBQ 020605Z AUTO 33012KT 10SM CLR 01/M03 A3019 830 72 -600 330/12 RMK AO2 TSNO
94908KDBQ DBQ20000302001010403/02/00 00:10:31  5-MIN KDBQ 020610Z AUTO 34011KT 10SM CLR 01/M03 A3019 830 75 -600 330/11 RMK AO2 TSNO
94908KDBQ DBQ20000302001510403/02/00 00:15:31  5-MIN KDBQ 020615Z AUTO 33009KT 10SM CLR 01/M03 A3020 820 75 -600 330/09 RMK AO2 TSNO
94908KDBQ DBQ20000302002010403/02/00 00:20:31  5-MIN KDBQ 020620Z AUTO 32008KT 10SM CLR 01/M03 A3020 820 75 -700 320/08 RMK AO2 TSNO
94908KDBQ DBQ20000302002510403/02/00 00:25:31  5-MIN KDBQ 020625Z AUTO 32008KT 10SM CLR 00/M03 A3020 820 78 -700 320/08 RMK AO2 TSNO
94908KDBQ DBQ20000302003010403/02/00 00:30:31  5-MIN KDBQ 020630Z AUTO 32008KT 10SM CLR 00/M03 A3020 820 78 -700 320/08 RMK AO2 TSNO
94908KDBQ DBQ20000302003510503/02/00 00:35:31  5-MIN KDBQ 020635Z AUTO 32007KT 10SM CLR M01/M04 A3020 820 78 -800 320/07 RMK AO2 TSNO
94908KDBQ DBQ20000302004010503/02/00 00:40:31  5-MIN KDBQ 020640Z AUTO 32007KT 10SM CLR M01/M04 A3021 810 78 -800 320/07 RMK AO2 TSNO
94908KDBQ DBQ20000302004510503/02/00 00:45:31  5-MIN KDBQ 020645Z AUTO 31008KT 10SM CLR M01/M04 A3021 810 78 -800 310/08 RMK AO2 TSNO
94908KDBQ DBQ20000302005012203/02/00 00:50:31  5-MIN KDBQ 020650Z AUTO 31008KT 10SM CLR M01/M04 A3021 810 81 -900 310/08 RMK AO2 SLP239 T10111039 TSNO
94908KDBQ DBQ20000302005512203/02/00 00:55:31  5-MIN KDBQ 020655Z AUTO 32008KT 10SM CLR M01/M04 A3021 810 78 -900 320/08 RMK AO2 SLP240 T10111044 TSNO
94908KDBQ DBQ20000302010010503/02/00 01:00:31  5-MIN KDBQ 020700Z AUTO 31008KT 10SM CLR M01/M04 A3021 810 78 -900 310/08 RMK AO2 TSNO
94908KDBQ DBQ20000302010510503/02/00 01:05:31  5-MIN KDBQ 020705Z AUTO 32008KT 10SM CLR M01/M04 A3022 810 81 -900 320/08 RMK AO2 TSNO
94908KDBQ DBQ20000302011010503/02/00 01:10:31  5-MIN KDBQ 020710Z AUTO 33008KT 10SM CLR M01/M04 A3022 810 78 -800 330/08 RMK AO2 TSNO
94908KDBQ DBQ20000302011510403/02/00 01:15:31  5-MIN KDBQ 020715Z AUTO 34010KT 10SM CLR 00/M04 A3022 800 75 -700 340/10 RMK AO2 TSNO
94908KDBQ DBQ20000302012010403/02/00 01:20:31  5-MIN KDBQ 020720Z AUTO 33010KT 10SM CLR 01/M04 A3022 800 72 -700 330/10 RMK AO2 TSNO
94908KDBQ DBQ20000302012510403/02/00 01:25:31  5-MIN KDBQ 020725Z AUTO 34010KT 10SM CLR 01/M04 A3022 800 72 -700 340/10 RMK AO2 TSNO
94908KDBQ DBQ20000302013010403/02/00 01:30:31  5-MIN KDBQ 020730Z AUTO 34009KT 10SM CLR 01/M04 A3022 800 72 -700 340/09 RMK AO2 TSNO
94908KDBQ DBQ20000302013510403/02/00 01:35:31  5-MIN KDBQ 020735Z AUTO 34011KT 10SM CLR 00/M04 A3022 800 75 -700 340/11 RMK AO2 TSNO
94908KDBQ DBQ20000302014010403/02/00 01:40:31  5-MIN KDBQ 020740Z AUTO 34009KT 10SM CLR 00/M04 A3022 800 75 -700 340/09 RMK AO2 TSNO
94908KDBQ DBQ20000302014510403/02/00 01:45:31  5-MIN KDBQ 020745Z AUTO 35011KT 10SM CLR 00/M04 A3022 800 72 -700 350/11 RMK AO2 TSNO
94908KDBQ DBQ20000302015012103/02/00 01:50:31  5-MIN KDBQ 020750Z AUTO 35011KT 10SM CLR 00/M04 A3022 800 72 -700 350/11 RMK AO2 SLP244 T00001044 TSNO
94908KDBQ DBQ20000302015512103/02/00 01:55:31  5-MIN KDBQ 020755Z AUTO 35010KT 10SM CLR 00/M05 A3022 800 69 -700 350/10 RMK AO2 SLP244 T00001050 TSNO
94908KDBQ DBQ20000302020010403/02/00 02:00:31  5-MIN KDBQ 020800Z AUTO 35010KT 10SM CLR 00/M05 A3022 800 69 -700 350/10 RMK AO2 TSNO
94908KDBQ DBQ20000302020510403/02/00 02:05:31  5-MIN KDBQ 020805Z AUTO 35009KT 10SM CLR 00/M05 A3023 800 69 -800 350/09 RMK AO2 TSNO
94908KDBQ DBQ20000302021010403/02/00 02:10:31  5-MIN KDBQ 020810Z AUTO 35011KT 10SM CLR 00/M05 A3022 800 69 -700 350/11 RMK AO2 TSNO
94908KDBQ DBQ20000302021510503/02/00 02:15:31  5-MIN KDBQ 020815Z AUTO 35009KT 10SM CLR M01/M05 A3023 800 72 -800 350/09 RMK AO2 TSNO
94908KDBQ DBQ20000302022010503/02/00 02:20:31  5-MIN KDBQ 020820Z AUTO 34009KT 10SM CLR M01/M05 A3023 790 72 -800 340/09 RMK AO2 TSNO
94908KDBQ DBQ20000302022510503/02/00 02:25:31  5-MIN KDBQ 020825Z AUTO 35009KT 10SM CLR M01/M05 A3023 800 72 -800 350/09 RMK AO2 TSNO
94908KDBQ DBQ20000302023010503/02/00 02:30:31  5-MIN KDBQ 020830Z AUTO 35008KT 10SM CLR M01/M06 A3023 800 69 -800 350/08 RMK AO2 TSNO
94908KDBQ DBQ20000302023510503/02/00 02:35:31  5-MIN KDBQ 020835Z AUTO 35009KT 10SM CLR M01/M06 A3023 800 69 -800 350/09 RMK AO2 TSNO
94908KDBQ DBQ20000302024010503/02/00 02:40:31  5-MIN KDBQ 020840Z AUTO 35009KT 10SM CLR M01/M06 A3023 800 72 -900 350/09 RMK AO2 TSNO
94908KDBQ DBQ20000302024510503/02/00 02:45:31  5-MIN KDBQ 020845Z AUTO 35008KT 10SM CLR M01/M06 A3023 790 72 -900 350/08 RMK AO2 TSNO
94908KDBQ DBQ20000302025012803/02/00 02:50:31  5-MIN KDBQ 020850Z AUTO 35007KT 10SM CLR M01/M06 A3023 790 72 -900 350/07 RMK AO2 SLP247 T10111056 50005 TSNO
94908KDBQ DBQ20000302025512803/02/00 02:55:31  5-MIN KDBQ 020855Z AUTO 35008KT 10SM CLR M01/M06 A3023 790 72 -900 340/08 RMK AO2 SLP246 T10111056 51015 TSNO
94908KDBQ DBQ20000302030010503/02/00 03:00:31  5-MIN KDBQ 020900Z AUTO 35009KT 10SM CLR M01/M06 A3023 790 69 -900 350/09 RMK AO2 TSNO
94908KDBQ DBQ20000302030510503/02/00 03:05:31  5-MIN KDBQ 020905Z AUTO 35008KT 10SM CLR M01/M06 A3023 790 69 -900 340/08 RMK AO2 TSNO
94908KDBQ DBQ20000302031010503/02/00 03:10:31  5-MIN KDBQ 020910Z AUTO 35008KT 10SM CLR M01/M06 A3024 790 69 -900 350/08 RMK AO2 TSNO
94908KDBQ DBQ20000302031510503/02/00 03:15:31  5-MIN KDBQ 020915Z AUTO 36008KT 10SM CLR M01/M06 A3023 790 69 -900 360/08 RMK AO2 TSNO
94908KDBQ DBQ20000302032010603/02/00 03:20:31  5-MIN KDBQ 020920Z AUTO 36007KT 10SM CLR M02/M06 A3023 790 72 -1000 360/07 RMK AO2 TSNO
94908KDBQ DBQ20000302032510603/02/00 03:25:31  5-MIN KDBQ 020925Z AUTO 36006KT 10SM CLR M02/M07 A3023 790 69 -1000 360/06 RMK AO2 TSNO
94908KDBQ DBQ20000302033010603/02/00 03:30:31  5-MIN KDBQ 020930Z AUTO 35007KT 10SM CLR M02/M06 A3023 790 72 -1000 350/07 RMK AO2 TSNO
94908KDBQ DBQ20000302033510603/02/00 03:35:31  5-MIN KDBQ 020935Z AUTO 35007KT 10SM CLR M02/M06 A3024 790 72 -1000 350/07 RMK AO2 TSNO
94908KDBQ DBQ20000302034010603/02/00 03:40:31  5-MIN KDBQ 020940Z AUTO 34006KT 10SM CLR M02/M06 A3024 790 75 -1000 340/06 RMK AO2 TSNO
94908KDBQ DBQ20000302034510603/02/00 03:45:31  5-MIN KDBQ 020945Z AUTO 34007KT 10SM CLR M02/M06 A3024 790 75 -1000 340/07 RMK AO2 TSNO
94908KDBQ DBQ20000302035012303/02/00 03:50:31  5-MIN KDBQ 020950Z AUTO 35009KT 10SM CLR M02/M06 A3023 790 72 -1000 350/09 RMK AO2 SLP248 T10171061 TSNO
94908KDBQ DBQ20000302035512303/02/00 03:55:31  5-MIN KDBQ 020955Z AUTO 36009KT 10SM CLR M02/M06 A3024 790 72 -1000 360/09 RMK AO2 SLP248 T10171061 TSNO
94908KDBQ DBQ20000302040010603/02/00 04:00:31  5-MIN KDBQ 021000Z AUTO 36010KT 10SM CLR M02/M07 A3024 790 69 -1000 360/10 RMK AO2 TSNO
94908KDBQ DBQ20000302040510603/02/00 04:05:31  5-MIN KDBQ 021005Z AUTO 36009KT 10SM CLR M02/M07 A3023 790 69 -1000 360/09 RMK AO2 TSNO
94908KDBQ DBQ20000302041010603/02/00 04:10:31  5-MIN KDBQ 021010Z AUTO 36008KT 10SM CLR M02/M07 A3024 790 72 -1000 360/08 RMK AO2 TSNO
94908KDBQ DBQ20000302041510603/02/00 04:15:31  5-MIN KDBQ 021015Z AUTO 36008KT 10SM CLR M02/M07 A3023 790 72 -1000 360/08 RMK AO2 TSNO
94908KDBQ DBQ20000302042010603/02/00 04:20:31  5-MIN KDBQ 021020Z AUTO 35007KT 10SM CLR M02/M07 A3024 790 72 -1000 350/07 RMK AO2 TSNO
94908KDBQ DBQ20000302042510603/02/00 04:25:31  5-MIN KDBQ 021025Z AUTO 35008KT 10SM CLR M02/M07 A3024 790 72 -1000 350/08 RMK AO2 TSNO
94908KDBQ DBQ20000302043010603/02/00 04:30:31  5-MIN KDBQ 021030Z AUTO 35009KT 10SM CLR M02/M07 A3024 780 72 -1000 350/09 RMK AO2 TSNO
94908KDBQ DBQ20000302043510603/02/00 04:35:31  5-MIN KDBQ 021035Z AUTO 35010KT 10SM CLR M02/M07 A3024 780 72 -1000 340/10 RMK AO2 TSNO
94908KDBQ DBQ20000302044010603/02/00 04:40:31  5-MIN KDBQ 021040Z AUTO 34009KT 10SM CLR M02/M07 A3024 780 72 -1100 340/09 RMK AO2 TSNO
94908KDBQ DBQ20000302044510603/02/00 04:45:31  5-MIN KDBQ 021045Z AUTO 35010KT 10SM CLR M02/M07 A3025 780 72 -1100 340/10 RMK AO2 TSNO
94908KDBQ DBQ20000302045012303/02/00 04:50:31  5-MIN KDBQ 021050Z AUTO 35010KT 10SM CLR M02/M07 A3025 770 72 -1100 350/10 RMK AO2 SLP254 T10221067 TSNO
94908KDBQ DBQ20000302045512303/02/00 04:55:31  5-MIN KDBQ 021055Z AUTO 35009KT 10SM CLR M02/M07 A3025 770 72 -1100 350/09 RMK AO2 SLP255 T10221067 TSNO
94908KDBQ DBQ20000302050010603/02/00 05:00:31  5-MIN KDBQ 021100Z AUTO 34009KT 10SM CLR M02/M07 A3025 770 72 -1100 340/09 RMK AO2 TSNO
94908KDBQ DBQ20000302050510603/02/00 05:05:31  5-MIN KDBQ 021105Z AUTO 33009KT 10SM CLR M02/M07 A3026 770 72 -1100 330/09 RMK AO2 TSNO
94908KDBQ DBQ20000302051010603/02/00 05:10:31  5-MIN KDBQ 021110Z AUTO 33008KT 10SM CLR M02/M07 A3026 770 72 -1100 330/08 RMK AO2 TSNO
94908KDBQ DBQ20000302051510603/02/00 05:15:31  5-MIN KDBQ 021115Z AUTO 34009KT 10SM CLR M03/M07 A3026 770 75 -1100 340/09 RMK AO2 TSNO
94908KDBQ DBQ20000302052010603/02/00 05:20:31  5-MIN KDBQ 021120Z AUTO 34010KT 10SM CLR M03/M07 A3026 770 75 -1100 340/10 RMK AO2 TSNO
94908KDBQ DBQ20000302052510603/02/00 05:25:31  5-MIN KDBQ 021125Z AUTO 34010KT 10SM CLR M02/M07 A3026 770 72 -1100 340/10 RMK AO2 TSNO
94908KDBQ DBQ20000302053010603/02/00 05:30:31  5-MIN KDBQ 021130Z AUTO 34009KT 10SM CLR M03/M07 A3026 760 75 -1100 340/09 RMK AO2 TSNO
94908KDBQ DBQ20000302053510603/02/00 05:35:31  5-MIN KDBQ 021135Z AUTO 35009KT 10SM CLR M03/M07 A3026 760 75 -1100 340/09 RMK AO2 TSNO
94908KDBQ DBQ20000302054010603/02/00 05:40:31  5-MIN KDBQ 021140Z AUTO 34009KT 10SM CLR M03/M07 A3026 770 75 -1100 340/09 RMK AO2 TSNO
94908KDBQ DBQ20000302054510603/02/00 05:45:31  5-MIN KDBQ 021145Z AUTO 35007KT 10SM CLR M03/M07 A3026 760 75 -1100 350/07 RMK AO2 TSNO
94908KDBQ DBQ20000302055014103/02/00 05:50:31  5-MIN KDBQ 021150Z AUTO 35006KT 10SM CLR M03/M07 A3027 760 71 -1100 350/06 RMK AO2 SLP261 T10281072 10011 21028 51015 TSNO
94908KDBQ DBQ20000302055514103/02/00 05:55:31  5-MIN KDBQ 021155Z AUTO 34007KT 10SM CLR M03/M07 A3027 760 71 -1200 340/07 RMK AO2 SLP261 T10281072 10011 21033 53012 TSNO
94908KDBQ DBQ20000302060010603/02/00 06:00:31  5-MIN KDBQ 021200Z AUTO 36007KT 10SM CLR M03/M07 A3027 760 71 -1100 360/07 RMK AO2 TSNO
94908KDBQ DBQ20000302060510603/02/00 06:05:31  5-MIN KDBQ 021205Z AUTO 35005KT 10SM CLR M03/M07 A3027 760 74 -1200 350/05 RMK AO2 TSNO
94908KDBQ DBQ20000302061010603/02/00 06:10:31  5-MIN KDBQ 021210Z AUTO 34007KT 10SM CLR M03/M07 A3027 760 74 -1200 340/07 RMK AO2 TSNO
94908KDBQ DBQ20000302061510603/02/00 06:15:31  5-MIN KDBQ 021215Z AUTO 34008KT 10SM CLR M03/M07 A3027 750 74 -1200 340/08 RMK AO2 TSNO
94908KDBQ DBQ20000302062010603/02/00 06:20:31  5-MIN KDBQ 021220Z AUTO 35007KT 10SM CLR M03/M07 A3027 760 74 -1200 340/07 RMK AO2 TSNO
94908KDBQ DBQ20000302062510603/02/00 06:25:31  5-MIN KDBQ 021225Z AUTO 35007KT 10SM CLR M04/M07 A3027 760 78 -1300 350/07 RMK AO2 TSNO
94908KDBQ DBQ20000302063010603/02/00 06:30:31  5-MIN KDBQ 021230Z AUTO 35007KT 10SM CLR M03/M07 A3028 750 74 -1200 350/07 RMK AO2 TSNO
94908KDBQ DBQ20000302063510603/02/00 06:35:31  5-MIN KDBQ 021235Z AUTO 36007KT 10SM CLR M03/M07 A3027 760 74 -1200 360/07 RMK AO2 TSNO
94908KDBQ DBQ20000302064010603/02/00 06:40:31  5-MIN KDBQ 021240Z AUTO 01007KT 10SM CLR M03/M07 A3027 760 74 -1200 010/07 RMK AO2 TSNO
94908KDBQ DBQ20000302064510603/02/00 06:45:31  5-MIN KDBQ 021245Z AUTO 36005KT 10SM CLR M03/M07 A3027 750 74 -1200 360/05 RMK AO2 TSNO
94908KDBQ DBQ20000302065011303/02/00 06:50:31  5-MIN KDBQ 021250Z 35007KT 10SM CLR M03/M07 A3028 750 74 -1200 350/07 RMK AO2 SLP265 T10331072
94908KDBQ DBQ20000302065511303/02/00 06:55:31  5-MIN KDBQ 021255Z 36007KT 10SM CLR M03/M07 A3028 750 74 -1200 360/07 RMK AO2 SLP265 T10331072
94908KDBQ DBQ20000302070009603/02/00 07:00:31  5-MIN KDBQ 021300Z 36008KT 10SM CLR M03/M07 A3027 750 74 -1200 360/08 RMK AO2
94908KDBQ DBQ20000302070509603/02/00 07:05:31  5-MIN KDBQ 021305Z 36009KT 10SM CLR M03/M07 A3027 750 74 -1200 360/09 RMK AO2
94908KDBQ DBQ20000302071009603/02/00 07:10:31  5-MIN KDBQ 021310Z 35008KT 10SM CLR M03/M07 A3028 750 71 -1200 350/08 RMK AO2
94908KDBQ DBQ20000302071509603/02/00 07:15:31  5-MIN KDBQ 021315Z 36008KT 10SM CLR M03/M07 A3028 750 71 -1200 360/08 RMK AO2
94908KDBQ DBQ20000302072009603/02/00 07:20:31  5-MIN KDBQ 021320Z 36008KT 10SM CLR M03/M07 A3028 750 71 -1200 360/08 RMK AO2
94908KDBQ DBQ20000302072509603/02/00 07:25:31  5-MIN KDBQ 021325Z 35008KT 10SM CLR M03/M07 A3028 750 71 -1200 350/08 RMK AO2
94908KDBQ DBQ20000302073009603/02/00 07:30:31  5-MIN KDBQ 021330Z 35007KT 10SM CLR M02/M07 A3029 740 69 -1100 350/07 RMK AO2
94908KDBQ DBQ20000302073509603/02/00 07:35:31  5-MIN KDBQ 021335Z 35007KT 10SM CLR M02/M07 A3029 740 72 -1100 350/07 RMK AO2
94908KDBQ DBQ20000302074009603/02/00 07:40:31  5-MIN KDBQ 021340Z 35008KT 10SM CLR M02/M07 A3029 740 72 -1100 350/08 RMK AO2
94908KDBQ DBQ20000302074509603/02/00 07:45:31  5-MIN KDBQ 021345Z 36007KT 10SM CLR M02/M07 A3029 740 72 -1100 360/07 RMK AO2
94908KDBQ DBQ20000302075011303/02/00 07:50:31  5-MIN KDBQ 021350Z 01008KT 10SM CLR M02/M07 A3029 740 72 -1100 010/08 RMK AO2 SLP268 T10221067
94908KDBQ DBQ20000302075511303/02/00 07:55:31  5-MIN KDBQ 021355Z 36008KT 10SM CLR M02/M07 A3029 740 72 -1100 360/08 RMK AO2 SLP269 T10221067
94908KDBQ DBQ20000302080009603/02/00 08:00:31  5-MIN KDBQ 021400Z 36009KT 10SM CLR M02/M07 A3029 740 69 -1000 360/09 RMK AO2
94908KDBQ DBQ20000302080509603/02/00 08:05:31  5-MIN KDBQ 021405Z 36008KT 10SM CLR M02/M06 A3029 740 72 -1000 360/08 RMK AO2
94908KDBQ DBQ20000302081009603/02/00 08:10:31  5-MIN KDBQ 021410Z 36009KT 10SM CLR M02/M07 A3030 730 69 -1000 360/09 RMK AO2
94908KDBQ DBQ20000302081509603/02/00 08:15:31  5-MIN KDBQ 021415Z 36009KT 10SM CLR M02/M07 A3030 730 69 -1000 360/09 RMK AO2
94908KDBQ DBQ20000302082009603/02/00 08:20:31  5-MIN KDBQ 021420Z 01011KT 10SM CLR M01/M07 A3029 730 66 -1000 360/11 RMK AO2
94908KDBQ DBQ20000302082509603/02/00 08:25:31  5-MIN KDBQ 021425Z 01010KT 10SM CLR M01/M06 A3030 730 69 -1000 010/10 RMK AO2
94908KDBQ DBQ20000302083009603/02/00 08:30:31  5-MIN KDBQ 021430Z 02011KT 10SM CLR M01/M07 A3029 740 66 -1000 020/11 RMK AO2
94908KDBQ DBQ20000302083509603/02/00 08:35:31  5-MIN KDBQ 021435Z 03014KT 10SM CLR M01/M07 A3029 740 66 -1000 030/14 RMK AO2
94908KDBQ DBQ20000302084009603/02/00 08:40:31  5-MIN KDBQ 021440Z 02013KT 10SM CLR M01/M07 A3029 740 66 -1000 020/13 RMK AO2
94908KDBQ DBQ20000302084509503/02/00 08:45:31  5-MIN KDBQ 021445Z 02013KT 10SM CLR M01/M07 A3029 740 63 -900 020/13 RMK AO2
94908KDBQ DBQ20000302085011803/02/00 08:50:31  5-MIN KDBQ 021450Z 01014KT 10SM CLR M01/M07 A3028 740 63 -900 010/14 RMK AO2 SLP268 T10061067 53012
94908KDBQ DBQ20000302085511903/02/00 08:55:31  5-MIN KDBQ 021455Z 01013KT 10SM CLR M01/M07 A3028 750 66 -1000 010/13 RMK AO2 SLP267 T10111067 50004
94908KDBQ DBQ20000302090009503/02/00 09:00:31  5-MIN KDBQ 021500Z 01013KT 10SM CLR M01/M07 A3028 750 63 -900 010/13 RMK AO2
94908KDBQ DBQ20000302090509503/02/00 09:05:31  5-MIN KDBQ 021505Z 02012KT 10SM CLR M01/M07 A3028 750 63 -900 020/12 RMK AO2
94908KDBQ DBQ20000302091009503/02/00 09:10:31  5-MIN KDBQ 021510Z 02014KT 10SM CLR M01/M07 A3028 750 63 -900 010/14 RMK AO2
94908KDBQ DBQ20000302091509503/02/00 09:15:31  5-MIN KDBQ 021515Z 01012KT 10SM CLR M01/M06 A3028 750 66 -900 010/12 RMK AO2
94908KDBQ DBQ20000302092009503/02/00 09:20:31  5-MIN KDBQ 021520Z 03012KT 10SM CLR M01/M07 A3027 750 63 -900 020/12 RMK AO2
94908KDBQ DBQ20000302092509503/02/00 09:25:31  5-MIN KDBQ 021525Z 03013KT 10SM CLR M01/M07 A3027 760 63 -900 030/13 RMK AO2
94908KDBQ DBQ20000302093009503/02/00 09:30:31  5-MIN KDBQ 021530Z 03015KT 10SM CLR M01/M07 A3027 760 63 -900 030/15 RMK AO2
94908KDBQ DBQ20000302093509503/02/00 09:35:31  5-MIN KDBQ 021535Z 03014KT 10SM CLR M01/M07 A3027 750 63 -900 030/14 RMK AO2
94908KDBQ DBQ20000302094009403/02/00 09:40:31  5-MIN KDBQ 021540Z 01011KT 10SM CLR 00/M07 A3028 750 61 -800 010/11 RMK AO2
94908KDBQ DBQ20000302094509403/02/00 09:45:31  5-MIN KDBQ 021545Z 02011KT 10SM CLR 00/M07 A3029 740 61 -800 020/11 RMK AO2
94908KDBQ DBQ20000302095011103/02/00 09:50:31  5-MIN KDBQ 021550Z 03012KT 10SM CLR 00/M07 A3028 740 61 -800 030/12 RMK AO2 SLP267 T00001067
94908KDBQ DBQ20000302095511103/02/00 09:55:31  5-MIN KDBQ 021555Z 03012KT 10SM CLR 00/M06 A3028 740 63 -800 030/12 RMK AO2 SLP268 T00001061
94908KDBQ DBQ20000302100009403/02/00 10:00:31  5-MIN KDBQ 021600Z 02012KT 10SM CLR 00/M06 A3029 740 63 -800 020/12 RMK AO2
94908KDBQ DBQ20000302100509403/02/00 10:05:31  5-MIN KDBQ 021605Z 02012KT 10SM CLR 01/M07 A3029 740 58 -800 020/12 RMK AO2
94908KDBQ DBQ20000302101009403/02/00 10:10:31  5-MIN KDBQ 021610Z 02012KT 10SM CLR 01/M06 A3029 740 61 -800 020/12 RMK AO2
94908KDBQ DBQ20000302101509403/02/00 10:15:31  5-MIN KDBQ 021615Z 03009KT 10SM CLR 01/M06 A3029 740 61 -800 030/09 RMK AO2
94908KDBQ DBQ20000302102009403/02/00 10:20:31  5-MIN KDBQ 021620Z 03009KT 10SM CLR 01/M06 A3029 740 61 -800 030/09 RMK AO2
94908KDBQ DBQ20000302102509403/02/00 10:25:31  5-MIN KDBQ 021625Z 04010KT 10SM CLR 01/M06 A3029 740 61 -800 040/10 RMK AO2
94908KDBQ DBQ20000302103009403/02/00 10:30:31  5-MIN KDBQ 021630Z 04010KT 10SM CLR 01/M06 A3030 730 61 -800 040/10 RMK AO2
94908KDBQ DBQ20000302103509403/02/00 10:35:31  5-MIN KDBQ 021635Z 06008KT 10SM CLR 01/M06 A3029 730 61 -800 060/08 RMK AO2
94908KDBQ DBQ20000302104009403/02/00 10:40:31  5-MIN KDBQ 021640Z 01007KT 10SM CLR 01/M06 A3029 740 61 -700 010/07 RMK AO2
94908KDBQ DBQ20000302104509403/02/00 10:45:31  5-MIN KDBQ 021645Z 03007KT 10SM CLR 02/M06 A3029 730 59 -600 030/07 RMK AO2
94908KDBQ DBQ20000302105011103/02/00 10:50:31  5-MIN KDBQ 021650Z 02009KT 10SM CLR 01/M06 A3029 730 58 -700 020/09 RMK AO2 SLP271 T00111061
94908KDBQ DBQ20000302105511103/02/00 10:55:31  5-MIN KDBQ 021655Z 02009KT 10SM CLR 02/M06 A3030 730 56 -600 020/09 RMK AO2 SLP272 T00171061
94908KDBQ DBQ20000302110009403/02/00 11:00:31  5-MIN KDBQ 021700Z 03006KT 10SM CLR 01/M06 A3030 730 58 -700 030/06 RMK AO2
94908KDBQ DBQ20000302110509403/02/00 11:05:31  5-MIN KDBQ 021705Z VRB04KT 10SM CLR 02/M06 A3030 730 59 -600 VRB/04 RMK AO2
94908KDBQ DBQ20000302111009403/02/00 11:10:31  5-MIN KDBQ 021710Z VRB06KT 10SM CLR 02/M06 A3030 730 59 -600 VRB/06 RMK AO2
94908KDBQ DBQ20000302111509403/02/00 11:15:31  5-MIN KDBQ 021715Z 01008KT 10SM CLR 02/M06 A3030 730 56 -600 010/08 RMK AO2
94908KDBQ DBQ20000302112009403/02/00 11:20:31  5-MIN KDBQ 021720Z 01007KT 10SM CLR 02/M06 A3030 730 56 -600 010/07 RMK AO2
94908KDBQ DBQ20000302112509403/02/00 11:25:31  5-MIN KDBQ 021725Z 02007KT 10SM CLR 02/M06 A3030 730 56 -600 020/07 RMK AO2
94908KDBQ DBQ20000302113009403/02/00 11:30:31  5-MIN KDBQ 021730Z 06005KT 10SM CLR 02/M06 A3030 730 56 -600 060/05 RMK AO2
94908KDBQ DBQ20000302113509403/02/00 11:35:31  5-MIN KDBQ 021735Z VRB06KT 10SM CLR 02/M06 A3030 730 56 -600 VRB/06 RMK AO2
94908KDBQ DBQ20000302114009403/02/00 11:40:31  5-MIN KDBQ 021740Z 02008KT 10SM CLR 02/M06 A3030 730 54 -600 020/08 RMK AO2
94908KDBQ DBQ20000302114509403/02/00 11:45:31  5-MIN KDBQ 021745Z 01008KT 10SM CLR 02/M06 A3030 730 54 -600 010/08 RMK AO2
94908KDBQ DBQ20000302115014503/02/00 11:50:31  5-MIN KDBQ 021750Z 03008KT 340V050 10SM CLR 03/M06 A3029 730 54 -500 030/08 340V050 RMK AO2 SLP269 T00281056 10028 21039 50004
94908KDBQ DBQ20000302115512903/02/00 11:55:31  5-MIN KDBQ 021755Z 02008KT 10SM CLR 03/M06 A3030 730 54 -500 020/08 RMK AO2 SLP270 T00281056 10028 21039 50005
94908KDBQ DBQ20000302120009403/02/00 12:00:31  5-MIN KDBQ 021800Z 36006KT 10SM CLR 03/M06 A3030 730 52 -500 360/06 RMK AO2
94908KDBQ DBQ20000302120509403/02/00 12:05:31  5-MIN KDBQ 021805Z 08004KT 10SM CLR 03/M06 A3030 730 52 -500 080/04 RMK AO2
94908KDBQ DBQ20000302121009403/02/00 12:10:31  5-MIN KDBQ 021810Z 01008KT 10SM CLR 03/M06 A3029 740 54 -500 010/08 RMK AO2
94908KDBQ DBQ20000302121509403/02/00 12:15:31  5-MIN KDBQ 021815Z VRB03KT 10SM CLR 03/M06 A3029 740 54 -500 VRB/03 RMK AO2
94908KDBQ DBQ20000302122009403/02/00 12:20:31  5-MIN KDBQ 021820Z 36006KT 10SM CLR 03/M06 A3029 740 52 -400 360/06 RMK AO2
94908KDBQ DBQ20000302122509403/02/00 12:25:31  5-MIN KDBQ 021825Z VRB03KT 10SM CLR 03/M06 A3028 740 52 -400 VRB/03 RMK AO2
94908KDBQ DBQ20000302123009403/02/00 12:30:31  5-MIN KDBQ 021830Z 34006KT 10SM CLR 03/M06 A3028 750 52 -400 340/06 RMK AO2
94908KDBQ DBQ20000302123509403/02/00 12:35:31  5-MIN KDBQ 021835Z 35008KT 10SM CLR 04/M05 A3028 750 52 -300 350/08 RMK AO2
94908KDBQ DBQ20000302124009403/02/00 12:40:31  5-MIN KDBQ 021840Z 01008KT 10SM CLR 04/M05 A3028 750 52 -300 360/08 RMK AO2
94908KDBQ DBQ20000302124509303/02/00 12:45:31  5-MIN KDBQ 021845Z VRB04KT 9SM CLR 04/M06 A3028 750 50 -300 VRB/04 RMK AO2
94908KDBQ DBQ20000302125011003/02/00 12:50:31  5-MIN KDBQ 021850Z VRB05KT 9SM CLR 04/M06 A3027 750 50 -300 VRB/05 RMK AO2 SLP263 T00391056
94908KDBQ DBQ20000302125512703/02/00 12:55:31  5-MIN KDBQ 021855Z 02007KT 320V060 10SM CLR 04/M06 A3027 760 50 -300 020/07 320V060 RMK AO2 SLP262 T00391056
94908KDBQ DBQ20000302130009403/02/00 13:00:31  5-MIN KDBQ 021900Z VRB03KT 10SM CLR 04/M06 A3027 760 50 -300 VRB/03 RMK AO2
94908KDBQ DBQ20000302130509403/02/00 13:05:31  5-MIN KDBQ 021905Z 01007KT 10SM CLR 04/M05 A3027 760 50 -200 010/07 RMK AO2
94908KDBQ DBQ20000302131009403/02/00 13:10:31  5-MIN KDBQ 021910Z 32005KT 10SM CLR 04/M05 A3026 760 50 -200 320/05 RMK AO2
94908KDBQ DBQ20000302131509403/02/00 13:15:31  5-MIN KDBQ 021915Z 36007KT 10SM CLR 04/M06 A3026 760 48 -200 360/07 RMK AO2
94908KDBQ DBQ20000302132009403/02/00 13:20:31  5-MIN KDBQ 021920Z 34006KT 10SM CLR 04/M06 A3026 770 48 -200 340/06 RMK AO2
94908KDBQ DBQ20000302132509403/02/00 13:25:31  5-MIN KDBQ 021925Z 03007KT 10SM CLR 04/M06 A3026 770 48 -200 030/07 RMK AO2
94908KDBQ DBQ20000302133009403/02/00 13:30:31  5-MIN KDBQ 021930Z VRB05KT 10SM CLR 04/M06 A3026 770 48 -200 VRB/05 RMK AO2
94908KDBQ DBQ20000302133509303/02/00 13:35:31  5-MIN KDBQ 021935Z VRB06KT 9SM CLR 04/M05 A3026 770 50 -200 VRB/06 RMK AO2
94908KDBQ DBQ20000302134009403/02/00 13:40:31  5-MIN KDBQ 021940Z VRB03KT 10SM CLR 04/M06 A3025 770 48 -200 VRB/03 RMK AO2
94908KDBQ DBQ20000302134509403/02/00 13:45:31  5-MIN KDBQ 021945Z 30005KT 10SM CLR 05/M05 A3026 770 48 -200 300/05 RMK AO2
94908KDBQ DBQ20000302135011103/02/00 13:50:31  5-MIN KDBQ 021950Z VRB05KT 10SM CLR 05/M05 A3025 770 48 -200 VRB/05 RMK AO2 SLP255 T00501050
94908KDBQ DBQ20000302135511103/02/00 13:55:31  5-MIN KDBQ 021955Z 03008KT 10SM CLR 05/M06 A3025 770 46 -200 030/08 RMK AO2 SLP256 T00501056
94908KDBQ DBQ20000302140009303/02/00 14:00:31  5-MIN KDBQ 022000Z 03006KT 9SM CLR 05/M06 A3025 770 46 -200 020/06 RMK AO2
94908KDBQ DBQ20000302140509303/02/00 14:05:31  5-MIN KDBQ 022005Z VRB03KT 9SM CLR 05/M06 A3025 780 46 -200 VRB/03 RMK AO2
94908KDBQ DBQ20000302141011003/02/00 14:10:31  5-MIN KDBQ 022010Z 01007KT 300V030 10SM CLR 05/M06 A3025 780 46 -200 010/07 300V030 RMK AO2
94908KDBQ DBQ20000302141509403/02/00 14:15:31  5-MIN KDBQ 022015Z 01007KT 10SM CLR 06/M05 A3025 780 46 -100 010/07 RMK AO2
94908KDBQ DBQ20000302142009403/02/00 14:20:31  5-MIN KDBQ 022020Z 35004KT 10SM CLR 05/M06 A3024 780 46 -200 350/04 RMK AO2
94908KDBQ DBQ20000302142509403/02/00 14:25:31  5-MIN KDBQ 022025Z 02008KT 10SM CLR 06/M05 A3024 780 46 -100 020/08 RMK AO2
94908KDBQ DBQ20000302143009403/02/00 14:30:31  5-MIN KDBQ 022030Z 03005KT 10SM CLR 05/M06 A3024 790 46 -100 020/05 RMK AO2
94908KDBQ DBQ20000302143509403/02/00 14:35:31  5-MIN KDBQ 022035Z VRB05KT 10SM CLR 06/M06 A3024 790 44 -100 VRB/05 RMK AO2
94908KDBQ DBQ20000302144009103/02/00 14:40:31  5-MIN KDBQ 022040Z 36005KT 10SM CLR 06/M05 A3023 790 45 0 360/05 RMK AO2
94908KDBQ DBQ20000302144509403/02/00 14:45:31  5-MIN KDBQ 022045Z 01008KT 10SM CLR 06/M06 A3023 790 44 -100 010/08 RMK AO2
94908KDBQ DBQ20000302145011703/02/00 14:50:31  5-MIN KDBQ 022050Z VRB05KT 10SM CLR 06/M06 A3023 790 44 -100 VRB/05 RMK AO2 SLP248 T00561056 50005
94908KDBQ DBQ20000302145511703/02/00 14:55:31  5-MIN KDBQ 022055Z 01005KT 10SM CLR 06/M06 A3023 790 44 -100 010/05 RMK AO2 SLP247 T00561056 56022
94908KDBQ DBQ20000302150009403/02/00 15:00:31  5-MIN KDBQ 022100Z 34004KT 10SM CLR 06/M06 A3023 790 44 -100 340/04 RMK AO2
94908KDBQ DBQ20000302150509103/02/00 15:05:31  5-MIN KDBQ 022105Z VRB05KT 10SM CLR 06/M05 A3023 800 45 0 VRB/05 RMK AO2
94908KDBQ DBQ20000302151009303/02/00 15:10:31  5-MIN KDBQ 022110Z 03005KT 9SM CLR 06/M06 A3023 790 44 -100 030/05 RMK AO2
94908KDBQ DBQ20000302151509303/02/00 15:15:31  5-MIN KDBQ 022115Z 05005KT 8SM CLR 06/M06 A3023 800 44 -100 050/05 RMK AO2
94908KDBQ DBQ20000302152009003/02/00 15:20:31  5-MIN KDBQ 022120Z 35005KT 8SM CLR 06/M05 A3023 800 45 0 350/05 RMK AO2
94908KDBQ DBQ20000302152509403/02/00 15:25:31  5-MIN KDBQ 022125Z 33005KT 10SM CLR 06/M06 A3023 800 44 -100 330/05 RMK AO2
94908KDBQ DBQ20000302153009103/02/00 15:30:31  5-MIN KDBQ 022130Z 05005KT 10SM CLR 06/M06 A3023 800 43 0 050/05 RMK AO2
94908KDBQ DBQ20000302153509403/02/00 15:35:31  5-MIN KDBQ 022135Z VRB04KT 10SM CLR 06/M05 A3023 800 46 -100 VRB/04 RMK AO2
94908KDBQ DBQ20000302154009103/02/00 15:40:31  5-MIN KDBQ 022140Z VRB06KT 10SM CLR 06/M05 A3023 800 45 0 VRB/06 RMK AO2
94908KDBQ DBQ20000302154509103/02/00 15:45:31  5-MIN KDBQ 022145Z 03005KT 10SM CLR 06/M06 A3023 800 43 0 030/05 RMK AO2
94908KDBQ DBQ20000302155011103/02/00 15:50:31  5-MIN KDBQ 022150Z 04006KT 10SM CLR 06/M06 A3023 800 44 -100 040/06 RMK AO2 SLP246 T00561056
94908KDBQ DBQ20000302155510803/02/00 15:55:31  5-MIN KDBQ 022155Z 03009KT 10SM CLR 06/M05 A3022 800 45 0 030/09 RMK AO2 SLP245 T00611050
94908KDBQ DBQ20000302160009103/02/00 16:00:31  5-MIN KDBQ 022200Z 01006KT 10SM CLR 06/M06 A3023 800 43 0 360/06 RMK AO2
94908KDBQ DBQ20000302160509103/02/00 16:05:31  5-MIN KDBQ 022205Z 01007KT 10SM CLR 06/M05 A3023 800 45 0 010/07 RMK AO2
94908KDBQ DBQ20000302161009103/02/00 16:10:31  5-MIN KDBQ 022210Z VRB04KT 10SM CLR 06/M06 A3023 800 43 0 VRB/04 RMK AO2
94908KDBQ DBQ20000302161509103/02/00 16:15:31  5-MIN KDBQ 022215Z 03003KT 10SM CLR 06/M05 A3023 800 45 0 030/03 RMK AO2
94908KDBQ DBQ20000302162009403/02/00 16:20:31  5-MIN KDBQ 022220Z 01004KT 10SM CLR 06/M06 A3022 800 44 -100 010/04 RMK AO2
94908KDBQ DBQ20000302162509403/02/00 16:25:31  5-MIN KDBQ 022225Z 01005KT 10SM CLR 06/M06 A3022 800 44 -100 010/05 RMK AO2
94908KDBQ DBQ20000302163009103/02/00 16:30:31  5-MIN KDBQ 022230Z 01006KT 10SM CLR 06/M06 A3022 800 43 0 010/06 RMK AO2
94908KDBQ DBQ20000302163509403/02/00 16:35:31  5-MIN KDBQ 022235Z 01005KT 10SM CLR 06/M06 A3022 800 44 -100 010/05 RMK AO2
94908KDBQ DBQ20000302164009403/02/00 16:40:31  5-MIN KDBQ 022240Z VRB04KT 10SM CLR 06/M06 A3022 800 44 -100 VRB/04 RMK AO2
94908KDBQ DBQ20000302164509403/02/00 16:45:31  5-MIN KDBQ 022245Z VRB04KT 10SM CLR 06/M06 A3022 800 44 -100 VRB/04 RMK AO2
94908KDBQ DBQ20000302165011103/02/00 16:50:31  5-MIN KDBQ 022250Z 07005KT 10SM CLR 05/M06 A3022 800 46 -100 060/05 RMK AO2 SLP244 T00501056
94908KDBQ DBQ20000302165511103/02/00 16:55:31  5-MIN KDBQ 022255Z 05006KT 10SM CLR 05/M06 A3022 800 46 -100 050/06 RMK AO2 SLP244 T00501056
94908KDBQ DBQ20000302170009403/02/00 17:00:31  5-MIN KDBQ 022300Z 04006KT 10SM CLR 05/M06 A3022 810 46 -100 040/06 RMK AO2
94908KDBQ DBQ20000302170509403/02/00 17:05:31  5-MIN KDBQ 022305Z 03006KT 10SM CLR 05/M06 A3021 810 46 -100 030/06 RMK AO2
94908KDBQ DBQ20000302171009403/02/00 17:10:31  5-MIN KDBQ 022310Z 03006KT 10SM CLR 05/M06 A3021 810 46 -100 030/06 RMK AO2
94908KDBQ DBQ20000302171509403/02/00 17:15:31  5-MIN KDBQ 022315Z 02004KT 10SM CLR 04/M06 A3021 810 48 -200 020/04 RMK AO2
94908KDBQ DBQ20000302172009403/02/00 17:20:31  5-MIN KDBQ 022320Z 03004KT 10SM CLR 04/M06 A3021 810 48 -200 030/04 RMK AO2
94908KDBQ DBQ20000302172509403/02/00 17:25:31  5-MIN KDBQ 022325Z 02004KT 10SM CLR 04/M06 A3021 810 50 -300 020/04 RMK AO2
94908KDBQ DBQ20000302173009403/02/00 17:30:31  5-MIN KDBQ 022330Z 02005KT 10SM CLR 04/M06 A3021 810 50 -300 020/05 RMK AO2
94908KDBQ DBQ20000302173509403/02/00 17:35:31  5-MIN KDBQ 022335Z 02005KT 10SM CLR 04/M06 A3021 810 50 -300 020/05 RMK AO2
94908KDBQ DBQ20000302174009403/02/00 17:40:31  5-MIN KDBQ 022340Z 03005KT 10SM CLR 04/M06 A3022 810 50 -300 030/05 RMK AO2
94908KDBQ DBQ20000302174509403/02/00 17:45:31  5-MIN KDBQ 022345Z 03005KT 10SM CLR 04/M06 A3022 800 50 -300 030/05 RMK AO2
94908KDBQ DBQ20000302175012903/02/00 17:50:31  5-MIN KDBQ 022350Z 04006KT 10SM CLR 03/M06 A3022 810 52 -300 030/06 RMK AO2 SLP245 T00331056 10061 20028 56022
94908KDBQ DBQ20000302175512903/02/00 17:55:31  5-MIN KDBQ 022355Z 03006KT 10SM CLR 03/M06 A3022 810 52 -300 030/06 RMK AO2 SLP245 T00331056 10061 20028 56004
94908KDBQ DBQ20000302180009403/02/00 18:00:31  5-MIN KDBQ 030000Z 03006KT 10SM CLR 03/M06 A3022 800 52 -300 030/06 RMK AO2
94908KDBQ DBQ20000302180509403/02/00 18:05:31  5-MIN KDBQ 030005Z 03006KT 10SM CLR 03/M06 A3022 800 54 -400 030/06 RMK AO2
94908KDBQ DBQ20000302181009403/02/00 18:10:31  5-MIN KDBQ 030010Z 03006KT 10SM CLR 03/M06 A3022 800 54 -400 030/06 RMK AO2
94908KDBQ DBQ20000302181509403/02/00 18:15:31  5-MIN KDBQ 030015Z 03005KT 10SM CLR 03/M06 A3022 800 54 -400 030/05 RMK AO2
94908KDBQ DBQ20000302182009403/02/00 18:20:31  5-MIN KDBQ 030020Z 03005KT 10SM CLR 03/M06 A3022 800 54 -400 030/05 RMK AO2
94908KDBQ DBQ20000302182509403/02/00 18:25:31  5-MIN KDBQ 030025Z 03005KT 10SM CLR 03/M06 A3022 800 52 -400 020/05 RMK AO2
94908KDBQ DBQ20000302183009403/02/00 18:30:31  5-MIN KDBQ 030030Z 03005KT 10SM CLR 03/M06 A3022 800 52 -400 030/05 RMK AO2
94908KDBQ DBQ20000302183509403/02/00 18:35:31  5-MIN KDBQ 030035Z 03005KT 10SM CLR 03/M06 A3022 800 52 -400 030/05 RMK AO2
94908KDBQ DBQ20000302184009403/02/00 18:40:31  5-MIN KDBQ 030040Z 03003KT 10SM CLR 03/M06 A3022 800 52 -400 030/03 RMK AO2
94908KDBQ DBQ20000302184509403/02/00 18:45:31  5-MIN KDBQ 030045Z 03003KT 10SM CLR 03/M06 A3022 800 50 -300 030/03 RMK AO2
94908KDBQ DBQ20000302185011103/02/00 18:50:31  5-MIN KDBQ 030050Z 03004KT 10SM CLR 03/M06 A3022 800 50 -300 030/04 RMK AO2 SLP245 T00331061
94908KDBQ DBQ20000302185511103/02/00 18:55:31  5-MIN KDBQ 030055Z 04003KT 10SM CLR 03/M06 A3022 800 52 -400 040/03 RMK AO2 SLP246 T00281061
94908KDBQ DBQ20000302190009403/02/00 19:00:31  5-MIN KDBQ 030100Z 00000KT 10SM CLR 02/M06 A3022 800 54 -500 000/00 RMK AO2
94908KDBQ DBQ20000302190509403/02/00 19:05:31  5-MIN KDBQ 030105Z 08003KT 10SM CLR 02/M05 A3022 800 61 -500 080/03 RMK AO2
94908KDBQ DBQ20000302191009403/02/00 19:10:31  5-MIN KDBQ 030110Z 09003KT 10SM CLR 02/M06 A3022 800 59 -500 090/03 RMK AO2
94908KDBQ DBQ20000302191509403/02/00 19:15:31  5-MIN KDBQ 030115Z 11003KT 10SM CLR 02/M06 A3022 800 59 -500 110/03 RMK AO2
94908KDBQ DBQ20000302192009403/02/00 19:20:31  5-MIN KDBQ 030120Z 11003KT 10SM CLR 01/M05 A3022 800 64 -600 110/03 RMK AO2
94908KDBQ DBQ20000302192509403/02/00 19:25:31  5-MIN KDBQ 030125Z 00000KT 10SM CLR 01/M05 A3022 800 66 -700 000/00 RMK AO2
94908KDBQ DBQ20000302193009403/02/00 19:30:31  5-MIN KDBQ 030130Z 00000KT 10SM CLR 01/M05 A3022 800 66 -700 000/00 RMK AO2
94908KDBQ DBQ20000302193509403/02/00 19:35:31  5-MIN KDBQ 030135Z 00000KT 10SM CLR 00/M05 A3022 800 69 -700 000/00 RMK AO2
94908KDBQ DBQ20000302194009503/02/00 19:40:31  5-MIN KDBQ 030140Z 00000KT 10SM CLR M01/M05 A3022 800 72 -800 000/00 RMK AO2
94908KDBQ DBQ20000302194509503/02/00 19:45:31  5-MIN KDBQ 030145Z 00000KT 10SM CLR M01/M05 A3022 800 72 -800 000/00 RMK AO2
94908KDBQ DBQ20000302195011103/02/00 19:50:31  5-MIN KDBQ 030150Z 00000KT 10SM CLR 00/M05 A3022 800 69 -700 000/00 RMK AO2 SLP246 T00001050
94908KDBQ DBQ20000302195511103/02/00 19:55:31  5-MIN KDBQ 030155Z 00000KT 10SM CLR 00/M05 A3022 800 69 -700 000/00 RMK AO2 SLP246 T00001050
94908KDBQ DBQ20000302200009403/02/00 20:00:31  5-MIN KDBQ 030200Z 00000KT 10SM CLR 00/M05 A3022 800 69 -700 000/00 RMK AO2
94908KDBQ DBQ20000302200509403/02/00 20:05:31  5-MIN KDBQ 030205Z 09003KT 10SM CLR 00/M05 A3022 800 69 -700 090/03 RMK AO2
94908KDBQ DBQ20000302201009403/02/00 20:10:31  5-MIN KDBQ 030210Z 08003KT 10SM CLR 00/M05 A3022 810 69 -700 080/03 RMK AO2
94908KDBQ DBQ20000302201509403/02/00 20:15:31  5-MIN KDBQ 030215Z 08003KT 10SM CLR 00/M04 A3022 810 72 -700 080/03 RMK AO2
94908KDBQ DBQ20000302202009503/02/00 20:20:31  5-MIN KDBQ 030220Z 00000KT 10SM CLR M01/M05 A3022 810 72 -800 000/00 RMK AO2
94908KDBQ DBQ20000302202509503/02/00 20:25:31  5-MIN KDBQ 030225Z 00000KT 10SM CLR M01/M04 A3022 810 75 -800 000/00 RMK AO2
94908KDBQ DBQ20000302203009403/02/00 20:30:31  5-MIN KDBQ 030230Z 00000KT 10SM CLR 00/M04 A3022 810 72 -700 000/00 RMK AO2
94908KDBQ DBQ20000302203509403/02/00 20:35:31  5-MIN KDBQ 030235Z 00000KT 10SM CLR 00/M04 A3022 810 72 -700 000/00 RMK AO2
94908KDBQ DBQ20000302204010503/02/00 20:40:31  5-MIN KDBQ 030240Z AUTO 00000KT 10SM CLR M01/M04 A3022 800 75 -800 000/00 RMK AO2 TSNO
94908KDBQ DBQ20000302204510503/02/00 20:45:31  5-MIN KDBQ 030245Z AUTO 00000KT 10SM CLR M01/M04 A3022 800 75 -800 000/00 RMK AO2 TSNO
94908KDBQ DBQ20000302205012703/02/00 20:50:31  5-MIN KDBQ 030250Z AUTO 09003KT 10SM CLR 01/M05 A3022 800 66 -700 090/03 RMK AO2 SLP246 T00061050 56004 TSNO
94908KDBQ DBQ20000302205512703/02/00 20:55:31  5-MIN KDBQ 030255Z AUTO 11003KT 10SM CLR 01/M05 A3022 800 66 -700 110/03 RMK AO2 SLP246 T00061050 53001 TSNO
94908KDBQ DBQ20000302210010403/02/00 21:00:31  5-MIN KDBQ 030300Z AUTO 00000KT 10SM CLR 01/M05 A3022 800 66 -700 000/00 RMK AO2 TSNO
94908KDBQ DBQ20000302210510403/02/00 21:05:31  5-MIN KDBQ 030305Z AUTO 00000KT 10SM CLR 01/M05 A3022 800 66 -700 000/00 RMK AO2 TSNO
94908KDBQ DBQ20000302211010403/02/00 21:10:31  5-MIN KDBQ 030310Z AUTO 09003KT 10SM CLR 01/M05 A3022 800 66 -700 090/03 RMK AO2 TSNO
94908KDBQ DBQ20000302211510403/02/00 21:15:31  5-MIN KDBQ 030315Z AUTO 08003KT 10SM CLR 01/M05 A3022 800 66 -700 080/03 RMK AO2 TSNO
94908KDBQ DBQ20000302212010503/02/00 21:20:31  5-MIN KDBQ 030320Z AUTO 06004KT 10SM CLR M01/M06 A3021 810 66 -800 060/04 RMK AO2 TSNO
94908KDBQ DBQ20000302212510403/02/00 21:25:31  5-MIN KDBQ 030325Z AUTO 05004KT 10SM CLR 01/M06 A3021 810 63 -700 050/04 RMK AO2 TSNO
94908KDBQ DBQ20000302213010403/02/00 21:30:31  5-MIN KDBQ 030330Z AUTO 05004KT 10SM CLR 01/M06 A3021 810 63 -700 040/04 RMK AO2 TSNO
94908KDBQ DBQ20000302213510403/02/00 21:35:31  5-MIN KDBQ 030335Z AUTO 05004KT 10SM CLR 01/M06 A3021 810 61 -700 050/04 RMK AO2 TSNO
94908KDBQ DBQ20000302214010403/02/00 21:40:31  5-MIN KDBQ 030340Z AUTO 05004KT 10SM CLR 01/M06 A3021 810 63 -700 050/04 RMK AO2 TSNO
94908KDBQ DBQ20000302214510403/02/00 21:45:31  5-MIN KDBQ 030345Z AUTO 05004KT 10SM CLR 01/M06 A3021 810 63 -700 050/04 RMK AO2 TSNO
94908KDBQ DBQ20000302215012103/02/00 21:50:31  5-MIN KDBQ 030350Z AUTO 06004KT 10SM CLR 01/M06 A3020 820 63 -700 060/04 RMK AO2 SLP240 T00061056 TSNO
94908KDBQ DBQ20000302215512103/02/00 21:55:31  5-MIN KDBQ 030355Z AUTO 06004KT 10SM CLR 01/M06 A3020 820 63 -700 060/04 RMK AO2 SLP240 T00061056 TSNO
94908KDBQ DBQ20000302220010403/02/00 22:00:31  5-MIN KDBQ 030400Z AUTO 05005KT 10SM CLR 00/M06 A3021 820 66 -700 050/05 RMK AO2 TSNO
94908KDBQ DBQ20000302220510403/02/00 22:05:31  5-MIN KDBQ 030405Z AUTO 05004KT 10SM CLR 00/M06 A3020 820 66 -700 050/04 RMK AO2 TSNO
94908KDBQ DBQ20000302221010403/02/00 22:10:31  5-MIN KDBQ 030410Z AUTO 04004KT 10SM CLR 00/M06 A3020 820 63 -700 040/04 RMK AO2 TSNO
94908KDBQ DBQ20000302221510503/02/00 22:15:31  5-MIN KDBQ 030415Z AUTO 03005KT 10SM CLR M01/M07 A3020 820 63 -800 030/05 RMK AO2 TSNO
94908KDBQ DBQ20000302222010403/02/00 22:20:31  5-MIN KDBQ 030420Z AUTO 03005KT 10SM CLR 01/M07 A3020 820 58 -700 030/05 RMK AO2 TSNO
94908KDBQ DBQ20000302222510403/02/00 22:25:31  5-MIN KDBQ 030425Z AUTO 04005KT 10SM CLR 01/M07 A3020 820 58 -600 040/05 RMK AO2 TSNO
94908KDBQ DBQ20000302223010403/02/00 22:30:31  5-MIN KDBQ 030430Z AUTO 05004KT 10SM CLR 00/M07 A3019 830 61 -700 050/04 RMK AO2 TSNO
94908KDBQ DBQ20000302223510503/02/00 22:35:31  5-MIN KDBQ 030435Z AUTO 07004KT 10SM CLR M01/M07 A3019 830 63 -800 070/04 RMK AO2 TSNO
94908KDBQ DBQ20000302224010403/02/00 22:40:31  5-MIN KDBQ 030440Z AUTO 07004KT 10SM CLR 00/M06 A3019 830 66 -700 070/04 RMK AO2 TSNO
94908KDBQ DBQ20000302224510503/02/00 22:45:31  5-MIN KDBQ 030445Z AUTO 07004KT 10SM CLR M01/M06 A3019 830 69 -800 060/04 RMK AO2 TSNO
94908KDBQ DBQ20000302225012103/02/00 22:50:31  5-MIN KDBQ 030450Z AUTO 08005KT 10SM CLR 00/M06 A3019 830 66 -700 080/05 RMK AO2 SLP234 T00001056 TSNO
94908KDBQ DBQ20000302225512103/02/00 22:55:31  5-MIN KDBQ 030455Z AUTO 09005KT 10SM CLR 01/M06 A3019 830 61 -600 090/05 RMK AO2 SLP234 T00061061 TSNO
94908KDBQ DBQ20000302230010403/02/00 23:00:31  5-MIN KDBQ 030500Z AUTO 09005KT 10SM CLR 00/M06 A3019 830 63 -700 090/05 RMK AO2 TSNO
94908KDBQ DBQ20000302230510403/02/00 23:05:31  5-MIN KDBQ 030505Z AUTO 09005KT 10SM CLR 00/M06 A3019 830 66 -700 090/05 RMK AO2 TSNO
94908KDBQ DBQ20000302231010503/02/00 23:10:31  5-MIN KDBQ 030510Z AUTO 10003KT 10SM CLR M01/M06 A3019 830 69 -800 100/03 RMK AO2 TSNO
94908KDBQ DBQ20000302231510503/02/00 23:15:31  5-MIN KDBQ 030515Z AUTO 10004KT 10SM CLR M01/M06 A3019 830 72 -800 100/04 RMK AO2 TSNO
94908KDBQ DBQ20000302232010503/02/00 23:20:31  5-MIN KDBQ 030520Z AUTO 10004KT 10SM CLR M01/M06 A3018 830 72 -800 100/04 RMK AO2 TSNO
94908KDBQ DBQ20000302232510503/02/00 23:25:31  5-MIN KDBQ 030525Z AUTO 11005KT 10SM CLR M01/M06 A3019 830 69 -800 110/05 RMK AO2 TSNO
94908KDBQ DBQ20000302233010503/02/00 23:30:31  5-MIN KDBQ 030530Z AUTO 10005KT 10SM CLR M01/M06 A3019 830 72 -800 100/05 RMK AO2 TSNO
94908KDBQ DBQ20000302233510503/02/00 23:35:31  5-MIN KDBQ 030535Z AUTO 10006KT 10SM CLR M01/M06 A3018 840 69 -800 100/06 RMK AO2 TSNO
94908KDBQ DBQ20000302234010503/02/00 23:40:31  5-MIN KDBQ 030540Z AUTO 09006KT 10SM CLR M02/M06 A3018 840 72 -900 090/06 RMK AO2 TSNO
94908KDBQ DBQ20000302234510503/02/00 23:45:31  5-MIN KDBQ 030545Z AUTO 10005KT 10SM CLR M02/M06 A3018 840 72 -900 100/05 RMK AO2 TSNO
94908KDBQ DBQ20000302235015103/02/00 23:50:31  5-MIN KDBQ 030550Z AUTO 09005KT 10SM CLR M02/M06 A3018 840 75 -1000 090/05 RMK AO2 SLP232 T10221061 10033 21022 400611039 53001 TSNO
94908KDBQ DBQ20000302235515003/02/00 23:55:31  5-MIN KDBQ 030555Z AUTO 09006KT 10SM CLR M01/M06 A3018 840 69 -800 090/06 RMK AO2 SLP230 T10111061 10033 21022 400611039 56014 TSNO
94908KDBQ DBQ20000303000010503/03/00 00:00:31  5-MIN KDBQ 030600Z AUTO 09006KT 10SM CLR M01/M06 A3018 840 69 -800 090/06 RMK AO2 TSNO
94908KDBQ DBQ20000303000510503/03/00 00:05:31  5-MIN KDBQ 030605Z AUTO 08007KT 10SM CLR M01/M06 A3018 840 69 -800 080/07 RMK AO2 TSNO
94908KDBQ DBQ20000303001010503/03/00 00:10:31  5-MIN KDBQ 030610Z AUTO 07005KT 10SM CLR M02/M06 A3018 840 72 -900 070/05 RMK AO2 TSNO
94908KDBQ DBQ20000303001510503/03/00 00:15:31  5-MIN KDBQ 030615Z AUTO 06006KT 10SM CLR M02/M06 A3018 840 72 -900 060/06 RMK AO2 TSNO
94908KDBQ DBQ20000303002010503/03/00 00:20:31  5-MIN KDBQ 030620Z AUTO 05004KT 10SM CLR M01/M06 A3018 830 69 -800 050/04 RMK AO2 TSNO
94908KDBQ DBQ20000303002510503/03/00 00:25:31  5-MIN KDBQ 030625Z AUTO 05005KT 10SM CLR M01/M06 A3018 840 69 -800 050/05 RMK AO2 TSNO
94908KDBQ DBQ20000303003010503/03/00 00:30:31  5-MIN KDBQ 030630Z AUTO 06005KT 10SM CLR M01/M06 A3018 840 66 -800 060/05 RMK AO2 TSNO
94908KDBQ DBQ20000303003510503/03/00 00:35:31  5-MIN KDBQ 030635Z AUTO 06005KT 10SM CLR M01/M06 A3018 840 69 -800 060/05 RMK AO2 TSNO
94908KDBQ DBQ20000303004010503/03/00 00:40:31  5-MIN KDBQ 030640Z AUTO 06005KT 10SM CLR M02/M06 A3018 840 72 -900 060/05 RMK AO2 TSNO
94908KDBQ DBQ20000303004510503/03/00 00:45:31  5-MIN KDBQ 030645Z AUTO 06004KT 10SM CLR M01/M06 A3018 840 69 -800 050/04 RMK AO2 TSNO
94908KDBQ DBQ20000303005012203/03/00 00:50:31  5-MIN KDBQ 030650Z AUTO 08004KT 10SM CLR M01/M06 A3018 840 69 -800 080/04 RMK AO2 SLP232 T10111061 TSNO
94908KDBQ DBQ20000303005512203/03/00 00:55:31  5-MIN KDBQ 030655Z AUTO 10004KT 10SM CLR M01/M06 A3018 840 72 -800 100/04 RMK AO2 SLP232 T10111056 TSNO
94908KDBQ DBQ20000303010010503/03/00 01:00:31  5-MIN KDBQ 030700Z AUTO 11003KT 10SM CLR M01/M06 A3018 840 69 -800 110/03 RMK AO2 TSNO
94908KDBQ DBQ20000303010510603/03/00 01:05:31  5-MIN KDBQ 030705Z AUTO 14003KT 10SM CLR M03/M06 A3019 830 81 -1100 140/03 RMK AO2 TSNO
94908KDBQ DBQ20000303011010603/03/00 01:10:31  5-MIN KDBQ 030710Z AUTO 13004KT 10SM CLR M02/M06 A3019 830 75 -1000 130/04 RMK AO2 TSNO
94908KDBQ DBQ20000303011510603/03/00 01:15:31  5-MIN KDBQ 030715Z AUTO 15003KT 10SM CLR M02/M06 A3019 830 75 -1000 150/03 RMK AO2 TSNO
94908KDBQ DBQ20000303012010603/03/00 01:20:31  5-MIN KDBQ 030720Z AUTO 00000KT 10SM CLR M03/M06 A3020 820 78 -1100 000/00 RMK AO2 TSNO
94908KDBQ DBQ20000303012510603/03/00 01:25:31  5-MIN KDBQ 030725Z AUTO VRB03KT 10SM CLR M03/M06 A3020 820 78 -1100 VRB/03 RMK AO2 TSNO
94908KDBQ DBQ20000303013010603/03/00 01:30:31  5-MIN KDBQ 030730Z AUTO 00000KT 10SM CLR M03/M06 A3020 820 81 -1100 000/00 RMK AO2 TSNO
94908KDBQ DBQ20000303013510603/03/00 01:35:31  5-MIN KDBQ 030735Z AUTO 18003KT 10SM CLR M03/M06 A3020 820 81 -1100 180/03 RMK AO2 TSNO
94908KDBQ DBQ20000303014010603/03/00 01:40:31  5-MIN KDBQ 030740Z AUTO 17003KT 10SM CLR M03/M06 A3020 820 81 -1100 170/03 RMK AO2 TSNO
94908KDBQ DBQ20000303014510603/03/00 01:45:31  5-MIN KDBQ 030745Z AUTO 17004KT 10SM CLR M03/M06 A3020 820 81 -1100 170/04 RMK AO2 TSNO
94908KDBQ DBQ20000303015012303/03/00 01:50:31  5-MIN KDBQ 030750Z AUTO 16004KT 10SM CLR M03/M06 A3020 820 78 -1100 160/04 RMK AO2 SLP236 T10281061 TSNO
94908KDBQ DBQ20000303015512303/03/00 01:55:31  5-MIN KDBQ 030755Z AUTO 16005KT 10SM CLR M03/M06 A3020 820 81 -1100 160/05 RMK AO2 SLP237 T10331061 TSNO
94908KDBQ DBQ20000303020010603/03/00 02:00:31  5-MIN KDBQ 030800Z AUTO 16004KT 10SM CLR M03/M06 A3020 820 78 -1100 150/04 RMK AO2 TSNO
94908KDBQ DBQ20000303020510603/03/00 02:05:31  5-MIN KDBQ 030805Z AUTO 17003KT 10SM CLR M02/M06 A3020 830 75 -1000 170/03 RMK AO2 TSNO
94908KDBQ DBQ20000303021010603/03/00 02:10:31  5-MIN KDBQ 030810Z AUTO 17004KT 10SM CLR M03/M06 A3019 830 78 -1100 170/04 RMK AO2 TSNO
94908KDBQ DBQ20000303021510603/03/00 02:15:31  5-MIN KDBQ 030815Z AUTO 18003KT 10SM CLR M03/M06 A3019 830 81 -1100 170/03 RMK AO2 TSNO
94908KDBQ DBQ20000303022010603/03/00 02:20:31  5-MIN KDBQ 030820Z AUTO 00000KT 10SM CLR M04/M07 A3019 830 81 -1200 000/00 RMK AO2 TSNO
94908KDBQ DBQ20000303022510603/03/00 02:25:31  5-MIN KDBQ 030825Z AUTO 00000KT 10SM CLR M03/M07 A3019 830 78 -1100 000/00 RMK AO2 TSNO
94908KDBQ DBQ20000303023010603/03/00 02:30:31  5-MIN KDBQ 030830Z AUTO 00000KT 10SM CLR M02/M06 A3019 830 75 -1000 000/00 RMK AO2 TSNO
94908KDBQ DBQ20000303023510503/03/00 02:35:31  5-MIN KDBQ 030835Z AUTO 15003KT 10SM CLR M02/M06 A3018 840 72 -900 150/03 RMK AO2 TSNO
94908KDBQ DBQ20000303024010503/03/00 02:40:31  5-MIN KDBQ 030840Z AUTO 15003KT 10SM CLR M02/M06 A3018 840 72 -900 150/03 RMK AO2 TSNO
94908KDBQ DBQ20000303024510603/03/00 02:45:31  5-MIN KDBQ 030845Z AUTO 15003KT 10SM CLR M02/M06 A3018 840 75 -1000 150/03 RMK AO2 TSNO
94908KDBQ DBQ20000303025012903/03/00 02:50:31  5-MIN KDBQ 030850Z AUTO 00000KT 10SM CLR M03/M06 A3017 840 78 -1000 000/00 RMK AO2 SLP229 T10281061 56014 TSNO
94908KDBQ DBQ20000303025512903/03/00 02:55:31  5-MIN KDBQ 030855Z AUTO 00000KT 10SM CLR M02/M06 A3018 840 75 -1000 000/00 RMK AO2 SLP230 T10221061 58001 TSNO
94908KDBQ DBQ20000303030010603/03/00 03:00:31  5-MIN KDBQ 030900Z AUTO 00000KT 10SM CLR M03/M06 A3017 850 81 -1100 000/00 RMK AO2 TSNO
94908KDBQ DBQ20000303030510603/03/00 03:05:31  5-MIN KDBQ 030905Z AUTO 00000KT 10SM CLR M02/M06 A3017 850 75 -1000 000/00 RMK AO2 TSNO
94908KDBQ DBQ20000303031010603/03/00 03:10:31  5-MIN KDBQ 030910Z AUTO 00000KT 10SM CLR M03/M06 A3017 850 78 -1000 000/00 RMK AO2 TSNO
94908KDBQ DBQ20000303031510603/03/00 03:15:31  5-MIN KDBQ 030915Z AUTO 00000KT 10SM CLR M02/M06 A3017 850 75 -1000 000/00 RMK AO2 TSNO
94908KDBQ DBQ20000303032010603/03/00 03:20:31  5-MIN KDBQ 030920Z AUTO 00000KT 10SM CLR M03/M06 A3017 850 78 -1000 000/00 RMK AO2 TSNO
94908KDBQ DBQ20000303032510603/03/00 03:25:31  5-MIN KDBQ 030925Z AUTO 00000KT 10SM CLR M02/M06 A3017 850 75 -1000 000/00 RMK AO2 TSNO
94908KDBQ DBQ20000303033010603/03/00 03:30:31  5-MIN KDBQ 030930Z AUTO 14003KT 10SM CLR M02/M06 A3017 850 75 -1000 130/03 RMK AO2 TSNO
94908KDBQ DBQ20000303033510603/03/00 03:35:31  5-MIN KDBQ 030935Z AUTO 00000KT 10SM CLR M02/M06 A3017 850 75 -1000 000/00 RMK AO2 TSNO
94908KDBQ DBQ20000303034010603/03/00 03:40:31  5-MIN KDBQ 030940Z AUTO 08003KT 10SM CLR M03/M07 A3017 850 75 -1000 080/03 RMK AO2 TSNO
94908KDBQ DBQ20000303034510603/03/00 03:45:31  5-MIN KDBQ 030945Z AUTO 00000KT 10SM CLR M03/M07 A3017 850 78 -1100 000/00 RMK AO2 TSNO
94908KDBQ DBQ20000303035012303/03/00 03:50:31  5-MIN KDBQ 030950Z AUTO 06003KT 10SM CLR M03/M06 A3017 850 78 -1000 060/03 RMK AO2 SLP228 T10281061 TSNO
94908KDBQ DBQ20000303035512303/03/00 03:55:31  5-MIN KDBQ 030955Z AUTO 02005KT 10SM CLR M04/M07 A3017 850 78 -1200 020/05 RMK AO2 SLP227 T10391072 TSNO
94908KDBQ DBQ20000303040010603/03/00 04:00:31  5-MIN KDBQ 031000Z AUTO 03005KT 10SM CLR M03/M07 A3017 850 78 -1100 030/05 RMK AO2 TSNO
94908KDBQ DBQ20000303040510603/03/00 04:05:31  5-MIN KDBQ 031005Z AUTO 02006KT 10SM CLR M03/M07 A3017 850 78 -1100 020/06 RMK AO2 TSNO
94908KDBQ DBQ20000303041010603/03/00 04:10:31  5-MIN KDBQ 031010Z AUTO 03006KT 10SM CLR M03/M07 A3016 860 78 -1100 030/06 RMK AO2 TSNO
94908KDBQ DBQ20000303041510603/03/00 04:15:31  5-MIN KDBQ 031015Z AUTO 02006KT 10SM CLR M04/M07 A3016 860 81 -1200 020/06 RMK AO2 TSNO
94908KDBQ DBQ20000303042010603/03/00 04:20:31  5-MIN KDBQ 031020Z AUTO 01004KT 10SM CLR M04/M07 A3016 860 81 -1200 010/04 RMK AO2 TSNO
94908KDBQ DBQ20000303042510603/03/00 04:25:31  5-MIN KDBQ 031025Z AUTO 02006KT 10SM CLR M03/M06 A3016 860 81 -1100 020/06 RMK AO2 TSNO
94908KDBQ DBQ20000303043010603/03/00 04:30:31  5-MIN KDBQ 031030Z AUTO 03006KT 10SM CLR M04/M07 A3016 860 81 -1200 030/06 RMK AO2 TSNO
94908KDBQ DBQ20000303043510603/03/00 04:35:31  5-MIN KDBQ 031035Z AUTO 03005KT 10SM CLR M03/M06 A3016 860 81 -1100 030/05 RMK AO2 TSNO
94908KDBQ DBQ20000303044010603/03/00 04:40:31  5-MIN KDBQ 031040Z AUTO 02005KT 10SM CLR M04/M06 A3015 870 85 -1200 020/05 RMK AO2 TSNO
94908KDBQ DBQ20000303044510603/03/00 04:45:31  5-MIN KDBQ 031045Z AUTO 02005KT 10SM CLR M03/M06 A3015 860 85 -1100 020/05 RMK AO2 TSNO
94908KDBQ DBQ20000303045012303/03/00 04:50:31  5-MIN KDBQ 031050Z AUTO 02004KT 10SM CLR M03/M06 A3015 870 85 -1100 020/04 RMK AO2 SLP221 T10331056 TSNO
94908KDBQ DBQ20000303045512303/03/00 04:55:31  5-MIN KDBQ 031055Z AUTO 00000KT 10SM CLR M04/M06 A3015 860 85 -1200 000/00 RMK AO2 SLP223 T10391061 TSNO
94908KDBQ DBQ20000303050010603/03/00 05:00:31  5-MIN KDBQ 031100Z AUTO 00000KT 10SM CLR M04/M06 A3015 860 85 -1200 000/00 RMK AO2 TSNO
94908KDBQ DBQ20000303050510603/03/00 05:05:31  5-MIN KDBQ 031105Z AUTO 00000KT 10SM CLR M04/M06 A3015 860 88 -1200 000/00 RMK AO2 TSNO
94908KDBQ DBQ20000303051010603/03/00 05:10:31  5-MIN KDBQ 031110Z AUTO 00000KT 10SM CLR M04/M06 A3015 870 88 -1200 000/00 RMK AO2 TSNO
94908KDBQ DBQ20000303051510603/03/00 05:15:31  5-MIN KDBQ 031115Z AUTO 00000KT 10SM CLR M05/M06 A3015 870 92 -1300 000/00 RMK AO2 TSNO
94908KDBQ DBQ20000303052010603/03/00 05:20:31  5-MIN KDBQ 031120Z AUTO 02004KT 10SM CLR M04/M07 A3014 880 84 -1200 020/04 RMK AO2 TSNO
94908KDBQ DBQ20000303052510603/03/00 05:25:31  5-MIN KDBQ 031125Z AUTO 05005KT 10SM CLR M04/M07 A3014 880 84 -1200 050/05 RMK AO2 TSNO
94908KDBQ DBQ20000303053010603/03/00 05:30:31  5-MIN KDBQ 031130Z AUTO 01005KT 10SM CLR M04/M07 A3014 880 81 -1100 010/05 RMK AO2 TSNO
94908KDBQ DBQ20000303053510603/03/00 05:35:31  5-MIN KDBQ 031135Z AUTO 02007KT 10SM CLR M05/M07 A3013 890 88 -1300 020/07 RMK AO2 TSNO
94908KDBQ DBQ20000303054010603/03/00 05:40:31  5-MIN KDBQ 031140Z AUTO 03008KT 10SM CLR M04/M06 A3013 880 88 -1200 030/08 RMK AO2 TSNO
94908KDBQ DBQ20000303054510603/03/00 05:45:31  5-MIN KDBQ 031145Z AUTO 34004KT 10SM CLR M05/M07 A3013 880 88 -1300 340/04 RMK AO2 TSNO
94908KDBQ DBQ20000303055014103/03/00 05:50:31  5-MIN KDBQ 031150Z AUTO 04006KT 10SM CLR M05/M07 A3013 890 88 -1300 040/06 RMK AO2 SLP216 T10501067 11006 21050 58001 TSNO
94908KDBQ DBQ20000303055514103/03/00 05:55:31  5-MIN KDBQ 031155Z AUTO 01006KT 10SM CLR M06/M07 A3013 890 88 -1300 010/06 RMK AO2 SLP216 T10561072 11006 21056 58016 TSNO
94908KDBQ DBQ20000303060010603/03/00 06:00:31  5-MIN KDBQ 031200Z AUTO 01005KT 10SM CLR M05/M07 A3013 880 88 -1300 010/05 RMK AO2 TSNO
94908KDBQ DBQ20000303060510603/03/00 06:05:31  5-MIN KDBQ 031205Z AUTO 00000KT 10SM CLR M06/M07 A3014 880 88 -1400 000/00 RMK AO2 TSNO
94908KDBQ DBQ20000303061010603/03/00 06:10:31  5-MIN KDBQ 031210Z AUTO 00000KT 10SM CLR M05/M07 A3014 880 88 -1300 000/00 RMK AO2 TSNO
94908KDBQ DBQ20000303061510603/03/00 06:15:31  5-MIN KDBQ 031215Z AUTO 00000KT 10SM CLR M05/M07 A3014 880 88 -1300 000/00 RMK AO2 TSNO
94908KDBQ DBQ20000303062010603/03/00 06:20:31  5-MIN KDBQ 031220Z AUTO 00000KT 10SM CLR M06/M07 A3014 870 92 -1400 000/00 RMK AO2 TSNO
94908KDBQ DBQ20000303062510603/03/00 06:25:31  5-MIN KDBQ 031225Z AUTO 00000KT 10SM CLR M06/M07 A3015 870 92 -1400 000/00 RMK AO2 TSNO
94908KDBQ DBQ20000303063010603/03/00 06:30:31  5-MIN KDBQ 031230Z AUTO 22004KT 10SM CLR M05/M07 A3015 860 88 -1300 220/04 RMK AO2 TSNO
94908KDBQ DBQ20000303063510603/03/00 06:35:31  5-MIN KDBQ 031235Z AUTO 18004KT 10SM CLR M06/M07 A3015 860 92 -1400 180/04 RMK AO2 TSNO
94908KDBQ DBQ20000303064010503/03/00 06:40:31  5-MIN KDBQ 031240Z AUTO 19003KT 9SM CLR M06/M07 A3016 860 92 -1400 190/03 RMK AO2 TSNO
94908KDBQ DBQ20000303064510503/03/00 06:45:31  5-MIN KDBQ 031245Z AUTO 00000KT 9SM CLR M06/M07 A3016 860 92 -1400 000/00 RMK AO2 TSNO
94908KDBQ DBQ20000303065011203/03/00 06:50:31  5-MIN KDBQ 031250Z 00000KT 8SM CLR M06/M07 A3016 860 92 -1400 000/00 RMK AO2 SLP225 T10561067
94908KDBQ DBQ20000303065511203/03/00 06:55:31  5-MIN KDBQ 031255Z 00000KT 7SM CLR M05/M07 A3016 860 88 -1300 000/00 RMK AO2 SLP225 T10501067
94908KDBQ DBQ20000303070009503/03/00 07:00:31  5-MIN KDBQ 031300Z 15004KT 8SM CLR M05/M07 A3016 860 88 -1300 150/04 RMK AO2
94908KDBQ DBQ20000303070509503/03/00 07:05:31  5-MIN KDBQ 031305Z 17004KT 8SM CLR M05/M07 A3016 860 88 -1300 170/04 RMK AO2
94908KDBQ DBQ20000303071009503/03/00 07:10:31  5-MIN KDBQ 031310Z 16005KT 8SM CLR M05/M07 A3016 860 88 -1300 160/05 RMK AO2
94908KDBQ DBQ20000303071509503/03/00 07:15:31  5-MIN KDBQ 031315Z 17004KT 8SM CLR M04/M06 A3016 860 88 -1200 170/04 RMK AO2
94908KDBQ DBQ20000303072009503/03/00 07:20:31  5-MIN KDBQ 031320Z 00000KT 8SM CLR M04/M06 A3016 850 88 -1200 000/00 RMK AO2
94908KDBQ DBQ20000303072509503/03/00 07:25:31  5-MIN KDBQ 031325Z 00000KT 8SM CLR M04/M06 A3017 850 88 -1200 000/00 RMK AO2
94908KDBQ DBQ20000303073009503/03/00 07:30:31  5-MIN KDBQ 031330Z 00000KT 8SM CLR M03/M05 A3016 850 88 -1100 000/00 RMK AO2
94908KDBQ DBQ20000303073509503/03/00 07:35:31  5-MIN KDBQ 031335Z 00000KT 8SM CLR M03/M05 A3017 850 88 -1100 000/00 RMK AO2
94908KDBQ DBQ20000303074009503/03/00 07:40:31  5-MIN KDBQ 031340Z 00000KT 8SM CLR M03/M04 A3017 850 88 -1000 000/00 RMK AO2
94908KDBQ DBQ20000303074509503/03/00 07:45:31  5-MIN KDBQ 031345Z 00000KT 8SM CLR M03/M04 A3017 850 88 -1000 000/00 RMK AO2
94908KDBQ DBQ20000303075011203/03/00 07:50:31  5-MIN KDBQ 031350Z 00000KT 8SM CLR M02/M04 A3017 850 88 -1000 000/00 RMK AO2 SLP229 T10221039
94908KDBQ DBQ20000303075511203/03/00 07:55:31  5-MIN KDBQ 031355Z 00000KT 8SM CLR M02/M04 A3017 850 88 -1000 000/00 RMK AO2 SLP228 T10221039
94908KDBQ DBQ20000303080009403/03/00 08:00:31  5-MIN KDBQ 031400Z 00000KT 8SM CLR M02/M03 A3017 850 88 -900 000/00 RMK AO2
94908KDBQ DBQ20000303080509403/03/00 08:05:31  5-MIN KDBQ 031405Z 00000KT 8SM CLR M02/M03 A3017 850 88 -900 000/00 RMK AO2
94908KDBQ DBQ20000303081009403/03/00 08:10:31  5-MIN KDBQ 031410Z 00000KT 8SM CLR M02/M03 A3017 850 88 -900 000/00 RMK AO2
94908KDBQ DBQ20000303081509403/03/00 08:15:31  5-MIN KDBQ 031415Z 21003KT 8SM CLR M01/M03 A3017 850 85 -800 210/03 RMK AO2
94908KDBQ DBQ20000303082009403/03/00 08:20:31  5-MIN KDBQ 031420Z 22003KT 8SM CLR M01/M03 A3017 850 85 -800 220/03 RMK AO2
94908KDBQ DBQ20000303082509403/03/00 08:25:31  5-MIN KDBQ 031425Z 23003KT 8SM CLR M01/M03 A3017 850 85 -800 230/03 RMK AO2
94908KDBQ DBQ20000303083009403/03/00 08:30:31  5-MIN KDBQ 031430Z 23004KT 8SM CLR M01/M03 A3017 850 85 -800 230/04 RMK AO2
94908KDBQ DBQ20000303083509403/03/00 08:35:31  5-MIN KDBQ 031435Z 23003KT 8SM CLR M01/M03 A3017 850 81 -800 230/03 RMK AO2
94908KDBQ DBQ20000303084009403/03/00 08:40:31  5-MIN KDBQ 031440Z 22003KT 8SM CLR M01/M03 A3017 850 85 -800 220/03 RMK AO2
94908KDBQ DBQ20000303084509303/03/00 08:45:31  5-MIN KDBQ 031445Z 26003KT 8SM CLR 00/M03 A3016 850 81 -700 260/03 RMK AO2
94908KDBQ DBQ20000303085011603/03/00 08:50:31  5-MIN KDBQ 031450Z 27003KT 8SM CLR 01/M03 A3016 860 78 -600 270/03 RMK AO2 SLP226 T00061028 58016
94908KDBQ DBQ20000303085511603/03/00 08:55:31  5-MIN KDBQ 031455Z 00000KT 9SM CLR 01/M04 A3016 860 69 -500 000/00 RMK AO2 SLP225 T00111039 50010
94908KDBQ DBQ20000303090009403/03/00 09:00:31  5-MIN KDBQ 031500Z 25003KT 10SM CLR 01/M04 A3016 860 66 -500 240/03 RMK AO2
94908KDBQ DBQ20000303090509403/03/00 09:05:31  5-MIN KDBQ 031505Z 00000KT 10SM CLR 01/M07 A3016 860 56 -500 000/00 RMK AO2
94908KDBQ DBQ20000303091009403/03/00 09:10:31  5-MIN KDBQ 031510Z 00000KT 10SM CLR 02/M06 A3016 860 59 -500 000/00 RMK AO2
94908KDBQ DBQ20000303091509403/03/00 09:15:31  5-MIN KDBQ 031515Z 00000KT 10SM CLR 02/M05 A3016 860 59 -400 000/00 RMK AO2
94908KDBQ DBQ20000303092009403/03/00 09:20:31  5-MIN KDBQ 031520Z 00000KT 10SM CLR 02/M07 A3015 860 52 -400 000/00 RMK AO2
94908KDBQ DBQ20000303092509403/03/00 09:25:31  5-MIN KDBQ 031525Z 33003KT 10SM CLR 02/M06 A3015 870 54 -400 330/03 RMK AO2
94908KDBQ DBQ20000303093009403/03/00 09:30:31  5-MIN KDBQ 031530Z 00000KT 10SM CLR 02/M06 A3015 870 54 -400 000/00 RMK AO2
94908KDBQ DBQ20000303093509403/03/00 09:35:31  5-MIN KDBQ 031535Z 00000KT 10SM CLR 02/M07 A3015 870 52 -400 000/00 RMK AO2
94908KDBQ DBQ20000303094009403/03/00 09:40:31  5-MIN KDBQ 031540Z 19005KT 10SM CLR 02/M06 A3015 870 54 -400 190/05 RMK AO2
94908KDBQ DBQ20000303094509403/03/00 09:45:31  5-MIN KDBQ 031545Z VRB04KT 10SM CLR 02/M06 A3015 870 54 -400 VRB/04 RMK AO2
94908KDBQ DBQ20000303095011103/03/00 09:50:31  5-MIN KDBQ 031550Z VRB03KT 10SM CLR 03/M06 A3015 870 52 -300 VRB/03 RMK AO2 SLP220 T00281061
94908KDBQ DBQ20000303095511103/03/00 09:55:31  5-MIN KDBQ 031555Z 00000KT 10SM CLR 03/M06 A3015 870 54 -300 000/00 RMK AO2 SLP220 T00281056
94908KDBQ DBQ20000303100009403/03/00 10:00:31  5-MIN KDBQ 031600Z 15003KT 10SM CLR 03/M06 A3015 870 54 -300 150/03 RMK AO2
94908KDBQ DBQ20000303100509403/03/00 10:05:31  5-MIN KDBQ 031605Z 14003KT 10SM CLR 03/M06 A3014 870 54 -300 140/03 RMK AO2
94908KDBQ DBQ20000303101009403/03/00 10:10:31  5-MIN KDBQ 031610Z VRB03KT 10SM CLR 03/M06 A3014 880 52 -300 VRB/03 RMK AO2
94908KDBQ DBQ20000303101509403/03/00 10:15:31  5-MIN KDBQ 031615Z 00000KT 10SM CLR 03/M06 A3014 880 52 -200 000/00 RMK AO2
94908KDBQ DBQ20000303102009403/03/00 10:20:31  5-MIN KDBQ 031620Z 00000KT 10SM CLR 04/M05 A3014 880 52 -200 000/00 RMK AO2
94908KDBQ DBQ20000303102509403/03/00 10:25:31  5-MIN KDBQ 031625Z 25004KT 10SM CLR 03/M05 A3014 880 54 -200 240/04 RMK AO2
94908KDBQ DBQ20000303103009403/03/00 10:30:31  5-MIN KDBQ 031630Z VRB03KT 10SM CLR 03/M05 A3014 880 54 -200 VRB/03 RMK AO2
94908KDBQ DBQ20000303103509403/03/00 10:35:31  5-MIN KDBQ 031635Z 23006KT 10SM CLR 04/M04 A3014 880 54 -200 230/06 RMK AO2
94908KDBQ DBQ20000303104009403/03/00 10:40:31  5-MIN KDBQ 031640Z VRB03KT 10SM CLR 03/M06 A3013 880 52 -200 VRB/03 RMK AO2
94908KDBQ DBQ20000303104509403/03/00 10:45:31  5-MIN KDBQ 031645Z 00000KT 10SM CLR 04/M06 A3013 880 50 -200 000/00 RMK AO2
94908KDBQ DBQ20000303105011103/03/00 10:50:31  5-MIN KDBQ 031650Z 00000KT 10SM CLR 04/M06 A3013 890 48 -200 000/00 RMK AO2 SLP213 T00391061
94908KDBQ DBQ20000303105511103/03/00 10:55:31  5-MIN KDBQ 031655Z 00000KT 10SM CLR 04/M06 A3013 880 48 -100 000/00 RMK AO2 SLP213 T00441056
94908KDBQ DBQ20000303110009403/03/00 11:00:31  5-MIN KDBQ 031700Z 05005KT 10SM CLR 04/M06 A3013 890 46 -100 050/05 RMK AO2
94908KDBQ DBQ20000303110509103/03/00 11:05:31  5-MIN KDBQ 031705Z 04005KT 10SM CLR 05/M06 A3013 890 46 0 040/05 RMK AO2
94908KDBQ DBQ20000303111009403/03/00 11:10:31  5-MIN KDBQ 031710Z 00000KT 10SM CLR 04/M07 A3012 890 44 -100 000/00 RMK AO2
94908KDBQ DBQ20000303111509403/03/00 11:15:31  5-MIN KDBQ 031715Z VRB04KT 10SM CLR 04/M07 A3012 890 44 -100 VRB/04 RMK AO2
94908KDBQ DBQ20000303112009103/03/00 11:20:31  5-MIN KDBQ 031720Z 02005KT 10SM CLR 05/M06 A3012 890 44 0 020/05 RMK AO2
94908KDBQ DBQ20000303112509103/03/00 11:25:31  5-MIN KDBQ 031725Z 01003KT 10SM CLR 05/M06 A3012 900 46 0 010/03 RMK AO2
94908KDBQ DBQ20000303113009403/03/00 11:30:31  5-MIN KDBQ 031730Z 00000KT 10SM CLR 04/M07 A3012 900 44 -100 000/00 RMK AO2
94908KDBQ DBQ20000303113509403/03/00 11:35:31  5-MIN KDBQ 031735Z 00000KT 10SM CLR 04/M06 A3011 900 46 -100 000/00 RMK AO2
94908KDBQ DBQ20000303114009103/03/00 11:40:31  5-MIN KDBQ 031740Z 00000KT 10SM CLR 06/M06 A3011 900 44 0 000/00 RMK AO2
94908KDBQ DBQ20000303114509103/03/00 11:45:31  5-MIN KDBQ 031745Z VRB04KT 10SM CLR 06/M07 A3011 900 41 0 VRB/04 RMK AO2
94908KDBQ DBQ20000303115012603/03/00 11:50:31  5-MIN KDBQ 031750Z 00000KT 10SM CLR 05/M07 A3011 910 42 0 000/00 RMK AO2 SLP206 T00501067 10056 21061 50010
94908KDBQ DBQ20000303115512603/03/00 11:55:31  5-MIN KDBQ 031755Z 00000KT 10SM CLR 05/M07 A3010 910 41 0 000/00 RMK AO2 SLP204 T00501072 10056 21061 58019
94908KDBQ DBQ20000303120009103/03/00 12:00:31  5-MIN KDBQ 031800Z VRB04KT 10SM CLR 06/M07 A3011 910 41 0 VRB/04 RMK AO2
94908KDBQ DBQ20000303120509303/03/00 12:05:31  5-MIN KDBQ 031805Z VRB03KT 10SM CLR 06/M07 A3010 910 39 100 VRB/03 RMK AO2
94908KDBQ DBQ20000303121009303/03/00 12:10:31  5-MIN KDBQ 031810Z 08003KT 10SM CLR 06/M07 A3010 910 39 100 070/03 RMK AO2
94908KDBQ DBQ20000303121509103/03/00 12:15:31  5-MIN KDBQ 031815Z 35004KT 10SM CLR 06/M07 A3009 920 41 0 350/04 RMK AO2
94908KDBQ DBQ20000303122009303/03/00 12:20:31  5-MIN KDBQ 031820Z VRB04KT 10SM CLR 06/M07 A3009 920 39 100 VRB/04 RMK AO2
94908KDBQ DBQ20000303122509303/03/00 12:25:31  5-MIN KDBQ 031825Z 00000KT 10SM CLR 06/M07 A3009 920 39 100 000/00 RMK AO2
94908KDBQ DBQ20000303123009303/03/00 12:30:31  5-MIN KDBQ 031830Z VRB03KT 10SM CLR 06/M07 A3008 930 39 100 VRB/03 RMK AO2
94908KDBQ DBQ20000303123509303/03/00 12:35:31  5-MIN KDBQ 031835Z VRB05KT 10SM CLR 07/M06 A3008 930 39 200 VRB/05 RMK AO2
94908KDBQ DBQ20000303124009303/03/00 12:40:31  5-MIN KDBQ 031840Z VRB03KT 10SM CLR 06/M07 A3008 940 41 100 VRB/03 RMK AO2
94908KDBQ DBQ20000303124509303/03/00 12:45:31  5-MIN KDBQ 031845Z VRB03KT 10SM CLR 06/M07 A3007 940 39 100 VRB/03 RMK AO2
94908KDBQ DBQ20000303125011003/03/00 12:50:31  5-MIN KDBQ 031850Z VRB04KT 10SM CLR 07/M07 A3007 940 36 200 VRB/04 RMK AO2 SLP193 T00671072
94908KDBQ DBQ20000303125511003/03/00 12:55:31  5-MIN KDBQ 031855Z VRB03KT 10SM CLR 06/M07 A3006 950 38 100 VRB/03 RMK AO2 SLP191 T00611072
94908KDBQ DBQ20000303130009303/03/00 13:00:31  5-MIN KDBQ 031900Z VRB03KT 10SM CLR 07/M07 A3006 950 36 200 VRB/03 RMK AO2
94908KDBQ DBQ20000303130509303/03/00 13:05:31  5-MIN KDBQ 031905Z VRB03KT 10SM CLR 07/M07 A3006 950 36 200 VRB/03 RMK AO2
94908KDBQ DBQ20000303131009303/03/00 13:10:31  5-MIN KDBQ 031910Z VRB03KT 10SM CLR 07/M07 A3006 950 36 200 VRB/03 RMK AO2
94908KDBQ DBQ20000303131509303/03/00 13:15:31  5-MIN KDBQ 031915Z 00000KT 10SM CLR 07/M08 A3005 960 33 300 000/00 RMK AO2
94908KDBQ DBQ20000303132009303/03/00 13:20:31  5-MIN KDBQ 031920Z VRB03KT 10SM CLR 07/M07 A3005 960 35 300 VRB/03 RMK AO2
94908KDBQ DBQ20000303132509303/03/00 13:25:31  5-MIN KDBQ 031925Z 31005KT 10SM CLR 07/M07 A3005 960 36 300 310/05 RMK AO2
94908KDBQ DBQ20000303133009303/03/00 13:30:31  5-MIN KDBQ 031930Z 28003KT 10SM CLR 07/M07 A3005 960 36 300 280/03 RMK AO2
94908KDBQ DBQ20000303133509303/03/00 13:35:31  5-MIN KDBQ 031935Z VRB04KT 10SM CLR 07/M06 A3005 960 38 300 VRB/04 RMK AO2
94908KDBQ DBQ20000303134009303/03/00 13:40:31  5-MIN KDBQ 031940Z 35004KT 10SM CLR 07/M07 A3004 970 36 300 340/04 RMK AO2
94908KDBQ DBQ20000303134509303/03/00 13:45:31  5-MIN KDBQ 031945Z VRB04KT 10SM CLR 07/M07 A3004 970 35 300 VRB/04 RMK AO2
94908KDBQ DBQ20000303135011003/03/00 13:50:31  5-MIN KDBQ 031950Z 00000KT 10SM CLR 07/M07 A3004 970 36 300 000/00 RMK AO2 SLP181 T00721067
94908KDBQ DBQ20000303135511003/03/00 13:55:31  5-MIN KDBQ 031955Z 00000KT 10SM CLR 07/M07 A3003 970 36 300 000/00 RMK AO2 SLP181 T00721067
94908KDBQ DBQ20000303140009303/03/00 14:00:31  5-MIN KDBQ 032000Z 00000KT 10SM CLR 08/M07 A3003 980 35 400 000/00 RMK AO2
94908KDBQ DBQ20000303140509303/03/00 14:05:31  5-MIN KDBQ 032005Z 00000KT 10SM CLR 07/M07 A3003 980 35 300 000/00 RMK AO2
94908KDBQ DBQ20000303141009303/03/00 14:10:31  5-MIN KDBQ 032010Z VRB03KT 10SM CLR 07/M07 A3003 980 35 300 VRB/03 RMK AO2
94908KDBQ DBQ20000303141509303/03/00 14:15:31  5-MIN KDBQ 032015Z 00000KT 10SM CLR 08/M07 A3003 980 35 400 000/00 RMK AO2
94908KDBQ DBQ20000303142009303/03/00 14:20:31  5-MIN KDBQ 032020Z 00000KT 10SM CLR 08/M07 A3003 980 35 400 000/00 RMK AO2
94908KDBQ DBQ20000303142509303/03/00 14:25:31  5-MIN KDBQ 032025Z 23004KT 10SM CLR 08/M06 A3002 980 35 500 230/04 RMK AO2
94908KDBQ DBQ20000303143009303/03/00 14:30:31  5-MIN KDBQ 032030Z 00000KT 10SM CLR 08/M07 A3002 990 35 400 000/00 RMK AO2
94908KDBQ DBQ20000303143509203/03/00 14:35:31  5-MIN KDBQ 032035Z VRB04KT 9SM CLR 08/M07 A3002 990 34 400 VRB/04 RMK AO2
94908KDBQ DBQ20000303144009203/03/00 14:40:31  5-MIN KDBQ 032040Z VRB04KT 7SM CLR 08/M07 A3002 990 32 500 VRB/04 RMK AO2
94908KDBQ DBQ20000303144509503/03/00 14:45:31  5-MIN KDBQ 032045Z 08004KT 6SM HZ CLR 08/M07 A3002 990 34 400 080/04 RMK AO2
94908KDBQ DBQ20000303145011803/03/00 14:50:31  5-MIN KDBQ 032050Z VRB04KT 5SM HZ CLR 08/M07 A3002 990 32 500 VRB/04 RMK AO2 SLP176 T00831072 58019
94908KDBQ DBQ20000303145511803/03/00 14:55:31  5-MIN KDBQ 032055Z VRB03KT 4SM HZ CLR 08/M08 A3002 990 32 400 VRB/03 RMK AO2 SLP175 T00781078 56028
94908KDBQ DBQ20000303150009203/03/00 15:00:31  5-MIN KDBQ 032100Z 25003KT 8SM CLR 08/M07 A3002 990 34 500 250/03 RMK AO2
94908KDBQ DBQ20000303150509203/03/00 15:05:31  5-MIN KDBQ 032105Z VRB03KT 8SM CLR 08/M07 A3001 990 34 500 VRB/03 RMK AO2
94908KDBQ DBQ20000303151009203/03/00 15:10:31  5-MIN KDBQ 032110Z 29003KT 8SM CLR 08/M07 A3001 990 34 500 280/03 RMK AO2
94908KDBQ DBQ20000303151509203/03/00 15:15:31  5-MIN KDBQ 032115Z 00000KT 8SM CLR 08/M07 A3001 990 34 500 000/00 RMK AO2
94908KDBQ DBQ20000303152009203/03/00 15:20:31  5-MIN KDBQ 032120Z 00000KT 8SM CLR 09/M06 A3001 990 34 500 000/00 RMK AO2
94908KDBQ DBQ20000303152509303/03/00 15:25:31  5-MIN KDBQ 032125Z 00000KT 8SM CLR 08/M07 A3001 1000 32 500 000/00 RMK AO2
94908KDBQ DBQ20000303153009303/03/00 15:30:31  5-MIN KDBQ 032130Z VRB03KT 8SM CLR 08/M07 A3001 1000 32 500 VRB/03 RMK AO2
94908KDBQ DBQ20000303153509303/03/00 15:35:31  5-MIN KDBQ 032135Z 00000KT 8SM CLR 08/M07 A3001 1000 32 500 000/00 RMK AO2
94908KDBQ DBQ20000303154009303/03/00 15:40:31  5-MIN KDBQ 032140Z 25004KT 8SM CLR 08/M07 A3001 1000 32 500 250/04 RMK AO2
94908KDBQ DBQ20000303154509303/03/00 15:45:31  5-MIN KDBQ 032145Z VRB03KT 8SM CLR 08/M08 A3001 1000 31 500 VRB/03 RMK AO2
94908KDBQ DBQ20000303155011003/03/00 15:50:31  5-MIN KDBQ 032150Z 29003KT 8SM CLR 08/M08 A3001 1000 31 500 290/03 RMK AO2 SLP171 T00831078
94908KDBQ DBQ20000303155511003/03/00 15:55:31  5-MIN KDBQ 032155Z 00000KT 8SM CLR 08/M08 A3001 1000 30 500 000/00 RMK AO2 SLP171 T00831083
94908KDBQ DBQ20000303160009303/03/00 16:00:31  5-MIN KDBQ 032200Z 24003KT 7SM CLR 08/M08 A3001 1000 31 500 240/03 RMK AO2
94908KDBQ DBQ20000303160509303/03/00 16:05:31  5-MIN KDBQ 032205Z 25003KT 8SM CLR 09/M08 A3001 1000 30 500 250/03 RMK AO2
94908KDBQ DBQ20000303161009403/03/00 16:10:31  5-MIN KDBQ 032210Z 00000KT 10SM CLR 08/M08 A3001 1000 31 500 000/00 RMK AO2
94908KDBQ DBQ20000303161509403/03/00 16:15:31  5-MIN KDBQ 032215Z 21005KT 10SM CLR 09/M08 A3001 1000 30 500 210/05 RMK AO2
94908KDBQ DBQ20000303162009403/03/00 16:20:31  5-MIN KDBQ 032220Z 22004KT 10SM CLR 08/M08 A3001 1000 31 500 210/04 RMK AO2
94908KDBQ DBQ20000303162509403/03/00 16:25:31  5-MIN KDBQ 032225Z 00000KT 10SM CLR 08/M08 A3000 1000 30 500 000/00 RMK AO2
94908KDBQ DBQ20000303163009403/03/00 16:30:31  5-MIN KDBQ 032230Z 00000KT 10SM CLR 08/M09 A3000 1000 28 500 000/00 RMK AO2
94908KDBQ DBQ20000303163509403/03/00 16:35:31  5-MIN KDBQ 032235Z 00000KT 10SM CLR 08/M09 A3000 1000 28 500 000/00 RMK AO2
94908KDBQ DBQ20000303164009403/03/00 16:40:31  5-MIN KDBQ 032240Z 00000KT 10SM CLR 09/M09 A3000 1010 27 600 000/00 RMK AO2
94908KDBQ DBQ20000303164509403/03/00 16:45:31  5-MIN KDBQ 032245Z 00000KT 10SM CLR 08/M09 A3000 1010 28 500 000/00 RMK AO2
94908KDBQ DBQ20000303165011103/03/00 16:50:31  5-MIN KDBQ 032250Z 00000KT 10SM CLR 08/M08 A3000 1010 30 500 000/00 RMK AO2 SLP168 T00831083
94908KDBQ DBQ20000303165511103/03/00 16:55:31  5-MIN KDBQ 032255Z 00000KT 10SM CLR 08/M08 A3000 1010 30 500 000/00 RMK AO2 SLP167 T00831083
94908KDBQ DBQ20000303170009403/03/00 17:00:31  5-MIN KDBQ 032300Z 00000KT 10SM CLR 08/M08 A3000 1010 31 500 000/00 RMK AO2
94908KDBQ DBQ20000303170509403/03/00 17:05:31  5-MIN KDBQ 032305Z 00000KT 10SM CLR 08/M08 A2999 1010 31 500 000/00 RMK AO2
94908KDBQ DBQ20000303171009403/03/00 17:10:31  5-MIN KDBQ 032310Z 21003KT 10SM CLR 08/M07 A2999 1010 32 500 210/03 RMK AO2
94908KDBQ DBQ20000303171509403/03/00 17:15:31  5-MIN KDBQ 032315Z 21003KT 10SM CLR 08/M08 A3000 1010 31 500 210/03 RMK AO2
94908KDBQ DBQ20000303172009403/03/00 17:20:31  5-MIN KDBQ 032320Z 19004KT 10SM CLR 08/M07 A3000 1010 35 400 190/04 RMK AO2
94908KDBQ DBQ20000303172509403/03/00 17:25:31  5-MIN KDBQ 032325Z 21003KT 10SM CLR 08/M07 A2999 1010 34 400 210/03 RMK AO2
94908KDBQ DBQ20000303173009403/03/00 17:30:31  5-MIN KDBQ 032330Z 00000KT 10SM CLR 08/M07 A2999 1010 34 400 000/00 RMK AO2
94908KDBQ DBQ20000303173509403/03/00 17:35:31  5-MIN KDBQ 032335Z 00000KT 10SM CLR 08/M08 A2999 1010 32 400 000/00 RMK AO2
94908KDBQ DBQ20000303174009403/03/00 17:40:31  5-MIN KDBQ 032340Z 00000KT 10SM CLR 08/M08 A2999 1010 32 400 000/00 RMK AO2
94908KDBQ DBQ20000303174509403/03/00 17:45:31  5-MIN KDBQ 032345Z 00000KT 10SM CLR 08/M08 A2999 1010 32 400 000/00 RMK AO2
94908KDBQ DBQ20000303175012903/03/00 17:50:31  5-MIN KDBQ 032350Z 00000KT 10SM CLR 07/M07 A2999 1010 36 300 000/00 RMK AO2 SLP167 T00671072 10089 20050 56028
94908KDBQ DBQ20000303175512903/03/00 17:55:31  5-MIN KDBQ 032355Z 00000KT 10SM CLR 07/M07 A2999 1010 38 300 000/00 RMK AO2 SLP167 T00671067 10089 20050 56009
94908KDBQ DBQ20000303180009403/03/00 18:00:31  5-MIN KDBQ 040000Z 00000KT 10SM CLR 07/M06 A2999 1010 39 300 000/00 RMK AO2
94908KDBQ DBQ20000303180509403/03/00 18:05:31  5-MIN KDBQ 040005Z 00000KT 10SM CLR 06/M06 A2999 1010 44 200 000/00 RMK AO2
94908KDBQ DBQ20000303181009403/03/00 18:10:31  5-MIN KDBQ 040010Z 24003KT 10SM CLR 06/M06 A2999 1010 44 200 240/03 RMK AO2
94908KDBQ DBQ20000303181509403/03/00 18:15:31  5-MIN KDBQ 040015Z 00000KT 10SM CLR 06/M06 A2999 1010 44 200 000/00 RMK AO2
94908KDBQ DBQ20000303182009403/03/00 18:20:31  5-MIN KDBQ 040020Z 23003KT 10SM CLR 05/M05 A2999 1010 48 100 220/03 RMK AO2
94908KDBQ DBQ20000303182509403/03/00 18:25:31  5-MIN KDBQ 040025Z 00000KT 10SM CLR 05/M04 A2999 1010 50 100 000/00 RMK AO2
94908KDBQ DBQ20000303183009403/03/00 18:30:31  5-MIN KDBQ 040030Z 23003KT 10SM CLR 05/M04 A2999 1010 50 100 230/03 RMK AO2
94908KDBQ DBQ20000303183509203/03/00 18:35:31  5-MIN KDBQ 040035Z 22003KT 10SM CLR 04/M04 A2999 1010 52 0 220/03 RMK AO2
94908KDBQ DBQ20000303184009203/03/00 18:40:31  5-MIN KDBQ 040040Z 23003KT 10SM CLR 04/M04 A2999 1010 52 0 230/03 RMK AO2
94908KDBQ DBQ20000303184509203/03/00 18:45:31  5-MIN KDBQ 040045Z 23003KT 10SM CLR 04/M04 A2999 1010 52 0 230/03 RMK AO2
94908KDBQ DBQ20000303185010903/03/00 18:50:31  5-MIN KDBQ 040050Z 23003KT 10SM CLR 04/M04 A2999 1010 54 0 230/03 RMK AO2 SLP170 T00391044
94908KDBQ DBQ20000303185510903/03/00 18:55:31  5-MIN KDBQ 040055Z 22003KT 10SM CLR 04/M05 A2999 1010 52 0 220/03 RMK AO2 SLP170 T00391050
94908KDBQ DBQ20000303190009203/03/00 19:00:31  5-MIN KDBQ 040100Z 21003KT 10SM CLR 04/M06 A2999 1010 50 0 210/03 RMK AO2
94908KDBQ DBQ20000303190509203/03/00 19:05:31  5-MIN KDBQ 040105Z 00000KT 10SM CLR 04/M06 A2999 1010 50 0 000/00 RMK AO2
94908KDBQ DBQ20000303191009203/03/00 19:10:31  5-MIN KDBQ 040110Z 24003KT 10SM CLR 04/M06 A2999 1010 50 0 240/03 RMK AO2
94908KDBQ DBQ20000303191509503/03/00 19:15:31  5-MIN KDBQ 040115Z 00000KT 10SM CLR 03/M06 A2999 1010 52 -100 000/00 RMK AO2
94908KDBQ DBQ20000303192009503/03/00 19:20:31  5-MIN KDBQ 040120Z 20003KT 10SM CLR 03/M05 A2999 1010 56 -100 200/03 RMK AO2
94908KDBQ DBQ20000303192509503/03/00 19:25:31  5-MIN KDBQ 040125Z 20003KT 10SM CLR 03/M05 A2999 1010 56 -100 200/03 RMK AO2
94908KDBQ DBQ20000303193009503/03/00 19:30:31  5-MIN KDBQ 040130Z 20003KT 10SM CLR 03/M06 A2999 1010 54 -100 200/03 RMK AO2
94908KDBQ DBQ20000303193509503/03/00 19:35:31  5-MIN KDBQ 040135Z 20003KT 10SM CLR 03/M06 A2999 1010 52 -100 190/03 RMK AO2
94908KDBQ DBQ20000303194009503/03/00 19:40:31  5-MIN KDBQ 040140Z 20004KT 10SM CLR 02/M06 A2999 1010 56 -200 200/04 RMK AO2
94908KDBQ DBQ20000303194509503/03/00 19:45:31  5-MIN KDBQ 040145Z 21004KT 10SM CLR 03/M06 A2999 1010 54 -100 210/04 RMK AO2
94908KDBQ DBQ20000303195011203/03/00 19:50:31  5-MIN KDBQ 040150Z 20004KT 10SM CLR 02/M06 A2999 1020 56 -200 200/04 RMK AO2 SLP167 T00221056
94908KDBQ DBQ20000303195511203/03/00 19:55:31  5-MIN KDBQ 040155Z 20003KT 10SM CLR 02/M06 A2999 1020 54 -200 200/03 RMK AO2 SLP167 T00221061
94908KDBQ DBQ20000303200009503/03/00 20:00:31  5-MIN KDBQ 040200Z 20003KT 10SM CLR 02/M06 A2999 1020 54 -200 200/03 RMK AO2
94908KDBQ DBQ20000303200509503/03/00 20:05:31  5-MIN KDBQ 040205Z 21003KT 10SM CLR 02/M06 A2999 1020 54 -200 210/03 RMK AO2
94908KDBQ DBQ20000303201009503/03/00 20:10:31  5-MIN KDBQ 040210Z 19003KT 10SM CLR 02/M06 A2999 1020 54 -200 190/03 RMK AO2
94908KDBQ DBQ20000303201509503/03/00 20:15:31  5-MIN KDBQ 040215Z 19003KT 10SM CLR 02/M06 A2998 1020 56 -300 190/03 RMK AO2
94908KDBQ DBQ20000303202009503/03/00 20:20:31  5-MIN KDBQ 040220Z 20003KT 10SM CLR 02/M06 A2998 1020 54 -200 200/03 RMK AO2
94908KDBQ DBQ20000303202509503/03/00 20:25:31  5-MIN KDBQ 040225Z 20004KT 10SM CLR 02/M06 A2998 1020 54 -200 200/04 RMK AO2
94908KDBQ DBQ20000303203009503/03/00 20:30:31  5-MIN KDBQ 040230Z 21004KT 10SM CLR 02/M06 A2998 1020 56 -300 210/04 RMK AO2
94908KDBQ DBQ20000303203509503/03/00 20:35:31  5-MIN KDBQ 040235Z 21004KT 10SM CLR 02/M06 A2998 1020 56 -300 210/04 RMK AO2
94908KDBQ DBQ20000303204009503/03/00 20:40:31  5-MIN KDBQ 040240Z 21004KT 10SM CLR 02/M05 A2998 1020 61 -300 210/04 RMK AO2
94908KDBQ DBQ20000303204509503/03/00 20:45:31  5-MIN KDBQ 040245Z 21004KT 10SM CLR 02/M05 A2998 1020 61 -300 210/04 RMK AO2
94908KDBQ DBQ20000303205012803/03/00 20:50:31  5-MIN KDBQ 040250Z AUTO 21005KT 10SM CLR 01/M06 A2998 1020 61 -300 210/05 RMK AO2 SLP163 T00111056 56009 TSNO
94908KDBQ DBQ20000303205512803/03/00 20:55:31  5-MIN KDBQ 040255Z AUTO 20004KT 10SM CLR 01/M06 A2998 1020 61 -300 200/04 RMK AO2 SLP162 T00111056 58004 TSNO
94908KDBQ DBQ20000303210010503/03/00 21:00:31  5-MIN KDBQ 040300Z AUTO 21004KT 10SM CLR 01/M06 A2998 1030 61 -300 210/04 RMK AO2 TSNO
94908KDBQ DBQ20000303210510503/03/00 21:05:31  5-MIN KDBQ 040305Z AUTO 20005KT 10SM CLR 01/M06 A2998 1030 61 -300 200/05 RMK AO2 TSNO
94908KDBQ DBQ20000303211010503/03/00 21:10:31  5-MIN KDBQ 040310Z AUTO 20005KT 10SM CLR 02/M06 A2998 1030 59 -300 200/05 RMK AO2 TSNO
94908KDBQ DBQ20000303211510503/03/00 21:15:31  5-MIN KDBQ 040315Z AUTO 20005KT 10SM CLR 01/M06 A2998 1030 61 -300 200/05 RMK AO2 TSNO
94908KDBQ DBQ20000303212010503/03/00 21:20:31  5-MIN KDBQ 040320Z AUTO 21004KT 10SM CLR 01/M06 A2998 1030 61 -300 210/04 RMK AO2 TSNO
94908KDBQ DBQ20000303212510503/03/00 21:25:31  5-MIN KDBQ 040325Z AUTO 21004KT 10SM CLR 01/M06 A2998 1020 61 -300 210/04 RMK AO2 TSNO
94908KDBQ DBQ20000303213010503/03/00 21:30:31  5-MIN KDBQ 040330Z AUTO 21004KT 10SM CLR 01/M06 A2998 1020 63 -400 210/04 RMK AO2 TSNO
94908KDBQ DBQ20000303213510503/03/00 21:35:31  5-MIN KDBQ 040335Z AUTO 21004KT 10SM CLR 01/M05 A2998 1020 66 -400 210/04 RMK AO2 TSNO
94908KDBQ DBQ20000303214010503/03/00 21:40:31  5-MIN KDBQ 040340Z AUTO 20004KT 10SM CLR 01/M06 A2998 1020 63 -400 200/04 RMK AO2 TSNO
94908KDBQ DBQ20000303214510503/03/00 21:45:31  5-MIN KDBQ 040345Z AUTO 20004KT 10SM CLR 00/M05 A2998 1020 69 -500 200/04 RMK AO2 TSNO
94908KDBQ DBQ20000303215012203/03/00 21:50:31  5-MIN KDBQ 040350Z AUTO 20005KT 10SM CLR 00/M05 A2998 1020 69 -500 200/05 RMK AO2 SLP162 T00001050 TSNO
94908KDBQ DBQ20000303215512203/03/00 21:55:31  5-MIN KDBQ 040355Z AUTO 22004KT 10SM CLR 00/M06 A2998 1020 66 -500 220/04 RMK AO2 SLP163 T00001056 TSNO
94908KDBQ DBQ20000303220010503/03/00 22:00:31  5-MIN KDBQ 040400Z AUTO 22004KT 10SM CLR 00/M06 A2998 1020 66 -500 210/04 RMK AO2 TSNO
94908KDBQ DBQ20000303220510503/03/00 22:05:31  5-MIN KDBQ 040405Z AUTO 20005KT 10SM CLR 00/M06 A2998 1020 66 -500 200/05 RMK AO2 TSNO
94908KDBQ DBQ20000303221010503/03/00 22:10:31  5-MIN KDBQ 040410Z AUTO 20005KT 10SM CLR 00/M06 A2998 1030 66 -500 200/05 RMK AO2 TSNO
94908KDBQ DBQ20000303221510503/03/00 22:15:31  5-MIN KDBQ 040415Z AUTO 20005KT 10SM CLR 01/M06 A2998 1030 63 -400 200/05 RMK AO2 TSNO
94908KDBQ DBQ20000303222010503/03/00 22:20:31  5-MIN KDBQ 040420Z AUTO 20005KT 10SM CLR 00/M06 A2998 1030 66 -500 200/05 RMK AO2 TSNO
94908KDBQ DBQ20000303222510503/03/00 22:25:31  5-MIN KDBQ 040425Z AUTO 21005KT 10SM CLR 01/M06 A2998 1030 63 -400 210/05 RMK AO2 TSNO
94908KDBQ DBQ20000303223010503/03/00 22:30:31  5-MIN KDBQ 040430Z AUTO 21004KT 10SM CLR 01/M06 A2997 1030 63 -400 210/04 RMK AO2 TSNO
94908KDBQ DBQ20000303223510503/03/00 22:35:31  5-MIN KDBQ 040435Z AUTO 21005KT 10SM CLR 00/M06 A2998 1020 66 -500 210/05 RMK AO2 TSNO
94908KDBQ DBQ20000303224010603/03/00 22:40:31  5-MIN KDBQ 040440Z AUTO 22005KT 10SM CLR M01/M05 A2998 1020 72 -500 220/05 RMK AO2 TSNO
94908KDBQ DBQ20000303224510603/03/00 22:45:31  5-MIN KDBQ 040445Z AUTO 21005KT 10SM CLR M01/M05 A2998 1030 72 -500 210/05 RMK AO2 TSNO
94908KDBQ DBQ20000303225012303/03/00 22:50:31  5-MIN KDBQ 040450Z AUTO 21006KT 10SM CLR M01/M05 A2997 1030 72 -500 210/06 RMK AO2 SLP161 T10061050 TSNO
94908KDBQ DBQ20000303225512303/03/00 22:55:31  5-MIN KDBQ 040455Z AUTO 21006KT 10SM CLR M01/M05 A2997 1030 75 -600 210/06 RMK AO2 SLP159 T10111050 TSNO
94908KDBQ DBQ20000303230010603/03/00 23:00:31  5-MIN KDBQ 040500Z AUTO 20006KT 10SM CLR M01/M05 A2997 1030 72 -500 200/06 RMK AO2 TSNO
94908KDBQ DBQ20000303230510603/03/00 23:05:31  5-MIN KDBQ 040505Z AUTO 21006KT 10SM CLR M01/M06 A2997 1030 69 -500 210/06 RMK AO2 TSNO
94908KDBQ DBQ20000303231010503/03/00 23:10:31  5-MIN KDBQ 040510Z AUTO 20005KT 10SM CLR 00/M06 A2997 1030 66 -500 200/05 RMK AO2 TSNO
94908KDBQ DBQ20000303231510503/03/00 23:15:31  5-MIN KDBQ 040515Z AUTO 20005KT 10SM CLR 00/M06 A2997 1030 66 -500 200/05 RMK AO2 TSNO
94908KDBQ DBQ20000303232010503/03/00 23:20:31  5-MIN KDBQ 040520Z AUTO 21005KT 10SM CLR 00/M06 A2998 1030 66 -500 210/05 RMK AO2 TSNO
94908KDBQ DBQ20000303232510503/03/00 23:25:31  5-MIN KDBQ 040525Z AUTO 21004KT 10SM CLR 00/M06 A2998 1030 66 -500 210/04 RMK AO2 TSNO
94908KDBQ DBQ20000303233010503/03/00 23:30:31  5-MIN KDBQ 040530Z AUTO 20006KT 10SM CLR 00/M06 A2998 1030 66 -500 200/06 RMK AO2 TSNO
94908KDBQ DBQ20000303233510603/03/00 23:35:31  5-MIN KDBQ 040535Z AUTO 21005KT 10SM CLR M01/M05 A2998 1030 72 -500 210/05 RMK AO2 TSNO
94908KDBQ DBQ20000303234010603/03/00 23:40:31  5-MIN KDBQ 040540Z AUTO 22004KT 10SM CLR M01/M05 A2998 1030 72 -500 220/04 RMK AO2 TSNO
94908KDBQ DBQ20000303234510603/03/00 23:45:31  5-MIN KDBQ 040545Z AUTO 20004KT 10SM CLR M01/M06 A2997 1030 72 -600 190/04 RMK AO2 TSNO
94908KDBQ DBQ20000303235015003/03/00 23:50:31  5-MIN KDBQ 040550Z AUTO 21004KT 10SM CLR 00/M06 A2997 1030 66 -500 210/04 RMK AO2 SLP160 T00001056 10067 21011 400891061 58004 TSNO
94908KDBQ DBQ20000303235515103/03/00 23:55:31  5-MIN KDBQ 040555Z AUTO 19004KT 10SM CLR M01/M06 A2997 1030 69 -500 190/04 RMK AO2 SLP158 T10061056 10067 21011 400891061 58003 TSNO
94908KDBQ DBQ20000304000010503/04/00 00:00:31  5-MIN KDBQ 040600Z AUTO 19004KT 10SM CLR 00/M06 A2997 1030 66 -500 190/04 RMK AO2 TSNO
94908KDBQ DBQ20000304000510603/04/00 00:05:31  5-MIN KDBQ 040605Z AUTO 19004KT 10SM CLR M01/M06 A2997 1040 69 -500 180/04 RMK AO2 TSNO
94908KDBQ DBQ20000304001010603/04/00 00:10:31  5-MIN KDBQ 040610Z AUTO VRB03KT 10SM CLR M01/M06 A2997 1040 69 -500 VRB/03 RMK AO2 TSNO
94908KDBQ DBQ20000304001510603/04/00 00:15:31  5-MIN KDBQ 040615Z AUTO 19004KT 10SM CLR M01/M06 A2996 1040 69 -500 190/04 RMK AO2 TSNO
94908KDBQ DBQ20000304002010603/04/00 00:20:31  5-MIN KDBQ 040620Z AUTO 21004KT 10SM CLR M01/M06 A2996 1040 72 -600 200/04 RMK AO2 TSNO
94908KDBQ DBQ20000304002510603/04/00 00:25:31  5-MIN KDBQ 040625Z AUTO 23004KT 10SM CLR M01/M05 A2996 1040 75 -600 230/04 RMK AO2 TSNO
94908KDBQ DBQ20000304003010603/04/00 00:30:31  5-MIN KDBQ 040630Z AUTO 20004KT 10SM CLR M01/M05 A2996 1040 75 -600 200/04 RMK AO2 TSNO
94908KDBQ DBQ20000304003510603/04/00 00:35:31  5-MIN KDBQ 040635Z AUTO 22005KT 10SM CLR M02/M05 A2996 1040 78 -700 220/05 RMK AO2 TSNO
94908KDBQ DBQ20000304004010603/04/00 00:40:31  5-MIN KDBQ 040640Z AUTO 23005KT 10SM CLR M02/M04 A2996 1040 81 -700 230/05 RMK AO2 TSNO
94908KDBQ DBQ20000304004510603/04/00 00:45:31  5-MIN KDBQ 040645Z AUTO 23005KT 10SM CLR M01/M05 A2996 1040 75 -600 230/05 RMK AO2 TSNO
94908KDBQ DBQ20000304005012303/04/00 00:50:31  5-MIN KDBQ 040650Z AUTO 23006KT 10SM CLR M01/M05 A2996 1040 75 -600 220/06 RMK AO2 SLP155 T10111050 TSNO
94908KDBQ DBQ20000304005512303/04/00 00:55:31  5-MIN KDBQ 040655Z AUTO 23007KT 10SM CLR M02/M05 A2996 1040 78 -700 230/07 RMK AO2 SLP154 T10171050 TSNO
94908KDBQ DBQ20000304010010603/04/00 01:00:31  5-MIN KDBQ 040700Z AUTO 22006KT 10SM CLR M01/M05 A2995 1050 72 -500 220/06 RMK AO2 TSNO
94908KDBQ DBQ20000304010510603/04/00 01:05:31  5-MIN KDBQ 040705Z AUTO 19005KT 10SM CLR M01/M05 A2995 1050 75 -600 190/05 RMK AO2 TSNO
94908KDBQ DBQ20000304011010603/04/00 01:10:31  5-MIN KDBQ 040710Z AUTO 19006KT 10SM CLR M01/M05 A2995 1050 72 -500 190/06 RMK AO2 TSNO
94908KDBQ DBQ20000304011510603/04/00 01:15:31  5-MIN KDBQ 040715Z AUTO 20007KT 10SM CLR M01/M05 A2995 1050 72 -500 200/07 RMK AO2 TSNO
94908KDBQ DBQ20000304012010603/04/00 01:20:31  5-MIN KDBQ 040720Z AUTO 21006KT 10SM CLR M01/M05 A2996 1040 72 -500 210/06 RMK AO2 TSNO
94908KDBQ DBQ20000304012510603/04/00 01:25:31  5-MIN KDBQ 040725Z AUTO 22004KT 10SM CLR M01/M05 A2996 1040 72 -500 220/04 RMK AO2 TSNO
94908KDBQ DBQ20000304013010603/04/00 01:30:31  5-MIN KDBQ 040730Z AUTO 20005KT 10SM CLR M01/M05 A2995 1050 72 -500 200/05 RMK AO2 TSNO
94908KDBQ DBQ20000304013510603/04/00 01:35:31  5-MIN KDBQ 040735Z AUTO 20006KT 10SM CLR M01/M05 A2995 1050 75 -600 200/06 RMK AO2 TSNO
94908KDBQ DBQ20000304014010603/04/00 01:40:31  5-MIN KDBQ 040740Z AUTO 21006KT 10SM CLR M01/M05 A2995 1050 72 -500 210/06 RMK AO2 TSNO
94908KDBQ DBQ20000304014510603/04/00 01:45:31  5-MIN KDBQ 040745Z AUTO 22005KT 10SM CLR M01/M05 A2995 1050 72 -500 210/05 RMK AO2 TSNO
94908KDBQ DBQ20000304015012303/04/00 01:50:31  5-MIN KDBQ 040750Z AUTO 21006KT 10SM CLR M01/M05 A2995 1050 75 -600 210/06 RMK AO2 SLP150 T10111050 TSNO
94908KDBQ DBQ20000304015512303/04/00 01:55:31  5-MIN KDBQ 040755Z AUTO 21007KT 10SM CLR M01/M05 A2995 1050 75 -600 210/07 RMK AO2 SLP151 T10111050 TSNO
94908KDBQ DBQ20000304020010603/04/00 02:00:31  5-MIN KDBQ 040800Z AUTO 22007KT 10SM CLR M01/M05 A2995 1050 75 -600 220/07 RMK AO2 TSNO
94908KDBQ DBQ20000304020510603/04/00 02:05:31  5-MIN KDBQ 040805Z AUTO 21008KT 10SM CLR M01/M04 A2995 1050 75 -500 210/08 RMK AO2 TSNO
94908KDBQ DBQ20000304021010603/04/00 02:10:31  5-MIN KDBQ 040810Z AUTO 20009KT 10SM CLR M01/M05 A2994 1060 75 -600 200/09 RMK AO2 TSNO
94908KDBQ DBQ20000304021510603/04/00 02:15:31  5-MIN KDBQ 040815Z AUTO 20009KT 10SM CLR M01/M05 A2994 1060 75 -600 200/09 RMK AO2 TSNO
94908KDBQ DBQ20000304022010603/04/00 02:20:31  5-MIN KDBQ 040820Z AUTO 20008KT 10SM CLR M01/M05 A2994 1060 75 -600 190/08 RMK AO2 TSNO
94908KDBQ DBQ20000304022510603/04/00 02:25:31  5-MIN KDBQ 040825Z AUTO 20007KT 10SM CLR M01/M05 A2994 1060 75 -600 190/07 RMK AO2 TSNO
94908KDBQ DBQ20000304023010603/04/00 02:30:31  5-MIN KDBQ 040830Z AUTO 20008KT 10SM CLR M01/M05 A2993 1070 75 -600 190/08 RMK AO2 TSNO
94908KDBQ DBQ20000304023510603/04/00 02:35:31  5-MIN KDBQ 040835Z AUTO 20008KT 10SM CLR M01/M05 A2993 1070 75 -500 200/08 RMK AO2 TSNO
94908KDBQ DBQ20000304024010603/04/00 02:40:31  5-MIN KDBQ 040840Z AUTO 19009KT 10SM CLR M01/M05 A2992 1070 75 -500 190/09 RMK AO2 TSNO
94908KDBQ DBQ20000304024510603/04/00 02:45:31  5-MIN KDBQ 040845Z AUTO 20007KT 10SM CLR M01/M05 A2993 1070 72 -500 200/07 RMK AO2 TSNO
94908KDBQ DBQ20000304025012903/04/00 02:50:31  5-MIN KDBQ 040850Z AUTO 20007KT 10SM CLR M01/M05 A2993 1070 72 -500 200/07 RMK AO2 SLP143 T10061050 58003 TSNO
94908KDBQ DBQ20000304025512903/04/00 02:55:31  5-MIN KDBQ 040855Z AUTO 20007KT 10SM CLR M01/M05 A2993 1070 75 -500 190/07 RMK AO2 SLP143 T10111050 58014 TSNO
94908KDBQ DBQ20000304030010603/04/00 03:00:31  5-MIN KDBQ 040900Z AUTO 19007KT 10SM CLR M01/M05 A2993 1070 75 -500 190/07 RMK AO2 TSNO
94908KDBQ DBQ20000304030510603/04/00 03:05:31  5-MIN KDBQ 040905Z AUTO 20007KT 10SM CLR M01/M05 A2993 1070 75 -500 200/07 RMK AO2 TSNO
94908KDBQ DBQ20000304031010603/04/00 03:10:31  5-MIN KDBQ 040910Z AUTO 20008KT 10SM CLR M01/M05 A2992 1070 75 -500 200/08 RMK AO2 TSNO
94908KDBQ DBQ20000304031510603/04/00 03:15:31  5-MIN KDBQ 040915Z AUTO 20008KT 10SM CLR M01/M04 A2992 1080 78 -500 200/08 RMK AO2 TSNO
94908KDBQ DBQ20000304032010603/04/00 03:20:31  5-MIN KDBQ 040920Z AUTO 19007KT 10SM CLR M01/M05 A2992 1080 75 -500 190/07 RMK AO2 TSNO
94908KDBQ DBQ20000304032510603/04/00 03:25:31  5-MIN KDBQ 040925Z AUTO 19007KT 10SM CLR M01/M05 A2992 1080 75 -500 190/07 RMK AO2 TSNO
94908KDBQ DBQ20000304033010603/04/00 03:30:31  5-MIN KDBQ 040930Z AUTO 19007KT 10SM CLR M01/M05 A2992 1080 72 -500 190/07 RMK AO2 TSNO
94908KDBQ DBQ20000304033510603/04/00 03:35:31  5-MIN KDBQ 040935Z AUTO 20006KT 10SM CLR M01/M05 A2992 1080 72 -500 200/06 RMK AO2 TSNO
94908KDBQ DBQ20000304034010603/04/00 03:40:31  5-MIN KDBQ 040940Z AUTO 21007KT 10SM CLR M01/M05 A2992 1080 75 -500 200/07 RMK AO2 TSNO
94908KDBQ DBQ20000304034510603/04/00 03:45:31  5-MIN KDBQ 040945Z AUTO 20006KT 10SM CLR M01/M05 A2992 1080 75 -500 200/06 RMK AO2 TSNO
94908KDBQ DBQ20000304035012303/04/00 03:50:31  5-MIN KDBQ 040950Z AUTO 21006KT 10SM CLR M01/M05 A2992 1070 75 -500 210/06 RMK AO2 SLP142 T10111050 TSNO
94908KDBQ DBQ20000304035512303/04/00 03:55:31  5-MIN KDBQ 040955Z AUTO 20006KT 10SM CLR M01/M05 A2993 1070 75 -500 200/06 RMK AO2 SLP142 T10111050 TSNO
94908KDBQ DBQ20000304040010603/04/00 04:00:31  5-MIN KDBQ 041000Z AUTO 21006KT 10SM CLR M01/M05 A2993 1070 75 -500 200/06 RMK AO2 TSNO
94908KDBQ DBQ20000304040510603/04/00 04:05:31  5-MIN KDBQ 041005Z AUTO 21009KT 10SM CLR M01/M05 A2993 1070 75 -500 210/09 RMK AO2 TSNO
94908KDBQ DBQ20000304041010603/04/00 04:10:31  5-MIN KDBQ 041010Z AUTO 20010KT 10SM CLR M01/M05 A2993 1070 75 -500 200/10 RMK AO2 TSNO
94908KDBQ DBQ20000304041510603/04/00 04:15:31  5-MIN KDBQ 041015Z AUTO 20010KT 10SM CLR M01/M04 A2993 1070 78 -600 200/10 RMK AO2 TSNO
94908KDBQ DBQ20000304042010603/04/00 04:20:31  5-MIN KDBQ 041020Z AUTO 20009KT 10SM CLR M01/M04 A2993 1070 78 -500 200/09 RMK AO2 TSNO
94908KDBQ DBQ20000304042510603/04/00 04:25:31  5-MIN KDBQ 041025Z AUTO 19009KT 10SM CLR M01/M04 A2992 1080 78 -500 190/09 RMK AO2 TSNO
94908KDBQ DBQ20000304043010603/04/00 04:30:31  5-MIN KDBQ 041030Z AUTO 20010KT 10SM CLR M01/M04 A2992 1070 78 -500 200/10 RMK AO2 TSNO
94908KDBQ DBQ20000304043510603/04/00 04:35:31  5-MIN KDBQ 041035Z AUTO 20010KT 10SM CLR M01/M04 A2992 1080 75 -500 200/10 RMK AO2 TSNO
94908KDBQ DBQ20000304044010603/04/00 04:40:31  5-MIN KDBQ 041040Z AUTO 20010KT 10SM CLR M01/M04 A2992 1080 75 -500 200/10 RMK AO2 TSNO
94908KDBQ DBQ20000304044510603/04/00 04:45:31  5-MIN KDBQ 041045Z AUTO 20010KT 10SM CLR M01/M04 A2992 1080 78 -500 200/10 RMK AO2 TSNO
94908KDBQ DBQ20000304045012303/04/00 04:50:31  5-MIN KDBQ 041050Z AUTO 21008KT 10SM CLR M01/M04 A2992 1080 78 -500 210/08 RMK AO2 SLP141 T10111044 TSNO
94908KDBQ DBQ20000304045512303/04/00 04:55:31  5-MIN KDBQ 041055Z AUTO 21010KT 10SM CLR M01/M04 A2992 1080 75 -500 210/10 RMK AO2 SLP141 T10061044 TSNO
94908KDBQ DBQ20000304050010603/04/00 05:00:31  5-MIN KDBQ 041100Z AUTO 21011KT 10SM CLR M01/M04 A2992 1080 78 -500 210/11 RMK AO2 TSNO
94908KDBQ DBQ20000304050510603/04/00 05:05:31  5-MIN KDBQ 041105Z AUTO 21010KT 10SM CLR M01/M04 A2992 1080 75 -500 200/10 RMK AO2 TSNO
94908KDBQ DBQ20000304051010603/04/00 05:10:31  5-MIN KDBQ 041110Z AUTO 20011KT 10SM CLR M01/M04 A2993 1070 78 -500 200/11 RMK AO2 TSNO
94908KDBQ DBQ20000304051510603/04/00 05:15:31  5-MIN KDBQ 041115Z AUTO 20010KT 10SM CLR M01/M04 A2993 1070 78 -500 200/10 RMK AO2 TSNO
94908KDBQ DBQ20000304052010603/04/00 05:20:31  5-MIN KDBQ 041120Z AUTO 20008KT 10SM CLR M01/M04 A2993 1070 78 -500 200/08 RMK AO2 TSNO
94908KDBQ DBQ20000304052510603/04/00 05:25:31  5-MIN KDBQ 041125Z AUTO 20010KT 10SM CLR M01/M04 A2993 1070 78 -500 200/10 RMK AO2 TSNO
94908KDBQ DBQ20000304053010603/04/00 05:30:31  5-MIN KDBQ 041130Z AUTO 20009KT 10SM CLR M01/M04 A2993 1070 75 -500 200/09 RMK AO2 TSNO
94908KDBQ DBQ20000304053510603/04/00 05:35:31  5-MIN KDBQ 041135Z AUTO 20008KT 10SM CLR M01/M04 A2993 1070 75 -500 200/08 RMK AO2 TSNO
94908KDBQ DBQ20000304054010503/04/00 05:40:31  5-MIN KDBQ 041140Z AUTO 19006KT 9SM CLR M01/M04 A2993 1070 75 -500 190/06 RMK AO2 TSNO
94908KDBQ DBQ20000304054510503/04/00 05:45:31  5-MIN KDBQ 041145Z AUTO 19007KT 9SM CLR M01/M04 A2993 1070 75 -500 190/07 RMK AO2 TSNO
94908KDBQ DBQ20000304055014003/04/00 05:50:31  5-MIN KDBQ 041150Z AUTO 19009KT 9SM CLR M01/M04 A2993 1070 75 -500 190/09 RMK AO2 SLP143 T10061044 10000 21017 58014 TSNO
94908KDBQ DBQ20000304055514003/04/00 05:55:31  5-MIN KDBQ 041155Z AUTO 20008KT 9SM CLR M01/M04 A2993 1070 78 -500 200/08 RMK AO2 SLP143 T10061039 10000 21017 55000 TSNO
94908KDBQ DBQ20000304060010503/04/00 06:00:31  5-MIN KDBQ 041200Z AUTO 19008KT 9SM CLR M01/M04 A2993 1070 78 -500 190/08 RMK AO2 TSNO
94908KDBQ DBQ20000304060510503/04/00 06:05:31  5-MIN KDBQ 041205Z AUTO 19008KT 9SM CLR M01/M04 A2993 1070 78 -500 190/08 RMK AO2 TSNO
94908KDBQ DBQ20000304061010503/04/00 06:10:31  5-MIN KDBQ 041210Z AUTO 19007KT 9SM CLR M01/M04 A2993 1070 78 -500 190/07 RMK AO2 TSNO
94908KDBQ DBQ20000304061510503/04/00 06:15:31  5-MIN KDBQ 041215Z AUTO 19007KT 9SM CLR M01/M04 A2993 1070 78 -500 190/07 RMK AO2 TSNO
94908KDBQ DBQ20000304062010503/04/00 06:20:31  5-MIN KDBQ 041220Z AUTO 19008KT 9SM CLR M01/M04 A2993 1070 78 -500 190/08 RMK AO2 TSNO
94908KDBQ DBQ20000304062510503/04/00 06:25:31  5-MIN KDBQ 041225Z AUTO 19007KT 9SM CLR M01/M04 A2993 1070 81 -500 190/07 RMK AO2 TSNO
94908KDBQ DBQ20000304063010503/04/00 06:30:31  5-MIN KDBQ 041230Z AUTO 19008KT 8SM CLR M01/M04 A2993 1070 81 -500 190/08 RMK AO2 TSNO
94908KDBQ DBQ20000304063510503/04/00 06:35:31  5-MIN KDBQ 041235Z AUTO 19008KT 8SM CLR M01/M04 A2993 1070 81 -500 190/08 RMK AO2 TSNO
94908KDBQ DBQ20000304064010503/04/00 06:40:31  5-MIN KDBQ 041240Z AUTO 19007KT 7SM CLR M01/M04 A2993 1070 81 -600 190/07 RMK AO2 TSNO
94908KDBQ DBQ20000304064509503/04/00 06:45:31  5-MIN KDBQ 041245Z 18008KT 7SM CLR M01/M04 A2993 1070 81 -600 180/08 RMK AO2
94908KDBQ DBQ20000304065011203/04/00 06:50:31  5-MIN KDBQ 041250Z 19008KT 8SM CLR M01/M04 A2993 1070 81 -600 180/08 RMK AO2 SLP146 T10111039
94908KDBQ DBQ20000304065511203/04/00 06:55:31  5-MIN KDBQ 041255Z 19007KT 8SM CLR M01/M04 A2993 1070 81 -600 190/07 RMK AO2 SLP146 T10111039
94908KDBQ DBQ20000304070009503/04/00 07:00:31  5-MIN KDBQ 041300Z 18008KT 7SM CLR M01/M04 A2993 1070 78 -500 180/08 RMK AO2
94908KDBQ DBQ20000304070509503/04/00 07:05:31  5-MIN KDBQ 041305Z 18007KT 7SM CLR M01/M04 A2993 1070 78 -500 180/07 RMK AO2
94908KDBQ DBQ20000304071009503/04/00 07:10:31  5-MIN KDBQ 041310Z 19008KT 7SM CLR M01/M03 A2993 1070 81 -500 180/08 RMK AO2
94908KDBQ DBQ20000304071509503/04/00 07:15:31  5-MIN KDBQ 041315Z 19007KT 7SM CLR M01/M03 A2993 1070 81 -500 190/07 RMK AO2
94908KDBQ DBQ20000304072009503/04/00 07:20:31  5-MIN KDBQ 041320Z 19007KT 7SM CLR M01/M03 A2993 1070 81 -500 190/07 RMK AO2
94908KDBQ DBQ20000304072509403/04/00 07:25:31  5-MIN KDBQ 041325Z 20007KT 7SM CLR 00/M03 A2993 1070 81 -400 200/07 RMK AO2
94908KDBQ DBQ20000304073009403/04/00 07:30:31  5-MIN KDBQ 041330Z 20007KT 7SM CLR 00/M03 A2993 1070 81 -400 190/07 RMK AO2
94908KDBQ DBQ20000304073509403/04/00 07:35:31  5-MIN KDBQ 041335Z 20008KT 7SM CLR 00/M03 A2993 1070 81 -400 200/08 RMK AO2
94908KDBQ DBQ20000304074009403/04/00 07:40:31  5-MIN KDBQ 041340Z 21008KT 7SM CLR 01/M02 A2993 1070 82 -300 210/08 RMK AO2
94908KDBQ DBQ20000304074509403/04/00 07:45:31  5-MIN KDBQ 041345Z 20008KT 7SM CLR 01/M02 A2994 1060 78 -300 200/08 RMK AO2
94908KDBQ DBQ20000304075011103/04/00 07:50:31  5-MIN KDBQ 041350Z 20009KT 8SM CLR 01/M02 A2993 1070 78 -300 200/09 RMK AO2 SLP147 T00111022
94908KDBQ DBQ20000304075511103/04/00 07:55:31  5-MIN KDBQ 041355Z 21009KT 8SM CLR 02/M02 A2993 1070 75 -200 210/09 RMK AO2 SLP146 T00171022
94908KDBQ DBQ20000304080009403/04/00 08:00:31  5-MIN KDBQ 041400Z 21010KT 8SM CLR 02/M02 A2993 1070 75 -200 210/10 RMK AO2
94908KDBQ DBQ20000304080509403/04/00 08:05:31  5-MIN KDBQ 041405Z 21009KT 8SM CLR 02/M02 A2993 1070 75 -200 210/09 RMK AO2
94908KDBQ DBQ20000304081009403/04/00 08:10:31  5-MIN KDBQ 041410Z 21011KT 8SM CLR 02/M02 A2993 1070 75 -100 210/11 RMK AO2
94908KDBQ DBQ20000304081509403/04/00 08:15:31  5-MIN KDBQ 041415Z 21010KT 8SM CLR 02/M02 A2993 1070 72 -100 210/10 RMK AO2
94908KDBQ DBQ20000304082009403/04/00 08:20:31  5-MIN KDBQ 041420Z 21010KT 8SM CLR 03/M02 A2993 1070 72 -100 210/10 RMK AO2
94908KDBQ DBQ20000304082509403/04/00 08:25:31  5-MIN KDBQ 041425Z 22009KT 9SM CLR 03/M02 A2993 1070 72 -100 210/09 RMK AO2
94908KDBQ DBQ20000304083009103/04/00 08:30:31  5-MIN KDBQ 041430Z 21011KT 9SM CLR 03/M02 A2993 1070 70 0 210/11 RMK AO2
94908KDBQ DBQ20000304083509103/04/00 08:35:31  5-MIN KDBQ 041435Z 21011KT 9SM CLR 03/M02 A2993 1070 70 0 210/11 RMK AO2
94908KDBQ DBQ20000304084009103/04/00 08:40:31  5-MIN KDBQ 041440Z 21010KT 9SM CLR 04/M02 A2993 1070 67 0 210/10 RMK AO2
94908KDBQ DBQ20000304084509103/04/00 08:45:31  5-MIN KDBQ 041445Z 21011KT 9SM CLR 04/M01 A2993 1070 70 0 210/11 RMK AO2
94908KDBQ DBQ20000304085011603/04/00 08:50:31  5-MIN KDBQ 041450Z 22010KT 9SM CLR 04/M01 A2993 1070 67 100 210/10 RMK AO2 SLP144 T00441011 55000
94908KDBQ DBQ20000304085511703/04/00 08:55:31  5-MIN KDBQ 041455Z 22012KT 10SM CLR 04/M01 A2993 1070 67 100 220/12 RMK AO2 SLP144 T00441011 50000
94908KDBQ DBQ20000304090009403/04/00 09:00:31  5-MIN KDBQ 041500Z 22011KT 10SM CLR 05/M01 A2993 1070 67 200 220/11 RMK AO2
94908KDBQ DBQ20000304090509403/04/00 09:05:31  5-MIN KDBQ 041505Z 22011KT 10SM CLR 05/M01 A2993 1070 67 200 220/11 RMK AO2
94908KDBQ DBQ20000304091009403/04/00 09:10:31  5-MIN KDBQ 041510Z 22012KT 10SM CLR 06/M01 A2993 1070 65 200 210/12 RMK AO2
94908KDBQ DBQ20000304091509303/04/00 09:15:31  5-MIN KDBQ 041515Z 22011KT 10SM CLR 06/00 A2993 1070 65 300 220/11 RMK AO2
94908KDBQ DBQ20000304092009303/04/00 09:20:31  5-MIN KDBQ 041520Z 23009KT 10SM CLR 06/00 A2994 1060 65 300 230/09 RMK AO2
94908KDBQ DBQ20000304092509303/04/00 09:25:31  5-MIN KDBQ 041525Z 23008KT 10SM CLR 07/00 A2994 1060 62 300 230/08 RMK AO2
94908KDBQ DBQ20000304093009303/04/00 09:30:31  5-MIN KDBQ 041530Z 25007KT 10SM CLR 07/01 A2994 1060 62 400 250/07 RMK AO2
94908KDBQ DBQ20000304093509303/04/00 09:35:31  5-MIN KDBQ 041535Z 23007KT 10SM CLR 07/00 A2994 1060 60 400 230/07 RMK AO2
94908KDBQ DBQ20000304094009303/04/00 09:40:31  5-MIN KDBQ 041540Z 22007KT 10SM CLR 08/01 A2994 1060 60 500 220/07 RMK AO2
94908KDBQ DBQ20000304094509303/04/00 09:45:31  5-MIN KDBQ 041545Z 23009KT 10SM CLR 08/01 A2994 1060 58 600 230/09 RMK AO2
94908KDBQ DBQ20000304095011003/04/00 09:50:31  5-MIN KDBQ 041550Z 25010KT 10SM CLR 09/01 A2994 1060 56 600 250/10 RMK AO2 SLP147 T00890006
94908KDBQ DBQ20000304095511003/04/00 09:55:31  5-MIN KDBQ 041555Z 23010KT 10SM CLR 09/01 A2994 1060 58 600 230/10 RMK AO2 SLP146 T00890011
94908KDBQ DBQ20000304100009303/04/00 10:00:31  5-MIN KDBQ 041600Z 23010KT 10SM CLR 09/01 A2994 1060 58 600 230/10 RMK AO2
94908KDBQ DBQ20000304100509303/04/00 10:05:31  5-MIN KDBQ 041605Z 24011KT 10SM CLR 09/01 A2993 1070 58 600 240/11 RMK AO2
94908KDBQ DBQ20000304101009303/04/00 10:10:31  5-MIN KDBQ 041610Z 22009KT 10SM CLR 09/02 A2993 1070 58 700 220/09 RMK AO2
94908KDBQ DBQ20000304101509303/04/00 10:15:31  5-MIN KDBQ 041615Z 23011KT 10SM CLR 09/02 A2993 1070 58 700 230/11 RMK AO2
94908KDBQ DBQ20000304102009303/04/00 10:20:31  5-MIN KDBQ 041620Z 23010KT 10SM CLR 10/02 A2993 1070 56 800 230/10 RMK AO2
94908KDBQ DBQ20000304102509303/04/00 10:25:31  5-MIN KDBQ 041625Z 23011KT 10SM CLR 10/02 A2993 1070 58 800 230/11 RMK AO2
94908KDBQ DBQ20000304103009303/04/00 10:30:31  5-MIN KDBQ 041630Z 22011KT 10SM CLR 11/02 A2993 1070 56 800 220/11 RMK AO2
94908KDBQ DBQ20000304103509303/04/00 10:35:31  5-MIN KDBQ 041635Z 25011KT 10SM CLR 11/03 A2993 1070 58 800 240/11 RMK AO2
94908KDBQ DBQ20000304104009303/04/00 10:40:31  5-MIN KDBQ 041640Z 24011KT 10SM CLR 11/03 A2993 1070 58 800 240/11 RMK AO2
94908KDBQ DBQ20000304104509303/04/00 10:45:31  5-MIN KDBQ 041645Z 25012KT 10SM CLR 11/03 A2992 1080 56 900 240/12 RMK AO2
94908KDBQ DBQ20000304105011003/04/00 10:50:31  5-MIN KDBQ 041650Z 23011KT 10SM CLR 11/03 A2992 1080 56 900 230/11 RMK AO2 SLP138 T01110028
94908KDBQ DBQ20000304105511103/04/00 10:55:31  5-MIN KDBQ 041655Z 23012KT 10SM CLR 12/03 A2992 1080 56 1000 230/12 RMK AO2 SLP138 T01170033
94908KDBQ DBQ20000304110009403/04/00 11:00:31  5-MIN KDBQ 041700Z 22013KT 10SM CLR 12/03 A2992 1080 56 1000 220/13 RMK AO2
94908KDBQ DBQ20000304110509403/04/00 11:05:31  5-MIN KDBQ 041705Z 22013KT 10SM CLR 12/03 A2992 1080 54 1000 220/13 RMK AO2
94908KDBQ DBQ20000304111009403/04/00 11:10:31  5-MIN KDBQ 041710Z 23011KT 10SM CLR 12/03 A2992 1080 54 1000 230/11 RMK AO2
94908KDBQ DBQ20000304111509403/04/00 11:15:31  5-MIN KDBQ 041715Z 23014KT 10SM CLR 13/04 A2991 1080 54 1100 230/14 RMK AO2
94908KDBQ DBQ20000304112009403/04/00 11:20:31  5-MIN KDBQ 041720Z 23012KT 10SM CLR 13/04 A2991 1080 54 1100 230/12 RMK AO2
94908KDBQ DBQ20000304112509403/04/00 11:25:31  5-MIN KDBQ 041725Z 24013KT 10SM CLR 13/04 A2991 1080 54 1200 240/13 RMK AO2
94908KDBQ DBQ20000304113009403/04/00 11:30:31  5-MIN KDBQ 041730Z 24014KT 10SM CLR 13/04 A2991 1090 54 1100 240/14 RMK AO2
94908KDBQ DBQ20000304113509403/04/00 11:35:31  5-MIN KDBQ 041735Z 25013KT 10SM CLR 13/04 A2991 1090 52 1200 250/13 RMK AO2
94908KDBQ DBQ20000304114009403/04/00 11:40:31  5-MIN KDBQ 041740Z 23013KT 10SM CLR 13/04 A2991 1090 52 1200 230/13 RMK AO2
94908KDBQ DBQ20000304114509403/04/00 11:45:31  5-MIN KDBQ 041745Z 25012KT 10SM CLR 13/04 A2991 1090 54 1200 250/12 RMK AO2
94908KDBQ DBQ20000304115012903/04/00 11:50:31  5-MIN KDBQ 041750Z 25013KT 10SM CLR 14/04 A2991 1090 50 1300 250/13 RMK AO2 SLP134 T01390039 10139 21011 50000
94908KDBQ DBQ20000304115512903/04/00 11:55:31  5-MIN KDBQ 041755Z 23013KT 10SM CLR 14/04 A2991 1090 50 1300 230/13 RMK AO2 SLP134 T01390039 10139 21011 58007
94908KDBQ DBQ20000304120009403/04/00 12:00:31  5-MIN KDBQ 041800Z 24013KT 10SM CLR 14/04 A2990 1100 50 1300 240/13 RMK AO2
94908KDBQ DBQ20000304120509403/04/00 12:05:31  5-MIN KDBQ 041805Z 24012KT 10SM CLR 14/04 A2990 1100 50 1300 240/12 RMK AO2
94908KDBQ DBQ20000304121009703/04/00 12:10:31  5-MIN KDBQ 041810Z 24013KT 10SM FEW080 14/04 A2990 1100 51 1300 230/13 RMK AO2
94908KDBQ DBQ20000304121509703/04/00 12:15:31  5-MIN KDBQ 041815Z 23012KT 10SM FEW080 14/04 A2990 1100 51 1300 230/12 RMK AO2
94908KDBQ DBQ20000304122009703/04/00 12:20:31  5-MIN KDBQ 041820Z 25014KT 10SM FEW080 14/04 A2989 1100 51 1300 250/14 RMK AO2
94908KDBQ DBQ20000304122509703/04/00 12:25:31  5-MIN KDBQ 041825Z 24014KT 10SM FEW080 15/04 A2989 1100 49 1400 240/14 RMK AO2
94908KDBQ DBQ20000304123009703/04/00 12:30:31  5-MIN KDBQ 041830Z 24013KT 10SM SCT080 15/04 A2989 1100 49 1400 230/13 RMK AO2
94908KDBQ DBQ20000304123509703/04/00 12:35:31  5-MIN KDBQ 041835Z 24013KT 10SM SCT080 15/04 A2989 1110 49 1400 240/13 RMK AO2
94908KDBQ DBQ20000304124009703/04/00 12:40:31  5-MIN KDBQ 041840Z 23011KT 10SM SCT080 15/04 A2989 1110 49 1400 230/11 RMK AO2
94908KDBQ DBQ20000304124509703/04/00 12:45:31  5-MIN KDBQ 041845Z 23011KT 10SM FEW080 15/04 A2988 1110 49 1400 230/11 RMK AO2
94908KDBQ DBQ20000304125011403/04/00 12:50:31  5-MIN KDBQ 041850Z 24012KT 10SM FEW080 16/04 A2988 1110 47 1500 240/12 RMK AO2 SLP125 T01560044
94908KDBQ DBQ20000304125511403/04/00 12:55:31  5-MIN KDBQ 041855Z 24012KT 10SM FEW080 16/04 A2988 1110 47 1500 240/12 RMK AO2 SLP124 T01560044
94908KDBQ DBQ20000304130009403/04/00 13:00:31  5-MIN KDBQ 041900Z 25013KT 10SM CLR 16/04 A2988 1120 47 1500 250/13 RMK AO2
94908KDBQ DBQ20000304130509403/04/00 13:05:31  5-MIN KDBQ 041905Z 24013KT 10SM CLR 16/04 A2988 1120 47 1500 240/13 RMK AO2
94908KDBQ DBQ20000304131009403/04/00 13:10:31  5-MIN KDBQ 041910Z 25014KT 10SM CLR 16/04 A2987 1120 45 1600 250/14 RMK AO2
94908KDBQ DBQ20000304131509403/04/00 13:15:31  5-MIN KDBQ 041915Z 25015KT 10SM CLR 16/04 A2987 1130 45 1500 250/15 RMK AO2
94908KDBQ DBQ20000304132009403/04/00 13:20:31  5-MIN KDBQ 041920Z 25011KT 10SM CLR 16/04 A2987 1130 45 1600 250/11 RMK AO2
94908KDBQ DBQ20000304132509403/04/00 13:25:31  5-MIN KDBQ 041925Z 23012KT 10SM CLR 16/04 A2987 1130 45 1600 230/12 RMK AO2
94908KDBQ DBQ20000304133009403/04/00 13:30:31  5-MIN KDBQ 041930Z 24012KT 10SM CLR 16/04 A2987 1130 45 1600 240/12 RMK AO2
94908KDBQ DBQ20000304133509403/04/00 13:35:31  5-MIN KDBQ 041935Z 24012KT 10SM CLR 17/04 A2987 1130 44 1600 240/12 RMK AO2
94908KDBQ DBQ20000304134009403/04/00 13:40:31  5-MIN KDBQ 041940Z 24012KT 10SM CLR 16/04 A2986 1130 45 1600 240/12 RMK AO2
94908KDBQ DBQ20000304134509403/04/00 13:45:31  5-MIN KDBQ 041945Z 24013KT 10SM CLR 17/04 A2986 1130 44 1600 230/13 RMK AO2
94908KDBQ DBQ20000304135011103/04/00 13:50:31  5-MIN KDBQ 041950Z 23012KT 10SM CLR 17/04 A2986 1130 44 1600 230/12 RMK AO2 SLP117 T01670044
94908KDBQ DBQ20000304135511103/04/00 13:55:31  5-MIN KDBQ 041955Z 23014KT 10SM CLR 17/05 A2986 1140 45 1600 230/14 RMK AO2 SLP116 T01670050
94908KDBQ DBQ20000304140009403/04/00 14:00:31  5-MIN KDBQ 042000Z 25014KT 10SM CLR 17/04 A2986 1140 44 1600 250/14 RMK AO2
94908KDBQ DBQ20000304140509403/04/00 14:05:31  5-MIN KDBQ 042005Z 24013KT 10SM CLR 17/04 A2986 1140 44 1600 240/13 RMK AO2
94908KDBQ DBQ20000304141009403/04/00 14:10:31  5-MIN KDBQ 042010Z 24012KT 10SM CLR 17/04 A2985 1140 42 1700 230/12 RMK AO2
94908KDBQ DBQ20000304141509403/04/00 14:15:31  5-MIN KDBQ 042015Z 25010KT 10SM CLR 17/04 A2986 1140 42 1700 250/10 RMK AO2
94908KDBQ DBQ20000304142010003/04/00 14:20:31  5-MIN KDBQ 042020Z 23013G22KT 10SM CLR 17/04 A2986 1140 42 1700 230/13G22 RMK AO2
94908KDBQ DBQ20000304142510003/04/00 14:25:31  5-MIN KDBQ 042025Z 25011G22KT 10SM CLR 17/04 A2986 1140 42 1700 250/11G22 RMK AO2
94908KDBQ DBQ20000304143010003/04/00 14:30:31  5-MIN KDBQ 042030Z 24014G19KT 10SM CLR 18/04 A2985 1140 41 1800 240/14G19 RMK AO2
94908KDBQ DBQ20000304143509403/04/00 14:35:31  5-MIN KDBQ 042035Z 23013KT 10SM CLR 17/04 A2986 1140 42 1700 230/13 RMK AO2
94908KDBQ DBQ20000304144009403/04/00 14:40:31  5-MIN KDBQ 042040Z 26012KT 10SM CLR 18/04 A2986 1140 41 1800 260/12 RMK AO2
94908KDBQ DBQ20000304144509403/04/00 14:45:31  5-MIN KDBQ 042045Z 27012KT 10SM CLR 18/04 A2986 1140 41 1800 260/12 RMK AO2
94908KDBQ DBQ20000304145011703/04/00 14:50:31  5-MIN KDBQ 042050Z 25012KT 10SM CLR 18/04 A2986 1140 41 1800 250/12 RMK AO2 SLP115 T01780044 58007
94908KDBQ DBQ20000304145511703/04/00 14:55:31  5-MIN KDBQ 042055Z 25013KT 10SM CLR 18/04 A2986 1140 39 1800 250/13 RMK AO2 SLP115 T01780039 55016
94908KDBQ DBQ20000304150009403/04/00 15:00:31  5-MIN KDBQ 042100Z 25011KT 10SM CLR 18/04 A2986 1140 41 1800 250/11 RMK AO2
94908KDBQ DBQ20000304150509403/04/00 15:05:31  5-MIN KDBQ 042105Z 25014KT 10SM CLR 18/04 A2986 1140 39 1800 250/14 RMK AO2
94908KDBQ DBQ20000304151009403/04/00 15:10:31  5-MIN KDBQ 042110Z 26013KT 10SM CLR 18/04 A2986 1140 39 1800 260/13 RMK AO2
94908KDBQ DBQ20000304151509403/04/00 15:15:31  5-MIN KDBQ 042115Z 26014KT 10SM CLR 18/04 A2986 1140 39 1800 260/14 RMK AO2
94908KDBQ DBQ20000304152009403/04/00 15:20:31  5-MIN KDBQ 042120Z 24012KT 10SM CLR 18/04 A2986 1140 41 1800 240/12 RMK AO2
94908KDBQ DBQ20000304152509403/04/00 15:25:31  5-MIN KDBQ 042125Z 26013KT 10SM CLR 18/04 A2985 1140 39 1800 260/13 RMK AO2
94908KDBQ DBQ20000304153009403/04/00 15:30:31  5-MIN KDBQ 042130Z 25013KT 10SM CLR 18/04 A2985 1140 39 1800 240/13 RMK AO2
94908KDBQ DBQ20000304153509403/04/00 15:35:31  5-MIN KDBQ 042135Z 26012KT 10SM CLR 18/04 A2985 1140 39 1800 260/12 RMK AO2
94908KDBQ DBQ20000304154009403/04/00 15:40:31  5-MIN KDBQ 042140Z 26010KT 10SM CLR 18/04 A2985 1140 39 1800 260/10 RMK AO2
94908KDBQ DBQ20000304154509403/04/00 15:45:31  5-MIN KDBQ 042145Z 25012KT 10SM CLR 18/04 A2985 1140 41 1800 250/12 RMK AO2
94908KDBQ DBQ20000304155011103/04/00 15:50:31  5-MIN KDBQ 042150Z 26014KT 10SM CLR 18/04 A2985 1140 39 1800 260/14 RMK AO2 SLP114 T01780039
94908KDBQ DBQ20000304155511103/04/00 15:55:31  5-MIN KDBQ 042155Z 26013KT 10SM CLR 18/04 A2985 1140 39 1800 260/13 RMK AO2 SLP114 T01780039
94908KDBQ DBQ20000304160009403/04/00 16:00:31  5-MIN KDBQ 042200Z 25013KT 10SM CLR 18/04 A2985 1140 39 1800 250/13 RMK AO2
94908KDBQ DBQ20000304160509403/04/00 16:05:31  5-MIN KDBQ 042205Z 27012KT 10SM CLR 18/04 A2985 1140 39 1800 260/12 RMK AO2
94908KDBQ DBQ20000304161009403/04/00 16:10:31  5-MIN KDBQ 042210Z 26012KT 10SM CLR 18/03 A2985 1140 38 1800 260/12 RMK AO2
94908KDBQ DBQ20000304161509403/04/00 16:15:31  5-MIN KDBQ 042215Z 26013KT 10SM CLR 18/04 A2985 1140 39 1800 260/13 RMK AO2
94908KDBQ DBQ20000304162009403/04/00 16:20:31  5-MIN KDBQ 042220Z 26012KT 10SM CLR 18/04 A2985 1140 39 1800 260/12 RMK AO2
94908KDBQ DBQ20000304162509403/04/00 16:25:31  5-MIN KDBQ 042225Z 27012KT 10SM CLR 18/03 A2985 1140 38 1800 270/12 RMK AO2
94908KDBQ DBQ20000304163009403/04/00 16:30:31  5-MIN KDBQ 042230Z 26011KT 10SM CLR 17/04 A2985 1140 41 1700 260/11 RMK AO2
94908KDBQ DBQ20000304163509403/04/00 16:35:31  5-MIN KDBQ 042235Z 26012KT 10SM CLR 17/03 A2985 1140 39 1700 260/12 RMK AO2
94908KDBQ DBQ20000304164009403/04/00 16:40:31  5-MIN KDBQ 042240Z 26012KT 10SM CLR 17/03 A2985 1140 39 1700 260/12 RMK AO2
94908KDBQ DBQ20000304164509403/04/00 16:45:31  5-MIN KDBQ 042245Z 26012KT 10SM CLR 17/04 A2985 1140 41 1700 260/12 RMK AO2
94908KDBQ DBQ20000304165011103/04/00 16:50:31  5-MIN KDBQ 042250Z 25012KT 10SM CLR 17/04 A2985 1140 41 1700 250/12 RMK AO2 SLP113 T01720039
94908KDBQ DBQ20000304165511103/04/00 16:55:31  5-MIN KDBQ 042255Z 26010KT 10SM CLR 17/04 A2985 1140 42 1600 260/10 RMK AO2 SLP113 T01670039
94908KDBQ DBQ20000304170009403/04/00 17:00:31  5-MIN KDBQ 042300Z 26011KT 10SM CLR 17/04 A2985 1140 42 1600 260/11 RMK AO2
94908KDBQ DBQ20000304170509403/04/00 17:05:31  5-MIN KDBQ 042305Z 26010KT 10SM CLR 17/04 A2985 1140 42 1600 260/10 RMK AO2
94908KDBQ DBQ20000304171009403/04/00 17:10:31  5-MIN KDBQ 042310Z 26008KT 10SM CLR 16/04 A2985 1140 44 1600 260/08 RMK AO2
94908KDBQ DBQ20000304171509403/04/00 17:15:31  5-MIN KDBQ 042315Z 27008KT 10SM CLR 16/04 A2986 1140 44 1600 260/08 RMK AO2
94908KDBQ DBQ20000304172009403/04/00 17:20:31  5-MIN KDBQ 042320Z 26009KT 10SM CLR 16/04 A2986 1140 47 1500 260/09 RMK AO2
94908KDBQ DBQ20000304172509403/04/00 17:25:31  5-MIN KDBQ 042325Z 26008KT 10SM CLR 16/04 A2986 1140 45 1500 260/08 RMK AO2
94908KDBQ DBQ20000304173009403/04/00 17:30:31  5-MIN KDBQ 042330Z 27008KT 10SM CLR 15/04 A2986 1130 49 1400 270/08 RMK AO2
94908KDBQ DBQ20000304173509403/04/00 17:35:31  5-MIN KDBQ 042335Z 27008KT 10SM CLR 14/04 A2986 1130 51 1400 270/08 RMK AO2
94908KDBQ DBQ20000304174009403/04/00 17:40:31  5-MIN KDBQ 042340Z 28007KT 10SM CLR 14/04 A2986 1130 52 1300 280/07 RMK AO2
94908KDBQ DBQ20000304174509403/04/00 17:45:31  5-MIN KDBQ 042345Z 28006KT 10SM CLR 13/04 A2986 1130 54 1200 280/06 RMK AO2
94908KDBQ DBQ20000304175012903/04/00 17:50:31  5-MIN KDBQ 042350Z 28007KT 10SM CLR 13/04 A2986 1130 52 1200 280/07 RMK AO2 SLP119 T01330039 10183 20133 55016
94908KDBQ DBQ20000304175512903/04/00 17:55:31  5-MIN KDBQ 042355Z 28007KT 10SM CLR 13/04 A2986 1130 52 1200 280/07 RMK AO2 SLP119 T01330039 10183 20133 53002
94908KDBQ DBQ20000304180009403/04/00 18:00:31  5-MIN KDBQ 050000Z 28007KT 10SM CLR 13/04 A2986 1130 54 1200 280/07 RMK AO2
94908KDBQ DBQ20000304180509403/04/00 18:05:31  5-MIN KDBQ 050005Z 28008KT 10SM CLR 13/04 A2986 1130 54 1200 280/08 RMK AO2
94908KDBQ DBQ20000304181009403/04/00 18:10:31  5-MIN KDBQ 050010Z 28007KT 10SM CLR 12/04 A2986 1130 56 1100 270/07 RMK AO2
94908KDBQ DBQ20000304181509403/04/00 18:15:31  5-MIN KDBQ 050015Z 28007KT 10SM CLR 12/04 A2986 1130 56 1100 270/07 RMK AO2
94908KDBQ DBQ20000304182009403/04/00 18:20:31  5-MIN KDBQ 050020Z 27007KT 10SM CLR 12/04 A2986 1130 58 1000 270/07 RMK AO2
94908KDBQ DBQ20000304182509403/04/00 18:25:31  5-MIN KDBQ 050025Z 27007KT 10SM CLR 12/04 A2986 1130 56 1100 270/07 RMK AO2
94908KDBQ DBQ20000304183009403/04/00 18:30:31  5-MIN KDBQ 050030Z 26006KT 10SM CLR 12/03 A2986 1130 56 1000 260/06 RMK AO2
94908KDBQ DBQ20000304183509403/04/00 18:35:31  5-MIN KDBQ 050035Z 27005KT 10SM CLR 11/04 A2986 1130 61 1000 260/05 RMK AO2
94908KDBQ DBQ20000304184009303/04/00 18:40:31  5-MIN KDBQ 050040Z 27004KT 10SM CLR 11/03 A2986 1130 61 900 270/04 RMK AO2
94908KDBQ DBQ20000304184509303/04/00 18:45:31  5-MIN KDBQ 050045Z 27003KT 10SM CLR 11/03 A2986 1130 61 900 270/03 RMK AO2
94908KDBQ DBQ20000304185011103/04/00 18:50:31  5-MIN KDBQ 050050Z 00000KT 10SM CLR 11/04 A2986 1130 61 1000 000/00 RMK AO2 SLP120 T01110039
94908KDBQ DBQ20000304185511103/04/00 18:55:31  5-MIN KDBQ 050055Z 00000KT 10SM CLR 12/04 A2986 1130 58 1000 000/00 RMK AO2 SLP119 T01170039
94908KDBQ DBQ20000304190009403/04/00 19:00:31  5-MIN KDBQ 050100Z 00000KT 10SM CLR 11/04 A2986 1130 61 1000 000/00 RMK AO2
94908KDBQ DBQ20000304190509403/04/00 19:05:31  5-MIN KDBQ 050105Z 22003KT 10SM CLR 11/04 A2986 1130 61 1000 220/03 RMK AO2
94908KDBQ DBQ20000304191009403/04/00 19:10:31  5-MIN KDBQ 050110Z 00000KT 10SM CLR 11/04 A2986 1130 61 1000 000/00 RMK AO2
94908KDBQ DBQ20000304191509403/04/00 19:15:31  5-MIN KDBQ 050115Z 00000KT 10SM CLR 11/04 A2986 1130 61 1000 000/00 RMK AO2
94908KDBQ DBQ20000304192009303/04/00 19:20:31  5-MIN KDBQ 050120Z 21003KT 10SM CLR 11/04 A2986 1130 63 900 210/03 RMK AO2
94908KDBQ DBQ20000304192509303/04/00 19:25:31  5-MIN KDBQ 050125Z 21003KT 10SM CLR 11/04 A2986 1130 63 900 210/03 RMK AO2
94908KDBQ DBQ20000304193009303/04/00 19:30:31  5-MIN KDBQ 050130Z 21003KT 10SM CLR 11/04 A2986 1130 63 900 210/03 RMK AO2
94908KDBQ DBQ20000304193509303/04/00 19:35:31  5-MIN KDBQ 050135Z 21003KT 10SM CLR 11/04 A2986 1130 63 900 210/03 RMK AO2
94908KDBQ DBQ20000304194009303/04/00 19:40:31  5-MIN KDBQ 050140Z 21003KT 10SM CLR 11/04 A2986 1130 63 900 210/03 RMK AO2
94908KDBQ DBQ20000304194509303/04/00 19:45:31  5-MIN KDBQ 050145Z 20003KT 10SM CLR 10/04 A2986 1130 65 800 200/03 RMK AO2
94908KDBQ DBQ20000304195011003/04/00 19:50:31  5-MIN KDBQ 050150Z 20003KT 10SM CLR 10/04 A2986 1130 65 800 200/03 RMK AO2 SLP119 T01000039
94908KDBQ DBQ20000304195511003/04/00 19:55:31  5-MIN KDBQ 050155Z 20003KT 10SM CLR 09/04 A2986 1130 68 800 200/03 RMK AO2 SLP119 T00940039
94908KDBQ DBQ20000304200009303/04/00 20:00:31  5-MIN KDBQ 050200Z 20003KT 10SM CLR 10/04 A2986 1130 65 800 200/03 RMK AO2
94908KDBQ DBQ20000304200509303/04/00 20:05:31  5-MIN KDBQ 050205Z 20003KT 10SM CLR 10/04 A2986 1130 65 800 190/03 RMK AO2
94908KDBQ DBQ20000304201009303/04/00 20:10:31  5-MIN KDBQ 050210Z 19003KT 10SM CLR 10/04 A2986 1130 65 800 190/03 RMK AO2
94908KDBQ DBQ20000304201509303/04/00 20:15:31  5-MIN KDBQ 050215Z 20004KT 10SM CLR 09/04 A2986 1130 68 800 200/04 RMK AO2
94908KDBQ DBQ20000304202009303/04/00 20:20:31  5-MIN KDBQ 050220Z 20004KT 10SM CLR 09/04 A2987 1130 71 700 200/04 RMK AO2
94908KDBQ DBQ20000304202509303/04/00 20:25:31  5-MIN KDBQ 050225Z 21003KT 10SM CLR 09/04 A2987 1130 68 800 200/03 RMK AO2
94908KDBQ DBQ20000304203009303/04/00 20:30:31  5-MIN KDBQ 050230Z 20003KT 10SM CLR 09/04 A2987 1130 68 800 200/03 RMK AO2
94908KDBQ DBQ20000304203509303/04/00 20:35:31  5-MIN KDBQ 050235Z 20003KT 10SM CLR 09/04 A2987 1130 68 800 200/03 RMK AO2
94908KDBQ DBQ20000304204010303/04/00 20:40:31  5-MIN KDBQ 050240Z AUTO 00000KT 10SM CLR 09/04 A2987 1120 68 800 000/00 RMK AO2 TSNO
94908KDBQ DBQ20000304204510303/04/00 20:45:31  5-MIN KDBQ 050245Z AUTO 00000KT 10SM CLR 09/04 A2987 1120 68 800 000/00 RMK AO2 TSNO
94908KDBQ DBQ20000304205012603/04/00 20:50:31  5-MIN KDBQ 050250Z AUTO 19003KT 10SM CLR 09/04 A2987 1120 68 800 190/03 RMK AO2 SLP121 T00940039 53002 TSNO
94908KDBQ DBQ20000304205512603/04/00 20:55:31  5-MIN KDBQ 050255Z AUTO 20003KT 10SM CLR 09/04 A2987 1120 68 800 200/03 RMK AO2 SLP121 T00940039 53003 TSNO
94908KDBQ DBQ20000304210010303/04/00 21:00:31  5-MIN KDBQ 050300Z AUTO 18003KT 10SM CLR 09/04 A2987 1120 71 800 180/03 RMK AO2 TSNO
94908KDBQ DBQ20000304210510303/04/00 21:05:31  5-MIN KDBQ 050305Z AUTO 19003KT 10SM CLR 09/04 A2987 1120 73 700 190/03 RMK AO2 TSNO
94908KDBQ DBQ20000304211010303/04/00 21:10:31  5-MIN KDBQ 050310Z AUTO 00000KT 10SM CLR 08/04 A2988 1120 73 600 000/00 RMK AO2 TSNO
94908KDBQ DBQ20000304211510303/04/00 21:15:31  5-MIN KDBQ 050315Z AUTO 00000KT 10SM CLR 09/04 A2988 1120 71 800 000/00 RMK AO2 TSNO
94908KDBQ DBQ20000304212010303/04/00 21:20:31  5-MIN KDBQ 050320Z AUTO 18003KT 10SM CLR 09/04 A2988 1120 71 800 170/03 RMK AO2 TSNO
94908KDBQ DBQ20000304212510303/04/00 21:25:31  5-MIN KDBQ 050325Z AUTO 18003KT 10SM CLR 09/04 A2988 1120 71 700 180/03 RMK AO2 TSNO
94908KDBQ DBQ20000304213010303/04/00 21:30:31  5-MIN KDBQ 050330Z AUTO 18004KT 10SM CLR 09/04 A2988 1120 73 700 180/04 RMK AO2 TSNO
94908KDBQ DBQ20000304213510303/04/00 21:35:31  5-MIN KDBQ 050335Z AUTO 18004KT 10SM CLR 09/04 A2988 1120 73 700 180/04 RMK AO2 TSNO
94908KDBQ DBQ20000304214010303/04/00 21:40:31  5-MIN KDBQ 050340Z AUTO 18006KT 10SM CLR 09/04 A2988 1120 73 700 180/06 RMK AO2 TSNO
94908KDBQ DBQ20000304214510303/04/00 21:45:31  5-MIN KDBQ 050345Z AUTO 18004KT 10SM CLR 08/04 A2988 1120 73 600 180/04 RMK AO2 TSNO
94908KDBQ DBQ20000304215012003/04/00 21:50:31  5-MIN KDBQ 050350Z AUTO 18004KT 10SM CLR 08/04 A2988 1120 76 600 180/04 RMK AO2 SLP123 T00780039 TSNO
94908KDBQ DBQ20000304215512003/04/00 21:55:31  5-MIN KDBQ 050355Z AUTO 19004KT 10SM CLR 08/04 A2988 1120 73 600 190/04 RMK AO2 SLP123 T00830039 TSNO
94908KDBQ DBQ20000304220010303/04/00 22:00:31  5-MIN KDBQ 050400Z AUTO 18004KT 10SM CLR 09/04 A2988 1120 71 700 180/04 RMK AO2 TSNO
94908KDBQ DBQ20000304220510303/04/00 22:05:31  5-MIN KDBQ 050405Z AUTO 19004KT 10SM CLR 08/04 A2988 1110 73 600 190/04 RMK AO2 TSNO
94908KDBQ DBQ20000304221010303/04/00 22:10:31  5-MIN KDBQ 050410Z AUTO 20004KT 10SM CLR 08/04 A2988 1110 73 600 200/04 RMK AO2 TSNO
94908KDBQ DBQ20000304221510303/04/00 22:15:31  5-MIN KDBQ 050415Z AUTO 20005KT 10SM CLR 07/04 A2988 1110 79 500 200/05 RMK AO2 TSNO
94908KDBQ DBQ20000304222010303/04/00 22:20:31  5-MIN KDBQ 050420Z AUTO 20005KT 10SM CLR 07/03 A2988 1110 76 500 200/05 RMK AO2 TSNO
94908KDBQ DBQ20000304222510303/04/00 22:25:31  5-MIN KDBQ 050425Z AUTO 20005KT 10SM CLR 07/03 A2989 1110 76 500 200/05 RMK AO2 TSNO
94908KDBQ DBQ20000304223010303/04/00 22:30:31  5-MIN KDBQ 050430Z AUTO 21005KT 10SM CLR 07/04 A2989 1110 79 500 200/05 RMK AO2 TSNO
94908KDBQ DBQ20000304223510303/04/00 22:35:31  5-MIN KDBQ 050435Z AUTO 20005KT 10SM CLR 07/04 A2989 1110 79 500 200/05 RMK AO2 TSNO
94908KDBQ DBQ20000304224010303/04/00 22:40:31  5-MIN KDBQ 050440Z AUTO 20005KT 10SM CLR 07/03 A2989 1110 73 500 200/05 RMK AO2 TSNO
94908KDBQ DBQ20000304224510303/04/00 22:45:31  5-MIN KDBQ 050445Z AUTO 20004KT 10SM CLR 07/03 A2989 1110 73 500 200/04 RMK AO2 TSNO
94908KDBQ DBQ20000304225012003/04/00 22:50:31  5-MIN KDBQ 050450Z AUTO 20005KT 10SM CLR 07/03 A2989 1110 76 400 200/05 RMK AO2 SLP126 T00670028 TSNO
94908KDBQ DBQ20000304225512003/04/00 22:55:31  5-MIN KDBQ 050455Z AUTO 19005KT 10SM CLR 07/03 A2989 1110 76 400 190/05 RMK AO2 SLP125 T00670028 TSNO
94908KDBQ DBQ20000304230010303/04/00 23:00:31  5-MIN KDBQ 050500Z AUTO 20006KT 10SM CLR 07/03 A2989 1110 76 400 200/06 RMK AO2 TSNO
94908KDBQ DBQ20000304230510303/04/00 23:05:31  5-MIN KDBQ 050505Z AUTO 20006KT 10SM CLR 07/03 A2989 1110 76 400 190/06 RMK AO2 TSNO
94908KDBQ DBQ20000304231010303/04/00 23:10:31  5-MIN KDBQ 050510Z AUTO 20007KT 10SM CLR 07/03 A2989 1100 76 400 200/07 RMK AO2 TSNO
94908KDBQ DBQ20000304231510303/04/00 23:15:31  5-MIN KDBQ 050515Z AUTO 20006KT 10SM CLR 06/03 A2989 1110 79 300 190/06 RMK AO2 TSNO
94908KDBQ DBQ20000304232010303/04/00 23:20:31  5-MIN KDBQ 050520Z AUTO 20005KT 10SM CLR 06/03 A2989 1110 82 300 200/05 RMK AO2 TSNO
94908KDBQ DBQ20000304232510303/04/00 23:25:31  5-MIN KDBQ 050525Z AUTO 19006KT 10SM CLR 06/02 A2989 1110 79 300 190/06 RMK AO2 TSNO
94908KDBQ DBQ20000304233010303/04/00 23:30:31  5-MIN KDBQ 050530Z AUTO 20006KT 10SM CLR 06/02 A2989 1110 79 300 200/06 RMK AO2 TSNO
94908KDBQ DBQ20000304233510303/04/00 23:35:31  5-MIN KDBQ 050535Z AUTO 20006KT 10SM CLR 06/02 A2989 1110 79 300 200/06 RMK AO2 TSNO
94908KDBQ DBQ20000304234010303/04/00 23:40:31  5-MIN KDBQ 050540Z AUTO 20006KT 10SM CLR 06/02 A2989 1110 79 300 200/06 RMK AO2 TSNO
94908KDBQ DBQ20000304234510303/04/00 23:45:31  5-MIN KDBQ 050545Z AUTO 19006KT 10SM CLR 06/02 A2989 1110 79 300 190/06 RMK AO2 TSNO
94908KDBQ DBQ20000304235014803/04/00 23:50:31  5-MIN KDBQ 050550Z AUTO 20006KT 10SM CLR 06/02 A2989 1110 79 300 200/06 RMK AO2 SLP126 T00560022 10128 20050 401831017 53003 TSNO
94908KDBQ DBQ20000304235514803/04/00 23:55:31  5-MIN KDBQ 050555Z AUTO 20006KT 10SM CLR 06/02 A2989 1100 79 300 200/06 RMK AO2 SLP126 T00560022 10128 20050 401831017 51006 TSNO
94908KDBQ DBQ20000305000010303/05/00 00:00:31  5-MIN KDBQ 050600Z AUTO 20006KT 10SM CLR 05/02 A2989 1100 82 200 200/06 RMK AO2 TSNO
94908KDBQ DBQ20000305000510303/05/00 00:05:31  5-MIN KDBQ 050605Z AUTO 20007KT 10SM CLR 05/02 A2989 1100 82 200 200/07 RMK AO2 TSNO
94908KDBQ DBQ20000305001010303/05/00 00:10:31  5-MIN KDBQ 050610Z AUTO 20007KT 10SM CLR 05/02 A2990 1100 82 200 200/07 RMK AO2 TSNO
94908KDBQ DBQ20000305001510303/05/00 00:15:31  5-MIN KDBQ 050615Z AUTO 20007KT 10SM CLR 06/02 A2990 1100 79 300 200/07 RMK AO2 TSNO
94908KDBQ DBQ20000305002010303/05/00 00:20:31  5-MIN KDBQ 050620Z AUTO 20007KT 10SM CLR 06/02 A2990 1100 79 300 200/07 RMK AO2 TSNO
94908KDBQ DBQ20000305002510303/05/00 00:25:31  5-MIN KDBQ 050625Z AUTO 20007KT 10SM CLR 06/02 A2990 1100 79 300 200/07 RMK AO2 TSNO
94908KDBQ DBQ20000305003010303/05/00 00:30:31  5-MIN KDBQ 050630Z AUTO 20007KT 10SM CLR 06/02 A2990 1100 79 300 200/07 RMK AO2 TSNO
94908KDBQ DBQ20000305003510303/05/00 00:35:31  5-MIN KDBQ 050635Z AUTO 20007KT 10SM CLR 06/02 A2990 1100 79 300 200/07 RMK AO2 TSNO
94908KDBQ DBQ20000305004010303/05/00 00:40:31  5-MIN KDBQ 050640Z AUTO 20007KT 10SM CLR 06/02 A2990 1100 79 300 200/07 RMK AO2 TSNO
94908KDBQ DBQ20000305004510303/05/00 00:45:31  5-MIN KDBQ 050645Z AUTO 20007KT 10SM CLR 06/02 A2990 1100 79 300 200/07 RMK AO2 TSNO
94908KDBQ DBQ20000305005012003/05/00 00:50:31  5-MIN KDBQ 050650Z AUTO 20007KT 10SM CLR 06/02 A2990 1100 79 300 200/07 RMK AO2 SLP127 T00560022 TSNO
94908KDBQ DBQ20000305005512003/05/00 00:55:31  5-MIN KDBQ 050655Z AUTO 20007KT 10SM CLR 06/02 A2990 1100 79 300 200/07 RMK AO2 SLP127 T00560022 TSNO
94908KDBQ DBQ20000305010010303/05/00 01:00:31  5-MIN KDBQ 050700Z AUTO 20008KT 10SM CLR 06/02 A2990 1100 76 300 200/08 RMK AO2 TSNO
94908KDBQ DBQ20000305010510303/05/00 01:05:31  5-MIN KDBQ 050705Z AUTO 20008KT 10SM CLR 06/02 A2990 1100 76 300 200/08 RMK AO2 TSNO
94908KDBQ DBQ20000305011010303/05/00 01:10:31  5-MIN KDBQ 050710Z AUTO 20009KT 10SM CLR 06/02 A2990 1100 79 300 200/09 RMK AO2 TSNO
94908KDBQ DBQ20000305011510303/05/00 01:15:31  5-MIN KDBQ 050715Z AUTO 20009KT 10SM CLR 06/02 A2990 1100 79 300 200/09 RMK AO2 TSNO
94908KDBQ DBQ20000305012010303/05/00 01:20:31  5-MIN KDBQ 050720Z AUTO 21008KT 10SM CLR 06/02 A2990 1100 79 300 200/08 RMK AO2 TSNO
94908KDBQ DBQ20000305012510303/05/00 01:25:31  5-MIN KDBQ 050725Z AUTO 21008KT 10SM CLR 06/02 A2990 1100 79 300 210/08 RMK AO2 TSNO
94908KDBQ DBQ20000305013010303/05/00 01:30:31  5-MIN KDBQ 050730Z AUTO 21008KT 10SM CLR 05/02 A2990 1100 79 200 210/08 RMK AO2 TSNO
94908KDBQ DBQ20000305013510303/05/00 01:35:31  5-MIN KDBQ 050735Z AUTO 21007KT 10SM CLR 05/02 A2990 1100 79 200 210/07 RMK AO2 TSNO
94908KDBQ DBQ20000305014010303/05/00 01:40:31  5-MIN KDBQ 050740Z AUTO 21007KT 10SM CLR 05/02 A2990 1100 79 200 210/07 RMK AO2 TSNO
94908KDBQ DBQ20000305014510303/05/00 01:45:31  5-MIN KDBQ 050745Z AUTO 21007KT 10SM CLR 05/02 A2990 1100 79 200 210/07 RMK AO2 TSNO
94908KDBQ DBQ20000305015012003/05/00 01:50:31  5-MIN KDBQ 050750Z AUTO 21007KT 10SM CLR 05/02 A2990 1100 79 200 210/07 RMK AO2 SLP127 T00500017 TSNO
94908KDBQ DBQ20000305015512003/05/00 01:55:31  5-MIN KDBQ 050755Z AUTO 20007KT 10SM CLR 05/02 A2990 1100 79 200 200/07 RMK AO2 SLP126 T00500017 TSNO
94908KDBQ DBQ20000305020010303/05/00 02:00:31  5-MIN KDBQ 050800Z AUTO 21008KT 10SM CLR 05/02 A2990 1100 79 200 210/08 RMK AO2 TSNO
94908KDBQ DBQ20000305020510303/05/00 02:05:31  5-MIN KDBQ 050805Z AUTO 21007KT 10SM CLR 05/02 A2990 1100 79 200 210/07 RMK AO2 TSNO
94908KDBQ DBQ20000305021010303/05/00 02:10:31  5-MIN KDBQ 050810Z AUTO 21007KT 10SM CLR 05/02 A2990 1100 79 200 210/07 RMK AO2 TSNO
94908KDBQ DBQ20000305021510303/05/00 02:15:31  5-MIN KDBQ 050815Z AUTO 21007KT 10SM CLR 05/02 A2990 1100 79 200 210/07 RMK AO2 TSNO
94908KDBQ DBQ20000305022010303/05/00 02:20:31  5-MIN KDBQ 050820Z AUTO 21006KT 10SM CLR 05/02 A2989 1100 79 200 210/06 RMK AO2 TSNO
94908KDBQ DBQ20000305022510303/05/00 02:25:31  5-MIN KDBQ 050825Z AUTO 21006KT 10SM CLR 05/02 A2989 1100 79 200 210/06 RMK AO2 TSNO
94908KDBQ DBQ20000305023010303/05/00 02:30:31  5-MIN KDBQ 050830Z AUTO 21005KT 10SM CLR 04/02 A2989 1100 82 100 210/05 RMK AO2 TSNO
94908KDBQ DBQ20000305023510303/05/00 02:35:31  5-MIN KDBQ 050835Z AUTO 21005KT 10SM CLR 04/02 A2989 1100 82 100 210/05 RMK AO2 TSNO
94908KDBQ DBQ20000305024010303/05/00 02:40:31  5-MIN KDBQ 050840Z AUTO 21005KT 10SM CLR 04/02 A2989 1100 82 100 210/05 RMK AO2 TSNO
94908KDBQ DBQ20000305024510303/05/00 02:45:31  5-MIN KDBQ 050845Z AUTO 21004KT 10SM CLR 04/02 A2989 1100 82 100 200/04 RMK AO2 TSNO
94908KDBQ DBQ20000305025012603/05/00 02:50:31  5-MIN KDBQ 050850Z AUTO 20004KT 10SM CLR 04/02 A2989 1100 82 100 200/04 RMK AO2 SLP126 T00440017 51006 TSNO
94908KDBQ DBQ20000305025512603/05/00 02:55:31  5-MIN KDBQ 050855Z AUTO 21004KT 10SM CLR 04/02 A2990 1100 82 100 210/04 RMK AO2 SLP126 T00440017 50001 TSNO
94908KDBQ DBQ20000305030010303/05/00 03:00:31  5-MIN KDBQ 050900Z AUTO 21004KT 10SM CLR 04/02 A2990 1100 82 100 210/04 RMK AO2 TSNO
94908KDBQ DBQ20000305030510303/05/00 03:05:31  5-MIN KDBQ 050905Z AUTO 20004KT 10SM CLR 04/02 A2990 1100 82 100 200/04 RMK AO2 TSNO
94908KDBQ DBQ20000305031010303/05/00 03:10:31  5-MIN KDBQ 050910Z AUTO 21004KT 10SM CLR 04/02 A2990 1100 82 100 200/04 RMK AO2 TSNO
94908KDBQ DBQ20000305031510303/05/00 03:15:31  5-MIN KDBQ 050915Z AUTO 21004KT 10SM CLR 04/02 A2990 1100 82 100 210/04 RMK AO2 TSNO
94908KDBQ DBQ20000305032010303/05/00 03:20:31  5-MIN KDBQ 050920Z AUTO 20003KT 10SM CLR 05/02 A2990 1100 79 200 200/03 RMK AO2 TSNO
94908KDBQ DBQ20000305032510303/05/00 03:25:31  5-MIN KDBQ 050925Z AUTO 20003KT 10SM CLR 05/02 A2990 1100 79 200 200/03 RMK AO2 TSNO
94908KDBQ DBQ20000305033010303/05/00 03:30:31  5-MIN KDBQ 050930Z AUTO 20003KT 10SM CLR 05/02 A2990 1090 79 200 200/03 RMK AO2 TSNO
94908KDBQ DBQ20000305033510303/05/00 03:35:31  5-MIN KDBQ 050935Z AUTO 21003KT 10SM CLR 05/02 A2990 1090 79 200 200/03 RMK AO2 TSNO
94908KDBQ DBQ20000305034010303/05/00 03:40:31  5-MIN KDBQ 050940Z AUTO 21003KT 10SM CLR 05/02 A2990 1090 82 200 200/03 RMK AO2 TSNO
94908KDBQ DBQ20000305034510303/05/00 03:45:31  5-MIN KDBQ 050945Z AUTO 19003KT 10SM CLR 04/02 A2991 1090 82 100 190/03 RMK AO2 TSNO
94908KDBQ DBQ20000305035012003/05/00 03:50:31  5-MIN KDBQ 050950Z AUTO 19003KT 10SM CLR 05/02 A2991 1090 82 200 190/03 RMK AO2 SLP129 T00500022 TSNO
94908KDBQ DBQ20000305035512003/05/00 03:55:31  5-MIN KDBQ 050955Z AUTO 20003KT 10SM CLR 04/02 A2991 1090 85 100 200/03 RMK AO2 SLP130 T00440022 TSNO
94908KDBQ DBQ20000305040010303/05/00 04:00:31  5-MIN KDBQ 051000Z AUTO 19004KT 10SM CLR 04/02 A2991 1090 82 100 190/04 RMK AO2 TSNO
94908KDBQ DBQ20000305040510103/05/00 04:05:31  5-MIN KDBQ 051005Z AUTO 19005KT 10SM CLR 04/02 A2991 1090 85 0 190/05 RMK AO2 TSNO
94908KDBQ DBQ20000305041010103/05/00 04:10:31  5-MIN KDBQ 051010Z AUTO 19005KT 10SM CLR 04/02 A2991 1090 85 0 190/05 RMK AO2 TSNO
94908KDBQ DBQ20000305041510103/05/00 04:15:31  5-MIN KDBQ 051015Z AUTO 19005KT 10SM CLR 04/02 A2991 1090 85 0 190/05 RMK AO2 TSNO
94908KDBQ DBQ20000305042010103/05/00 04:20:31  5-MIN KDBQ 051020Z AUTO 19005KT 10SM CLR 04/02 A2991 1090 85 0 190/05 RMK AO2 TSNO
94908KDBQ DBQ20000305042510103/05/00 04:25:31  5-MIN KDBQ 051025Z AUTO 19005KT 10SM CLR 04/02 A2991 1090 85 0 190/05 RMK AO2 TSNO
94908KDBQ DBQ20000305043010103/05/00 04:30:31  5-MIN KDBQ 051030Z AUTO 20005KT 10SM CLR 04/02 A2991 1080 85 0 190/05 RMK AO2 TSNO
94908KDBQ DBQ20000305043510103/05/00 04:35:31  5-MIN KDBQ 051035Z AUTO 19005KT 10SM CLR 04/02 A2992 1080 85 0 190/05 RMK AO2 TSNO
94908KDBQ DBQ20000305044010103/05/00 04:40:31  5-MIN KDBQ 051040Z AUTO 20005KT 10SM CLR 04/02 A2991 1080 85 0 190/05 RMK AO2 TSNO
94908KDBQ DBQ20000305044510103/05/00 04:45:31  5-MIN KDBQ 051045Z AUTO 19005KT 10SM CLR 04/02 A2992 1080 85 0 190/05 RMK AO2 TSNO
94908KDBQ DBQ20000305045011803/05/00 04:50:31  5-MIN KDBQ 051050Z AUTO 19005KT 10SM CLR 04/02 A2992 1080 85 0 190/05 RMK AO2 SLP133 T00390017 TSNO
94908KDBQ DBQ20000305045511803/05/00 04:55:31  5-MIN KDBQ 051055Z AUTO 19005KT 10SM CLR 04/02 A2992 1080 85 0 190/05 RMK AO2 SLP133 T00390017 TSNO
94908KDBQ DBQ20000305050010103/05/00 05:00:31  5-MIN KDBQ 051100Z AUTO 19005KT 10SM CLR 04/02 A2992 1080 85 0 190/05 RMK AO2 TSNO
94908KDBQ DBQ20000305050510103/05/00 05:05:31  5-MIN KDBQ 051105Z AUTO 20005KT 10SM CLR 04/02 A2992 1080 85 0 190/05 RMK AO2 TSNO
94908KDBQ DBQ20000305051010103/05/00 05:10:31  5-MIN KDBQ 051110Z AUTO 19006KT 10SM CLR 04/02 A2992 1080 85 0 190/06 RMK AO2 TSNO
94908KDBQ DBQ20000305051510103/05/00 05:15:31  5-MIN KDBQ 051115Z AUTO 20006KT 10SM CLR 04/02 A2992 1080 85 0 200/06 RMK AO2 TSNO
94908KDBQ DBQ20000305052010103/05/00 05:20:31  5-MIN KDBQ 051120Z AUTO 19005KT 10SM CLR 04/02 A2992 1080 85 0 190/05 RMK AO2 TSNO
94908KDBQ DBQ20000305052510103/05/00 05:25:31  5-MIN KDBQ 051125Z AUTO 19006KT 10SM CLR 04/02 A2992 1080 85 0 190/06 RMK AO2 TSNO
94908KDBQ DBQ20000305053010103/05/00 05:30:31  5-MIN KDBQ 051130Z AUTO 19006KT 10SM CLR 04/02 A2992 1080 89 0 190/06 RMK AO2 TSNO
94908KDBQ DBQ20000305053510103/05/00 05:35:31  5-MIN KDBQ 051135Z AUTO 19006KT 10SM CLR 04/02 A2992 1080 89 0 190/06 RMK AO2 TSNO
94908KDBQ DBQ20000305054010103/05/00 05:40:31  5-MIN KDBQ 051140Z AUTO 19006KT 10SM CLR 04/02 A2992 1080 89 0 190/06 RMK AO2 TSNO
94908KDBQ DBQ20000305054510103/05/00 05:45:31  5-MIN KDBQ 051145Z AUTO 19006KT 10SM CLR 04/02 A2992 1080 89 0 190/06 RMK AO2 TSNO
94908KDBQ DBQ20000305055013803/05/00 05:50:31  5-MIN KDBQ 051150Z AUTO 20006KT 10SM CLR 04/02 A2992 1080 85 100 200/06 RMK AO2 SLP137 T00440022 10061 20039 50001 TSNO
94908KDBQ DBQ20000305055513603/05/00 05:55:31  5-MIN KDBQ 051155Z AUTO 20007KT 10SM CLR 04/02 A2992 1080 89 0 200/07 RMK AO2 SLP137 T00390022 10061 20039 51008 TSNO
94908KDBQ DBQ20000305060010103/05/00 06:00:31  5-MIN KDBQ 051200Z AUTO 20007KT 10SM CLR 04/02 A2992 1080 85 0 200/07 RMK AO2 TSNO
94908KDBQ DBQ20000305060510103/05/00 06:05:31  5-MIN KDBQ 051205Z AUTO 20007KT 10SM CLR 04/02 A2992 1080 85 0 200/07 RMK AO2 TSNO
94908KDBQ DBQ20000305061010103/05/00 06:10:31  5-MIN KDBQ 051210Z AUTO 20007KT 10SM CLR 04/02 A2992 1080 89 0 200/07 RMK AO2 TSNO
94908KDBQ DBQ20000305061510103/05/00 06:15:31  5-MIN KDBQ 051215Z AUTO 20007KT 10SM CLR 04/02 A2992 1080 89 0 200/07 RMK AO2 TSNO
94908KDBQ DBQ20000305062010103/05/00 06:20:31  5-MIN KDBQ 051220Z AUTO 20007KT 10SM CLR 04/02 A2992 1080 89 0 200/07 RMK AO2 TSNO
94908KDBQ DBQ20000305062510103/05/00 06:25:31  5-MIN KDBQ 051225Z AUTO 20007KT 10SM CLR 04/02 A2992 1080 89 0 200/07 RMK AO2 TSNO
94908KDBQ DBQ20000305063010103/05/00 06:30:31  5-MIN KDBQ 051230Z AUTO 20006KT 10SM CLR 04/02 A2992 1080 89 0 200/06 RMK AO2 TSNO
94908KDBQ DBQ20000305063510103/05/00 06:35:31  5-MIN KDBQ 051235Z AUTO 20007KT 10SM CLR 03/02 A2992 1080 89 0 200/07 RMK AO2 TSNO
94908KDBQ DBQ20000305064010103/05/00 06:40:31  5-MIN KDBQ 051240Z AUTO 20007KT 10SM CLR 03/02 A2992 1070 89 0 200/07 RMK AO2 TSNO
94908KDBQ DBQ20000305064510103/05/00 06:45:31  5-MIN KDBQ 051245Z AUTO 20007KT 10SM CLR 03/02 A2993 1070 89 0 200/07 RMK AO2 TSNO
94908KDBQ DBQ20000305065011103/05/00 06:50:31  5-MIN KDBQ 051250Z 20007KT 10SM CLR 03/02 A2993 1070 92 -100 200/07 RMK AO2 SLP140 T00280017
94908KDBQ DBQ20000305065511003/05/00 06:55:31  5-MIN KDBQ 051255Z 20007KT 9SM CLR 03/02 A2993 1070 92 -100 200/07 RMK AO2 SLP140 T00280017
94908KDBQ DBQ20000305070009003/05/00 07:00:31  5-MIN KDBQ 051300Z 20006KT 9SM CLR 03/02 A2993 1070 89 0 200/06 RMK AO2
94908KDBQ DBQ20000305070509003/05/00 07:05:31  5-MIN KDBQ 051305Z 20006KT 9SM CLR 03/02 A2993 1070 92 0 200/06 RMK AO2
94908KDBQ DBQ20000305071009003/05/00 07:10:31  5-MIN KDBQ 051310Z 19005KT 9SM CLR 03/02 A2993 1070 92 0 190/05 RMK AO2
94908KDBQ DBQ20000305071509003/05/00 07:15:31  5-MIN KDBQ 051315Z 20006KT 9SM CLR 03/02 A2993 1070 92 0 200/06 RMK AO2
94908KDBQ DBQ20000305072009003/05/00 07:20:31  5-MIN KDBQ 051320Z 19006KT 9SM CLR 04/02 A2993 1070 89 0 190/06 RMK AO2
94908KDBQ DBQ20000305072509003/05/00 07:25:31  5-MIN KDBQ 051325Z 19006KT 9SM CLR 04/03 A2993 1070 92 0 190/06 RMK AO2
94908KDBQ DBQ20000305073009203/05/00 07:30:31  5-MIN KDBQ 051330Z 19006KT 9SM CLR 04/03 A2993 1070 89 100 190/06 RMK AO2
94908KDBQ DBQ20000305073509203/05/00 07:35:31  5-MIN KDBQ 051335Z 19006KT 9SM CLR 05/03 A2994 1060 89 200 190/06 RMK AO2
94908KDBQ DBQ20000305074009203/05/00 07:40:31  5-MIN KDBQ 051340Z 20006KT 9SM CLR 06/04 A2994 1060 89 200 200/06 RMK AO2
94908KDBQ DBQ20000305074509203/05/00 07:45:31  5-MIN KDBQ 051345Z 20005KT 9SM CLR 06/04 A2994 1060 86 300 200/05 RMK AO2
94908KDBQ DBQ20000305075010903/05/00 07:50:31  5-MIN KDBQ 051350Z 20007KT 9SM CLR 06/04 A2994 1060 86 300 200/07 RMK AO2 SLP143 T00610039
94908KDBQ DBQ20000305075510903/05/00 07:55:31  5-MIN KDBQ 051355Z 20006KT 9SM CLR 07/04 A2994 1060 82 400 200/06 RMK AO2 SLP143 T00670039
94908KDBQ DBQ20000305080009203/05/00 08:00:31  5-MIN KDBQ 051400Z 20007KT 9SM CLR 07/04 A2994 1060 86 300 200/07 RMK AO2
94908KDBQ DBQ20000305080509303/05/00 08:05:31  5-MIN KDBQ 051405Z 20005KT 10SM CLR 07/04 A2994 1060 82 400 200/05 RMK AO2
94908KDBQ DBQ20000305081009303/05/00 08:10:31  5-MIN KDBQ 051410Z 20005KT 10SM CLR 07/04 A2994 1060 82 400 200/05 RMK AO2
94908KDBQ DBQ20000305081509303/05/00 08:15:31  5-MIN KDBQ 051415Z 20006KT 10SM CLR 08/04 A2994 1060 79 500 200/06 RMK AO2
94908KDBQ DBQ20000305082009303/05/00 08:20:31  5-MIN KDBQ 051420Z 21008KT 10SM CLR 08/04 A2995 1050 79 500 210/08 RMK AO2
94908KDBQ DBQ20000305082509303/05/00 08:25:31  5-MIN KDBQ 051425Z 21008KT 10SM CLR 08/04 A2995 1050 79 500 210/08 RMK AO2
94908KDBQ DBQ20000305083009303/05/00 08:30:31  5-MIN KDBQ 051430Z 21008KT 10SM CLR 08/04 A2995 1050 79 500 210/08 RMK AO2
94908KDBQ DBQ20000305083509303/05/00 08:35:31  5-MIN KDBQ 051435Z 21009KT 10SM CLR 08/04 A2995 1050 79 500 210/09 RMK AO2
94908KDBQ DBQ20000305084009303/05/00 08:40:31  5-MIN KDBQ 051440Z 21009KT 10SM CLR 08/04 A2995 1050 79 500 210/09 RMK AO2
94908KDBQ DBQ20000305084509303/05/00 08:45:31  5-MIN KDBQ 051445Z 21008KT 10SM CLR 08/04 A2995 1050 76 500 210/08 RMK AO2
94908KDBQ DBQ20000305085011603/05/00 08:50:31  5-MIN KDBQ 051450Z 22008KT 10SM CLR 09/05 A2995 1050 76 600 220/08 RMK AO2 SLP147 T00890050 51008
94908KDBQ DBQ20000305085511603/05/00 08:55:31  5-MIN KDBQ 051455Z 22009KT 10SM CLR 09/05 A2995 1050 74 700 220/09 RMK AO2 SLP147 T00940050 53011
94908KDBQ DBQ20000305090009303/05/00 09:00:31  5-MIN KDBQ 051500Z 22009KT 10SM CLR 09/05 A2995 1050 74 700 220/09 RMK AO2
94908KDBQ DBQ20000305090509303/05/00 09:05:31  5-MIN KDBQ 051505Z 22010KT 10SM CLR 10/05 A2995 1050 71 700 220/10 RMK AO2
94908KDBQ DBQ20000305091009303/05/00 09:10:31  5-MIN KDBQ 051510Z 22010KT 10SM CLR 10/05 A2995 1050 71 700 220/10 RMK AO2
94908KDBQ DBQ20000305091509303/05/00 09:15:31  5-MIN KDBQ 051515Z 22008KT 10SM CLR 10/05 A2995 1050 71 700 220/08 RMK AO2
94908KDBQ DBQ20000305092009303/05/00 09:20:31  5-MIN KDBQ 051520Z 22009KT 10SM CLR 10/06 A2996 1050 74 700 220/09 RMK AO2
94908KDBQ DBQ20000305092509303/05/00 09:25:31  5-MIN KDBQ 051525Z 22009KT 10SM CLR 11/06 A2996 1050 71 800 220/09 RMK AO2
94908KDBQ DBQ20000305093009303/05/00 09:30:31  5-MIN KDBQ 051530Z 21009KT 10SM CLR 11/06 A2996 1040 71 800 210/09 RMK AO2
94908KDBQ DBQ20000305093509303/05/00 09:35:31  5-MIN KDBQ 051535Z 22008KT 10SM CLR 11/06 A2996 1040 68 900 220/08 RMK AO2
94908KDBQ DBQ20000305094009303/05/00 09:40:31  5-MIN KDBQ 051540Z 22008KT 10SM CLR 11/06 A2996 1040 68 900 210/08 RMK AO2
94908KDBQ DBQ20000305094509303/05/00 09:45:31  5-MIN KDBQ 051545Z 22008KT 10SM CLR 11/06 A2996 1040 68 900 220/08 RMK AO2
94908KDBQ DBQ20000305095011003/05/00 09:50:31  5-MIN KDBQ 051550Z 21007KT 10SM CLR 12/06 A2996 1040 66 900 210/07 RMK AO2 SLP150 T01170056
94908KDBQ DBQ20000305095511003/05/00 09:55:31  5-MIN KDBQ 051555Z 22006KT 10SM CLR 12/06 A2996 1040 66 900 220/06 RMK AO2 SLP151 T01170056
94908KDBQ DBQ20000305100009403/05/00 10:00:31  5-MIN KDBQ 051600Z 22006KT 10SM CLR 12/06 A2996 1040 63 1000 220/06 RMK AO2
94908KDBQ DBQ20000305100509403/05/00 10:05:31  5-MIN KDBQ 051605Z 21006KT 10SM CLR 12/06 A2996 1040 66 1000 210/06 RMK AO2
94908KDBQ DBQ20000305101009403/05/00 10:10:31  5-MIN KDBQ 051610Z 21006KT 10SM CLR 12/06 A2996 1040 66 1000 210/06 RMK AO2
94908KDBQ DBQ20000305101509403/05/00 10:15:31  5-MIN KDBQ 051615Z 22007KT 10SM CLR 13/06 A2996 1040 63 1100 220/07 RMK AO2
94908KDBQ DBQ20000305102009403/05/00 10:20:31  5-MIN KDBQ 051620Z 20007KT 10SM CLR 13/06 A2996 1040 61 1100 200/07 RMK AO2
94908KDBQ DBQ20000305102509403/05/00 10:25:31  5-MIN KDBQ 051625Z 22006KT 10SM CLR 14/06 A2996 1040 59 1200 220/06 RMK AO2
94908KDBQ DBQ20000305103009403/05/00 10:30:31  5-MIN KDBQ 051630Z 23008KT 10SM CLR 14/06 A2996 1040 59 1200 230/08 RMK AO2
94908KDBQ DBQ20000305103509403/05/00 10:35:31  5-MIN KDBQ 051635Z 22008KT 10SM CLR 14/07 A2996 1040 59 1300 220/08 RMK AO2
94908KDBQ DBQ20000305104009403/05/00 10:40:31  5-MIN KDBQ 051640Z 23006KT 10SM CLR 14/07 A2996 1040 59 1300 230/06 RMK AO2
94908KDBQ DBQ20000305104509403/05/00 10:45:31  5-MIN KDBQ 051645Z 21007KT 10SM CLR 15/06 A2996 1040 55 1300 210/07 RMK AO2
94908KDBQ DBQ20000305105011103/05/00 10:50:31  5-MIN KDBQ 051650Z 21008KT 10SM CLR 16/07 A2996 1040 55 1400 210/08 RMK AO2 SLP148 T01560067
94908KDBQ DBQ20000305105511103/05/00 10:55:31  5-MIN KDBQ 051655Z 22006KT 10SM CLR 15/07 A2996 1040 57 1300 220/06 RMK AO2 SLP149 T01500067
94908KDBQ DBQ20000305110009403/05/00 11:00:31  5-MIN KDBQ 051700Z 21007KT 10SM CLR 16/07 A2996 1040 55 1400 210/07 RMK AO2
94908KDBQ DBQ20000305110511003/05/00 11:05:31  5-MIN KDBQ 051705Z 22008KT 200V260 10SM CLR 16/07 A2996 1040 55 1400 220/08 200V260 RMK AO2
94908KDBQ DBQ20000305111009403/05/00 11:10:31  5-MIN KDBQ 051710Z 22008KT 10SM CLR 16/07 A2995 1050 53 1500 220/08 RMK AO2
94908KDBQ DBQ20000305111509403/05/00 11:15:31  5-MIN KDBQ 051715Z 21009KT 10SM CLR 17/07 A2995 1050 51 1500 210/09 RMK AO2
94908KDBQ DBQ20000305112009403/05/00 11:20:31  5-MIN KDBQ 051720Z 22008KT 10SM CLR 16/07 A2995 1050 53 1500 220/08 RMK AO2
94908KDBQ DBQ20000305112509403/05/00 11:25:31  5-MIN KDBQ 051725Z 24009KT 10SM CLR 16/07 A2995 1050 53 1500 240/09 RMK AO2
94908KDBQ DBQ20000305113009403/05/00 11:30:31  5-MIN KDBQ 051730Z 23010KT 10SM CLR 17/07 A2995 1050 49 1600 230/10 RMK AO2
94908KDBQ DBQ20000305113509403/05/00 11:35:31  5-MIN KDBQ 051735Z 23010KT 10SM CLR 17/07 A2995 1050 49 1600 230/10 RMK AO2
94908KDBQ DBQ20000305114009403/05/00 11:40:31  5-MIN KDBQ 051740Z 24012KT 10SM CLR 17/07 A2995 1050 49 1600 240/12 RMK AO2
94908KDBQ DBQ20000305114509403/05/00 11:45:31  5-MIN KDBQ 051745Z 23010KT 10SM CLR 17/07 A2995 1050 49 1600 230/10 RMK AO2
94908KDBQ DBQ20000305115012903/05/00 11:50:31  5-MIN KDBQ 051750Z 24011KT 10SM CLR 18/07 A2995 1050 48 1700 240/11 RMK AO2 SLP145 T01780067 10178 20028 53011
94908KDBQ DBQ20000305115512903/05/00 11:55:31  5-MIN KDBQ 051755Z 23009KT 10SM CLR 18/07 A2995 1050 48 1700 230/09 RMK AO2 SLP144 T01780067 10178 20028 58001
94908KDBQ DBQ20000305120009403/05/00 12:00:31  5-MIN KDBQ 051800Z 24007KT 10SM CLR 18/07 A2995 1050 48 1700 240/07 RMK AO2
94908KDBQ DBQ20000305120509403/05/00 12:05:31  5-MIN KDBQ 051805Z 24008KT 10SM CLR 18/07 A2995 1050 48 1700 240/08 RMK AO2
94908KDBQ DBQ20000305121009403/05/00 12:10:31  5-MIN KDBQ 051810Z 23006KT 10SM CLR 18/07 A2995 1050 48 1700 230/06 RMK AO2
94908KDBQ DBQ20000305121509403/05/00 12:15:31  5-MIN KDBQ 051815Z 24009KT 10SM CLR 18/07 A2995 1050 48 1700 240/09 RMK AO2
94908KDBQ DBQ20000305122009403/05/00 12:20:31  5-MIN KDBQ 051820Z 24010KT 10SM CLR 18/07 A2994 1060 46 1700 240/10 RMK AO2
94908KDBQ DBQ20000305122509403/05/00 12:25:31  5-MIN KDBQ 051825Z 23009KT 10SM CLR 18/06 A2994 1060 44 1700 230/09 RMK AO2
94908KDBQ DBQ20000305123009403/05/00 12:30:31  5-MIN KDBQ 051830Z 19008KT 10SM CLR 18/06 A2994 1060 44 1700 190/08 RMK AO2
94908KDBQ DBQ20000305123509403/05/00 12:35:31  5-MIN KDBQ 051835Z VRB06KT 10SM CLR 18/07 A2994 1060 46 1700 VRB/06 RMK AO2
94908KDBQ DBQ20000305124009403/05/00 12:40:31  5-MIN KDBQ 051840Z 21009KT 10SM CLR 19/06 A2994 1060 43 1800 210/09 RMK AO2
94908KDBQ DBQ20000305124509403/05/00 12:45:31  5-MIN KDBQ 051845Z 20008KT 10SM CLR 19/06 A2994 1060 43 1800 200/08 RMK AO2
94908KDBQ DBQ20000305125011103/05/00 12:50:31  5-MIN KDBQ 051850Z 19010KT 10SM CLR 19/06 A2993 1070 41 1800 190/10 RMK AO2 SLP139 T01890056
94908KDBQ DBQ20000305125511103/05/00 12:55:31  5-MIN KDBQ 051855Z 19010KT 10SM CLR 19/06 A2993 1070 41 1800 190/10 RMK AO2 SLP138 T01890056
94908KDBQ DBQ20000305130009403/05/00 13:00:31  5-MIN KDBQ 051900Z 19007KT 10SM CLR 19/06 A2993 1070 41 1800 190/07 RMK AO2
94908KDBQ DBQ20000305130509403/05/00 13:05:31  5-MIN KDBQ 051905Z 18007KT 10SM CLR 19/06 A2993 1070 41 1800 180/07 RMK AO2
94908KDBQ DBQ20000305131009403/05/00 13:10:31  5-MIN KDBQ 051910Z 22008KT 10SM CLR 19/06 A2993 1070 41 1800 220/08 RMK AO2
94908KDBQ DBQ20000305131509403/05/00 13:15:31  5-MIN KDBQ 051915Z 24008KT 10SM CLR 19/06 A2993 1070 41 1800 240/08 RMK AO2
94908KDBQ DBQ20000305132009403/05/00 13:20:31  5-MIN KDBQ 051920Z 22010KT 10SM CLR 19/06 A2992 1070 41 1800 220/10 RMK AO2
94908KDBQ DBQ20000305132509403/05/00 13:25:31  5-MIN KDBQ 051925Z 22010KT 10SM CLR 19/06 A2992 1080 40 1900 220/10 RMK AO2
94908KDBQ DBQ20000305133009403/05/00 13:30:31  5-MIN KDBQ 051930Z 22006KT 10SM CLR 19/05 A2992 1080 38 1900 220/06 RMK AO2
94908KDBQ DBQ20000305133509403/05/00 13:35:31  5-MIN KDBQ 051935Z 19010KT 10SM CLR 19/05 A2992 1080 38 1900 190/10 RMK AO2
94908KDBQ DBQ20000305134009403/05/00 13:40:31  5-MIN KDBQ 051940Z 20009KT 10SM CLR 19/05 A2992 1080 38 1900 200/09 RMK AO2
94908KDBQ DBQ20000305134509403/05/00 13:45:31  5-MIN KDBQ 051945Z 20005KT 10SM CLR 19/04 A2992 1080 38 1800 200/05 RMK AO2
94908KDBQ DBQ20000305135011703/05/00 13:50:31  5-MIN KDBQ 051950Z 21010G14KT 10SM CLR 19/05 A2992 1080 38 1900 200/10G14 RMK AO2 SLP132 T01940050
94908KDBQ DBQ20000305135511703/05/00 13:55:31  5-MIN KDBQ 051955Z 21008G14KT 10SM CLR 19/04 A2992 1080 35 1900 210/08G14 RMK AO2 SLP132 T01940039
94908KDBQ DBQ20000305140009403/05/00 14:00:31  5-MIN KDBQ 052000Z 22007KT 10SM CLR 19/04 A2992 1080 36 1800 220/07 RMK AO2
94908KDBQ DBQ20000305140509403/05/00 14:05:31  5-MIN KDBQ 052005Z 23010KT 10SM CLR 19/04 A2991 1080 37 1900 230/10 RMK AO2
94908KDBQ DBQ20000305141009403/05/00 14:10:31  5-MIN KDBQ 052010Z 21009KT 10SM CLR 19/05 A2991 1090 38 1900 210/09 RMK AO2
94908KDBQ DBQ20000305141509403/05/00 14:15:31  5-MIN KDBQ 052015Z 23008KT 10SM CLR 19/04 A2991 1090 37 1900 230/08 RMK AO2
94908KDBQ DBQ20000305142009403/05/00 14:20:31  5-MIN KDBQ 052020Z 21009KT 10SM CLR 20/05 A2991 1090 37 2000 210/09 RMK AO2
94908KDBQ DBQ20000305142509403/05/00 14:25:31  5-MIN KDBQ 052025Z 21011KT 10SM CLR 19/05 A2991 1080 38 1900 210/11 RMK AO2
94908KDBQ DBQ20000305143009403/05/00 14:30:31  5-MIN KDBQ 052030Z 21009KT 10SM CLR 19/04 A2991 1090 37 1900 210/09 RMK AO2
94908KDBQ DBQ20000305143509403/05/00 14:35:31  5-MIN KDBQ 052035Z 22007KT 10SM CLR 19/04 A2991 1080 37 1900 220/07 RMK AO2
94908KDBQ DBQ20000305144009403/05/00 14:40:31  5-MIN KDBQ 052040Z 22007KT 10SM CLR 19/04 A2991 1080 37 1900 220/07 RMK AO2
94908KDBQ DBQ20000305144509403/05/00 14:45:31  5-MIN KDBQ 052045Z 22009KT 10SM CLR 19/04 A2992 1080 37 1900 220/09 RMK AO2
94908KDBQ DBQ20000305145011703/05/00 14:50:31  5-MIN KDBQ 052050Z 25009KT 10SM CLR 19/04 A2991 1080 35 1900 250/09 RMK AO2 SLP132 T01940039 58001
94908KDBQ DBQ20000305145511703/05/00 14:55:31  5-MIN KDBQ 052055Z 23009KT 10SM CLR 19/04 A2992 1080 35 1900 230/09 RMK AO2 SLP132 T01940039 56012
94908KDBQ DBQ20000305150009403/05/00 15:00:31  5-MIN KDBQ 052100Z 16009KT 10SM CLR 19/04 A2991 1080 35 1900 160/09 RMK AO2
94908KDBQ DBQ20000305150509403/05/00 15:05:31  5-MIN KDBQ 052105Z 21008KT 10SM CLR 20/04 A2991 1080 35 2000 200/08 RMK AO2
94908KDBQ DBQ20000305151009403/05/00 15:10:31  5-MIN KDBQ 052110Z 20010KT 10SM CLR 19/04 A2991 1090 35 1900 200/10 RMK AO2
94908KDBQ DBQ20000305151511003/05/00 15:15:31  5-MIN KDBQ 052115Z 19011KT 150V220 10SM CLR 20/04 A2991 1080 34 2000 190/11 150V220 RMK AO2
94908KDBQ DBQ20000305152009403/05/00 15:20:31  5-MIN KDBQ 052120Z 21010KT 10SM CLR 19/04 A2991 1090 35 1900 210/10 RMK AO2
94908KDBQ DBQ20000305152509403/05/00 15:25:31  5-MIN KDBQ 052125Z 22011KT 10SM CLR 19/04 A2991 1090 35 1900 210/11 RMK AO2
94908KDBQ DBQ20000305153009403/05/00 15:30:31  5-MIN KDBQ 052130Z 24009KT 10SM CLR 19/04 A2991 1080 35 1900 230/09 RMK AO2
94908KDBQ DBQ20000305153509403/05/00 15:35:31  5-MIN KDBQ 052135Z 18010KT 10SM CLR 19/04 A2991 1090 35 1900 180/10 RMK AO2
94908KDBQ DBQ20000305154009403/05/00 15:40:31  5-MIN KDBQ 052140Z 18009KT 10SM CLR 19/04 A2991 1090 35 1900 180/09 RMK AO2
94908KDBQ DBQ20000305154509403/05/00 15:45:31  5-MIN KDBQ 052145Z 19009KT 10SM CLR 19/03 A2991 1090 34 1900 190/09 RMK AO2
94908KDBQ DBQ20000305155011103/05/00 15:50:31  5-MIN KDBQ 052150Z 17008KT 10SM CLR 19/03 A2991 1090 34 1900 170/08 RMK AO2 SLP131 T01940033
94908KDBQ DBQ20000305155511103/05/00 15:55:31  5-MIN KDBQ 052155Z 17007KT 10SM CLR 19/03 A2991 1090 34 1900 170/07 RMK AO2 SLP131 T01940033
94908KDBQ DBQ20000305160009403/05/00 16:00:31  5-MIN KDBQ 052200Z 18008KT 10SM CLR 19/04 A2991 1090 35 1900 180/08 RMK AO2
94908KDBQ DBQ20000305160509403/05/00 16:05:31  5-MIN KDBQ 052205Z 18010KT 10SM CLR 19/04 A2991 1090 35 1900 180/10 RMK AO2
94908KDBQ DBQ20000305161009403/05/00 16:10:31  5-MIN KDBQ 052210Z 18011KT 10SM CLR 19/03 A2991 1090 35 1800 180/11 RMK AO2
94908KDBQ DBQ20000305161509403/05/00 16:15:31  5-MIN KDBQ 052215Z 18010KT 10SM CLR 19/03 A2991 1090 35 1800 180/10 RMK AO2
94908KDBQ DBQ20000305162009403/05/00 16:20:31  5-MIN KDBQ 052220Z 20010KT 10SM CLR 19/03 A2991 1090 35 1800 200/10 RMK AO2
94908KDBQ DBQ20000305162509403/05/00 16:25:31  5-MIN KDBQ 052225Z 20006KT 10SM CLR 19/03 A2991 1080 35 1800 200/06 RMK AO2
94908KDBQ DBQ20000305163009403/05/00 16:30:31  5-MIN KDBQ 052230Z 21009KT 10SM CLR 19/03 A2992 1080 35 1800 210/09 RMK AO2
94908KDBQ DBQ20000305163509403/05/00 16:35:31  5-MIN KDBQ 052235Z 20008KT 10SM CLR 19/03 A2992 1080 35 1800 200/08 RMK AO2
94908KDBQ DBQ20000305164009403/05/00 16:40:31  5-MIN KDBQ 052240Z 20008KT 10SM CLR 19/03 A2992 1080 35 1800 200/08 RMK AO2
94908KDBQ DBQ20000305164509403/05/00 16:45:31  5-MIN KDBQ 052245Z 19007KT 10SM CLR 19/03 A2992 1080 35 1800 190/07 RMK AO2
94908KDBQ DBQ20000305165011103/05/00 16:50:31  5-MIN KDBQ 052250Z 18008KT 10SM CLR 18/04 A2992 1080 38 1800 180/08 RMK AO2 SLP134 T01830039
94908KDBQ DBQ20000305165511103/05/00 16:55:31  5-MIN KDBQ 052255Z 18009KT 10SM CLR 18/03 A2992 1080 36 1800 180/09 RMK AO2 SLP134 T01830033
94908KDBQ DBQ20000305170009403/05/00 17:00:31  5-MIN KDBQ 052300Z 18010KT 10SM CLR 18/03 A2992 1080 38 1700 180/10 RMK AO2
94908KDBQ DBQ20000305170509403/05/00 17:05:31  5-MIN KDBQ 052305Z 18009KT 10SM CLR 18/03 A2992 1080 38 1700 180/09 RMK AO2
94908KDBQ DBQ20000305171009403/05/00 17:10:31  5-MIN KDBQ 052310Z 19008KT 10SM CLR 18/03 A2992 1080 38 1700 190/08 RMK AO2
94908KDBQ DBQ20000305203510303/05/00 20:35:31  5-MIN KDBQ 060235Z AUTO 15009KT 10SM CLR 10/03 A2997 1040 63 700 150/09 RMK AO2 TSNO
94908KDBQ DBQ20000305204010303/05/00 20:40:31  5-MIN KDBQ 060240Z AUTO 15009KT 10SM CLR 10/03 A2997 1040 63 700 150/09 RMK AO2 TSNO
94908KDBQ DBQ20000305204510303/05/00 20:45:31  5-MIN KDBQ 060245Z AUTO 16010KT 10SM CLR 10/03 A2997 1040 63 700 160/10 RMK AO2 TSNO
94908KDBQ DBQ20000305205012603/05/00 20:50:31  5-MIN KDBQ 060250Z AUTO 16009KT 10SM CLR 10/03 A2997 1030 63 700 160/09 RMK AO2 SLP152 T01000033 53005 TSNO
94908KDBQ DBQ20000305205512603/05/00 20:55:31  5-MIN KDBQ 060255Z AUTO 16009KT 10SM CLR 10/03 A2997 1030 63 700 160/09 RMK AO2 SLP153 T01000033 51013 TSNO
94908KDBQ DBQ20000305210010303/05/00 21:00:31  5-MIN KDBQ 060300Z AUTO 16009KT 10SM CLR 10/03 A2997 1030 63 700 160/09 RMK AO2 TSNO
94908KDBQ DBQ20000305210510303/05/00 21:05:31  5-MIN KDBQ 060305Z AUTO 16008KT 10SM CLR 10/03 A2997 1030 63 700 160/08 RMK AO2 TSNO
94908KDBQ DBQ20000305211010303/05/00 21:10:31  5-MIN KDBQ 060310Z AUTO 16008KT 10SM CLR 10/03 A2997 1030 63 700 160/08 RMK AO2 TSNO
94908KDBQ DBQ20000305211510303/05/00 21:15:31  5-MIN KDBQ 060315Z AUTO 16009KT 10SM CLR 09/03 A2997 1030 65 600 160/09 RMK AO2 TSNO
94908KDBQ DBQ20000305212010303/05/00 21:20:31  5-MIN KDBQ 060320Z AUTO 16008KT 10SM CLR 09/03 A2997 1030 65 600 160/08 RMK AO2 TSNO
94908KDBQ DBQ20000305212510303/05/00 21:25:31  5-MIN KDBQ 060325Z AUTO 16009KT 10SM CLR 10/03 A2997 1030 63 700 160/09 RMK AO2 TSNO
94908KDBQ DBQ20000305213010303/05/00 21:30:31  5-MIN KDBQ 060330Z AUTO 16009KT 10SM CLR 11/03 A2998 1030 61 800 160/09 RMK AO2 TSNO
94908KDBQ DBQ20000305213510303/05/00 21:35:31  5-MIN KDBQ 060335Z AUTO 17008KT 10SM CLR 10/03 A2998 1020 63 700 160/08 RMK AO2 TSNO
94908KDBQ DBQ20000305214010303/05/00 21:40:31  5-MIN KDBQ 060340Z AUTO 17006KT 10SM CLR 10/03 A2998 1020 63 700 170/06 RMK AO2 TSNO
94908KDBQ DBQ20000305214510303/05/00 21:45:31  5-MIN KDBQ 060345Z AUTO 17005KT 10SM CLR 08/03 A2998 1020 70 500 170/05 RMK AO2 TSNO
94908KDBQ DBQ20000305215012003/05/00 21:50:31  5-MIN KDBQ 060350Z AUTO 17004KT 10SM CLR 08/03 A2999 1020 70 500 170/04 RMK AO2 SLP158 T00830033 TSNO
94908KDBQ DBQ20000305215512003/05/00 21:55:31  5-MIN KDBQ 060355Z AUTO 18004KT 10SM CLR 08/03 A2999 1020 70 500 180/04 RMK AO2 SLP159 T00830033 TSNO
94908KDBQ DBQ20000305220010303/05/00 22:00:31  5-MIN KDBQ 060400Z AUTO 19004KT 10SM CLR 09/03 A2999 1020 68 600 190/04 RMK AO2 TSNO
94908KDBQ DBQ20000305220510303/05/00 22:05:31  5-MIN KDBQ 060405Z AUTO 20004KT 10SM CLR 09/03 A2999 1010 68 600 190/04 RMK AO2 TSNO
94908KDBQ DBQ20000305221010303/05/00 22:10:31  5-MIN KDBQ 060410Z AUTO 20003KT 10SM CLR 09/03 A2999 1010 68 600 200/03 RMK AO2 TSNO
94908KDBQ DBQ20000305221510303/05/00 22:15:31  5-MIN KDBQ 060415Z AUTO 18005KT 10SM CLR 09/03 A2999 1010 65 600 180/05 RMK AO2 TSNO
94908KDBQ DBQ20000305222010303/05/00 22:20:31  5-MIN KDBQ 060420Z AUTO 18006KT 10SM CLR 10/03 A2999 1010 63 700 180/06 RMK AO2 TSNO
94908KDBQ DBQ20000305222510303/05/00 22:25:31  5-MIN KDBQ 060425Z AUTO 18006KT 10SM CLR 10/03 A2999 1010 63 700 180/06 RMK AO2 TSNO
94908KDBQ DBQ20000305223010303/05/00 22:30:31  5-MIN KDBQ 060430Z AUTO 18006KT 10SM CLR 10/03 A2999 1010 63 700 180/06 RMK AO2 TSNO
94908KDBQ DBQ20000305223510303/05/00 22:35:31  5-MIN KDBQ 060435Z AUTO 18006KT 10SM CLR 09/03 A2999 1010 65 600 180/06 RMK AO2 TSNO
94908KDBQ DBQ20000305224010303/05/00 22:40:31  5-MIN KDBQ 060440Z AUTO 18006KT 10SM CLR 09/03 A2999 1010 65 600 180/06 RMK AO2 TSNO
94908KDBQ DBQ20000305224510303/05/00 22:45:31  5-MIN KDBQ 060445Z AUTO 18006KT 10SM CLR 08/03 A2999 1010 68 500 180/06 RMK AO2 TSNO
94908KDBQ DBQ20000305225012003/05/00 22:50:31  5-MIN KDBQ 060450Z AUTO 18006KT 10SM CLR 08/03 A2999 1010 68 500 180/06 RMK AO2 SLP158 T00830028 TSNO
94908KDBQ DBQ20000305225512003/05/00 22:55:31  5-MIN KDBQ 060455Z AUTO 18006KT 10SM CLR 08/03 A2999 1010 68 500 180/06 RMK AO2 SLP158 T00830028 TSNO
94908KDBQ DBQ20000305230010303/05/00 23:00:31  5-MIN KDBQ 060500Z AUTO 18006KT 10SM CLR 08/03 A2999 1010 70 400 180/06 RMK AO2 TSNO
94908KDBQ DBQ20000305230510303/05/00 23:05:31  5-MIN KDBQ 060505Z AUTO 18005KT 10SM CLR 08/02 A2999 1010 68 400 180/05 RMK AO2 TSNO
94908KDBQ DBQ20000305231010303/05/00 23:10:31  5-MIN KDBQ 060510Z AUTO 17005KT 10SM CLR 07/02 A2999 1010 70 400 170/05 RMK AO2 TSNO
94908KDBQ DBQ20000305231510303/05/00 23:15:31  5-MIN KDBQ 060515Z AUTO 18006KT 10SM CLR 07/02 A2999 1010 70 400 170/06 RMK AO2 TSNO
94908KDBQ DBQ20000305232010303/05/00 23:20:31  5-MIN KDBQ 060520Z AUTO 18006KT 10SM CLR 07/02 A2999 1010 73 300 170/06 RMK AO2 TSNO
94908KDBQ DBQ20000305232510303/05/00 23:25:31  5-MIN KDBQ 060525Z AUTO 18006KT 10SM CLR 07/02 A2999 1010 73 300 170/06 RMK AO2 TSNO
94908KDBQ DBQ20000305233010303/05/00 23:30:31  5-MIN KDBQ 060530Z AUTO 18007KT 10SM CLR 07/02 A2999 1010 73 300 180/07 RMK AO2 TSNO
94908KDBQ DBQ20000305233510303/05/00 23:35:31  5-MIN KDBQ 060535Z AUTO 18006KT 10SM CLR 07/02 A2999 1010 70 400 180/06 RMK AO2 TSNO
94908KDBQ DBQ20000305234010303/05/00 23:40:31  5-MIN KDBQ 060540Z AUTO 18006KT 10SM CLR 07/02 A2999 1010 73 300 180/06 RMK AO2 TSNO
94908KDBQ DBQ20000305234510303/05/00 23:45:31  5-MIN KDBQ 060545Z AUTO 18006KT 10SM CLR 07/02 A3000 1010 73 300 170/06 RMK AO2 TSNO
94908KDBQ DBQ20000305235014803/05/00 23:50:31  5-MIN KDBQ 060550Z AUTO 17004KT 10SM CLR 07/02 A3000 1010 70 400 170/04 RMK AO2 SLP160 T00720022 10139 20067 402000028 51013 TSNO
94908KDBQ DBQ20000305235514803/05/00 23:55:31  5-MIN KDBQ 060555Z AUTO 18005KT 10SM CLR 07/02 A3000 1010 70 400 170/05 RMK AO2 SLP160 T00720022 10139 20067 402000028 51009 TSNO
94908KDBQ DBQ20000306000010303/06/00 00:00:31  5-MIN KDBQ 060600Z AUTO 18006KT 10SM CLR 07/02 A3000 1010 70 400 180/06 RMK AO2 TSNO
94908KDBQ DBQ20000306000510303/06/00 00:05:31  5-MIN KDBQ 060605Z AUTO 17006KT 10SM CLR 07/02 A3000 1000 70 300 170/06 RMK AO2 TSNO
94908KDBQ DBQ20000306001010303/06/00 00:10:31  5-MIN KDBQ 060610Z AUTO 17006KT 10SM CLR 07/02 A3000 1000 70 300 170/06 RMK AO2 TSNO
94908KDBQ DBQ20000306001510303/06/00 00:15:31  5-MIN KDBQ 060615Z AUTO 18006KT 10SM CLR 07/02 A3000 1000 70 300 180/06 RMK AO2 TSNO
94908KDBQ DBQ20000306002010303/06/00 00:20:31  5-MIN KDBQ 060620Z AUTO 18007KT 10SM CLR 07/02 A3000 1000 73 300 180/07 RMK AO2 TSNO
94908KDBQ DBQ20000306002510303/06/00 00:25:31  5-MIN KDBQ 060625Z AUTO 18007KT 10SM CLR 06/02 A3000 1000 76 200 180/07 RMK AO2 TSNO
94908KDBQ DBQ20000306003010303/06/00 00:30:31  5-MIN KDBQ 060630Z AUTO 18008KT 10SM CLR 07/02 A3000 1000 73 300 180/08 RMK AO2 TSNO
94908KDBQ DBQ20000306003510303/06/00 00:35:31  5-MIN KDBQ 060635Z AUTO 18008KT 10SM CLR 07/02 A3001 1000 73 300 180/08 RMK AO2 TSNO
94908KDBQ DBQ20000306004010303/06/00 00:40:31  5-MIN KDBQ 060640Z AUTO 18008KT 10SM CLR 07/02 A3001 1000 73 300 180/08 RMK AO2 TSNO
94908KDBQ DBQ20000306004510303/06/00 00:45:31  5-MIN KDBQ 060645Z AUTO 18008KT 10SM CLR 07/02 A3001 1000 73 300 180/08 RMK AO2 TSNO
94908KDBQ DBQ20000306005012003/06/00 00:50:31  5-MIN KDBQ 060650Z AUTO 17008KT 10SM CLR 07/02 A3001 1000 73 300 170/08 RMK AO2 SLP164 T00670022 TSNO
94908KDBQ DBQ20000306005512003/06/00 00:55:31  5-MIN KDBQ 060655Z AUTO 18008KT 10SM CLR 07/02 A3001 1000 70 300 180/08 RMK AO2 SLP163 T00720022 TSNO
94908KDBQ DBQ20000306010010303/06/00 01:00:31  5-MIN KDBQ 060700Z AUTO 18008KT 10SM CLR 07/02 A3001 1000 70 300 180/08 RMK AO2 TSNO
94908KDBQ DBQ20000306010510303/06/00 01:05:31  5-MIN KDBQ 060705Z AUTO 18008KT 10SM CLR 07/02 A3001 1000 70 300 180/08 RMK AO2 TSNO
94908KDBQ DBQ20000306011010303/06/00 01:10:31  5-MIN KDBQ 060710Z AUTO 18008KT 10SM CLR 07/02 A3001 1000 73 300 180/08 RMK AO2 TSNO
94908KDBQ DBQ20000306011510303/06/00 01:15:31  5-MIN KDBQ 060715Z AUTO 18008KT 10SM CLR 07/02 A3001 1000 73 300 180/08 RMK AO2 TSNO
94908KDBQ DBQ20000306012010303/06/00 01:20:31  5-MIN KDBQ 060720Z AUTO 18008KT 10SM CLR 07/02 A3001 1000 68 300 180/08 RMK AO2 TSNO
94908KDBQ DBQ20000306012510303/06/00 01:25:31  5-MIN KDBQ 060725Z AUTO 18007KT 10SM CLR 07/02 A3001 1000 70 300 180/07 RMK AO2 TSNO
94908KDBQ DBQ20000306013010303/06/00 01:30:31  5-MIN KDBQ 060730Z AUTO 18008KT 10SM CLR 07/02 A3001 1000 70 300 170/08 RMK AO2 TSNO
94908KDBQ DBQ20000306013510203/06/00 01:35:31  5-MIN KDBQ 060735Z AUTO 17007KT 10SM CLR 07/02 A3001 990 70 300 170/07 RMK AO2 TSNO
94908KDBQ DBQ20000306014010303/06/00 01:40:31  5-MIN KDBQ 060740Z AUTO 17006KT 10SM CLR 07/02 A3001 1000 68 300 170/06 RMK AO2 TSNO
94908KDBQ DBQ20000306014510303/06/00 01:45:31  5-MIN KDBQ 060745Z AUTO 16005KT 10SM CLR 07/02 A3001 1000 68 300 160/05 RMK AO2 TSNO
94908KDBQ DBQ20000306015012003/06/00 01:50:31  5-MIN KDBQ 060750Z AUTO 16005KT 10SM CLR 07/02 A3001 1000 68 300 160/05 RMK AO2 SLP163 T00720017 TSNO
94908KDBQ DBQ20000306015512003/06/00 01:55:31  5-MIN KDBQ 060755Z AUTO 16005KT 10SM CLR 07/02 A3001 1000 68 300 160/05 RMK AO2 SLP163 T00720017 TSNO
94908KDBQ DBQ20000306020010303/06/00 02:00:31  5-MIN KDBQ 060800Z AUTO 16005KT 10SM CLR 07/02 A3001 1000 68 300 160/05 RMK AO2 TSNO
94908KDBQ DBQ20000306020510303/06/00 02:05:31  5-MIN KDBQ 060805Z AUTO 16005KT 10SM CLR 08/02 A3001 1000 65 400 160/05 RMK AO2 TSNO
94908KDBQ DBQ20000306021010203/06/00 02:10:31  5-MIN KDBQ 060810Z AUTO 17005KT 10SM CLR 07/02 A3001 990 68 300 170/05 RMK AO2 TSNO
94908KDBQ DBQ20000306021510303/06/00 02:15:31  5-MIN KDBQ 060815Z AUTO 17007KT 10SM CLR 07/02 A3001 1000 68 300 170/07 RMK AO2 TSNO
94908KDBQ DBQ20000306022010303/06/00 02:20:31  5-MIN KDBQ 060820Z AUTO 18006KT 10SM CLR 07/01 A3001 1000 67 300 170/06 RMK AO2 TSNO
94908KDBQ DBQ20000306022510203/06/00 02:25:31  5-MIN KDBQ 060825Z AUTO 19006KT 10SM CLR 06/01 A3001 990 73 100 180/06 RMK AO2 TSNO
94908KDBQ DBQ20000306023010203/06/00 02:30:31  5-MIN KDBQ 060830Z AUTO 18004KT 10SM CLR 06/01 A3001 990 73 100 180/04 RMK AO2 TSNO
94908KDBQ DBQ20000306023510203/06/00 02:35:31  5-MIN KDBQ 060835Z AUTO 18004KT 10SM CLR 06/01 A3001 990 73 100 180/04 RMK AO2 TSNO
94908KDBQ DBQ20000306024010203/06/00 02:40:31  5-MIN KDBQ 060840Z AUTO 18004KT 10SM CLR 06/01 A3001 990 73 100 180/04 RMK AO2 TSNO
94908KDBQ DBQ20000306024510203/06/00 02:45:31  5-MIN KDBQ 060845Z AUTO 18005KT 10SM CLR 06/01 A3001 990 73 100 180/05 RMK AO2 TSNO
94908KDBQ DBQ20000306025012503/06/00 02:50:31  5-MIN KDBQ 060850Z AUTO 18005KT 10SM CLR 06/01 A3001 990 70 200 180/05 RMK AO2 SLP166 T00610011 51009 TSNO
94908KDBQ DBQ20000306025512503/06/00 02:55:31  5-MIN KDBQ 060855Z AUTO 17005KT 10SM CLR 06/01 A3001 990 70 200 170/05 RMK AO2 SLP166 T00610011 51005 TSNO
94908KDBQ DBQ20000306030010203/06/00 03:00:31  5-MIN KDBQ 060900Z AUTO 16005KT 10SM CLR 06/01 A3001 990 70 200 160/05 RMK AO2 TSNO
94908KDBQ DBQ20000306030510203/06/00 03:05:31  5-MIN KDBQ 060905Z AUTO 16005KT 10SM CLR 07/01 A3001 990 67 300 160/05 RMK AO2 TSNO
94908KDBQ DBQ20000306031010203/06/00 03:10:31  5-MIN KDBQ 060910Z AUTO 16005KT 10SM CLR 07/01 A3001 990 65 300 160/05 RMK AO2 TSNO
94908KDBQ DBQ20000306031510203/06/00 03:15:31  5-MIN KDBQ 060915Z AUTO 15006KT 10SM CLR 07/01 A3001 990 65 300 150/06 RMK AO2 TSNO
94908KDBQ DBQ20000306032010203/06/00 03:20:31  5-MIN KDBQ 060920Z AUTO 16006KT 10SM CLR 07/01 A3001 990 65 300 160/06 RMK AO2 TSNO
94908KDBQ DBQ20000306032510203/06/00 03:25:31  5-MIN KDBQ 060925Z AUTO 16005KT 10SM CLR 07/01 A3001 990 65 300 160/05 RMK AO2 TSNO
94908KDBQ DBQ20000306033010203/06/00 03:30:31  5-MIN KDBQ 060930Z AUTO 14006KT 10SM CLR 07/01 A3001 990 67 300 140/06 RMK AO2 TSNO
94908KDBQ DBQ20000306033510203/06/00 03:35:31  5-MIN KDBQ 060935Z AUTO VRB04KT 10SM CLR 07/01 A3001 990 67 300 VRB/04 RMK AO2 TSNO
94908KDBQ DBQ20000306034010203/06/00 03:40:31  5-MIN KDBQ 060940Z AUTO 14008KT 10SM CLR 07/01 A3001 990 67 300 140/08 RMK AO2 TSNO
94908KDBQ DBQ20000306034510203/06/00 03:45:31  5-MIN KDBQ 060945Z AUTO 14009KT 10SM CLR 09/01 A3001 990 58 500 140/09 RMK AO2 TSNO
94908KDBQ DBQ20000306035011903/06/00 03:50:31  5-MIN KDBQ 060950Z AUTO 14009KT 10SM CLR 08/01 A3001 990 60 500 130/09 RMK AO2 SLP165 T00830011 TSNO
94908KDBQ DBQ20000306035511903/06/00 03:55:31  5-MIN KDBQ 060955Z AUTO 14009KT 10SM CLR 08/01 A3002 990 62 400 140/09 RMK AO2 SLP165 T00780011 TSNO
94908KDBQ DBQ20000306040010203/06/00 04:00:31  5-MIN KDBQ 061000Z AUTO 14009KT 10SM CLR 07/01 A3002 990 65 300 140/09 RMK AO2 TSNO
94908KDBQ DBQ20000306040510203/06/00 04:05:31  5-MIN KDBQ 061005Z AUTO 14009KT 10SM CLR 07/01 A3002 990 67 300 140/09 RMK AO2 TSNO
94908KDBQ DBQ20000306041010203/06/00 04:10:31  5-MIN KDBQ 061010Z AUTO 14009KT 10SM CLR 07/01 A3002 990 67 300 140/09 RMK AO2 TSNO
94908KDBQ DBQ20000306041510203/06/00 04:15:31  5-MIN KDBQ 061015Z AUTO 14009KT 10SM CLR 07/01 A3002 980 67 300 140/09 RMK AO2 TSNO
94908KDBQ DBQ20000306042010203/06/00 04:20:31  5-MIN KDBQ 061020Z AUTO 15009KT 10SM CLR 07/01 A3002 980 67 300 150/09 RMK AO2 TSNO
94908KDBQ DBQ20000306042510203/06/00 04:25:31  5-MIN KDBQ 061025Z AUTO 15009KT 10SM CLR 07/01 A3002 980 67 300 150/09 RMK AO2 TSNO
94908KDBQ DBQ20000306043010203/06/00 04:30:31  5-MIN KDBQ 061030Z AUTO 15009KT 10SM CLR 07/01 A3002 980 67 300 140/09 RMK AO2 TSNO
94908KDBQ DBQ20000306043510203/06/00 04:35:31  5-MIN KDBQ 061035Z AUTO 14009KT 10SM CLR 07/01 A3002 980 67 300 140/09 RMK AO2 TSNO
94908KDBQ DBQ20000306044010203/06/00 04:40:31  5-MIN KDBQ 061040Z AUTO 15010KT 10SM CLR 07/01 A3003 980 67 300 150/10 RMK AO2 TSNO
94908KDBQ DBQ20000306044510203/06/00 04:45:31  5-MIN KDBQ 061045Z AUTO 15009KT 10SM CLR 07/01 A3003 980 65 300 150/09 RMK AO2 TSNO
94908KDBQ DBQ20000306045011903/06/00 04:50:31  5-MIN KDBQ 061050Z AUTO 15008KT 10SM CLR 07/01 A3003 980 65 200 150/08 RMK AO2 SLP171 T00670006 TSNO
94908KDBQ DBQ20000306045511903/06/00 04:55:31  5-MIN KDBQ 061055Z AUTO 15008KT 10SM CLR 06/01 A3003 980 67 200 150/08 RMK AO2 SLP171 T00610006 TSNO
94908KDBQ DBQ20000306050010203/06/00 05:00:31  5-MIN KDBQ 061100Z AUTO 16008KT 10SM CLR 07/01 A3003 970 65 200 160/08 RMK AO2 TSNO
94908KDBQ DBQ20000306050510203/06/00 05:05:31  5-MIN KDBQ 061105Z AUTO 16008KT 10SM CLR 07/01 A3004 970 65 200 160/08 RMK AO2 TSNO
94908KDBQ DBQ20000306051010203/06/00 05:10:31  5-MIN KDBQ 061110Z AUTO 16008KT 10SM CLR 07/01 A3004 970 62 300 160/08 RMK AO2 TSNO
94908KDBQ DBQ20000306051510203/06/00 05:15:31  5-MIN KDBQ 061115Z AUTO 17006KT 10SM CLR 07/01 A3003 970 65 200 170/06 RMK AO2 TSNO
94908KDBQ DBQ20000306052010203/06/00 05:20:31  5-MIN KDBQ 061120Z AUTO 17006KT 10SM CLR 06/01 A3004 970 67 200 170/06 RMK AO2 TSNO
94908KDBQ DBQ20000306052510003/06/00 05:25:31  5-MIN KDBQ 061125Z AUTO 19006KT 10SM CLR 05/01 A3004 970 73 0 190/06 RMK AO2 TSNO
94908KDBQ DBQ20000306053010003/06/00 05:30:31  5-MIN KDBQ 061130Z AUTO 17006KT 10SM CLR 05/01 A3004 970 73 0 170/06 RMK AO2 TSNO
94908KDBQ DBQ20000306053510203/06/00 05:35:31  5-MIN KDBQ 061135Z AUTO 17006KT 10SM CLR 06/01 A3004 960 70 100 170/06 RMK AO2 TSNO
94908KDBQ DBQ20000306054010003/06/00 05:40:31  5-MIN KDBQ 061140Z AUTO 17007KT 10SM CLR 05/01 A3005 960 73 0 170/07 RMK AO2 TSNO
94908KDBQ DBQ20000306054510203/06/00 05:45:31  5-MIN KDBQ 061145Z AUTO 17006KT 10SM CLR 06/01 A3005 960 70 100 170/06 RMK AO2 TSNO
94908KDBQ DBQ20000306055013703/06/00 05:50:31  5-MIN KDBQ 061150Z AUTO 16007KT 10SM CLR 06/01 A3005 960 70 100 160/07 RMK AO2 SLP180 T00560006 10089 20050 51005 TSNO
94908KDBQ DBQ20000306055513703/06/00 05:55:31  5-MIN KDBQ 061155Z AUTO 15007KT 10SM CLR 06/01 A3005 960 70 100 150/07 RMK AO2 SLP179 T00560006 10089 20050 53011 TSNO
94908KDBQ DBQ20000306060010203/06/00 06:00:31  5-MIN KDBQ 061200Z AUTO 15007KT 10SM CLR 06/01 A3005 960 67 200 150/07 RMK AO2 TSNO
94908KDBQ DBQ20000306060510203/06/00 06:05:31  5-MIN KDBQ 061205Z AUTO 14008KT 10SM CLR 06/01 A3004 960 67 200 140/08 RMK AO2 TSNO
94908KDBQ DBQ20000306061010203/06/00 06:10:31  5-MIN KDBQ 061210Z AUTO 14008KT 10SM CLR 07/01 A3004 960 65 200 140/08 RMK AO2 TSNO
94908KDBQ DBQ20000306061510203/06/00 06:15:31  5-MIN KDBQ 061215Z AUTO 14009KT 10SM CLR 07/01 A3004 960 65 200 130/09 RMK AO2 TSNO
94908KDBQ DBQ20000306062010203/06/00 06:20:31  5-MIN KDBQ 061220Z AUTO 14010KT 10SM CLR 08/01 A3004 970 60 400 130/10 RMK AO2 TSNO
94908KDBQ DBQ20000306062510203/06/00 06:25:31  5-MIN KDBQ 061225Z AUTO 14009KT 10SM CLR 07/01 A3004 960 62 300 140/09 RMK AO2 TSNO
94908KDBQ DBQ20000306063010203/06/00 06:30:31  5-MIN KDBQ 061230Z AUTO 15009KT 10SM CLR 06/01 A3005 960 67 200 150/09 RMK AO2 TSNO
94908KDBQ DBQ20000306063510203/06/00 06:35:31  5-MIN KDBQ 061235Z AUTO 15007KT 10SM CLR 06/01 A3005 960 67 200 150/07 RMK AO2 TSNO
94908KDBQ DBQ20000306064009703/06/00 06:40:31  5-MIN KDBQ 061240Z 14008KT 10SM CLR 06/01 A3005 960 70 100 140/08 RMK AO2 TSNO
94908KDBQ DBQ20000306064509203/06/00 06:45:31  5-MIN KDBQ 061245Z 14008KT 10SM CLR 06/01 A3005 960 70 100 140/08 RMK AO2
94908KDBQ DBQ20000306065010903/06/00 06:50:31  5-MIN KDBQ 061250Z 14009KT 10SM CLR 06/01 A3005 960 67 200 140/09 RMK AO2 SLP180 T00610006
94908KDBQ DBQ20000306065510903/06/00 06:55:31  5-MIN KDBQ 061255Z 14009KT 10SM CLR 06/01 A3005 960 67 200 140/09 RMK AO2 SLP182 T00610006
94908KDBQ DBQ20000306070009203/06/00 07:00:31  5-MIN KDBQ 061300Z 14011KT 10SM CLR 07/01 A3005 960 65 200 130/11 RMK AO2
94908KDBQ DBQ20000306070509203/06/00 07:05:31  5-MIN KDBQ 061305Z 14010KT 10SM CLR 07/01 A3005 950 62 300 130/10 RMK AO2
94908KDBQ DBQ20000306071009203/06/00 07:10:31  5-MIN KDBQ 061310Z 14010KT 10SM CLR 07/01 A3006 950 62 300 140/10 RMK AO2
94908KDBQ DBQ20000306071509203/06/00 07:15:31  5-MIN KDBQ 061315Z 14009KT 10SM CLR 07/01 A3006 950 67 200 140/09 RMK AO2
94908KDBQ DBQ20000306072009203/06/00 07:20:31  5-MIN KDBQ 061320Z 14009KT 10SM CLR 07/01 A3006 950 67 200 140/09 RMK AO2
94908KDBQ DBQ20000306072509203/06/00 07:25:31  5-MIN KDBQ 061325Z 13010KT 10SM CLR 07/01 A3006 950 67 200 130/10 RMK AO2
94908KDBQ DBQ20000306073009203/06/00 07:30:31  5-MIN KDBQ 061330Z 13010KT 10SM CLR 08/01 A3005 950 62 400 130/10 RMK AO2
94908KDBQ DBQ20000306073509203/06/00 07:35:31  5-MIN KDBQ 061335Z 13010KT 10SM CLR 08/01 A3006 950 62 400 130/10 RMK AO2
94908KDBQ DBQ20000306074009203/06/00 07:40:31  5-MIN KDBQ 061340Z 14010KT 10SM CLR 08/01 A3006 950 62 300 140/10 RMK AO2
94908KDBQ DBQ20000306074509203/06/00 07:45:31  5-MIN KDBQ 061345Z 15010KT 10SM CLR 08/02 A3006 950 65 300 150/10 RMK AO2
94908KDBQ DBQ20000306075010903/06/00 07:50:31  5-MIN KDBQ 061350Z 15010KT 10SM CLR 08/02 A3007 940 68 300 150/10 RMK AO2 SLP185 T00780022
94908KDBQ DBQ20000306075510903/06/00 07:55:31  5-MIN KDBQ 061355Z 15009KT 10SM CLR 08/02 A3007 940 63 400 150/09 RMK AO2 SLP187 T00830017
94908KDBQ DBQ20000306080009203/06/00 08:00:31  5-MIN KDBQ 061400Z 16011KT 10SM CLR 09/02 A3007 940 60 500 160/11 RMK AO2
94908KDBQ DBQ20000306080509203/06/00 08:05:31  5-MIN KDBQ 061405Z 16010KT 10SM CLR 09/02 A3007 940 60 500 160/10 RMK AO2
94908KDBQ DBQ20000306081009203/06/00 08:10:31  5-MIN KDBQ 061410Z 16011KT 10SM CLR 09/02 A3007 940 60 500 160/11 RMK AO2
94908KDBQ DBQ20000306081509203/06/00 08:15:31  5-MIN KDBQ 061415Z 15009KT 10SM CLR 09/02 A3007 940 60 500 150/09 RMK AO2
94908KDBQ DBQ20000306082009203/06/00 08:20:31  5-MIN KDBQ 061420Z 17010KT 10SM CLR 09/02 A3007 940 60 500 170/10 RMK AO2
94908KDBQ DBQ20000306082509203/06/00 08:25:31  5-MIN KDBQ 061425Z 18009KT 10SM CLR 09/02 A3007 940 60 500 180/09 RMK AO2
94908KDBQ DBQ20000306083009203/06/00 08:30:31  5-MIN KDBQ 061430Z 17008KT 10SM CLR 09/02 A3007 940 58 500 170/08 RMK AO2
94908KDBQ DBQ20000306083509203/06/00 08:35:31  5-MIN KDBQ 061435Z 17009KT 10SM CLR 09/02 A3007 940 58 500 170/09 RMK AO2
94908KDBQ DBQ20000306084009203/06/00 08:40:31  5-MIN KDBQ 061440Z 16007KT 10SM CLR 09/02 A3007 940 60 500 160/07 RMK AO2
94908KDBQ DBQ20000306084509203/06/00 08:45:31  5-MIN KDBQ 061445Z 16009KT 10SM CLR 09/02 A3007 940 58 500 160/09 RMK AO2
94908KDBQ DBQ20000306085011503/06/00 08:50:31  5-MIN KDBQ 061450Z 16010KT 10SM CLR 10/02 A3007 940 58 600 160/10 RMK AO2 SLP185 T01000022 53011
94908KDBQ DBQ20000306085511503/06/00 08:55:31  5-MIN KDBQ 061455Z 16010KT 10SM CLR 10/02 A3007 940 58 600 160/10 RMK AO2 SLP185 T01000022 50006
94908KDBQ DBQ20000306090009203/06/00 09:00:31  5-MIN KDBQ 061500Z 16009KT 10SM CLR 11/02 A3006 950 56 700 160/09 RMK AO2
94908KDBQ DBQ20000306090509203/06/00 09:05:31  5-MIN KDBQ 061505Z 16010KT 10SM CLR 11/02 A3006 950 56 700 160/10 RMK AO2
94908KDBQ DBQ20000306091009203/06/00 09:10:31  5-MIN KDBQ 061510Z 15010KT 10SM CLR 11/02 A3006 950 56 700 150/10 RMK AO2
94908KDBQ DBQ20000306091509203/06/00 09:15:31  5-MIN KDBQ 061515Z 15009KT 10SM CLR 11/02 A3006 950 54 800 150/09 RMK AO2
94908KDBQ DBQ20000306092009203/06/00 09:20:31  5-MIN KDBQ 061520Z 16009KT 10SM CLR 12/02 A3006 950 50 800 160/09 RMK AO2
94908KDBQ DBQ20000306092509203/06/00 09:25:31  5-MIN KDBQ 061525Z 14010KT 10SM CLR 12/02 A3006 950 52 800 140/10 RMK AO2
94908KDBQ DBQ20000306093009203/06/00 09:30:31  5-MIN KDBQ 061530Z 15007KT 10SM CLR 12/02 A3005 960 50 900 150/07 RMK AO2
94908KDBQ DBQ20000306093509203/06/00 09:35:31  5-MIN KDBQ 061535Z 14009KT 10SM CLR 12/02 A3005 960 50 900 140/09 RMK AO2
94908KDBQ DBQ20000306094009303/06/00 09:40:31  5-MIN KDBQ 061540Z 14011KT 10SM CLR 13/02 A3004 970 48 1000 140/11 RMK AO2
94908KDBQ DBQ20000306094509303/06/00 09:45:31  5-MIN KDBQ 061545Z 14013KT 10SM CLR 13/02 A3004 970 46 1000 140/13 RMK AO2
94908KDBQ DBQ20000306095011703/06/00 09:50:31  5-MIN KDBQ 061550Z 14012KT 10SM CLR 13/02 A3003 980 46 1000 140/12 RMK AO2 PRESFR SLP172 T01330022
94908KDBQ DBQ20000306095511003/06/00 09:55:31  5-MIN KDBQ 061555Z 14013KT 10SM CLR 14/02 A3003 980 45 1100 140/13 RMK AO2 SLP171 T01390022
94908KDBQ DBQ20000306100009303/06/00 10:00:31  5-MIN KDBQ 061600Z 14012KT 10SM CLR 14/02 A3003 980 45 1100 140/12 RMK AO2
94908KDBQ DBQ20000306100509303/06/00 10:05:31  5-MIN KDBQ 061605Z 14011KT 10SM CLR 14/03 A3004 970 45 1200 130/11 RMK AO2
94908KDBQ DBQ20000306101009303/06/00 10:10:31  5-MIN KDBQ 061610Z 14011KT 10SM CLR 15/03 A3004 970 43 1200 140/11 RMK AO2
94908KDBQ DBQ20000306101509303/06/00 10:15:31  5-MIN KDBQ 061615Z 14012KT 10SM CLR 15/03 A3004 970 43 1200 140/12 RMK AO2
94908KDBQ DBQ20000306102009303/06/00 10:20:31  5-MIN KDBQ 061620Z 14012KT 10SM CLR 16/03 A3003 970 42 1300 140/12 RMK AO2
94908KDBQ DBQ20000306102509303/06/00 10:25:31  5-MIN KDBQ 061625Z 14013KT 10SM CLR 16/03 A3003 970 42 1300 140/13 RMK AO2
94908KDBQ DBQ20000306103009303/06/00 10:30:31  5-MIN KDBQ 061630Z 15010KT 10SM CLR 16/03 A3004 970 42 1300 150/10 RMK AO2
94908KDBQ DBQ20000306103509303/06/00 10:35:31  5-MIN KDBQ 061635Z 14012KT 10SM CLR 16/03 A3004 970 40 1400 140/12 RMK AO2
94908KDBQ DBQ20000306104009303/06/00 10:40:31  5-MIN KDBQ 061640Z 15013KT 10SM CLR 16/03 A3003 970 40 1400 150/13 RMK AO2
94908KDBQ DBQ20000306104509303/06/00 10:45:31  5-MIN KDBQ 061645Z 15013KT 10SM CLR 16/03 A3003 970 40 1400 140/13 RMK AO2
94908KDBQ DBQ20000306105011003/06/00 10:50:31  5-MIN KDBQ 061650Z 13013KT 10SM CLR 16/03 A3003 980 40 1400 130/13 RMK AO2 SLP172 T01610028
94908KDBQ DBQ20000306105511003/06/00 10:55:31  5-MIN KDBQ 061655Z 14013KT 10SM CLR 17/03 A3003 980 40 1400 140/13 RMK AO2 SLP172 T01670033
94908KDBQ DBQ20000306110009303/06/00 11:00:31  5-MIN KDBQ 061700Z 14012KT 10SM CLR 17/03 A3003 970 40 1400 140/12 RMK AO2
94908KDBQ DBQ20000306110509303/06/00 11:05:31  5-MIN KDBQ 061705Z 14015KT 10SM CLR 17/03 A3003 970 37 1500 140/15 RMK AO2
94908KDBQ DBQ20000306111009303/06/00 11:10:31  5-MIN KDBQ 061710Z 14017KT 10SM CLR 18/02 A3003 970 35 1600 140/17 RMK AO2
94908KDBQ DBQ20000306111509303/06/00 11:15:31  5-MIN KDBQ 061715Z 15014KT 10SM CLR 18/02 A3003 970 35 1600 150/14 RMK AO2
94908KDBQ DBQ20000306112009903/06/00 11:20:31  5-MIN KDBQ 061720Z 15015G20KT 10SM CLR 18/03 A3003 980 38 1600 150/15G20 RMK AO2
94908KDBQ DBQ20000306112509903/06/00 11:25:31  5-MIN KDBQ 061725Z 15016G20KT 10SM CLR 18/02 A3003 980 35 1600 150/16G20 RMK AO2
94908KDBQ DBQ20000306113009303/06/00 11:30:31  5-MIN KDBQ 061730Z 16018KT 10SM CLR 18/02 A3003 980 35 1600 160/18 RMK AO2
94908KDBQ DBQ20000306113509903/06/00 11:35:31  5-MIN KDBQ 061735Z 16016G21KT 10SM CLR 18/02 A3003 980 34 1600 160/16G21 RMK AO2
94908KDBQ DBQ20000306114009903/06/00 11:40:31  5-MIN KDBQ 061740Z 15016G22KT 10SM CLR 18/03 A3003 980 35 1600 150/16G22 RMK AO2
94908KDBQ DBQ20000306114509903/06/00 11:45:31  5-MIN KDBQ 061745Z 15014G22KT 10SM CLR 18/03 A3002 980 35 1600 150/14G22 RMK AO2
94908KDBQ DBQ20000306115013403/06/00 11:50:31  5-MIN KDBQ 061750Z 16020G25KT 10SM CLR 19/02 A3002 990 32 1700 160/20G25 RMK AO2 SLP166 T01890022 10189 20056 50006
94908KDBQ DBQ20000306115513403/06/00 11:55:31  5-MIN KDBQ 061755Z 16019G25KT 10SM CLR 19/01 A3002 990 29 1700 160/19G25 RMK AO2 SLP165 T01890006 10189 20056 56017
94908KDBQ DBQ20000306120009903/06/00 12:00:31  5-MIN KDBQ 061800Z 15018G23KT 10SM CLR 19/01 A3002 990 29 1700 150/18G23 RMK AO2
94908KDBQ DBQ20000306120509303/06/00 12:05:31  5-MIN KDBQ 061805Z 15019KT 10SM CLR 19/01 A3002 990 29 1700 150/19 RMK AO2
94908KDBQ DBQ20000306121011803/06/00 12:10:31  5-MIN KDBQ 061810Z 15020G26KT 10SM CLR 19/01 A3001 1000 30 1700 150/20G26 RMK AO2 PK WND 15026/1809
94908KDBQ DBQ20000306121511703/06/00 12:15:31  5-MIN KDBQ 061815Z 15020G26KT 10SM CLR 19/02 A3001 990 31 1700 150/20G26 RMK AO2 PK WND 15026/1809
94908KDBQ DBQ20000306122011703/06/00 12:20:31  5-MIN KDBQ 061820Z 17018G25KT 10SM CLR 19/02 A3001 990 32 1700 160/18G25 RMK AO2 PK WND 15026/1809
94908KDBQ DBQ20000306122511703/06/00 12:25:31  5-MIN KDBQ 061825Z 16016G23KT 10SM CLR 19/03 A3001 990 33 1800 160/16G23 RMK AO2 PK WND 15026/1809
94908KDBQ DBQ20000306123011803/06/00 12:30:31  5-MIN KDBQ 061830Z 15018G23KT 10SM CLR 19/02 A3001 1000 31 1800 150/18G23 RMK AO2 PK WND 15026/1809
94908KDBQ DBQ20000306123511803/06/00 12:35:31  5-MIN KDBQ 061835Z 16017G23KT 10SM CLR 19/02 A3000 1000 31 1800 160/17G23 RMK AO2 PK WND 15026/1809
94908KDBQ DBQ20000306124011203/06/00 12:40:31  5-MIN KDBQ 061840Z 15017KT 10SM CLR 19/03 A3000 1010 33 1800 150/17 RMK AO2 PK WND 15026/1809
94908KDBQ DBQ20000306124511203/06/00 12:45:31  5-MIN KDBQ 061845Z 15016KT 10SM CLR 19/03 A3000 1010 33 1800 150/16 RMK AO2 PK WND 15026/1809
94908KDBQ DBQ20000306125013503/06/00 12:50:31  5-MIN KDBQ 061850Z 16018G22KT 10SM CLR 20/03 A2999 1010 31 1900 160/18G22 RMK AO2 PK WND 15026/1809 SLP158 T02000028
94908KDBQ DBQ20000306125513503/06/00 12:55:31  5-MIN KDBQ 061855Z 15017G22KT 10SM CLR 20/02 A3000 1010 30 1900 150/17G22 RMK AO2 PK WND 15026/1809 SLP159 T02000022
94908KDBQ DBQ20000306130009403/06/00 13:00:31  5-MIN KDBQ 061900Z 16021KT 10SM CLR 20/02 A3000 1010 30 1900 160/21 RMK AO2
94908KDBQ DBQ20000306130509403/06/00 13:05:31  5-MIN KDBQ 061905Z 17019KT 10SM CLR 19/02 A2999 1010 31 1800 170/19 RMK AO2
94908KDBQ DBQ20000306131010003/06/00 13:10:31  5-MIN KDBQ 061910Z 17016G23KT 10SM CLR 19/02 A2999 1020 31 1800 170/16G23 RMK AO2
94908KDBQ DBQ20000306131510303/06/00 13:15:31  5-MIN KDBQ 061915Z 16019G24KT 10SM FEW100 20/02 A2999 1020 30 1900 160/19G24 RMK AO2
94908KDBQ DBQ20000306132010303/06/00 13:20:31  5-MIN KDBQ 061920Z 17019G24KT 10SM FEW070 19/02 A2999 1020 32 1700 170/19G24 RMK AO2
94908KDBQ DBQ20000306132510303/06/00 13:25:31  5-MIN KDBQ 061925Z 17020G24KT 10SM SCT070 19/02 A2998 1020 31 1800 170/20G24 RMK AO2
94908KDBQ DBQ20000306133010303/06/00 13:30:31  5-MIN KDBQ 061930Z 17020G24KT 10SM BKN070 20/02 A2998 1020 30 1900 160/20G24 RMK AO2
94908KDBQ DBQ20000306133510303/06/00 13:35:31  5-MIN KDBQ 061935Z 15018G24KT 10SM BKN070 19/02 A2998 1030 31 1800 150/18G24 RMK AO2
94908KDBQ DBQ20000306134010303/06/00 13:40:31  5-MIN KDBQ 061940Z 16017G24KT 10SM BKN070 19/02 A2997 1030 30 1800 160/17G24 RMK AO2
94908KDBQ DBQ20000306134510303/06/00 13:45:31  5-MIN KDBQ 061945Z 16016G23KT 10SM BKN065 21/02 A2997 1030 29 2000 160/16G23 RMK AO2
94908KDBQ DBQ20000306135011403/06/00 13:50:31  5-MIN KDBQ 061950Z 16017KT 10SM BKN065 20/02 A2997 1040 30 1900 160/17 RMK AO2 SLP149 T02000022
94908KDBQ DBQ20000306135512003/06/00 13:55:31  5-MIN KDBQ 061955Z 16016G23KT 10SM BKN065 20/02 A2996 1040 29 1900 150/16G23 RMK AO2 SLP147 T02000017
94908KDBQ DBQ20000306140010303/06/00 14:00:31  5-MIN KDBQ 062000Z 16018G23KT 10SM BKN065 20/02 A2996 1040 29 1900 160/18G23 RMK AO2
94908KDBQ DBQ20000306140510303/06/00 14:05:31  5-MIN KDBQ 062005Z 16016G23KT 10SM BKN060 20/02 A2997 1040 29 1900 160/16G23 RMK AO2
94908KDBQ DBQ20000306141009703/06/00 14:10:31  5-MIN KDBQ 062010Z 15017KT 10SM BKN060 19/02 A2996 1040 30 1800 150/17 RMK AO2
94908KDBQ DBQ20000306141509703/06/00 14:15:31  5-MIN KDBQ 062015Z 16019KT 10SM BKN060 19/02 A2996 1040 30 1800 160/19 RMK AO2
94908KDBQ DBQ20000306142009703/06/00 14:20:31  5-MIN KDBQ 062020Z 16019KT 10SM OVC060 19/02 A2996 1040 30 1800 160/19 RMK AO2
94908KDBQ DBQ20000306142510303/06/00 14:25:31  5-MIN KDBQ 062025Z 16016G22KT 10SM OVC060 20/02 A2996 1040 29 1900 160/16G22 RMK AO2
94908KDBQ DBQ20000306143009703/06/00 14:30:31  5-MIN KDBQ 062030Z 15020KT 10SM OVC060 20/02 A2996 1040 29 1900 150/20 RMK AO2
94908KDBQ DBQ20000306143510303/06/00 14:35:31  5-MIN KDBQ 062035Z 16017G24KT 10SM OVC060 19/01 A2996 1040 29 1800 160/17G24 RMK AO2
94908KDBQ DBQ20000306144010303/06/00 14:40:31  5-MIN KDBQ 062040Z 17019G24KT 10SM OVC060 20/02 A2996 1040 29 1900 170/19G24 RMK AO2
94908KDBQ DBQ20000306144509703/06/00 14:45:31  5-MIN KDBQ 062045Z 17018KT 10SM OVC060 20/02 A2996 1040 29 1900 170/18 RMK AO2
94908KDBQ DBQ20000306145012003/06/00 14:50:31  5-MIN KDBQ 062050Z 17015KT 10SM OVC060 20/02 A2995 1050 30 1900 170/15 RMK AO2 SLP144 T02000022 56017
94908KDBQ DBQ20000306145512603/06/00 14:55:31  5-MIN KDBQ 062055Z 16020G25KT 10SM BKN055 21/02 A2996 1050 29 2000 160/20G25 RMK AO2 SLP145 T02060022 56020
94908KDBQ DBQ20000306150010303/06/00 15:00:31  5-MIN KDBQ 062100Z 16017G25KT 10SM BKN055 21/02 A2995 1050 29 2000 160/17G25 RMK AO2
94908KDBQ DBQ20000306173510003/06/00 17:35:31  5-MIN KDBQ 062335Z 16014G21KT 10SM CLR 18/04 A2992 1080 41 1700 160/14G21 RMK AO2
94908KDBQ DBQ20000306174009403/06/00 17:40:31  5-MIN KDBQ 062340Z 16012KT 10SM CLR 18/04 A2993 1070 41 1700 160/12 RMK AO2
94908KDBQ DBQ20000306174509403/06/00 17:45:31  5-MIN KDBQ 062345Z 16013KT 10SM CLR 17/04 A2993 1070 42 1600 160/13 RMK AO2
94908KDBQ DBQ20000306175012903/06/00 17:50:31  5-MIN KDBQ 062350Z 16013KT 10SM CLR 17/04 A2993 1070 44 1600 160/13 RMK AO2 SLP138 T01670044 10206 20167 56020
94908KDBQ DBQ20000306175512903/06/00 17:55:31  5-MIN KDBQ 062355Z 16012KT 10SM CLR 17/04 A2993 1070 44 1500 160/12 RMK AO2 SLP139 T01670044 10206 20167 55007
94908KDBQ DBQ20000306180009403/06/00 18:00:31  5-MIN KDBQ 070000Z 17013KT 10SM CLR 16/05 A2993 1070 47 1500 170/13 RMK AO2
94908KDBQ DBQ20000306180509403/06/00 18:05:31  5-MIN KDBQ 070005Z 16013KT 10SM CLR 16/05 A2993 1070 47 1500 160/13 RMK AO2
94908KDBQ DBQ20000306181009403/06/00 18:10:31  5-MIN KDBQ 070010Z 16012KT 10SM CLR 16/05 A2993 1070 47 1500 160/12 RMK AO2
94908KDBQ DBQ20000306181509403/06/00 18:15:31  5-MIN KDBQ 070015Z 16010KT 10SM CLR 16/05 A2993 1070 49 1400 160/10 RMK AO2
94908KDBQ DBQ20000306182009403/06/00 18:20:31  5-MIN KDBQ 070020Z 16011KT 10SM CLR 16/05 A2993 1070 49 1400 160/11 RMK AO2
94908KDBQ DBQ20000306182509403/06/00 18:25:31  5-MIN KDBQ 070025Z 16011KT 10SM CLR 15/06 A2993 1070 53 1400 160/11 RMK AO2
94908KDBQ DBQ20000306183009403/06/00 18:30:31  5-MIN KDBQ 070030Z 16012KT 10SM CLR 15/06 A2993 1070 53 1400 160/12 RMK AO2
94908KDBQ DBQ20000306183509403/06/00 18:35:31  5-MIN KDBQ 070035Z 16012KT 10SM CLR 15/06 A2993 1070 53 1400 160/12 RMK AO2
94908KDBQ DBQ20000306184009403/06/00 18:40:31  5-MIN KDBQ 070040Z 16011KT 10SM CLR 15/06 A2993 1070 53 1400 160/11 RMK AO2
94908KDBQ DBQ20000306184509403/06/00 18:45:31  5-MIN KDBQ 070045Z 15011KT 10SM CLR 14/06 A2993 1070 55 1300 150/11 RMK AO2
94908KDBQ DBQ20000306185011103/06/00 18:50:31  5-MIN KDBQ 070050Z 15011KT 10SM CLR 14/06 A2993 1070 55 1300 150/11 RMK AO2 SLP137 T01440056
94908KDBQ DBQ20000306185511103/06/00 18:55:31  5-MIN KDBQ 070055Z 15011KT 10SM CLR 14/06 A2993 1070 57 1200 150/11 RMK AO2 SLP138 T01390056
94908KDBQ DBQ20000306190009403/06/00 19:00:31  5-MIN KDBQ 070100Z 15011KT 10SM CLR 14/06 A2993 1070 57 1200 150/11 RMK AO2
94908KDBQ DBQ20000306190509403/06/00 19:05:31  5-MIN KDBQ 070105Z 16012KT 10SM CLR 14/06 A2993 1070 57 1200 150/12 RMK AO2
94908KDBQ DBQ20000306191009403/06/00 19:10:31  5-MIN KDBQ 070110Z 16012KT 10SM CLR 14/06 A2993 1070 57 1200 150/12 RMK AO2
94908KDBQ DBQ20000306191509403/06/00 19:15:31  5-MIN KDBQ 070115Z 15011KT 10SM CLR 14/06 A2993 1070 57 1200 150/11 RMK AO2
94908KDBQ DBQ20000306192009403/06/00 19:20:31  5-MIN KDBQ 070120Z 15011KT 10SM CLR 13/06 A2993 1070 61 1100 150/11 RMK AO2
94908KDBQ DBQ20000306192509403/06/00 19:25:31  5-MIN KDBQ 070125Z 15012KT 10SM CLR 13/06 A2992 1080 61 1100 150/12 RMK AO2
94908KDBQ DBQ20000306193009403/06/00 19:30:31  5-MIN KDBQ 070130Z 15012KT 10SM CLR 13/06 A2992 1080 61 1100 150/12 RMK AO2
94908KDBQ DBQ20000306193509403/06/00 19:35:31  5-MIN KDBQ 070135Z 15011KT 10SM CLR 13/06 A2992 1080 61 1100 150/11 RMK AO2
94908KDBQ DBQ20000306194009403/06/00 19:40:31  5-MIN KDBQ 070140Z 15011KT 10SM CLR 13/06 A2992 1080 61 1100 150/11 RMK AO2
94908KDBQ DBQ20000306194509403/06/00 19:45:31  5-MIN KDBQ 070145Z 16011KT 10SM CLR 13/06 A2992 1080 59 1200 160/11 RMK AO2
94908KDBQ DBQ20000306195011103/06/00 19:50:31  5-MIN KDBQ 070150Z 16011KT 10SM CLR 13/06 A2992 1080 61 1100 150/11 RMK AO2 SLP136 T01280056
94908KDBQ DBQ20000306195511103/06/00 19:55:31  5-MIN KDBQ 070155Z 16010KT 10SM CLR 13/06 A2992 1080 63 1100 150/10 RMK AO2 SLP136 T01280061
94908KDBQ DBQ20000306200009403/06/00 20:00:31  5-MIN KDBQ 070200Z 16010KT 10SM CLR 13/06 A2992 1070 63 1100 160/10 RMK AO2
94908KDBQ DBQ20000306200509403/06/00 20:05:31  5-MIN KDBQ 070205Z 16010KT 10SM CLR 13/06 A2992 1080 63 1100 160/10 RMK AO2
94908KDBQ DBQ20000306201009403/06/00 20:10:31  5-MIN KDBQ 070210Z 16010KT 10SM CLR 13/06 A2992 1080 63 1100 160/10 RMK AO2
94908KDBQ DBQ20000306201509403/06/00 20:15:31  5-MIN KDBQ 070215Z 16012KT 10SM CLR 13/06 A2992 1080 61 1200 160/12 RMK AO2
94908KDBQ DBQ20000306202009403/06/00 20:20:31  5-MIN KDBQ 070220Z 17013KT 10SM CLR 13/06 A2992 1080 61 1200 160/13 RMK AO2
94908KDBQ DBQ20000306202509403/06/00 20:25:31  5-MIN KDBQ 070225Z 17014KT 10SM CLR 13/06 A2992 1080 61 1200 170/14 RMK AO2
94908KDBQ DBQ20000306203009403/06/00 20:30:31  5-MIN KDBQ 070230Z 17015KT 10SM CLR 13/06 A2992 1080 61 1200 170/15 RMK AO2
94908KDBQ DBQ20000306203509403/06/00 20:35:31  5-MIN KDBQ 070235Z 17015KT 10SM CLR 14/07 A2992 1080 61 1200 170/15 RMK AO2
94908KDBQ DBQ20000306204009403/06/00 20:40:31  5-MIN KDBQ 070240Z 17016KT 10SM CLR 14/07 A2992 1080 61 1200 170/16 RMK AO2
94908KDBQ DBQ20000306204509403/06/00 20:45:31  5-MIN KDBQ 070245Z 17016KT 10SM CLR 14/07 A2992 1080 61 1200 170/16 RMK AO2
94908KDBQ DBQ20000306205011703/06/00 20:50:31  5-MIN KDBQ 070250Z 17014KT 10SM CLR 14/07 A2992 1080 61 1200 170/14 RMK AO2 SLP135 T01390067 55007
94908KDBQ DBQ20000306205512703/06/00 20:55:31  5-MIN KDBQ 070255Z AUTO 17014KT 10SM CLR 14/07 A2992 1080 61 1200 170/14 RMK AO2 SLP134 T01390067 56004 TSNO
94908KDBQ DBQ20000306210010403/06/00 21:00:31  5-MIN KDBQ 070300Z AUTO 17013KT 10SM CLR 14/07 A2992 1080 61 1200 170/13 RMK AO2 TSNO
94908KDBQ DBQ20000306210510403/06/00 21:05:31  5-MIN KDBQ 070305Z AUTO 17014KT 10SM CLR 14/07 A2993 1070 64 1200 170/14 RMK AO2 TSNO
94908KDBQ DBQ20000306211010403/06/00 21:10:31  5-MIN KDBQ 070310Z AUTO 17014KT 10SM CLR 14/07 A2993 1070 64 1200 170/14 RMK AO2 TSNO
94908KDBQ DBQ20000306211510403/06/00 21:15:31  5-MIN KDBQ 070315Z AUTO 17014KT 10SM CLR 14/07 A2993 1070 64 1200 160/14 RMK AO2 TSNO
94908KDBQ DBQ20000306212010403/06/00 21:20:31  5-MIN KDBQ 070320Z AUTO 17015KT 10SM CLR 14/07 A2994 1060 64 1200 170/15 RMK AO2 TSNO
94908KDBQ DBQ20000306212510403/06/00 21:25:31  5-MIN KDBQ 070325Z AUTO 17013KT 10SM CLR 14/07 A2994 1060 64 1200 170/13 RMK AO2 TSNO
94908KDBQ DBQ20000306213010403/06/00 21:30:31  5-MIN KDBQ 070330Z AUTO 17013KT 10SM CLR 13/07 A2994 1060 66 1200 170/13 RMK AO2 TSNO
94908KDBQ DBQ20000306213510403/06/00 21:35:31  5-MIN KDBQ 070335Z AUTO 17012KT 10SM CLR 13/07 A2994 1060 66 1200 160/12 RMK AO2 TSNO
94908KDBQ DBQ20000306214010403/06/00 21:40:31  5-MIN KDBQ 070340Z AUTO 17012KT 10SM CLR 13/07 A2994 1060 66 1100 170/12 RMK AO2 TSNO
94908KDBQ DBQ20000306214510403/06/00 21:45:31  5-MIN KDBQ 070345Z AUTO 17012KT 10SM CLR 13/07 A2995 1060 66 1100 170/12 RMK AO2 TSNO
94908KDBQ DBQ20000306215012103/06/00 21:50:31  5-MIN KDBQ 070350Z AUTO 17011KT 10SM CLR 13/07 A2995 1050 66 1100 170/11 RMK AO2 SLP142 T01330072 TSNO
94908KDBQ DBQ20000306215512103/06/00 21:55:31  5-MIN KDBQ 070355Z AUTO 17010KT 10SM CLR 13/07 A2995 1050 66 1100 170/10 RMK AO2 SLP142 T01330072 TSNO
94908KDBQ DBQ20000306220010403/06/00 22:00:31  5-MIN KDBQ 070400Z AUTO 17010KT 10SM CLR 13/07 A2995 1050 69 1100 170/10 RMK AO2 TSNO
94908KDBQ DBQ20000306220510403/06/00 22:05:31  5-MIN KDBQ 070405Z AUTO 17009KT 10SM CLR 13/07 A2995 1050 69 1100 170/09 RMK AO2 TSNO
94908KDBQ DBQ20000306221010403/06/00 22:10:31  5-MIN KDBQ 070410Z AUTO 17008KT 10SM CLR 13/07 A2995 1050 69 1100 170/08 RMK AO2 TSNO
94908KDBQ DBQ20000306221510403/06/00 22:15:31  5-MIN KDBQ 070415Z AUTO 17009KT 10SM CLR 12/07 A2995 1050 71 1000 170/09 RMK AO2 TSNO
94908KDBQ DBQ20000306222010403/06/00 22:20:31  5-MIN KDBQ 070420Z AUTO 17008KT 10SM CLR 12/07 A2995 1050 71 1000 170/08 RMK AO2 TSNO
94908KDBQ DBQ20000306222510403/06/00 22:25:31  5-MIN KDBQ 070425Z AUTO 17008KT 10SM CLR 12/07 A2995 1050 71 1000 170/08 RMK AO2 TSNO
94908KDBQ DBQ20000306223010403/06/00 22:30:31  5-MIN KDBQ 070430Z AUTO 17008KT 10SM CLR 12/07 A2995 1050 71 1000 170/08 RMK AO2 TSNO
94908KDBQ DBQ20000306223510403/06/00 22:35:31  5-MIN KDBQ 070435Z AUTO 17008KT 10SM CLR 12/07 A2995 1050 71 1000 170/08 RMK AO2 TSNO
94908KDBQ DBQ20000306224010403/06/00 22:40:31  5-MIN KDBQ 070440Z AUTO 17008KT 10SM CLR 12/07 A2995 1050 71 1000 170/08 RMK AO2 TSNO
94908KDBQ DBQ20000306224510303/06/00 22:45:31  5-MIN KDBQ 070445Z AUTO 17008KT 10SM CLR 12/07 A2995 1050 74 900 170/08 RMK AO2 TSNO
94908KDBQ DBQ20000306225012003/06/00 22:50:31  5-MIN KDBQ 070450Z AUTO 17008KT 10SM CLR 12/07 A2995 1050 74 900 170/08 RMK AO2 SLP143 T01170072 TSNO
94908KDBQ DBQ20000306225512003/06/00 22:55:31  5-MIN KDBQ 070455Z AUTO 17009KT 10SM CLR 12/07 A2995 1050 74 900 170/09 RMK AO2 SLP143 T01170072 TSNO
94908KDBQ DBQ20000306230010303/06/00 23:00:31  5-MIN KDBQ 070500Z AUTO 17009KT 10SM CLR 12/07 A2995 1050 74 900 170/09 RMK AO2 TSNO
94908KDBQ DBQ20000306230510303/06/00 23:05:31  5-MIN KDBQ 070505Z AUTO 17009KT 10SM CLR 11/07 A2995 1050 77 900 170/09 RMK AO2 TSNO
94908KDBQ DBQ20000306231010303/06/00 23:10:31  5-MIN KDBQ 070510Z AUTO 17010KT 10SM CLR 11/07 A2996 1050 77 900 170/10 RMK AO2 TSNO
94908KDBQ DBQ20000306231510303/06/00 23:15:31  5-MIN KDBQ 070515Z AUTO 17010KT 10SM CLR 11/07 A2996 1050 77 900 160/10 RMK AO2 TSNO
94908KDBQ DBQ20000306232010303/06/00 23:20:31  5-MIN KDBQ 070520Z AUTO 17010KT 10SM CLR 11/07 A2996 1040 77 900 170/10 RMK AO2 TSNO
94908KDBQ DBQ20000306232510303/06/00 23:25:31  5-MIN KDBQ 070525Z AUTO 17010KT 10SM CLR 11/07 A2996 1040 77 900 170/10 RMK AO2 TSNO
94908KDBQ DBQ20000306233010303/06/00 23:30:31  5-MIN KDBQ 070530Z AUTO 16010KT 10SM CLR 11/07 A2996 1050 77 900 160/10 RMK AO2 TSNO
94908KDBQ DBQ20000306233510303/06/00 23:35:31  5-MIN KDBQ 070535Z AUTO 16010KT 10SM CLR 11/07 A2996 1040 77 900 160/10 RMK AO2 TSNO
94908KDBQ DBQ20000306234010303/06/00 23:40:31  5-MIN KDBQ 070540Z AUTO 16010KT 10SM CLR 11/07 A2996 1050 77 900 160/10 RMK AO2 TSNO
94908KDBQ DBQ20000306234510303/06/00 23:45:31  5-MIN KDBQ 070545Z AUTO 16009KT 10SM CLR 11/07 A2996 1050 77 900 160/09 RMK AO2 TSNO
94908KDBQ DBQ20000306235014803/06/00 23:50:31  5-MIN KDBQ 070550Z AUTO 17009KT 10SM CLR 11/07 A2996 1050 77 900 160/09 RMK AO2 SLP144 T01110072 10167 20111 402060050 56004 TSNO
94908KDBQ DBQ20000306235514803/06/00 23:55:31  5-MIN KDBQ 070555Z AUTO 16010KT 10SM CLR 12/07 A2996 1050 74 900 160/10 RMK AO2 SLP143 T01170072 10167 20111 402060050 51011 TSNO
94908KDBQ DBQ20000307000010303/07/00 00:00:31  5-MIN KDBQ 070600Z AUTO 16010KT 10SM CLR 12/07 A2996 1050 74 900 160/10 RMK AO2 TSNO
94908KDBQ DBQ20000307000510303/07/00 00:05:31  5-MIN KDBQ 070605Z AUTO 16009KT 10SM CLR 12/07 A2996 1050 74 900 160/09 RMK AO2 TSNO
94908KDBQ DBQ20000307001010303/07/00 00:10:31  5-MIN KDBQ 070610Z AUTO 16009KT 10SM CLR 11/07 A2996 1050 77 900 160/09 RMK AO2 TSNO
94908KDBQ DBQ20000307001510303/07/00 00:15:31  5-MIN KDBQ 070615Z AUTO 16009KT 10SM CLR 11/07 A2996 1040 77 900 160/09 RMK AO2 TSNO
94908KDBQ DBQ20000307002010303/07/00 00:20:31  5-MIN KDBQ 070620Z AUTO 16009KT 10SM CLR 11/07 A2996 1040 77 900 160/09 RMK AO2 TSNO
94908KDBQ DBQ20000307002510303/07/00 00:25:31  5-MIN KDBQ 070625Z AUTO 16009KT 10SM CLR 11/07 A2996 1040 77 900 160/09 RMK AO2 TSNO
94908KDBQ DBQ20000307003010303/07/00 00:30:31  5-MIN KDBQ 070630Z AUTO 16009KT 10SM CLR 11/07 A2996 1040 77 900 160/09 RMK AO2 TSNO
94908KDBQ DBQ20000307003510303/07/00 00:35:31  5-MIN KDBQ 070635Z AUTO 16009KT 10SM CLR 11/07 A2996 1040 77 900 160/09 RMK AO2 TSNO
94908KDBQ DBQ20000307004010303/07/00 00:40:31  5-MIN KDBQ 070640Z AUTO 16009KT 10SM CLR 11/07 A2996 1040 80 800 160/09 RMK AO2 TSNO
94908KDBQ DBQ20000307004510303/07/00 00:45:31  5-MIN KDBQ 070645Z AUTO 17009KT 10SM CLR 11/07 A2996 1040 80 800 160/09 RMK AO2 TSNO
94908KDBQ DBQ20000307005012003/07/00 00:50:31  5-MIN KDBQ 070650Z AUTO 17009KT 10SM CLR 11/07 A2996 1040 80 800 160/09 RMK AO2 SLP143 T01060072 TSNO
94908KDBQ DBQ20000307005512003/07/00 00:55:31  5-MIN KDBQ 070655Z AUTO 17009KT 10SM CLR 11/07 A2996 1040 80 800 160/09 RMK AO2 SLP144 T01060072 TSNO
94908KDBQ DBQ20000307010010303/07/00 01:00:31  5-MIN KDBQ 070700Z AUTO 17010KT 10SM CLR 11/07 A2996 1040 80 800 170/10 RMK AO2 TSNO
94908KDBQ DBQ20000307010510303/07/00 01:05:31  5-MIN KDBQ 070705Z AUTO 17010KT 10SM CLR 11/07 A2996 1040 80 800 170/10 RMK AO2 TSNO
94908KDBQ DBQ20000307011010303/07/00 01:10:31  5-MIN KDBQ 070710Z AUTO 17010KT 10SM CLR 11/07 A2996 1040 80 800 170/10 RMK AO2 TSNO
94908KDBQ DBQ20000307011510303/07/00 01:15:31  5-MIN KDBQ 070715Z AUTO 17010KT 10SM CLR 11/08 A2996 1040 83 800 170/10 RMK AO2 TSNO
94908KDBQ DBQ20000307012010303/07/00 01:20:31  5-MIN KDBQ 070720Z AUTO 17010KT 10SM CLR 11/08 A2996 1040 83 800 170/10 RMK AO2 TSNO
94908KDBQ DBQ20000307012510303/07/00 01:25:31  5-MIN KDBQ 070725Z AUTO 17009KT 10SM CLR 11/08 A2996 1040 83 800 170/09 RMK AO2 TSNO
94908KDBQ DBQ20000307013010303/07/00 01:30:31  5-MIN KDBQ 070730Z AUTO 17010KT 10SM CLR 11/08 A2996 1040 83 800 170/10 RMK AO2 TSNO
94908KDBQ DBQ20000307013510303/07/00 01:35:31  5-MIN KDBQ 070735Z AUTO 17010KT 10SM CLR 11/08 A2996 1040 83 800 170/10 RMK AO2 TSNO
94908KDBQ DBQ20000307014010303/07/00 01:40:31  5-MIN KDBQ 070740Z AUTO 17011KT 10SM CLR 11/08 A2996 1040 83 800 170/11 RMK AO2 TSNO
94908KDBQ DBQ20000307014510303/07/00 01:45:31  5-MIN KDBQ 070745Z AUTO 17010KT 10SM CLR 11/08 A2996 1040 83 800 170/10 RMK AO2 TSNO
94908KDBQ DBQ20000307015012003/07/00 01:50:31  5-MIN KDBQ 070750Z AUTO 17010KT 10SM CLR 11/08 A2996 1040 83 800 170/10 RMK AO2 SLP143 T01060078 TSNO
94908KDBQ DBQ20000307015512003/07/00 01:55:31  5-MIN KDBQ 070755Z AUTO 18010KT 10SM CLR 11/08 A2996 1040 83 800 170/10 RMK AO2 SLP143 T01060078 TSNO
94908KDBQ DBQ20000307020010303/07/00 02:00:31  5-MIN KDBQ 070800Z AUTO 18010KT 10SM CLR 11/08 A2996 1040 80 900 170/10 RMK AO2 TSNO
94908KDBQ DBQ20000307020510303/07/00 02:05:31  5-MIN KDBQ 070805Z AUTO 18010KT 10SM CLR 11/08 A2996 1050 83 900 180/10 RMK AO2 TSNO
94908KDBQ DBQ20000307021010303/07/00 02:10:31  5-MIN KDBQ 070810Z AUTO 18010KT 10SM CLR 11/08 A2996 1040 83 900 180/10 RMK AO2 TSNO
94908KDBQ DBQ20000307021510303/07/00 02:15:31  5-MIN KDBQ 070815Z AUTO 18010KT 10SM CLR 11/08 A2996 1040 83 900 180/10 RMK AO2 TSNO
94908KDBQ DBQ20000307022010303/07/00 02:20:31  5-MIN KDBQ 070820Z AUTO 18009KT 10SM CLR 11/08 A2996 1050 86 800 180/09 RMK AO2 TSNO
94908KDBQ DBQ20000307022510303/07/00 02:25:31  5-MIN KDBQ 070825Z AUTO 18009KT 10SM CLR 11/08 A2995 1050 86 800 180/09 RMK AO2 TSNO
94908KDBQ DBQ20000307023010303/07/00 02:30:31  5-MIN KDBQ 070830Z AUTO 18009KT 10SM CLR 11/08 A2995 1050 86 800 180/09 RMK AO2 TSNO
94908KDBQ DBQ20000307023510303/07/00 02:35:31  5-MIN KDBQ 070835Z AUTO 18010KT 10SM CLR 11/08 A2996 1050 86 800 180/10 RMK AO2 TSNO
94908KDBQ DBQ20000307024010303/07/00 02:40:31  5-MIN KDBQ 070840Z AUTO 18010KT 10SM CLR 11/08 A2995 1050 86 800 180/10 RMK AO2 TSNO
94908KDBQ DBQ20000307024510303/07/00 02:45:31  5-MIN KDBQ 070845Z AUTO 18010KT 10SM CLR 11/08 A2995 1050 83 900 180/10 RMK AO2 TSNO
94908KDBQ DBQ20000307025012603/07/00 02:50:31  5-MIN KDBQ 070850Z AUTO 18010KT 10SM CLR 11/09 A2996 1050 89 800 180/10 RMK AO2 SLP143 T01060089 51011 TSNO
94908KDBQ DBQ20000307025512603/07/00 02:55:31  5-MIN KDBQ 070855Z AUTO 18010KT 10SM CLR 11/09 A2995 1050 86 900 180/10 RMK AO2 SLP142 T01110089 58001 TSNO
94908KDBQ DBQ20000307030010303/07/00 03:00:31  5-MIN KDBQ 070900Z AUTO 18010KT 10SM CLR 11/09 A2995 1050 89 800 180/10 RMK AO2 TSNO
94908KDBQ DBQ20000307030510303/07/00 03:05:31  5-MIN KDBQ 070905Z AUTO 18010KT 10SM CLR 11/09 A2995 1050 89 800 180/10 RMK AO2 TSNO
94908KDBQ DBQ20000307031010303/07/00 03:10:31  5-MIN KDBQ 070910Z AUTO 18009KT 10SM CLR 11/09 A2995 1050 89 800 180/09 RMK AO2 TSNO
94908KDBQ DBQ20000307031510203/07/00 03:15:31  5-MIN KDBQ 070915Z AUTO 18009KT 9SM CLR 11/09 A2995 1050 89 800 180/09 RMK AO2 TSNO
94908KDBQ DBQ20000307032010203/07/00 03:20:31  5-MIN KDBQ 070920Z AUTO 18009KT 9SM CLR 11/09 A2995 1050 89 800 180/09 RMK AO2 TSNO
94908KDBQ DBQ20000307032510203/07/00 03:25:31  5-MIN KDBQ 070925Z AUTO 18009KT 9SM CLR 11/09 A2995 1050 89 800 180/09 RMK AO2 TSNO
94908KDBQ DBQ20000307033010203/07/00 03:30:31  5-MIN KDBQ 070930Z AUTO 18009KT 9SM CLR 11/09 A2995 1050 89 800 180/09 RMK AO2 TSNO
94908KDBQ DBQ20000307033510203/07/00 03:35:31  5-MIN KDBQ 070935Z AUTO 18009KT 9SM CLR 11/09 A2995 1050 89 800 180/09 RMK AO2 TSNO
94908KDBQ DBQ20000307034010203/07/00 03:40:31  5-MIN KDBQ 070940Z AUTO 18009KT 9SM CLR 11/09 A2996 1050 89 800 180/09 RMK AO2 TSNO
94908KDBQ DBQ20000307034510203/07/00 03:45:31  5-MIN KDBQ 070945Z AUTO 18009KT 9SM CLR 10/09 A2996 1040 93 700 170/09 RMK AO2 TSNO
94908KDBQ DBQ20000307035011903/07/00 03:50:31  5-MIN KDBQ 070950Z AUTO 18009KT 9SM CLR 10/09 A2996 1040 93 700 170/09 RMK AO2 SLP145 T01000089 TSNO
94908KDBQ DBQ20000307035511903/07/00 03:55:31  5-MIN KDBQ 070955Z AUTO 17009KT 9SM CLR 10/09 A2996 1040 93 700 170/09 RMK AO2 SLP146 T01000089 TSNO
94908KDBQ DBQ20000307040010203/07/00 04:00:31  5-MIN KDBQ 071000Z AUTO 18009KT 9SM CLR 10/09 A2996 1040 93 700 170/09 RMK AO2 TSNO
94908KDBQ DBQ20000307040510203/07/00 04:05:31  5-MIN KDBQ 071005Z AUTO 17009KT 9SM CLR 10/09 A2996 1040 93 700 170/09 RMK AO2 TSNO
94908KDBQ DBQ20000307041010203/07/00 04:10:31  5-MIN KDBQ 071010Z AUTO 17009KT 9SM CLR 10/09 A2997 1040 93 700 170/09 RMK AO2 TSNO
94908KDBQ DBQ20000307041510203/07/00 04:15:31  5-MIN KDBQ 071015Z AUTO 17009KT 9SM CLR 10/09 A2997 1040 93 700 170/09 RMK AO2 TSNO
94908KDBQ DBQ20000307042010203/07/00 04:20:31  5-MIN KDBQ 071020Z AUTO 17009KT 8SM CLR 10/09 A2997 1030 93 700 170/09 RMK AO2 TSNO
94908KDBQ DBQ20000307042510203/07/00 04:25:31  5-MIN KDBQ 071025Z AUTO 17009KT 8SM CLR 10/09 A2997 1030 93 700 170/09 RMK AO2 TSNO
94908KDBQ DBQ20000307043010203/07/00 04:30:31  5-MIN KDBQ 071030Z AUTO 17009KT 8SM CLR 10/09 A2997 1030 93 700 170/09 RMK AO2 TSNO
94908KDBQ DBQ20000307043510203/07/00 04:35:31  5-MIN KDBQ 071035Z AUTO 17009KT 8SM CLR 10/09 A2997 1030 93 700 170/09 RMK AO2 TSNO
94908KDBQ DBQ20000307044010203/07/00 04:40:31  5-MIN KDBQ 071040Z AUTO 17009KT 8SM CLR 10/09 A2997 1030 93 700 170/09 RMK AO2 TSNO
94908KDBQ DBQ20000307044510203/07/00 04:45:31  5-MIN KDBQ 071045Z AUTO 17009KT 8SM CLR 11/09 A2997 1030 93 800 170/09 RMK AO2 TSNO
94908KDBQ DBQ20000307045011903/07/00 04:50:31  5-MIN KDBQ 071050Z AUTO 17009KT 8SM CLR 10/09 A2997 1030 96 700 170/09 RMK AO2 SLP149 T01000094 TSNO
94908KDBQ DBQ20000307045511903/07/00 04:55:31  5-MIN KDBQ 071055Z AUTO 17009KT 8SM CLR 10/09 A2997 1030 96 700 170/09 RMK AO2 SLP150 T01000094 TSNO
94908KDBQ DBQ20000307050010203/07/00 05:00:31  5-MIN KDBQ 071100Z AUTO 18009KT 8SM CLR 10/09 A2997 1030 96 700 170/09 RMK AO2 TSNO
94908KDBQ DBQ20000307050510203/07/00 05:05:31  5-MIN KDBQ 071105Z AUTO 18009KT 8SM CLR 11/09 A2997 1030 93 800 180/09 RMK AO2 TSNO
94908KDBQ DBQ20000307051010203/07/00 05:10:31  5-MIN KDBQ 071110Z AUTO 18009KT 8SM CLR 11/09 A2997 1030 93 800 170/09 RMK AO2 TSNO
94908KDBQ DBQ20000307051510203/07/00 05:15:31  5-MIN KDBQ 071115Z AUTO 18009KT 8SM CLR 11/09 A2997 1030 93 800 180/09 RMK AO2 TSNO
94908KDBQ DBQ20000307052010203/07/00 05:20:31  5-MIN KDBQ 071120Z AUTO 18009KT 8SM CLR 11/09 A2997 1030 93 800 170/09 RMK AO2 TSNO
94908KDBQ DBQ20000307052510203/07/00 05:25:31  5-MIN KDBQ 071125Z AUTO 18009KT 8SM CLR 11/09 A2997 1030 93 800 180/09 RMK AO2 TSNO
94908KDBQ DBQ20000307053010203/07/00 05:30:31  5-MIN KDBQ 071130Z AUTO 18009KT 8SM CLR 11/09 A2997 1030 93 800 180/09 RMK AO2 TSNO
94908KDBQ DBQ20000307053510203/07/00 05:35:31  5-MIN KDBQ 071135Z AUTO 18009KT 8SM CLR 11/10 A2997 1030 96 800 180/09 RMK AO2 TSNO
94908KDBQ DBQ20000307054010203/07/00 05:40:31  5-MIN KDBQ 071140Z AUTO 18009KT 8SM CLR 11/10 A2997 1030 96 800 180/09 RMK AO2 TSNO
94908KDBQ DBQ20000307054510203/07/00 05:45:31  5-MIN KDBQ 071145Z AUTO 18010KT 8SM CLR 11/09 A2997 1030 93 800 180/10 RMK AO2 TSNO
94908KDBQ DBQ20000307055013703/07/00 05:50:31  5-MIN KDBQ 071150Z AUTO 18010KT 8SM CLR 11/10 A2997 1030 96 800 180/10 RMK AO2 SLP150 T01060100 10117 20100 58001 TSNO
94908KDBQ DBQ20000307055513703/07/00 05:55:31  5-MIN KDBQ 071155Z AUTO 18010KT 8SM CLR 11/10 A2997 1030 93 800 180/10 RMK AO2 SLP151 T01110100 10117 20100 51007 TSNO
94908KDBQ DBQ20000307060010203/07/00 06:00:31  5-MIN KDBQ 071200Z AUTO 18010KT 8SM CLR 11/10 A2997 1030 96 800 180/10 RMK AO2 TSNO
94908KDBQ DBQ20000307060510203/07/00 06:05:31  5-MIN KDBQ 071205Z AUTO 18010KT 7SM CLR 10/09 A2997 1030 96 700 180/10 RMK AO2 TSNO
94908KDBQ DBQ20000307061010203/07/00 06:10:31  5-MIN KDBQ 071210Z AUTO 18010KT 7SM CLR 11/10 A2997 1030 96 800 180/10 RMK AO2 TSNO
94908KDBQ DBQ20000307061510203/07/00 06:15:31  5-MIN KDBQ 071215Z AUTO 18011KT 7SM CLR 11/10 A2997 1030 96 800 180/11 RMK AO2 TSNO
94908KDBQ DBQ20000307062010203/07/00 06:20:31  5-MIN KDBQ 071220Z AUTO 18011KT 7SM CLR 11/10 A2998 1030 96 800 180/11 RMK AO2 TSNO
94908KDBQ DBQ20000307062510203/07/00 06:25:31  5-MIN KDBQ 071225Z AUTO 18010KT 7SM CLR 11/10 A2998 1030 93 800 180/10 RMK AO2 TSNO
94908KDBQ DBQ20000307063010503/07/00 06:30:31  5-MIN KDBQ 071230Z AUTO 18010KT 6SM BR CLR 11/10 A2998 1030 96 800 180/10 RMK AO2 TSNO
94908KDBQ DBQ20000307063510503/07/00 06:35:31  5-MIN KDBQ 071235Z AUTO 18010KT 6SM BR CLR 11/10 A2998 1030 96 800 180/10 RMK AO2 TSNO
94908KDBQ DBQ20000307064009203/07/00 06:40:31  5-MIN KDBQ 071240Z 18011KT 8SM CLR 11/10 A2998 1030 96 800 180/11 RMK AO2
94908KDBQ DBQ20000307064509203/07/00 06:45:31  5-MIN KDBQ 071245Z 18011KT 8SM CLR 11/10 A2998 1030 93 800 180/11 RMK AO2
94908KDBQ DBQ20000307065010903/07/00 06:50:31  5-MIN KDBQ 071250Z 19011KT 8SM CLR 11/11 A2998 1030 96 800 180/11 RMK AO2 SLP153 T01110106
94908KDBQ DBQ20000307065510903/07/00 06:55:31  5-MIN KDBQ 071255Z 19011KT 8SM CLR 11/11 A2998 1030 96 800 180/11 RMK AO2 SLP153 T01110106
94908KDBQ DBQ20000307070009503/07/00 07:00:31  5-MIN KDBQ 071300Z 19011KT 6SM BR CLR 11/11 A2998 1020 96 800 180/11 RMK AO2
94908KDBQ DBQ20000307070509503/07/00 07:05:31  5-MIN KDBQ 071305Z 19011KT 6SM BR CLR 11/11 A2998 1020 96 800 180/11 RMK AO2
94908KDBQ DBQ20000307071009503/07/00 07:10:31  5-MIN KDBQ 071310Z 19012KT 6SM BR CLR 11/11 A2998 1020 96 800 190/12 RMK AO2
94908KDBQ DBQ20000307071509503/07/00 07:15:31  5-MIN KDBQ 071315Z 18011KT 6SM BR CLR 12/11 A2998 1020 93 900 180/11 RMK AO2
94908KDBQ DBQ20000307072009503/07/00 07:20:31  5-MIN KDBQ 071320Z 19011KT 6SM BR CLR 12/11 A2998 1020 93 900 180/11 RMK AO2
94908KDBQ DBQ20000307072509503/07/00 07:25:31  5-MIN KDBQ 071325Z 19011KT 6SM BR CLR 12/11 A2999 1020 96 900 180/11 RMK AO2
94908KDBQ DBQ20000307073009303/07/00 07:30:31  5-MIN KDBQ 071330Z 19011KT 8SM CLR 12/11 A2999 1020 93 1000 190/11 RMK AO2
94908KDBQ DBQ20000307073509303/07/00 07:35:31  5-MIN KDBQ 071335Z 19011KT 8SM CLR 12/11 A2999 1010 93 1000 190/11 RMK AO2
94908KDBQ DBQ20000307074009303/07/00 07:40:31  5-MIN KDBQ 071340Z 19011KT 8SM CLR 12/11 A2999 1010 93 1000 190/11 RMK AO2
94908KDBQ DBQ20000307074509303/07/00 07:45:31  5-MIN KDBQ 071345Z 19011KT 8SM CLR 12/11 A2999 1010 93 1000 190/11 RMK AO2
94908KDBQ DBQ20000307075011003/07/00 07:50:31  5-MIN KDBQ 071350Z 19010KT 8SM CLR 13/12 A2999 1010 93 1000 190/10 RMK AO2 SLP158 T01280117
94908KDBQ DBQ20000307075511003/07/00 07:55:31  5-MIN KDBQ 071355Z 19011KT 8SM CLR 13/12 A2999 1010 93 1000 190/11 RMK AO2 SLP158 T01280117
94908KDBQ DBQ20000307080009603/07/00 08:00:31  5-MIN KDBQ 071400Z 19010KT 6SM BR CLR 13/12 A2999 1010 89 1100 190/10 RMK AO2
94908KDBQ DBQ20000307080509603/07/00 08:05:31  5-MIN KDBQ 071405Z 19010KT 6SM BR CLR 13/12 A2999 1010 89 1100 190/10 RMK AO2
94908KDBQ DBQ20000307081009303/07/00 08:10:31  5-MIN KDBQ 071410Z 19010KT 7SM CLR 13/12 A2999 1010 89 1100 190/10 RMK AO2
94908KDBQ DBQ20000307081509303/07/00 08:15:31  5-MIN KDBQ 071415Z 20010KT 7SM CLR 14/12 A2999 1010 90 1200 200/10 RMK AO2
94908KDBQ DBQ20000307082009303/07/00 08:20:31  5-MIN KDBQ 071420Z 20011KT 7SM CLR 14/12 A2999 1010 90 1200 200/11 RMK AO2
94908KDBQ DBQ20000307082509303/07/00 08:25:31  5-MIN KDBQ 071425Z 20011KT 7SM CLR 14/12 A2999 1010 90 1200 190/11 RMK AO2
94908KDBQ DBQ20000307083009303/07/00 08:30:31  5-MIN KDBQ 071430Z 20012KT 7SM CLR 14/12 A2999 1010 86 1200 200/12 RMK AO2
94908KDBQ DBQ20000307083509303/07/00 08:35:31  5-MIN KDBQ 071435Z 20013KT 7SM CLR 14/12 A2999 1010 86 1200 200/13 RMK AO2
94908KDBQ DBQ20000307084009303/07/00 08:40:31  5-MIN KDBQ 071440Z 20013KT 7SM CLR 15/13 A2999 1010 86 1300 200/13 RMK AO2
94908KDBQ DBQ20000307084509303/07/00 08:45:31  5-MIN KDBQ 071445Z 21013KT 7SM CLR 15/13 A2999 1020 86 1300 200/13 RMK AO2
94908KDBQ DBQ20000307085011603/07/00 08:50:31  5-MIN KDBQ 071450Z 21014KT 8SM CLR 16/13 A2999 1020 83 1400 210/14 RMK AO2 SLP154 T01560128 51007
94908KDBQ DBQ20000307085511603/07/00 08:55:31  5-MIN KDBQ 071455Z 21013KT 8SM CLR 16/13 A2999 1010 83 1400 210/13 RMK AO2 SLP155 T01610133 50005
94908KDBQ DBQ20000307090009303/07/00 09:00:31  5-MIN KDBQ 071500Z 20016KT 8SM CLR 16/13 A2999 1010 83 1400 200/16 RMK AO2
94908KDBQ DBQ20000307090509303/07/00 09:05:31  5-MIN KDBQ 071505Z 21014KT 8SM CLR 16/13 A2999 1020 83 1400 210/14 RMK AO2
94908KDBQ DBQ20000307091009303/07/00 09:10:31  5-MIN KDBQ 071510Z 21015KT 8SM CLR 17/13 A2999 1020 80 1500 210/15 RMK AO2
94908KDBQ DBQ20000307091509303/07/00 09:15:31  5-MIN KDBQ 071515Z 20015KT 8SM CLR 17/13 A2999 1020 78 1600 200/15 RMK AO2
94908KDBQ DBQ20000307092009303/07/00 09:20:31  5-MIN KDBQ 071520Z 21016KT 8SM CLR 17/13 A2999 1020 78 1600 210/16 RMK AO2
94908KDBQ DBQ20000307092509303/07/00 09:25:31  5-MIN KDBQ 071525Z 21015KT 8SM CLR 17/13 A2999 1020 78 1600 210/15 RMK AO2
94908KDBQ DBQ20000307093009303/07/00 09:30:31  5-MIN KDBQ 071530Z 21014KT 8SM CLR 18/13 A2998 1020 75 1600 210/14 RMK AO2
94908KDBQ DBQ20000307093509303/07/00 09:35:31  5-MIN KDBQ 071535Z 21016KT 8SM CLR 18/13 A2998 1020 75 1600 210/16 RMK AO2
94908KDBQ DBQ20000307094009303/07/00 09:40:31  5-MIN KDBQ 071540Z 21014KT 8SM CLR 18/14 A2998 1020 78 1600 210/14 RMK AO2
94908KDBQ DBQ20000307094509303/07/00 09:45:31  5-MIN KDBQ 071545Z 21016KT 8SM CLR 18/14 A2998 1020 75 1700 210/16 RMK AO2
94908KDBQ DBQ20000307095011003/07/00 09:50:31  5-MIN KDBQ 071550Z 21015KT 8SM CLR 18/14 A2998 1020 75 1700 210/15 RMK AO2 SLP152 T01830139
94908KDBQ DBQ20000307095511003/07/00 09:55:31  5-MIN KDBQ 071555Z 21014KT 9SM CLR 19/14 A2998 1020 72 1800 210/14 RMK AO2 SLP152 T01890139
94908KDBQ DBQ20000307100009303/07/00 10:00:31  5-MIN KDBQ 071600Z 21017KT 9SM CLR 19/14 A2998 1020 72 1800 210/17 RMK AO2
94908KDBQ DBQ20000307100509303/07/00 10:05:31  5-MIN KDBQ 071605Z 21014KT 9SM CLR 19/14 A2998 1020 72 1800 210/14 RMK AO2
94908KDBQ DBQ20000307101009303/07/00 10:10:31  5-MIN KDBQ 071610Z 21016KT 9SM CLR 19/14 A2998 1020 70 1800 210/16 RMK AO2
94908KDBQ DBQ20000307101509303/07/00 10:15:31  5-MIN KDBQ 071615Z 21014KT 9SM CLR 19/14 A2998 1020 70 1800 210/14 RMK AO2
94908KDBQ DBQ20000307102009303/07/00 10:20:31  5-MIN KDBQ 071620Z 21014KT 9SM CLR 19/14 A2998 1020 70 1800 210/14 RMK AO2
94908KDBQ DBQ20000307102509903/07/00 10:25:31  5-MIN KDBQ 071625Z 22013G19KT 9SM CLR 19/14 A2998 1020 70 1800 220/13G19 RMK AO2
94908KDBQ DBQ20000307103009903/07/00 10:30:31  5-MIN KDBQ 071630Z 20014G19KT 9SM CLR 20/14 A2998 1020 67 1900 200/14G19 RMK AO2
94908KDBQ DBQ20000307103509303/07/00 10:35:31  5-MIN KDBQ 071635Z 21013KT 9SM CLR 20/14 A2998 1020 67 1900 210/13 RMK AO2
94908KDBQ DBQ20000307104009303/07/00 10:40:31  5-MIN KDBQ 071640Z 20014KT 9SM CLR 20/14 A2998 1030 67 1900 200/14 RMK AO2
94908KDBQ DBQ20000307104509303/07/00 10:45:31  5-MIN KDBQ 071645Z 21011KT 9SM CLR 21/14 A2998 1030 67 2000 210/11 RMK AO2
94908KDBQ DBQ20000307105011003/07/00 10:50:31  5-MIN KDBQ 071650Z 20011KT 9SM CLR 21/14 A2998 1030 67 2000 200/11 RMK AO2 SLP150 T02060144
94908KDBQ DBQ20000307105511003/07/00 10:55:31  5-MIN KDBQ 071655Z 20012KT 9SM CLR 21/14 A2997 1030 67 2000 200/12 RMK AO2 SLP149 T02060144
94908KDBQ DBQ20000307110009303/07/00 11:00:31  5-MIN KDBQ 071700Z 21011KT 9SM CLR 21/14 A2998 1030 67 2000 210/11 RMK AO2
94908KDBQ DBQ20000307110509303/07/00 11:05:31  5-MIN KDBQ 071705Z 20011KT 9SM CLR 21/14 A2997 1030 65 2000 200/11 RMK AO2
94908KDBQ DBQ20000307111009303/07/00 11:10:31  5-MIN KDBQ 071710Z 19011KT 9SM CLR 21/14 A2997 1030 65 2000 190/11 RMK AO2
94908KDBQ DBQ20000307111509303/07/00 11:15:31  5-MIN KDBQ 071715Z 21013KT 9SM CLR 21/14 A2997 1030 65 2000 210/13 RMK AO2
94908KDBQ DBQ20000307112009303/07/00 11:20:31  5-MIN KDBQ 071720Z 20012KT 9SM CLR 22/14 A2997 1030 63 2100 200/12 RMK AO2
94908KDBQ DBQ20000307112510003/07/00 11:25:31  5-MIN KDBQ 071725Z 19010G18KT 10SM CLR 22/14 A2997 1030 63 2100 190/10G18 RMK AO2
94908KDBQ DBQ20000307113009403/07/00 11:30:31  5-MIN KDBQ 071730Z 21011KT 10SM CLR 22/14 A2997 1030 63 2100 210/11 RMK AO2
94908KDBQ DBQ20000307113509403/07/00 11:35:31  5-MIN KDBQ 071735Z 20013KT 10SM CLR 22/14 A2997 1030 61 2100 200/13 RMK AO2
94908KDBQ DBQ20000307114009403/07/00 11:40:31  5-MIN KDBQ 071740Z 19011KT 10SM CLR 22/14 A2997 1030 61 2100 190/11 RMK AO2
94908KDBQ DBQ20000307114509403/07/00 11:45:31  5-MIN KDBQ 071745Z 19009KT 10SM CLR 22/14 A2997 1030 61 2200 190/09 RMK AO2
94908KDBQ DBQ20000307115012903/07/00 11:50:31  5-MIN KDBQ 071750Z 20012KT 10SM CLR 22/14 A2997 1030 61 2200 200/12 RMK AO2 SLP146 T02220144 10222 20100 50005
94908KDBQ DBQ20000307115512903/07/00 11:55:31  5-MIN KDBQ 071755Z 19011KT 10SM CLR 22/14 A2997 1040 61 2200 190/11 RMK AO2 SLP145 T02220144 10222 20100 58008
94908KDBQ DBQ20000307120009403/07/00 12:00:31  5-MIN KDBQ 071800Z 20011KT 10SM CLR 23/15 A2997 1040 61 2200 200/11 RMK AO2
94908KDBQ DBQ20000307120509403/07/00 12:05:31  5-MIN KDBQ 071805Z 20014KT 10SM CLR 23/15 A2996 1040 59 2300 200/14 RMK AO2
94908KDBQ DBQ20000307121009403/07/00 12:10:31  5-MIN KDBQ 071810Z 20010KT 10SM CLR 23/15 A2996 1040 61 2200 200/10 RMK AO2
94908KDBQ DBQ20000307121509403/07/00 12:15:31  5-MIN KDBQ 071815Z 21011KT 10SM CLR 23/15 A2996 1050 59 2300 210/11 RMK AO2
94908KDBQ DBQ20000307122009403/07/00 12:20:31  5-MIN KDBQ 071820Z 21013KT 10SM CLR 23/15 A2996 1050 59 2300 210/13 RMK AO2
94908KDBQ DBQ20000307122509403/07/00 12:25:31  5-MIN KDBQ 071825Z 19013KT 10SM CLR 23/15 A2995 1050 59 2300 190/13 RMK AO2
94908KDBQ DBQ20000307123009403/07/00 12:30:31  5-MIN KDBQ 071830Z 20013KT 10SM CLR 23/15 A2995 1050 59 2300 200/13 RMK AO2
94908KDBQ DBQ20000307123509403/07/00 12:35:31  5-MIN KDBQ 071835Z 21011KT 10SM CLR 23/15 A2995 1050 59 2300 200/11 RMK AO2
94908KDBQ DBQ20000307124009403/07/00 12:40:31  5-MIN KDBQ 071840Z 21014KT 10SM CLR 24/15 A2994 1060 57 2400 200/14 RMK AO2
94908KDBQ DBQ20000307124510003/07/00 12:45:31  5-MIN KDBQ 071845Z 21011G19KT 10SM CLR 24/15 A2994 1060 55 2400 200/11G19 RMK AO2
94908KDBQ DBQ20000307125011703/07/00 12:50:31  5-MIN KDBQ 071850Z 20013G19KT 10SM CLR 24/15 A2994 1060 55 2400 200/13G19 RMK AO2 SLP135 T02440150
94908KDBQ DBQ20000307125511703/07/00 12:55:31  5-MIN KDBQ 071855Z 19015G19KT 10SM CLR 24/15 A2993 1070 57 2400 190/15G19 RMK AO2 SLP134 T02390150
94908KDBQ DBQ20000307130010003/07/00 13:00:31  5-MIN KDBQ 071900Z 21013G19KT 10SM CLR 24/15 A2993 1070 55 2400 210/13G19 RMK AO2
94908KDBQ DBQ20000307130509403/07/00 13:05:31  5-MIN KDBQ 071905Z 22012KT 10SM CLR 24/15 A2993 1070 55 2400 220/12 RMK AO2
94908KDBQ DBQ20000307131009403/07/00 13:10:31  5-MIN KDBQ 071910Z 20013KT 10SM CLR 24/15 A2993 1070 55 2400 200/13 RMK AO2
94908KDBQ DBQ20000307131509703/07/00 13:15:31  5-MIN KDBQ 071915Z 20012KT 10SM FEW041 24/15 A2993 1070 57 2400 200/12 RMK AO2
94908KDBQ DBQ20000307132009703/07/00 13:20:31  5-MIN KDBQ 071920Z 19014KT 10SM FEW041 24/15 A2992 1080 55 2500 190/14 RMK AO2
94908KDBQ DBQ20000307132509703/07/00 13:25:31  5-MIN KDBQ 071925Z 20012KT 10SM FEW039 24/15 A2992 1080 57 2400 200/12 RMK AO2
94908KDBQ DBQ20000307133009703/07/00 13:30:31  5-MIN KDBQ 071930Z 20012KT 10SM FEW039 24/15 A2992 1080 55 2500 200/12 RMK AO2
94908KDBQ DBQ20000307133509703/07/00 13:35:31  5-MIN KDBQ 071935Z 19014KT 10SM FEW041 24/15 A2992 1080 55 2500 190/14 RMK AO2
94908KDBQ DBQ20000307134010303/07/00 13:40:31  5-MIN KDBQ 071940Z 21015G20KT 10SM SCT041 24/14 A2992 1080 53 2500 210/15G20 RMK AO2
94908KDBQ DBQ20000307134510303/07/00 13:45:31  5-MIN KDBQ 071945Z 20012G20KT 10SM FEW041 24/15 A2992 1080 55 2500 200/12G20 RMK AO2
94908KDBQ DBQ20000307135012003/07/00 13:50:31  5-MIN KDBQ 071950Z 19014G18KT 10SM SCT041 24/15 A2992 1080 55 2500 190/14G18 RMK AO2 SLP128 T02440150
94908KDBQ DBQ20000307135511403/07/00 13:55:31  5-MIN KDBQ 071955Z 19013KT 10SM BKN045 24/14 A2991 1080 55 2400 190/13 RMK AO2 SLP128 T02390144
94908KDBQ DBQ20000307140010303/07/00 14:00:31  5-MIN KDBQ 072000Z 20014G21KT 10SM BKN045 24/14 A2992 1080 55 2400 200/14G21 RMK AO2
94908KDBQ DBQ20000307140510303/07/00 14:05:31  5-MIN KDBQ 072005Z 19015G21KT 10SM BKN045 23/14 A2991 1090 57 2300 190/15G21 RMK AO2
94908KDBQ DBQ20000307141011003/07/00 14:10:31  5-MIN KDBQ 072010Z 20011G21KT 10SM BKN043 BKN050 24/14 A2991 1090 55 2400 190/11G21 RMK AO2
94908KDBQ DBQ20000307141509703/07/00 14:15:31  5-MIN KDBQ 072015Z 20010KT 10SM BKN045 24/14 A2991 1090 55 2400 200/10 RMK AO2
94908KDBQ DBQ20000307142010303/07/00 14:20:31  5-MIN KDBQ 072020Z 20014G18KT 10SM BKN045 24/14 A2991 1080 53 2500 200/14G18 RMK AO2
94908KDBQ DBQ20000307142510303/07/00 14:25:31  5-MIN KDBQ 072025Z 19016G20KT 10SM BKN045 24/14 A2991 1090 55 2400 180/16G20 RMK AO2
94908KDBQ DBQ20000307143011003/07/00 14:30:31  5-MIN KDBQ 072030Z 18017G20KT 10SM BKN045 BKN050 24/14 A2991 1090 55 2400 180/17G20 RMK AO2
94908KDBQ DBQ20000307143509703/07/00 14:35:31  5-MIN KDBQ 072035Z 21013KT 10SM BKN048 24/14 A2991 1090 55 2400 210/13 RMK AO2
94908KDBQ DBQ20000307144010403/07/00 14:40:31  5-MIN KDBQ 072040Z 20012KT 10SM BKN045 BKN050 24/14 A2991 1090 53 2500 200/12 RMK AO2
94908KDBQ DBQ20000307144511003/07/00 14:45:31  5-MIN KDBQ 072045Z 19011G18KT 10SM BKN047 BKN055 24/14 A2991 1090 53 2500 190/11G18 RMK AO2
94908KDBQ DBQ20000307145012003/07/00 14:50:31  5-MIN KDBQ 072050Z 19012KT 10SM BKN049 24/14 A2991 1090 53 2500 190/12 RMK AO2 SLP125 T02440144 58008
94908KDBQ DBQ20000307145512703/07/00 14:55:31  5-MIN KDBQ 072055Z 20012KT 10SM BKN047 BKN055 24/14 A2991 1090 55 2400 190/12 RMK AO2 SLP125 T02390144 56018
94908KDBQ DBQ20000307150010403/07/00 15:00:31  5-MIN KDBQ 072100Z 21014KT 10SM BKN047 BKN055 24/14 A2990 1090 55 2400 210/14 RMK AO2
94908KDBQ DBQ20000307150510403/07/00 15:05:31  5-MIN KDBQ 072105Z 21014KT 10SM SCT047 BKN055 24/14 A2991 1090 53 2500 210/14 RMK AO2
94908KDBQ DBQ20000307151010403/07/00 15:10:31  5-MIN KDBQ 072110Z 21014KT 10SM FEW047 BKN055 24/14 A2991 1090 55 2400 200/14 RMK AO2
94908KDBQ DBQ20000307151510403/07/00 15:15:31  5-MIN KDBQ 072115Z 20012KT 10SM SCT047 BKN055 24/14 A2991 1090 55 2400 200/12 RMK AO2
94908KDBQ DBQ20000307152010403/07/00 15:20:31  5-MIN KDBQ 072120Z 19013KT 10SM SCT045 OVC055 24/14 A2990 1090 55 2400 190/13 RMK AO2
94908KDBQ DBQ20000307152510403/07/00 15:25:31  5-MIN KDBQ 072125Z 19011KT 10SM SCT045 OVC055 24/14 A2991 1090 55 2400 190/11 RMK AO2
94908KDBQ DBQ20000307153010403/07/00 15:30:31  5-MIN KDBQ 072130Z 20012KT 10SM FEW045 OVC055 24/14 A2991 1090 55 2400 200/12 RMK AO2
94908KDBQ DBQ20000307153511003/07/00 15:35:31  5-MIN KDBQ 072135Z 20014G18KT 10SM SCT047 OVC055 24/14 A2991 1090 55 2400 200/14G18 RMK AO2
94908KDBQ DBQ20000307154010403/07/00 15:40:31  5-MIN KDBQ 072140Z 20015KT 10SM SCT047 OVC060 24/14 A2991 1090 55 2400 200/15 RMK AO2
94908KDBQ DBQ20000307154510403/07/00 15:45:31  5-MIN KDBQ 072145Z 21015KT 10SM FEW047 OVC055 24/14 A2991 1090 55 2400 210/15 RMK AO2
94908KDBQ DBQ20000307155012103/07/00 15:50:31  5-MIN KDBQ 072150Z 20015KT 10SM SCT050 OVC060 24/14 A2991 1090 53 2400 200/15 RMK AO2 SLP125 T02390139
94908KDBQ DBQ20000307155512103/07/00 15:55:31  5-MIN KDBQ 072155Z 21013KT 10SM FEW048 OVC060 23/14 A2991 1090 57 2300 210/13 RMK AO2 SLP125 T02330144
94908KDBQ DBQ20000307160010403/07/00 16:00:31  5-MIN KDBQ 072200Z 21011KT 10SM FEW048 OVC060 24/14 A2990 1100 55 2400 210/11 RMK AO2
94908KDBQ DBQ20000307160510403/07/00 16:05:31  5-MIN KDBQ 072205Z 21014KT 10SM FEW048 OVC060 23/14 A2990 1100 57 2400 210/14 RMK AO2
94908KDBQ DBQ20000307161010403/07/00 16:10:31  5-MIN KDBQ 072210Z 21015KT 10SM FEW048 OVC060 23/14 A2990 1090 55 2300 210/15 RMK AO2
94908KDBQ DBQ20000307161510403/07/00 16:15:31  5-MIN KDBQ 072215Z 20013KT 10SM FEW048 OVC060 23/14 A2990 1090 55 2400 200/13 RMK AO2
94908KDBQ DBQ20000307162009703/07/00 16:20:31  5-MIN KDBQ 072220Z 19012KT 10SM OVC060 23/14 A2990 1100 57 2400 190/12 RMK AO2
94908KDBQ DBQ20000307162509703/07/00 16:25:31  5-MIN KDBQ 072225Z 20010KT 10SM BKN060 23/14 A2990 1100 57 2400 200/10 RMK AO2
94908KDBQ DBQ20000307163009703/07/00 16:30:31  5-MIN KDBQ 072230Z 20009KT 10SM BKN060 23/14 A2990 1100 57 2400 200/09 RMK AO2
94908KDBQ DBQ20000307163509703/07/00 16:35:31  5-MIN KDBQ 072235Z 21011KT 10SM OVC055 23/14 A2990 1100 59 2300 210/11 RMK AO2
94908KDBQ DBQ20000307164009703/07/00 16:40:31  5-MIN KDBQ 072240Z 21011KT 10SM OVC055 23/14 A2990 1100 55 2400 200/11 RMK AO2
94908KDBQ DBQ20000307164509703/07/00 16:45:31  5-MIN KDBQ 072245Z 20010KT 10SM OVC055 23/14 A2990 1100 57 2300 200/10 RMK AO2
94908KDBQ DBQ20000307165011403/07/00 16:50:31  5-MIN KDBQ 072250Z 20012KT 10SM BKN055 23/14 A2990 1100 57 2300 200/12 RMK AO2 SLP122 T02280139
94908KDBQ DBQ20000307165511403/07/00 16:55:31  5-MIN KDBQ 072255Z 20012KT 10SM OVC055 23/14 A2990 1100 57 2300 200/12 RMK AO2 SLP123 T02280139
94908KDBQ DBQ20000307170009703/07/00 17:00:31  5-MIN KDBQ 072300Z 19008KT 10SM BKN055 23/14 A2990 1100 57 2300 190/08 RMK AO2
94908KDBQ DBQ20000307170509703/07/00 17:05:31  5-MIN KDBQ 072305Z 19009KT 10SM BKN055 22/14 A2990 1100 59 2200 190/09 RMK AO2
94908KDBQ DBQ20000307171009703/07/00 17:10:31  5-MIN KDBQ 072310Z 19011KT 10SM SCT055 22/14 A2990 1100 59 2200 190/11 RMK AO2
94908KDBQ DBQ20000307171509703/07/00 17:15:31  5-MIN KDBQ 072315Z 20012KT 10SM SCT055 23/14 A2990 1100 57 2300 200/12 RMK AO2
94908KDBQ DBQ20000307172009703/07/00 17:20:31  5-MIN KDBQ 072320Z 20013KT 10SM FEW055 22/14 A2990 1100 59 2200 200/13 RMK AO2
94908KDBQ DBQ20000307172510303/07/00 17:25:31  5-MIN KDBQ 072325Z 19008G17KT 10SM FEW055 22/14 A2990 1100 59 2200 190/08G17 RMK AO2
94908KDBQ DBQ20000307173009403/07/00 17:30:31  5-MIN KDBQ 072330Z 19011KT 10SM CLR 22/14 A2990 1100 61 2200 190/11 RMK AO2
94908KDBQ DBQ20000307173509403/07/00 17:35:31  5-MIN KDBQ 072335Z 20011KT 10SM CLR 22/14 A2990 1100 61 2200 200/11 RMK AO2
94908KDBQ DBQ20000307174009403/07/00 17:40:31  5-MIN KDBQ 072340Z 19009KT 10SM CLR 21/14 A2990 1100 63 2100 190/09 RMK AO2
94908KDBQ DBQ20000307174509403/07/00 17:45:31  5-MIN KDBQ 072345Z 20009KT 10SM CLR 21/14 A2990 1100 63 2100 190/09 RMK AO2
94908KDBQ DBQ20000307175012903/07/00 17:50:31  5-MIN KDBQ 072350Z 19008KT 10SM CLR 21/14 A2990 1100 65 2000 190/08 RMK AO2 SLP125 T02060139 10250 20206 56018
94908KDBQ DBQ20000307175512903/07/00 17:55:31  5-MIN KDBQ 072355Z 19009KT 10SM CLR 21/14 A2990 1100 65 2000 190/09 RMK AO2 SLP124 T02060139 10250 20206 55003
94908KDBQ DBQ20000307180009403/07/00 18:00:31  5-MIN KDBQ 080000Z 19009KT 10SM CLR 20/14 A2990 1090 67 2000 190/09 RMK AO2
94908KDBQ DBQ20000307180509403/07/00 18:05:31  5-MIN KDBQ 080005Z 18009KT 10SM CLR 20/14 A2990 1090 67 2000 180/09 RMK AO2
94908KDBQ DBQ20000307181009403/07/00 18:10:31  5-MIN KDBQ 080010Z 18008KT 10SM CLR 20/14 A2990 1090 67 2000 180/08 RMK AO2
94908KDBQ DBQ20000307181509403/07/00 18:15:31  5-MIN KDBQ 080015Z 17008KT 10SM CLR 19/14 A2990 1090 70 1900 170/08 RMK AO2
94908KDBQ DBQ20000307182009303/07/00 18:20:31  5-MIN KDBQ 080020Z 17008KT 7SM CLR 19/14 A2990 1090 70 1900 170/08 RMK AO2
94908KDBQ DBQ20000307182509303/07/00 18:25:31  5-MIN KDBQ 080025Z 17008KT 8SM CLR 19/14 A2991 1090 72 1800 170/08 RMK AO2
94908KDBQ DBQ20000307183009303/07/00 18:30:31  5-MIN KDBQ 080030Z 17008KT 8SM CLR 19/13 A2991 1090 70 1800 170/08 RMK AO2
94908KDBQ DBQ20000307183509303/07/00 18:35:31  5-MIN KDBQ 080035Z 17007KT 8SM CLR 19/13 A2991 1090 70 1800 170/07 RMK AO2
94908KDBQ DBQ20000307184009303/07/00 18:40:31  5-MIN KDBQ 080040Z 17008KT 8SM CLR 19/13 A2991 1090 70 1800 160/08 RMK AO2
94908KDBQ DBQ20000307184509303/07/00 18:45:31  5-MIN KDBQ 080045Z 17008KT 8SM CLR 19/13 A2991 1090 70 1800 160/08 RMK AO2
94908KDBQ DBQ20000307185011003/07/00 18:50:31  5-MIN KDBQ 080050Z 17008KT 8SM CLR 19/13 A2991 1090 70 1800 160/08 RMK AO2 SLP127 T01890133
94908KDBQ DBQ20000307185511003/07/00 18:55:31  5-MIN KDBQ 080055Z 17010KT 8SM CLR 19/13 A2991 1090 70 1800 170/10 RMK AO2 SLP127 T01890133
94908KDBQ DBQ20000307190009403/07/00 19:00:31  5-MIN KDBQ 080100Z 16009KT 10SM CLR 18/13 A2991 1090 72 1800 160/09 RMK AO2
94908KDBQ DBQ20000307190509403/07/00 19:05:31  5-MIN KDBQ 080105Z 16009KT 10SM CLR 19/13 A2991 1090 70 1800 160/09 RMK AO2
94908KDBQ DBQ20000307191009403/07/00 19:10:31  5-MIN KDBQ 080110Z 16009KT 10SM CLR 19/13 A2991 1090 70 1800 160/09 RMK AO2
94908KDBQ DBQ20000307191509403/07/00 19:15:31  5-MIN KDBQ 080115Z 16009KT 10SM CLR 18/13 A2991 1090 72 1800 160/09 RMK AO2
94908KDBQ DBQ20000307192009403/07/00 19:20:31  5-MIN KDBQ 080120Z 16009KT 10SM CLR 18/13 A2991 1090 72 1800 160/09 RMK AO2
94908KDBQ DBQ20000307192509403/07/00 19:25:31  5-MIN KDBQ 080125Z 16009KT 10SM CLR 19/13 A2991 1090 70 1800 160/09 RMK AO2
94908KDBQ DBQ20000307193009403/07/00 19:30:31  5-MIN KDBQ 080130Z 16009KT 10SM CLR 18/13 A2991 1090 72 1800 160/09 RMK AO2
94908KDBQ DBQ20000307193509403/07/00 19:35:31  5-MIN KDBQ 080135Z 17007KT 10SM CLR 18/13 A2991 1090 72 1800 170/07 RMK AO2
94908KDBQ DBQ20000307194009403/07/00 19:40:31  5-MIN KDBQ 080140Z 18005KT 10SM CLR 17/13 A2990 1090 78 1600 180/05 RMK AO2
94908KDBQ DBQ20000307194509403/07/00 19:45:31  5-MIN KDBQ 080145Z 19005KT 10SM CLR 17/13 A2990 1090 77 1600 190/05 RMK AO2
94908KDBQ DBQ20000307195011103/07/00 19:50:31  5-MIN KDBQ 080150Z 18006KT 10SM CLR 17/13 A2990 1100 77 1600 180/06 RMK AO2 SLP125 T01670128
94908KDBQ DBQ20000307195511103/07/00 19:55:31  5-MIN KDBQ 080155Z 19006KT 10SM CLR 17/13 A2990 1100 77 1600 190/06 RMK AO2 SLP124 T01670128
94908KDBQ DBQ20000307200009403/07/00 20:00:31  5-MIN KDBQ 080200Z 18007KT 10SM CLR 17/13 A2990 1100 78 1700 180/07 RMK AO2
94908KDBQ DBQ20000307200509403/07/00 20:05:31  5-MIN KDBQ 080205Z 18007KT 10SM CLR 17/13 A2990 1100 78 1700 180/07 RMK AO2
94908KDBQ DBQ20000307201009403/07/00 20:10:31  5-MIN KDBQ 080210Z 18007KT 10SM CLR 17/13 A2990 1100 77 1600 180/07 RMK AO2
94908KDBQ DBQ20000307201509403/07/00 20:15:31  5-MIN KDBQ 080215Z 18007KT 10SM CLR 17/13 A2990 1100 77 1600 180/07 RMK AO2
94908KDBQ DBQ20000307202009403/07/00 20:20:31  5-MIN KDBQ 080220Z 19006KT 10SM CLR 17/13 A2989 1100 77 1600 190/06 RMK AO2
94908KDBQ DBQ20000307202509403/07/00 20:25:31  5-MIN KDBQ 080225Z 18007KT 10SM CLR 16/13 A2990 1100 80 1500 180/07 RMK AO2
94908KDBQ DBQ20000307203009403/07/00 20:30:31  5-MIN KDBQ 080230Z 18007KT 10SM CLR 16/13 A2990 1100 80 1500 170/07 RMK AO2
94908KDBQ DBQ20000307203509303/07/00 20:35:31  5-MIN KDBQ 080235Z 18006KT 8SM CLR 17/13 A2989 1100 77 1600 180/06 RMK AO2
94908KDBQ DBQ20000307204009603/07/00 20:40:31  5-MIN KDBQ 080240Z 17006KT 6SM HZ CLR 16/13 A2989 1100 80 1500 170/06 RMK AO2
94908KDBQ DBQ20000307204509303/07/00 20:45:31  5-MIN KDBQ 080245Z 17005KT 7SM CLR 16/13 A2989 1110 80 1500 170/05 RMK AO2
94908KDBQ DBQ20000307205011603/07/00 20:50:31  5-MIN KDBQ 080250Z 18004KT 8SM CLR 16/13 A2989 1110 83 1500 180/04 RMK AO2 SLP120 T01560128 55003
94908KDBQ DBQ20000307205511603/07/00 20:55:31  5-MIN KDBQ 080255Z 18003KT 8SM CLR 16/12 A2989 1110 80 1500 180/03 RMK AO2 SLP120 T01560122 58004
94908KDBQ DBQ20000307210010303/07/00 21:00:31  5-MIN KDBQ 080300Z AUTO 18004KT 9SM CLR 16/12 A2989 1110 80 1500 180/04 RMK AO2 TSNO
94908KDBQ DBQ20000307210510303/07/00 21:05:31  5-MIN KDBQ 080305Z AUTO 19004KT 9SM CLR 16/12 A2989 1110 80 1500 190/04 RMK AO2 TSNO
94908KDBQ DBQ20000307211010403/07/00 21:10:31  5-MIN KDBQ 080310Z AUTO 18004KT 10SM CLR 16/13 A2989 1110 80 1500 180/04 RMK AO2 TSNO
94908KDBQ DBQ20000307211510403/07/00 21:15:31  5-MIN KDBQ 080315Z AUTO 16004KT 10SM CLR 15/12 A2989 1110 83 1400 160/04 RMK AO2 TSNO
94908KDBQ DBQ20000307212010403/07/00 21:20:31  5-MIN KDBQ 080320Z AUTO 15006KT 10SM CLR 15/12 A2989 1110 83 1400 150/06 RMK AO2 TSNO
94908KDBQ DBQ20000307212510403/07/00 21:25:31  5-MIN KDBQ 080325Z AUTO 15009KT 10SM CLR 15/12 A2989 1110 83 1400 150/09 RMK AO2 TSNO
94908KDBQ DBQ20000307213010403/07/00 21:30:31  5-MIN KDBQ 080330Z AUTO 15008KT 10SM CLR 16/12 A2989 1110 80 1500 150/08 RMK AO2 TSNO
94908KDBQ DBQ20000307213510403/07/00 21:35:31  5-MIN KDBQ 080335Z AUTO 15008KT 10SM CLR 16/13 A2988 1110 83 1500 150/08 RMK AO2 TSNO
94908KDBQ DBQ20000307214010403/07/00 21:40:31  5-MIN KDBQ 080340Z AUTO 15009KT 10SM CLR 16/13 A2988 1120 80 1500 150/09 RMK AO2 TSNO
94908KDBQ DBQ20000307214510403/07/00 21:45:31  5-MIN KDBQ 080345Z AUTO 15009KT 10SM CLR 16/13 A2988 1120 80 1500 150/09 RMK AO2 TSNO
94908KDBQ DBQ20000307215012103/07/00 21:50:31  5-MIN KDBQ 080350Z AUTO 15010KT 10SM CLR 16/13 A2988 1120 80 1500 140/10 RMK AO2 SLP116 T01610128 TSNO
94908KDBQ DBQ20000307215512103/07/00 21:55:31  5-MIN KDBQ 080355Z AUTO 15009KT 10SM CLR 16/13 A2988 1120 83 1500 150/09 RMK AO2 SLP116 T01560128 TSNO
94908KDBQ DBQ20000307220010303/07/00 22:00:31  5-MIN KDBQ 080400Z AUTO 15008KT 9SM CLR 16/12 A2988 1110 80 1500 150/08 RMK AO2 TSNO
94908KDBQ DBQ20000307220510303/07/00 22:05:31  5-MIN KDBQ 080405Z AUTO 15008KT 9SM CLR 16/12 A2989 1110 80 1500 150/08 RMK AO2 TSNO
94908KDBQ DBQ20000307221010303/07/00 22:10:31  5-MIN KDBQ 080410Z AUTO 16007KT 9SM CLR 15/12 A2989 1110 83 1400 160/07 RMK AO2 TSNO
94908KDBQ DBQ20000307221510303/07/00 22:15:31  5-MIN KDBQ 080415Z AUTO 16005KT 9SM CLR 14/12 A2989 1110 86 1300 160/05 RMK AO2 TSNO
94908KDBQ DBQ20000307222010303/07/00 22:20:31  5-MIN KDBQ 080420Z AUTO 17004KT 9SM CLR 14/12 A2989 1110 86 1300 170/04 RMK AO2 TSNO
94908KDBQ DBQ20000307222510303/07/00 22:25:31  5-MIN KDBQ 080425Z AUTO 16005KT 9SM CLR 15/12 A2989 1110 83 1400 160/05 RMK AO2 TSNO
94908KDBQ DBQ20000307223010303/07/00 22:30:31  5-MIN KDBQ 080430Z AUTO 17004KT 9SM CLR 15/13 A2989 1110 86 1400 170/04 RMK AO2 TSNO
94908KDBQ DBQ20000307223510303/07/00 22:35:31  5-MIN KDBQ 080435Z AUTO 00000KT 9SM CLR 15/13 A2989 1110 86 1400 000/00 RMK AO2 TSNO
94908KDBQ DBQ20000307224010303/07/00 22:40:31  5-MIN KDBQ 080440Z AUTO 18004KT 8SM CLR 14/12 A2989 1110 86 1300 180/04 RMK AO2 TSNO
94908KDBQ DBQ20000307224510303/07/00 22:45:31  5-MIN KDBQ 080445Z AUTO 19005KT 9SM CLR 14/12 A2989 1110 83 1300 190/05 RMK AO2 TSNO
94908KDBQ DBQ20000307225012003/07/00 22:50:31  5-MIN KDBQ 080450Z AUTO 19005KT 9SM CLR 15/12 A2989 1110 83 1400 190/05 RMK AO2 SLP118 T01500122 TSNO
94908KDBQ DBQ20000307225512003/07/00 22:55:31  5-MIN KDBQ 080455Z AUTO 16008KT 9SM CLR 14/12 A2990 1100 86 1300 160/08 RMK AO2 SLP121 T01390117 TSNO
94908KDBQ DBQ20000307230010303/07/00 23:00:31  5-MIN KDBQ 080500Z AUTO 16007KT 9SM CLR 15/12 A2989 1110 80 1400 160/07 RMK AO2 TSNO
94908KDBQ DBQ20000307230510303/07/00 23:05:31  5-MIN KDBQ 080505Z AUTO 16006KT 9SM CLR 14/12 A2989 1110 83 1300 160/06 RMK AO2 TSNO
94908KDBQ DBQ20000307231010303/07/00 23:10:31  5-MIN KDBQ 080510Z AUTO 16007KT 9SM CLR 15/12 A2989 1110 80 1400 160/07 RMK AO2 TSNO
94908KDBQ DBQ20000307231510303/07/00 23:15:31  5-MIN KDBQ 080515Z AUTO 16007KT 9SM CLR 14/12 A2989 1110 83 1300 160/07 RMK AO2 TSNO
94908KDBQ DBQ20000307232010303/07/00 23:20:31  5-MIN KDBQ 080520Z AUTO 16008KT 9SM CLR 15/12 A2989 1110 80 1400 160/08 RMK AO2 TSNO
94908KDBQ DBQ20000307232510303/07/00 23:25:31  5-MIN KDBQ 080525Z AUTO 16007KT 9SM CLR 15/12 A2989 1110 80 1400 160/07 RMK AO2 TSNO
94908KDBQ DBQ20000307233010303/07/00 23:30:31  5-MIN KDBQ 080530Z AUTO 15007KT 9SM CLR 14/12 A2989 1110 83 1300 150/07 RMK AO2 TSNO
94908KDBQ DBQ20000307233510303/07/00 23:35:31  5-MIN KDBQ 080535Z AUTO 16007KT 9SM CLR 14/12 A2989 1110 83 1300 150/07 RMK AO2 TSNO
94908KDBQ DBQ20000307234010303/07/00 23:40:31  5-MIN KDBQ 080540Z AUTO 15007KT 9SM CLR 14/12 A2989 1110 86 1300 150/07 RMK AO2 TSNO
94908KDBQ DBQ20000307234510303/07/00 23:45:31  5-MIN KDBQ 080545Z AUTO 16006KT 9SM CLR 14/12 A2989 1110 86 1300 150/06 RMK AO2 TSNO
94908KDBQ DBQ20000307235014803/07/00 23:50:31  5-MIN KDBQ 080550Z AUTO 15006KT 9SM CLR 14/12 A2989 1110 86 1300 150/06 RMK AO2 SLP117 T01390117 10206 20139 402500100 58004 TSNO
94908KDBQ DBQ20000307235514803/07/00 23:55:31  5-MIN KDBQ 080555Z AUTO 15006KT 9SM CLR 14/12 A2988 1110 86 1300 150/06 RMK AO2 SLP116 T01390117 10206 20139 402500100 58002 TSNO
94908KDBQ DBQ20000308000010303/08/00 00:00:31  5-MIN KDBQ 080600Z AUTO 16006KT 9SM CLR 14/12 A2989 1110 86 1300 150/06 RMK AO2 TSNO
94908KDBQ DBQ20000308000510303/08/00 00:05:31  5-MIN KDBQ 080605Z AUTO 16006KT 9SM CLR 14/12 A2989 1110 86 1300 160/06 RMK AO2 TSNO
94908KDBQ DBQ20000308001010303/08/00 00:10:31  5-MIN KDBQ 080610Z AUTO 16005KT 9SM CLR 14/12 A2988 1110 86 1300 160/05 RMK AO2 TSNO
94908KDBQ DBQ20000308001510303/08/00 00:15:31  5-MIN KDBQ 080615Z AUTO 15008KT 9SM CLR 14/12 A2988 1110 86 1300 150/08 RMK AO2 TSNO
94908KDBQ DBQ20000308002010303/08/00 00:20:31  5-MIN KDBQ 080620Z AUTO 15007KT 8SM CLR 14/12 A2988 1110 86 1300 150/07 RMK AO2 TSNO
94908KDBQ DBQ20000308002510303/08/00 00:25:31  5-MIN KDBQ 080625Z AUTO 15006KT 8SM CLR 14/12 A2988 1120 86 1300 150/06 RMK AO2 TSNO
94908KDBQ DBQ20000308003010303/08/00 00:30:31  5-MIN KDBQ 080630Z AUTO 15007KT 8SM CLR 14/12 A2988 1120 86 1300 150/07 RMK AO2 TSNO
94908KDBQ DBQ20000308003510303/08/00 00:35:31  5-MIN KDBQ 080635Z AUTO 15006KT 8SM CLR 14/12 A2988 1120 83 1400 150/06 RMK AO2 TSNO
94908KDBQ DBQ20000308004010303/08/00 00:40:31  5-MIN KDBQ 080640Z AUTO 15008KT 8SM CLR 14/11 A2988 1120 83 1300 150/08 RMK AO2 TSNO
94908KDBQ DBQ20000308004510303/08/00 00:45:31  5-MIN KDBQ 080645Z AUTO 15007KT 8SM CLR 14/11 A2987 1120 83 1300 150/07 RMK AO2 TSNO
94908KDBQ DBQ20000308005012003/08/00 00:50:31  5-MIN KDBQ 080650Z AUTO 15008KT 8SM CLR 14/11 A2987 1120 83 1300 150/08 RMK AO2 SLP112 T01390111 TSNO
94908KDBQ DBQ20000308005512003/08/00 00:55:31  5-MIN KDBQ 080655Z AUTO 15007KT 8SM CLR 14/12 A2987 1130 86 1300 150/07 RMK AO2 SLP111 T01390117 TSNO
94908KDBQ DBQ20000308010010303/08/00 01:00:31  5-MIN KDBQ 080700Z AUTO 16008KT 8SM CLR 14/11 A2987 1120 83 1300 150/08 RMK AO2 TSNO
94908KDBQ DBQ20000308010510303/08/00 01:05:31  5-MIN KDBQ 080705Z AUTO 16008KT 9SM CLR 14/12 A2987 1130 83 1400 160/08 RMK AO2 TSNO
94908KDBQ DBQ20000308011010303/08/00 01:10:31  5-MIN KDBQ 080710Z AUTO 16007KT 9SM CLR 14/11 A2987 1130 80 1400 160/07 RMK AO2 TSNO
94908KDBQ DBQ20000308011510303/08/00 01:15:31  5-MIN KDBQ 080715Z AUTO 15008KT 9SM CLR 14/11 A2987 1130 80 1400 150/08 RMK AO2 TSNO
94908KDBQ DBQ20000308012010303/08/00 01:20:31  5-MIN KDBQ 080720Z AUTO 15009KT 9SM CLR 14/11 A2987 1130 80 1400 150/09 RMK AO2 TSNO
94908KDBQ DBQ20000308012510303/08/00 01:25:31  5-MIN KDBQ 080725Z AUTO 15010KT 9SM CLR 14/11 A2986 1130 80 1400 150/10 RMK AO2 TSNO
94908KDBQ DBQ20000308013010303/08/00 01:30:31  5-MIN KDBQ 080730Z AUTO 15009KT 9SM CLR 14/11 A2986 1130 80 1400 150/09 RMK AO2 TSNO
94908KDBQ DBQ20000308013510303/08/00 01:35:31  5-MIN KDBQ 080735Z AUTO 15010KT 9SM CLR 14/11 A2986 1140 80 1400 150/10 RMK AO2 TSNO
94908KDBQ DBQ20000308014010303/08/00 01:40:31  5-MIN KDBQ 080740Z AUTO 15010KT 9SM CLR 14/11 A2986 1140 80 1400 150/10 RMK AO2 TSNO
94908KDBQ DBQ20000308014510303/08/00 01:45:31  5-MIN KDBQ 080745Z AUTO 16010KT 9SM CLR 14/11 A2986 1130 80 1400 160/10 RMK AO2 TSNO
94908KDBQ DBQ20000308015012003/08/00 01:50:31  5-MIN KDBQ 080750Z AUTO 16011KT 9SM CLR 14/11 A2986 1130 80 1400 160/11 RMK AO2 SLP107 T01440111 TSNO
94908KDBQ DBQ20000308015512003/08/00 01:55:31  5-MIN KDBQ 080755Z AUTO 16011KT 9SM CLR 14/11 A2986 1140 80 1400 160/11 RMK AO2 SLP107 T01440111 TSNO
94908KDBQ DBQ20000308020010303/08/00 02:00:31  5-MIN KDBQ 080800Z AUTO 16011KT 9SM CLR 14/11 A2985 1140 80 1400 150/11 RMK AO2 TSNO
94908KDBQ DBQ20000308020510303/08/00 02:05:31  5-MIN KDBQ 080805Z AUTO 15009KT 8SM CLR 14/11 A2985 1140 83 1300 150/09 RMK AO2 TSNO
94908KDBQ DBQ20000308021010303/08/00 02:10:31  5-MIN KDBQ 080810Z AUTO 15010KT 8SM CLR 14/11 A2985 1140 83 1300 150/10 RMK AO2 TSNO
94908KDBQ DBQ20000308021510303/08/00 02:15:31  5-MIN KDBQ 080815Z AUTO 15010KT 8SM CLR 14/11 A2985 1150 83 1300 150/10 RMK AO2 TSNO
94908KDBQ DBQ20000308022010303/08/00 02:20:31  5-MIN KDBQ 080820Z AUTO 15010KT 8SM CLR 13/11 A2985 1150 83 1300 150/10 RMK AO2 TSNO
94908KDBQ DBQ20000308022510303/08/00 02:25:31  5-MIN KDBQ 080825Z AUTO 15012KT 8SM CLR 13/11 A2985 1150 83 1300 140/12 RMK AO2 TSNO
94908KDBQ DBQ20000308023010303/08/00 02:30:31  5-MIN KDBQ 080830Z AUTO 14012KT 8SM CLR 13/11 A2984 1150 83 1300 140/12 RMK AO2 TSNO
94908KDBQ DBQ20000308023510303/08/00 02:35:31  5-MIN KDBQ 080835Z AUTO 15012KT 8SM CLR 13/11 A2983 1160 83 1300 150/12 RMK AO2 TSNO
94908KDBQ DBQ20000308024010303/08/00 02:40:31  5-MIN KDBQ 080840Z AUTO 15012KT 8SM CLR 13/11 A2984 1160 83 1300 150/12 RMK AO2 TSNO
94908KDBQ DBQ20000308024510303/08/00 02:45:31  5-MIN KDBQ 080845Z AUTO 16012KT 8SM CLR 13/11 A2984 1160 83 1300 160/12 RMK AO2 TSNO
94908KDBQ DBQ20000308025012603/08/00 02:50:31  5-MIN KDBQ 080850Z AUTO 16012KT 8SM CLR 13/11 A2984 1150 83 1300 160/12 RMK AO2 SLP101 T01330106 58002 TSNO
94908KDBQ DBQ20000308025512603/08/00 02:55:31  5-MIN KDBQ 080855Z AUTO 16012KT 8SM CLR 13/11 A2984 1150 83 1300 160/12 RMK AO2 SLP101 T01330106 58014 TSNO
94908KDBQ DBQ20000308030010303/08/00 03:00:31  5-MIN KDBQ 080900Z AUTO 16010KT 8SM CLR 13/10 A2984 1150 80 1300 160/10 RMK AO2 TSNO
94908KDBQ DBQ20000308030510303/08/00 03:05:31  5-MIN KDBQ 080905Z AUTO 16009KT 8SM CLR 13/10 A2984 1150 80 1300 160/09 RMK AO2 TSNO
94908KDBQ DBQ20000308031010303/08/00 03:10:31  5-MIN KDBQ 080910Z AUTO 15009KT 8SM CLR 13/10 A2983 1160 83 1200 150/09 RMK AO2 TSNO
94908KDBQ DBQ20000308031510303/08/00 03:15:31  5-MIN KDBQ 080915Z AUTO 15010KT 8SM CLR 13/10 A2983 1160 83 1200 150/10 RMK AO2 TSNO
94908KDBQ DBQ20000308032010303/08/00 03:20:31  5-MIN KDBQ 080920Z AUTO 15011KT 8SM CLR 13/10 A2983 1160 83 1200 150/11 RMK AO2 TSNO
94908KDBQ DBQ20000308032510303/08/00 03:25:31  5-MIN KDBQ 080925Z AUTO 15010KT 8SM CLR 13/10 A2983 1160 83 1200 150/10 RMK AO2 TSNO
94908KDBQ DBQ20000308033010303/08/00 03:30:31  5-MIN KDBQ 080930Z AUTO 16009KT 9SM CLR 13/10 A2983 1160 83 1200 160/09 RMK AO2 TSNO
94908KDBQ DBQ20000308033510303/08/00 03:35:31  5-MIN KDBQ 080935Z AUTO 17008KT 9SM CLR 13/10 A2983 1160 83 1200 160/08 RMK AO2 TSNO
94908KDBQ DBQ20000308034010303/08/00 03:40:31  5-MIN KDBQ 080940Z AUTO 17008KT 9SM CLR 13/09 A2983 1160 80 1200 170/08 RMK AO2 TSNO
94908KDBQ DBQ20000308034510303/08/00 03:45:31  5-MIN KDBQ 080945Z AUTO 17008KT 9SM CLR 12/09 A2983 1160 83 1100 170/08 RMK AO2 TSNO
94908KDBQ DBQ20000308035012003/08/00 03:50:31  5-MIN KDBQ 080950Z AUTO 17008KT 9SM CLR 12/09 A2983 1160 83 1100 170/08 RMK AO2 SLP098 T01220094 TSNO
94908KDBQ DBQ20000308035512003/08/00 03:55:31  5-MIN KDBQ 080955Z AUTO 16009KT 9SM CLR 12/09 A2983 1160 83 1100 160/09 RMK AO2 SLP098 T01220094 TSNO
94908KDBQ DBQ20000308040010303/08/00 04:00:31  5-MIN KDBQ 081000Z AUTO 16008KT 9SM CLR 12/09 A2983 1160 83 1100 160/08 RMK AO2 TSNO
94908KDBQ DBQ20000308040510303/08/00 04:05:31  5-MIN KDBQ 081005Z AUTO 16009KT 9SM CLR 12/09 A2983 1160 83 1100 160/09 RMK AO2 TSNO
94908KDBQ DBQ20000308041010303/08/00 04:10:31  5-MIN KDBQ 081010Z AUTO 16009KT 9SM CLR 12/09 A2983 1160 83 1100 160/09 RMK AO2 TSNO
94908KDBQ DBQ20000308041510303/08/00 04:15:31  5-MIN KDBQ 081015Z AUTO 16009KT 9SM CLR 12/09 A2983 1160 83 1100 160/09 RMK AO2 TSNO
94908KDBQ DBQ20000308042010303/08/00 04:20:31  5-MIN KDBQ 081020Z AUTO 16008KT 9SM CLR 12/09 A2983 1160 83 1100 160/08 RMK AO2 TSNO
94908KDBQ DBQ20000308042510303/08/00 04:25:31  5-MIN KDBQ 081025Z AUTO 16008KT 9SM CLR 12/09 A2983 1160 83 1100 160/08 RMK AO2 TSNO
94908KDBQ DBQ20000308043010303/08/00 04:30:31  5-MIN KDBQ 081030Z AUTO 16010KT 9SM CLR 12/09 A2983 1160 83 1100 150/10 RMK AO2 TSNO
94908KDBQ DBQ20000308043510303/08/00 04:35:31  5-MIN KDBQ 081035Z AUTO 16011KT 9SM CLR 12/09 A2983 1160 83 1100 160/11 RMK AO2 TSNO
94908KDBQ DBQ20000308044010303/08/00 04:40:31  5-MIN KDBQ 081040Z AUTO 16010KT 9SM CLR 12/09 A2983 1170 80 1100 150/10 RMK AO2 TSNO
94908KDBQ DBQ20000308044510303/08/00 04:45:31  5-MIN KDBQ 081045Z AUTO 16010KT 9SM CLR 12/09 A2982 1170 80 1200 160/10 RMK AO2 TSNO
94908KDBQ DBQ20000308045012003/08/00 04:50:31  5-MIN KDBQ 081050Z AUTO 15010KT 9SM CLR 12/09 A2982 1170 80 1200 150/10 RMK AO2 SLP095 T01220089 TSNO
94908KDBQ DBQ20000308045512003/08/00 04:55:31  5-MIN KDBQ 081055Z AUTO 15010KT 9SM CLR 12/09 A2982 1170 80 1200 150/10 RMK AO2 SLP094 T01220089 TSNO
94908KDBQ DBQ20000308050010303/08/00 05:00:31  5-MIN KDBQ 081100Z AUTO 15010KT 9SM CLR 12/09 A2982 1170 80 1200 150/10 RMK AO2 TSNO
94908KDBQ DBQ20000308050510403/08/00 05:05:31  5-MIN KDBQ 081105Z AUTO 15011KT 10SM CLR 12/09 A2982 1170 80 1200 150/11 RMK AO2 TSNO
94908KDBQ DBQ20000308051010403/08/00 05:10:31  5-MIN KDBQ 081110Z AUTO 15011KT 10SM CLR 12/09 A2982 1170 80 1200 150/11 RMK AO2 TSNO
94908KDBQ DBQ20000308051510403/08/00 05:15:31  5-MIN KDBQ 081115Z AUTO 15011KT 10SM CLR 12/09 A2981 1180 80 1200 150/11 RMK AO2 TSNO
94908KDBQ DBQ20000308052010403/08/00 05:20:31  5-MIN KDBQ 081120Z AUTO 15010KT 10SM CLR 12/09 A2981 1180 80 1200 150/10 RMK AO2 TSNO
94908KDBQ DBQ20000308052510403/08/00 05:25:31  5-MIN KDBQ 081125Z AUTO 15010KT 10SM CLR 12/08 A2981 1180 77 1200 150/10 RMK AO2 TSNO
94908KDBQ DBQ20000308053010403/08/00 05:30:31  5-MIN KDBQ 081130Z AUTO 15010KT 10SM CLR 13/08 A2980 1190 74 1200 150/10 RMK AO2 TSNO
94908KDBQ DBQ20000308053510403/08/00 05:35:31  5-MIN KDBQ 081135Z AUTO 15010KT 10SM CLR 13/08 A2980 1190 74 1200 150/10 RMK AO2 TSNO
94908KDBQ DBQ20000308054010403/08/00 05:40:31  5-MIN KDBQ 081140Z AUTO 15010KT 10SM CLR 13/08 A2980 1190 74 1200 150/10 RMK AO2 TSNO
94908KDBQ DBQ20000308054510403/08/00 05:45:31  5-MIN KDBQ 081145Z AUTO 15008KT 10SM CLR 13/08 A2980 1190 74 1200 150/08 RMK AO2 TSNO
94908KDBQ DBQ20000308055013903/08/00 05:50:31  5-MIN KDBQ 081150Z AUTO 15008KT 10SM CLR 13/08 A2980 1190 74 1200 150/08 RMK AO2 SLP088 T01280083 10144 20117 58014 TSNO
94908KDBQ DBQ20000308055513903/08/00 05:55:31  5-MIN KDBQ 081155Z AUTO 15009KT 10SM CLR 13/08 A2979 1190 74 1300 150/09 RMK AO2 SLP087 T01280083 10144 20117 58015 TSNO
94908KDBQ DBQ20000308060010403/08/00 06:00:31  5-MIN KDBQ 081200Z AUTO 15009KT 10SM CLR 12/08 A2979 1200 77 1200 150/09 RMK AO2 TSNO
94908KDBQ DBQ20000308060510403/08/00 06:05:31  5-MIN KDBQ 081205Z AUTO 15010KT 10SM CLR 13/08 A2979 1200 74 1300 150/10 RMK AO2 TSNO
94908KDBQ DBQ20000308061010403/08/00 06:10:31  5-MIN KDBQ 081210Z AUTO 14011KT 10SM CLR 13/08 A2979 1200 74 1300 140/11 RMK AO2 TSNO
94908KDBQ DBQ20000308061510403/08/00 06:15:31  5-MIN KDBQ 081215Z AUTO 14012KT 10SM CLR 13/08 A2978 1210 74 1300 130/12 RMK AO2 TSNO
94908KDBQ DBQ20000308062010403/08/00 06:20:31  5-MIN KDBQ 081220Z AUTO 13012KT 10SM CLR 13/08 A2978 1210 74 1300 130/12 RMK AO2 TSNO
94908KDBQ DBQ20000308062510303/08/00 06:25:31  5-MIN KDBQ 081225Z AUTO 14013KT 9SM CLR 13/08 A2978 1210 71 1300 140/13 RMK AO2 TSNO
94908KDBQ DBQ20000308063010303/08/00 06:30:31  5-MIN KDBQ 081230Z AUTO 14013KT 9SM CLR 13/08 A2978 1210 71 1300 140/13 RMK AO2 TSNO
94908KDBQ DBQ20000308063510303/08/00 06:35:31  5-MIN KDBQ 081235Z AUTO 14013KT 9SM CLR 13/08 A2978 1210 71 1300 140/13 RMK AO2 TSNO
94908KDBQ DBQ20000308064010303/08/00 06:40:31  5-MIN KDBQ 081240Z AUTO 14013KT 9SM CLR 13/08 A2978 1210 74 1300 140/13 RMK AO2 TSNO
94908KDBQ DBQ20000308064510303/08/00 06:45:31  5-MIN KDBQ 081245Z AUTO 14013KT 8SM CLR 12/08 A2978 1210 77 1200 140/13 RMK AO2 TSNO
94908KDBQ DBQ20000308065011003/08/00 06:50:31  5-MIN KDBQ 081250Z 14013KT 8SM CLR 12/08 A2978 1210 77 1200 140/13 RMK AO2 SLP082 T01220083
94908KDBQ DBQ20000308065511303/08/00 06:55:31  5-MIN KDBQ 081255Z 14015KT 8SM FEW075 12/08 A2978 1210 77 1200 140/15 RMK AO2 SLP081 T01220083
94908KDBQ DBQ20000308070009603/08/00 07:00:31  5-MIN KDBQ 081300Z 14012KT 8SM SCT070 13/08 A2978 1210 74 1300 140/12 RMK AO2
94908KDBQ DBQ20000308070509603/08/00 07:05:31  5-MIN KDBQ 081305Z 14012KT 8SM BKN075 12/08 A2978 1210 77 1200 140/12 RMK AO2
94908KDBQ DBQ20000308071009603/08/00 07:10:31  5-MIN KDBQ 081310Z 14013KT 8SM BKN075 13/09 A2978 1210 77 1300 140/13 RMK AO2
94908KDBQ DBQ20000308071509603/08/00 07:15:31  5-MIN KDBQ 081315Z 14013KT 8SM BKN075 13/09 A2978 1210 77 1300 140/13 RMK AO2
94908KDBQ DBQ20000308072009603/08/00 07:20:31  5-MIN KDBQ 081320Z 15011KT 8SM OVC075 13/09 A2978 1210 77 1300 140/11 RMK AO2
94908KDBQ DBQ20000308072509603/08/00 07:25:31  5-MIN KDBQ 081325Z 14014KT 8SM BKN075 13/09 A2977 1210 77 1300 140/14 RMK AO2
94908KDBQ DBQ20000308073009603/08/00 07:30:31  5-MIN KDBQ 081330Z 15013KT 8SM BKN075 13/09 A2977 1210 77 1300 140/13 RMK AO2
94908KDBQ DBQ20000308073509603/08/00 07:35:31  5-MIN KDBQ 081335Z 14013KT 8SM BKN075 13/09 A2977 1220 77 1300 140/13 RMK AO2
94908KDBQ DBQ20000308074009603/08/00 07:40:31  5-MIN KDBQ 081340Z 14013KT 8SM SCT075 13/09 A2977 1220 77 1300 140/13 RMK AO2
94908KDBQ DBQ20000308074509603/08/00 07:45:31  5-MIN KDBQ 081345Z 14013KT 8SM SCT075 13/09 A2977 1220 74 1300 140/13 RMK AO2
94908KDBQ DBQ20000308075011303/08/00 07:50:31  5-MIN KDBQ 081350Z 14014KT 8SM SCT075 13/09 A2977 1220 77 1300 140/14 RMK AO2 SLP080 T01280089
94908KDBQ DBQ20000308075511303/08/00 07:55:31  5-MIN KDBQ 081355Z 15016KT 8SM FEW075 13/09 A2977 1220 74 1300 150/16 RMK AO2 SLP079 T01330089
94908KDBQ DBQ20000308080009603/08/00 08:00:31  5-MIN KDBQ 081400Z 15015KT 8SM FEW075 13/09 A2976 1220 74 1400 150/15 RMK AO2
94908KDBQ DBQ20000308080509603/08/00 08:05:31  5-MIN KDBQ 081405Z 15015KT 8SM FEW075 14/09 A2977 1220 74 1400 150/15 RMK AO2
94908KDBQ DBQ20000308081009603/08/00 08:10:31  5-MIN KDBQ 081410Z 15015KT 8SM FEW075 14/09 A2976 1230 74 1400 150/15 RMK AO2
94908KDBQ DBQ20000308081509603/08/00 08:15:31  5-MIN KDBQ 081415Z 15015KT 8SM FEW070 14/09 A2976 1230 72 1500 150/15 RMK AO2
94908KDBQ DBQ20000308082009603/08/00 08:20:31  5-MIN KDBQ 081420Z 15014KT 8SM SCT110 14/09 A2975 1230 72 1500 150/14 RMK AO2
94908KDBQ DBQ20000308082509603/08/00 08:25:31  5-MIN KDBQ 081425Z 15015KT 8SM BKN110 14/09 A2975 1240 72 1500 150/15 RMK AO2
94908KDBQ DBQ20000308083009603/08/00 08:30:31  5-MIN KDBQ 081430Z 15016KT 8SM BKN100 14/09 A2974 1250 72 1500 140/16 RMK AO2
94908KDBQ DBQ20000308083509603/08/00 08:35:31  5-MIN KDBQ 081435Z 16015KT 8SM BKN110 14/09 A2974 1240 72 1500 150/15 RMK AO2
94908KDBQ DBQ20000308084009603/08/00 08:40:31  5-MIN KDBQ 081440Z 14013KT 8SM BKN110 14/09 A2973 1250 72 1500 140/13 RMK AO2
94908KDBQ DBQ20000308084510203/08/00 08:45:31  5-MIN KDBQ 081445Z 15015G20KT 8SM BKN110 14/09 A2973 1250 72 1500 150/15G20 RMK AO2
94908KDBQ DBQ20000308085012503/08/00 08:50:31  5-MIN KDBQ 081450Z 16013G20KT 8SM BKN100 14/09 A2973 1250 72 1500 160/13G20 RMK AO2 SLP067 T01440094 58015
94908KDBQ DBQ20000308085512603/08/00 08:55:31  5-MIN KDBQ 081455Z 16013KT 8SM SCT085 BKN100 14/09 A2974 1250 72 1500 160/13 RMK AO2 SLP069 T01440094 58019
94908KDBQ DBQ20000308090010303/08/00 09:00:31  5-MIN KDBQ 081500Z 17012KT 8SM BKN085 BKN100 14/09 A2974 1250 72 1500 160/12 RMK AO2
94908KDBQ DBQ20000308090509603/08/00 09:05:31  5-MIN KDBQ 081505Z 17014KT 8SM BKN085 14/09 A2974 1250 72 1500 160/14 RMK AO2
94908KDBQ DBQ20000308091009603/08/00 09:10:31  5-MIN KDBQ 081510Z 17015KT 8SM BKN085 15/10 A2974 1250 72 1600 170/15 RMK AO2
94908KDBQ DBQ20000308091509603/08/00 09:15:31  5-MIN KDBQ 081515Z 17016KT 8SM OVC080 15/10 A2974 1250 72 1600 170/16 RMK AO2
94908KDBQ DBQ20000308092011903/08/00 09:20:31  5-MIN KDBQ 081520Z 18013KT 8SM -RA BKN075 BKN090 15/10 A2973 1250 72 1600 180/13 RMK AO2 RAB17 P0000
94908KDBQ DBQ20000308092512603/08/00 09:25:31  5-MIN KDBQ 081525Z 17013KT 9SM -RA FEW055 BKN075 OVC090 15/10 A2973 1250 72 1600 170/13 RMK AO2 RAB17 P0000
94908KDBQ DBQ20000308093012603/08/00 09:30:31  5-MIN KDBQ 081530Z 17014KT 8SM -RA FEW033 BKN075 OVC090 15/10 A2973 1250 72 1600 170/14 RMK AO2 RAB17 P0000
94908KDBQ DBQ20000308093512603/08/00 09:35:31  5-MIN KDBQ 081535Z 16010KT 6SM -RA SCT031 BKN075 OVC090 14/11 A2973 1260 80 1500 160/10 RMK AO2 RAB17 P0000
94908KDBQ DBQ20000308094012603/08/00 09:40:31  5-MIN KDBQ 081540Z 15014KT 6SM -RA SCT042 BKN075 OVC095 14/11 A2972 1260 80 1500 150/14 RMK AO2 RAB17 P0000
94908KDBQ DBQ20000308094512903/08/00 09:45:31  5-MIN KDBQ 081545Z 15012KT 6SM -RA BR SCT042 BKN070 BKN095 13/11 A2972 1270 86 1400 150/12 RMK AO2 RAB17 P0000
94908KDBQ DBQ20000308095015003/08/00 09:50:31  5-MIN KDBQ 081550Z 15011KT 7SM -RA SCT038 BKN070 BKN100 13/11 A2971 1280 86 1400 140/11 RMK AO2 RAB17 PRESFR SLP059 P0000 T01330111
94908KDBQ DBQ20000308095514203/08/00 09:55:31  5-MIN KDBQ 081555Z 13010KT 8SM SCT040 BKN090 14/11 A2970 1290 80 1500 130/10 RMK AO2 RAB17E52 PRESFR SLP056 P0000 T01390106
94908KDBQ DBQ20000308100010303/08/00 10:00:31  5-MIN KDBQ 081600Z 14012KT 8SM FEW042 SCT090 14/11 A2970 1280 83 1500 140/12 RMK AO2
94908KDBQ DBQ20000308100510303/08/00 10:05:31  5-MIN KDBQ 081605Z 15016KT 8SM FEW049 SCT095 14/12 A2970 1280 83 1600 150/16 RMK AO2
94908KDBQ DBQ20000308101011903/08/00 10:10:31  5-MIN KDBQ 081610Z 15016KT 8SM -RA FEW041 SCT090 14/12 A2970 1290 83 1600 150/16 RMK AO2 RAB09 P0000
94908KDBQ DBQ20000308101511903/08/00 10:15:31  5-MIN KDBQ 081615Z 15016KT 8SM -RA FEW044 BKN095 14/12 A2970 1290 83 1600 150/16 RMK AO2 RAB09 P0000
94908KDBQ DBQ20000308102011903/08/00 10:20:31  5-MIN KDBQ 081620Z 15015KT 8SM -RA FEW040 BKN090 14/12 A2969 1290 83 1600 150/15 RMK AO2 RAB09 P0000
94908KDBQ DBQ20000308102512503/08/00 10:25:31  5-MIN KDBQ 081625Z 15014G21KT 8SM -RA FEW044 BKN090 14/12 A2969 1290 90 1500 150/14G21 RMK AO2 RAB09 P0000
94908KDBQ DBQ20000308103011903/08/00 10:30:31  5-MIN KDBQ 081630Z 16014KT 8SM -RA FEW044 BKN090 14/12 A2969 1290 90 1500 150/14 RMK AO2 RAB09 P0000
94908KDBQ DBQ20000308103511803/08/00 10:35:31  5-MIN KDBQ 081635Z 16014KT 8SM FEW044 SCT090 15/12 A2969 1290 83 1600 150/14 RMK AO2 RAB09E33 P0000
94908KDBQ DBQ20000308104012403/08/00 10:40:31  5-MIN KDBQ 081640Z 15015G19KT 8SM FEW044 SCT090 16/13 A2969 1300 83 1700 150/15G19 RMK AO2 RAB09E33 P0000
94908KDBQ DBQ20000308104511103/08/00 10:45:31  5-MIN KDBQ 081645Z 16016KT 8SM FEW046 16/13 A2969 1290 83 1700 150/16 RMK AO2 RAB09E33 P0000
94908KDBQ DBQ20000308105012803/08/00 10:50:31  5-MIN KDBQ 081650Z 16017KT 8SM FEW065 16/13 A2968 1300 80 1800 160/17 RMK AO2 RAB09E33 SLP049 P0000 T01610128
94908KDBQ DBQ20000308105512503/08/00 10:55:31  5-MIN KDBQ 081655Z 15013KT 8SM CLR 16/13 A2967 1310 80 1800 150/13 RMK AO2 RAB09E33 SLP048 P0000 T01610128
94908KDBQ DBQ20000308110009303/08/00 11:00:31  5-MIN KDBQ 081700Z 14016KT 8SM CLR 17/13 A2967 1310 77 1800 140/16 RMK AO2
94908KDBQ DBQ20000308110509303/08/00 11:05:31  5-MIN KDBQ 081705Z 15016KT 8SM CLR 16/12 A2967 1310 77 1800 150/16 RMK AO2
94908KDBQ DBQ20000308111009903/08/00 11:10:31  5-MIN KDBQ 081710Z 15018G21KT 8SM CLR 17/13 A2967 1320 77 1900 150/18G21 RMK AO2
94908KDBQ DBQ20000308111509903/08/00 11:15:31  5-MIN KDBQ 081715Z 15017G21KT 8SM CLR 17/13 A2966 1320 75 1900 140/17G21 RMK AO2
94908KDBQ DBQ20000308112009303/08/00 11:20:31  5-MIN KDBQ 081720Z 14019KT 8SM CLR 18/13 A2966 1320 72 2000 140/19 RMK AO2
94908KDBQ DBQ20000308112509903/08/00 11:25:31  5-MIN KDBQ 081725Z 15016G21KT 8SM CLR 18/13 A2965 1330 70 2100 150/16G21 RMK AO2
94908KDBQ DBQ20000308113009903/08/00 11:30:31  5-MIN KDBQ 081730Z 15018G22KT 8SM CLR 18/12 A2965 1330 67 2100 140/18G22 RMK AO2
94908KDBQ DBQ20000308113509903/08/00 11:35:31  5-MIN KDBQ 081735Z 15015G22KT 8SM CLR 18/12 A2964 1340 67 2100 150/15G22 RMK AO2
94908KDBQ DBQ20000308114009903/08/00 11:40:31  5-MIN KDBQ 081740Z 15017G22KT 8SM CLR 18/12 A2964 1340 67 2100 150/17G22 RMK AO2
94908KDBQ DBQ20000308114509903/08/00 11:45:31  5-MIN KDBQ 081745Z 15017G22KT 8SM CLR 18/13 A2963 1340 70 2100 150/17G22 RMK AO2
94908KDBQ DBQ20000308115014003/08/00 11:50:31  5-MIN KDBQ 081750Z 15017G22KT 8SM CLR 19/13 A2963 1350 65 2200 150/17G22 RMK AO2 SLP030 60000 T01940128 10194 20122 58019
94908KDBQ DBQ20000308115514003/08/00 11:55:31  5-MIN KDBQ 081755Z 15015G22KT 8SM CLR 19/13 A2962 1350 65 2200 140/15G22 RMK AO2 SLP029 60000 T01940128 10194 20122 58037
94908KDBQ DBQ20000308120010003/08/00 12:00:31  5-MIN KDBQ 081800Z 15018G21KT 10SM CLR 21/13 A2962 1360 60 2400 140/18G21 RMK AO2
94908KDBQ DBQ20000308120510003/08/00 12:05:31  5-MIN KDBQ 081805Z 16019G23KT 10SM CLR 20/13 A2962 1360 63 2300 160/19G23 RMK AO2
94908KDBQ DBQ20000308121011803/08/00 12:10:31  5-MIN KDBQ 081810Z 16021G26KT 10SM CLR 20/13 A2961 1360 63 2300 160/21G26 RMK AO2 PK WND 15026/1807
94908KDBQ DBQ20000308121512503/08/00 12:15:31  5-MIN KDBQ 081815Z 17022G27KT 10SM CLR 21/13 A2960 1380 60 2400 160/22G27 RMK AO2 PK WND 17027/1814 PRESFR
94908KDBQ DBQ20000308122012103/08/00 12:20:31  5-MIN KDBQ 081820Z 16022G29KT 10SM FEW035 21/13 A2961 1370 58 2400 160/22G29 RMK AO2 PK WND 15029/1820
94908KDBQ DBQ20000308122512103/08/00 12:25:31  5-MIN KDBQ 081825Z 16019G29KT 10SM FEW035 21/13 A2961 1370 58 2400 160/19G29 RMK AO2 PK WND 15029/1820
94908KDBQ DBQ20000308123012103/08/00 12:30:31  5-MIN KDBQ 081830Z 18021G31KT 10SM SCT037 21/13 A2960 1380 58 2400 170/21G31 RMK AO2 PK WND 17031/1827
94908KDBQ DBQ20000308123512103/08/00 12:35:31  5-MIN KDBQ 081835Z 17023G31KT 10SM BKN037 21/13 A2959 1380 60 2400 170/23G31 RMK AO2 PK WND 17031/1827
94908KDBQ DBQ20000308124012103/08/00 12:40:31  5-MIN KDBQ 081840Z 16020G30KT 10SM BKN037 21/13 A2959 1380 58 2500 160/20G30 RMK AO2 PK WND 17031/1827
94908KDBQ DBQ20000308124512103/08/00 12:45:31  5-MIN KDBQ 081845Z 18021G29KT 10SM BKN037 21/13 A2959 1390 58 2500 180/21G29 RMK AO2 PK WND 17031/1827
94908KDBQ DBQ20000308125013803/08/00 12:50:31  5-MIN KDBQ 081850Z 18022G29KT 10SM BKN037 21/13 A2958 1390 58 2500 180/22G29 RMK AO2 PK WND 17031/1827 SLP013 T02110128
94908KDBQ DBQ20000308125513803/08/00 12:55:31  5-MIN KDBQ 081855Z 17021G29KT 10SM BKN037 21/13 A2958 1400 58 2500 170/21G29 RMK AO2 PK WND 17031/1827 SLP012 T02110128
94908KDBQ DBQ20000308130012803/08/00 13:00:31  5-MIN KDBQ 081900Z 17021G29KT 10SM BKN037 BKN047 21/13 A2958 1400 60 2400 170/21G29 RMK AO2 PK WND 18027/1857
94908KDBQ DBQ20000308130512803/08/00 13:05:31  5-MIN KDBQ 081905Z 17023G29KT 10SM BKN037 BKN047 21/13 A2957 1400 58 2500 170/23G29 RMK AO2 PK WND 18029/1904
94908KDBQ DBQ20000308131012003/08/00 13:10:31  5-MIN KDBQ 081910Z 18022G29KT 9SM SCT039 22/13 A2957 1410 56 2500 170/22G29 RMK AO2 PK WND 18029/1904
94908KDBQ DBQ20000308131512003/08/00 13:15:31  5-MIN KDBQ 081915Z 17020G27KT 9SM SCT039 22/13 A2957 1410 56 2500 160/20G27 RMK AO2 PK WND 18029/1904
94908KDBQ DBQ20000308132012803/08/00 13:20:31  5-MIN KDBQ 081920Z 17022G29KT 10SM SCT039 SCT047 21/13 A2956 1410 58 2500 170/22G29 RMK AO2 PK WND 17029/1920
94908KDBQ DBQ20000308132512803/08/00 13:25:31  5-MIN KDBQ 081925Z 17021G29KT 10SM FEW039 SCT047 21/13 A2956 1420 58 2500 170/21G29 RMK AO2 PK WND 17029/1920
94908KDBQ DBQ20000308133012103/08/00 13:30:31  5-MIN KDBQ 081930Z 16022G28KT 10SM FEW041 22/13 A2955 1420 56 2600 160/22G28 RMK AO2 PK WND 17029/1920
94908KDBQ DBQ20000308133512103/08/00 13:35:31  5-MIN KDBQ 081935Z 16019G29KT 10SM FEW039 22/13 A2955 1420 56 2600 160/19G29 RMK AO2 PK WND 17029/1931
94908KDBQ DBQ20000308134012103/08/00 13:40:31  5-MIN KDBQ 081940Z 16023G29KT 10SM FEW047 22/13 A2955 1430 56 2600 160/23G29 RMK AO2 PK WND 17029/1931
94908KDBQ DBQ20000308134512103/08/00 13:45:31  5-MIN KDBQ 081945Z 17021G27KT 10SM SCT049 21/12 A2954 1430 56 2500 170/21G27 RMK AO2 PK WND 17029/1931
94908KDBQ DBQ20000308135014503/08/00 13:50:31  5-MIN KDBQ 081950Z 17025G30KT 10SM FEW043 SCT049 22/13 A2954 1440 54 2600 160/25G30 RMK AO2 PK WND 17030/1949 SLP998 T02220128
94908KDBQ DBQ20000308135514503/08/00 13:55:31  5-MIN KDBQ 081955Z 16021G30KT 10SM FEW043 SCT070 22/12 A2953 1440 54 2600 160/21G30 RMK AO2 PK WND 16030/1951 SLP996 T02170122
94908KDBQ DBQ20000308140012803/08/00 14:00:31  5-MIN KDBQ 082000Z 16017G30KT 10SM FEW043 SCT070 21/12 A2953 1440 56 2500 160/17G30 RMK AO2 PK WND 17028/1958
94908KDBQ DBQ20000308140512803/08/00 14:05:31  5-MIN KDBQ 082005Z 16019G28KT 10SM FEW045 SCT070 22/13 A2952 1450 56 2600 160/19G28 RMK AO2 PK WND 17028/1958
94908KDBQ DBQ20000308141014203/08/00 14:10:31  5-MIN KDBQ 082010Z 17017G25KT 10SM FEW045 SCT055 SCT070 22/13 A2951 1460 56 2600 170/17G25 RMK AO2 PK WND 17028/1958 PRESFR
94908KDBQ DBQ20000308141513503/08/00 14:15:31  5-MIN KDBQ 082015Z 17020G25KT 10SM FEW045 SCT055 BKN070 22/12 A2951 1460 54 2600 170/20G25 RMK AO2 PK WND 17028/1958
94908KDBQ DBQ20000308142013503/08/00 14:20:31  5-MIN KDBQ 082020Z 16017G27KT 10SM FEW045 SCT055 BKN070 22/13 A2951 1460 54 2700 160/17G27 RMK AO2 PK WND 17028/1958
94908KDBQ DBQ20000308142512803/08/00 14:25:31  5-MIN KDBQ 082025Z 17020G27KT 10SM FEW055 SCT070 22/13 A2951 1460 54 2700 170/20G27 RMK AO2 PK WND 17028/1958
94908KDBQ DBQ20000308143012803/08/00 14:30:31  5-MIN KDBQ 082030Z 18020G30KT 10SM FEW055 SCT070 22/12 A2950 1470 52 2600 180/20G30 RMK AO2 PK WND 17030/2026
94908KDBQ DBQ20000308143513503/08/00 14:35:31  5-MIN KDBQ 082035Z 17020G30KT 10SM SCT055 SCT070 BKN090 23/12 A2950 1470 51 2800 170/20G30 RMK AO2 PK WND 17030/2026
94908KDBQ DBQ20000308144012803/08/00 14:40:31  5-MIN KDBQ 082040Z 17026G33KT 10SM FEW055 SCT070 23/11 A2949 1480 47 2800 170/26G33 RMK AO2 PK WND 18033/2040
94908KDBQ DBQ20000308144514203/08/00 14:45:31  5-MIN KDBQ 082045Z 17026G33KT 10SM FEW055 SCT070 SCT090 22/11 A2948 1490 47 2700 170/26G33 RMK AO2 PK WND 18033/2040 PRESFR
94908KDBQ DBQ20000308145015103/08/00 14:50:31  5-MIN KDBQ 082050Z 17026G34KT 10SM SCT060 SCT080 23/11 A2948 1490 45 2800 170/26G34 RMK AO2 PK WND 17034/2046 SLP978 T02280106 58037
94908KDBQ DBQ20000308145515103/08/00 14:55:31  5-MIN KDBQ 082055Z 17025G34KT 10SM SCT060 SCT085 23/11 A2947 1500 45 2800 170/25G34 RMK AO2 PK WND 17034/2046 SLP976 T02280106 58049
94908KDBQ DBQ20000308150012803/08/00 15:00:31  5-MIN KDBQ 082100Z 17022G30KT 10SM SCT060 SCT075 22/10 A2947 1500 45 2700 170/22G30 RMK AO2 PK WND 17029/2056
94908KDBQ DBQ20000308150512803/08/00 15:05:31  5-MIN KDBQ 082105Z 17021G26KT 10SM SCT060 SCT075 22/10 A2947 1500 45 2700 170/21G26 RMK AO2 PK WND 17029/2056
94908KDBQ DBQ20000308151013503/08/00 15:10:31  5-MIN KDBQ 082110Z 16024G30KT 10SM FEW060 SCT075 SCT090 23/10 A2947 1500 44 2800 160/24G30 RMK AO2 PK WND 16030/2110
94908KDBQ DBQ20000308151513503/08/00 15:15:31  5-MIN KDBQ 082115Z 16028G37KT 10SM FEW055 SCT075 SCT090 23/09 A2946 1510 39 2900 160/28G37 RMK AO2 PK WND 16037/2114
94908KDBQ DBQ20000308152013503/08/00 15:20:31  5-MIN KDBQ 082120Z 18034G41KT 10SM FEW070 SCT090 23/07 A2945 1520 36 2800 180/34G41 RMK AO2 PK WND 18041/2120 PRESFR
94908KDBQ DBQ20000308152512103/08/00 15:25:31  5-MIN KDBQ 082125Z 18027G41KT 10SM FEW075 23/07 A2945 1520 35 2900 180/27G41 RMK AO2 PK WND 18041/2120
94908KDBQ DBQ20000308153012103/08/00 15:30:31  5-MIN KDBQ 082130Z 19032G39KT 10SM FEW075 23/06 A2945 1520 33 2800 180/32G39 RMK AO2 PK WND 18041/2120
94908KDBQ DBQ20000308153512103/08/00 15:35:31  5-MIN KDBQ 082135Z 18027G39KT 10SM FEW075 23/06 A2945 1510 33 2800 180/27G39 RMK AO2 PK WND 18041/2120
94908KDBQ DBQ20000308154012103/08/00 15:40:31  5-MIN KDBQ 082140Z 18025G35KT 10SM FEW070 23/06 A2945 1520 32 2900 180/25G35 RMK AO2 PK WND 18041/2120
94908KDBQ DBQ20000308154512103/08/00 15:45:31  5-MIN KDBQ 082145Z 19026G35KT 10SM FEW080 23/06 A2945 1520 33 2800 190/26G35 RMK AO2 PK WND 18041/2120
94908KDBQ DBQ20000308155014503/08/00 15:50:31  5-MIN KDBQ 082150Z 18027G34KT 10SM FEW080 SCT100 23/06 A2946 1510 32 2800 180/27G34 RMK AO2 PK WND 18041/2120 SLP971 T02280056
94908KDBQ DBQ20000308155513803/08/00 15:55:31  5-MIN KDBQ 082155Z 19028G34KT 10SM FEW080 22/06 A2945 1520 33 2700 190/28G34 RMK AO2 PK WND 18041/2120 SLP970 T02220056
94908KDBQ DBQ20000308160012803/08/00 16:00:31  5-MIN KDBQ 082200Z 19025G34KT 10SM FEW080 SCT095 22/06 A2945 1520 33 2700 180/25G34 RMK AO2 PK WND 18033/2156
94908KDBQ DBQ20000308160512803/08/00 16:05:31  5-MIN KDBQ 082205Z 18027G35KT 10SM FEW080 SCT095 23/05 A2945 1520 31 2800 180/27G35 RMK AO2 PK WND 18035/2205
94908KDBQ DBQ20000308161012103/08/00 16:10:31  5-MIN KDBQ 082210Z 18030G36KT 10SM SCT095 22/04 A2945 1520 31 2700 180/30G36 RMK AO2 PK WND 19036/2209
94908KDBQ DBQ20000308161512103/08/00 16:15:31  5-MIN KDBQ 082215Z 19027G36KT 10SM SCT095 22/04 A2944 1520 31 2700 190/27G36 RMK AO2 PK WND 19036/2209
94908KDBQ DBQ20000308162012103/08/00 16:20:31  5-MIN KDBQ 082220Z 18026G33KT 10SM SCT095 22/04 A2944 1520 32 2700 180/26G33 RMK AO2 PK WND 19036/2209
94908KDBQ DBQ20000308162512103/08/00 16:25:31  5-MIN KDBQ 082225Z 18025G33KT 10SM SCT100 22/05 A2945 1520 33 2700 170/25G33 RMK AO2 PK WND 19036/2209
94908KDBQ DBQ20000308163012103/08/00 16:30:31  5-MIN KDBQ 082230Z 18022G33KT 10SM SCT100 22/05 A2945 1520 33 2700 180/22G33 RMK AO2 PK WND 19036/2209
94908KDBQ DBQ20000308163512103/08/00 16:35:31  5-MIN KDBQ 082235Z 18018G33KT 10SM BKN095 22/05 A2945 1520 32 2700 180/18G33 RMK AO2 PK WND 19036/2209
94908KDBQ DBQ20000308164012103/08/00 16:40:31  5-MIN KDBQ 082240Z 18018G30KT 10SM BKN090 22/06 A2945 1520 33 2700 170/18G30 RMK AO2 PK WND 19036/2209
94908KDBQ DBQ20000308164512803/08/00 16:45:31  5-MIN KDBQ 082245Z 18022G27KT 10SM BKN085 BKN100 22/06 A2944 1520 34 2700 180/22G27 RMK AO2 PK WND 19036/2209
94908KDBQ DBQ20000308165014503/08/00 16:50:31  5-MIN KDBQ 082250Z 17026G31KT 10SM BKN090 BKN100 22/04 A2944 1520 32 2700 170/26G31 RMK AO2 PK WND 19036/2209 SLP967 T02170044
94908KDBQ DBQ20000308165513803/08/00 16:55:31  5-MIN KDBQ 082255Z 17024G32KT 10SM BKN085 22/04 A2944 1520 32 2700 170/24G32 RMK AO2 PK WND 19036/2209 SLP967 T02170044
94908KDBQ DBQ20000308170012103/08/00 17:00:31  5-MIN KDBQ 082300Z 18020G32KT 10SM BKN090 22/04 A2944 1530 32 2700 180/20G32 RMK AO2 PK WND 18030/2257
94908KDBQ DBQ20000308170512103/08/00 17:05:31  5-MIN KDBQ 082305Z 19024G32KT 10SM BKN090 21/04 A2944 1530 32 2600 190/24G32 RMK AO2 PK WND 18032/2304
94908KDBQ DBQ20000308171012103/08/00 17:10:31  5-MIN KDBQ 082310Z 19024G32KT 10SM SCT085 21/02 A2944 1530 28 2600 190/24G32 RMK AO2 PK WND 18032/2308
94908KDBQ DBQ20000308171512103/08/00 17:15:31  5-MIN KDBQ 082315Z 19020G32KT 10SM FEW090 21/02 A2943 1530 29 2600 190/20G32 RMK AO2 PK WND 18032/2308
94908KDBQ DBQ20000308172012103/08/00 17:20:31  5-MIN KDBQ 082320Z 19022G28KT 10SM FEW100 21/02 A2943 1530 28 2600 190/22G28 RMK AO2 PK WND 18032/2308
94908KDBQ DBQ20000308172512103/08/00 17:25:31  5-MIN KDBQ 082325Z 18027G34KT 10SM SCT100 21/01 A2943 1530 26 2600 180/27G34 RMK AO2 PK WND 19034/2322
94908KDBQ DBQ20000308173012103/08/00 17:30:31  5-MIN KDBQ 082330Z 19019G34KT 10SM BKN100 21/01 A2943 1530 27 2600 190/19G34 RMK AO2 PK WND 19034/2322
94908KDBQ DBQ20000308173512103/08/00 17:35:31  5-MIN KDBQ 082335Z 19020G28KT 10SM SCT100 20/01 A2944 1530 28 2500 190/20G28 RMK AO2 PK WND 19034/2322
94908KDBQ DBQ20000308174012103/08/00 17:40:31  5-MIN KDBQ 082340Z 19018G25KT 10SM BKN100 20/01 A2944 1520 28 2500 190/18G25 RMK AO2 PK WND 19034/2322
94908KDBQ DBQ20000308174512103/08/00 17:45:31  5-MIN KDBQ 082345Z 19020G28KT 10SM BKN100 20/02 A2944 1520 29 2500 190/20G28 RMK AO2 PK WND 19034/2322
94908KDBQ DBQ20000308175015603/08/00 17:50:31  5-MIN KDBQ 082350Z 20018G28KT 10SM OVC100 20/02 A2944 1520 29 2500 200/18G28 RMK AO2 PK WND 19034/2322 SLP967 T02000017 10233 20200 58049
94908KDBQ DBQ20000308175515603/08/00 17:55:31  5-MIN KDBQ 082355Z 20017G24KT 10SM OVC100 19/02 A2945 1520 30 2400 200/17G24 RMK AO2 PK WND 19034/2322 SLP969 T01940017 10233 20194 55008
94908KDBQ DBQ20000308180010303/08/00 18:00:31  5-MIN KDBQ 090000Z 20017G22KT 10SM OVC100 20/02 A2944 1520 29 2500 200/17G22 RMK AO2
94908KDBQ DBQ20000308180512103/08/00 18:05:31  5-MIN KDBQ 090005Z 20020G27KT 10SM OVC100 19/02 A2945 1520 31 2400 200/20G27 RMK AO2 PK WND 19027/0005
94908KDBQ DBQ20000308181012103/08/00 18:10:31  5-MIN KDBQ 090010Z 20017G27KT 10SM OVC100 19/02 A2945 1520 31 2400 200/17G27 RMK AO2 PK WND 19027/0005
94908KDBQ DBQ20000308181511503/08/00 18:15:31  5-MIN KDBQ 090015Z 20015KT 10SM OVC100 19/02 A2945 1510 31 2400 200/15 RMK AO2 PK WND 19027/0005
94908KDBQ DBQ20000308182012103/08/00 18:20:31  5-MIN KDBQ 090020Z 21015G21KT 10SM OVC095 19/02 A2945 1510 31 2400 210/15G21 RMK AO2 PK WND 19027/0005
94908KDBQ DBQ20000308182512103/08/00 18:25:31  5-MIN KDBQ 090025Z 21021G26KT 10SM OVC095 19/03 A2945 1520 34 2400 210/21G26 RMK AO2 PK WND 19027/0005
94908KDBQ DBQ20000308183012103/08/00 18:30:31  5-MIN KDBQ 090030Z 21017G26KT 10SM OVC095 19/03 A2945 1510 35 2400 200/17G26 RMK AO2 PK WND 19027/0005
94908KDBQ DBQ20000308183511503/08/00 18:35:31  5-MIN KDBQ 090035Z 20016KT 10SM OVC100 18/04 A2945 1510 38 2300 200/16 RMK AO2 PK WND 19027/0005
94908KDBQ DBQ20000308184012103/08/00 18:40:31  5-MIN KDBQ 090040Z 20020G27KT 10SM OVC095 19/04 A2945 1520 36 2400 200/20G27 RMK AO2 PK WND 20027/0037
94908KDBQ DBQ20000308184512103/08/00 18:45:31  5-MIN KDBQ 090045Z 20022G27KT 10SM OVC095 19/04 A2944 1520 36 2400 200/22G27 RMK AO2 PK WND 20027/0045
94908KDBQ DBQ20000308185013803/08/00 18:50:31  5-MIN KDBQ 090050Z 20019G29KT 10SM OVC090 19/04 A2945 1520 36 2400 190/19G29 RMK AO2 PK WND 21029/0048 SLP970 T01890039
94908KDBQ DBQ20000308185513803/08/00 18:55:31  5-MIN KDBQ 090055Z 20021G29KT 10SM OVC090 19/04 A2945 1520 36 2400 200/21G29 RMK AO2 PK WND 20029/0055 SLP970 T01890039
94908KDBQ DBQ20000308190012103/08/00 19:00:31  5-MIN KDBQ 090100Z 20018G29KT 10SM OVC090 18/04 A2945 1520 38 2300 200/18G29 RMK AO2 PK WND 20026/0056
94908KDBQ DBQ20000308190512103/08/00 19:05:31  5-MIN KDBQ 090105Z 20022G31KT 10SM OVC085 18/04 A2944 1530 39 2300 200/22G31 RMK AO2 PK WND 20031/0102
94908KDBQ DBQ20000308191012103/08/00 19:10:31  5-MIN KDBQ 090110Z 20026G32KT 10SM OVC085 18/04 A2945 1520 39 2300 200/26G32 RMK AO2 PK WND 20032/0109
94908KDBQ DBQ20000308191512103/08/00 19:15:31  5-MIN KDBQ 090115Z 20018G32KT 10SM OVC080 18/04 A2944 1530 39 2300 200/18G32 RMK AO2 PK WND 20032/0109
94908KDBQ DBQ20000308192012803/08/00 19:20:31  5-MIN KDBQ 090120Z 20028G36KT 10SM BKN070 OVC085 18/04 A2945 1520 39 2300 200/28G36 RMK AO2 PK WND 21036/0120
94908KDBQ DBQ20000308192514403/08/00 19:25:31  5-MIN KDBQ 090125Z 22029G36KT 10SM -RA BKN065 OVC080 18/05 A2946 1510 42 2200 220/29G36 RMK AO2 PK WND 21036/0120 RAB25 P0000
94908KDBQ DBQ20000308193014303/08/00 19:30:31  5-MIN KDBQ 090130Z 22028G37KT 9SM -RA BKN065 OVC080 15/08 A2947 1500 62 1900 220/28G37 RMK AO2 PK WND 21037/0127 RAB25 P0000
94908KDBQ DBQ20000308193515003/08/00 19:35:31  5-MIN KDBQ 090135Z 22024G37KT 9SM -RA BKN065 OVC085 14/08 A2948 1490 64 1800 220/24G37 RMK AO2 PK WND 21037/0127 RAB25 PRESRR P0000
94908KDBQ DBQ20000308194015103/08/00 19:40:31  5-MIN KDBQ 090140Z 21021G31KT 10SM -RA BKN070 OVC090 14/08 A2949 1480 69 1700 210/21G31 RMK AO2 PK WND 21037/0127 RAB25 PRESRR P0000
94908KDBQ DBQ20000308194514503/08/00 19:45:31  5-MIN KDBQ 090145Z 22017KT 10SM -RA BKN065 BKN075 OVC090 14/08 A2949 1480 66 1700 220/17 RMK AO2 PK WND 21037/0127 RAB25 P0000
94908KDBQ DBQ20000308195015503/08/00 19:50:31  5-MIN KDBQ 090150Z 22013KT 10SM -RA BKN070 OVC090 13/08 A2949 1480 71 1700 220/13 RMK AO2 PK WND 21037/0127 RAB25 SLP986 P0000 T01330083
94908KDBQ DBQ20000308195515403/08/00 19:55:31  5-MIN KDBQ 090155Z 22012KT 10SM BKN070 OVC090 13/08 A2949 1480 69 1700 220/12 RMK AO2 PK WND 21037/0127 RAB25E55 SLP986 P0000 T01330078
94908KDBQ DBQ20000308200010403/08/00 20:00:31  5-MIN KDBQ 090200Z 22010KT 10SM BKN070 OVC090 13/08 A2949 1480 69 1700 210/10 RMK AO2
94908KDBQ DBQ20000308200509703/08/00 20:05:31  5-MIN KDBQ 090205Z 22010KT 10SM OVC075 13/08 A2949 1480 71 1700 220/10 RMK AO2
94908KDBQ DBQ20000308201009703/08/00 20:10:31  5-MIN KDBQ 090210Z 22010KT 10SM BKN070 13/08 A2949 1480 71 1600 220/10 RMK AO2
94908KDBQ DBQ20000308201509703/08/00 20:15:31  5-MIN KDBQ 090215Z 21010KT 10SM BKN070 12/08 A2949 1480 74 1500 210/10 RMK AO2
94908KDBQ DBQ20000308202010303/08/00 20:20:31  5-MIN KDBQ 090220Z 22012G19KT 10SM SCT075 13/08 A2949 1480 71 1600 220/12G19 RMK AO2
94908KDBQ DBQ20000308202510303/08/00 20:25:31  5-MIN KDBQ 090225Z 21013G20KT 10SM FEW075 12/07 A2949 1480 71 1500 210/13G20 RMK AO2
94908KDBQ DBQ20000308203010303/08/00 20:30:31  5-MIN KDBQ 090230Z 21015G21KT 10SM FEW075 13/07 A2949 1480 66 1600 210/15G21 RMK AO2
94908KDBQ DBQ20000308203510003/08/00 20:35:31  5-MIN KDBQ 090235Z 21015G21KT 10SM CLR 13/06 A2947 1490 63 1600 210/15G21 RMK AO2
94908KDBQ DBQ20000308204011803/08/00 20:40:31  5-MIN KDBQ 090240Z 21020G29KT 10SM CLR 13/06 A2948 1480 59 1700 210/20G29 RMK AO2 PK WND 21029/0236
94908KDBQ DBQ20000308204511803/08/00 20:45:31  5-MIN KDBQ 090245Z 21018G29KT 10SM CLR 13/06 A2949 1480 61 1600 210/18G29 RMK AO2 PK WND 21029/0236
94908KDBQ DBQ20000308205015103/08/00 20:50:31  5-MIN KDBQ 090250Z AUTO 21020KT 10SM CLR 13/06 A2949 1480 61 1600 210/20 RMK AO2 PK WND 21029/0236 SLP986 60000 T01280056 55008 TSNO
94908KDBQ DBQ20000308205515703/08/00 20:55:31  5-MIN KDBQ 090255Z AUTO 21019G24KT 10SM CLR 13/05 A2949 1480 59 1600 210/19G24 RMK AO2 PK WND 21029/0236 SLP985 60000 T01280050 50013 TSNO
94908KDBQ DBQ20000308210011003/08/00 21:00:31  5-MIN KDBQ 090300Z AUTO 20016G24KT 10SM CLR 13/05 A2949 1480 59 1600 200/16G24 RMK AO2 TSNO
94908KDBQ DBQ20000308210510403/08/00 21:05:31  5-MIN KDBQ 090305Z AUTO 20014KT 10SM CLR 12/05 A2949 1480 61 1500 200/14 RMK AO2 TSNO
94908KDBQ DBQ20000308211010403/08/00 21:10:31  5-MIN KDBQ 090310Z AUTO 20015KT 10SM CLR 12/05 A2949 1480 61 1500 200/15 RMK AO2 TSNO
94908KDBQ DBQ20000308211510403/08/00 21:15:31  5-MIN KDBQ 090315Z AUTO 20016KT 10SM CLR 12/05 A2949 1480 61 1500 200/16 RMK AO2 TSNO
94908KDBQ DBQ20000308212011003/08/00 21:20:31  5-MIN KDBQ 090320Z AUTO 20015G22KT 10SM CLR 12/05 A2949 1480 61 1500 200/15G22 RMK AO2 TSNO
94908KDBQ DBQ20000308212510403/08/00 21:25:31  5-MIN KDBQ 090325Z AUTO 20015KT 10SM CLR 12/05 A2949 1480 61 1500 200/15 RMK AO2 TSNO
94908KDBQ DBQ20000308213011003/08/00 21:30:31  5-MIN KDBQ 090330Z AUTO 20017G22KT 10SM CLR 12/05 A2949 1480 61 1500 200/17G22 RMK AO2 TSNO
94908KDBQ DBQ20000308213511003/08/00 21:35:31  5-MIN KDBQ 090335Z AUTO 20014G22KT 10SM CLR 12/05 A2949 1480 63 1500 200/14G22 RMK AO2 TSNO
94908KDBQ DBQ20000308214010403/08/00 21:40:31  5-MIN KDBQ 090340Z AUTO 20016KT 10SM CLR 12/05 A2949 1480 63 1500 200/16 RMK AO2 TSNO
94908KDBQ DBQ20000308214510403/08/00 21:45:31  5-MIN KDBQ 090345Z AUTO 20016KT 10SM CLR 12/04 A2949 1480 61 1500 200/16 RMK AO2 TSNO
94908KDBQ DBQ20000308215012403/08/00 21:50:31  5-MIN KDBQ 090350Z AUTO 20017KT 10SM FEW095 12/05 A2949 1480 63 1500 200/17 RMK AO2 SLP986 T01170050 TSNO
94908KDBQ DBQ20000308215512403/08/00 21:55:31  5-MIN KDBQ 090355Z AUTO 20015KT 10SM FEW095 12/04 A2948 1480 59 1500 200/15 RMK AO2 SLP984 T01220044 TSNO
94908KDBQ DBQ20000308220010703/08/00 22:00:31  5-MIN KDBQ 090400Z AUTO 20015KT 10SM FEW095 12/04 A2948 1480 61 1500 200/15 RMK AO2 TSNO
94908KDBQ DBQ20000308220511303/08/00 22:05:31  5-MIN KDBQ 090405Z AUTO 20013G20KT 10SM SCT090 12/05 A2948 1480 63 1500 200/13G20 RMK AO2 TSNO
94908KDBQ DBQ20000308221011303/08/00 22:10:31  5-MIN KDBQ 090410Z AUTO 19014G22KT 10SM BKN090 12/04 A2948 1490 59 1500 190/14G22 RMK AO2 TSNO
94908KDBQ DBQ20000308221511303/08/00 22:15:31  5-MIN KDBQ 090415Z AUTO 19014G22KT 10SM BKN095 12/05 A2948 1490 61 1500 190/14G22 RMK AO2 TSNO
94908KDBQ DBQ20000308222011303/08/00 22:20:31  5-MIN KDBQ 090420Z AUTO 20013G19KT 10SM BKN095 12/05 A2948 1490 61 1500 190/13G19 RMK AO2 TSNO
94908KDBQ DBQ20000308222510703/08/00 22:25:31  5-MIN KDBQ 090425Z AUTO 20014KT 10SM BKN095 12/05 A2948 1490 61 1600 200/14 RMK AO2 TSNO
94908KDBQ DBQ20000308223010703/08/00 22:30:31  5-MIN KDBQ 090430Z AUTO 20015KT 10SM OVC095 12/05 A2947 1490 61 1600 200/15 RMK AO2 TSNO
94908KDBQ DBQ20000308223512003/08/00 22:35:31  5-MIN KDBQ 090435Z AUTO 19015G21KT 10SM FEW075 OVC100 12/05 A2947 1490 61 1600 190/15G21 RMK AO2 TSNO
94908KDBQ DBQ20000308224012003/08/00 22:40:31  5-MIN KDBQ 090440Z AUTO 20015G21KT 10SM SCT075 OVC100 12/05 A2948 1490 61 1600 200/15G21 RMK AO2 TSNO
94908KDBQ DBQ20000308224512003/08/00 22:45:31  5-MIN KDBQ 090445Z AUTO 20015G21KT 10SM BKN075 OVC100 12/05 A2948 1490 61 1600 200/15G21 RMK AO2 TSNO
94908KDBQ DBQ20000308225013703/08/00 22:50:31  5-MIN KDBQ 090450Z AUTO 20016G21KT 10SM BKN070 OVC100 12/05 A2947 1490 61 1600 200/16G21 RMK AO2 SLP980 T01220050 TSNO
94908KDBQ DBQ20000308225513703/08/00 22:55:31  5-MIN KDBQ 090455Z AUTO 20020G25KT 10SM BKN070 OVC100 12/05 A2948 1490 61 1600 200/20G25 RMK AO2 SLP980 T01220050 TSNO
94908KDBQ DBQ20000308230011303/08/00 23:00:31  5-MIN KDBQ 090500Z AUTO 20017G25KT 10SM OVC070 12/05 A2947 1490 61 1600 200/17G25 RMK AO2 TSNO
94908KDBQ DBQ20000308230512003/08/00 23:05:31  5-MIN KDBQ 090505Z AUTO 20014G23KT 10SM BKN070 OVC080 12/05 A2947 1500 61 1600 200/14G23 RMK AO2 TSNO
94908KDBQ DBQ20000308231011403/08/00 23:10:31  5-MIN KDBQ 090510Z AUTO 20015KT 10SM BKN070 OVC080 12/05 A2947 1500 61 1600 200/15 RMK AO2 TSNO
94908KDBQ DBQ20000308231511403/08/00 23:15:31  5-MIN KDBQ 090515Z AUTO 19013KT 10SM BKN070 OVC085 12/05 A2947 1500 61 1600 190/13 RMK AO2 TSNO
94908KDBQ DBQ20000308232011303/08/00 23:20:31  5-MIN KDBQ 090520Z AUTO 19015G21KT 10SM OVC070 12/05 A2946 1500 61 1600 190/15G21 RMK AO2 TSNO
94908KDBQ DBQ20000308232512003/08/00 23:25:31  5-MIN KDBQ 090525Z AUTO 20015G22KT 10SM BKN075 OVC095 12/05 A2946 1500 61 1600 190/15G22 RMK AO2 TSNO
94908KDBQ DBQ20000308233012703/08/00 23:30:31  5-MIN KDBQ 090530Z AUTO 20017G23KT 10SM SCT070 BKN090 OVC110 12/05 A2947 1500 61 1600 200/17G23 RMK AO2 TSNO
94908KDBQ DBQ20000308233512703/08/00 23:35:31  5-MIN KDBQ 090535Z AUTO 20015G23KT 10SM SCT070 BKN095 OVC120 12/05 A2946 1500 63 1500 200/15G23 RMK AO2 TSNO
94908KDBQ DBQ20000308234012703/08/00 23:40:31  5-MIN KDBQ 090540Z AUTO 20018G23KT 10SM FEW070 BKN100 BKN110 12/05 A2946 1510 61 1600 200/18G23 RMK AO2 TSNO
94908KDBQ DBQ20000308234512703/08/00 23:45:31  5-MIN KDBQ 090545Z AUTO 20016G24KT 10SM FEW045 SCT075 OVC110 12/05 A2946 1500 63 1500 200/16G24 RMK AO2 TSNO
94908KDBQ DBQ20000308235017803/08/00 23:50:31  5-MIN KDBQ 090550Z AUTO 20017G24KT 10SM SCT045 BKN090 OVC110 12/05 A2946 1500 61 1600 200/17G24 RMK AO2 SLP975 60000 T01220050 10200 20117 402330117 50013 TSNO
94908KDBQ DBQ20000308235517803/08/00 23:55:31  5-MIN KDBQ 090555Z AUTO 20017G23KT 10SM FEW041 BKN070 OVC110 12/06 A2946 1510 63 1600 200/17G23 RMK AO2 SLP974 60000 T01220056 10200 20117 402330117 58008 TSNO
94908KDBQ DBQ20000309000012703/09/00 00:00:31  5-MIN KDBQ 090600Z AUTO 20016G23KT 10SM FEW043 BKN060 OVC110 12/06 A2946 1510 63 1600 200/16G23 RMK AO2 TSNO
94908KDBQ DBQ20000309000512703/09/00 00:05:31  5-MIN KDBQ 090605Z AUTO 20019G23KT 10SM FEW041 BKN055 BKN110 12/06 A2946 1510 66 1500 200/19G23 RMK AO2 TSNO
94908KDBQ DBQ20000309001012703/09/00 00:10:31  5-MIN KDBQ 090610Z AUTO 21017G23KT 10SM FEW041 BKN055 OVC110 12/06 A2946 1510 66 1500 210/17G23 RMK AO2 TSNO
94908KDBQ DBQ20000309001512703/09/00 00:15:31  5-MIN KDBQ 090615Z AUTO 21017G23KT 10SM FEW041 BKN055 OVC110 12/06 A2946 1510 66 1500 210/17G23 RMK AO2 TSNO
94908KDBQ DBQ20000309002012703/09/00 00:20:31  5-MIN KDBQ 090620Z AUTO 21016G23KT 10SM FEW032 BKN050 OVC110 12/06 A2946 1510 66 1500 210/16G23 RMK AO2 TSNO
94908KDBQ DBQ20000309002512703/09/00 00:25:31  5-MIN KDBQ 090625Z AUTO 21019G22KT 10SM FEW032 BKN050 OVC110 12/06 A2945 1510 68 1500 210/19G22 RMK AO2 TSNO
94908KDBQ DBQ20000309003013803/09/00 00:30:31  5-MIN KDBQ 090630Z AUTO 20019G27KT 10SM FEW032 OVC055 12/06 A2945 1520 68 1500 200/19G27 RMK AO2 PK WND 21027/0628 TSNO
94908KDBQ DBQ20000309003513803/09/00 00:35:31  5-MIN KDBQ 090635Z AUTO 21020G27KT 10SM FEW032 OVC055 12/06 A2945 1510 68 1500 210/20G27 RMK AO2 PK WND 21027/0628 TSNO
94908KDBQ DBQ20000309004013803/09/00 00:40:31  5-MIN KDBQ 090640Z AUTO 21018G25KT 10SM FEW032 OVC055 12/06 A2945 1510 68 1500 210/18G25 RMK AO2 PK WND 21027/0628 TSNO
94908KDBQ DBQ20000309004514503/09/00 00:45:31  5-MIN KDBQ 090645Z AUTO 21020G26KT 10SM SCT035 SCT045 OVC055 12/06 A2945 1520 68 1500 210/20G26 RMK AO2 PK WND 21027/0628 TSNO
94908KDBQ DBQ20000309005016203/09/00 00:50:31  5-MIN KDBQ 090650Z AUTO 21019G26KT 10SM SCT035 BKN044 OVC055 12/06 A2945 1520 68 1500 210/19G26 RMK AO2 PK WND 21027/0628 SLP969 T01170061 TSNO
94908KDBQ DBQ20000309005515603/09/00 00:55:31  5-MIN KDBQ 090655Z AUTO 21020KT 10SM BKN035 BKN044 OVC055 12/06 A2945 1510 68 1500 210/20 RMK AO2 PK WND 21027/0628 SLP971 T01170061 TSNO
94908KDBQ DBQ20000309010014503/09/00 01:00:31  5-MIN KDBQ 090700Z AUTO 22022G26KT 10SM SCT033 BKN044 OVC065 12/06 A2945 1510 68 1500 220/22G26 RMK AO2 PK WND 22026/0700 TSNO
94908KDBQ DBQ20000309010514503/09/00 01:05:31  5-MIN KDBQ 090705Z AUTO 22021G28KT 10SM SCT033 BKN041 OVC065 12/06 A2945 1520 68 1500 220/21G28 RMK AO2 PK WND 22028/0704 TSNO
94908KDBQ DBQ20000309011014503/09/00 01:10:31  5-MIN KDBQ 090710Z AUTO 22022G28KT 10SM SCT033 BKN041 OVC065 12/06 A2945 1520 68 1500 220/22G28 RMK AO2 PK WND 22028/0706 TSNO
94908KDBQ DBQ20000309011514503/09/00 01:15:31  5-MIN KDBQ 090715Z AUTO 22024G30KT 10SM BKN035 BKN043 OVC065 12/07 A2946 1500 71 1500 220/24G30 RMK AO2 PK WND 23030/0715 TSNO
94908KDBQ DBQ20000309012014503/09/00 01:20:31  5-MIN KDBQ 090720Z AUTO 22028G34KT 10SM SCT029 BKN039 OVC065 11/07 A2945 1520 74 1500 220/28G34 RMK AO2 PK WND 23034/0720 TSNO
94908KDBQ DBQ20000309012514503/09/00 01:25:31  5-MIN KDBQ 090725Z AUTO 22027G34KT 10SM FEW026 BKN039 OVC065 11/07 A2946 1510 74 1400 220/27G34 RMK AO2 PK WND 23034/0720 TSNO
94908KDBQ DBQ20000309013014503/09/00 01:30:31  5-MIN KDBQ 090730Z AUTO 22022G33KT 10SM SCT026 BKN031 OVC065 11/07 A2945 1510 74 1400 220/22G33 RMK AO2 PK WND 23034/0720 TSNO
94908KDBQ DBQ20000309013513903/09/00 01:35:31  5-MIN KDBQ 090735Z AUTO 22026KT 10SM SCT024 BKN030 OVC046 11/07 A2946 1510 74 1400 220/26 RMK AO2 PK WND 23034/0720 TSNO
94908KDBQ DBQ20000309014013903/09/00 01:40:31  5-MIN KDBQ 090740Z AUTO 22023KT 10SM BKN024 BKN030 OVC038 11/07 A2946 1510 74 1400 220/23 RMK AO2 PK WND 23034/0720 TSNO
94908KDBQ DBQ20000309014513803/09/00 01:45:31  5-MIN KDBQ 090745Z AUTO 22022G31KT 10SM BKN024 BKN030 11/07 A2946 1510 74 1400 220/22G31 RMK AO2 PK WND 23034/0720 TSNO
94908KDBQ DBQ20000309015015503/09/00 01:50:31  5-MIN KDBQ 090750Z AUTO 23022G31KT 10SM BKN024 OVC030 11/07 A2947 1500 77 1400 230/22G31 RMK AO2 PK WND 23034/0720 SLP975 T01060067 TSNO
94908KDBQ DBQ20000309015516203/09/00 01:55:31  5-MIN KDBQ 090755Z AUTO 22022G27KT 10SM BKN024 BKN030 OVC060 11/07 A2946 1500 80 1400 220/22G27 RMK AO2 PK WND 23034/0720 SLP975 T01060072 TSNO
94908KDBQ DBQ20000309020014503/09/00 02:00:31  5-MIN KDBQ 090800Z AUTO 23022G28KT 10SM BKN024 BKN030 OVC055 11/07 A2946 1500 80 1400 230/22G28 RMK AO2 PK WND 23028/0757 TSNO
94908KDBQ DBQ20000309020514503/09/00 02:05:31  5-MIN KDBQ 090805Z AUTO 23021G27KT 10SM SCT024 BKN030 OVC055 11/07 A2947 1500 80 1400 230/21G27 RMK AO2 PK WND 23028/0757 TSNO
94908KDBQ DBQ20000309021014503/09/00 02:10:31  5-MIN KDBQ 090810Z AUTO 23021G27KT 10SM SCT024 SCT030 OVC055 11/07 A2946 1500 80 1400 220/21G27 RMK AO2 PK WND 23028/0757 TSNO
94908KDBQ DBQ20000309021513803/09/00 02:15:31  5-MIN KDBQ 090815Z AUTO 23022G26KT 10SM SCT028 OVC055 11/07 A2947 1500 80 1400 230/22G26 RMK AO2 PK WND 23028/0757 TSNO
94908KDBQ DBQ20000309022014503/09/00 02:20:31  5-MIN KDBQ 090820Z AUTO 23017G26KT 10SM FEW021 SCT028 OVC055 11/07 A2946 1500 80 1400 220/17G26 RMK AO2 PK WND 23028/0757 TSNO
94908KDBQ DBQ20000309022513903/09/00 02:25:31  5-MIN KDBQ 090825Z AUTO 22020KT 10SM SCT021 SCT028 OVC055 11/07 A2946 1500 80 1400 220/20 RMK AO2 PK WND 23028/0757 TSNO
94908KDBQ DBQ20000309023014503/09/00 02:30:31  5-MIN KDBQ 090830Z AUTO 23018G26KT 10SM BKN021 BKN028 OVC055 11/07 A2947 1500 80 1400 230/18G26 RMK AO2 PK WND 23028/0757 TSNO
94908KDBQ DBQ20000309023514503/09/00 02:35:31  5-MIN KDBQ 090835Z AUTO 23017G26KT 10SM BKN021 BKN028 OVC060 10/07 A2947 1500 83 1300 230/17G26 RMK AO2 PK WND 23028/0757 TSNO
94908KDBQ DBQ20000309024014503/09/00 02:40:31  5-MIN KDBQ 090840Z AUTO 23017G23KT 10SM BKN021 BKN028 OVC060 10/07 A2946 1500 83 1300 220/17G23 RMK AO2 PK WND 23028/0757 TSNO
94908KDBQ DBQ20000309024513803/09/00 02:45:31  5-MIN KDBQ 090845Z AUTO 22021G26KT 10SM BKN021 OVC026 10/07 A2946 1510 83 1300 220/21G26 RMK AO2 PK WND 23028/0757 TSNO
94908KDBQ DBQ20000309025016103/09/00 02:50:31  5-MIN KDBQ 090850Z AUTO 22030G34KT 10SM OVC019 10/07 A2944 1520 83 1300 220/30G34 RMK AO2 PK WND 22034/0849 PRESFR SLP967 T01000072 58008 TSNO
94908KDBQ DBQ20000309025516103/09/00 02:55:31  5-MIN KDBQ 090855Z AUTO 22028G36KT 10SM FEW013 OVC019 09/07 A2945 1520 86 1200 220/28G36 RMK AO2 PK WND 22036/0853 SLP971 T00940072 58003 TSNO
94908KDBQ DBQ20000309030013803/09/00 03:00:31  5-MIN KDBQ 090900Z AUTO 23030G36KT 10SM SCT013 OVC019 09/07 A2947 1500 89 1200 230/30G36 RMK AO2 PK WND 23034/0859 TSNO
94908KDBQ DBQ20000309030513803/09/00 03:05:31  5-MIN KDBQ 090905Z AUTO 23025G34KT 10SM BKN011 OVC019 09/07 A2948 1490 86 1200 230/25G34 RMK AO2 PK WND 22034/0902 TSNO
94908KDBQ DBQ20000309031013803/09/00 03:10:31  5-MIN KDBQ 090910Z AUTO 25028G34KT 10SM BKN011 OVC019 08/06 A2948 1490 86 1100 240/28G34 RMK AO2 PK WND 22034/0902 TSNO
94908KDBQ DBQ20000309031515603/09/00 03:15:31  5-MIN KDBQ 090915Z AUTO 24027G35KT 10SM BKN011 OVC019 07/05 A2949 1480 86 900 240/27G35 RMK AO2 PK WND 25035/0912 CIG 010V015 PRESRR TSNO
94908KDBQ DBQ20000309032014203/09/00 03:20:31  5-MIN KDBQ 090920Z AUTO 24028G35KT 10SM OVC011 07/04 A2948 1480 86 900 240/28G35 RMK AO2 PK WND 26035/0918 CIG 010V014 TSNO
94908KDBQ DBQ20000309032513003/09/00 03:25:31  5-MIN KDBQ 090925Z AUTO 24024G35KT 10SM OVC011 06/04 A2949 1480 89 800 240/24G35 RMK AO2 PK WND 26035/0918 TSNO
94908KDBQ DBQ20000309033013003/09/00 03:30:31  5-MIN KDBQ 090930Z AUTO 24028G33KT 10SM OVC011 06/04 A2950 1470 86 800 240/28G33 RMK AO2 PK WND 26035/0918 TSNO
94908KDBQ DBQ20000309033513003/09/00 03:35:31  5-MIN KDBQ 090935Z AUTO 24025G33KT 10SM OVC011 06/04 A2950 1470 89 800 240/25G33 RMK AO2 PK WND 26035/0918 TSNO
94908KDBQ DBQ20000309034013003/09/00 03:40:31  5-MIN KDBQ 090940Z AUTO 24021G33KT 10SM OVC011 06/04 A2950 1470 89 700 240/21G33 RMK AO2 PK WND 26035/0918 TSNO
94908KDBQ DBQ20000309034513003/09/00 03:45:31  5-MIN KDBQ 090945Z AUTO 24021G31KT 10SM OVC011 06/04 A2951 1460 89 700 240/21G31 RMK AO2 PK WND 26035/0918 TSNO
94908KDBQ DBQ20000309035014703/09/00 03:50:31  5-MIN KDBQ 090950Z AUTO 24028G36KT 10SM OVC011 06/04 A2950 1470 89 700 240/28G36 RMK AO2 PK WND 24036/0950 SLP989 T00560039 TSNO
94908KDBQ DBQ20000309035514703/09/00 03:55:31  5-MIN KDBQ 090955Z AUTO 24026G36KT 10SM OVC011 05/03 A2950 1470 89 700 240/26G36 RMK AO2 PK WND 24036/0950 SLP989 T00500033 TSNO
94908KDBQ DBQ20000309040013003/09/00 04:00:31  5-MIN KDBQ 091000Z AUTO 24023G34KT 10SM OVC011 05/03 A2949 1470 89 700 240/23G34 RMK AO2 PK WND 24033/0957 TSNO
94908KDBQ DBQ20000309040513003/09/00 04:05:31  5-MIN KDBQ 091005Z AUTO 24025G34KT 10SM OVC011 05/03 A2950 1470 89 700 240/25G34 RMK AO2 PK WND 24034/1003 TSNO
94908KDBQ DBQ20000309041013003/09/00 04:10:31  5-MIN KDBQ 091010Z AUTO 23027G34KT 10SM OVC009 04/03 A2951 1460 92 600 230/27G34 RMK AO2 PK WND 24034/1003 TSNO
94908KDBQ DBQ20000309041514103/09/00 04:15:31  5-MIN KDBQ 091015Z AUTO 24022G32KT 9SM OVC009 04/03 A2951 1460 92 600 240/22G32 RMK AO2 PK WND 24034/1003 CIG 007V011 TSNO
94908KDBQ DBQ20000309042014103/09/00 04:20:31  5-MIN KDBQ 091020Z AUTO 24026G29KT 9SM OVC009 04/03 A2952 1450 92 600 240/26G29 RMK AO2 PK WND 24034/1003 CIG 007V010 TSNO
94908KDBQ DBQ20000309042514103/09/00 04:25:31  5-MIN KDBQ 091025Z AUTO 24023G29KT 9SM OVC007 04/03 A2952 1450 92 600 240/23G29 RMK AO2 PK WND 24034/1003 CIG 007V010 TSNO
94908KDBQ DBQ20000309043013003/09/00 04:30:31  5-MIN KDBQ 091030Z AUTO 23022G28KT 10SM OVC007 04/03 A2952 1450 92 600 230/22G28 RMK AO2 PK WND 24034/1003 TSNO
94908KDBQ DBQ20000309043512903/09/00 04:35:31  5-MIN KDBQ 091035Z AUTO 24023G30KT 9SM OVC007 04/03 A2953 1440 92 600 240/23G30 RMK AO2 PK WND 24034/1003 TSNO
94908KDBQ DBQ20000309044012903/09/00 04:40:31  5-MIN KDBQ 091040Z AUTO 24021G32KT 8SM OVC007 04/03 A2953 1440 96 500 240/21G32 RMK AO2 PK WND 24034/1003 TSNO
94908KDBQ DBQ20000309044512903/09/00 04:45:31  5-MIN KDBQ 091045Z AUTO 23026G32KT 8SM OVC007 04/03 A2953 1440 96 500 230/26G32 RMK AO2 PK WND 24034/1003 TSNO
94908KDBQ DBQ20000309045014603/09/00 04:50:31  5-MIN KDBQ 091050Z AUTO 24023G31KT 9SM OVC007 04/03 A2953 1440 96 500 240/23G31 RMK AO2 PK WND 24034/1003 SLP002 T00390033 TSNO
94908KDBQ DBQ20000309045514603/09/00 04:55:31  5-MIN KDBQ 091055Z AUTO 24025G30KT 7SM OVC007 04/03 A2954 1430 96 500 240/25G30 RMK AO2 PK WND 24034/1003 SLP004 T00390033 TSNO
94908KDBQ DBQ20000309050013203/09/00 05:00:31  5-MIN KDBQ 091100Z AUTO 24024G30KT 5SM BR OVC007 04/03 A2954 1430 96 500 240/24G30 RMK AO2 PK WND 24029/1100 TSNO
94908KDBQ DBQ20000309050513203/09/00 05:05:31  5-MIN KDBQ 091105Z AUTO 24025G30KT 4SM BR OVC007 04/03 A2954 1430 96 500 240/25G30 RMK AO2 PK WND 23030/1104 TSNO
94908KDBQ DBQ20000309051013203/09/00 05:10:31  5-MIN KDBQ 091110Z AUTO 24026G32KT 5SM BR OVC007 04/03 A2954 1430 96 500 230/26G32 RMK AO2 PK WND 23032/1110 TSNO
94908KDBQ DBQ20000309051513203/09/00 05:15:31  5-MIN KDBQ 091115Z AUTO 23024G32KT 5SM BR OVC007 04/03 A2955 1430 96 500 230/24G32 RMK AO2 PK WND 23032/1110 TSNO
94908KDBQ DBQ20000309052013203/09/00 05:20:31  5-MIN KDBQ 091120Z AUTO 24026G31KT 5SM BR OVC007 04/03 A2954 1430 96 500 240/26G31 RMK AO2 PK WND 23032/1110 TSNO
94908KDBQ DBQ20000309052513203/09/00 05:25:31  5-MIN KDBQ 091125Z AUTO 24027G33KT 6SM BR OVC007 04/03 A2955 1420 96 500 240/27G33 RMK AO2 PK WND 24033/1123 TSNO
94908KDBQ DBQ20000309053012903/09/00 05:30:31  5-MIN KDBQ 091130Z AUTO 24026G33KT 8SM OVC007 04/03 A2955 1420 96 500 240/26G33 RMK AO2 PK WND 24033/1123 TSNO
94908KDBQ DBQ20000309053513003/09/00 05:35:31  5-MIN KDBQ 091135Z AUTO 24026G36KT 10SM OVC007 04/03 A2955 1420 96 500 240/26G36 RMK AO2 PK WND 24036/1134 TSNO
94908KDBQ DBQ20000309054013703/09/00 05:40:31  5-MIN KDBQ 091140Z AUTO 25023G36KT 10SM BKN007 OVC017 04/03 A2956 1410 96 400 240/23G36 RMK AO2 PK WND 24036/1134 TSNO
94908KDBQ DBQ20000309054514403/09/00 05:45:31  5-MIN KDBQ 091145Z AUTO 24024G30KT 10SM BKN007 OVC019 04/03 A2957 1400 92 500 240/24G30 RMK AO2 PK WND 24036/1134 PRESRR TSNO
94908KDBQ DBQ20000309055018603/09/00 05:50:31  5-MIN KDBQ 091150Z AUTO 25021G29KT 10SM SCT007 BKN017 OVC023 04/03 A2958 1400 92 500 250/21G29 RMK AO2 PK WND 24036/1134 PRESRR SLP017 T00440033 10122 20039 58003 TSNO
94908KDBQ DBQ20000309055518603/09/00 05:55:31  5-MIN KDBQ 091155Z AUTO 26025G29KT 10SM FEW007 BKN017 OVC023 05/03 A2958 1390 89 600 250/25G29 RMK AO2 PK WND 24036/1134 PRESRR SLP019 T00500033 10122 20039 51044 TSNO
94908KDBQ DBQ20000309060014403/09/00 06:00:31  5-MIN KDBQ 091200Z AUTO 26025G33KT 10SM FEW007 OVC021 05/03 A2959 1390 85 600 260/25G33 RMK AO2 PK WND 26033/1159 PRESRR TSNO
94908KDBQ DBQ20000309060513703/09/00 06:05:31  5-MIN KDBQ 091205Z AUTO 27030G36KT 10SM OVC018 04/02 A2960 1380 85 500 270/30G36 RMK AO2 PK WND 27036/1205 PRESRR TSNO
94908KDBQ DBQ20000309061014403/09/00 06:10:31  5-MIN KDBQ 091210Z AUTO 27028G37KT 10SM BKN018 OVC024 04/02 A2961 1370 89 400 270/28G37 RMK AO2 PK WND 26037/1209 PRESRR TSNO
94908KDBQ DBQ20000309061514403/09/00 06:15:31  5-MIN KDBQ 091215Z AUTO 27022G37KT 10SM BKN016 OVC024 04/02 A2962 1360 85 400 270/22G37 RMK AO2 PK WND 26037/1209 PRESRR TSNO
94908KDBQ DBQ20000309062013003/09/00 06:20:31  5-MIN KDBQ 091220Z AUTO 27027G34KT 10SM OVC016 04/02 A2962 1360 85 400 260/27G34 RMK AO2 PK WND 26037/1209 TSNO
94908KDBQ DBQ20000309062513003/09/00 06:25:31  5-MIN KDBQ 091225Z AUTO 26026G34KT 10SM OVC014 04/02 A2963 1350 85 400 260/26G34 RMK AO2 PK WND 26037/1209 TSNO
94908KDBQ DBQ20000309063013003/09/00 06:30:31  5-MIN KDBQ 091230Z AUTO 26027G34KT 10SM OVC014 04/02 A2963 1350 85 400 260/27G34 RMK AO2 PK WND 26037/1209 TSNO
94908KDBQ DBQ20000309063513003/09/00 06:35:31  5-MIN KDBQ 091235Z AUTO 27023G34KT 10SM OVC014 03/01 A2964 1340 85 300 270/23G34 RMK AO2 PK WND 26037/1209 TSNO
94908KDBQ DBQ20000309064013703/09/00 06:40:31  5-MIN KDBQ 091240Z AUTO 27028G33KT 10SM OVC014 03/01 A2965 1330 85 300 270/28G33 RMK AO2 PK WND 26037/1209 PRESRR TSNO
94908KDBQ DBQ20000309064512003/09/00 06:45:31  5-MIN KDBQ 091245Z 27020G33KT 10SM OVC014 03/01 A2965 1330 85 300 270/20G33 RMK AO2 PK WND 26037/1209
94908KDBQ DBQ20000309065013703/09/00 06:50:31  5-MIN KDBQ 091250Z 27019G29KT 10SM OVC014 03/01 A2965 1330 85 200 270/19G29 RMK AO2 PK WND 26037/1209 SLP044 T00280006
94908KDBQ DBQ20000309065513703/09/00 06:55:31  5-MIN KDBQ 091255Z 27020G29KT 10SM OVC014 03/01 A2966 1320 85 200 270/20G29 RMK AO2 PK WND 26037/1209 SLP046 T00280006
94908KDBQ DBQ20000309070012703/09/00 07:00:31  5-MIN KDBQ 091300Z 28025G28KT 10SM OVC014 03/01 A2967 1310 85 200 270/25G28 RMK AO2 PK WND 27028/1257 PRESRR
94908KDBQ DBQ20000309070512003/09/00 07:05:31  5-MIN KDBQ 091305Z 28021G28KT 10SM OVC014 03/01 A2967 1310 85 200 280/21G28 RMK AO2 PK WND 28028/1301
94908KDBQ DBQ20000309071012003/09/00 07:10:31  5-MIN KDBQ 091310Z 28020G27KT 10SM OVC014 03/01 A2968 1310 85 200 280/20G27 RMK AO2 PK WND 28028/1301
94908KDBQ DBQ20000309071512003/09/00 07:15:31  5-MIN KDBQ 091315Z 28023G27KT 10SM OVC014 03/01 A2968 1300 85 200 280/23G27 RMK AO2 PK WND 28028/1301
94908KDBQ DBQ20000309072012003/09/00 07:20:31  5-MIN KDBQ 091320Z 28023G29KT 10SM OVC014 03/01 A2968 1300 85 200 280/23G29 RMK AO2 PK WND 29029/1319
94908KDBQ DBQ20000309072512003/09/00 07:25:31  5-MIN KDBQ 091325Z 28022G29KT 10SM OVC014 03/01 A2969 1300 85 200 280/22G29 RMK AO2 PK WND 29029/1319
94908KDBQ DBQ20000309073011403/09/00 07:30:31  5-MIN KDBQ 091330Z 29020KT 10SM OVC014 03/01 A2969 1290 85 200 290/20 RMK AO2 PK WND 29029/1319
94908KDBQ DBQ20000309073512003/09/00 07:35:31  5-MIN KDBQ 091335Z 28023G28KT 10SM OVC014 03/00 A2970 1290 82 200 280/23G28 RMK AO2 PK WND 29029/1319
94908KDBQ DBQ20000309074012003/09/00 07:40:31  5-MIN KDBQ 091340Z 29022G29KT 10SM OVC014 03/00 A2970 1280 82 200 290/22G29 RMK AO2 PK WND 30029/1338
94908KDBQ DBQ20000309074512003/09/00 07:45:31  5-MIN KDBQ 091345Z 28022G29KT 10SM OVC014 03/00 A2970 1280 82 200 280/22G29 RMK AO2 PK WND 28029/1345
94908KDBQ DBQ20000309075013703/09/00 07:50:31  5-MIN KDBQ 091350Z 29021G29KT 10SM OVC014 02/00 A2971 1280 85 100 290/21G29 RMK AO2 PK WND 28029/1345 SLP065 T00220000
94908KDBQ DBQ20000309075514403/09/00 07:55:31  5-MIN KDBQ 091355Z 28023G26KT 10SM OVC014 02/00 A2972 1270 85 100 280/23G26 RMK AO2 PK WND 28029/1345 PRESRR SLP068 T00220000
94908KDBQ DBQ20000309080012003/09/00 08:00:31  5-MIN KDBQ 091400Z 28019G26KT 10SM OVC014 02/00 A2972 1260 85 100 280/19G26 RMK AO2 PK WND 29026/1400
94908KDBQ DBQ20000309080512003/09/00 08:05:31  5-MIN KDBQ 091405Z 29018G26KT 10SM OVC014 02/00 A2973 1260 85 100 280/18G26 RMK AO2 PK WND 29026/1400
94908KDBQ DBQ20000309081011803/09/00 08:10:31  5-MIN KDBQ 091410Z 29020G26KT 10SM OVC014 02/00 A2973 1250 85 0 290/20G26 RMK AO2 PK WND 29026/1406
94908KDBQ DBQ20000309081511803/09/00 08:15:31  5-MIN KDBQ 091415Z 29019G26KT 10SM OVC014 02/00 A2973 1250 85 0 290/19G26 RMK AO2 PK WND 29026/1406
94908KDBQ DBQ20000309082011803/09/00 08:20:31  5-MIN KDBQ 091420Z 29017G22KT 10SM OVC014 02/00 A2974 1250 85 0 290/17G22 RMK AO2 PK WND 29026/1406
94908KDBQ DBQ20000309082511903/09/00 08:25:31  5-MIN KDBQ 091425Z 28019G25KT 10SM OVC014 02/M01 A2975 1240 82 0 280/19G25 RMK AO2 PK WND 29026/1406
94908KDBQ DBQ20000309083011903/09/00 08:30:31  5-MIN KDBQ 091430Z 29018G25KT 10SM OVC014 02/M01 A2975 1240 82 0 290/18G25 RMK AO2 PK WND 29026/1406
94908KDBQ DBQ20000309083511903/09/00 08:35:31  5-MIN KDBQ 091435Z 29020G25KT 10SM OVC014 02/M01 A2975 1240 82 0 290/20G25 RMK AO2 PK WND 29026/1406
94908KDBQ DBQ20000309084012603/09/00 08:40:31  5-MIN KDBQ 091440Z 30018G27KT 10SM OVC014 02/M01 A2977 1220 82 0 300/18G27 RMK AO2 PK WND 28027/1438 PRESRR
94908KDBQ DBQ20000309084511903/09/00 08:45:31  5-MIN KDBQ 091445Z 30019G29KT 10SM OVC014 02/M01 A2977 1220 85 0 300/19G29 RMK AO2 PK WND 30029/1442
94908KDBQ DBQ20000309085014203/09/00 08:50:31  5-MIN KDBQ 091450Z 29014G29KT 10SM OVC014 02/M01 A2977 1210 82 0 290/14G29 RMK AO2 PK WND 30029/1442 SLP087 T00171011 51044
94908KDBQ DBQ20000309085514903/09/00 08:55:31  5-MIN KDBQ 091455Z 30017G24KT 10SM OVC014 02/M01 A2978 1210 85 0 300/17G24 RMK AO2 PK WND 30029/1442 PRESRR SLP090 T00171006 51065
94908KDBQ DBQ20000309090010803/09/00 09:00:31  5-MIN KDBQ 091500Z 28019G24KT 10SM OVC014 02/M01 A2979 1200 85 0 280/19G24 RMK AO2 PRESRR
94908KDBQ DBQ20000309090511103/09/00 09:05:31  5-MIN KDBQ 091505Z 29021G25KT 10SM OVC014 01/M01 A2979 1200 85 -100 290/21G25 RMK AO2 PRESRR
94908KDBQ DBQ20000309091010403/09/00 09:10:31  5-MIN KDBQ 091510Z 30016G25KT 10SM OVC014 01/M01 A2980 1190 85 -100 300/16G25 RMK AO2
94908KDBQ DBQ20000309091510103/09/00 09:15:31  5-MIN KDBQ 091515Z 31020G24KT 10SM OVC014 02/M02 A2980 1190 78 0 310/20G24 RMK AO2
94908KDBQ DBQ20000309092010403/09/00 09:20:31  5-MIN KDBQ 091520Z 31020G25KT 10SM OVC014 01/M03 A2980 1190 75 -100 310/20G25 RMK AO2
94908KDBQ DBQ20000309092510403/09/00 09:25:31  5-MIN KDBQ 091525Z 31016G25KT 10SM OVC016 01/M03 A2980 1190 75 -100 310/16G25 RMK AO2
94908KDBQ DBQ20000309093012203/09/00 09:30:31  5-MIN KDBQ 091530Z 31021G27KT 10SM OVC014 01/M03 A2980 1190 75 -100 310/21G27 RMK AO2 PK WND 32027/1529
94908KDBQ DBQ20000309093512203/09/00 09:35:31  5-MIN KDBQ 091535Z 31017G27KT 10SM OVC014 01/M03 A2980 1190 75 -100 310/17G27 RMK AO2 PK WND 32027/1529
94908KDBQ DBQ20000309094012203/09/00 09:40:31  5-MIN KDBQ 091540Z 32020G24KT 10SM OVC014 01/M03 A2980 1190 75 -100 320/20G24 RMK AO2 PK WND 32027/1529
94908KDBQ DBQ20000309094511603/09/00 09:45:31  5-MIN KDBQ 091545Z 32022KT 10SM OVC014 02/M03 A2980 1190 72 -100 320/22 RMK AO2 PK WND 32027/1529
94908KDBQ DBQ20000309095014303/09/00 09:50:31  5-MIN KDBQ 091550Z 31022G25KT 10SM BKN017 OVC055 02/M03 A2980 1190 72 0 310/22G25 RMK AO2 PK WND 32027/1529 SLP096 T00171028
94908KDBQ DBQ20000309095514603/09/00 09:55:31  5-MIN KDBQ 091555Z 33019G25KT 10SM BKN017 OVC055 02/M03 A2980 1190 72 -100 330/19G25 RMK AO2 PK WND 32027/1529 SLP097 T00171028
94908KDBQ DBQ20000309100012903/09/00 10:00:31  5-MIN KDBQ 091600Z 33022G28KT 10SM BKN017 OVC055 02/M03 A2980 1190 72 -100 330/22G28 RMK AO2 PK WND 32028/1557
94908KDBQ DBQ20000309100512903/09/00 10:05:31  5-MIN KDBQ 091605Z 32020G28KT 10SM BKN017 OVC055 02/M03 A2981 1180 72 -100 320/20G28 RMK AO2 PK WND 32028/1557
94908KDBQ DBQ20000309101012303/09/00 10:10:31  5-MIN KDBQ 091610Z 32019KT 10SM BKN017 OVC055 01/M03 A2981 1180 75 -100 320/19 RMK AO2 PK WND 32028/1557
94908KDBQ DBQ20000309101512903/09/00 10:15:31  5-MIN KDBQ 091615Z 34018G25KT 10SM BKN017 OVC055 02/M03 A2981 1180 72 -100 340/18G25 RMK AO2 PK WND 32028/1557
94908KDBQ DBQ20000309102013603/09/00 10:20:31  5-MIN KDBQ 091620Z 31019G25KT 10SM BKN017 OVC055 02/M03 A2983 1170 72 -100 310/19G25 RMK AO2 PK WND 32028/1557 PRESRR
94908KDBQ DBQ20000309102513003/09/00 10:25:31  5-MIN KDBQ 091625Z 32016KT 10SM BKN017 OVC055 02/M03 A2983 1160 72 -100 320/16 RMK AO2 PK WND 32028/1557 PRESRR
94908KDBQ DBQ20000309103013603/09/00 10:30:31  5-MIN KDBQ 091630Z 31019G26KT 10SM BKN017 OVC055 02/M03 A2984 1150 69 -100 310/19G26 RMK AO2 PK WND 32028/1557 PRESRR
94908KDBQ DBQ20000309103512903/09/00 10:35:31  5-MIN KDBQ 091635Z 32017G26KT 10SM BKN019 OVC055 02/M03 A2984 1150 69 -100 320/17G26 RMK AO2 PK WND 32028/1557
94908KDBQ DBQ20000309104012303/09/00 10:40:31  5-MIN KDBQ 091640Z 33017KT 10SM BKN021 OVC055 02/M03 A2984 1150 69 -100 330/17 RMK AO2 PK WND 32028/1557
94908KDBQ DBQ20000309104511603/09/00 10:45:31  5-MIN KDBQ 091645Z 33015KT 10SM OVC019 01/M04 A2985 1140 69 -200 330/15 RMK AO2 PK WND 32028/1557
94908KDBQ DBQ20000309105013903/09/00 10:50:31  5-MIN KDBQ 091650Z 32018G21KT 10SM OVC021 01/M04 A2986 1130 69 -200 320/18G21 RMK AO2 PK WND 32028/1557 SLP118 T00111039
94908KDBQ DBQ20000309105513303/09/00 10:55:31  5-MIN KDBQ 091655Z 31015KT 10SM OVC021 02/M04 A2986 1130 66 -100 310/15 RMK AO2 PK WND 32028/1557 SLP118 T00171039
94908KDBQ DBQ20000309110010403/09/00 11:00:31  5-MIN KDBQ 091700Z 32017G22KT 10SM OVC021 02/M03 A2986 1130 69 -100 320/17G22 RMK AO2
94908KDBQ DBQ20000309110510403/09/00 11:05:31  5-MIN KDBQ 091705Z 32017G22KT 10SM OVC021 02/M03 A2987 1130 69 -100 310/17G22 RMK AO2
94908KDBQ DBQ20000309111009803/09/00 11:10:31  5-MIN KDBQ 091710Z 33015KT 10SM OVC021 02/M04 A2987 1120 66 -100 330/15 RMK AO2
94908KDBQ DBQ20000309111509803/09/00 11:15:31  5-MIN KDBQ 091715Z 33015KT 10SM OVC021 01/M04 A2988 1120 69 -200 330/15 RMK AO2
94908KDBQ DBQ20000309112009803/09/00 11:20:31  5-MIN KDBQ 091720Z 34016KT 10SM OVC021 01/M04 A2988 1120 69 -200 340/16 RMK AO2
94908KDBQ DBQ20000309112509803/09/00 11:25:31  5-MIN KDBQ 091725Z 33016KT 10SM OVC021 01/M04 A2988 1110 69 -200 330/16 RMK AO2
94908KDBQ DBQ20000309113009803/09/00 11:30:31  5-MIN KDBQ 091730Z 33016KT 10SM OVC019 01/M04 A2989 1110 69 -200 330/16 RMK AO2
94908KDBQ DBQ20000309113509803/09/00 11:35:31  5-MIN KDBQ 091735Z 32016KT 10SM OVC019 01/M04 A2989 1100 72 -300 320/16 RMK AO2
94908KDBQ DBQ20000309114009803/09/00 11:40:31  5-MIN KDBQ 091740Z 31015KT 10SM OVC019 01/M04 A2990 1100 69 -200 310/15 RMK AO2
94908KDBQ DBQ20000309114509803/09/00 11:45:31  5-MIN KDBQ 091745Z 32018KT 10SM OVC019 01/M04 A2990 1100 72 -300 320/18 RMK AO2
94908KDBQ DBQ20000309115013303/09/00 11:50:31  5-MIN KDBQ 091750Z 32016KT 10SM OVC019 01/M04 A2990 1100 72 -300 320/16 RMK AO2 SLP132 T00061039 10050 20006 51065
94908KDBQ DBQ20000309115513303/09/00 11:55:31  5-MIN KDBQ 091755Z 34016KT 10SM OVC019 01/M04 A2990 1090 69 -300 330/16 RMK AO2 SLP133 T00061044 10050 20006 53040
94908KDBQ DBQ20000309120009803/09/00 12:00:31  5-MIN KDBQ 091800Z 34017KT 10SM OVC019 01/M04 A2991 1090 69 -300 340/17 RMK AO2
94908KDBQ DBQ20000309120509803/09/00 12:05:31  5-MIN KDBQ 091805Z 34015KT 10SM OVC019 01/M04 A2990 1090 69 -300 340/15 RMK AO2
94908KDBQ DBQ20000309121010403/09/00 12:10:31  5-MIN KDBQ 091810Z 32015G21KT 10SM OVC019 01/M04 A2990 1090 69 -300 320/15G21 RMK AO2
94908KDBQ DBQ20000309121510403/09/00 12:15:31  5-MIN KDBQ 091815Z 34016G21KT 10SM OVC021 01/M05 A2991 1090 66 -300 340/16G21 RMK AO2
94908KDBQ DBQ20000309122010403/09/00 12:20:31  5-MIN KDBQ 091820Z 33014G20KT 10SM OVC021 01/M05 A2991 1090 66 -300 330/14G20 RMK AO2
94908KDBQ DBQ20000309122510403/09/00 12:25:31  5-MIN KDBQ 091825Z 33016G23KT 10SM OVC021 01/M05 A2991 1090 64 -200 330/16G23 RMK AO2
94908KDBQ DBQ20000309123010403/09/00 12:30:31  5-MIN KDBQ 091830Z 33016G23KT 10SM OVC023 01/M05 A2991 1080 66 -300 330/16G23 RMK AO2
94908KDBQ DBQ20000309123509803/09/00 12:35:31  5-MIN KDBQ 091835Z 33014KT 10SM OVC023 01/M06 A2992 1080 63 -300 320/14 RMK AO2
94908KDBQ DBQ20000309124010403/09/00 12:40:31  5-MIN KDBQ 091840Z 32017G21KT 10SM OVC023 01/M06 A2992 1080 61 -300 320/17G21 RMK AO2
94908KDBQ DBQ20000309124510403/09/00 12:45:31  5-MIN KDBQ 091845Z 32018G23KT 10SM OVC023 01/M05 A2991 1090 64 -300 320/18G23 RMK AO2
94908KDBQ DBQ20000309125012103/09/00 12:50:31  5-MIN KDBQ 091850Z 31016G23KT 10SM OVC023 01/M06 A2992 1080 61 -300 310/16G23 RMK AO2 SLP138 T00111056
94908KDBQ DBQ20000309125511503/09/00 12:55:31  5-MIN KDBQ 091855Z 33015KT 10SM OVC023 01/M06 A2992 1080 61 -300 320/15 RMK AO2 SLP138 T00111056
94908KDBQ DBQ20000309130009803/09/00 13:00:31  5-MIN KDBQ 091900Z 34011KT 10SM OVC023 01/M05 A2993 1070 64 -300 340/11 RMK AO2
94908KDBQ DBQ20000309130510403/09/00 13:05:31  5-MIN KDBQ 091905Z 33015G18KT 10SM OVC023 01/M06 A2993 1070 61 -300 330/15G18 RMK AO2
94908KDBQ DBQ20000309131009803/09/00 13:10:31  5-MIN KDBQ 091910Z 33014KT 10SM OVC023 01/M06 A2993 1070 63 -300 330/14 RMK AO2
94908KDBQ DBQ20000309131509803/09/00 13:15:31  5-MIN KDBQ 091915Z 33015KT 10SM OVC023 01/M06 A2993 1070 63 -300 330/15 RMK AO2
94908KDBQ DBQ20000309132009803/09/00 13:20:31  5-MIN KDBQ 091920Z 33014KT 10SM OVC023 00/M06 A2993 1070 66 -400 330/14 RMK AO2
94908KDBQ DBQ20000309132509803/09/00 13:25:31  5-MIN KDBQ 091925Z 32012KT 10SM OVC023 01/M06 A2993 1070 63 -300 320/12 RMK AO2
94908KDBQ DBQ20000309133009803/09/00 13:30:31  5-MIN KDBQ 091930Z 31014KT 10SM OVC023 01/M06 A2994 1060 63 -300 310/14 RMK AO2
94908KDBQ DBQ20000309133509803/09/00 13:35:31  5-MIN KDBQ 091935Z 32013KT 10SM OVC023 01/M06 A2994 1060 63 -300 320/13 RMK AO2
94908KDBQ DBQ20000309134009803/09/00 13:40:31  5-MIN KDBQ 091940Z 32014KT 10SM OVC023 01/M06 A2994 1060 61 -400 320/14 RMK AO2
94908KDBQ DBQ20000309134509803/09/00 13:45:31  5-MIN KDBQ 091945Z 34015KT 10SM OVC023 00/M06 A2994 1060 63 -400 340/15 RMK AO2
94908KDBQ DBQ20000309135011503/09/00 13:50:31  5-MIN KDBQ 091950Z 33013KT 10SM OVC023 00/M06 A2995 1060 66 -400 330/13 RMK AO2 SLP147 T00001056
94908KDBQ DBQ20000309135511503/09/00 13:55:31  5-MIN KDBQ 091955Z 33013KT 10SM OVC023 00/M06 A2995 1050 63 -400 330/13 RMK AO2 SLP148 T00001061
94908KDBQ DBQ20000309140009803/09/00 14:00:31  5-MIN KDBQ 092000Z 33013KT 10SM OVC023 00/M06 A2995 1050 66 -400 330/13 RMK AO2
94908KDBQ DBQ20000309140509803/09/00 14:05:31  5-MIN KDBQ 092005Z 32010KT 10SM OVC023 00/M06 A2995 1050 63 -400 320/10 RMK AO2
94908KDBQ DBQ20000309141009803/09/00 14:10:31  5-MIN KDBQ 092010Z 31014KT 10SM OVC023 00/M06 A2995 1050 66 -400 310/14 RMK AO2
94908KDBQ DBQ20000309141509803/09/00 14:15:31  5-MIN KDBQ 092015Z 33013KT 10SM OVC023 00/M06 A2995 1050 66 -400 330/13 RMK AO2
94908KDBQ DBQ20000309142009803/09/00 14:20:31  5-MIN KDBQ 092020Z 33011KT 10SM OVC023 00/M06 A2995 1050 63 -400 330/11 RMK AO2
94908KDBQ DBQ20000309142509803/09/00 14:25:31  5-MIN KDBQ 092025Z 33014KT 10SM OVC023 00/M06 A2995 1050 63 -400 330/14 RMK AO2
94908KDBQ DBQ20000309143009903/09/00 14:30:31  5-MIN KDBQ 092030Z 32013KT 10SM OVC023 M01/M06 A2996 1050 66 -500 320/13 RMK AO2
94908KDBQ DBQ20000309143509803/09/00 14:35:31  5-MIN KDBQ 092035Z 33011KT 10SM OVC023 00/M06 A2996 1040 63 -400 330/11 RMK AO2
94908KDBQ DBQ20000309144009803/09/00 14:40:31  5-MIN KDBQ 092040Z 31009KT 10SM OVC023 00/M06 A2997 1030 63 -500 310/09 RMK AO2
94908KDBQ DBQ20000309144510603/09/00 14:45:31  5-MIN KDBQ 092045Z 31011KT 10SM OVC023 M01/M06 A2998 1030 66 -500 310/11 RMK AO2 PRESRR
94908KDBQ DBQ20000309145012203/09/00 14:50:31  5-MIN KDBQ 092050Z 33010KT 10SM OVC023 M01/M06 A2997 1030 66 -500 330/10 RMK AO2 SLP158 T10061061 53040
94908KDBQ DBQ20000309145512203/09/00 14:55:31  5-MIN KDBQ 092055Z 30009KT 10SM OVC023 M01/M06 A2998 1020 66 -500 300/09 RMK AO2 SLP162 T10061061 53026
94908KDBQ DBQ20000309150009903/09/00 15:00:31  5-MIN KDBQ 092100Z 32011KT 10SM OVC023 M01/M06 A2998 1020 66 -500 320/11 RMK AO2
94908KDBQ DBQ20000309150509903/09/00 15:05:31  5-MIN KDBQ 092105Z 31014KT 10SM OVC023 M01/M06 A2998 1020 66 -500 310/14 RMK AO2
94908KDBQ DBQ20000309151009903/09/00 15:10:31  5-MIN KDBQ 092110Z 31014KT 10SM OVC023 M01/M06 A2998 1020 66 -500 300/14 RMK AO2
94908KDBQ DBQ20000309151509903/09/00 15:15:31  5-MIN KDBQ 092115Z 31011KT 10SM OVC023 M01/M06 A2999 1020 66 -500 310/11 RMK AO2
94908KDBQ DBQ20000309152009803/09/00 15:20:31  5-MIN KDBQ 092120Z 33013KT 10SM OVC023 00/M06 A2999 1020 63 -500 330/13 RMK AO2
94908KDBQ DBQ20000309152509803/09/00 15:25:31  5-MIN KDBQ 092125Z 31012KT 10SM OVC023 00/M06 A2999 1010 63 -500 310/12 RMK AO2
94908KDBQ DBQ20000309153009903/09/00 15:30:31  5-MIN KDBQ 092130Z 32011KT 10SM OVC025 M01/M06 A2999 1010 66 -600 320/11 RMK AO2
94908KDBQ DBQ20000309153509903/09/00 15:35:31  5-MIN KDBQ 092135Z 31012KT 10SM OVC025 M01/M06 A3000 1000 66 -600 310/12 RMK AO2
94908KDBQ DBQ20000309154009803/09/00 15:40:31  5-MIN KDBQ 092140Z 32009KT 10SM OVC025 00/M06 A3001 1000 63 -500 320/09 RMK AO2
94908KDBQ DBQ20000309154509903/09/00 15:45:31  5-MIN KDBQ 092145Z 33009KT 10SM OVC025 M01/M06 A3001 1000 66 -600 330/09 RMK AO2
94908KDBQ DBQ20000309155011503/09/00 15:50:31  5-MIN KDBQ 092150Z 33012KT 10SM OVC025 M01/M06 A3001 990 66 -600 330/12 RMK AO2 SLP173 T10061061
94908KDBQ DBQ20000309155511503/09/00 15:55:31  5-MIN KDBQ 092155Z 32010KT 10SM OVC025 M01/M07 A3002 990 63 -600 320/10 RMK AO2 SLP174 T10061067
94908KDBQ DBQ20000309160009803/09/00 16:00:31  5-MIN KDBQ 092200Z 34011KT 10SM OVC025 M01/M07 A3002 990 63 -600 340/11 RMK AO2
94908KDBQ DBQ20000309160509803/09/00 16:05:31  5-MIN KDBQ 092205Z 33008KT 10SM OVC025 M01/M07 A3002 990 63 -600 330/08 RMK AO2
94908KDBQ DBQ20000309161009803/09/00 16:10:31  5-MIN KDBQ 092210Z 33010KT 10SM OVC025 M01/M07 A3002 980 63 -600 330/10 RMK AO2
94908KDBQ DBQ20000309161509803/09/00 16:15:31  5-MIN KDBQ 092215Z 33009KT 10SM OVC025 M01/M07 A3003 980 63 -600 330/09 RMK AO2
94908KDBQ DBQ20000309162009803/09/00 16:20:31  5-MIN KDBQ 092220Z 34010KT 10SM OVC025 M01/M07 A3003 980 66 -700 340/10 RMK AO2
94908KDBQ DBQ20000309162509803/09/00 16:25:31  5-MIN KDBQ 092225Z 33009KT 10SM OVC025 M01/M07 A3003 980 66 -700 330/09 RMK AO2
94908KDBQ DBQ20000309163009803/09/00 16:30:31  5-MIN KDBQ 092230Z 33009KT 10SM OVC025 M01/M07 A3003 980 63 -600 330/09 RMK AO2
94908KDBQ DBQ20000309163509803/09/00 16:35:31  5-MIN KDBQ 092235Z 33012KT 10SM OVC025 M01/M07 A3003 970 63 -600 330/12 RMK AO2
94908KDBQ DBQ20000309164009803/09/00 16:40:31  5-MIN KDBQ 092240Z 32010KT 10SM OVC025 M01/M07 A3004 970 63 -600 320/10 RMK AO2
94908KDBQ DBQ20000309164509803/09/00 16:45:31  5-MIN KDBQ 092245Z 33010KT 10SM OVC025 M01/M07 A3004 970 66 -700 330/10 RMK AO2
94908KDBQ DBQ20000309165011503/09/00 16:50:31  5-MIN KDBQ 092250Z 32010KT 10SM OVC025 M01/M07 A3004 970 66 -700 320/10 RMK AO2 SLP182 T10111067
94908KDBQ DBQ20000309165511503/09/00 16:55:31  5-MIN KDBQ 092255Z 32008KT 10SM OVC025 M01/M07 A3004 970 66 -700 320/08 RMK AO2 SLP184 T10111067
94908KDBQ DBQ20000309170009803/09/00 17:00:31  5-MIN KDBQ 092300Z 33010KT 10SM OVC025 M01/M07 A3005 960 66 -700 320/10 RMK AO2
94908KDBQ DBQ20000309170509803/09/00 17:05:31  5-MIN KDBQ 092305Z 33010KT 10SM OVC025 M01/M07 A3005 960 66 -700 330/10 RMK AO2
94908KDBQ DBQ20000309171009803/09/00 17:10:31  5-MIN KDBQ 092310Z 32009KT 10SM OVC025 M01/M07 A3006 950 66 -700 320/09 RMK AO2
94908KDBQ DBQ20000309171509803/09/00 17:15:31  5-MIN KDBQ 092315Z 31010KT 10SM OVC025 M01/M07 A3006 950 66 -700 310/10 RMK AO2
94908KDBQ DBQ20000309172009803/09/00 17:20:31  5-MIN KDBQ 092320Z 32010KT 10SM OVC025 M01/M07 A3006 950 66 -700 320/10 RMK AO2
94908KDBQ DBQ20000309172509803/09/00 17:25:31  5-MIN KDBQ 092325Z 33008KT 10SM OVC025 M01/M07 A3006 950 66 -700 330/08 RMK AO2
94908KDBQ DBQ20000309173009803/09/00 17:30:31  5-MIN KDBQ 092330Z 34008KT 10SM OVC025 M01/M07 A3006 950 66 -700 340/08 RMK AO2
94908KDBQ DBQ20000309173509803/09/00 17:35:31  5-MIN KDBQ 092335Z 32008KT 10SM OVC025 M01/M07 A3007 940 66 -700 320/08 RMK AO2
94908KDBQ DBQ20000309174009803/09/00 17:40:31  5-MIN KDBQ 092340Z 32009KT 10SM OVC025 M01/M07 A3007 940 66 -700 320/09 RMK AO2
94908KDBQ DBQ20000309174509803/09/00 17:45:31  5-MIN KDBQ 092345Z 33009KT 10SM OVC025 M01/M07 A3007 940 66 -700 330/09 RMK AO2
94908KDBQ DBQ20000309175013303/09/00 17:50:31  5-MIN KDBQ 092350Z 33009KT 10SM OVC025 M01/M07 A3007 940 66 -700 330/09 RMK AO2 SLP195 T10111067 10011 21011 53026
94908KDBQ DBQ20000309175513303/09/00 17:55:31  5-MIN KDBQ 092355Z 34008KT 10SM OVC025 M01/M07 A3007 940 66 -700 340/08 RMK AO2 SLP194 T10111067 10011 21011 51030
94908KDBQ DBQ20000309180009803/09/00 18:00:31  5-MIN KDBQ 100000Z 33008KT 10SM OVC025 M01/M07 A3007 940 66 -700 320/08 RMK AO2
94908KDBQ DBQ20000309180509803/09/00 18:05:31  5-MIN KDBQ 100005Z 33008KT 10SM OVC025 M01/M07 A3008 930 63 -700 330/08 RMK AO2
94908KDBQ DBQ20000309181009803/09/00 18:10:31  5-MIN KDBQ 100010Z 32008KT 10SM OVC025 M01/M07 A3008 930 63 -700 320/08 RMK AO2
94908KDBQ DBQ20000309181509803/09/00 18:15:31  5-MIN KDBQ 100015Z 33008KT 10SM OVC025 M01/M07 A3008 930 63 -700 320/08 RMK AO2
94908KDBQ DBQ20000309182009803/09/00 18:20:31  5-MIN KDBQ 100020Z 33009KT 10SM OVC025 M01/M07 A3009 920 63 -700 330/09 RMK AO2
94908KDBQ DBQ20000309182509803/09/00 18:25:31  5-MIN KDBQ 100025Z 34008KT 10SM OVC025 M01/M07 A3009 920 66 -700 340/08 RMK AO2
94908KDBQ DBQ20000309183009803/09/00 18:30:31  5-MIN KDBQ 100030Z 33009KT 10SM OVC025 M01/M07 A3009 920 66 -700 330/09 RMK AO2
94908KDBQ DBQ20000309183509803/09/00 18:35:31  5-MIN KDBQ 100035Z 33008KT 10SM OVC025 M01/M07 A3010 920 66 -700 330/08 RMK AO2
94908KDBQ DBQ20000309184009803/09/00 18:40:31  5-MIN KDBQ 100040Z 33008KT 10SM OVC025 M02/M07 A3010 920 69 -800 330/08 RMK AO2
94908KDBQ DBQ20000309184509803/09/00 18:45:31  5-MIN KDBQ 100045Z 34009KT 10SM OVC025 M02/M07 A3010 910 66 -800 330/09 RMK AO2
94908KDBQ DBQ20000309185011503/09/00 18:50:31  5-MIN KDBQ 100050Z 33010KT 10SM OVC025 M02/M07 A3010 910 66 -800 330/10 RMK AO2 SLP204 T10171072
94908KDBQ DBQ20000309185511503/09/00 18:55:31  5-MIN KDBQ 100055Z 33010KT 10SM OVC025 M02/M07 A3010 920 66 -800 330/10 RMK AO2 SLP204 T10171072
94908KDBQ DBQ20000309190009803/09/00 19:00:31  5-MIN KDBQ 100100Z 33008KT 10SM OVC025 M02/M07 A3010 910 66 -800 330/08 RMK AO2
94908KDBQ DBQ20000309190509803/09/00 19:05:31  5-MIN KDBQ 100105Z 33009KT 10SM OVC025 M02/M07 A3010 910 66 -800 330/09 RMK AO2
94908KDBQ DBQ20000309191009803/09/00 19:10:31  5-MIN KDBQ 100110Z 33008KT 10SM OVC025 M02/M07 A3010 910 66 -800 330/08 RMK AO2
94908KDBQ DBQ20000309191509803/09/00 19:15:31  5-MIN KDBQ 100115Z 34009KT 10SM OVC025 M02/M07 A3011 910 66 -800 340/09 RMK AO2
94908KDBQ DBQ20000309192009803/09/00 19:20:31  5-MIN KDBQ 100120Z 33009KT 10SM OVC025 M02/M07 A3011 910 69 -800 330/09 RMK AO2
94908KDBQ DBQ20000309192509803/09/00 19:25:31  5-MIN KDBQ 100125Z 35008KT 10SM OVC025 M02/M07 A3010 910 69 -800 350/08 RMK AO2
94908KDBQ DBQ20000309193009803/09/00 19:30:31  5-MIN KDBQ 100130Z 33006KT 10SM OVC025 M02/M07 A3011 910 69 -800 330/06 RMK AO2
94908KDBQ DBQ20000309193509803/09/00 19:35:31  5-MIN KDBQ 100135Z 35008KT 10SM OVC025 M02/M07 A3010 910 69 -800 350/08 RMK AO2
94908KDBQ DBQ20000309194009803/09/00 19:40:31  5-MIN KDBQ 100140Z 35009KT 10SM OVC025 M02/M07 A3010 910 66 -800 350/09 RMK AO2
94908KDBQ DBQ20000309194509803/09/00 19:45:31  5-MIN KDBQ 100145Z 34009KT 10SM OVC025 M02/M07 A3010 910 66 -800 340/09 RMK AO2
94908KDBQ DBQ20000309195011503/09/00 19:50:31  5-MIN KDBQ 100150Z 35010KT 10SM OVC025 M02/M07 A3010 910 66 -800 350/10 RMK AO2 SLP205 T10171072
94908KDBQ DBQ20000309195511503/09/00 19:55:31  5-MIN KDBQ 100155Z 34008KT 10SM OVC025 M02/M07 A3011 900 66 -800 340/08 RMK AO2 SLP208 T10171072
94908KDBQ DBQ20000309200009803/09/00 20:00:31  5-MIN KDBQ 100200Z 35009KT 10SM OVC025 M02/M07 A3011 900 66 -800 350/09 RMK AO2
94908KDBQ DBQ20000309200509803/09/00 20:05:31  5-MIN KDBQ 100205Z 36008KT 10SM OVC025 M02/M07 A3011 900 66 -800 360/08 RMK AO2
94908KDBQ DBQ20000309201009803/09/00 20:10:31  5-MIN KDBQ 100210Z 35008KT 10SM OVC025 M02/M07 A3011 900 69 -800 350/08 RMK AO2
94908KDBQ DBQ20000309201509803/09/00 20:15:31  5-MIN KDBQ 100215Z 36007KT 10SM OVC025 M02/M07 A3010 910 66 -800 360/07 RMK AO2
94908KDBQ DBQ20000309202009803/09/00 20:20:31  5-MIN KDBQ 100220Z 36011KT 10SM OVC025 M02/M07 A3011 910 66 -800 360/11 RMK AO2
94908KDBQ DBQ20000309202509803/09/00 20:25:31  5-MIN KDBQ 100225Z 36010KT 10SM OVC025 M02/M07 A3010 910 66 -800 360/10 RMK AO2
94908KDBQ DBQ20000309203009803/09/00 20:30:31  5-MIN KDBQ 100230Z 01009KT 10SM OVC025 M02/M07 A3010 910 66 -800 010/09 RMK AO2
94908KDBQ DBQ20000309203509803/09/00 20:35:31  5-MIN KDBQ 100235Z 02009KT 10SM OVC025 M02/M07 A3011 900 66 -800 020/09 RMK AO2
94908KDBQ DBQ20000309204009803/09/00 20:40:31  5-MIN KDBQ 100240Z 02011KT 10SM OVC025 M02/M07 A3011 910 66 -800 020/11 RMK AO2
94908KDBQ DBQ20000309204509803/09/00 20:45:31  5-MIN KDBQ 100245Z 02011KT 10SM OVC025 M02/M07 A3011 910 66 -800 020/11 RMK AO2
94908KDBQ DBQ20000309205013103/09/00 20:50:31  5-MIN KDBQ 100250Z AUTO 03009KT 10SM OVC025 M02/M07 A3011 900 66 -800 030/09 RMK AO2 SLP208 T10171072 51030 TSNO
94908KDBQ DBQ20000309205513103/09/00 20:55:31  5-MIN KDBQ 100255Z AUTO 01009KT 10SM OVC025 M02/M07 A3011 900 66 -800 010/09 RMK AO2 SLP210 T10171072 51014 TSNO
94908KDBQ DBQ20000309210010803/09/00 21:00:31  5-MIN KDBQ 100300Z AUTO 02011KT 10SM OVC025 M02/M07 A3012 900 66 -800 020/11 RMK AO2 TSNO
94908KDBQ DBQ20000309210510803/09/00 21:05:31  5-MIN KDBQ 100305Z AUTO 02008KT 10SM OVC025 M02/M07 A3012 900 66 -800 020/08 RMK AO2 TSNO
94908KDBQ DBQ20000309211010803/09/00 21:10:31  5-MIN KDBQ 100310Z AUTO 03008KT 10SM OVC027 M02/M07 A3012 900 66 -800 030/08 RMK AO2 TSNO
94908KDBQ DBQ20000309211510803/09/00 21:15:31  5-MIN KDBQ 100315Z AUTO 03010KT 10SM OVC027 M02/M07 A3012 900 66 -800 030/10 RMK AO2 TSNO
94908KDBQ DBQ20000309212011503/09/00 21:20:31  5-MIN KDBQ 100320Z AUTO 02010KT 10SM BKN027 OVC035 M02/M08 A3012 900 63 -800 020/10 RMK AO2 TSNO
94908KDBQ DBQ20000309212511503/09/00 21:25:31  5-MIN KDBQ 100325Z AUTO 03010KT 10SM BKN029 OVC035 M02/M08 A3012 900 63 -800 030/10 RMK AO2 TSNO
94908KDBQ DBQ20000309213010803/09/00 21:30:31  5-MIN KDBQ 100330Z AUTO 02009KT 10SM OVC031 M02/M08 A3012 900 63 -800 020/09 RMK AO2 TSNO
94908KDBQ DBQ20000309213510803/09/00 21:35:31  5-MIN KDBQ 100335Z AUTO 02008KT 10SM OVC031 M02/M08 A3012 890 63 -800 010/08 RMK AO2 TSNO
94908KDBQ DBQ20000309214010803/09/00 21:40:31  5-MIN KDBQ 100340Z AUTO 01009KT 10SM OVC031 M02/M07 A3012 900 66 -800 010/09 RMK AO2 TSNO
94908KDBQ DBQ20000309214511503/09/00 21:45:31  5-MIN KDBQ 100345Z AUTO 02008KT 10SM FEW025 OVC033 M02/M07 A3012 900 66 -800 020/08 RMK AO2 TSNO
94908KDBQ DBQ20000309215014803/09/00 21:50:31  5-MIN KDBQ 100350Z AUTO 04009KT 010V080 10SM SCT025 OVC033 M02/M07 A3012 890 66 -800 040/09 010V080 RMK AO2 SLP213 T10171072 TSNO
94908KDBQ DBQ20000309215513203/09/00 21:55:31  5-MIN KDBQ 100355Z AUTO 02010KT 10SM BKN028 OVC033 M02/M07 A3012 890 66 -800 020/10 RMK AO2 SLP212 T10171072 TSNO
94908KDBQ DBQ20000309220011503/09/00 22:00:31  5-MIN KDBQ 100400Z AUTO 04009KT 10SM BKN028 OVC033 M02/M08 A3012 890 63 -800 040/09 RMK AO2 TSNO
94908KDBQ DBQ20000309220511503/09/00 22:05:31  5-MIN KDBQ 100405Z AUTO 03009KT 10SM BKN028 OVC033 M02/M08 A3012 900 63 -800 030/09 RMK AO2 TSNO
94908KDBQ DBQ20000309221011503/09/00 22:10:31  5-MIN KDBQ 100410Z AUTO 04009KT 10SM BKN026 OVC033 M02/M08 A3012 890 66 -900 040/09 RMK AO2 TSNO
94908KDBQ DBQ20000309221510803/09/00 22:15:31  5-MIN KDBQ 100415Z AUTO 04009KT 10SM OVC028 M02/M08 A3012 890 63 -800 030/09 RMK AO2 TSNO
94908KDBQ DBQ20000309222010803/09/00 22:20:31  5-MIN KDBQ 100420Z AUTO 03009KT 10SM OVC028 M02/M08 A3012 890 66 -900 030/09 RMK AO2 TSNO
94908KDBQ DBQ20000309222510803/09/00 22:25:31  5-MIN KDBQ 100425Z AUTO 03009KT 10SM OVC028 M02/M08 A3013 890 66 -900 020/09 RMK AO2 TSNO
94908KDBQ DBQ20000309223010803/09/00 22:30:31  5-MIN KDBQ 100430Z AUTO 04007KT 10SM OVC028 M02/M08 A3013 890 66 -900 040/07 RMK AO2 TSNO
94908KDBQ DBQ20000309223510803/09/00 22:35:31  5-MIN KDBQ 100435Z AUTO 04008KT 10SM OVC026 M02/M08 A3013 890 66 -900 040/08 RMK AO2 TSNO
94908KDBQ DBQ20000309224010803/09/00 22:40:31  5-MIN KDBQ 100440Z AUTO 05009KT 10SM OVC026 M02/M08 A3012 890 66 -900 040/09 RMK AO2 TSNO
94908KDBQ DBQ20000309224510803/09/00 22:45:31  5-MIN KDBQ 100445Z AUTO 03010KT 10SM OVC026 M02/M08 A3012 890 66 -900 030/10 RMK AO2 TSNO
94908KDBQ DBQ20000309225012503/09/00 22:50:31  5-MIN KDBQ 100450Z AUTO 03009KT 10SM OVC024 M02/M08 A3012 900 66 -900 030/09 RMK AO2 SLP212 T10221078 TSNO
94908KDBQ DBQ20000309225512503/09/00 22:55:31  5-MIN KDBQ 100455Z AUTO 05006KT 10SM OVC024 M02/M07 A3012 900 69 -900 050/06 RMK AO2 SLP211 T10221072 TSNO
94908KDBQ DBQ20000309230010803/09/00 23:00:31  5-MIN KDBQ 100500Z AUTO 05006KT 10SM OVC024 M02/M08 A3012 890 66 -900 050/06 RMK AO2 TSNO
94908KDBQ DBQ20000309230510803/09/00 23:05:31  5-MIN KDBQ 100505Z AUTO 02005KT 10SM OVC024 M02/M08 A3012 890 66 -900 020/05 RMK AO2 TSNO
94908KDBQ DBQ20000309231010803/09/00 23:10:31  5-MIN KDBQ 100510Z AUTO 03009KT 10SM OVC024 M02/M08 A3013 890 66 -900 030/09 RMK AO2 TSNO
94908KDBQ DBQ20000309231510803/09/00 23:15:31  5-MIN KDBQ 100515Z AUTO 05008KT 10SM OVC024 M02/M08 A3013 890 63 -900 050/08 RMK AO2 TSNO
94908KDBQ DBQ20000309232010803/09/00 23:20:31  5-MIN KDBQ 100520Z AUTO 03005KT 10SM OVC024 M02/M08 A3013 890 66 -900 030/05 RMK AO2 TSNO
94908KDBQ DBQ20000309232510803/09/00 23:25:31  5-MIN KDBQ 100525Z AUTO 01005KT 10SM OVC024 M02/M08 A3013 890 66 -900 010/05 RMK AO2 TSNO
94908KDBQ DBQ20000309233010803/09/00 23:30:31  5-MIN KDBQ 100530Z AUTO 01007KT 10SM OVC024 M02/M08 A3013 890 66 -900 010/07 RMK AO2 TSNO
94908KDBQ DBQ20000309233510803/09/00 23:35:31  5-MIN KDBQ 100535Z AUTO 02007KT 10SM OVC024 M02/M08 A3013 890 66 -900 020/07 RMK AO2 TSNO
94908KDBQ DBQ20000309234010803/09/00 23:40:31  5-MIN KDBQ 100540Z AUTO 04006KT 10SM OVC024 M02/M08 A3013 890 66 -900 030/06 RMK AO2 TSNO
94908KDBQ DBQ20000309234510803/09/00 23:45:31  5-MIN KDBQ 100545Z AUTO 03007KT 10SM OVC024 M02/M08 A3013 890 66 -900 030/07 RMK AO2 TSNO
94908KDBQ DBQ20000309235015303/09/00 23:50:31  5-MIN KDBQ 100550Z AUTO 03007KT 10SM OVC024 M02/M08 A3013 890 66 -900 030/07 RMK AO2 SLP215 T10221078 11011 21022 401221022 51014 TSNO
94908KDBQ DBQ20000309235515303/09/00 23:55:31  5-MIN KDBQ 100555Z AUTO 05008KT 10SM OVC024 M02/M08 A3013 890 66 -900 050/08 RMK AO2 SLP215 T10221078 11011 21022 401221022 53004 TSNO
94908KDBQ DBQ20000310000010803/10/00 00:00:31  5-MIN KDBQ 100600Z AUTO 03007KT 10SM OVC024 M02/M08 A3013 890 66 -900 030/07 RMK AO2 TSNO
94908KDBQ DBQ20000310000510803/10/00 00:05:31  5-MIN KDBQ 100605Z AUTO 02007KT 10SM OVC026 M02/M08 A3013 890 66 -900 020/07 RMK AO2 TSNO
94908KDBQ DBQ20000310001011503/10/00 00:10:31  5-MIN KDBQ 100610Z AUTO 02006KT 10SM BKN026 OVC037 M02/M08 A3013 890 66 -900 020/06 RMK AO2 TSNO
94908KDBQ DBQ20000310001512203/10/00 00:15:31  5-MIN KDBQ 100615Z AUTO 02007KT 10SM FEW022 BKN028 OVC035 M02/M08 A3013 890 66 -900 020/07 RMK AO2 TSNO
94908KDBQ DBQ20000310002012203/10/00 00:20:31  5-MIN KDBQ 100620Z AUTO 03007KT 10SM FEW022 BKN028 OVC035 M02/M08 A3013 890 66 -900 030/07 RMK AO2 TSNO
94908KDBQ DBQ20000310002511503/10/00 00:25:31  5-MIN KDBQ 100625Z AUTO 03006KT 10SM BKN028 OVC035 M02/M08 A3013 880 66 -900 030/06 RMK AO2 TSNO
94908KDBQ DBQ20000310003011503/10/00 00:30:31  5-MIN KDBQ 100630Z AUTO 03005KT 10SM BKN028 OVC035 M02/M08 A3013 880 66 -900 030/05 RMK AO2 TSNO
94908KDBQ DBQ20000310003511503/10/00 00:35:31  5-MIN KDBQ 100635Z AUTO 02006KT 10SM BKN026 OVC035 M02/M08 A3013 880 66 -900 020/06 RMK AO2 TSNO
94908KDBQ DBQ20000310004011503/10/00 00:40:31  5-MIN KDBQ 100640Z AUTO 02005KT 10SM BKN026 OVC035 M02/M08 A3014 880 66 -900 020/05 RMK AO2 TSNO
94908KDBQ DBQ20000310004511503/10/00 00:45:31  5-MIN KDBQ 100645Z AUTO 02006KT 10SM BKN022 OVC026 M02/M08 A3013 880 66 -900 020/06 RMK AO2 TSNO
94908KDBQ DBQ20000310005013203/10/00 00:50:31  5-MIN KDBQ 100650Z AUTO 02005KT 10SM BKN022 OVC026 M02/M08 A3014 880 66 -900 010/05 RMK AO2 SLP219 T10221078 TSNO
94908KDBQ DBQ20000310005513203/10/00 00:55:31  5-MIN KDBQ 100655Z AUTO 02006KT 10SM BKN022 OVC026 M02/M08 A3014 880 66 -900 010/06 RMK AO2 SLP219 T10221078 TSNO
94908KDBQ DBQ20000310010010803/10/00 01:00:31  5-MIN KDBQ 100700Z AUTO 01005KT 10SM OVC022 M02/M07 A3014 880 69 -900 010/05 RMK AO2 TSNO
94908KDBQ DBQ20000310010510803/10/00 01:05:31  5-MIN KDBQ 100705Z AUTO 03006KT 10SM OVC022 M02/M07 A3014 880 69 -900 020/06 RMK AO2 TSNO
94908KDBQ DBQ20000310011012303/10/00 01:10:31  5-MIN KDBQ 100710Z AUTO 02006KT 8SM -SN OVC022 M02/M07 A3014 870 72 -900 020/06 RMK AO2 SNB08 P0000 TSNO
94908KDBQ DBQ20000310011513003/10/00 01:15:31  5-MIN KDBQ 100715Z AUTO 02007KT 5SM -SN BKN022 OVC030 M02/M07 A3014 870 72 -900 020/07 RMK AO2 SNB08 P0000 TSNO
94908KDBQ DBQ20000310012013103/10/00 01:20:31  5-MIN KDBQ 100720Z AUTO 02007KT 5SM -SN BKN022 OVC030 M03/M06 A3014 880 78 -1000 020/07 RMK AO2 SNB08 P0000 TSNO
94908KDBQ DBQ20000310012513103/10/00 01:25:31  5-MIN KDBQ 100725Z AUTO 03006KT 5SM -SN SCT022 OVC030 M03/M06 A3014 870 78 -1000 030/06 RMK AO2 SNB08 P0000 TSNO
94908KDBQ DBQ20000310013013103/10/00 01:30:31  5-MIN KDBQ 100730Z AUTO 03005KT 5SM -SN SCT022 OVC030 M03/M06 A3015 870 78 -1000 030/05 RMK AO2 SNB08 P0000 TSNO
94908KDBQ DBQ20000310013513103/10/00 01:35:31  5-MIN KDBQ 100735Z AUTO 02006KT 4SM -SN SCT022 OVC030 M03/M06 A3014 870 78 -1000 010/06 RMK AO2 SNB08 P0000 TSNO
94908KDBQ DBQ20000310014013103/10/00 01:40:31  5-MIN KDBQ 100740Z AUTO 01005KT 4SM -SN SCT024 OVC030 M03/M06 A3015 870 81 -1000 010/05 RMK AO2 SNB08 P0000 TSNO
94908KDBQ DBQ20000310014513403/10/00 01:45:31  5-MIN KDBQ 100745Z AUTO 02007KT 6SM -SN BR BKN024 OVC030 M03/M06 A3014 870 85 -1100 010/07 RMK AO2 SNB08 P0000 TSNO
94908KDBQ DBQ20000310015014803/10/00 01:50:31  5-MIN KDBQ 100750Z AUTO 02006KT 7SM -SN SCT024 OVC032 M03/M06 A3014 870 85 -1100 020/06 RMK AO2 SNB08 SLP221 P0000 T10331056 TSNO
94908KDBQ DBQ20000310015514803/10/00 01:55:31  5-MIN KDBQ 100755Z AUTO 02006KT 7SM -SN SCT024 OVC032 M03/M06 A3014 880 85 -1100 020/06 RMK AO2 SNB08 SLP221 P0000 T10331056 TSNO
94908KDBQ DBQ20000310020012803/10/00 02:00:31  5-MIN KDBQ 100800Z AUTO 02006KT 5SM -SN BR SCT024 OVC032 M03/M05 A3014 870 85 -1000 010/06 RMK AO2 P0000 TSNO
94908KDBQ DBQ20000310020512803/10/00 02:05:31  5-MIN KDBQ 100805Z AUTO 01005KT 4SM -SN BR SCT024 OVC032 M03/M05 A3014 870 88 -1100 010/05 RMK AO2 P0000 TSNO
94908KDBQ DBQ20000310021012803/10/00 02:10:31  5-MIN KDBQ 100810Z AUTO 01006KT 4SM -SN BR BKN024 OVC032 M03/M05 A3014 870 88 -1100 010/06 RMK AO2 P0000 TSNO
94908KDBQ DBQ20000310021512803/10/00 02:15:31  5-MIN KDBQ 100815Z AUTO 02006KT 5SM -SN BR BKN024 OVC032 M03/M05 A3014 880 88 -1100 020/06 RMK AO2 P0000 TSNO
94908KDBQ DBQ20000310022012803/10/00 02:20:31  5-MIN KDBQ 100820Z AUTO 02006KT 6SM -SN BR BKN024 OVC032 M03/M05 A3014 880 88 -1100 020/06 RMK AO2 P0000 TSNO
94908KDBQ DBQ20000310022512803/10/00 02:25:31  5-MIN KDBQ 100825Z AUTO 02007KT 6SM -SN BR BKN024 OVC032 M03/M05 A3014 880 88 -1100 020/07 RMK AO2 P0000 TSNO
94908KDBQ DBQ20000310023012803/10/00 02:30:31  5-MIN KDBQ 100830Z AUTO 01006KT 5SM -SN BR BKN024 OVC032 M03/M05 A3014 880 88 -1100 010/06 RMK AO2 P0000 TSNO
94908KDBQ DBQ20000310023512803/10/00 02:35:31  5-MIN KDBQ 100835Z AUTO 02005KT 5SM -SN BR BKN024 OVC032 M03/M05 A3014 880 88 -1100 020/05 RMK AO2 P0000 TSNO
94908KDBQ DBQ20000310024012803/10/00 02:40:31  5-MIN KDBQ 100840Z AUTO 02006KT 6SM -SN BR BKN024 OVC032 M03/M05 A3014 880 88 -1100 020/06 RMK AO2 P0000 TSNO
94908KDBQ DBQ20000310024512803/10/00 02:45:31  5-MIN KDBQ 100845Z AUTO 02006KT 6SM -SN BR BKN024 OVC032 M03/M05 A3014 880 88 -1100 020/06 RMK AO2 P0000 TSNO
94908KDBQ DBQ20000310025015403/10/00 02:50:31  5-MIN KDBQ 100850Z AUTO 02006KT 7SM -SN BKN024 OVC032 M03/M05 A3014 880 88 -1100 020/06 RMK AO2 SLP219 P0000 60000 T10331050 53004 TSNO
94908KDBQ DBQ20000310025515703/10/00 02:55:31  5-MIN KDBQ 100855Z AUTO 02006KT 5SM -SN BR BKN024 OVC034 M03/M04 A3014 880 92 -1100 020/06 RMK AO2 SLP219 P0000 60000 T10331044 50003 TSNO
94908KDBQ DBQ20000310030012803/10/00 03:00:31  5-MIN KDBQ 100900Z AUTO 02006KT 5SM -SN BR BKN024 OVC034 M03/M05 A3014 880 88 -1100 020/06 RMK AO2 P0000 TSNO
94908KDBQ DBQ20000310030512803/10/00 03:05:31  5-MIN KDBQ 100905Z AUTO 02007KT 5SM -SN BR SCT024 OVC034 M03/M05 A3014 880 88 -1100 020/07 RMK AO2 P0000 TSNO
94908KDBQ DBQ20000310031013503/10/00 03:10:31  5-MIN KDBQ 100910Z AUTO 02007KT 4SM -SN BR FEW021 SCT026 OVC034 M03/M04 A3014 880 92 -1100 020/07 RMK AO2 P0000 TSNO
94908KDBQ DBQ20000310031512803/10/00 03:15:31  5-MIN KDBQ 100915Z AUTO 02008KT 4SM -SN BR SCT026 OVC034 M03/M05 A3013 880 88 -1100 020/08 RMK AO2 P0000 TSNO
94908KDBQ DBQ20000310032013503/10/00 03:20:31  5-MIN KDBQ 100920Z AUTO 02008KT 4SM -SN BR SCT028 BKN034 OVC075 M03/M05 A3013 880 88 -1100 020/08 RMK AO2 P0000 TSNO
94908KDBQ DBQ20000310032513503/10/00 03:25:31  5-MIN KDBQ 100925Z AUTO 03008KT 5SM -SN BR FEW028 BKN034 OVC110 M03/M05 A3014 880 88 -1100 030/08 RMK AO2 P0000 TSNO
94908KDBQ DBQ20000310033013503/10/00 03:30:31  5-MIN KDBQ 100930Z AUTO 03007KT 6SM -SN BR SCT028 BKN034 OVC110 M04/M06 A3013 880 88 -1100 030/07 RMK AO2 P0000 TSNO
94908KDBQ DBQ20000310033513203/10/00 03:35:31  5-MIN KDBQ 100935Z AUTO 02007KT 7SM -SN FEW009 BKN028 OVC075 M04/M06 A3014 880 88 -1100 020/07 RMK AO2 P0000 TSNO
94908KDBQ DBQ20000310034013203/10/00 03:40:31  5-MIN KDBQ 100940Z AUTO 03009KT 8SM -SN SCT009 BKN028 OVC075 M04/M05 A3014 880 92 -1100 030/09 RMK AO2 P0000 TSNO
94908KDBQ DBQ20000310034513403/10/00 03:45:31  5-MIN KDBQ 100945Z AUTO 03009KT 9SM SCT011 BKN021 OVC075 M04/M06 A3014 880 88 -1100 030/09 RMK AO2 SNE42 P0000 TSNO
94908KDBQ DBQ20000310035015203/10/00 03:50:31  5-MIN KDBQ 100950Z AUTO 04008KT 10SM FEW008 BKN020 OVC029 M04/M06 A3014 880 85 -1100 040/08 RMK AO2 SNE42 SLP220 P0000 T10391061 TSNO
94908KDBQ DBQ20000310035515203/10/00 03:55:31  5-MIN KDBQ 100955Z AUTO 04008KT 10SM FEW008 BKN020 OVC029 M04/M06 A3014 880 88 -1200 040/08 RMK AO2 SNE42 SLP221 P0000 T10441061 TSNO
94908KDBQ DBQ20000310040012303/10/00 04:00:31  5-MIN KDBQ 101000Z AUTO 04008KT 10SM FEW008 BKN020 OVC029 M04/M06 A3014 870 88 -1200 040/08 RMK AO2 TSNO
94908KDBQ DBQ20000310040512303/10/00 04:05:31  5-MIN KDBQ 101005Z AUTO 03007KT 10SM FEW008 BKN020 OVC029 M04/M06 A3015 870 88 -1200 030/07 RMK AO2 TSNO
94908KDBQ DBQ20000310041012203/10/00 04:10:31  5-MIN KDBQ 101010Z AUTO 03009KT 9SM FEW015 BKN022 OVC027 M04/M06 A3015 870 88 -1200 020/09 RMK AO2 TSNO
94908KDBQ DBQ20000310041513103/10/00 04:15:31  5-MIN KDBQ 101015Z AUTO 02010KT 7SM -SN BKN022 OVC027 M04/M06 A3015 870 88 -1200 020/10 RMK AO2 SNB11 P0000 TSNO
94908KDBQ DBQ20000310042013103/10/00 04:20:31  5-MIN KDBQ 101020Z AUTO 03008KT 7SM -SN BKN022 OVC029 M04/M07 A3015 870 84 -1200 030/08 RMK AO2 SNB11 P0000 TSNO
94908KDBQ DBQ20000310042513003/10/00 04:25:31  5-MIN KDBQ 101025Z AUTO 03009KT 9SM BKN022 OVC029 M04/M07 A3015 860 84 -1200 020/09 RMK AO2 SNB11E22 P0000 TSNO
94908KDBQ DBQ20000310043013103/10/00 04:30:31  5-MIN KDBQ 101030Z AUTO 04008KT 10SM BKN022 OVC031 M04/M07 A3015 860 84 -1200 040/08 RMK AO2 SNB11E22 P0000 TSNO
94908KDBQ DBQ20000310043513103/10/00 04:35:31  5-MIN KDBQ 101035Z AUTO 04007KT 10SM BKN022 OVC031 M04/M07 A3016 860 84 -1200 040/07 RMK AO2 SNB11E22 P0000 TSNO
94908KDBQ DBQ20000310044013103/10/00 04:40:31  5-MIN KDBQ 101040Z AUTO 04009KT 10SM BKN024 OVC031 M04/M07 A3016 860 84 -1200 030/09 RMK AO2 SNB11E22 P0000 TSNO
94908KDBQ DBQ20000310044513103/10/00 04:45:31  5-MIN KDBQ 101045Z AUTO 04009KT 10SM BKN024 OVC031 M04/M07 A3016 860 84 -1200 040/09 RMK AO2 SNB11E22 P0000 TSNO
94908KDBQ DBQ20000310045014103/10/00 04:50:31  5-MIN KDBQ 101050Z AUTO 05009KT 10SM OVC027 M04/M07 A3016 860 84 -1200 040/09 RMK AO2 SNB11E22 SLP228 P0000 T10441067 TSNO
94908KDBQ DBQ20000310045514803/10/00 04:55:31  5-MIN KDBQ 101055Z AUTO 03007KT 10SM BKN024 OVC030 M04/M07 A3016 850 84 -1200 030/07 RMK AO2 SNB11E22 SLP229 P0000 T10441067 TSNO
94908KDBQ DBQ20000310050010903/10/00 05:00:31  5-MIN KDBQ 101100Z AUTO 03007KT 10SM OVC024 M04/M07 A3016 850 84 -1200 030/07 RMK AO2 TSNO
94908KDBQ DBQ20000310050511603/10/00 05:05:31  5-MIN KDBQ 101105Z AUTO 03008KT 10SM FEW012 OVC026 M04/M07 A3016 850 84 -1200 030/08 RMK AO2 TSNO
94908KDBQ DBQ20000310051011603/10/00 05:10:31  5-MIN KDBQ 101110Z AUTO 03009KT 10SM FEW012 OVC026 M04/M07 A3017 850 84 -1200 030/09 RMK AO2 TSNO
94908KDBQ DBQ20000310051512303/10/00 05:15:31  5-MIN KDBQ 101115Z AUTO 03009KT 10SM SCT012 BKN026 OVC030 M04/M07 A3017 850 84 -1200 030/09 RMK AO2 TSNO
94908KDBQ DBQ20000310052011603/10/00 05:20:31  5-MIN KDBQ 101120Z AUTO 03008KT 10SM FEW012 OVC026 M04/M07 A3017 850 84 -1200 030/08 RMK AO2 TSNO
94908KDBQ DBQ20000310052511603/10/00 05:25:31  5-MIN KDBQ 101125Z AUTO 02009KT 10SM FEW012 OVC026 M04/M07 A3017 850 84 -1300 020/09 RMK AO2 TSNO
94908KDBQ DBQ20000310053011603/10/00 05:30:31  5-MIN KDBQ 101130Z AUTO 02009KT 10SM FEW012 OVC026 M04/M07 A3017 840 81 -1300 020/09 RMK AO2 TSNO
94908KDBQ DBQ20000310053511603/10/00 05:35:31  5-MIN KDBQ 101135Z AUTO 03008KT 10SM FEW012 OVC026 M04/M07 A3018 840 81 -1300 030/08 RMK AO2 TSNO
94908KDBQ DBQ20000310054011603/10/00 05:40:31  5-MIN KDBQ 101140Z AUTO 03008KT 10SM FEW012 OVC026 M04/M07 A3018 840 81 -1300 030/08 RMK AO2 TSNO
94908KDBQ DBQ20000310054510903/10/00 05:45:31  5-MIN KDBQ 101145Z AUTO 03008KT 10SM OVC026 M04/M07 A3018 840 84 -1300 030/08 RMK AO2 TSNO
94908KDBQ DBQ20000310055015003/10/00 05:50:31  5-MIN KDBQ 101150Z AUTO 03007KT 10SM OVC026 M04/M07 A3019 830 84 -1300 030/07 RMK AO2 SLP237 60000 T10441067 11022 21044 50003 TSNO
94908KDBQ DBQ20000310055515003/10/00 05:55:31  5-MIN KDBQ 101155Z AUTO 02007KT 10SM OVC026 M04/M07 A3019 830 84 -1300 020/07 RMK AO2 SLP238 60000 T10441067 11022 21044 53018 TSNO
94908KDBQ DBQ20000310060011603/10/00 06:00:31  5-MIN KDBQ 101200Z AUTO 02008KT 10SM FEW012 OVC026 M04/M07 A3019 830 84 -1300 020/08 RMK AO2 TSNO
94908KDBQ DBQ20000310060511603/10/00 06:05:31  5-MIN KDBQ 101205Z AUTO 03007KT 10SM FEW012 OVC026 M04/M07 A3019 830 84 -1300 030/07 RMK AO2 TSNO
94908KDBQ DBQ20000310061011603/10/00 06:10:31  5-MIN KDBQ 101210Z AUTO 03008KT 10SM FEW012 OVC026 M04/M07 A3019 830 84 -1300 030/08 RMK AO2 TSNO
94908KDBQ DBQ20000310061511603/10/00 06:15:31  5-MIN KDBQ 101215Z AUTO 03007KT 10SM FEW012 OVC026 M04/M07 A3020 820 84 -1300 030/07 RMK AO2 TSNO
94908KDBQ DBQ20000310062011603/10/00 06:20:31  5-MIN KDBQ 101220Z AUTO 02007KT 10SM FEW012 OVC026 M04/M07 A3020 820 84 -1300 020/07 RMK AO2 TSNO
94908KDBQ DBQ20000310062511603/10/00 06:25:31  5-MIN KDBQ 101225Z AUTO 03006KT 10SM FEW012 OVC026 M04/M07 A3020 820 84 -1300 030/06 RMK AO2 TSNO
94908KDBQ DBQ20000310063011603/10/00 06:30:31  5-MIN KDBQ 101230Z AUTO 04007KT 10SM FEW012 OVC026 M04/M07 A3020 820 84 -1300 040/07 RMK AO2 TSNO
94908KDBQ DBQ20000310063511603/10/00 06:35:31  5-MIN KDBQ 101235Z AUTO 03005KT 10SM FEW012 OVC026 M04/M07 A3020 820 84 -1300 030/05 RMK AO2 TSNO
94908KDBQ DBQ20000310064010603/10/00 06:40:31  5-MIN KDBQ 101240Z 03006KT 10SM FEW012 OVC026 M04/M07 A3020 820 81 -1300 030/06 RMK AO2
94908KDBQ DBQ20000310064510603/10/00 06:45:31  5-MIN KDBQ 101245Z 02007KT 10SM FEW012 OVC026 M05/M07 A3020 820 84 -1400 020/07 RMK AO2
94908KDBQ DBQ20000310065012303/10/00 06:50:31  5-MIN KDBQ 101250Z 03006KT 10SM SCT012 OVC026 M05/M07 A3020 820 84 -1400 030/06 RMK AO2 SLP243 T10501072
94908KDBQ DBQ20000310065512303/10/00 06:55:31  5-MIN KDBQ 101255Z 02007KT 10SM SCT012 OVC026 M05/M07 A3020 820 84 -1400 020/07 RMK AO2 SLP243 T10501072
94908KDBQ DBQ20000310070010603/10/00 07:00:31  5-MIN KDBQ 101300Z 03006KT 10SM SCT012 OVC026 M05/M07 A3021 810 84 -1400 030/06 RMK AO2
94908KDBQ DBQ20000310070510603/10/00 07:05:31  5-MIN KDBQ 101305Z 05006KT 10SM SCT012 OVC026 M04/M07 A3021 810 81 -1300 050/06 RMK AO2
94908KDBQ DBQ20000310071010603/10/00 07:10:31  5-MIN KDBQ 101310Z 04006KT 10SM SCT012 OVC026 M04/M07 A3021 810 81 -1300 040/06 RMK AO2
94908KDBQ DBQ20000310071510603/10/00 07:15:31  5-MIN KDBQ 101315Z 05007KT 10SM FEW012 OVC026 M04/M07 A3021 810 81 -1300 050/07 RMK AO2
94908KDBQ DBQ20000310072010603/10/00 07:20:31  5-MIN KDBQ 101320Z 04006KT 10SM FEW012 OVC026 M04/M07 A3021 810 81 -1300 040/06 RMK AO2
94908KDBQ DBQ20000310072510603/10/00 07:25:31  5-MIN KDBQ 101325Z 04005KT 10SM FEW012 OVC026 M04/M07 A3021 810 81 -1300 040/05 RMK AO2
94908KDBQ DBQ20000310073009903/10/00 07:30:31  5-MIN KDBQ 101330Z 05006KT 10SM OVC026 M04/M07 A3021 810 81 -1300 050/06 RMK AO2
94908KDBQ DBQ20000310073509903/10/00 07:35:31  5-MIN KDBQ 101335Z 03006KT 10SM OVC026 M04/M07 A3022 810 81 -1300 030/06 RMK AO2
94908KDBQ DBQ20000310074009903/10/00 07:40:31  5-MIN KDBQ 101340Z 04005KT 10SM OVC026 M04/M07 A3022 810 81 -1300 040/05 RMK AO2
94908KDBQ DBQ20000310074509903/10/00 07:45:31  5-MIN KDBQ 101345Z 02008KT 10SM OVC026 M04/M07 A3022 800 81 -1300 020/08 RMK AO2
94908KDBQ DBQ20000310075011603/10/00 07:50:31  5-MIN KDBQ 101350Z 03006KT 10SM OVC026 M04/M07 A3022 800 81 -1300 030/06 RMK AO2 SLP248 T10441072
94908KDBQ DBQ20000310075511603/10/00 07:55:31  5-MIN KDBQ 101355Z 03008KT 10SM OVC028 M04/M07 A3022 800 81 -1300 030/08 RMK AO2 SLP248 T10441072
94908KDBQ DBQ20000310080009803/10/00 08:00:31  5-MIN KDBQ 101400Z 04007KT 9SM OVC028 M04/M07 A3022 800 81 -1300 040/07 RMK AO2
94908KDBQ DBQ20000310080509803/10/00 08:05:31  5-MIN KDBQ 101405Z 02007KT 9SM OVC026 M04/M07 A3022 810 84 -1300 020/07 RMK AO2
94908KDBQ DBQ20000310081009803/10/00 08:10:31  5-MIN KDBQ 101410Z 02007KT 9SM OVC026 M04/M07 A3022 810 84 -1300 010/07 RMK AO2
94908KDBQ DBQ20000310081509803/10/00 08:15:31  5-MIN KDBQ 101415Z 03008KT 9SM OVC026 M04/M07 A3022 800 84 -1300 020/08 RMK AO2
94908KDBQ DBQ20000310082009803/10/00 08:20:31  5-MIN KDBQ 101420Z 02007KT 9SM OVC026 M04/M07 A3022 810 84 -1300 020/07 RMK AO2
94908KDBQ DBQ20000310082509803/10/00 08:25:31  5-MIN KDBQ 101425Z 03007KT 9SM OVC026 M04/M07 A3022 800 84 -1300 030/07 RMK AO2
94908KDBQ DBQ20000310083009903/10/00 08:30:31  5-MIN KDBQ 101430Z 03008KT 10SM OVC026 M04/M07 A3022 800 84 -1300 030/08 RMK AO2
94908KDBQ DBQ20000310083509903/10/00 08:35:31  5-MIN KDBQ 101435Z 04007KT 10SM OVC026 M04/M07 A3022 800 84 -1300 040/07 RMK AO2
94908KDBQ DBQ20000310084009903/10/00 08:40:31  5-MIN KDBQ 101440Z 04007KT 10SM OVC026 M04/M07 A3023 800 84 -1300 040/07 RMK AO2
94908KDBQ DBQ20000310084509903/10/00 08:45:31  5-MIN KDBQ 101445Z 03006KT 10SM OVC026 M04/M07 A3023 800 84 -1300 030/06 RMK AO2
94908KDBQ DBQ20000310085012903/10/00 08:50:31  5-MIN KDBQ 101450Z 03007KT 10SM FEW012 OVC026 M04/M07 A3023 800 84 -1300 030/07 RMK AO2 SLP251 T10441067 53018
94908KDBQ DBQ20000310085512903/10/00 08:55:31  5-MIN KDBQ 101455Z 01008KT 10SM FEW012 OVC026 M04/M07 A3023 800 81 -1200 010/08 RMK AO2 SLP251 T10391067 51012
94908KDBQ DBQ20000310090010603/10/00 09:00:31  5-MIN KDBQ 101500Z 01008KT 10SM FEW012 OVC026 M04/M07 A3023 800 81 -1200 010/08 RMK AO2
94908KDBQ DBQ20000310090510603/10/00 09:05:31  5-MIN KDBQ 101505Z 02006KT 10SM FEW012 OVC026 M04/M07 A3023 790 81 -1200 010/06 RMK AO2
94908KDBQ DBQ20000310091010603/10/00 09:10:31  5-MIN KDBQ 101510Z 02007KT 10SM FEW012 OVC026 M04/M07 A3023 790 84 -1300 020/07 RMK AO2
94908KDBQ DBQ20000310091510603/10/00 09:15:31  5-MIN KDBQ 101515Z 03007KT 10SM FEW012 OVC024 M04/M07 A3023 790 81 -1200 030/07 RMK AO2
94908KDBQ DBQ20000310092010603/10/00 09:20:31  5-MIN KDBQ 101520Z 03007KT 10SM FEW012 OVC024 M04/M07 A3023 790 81 -1300 030/07 RMK AO2
94908KDBQ DBQ20000310092510603/10/00 09:25:31  5-MIN KDBQ 101525Z 04007KT 10SM FEW012 OVC024 M04/M07 A3023 800 78 -1200 030/07 RMK AO2
94908KDBQ DBQ20000310093010603/10/00 09:30:31  5-MIN KDBQ 101530Z 01007KT 10SM FEW012 OVC024 M04/M07 A3023 800 78 -1200 010/07 RMK AO2
94908KDBQ DBQ20000310093509903/10/00 09:35:31  5-MIN KDBQ 101535Z 03007KT 10SM OVC024 M04/M07 A3023 790 81 -1200 030/07 RMK AO2
94908KDBQ DBQ20000310094009903/10/00 09:40:31  5-MIN KDBQ 101540Z 02007KT 10SM OVC024 M04/M07 A3023 790 81 -1200 020/07 RMK AO2
94908KDBQ DBQ20000310094510603/10/00 09:45:31  5-MIN KDBQ 101545Z 06006KT 10SM FEW013 OVC024 M04/M07 A3023 790 81 -1200 050/06 RMK AO2
94908KDBQ DBQ20000310095012303/10/00 09:50:31  5-MIN KDBQ 101550Z 05006KT 10SM FEW013 OVC024 M04/M07 A3023 800 81 -1200 050/06 RMK AO2 SLP251 T10391067
94908KDBQ DBQ20000310095512303/10/00 09:55:31  5-MIN KDBQ 101555Z 36005KT 10SM FEW013 OVC026 M03/M07 A3023 800 78 -1200 360/05 RMK AO2 SLP250 T10331067
94908KDBQ DBQ20000310100010603/10/00 10:00:31  5-MIN KDBQ 101600Z 36005KT 10SM FEW013 OVC026 M03/M07 A3023 800 78 -1200 360/05 RMK AO2
94908KDBQ DBQ20000310100510603/10/00 10:05:31  5-MIN KDBQ 101605Z 05005KT 10SM FEW013 OVC026 M03/M07 A3023 800 78 -1200 050/05 RMK AO2
94908KDBQ DBQ20000310101010603/10/00 10:10:31  5-MIN KDBQ 101610Z 02006KT 10SM FEW013 OVC026 M03/M06 A3023 800 78 -1100 020/06 RMK AO2
94908KDBQ DBQ20000310101511303/10/00 10:15:31  5-MIN KDBQ 101615Z 02006KT 10SM FEW013 BKN026 OVC047 M03/M07 A3022 800 78 -1200 020/06 RMK AO2
94908KDBQ DBQ20000310102010603/10/00 10:20:31  5-MIN KDBQ 101620Z 36007KT 10SM BKN026 OVC047 M03/M06 A3022 800 78 -1100 360/07 RMK AO2
94908KDBQ DBQ20000310102511303/10/00 10:25:31  5-MIN KDBQ 101625Z 01005KT 10SM SCT026 BKN047 OVC055 M03/M06 A3022 800 78 -1100 010/05 RMK AO2
94908KDBQ DBQ20000310103010603/10/00 10:30:31  5-MIN KDBQ 101630Z VRB05KT 10SM FEW013 OVC026 M03/M07 A3022 800 75 -1100 VRB/05 RMK AO2
94908KDBQ DBQ20000310103510603/10/00 10:35:31  5-MIN KDBQ 101635Z VRB05KT 10SM FEW013 OVC026 M03/M07 A3023 800 75 -1100 VRB/05 RMK AO2
94908KDBQ DBQ20000310104010603/10/00 10:40:31  5-MIN KDBQ 101640Z 02005KT 10SM FEW013 OVC026 M03/M07 A3022 800 75 -1100 020/05 RMK AO2
94908KDBQ DBQ20000310104510603/10/00 10:45:31  5-MIN KDBQ 101645Z 06006KT 10SM FEW013 OVC026 M03/M07 A3023 800 71 -1100 060/06 RMK AO2
94908KDBQ DBQ20000310105012303/10/00 10:50:31  5-MIN KDBQ 101650Z 05004KT 10SM BKN048 OVC055 M02/M07 A3023 800 69 -1000 050/04 RMK AO2 SLP250 T10221072
94908KDBQ DBQ20000310105513003/10/00 10:55:31  5-MIN KDBQ 101655Z VRB04KT 10SM FEW018 BKN048 OVC055 M02/M07 A3022 800 69 -1000 VRB/04 RMK AO2 SLP249 T10221072
94908KDBQ DBQ20000310110011303/10/00 11:00:31  5-MIN KDBQ 101700Z VRB05KT 10SM SCT018 BKN048 OVC055 M02/M06 A3022 800 72 -1000 VRB/05 RMK AO2
94908KDBQ DBQ20000310110511303/10/00 11:05:31  5-MIN KDBQ 101705Z 33005KT 10SM SCT018 BKN048 OVC055 M02/M06 A3022 800 72 -1000 330/05 RMK AO2
94908KDBQ DBQ20000310111011303/10/00 11:10:31  5-MIN KDBQ 101710Z 36006KT 10SM SCT018 BKN048 OVC055 M02/M06 A3022 800 72 -1000 360/06 RMK AO2
94908KDBQ DBQ20000310111511303/10/00 11:15:31  5-MIN KDBQ 101715Z 03004KT 10SM SCT018 BKN048 OVC055 M02/M07 A3022 800 72 -1000 030/04 RMK AO2
94908KDBQ DBQ20000310112011203/10/00 11:20:31  5-MIN KDBQ 101720Z 35005KT 10SM SCT018 BKN048 OVC055 M01/M06 A3022 800 69 -900 340/05 RMK AO2
94908KDBQ DBQ20000310112511303/10/00 11:25:31  5-MIN KDBQ 101725Z 03006KT 10SM FEW018 BKN048 OVC055 M02/M06 A3022 810 72 -1000 030/06 RMK AO2
94908KDBQ DBQ20000310113011203/10/00 11:30:31  5-MIN KDBQ 101730Z 36005KT 10SM FEW018 SCT048 OVC055 M02/M06 A3021 810 72 -900 360/05 RMK AO2
94908KDBQ DBQ20000310113509803/10/00 11:35:31  5-MIN KDBQ 101735Z 04007KT 10SM OVC055 M01/M06 A3021 810 69 -900 040/07 RMK AO2
94908KDBQ DBQ20000310114009803/10/00 11:40:31  5-MIN KDBQ 101740Z VRB05KT 10SM OVC055 M01/M07 A3021 810 66 -900 VRB/05 RMK AO2
94908KDBQ DBQ20000310114509803/10/00 11:45:31  5-MIN KDBQ 101745Z 33006KT 10SM OVC055 M01/M06 A3021 810 66 -800 330/06 RMK AO2
94908KDBQ DBQ20000310115013303/10/00 11:50:31  5-MIN KDBQ 101750Z 01007KT 10SM OVC055 M01/M06 A3021 810 66 -800 010/07 RMK AO2 SLP243 T10061061 11006 21050 51012
94908KDBQ DBQ20000310115513303/10/00 11:55:31  5-MIN KDBQ 101755Z VRB03KT 10SM BKN055 M01/M07 A3021 810 63 -800 VRB/03 RMK AO2 SLP243 T10061067 11006 21050 58006
94908KDBQ DBQ20000310120010503/10/00 12:00:31  5-MIN KDBQ 101800Z VRB03KT 10SM FEW024 BKN055 M01/M07 A3021 810 63 -800 VRB/03 RMK AO2
94908KDBQ DBQ20000310120510503/10/00 12:05:31  5-MIN KDBQ 101805Z 36006KT 10SM SCT024 BKN055 M01/M06 A3021 810 66 -800 360/06 RMK AO2
94908KDBQ DBQ20000310121010503/10/00 12:10:31  5-MIN KDBQ 101810Z VRB06KT 10SM FEW024 BKN055 M01/M07 A3020 820 63 -800 VRB/06 RMK AO2
94908KDBQ DBQ20000310121510403/10/00 12:15:31  5-MIN KDBQ 101815Z 33007KT 10SM SCT024 BKN055 00/M06 A3020 820 63 -700 330/07 RMK AO2
94908KDBQ DBQ20000310122010403/10/00 12:20:31  5-MIN KDBQ 101820Z 33008KT 10SM BKN024 BKN055 00/M06 A3020 820 63 -700 330/08 RMK AO2
94908KDBQ DBQ20000310122510503/10/00 12:25:31  5-MIN KDBQ 101825Z 03010KT 10SM SCT024 BKN055 M01/M07 A3020 820 63 -800 030/10 RMK AO2
94908KDBQ DBQ20000310123011003/10/00 12:30:31  5-MIN KDBQ 101830Z 34009G14KT 10SM SCT024 BKN055 01/M06 A3019 830 61 -600 340/09G14 RMK AO2
94908KDBQ DBQ20000310123511103/10/00 12:35:31  5-MIN KDBQ 101835Z VRB04G14KT 10SM SCT024 BKN055 M01/M07 A3019 830 63 -800 VRB/04G14 RMK AO2
94908KDBQ DBQ20000310124010503/10/00 12:40:31  5-MIN KDBQ 101840Z 01005KT 10SM SCT024 BKN055 M01/M07 A3019 830 63 -800 010/05 RMK AO2
94908KDBQ DBQ20000310124510403/10/00 12:45:31  5-MIN KDBQ 101845Z VRB06KT 10SM SCT024 BKN055 00/M07 A3019 830 61 -700 VRB/06 RMK AO2
94908KDBQ DBQ20000310125011403/10/00 12:50:31  5-MIN KDBQ 101850Z 36006KT 10SM BKN027 00/M07 A3019 830 61 -700 360/06 RMK AO2 SLP237 T00001067
94908KDBQ DBQ20000310125511403/10/00 12:55:31  5-MIN KDBQ 101855Z VRB06KT 10SM BKN027 00/M06 A3019 830 63 -700 VRB/06 RMK AO2 SLP237 T00001061
94908KDBQ DBQ20000310130009703/10/00 13:00:31  5-MIN KDBQ 101900Z 34005KT 10SM BKN027 00/M06 A3019 830 63 -700 340/05 RMK AO2
94908KDBQ DBQ20000310130509803/10/00 13:05:31  5-MIN KDBQ 101905Z 34009KT 10SM BKN027 M01/M06 A3019 830 66 -800 340/09 RMK AO2
94908KDBQ DBQ20000310131010403/10/00 13:10:31  5-MIN KDBQ 101910Z VRB06KT 10SM BKN025 BKN030 00/M06 A3019 830 63 -700 VRB/06 RMK AO2
94908KDBQ DBQ20000310131509703/10/00 13:15:31  5-MIN KDBQ 101915Z 34006KT 10SM OVC027 00/M06 A3019 830 63 -700 340/06 RMK AO2
94908KDBQ DBQ20000310132009803/10/00 13:20:31  5-MIN KDBQ 101920Z VRB03KT 10SM OVC027 M01/M07 A3020 820 63 -800 VRB/03 RMK AO2
94908KDBQ DBQ20000310132509703/10/00 13:25:31  5-MIN KDBQ 101925Z 35006KT 10SM OVC027 00/M07 A3020 820 61 -700 350/06 RMK AO2
94908KDBQ DBQ20000310133009803/10/00 13:30:31  5-MIN KDBQ 101930Z VRB03KT 10SM OVC027 M01/M07 A3019 830 63 -800 VRB/03 RMK AO2
94908KDBQ DBQ20000310133509703/10/00 13:35:31  5-MIN KDBQ 101935Z 34005KT 10SM OVC027 00/M07 A3019 830 61 -700 340/05 RMK AO2
94908KDBQ DBQ20000310134009803/10/00 13:40:31  5-MIN KDBQ 101940Z VRB06KT 10SM OVC027 M01/M07 A3019 830 61 -800 VRB/06 RMK AO2
94908KDBQ DBQ20000310134509703/10/00 13:45:31  5-MIN KDBQ 101945Z 33004KT 10SM OVC027 00/M07 A3019 830 61 -700 330/04 RMK AO2
94908KDBQ DBQ20000310135011503/10/00 13:50:31  5-MIN KDBQ 101950Z 00000KT 10SM OVC027 M01/M07 A3020 820 61 -800 000/00 RMK AO2 SLP240 T10061072
94908KDBQ DBQ20000310135511403/10/00 13:55:31  5-MIN KDBQ 101955Z VRB04KT 10SM OVC027 00/M07 A3020 820 61 -700 VRB/04 RMK AO2 SLP241 T00001067
94908KDBQ DBQ20000310140009703/10/00 14:00:31  5-MIN KDBQ 102000Z 33005KT 10SM OVC027 00/M07 A3020 820 61 -700 330/05 RMK AO2
94908KDBQ DBQ20000310140509703/10/00 14:05:31  5-MIN KDBQ 102005Z 32005KT 10SM OVC027 00/M07 A3020 820 58 -700 320/05 RMK AO2
94908KDBQ DBQ20000310141009703/10/00 14:10:31  5-MIN KDBQ 102010Z 30004KT 10SM OVC029 00/M07 A3021 820 58 -700 300/04 RMK AO2
94908KDBQ DBQ20000310141509703/10/00 14:15:31  5-MIN KDBQ 102015Z VRB04KT 10SM OVC029 00/M07 A3021 810 58 -700 VRB/04 RMK AO2
94908KDBQ DBQ20000310142009703/10/00 14:20:31  5-MIN KDBQ 102020Z 00000KT 10SM OVC029 00/M07 A3022 810 58 -700 000/00 RMK AO2
94908KDBQ DBQ20000310142509703/10/00 14:25:31  5-MIN KDBQ 102025Z 00000KT 10SM OVC029 00/M07 A3022 800 58 -700 000/00 RMK AO2
94908KDBQ DBQ20000310143009703/10/00 14:30:31  5-MIN KDBQ 102030Z 00000KT 10SM OVC029 00/M07 A3022 800 58 -700 000/00 RMK AO2
94908KDBQ DBQ20000310143509703/10/00 14:35:31  5-MIN KDBQ 102035Z VRB04KT 10SM OVC029 00/M07 A3021 810 61 -700 VRB/04 RMK AO2
94908KDBQ DBQ20000310144009703/10/00 14:40:31  5-MIN KDBQ 102040Z 36007KT 10SM OVC029 00/M07 A3021 820 61 -700 360/07 RMK AO2
94908KDBQ DBQ20000310144509703/10/00 14:45:31  5-MIN KDBQ 102045Z 01005KT 10SM OVC029 00/M07 A3020 820 61 -700 010/05 RMK AO2
94908KDBQ DBQ20000310145012003/10/00 14:50:31  5-MIN KDBQ 102050Z 35006KT 10SM OVC029 00/M07 A3021 820 61 -700 350/06 RMK AO2 SLP243 T00001067 58006
94908KDBQ DBQ20000310145512003/10/00 14:55:31  5-MIN KDBQ 102055Z 31006KT 10SM OVC029 00/M07 A3021 820 61 -700 310/06 RMK AO2 SLP243 T00001067 55001
94908KDBQ DBQ20000310150009703/10/00 15:00:31  5-MIN KDBQ 102100Z 35006KT 10SM OVC029 00/M07 A3021 810 61 -700 350/06 RMK AO2
94908KDBQ DBQ20000310150509703/10/00 15:05:31  5-MIN KDBQ 102105Z 33005KT 10SM OVC029 00/M07 A3021 810 61 -700 330/05 RMK AO2
94908KDBQ DBQ20000310151009703/10/00 15:10:31  5-MIN KDBQ 102110Z 36005KT 10SM OVC029 00/M07 A3021 810 61 -700 360/05 RMK AO2
94908KDBQ DBQ20000310151509703/10/00 15:15:31  5-MIN KDBQ 102115Z 01005KT 10SM OVC029 00/M07 A3021 810 61 -700 010/05 RMK AO2
94908KDBQ DBQ20000310152009703/10/00 15:20:31  5-MIN KDBQ 102120Z VRB04KT 10SM OVC029 00/M07 A3021 810 61 -700 VRB/04 RMK AO2
94908KDBQ DBQ20000310152509703/10/00 15:25:31  5-MIN KDBQ 102125Z 35006KT 10SM OVC029 00/M07 A3021 810 61 -700 350/06 RMK AO2
94908KDBQ DBQ20000310153009703/10/00 15:30:31  5-MIN KDBQ 102130Z 36005KT 10SM OVC029 00/M07 A3021 810 58 -700 360/05 RMK AO2
94908KDBQ DBQ20000310153509803/10/00 15:35:31  5-MIN KDBQ 102135Z 31005KT 10SM OVC029 M01/M07 A3020 820 61 -800 310/05 RMK AO2
94908KDBQ DBQ20000310154009703/10/00 15:40:31  5-MIN KDBQ 102140Z 33006KT 10SM OVC029 00/M07 A3020 820 58 -700 330/06 RMK AO2
94908KDBQ DBQ20000310154509703/10/00 15:45:31  5-MIN KDBQ 102145Z 33003KT 10SM OVC029 00/M07 A3020 820 58 -700 330/03 RMK AO2
94908KDBQ DBQ20000310155011403/10/00 15:50:31  5-MIN KDBQ 102150Z 30004KT 10SM OVC029 00/M07 A3020 820 61 -700 300/04 RMK AO2 SLP241 T00001067
94908KDBQ DBQ20000310155511403/10/00 15:55:31  5-MIN KDBQ 102155Z 36004KT 10SM OVC029 00/M07 A3020 820 61 -700 360/04 RMK AO2 SLP240 T00001067
94908KDBQ DBQ20000310160009703/10/00 16:00:31  5-MIN KDBQ 102200Z 32006KT 10SM OVC029 00/M07 A3020 820 61 -700 310/06 RMK AO2
94908KDBQ DBQ20000310160509703/10/00 16:05:31  5-MIN KDBQ 102205Z 30006KT 10SM OVC029 00/M07 A3020 820 61 -700 300/06 RMK AO2
94908KDBQ DBQ20000310161009703/10/00 16:10:31  5-MIN KDBQ 102210Z 31005KT 10SM OVC029 00/M07 A3020 820 58 -700 310/05 RMK AO2
94908KDBQ DBQ20000310161509803/10/00 16:15:31  5-MIN KDBQ 102215Z 31005KT 10SM BKN029 M01/M07 A3020 820 61 -800 310/05 RMK AO2
94908KDBQ DBQ20000310162009703/10/00 16:20:31  5-MIN KDBQ 102220Z 30004KT 10SM BKN029 00/M07 A3020 820 58 -700 300/04 RMK AO2
94908KDBQ DBQ20000310162509803/10/00 16:25:31  5-MIN KDBQ 102225Z 32005KT 10SM BKN029 M01/M07 A3020 820 61 -800 320/05 RMK AO2
94908KDBQ DBQ20000310163009703/10/00 16:30:31  5-MIN KDBQ 102230Z 31007KT 10SM BKN029 00/M07 A3020 820 61 -700 310/07 RMK AO2
94908KDBQ DBQ20000310163509703/10/00 16:35:31  5-MIN KDBQ 102235Z 34005KT 10SM BKN029 00/M07 A3020 820 61 -700 340/05 RMK AO2
94908KDBQ DBQ20000310164009703/10/00 16:40:31  5-MIN KDBQ 102240Z 30006KT 10SM BKN029 00/M07 A3020 820 61 -700 300/06 RMK AO2
94908KDBQ DBQ20000310164509803/10/00 16:45:31  5-MIN KDBQ 102245Z 32007KT 10SM BKN029 M01/M07 A3020 820 63 -800 320/07 RMK AO2
94908KDBQ DBQ20000310165011503/10/00 16:50:31  5-MIN KDBQ 102250Z 31007KT 10SM OVC029 M01/M07 A3021 820 63 -800 310/07 RMK AO2 SLP243 T10061067
94908KDBQ DBQ20000310165511503/10/00 16:55:31  5-MIN KDBQ 102255Z 32006KT 10SM OVC029 M01/M07 A3021 810 63 -800 320/06 RMK AO2 SLP243 T10061067
94908KDBQ DBQ20000310170009803/10/00 17:00:31  5-MIN KDBQ 102300Z 33007KT 10SM OVC029 M01/M07 A3021 810 63 -800 330/07 RMK AO2
94908KDBQ DBQ20000310170509803/10/00 17:05:31  5-MIN KDBQ 102305Z 33006KT 10SM OVC029 M01/M07 A3021 810 63 -800 330/06 RMK AO2
94908KDBQ DBQ20000310171009803/10/00 17:10:31  5-MIN KDBQ 102310Z 32006KT 10SM OVC029 M01/M07 A3021 810 63 -800 320/06 RMK AO2
94908KDBQ DBQ20000310171509803/10/00 17:15:31  5-MIN KDBQ 102315Z 31007KT 10SM OVC029 M01/M07 A3022 800 63 -800 310/07 RMK AO2
94908KDBQ DBQ20000310172009803/10/00 17:20:31  5-MIN KDBQ 102320Z 33006KT 10SM OVC029 M01/M07 A3022 800 63 -800 330/06 RMK AO2
94908KDBQ DBQ20000310172509803/10/00 17:25:31  5-MIN KDBQ 102325Z 32006KT 10SM OVC029 M01/M07 A3022 800 63 -800 320/06 RMK AO2
94908KDBQ DBQ20000310173009803/10/00 17:30:31  5-MIN KDBQ 102330Z 33006KT 10SM OVC029 M01/M07 A3022 800 63 -800 330/06 RMK AO2
94908KDBQ DBQ20000310173509803/10/00 17:35:31  5-MIN KDBQ 102335Z 34006KT 10SM OVC029 M01/M07 A3023 800 63 -800 340/06 RMK AO2
94908KDBQ DBQ20000310174009803/10/00 17:40:31  5-MIN KDBQ 102340Z 32006KT 10SM OVC029 M01/M07 A3023 790 63 -800 320/06 RMK AO2
94908KDBQ DBQ20000310174509803/10/00 17:45:31  5-MIN KDBQ 102345Z 33006KT 10SM OVC029 M01/M07 A3023 790 63 -800 330/06 RMK AO2
94908KDBQ DBQ20000310175013303/10/00 17:50:31  5-MIN KDBQ 102350Z 33007KT 10SM OVC029 M01/M07 A3023 790 63 -800 330/07 RMK AO2 SLP251 T10061067 10006 21006 55001
94908KDBQ DBQ20000310175513303/10/00 17:55:31  5-MIN KDBQ 102355Z 34005KT 10SM OVC029 M01/M07 A3023 790 63 -800 340/05 RMK AO2 SLP252 T10061067 10006 21011 53009
94908KDBQ DBQ20000310180009803/10/00 18:00:31  5-MIN KDBQ 110000Z 33006KT 10SM OVC029 M01/M07 A3023 790 66 -900 330/06 RMK AO2
94908KDBQ DBQ20000310180509803/10/00 18:05:31  5-MIN KDBQ 110005Z 36006KT 10SM OVC029 M01/M07 A3023 790 66 -900 360/06 RMK AO2
94908KDBQ DBQ20000310181009803/10/00 18:10:31  5-MIN KDBQ 110010Z 35005KT 10SM OVC029 M01/M07 A3023 790 66 -900 350/05 RMK AO2
94908KDBQ DBQ20000310181509803/10/00 18:15:31  5-MIN KDBQ 110015Z 34006KT 10SM OVC029 M01/M07 A3023 790 66 -900 340/06 RMK AO2
94908KDBQ DBQ20000310182009803/10/00 18:20:31  5-MIN KDBQ 110020Z 34005KT 10SM OVC029 M01/M07 A3023 790 66 -900 340/05 RMK AO2
94908KDBQ DBQ20000310182509803/10/00 18:25:31  5-MIN KDBQ 110025Z 34005KT 10SM OVC029 M01/M07 A3023 800 66 -900 340/05 RMK AO2
94908KDBQ DBQ20000310183009803/10/00 18:30:31  5-MIN KDBQ 110030Z 35006KT 10SM OVC029 M01/M07 A3023 800 66 -900 340/06 RMK AO2
94908KDBQ DBQ20000310183509803/10/00 18:35:31  5-MIN KDBQ 110035Z 33006KT 10SM OVC029 M01/M07 A3023 790 66 -900 330/06 RMK AO2
94908KDBQ DBQ20000310184009803/10/00 18:40:31  5-MIN KDBQ 110040Z 33006KT 10SM OVC029 M01/M07 A3023 790 66 -900 330/06 RMK AO2
94908KDBQ DBQ20000310184509803/10/00 18:45:31  5-MIN KDBQ 110045Z 34005KT 10SM OVC029 M01/M07 A3023 790 66 -900 340/05 RMK AO2
94908KDBQ DBQ20000310185011503/10/00 18:50:31  5-MIN KDBQ 110050Z 33005KT 10SM OVC029 M01/M07 A3023 790 66 -900 330/05 RMK AO2 SLP252 T10111067
94908KDBQ DBQ20000310185511503/10/00 18:55:31  5-MIN KDBQ 110055Z 34006KT 10SM OVC029 M01/M07 A3023 800 66 -900 340/06 RMK AO2 SLP251 T10111067
94908KDBQ DBQ20000310190009803/10/00 19:00:31  5-MIN KDBQ 110100Z 34006KT 10SM OVC029 M01/M07 A3023 790 66 -900 340/06 RMK AO2
94908KDBQ DBQ20000310190509803/10/00 19:05:31  5-MIN KDBQ 110105Z 34005KT 10SM OVC029 M01/M07 A3023 800 66 -900 340/05 RMK AO2
94908KDBQ DBQ20000310191009803/10/00 19:10:31  5-MIN KDBQ 110110Z 01006KT 10SM OVC029 M01/M07 A3023 800 66 -900 010/06 RMK AO2
94908KDBQ DBQ20000310191509803/10/00 19:15:31  5-MIN KDBQ 110115Z 34005KT 10SM OVC029 M01/M07 A3023 800 66 -900 340/05 RMK AO2
94908KDBQ DBQ20000310192009803/10/00 19:20:31  5-MIN KDBQ 110120Z 34005KT 10SM OVC029 M01/M07 A3022 800 66 -900 340/05 RMK AO2
94908KDBQ DBQ20000310192509803/10/00 19:25:31  5-MIN KDBQ 110125Z 36003KT 10SM OVC029 M01/M07 A3021 810 66 -900 360/03 RMK AO2
94908KDBQ DBQ20000310193009803/10/00 19:30:31  5-MIN KDBQ 110130Z 33007KT 10SM OVC029 M01/M07 A3021 810 66 -900 330/07 RMK AO2
94908KDBQ DBQ20000310193509803/10/00 19:35:31  5-MIN KDBQ 110135Z 33008KT 10SM OVC029 M01/M07 A3021 810 66 -900 330/08 RMK AO2
94908KDBQ DBQ20000310194009803/10/00 19:40:31  5-MIN KDBQ 110140Z 33007KT 10SM OVC029 M01/M07 A3021 810 66 -900 330/07 RMK AO2
94908KDBQ DBQ20000310194509803/10/00 19:45:31  5-MIN KDBQ 110145Z 33007KT 10SM OVC029 M01/M07 A3021 810 66 -900 330/07 RMK AO2
94908KDBQ DBQ20000310195011503/10/00 19:50:31  5-MIN KDBQ 110150Z 32007KT 10SM OVC029 M01/M07 A3021 810 66 -900 320/07 RMK AO2 SLP247 T10111067
94908KDBQ DBQ20000310195511503/10/00 19:55:31  5-MIN KDBQ 110155Z 33007KT 10SM OVC029 M01/M07 A3021 810 66 -900 330/07 RMK AO2 SLP246 T10111067
94908KDBQ DBQ20000310200009803/10/00 20:00:31  5-MIN KDBQ 110200Z 33007KT 10SM OVC029 M01/M07 A3020 820 66 -900 330/07 RMK AO2
94908KDBQ DBQ20000310200509803/10/00 20:05:31  5-MIN KDBQ 110205Z 33008KT 10SM OVC029 M01/M07 A3020 820 66 -900 330/08 RMK AO2
94908KDBQ DBQ20000310201009803/10/00 20:10:31  5-MIN KDBQ 110210Z 33009KT 10SM OVC029 M01/M06 A3021 810 69 -900 330/09 RMK AO2
94908KDBQ DBQ20000310201509803/10/00 20:15:31  5-MIN KDBQ 110215Z 32007KT 10SM OVC029 M01/M06 A3021 810 69 -900 320/07 RMK AO2
94908KDBQ DBQ20000310202009803/10/00 20:20:31  5-MIN KDBQ 110220Z 33005KT 10SM OVC029 M01/M06 A3021 810 69 -900 330/05 RMK AO2
94908KDBQ DBQ20000310202509803/10/00 20:25:31  5-MIN KDBQ 110225Z 32006KT 10SM OVC029 M01/M06 A3022 810 69 -900 320/06 RMK AO2
94908KDBQ DBQ20000310203009803/10/00 20:30:31  5-MIN KDBQ 110230Z 33006KT 10SM OVC029 M01/M06 A3022 800 69 -900 330/06 RMK AO2
94908KDBQ DBQ20000310203509803/10/00 20:35:31  5-MIN KDBQ 110235Z 33006KT 10SM OVC029 M01/M06 A3022 800 69 -900 330/06 RMK AO2
94908KDBQ DBQ20000310204009903/10/00 20:40:31  5-MIN KDBQ 110240Z 33006KT 10SM OVC029 M02/M06 A3022 800 72 -1000 330/06 RMK AO2
94908KDBQ DBQ20000310204509803/10/00 20:45:31  5-MIN KDBQ 110245Z 33006KT 10SM OVC029 M01/M06 A3022 800 69 -900 330/06 RMK AO2
94908KDBQ DBQ20000310205013103/10/00 20:50:31  5-MIN KDBQ 110250Z AUTO 34006KT 10SM OVC029 M01/M06 A3022 800 69 -900 330/06 RMK AO2 SLP248 T10111061 53009 TSNO
94908KDBQ DBQ20000310205513103/10/00 20:55:31  5-MIN KDBQ 110255Z AUTO 34005KT 10SM OVC029 M01/M07 A3022 800 66 -900 340/05 RMK AO2 SLP248 T10111067 55004 TSNO
94908KDBQ DBQ20000310210010903/10/00 21:00:31  5-MIN KDBQ 110300Z AUTO 32005KT 10SM OVC029 M02/M06 A3022 800 72 -1000 320/05 RMK AO2 TSNO
94908KDBQ DBQ20000310210510803/10/00 21:05:31  5-MIN KDBQ 110305Z AUTO 32004KT 10SM OVC029 M01/M06 A3022 810 69 -900 320/04 RMK AO2 TSNO
94908KDBQ DBQ20000310211010803/10/00 21:10:31  5-MIN KDBQ 110310Z AUTO 33004KT 10SM OVC029 M02/M06 A3021 810 72 -900 320/04 RMK AO2 TSNO
94908KDBQ DBQ20000310211510803/10/00 21:15:31  5-MIN KDBQ 110315Z AUTO 32005KT 10SM OVC029 M02/M06 A3021 810 72 -900 320/05 RMK AO2 TSNO
94908KDBQ DBQ20000310212010903/10/00 21:20:31  5-MIN KDBQ 110320Z AUTO 32004KT 10SM OVC029 M02/M06 A3022 800 72 -1000 320/04 RMK AO2 TSNO
94908KDBQ DBQ20000310212510903/10/00 21:25:31  5-MIN KDBQ 110325Z AUTO 32003KT 10SM OVC029 M02/M06 A3022 800 72 -1000 320/03 RMK AO2 TSNO
94908KDBQ DBQ20000310213010903/10/00 21:30:31  5-MIN KDBQ 110330Z AUTO 32005KT 10SM OVC029 M02/M06 A3022 800 72 -1000 320/05 RMK AO2 TSNO
94908KDBQ DBQ20000310213510903/10/00 21:35:31  5-MIN KDBQ 110335Z AUTO 32004KT 10SM OVC029 M02/M06 A3022 800 72 -1000 320/04 RMK AO2 TSNO
94908KDBQ DBQ20000310214010903/10/00 21:40:31  5-MIN KDBQ 110340Z AUTO 32005KT 10SM OVC029 M02/M07 A3023 800 69 -1000 320/05 RMK AO2 TSNO
94908KDBQ DBQ20000310214510903/10/00 21:45:31  5-MIN KDBQ 110345Z AUTO 32005KT 10SM OVC029 M02/M07 A3023 800 69 -1000 320/05 RMK AO2 TSNO
94908KDBQ DBQ20000310215012603/10/00 21:50:31  5-MIN KDBQ 110350Z AUTO 31005KT 10SM OVC029 M02/M07 A3022 800 69 -1000 310/05 RMK AO2 SLP250 T10171067 TSNO
94908KDBQ DBQ20000310215512603/10/00 21:55:31  5-MIN KDBQ 110355Z AUTO 33005KT 10SM OVC029 M02/M07 A3022 800 69 -1000 330/05 RMK AO2 SLP249 T10171067 TSNO
94908KDBQ DBQ20000310220010803/10/00 22:00:31  5-MIN KDBQ 110400Z AUTO 35003KT 10SM OVC029 M01/M07 A3023 800 66 -900 350/03 RMK AO2 TSNO
94908KDBQ DBQ20000310220510803/10/00 22:05:31  5-MIN KDBQ 110405Z AUTO 33005KT 10SM OVC029 M01/M07 A3023 800 66 -900 330/05 RMK AO2 TSNO
94908KDBQ DBQ20000310221010903/10/00 22:10:31  5-MIN KDBQ 110410Z AUTO 33005KT 10SM OVC029 M02/M07 A3022 800 69 -1000 330/05 RMK AO2 TSNO
94908KDBQ DBQ20000310221510903/10/00 22:15:31  5-MIN KDBQ 110415Z AUTO 34004KT 10SM OVC029 M02/M07 A3022 800 69 -1000 340/04 RMK AO2 TSNO
94908KDBQ DBQ20000310222010903/10/00 22:20:31  5-MIN KDBQ 110420Z AUTO 33005KT 10SM OVC029 M02/M07 A3023 800 69 -1000 330/05 RMK AO2 TSNO
94908KDBQ DBQ20000310222510903/10/00 22:25:31  5-MIN KDBQ 110425Z AUTO 35003KT 10SM OVC029 M02/M07 A3023 800 69 -1000 350/03 RMK AO2 TSNO
94908KDBQ DBQ20000310223010903/10/00 22:30:31  5-MIN KDBQ 110430Z AUTO 35004KT 10SM OVC029 M02/M06 A3023 800 72 -1000 350/04 RMK AO2 TSNO
94908KDBQ DBQ20000310223510803/10/00 22:35:31  5-MIN KDBQ 110435Z AUTO 34003KT 10SM OVC029 M01/M06 A3022 800 69 -900 340/03 RMK AO2 TSNO
94908KDBQ DBQ20000310224010903/10/00 22:40:31  5-MIN KDBQ 110440Z AUTO 34004KT 10SM OVC029 M02/M07 A3022 800 66 -1000 340/04 RMK AO2 TSNO
94908KDBQ DBQ20000310224510803/10/00 22:45:31  5-MIN KDBQ 110445Z AUTO 35004KT 10SM OVC031 M02/M07 A3022 810 69 -900 350/04 RMK AO2 TSNO
94908KDBQ DBQ20000310225012503/10/00 22:50:31  5-MIN KDBQ 110450Z AUTO 36004KT 10SM OVC031 M02/M07 A3021 810 66 -900 360/04 RMK AO2 SLP246 T10171072 TSNO
94908KDBQ DBQ20000310225512503/10/00 22:55:31  5-MIN KDBQ 110455Z AUTO 34003KT 10SM OVC031 M02/M07 A3021 810 66 -900 340/03 RMK AO2 SLP246 T10171072 TSNO
94908KDBQ DBQ20000310230010803/10/00 23:00:31  5-MIN KDBQ 110500Z AUTO 35003KT 10SM OVC031 M02/M07 A3021 810 69 -900 350/03 RMK AO2 TSNO
94908KDBQ DBQ20000310230511503/10/00 23:05:31  5-MIN KDBQ 110505Z AUTO 35003KT 10SM FEW026 OVC031 M02/M07 A3021 820 66 -900 350/03 RMK AO2 TSNO
94908KDBQ DBQ20000310231011503/10/00 23:10:31  5-MIN KDBQ 110510Z AUTO 35005KT 10SM FEW026 OVC031 M02/M07 A3020 820 69 -900 340/05 RMK AO2 TSNO
94908KDBQ DBQ20000310231511503/10/00 23:15:31  5-MIN KDBQ 110515Z AUTO 35004KT 10SM FEW026 OVC031 M02/M07 A3020 820 69 -900 350/04 RMK AO2 TSNO
94908KDBQ DBQ20000310232011503/10/00 23:20:31  5-MIN KDBQ 110520Z AUTO 36004KT 10SM FEW026 OVC031 M02/M07 A3020 820 69 -900 350/04 RMK AO2 TSNO
94908KDBQ DBQ20000310232511503/10/00 23:25:31  5-MIN KDBQ 110525Z AUTO 34004KT 10SM FEW026 OVC031 M02/M07 A3020 820 69 -900 340/04 RMK AO2 TSNO
94908KDBQ DBQ20000310233011503/10/00 23:30:31  5-MIN KDBQ 110530Z AUTO 34003KT 10SM FEW026 OVC031 M02/M07 A3020 820 69 -900 340/03 RMK AO2 TSNO
94908KDBQ DBQ20000310233511503/10/00 23:35:31  5-MIN KDBQ 110535Z AUTO 34003KT 10SM FEW026 OVC031 M02/M07 A3020 820 69 -900 340/03 RMK AO2 TSNO
94908KDBQ DBQ20000310234010803/10/00 23:40:31  5-MIN KDBQ 110540Z AUTO 33003KT 10SM OVC031 M02/M07 A3020 820 69 -900 330/03 RMK AO2 TSNO
94908KDBQ DBQ20000310234511503/10/00 23:45:31  5-MIN KDBQ 110545Z AUTO 34003KT 10SM FEW024 OVC031 M02/M07 A3020 820 69 -900 340/03 RMK AO2 TSNO
94908KDBQ DBQ20000310235015303/10/00 23:50:31  5-MIN KDBQ 110550Z AUTO 00000KT 10SM OVC031 M02/M07 A3020 820 69 -900 000/00 RMK AO2 SLP241 T10171067 11006 21017 400061050 55004 TSNO
94908KDBQ DBQ20000310235516003/10/00 23:55:31  5-MIN KDBQ 110555Z AUTO 00000KT 10SM SCT027 OVC033 M02/M07 A3020 820 69 -900 000/00 RMK AO2 SLP241 T10171067 11006 21017 400061050 58006 TSNO
94908KDBQ DBQ20000311000011503/11/00 00:00:31  5-MIN KDBQ 110600Z AUTO 00000KT 10SM BKN026 OVC032 M02/M07 A3020 820 69 -900 000/00 RMK AO2 TSNO
94908KDBQ DBQ20000311000511503/11/00 00:05:31  5-MIN KDBQ 110605Z AUTO 03003KT 10SM SCT023 OVC032 M02/M07 A3020 820 69 -900 030/03 RMK AO2 TSNO
94908KDBQ DBQ20000311001011503/11/00 00:10:31  5-MIN KDBQ 110610Z AUTO 02004KT 10SM SCT023 OVC032 M02/M07 A3020 820 69 -900 020/04 RMK AO2 TSNO
94908KDBQ DBQ20000311001511503/11/00 00:15:31  5-MIN KDBQ 110615Z AUTO 02004KT 10SM SCT025 OVC032 M02/M06 A3020 820 72 -900 020/04 RMK AO2 TSNO
94908KDBQ DBQ20000311002011503/11/00 00:20:31  5-MIN KDBQ 110620Z AUTO 36004KT 10SM SCT025 OVC032 M02/M06 A3019 830 72 -900 360/04 RMK AO2 TSNO
94908KDBQ DBQ20000311002511503/11/00 00:25:31  5-MIN KDBQ 110625Z AUTO 36004KT 10SM FEW023 OVC032 M02/M06 A3019 830 72 -900 360/04 RMK AO2 TSNO
94908KDBQ DBQ20000311003011503/11/00 00:30:31  5-MIN KDBQ 110630Z AUTO 35005KT 10SM FEW023 OVC032 M02/M06 A3019 830 72 -900 350/05 RMK AO2 TSNO
94908KDBQ DBQ20000311003510803/11/00 00:35:31  5-MIN KDBQ 110635Z AUTO 01005KT 10SM OVC032 M02/M06 A3018 830 72 -900 010/05 RMK AO2 TSNO
94908KDBQ DBQ20000311004010803/11/00 00:40:31  5-MIN KDBQ 110640Z AUTO 02004KT 10SM OVC032 M02/M06 A3019 830 72 -900 010/04 RMK AO2 TSNO
94908KDBQ DBQ20000311004510803/11/00 00:45:31  5-MIN KDBQ 110645Z AUTO 01005KT 10SM OVC032 M02/M06 A3018 830 72 -900 010/05 RMK AO2 TSNO
94908KDBQ DBQ20000311005012503/11/00 00:50:31  5-MIN KDBQ 110650Z AUTO 36005KT 10SM OVC032 M02/M06 A3018 840 72 -900 350/05 RMK AO2 SLP234 T10171061 TSNO
94908KDBQ DBQ20000311005512503/11/00 00:55:31  5-MIN KDBQ 110655Z AUTO 01005KT 10SM OVC032 M02/M06 A3018 840 72 -900 010/05 RMK AO2 SLP234 T10171061 TSNO
94908KDBQ DBQ20000311010010803/11/00 01:00:31  5-MIN KDBQ 110700Z AUTO 02005KT 10SM OVC032 M02/M06 A3018 840 72 -900 020/05 RMK AO2 TSNO
94908KDBQ DBQ20000311010510803/11/00 01:05:31  5-MIN KDBQ 110705Z AUTO 02005KT 10SM OVC032 M02/M06 A3018 840 72 -900 020/05 RMK AO2 TSNO
94908KDBQ DBQ20000311011010803/11/00 01:10:31  5-MIN KDBQ 110710Z AUTO 03005KT 10SM OVC030 M02/M06 A3019 830 72 -900 030/05 RMK AO2 TSNO
94908KDBQ DBQ20000311011510803/11/00 01:15:31  5-MIN KDBQ 110715Z AUTO 04004KT 10SM OVC030 M02/M07 A3019 830 69 -900 040/04 RMK AO2 TSNO
94908KDBQ DBQ20000311012010803/11/00 01:20:31  5-MIN KDBQ 110720Z AUTO 04005KT 10SM OVC030 M02/M07 A3019 830 69 -900 040/05 RMK AO2 TSNO
94908KDBQ DBQ20000311012510803/11/00 01:25:31  5-MIN KDBQ 110725Z AUTO 05004KT 10SM OVC030 M02/M06 A3019 830 72 -900 050/04 RMK AO2 TSNO
94908KDBQ DBQ20000311013010803/11/00 01:30:31  5-MIN KDBQ 110730Z AUTO 04004KT 10SM OVC030 M02/M07 A3019 830 69 -900 030/04 RMK AO2 TSNO
94908KDBQ DBQ20000311013510803/11/00 01:35:31  5-MIN KDBQ 110735Z AUTO 02003KT 10SM OVC030 M02/M07 A3019 830 69 -900 020/03 RMK AO2 TSNO
94908KDBQ DBQ20000311014010803/11/00 01:40:31  5-MIN KDBQ 110740Z AUTO 35004KT 10SM OVC028 M02/M06 A3019 830 72 -900 350/04 RMK AO2 TSNO
94908KDBQ DBQ20000311014510803/11/00 01:45:31  5-MIN KDBQ 110745Z AUTO 01003KT 10SM OVC028 M02/M07 A3019 830 69 -900 010/03 RMK AO2 TSNO
94908KDBQ DBQ20000311015012503/11/00 01:50:31  5-MIN KDBQ 110750Z AUTO 02004KT 10SM OVC028 M02/M07 A3019 830 69 -900 020/04 RMK AO2 SLP235 T10171067 TSNO
94908KDBQ DBQ20000311015512503/11/00 01:55:31  5-MIN KDBQ 110755Z AUTO 02003KT 10SM OVC028 M02/M06 A3019 830 72 -900 020/03 RMK AO2 SLP235 T10171061 TSNO
94908KDBQ DBQ20000311020010803/11/00 02:00:31  5-MIN KDBQ 110800Z AUTO 01004KT 10SM OVC028 M02/M07 A3019 830 69 -900 010/04 RMK AO2 TSNO
94908KDBQ DBQ20000311020510803/11/00 02:05:31  5-MIN KDBQ 110805Z AUTO 01005KT 10SM OVC030 M02/M07 A3019 830 69 -900 010/05 RMK AO2 TSNO
94908KDBQ DBQ20000311021010803/11/00 02:10:31  5-MIN KDBQ 110810Z AUTO 02004KT 10SM OVC030 M02/M07 A3019 830 69 -900 020/04 RMK AO2 TSNO
94908KDBQ DBQ20000311021510803/11/00 02:15:31  5-MIN KDBQ 110815Z AUTO 35004KT 10SM OVC030 M02/M07 A3018 830 69 -900 350/04 RMK AO2 TSNO
94908KDBQ DBQ20000311022010903/11/00 02:20:31  5-MIN KDBQ 110820Z AUTO 01003KT 10SM OVC030 M02/M07 A3019 830 72 -1000 010/03 RMK AO2 TSNO
94908KDBQ DBQ20000311022510903/11/00 02:25:31  5-MIN KDBQ 110825Z AUTO 02004KT 10SM OVC030 M02/M07 A3019 830 72 -1000 020/04 RMK AO2 TSNO
94908KDBQ DBQ20000311023010903/11/00 02:30:31  5-MIN KDBQ 110830Z AUTO 01004KT 10SM OVC030 M02/M07 A3018 840 72 -1000 010/04 RMK AO2 TSNO
94908KDBQ DBQ20000311023510903/11/00 02:35:31  5-MIN KDBQ 110835Z AUTO 01003KT 10SM OVC030 M02/M07 A3018 840 72 -1000 010/03 RMK AO2 TSNO
94908KDBQ DBQ20000311024010903/11/00 02:40:31  5-MIN KDBQ 110840Z AUTO 36003KT 10SM OVC028 M02/M07 A3018 840 72 -1000 360/03 RMK AO2 TSNO
94908KDBQ DBQ20000311024510903/11/00 02:45:31  5-MIN KDBQ 110845Z AUTO VRB03KT 10SM OVC028 M02/M07 A3019 830 72 -1000 VRB/03 RMK AO2 TSNO
94908KDBQ DBQ20000311025013203/11/00 02:50:31  5-MIN KDBQ 110850Z AUTO 01003KT 10SM OVC028 M02/M06 A3019 830 75 -1000 010/03 RMK AO2 SLP235 T10221061 58006 TSNO
94908KDBQ DBQ20000311025513203/11/00 02:55:31  5-MIN KDBQ 110855Z AUTO 03004KT 10SM OVC028 M02/M07 A3019 830 72 -1000 020/04 RMK AO2 SLP235 T10221067 56005 TSNO
94908KDBQ DBQ20000311030010903/11/00 03:00:31  5-MIN KDBQ 110900Z AUTO 03004KT 10SM OVC028 M02/M07 A3018 840 72 -1000 030/04 RMK AO2 TSNO
94908KDBQ DBQ20000311030510903/11/00 03:05:31  5-MIN KDBQ 110905Z AUTO 01004KT 10SM OVC028 M02/M07 A3018 840 72 -1000 010/04 RMK AO2 TSNO
94908KDBQ DBQ20000311031010903/11/00 03:10:31  5-MIN KDBQ 110910Z AUTO 01004KT 10SM OVC028 M02/M07 A3018 840 69 -1000 010/04 RMK AO2 TSNO
94908KDBQ DBQ20000311031510903/11/00 03:15:31  5-MIN KDBQ 110915Z AUTO 36004KT 10SM OVC028 M02/M07 A3018 840 69 -1000 360/04 RMK AO2 TSNO
94908KDBQ DBQ20000311032010903/11/00 03:20:31  5-MIN KDBQ 110920Z AUTO 02003KT 10SM OVC028 M02/M07 A3018 840 72 -1000 020/03 RMK AO2 TSNO
94908KDBQ DBQ20000311032510903/11/00 03:25:31  5-MIN KDBQ 110925Z AUTO 01004KT 10SM OVC028 M02/M07 A3018 840 72 -1000 010/04 RMK AO2 TSNO
94908KDBQ DBQ20000311033010903/11/00 03:30:31  5-MIN KDBQ 110930Z AUTO 01005KT 10SM OVC026 M02/M07 A3018 840 69 -1000 010/05 RMK AO2 TSNO
94908KDBQ DBQ20000311033510903/11/00 03:35:31  5-MIN KDBQ 110935Z AUTO 01003KT 10SM OVC026 M02/M07 A3018 840 69 -1000 010/03 RMK AO2 TSNO
94908KDBQ DBQ20000311034010903/11/00 03:40:31  5-MIN KDBQ 110940Z AUTO VRB03KT 10SM OVC026 M02/M07 A3018 840 69 -1000 VRB/03 RMK AO2 TSNO
94908KDBQ DBQ20000311034510903/11/00 03:45:31  5-MIN KDBQ 110945Z AUTO 02003KT 10SM OVC026 M02/M07 A3018 840 72 -1000 020/03 RMK AO2 TSNO
94908KDBQ DBQ20000311035012603/11/00 03:50:31  5-MIN KDBQ 110950Z AUTO 00000KT 10SM OVC026 M02/M07 A3019 830 72 -1000 000/00 RMK AO2 SLP236 T10221067 TSNO
94908KDBQ DBQ20000311035512503/11/00 03:55:31  5-MIN KDBQ 110955Z AUTO 00000KT 10SM OVC026 M02/M07 A3019 830 69 -900 000/00 RMK AO2 SLP236 T10171067 TSNO
94908KDBQ DBQ20000311040010903/11/00 04:00:31  5-MIN KDBQ 111000Z AUTO 35006KT 10SM OVC026 M02/M07 A3019 830 69 -1000 350/06 RMK AO2 TSNO
94908KDBQ DBQ20000311040510903/11/00 04:05:31  5-MIN KDBQ 111005Z AUTO 34007KT 10SM OVC028 M02/M08 A3019 830 66 -1000 340/07 RMK AO2 TSNO
94908KDBQ DBQ20000311041010903/11/00 04:10:31  5-MIN KDBQ 111010Z AUTO 34007KT 10SM OVC028 M02/M08 A3019 830 66 -1000 340/07 RMK AO2 TSNO
94908KDBQ DBQ20000311041510903/11/00 04:15:31  5-MIN KDBQ 111015Z AUTO 33007KT 10SM OVC028 M02/M08 A3019 830 66 -1000 330/07 RMK AO2 TSNO
94908KDBQ DBQ20000311042010903/11/00 04:20:31  5-MIN KDBQ 111020Z AUTO 33007KT 10SM OVC028 M02/M08 A3019 830 66 -1000 330/07 RMK AO2 TSNO
94908KDBQ DBQ20000311042510903/11/00 04:25:31  5-MIN KDBQ 111025Z AUTO 33007KT 10SM OVC028 M02/M08 A3019 830 66 -1000 330/07 RMK AO2 TSNO
94908KDBQ DBQ20000311043010903/11/00 04:30:31  5-MIN KDBQ 111030Z AUTO 33007KT 10SM OVC028 M02/M08 A3019 830 63 -1000 330/07 RMK AO2 TSNO
94908KDBQ DBQ20000311043510903/11/00 04:35:31  5-MIN KDBQ 111035Z AUTO 33007KT 10SM OVC028 M02/M08 A3019 830 63 -1000 330/07 RMK AO2 TSNO
94908KDBQ DBQ20000311044010903/11/00 04:40:31  5-MIN KDBQ 111040Z AUTO 33007KT 10SM OVC028 M02/M08 A3019 830 63 -1000 330/07 RMK AO2 TSNO
94908KDBQ DBQ20000311044510903/11/00 04:45:31  5-MIN KDBQ 111045Z AUTO 33009KT 10SM OVC028 M02/M08 A3019 830 63 -1000 330/09 RMK AO2 TSNO
94908KDBQ DBQ20000311045012603/11/00 04:50:31  5-MIN KDBQ 111050Z AUTO 33009KT 10SM OVC028 M02/M09 A3018 840 60 -1000 330/09 RMK AO2 SLP235 T10221089 TSNO
94908KDBQ DBQ20000311045512603/11/00 04:55:31  5-MIN KDBQ 111055Z AUTO 33007KT 10SM OVC028 M02/M09 A3019 830 60 -1000 330/07 RMK AO2 SLP235 T10221089 TSNO
94908KDBQ DBQ20000311050010903/11/00 05:00:31  5-MIN KDBQ 111100Z AUTO 34008KT 10SM OVC028 M02/M09 A3019 830 60 -1000 340/08 RMK AO2 TSNO
94908KDBQ DBQ20000311050510903/11/00 05:05:31  5-MIN KDBQ 111105Z AUTO 33009KT 10SM OVC028 M02/M09 A3019 830 60 -1000 330/09 RMK AO2 TSNO
94908KDBQ DBQ20000311051010903/11/00 05:10:31  5-MIN KDBQ 111110Z AUTO 33009KT 10SM OVC028 M02/M09 A3019 830 60 -1000 330/09 RMK AO2 TSNO
94908KDBQ DBQ20000311051510903/11/00 05:15:31  5-MIN KDBQ 111115Z AUTO 34009KT 10SM OVC028 M02/M09 A3019 830 60 -1000 340/09 RMK AO2 TSNO
94908KDBQ DBQ20000311052010903/11/00 05:20:31  5-MIN KDBQ 111120Z AUTO 34009KT 10SM OVC030 M02/M09 A3019 830 60 -1000 340/09 RMK AO2 TSNO
94908KDBQ DBQ20000311052510903/11/00 05:25:31  5-MIN KDBQ 111125Z AUTO 34008KT 10SM OVC030 M02/M09 A3019 830 60 -1000 340/08 RMK AO2 TSNO
94908KDBQ DBQ20000311053010903/11/00 05:30:31  5-MIN KDBQ 111130Z AUTO 33008KT 10SM OVC030 M03/M09 A3019 830 63 -1100 330/08 RMK AO2 TSNO
94908KDBQ DBQ20000311053510903/11/00 05:35:31  5-MIN KDBQ 111135Z AUTO 34009KT 10SM OVC030 M03/M09 A3019 830 63 -1100 340/09 RMK AO2 TSNO
94908KDBQ DBQ20000311054010903/11/00 05:40:31  5-MIN KDBQ 111140Z AUTO 34008KT 10SM OVC030 M03/M09 A3019 830 60 -1100 340/08 RMK AO2 TSNO
94908KDBQ DBQ20000311054510903/11/00 05:45:31  5-MIN KDBQ 111145Z AUTO 34008KT 10SM OVC032 M03/M09 A3019 830 60 -1100 340/08 RMK AO2 TSNO
94908KDBQ DBQ20000311055014403/11/00 05:50:31  5-MIN KDBQ 111150Z AUTO 35008KT 10SM OVC032 M03/M09 A3019 830 60 -1100 340/08 RMK AO2 SLP238 T10281094 11017 21028 56005 TSNO
94908KDBQ DBQ20000311055514403/11/00 05:55:31  5-MIN KDBQ 111155Z AUTO 34007KT 10SM OVC032 M03/M10 A3019 830 58 -1100 340/07 RMK AO2 SLP239 T10281100 11017 21028 53002 TSNO
94908KDBQ DBQ20000311060010903/11/00 06:00:31  5-MIN KDBQ 111200Z AUTO 34007KT 10SM OVC032 M03/M10 A3020 820 58 -1100 340/07 RMK AO2 TSNO
94908KDBQ DBQ20000311060510903/11/00 06:05:31  5-MIN KDBQ 111205Z AUTO 33008KT 10SM OVC032 M03/M10 A3020 820 58 -1100 330/08 RMK AO2 TSNO
94908KDBQ DBQ20000311061010903/11/00 06:10:31  5-MIN KDBQ 111210Z AUTO 33007KT 10SM OVC032 M03/M10 A3021 810 58 -1100 330/07 RMK AO2 TSNO
94908KDBQ DBQ20000311061510903/11/00 06:15:31  5-MIN KDBQ 111215Z AUTO 33008KT 10SM OVC032 M03/M10 A3021 810 58 -1100 330/08 RMK AO2 TSNO
94908KDBQ DBQ20000311062010903/11/00 06:20:31  5-MIN KDBQ 111220Z AUTO 33008KT 10SM OVC032 M03/M09 A3021 810 60 -1100 330/08 RMK AO2 TSNO
94908KDBQ DBQ20000311062510903/11/00 06:25:31  5-MIN KDBQ 111225Z AUTO 33008KT 10SM OVC032 M03/M09 A3021 810 63 -1200 330/08 RMK AO2 TSNO
94908KDBQ DBQ20000311063010903/11/00 06:30:31  5-MIN KDBQ 111230Z AUTO 33007KT 10SM OVC032 M03/M09 A3021 810 63 -1200 330/07 RMK AO2 TSNO
94908KDBQ DBQ20000311063510903/11/00 06:35:31  5-MIN KDBQ 111235Z AUTO 32006KT 10SM BKN032 M03/M09 A3022 810 63 -1200 320/06 RMK AO2 TSNO
94908KDBQ DBQ20000311064010903/11/00 06:40:31  5-MIN KDBQ 111240Z AUTO 33006KT 10SM BKN032 M04/M09 A3021 810 68 -1200 330/06 RMK AO2 TSNO
94908KDBQ DBQ20000311064509903/11/00 06:45:31  5-MIN KDBQ 111245Z 33007KT 10SM SCT032 M04/M09 A3021 810 68 -1200 330/07 RMK AO2
94908KDBQ DBQ20000311065011603/11/00 06:50:31  5-MIN KDBQ 111250Z 33005KT 10SM FEW030 M04/M09 A3021 810 68 -1200 330/05 RMK AO2 SLP244 T10391089
94908KDBQ DBQ20000311065511603/11/00 06:55:31  5-MIN KDBQ 111255Z 33005KT 10SM FEW030 M04/M08 A3021 810 71 -1200 330/05 RMK AO2 SLP245 T10391083
94908KDBQ DBQ20000311070009603/11/00 07:00:31  5-MIN KDBQ 111300Z 33007KT 10SM CLR M04/M08 A3021 810 71 -1200 330/07 RMK AO2
94908KDBQ DBQ20000311070509603/11/00 07:05:31  5-MIN KDBQ 111305Z 33007KT 10SM CLR M04/M08 A3021 810 71 -1200 330/07 RMK AO2
94908KDBQ DBQ20000311071009603/11/00 07:10:31  5-MIN KDBQ 111310Z 33007KT 10SM CLR M03/M08 A3020 820 68 -1100 330/07 RMK AO2
94908KDBQ DBQ20000311071509603/11/00 07:15:31  5-MIN KDBQ 111315Z 33007KT 10SM CLR M03/M08 A3020 820 68 -1100 330/07 RMK AO2
94908KDBQ DBQ20000311072009603/11/00 07:20:31  5-MIN KDBQ 111320Z 33008KT 10SM CLR M03/M08 A3020 820 68 -1100 330/08 RMK AO2
94908KDBQ DBQ20000311072509603/11/00 07:25:31  5-MIN KDBQ 111325Z 32009KT 10SM CLR M03/M08 A3020 820 68 -1100 320/09 RMK AO2
94908KDBQ DBQ20000311073009603/11/00 07:30:31  5-MIN KDBQ 111330Z 33008KT 10SM CLR M03/M08 A3020 820 71 -1100 330/08 RMK AO2
94908KDBQ DBQ20000311073509603/11/00 07:35:31  5-MIN KDBQ 111335Z 33007KT 10SM CLR M03/M08 A3020 820 71 -1100 330/07 RMK AO2
94908KDBQ DBQ20000311074009603/11/00 07:40:31  5-MIN KDBQ 111340Z 34008KT 10SM CLR M03/M08 A3020 820 71 -1100 340/08 RMK AO2
94908KDBQ DBQ20000311074509603/11/00 07:45:31  5-MIN KDBQ 111345Z 34007KT 10SM CLR M03/M08 A3019 830 71 -1100 340/07 RMK AO2
94908KDBQ DBQ20000311075011303/11/00 07:50:31  5-MIN KDBQ 111350Z 34008KT 10SM CLR M03/M08 A3019 830 71 -1100 340/08 RMK AO2 SLP237 T10331078
94908KDBQ DBQ20000311075511303/11/00 07:55:31  5-MIN KDBQ 111355Z 35006KT 10SM CLR M03/M08 A3019 830 68 -1100 350/06 RMK AO2 SLP237 T10281078
94908KDBQ DBQ20000311080009603/11/00 08:00:31  5-MIN KDBQ 111400Z 34008KT 10SM CLR M03/M08 A3018 830 68 -1100 340/08 RMK AO2
94908KDBQ DBQ20000311080509603/11/00 08:05:31  5-MIN KDBQ 111405Z 36009KT 10SM CLR M03/M07 A3018 840 71 -1100 360/09 RMK AO2
94908KDBQ DBQ20000311081009603/11/00 08:10:31  5-MIN KDBQ 111410Z 36007KT 10SM CLR M03/M08 A3018 840 68 -1000 360/07 RMK AO2
94908KDBQ DBQ20000311081509603/11/00 08:15:31  5-MIN KDBQ 111415Z 34008KT 10SM CLR M02/M08 A3018 840 66 -1000 340/08 RMK AO2
94908KDBQ DBQ20000311082009603/11/00 08:20:31  5-MIN KDBQ 111420Z 34008KT 10SM CLR M02/M07 A3018 840 69 -1000 340/08 RMK AO2
94908KDBQ DBQ20000311082509603/11/00 08:25:31  5-MIN KDBQ 111425Z 34009KT 10SM CLR M02/M08 A3018 840 66 -1000 340/09 RMK AO2
94908KDBQ DBQ20000311083009603/11/00 08:30:31  5-MIN KDBQ 111430Z 36009KT 10SM CLR M02/M08 A3018 840 66 -1000 360/09 RMK AO2
94908KDBQ DBQ20000311083509603/11/00 08:35:31  5-MIN KDBQ 111435Z 36009KT 10SM CLR M02/M08 A3018 840 66 -1000 360/09 RMK AO2
94908KDBQ DBQ20000311084009503/11/00 08:40:31  5-MIN KDBQ 111440Z 36008KT 10SM CLR M02/M08 A3018 840 63 -900 360/08 RMK AO2
94908KDBQ DBQ20000311084509503/11/00 08:45:31  5-MIN KDBQ 111445Z 36010KT 10SM CLR M02/M08 A3018 840 63 -900 360/10 RMK AO2
94908KDBQ DBQ20000311085011803/11/00 08:50:31  5-MIN KDBQ 111450Z 01012KT 10SM CLR M02/M08 A3018 840 60 -900 010/12 RMK AO2 SLP233 T10171083 53002
94908KDBQ DBQ20000311085512403/11/00 08:55:31  5-MIN KDBQ 111455Z 01012G17KT 10SM CLR M01/M09 A3018 840 55 -800 010/12G17 RMK AO2 SLP233 T10111089 58004
94908KDBQ DBQ20000311090009503/11/00 09:00:31  5-MIN KDBQ 111500Z 01011KT 10SM CLR M01/M09 A3018 840 55 -800 010/11 RMK AO2
94908KDBQ DBQ20000311090509503/11/00 09:05:31  5-MIN KDBQ 111505Z 02012KT 10SM CLR M01/M09 A3018 840 55 -800 020/12 RMK AO2
94908KDBQ DBQ20000311091009503/11/00 09:10:31  5-MIN KDBQ 111510Z 02012KT 10SM CLR M01/M09 A3018 840 55 -800 020/12 RMK AO2
94908KDBQ DBQ20000311091509503/11/00 09:15:31  5-MIN KDBQ 111515Z 35010KT 10SM CLR M01/M08 A3018 840 56 -800 350/10 RMK AO2
94908KDBQ DBQ20000311092009503/11/00 09:20:31  5-MIN KDBQ 111520Z 34013KT 10SM CLR M01/M09 A3018 840 55 -800 340/13 RMK AO2
94908KDBQ DBQ20000311092509503/11/00 09:25:31  5-MIN KDBQ 111525Z 35014KT 10SM CLR M01/M09 A3017 840 53 -800 350/14 RMK AO2
94908KDBQ DBQ20000311093009503/11/00 09:30:31  5-MIN KDBQ 111530Z 35010KT 10SM CLR M01/M09 A3017 840 53 -800 350/10 RMK AO2
94908KDBQ DBQ20000311093509503/11/00 09:35:31  5-MIN KDBQ 111535Z 01012KT 10SM CLR M01/M09 A3017 850 53 -800 010/12 RMK AO2
94908KDBQ DBQ20000311094009503/11/00 09:40:31  5-MIN KDBQ 111540Z 36013KT 10SM CLR M01/M09 A3017 850 53 -800 360/13 RMK AO2
94908KDBQ DBQ20000311094509503/11/00 09:45:31  5-MIN KDBQ 111545Z 35012KT 10SM CLR M01/M09 A3017 850 51 -800 350/12 RMK AO2
94908KDBQ DBQ20000311095011103/11/00 09:50:31  5-MIN KDBQ 111550Z 01012KT 10SM CLR 00/M09 A3016 850 51 -700 010/12 RMK AO2 SLP227 T00001089
94908KDBQ DBQ20000311095511103/11/00 09:55:31  5-MIN KDBQ 111555Z 36012KT 10SM CLR 00/M09 A3016 860 51 -700 360/12 RMK AO2 SLP227 T00001089
94908KDBQ DBQ20000311100010003/11/00 10:00:31  5-MIN KDBQ 111600Z 36013G18KT 10SM CLR 00/M09 A3016 860 49 -700 360/13G18 RMK AO2
94908KDBQ DBQ20000311100509403/11/00 10:05:31  5-MIN KDBQ 111605Z 34014KT 10SM CLR 00/M09 A3016 860 49 -700 340/14 RMK AO2
94908KDBQ DBQ20000311101009403/11/00 10:10:31  5-MIN KDBQ 111610Z 35013KT 10SM CLR 00/M09 A3016 860 49 -700 350/13 RMK AO2
94908KDBQ DBQ20000311101510003/11/00 10:15:31  5-MIN KDBQ 111615Z 36012G19KT 10SM CLR 01/M09 A3016 860 47 -600 360/12G19 RMK AO2
94908KDBQ DBQ20000311102010003/11/00 10:20:31  5-MIN KDBQ 111620Z 33015G19KT 10SM CLR 00/M09 A3016 860 49 -700 330/15G19 RMK AO2
94908KDBQ DBQ20000311102511003/11/00 10:25:31  5-MIN KDBQ 111625Z 34012KT 310V010 10SM CLR 01/M09 A3015 870 47 -600 340/12 310V010 RMK AO2
94908KDBQ DBQ20000311103009403/11/00 10:30:31  5-MIN KDBQ 111630Z 01013KT 10SM CLR 01/M09 A3015 860 47 -600 010/13 RMK AO2
94908KDBQ DBQ20000311103509403/11/00 10:35:31  5-MIN KDBQ 111635Z 35014KT 10SM CLR 01/M09 A3015 870 47 -600 350/14 RMK AO2
94908KDBQ DBQ20000311104009403/11/00 10:40:31  5-MIN KDBQ 111640Z 35012KT 10SM CLR 01/M09 A3015 870 47 -600 350/12 RMK AO2
94908KDBQ DBQ20000311104510003/11/00 10:45:31  5-MIN KDBQ 111645Z 36013G19KT 10SM CLR 01/M09 A3015 870 45 -500 360/13G19 RMK AO2
94908KDBQ DBQ20000311105011103/11/00 10:50:31  5-MIN KDBQ 111650Z 35011KT 10SM CLR 01/M09 A3015 870 47 -600 350/11 RMK AO2 SLP221 T00061094
94908KDBQ DBQ20000311105511703/11/00 10:55:31  5-MIN KDBQ 111655Z 01013G16KT 10SM CLR 01/M09 A3015 870 45 -500 010/13G16 RMK AO2 SLP221 T00111094
94908KDBQ DBQ20000311110010003/11/00 11:00:31  5-MIN KDBQ 111700Z 02011G18KT 10SM CLR 01/M09 A3015 860 45 -500 020/11G18 RMK AO2
94908KDBQ DBQ20000311110511603/11/00 11:05:31  5-MIN KDBQ 111705Z 34010G18KT 320V030 10SM CLR 01/M09 A3015 860 47 -500 340/10G18 320V030 RMK AO2
94908KDBQ DBQ20000311111009403/11/00 11:10:31  5-MIN KDBQ 111710Z 01011KT 10SM CLR 02/M09 A3015 860 43 -500 010/11 RMK AO2
94908KDBQ DBQ20000311111509403/11/00 11:15:31  5-MIN KDBQ 111715Z 01016KT 10SM CLR 02/M09 A3015 860 43 -500 010/16 RMK AO2
94908KDBQ DBQ20000311112010003/11/00 11:20:31  5-MIN KDBQ 111720Z 01008G18KT 10SM CLR 01/M09 A3016 860 45 -500 010/08G18 RMK AO2
94908KDBQ DBQ20000311112511603/11/00 11:25:31  5-MIN KDBQ 111725Z 34013G17KT 310V010 10SM CLR 02/M09 A3015 860 45 -500 340/13G17 310V010 RMK AO2
94908KDBQ DBQ20000311113010003/11/00 11:30:31  5-MIN KDBQ 111730Z 35012G17KT 10SM CLR 02/M09 A3015 870 43 -500 350/12G17 RMK AO2
94908KDBQ DBQ20000311113509403/11/00 11:35:31  5-MIN KDBQ 111735Z 33015KT 10SM CLR 02/M09 A3015 870 43 -500 330/15 RMK AO2
94908KDBQ DBQ20000311114009403/11/00 11:40:31  5-MIN KDBQ 111740Z 32014KT 10SM CLR 02/M10 A3015 870 42 -500 320/14 RMK AO2
94908KDBQ DBQ20000311114509403/11/00 11:45:31  5-MIN KDBQ 111745Z 01014KT 10SM CLR 02/M11 A3015 870 38 -400 010/14 RMK AO2
94908KDBQ DBQ20000311115012903/11/00 11:50:31  5-MIN KDBQ 111750Z 01013KT 10SM CLR 02/M09 A3015 870 42 -400 010/13 RMK AO2 SLP221 T00221094 10022 21039 58004
94908KDBQ DBQ20000311115512903/11/00 11:55:31  5-MIN KDBQ 111755Z 34011KT 10SM CLR 02/M09 A3015 870 42 -400 340/11 RMK AO2 SLP222 T00221094 10022 21039 55009
94908KDBQ DBQ20000311120009403/11/00 12:00:31  5-MIN KDBQ 111800Z 35012KT 10SM CLR 02/M10 A3015 860 40 -400 350/12 RMK AO2
94908KDBQ DBQ20000311120509403/11/00 12:05:31  5-MIN KDBQ 111805Z 36008KT 10SM CLR 02/M11 A3016 860 38 -400 360/08 RMK AO2
94908KDBQ DBQ20000311121009403/11/00 12:10:31  5-MIN KDBQ 111810Z 34008KT 10SM CLR 02/M11 A3016 860 40 -500 340/08 RMK AO2
94908KDBQ DBQ20000311121510003/11/00 12:15:31  5-MIN KDBQ 111815Z 34008G16KT 10SM CLR 02/M11 A3016 860 38 -400 340/08G16 RMK AO2
94908KDBQ DBQ20000311122009403/11/00 12:20:31  5-MIN KDBQ 111820Z 32011KT 10SM CLR 02/M10 A3015 860 40 -400 320/11 RMK AO2
94908KDBQ DBQ20000311122509403/11/00 12:25:31  5-MIN KDBQ 111825Z 32009KT 10SM CLR 02/M10 A3015 870 40 -400 320/09 RMK AO2
94908KDBQ DBQ20000311123010003/11/00 12:30:31  5-MIN KDBQ 111830Z 35009G15KT 10SM CLR 03/M10 A3015 870 38 -300 350/09G15 RMK AO2
94908KDBQ DBQ20000311123510003/11/00 12:35:31  5-MIN KDBQ 111835Z 33011G15KT 10SM CLR 03/M10 A3015 870 38 -300 330/11G15 RMK AO2
94908KDBQ DBQ20000311124010003/11/00 12:40:31  5-MIN KDBQ 111840Z 01012G15KT 10SM CLR 02/M11 A3014 870 37 -400 360/12G15 RMK AO2
94908KDBQ DBQ20000311124509403/11/00 12:45:31  5-MIN KDBQ 111845Z 35011KT 10SM CLR 03/M11 A3014 870 35 -300 350/11 RMK AO2
94908KDBQ DBQ20000311125011103/11/00 12:50:31  5-MIN KDBQ 111850Z 35010KT 10SM CLR 03/M11 A3014 880 35 -300 340/10 RMK AO2 SLP218 T00281111
94908KDBQ DBQ20000311125511103/11/00 12:55:31  5-MIN KDBQ 111855Z 34010KT 10SM CLR 03/M11 A3014 880 35 -300 330/10 RMK AO2 SLP218 T00281111
94908KDBQ DBQ20000311130010003/11/00 13:00:31  5-MIN KDBQ 111900Z 30008G16KT 10SM CLR 03/M11 A3013 880 35 -200 300/08G16 RMK AO2
94908KDBQ DBQ20000311130510003/11/00 13:05:31  5-MIN KDBQ 111905Z 33014G19KT 10SM CLR 03/M11 A3013 880 35 -200 330/14G19 RMK AO2
94908KDBQ DBQ20000311131010003/11/00 13:10:31  5-MIN KDBQ 111910Z 36008G19KT 10SM CLR 03/M11 A3013 880 35 -300 360/08G19 RMK AO2
94908KDBQ DBQ20000311131510003/11/00 13:15:31  5-MIN KDBQ 111915Z 33014G19KT 10SM CLR 03/M11 A3013 880 34 -200 330/14G19 RMK AO2
94908KDBQ DBQ20000311132010003/11/00 13:20:31  5-MIN KDBQ 111920Z 33006G19KT 10SM CLR 03/M12 A3013 890 34 -300 330/06G19 RMK AO2
94908KDBQ DBQ20000311132510003/11/00 13:25:31  5-MIN KDBQ 111925Z 33012G19KT 10SM CLR 04/M11 A3013 890 34 -200 320/12G19 RMK AO2
94908KDBQ DBQ20000311133010003/11/00 13:30:31  5-MIN KDBQ 111930Z 33010G19KT 10SM CLR 03/M11 A3013 890 35 -200 330/10G19 RMK AO2
94908KDBQ DBQ20000311133510003/11/00 13:35:31  5-MIN KDBQ 111935Z 32012G17KT 10SM CLR 04/M10 A3013 890 35 -200 320/12G17 RMK AO2
94908KDBQ DBQ20000311134009403/11/00 13:40:31  5-MIN KDBQ 111940Z 31010KT 10SM CLR 04/M11 A3012 890 34 -100 310/10 RMK AO2
94908KDBQ DBQ20000311134509403/11/00 13:45:31  5-MIN KDBQ 111945Z 32014KT 10SM CLR 04/M11 A3012 890 34 -100 320/14 RMK AO2
94908KDBQ DBQ20000311135011103/11/00 13:50:31  5-MIN KDBQ 111950Z 34009KT 10SM CLR 04/M11 A3012 890 34 -100 340/09 RMK AO2 SLP211 T00391106
94908KDBQ DBQ20000311135511703/11/00 13:55:31  5-MIN KDBQ 111955Z 34014G22KT 10SM CLR 04/M11 A3012 900 34 -100 340/14G22 RMK AO2 SLP210 T00391106
94908KDBQ DBQ20000311140010003/11/00 14:00:31  5-MIN KDBQ 112000Z 33015G23KT 10SM CLR 04/M11 A3012 900 34 -100 330/15G23 RMK AO2
94908KDBQ DBQ20000311140510003/11/00 14:05:31  5-MIN KDBQ 112005Z 32011G23KT 10SM CLR 04/M11 A3012 900 34 -100 320/11G23 RMK AO2
94908KDBQ DBQ20000311141009403/11/00 14:10:31  5-MIN KDBQ 112010Z 32012KT 10SM CLR 04/M10 A3012 900 35 -100 320/12 RMK AO2
94908KDBQ DBQ20000311141510003/11/00 14:15:31  5-MIN KDBQ 112015Z 33013G18KT 10SM CLR 04/M10 A3011 900 34 -100 330/13G18 RMK AO2
94908KDBQ DBQ20000311142010003/11/00 14:20:31  5-MIN KDBQ 112020Z 34012G18KT 10SM CLR 04/M11 A3011 900 34 -100 340/12G18 RMK AO2
94908KDBQ DBQ20000311142510003/11/00 14:25:31  5-MIN KDBQ 112025Z 33011G15KT 10SM CLR 04/M11 A3011 900 34 -100 330/11G15 RMK AO2
94908KDBQ DBQ20000311143009403/11/00 14:30:31  5-MIN KDBQ 112030Z 36010KT 10SM CLR 04/M11 A3011 900 34 -100 360/10 RMK AO2
94908KDBQ DBQ20000311143510003/11/00 14:35:31  5-MIN KDBQ 112035Z 31012G18KT 10SM CLR 04/M10 A3011 900 34 -100 310/12G18 RMK AO2
94908KDBQ DBQ20000311144010003/11/00 14:40:31  5-MIN KDBQ 112040Z 33011G18KT 10SM CLR 04/M11 A3011 900 34 -100 330/11G18 RMK AO2
94908KDBQ DBQ20000311144510003/11/00 14:45:31  5-MIN KDBQ 112045Z 31010G18KT 10SM CLR 04/M10 A3011 900 34 -100 310/10G18 RMK AO2
94908KDBQ DBQ20000311145012303/11/00 14:50:31  5-MIN KDBQ 112050Z 36007G18KT 10SM CLR 04/M10 A3011 910 34 -100 350/07G18 RMK AO2 SLP206 T00441100 55009
94908KDBQ DBQ20000311145512303/11/00 14:55:31  5-MIN KDBQ 112055Z 33008G18KT 10SM CLR 04/M10 A3011 910 34 -100 330/08G18 RMK AO2 SLP206 T00441100 58015
94908KDBQ DBQ20000311150010003/11/00 15:00:31  5-MIN KDBQ 112100Z 31009G17KT 10SM CLR 04/M10 A3011 910 35 -100 310/09G17 RMK AO2
94908KDBQ DBQ20000311150509403/11/00 15:05:31  5-MIN KDBQ 112105Z 31010KT 10SM CLR 04/M11 A3010 910 34 -100 310/10 RMK AO2
94908KDBQ DBQ20000311151009403/11/00 15:10:31  5-MIN KDBQ 112110Z 31012KT 10SM CLR 04/M10 A3010 910 34 -100 310/12 RMK AO2
94908KDBQ DBQ20000311151510003/11/00 15:15:31  5-MIN KDBQ 112115Z 35012G18KT 10SM CLR 04/M11 A3010 910 33 -100 350/12G18 RMK AO2
94908KDBQ DBQ20000311152010003/11/00 15:20:31  5-MIN KDBQ 112120Z 01009G18KT 10SM CLR 04/M12 A3010 910 30 -100 010/09G18 RMK AO2
94908KDBQ DBQ20000311152509403/11/00 15:25:31  5-MIN KDBQ 112125Z 33008KT 10SM CLR 04/M11 A3010 910 31 -100 330/08 RMK AO2
94908KDBQ DBQ20000311153009403/11/00 15:30:31  5-MIN KDBQ 112130Z 31008KT 10SM CLR 04/M10 A3010 910 34 -100 310/08 RMK AO2
94908KDBQ DBQ20000311153509403/11/00 15:35:31  5-MIN KDBQ 112135Z 34012KT 10SM CLR 04/M11 A3010 920 33 -100 340/12 RMK AO2
94908KDBQ DBQ20000311154009403/11/00 15:40:31  5-MIN KDBQ 112140Z VRB06KT 10SM CLR 04/M11 A3010 920 33 -100 VRB/06 RMK AO2
94908KDBQ DBQ20000311154509403/11/00 15:45:31  5-MIN KDBQ 112145Z 32008KT 10SM CLR 04/M11 A3010 910 33 -100 320/08 RMK AO2
94908KDBQ DBQ20000311155011703/11/00 15:50:31  5-MIN KDBQ 112150Z 33010G17KT 10SM CLR 04/M11 A3010 920 33 -100 330/10G17 RMK AO2 SLP203 T00441106
94908KDBQ DBQ20000311155511703/11/00 15:55:31  5-MIN KDBQ 112155Z 34013G17KT 10SM CLR 04/M11 A3010 920 33 -100 330/13G17 RMK AO2 SLP203 T00441106
94908KDBQ DBQ20000311160009403/11/00 16:00:31  5-MIN KDBQ 112200Z 33013KT 10SM CLR 04/M11 A3010 910 31 -100 330/13 RMK AO2
94908KDBQ DBQ20000311160509403/11/00 16:05:31  5-MIN KDBQ 112205Z 31010KT 10SM CLR 04/M11 A3010 910 31 -100 310/10 RMK AO2
94908KDBQ DBQ20000311161009403/11/00 16:10:31  5-MIN KDBQ 112210Z 33011KT 10SM CLR 04/M11 A3010 910 33 -100 330/11 RMK AO2
94908KDBQ DBQ20000311161509403/11/00 16:15:31  5-MIN KDBQ 112215Z 31013KT 10SM CLR 04/M11 A3010 910 31 -100 310/13 RMK AO2
94908KDBQ DBQ20000311162009403/11/00 16:20:31  5-MIN KDBQ 112220Z 30013KT 10SM CLR 04/M11 A3010 910 33 -100 300/13 RMK AO2
94908KDBQ DBQ20000311162509403/11/00 16:25:31  5-MIN KDBQ 112225Z 30012KT 10SM CLR 04/M11 A3010 920 33 -100 300/12 RMK AO2
94908KDBQ DBQ20000311163009703/11/00 16:30:31  5-MIN KDBQ 112230Z 30012G20KT 10SM CLR 04/M11 A3010 920 33 0 300/12G20 RMK AO2
94908KDBQ DBQ20000311163509703/11/00 16:35:31  5-MIN KDBQ 112235Z 33013G20KT 10SM CLR 04/M11 A3010 920 33 0 330/13G20 RMK AO2
94908KDBQ DBQ20000311164010003/11/00 16:40:31  5-MIN KDBQ 112240Z 32010G17KT 10SM CLR 04/M11 A3009 920 34 -100 310/10G17 RMK AO2
94908KDBQ DBQ20000311164509403/11/00 16:45:31  5-MIN KDBQ 112245Z 31014KT 10SM CLR 04/M11 A3010 920 34 -100 310/14 RMK AO2
94908KDBQ DBQ20000311165011103/11/00 16:50:31  5-MIN KDBQ 112250Z 31009KT 10SM CLR 04/M11 A3010 920 32 -100 310/09 RMK AO2 SLP202 T00391111
94908KDBQ DBQ20000311165511103/11/00 16:55:31  5-MIN KDBQ 112255Z 32013KT 10SM CLR 04/M12 A3010 910 31 -100 320/13 RMK AO2 SLP203 T00391117
94908KDBQ DBQ20000311170009403/11/00 17:00:31  5-MIN KDBQ 112300Z 33011KT 10SM CLR 04/M12 A3010 910 31 -100 330/11 RMK AO2
94908KDBQ DBQ20000311170509403/11/00 17:05:31  5-MIN KDBQ 112305Z 33011KT 10SM CLR 04/M12 A3010 910 31 -100 330/11 RMK AO2
94908KDBQ DBQ20000311171009403/11/00 17:10:31  5-MIN KDBQ 112310Z 34010KT 10SM CLR 04/M12 A3010 910 31 -100 340/10 RMK AO2
94908KDBQ DBQ20000311171509403/11/00 17:15:31  5-MIN KDBQ 112315Z 34010KT 10SM CLR 04/M12 A3010 910 31 -100 340/10 RMK AO2
94908KDBQ DBQ20000311172009403/11/00 17:20:31  5-MIN KDBQ 112320Z 34009KT 10SM CLR 03/M12 A3010 910 32 -200 340/09 RMK AO2
94908KDBQ DBQ20000311172509403/11/00 17:25:31  5-MIN KDBQ 112325Z 33008KT 10SM CLR 03/M12 A3010 910 32 -200 320/08 RMK AO2
94908KDBQ DBQ20000311173009403/11/00 17:30:31  5-MIN KDBQ 112330Z 33008KT 10SM CLR 03/M11 A3010 910 35 -300 330/08 RMK AO2
94908KDBQ DBQ20000311173509403/11/00 17:35:31  5-MIN KDBQ 112335Z 32009KT 10SM CLR 03/M11 A3011 910 34 -200 320/09 RMK AO2
94908KDBQ DBQ20000311174009403/11/00 17:40:31  5-MIN KDBQ 112340Z 32010KT 10SM CLR 03/M11 A3011 910 35 -300 320/10 RMK AO2
94908KDBQ DBQ20000311174509403/11/00 17:45:31  5-MIN KDBQ 112345Z 33009KT 10SM CLR 03/M11 A3011 900 35 -300 330/09 RMK AO2
94908KDBQ DBQ20000311175012903/11/00 17:50:31  5-MIN KDBQ 112350Z 32008KT 10SM CLR 02/M11 A3011 900 38 -300 320/08 RMK AO2 SLP209 T00221106 10050 20017 58015
94908KDBQ DBQ20000311175512903/11/00 17:55:31  5-MIN KDBQ 112355Z 32008KT 10SM CLR 02/M11 A3011 900 40 -400 320/08 RMK AO2 SLP210 T00171106 10050 20017 53002
94908KDBQ DBQ20000311180009403/11/00 18:00:31  5-MIN KDBQ 120000Z 32007KT 10SM CLR 02/M10 A3011 900 42 -400 320/07 RMK AO2
94908KDBQ DBQ20000311180509403/11/00 18:05:31  5-MIN KDBQ 120005Z 32008KT 10SM CLR 01/M10 A3011 900 43 -500 320/08 RMK AO2
94908KDBQ DBQ20000311181009403/11/00 18:10:31  5-MIN KDBQ 120010Z 32007KT 10SM CLR 01/M10 A3012 900 45 -600 320/07 RMK AO2
94908KDBQ DBQ20000311181509403/11/00 18:15:31  5-MIN KDBQ 120015Z 31008KT 10SM CLR 01/M10 A3012 900 45 -600 310/08 RMK AO2
94908KDBQ DBQ20000311182009403/11/00 18:20:31  5-MIN KDBQ 120020Z 31007KT 10SM CLR 00/M10 A3012 900 47 -600 310/07 RMK AO2
94908KDBQ DBQ20000311182509503/11/00 18:25:31  5-MIN KDBQ 120025Z 30006KT 10SM CLR M01/M10 A3012 900 49 -700 300/06 RMK AO2
94908KDBQ DBQ20000311183009503/11/00 18:30:31  5-MIN KDBQ 120030Z 30007KT 10SM CLR M01/M10 A3012 900 51 -800 300/07 RMK AO2
94908KDBQ DBQ20000311183509503/11/00 18:35:31  5-MIN KDBQ 120035Z 30006KT 10SM CLR M01/M10 A3012 900 51 -800 300/06 RMK AO2
94908KDBQ DBQ20000311184009503/11/00 18:40:31  5-MIN KDBQ 120040Z 30006KT 10SM CLR M01/M10 A3012 890 51 -800 300/06 RMK AO2
94908KDBQ DBQ20000311184509503/11/00 18:45:31  5-MIN KDBQ 120045Z 29006KT 10SM CLR M02/M10 A3012 890 53 -800 290/06 RMK AO2
94908KDBQ DBQ20000311185011203/11/00 18:50:31  5-MIN KDBQ 120050Z 30006KT 10SM CLR M01/M10 A3012 890 49 -700 290/06 RMK AO2 SLP214 T10061100
94908KDBQ DBQ20000311185511103/11/00 18:55:31  5-MIN KDBQ 120055Z 30006KT 10SM CLR 00/M10 A3012 890 47 -600 300/06 RMK AO2 SLP214 T00001100
94908KDBQ DBQ20000311190009503/11/00 19:00:31  5-MIN KDBQ 120100Z 30005KT 10SM CLR M01/M10 A3012 890 49 -700 300/05 RMK AO2
94908KDBQ DBQ20000311190509403/11/00 19:05:31  5-MIN KDBQ 120105Z 30005KT 10SM CLR 00/M10 A3012 890 47 -600 290/05 RMK AO2
94908KDBQ DBQ20000311191009403/11/00 19:10:31  5-MIN KDBQ 120110Z 29005KT 10SM CLR 00/M10 A3012 890 47 -600 280/05 RMK AO2
94908KDBQ DBQ20000311191509503/11/00 19:15:31  5-MIN KDBQ 120115Z 28004KT 10SM CLR M02/M10 A3012 890 53 -800 280/04 RMK AO2
94908KDBQ DBQ20000311192009503/11/00 19:20:31  5-MIN KDBQ 120120Z 28005KT 10SM CLR M02/M10 A3013 890 55 -900 270/05 RMK AO2
94908KDBQ DBQ20000311192509503/11/00 19:25:31  5-MIN KDBQ 120125Z 28005KT 10SM CLR M02/M10 A3013 890 55 -900 280/05 RMK AO2
94908KDBQ DBQ20000311193009503/11/00 19:30:31  5-MIN KDBQ 120130Z 28005KT 10SM CLR M02/M10 A3013 890 55 -900 280/05 RMK AO2
94908KDBQ DBQ20000311193509503/11/00 19:35:31  5-MIN KDBQ 120135Z 29006KT 10SM CLR M02/M10 A3013 890 53 -900 290/06 RMK AO2
94908KDBQ DBQ20000311194009503/11/00 19:40:31  5-MIN KDBQ 120140Z 29007KT 10SM CLR M02/M09 A3013 880 55 -900 290/07 RMK AO2
94908KDBQ DBQ20000311194509503/11/00 19:45:31  5-MIN KDBQ 120145Z 29007KT 10SM CLR M02/M09 A3013 880 55 -900 290/07 RMK AO2
94908KDBQ DBQ20000311195011203/11/00 19:50:31  5-MIN KDBQ 120150Z 29008KT 10SM CLR M01/M09 A3013 880 55 -800 290/08 RMK AO2 SLP218 T10111089
94908KDBQ DBQ20000311195511203/11/00 19:55:31  5-MIN KDBQ 120155Z 30009KT 10SM CLR M01/M08 A3013 880 58 -800 300/09 RMK AO2 SLP218 T10111083
94908KDBQ DBQ20000311200009503/11/00 20:00:31  5-MIN KDBQ 120200Z 30009KT 10SM CLR M01/M08 A3014 880 58 -800 300/09 RMK AO2
94908KDBQ DBQ20000311200509503/11/00 20:05:31  5-MIN KDBQ 120205Z 30009KT 10SM CLR M01/M08 A3014 880 56 -700 300/09 RMK AO2
94908KDBQ DBQ20000311201009503/11/00 20:10:31  5-MIN KDBQ 120210Z 30009KT 10SM CLR M01/M08 A3014 880 58 -800 300/09 RMK AO2
94908KDBQ DBQ20000311201509503/11/00 20:15:31  5-MIN KDBQ 120215Z 30009KT 10SM CLR M01/M08 A3014 880 56 -700 300/09 RMK AO2
94908KDBQ DBQ20000311202009503/11/00 20:20:31  5-MIN KDBQ 120220Z 30008KT 10SM CLR M01/M08 A3014 880 58 -800 300/08 RMK AO2
94908KDBQ DBQ20000311202509503/11/00 20:25:31  5-MIN KDBQ 120225Z 30009KT 10SM CLR M01/M08 A3014 880 58 -800 300/09 RMK AO2
94908KDBQ DBQ20000311203009503/11/00 20:30:31  5-MIN KDBQ 120230Z 30008KT 10SM CLR M01/M08 A3014 880 58 -800 300/08 RMK AO2
94908KDBQ DBQ20000311203509503/11/00 20:35:31  5-MIN KDBQ 120235Z 30008KT 10SM CLR M01/M08 A3014 880 58 -800 300/08 RMK AO2
94908KDBQ DBQ20000311204009503/11/00 20:40:31  5-MIN KDBQ 120240Z 30008KT 10SM CLR M01/M08 A3014 880 58 -800 300/08 RMK AO2
94908KDBQ DBQ20000311204509503/11/00 20:45:31  5-MIN KDBQ 120245Z 30008KT 10SM CLR M01/M08 A3014 870 58 -800 300/08 RMK AO2
94908KDBQ DBQ20000311205012803/11/00 20:50:31  5-MIN KDBQ 120250Z AUTO 30008KT 10SM CLR M02/M08 A3014 870 60 -900 300/08 RMK AO2 SLP221 T10171083 53002 TSNO
94908KDBQ DBQ20000311205512803/11/00 20:55:31  5-MIN KDBQ 120255Z AUTO 30008KT 10SM CLR M02/M08 A3014 870 60 -900 300/08 RMK AO2 SLP221 T10171083 52010 TSNO
94908KDBQ DBQ20000311210010503/11/00 21:00:31  5-MIN KDBQ 120300Z AUTO 30009KT 10SM CLR M01/M08 A3014 870 58 -800 300/09 RMK AO2 TSNO
94908KDBQ DBQ20000311210510503/11/00 21:05:31  5-MIN KDBQ 120305Z AUTO 30009KT 10SM CLR M01/M08 A3015 870 56 -700 300/09 RMK AO2 TSNO
94908KDBQ DBQ20000311211010503/11/00 21:10:31  5-MIN KDBQ 120310Z AUTO 30009KT 10SM CLR M01/M08 A3015 870 60 -800 300/09 RMK AO2 TSNO
94908KDBQ DBQ20000311211510503/11/00 21:15:31  5-MIN KDBQ 120315Z AUTO 30009KT 10SM CLR M01/M08 A3015 870 58 -700 300/09 RMK AO2 TSNO
94908KDBQ DBQ20000311212010503/11/00 21:20:31  5-MIN KDBQ 120320Z AUTO 30009KT 10SM CLR M01/M08 A3014 870 60 -800 300/09 RMK AO2 TSNO
94908KDBQ DBQ20000311212510503/11/00 21:25:31  5-MIN KDBQ 120325Z AUTO 30010KT 10SM CLR M01/M08 A3015 870 58 -700 300/10 RMK AO2 TSNO
94908KDBQ DBQ20000311213010503/11/00 21:30:31  5-MIN KDBQ 120330Z AUTO 30009KT 10SM CLR M01/M08 A3015 870 58 -700 300/09 RMK AO2 TSNO
94908KDBQ DBQ20000311213510503/11/00 21:35:31  5-MIN KDBQ 120335Z AUTO 30008KT 10SM CLR M01/M08 A3014 870 60 -800 300/08 RMK AO2 TSNO
94908KDBQ DBQ20000311214010503/11/00 21:40:31  5-MIN KDBQ 120340Z AUTO 30008KT 10SM CLR M02/M08 A3015 870 63 -900 300/08 RMK AO2 TSNO
94908KDBQ DBQ20000311214510503/11/00 21:45:31  5-MIN KDBQ 120345Z AUTO 30009KT 10SM CLR M02/M08 A3015 870 63 -900 300/09 RMK AO2 TSNO
94908KDBQ DBQ20000311215012203/11/00 21:50:31  5-MIN KDBQ 120350Z AUTO 30008KT 10SM CLR M02/M08 A3015 870 63 -900 300/08 RMK AO2 SLP221 T10171078 TSNO
94908KDBQ DBQ20000311215512203/11/00 21:55:31  5-MIN KDBQ 120355Z AUTO 30008KT 10SM CLR M02/M08 A3015 870 63 -900 300/08 RMK AO2 SLP221 T10171078 TSNO
94908KDBQ DBQ20000311220010503/11/00 22:00:31  5-MIN KDBQ 120400Z AUTO 30008KT 10SM CLR M01/M08 A3015 870 60 -800 300/08 RMK AO2 TSNO
94908KDBQ DBQ20000311220510503/11/00 22:05:31  5-MIN KDBQ 120405Z AUTO 30008KT 10SM CLR M02/M08 A3015 870 63 -900 300/08 RMK AO2 TSNO
94908KDBQ DBQ20000311221010503/11/00 22:10:31  5-MIN KDBQ 120410Z AUTO 30008KT 10SM CLR M02/M08 A3015 870 63 -900 290/08 RMK AO2 TSNO
94908KDBQ DBQ20000311221510503/11/00 22:15:31  5-MIN KDBQ 120415Z AUTO 30007KT 10SM CLR M02/M08 A3015 870 63 -900 300/07 RMK AO2 TSNO
94908KDBQ DBQ20000311222010503/11/00 22:20:31  5-MIN KDBQ 120420Z AUTO 30007KT 10SM CLR M02/M08 A3015 870 66 -900 290/07 RMK AO2 TSNO
94908KDBQ DBQ20000311222510603/11/00 22:25:31  5-MIN KDBQ 120425Z AUTO 30007KT 10SM CLR M03/M08 A3015 870 68 -1000 300/07 RMK AO2 TSNO
94908KDBQ DBQ20000311223010603/11/00 22:30:31  5-MIN KDBQ 120430Z AUTO 30008KT 10SM CLR M03/M08 A3014 870 68 -1000 300/08 RMK AO2 TSNO
94908KDBQ DBQ20000311223510503/11/00 22:35:31  5-MIN KDBQ 120435Z AUTO 30008KT 10SM CLR M02/M08 A3014 870 66 -900 300/08 RMK AO2 TSNO
94908KDBQ DBQ20000311224010503/11/00 22:40:31  5-MIN KDBQ 120440Z AUTO 30008KT 10SM CLR M02/M08 A3014 870 66 -900 300/08 RMK AO2 TSNO
94908KDBQ DBQ20000311224510503/11/00 22:45:31  5-MIN KDBQ 120445Z AUTO 30008KT 10SM CLR M02/M08 A3014 870 66 -900 300/08 RMK AO2 TSNO
94908KDBQ DBQ20000311225012303/11/00 22:50:31  5-MIN KDBQ 120450Z AUTO 30008KT 10SM CLR M03/M08 A3014 870 68 -1000 300/08 RMK AO2 SLP220 T10281078 TSNO
94908KDBQ DBQ20000311225512303/11/00 22:55:31  5-MIN KDBQ 120455Z AUTO 31008KT 10SM CLR M03/M08 A3014 870 68 -1000 310/08 RMK AO2 SLP220 T10281078 TSNO
94908KDBQ DBQ20000311230010503/11/00 23:00:31  5-MIN KDBQ 120500Z AUTO 31008KT 10SM CLR M02/M08 A3014 870 66 -900 310/08 RMK AO2 TSNO
94908KDBQ DBQ20000311230510503/11/00 23:05:31  5-MIN KDBQ 120505Z AUTO 31009KT 10SM CLR M02/M08 A3014 870 66 -900 310/09 RMK AO2 TSNO
94908KDBQ DBQ20000311231010503/11/00 23:10:31  5-MIN KDBQ 120510Z AUTO 30009KT 10SM CLR M02/M08 A3014 880 66 -900 300/09 RMK AO2 TSNO
94908KDBQ DBQ20000311231510503/11/00 23:15:31  5-MIN KDBQ 120515Z AUTO 31009KT 10SM CLR M02/M08 A3014 880 66 -900 300/09 RMK AO2 TSNO
94908KDBQ DBQ20000311232010603/11/00 23:20:31  5-MIN KDBQ 120520Z AUTO 30008KT 10SM CLR M03/M08 A3014 880 68 -1000 300/08 RMK AO2 TSNO
94908KDBQ DBQ20000311232510603/11/00 23:25:31  5-MIN KDBQ 120525Z AUTO 30008KT 10SM CLR M03/M08 A3014 880 68 -1000 300/08 RMK AO2 TSNO
94908KDBQ DBQ20000311233010603/11/00 23:30:31  5-MIN KDBQ 120530Z AUTO 29007KT 10SM CLR M03/M08 A3014 880 71 -1100 290/07 RMK AO2 TSNO
94908KDBQ DBQ20000311233510603/11/00 23:35:31  5-MIN KDBQ 120535Z AUTO 29008KT 10SM CLR M03/M08 A3014 880 68 -1000 290/08 RMK AO2 TSNO
94908KDBQ DBQ20000311234010603/11/00 23:40:31  5-MIN KDBQ 120540Z AUTO 30008KT 10SM CLR M03/M08 A3014 880 68 -1000 300/08 RMK AO2 TSNO
94908KDBQ DBQ20000311234510603/11/00 23:45:31  5-MIN KDBQ 120545Z AUTO 30008KT 10SM CLR M03/M08 A3014 870 68 -1000 300/08 RMK AO2 TSNO
94908KDBQ DBQ20000311235015103/11/00 23:50:31  5-MIN KDBQ 120550Z AUTO 30008KT 10SM CLR M03/M08 A3014 870 71 -1100 300/08 RMK AO2 SLP220 T10331078 10017 21033 400501039 52010 TSNO
94908KDBQ DBQ20000311235515103/11/00 23:55:31  5-MIN KDBQ 120555Z AUTO 29007KT 10SM CLR M03/M08 A3014 870 71 -1100 290/07 RMK AO2 SLP220 T10331078 10017 21033 400501039 58001 TSNO
94908KDBQ DBQ20000312000010603/12/00 00:00:31  5-MIN KDBQ 120600Z AUTO 30007KT 10SM CLR M03/M08 A3014 870 68 -1100 290/07 RMK AO2 TSNO
94908KDBQ DBQ20000312000510603/12/00 00:05:31  5-MIN KDBQ 120605Z AUTO 30007KT 10SM CLR M03/M08 A3014 870 68 -1100 300/07 RMK AO2 TSNO
94908KDBQ DBQ20000312001010603/12/00 00:10:31  5-MIN KDBQ 120610Z AUTO 30007KT 10SM CLR M03/M08 A3014 870 68 -1100 300/07 RMK AO2 TSNO
94908KDBQ DBQ20000312001510603/12/00 00:15:31  5-MIN KDBQ 120615Z AUTO 29006KT 10SM CLR M03/M08 A3014 870 68 -1100 290/06 RMK AO2 TSNO
94908KDBQ DBQ20000312002010603/12/00 00:20:31  5-MIN KDBQ 120620Z AUTO 29006KT 10SM CLR M03/M08 A3014 870 68 -1100 290/06 RMK AO2 TSNO
94908KDBQ DBQ20000312002510603/12/00 00:25:31  5-MIN KDBQ 120625Z AUTO 29006KT 10SM CLR M04/M08 A3014 870 71 -1100 290/06 RMK AO2 TSNO
94908KDBQ DBQ20000312003010603/12/00 00:30:31  5-MIN KDBQ 120630Z AUTO 29005KT 10SM CLR M04/M08 A3014 870 71 -1100 290/05 RMK AO2 TSNO
94908KDBQ DBQ20000312003510603/12/00 00:35:31  5-MIN KDBQ 120635Z AUTO 28005KT 10SM CLR M04/M08 A3014 870 71 -1100 280/05 RMK AO2 TSNO
94908KDBQ DBQ20000312004010603/12/00 00:40:31  5-MIN KDBQ 120640Z AUTO 00000KT 10SM CLR M03/M08 A3014 870 68 -1100 000/00 RMK AO2 TSNO
94908KDBQ DBQ20000312004510603/12/00 00:45:31  5-MIN KDBQ 120645Z AUTO 00000KT 10SM CLR M03/M08 A3014 870 68 -1100 000/00 RMK AO2 TSNO
94908KDBQ DBQ20000312005012303/12/00 00:50:31  5-MIN KDBQ 120650Z AUTO 00000KT 10SM CLR M03/M08 A3015 870 66 -1000 000/00 RMK AO2 SLP220 T10281083 TSNO
94908KDBQ DBQ20000312005512303/12/00 00:55:31  5-MIN KDBQ 120655Z AUTO 00000KT 10SM CLR M03/M08 A3015 870 66 -1000 000/00 RMK AO2 SLP220 T10281083 TSNO
94908KDBQ DBQ20000312010010503/12/00 01:00:31  5-MIN KDBQ 120700Z AUTO 00000KT 10SM CLR M02/M08 A3015 870 66 -900 000/00 RMK AO2 TSNO
94908KDBQ DBQ20000312010510503/12/00 01:05:31  5-MIN KDBQ 120705Z AUTO 00000KT 10SM CLR M02/M08 A3015 870 66 -900 000/00 RMK AO2 TSNO
94908KDBQ DBQ20000312011010503/12/00 01:10:31  5-MIN KDBQ 120710Z AUTO 00000KT 10SM CLR M02/M08 A3015 870 66 -900 000/00 RMK AO2 TSNO
94908KDBQ DBQ20000312011510503/12/00 01:15:31  5-MIN KDBQ 120715Z AUTO 00000KT 10SM CLR M02/M08 A3015 870 66 -900 000/00 RMK AO2 TSNO
94908KDBQ DBQ20000312012010503/12/00 01:20:31  5-MIN KDBQ 120720Z AUTO 00000KT 10SM CLR M02/M08 A3015 870 66 -900 000/00 RMK AO2 TSNO
94908KDBQ DBQ20000312012510503/12/00 01:25:31  5-MIN KDBQ 120725Z AUTO 00000KT 10SM CLR M02/M08 A3015 870 66 -900 000/00 RMK AO2 TSNO
94908KDBQ DBQ20000312013010503/12/00 01:30:31  5-MIN KDBQ 120730Z AUTO 00000KT 10SM CLR M02/M08 A3015 870 66 -900 000/00 RMK AO2 TSNO
94908KDBQ DBQ20000312013510503/12/00 01:35:31  5-MIN KDBQ 120735Z AUTO 00000KT 10SM CLR M02/M08 A3015 870 66 -900 000/00 RMK AO2 TSNO
94908KDBQ DBQ20000312014010503/12/00 01:40:31  5-MIN KDBQ 120740Z AUTO 00000KT 10SM CLR M02/M08 A3015 870 66 -900 000/00 RMK AO2 TSNO
94908KDBQ DBQ20000312014510503/12/00 01:45:31  5-MIN KDBQ 120745Z AUTO 00000KT 10SM CLR M02/M08 A3015 870 66 -900 000/00 RMK AO2 TSNO
94908KDBQ DBQ20000312015012203/12/00 01:50:31  5-MIN KDBQ 120750Z AUTO 00000KT 10SM CLR M02/M08 A3015 870 63 -900 000/00 RMK AO2 SLP221 T10171078 TSNO
94908KDBQ DBQ20000312015512203/12/00 01:55:31  5-MIN KDBQ 120755Z AUTO 00000KT 10SM CLR M02/M08 A3015 870 66 -900 000/00 RMK AO2 SLP221 T10221078 TSNO
94908KDBQ DBQ20000312020010603/12/00 02:00:31  5-MIN KDBQ 120800Z AUTO 00000KT 10SM CLR M03/M08 A3015 870 68 -1000 000/00 RMK AO2 TSNO
94908KDBQ DBQ20000312020510603/12/00 02:05:31  5-MIN KDBQ 120805Z AUTO 00000KT 10SM CLR M04/M08 A3015 870 74 -1200 000/00 RMK AO2 TSNO
94908KDBQ DBQ20000312021010603/12/00 02:10:31  5-MIN KDBQ 120810Z AUTO 00000KT 10SM CLR M04/M08 A3014 870 74 -1200 000/00 RMK AO2 TSNO
94908KDBQ DBQ20000312021510603/12/00 02:15:31  5-MIN KDBQ 120815Z AUTO 00000KT 10SM CLR M03/M08 A3014 870 71 -1100 000/00 RMK AO2 TSNO
94908KDBQ DBQ20000312022010603/12/00 02:20:31  5-MIN KDBQ 120820Z AUTO 00000KT 10SM CLR M03/M08 A3014 870 71 -1100 000/00 RMK AO2 TSNO
94908KDBQ DBQ20000312022510903/12/00 02:25:31  5-MIN KDBQ 120825Z AUTO 00000KT 10SM FEW050 M04/M08 A3014 870 74 -1100 000/00 RMK AO2 TSNO
94908KDBQ DBQ20000312023010903/12/00 02:30:31  5-MIN KDBQ 120830Z AUTO 00000KT 10SM SCT050 M04/M08 A3014 880 78 -1200 000/00 RMK AO2 TSNO
94908KDBQ DBQ20000312023510903/12/00 02:35:31  5-MIN KDBQ 120835Z AUTO 00000KT 10SM BKN050 M04/M08 A3014 880 78 -1200 000/00 RMK AO2 TSNO
94908KDBQ DBQ20000312024010903/12/00 02:40:31  5-MIN KDBQ 120840Z AUTO 00000KT 10SM BKN050 M04/M08 A3014 870 78 -1200 000/00 RMK AO2 TSNO
94908KDBQ DBQ20000312024510903/12/00 02:45:31  5-MIN KDBQ 120845Z AUTO 22004KT 10SM BKN050 M04/M08 A3014 870 78 -1200 220/04 RMK AO2 TSNO
94908KDBQ DBQ20000312025013203/12/00 02:50:31  5-MIN KDBQ 120850Z AUTO 21005KT 10SM OVC050 M05/M07 A3014 870 84 -1300 210/05 RMK AO2 SLP219 T10501072 58001 TSNO
94908KDBQ DBQ20000312025513203/12/00 02:55:31  5-MIN KDBQ 120855Z AUTO 20005KT 10SM OVC050 M05/M07 A3014 870 84 -1300 200/05 RMK AO2 SLP219 T10501072 50000 TSNO
94908KDBQ DBQ20000312030010903/12/00 03:00:31  5-MIN KDBQ 120900Z AUTO 20004KT 10SM OVC048 M05/M07 A3014 870 84 -1300 200/04 RMK AO2 TSNO
94908KDBQ DBQ20000312030510903/12/00 03:05:31  5-MIN KDBQ 120905Z AUTO 21004KT 10SM BKN048 M05/M07 A3014 870 84 -1300 210/04 RMK AO2 TSNO
94908KDBQ DBQ20000312031010903/12/00 03:10:31  5-MIN KDBQ 120910Z AUTO 21004KT 10SM BKN048 M05/M07 A3014 870 84 -1300 200/04 RMK AO2 TSNO
94908KDBQ DBQ20000312031510903/12/00 03:15:31  5-MIN KDBQ 120915Z AUTO 00000KT 10SM SCT048 M05/M07 A3014 880 84 -1300 000/00 RMK AO2 TSNO
94908KDBQ DBQ20000312032010903/12/00 03:20:31  5-MIN KDBQ 120920Z AUTO 00000KT 10SM SCT048 M04/M07 A3014 880 81 -1200 000/00 RMK AO2 TSNO
94908KDBQ DBQ20000312032510903/12/00 03:25:31  5-MIN KDBQ 120925Z AUTO 00000KT 10SM FEW048 M04/M07 A3014 870 78 -1100 000/00 RMK AO2 TSNO
94908KDBQ DBQ20000312033010603/12/00 03:30:31  5-MIN KDBQ 120930Z AUTO 20003KT 10SM CLR M04/M07 A3015 870 78 -1200 200/03 RMK AO2 TSNO
94908KDBQ DBQ20000312033510603/12/00 03:35:31  5-MIN KDBQ 120935Z AUTO 21004KT 10SM CLR M04/M07 A3015 870 81 -1200 210/04 RMK AO2 TSNO
94908KDBQ DBQ20000312034010603/12/00 03:40:31  5-MIN KDBQ 120940Z AUTO 22004KT 10SM CLR M05/M07 A3015 870 84 -1300 210/04 RMK AO2 TSNO
94908KDBQ DBQ20000312034510603/12/00 03:45:31  5-MIN KDBQ 120945Z AUTO 21003KT 10SM CLR M05/M07 A3015 870 84 -1300 200/03 RMK AO2 TSNO
94908KDBQ DBQ20000312035012303/12/00 03:50:31  5-MIN KDBQ 120950Z AUTO 00000KT 10SM CLR M05/M07 A3015 870 84 -1300 000/00 RMK AO2 SLP221 T10501072 TSNO
94908KDBQ DBQ20000312035512303/12/00 03:55:31  5-MIN KDBQ 120955Z AUTO 20003KT 10SM CLR M05/M07 A3015 870 84 -1300 200/03 RMK AO2 SLP222 T10501072 TSNO
94908KDBQ DBQ20000312040010903/12/00 04:00:31  5-MIN KDBQ 121000Z AUTO 21003KT 10SM FEW041 M06/M08 A3015 860 84 -1400 200/03 RMK AO2 TSNO
94908KDBQ DBQ20000312040510903/12/00 04:05:31  5-MIN KDBQ 121005Z AUTO 00000KT 10SM FEW041 M05/M07 A3015 870 84 -1300 000/00 RMK AO2 TSNO
94908KDBQ DBQ20000312041010903/12/00 04:10:31  5-MIN KDBQ 121010Z AUTO 00000KT 10SM FEW041 M05/M07 A3015 860 84 -1300 000/00 RMK AO2 TSNO
94908KDBQ DBQ20000312041510903/12/00 04:15:31  5-MIN KDBQ 121015Z AUTO 18003KT 10SM SCT041 M05/M07 A3015 860 84 -1300 180/03 RMK AO2 TSNO
94908KDBQ DBQ20000312042010903/12/00 04:20:31  5-MIN KDBQ 121020Z AUTO 19003KT 10SM SCT041 M05/M07 A3016 860 84 -1300 190/03 RMK AO2 TSNO
94908KDBQ DBQ20000312042510903/12/00 04:25:31  5-MIN KDBQ 121025Z AUTO 00000KT 10SM BKN041 M05/M07 A3016 860 84 -1300 000/00 RMK AO2 TSNO
94908KDBQ DBQ20000312043010903/12/00 04:30:31  5-MIN KDBQ 121030Z AUTO 00000KT 10SM BKN041 M04/M07 A3016 860 84 -1200 000/00 RMK AO2 TSNO
94908KDBQ DBQ20000312043510903/12/00 04:35:31  5-MIN KDBQ 121035Z AUTO 00000KT 10SM BKN041 M04/M07 A3016 860 84 -1200 000/00 RMK AO2 TSNO
94908KDBQ DBQ20000312044010903/12/00 04:40:31  5-MIN KDBQ 121040Z AUTO 00000KT 10SM OVC041 M04/M07 A3016 860 81 -1200 000/00 RMK AO2 TSNO
94908KDBQ DBQ20000312044510903/12/00 04:45:31  5-MIN KDBQ 121045Z AUTO 00000KT 10SM OVC041 M04/M07 A3016 860 81 -1200 000/00 RMK AO2 TSNO
94908KDBQ DBQ20000312045012603/12/00 04:50:31  5-MIN KDBQ 121050Z AUTO 00000KT 10SM OVC041 M04/M06 A3016 850 85 -1200 000/00 RMK AO2 SLP226 T10391061 TSNO
94908KDBQ DBQ20000312045512603/12/00 04:55:31  5-MIN KDBQ 121055Z AUTO 20003KT 10SM OVC041 M04/M06 A3016 860 85 -1200 200/03 RMK AO2 SLP226 T10391061 TSNO
94908KDBQ DBQ20000312050010903/12/00 05:00:31  5-MIN KDBQ 121100Z AUTO 20003KT 10SM OVC041 M04/M06 A3016 850 85 -1200 200/03 RMK AO2 TSNO
94908KDBQ DBQ20000312050510903/12/00 05:05:31  5-MIN KDBQ 121105Z AUTO 21004KT 10SM OVC041 M04/M06 A3016 850 88 -1200 200/04 RMK AO2 TSNO
94908KDBQ DBQ20000312051010903/12/00 05:10:31  5-MIN KDBQ 121110Z AUTO 21003KT 10SM OVC041 M03/M06 A3016 850 85 -1100 210/03 RMK AO2 TSNO
94908KDBQ DBQ20000312051510903/12/00 05:15:31  5-MIN KDBQ 121115Z AUTO 19003KT 10SM OVC041 M04/M06 A3017 850 88 -1200 190/03 RMK AO2 TSNO
94908KDBQ DBQ20000312052010903/12/00 05:20:31  5-MIN KDBQ 121120Z AUTO 19003KT 10SM OVC041 M03/M06 A3017 850 85 -1100 190/03 RMK AO2 TSNO
94908KDBQ DBQ20000312052510903/12/00 05:25:31  5-MIN KDBQ 121125Z AUTO 19003KT 10SM OVC041 M03/M06 A3017 850 85 -1100 190/03 RMK AO2 TSNO
94908KDBQ DBQ20000312053010903/12/00 05:30:31  5-MIN KDBQ 121130Z AUTO 19003KT 10SM OVC041 M03/M06 A3017 850 85 -1100 190/03 RMK AO2 TSNO
94908KDBQ DBQ20000312053510903/12/00 05:35:31  5-MIN KDBQ 121135Z AUTO 19004KT 10SM OVC041 M03/M06 A3017 850 85 -1100 190/04 RMK AO2 TSNO
94908KDBQ DBQ20000312054010903/12/00 05:40:31  5-MIN KDBQ 121140Z AUTO 19004KT 10SM OVC041 M03/M06 A3017 850 85 -1100 190/04 RMK AO2 TSNO
94908KDBQ DBQ20000312054510903/12/00 05:45:31  5-MIN KDBQ 121145Z AUTO 19004KT 10SM OVC041 M03/M06 A3017 850 85 -1100 190/04 RMK AO2 TSNO
94908KDBQ DBQ20000312055014403/12/00 05:50:31  5-MIN KDBQ 121150Z AUTO 18003KT 10SM BKN041 M03/M06 A3017 850 85 -1100 180/03 RMK AO2 SLP229 T10331056 11017 21056 50000 TSNO
94908KDBQ DBQ20000312055514403/12/00 05:55:31  5-MIN KDBQ 121155Z AUTO 19003KT 10SM BKN041 M03/M06 A3017 850 85 -1100 180/03 RMK AO2 SLP230 T10331056 11017 21056 52009 TSNO
94908KDBQ DBQ20000312060010903/12/00 06:00:31  5-MIN KDBQ 121200Z AUTO 19003KT 10SM OVC041 M03/M06 A3017 850 81 -1100 190/03 RMK AO2 TSNO
94908KDBQ DBQ20000312060510903/12/00 06:05:31  5-MIN KDBQ 121205Z AUTO 19004KT 10SM OVC041 M03/M06 A3017 850 85 -1100 190/04 RMK AO2 TSNO
94908KDBQ DBQ20000312061010903/12/00 06:10:31  5-MIN KDBQ 121210Z AUTO 19003KT 10SM OVC041 M03/M06 A3017 840 85 -1100 190/03 RMK AO2 TSNO
94908KDBQ DBQ20000312061510903/12/00 06:15:31  5-MIN KDBQ 121215Z AUTO 19003KT 10SM BKN041 M03/M06 A3018 840 85 -1100 190/03 RMK AO2 TSNO
94908KDBQ DBQ20000312062010903/12/00 06:20:31  5-MIN KDBQ 121220Z AUTO 20003KT 10SM BKN041 M03/M06 A3018 840 81 -1100 200/03 RMK AO2 TSNO
94908KDBQ DBQ20000312062510903/12/00 06:25:31  5-MIN KDBQ 121225Z AUTO 20003KT 10SM BKN041 M04/M06 A3018 840 85 -1200 200/03 RMK AO2 TSNO
94908KDBQ DBQ20000312063010903/12/00 06:30:31  5-MIN KDBQ 121230Z AUTO 21003KT 10SM BKN043 M04/M06 A3018 840 85 -1200 200/03 RMK AO2 TSNO
94908KDBQ DBQ20000312063510903/12/00 06:35:31  5-MIN KDBQ 121235Z AUTO 20003KT 10SM BKN043 M04/M06 A3018 830 85 -1200 200/03 RMK AO2 TSNO
94908KDBQ DBQ20000312064010903/12/00 06:40:31  5-MIN KDBQ 121240Z AUTO 00000KT 10SM BKN043 M04/M06 A3019 830 85 -1200 000/00 RMK AO2 TSNO
94908KDBQ DBQ20000312064510903/12/00 06:45:31  5-MIN KDBQ 121245Z AUTO 00000KT 10SM BKN043 M04/M06 A3019 830 85 -1200 000/00 RMK AO2 TSNO
94908KDBQ DBQ20000312065011603/12/00 06:50:31  5-MIN KDBQ 121250Z 00000KT 10SM OVC043 M04/M06 A3019 830 85 -1200 000/00 RMK AO2 SLP237 T10391061
94908KDBQ DBQ20000312065511603/12/00 06:55:31  5-MIN KDBQ 121255Z 00000KT 10SM OVC043 M04/M06 A3019 830 88 -1200 000/00 RMK AO2 SLP238 T10391056
94908KDBQ DBQ20000312070009903/12/00 07:00:31  5-MIN KDBQ 121300Z 00000KT 10SM OVC043 M03/M06 A3019 830 85 -1100 000/00 RMK AO2
94908KDBQ DBQ20000312070509903/12/00 07:05:31  5-MIN KDBQ 121305Z 00000KT 10SM OVC043 M03/M06 A3019 830 85 -1100 000/00 RMK AO2
94908KDBQ DBQ20000312071009903/12/00 07:10:31  5-MIN KDBQ 121310Z 21003KT 10SM OVC043 M03/M05 A3019 830 85 -1100 210/03 RMK AO2
94908KDBQ DBQ20000312071509903/12/00 07:15:31  5-MIN KDBQ 121315Z 22003KT 10SM OVC043 M03/M05 A3020 820 85 -1100 210/03 RMK AO2
94908KDBQ DBQ20000312072009903/12/00 07:20:31  5-MIN KDBQ 121320Z 23003KT 10SM OVC043 M03/M05 A3020 820 85 -1100 220/03 RMK AO2
94908KDBQ DBQ20000312072509903/12/00 07:25:31  5-MIN KDBQ 121325Z 00000KT 10SM OVC043 M03/M04 A3020 820 88 -1100 000/00 RMK AO2
94908KDBQ DBQ20000312073009903/12/00 07:30:31  5-MIN KDBQ 121330Z 00000KT 10SM OVC043 M03/M05 A3020 820 85 -1100 000/00 RMK AO2
94908KDBQ DBQ20000312073509903/12/00 07:35:31  5-MIN KDBQ 121335Z 00000KT 10SM OVC043 M02/M05 A3020 820 81 -1000 000/00 RMK AO2
94908KDBQ DBQ20000312074009903/12/00 07:40:31  5-MIN KDBQ 121340Z 00000KT 10SM OVC043 M02/M04 A3020 830 85 -1000 000/00 RMK AO2
94908KDBQ DBQ20000312074509903/12/00 07:45:31  5-MIN KDBQ 121345Z 00000KT 10SM OVC041 M02/M04 A3019 830 85 -1000 000/00 RMK AO2
94908KDBQ DBQ20000312075011503/12/00 07:50:31  5-MIN KDBQ 121350Z 00000KT 10SM OVC041 M02/M04 A3020 820 81 -900 000/00 RMK AO2 SLP239 T10171044
94908KDBQ DBQ20000312075511503/12/00 07:55:31  5-MIN KDBQ 121355Z 00000KT 10SM OVC043 M02/M04 A3020 820 85 -900 000/00 RMK AO2 SLP240 T10171039
94908KDBQ DBQ20000312080009803/12/00 08:00:31  5-MIN KDBQ 121400Z 00000KT 10SM OVC043 M01/M04 A3020 820 81 -900 000/00 RMK AO2
94908KDBQ DBQ20000312080509803/12/00 08:05:31  5-MIN KDBQ 121405Z 00000KT 10SM OVC043 M01/M04 A3020 820 81 -900 000/00 RMK AO2
94908KDBQ DBQ20000312081009803/12/00 08:10:31  5-MIN KDBQ 121410Z 00000KT 10SM OVC045 M01/M04 A3020 820 78 -800 000/00 RMK AO2
94908KDBQ DBQ20000312081509803/12/00 08:15:31  5-MIN KDBQ 121415Z 00000KT 10SM OVC045 M01/M03 A3020 820 81 -800 000/00 RMK AO2
94908KDBQ DBQ20000312082009803/12/00 08:20:31  5-MIN KDBQ 121420Z 00000KT 10SM OVC047 M01/M04 A3020 820 78 -800 000/00 RMK AO2
94908KDBQ DBQ20000312082509703/12/00 08:25:31  5-MIN KDBQ 121425Z 00000KT 10SM BKN047 00/M04 A3021 820 75 -700 000/00 RMK AO2
94908KDBQ DBQ20000312083009703/12/00 08:30:31  5-MIN KDBQ 121430Z 00000KT 10SM BKN047 01/M04 A3021 810 72 -700 000/00 RMK AO2
94908KDBQ DBQ20000312083509703/12/00 08:35:31  5-MIN KDBQ 121435Z 35003KT 10SM SCT047 01/M04 A3021 810 69 -700 350/03 RMK AO2
94908KDBQ DBQ20000312084009703/12/00 08:40:31  5-MIN KDBQ 121440Z 00000KT 10SM SCT047 01/M04 A3021 820 69 -600 000/00 RMK AO2
94908KDBQ DBQ20000312084509703/12/00 08:45:31  5-MIN KDBQ 121445Z 00000KT 10SM FEW049 01/M04 A3021 810 66 -600 000/00 RMK AO2
94908KDBQ DBQ20000312085012003/12/00 08:50:31  5-MIN KDBQ 121450Z 00000KT 10SM FEW049 01/M04 A3021 810 66 -600 000/00 RMK AO2 SLP241 T00111044 52009
94908KDBQ DBQ20000312085512003/12/00 08:55:31  5-MIN KDBQ 121455Z 00000KT 10SM SCT049 01/M04 A3021 810 66 -600 000/00 RMK AO2 SLP242 T00111044 51013
94908KDBQ DBQ20000312090009703/12/00 09:00:31  5-MIN KDBQ 121500Z 00000KT 10SM BKN049 01/M04 A3021 810 66 -600 000/00 RMK AO2
94908KDBQ DBQ20000312090509703/12/00 09:05:31  5-MIN KDBQ 121505Z 00000KT 10SM BKN049 02/M04 A3021 810 64 -500 000/00 RMK AO2
94908KDBQ DBQ20000312091009703/12/00 09:10:31  5-MIN KDBQ 121510Z 00000KT 10SM BKN049 02/M04 A3021 810 66 -500 000/00 RMK AO2
94908KDBQ DBQ20000312091509703/12/00 09:15:31  5-MIN KDBQ 121515Z 00000KT 10SM OVC049 02/M04 A3021 810 64 -500 000/00 RMK AO2
94908KDBQ DBQ20000312092009703/12/00 09:20:31  5-MIN KDBQ 121520Z 00000KT 10SM OVC049 02/M04 A3021 810 64 -500 000/00 RMK AO2
94908KDBQ DBQ20000312092509703/12/00 09:25:31  5-MIN KDBQ 121525Z 00000KT 10SM OVC049 02/M04 A3021 810 61 -500 000/00 RMK AO2
94908KDBQ DBQ20000312093009703/12/00 09:30:31  5-MIN KDBQ 121530Z 00000KT 10SM OVC049 02/M04 A3021 810 61 -500 000/00 RMK AO2
94908KDBQ DBQ20000312093509703/12/00 09:35:31  5-MIN KDBQ 121535Z 36003KT 10SM OVC049 03/M04 A3021 810 59 -400 360/03 RMK AO2
94908KDBQ DBQ20000312094009703/12/00 09:40:31  5-MIN KDBQ 121540Z 00000KT 10SM OVC049 03/M04 A3021 810 59 -400 000/00 RMK AO2
94908KDBQ DBQ20000312094509703/12/00 09:45:31  5-MIN KDBQ 121545Z 00000KT 10SM OVC049 03/M04 A3021 810 59 -400 000/00 RMK AO2
94908KDBQ DBQ20000312095011403/12/00 09:50:31  5-MIN KDBQ 121550Z 00000KT 10SM OVC049 03/M04 A3020 820 59 -400 000/00 RMK AO2 SLP240 T00281044
94908KDBQ DBQ20000312095511403/12/00 09:55:31  5-MIN KDBQ 121555Z 00000KT 10SM OVC049 03/M04 A3020 820 57 -300 000/00 RMK AO2 SLP239 T00331044
94908KDBQ DBQ20000312100009703/12/00 10:00:31  5-MIN KDBQ 121600Z 00000KT 10SM OVC049 03/M04 A3020 820 59 -400 000/00 RMK AO2
94908KDBQ DBQ20000312100509703/12/00 10:05:31  5-MIN KDBQ 121605Z 22003KT 10SM OVC049 03/M04 A3020 820 59 -400 210/03 RMK AO2
94908KDBQ DBQ20000312101009703/12/00 10:10:31  5-MIN KDBQ 121610Z 00000KT 10SM OVC049 03/M04 A3020 820 57 -300 000/00 RMK AO2
94908KDBQ DBQ20000312101509703/12/00 10:15:31  5-MIN KDBQ 121615Z 16003KT 10SM OVC049 03/M04 A3020 820 57 -300 160/03 RMK AO2
94908KDBQ DBQ20000312102009703/12/00 10:20:31  5-MIN KDBQ 121620Z 00000KT 10SM OVC049 03/M04 A3020 820 57 -300 000/00 RMK AO2
94908KDBQ DBQ20000312102509703/12/00 10:25:31  5-MIN KDBQ 121625Z 20004KT 10SM OVC049 03/M04 A3020 820 57 -300 200/04 RMK AO2
94908KDBQ DBQ20000312103009703/12/00 10:30:31  5-MIN KDBQ 121630Z 00000KT 10SM OVC049 03/M05 A3020 820 54 -300 000/00 RMK AO2
94908KDBQ DBQ20000312103509703/12/00 10:35:31  5-MIN KDBQ 121635Z 00000KT 10SM OVC049 03/M05 A3020 820 54 -300 000/00 RMK AO2
94908KDBQ DBQ20000312104009703/12/00 10:40:31  5-MIN KDBQ 121640Z VRB03KT 10SM OVC055 04/M04 A3020 820 54 -200 VRB/03 RMK AO2
94908KDBQ DBQ20000312104509703/12/00 10:45:31  5-MIN KDBQ 121645Z 00000KT 10SM OVC055 04/M04 A3020 820 54 -200 000/00 RMK AO2
94908KDBQ DBQ20000312105011403/12/00 10:50:31  5-MIN KDBQ 121650Z VRB04KT 10SM OVC055 04/M04 A3020 820 54 -200 VRB/04 RMK AO2 SLP239 T00391044
94908KDBQ DBQ20000312105511403/12/00 10:55:31  5-MIN KDBQ 121655Z 18006KT 10SM OVC055 04/M04 A3020 820 52 -200 180/06 RMK AO2 SLP238 T00441044
94908KDBQ DBQ20000312110009703/12/00 11:00:31  5-MIN KDBQ 121700Z 00000KT 10SM OVC055 04/M04 A3020 820 52 -200 000/00 RMK AO2
94908KDBQ DBQ20000312110509703/12/00 11:05:31  5-MIN KDBQ 121705Z 00000KT 10SM OVC055 05/M05 A3020 830 48 -100 000/00 RMK AO2
94908KDBQ DBQ20000312111009703/12/00 11:10:31  5-MIN KDBQ 121710Z 23007KT 10SM OVC055 05/M05 A3019 830 48 -100 230/07 RMK AO2
94908KDBQ DBQ20000312111509703/12/00 11:15:31  5-MIN KDBQ 121715Z 21006KT 10SM BKN055 05/M06 A3019 830 46 -100 210/06 RMK AO2
94908KDBQ DBQ20000312112009703/12/00 11:20:31  5-MIN KDBQ 121720Z 25004KT 10SM BKN055 05/M06 A3019 830 46 -100 240/04 RMK AO2
94908KDBQ DBQ20000312112509703/12/00 11:25:31  5-MIN KDBQ 121725Z 00000KT 10SM BKN060 05/M06 A3019 830 46 -100 000/00 RMK AO2
94908KDBQ DBQ20000312113009703/12/00 11:30:31  5-MIN KDBQ 121730Z VRB03KT 10SM SCT060 05/M06 A3019 830 46 -100 VRB/03 RMK AO2
94908KDBQ DBQ20000312113509403/12/00 11:35:31  5-MIN KDBQ 121735Z VRB03KT 10SM FEW060 06/M06 A3019 830 44 0 VRB/03 RMK AO2
94908KDBQ DBQ20000312114009403/12/00 11:40:31  5-MIN KDBQ 121740Z 00000KT 10SM FEW060 06/M05 A3018 840 46 0 000/00 RMK AO2
94908KDBQ DBQ20000312114509403/12/00 11:45:31  5-MIN KDBQ 121745Z VRB05KT 10SM FEW060 06/M05 A3018 840 45 0 VRB/05 RMK AO2
94908KDBQ DBQ20000312115012603/12/00 11:50:31  5-MIN KDBQ 121750Z 13003KT 10SM CLR 06/M05 A3018 840 45 0 130/03 RMK AO2 SLP231 T00611050 10061 21039 51013
94908KDBQ DBQ20000312115512603/12/00 11:55:31  5-MIN KDBQ 121755Z VRB04KT 10SM CLR 06/M06 A3017 840 44 0 VRB/04 RMK AO2 SLP229 T00561056 10061 21039 58012
94908KDBQ DBQ20000312120009103/12/00 12:00:31  5-MIN KDBQ 121800Z 00000KT 10SM CLR 06/M06 A3017 850 43 0 000/00 RMK AO2
94908KDBQ DBQ20000312120509303/12/00 12:05:31  5-MIN KDBQ 121805Z VRB06KT 10SM CLR 07/M05 A3017 850 43 100 VRB/06 RMK AO2
94908KDBQ DBQ20000312121009303/12/00 12:10:31  5-MIN KDBQ 121810Z 26004KT 10SM CLR 07/M05 A3017 850 43 100 250/04 RMK AO2
94908KDBQ DBQ20000312121509303/12/00 12:15:31  5-MIN KDBQ 121815Z VRB06KT 10SM CLR 07/M06 A3017 850 41 100 VRB/06 RMK AO2
94908KDBQ DBQ20000312122009303/12/00 12:20:31  5-MIN KDBQ 121820Z VRB05KT 10SM CLR 07/M05 A3017 850 41 200 VRB/05 RMK AO2
94908KDBQ DBQ20000312122509303/12/00 12:25:31  5-MIN KDBQ 121825Z VRB06KT 10SM CLR 07/M04 A3017 850 43 200 VRB/06 RMK AO2
94908KDBQ DBQ20000312123009303/12/00 12:30:31  5-MIN KDBQ 121830Z VRB04KT 10SM CLR 07/M04 A3017 850 43 200 VRB/04 RMK AO2
94908KDBQ DBQ20000312123509303/12/00 12:35:31  5-MIN KDBQ 121835Z VRB05KT 10SM CLR 08/M04 A3016 850 43 200 VRB/05 RMK AO2
94908KDBQ DBQ20000312124010903/12/00 12:40:31  5-MIN KDBQ 121840Z 30008KT 280V340 10SM CLR 08/M04 A3016 860 42 300 290/08 280V340 RMK AO2
94908KDBQ DBQ20000312124510903/12/00 12:45:31  5-MIN KDBQ 121845Z 27007KT 230V300 10SM CLR 08/M04 A3016 860 41 200 270/07 230V300 RMK AO2
94908KDBQ DBQ20000312125011003/12/00 12:50:31  5-MIN KDBQ 121850Z 22007KT 10SM CLR 08/M04 A3016 860 41 200 220/07 RMK AO2 SLP222 T00781044
94908KDBQ DBQ20000312125511003/12/00 12:55:31  5-MIN KDBQ 121855Z VRB05KT 10SM CLR 08/M04 A3016 860 41 200 VRB/05 RMK AO2 SLP222 T00781044
94908KDBQ DBQ20000312130009303/12/00 13:00:31  5-MIN KDBQ 121900Z 28007KT 10SM CLR 08/M04 A3015 860 42 300 280/07 RMK AO2
94908KDBQ DBQ20000312130509303/12/00 13:05:31  5-MIN KDBQ 121905Z VRB05KT 10SM CLR 08/M04 A3015 870 42 300 VRB/05 RMK AO2
94908KDBQ DBQ20000312131009303/12/00 13:10:31  5-MIN KDBQ 121910Z VRB06KT 10SM CLR 08/M04 A3015 870 42 300 VRB/06 RMK AO2
94908KDBQ DBQ20000312131509603/12/00 13:15:31  5-MIN KDBQ 121915Z 26005KT 10SM FEW060 08/M04 A3015 870 41 200 260/05 RMK AO2
94908KDBQ DBQ20000312132009603/12/00 13:20:31  5-MIN KDBQ 121920Z 00000KT 10SM FEW055 07/M04 A3015 870 43 200 000/00 RMK AO2
94908KDBQ DBQ20000312132509603/12/00 13:25:31  5-MIN KDBQ 121925Z 26010KT 10SM SCT060 08/M04 A3015 870 42 300 260/10 RMK AO2
94908KDBQ DBQ20000312133009603/12/00 13:30:31  5-MIN KDBQ 121930Z 29003KT 10SM SCT060 08/M04 A3015 870 41 300 290/03 RMK AO2
94908KDBQ DBQ20000312133509603/12/00 13:35:31  5-MIN KDBQ 121935Z 23011KT 10SM SCT055 08/M04 A3014 870 41 300 230/11 RMK AO2
94908KDBQ DBQ20000312134009603/12/00 13:40:31  5-MIN KDBQ 121940Z 27008KT 10SM BKN060 08/M04 A3014 870 40 300 260/08 RMK AO2
94908KDBQ DBQ20000312134510303/12/00 13:45:31  5-MIN KDBQ 121945Z 23007KT 10SM BKN060 BKN075 08/M04 A3014 880 41 300 230/07 RMK AO2
94908KDBQ DBQ20000312135012003/12/00 13:50:31  5-MIN KDBQ 121950Z VRB03KT 10SM SCT060 BKN075 08/M04 A3014 880 40 300 VRB/03 RMK AO2 SLP215 T00831044
94908KDBQ DBQ20000312135512003/12/00 13:55:31  5-MIN KDBQ 121955Z 24007KT 10SM SCT060 BKN075 08/M04 A3014 880 40 300 230/07 RMK AO2 SLP215 T00831044
94908KDBQ DBQ20000312140010303/12/00 14:00:31  5-MIN KDBQ 122000Z 26009KT 10SM SCT060 BKN075 08/M04 A3014 880 42 300 260/09 RMK AO2
94908KDBQ DBQ20000312140510303/12/00 14:05:31  5-MIN KDBQ 122005Z 26007KT 10SM SCT060 BKN075 08/M04 A3014 880 40 300 260/07 RMK AO2
94908KDBQ DBQ20000312141010303/12/00 14:10:31  5-MIN KDBQ 122010Z 27010KT 10SM FEW060 SCT075 08/M04 A3014 880 42 300 270/10 RMK AO2
94908KDBQ DBQ20000312141510303/12/00 14:15:31  5-MIN KDBQ 122015Z 26009KT 10SM SCT060 SCT075 08/M04 A3013 880 41 300 260/09 RMK AO2
94908KDBQ DBQ20000312142011903/12/00 14:20:31  5-MIN KDBQ 122020Z 26008KT 230V300 10SM SCT055 BKN070 08/M04 A3013 880 40 300 260/08 230V300 RMK AO2
94908KDBQ DBQ20000312142510303/12/00 14:25:31  5-MIN KDBQ 122025Z 24009KT 10SM BKN055 BKN075 08/M04 A3013 880 40 300 240/09 RMK AO2
94908KDBQ DBQ20000312143010303/12/00 14:30:31  5-MIN KDBQ 122030Z 23010KT 10SM BKN055 BKN075 08/M04 A3013 880 41 300 230/10 RMK AO2
94908KDBQ DBQ20000312143509603/12/00 14:35:31  5-MIN KDBQ 122035Z 26008KT 10SM BKN055 08/M04 A3014 880 42 300 260/08 RMK AO2
94908KDBQ DBQ20000312144009603/12/00 14:40:31  5-MIN KDBQ 122040Z VRB05KT 10SM BKN055 08/M04 A3013 880 42 300 VRB/05 RMK AO2
94908KDBQ DBQ20000312144509603/12/00 14:45:31  5-MIN KDBQ 122045Z 24006KT 10SM OVC055 08/M04 A3013 880 43 300 240/06 RMK AO2
94908KDBQ DBQ20000312145011903/12/00 14:50:31  5-MIN KDBQ 122050Z 23008KT 10SM OVC050 08/M04 A3013 880 42 300 230/08 RMK AO2 SLP215 T00831039 58012
94908KDBQ DBQ20000312145511903/12/00 14:55:31  5-MIN KDBQ 122055Z 24009KT 10SM OVC050 08/M04 A3013 880 43 300 240/09 RMK AO2 SLP215 T00781039 56013
94908KDBQ DBQ20000312150009603/12/00 15:00:31  5-MIN KDBQ 122100Z 26007KT 10SM OVC050 08/M04 A3013 880 43 300 250/07 RMK AO2
94908KDBQ DBQ20000312150509603/12/00 15:05:31  5-MIN KDBQ 122105Z 27010KT 10SM OVC050 08/M04 A3013 880 43 300 270/10 RMK AO2
94908KDBQ DBQ20000312151009603/12/00 15:10:31  5-MIN KDBQ 122110Z 28006KT 10SM BKN050 08/M03 A3013 880 45 300 280/06 RMK AO2
94908KDBQ DBQ20000312151510303/12/00 15:15:31  5-MIN KDBQ 122115Z 24009KT 10SM FEW040 BKN050 08/M03 A3013 880 45 300 240/09 RMK AO2
94908KDBQ DBQ20000312152010303/12/00 15:20:31  5-MIN KDBQ 122120Z 25007KT 10SM FEW042 OVC050 07/M03 A3013 880 47 200 250/07 RMK AO2
94908KDBQ DBQ20000312152510303/12/00 15:25:31  5-MIN KDBQ 122125Z 26009KT 10SM FEW042 BKN050 08/M03 A3013 880 45 300 260/09 RMK AO2
94908KDBQ DBQ20000312153010303/12/00 15:30:31  5-MIN KDBQ 122130Z 24009KT 10SM FEW038 BKN050 08/M03 A3013 880 45 300 240/09 RMK AO2
94908KDBQ DBQ20000312153510303/12/00 15:35:31  5-MIN KDBQ 122135Z 28011KT 10SM FEW042 SCT050 08/M03 A3013 880 47 300 280/11 RMK AO2
94908KDBQ DBQ20000312154010303/12/00 15:40:31  5-MIN KDBQ 122140Z 28004KT 10SM FEW042 SCT050 07/M03 A3013 880 47 200 280/04 RMK AO2
94908KDBQ DBQ20000312154509603/12/00 15:45:31  5-MIN KDBQ 122145Z 28008KT 10SM SCT047 07/M03 A3014 880 49 200 280/08 RMK AO2
94908KDBQ DBQ20000312155011303/12/00 15:50:31  5-MIN KDBQ 122150Z 28010KT 10SM BKN045 07/M02 A3014 880 51 200 280/10 RMK AO2 SLP216 T00721022
94908KDBQ DBQ20000312155512003/12/00 15:55:31  5-MIN KDBQ 122155Z 28011KT 10SM BKN042 BKN050 07/M03 A3014 880 49 200 280/11 RMK AO2 SLP216 T00721028
94908KDBQ DBQ20000312160010303/12/00 16:00:31  5-MIN KDBQ 122200Z 27011KT 10SM BKN042 BKN050 07/M02 A3014 880 51 200 270/11 RMK AO2
94908KDBQ DBQ20000312160509603/12/00 16:05:31  5-MIN KDBQ 122205Z 30007KT 10SM BKN042 07/M02 A3014 880 53 100 300/07 RMK AO2
94908KDBQ DBQ20000312161009603/12/00 16:10:31  5-MIN KDBQ 122210Z 27007KT 10SM BKN042 07/M02 A3014 880 53 100 270/07 RMK AO2
94908KDBQ DBQ20000312161510303/12/00 16:15:31  5-MIN KDBQ 122215Z 27008KT 10SM BKN040 BKN049 07/M02 A3014 880 53 100 270/08 RMK AO2
94908KDBQ DBQ20000312162010303/12/00 16:20:31  5-MIN KDBQ 122220Z 00000KT 10SM BKN037 BKN045 07/M02 A3014 880 53 100 000/00 RMK AO2
94908KDBQ DBQ20000312162509603/12/00 16:25:31  5-MIN KDBQ 122225Z 27007KT 10SM BKN042 07/M02 A3014 880 53 100 270/07 RMK AO2
94908KDBQ DBQ20000312163010303/12/00 16:30:31  5-MIN KDBQ 122230Z 24009KT 10SM BKN042 BKN050 07/M02 A3014 880 53 100 240/09 RMK AO2
94908KDBQ DBQ20000312163509603/12/00 16:35:31  5-MIN KDBQ 122235Z 25008KT 10SM BKN044 07/M02 A3014 880 53 100 250/08 RMK AO2
94908KDBQ DBQ20000312164009603/12/00 16:40:31  5-MIN KDBQ 122240Z 25005KT 10SM BKN042 07/M02 A3014 880 53 100 250/05 RMK AO2
94908KDBQ DBQ20000312164510303/12/00 16:45:31  5-MIN KDBQ 122245Z 24004KT 10SM BKN044 BKN055 07/M02 A3014 880 53 100 230/04 RMK AO2
94908KDBQ DBQ20000312165012003/12/00 16:50:31  5-MIN KDBQ 122250Z 30005KT 10SM SCT046 BKN055 07/M02 A3014 870 53 100 300/05 RMK AO2 SLP218 T00671022
94908KDBQ DBQ20000312165512003/12/00 16:55:31  5-MIN KDBQ 122255Z 29007KT 10SM BKN046 BKN055 07/M02 A3014 870 53 100 290/07 RMK AO2 SLP218 T00671022
94908KDBQ DBQ20000312170010303/12/00 17:00:31  5-MIN KDBQ 122300Z 30005KT 10SM BKN046 BKN055 07/M02 A3014 880 53 100 300/05 RMK AO2
94908KDBQ DBQ20000312170510303/12/00 17:05:31  5-MIN KDBQ 122305Z 29004KT 10SM BKN044 OVC055 07/M02 A3014 880 53 100 290/04 RMK AO2
94908KDBQ DBQ20000312171010303/12/00 17:10:31  5-MIN KDBQ 122310Z 26003KT 10SM BKN044 OVC055 07/M02 A3014 880 53 100 260/03 RMK AO2
94908KDBQ DBQ20000312171510303/12/00 17:15:31  5-MIN KDBQ 122315Z 22003KT 10SM BKN043 OVC050 07/M02 A3014 880 53 100 220/03 RMK AO2
94908KDBQ DBQ20000312172010303/12/00 17:20:31  5-MIN KDBQ 122320Z 22004KT 10SM BKN043 OVC055 07/M02 A3014 880 53 100 220/04 RMK AO2
94908KDBQ DBQ20000312172511003/12/00 17:25:31  5-MIN KDBQ 122325Z 25007KT 10SM BKN040 BKN049 OVC055 07/M02 A3014 880 53 100 250/07 RMK AO2
94908KDBQ DBQ20000312173010303/12/00 17:30:31  5-MIN KDBQ 122330Z 20005KT 10SM BKN044 OVC055 07/M02 A3014 880 53 100 200/05 RMK AO2
94908KDBQ DBQ20000312173511903/12/00 17:35:31  5-MIN KDBQ 122335Z 17008KT 110V200 10SM BKN048 OVC060 07/M02 A3014 880 53 100 170/08 110V200 RMK AO2
94908KDBQ DBQ20000312174010903/12/00 17:40:31  5-MIN KDBQ 122340Z 18007G15KT 10SM BKN045 OVC055 07/M02 A3014 880 53 100 180/07G15 RMK AO2
94908KDBQ DBQ20000312174510903/12/00 17:45:31  5-MIN KDBQ 122345Z 18007G15KT 10SM BKN045 OVC055 06/M02 A3014 880 55 100 180/07G15 RMK AO2
94908KDBQ DBQ20000312175014503/12/00 17:50:31  5-MIN KDBQ 122350Z 20008KT 10SM BKN043 BKN050 OVC060 06/M02 A3014 870 55 100 200/08 RMK AO2 SLP218 T00611022 10083 20056 56013
94908KDBQ DBQ20000312175513603/12/00 17:55:31  5-MIN KDBQ 122355Z 23008KT 10SM BKN045 OVC060 06/M02 A3014 870 55 0 230/08 RMK AO2 SLP219 T00611022 10083 20056 53004
94908KDBQ DBQ20000312180010103/12/00 18:00:31  5-MIN KDBQ 130000Z 23008KT 10SM BKN042 OVC050 06/M02 A3015 870 55 0 230/08 RMK AO2
94908KDBQ DBQ20000312180510103/12/00 18:05:31  5-MIN KDBQ 130005Z 24009KT 10SM BKN042 OVC049 06/M02 A3015 870 55 0 240/09 RMK AO2
94908KDBQ DBQ20000312181010103/12/00 18:10:31  5-MIN KDBQ 130010Z 23006KT 10SM BKN042 OVC049 06/M02 A3015 870 55 0 230/06 RMK AO2
94908KDBQ DBQ20000312181510103/12/00 18:15:31  5-MIN KDBQ 130015Z 23007KT 10SM BKN042 OVC049 06/M02 A3015 870 55 0 230/07 RMK AO2
94908KDBQ DBQ20000312182009403/12/00 18:20:31  5-MIN KDBQ 130020Z 22006KT 10SM OVC042 06/M02 A3015 870 55 0 210/06 RMK AO2
94908KDBQ DBQ20000312182509403/12/00 18:25:31  5-MIN KDBQ 130025Z 23010KT 10SM OVC042 06/M02 A3015 870 57 0 230/10 RMK AO2
94908KDBQ DBQ20000312183009403/12/00 18:30:31  5-MIN KDBQ 130030Z 21010KT 10SM OVC042 06/M01 A3015 870 62 0 210/10 RMK AO2
94908KDBQ DBQ20000312183510103/12/00 18:35:31  5-MIN KDBQ 130035Z 22009KT 10SM BKN042 OVC070 06/M01 A3015 870 62 0 220/09 RMK AO2
94908KDBQ DBQ20000312184010103/12/00 18:40:31  5-MIN KDBQ 130040Z 21009KT 10SM BKN044 OVC065 06/M01 A3015 870 62 0 210/09 RMK AO2
94908KDBQ DBQ20000312184510103/12/00 18:45:31  5-MIN KDBQ 130045Z 22014KT 10SM BKN044 OVC060 06/M01 A3015 860 62 0 220/14 RMK AO2
94908KDBQ DBQ20000312185011803/12/00 18:50:31  5-MIN KDBQ 130050Z 22009KT 10SM BKN042 OVC060 06/M01 A3015 860 65 0 220/09 RMK AO2 SLP223 T00561006
94908KDBQ DBQ20000312185512803/12/00 18:55:31  5-MIN KDBQ 130055Z 24009KT 10SM BKN038 BKN047 OVC060 05/M01 A3016 860 67 -100 240/09 RMK AO2 SLP225 T00501006
94908KDBQ DBQ20000312190011103/12/00 19:00:31  5-MIN KDBQ 130100Z 24008KT 10SM BKN036 BKN047 OVC065 05/M01 A3016 860 67 -100 240/08 RMK AO2
94908KDBQ DBQ20000312190512603/12/00 19:05:31  5-MIN KDBQ 130105Z 24009KT 10SM -RA BKN032 BKN039 OVC060 05/00 A3016 860 70 -100 240/09 RMK AO2 RAB04 P0000
94908KDBQ DBQ20000312191011903/12/00 19:10:31  5-MIN KDBQ 130110Z 25010KT 10SM -RA BKN030 OVC044 04/00 A3016 850 73 -100 250/10 RMK AO2 RAB04 P0000
94908KDBQ DBQ20000312191512603/12/00 19:15:31  5-MIN KDBQ 130115Z 23010KT 10SM -RA BKN030 BKN034 OVC042 04/01 A3016 850 76 -100 230/10 RMK AO2 RAB04 P0000
94908KDBQ DBQ20000312192012603/12/00 19:20:31  5-MIN KDBQ 130120Z 24010KT 10SM -RA SCT028 BKN037 OVC048 04/01 A3016 850 76 -100 240/10 RMK AO2 RAB04 P0000
94908KDBQ DBQ20000312192511903/12/00 19:25:31  5-MIN KDBQ 130125Z 24011KT 10SM -RA BKN034 OVC041 04/01 A3017 850 76 -100 240/11 RMK AO2 RAB04 P0000
94908KDBQ DBQ20000312193011903/12/00 19:30:31  5-MIN KDBQ 130130Z 24009KT 10SM -RA BKN035 OVC044 04/01 A3017 850 79 -200 230/09 RMK AO2 RAB04 P0000
94908KDBQ DBQ20000312193512603/12/00 19:35:31  5-MIN KDBQ 130135Z 25008KT 10SM -RA BKN035 BKN042 OVC049 04/01 A3017 850 82 -200 250/08 RMK AO2 RAB04 P0000
94908KDBQ DBQ20000312194012603/12/00 19:40:31  5-MIN KDBQ 130140Z 23009KT 10SM -RA BKN027 BKN036 OVC049 04/01 A3017 850 82 -200 230/09 RMK AO2 RAB04 P0000
94908KDBQ DBQ20000312194512503/12/00 19:45:31  5-MIN KDBQ 130145Z 23010KT 9SM -RA FEW021 BKN025 OVC036 04/01 A3017 850 82 -200 230/10 RMK AO2 RAB04 P0000
94908KDBQ DBQ20000312195013503/12/00 19:50:31  5-MIN KDBQ 130150Z 24009KT 9SM -RA BKN025 OVC036 04/01 A3017 850 82 -200 240/09 RMK AO2 RAB04 SLP227 P0000 T00390011
94908KDBQ DBQ20000312195512903/12/00 19:55:31  5-MIN KDBQ 130155Z 24009KT 10SM -RA OVC023 03/01 A3017 850 85 -300 230/09 RMK AO2 RAB04 SLP228 P0001 T00330011
94908KDBQ DBQ20000312200011303/12/00 20:00:31  5-MIN KDBQ 130200Z 24009KT 10SM -RA BKN023 OVC039 03/02 A3017 850 89 -300 240/09 RMK AO2 P0000
94908KDBQ DBQ20000312200512003/12/00 20:05:31  5-MIN KDBQ 130205Z 25008KT 10SM -RA FEW021 BKN027 OVC049 03/01 A3017 850 85 -300 250/08 RMK AO2 P0000
94908KDBQ DBQ20000312201012003/12/00 20:10:31  5-MIN KDBQ 130210Z 25006KT 10SM -RA FEW021 BKN033 OVC050 03/01 A3017 850 85 -300 250/06 RMK AO2 P0000
94908KDBQ DBQ20000312201512003/12/00 20:15:31  5-MIN KDBQ 130215Z 26006KT 10SM -RA BKN033 BKN050 OVC070 03/01 A3017 850 85 -300 260/06 RMK AO2 P0000
94908KDBQ DBQ20000312202011303/12/00 20:20:31  5-MIN KDBQ 130220Z 26005KT 10SM -RA BKN036 OVC070 03/02 A3017 850 89 -300 260/05 RMK AO2 P0000
94908KDBQ DBQ20000312202512003/12/00 20:25:31  5-MIN KDBQ 130225Z 26004KT 10SM -RA FEW037 BKN048 OVC070 03/02 A3017 850 92 -300 250/04 RMK AO2 P0000
94908KDBQ DBQ20000312203012203/12/00 20:30:31  5-MIN KDBQ 130230Z 26003KT 10SM FEW037 BKN055 OVC080 03/02 A3017 850 92 -300 260/03 RMK AO2 RAE26 P0000
94908KDBQ DBQ20000312203512103/12/00 20:35:31  5-MIN KDBQ 130235Z 27003KT 9SM FEW037 BKN055 OVC075 03/02 A3017 850 92 -300 270/03 RMK AO2 RAE26 P0000
94908KDBQ DBQ20000312204012103/12/00 20:40:31  5-MIN KDBQ 130240Z 29003KT 9SM BKN045 BKN055 OVC070 03/02 A3017 850 92 -300 290/03 RMK AO2 RAE26 P0000
94908KDBQ DBQ20000312204511403/12/00 20:45:31  5-MIN KDBQ 130245Z 31003KT 9SM BKN040 OVC070 03/02 A3017 850 92 -300 310/03 RMK AO2 RAE26 P0000
94908KDBQ DBQ20000312205014803/12/00 20:50:31  5-MIN KDBQ 130250Z AUTO 32003KT 9SM BKN042 OVC065 03/02 A3017 850 92 -300 310/03 RMK AO2 RAE26 SLP225 P0000 60001 T00280017 53004
94908KDBQ DBQ20000312205515303/12/00 20:55:31  5-MIN KDBQ 130255Z AUTO 33003KT 9SM BKN042 OVC065 03/02 A3016 850 92 -300 330/03 RMK AO2 RAE26 SLP225 P0000 60001 T00280017 50006 TSNO
94908KDBQ DBQ20000312210011203/12/00 21:00:31  5-MIN KDBQ 130300Z AUTO 34003KT 9SM SCT042 OVC060 03/02 A3016 850 92 -300 340/03 RMK AO2 TSNO
94908KDBQ DBQ20000312210511303/12/00 21:05:31  5-MIN KDBQ 130305Z AUTO 00000KT 10SM SCT042 OVC060 03/02 A3016 860 92 -300 000/00 RMK AO2 TSNO
94908KDBQ DBQ20000312211012003/12/00 21:10:31  5-MIN KDBQ 130310Z AUTO 02003KT 10SM FEW048 BKN060 OVC080 03/02 A3016 860 92 -300 020/03 RMK AO2 TSNO
94908KDBQ DBQ20000312211511303/12/00 21:15:31  5-MIN KDBQ 130315Z AUTO 03004KT 10SM SCT060 OVC080 03/02 A3016 860 92 -300 030/04 RMK AO2 TSNO
94908KDBQ DBQ20000312212012003/12/00 21:20:31  5-MIN KDBQ 130320Z AUTO 04003KT 10SM SCT060 BKN080 OVC095 03/02 A3016 860 92 -300 040/03 RMK AO2 TSNO
94908KDBQ DBQ20000312212511203/12/00 21:25:31  5-MIN KDBQ 130325Z AUTO 05003KT 9SM FEW060 OVC080 03/02 A3016 860 92 -300 050/03 RMK AO2 TSNO
94908KDBQ DBQ20000312213011203/12/00 21:30:31  5-MIN KDBQ 130330Z AUTO 06003KT 9SM BKN070 OVC085 03/02 A3015 860 92 -300 060/03 RMK AO2 TSNO
94908KDBQ DBQ20000312213511203/12/00 21:35:31  5-MIN KDBQ 130335Z AUTO 07003KT 9SM SCT070 OVC085 03/02 A3015 860 92 -300 070/03 RMK AO2 TSNO
94908KDBQ DBQ20000312214011203/12/00 21:40:31  5-MIN KDBQ 130340Z AUTO 07003KT 8SM SCT070 OVC085 03/02 A3016 860 92 -300 070/03 RMK AO2 TSNO
94908KDBQ DBQ20000312214511203/12/00 21:45:31  5-MIN KDBQ 130345Z AUTO 06003KT 8SM SCT070 OVC085 03/02 A3016 860 92 -300 060/03 RMK AO2 TSNO
94908KDBQ DBQ20000312215012903/12/00 21:50:31  5-MIN KDBQ 130350Z AUTO 05003KT 8SM BKN070 OVC085 03/02 A3016 860 92 -300 050/03 RMK AO2 SLP222 T00280017 TSNO
94908KDBQ DBQ20000312215512903/12/00 21:55:31  5-MIN KDBQ 130355Z AUTO 03003KT 9SM BKN070 OVC085 03/02 A3016 860 92 -300 030/03 RMK AO2 SLP221 T00280017 TSNO
94908KDBQ DBQ20000312220011203/12/00 22:00:31  5-MIN KDBQ 130400Z AUTO 02003KT 9SM BKN070 OVC085 02/02 A3015 860 96 -400 020/03 RMK AO2 TSNO
94908KDBQ DBQ20000312220511203/12/00 22:05:31  5-MIN KDBQ 130405Z AUTO 03003KT 9SM BKN070 OVC085 02/02 A3015 860 96 -400 020/03 RMK AO2 TSNO
94908KDBQ DBQ20000312221010503/12/00 22:10:31  5-MIN KDBQ 130410Z AUTO 03004KT 9SM OVC070 02/02 A3015 870 96 -400 030/04 RMK AO2 TSNO
94908KDBQ DBQ20000312221510503/12/00 22:15:31  5-MIN KDBQ 130415Z AUTO 03004KT 9SM OVC070 02/02 A3015 870 96 -400 020/04 RMK AO2 TSNO
94908KDBQ DBQ20000312222010503/12/00 22:20:31  5-MIN KDBQ 130420Z AUTO 02004KT 9SM OVC070 02/02 A3015 870 96 -400 010/04 RMK AO2 TSNO
94908KDBQ DBQ20000312222510503/12/00 22:25:31  5-MIN KDBQ 130425Z AUTO 02004KT 8SM OVC075 02/02 A3014 870 96 -400 020/04 RMK AO2 TSNO
94908KDBQ DBQ20000312223010503/12/00 22:30:31  5-MIN KDBQ 130430Z AUTO 02005KT 8SM OVC070 02/02 A3014 870 96 -400 020/05 RMK AO2 TSNO
94908KDBQ DBQ20000312223510503/12/00 22:35:31  5-MIN KDBQ 130435Z AUTO 03005KT 8SM OVC070 02/02 A3014 870 96 -400 030/05 RMK AO2 TSNO
94908KDBQ DBQ20000312224011203/12/00 22:40:31  5-MIN KDBQ 130440Z AUTO 03005KT 8SM BKN070 OVC090 03/02 A3014 870 92 -300 030/05 RMK AO2 TSNO
94908KDBQ DBQ20000312224511203/12/00 22:45:31  5-MIN KDBQ 130445Z AUTO 02005KT 8SM BKN070 OVC090 02/02 A3014 880 96 -400 020/05 RMK AO2 TSNO
94908KDBQ DBQ20000312225012903/12/00 22:50:31  5-MIN KDBQ 130450Z AUTO 04005KT 8SM BKN070 OVC095 02/02 A3014 880 96 -400 030/05 RMK AO2 SLP215 T00220017 TSNO
94908KDBQ DBQ20000312225512903/12/00 22:55:31  5-MIN KDBQ 130455Z AUTO 04005KT 8SM BKN070 OVC095 03/01 A3014 880 89 -300 040/05 RMK AO2 SLP215 T00280011 TSNO
94908KDBQ DBQ20000312230010503/12/00 23:00:31  5-MIN KDBQ 130500Z AUTO 03004KT 8SM OVC070 03/02 A3014 880 92 -300 030/04 RMK AO2 TSNO
94908KDBQ DBQ20000312230510503/12/00 23:05:31  5-MIN KDBQ 130505Z AUTO 05004KT 8SM OVC070 03/02 A3014 880 92 -300 050/04 RMK AO2 TSNO
94908KDBQ DBQ20000312231010503/12/00 23:10:31  5-MIN KDBQ 130510Z AUTO 05005KT 8SM OVC070 03/02 A3013 880 92 -300 050/05 RMK AO2 TSNO
94908KDBQ DBQ20000312231510503/12/00 23:15:31  5-MIN KDBQ 130515Z AUTO 04005KT 8SM OVC070 03/02 A3013 880 92 -300 040/05 RMK AO2 TSNO
94908KDBQ DBQ20000312232010503/12/00 23:20:31  5-MIN KDBQ 130520Z AUTO 04006KT 8SM OVC070 03/02 A3013 890 92 -300 030/06 RMK AO2 TSNO
94908KDBQ DBQ20000312232510503/12/00 23:25:31  5-MIN KDBQ 130525Z AUTO 05006KT 8SM OVC070 03/02 A3013 890 92 -300 040/06 RMK AO2 TSNO
94908KDBQ DBQ20000312233010503/12/00 23:30:31  5-MIN KDBQ 130530Z AUTO 05005KT 7SM OVC070 03/02 A3013 890 92 -300 050/05 RMK AO2 TSNO
94908KDBQ DBQ20000312233510503/12/00 23:35:31  5-MIN KDBQ 130535Z AUTO 05005KT 7SM OVC070 03/02 A3012 890 92 -300 050/05 RMK AO2 TSNO
94908KDBQ DBQ20000312234010503/12/00 23:40:31  5-MIN KDBQ 130540Z AUTO 04006KT 7SM OVC070 03/02 A3012 890 92 -300 040/06 RMK AO2 TSNO
94908KDBQ DBQ20000312234510503/12/00 23:45:31  5-MIN KDBQ 130545Z AUTO 04005KT 7SM OVC070 03/01 A3012 890 89 -300 040/05 RMK AO2 TSNO
94908KDBQ DBQ20000312235015603/12/00 23:50:31  5-MIN KDBQ 130550Z AUTO 04006KT 7SM OVC065 03/01 A3012 890 89 -300 040/06 RMK AO2 SLP209 60001 T00280011 10061 20022 400831056 50006 TSNO
94908KDBQ DBQ20000312235515603/12/00 23:55:31  5-MIN KDBQ 130555Z AUTO 04006KT 7SM OVC065 03/01 A3012 890 89 -300 040/06 RMK AO2 SLP209 60001 T00280011 10061 20022 400831056 58015 TSNO
94908KDBQ DBQ20000313000010503/13/00 00:00:31  5-MIN KDBQ 130600Z AUTO 04006KT 7SM OVC060 03/01 A3012 890 89 -300 040/06 RMK AO2 TSNO
94908KDBQ DBQ20000313000511203/13/00 00:05:31  5-MIN KDBQ 130605Z AUTO 03006KT 7SM BKN060 OVC075 03/01 A3012 890 89 -300 030/06 RMK AO2 TSNO
94908KDBQ DBQ20000313001011203/13/00 00:10:31  5-MIN KDBQ 130610Z AUTO 03005KT 7SM BKN060 OVC080 02/01 A3013 890 92 -400 030/05 RMK AO2 TSNO
94908KDBQ DBQ20000313001511203/13/00 00:15:31  5-MIN KDBQ 130615Z AUTO 03005KT 7SM BKN060 OVC080 03/01 A3013 890 89 -300 030/05 RMK AO2 TSNO
94908KDBQ DBQ20000313002011203/13/00 00:20:31  5-MIN KDBQ 130620Z AUTO 04005KT 8SM BKN060 OVC080 03/01 A3013 890 89 -300 040/05 RMK AO2 TSNO
94908KDBQ DBQ20000313002511203/13/00 00:25:31  5-MIN KDBQ 130625Z AUTO 06004KT 8SM SCT060 OVC080 03/01 A3012 890 89 -300 060/04 RMK AO2 TSNO
94908KDBQ DBQ20000313003011203/13/00 00:30:31  5-MIN KDBQ 130630Z AUTO 06004KT 7SM FEW060 OVC080 03/01 A3012 890 89 -300 060/04 RMK AO2 TSNO
94908KDBQ DBQ20000313003511203/13/00 00:35:31  5-MIN KDBQ 130635Z AUTO 06004KT 7SM FEW055 OVC080 02/01 A3012 890 92 -400 060/04 RMK AO2 TSNO
94908KDBQ DBQ20000313004011203/13/00 00:40:31  5-MIN KDBQ 130640Z AUTO 06004KT 7SM FEW055 OVC085 02/01 A3012 900 92 -400 060/04 RMK AO2 TSNO
94908KDBQ DBQ20000313004510503/13/00 00:45:31  5-MIN KDBQ 130645Z AUTO 06004KT 7SM OVC085 02/01 A3012 900 92 -400 060/04 RMK AO2 TSNO
94908KDBQ DBQ20000313005012203/13/00 00:50:31  5-MIN KDBQ 130650Z AUTO 06004KT 7SM OVC090 02/01 A3012 900 92 -300 060/04 RMK AO2 SLP207 T00220011 TSNO
94908KDBQ DBQ20000313005512903/13/00 00:55:31  5-MIN KDBQ 130655Z AUTO 05005KT 7SM SCT080 OVC095 02/01 A3012 900 92 -300 050/05 RMK AO2 SLP206 T00220011 TSNO
94908KDBQ DBQ20000313010010503/13/00 01:00:31  5-MIN KDBQ 130700Z AUTO 05005KT 7SM OVC090 02/01 A3012 900 92 -300 050/05 RMK AO2 TSNO
94908KDBQ DBQ20000313010510503/13/00 01:05:31  5-MIN KDBQ 130705Z AUTO 05005KT 7SM OVC090 02/01 A3011 900 92 -300 050/05 RMK AO2 TSNO
94908KDBQ DBQ20000313011010503/13/00 01:10:31  5-MIN KDBQ 130710Z AUTO 06006KT 7SM OVC085 02/01 A3011 900 92 -300 060/06 RMK AO2 TSNO
94908KDBQ DBQ20000313011510503/13/00 01:15:31  5-MIN KDBQ 130715Z AUTO 08006KT 7SM OVC085 02/01 A3011 900 92 -300 070/06 RMK AO2 TSNO
94908KDBQ DBQ20000313012010503/13/00 01:20:31  5-MIN KDBQ 130720Z AUTO 07007KT 7SM OVC085 02/01 A3011 900 92 -300 070/07 RMK AO2 TSNO
94908KDBQ DBQ20000313012511203/13/00 01:25:31  5-MIN KDBQ 130725Z AUTO 07007KT 7SM BKN080 OVC095 02/01 A3011 900 92 -300 070/07 RMK AO2 TSNO
94908KDBQ DBQ20000313013010503/13/00 01:30:31  5-MIN KDBQ 130730Z AUTO 07008KT 7SM OVC085 02/01 A3011 900 92 -300 070/08 RMK AO2 TSNO
94908KDBQ DBQ20000313013510503/13/00 01:35:31  5-MIN KDBQ 130735Z AUTO 06007KT 7SM OVC085 02/01 A3011 910 92 -300 060/07 RMK AO2 TSNO
94908KDBQ DBQ20000313014010503/13/00 01:40:31  5-MIN KDBQ 130740Z AUTO 07007KT 7SM OVC085 02/01 A3011 910 92 -300 070/07 RMK AO2 TSNO
94908KDBQ DBQ20000313014510503/13/00 01:45:31  5-MIN KDBQ 130745Z AUTO 07006KT 7SM OVC085 02/01 A3010 910 92 -300 070/06 RMK AO2 TSNO
94908KDBQ DBQ20000313015012203/13/00 01:50:31  5-MIN KDBQ 130750Z AUTO 07006KT 7SM OVC085 02/01 A3010 910 92 -300 060/06 RMK AO2 SLP200 T00220011 TSNO
94908KDBQ DBQ20000313015512203/13/00 01:55:31  5-MIN KDBQ 130755Z AUTO 07007KT 7SM OVC090 02/01 A3010 910 92 -300 070/07 RMK AO2 SLP199 T00220011 TSNO
94908KDBQ DBQ20000313020010503/13/00 02:00:31  5-MIN KDBQ 130800Z AUTO 07006KT 7SM OVC090 02/01 A3010 910 92 -300 070/06 RMK AO2 TSNO
94908KDBQ DBQ20000313020510503/13/00 02:05:31  5-MIN KDBQ 130805Z AUTO 07006KT 7SM OVC090 02/01 A3010 920 92 -300 070/06 RMK AO2 TSNO
94908KDBQ DBQ20000313021010503/13/00 02:10:31  5-MIN KDBQ 130810Z AUTO 07006KT 7SM OVC085 02/01 A3009 920 92 -300 070/06 RMK AO2 TSNO
94908KDBQ DBQ20000313021510503/13/00 02:15:31  5-MIN KDBQ 130815Z AUTO 08007KT 7SM OVC090 02/01 A3009 920 92 -300 070/07 RMK AO2 TSNO
94908KDBQ DBQ20000313022010503/13/00 02:20:31  5-MIN KDBQ 130820Z AUTO 07007KT 7SM OVC090 02/01 A3009 920 92 -300 070/07 RMK AO2 TSNO
94908KDBQ DBQ20000313022510503/13/00 02:25:31  5-MIN KDBQ 130825Z AUTO 08007KT 7SM OVC090 02/01 A3009 930 92 -300 080/07 RMK AO2 TSNO
94908KDBQ DBQ20000313023010503/13/00 02:30:31  5-MIN KDBQ 130830Z AUTO 08007KT 7SM OVC090 02/01 A3009 920 92 -300 080/07 RMK AO2 TSNO
94908KDBQ DBQ20000313023510503/13/00 02:35:31  5-MIN KDBQ 130835Z AUTO 09006KT 7SM OVC090 02/01 A3009 930 92 -300 080/06 RMK AO2 TSNO
94908KDBQ DBQ20000313024010503/13/00 02:40:31  5-MIN KDBQ 130840Z AUTO 09006KT 7SM OVC090 02/01 A3008 930 92 -300 090/06 RMK AO2 TSNO
94908KDBQ DBQ20000313024511203/13/00 02:45:31  5-MIN KDBQ 130845Z AUTO 08007KT 7SM SCT080 OVC095 02/01 A3008 930 92 -300 080/07 RMK AO2 TSNO
94908KDBQ DBQ20000313025013503/13/00 02:50:31  5-MIN KDBQ 130850Z AUTO 08006KT 7SM SCT060 OVC095 02/01 A3008 930 92 -300 070/06 RMK AO2 SLP194 T00220011 58015 TSNO
94908KDBQ DBQ20000313025513503/13/00 02:55:31  5-MIN KDBQ 130855Z AUTO 07006KT 8SM BKN047 OVC095 02/01 A3008 930 92 -300 070/06 RMK AO2 SLP194 T00220011 58013 TSNO
94908KDBQ DBQ20000313030011203/13/00 03:00:31  5-MIN KDBQ 130900Z AUTO 06005KT 7SM BKN043 OVC090 02/01 A3008 930 92 -300 060/05 RMK AO2 TSNO
94908KDBQ DBQ20000313030511203/13/00 03:05:31  5-MIN KDBQ 130905Z AUTO 02005KT 7SM BKN039 OVC090 02/01 A3008 930 92 -300 020/05 RMK AO2 TSNO
94908KDBQ DBQ20000313031010503/13/00 03:10:31  5-MIN KDBQ 130910Z AUTO 00000KT 7SM OVC037 02/01 A3008 930 92 -300 000/00 RMK AO2 TSNO
94908KDBQ DBQ20000313031510503/13/00 03:15:31  5-MIN KDBQ 130915Z AUTO 36004KT 7SM OVC033 02/01 A3008 930 92 -300 360/04 RMK AO2 TSNO
94908KDBQ DBQ20000313032010503/13/00 03:20:31  5-MIN KDBQ 130920Z AUTO 35004KT 7SM OVC029 02/01 A3008 930 92 -300 350/04 RMK AO2 TSNO
94908KDBQ DBQ20000313032512003/13/00 03:25:31  5-MIN KDBQ 130925Z AUTO 03005KT 7SM UP OVC029 02/01 A3008 930 92 -300 030/05 RMK AO2 UPB23 P0000 TSNO
94908KDBQ DBQ20000313033012003/13/00 03:30:31  5-MIN KDBQ 130930Z AUTO 07005KT 7SM UP OVC027 02/01 A3009 920 92 -300 070/05 RMK AO2 UPB23 P0000 TSNO
94908KDBQ DBQ20000313033512903/13/00 03:35:31  5-MIN KDBQ 130935Z AUTO VRB04KT 8SM -RA OVC027 03/01 A3009 920 89 -200 VRB/04 RMK AO2 UPB23E31RAB31 P0000 TSNO
94908KDBQ DBQ20000313034012903/13/00 03:40:31  5-MIN KDBQ 130940Z AUTO 00000KT 8SM -RA OVC025 03/01 A3009 920 89 -200 000/00 RMK AO2 UPB23E31RAB31 P0000 TSNO
94908KDBQ DBQ20000313034512903/13/00 03:45:31  5-MIN KDBQ 130945Z AUTO 00000KT 7SM -RA OVC023 02/01 A3009 920 92 -300 000/00 RMK AO2 UPB23E31RAB31 P0000 TSNO
94908KDBQ DBQ20000313035014603/13/00 03:50:31  5-MIN KDBQ 130950Z AUTO 00000KT 7SM -RA OVC023 03/01 A3009 930 89 -200 000/00 RMK AO2 UPB23E31RAB31 SLP196 P0000 T00280011 TSNO
94908KDBQ DBQ20000313035516003/13/00 03:55:31  5-MIN KDBQ 130955Z AUTO 00000KT 7SM -RA BKN021 BKN039 OVC060 03/01 A3008 930 89 -200 000/00 RMK AO2 UPB23E31RAB31 SLP195 P0001 T00280011 TSNO
94908KDBQ DBQ20000313040012203/13/00 04:00:31  5-MIN KDBQ 131000Z AUTO 00000KT 8SM -RA BKN028 OVC060 02/01 A3008 930 92 -300 000/00 RMK AO2 P0000 TSNO
94908KDBQ DBQ20000313040512903/13/00 04:05:31  5-MIN KDBQ 131005Z AUTO 12003KT 8SM -RA BKN030 BKN043 OVC060 02/01 A3008 930 92 -300 120/03 RMK AO2 P0000 TSNO
94908KDBQ DBQ20000313041012203/13/00 04:10:31  5-MIN KDBQ 131010Z AUTO 14003KT 7SM -RA BKN028 OVC060 02/01 A3008 930 92 -300 140/03 RMK AO2 P0000 TSNO
94908KDBQ DBQ20000313041512203/13/00 04:15:31  5-MIN KDBQ 131015Z AUTO 14005KT 8SM -RA BKN026 OVC060 02/01 A3008 930 92 -300 140/05 RMK AO2 P0000 TSNO
94908KDBQ DBQ20000313042013903/13/00 04:20:31  5-MIN KDBQ 131020Z AUTO 19008KT 9SM UP SCT028 BKN040 OVC060 03/01 A3008 930 89 -200 190/08 RMK AO2 RAE16UPB16 P0000 TSNO
94908KDBQ DBQ20000313042513903/13/00 04:25:31  5-MIN KDBQ 131025Z AUTO 17010KT 8SM UP FEW016 BKN030 OVC060 02/01 A3008 930 92 -300 170/10 RMK AO2 RAE16UPB16 P0000 TSNO
94908KDBQ DBQ20000313043013803/13/00 04:30:31  5-MIN KDBQ 131030Z AUTO 15006KT 7SM -RA FEW014 BKN025 OVC047 02/01 A3008 930 96 -400 150/06 RMK AO2 UPB16E30 P0000 TSNO
94908KDBQ DBQ20000313043514103/13/00 04:35:31  5-MIN KDBQ 131035Z AUTO 15005KT 6SM -RA BR FEW019 BKN027 OVC047 02/01 A3008 930 96 -400 150/05 RMK AO2 UPB16E30 P0000 TSNO
94908KDBQ DBQ20000313044014103/13/00 04:40:31  5-MIN KDBQ 131040Z AUTO 11003KT 6SM -RA BR FEW015 BKN029 OVC047 02/01 A3007 940 92 -400 110/03 RMK AO2 UPB16E30 P0000 TSNO
94908KDBQ DBQ20000313044514103/13/00 04:45:31  5-MIN KDBQ 131045Z AUTO 10004KT 6SM -RA BR FEW015 BKN033 OVC049 02/01 A3007 940 96 -400 100/04 RMK AO2 UPB16E30 P0000 TSNO
94908KDBQ DBQ20000313045015803/13/00 04:50:31  5-MIN KDBQ 131050Z AUTO 13004KT 6SM -RA BR FEW015 BKN035 OVC060 02/01 A3007 940 96 -400 130/04 RMK AO2 UPB16E30 SLP192 P0000 T00170011 TSNO
94908KDBQ DBQ20000313045515803/13/00 04:55:31  5-MIN KDBQ 131055Z AUTO 14005KT 6SM BR SCT033 OVC048 02/01 A3007 940 96 -400 140/05 RMK AO2 RAE51UPB16E30B51E54 SLP193 P0000 T00170011 TSNO
94908KDBQ DBQ20000313050011603/13/00 05:00:31  5-MIN KDBQ 131100Z AUTO 13006KT 6SM BR FEW031 OVC038 01/01 A3007 940 100 -400 130/06 RMK AO2 TSNO
94908KDBQ DBQ20000313050510803/13/00 05:05:31  5-MIN KDBQ 131105Z AUTO 13004KT 6SM BR OVC034 01/01 A3007 940 96 -400 130/04 RMK AO2 TSNO
94908KDBQ DBQ20000313051011503/13/00 05:10:31  5-MIN KDBQ 131110Z AUTO 11005KT 6SM BR BKN034 OVC065 01/01 A3007 940 96 -400 110/05 RMK AO2 TSNO
94908KDBQ DBQ20000313051511603/13/00 05:15:31  5-MIN KDBQ 131115Z AUTO 10003KT 6SM BR BKN036 OVC060 01/01 A3007 940 100 -400 100/03 RMK AO2 TSNO
94908KDBQ DBQ20000313052011503/13/00 05:20:31  5-MIN KDBQ 131120Z AUTO 07003KT 6SM BR SCT034 OVC060 02/01 A3007 940 96 -400 070/03 RMK AO2 TSNO
94908KDBQ DBQ20000313052511603/13/00 05:25:31  5-MIN KDBQ 131125Z AUTO 09003KT 6SM BR FEW030 OVC060 01/01 A3007 940 100 -400 090/03 RMK AO2 TSNO
94908KDBQ DBQ20000313053011603/13/00 05:30:31  5-MIN KDBQ 131130Z AUTO 10003KT 6SM BR FEW030 OVC055 01/01 A3007 940 100 -400 090/03 RMK AO2 TSNO
94908KDBQ DBQ20000313053510903/13/00 05:35:31  5-MIN KDBQ 131135Z AUTO 10003KT 6SM BR OVC060 01/01 A3007 940 100 -400 100/03 RMK AO2 TSNO
94908KDBQ DBQ20000313054010903/13/00 05:40:31  5-MIN KDBQ 131140Z AUTO 12004KT 6SM BR OVC055 01/01 A3007 940 100 -400 120/04 RMK AO2 TSNO
94908KDBQ DBQ20000313054510803/13/00 05:45:31  5-MIN KDBQ 131145Z AUTO 12004KT 6SM BR OVC050 02/01 A3007 940 96 -400 120/04 RMK AO2 TSNO
94908KDBQ DBQ20000313055015503/13/00 05:50:31  5-MIN KDBQ 131150Z AUTO 13003KT 6SM BR OVC050 02/01 A3008 940 92 -400 130/03 RMK AO2 SLP193 60001 70002 T00170006 10028 20011 58013 TSNO
94908KDBQ DBQ20000313055514203/13/00 05:55:31  5-MIN KDBQ 131155Z 10004KT 8SM OVC050 02/01 A3008 930 96 -400 100/04 RMK AO2 SLP194 60001 70002 T00170011 10028 20011 55001
94908KDBQ DBQ20000313060010303/13/00 06:00:31  5-MIN KDBQ 131200Z 11003KT 8SM BKN045 OVC050 01/01 A3008 930 100 -400 100/03 RMK AO2
94908KDBQ DBQ20000313060510203/13/00 06:05:31  5-MIN KDBQ 131205Z 00000KT 8SM BKN042 OVC050 01/01 A3008 930 96 -400 000/00 RMK AO2
94908KDBQ DBQ20000313061010203/13/00 06:10:31  5-MIN KDBQ 131210Z 00000KT 8SM BKN040 OVC050 02/01 A3008 930 96 -400 000/00 RMK AO2
94908KDBQ DBQ20000313061510903/13/00 06:15:31  5-MIN KDBQ 131215Z 00000KT 8SM FEW030 BKN040 OVC050 02/01 A3008 930 96 -400 000/00 RMK AO2
94908KDBQ DBQ20000313062010503/13/00 06:20:31  5-MIN KDBQ 131220Z 00000KT 6SM BR FEW030 OVC040 02/01 A3008 930 96 -400 000/00 RMK AO2
94908KDBQ DBQ20000313062511203/13/00 06:25:31  5-MIN KDBQ 131225Z 00000KT 6SM BR FEW017 SCT030 OVC040 02/01 A3008 930 96 -400 000/00 RMK AO2
94908KDBQ DBQ20000313063011203/13/00 06:30:31  5-MIN KDBQ 131230Z 01003KT 6SM BR FEW017 BKN030 OVC040 02/01 A3008 930 96 -400 010/03 RMK AO2
94908KDBQ DBQ20000313063511203/13/00 06:35:31  5-MIN KDBQ 131235Z 36003KT 6SM BR SCT019 BKN030 OVC040 02/01 A3008 930 96 -400 360/03 RMK AO2
94908KDBQ DBQ20000313064011203/13/00 06:40:31  5-MIN KDBQ 131240Z 01003KT 5SM BR SCT019 BKN030 OVC040 02/01 A3008 930 96 -400 010/03 RMK AO2
94908KDBQ DBQ20000313064510503/13/00 06:45:31  5-MIN KDBQ 131245Z 03004KT 4SM BR FEW019 OVC030 02/01 A3008 930 96 -400 030/04 RMK AO2
94908KDBQ DBQ20000313065012203/13/00 06:50:31  5-MIN KDBQ 131250Z 03005KT 3SM BR FEW019 OVC030 02/01 A3007 940 96 -400 030/05 RMK AO2 SLP193 T00170011
94908KDBQ DBQ20000313065512203/13/00 06:55:31  5-MIN KDBQ 131255Z 03004KT 3SM BR FEW019 OVC030 02/01 A3007 940 96 -400 020/04 RMK AO2 SLP193 T00170011
94908KDBQ DBQ20000313070010503/13/00 07:00:31  5-MIN KDBQ 131300Z 03003KT 3SM BR FEW019 OVC030 02/01 A3008 930 96 -400 020/03 RMK AO2
94908KDBQ DBQ20000313070509803/13/00 07:05:31  5-MIN KDBQ 131305Z 01004KT 3SM BR OVC030 02/01 A3008 930 96 -400 010/04 RMK AO2
94908KDBQ DBQ20000313071009803/13/00 07:10:31  5-MIN KDBQ 131310Z 02003KT 3SM BR OVC030 02/01 A3008 930 96 -400 020/03 RMK AO2
94908KDBQ DBQ20000313071509803/13/00 07:15:31  5-MIN KDBQ 131315Z 00000KT 3SM BR OVC030 02/01 A3008 930 96 -400 000/00 RMK AO2
94908KDBQ DBQ20000313072009803/13/00 07:20:31  5-MIN KDBQ 131320Z 00000KT 3SM BR OVC030 02/01 A3008 930 96 -400 000/00 RMK AO2
94908KDBQ DBQ20000313072509803/13/00 07:25:31  5-MIN KDBQ 131325Z 00000KT 3SM BR OVC030 02/01 A3008 930 96 -400 000/00 RMK AO2
94908KDBQ DBQ20000313073009803/13/00 07:30:31  5-MIN KDBQ 131330Z 01003KT 3SM BR OVC030 02/01 A3008 930 96 -400 010/03 RMK AO2
94908KDBQ DBQ20000313073509803/13/00 07:35:31  5-MIN KDBQ 131335Z 00000KT 3SM BR OVC030 02/01 A3008 930 96 -400 000/00 RMK AO2
94908KDBQ DBQ20000313074009803/13/00 07:40:31  5-MIN KDBQ 131340Z 00000KT 3SM BR OVC030 02/01 A3008 930 96 -400 000/00 RMK AO2
94908KDBQ DBQ20000313074509803/13/00 07:45:31  5-MIN KDBQ 131345Z 00000KT 3SM BR OVC030 02/01 A3009 920 96 -400 000/00 RMK AO2
94908KDBQ DBQ20000313075011503/13/00 07:50:31  5-MIN KDBQ 131350Z 34004KT 5SM BR OVC023 02/01 A3009 920 92 -300 330/04 RMK AO2 SLP198 T00220011
94908KDBQ DBQ20000313075511503/13/00 07:55:31  5-MIN KDBQ 131355Z 35006KT 4SM BR OVC021 02/01 A3009 920 96 -400 340/06 RMK AO2 SLP200 T00170011
94908KDBQ DBQ20000313080009803/13/00 08:00:31  5-MIN KDBQ 131400Z 35006KT 2SM BR OVC021 02/01 A3009 920 96 -400 350/06 RMK AO2
94908KDBQ DBQ20000313080510503/13/00 08:05:31  5-MIN KDBQ 131405Z 36005KT 2SM BR BKN019 OVC023 02/01 A3009 920 96 -400 360/05 RMK AO2
94908KDBQ DBQ20000313081009903/13/00 08:10:31  5-MIN KDBQ 131410Z 36004KT 2SM BR OVC019 02/02 A3009 920 100 -400 360/04 RMK AO2
94908KDBQ DBQ20000313081509803/13/00 08:15:31  5-MIN KDBQ 131415Z 36004KT 2SM BR OVC019 02/02 A3009 920 96 -300 360/04 RMK AO2
94908KDBQ DBQ20000313082009903/13/00 08:20:31  5-MIN KDBQ 131420Z 36003KT 2SM BR OVC019 02/02 A3009 920 100 -400 360/03 RMK AO2
94908KDBQ DBQ20000313082509803/13/00 08:25:31  5-MIN KDBQ 131425Z 36003KT 2SM BR OVC019 02/02 A3009 920 96 -300 360/03 RMK AO2
94908KDBQ DBQ20000313083009803/13/00 08:30:31  5-MIN KDBQ 131430Z 36003KT 2SM BR OVC019 02/02 A3009 920 96 -300 360/03 RMK AO2
94908KDBQ DBQ20000313083510503/13/00 08:35:31  5-MIN KDBQ 131435Z 36003KT 2SM BR FEW004 OVC019 02/02 A3010 920 96 -300 360/03 RMK AO2
94908KDBQ DBQ20000313084010503/13/00 08:40:31  5-MIN KDBQ 131440Z 35004KT 2SM BR SCT004 OVC019 02/02 A3010 920 96 -300 350/04 RMK AO2
94908KDBQ DBQ20000313084510503/13/00 08:45:31  5-MIN KDBQ 131445Z 36004KT 2SM BR SCT004 OVC019 02/02 A3010 920 96 -300 360/04 RMK AO2
94908KDBQ DBQ20000313085014103/13/00 08:50:31  5-MIN KDBQ 131450Z 36005KT 2SM BR BKN004 OVC019 02/02 A3010 920 100 -300 350/05 RMK AO2 CIG 002V006 SLP201 T00220022 55001
94908KDBQ DBQ20000313085514503/13/00 08:55:31  5-MIN KDBQ 131455Z 01006KT 1 3/4SM BR BKN004 OVC021 02/02 A3010 920 100 -300 360/06 RMK AO2 CIG 002V006 SLP202 T00220022 53006
94908KDBQ DBQ20000313090011503/13/00 09:00:31  5-MIN KDBQ 131500Z 36006KT 1 3/4SM BR OVC004 02/02 A3010 920 100 -300 360/06 RMK AO2 CIG 002V006
94908KDBQ DBQ20000313090511503/13/00 09:05:31  5-MIN KDBQ 131505Z 36006KT 1 3/4SM BR OVC002 02/02 A3010 920 100 -300 360/06 RMK AO2 CIG 002V006
94908KDBQ DBQ20000313091011503/13/00 09:10:31  5-MIN KDBQ 131510Z 35005KT 1 1/2SM BR OVC002 02/02 A3010 920 100 -300 350/05 RMK AO2 CIG 001V006
94908KDBQ DBQ20000313091510203/13/00 09:15:31  5-MIN KDBQ 131515Z 36006KT 1 1/4SM BR OVC002 03/02 A3009 920 96 -300 360/06 RMK AO2
94908KDBQ DBQ20000313092010903/13/00 09:20:31  5-MIN KDBQ 131520Z 02006KT 1 1/2SM BR BKN002 OVC018 03/02 A3009 920 96 -300 020/06 RMK AO2
94908KDBQ DBQ20000313092510203/13/00 09:25:31  5-MIN KDBQ 131525Z 01006KT 1 1/2SM BR OVC002 03/02 A3009 920 96 -300 010/06 RMK AO2
94908KDBQ DBQ20000313093010203/13/00 09:30:31  5-MIN KDBQ 131530Z 36006KT 1 1/2SM BR OVC002 03/02 A3009 920 96 -300 360/06 RMK AO2
94908KDBQ DBQ20000313093510203/13/00 09:35:31  5-MIN KDBQ 131535Z 01004KT 1 1/4SM BR OVC002 03/02 A3010 920 96 -300 010/04 RMK AO2
94908KDBQ DBQ20000313094010303/13/00 09:40:31  5-MIN KDBQ 131540Z 36005KT 1 1/4SM BR OVC002 03/03 A3010 920 100 -300 360/05 RMK AO2
94908KDBQ DBQ20000313094510203/13/00 09:45:31  5-MIN KDBQ 131545Z 36005KT 1 1/4SM BR OVC002 03/02 A3010 920 96 -300 360/05 RMK AO2
94908KDBQ DBQ20000313095011903/13/00 09:50:31  5-MIN KDBQ 131550Z 04004KT 1 1/2SM BR OVC002 03/03 A3010 920 96 -200 040/04 RMK AO2 SLP201 T00330028
94908KDBQ DBQ20000313095511903/13/00 09:55:31  5-MIN KDBQ 131555Z 01004KT 1 1/2SM BR OVC002 03/03 A3010 910 96 -200 010/04 RMK AO2 SLP201 T00330028
94908KDBQ DBQ20000313100010203/13/00 10:00:31  5-MIN KDBQ 131600Z 03005KT 1 3/4SM BR OVC002 03/02 A3010 910 96 -300 030/05 RMK AO2
94908KDBQ DBQ20000313100510203/13/00 10:05:31  5-MIN KDBQ 131605Z 04003KT 1 3/4SM BR OVC002 03/02 A3010 910 96 -300 040/03 RMK AO2
94908KDBQ DBQ20000313101010203/13/00 10:10:31  5-MIN KDBQ 131610Z 00000KT 1 3/4SM BR OVC004 03/02 A3010 910 92 -200 000/00 RMK AO2
94908KDBQ DBQ20000313101510203/13/00 10:15:31  5-MIN KDBQ 131615Z 03004KT 1 3/4SM BR OVC004 03/03 A3010 910 96 -200 030/04 RMK AO2
94908KDBQ DBQ20000313102010203/13/00 10:20:31  5-MIN KDBQ 131620Z 03003KT 1 3/4SM BR OVC004 03/03 A3010 910 96 -200 030/03 RMK AO2
94908KDBQ DBQ20000313102511403/13/00 10:25:31  5-MIN KDBQ 131625Z 35004KT 1 3/4SM BR OVC004 04/03 A3010 910 92 -100 350/04 RMK AO2 CIG 003V008
94908KDBQ DBQ20000313103011403/13/00 10:30:31  5-MIN KDBQ 131630Z VRB03KT 1 3/4SM BR OVC004 04/03 A3010 910 92 -100 VRB/03 RMK AO2 CIG 003V009
94908KDBQ DBQ20000313103511403/13/00 10:35:31  5-MIN KDBQ 131635Z 34005KT 2 1/2SM BR OVC006 04/03 A3010 910 89 -100 340/05 RMK AO2 CIG 004V010
94908KDBQ DBQ20000313104011703/13/00 10:40:31  5-MIN KDBQ 131640Z 33007KT 3SM BR BKN006 OVC009 04/03 A3010 910 89 -100 330/07 RMK AO2 CIG 004V008
94908KDBQ DBQ20000313104510503/13/00 10:45:31  5-MIN KDBQ 131645Z 34008KT 4SM BR BKN007 OVC011 04/03 A3010 910 89 -100 330/08 RMK AO2
94908KDBQ DBQ20000313105012203/13/00 10:50:31  5-MIN KDBQ 131650Z 33006KT 4SM BR BKN007 OVC011 04/02 A3010 910 89 -100 320/06 RMK AO2 SLP203 T00390022
94908KDBQ DBQ20000313105512203/13/00 10:55:31  5-MIN KDBQ 131655Z 33006KT 4SM BR BKN007 OVC011 04/02 A3011 910 89 -100 330/06 RMK AO2 SLP204 T00390022
94908KDBQ DBQ20000313110009803/13/00 11:00:31  5-MIN KDBQ 131700Z 34006KT 4SM BR OVC011 04/02 A3011 910 89 -100 340/06 RMK AO2
94908KDBQ DBQ20000313110509803/13/00 11:05:31  5-MIN KDBQ 131705Z 30008KT 4SM BR OVC009 04/02 A3011 910 89 -100 300/08 RMK AO2
94908KDBQ DBQ20000313111009803/13/00 11:10:31  5-MIN KDBQ 131710Z 33007KT 4SM BR OVC009 04/02 A3010 910 85 -100 330/07 RMK AO2
94908KDBQ DBQ20000313111511003/13/00 11:15:31  5-MIN KDBQ 131715Z 32008KT 4SM BR OVC009 04/03 A3010 910 89 -100 320/08 RMK AO2 CIG 007V014
94908KDBQ DBQ20000313112011003/13/00 11:20:31  5-MIN KDBQ 131720Z 31007KT 4SM BR OVC009 04/03 A3010 910 89 -100 310/07 RMK AO2 CIG 007V014
94908KDBQ DBQ20000313112511003/13/00 11:25:31  5-MIN KDBQ 131725Z 31008KT 4SM BR OVC009 04/03 A3011 910 89 -100 310/08 RMK AO2 CIG 007V014
94908KDBQ DBQ20000313113011003/13/00 11:30:31  5-MIN KDBQ 131730Z 34007KT 4SM BR OVC009 04/03 A3011 910 89 -100 340/07 RMK AO2 CIG 007V014
94908KDBQ DBQ20000313113511003/13/00 11:35:31  5-MIN KDBQ 131735Z 32009KT 4SM BR OVC009 04/02 A3011 910 85 -100 320/09 RMK AO2 CIG 008V012
94908KDBQ DBQ20000313114011003/13/00 11:40:31  5-MIN KDBQ 131740Z 31009KT 4SM BR OVC009 04/02 A3011 910 85 -100 300/09 RMK AO2 CIG 008V012
94908KDBQ DBQ20000313114511703/13/00 11:45:31  5-MIN KDBQ 131745Z 32009KT 5SM BR BKN009 OVC014 04/02 A3011 910 85 -100 310/09 RMK AO2 CIG 008V013
94908KDBQ DBQ20000313115013303/13/00 11:50:31  5-MIN KDBQ 131750Z 30008KT 5SM BR OVC012 04/02 A3011 910 85 -100 300/08 RMK AO2 SLP204 T00440022 10050 20011 53006
94908KDBQ DBQ20000313115513303/13/00 11:55:31  5-MIN KDBQ 131755Z 33006KT 5SM BR OVC012 04/02 A3010 910 85 -100 320/06 RMK AO2 SLP203 T00440022 10050 20011 50002
94908KDBQ DBQ20000313120009503/13/00 12:00:31  5-MIN KDBQ 131800Z 32007KT 5SM HZ OVC012 05/02 A3010 910 82 0 310/07 RMK AO2
94908KDBQ DBQ20000313120509803/13/00 12:05:31  5-MIN KDBQ 131805Z 31010KT 5SM BR OVC014 04/02 A3010 910 85 -100 310/10 RMK AO2
94908KDBQ DBQ20000313121010203/13/00 12:10:31  5-MIN KDBQ 131810Z 30010KT 6SM HZ BKN014 OVC050 05/02 A3010 910 79 0 290/10 RMK AO2
94908KDBQ DBQ20000313121510203/13/00 12:15:31  5-MIN KDBQ 131815Z 32010KT 6SM HZ BKN014 OVC050 05/02 A3010 910 79 0 320/10 RMK AO2
94908KDBQ DBQ20000313122010203/13/00 12:20:31  5-MIN KDBQ 131820Z 32010KT 6SM HZ BKN014 OVC019 05/02 A3010 910 79 0 320/10 RMK AO2
94908KDBQ DBQ20000313122509803/13/00 12:25:31  5-MIN KDBQ 131825Z 32011KT 5SM HZ OVC016 04/02 A3010 910 82 -100 320/11 RMK AO2
94908KDBQ DBQ20000313123009503/13/00 12:30:31  5-MIN KDBQ 131830Z 33010KT 5SM HZ OVC016 05/02 A3010 910 79 0 330/10 RMK AO2
94908KDBQ DBQ20000313123509503/13/00 12:35:31  5-MIN KDBQ 131835Z 31012KT 4SM HZ OVC016 05/02 A3010 910 79 0 310/12 RMK AO2
94908KDBQ DBQ20000313124009803/13/00 12:40:31  5-MIN KDBQ 131840Z 32010KT 4SM HZ OVC016 04/01 A3010 910 79 -100 310/10 RMK AO2
94908KDBQ DBQ20000313124509803/13/00 12:45:31  5-MIN KDBQ 131845Z 31010KT 4SM HZ OVC016 04/02 A3010 910 82 -100 310/10 RMK AO2
94908KDBQ DBQ20000313125011503/13/00 12:50:31  5-MIN KDBQ 131850Z 32009KT 4SM HZ OVC016 04/02 A3010 910 82 -100 320/09 RMK AO2 SLP201 T00440017
94908KDBQ DBQ20000313125511503/13/00 12:55:31  5-MIN KDBQ 131855Z 33009KT 4SM HZ OVC016 04/02 A3010 910 82 -100 330/09 RMK AO2 SLP201 T00440017
94908KDBQ DBQ20000313130009803/13/00 13:00:31  5-MIN KDBQ 131900Z 32009KT 4SM HZ OVC016 04/02 A3010 910 82 -100 320/09 RMK AO2
94908KDBQ DBQ20000313130509503/13/00 13:05:31  5-MIN KDBQ 131905Z 33009KT 4SM HZ OVC016 04/01 A3010 920 79 0 330/09 RMK AO2
94908KDBQ DBQ20000313131009503/13/00 13:10:31  5-MIN KDBQ 131910Z 33009KT 4SM HZ OVC016 04/02 A3009 920 82 0 330/09 RMK AO2
94908KDBQ DBQ20000313131509503/13/00 13:15:31  5-MIN KDBQ 131915Z 32010KT 4SM HZ OVC016 04/02 A3009 920 82 0 320/10 RMK AO2
94908KDBQ DBQ20000313132009503/13/00 13:20:31  5-MIN KDBQ 131920Z 32008KT 4SM HZ OVC016 04/01 A3009 920 79 0 320/08 RMK AO2
94908KDBQ DBQ20000313132509503/13/00 13:25:31  5-MIN KDBQ 131925Z 32007KT 4SM HZ OVC016 04/02 A3009 920 82 0 320/07 RMK AO2
94908KDBQ DBQ20000313133009503/13/00 13:30:31  5-MIN KDBQ 131930Z 32007KT 5SM HZ OVC014 04/02 A3009 920 82 0 320/07 RMK AO2
94908KDBQ DBQ20000313133509503/13/00 13:35:31  5-MIN KDBQ 131935Z 33008KT 5SM HZ OVC014 04/02 A3009 920 82 0 330/08 RMK AO2
94908KDBQ DBQ20000313134009503/13/00 13:40:31  5-MIN KDBQ 131940Z 32008KT 5SM HZ OVC014 04/02 A3009 920 82 0 320/08 RMK AO2
94908KDBQ DBQ20000313134509503/13/00 13:45:31  5-MIN KDBQ 131945Z 33006KT 5SM HZ OVC014 04/02 A3009 920 82 0 330/06 RMK AO2
94908KDBQ DBQ20000313135011203/13/00 13:50:31  5-MIN KDBQ 131950Z 32007KT 5SM HZ OVC014 04/02 A3009 920 82 0 320/07 RMK AO2 SLP198 T00440017
94908KDBQ DBQ20000313135511203/13/00 13:55:31  5-MIN KDBQ 131955Z 30007KT 6SM HZ OVC014 05/02 A3009 920 79 0 300/07 RMK AO2 SLP197 T00500017
94908KDBQ DBQ20000313140009503/13/00 14:00:31  5-MIN KDBQ 132000Z 31009KT 6SM HZ OVC014 05/02 A3009 920 79 0 310/09 RMK AO2
94908KDBQ DBQ20000313140509503/13/00 14:05:31  5-MIN KDBQ 132005Z 31009KT 6SM HZ OVC014 04/01 A3009 920 79 0 310/09 RMK AO2
94908KDBQ DBQ20000313141009203/13/00 14:10:31  5-MIN KDBQ 132010Z 30006KT 7SM OVC014 05/02 A3009 920 79 0 300/06 RMK AO2
94908KDBQ DBQ20000313141509203/13/00 14:15:31  5-MIN KDBQ 132015Z 33004KT 7SM OVC014 05/02 A3009 920 79 0 330/04 RMK AO2
94908KDBQ DBQ20000313142009203/13/00 14:20:31  5-MIN KDBQ 132020Z 28009KT 7SM OVC014 05/01 A3010 920 76 0 280/09 RMK AO2
94908KDBQ DBQ20000313142509203/13/00 14:25:31  5-MIN KDBQ 132025Z 27013KT 7SM OVC014 05/02 A3010 910 79 0 270/13 RMK AO2
94908KDBQ DBQ20000313143009203/13/00 14:30:31  5-MIN KDBQ 132030Z 28013KT 8SM OVC014 05/01 A3010 910 76 0 270/13 RMK AO2
94908KDBQ DBQ20000313143509903/13/00 14:35:31  5-MIN KDBQ 132035Z 28012KT 8SM BKN020 OVC027 05/01 A3010 910 76 0 280/12 RMK AO2
94908KDBQ DBQ20000313144009203/13/00 14:40:31  5-MIN KDBQ 132040Z 29012KT 8SM OVC022 05/01 A3010 910 73 0 290/12 RMK AO2
94908KDBQ DBQ20000313144509903/13/00 14:45:31  5-MIN KDBQ 132045Z 27008KT 7SM BKN020 OVC026 05/01 A3010 920 73 0 270/08 RMK AO2
94908KDBQ DBQ20000313145012203/13/00 14:50:31  5-MIN KDBQ 132050Z 28009KT 7SM BKN020 OVC026 05/01 A3009 920 73 0 280/09 RMK AO2 SLP200 T00500006 50002
94908KDBQ DBQ20000313145511503/13/00 14:55:31  5-MIN KDBQ 132055Z 28010KT 7SM OVC023 05/01 A3009 920 73 0 280/10 RMK AO2 SLP200 T00500006 55003
94908KDBQ DBQ20000313150009203/13/00 15:00:31  5-MIN KDBQ 132100Z 29008KT 7SM OVC023 05/01 A3009 920 73 0 280/08 RMK AO2
94908KDBQ DBQ20000313150509203/13/00 15:05:31  5-MIN KDBQ 132105Z 27007KT 7SM OVC023 05/01 A3009 920 73 0 270/07 RMK AO2
94908KDBQ DBQ20000313151009203/13/00 15:10:31  5-MIN KDBQ 132110Z 30007KT 7SM OVC023 05/01 A3009 920 73 0 300/07 RMK AO2
94908KDBQ DBQ20000313151509203/13/00 15:15:31  5-MIN KDBQ 132115Z 28008KT 7SM OVC023 06/01 A3009 920 70 0 270/08 RMK AO2
94908KDBQ DBQ20000313152009903/13/00 15:20:31  5-MIN KDBQ 132120Z 27008KT 8SM BKN021 OVC026 06/01 A3009 920 70 0 270/08 RMK AO2
94908KDBQ DBQ20000313152509903/13/00 15:25:31  5-MIN KDBQ 132125Z 31007KT 7SM BKN021 OVC026 06/01 A3009 920 70 0 300/07 RMK AO2
94908KDBQ DBQ20000313153009403/13/00 15:30:31  5-MIN KDBQ 132130Z 32008KT 7SM OVC023 06/01 A3009 920 67 100 320/08 RMK AO2
94908KDBQ DBQ20000313153509403/13/00 15:35:31  5-MIN KDBQ 132135Z 26012KT 8SM OVC021 06/01 A3009 920 67 100 260/12 RMK AO2
94908KDBQ DBQ20000313154009403/13/00 15:40:31  5-MIN KDBQ 132140Z 25011KT 8SM OVC021 06/00 A3009 920 65 100 250/11 RMK AO2
94908KDBQ DBQ20000313154510103/13/00 15:45:31  5-MIN KDBQ 132145Z 25009KT 8SM BKN021 BKN028 06/01 A3009 920 67 100 250/09 RMK AO2
94908KDBQ DBQ20000313155010903/13/00 15:50:31  5-MIN KDBQ 132150Z 25009KT 8SM BKN023 06/00 A3009 920 67 0 250/09 RMK AO2 SLP199 T00560000
94908KDBQ DBQ20000313155510903/13/00 15:55:31  5-MIN KDBQ 132155Z 24008KT 8SM BKN023 06/00 A3009 920 67 0 240/08 RMK AO2 SLP200 T00560000
94908KDBQ DBQ20000313160009903/13/00 16:00:31  5-MIN KDBQ 132200Z 23007KT 8SM BKN026 BKN032 05/00 A3009 920 70 0 230/07 RMK AO2
94908KDBQ DBQ20000313160509903/13/00 16:05:31  5-MIN KDBQ 132205Z 24007KT 8SM BKN024 BKN030 06/00 A3009 920 67 0 240/07 RMK AO2
94908KDBQ DBQ20000313161009903/13/00 16:10:31  5-MIN KDBQ 132210Z 25007KT 8SM BKN024 BKN030 06/00 A3009 920 67 0 250/07 RMK AO2
94908KDBQ DBQ20000313161509903/13/00 16:15:31  5-MIN KDBQ 132215Z 25007KT 8SM BKN024 BKN030 06/00 A3009 920 67 0 250/07 RMK AO2
94908KDBQ DBQ20000313162009903/13/00 16:20:31  5-MIN KDBQ 132220Z 25008KT 8SM BKN024 BKN030 05/00 A3009 920 70 0 250/08 RMK AO2
94908KDBQ DBQ20000313162509203/13/00 16:25:31  5-MIN KDBQ 132225Z 25007KT 8SM BKN034 06/00 A3009 920 67 0 250/07 RMK AO2
94908KDBQ DBQ20000313163009203/13/00 16:30:31  5-MIN KDBQ 132230Z 25008KT 8SM BKN034 06/00 A3009 920 67 0 240/08 RMK AO2
94908KDBQ DBQ20000313163509403/13/00 16:35:31  5-MIN KDBQ 132235Z 25007KT 8SM BKN034 06/00 A3009 930 65 100 240/07 RMK AO2
94908KDBQ DBQ20000313164009403/13/00 16:40:31  5-MIN KDBQ 132240Z 24007KT 8SM SCT034 06/00 A3009 930 65 100 240/07 RMK AO2
94908KDBQ DBQ20000313164509403/13/00 16:45:31  5-MIN KDBQ 132245Z 25007KT 8SM SCT034 06/00 A3009 920 65 100 250/07 RMK AO2
94908KDBQ DBQ20000313165010903/13/00 16:50:31  5-MIN KDBQ 132250Z 24006KT 8SM FEW034 06/00 A3009 930 67 0 240/06 RMK AO2 SLP197 T00560000
94908KDBQ DBQ20000313165510903/13/00 16:55:31  5-MIN KDBQ 132255Z 24006KT 8SM FEW034 06/00 A3009 920 67 0 240/06 RMK AO2 SLP198 T00560000
94908KDBQ DBQ20000313170009203/13/00 17:00:31  5-MIN KDBQ 132300Z 24006KT 8SM FEW034 06/00 A3009 920 67 0 240/06 RMK AO2
94908KDBQ DBQ20000313170509203/13/00 17:05:31  5-MIN KDBQ 132305Z 23005KT 8SM FEW034 06/01 A3009 920 70 0 230/05 RMK AO2
94908KDBQ DBQ20000313171009203/13/00 17:10:31  5-MIN KDBQ 132310Z 24004KT 8SM FEW034 06/01 A3009 920 70 0 230/04 RMK AO2
94908KDBQ DBQ20000313171509203/13/00 17:15:31  5-MIN KDBQ 132315Z 23004KT 8SM FEW034 06/01 A3009 920 70 0 230/04 RMK AO2
94908KDBQ DBQ20000313172009203/13/00 17:20:31  5-MIN KDBQ 132320Z 23003KT 8SM FEW034 06/01 A3009 920 70 0 230/03 RMK AO2
94908KDBQ DBQ20000313172509203/13/00 17:25:31  5-MIN KDBQ 132325Z 22005KT 8SM SCT034 06/01 A3009 920 70 0 220/05 RMK AO2
94908KDBQ DBQ20000313173009203/13/00 17:30:31  5-MIN KDBQ 132330Z 22005KT 8SM SCT034 06/01 A3009 920 70 0 220/05 RMK AO2
94908KDBQ DBQ20000313173509203/13/00 17:35:31  5-MIN KDBQ 132335Z 26006KT 9SM SCT034 06/01 A3009 920 70 0 250/06 RMK AO2
94908KDBQ DBQ20000313174009303/13/00 17:40:31  5-MIN KDBQ 132340Z 26006KT 9SM FEW034 06/M01 A3010 920 65 0 260/06 RMK AO2
94908KDBQ DBQ20000313174509403/13/00 17:45:31  5-MIN KDBQ 132345Z 26008KT 10SM FEW034 05/M01 A3010 910 67 0 250/08 RMK AO2
94908KDBQ DBQ20000313175012903/13/00 17:50:31  5-MIN KDBQ 132350Z 26009KT 10SM FEW034 05/M01 A3010 910 67 0 260/09 RMK AO2 SLP202 T00501006 10061 20039 55003
94908KDBQ DBQ20000313175512903/13/00 17:55:31  5-MIN KDBQ 132355Z 26008KT 10SM FEW034 05/M01 A3010 910 67 0 260/08 RMK AO2 SLP202 T00501006 10061 20039 53002
94908KDBQ DBQ20000313180009403/13/00 18:00:31  5-MIN KDBQ 140000Z 27008KT 10SM CLR 04/M01 A3010 910 70 -100 260/08 RMK AO2
94908KDBQ DBQ20000313180509403/13/00 18:05:31  5-MIN KDBQ 140005Z 27007KT 10SM CLR 04/M01 A3010 910 73 -100 260/07 RMK AO2
94908KDBQ DBQ20000313181009403/13/00 18:10:31  5-MIN KDBQ 140010Z 26006KT 10SM CLR 04/M01 A3010 910 73 -100 260/06 RMK AO2
94908KDBQ DBQ20000313181509403/13/00 18:15:31  5-MIN KDBQ 140015Z 26007KT 10SM CLR 03/M01 A3010 910 76 -200 260/07 RMK AO2
94908KDBQ DBQ20000313182009403/13/00 18:20:31  5-MIN KDBQ 140020Z 26007KT 10SM CLR 03/M01 A3010 910 72 -200 260/07 RMK AO2
94908KDBQ DBQ20000313182509403/13/00 18:25:31  5-MIN KDBQ 140025Z 26006KT 10SM CLR 03/M01 A3010 910 72 -200 260/06 RMK AO2
94908KDBQ DBQ20000313183009403/13/00 18:30:31  5-MIN KDBQ 140030Z 26006KT 10SM CLR 03/M01 A3011 910 75 -300 260/06 RMK AO2
94908KDBQ DBQ20000313183509403/13/00 18:35:31  5-MIN KDBQ 140035Z 26005KT 10SM CLR 03/M01 A3011 910 75 -300 260/05 RMK AO2
94908KDBQ DBQ20000313184009403/13/00 18:40:31  5-MIN KDBQ 140040Z 25004KT 10SM CLR 02/M01 A3011 910 78 -300 250/04 RMK AO2
94908KDBQ DBQ20000313184509403/13/00 18:45:31  5-MIN KDBQ 140045Z 23003KT 10SM CLR 02/M01 A3010 910 78 -300 230/03 RMK AO2
94908KDBQ DBQ20000313185011103/13/00 18:50:31  5-MIN KDBQ 140050Z 00000KT 10SM CLR 03/M01 A3011 910 75 -300 000/00 RMK AO2 SLP205 T00281011
94908KDBQ DBQ20000313185511103/13/00 18:55:31  5-MIN KDBQ 140055Z 00000KT 10SM CLR 03/M01 A3011 910 75 -300 000/00 RMK AO2 SLP205 T00281011
94908KDBQ DBQ20000313190009403/13/00 19:00:31  5-MIN KDBQ 140100Z 00000KT 10SM CLR 03/M01 A3011 900 75 -300 000/00 RMK AO2
94908KDBQ DBQ20000313190509403/13/00 19:05:31  5-MIN KDBQ 140105Z 00000KT 10SM CLR 03/M01 A3011 900 75 -300 000/00 RMK AO2
94908KDBQ DBQ20000313191009403/13/00 19:10:31  5-MIN KDBQ 140110Z 00000KT 10SM CLR 03/M01 A3011 900 75 -300 000/00 RMK AO2
94908KDBQ DBQ20000313191509403/13/00 19:15:31  5-MIN KDBQ 140115Z 00000KT 10SM CLR 03/M01 A3011 900 75 -300 000/00 RMK AO2
94908KDBQ DBQ20000313192009403/13/00 19:20:31  5-MIN KDBQ 140120Z 00000KT 10SM CLR 03/M01 A3011 900 75 -300 000/00 RMK AO2
94908KDBQ DBQ20000313192509403/13/00 19:25:31  5-MIN KDBQ 140125Z 00000KT 10SM CLR 02/M01 A3011 900 78 -300 000/00 RMK AO2
94908KDBQ DBQ20000313193009403/13/00 19:30:31  5-MIN KDBQ 140130Z 00000KT 10SM CLR 02/M01 A3012 900 78 -300 000/00 RMK AO2
94908KDBQ DBQ20000313193509403/13/00 19:35:31  5-MIN KDBQ 140135Z 00000KT 10SM CLR 02/M02 A3012 900 75 -300 000/00 RMK AO2
94908KDBQ DBQ20000313194009403/13/00 19:40:31  5-MIN KDBQ 140140Z 00000KT 10SM CLR 03/M01 A3012 900 75 -300 000/00 RMK AO2
94908KDBQ DBQ20000313194509403/13/00 19:45:31  5-MIN KDBQ 140145Z 00000KT 10SM CLR 02/M02 A3012 900 78 -400 000/00 RMK AO2
94908KDBQ DBQ20000313195011103/13/00 19:50:31  5-MIN KDBQ 140150Z 00000KT 10SM CLR 02/M02 A3012 900 75 -300 000/00 RMK AO2 SLP209 T00221017
94908KDBQ DBQ20000313195512103/13/00 19:55:31  5-MIN KDBQ 140155Z AUTO 00000KT 10SM CLR 02/M02 A3012 900 75 -400 000/00 RMK AO2 SLP209 T00171022 TSNO
94908KDBQ DBQ20000313200010403/13/00 20:00:31  5-MIN KDBQ 140200Z AUTO 00000KT 10SM CLR 02/M02 A3012 900 75 -300 000/00 RMK AO2 TSNO
94908KDBQ DBQ20000313200510403/13/00 20:05:31  5-MIN KDBQ 140205Z AUTO 00000KT 10SM CLR 02/M02 A3012 900 78 -400 000/00 RMK AO2 TSNO
94908KDBQ DBQ20000313201010403/13/00 20:10:31  5-MIN KDBQ 140210Z AUTO 00000KT 10SM CLR 02/M02 A3012 900 78 -400 000/00 RMK AO2 TSNO
94908KDBQ DBQ20000313201510403/13/00 20:15:31  5-MIN KDBQ 140215Z AUTO 00000KT 10SM CLR 02/M02 A3012 890 75 -400 000/00 RMK AO2 TSNO
94908KDBQ DBQ20000313202010403/13/00 20:20:31  5-MIN KDBQ 140220Z AUTO 00000KT 10SM CLR 01/M02 A3012 890 78 -500 000/00 RMK AO2 TSNO
94908KDBQ DBQ20000313202510403/13/00 20:25:31  5-MIN KDBQ 140225Z AUTO 00000KT 10SM CLR 02/M02 A3012 890 75 -400 000/00 RMK AO2 TSNO
94908KDBQ DBQ20000313203010403/13/00 20:30:31  5-MIN KDBQ 140230Z AUTO 00000KT 10SM CLR 02/M02 A3012 890 75 -400 000/00 RMK AO2 TSNO
94908KDBQ DBQ20000313203510403/13/00 20:35:31  5-MIN KDBQ 140235Z AUTO 00000KT 10SM CLR 02/M02 A3012 890 75 -400 000/00 RMK AO2 TSNO
94908KDBQ DBQ20000313204010403/13/00 20:40:31  5-MIN KDBQ 140240Z AUTO 00000KT 10SM CLR 02/M02 A3012 890 72 -400 000/00 RMK AO2 TSNO
94908KDBQ DBQ20000313204510403/13/00 20:45:31  5-MIN KDBQ 140245Z AUTO 00000KT 10SM CLR 02/M02 A3012 890 72 -400 000/00 RMK AO2 TSNO
94908KDBQ DBQ20000313205012703/13/00 20:50:31  5-MIN KDBQ 140250Z AUTO 00000KT 10SM CLR 02/M02 A3012 890 75 -400 000/00 RMK AO2 SLP210 T00171022 53002 TSNO
94908KDBQ DBQ20000313205512703/13/00 20:55:31  5-MIN KDBQ 140255Z AUTO 00000KT 10SM CLR 01/M02 A3012 890 78 -500 000/00 RMK AO2 SLP211 T00111022 51007 TSNO
94908KDBQ DBQ20000313210010403/13/00 21:00:31  5-MIN KDBQ 140300Z AUTO 16003KT 10SM CLR 01/M02 A3012 890 82 -600 160/03 RMK AO2 TSNO
94908KDBQ DBQ20000313210510403/13/00 21:05:31  5-MIN KDBQ 140305Z AUTO 16003KT 10SM CLR 01/M02 A3012 890 78 -500 160/03 RMK AO2 TSNO
94908KDBQ DBQ20000313211010403/13/00 21:10:31  5-MIN KDBQ 140310Z AUTO 16004KT 10SM CLR 02/M02 A3012 890 75 -400 160/04 RMK AO2 TSNO
94908KDBQ DBQ20000313211510403/13/00 21:15:31  5-MIN KDBQ 140315Z AUTO 16003KT 10SM CLR 01/M02 A3012 890 82 -600 160/03 RMK AO2 TSNO
94908KDBQ DBQ20000313212010403/13/00 21:20:31  5-MIN KDBQ 140320Z AUTO 16003KT 10SM CLR 01/M02 A3012 890 82 -600 160/03 RMK AO2 TSNO
94908KDBQ DBQ20000313212510403/13/00 21:25:31  5-MIN KDBQ 140325Z AUTO 16003KT 10SM CLR 01/M03 A3012 890 78 -600 160/03 RMK AO2 TSNO
94908KDBQ DBQ20000313213010403/13/00 21:30:31  5-MIN KDBQ 140330Z AUTO 16004KT 10SM CLR 01/M03 A3012 890 78 -600 160/04 RMK AO2 TSNO
94908KDBQ DBQ20000313213510403/13/00 21:35:31  5-MIN KDBQ 140335Z AUTO 16004KT 10SM CLR 01/M02 A3012 890 82 -600 160/04 RMK AO2 TSNO
94908KDBQ DBQ20000313214010303/13/00 21:40:31  5-MIN KDBQ 140340Z AUTO 16005KT 9SM CLR 01/M02 A3012 890 82 -600 160/05 RMK AO2 TSNO
94908KDBQ DBQ20000313214510303/13/00 21:45:31  5-MIN KDBQ 140345Z AUTO 16004KT 9SM CLR 01/M02 A3012 890 82 -600 160/04 RMK AO2 TSNO
94908KDBQ DBQ20000313215012003/13/00 21:50:31  5-MIN KDBQ 140350Z AUTO 16004KT 9SM CLR 01/M02 A3012 890 82 -600 160/04 RMK AO2 SLP210 T00061022 TSNO
94908KDBQ DBQ20000313215512003/13/00 21:55:31  5-MIN KDBQ 140355Z AUTO 16005KT 9SM CLR 01/M02 A3012 890 82 -600 160/05 RMK AO2 SLP210 T00061022 TSNO
94908KDBQ DBQ20000313220010303/13/00 22:00:31  5-MIN KDBQ 140400Z AUTO 16005KT 9SM CLR 00/M02 A3012 900 85 -600 160/05 RMK AO2 TSNO
94908KDBQ DBQ20000313220510303/13/00 22:05:31  5-MIN KDBQ 140405Z AUTO 16005KT 8SM CLR 01/M02 A3012 900 82 -600 160/05 RMK AO2 TSNO
94908KDBQ DBQ20000313221010303/13/00 22:10:31  5-MIN KDBQ 140410Z AUTO 17004KT 8SM CLR 00/M02 A3012 900 85 -600 160/04 RMK AO2 TSNO
94908KDBQ DBQ20000313221510303/13/00 22:15:31  5-MIN KDBQ 140415Z AUTO 17004KT 8SM CLR 00/M02 A3012 900 85 -600 170/04 RMK AO2 TSNO
94908KDBQ DBQ20000313222010303/13/00 22:20:31  5-MIN KDBQ 140420Z AUTO 18004KT 8SM CLR 00/M02 A3012 900 85 -600 180/04 RMK AO2 TSNO
94908KDBQ DBQ20000313222510303/13/00 22:25:31  5-MIN KDBQ 140425Z AUTO 19004KT 8SM CLR 00/M02 A3012 900 88 -600 190/04 RMK AO2 TSNO
94908KDBQ DBQ20000313223010403/13/00 22:30:31  5-MIN KDBQ 140430Z AUTO 19003KT 8SM CLR M01/M02 A3012 890 92 -700 190/03 RMK AO2 TSNO
94908KDBQ DBQ20000313223510403/13/00 22:35:31  5-MIN KDBQ 140435Z AUTO 19003KT 8SM CLR M01/M02 A3012 890 92 -700 190/03 RMK AO2 TSNO
94908KDBQ DBQ20000313224010403/13/00 22:40:31  5-MIN KDBQ 140440Z AUTO 19004KT 8SM CLR M01/M03 A3012 900 88 -800 180/04 RMK AO2 TSNO
94908KDBQ DBQ20000313224510403/13/00 22:45:31  5-MIN KDBQ 140445Z AUTO 19005KT 7SM CLR M01/M03 A3012 900 88 -800 190/05 RMK AO2 TSNO
94908KDBQ DBQ20000313225012103/13/00 22:50:31  5-MIN KDBQ 140450Z AUTO 19004KT 7SM CLR M01/M03 A3012 900 88 -800 190/04 RMK AO2 SLP210 T10111028 TSNO
94908KDBQ DBQ20000313225512103/13/00 22:55:31  5-MIN KDBQ 140455Z AUTO 19004KT 7SM CLR M02/M03 A3012 900 88 -800 190/04 RMK AO2 SLP210 T10171033 TSNO
94908KDBQ DBQ20000313230010403/13/00 23:00:31  5-MIN KDBQ 140500Z AUTO 19004KT 7SM CLR M02/M03 A3011 900 88 -800 190/04 RMK AO2 TSNO
94908KDBQ DBQ20000313230510403/13/00 23:05:31  5-MIN KDBQ 140505Z AUTO 19004KT 8SM CLR M01/M03 A3011 900 88 -800 190/04 RMK AO2 TSNO
94908KDBQ DBQ20000313231010403/13/00 23:10:31  5-MIN KDBQ 140510Z AUTO 19005KT 8SM CLR M01/M03 A3011 900 88 -800 180/05 RMK AO2 TSNO
94908KDBQ DBQ20000313231510403/13/00 23:15:31  5-MIN KDBQ 140515Z AUTO 18004KT 8SM CLR M01/M03 A3011 900 88 -800 180/04 RMK AO2 TSNO
94908KDBQ DBQ20000313232010403/13/00 23:20:31  5-MIN KDBQ 140520Z AUTO 18004KT 8SM CLR M01/M03 A3011 900 85 -700 180/04 RMK AO2 TSNO
94908KDBQ DBQ20000313232510403/13/00 23:25:31  5-MIN KDBQ 140525Z AUTO 21003KT 8SM CLR M01/M03 A3011 900 85 -700 210/03 RMK AO2 TSNO
94908KDBQ DBQ20000313233010403/13/00 23:30:31  5-MIN KDBQ 140530Z AUTO 19004KT 8SM CLR M01/M03 A3011 900 88 -800 190/04 RMK AO2 TSNO
94908KDBQ DBQ20000313233510403/13/00 23:35:31  5-MIN KDBQ 140535Z AUTO 18005KT 8SM CLR M02/M03 A3011 910 88 -800 180/05 RMK AO2 TSNO
94908KDBQ DBQ20000313234010403/13/00 23:40:31  5-MIN KDBQ 140540Z AUTO 18005KT 8SM CLR M01/M03 A3010 910 88 -700 180/05 RMK AO2 TSNO
94908KDBQ DBQ20000313234510403/13/00 23:45:31  5-MIN KDBQ 140545Z AUTO 18006KT 8SM CLR M01/M03 A3010 910 88 -800 180/06 RMK AO2 TSNO
94908KDBQ DBQ20000313235014903/13/00 23:50:31  5-MIN KDBQ 140550Z AUTO 19007KT 8SM CLR M01/M03 A3010 910 88 -700 190/07 RMK AO2 SLP205 T10111028 10044 21017 400611017 51007 TSNO
94908KDBQ DBQ20000313235514903/13/00 23:55:31  5-MIN KDBQ 140555Z AUTO 20006KT 8SM CLR M01/M03 A3010 910 85 -700 190/06 RMK AO2 SLP204 T10061028 10044 21017 400611017 58006 TSNO
94908KDBQ DBQ20000314000010403/14/00 00:00:31  5-MIN KDBQ 140600Z AUTO 19007KT 8SM CLR M01/M03 A3010 910 85 -700 190/07 RMK AO2 TSNO
94908KDBQ DBQ20000314000510403/14/00 00:05:31  5-MIN KDBQ 140605Z AUTO 19006KT 8SM CLR M01/M03 A3010 910 85 -700 190/06 RMK AO2 TSNO
94908KDBQ DBQ20000314001010403/14/00 00:10:31  5-MIN KDBQ 140610Z AUTO 19006KT 8SM CLR M02/M03 A3010 910 88 -800 190/06 RMK AO2 TSNO
94908KDBQ DBQ20000314001510403/14/00 00:15:31  5-MIN KDBQ 140615Z AUTO 19006KT 8SM CLR M02/M03 A3010 910 88 -800 190/06 RMK AO2 TSNO
94908KDBQ DBQ20000314002010403/14/00 00:20:31  5-MIN KDBQ 140620Z AUTO 19007KT 8SM CLR M02/M03 A3010 910 88 -800 190/07 RMK AO2 TSNO
94908KDBQ DBQ20000314002510403/14/00 00:25:31  5-MIN KDBQ 140625Z AUTO 19007KT 8SM CLR M02/M03 A3010 910 88 -800 190/07 RMK AO2 TSNO
94908KDBQ DBQ20000314003010403/14/00 00:30:31  5-MIN KDBQ 140630Z AUTO 19007KT 8SM CLR M01/M03 A3010 910 85 -700 180/07 RMK AO2 TSNO
94908KDBQ DBQ20000314003510403/14/00 00:35:31  5-MIN KDBQ 140635Z AUTO 19007KT 8SM CLR M01/M03 A3010 910 85 -700 190/07 RMK AO2 TSNO
94908KDBQ DBQ20000314004010403/14/00 00:40:31  5-MIN KDBQ 140640Z AUTO 18006KT 8SM CLR M01/M03 A3010 910 88 -700 180/06 RMK AO2 TSNO
94908KDBQ DBQ20000314004510403/14/00 00:45:31  5-MIN KDBQ 140645Z AUTO 19006KT 8SM CLR M01/M03 A3010 910 85 -700 190/06 RMK AO2 TSNO
94908KDBQ DBQ20000314005012103/14/00 00:50:31  5-MIN KDBQ 140650Z AUTO 19006KT 7SM CLR M01/M03 A3010 910 88 -700 180/06 RMK AO2 SLP204 T10111028 TSNO
94908KDBQ DBQ20000314005512103/14/00 00:55:31  5-MIN KDBQ 140655Z AUTO 19006KT 7SM CLR M01/M03 A3010 910 88 -700 190/06 RMK AO2 SLP204 T10111028 TSNO
94908KDBQ DBQ20000314010010403/14/00 01:00:31  5-MIN KDBQ 140700Z AUTO 19006KT 7SM CLR M02/M03 A3010 910 88 -800 190/06 RMK AO2 TSNO
94908KDBQ DBQ20000314010510403/14/00 01:05:31  5-MIN KDBQ 140705Z AUTO 19007KT 7SM CLR M02/M03 A3010 910 88 -800 190/07 RMK AO2 TSNO
94908KDBQ DBQ20000314011010403/14/00 01:10:31  5-MIN KDBQ 140710Z AUTO 19006KT 7SM CLR M02/M03 A3010 910 88 -800 190/06 RMK AO2 TSNO
94908KDBQ DBQ20000314011510403/14/00 01:15:31  5-MIN KDBQ 140715Z AUTO 19007KT 7SM CLR M02/M03 A3010 910 88 -800 190/07 RMK AO2 TSNO
94908KDBQ DBQ20000314012010403/14/00 01:20:31  5-MIN KDBQ 140720Z AUTO 19006KT 7SM CLR M02/M03 A3010 910 88 -800 190/06 RMK AO2 TSNO
94908KDBQ DBQ20000314012510403/14/00 01:25:31  5-MIN KDBQ 140725Z AUTO 19007KT 7SM CLR M02/M04 A3011 910 88 -900 190/07 RMK AO2 TSNO
94908KDBQ DBQ20000314013010403/14/00 01:30:31  5-MIN KDBQ 140730Z AUTO 19006KT 7SM CLR M02/M04 A3011 910 85 -800 190/06 RMK AO2 TSNO
94908KDBQ DBQ20000314013510403/14/00 01:35:31  5-MIN KDBQ 140735Z AUTO 19006KT 7SM CLR M02/M03 A3011 910 88 -800 190/06 RMK AO2 TSNO
94908KDBQ DBQ20000314014010403/14/00 01:40:31  5-MIN KDBQ 140740Z AUTO 19006KT 7SM CLR M02/M04 A3011 910 88 -900 190/06 RMK AO2 TSNO
94908KDBQ DBQ20000314014510403/14/00 01:45:31  5-MIN KDBQ 140745Z AUTO 19006KT 7SM CLR M02/M04 A3011 910 88 -900 190/06 RMK AO2 TSNO
94908KDBQ DBQ20000314015012103/14/00 01:50:31  5-MIN KDBQ 140750Z AUTO 19006KT 7SM CLR M02/M04 A3011 910 88 -900 190/06 RMK AO2 SLP206 T10221039 TSNO
94908KDBQ DBQ20000314015512103/14/00 01:55:31  5-MIN KDBQ 140755Z AUTO 19006KT 7SM CLR M02/M04 A3011 910 88 -900 190/06 RMK AO2 SLP206 T10221039 TSNO
94908KDBQ DBQ20000314020010703/14/00 02:00:31  5-MIN KDBQ 140800Z AUTO 19006KT 6SM BR CLR M02/M04 A3010 910 88 -900 190/06 RMK AO2 TSNO
94908KDBQ DBQ20000314020510703/14/00 02:05:31  5-MIN KDBQ 140805Z AUTO 18005KT 6SM BR CLR M02/M04 A3010 910 88 -900 180/05 RMK AO2 TSNO
94908KDBQ DBQ20000314021010703/14/00 02:10:31  5-MIN KDBQ 140810Z AUTO 18005KT 6SM BR CLR M02/M04 A3010 910 88 -900 180/05 RMK AO2 TSNO
94908KDBQ DBQ20000314021510703/14/00 02:15:31  5-MIN KDBQ 140815Z AUTO 19006KT 6SM BR CLR M02/M04 A3010 910 85 -800 190/06 RMK AO2 TSNO
94908KDBQ DBQ20000314022010703/14/00 02:20:31  5-MIN KDBQ 140820Z AUTO 18006KT 6SM BR CLR M02/M04 A3010 910 88 -900 180/06 RMK AO2 TSNO
94908KDBQ DBQ20000314022510703/14/00 02:25:31  5-MIN KDBQ 140825Z AUTO 19006KT 6SM BR CLR M02/M04 A3010 910 88 -900 190/06 RMK AO2 TSNO
94908KDBQ DBQ20000314023010703/14/00 02:30:31  5-MIN KDBQ 140830Z AUTO 19007KT 6SM BR CLR M02/M04 A3010 920 88 -900 180/07 RMK AO2 TSNO
94908KDBQ DBQ20000314023510703/14/00 02:35:31  5-MIN KDBQ 140835Z AUTO 19006KT 6SM BR CLR M02/M04 A3010 920 85 -800 190/06 RMK AO2 TSNO
94908KDBQ DBQ20000314024010703/14/00 02:40:31  5-MIN KDBQ 140840Z AUTO 18006KT 6SM BR CLR M02/M04 A3009 920 85 -800 180/06 RMK AO2 TSNO
94908KDBQ DBQ20000314024510703/14/00 02:45:31  5-MIN KDBQ 140845Z AUTO 19006KT 6SM BR CLR M02/M04 A3010 920 88 -900 190/06 RMK AO2 TSNO
94908KDBQ DBQ20000314025013003/14/00 02:50:31  5-MIN KDBQ 140850Z AUTO 19006KT 6SM BR CLR M02/M04 A3009 920 88 -900 190/06 RMK AO2 SLP201 T10221039 58006 TSNO
94908KDBQ DBQ20000314025513003/14/00 02:55:31  5-MIN KDBQ 140855Z AUTO 19005KT 6SM BR CLR M02/M04 A3009 920 88 -900 190/05 RMK AO2 SLP201 T10221039 58003 TSNO
94908KDBQ DBQ20000314030010703/14/00 03:00:31  5-MIN KDBQ 140900Z AUTO 18005KT 6SM BR CLR M02/M04 A3009 920 88 -900 180/05 RMK AO2 TSNO
94908KDBQ DBQ20000314030510703/14/00 03:05:31  5-MIN KDBQ 140905Z AUTO 19005KT 6SM BR CLR M02/M04 A3009 920 88 -900 190/05 RMK AO2 TSNO
94908KDBQ DBQ20000314031010703/14/00 03:10:31  5-MIN KDBQ 140910Z AUTO 19005KT 6SM BR CLR M02/M04 A3009 920 88 -900 190/05 RMK AO2 TSNO
94908KDBQ DBQ20000314031510703/14/00 03:15:31  5-MIN KDBQ 140915Z AUTO 19005KT 6SM BR CLR M02/M04 A3009 920 88 -900 190/05 RMK AO2 TSNO
94908KDBQ DBQ20000314032010703/14/00 03:20:31  5-MIN KDBQ 140920Z AUTO 20005KT 6SM BR CLR M03/M04 A3009 920 88 -900 200/05 RMK AO2 TSNO
94908KDBQ DBQ20000314032510703/14/00 03:25:31  5-MIN KDBQ 140925Z AUTO 20005KT 6SM BR CLR M02/M04 A3009 920 88 -900 200/05 RMK AO2 TSNO
94908KDBQ DBQ20000314033010703/14/00 03:30:31  5-MIN KDBQ 140930Z AUTO 19005KT 6SM BR CLR M03/M04 A3009 920 88 -900 190/05 RMK AO2 TSNO
94908KDBQ DBQ20000314033510703/14/00 03:35:31  5-MIN KDBQ 140935Z AUTO 19005KT 6SM BR CLR M03/M04 A3009 920 88 -900 190/05 RMK AO2 TSNO
94908KDBQ DBQ20000314034010703/14/00 03:40:31  5-MIN KDBQ 140940Z AUTO 20005KT 6SM BR CLR M03/M04 A3009 920 88 -900 200/05 RMK AO2 TSNO
94908KDBQ DBQ20000314034510703/14/00 03:45:31  5-MIN KDBQ 140945Z AUTO 20006KT 6SM BR CLR M02/M04 A3009 920 88 -900 200/06 RMK AO2 TSNO
94908KDBQ DBQ20000314035012403/14/00 03:50:31  5-MIN KDBQ 140950Z AUTO 20006KT 6SM BR CLR M02/M04 A3009 920 88 -900 200/06 RMK AO2 SLP201 T10221039 TSNO
94908KDBQ DBQ20000314035512403/14/00 03:55:31  5-MIN KDBQ 140955Z AUTO 20006KT 6SM BR CLR M02/M04 A3009 920 88 -900 200/06 RMK AO2 SLP200 T10221039 TSNO
94908KDBQ DBQ20000314040010703/14/00 04:00:31  5-MIN KDBQ 141000Z AUTO 20006KT 6SM BR CLR M02/M04 A3009 920 88 -900 190/06 RMK AO2 TSNO
94908KDBQ DBQ20000314040510703/14/00 04:05:31  5-MIN KDBQ 141005Z AUTO 20006KT 6SM BR CLR M02/M04 A3009 920 88 -900 190/06 RMK AO2 TSNO
94908KDBQ DBQ20000314041010703/14/00 04:10:31  5-MIN KDBQ 141010Z AUTO 19006KT 6SM BR CLR M02/M04 A3009 920 88 -900 190/06 RMK AO2 TSNO
94908KDBQ DBQ20000314041510703/14/00 04:15:31  5-MIN KDBQ 141015Z AUTO 19006KT 6SM BR CLR M02/M04 A3009 920 88 -900 190/06 RMK AO2 TSNO
94908KDBQ DBQ20000314042010703/14/00 04:20:31  5-MIN KDBQ 141020Z AUTO 19006KT 6SM BR CLR M02/M04 A3009 920 85 -800 190/06 RMK AO2 TSNO
94908KDBQ DBQ20000314042510703/14/00 04:25:31  5-MIN KDBQ 141025Z AUTO 19006KT 6SM BR CLR M02/M04 A3009 920 85 -800 190/06 RMK AO2 TSNO
94908KDBQ DBQ20000314043010703/14/00 04:30:31  5-MIN KDBQ 141030Z AUTO 19006KT 6SM BR CLR M02/M04 A3009 920 85 -800 190/06 RMK AO2 TSNO
94908KDBQ DBQ20000314043510703/14/00 04:35:31  5-MIN KDBQ 141035Z AUTO 19005KT 6SM BR CLR M02/M04 A3009 920 88 -900 190/05 RMK AO2 TSNO
94908KDBQ DBQ20000314044010703/14/00 04:40:31  5-MIN KDBQ 141040Z AUTO 20005KT 6SM BR CLR M02/M04 A3009 920 88 -900 190/05 RMK AO2 TSNO
94908KDBQ DBQ20000314044510703/14/00 04:45:31  5-MIN KDBQ 141045Z AUTO 20006KT 6SM BR CLR M02/M04 A3009 920 88 -900 200/06 RMK AO2 TSNO
94908KDBQ DBQ20000314045012403/14/00 04:50:31  5-MIN KDBQ 141050Z AUTO 19005KT 6SM BR CLR M02/M04 A3009 920 88 -900 190/05 RMK AO2 SLP200 T10221039 TSNO
94908KDBQ DBQ20000314045512403/14/00 04:55:31  5-MIN KDBQ 141055Z AUTO 19006KT 6SM BR CLR M02/M04 A3009 930 88 -900 190/06 RMK AO2 SLP199 T10221039 TSNO
94908KDBQ DBQ20000314050011003/14/00 05:00:31  5-MIN KDBQ 141100Z AUTO 18006KT 6SM BR FEW110 M02/M04 A3009 930 88 -900 180/06 RMK AO2 TSNO
94908KDBQ DBQ20000314050511003/14/00 05:05:31  5-MIN KDBQ 141105Z AUTO 18006KT 6SM BR FEW110 M02/M04 A3009 920 88 -900 180/06 RMK AO2 TSNO
94908KDBQ DBQ20000314051011003/14/00 05:10:31  5-MIN KDBQ 141110Z AUTO 19005KT 6SM BR FEW110 M02/M04 A3009 920 88 -900 190/05 RMK AO2 TSNO
94908KDBQ DBQ20000314051511003/14/00 05:15:31  5-MIN KDBQ 141115Z AUTO 19005KT 6SM BR FEW110 M02/M03 A3009 920 88 -800 190/05 RMK AO2 TSNO
94908KDBQ DBQ20000314052011003/14/00 05:20:31  5-MIN KDBQ 141120Z AUTO 19005KT 6SM BR FEW110 M02/M04 A3009 920 85 -800 190/05 RMK AO2 TSNO
94908KDBQ DBQ20000314052511003/14/00 05:25:31  5-MIN KDBQ 141125Z AUTO 19004KT 6SM BR FEW110 M02/M04 A3010 920 88 -900 190/04 RMK AO2 TSNO
94908KDBQ DBQ20000314053010703/14/00 05:30:31  5-MIN KDBQ 141130Z AUTO 20004KT 6SM BR CLR M02/M04 A3010 920 88 -900 190/04 RMK AO2 TSNO
94908KDBQ DBQ20000314053510703/14/00 05:35:31  5-MIN KDBQ 141135Z AUTO 20004KT 6SM BR CLR M02/M04 A3010 910 88 -900 200/04 RMK AO2 TSNO
94908KDBQ DBQ20000314054010703/14/00 05:40:31  5-MIN KDBQ 141140Z AUTO 20005KT 6SM BR CLR M02/M04 A3010 910 88 -900 190/05 RMK AO2 TSNO
94908KDBQ DBQ20000314054510103/14/00 05:45:31  5-MIN KDBQ 141145Z 19005KT 6SM BR FEW120 M03/M04 A3010 910 88 -1000 190/05 RMK AO2
94908KDBQ DBQ20000314055013603/14/00 05:50:31  5-MIN KDBQ 141150Z 19005KT 5SM BR SCT120 M03/M04 A3010 920 92 -1000 190/05 RMK AO2 SLP202 T10281039 11006 21028 58003
94908KDBQ DBQ20000314055513603/14/00 05:55:31  5-MIN KDBQ 141155Z 19006KT 6SM BR BKN120 M03/M04 A3009 920 92 -1000 190/06 RMK AO2 SLP202 T10281039 11006 21028 53001
94908KDBQ DBQ20000314060010003/14/00 06:00:31  5-MIN KDBQ 141200Z 19006KT 6SM BR BKN120 M02/M04 A3010 920 88 -900 190/06 RMK AO2
94908KDBQ DBQ20000314060510003/14/00 06:05:31  5-MIN KDBQ 141205Z 19005KT 6SM BR BKN120 M02/M03 A3010 920 88 -800 190/05 RMK AO2
94908KDBQ DBQ20000314061010003/14/00 06:10:31  5-MIN KDBQ 141210Z 20005KT 6SM BR BKN120 M02/M03 A3010 910 88 -800 200/05 RMK AO2
94908KDBQ DBQ20000314061510003/14/00 06:15:31  5-MIN KDBQ 141215Z 20005KT 5SM BR BKN120 M02/M04 A3010 920 88 -900 200/05 RMK AO2
94908KDBQ DBQ20000314062010003/14/00 06:20:31  5-MIN KDBQ 141220Z 20005KT 4SM BR SCT120 M02/M04 A3010 910 88 -900 200/05 RMK AO2
94908KDBQ DBQ20000314062510103/14/00 06:25:31  5-MIN KDBQ 141225Z 20005KT 4SM BR SCT120 M03/M04 A3010 910 92 -1000 200/05 RMK AO2
94908KDBQ DBQ20000314063010103/14/00 06:30:31  5-MIN KDBQ 141230Z 20005KT 4SM BR FEW120 M03/M04 A3010 910 92 -1000 200/05 RMK AO2
94908KDBQ DBQ20000314063510103/14/00 06:35:31  5-MIN KDBQ 141235Z 19004KT 4SM BR FEW110 M03/M04 A3010 910 92 -1000 190/04 RMK AO2
94908KDBQ DBQ20000314064009803/14/00 06:40:31  5-MIN KDBQ 141240Z 19004KT 4SM BR CLR M03/M04 A3010 910 92 -1000 190/04 RMK AO2
94908KDBQ DBQ20000314064510103/14/00 06:45:31  5-MIN KDBQ 141245Z 19005KT 4SM BR FEW120 M03/M04 A3010 910 92 -1000 190/05 RMK AO2
94908KDBQ DBQ20000314065012503/14/00 06:50:31  5-MIN KDBQ 141250Z 19005KT 4SM BR FEW100 SCT120 M03/M04 A3010 910 92 -1000 190/05 RMK AO2 SLP205 T10281039
94908KDBQ DBQ20000314065511703/14/00 06:55:31  5-MIN KDBQ 141255Z 19005KT 4SM BR SCT100 M02/M04 A3010 910 88 -900 190/05 RMK AO2 SLP205 T10221039
94908KDBQ DBQ20000314070010703/14/00 07:00:31  5-MIN KDBQ 141300Z 19005KT 4SM BR SCT100 SCT120 M02/M03 A3010 910 88 -800 190/05 RMK AO2
94908KDBQ DBQ20000314070510703/14/00 07:05:31  5-MIN KDBQ 141305Z 19005KT 4SM BR SCT100 SCT120 M02/M03 A3010 910 92 -800 190/05 RMK AO2
94908KDBQ DBQ20000314071010003/14/00 07:10:31  5-MIN KDBQ 141310Z 19005KT 4SM BR SCT100 M01/M03 A3010 920 88 -700 180/05 RMK AO2
94908KDBQ DBQ20000314071510003/14/00 07:15:31  5-MIN KDBQ 141315Z 19006KT 5SM BR SCT100 M01/M02 A3010 910 92 -700 180/06 RMK AO2
94908KDBQ DBQ20000314072010003/14/00 07:20:31  5-MIN KDBQ 141320Z 20005KT 5SM BR FEW100 M01/M02 A3010 910 88 -700 190/05 RMK AO2
94908KDBQ DBQ20000314072510003/14/00 07:25:31  5-MIN KDBQ 141325Z 20006KT 5SM BR FEW100 M01/M02 A3010 910 88 -700 200/06 RMK AO2
94908KDBQ DBQ20000314073009703/14/00 07:30:31  5-MIN KDBQ 141330Z 20005KT 4SM BR CLR M01/M02 A3010 910 92 -700 190/05 RMK AO2
94908KDBQ DBQ20000314073509603/14/00 07:35:31  5-MIN KDBQ 141335Z 20005KT 4SM BR CLR 00/M02 A3010 910 88 -600 190/05 RMK AO2
94908KDBQ DBQ20000314074009603/14/00 07:40:31  5-MIN KDBQ 141340Z 20006KT 4SM BR CLR 00/M02 A3010 910 88 -600 200/06 RMK AO2
94908KDBQ DBQ20000314074509603/14/00 07:45:31  5-MIN KDBQ 141345Z 20006KT 5SM BR CLR 01/M01 A3010 910 89 -500 200/06 RMK AO2
94908KDBQ DBQ20000314075011603/14/00 07:50:31  5-MIN KDBQ 141350Z 21005KT 5SM BR FEW090 01/M01 A3010 910 89 -500 210/05 RMK AO2 SLP205 T00061011
94908KDBQ DBQ20000314075511603/14/00 07:55:31  5-MIN KDBQ 141355Z 21006KT 5SM BR SCT090 01/M01 A3010 910 89 -500 210/06 RMK AO2 SLP205 T00061011
94908KDBQ DBQ20000314080009903/14/00 08:00:31  5-MIN KDBQ 141400Z 21006KT 5SM BR FEW085 01/M01 A3010 910 89 -500 210/06 RMK AO2
94908KDBQ DBQ20000314080509903/14/00 08:05:31  5-MIN KDBQ 141405Z 21007KT 5SM BR FEW090 01/M01 A3010 910 89 -500 210/07 RMK AO2
94908KDBQ DBQ20000314081009903/14/00 08:10:31  5-MIN KDBQ 141410Z 20006KT 5SM BR SCT100 01/M01 A3010 910 89 -500 200/06 RMK AO2
94908KDBQ DBQ20000314081509903/14/00 08:15:31  5-MIN KDBQ 141415Z 21006KT 5SM BR BKN100 02/M01 A3010 910 85 -400 210/06 RMK AO2
94908KDBQ DBQ20000314082009803/14/00 08:20:31  5-MIN KDBQ 141420Z 21006KT 5SM BR BKN100 02/00 A3010 910 89 -400 210/06 RMK AO2
94908KDBQ DBQ20000314082509803/14/00 08:25:31  5-MIN KDBQ 141425Z 21005KT 5SM BR BKN100 02/00 A3010 910 85 -300 210/05 RMK AO2
94908KDBQ DBQ20000314083009803/14/00 08:30:31  5-MIN KDBQ 141430Z 21004KT 6SM BR OVC100 03/01 A3010 910 85 -300 210/04 RMK AO2
94908KDBQ DBQ20000314083509503/14/00 08:35:31  5-MIN KDBQ 141435Z 21004KT 8SM OVC100 03/01 A3009 920 82 -200 210/04 RMK AO2
94908KDBQ DBQ20000314084009503/14/00 08:40:31  5-MIN KDBQ 141440Z 22004KT 8SM BKN100 03/01 A3009 920 82 -200 220/04 RMK AO2
94908KDBQ DBQ20000314084509503/14/00 08:45:31  5-MIN KDBQ 141445Z 00000KT 8SM BKN095 04/01 A3009 920 79 -100 000/00 RMK AO2
94908KDBQ DBQ20000314085011503/14/00 08:50:31  5-MIN KDBQ 141450Z 22004KT 8SM BKN090 04/01 A3009 920 76 0 220/04 RMK AO2 SLP200 T00440006 53001
94908KDBQ DBQ20000314085511503/14/00 08:55:31  5-MIN KDBQ 141455Z 22005KT 8SM BKN090 05/01 A3010 920 73 0 220/05 RMK AO2 SLP201 T00500006 50000
94908KDBQ DBQ20000314090009203/14/00 09:00:31  5-MIN KDBQ 141500Z 22005KT 8SM BKN090 06/01 A3010 920 73 0 220/05 RMK AO2
94908KDBQ DBQ20000314090509203/14/00 09:05:31  5-MIN KDBQ 141505Z 21006KT 8SM BKN090 06/01 A3009 920 73 0 210/06 RMK AO2
94908KDBQ DBQ20000314091009203/14/00 09:10:31  5-MIN KDBQ 141510Z 21007KT 8SM BKN085 06/01 A3010 920 73 0 210/07 RMK AO2
94908KDBQ DBQ20000314091509403/14/00 09:15:31  5-MIN KDBQ 141515Z 22009KT 8SM OVC090 06/01 A3010 920 70 100 220/09 RMK AO2
94908KDBQ DBQ20000314092010203/14/00 09:20:31  5-MIN KDBQ 141520Z 22010KT 10SM BKN090 BKN110 07/01 A3010 910 65 200 220/10 RMK AO2
94908KDBQ DBQ20000314092510203/14/00 09:25:31  5-MIN KDBQ 141525Z 24013KT 10SM BKN090 BKN110 07/00 A3010 920 62 200 240/13 RMK AO2
94908KDBQ DBQ20000314093010203/14/00 09:30:31  5-MIN KDBQ 141530Z 24011KT 10SM BKN090 BKN110 07/00 A3010 920 62 200 240/11 RMK AO2
94908KDBQ DBQ20000314093510203/14/00 09:35:31  5-MIN KDBQ 141535Z 25011KT 10SM BKN090 BKN110 07/00 A3009 920 62 200 250/11 RMK AO2
94908KDBQ DBQ20000314094010203/14/00 09:40:31  5-MIN KDBQ 141540Z 24012KT 10SM BKN090 BKN110 07/00 A3009 920 60 200 230/12 RMK AO2
94908KDBQ DBQ20000314094510203/14/00 09:45:31  5-MIN KDBQ 141545Z 24012KT 10SM BKN090 BKN110 08/01 A3010 920 60 300 240/12 RMK AO2
94908KDBQ DBQ20000314095011203/14/00 09:50:31  5-MIN KDBQ 141550Z 24013KT 10SM BKN090 08/01 A3010 920 60 300 240/13 RMK AO2 SLP200 T00780006
94908KDBQ DBQ20000314095511203/14/00 09:55:31  5-MIN KDBQ 141555Z 24011KT 10SM BKN090 08/01 A3009 920 58 400 240/11 RMK AO2 SLP200 T00830006
94908KDBQ DBQ20000314100009503/14/00 10:00:31  5-MIN KDBQ 141600Z 24012KT 10SM BKN090 09/01 A3009 920 58 400 240/12 RMK AO2
94908KDBQ DBQ20000314100509503/14/00 10:05:31  5-MIN KDBQ 141605Z 22011KT 10SM BKN090 08/01 A3009 920 60 300 220/11 RMK AO2
94908KDBQ DBQ20000314101010203/14/00 10:10:31  5-MIN KDBQ 141610Z 22010KT 10SM SCT070 BKN090 07/01 A3009 920 62 200 220/10 RMK AO2
94908KDBQ DBQ20000314101510203/14/00 10:15:31  5-MIN KDBQ 141615Z 24011KT 10SM SCT070 BKN090 07/01 A3009 930 62 300 240/11 RMK AO2
94908KDBQ DBQ20000314102010903/14/00 10:20:31  5-MIN KDBQ 141620Z 23009KT 10SM SCT060 SCT075 BKN090 07/01 A3009 930 62 300 230/09 RMK AO2
94908KDBQ DBQ20000314102510903/14/00 10:25:31  5-MIN KDBQ 141625Z 26008KT 10SM SCT055 BKN075 BKN090 08/01 A3008 930 60 400 260/08 RMK AO2
94908KDBQ DBQ20000314103010903/14/00 10:30:31  5-MIN KDBQ 141630Z 24010KT 10SM BKN055 BKN075 OVC090 08/01 A3009 930 60 400 240/10 RMK AO2
94908KDBQ DBQ20000314103510903/14/00 10:35:31  5-MIN KDBQ 141635Z 24008KT 10SM BKN055 BKN065 BKN080 08/01 A3008 930 60 300 240/08 RMK AO2
94908KDBQ DBQ20000314104010903/14/00 10:40:31  5-MIN KDBQ 141640Z 26009KT 10SM FEW046 BKN055 BKN080 08/01 A3008 930 60 400 260/09 RMK AO2
94908KDBQ DBQ20000314104510203/14/00 10:45:31  5-MIN KDBQ 141645Z 24008KT 10SM FEW046 BKN060 08/01 A3008 930 60 300 240/08 RMK AO2
94908KDBQ DBQ20000314105011903/14/00 10:50:31  5-MIN KDBQ 141650Z 26006KT 10SM FEW044 BKN060 08/01 A3008 930 60 300 260/06 RMK AO2 SLP195 T00780006
94908KDBQ DBQ20000314105512603/14/00 10:55:31  5-MIN KDBQ 141655Z VRB06KT 10SM FEW044 BKN060 BKN090 08/01 A3008 930 60 400 VRB/06 RMK AO2 SLP194 T00830011
94908KDBQ DBQ20000314110010903/14/00 11:00:31  5-MIN KDBQ 141700Z VRB05KT 10SM FEW044 SCT060 BKN090 09/01 A3007 940 58 500 VRB/05 RMK AO2
94908KDBQ DBQ20000314110509403/14/00 11:05:31  5-MIN KDBQ 141705Z 23007KT 8SM FEW060 09/02 A3007 940 58 500 230/07 RMK AO2
94908KDBQ DBQ20000314111009703/14/00 11:10:31  5-MIN KDBQ 141710Z 23010KT 4SM HZ FEW065 10/02 A3008 940 56 600 230/10 RMK AO2
94908KDBQ DBQ20000314111509703/14/00 11:15:31  5-MIN KDBQ 141715Z 24009KT 4SM HZ FEW065 09/02 A3008 930 58 500 240/09 RMK AO2
94908KDBQ DBQ20000314112009403/14/00 11:20:31  5-MIN KDBQ 141720Z 24010KT 8SM FEW070 10/02 A3008 940 56 600 240/10 RMK AO2
94908KDBQ DBQ20000314112509403/14/00 11:25:31  5-MIN KDBQ 141725Z 24008KT 8SM SCT075 10/02 A3007 940 56 600 230/08 RMK AO2
94908KDBQ DBQ20000314113010103/14/00 11:30:31  5-MIN KDBQ 141730Z 20009KT 8SM FEW055 BKN070 09/02 A3007 940 58 500 200/09 RMK AO2
94908KDBQ DBQ20000314113510103/14/00 11:35:31  5-MIN KDBQ 141735Z 22008KT 8SM SCT060 BKN075 09/02 A3007 940 58 500 220/08 RMK AO2
94908KDBQ DBQ20000314114010103/14/00 11:40:31  5-MIN KDBQ 141740Z 23009KT 9SM BKN060 BKN070 09/02 A3006 950 58 500 230/09 RMK AO2
94908KDBQ DBQ20000314114510203/14/00 11:45:31  5-MIN KDBQ 141745Z 20011KT 10SM BKN060 BKN075 09/02 A3006 950 58 500 200/11 RMK AO2
94908KDBQ DBQ20000314115013703/14/00 11:50:31  5-MIN KDBQ 141750Z 22011KT 10SM BKN060 BKN075 09/02 A3006 950 60 500 220/11 RMK AO2 SLP188 T00890017 10100 21033 50000
94908KDBQ DBQ20000314115513603/14/00 11:55:31  5-MIN KDBQ 141755Z 20010KT 9SM BKN055 OVC070 09/02 A3006 950 60 500 200/10 RMK AO2 SLP188 T00890017 10100 21033 58012
94908KDBQ DBQ20000314120010203/14/00 12:00:31  5-MIN KDBQ 141800Z 20011KT 10SM BKN055 OVC070 09/02 A3006 950 60 500 200/11 RMK AO2
94908KDBQ DBQ20000314120511103/14/00 12:05:31  5-MIN KDBQ 141805Z 20010KT 10SM -RA OVC055 08/02 A3006 950 63 400 190/10 RMK AO2 RAB05 P0000
94908KDBQ DBQ20000314121011103/14/00 12:10:31  5-MIN KDBQ 141810Z 21010KT 10SM -RA OVC055 08/02 A3006 950 65 400 210/10 RMK AO2 RAB05 P0000
94908KDBQ DBQ20000314121511003/14/00 12:15:31  5-MIN KDBQ 141815Z 21009KT 8SM -RA OVC055 08/02 A3006 950 65 400 210/09 RMK AO2 RAB05 P0000
94908KDBQ DBQ20000314122011703/14/00 12:20:31  5-MIN KDBQ 141820Z 20007KT 8SM -RA FEW039 OVC055 08/03 A3005 960 68 400 200/07 RMK AO2 RAB05 P0000
94908KDBQ DBQ20000314122511703/14/00 12:25:31  5-MIN KDBQ 141825Z 20007KT 8SM -RA FEW037 OVC055 08/03 A3005 960 73 400 200/07 RMK AO2 RAB05 P0000
94908KDBQ DBQ20000314123011703/14/00 12:30:31  5-MIN KDBQ 141830Z 20006KT 8SM -RA FEW035 OVC055 08/03 A3005 960 73 400 200/06 RMK AO2 RAB05 P0000
94908KDBQ DBQ20000314123511803/14/00 12:35:31  5-MIN KDBQ 141835Z 19005KT 10SM -RA FEW035 OVC055 08/03 A3005 960 73 400 190/05 RMK AO2 RAB05 P0000
94908KDBQ DBQ20000314124011803/14/00 12:40:31  5-MIN KDBQ 141840Z 18007KT 10SM -RA FEW032 OVC055 08/04 A3004 970 76 400 180/07 RMK AO2 RAB05 P0000
94908KDBQ DBQ20000314124511803/14/00 12:45:31  5-MIN KDBQ 141845Z 18006KT 10SM -RA FEW032 OVC055 08/04 A3004 970 76 400 180/06 RMK AO2 RAB05 P0000
94908KDBQ DBQ20000314125013503/14/00 12:50:31  5-MIN KDBQ 141850Z 18006KT 10SM -RA FEW032 OVC060 08/04 A3003 970 73 400 180/06 RMK AO2 RAB05 SLP179 P0000 T00830039
94908KDBQ DBQ20000314125513503/14/00 12:55:31  5-MIN KDBQ 141855Z 19004KT 10SM -RA FEW034 OVC060 08/04 A3003 980 73 500 190/04 RMK AO2 RAB05 SLP178 P0000 T00830039
94908KDBQ DBQ20000314130011203/14/00 13:00:31  5-MIN KDBQ 141900Z 20006KT 10SM -RA FEW034 BKN060 08/03 A3003 980 70 500 200/06 RMK AO2 P0000
94908KDBQ DBQ20000314130511403/14/00 13:05:31  5-MIN KDBQ 141905Z 21006KT 10SM FEW037 BKN060 08/04 A3002 980 73 500 210/06 RMK AO2 RAE04 P0000
94908KDBQ DBQ20000314131011403/14/00 13:10:31  5-MIN KDBQ 141910Z 22005KT 10SM SCT039 BKN060 08/03 A3002 990 70 500 220/05 RMK AO2 RAE04 P0000
94908KDBQ DBQ20000314131512103/14/00 13:15:31  5-MIN KDBQ 141915Z 21006KT 10SM FEW039 SCT046 BKN060 08/03 A3002 990 70 500 210/06 RMK AO2 RAE04 P0000
94908KDBQ DBQ20000314132011503/14/00 13:20:31  5-MIN KDBQ 141920Z 22007KT 10SM FEW041 BKN060 09/03 A3001 1000 65 500 220/07 RMK AO2 RAE04 P0000
94908KDBQ DBQ20000314132511503/14/00 13:25:31  5-MIN KDBQ 141925Z 23008KT 10SM FEW043 BKN060 09/02 A3001 1000 60 500 230/08 RMK AO2 RAE04 P0000
94908KDBQ DBQ20000314133011503/14/00 13:30:31  5-MIN KDBQ 141930Z 22007KT 10SM FEW043 BKN060 09/02 A3000 1000 60 500 220/07 RMK AO2 RAE04 P0000
94908KDBQ DBQ20000314133511503/14/00 13:35:31  5-MIN KDBQ 141935Z 22007KT 10SM FEW041 SCT060 09/02 A3000 1010 58 600 210/07 RMK AO2 RAE04 P0000
94908KDBQ DBQ20000314134010803/14/00 13:40:31  5-MIN KDBQ 141940Z 21009KT 10SM SCT065 09/01 A3000 1010 56 600 210/09 RMK AO2 RAE04 P0000
94908KDBQ DBQ20000314134510803/14/00 13:45:31  5-MIN KDBQ 141945Z 20008KT 10SM BKN060 09/01 A3000 1010 56 600 200/08 RMK AO2 RAE04 P0000
94908KDBQ DBQ20000314135012503/14/00 13:50:31  5-MIN KDBQ 141950Z 20008KT 10SM BKN060 09/01 A2999 1010 56 600 200/08 RMK AO2 RAE04 SLP166 P0000 T00890006
94908KDBQ DBQ20000314135512503/14/00 13:55:31  5-MIN KDBQ 141955Z 21008KT 10SM BKN060 09/01 A2999 1010 53 600 210/08 RMK AO2 RAE04 SLP165 P0000 T00940006
94908KDBQ DBQ20000314140009603/14/00 14:00:31  5-MIN KDBQ 142000Z 21008KT 10SM BKN055 09/00 A2999 1010 51 600 200/08 RMK AO2
94908KDBQ DBQ20000314140510303/14/00 14:05:31  5-MIN KDBQ 142005Z 20007KT 10SM BKN050 BKN060 09/01 A2999 1020 53 600 200/07 RMK AO2
94908KDBQ DBQ20000314141009603/14/00 14:10:31  5-MIN KDBQ 142010Z 19008KT 10SM BKN055 09/01 A2999 1020 53 600 190/08 RMK AO2
94908KDBQ DBQ20000314141510303/14/00 14:15:31  5-MIN KDBQ 142015Z 19006KT 10SM FEW045 SCT055 09/01 A2998 1020 53 600 190/06 RMK AO2
94908KDBQ DBQ20000314142010303/14/00 14:20:31  5-MIN KDBQ 142020Z 20007KT 10SM SCT043 BKN055 09/01 A2998 1020 53 600 200/07 RMK AO2
94908KDBQ DBQ20000314142509603/14/00 14:25:31  5-MIN KDBQ 142025Z 19007KT 10SM SCT043 09/01 A2998 1020 56 600 190/07 RMK AO2
94908KDBQ DBQ20000314143009603/14/00 14:30:31  5-MIN KDBQ 142030Z 19008KT 10SM SCT043 10/01 A2998 1020 54 700 190/08 RMK AO2
94908KDBQ DBQ20000314143509603/14/00 14:35:31  5-MIN KDBQ 142035Z 18009KT 10SM FEW043 10/01 A2998 1030 54 700 180/09 RMK AO2
94908KDBQ DBQ20000314144010303/14/00 14:40:31  5-MIN KDBQ 142040Z 19008KT 10SM FEW043 SCT080 10/01 A2997 1030 54 700 190/08 RMK AO2
94908KDBQ DBQ20000314144510303/14/00 14:45:31  5-MIN KDBQ 142045Z 21007KT 10SM FEW043 SCT080 10/01 A2997 1030 54 700 210/07 RMK AO2
94908KDBQ DBQ20000314145012503/14/00 14:50:31  5-MIN KDBQ 142050Z VRB05KT 10SM FEW065 10/01 A2997 1030 54 700 VRB/05 RMK AO2 SLP157 60000 T01000011 58012
94908KDBQ DBQ20000314145512503/14/00 14:55:31  5-MIN KDBQ 142055Z 23007KT 10SM FEW080 10/01 A2997 1040 54 700 230/07 RMK AO2 SLP156 60000 T01000011 56031
94908KDBQ DBQ20000314150009603/14/00 15:00:31  5-MIN KDBQ 142100Z 23006KT 10SM FEW080 11/01 A2997 1040 50 800 230/06 RMK AO2
94908KDBQ DBQ20000314150509603/14/00 15:05:31  5-MIN KDBQ 142105Z 22007KT 10SM FEW080 11/01 A2996 1040 50 800 220/07 RMK AO2
94908KDBQ DBQ20000314151009603/14/00 15:10:31  5-MIN KDBQ 142110Z 22007KT 10SM FEW080 11/00 A2996 1040 48 800 220/07 RMK AO2
94908KDBQ DBQ20000314151509603/14/00 15:15:31  5-MIN KDBQ 142115Z 21007KT 10SM FEW080 11/00 A2996 1040 48 800 210/07 RMK AO2
94908KDBQ DBQ20000314152009603/14/00 15:20:31  5-MIN KDBQ 142120Z 21005KT 10SM FEW080 11/00 A2996 1040 48 800 210/05 RMK AO2
94908KDBQ DBQ20000314152509303/14/00 15:25:31  5-MIN KDBQ 142125Z 19004KT 10SM CLR 11/01 A2996 1050 50 800 180/04 RMK AO2
94908KDBQ DBQ20000314153009603/14/00 15:30:31  5-MIN KDBQ 142130Z VRB03KT 10SM FEW050 11/01 A2995 1050 50 800 VRB/03 RMK AO2
94908KDBQ DBQ20000314153509603/14/00 15:35:31  5-MIN KDBQ 142135Z VRB04KT 10SM FEW055 11/01 A2995 1050 50 800 VRB/04 RMK AO2
94908KDBQ DBQ20000314154009603/14/00 15:40:31  5-MIN KDBQ 142140Z 17007KT 10SM FEW065 11/00 A2995 1050 46 900 170/07 RMK AO2
94908KDBQ DBQ20000314154509603/14/00 15:45:31  5-MIN KDBQ 142145Z 20005KT 10SM FEW065 11/00 A2994 1060 46 900 190/05 RMK AO2
94908KDBQ DBQ20000314155011303/14/00 15:50:31  5-MIN KDBQ 142150Z 24005KT 10SM FEW060 11/00 A2994 1060 48 800 240/05 RMK AO2 SLP147 T01060000
94908KDBQ DBQ20000314155511303/14/00 15:55:31  5-MIN KDBQ 142155Z 23005KT 10SM FEW085 11/00 A2994 1060 46 900 230/05 RMK AO2 SLP147 T01110000
94908KDBQ DBQ20000314160009603/14/00 16:00:31  5-MIN KDBQ 142200Z 21005KT 10SM FEW080 11/00 A2994 1060 46 900 210/05 RMK AO2
94908KDBQ DBQ20000314160509603/14/00 16:05:31  5-MIN KDBQ 142205Z 23007KT 10SM FEW080 11/00 A2994 1060 46 900 230/07 RMK AO2
94908KDBQ DBQ20000314161009703/14/00 16:10:31  5-MIN KDBQ 142210Z 22005KT 10SM FEW080 11/M01 A2993 1070 44 900 220/05 RMK AO2
94908KDBQ DBQ20000314161510403/14/00 16:15:31  5-MIN KDBQ 142215Z 24006KT 10SM FEW080 SCT100 11/M01 A2993 1070 44 900 240/06 RMK AO2
94908KDBQ DBQ20000314162010403/14/00 16:20:31  5-MIN KDBQ 142220Z 24005KT 10SM SCT075 SCT100 11/M01 A2994 1060 44 900 240/05 RMK AO2
94908KDBQ DBQ20000314162511103/14/00 16:25:31  5-MIN KDBQ 142225Z 21005KT 10SM SCT065 BKN080 BKN100 11/M01 A2993 1070 44 900 210/05 RMK AO2
94908KDBQ DBQ20000314163011103/14/00 16:30:31  5-MIN KDBQ 142230Z 22006KT 10SM SCT065 BKN080 BKN100 11/M01 A2993 1070 44 900 220/06 RMK AO2
94908KDBQ DBQ20000314163511103/14/00 16:35:31  5-MIN KDBQ 142235Z 22005KT 10SM SCT065 BKN080 BKN100 11/M01 A2993 1070 44 900 220/05 RMK AO2
94908KDBQ DBQ20000314164010403/14/00 16:40:31  5-MIN KDBQ 142240Z 24005KT 10SM SCT065 BKN080 11/M01 A2993 1070 44 900 230/05 RMK AO2
94908KDBQ DBQ20000314164510403/14/00 16:45:31  5-MIN KDBQ 142245Z 22006KT 10SM SCT060 OVC080 11/M01 A2993 1070 44 900 220/06 RMK AO2
94908KDBQ DBQ20000314165012103/14/00 16:50:31  5-MIN KDBQ 142250Z 22006KT 10SM BKN065 OVC080 11/M01 A2993 1070 44 900 220/06 RMK AO2 SLP144 T01111006
94908KDBQ DBQ20000314165512103/14/00 16:55:31  5-MIN KDBQ 142255Z 22004KT 10SM SCT065 BKN080 11/M01 A2993 1070 44 900 220/04 RMK AO2 SLP144 T01111006
94908KDBQ DBQ20000314170011103/14/00 17:00:31  5-MIN KDBQ 142300Z 20003KT 10SM SCT060 BKN080 BKN100 11/M01 A2993 1070 46 800 200/03 RMK AO2
94908KDBQ DBQ20000314170511003/14/00 17:05:31  5-MIN KDBQ 142305Z 00000KT 10SM SCT060 BKN080 BKN100 11/00 A2993 1070 48 800 000/00 RMK AO2
94908KDBQ DBQ20000314171010303/14/00 17:10:31  5-MIN KDBQ 142310Z 00000KT 10SM BKN065 BKN080 11/00 A2993 1070 48 800 000/00 RMK AO2
94908KDBQ DBQ20000314171510303/14/00 17:15:31  5-MIN KDBQ 142315Z 00000KT 10SM BKN065 BKN080 11/01 A2993 1070 50 800 000/00 RMK AO2
94908KDBQ DBQ20000314172010303/14/00 17:20:31  5-MIN KDBQ 142320Z 00000KT 10SM BKN065 BKN080 11/00 A2993 1070 48 800 000/00 RMK AO2
94908KDBQ DBQ20000314172509603/14/00 17:25:31  5-MIN KDBQ 142325Z 16003KT 10SM OVC065 10/01 A2993 1070 52 800 160/03 RMK AO2
94908KDBQ DBQ20000314173009603/14/00 17:30:31  5-MIN KDBQ 142330Z 17003KT 10SM OVC065 10/01 A2993 1070 52 800 170/03 RMK AO2
94908KDBQ DBQ20000314173509603/14/00 17:35:31  5-MIN KDBQ 142335Z 18003KT 10SM OVC065 10/01 A2993 1070 52 800 180/03 RMK AO2
94908KDBQ DBQ20000314174009603/14/00 17:40:31  5-MIN KDBQ 142340Z 18004KT 10SM OVC065 10/01 A2994 1060 52 800 180/04 RMK AO2
94908KDBQ DBQ20000314174509603/14/00 17:45:31  5-MIN KDBQ 142345Z 16004KT 10SM OVC065 09/01 A2993 1070 56 700 150/04 RMK AO2
94908KDBQ DBQ20000314175013703/14/00 17:50:31  5-MIN KDBQ 142350Z 15005KT 10SM OVC065 09/01 A2993 1070 56 700 150/05 RMK AO2 SLP144 60000 T00940011 10117 20078 56031
94908KDBQ DBQ20000314175513703/14/00 17:55:31  5-MIN KDBQ 142355Z 15005KT 10SM OVC065 09/01 A2993 1070 53 700 150/05 RMK AO2 SLP144 60000 T00940006 10117 20078 56012
94908KDBQ DBQ20000314180009603/14/00 18:00:31  5-MIN KDBQ 150000Z 15006KT 10SM OVC065 09/01 A2993 1070 56 700 150/06 RMK AO2
94908KDBQ DBQ20000314180509603/14/00 18:05:31  5-MIN KDBQ 150005Z 15005KT 10SM OVC060 09/01 A2993 1070 53 700 150/05 RMK AO2
94908KDBQ DBQ20000314181009603/14/00 18:10:31  5-MIN KDBQ 150010Z 15004KT 10SM OVC060 09/01 A2993 1070 58 600 150/04 RMK AO2
94908KDBQ DBQ20000314181509603/14/00 18:15:31  5-MIN KDBQ 150015Z 15004KT 10SM OVC060 09/01 A2993 1070 53 700 150/04 RMK AO2
94908KDBQ DBQ20000314182009603/14/00 18:20:31  5-MIN KDBQ 150020Z 14004KT 10SM OVC060 09/01 A2993 1070 53 700 140/04 RMK AO2
94908KDBQ DBQ20000314182509603/14/00 18:25:31  5-MIN KDBQ 150025Z 15005KT 10SM OVC060 09/01 A2993 1070 58 600 140/05 RMK AO2
94908KDBQ DBQ20000314183009603/14/00 18:30:31  5-MIN KDBQ 150030Z 14007KT 10SM OVC060 08/01 A2993 1070 60 600 140/07 RMK AO2
94908KDBQ DBQ20000314183509603/14/00 18:35:31  5-MIN KDBQ 150035Z 17011KT 10SM OVC060 09/01 A2993 1070 53 700 160/11 RMK AO2
94908KDBQ DBQ20000314184009603/14/00 18:40:31  5-MIN KDBQ 150040Z 16009KT 10SM OVC060 09/01 A2993 1070 53 700 160/09 RMK AO2
94908KDBQ DBQ20000314184509603/14/00 18:45:31  5-MIN KDBQ 150045Z 16012KT 10SM OVC060 09/01 A2992 1080 53 700 160/12 RMK AO2
94908KDBQ DBQ20000314185012003/14/00 18:50:31  5-MIN KDBQ 150050Z 17013KT 10SM BKN060 OVC090 09/01 A2992 1070 58 600 170/13 RMK AO2 SLP142 T00890011
94908KDBQ DBQ20000314185512003/14/00 18:55:31  5-MIN KDBQ 150055Z 17012KT 10SM BKN060 BKN090 09/01 A2993 1070 58 600 170/12 RMK AO2 SLP143 T00890011
94908KDBQ DBQ20000314190010303/14/00 19:00:31  5-MIN KDBQ 150100Z 17012KT 10SM BKN060 BKN090 09/02 A2993 1070 60 600 170/12 RMK AO2
94908KDBQ DBQ20000314190510303/14/00 19:05:31  5-MIN KDBQ 150105Z 17011KT 10SM SCT060 SCT090 08/02 A2993 1070 63 600 170/11 RMK AO2
94908KDBQ DBQ20000314191010303/14/00 19:10:31  5-MIN KDBQ 150110Z 17010KT 10SM FEW060 SCT090 08/02 A2993 1070 65 500 170/10 RMK AO2
94908KDBQ DBQ20000314191509603/14/00 19:15:31  5-MIN KDBQ 150115Z 18010KT 10SM FEW060 08/02 A2993 1070 65 500 170/10 RMK AO2
94908KDBQ DBQ20000314192009603/14/00 19:20:31  5-MIN KDBQ 150120Z 18012KT 10SM FEW060 07/02 A2993 1070 68 400 180/12 RMK AO2
94908KDBQ DBQ20000314192509303/14/00 19:25:31  5-MIN KDBQ 150125Z 18011KT 10SM CLR 07/02 A2994 1060 68 400 180/11 RMK AO2
94908KDBQ DBQ20000314193009303/14/00 19:30:31  5-MIN KDBQ 150130Z 18011KT 10SM CLR 07/02 A2994 1060 68 400 180/11 RMK AO2
94908KDBQ DBQ20000314193509303/14/00 19:35:31  5-MIN KDBQ 150135Z 18011KT 10SM CLR 07/02 A2993 1070 70 400 180/11 RMK AO2
94908KDBQ DBQ20000314194010303/14/00 19:40:31  5-MIN KDBQ 150140Z AUTO 17012KT 10SM CLR 07/02 A2993 1070 70 400 170/12 RMK AO2 TSNO
94908KDBQ DBQ20000314194510303/14/00 19:45:31  5-MIN KDBQ 150145Z AUTO 17012KT 10SM CLR 07/02 A2993 1070 70 400 170/12 RMK AO2 TSNO
94908KDBQ DBQ20000314195012003/14/00 19:50:31  5-MIN KDBQ 150150Z AUTO 17012KT 10SM CLR 07/02 A2993 1070 70 400 170/12 RMK AO2 SLP145 T00670017 TSNO
94908KDBQ DBQ20000314195512003/14/00 19:55:31  5-MIN KDBQ 150155Z AUTO 17011KT 10SM CLR 06/02 A2994 1060 73 300 170/11 RMK AO2 SLP146 T00610017 TSNO
94908KDBQ DBQ20000314200010303/14/00 20:00:31  5-MIN KDBQ 150200Z AUTO 17012KT 10SM CLR 06/02 A2994 1060 73 300 170/12 RMK AO2 TSNO
94908KDBQ DBQ20000314200510303/14/00 20:05:31  5-MIN KDBQ 150205Z AUTO 17012KT 10SM CLR 06/02 A2994 1060 76 300 170/12 RMK AO2 TSNO
94908KDBQ DBQ20000314201010303/14/00 20:10:31  5-MIN KDBQ 150210Z AUTO 17012KT 10SM CLR 06/02 A2994 1060 76 300 170/12 RMK AO2 TSNO
94908KDBQ DBQ20000314201510303/14/00 20:15:31  5-MIN KDBQ 150215Z AUTO 17012KT 10SM CLR 06/02 A2994 1060 76 300 170/12 RMK AO2 TSNO
94908KDBQ DBQ20000314202010303/14/00 20:20:31  5-MIN KDBQ 150220Z AUTO 17012KT 10SM CLR 06/02 A2994 1060 76 300 170/12 RMK AO2 TSNO
94908KDBQ DBQ20000314202510303/14/00 20:25:31  5-MIN KDBQ 150225Z AUTO 17012KT 10SM CLR 06/02 A2994 1060 76 300 170/12 RMK AO2 TSNO
94908KDBQ DBQ20000314203010303/14/00 20:30:31  5-MIN KDBQ 150230Z AUTO 17012KT 10SM CLR 06/02 A2994 1060 79 200 170/12 RMK AO2 TSNO
94908KDBQ DBQ20000314203510303/14/00 20:35:31  5-MIN KDBQ 150235Z AUTO 18013KT 10SM CLR 06/02 A2994 1060 76 300 170/13 RMK AO2 TSNO
94908KDBQ DBQ20000314204010303/14/00 20:40:31  5-MIN KDBQ 150240Z AUTO 18012KT 10SM CLR 06/03 A2994 1060 82 200 180/12 RMK AO2 TSNO
94908KDBQ DBQ20000314204510303/14/00 20:45:31  5-MIN KDBQ 150245Z AUTO 18011KT 10SM CLR 06/03 A2994 1060 82 200 180/11 RMK AO2 TSNO
94908KDBQ DBQ20000314205012603/14/00 20:50:31  5-MIN KDBQ 150250Z AUTO 19011KT 10SM CLR 06/03 A2994 1060 82 200 190/11 RMK AO2 SLP147 T00560028 56012 TSNO
94908KDBQ DBQ20000314205512603/14/00 20:55:31  5-MIN KDBQ 150255Z AUTO 19011KT 10SM CLR 06/03 A2994 1060 82 200 180/11 RMK AO2 SLP146 T00560028 53004 TSNO
94908KDBQ DBQ20000314210010303/14/00 21:00:31  5-MIN KDBQ 150300Z AUTO 18011KT 10SM CLR 06/03 A2994 1060 82 200 180/11 RMK AO2 TSNO
94908KDBQ DBQ20000314210510303/14/00 21:05:31  5-MIN KDBQ 150305Z AUTO 18012KT 10SM CLR 06/03 A2994 1060 82 200 180/12 RMK AO2 TSNO
94908KDBQ DBQ20000314211010303/14/00 21:10:31  5-MIN KDBQ 150310Z AUTO 18012KT 10SM CLR 06/03 A2994 1060 82 200 180/12 RMK AO2 TSNO
94908KDBQ DBQ20000314211510303/14/00 21:15:31  5-MIN KDBQ 150315Z AUTO 18012KT 10SM CLR 06/03 A2994 1060 85 200 180/12 RMK AO2 TSNO
94908KDBQ DBQ20000314212010203/14/00 21:20:31  5-MIN KDBQ 150320Z AUTO 19013KT 9SM CLR 06/03 A2994 1060 85 200 190/13 RMK AO2 TSNO
94908KDBQ DBQ20000314212510203/14/00 21:25:31  5-MIN KDBQ 150325Z AUTO 19013KT 8SM CLR 06/03 A2994 1060 85 200 190/13 RMK AO2 TSNO
94908KDBQ DBQ20000314213010203/14/00 21:30:31  5-MIN KDBQ 150330Z AUTO 19013KT 8SM CLR 06/03 A2993 1070 85 200 180/13 RMK AO2 TSNO
94908KDBQ DBQ20000314213510203/14/00 21:35:31  5-MIN KDBQ 150335Z AUTO 18014KT 8SM CLR 06/03 A2993 1070 85 200 180/14 RMK AO2 TSNO
94908KDBQ DBQ20000314214010203/14/00 21:40:31  5-MIN KDBQ 150340Z AUTO 18013KT 7SM CLR 06/03 A2993 1070 85 200 180/13 RMK AO2 TSNO
94908KDBQ DBQ20000314214510203/14/00 21:45:31  5-MIN KDBQ 150345Z AUTO 18014KT 7SM CLR 06/04 A2993 1070 89 200 180/14 RMK AO2 TSNO
94908KDBQ DBQ20000314215011903/14/00 21:50:31  5-MIN KDBQ 150350Z AUTO 18013KT 7SM CLR 05/04 A2993 1070 92 200 170/13 RMK AO2 SLP141 T00500039 TSNO
94908KDBQ DBQ20000314215511903/14/00 21:55:31  5-MIN KDBQ 150355Z AUTO 18014KT 7SM CLR 05/04 A2993 1070 92 200 180/14 RMK AO2 SLP140 T00500039 TSNO
94908KDBQ DBQ20000314220010503/14/00 22:00:31  5-MIN KDBQ 150400Z AUTO 17014KT 6SM BR CLR 05/04 A2992 1080 92 200 170/14 RMK AO2 TSNO
94908KDBQ DBQ20000314220510503/14/00 22:05:31  5-MIN KDBQ 150405Z AUTO 18013KT 6SM BR CLR 05/04 A2992 1080 92 200 170/13 RMK AO2 TSNO
94908KDBQ DBQ20000314221010503/14/00 22:10:31  5-MIN KDBQ 150410Z AUTO 18011KT 6SM BR CLR 05/04 A2992 1080 92 200 180/11 RMK AO2 TSNO
94908KDBQ DBQ20000314221510503/14/00 22:15:31  5-MIN KDBQ 150415Z AUTO 18013KT 6SM BR CLR 05/04 A2992 1080 92 200 180/13 RMK AO2 TSNO
94908KDBQ DBQ20000314222010503/14/00 22:20:31  5-MIN KDBQ 150420Z AUTO 18013KT 5SM BR CLR 05/04 A2992 1080 92 200 180/13 RMK AO2 TSNO
94908KDBQ DBQ20000314222510503/14/00 22:25:31  5-MIN KDBQ 150425Z AUTO 18012KT 5SM BR CLR 05/04 A2992 1080 92 200 180/12 RMK AO2 TSNO
94908KDBQ DBQ20000314223010503/14/00 22:30:31  5-MIN KDBQ 150430Z AUTO 18012KT 5SM BR CLR 05/04 A2992 1080 92 200 180/12 RMK AO2 TSNO
94908KDBQ DBQ20000314223510803/14/00 22:35:31  5-MIN KDBQ 150435Z AUTO 18014KT 5SM BR FEW006 05/04 A2992 1080 92 200 180/14 RMK AO2 TSNO
94908KDBQ DBQ20000314224010803/14/00 22:40:31  5-MIN KDBQ 150440Z AUTO 18014KT 5SM BR SCT006 05/04 A2992 1080 92 200 180/14 RMK AO2 TSNO
94908KDBQ DBQ20000314224510803/14/00 22:45:31  5-MIN KDBQ 150445Z AUTO 18014KT 4SM BR SCT006 05/04 A2992 1080 92 200 180/14 RMK AO2 TSNO
94908KDBQ DBQ20000314225012503/14/00 22:50:31  5-MIN KDBQ 150450Z AUTO 18015KT 4SM BR BKN006 05/04 A2992 1080 92 200 180/15 RMK AO2 SLP138 T00500039 TSNO
94908KDBQ DBQ20000314225512503/14/00 22:55:31  5-MIN KDBQ 150455Z AUTO 18014KT 4SM BR BKN006 05/04 A2992 1080 92 200 180/14 RMK AO2 SLP137 T00500039 TSNO
94908KDBQ DBQ20000314230010803/14/00 23:00:31  5-MIN KDBQ 150500Z AUTO 18013KT 4SM BR BKN006 05/04 A2992 1080 92 200 180/13 RMK AO2 TSNO
94908KDBQ DBQ20000314230510803/14/00 23:05:31  5-MIN KDBQ 150505Z AUTO 18014KT 4SM BR BKN006 05/04 A2992 1080 92 200 180/14 RMK AO2 TSNO
94908KDBQ DBQ20000314231010803/14/00 23:10:31  5-MIN KDBQ 150510Z AUTO 19013KT 4SM BR BKN006 05/04 A2993 1070 96 200 180/13 RMK AO2 TSNO
94908KDBQ DBQ20000314231510803/14/00 23:15:31  5-MIN KDBQ 150515Z AUTO 19014KT 4SM BR OVC006 05/04 A2992 1080 96 200 190/14 RMK AO2 TSNO
94908KDBQ DBQ20000314232010803/14/00 23:20:31  5-MIN KDBQ 150520Z AUTO 19015KT 4SM BR OVC004 05/04 A2992 1080 96 200 190/15 RMK AO2 TSNO
94908KDBQ DBQ20000314232510803/14/00 23:25:31  5-MIN KDBQ 150525Z AUTO 19013KT 4SM BR OVC004 05/04 A2992 1080 96 200 190/13 RMK AO2 TSNO
94908KDBQ DBQ20000314233010803/14/00 23:30:31  5-MIN KDBQ 150530Z AUTO 19013KT 4SM BR OVC004 05/04 A2992 1080 96 200 190/13 RMK AO2 TSNO
94908KDBQ DBQ20000314233510803/14/00 23:35:31  5-MIN KDBQ 150535Z AUTO 19010KT 3SM BR OVC004 05/04 A2992 1080 96 200 190/10 RMK AO2 TSNO
94908KDBQ DBQ20000314234010803/14/00 23:40:31  5-MIN KDBQ 150540Z AUTO 19010KT 3SM BR OVC004 05/04 A2992 1080 96 200 190/10 RMK AO2 TSNO
94908KDBQ DBQ20000314234510803/14/00 23:45:31  5-MIN KDBQ 150545Z AUTO 19011KT 3SM BR OVC004 05/04 A2992 1080 96 200 190/11 RMK AO2 TSNO
94908KDBQ DBQ20000314235015303/14/00 23:50:31  5-MIN KDBQ 150550Z AUTO 19011KT 3SM BR OVC004 04/04 A2992 1080 96 100 190/11 RMK AO2 SLP139 T00440039 10094 20044 401171033 53004 TSNO
94908KDBQ DBQ20000314235515303/14/00 23:55:31  5-MIN KDBQ 150555Z AUTO 19010KT 3SM BR OVC004 04/04 A2992 1080 96 100 190/10 RMK AO2 SLP139 T00440039 10094 20044 401171033 55006 TSNO
94908KDBQ DBQ20000315000010803/15/00 00:00:31  5-MIN KDBQ 150600Z AUTO 19011KT 3SM BR BKN004 04/04 A2992 1080 96 100 190/11 RMK AO2 TSNO
94908KDBQ DBQ20000315000510703/15/00 00:05:31  5-MIN KDBQ 150605Z AUTO 19009KT 3SM BR BKN004 04/04 A2992 1080 100 0 190/09 RMK AO2 TSNO
94908KDBQ DBQ20000315001010703/15/00 00:10:31  5-MIN KDBQ 150610Z AUTO 19009KT 3SM BR SCT004 04/04 A2992 1080 100 0 190/09 RMK AO2 TSNO
94908KDBQ DBQ20000315001510703/15/00 00:15:31  5-MIN KDBQ 150615Z AUTO 19009KT 3SM BR SCT004 04/04 A2991 1080 100 0 190/09 RMK AO2 TSNO
94908KDBQ DBQ20000315002010703/15/00 00:20:31  5-MIN KDBQ 150620Z AUTO 19011KT 3SM BR FEW004 04/04 A2991 1090 100 0 190/11 RMK AO2 TSNO
94908KDBQ DBQ20000315002510803/15/00 00:25:31  5-MIN KDBQ 150625Z AUTO 18012KT 2 1/2SM BR CLR 04/04 A2991 1090 100 0 180/12 RMK AO2 TSNO
94908KDBQ DBQ20000315003010803/15/00 00:30:31  5-MIN KDBQ 150630Z AUTO 18010KT 2 1/2SM BR CLR 04/04 A2991 1090 100 0 180/10 RMK AO2 TSNO
94908KDBQ DBQ20000315003510803/15/00 00:35:31  5-MIN KDBQ 150635Z AUTO 19011KT 2 1/2SM BR CLR 04/04 A2991 1090 100 0 190/11 RMK AO2 TSNO
94908KDBQ DBQ20000315004010803/15/00 00:40:31  5-MIN KDBQ 150640Z AUTO 19011KT 2 1/2SM BR CLR 04/04 A2991 1090 100 0 190/11 RMK AO2 TSNO
94908KDBQ DBQ20000315004510803/15/00 00:45:31  5-MIN KDBQ 150645Z AUTO 19011KT 2 1/2SM BR CLR 04/04 A2991 1090 100 0 190/11 RMK AO2 TSNO
94908KDBQ DBQ20000315005012503/15/00 00:50:31  5-MIN KDBQ 150650Z AUTO 19010KT 2 1/2SM BR CLR 04/04 A2991 1090 100 0 190/10 RMK AO2 SLP135 T00390039 TSNO
94908KDBQ DBQ20000315005512403/15/00 00:55:31  5-MIN KDBQ 150655Z AUTO 19009KT 2SM BR FEW003 04/04 A2991 1090 100 0 190/09 RMK AO2 SLP136 T00390039 TSNO
94908KDBQ DBQ20000315010010703/15/00 01:00:31  5-MIN KDBQ 150700Z AUTO 19009KT 2SM BR SCT003 04/04 A2991 1090 100 0 190/09 RMK AO2 TSNO
94908KDBQ DBQ20000315010510703/15/00 01:05:31  5-MIN KDBQ 150705Z AUTO 19009KT 2SM BR BKN003 04/04 A2991 1080 100 0 190/09 RMK AO2 TSNO
94908KDBQ DBQ20000315011010803/15/00 01:10:31  5-MIN KDBQ 150710Z AUTO 20008KT 2SM BR BKN003 04/04 A2991 1080 96 100 190/08 RMK AO2 TSNO
94908KDBQ DBQ20000315011510903/15/00 01:15:31  5-MIN KDBQ 150715Z AUTO 20008KT 2SM BR BKN003 04/04 A2992 1080 100 100 200/08 RMK AO2 TSNO
94908KDBQ DBQ20000315012010903/15/00 01:20:31  5-MIN KDBQ 150720Z AUTO 19008KT 2SM BR OVC003 04/04 A2991 1080 100 100 190/08 RMK AO2 TSNO
94908KDBQ DBQ20000315012510903/15/00 01:25:31  5-MIN KDBQ 150725Z AUTO 19008KT 2SM BR OVC003 04/04 A2991 1080 100 100 190/08 RMK AO2 TSNO
94908KDBQ DBQ20000315013011303/15/00 01:30:31  5-MIN KDBQ 150730Z AUTO 19008KT 1 3/4SM BR OVC003 04/04 A2991 1090 100 100 190/08 RMK AO2 TSNO
94908KDBQ DBQ20000315013511303/15/00 01:35:31  5-MIN KDBQ 150735Z AUTO 19008KT 1 3/4SM BR OVC003 04/04 A2991 1090 100 100 190/08 RMK AO2 TSNO
94908KDBQ DBQ20000315014011303/15/00 01:40:31  5-MIN KDBQ 150740Z AUTO 19007KT 1 1/2SM BR OVC003 04/04 A2991 1090 100 100 190/07 RMK AO2 TSNO
94908KDBQ DBQ20000315014511303/15/00 01:45:31  5-MIN KDBQ 150745Z AUTO 19008KT 1 1/2SM BR OVC003 04/04 A2991 1090 100 100 190/08 RMK AO2 TSNO
94908KDBQ DBQ20000315015013003/15/00 01:50:31  5-MIN KDBQ 150750Z AUTO 19007KT 1 1/4SM BR OVC001 04/04 A2991 1090 100 100 190/07 RMK AO2 SLP134 T00440044 TSNO
94908KDBQ DBQ20000315015513003/15/00 01:55:31  5-MIN KDBQ 150755Z AUTO 19008KT 1 1/4SM BR OVC001 04/04 A2990 1090 100 100 190/08 RMK AO2 SLP132 T00440044 TSNO
94908KDBQ DBQ20000315020011303/15/00 02:00:31  5-MIN KDBQ 150800Z AUTO 18009KT 1 1/4SM BR OVC001 04/04 A2990 1090 100 100 180/09 RMK AO2 TSNO
94908KDBQ DBQ20000315020510903/15/00 02:05:31  5-MIN KDBQ 150805Z AUTO 18007KT 1SM BR OVC001 04/04 A2990 1100 100 100 180/07 RMK AO2 TSNO
94908KDBQ DBQ20000315021010903/15/00 02:10:31  5-MIN KDBQ 150810Z AUTO 18007KT 1SM BR OVC001 04/04 A2990 1100 100 100 180/07 RMK AO2 TSNO
94908KDBQ DBQ20000315021511103/15/00 02:15:31  5-MIN KDBQ 150815Z AUTO 17008KT 3/4SM BR OVC001 04/04 A2989 1110 100 100 170/08 RMK AO2 TSNO
94908KDBQ DBQ20000315022011003/15/00 02:20:31  5-MIN KDBQ 150820Z AUTO 17009KT 3/4SM BR VV001 04/04 A2989 1110 100 100 170/09 RMK AO2 TSNO
94908KDBQ DBQ20000315022511003/15/00 02:25:31  5-MIN KDBQ 150825Z AUTO 17009KT 1/2SM FG VV001 04/04 A2988 1110 100 100 170/09 RMK AO2 TSNO
94908KDBQ DBQ20000315023011003/15/00 02:30:31  5-MIN KDBQ 150830Z AUTO 17009KT 1/2SM FG VV001 04/04 A2988 1110 100 100 170/09 RMK AO2 TSNO
94908KDBQ DBQ20000315023511003/15/00 02:35:31  5-MIN KDBQ 150835Z AUTO 18011KT 1/2SM FG VV001 04/04 A2988 1120 100 200 180/11 RMK AO2 TSNO
94908KDBQ DBQ20000315024011003/15/00 02:40:31  5-MIN KDBQ 150840Z AUTO 17010KT 1/4SM FG VV001 04/04 A2987 1120 100 200 170/10 RMK AO2 TSNO
94908KDBQ DBQ20000315024511003/15/00 02:45:31  5-MIN KDBQ 150845Z AUTO 17010KT 1/4SM FG VV001 04/04 A2987 1120 100 200 170/10 RMK AO2 TSNO
94908KDBQ DBQ20000315025013303/15/00 02:50:31  5-MIN KDBQ 150850Z AUTO 17012KT 1/4SM FG VV001 04/04 A2987 1120 100 200 170/12 RMK AO2 SLP121 T00440044 55006 TSNO
94908KDBQ DBQ20000315025513303/15/00 02:55:31  5-MIN KDBQ 150855Z AUTO 17010KT 1/4SM FG VV001 04/04 A2987 1120 100 200 170/10 RMK AO2 SLP121 T00440044 58017 TSNO
94908KDBQ DBQ20000315030011003/15/00 03:00:31  5-MIN KDBQ 150900Z AUTO 17010KT 1/4SM FG VV001 04/04 A2987 1120 100 200 170/10 RMK AO2 TSNO
94908KDBQ DBQ20000315030511003/15/00 03:05:31  5-MIN KDBQ 150905Z AUTO 17012KT 1/4SM FG VV001 04/04 A2987 1120 100 200 170/12 RMK AO2 TSNO
94908KDBQ DBQ20000315031011003/15/00 03:10:31  5-MIN KDBQ 150910Z AUTO 18012KT 1/4SM FG VV001 04/04 A2987 1120 100 200 180/12 RMK AO2 TSNO
94908KDBQ DBQ20000315031511003/15/00 03:15:31  5-MIN KDBQ 150915Z AUTO 18011KT 1/4SM FG VV001 04/04 A2987 1120 100 200 170/11 RMK AO2 TSNO
94908KDBQ DBQ20000315032011003/15/00 03:20:31  5-MIN KDBQ 150920Z AUTO 18011KT 1/4SM FG VV001 04/04 A2987 1130 100 200 180/11 RMK AO2 TSNO
94908KDBQ DBQ20000315032511003/15/00 03:25:31  5-MIN KDBQ 150925Z AUTO 18011KT 1/4SM FG VV001 04/04 A2987 1130 100 200 180/11 RMK AO2 TSNO
94908KDBQ DBQ20000315033011003/15/00 03:30:31  5-MIN KDBQ 150930Z AUTO 18010KT 1/4SM FG VV001 04/04 A2987 1130 100 100 180/10 RMK AO2 TSNO
94908KDBQ DBQ20000315033511003/15/00 03:35:31  5-MIN KDBQ 150935Z AUTO 19012KT 1/4SM FG VV001 04/04 A2988 1120 100 200 190/12 RMK AO2 TSNO
94908KDBQ DBQ20000315034011003/15/00 03:40:31  5-MIN KDBQ 150940Z AUTO 19009KT 1/4SM FG VV001 04/04 A2987 1120 100 200 190/09 RMK AO2 TSNO
94908KDBQ DBQ20000315034511003/15/00 03:45:31  5-MIN KDBQ 150945Z AUTO 19010KT 1/4SM FG VV001 04/04 A2987 1120 100 200 190/10 RMK AO2 TSNO
94908KDBQ DBQ20000315035012703/15/00 03:50:31  5-MIN KDBQ 150950Z AUTO 19009KT 1/4SM FG VV001 04/04 A2987 1120 100 200 190/09 RMK AO2 SLP122 T00440044 TSNO
94908KDBQ DBQ20000315035512703/15/00 03:55:31  5-MIN KDBQ 150955Z AUTO 19007KT 1/4SM FG VV001 04/04 A2988 1120 100 200 190/07 RMK AO2 SLP122 T00440044 TSNO
94908KDBQ DBQ20000315040011003/15/00 04:00:31  5-MIN KDBQ 151000Z AUTO 20011KT 1/4SM FG VV001 04/04 A2988 1110 100 100 200/11 RMK AO2 TSNO
94908KDBQ DBQ20000315040511003/15/00 04:05:31  5-MIN KDBQ 151005Z AUTO 20009KT 1/4SM FG VV001 04/04 A2989 1110 100 100 200/09 RMK AO2 TSNO
94908KDBQ DBQ20000315041011003/15/00 04:10:31  5-MIN KDBQ 151010Z AUTO 19010KT 1/4SM FG VV001 04/04 A2988 1110 100 100 190/10 RMK AO2 TSNO
94908KDBQ DBQ20000315041511003/15/00 04:15:31  5-MIN KDBQ 151015Z AUTO 19009KT 1/4SM FG VV001 04/04 A2987 1120 100 200 190/09 RMK AO2 TSNO
94908KDBQ DBQ20000315042011003/15/00 04:20:31  5-MIN KDBQ 151020Z AUTO 19010KT 1/4SM FG VV001 04/04 A2987 1120 100 200 190/10 RMK AO2 TSNO
94908KDBQ DBQ20000315042511003/15/00 04:25:31  5-MIN KDBQ 151025Z AUTO 20009KT 1/4SM FG VV001 04/04 A2987 1120 100 200 200/09 RMK AO2 TSNO
94908KDBQ DBQ20000315043011003/15/00 04:30:31  5-MIN KDBQ 151030Z AUTO 19010KT 1/4SM FG VV001 04/04 A2987 1120 100 200 190/10 RMK AO2 TSNO
94908KDBQ DBQ20000315043511003/15/00 04:35:31  5-MIN KDBQ 151035Z AUTO 20010KT 1/4SM FG VV001 04/04 A2988 1120 100 200 200/10 RMK AO2 TSNO
94908KDBQ DBQ20000315044011003/15/00 04:40:31  5-MIN KDBQ 151040Z AUTO 20012KT 1/4SM FG VV001 04/04 A2988 1110 100 100 200/12 RMK AO2 TSNO
94908KDBQ DBQ20000315044511003/15/00 04:45:31  5-MIN KDBQ 151045Z AUTO 20011KT 1/4SM FG VV001 04/04 A2989 1110 100 100 200/11 RMK AO2 TSNO
94908KDBQ DBQ20000315045012703/15/00 04:50:31  5-MIN KDBQ 151050Z AUTO 20011KT 1/4SM FG VV001 04/04 A2989 1100 100 100 200/11 RMK AO2 SLP128 T00440044 TSNO
94908KDBQ DBQ20000315045512703/15/00 04:55:31  5-MIN KDBQ 151055Z AUTO 20010KT 1/4SM FG VV001 04/04 A2989 1110 100 100 200/10 RMK AO2 SLP127 T00440044 TSNO
94908KDBQ DBQ20000315050011003/15/00 05:00:31  5-MIN KDBQ 151100Z AUTO 20011KT 1/4SM FG VV001 04/04 A2988 1110 100 100 200/11 RMK AO2 TSNO
94908KDBQ DBQ20000315050511003/15/00 05:05:31  5-MIN KDBQ 151105Z AUTO 20009KT 1/4SM FG VV001 04/04 A2989 1110 100 100 200/09 RMK AO2 TSNO
94908KDBQ DBQ20000315051011003/15/00 05:10:31  5-MIN KDBQ 151110Z AUTO 20010KT 1/4SM FG VV001 04/04 A2989 1110 100 100 200/10 RMK AO2 TSNO
94908KDBQ DBQ20000315051511003/15/00 05:15:31  5-MIN KDBQ 151115Z AUTO 20010KT 1/4SM FG VV001 04/04 A2988 1110 100 100 200/10 RMK AO2 TSNO
94908KDBQ DBQ20000315052011003/15/00 05:20:31  5-MIN KDBQ 151120Z AUTO 20008KT 1/4SM FG VV001 04/04 A2988 1120 100 100 200/08 RMK AO2 TSNO
94908KDBQ DBQ20000315052511003/15/00 05:25:31  5-MIN KDBQ 151125Z AUTO 20009KT 1/4SM FG VV001 04/04 A2988 1110 100 100 200/09 RMK AO2 TSNO
94908KDBQ DBQ20000315053011003/15/00 05:30:31  5-MIN KDBQ 151130Z AUTO 21009KT 1/4SM FG VV001 04/04 A2988 1120 100 200 210/09 RMK AO2 TSNO
94908KDBQ DBQ20000315053511003/15/00 05:35:31  5-MIN KDBQ 151135Z AUTO 20008KT 1/4SM FG VV001 04/04 A2988 1120 100 200 200/08 RMK AO2 TSNO
94908KDBQ DBQ20000315054011003/15/00 05:40:31  5-MIN KDBQ 151140Z AUTO 21009KT 1/4SM FG VV001 04/04 A2988 1120 100 100 210/09 RMK AO2 TSNO
94908KDBQ DBQ20000315054510503/15/00 05:45:31  5-MIN KDBQ 151145Z 21009KT 1/4SM FG VV001 04/04 A2988 1120 100 200 210/09 RMK AO2 TSNO
94908KDBQ DBQ20000315055013503/15/00 05:50:31  5-MIN KDBQ 151150Z 20009KT 1/4SM FG VV001 04/04 A2988 1120 100 200 200/09 RMK AO2 SLP122 T00440044 10044 20039 58017
94908KDBQ DBQ20000315055515003/15/00 05:55:31  5-MIN KDBQ 151155Z 20008KT 1/4SM FG VV001 04/04 A2988 1120 100 200 200/08 RMK AO2 SLP122 R31/RVR 1400FT T00440044 10044 20039 50001
94908KDBQ DBQ20000315060010003/15/00 06:00:31  5-MIN KDBQ 151200Z 20009KT 1/4SM FG VV001 04/04 A2988 1120 100 100 200/09 RMK AO2
94908KDBQ DBQ20000315060510003/15/00 06:05:31  5-MIN KDBQ 151205Z 20006KT 1/4SM FG VV001 04/04 A2988 1120 100 100 200/06 RMK AO2
94908KDBQ DBQ20000315061010003/15/00 06:10:31  5-MIN KDBQ 151210Z 19008KT 1/4SM FG VV001 04/04 A2988 1120 100 200 190/08 RMK AO2
94908KDBQ DBQ20000315061510003/15/00 06:15:31  5-MIN KDBQ 151215Z 21008KT 1/4SM FG VV001 04/04 A2988 1120 100 200 210/08 RMK AO2
94908KDBQ DBQ20000315062010003/15/00 06:20:31  5-MIN KDBQ 151220Z 19007KT 1/4SM FG VV001 04/04 A2987 1130 100 200 190/07 RMK AO2
94908KDBQ DBQ20000315062510003/15/00 06:25:31  5-MIN KDBQ 151225Z 18007KT 1/4SM FG VV001 04/04 A2986 1130 100 200 180/07 RMK AO2
94908KDBQ DBQ20000315063010003/15/00 06:30:31  5-MIN KDBQ 151230Z 19005KT 1/4SM FG VV001 04/04 A2986 1130 100 200 190/05 RMK AO2
94908KDBQ DBQ20000315063511503/15/00 06:35:31  5-MIN KDBQ 151235Z 19007KT 1/4SM FG VV001 04/04 A2987 1130 100 200 190/07 RMK AO2 R31/RVR 1200FT
94908KDBQ DBQ20000315064011503/15/00 06:40:31  5-MIN KDBQ 151240Z 18009KT 1/4SM FG VV001 04/04 A2987 1130 100 200 180/09 RMK AO2 R31/RVR 1200FT
94908KDBQ DBQ20000315064511503/15/00 06:45:31  5-MIN KDBQ 151245Z 19007KT 1/4SM FG VV001 04/04 A2987 1120 100 200 190/07 RMK AO2 R31/RVR 1200FT
94908KDBQ DBQ20000315065013203/15/00 06:50:31  5-MIN KDBQ 151250Z 19007KT 1/4SM FG VV001 04/04 A2987 1120 100 200 190/07 RMK AO2 SLP122 R31/RVR 1200FT T00440044
94908KDBQ DBQ20000315065513203/15/00 06:55:31  5-MIN KDBQ 151255Z 18010KT 1/4SM FG VV001 04/04 A2987 1130 100 200 180/10 RMK AO2 SLP121 R31/RVR 1200FT T00440044
94908KDBQ DBQ20000315070010003/15/00 07:00:31  5-MIN KDBQ 151300Z 19009KT 1/4SM FG VV001 04/04 A2987 1130 100 200 190/09 RMK AO2
94908KDBQ DBQ20000315070510003/15/00 07:05:31  5-MIN KDBQ 151305Z 17009KT 1/4SM FG VV001 04/04 A2987 1130 100 200 170/09 RMK AO2
94908KDBQ DBQ20000315071010003/15/00 07:10:31  5-MIN KDBQ 151310Z 18010KT 1/4SM FG VV001 04/04 A2986 1130 100 200 180/10 RMK AO2
94908KDBQ DBQ20000315071510003/15/00 07:15:31  5-MIN KDBQ 151315Z 18010KT 1/4SM FG VV001 04/04 A2986 1130 100 200 180/10 RMK AO2
94908KDBQ DBQ20000315072010003/15/00 07:20:31  5-MIN KDBQ 151320Z 17011KT 1/4SM FG VV001 04/04 A2985 1140 100 200 170/11 RMK AO2
94908KDBQ DBQ20000315072510003/15/00 07:25:31  5-MIN KDBQ 151325Z 18010KT 1/4SM FG VV001 04/04 A2985 1140 100 200 180/10 RMK AO2
94908KDBQ DBQ20000315073010003/15/00 07:30:31  5-MIN KDBQ 151330Z 17010KT 1/4SM FG VV001 04/04 A2985 1140 100 200 170/10 RMK AO2
94908KDBQ DBQ20000315073510003/15/00 07:35:31  5-MIN KDBQ 151335Z 17010KT 1/4SM FG VV001 04/04 A2985 1140 100 200 170/10 RMK AO2
94908KDBQ DBQ20000315074010003/15/00 07:40:31  5-MIN KDBQ 151340Z 18010KT 1/4SM FG VV001 05/05 A2986 1140 100 200 170/10 RMK AO2
94908KDBQ DBQ20000315074510003/15/00 07:45:31  5-MIN KDBQ 151345Z 17010KT 1/4SM FG VV001 05/05 A2985 1140 100 200 170/10 RMK AO2
94908KDBQ DBQ20000315075011703/15/00 07:50:31  5-MIN KDBQ 151350Z 18010KT 1/4SM FG VV001 05/05 A2985 1140 100 200 180/10 RMK AO2 SLP115 T00500050
94908KDBQ DBQ20000315075511703/15/00 07:55:31  5-MIN KDBQ 151355Z 18011KT 1/4SM FG VV001 05/05 A2985 1140 100 300 180/11 RMK AO2 SLP115 T00500050
94908KDBQ DBQ20000315080010003/15/00 08:00:31  5-MIN KDBQ 151400Z 17010KT 1/4SM FG VV001 05/05 A2985 1140 100 200 170/10 RMK AO2
94908KDBQ DBQ20000315080510003/15/00 08:05:31  5-MIN KDBQ 151405Z 17013KT 1/4SM FG VV001 05/05 A2985 1140 100 200 170/13 RMK AO2
94908KDBQ DBQ20000315081010003/15/00 08:10:31  5-MIN KDBQ 151410Z 18013KT 1/4SM FG VV001 05/05 A2985 1140 100 200 180/13 RMK AO2
94908KDBQ DBQ20000315081510003/15/00 08:15:31  5-MIN KDBQ 151415Z 17011KT 1/2SM FG VV001 05/05 A2985 1140 100 200 170/11 RMK AO2
94908KDBQ DBQ20000315082011603/15/00 08:20:31  5-MIN KDBQ 151420Z 17013KT 3/4SM BR OVC001 05/05 A2985 1150 100 300 170/13 RMK AO2 R31/RVR 2400FT
94908KDBQ DBQ20000315082511603/15/00 08:25:31  5-MIN KDBQ 151425Z 17011KT 3/4SM BR OVC001 06/06 A2984 1150 100 300 170/11 RMK AO2 R31/RVR 2400FT
94908KDBQ DBQ20000315083011803/15/00 08:30:31  5-MIN KDBQ 151430Z 18011KT 1 1/4SM BR OVC001 06/06 A2984 1150 100 300 170/11 RMK AO2 R31/RVR 2400FT
94908KDBQ DBQ20000315083511803/15/00 08:35:31  5-MIN KDBQ 151435Z 18012KT 1 1/4SM BR OVC001 06/06 A2984 1150 100 300 180/12 RMK AO2 R31/RVR 5500FT
94908KDBQ DBQ20000315084011803/15/00 08:40:31  5-MIN KDBQ 151440Z 18012KT 1 1/2SM BR OVC001 06/06 A2984 1150 100 300 180/12 RMK AO2 R31/RVR 5500FT
94908KDBQ DBQ20000315084511403/15/00 08:45:31  5-MIN KDBQ 151445Z 17012KT 2SM BR OVC001 06/06 A2984 1150 100 300 170/12 RMK AO2 R31/RVR 5500FT
94908KDBQ DBQ20000315085012203/15/00 08:50:31  5-MIN KDBQ 151450Z 18013KT 2SM BR OVC001 06/06 A2984 1150 100 300 180/13 RMK AO2 SLP113 T00560056 50001
94908KDBQ DBQ20000315085512203/15/00 08:55:31  5-MIN KDBQ 151455Z 18014KT 2SM BR OVC001 06/06 A2985 1150 100 300 180/14 RMK AO2 SLP113 T00560056 56010
94908KDBQ DBQ20000315090010303/15/00 09:00:31  5-MIN KDBQ 151500Z 17013KT 2 1/2SM BR OVC001 06/06 A2985 1150 100 300 170/13 RMK AO2
94908KDBQ DBQ20000315090510303/15/00 09:05:31  5-MIN KDBQ 151505Z 18014KT 2 1/2SM BR BKN003 06/06 A2985 1140 100 300 180/14 RMK AO2
94908KDBQ DBQ20000315091011503/15/00 09:10:31  5-MIN KDBQ 151510Z 17012KT 2 1/2SM BR OVC003 06/06 A2985 1140 100 300 170/12 RMK AO2 CIG 002V006
94908KDBQ DBQ20000315091510303/15/00 09:15:31  5-MIN KDBQ 151515Z 18013KT 2 1/2SM BR OVC003 06/06 A2985 1140 100 300 180/13 RMK AO2
94908KDBQ DBQ20000315092009903/15/00 09:20:31  5-MIN KDBQ 151520Z 18012KT 3SM BR BKN003 06/06 A2985 1140 100 300 180/12 RMK AO2
94908KDBQ DBQ20000315092510203/15/00 09:25:31  5-MIN KDBQ 151525Z 18011KT 2 1/2SM BR OVC003 06/06 A2985 1140 96 400 180/11 RMK AO2
94908KDBQ DBQ20000315093010203/15/00 09:30:31  5-MIN KDBQ 151530Z 19012KT 2 1/2SM BR BKN003 06/06 A2986 1140 96 400 190/12 RMK AO2
94908KDBQ DBQ20000315093510203/15/00 09:35:31  5-MIN KDBQ 151535Z 19010KT 2 1/2SM BR BKN003 06/06 A2986 1140 96 400 190/10 RMK AO2
94908KDBQ DBQ20000315094010903/15/00 09:40:31  5-MIN KDBQ 151540Z 19010KT 2 1/2SM BR BKN003 BKN100 06/06 A2986 1140 96 400 190/10 RMK AO2
94908KDBQ DBQ20000315094510903/15/00 09:45:31  5-MIN KDBQ 151545Z 19009KT 2 1/2SM BR BKN003 BKN100 06/06 A2986 1140 96 400 190/09 RMK AO2
94908KDBQ DBQ20000315095012203/15/00 09:50:31  5-MIN KDBQ 151550Z 18008KT 3SM BR SCT003 BKN100 06/06 A2986 1140 96 400 180/08 RMK AO2 SLP117 T00610056
94908KDBQ DBQ20000315095512203/15/00 09:55:31  5-MIN KDBQ 151555Z 18007KT 4SM BR FEW003 SCT100 07/06 A2985 1140 93 500 180/07 RMK AO2 SLP114 T00670056
94908KDBQ DBQ20000315100010503/15/00 10:00:31  5-MIN KDBQ 151600Z 19007KT 4SM BR FEW005 SCT100 07/06 A2985 1150 93 500 190/07 RMK AO2
94908KDBQ DBQ20000315100509803/15/00 10:05:31  5-MIN KDBQ 151605Z 18006KT 4SM BR SCT100 07/06 A2985 1140 96 500 180/06 RMK AO2
94908KDBQ DBQ20000315101009803/15/00 10:10:31  5-MIN KDBQ 151610Z 17007KT 4SM BR SCT100 07/06 A2985 1140 96 500 170/07 RMK AO2
94908KDBQ DBQ20000315101509803/15/00 10:15:31  5-MIN KDBQ 151615Z 17010KT 4SM BR SCT100 07/06 A2986 1140 93 500 170/10 RMK AO2
94908KDBQ DBQ20000315102009803/15/00 10:20:31  5-MIN KDBQ 151620Z 17008KT 4SM BR SCT100 07/06 A2986 1140 93 500 170/08 RMK AO2
94908KDBQ DBQ20000315102509803/15/00 10:25:31  5-MIN KDBQ 151625Z 17011KT 4SM BR SCT100 07/06 A2985 1140 93 500 170/11 RMK AO2
94908KDBQ DBQ20000315103009803/15/00 10:30:31  5-MIN KDBQ 151630Z 17009KT 4SM BR FEW100 08/06 A2985 1140 89 600 170/09 RMK AO2
94908KDBQ DBQ20000315103509803/15/00 10:35:31  5-MIN KDBQ 151635Z 19007KT 4SM BR FEW100 08/06 A2987 1130 86 600 180/07 RMK AO2
94908KDBQ DBQ20000315104009803/15/00 10:40:31  5-MIN KDBQ 151640Z 25005KT 4SM HZ FEW011 09/06 A2987 1120 83 700 250/05 RMK AO2
94908KDBQ DBQ20000315104509803/15/00 10:45:31  5-MIN KDBQ 151645Z 30007KT 4SM BR SCT011 08/06 A2987 1130 86 600 300/07 RMK AO2
94908KDBQ DBQ20000315105011503/15/00 10:50:31  5-MIN KDBQ 151650Z 28006KT 4SM HZ BKN011 08/06 A2986 1130 82 600 280/06 RMK AO2 SLP118 T00830056
94908KDBQ DBQ20000315105511503/15/00 10:55:31  5-MIN KDBQ 151655Z 29004KT 4SM HZ BKN011 08/06 A2986 1140 82 600 290/04 RMK AO2 SLP117 T00830056
94908KDBQ DBQ20000315110009803/15/00 11:00:31  5-MIN KDBQ 151700Z 33006KT 4SM HZ BKN013 09/06 A2986 1130 83 700 330/06 RMK AO2
94908KDBQ DBQ20000315110509803/15/00 11:05:31  5-MIN KDBQ 151705Z 34007KT 4SM HZ OVC013 08/06 A2986 1140 82 600 340/07 RMK AO2
94908KDBQ DBQ20000315111009803/15/00 11:10:31  5-MIN KDBQ 151710Z 34005KT 4SM BR OVC013 08/06 A2986 1130 86 600 340/05 RMK AO2
94908KDBQ DBQ20000315111509803/15/00 11:15:31  5-MIN KDBQ 151715Z 35004KT 4SM HZ OVC013 08/06 A2986 1130 82 600 350/04 RMK AO2
94908KDBQ DBQ20000315112009803/15/00 11:20:31  5-MIN KDBQ 151720Z 34003KT 4SM BR OVC013 08/06 A2987 1130 86 600 340/03 RMK AO2
94908KDBQ DBQ20000315112509803/15/00 11:25:31  5-MIN KDBQ 151725Z 03003KT 4SM BR OVC011 08/06 A2987 1130 86 600 030/03 RMK AO2
94908KDBQ DBQ20000315113009803/15/00 11:30:31  5-MIN KDBQ 151730Z 06003KT 4SM BR OVC011 08/06 A2986 1130 86 600 060/03 RMK AO2
94908KDBQ DBQ20000315113509803/15/00 11:35:31  5-MIN KDBQ 151735Z 00000KT 4SM HZ OVC011 08/06 A2985 1140 82 700 000/00 RMK AO2
94908KDBQ DBQ20000315114009803/15/00 11:40:31  5-MIN KDBQ 151740Z 09003KT 4SM HZ OVC011 08/06 A2985 1150 82 700 090/03 RMK AO2
94908KDBQ DBQ20000315114509803/15/00 11:45:31  5-MIN KDBQ 151745Z 00000KT 4SM BR OVC011 08/06 A2985 1150 86 700 000/00 RMK AO2
94908KDBQ DBQ20000315115013303/15/00 11:50:31  5-MIN KDBQ 151750Z VRB03KT 4SM HZ OVC011 09/06 A2985 1150 83 700 VRB/03 RMK AO2 SLP113 T00890061 10089 20044 56010
94908KDBQ DBQ20000315115513303/15/00 11:55:31  5-MIN KDBQ 151755Z 07003KT 4SM HZ OVC011 09/06 A2985 1150 83 700 070/03 RMK AO2 SLP114 T00890061 10089 20044 50001
94908KDBQ DBQ20000315120009803/15/00 12:00:31  5-MIN KDBQ 151800Z 00000KT 4SM HZ OVC011 09/06 A2985 1150 83 700 000/00 RMK AO2
94908KDBQ DBQ20000315120509803/15/00 12:05:31  5-MIN KDBQ 151805Z 01004KT 4SM HZ OVC013 09/06 A2985 1150 83 700 010/04 RMK AO2
94908KDBQ DBQ20000315121009803/15/00 12:10:31  5-MIN KDBQ 151810Z 36008KT 4SM BR OVC013 08/06 A2985 1140 86 700 360/08 RMK AO2
94908KDBQ DBQ20000315121509803/15/00 12:15:31  5-MIN KDBQ 151815Z 34009KT 4SM HZ OVC013 08/06 A2986 1140 82 600 340/09 RMK AO2
94908KDBQ DBQ20000315122013203/15/00 12:20:31  5-MIN KDBQ 151820Z 32009KT 3SM RA BR OVC013 08/06 A2986 1130 89 600 320/09 RMK AO2 RAB18 LTG CCCG N TSRA VC P0001
94908KDBQ DBQ20000315122514803/15/00 12:25:31  5-MIN KDBQ 151825Z 36007KT 1 1/2SM +TSRA FEW005 OVC013 07/06 A2985 1150 93 500 360/07 RMK AO2 TSB24RAB18 LTG CCCG N TSRA VC P0007
94908KDBQ DBQ20000315123015403/15/00 12:30:31  5-MIN KDBQ 151830Z 35006KT 1 1/2SM TSRA FEW008 BKN013 OVC019 07/06 A2985 1140 93 500 340/06 RMK AO2 TSB24RAB18 LTG CCCG N TSRA VC P0008
94908KDBQ DBQ20000315123514303/15/00 12:35:31  5-MIN KDBQ 151835Z 03008KT 2SM -RA BR FEW008 BKN013 OVC048 07/07 A2983 1160 96 500 030/08 RMK AO2 TSB24E31RAB18 PRESFR P0009
94908KDBQ DBQ20000315124014003/15/00 12:40:31  5-MIN KDBQ 151840Z 36009KT 1 1/2SM -RA BR FEW006 BKN013 OVC048 07/07 A2983 1160 96 500 360/09 RMK AO2 TSB24E31RAB18 P0009
94908KDBQ DBQ20000315124514003/15/00 12:45:31  5-MIN KDBQ 151845Z 33009KT 1 1/2SM -RA BR SCT006 BKN013 OVC048 07/07 A2986 1130 96 500 330/09 RMK AO2 TSB24E31RAB18 P0009
94908KDBQ DBQ20000315125015803/15/00 12:50:31  5-MIN KDBQ 151850Z 32009KT 1 1/2SM -RA BR FEW006 BKN010 OVC048 07/07 A2986 1130 100 400 310/09 RMK AO2 TSB24E31RAB18 SLP119 P0011 T00670067
94908KDBQ DBQ20000315125515703/15/00 12:55:31  5-MIN KDBQ 151855Z 32009KT 1 1/2SM +RA BR FEW004 BKN010 OVC048 07/06 A2986 1130 96 400 320/09 RMK AO2 TSB24E31RAB18 SLP118 P0014 T00670061
94908KDBQ DBQ20000315130012603/15/00 13:00:31  5-MIN KDBQ 151900Z 33008KT 1 1/4SM -RA BR FEW005 BKN013 OVC048 07/06 A2986 1130 96 400 320/08 RMK AO2 P0000
94908KDBQ DBQ20000315130512603/15/00 13:05:31  5-MIN KDBQ 151905Z 32007KT 1 1/2SM -RA BR FEW005 SCT009 OVC013 07/06 A2987 1130 96 400 320/07 RMK AO2 P0001
94908KDBQ DBQ20000315131012203/15/00 13:10:31  5-MIN KDBQ 151910Z 33006KT 1SM +RA BR FEW005 BKN010 OVC015 07/06 A2986 1130 96 400 330/06 RMK AO2 P0004
94908KDBQ DBQ20000315131512203/15/00 13:15:31  5-MIN KDBQ 151915Z 34007KT 1SM RA BR FEW005 BKN010 OVC015 07/07 A2986 1140 100 400 340/07 RMK AO2 P0005
94908KDBQ DBQ20000315132012703/15/00 13:20:31  5-MIN KDBQ 151920Z 34007KT 1 1/4SM -RA BR FEW005 BKN010 OVC015 07/07 A2986 1130 100 400 340/07 RMK AO2 P0006
94908KDBQ DBQ20000315132512703/15/00 13:25:31  5-MIN KDBQ 151925Z 34007KT 1 3/4SM -RA BR FEW005 BKN010 OVC015 07/07 A2986 1130 100 400 340/07 RMK AO2 P0006
94908KDBQ DBQ20000315133012703/15/00 13:30:31  5-MIN KDBQ 151930Z 34006KT 1 3/4SM -RA BR FEW005 BKN010 OVC015 07/07 A2986 1130 100 400 340/06 RMK AO2 P0006
94908KDBQ DBQ20000315133512303/15/00 13:35:31  5-MIN KDBQ 151935Z 35007KT 2SM -RA BR FEW005 BKN010 OVC015 07/07 A2985 1140 100 400 350/07 RMK AO2 P0006
94908KDBQ DBQ20000315134012703/15/00 13:40:31  5-MIN KDBQ 151940Z 35007KT 1 1/2SM -RA BR FEW005 BKN010 OVC015 07/07 A2985 1140 100 500 350/07 RMK AO2 P0006
94908KDBQ DBQ20000315134512903/15/00 13:45:31  5-MIN KDBQ 151945Z 34008KT 1 1/2SM BR FEW005 BKN010 OVC015 07/07 A2986 1140 100 400 340/08 RMK AO2 RAE43 P0006
94908KDBQ DBQ20000315135013803/15/00 13:50:31  5-MIN KDBQ 151950Z 34007KT 2 1/2SM BR BKN021 OVC031 07/07 A2986 1140 96 500 340/07 RMK AO2 RAE43 SLP118 P0006 T00720067
94908KDBQ DBQ20000315135513403/15/00 13:55:31  5-MIN KDBQ 151955Z 35007KT 2SM BR SCT021 OVC031 07/07 A2986 1140 96 500 350/07 RMK AO2 RAE43 SLP117 P0006 T00720067
94908KDBQ DBQ20000315140011203/15/00 14:00:31  5-MIN KDBQ 152000Z 34007KT 2SM BR FEW021 BKN031 OVC039 07/07 A2986 1140 96 500 340/07 RMK AO2
94908KDBQ DBQ20000315140510503/15/00 14:05:31  5-MIN KDBQ 152005Z 35007KT 2SM BR SCT021 OVC031 07/07 A2986 1130 96 500 350/07 RMK AO2
94908KDBQ DBQ20000315141010503/15/00 14:10:31  5-MIN KDBQ 152010Z 36007KT 2SM BR SCT021 OVC031 07/07 A2986 1140 96 500 360/07 RMK AO2
94908KDBQ DBQ20000315141510503/15/00 14:15:31  5-MIN KDBQ 152015Z 35006KT 2SM BR SCT021 OVC031 07/07 A2986 1130 96 500 350/06 RMK AO2
94908KDBQ DBQ20000315142010903/15/00 14:20:31  5-MIN KDBQ 152020Z 36006KT 2 1/2SM BR SCT021 OVC031 07/07 A2986 1130 96 500 360/06 RMK AO2
94908KDBQ DBQ20000315142510903/15/00 14:25:31  5-MIN KDBQ 152025Z 34006KT 2 1/2SM BR SCT021 OVC031 07/07 A2986 1130 96 500 340/06 RMK AO2
94908KDBQ DBQ20000315143012503/15/00 14:30:31  5-MIN KDBQ 152030Z 34008KT 2 1/2SM -RA BR SCT021 OVC031 07/07 A2986 1130 96 500 340/08 RMK AO2 RAB28 P0000
94908KDBQ DBQ20000315143512503/15/00 14:35:31  5-MIN KDBQ 152035Z 34007KT 2 1/2SM -RA BR SCT021 OVC031 07/06 A2987 1130 93 500 340/07 RMK AO2 RAB28 P0000
94908KDBQ DBQ20000315144012403/15/00 14:40:31  5-MIN KDBQ 152040Z 36005KT 2 1/2SM BR SCT021 OVC031 07/07 A2986 1130 96 500 360/05 RMK AO2 RAB28E40 P0000
94908KDBQ DBQ20000315144512403/15/00 14:45:31  5-MIN KDBQ 152045Z 01005KT 2 1/2SM BR SCT021 OVC031 07/06 A2986 1130 93 500 360/05 RMK AO2 RAB28E40 P0000
94908KDBQ DBQ20000315145014203/15/00 14:50:31  5-MIN KDBQ 152050Z 35006KT 5SM BR OVC038 07/06 A2987 1130 93 500 350/06 RMK AO2 RAB28E40 SLP121 P0000 60020 T00720061 50001
94908KDBQ DBQ20000315145514203/15/00 14:55:31  5-MIN KDBQ 152055Z 34006KT 5SM BR OVC038 07/06 A2987 1120 93 500 340/06 RMK AO2 RAB28E40 SLP122 P0000 60020 T00720061 53008
94908KDBQ DBQ20000315150009803/15/00 15:00:31  5-MIN KDBQ 152100Z 35007KT 5SM BR OVC038 07/06 A2987 1120 93 500 340/07 RMK AO2
94908KDBQ DBQ20000315150511203/15/00 15:05:31  5-MIN KDBQ 152105Z 34007KT 5SM BR BKN038 BKN048 OVC055 07/06 A2987 1130 93 500 340/07 RMK AO2
94908KDBQ DBQ20000315151011203/15/00 15:10:31  5-MIN KDBQ 152110Z 35007KT 5SM BR BKN038 BKN048 OVC060 08/07 A2987 1130 93 600 350/07 RMK AO2
94908KDBQ DBQ20000315151511203/15/00 15:15:31  5-MIN KDBQ 152115Z 35007KT 5SM BR SCT038 SCT046 OVC060 08/07 A2987 1130 93 600 350/07 RMK AO2
94908KDBQ DBQ20000315152011203/15/00 15:20:31  5-MIN KDBQ 152120Z 34007KT 5SM BR FEW038 SCT046 OVC060 08/07 A2987 1120 93 600 340/07 RMK AO2
94908KDBQ DBQ20000315152511203/15/00 15:25:31  5-MIN KDBQ 152125Z 33008KT 5SM BR FEW007 BKN060 OVC070 08/07 A2988 1120 93 600 330/08 RMK AO2
94908KDBQ DBQ20000315153011203/15/00 15:30:31  5-MIN KDBQ 152130Z 33008KT 4SM BR FEW010 BKN060 OVC070 08/07 A2988 1120 93 600 330/08 RMK AO2
94908KDBQ DBQ20000315153511203/15/00 15:35:31  5-MIN KDBQ 152135Z 32010KT 4SM BR FEW007 BKN039 OVC070 08/07 A2988 1110 96 600 320/10 RMK AO2
94908KDBQ DBQ20000315154011203/15/00 15:40:31  5-MIN KDBQ 152140Z 32010KT 5SM BR SCT007 BKN012 OVC065 08/07 A2989 1110 93 500 320/10 RMK AO2
94908KDBQ DBQ20000315154511203/15/00 15:45:31  5-MIN KDBQ 152145Z 33008KT 5SM BR BKN010 BKN039 OVC070 08/07 A2988 1110 93 600 330/08 RMK AO2
94908KDBQ DBQ20000315155012203/15/00 15:50:31  5-MIN KDBQ 152150Z 32012KT 5SM BR BKN010 OVC039 08/07 A2989 1110 93 500 320/12 RMK AO2 SLP128 T00780067
94908KDBQ DBQ20000315155512203/15/00 15:55:31  5-MIN KDBQ 152155Z 33011KT 5SM BR BKN009 OVC039 08/07 A2989 1110 93 500 330/11 RMK AO2 SLP128 T00780067
94908KDBQ DBQ20000315160011003/15/00 16:00:31  5-MIN KDBQ 152200Z 33011KT 5SM BR OVC009 08/07 A2989 1110 93 500 330/11 RMK AO2 CIG 006V014
94908KDBQ DBQ20000315160509803/15/00 16:05:31  5-MIN KDBQ 152205Z 33010KT 5SM BR OVC009 08/06 A2989 1100 89 500 330/10 RMK AO2
94908KDBQ DBQ20000315161009803/15/00 16:10:31  5-MIN KDBQ 152210Z 33011KT 5SM BR OVC009 08/07 A2989 1100 93 500 320/11 RMK AO2
94908KDBQ DBQ20000315161509803/15/00 16:15:31  5-MIN KDBQ 152215Z 33010KT 5SM BR OVC009 07/06 A2990 1100 93 500 330/10 RMK AO2
94908KDBQ DBQ20000315162009803/15/00 16:20:31  5-MIN KDBQ 152220Z 33010KT 5SM BR OVC009 07/06 A2990 1100 93 500 330/10 RMK AO2
94908KDBQ DBQ20000315162509803/15/00 16:25:31  5-MIN KDBQ 152225Z 32010KT 4SM BR OVC009 07/07 A2990 1090 96 500 320/10 RMK AO2
94908KDBQ DBQ20000315163009803/15/00 16:30:31  5-MIN KDBQ 152230Z 31012KT 4SM BR OVC009 07/06 A2991 1090 93 500 310/12 RMK AO2
94908KDBQ DBQ20000315163509803/15/00 16:35:31  5-MIN KDBQ 152235Z 33011KT 4SM BR OVC009 07/06 A2991 1090 93 400 330/11 RMK AO2
94908KDBQ DBQ20000315164011103/15/00 16:40:31  5-MIN KDBQ 152240Z 33016G19KT 3SM BR OVC009 07/06 A2992 1080 93 400 320/16G19 RMK AO2 PRESRR
94908KDBQ DBQ20000315164511103/15/00 16:45:31  5-MIN KDBQ 152245Z 32016G19KT 3SM BR OVC009 07/06 A2992 1070 93 400 320/16G19 RMK AO2 PRESRR
94908KDBQ DBQ20000315165013403/15/00 16:50:31  5-MIN KDBQ 152250Z 32014KT 4SM BR BKN006 OVC009 06/05 A2993 1070 93 300 320/14 RMK AO2 CIG 005V009 SLP141 T00610050
94908KDBQ DBQ20000315165512203/15/00 16:55:31  5-MIN KDBQ 152255Z 32014KT 4SM BR SCT006 OVC011 06/04 A2993 1070 89 300 320/14 RMK AO2 SLP142 T00610044
94908KDBQ DBQ20000315170011803/15/00 17:00:31  5-MIN KDBQ 152300Z 32015G20KT 4SM BR SCT006 BKN013 OVC017 06/04 A2993 1070 89 300 320/15G20 RMK AO2
94908KDBQ DBQ20000315170511803/15/00 17:05:31  5-MIN KDBQ 152305Z 32012G20KT 4SM BR BKN006 BKN013 OVC017 06/04 A2994 1060 89 300 320/12G20 RMK AO2
94908KDBQ DBQ20000315171011203/15/00 17:10:31  5-MIN KDBQ 152310Z 32013KT 4SM BR BKN006 BKN013 OVC017 06/04 A2995 1050 89 300 320/13 RMK AO2
94908KDBQ DBQ20000315171511203/15/00 17:15:31  5-MIN KDBQ 152315Z 32012KT 4SM BR BKN006 BKN013 OVC017 06/04 A2995 1050 89 300 320/12 RMK AO2
94908KDBQ DBQ20000315172011203/15/00 17:20:31  5-MIN KDBQ 152320Z 32012KT 4SM BR BKN006 BKN013 OVC017 06/04 A2995 1050 89 300 320/12 RMK AO2
94908KDBQ DBQ20000315172511203/15/00 17:25:31  5-MIN KDBQ 152325Z 33011KT 4SM BR BKN006 BKN013 OVC017 06/04 A2996 1050 89 300 330/11 RMK AO2
94908KDBQ DBQ20000315173011203/15/00 17:30:31  5-MIN KDBQ 152330Z 33015KT 4SM BR BKN006 BKN013 OVC017 06/04 A2996 1040 89 300 330/15 RMK AO2
94908KDBQ DBQ20000315173511203/15/00 17:35:31  5-MIN KDBQ 152335Z 33013KT 4SM BR BKN006 BKN013 OVC017 06/04 A2997 1040 89 300 330/13 RMK AO2
94908KDBQ DBQ20000315174011203/15/00 17:40:31  5-MIN KDBQ 152340Z 33014KT 4SM HZ BKN006 BKN013 OVC017 06/03 A2997 1030 82 300 330/14 RMK AO2
94908KDBQ DBQ20000315174511203/15/00 17:45:31  5-MIN KDBQ 152345Z 33014KT 5SM HZ BKN006 BKN013 OVC017 06/03 A2997 1030 82 200 330/14 RMK AO2
94908KDBQ DBQ20000315175014603/15/00 17:50:31  5-MIN KDBQ 152350Z 33014KT 6SM HZ BKN017 OVC031 06/03 A2997 1030 82 200 330/14 RMK AO2 SLP157 60020 T00560028 10089 20056 53008
94908KDBQ DBQ20000315175515203/15/00 17:55:31  5-MIN KDBQ 152355Z 33013G20KT 6SM HZ SCT017 OVC031 06/02 A2998 1030 79 200 330/13G20 RMK AO2 SLP158 60020 T00560022 10089 20056 53034
94908KDBQ DBQ20000315180011103/15/00 18:00:31  5-MIN KDBQ 160000Z 34012G20KT 6SM HZ SCT017 OVC031 06/02 A2998 1030 79 200 340/12G20 RMK AO2
94908KDBQ DBQ20000315180511103/15/00 18:05:31  5-MIN KDBQ 160005Z 34012G19KT 6SM HZ FEW017 OVC031 06/02 A2998 1020 79 200 340/12G19 RMK AO2
94908KDBQ DBQ20000315181011503/15/00 18:10:31  5-MIN KDBQ 160010Z 33011G18KT 7SM FEW019 BKN026 OVC031 06/02 A2998 1020 79 200 330/11G18 RMK AO2
94908KDBQ DBQ20000315181510903/15/00 18:15:31  5-MIN KDBQ 160015Z 34010KT 8SM FEW019 BKN026 OVC031 05/02 A2999 1020 82 100 340/10 RMK AO2
94908KDBQ DBQ20000315182010903/15/00 18:20:31  5-MIN KDBQ 160020Z 35012KT 8SM FEW019 SCT027 OVC033 05/02 A2999 1010 82 100 350/12 RMK AO2
94908KDBQ DBQ20000315182510903/15/00 18:25:31  5-MIN KDBQ 160025Z 35011KT 8SM FEW019 SCT027 OVC033 05/02 A3000 1000 82 100 350/11 RMK AO2
94908KDBQ DBQ20000315183010903/15/00 18:30:31  5-MIN KDBQ 160030Z 35013KT 9SM FEW019 BKN029 OVC035 05/02 A3000 1000 82 100 350/13 RMK AO2
94908KDBQ DBQ20000315183510203/15/00 18:35:31  5-MIN KDBQ 160035Z 34013KT 9SM FEW021 OVC033 05/02 A3001 1000 79 100 340/13 RMK AO2
94908KDBQ DBQ20000315184010803/15/00 18:40:31  5-MIN KDBQ 160040Z 34011KT 9SM SCT021 BKN030 OVC035 05/02 A3001 990 79 100 340/11 RMK AO2
94908KDBQ DBQ20000315184510703/15/00 18:45:31  5-MIN KDBQ 160045Z 33014G18KT 9SM SCT021 OVC033 05/02 A3002 990 82 100 330/14G18 RMK AO2
94908KDBQ DBQ20000315185013003/15/00 18:50:31  5-MIN KDBQ 160050Z 33015G18KT 10SM BKN023 OVC033 04/02 A3003 980 82 0 330/15G18 RMK AO2 PRESRR SLP176 T00440017
94908KDBQ DBQ20000315185511703/15/00 18:55:31  5-MIN KDBQ 160055Z 34014KT 10SM BKN023 OVC035 04/01 A3003 980 79 0 340/14 RMK AO2 SLP178 T00440011
94908KDBQ DBQ20000315190009303/15/00 19:00:31  5-MIN KDBQ 160100Z 33016KT 10SM OVC023 04/01 A3003 980 79 0 330/16 RMK AO2
94908KDBQ DBQ20000315190509303/15/00 19:05:31  5-MIN KDBQ 160105Z 34012KT 10SM OVC023 04/01 A3003 980 76 0 340/12 RMK AO2
94908KDBQ DBQ20000315191009303/15/00 19:10:31  5-MIN KDBQ 160110Z 34012KT 10SM OVC023 04/01 A3004 970 76 0 340/12 RMK AO2
94908KDBQ DBQ20000315191509303/15/00 19:15:31  5-MIN KDBQ 160115Z 34012KT 10SM OVC025 04/01 A3004 970 76 0 340/12 RMK AO2
94908KDBQ DBQ20000315192009303/15/00 19:20:31  5-MIN KDBQ 160120Z 34012KT 10SM OVC025 04/01 A3004 960 76 0 340/12 RMK AO2
94908KDBQ DBQ20000315192509303/15/00 19:25:31  5-MIN KDBQ 160125Z 34012KT 10SM OVC027 04/01 A3005 960 76 0 340/12 RMK AO2
94908KDBQ DBQ20000315193009303/15/00 19:30:31  5-MIN KDBQ 160130Z 34011KT 10SM OVC027 04/01 A3006 950 76 0 340/11 RMK AO2
94908KDBQ DBQ20000315193509603/15/00 19:35:31  5-MIN KDBQ 160135Z 34011KT 10SM OVC029 04/00 A3006 950 76 -100 340/11 RMK AO2
94908KDBQ DBQ20000315194009603/15/00 19:40:31  5-MIN KDBQ 160140Z 34012KT 10SM OVC029 04/00 A3006 950 76 -100 340/12 RMK AO2
94908KDBQ DBQ20000315194510303/15/00 19:45:31  5-MIN KDBQ 160145Z 35015G21KT 10SM OVC029 04/M01 A3007 940 73 -100 350/15G21 RMK AO2
94908KDBQ DBQ20000315195013003/15/00 19:50:31  5-MIN KDBQ 160150Z AUTO 35016G21KT 10SM OVC031 04/M01 A3007 940 70 -100 350/16G21 RMK AO2 SLP190 T00391011 TSNO
94908KDBQ DBQ20000315195513003/15/00 19:55:31  5-MIN KDBQ 160155Z AUTO 35014G22KT 10SM OVC031 04/M02 A3007 940 67 -100 350/14G22 RMK AO2 SLP192 T00391017 TSNO
94908KDBQ DBQ20000315200011303/15/00 20:00:31  5-MIN KDBQ 160200Z AUTO 35015G22KT 10SM OVC031 03/M02 A3008 930 70 -200 340/15G22 RMK AO2 TSNO
94908KDBQ DBQ20000315200510703/15/00 20:05:31  5-MIN KDBQ 160205Z AUTO 35014KT 10SM OVC031 03/M02 A3008 930 67 -200 350/14 RMK AO2 TSNO
94908KDBQ DBQ20000315201011303/15/00 20:10:31  5-MIN KDBQ 160210Z AUTO 35013G20KT 10SM OVC033 03/M02 A3008 930 67 -200 350/13G20 RMK AO2 TSNO
94908KDBQ DBQ20000315201511303/15/00 20:15:31  5-MIN KDBQ 160215Z AUTO 35016G20KT 10SM OVC033 03/M02 A3009 930 67 -200 340/16G20 RMK AO2 TSNO
94908KDBQ DBQ20000315202011303/15/00 20:20:31  5-MIN KDBQ 160220Z AUTO 36010G20KT 10SM OVC033 03/M02 A3009 920 67 -200 350/10G20 RMK AO2 TSNO
94908KDBQ DBQ20000315202511303/15/00 20:25:31  5-MIN KDBQ 160225Z AUTO 35013G21KT 10SM OVC033 03/M02 A3009 920 69 -300 340/13G21 RMK AO2 TSNO
94908KDBQ DBQ20000315203011303/15/00 20:30:31  5-MIN KDBQ 160230Z AUTO 34013G21KT 10SM OVC033 03/M03 A3009 920 67 -300 340/13G21 RMK AO2 TSNO
94908KDBQ DBQ20000315203511303/15/00 20:35:31  5-MIN KDBQ 160235Z AUTO 36016G22KT 10SM OVC033 03/M03 A3009 920 67 -300 360/16G22 RMK AO2 TSNO
94908KDBQ DBQ20000315204011303/15/00 20:40:31  5-MIN KDBQ 160240Z AUTO 36016G22KT 10SM BKN033 02/M03 A3009 920 69 -300 360/16G22 RMK AO2 TSNO
94908KDBQ DBQ20000315204511303/15/00 20:45:31  5-MIN KDBQ 160245Z AUTO 35013G22KT 10SM SCT033 02/M03 A3009 920 69 -300 350/13G22 RMK AO2 TSNO
94908KDBQ DBQ20000315205013603/15/00 20:50:31  5-MIN KDBQ 160250Z AUTO 35017G22KT 10SM SCT033 02/M03 A3009 920 69 -300 350/17G22 RMK AO2 SLP199 T00221028 53034 TSNO
94908KDBQ DBQ20000315205513603/15/00 20:55:31  5-MIN KDBQ 160255Z AUTO 35016G23KT 10SM FEW033 02/M03 A3009 920 69 -400 350/16G23 RMK AO2 SLP200 T00171033 51039 TSNO
94908KDBQ DBQ20000315210011303/15/00 21:00:31  5-MIN KDBQ 160300Z AUTO 35015G23KT 10SM FEW033 02/M03 A3010 920 69 -400 340/15G23 RMK AO2 TSNO
94908KDBQ DBQ20000315210511003/15/00 21:05:31  5-MIN KDBQ 160305Z AUTO 35016G22KT 10SM CLR 02/M03 A3010 910 69 -400 350/16G22 RMK AO2 TSNO
94908KDBQ DBQ20000315211011003/15/00 21:10:31  5-MIN KDBQ 160310Z AUTO 35015G21KT 10SM CLR 02/M04 A3010 910 66 -400 350/15G21 RMK AO2 TSNO
94908KDBQ DBQ20000315211511003/15/00 21:15:31  5-MIN KDBQ 160315Z AUTO 35014G21KT 10SM CLR 01/M04 A3011 910 69 -500 350/14G21 RMK AO2 TSNO
94908KDBQ DBQ20000315212011003/15/00 21:20:31  5-MIN KDBQ 160320Z AUTO 35015G20KT 10SM CLR 01/M04 A3011 900 69 -500 350/15G20 RMK AO2 TSNO
94908KDBQ DBQ20000315212511003/15/00 21:25:31  5-MIN KDBQ 160325Z AUTO 36013G19KT 10SM CLR 01/M04 A3011 900 69 -500 360/13G19 RMK AO2 TSNO
94908KDBQ DBQ20000315213011003/15/00 21:30:31  5-MIN KDBQ 160330Z AUTO 36012G18KT 10SM CLR 01/M04 A3011 900 69 -500 350/12G18 RMK AO2 TSNO
94908KDBQ DBQ20000315213511003/15/00 21:35:31  5-MIN KDBQ 160335Z AUTO 36016G22KT 10SM CLR 01/M04 A3012 900 69 -600 360/16G22 RMK AO2 TSNO
94908KDBQ DBQ20000315214011003/15/00 21:40:31  5-MIN KDBQ 160340Z AUTO 36015G22KT 10SM CLR 01/M04 A3012 890 69 -600 360/15G22 RMK AO2 TSNO
94908KDBQ DBQ20000315214511003/15/00 21:45:31  5-MIN KDBQ 160345Z AUTO 36016G22KT 10SM CLR 01/M04 A3012 890 69 -600 360/16G22 RMK AO2 TSNO
94908KDBQ DBQ20000315215012703/15/00 21:50:31  5-MIN KDBQ 160350Z AUTO 35017G22KT 10SM CLR 01/M04 A3012 890 69 -600 350/17G22 RMK AO2 SLP210 T00061044 TSNO
94908KDBQ DBQ20000315215512703/15/00 21:55:31  5-MIN KDBQ 160355Z AUTO 36015G22KT 10SM CLR 01/M04 A3013 890 69 -600 360/15G22 RMK AO2 SLP211 T00061044 TSNO
94908KDBQ DBQ20000315220011003/15/00 22:00:31  5-MIN KDBQ 160400Z AUTO 35016G20KT 10SM CLR 00/M04 A3013 880 72 -600 350/16G20 RMK AO2 TSNO
94908KDBQ DBQ20000315220511003/15/00 22:05:31  5-MIN KDBQ 160405Z AUTO 35015G21KT 10SM CLR 00/M04 A3013 880 72 -600 350/15G21 RMK AO2 TSNO
94908KDBQ DBQ20000315221011003/15/00 22:10:31  5-MIN KDBQ 160410Z AUTO 35015G21KT 10SM CLR 00/M05 A3013 880 69 -600 350/15G21 RMK AO2 TSNO
94908KDBQ DBQ20000315221510703/15/00 22:15:31  5-MIN KDBQ 160415Z AUTO 35013KT 10SM FEW024 00/M05 A3014 880 69 -600 350/13 RMK AO2 TSNO
94908KDBQ DBQ20000315222011403/15/00 22:20:31  5-MIN KDBQ 160420Z AUTO 36013G20KT 10SM FEW024 M01/M05 A3014 880 72 -700 350/13G20 RMK AO2 TSNO
94908KDBQ DBQ20000315222511403/15/00 22:25:31  5-MIN KDBQ 160425Z AUTO 35013G20KT 10SM FEW024 M01/M05 A3014 870 72 -700 350/13G20 RMK AO2 TSNO
94908KDBQ DBQ20000315223010803/15/00 22:30:31  5-MIN KDBQ 160430Z AUTO 35013KT 10SM SCT024 M01/M05 A3015 870 72 -700 350/13 RMK AO2 TSNO
94908KDBQ DBQ20000315223511403/15/00 22:35:31  5-MIN KDBQ 160435Z AUTO 35014G19KT 10SM BKN024 M01/M06 A3015 860 69 -700 350/14G19 RMK AO2 TSNO
94908KDBQ DBQ20000315224011403/15/00 22:40:31  5-MIN KDBQ 160440Z AUTO 35011G19KT 10SM BKN024 M01/M06 A3016 860 69 -700 350/11G19 RMK AO2 TSNO
94908KDBQ DBQ20000315224510803/15/00 22:45:31  5-MIN KDBQ 160445Z AUTO 35013KT 10SM BKN024 M01/M06 A3015 860 69 -700 350/13 RMK AO2 TSNO
94908KDBQ DBQ20000315225012503/15/00 22:50:31  5-MIN KDBQ 160450Z AUTO 35012KT 10SM OVC024 M01/M06 A3015 860 69 -700 350/12 RMK AO2 SLP220 T10061056 TSNO
94908KDBQ DBQ20000315225512503/15/00 22:55:31  5-MIN KDBQ 160455Z AUTO 35012KT 10SM OVC024 M01/M06 A3016 860 72 -800 350/12 RMK AO2 SLP221 T10111056 TSNO
94908KDBQ DBQ20000315230010803/15/00 23:00:31  5-MIN KDBQ 160500Z AUTO 35012KT 10SM OVC024 M01/M06 A3016 860 69 -700 350/12 RMK AO2 TSNO
94908KDBQ DBQ20000315230510803/15/00 23:05:31  5-MIN KDBQ 160505Z AUTO 35013KT 10SM OVC024 M01/M06 A3016 860 72 -800 350/13 RMK AO2 TSNO
94908KDBQ DBQ20000315231010803/15/00 23:10:31  5-MIN KDBQ 160510Z AUTO 36015KT 10SM OVC024 M01/M06 A3016 860 72 -800 360/15 RMK AO2 TSNO
94908KDBQ DBQ20000315231510803/15/00 23:15:31  5-MIN KDBQ 160515Z AUTO 36013KT 10SM OVC024 M01/M06 A3016 860 72 -800 360/13 RMK AO2 TSNO
94908KDBQ DBQ20000315232010803/15/00 23:20:31  5-MIN KDBQ 160520Z AUTO 36014KT 10SM OVC024 M01/M06 A3016 860 72 -800 360/14 RMK AO2 TSNO
94908KDBQ DBQ20000315232510803/15/00 23:25:31  5-MIN KDBQ 160525Z AUTO 36012KT 10SM OVC024 M01/M06 A3016 860 72 -800 350/12 RMK AO2 TSNO
94908KDBQ DBQ20000315233011403/15/00 23:30:31  5-MIN KDBQ 160530Z AUTO 36012G17KT 10SM OVC024 M01/M06 A3016 850 72 -800 360/12G17 RMK AO2 TSNO
94908KDBQ DBQ20000315233511403/15/00 23:35:31  5-MIN KDBQ 160535Z AUTO 36012G18KT 10SM OVC024 M01/M06 A3016 860 72 -800 360/12G18 RMK AO2 TSNO
94908KDBQ DBQ20000315234011403/15/00 23:40:31  5-MIN KDBQ 160540Z AUTO 36011G18KT 10SM OVC024 M01/M06 A3016 850 72 -800 360/11G18 RMK AO2 TSNO
94908KDBQ DBQ20000315234511403/15/00 23:45:31  5-MIN KDBQ 160545Z AUTO 36013G20KT 10SM OVC024 M01/M06 A3016 850 69 -800 360/13G20 RMK AO2 TSNO
94908KDBQ DBQ20000315235015903/15/00 23:50:31  5-MIN KDBQ 160550Z AUTO 36015G21KT 10SM BKN024 M02/M06 A3017 850 72 -900 360/15G21 RMK AO2 SLP225 T10171061 10056 21017 400891017 51039 TSNO
94908KDBQ DBQ20000315235515903/15/00 23:55:31  5-MIN KDBQ 160555Z AUTO 36012G21KT 10SM BKN024 M02/M06 A3017 850 72 -900 360/12G21 RMK AO2 SLP226 T10171061 10056 21017 400891017 51025 TSNO
94908KDBQ DBQ20000316000010803/16/00 00:00:31  5-MIN KDBQ 160600Z AUTO 36013KT 10SM SCT024 M02/M06 A3017 840 72 -900 360/13 RMK AO2 TSNO
94908KDBQ DBQ20000316000510803/16/00 00:05:31  5-MIN KDBQ 160605Z AUTO 36014KT 10SM FEW024 M02/M06 A3017 840 72 -900 360/14 RMK AO2 TSNO
94908KDBQ DBQ20000316001011403/16/00 00:10:31  5-MIN KDBQ 160610Z AUTO 01015G20KT 10SM FEW024 M02/M06 A3018 840 72 -900 010/15G20 RMK AO2 TSNO
94908KDBQ DBQ20000316001511403/16/00 00:15:31  5-MIN KDBQ 160615Z AUTO 01013G20KT 10SM FEW025 M02/M07 A3018 840 69 -900 360/13G20 RMK AO2 TSNO
94908KDBQ DBQ20000316002010803/16/00 00:20:31  5-MIN KDBQ 160620Z AUTO 36013KT 10SM SCT025 M02/M07 A3018 840 69 -900 360/13 RMK AO2 TSNO
94908KDBQ DBQ20000316002510803/16/00 00:25:31  5-MIN KDBQ 160625Z AUTO 01012KT 10SM BKN023 M02/M07 A3018 840 69 -900 360/12 RMK AO2 TSNO
94908KDBQ DBQ20000316003010803/16/00 00:30:31  5-MIN KDBQ 160630Z AUTO 36013KT 10SM BKN023 M02/M07 A3018 840 69 -900 360/13 RMK AO2 TSNO
94908KDBQ DBQ20000316003510803/16/00 00:35:31  5-MIN KDBQ 160635Z AUTO 36013KT 10SM BKN023 M02/M07 A3018 840 69 -900 360/13 RMK AO2 TSNO
94908KDBQ DBQ20000316004010903/16/00 00:40:31  5-MIN KDBQ 160640Z AUTO 01011KT 10SM BKN023 M02/M07 A3019 830 69 -1000 360/11 RMK AO2 TSNO
94908KDBQ DBQ20000316004511403/16/00 00:45:31  5-MIN KDBQ 160645Z AUTO 36013G21KT 10SM OVC023 M02/M07 A3019 830 66 -900 360/13G21 RMK AO2 TSNO
94908KDBQ DBQ20000316005013203/16/00 00:50:31  5-MIN KDBQ 160650Z AUTO 36012G21KT 10SM OVC023 M02/M07 A3019 830 69 -1000 360/12G21 RMK AO2 SLP235 T10221072 TSNO
94908KDBQ DBQ20000316005513203/16/00 00:55:31  5-MIN KDBQ 160655Z AUTO 01015G20KT 10SM BKN025 M02/M08 A3019 830 66 -1000 010/15G20 RMK AO2 SLP235 T10221078 TSNO
94908KDBQ DBQ20000316010011503/16/00 01:00:31  5-MIN KDBQ 160700Z AUTO 01012G20KT 10SM BKN025 M02/M08 A3019 830 66 -1000 010/12G20 RMK AO2 TSNO
94908KDBQ DBQ20000316010510903/16/00 01:05:31  5-MIN KDBQ 160705Z AUTO 01011KT 10SM BKN025 M02/M08 A3020 820 66 -1000 010/11 RMK AO2 TSNO
94908KDBQ DBQ20000316011011503/16/00 01:10:31  5-MIN KDBQ 160710Z AUTO 01013G18KT 10SM BKN025 M02/M08 A3020 820 66 -1000 010/13G18 RMK AO2 TSNO
94908KDBQ DBQ20000316011511503/16/00 01:15:31  5-MIN KDBQ 160715Z AUTO 01015G18KT 10SM SCT025 M02/M08 A3020 820 66 -1000 010/15G18 RMK AO2 TSNO
94908KDBQ DBQ20000316012010903/16/00 01:20:31  5-MIN KDBQ 160720Z AUTO 01013KT 10SM SCT025 M02/M08 A3020 820 66 -1000 010/13 RMK AO2 TSNO
94908KDBQ DBQ20000316012510903/16/00 01:25:31  5-MIN KDBQ 160725Z AUTO 01014KT 10SM FEW025 M02/M08 A3020 820 66 -1000 010/14 RMK AO2 TSNO
94908KDBQ DBQ20000316013010903/16/00 01:30:31  5-MIN KDBQ 160730Z AUTO 01012KT 10SM FEW025 M02/M08 A3020 820 66 -1000 010/12 RMK AO2 TSNO
94908KDBQ DBQ20000316013511503/16/00 01:35:31  5-MIN KDBQ 160735Z AUTO 01013G18KT 10SM FEW025 M02/M08 A3021 810 66 -1000 010/13G18 RMK AO2 TSNO
94908KDBQ DBQ20000316014011503/16/00 01:40:31  5-MIN KDBQ 160740Z AUTO 01013G18KT 10SM FEW025 M03/M08 A3020 820 68 -1100 360/13G18 RMK AO2 TSNO
94908KDBQ DBQ20000316014510603/16/00 01:45:31  5-MIN KDBQ 160745Z AUTO 01009KT 10SM CLR M03/M08 A3021 820 68 -1100 010/09 RMK AO2 TSNO
94908KDBQ DBQ20000316015012303/16/00 01:50:31  5-MIN KDBQ 160750Z AUTO 01011KT 10SM CLR M03/M08 A3020 820 68 -1100 010/11 RMK AO2 SLP239 T10281078 TSNO
94908KDBQ DBQ20000316015512303/16/00 01:55:31  5-MIN KDBQ 160755Z AUTO 01014KT 10SM CLR M03/M08 A3020 820 66 -1100 010/14 RMK AO2 SLP236 T10281083 TSNO
94908KDBQ DBQ20000316020010603/16/00 02:00:31  5-MIN KDBQ 160800Z AUTO 02016KT 10SM CLR M03/M08 A3020 820 66 -1100 020/16 RMK AO2 TSNO
94908KDBQ DBQ20000316020510603/16/00 02:05:31  5-MIN KDBQ 160805Z AUTO 01011KT 10SM CLR M03/M08 A3021 810 66 -1100 010/11 RMK AO2 TSNO
94908KDBQ DBQ20000316021010603/16/00 02:10:31  5-MIN KDBQ 160810Z AUTO 01013KT 10SM CLR M03/M08 A3021 810 66 -1100 010/13 RMK AO2 TSNO
94908KDBQ DBQ20000316021511203/16/00 02:15:31  5-MIN KDBQ 160815Z AUTO 01016G19KT 10SM CLR M03/M09 A3021 810 63 -1100 010/16G19 RMK AO2 TSNO
94908KDBQ DBQ20000316022010603/16/00 02:20:31  5-MIN KDBQ 160820Z AUTO 01012KT 10SM CLR M03/M08 A3021 810 66 -1100 010/12 RMK AO2 TSNO
94908KDBQ DBQ20000316022510603/16/00 02:25:31  5-MIN KDBQ 160825Z AUTO 01012KT 10SM CLR M03/M08 A3020 820 66 -1100 010/12 RMK AO2 TSNO
94908KDBQ DBQ20000316023011203/16/00 02:30:31  5-MIN KDBQ 160830Z AUTO 02012G19KT 10SM CLR M03/M08 A3021 820 66 -1100 010/12G19 RMK AO2 TSNO
94908KDBQ DBQ20000316023511203/16/00 02:35:31  5-MIN KDBQ 160835Z AUTO 02015G19KT 10SM CLR M03/M08 A3021 810 66 -1100 010/15G19 RMK AO2 TSNO
94908KDBQ DBQ20000316024011203/16/00 02:40:31  5-MIN KDBQ 160840Z AUTO 01012G19KT 10SM CLR M03/M08 A3020 820 66 -1100 010/12G19 RMK AO2 TSNO
94908KDBQ DBQ20000316024510603/16/00 02:45:31  5-MIN KDBQ 160845Z AUTO 01013KT 10SM CLR M03/M08 A3020 820 66 -1100 010/13 RMK AO2 TSNO
94908KDBQ DBQ20000316025012903/16/00 02:50:31  5-MIN KDBQ 160850Z AUTO 01013KT 10SM CLR M03/M08 A3020 820 66 -1100 010/13 RMK AO2 SLP238 T10281083 51025 TSNO
94908KDBQ DBQ20000316025512903/16/00 02:55:31  5-MIN KDBQ 160855Z AUTO 01014KT 10SM CLR M03/M08 A3020 820 66 -1100 010/14 RMK AO2 SLP238 T10281083 51010 TSNO
94908KDBQ DBQ20000316030010603/16/00 03:00:31  5-MIN KDBQ 160900Z AUTO 01015KT 10SM CLR M03/M08 A3020 820 66 -1100 010/15 RMK AO2 TSNO
94908KDBQ DBQ20000316030511203/16/00 03:05:31  5-MIN KDBQ 160905Z AUTO 01015G21KT 10SM CLR M03/M08 A3020 820 66 -1100 010/15G21 RMK AO2 TSNO
94908KDBQ DBQ20000316031011203/16/00 03:10:31  5-MIN KDBQ 160910Z AUTO 01015G21KT 10SM CLR M03/M08 A3019 830 68 -1100 010/15G21 RMK AO2 TSNO
94908KDBQ DBQ20000316031510603/16/00 03:15:31  5-MIN KDBQ 160915Z AUTO 01013KT 10SM CLR M03/M08 A3020 820 68 -1100 010/13 RMK AO2 TSNO
94908KDBQ DBQ20000316032010603/16/00 03:20:31  5-MIN KDBQ 160920Z AUTO 02011KT 10SM CLR M03/M08 A3020 820 68 -1100 020/11 RMK AO2 TSNO
94908KDBQ DBQ20000316032510603/16/00 03:25:31  5-MIN KDBQ 160925Z AUTO 01011KT 10SM CLR M03/M08 A3020 820 68 -1100 010/11 RMK AO2 TSNO
94908KDBQ DBQ20000316033010603/16/00 03:30:31  5-MIN KDBQ 160930Z AUTO 01012KT 10SM CLR M03/M08 A3020 820 68 -1100 010/12 RMK AO2 TSNO
94908KDBQ DBQ20000316033510603/16/00 03:35:31  5-MIN KDBQ 160935Z AUTO 02013KT 10SM CLR M03/M08 A3020 820 68 -1100 020/13 RMK AO2 TSNO
94908KDBQ DBQ20000316034010603/16/00 03:40:31  5-MIN KDBQ 160940Z AUTO 02011KT 10SM CLR M03/M08 A3021 820 68 -1100 020/11 RMK AO2 TSNO
94908KDBQ DBQ20000316034510603/16/00 03:45:31  5-MIN KDBQ 160945Z AUTO 02013KT 10SM CLR M03/M09 A3021 810 65 -1200 010/13 RMK AO2 TSNO
94908KDBQ DBQ20000316035012303/16/00 03:50:31  5-MIN KDBQ 160950Z AUTO 02012KT 10SM CLR M03/M09 A3021 810 65 -1200 020/12 RMK AO2 SLP239 T10331089 TSNO
94908KDBQ DBQ20000316035512303/16/00 03:55:31  5-MIN KDBQ 160955Z AUTO 02012KT 10SM CLR M03/M08 A3021 810 68 -1200 020/12 RMK AO2 SLP240 T10331083 TSNO
94908KDBQ DBQ20000316040010603/16/00 04:00:31  5-MIN KDBQ 161000Z AUTO 02011KT 10SM CLR M03/M08 A3021 810 68 -1200 020/11 RMK AO2 TSNO
94908KDBQ DBQ20000316040510603/16/00 04:05:31  5-MIN KDBQ 161005Z AUTO 01012KT 10SM CLR M03/M08 A3022 810 68 -1200 010/12 RMK AO2 TSNO
94908KDBQ DBQ20000316041010603/16/00 04:10:31  5-MIN KDBQ 161010Z AUTO 02011KT 10SM CLR M03/M08 A3021 810 68 -1200 020/11 RMK AO2 TSNO
94908KDBQ DBQ20000316041510603/16/00 04:15:31  5-MIN KDBQ 161015Z AUTO 02009KT 10SM CLR M04/M08 A3022 810 71 -1200 020/09 RMK AO2 TSNO
94908KDBQ DBQ20000316042010603/16/00 04:20:31  5-MIN KDBQ 161020Z AUTO 02013KT 10SM CLR M03/M09 A3022 810 65 -1200 010/13 RMK AO2 TSNO
94908KDBQ DBQ20000316042510603/16/00 04:25:31  5-MIN KDBQ 161025Z AUTO 01011KT 10SM CLR M04/M08 A3022 800 71 -1200 010/11 RMK AO2 TSNO
94908KDBQ DBQ20000316043010603/16/00 04:30:31  5-MIN KDBQ 161030Z AUTO 01011KT 10SM CLR M04/M09 A3022 800 68 -1200 010/11 RMK AO2 TSNO
94908KDBQ DBQ20000316043510603/16/00 04:35:31  5-MIN KDBQ 161035Z AUTO 01011KT 10SM CLR M04/M09 A3022 800 68 -1200 010/11 RMK AO2 TSNO
94908KDBQ DBQ20000316044010603/16/00 04:40:31  5-MIN KDBQ 161040Z AUTO 01012KT 10SM CLR M04/M09 A3023 800 68 -1200 010/12 RMK AO2 TSNO
94908KDBQ DBQ20000316044510603/16/00 04:45:31  5-MIN KDBQ 161045Z AUTO 02011KT 10SM CLR M04/M09 A3022 800 65 -1200 020/11 RMK AO2 TSNO
94908KDBQ DBQ20000316045012303/16/00 04:50:31  5-MIN KDBQ 161050Z AUTO 02012KT 10SM CLR M04/M09 A3022 800 65 -1200 010/12 RMK AO2 SLP246 T10391094 TSNO
94908KDBQ DBQ20000316045512303/16/00 04:55:31  5-MIN KDBQ 161055Z AUTO 01012KT 10SM CLR M04/M09 A3022 800 65 -1200 010/12 RMK AO2 SLP244 T10391094 TSNO
94908KDBQ DBQ20000316050010603/16/00 05:00:31  5-MIN KDBQ 161100Z AUTO 02012KT 10SM CLR M04/M10 A3022 800 63 -1200 020/12 RMK AO2 TSNO
94908KDBQ DBQ20000316050510603/16/00 05:05:31  5-MIN KDBQ 161105Z AUTO 02011KT 10SM CLR M04/M10 A3023 800 63 -1200 020/11 RMK AO2 TSNO
94908KDBQ DBQ20000316051010603/16/00 05:10:31  5-MIN KDBQ 161110Z AUTO 02011KT 10SM CLR M04/M10 A3023 790 63 -1200 020/11 RMK AO2 TSNO
94908KDBQ DBQ20000316051510603/16/00 05:15:31  5-MIN KDBQ 161115Z AUTO 02011KT 10SM CLR M04/M10 A3023 790 63 -1300 010/11 RMK AO2 TSNO
94908KDBQ DBQ20000316052010603/16/00 05:20:31  5-MIN KDBQ 161120Z AUTO 02010KT 10SM CLR M04/M10 A3023 790 63 -1300 020/10 RMK AO2 TSNO
94908KDBQ DBQ20000316052510603/16/00 05:25:31  5-MIN KDBQ 161125Z AUTO 02010KT 10SM CLR M04/M10 A3024 790 65 -1300 020/10 RMK AO2 TSNO
94908KDBQ DBQ20000316053010603/16/00 05:30:31  5-MIN KDBQ 161130Z AUTO 01011KT 10SM CLR M04/M10 A3024 790 65 -1300 010/11 RMK AO2 TSNO
94908KDBQ DBQ20000316053509603/16/00 05:35:31  5-MIN KDBQ 161135Z 01011KT 10SM CLR M04/M10 A3024 790 65 -1300 010/11 RMK AO2
94908KDBQ DBQ20000316054009603/16/00 05:40:31  5-MIN KDBQ 161140Z 02011KT 10SM CLR M04/M10 A3024 780 65 -1300 010/11 RMK AO2
94908KDBQ DBQ20000316054509603/16/00 05:45:31  5-MIN KDBQ 161145Z 01012KT 10SM CLR M04/M10 A3024 780 65 -1300 010/12 RMK AO2
94908KDBQ DBQ20000316055013703/16/00 05:50:31  5-MIN KDBQ 161150Z 01011KT 10SM CLR M04/M10 A3025 780 65 -1300 010/11 RMK AO2 SLP255 70020 T10441100 11017 21044 51010
94908KDBQ DBQ20000316055513703/16/00 05:55:31  5-MIN KDBQ 161155Z 01010KT 10SM CLR M04/M10 A3025 780 65 -1300 010/10 RMK AO2 SLP254 70020 T10441100 11017 21044 53014
94908KDBQ DBQ20000316060009603/16/00 06:00:31  5-MIN KDBQ 161200Z 01011KT 10SM CLR M04/M10 A3024 780 65 -1300 010/11 RMK AO2
94908KDBQ DBQ20000316060509603/16/00 06:05:31  5-MIN KDBQ 161205Z 02010KT 10SM CLR M04/M10 A3024 780 65 -1300 020/10 RMK AO2
94908KDBQ DBQ20000316061009603/16/00 06:10:31  5-MIN KDBQ 161210Z 02009KT 10SM CLR M04/M10 A3024 780 65 -1300 020/09 RMK AO2
94908KDBQ DBQ20000316061509603/16/00 06:15:31  5-MIN KDBQ 161215Z 02011KT 10SM CLR M05/M10 A3024 780 68 -1400 020/11 RMK AO2
94908KDBQ DBQ20000316062009603/16/00 06:20:31  5-MIN KDBQ 161220Z 01010KT 10SM CLR M05/M10 A3024 780 68 -1400 010/10 RMK AO2
94908KDBQ DBQ20000316062509603/16/00 06:25:31  5-MIN KDBQ 161225Z 01012KT 10SM CLR M05/M11 A3024 790 65 -1400 010/12 RMK AO2
94908KDBQ DBQ20000316063009603/16/00 06:30:31  5-MIN KDBQ 161230Z 02011KT 10SM CLR M05/M11 A3024 790 65 -1400 010/11 RMK AO2
94908KDBQ DBQ20000316063509603/16/00 06:35:31  5-MIN KDBQ 161235Z 02011KT 10SM CLR M05/M11 A3024 780 65 -1400 010/11 RMK AO2
94908KDBQ DBQ20000316064009603/16/00 06:40:31  5-MIN KDBQ 161240Z 02011KT 10SM CLR M04/M11 A3024 780 62 -1300 020/11 RMK AO2
94908KDBQ DBQ20000316064509603/16/00 06:45:31  5-MIN KDBQ 161245Z 02012KT 10SM CLR M04/M11 A3024 780 62 -1300 020/12 RMK AO2
94908KDBQ DBQ20000316065011303/16/00 06:50:31  5-MIN KDBQ 161250Z 02010KT 10SM CLR M04/M11 A3024 780 62 -1300 010/10 RMK AO2 SLP254 T10441106
94908KDBQ DBQ20000316065511303/16/00 06:55:31  5-MIN KDBQ 161255Z 02011KT 10SM CLR M04/M11 A3024 780 62 -1300 020/11 RMK AO2 SLP254 T10441106
94908KDBQ DBQ20000316070009603/16/00 07:00:31  5-MIN KDBQ 161300Z 02011KT 10SM CLR M04/M11 A3024 780 62 -1300 020/11 RMK AO2
94908KDBQ DBQ20000316070509603/16/00 07:05:31  5-MIN KDBQ 161305Z 02012KT 10SM CLR M04/M11 A3025 780 62 -1300 020/12 RMK AO2
94908KDBQ DBQ20000316071009603/16/00 07:10:31  5-MIN KDBQ 161310Z 02012KT 10SM CLR M04/M11 A3025 780 60 -1300 020/12 RMK AO2
94908KDBQ DBQ20000316071509603/16/00 07:15:31  5-MIN KDBQ 161315Z 02011KT 10SM CLR M04/M10 A3025 780 63 -1300 020/11 RMK AO2
94908KDBQ DBQ20000316072009603/16/00 07:20:31  5-MIN KDBQ 161320Z 02013KT 10SM CLR M04/M11 A3025 770 60 -1300 020/13 RMK AO2
94908KDBQ DBQ20000316072509603/16/00 07:25:31  5-MIN KDBQ 161325Z 02012KT 10SM CLR M04/M10 A3026 770 63 -1300 020/12 RMK AO2
94908KDBQ DBQ20000316073009603/16/00 07:30:31  5-MIN KDBQ 161330Z 02011KT 10SM CLR M04/M10 A3026 770 63 -1300 020/11 RMK AO2
94908KDBQ DBQ20000316073509603/16/00 07:35:31  5-MIN KDBQ 161335Z 02012KT 10SM CLR M04/M10 A3026 770 63 -1300 020/12 RMK AO2
94908KDBQ DBQ20000316074009603/16/00 07:40:31  5-MIN KDBQ 161340Z 02011KT 10SM CLR M04/M11 A3026 770 60 -1300 020/11 RMK AO2
94908KDBQ DBQ20000316074510203/16/00 07:45:31  5-MIN KDBQ 161345Z 02013G18KT 10SM CLR M03/M11 A3026 770 57 -1200 020/13G18 RMK AO2
94908KDBQ DBQ20000316075011303/16/00 07:50:31  5-MIN KDBQ 161350Z 02011KT 10SM CLR M03/M11 A3026 770 57 -1200 020/11 RMK AO2 SLP260 T10331106
94908KDBQ DBQ20000316075511303/16/00 07:55:31  5-MIN KDBQ 161355Z 02012KT 10SM CLR M03/M11 A3026 760 57 -1200 020/12 RMK AO2 SLP260 T10331106
94908KDBQ DBQ20000316080009603/16/00 08:00:31  5-MIN KDBQ 161400Z 02011KT 10SM CLR M03/M11 A3026 760 57 -1200 020/11 RMK AO2
94908KDBQ DBQ20000316080509603/16/00 08:05:31  5-MIN KDBQ 161405Z 01014KT 10SM CLR M03/M11 A3026 760 57 -1200 010/14 RMK AO2
94908KDBQ DBQ20000316081009603/16/00 08:10:31  5-MIN KDBQ 161410Z 01013KT 10SM CLR M03/M11 A3026 760 57 -1200 010/13 RMK AO2
94908KDBQ DBQ20000316081509603/16/00 08:15:31  5-MIN KDBQ 161415Z 02013KT 10SM CLR M03/M11 A3026 760 55 -1100 020/13 RMK AO2
94908KDBQ DBQ20000316082009603/16/00 08:20:31  5-MIN KDBQ 161420Z 02012KT 10SM CLR M03/M11 A3026 770 55 -1100 020/12 RMK AO2
94908KDBQ DBQ20000316082509603/16/00 08:25:31  5-MIN KDBQ 161425Z 01011KT 10SM CLR M03/M10 A3026 770 58 -1100 010/11 RMK AO2
94908KDBQ DBQ20000316083009603/16/00 08:30:31  5-MIN KDBQ 161430Z 02011KT 10SM CLR M03/M10 A3026 770 58 -1100 020/11 RMK AO2
94908KDBQ DBQ20000316083509603/16/00 08:35:31  5-MIN KDBQ 161435Z 02011KT 10SM CLR M03/M10 A3026 770 58 -1100 020/11 RMK AO2
94908KDBQ DBQ20000316084009603/16/00 08:40:31  5-MIN KDBQ 161440Z 02014KT 10SM CLR M03/M10 A3026 770 58 -1100 020/14 RMK AO2
94908KDBQ DBQ20000316084509603/16/00 08:45:31  5-MIN KDBQ 161445Z 02013KT 10SM CLR M03/M10 A3025 770 58 -1100 020/13 RMK AO2
94908KDBQ DBQ20000316085011903/16/00 08:50:31  5-MIN KDBQ 161450Z 01012KT 10SM CLR M03/M10 A3025 770 58 -1100 010/12 RMK AO2 SLP257 T10281100 53014
94908KDBQ DBQ20000316085511903/16/00 08:55:31  5-MIN KDBQ 161455Z 02013KT 10SM CLR M02/M10 A3025 770 55 -1100 020/13 RMK AO2 SLP258 T10221100 50003
94908KDBQ DBQ20000316090009603/16/00 09:00:31  5-MIN KDBQ 161500Z 01013KT 10SM CLR M02/M10 A3026 770 55 -1100 010/13 RMK AO2
94908KDBQ DBQ20000316090509603/16/00 09:05:31  5-MIN KDBQ 161505Z 04011KT 10SM CLR M02/M10 A3026 770 55 -1100 040/11 RMK AO2
94908KDBQ DBQ20000316091009603/16/00 09:10:31  5-MIN KDBQ 161510Z 02013KT 10SM CLR M02/M10 A3025 770 55 -1100 020/13 RMK AO2
94908KDBQ DBQ20000316091509603/16/00 09:15:31  5-MIN KDBQ 161515Z 03011KT 10SM CLR M02/M10 A3025 770 55 -1100 030/11 RMK AO2
94908KDBQ DBQ20000316092009603/16/00 09:20:31  5-MIN KDBQ 161520Z 02013KT 10SM CLR M02/M10 A3025 770 53 -1000 020/13 RMK AO2
94908KDBQ DBQ20000316092509603/16/00 09:25:31  5-MIN KDBQ 161525Z 01012KT 10SM CLR M02/M10 A3025 770 55 -1100 010/12 RMK AO2
94908KDBQ DBQ20000316093009603/16/00 09:30:31  5-MIN KDBQ 161530Z 03014KT 10SM CLR M02/M09 A3026 770 55 -1000 020/14 RMK AO2
94908KDBQ DBQ20000316093509603/16/00 09:35:31  5-MIN KDBQ 161535Z 03010KT 10SM CLR M02/M10 A3026 770 53 -1000 030/10 RMK AO2
94908KDBQ DBQ20000316094009503/16/00 09:40:31  5-MIN KDBQ 161540Z 01012KT 10SM CLR M01/M09 A3026 760 53 -900 360/12 RMK AO2
94908KDBQ DBQ20000316094509503/16/00 09:45:31  5-MIN KDBQ 161545Z 01013KT 10SM CLR M01/M10 A3026 760 51 -900 010/13 RMK AO2
94908KDBQ DBQ20000316095011303/16/00 09:50:31  5-MIN KDBQ 161550Z 02011KT 10SM CLR M02/M10 A3026 760 53 -1000 020/11 RMK AO2 SLP261 T10171100
94908KDBQ DBQ20000316095511803/16/00 09:55:31  5-MIN KDBQ 161555Z 01012G18KT 10SM CLR M01/M09 A3026 770 53 -900 010/12G18 RMK AO2 SLP258 T10111094
94908KDBQ DBQ20000316100010103/16/00 10:00:31  5-MIN KDBQ 161600Z 01011G18KT 10SM CLR M01/M10 A3025 770 51 -900 010/11G18 RMK AO2
94908KDBQ DBQ20000316100509503/16/00 10:05:31  5-MIN KDBQ 161605Z 36013KT 10SM CLR M01/M10 A3025 770 51 -900 360/13 RMK AO2
94908KDBQ DBQ20000316101009503/16/00 10:10:31  5-MIN KDBQ 161610Z 03013KT 10SM CLR M01/M10 A3025 770 51 -900 030/13 RMK AO2
94908KDBQ DBQ20000316101509503/16/00 10:15:31  5-MIN KDBQ 161615Z 02014KT 10SM CLR M01/M10 A3025 770 49 -900 010/14 RMK AO2
94908KDBQ DBQ20000316102009503/16/00 10:20:31  5-MIN KDBQ 161620Z 02012KT 10SM CLR M01/M10 A3025 770 49 -900 020/12 RMK AO2
94908KDBQ DBQ20000316102509503/16/00 10:25:31  5-MIN KDBQ 161625Z 02011KT 10SM CLR M01/M10 A3026 770 49 -900 020/11 RMK AO2
94908KDBQ DBQ20000316103009503/16/00 10:30:31  5-MIN KDBQ 161630Z 01012KT 10SM CLR M01/M11 A3026 770 47 -900 010/12 RMK AO2
94908KDBQ DBQ20000316103509503/16/00 10:35:31  5-MIN KDBQ 161635Z 36009KT 10SM CLR M01/M10 A3026 770 49 -900 360/09 RMK AO2
94908KDBQ DBQ20000316104009403/16/00 10:40:31  5-MIN KDBQ 161640Z 01010KT 10SM CLR 00/M09 A3026 770 49 -800 010/10 RMK AO2
94908KDBQ DBQ20000316104509403/16/00 10:45:31  5-MIN KDBQ 161645Z 01011KT 10SM CLR 00/M10 A3026 770 47 -800 010/11 RMK AO2
94908KDBQ DBQ20000316105011103/16/00 10:50:31  5-MIN KDBQ 161650Z 35012KT 10SM CLR 00/M11 A3026 770 45 -800 350/12 RMK AO2 SLP259 T00001106
94908KDBQ DBQ20000316105511103/16/00 10:55:31  5-MIN KDBQ 161655Z 36012KT 10SM CLR 00/M10 A3026 770 47 -800 360/12 RMK AO2 SLP259 T00001100
94908KDBQ DBQ20000316110010003/16/00 11:00:31  5-MIN KDBQ 161700Z 36012G17KT 10SM CLR 00/M11 A3026 770 45 -800 360/12G17 RMK AO2
94908KDBQ DBQ20000316110509503/16/00 11:05:31  5-MIN KDBQ 161705Z 02011KT 10SM CLR M01/M11 A3026 770 47 -900 020/11 RMK AO2
94908KDBQ DBQ20000316111009403/16/00 11:10:31  5-MIN KDBQ 161710Z 36011KT 10SM CLR 01/M11 A3026 770 43 -700 350/11 RMK AO2
94908KDBQ DBQ20000316111509403/16/00 11:15:31  5-MIN KDBQ 161715Z 36012KT 10SM CLR 00/M11 A3026 770 43 -800 360/12 RMK AO2
94908KDBQ DBQ20000316112009403/16/00 11:20:31  5-MIN KDBQ 161720Z 36010KT 10SM CLR 00/M11 A3026 770 43 -800 360/10 RMK AO2
94908KDBQ DBQ20000316112509403/16/00 11:25:31  5-MIN KDBQ 161725Z 02009KT 10SM CLR 01/M11 A3026 770 43 -700 020/09 RMK AO2
94908KDBQ DBQ20000316113009403/16/00 11:30:31  5-MIN KDBQ 161730Z 01011KT 10SM CLR 01/M11 A3026 770 43 -700 010/11 RMK AO2
94908KDBQ DBQ20000316113509403/16/00 11:35:31  5-MIN KDBQ 161735Z 01011KT 10SM CLR 01/M11 A3026 770 43 -700 010/11 RMK AO2
94908KDBQ DBQ20000316114009403/16/00 11:40:31  5-MIN KDBQ 161740Z 03009KT 10SM CLR 01/M11 A3025 770 41 -700 030/09 RMK AO2
94908KDBQ DBQ20000316114509403/16/00 11:45:31  5-MIN KDBQ 161745Z 36010KT 10SM CLR 01/M11 A3025 770 43 -700 360/10 RMK AO2
94908KDBQ DBQ20000316115012903/16/00 11:50:31  5-MIN KDBQ 161750Z 03010KT 10SM CLR 01/M10 A3025 770 45 -700 030/10 RMK AO2 SLP258 T00061100 10011 21050 50003
94908KDBQ DBQ20000316115512903/16/00 11:55:31  5-MIN KDBQ 161755Z 34009KT 10SM CLR 01/M11 A3025 770 41 -600 340/09 RMK AO2 SLP257 T00111106 10011 21050 58000
94908KDBQ DBQ20000316120009403/16/00 12:00:31  5-MIN KDBQ 161800Z 36008KT 10SM CLR 01/M11 A3025 770 41 -600 360/08 RMK AO2
94908KDBQ DBQ20000316120509403/16/00 12:05:31  5-MIN KDBQ 161805Z 03011KT 10SM CLR 01/M11 A3025 780 41 -600 030/11 RMK AO2
94908KDBQ DBQ20000316121009403/16/00 12:10:31  5-MIN KDBQ 161810Z 03011KT 10SM CLR 01/M11 A3025 780 41 -600 030/11 RMK AO2
94908KDBQ DBQ20000316121509403/16/00 12:15:31  5-MIN KDBQ 161815Z 02011KT 10SM CLR 01/M10 A3025 780 43 -600 010/11 RMK AO2
94908KDBQ DBQ20000316122009403/16/00 12:20:31  5-MIN KDBQ 161820Z 02010KT 10SM CLR 01/M11 A3024 780 41 -600 020/10 RMK AO2
94908KDBQ DBQ20000316122509403/16/00 12:25:31  5-MIN KDBQ 161825Z 02010KT 10SM CLR 01/M11 A3025 780 41 -600 020/10 RMK AO2
94908KDBQ DBQ20000316123009403/16/00 12:30:31  5-MIN KDBQ 161830Z 03010KT 10SM CLR 02/M11 A3024 780 40 -600 030/10 RMK AO2
94908KDBQ DBQ20000316123509403/16/00 12:35:31  5-MIN KDBQ 161835Z 02010KT 10SM CLR 01/M11 A3024 780 41 -600 020/10 RMK AO2
94908KDBQ DBQ20000316124009403/16/00 12:40:31  5-MIN KDBQ 161840Z 02012KT 10SM CLR 01/M11 A3023 790 41 -600 020/12 RMK AO2
94908KDBQ DBQ20000316124510003/16/00 12:45:31  5-MIN KDBQ 161845Z 03010G15KT 10SM CLR 02/M11 A3024 790 40 -600 030/10G15 RMK AO2
94908KDBQ DBQ20000316125011103/16/00 12:50:31  5-MIN KDBQ 161850Z 01008KT 10SM CLR 02/M11 A3023 790 38 -600 010/08 RMK AO2 SLP251 T00171111
94908KDBQ DBQ20000316125511103/16/00 12:55:31  5-MIN KDBQ 161855Z 02009KT 10SM CLR 01/M11 A3023 790 40 -600 020/09 RMK AO2 SLP251 T00111111
94908KDBQ DBQ20000316130009403/16/00 13:00:31  5-MIN KDBQ 161900Z 33009KT 10SM CLR 02/M11 A3023 790 38 -500 330/09 RMK AO2
94908KDBQ DBQ20000316130510003/16/00 13:05:31  5-MIN KDBQ 161905Z 36012G15KT 10SM CLR 02/M11 A3023 800 38 -500 360/12G15 RMK AO2
94908KDBQ DBQ20000316131010003/16/00 13:10:31  5-MIN KDBQ 161910Z 34011G15KT 10SM CLR 02/M11 A3023 800 37 -500 340/11G15 RMK AO2
94908KDBQ DBQ20000316131509403/16/00 13:15:31  5-MIN KDBQ 161915Z 35010KT 10SM CLR 02/M11 A3023 790 38 -500 350/10 RMK AO2
94908KDBQ DBQ20000316132009403/16/00 13:20:31  5-MIN KDBQ 161920Z 34010KT 10SM CLR 02/M11 A3022 800 38 -500 340/10 RMK AO2
94908KDBQ DBQ20000316132509403/16/00 13:25:31  5-MIN KDBQ 161925Z 34010KT 10SM CLR 02/M11 A3022 800 38 -500 340/10 RMK AO2
94908KDBQ DBQ20000316133009403/16/00 13:30:31  5-MIN KDBQ 161930Z 01011KT 10SM CLR 02/M11 A3022 810 37 -500 360/11 RMK AO2
94908KDBQ DBQ20000316133510003/16/00 13:35:31  5-MIN KDBQ 161935Z 36012G16KT 10SM CLR 02/M11 A3022 810 38 -500 360/12G16 RMK AO2
94908KDBQ DBQ20000316134010003/16/00 13:40:31  5-MIN KDBQ 161940Z 36010G16KT 10SM CLR 02/M11 A3021 810 37 -500 360/10G16 RMK AO2
94908KDBQ DBQ20000316134509403/16/00 13:45:31  5-MIN KDBQ 161945Z 35008KT 10SM CLR 02/M11 A3021 810 37 -500 350/08 RMK AO2
94908KDBQ DBQ20000316135011103/16/00 13:50:31  5-MIN KDBQ 161950Z 34009KT 10SM CLR 03/M11 A3021 810 35 -400 340/09 RMK AO2 SLP242 T00281111
94908KDBQ DBQ20000316135513303/16/00 13:55:31  5-MIN KDBQ 161955Z 34009G15KT 320V020 10SM CLR 02/M11 A3021 810 37 -500 340/09G15 320V020 RMK AO2 SLP241 T00221111
94908KDBQ DBQ20000316140010003/16/00 14:00:31  5-MIN KDBQ 162000Z 35008G15KT 10SM CLR 02/M12 A3021 820 33 -400 350/08G15 RMK AO2
94908KDBQ DBQ20000316140509403/16/00 14:05:31  5-MIN KDBQ 162005Z 35011KT 10SM CLR 03/M12 A3021 820 32 -400 350/11 RMK AO2
94908KDBQ DBQ20000316141009403/16/00 14:10:31  5-MIN KDBQ 162010Z 34009KT 10SM CLR 03/M12 A3020 820 34 -400 340/09 RMK AO2
94908KDBQ DBQ20000316141509403/16/00 14:15:31  5-MIN KDBQ 162015Z 35010KT 10SM CLR 03/M12 A3020 820 34 -400 350/10 RMK AO2
94908KDBQ DBQ20000316142011003/16/00 14:20:31  5-MIN KDBQ 162020Z 35007KT 320V030 10SM CLR 03/M12 A3020 820 34 -400 350/07 320V030 RMK AO2
94908KDBQ DBQ20000316142509403/16/00 14:25:31  5-MIN KDBQ 162025Z 02011KT 10SM CLR 03/M12 A3020 820 34 -400 020/11 RMK AO2
94908KDBQ DBQ20000316143009403/16/00 14:30:31  5-MIN KDBQ 162030Z 03009KT 10SM CLR 03/M12 A3020 820 32 -400 030/09 RMK AO2
94908KDBQ DBQ20000316143509403/16/00 14:35:31  5-MIN KDBQ 162035Z 01011KT 10SM CLR 03/M12 A3020 820 34 -400 360/11 RMK AO2
94908KDBQ DBQ20000316144011003/16/00 14:40:31  5-MIN KDBQ 162040Z 32007KT 290V360 10SM CLR 03/M12 A3020 820 32 -300 320/07 290V360 RMK AO2
94908KDBQ DBQ20000316144509403/16/00 14:45:31  5-MIN KDBQ 162045Z 36010KT 10SM CLR 03/M12 A3020 820 34 -400 360/10 RMK AO2
94908KDBQ DBQ20000316145012303/16/00 14:50:31  5-MIN KDBQ 162050Z VRB05G15KT 10SM CLR 03/M12 A3020 820 34 -400 VRB/05G15 RMK AO2 SLP239 T00281117 58000
94908KDBQ DBQ20000316145511703/16/00 14:55:31  5-MIN KDBQ 162055Z 35011KT 10SM CLR 03/M12 A3020 820 34 -400 350/11 RMK AO2 SLP239 T00281117 56018
94908KDBQ DBQ20000316150009403/16/00 15:00:31  5-MIN KDBQ 162100Z 33008KT 10SM CLR 02/M13 A3020 820 32 -400 330/08 RMK AO2
94908KDBQ DBQ20000316150509403/16/00 15:05:31  5-MIN KDBQ 162105Z 36010KT 10SM CLR 03/M13 A3020 820 31 -400 360/10 RMK AO2
94908KDBQ DBQ20000316151009403/16/00 15:10:31  5-MIN KDBQ 162110Z 36013KT 10SM CLR 03/M13 A3019 830 31 -400 360/13 RMK AO2
94908KDBQ DBQ20000316151509403/16/00 15:15:31  5-MIN KDBQ 162115Z 36008KT 10SM CLR 03/M13 A3019 830 31 -400 360/08 RMK AO2
94908KDBQ DBQ20000316152009403/16/00 15:20:31  5-MIN KDBQ 162120Z 34011KT 10SM CLR 03/M12 A3019 830 31 -300 340/11 RMK AO2
94908KDBQ DBQ20000316152509403/16/00 15:25:31  5-MIN KDBQ 162125Z 33009KT 10SM CLR 03/M13 A3019 830 30 -300 330/09 RMK AO2
94908KDBQ DBQ20000316153009403/16/00 15:30:31  5-MIN KDBQ 162130Z 35010KT 10SM CLR 03/M12 A3019 830 31 -300 350/10 RMK AO2
94908KDBQ DBQ20000316153509403/16/00 15:35:31  5-MIN KDBQ 162135Z 01008KT 10SM CLR 03/M13 A3019 830 28 -300 010/08 RMK AO2
94908KDBQ DBQ20000316154009403/16/00 15:40:31  5-MIN KDBQ 162140Z 35010KT 10SM CLR 03/M13 A3019 830 30 -300 350/10 RMK AO2
94908KDBQ DBQ20000316154509403/16/00 15:45:31  5-MIN KDBQ 162145Z 02012KT 10SM CLR 03/M12 A3019 830 31 -300 020/12 RMK AO2
94908KDBQ DBQ20000316155011103/16/00 15:50:31  5-MIN KDBQ 162150Z 02009KT 10SM CLR 03/M12 A3019 830 31 -300 010/09 RMK AO2 SLP235 T00331122
94908KDBQ DBQ20000316155511103/16/00 15:55:31  5-MIN KDBQ 162155Z 02010KT 10SM CLR 03/M12 A3019 830 31 -300 020/10 RMK AO2 SLP235 T00331122
94908KDBQ DBQ20000316160009403/16/00 16:00:31  5-MIN KDBQ 162200Z 02010KT 10SM CLR 03/M12 A3019 830 31 -300 010/10 RMK AO2
94908KDBQ DBQ20000316160509403/16/00 16:05:31  5-MIN KDBQ 162205Z 35011KT 10SM CLR 03/M12 A3019 830 31 -300 350/11 RMK AO2
94908KDBQ DBQ20000316161009403/16/00 16:10:31  5-MIN KDBQ 162210Z 36010KT 10SM CLR 03/M13 A3019 830 30 -300 360/10 RMK AO2
94908KDBQ DBQ20000316161509403/16/00 16:15:31  5-MIN KDBQ 162215Z 36008KT 10SM CLR 03/M12 A3019 830 31 -300 360/08 RMK AO2
94908KDBQ DBQ20000316162009403/16/00 16:20:31  5-MIN KDBQ 162220Z 36009KT 10SM CLR 03/M13 A3019 830 30 -300 360/09 RMK AO2
94908KDBQ DBQ20000316162511003/16/00 16:25:31  5-MIN KDBQ 162225Z 01008KT 340V040 10SM CLR 03/M12 A3019 830 31 -300 010/08 340V040 RMK AO2
94908KDBQ DBQ20000316163009403/16/00 16:30:31  5-MIN KDBQ 162230Z 01010KT 10SM CLR 03/M13 A3019 830 30 -300 010/10 RMK AO2
94908KDBQ DBQ20000316163509403/16/00 16:35:31  5-MIN KDBQ 162235Z 36010KT 10SM CLR 03/M13 A3019 830 30 -300 360/10 RMK AO2
94908KDBQ DBQ20000316164009403/16/00 16:40:31  5-MIN KDBQ 162240Z 36008KT 10SM CLR 03/M13 A3019 830 28 -300 360/08 RMK AO2
94908KDBQ DBQ20000316164509403/16/00 16:45:31  5-MIN KDBQ 162245Z 36009KT 10SM CLR 03/M13 A3019 830 29 -400 360/09 RMK AO2
94908KDBQ DBQ20000316165011103/16/00 16:50:31  5-MIN KDBQ 162250Z 34008KT 10SM CLR 03/M13 A3019 830 29 -400 340/08 RMK AO2 SLP237 T00281133
94908KDBQ DBQ20000316165511103/16/00 16:55:31  5-MIN KDBQ 162255Z 34007KT 10SM CLR 03/M13 A3019 830 30 -300 340/07 RMK AO2 SLP236 T00331128
94908KDBQ DBQ20000316170009403/16/00 17:00:31  5-MIN KDBQ 162300Z 35008KT 10SM CLR 03/M13 A3019 830 31 -400 350/08 RMK AO2
94908KDBQ DBQ20000316170509403/16/00 17:05:31  5-MIN KDBQ 162305Z 34010KT 10SM CLR 03/M13 A3019 830 31 -400 340/10 RMK AO2
94908KDBQ DBQ20000316171009403/16/00 17:10:31  5-MIN KDBQ 162310Z 36009KT 10SM CLR 03/M13 A3019 830 31 -400 360/09 RMK AO2
94908KDBQ DBQ20000316171509403/16/00 17:15:31  5-MIN KDBQ 162315Z 35007KT 10SM CLR 03/M13 A3020 820 31 -400 350/07 RMK AO2
94908KDBQ DBQ20000316172009403/16/00 17:20:31  5-MIN KDBQ 162320Z 33008KT 10SM CLR 03/M13 A3020 820 31 -400 330/08 RMK AO2
94908KDBQ DBQ20000316172509403/16/00 17:25:31  5-MIN KDBQ 162325Z 35008KT 10SM CLR 02/M13 A3020 820 31 -400 350/08 RMK AO2
94908KDBQ DBQ20000316173009403/16/00 17:30:31  5-MIN KDBQ 162330Z 33009KT 10SM CLR 02/M13 A3020 820 31 -400 330/09 RMK AO2
94908KDBQ DBQ20000316173509403/16/00 17:35:31  5-MIN KDBQ 162335Z 34008KT 10SM CLR 02/M13 A3020 820 31 -400 340/08 RMK AO2
94908KDBQ DBQ20000316174009403/16/00 17:40:31  5-MIN KDBQ 162340Z 34009KT 10SM CLR 02/M14 A3020 820 29 -400 340/09 RMK AO2
94908KDBQ DBQ20000316174509403/16/00 17:45:31  5-MIN KDBQ 162345Z 34009KT 10SM CLR 02/M14 A3021 810 30 -500 340/09 RMK AO2
94908KDBQ DBQ20000316175012903/16/00 17:50:31  5-MIN KDBQ 162350Z 34008KT 10SM CLR 02/M14 A3021 810 30 -500 340/08 RMK AO2 SLP243 T00171139 10033 20006 56018
94908KDBQ DBQ20000316175512903/16/00 17:55:31  5-MIN KDBQ 162355Z 34009KT 10SM CLR 02/M14 A3021 810 29 -500 340/09 RMK AO2 SLP244 T00171144 10033 20006 53004
94908KDBQ DBQ20000316180009403/16/00 18:00:31  5-MIN KDBQ 170000Z 34008KT 10SM CLR 01/M14 A3021 810 30 -600 340/08 RMK AO2
94908KDBQ DBQ20000316180509403/16/00 18:05:31  5-MIN KDBQ 170005Z 34007KT 10SM CLR 01/M14 A3021 810 30 -600 340/07 RMK AO2
94908KDBQ DBQ20000316181009403/16/00 18:10:31  5-MIN KDBQ 170010Z 33010KT 10SM CLR 01/M14 A3021 810 30 -600 330/10 RMK AO2
94908KDBQ DBQ20000316181509403/16/00 18:15:31  5-MIN KDBQ 170015Z 33008KT 10SM CLR 01/M14 A3022 810 30 -600 330/08 RMK AO2
94908KDBQ DBQ20000316182009403/16/00 18:20:31  5-MIN KDBQ 170020Z 34008KT 10SM CLR 01/M14 A3021 810 32 -700 340/08 RMK AO2
94908KDBQ DBQ20000316182509403/16/00 18:25:31  5-MIN KDBQ 170025Z 34007KT 10SM CLR 01/M15 A3022 810 30 -700 340/07 RMK AO2
94908KDBQ DBQ20000316183009403/16/00 18:30:31  5-MIN KDBQ 170030Z 34007KT 10SM CLR 01/M15 A3022 810 30 -700 340/07 RMK AO2
94908KDBQ DBQ20000316183509403/16/00 18:35:31  5-MIN KDBQ 170035Z 34007KT 10SM CLR 01/M15 A3022 800 30 -700 340/07 RMK AO2
94908KDBQ DBQ20000316184009403/16/00 18:40:31  5-MIN KDBQ 170040Z 34007KT 10SM CLR 01/M15 A3022 800 30 -700 340/07 RMK AO2
94908KDBQ DBQ20000316184509403/16/00 18:45:31  5-MIN KDBQ 170045Z 34009KT 10SM CLR 01/M15 A3022 800 30 -700 330/09 RMK AO2
94908KDBQ DBQ20000316185011103/16/00 18:50:31  5-MIN KDBQ 170050Z 33007KT 10SM CLR 00/M14 A3022 800 33 -700 330/07 RMK AO2 SLP248 T00001144
94908KDBQ DBQ20000316185511203/16/00 18:55:31  5-MIN KDBQ 170055Z 33008KT 10SM CLR M01/M14 A3022 800 37 -900 330/08 RMK AO2 SLP249 T10111139
94908KDBQ DBQ20000316190009503/16/00 19:00:31  5-MIN KDBQ 170100Z 33009KT 10SM CLR M01/M13 A3022 800 39 -800 330/09 RMK AO2
94908KDBQ DBQ20000316190509503/16/00 19:05:31  5-MIN KDBQ 170105Z 33009KT 10SM CLR M01/M13 A3022 800 39 -800 330/09 RMK AO2
94908KDBQ DBQ20000316191009503/16/00 19:10:31  5-MIN KDBQ 170110Z 33009KT 10SM CLR M01/M13 A3023 800 39 -800 330/09 RMK AO2
94908KDBQ DBQ20000316191509503/16/00 19:15:31  5-MIN KDBQ 170115Z 33008KT 10SM CLR M01/M12 A3023 800 43 -900 320/08 RMK AO2
94908KDBQ DBQ20000316192009503/16/00 19:20:31  5-MIN KDBQ 170120Z 33008KT 10SM CLR M01/M12 A3023 800 43 -900 330/08 RMK AO2
94908KDBQ DBQ20000316192509503/16/00 19:25:31  5-MIN KDBQ 170125Z 33008KT 10SM CLR M01/M12 A3023 790 43 -900 330/08 RMK AO2
94908KDBQ DBQ20000316193009503/16/00 19:30:31  5-MIN KDBQ 170130Z 33010KT 10SM CLR M01/M12 A3023 790 41 -800 330/10 RMK AO2
94908KDBQ DBQ20000316193509503/16/00 19:35:31  5-MIN KDBQ 170135Z 33008KT 10SM CLR M01/M12 A3024 790 41 -800 330/08 RMK AO2
94908KDBQ DBQ20000316194010503/16/00 19:40:31  5-MIN KDBQ 170140Z AUTO 33007KT 10SM CLR M01/M12 A3024 780 45 -900 330/07 RMK AO2 TSNO
94908KDBQ DBQ20000316194510503/16/00 19:45:31  5-MIN KDBQ 170145Z AUTO 33009KT 10SM CLR M01/M12 A3024 780 43 -900 330/09 RMK AO2 TSNO
94908KDBQ DBQ20000316195012203/16/00 19:50:31  5-MIN KDBQ 170150Z AUTO 33009KT 10SM CLR M01/M12 A3025 780 43 -900 330/09 RMK AO2 SLP257 T10111122 TSNO
94908KDBQ DBQ20000316195512303/16/00 19:55:31  5-MIN KDBQ 170155Z AUTO 33009KT 10SM CLR M02/M12 A3025 780 44 -1000 330/09 RMK AO2 SLP257 T10171122 TSNO
94908KDBQ DBQ20000316200010603/16/00 20:00:31  5-MIN KDBQ 170200Z AUTO 33009KT 10SM CLR M02/M12 A3025 770 44 -1000 330/09 RMK AO2 TSNO
94908KDBQ DBQ20000316200510603/16/00 20:05:31  5-MIN KDBQ 170205Z AUTO 33009KT 10SM CLR M02/M12 A3025 770 44 -1000 330/09 RMK AO2 TSNO
94908KDBQ DBQ20000316201010603/16/00 20:10:31  5-MIN KDBQ 170210Z AUTO 33009KT 10SM CLR M02/M13 A3025 770 42 -1000 330/09 RMK AO2 TSNO
94908KDBQ DBQ20000316201510603/16/00 20:15:31  5-MIN KDBQ 170215Z AUTO 33009KT 10SM CLR M02/M13 A3025 770 42 -1000 330/09 RMK AO2 TSNO
94908KDBQ DBQ20000316202010603/16/00 20:20:31  5-MIN KDBQ 170220Z AUTO 33008KT 10SM CLR M02/M13 A3025 770 44 -1100 330/08 RMK AO2 TSNO
94908KDBQ DBQ20000316202510603/16/00 20:25:31  5-MIN KDBQ 170225Z AUTO 33009KT 10SM CLR M02/M13 A3025 770 42 -1000 330/09 RMK AO2 TSNO
94908KDBQ DBQ20000316203010603/16/00 20:30:31  5-MIN KDBQ 170230Z AUTO 33008KT 10SM CLR M02/M13 A3026 770 41 -1000 330/08 RMK AO2 TSNO
94908KDBQ DBQ20000316203510603/16/00 20:35:31  5-MIN KDBQ 170235Z AUTO 33009KT 10SM CLR M02/M13 A3026 770 42 -1100 330/09 RMK AO2 TSNO
94908KDBQ DBQ20000316204010603/16/00 20:40:31  5-MIN KDBQ 170240Z AUTO 34009KT 10SM CLR M02/M13 A3026 770 41 -1000 340/09 RMK AO2 TSNO
94908KDBQ DBQ20000316204510603/16/00 20:45:31  5-MIN KDBQ 170245Z AUTO 33008KT 10SM CLR M02/M13 A3026 760 42 -1100 330/08 RMK AO2 TSNO
94908KDBQ DBQ20000316205012903/16/00 20:50:31  5-MIN KDBQ 170250Z AUTO 33008KT 10SM CLR M02/M13 A3027 760 42 -1100 330/08 RMK AO2 SLP263 T10221133 53004 TSNO
94908KDBQ DBQ20000316205512903/16/00 20:55:31  5-MIN KDBQ 170255Z AUTO 34008KT 10SM CLR M02/M13 A3027 760 42 -1100 340/08 RMK AO2 SLP265 T10221133 53019 TSNO
94908KDBQ DBQ20000316210010603/16/00 21:00:31  5-MIN KDBQ 170300Z AUTO 33007KT 10SM CLR M02/M13 A3027 750 42 -1100 330/07 RMK AO2 TSNO
94908KDBQ DBQ20000316210510603/16/00 21:05:31  5-MIN KDBQ 170305Z AUTO 34008KT 10SM CLR M02/M13 A3027 750 42 -1100 340/08 RMK AO2 TSNO
94908KDBQ DBQ20000316211010603/16/00 21:10:31  5-MIN KDBQ 170310Z AUTO 34007KT 10SM CLR M02/M13 A3027 750 42 -1100 340/07 RMK AO2 TSNO
94908KDBQ DBQ20000316211510603/16/00 21:15:31  5-MIN KDBQ 170315Z AUTO 34007KT 10SM CLR M02/M13 A3027 750 42 -1100 340/07 RMK AO2 TSNO
94908KDBQ DBQ20000316212010603/16/00 21:20:31  5-MIN KDBQ 170320Z AUTO 35006KT 10SM CLR M02/M13 A3028 750 42 -1100 350/06 RMK AO2 TSNO
94908KDBQ DBQ20000316212510603/16/00 21:25:31  5-MIN KDBQ 170325Z AUTO 35006KT 10SM CLR M02/M13 A3028 750 42 -1100 350/06 RMK AO2 TSNO
94908KDBQ DBQ20000316213010603/16/00 21:30:31  5-MIN KDBQ 170330Z AUTO 36005KT 10SM CLR M02/M13 A3028 750 42 -1100 360/05 RMK AO2 TSNO
94908KDBQ DBQ20000316213510603/16/00 21:35:31  5-MIN KDBQ 170335Z AUTO 36005KT 10SM CLR M03/M14 A3028 750 42 -1200 360/05 RMK AO2 TSNO
94908KDBQ DBQ20000316214010603/16/00 21:40:31  5-MIN KDBQ 170340Z AUTO 36005KT 10SM CLR M03/M14 A3028 750 42 -1200 360/05 RMK AO2 TSNO
94908KDBQ DBQ20000316214510603/16/00 21:45:31  5-MIN KDBQ 170345Z AUTO 36004KT 10SM CLR M03/M14 A3028 750 42 -1200 360/04 RMK AO2 TSNO
94908KDBQ DBQ20000316215012303/16/00 21:50:31  5-MIN KDBQ 170350Z AUTO 01004KT 10SM CLR M03/M14 A3029 740 42 -1200 010/04 RMK AO2 SLP270 T10281139 TSNO
94908KDBQ DBQ20000316215512303/16/00 21:55:31  5-MIN KDBQ 170355Z AUTO 36005KT 10SM CLR M03/M14 A3029 740 42 -1200 360/05 RMK AO2 SLP270 T10281139 TSNO
94908KDBQ DBQ20000316220010603/16/00 22:00:31  5-MIN KDBQ 170400Z AUTO 36004KT 10SM CLR M03/M14 A3029 740 42 -1200 360/04 RMK AO2 TSNO
94908KDBQ DBQ20000316220510603/16/00 22:05:31  5-MIN KDBQ 170405Z AUTO 36004KT 10SM CLR M03/M14 A3029 740 42 -1200 360/04 RMK AO2 TSNO
94908KDBQ DBQ20000316221010603/16/00 22:10:31  5-MIN KDBQ 170410Z AUTO 35004KT 10SM CLR M03/M14 A3029 740 42 -1200 350/04 RMK AO2 TSNO
94908KDBQ DBQ20000316221510603/16/00 22:15:31  5-MIN KDBQ 170415Z AUTO 35005KT 10SM CLR M03/M14 A3029 730 42 -1200 350/05 RMK AO2 TSNO
94908KDBQ DBQ20000316222010603/16/00 22:20:31  5-MIN KDBQ 170420Z AUTO 36005KT 10SM CLR M03/M14 A3030 730 42 -1200 360/05 RMK AO2 TSNO
94908KDBQ DBQ20000316222510603/16/00 22:25:31  5-MIN KDBQ 170425Z AUTO 35005KT 10SM CLR M03/M13 A3030 730 44 -1200 340/05 RMK AO2 TSNO
94908KDBQ DBQ20000316223010603/16/00 22:30:31  5-MIN KDBQ 170430Z AUTO 34004KT 10SM CLR M03/M13 A3030 730 46 -1300 340/04 RMK AO2 TSNO
94908KDBQ DBQ20000316223510603/16/00 22:35:31  5-MIN KDBQ 170435Z AUTO 35004KT 10SM CLR M03/M14 A3030 730 44 -1300 350/04 RMK AO2 TSNO
94908KDBQ DBQ20000316224010603/16/00 22:40:31  5-MIN KDBQ 170440Z AUTO 34005KT 10SM CLR M03/M14 A3031 720 44 -1300 340/05 RMK AO2 TSNO
94908KDBQ DBQ20000316224510603/16/00 22:45:31  5-MIN KDBQ 170445Z AUTO 34006KT 10SM CLR M03/M14 A3030 730 44 -1300 340/06 RMK AO2 TSNO
94908KDBQ DBQ20000316225012303/16/00 22:50:31  5-MIN KDBQ 170450Z AUTO 35005KT 10SM CLR M03/M14 A3030 720 44 -1300 350/05 RMK AO2 SLP277 T10331139 TSNO
94908KDBQ DBQ20000316225512303/16/00 22:55:31  5-MIN KDBQ 170455Z AUTO 35004KT 10SM CLR M03/M14 A3030 730 44 -1300 350/04 RMK AO2 SLP276 T10331139 TSNO
94908KDBQ DBQ20000316230010603/16/00 23:00:31  5-MIN KDBQ 170500Z AUTO 36003KT 10SM CLR M03/M14 A3031 720 44 -1300 360/03 RMK AO2 TSNO
94908KDBQ DBQ20000316230510603/16/00 23:05:31  5-MIN KDBQ 170505Z AUTO 36004KT 10SM CLR M03/M14 A3031 720 44 -1300 360/04 RMK AO2 TSNO
94908KDBQ DBQ20000316231010603/16/00 23:10:31  5-MIN KDBQ 170510Z AUTO 34006KT 10SM CLR M03/M14 A3031 720 44 -1300 340/06 RMK AO2 TSNO
94908KDBQ DBQ20000316231510603/16/00 23:15:31  5-MIN KDBQ 170515Z AUTO 34006KT 10SM CLR M04/M14 A3031 720 46 -1300 340/06 RMK AO2 TSNO
94908KDBQ DBQ20000316232010903/16/00 23:20:31  5-MIN KDBQ 170520Z AUTO 34006KT 10SM FEW120 M03/M14 A3031 720 44 -1300 340/06 RMK AO2 TSNO
94908KDBQ DBQ20000316232510903/16/00 23:25:31  5-MIN KDBQ 170525Z AUTO 34006KT 10SM FEW120 M03/M14 A3032 720 44 -1300 340/06 RMK AO2 TSNO
94908KDBQ DBQ20000316233010903/16/00 23:30:31  5-MIN KDBQ 170530Z AUTO 34007KT 10SM SCT120 M04/M14 A3032 710 46 -1400 340/07 RMK AO2 TSNO
94908KDBQ DBQ20000316233510903/16/00 23:35:31  5-MIN KDBQ 170535Z AUTO 34008KT 10SM FEW120 M03/M14 A3032 710 44 -1300 340/08 RMK AO2 TSNO
94908KDBQ DBQ20000316234010903/16/00 23:40:31  5-MIN KDBQ 170540Z AUTO 34007KT 10SM FEW120 M03/M14 A3032 710 44 -1300 340/07 RMK AO2 TSNO
94908KDBQ DBQ20000316234510903/16/00 23:45:31  5-MIN KDBQ 170545Z AUTO 35008KT 10SM FEW120 M03/M14 A3032 710 44 -1300 340/08 RMK AO2 TSNO
94908KDBQ DBQ20000316235015403/16/00 23:50:31  5-MIN KDBQ 170550Z AUTO 34008KT 10SM FEW120 M03/M14 A3032 710 44 -1300 340/08 RMK AO2 SLP281 T10331139 10017 21039 400331050 53019 TSNO
94908KDBQ DBQ20000316235515403/16/00 23:55:31  5-MIN KDBQ 170555Z AUTO 35007KT 10SM FEW120 M03/M14 A3032 710 44 -1300 350/07 RMK AO2 SLP282 T10331139 10017 21039 400331050 53017 TSNO
94908KDBQ DBQ20000317000010603/17/00 00:00:31  5-MIN KDBQ 170600Z AUTO 35006KT 10SM CLR M04/M14 A3032 710 46 -1400 350/06 RMK AO2 TSNO
94908KDBQ DBQ20000317000510603/17/00 00:05:31  5-MIN KDBQ 170605Z AUTO 36006KT 10SM CLR M03/M14 A3032 710 42 -1300 360/06 RMK AO2 TSNO
94908KDBQ DBQ20000317001010603/17/00 00:10:31  5-MIN KDBQ 170610Z AUTO 36005KT 10SM CLR M03/M14 A3032 710 42 -1300 360/05 RMK AO2 TSNO
94908KDBQ DBQ20000317001510603/17/00 00:15:31  5-MIN KDBQ 170615Z AUTO 36005KT 10SM CLR M03/M14 A3032 710 42 -1300 360/05 RMK AO2 TSNO
94908KDBQ DBQ20000317002010603/17/00 00:20:31  5-MIN KDBQ 170620Z AUTO 36006KT 10SM CLR M03/M14 A3032 710 42 -1300 360/06 RMK AO2 TSNO
94908KDBQ DBQ20000317002510603/17/00 00:25:31  5-MIN KDBQ 170625Z AUTO 35005KT 10SM CLR M04/M14 A3033 710 44 -1400 350/05 RMK AO2 TSNO
94908KDBQ DBQ20000317003010603/17/00 00:30:31  5-MIN KDBQ 170630Z AUTO 36005KT 10SM CLR M04/M14 A3033 710 44 -1400 360/05 RMK AO2 TSNO
94908KDBQ DBQ20000317003510603/17/00 00:35:31  5-MIN KDBQ 170635Z AUTO 36006KT 10SM CLR M04/M14 A3033 700 44 -1400 350/06 RMK AO2 TSNO
94908KDBQ DBQ20000317004010603/17/00 00:40:31  5-MIN KDBQ 170640Z AUTO 35006KT 10SM CLR M04/M14 A3033 700 44 -1400 350/06 RMK AO2 TSNO
94908KDBQ DBQ20000317004510603/17/00 00:45:31  5-MIN KDBQ 170645Z AUTO 35006KT 10SM CLR M04/M14 A3033 700 44 -1400 350/06 RMK AO2 TSNO
94908KDBQ DBQ20000317005012303/17/00 00:50:31  5-MIN KDBQ 170650Z AUTO 35007KT 10SM CLR M04/M14 A3033 700 44 -1400 350/07 RMK AO2 SLP285 T10391144 TSNO
94908KDBQ DBQ20000317005512303/17/00 00:55:31  5-MIN KDBQ 170655Z AUTO 35007KT 10SM CLR M04/M14 A3033 700 44 -1400 350/07 RMK AO2 SLP286 T10391144 TSNO
94908KDBQ DBQ20000317010010603/17/00 01:00:31  5-MIN KDBQ 170700Z AUTO 35007KT 10SM CLR M04/M14 A3034 700 44 -1400 350/07 RMK AO2 TSNO
94908KDBQ DBQ20000317010510603/17/00 01:05:31  5-MIN KDBQ 170705Z AUTO 35007KT 10SM CLR M04/M14 A3034 690 44 -1400 350/07 RMK AO2 TSNO
94908KDBQ DBQ20000317011010603/17/00 01:10:31  5-MIN KDBQ 170710Z AUTO 35006KT 10SM CLR M04/M14 A3034 690 44 -1400 350/06 RMK AO2 TSNO
94908KDBQ DBQ20000317011510603/17/00 01:15:31  5-MIN KDBQ 170715Z AUTO 35006KT 10SM CLR M04/M14 A3034 690 44 -1400 350/06 RMK AO2 TSNO
94908KDBQ DBQ20000317012010603/17/00 01:20:31  5-MIN KDBQ 170720Z AUTO 35007KT 10SM CLR M04/M14 A3034 690 44 -1400 350/07 RMK AO2 TSNO
94908KDBQ DBQ20000317012510603/17/00 01:25:31  5-MIN KDBQ 170725Z AUTO 35006KT 10SM CLR M04/M14 A3034 690 44 -1400 350/06 RMK AO2 TSNO
94908KDBQ DBQ20000317013010603/17/00 01:30:31  5-MIN KDBQ 170730Z AUTO 35006KT 10SM CLR M04/M14 A3034 690 46 -1500 350/06 RMK AO2 TSNO
94908KDBQ DBQ20000317013510603/17/00 01:35:31  5-MIN KDBQ 170735Z AUTO 35006KT 10SM CLR M04/M14 A3035 690 44 -1400 350/06 RMK AO2 TSNO
94908KDBQ DBQ20000317014010603/17/00 01:40:31  5-MIN KDBQ 170740Z AUTO 35006KT 10SM CLR M04/M14 A3035 690 44 -1400 350/06 RMK AO2 TSNO
94908KDBQ DBQ20000317014510603/17/00 01:45:31  5-MIN KDBQ 170745Z AUTO 35006KT 10SM CLR M04/M14 A3035 690 46 -1500 350/06 RMK AO2 TSNO
94908KDBQ DBQ20000317015012303/17/00 01:50:31  5-MIN KDBQ 170750Z AUTO 35006KT 10SM CLR M04/M14 A3035 680 46 -1500 350/06 RMK AO2 SLP291 T10441144 TSNO
94908KDBQ DBQ20000317015512303/17/00 01:55:31  5-MIN KDBQ 170755Z AUTO 35007KT 10SM CLR M04/M14 A3035 680 46 -1500 350/07 RMK AO2 SLP291 T10441144 TSNO
94908KDBQ DBQ20000317020010603/17/00 02:00:31  5-MIN KDBQ 170800Z AUTO 35006KT 10SM CLR M04/M14 A3035 680 46 -1500 350/06 RMK AO2 TSNO
94908KDBQ DBQ20000317020510603/17/00 02:05:31  5-MIN KDBQ 170805Z AUTO 36006KT 10SM CLR M04/M14 A3035 680 46 -1500 360/06 RMK AO2 TSNO
94908KDBQ DBQ20000317021010603/17/00 02:10:31  5-MIN KDBQ 170810Z AUTO 36006KT 10SM CLR M04/M14 A3035 680 46 -1500 360/06 RMK AO2 TSNO
94908KDBQ DBQ20000317021510603/17/00 02:15:31  5-MIN KDBQ 170815Z AUTO 36006KT 10SM CLR M04/M14 A3035 680 46 -1500 360/06 RMK AO2 TSNO
94908KDBQ DBQ20000317022010603/17/00 02:20:31  5-MIN KDBQ 170820Z AUTO 35006KT 10SM CLR M05/M14 A3035 680 48 -1500 350/06 RMK AO2 TSNO
94908KDBQ DBQ20000317022510603/17/00 02:25:31  5-MIN KDBQ 170825Z AUTO 34006KT 10SM CLR M05/M15 A3036 680 46 -1500 340/06 RMK AO2 TSNO
94908KDBQ DBQ20000317023010603/17/00 02:30:31  5-MIN KDBQ 170830Z AUTO 35007KT 10SM CLR M05/M14 A3036 680 48 -1500 350/07 RMK AO2 TSNO
94908KDBQ DBQ20000317023510603/17/00 02:35:31  5-MIN KDBQ 170835Z AUTO 35007KT 10SM CLR M05/M14 A3036 680 48 -1500 350/07 RMK AO2 TSNO
94908KDBQ DBQ20000317024010603/17/00 02:40:31  5-MIN KDBQ 170840Z AUTO 35007KT 10SM CLR M05/M14 A3036 680 48 -1500 350/07 RMK AO2 TSNO
94908KDBQ DBQ20000317024510603/17/00 02:45:31  5-MIN KDBQ 170845Z AUTO 35006KT 10SM CLR M05/M14 A3036 680 48 -1500 350/06 RMK AO2 TSNO
94908KDBQ DBQ20000317025012903/17/00 02:50:31  5-MIN KDBQ 170850Z AUTO 36006KT 10SM CLR M05/M14 A3036 680 48 -1500 360/06 RMK AO2 SLP294 T10501144 53017 TSNO
94908KDBQ DBQ20000317025512903/17/00 02:55:31  5-MIN KDBQ 170855Z AUTO 36006KT 10SM CLR M05/M14 A3036 680 48 -1500 360/06 RMK AO2 SLP294 T10501144 51012 TSNO
94908KDBQ DBQ20000317030010603/17/00 03:00:31  5-MIN KDBQ 170900Z AUTO 35006KT 10SM CLR M05/M14 A3036 680 48 -1500 350/06 RMK AO2 TSNO
94908KDBQ DBQ20000317030510603/17/00 03:05:31  5-MIN KDBQ 170905Z AUTO 36005KT 10SM CLR M05/M14 A3036 670 48 -1500 360/05 RMK AO2 TSNO
94908KDBQ DBQ20000317031010603/17/00 03:10:31  5-MIN KDBQ 170910Z AUTO 35006KT 10SM CLR M05/M14 A3036 680 48 -1500 350/06 RMK AO2 TSNO
94908KDBQ DBQ20000317031510603/17/00 03:15:31  5-MIN KDBQ 170915Z AUTO 36007KT 10SM CLR M05/M14 A3036 670 48 -1500 360/07 RMK AO2 TSNO
94908KDBQ DBQ20000317032010603/17/00 03:20:31  5-MIN KDBQ 170920Z AUTO 36006KT 10SM CLR M05/M14 A3036 670 48 -1500 360/06 RMK AO2 TSNO
94908KDBQ DBQ20000317032510603/17/00 03:25:31  5-MIN KDBQ 170925Z AUTO 01009KT 10SM CLR M05/M14 A3036 670 48 -1500 010/09 RMK AO2 TSNO
94908KDBQ DBQ20000317033010603/17/00 03:30:31  5-MIN KDBQ 170930Z AUTO 01006KT 10SM CLR M06/M14 A3037 670 50 -1600 010/06 RMK AO2 TSNO
94908KDBQ DBQ20000317033510603/17/00 03:35:31  5-MIN KDBQ 170935Z AUTO 01007KT 10SM CLR M06/M14 A3037 670 50 -1600 010/07 RMK AO2 TSNO
94908KDBQ DBQ20000317034010603/17/00 03:40:31  5-MIN KDBQ 170940Z AUTO 36006KT 10SM CLR M06/M14 A3037 660 50 -1600 360/06 RMK AO2 TSNO
94908KDBQ DBQ20000317034510603/17/00 03:45:31  5-MIN KDBQ 170945Z AUTO 01009KT 10SM CLR M06/M14 A3037 660 50 -1600 010/09 RMK AO2 TSNO
94908KDBQ DBQ20000317035012303/17/00 03:50:31  5-MIN KDBQ 170950Z AUTO 01009KT 10SM CLR M05/M14 A3037 660 50 -1600 010/09 RMK AO2 SLP299 T10501139 TSNO
94908KDBQ DBQ20000317035512303/17/00 03:55:31  5-MIN KDBQ 170955Z AUTO 01009KT 10SM CLR M05/M14 A3038 660 50 -1600 010/09 RMK AO2 SLP301 T10501139 TSNO
94908KDBQ DBQ20000317040010603/17/00 04:00:31  5-MIN KDBQ 171000Z AUTO 36007KT 10SM CLR M05/M14 A3038 650 50 -1600 360/07 RMK AO2 TSNO
94908KDBQ DBQ20000317040510603/17/00 04:05:31  5-MIN KDBQ 171005Z AUTO 36008KT 10SM CLR M05/M14 A3039 650 50 -1600 360/08 RMK AO2 TSNO
94908KDBQ DBQ20000317041010603/17/00 04:10:31  5-MIN KDBQ 171010Z AUTO 36008KT 10SM CLR M06/M14 A3039 650 50 -1600 360/08 RMK AO2 TSNO
94908KDBQ DBQ20000317041510603/17/00 04:15:31  5-MIN KDBQ 171015Z AUTO 01007KT 10SM CLR M06/M14 A3039 650 52 -1600 010/07 RMK AO2 TSNO
94908KDBQ DBQ20000317042010603/17/00 04:20:31  5-MIN KDBQ 171020Z AUTO 36006KT 10SM CLR M06/M14 A3039 650 52 -1600 360/06 RMK AO2 TSNO
94908KDBQ DBQ20000317042510603/17/00 04:25:31  5-MIN KDBQ 171025Z AUTO 01008KT 10SM CLR M06/M14 A3039 640 52 -1600 010/08 RMK AO2 TSNO
94908KDBQ DBQ20000317043010603/17/00 04:30:31  5-MIN KDBQ 171030Z AUTO 01008KT 10SM CLR M06/M14 A3039 640 52 -1700 010/08 RMK AO2 TSNO
94908KDBQ DBQ20000317043510603/17/00 04:35:31  5-MIN KDBQ 171035Z AUTO 01007KT 10SM CLR M06/M14 A3040 640 52 -1700 010/07 RMK AO2 TSNO
94908KDBQ DBQ20000317044010603/17/00 04:40:31  5-MIN KDBQ 171040Z AUTO 01007KT 10SM CLR M06/M14 A3040 640 52 -1700 010/07 RMK AO2 TSNO
94908KDBQ DBQ20000317044510603/17/00 04:45:31  5-MIN KDBQ 171045Z AUTO 02007KT 10SM CLR M06/M13 A3040 640 57 -1700 020/07 RMK AO2 TSNO
94908KDBQ DBQ20000317045012303/17/00 04:50:31  5-MIN KDBQ 171050Z AUTO 01007KT 10SM CLR M06/M13 A3040 640 57 -1700 010/07 RMK AO2 SLP309 T10611133 TSNO
94908KDBQ DBQ20000317045512303/17/00 04:55:31  5-MIN KDBQ 171055Z AUTO 01008KT 10SM CLR M06/M13 A3040 640 57 -1700 010/08 RMK AO2 SLP308 T10611133 TSNO
94908KDBQ DBQ20000317050010603/17/00 05:00:31  5-MIN KDBQ 171100Z AUTO 01008KT 10SM CLR M06/M13 A3040 640 57 -1700 010/08 RMK AO2 TSNO
94908KDBQ DBQ20000317050510603/17/00 05:05:31  5-MIN KDBQ 171105Z AUTO 02009KT 10SM CLR M06/M13 A3040 640 57 -1700 020/09 RMK AO2 TSNO
94908KDBQ DBQ20000317051010603/17/00 05:10:31  5-MIN KDBQ 171110Z AUTO 02008KT 10SM CLR M06/M13 A3040 640 59 -1700 010/08 RMK AO2 TSNO
94908KDBQ DBQ20000317051510603/17/00 05:15:31  5-MIN KDBQ 171115Z AUTO 01010KT 10SM CLR M06/M13 A3040 630 57 -1700 010/10 RMK AO2 TSNO
94908KDBQ DBQ20000317052010603/17/00 05:20:31  5-MIN KDBQ 171120Z AUTO 02010KT 10SM CLR M06/M13 A3040 640 57 -1700 020/10 RMK AO2 TSNO
94908KDBQ DBQ20000317052510603/17/00 05:25:31  5-MIN KDBQ 171125Z AUTO 02009KT 10SM CLR M06/M13 A3041 630 57 -1700 020/09 RMK AO2 TSNO
94908KDBQ DBQ20000317053010603/17/00 05:30:31  5-MIN KDBQ 171130Z AUTO 02008KT 10SM CLR M06/M13 A3041 630 57 -1700 020/08 RMK AO2 TSNO
94908KDBQ DBQ20000317053510603/17/00 05:35:31  5-MIN KDBQ 171135Z AUTO 02009KT 10SM CLR M06/M13 A3041 630 57 -1700 020/09 RMK AO2 TSNO
94908KDBQ DBQ20000317054010603/17/00 05:40:31  5-MIN KDBQ 171140Z AUTO 02007KT 10SM CLR M06/M13 A3041 630 57 -1700 020/07 RMK AO2 TSNO
94908KDBQ DBQ20000317054510603/17/00 05:45:31  5-MIN KDBQ 171145Z AUTO 03009KT 10SM CLR M06/M13 A3041 630 57 -1700 020/09 RMK AO2 TSNO
94908KDBQ DBQ20000317055013103/17/00 05:50:31  5-MIN KDBQ 171150Z 02009KT 10SM CLR M06/M13 A3041 630 59 -1700 020/09 RMK AO2 SLP314 T10611128 11033 21061 51012
94908KDBQ DBQ20000317055513103/17/00 05:55:31  5-MIN KDBQ 171155Z 03010KT 10SM CLR M06/M13 A3041 630 59 -1700 030/10 RMK AO2 SLP312 T10611128 11033 21061 51017
94908KDBQ DBQ20000317060009603/17/00 06:00:31  5-MIN KDBQ 171200Z 03010KT 10SM CLR M06/M13 A3041 630 59 -1700 030/10 RMK AO2
94908KDBQ DBQ20000317060509603/17/00 06:05:31  5-MIN KDBQ 171205Z 03013KT 10SM CLR M06/M13 A3041 630 59 -1700 030/13 RMK AO2
94908KDBQ DBQ20000317061009603/17/00 06:10:31  5-MIN KDBQ 171210Z 03012KT 10SM CLR M06/M13 A3041 630 59 -1700 030/12 RMK AO2
94908KDBQ DBQ20000317061509603/17/00 06:15:31  5-MIN KDBQ 171215Z 03010KT 10SM CLR M06/M13 A3041 630 59 -1700 030/10 RMK AO2
94908KDBQ DBQ20000317062009603/17/00 06:20:31  5-MIN KDBQ 171220Z 03009KT 10SM CLR M06/M13 A3041 630 59 -1700 030/09 RMK AO2
94908KDBQ DBQ20000317062509603/17/00 06:25:31  5-MIN KDBQ 171225Z 04010KT 10SM CLR M06/M13 A3041 620 59 -1700 030/10 RMK AO2
94908KDBQ DBQ20000317063009603/17/00 06:30:31  5-MIN KDBQ 171230Z 03008KT 10SM CLR M07/M13 A3042 620 62 -1800 030/08 RMK AO2
94908KDBQ DBQ20000317063509603/17/00 06:35:31  5-MIN KDBQ 171235Z 02008KT 10SM CLR M07/M12 A3042 620 65 -1800 020/08 RMK AO2
94908KDBQ DBQ20000317064009603/17/00 06:40:31  5-MIN KDBQ 171240Z 03009KT 10SM CLR M06/M12 A3042 620 62 -1800 030/09 RMK AO2
94908KDBQ DBQ20000317064509603/17/00 06:45:31  5-MIN KDBQ 171245Z 02007KT 10SM CLR M07/M12 A3043 610 65 -1800 020/07 RMK AO2
94908KDBQ DBQ20000317065011303/17/00 06:50:31  5-MIN KDBQ 171250Z 02008KT 10SM CLR M06/M12 A3043 610 62 -1800 020/08 RMK AO2 SLP321 T10611122
94908KDBQ DBQ20000317065511303/17/00 06:55:31  5-MIN KDBQ 171255Z 02009KT 10SM CLR M06/M12 A3043 610 65 -1800 020/09 RMK AO2 SLP320 T10611117
94908KDBQ DBQ20000317070009603/17/00 07:00:31  5-MIN KDBQ 171300Z 03008KT 10SM CLR M06/M12 A3043 610 65 -1800 030/08 RMK AO2
94908KDBQ DBQ20000317070509603/17/00 07:05:31  5-MIN KDBQ 171305Z 03008KT 10SM CLR M06/M12 A3044 600 62 -1700 030/08 RMK AO2
94908KDBQ DBQ20000317071009603/17/00 07:10:31  5-MIN KDBQ 171310Z 03007KT 10SM CLR M06/M12 A3044 600 62 -1700 030/07 RMK AO2
94908KDBQ DBQ20000317071509603/17/00 07:15:31  5-MIN KDBQ 171315Z 04007KT 10SM CLR M06/M11 A3044 600 65 -1700 040/07 RMK AO2
94908KDBQ DBQ20000317072009603/17/00 07:20:31  5-MIN KDBQ 171320Z 04008KT 10SM CLR M05/M11 A3044 600 62 -1600 040/08 RMK AO2
94908KDBQ DBQ20000317072509603/17/00 07:25:31  5-MIN KDBQ 171325Z 04008KT 10SM CLR M05/M11 A3045 600 62 -1600 030/08 RMK AO2
94908KDBQ DBQ20000317073009603/17/00 07:30:31  5-MIN KDBQ 171330Z 05010KT 10SM CLR M05/M10 A3045 590 68 -1600 050/10 RMK AO2
94908KDBQ DBQ20000317073509603/17/00 07:35:31  5-MIN KDBQ 171335Z 04013KT 10SM CLR M05/M10 A3045 590 68 -1600 040/13 RMK AO2
94908KDBQ DBQ20000317074009603/17/00 07:40:31  5-MIN KDBQ 171340Z 05011KT 10SM CLR M04/M10 A3045 590 65 -1600 050/11 RMK AO2
94908KDBQ DBQ20000317074509603/17/00 07:45:31  5-MIN KDBQ 171345Z 05011KT 10SM CLR M04/M10 A3045 590 65 -1600 050/11 RMK AO2
94908KDBQ DBQ20000317075011303/17/00 07:50:31  5-MIN KDBQ 171350Z 05014KT 10SM CLR M04/M09 A3045 590 68 -1600 050/14 RMK AO2 SLP329 T10441094
94908KDBQ DBQ20000317075511303/17/00 07:55:31  5-MIN KDBQ 171355Z 06011KT 10SM CLR M04/M09 A3045 590 68 -1600 060/11 RMK AO2 SLP328 T10441094
94908KDBQ DBQ20000317080009603/17/00 08:00:31  5-MIN KDBQ 171400Z 06012KT 10SM CLR M04/M09 A3045 590 65 -1500 060/12 RMK AO2
94908KDBQ DBQ20000317080509603/17/00 08:05:31  5-MIN KDBQ 171405Z 06012KT 10SM CLR M04/M09 A3045 590 68 -1500 050/12 RMK AO2
94908KDBQ DBQ20000317081009603/17/00 08:10:31  5-MIN KDBQ 171410Z 06012KT 10SM CLR M04/M09 A3045 590 68 -1500 060/12 RMK AO2
94908KDBQ DBQ20000317081509603/17/00 08:15:31  5-MIN KDBQ 171415Z 06013KT 10SM CLR M04/M09 A3045 590 68 -1500 060/13 RMK AO2
94908KDBQ DBQ20000317082009603/17/00 08:20:31  5-MIN KDBQ 171420Z 06012KT 10SM CLR M04/M09 A3046 590 68 -1500 060/12 RMK AO2
94908KDBQ DBQ20000317082509803/17/00 08:25:31  5-MIN KDBQ 171425Z 06010KT 10SM CLR M03/M08 A3046 580 68 -1400 060/10 RMK AO2 $
94908KDBQ DBQ20000317083009803/17/00 08:30:31  5-MIN KDBQ 171430Z 06010KT 10SM CLR M03/M08 A3046 580 68 -1400 060/10 RMK AO2 $
94908KDBQ DBQ20000317083509803/17/00 08:35:31  5-MIN KDBQ 171435Z 06008KT 10SM CLR M03/M08 A3046 580 66 -1400 060/08 RMK AO2 $
94908KDBQ DBQ20000317084010403/17/00 08:40:31  5-MIN KDBQ 171440Z 08013G17KT 10SM CLR M03/M08 A3046 580 68 -1400 080/13G17 RMK AO2 $
94908KDBQ DBQ20000317084509803/17/00 08:45:31  5-MIN KDBQ 171445Z 07013KT 10SM CLR M03/M08 A3046 580 68 -1400 070/13 RMK AO2 $
94908KDBQ DBQ20000317085012703/17/00 08:50:31  5-MIN KDBQ 171450Z 08014G18KT 10SM CLR M02/M08 A3046 580 66 -1300 080/14G18 RMK AO2 SLP330 T10221078 51017 $
94908KDBQ DBQ20000317085512703/17/00 08:55:31  5-MIN KDBQ 171455Z 07012G18KT 10SM CLR M02/M08 A3046 580 66 -1300 070/12G18 RMK AO2 SLP329 T10221078 51016 $
94908KDBQ DBQ20000317090009803/17/00 09:00:31  5-MIN KDBQ 171500Z 08012KT 10SM CLR M02/M08 A3046 580 66 -1300 080/12 RMK AO2 $
94908KDBQ DBQ20000317090509803/17/00 09:05:31  5-MIN KDBQ 171505Z 07012KT 10SM CLR M02/M08 A3046 590 63 -1200 070/12 RMK AO2 $
94908KDBQ DBQ20000317091009803/17/00 09:10:31  5-MIN KDBQ 171510Z 07011KT 10SM CLR M02/M08 A3046 580 63 -1200 070/11 RMK AO2 $
94908KDBQ DBQ20000317091510403/17/00 09:15:31  5-MIN KDBQ 171515Z 08013G18KT 10SM CLR M02/M08 A3046 580 63 -1200 080/13G18 RMK AO2 $
94908KDBQ DBQ20000317092010403/17/00 09:20:31  5-MIN KDBQ 171520Z 08012G18KT 10SM CLR M01/M08 A3046 580 60 -1200 080/12G18 RMK AO2 $
94908KDBQ DBQ20000317092509803/17/00 09:25:31  5-MIN KDBQ 171525Z 09011KT 10SM CLR M02/M08 A3046 580 63 -1200 090/11 RMK AO2 $
94908KDBQ DBQ20000317093009803/17/00 09:30:31  5-MIN KDBQ 171530Z 09010KT 10SM CLR M01/M08 A3046 580 60 -1200 080/10 RMK AO2 $
94908KDBQ DBQ20000317093509803/17/00 09:35:31  5-MIN KDBQ 171535Z 09013KT 10SM CLR M01/M07 A3045 590 61 -1100 090/13 RMK AO2 $
94908KDBQ DBQ20000317094010403/17/00 09:40:31  5-MIN KDBQ 171540Z 08015G18KT 10SM CLR M01/M08 A3046 590 60 -1200 080/15G18 RMK AO2 $
94908KDBQ DBQ20000317094509803/17/00 09:45:31  5-MIN KDBQ 171545Z 09012KT 10SM CLR M01/M08 A3045 590 58 -1100 090/12 RMK AO2 $
94908KDBQ DBQ20000317095011503/17/00 09:50:31  5-MIN KDBQ 171550Z 08013KT 10SM CLR M01/M08 A3045 590 58 -1100 080/13 RMK AO2 SLP326 T10061078 $
94908KDBQ DBQ20000317095511403/17/00 09:55:31  5-MIN KDBQ 171555Z 10013KT 10SM CLR 00/M07 A3045 590 58 -1000 100/13 RMK AO2 SLP326 T00001072 $
94908KDBQ DBQ20000317100009503/17/00 10:00:31  5-MIN KDBQ 171600Z 09014KT 10SM CLR 00/M07 A3045 590 58 -1000 080/14 RMK AO2
94908KDBQ DBQ20000317100509503/17/00 10:05:31  5-MIN KDBQ 171605Z 09013KT 10SM CLR 00/M07 A3045 590 58 -1000 090/13 RMK AO2
94908KDBQ DBQ20000317101009603/17/00 10:10:31  5-MIN KDBQ 171610Z 09013KT 10SM CLR M01/M08 A3045 590 58 -1100 090/13 RMK AO2
94908KDBQ DBQ20000317101509503/17/00 10:15:31  5-MIN KDBQ 171615Z 10014KT 10SM CLR 00/M07 A3045 590 58 -1000 100/14 RMK AO2
94908KDBQ DBQ20000317102009503/17/00 10:20:31  5-MIN KDBQ 171620Z 10013KT 10SM CLR 00/M07 A3045 590 58 -1000 100/13 RMK AO2
94908KDBQ DBQ20000317102509503/17/00 10:25:31  5-MIN KDBQ 171625Z 10011KT 10SM CLR 00/M07 A3045 590 58 -1000 100/11 RMK AO2
94908KDBQ DBQ20000317103009703/17/00 10:30:31  5-MIN KDBQ 171630Z 10013KT 10SM FEW029 01/M07 A3045 590 56 -900 100/13 RMK AO2
94908KDBQ DBQ20000317103509703/17/00 10:35:31  5-MIN KDBQ 171635Z 11011KT 10SM FEW029 01/M08 A3045 590 54 -900 110/11 RMK AO2
94908KDBQ DBQ20000317104009703/17/00 10:40:31  5-MIN KDBQ 171640Z 08011KT 10SM FEW029 01/M07 A3045 590 56 -900 080/11 RMK AO2
94908KDBQ DBQ20000317104509703/17/00 10:45:31  5-MIN KDBQ 171645Z 10010KT 10SM SCT029 01/M07 A3045 590 56 -900 100/10 RMK AO2
94908KDBQ DBQ20000317105012003/17/00 10:50:31  5-MIN KDBQ 171650Z 08010G15KT 10SM SCT029 01/M07 A3046 590 56 -900 080/10G15 RMK AO2 SLP328 T00061072
94908KDBQ DBQ20000317105511403/17/00 10:55:31  5-MIN KDBQ 171655Z 11011KT 10SM BKN029 01/M07 A3046 590 54 -900 110/11 RMK AO2 SLP328 T00111072
94908KDBQ DBQ20000317110009703/17/00 11:00:31  5-MIN KDBQ 171700Z 10008KT 10SM BKN031 01/M07 A3046 590 54 -900 100/08 RMK AO2
94908KDBQ DBQ20000317110510303/17/00 11:05:31  5-MIN KDBQ 171705Z 10012G15KT 10SM BKN031 01/M08 A3045 590 51 -900 100/12G15 RMK AO2
94908KDBQ DBQ20000317111009803/17/00 11:10:31  5-MIN KDBQ 171710Z 10010KT 10SM BKN031 00/M08 A3045 590 53 -1000 100/10 RMK AO2
94908KDBQ DBQ20000317111509703/17/00 11:15:31  5-MIN KDBQ 171715Z 11010KT 10SM BKN031 01/M07 A3045 600 54 -900 110/10 RMK AO2
94908KDBQ DBQ20000317112010303/17/00 11:20:31  5-MIN KDBQ 171720Z 11013G17KT 10SM SCT031 01/M08 A3045 590 51 -900 110/13G17 RMK AO2
94908KDBQ DBQ20000317112510303/17/00 11:25:31  5-MIN KDBQ 171725Z 11009G17KT 10SM SCT033 01/M08 A3045 590 51 -900 110/09G17 RMK AO2
94908KDBQ DBQ20000317113010303/17/00 11:30:31  5-MIN KDBQ 171730Z 13012G17KT 10SM SCT033 02/M08 A3045 600 49 -800 120/12G17 RMK AO2
94908KDBQ DBQ20000317113510303/17/00 11:35:31  5-MIN KDBQ 171735Z 13009G17KT 10SM SCT035 01/M08 A3045 590 51 -900 130/09G17 RMK AO2
94908KDBQ DBQ20000317114009703/17/00 11:40:31  5-MIN KDBQ 171740Z 12009KT 10SM FEW035 02/M07 A3045 590 52 -800 120/09 RMK AO2
94908KDBQ DBQ20000317114510303/17/00 11:45:31  5-MIN KDBQ 171745Z 09011G15KT 10SM SCT035 01/M08 A3045 590 51 -900 090/11G15 RMK AO2
94908KDBQ DBQ20000317115013803/17/00 11:50:31  5-MIN KDBQ 171750Z 15011G15KT 10SM BKN035 02/M08 A3044 600 47 -700 150/11G15 RMK AO2 SLP324 T00221078 10022 21067 51016
94908KDBQ DBQ20000317115513203/17/00 11:55:31  5-MIN KDBQ 171755Z 12010KT 10SM SCT035 02/M07 A3044 600 50 -700 120/10 RMK AO2 SLP323 T00221072 10022 21067 58005
94908KDBQ DBQ20000317120010303/17/00 12:00:31  5-MIN KDBQ 171800Z 11012G17KT 10SM FEW035 02/M08 A3044 600 47 -700 110/12G17 RMK AO2
94908KDBQ DBQ20000317120510303/17/00 12:05:31  5-MIN KDBQ 171805Z 12010G17KT 10SM FEW035 02/M08 A3044 600 49 -800 120/10G17 RMK AO2
94908KDBQ DBQ20000317121009703/17/00 12:10:31  5-MIN KDBQ 171810Z 13010KT 10SM FEW035 02/M08 A3044 600 49 -800 130/10 RMK AO2
94908KDBQ DBQ20000317121509703/17/00 12:15:31  5-MIN KDBQ 171815Z 13012KT 10SM FEW037 03/M07 A3044 600 48 -600 130/12 RMK AO2
94908KDBQ DBQ20000317122009403/17/00 12:20:31  5-MIN KDBQ 171820Z 11010KT 10SM CLR 02/M08 A3044 600 49 -800 110/10 RMK AO2
94908KDBQ DBQ20000317122510003/17/00 12:25:31  5-MIN KDBQ 171825Z 10012G16KT 10SM CLR 02/M08 A3043 610 47 -700 100/12G16 RMK AO2
94908KDBQ DBQ20000317123010303/17/00 12:30:31  5-MIN KDBQ 171830Z 12012G17KT 10SM FEW038 02/M08 A3043 610 47 -700 120/12G17 RMK AO2
94908KDBQ DBQ20000317123510303/17/00 12:35:31  5-MIN KDBQ 171835Z 11010G17KT 10SM FEW038 03/M08 A3043 610 46 -600 110/10G17 RMK AO2
94908KDBQ DBQ20000317124009703/17/00 12:40:31  5-MIN KDBQ 171840Z 11010KT 10SM SCT038 02/M08 A3043 610 49 -800 110/10 RMK AO2
94908KDBQ DBQ20000317124509703/17/00 12:45:31  5-MIN KDBQ 171845Z 09009KT 10SM SCT038 02/M08 A3043 610 49 -800 090/09 RMK AO2
94908KDBQ DBQ20000317125013003/17/00 12:50:31  5-MIN KDBQ 171850Z 11007KT 070V160 10SM SCT040 02/M08 A3043 610 49 -800 110/07 070V160 RMK AO2 SLP318 T00171078
94908KDBQ DBQ20000317125511403/17/00 12:55:31  5-MIN KDBQ 171855Z 14009KT 10SM BKN040 03/M08 A3042 620 46 -600 140/09 RMK AO2 SLP317 T00281078
94908KDBQ DBQ20000317130010303/17/00 13:00:31  5-MIN KDBQ 171900Z 09011G15KT 10SM BKN040 03/M07 A3043 610 48 -600 090/11G15 RMK AO2
94908KDBQ DBQ20000317130510303/17/00 13:05:31  5-MIN KDBQ 171905Z 12007G15KT 10SM BKN040 02/M08 A3042 620 49 -800 110/07G15 RMK AO2
94908KDBQ DBQ20000317131009703/17/00 13:10:31  5-MIN KDBQ 171910Z 14012KT 10SM BKN040 03/M08 A3042 620 46 -600 140/12 RMK AO2
94908KDBQ DBQ20000317131510303/17/00 13:15:31  5-MIN KDBQ 171915Z 14009G16KT 10SM BKN042 03/M08 A3042 620 46 -600 140/09G16 RMK AO2
94908KDBQ DBQ20000317132009703/17/00 13:20:31  5-MIN KDBQ 171920Z 14011KT 10SM BKN042 02/M08 A3042 620 49 -800 140/11 RMK AO2
94908KDBQ DBQ20000317132509703/17/00 13:25:31  5-MIN KDBQ 171925Z 13009KT 10SM BKN042 02/M08 A3041 620 47 -800 130/09 RMK AO2
94908KDBQ DBQ20000317133010303/17/00 13:30:31  5-MIN KDBQ 171930Z 12013G17KT 10SM BKN042 02/M08 A3042 620 47 -700 120/13G17 RMK AO2
94908KDBQ DBQ20000317133510303/17/00 13:35:31  5-MIN KDBQ 171935Z 11009G17KT 10SM BKN042 03/M08 A3041 630 46 -600 110/09G17 RMK AO2
94908KDBQ DBQ20000317134009703/17/00 13:40:31  5-MIN KDBQ 171940Z 13010KT 10SM BKN044 03/M08 A3041 630 44 -500 130/10 RMK AO2
94908KDBQ DBQ20000317134509703/17/00 13:45:31  5-MIN KDBQ 171945Z 11010KT 10SM BKN044 03/M08 A3041 630 44 -500 100/10 RMK AO2
94908KDBQ DBQ20000317135011403/17/00 13:50:31  5-MIN KDBQ 171950Z 11012KT 10SM BKN044 03/M08 A3041 630 46 -600 110/12 RMK AO2 SLP310 T00281078
94908KDBQ DBQ20000317135511403/17/00 13:55:31  5-MIN KDBQ 171955Z 12012KT 10SM BKN044 02/M08 A3040 640 45 -700 120/12 RMK AO2 SLP309 T00221083
94908KDBQ DBQ20000317140009703/17/00 14:00:31  5-MIN KDBQ 172000Z 12011KT 10SM BKN044 02/M08 A3040 640 45 -700 120/11 RMK AO2
94908KDBQ DBQ20000317140511303/17/00 14:05:31  5-MIN KDBQ 172005Z 13009KT 070V160 10SM BKN044 03/M08 A3039 640 44 -500 130/09 070V160 RMK AO2
94908KDBQ DBQ20000317141009703/17/00 14:10:31  5-MIN KDBQ 172010Z 11012KT 10SM BKN044 03/M08 A3040 640 44 -500 110/12 RMK AO2
94908KDBQ DBQ20000317141509703/17/00 14:15:31  5-MIN KDBQ 172015Z 11012KT 10SM SCT044 03/M08 A3040 640 44 -600 110/12 RMK AO2
94908KDBQ DBQ20000317142009703/17/00 14:20:31  5-MIN KDBQ 172020Z 13009KT 10SM SCT046 02/M09 A3040 640 44 -700 130/09 RMK AO2
94908KDBQ DBQ20000317142509703/17/00 14:25:31  5-MIN KDBQ 172025Z 13011KT 10SM FEW046 03/M08 A3039 640 44 -600 130/11 RMK AO2
94908KDBQ DBQ20000317143009703/17/00 14:30:31  5-MIN KDBQ 172030Z 13010KT 10SM FEW046 04/M08 A3039 640 42 -500 120/10 RMK AO2
94908KDBQ DBQ20000317143510303/17/00 14:35:31  5-MIN KDBQ 172035Z 14010G14KT 10SM FEW046 03/M08 A3039 640 44 -600 140/10G14 RMK AO2
94908KDBQ DBQ20000317144010303/17/00 14:40:31  5-MIN KDBQ 172040Z 12010G14KT 10SM FEW046 03/M08 A3039 640 44 -500 110/10G14 RMK AO2
94908KDBQ DBQ20000317144509703/17/00 14:45:31  5-MIN KDBQ 172045Z 13012KT 10SM SCT046 03/M08 A3039 640 44 -500 130/12 RMK AO2
94908KDBQ DBQ20000317145012003/17/00 14:50:31  5-MIN KDBQ 172050Z 13011KT 10SM FEW046 03/M08 A3039 640 44 -500 130/11 RMK AO2 SLP306 T00331078 58005
94908KDBQ DBQ20000317145512003/17/00 14:55:31  5-MIN KDBQ 172055Z 12011KT 10SM FEW046 03/M08 A3039 650 42 -500 120/11 RMK AO2 SLP304 T00331083 56018
94908KDBQ DBQ20000317150009703/17/00 15:00:31  5-MIN KDBQ 172100Z 15013KT 10SM FEW046 03/M08 A3038 650 42 -500 140/13 RMK AO2
94908KDBQ DBQ20000317150509703/17/00 15:05:31  5-MIN KDBQ 172105Z 13011KT 10SM FEW046 04/M08 A3038 650 40 -400 130/11 RMK AO2
94908KDBQ DBQ20000323015512603/23/00 01:55:31  5-MIN KDBQ 230755Z AUTO 11007KT 1 1/2SM BR CLR 05/04 A3034 700 96 -300 110/07 RMK AO2 SLP278 T00500044 TSNO
94908KDBQ DBQ20000323020010903/23/00 02:00:31  5-MIN KDBQ 230800Z AUTO 11007KT 1 1/2SM BR CLR 05/04 A3034 700 96 -300 110/07 RMK AO2 TSNO
94908KDBQ DBQ20000323020510603/23/00 02:05:31  5-MIN KDBQ 230805Z AUTO 11007KT 2SM BR CLR 04/04 A3034 700 100 -400 110/07 RMK AO2 TSNO
94908KDBQ DBQ20000323021010603/23/00 02:10:31  5-MIN KDBQ 230810Z AUTO 11007KT 2SM BR CLR 04/04 A3034 690 100 -400 110/07 RMK AO2 TSNO
94908KDBQ DBQ20000323021510503/23/00 02:15:31  5-MIN KDBQ 230815Z AUTO 11007KT 2SM BR CLR 04/04 A3034 690 96 -300 110/07 RMK AO2 TSNO
94908KDBQ DBQ20000323022010603/23/00 02:20:31  5-MIN KDBQ 230820Z AUTO 12008KT 2SM BR CLR 04/04 A3034 700 100 -300 110/08 RMK AO2 TSNO
94908KDBQ DBQ20000323022510503/23/00 02:25:31  5-MIN KDBQ 230825Z AUTO 12007KT 2SM BR CLR 05/04 A3034 690 96 -300 120/07 RMK AO2 TSNO
94908KDBQ DBQ20000323023010903/23/00 02:30:31  5-MIN KDBQ 230830Z AUTO 12008KT 2 1/2SM BR CLR 05/04 A3034 700 96 -300 120/08 RMK AO2 TSNO
94908KDBQ DBQ20000323023511003/23/00 02:35:31  5-MIN KDBQ 230835Z AUTO 12008KT 2 1/2SM BR CLR 05/05 A3033 700 100 -300 120/08 RMK AO2 TSNO
94908KDBQ DBQ20000323024010503/23/00 02:40:31  5-MIN KDBQ 230840Z AUTO 12008KT 2SM BR CLR 06/05 A3034 700 96 -200 120/08 RMK AO2 TSNO
94908KDBQ DBQ20000323024510903/23/00 02:45:31  5-MIN KDBQ 230845Z AUTO 12009KT 2 1/2SM BR CLR 06/06 A3033 700 96 -100 120/09 RMK AO2 TSNO
94908KDBQ DBQ20000323025013203/23/00 02:50:31  5-MIN KDBQ 230850Z AUTO 12008KT 2 1/2SM BR CLR 06/05 A3033 700 96 -200 120/08 RMK AO2 SLP277 T00560050 55003 TSNO
94908KDBQ DBQ20000323025513203/23/00 02:55:31  5-MIN KDBQ 230855Z AUTO 12008KT 2 1/2SM BR CLR 06/05 A3033 700 96 -200 120/08 RMK AO2 SLP278 T00560050 56003 TSNO
94908KDBQ DBQ20000323030010503/23/00 03:00:31  5-MIN KDBQ 230900Z AUTO 12007KT 2SM BR CLR 05/04 A3033 700 96 -300 120/07 RMK AO2 TSNO
94908KDBQ DBQ20000323030510503/23/00 03:05:31  5-MIN KDBQ 230905Z AUTO 12008KT 2SM BR CLR 05/04 A3033 700 96 -300 120/08 RMK AO2 TSNO
94908KDBQ DBQ20000323031010903/23/00 03:10:31  5-MIN KDBQ 230910Z AUTO 12008KT 2 1/2SM BR CLR 06/05 A3033 700 96 -200 120/08 RMK AO2 TSNO
94908KDBQ DBQ20000323031510903/23/00 03:15:31  5-MIN KDBQ 230915Z AUTO 13008KT 2 1/2SM BR CLR 06/05 A3033 700 93 -100 120/08 RMK AO2 TSNO
94908KDBQ DBQ20000323032010503/23/00 03:20:31  5-MIN KDBQ 230920Z AUTO 12009KT 3SM BR CLR 06/05 A3033 700 96 -200 120/09 RMK AO2 TSNO
94908KDBQ DBQ20000323032510503/23/00 03:25:31  5-MIN KDBQ 230925Z AUTO 12010KT 3SM BR CLR 06/06 A3033 700 96 -100 120/10 RMK AO2 TSNO
94908KDBQ DBQ20000323033010503/23/00 03:30:31  5-MIN KDBQ 230930Z AUTO 12010KT 3SM BR CLR 06/05 A3033 700 96 -200 120/10 RMK AO2 TSNO
94908KDBQ DBQ20000323033510503/23/00 03:35:31  5-MIN KDBQ 230935Z AUTO 12010KT 3SM BR CLR 06/06 A3033 700 96 -100 120/10 RMK AO2 TSNO
94908KDBQ DBQ20000323034010503/23/00 03:40:31  5-MIN KDBQ 230940Z AUTO 11009KT 3SM BR CLR 06/06 A3032 710 96 -100 110/09 RMK AO2 TSNO
94908KDBQ DBQ20000323034510903/23/00 03:45:31  5-MIN KDBQ 230945Z AUTO 11009KT 2 1/2SM BR CLR 06/05 A3032 710 96 -200 110/09 RMK AO2 TSNO
94908KDBQ DBQ20000323035012603/23/00 03:50:31  5-MIN KDBQ 230950Z AUTO 12010KT 2 1/2SM BR CLR 06/05 A3032 710 96 -200 110/10 RMK AO2 SLP273 T00560050 TSNO
94908KDBQ DBQ20000323035512603/23/00 03:55:31  5-MIN KDBQ 230955Z AUTO 12009KT 2 1/2SM BR CLR 06/05 A3032 710 96 -200 120/09 RMK AO2 SLP274 T00560050 TSNO
94908KDBQ DBQ20000323040010503/23/00 04:00:31  5-MIN KDBQ 231000Z AUTO 12008KT 3SM BR CLR 06/05 A3032 710 93 -100 120/08 RMK AO2 TSNO
94908KDBQ DBQ20000323040510203/23/00 04:05:31  5-MIN KDBQ 231005Z AUTO 12009KT 3SM BR CLR 07/06 A3032 710 93 0 120/09 RMK AO2 TSNO
94908KDBQ DBQ20000323041010203/23/00 04:10:31  5-MIN KDBQ 231010Z AUTO 12010KT 3SM BR CLR 07/06 A3032 710 93 0 120/10 RMK AO2 TSNO
94908KDBQ DBQ20000323041510203/23/00 04:15:31  5-MIN KDBQ 231015Z AUTO 13009KT 3SM BR CLR 07/06 A3033 710 93 0 120/09 RMK AO2 TSNO
94908KDBQ DBQ20000323042010203/23/00 04:20:31  5-MIN KDBQ 231020Z AUTO 13009KT 4SM BR CLR 07/06 A3033 710 93 0 130/09 RMK AO2 TSNO
94908KDBQ DBQ20000323042510203/23/00 04:25:31  5-MIN KDBQ 231025Z AUTO 13008KT 4SM BR CLR 07/06 A3032 710 93 0 130/08 RMK AO2 TSNO
94908KDBQ DBQ20000323043010503/23/00 04:30:31  5-MIN KDBQ 231030Z AUTO 13008KT 4SM BR CLR 06/05 A3032 710 93 -100 130/08 RMK AO2 TSNO
94908KDBQ DBQ20000323043510503/23/00 04:35:31  5-MIN KDBQ 231035Z AUTO 13008KT 3SM BR CLR 06/05 A3032 710 93 -100 130/08 RMK AO2 TSNO
94908KDBQ DBQ20000323044010503/23/00 04:40:31  5-MIN KDBQ 231040Z AUTO 12009KT 3SM BR CLR 06/05 A3032 710 96 -200 120/09 RMK AO2 TSNO
94908KDBQ DBQ20000323044510503/23/00 04:45:31  5-MIN KDBQ 231045Z AUTO 13010KT 3SM BR CLR 06/06 A3032 710 96 -100 130/10 RMK AO2 TSNO
94908KDBQ DBQ20000323045012203/23/00 04:50:31  5-MIN KDBQ 231050Z AUTO 13009KT 3SM BR CLR 06/06 A3032 710 96 -100 130/09 RMK AO2 SLP273 T00610056 TSNO
94908KDBQ DBQ20000323045512203/23/00 04:55:31  5-MIN KDBQ 231055Z AUTO 13009KT 3SM BR CLR 06/05 A3032 710 93 -100 130/09 RMK AO2 SLP272 T00610050 TSNO
94908KDBQ DBQ20000323050010503/23/00 05:00:31  5-MIN KDBQ 231100Z AUTO 14008KT 3SM BR CLR 06/06 A3032 710 96 -100 130/08 RMK AO2 TSNO
94908KDBQ DBQ20000323050510503/23/00 05:05:31  5-MIN KDBQ 231105Z AUTO 14009KT 3SM BR CLR 06/05 A3032 710 96 -200 140/09 RMK AO2 TSNO
94908KDBQ DBQ20000323051010903/23/00 05:10:31  5-MIN KDBQ 231110Z AUTO 14009KT 2 1/2SM BR CLR 06/05 A3032 710 96 -200 140/09 RMK AO2 TSNO
94908KDBQ DBQ20000323051510503/23/00 05:15:31  5-MIN KDBQ 231115Z AUTO 14009KT 3SM BR CLR 06/06 A3032 710 96 -100 140/09 RMK AO2 TSNO
94908KDBQ DBQ20000323052010803/23/00 05:20:31  5-MIN KDBQ 231120Z AUTO 14008KT 3SM BR FEW095 06/05 A3032 710 93 -100 140/08 RMK AO2 TSNO
94908KDBQ DBQ20000323052510803/23/00 05:25:31  5-MIN KDBQ 231125Z AUTO 14009KT 3SM BR FEW095 06/05 A3032 710 93 -100 130/09 RMK AO2 TSNO
94908KDBQ DBQ20000323053010503/23/00 05:30:31  5-MIN KDBQ 231130Z AUTO 13008KT 3SM BR FEW095 07/06 A3032 710 93 0 130/08 RMK AO2 TSNO
94908KDBQ DBQ20000323053510503/23/00 05:35:31  5-MIN KDBQ 231135Z AUTO 13008KT 3SM BR FEW090 07/06 A3032 710 93 0 130/08 RMK AO2 TSNO
94908KDBQ DBQ20000323054010503/23/00 05:40:31  5-MIN KDBQ 231140Z AUTO 13007KT 3SM BR SCT090 07/06 A3032 710 93 0 130/07 RMK AO2 TSNO
94908KDBQ DBQ20000323054509503/23/00 05:45:31  5-MIN KDBQ 231145Z 13007KT 3SM BR BKN090 07/06 A3032 710 93 0 130/07 RMK AO2
94908KDBQ DBQ20000323055013303/23/00 05:50:31  5-MIN KDBQ 231150Z 13006KT 3SM BR SCT090 06/05 A3032 710 93 -100 130/06 RMK AO2 SLP274 T00610050 10067 20039 56003
94908KDBQ DBQ20000323055513303/23/00 05:55:31  5-MIN KDBQ 231155Z 13005KT 3SM BR BKN090 06/05 A3032 710 93 -100 130/05 RMK AO2 SLP274 T00610050 10067 20039 55004
94908KDBQ DBQ20000323060009803/23/00 06:00:31  5-MIN KDBQ 231200Z 13004KT 2SM BR BKN090 06/05 A3032 710 96 -200 130/04 RMK AO2
94908KDBQ DBQ20000323060509803/23/00 06:05:31  5-MIN KDBQ 231205Z 12004KT 2SM BR BKN090 06/05 A3033 700 96 -200 120/04 RMK AO2
94908KDBQ DBQ20000323061010203/23/00 06:10:31  5-MIN KDBQ 231210Z 11006KT 1 3/4SM BR BKN085 06/06 A3033 700 96 -100 110/06 RMK AO2
94908KDBQ DBQ20000323061509903/23/00 06:15:31  5-MIN KDBQ 231215Z 10008KT 2 1/2SM BR OVC085 07/06 A3032 710 93 0 100/08 RMK AO2
94908KDBQ DBQ20000323062009903/23/00 06:20:31  5-MIN KDBQ 231220Z 10007KT 2 1/2SM BR OVC085 07/06 A3032 710 93 0 100/07 RMK AO2
94908KDBQ DBQ20000323062509903/23/00 06:25:31  5-MIN KDBQ 231225Z 09005KT 2 1/2SM BR OVC085 07/06 A3032 710 96 0 090/05 RMK AO2
94908KDBQ DBQ20000323063009903/23/00 06:30:31  5-MIN KDBQ 231230Z 10005KT 2 1/2SM BR OVC085 07/06 A3032 710 93 0 100/05 RMK AO2
94908KDBQ DBQ20000323063509903/23/00 06:35:31  5-MIN KDBQ 231235Z 09005KT 1 3/4SM BR OVC085 07/06 A3032 710 93 0 090/05 RMK AO2
94908KDBQ DBQ20000323064010203/23/00 06:40:31  5-MIN KDBQ 231240Z 06004KT 1 3/4SM BR OVC085 06/05 A3032 710 96 -200 060/04 RMK AO2
94908KDBQ DBQ20000323064510203/23/00 06:45:31  5-MIN KDBQ 231245Z 09007KT 1 1/2SM BR OVC085 06/05 A3032 710 96 -200 090/07 RMK AO2
94908KDBQ DBQ20000323065011603/23/00 06:50:31  5-MIN KDBQ 231250Z 09007KT 1 3/4SM BR OVC085 07/06 A3032 710 96 0 090/07 RMK AO2 SLP276 T00670061
94908KDBQ DBQ20000323065511603/23/00 06:55:31  5-MIN KDBQ 231255Z 08007KT 1 3/4SM BR OVC085 07/06 A3033 700 93 0 080/07 RMK AO2 SLP276 T00720061
94908KDBQ DBQ20000323070009903/23/00 07:00:31  5-MIN KDBQ 231300Z VRB05KT 1 3/4SM BR OVC085 07/06 A3033 700 96 0 VRB/05 RMK AO2
94908KDBQ DBQ20000323070510203/23/00 07:05:31  5-MIN KDBQ 231305Z 03006KT 1 3/4SM BR OVC085 04/04 A3033 700 96 -300 030/06 RMK AO2
94908KDBQ DBQ20000323071010203/23/00 07:10:31  5-MIN KDBQ 231310Z 01005KT 1 3/4SM BR OVC090 04/03 A3033 700 96 -400 010/05 RMK AO2
94908KDBQ DBQ20000323071510303/23/00 07:15:31  5-MIN KDBQ 231315Z 02005KT 1 1/2SM BR OVC090 03/03 A3033 700 100 -500 020/05 RMK AO2
94908KDBQ DBQ20000323072010303/23/00 07:20:31  5-MIN KDBQ 231320Z 01003KT 1 1/2SM BR OVC090 04/04 A3033 700 100 -300 010/03 RMK AO2
94908KDBQ DBQ20000323072510303/23/00 07:25:31  5-MIN KDBQ 231325Z 35004KT 1 3/4SM BR OVC085 04/04 A3034 700 100 -300 350/04 RMK AO2
94908KDBQ DBQ20000323073010203/23/00 07:30:31  5-MIN KDBQ 231330Z 01004KT 1 3/4SM BR OVC085 05/04 A3034 700 96 -300 010/04 RMK AO2
94908KDBQ DBQ20000323073510203/23/00 07:35:31  5-MIN KDBQ 231335Z 02005KT 1 3/4SM BR OVC085 05/04 A3033 700 96 -300 020/05 RMK AO2
94908KDBQ DBQ20000323074010203/23/00 07:40:31  5-MIN KDBQ 231340Z 05005KT 1 3/4SM BR OVC080 05/04 A3033 700 96 -300 040/05 RMK AO2
94908KDBQ DBQ20000323074509803/23/00 07:45:31  5-MIN KDBQ 231345Z 05004KT 2SM BR OVC080 06/05 A3034 700 96 -200 040/04 RMK AO2
94908KDBQ DBQ20000323075011503/23/00 07:50:31  5-MIN KDBQ 231350Z 00000KT 2SM BR OVC085 07/06 A3034 690 93 -100 000/00 RMK AO2 SLP280 T00670056
94908KDBQ DBQ20000323075511503/23/00 07:55:31  5-MIN KDBQ 231355Z 00000KT 2SM BR OVC085 07/06 A3034 690 96 -100 000/00 RMK AO2 SLP280 T00670061
94908KDBQ DBQ20000323080009503/23/00 08:00:31  5-MIN KDBQ 231400Z 13006KT 2SM BR OVC085 08/07 A3034 690 93 0 130/06 RMK AO2
94908KDBQ DBQ20000323080509703/23/00 08:05:31  5-MIN KDBQ 231405Z 13008KT 2SM BR OVC085 08/07 A3034 690 93 100 130/08 RMK AO2
94908KDBQ DBQ20000323081009703/23/00 08:10:31  5-MIN KDBQ 231410Z 13009KT 2SM BR OVC085 08/07 A3034 690 93 100 130/09 RMK AO2
94908KDBQ DBQ20000323081510103/23/00 08:15:31  5-MIN KDBQ 231415Z 13008KT 2 1/2SM BR OVC085 09/07 A3034 700 89 200 130/08 RMK AO2
94908KDBQ DBQ20000323082010103/23/00 08:20:31  5-MIN KDBQ 231420Z 12008KT 2 1/2SM BR OVC085 09/07 A3033 700 89 200 120/08 RMK AO2
94908KDBQ DBQ20000323082510103/23/00 08:25:31  5-MIN KDBQ 231425Z 12008KT 2 1/2SM BR OVC085 09/07 A3034 700 89 200 120/08 RMK AO2
94908KDBQ DBQ20000323083010103/23/00 08:30:31  5-MIN KDBQ 231430Z 12006KT 2 1/2SM BR OVC085 09/07 A3033 700 89 200 120/06 RMK AO2
94908KDBQ DBQ20000323083510103/23/00 08:35:31  5-MIN KDBQ 231435Z 12008KT 2 1/2SM BR OVC085 09/07 A3033 700 89 200 120/08 RMK AO2
94908KDBQ DBQ20000323084010103/23/00 08:40:31  5-MIN KDBQ 231440Z 12009KT 2 1/2SM BR OVC090 09/07 A3033 700 86 200 120/09 RMK AO2
94908KDBQ DBQ20000323084509703/23/00 08:45:31  5-MIN KDBQ 231445Z 12008KT 3SM BR OVC090 09/07 A3033 700 86 200 120/08 RMK AO2
94908KDBQ DBQ20000323085012003/23/00 08:50:31  5-MIN KDBQ 231450Z 12008KT 3SM BR OVC090 09/07 A3033 700 86 200 120/08 RMK AO2 SLP275 T00940072 55004
94908KDBQ DBQ20000323085512003/23/00 08:55:31  5-MIN KDBQ 231455Z 12010KT 3SM BR OVC090 09/07 A3033 700 86 200 120/10 RMK AO2 SLP275 T00940072 50001
94908KDBQ DBQ20000323090009703/23/00 09:00:31  5-MIN KDBQ 231500Z 12009KT 3SM BR OVC090 09/07 A3033 700 86 200 120/09 RMK AO2
94908KDBQ DBQ20000323090509703/23/00 09:05:31  5-MIN KDBQ 231505Z 12009KT 3SM BR OVC090 09/07 A3033 700 86 200 120/09 RMK AO2
94908KDBQ DBQ20000323091009703/23/00 09:10:31  5-MIN KDBQ 231510Z 12009KT 3SM BR OVC090 09/07 A3033 700 86 200 120/09 RMK AO2
94908KDBQ DBQ20000323091509703/23/00 09:15:31  5-MIN KDBQ 231515Z 12006KT 3SM BR OVC090 09/07 A3033 700 86 200 120/06 RMK AO2
94908KDBQ DBQ20000323092009703/23/00 09:20:31  5-MIN KDBQ 231520Z 12007KT 3SM BR OVC090 09/08 A3033 700 89 200 120/07 RMK AO2
94908KDBQ DBQ20000323092509703/23/00 09:25:31  5-MIN KDBQ 231525Z 12007KT 3SM BR OVC095 10/08 A3033 700 86 300 120/07 RMK AO2
94908KDBQ DBQ20000323093009703/23/00 09:30:31  5-MIN KDBQ 231530Z 11008KT 3SM BR OVC095 10/08 A3033 700 86 300 110/08 RMK AO2
94908KDBQ DBQ20000323093509703/23/00 09:35:31  5-MIN KDBQ 231535Z 11008KT 3SM BR OVC090 10/08 A3033 700 86 300 110/08 RMK AO2
94908KDBQ DBQ20000323094009703/23/00 09:40:31  5-MIN KDBQ 231540Z 11009KT 3SM BR OVC090 10/08 A3033 700 86 300 110/09 RMK AO2
94908KDBQ DBQ20000323094509703/23/00 09:45:31  5-MIN KDBQ 231545Z 12010KT 3SM BR OVC090 10/08 A3033 700 86 300 120/10 RMK AO2
94908KDBQ DBQ20000323095011403/23/00 09:50:31  5-MIN KDBQ 231550Z 12009KT 3SM BR OVC090 10/08 A3033 710 86 300 120/09 RMK AO2 SLP275 T01000078
94908KDBQ DBQ20000323095511403/23/00 09:55:31  5-MIN KDBQ 231555Z 11009KT 3SM HZ OVC090 10/07 A3032 710 83 300 110/09 RMK AO2 SLP275 T01000072
94908KDBQ DBQ20000323100009703/23/00 10:00:31  5-MIN KDBQ 231600Z 11009KT 3SM BR OVC085 10/08 A3032 710 86 300 110/09 RMK AO2
94908KDBQ DBQ20000323100509703/23/00 10:05:31  5-MIN KDBQ 231605Z 11009KT 4SM BR OVC085 10/08 A3032 710 86 300 110/09 RMK AO2
94908KDBQ DBQ20000323101009703/23/00 10:10:31  5-MIN KDBQ 231610Z 11010KT 4SM BR OVC085 10/08 A3032 710 86 300 110/10 RMK AO2
94908KDBQ DBQ20000323101509703/23/00 10:15:31  5-MIN KDBQ 231615Z 11009KT 4SM BR OVC090 10/08 A3032 710 86 300 110/09 RMK AO2
94908KDBQ DBQ20000323102009703/23/00 10:20:31  5-MIN KDBQ 231620Z 11009KT 4SM HZ OVC090 10/07 A3032 720 83 300 110/09 RMK AO2
94908KDBQ DBQ20000323102509703/23/00 10:25:31  5-MIN KDBQ 231625Z 10009KT 4SM HZ OVC090 11/08 A3031 720 83 400 100/09 RMK AO2
94908KDBQ DBQ20000323103009703/23/00 10:30:31  5-MIN KDBQ 231630Z 09008KT 4SM HZ OVC090 11/08 A3031 720 83 400 090/08 RMK AO2
94908KDBQ DBQ20000323103509703/23/00 10:35:31  5-MIN KDBQ 231635Z 10010KT 4SM HZ OVC095 11/08 A3031 720 83 400 100/10 RMK AO2
94908KDBQ DBQ20000323104009703/23/00 10:40:31  5-MIN KDBQ 231640Z 11010KT 4SM HZ OVC095 11/08 A3031 720 80 500 110/10 RMK AO2
94908KDBQ DBQ20000323104509703/23/00 10:45:31  5-MIN KDBQ 231645Z 11008KT 4SM HZ OVC095 11/08 A3030 730 80 500 110/08 RMK AO2
94908KDBQ DBQ20000323105011403/23/00 10:50:31  5-MIN KDBQ 231650Z 10009KT 4SM HZ OVC095 12/08 A3030 730 77 500 100/09 RMK AO2 SLP267 T01170078
94908KDBQ DBQ20000323105511403/23/00 10:55:31  5-MIN KDBQ 231655Z 11011KT 4SM HZ BKN095 12/08 A3030 730 77 600 110/11 RMK AO2 SLP266 T01220083
94908KDBQ DBQ20000323110009703/23/00 11:00:31  5-MIN KDBQ 231700Z 11011KT 4SM HZ BKN095 12/08 A3030 730 74 600 110/11 RMK AO2
94908KDBQ DBQ20000323110509703/23/00 11:05:31  5-MIN KDBQ 231705Z 11010KT 4SM HZ OVC095 12/08 A3030 730 74 600 110/10 RMK AO2
94908KDBQ DBQ20000323111009703/23/00 11:10:31  5-MIN KDBQ 231710Z 11010KT 4SM HZ OVC095 12/08 A3030 730 74 600 110/10 RMK AO2
94908KDBQ DBQ20000323111509703/23/00 11:15:31  5-MIN KDBQ 231715Z 11011KT 5SM HZ BKN095 13/08 A3030 730 71 700 110/11 RMK AO2
94908KDBQ DBQ20000323112009703/23/00 11:20:31  5-MIN KDBQ 231720Z 11010KT 5SM HZ BKN095 12/08 A3029 730 74 600 110/10 RMK AO2
94908KDBQ DBQ20000323112509703/23/00 11:25:31  5-MIN KDBQ 231725Z 11012KT 5SM HZ OVC095 12/08 A3029 740 74 600 110/12 RMK AO2
94908KDBQ DBQ20000323113009703/23/00 11:30:31  5-MIN KDBQ 231730Z 11012KT 5SM HZ BKN095 13/08 A3029 740 71 700 110/12 RMK AO2
94908KDBQ DBQ20000323113509703/23/00 11:35:31  5-MIN KDBQ 231735Z 11012KT 5SM HZ BKN095 13/08 A3029 740 71 700 110/12 RMK AO2
94908KDBQ DBQ20000323114009703/23/00 11:40:31  5-MIN KDBQ 231740Z 12013KT 5SM HZ BKN090 13/08 A3028 740 71 700 120/13 RMK AO2
94908KDBQ DBQ20000323114509703/23/00 11:45:31  5-MIN KDBQ 231745Z 12012KT 5SM HZ OVC090 13/08 A3028 750 74 700 120/12 RMK AO2
94908KDBQ DBQ20000323115013203/23/00 11:50:31  5-MIN KDBQ 231750Z 13012KT 5SM HZ OVC090 13/08 A3028 750 71 800 130/12 RMK AO2 SLP259 T01330083 10133 20033 50001
94908KDBQ DBQ20000323115513203/23/00 11:55:31  5-MIN KDBQ 231755Z 12012KT 5SM HZ OVC090 13/08 A3028 740 71 800 120/12 RMK AO2 SLP260 T01330083 10133 20033 58014
94908KDBQ DBQ20000323120009703/23/00 12:00:31  5-MIN KDBQ 231800Z 13012KT 5SM HZ OVC090 13/08 A3028 740 71 800 130/12 RMK AO2
94908KDBQ DBQ20000323120509703/23/00 12:05:31  5-MIN KDBQ 231805Z 13012KT 5SM HZ OVC090 13/08 A3028 750 71 800 120/12 RMK AO2
94908KDBQ DBQ20000323121009703/23/00 12:10:31  5-MIN KDBQ 231810Z 11012KT 5SM HZ OVC090 14/08 A3027 750 69 800 110/12 RMK AO2
94908KDBQ DBQ20000323121509703/23/00 12:15:31  5-MIN KDBQ 231815Z 12013KT 5SM HZ OVC090 14/09 A3027 760 69 900 120/13 RMK AO2
94908KDBQ DBQ20000323122009703/23/00 12:20:31  5-MIN KDBQ 231820Z 10014KT 5SM HZ BKN090 14/08 A3027 760 66 900 100/14 RMK AO2
94908KDBQ DBQ20000323122509803/23/00 12:25:31  5-MIN KDBQ 231825Z 11015KT 5SM HZ BKN090 15/09 A3027 760 66 1000 110/15 RMK AO2
94908KDBQ DBQ20000323123009803/23/00 12:30:31  5-MIN KDBQ 231830Z 11016KT 6SM HZ SCT090 15/08 A3027 760 64 1000 110/16 RMK AO2
94908KDBQ DBQ20000323123509803/23/00 12:35:31  5-MIN KDBQ 231835Z 12014KT 6SM HZ SCT090 15/09 A3026 760 66 1000 120/14 RMK AO2
94908KDBQ DBQ20000323124009803/23/00 12:40:31  5-MIN KDBQ 231840Z 11014KT 6SM HZ FEW090 15/08 A3026 760 64 1000 110/14 RMK AO2
94908KDBQ DBQ20000323124509803/23/00 12:45:31  5-MIN KDBQ 231845Z 10013KT 6SM HZ FEW090 15/08 A3026 770 64 1000 100/13 RMK AO2
94908KDBQ DBQ20000323125012803/23/00 12:50:31  5-MIN KDBQ 231850Z 11013G19KT 6SM HZ FEW026 SCT090 16/09 A3026 770 64 1000 100/13G19 RMK AO2 SLP251 T01560089
94908KDBQ DBQ20000323125511503/23/00 12:55:31  5-MIN KDBQ 231855Z 12014KT 6SM HZ FEW090 16/08 A3026 770 62 1100 120/14 RMK AO2 SLP250 T01560083
94908KDBQ DBQ20000323130009803/23/00 13:00:31  5-MIN KDBQ 231900Z 11013KT 6SM HZ FEW090 16/08 A3025 770 62 1100 110/13 RMK AO2
94908KDBQ DBQ20000323130509803/23/00 13:05:31  5-MIN KDBQ 231905Z 13012KT 6SM HZ FEW090 16/08 A3025 780 62 1100 120/12 RMK AO2
94908KDBQ DBQ20000323131009803/23/00 13:10:31  5-MIN KDBQ 231910Z 10011KT 6SM HZ FEW090 16/08 A3024 780 62 1100 100/11 RMK AO2
94908KDBQ DBQ20000323131509803/23/00 13:15:31  5-MIN KDBQ 231915Z 12009KT 6SM HZ FEW090 16/08 A3024 780 62 1100 120/09 RMK AO2
94908KDBQ DBQ20000323132009803/23/00 13:20:31  5-MIN KDBQ 231920Z 10011KT 6SM HZ FEW090 16/08 A3023 790 59 1100 100/11 RMK AO2
94908KDBQ DBQ20000323132509803/23/00 13:25:31  5-MIN KDBQ 231925Z 11013KT 6SM HZ SCT090 16/08 A3023 790 62 1100 110/13 RMK AO2
94908KDBQ DBQ20000323133010403/23/00 13:30:31  5-MIN KDBQ 231930Z 10015G20KT 6SM HZ SCT090 17/09 A3023 800 60 1200 100/15G20 RMK AO2
94908KDBQ DBQ20000323133510803/23/00 13:35:31  5-MIN KDBQ 231935Z 11014G20KT 7SM FEW032 BKN090 17/08 A3022 800 57 1200 110/14G20 RMK AO2
94908KDBQ DBQ20000323134010803/23/00 13:40:31  5-MIN KDBQ 231940Z 12014G19KT 7SM FEW032 BKN090 17/08 A3022 800 57 1200 120/14G19 RMK AO2
94908KDBQ DBQ20000323134509503/23/00 13:45:31  5-MIN KDBQ 231945Z 11014KT 8SM SCT090 17/08 A3022 800 57 1200 110/14 RMK AO2
94908KDBQ DBQ20000323135011203/23/00 13:50:31  5-MIN KDBQ 231950Z 13014KT 8SM SCT090 17/08 A3021 810 55 1300 130/14 RMK AO2 SLP235 T01720083
94908KDBQ DBQ20000323145012103/23/00 14:50:31  5-MIN KDBQ 232050Z 12016G20KT 9SM CLR 18/08 A3018 840 53 1400 110/16G20 RMK AO2 SLP221 T01780083 58014
94908KDBQ DBQ20000323145511503/23/00 14:55:31  5-MIN KDBQ 232055Z 11014KT 9SM CLR 17/08 A3017 840 55 1300 110/14 RMK AO2 SLP221 T01720083 58036
94908KDBQ DBQ20000323150009203/23/00 15:00:31  5-MIN KDBQ 232100Z 10014KT 9SM CLR 17/08 A3017 850 55 1300 100/14 RMK AO2
94908KDBQ DBQ20000323150509203/23/00 15:05:31  5-MIN KDBQ 232105Z 11014KT 9SM CLR 17/08 A3017 850 55 1300 110/14 RMK AO2
94908KDBQ DBQ20000323151009803/23/00 15:10:31  5-MIN KDBQ 232110Z 11016G19KT 9SM CLR 18/08 A3017 850 53 1400 110/16G19 RMK AO2
94908KDBQ DBQ20000323151509803/23/00 15:15:31  5-MIN KDBQ 232115Z 12016G20KT 9SM CLR 18/08 A3016 860 51 1400 120/16G20 RMK AO2
94908KDBQ DBQ20000323152009303/23/00 15:20:31  5-MIN KDBQ 232120Z 11016KT 10SM CLR 18/08 A3016 860 51 1400 110/16 RMK AO2
94908KDBQ DBQ20000323152509303/23/00 15:25:31  5-MIN KDBQ 232125Z 12014KT 10SM CLR 18/08 A3016 860 51 1400 120/14 RMK AO2
94908KDBQ DBQ20000323153009303/23/00 15:30:31  5-MIN KDBQ 232130Z 11013KT 10SM CLR 18/08 A3016 860 51 1400 110/13 RMK AO2
94908KDBQ DBQ20000323153509203/23/00 15:35:31  5-MIN KDBQ 232135Z 11015KT 9SM CLR 18/08 A3016 860 51 1400 110/15 RMK AO2
94908KDBQ DBQ20000323154009203/23/00 15:40:31  5-MIN KDBQ 232140Z 11015KT 9SM CLR 18/08 A3016 860 53 1400 110/15 RMK AO2
94908KDBQ DBQ20000323154509303/23/00 15:45:31  5-MIN KDBQ 232145Z 12012KT 10SM CLR 18/08 A3016 860 53 1400 120/12 RMK AO2
94908KDBQ DBQ20000323155011003/23/00 15:50:31  5-MIN KDBQ 232150Z 14013KT 10SM CLR 18/08 A3016 860 51 1400 140/13 RMK AO2 SLP215 T01780078
94908KDBQ DBQ20000323155510903/23/00 15:55:31  5-MIN KDBQ 232155Z 13014KT 9SM CLR 18/08 A3016 860 51 1400 130/14 RMK AO2 SLP214 T01780078
94908KDBQ DBQ20000323160009203/23/00 16:00:31  5-MIN KDBQ 232200Z 14015KT 9SM CLR 18/08 A3016 860 53 1400 140/15 RMK AO2
94908KDBQ DBQ20000323160509203/23/00 16:05:31  5-MIN KDBQ 232205Z 12015KT 9SM CLR 17/08 A3015 860 55 1400 120/15 RMK AO2
94908KDBQ DBQ20000323161009203/23/00 16:10:31  5-MIN KDBQ 232210Z 12015KT 8SM CLR 17/08 A3015 870 55 1400 120/15 RMK AO2
94908KDBQ DBQ20000323161509203/23/00 16:15:31  5-MIN KDBQ 232215Z 11015KT 8SM CLR 18/08 A3015 870 53 1400 100/15 RMK AO2
94908KDBQ DBQ20000323162009203/23/00 16:20:31  5-MIN KDBQ 232220Z 11015KT 9SM CLR 18/08 A3014 870 53 1400 110/15 RMK AO2
94908KDBQ DBQ20000323162509203/23/00 16:25:31  5-MIN KDBQ 232225Z 12014KT 8SM CLR 17/08 A3014 880 55 1400 120/14 RMK AO2
94908KDBQ DBQ20000323163009203/23/00 16:30:31  5-MIN KDBQ 232230Z 12015KT 8SM CLR 17/08 A3014 880 55 1400 120/15 RMK AO2
94908KDBQ DBQ20000323163509203/23/00 16:35:31  5-MIN KDBQ 232235Z 12012KT 8SM CLR 17/08 A3014 880 55 1400 120/12 RMK AO2
94908KDBQ DBQ20000323164009803/23/00 16:40:31  5-MIN KDBQ 232240Z 13017G20KT 8SM CLR 17/08 A3013 880 55 1400 130/17G20 RMK AO2
94908KDBQ DBQ20000323164509803/23/00 16:45:31  5-MIN KDBQ 232245Z 12014G20KT 8SM CLR 17/08 A3013 880 55 1400 120/14G20 RMK AO2
94908KDBQ DBQ20000323165010903/23/00 16:50:31  5-MIN KDBQ 232250Z 12013KT 8SM CLR 17/08 A3013 890 55 1400 110/13 RMK AO2 SLP205 T01720083
94908KDBQ DBQ20000323165510903/23/00 16:55:31  5-MIN KDBQ 232255Z 11014KT 8SM CLR 17/08 A3013 890 57 1300 110/14 RMK AO2 SLP205 T01670083
94908KDBQ DBQ20000323170009203/23/00 17:00:31  5-MIN KDBQ 232300Z 11016KT 8SM CLR 17/08 A3013 890 57 1300 110/16 RMK AO2
94908KDBQ DBQ20000323170509203/23/00 17:05:31  5-MIN KDBQ 232305Z 11012KT 8SM CLR 17/08 A3013 890 57 1300 110/12 RMK AO2
94908KDBQ DBQ20000323171009203/23/00 17:10:31  5-MIN KDBQ 232310Z 12016KT 8SM CLR 17/08 A3012 890 57 1300 120/16 RMK AO2
94908KDBQ DBQ20000323171509203/23/00 17:15:31  5-MIN KDBQ 232315Z 12015KT 8SM CLR 16/08 A3012 890 59 1300 120/15 RMK AO2
94908KDBQ DBQ20000323172009203/23/00 17:20:31  5-MIN KDBQ 232320Z 11015KT 8SM CLR 16/08 A3012 890 62 1200 110/15 RMK AO2
94908KDBQ DBQ20000323172509203/23/00 17:25:31  5-MIN KDBQ 232325Z 11011KT 8SM CLR 15/08 A3012 890 64 1100 110/11 RMK AO2
94908KDBQ DBQ20000323173009203/23/00 17:30:31  5-MIN KDBQ 232330Z 11013KT 7SM CLR 15/08 A3012 900 64 1100 110/13 RMK AO2
94908KDBQ DBQ20000323173509203/23/00 17:35:31  5-MIN KDBQ 232335Z 12010KT 7SM CLR 14/08 A3012 900 66 1100 120/10 RMK AO2
94908KDBQ DBQ20000323174009203/23/00 17:40:31  5-MIN KDBQ 232340Z 12009KT 7SM CLR 14/08 A3012 900 66 1100 120/09 RMK AO2
94908KDBQ DBQ20000323174509203/23/00 17:45:31  5-MIN KDBQ 232345Z 11010KT 7SM CLR 14/08 A3011 900 66 1100 110/10 RMK AO2
94908KDBQ DBQ20000323175012703/23/00 17:50:31  5-MIN KDBQ 232350Z 11013KT 7SM CLR 14/08 A3011 910 66 1100 110/13 RMK AO2 SLP199 T01440083 10178 20133 58036
94908KDBQ DBQ20000323175512703/23/00 17:55:31  5-MIN KDBQ 232355Z 12011KT 8SM CLR 14/08 A3011 910 66 1100 120/11 RMK AO2 SLP199 T01440083 10178 20133 58022
94908KDBQ DBQ20000323180009203/23/00 18:00:31  5-MIN KDBQ 240000Z 12013KT 7SM CLR 14/08 A3011 910 66 1100 120/13 RMK AO2
94908KDBQ DBQ20000323180509203/23/00 18:05:31  5-MIN KDBQ 240005Z 12013KT 7SM CLR 14/08 A3010 910 66 1100 120/13 RMK AO2
94908KDBQ DBQ20000323181009203/23/00 18:10:31  5-MIN KDBQ 240010Z 12012KT 7SM CLR 14/08 A3010 910 66 1100 120/12 RMK AO2
94908KDBQ DBQ20000323181509203/23/00 18:15:31  5-MIN KDBQ 240015Z 12011KT 7SM CLR 14/08 A3010 910 66 1100 120/11 RMK AO2
94908KDBQ DBQ20000323182009203/23/00 18:20:31  5-MIN KDBQ 240020Z 11012KT 7SM CLR 14/08 A3010 910 69 1000 110/12 RMK AO2
94908KDBQ DBQ20000323182509203/23/00 18:25:31  5-MIN KDBQ 240025Z 12010KT 7SM CLR 14/08 A3010 910 69 1000 120/10 RMK AO2
94908KDBQ DBQ20000323183009203/23/00 18:30:31  5-MIN KDBQ 240030Z 12010KT 7SM CLR 14/08 A3009 920 69 1000 120/10 RMK AO2
94908KDBQ DBQ20000323183509203/23/00 18:35:31  5-MIN KDBQ 240035Z 11011KT 8SM CLR 13/08 A3009 920 71 1000 110/11 RMK AO2
94908KDBQ DBQ20000323184009203/23/00 18:40:31  5-MIN KDBQ 240040Z 12010KT 8SM CLR 13/08 A3009 920 71 1000 120/10 RMK AO2
94908KDBQ DBQ20000323184509203/23/00 18:45:31  5-MIN KDBQ 240045Z 12012KT 8SM CLR 13/08 A3009 920 71 1000 110/12 RMK AO2
94908KDBQ DBQ20000323185010903/23/00 18:50:31  5-MIN KDBQ 240050Z 11011KT 8SM CLR 13/08 A3009 930 71 1000 110/11 RMK AO2 SLP192 T01330083
94908KDBQ DBQ20000323185510803/23/00 18:55:31  5-MIN KDBQ 240055Z 11010KT 8SM CLR 13/08 A3008 930 74 900 110/10 RMK AO2 SLP191 T01280083
94908KDBQ DBQ20000323190009103/23/00 19:00:31  5-MIN KDBQ 240100Z 11009KT 8SM CLR 13/08 A3008 930 74 900 110/09 RMK AO2
94908KDBQ DBQ20000323190509103/23/00 19:05:31  5-MIN KDBQ 240105Z 11010KT 8SM CLR 13/08 A3008 930 74 900 110/10 RMK AO2
94908KDBQ DBQ20000323191009103/23/00 19:10:31  5-MIN KDBQ 240110Z 11010KT 8SM CLR 13/08 A3008 930 74 900 110/10 RMK AO2
94908KDBQ DBQ20000323191510103/23/00 19:15:31  5-MIN KDBQ 240115Z AUTO 12009KT 8SM CLR 13/08 A3008 930 74 900 120/09 RMK AO2 TSNO
94908KDBQ DBQ20000323192010103/23/00 19:20:31  5-MIN KDBQ 240120Z AUTO 11010KT 8SM CLR 13/08 A3008 930 74 900 110/10 RMK AO2 TSNO
94908KDBQ DBQ20000323192510103/23/00 19:25:31  5-MIN KDBQ 240125Z AUTO 11010KT 8SM CLR 13/08 A3008 930 74 900 110/10 RMK AO2 TSNO
94908KDBQ DBQ20000323193010103/23/00 19:30:31  5-MIN KDBQ 240130Z AUTO 11010KT 8SM CLR 13/08 A3008 930 74 900 110/10 RMK AO2 TSNO
94908KDBQ DBQ20000323193510103/23/00 19:35:31  5-MIN KDBQ 240135Z AUTO 11011KT 8SM CLR 13/08 A3007 940 74 900 100/11 RMK AO2 TSNO
94908KDBQ DBQ20000323194010203/23/00 19:40:31  5-MIN KDBQ 240140Z AUTO 11013KT 8SM CLR 13/08 A3007 940 71 1000 110/13 RMK AO2 TSNO
94908KDBQ DBQ20000323194510203/23/00 19:45:31  5-MIN KDBQ 240145Z AUTO 11013KT 8SM CLR 13/08 A3007 940 71 1000 110/13 RMK AO2 TSNO
94908KDBQ DBQ20000323195011903/23/00 19:50:31  5-MIN KDBQ 240150Z AUTO 11013KT 8SM CLR 13/08 A3007 940 71 1000 110/13 RMK AO2 SLP187 T01330083 TSNO
94908KDBQ DBQ20000323195511903/23/00 19:55:31  5-MIN KDBQ 240155Z AUTO 11011KT 8SM CLR 13/08 A3007 940 69 1000 110/11 RMK AO2 SLP188 T01330078 TSNO
94908KDBQ DBQ20000323200010203/23/00 20:00:31  5-MIN KDBQ 240200Z AUTO 11012KT 8SM CLR 13/08 A3007 940 69 1000 110/12 RMK AO2 TSNO
94908KDBQ DBQ20000323200510203/23/00 20:05:31  5-MIN KDBQ 240205Z AUTO 12011KT 8SM CLR 13/08 A3008 930 69 1000 120/11 RMK AO2 TSNO
94908KDBQ DBQ20000323201010203/23/00 20:10:31  5-MIN KDBQ 240210Z AUTO 12012KT 8SM CLR 13/08 A3008 930 69 1000 110/12 RMK AO2 TSNO
94908KDBQ DBQ20000323201510203/23/00 20:15:31  5-MIN KDBQ 240215Z AUTO 12010KT 8SM CLR 13/08 A3008 930 69 1000 120/10 RMK AO2 TSNO
94908KDBQ DBQ20000323202010203/23/00 20:20:31  5-MIN KDBQ 240220Z AUTO 12011KT 8SM CLR 13/08 A3008 930 69 1000 120/11 RMK AO2 TSNO
94908KDBQ DBQ20000323202510203/23/00 20:25:31  5-MIN KDBQ 240225Z AUTO 12012KT 8SM CLR 13/08 A3008 930 69 1000 120/12 RMK AO2 TSNO
94908KDBQ DBQ20000323203010203/23/00 20:30:31  5-MIN KDBQ 240230Z AUTO 12011KT 8SM CLR 13/08 A3007 940 69 1000 120/11 RMK AO2 TSNO
94908KDBQ DBQ20000323203510203/23/00 20:35:31  5-MIN KDBQ 240235Z AUTO 12011KT 8SM CLR 13/08 A3007 940 69 1000 120/11 RMK AO2 TSNO
94908KDBQ DBQ20000323204010203/23/00 20:40:31  5-MIN KDBQ 240240Z AUTO 12014KT 8SM CLR 13/08 A3007 940 69 1000 120/14 RMK AO2 TSNO
94908KDBQ DBQ20000323204510203/23/00 20:45:31  5-MIN KDBQ 240245Z AUTO 12012KT 8SM CLR 13/08 A3007 940 69 1000 120/12 RMK AO2 TSNO
94908KDBQ DBQ20000323205012803/23/00 20:50:31  5-MIN KDBQ 240250Z AUTO 12013KT 8SM FEW120 13/08 A3007 940 69 1000 120/13 RMK AO2 SLP186 T01330078 58022 TSNO
94908KDBQ DBQ20000323205512803/23/00 20:55:31  5-MIN KDBQ 240255Z AUTO 12013KT 8SM FEW120 13/08 A3007 940 69 1000 120/13 RMK AO2 SLP185 T01330078 56012 TSNO
94908KDBQ DBQ20000323210010503/23/00 21:00:31  5-MIN KDBQ 240300Z AUTO 12013KT 8SM SCT120 13/08 A3007 940 69 1000 120/13 RMK AO2 TSNO
94908KDBQ DBQ20000323210510503/23/00 21:05:31  5-MIN KDBQ 240305Z AUTO 12015KT 8SM BKN120 13/08 A3007 940 69 1000 120/15 RMK AO2 TSNO
94908KDBQ DBQ20000323211010503/23/00 21:10:31  5-MIN KDBQ 240310Z AUTO 12013KT 8SM BKN120 13/08 A3007 940 69 1000 120/13 RMK AO2 TSNO
94908KDBQ DBQ20000323211510503/23/00 21:15:31  5-MIN KDBQ 240315Z AUTO 12014KT 8SM BKN120 13/08 A3007 940 69 1000 120/14 RMK AO2 TSNO
94908KDBQ DBQ20000323212010503/23/00 21:20:31  5-MIN KDBQ 240320Z AUTO 13012KT 8SM BKN120 13/08 A3007 940 69 1000 130/12 RMK AO2 TSNO
94908KDBQ DBQ20000323212510503/23/00 21:25:31  5-MIN KDBQ 240325Z AUTO 13013KT 9SM BKN120 13/08 A3007 940 69 1000 130/13 RMK AO2 TSNO
94908KDBQ DBQ20000323213010503/23/00 21:30:31  5-MIN KDBQ 240330Z AUTO 13012KT 9SM BKN120 13/08 A3007 940 69 1000 130/12 RMK AO2 TSNO
94908KDBQ DBQ20000323213510503/23/00 21:35:31  5-MIN KDBQ 240335Z AUTO 13013KT 9SM SCT120 13/08 A3007 940 69 1000 130/13 RMK AO2 TSNO
94908KDBQ DBQ20000323214010503/23/00 21:40:31  5-MIN KDBQ 240340Z AUTO 13013KT 8SM SCT110 13/08 A3007 940 69 1000 130/13 RMK AO2 TSNO
94908KDBQ DBQ20000323214511103/23/00 21:45:31  5-MIN KDBQ 240345Z AUTO 13017G22KT 8SM SCT110 13/08 A3007 940 69 1000 130/17G22 RMK AO2 TSNO
94908KDBQ DBQ20000323215012803/23/00 21:50:31  5-MIN KDBQ 240350Z AUTO 13016G22KT 8SM FEW120 13/08 A3007 940 69 1000 130/16G22 RMK AO2 SLP186 T01330078 TSNO
94908KDBQ DBQ20000323215512203/23/00 21:55:31  5-MIN KDBQ 240355Z AUTO 13015KT 8SM SCT110 13/08 A3007 940 69 1000 130/15 RMK AO2 SLP185 T01330078 TSNO
94908KDBQ DBQ20000323220010503/23/00 22:00:31  5-MIN KDBQ 240400Z AUTO 13014KT 8SM SCT110 13/08 A3007 940 69 1000 130/14 RMK AO2 TSNO
94908KDBQ DBQ20000323220511103/23/00 22:05:31  5-MIN KDBQ 240405Z AUTO 13015G22KT 8SM SCT120 13/08 A3007 940 69 1000 120/15G22 RMK AO2 TSNO
94908KDBQ DBQ20000323221011103/23/00 22:10:31  5-MIN KDBQ 240410Z AUTO 13016G22KT 8SM SCT120 13/08 A3007 940 69 1000 120/16G22 RMK AO2 TSNO
94908KDBQ DBQ20000323221510503/23/00 22:15:31  5-MIN KDBQ 240415Z AUTO 12015KT 8SM BKN120 13/08 A3006 950 69 1000 120/15 RMK AO2 TSNO
94908KDBQ DBQ20000323222010503/23/00 22:20:31  5-MIN KDBQ 240420Z AUTO 12017KT 8SM BKN120 13/08 A3006 950 69 1000 120/17 RMK AO2 TSNO
94908KDBQ DBQ20000323222510503/23/00 22:25:31  5-MIN KDBQ 240425Z AUTO 12016KT 8SM BKN120 13/08 A3006 950 69 1000 120/16 RMK AO2 TSNO
94908KDBQ DBQ20000323223010503/23/00 22:30:31  5-MIN KDBQ 240430Z AUTO 12015KT 8SM BKN120 13/08 A3006 950 69 1000 120/15 RMK AO2 TSNO
94908KDBQ DBQ20000323223511103/23/00 22:35:31  5-MIN KDBQ 240435Z AUTO 13015G21KT 8SM BKN120 13/08 A3006 950 71 1000 120/15G21 RMK AO2 TSNO
94908KDBQ DBQ20000323224011103/23/00 22:40:31  5-MIN KDBQ 240440Z AUTO 13015G22KT 8SM BKN120 13/08 A3006 950 69 1000 120/15G22 RMK AO2 TSNO
94908KDBQ DBQ20000323224511103/23/00 22:45:31  5-MIN KDBQ 240445Z AUTO 13016G22KT 8SM BKN110 13/08 A3006 950 71 1000 130/16G22 RMK AO2 TSNO
94908KDBQ DBQ20000323225012203/23/00 22:50:31  5-MIN KDBQ 240450Z AUTO 13015KT 8SM BKN110 13/08 A3006 950 69 1000 130/15 RMK AO2 SLP180 T01330078 TSNO
94908KDBQ DBQ20000323225512803/23/00 22:55:31  5-MIN KDBQ 240455Z AUTO 13014G21KT 8SM BKN110 13/08 A3005 960 71 1000 130/14G21 RMK AO2 SLP179 T01280078 TSNO
94908KDBQ DBQ20000323230011103/23/00 23:00:31  5-MIN KDBQ 240500Z AUTO 13015G21KT 7SM BKN110 13/08 A3005 960 71 1000 130/15G21 RMK AO2 TSNO
94908KDBQ DBQ20000323230510503/23/00 23:05:31  5-MIN KDBQ 240505Z AUTO 13015KT 7SM BKN110 13/08 A3005 960 71 1000 130/15 RMK AO2 TSNO
94908KDBQ DBQ20000323231010503/23/00 23:10:31  5-MIN KDBQ 240510Z AUTO 13016KT 7SM SCT110 13/08 A3005 960 71 1000 120/16 RMK AO2 TSNO
94908KDBQ DBQ20000323231511103/23/00 23:15:31  5-MIN KDBQ 240515Z AUTO 13017G22KT 7SM SCT110 13/08 A3004 970 71 1000 130/17G22 RMK AO2 TSNO
94908KDBQ DBQ20000323232011103/23/00 23:20:31  5-MIN KDBQ 240520Z AUTO 13015G22KT 7SM SCT110 13/08 A3004 970 71 1000 120/15G22 RMK AO2 TSNO
94908KDBQ DBQ20000323232510503/23/00 23:25:31  5-MIN KDBQ 240525Z AUTO 13015KT 7SM FEW110 13/08 A3003 970 71 1000 130/15 RMK AO2 TSNO
94908KDBQ DBQ20000323233010503/23/00 23:30:31  5-MIN KDBQ 240530Z AUTO 12017KT 7SM FEW120 13/08 A3003 970 71 1000 120/17 RMK AO2 TSNO
94908KDBQ DBQ20000323233510503/23/00 23:35:31  5-MIN KDBQ 240535Z AUTO 12016KT 7SM FEW120 13/08 A3003 980 71 1000 120/16 RMK AO2 TSNO
94908KDBQ DBQ20000323234010503/23/00 23:40:31  5-MIN KDBQ 240540Z AUTO 12015KT 7SM FEW120 13/08 A3002 980 71 1000 120/15 RMK AO2 TSNO
94908KDBQ DBQ20000323234510403/23/00 23:45:31  5-MIN KDBQ 240545Z AUTO 12015KT 7SM FEW110 12/08 A3002 980 74 900 120/15 RMK AO2 TSNO
94908KDBQ DBQ20000323235014903/23/00 23:50:31  5-MIN KDBQ 240550Z AUTO 12015KT 7SM FEW090 12/08 A3002 990 74 900 120/15 RMK AO2 SLP168 T01220078 10144 20122 401780033 56012 TSNO
94908KDBQ DBQ20000323235517003/23/00 23:55:31  5-MIN KDBQ 240555Z AUTO 12018G23KT 7SM FEW080 SCT095 SCT120 13/08 A3002 990 71 1000 120/18G23 RMK AO2 SLP166 T01280078 10144 20122 401780033 58017 TSNO
94908KDBQ DBQ20000324000011803/24/00 00:00:31  5-MIN KDBQ 240600Z AUTO 12017G23KT 7SM SCT080 SCT110 13/08 A3002 990 71 1000 120/17G23 RMK AO2 TSNO
94908KDBQ DBQ20000324000511903/24/00 00:05:31  5-MIN KDBQ 240605Z AUTO 12016KT 7SM SCT080 SCT100 BKN110 13/08 A3001 990 71 1000 120/16 RMK AO2 TSNO
94908KDBQ DBQ20000324001011203/24/00 00:10:31  5-MIN KDBQ 240610Z AUTO 12018KT 7SM BKN090 BKN110 12/08 A3001 1000 74 900 120/18 RMK AO2 TSNO
94908KDBQ DBQ20000324001511203/24/00 00:15:31  5-MIN KDBQ 240615Z AUTO 12018KT 7SM BKN090 BKN110 12/08 A3000 1000 74 900 120/18 RMK AO2 TSNO
94908KDBQ DBQ20000324002011303/24/00 00:20:31  5-MIN KDBQ 240620Z AUTO 12016KT 7SM BKN085 OVC110 13/08 A3000 1000 71 1000 120/16 RMK AO2 TSNO
94908KDBQ DBQ20000324002511903/24/00 00:25:31  5-MIN KDBQ 240625Z AUTO 12018G24KT 7SM BKN085 OVC110 12/08 A3000 1010 74 1000 120/18G24 RMK AO2 TSNO
94908KDBQ DBQ20000324003011903/24/00 00:30:31  5-MIN KDBQ 240630Z AUTO 12017G24KT 7SM BKN090 OVC110 12/08 A2999 1010 74 1000 120/17G24 RMK AO2 TSNO
94908KDBQ DBQ20000324003511303/24/00 00:35:31  5-MIN KDBQ 240635Z AUTO 12017KT 7SM BKN090 OVC110 12/08 A2999 1020 74 1000 120/17 RMK AO2 TSNO
94908KDBQ DBQ20000324004011903/24/00 00:40:31  5-MIN KDBQ 240640Z AUTO 12017G23KT 7SM BKN090 BKN110 12/08 A2999 1020 74 1000 120/17G23 RMK AO2 TSNO
94908KDBQ DBQ20000324004511903/24/00 00:45:31  5-MIN KDBQ 240645Z AUTO 12015G23KT 7SM BKN090 BKN110 12/08 A2999 1020 74 1000 120/15G23 RMK AO2 TSNO
94908KDBQ DBQ20000324005012303/24/00 00:50:31  5-MIN KDBQ 240650Z AUTO 13016KT 7SM BKN100 12/08 A2999 1020 74 1000 130/16 RMK AO2 SLP156 T01220078 TSNO
94908KDBQ DBQ20000324005512903/24/00 00:55:31  5-MIN KDBQ 240655Z AUTO 13017G22KT 7SM BKN100 12/08 A2999 1010 74 1000 130/17G22 RMK AO2 SLP157 T01220078 TSNO
94908KDBQ DBQ20000324010010603/24/00 01:00:31  5-MIN KDBQ 240700Z AUTO 13016KT 7SM OVC100 12/08 A2999 1010 74 1000 130/16 RMK AO2 TSNO
94908KDBQ DBQ20000324010510603/24/00 01:05:31  5-MIN KDBQ 240705Z AUTO 13015KT 7SM OVC100 12/07 A2998 1020 71 1000 120/15 RMK AO2 TSNO
94908KDBQ DBQ20000324011010603/24/00 01:10:31  5-MIN KDBQ 240710Z AUTO 13016KT 7SM OVC100 12/07 A2998 1020 71 1000 130/16 RMK AO2 TSNO
94908KDBQ DBQ20000324011510603/24/00 01:15:31  5-MIN KDBQ 240715Z AUTO 13015KT 7SM OVC100 12/07 A2998 1030 71 1000 130/15 RMK AO2 TSNO
94908KDBQ DBQ20000324012010603/24/00 01:20:31  5-MIN KDBQ 240720Z AUTO 13015KT 7SM OVC100 12/07 A2998 1030 71 1000 120/15 RMK AO2 TSNO
94908KDBQ DBQ20000324012511203/24/00 01:25:31  5-MIN KDBQ 240725Z AUTO 13013G20KT 7SM OVC100 12/07 A2998 1020 71 1000 130/13G20 RMK AO2 TSNO
94908KDBQ DBQ20000324013011203/24/00 01:30:31  5-MIN KDBQ 240730Z AUTO 14014G20KT 7SM OVC100 12/07 A2999 1010 71 1000 140/14G20 RMK AO2 TSNO
94908KDBQ DBQ20000324013510603/24/00 01:35:31  5-MIN KDBQ 240735Z AUTO 14014KT 7SM OVC100 12/07 A3000 1010 71 1000 140/14 RMK AO2 TSNO
94908KDBQ DBQ20000324014010603/24/00 01:40:31  5-MIN KDBQ 240740Z AUTO 14013KT 7SM OVC100 12/07 A2999 1010 71 1000 140/13 RMK AO2 TSNO
94908KDBQ DBQ20000324014510603/24/00 01:45:31  5-MIN KDBQ 240745Z AUTO 14013KT 7SM OVC100 12/07 A2999 1020 71 1000 140/13 RMK AO2 TSNO
94908KDBQ DBQ20000324015012303/24/00 01:50:31  5-MIN KDBQ 240750Z AUTO 14014KT 7SM OVC100 12/07 A2998 1020 71 1000 140/14 RMK AO2 SLP154 T01220072 TSNO
94908KDBQ DBQ20000324015512203/24/00 01:55:31  5-MIN KDBQ 240755Z AUTO 14013KT 7SM OVC100 12/07 A2998 1020 74 900 130/13 RMK AO2 SLP153 T01170072 TSNO
94908KDBQ DBQ20000324020010503/24/00 02:00:31  5-MIN KDBQ 240800Z AUTO 14012KT 7SM OVC100 12/07 A2998 1030 74 900 140/12 RMK AO2 TSNO
94908KDBQ DBQ20000324020510603/24/00 02:05:31  5-MIN KDBQ 240805Z AUTO 14014KT 7SM OVC100 12/07 A2998 1030 71 1000 140/14 RMK AO2 TSNO
94908KDBQ DBQ20000324021010503/24/00 02:10:31  5-MIN KDBQ 240810Z AUTO 14011KT 7SM OVC100 12/07 A2997 1030 74 900 130/11 RMK AO2 TSNO
94908KDBQ DBQ20000324021510503/24/00 02:15:31  5-MIN KDBQ 240815Z AUTO 14011KT 7SM OVC100 12/07 A2997 1030 74 900 130/11 RMK AO2 TSNO
94908KDBQ DBQ20000324022010503/24/00 02:20:31  5-MIN KDBQ 240820Z AUTO 13011KT 7SM OVC100 12/07 A2997 1030 74 900 130/11 RMK AO2 TSNO
94908KDBQ DBQ20000324022511203/24/00 02:25:31  5-MIN KDBQ 240825Z AUTO 13010KT 7SM BKN100 OVC120 12/07 A2997 1040 74 900 130/10 RMK AO2 TSNO
94908KDBQ DBQ20000324023010503/24/00 02:30:31  5-MIN KDBQ 240830Z AUTO 14010KT 7SM OVC100 12/07 A2997 1040 74 900 130/10 RMK AO2 TSNO
94908KDBQ DBQ20000324023510503/24/00 02:35:31  5-MIN KDBQ 240835Z AUTO 14014KT 7SM OVC100 12/07 A2996 1040 74 900 140/14 RMK AO2 TSNO
94908KDBQ DBQ20000324024011203/24/00 02:40:31  5-MIN KDBQ 240840Z AUTO 13010KT 7SM BKN095 OVC110 12/07 A2996 1040 74 900 130/10 RMK AO2 TSNO
94908KDBQ DBQ20000324024511203/24/00 02:45:31  5-MIN KDBQ 240845Z AUTO 14011KT 7SM BKN100 BKN110 12/07 A2995 1050 74 900 130/11 RMK AO2 TSNO
94908KDBQ DBQ20000324025013803/24/00 02:50:31  5-MIN KDBQ 240850Z AUTO 13012KT 6SM HZ BKN100 OVC110 12/07 A2995 1050 74 900 130/12 RMK AO2 SLP143 T01170072 58017 TSNO
94908KDBQ DBQ20000324025513803/24/00 02:55:31  5-MIN KDBQ 240855Z AUTO 13010KT 6SM HZ BKN100 BKN110 12/07 A2995 1050 74 900 130/10 RMK AO2 SLP142 T01170072 58022 TSNO
94908KDBQ DBQ20000324030011503/24/00 03:00:31  5-MIN KDBQ 240900Z AUTO 12011KT 6SM HZ BKN095 BKN110 12/07 A2995 1050 74 900 120/11 RMK AO2 TSNO
94908KDBQ DBQ20000324030511503/24/00 03:05:31  5-MIN KDBQ 240905Z AUTO 13011KT 6SM HZ BKN095 BKN110 11/07 A2994 1060 77 900 120/11 RMK AO2 TSNO
94908KDBQ DBQ20000324031012203/24/00 03:10:31  5-MIN KDBQ 240910Z AUTO 12011KT 6SM HZ FEW080 BKN095 BKN110 11/07 A2994 1060 77 900 120/11 RMK AO2 TSNO
94908KDBQ DBQ20000324031511503/24/00 03:15:31  5-MIN KDBQ 240915Z AUTO 12011KT 6SM HZ BKN090 OVC100 11/07 A2993 1070 77 900 120/11 RMK AO2 TSNO
94908KDBQ DBQ20000324032010803/24/00 03:20:31  5-MIN KDBQ 240920Z AUTO 12011KT 6SM HZ BKN090 11/07 A2993 1070 77 900 120/11 RMK AO2 TSNO
94908KDBQ DBQ20000324032510803/24/00 03:25:31  5-MIN KDBQ 240925Z AUTO 12012KT 6SM HZ OVC085 11/07 A2993 1070 77 900 120/12 RMK AO2 TSNO
94908KDBQ DBQ20000324033010803/24/00 03:30:31  5-MIN KDBQ 240930Z AUTO 11013KT 6SM HZ OVC085 11/07 A2993 1070 77 900 110/13 RMK AO2 TSNO
94908KDBQ DBQ20000324033510803/24/00 03:35:31  5-MIN KDBQ 240935Z AUTO 11013KT 6SM HZ OVC080 11/08 A2993 1070 80 900 110/13 RMK AO2 TSNO
94908KDBQ DBQ20000324034011503/24/00 03:40:31  5-MIN KDBQ 240940Z AUTO 11013KT 6SM HZ BKN075 OVC085 11/08 A2993 1070 80 900 110/13 RMK AO2 TSNO
94908KDBQ DBQ20000324034511503/24/00 03:45:31  5-MIN KDBQ 240945Z AUTO 11015KT 6SM HZ BKN075 OVC090 11/07 A2992 1080 80 800 110/15 RMK AO2 TSNO
94908KDBQ DBQ20000324035013203/24/00 03:50:31  5-MIN KDBQ 240950Z AUTO 12013KT 6SM HZ BKN075 OVC090 11/07 A2992 1080 80 800 120/13 RMK AO2 SLP132 T01060072 TSNO
94908KDBQ DBQ20000324035513203/24/00 03:55:31  5-MIN KDBQ 240955Z AUTO 12014KT 6SM HZ BKN075 OVC095 11/07 A2992 1080 80 800 110/14 RMK AO2 SLP131 T01060072 TSNO
94908KDBQ DBQ20000324040011503/24/00 04:00:31  5-MIN KDBQ 241000Z AUTO 11014KT 6SM HZ BKN080 OVC095 11/07 A2991 1080 80 800 110/14 RMK AO2 TSNO
94908KDBQ DBQ20000324040511503/24/00 04:05:31  5-MIN KDBQ 241005Z AUTO 11014KT 6SM HZ BKN080 OVC095 11/07 A2991 1090 80 900 110/14 RMK AO2 TSNO
94908KDBQ DBQ20000324041011503/24/00 04:10:31  5-MIN KDBQ 241010Z AUTO 11013KT 6SM HZ BKN080 OVC095 11/07 A2991 1090 80 900 110/13 RMK AO2 TSNO
94908KDBQ DBQ20000324041512103/24/00 04:15:31  5-MIN KDBQ 241015Z AUTO 11014KT 6SM -RA OVC085 11/07 A2991 1090 80 900 110/14 RMK AO2 RAB15 P0000 TSNO
94908KDBQ DBQ20000324042012803/24/00 04:20:31  5-MIN KDBQ 241020Z AUTO 12014KT 6SM -RA BKN080 OVC095 11/08 A2990 1090 83 900 110/14 RMK AO2 RAB15 P0000 TSNO
94908KDBQ DBQ20000324042513403/24/00 04:25:31  5-MIN KDBQ 241025Z AUTO 11016G22KT 6SM -RA FEW065 OVC090 11/08 A2990 1100 83 900 110/16G22 RMK AO2 RAB15 P0000 TSNO
94908KDBQ DBQ20000324043013603/24/00 04:30:31  5-MIN KDBQ 241030Z AUTO 11014G22KT 6SM HZ FEW075 OVC090 11/08 A2990 1100 83 900 110/14G22 RMK AO2 RAB15E29 P0000 TSNO
94908KDBQ DBQ20000324043513003/24/00 04:35:31  5-MIN KDBQ 241035Z AUTO 12013KT 6SM HZ FEW075 OVC090 11/08 A2990 1100 83 900 120/13 RMK AO2 RAB15E29 P0000 TSNO
94908KDBQ DBQ20000324044013703/24/00 04:40:31  5-MIN KDBQ 241040Z AUTO 12013KT 6SM HZ FEW065 SCT075 OVC090 11/07 A2990 1100 80 900 120/13 RMK AO2 RAB15E29 P0000 TSNO
94908KDBQ DBQ20000324044513003/24/00 04:45:31  5-MIN KDBQ 241045Z AUTO 12016KT 6SM HZ BKN070 OVC090 11/07 A2990 1100 80 900 120/16 RMK AO2 RAB15E29 P0000 TSNO
94908KDBQ DBQ20000324045014403/24/00 04:50:31  5-MIN KDBQ 241050Z AUTO 12016KT 7SM BKN070 OVC090 11/07 A2989 1110 77 900 120/16 RMK AO2 RAB15E29 SLP122 P0000 T01110072 TSNO
94908KDBQ DBQ20000324045514403/24/00 04:55:31  5-MIN KDBQ 241055Z AUTO 11014KT 7SM BKN070 OVC095 11/07 A2989 1110 77 900 110/14 RMK AO2 RAB15E29 SLP123 P0000 T01110072 TSNO
94908KDBQ DBQ20000324050011203/24/00 05:00:31  5-MIN KDBQ 241100Z AUTO 12016KT 7SM BKN070 OVC090 11/07 A2989 1110 80 900 120/16 RMK AO2 TSNO
94908KDBQ DBQ20000324050512803/24/00 05:05:31  5-MIN KDBQ 241105Z AUTO 12015KT 7SM -RA SCT065 OVC080 11/07 A2989 1110 77 900 120/15 RMK AO2 RAB04 P0000 TSNO
94908KDBQ DBQ20000324051013503/24/00 05:10:31  5-MIN KDBQ 241110Z AUTO 12013KT 7SM -RA FEW055 BKN065 OVC080 11/07 A2989 1110 77 900 120/13 RMK AO2 RAB04 P0000 TSNO
94908KDBQ DBQ20000324051513503/24/00 05:15:31  5-MIN KDBQ 241115Z AUTO 12012KT 7SM FEW055 BKN070 OVC090 11/07 A2988 1110 77 1000 120/12 RMK AO2 RAB04E15 P0000 TSNO
94908KDBQ DBQ20000324052013403/24/00 05:20:31  5-MIN KDBQ 241120Z AUTO 12014KT 7SM FEW055 BKN075 OVC090 11/07 A2988 1110 80 900 120/14 RMK AO2 RAB04E15 P0000 TSNO
94908KDBQ DBQ20000324052513503/24/00 05:25:31  5-MIN KDBQ 241125Z AUTO 12014KT 7SM SCT060 BKN075 OVC095 11/07 A2988 1110 77 1000 120/14 RMK AO2 RAB04E15 P0000 TSNO
94908KDBQ DBQ20000324053013503/24/00 05:30:31  5-MIN KDBQ 241130Z AUTO 13013KT 7SM SCT060 BKN070 OVC095 11/07 A2988 1110 77 1000 120/13 RMK AO2 RAB04E15 P0000 TSNO
94908KDBQ DBQ20000324053512803/24/00 05:35:31  5-MIN KDBQ 241135Z AUTO 12013KT 7SM FEW055 OVC075 11/07 A2988 1120 77 1000 120/13 RMK AO2 RAB04E15 P0000 TSNO
94908KDBQ DBQ20000324054012803/24/00 05:40:31  5-MIN KDBQ 241140Z AUTO 12013KT 7SM FEW055 OVC075 11/07 A2988 1120 77 1000 120/13 RMK AO2 RAB04E15 P0000 TSNO
94908KDBQ DBQ20000324054512503/24/00 05:45:31  5-MIN KDBQ 241145Z 12013KT 7SM BKN075 BKN090 OVC110 11/07 A2987 1120 77 1000 120/13 RMK AO2 RAB04E15 P0000
94908KDBQ DBQ20000324055015903/24/00 05:50:31  5-MIN KDBQ 241150Z 13011KT 7SM BKN075 OVC110 11/07 A2987 1130 77 1000 130/11 RMK AO2 RAB04E15 SLP116 P0000 60000 T01110072 10128 20106 58022
94908KDBQ DBQ20000324055516503/24/00 05:55:31  5-MIN KDBQ 241155Z 13011KT 7SM FEW060 BKN075 OVC110 11/07 A2987 1130 80 900 120/11 RMK AO2 RAB04E15 SLP116 P0000 60000 T01060072 10128 20106 56027
94908KDBQ DBQ20000324060011003/24/00 06:00:31  5-MIN KDBQ 241200Z 13011KT 7SM SCT060 BKN075 OVC110 11/07 A2986 1130 77 1000 130/11 RMK AO2
94908KDBQ DBQ20000324060511003/24/00 06:05:31  5-MIN KDBQ 241205Z 13012KT 7SM SCT060 BKN080 BKN110 11/07 A2986 1130 77 1000 130/12 RMK AO2
94908KDBQ DBQ20000324061011003/24/00 06:10:31  5-MIN KDBQ 241210Z 13014KT 7SM SCT065 BKN080 BKN110 11/07 A2987 1120 77 1000 130/14 RMK AO2
94908KDBQ DBQ20000324061511003/24/00 06:15:31  5-MIN KDBQ 241215Z 13012KT 7SM BKN065 BKN080 BKN110 11/07 A2986 1130 77 1000 130/12 RMK AO2
94908KDBQ DBQ20000324062011303/24/00 06:20:31  5-MIN KDBQ 241220Z 12012KT 6SM HZ SCT060 BKN075 OVC110 11/07 A2986 1140 77 1000 120/12 RMK AO2
94908KDBQ DBQ20000324062510603/24/00 06:25:31  5-MIN KDBQ 241225Z 13015KT 6SM HZ BKN065 BKN090 11/07 A2985 1140 77 1000 130/15 RMK AO2
94908KDBQ DBQ20000324063011303/24/00 06:30:31  5-MIN KDBQ 241230Z 12012KT 6SM HZ BKN070 BKN090 11/07 A2984 1150 77 1000 120/12 RMK AO2 PRESFR
94908KDBQ DBQ20000324063510603/24/00 06:35:31  5-MIN KDBQ 241235Z 12012KT 5SM HZ SCT070 BKN085 11/07 A2984 1150 77 1000 120/12 RMK AO2
94908KDBQ DBQ20000324064010603/24/00 06:40:31  5-MIN KDBQ 241240Z 12014KT 5SM HZ SCT070 BKN090 11/07 A2984 1160 77 1000 120/14 RMK AO2
94908KDBQ DBQ20000324064510603/24/00 06:45:31  5-MIN KDBQ 241245Z 12015KT 5SM HZ SCT070 BKN090 11/07 A2984 1150 77 1000 120/15 RMK AO2
94908KDBQ DBQ20000324065012303/24/00 06:50:31  5-MIN KDBQ 241250Z 12014KT 5SM HZ FEW070 BKN090 11/07 A2983 1160 77 1000 120/14 RMK AO2 SLP104 T01110072
94908KDBQ DBQ20000324065512303/24/00 06:55:31  5-MIN KDBQ 241255Z 11022KT 5SM HZ FEW065 BKN090 11/07 A2983 1160 77 1000 110/22 RMK AO2 SLP104 T01110072
94908KDBQ DBQ20000324070011303/24/00 07:00:31  5-MIN KDBQ 241300Z 14017KT 6SM HZ FEW045 BKN090 11/07 A2986 1130 77 1000 140/17 RMK AO2 PRESRR
94908KDBQ DBQ20000324070512603/24/00 07:05:31  5-MIN KDBQ 241305Z 14018KT 5SM -RA FEW032 SCT043 OVC090 11/08 A2986 1130 80 1000 140/18 RMK AO2 RAB02 P0000
94908KDBQ DBQ20000324071012403/24/00 07:10:31  5-MIN KDBQ 241310Z 14018KT 4SM RA FEW032 BKN043 OVC090 11/08 A2986 1140 83 900 140/18 RMK AO2 RAB02 P0000
94908KDBQ DBQ20000324071513703/24/00 07:15:31  5-MIN KDBQ 241315Z 13016G22KT 2 1/2SM RA BR FEW030 BKN043 OVC090 11/08 A2985 1140 86 900 130/16G22 RMK AO2 RAB02 P0002
94908KDBQ DBQ20000324072013803/24/00 07:20:31  5-MIN KDBQ 241320Z 13016G22KT 1 3/4SM +RA BR FEW019 BKN035 OVC090 10/08 A2985 1140 89 900 130/16G22 RMK AO2 RAB02 P0005
94908KDBQ DBQ20000324072513703/24/00 07:25:31  5-MIN KDBQ 241325Z 13016G21KT 1 3/4SM RA BR SCT019 BKN025 OVC043 10/08 A2985 1140 89 900 130/16G21 RMK AO2 RAB02 P0005
94908KDBQ DBQ20000324073012803/24/00 07:30:31  5-MIN KDBQ 241330Z 14017KT 2SM -RA BR FEW021 BKN027 OVC043 10/08 A2985 1140 89 900 130/17 RMK AO2 RAB02 P0006
94908KDBQ DBQ20000324073513203/24/00 07:35:31  5-MIN KDBQ 241335Z 13019KT 1 3/4SM +RA BR FEW021 BKN027 OVC042 10/09 A2985 1140 93 900 130/19 RMK AO2 RAB02 P0010
94908KDBQ DBQ20000324074013203/24/00 07:40:31  5-MIN KDBQ 241340Z 13017KT 1 1/4SM +RA BR FEW021 BKN033 OVC049 10/09 A2984 1150 93 900 130/17 RMK AO2 RAB02 P0014
94908KDBQ DBQ20000324074513203/24/00 07:45:31  5-MIN KDBQ 241345Z 13015KT 1 1/4SM +RA BR FEW021 BKN029 OVC049 10/09 A2983 1160 93 900 120/15 RMK AO2 RAB02 P0017
94908KDBQ DBQ20000324075015503/24/00 07:50:31  5-MIN KDBQ 241350Z 12015KT 1 3/4SM RA BR FEW021 BKN037 OVC060 10/09 A2982 1170 93 900 120/15 RMK AO2 RAB02 PRESFR SLP101 P0018 T01000089
94908KDBQ DBQ20000324075515503/24/00 07:55:31  5-MIN KDBQ 241355Z 12014KT 1 3/4SM RA BR FEW027 BKN035 OVC070 10/09 A2981 1180 93 900 120/14 RMK AO2 RAB02 PRESFR SLP098 P0019 T01000089
94908KDBQ DBQ20000324080012503/24/00 08:00:31  5-MIN KDBQ 241400Z 12014KT 1 3/4SM RA BR FEW030 BKN035 OVC065 10/09 A2981 1180 93 900 110/14 RMK AO2 P0001
94908KDBQ DBQ20000324080512503/24/00 08:05:31  5-MIN KDBQ 241405Z 11016KT 1 3/4SM RA BR SCT037 BKN048 OVC070 10/09 A2981 1180 96 900 110/16 RMK AO2 P0002
94908KDBQ DBQ20000324081012503/24/00 08:10:31  5-MIN KDBQ 241410Z 11015KT 1 3/4SM RA BR BKN031 BKN046 OVC070 10/09 A2981 1180 96 900 110/15 RMK AO2 P0003
94908KDBQ DBQ20000324081513103/24/00 08:15:31  5-MIN KDBQ 241415Z 13012G20KT 1 3/4SM RA BR FEW005 BKN031 OVC070 10/09 A2981 1180 96 900 130/12G20 RMK AO2 P0004
94908KDBQ DBQ20000324082012603/24/00 08:20:31  5-MIN KDBQ 241420Z 14014KT 1 1/2SM -RA BR SCT005 BKN031 OVC070 10/09 A2982 1180 96 900 140/14 RMK AO2 P0006
94908KDBQ DBQ20000324082512603/24/00 08:25:31  5-MIN KDBQ 241425Z 14013KT 1 1/4SM +RA BR SCT005 BKN031 OVC070 10/09 A2981 1180 96 900 140/13 RMK AO2 P0008
94908KDBQ DBQ20000324083012203/24/00 08:30:31  5-MIN KDBQ 241430Z 14014KT 1SM +RA BR BKN007 BKN010 OVC070 10/09 A2981 1180 96 900 140/14 RMK AO2 P0012
94908KDBQ DBQ20000324083512503/24/00 08:35:31  5-MIN KDBQ 241435Z 14013KT 1 1/4SM RA BR SCT007 BKN010 OVC024 10/09 A2981 1180 96 900 130/13 RMK AO2 P0013
94908KDBQ DBQ20000324084012603/24/00 08:40:31  5-MIN KDBQ 241440Z 14015KT 1 3/4SM -RA BR BKN007 BKN010 OVC024 10/09 A2981 1180 96 900 140/15 RMK AO2 P0013
94908KDBQ DBQ20000324084512603/24/00 08:45:31  5-MIN KDBQ 241445Z 14013KT 2 1/2SM -RA BR FEW007 BKN010 OVC019 10/09 A2981 1180 96 900 140/13 RMK AO2 P0014
94908KDBQ DBQ20000324085015103/24/00 08:50:31  5-MIN KDBQ 241450Z 15014KT 3SM -RA BR FEW007 BKN012 OVC019 10/09 A2981 1180 96 900 150/14 RMK AO2 SLP095 P0014 60033 T01000094 56027
94908KDBQ DBQ20000324085514603/24/00 08:55:31  5-MIN KDBQ 241455Z 14013KT 3SM BR BKN012 OVC017 10/09 A2981 1180 96 900 140/13 RMK AO2 RAE53 SLP095 P0014 60033 T01000094 56020
94908KDBQ DBQ20000324090009803/24/00 09:00:31  5-MIN KDBQ 241500Z 14012KT 3SM BR OVC014 10/09 A2980 1190 96 900 140/12 RMK AO2
94908KDBQ DBQ20000324090509803/24/00 09:05:31  5-MIN KDBQ 241505Z 13010KT 3SM BR OVC014 10/09 A2980 1190 96 900 130/10 RMK AO2
94908KDBQ DBQ20000324091010903/24/00 09:10:31  5-MIN KDBQ 241510Z 13013KT 2 1/2SM BR FEW007 OVC014 10/09 A2980 1190 96 900 130/13 RMK AO2
94908KDBQ DBQ20000324091510903/24/00 09:15:31  5-MIN KDBQ 241515Z 14014KT 2 1/2SM BR SCT007 OVC014 10/09 A2979 1190 96 900 130/14 RMK AO2
94908KDBQ DBQ20000324092011203/24/00 09:20:31  5-MIN KDBQ 241520Z 13014KT 3SM BR SCT007 BKN014 OVC021 10/09 A2979 1200 96 900 130/14 RMK AO2
94908KDBQ DBQ20000324092511703/24/00 09:25:31  5-MIN KDBQ 241525Z 14015KT 2 1/2SM BR FEW007 BKN014 OVC023 11/09 A2979 1200 93 1000 140/15 RMK AO2
94908KDBQ DBQ20000324093011303/24/00 09:30:31  5-MIN KDBQ 241530Z 14013KT 3SM BR SCT009 BKN014 OVC023 11/10 A2979 1200 96 1000 140/13 RMK AO2
94908KDBQ DBQ20000324093511303/24/00 09:35:31  5-MIN KDBQ 241535Z 14013KT 3SM BR FEW007 BKN012 OVC026 11/10 A2979 1200 93 1100 140/13 RMK AO2
94908KDBQ DBQ20000324094010603/24/00 09:40:31  5-MIN KDBQ 241540Z 14014KT 3SM BR BKN009 OVC021 11/10 A2979 1200 93 1100 140/14 RMK AO2
94908KDBQ DBQ20000324094511203/24/00 09:45:31  5-MIN KDBQ 241545Z 14014G21KT 3SM BR BKN009 OVC021 11/10 A2979 1200 93 1100 140/14G21 RMK AO2
94908KDBQ DBQ20000324095013603/24/00 09:50:31  5-MIN KDBQ 241550Z 14012G21KT 3SM BR SCT009 BKN012 OVC021 12/11 A2979 1200 93 1100 140/12G21 RMK AO2 SLP089 T01170106
94908KDBQ DBQ20000324095511603/24/00 09:55:31  5-MIN KDBQ 241555Z 15015KT 4SM BR OVC011 12/10 A2978 1210 89 1100 150/15 RMK AO2 SLP087 T01170100
94908KDBQ DBQ20000324100009903/24/00 10:00:31  5-MIN KDBQ 241600Z 15013KT 4SM BR OVC011 12/10 A2979 1200 89 1100 150/13 RMK AO2
94908KDBQ DBQ20000324100509903/24/00 10:05:31  5-MIN KDBQ 241605Z 15012KT 4SM BR OVC011 12/11 A2978 1200 93 1100 150/12 RMK AO2
94908KDBQ DBQ20000324101009903/24/00 10:10:31  5-MIN KDBQ 241610Z 15012KT 4SM BR OVC011 12/11 A2978 1210 93 1100 150/12 RMK AO2
94908KDBQ DBQ20000324101509903/24/00 10:15:31  5-MIN KDBQ 241615Z 16012KT 4SM BR OVC011 12/11 A2978 1210 89 1200 160/12 RMK AO2
94908KDBQ DBQ20000324102009903/24/00 10:20:31  5-MIN KDBQ 241620Z 16013KT 4SM BR OVC011 12/11 A2977 1210 89 1200 160/13 RMK AO2
94908KDBQ DBQ20000324102509903/24/00 10:25:31  5-MIN KDBQ 241625Z 16011KT 4SM BR OVC013 13/11 A2977 1210 89 1300 160/11 RMK AO2
94908KDBQ DBQ20000324103009903/24/00 10:30:31  5-MIN KDBQ 241630Z 16014KT 4SM BR OVC013 13/11 A2977 1220 89 1300 160/14 RMK AO2
94908KDBQ DBQ20000324103509903/24/00 10:35:31  5-MIN KDBQ 241635Z 16012KT 4SM BR OVC013 12/11 A2977 1220 93 1200 160/12 RMK AO2
94908KDBQ DBQ20000324104009903/24/00 10:40:31  5-MIN KDBQ 241640Z 16011KT 4SM BR OVC013 13/11 A2977 1220 89 1300 160/11 RMK AO2
94908KDBQ DBQ20000324104509903/24/00 10:45:31  5-MIN KDBQ 241645Z 16012KT 4SM BR OVC013 13/11 A2977 1220 89 1300 160/12 RMK AO2
94908KDBQ DBQ20000324105011603/24/00 10:50:31  5-MIN KDBQ 241650Z 16010KT 4SM BR OVC015 13/11 A2977 1220 89 1300 160/10 RMK AO2 SLP080 T01280111
94908KDBQ DBQ20000324105511603/24/00 10:55:31  5-MIN KDBQ 241655Z 16012KT 4SM BR OVC015 13/11 A2977 1220 89 1300 160/12 RMK AO2 SLP082 T01280111
94908KDBQ DBQ20000324110009903/24/00 11:00:31  5-MIN KDBQ 241700Z 16010KT 4SM BR OVC015 13/11 A2977 1220 89 1300 160/10 RMK AO2
94908KDBQ DBQ20000324110509903/24/00 11:05:31  5-MIN KDBQ 241705Z 15011KT 4SM BR OVC015 13/11 A2977 1220 89 1300 150/11 RMK AO2
94908KDBQ DBQ20000324111009903/24/00 11:10:31  5-MIN KDBQ 241710Z 15011KT 4SM BR OVC017 13/11 A2977 1220 89 1300 150/11 RMK AO2
94908KDBQ DBQ20000324111509903/24/00 11:15:31  5-MIN KDBQ 241715Z 15010KT 4SM BR OVC017 13/11 A2977 1220 89 1300 140/10 RMK AO2
94908KDBQ DBQ20000324112010603/24/00 11:20:31  5-MIN KDBQ 241720Z 14011KT 4SM BR BKN017 OVC025 13/12 A2976 1220 93 1300 140/11 RMK AO2
94908KDBQ DBQ20000324112510603/24/00 11:25:31  5-MIN KDBQ 241725Z 14010KT 4SM BR BKN019 OVC025 13/12 A2976 1220 89 1400 140/10 RMK AO2
94908KDBQ DBQ20000324113011303/24/00 11:30:31  5-MIN KDBQ 241730Z 14010KT 4SM BR SCT017 BKN023 OVC031 13/12 A2976 1220 89 1400 140/10 RMK AO2
94908KDBQ DBQ20000324113510603/24/00 11:35:31  5-MIN KDBQ 241735Z 14010KT 4SM BR BKN019 OVC025 13/12 A2976 1230 89 1400 140/10 RMK AO2
94908KDBQ DBQ20000324114010603/24/00 11:40:31  5-MIN KDBQ 241740Z 14010KT 4SM BR BKN019 OVC025 13/12 A2976 1230 89 1400 140/10 RMK AO2
94908KDBQ DBQ20000324114510603/24/00 11:45:31  5-MIN KDBQ 241745Z 14010KT 4SM BR BKN019 OVC025 13/12 A2976 1230 89 1400 140/10 RMK AO2
94908KDBQ DBQ20000324115014003/24/00 11:50:31  5-MIN KDBQ 241750Z 15009KT 4SM BR OVC019 13/12 A2976 1230 89 1400 150/09 RMK AO2 SLP079 60033 T01330117 10133 20100 56020
94908KDBQ DBQ20000324115514703/24/00 11:55:31  5-MIN KDBQ 241755Z 16008KT 4SM BR BKN019 OVC025 13/12 A2976 1230 89 1400 160/08 RMK AO2 SLP077 60033 T01330117 10133 20100 56017
94908KDBQ DBQ20000324120010603/24/00 12:00:31  5-MIN KDBQ 241800Z 17009KT 4SM BR BKN019 OVC025 14/12 A2976 1230 86 1400 170/09 RMK AO2
94908KDBQ DBQ20000324120511303/24/00 12:05:31  5-MIN KDBQ 241805Z 17011KT 5SM BR BKN019 BKN036 OVC060 14/12 A2976 1230 86 1400 170/11 RMK AO2
94908KDBQ DBQ20000324121011303/24/00 12:10:31  5-MIN KDBQ 241810Z 17011KT 5SM HZ BKN019 BKN024 OVC060 14/12 A2976 1230 83 1500 170/11 RMK AO2
94908KDBQ DBQ20000324121511303/24/00 12:15:31  5-MIN KDBQ 241815Z 17011KT 6SM HZ BKN019 BKN024 OVC060 14/12 A2975 1230 83 1500 170/11 RMK AO2
94908KDBQ DBQ20000324122011303/24/00 12:20:31  5-MIN KDBQ 241820Z 16011KT 6SM BR BKN017 BKN021 OVC060 14/12 A2975 1230 86 1500 160/11 RMK AO2
94908KDBQ DBQ20000324122511303/24/00 12:25:31  5-MIN KDBQ 241825Z 17012KT 6SM HZ FEW015 BKN020 OVC065 15/12 A2975 1240 83 1600 170/12 RMK AO2
94908KDBQ DBQ20000324123011303/24/00 12:30:31  5-MIN KDBQ 241830Z 17013KT 6SM HZ SCT017 BKN022 OVC070 15/12 A2975 1240 83 1600 170/13 RMK AO2
94908KDBQ DBQ20000324123511303/24/00 12:35:31  5-MIN KDBQ 241835Z 17010KT 6SM HZ SCT017 BKN022 OVC070 15/12 A2974 1240 83 1600 170/10 RMK AO2
94908KDBQ DBQ20000324124011303/24/00 12:40:31  5-MIN KDBQ 241840Z 18012KT 6SM HZ SCT017 BKN022 OVC070 15/12 A2974 1240 80 1600 180/12 RMK AO2
94908KDBQ DBQ20000324124511303/24/00 12:45:31  5-MIN KDBQ 241845Z 18012KT 6SM HZ SCT017 BKN022 OVC070 15/12 A2975 1240 80 1600 170/12 RMK AO2
94908KDBQ DBQ20000324125013003/24/00 12:50:31  5-MIN KDBQ 241850Z 18011KT 6SM HZ SCT017 BKN022 OVC070 14/12 A2974 1240 83 1500 180/11 RMK AO2 SLP072 T01440117
94908KDBQ DBQ20000324125513003/24/00 12:55:31  5-MIN KDBQ 241855Z 18015KT 6SM HZ SCT017 BKN023 OVC055 15/12 A2974 1250 80 1600 180/15 RMK AO2 SLP071 T01500117
94908KDBQ DBQ20000324130011303/24/00 13:00:31  5-MIN KDBQ 241900Z 18016KT 6SM HZ BKN020 BKN031 OVC055 14/12 A2974 1250 83 1500 180/16 RMK AO2
94908KDBQ DBQ20000324130511003/24/00 13:05:31  5-MIN KDBQ 241905Z 18012KT 7SM SCT020 BKN023 OVC055 14/12 A2974 1250 83 1500 180/12 RMK AO2
94908KDBQ DBQ20000324131011003/24/00 13:10:31  5-MIN KDBQ 241910Z 18014KT 7SM SCT020 BKN023 OVC055 15/12 A2974 1250 80 1600 180/14 RMK AO2
94908KDBQ DBQ20000324131511003/24/00 13:15:31  5-MIN KDBQ 241915Z 18012KT 7SM SCT020 BKN023 OVC055 14/12 A2974 1250 83 1500 180/12 RMK AO2
94908KDBQ DBQ20000324132011003/24/00 13:20:31  5-MIN KDBQ 241920Z 18012KT 7SM SCT020 BKN023 OVC055 14/12 A2974 1250 83 1500 180/12 RMK AO2
94908KDBQ DBQ20000324132511303/24/00 13:25:31  5-MIN KDBQ 241925Z 18011KT 6SM HZ SCT020 BKN023 OVC055 14/12 A2973 1250 83 1500 180/11 RMK AO2
94908KDBQ DBQ20000324133011303/24/00 13:30:31  5-MIN KDBQ 241930Z 18010KT 6SM HZ SCT020 BKN023 OVC055 15/12 A2973 1250 83 1600 180/10 RMK AO2
94908KDBQ DBQ20000324133511303/24/00 13:35:31  5-MIN KDBQ 241935Z 18011KT 6SM HZ SCT020 BKN023 OVC055 15/12 A2974 1250 83 1600 180/11 RMK AO2
94908KDBQ DBQ20000324134011303/24/00 13:40:31  5-MIN KDBQ 241940Z 19011KT 6SM HZ SCT020 BKN023 OVC055 15/12 A2974 1250 80 1600 190/11 RMK AO2
94908KDBQ DBQ20000324134511003/24/00 13:45:31  5-MIN KDBQ 241945Z 19010KT 7SM SCT020 BKN023 OVC055 15/12 A2974 1250 80 1600 190/10 RMK AO2
94908KDBQ DBQ20000324135012703/24/00 13:50:31  5-MIN KDBQ 241950Z 19011KT 7SM SCT020 BKN023 OVC055 15/12 A2974 1250 80 1600 190/11 RMK AO2 SLP070 T01500117
94908KDBQ DBQ20000324135512703/24/00 13:55:31  5-MIN KDBQ 241955Z 19009KT 7SM FEW023 SCT043 OVC055 15/12 A2974 1250 83 1600 190/09 RMK AO2 SLP070 T01500122
94908KDBQ DBQ20000324140011003/24/00 14:00:31  5-MIN KDBQ 242000Z 19011KT 8SM FEW025 BKN055 OVC065 16/13 A2973 1250 80 1700 180/11 RMK AO2
94908KDBQ DBQ20000324140511003/24/00 14:05:31  5-MIN KDBQ 242005Z 20015KT 8SM FEW025 BKN055 BKN065 17/12 A2973 1250 75 1800 200/15 RMK AO2
94908KDBQ DBQ20000324141011003/24/00 14:10:31  5-MIN KDBQ 242010Z 20016KT 9SM SCT022 SCT027 BKN055 17/12 A2973 1250 72 1800 200/16 RMK AO2
94908KDBQ DBQ20000324141511703/24/00 14:15:31  5-MIN KDBQ 242015Z 20016G22KT 10SM SCT022 SCT029 BKN060 17/12 A2973 1260 72 1800 200/16G22 RMK AO2
94908KDBQ DBQ20000324142011103/24/00 14:20:31  5-MIN KDBQ 242020Z 20016KT 10SM FEW022 SCT029 BKN065 17/12 A2974 1250 72 1800 200/16 RMK AO2
94908KDBQ DBQ20000324142510403/24/00 14:25:31  5-MIN KDBQ 242025Z 21014KT 10SM FEW022 BKN065 17/12 A2973 1250 75 1800 210/14 RMK AO2
94908KDBQ DBQ20000324143011103/24/00 14:30:31  5-MIN KDBQ 242030Z 21016KT 10SM FEW024 SCT035 BKN065 17/12 A2973 1250 72 1800 210/16 RMK AO2
94908KDBQ DBQ20000324143511703/24/00 14:35:31  5-MIN KDBQ 242035Z 22016G20KT 10SM FEW024 BKN041 OVC065 16/11 A2973 1250 72 1700 220/16G20 RMK AO2
94908KDBQ DBQ20000324144011103/24/00 14:40:31  5-MIN KDBQ 242040Z 21015KT 10SM FEW033 SCT041 OVC065 16/11 A2974 1250 72 1700 210/15 RMK AO2
94908KDBQ DBQ20000324144510403/24/00 14:45:31  5-MIN KDBQ 242045Z 22014KT 10SM FEW033 OVC065 16/11 A2974 1250 72 1700 220/14 RMK AO2
94908KDBQ DBQ20000324145012703/24/00 14:50:31  5-MIN KDBQ 242050Z 23016KT 10SM SCT033 OVC065 16/11 A2974 1250 72 1700 220/16 RMK AO2 SLP071 T01610111 56017
94908KDBQ DBQ20000324145513403/24/00 14:55:31  5-MIN KDBQ 242055Z 23014KT 10SM BKN033 BKN041 OVC065 16/11 A2974 1240 69 1700 230/14 RMK AO2 SLP072 T01610106 55005
94908KDBQ DBQ20000324150010403/24/00 15:00:31  5-MIN KDBQ 242100Z 23013KT 10SM BKN036 OVC065 16/11 A2974 1240 74 1600 230/13 RMK AO2
94908KDBQ DBQ20000324150510403/24/00 15:05:31  5-MIN KDBQ 242105Z 22013KT 10SM SCT036 OVC065 16/11 A2974 1240 72 1700 220/13 RMK AO2
94908KDBQ DBQ20000324151011103/24/00 15:10:31  5-MIN KDBQ 242110Z 23011KT 10SM FEW029 SCT036 OVC065 16/12 A2974 1240 75 1700 230/11 RMK AO2
94908KDBQ DBQ20000324151510403/24/00 15:15:31  5-MIN KDBQ 242115Z 23014KT 10SM SCT036 OVC070 17/12 A2974 1240 72 1800 230/14 RMK AO2
94908KDBQ DBQ20000324152010403/24/00 15:20:31  5-MIN KDBQ 242120Z 22014KT 10SM FEW031 OVC065 17/11 A2974 1240 69 1800 220/14 RMK AO2
94908KDBQ DBQ20000324152509703/24/00 15:25:31  5-MIN KDBQ 242125Z 23016KT 10SM OVC070 17/11 A2974 1240 67 1800 220/16 RMK AO2
94908KDBQ DBQ20000324153010303/24/00 15:30:31  5-MIN KDBQ 242130Z 22015G22KT 10SM OVC070 17/11 A2974 1250 67 1800 220/15G22 RMK AO2
94908KDBQ DBQ20000324153511003/24/00 15:35:31  5-MIN KDBQ 242135Z 22016G22KT 10SM FEW034 BKN070 17/11 A2975 1240 64 1800 220/16G22 RMK AO2
94908KDBQ DBQ20000324154011003/24/00 15:40:31  5-MIN KDBQ 242140Z 22017G24KT 10SM SCT034 BKN070 17/11 A2975 1240 64 1800 220/17G24 RMK AO2
94908KDBQ DBQ20000324154511003/24/00 15:45:31  5-MIN KDBQ 242145Z 24017G24KT 10SM SCT036 BKN070 17/11 A2975 1240 64 1800 240/17G24 RMK AO2
94908KDBQ DBQ20000324155012103/24/00 15:50:31  5-MIN KDBQ 242150Z 23014KT 10SM SCT036 BKN070 17/11 A2975 1230 67 1800 230/14 RMK AO2 SLP076 T01720111
94908KDBQ DBQ20000324155512103/24/00 15:55:31  5-MIN KDBQ 242155Z 23018KT 10SM SCT036 SCT070 17/11 A2975 1230 64 1800 230/18 RMK AO2 SLP076 T01720106
94908KDBQ DBQ20000324160010403/24/00 16:00:31  5-MIN KDBQ 242200Z 23015KT 10SM FEW036 SCT070 17/11 A2976 1230 64 1800 230/15 RMK AO2
94908KDBQ DBQ20000324160510403/24/00 16:05:31  5-MIN KDBQ 242205Z 23017KT 10SM FEW036 SCT070 17/10 A2976 1230 62 1800 230/17 RMK AO2
94908KDBQ DBQ20000324161010403/24/00 16:10:31  5-MIN KDBQ 242210Z 23014KT 10SM FEW036 SCT070 17/11 A2976 1230 67 1700 230/14 RMK AO2
94908KDBQ DBQ20000324161509703/24/00 16:15:31  5-MIN KDBQ 242215Z 23014KT 10SM BKN065 17/10 A2976 1230 64 1700 230/14 RMK AO2
94908KDBQ DBQ20000324162009703/24/00 16:20:31  5-MIN KDBQ 242220Z 24016KT 10SM BKN065 17/11 A2976 1230 67 1700 240/16 RMK AO2
94908KDBQ DBQ20000324162509703/24/00 16:25:31  5-MIN KDBQ 242225Z 23014KT 10SM BKN065 17/10 A2976 1230 64 1700 230/14 RMK AO2
94908KDBQ DBQ20000324163009703/24/00 16:30:31  5-MIN KDBQ 242230Z 24015KT 10SM OVC065 17/10 A2976 1220 64 1700 240/15 RMK AO2
94908KDBQ DBQ20000324163509703/24/00 16:35:31  5-MIN KDBQ 242235Z 24014KT 10SM BKN065 17/10 A2976 1220 64 1700 230/14 RMK AO2
94908KDBQ DBQ20000324164009703/24/00 16:40:31  5-MIN KDBQ 242240Z 23013KT 10SM BKN060 17/11 A2976 1220 64 1800 230/13 RMK AO2
94908KDBQ DBQ20000324164509703/24/00 16:45:31  5-MIN KDBQ 242245Z 23013KT 10SM BKN060 17/11 A2976 1220 64 1800 230/13 RMK AO2
94908KDBQ DBQ20000324165011403/24/00 16:50:31  5-MIN KDBQ 242250Z 23012KT 10SM SCT060 17/10 A2977 1220 62 1800 220/12 RMK AO2 SLP079 T01720100
94908KDBQ DBQ20000324165511403/24/00 16:55:31  5-MIN KDBQ 242255Z 23013KT 10SM FEW060 17/10 A2977 1220 62 1800 230/13 RMK AO2 SLP080 T01720100
94908KDBQ DBQ20000324170009703/24/00 17:00:31  5-MIN KDBQ 242300Z 23013KT 10SM FEW060 17/10 A2977 1220 64 1700 230/13 RMK AO2
94908KDBQ DBQ20000324170509703/24/00 17:05:31  5-MIN KDBQ 242305Z 23015KT 10SM FEW060 17/10 A2977 1220 64 1700 230/15 RMK AO2
94908KDBQ DBQ20000324171009403/24/00 17:10:31  5-MIN KDBQ 242310Z 23012KT 10SM CLR 17/10 A2977 1220 64 1700 230/12 RMK AO2
94908KDBQ DBQ20000324171509403/24/00 17:15:31  5-MIN KDBQ 242315Z 23011KT 10SM CLR 17/10 A2977 1210 64 1700 230/11 RMK AO2
94908KDBQ DBQ20000324172009403/24/00 17:20:31  5-MIN KDBQ 242320Z 23011KT 10SM CLR 17/10 A2977 1210 64 1700 230/11 RMK AO2
94908KDBQ DBQ20000324172509403/24/00 17:25:31  5-MIN KDBQ 242325Z 24009KT 10SM CLR 17/10 A2978 1210 64 1700 230/09 RMK AO2
94908KDBQ DBQ20000324173009403/24/00 17:30:31  5-MIN KDBQ 242330Z 24009KT 10SM CLR 16/10 A2978 1210 67 1700 230/09 RMK AO2
94908KDBQ DBQ20000324173509403/24/00 17:35:31  5-MIN KDBQ 242335Z 23008KT 10SM CLR 16/10 A2978 1210 67 1700 230/08 RMK AO2
94908KDBQ DBQ20000324174009403/24/00 17:40:31  5-MIN KDBQ 242340Z 23009KT 10SM CLR 16/10 A2978 1210 67 1700 230/09 RMK AO2
94908KDBQ DBQ20000324174509403/24/00 17:45:31  5-MIN KDBQ 242345Z 23009KT 10SM CLR 16/10 A2978 1210 69 1600 230/09 RMK AO2
94908KDBQ DBQ20000324175012903/24/00 17:50:31  5-MIN KDBQ 242350Z 23009KT 10SM CLR 16/10 A2978 1210 69 1600 230/09 RMK AO2 SLP086 T01560100 10172 20133 55005
94908KDBQ DBQ20000324175512903/24/00 17:55:31  5-MIN KDBQ 242355Z 23008KT 10SM CLR 16/10 A2979 1200 69 1600 230/08 RMK AO2 SLP087 T01560100 10172 20133 53015
94908KDBQ DBQ20000324180010403/24/00 18:00:31  5-MIN KDBQ 250000Z 23008KT 10SM FEW049 SCT060 16/10 A2979 1200 69 1600 230/08 RMK AO2
94908KDBQ DBQ20000324180510403/24/00 18:05:31  5-MIN KDBQ 250005Z 23008KT 10SM SCT049 BKN060 16/10 A2979 1200 69 1600 230/08 RMK AO2
94908KDBQ DBQ20000324181010403/24/00 18:10:31  5-MIN KDBQ 250010Z 23007KT 10SM BKN047 BKN060 15/10 A2979 1200 72 1500 230/07 RMK AO2
94908KDBQ DBQ20000324181510403/24/00 18:15:31  5-MIN KDBQ 250015Z 23008KT 10SM BKN047 BKN065 15/10 A2979 1200 72 1500 230/08 RMK AO2
94908KDBQ DBQ20000324182010403/24/00 18:20:31  5-MIN KDBQ 250020Z 22008KT 10SM BKN047 OVC065 15/10 A2979 1200 72 1500 220/08 RMK AO2
94908KDBQ DBQ20000324182510403/24/00 18:25:31  5-MIN KDBQ 250025Z 23008KT 10SM BKN047 OVC060 15/10 A2979 1200 72 1500 230/08 RMK AO2
94908KDBQ DBQ20000324183010403/24/00 18:30:31  5-MIN KDBQ 250030Z 22007KT 10SM BKN045 OVC060 15/10 A2979 1200 72 1500 220/07 RMK AO2
94908KDBQ DBQ20000324183510403/24/00 18:35:31  5-MIN KDBQ 250035Z 23007KT 10SM SCT045 OVC065 15/10 A2980 1190 72 1500 230/07 RMK AO2
94908KDBQ DBQ20000324184010403/24/00 18:40:31  5-MIN KDBQ 250040Z 23007KT 10SM FEW045 OVC070 14/10 A2980 1190 74 1400 230/07 RMK AO2
94908KDBQ DBQ20000324184510403/24/00 18:45:31  5-MIN KDBQ 250045Z 23006KT 10SM SCT045 OVC065 14/10 A2980 1190 74 1400 230/06 RMK AO2
94908KDBQ DBQ20000324185012803/24/00 18:50:31  5-MIN KDBQ 250050Z 24007KT 10SM SCT041 BKN060 OVC070 14/10 A2980 1190 74 1400 240/07 RMK AO2 SLP094 T01440100
94908KDBQ DBQ20000324185512103/24/00 18:55:31  5-MIN KDBQ 250055Z 24008KT 10SM SCT041 OVC065 14/10 A2980 1190 74 1400 240/08 RMK AO2 SLP094 T01440100
94908KDBQ DBQ20000324190010403/24/00 19:00:31  5-MIN KDBQ 250100Z 24010KT 10SM BKN041 OVC070 14/10 A2981 1180 74 1400 240/10 RMK AO2
94908KDBQ DBQ20000324190510403/24/00 19:05:31  5-MIN KDBQ 250105Z 24010KT 10SM BKN041 OVC065 15/10 A2981 1180 72 1500 240/10 RMK AO2
94908KDBQ DBQ20000324191010403/24/00 19:10:31  5-MIN KDBQ 250110Z 25010KT 10SM BKN038 OVC070 15/10 A2981 1180 72 1500 250/10 RMK AO2
94908KDBQ DBQ20000324191509703/24/00 19:15:31  5-MIN KDBQ 250115Z 26012KT 10SM OVC038 15/10 A2981 1180 72 1500 250/12 RMK AO2
94908KDBQ DBQ20000324192009703/24/00 19:20:31  5-MIN KDBQ 250120Z 26011KT 10SM OVC038 15/10 A2981 1180 72 1500 260/11 RMK AO2
94908KDBQ DBQ20000324192510403/24/00 19:25:31  5-MIN KDBQ 250125Z 26013KT 10SM BKN038 OVC045 15/10 A2981 1180 72 1500 260/13 RMK AO2
94908KDBQ DBQ20000324193011103/24/00 19:30:31  5-MIN KDBQ 250130Z 26009KT 10SM BKN038 BKN045 OVC075 15/10 A2981 1180 72 1500 250/09 RMK AO2
94908KDBQ DBQ20000324193511103/24/00 19:35:31  5-MIN KDBQ 250135Z 26012KT 10SM BKN038 BKN045 OVC070 15/10 A2981 1180 72 1500 260/12 RMK AO2
94908KDBQ DBQ20000324194011103/24/00 19:40:31  5-MIN KDBQ 250140Z 26011KT 10SM BKN038 BKN055 OVC070 14/10 A2982 1180 74 1400 260/11 RMK AO2
94908KDBQ DBQ20000324194510403/24/00 19:45:31  5-MIN KDBQ 250145Z 25010KT 10SM SCT038 OVC070 14/10 A2982 1170 74 1400 250/10 RMK AO2
94908KDBQ DBQ20000324195012103/24/00 19:50:31  5-MIN KDBQ 250150Z 25010KT 10SM FEW040 OVC070 14/10 A2982 1170 74 1400 240/10 RMK AO2 SLP099 T01440100
94908KDBQ DBQ20000324195512103/24/00 19:55:31  5-MIN KDBQ 250155Z 24009KT 10SM FEW040 BKN070 14/10 A2982 1170 77 1400 240/09 RMK AO2 SLP099 T01390100
94908KDBQ DBQ20000324200009703/24/00 20:00:31  5-MIN KDBQ 250200Z 24009KT 10SM SCT070 14/10 A2982 1180 77 1400 240/09 RMK AO2
94908KDBQ DBQ20000324200510703/24/00 20:05:31  5-MIN KDBQ 250205Z AUTO 24009KT 10SM SCT070 13/10 A2982 1170 80 1300 240/09 RMK AO2 TSNO
94908KDBQ DBQ20000324201010703/24/00 20:10:31  5-MIN KDBQ 250210Z AUTO 24010KT 10SM SCT070 13/09 A2982 1170 77 1300 240/10 RMK AO2 TSNO
94908KDBQ DBQ20000324201510703/24/00 20:15:31  5-MIN KDBQ 250215Z AUTO 24009KT 10SM FEW065 13/09 A2982 1170 77 1300 240/09 RMK AO2 TSNO
94908KDBQ DBQ20000324202010703/24/00 20:20:31  5-MIN KDBQ 250220Z AUTO 24009KT 10SM SCT060 13/10 A2982 1170 80 1300 240/09 RMK AO2 TSNO
94908KDBQ DBQ20000324202510703/24/00 20:25:31  5-MIN KDBQ 250225Z AUTO 24008KT 10SM BKN060 13/10 A2982 1170 83 1200 240/08 RMK AO2 TSNO
94908KDBQ DBQ20000324203010703/24/00 20:30:31  5-MIN KDBQ 250230Z AUTO 24008KT 10SM BKN060 13/10 A2982 1170 83 1200 240/08 RMK AO2 TSNO
94908KDBQ DBQ20000324203510703/24/00 20:35:31  5-MIN KDBQ 250235Z AUTO 24009KT 10SM BKN060 13/10 A2983 1170 80 1300 240/09 RMK AO2 TSNO
94908KDBQ DBQ20000324204010703/24/00 20:40:31  5-MIN KDBQ 250240Z AUTO 24008KT 10SM BKN060 13/10 A2982 1170 83 1200 240/08 RMK AO2 TSNO
94908KDBQ DBQ20000324204510703/24/00 20:45:31  5-MIN KDBQ 250245Z AUTO 24008KT 10SM OVC060 13/10 A2983 1160 83 1200 230/08 RMK AO2 TSNO
94908KDBQ DBQ20000324205013003/24/00 20:50:31  5-MIN KDBQ 250250Z AUTO 23010KT 10SM BKN060 13/10 A2983 1160 80 1300 230/10 RMK AO2 SLP103 T01330100 53015 TSNO
94908KDBQ DBQ20000324205513703/24/00 20:55:31  5-MIN KDBQ 250255Z AUTO 24012KT 10SM SCT024 OVC060 13/10 A2983 1160 80 1300 240/12 RMK AO2 SLP103 T01330100 51015 TSNO
94908KDBQ DBQ20000324210011403/24/00 21:00:31  5-MIN KDBQ 250300Z AUTO 24011KT 10SM BKN024 OVC060 13/10 A2983 1160 80 1300 240/11 RMK AO2 TSNO
94908KDBQ DBQ20000324210511403/24/00 21:05:31  5-MIN KDBQ 250305Z AUTO 24010KT 10SM BKN021 OVC060 13/10 A2983 1160 80 1300 240/10 RMK AO2 TSNO
94908KDBQ DBQ20000324211011303/24/00 21:10:31  5-MIN KDBQ 250310Z AUTO 24011KT 9SM BKN021 OVC060 13/10 A2984 1150 80 1300 240/11 RMK AO2 TSNO
94908KDBQ DBQ20000324211511303/24/00 21:15:31  5-MIN KDBQ 250315Z AUTO 24011KT 9SM BKN021 OVC025 13/11 A2984 1150 83 1300 240/11 RMK AO2 TSNO
94908KDBQ DBQ20000324212011303/24/00 21:20:31  5-MIN KDBQ 250320Z AUTO 24011KT 9SM BKN021 OVC027 13/11 A2984 1150 83 1300 240/11 RMK AO2 TSNO
94908KDBQ DBQ20000324212512003/24/00 21:25:31  5-MIN KDBQ 250325Z AUTO 24012KT 9SM BKN021 BKN027 OVC032 13/11 A2985 1150 83 1300 240/12 RMK AO2 TSNO
94908KDBQ DBQ20000324213012003/24/00 21:30:31  5-MIN KDBQ 250330Z AUTO 25014KT 9SM SCT021 BKN027 OVC032 13/11 A2985 1140 83 1300 250/14 RMK AO2 TSNO
94908KDBQ DBQ20000324213512003/24/00 21:35:31  5-MIN KDBQ 250335Z AUTO 25012KT 9SM BKN021 BKN027 OVC032 13/11 A2985 1140 83 1200 250/12 RMK AO2 TSNO
94908KDBQ DBQ20000324214012003/24/00 21:40:31  5-MIN KDBQ 250340Z AUTO 25014KT 9SM BKN019 BKN027 OVC034 13/11 A2985 1140 86 1200 250/14 RMK AO2 TSNO
94908KDBQ DBQ20000324214512003/24/00 21:45:31  5-MIN KDBQ 250345Z AUTO 25016KT 9SM BKN019 BKN027 OVC034 13/11 A2985 1140 86 1200 250/16 RMK AO2 TSNO
94908KDBQ DBQ20000324215013703/24/00 21:50:31  5-MIN KDBQ 250350Z AUTO 26014G22KT 10SM BKN019 OVC032 13/10 A2986 1130 83 1200 260/14G22 RMK AO2 SLP113 T01280100 TSNO
94908KDBQ DBQ20000324215513703/24/00 21:55:31  5-MIN KDBQ 250355Z AUTO 25017G22KT 10SM BKN019 OVC032 13/10 A2986 1140 83 1200 250/17G22 RMK AO2 SLP112 T01280100 TSNO
94908KDBQ DBQ20000324220012003/24/00 22:00:31  5-MIN KDBQ 250400Z AUTO 25013G21KT 10SM BKN019 OVC049 13/10 A2986 1130 83 1200 250/13G21 RMK AO2 TSNO
94908KDBQ DBQ20000324220512003/24/00 22:05:31  5-MIN KDBQ 250405Z AUTO 25013G21KT 10SM BKN019 OVC049 13/10 A2986 1130 83 1200 250/13G21 RMK AO2 TSNO
94908KDBQ DBQ20000324221012703/24/00 22:10:31  5-MIN KDBQ 250410Z AUTO 25014G21KT 10SM BKN019 BKN030 OVC049 13/10 A2987 1130 83 1200 250/14G21 RMK AO2 TSNO
94908KDBQ DBQ20000324221512103/24/00 22:15:31  5-MIN KDBQ 250415Z AUTO 25016KT 10SM BKN017 BKN030 OVC049 12/10 A2987 1130 86 1100 250/16 RMK AO2 TSNO
94908KDBQ DBQ20000324222011403/24/00 22:20:31  5-MIN KDBQ 250420Z AUTO 25016KT 10SM BKN015 OVC049 12/10 A2987 1130 86 1100 250/16 RMK AO2 TSNO
94908KDBQ DBQ20000324222511403/24/00 22:25:31  5-MIN KDBQ 250425Z AUTO 26016KT 10SM BKN015 OVC049 12/10 A2987 1130 86 1100 260/16 RMK AO2 TSNO
94908KDBQ DBQ20000324223011403/24/00 22:30:31  5-MIN KDBQ 250430Z AUTO 26016KT 10SM BKN015 OVC049 12/10 A2987 1120 86 1100 260/16 RMK AO2 TSNO
94908KDBQ DBQ20000324223511303/24/00 22:35:31  5-MIN KDBQ 250435Z AUTO 26015G21KT 10SM OVC015 12/10 A2987 1120 86 1100 250/15G21 RMK AO2 TSNO
94908KDBQ DBQ20000324224012003/24/00 22:40:31  5-MIN KDBQ 250440Z AUTO 27018G21KT 10SM BKN015 OVC045 12/10 A2987 1120 86 1100 270/18G21 RMK AO2 TSNO
94908KDBQ DBQ20000324224512003/24/00 22:45:31  5-MIN KDBQ 250445Z AUTO 27020G25KT 10SM BKN015 OVC047 12/09 A2988 1120 83 1100 270/20G25 RMK AO2 TSNO
94908KDBQ DBQ20000324225014403/24/00 22:50:31  5-MIN KDBQ 250450Z AUTO 28018G25KT 10SM BKN015 BKN022 OVC047 12/09 A2989 1110 83 1100 280/18G25 RMK AO2 SLP122 T01220094 TSNO
94908KDBQ DBQ20000324225514403/24/00 22:55:31  5-MIN KDBQ 250455Z AUTO 29020G25KT 10SM SCT015 BKN022 OVC047 12/09 A2989 1110 80 1100 290/20G25 RMK AO2 SLP123 T01220089 TSNO
94908KDBQ DBQ20000324230014503/24/00 23:00:31  5-MIN KDBQ 250500Z AUTO 30023G26KT 10SM SCT015 BKN030 OVC039 12/08 A2989 1100 77 1000 300/23G26 RMK AO2 PK WND 30026/0457 TSNO
94908KDBQ DBQ20000324230514503/24/00 23:05:31  5-MIN KDBQ 250505Z AUTO 30021G26KT 10SM FEW017 BKN039 OVC049 12/06 A2989 1100 68 1000 290/21G26 RMK AO2 PK WND 30026/0457 TSNO
94908KDBQ DBQ20000324231013903/24/00 23:10:31  5-MIN KDBQ 250510Z AUTO 30020KT 10SM FEW015 BKN039 OVC049 12/06 A2989 1100 68 1000 300/20 RMK AO2 PK WND 30026/0457 TSNO
94908KDBQ DBQ20000324231513803/24/00 23:15:31  5-MIN KDBQ 250515Z AUTO 30015KT 10SM FEW030 BKN039 BKN049 11/06 A2989 1100 71 900 300/15 RMK AO2 PK WND 30026/0457 TSNO
94908KDBQ DBQ20000324232013803/24/00 23:20:31  5-MIN KDBQ 250520Z AUTO 30019KT 10SM FEW030 BKN039 BKN049 11/06 A2990 1100 71 900 290/19 RMK AO2 PK WND 30026/0457 TSNO
94908KDBQ DBQ20000324232513703/24/00 23:25:31  5-MIN KDBQ 250525Z AUTO 29014G20KT 10SM SCT039 SCT049 11/06 A2990 1100 71 900 290/14G20 RMK AO2 PK WND 30026/0457 TSNO
94908KDBQ DBQ20000324233013103/24/00 23:30:31  5-MIN KDBQ 250530Z AUTO 30014KT 10SM FEW039 SCT049 11/06 A2990 1090 71 900 290/14 RMK AO2 PK WND 30026/0457 TSNO
94908KDBQ DBQ20000324233512403/24/00 23:35:31  5-MIN KDBQ 250535Z AUTO 30014KT 10SM FEW041 11/06 A2990 1090 71 900 300/14 RMK AO2 PK WND 30026/0457 TSNO
94908KDBQ DBQ20000324234012103/24/00 23:40:31  5-MIN KDBQ 250540Z AUTO 29013KT 10SM CLR 11/06 A2991 1090 71 900 290/13 RMK AO2 PK WND 30026/0457 TSNO
94908KDBQ DBQ20000324234512103/24/00 23:45:31  5-MIN KDBQ 250545Z AUTO 29013KT 10SM CLR 10/06 A2991 1090 74 800 290/13 RMK AO2 PK WND 30026/0457 TSNO
94908KDBQ DBQ20000324235016603/24/00 23:50:31  5-MIN KDBQ 250550Z AUTO 30016KT 10SM CLR 10/06 A2991 1090 74 800 290/16 RMK AO2 PK WND 30026/0457 SLP129 T01000056 10156 20100 401720100 51015 TSNO
94908KDBQ DBQ20000324235516603/24/00 23:55:31  5-MIN KDBQ 250555Z AUTO 29013KT 10SM CLR 10/05 A2991 1090 71 800 290/13 RMK AO2 PK WND 30026/0457 SLP130 T01000050 10156 20100 401720100 51025 TSNO
94908KDBQ DBQ20000325000010303/25/00 00:00:31  5-MIN KDBQ 250600Z AUTO 28011KT 10SM CLR 09/06 A2991 1090 76 700 280/11 RMK AO2 TSNO
94908KDBQ DBQ20000325000510303/25/00 00:05:31  5-MIN KDBQ 250605Z AUTO 28010KT 10SM CLR 09/06 A2991 1090 79 700 280/10 RMK AO2 TSNO
94908KDBQ DBQ20000325001010303/25/00 00:10:31  5-MIN KDBQ 250610Z AUTO 27011KT 10SM CLR 09/06 A2991 1090 79 700 270/11 RMK AO2 TSNO
94908KDBQ DBQ20000325001510303/25/00 00:15:31  5-MIN KDBQ 250615Z AUTO 28011KT 10SM CLR 09/06 A2991 1090 79 700 280/11 RMK AO2 TSNO
94908KDBQ DBQ20000325002010303/25/00 00:20:31  5-MIN KDBQ 250620Z AUTO 27010KT 10SM CLR 09/06 A2991 1090 79 700 270/10 RMK AO2 TSNO
94908KDBQ DBQ20000325002510303/25/00 00:25:31  5-MIN KDBQ 250625Z AUTO 27009KT 10SM CLR 09/06 A2991 1090 79 700 270/09 RMK AO2 TSNO
94908KDBQ DBQ20000325003010303/25/00 00:30:31  5-MIN KDBQ 250630Z AUTO 26008KT 10SM CLR 08/06 A2991 1090 82 600 260/08 RMK AO2 TSNO
94908KDBQ DBQ20000325003510303/25/00 00:35:31  5-MIN KDBQ 250635Z AUTO 26009KT 10SM CLR 08/06 A2991 1090 82 600 260/09 RMK AO2 TSNO
94908KDBQ DBQ20000325004010303/25/00 00:40:31  5-MIN KDBQ 250640Z AUTO 26009KT 10SM CLR 08/06 A2991 1080 82 600 260/09 RMK AO2 TSNO
94908KDBQ DBQ20000325004510303/25/00 00:45:31  5-MIN KDBQ 250645Z AUTO 25009KT 10SM CLR 08/06 A2992 1080 86 500 250/09 RMK AO2 TSNO
94908KDBQ DBQ20000325005012003/25/00 00:50:31  5-MIN KDBQ 250650Z AUTO 25010KT 10SM CLR 08/06 A2992 1080 82 600 250/10 RMK AO2 SLP133 T00830056 TSNO
94908KDBQ DBQ20000325005512003/25/00 00:55:31  5-MIN KDBQ 250655Z AUTO 25011KT 10SM CLR 08/06 A2992 1080 82 600 250/11 RMK AO2 SLP133 T00830056 TSNO
94908KDBQ DBQ20000325010010303/25/00 01:00:31  5-MIN KDBQ 250700Z AUTO 26012KT 10SM CLR 08/06 A2992 1080 82 600 260/12 RMK AO2 TSNO
94908KDBQ DBQ20000325010510303/25/00 01:05:31  5-MIN KDBQ 250705Z AUTO 25010KT 10SM CLR 08/06 A2992 1080 86 500 250/10 RMK AO2 TSNO
94908KDBQ DBQ20000325011010303/25/00 01:10:31  5-MIN KDBQ 250710Z AUTO 25010KT 10SM CLR 08/06 A2992 1080 86 500 250/10 RMK AO2 TSNO
94908KDBQ DBQ20000325011510303/25/00 01:15:31  5-MIN KDBQ 250715Z AUTO 25010KT 10SM CLR 08/06 A2992 1080 86 500 250/10 RMK AO2 TSNO
94908KDBQ DBQ20000325012010303/25/00 01:20:31  5-MIN KDBQ 250720Z AUTO 25010KT 10SM CLR 08/06 A2992 1080 86 500 250/10 RMK AO2 TSNO
94908KDBQ DBQ20000325012510303/25/00 01:25:31  5-MIN KDBQ 250725Z AUTO 25010KT 10SM CLR 08/06 A2992 1080 86 500 250/10 RMK AO2 TSNO
94908KDBQ DBQ20000325013010303/25/00 01:30:31  5-MIN KDBQ 250730Z AUTO 26012KT 10SM CLR 08/06 A2992 1070 86 500 260/12 RMK AO2 TSNO
94908KDBQ DBQ20000325013510303/25/00 01:35:31  5-MIN KDBQ 250735Z AUTO 26011KT 10SM CLR 08/06 A2993 1070 86 500 250/11 RMK AO2 TSNO
94908KDBQ DBQ20000325014010303/25/00 01:40:31  5-MIN KDBQ 250740Z AUTO 26012KT 10SM CLR 07/06 A2993 1070 89 400 260/12 RMK AO2 TSNO
94908KDBQ DBQ20000325014510303/25/00 01:45:31  5-MIN KDBQ 250745Z AUTO 26012KT 10SM CLR 07/06 A2993 1070 89 400 260/12 RMK AO2 TSNO
94908KDBQ DBQ20000325015012003/25/00 01:50:31  5-MIN KDBQ 250750Z AUTO 25011KT 10SM CLR 07/06 A2993 1070 89 400 250/11 RMK AO2 SLP136 T00720056 TSNO
94908KDBQ DBQ20000325015512003/25/00 01:55:31  5-MIN KDBQ 250755Z AUTO 25010KT 10SM CLR 07/05 A2993 1070 86 400 250/10 RMK AO2 SLP137 T00720050 TSNO
94908KDBQ DBQ20000325020010303/25/00 02:00:31  5-MIN KDBQ 250800Z AUTO 25010KT 10SM CLR 07/05 A2993 1070 86 400 250/10 RMK AO2 TSNO
94908KDBQ DBQ20000325020510303/25/00 02:05:31  5-MIN KDBQ 250805Z AUTO 26011KT 10SM CLR 07/05 A2993 1070 86 400 250/11 RMK AO2 TSNO
94908KDBQ DBQ20000325021010303/25/00 02:10:31  5-MIN KDBQ 250810Z AUTO 26011KT 10SM CLR 07/05 A2993 1070 86 400 250/11 RMK AO2 TSNO
94908KDBQ DBQ20000325021510303/25/00 02:15:31  5-MIN KDBQ 250815Z AUTO 26012KT 10SM CLR 07/05 A2992 1070 86 400 260/12 RMK AO2 TSNO
94908KDBQ DBQ20000325022010303/25/00 02:20:31  5-MIN KDBQ 250820Z AUTO 26012KT 10SM CLR 07/05 A2993 1070 89 400 260/12 RMK AO2 TSNO
94908KDBQ DBQ20000325022510303/25/00 02:25:31  5-MIN KDBQ 250825Z AUTO 26012KT 10SM CLR 07/05 A2993 1070 89 400 260/12 RMK AO2 TSNO
94908KDBQ DBQ20000325023010303/25/00 02:30:31  5-MIN KDBQ 250830Z AUTO 26012KT 10SM CLR 07/04 A2993 1070 86 400 260/12 RMK AO2 TSNO
94908KDBQ DBQ20000325023510303/25/00 02:35:31  5-MIN KDBQ 250835Z AUTO 26011KT 10SM CLR 07/04 A2993 1070 86 400 260/11 RMK AO2 TSNO
94908KDBQ DBQ20000325024010303/25/00 02:40:31  5-MIN KDBQ 250840Z AUTO 27012KT 10SM CLR 07/04 A2993 1070 86 400 270/12 RMK AO2 TSNO
94908KDBQ DBQ20000325024510303/25/00 02:45:31  5-MIN KDBQ 250845Z AUTO 27012KT 10SM CLR 07/04 A2993 1070 86 400 270/12 RMK AO2 TSNO
94908KDBQ DBQ20000325025012603/25/00 02:50:31  5-MIN KDBQ 250850Z AUTO 27012KT 10SM CLR 07/04 A2993 1070 82 400 270/12 RMK AO2 SLP138 T00670039 51025 TSNO
94908KDBQ DBQ20000325025512603/25/00 02:55:31  5-MIN KDBQ 250855Z AUTO 27014KT 10SM CLR 07/04 A2993 1070 82 400 270/14 RMK AO2 SLP138 T00670039 51008 TSNO
94908KDBQ DBQ20000325030010303/25/00 03:00:31  5-MIN KDBQ 250900Z AUTO 27013KT 10SM CLR 07/04 A2993 1070 82 400 270/13 RMK AO2 TSNO
94908KDBQ DBQ20000325030510303/25/00 03:05:31  5-MIN KDBQ 250905Z AUTO 27013KT 10SM CLR 07/04 A2994 1060 82 400 270/13 RMK AO2 TSNO
94908KDBQ DBQ20000325031010303/25/00 03:10:31  5-MIN KDBQ 250910Z AUTO 27012KT 10SM CLR 06/03 A2994 1060 82 300 270/12 RMK AO2 TSNO
94908KDBQ DBQ20000325031510303/25/00 03:15:31  5-MIN KDBQ 250915Z AUTO 27011KT 10SM CLR 07/03 A2994 1060 79 400 270/11 RMK AO2 TSNO
94908KDBQ DBQ20000325032010303/25/00 03:20:31  5-MIN KDBQ 250920Z AUTO 27012KT 10SM CLR 06/03 A2994 1060 82 300 270/12 RMK AO2 TSNO
94908KDBQ DBQ20000325032510303/25/00 03:25:31  5-MIN KDBQ 250925Z AUTO 27013KT 10SM CLR 06/03 A2994 1060 82 300 270/13 RMK AO2 TSNO
94908KDBQ DBQ20000325033010303/25/00 03:30:31  5-MIN KDBQ 250930Z AUTO 27012KT 10SM CLR 06/03 A2994 1060 79 300 270/12 RMK AO2 TSNO
94908KDBQ DBQ20000325033510303/25/00 03:35:31  5-MIN KDBQ 250935Z AUTO 27012KT 10SM CLR 06/03 A2994 1060 79 300 270/12 RMK AO2 TSNO
94908KDBQ DBQ20000325034010303/25/00 03:40:31  5-MIN KDBQ 250940Z AUTO 27012KT 10SM CLR 06/03 A2994 1060 79 300 270/12 RMK AO2 TSNO
94908KDBQ DBQ20000325034510303/25/00 03:45:31  5-MIN KDBQ 250945Z AUTO 27012KT 10SM CLR 06/03 A2995 1060 79 300 260/12 RMK AO2 TSNO
94908KDBQ DBQ20000325035012003/25/00 03:50:31  5-MIN KDBQ 250950Z AUTO 26011KT 10SM CLR 06/02 A2995 1050 76 300 260/11 RMK AO2 SLP143 T00610022 TSNO
94908KDBQ DBQ20000325035512003/25/00 03:55:31  5-MIN KDBQ 250955Z AUTO 26011KT 10SM CLR 06/02 A2995 1050 76 300 260/11 RMK AO2 SLP143 T00610022 TSNO
94908KDBQ DBQ20000325040010303/25/00 04:00:31  5-MIN KDBQ 251000Z AUTO 26010KT 10SM CLR 06/02 A2995 1050 79 200 260/10 RMK AO2 TSNO
94908KDBQ DBQ20000325040510303/25/00 04:05:31  5-MIN KDBQ 251005Z AUTO 26009KT 10SM CLR 06/02 A2995 1050 79 200 260/09 RMK AO2 TSNO
94908KDBQ DBQ20000325041010303/25/00 04:10:31  5-MIN KDBQ 251010Z AUTO 25010KT 10SM CLR 05/02 A2995 1050 82 100 250/10 RMK AO2 TSNO
94908KDBQ DBQ20000325041510303/25/00 04:15:31  5-MIN KDBQ 251015Z AUTO 25011KT 10SM CLR 05/02 A2995 1050 82 100 250/11 RMK AO2 TSNO
94908KDBQ DBQ20000325042010303/25/00 04:20:31  5-MIN KDBQ 251020Z AUTO 25010KT 10SM CLR 05/02 A2995 1050 79 100 250/10 RMK AO2 TSNO
94908KDBQ DBQ20000325042510303/25/00 04:25:31  5-MIN KDBQ 251025Z AUTO 25010KT 10SM CLR 05/02 A2995 1050 79 100 250/10 RMK AO2 TSNO
94908KDBQ DBQ20000325043010303/25/00 04:30:31  5-MIN KDBQ 251030Z AUTO 25010KT 10SM CLR 05/02 A2996 1040 79 100 250/10 RMK AO2 TSNO
94908KDBQ DBQ20000325043510303/25/00 04:35:31  5-MIN KDBQ 251035Z AUTO 25011KT 10SM CLR 05/02 A2996 1040 79 100 250/11 RMK AO2 TSNO
94908KDBQ DBQ20000325044010303/25/00 04:40:31  5-MIN KDBQ 251040Z AUTO 25010KT 10SM CLR 05/02 A2996 1040 79 100 250/10 RMK AO2 TSNO
94908KDBQ DBQ20000325044510303/25/00 04:45:31  5-MIN KDBQ 251045Z AUTO 25010KT 10SM CLR 05/02 A2996 1040 79 100 250/10 RMK AO2 TSNO
94908KDBQ DBQ20000325045012003/25/00 04:50:31  5-MIN KDBQ 251050Z AUTO 25010KT 10SM CLR 04/02 A2996 1040 82 100 250/10 RMK AO2 SLP149 T00440017 TSNO
94908KDBQ DBQ20000325045512003/25/00 04:55:31  5-MIN KDBQ 251055Z AUTO 25010KT 10SM CLR 04/01 A2996 1040 79 100 250/10 RMK AO2 SLP150 T00440011 TSNO
94908KDBQ DBQ20000325050010103/25/00 05:00:31  5-MIN KDBQ 251100Z AUTO 25009KT 10SM CLR 04/01 A2997 1040 79 0 250/09 RMK AO2 TSNO
94908KDBQ DBQ20000325050510103/25/00 05:05:31  5-MIN KDBQ 251105Z AUTO 25009KT 10SM CLR 04/01 A2997 1040 79 0 250/09 RMK AO2 TSNO
94908KDBQ DBQ20000325051010103/25/00 05:10:31  5-MIN KDBQ 251110Z AUTO 25011KT 10SM CLR 04/01 A2997 1030 79 0 250/11 RMK AO2 TSNO
94908KDBQ DBQ20000325051510103/25/00 05:15:31  5-MIN KDBQ 251115Z AUTO 25009KT 10SM CLR 04/01 A2997 1030 79 0 250/09 RMK AO2 TSNO
94908KDBQ DBQ20000325052010103/25/00 05:20:31  5-MIN KDBQ 251120Z AUTO 25010KT 10SM CLR 04/01 A2997 1030 79 0 250/10 RMK AO2 TSNO
94908KDBQ DBQ20000325052510103/25/00 05:25:31  5-MIN KDBQ 251125Z AUTO 25010KT 10SM CLR 04/01 A2997 1030 79 0 250/10 RMK AO2 TSNO
94908KDBQ DBQ20000325053010103/25/00 05:30:31  5-MIN KDBQ 251130Z AUTO 25011KT 10SM CLR 04/01 A2997 1030 76 0 250/11 RMK AO2 TSNO
94908KDBQ DBQ20000325053510103/25/00 05:35:31  5-MIN KDBQ 251135Z AUTO 25011KT 10SM CLR 04/01 A2997 1030 79 0 250/11 RMK AO2 TSNO
94908KDBQ DBQ20000325054010103/25/00 05:40:31  5-MIN KDBQ 251140Z AUTO 25012KT 10SM CLR 04/01 A2998 1030 79 0 250/12 RMK AO2 TSNO
94908KDBQ DBQ20000325054509103/25/00 05:45:31  5-MIN KDBQ 251145Z 25013KT 10SM CLR 04/01 A2997 1030 76 0 250/13 RMK AO2
94908KDBQ DBQ20000325055013203/25/00 05:50:31  5-MIN KDBQ 251150Z 25012KT 10SM CLR 04/01 A2998 1030 79 0 250/12 RMK AO2 SLP155 70033 T00390006 10100 20039 51008
94908KDBQ DBQ20000325055513203/25/00 05:55:31  5-MIN KDBQ 251155Z 25012KT 10SM CLR 04/01 A2998 1030 79 0 250/12 RMK AO2 SLP155 70033 T00390006 10100 20039 52015
94908KDBQ DBQ20000325060009103/25/00 06:00:31  5-MIN KDBQ 251200Z 26012KT 10SM CLR 04/01 A2998 1020 79 0 260/12 RMK AO2
94908KDBQ DBQ20000325060509103/25/00 06:05:31  5-MIN KDBQ 251205Z 26012KT 10SM CLR 04/01 A2999 1020 79 0 260/12 RMK AO2
94908KDBQ DBQ20000325061009103/25/00 06:10:31  5-MIN KDBQ 251210Z 26012KT 10SM CLR 04/01 A2999 1010 79 0 260/12 RMK AO2
94908KDBQ DBQ20000325061509103/25/00 06:15:31  5-MIN KDBQ 251215Z 26012KT 10SM CLR 04/01 A2999 1010 79 0 260/12 RMK AO2
94908KDBQ DBQ20000325062009103/25/00 06:20:31  5-MIN KDBQ 251220Z 26013KT 10SM CLR 04/01 A3000 1010 79 0 260/13 RMK AO2
94908KDBQ DBQ20000325062509103/25/00 06:25:31  5-MIN KDBQ 251225Z 26012KT 10SM CLR 04/01 A3000 1000 79 0 260/12 RMK AO2
94908KDBQ DBQ20000325063009103/25/00 06:30:31  5-MIN KDBQ 251230Z 26012KT 10SM CLR 04/01 A3000 1000 79 0 260/12 RMK AO2
94908KDBQ DBQ20000325063509103/25/00 06:35:31  5-MIN KDBQ 251235Z 26012KT 10SM CLR 04/01 A3001 1000 79 0 260/12 RMK AO2
94908KDBQ DBQ20000325064009103/25/00 06:40:31  5-MIN KDBQ 251240Z 26013KT 10SM CLR 04/01 A3001 1000 76 0 260/13 RMK AO2
94908KDBQ DBQ20000325064509103/25/00 06:45:31  5-MIN KDBQ 251245Z 26013KT 10SM CLR 04/01 A3001 1000 76 0 260/13 RMK AO2
94908KDBQ DBQ20000325065010803/25/00 06:50:31  5-MIN KDBQ 251250Z 26012KT 10SM CLR 04/01 A3001 1000 76 0 260/12 RMK AO2 SLP166 T00440006
94908KDBQ DBQ20000325065510803/25/00 06:55:31  5-MIN KDBQ 251255Z 26013KT 10SM CLR 04/01 A3001 1000 76 0 260/13 RMK AO2 SLP166 T00440006
94908KDBQ DBQ20000325070009003/25/00 07:00:31  5-MIN KDBQ 251300Z 26012KT 10SM CLR 04/01 A3001 990 76 0 260/12 RMK AO2
94908KDBQ DBQ20000325070509003/25/00 07:05:31  5-MIN KDBQ 251305Z 26013KT 10SM CLR 04/01 A3002 990 76 0 260/13 RMK AO2
94908KDBQ DBQ20000325071009003/25/00 07:10:31  5-MIN KDBQ 251310Z 26016KT 10SM CLR 04/01 A3002 990 76 0 260/16 RMK AO2
94908KDBQ DBQ20000325071509203/25/00 07:15:31  5-MIN KDBQ 251315Z 26015KT 10SM CLR 05/01 A3002 990 73 100 260/15 RMK AO2
94908KDBQ DBQ20000325072009203/25/00 07:20:31  5-MIN KDBQ 251320Z 26015KT 10SM CLR 05/01 A3001 990 73 100 260/15 RMK AO2
94908KDBQ DBQ20000325072509203/25/00 07:25:31  5-MIN KDBQ 251325Z 26014KT 10SM CLR 05/01 A3002 990 76 100 260/14 RMK AO2
94908KDBQ DBQ20000325073009203/25/00 07:30:31  5-MIN KDBQ 251330Z 26014KT 10SM CLR 05/01 A3002 990 76 100 260/14 RMK AO2
94908KDBQ DBQ20000325073509203/25/00 07:35:31  5-MIN KDBQ 251335Z 26016KT 10SM CLR 05/01 A3002 990 76 100 260/16 RMK AO2
94908KDBQ DBQ20000325074009203/25/00 07:40:31  5-MIN KDBQ 251340Z 27016KT 10SM CLR 05/01 A3002 990 76 100 260/16 RMK AO2
94908KDBQ DBQ20000325074509203/25/00 07:45:31  5-MIN KDBQ 251345Z 26015KT 10SM CLR 06/01 A3002 990 73 100 260/15 RMK AO2
94908KDBQ DBQ20000325075010903/25/00 07:50:31  5-MIN KDBQ 251350Z 27014KT 10SM CLR 06/01 A3002 980 73 100 270/14 RMK AO2 SLP170 T00560011
94908KDBQ DBQ20000325075510903/25/00 07:55:31  5-MIN KDBQ 251355Z 27013KT 10SM CLR 06/02 A3002 990 76 100 270/13 RMK AO2 SLP170 T00560017
94908KDBQ DBQ20000325080009203/25/00 08:00:31  5-MIN KDBQ 251400Z 27014KT 10SM CLR 06/02 A3002 980 73 200 270/14 RMK AO2
94908KDBQ DBQ20000325080509203/25/00 08:05:31  5-MIN KDBQ 251405Z 27015KT 10SM CLR 06/02 A3002 980 73 200 270/15 RMK AO2
94908KDBQ DBQ20000325081009203/25/00 08:10:31  5-MIN KDBQ 251410Z 27013KT 10SM CLR 06/01 A3003 980 70 200 270/13 RMK AO2
94908KDBQ DBQ20000325081509203/25/00 08:15:31  5-MIN KDBQ 251415Z 27015KT 10SM CLR 07/01 A3002 980 67 300 270/15 RMK AO2
94908KDBQ DBQ20000325082009203/25/00 08:20:31  5-MIN KDBQ 251420Z 27014KT 10SM CLR 07/01 A3003 980 67 300 270/14 RMK AO2
94908KDBQ DBQ20000325082509203/25/00 08:25:31  5-MIN KDBQ 251425Z 27015KT 10SM CLR 07/01 A3003 980 65 300 270/15 RMK AO2
94908KDBQ DBQ20000325083009203/25/00 08:30:31  5-MIN KDBQ 251430Z 28015KT 10SM CLR 07/01 A3003 980 65 300 280/15 RMK AO2
94908KDBQ DBQ20000325083509203/25/00 08:35:31  5-MIN KDBQ 251435Z 27014KT 10SM CLR 08/02 A3003 980 65 400 270/14 RMK AO2
94908KDBQ DBQ20000325084009803/25/00 08:40:31  5-MIN KDBQ 251440Z 27014G19KT 10SM CLR 08/02 A3003 980 65 400 270/14G19 RMK AO2
94908KDBQ DBQ20000325084509803/25/00 08:45:31  5-MIN KDBQ 251445Z 27015G20KT 10SM CLR 08/01 A3003 980 62 400 270/15G20 RMK AO2
94908KDBQ DBQ20000325085011503/25/00 08:50:31  5-MIN KDBQ 251450Z 26016KT 10SM CLR 08/01 A3003 980 62 400 260/16 RMK AO2 SLP173 T00780011 52015
94908KDBQ DBQ20000325085511503/25/00 08:55:31  5-MIN KDBQ 251455Z 27016KT 10SM CLR 08/01 A3003 980 60 400 260/16 RMK AO2 SLP173 T00830011 51018
94908KDBQ DBQ20000325090009203/25/00 09:00:31  5-MIN KDBQ 251500Z 26015KT 10SM CLR 08/02 A3003 980 63 400 260/15 RMK AO2
94908KDBQ DBQ20000325090509203/25/00 09:05:31  5-MIN KDBQ 251505Z 26015KT 10SM CLR 09/02 A3003 970 60 500 260/15 RMK AO2
94908KDBQ DBQ20000325091009203/25/00 09:10:31  5-MIN KDBQ 251510Z 26015KT 10SM CLR 09/01 A3004 970 58 500 260/15 RMK AO2
94908KDBQ DBQ20000325091509803/25/00 09:15:31  5-MIN KDBQ 251515Z 27013G21KT 10SM CLR 09/02 A3003 970 60 500 270/13G21 RMK AO2
94908KDBQ DBQ20000325092009803/25/00 09:20:31  5-MIN KDBQ 251520Z 27012G21KT 10SM CLR 09/02 A3004 970 58 600 270/12G21 RMK AO2
94908KDBQ DBQ20000325092509203/25/00 09:25:31  5-MIN KDBQ 251525Z 27017KT 10SM CLR 09/02 A3003 970 58 600 270/17 RMK AO2
94908KDBQ DBQ20000325093009203/25/00 09:30:31  5-MIN KDBQ 251530Z 27017KT 10SM CLR 09/01 A3004 970 56 600 270/17 RMK AO2
94908KDBQ DBQ20000325093509803/25/00 09:35:31  5-MIN KDBQ 251535Z 27019G23KT 10SM CLR 10/01 A3003 970 54 600 270/19G23 RMK AO2
94908KDBQ DBQ20000325094009803/25/00 09:40:31  5-MIN KDBQ 251540Z 27018G23KT 10SM CLR 10/01 A3003 970 52 600 270/18G23 RMK AO2
94908KDBQ DBQ20000325094509203/25/00 09:45:31  5-MIN KDBQ 251545Z 27019KT 10SM CLR 10/01 A3004 970 54 600 270/19 RMK AO2
94908KDBQ DBQ20000325095011503/25/00 09:50:31  5-MIN KDBQ 251550Z 27018G25KT 10SM CLR 10/01 A3003 970 52 600 260/18G25 RMK AO2 SLP172 T01000006
94908KDBQ DBQ20000325095510903/25/00 09:55:31  5-MIN KDBQ 251555Z 27020KT 10SM CLR 10/01 A3003 970 52 600 270/20 RMK AO2 SLP172 T01000006
94908KDBQ DBQ20000325100009203/25/00 10:00:31  5-MIN KDBQ 251600Z 28018KT 10SM CLR 11/01 A3003 970 50 700 280/18 RMK AO2
94908KDBQ DBQ20000325100509803/25/00 10:05:31  5-MIN KDBQ 251605Z 26020G25KT 10SM CLR 11/01 A3003 970 52 700 260/20G25 RMK AO2
94908KDBQ DBQ20000325101009803/25/00 10:10:31  5-MIN KDBQ 251610Z 26019G25KT 10SM CLR 11/01 A3003 980 50 700 260/19G25 RMK AO2
94908KDBQ DBQ20000325101509803/25/00 10:15:31  5-MIN KDBQ 251615Z 26020G25KT 10SM CLR 11/01 A3003 980 50 800 260/20G25 RMK AO2
94908KDBQ DBQ20000325102011603/25/00 10:20:31  5-MIN KDBQ 251620Z 26022G26KT 10SM CLR 11/01 A3003 980 50 800 260/22G26 RMK AO2 PK WND 26026/1619
94908KDBQ DBQ20000325102511603/25/00 10:25:31  5-MIN KDBQ 251625Z 26018G26KT 10SM CLR 11/01 A3003 980 50 800 260/18G26 RMK AO2 PK WND 26026/1619
94908KDBQ DBQ20000325103011603/25/00 10:30:31  5-MIN KDBQ 251630Z 26017G23KT 10SM CLR 11/01 A3003 980 50 800 260/17G23 RMK AO2 PK WND 26026/1619
94908KDBQ DBQ20000325103511603/25/00 10:35:31  5-MIN KDBQ 251635Z 26020G23KT 10SM CLR 12/01 A3003 980 48 900 260/20G23 RMK AO2 PK WND 26026/1619
94908KDBQ DBQ20000325104011603/25/00 10:40:31  5-MIN KDBQ 251640Z 26022G26KT 10SM CLR 12/01 A3002 980 48 900 260/22G26 RMK AO2 PK WND 26026/1639
94908KDBQ DBQ20000325104511003/25/00 10:45:31  5-MIN KDBQ 251645Z 27024KT 10SM CLR 12/01 A3003 980 46 900 260/24 RMK AO2 PK WND 26027/1645
94908KDBQ DBQ20000325105013303/25/00 10:50:31  5-MIN KDBQ 251650Z 26020G28KT 10SM CLR 12/01 A3002 980 46 900 260/20G28 RMK AO2 PK WND 27028/1646 SLP169 T01170006
94908KDBQ DBQ20000325105513303/25/00 10:55:31  5-MIN KDBQ 251655Z 26024G28KT 10SM CLR 12/01 A3002 990 44 900 260/24G28 RMK AO2 PK WND 27028/1646 SLP168 T01220006
94908KDBQ DBQ20000325110011903/25/00 11:00:31  5-MIN KDBQ 251700Z 26026G32KT 10SM FEW065 12/00 A3002 980 43 900 260/26G32 RMK AO2 PK WND 26032/1700
94908KDBQ DBQ20000325110511903/25/00 11:05:31  5-MIN KDBQ 251705Z 26024G32KT 10SM FEW060 12/01 A3002 980 44 900 260/24G32 RMK AO2 PK WND 26032/1700
94908KDBQ DBQ20000325111011903/25/00 11:10:31  5-MIN KDBQ 251710Z 25026G31KT 10SM FEW060 12/01 A3002 990 44 900 250/26G31 RMK AO2 PK WND 26032/1700
94908KDBQ DBQ20000325111511903/25/00 11:15:31  5-MIN KDBQ 251715Z 27023G33KT 10SM FEW060 12/01 A3002 990 44 900 270/23G33 RMK AO2 PK WND 25033/1711
94908KDBQ DBQ20000325112011903/25/00 11:20:31  5-MIN KDBQ 251720Z 28022G33KT 10SM SCT060 12/00 A3002 990 44 900 280/22G33 RMK AO2 PK WND 25033/1711
94908KDBQ DBQ20000325112511903/25/00 11:25:31  5-MIN KDBQ 251725Z 26022G28KT 10SM SCT060 12/01 A3002 990 44 900 260/22G28 RMK AO2 PK WND 25033/1711
94908KDBQ DBQ20000325113012003/25/00 11:30:31  5-MIN KDBQ 251730Z 26021G28KT 10SM FEW060 13/01 A3002 990 43 1000 260/21G28 RMK AO2 PK WND 25033/1711
94908KDBQ DBQ20000325113511903/25/00 11:35:31  5-MIN KDBQ 251735Z 28021G30KT 10SM SCT060 12/00 A3002 990 43 900 270/21G30 RMK AO2 PK WND 25033/1711
94908KDBQ DBQ20000325114012003/25/00 11:40:31  5-MIN KDBQ 251740Z 27030G37KT 10SM FEW060 13/00 A3001 990 41 1000 260/30G37 RMK AO2 PK WND 26037/1740
94908KDBQ DBQ20000325114512003/25/00 11:45:31  5-MIN KDBQ 251745Z 27026G37KT 10SM FEW060 13/00 A3001 990 41 1000 270/26G37 RMK AO2 PK WND 26037/1740
94908KDBQ DBQ20000325115015603/25/00 11:50:31  5-MIN KDBQ 251750Z 27027G36KT 10SM FEW055 13/00 A3001 1000 40 1100 270/27G36 RMK AO2 PK WND 26037/1740 SLP163 T01330000 10133 20039 51018
94908KDBQ DBQ20000325115515603/25/00 11:55:31  5-MIN KDBQ 251755Z 28028G35KT 10SM FEW060 12/M01 A3001 1000 39 900 280/28G35 RMK AO2 PK WND 26037/1740 SLP165 T01221011 10133 20039 58007
94908KDBQ DBQ20000325120012103/25/00 12:00:31  5-MIN KDBQ 251800Z 27027G35KT 10SM FEW060 12/M01 A3001 1000 39 900 270/27G35 RMK AO2 PK WND 28035/1756
94908KDBQ DBQ20000325120511803/25/00 12:05:31  5-MIN KDBQ 251805Z 27028G35KT 10SM CLR 12/M01 A3000 1000 39 900 270/28G35 RMK AO2 PK WND 27035/1801
94908KDBQ DBQ20000325121011903/25/00 12:10:31  5-MIN KDBQ 251810Z 26023G35KT 10SM CLR 13/M01 A3000 1000 39 1000 260/23G35 RMK AO2 PK WND 27035/1801
94908KDBQ DBQ20000325121512203/25/00 12:15:31  5-MIN KDBQ 251815Z 27028G37KT 10SM FEW080 13/M01 A3000 1000 38 1100 270/28G37 RMK AO2 PK WND 27037/1813
94908KDBQ DBQ20000325122012103/25/00 12:20:31  5-MIN KDBQ 251820Z 26026G37KT 10SM FEW060 13/00 A3000 1000 40 1100 260/26G37 RMK AO2 PK WND 27037/1813
94908KDBQ DBQ20000325122512103/25/00 12:25:31  5-MIN KDBQ 251825Z 27024G32KT 10SM FEW060 14/00 A3000 1000 38 1100 270/24G32 RMK AO2 PK WND 27037/1813
94908KDBQ DBQ20000325123012103/25/00 12:30:31  5-MIN KDBQ 251830Z 28027G33KT 10SM FEW060 14/00 A3000 1010 38 1200 270/27G33 RMK AO2 PK WND 27037/1813
94908KDBQ DBQ20000325123512203/25/00 12:35:31  5-MIN KDBQ 251835Z 28033G37KT 10SM FEW060 13/M02 A3000 1010 35 1000 280/33G37 RMK AO2 PK WND 28037/1834
94908KDBQ DBQ20000325124012203/25/00 12:40:31  5-MIN KDBQ 251840Z 27028G37KT 10SM FEW060 13/M02 A2999 1010 35 1000 270/28G37 RMK AO2 PK WND 26037/1837
94908KDBQ DBQ20000325124512203/25/00 12:45:31  5-MIN KDBQ 251845Z 27028G37KT 10SM FEW060 13/M02 A3000 1010 36 1000 270/28G37 RMK AO2 PK WND 26037/1837
94908KDBQ DBQ20000325125013603/25/00 12:50:31  5-MIN KDBQ 251850Z 28029G36KT 10SM CLR 13/M02 A2999 1010 35 1100 280/29G36 RMK AO2 PK WND 26037/1837 SLP159 T01331017
94908KDBQ DBQ20000325125513903/25/00 12:55:31  5-MIN KDBQ 251855Z 26030G35KT 10SM FEW070 13/M02 A2999 1010 34 1100 260/30G35 RMK AO2 PK WND 26037/1837 SLP159 T01331022
94908KDBQ DBQ20000325130012203/25/00 13:00:31  5-MIN KDBQ 251900Z 28030G36KT 10SM FEW070 14/M02 A2999 1020 34 1200 280/30G36 RMK AO2 PK WND 28036/1859
94908KDBQ DBQ20000325130512203/25/00 13:05:31  5-MIN KDBQ 251905Z 28028G39KT 10SM FEW070 13/M03 A2999 1010 32 1100 280/28G39 RMK AO2 PK WND 28039/1901
94908KDBQ DBQ20000325131012203/25/00 13:10:31  5-MIN KDBQ 251910Z 26032G39KT 10SM FEW070 13/M03 A2999 1020 32 1100 260/32G39 RMK AO2 PK WND 26039/1910
94908KDBQ DBQ20000325131512203/25/00 13:15:31  5-MIN KDBQ 251915Z 27028G39KT 10SM FEW070 13/M02 A2999 1020 34 1100 270/28G39 RMK AO2 PK WND 26039/1910
94908KDBQ DBQ20000325132012203/25/00 13:20:31  5-MIN KDBQ 251920Z 27027G38KT 10SM FEW070 13/M02 A2999 1020 34 1100 260/27G38 RMK AO2 PK WND 26039/1910
94908KDBQ DBQ20000325132512203/25/00 13:25:31  5-MIN KDBQ 251925Z 27030G38KT 10SM FEW070 13/M02 A2999 1010 34 1100 270/30G38 RMK AO2 PK WND 26039/1910
94908KDBQ DBQ20000325133011903/25/00 13:30:31  5-MIN KDBQ 251930Z 28030G38KT 10SM CLR 13/M03 A2999 1010 32 1000 280/30G38 RMK AO2 PK WND 26039/1910
94908KDBQ DBQ20000325133512203/25/00 13:35:31  5-MIN KDBQ 251935Z 28028G38KT 10SM FEW070 13/M03 A2999 1010 32 1100 280/28G38 RMK AO2 PK WND 26039/1910
94908KDBQ DBQ20000325134012203/25/00 13:40:31  5-MIN KDBQ 251940Z 27024G38KT 10SM FEW070 14/M02 A2999 1020 34 1200 270/24G38 RMK AO2 PK WND 26039/1910
94908KDBQ DBQ20000325134512203/25/00 13:45:31  5-MIN KDBQ 251945Z 27032G38KT 10SM FEW070 13/M03 A2999 1010 32 1100 270/32G38 RMK AO2 PK WND 26039/1910
94908KDBQ DBQ20000325135013903/25/00 13:50:31  5-MIN KDBQ 251950Z 28030G38KT 10SM FEW075 13/M03 A2999 1010 32 1100 280/30G38 RMK AO2 PK WND 26039/1910 SLP159 T01331028
94908KDBQ DBQ20000325135513903/25/00 13:55:31  5-MIN KDBQ 251955Z 27023G37KT 10SM FEW075 13/M03 A2999 1020 32 1100 270/23G37 RMK AO2 PK WND 26039/1910 SLP158 T01331028
94908KDBQ DBQ20000325140012203/25/00 14:00:31  5-MIN KDBQ 252000Z 27031G35KT 10SM FEW070 13/M03 A2998 1020 32 1100 270/31G35 RMK AO2 PK WND 27035/1959
94908KDBQ DBQ20000325140512203/25/00 14:05:31  5-MIN KDBQ 252005Z 27030G38KT 10SM FEW075 13/M03 A2998 1020 31 1100 270/30G38 RMK AO2 PK WND 27038/2001
94908KDBQ DBQ20000325141012203/25/00 14:10:31  5-MIN KDBQ 252010Z 27027G38KT 10SM FEW075 13/M04 A2998 1020 30 1100 270/27G38 RMK AO2 PK WND 27038/2001
94908KDBQ DBQ20000325141511903/25/00 14:15:31  5-MIN KDBQ 252015Z 27024G39KT 10SM CLR 13/M03 A2998 1020 31 1100 270/24G39 RMK AO2 PK WND 27039/2011
94908KDBQ DBQ20000325142011903/25/00 14:20:31  5-MIN KDBQ 252020Z 27026G39KT 10SM CLR 13/M03 A2998 1020 31 1100 270/26G39 RMK AO2 PK WND 27039/2011
94908KDBQ DBQ20000325142511903/25/00 14:25:31  5-MIN KDBQ 252025Z 27030G35KT 10SM CLR 13/M04 A2998 1020 28 1100 270/30G35 RMK AO2 PK WND 27039/2011
94908KDBQ DBQ20000325143011903/25/00 14:30:31  5-MIN KDBQ 252030Z 27023G35KT 10SM CLR 13/M04 A2999 1020 30 1100 270/23G35 RMK AO2 PK WND 27039/2011
94908KDBQ DBQ20000325143511903/25/00 14:35:31  5-MIN KDBQ 252035Z 27027G32KT 10SM CLR 14/M03 A2998 1020 30 1200 270/27G32 RMK AO2 PK WND 27039/2011
94908KDBQ DBQ20000325144011903/25/00 14:40:31  5-MIN KDBQ 252040Z 27028G33KT 10SM CLR 14/M03 A2998 1030 30 1200 270/28G33 RMK AO2 PK WND 27039/2011
94908KDBQ DBQ20000325144511903/25/00 14:45:31  5-MIN KDBQ 252045Z 27027G40KT 10SM CLR 13/M04 A2998 1030 30 1100 270/27G40 RMK AO2 PK WND 29040/2042
94908KDBQ DBQ20000325145014203/25/00 14:50:31  5-MIN KDBQ 252050Z 28027G40KT 10SM CLR 13/M04 A2998 1030 30 1100 270/27G40 RMK AO2 PK WND 29040/2042 SLP155 T01331039 58007
94908KDBQ DBQ20000325145514203/25/00 14:55:31  5-MIN KDBQ 252055Z 29027G35KT 10SM CLR 13/M04 A2998 1030 30 1100 280/27G35 RMK AO2 PK WND 29040/2042 SLP155 T01331039 56010
94908KDBQ DBQ20000325150011903/25/00 15:00:31  5-MIN KDBQ 252100Z 29024G37KT 10SM CLR 13/M03 A2998 1030 31 1100 290/24G37 RMK AO2 PK WND 28037/2057
94908KDBQ DBQ20000325150511903/25/00 15:05:31  5-MIN KDBQ 252105Z 28027G37KT 10SM CLR 13/M03 A2998 1030 32 1100 280/27G37 RMK AO2 PK WND 28037/2057
94908KDBQ DBQ20000325151011903/25/00 15:10:31  5-MIN KDBQ 252110Z 29022G32KT 10SM CLR 13/M03 A2998 1030 32 1100 290/22G32 RMK AO2 PK WND 28037/2057
94908KDBQ DBQ20000325151511903/25/00 15:15:31  5-MIN KDBQ 252115Z 28023G32KT 10SM CLR 13/M03 A2997 1030 31 1100 270/23G32 RMK AO2 PK WND 28037/2057
94908KDBQ DBQ20000325152011903/25/00 15:20:31  5-MIN KDBQ 252120Z 28026G33KT 10SM CLR 13/M03 A2997 1030 31 1100 280/26G33 RMK AO2 PK WND 28037/2057
94908KDBQ DBQ20000325152511903/25/00 15:25:31  5-MIN KDBQ 252125Z 29025G36KT 10SM CLR 13/M03 A2997 1030 32 1100 280/25G36 RMK AO2 PK WND 28037/2057
94908KDBQ DBQ20000325153011903/25/00 15:30:31  5-MIN KDBQ 252130Z 28029G36KT 10SM CLR 13/M04 A2997 1030 30 1100 280/29G36 RMK AO2 PK WND 28037/2057
94908KDBQ DBQ20000325153511903/25/00 15:35:31  5-MIN KDBQ 252135Z 28028G37KT 10SM CLR 13/M03 A2997 1030 31 1100 280/28G37 RMK AO2 PK WND 28037/2131
94908KDBQ DBQ20000325154011903/25/00 15:40:31  5-MIN KDBQ 252140Z 29028G37KT 10SM CLR 13/M04 A2997 1030 30 1100 290/28G37 RMK AO2 PK WND 28037/2131
94908KDBQ DBQ20000325154511903/25/00 15:45:31  5-MIN KDBQ 252145Z 28024G35KT 10SM CLR 13/M03 A2997 1030 32 1100 280/24G35 RMK AO2 PK WND 28037/2131
94908KDBQ DBQ20000325155013603/25/00 15:50:31  5-MIN KDBQ 252150Z 27023G32KT 10SM CLR 13/M03 A2997 1030 32 1100 270/23G32 RMK AO2 PK WND 28037/2131 SLP152 T01281033
94908KDBQ DBQ20000325155513603/25/00 15:55:31  5-MIN KDBQ 252155Z 28022G32KT 10SM CLR 13/M03 A2997 1030 32 1100 280/22G32 RMK AO2 PK WND 28037/2131 SLP153 T01331028
94908KDBQ DBQ20000325160011903/25/00 16:00:31  5-MIN KDBQ 252200Z 28027G32KT 10SM CLR 13/M03 A2997 1030 32 1100 280/27G32 RMK AO2 PK WND 28032/2158
94908KDBQ DBQ20000325160511903/25/00 16:05:31  5-MIN KDBQ 252205Z 28025G32KT 10SM CLR 13/M03 A2997 1040 31 1100 270/25G32 RMK AO2 PK WND 28032/2202
94908KDBQ DBQ20000325161011903/25/00 16:10:31  5-MIN KDBQ 252210Z 28025G32KT 10SM CLR 13/M03 A2997 1030 32 1100 270/25G32 RMK AO2 PK WND 28032/2202
94908KDBQ DBQ20000325161512203/25/00 16:15:31  5-MIN KDBQ 252215Z 29023G33KT 10SM FEW080 13/M03 A2997 1030 31 1100 290/23G33 RMK AO2 PK WND 30033/2213
94908KDBQ DBQ20000325162012203/25/00 16:20:31  5-MIN KDBQ 252220Z 30024G33KT 10SM FEW075 13/M03 A2997 1030 32 1100 290/24G33 RMK AO2 PK WND 30033/2213
94908KDBQ DBQ20000325162512203/25/00 16:25:31  5-MIN KDBQ 252225Z 29025G30KT 10SM FEW075 13/M03 A2997 1030 32 1000 290/25G30 RMK AO2 PK WND 30033/2213
94908KDBQ DBQ20000325163012203/25/00 16:30:31  5-MIN KDBQ 252230Z 27025G31KT 10SM FEW075 13/M03 A2997 1030 33 1000 270/25G31 RMK AO2 PK WND 30033/2213
94908KDBQ DBQ20000325163512203/25/00 16:35:31  5-MIN KDBQ 252235Z 28022G32KT 10SM FEW075 13/M03 A2997 1030 33 1000 270/22G32 RMK AO2 PK WND 30033/2213
94908KDBQ DBQ20000325164012203/25/00 16:40:31  5-MIN KDBQ 252240Z 29020G32KT 10SM FEW075 13/M03 A2997 1030 33 1000 280/20G32 RMK AO2 PK WND 30033/2213
94908KDBQ DBQ20000325164512203/25/00 16:45:31  5-MIN KDBQ 252245Z 29020G30KT 10SM FEW070 13/M03 A2997 1030 33 1000 290/20G30 RMK AO2 PK WND 30033/2213
94908KDBQ DBQ20000325165013903/25/00 16:50:31  5-MIN KDBQ 252250Z 29024G30KT 10SM FEW070 13/M03 A2997 1030 33 1000 290/24G30 RMK AO2 PK WND 30033/2213 SLP154 T01281028
94908KDBQ DBQ20000325165513903/25/00 16:55:31  5-MIN KDBQ 252255Z 28018G27KT 10SM FEW075 13/M03 A2997 1030 33 1000 280/18G27 RMK AO2 PK WND 30033/2213 SLP154 T01281028
94908KDBQ DBQ20000325170009803/25/00 17:00:31  5-MIN KDBQ 252300Z 28017KT 10SM SCT075 13/M02 A2997 1030 35 1000 280/17 RMK AO2
94908KDBQ DBQ20000325170512203/25/00 17:05:31  5-MIN KDBQ 252305Z 29020G26KT 10SM BKN080 12/M02 A2997 1030 36 1000 290/20G26 RMK AO2 PK WND 30026/2305
94908KDBQ DBQ20000325171012203/25/00 17:10:31  5-MIN KDBQ 252310Z 29019G26KT 10SM BKN080 13/M03 A2997 1030 33 1000 290/19G26 RMK AO2 PK WND 30026/2305
94908KDBQ DBQ20000325171512203/25/00 17:15:31  5-MIN KDBQ 252315Z 29021G26KT 10SM BKN080 13/M03 A2997 1030 33 1000 290/21G26 RMK AO2 PK WND 30026/2314
94908KDBQ DBQ20000325172012203/25/00 17:20:31  5-MIN KDBQ 252320Z 28017G26KT 10SM BKN085 13/M02 A2997 1030 35 1000 280/17G26 RMK AO2 PK WND 30026/2314
94908KDBQ DBQ20000325172512203/25/00 17:25:31  5-MIN KDBQ 252325Z 28017G25KT 10SM OVC080 13/M02 A2997 1030 35 1000 280/17G25 RMK AO2 PK WND 30026/2314
94908KDBQ DBQ20000325173012203/25/00 17:30:31  5-MIN KDBQ 252330Z 28022G27KT 10SM OVC080 12/M03 A2997 1030 35 1000 280/22G27 RMK AO2 PK WND 28027/2330
94908KDBQ DBQ20000325173512203/25/00 17:35:31  5-MIN KDBQ 252335Z 28019G27KT 10SM BKN085 12/M02 A2997 1030 36 1000 280/19G27 RMK AO2 PK WND 27027/2333
94908KDBQ DBQ20000325174012203/25/00 17:40:31  5-MIN KDBQ 252340Z 28019G27KT 10SM BKN085 12/M03 A2997 1030 35 1000 280/19G27 RMK AO2 PK WND 27027/2333
94908KDBQ DBQ20000325174512103/25/00 17:45:31  5-MIN KDBQ 252345Z 28018G26KT 10SM BKN080 12/M03 A2997 1030 36 900 280/18G26 RMK AO2 PK WND 27027/2333
94908KDBQ DBQ20000325175015003/25/00 17:50:31  5-MIN KDBQ 252350Z 28018KT 10SM SCT080 12/M02 A2997 1030 38 900 280/18 RMK AO2 PK WND 27027/2333 SLP155 T01171022 10139 20117 56010
94908KDBQ DBQ20000325175515003/25/00 17:55:31  5-MIN KDBQ 252355Z 28014KT 10SM FEW085 11/M02 A2997 1030 39 900 280/14 RMK AO2 PK WND 27027/2333 SLP155 T01111022 10139 20111 56002
94908KDBQ DBQ20000325180009703/25/00 18:00:31  5-MIN KDBQ 260000Z 28012KT 10SM FEW085 11/M02 A2997 1030 39 900 280/12 RMK AO2
94908KDBQ DBQ20000325180509703/25/00 18:05:31  5-MIN KDBQ 260005Z 28013KT 10SM FEW085 11/M02 A2997 1030 40 800 280/13 RMK AO2
94908KDBQ DBQ20000325181010003/25/00 18:10:31  5-MIN KDBQ 260010Z 28017G20KT 10SM CLR 11/M02 A2997 1030 40 800 280/17G20 RMK AO2
94908KDBQ DBQ20000325181509403/25/00 18:15:31  5-MIN KDBQ 260015Z 28015KT 10SM CLR 11/M02 A2997 1030 40 800 280/15 RMK AO2
94908KDBQ DBQ20000325182009403/25/00 18:20:31  5-MIN KDBQ 260020Z 28014KT 10SM CLR 11/M02 A2997 1030 40 800 280/14 RMK AO2
94908KDBQ DBQ20000325182509403/25/00 18:25:31  5-MIN KDBQ 260025Z 28012KT 10SM CLR 10/M02 A2997 1030 42 700 280/12 RMK AO2
94908KDBQ DBQ20000325183009403/25/00 18:30:31  5-MIN KDBQ 260030Z 28013KT 10SM CLR 10/M02 A2997 1030 42 700 280/13 RMK AO2
94908KDBQ DBQ20000325183509403/25/00 18:35:31  5-MIN KDBQ 260035Z 28012KT 10SM CLR 10/M02 A2997 1030 42 700 280/12 RMK AO2
94908KDBQ DBQ20000325184009403/25/00 18:40:31  5-MIN KDBQ 260040Z 28012KT 10SM CLR 10/M02 A2997 1030 42 700 280/12 RMK AO2
94908KDBQ DBQ20000325184509403/25/00 18:45:31  5-MIN KDBQ 260045Z 28011KT 10SM CLR 09/M02 A2997 1030 44 700 280/11 RMK AO2
94908KDBQ DBQ20000325185011103/25/00 18:50:31  5-MIN KDBQ 260050Z 28011KT 10SM CLR 09/M02 A2997 1030 45 700 270/11 RMK AO2 SLP154 T00941017
94908KDBQ DBQ20000325185511103/25/00 18:55:31  5-MIN KDBQ 260055Z 28010KT 10SM CLR 09/M02 A2997 1030 47 600 280/10 RMK AO2 SLP155 T00891017
94908KDBQ DBQ20000325190009403/25/00 19:00:31  5-MIN KDBQ 260100Z 28009KT 10SM CLR 09/M02 A2997 1030 47 600 280/09 RMK AO2
94908KDBQ DBQ20000325190509403/25/00 19:05:31  5-MIN KDBQ 260105Z 29008KT 10SM CLR 08/M02 A2997 1030 49 500 290/08 RMK AO2
94908KDBQ DBQ20000325191009403/25/00 19:10:31  5-MIN KDBQ 260110Z 28008KT 10SM CLR 08/M02 A2997 1030 49 500 280/08 RMK AO2
94908KDBQ DBQ20000325191509403/25/00 19:15:31  5-MIN KDBQ 260115Z 28008KT 10SM CLR 08/M02 A2997 1030 51 400 280/08 RMK AO2
94908KDBQ DBQ20000325192009403/25/00 19:20:31  5-MIN KDBQ 260120Z 27007KT 10SM CLR 07/M02 A2997 1030 53 400 270/07 RMK AO2
94908KDBQ DBQ20000325192509403/25/00 19:25:31  5-MIN KDBQ 260125Z 28007KT 10SM CLR 08/M02 A2998 1030 51 400 280/07 RMK AO2
94908KDBQ DBQ20000325193009403/25/00 19:30:31  5-MIN KDBQ 260130Z 27006KT 10SM CLR 07/M02 A2998 1030 53 400 270/06 RMK AO2
94908KDBQ DBQ20000325193509403/25/00 19:35:31  5-MIN KDBQ 260135Z 27006KT 10SM CLR 07/M02 A2998 1030 53 400 270/06 RMK AO2
94908KDBQ DBQ20000325194009403/25/00 19:40:31  5-MIN KDBQ 260140Z 27005KT 10SM CLR 08/M02 A2998 1020 51 400 260/05 RMK AO2
94908KDBQ DBQ20000325194509403/25/00 19:45:31  5-MIN KDBQ 260145Z 26005KT 10SM CLR 08/M02 A2998 1020 51 400 260/05 RMK AO2
94908KDBQ DBQ20000325195011103/25/00 19:50:31  5-MIN KDBQ 260150Z 27005KT 10SM CLR 07/M02 A2998 1020 53 400 270/05 RMK AO2 SLP160 T00721017
94908KDBQ DBQ20000325195512103/25/00 19:55:31  5-MIN KDBQ 260155Z AUTO 27005KT 10SM CLR 07/M02 A2998 1020 53 400 260/05 RMK AO2 SLP160 T00721017 TSNO
94908KDBQ DBQ20000325200010403/25/00 20:00:31  5-MIN KDBQ 260200Z AUTO 27006KT 10SM CLR 07/M02 A2998 1020 55 300 270/06 RMK AO2 TSNO
94908KDBQ DBQ20000325200510403/25/00 20:05:31  5-MIN KDBQ 260205Z AUTO 26007KT 10SM CLR 07/M02 A2998 1020 55 300 260/07 RMK AO2 TSNO
94908KDBQ DBQ20000325201010403/25/00 20:10:31  5-MIN KDBQ 260210Z AUTO 26007KT 10SM CLR 06/M01 A2998 1020 60 200 260/07 RMK AO2 TSNO
94908KDBQ DBQ20000325201510403/25/00 20:15:31  5-MIN KDBQ 260215Z AUTO 27006KT 10SM CLR 06/M01 A2999 1020 62 200 270/06 RMK AO2 TSNO
94908KDBQ DBQ20000325202010403/25/00 20:20:31  5-MIN KDBQ 260220Z AUTO 27006KT 10SM CLR 06/M01 A2999 1020 62 200 270/06 RMK AO2 TSNO
94908KDBQ DBQ20000325202510403/25/00 20:25:31  5-MIN KDBQ 260225Z AUTO 27006KT 10SM CLR 06/M02 A2999 1020 57 200 270/06 RMK AO2 TSNO
94908KDBQ DBQ20000325203010403/25/00 20:30:31  5-MIN KDBQ 260230Z AUTO 27006KT 10SM CLR 07/M02 A2999 1020 55 300 270/06 RMK AO2 TSNO
94908KDBQ DBQ20000325203510403/25/00 20:35:31  5-MIN KDBQ 260235Z AUTO 26006KT 10SM CLR 06/M01 A2999 1020 60 200 260/06 RMK AO2 TSNO
94908KDBQ DBQ20000325204010403/25/00 20:40:31  5-MIN KDBQ 260240Z AUTO 27006KT 10SM CLR 07/M02 A2999 1010 55 300 260/06 RMK AO2 TSNO
94908KDBQ DBQ20000325204510403/25/00 20:45:31  5-MIN KDBQ 260245Z AUTO 26007KT 10SM CLR 06/M02 A2999 1010 57 200 260/07 RMK AO2 TSNO
94908KDBQ DBQ20000325205012703/25/00 20:50:31  5-MIN KDBQ 260250Z AUTO 26007KT 10SM CLR 06/M01 A2999 1010 60 200 260/07 RMK AO2 SLP162 T00611011 56002 TSNO
94908KDBQ DBQ20000325205512703/25/00 20:55:31  5-MIN KDBQ 260255Z AUTO 26006KT 10SM CLR 06/M01 A2999 1010 62 200 260/06 RMK AO2 SLP162 T00561011 53007 TSNO
94908KDBQ DBQ20000325210010403/25/00 21:00:31  5-MIN KDBQ 260300Z AUTO 26006KT 10SM CLR 05/M01 A3000 1010 64 100 260/06 RMK AO2 TSNO
94908KDBQ DBQ20000325210510403/25/00 21:05:31  5-MIN KDBQ 260305Z AUTO 27005KT 10SM CLR 05/M02 A3000 1010 62 100 270/05 RMK AO2 TSNO
94908KDBQ DBQ20000325211010403/25/00 21:10:31  5-MIN KDBQ 260310Z AUTO 28006KT 10SM CLR 06/M02 A3000 1010 55 200 280/06 RMK AO2 TSNO
94908KDBQ DBQ20000325212510403/25/00 21:25:31  5-MIN KDBQ 260325Z AUTO 28006KT 10SM CLR 06/M02 A3000 1000 59 100 280/06 RMK AO2 TSNO
94908KDBQ DBQ20000325213010403/25/00 21:30:31  5-MIN KDBQ 260330Z AUTO 29007KT 10SM CLR 05/M02 A3000 1000 62 100 280/07 RMK AO2 TSNO
94908KDBQ DBQ20000325213510403/25/00 21:35:31  5-MIN KDBQ 260335Z AUTO 28007KT 10SM CLR 06/M02 A3000 1010 57 100 280/07 RMK AO2 TSNO
94908KDBQ DBQ20000325214010403/25/00 21:40:31  5-MIN KDBQ 260340Z AUTO 28007KT 10SM CLR 06/M02 A3000 1010 57 100 280/07 RMK AO2 TSNO
94908KDBQ DBQ20000325214510403/25/00 21:45:31  5-MIN KDBQ 260345Z AUTO 29006KT 10SM CLR 05/M02 A3000 1010 59 100 290/06 RMK AO2 TSNO
94908KDBQ DBQ20000325215012103/25/00 21:50:31  5-MIN KDBQ 260350Z AUTO 29006KT 10SM CLR 05/M02 A3000 1010 59 100 280/06 RMK AO2 SLP164 T00501022 TSNO
94908KDBQ DBQ20000325215512103/25/00 21:55:31  5-MIN KDBQ 260355Z AUTO 29006KT 10SM CLR 05/M02 A3000 1010 59 100 290/06 RMK AO2 SLP164 T00501022 TSNO
94908KDBQ DBQ20000325220010403/25/00 22:00:31  5-MIN KDBQ 260400Z AUTO 29005KT 10SM CLR 06/M02 A3000 1010 57 100 290/05 RMK AO2 TSNO
94908KDBQ DBQ20000325220510403/25/00 22:05:31  5-MIN KDBQ 260405Z AUTO 29006KT 10SM CLR 06/M02 A3000 1010 57 100 290/06 RMK AO2 TSNO
94908KDBQ DBQ20000325221010403/25/00 22:10:31  5-MIN KDBQ 260410Z AUTO 29006KT 10SM CLR 05/M02 A3000 1010 59 100 290/06 RMK AO2 TSNO
94908KDBQ DBQ20000325221510403/25/00 22:15:31  5-MIN KDBQ 260415Z AUTO 30007KT 10SM CLR 05/M02 A3000 1010 59 100 300/07 RMK AO2 TSNO
94908KDBQ DBQ20000325222010203/25/00 22:20:31  5-MIN KDBQ 260420Z AUTO 29007KT 10SM CLR 04/M03 A3000 1010 59 0 290/07 RMK AO2 TSNO
94908KDBQ DBQ20000325222510203/25/00 22:25:31  5-MIN KDBQ 260425Z AUTO 30008KT 10SM CLR 04/M02 A3000 1010 64 0 300/08 RMK AO2 TSNO
94908KDBQ DBQ20000325223010203/25/00 22:30:31  5-MIN KDBQ 260430Z AUTO 30007KT 10SM CLR 04/M02 A2999 1010 67 0 300/07 RMK AO2 TSNO
94908KDBQ DBQ20000325223510203/25/00 22:35:31  5-MIN KDBQ 260435Z AUTO 30007KT 10SM CLR 04/M03 A2999 1010 59 0 300/07 RMK AO2 TSNO
94908KDBQ DBQ20000325224010203/25/00 22:40:31  5-MIN KDBQ 260440Z AUTO 30007KT 10SM CLR 04/M03 A2999 1010 59 0 300/07 RMK AO2 TSNO
94908KDBQ DBQ20000325224510203/25/00 22:45:31  5-MIN KDBQ 260445Z AUTO 30007KT 10SM CLR 04/M03 A2999 1010 57 0 300/07 RMK AO2 TSNO
94908KDBQ DBQ20000325225012103/25/00 22:50:31  5-MIN KDBQ 260450Z AUTO 30007KT 10SM CLR 05/M03 A2999 1010 57 100 300/07 RMK AO2 SLP161 T00501028 TSNO
94908KDBQ DBQ20000325225511903/25/00 22:55:31  5-MIN KDBQ 260455Z AUTO 30007KT 10SM CLR 04/M03 A2999 1010 59 0 300/07 RMK AO2 SLP161 T00441028 TSNO
94908KDBQ DBQ20000325230010203/25/00 23:00:31  5-MIN KDBQ 260500Z AUTO 30008KT 10SM CLR 04/M03 A2999 1010 62 0 300/08 RMK AO2 TSNO
94908KDBQ DBQ20000325230510203/25/00 23:05:31  5-MIN KDBQ 260505Z AUTO 30008KT 10SM CLR 04/M03 A2999 1010 59 0 300/08 RMK AO2 TSNO
94908KDBQ DBQ20000325231010503/25/00 23:10:31  5-MIN KDBQ 260510Z AUTO 30008KT 10SM CLR 03/M03 A2999 1010 61 -100 300/08 RMK AO2 TSNO
94908KDBQ DBQ20000325231510203/25/00 23:15:31  5-MIN KDBQ 260515Z AUTO 30007KT 10SM CLR 04/M03 A2999 1020 59 0 290/07 RMK AO2 TSNO
94908KDBQ DBQ20000325232010503/25/00 23:20:31  5-MIN KDBQ 260520Z AUTO 28006KT 10SM CLR 03/M03 A2999 1020 64 -100 280/06 RMK AO2 TSNO
94908KDBQ DBQ20000325232510503/25/00 23:25:31  5-MIN KDBQ 260525Z AUTO 27006KT 10SM CLR 03/M03 A2999 1020 64 -100 270/06 RMK AO2 TSNO
94908KDBQ DBQ20000325233010503/25/00 23:30:31  5-MIN KDBQ 260530Z AUTO 27005KT 10SM CLR 03/M02 A2999 1020 69 -100 270/05 RMK AO2 TSNO
94908KDBQ DBQ20000325233510503/25/00 23:35:31  5-MIN KDBQ 260535Z AUTO 27005KT 10SM CLR 03/M03 A2999 1020 67 -100 270/05 RMK AO2 TSNO
94908KDBQ DBQ20000325234010503/25/00 23:40:31  5-MIN KDBQ 260540Z AUTO 28005KT 10SM CLR 03/M02 A2999 1020 69 -100 280/05 RMK AO2 TSNO
94908KDBQ DBQ20000325234510503/25/00 23:45:31  5-MIN KDBQ 260545Z AUTO 28005KT 10SM CLR 02/M03 A2999 1020 69 -200 280/05 RMK AO2 TSNO
94908KDBQ DBQ20000325235015003/25/00 23:50:31  5-MIN KDBQ 260550Z AUTO 24003KT 10SM CLR 02/M03 A2999 1010 67 -200 240/03 RMK AO2 SLP161 T00221033 10111 20022 401390022 53007 TSNO
94908KDBQ DBQ20000325235515003/25/00 23:55:31  5-MIN KDBQ 260555Z AUTO 24003KT 10SM CLR 02/M02 A2999 1010 72 -200 230/03 RMK AO2 SLP161 T00221022 10111 20022 401390022 58001 TSNO
94908KDBQ DBQ20000326000010503/26/00 00:00:31  5-MIN KDBQ 260600Z AUTO 24003KT 10SM CLR 02/M02 A2999 1020 72 -200 240/03 RMK AO2 TSNO
94908KDBQ DBQ20000326000510503/26/00 00:05:31  5-MIN KDBQ 260605Z AUTO 23003KT 10SM CLR 02/M02 A2999 1010 75 -300 230/03 RMK AO2 TSNO
94908KDBQ DBQ20000326001010503/26/00 00:10:31  5-MIN KDBQ 260610Z AUTO 23003KT 10SM CLR 02/M02 A2999 1020 72 -200 230/03 RMK AO2 TSNO
94908KDBQ DBQ20000326001510503/26/00 00:15:31  5-MIN KDBQ 260615Z AUTO 00000KT 10SM CLR 02/M02 A2998 1020 75 -300 000/00 RMK AO2 TSNO
94908KDBQ DBQ20000326002010503/26/00 00:20:31  5-MIN KDBQ 260620Z AUTO 00000KT 10SM CLR 02/M03 A2998 1020 72 -300 000/00 RMK AO2 TSNO
94908KDBQ DBQ20000326002510503/26/00 00:25:31  5-MIN KDBQ 260625Z AUTO 00000KT 10SM CLR 02/M02 A2998 1020 75 -300 000/00 RMK AO2 TSNO
94908KDBQ DBQ20000326003010503/26/00 00:30:31  5-MIN KDBQ 260630Z AUTO 00000KT 10SM CLR 02/M02 A2998 1020 72 -200 000/00 RMK AO2 TSNO
94908KDBQ DBQ20000326003510503/26/00 00:35:31  5-MIN KDBQ 260635Z AUTO 00000KT 10SM CLR 02/M02 A2998 1020 72 -200 000/00 RMK AO2 TSNO
94908KDBQ DBQ20000326004010503/26/00 00:40:31  5-MIN KDBQ 260640Z AUTO 00000KT 10SM CLR 03/M02 A2998 1020 69 -100 000/00 RMK AO2 TSNO
94908KDBQ DBQ20000326004510503/26/00 00:45:31  5-MIN KDBQ 260645Z AUTO 00000KT 10SM CLR 03/M02 A2998 1020 69 -100 000/00 RMK AO2 TSNO
94908KDBQ DBQ20000326005012203/26/00 00:50:31  5-MIN KDBQ 260650Z AUTO 00000KT 10SM CLR 03/M02 A2998 1020 67 -100 000/00 RMK AO2 SLP157 T00331022 TSNO
94908KDBQ DBQ20000326005512203/26/00 00:55:31  5-MIN KDBQ 260655Z AUTO 00000KT 10SM CLR 03/M03 A2998 1020 67 -100 000/00 RMK AO2 SLP157 T00281028 TSNO
94908KDBQ DBQ20000326010010503/26/00 01:00:31  5-MIN KDBQ 260700Z AUTO 00000KT 10SM CLR 02/M03 A2998 1020 72 -300 000/00 RMK AO2 TSNO
94908KDBQ DBQ20000326010510503/26/00 01:05:31  5-MIN KDBQ 260705Z AUTO 18003KT 10SM CLR 02/M02 A2998 1020 75 -300 180/03 RMK AO2 TSNO
94908KDBQ DBQ20000326011010503/26/00 01:10:31  5-MIN KDBQ 260710Z AUTO 19003KT 10SM CLR 01/M03 A2998 1030 75 -300 190/03 RMK AO2 TSNO
94908KDBQ DBQ20000326011510503/26/00 01:15:31  5-MIN KDBQ 260715Z AUTO 19003KT 10SM CLR 02/M03 A2998 1020 72 -300 190/03 RMK AO2 TSNO
94908KDBQ DBQ20000326012010503/26/00 01:20:31  5-MIN KDBQ 260720Z AUTO 20003KT 10SM CLR 01/M02 A2998 1020 82 -400 200/03 RMK AO2 TSNO
94908KDBQ DBQ20000326012510503/26/00 01:25:31  5-MIN KDBQ 260725Z AUTO 21003KT 10SM CLR 00/M03 A2998 1020 81 -500 210/03 RMK AO2 TSNO
94908KDBQ DBQ20000326013010603/26/00 01:30:31  5-MIN KDBQ 260730Z AUTO 00000KT 10SM CLR M01/M03 A2998 1020 85 -500 000/00 RMK AO2 TSNO
94908KDBQ DBQ20000326013510603/26/00 01:35:31  5-MIN KDBQ 260735Z AUTO 20003KT 10SM CLR M01/M03 A2998 1020 85 -500 200/03 RMK AO2 TSNO
94908KDBQ DBQ20000326014010603/26/00 01:40:31  5-MIN KDBQ 260740Z AUTO 20003KT 10SM CLR M01/M03 A2998 1020 85 -500 200/03 RMK AO2 TSNO
94908KDBQ DBQ20000326014510503/26/00 01:45:31  5-MIN KDBQ 260745Z AUTO 19003KT 10SM CLR 00/M02 A2998 1020 85 -500 190/03 RMK AO2 TSNO
94908KDBQ DBQ20000326015012203/26/00 01:50:31  5-MIN KDBQ 260750Z AUTO 19003KT 10SM CLR 01/M02 A2998 1030 82 -400 190/03 RMK AO2 SLP157 T00061022 TSNO
94908KDBQ DBQ20000326015512203/26/00 01:55:31  5-MIN KDBQ 260755Z AUTO 19003KT 10SM CLR 00/M02 A2998 1030 85 -500 190/03 RMK AO2 SLP157 T00001022 TSNO
94908KDBQ DBQ20000326020010503/26/00 02:00:31  5-MIN KDBQ 260800Z AUTO 18003KT 10SM CLR 00/M02 A2997 1030 85 -500 180/03 RMK AO2 TSNO
94908KDBQ DBQ20000326020510503/26/00 02:05:31  5-MIN KDBQ 260805Z AUTO 19004KT 10SM CLR 01/M02 A2997 1030 82 -400 190/04 RMK AO2 TSNO
94908KDBQ DBQ20000326021010503/26/00 02:10:31  5-MIN KDBQ 260810Z AUTO 19003KT 10SM CLR 01/M03 A2997 1030 78 -400 190/03 RMK AO2 TSNO
94908KDBQ DBQ20000326021510503/26/00 02:15:31  5-MIN KDBQ 260815Z AUTO 20004KT 10SM CLR 01/M02 A2997 1030 82 -400 200/04 RMK AO2 TSNO
94908KDBQ DBQ20000326022010503/26/00 02:20:31  5-MIN KDBQ 260820Z AUTO 20003KT 10SM CLR 00/M03 A2998 1030 81 -500 200/03 RMK AO2 TSNO
94908KDBQ DBQ20000326022510503/26/00 02:25:31  5-MIN KDBQ 260825Z AUTO 20003KT 10SM CLR 01/M03 A2997 1030 78 -400 200/03 RMK AO2 TSNO
94908KDBQ DBQ20000326023010503/26/00 02:30:31  5-MIN KDBQ 260830Z AUTO 20003KT 10SM CLR 01/M02 A2997 1030 82 -400 200/03 RMK AO2 TSNO
94908KDBQ DBQ20000326023510503/26/00 02:35:31  5-MIN KDBQ 260835Z AUTO 20003KT 10SM CLR 01/M02 A2997 1030 82 -400 200/03 RMK AO2 TSNO
94908KDBQ DBQ20000326024010503/26/00 02:40:31  5-MIN KDBQ 260840Z AUTO 00000KT 10SM CLR 01/M02 A2997 1030 82 -400 000/00 RMK AO2 TSNO
94908KDBQ DBQ20000326024510503/26/00 02:45:31  5-MIN KDBQ 260845Z AUTO 19003KT 10SM CLR 01/M02 A2997 1030 78 -300 180/03 RMK AO2 TSNO
94908KDBQ DBQ20000326025012803/26/00 02:50:31  5-MIN KDBQ 260850Z AUTO 00000KT 10SM CLR 01/M02 A2997 1030 78 -300 000/00 RMK AO2 SLP156 T00111022 58001 TSNO
94908KDBQ DBQ20000326025512803/26/00 02:55:31  5-MIN KDBQ 260855Z AUTO 00000KT 10SM CLR 01/M02 A2997 1030 78 -300 000/00 RMK AO2 SLP156 T00111022 56005 TSNO
94908KDBQ DBQ20000326030010503/26/00 03:00:31  5-MIN KDBQ 260900Z AUTO 18003KT 10SM CLR 01/M02 A2997 1030 82 -400 180/03 RMK AO2 TSNO
94908KDBQ DBQ20000326030510503/26/00 03:05:31  5-MIN KDBQ 260905Z AUTO 20004KT 10SM CLR 01/M02 A2998 1030 82 -400 190/04 RMK AO2 TSNO
94908KDBQ DBQ20000326031010503/26/00 03:10:31  5-MIN KDBQ 260910Z AUTO 19003KT 10SM CLR 01/M02 A2997 1030 82 -400 190/03 RMK AO2 TSNO
94908KDBQ DBQ20000326031510503/26/00 03:15:31  5-MIN KDBQ 260915Z AUTO 19003KT 10SM CLR 01/M02 A2997 1030 78 -300 190/03 RMK AO2 TSNO
94908KDBQ DBQ20000326032010503/26/00 03:20:31  5-MIN KDBQ 260920Z AUTO 18004KT 10SM CLR 01/M02 A2997 1030 78 -300 180/04 RMK AO2 TSNO
94908KDBQ DBQ20000326032510503/26/00 03:25:31  5-MIN KDBQ 260925Z AUTO 19003KT 10SM CLR 01/M03 A2997 1030 78 -400 180/03 RMK AO2 TSNO
94908KDBQ DBQ20000326033010503/26/00 03:30:31  5-MIN KDBQ 260930Z AUTO 18004KT 10SM CLR 01/M02 A2997 1030 78 -300 180/04 RMK AO2 TSNO
94908KDBQ DBQ20000326033510503/26/00 03:35:31  5-MIN KDBQ 260935Z AUTO 19004KT 10SM CLR 01/M03 A2997 1030 78 -400 190/04 RMK AO2 TSNO
94908KDBQ DBQ20000326034010503/26/00 03:40:31  5-MIN KDBQ 260940Z AUTO 19004KT 10SM CLR 01/M03 A2997 1030 78 -400 190/04 RMK AO2 TSNO
94908KDBQ DBQ20000326034510503/26/00 03:45:31  5-MIN KDBQ 260945Z AUTO 19003KT 10SM CLR 01/M03 A2997 1030 78 -400 190/03 RMK AO2 TSNO
94908KDBQ DBQ20000326035012203/26/00 03:50:31  5-MIN KDBQ 260950Z AUTO 19003KT 10SM CLR 01/M03 A2997 1030 78 -400 190/03 RMK AO2 SLP156 T00061028 TSNO
94908KDBQ DBQ20000326035512203/26/00 03:55:31  5-MIN KDBQ 260955Z AUTO 18003KT 10SM CLR 01/M03 A2997 1030 75 -300 180/03 RMK AO2 SLP155 T00111028 TSNO
94908KDBQ DBQ20000326040010503/26/00 04:00:31  5-MIN KDBQ 261000Z AUTO 19003KT 10SM CLR 01/M03 A2997 1030 75 -300 190/03 RMK AO2 TSNO
94908KDBQ DBQ20000326040510503/26/00 04:05:31  5-MIN KDBQ 261005Z AUTO 19003KT 10SM CLR 02/M02 A2997 1030 75 -300 180/03 RMK AO2 TSNO
94908KDBQ DBQ20000326041010503/26/00 04:10:31  5-MIN KDBQ 261010Z AUTO 18004KT 10SM CLR 01/M03 A2997 1030 78 -400 180/04 RMK AO2 TSNO
94908KDBQ DBQ20000326041510503/26/00 04:15:31  5-MIN KDBQ 261015Z AUTO 18004KT 10SM CLR 01/M03 A2997 1030 75 -300 180/04 RMK AO2 TSNO
94908KDBQ DBQ20000326042010503/26/00 04:20:31  5-MIN KDBQ 261020Z AUTO 19004KT 10SM CLR 01/M03 A2997 1030 75 -300 190/04 RMK AO2 TSNO
94908KDBQ DBQ20000326042510503/26/00 04:25:31  5-MIN KDBQ 261025Z AUTO 19004KT 10SM CLR 01/M03 A2997 1030 75 -300 190/04 RMK AO2 TSNO
94908KDBQ DBQ20000326043010503/26/00 04:30:31  5-MIN KDBQ 261030Z AUTO 19003KT 10SM CLR 01/M03 A2996 1040 75 -300 190/03 RMK AO2 TSNO
94908KDBQ DBQ20000326043510503/26/00 04:35:31  5-MIN KDBQ 261035Z AUTO 19004KT 10SM CLR 02/M03 A2996 1040 72 -200 190/04 RMK AO2 TSNO
94908KDBQ DBQ20000326044010503/26/00 04:40:31  5-MIN KDBQ 261040Z AUTO 19004KT 10SM CLR 01/M03 A2996 1040 75 -300 190/04 RMK AO2 TSNO
94908KDBQ DBQ20000326044510503/26/00 04:45:31  5-MIN KDBQ 261045Z AUTO 19004KT 10SM CLR 01/M03 A2996 1040 78 -400 190/04 RMK AO2 TSNO
94908KDBQ DBQ20000326045012203/26/00 04:50:31  5-MIN KDBQ 261050Z AUTO 19004KT 10SM CLR 00/M03 A2997 1040 81 -500 190/04 RMK AO2 SLP154 T00001028 TSNO
94908KDBQ DBQ20000326045512203/26/00 04:55:31  5-MIN KDBQ 261055Z AUTO 19003KT 10SM CLR 00/M03 A2996 1040 81 -400 180/03 RMK AO2 SLP153 T00001028 TSNO
94908KDBQ DBQ20000326050010503/26/00 05:00:31  5-MIN KDBQ 261100Z AUTO 18003KT 10SM CLR 00/M03 A2996 1040 81 -400 180/03 RMK AO2 TSNO
94908KDBQ DBQ20000326050510503/26/00 05:05:31  5-MIN KDBQ 261105Z AUTO 18003KT 10SM CLR 00/M03 A2996 1040 81 -400 180/03 RMK AO2 TSNO
94908KDBQ DBQ20000326051010603/26/00 05:10:31  5-MIN KDBQ 261110Z AUTO 19003KT 10SM CLR M01/M03 A2996 1040 85 -500 190/03 RMK AO2 TSNO
94908KDBQ DBQ20000326051510603/26/00 05:15:31  5-MIN KDBQ 261115Z AUTO 19003KT 10SM CLR M01/M03 A2996 1040 85 -500 180/03 RMK AO2 TSNO
94908KDBQ DBQ20000326052010603/26/00 05:20:31  5-MIN KDBQ 261120Z AUTO 00000KT 10SM CLR M01/M03 A2996 1040 85 -500 000/00 RMK AO2 TSNO
94908KDBQ DBQ20000326052510503/26/00 05:25:31  5-MIN KDBQ 261125Z AUTO 00000KT 10SM CLR 00/M03 A2996 1040 81 -400 000/00 RMK AO2 TSNO
94908KDBQ DBQ20000326053010503/26/00 05:30:31  5-MIN KDBQ 261130Z AUTO 00000KT 10SM CLR 01/M03 A2996 1040 78 -400 000/00 RMK AO2 TSNO
94908KDBQ DBQ20000326053510503/26/00 05:35:31  5-MIN KDBQ 261135Z AUTO 16003KT 10SM CLR 02/M03 A2996 1050 72 -200 160/03 RMK AO2 TSNO
94908KDBQ DBQ20000326054010503/26/00 05:40:31  5-MIN KDBQ 261140Z AUTO 16004KT 10SM CLR 02/M03 A2995 1050 72 -200 160/04 RMK AO2 TSNO
94908KDBQ DBQ20000326054510003/26/00 05:45:31  5-MIN KDBQ 261145Z 17004KT 10SM CLR 02/M03 A2995 1050 69 -200 170/04 RMK AO2 TSNO
94908KDBQ DBQ20000326055013003/26/00 05:50:31  5-MIN KDBQ 261150Z 16004KT 10SM CLR 03/M03 A2995 1050 67 -100 160/04 RMK AO2 SLP146 T00281028 10033 21006 56005
94908KDBQ DBQ20000326055513003/26/00 05:55:31  5-MIN KDBQ 261155Z 16003KT 10SM CLR 03/M03 A2995 1050 64 -100 160/03 RMK AO2 SLP146 T00281033 10033 21006 58009
94908KDBQ DBQ20000326060009503/26/00 06:00:31  5-MIN KDBQ 261200Z 17004KT 10SM CLR 02/M03 A2994 1060 67 -200 170/04 RMK AO2
94908KDBQ DBQ20000326060509503/26/00 06:05:31  5-MIN KDBQ 261205Z 16003KT 10SM CLR 02/M03 A2994 1060 67 -100 160/03 RMK AO2
94908KDBQ DBQ20000326061009503/26/00 06:10:31  5-MIN KDBQ 261210Z 00000KT 10SM CLR 02/M03 A2994 1060 67 -100 000/00 RMK AO2
94908KDBQ DBQ20000326061509503/26/00 06:15:31  5-MIN KDBQ 261215Z 16005KT 10SM CLR 02/M03 A2994 1060 67 -100 160/05 RMK AO2
94908KDBQ DBQ20000326062009503/26/00 06:20:31  5-MIN KDBQ 261220Z 16005KT 10SM CLR 02/M03 A2994 1060 67 -100 160/05 RMK AO2
94908KDBQ DBQ20000326062509503/26/00 06:25:31  5-MIN KDBQ 261225Z 16007KT 10SM CLR 02/M03 A2993 1070 69 -100 150/07 RMK AO2
94908KDBQ DBQ20000326063009503/26/00 06:30:31  5-MIN KDBQ 261230Z 16008KT 10SM CLR 02/M03 A2993 1070 69 -100 160/08 RMK AO2
94908KDBQ DBQ20000326063509503/26/00 06:35:31  5-MIN KDBQ 261235Z 16008KT 10SM CLR 03/M03 A2993 1070 67 -100 160/08 RMK AO2
94908KDBQ DBQ20000326064009503/26/00 06:40:31  5-MIN KDBQ 261240Z 16007KT 10SM CLR 03/M02 A2992 1080 69 -100 160/07 RMK AO2
94908KDBQ DBQ20000326064509503/26/00 06:45:31  5-MIN KDBQ 261245Z 16008KT 10SM CLR 03/M02 A2992 1080 69 -100 160/08 RMK AO2
94908KDBQ DBQ20000326065010903/26/00 06:50:31  5-MIN KDBQ 261250Z 16008KT 10SM CLR 03/M02 A2992 1080 67 0 160/08 RMK AO2 SLP139 T00331022
94908KDBQ DBQ20000326065510903/26/00 06:55:31  5-MIN KDBQ 261255Z 16007KT 10SM CLR 03/M02 A2992 1080 70 0 160/07 RMK AO2 SLP138 T00331017
94908KDBQ DBQ20000326070009203/26/00 07:00:31  5-MIN KDBQ 261300Z 17007KT 10SM CLR 03/M01 A2992 1080 72 0 160/07 RMK AO2
94908KDBQ DBQ20000326070509203/26/00 07:05:31  5-MIN KDBQ 261305Z 17007KT 10SM CLR 04/M01 A2992 1080 70 0 170/07 RMK AO2
94908KDBQ DBQ20000326071009403/26/00 07:10:31  5-MIN KDBQ 261310Z 16007KT 10SM CLR 04/M01 A2991 1090 67 100 160/07 RMK AO2
94908KDBQ DBQ20000326071509403/26/00 07:15:31  5-MIN KDBQ 261315Z 16008KT 10SM CLR 04/M01 A2991 1090 70 100 160/08 RMK AO2
94908KDBQ DBQ20000326072009403/26/00 07:20:31  5-MIN KDBQ 261320Z 16009KT 10SM CLR 05/M01 A2991 1090 67 200 160/09 RMK AO2
94908KDBQ DBQ20000326072509403/26/00 07:25:31  5-MIN KDBQ 261325Z 16008KT 10SM CLR 06/M01 A2990 1090 65 300 160/08 RMK AO2
94908KDBQ DBQ20000326073009403/26/00 07:30:31  5-MIN KDBQ 261330Z 16009KT 10SM CLR 06/M01 A2990 1090 65 300 160/09 RMK AO2
94908KDBQ DBQ20000326073509403/26/00 07:35:31  5-MIN KDBQ 261335Z 17008KT 10SM CLR 06/M01 A2990 1100 65 300 160/08 RMK AO2
94908KDBQ DBQ20000326074009403/26/00 07:40:31  5-MIN KDBQ 261340Z 16007KT 10SM CLR 06/M01 A2990 1100 65 300 160/07 RMK AO2
94908KDBQ DBQ20000326074509303/26/00 07:45:31  5-MIN KDBQ 261345Z 16009KT 10SM CLR 06/00 A2989 1100 65 300 160/09 RMK AO2
94908KDBQ DBQ20000326075011003/26/00 07:50:31  5-MIN KDBQ 261350Z 16010KT 10SM CLR 07/00 A2989 1100 62 400 160/10 RMK AO2 SLP128 T00670000
94908KDBQ DBQ20000326075511003/26/00 07:55:31  5-MIN KDBQ 261355Z 16009KT 10SM CLR 07/00 A2989 1110 62 400 150/09 RMK AO2 SLP127 T00670000
94908KDBQ DBQ20000326080009303/26/00 08:00:31  5-MIN KDBQ 261400Z 16011KT 10SM CLR 07/00 A2988 1110 60 500 150/11 RMK AO2
94908KDBQ DBQ20000326080509403/26/00 08:05:31  5-MIN KDBQ 261405Z 15011KT 10SM CLR 07/M01 A2988 1120 57 500 150/11 RMK AO2
94908KDBQ DBQ20000326081009403/26/00 08:10:31  5-MIN KDBQ 261410Z 15013KT 10SM CLR 08/M01 A2988 1120 55 600 150/13 RMK AO2
94908KDBQ DBQ20000326081509403/26/00 08:15:31  5-MIN KDBQ 261415Z 15015KT 10SM CLR 08/M02 A2987 1120 51 600 150/15 RMK AO2
94908KDBQ DBQ20000326082009403/26/00 08:20:31  5-MIN KDBQ 261420Z 15016KT 10SM CLR 08/M03 A2987 1130 47 600 150/16 RMK AO2
94908KDBQ DBQ20000326082509403/26/00 08:25:31  5-MIN KDBQ 261425Z 15016KT 10SM CLR 08/M02 A2986 1130 47 600 150/16 RMK AO2
94908KDBQ DBQ20000326083009403/26/00 08:30:31  5-MIN KDBQ 261430Z 15014KT 10SM CLR 08/M02 A2986 1130 49 600 150/14 RMK AO2
94908KDBQ DBQ20000326083509403/26/00 08:35:31  5-MIN KDBQ 261435Z 15017KT 10SM CLR 08/M02 A2986 1140 49 600 150/17 RMK AO2
94908KDBQ DBQ20000326084009403/26/00 08:40:31  5-MIN KDBQ 261440Z 15018KT 10SM CLR 09/M02 A2985 1140 47 700 150/18 RMK AO2
94908KDBQ DBQ20000326084509403/26/00 08:45:31  5-MIN KDBQ 261445Z 15017KT 10SM CLR 09/M03 A2985 1150 43 700 150/17 RMK AO2
94908KDBQ DBQ20000326085012203/26/00 08:50:31  5-MIN KDBQ 261450Z 15015G22KT 9SM CLR 09/M02 A2985 1150 45 800 150/15G22 RMK AO2 SLP112 T00941017 58009
94908KDBQ DBQ20000326085512203/26/00 08:55:31  5-MIN KDBQ 261455Z 16018G22KT 8SM CLR 09/M02 A2985 1150 45 800 160/18G22 RMK AO2 SLP113 T00941017 58032
94908KDBQ DBQ20000326090009303/26/00 09:00:31  5-MIN KDBQ 261500Z 15015KT 9SM CLR 10/M01 A2985 1150 46 900 150/15 RMK AO2
94908KDBQ DBQ20000326090510003/26/00 09:05:31  5-MIN KDBQ 261505Z 16019G23KT 10SM CLR 10/M02 A2985 1150 44 900 160/19G23 RMK AO2
94908KDBQ DBQ20000326091010003/26/00 09:10:31  5-MIN KDBQ 261510Z 16014G23KT 10SM CLR 10/M02 A2984 1150 44 900 150/14G23 RMK AO2
94908KDBQ DBQ20000326091509403/26/00 09:15:31  5-MIN KDBQ 261515Z 15014KT 10SM CLR 11/M01 A2984 1150 46 900 150/14 RMK AO2
94908KDBQ DBQ20000326092009403/26/00 09:20:31  5-MIN KDBQ 261520Z 16016KT 10SM CLR 11/M01 A2984 1150 44 900 160/16 RMK AO2
94908KDBQ DBQ20000326092509503/26/00 09:25:31  5-MIN KDBQ 261525Z 16016KT 10SM CLR 11/M01 A2984 1150 42 1000 160/16 RMK AO2
94908KDBQ DBQ20000326093009503/26/00 09:30:31  5-MIN KDBQ 261530Z 17017KT 10SM CLR 12/M01 A2984 1150 42 1100 170/17 RMK AO2
94908KDBQ DBQ20000326093509403/26/00 09:35:31  5-MIN KDBQ 261535Z 17015KT 10SM CLR 12/00 A2984 1150 44 1100 170/15 RMK AO2
94908KDBQ DBQ20000326094010303/26/00 09:40:31  5-MIN KDBQ 261540Z 17016G21KT 10SM FEW110 12/00 A2983 1160 44 1100 170/16G21 RMK AO2
94908KDBQ DBQ20000326094509703/26/00 09:45:31  5-MIN KDBQ 261545Z 17018KT 10SM FEW110 12/00 A2983 1160 43 1100 170/18 RMK AO2
94908KDBQ DBQ20000326095011503/26/00 09:50:31  5-MIN KDBQ 261550Z 17016KT 10SM SCT100 12/M01 A2983 1170 42 1100 160/16 RMK AO2 SLP105 T01171006
94908KDBQ DBQ20000326095512003/26/00 09:55:31  5-MIN KDBQ 261555Z 17017G23KT 10SM SCT100 12/00 A2982 1170 44 1100 170/17G23 RMK AO2 SLP103 T01170000
94908KDBQ DBQ20000326100010403/26/00 10:00:31  5-MIN KDBQ 261600Z 17018G23KT 10SM SCT100 12/M01 A2982 1170 42 1100 170/18G23 RMK AO2
94908KDBQ DBQ20000326100509703/26/00 10:05:31  5-MIN KDBQ 261605Z 16014KT 10SM SCT100 12/00 A2982 1170 44 1100 160/14 RMK AO2
94908KDBQ DBQ20000326101009703/26/00 10:10:31  5-MIN KDBQ 261610Z 17016KT 10SM FEW100 12/01 A2982 1180 44 1200 160/16 RMK AO2
94908KDBQ DBQ20000326101509703/26/00 10:15:31  5-MIN KDBQ 261615Z 17017KT 10SM SCT090 13/01 A2981 1180 43 1300 170/17 RMK AO2
94908KDBQ DBQ20000326102010403/26/00 10:20:31  5-MIN KDBQ 261620Z 17017KT 10SM SCT085 13/01 A2980 1190 44 1200 170/17 RMK AO2 PRESFR
94908KDBQ DBQ20000326102509703/26/00 10:25:31  5-MIN KDBQ 261625Z 17017KT 10SM FEW085 12/01 A2980 1190 44 1200 170/17 RMK AO2
94908KDBQ DBQ20000326103009703/26/00 10:30:31  5-MIN KDBQ 261630Z 17015KT 10SM FEW080 13/02 A2979 1200 46 1300 170/15 RMK AO2
94908KDBQ DBQ20000326103509703/26/00 10:35:31  5-MIN KDBQ 261635Z 16016KT 10SM FEW090 14/02 A2979 1200 43 1400 160/16 RMK AO2
94908KDBQ DBQ20000326104009703/26/00 10:40:31  5-MIN KDBQ 261640Z 16016KT 10SM FEW090 14/01 A2979 1200 41 1400 160/16 RMK AO2
94908KDBQ DBQ20000326104510403/26/00 10:45:31  5-MIN KDBQ 261645Z 17018KT 10SM FEW085 SCT110 14/02 A2978 1210 43 1400 170/18 RMK AO2
94908KDBQ DBQ20000326105011403/26/00 10:50:31  5-MIN KDBQ 261650Z 17015KT 10SM SCT110 14/02 A2977 1210 43 1500 160/15 RMK AO2 SLP086 T01440022
94908KDBQ DBQ20000326105512103/26/00 10:55:31  5-MIN KDBQ 261655Z 17018KT 10SM SCT110 14/02 A2977 1220 43 1400 160/18 RMK AO2 PRESFR SLP083 T01390017
94908KDBQ DBQ20000326110010403/26/00 11:00:31  5-MIN KDBQ 261700Z 17018KT 10SM FEW110 14/02 A2976 1230 41 1500 170/18 RMK AO2 PRESFR
94908KDBQ DBQ20000326110509703/26/00 11:05:31  5-MIN KDBQ 261705Z 17019KT 10SM FEW110 15/02 A2976 1230 42 1600 170/19 RMK AO2
94908KDBQ DBQ20000326111010303/26/00 11:10:31  5-MIN KDBQ 261710Z 17016G22KT 10SM FEW110 16/02 A2975 1230 40 1600 170/16G22 RMK AO2
94908KDBQ DBQ20000326111509703/26/00 11:15:31  5-MIN KDBQ 261715Z 17016KT 10SM FEW110 16/02 A2975 1240 40 1600 170/16 RMK AO2
94908KDBQ DBQ20000326112010003/26/00 11:20:31  5-MIN KDBQ 261720Z 17017G22KT 10SM CLR 16/02 A2974 1240 39 1700 170/17G22 RMK AO2
94908KDBQ DBQ20000326112510003/26/00 11:25:31  5-MIN KDBQ 261725Z 18017G23KT 10SM CLR 16/03 A2974 1250 40 1700 180/17G23 RMK AO2
94908KDBQ DBQ20000326113010703/26/00 11:30:31  5-MIN KDBQ 261730Z 18020G24KT 10SM CLR 17/02 A2973 1250 37 1800 180/20G24 RMK AO2 PRESFR
94908KDBQ DBQ20000326113510003/26/00 11:35:31  5-MIN KDBQ 261735Z 17020G25KT 10SM CLR 17/03 A2973 1250 39 1800 170/20G25 RMK AO2
94908KDBQ DBQ20000326114010003/26/00 11:40:31  5-MIN KDBQ 261740Z 17019G25KT 10SM CLR 17/03 A2973 1260 39 1800 170/19G25 RMK AO2
94908KDBQ DBQ20000326114510003/26/00 11:45:31  5-MIN KDBQ 261745Z 18020G24KT 10SM CLR 17/03 A2972 1260 37 1900 180/20G24 RMK AO2
94908KDBQ DBQ20000326115013503/26/00 11:50:31  5-MIN KDBQ 261750Z 18020G24KT 10SM CLR 17/03 A2972 1270 39 1900 180/20G24 RMK AO2 SLP066 T01720033 10172 20022 58032
94908KDBQ DBQ20000326115513503/26/00 11:55:31  5-MIN KDBQ 261755Z 17021G24KT 10SM CLR 18/03 A2971 1270 36 1900 170/21G24 RMK AO2 SLP064 T01780028 10178 20022 58045
94908KDBQ DBQ20000326120011803/26/00 12:00:31  5-MIN KDBQ 261800Z 17020G26KT 10SM CLR 18/03 A2971 1270 36 1900 170/20G26 RMK AO2 PK WND 17026/1757
94908KDBQ DBQ20000326120511803/26/00 12:05:31  5-MIN KDBQ 261805Z 19016G26KT 10SM CLR 18/03 A2970 1280 36 2000 190/16G26 RMK AO2 PK WND 17026/1757
94908KDBQ DBQ20000326121011803/26/00 12:10:31  5-MIN KDBQ 261810Z 18020G25KT 10SM CLR 18/03 A2970 1290 36 2000 180/20G25 RMK AO2 PK WND 17026/1757
94908KDBQ DBQ20000326121511803/26/00 12:15:31  5-MIN KDBQ 261815Z 19019G27KT 10SM CLR 18/03 A2970 1290 36 2000 180/19G27 RMK AO2 PK WND 17027/1811
94908KDBQ DBQ20000326122011803/26/00 12:20:31  5-MIN KDBQ 261820Z 18022G27KT 10SM CLR 19/03 A2969 1290 35 2100 180/22G27 RMK AO2 PK WND 17027/1811
94908KDBQ DBQ20000326122511803/26/00 12:25:31  5-MIN KDBQ 261825Z 19018G26KT 10SM CLR 18/03 A2969 1290 36 2000 190/18G26 RMK AO2 PK WND 17027/1811
94908KDBQ DBQ20000326123011803/26/00 12:30:31  5-MIN KDBQ 261830Z 19019G24KT 10SM CLR 19/03 A2968 1300 35 2100 190/19G24 RMK AO2 PK WND 17027/1811
94908KDBQ DBQ20000326123512103/26/00 12:35:31  5-MIN KDBQ 261835Z 19021G25KT 10SM FEW095 19/03 A2968 1300 35 2100 190/21G25 RMK AO2 PK WND 17027/1811
94908KDBQ DBQ20000326124012103/26/00 12:40:31  5-MIN KDBQ 261840Z 19020G25KT 10SM FEW095 19/03 A2967 1310 35 2100 190/20G25 RMK AO2 PK WND 17027/1811
94908KDBQ DBQ20000326124512803/26/00 12:45:31  5-MIN KDBQ 261845Z 19020G27KT 10SM FEW095 19/03 A2966 1320 34 2200 190/20G27 RMK AO2 PK WND 18027/1843 PRESFR
94908KDBQ DBQ20000326125013803/26/00 12:50:31  5-MIN KDBQ 261850Z 18019G27KT 10SM FEW095 19/04 A2966 1320 35 2200 180/19G27 RMK AO2 PK WND 18027/1843 SLP045 T01940039
94908KDBQ DBQ20000326125514503/26/00 12:55:31  5-MIN KDBQ 261855Z 18024G32KT 10SM FEW095 19/03 A2965 1330 34 2200 180/24G32 RMK AO2 PK WND 17032/1851 PRESFR SLP042 T01940033
94908KDBQ DBQ20000326130012803/26/00 13:00:31  5-MIN KDBQ 261900Z 19021G32KT 10SM FEW095 19/03 A2964 1340 34 2200 190/21G32 RMK AO2 PK WND 20027/1858 PRESFR
94908KDBQ DBQ20000326130512103/26/00 13:05:31  5-MIN KDBQ 261905Z 18023G29KT 10SM FEW095 19/03 A2964 1340 34 2200 180/23G29 RMK AO2 PK WND 18029/1905
94908KDBQ DBQ20000326131012503/26/00 13:10:31  5-MIN KDBQ 261910Z 20019G29KT 10SM CLR 20/03 A2963 1350 33 2300 190/19G29 RMK AO2 PK WND 18029/1905 PRESFR
94908KDBQ DBQ20000326131512503/26/00 13:15:31  5-MIN KDBQ 261915Z 18024G33KT 10SM CLR 20/03 A2962 1350 31 2300 180/24G33 RMK AO2 PK WND 19033/1911 PRESFR
94908KDBQ DBQ20000326132012103/26/00 13:20:31  5-MIN KDBQ 261920Z 19023G33KT 10SM FEW085 19/03 A2962 1350 33 2200 190/23G33 RMK AO2 PK WND 19033/1911
94908KDBQ DBQ20000326132512103/26/00 13:25:31  5-MIN KDBQ 261925Z 19020G28KT 10SM SCT085 19/03 A2962 1360 33 2200 190/20G28 RMK AO2 PK WND 19033/1911
94908KDBQ DBQ20000326133012103/26/00 13:30:31  5-MIN KDBQ 261930Z 21020G27KT 10SM SCT085 19/03 A2962 1360 34 2200 210/20G27 RMK AO2 PK WND 19033/1911
94908KDBQ DBQ20000326133512103/26/00 13:35:31  5-MIN KDBQ 261935Z 19022G27KT 10SM SCT090 19/03 A2962 1360 33 2200 190/22G27 RMK AO2 PK WND 19033/1911
94908KDBQ DBQ20000326134012103/26/00 13:40:31  5-MIN KDBQ 261940Z 21023G27KT 10SM BKN090 20/03 A2961 1370 31 2300 210/23G27 RMK AO2 PK WND 19033/1911
94908KDBQ DBQ20000326134512103/26/00 13:45:31  5-MIN KDBQ 261945Z 19020G27KT 10SM BKN090 21/03 A2961 1370 32 2400 190/20G27 RMK AO2 PK WND 19033/1911
94908KDBQ DBQ20000326135013803/26/00 13:50:31  5-MIN KDBQ 261950Z 18020G29KT 10SM BKN090 20/03 A2961 1370 31 2300 180/20G29 RMK AO2 PK WND 19033/1911 SLP027 T02000028
94908KDBQ DBQ20000326135513803/26/00 13:55:31  5-MIN KDBQ 261955Z 20021G29KT 10SM SCT095 20/03 A2960 1380 33 2300 200/21G29 RMK AO2 PK WND 19033/1911 SLP027 T02000033
94908KDBQ DBQ20000326140012103/26/00 14:00:31  5-MIN KDBQ 262000Z 21024G31KT 10SM SCT095 19/03 A2959 1380 33 2300 200/24G31 RMK AO2 PK WND 21031/1959
94908KDBQ DBQ20000326140512103/26/00 14:05:31  5-MIN KDBQ 262005Z 20020G31KT 10SM FEW095 20/03 A2959 1390 31 2300 200/20G31 RMK AO2 PK WND 21031/1959
94908KDBQ DBQ20000326141012103/26/00 14:10:31  5-MIN KDBQ 262010Z 20022G29KT 10SM FEW100 20/02 A2959 1390 30 2300 200/22G29 RMK AO2 PK WND 21031/1959
94908KDBQ DBQ20000326141512103/26/00 14:15:31  5-MIN KDBQ 262015Z 20024G31KT 10SM FEW095 19/01 A2958 1390 29 2300 200/24G31 RMK AO2 PK WND 21031/2011
94908KDBQ DBQ20000326142011803/26/00 14:20:31  5-MIN KDBQ 262020Z 20022G31KT 10SM CLR 19/01 A2958 1390 29 2300 200/22G31 RMK AO2 PK WND 21031/2011
94908KDBQ DBQ20000326142511803/26/00 14:25:31  5-MIN KDBQ 262025Z 20020G28KT 10SM CLR 19/02 A2958 1390 30 2300 200/20G28 RMK AO2 PK WND 21031/2011
94908KDBQ DBQ20000326143011803/26/00 14:30:31  5-MIN KDBQ 262030Z 20015G26KT 10SM CLR 19/02 A2958 1400 30 2300 200/15G26 RMK AO2 PK WND 21031/2011
94908KDBQ DBQ20000326143511803/26/00 14:35:31  5-MIN KDBQ 262035Z 20017G27KT 10SM CLR 19/02 A2957 1400 30 2300 200/17G27 RMK AO2 PK WND 21031/2011
94908KDBQ DBQ20000326144012503/26/00 14:40:31  5-MIN KDBQ 262040Z 20021G27KT 10SM CLR 20/02 A2956 1420 29 2400 200/21G27 RMK AO2 PK WND 21031/2011 PRESFR
94908KDBQ DBQ20000326144511803/26/00 14:45:31  5-MIN KDBQ 262045Z 20023G28KT 10SM CLR 20/01 A2956 1420 28 2400 200/23G28 RMK AO2 PK WND 21031/2011
94908KDBQ DBQ20000326145014403/26/00 14:50:31  5-MIN KDBQ 262050Z 20017G28KT 10SM FEW090 19/01 A2956 1410 29 2300 200/17G28 RMK AO2 PK WND 21031/2011 SLP012 T01940011 58045
94908KDBQ DBQ20000326145513803/26/00 14:55:31  5-MIN KDBQ 262055Z 20018KT 10SM SCT090 19/02 A2956 1420 30 2300 200/18 RMK AO2 PK WND 21031/2011 SLP010 T01940017 56051
94908KDBQ DBQ20000326150010303/26/00 15:00:31  5-MIN KDBQ 262100Z 21018G24KT 10SM BKN085 19/02 A2956 1420 31 2200 200/18G24 RMK AO2
94908KDBQ DBQ20000326150510303/26/00 15:05:31  5-MIN KDBQ 262105Z 21019G24KT 10SM BKN085 19/02 A2955 1420 31 2200 210/19G24 RMK AO2
94908KDBQ DBQ20000326151012103/26/00 15:10:31  5-MIN KDBQ 262110Z 21020G26KT 10SM BKN080 19/02 A2957 1410 31 2200 210/20G26 RMK AO2 PK WND 21026/2108
94908KDBQ DBQ20000326151512803/26/00 15:15:31  5-MIN KDBQ 262115Z 21026G35KT 10SM SCT060 OVC085 18/02 A2956 1410 34 2200 210/26G35 RMK AO2 PK WND 21035/2114
94908KDBQ DBQ20000326152014403/26/00 15:20:31  5-MIN KDBQ 262120Z 22023G35KT 10SM -RA FEW050 BKN085 17/03 A2956 1410 39 2000 220/23G35 RMK AO2 PK WND 21035/2114 RAB17 P0000
94908KDBQ DBQ20000326152515103/26/00 15:25:31  5-MIN KDBQ 262125Z 23018G30KT 10SM -RA SCT050 SCT065 BKN080 17/03 A2956 1410 39 2000 230/18G30 RMK AO2 PK WND 21035/2114 RAB17 P0000
94908KDBQ DBQ20000326153015103/26/00 15:30:31  5-MIN KDBQ 262130Z 24014G29KT 10SM -RA SCT050 SCT055 BKN080 17/04 A2955 1420 41 2000 230/14G29 RMK AO2 PK WND 21035/2114 RAB17 P0000
94908KDBQ DBQ20000326153515103/26/00 15:35:31  5-MIN KDBQ 262135Z 23014G22KT 10SM -RA SCT050 SCT065 BKN080 17/04 A2955 1420 42 2000 230/14G22 RMK AO2 PK WND 21035/2114 RAB17 P0000
94908KDBQ DBQ20000326154015803/26/00 15:40:31  5-MIN KDBQ 262140Z 22014G19KT 10SM -RA SCT042 SCT055 BKN070 17/04 A2954 1440 42 2000 220/14G19 RMK AO2 PK WND 21035/2114 RAB17 PRESFR P0000
94908KDBQ DBQ20000326154515803/26/00 15:45:31  5-MIN KDBQ 262145Z 21016G20KT 10SM -RA SCT043 SCT060 BKN075 17/04 A2953 1440 42 2000 210/16G20 RMK AO2 PK WND 21035/2114 RAB17 PRESFR P0000
94908KDBQ DBQ20000326155016803/26/00 15:50:31  5-MIN KDBQ 262150Z 20013G20KT 10SM -RA SCT055 BKN070 17/03 A2952 1450 40 2000 200/13G20 RMK AO2 PK WND 21035/2114 RAB17 PRESFR SLP000 P0000 T01670033
94908KDBQ DBQ20000326155515403/26/00 15:55:31  5-MIN KDBQ 262155Z 20014KT 10SM SCT055 BKN075 17/03 A2952 1460 39 2100 200/14 RMK AO2 PK WND 21035/2114 RAB17E52 SLP998 P0000 T01720033
94908KDBQ DBQ20000326160011103/26/00 16:00:31  5-MIN KDBQ 262200Z 20011KT 10SM SCT050 BKN070 17/03 A2950 1470 39 2100 200/11 RMK AO2 PRESFR
94908KDBQ DBQ20000326160510403/26/00 16:05:31  5-MIN KDBQ 262205Z 20011KT 10SM SCT060 BKN070 17/03 A2950 1470 39 2100 200/11 RMK AO2
94908KDBQ DBQ20000326161009703/26/00 16:10:31  5-MIN KDBQ 262210Z 20010KT 10SM SCT070 17/03 A2950 1470 39 2100 200/10 RMK AO2
94908KDBQ DBQ20000326161509703/26/00 16:15:31  5-MIN KDBQ 262215Z 20009KT 10SM SCT070 17/03 A2949 1470 39 2100 200/09 RMK AO2
94908KDBQ DBQ20000326162009703/26/00 16:20:31  5-MIN KDBQ 262220Z 20009KT 10SM SCT075 17/03 A2949 1480 39 2100 200/09 RMK AO2
94908KDBQ DBQ20000326162510403/26/00 16:25:31  5-MIN KDBQ 262225Z 20009KT 10SM FEW070 SCT095 17/03 A2949 1480 39 2100 200/09 RMK AO2
94908KDBQ DBQ20000326163010403/26/00 16:30:31  5-MIN KDBQ 262230Z 20008KT 10SM FEW085 SCT100 18/03 A2948 1480 38 2200 190/08 RMK AO2
94908KDBQ DBQ20000326163509703/26/00 16:35:31  5-MIN KDBQ 262235Z 19009KT 10SM SCT085 18/03 A2948 1490 36 2200 190/09 RMK AO2
94908KDBQ DBQ20000326164009703/26/00 16:40:31  5-MIN KDBQ 262240Z 20011KT 10SM BKN085 18/03 A2948 1490 36 2200 200/11 RMK AO2
94908KDBQ DBQ20000326164509703/26/00 16:45:31  5-MIN KDBQ 262245Z 21012KT 10SM BKN080 18/02 A2949 1480 35 2200 210/12 RMK AO2
94908KDBQ DBQ20000326165011403/26/00 16:50:31  5-MIN KDBQ 262250Z 24010KT 10SM BKN080 18/02 A2950 1470 35 2200 240/10 RMK AO2 SLP994 T01780022
94908KDBQ DBQ20000326165513903/26/00 16:55:31  5-MIN KDBQ 262255Z 28010KT 10SM FEW060 OVC080 16/04 A2951 1460 45 2000 280/10 RMK AO2 WSHFT 2239 PRESRR SLP998 T01610044
94908KDBQ DBQ20000326170016403/26/00 17:00:31  5-MIN KDBQ 262300Z 27025G32KT 10SM -RA SCT060 OVC080 15/06 A2953 1450 53 1800 270/25G32 RMK AO2 PK WND 29032/2300 WSHFT 2242 RAB2257 PRESRR P0000
94908KDBQ DBQ20000326170516203/26/00 17:05:31  5-MIN KDBQ 262305Z 26020G32KT 7SM RA SCT047 BKN065 OVC080 14/07 A2953 1440 64 1700 260/20G32 RMK AO2 PK WND 29032/2300 WSHFT 2242 RAB2257 P0000
94908KDBQ DBQ20000326171016203/26/00 17:10:31  5-MIN KDBQ 262310Z 26019G31KT 6SM RA SCT045 BKN060 OVC080 13/08 A2953 1440 71 1600 260/19G31 RMK AO2 PK WND 29032/2300 WSHFT 2242 RAB2257 P0001
94908KDBQ DBQ20000326171515703/26/00 17:15:31  5-MIN KDBQ 262315Z 27017KT 7SM -RA BKN049 BKN060 OVC080 13/08 A2952 1450 74 1600 270/17 RMK AO2 PK WND 29032/2300 WSHFT 2242 RAB2257 P0001
94908KDBQ DBQ20000326172015803/26/00 17:20:31  5-MIN KDBQ 262320Z 25014KT 10SM -RA BKN050 OVC065 13/08 A2950 1470 74 1600 250/14 RMK AO2 PK WND 29032/2300 WSHFT 2242 RAB2257 PRESFR P0001
94908KDBQ DBQ20000326172514403/26/00 17:25:31  5-MIN KDBQ 262325Z 23013KT 10SM -RA OVC050 12/08 A2950 1470 77 1500 230/13 RMK AO2 PK WND 29032/2300 WSHFT 2242 RAB2257 P0001
94908KDBQ DBQ20000326173015603/26/00 17:30:31  5-MIN KDBQ 262330Z 23017G20KT 8SM -RA BKN048 OVC060 12/08 A2950 1470 77 1500 230/17G20 RMK AO2 PK WND 29032/2300 WSHFT 2242 RAB2257 P0002
94908KDBQ DBQ20000326173515503/26/00 17:35:31  5-MIN KDBQ 262335Z 22018G25KT 5SM RA BKN046 OVC060 12/09 A2949 1480 80 1500 210/18G25 RMK AO2 PK WND 29032/2300 WSHFT 2242 RAB2257 P0003
94908KDBQ DBQ20000326174015503/26/00 17:40:31  5-MIN KDBQ 262340Z 21015G25KT 5SM RA BKN046 OVC065 12/09 A2949 1480 83 1500 210/15G25 RMK AO2 PK WND 29032/2300 WSHFT 2242 RAB2257 P0004
94908KDBQ DBQ20000326174515003/26/00 17:45:31  5-MIN KDBQ 262345Z 22012KT 7SM -RA BKN048 OVC060 12/09 A2949 1480 83 1500 220/12 RMK AO2 PK WND 29032/2300 WSHFT 2242 RAB2257 P0004
94908KDBQ DBQ20000326175019103/26/00 17:50:31  5-MIN KDBQ 262350Z 24016KT 10SM SCT043 OVC060 12/09 A2950 1470 83 1500 240/16 RMK AO2 PK WND 29032/2300 WSHFT 2242 RAB2257E50 SLP995 P0004 60004 T01170089 10206 20117 56051
94908KDBQ DBQ20000326175520603/26/00 17:55:31  5-MIN KDBQ 262355Z 23017KT 10SM -RA SCT039 BKN048 OVC060 12/09 A2951 1460 80 1500 230/17 RMK AO2 PK WND 29032/2300 WSHFT 2242 RAB2257 PRESRR SLP999 P0004 60004 T01220089 10206 20117 56014
94908KDBQ DBQ20000326180012103/26/00 18:00:31  5-MIN KDBQ 270000Z 24014KT 10SM -RA FEW039 BKN050 OVC065 12/09 A2952 1450 80 1500 240/14 RMK AO2 P0000
94908KDBQ DBQ20000326180511603/26/00 18:05:31  5-MIN KDBQ 270005Z 24014KT 10SM SCT047 OVC055 12/09 A2952 1450 80 1500 240/14 RMK AO2 RAE01 P0000
94908KDBQ DBQ20000326181011603/26/00 18:10:31  5-MIN KDBQ 270010Z 26013KT 10SM FEW047 OVC055 12/08 A2952 1450 77 1500 250/13 RMK AO2 RAE01 P0000
94908KDBQ DBQ20000326181511603/26/00 18:15:31  5-MIN KDBQ 270015Z 27012KT 10SM FEW047 OVC055 12/08 A2953 1440 77 1500 270/12 RMK AO2 RAE01 P0000
94908KDBQ DBQ20000326182012303/26/00 18:20:31  5-MIN KDBQ 270020Z 28012KT 10SM FEW047 BKN055 OVC070 12/08 A2953 1440 74 1500 280/12 RMK AO2 RAE01 P0000
94908KDBQ DBQ20000326182512203/26/00 18:25:31  5-MIN KDBQ 270025Z 28014G19KT 10SM BKN055 OVC070 12/07 A2953 1440 68 1500 280/14G19 RMK AO2 RAE01 P0000
94908KDBQ DBQ20000326183012203/26/00 18:30:31  5-MIN KDBQ 270030Z 29016G19KT 10SM SCT055 OVC070 12/06 A2953 1440 63 1500 290/16G19 RMK AO2 RAE01 P0000
94908KDBQ DBQ20000326183511603/26/00 18:35:31  5-MIN KDBQ 270035Z 30018KT 10SM FEW060 OVC075 12/04 A2954 1440 59 1500 300/18 RMK AO2 RAE01 P0000
94908KDBQ DBQ20000326184014703/26/00 18:40:31  5-MIN KDBQ 270040Z 29022G26KT 10SM FEW060 BKN075 OVC090 12/03 A2954 1430 54 1500 290/22G26 RMK AO2 PK WND 29027/0039 RAE01 P0000
94908KDBQ DBQ20000326184514003/26/00 18:45:31  5-MIN KDBQ 270045Z 29018G26KT 10SM SCT075 BKN090 12/03 A2954 1430 56 1400 290/18G26 RMK AO2 PK WND 29027/0039 RAE01 P0000
94908KDBQ DBQ20000326185015703/26/00 18:50:31  5-MIN KDBQ 270050Z 29016G24KT 10SM SCT075 BKN090 11/03 A2955 1430 56 1300 290/16G24 RMK AO2 PK WND 29027/0039 RAE01 SLP010 P0000 T01110028
94908KDBQ DBQ20000326185515003/26/00 18:55:31  5-MIN KDBQ 270055Z 29013G24KT 10SM SCT085 11/03 A2955 1420 58 1300 290/13G24 RMK AO2 PK WND 29027/0039 RAE01 SLP011 P0000 T01060028
94908KDBQ DBQ20000326190010303/26/00 19:00:31  5-MIN KDBQ 270100Z 29017G21KT 10SM SCT085 11/03 A2955 1420 58 1300 290/17G21 RMK AO2
94908KDBQ DBQ20000326190510303/26/00 19:05:31  5-MIN KDBQ 270105Z 29018G22KT 10SM FEW090 10/02 A2955 1420 58 1200 290/18G22 RMK AO2
94908KDBQ DBQ20000326191010003/26/00 19:10:31  5-MIN KDBQ 270110Z 29017G22KT 10SM CLR 10/02 A2956 1420 58 1200 290/17G22 RMK AO2
94908KDBQ DBQ20000326191509403/26/00 19:15:31  5-MIN KDBQ 270115Z 29016KT 10SM CLR 09/02 A2956 1410 60 1100 290/16 RMK AO2
94908KDBQ DBQ20000326192010003/26/00 19:20:31  5-MIN KDBQ 270120Z 29019G22KT 10SM CLR 09/02 A2957 1410 60 1100 290/19G22 RMK AO2
94908KDBQ DBQ20000326192512103/26/00 19:25:31  5-MIN KDBQ 270125Z 29025G31KT 10SM FEW120 09/02 A2957 1410 58 1100 290/25G31 RMK AO2 PK WND 29031/0125
94908KDBQ DBQ20000326193012103/26/00 19:30:31  5-MIN KDBQ 270130Z 30024G32KT 10SM SCT120 09/02 A2957 1400 58 1100 300/24G32 RMK AO2 PK WND 29032/0126
94908KDBQ DBQ20000326193512103/26/00 19:35:31  5-MIN KDBQ 270135Z 29026G32KT 10SM SCT120 09/02 A2958 1400 58 1100 290/26G32 RMK AO2 PK WND 29032/0126
94908KDBQ DBQ20000326194013103/26/00 19:40:31  5-MIN KDBQ 270140Z AUTO 30018G29KT 10SM BKN120 09/02 A2958 1400 60 1100 300/18G29 RMK AO2 PK WND 29032/0126 TSNO
94908KDBQ DBQ20000326194513103/26/00 19:45:31  5-MIN KDBQ 270145Z AUTO 29021G24KT 10SM BKN120 09/02 A2958 1390 63 1000 290/21G24 RMK AO2 PK WND 29032/0126 TSNO
94908KDBQ DBQ20000326195014803/26/00 19:50:31  5-MIN KDBQ 270150Z AUTO 30019G27KT 10SM BKN120 09/02 A2959 1390 63 1000 300/19G27 RMK AO2 PK WND 29032/0126 SLP023 T00890022 TSNO
94908KDBQ DBQ20000326195514803/26/00 19:55:31  5-MIN KDBQ 270155Z AUTO 30020G27KT 10SM SCT120 08/02 A2959 1390 63 1000 300/20G27 RMK AO2 PK WND 29032/0126 SLP025 T00830017 TSNO
94908KDBQ DBQ20000326200013103/26/00 20:00:31  5-MIN KDBQ 270200Z AUTO 30016G26KT 10SM FEW120 08/02 A2959 1380 63 1000 300/16G26 RMK AO2 PK WND 31026/0157 TSNO
94908KDBQ DBQ20000326200513103/26/00 20:05:31  5-MIN KDBQ 270205Z AUTO 30023G28KT 10SM FEW120 08/01 A2959 1380 60 1000 300/23G28 RMK AO2 PK WND 30028/0204 TSNO
94908KDBQ DBQ20000326201013003/26/00 20:10:31  5-MIN KDBQ 270210Z AUTO 30023G29KT 10SM FEW120 08/01 A2959 1380 62 900 300/23G29 RMK AO2 PK WND 30029/0207 TSNO
94908KDBQ DBQ20000326201512703/26/00 20:15:31  5-MIN KDBQ 270215Z AUTO 31022G29KT 10SM CLR 08/01 A2960 1380 62 900 310/22G29 RMK AO2 PK WND 30029/0207 TSNO
94908KDBQ DBQ20000326202012703/26/00 20:20:31  5-MIN KDBQ 270220Z AUTO 30020G29KT 10SM CLR 08/01 A2960 1380 62 900 300/20G29 RMK AO2 PK WND 31029/0217 TSNO
94908KDBQ DBQ20000326202512703/26/00 20:25:31  5-MIN KDBQ 270225Z AUTO 31022G29KT 10SM CLR 07/01 A2960 1380 62 800 300/22G29 RMK AO2 PK WND 31029/0217 TSNO
94908KDBQ DBQ20000326203012703/26/00 20:30:31  5-MIN KDBQ 270230Z AUTO 31024G27KT 10SM CLR 07/01 A2960 1380 62 800 300/24G27 RMK AO2 PK WND 31029/0217 TSNO
94908KDBQ DBQ20000326203512703/26/00 20:35:31  5-MIN KDBQ 270235Z AUTO 31023G27KT 10SM CLR 07/01 A2960 1380 62 800 310/23G27 RMK AO2 PK WND 31029/0217 TSNO
94908KDBQ DBQ20000326204012703/26/00 20:40:31  5-MIN KDBQ 270240Z AUTO 31020G28KT 10SM CLR 07/00 A2960 1370 60 800 310/20G28 RMK AO2 PK WND 31029/0217 TSNO
94908KDBQ DBQ20000326204512703/26/00 20:45:31  5-MIN KDBQ 270245Z AUTO 32021G28KT 10SM CLR 07/00 A2960 1370 60 800 320/21G28 RMK AO2 PK WND 31029/0217 TSNO
94908KDBQ DBQ20000326205015603/26/00 20:50:31  5-MIN KDBQ 270250Z AUTO 31019G28KT 10SM CLR 07/00 A2960 1370 60 800 310/19G28 RMK AO2 PK WND 31029/0217 SLP029 60000 T00720000 56014 TSNO
94908KDBQ DBQ20000326205515603/26/00 20:55:31  5-MIN KDBQ 270255Z AUTO 31018G27KT 10SM CLR 07/00 A2961 1370 60 800 310/18G27 RMK AO2 PK WND 31029/0217 SLP029 60000 T00720000 51030 TSNO
94908KDBQ DBQ20000326210010903/26/00 21:00:31  5-MIN KDBQ 270300Z AUTO 31018G25KT 10SM CLR 07/00 A2961 1370 62 700 310/18G25 RMK AO2 TSNO
94908KDBQ DBQ20000326210510903/26/00 21:05:31  5-MIN KDBQ 270305Z AUTO 31018G23KT 10SM CLR 07/00 A2961 1370 62 700 310/18G23 RMK AO2 TSNO
94908KDBQ DBQ20000326211010903/26/00 21:10:31  5-MIN KDBQ 270310Z AUTO 30016G22KT 10SM CLR 07/00 A2961 1360 62 700 300/16G22 RMK AO2 TSNO
94908KDBQ DBQ20000326211510303/26/00 21:15:31  5-MIN KDBQ 270315Z AUTO 31016KT 10SM CLR 06/00 A2961 1370 65 700 310/16 RMK AO2 TSNO
94908KDBQ DBQ20000326212010303/26/00 21:20:31  5-MIN KDBQ 270320Z AUTO 31015KT 10SM CLR 06/00 A2961 1360 65 700 310/15 RMK AO2 TSNO
94908KDBQ DBQ20000326212510303/26/00 21:25:31  5-MIN KDBQ 270325Z AUTO 31012KT 10SM CLR 06/00 A2961 1360 65 700 310/12 RMK AO2 TSNO
94908KDBQ DBQ20000326213010303/26/00 21:30:31  5-MIN KDBQ 270330Z AUTO 31012KT 10SM CLR 06/00 A2962 1360 67 600 310/12 RMK AO2 TSNO
94908KDBQ DBQ20000326213510303/26/00 21:35:31  5-MIN KDBQ 270335Z AUTO 30013KT 10SM CLR 06/00 A2962 1360 65 700 300/13 RMK AO2 TSNO
94908KDBQ DBQ20000326214010303/26/00 21:40:31  5-MIN KDBQ 270340Z AUTO 30012KT 10SM CLR 06/00 A2962 1360 67 600 300/12 RMK AO2 TSNO
94908KDBQ DBQ20000326214510303/26/00 21:45:31  5-MIN KDBQ 270345Z AUTO 30011KT 10SM CLR 06/00 A2962 1360 67 600 300/11 RMK AO2 TSNO
94908KDBQ DBQ20000326215012003/26/00 21:50:31  5-MIN KDBQ 270350Z AUTO 29012KT 10SM CLR 06/00 A2962 1360 67 600 290/12 RMK AO2 SLP033 T00560000 TSNO
94908KDBQ DBQ20000326215512003/26/00 21:55:31  5-MIN KDBQ 270355Z AUTO 29010KT 10SM CLR 06/00 A2961 1360 67 600 290/10 RMK AO2 SLP032 T00560000 TSNO
94908KDBQ DBQ20000326220010303/26/00 22:00:31  5-MIN KDBQ 270400Z AUTO 29009KT 10SM CLR 05/00 A2961 1370 70 500 290/09 RMK AO2 TSNO
94908KDBQ DBQ20000326220510303/26/00 22:05:31  5-MIN KDBQ 270405Z AUTO 29010KT 10SM CLR 05/00 A2961 1370 70 500 290/10 RMK AO2 TSNO
94908KDBQ DBQ20000326221010303/26/00 22:10:31  5-MIN KDBQ 270410Z AUTO 29010KT 10SM CLR 05/00 A2961 1370 70 500 280/10 RMK AO2 TSNO
94908KDBQ DBQ20000326221510303/26/00 22:15:31  5-MIN KDBQ 270415Z AUTO 28008KT 10SM CLR 04/00 A2961 1370 73 500 280/08 RMK AO2 TSNO
94908KDBQ DBQ20000326222010303/26/00 22:20:31  5-MIN KDBQ 270420Z AUTO 28009KT 10SM CLR 04/00 A2960 1370 73 500 280/09 RMK AO2 TSNO
94908KDBQ DBQ20000326222510303/26/00 22:25:31  5-MIN KDBQ 270425Z AUTO 28009KT 10SM CLR 04/00 A2960 1370 73 500 270/09 RMK AO2 TSNO
94908KDBQ DBQ20000326223010303/26/00 22:30:31  5-MIN KDBQ 270430Z AUTO 27009KT 10SM CLR 04/00 A2960 1380 76 400 270/09 RMK AO2 TSNO
94908KDBQ DBQ20000326223510303/26/00 22:35:31  5-MIN KDBQ 270435Z AUTO 28010KT 10SM CLR 04/00 A2960 1380 76 400 280/10 RMK AO2 TSNO
94908KDBQ DBQ20000326224010303/26/00 22:40:31  5-MIN KDBQ 270440Z AUTO 28009KT 10SM CLR 04/00 A2960 1380 76 400 280/09 RMK AO2 TSNO
94908KDBQ DBQ20000326224510303/26/00 22:45:31  5-MIN KDBQ 270445Z AUTO 28009KT 10SM CLR 04/00 A2959 1380 76 400 280/09 RMK AO2 TSNO
94908KDBQ DBQ20000326225012303/26/00 22:50:31  5-MIN KDBQ 270450Z AUTO 27008KT 10SM FEW047 04/00 A2959 1380 76 400 270/08 RMK AO2 SLP023 T00390000 TSNO
94908KDBQ DBQ20000326225512303/26/00 22:55:31  5-MIN KDBQ 270455Z AUTO 26009KT 10SM FEW045 04/00 A2959 1380 76 400 260/09 RMK AO2 SLP024 T00390000 TSNO
94908KDBQ DBQ20000326230010603/26/00 23:00:31  5-MIN KDBQ 270500Z AUTO 26010KT 10SM FEW045 04/00 A2959 1380 76 400 260/10 RMK AO2 TSNO
94908KDBQ DBQ20000326230510603/26/00 23:05:31  5-MIN KDBQ 270505Z AUTO 25008KT 10SM FEW045 04/01 A2959 1390 79 400 250/08 RMK AO2 TSNO
94908KDBQ DBQ20000326231010603/26/00 23:10:31  5-MIN KDBQ 270510Z AUTO 25008KT 10SM FEW045 03/01 A2959 1390 82 300 250/08 RMK AO2 TSNO
94908KDBQ DBQ20000326231510303/26/00 23:15:31  5-MIN KDBQ 270515Z AUTO 24008KT 10SM CLR 03/00 A2959 1390 79 400 240/08 RMK AO2 TSNO
94908KDBQ DBQ20000326232010303/26/00 23:20:31  5-MIN KDBQ 270520Z AUTO 24007KT 10SM CLR 03/00 A2958 1390 82 300 240/07 RMK AO2 TSNO
94908KDBQ DBQ20000326232510303/26/00 23:25:31  5-MIN KDBQ 270525Z AUTO 26007KT 10SM CLR 03/00 A2958 1400 82 300 250/07 RMK AO2 TSNO
94908KDBQ DBQ20000326233010303/26/00 23:30:31  5-MIN KDBQ 270530Z AUTO 25008KT 10SM CLR 03/00 A2958 1400 82 300 250/08 RMK AO2 TSNO
94908KDBQ DBQ20000326233510303/26/00 23:35:31  5-MIN KDBQ 270535Z AUTO 25008KT 10SM CLR 03/00 A2958 1400 79 400 250/08 RMK AO2 TSNO
94908KDBQ DBQ20000326234010303/26/00 23:40:31  5-MIN KDBQ 270540Z AUTO 25008KT 10SM CLR 03/00 A2958 1400 79 400 250/08 RMK AO2 TSNO
94908KDBQ DBQ20000326234510303/26/00 23:45:31  5-MIN KDBQ 270545Z AUTO 26009KT 10SM CLR 03/00 A2958 1400 79 400 260/09 RMK AO2 TSNO
94908KDBQ DBQ20000326235015403/26/00 23:50:31  5-MIN KDBQ 270550Z AUTO 27009KT 10SM CLR 03/00 A2958 1400 79 400 270/09 RMK AO2 SLP018 60000 T00330000 10122 20028 402061006 51030 TSNO
94908KDBQ DBQ20000326235515403/26/00 23:55:31  5-MIN KDBQ 270555Z AUTO 28010KT 10SM CLR 03/00 A2958 1400 79 400 280/10 RMK AO2 SLP017 60000 T00330000 10122 20028 402061006 58010 TSNO
94908KDBQ DBQ20000327000010303/27/00 00:00:31  5-MIN KDBQ 270600Z AUTO 28013KT 10SM CLR 04/00 A2957 1400 76 400 280/13 RMK AO2 TSNO
94908KDBQ DBQ20000327000510303/27/00 00:05:31  5-MIN KDBQ 270605Z AUTO 28014KT 10SM CLR 04/00 A2957 1400 76 400 280/14 RMK AO2 TSNO
94908KDBQ DBQ20000327001010303/27/00 00:10:31  5-MIN KDBQ 270610Z AUTO 29013KT 10SM CLR 04/00 A2957 1400 76 400 280/13 RMK AO2 TSNO
94908KDBQ DBQ20000327001510303/27/00 00:15:31  5-MIN KDBQ 270615Z AUTO 28012KT 10SM CLR 04/00 A2957 1400 76 400 280/12 RMK AO2 TSNO
94908KDBQ DBQ20000327002010303/27/00 00:20:31  5-MIN KDBQ 270620Z AUTO 28012KT 10SM CLR 04/00 A2957 1400 76 400 280/12 RMK AO2 TSNO
94908KDBQ DBQ20000327002510303/27/00 00:25:31  5-MIN KDBQ 270625Z AUTO 28012KT 10SM CLR 03/00 A2957 1410 79 400 280/12 RMK AO2 TSNO
94908KDBQ DBQ20000327003010303/27/00 00:30:31  5-MIN KDBQ 270630Z AUTO 28013KT 10SM CLR 04/00 A2957 1410 76 400 280/13 RMK AO2 TSNO
94908KDBQ DBQ20000327003510303/27/00 00:35:31  5-MIN KDBQ 270635Z AUTO 28013KT 10SM CLR 04/00 A2956 1410 76 400 280/13 RMK AO2 TSNO
94908KDBQ DBQ20000327004010303/27/00 00:40:31  5-MIN KDBQ 270640Z AUTO 28013KT 10SM CLR 04/00 A2956 1410 76 400 280/13 RMK AO2 TSNO
94908KDBQ DBQ20000327004510303/27/00 00:45:31  5-MIN KDBQ 270645Z AUTO 28012KT 10SM CLR 03/00 A2956 1410 79 400 280/12 RMK AO2 TSNO
94908KDBQ DBQ20000327005012003/27/00 00:50:31  5-MIN KDBQ 270650Z AUTO 28013KT 10SM CLR 03/00 A2956 1410 79 400 280/13 RMK AO2 SLP012 T00330000 TSNO
94908KDBQ DBQ20000327005512003/27/00 00:55:31  5-MIN KDBQ 270655Z AUTO 28014KT 10SM CLR 03/00 A2956 1410 79 400 280/14 RMK AO2 SLP011 T00330000 TSNO
94908KDBQ DBQ20000327010010303/27/00 01:00:31  5-MIN KDBQ 270700Z AUTO 28014KT 10SM CLR 03/00 A2956 1410 79 400 280/14 RMK AO2 TSNO
94908KDBQ DBQ20000327010510303/27/00 01:05:31  5-MIN KDBQ 270705Z AUTO 28014KT 10SM CLR 03/00 A2956 1410 79 400 280/14 RMK AO2 TSNO
94908KDBQ DBQ20000327011010303/27/00 01:10:31  5-MIN KDBQ 270710Z AUTO 28015KT 10SM CLR 03/00 A2956 1420 79 400 280/15 RMK AO2 TSNO
94908KDBQ DBQ20000327011510303/27/00 01:15:31  5-MIN KDBQ 270715Z AUTO 28015KT 10SM CLR 04/00 A2956 1420 76 500 280/15 RMK AO2 TSNO
94908KDBQ DBQ20000327012010303/27/00 01:20:31  5-MIN KDBQ 270720Z AUTO 29014KT 10SM CLR 04/00 A2956 1420 76 500 280/14 RMK AO2 TSNO
94908KDBQ DBQ20000327012510403/27/00 01:25:31  5-MIN KDBQ 270725Z AUTO 28014KT 10SM CLR 03/M01 A2956 1420 76 400 280/14 RMK AO2 TSNO
94908KDBQ DBQ20000327013010403/27/00 01:30:31  5-MIN KDBQ 270730Z AUTO 28013KT 10SM CLR 03/M01 A2956 1420 76 400 280/13 RMK AO2 TSNO
94908KDBQ DBQ20000327013510403/27/00 01:35:31  5-MIN KDBQ 270735Z AUTO 28013KT 10SM CLR 03/M01 A2956 1420 76 400 280/13 RMK AO2 TSNO
94908KDBQ DBQ20000327014010403/27/00 01:40:31  5-MIN KDBQ 270740Z AUTO 28013KT 10SM CLR 03/M01 A2956 1420 76 400 280/13 RMK AO2 TSNO
94908KDBQ DBQ20000327014510403/27/00 01:45:31  5-MIN KDBQ 270745Z AUTO 28012KT 10SM CLR 03/M01 A2956 1420 79 300 280/12 RMK AO2 TSNO
94908KDBQ DBQ20000327015012103/27/00 01:50:31  5-MIN KDBQ 270750Z AUTO 28011KT 10SM CLR 03/M01 A2956 1420 76 400 280/11 RMK AO2 SLP009 T00331006 TSNO
94908KDBQ DBQ20000327015512103/27/00 01:55:31  5-MIN KDBQ 270755Z AUTO 27010KT 10SM CLR 03/M01 A2955 1420 79 300 270/10 RMK AO2 SLP009 T00281006 TSNO
94908KDBQ DBQ20000327020010403/27/00 02:00:31  5-MIN KDBQ 270800Z AUTO 28011KT 10SM CLR 03/M01 A2955 1420 79 300 280/11 RMK AO2 TSNO
94908KDBQ DBQ20000327020510403/27/00 02:05:31  5-MIN KDBQ 270805Z AUTO 27011KT 10SM CLR 03/M01 A2955 1420 79 300 270/11 RMK AO2 TSNO
94908KDBQ DBQ20000327021010403/27/00 02:10:31  5-MIN KDBQ 270810Z AUTO 27011KT 10SM CLR 03/M01 A2955 1420 79 300 270/11 RMK AO2 TSNO
94908KDBQ DBQ20000327021510403/27/00 02:15:31  5-MIN KDBQ 270815Z AUTO 27010KT 10SM CLR 02/M01 A2955 1420 82 300 270/10 RMK AO2 TSNO
94908KDBQ DBQ20000327022010403/27/00 02:20:31  5-MIN KDBQ 270820Z AUTO 27010KT 10SM CLR 02/M01 A2955 1420 82 300 270/10 RMK AO2 TSNO
94908KDBQ DBQ20000327022510403/27/00 02:25:31  5-MIN KDBQ 270825Z AUTO 27008KT 10SM CLR 02/M01 A2955 1420 82 300 270/08 RMK AO2 TSNO
94908KDBQ DBQ20000327023010403/27/00 02:30:31  5-MIN KDBQ 270830Z AUTO 25007KT 10SM CLR 02/M01 A2955 1420 78 300 250/07 RMK AO2 TSNO
94908KDBQ DBQ20000327023510403/27/00 02:35:31  5-MIN KDBQ 270835Z AUTO 26009KT 10SM CLR 02/M01 A2955 1420 82 200 260/09 RMK AO2 TSNO
94908KDBQ DBQ20000327024010403/27/00 02:40:31  5-MIN KDBQ 270840Z AUTO 26009KT 10SM CLR 02/M01 A2955 1430 85 200 260/09 RMK AO2 TSNO
94908KDBQ DBQ20000327024510403/27/00 02:45:31  5-MIN KDBQ 270845Z AUTO 26008KT 10SM CLR 02/M01 A2954 1430 85 200 260/08 RMK AO2 TSNO
94908KDBQ DBQ20000327025012703/27/00 02:50:31  5-MIN KDBQ 270850Z AUTO 26009KT 10SM CLR 02/M01 A2954 1430 85 200 260/09 RMK AO2 SLP006 T00171006 58010 TSNO
94908KDBQ DBQ20000327025512703/27/00 02:55:31  5-MIN KDBQ 270855Z AUTO 26010KT 10SM CLR 02/M01 A2954 1430 85 200 260/10 RMK AO2 SLP007 T00171006 56010 TSNO
94908KDBQ DBQ20000327030010403/27/00 03:00:31  5-MIN KDBQ 270900Z AUTO 26009KT 10SM CLR 02/M01 A2954 1430 85 200 260/09 RMK AO2 TSNO
94908KDBQ DBQ20000327030510403/27/00 03:05:31  5-MIN KDBQ 270905Z AUTO 27008KT 10SM CLR 02/M01 A2955 1430 85 200 270/08 RMK AO2 TSNO
94908KDBQ DBQ20000327031010403/27/00 03:10:31  5-MIN KDBQ 270910Z AUTO 27009KT 10SM CLR 02/M01 A2954 1430 85 200 270/09 RMK AO2 TSNO
94908KDBQ DBQ20000327031510403/27/00 03:15:31  5-MIN KDBQ 270915Z AUTO 27009KT 10SM CLR 02/M01 A2954 1430 85 200 260/09 RMK AO2 TSNO
94908KDBQ DBQ20000327032010403/27/00 03:20:31  5-MIN KDBQ 270920Z AUTO 27010KT 10SM CLR 02/M01 A2954 1430 85 200 270/10 RMK AO2 TSNO
94908KDBQ DBQ20000327032510403/27/00 03:25:31  5-MIN KDBQ 270925Z AUTO 27009KT 10SM CLR 02/M01 A2954 1430 85 200 270/09 RMK AO2 TSNO
94908KDBQ DBQ20000327033010403/27/00 03:30:31  5-MIN KDBQ 270930Z AUTO 27009KT 10SM CLR 02/M01 A2954 1430 85 200 270/09 RMK AO2 TSNO
94908KDBQ DBQ20000327033510403/27/00 03:35:31  5-MIN KDBQ 270935Z AUTO 27009KT 10SM CLR 02/M01 A2954 1430 85 200 270/09 RMK AO2 TSNO
94908KDBQ DBQ20000327034010403/27/00 03:40:31  5-MIN KDBQ 270940Z AUTO 26009KT 10SM CLR 02/M01 A2954 1430 85 200 260/09 RMK AO2 TSNO
94908KDBQ DBQ20000327034510403/27/00 03:45:31  5-MIN KDBQ 270945Z AUTO 27010KT 10SM CLR 02/M01 A2954 1430 85 200 270/10 RMK AO2 TSNO
94908KDBQ DBQ20000327035012103/27/00 03:50:31  5-MIN KDBQ 270950Z AUTO 26010KT 10SM CLR 02/M01 A2954 1430 82 200 260/10 RMK AO2 SLP007 T00171011 TSNO
94908KDBQ DBQ20000327035512103/27/00 03:55:31  5-MIN KDBQ 270955Z AUTO 26010KT 10SM CLR 02/M01 A2954 1430 82 200 260/10 RMK AO2 SLP007 T00171011 TSNO
94908KDBQ DBQ20000327040010403/27/00 04:00:31  5-MIN KDBQ 271000Z AUTO 26010KT 10SM CLR 02/M01 A2954 1430 82 200 260/10 RMK AO2 TSNO
94908KDBQ DBQ20000327040510403/27/00 04:05:31  5-MIN KDBQ 271005Z AUTO 26010KT 10SM CLR 02/M01 A2954 1430 82 200 260/10 RMK AO2 TSNO
94908KDBQ DBQ20000327041010403/27/00 04:10:31  5-MIN KDBQ 271010Z AUTO 26011KT 10SM CLR 02/M01 A2954 1430 82 200 260/11 RMK AO2 TSNO
94908KDBQ DBQ20000327041510403/27/00 04:15:31  5-MIN KDBQ 271015Z AUTO 26011KT 10SM CLR 01/M01 A2954 1430 85 100 260/11 RMK AO2 TSNO
94908KDBQ DBQ20000327042010403/27/00 04:20:31  5-MIN KDBQ 271020Z AUTO 26011KT 10SM CLR 01/M01 A2954 1430 85 100 260/11 RMK AO2 TSNO
94908KDBQ DBQ20000327042510403/27/00 04:25:31  5-MIN KDBQ 271025Z AUTO 26012KT 10SM CLR 01/M01 A2954 1430 85 100 260/12 RMK AO2 TSNO
94908KDBQ DBQ20000327043010403/27/00 04:30:31  5-MIN KDBQ 271030Z AUTO 26011KT 10SM CLR 01/M01 A2954 1430 85 100 260/11 RMK AO2 TSNO
94908KDBQ DBQ20000327043510403/27/00 04:35:31  5-MIN KDBQ 271035Z AUTO 26010KT 10SM CLR 01/M01 A2954 1430 85 100 260/10 RMK AO2 TSNO
94908KDBQ DBQ20000327044010403/27/00 04:40:31  5-MIN KDBQ 271040Z AUTO 26011KT 10SM CLR 01/M01 A2954 1440 85 100 260/11 RMK AO2 TSNO
94908KDBQ DBQ20000327044510403/27/00 04:45:31  5-MIN KDBQ 271045Z AUTO 26012KT 10SM CLR 01/M01 A2954 1440 85 100 260/12 RMK AO2 TSNO
94908KDBQ DBQ20000327045012103/27/00 04:50:31  5-MIN KDBQ 271050Z AUTO 26011KT 10SM CLR 01/M01 A2954 1430 85 100 260/11 RMK AO2 SLP005 T00111011 TSNO
94908KDBQ DBQ20000327045512103/27/00 04:55:31  5-MIN KDBQ 271055Z AUTO 26010KT 10SM CLR 02/M01 A2954 1430 82 200 260/10 RMK AO2 SLP006 T00171011 TSNO
94908KDBQ DBQ20000327050010403/27/00 05:00:31  5-MIN KDBQ 271100Z AUTO 26010KT 10SM CLR 01/M01 A2954 1430 85 100 260/10 RMK AO2 TSNO
94908KDBQ DBQ20000327050510403/27/00 05:05:31  5-MIN KDBQ 271105Z AUTO 26012KT 10SM CLR 01/M01 A2954 1430 85 100 250/12 RMK AO2 TSNO
94908KDBQ DBQ20000327051010403/27/00 05:10:31  5-MIN KDBQ 271110Z AUTO 26013KT 10SM CLR 01/M01 A2954 1430 85 100 260/13 RMK AO2 TSNO
94908KDBQ DBQ20000327051510403/27/00 05:15:31  5-MIN KDBQ 271115Z AUTO 26011KT 10SM CLR 02/M01 A2954 1430 82 200 250/11 RMK AO2 TSNO
94908KDBQ DBQ20000327052010403/27/00 05:20:31  5-MIN KDBQ 271120Z AUTO 26012KT 10SM CLR 01/M01 A2954 1430 85 100 250/12 RMK AO2 TSNO
94908KDBQ DBQ20000327052510403/27/00 05:25:31  5-MIN KDBQ 271125Z AUTO 26012KT 10SM CLR 01/M01 A2954 1430 85 100 260/12 RMK AO2 TSNO
94908KDBQ DBQ20000327053010403/27/00 05:30:31  5-MIN KDBQ 271130Z AUTO 26011KT 10SM CLR 01/M01 A2954 1430 85 100 260/11 RMK AO2 TSNO
94908KDBQ DBQ20000327053510403/27/00 05:35:31  5-MIN KDBQ 271135Z AUTO 26011KT 10SM CLR 01/M01 A2954 1430 85 100 260/11 RMK AO2 TSNO
94908KDBQ DBQ20000327054010403/27/00 05:40:31  5-MIN KDBQ 271140Z AUTO 26011KT 10SM CLR 01/M01 A2954 1430 85 100 260/11 RMK AO2 TSNO
94908KDBQ DBQ20000327054509403/27/00 05:45:31  5-MIN KDBQ 271145Z 26012KT 10SM CLR 01/M01 A2954 1430 85 100 260/12 RMK AO2
94908KDBQ DBQ20000327055013503/27/00 05:50:31  5-MIN KDBQ 271150Z 26010KT 10SM CLR 01/M01 A2954 1430 85 100 260/10 RMK AO2 SLP009 70004 T00111011 10039 20011 56010
94908KDBQ DBQ20000327055513503/27/00 05:55:31  5-MIN KDBQ 271155Z 26011KT 10SM CLR 01/M01 A2954 1430 85 100 260/11 RMK AO2 SLP009 70004 T00111011 10039 20011 55001
94908KDBQ DBQ20000327060009403/27/00 06:00:31  5-MIN KDBQ 271200Z 26012KT 10SM CLR 01/M01 A2954 1430 85 100 260/12 RMK AO2
94908KDBQ DBQ20000327060509403/27/00 06:05:31  5-MIN KDBQ 271205Z 26010KT 10SM CLR 01/M01 A2954 1430 85 100 260/10 RMK AO2
94908KDBQ DBQ20000327061009403/27/00 06:10:31  5-MIN KDBQ 271210Z 26010KT 10SM CLR 01/M01 A2954 1430 85 100 260/10 RMK AO2
94908KDBQ DBQ20000327061509403/27/00 06:15:31  5-MIN KDBQ 271215Z 26011KT 10SM CLR 01/M01 A2954 1430 85 100 260/11 RMK AO2
94908KDBQ DBQ20000327062009403/27/00 06:20:31  5-MIN KDBQ 271220Z 26011KT 10SM CLR 01/M01 A2954 1430 85 100 260/11 RMK AO2
94908KDBQ DBQ20000327062509403/27/00 06:25:31  5-MIN KDBQ 271225Z 26011KT 10SM CLR 01/M01 A2954 1430 85 100 260/11 RMK AO2
94908KDBQ DBQ20000327063009403/27/00 06:30:31  5-MIN KDBQ 271230Z 26011KT 10SM CLR 01/M01 A2954 1430 85 100 260/11 RMK AO2
94908KDBQ DBQ20000327063509403/27/00 06:35:31  5-MIN KDBQ 271235Z 26010KT 10SM CLR 01/M01 A2954 1430 85 100 260/10 RMK AO2
94908KDBQ DBQ20000327064009403/27/00 06:40:31  5-MIN KDBQ 271240Z 26010KT 10SM CLR 02/M01 A2954 1430 82 200 260/10 RMK AO2
94908KDBQ DBQ20000327064509403/27/00 06:45:31  5-MIN KDBQ 271245Z 26011KT 10SM CLR 02/M01 A2954 1430 82 200 260/11 RMK AO2
94908KDBQ DBQ20000327065011103/27/00 06:50:31  5-MIN KDBQ 271250Z 27012KT 10SM CLR 02/M01 A2954 1430 82 200 270/12 RMK AO2 SLP009 T00171011
94908KDBQ DBQ20000327065511103/27/00 06:55:31  5-MIN KDBQ 271255Z 26012KT 10SM CLR 02/M01 A2954 1430 78 300 260/12 RMK AO2 SLP009 T00221011
94908KDBQ DBQ20000327070009403/27/00 07:00:31  5-MIN KDBQ 271300Z 26013KT 10SM CLR 02/M01 A2954 1430 78 300 260/13 RMK AO2
94908KDBQ DBQ20000327070509403/27/00 07:05:31  5-MIN KDBQ 271305Z 26012KT 10SM CLR 02/M01 A2954 1430 78 300 260/12 RMK AO2
94908KDBQ DBQ20000327071009403/27/00 07:10:31  5-MIN KDBQ 271310Z 27011KT 10SM CLR 03/M01 A2954 1430 75 300 260/11 RMK AO2
94908KDBQ DBQ20000327071509403/27/00 07:15:31  5-MIN KDBQ 271315Z 26012KT 10SM CLR 03/M01 A2954 1430 79 300 260/12 RMK AO2
94908KDBQ DBQ20000327072009403/27/00 07:20:31  5-MIN KDBQ 271320Z 27012KT 10SM CLR 03/M01 A2954 1430 79 300 270/12 RMK AO2
94908KDBQ DBQ20000327072509403/27/00 07:25:31  5-MIN KDBQ 271325Z 26010KT 10SM CLR 03/M01 A2954 1430 79 300 260/10 RMK AO2
94908KDBQ DBQ20000327073009403/27/00 07:30:31  5-MIN KDBQ 271330Z 27013KT 10SM CLR 03/M01 A2953 1440 75 300 270/13 RMK AO2
94908KDBQ DBQ20000327073509403/27/00 07:35:31  5-MIN KDBQ 271335Z 26012KT 10SM CLR 03/M01 A2953 1440 76 400 260/12 RMK AO2
94908KDBQ DBQ20000327074009403/27/00 07:40:31  5-MIN KDBQ 271340Z 26013KT 10SM CLR 03/M01 A2953 1440 76 400 260/13 RMK AO2
94908KDBQ DBQ20000327074509403/27/00 07:45:31  5-MIN KDBQ 271345Z 27013KT 10SM CLR 04/M01 A2953 1440 73 500 260/13 RMK AO2
94908KDBQ DBQ20000327075011103/27/00 07:50:31  5-MIN KDBQ 271350Z 27011KT 10SM CLR 04/M01 A2953 1440 73 500 270/11 RMK AO2 SLP004 T00391006
94908KDBQ DBQ20000327075511103/27/00 07:55:31  5-MIN KDBQ 271355Z 27011KT 10SM CLR 04/M01 A2953 1440 73 500 270/11 RMK AO2 SLP004 T00391006
94908KDBQ DBQ20000327080009303/27/00 08:00:31  5-MIN KDBQ 271400Z 27014KT 10SM CLR 04/00 A2953 1450 73 600 260/14 RMK AO2
94908KDBQ DBQ20000327080509303/27/00 08:05:31  5-MIN KDBQ 271405Z 27013KT 10SM CLR 04/00 A2952 1450 73 600 270/13 RMK AO2
94908KDBQ DBQ20000327081009303/27/00 08:10:31  5-MIN KDBQ 271410Z 27013KT 10SM CLR 04/00 A2952 1450 73 600 270/13 RMK AO2
94908KDBQ DBQ20000327081509303/27/00 08:15:31  5-MIN KDBQ 271415Z 28015KT 10SM CLR 05/00 A2952 1450 70 600 280/15 RMK AO2
94908KDBQ DBQ20000327082009303/27/00 08:20:31  5-MIN KDBQ 271420Z 27015KT 10SM CLR 05/00 A2952 1450 70 600 260/15 RMK AO2
94908KDBQ DBQ20000327082509303/27/00 08:25:31  5-MIN KDBQ 271425Z 27013KT 10SM CLR 06/00 A2952 1450 67 700 270/13 RMK AO2
94908KDBQ DBQ20000327083009303/27/00 08:30:31  5-MIN KDBQ 271430Z 28012KT 10SM CLR 06/00 A2952 1450 67 700 280/12 RMK AO2
94908KDBQ DBQ20000327083509303/27/00 08:35:31  5-MIN KDBQ 271435Z 27013KT 10SM CLR 06/00 A2952 1450 67 700 270/13 RMK AO2
94908KDBQ DBQ20000327084009303/27/00 08:40:31  5-MIN KDBQ 271440Z 27012KT 10SM CLR 06/00 A2952 1450 65 800 270/12 RMK AO2
94908KDBQ DBQ20000327084509303/27/00 08:45:31  5-MIN KDBQ 271445Z 27014KT 10SM CLR 06/00 A2952 1450 65 800 270/14 RMK AO2
94908KDBQ DBQ20000327085011603/27/00 08:50:31  5-MIN KDBQ 271450Z 27012KT 10SM CLR 06/00 A2951 1460 65 800 270/12 RMK AO2 SLP000 T00610000 55001
94908KDBQ DBQ20000327085511603/27/00 08:55:31  5-MIN KDBQ 271455Z 26014KT 10SM CLR 07/00 A2951 1460 62 800 260/14 RMK AO2 SLP999 T00670000 58009
94908KDBQ DBQ20000327090009303/27/00 09:00:31  5-MIN KDBQ 271500Z 27013KT 10SM CLR 07/01 A2951 1460 65 800 270/13 RMK AO2
94908KDBQ DBQ20000327090509303/27/00 09:05:31  5-MIN KDBQ 271505Z 26014KT 10SM CLR 07/01 A2951 1460 65 800 260/14 RMK AO2
94908KDBQ DBQ20000327091009303/27/00 09:10:31  5-MIN KDBQ 271510Z 27016KT 10SM CLR 07/01 A2951 1460 62 900 270/16 RMK AO2
94908KDBQ DBQ20000327091509303/27/00 09:15:31  5-MIN KDBQ 271515Z 27012KT 10SM CLR 07/01 A2951 1460 62 900 260/12 RMK AO2
94908KDBQ DBQ20000327092009403/27/00 09:20:31  5-MIN KDBQ 271520Z 28015KT 10SM CLR 08/01 A2950 1470 60 1000 280/15 RMK AO2
94908KDBQ DBQ20000327092509403/27/00 09:25:31  5-MIN KDBQ 271525Z 26014KT 10SM CLR 08/01 A2950 1470 60 1000 260/14 RMK AO2
94908KDBQ DBQ20000327093009403/27/00 09:30:31  5-MIN KDBQ 271530Z 27015KT 10SM CLR 08/01 A2950 1470 60 1000 260/15 RMK AO2
94908KDBQ DBQ20000327093509403/27/00 09:35:31  5-MIN KDBQ 271535Z 27014KT 10SM CLR 08/01 A2950 1470 58 1100 260/14 RMK AO2
94908KDBQ DBQ20000327094009403/27/00 09:40:31  5-MIN KDBQ 271540Z 27016KT 10SM CLR 08/01 A2950 1470 58 1100 270/16 RMK AO2
94908KDBQ DBQ20000327094509403/27/00 09:45:31  5-MIN KDBQ 271545Z 28015KT 10SM CLR 08/00 A2950 1470 55 1100 280/15 RMK AO2
94908KDBQ DBQ20000327095011103/27/00 09:50:31  5-MIN KDBQ 271550Z 27015KT 10SM CLR 09/01 A2950 1470 56 1100 270/15 RMK AO2 SLP992 T00890006
94908KDBQ DBQ20000327095511803/27/00 09:55:31  5-MIN KDBQ 271555Z 27017G21KT 10SM CLR 09/M01 A2949 1480 51 1100 260/17G21 RMK AO2 SLP992 T00891006
94908KDBQ DBQ20000327100010103/27/00 10:00:31  5-MIN KDBQ 271600Z 27019G24KT 10SM CLR 09/M01 A2949 1480 47 1200 270/19G24 RMK AO2
94908KDBQ DBQ20000327100510103/27/00 10:05:31  5-MIN KDBQ 271605Z 26018G25KT 10SM CLR 09/M01 A2949 1480 47 1200 260/18G25 RMK AO2
94908KDBQ DBQ20000327101010103/27/00 10:10:31  5-MIN KDBQ 271610Z 28018G25KT 10SM CLR 10/M01 A2949 1480 46 1300 280/18G25 RMK AO2
94908KDBQ DBQ20000327101510103/27/00 10:15:31  5-MIN KDBQ 271615Z 28018G23KT 10SM CLR 10/M01 A2948 1480 47 1300 280/18G23 RMK AO2
94908KDBQ DBQ20000327102009503/27/00 10:20:31  5-MIN KDBQ 271620Z 27018KT 10SM CLR 10/M01 A2948 1490 46 1300 270/18 RMK AO2
94908KDBQ DBQ20000327102509503/27/00 10:25:31  5-MIN KDBQ 271625Z 27017KT 10SM CLR 10/M01 A2948 1490 46 1300 270/17 RMK AO2
94908KDBQ DBQ20000327103010103/27/00 10:30:31  5-MIN KDBQ 271630Z 28018G23KT 10SM CLR 11/M01 A2948 1490 44 1400 280/18G23 RMK AO2
94908KDBQ DBQ20000327103511903/27/00 10:35:31  5-MIN KDBQ 271635Z 28018G27KT 10SM CLR 11/M03 A2948 1490 39 1400 280/18G27 RMK AO2 PK WND 29027/1633
94908KDBQ DBQ20000327104011903/27/00 10:40:31  5-MIN KDBQ 271640Z 27021G27KT 10SM CLR 11/M03 A2947 1490 39 1400 270/21G27 RMK AO2 PK WND 28027/1637
94908KDBQ DBQ20000327104511903/27/00 10:45:31  5-MIN KDBQ 271645Z 27018G27KT 10SM CLR 11/M03 A2947 1500 39 1400 270/18G27 RMK AO2 PK WND 26027/1642
94908KDBQ DBQ20000327105013603/27/00 10:50:31  5-MIN KDBQ 271650Z 28019G27KT 10SM CLR 11/M02 A2947 1500 39 1400 280/19G27 RMK AO2 PK WND 26027/1642 SLP983 T01111022
94908KDBQ DBQ20000327105513603/27/00 10:55:31  5-MIN KDBQ 271655Z 28021G27KT 10SM CLR 11/M03 A2946 1500 37 1400 270/21G27 RMK AO2 PK WND 28027/1652 SLP982 T01061033
94908KDBQ DBQ20000327110010103/27/00 11:00:31  5-MIN KDBQ 271700Z 27020G27KT 10SM CLR 11/M03 A2946 1500 37 1400 270/20G27 RMK AO2
94908KDBQ DBQ20000327110511903/27/00 11:05:31  5-MIN KDBQ 271705Z 28019G27KT 10SM CLR 11/M03 A2946 1500 36 1400 280/19G27 RMK AO2 PK WND 28027/1701
94908KDBQ DBQ20000327111011903/27/00 11:10:31  5-MIN KDBQ 271710Z 27020G27KT 10SM CLR 12/M04 A2946 1510 33 1500 270/20G27 RMK AO2 PK WND 28027/1701
94908KDBQ DBQ20000327111511903/27/00 11:15:31  5-MIN KDBQ 271715Z 25021G27KT 10SM CLR 12/M04 A2945 1520 33 1500 250/21G27 RMK AO2 PK WND 26027/1715
94908KDBQ DBQ20000327112012203/27/00 11:20:31  5-MIN KDBQ 271720Z 26017G27KT 10SM FEW070 12/M03 A2944 1520 35 1500 260/17G27 RMK AO2 PK WND 26027/1715
94908KDBQ DBQ20000327112512203/27/00 11:25:31  5-MIN KDBQ 271725Z 28021G26KT 10SM BKN070 11/M04 A2944 1520 33 1500 280/21G26 RMK AO2 PK WND 26027/1715
94908KDBQ DBQ20000327113012203/27/00 11:30:31  5-MIN KDBQ 271730Z 26020G26KT 10SM BKN070 11/M05 A2944 1520 33 1400 260/20G26 RMK AO2 PK WND 26027/1715
94908KDBQ DBQ20000327113512903/27/00 11:35:31  5-MIN KDBQ 271735Z 27024G27KT 10SM FEW070 SCT085 12/M05 A2944 1530 30 1500 270/24G27 RMK AO2 PK WND 26027/1735
94908KDBQ DBQ20000327114012903/27/00 11:40:31  5-MIN KDBQ 271740Z 27024G31KT 10SM SCT070 BKN085 11/M06 A2944 1530 30 1500 270/24G31 RMK AO2 PK WND 27031/1739
94908KDBQ DBQ20000327114512203/27/00 11:45:31  5-MIN KDBQ 271745Z 27023G31KT 10SM BKN080 11/M06 A2944 1530 30 1500 270/23G31 RMK AO2 PK WND 27031/1739
94908KDBQ DBQ20000327115016403/27/00 11:50:31  5-MIN KDBQ 271750Z 26024G29KT 10SM BKN075 BKN090 11/M06 A2944 1530 30 1500 260/24G29 RMK AO2 PK WND 27031/1739 SLP973 T01111056 10117 20011 58009
94908KDBQ DBQ20000327115515703/27/00 11:55:31  5-MIN KDBQ 271755Z 28021G29KT 10SM BKN080 12/M06 A2944 1530 29 1500 280/21G29 RMK AO2 PK WND 27031/1739 SLP972 T01171056 10117 20011 58026
94908KDBQ DBQ20000327120011103/27/00 12:00:31  5-MIN KDBQ 271800Z 28021G29KT 10SM BKN075 BKN090 12/M05 A2944 1530 29 1600 270/21G29 RMK AO2
94908KDBQ DBQ20000327120512203/27/00 12:05:31  5-MIN KDBQ 271805Z 28020G28KT 10SM BKN080 11/M06 A2943 1530 29 1500 280/20G28 RMK AO2 PK WND 29028/1802
94908KDBQ DBQ20000327121012903/27/00 12:10:31  5-MIN KDBQ 271810Z 27020G28KT 10SM BKN080 BKN100 12/M05 A2943 1540 30 1500 270/20G28 RMK AO2 PK WND 29028/1802
94908KDBQ DBQ20000327121512903/27/00 12:15:31  5-MIN KDBQ 271815Z 27021G26KT 10SM SCT075 BKN090 12/M06 A2943 1530 28 1600 270/21G26 RMK AO2 PK WND 29028/1802
94908KDBQ DBQ20000327122012903/27/00 12:20:31  5-MIN KDBQ 271820Z 27019G28KT 10SM BKN080 BKN100 11/M06 A2943 1540 29 1500 260/19G28 RMK AO2 PK WND 25028/1816
94908KDBQ DBQ20000327122512203/27/00 12:25:31  5-MIN KDBQ 271825Z 28023G29KT 10SM BKN080 11/M06 A2943 1540 30 1400 280/23G29 RMK AO2 PK WND 29029/1823
94908KDBQ DBQ20000327123012203/27/00 12:30:31  5-MIN KDBQ 271830Z 27021G29KT 10SM BKN080 12/M05 A2942 1540 30 1600 270/21G29 RMK AO2 PK WND 29029/1823
94908KDBQ DBQ20000327123512903/27/00 12:35:31  5-MIN KDBQ 271835Z 26024G28KT 10SM SCT075 BKN095 12/M06 A2942 1550 29 1600 260/24G28 RMK AO2 PK WND 29029/1823
94908KDBQ DBQ20000327124012903/27/00 12:40:31  5-MIN KDBQ 271840Z 28021G28KT 10SM SCT080 BKN100 11/M06 A2942 1550 30 1500 280/21G28 RMK AO2 PK WND 29029/1823
94908KDBQ DBQ20000327124512203/27/00 12:45:31  5-MIN KDBQ 271845Z 29026G36KT 10SM SCT070 11/M05 A2942 1540 32 1500 280/26G36 RMK AO2 PK WND 29036/1845
94908KDBQ DBQ20000327125013903/27/00 12:50:31  5-MIN KDBQ 271850Z 28021G36KT 10SM SCT075 11/M04 A2941 1550 33 1500 280/21G36 RMK AO2 PK WND 29036/1845 SLP965 T01111044
94908KDBQ DBQ20000327125513903/27/00 12:55:31  5-MIN KDBQ 271855Z 28019G25KT 10SM SCT075 11/M06 A2941 1550 30 1500 280/19G25 RMK AO2 PK WND 29036/1845 SLP964 T01111056
94908KDBQ DBQ20000327130012203/27/00 13:00:31  5-MIN KDBQ 271900Z 28020G28KT 10SM SCT070 12/M04 A2941 1560 32 1600 280/20G28 RMK AO2 PK WND 29028/1858
94908KDBQ DBQ20000327130512203/27/00 13:05:31  5-MIN KDBQ 271905Z 26022G28KT 10SM SCT070 11/M05 A2941 1560 32 1500 260/22G28 RMK AO2 PK WND 29028/1858
94908KDBQ DBQ20000327131012203/27/00 13:10:31  5-MIN KDBQ 271910Z 25020G26KT 10SM BKN070 12/M04 A2940 1560 33 1600 250/20G26 RMK AO2 PK WND 29028/1858
94908KDBQ DBQ20000327131512203/27/00 13:15:31  5-MIN KDBQ 271915Z 26020G28KT 10SM BKN070 11/M04 A2940 1560 34 1500 260/20G28 RMK AO2 PK WND 26028/1913
94908KDBQ DBQ20000327132012203/27/00 13:20:31  5-MIN KDBQ 271920Z 27019G28KT 10SM SCT070 12/M03 A2940 1560 35 1600 270/19G28 RMK AO2 PK WND 26028/1913
94908KDBQ DBQ20000327132512903/27/00 13:25:31  5-MIN KDBQ 271925Z 28021G26KT 10SM FEW055 SCT070 11/M04 A2940 1570 34 1400 270/21G26 RMK AO2 PK WND 26028/1913
94908KDBQ DBQ20000327133012903/27/00 13:30:31  5-MIN KDBQ 271930Z 26024G28KT 10SM SCT065 BKN095 11/M04 A2939 1570 36 1500 260/24G28 RMK AO2 PK WND 25028/1930
94908KDBQ DBQ20000327133512903/27/00 13:35:31  5-MIN KDBQ 271935Z 26022G28KT 10SM SCT070 SCT090 12/M04 A2939 1580 33 1600 260/22G28 RMK AO2 PK WND 25028/1931
94908KDBQ DBQ20000327134013603/27/00 13:40:31  5-MIN KDBQ 271940Z 25021G27KT 10SM FEW070 SCT090 12/M04 A2938 1580 32 1700 250/21G27 RMK AO2 PK WND 25028/1931 PRESFR
94908KDBQ DBQ20000327134512203/27/00 13:45:31  5-MIN KDBQ 271945Z 25021G27KT 10SM FEW070 11/M04 A2938 1580 34 1500 250/21G27 RMK AO2 PK WND 25028/1931
94908KDBQ DBQ20000327135013903/27/00 13:50:31  5-MIN KDBQ 271950Z 26020G27KT 10SM FEW070 11/M04 A2938 1580 34 1500 260/20G27 RMK AO2 PK WND 25028/1931 SLP954 T01111039
94908KDBQ DBQ20000327135514603/27/00 13:55:31  5-MIN KDBQ 271955Z 26021G26KT 10SM SCT070 SCT085 12/M03 A2938 1580 33 1700 260/21G26 RMK AO2 PK WND 25028/1931 SLP954 T01221033
94908KDBQ DBQ20000327140012203/27/00 14:00:31  5-MIN KDBQ 272000Z 26024G33KT 10SM SCT070 13/M04 A2938 1580 31 1700 260/24G33 RMK AO2 PK WND 26033/1958
94908KDBQ DBQ20000327140512203/27/00 14:05:31  5-MIN KDBQ 272005Z 27019G33KT 10SM FEW070 12/M03 A2937 1590 33 1700 270/19G33 RMK AO2 PK WND 26033/1958
94908KDBQ DBQ20000327141012203/27/00 14:10:31  5-MIN KDBQ 272010Z 27024G30KT 10SM FEW070 13/M04 A2937 1590 31 1700 270/24G30 RMK AO2 PK WND 26033/1958
94908KDBQ DBQ20000327141512903/27/00 14:15:31  5-MIN KDBQ 272015Z 25024G30KT 10SM FEW070 SCT090 12/M04 A2936 1600 32 1700 250/24G30 RMK AO2 PK WND 26033/1958
94908KDBQ DBQ20000327142012903/27/00 14:20:31  5-MIN KDBQ 272020Z 26024G30KT 10SM SCT070 SCT090 12/M05 A2937 1590 30 1600 260/24G30 RMK AO2 PK WND 26033/1958
94908KDBQ DBQ20000327142512903/27/00 14:25:31  5-MIN KDBQ 272025Z 27023G30KT 10SM SCT075 SCT095 12/M05 A2937 1590 30 1600 270/23G30 RMK AO2 PK WND 26033/1958
94908KDBQ DBQ20000327143012903/27/00 14:30:31  5-MIN KDBQ 272030Z 29020G29KT 10SM BKN070 BKN095 11/M05 A2937 1590 32 1500 290/20G29 RMK AO2 PK WND 26033/1958
94908KDBQ DBQ20000327143512903/27/00 14:35:31  5-MIN KDBQ 272035Z 28022G28KT 10SM BKN070 BKN090 11/M04 A2937 1590 34 1500 280/22G28 RMK AO2 PK WND 26033/1958
94908KDBQ DBQ20000327144012903/27/00 14:40:31  5-MIN KDBQ 272040Z 29020G28KT 10SM SCT075 BKN090 11/M04 A2937 1590 34 1500 290/20G28 RMK AO2 PK WND 26033/1958
94908KDBQ DBQ20000327144512203/27/00 14:45:31  5-MIN KDBQ 272045Z 28022G28KT 10SM SCT075 11/M04 A2937 1590 34 1500 280/22G28 RMK AO2 PK WND 26033/1958
94908KDBQ DBQ20000327145015203/27/00 14:50:31  5-MIN KDBQ 272050Z 26023G30KT 10SM FEW048 BKN070 11/M04 A2937 1600 36 1500 260/23G30 RMK AO2 PK WND 26033/1958 SLP949 T01061039 58026
94908KDBQ DBQ20000327145515203/27/00 14:55:31  5-MIN KDBQ 272055Z 27021G30KT 10SM FEW045 SCT070 12/M03 A2936 1600 35 1600 270/21G30 RMK AO2 PK WND 26033/1958 SLP949 T01171033 56023
94908KDBQ DBQ20000327150012203/27/00 15:00:31  5-MIN KDBQ 272100Z 29019G27KT 10SM FEW070 12/M04 A2936 1600 33 1600 290/19G27 RMK AO2 PK WND 29026/2058
94908KDBQ DBQ20000327150512203/27/00 15:05:31  5-MIN KDBQ 272105Z 28023G26KT 10SM FEW075 11/M04 A2936 1600 34 1600 280/23G26 RMK AO2 PK WND 28026/2104
94908KDBQ DBQ20000327151012203/27/00 15:10:31  5-MIN KDBQ 272110Z 27022G26KT 10SM FEW070 11/M04 A2936 1600 33 1600 270/22G26 RMK AO2 PK WND 26026/2110
94908KDBQ DBQ20000327151512203/27/00 15:15:31  5-MIN KDBQ 272115Z 26022G30KT 10SM FEW075 12/M04 A2936 1600 32 1600 260/22G30 RMK AO2 PK WND 26030/2113
94908KDBQ DBQ20000327152012203/27/00 15:20:31  5-MIN KDBQ 272120Z 28024G33KT 10SM FEW075 12/M04 A2936 1600 32 1600 280/24G33 RMK AO2 PK WND 28033/2120
94908KDBQ DBQ20000327152512203/27/00 15:25:31  5-MIN KDBQ 272125Z 28021G33KT 10SM SCT070 12/M04 A2936 1610 32 1600 280/21G33 RMK AO2 PK WND 28033/2120
94908KDBQ DBQ20000327153012203/27/00 15:30:31  5-MIN KDBQ 272130Z 26022G29KT 10SM SCT070 11/M04 A2936 1600 33 1600 260/22G29 RMK AO2 PK WND 28033/2120
94908KDBQ DBQ20000327153513603/27/00 15:35:31  5-MIN KDBQ 272135Z 26018G27KT 10SM FEW050 SCT070 BKN090 10/M03 A2936 1600 39 1400 260/18G27 RMK AO2 PK WND 28033/2120
94908KDBQ DBQ20000327154012203/27/00 15:40:31  5-MIN KDBQ 272140Z 27014G27KT 10SM BKN065 11/M03 A2936 1600 39 1500 270/14G27 RMK AO2 PK WND 28033/2120
94908KDBQ DBQ20000327154512903/27/00 15:45:31  5-MIN KDBQ 272145Z 27021G25KT 10SM FEW055 BKN070 11/M03 A2936 1600 36 1600 270/21G25 RMK AO2 PK WND 28033/2120
94908KDBQ DBQ20000327155013903/27/00 15:50:31  5-MIN KDBQ 272150Z 27016G25KT 10SM BKN065 10/M04 A2936 1600 36 1400 270/16G25 RMK AO2 PK WND 28033/2120 SLP947 T01001044
94908KDBQ DBQ20000327155513903/27/00 15:55:31  5-MIN KDBQ 272155Z 27019G23KT 10SM SCT065 10/M04 A2936 1600 37 1400 270/19G23 RMK AO2 PK WND 28033/2120 SLP949 T01001039
94908KDBQ DBQ20000327160012203/27/00 16:00:31  5-MIN KDBQ 272200Z 29021G32KT 10SM SCT065 11/M03 A2936 1600 36 1600 290/21G32 RMK AO2 PK WND 28032/2156
94908KDBQ DBQ20000327160512203/27/00 16:05:31  5-MIN KDBQ 272205Z 29022G32KT 10SM FEW070 11/M04 A2936 1600 34 1600 290/22G32 RMK AO2 PK WND 28032/2156
94908KDBQ DBQ20000327161012203/27/00 16:10:31  5-MIN KDBQ 272210Z 29020G30KT 10SM FEW070 11/M04 A2936 1600 34 1600 290/20G30 RMK AO2 PK WND 28032/2156
94908KDBQ DBQ20000327161512203/27/00 16:15:31  5-MIN KDBQ 272215Z 28018G23KT 10SM FEW110 11/M04 A2935 1610 34 1600 280/18G23 RMK AO2 PK WND 28032/2156
94908KDBQ DBQ20000327162012203/27/00 16:20:31  5-MIN KDBQ 272220Z 30024G27KT 10SM FEW110 11/M04 A2936 1610 33 1600 300/24G27 RMK AO2 PK WND 28032/2156
94908KDBQ DBQ20000327162512203/27/00 16:25:31  5-MIN KDBQ 272225Z 29020G27KT 10SM FEW110 11/M05 A2935 1610 33 1500 290/20G27 RMK AO2 PK WND 28032/2156
94908KDBQ DBQ20000327163011303/27/00 16:30:31  5-MIN KDBQ 272230Z 29016KT 10SM CLR 11/M04 A2935 1610 34 1500 290/16 RMK AO2 PK WND 28032/2156
94908KDBQ DBQ20000327163512203/27/00 16:35:31  5-MIN KDBQ 272235Z 28020G24KT 10SM FEW090 10/M05 A2935 1610 34 1400 280/20G24 RMK AO2 PK WND 28032/2156
94908KDBQ DBQ20000327164012903/27/00 16:40:31  5-MIN KDBQ 272240Z 29018G28KT 10SM FEW075 SCT090 10/M05 A2935 1610 34 1400 290/18G28 RMK AO2 PK WND 28032/2156
94908KDBQ DBQ20000327164512903/27/00 16:45:31  5-MIN KDBQ 272245Z 28017G28KT 10SM FEW070 SCT090 11/M04 A2935 1610 34 1500 280/17G28 RMK AO2 PK WND 28032/2156
94908KDBQ DBQ20000327165014003/27/00 16:50:31  5-MIN KDBQ 272250Z 29015KT 10SM SCT070 SCT080 11/M04 A2935 1610 34 1500 290/15 RMK AO2 PK WND 28032/2156 SLP944 T01061044
94908KDBQ DBQ20000327165514003/27/00 16:55:31  5-MIN KDBQ 272255Z 30017KT 10SM SCT070 BKN085 10/M04 A2935 1610 36 1400 300/17 RMK AO2 PK WND 28032/2156 SLP945 T01001044
94908KDBQ DBQ20000327170011103/27/00 17:00:31  5-MIN KDBQ 272300Z 31016G21KT 10SM SCT070 BKN085 09/M04 A2935 1610 39 1400 300/16G21 RMK AO2
94908KDBQ DBQ20000327202013903/27/00 20:20:31  5-MIN KDBQ 280220Z AUTO 30014G22KT 10SM FEW025 BKN047 OVC080 03/M01 A2939 1570 76 600 300/14G22 RMK AO2 RAE17 P0000 TSNO
94908KDBQ DBQ20000327202513303/27/00 20:25:31  5-MIN KDBQ 280225Z AUTO 30014KT 10SM FEW025 BKN049 OVC070 03/M02 A2939 1580 70 600 300/14 RMK AO2 RAE17 P0000 TSNO
94908KDBQ DBQ20000327203013303/27/00 20:30:31  5-MIN KDBQ 280230Z AUTO 30012KT 10SM FEW025 BKN055 OVC090 03/M02 A2938 1580 70 600 300/12 RMK AO2 RAE17 P0000 TSNO
94908KDBQ DBQ20000327203512603/27/00 20:35:31  5-MIN KDBQ 280235Z AUTO 29011KT 10SM BKN060 OVC090 03/M02 A2938 1580 70 600 290/11 RMK AO2 RAE17 P0000 TSNO
94908KDBQ DBQ20000327204013303/27/00 20:40:31  5-MIN KDBQ 280240Z AUTO 28009KT 10SM SCT055 BKN070 OVC095 03/M02 A2938 1580 67 600 280/09 RMK AO2 RAE17 P0000 TSNO
94908KDBQ DBQ20000327204512603/27/00 20:45:31  5-MIN KDBQ 280245Z AUTO 29008KT 10SM BKN065 OVC095 03/M02 A2938 1580 69 500 290/08 RMK AO2 RAE17 P0000 TSNO
94908KDBQ DBQ20000327205015503/27/00 20:50:31  5-MIN KDBQ 280250Z AUTO 29010KT 10SM BKN070 OVC095 03/M02 A2939 1580 69 500 290/10 RMK AO2 RAE17 SLP958 P0000 60000 T00281022 53001 TSNO
94908KDBQ DBQ20000327205515503/27/00 20:55:31  5-MIN KDBQ 280255Z AUTO 29013KT 10SM BKN070 OVC095 03/M02 A2939 1580 69 500 290/13 RMK AO2 RAE17 SLP957 P0000 60000 T00281022 50006 TSNO
94908KDBQ DBQ20000327210011403/27/00 21:00:31  5-MIN KDBQ 280300Z AUTO 30015KT 10SM BKN070 OVC080 03/M02 A2939 1580 69 500 300/15 RMK AO2 TSNO
94908KDBQ DBQ20000327210511403/27/00 21:05:31  5-MIN KDBQ 280305Z AUTO 30013KT 10SM BKN070 OVC080 03/M02 A2938 1580 69 500 290/13 RMK AO2 TSNO
94908KDBQ DBQ20000327211011403/27/00 21:10:31  5-MIN KDBQ 280310Z AUTO 30013KT 10SM BKN070 OVC080 03/M02 A2938 1580 69 500 300/13 RMK AO2 TSNO
94908KDBQ DBQ20000327211512103/27/00 21:15:31  5-MIN KDBQ 280315Z AUTO 30015KT 10SM FEW033 SCT070 OVC085 03/M02 A2939 1580 69 500 300/15 RMK AO2 TSNO
94908KDBQ DBQ20000327212012103/27/00 21:20:31  5-MIN KDBQ 280320Z AUTO 30015KT 10SM SCT033 BKN070 OVC085 03/M02 A2939 1570 69 500 300/15 RMK AO2 TSNO
94908KDBQ DBQ20000327212512103/27/00 21:25:31  5-MIN KDBQ 280325Z AUTO 31012KT 10SM FEW024 BKN070 OVC085 03/M02 A2939 1580 72 500 310/12 RMK AO2 TSNO
94908KDBQ DBQ20000327213014503/27/00 21:30:31  5-MIN KDBQ 280330Z AUTO 31021G26KT 10SM FEW023 BKN033 OVC085 03/M01 A2939 1570 75 500 310/21G26 RMK AO2 PK WND 32026/0329 TSNO
94908KDBQ DBQ20000327213515903/27/00 21:35:31  5-MIN KDBQ 280335Z AUTO 31017G26KT 7SM -SN FEW009 BKN033 OVC085 02/00 A2939 1570 89 400 310/17G26 RMK AO2 PK WND 32026/0329 SNB34 P0000 TSNO
94908KDBQ DBQ20000327214015603/27/00 21:40:31  5-MIN KDBQ 280340Z AUTO 31012KT 4SM -SN BR FEW009 SCT026 OVC033 01/00 A2939 1570 96 200 310/12 RMK AO2 PK WND 32026/0329 SNB34 P0000 TSNO
94908KDBQ DBQ20000327214515603/27/00 21:45:31  5-MIN KDBQ 280345Z AUTO 31011KT 4SM -SN BR FEW013 SCT026 OVC033 01/00 A2939 1570 96 200 310/11 RMK AO2 PK WND 32026/0329 SNB34 P0000 TSNO
94908KDBQ DBQ20000327215017303/27/00 21:50:31  5-MIN KDBQ 280350Z AUTO 32010KT 5SM -SN BR SCT013 SCT023 OVC030 01/00 A2940 1570 92 300 320/10 RMK AO2 PK WND 32026/0329 SNB34 SLP960 P0000 T00110000 TSNO
94908KDBQ DBQ20000327215517003/27/00 21:55:31  5-MIN KDBQ 280355Z AUTO 32008KT 9SM -SN FEW013 BKN023 OVC030 01/00 A2940 1570 92 300 320/08 RMK AO2 PK WND 32026/0329 SNB34 SLP961 P0000 T00110000 TSNO
94908KDBQ DBQ20000327220013303/27/00 22:00:31  5-MIN KDBQ 280400Z AUTO 32008KT 9SM FEW013 BKN023 OVC032 01/00 A2940 1560 92 300 310/08 RMK AO2 SNE0359 P0000 TSNO
94908KDBQ DBQ20000327220512903/27/00 22:05:31  5-MIN KDBQ 280405Z AUTO 32009KT 7SM -SN FEW013 BKN021 OVC032 01/00 A2940 1560 92 300 320/09 RMK AO2 P0000 TSNO
94908KDBQ DBQ20000327221013203/27/00 22:10:31  5-MIN KDBQ 280410Z AUTO 33010KT 5SM -SN BR SCT011 BKN018 OVC024 01/00 A2941 1560 92 300 330/10 RMK AO2 P0001 TSNO
94908KDBQ DBQ20000327221513203/27/00 22:15:31  5-MIN KDBQ 280415Z AUTO 33014KT 3SM -SN BR SCT007 BKN012 OVC022 01/00 A2941 1550 92 300 330/14 RMK AO2 P0001 TSNO
94908KDBQ DBQ20000327222013203/27/00 22:20:31  5-MIN KDBQ 280420Z AUTO 33014KT 2SM -SN BR BKN007 BKN012 OVC022 01/00 A2941 1550 96 200 330/14 RMK AO2 P0001 TSNO
94908KDBQ DBQ20000327222514803/27/00 22:25:31  5-MIN KDBQ 280425Z AUTO 32014KT 2 1/2SM -SN BR BKN007 BKN012 OVC020 01/00 A2941 1550 96 200 320/14 RMK AO2 VIS 1 1/2V5 P0001 TSNO
94908KDBQ DBQ20000327223012503/27/00 22:30:31  5-MIN KDBQ 280430Z AUTO 32013KT 5SM -SN BR BKN007 OVC014 01/00 A2941 1550 92 300 320/13 RMK AO2 P0001 TSNO
94908KDBQ DBQ20000327223512203/27/00 22:35:31  5-MIN KDBQ 280435Z AUTO 33014KT 8SM -SN BKN007 OVC012 01/00 A2942 1550 92 300 330/14 RMK AO2 P0001 TSNO
94908KDBQ DBQ20000327224012803/27/00 22:40:31  5-MIN KDBQ 280440Z AUTO 32015G20KT 9SM -SN SCT007 OVC012 01/00 A2942 1550 92 300 320/15G20 RMK AO2 P0001 TSNO
94908KDBQ DBQ20000327224513703/27/00 22:45:31  5-MIN KDBQ 280445Z AUTO 33012G19KT 9SM FEW007 BKN012 OVC027 01/00 A2942 1540 92 300 330/12G19 RMK AO2 SNE44 P0001 TSNO
94908KDBQ DBQ20000327225014903/27/00 22:50:31  5-MIN KDBQ 280450Z AUTO 32013KT 10SM FEW007 BKN012 OVC060 01/00 A2942 1550 92 300 320/13 RMK AO2 SNE44 SLP968 P0001 T00110000 TSNO
94908KDBQ DBQ20000327225514903/27/00 22:55:31  5-MIN KDBQ 280455Z AUTO 32012KT 10SM SCT010 BKN060 OVC080 01/00 A2942 1540 92 300 320/12 RMK AO2 SNE44 SLP968 P0001 T00110000 TSNO
94908KDBQ DBQ20000327230012103/27/00 23:00:31  5-MIN KDBQ 280500Z AUTO 32014KT 10SM FEW010 BKN060 OVC080 01/M01 A2942 1540 89 300 320/14 RMK AO2 TSNO
94908KDBQ DBQ20000327230512703/27/00 23:05:31  5-MIN KDBQ 280505Z AUTO 32011G19KT 10SM FEW014 SCT060 OVC075 01/M01 A2942 1540 89 300 320/11G19 RMK AO2 TSNO
94908KDBQ DBQ20000327231012103/27/00 23:10:31  5-MIN KDBQ 280510Z AUTO 32013KT 10SM FEW014 BKN060 OVC075 01/M01 A2942 1540 89 300 320/13 RMK AO2 TSNO
94908KDBQ DBQ20000327231512703/27/00 23:15:31  5-MIN KDBQ 280515Z AUTO 33015G20KT 10SM FEW048 BKN065 OVC080 01/M01 A2943 1540 89 300 320/15G20 RMK AO2 TSNO
94908KDBQ DBQ20000327232012103/27/00 23:20:31  5-MIN KDBQ 280520Z AUTO 32015KT 10SM FEW048 BKN060 OVC075 01/M01 A2943 1530 89 300 320/15 RMK AO2 TSNO
94908KDBQ DBQ20000327232512703/27/00 23:25:31  5-MIN KDBQ 280525Z AUTO 32018G22KT 10SM FEW050 BKN060 OVC075 01/M01 A2943 1530 85 300 320/18G22 RMK AO2 TSNO
94908KDBQ DBQ20000327233012003/27/00 23:30:31  5-MIN KDBQ 280530Z AUTO 32017G23KT 10SM FEW050 OVC060 01/M01 A2943 1530 85 300 320/17G23 RMK AO2 TSNO
94908KDBQ DBQ20000327233511303/27/00 23:35:31  5-MIN KDBQ 280535Z AUTO 32015G23KT 10SM OVC060 01/M01 A2944 1530 85 200 320/15G23 RMK AO2 TSNO
94908KDBQ DBQ20000327234011303/27/00 23:40:31  5-MIN KDBQ 280540Z AUTO 32016G24KT 10SM OVC060 01/M01 A2944 1520 85 200 320/16G24 RMK AO2 TSNO
94908KDBQ DBQ20000327234511303/27/00 23:45:31  5-MIN KDBQ 280545Z AUTO 32014G24KT 10SM OVC060 01/M01 A2945 1520 85 200 320/14G24 RMK AO2 TSNO
94908KDBQ DBQ20000327235015803/27/00 23:50:31  5-MIN KDBQ 280550Z AUTO 32015KT 10SM OVC065 01/M01 A2944 1520 85 200 320/15 RMK AO2 SLP975 60001 T00111011 10078 20006 401280006 50006 TSNO
94908KDBQ DBQ20000327235516403/27/00 23:55:31  5-MIN KDBQ 280555Z AUTO 32018G22KT 10SM OVC065 01/M01 A2944 1520 89 200 320/18G22 RMK AO2 SLP976 60001 T00061011 10078 20006 401280006 53020 TSNO
94908KDBQ DBQ20000328000011303/28/00 00:00:31  5-MIN KDBQ 280600Z AUTO 32013G22KT 10SM BKN065 01/M02 A2945 1520 85 200 320/13G22 RMK AO2 TSNO
94908KDBQ DBQ20000328000511303/28/00 00:05:31  5-MIN KDBQ 280605Z AUTO 32017G21KT 10SM BKN065 01/M02 A2945 1520 82 200 320/17G21 RMK AO2 TSNO
94908KDBQ DBQ20000328001010703/28/00 00:10:31  5-MIN KDBQ 280610Z AUTO 32016KT 10SM SCT065 01/M02 A2945 1520 82 200 320/16 RMK AO2 TSNO
94908KDBQ DBQ20000328001510703/28/00 00:15:31  5-MIN KDBQ 280615Z AUTO 32016KT 10SM FEW070 01/M03 A2945 1510 78 200 320/16 RMK AO2 TSNO
94908KDBQ DBQ20000328002010703/28/00 00:20:31  5-MIN KDBQ 280620Z AUTO 32015KT 10SM FEW070 01/M03 A2945 1510 78 200 320/15 RMK AO2 TSNO
94908KDBQ DBQ20000328002510403/28/00 00:25:31  5-MIN KDBQ 280625Z AUTO 32017KT 10SM CLR 00/M03 A2946 1510 81 100 320/17 RMK AO2 TSNO
94908KDBQ DBQ20000328003010403/28/00 00:30:31  5-MIN KDBQ 280630Z AUTO 32016KT 10SM CLR 00/M03 A2946 1510 81 100 320/16 RMK AO2 TSNO
94908KDBQ DBQ20000328003510403/28/00 00:35:31  5-MIN KDBQ 280635Z AUTO 32016KT 10SM CLR 00/M03 A2946 1510 78 100 320/16 RMK AO2 TSNO
94908KDBQ DBQ20000328004010403/28/00 00:40:31  5-MIN KDBQ 280640Z AUTO 32014KT 10SM CLR 00/M03 A2946 1510 78 100 320/14 RMK AO2 TSNO
94908KDBQ DBQ20000328004510403/28/00 00:45:31  5-MIN KDBQ 280645Z AUTO 32012KT 10SM CLR 00/M03 A2946 1510 78 100 320/12 RMK AO2 TSNO
94908KDBQ DBQ20000328005012103/28/00 00:50:31  5-MIN KDBQ 280650Z AUTO 32014KT 10SM CLR 00/M03 A2946 1510 78 100 320/14 RMK AO2 SLP982 T00001033 TSNO
94908KDBQ DBQ20000328005512003/28/00 00:55:31  5-MIN KDBQ 280655Z AUTO 31014KT 10SM CLR M01/M03 A2946 1500 81 0 310/14 RMK AO2 SLP983 T10061033 TSNO
94908KDBQ DBQ20000328010010303/28/00 01:00:31  5-MIN KDBQ 280700Z AUTO 31015KT 10SM CLR M01/M04 A2946 1500 78 0 310/15 RMK AO2 TSNO
94908KDBQ DBQ20000328010510903/28/00 01:05:31  5-MIN KDBQ 280705Z AUTO 31013G20KT 10SM CLR M01/M04 A2947 1500 78 0 310/13G20 RMK AO2 TSNO
94908KDBQ DBQ20000328011010303/28/00 01:10:31  5-MIN KDBQ 280710Z AUTO 31015KT 10SM CLR M01/M04 A2947 1500 75 0 310/15 RMK AO2 TSNO
94908KDBQ DBQ20000328011510303/28/00 01:15:31  5-MIN KDBQ 280715Z AUTO 31013KT 10SM CLR M01/M04 A2947 1500 78 0 310/13 RMK AO2 TSNO
94908KDBQ DBQ20000328012010303/28/00 01:20:31  5-MIN KDBQ 280720Z AUTO 31014KT 10SM CLR M01/M04 A2947 1490 78 0 310/14 RMK AO2 TSNO
94908KDBQ DBQ20000328012510303/28/00 01:25:31  5-MIN KDBQ 280725Z AUTO 31012KT 10SM CLR M01/M05 A2948 1490 75 0 310/12 RMK AO2 TSNO
94908KDBQ DBQ20000328013010303/28/00 01:30:31  5-MIN KDBQ 280730Z AUTO 31018KT 10SM CLR M01/M06 A2948 1490 72 0 310/18 RMK AO2 TSNO
94908KDBQ DBQ20000328013510303/28/00 01:35:31  5-MIN KDBQ 280735Z AUTO 31018KT 10SM CLR M01/M06 A2948 1490 72 0 310/18 RMK AO2 TSNO
94908KDBQ DBQ20000328014010303/28/00 01:40:31  5-MIN KDBQ 280740Z AUTO 31016KT 10SM CLR M01/M06 A2948 1490 72 0 310/16 RMK AO2 TSNO
94908KDBQ DBQ20000328014510303/28/00 01:45:31  5-MIN KDBQ 280745Z AUTO 31018KT 10SM CLR M01/M06 A2948 1490 69 0 310/18 RMK AO2 TSNO
94908KDBQ DBQ20000328015012303/28/00 01:50:31  5-MIN KDBQ 280750Z AUTO 31016KT 10SM CLR M02/M06 A2948 1480 72 -100 310/16 RMK AO2 SLP991 T10171061 TSNO
94908KDBQ DBQ20000328015512303/28/00 01:55:31  5-MIN KDBQ 280755Z AUTO 31016KT 10SM CLR M02/M06 A2948 1480 72 -100 310/16 RMK AO2 SLP989 T10171061 TSNO
94908KDBQ DBQ20000328020010603/28/00 02:00:31  5-MIN KDBQ 280800Z AUTO 31014KT 10SM CLR M02/M06 A2948 1490 72 -100 300/14 RMK AO2 TSNO
94908KDBQ DBQ20000328020510603/28/00 02:05:31  5-MIN KDBQ 280805Z AUTO 30016KT 10SM CLR M02/M06 A2948 1480 72 -100 300/16 RMK AO2 TSNO
94908KDBQ DBQ20000328021010603/28/00 02:10:31  5-MIN KDBQ 280810Z AUTO 31016KT 10SM CLR M02/M06 A2949 1480 72 -100 300/16 RMK AO2 TSNO
94908KDBQ DBQ20000328021510603/28/00 02:15:31  5-MIN KDBQ 280815Z AUTO 30015KT 10SM CLR M02/M06 A2949 1480 72 -100 300/15 RMK AO2 TSNO
94908KDBQ DBQ20000328022010603/28/00 02:20:31  5-MIN KDBQ 280820Z AUTO 30015KT 10SM CLR M02/M06 A2949 1480 72 -100 300/15 RMK AO2 TSNO
94908KDBQ DBQ20000328022511203/28/00 02:25:31  5-MIN KDBQ 280825Z AUTO 31015G21KT 10SM CLR M02/M06 A2949 1480 72 -100 300/15G21 RMK AO2 TSNO
94908KDBQ DBQ20000328023011203/28/00 02:30:31  5-MIN KDBQ 280830Z AUTO 30016G21KT 10SM CLR M02/M06 A2949 1480 75 -100 300/16G21 RMK AO2 TSNO
94908KDBQ DBQ20000328023510603/28/00 02:35:31  5-MIN KDBQ 280835Z AUTO 30016KT 10SM CLR M02/M06 A2949 1480 75 -100 300/16 RMK AO2 TSNO
94908KDBQ DBQ20000328024011203/28/00 02:40:31  5-MIN KDBQ 280840Z AUTO 30017G22KT 10SM CLR M02/M06 A2950 1470 75 -100 300/17G22 RMK AO2 TSNO
94908KDBQ DBQ20000328024511203/28/00 02:45:31  5-MIN KDBQ 280845Z AUTO 30017G22KT 10SM SCT047 M01/M06 A2950 1470 72 0 290/17G22 RMK AO2 TSNO
94908KDBQ DBQ20000328025013503/28/00 02:50:31  5-MIN KDBQ 280850Z AUTO 29015G22KT 10SM BKN047 M01/M05 A2950 1470 75 0 290/15G22 RMK AO2 SLP995 T10111050 53020 TSNO
94908KDBQ DBQ20000328025513503/28/00 02:55:31  5-MIN KDBQ 280855Z AUTO 30019G22KT 10SM BKN047 M01/M05 A2950 1470 75 0 300/19G22 RMK AO2 SLP994 T10111050 51017 TSNO
94908KDBQ DBQ20000328030011603/28/00 03:00:31  5-MIN KDBQ 280900Z AUTO 30017KT 10SM BKN047 BKN055 M02/M05 A2950 1470 78 -100 300/17 RMK AO2 TSNO
94908KDBQ DBQ20000328030511603/28/00 03:05:31  5-MIN KDBQ 280905Z AUTO 30018KT 10SM SCT047 OVC055 M01/M05 A2950 1470 75 -100 300/18 RMK AO2 TSNO
94908KDBQ DBQ20000328031011603/28/00 03:10:31  5-MIN KDBQ 280910Z AUTO 30014KT 10SM SCT047 OVC055 M02/M05 A2950 1470 78 -100 300/14 RMK AO2 TSNO
94908KDBQ DBQ20000328031510903/28/00 03:15:31  5-MIN KDBQ 280915Z AUTO 29016KT 10SM OVC050 M01/M05 A2950 1470 75 -100 290/16 RMK AO2 TSNO
94908KDBQ DBQ20000328032010903/28/00 03:20:31  5-MIN KDBQ 280920Z AUTO 30014KT 10SM OVC050 M01/M05 A2950 1470 75 -100 300/14 RMK AO2 TSNO
94908KDBQ DBQ20000328032510903/28/00 03:25:31  5-MIN KDBQ 280925Z AUTO 30013KT 10SM OVC055 M01/M05 A2950 1470 75 -100 300/13 RMK AO2 TSNO
94908KDBQ DBQ20000328033010903/28/00 03:30:31  5-MIN KDBQ 280930Z AUTO 30015KT 10SM OVC055 M02/M05 A2951 1460 78 -100 300/15 RMK AO2 TSNO
94908KDBQ DBQ20000328033510903/28/00 03:35:31  5-MIN KDBQ 280935Z AUTO 30016KT 10SM OVC050 M01/M04 A2951 1460 78 -100 300/16 RMK AO2 TSNO
94908KDBQ DBQ20000328034010903/28/00 03:40:31  5-MIN KDBQ 280940Z AUTO 30019KT 10SM OVC050 M01/M04 A2951 1460 78 -100 300/19 RMK AO2 TSNO
94908KDBQ DBQ20000328034510903/28/00 03:45:31  5-MIN KDBQ 280945Z AUTO 30017KT 10SM OVC050 M01/M04 A2951 1460 78 -100 300/17 RMK AO2 TSNO
94908KDBQ DBQ20000328035013203/28/00 03:50:31  5-MIN KDBQ 280950Z AUTO 30016G24KT 10SM OVC050 M01/M04 A2951 1460 78 -100 290/16G24 RMK AO2 SLP001 T10111044 TSNO
94908KDBQ DBQ20000328035513203/28/00 03:55:31  5-MIN KDBQ 280955Z AUTO 29016G24KT 10SM OVC050 M01/M04 A2951 1460 78 -100 290/16G24 RMK AO2 SLP001 T10111044 TSNO
94908KDBQ DBQ20000328040010603/28/00 04:00:31  5-MIN KDBQ 281000Z AUTO 30015KT 10SM OVC050 M01/M04 A2952 1460 75 0 290/15 RMK AO2 TSNO
94908KDBQ DBQ20000328040510903/28/00 04:05:31  5-MIN KDBQ 281005Z AUTO 29015KT 10SM OVC050 M01/M04 A2952 1450 78 -100 290/15 RMK AO2 TSNO
94908KDBQ DBQ20000328041010603/28/00 04:10:31  5-MIN KDBQ 281010Z AUTO 30015KT 10SM OVC050 M01/M04 A2952 1450 75 0 300/15 RMK AO2 TSNO
94908KDBQ DBQ20000328041510903/28/00 04:15:31  5-MIN KDBQ 281015Z AUTO 30016KT 10SM OVC050 M01/M04 A2952 1450 78 -100 300/16 RMK AO2 TSNO
94908KDBQ DBQ20000328042010603/28/00 04:20:31  5-MIN KDBQ 281020Z AUTO 30017KT 10SM OVC050 M01/M04 A2952 1450 75 0 300/17 RMK AO2 TSNO
94908KDBQ DBQ20000328042511503/28/00 04:25:31  5-MIN KDBQ 281025Z AUTO 30017G22KT 10SM OVC050 M01/M04 A2952 1450 78 -100 290/17G22 RMK AO2 TSNO
94908KDBQ DBQ20000328043011203/28/00 04:30:31  5-MIN KDBQ 281030Z AUTO 30014G22KT 10SM OVC050 M01/M04 A2952 1450 75 0 300/14G22 RMK AO2 TSNO
94908KDBQ DBQ20000328043511203/28/00 04:35:31  5-MIN KDBQ 281035Z AUTO 30017G21KT 10SM OVC050 M01/M04 A2952 1450 75 0 300/17G21 RMK AO2 TSNO
94908KDBQ DBQ20000328044011203/28/00 04:40:31  5-MIN KDBQ 281040Z AUTO 30019G24KT 10SM OVC055 M01/M04 A2952 1450 75 0 300/19G24 RMK AO2 TSNO
94908KDBQ DBQ20000328044510603/28/00 04:45:31  5-MIN KDBQ 281045Z AUTO 31018KT 10SM OVC055 M01/M04 A2952 1450 75 0 300/18 RMK AO2 TSNO
94908KDBQ DBQ20000328045012603/28/00 04:50:31  5-MIN KDBQ 281050Z AUTO 31016KT 10SM OVC050 M01/M04 A2952 1450 78 -100 310/16 RMK AO2 SLP004 T10111044 TSNO
94908KDBQ DBQ20000328045512303/28/00 04:55:31  5-MIN KDBQ 281055Z AUTO 31018KT 10SM OVC050 M01/M04 A2953 1440 75 0 310/18 RMK AO2 SLP006 T10061044 TSNO
94908KDBQ DBQ20000328050010603/28/00 05:00:31  5-MIN KDBQ 281100Z AUTO 30017KT 10SM OVC050 M01/M04 A2953 1440 75 0 300/17 RMK AO2 TSNO
94908KDBQ DBQ20000328050510603/28/00 05:05:31  5-MIN KDBQ 281105Z AUTO 30017KT 10SM OVC050 M01/M04 A2953 1440 78 0 300/17 RMK AO2 TSNO
94908KDBQ DBQ20000328051011203/28/00 05:10:31  5-MIN KDBQ 281110Z AUTO 30019G24KT 10SM OVC050 M01/M04 A2954 1430 75 0 300/19G24 RMK AO2 TSNO
94908KDBQ DBQ20000328051511203/28/00 05:15:31  5-MIN KDBQ 281115Z AUTO 30017G24KT 10SM OVC050 M01/M04 A2954 1440 75 0 300/17G24 RMK AO2 TSNO
94908KDBQ DBQ20000328052010603/28/00 05:20:31  5-MIN KDBQ 281120Z AUTO 30017KT 10SM OVC050 M01/M04 A2954 1430 75 0 300/17 RMK AO2 TSNO
94908KDBQ DBQ20000328052510603/28/00 05:25:31  5-MIN KDBQ 281125Z AUTO 30017KT 10SM OVC050 M01/M04 A2954 1430 75 0 290/17 RMK AO2 TSNO
94908KDBQ DBQ20000328053010603/28/00 05:30:31  5-MIN KDBQ 281130Z AUTO 30015KT 10SM OVC050 M01/M04 A2954 1430 78 0 300/15 RMK AO2 TSNO
94908KDBQ DBQ20000328053510603/28/00 05:35:31  5-MIN KDBQ 281135Z AUTO 30017KT 10SM OVC050 M01/M04 A2954 1430 75 0 300/17 RMK AO2 TSNO
94908KDBQ DBQ20000328054010103/28/00 05:40:31  5-MIN KDBQ 281140Z 31016KT 10SM OVC050 M01/M04 A2954 1430 75 0 310/16 RMK AO2 TSNO
94908KDBQ DBQ20000328054510203/28/00 05:45:31  5-MIN KDBQ 281145Z 31016G21KT 10SM OVC050 M01/M04 A2954 1430 78 0 310/16G21 RMK AO2
94908KDBQ DBQ20000328055014303/28/00 05:50:31  5-MIN KDBQ 281150Z 31016G22KT 10SM BKN050 M01/M04 A2955 1430 75 0 300/16G22 RMK AO2 SLP013 70001 T10061044 10006 21017 51017
94908KDBQ DBQ20000328055514303/28/00 05:55:31  5-MIN KDBQ 281155Z 31015G22KT 10SM BKN050 M01/M04 A2955 1430 75 0 300/15G22 RMK AO2 SLP013 70001 T10061044 10006 21017 53017
94908KDBQ DBQ20000328060009903/28/00 06:00:31  5-MIN KDBQ 281200Z 30015KT 10SM SCT050 M01/M04 A2955 1420 78 -100 300/15 RMK AO2
94908KDBQ DBQ20000328060509903/28/00 06:05:31  5-MIN KDBQ 281205Z 30014KT 10SM SCT050 M01/M04 A2955 1420 78 -100 300/14 RMK AO2
94908KDBQ DBQ20000328061009903/28/00 06:10:31  5-MIN KDBQ 281210Z 30014KT 10SM FEW050 M01/M04 A2955 1420 78 -100 300/14 RMK AO2
94908KDBQ DBQ20000328061509603/28/00 06:15:31  5-MIN KDBQ 281215Z 30016KT 10SM CLR M01/M04 A2955 1420 78 -100 300/16 RMK AO2
94908KDBQ DBQ20000328062009603/28/00 06:20:31  5-MIN KDBQ 281220Z 31017KT 10SM CLR M01/M04 A2955 1420 78 -100 300/17 RMK AO2
94908KDBQ DBQ20000328062510203/28/00 06:25:31  5-MIN KDBQ 281225Z 30016G24KT 10SM CLR M01/M04 A2955 1420 78 -100 300/16G24 RMK AO2
94908KDBQ DBQ20000328063010203/28/00 06:30:31  5-MIN KDBQ 281230Z 31018G24KT 10SM CLR M01/M04 A2955 1420 78 -100 310/18G24 RMK AO2
94908KDBQ DBQ20000328063509903/28/00 06:35:31  5-MIN KDBQ 281235Z 32018G23KT 10SM CLR M01/M04 A2955 1420 75 0 310/18G23 RMK AO2
94908KDBQ DBQ20000328064010503/28/00 06:40:31  5-MIN KDBQ 281240Z 32016G23KT 10SM FEW036 M01/M04 A2955 1420 78 -100 320/16G23 RMK AO2
94908KDBQ DBQ20000328064509903/28/00 06:45:31  5-MIN KDBQ 281245Z 31016G22KT 10SM CLR M01/M04 A2956 1420 78 0 310/16G22 RMK AO2
94908KDBQ DBQ20000328065011903/28/00 06:50:31  5-MIN KDBQ 281250Z 32015G22KT 10SM CLR M01/M04 A2956 1410 78 -100 310/15G22 RMK AO2 SLP019 T10061039
94908KDBQ DBQ20000328065512203/28/00 06:55:31  5-MIN KDBQ 281255Z 32014G20KT 10SM SCT039 M01/M04 A2956 1410 78 -100 320/14G20 RMK AO2 SLP020 T10061039
94908KDBQ DBQ20000328070009903/28/00 07:00:31  5-MIN KDBQ 281300Z 31015KT 10SM BKN039 M01/M04 A2957 1410 78 -100 310/15 RMK AO2
94908KDBQ DBQ20000328070511203/28/00 07:05:31  5-MIN KDBQ 281305Z 31017G21KT 10SM SCT030 BKN039 M01/M04 A2956 1410 78 -100 310/17G21 RMK AO2
94908KDBQ DBQ20000328071010803/28/00 07:10:31  5-MIN KDBQ 281310Z 31016G23KT 10SM SCT028 BKN036 00/M04 A2956 1410 75 0 310/16G23 RMK AO2
94908KDBQ DBQ20000328071510803/28/00 07:15:31  5-MIN KDBQ 281315Z 31018G23KT 10SM BKN028 BKN036 00/M04 A2956 1410 75 0 310/18G23 RMK AO2
94908KDBQ DBQ20000328072010803/28/00 07:20:31  5-MIN KDBQ 281320Z 31017G24KT 10SM BKN028 OVC036 00/M03 A2956 1410 78 0 310/17G24 RMK AO2
94908KDBQ DBQ20000328072510803/28/00 07:25:31  5-MIN KDBQ 281325Z 31019G24KT 10SM BKN028 OVC036 01/M03 A2957 1410 75 0 310/19G24 RMK AO2
94908KDBQ DBQ20000328073009503/28/00 07:30:31  5-MIN KDBQ 281330Z 31017KT 10SM OVC028 01/M03 A2957 1410 75 0 310/17 RMK AO2
94908KDBQ DBQ20000328073511903/28/00 07:35:31  5-MIN KDBQ 281335Z 31022G26KT 10SM OVC026 01/M03 A2957 1410 75 0 310/22G26 RMK AO2 PK WND 30026/1335
94908KDBQ DBQ20000328074011903/28/00 07:40:31  5-MIN KDBQ 281340Z 31019G26KT 10SM OVC026 01/M03 A2957 1410 75 0 310/19G26 RMK AO2 PK WND 30026/1335
94908KDBQ DBQ20000328074511903/28/00 07:45:31  5-MIN KDBQ 281345Z 31017G23KT 10SM OVC026 01/M03 A2957 1400 75 0 310/17G23 RMK AO2 PK WND 30026/1335
94908KDBQ DBQ20000328075013003/28/00 07:50:31  5-MIN KDBQ 281350Z 30017KT 10SM OVC026 01/M03 A2957 1400 75 0 300/17 RMK AO2 PK WND 30026/1335 SLP022 T00061033
94908KDBQ DBQ20000328075513003/28/00 07:55:31  5-MIN KDBQ 281355Z 31015KT 10SM OVC026 01/M03 A2957 1400 75 0 310/15 RMK AO2 PK WND 30026/1335 SLP023 T00061033
94908KDBQ DBQ20000328080010103/28/00 08:00:31  5-MIN KDBQ 281400Z 31017G23KT 10SM OVC026 01/M03 A2957 1400 75 0 310/17G23 RMK AO2
94908KDBQ DBQ20000328080510103/28/00 08:05:31  5-MIN KDBQ 281405Z 30017G23KT 10SM OVC026 01/M03 A2957 1400 75 0 300/17G23 RMK AO2
94908KDBQ DBQ20000328081010103/28/00 08:10:31  5-MIN KDBQ 281410Z 31015G21KT 10SM OVC026 01/M03 A2958 1400 78 0 310/15G21 RMK AO2
94908KDBQ DBQ20000328081510103/28/00 08:15:31  5-MIN KDBQ 281415Z 31017G23KT 10SM OVC026 01/M03 A2958 1400 78 0 310/17G23 RMK AO2
94908KDBQ DBQ20000328082010103/28/00 08:20:31  5-MIN KDBQ 281420Z 30017G23KT 10SM OVC026 01/M03 A2958 1390 78 0 300/17G23 RMK AO2
94908KDBQ DBQ20000328082510103/28/00 08:25:31  5-MIN KDBQ 281425Z 31017G23KT 10SM OVC024 01/M03 A2959 1390 78 0 310/17G23 RMK AO2
94908KDBQ DBQ20000328083010303/28/00 08:30:31  5-MIN KDBQ 281430Z 31018G23KT 10SM OVC024 01/M03 A2959 1390 75 100 310/18G23 RMK AO2
94908KDBQ DBQ20000328083511003/28/00 08:35:31  5-MIN KDBQ 281435Z 31017G22KT 10SM BKN022 OVC028 01/M03 A2959 1390 75 100 310/17G22 RMK AO2
94908KDBQ DBQ20000328084010403/28/00 08:40:31  5-MIN KDBQ 281440Z 31017KT 10SM BKN022 OVC028 01/M03 A2959 1390 75 100 310/17 RMK AO2
94908KDBQ DBQ20000328084511003/28/00 08:45:31  5-MIN KDBQ 281445Z 32015G24KT 10SM BKN022 OVC028 01/M03 A2959 1380 75 100 320/15G24 RMK AO2
94908KDBQ DBQ20000328085013303/28/00 08:50:31  5-MIN KDBQ 281450Z 32017G24KT 10SM BKN022 OVC028 02/M03 A2959 1380 72 100 320/17G24 RMK AO2 SLP030 T00171028 53017
94908KDBQ DBQ20000328085513303/28/00 08:55:31  5-MIN KDBQ 281455Z 32014G22KT 10SM BKN022 OVC028 02/M03 A2960 1380 72 100 320/14G22 RMK AO2 SLP031 T00171028 53017
94908KDBQ DBQ20000328090011003/28/00 09:00:31  5-MIN KDBQ 281500Z 31015G22KT 10SM BKN024 OVC030 02/M02 A2960 1370 75 100 310/15G22 RMK AO2
94908KDBQ DBQ20000328090509703/28/00 09:05:31  5-MIN KDBQ 281505Z 32015KT 10SM OVC024 02/M02 A2960 1370 75 100 320/15 RMK AO2
94908KDBQ DBQ20000328091011003/28/00 09:10:31  5-MIN KDBQ 281510Z 31020G24KT 10SM BKN024 OVC028 02/M02 A2961 1370 75 100 310/20G24 RMK AO2
94908KDBQ DBQ20000328091511003/28/00 09:15:31  5-MIN KDBQ 281515Z 32014G24KT 10SM BKN024 OVC028 02/M02 A2961 1370 75 100 320/14G24 RMK AO2
94908KDBQ DBQ20000328092010403/28/00 09:20:31  5-MIN KDBQ 281520Z 32016KT 10SM BKN024 OVC029 02/M02 A2961 1370 72 200 320/16 RMK AO2
94908KDBQ DBQ20000328092512803/28/00 09:25:31  5-MIN KDBQ 281525Z 32019G26KT 10SM BKN024 OVC029 02/M03 A2961 1370 69 200 320/19G26 RMK AO2 PK WND 31026/1522
94908KDBQ DBQ20000328093012803/28/00 09:30:31  5-MIN KDBQ 281530Z 32018G26KT 10SM BKN024 OVC029 03/M02 A2961 1370 69 300 320/18G26 RMK AO2 PK WND 31026/1522
94908KDBQ DBQ20000328093512803/28/00 09:35:31  5-MIN KDBQ 281535Z 32018G25KT 10SM BKN026 OVC031 03/M02 A2961 1370 69 300 320/18G25 RMK AO2 PK WND 31026/1522
94908KDBQ DBQ20000328094012103/28/00 09:40:31  5-MIN KDBQ 281540Z 33020G25KT 10SM OVC028 03/M03 A2961 1370 67 300 330/20G25 RMK AO2 PK WND 31026/1522
94908KDBQ DBQ20000328094512103/28/00 09:45:31  5-MIN KDBQ 281545Z 33015G26KT 10SM OVC028 03/M03 A2961 1370 67 300 330/15G26 RMK AO2 PK WND 32026/1541
94908KDBQ DBQ20000328095013803/28/00 09:50:31  5-MIN KDBQ 281550Z 32023G26KT 10SM OVC028 03/M03 A2961 1360 64 300 320/23G26 RMK AO2 PK WND 33026/1549 SLP036 T00331028
94908KDBQ DBQ20000328095513803/28/00 09:55:31  5-MIN KDBQ 281555Z 33018G26KT 10SM OVC028 03/M02 A2961 1360 67 300 320/18G26 RMK AO2 PK WND 33026/1552 SLP037 T00331022
94908KDBQ DBQ20000328100010303/28/00 10:00:31  5-MIN KDBQ 281600Z 32022G26KT 10SM OVC028 04/M02 A2962 1360 67 400 320/22G26 RMK AO2
94908KDBQ DBQ20000328100512103/28/00 10:05:31  5-MIN KDBQ 281605Z 33020G30KT 10SM OVC028 03/M02 A2962 1360 67 300 330/20G30 RMK AO2 PK WND 31030/1601
94908KDBQ DBQ20000328101012103/28/00 10:10:31  5-MIN KDBQ 281610Z 34017G30KT 10SM OVC028 04/M02 A2961 1360 64 400 340/17G30 RMK AO2 PK WND 31030/1601
94908KDBQ DBQ20000328101511503/28/00 10:15:31  5-MIN KDBQ 281615Z 34015KT 10SM OVC028 04/M02 A2962 1360 64 400 340/15 RMK AO2 PK WND 31030/1601
94908KDBQ DBQ20000328102012103/28/00 10:20:31  5-MIN KDBQ 281620Z 33018G23KT 10SM OVC028 04/M02 A2962 1360 62 400 320/18G23 RMK AO2 PK WND 31030/1601
94908KDBQ DBQ20000328102512103/28/00 10:25:31  5-MIN KDBQ 281625Z 34018G23KT 10SM OVC028 04/M03 A2962 1350 62 400 340/18G23 RMK AO2 PK WND 31030/1601
94908KDBQ DBQ20000328103012103/28/00 10:30:31  5-MIN KDBQ 281630Z 33014G23KT 10SM OVC028 04/M02 A2963 1350 64 400 330/14G23 RMK AO2 PK WND 31030/1601
94908KDBQ DBQ20000328103512103/28/00 10:35:31  5-MIN KDBQ 281635Z 33017G24KT 10SM OVC028 04/M02 A2963 1350 62 400 330/17G24 RMK AO2 PK WND 31030/1601
94908KDBQ DBQ20000328104012803/28/00 10:40:31  5-MIN KDBQ 281640Z 33018G24KT 10SM BKN028 OVC035 04/M02 A2963 1350 62 400 330/18G24 RMK AO2 PK WND 31030/1601
94908KDBQ DBQ20000328104512803/28/00 10:45:31  5-MIN KDBQ 281645Z 33016G23KT 10SM BKN030 OVC036 04/M03 A2963 1350 59 400 330/16G23 RMK AO2 PK WND 31030/1601
94908KDBQ DBQ20000328105014503/28/00 10:50:31  5-MIN KDBQ 281650Z 32016G23KT 10SM BKN030 OVC036 04/M02 A2963 1350 62 400 320/16G23 RMK AO2 PK WND 31030/1601 SLP042 T00441022
94908KDBQ DBQ20000328105513203/28/00 10:55:31  5-MIN KDBQ 281655Z 32017KT 10SM OVC030 04/M02 A2963 1350 62 400 320/17 RMK AO2 PK WND 31030/1601 SLP042 T00441022
94908KDBQ DBQ20000328110011003/28/00 11:00:31  5-MIN KDBQ 281700Z 33017G21KT 10SM BKN030 OVC036 04/M03 A2963 1350 59 400 330/17G21 RMK AO2
94908KDBQ DBQ20000328110511003/28/00 11:05:31  5-MIN KDBQ 281705Z 33016G22KT 10SM BKN032 OVC042 05/M02 A2963 1340 59 500 330/16G22 RMK AO2
94908KDBQ DBQ20000328111011003/28/00 11:10:31  5-MIN KDBQ 281710Z 32016G22KT 10SM BKN032 OVC043 06/M02 A2964 1340 57 600 310/16G22 RMK AO2
94908KDBQ DBQ20000328111511003/28/00 11:15:31  5-MIN KDBQ 281715Z 32015G21KT 10SM BKN032 OVC043 05/M02 A2964 1340 59 500 320/15G21 RMK AO2
94908KDBQ DBQ20000328112009703/28/00 11:20:31  5-MIN KDBQ 281720Z 32018KT 10SM OVC032 05/M02 A2964 1340 59 500 320/18 RMK AO2
94908KDBQ DBQ20000328112511003/28/00 11:25:31  5-MIN KDBQ 281725Z 32015G24KT 10SM BKN034 OVC041 05/M03 A2964 1340 57 500 320/15G24 RMK AO2
94908KDBQ DBQ20000328113011003/28/00 11:30:31  5-MIN KDBQ 281730Z 33019G24KT 10SM BKN034 OVC041 06/M02 A2964 1340 57 600 330/19G24 RMK AO2
94908KDBQ DBQ20000328113510303/28/00 11:35:31  5-MIN KDBQ 281735Z 35014G22KT 10SM OVC036 05/M03 A2964 1340 55 500 350/14G22 RMK AO2
94908KDBQ DBQ20000328114010303/28/00 11:40:31  5-MIN KDBQ 281740Z 35013G22KT 10SM OVC036 05/M03 A2964 1340 55 500 350/13G22 RMK AO2
94908KDBQ DBQ20000328114511003/28/00 11:45:31  5-MIN KDBQ 281745Z 34016G19KT 10SM BKN034 OVC042 06/M03 A2964 1340 55 600 340/16G19 RMK AO2
94908KDBQ DBQ20000328115013803/28/00 11:50:31  5-MIN KDBQ 281750Z 35014G19KT 10SM OVC036 06/M03 A2964 1330 53 600 350/14G19 RMK AO2 SLP046 T00561033 10056 21011 53017
94908KDBQ DBQ20000328115513803/28/00 11:55:31  5-MIN KDBQ 281755Z 33014G20KT 10SM OVC038 06/M03 A2965 1330 53 600 330/14G20 RMK AO2 SLP047 T00611028 10061 21011 51016
94908KDBQ DBQ20000328120009703/28/00 12:00:31  5-MIN KDBQ 281800Z 33018KT 10SM OVC038 06/M03 A2965 1330 53 600 320/18 RMK AO2
94908KDBQ DBQ20000328120509703/28/00 12:05:31  5-MIN KDBQ 281805Z 32016KT 10SM OVC038 06/M03 A2965 1330 55 500 320/16 RMK AO2
94908KDBQ DBQ20000328121011003/28/00 12:10:31  5-MIN KDBQ 281810Z 32017G22KT 10SM BKN040 OVC046 07/M03 A2966 1320 51 700 320/17G22 RMK AO2
94908KDBQ DBQ20000328121510303/28/00 12:15:31  5-MIN KDBQ 281815Z 32017G22KT 10SM OVC040 06/M03 A2966 1320 51 600 320/17G22 RMK AO2
94908KDBQ DBQ20000328122009703/28/00 12:20:31  5-MIN KDBQ 281820Z 33015KT 10SM OVC040 07/M03 A2966 1320 51 700 330/15 RMK AO2
94908KDBQ DBQ20000328122510303/28/00 12:25:31  5-MIN KDBQ 281825Z 33014G20KT 10SM OVC042 07/M03 A2966 1320 51 700 330/14G20 RMK AO2
94908KDBQ DBQ20000328123010303/28/00 12:30:31  5-MIN KDBQ 281830Z 32015G21KT 10SM OVC042 07/M03 A2967 1310 51 700 320/15G21 RMK AO2
94908KDBQ DBQ20000328123510303/28/00 12:35:31  5-MIN KDBQ 281835Z 33016G21KT 10SM OVC042 07/M03 A2967 1310 49 700 330/16G21 RMK AO2
94908KDBQ DBQ20000328124010403/28/00 12:40:31  5-MIN KDBQ 281840Z 33015KT 10SM BKN039 OVC046 07/M03 A2967 1310 51 700 330/15 RMK AO2
94908KDBQ DBQ20000328124510303/28/00 12:45:31  5-MIN KDBQ 281845Z 32017G23KT 10SM OVC042 06/M04 A2967 1310 48 600 320/17G23 RMK AO2
94908KDBQ DBQ20000328125012003/28/00 12:50:31  5-MIN KDBQ 281850Z 33012G23KT 10SM OVC042 06/M03 A2967 1310 51 600 330/12G23 RMK AO2 SLP055 T00611033
94908KDBQ DBQ20000328125511403/28/00 12:55:31  5-MIN KDBQ 281855Z 33014KT 10SM OVC042 06/M03 A2967 1310 51 600 330/14 RMK AO2 SLP056 T00611033
94908KDBQ DBQ20000328130010403/28/00 13:00:31  5-MIN KDBQ 281900Z 33013KT 10SM BKN042 OVC049 07/M03 A2967 1310 49 700 330/13 RMK AO2
94908KDBQ DBQ20000328130509703/28/00 13:05:31  5-MIN KDBQ 281905Z 33017KT 10SM OVC045 07/M03 A2967 1310 49 700 330/17 RMK AO2
94908KDBQ DBQ20000328131009703/28/00 13:10:31  5-MIN KDBQ 281910Z 33015KT 10SM OVC045 07/M03 A2967 1310 49 700 320/15 RMK AO2
94908KDBQ DBQ20000328131509703/28/00 13:15:31  5-MIN KDBQ 281915Z 34015KT 10SM OVC045 08/M03 A2967 1310 45 800 340/15 RMK AO2
94908KDBQ DBQ20000328132009703/28/00 13:20:31  5-MIN KDBQ 281920Z 34012KT 10SM OVC047 07/M03 A2968 1310 49 700 340/12 RMK AO2
94908KDBQ DBQ20000328132511003/28/00 13:25:31  5-MIN KDBQ 281925Z 33016G20KT 10SM BKN043 OVC050 07/M03 A2968 1300 49 700 330/16G20 RMK AO2
94908KDBQ DBQ20000328133011003/28/00 13:30:31  5-MIN KDBQ 281930Z 34015G20KT 10SM BKN043 OVC050 07/M03 A2968 1300 49 700 330/15G20 RMK AO2
94908KDBQ DBQ20000328133511003/28/00 13:35:31  5-MIN KDBQ 281935Z 33016G22KT 10SM BKN043 OVC050 07/M03 A2968 1310 49 700 330/16G22 RMK AO2
94908KDBQ DBQ20000328134010303/28/00 13:40:31  5-MIN KDBQ 281940Z 34016G23KT 10SM OVC046 07/M03 A2968 1300 49 700 340/16G23 RMK AO2
94908KDBQ DBQ20000328134511003/28/00 13:45:31  5-MIN KDBQ 281945Z 34016G23KT 10SM BKN043 OVC050 08/M03 A2968 1300 47 800 340/16G23 RMK AO2
94908KDBQ DBQ20000328135012703/28/00 13:50:31  5-MIN KDBQ 281950Z 35013G20KT 10SM SCT041 BKN050 08/M03 A2968 1300 47 800 350/13G20 RMK AO2 SLP059 T00781028
94908KDBQ DBQ20000328135512703/28/00 13:55:31  5-MIN KDBQ 281955Z 33013G20KT 10SM SCT043 BKN050 07/M03 A2968 1300 47 700 330/13G20 RMK AO2 SLP061 T00721033
94908KDBQ DBQ20000328140010303/28/00 14:00:31  5-MIN KDBQ 282000Z 34013G22KT 10SM OVC048 07/M03 A2968 1300 47 700 330/13G22 RMK AO2
94908KDBQ DBQ20000328140510403/28/00 14:05:31  5-MIN KDBQ 282005Z 36016KT 10SM BKN046 OVC055 07/M04 A2969 1300 47 600 360/16 RMK AO2
94908KDBQ DBQ20000328141009703/28/00 14:10:31  5-MIN KDBQ 282010Z 35013KT 10SM BKN046 07/M04 A2969 1290 47 600 340/13 RMK AO2
94908KDBQ DBQ20000328141509703/28/00 14:15:31  5-MIN KDBQ 282015Z 33013KT 10SM BKN046 07/M04 A2969 1290 45 700 330/13 RMK AO2
94908KDBQ DBQ20000328142010303/28/00 14:20:31  5-MIN KDBQ 282020Z 34012G19KT 10SM BKN046 07/M04 A2969 1290 47 600 340/12G19 RMK AO2
94908KDBQ DBQ20000328142511003/28/00 14:25:31  5-MIN KDBQ 282025Z 35012G19KT 10SM BKN046 BKN055 07/M04 A2969 1290 45 600 350/12G19 RMK AO2
94908KDBQ DBQ20000328143010403/28/00 14:30:31  5-MIN KDBQ 282030Z 35011KT 10SM BKN046 BKN055 07/M04 A2970 1290 45 700 350/11 RMK AO2
94908KDBQ DBQ20000328143509703/28/00 14:35:31  5-MIN KDBQ 282035Z 34011KT 10SM BKN046 07/M03 A2970 1290 47 700 340/11 RMK AO2
94908KDBQ DBQ20000328144011003/28/00 14:40:31  5-MIN KDBQ 282040Z 33014G18KT 10SM BKN046 BKN055 07/M03 A2970 1280 47 700 330/14G18 RMK AO2
94908KDBQ DBQ20000328144511003/28/00 14:45:31  5-MIN KDBQ 282045Z 35008G18KT 10SM BKN046 BKN055 07/M04 A2970 1280 45 700 350/08G18 RMK AO2
94908KDBQ DBQ20000328145012703/28/00 14:50:31  5-MIN KDBQ 282050Z 34010KT 10SM BKN046 OVC055 08/M03 A2970 1280 45 800 340/10 RMK AO2 SLP066 T00781033 51016
94908KDBQ DBQ20000328145512703/28/00 14:55:31  5-MIN KDBQ 282055Z 34010KT 10SM BKN046 BKN055 08/M04 A2970 1280 43 800 340/10 RMK AO2 SLP067 T00781039 51019
94908KDBQ DBQ20000328150011003/28/00 15:00:31  5-MIN KDBQ 282100Z 32012G18KT 10SM BKN046 BKN055 07/M04 A2970 1280 45 700 320/12G18 RMK AO2
94908KDBQ DBQ20000328150511003/28/00 15:05:31  5-MIN KDBQ 282105Z 34013G18KT 10SM BKN048 BKN060 08/M03 A2970 1280 45 800 340/13G18 RMK AO2
94908KDBQ DBQ20000328151011003/28/00 15:10:31  5-MIN KDBQ 282110Z 33013G18KT 10SM BKN048 OVC060 09/M03 A2971 1280 42 900 330/13G18 RMK AO2
94908KDBQ DBQ20000328151511003/28/00 15:15:31  5-MIN KDBQ 282115Z 34014G19KT 10SM BKN048 BKN060 08/M04 A2971 1280 43 800 340/14G19 RMK AO2
94908KDBQ DBQ20000328152011003/28/00 15:20:31  5-MIN KDBQ 282120Z 35014G19KT 10SM SCT050 BKN060 07/M04 A2971 1270 45 600 350/14G19 RMK AO2
94908KDBQ DBQ20000328152510403/28/00 15:25:31  5-MIN KDBQ 282125Z 35010KT 10SM SCT050 BKN060 07/M04 A2971 1270 45 600 350/10 RMK AO2
94908KDBQ DBQ20000328153009703/28/00 15:30:31  5-MIN KDBQ 282130Z 32010KT 10SM BKN055 07/M04 A2971 1270 45 600 320/10 RMK AO2
94908KDBQ DBQ20000328153509703/28/00 15:35:31  5-MIN KDBQ 282135Z 33010KT 10SM SCT060 08/M04 A2971 1270 41 700 330/10 RMK AO2
94908KDBQ DBQ20000328154009703/28/00 15:40:31  5-MIN KDBQ 282140Z 33013KT 10SM BKN060 07/M04 A2972 1270 43 700 320/13 RMK AO2
94908KDBQ DBQ20000328154509703/28/00 15:45:31  5-MIN KDBQ 282145Z 35012KT 10SM BKN055 07/M04 A2972 1270 43 700 350/12 RMK AO2
94908KDBQ DBQ20000328155011403/28/00 15:50:31  5-MIN KDBQ 282150Z 35014KT 10SM BKN055 07/M04 A2972 1270 43 700 340/14 RMK AO2 SLP071 T00721044
94908KDBQ DBQ20000328155511403/28/00 15:55:31  5-MIN KDBQ 282155Z 34012KT 10SM BKN055 07/M04 A2972 1270 43 700 340/12 RMK AO2 SLP071 T00721044
94908KDBQ DBQ20000328160009703/28/00 16:00:31  5-MIN KDBQ 282200Z 36009KT 10SM OVC055 07/M04 A2972 1270 43 700 360/09 RMK AO2
94908KDBQ DBQ20000328160509703/28/00 16:05:31  5-MIN KDBQ 282205Z 34011KT 10SM OVC060 08/M04 A2972 1260 43 700 340/11 RMK AO2
94908KDBQ DBQ20000328161009703/28/00 16:10:31  5-MIN KDBQ 282210Z 33013KT 10SM OVC055 07/M04 A2972 1260 43 700 330/13 RMK AO2
94908KDBQ DBQ20000328161509703/28/00 16:15:31  5-MIN KDBQ 282215Z 34009KT 10SM OVC055 07/M04 A2972 1260 43 700 340/09 RMK AO2
94908KDBQ DBQ20000328162009703/28/00 16:20:31  5-MIN KDBQ 282220Z 35013KT 10SM OVC055 07/M04 A2972 1260 43 700 350/13 RMK AO2
94908KDBQ DBQ20000328162509703/28/00 16:25:31  5-MIN KDBQ 282225Z 36009KT 10SM OVC055 07/M04 A2973 1260 45 600 360/09 RMK AO2
94908KDBQ DBQ20000328163009703/28/00 16:30:31  5-MIN KDBQ 282230Z 35010KT 10SM OVC055 07/M04 A2973 1260 45 700 350/10 RMK AO2
94908KDBQ DBQ20000328163509703/28/00 16:35:31  5-MIN KDBQ 282235Z 36009KT 10SM OVC055 07/M04 A2973 1250 47 600 360/09 RMK AO2
94908KDBQ DBQ20000328164009703/28/00 16:40:31  5-MIN KDBQ 282240Z 35010KT 10SM OVC060 07/M04 A2973 1250 43 700 350/10 RMK AO2
94908KDBQ DBQ20000328164509703/28/00 16:45:31  5-MIN KDBQ 282245Z 35008KT 10SM OVC060 07/M04 A2974 1250 43 700 350/08 RMK AO2
94908KDBQ DBQ20000328165011403/28/00 16:50:31  5-MIN KDBQ 282250Z 36009KT 10SM OVC060 08/M04 A2974 1250 43 700 360/09 RMK AO2 SLP078 T00781039
94908KDBQ DBQ20000328165513003/28/00 16:55:31  5-MIN KDBQ 282255Z 36009KT 320V020 10SM OVC060 07/M04 A2974 1250 43 700 360/09 320V020 RMK AO2 SLP078 T00721044
94908KDBQ DBQ20000328170009703/28/00 17:00:31  5-MIN KDBQ 282300Z 35009KT 10SM OVC055 07/M04 A2974 1240 43 600 350/09 RMK AO2
94908KDBQ DBQ20000328170509703/28/00 17:05:31  5-MIN KDBQ 282305Z 36010KT 10SM OVC055 07/M04 A2974 1240 43 600 360/10 RMK AO2
94908KDBQ DBQ20000328171009703/28/00 17:10:31  5-MIN KDBQ 282310Z 36008KT 10SM OVC055 07/M04 A2975 1240 45 600 360/08 RMK AO2
94908KDBQ DBQ20000328171509703/28/00 17:15:31  5-MIN KDBQ 282315Z 35010KT 10SM OVC055 07/M04 A2975 1240 45 600 350/10 RMK AO2
94908KDBQ DBQ20000328172009703/28/00 17:20:31  5-MIN KDBQ 282320Z 35007KT 10SM OVC060 07/M04 A2975 1230 45 600 350/07 RMK AO2
94908KDBQ DBQ20000328172509703/28/00 17:25:31  5-MIN KDBQ 282325Z 35010KT 10SM OVC060 07/M04 A2975 1230 43 600 350/10 RMK AO2
94908KDBQ DBQ20000328173009703/28/00 17:30:31  5-MIN KDBQ 282330Z 35007KT 10SM OVC060 07/M04 A2975 1230 43 600 340/07 RMK AO2
94908KDBQ DBQ20000328173509703/28/00 17:35:31  5-MIN KDBQ 282335Z 35009KT 10SM BKN060 07/M04 A2976 1230 43 600 350/09 RMK AO2
94908KDBQ DBQ20000328174009703/28/00 17:40:31  5-MIN KDBQ 282340Z 35007KT 10SM BKN060 07/M04 A2976 1230 45 600 350/07 RMK AO2
94908KDBQ DBQ20000328174509703/28/00 17:45:31  5-MIN KDBQ 282345Z 01008KT 10SM OVC060 07/M04 A2976 1230 45 600 010/08 RMK AO2
94908KDBQ DBQ20000328175013203/28/00 17:50:31  5-MIN KDBQ 282350Z 34012KT 10SM OVC060 07/M04 A2976 1230 45 600 340/12 RMK AO2 SLP086 T00671044 10089 20056 51019
94908KDBQ DBQ20000328175513203/28/00 17:55:31  5-MIN KDBQ 282355Z 34012KT 10SM OVC060 07/M05 A2976 1230 43 600 340/12 RMK AO2 SLP086 T00671050 10089 20056 53019
94908KDBQ DBQ20000328180009703/28/00 18:00:31  5-MIN KDBQ 290000Z 36007KT 10SM OVC055 07/M04 A2976 1220 45 600 360/07 RMK AO2
94908KDBQ DBQ20000328180509703/28/00 18:05:31  5-MIN KDBQ 290005Z 01008KT 10SM OVC060 07/M04 A2976 1220 45 600 010/08 RMK AO2
94908KDBQ DBQ20000328181009703/28/00 18:10:31  5-MIN KDBQ 290010Z 35009KT 10SM OVC060 07/M04 A2977 1220 45 600 350/09 RMK AO2
94908KDBQ DBQ20000328181509703/28/00 18:15:31  5-MIN KDBQ 290015Z 36009KT 10SM OVC060 07/M04 A2977 1220 45 600 360/09 RMK AO2
94908KDBQ DBQ20000328182009703/28/00 18:20:31  5-MIN KDBQ 290020Z 35006KT 10SM OVC055 07/M04 A2977 1220 45 500 350/06 RMK AO2
94908KDBQ DBQ20000328182509703/28/00 18:25:31  5-MIN KDBQ 290025Z 36007KT 10SM OVC055 07/M04 A2977 1220 45 500 360/07 RMK AO2
94908KDBQ DBQ20000328183009703/28/00 18:30:31  5-MIN KDBQ 290030Z 36008KT 10SM OVC055 06/M04 A2977 1220 46 500 350/08 RMK AO2
94908KDBQ DBQ20000328183509703/28/00 18:35:31  5-MIN KDBQ 290035Z 35007KT 10SM OVC055 06/M04 A2977 1220 46 500 350/07 RMK AO2
94908KDBQ DBQ20000328184009703/28/00 18:40:31  5-MIN KDBQ 290040Z 35006KT 10SM OVC060 06/M04 A2977 1210 46 500 350/06 RMK AO2
94908KDBQ DBQ20000328184509703/28/00 18:45:31  5-MIN KDBQ 290045Z 34006KT 10SM OVC060 06/M04 A2977 1210 46 500 340/06 RMK AO2
94908KDBQ DBQ20000328185011403/28/00 18:50:31  5-MIN KDBQ 290050Z 34006KT 10SM OVC060 06/M04 A2977 1210 48 400 340/06 RMK AO2 SLP092 T00561044
94908KDBQ DBQ20000328185511403/28/00 18:55:31  5-MIN KDBQ 290055Z 34007KT 10SM OVC060 06/M04 A2978 1210 48 400 340/07 RMK AO2 SLP092 T00561044
94908KDBQ DBQ20000328190009703/28/00 19:00:31  5-MIN KDBQ 290100Z 35006KT 10SM OVC060 06/M04 A2978 1210 46 500 350/06 RMK AO2
94908KDBQ DBQ20000328190509703/28/00 19:05:31  5-MIN KDBQ 290105Z 35007KT 10SM OVC060 06/M04 A2978 1210 46 500 350/07 RMK AO2
94908KDBQ DBQ20000328191009703/28/00 19:10:31  5-MIN KDBQ 290110Z 35007KT 10SM OVC060 06/M04 A2978 1210 46 500 350/07 RMK AO2
94908KDBQ DBQ20000328191509703/28/00 19:15:31  5-MIN KDBQ 290115Z 35005KT 10SM OVC060 06/M04 A2978 1210 48 400 350/05 RMK AO2
94908KDBQ DBQ20000328192009703/28/00 19:20:31  5-MIN KDBQ 290120Z 34005KT 10SM OVC060 06/M04 A2978 1210 48 400 340/05 RMK AO2
94908KDBQ DBQ20000328192509703/28/00 19:25:31  5-MIN KDBQ 290125Z 35006KT 10SM OVC060 05/M04 A2978 1200 50 300 350/06 RMK AO2
94908KDBQ DBQ20000328193009703/28/00 19:30:31  5-MIN KDBQ 290130Z 35006KT 10SM BKN060 05/M04 A2978 1210 50 300 350/06 RMK AO2
94908KDBQ DBQ20000328193509703/28/00 19:35:31  5-MIN KDBQ 290135Z 35005KT 10SM BKN060 05/M04 A2979 1200 50 300 350/05 RMK AO2
94908KDBQ DBQ20000328194009703/28/00 19:40:31  5-MIN KDBQ 290140Z 34005KT 10SM SCT060 05/M04 A2979 1200 50 300 340/05 RMK AO2
94908KDBQ DBQ20000328194510703/28/00 19:45:31  5-MIN KDBQ 290145Z AUTO 34006KT 10SM FEW055 04/M04 A2979 1200 52 300 340/06 RMK AO2 TSNO
94908KDBQ DBQ20000328195012403/28/00 19:50:31  5-MIN KDBQ 290150Z AUTO 34006KT 10SM FEW055 04/M04 A2979 1200 52 200 330/06 RMK AO2 SLP098 T00441044 TSNO
94908KDBQ DBQ20000328195512103/28/00 19:55:31  5-MIN KDBQ 290155Z AUTO 33006KT 10SM CLR 04/M04 A2980 1190 54 200 330/06 RMK AO2 SLP099 T00391044 TSNO
94908KDBQ DBQ20000328200010403/28/00 20:00:31  5-MIN KDBQ 290200Z AUTO 33007KT 10SM CLR 04/M04 A2980 1190 54 200 330/07 RMK AO2 TSNO
94908KDBQ DBQ20000328200510403/28/00 20:05:31  5-MIN KDBQ 290205Z AUTO 34007KT 10SM CLR 04/M04 A2980 1190 54 200 330/07 RMK AO2 TSNO
94908KDBQ DBQ20000328201010403/28/00 20:10:31  5-MIN KDBQ 290210Z AUTO 34006KT 10SM CLR 04/M04 A2980 1190 54 200 340/06 RMK AO2 TSNO
94908KDBQ DBQ20000328201510403/28/00 20:15:31  5-MIN KDBQ 290215Z AUTO 33006KT 10SM CLR 04/M04 A2980 1190 54 200 330/06 RMK AO2 TSNO
94908KDBQ DBQ20000328202010403/28/00 20:20:31  5-MIN KDBQ 290220Z AUTO 33006KT 10SM CLR 04/M04 A2980 1190 54 200 330/06 RMK AO2 TSNO
94908KDBQ DBQ20000328202510403/28/00 20:25:31  5-MIN KDBQ 290225Z AUTO 33007KT 10SM CLR 03/M04 A2980 1190 57 100 320/07 RMK AO2 TSNO
94908KDBQ DBQ20000328203010403/28/00 20:30:31  5-MIN KDBQ 290230Z AUTO 33007KT 10SM CLR 04/M04 A2980 1190 54 200 330/07 RMK AO2 TSNO
94908KDBQ DBQ20000328203510403/28/00 20:35:31  5-MIN KDBQ 290235Z AUTO 33007KT 10SM CLR 04/M04 A2981 1180 54 200 330/07 RMK AO2 TSNO
94908KDBQ DBQ20000328204010403/28/00 20:40:31  5-MIN KDBQ 290240Z AUTO 33007KT 10SM CLR 04/M04 A2981 1180 54 200 330/07 RMK AO2 TSNO
94908KDBQ DBQ20000328204510403/28/00 20:45:31  5-MIN KDBQ 290245Z AUTO 33008KT 10SM CLR 04/M04 A2981 1180 54 200 330/08 RMK AO2 TSNO
94908KDBQ DBQ20000328205012703/28/00 20:50:31  5-MIN KDBQ 290250Z AUTO 33007KT 10SM CLR 04/M04 A2981 1180 54 200 330/07 RMK AO2 SLP105 T00391044 53019 TSNO
94908KDBQ DBQ20000328205512703/28/00 20:55:31  5-MIN KDBQ 290255Z AUTO 33006KT 10SM CLR 03/M04 A2981 1180 57 100 330/06 RMK AO2 SLP105 T00331044 53017 TSNO
94908KDBQ DBQ20000328210010403/28/00 21:00:31  5-MIN KDBQ 290300Z AUTO 33005KT 10SM CLR 03/M04 A2982 1170 57 100 330/05 RMK AO2 TSNO
94908KDBQ DBQ20000328210510203/28/00 21:05:31  5-MIN KDBQ 290305Z AUTO 33004KT 10SM CLR 03/M04 A2982 1170 59 0 330/04 RMK AO2 TSNO
94908KDBQ DBQ20000328211010503/28/00 21:10:31  5-MIN KDBQ 290310Z AUTO 31005KT 10SM CLR 02/M04 A2982 1170 64 -100 310/05 RMK AO2 TSNO
94908KDBQ DBQ20000328211510503/28/00 21:15:31  5-MIN KDBQ 290315Z AUTO 33005KT 10SM CLR 02/M04 A2982 1170 64 -100 330/05 RMK AO2 TSNO
94908KDBQ DBQ20000328212010203/28/00 21:20:31  5-MIN KDBQ 290320Z AUTO 34004KT 10SM CLR 02/M04 A2982 1170 61 0 340/04 RMK AO2 TSNO
94908KDBQ DBQ20000328212510203/28/00 21:25:31  5-MIN KDBQ 290325Z AUTO 35004KT 10SM CLR 03/M04 A2983 1170 59 0 350/04 RMK AO2 TSNO
94908KDBQ DBQ20000328213010203/28/00 21:30:31  5-MIN KDBQ 290330Z AUTO 34003KT 10SM CLR 03/M04 A2983 1160 59 0 340/03 RMK AO2 TSNO
94908KDBQ DBQ20000328213510203/28/00 21:35:31  5-MIN KDBQ 290335Z AUTO 33004KT 10SM CLR 03/M04 A2983 1160 59 0 330/04 RMK AO2 TSNO
94908KDBQ DBQ20000328214010203/28/00 21:40:31  5-MIN KDBQ 290340Z AUTO 36004KT 10SM CLR 03/M04 A2983 1160 59 0 360/04 RMK AO2 TSNO
94908KDBQ DBQ20000328214510203/28/00 21:45:31  5-MIN KDBQ 290345Z AUTO 35004KT 10SM CLR 03/M04 A2984 1160 59 0 350/04 RMK AO2 TSNO
94908KDBQ DBQ20000328215011903/28/00 21:50:31  5-MIN KDBQ 290350Z AUTO 33004KT 10SM CLR 03/M04 A2984 1150 59 0 330/04 RMK AO2 SLP112 T00281044 TSNO
94908KDBQ DBQ20000328215511903/28/00 21:55:31  5-MIN KDBQ 290355Z AUTO 31004KT 10SM CLR 02/M04 A2984 1150 61 0 310/04 RMK AO2 SLP114 T00221044 TSNO
94908KDBQ DBQ20000328220010503/28/00 22:00:31  5-MIN KDBQ 290400Z AUTO 32005KT 10SM CLR 02/M04 A2984 1150 64 -100 310/05 RMK AO2 TSNO
94908KDBQ DBQ20000328220510503/28/00 22:05:31  5-MIN KDBQ 290405Z AUTO 32005KT 10SM CLR 01/M04 A2984 1150 66 -200 320/05 RMK AO2 TSNO
94908KDBQ DBQ20000328221010503/28/00 22:10:31  5-MIN KDBQ 290410Z AUTO 32004KT 10SM CLR 01/M04 A2984 1150 69 -200 320/04 RMK AO2 TSNO
94908KDBQ DBQ20000328221510503/28/00 22:15:31  5-MIN KDBQ 290415Z AUTO 31005KT 10SM CLR 02/M04 A2984 1150 64 -100 310/05 RMK AO2 TSNO
94908KDBQ DBQ20000328222010503/28/00 22:20:31  5-MIN KDBQ 290420Z AUTO 33006KT 10SM CLR 02/M04 A2984 1150 66 -100 330/06 RMK AO2 TSNO
94908KDBQ DBQ20000328222510503/28/00 22:25:31  5-MIN KDBQ 290425Z AUTO 35005KT 10SM CLR 01/M03 A2984 1150 72 -200 350/05 RMK AO2 TSNO
94908KDBQ DBQ20000328223010203/28/00 22:30:31  5-MIN KDBQ 290430Z AUTO 35004KT 10SM CLR 02/M03 A2984 1150 67 0 350/04 RMK AO2 TSNO
94908KDBQ DBQ20000328223510203/28/00 22:35:31  5-MIN KDBQ 290435Z AUTO 35004KT 10SM CLR 02/M04 A2985 1150 64 0 340/04 RMK AO2 TSNO
94908KDBQ DBQ20000328224010203/28/00 22:40:31  5-MIN KDBQ 290440Z AUTO 35005KT 10SM CLR 03/M04 A2985 1150 61 0 350/05 RMK AO2 TSNO
94908KDBQ DBQ20000328224510203/28/00 22:45:31  5-MIN KDBQ 290445Z AUTO 36005KT 10SM CLR 02/M04 A2985 1140 64 0 360/05 RMK AO2 TSNO
94908KDBQ DBQ20000328225011903/28/00 22:50:31  5-MIN KDBQ 290450Z AUTO 36005KT 10SM CLR 02/M04 A2985 1140 64 0 360/05 RMK AO2 SLP117 T00221039 TSNO
94908KDBQ DBQ20000328225511903/28/00 22:55:31  5-MIN KDBQ 290455Z AUTO 35005KT 10SM CLR 02/M04 A2985 1140 64 0 350/05 RMK AO2 SLP117 T00221039 TSNO
94908KDBQ DBQ20000328230010203/28/00 23:00:31  5-MIN KDBQ 290500Z AUTO 36006KT 10SM CLR 02/M04 A2985 1140 64 0 360/06 RMK AO2 TSNO
94908KDBQ DBQ20000328230510203/28/00 23:05:31  5-MIN KDBQ 290505Z AUTO 36005KT 10SM CLR 02/M04 A2986 1140 64 0 350/05 RMK AO2 TSNO
94908KDBQ DBQ20000328231010203/28/00 23:10:31  5-MIN KDBQ 290510Z AUTO 36005KT 10SM CLR 02/M04 A2985 1140 64 0 360/05 RMK AO2 TSNO
94908KDBQ DBQ20000328231510203/28/00 23:15:31  5-MIN KDBQ 290515Z AUTO 01005KT 10SM CLR 02/M04 A2986 1140 64 0 360/05 RMK AO2 TSNO
94908KDBQ DBQ20000328232010503/28/00 23:20:31  5-MIN KDBQ 290520Z AUTO 01005KT 10SM CLR 02/M04 A2986 1140 66 -100 010/05 RMK AO2 TSNO
94908KDBQ DBQ20000328232510503/28/00 23:25:31  5-MIN KDBQ 290525Z AUTO 36005KT 10SM CLR 02/M04 A2986 1140 66 -100 360/05 RMK AO2 TSNO
94908KDBQ DBQ20000328233010503/28/00 23:30:31  5-MIN KDBQ 290530Z AUTO 36005KT 10SM CLR 02/M04 A2986 1130 66 -100 360/05 RMK AO2 TSNO
94908KDBQ DBQ20000328233510503/28/00 23:35:31  5-MIN KDBQ 290535Z AUTO 36006KT 10SM CLR 02/M04 A2986 1130 66 -100 360/06 RMK AO2 TSNO
94908KDBQ DBQ20000328234010503/28/00 23:40:31  5-MIN KDBQ 290540Z AUTO 36006KT 10SM CLR 01/M04 A2986 1130 69 -200 360/06 RMK AO2 TSNO
94908KDBQ DBQ20000328234510503/28/00 23:45:31  5-MIN KDBQ 290545Z AUTO 36005KT 10SM CLR 01/M04 A2986 1130 69 -200 360/05 RMK AO2 TSNO
94908KDBQ DBQ20000328235015003/28/00 23:50:31  5-MIN KDBQ 290550Z AUTO 36005KT 10SM CLR 01/M04 A2986 1130 69 -200 360/05 RMK AO2 SLP120 T00111039 10067 20006 400891017 53017 TSNO
94908KDBQ DBQ20000328235515003/28/00 23:55:31  5-MIN KDBQ 290555Z AUTO 01006KT 10SM CLR 01/M04 A2986 1130 69 -200 010/06 RMK AO2 SLP120 T00111039 10067 20006 400891017 51016 TSNO
94908KDBQ DBQ20000329000010503/29/00 00:00:31  5-MIN KDBQ 290600Z AUTO 36007KT 10SM CLR 00/M04 A2986 1130 72 -300 360/07 RMK AO2 TSNO
94908KDBQ DBQ20000329000510503/29/00 00:05:31  5-MIN KDBQ 290605Z AUTO 36007KT 10SM CLR 01/M04 A2986 1140 72 -300 360/07 RMK AO2 TSNO
94908KDBQ DBQ20000329001010503/29/00 00:10:31  5-MIN KDBQ 290610Z AUTO 36006KT 10SM CLR 01/M04 A2986 1140 72 -300 360/06 RMK AO2 TSNO
94908KDBQ DBQ20000329001510503/29/00 00:15:31  5-MIN KDBQ 290615Z AUTO 36006KT 10SM CLR 01/M04 A2986 1130 72 -300 360/06 RMK AO2 TSNO
94908KDBQ DBQ20000329002010503/29/00 00:20:31  5-MIN KDBQ 290620Z AUTO 01005KT 10SM CLR 01/M04 A2986 1130 72 -300 010/05 RMK AO2 TSNO
94908KDBQ DBQ20000329002510503/29/00 00:25:31  5-MIN KDBQ 290625Z AUTO 01004KT 10SM CLR 01/M04 A2987 1130 72 -300 010/04 RMK AO2 TSNO
94908KDBQ DBQ20000329003010503/29/00 00:30:31  5-MIN KDBQ 290630Z AUTO 36004KT 10SM CLR 01/M04 A2987 1130 72 -300 360/04 RMK AO2 TSNO
94908KDBQ DBQ20000329003510503/29/00 00:35:31  5-MIN KDBQ 290635Z AUTO 35005KT 10SM CLR 01/M04 A2987 1130 69 -200 350/05 RMK AO2 TSNO
94908KDBQ DBQ20000329004010503/29/00 00:40:31  5-MIN KDBQ 290640Z AUTO 36005KT 10SM CLR 01/M04 A2987 1130 69 -200 360/05 RMK AO2 TSNO
94908KDBQ DBQ20000329004510503/29/00 00:45:31  5-MIN KDBQ 290645Z AUTO 36004KT 10SM CLR 01/M04 A2987 1130 72 -300 360/04 RMK AO2 TSNO
94908KDBQ DBQ20000329005012203/29/00 00:50:31  5-MIN KDBQ 290650Z AUTO 36003KT 10SM CLR 01/M04 A2987 1130 72 -300 360/03 RMK AO2 SLP123 T00061039 TSNO
94908KDBQ DBQ20000329005512203/29/00 00:55:31  5-MIN KDBQ 290655Z AUTO 35003KT 10SM CLR 01/M04 A2987 1130 69 -200 350/03 RMK AO2 SLP123 T00111039 TSNO
94908KDBQ DBQ20000329010010503/29/00 01:00:31  5-MIN KDBQ 290700Z AUTO 00000KT 10SM CLR 01/M04 A2987 1120 69 -200 000/00 RMK AO2 TSNO
94908KDBQ DBQ20000329010510503/29/00 01:05:31  5-MIN KDBQ 290705Z AUTO 00000KT 10SM CLR 01/M04 A2987 1120 69 -200 000/00 RMK AO2 TSNO
94908KDBQ DBQ20000329011010503/29/00 01:10:31  5-MIN KDBQ 290710Z AUTO 34003KT 10SM CLR 01/M04 A2987 1120 72 -300 340/03 RMK AO2 TSNO
94908KDBQ DBQ20000329011510503/29/00 01:15:31  5-MIN KDBQ 290715Z AUTO 36003KT 10SM CLR 01/M04 A2987 1120 72 -300 360/03 RMK AO2 TSNO
94908KDBQ DBQ20000329012010603/29/00 01:20:31  5-MIN KDBQ 290720Z AUTO 36004KT 10SM CLR M01/M05 A2987 1120 75 -500 360/04 RMK AO2 TSNO
94908KDBQ DBQ20000329012510603/29/00 01:25:31  5-MIN KDBQ 290725Z AUTO 35004KT 10SM CLR M01/M04 A2987 1120 75 -400 350/04 RMK AO2 TSNO
94908KDBQ DBQ20000329013010503/29/00 01:30:31  5-MIN KDBQ 290730Z AUTO 34005KT 10SM CLR 01/M04 A2987 1120 69 -200 340/05 RMK AO2 TSNO
94908KDBQ DBQ20000329013510503/29/00 01:35:31  5-MIN KDBQ 290735Z AUTO 35005KT 10SM CLR 01/M04 A2987 1120 72 -300 350/05 RMK AO2 TSNO
94908KDBQ DBQ20000329014010503/29/00 01:40:31  5-MIN KDBQ 290740Z AUTO 36004KT 10SM CLR 01/M04 A2987 1120 72 -300 350/04 RMK AO2 TSNO
94908KDBQ DBQ20000329014510503/29/00 01:45:31  5-MIN KDBQ 290745Z AUTO 36004KT 10SM CLR 01/M04 A2988 1120 72 -300 360/04 RMK AO2 TSNO
94908KDBQ DBQ20000329015012203/29/00 01:50:31  5-MIN KDBQ 290750Z AUTO 36005KT 10SM CLR 01/M04 A2988 1120 72 -300 360/05 RMK AO2 SLP125 T00061039 TSNO
94908KDBQ DBQ20000329015512203/29/00 01:55:31  5-MIN KDBQ 290755Z AUTO 36005KT 10SM CLR 01/M04 A2988 1120 72 -300 360/05 RMK AO2 SLP125 T00061039 TSNO
94908KDBQ DBQ20000329020010503/29/00 02:00:31  5-MIN KDBQ 290800Z AUTO 01005KT 10SM CLR 00/M04 A2988 1120 75 -300 360/05 RMK AO2 TSNO
94908KDBQ DBQ20000329020510603/29/00 02:05:31  5-MIN KDBQ 290805Z AUTO 36004KT 10SM CLR M01/M04 A2988 1120 75 -400 360/04 RMK AO2 TSNO
94908KDBQ DBQ20000329021010503/29/00 02:10:31  5-MIN KDBQ 290810Z AUTO 35004KT 10SM CLR 00/M04 A2988 1120 75 -400 350/04 RMK AO2 TSNO
94908KDBQ DBQ20000329021510503/29/00 02:15:31  5-MIN KDBQ 290815Z AUTO 36006KT 10SM CLR 00/M04 A2988 1120 75 -300 360/06 RMK AO2 TSNO
94908KDBQ DBQ20000329022010503/29/00 02:20:31  5-MIN KDBQ 290820Z AUTO 36004KT 10SM CLR 00/M04 A2988 1120 75 -400 360/04 RMK AO2 TSNO
94908KDBQ DBQ20000329022510503/29/00 02:25:31  5-MIN KDBQ 290825Z AUTO 35004KT 10SM CLR 00/M04 A2988 1120 75 -400 350/04 RMK AO2 TSNO
94908KDBQ DBQ20000329023010503/29/00 02:30:31  5-MIN KDBQ 290830Z AUTO 34004KT 10SM CLR 00/M04 A2988 1120 75 -400 340/04 RMK AO2 TSNO
94908KDBQ DBQ20000329023510503/29/00 02:35:31  5-MIN KDBQ 290835Z AUTO 34003KT 10SM CLR 00/M04 A2988 1110 75 -400 340/03 RMK AO2 TSNO
94908KDBQ DBQ20000329024010603/29/00 02:40:31  5-MIN KDBQ 290840Z AUTO 33004KT 10SM CLR M01/M04 A2988 1110 78 -400 330/04 RMK AO2 TSNO
94908KDBQ DBQ20000329024510603/29/00 02:45:31  5-MIN KDBQ 290845Z AUTO 33005KT 10SM CLR M01/M04 A2989 1110 78 -400 330/05 RMK AO2 TSNO
94908KDBQ DBQ20000329025012903/29/00 02:50:31  5-MIN KDBQ 290850Z AUTO 33006KT 10SM CLR M01/M04 A2989 1110 78 -400 330/06 RMK AO2 SLP130 T10061039 51016 TSNO
94908KDBQ DBQ20000329025512903/29/00 02:55:31  5-MIN KDBQ 290855Z AUTO 33005KT 10SM CLR M02/M04 A2989 1110 81 -600 330/05 RMK AO2 SLP131 T10171044 53010 TSNO
94908KDBQ DBQ20000329030010603/29/00 03:00:31  5-MIN KDBQ 290900Z AUTO 33005KT 10SM CLR M01/M04 A2989 1100 78 -500 330/05 RMK AO2 TSNO
94908KDBQ DBQ20000329030510603/29/00 03:05:31  5-MIN KDBQ 290905Z AUTO 33004KT 10SM CLR M01/M04 A2989 1100 78 -500 330/04 RMK AO2 TSNO
94908KDBQ DBQ20000329031010603/29/00 03:10:31  5-MIN KDBQ 290910Z AUTO 34004KT 10SM CLR M01/M04 A2989 1100 81 -500 340/04 RMK AO2 TSNO
94908KDBQ DBQ20000329031510603/29/00 03:15:31  5-MIN KDBQ 290915Z AUTO 35005KT 10SM CLR M01/M04 A2990 1100 78 -400 350/05 RMK AO2 TSNO
94908KDBQ DBQ20000329032010603/29/00 03:20:31  5-MIN KDBQ 290920Z AUTO 35005KT 10SM CLR M01/M04 A2990 1100 78 -400 350/05 RMK AO2 TSNO
94908KDBQ DBQ20000329032510603/29/00 03:25:31  5-MIN KDBQ 290925Z AUTO 36004KT 10SM CLR M01/M04 A2990 1100 81 -500 360/04 RMK AO2 TSNO
94908KDBQ DBQ20000329033010603/29/00 03:30:31  5-MIN KDBQ 290930Z AUTO 36003KT 10SM CLR M01/M04 A2990 1100 81 -500 350/03 RMK AO2 TSNO
94908KDBQ DBQ20000329033510603/29/00 03:35:31  5-MIN KDBQ 290935Z AUTO 34003KT 10SM CLR M01/M04 A2990 1090 78 -500 340/03 RMK AO2 TSNO
94908KDBQ DBQ20000329034010603/29/00 03:40:31  5-MIN KDBQ 290940Z AUTO 00000KT 10SM CLR M01/M04 A2990 1090 81 -500 000/00 RMK AO2 TSNO
94908KDBQ DBQ20000329034510603/29/00 03:45:31  5-MIN KDBQ 290945Z AUTO 33003KT 10SM CLR M01/M04 A2990 1090 78 -500 330/03 RMK AO2 TSNO
94908KDBQ DBQ20000329035012303/29/00 03:50:31  5-MIN KDBQ 290950Z AUTO 34003KT 10SM CLR M01/M04 A2990 1090 78 -500 330/03 RMK AO2 SLP135 T10061039 TSNO
94908KDBQ DBQ20000329035512303/29/00 03:55:31  5-MIN KDBQ 290955Z AUTO 34003KT 10SM CLR M01/M04 A2990 1090 78 -500 340/03 RMK AO2 SLP135 T10061039 TSNO
94908KDBQ DBQ20000329040010603/29/00 04:00:31  5-MIN KDBQ 291000Z AUTO 34004KT 10SM CLR M02/M04 A2990 1090 81 -600 340/04 RMK AO2 TSNO
94908KDBQ DBQ20000329040510603/29/00 04:05:31  5-MIN KDBQ 291005Z AUTO 35005KT 10SM CLR M01/M04 A2990 1100 81 -500 350/05 RMK AO2 TSNO
94908KDBQ DBQ20000329041010603/29/00 04:10:31  5-MIN KDBQ 291010Z AUTO 36005KT 10SM CLR M01/M04 A2990 1090 81 -500 360/05 RMK AO2 TSNO
94908KDBQ DBQ20000329041510603/29/00 04:15:31  5-MIN KDBQ 291015Z AUTO 36005KT 10SM CLR M02/M04 A2990 1100 81 -600 360/05 RMK AO2 TSNO
94908KDBQ DBQ20000329042010603/29/00 04:20:31  5-MIN KDBQ 291020Z AUTO 36005KT 10SM CLR M02/M04 A2990 1100 85 -600 360/05 RMK AO2 TSNO
94908KDBQ DBQ20000329042510603/29/00 04:25:31  5-MIN KDBQ 291025Z AUTO 01005KT 10SM CLR M02/M04 A2990 1090 81 -600 360/05 RMK AO2 TSNO
94908KDBQ DBQ20000329043010603/29/00 04:30:31  5-MIN KDBQ 291030Z AUTO 36004KT 10SM CLR M01/M04 A2991 1090 81 -500 360/04 RMK AO2 TSNO
94908KDBQ DBQ20000329043510603/29/00 04:35:31  5-MIN KDBQ 291035Z AUTO 35004KT 10SM CLR M01/M04 A2991 1090 81 -500 350/04 RMK AO2 TSNO
94908KDBQ DBQ20000329044010603/29/00 04:40:31  5-MIN KDBQ 291040Z AUTO 34004KT 10SM CLR M01/M04 A2991 1090 81 -500 340/04 RMK AO2 TSNO
94908KDBQ DBQ20000329044510603/29/00 04:45:31  5-MIN KDBQ 291045Z AUTO 33004KT 10SM CLR M01/M04 A2991 1090 81 -500 330/04 RMK AO2 TSNO
94908KDBQ DBQ20000329045012303/29/00 04:50:31  5-MIN KDBQ 291050Z AUTO 33005KT 10SM CLR M02/M04 A2991 1090 81 -600 330/05 RMK AO2 SLP138 T10171044 TSNO
94908KDBQ DBQ20000329045512303/29/00 04:55:31  5-MIN KDBQ 291055Z AUTO 33006KT 10SM CLR M03/M06 A2991 1080 81 -700 330/06 RMK AO2 SLP139 T10281056 TSNO
94908KDBQ DBQ20000329050010603/29/00 05:00:31  5-MIN KDBQ 291100Z AUTO 34006KT 10SM CLR M03/M05 A2992 1080 85 -700 340/06 RMK AO2 TSNO
94908KDBQ DBQ20000329050510603/29/00 05:05:31  5-MIN KDBQ 291105Z AUTO 35006KT 10SM CLR M02/M04 A2992 1080 85 -700 340/06 RMK AO2 TSNO
94908KDBQ DBQ20000329051010603/29/00 05:10:31  5-MIN KDBQ 291110Z AUTO 34006KT 10SM CLR M02/M04 A2992 1080 85 -700 340/06 RMK AO2 TSNO
94908KDBQ DBQ20000329051510603/29/00 05:15:31  5-MIN KDBQ 291115Z AUTO 35007KT 10SM CLR M02/M04 A2992 1080 85 -700 350/07 RMK AO2 TSNO
94908KDBQ DBQ20000329052010603/29/00 05:20:31  5-MIN KDBQ 291120Z AUTO 34006KT 10SM CLR M02/M04 A2993 1070 81 -600 340/06 RMK AO2 TSNO
94908KDBQ DBQ20000329052510603/29/00 05:25:31  5-MIN KDBQ 291125Z AUTO 35006KT 10SM CLR M02/M04 A2993 1070 81 -600 350/06 RMK AO2 TSNO
94908KDBQ DBQ20000329053010603/29/00 05:30:31  5-MIN KDBQ 291130Z AUTO 35006KT 10SM CLR M02/M04 A2993 1070 85 -700 350/06 RMK AO2 TSNO
94908KDBQ DBQ20000329053510603/29/00 05:35:31  5-MIN KDBQ 291135Z AUTO 35006KT 10SM CLR M02/M04 A2992 1080 85 -700 350/06 RMK AO2 TSNO
94908KDBQ DBQ20000329054009603/29/00 05:40:31  5-MIN KDBQ 291140Z 35006KT 10SM CLR M02/M04 A2993 1070 85 -700 350/06 RMK AO2
94908KDBQ DBQ20000329054509603/29/00 05:45:31  5-MIN KDBQ 291145Z 35006KT 10SM CLR M02/M04 A2993 1070 85 -700 350/06 RMK AO2
94908KDBQ DBQ20000329055013103/29/00 05:50:31  5-MIN KDBQ 291150Z 35005KT 10SM CLR M02/M04 A2993 1070 85 -700 350/05 RMK AO2 SLP146 T10221044 10011 21033 53010
94908KDBQ DBQ20000329055513103/29/00 05:55:31  5-MIN KDBQ 291155Z 36005KT 10SM CLR M02/M04 A2994 1060 85 -600 350/05 RMK AO2 SLP147 T10171039 10011 21033 53015
94908KDBQ DBQ20000329060009603/29/00 06:00:31  5-MIN KDBQ 291200Z 35004KT 10SM CLR M02/M04 A2994 1060 85 -600 350/04 RMK AO2
94908KDBQ DBQ20000329060509603/29/00 06:05:31  5-MIN KDBQ 291205Z 36005KT 10SM CLR M02/M04 A2994 1060 85 -600 360/05 RMK AO2
94908KDBQ DBQ20000329061009603/29/00 06:10:31  5-MIN KDBQ 291210Z 36004KT 10SM CLR M02/M04 A2994 1060 85 -600 360/04 RMK AO2
94908KDBQ DBQ20000329061509603/29/00 06:15:31  5-MIN KDBQ 291215Z 01004KT 10SM CLR M02/M04 A2994 1060 85 -600 010/04 RMK AO2
94908KDBQ DBQ20000329062009603/29/00 06:20:31  5-MIN KDBQ 291220Z 01004KT 10SM CLR M02/M04 A2995 1050 81 -600 010/04 RMK AO2
94908KDBQ DBQ20000329062509603/29/00 06:25:31  5-MIN KDBQ 291225Z 36003KT 10SM CLR M02/M04 A2995 1050 85 -600 360/03 RMK AO2
94908KDBQ DBQ20000329063009603/29/00 06:30:31  5-MIN KDBQ 291230Z 36004KT 10SM CLR M02/M04 A2995 1050 85 -600 360/04 RMK AO2
94908KDBQ DBQ20000329063509603/29/00 06:35:31  5-MIN KDBQ 291235Z 35004KT 10SM CLR M01/M04 A2995 1050 81 -600 350/04 RMK AO2
94908KDBQ DBQ20000329064009603/29/00 06:40:31  5-MIN KDBQ 291240Z 35004KT 10SM CLR M01/M03 A2996 1050 85 -600 350/04 RMK AO2
94908KDBQ DBQ20000329064509603/29/00 06:45:31  5-MIN KDBQ 291245Z 36004KT 10SM CLR M01/M03 A2996 1040 81 -500 350/04 RMK AO2
94908KDBQ DBQ20000329065011303/29/00 06:50:31  5-MIN KDBQ 291250Z 36005KT 10SM CLR M01/M03 A2996 1040 81 -500 360/05 RMK AO2 SLP154 T10061033
94908KDBQ DBQ20000329065511303/29/00 06:55:31  5-MIN KDBQ 291255Z 36005KT 10SM CLR M01/M03 A2996 1040 81 -500 360/05 RMK AO2 SLP155 T10061033
94908KDBQ DBQ20000329070009503/29/00 07:00:31  5-MIN KDBQ 291300Z 35007KT 10SM CLR 00/M03 A2996 1040 81 -400 350/07 RMK AO2
94908KDBQ DBQ20000329070509503/29/00 07:05:31  5-MIN KDBQ 291305Z 36007KT 10SM CLR 00/M03 A2996 1040 81 -400 360/07 RMK AO2
94908KDBQ DBQ20000329071009503/29/00 07:10:31  5-MIN KDBQ 291310Z 36006KT 10SM CLR 00/M03 A2996 1040 81 -400 360/06 RMK AO2
94908KDBQ DBQ20000329071509503/29/00 07:15:31  5-MIN KDBQ 291315Z 36005KT 10SM CLR 00/M03 A2997 1040 81 -500 360/05 RMK AO2
94908KDBQ DBQ20000329072009503/29/00 07:20:31  5-MIN KDBQ 291320Z 36006KT 10SM CLR 00/M03 A2997 1040 81 -500 360/06 RMK AO2
94908KDBQ DBQ20000329072509503/29/00 07:25:31  5-MIN KDBQ 291325Z 36006KT 10SM CLR 00/M03 A2997 1030 81 -500 360/06 RMK AO2
94908KDBQ DBQ20000329073009503/29/00 07:30:31  5-MIN KDBQ 291330Z 36007KT 10SM CLR 01/M03 A2997 1030 78 -400 360/07 RMK AO2
94908KDBQ DBQ20000329073509503/29/00 07:35:31  5-MIN KDBQ 291335Z 36007KT 10SM CLR 01/M02 A2997 1030 82 -400 360/07 RMK AO2
94908KDBQ DBQ20000329074009503/29/00 07:40:31  5-MIN KDBQ 291340Z 36008KT 10SM CLR 01/M02 A2997 1030 82 -400 360/08 RMK AO2
94908KDBQ DBQ20000329074509503/29/00 07:45:31  5-MIN KDBQ 291345Z 36008KT 10SM CLR 01/M03 A2997 1030 78 -400 360/08 RMK AO2
94908KDBQ DBQ20000329075011203/29/00 07:50:31  5-MIN KDBQ 291350Z 01007KT 10SM CLR 01/M02 A2997 1030 82 -400 010/07 RMK AO2 SLP159 T00061022
94908KDBQ DBQ20000329075511203/29/00 07:55:31  5-MIN KDBQ 291355Z 36007KT 10SM CLR 01/M02 A2997 1030 78 -300 360/07 RMK AO2 SLP160 T00111022
94908KDBQ DBQ20000329080009503/29/00 08:00:31  5-MIN KDBQ 291400Z 01008KT 10SM CLR 01/M02 A2997 1030 78 -300 360/08 RMK AO2
94908KDBQ DBQ20000329080509503/29/00 08:05:31  5-MIN KDBQ 291405Z 36007KT 10SM CLR 01/M02 A2998 1030 78 -300 360/07 RMK AO2
94908KDBQ DBQ20000329081009503/29/00 08:10:31  5-MIN KDBQ 291410Z 01007KT 10SM CLR 01/M02 A2998 1030 78 -300 010/07 RMK AO2
94908KDBQ DBQ20000329081509503/29/00 08:15:31  5-MIN KDBQ 291415Z 02007KT 10SM CLR 01/M02 A2998 1030 78 -300 020/07 RMK AO2
94908KDBQ DBQ20000329082009503/29/00 08:20:31  5-MIN KDBQ 291420Z 02007KT 10SM CLR 01/M03 A2998 1030 75 -300 020/07 RMK AO2
94908KDBQ DBQ20000329082509503/29/00 08:25:31  5-MIN KDBQ 291425Z 03007KT 10SM CLR 01/M02 A2998 1020 78 -300 030/07 RMK AO2
94908KDBQ DBQ20000329083009503/29/00 08:30:31  5-MIN KDBQ 291430Z 01006KT 10SM CLR 02/M03 A2998 1030 72 -300 010/06 RMK AO2
94908KDBQ DBQ20000329083509503/29/00 08:35:31  5-MIN KDBQ 291435Z 02006KT 10SM CLR 02/M02 A2998 1020 75 -300 020/06 RMK AO2
94908KDBQ DBQ20000329084009503/29/00 08:40:31  5-MIN KDBQ 291440Z 05005KT 10SM CLR 02/M02 A2998 1020 75 -300 050/05 RMK AO2
94908KDBQ DBQ20000329084509503/29/00 08:45:31  5-MIN KDBQ 291445Z 03004KT 10SM CLR 02/M02 A2998 1020 75 -300 030/04 RMK AO2
94908KDBQ DBQ20000329085011803/29/00 08:50:31  5-MIN KDBQ 291450Z 05005KT 10SM CLR 02/M02 A2998 1020 75 -300 050/05 RMK AO2 SLP163 T00171022 53015
94908KDBQ DBQ20000329085511803/29/00 08:55:31  5-MIN KDBQ 291455Z VRB03KT 10SM CLR 02/M02 A2998 1020 72 -200 VRB/03 RMK AO2 SLP163 T00221022 51016
94908KDBQ DBQ20000329090009503/29/00 09:00:31  5-MIN KDBQ 291500Z VRB04KT 10SM CLR 02/M02 A2998 1020 72 -200 VRB/04 RMK AO2
94908KDBQ DBQ20000329090509503/29/00 09:05:31  5-MIN KDBQ 291505Z VRB04KT 10SM CLR 03/M02 A2999 1020 69 -100 VRB/04 RMK AO2
94908KDBQ DBQ20000329091009503/29/00 09:10:31  5-MIN KDBQ 291510Z 02004KT 10SM CLR 03/M02 A2998 1020 69 -100 020/04 RMK AO2
94908KDBQ DBQ20000329091509503/29/00 09:15:31  5-MIN KDBQ 291515Z 30003KT 10SM CLR 03/M02 A2998 1020 69 -100 300/03 RMK AO2
94908KDBQ DBQ20000329092009503/29/00 09:20:31  5-MIN KDBQ 291520Z VRB06KT 10SM CLR 03/M02 A2998 1020 69 -100 VRB/06 RMK AO2
94908KDBQ DBQ20000329092509503/29/00 09:25:31  5-MIN KDBQ 291525Z 03006KT 10SM CLR 03/M02 A2998 1020 70 -100 030/06 RMK AO2
94908KDBQ DBQ20000329093009203/29/00 09:30:31  5-MIN KDBQ 291530Z VRB04KT 10SM CLR 04/M02 A2998 1020 67 0 VRB/04 RMK AO2
94908KDBQ DBQ20000329093509503/29/00 09:35:31  5-MIN KDBQ 291535Z 36006KT 10SM CLR 03/M02 A2998 1020 70 -100 360/06 RMK AO2
94908KDBQ DBQ20000329094009203/29/00 09:40:31  5-MIN KDBQ 291540Z 36007KT 10SM CLR 04/M02 A2998 1020 64 0 360/07 RMK AO2
94908KDBQ DBQ20000329094509203/29/00 09:45:31  5-MIN KDBQ 291545Z VRB03KT 10SM CLR 04/M02 A2998 1020 64 0 VRB/03 RMK AO2
94908KDBQ DBQ20000329095010903/29/00 09:50:31  5-MIN KDBQ 291550Z 31008KT 10SM CLR 04/M02 A2998 1020 64 0 310/08 RMK AO2 SLP161 T00391022
94908KDBQ DBQ20000329095510903/29/00 09:55:31  5-MIN KDBQ 291555Z 32006KT 10SM CLR 04/M02 A2998 1020 64 0 320/06 RMK AO2 SLP161 T00441017
94908KDBQ DBQ20000329100010803/29/00 10:00:31  5-MIN KDBQ 291600Z 33007KT 300V360 10SM CLR 04/M02 A2998 1030 64 0 330/07 300V360 RMK AO2
94908KDBQ DBQ20000329100509203/29/00 10:05:31  5-MIN KDBQ 291605Z 30007KT 10SM CLR 04/M02 A2997 1030 64 0 300/07 RMK AO2
94908KDBQ DBQ20000329101009403/29/00 10:10:31  5-MIN KDBQ 291610Z 33006KT 10SM CLR 05/M02 A2997 1030 62 100 330/06 RMK AO2
94908KDBQ DBQ20000329101511003/29/00 10:15:31  5-MIN KDBQ 291615Z 29007KT 260V330 10SM CLR 05/M02 A2997 1030 59 100 290/07 260V330 RMK AO2
94908KDBQ DBQ20000329102011003/29/00 10:20:31  5-MIN KDBQ 291620Z 36010KT 310V050 10SM CLR 05/M02 A2997 1030 62 100 360/10 310V050 RMK AO2
94908KDBQ DBQ20000329102509403/29/00 10:25:31  5-MIN KDBQ 291625Z 32006KT 10SM CLR 05/M02 A2997 1040 59 100 320/06 RMK AO2
94908KDBQ DBQ20000329103009403/29/00 10:30:31  5-MIN KDBQ 291630Z 35010KT 10SM CLR 05/M02 A2996 1040 62 100 350/10 RMK AO2
94908KDBQ DBQ20000329103509403/29/00 10:35:31  5-MIN KDBQ 291635Z 03006KT 10SM CLR 05/M02 A2996 1040 62 100 030/06 RMK AO2
94908KDBQ DBQ20000329104011003/29/00 10:40:31  5-MIN KDBQ 291640Z 32007KT 290V350 10SM CLR 06/M02 A2996 1040 59 200 320/07 290V350 RMK AO2
94908KDBQ DBQ20000329104509403/29/00 10:45:31  5-MIN KDBQ 291645Z 01008KT 10SM CLR 06/M02 A2996 1040 59 200 010/08 RMK AO2
94908KDBQ DBQ20000329105011103/29/00 10:50:31  5-MIN KDBQ 291650Z 34008KT 10SM CLR 06/M02 A2996 1040 59 200 330/08 RMK AO2 SLP155 T00561017
94908KDBQ DBQ20000329105511103/29/00 10:55:31  5-MIN KDBQ 291655Z 33010KT 10SM CLR 06/M02 A2996 1040 57 300 330/10 RMK AO2 SLP155 T00611017
94908KDBQ DBQ20000329110009403/29/00 11:00:31  5-MIN KDBQ 291700Z 32009KT 10SM CLR 06/M02 A2996 1040 59 200 320/09 RMK AO2
94908KDBQ DBQ20000329110509403/29/00 11:05:31  5-MIN KDBQ 291705Z 34007KT 10SM CLR 06/M02 A2996 1040 57 300 340/07 RMK AO2
94908KDBQ DBQ20000329111009403/29/00 11:10:31  5-MIN KDBQ 291710Z 03007KT 10SM CLR 06/M02 A2996 1040 57 300 020/07 RMK AO2
94908KDBQ DBQ20000329111509403/29/00 11:15:31  5-MIN KDBQ 291715Z 33008KT 10SM CLR 07/M01 A2996 1040 57 300 330/08 RMK AO2
94908KDBQ DBQ20000329112009403/29/00 11:20:31  5-MIN KDBQ 291720Z VRB05KT 10SM CLR 07/M02 A2996 1040 55 300 VRB/05 RMK AO2
94908KDBQ DBQ20000329112509403/29/00 11:25:31  5-MIN KDBQ 291725Z 36008KT 10SM CLR 07/M02 A2996 1040 55 300 360/08 RMK AO2
94908KDBQ DBQ20000329113009403/29/00 11:30:31  5-MIN KDBQ 291730Z VRB05KT 10SM CLR 07/M02 A2996 1040 55 300 VRB/05 RMK AO2
94908KDBQ DBQ20000329113509403/29/00 11:35:31  5-MIN KDBQ 291735Z VRB04KT 10SM CLR 07/M02 A2996 1040 55 300 VRB/04 RMK AO2
94908KDBQ DBQ20000329114011003/29/00 11:40:31  5-MIN KDBQ 291740Z 01007KT 340V070 10SM CLR 07/M02 A2996 1040 55 300 010/07 340V070 RMK AO2
94908KDBQ DBQ20000329114510003/29/00 11:45:31  5-MIN KDBQ 291745Z VRB04G14KT 10SM CLR 07/M01 A2996 1050 55 400 VRB/04G14 RMK AO2
94908KDBQ DBQ20000329115013503/29/00 11:50:31  5-MIN KDBQ 291750Z 02007G14KT 10SM CLR 07/M01 A2996 1050 55 400 020/07G14 RMK AO2 SLP152 T00721011 10072 21017 51016
94908KDBQ DBQ20000329115512903/29/00 11:55:31  5-MIN KDBQ 291755Z 30007KT 10SM CLR 07/M01 A2996 1040 55 400 300/07 RMK AO2 SLP153 T00721011 10072 21017 58009
94908KDBQ DBQ20000329120009403/29/00 12:00:31  5-MIN KDBQ 291800Z VRB06KT 10SM CLR 07/M02 A2996 1040 53 400 VRB/06 RMK AO2
94908KDBQ DBQ20000329120509403/29/00 12:05:31  5-MIN KDBQ 291805Z VRB06KT 10SM CLR 07/M01 A2996 1050 55 400 VRB/06 RMK AO2
94908KDBQ DBQ20000329121009403/29/00 12:10:31  5-MIN KDBQ 291810Z VRB04KT 10SM CLR 07/M01 A2995 1050 55 400 VRB/04 RMK AO2
94908KDBQ DBQ20000329121509403/29/00 12:15:31  5-MIN KDBQ 291815Z VRB04KT 10SM CLR 07/M01 A2995 1050 55 400 VRB/04 RMK AO2
94908KDBQ DBQ20000329122009403/29/00 12:20:31  5-MIN KDBQ 291820Z VRB04KT 10SM CLR 08/M01 A2995 1050 53 500 VRB/04 RMK AO2
94908KDBQ DBQ20000329122509403/29/00 12:25:31  5-MIN KDBQ 291825Z 34006KT 10SM CLR 08/M01 A2995 1050 53 500 340/06 RMK AO2
94908KDBQ DBQ20000329123009403/29/00 12:30:31  5-MIN KDBQ 291830Z 01007KT 10SM CLR 08/M01 A2995 1050 53 500 010/07 RMK AO2
94908KDBQ DBQ20000329123509403/29/00 12:35:31  5-MIN KDBQ 291835Z 02006KT 10SM CLR 08/M01 A2995 1050 53 500 020/06 RMK AO2
94908KDBQ DBQ20000329124009403/29/00 12:40:31  5-MIN KDBQ 291840Z 36009KT 10SM CLR 08/M01 A2994 1060 53 500 360/09 RMK AO2
94908KDBQ DBQ20000329124509403/29/00 12:45:31  5-MIN KDBQ 291845Z 36009KT 10SM CLR 08/M01 A2994 1060 51 600 360/09 RMK AO2
94908KDBQ DBQ20000329125012703/29/00 12:50:31  5-MIN KDBQ 291850Z 35007KT 320V020 10SM CLR 08/M01 A2994 1060 51 600 350/07 320V020 RMK AO2 SLP147 T00831011
94908KDBQ DBQ20000329125511103/29/00 12:55:31  5-MIN KDBQ 291855Z 35008KT 10SM CLR 08/M01 A2994 1060 51 600 350/08 RMK AO2 SLP145 T00831011
94908KDBQ DBQ20000329130009403/29/00 13:00:31  5-MIN KDBQ 291900Z 34008KT 10SM CLR 09/M01 A2994 1060 49 600 340/08 RMK AO2
94908KDBQ DBQ20000329130509403/29/00 13:05:31  5-MIN KDBQ 291905Z VRB05KT 10SM CLR 08/M01 A2993 1060 51 600 VRB/05 RMK AO2
94908KDBQ DBQ20000329131009403/29/00 13:10:31  5-MIN KDBQ 291910Z VRB06KT 10SM CLR 08/M01 A2994 1060 51 600 VRB/06 RMK AO2
94908KDBQ DBQ20000329131509403/29/00 13:15:31  5-MIN KDBQ 291915Z 32005KT 10SM CLR 09/M01 A2993 1070 49 600 310/05 RMK AO2
94908KDBQ DBQ20000329132009403/29/00 13:20:31  5-MIN KDBQ 291920Z 36006KT 10SM CLR 09/M01 A2993 1070 49 600 360/06 RMK AO2
94908KDBQ DBQ20000329132509403/29/00 13:25:31  5-MIN KDBQ 291925Z 35009KT 10SM CLR 09/M01 A2993 1070 47 700 350/09 RMK AO2
94908KDBQ DBQ20000329133009403/29/00 13:30:31  5-MIN KDBQ 291930Z VRB04KT 10SM CLR 09/M02 A2993 1070 47 600 VRB/04 RMK AO2
94908KDBQ DBQ20000329133509403/29/00 13:35:31  5-MIN KDBQ 291935Z VRB05KT 10SM CLR 09/M01 A2993 1070 47 700 VRB/05 RMK AO2
94908KDBQ DBQ20000329134009403/29/00 13:40:31  5-MIN KDBQ 291940Z VRB06KT 10SM CLR 09/M01 A2993 1070 49 700 VRB/06 RMK AO2
94908KDBQ DBQ20000329134509403/29/00 13:45:31  5-MIN KDBQ 291945Z 02008KT 10SM CLR 09/M01 A2993 1070 49 700 020/08 RMK AO2
94908KDBQ DBQ20000329135011103/29/00 13:50:31  5-MIN KDBQ 291950Z 02007KT 10SM CLR 09/M01 A2993 1070 49 700 020/07 RMK AO2 SLP142 T00941006
94908KDBQ DBQ20000329135511103/29/00 13:55:31  5-MIN KDBQ 291955Z 36007KT 10SM CLR 09/M01 A2993 1070 47 700 360/07 RMK AO2 SLP141 T00941011
94908KDBQ DBQ20000329140011003/29/00 14:00:31  5-MIN KDBQ 292000Z 32007KT 280V040 10SM CLR 10/M01 A2993 1070 47 800 320/07 280V040 RMK AO2
94908KDBQ DBQ20000329140509403/29/00 14:05:31  5-MIN KDBQ 292005Z VRB05KT 10SM CLR 09/M02 A2992 1070 45 700 VRB/05 RMK AO2
94908KDBQ DBQ20000329141009403/29/00 14:10:31  5-MIN KDBQ 292010Z VRB06KT 10SM CLR 10/M02 A2992 1080 44 800 VRB/06 RMK AO2
94908KDBQ DBQ20000329141509403/29/00 14:15:31  5-MIN KDBQ 292015Z 02009KT 10SM CLR 10/M01 A2992 1080 46 800 020/09 RMK AO2
94908KDBQ DBQ20000329142011003/29/00 14:20:31  5-MIN KDBQ 292020Z 01007KT 330V050 10SM CLR 09/M02 A2992 1080 45 700 010/07 330V050 RMK AO2
94908KDBQ DBQ20000329142509403/29/00 14:25:31  5-MIN KDBQ 292025Z 03009KT 10SM CLR 10/M01 A2992 1080 46 800 030/09 RMK AO2
94908KDBQ DBQ20000329143009403/29/00 14:30:31  5-MIN KDBQ 292030Z 04008KT 10SM CLR 09/M01 A2992 1080 47 700 040/08 RMK AO2
94908KDBQ DBQ20000329143511003/29/00 14:35:31  5-MIN KDBQ 292035Z 02007KT 350V050 10SM CLR 09/M02 A2992 1080 45 700 020/07 350V050 RMK AO2
94908KDBQ DBQ20000329144009403/29/00 14:40:31  5-MIN KDBQ 292040Z VRB04KT 10SM CLR 09/M01 A2992 1080 47 700 VRB/04 RMK AO2
94908KDBQ DBQ20000329144509403/29/00 14:45:31  5-MIN KDBQ 292045Z 01004KT 10SM CLR 10/M01 A2992 1080 46 800 010/04 RMK AO2
94908KDBQ DBQ20000329145013303/29/00 14:50:31  5-MIN KDBQ 292050Z 03008KT 360V060 10SM CLR 10/M01 A2992 1080 46 800 030/08 360V060 RMK AO2 SLP139 T01001011 58009
94908KDBQ DBQ20000329145511703/29/00 14:55:31  5-MIN KDBQ 292055Z 03005KT 10SM CLR 10/M01 A2992 1080 46 800 030/05 RMK AO2 SLP139 T01001011 56014
94908KDBQ DBQ20000329150009403/29/00 15:00:31  5-MIN KDBQ 292100Z 02007KT 10SM CLR 10/M02 A2992 1080 44 800 020/07 RMK AO2
94908KDBQ DBQ20000329150509403/29/00 15:05:31  5-MIN KDBQ 292105Z VRB05KT 10SM CLR 11/M01 A2991 1090 42 900 VRB/05 RMK AO2
94908KDBQ DBQ20000329151009403/29/00 15:10:31  5-MIN KDBQ 292110Z 02008KT 10SM CLR 11/M01 A2992 1080 46 800 020/08 RMK AO2
94908KDBQ DBQ20000329151509403/29/00 15:15:31  5-MIN KDBQ 292115Z VRB04KT 10SM CLR 11/M01 A2991 1090 44 900 VRB/04 RMK AO2
94908KDBQ DBQ20000329152009403/29/00 15:20:31  5-MIN KDBQ 292120Z 04007KT 10SM CLR 11/M01 A2991 1080 44 900 040/07 RMK AO2
94908KDBQ DBQ20000329152509403/29/00 15:25:31  5-MIN KDBQ 292125Z VRB06KT 10SM CLR 11/M01 A2991 1090 44 900 VRB/06 RMK AO2
94908KDBQ DBQ20000329153009403/29/00 15:30:31  5-MIN KDBQ 292130Z 09004KT 10SM CLR 10/M02 A2991 1090 44 800 080/04 RMK AO2
94908KDBQ DBQ20000329153509403/29/00 15:35:31  5-MIN KDBQ 292135Z 02008KT 10SM CLR 11/M02 A2991 1090 42 900 020/08 RMK AO2
94908KDBQ DBQ20000329154009403/29/00 15:40:31  5-MIN KDBQ 292140Z 02008KT 10SM CLR 11/M02 A2991 1080 42 900 020/08 RMK AO2
94908KDBQ DBQ20000329154509403/29/00 15:45:31  5-MIN KDBQ 292145Z 01010KT 10SM CLR 11/M01 A2991 1080 42 900 360/10 RMK AO2
94908KDBQ DBQ20000329155011103/29/00 15:50:31  5-MIN KDBQ 292150Z VRB05KT 10SM CLR 11/M02 A2991 1090 42 900 VRB/05 RMK AO2 SLP137 T01061017
94908KDBQ DBQ20000329155511103/29/00 15:55:31  5-MIN KDBQ 292155Z 30004KT 10SM CLR 11/M02 A2991 1090 41 900 300/04 RMK AO2 SLP136 T01111017
94908KDBQ DBQ20000329160009403/29/00 16:00:31  5-MIN KDBQ 292200Z 36007KT 10SM CLR 11/M02 A2991 1090 42 900 360/07 RMK AO2
94908KDBQ DBQ20000329160509403/29/00 16:05:31  5-MIN KDBQ 292205Z VRB05KT 10SM CLR 11/M02 A2991 1090 42 900 VRB/05 RMK AO2
94908KDBQ DBQ20000329161009403/29/00 16:10:31  5-MIN KDBQ 292210Z 02008KT 10SM CLR 11/M02 A2992 1080 42 800 020/08 RMK AO2
94908KDBQ DBQ20000329161509403/29/00 16:15:31  5-MIN KDBQ 292215Z 01009KT 10SM CLR 11/M02 A2991 1080 40 800 010/09 RMK AO2
94908KDBQ DBQ20000329162009403/29/00 16:20:31  5-MIN KDBQ 292220Z 36007KT 10SM CLR 11/M03 A2992 1080 39 800 360/07 RMK AO2
94908KDBQ DBQ20000329162509403/29/00 16:25:31  5-MIN KDBQ 292225Z 01007KT 10SM CLR 11/M03 A2992 1080 39 800 010/07 RMK AO2
94908KDBQ DBQ20000329163009403/29/00 16:30:31  5-MIN KDBQ 292230Z 35005KT 10SM CLR 11/M02 A2992 1080 40 800 340/05 RMK AO2
94908KDBQ DBQ20000329163509403/29/00 16:35:31  5-MIN KDBQ 292235Z 34006KT 10SM CLR 11/M02 A2992 1080 40 800 340/06 RMK AO2
94908KDBQ DBQ20000329164009403/29/00 16:40:31  5-MIN KDBQ 292240Z 01004KT 10SM CLR 11/M02 A2992 1080 40 800 010/04 RMK AO2
94908KDBQ DBQ20000329164509403/29/00 16:45:31  5-MIN KDBQ 292245Z 00000KT 10SM CLR 10/M03 A2992 1080 40 800 000/00 RMK AO2
94908KDBQ DBQ20000329165011103/29/00 16:50:31  5-MIN KDBQ 292250Z 35006KT 10SM CLR 11/M02 A2992 1080 40 800 350/06 RMK AO2 SLP140 T01061022
94908KDBQ DBQ20000329165511103/29/00 16:55:31  5-MIN KDBQ 292255Z 36008KT 10SM CLR 11/M02 A2992 1080 40 800 360/08 RMK AO2 SLP139 T01061022
94908KDBQ DBQ20000329170008203/29/00 17:00:31  5-MIN KDBQ 292300Z 10SM 11/M02 A2992 1080 40 800 M /M RMK AO2 $
94908KDBQ DBQ20000329170509203/29/00 17:05:31  5-MIN KDBQ 292305Z 03008KT 10SM 11/M02 A2992 1080 40 800 030/08 RMK AO2 $
94908KDBQ DBQ20000329171009203/29/00 17:10:31  5-MIN KDBQ 292310Z 03008KT 10SM 11/M02 A2992 1080 40 800 030/08 RMK AO2 $
94908KDBQ DBQ20000329171509203/29/00 17:15:31  5-MIN KDBQ 292315Z 03006KT 10SM 11/M03 A2992 1080 39 800 030/06 RMK AO2 $
94908KDBQ DBQ20000329172009203/29/00 17:20:31  5-MIN KDBQ 292320Z 01006KT 10SM 11/M02 A2992 1080 40 800 010/06 RMK AO2 $
94908KDBQ DBQ20000329172509203/29/00 17:25:31  5-MIN KDBQ 292325Z VRB04KT 10SM 10/M02 A2992 1080 42 800 VRB/04 RMK AO2 $
94908KDBQ DBQ20000329173009603/29/00 17:30:31  5-MIN KDBQ 292330Z 00000KT 10SM CLR 10/M03 A2992 1080 40 800 000/00 RMK AO2 $
94908KDBQ DBQ20000329173509603/29/00 17:35:31  5-MIN KDBQ 292335Z 04003KT 10SM CLR 10/M03 A2992 1080 40 800 040/03 RMK AO2 $
94908KDBQ DBQ20000329174009603/29/00 17:40:31  5-MIN KDBQ 292340Z 02007KT 10SM CLR 10/M02 A2992 1070 42 800 010/07 RMK AO2 $
94908KDBQ DBQ20000329174509603/29/00 17:45:31  5-MIN KDBQ 292345Z 02004KT 10SM CLR 10/M02 A2993 1070 42 800 020/04 RMK AO2 $
94908KDBQ DBQ20000329175013703/29/00 17:50:31  5-MIN KDBQ 292350Z 02003KT 10SM CLR 10/M02 A2993 1070 42 800 020/03 RMK AO2 SLP143 6//// T01001022 10111 20072 56014 $
94908KDBQ DBQ20000329175513703/29/00 17:55:31  5-MIN KDBQ 292355Z VRB03KT 10SM CLR 10/M02 A2993 1070 42 800 VRB/03 RMK AO2 SLP144 6//// T01001022 10111 20072 53005 $
94908KDBQ DBQ20000329180009603/29/00 18:00:31  5-MIN KDBQ 300000Z 36005KT 10SM CLR 09/M03 A2993 1070 42 700 360/05 RMK AO2 $
94908KDBQ DBQ20000329180509603/29/00 18:05:31  5-MIN KDBQ 300005Z 36004KT 10SM CLR 09/M03 A2993 1070 40 700 360/04 RMK AO2 $
94908KDBQ DBQ20000329181009603/29/00 18:10:31  5-MIN KDBQ 300010Z 36004KT 10SM CLR 09/M03 A2993 1070 42 600 360/04 RMK AO2 $
94908KDBQ DBQ20000329181509603/29/00 18:15:31  5-MIN KDBQ 300015Z 01003KT 10SM CLR 09/M03 A2993 1070 40 700 010/03 RMK AO2 $
94908KDBQ DBQ20000329182009603/29/00 18:20:31  5-MIN KDBQ 300020Z 01003KT 10SM CLR 09/M03 A2994 1060 43 600 010/03 RMK AO2 $
94908KDBQ DBQ20000329182509603/29/00 18:25:31  5-MIN KDBQ 300025Z 01004KT 10SM CLR 09/M03 A2994 1060 43 600 010/04 RMK AO2 $
94908KDBQ DBQ20000329183009603/29/00 18:30:31  5-MIN KDBQ 300030Z 01003KT 10SM CLR 09/M03 A2994 1060 43 600 360/03 RMK AO2 $
94908KDBQ DBQ20000329183509603/29/00 18:35:31  5-MIN KDBQ 300035Z 03003KT 10SM CLR 09/M03 A2994 1060 42 600 030/03 RMK AO2 $
94908KDBQ DBQ20000329184009603/29/00 18:40:31  5-MIN KDBQ 300040Z 03003KT 10SM CLR 08/M03 A2994 1060 45 600 030/03 RMK AO2 $
94908KDBQ DBQ20000329184509603/29/00 18:45:31  5-MIN KDBQ 300045Z 00000KT 10SM CLR 08/M03 A2994 1060 43 600 000/00 RMK AO2 $
94908KDBQ DBQ20000329185011303/29/00 18:50:31  5-MIN KDBQ 300050Z 00000KT 10SM CLR 08/M03 A2994 1060 47 500 000/00 RMK AO2 SLP148 T00781028 $
94908KDBQ DBQ20000329185511303/29/00 18:55:31  5-MIN KDBQ 300055Z 00000KT 10SM CLR 08/M02 A2994 1060 49 500 000/00 RMK AO2 SLP148 T00781022 $
94908KDBQ DBQ20000329190009603/29/00 19:00:31  5-MIN KDBQ 300100Z 00000KT 10SM CLR 07/M02 A2994 1060 51 400 000/00 RMK AO2 $
94908KDBQ DBQ20000329190509603/29/00 19:05:31  5-MIN KDBQ 300105Z 00000KT 10SM CLR 07/M02 A2995 1050 53 300 000/00 RMK AO2 $
94908KDBQ DBQ20000329191009603/29/00 19:10:31  5-MIN KDBQ 300110Z 00000KT 10SM CLR 07/M02 A2995 1050 53 300 000/00 RMK AO2 $
94908KDBQ DBQ20000329191509603/29/00 19:15:31  5-MIN KDBQ 300115Z 00000KT 10SM CLR 07/M02 A2995 1050 53 300 000/00 RMK AO2 $
94908KDBQ DBQ20000329192009603/29/00 19:20:31  5-MIN KDBQ 300120Z 00000KT 10SM CLR 06/M02 A2995 1050 55 300 000/00 RMK AO2 $
94908KDBQ DBQ20000329192509603/29/00 19:25:31  5-MIN KDBQ 300125Z 00000KT 10SM CLR 06/M02 A2995 1050 55 300 000/00 RMK AO2 $
94908KDBQ DBQ20000329193009603/29/00 19:30:31  5-MIN KDBQ 300130Z 00000KT 10SM CLR 06/M02 A2995 1050 55 300 000/00 RMK AO2 $
94908KDBQ DBQ20000329193509603/29/00 19:35:31  5-MIN KDBQ 300135Z 00000KT 10SM CLR 06/M02 A2996 1050 55 300 000/00 RMK AO2 $
94908KDBQ DBQ20000329194009603/29/00 19:40:31  5-MIN KDBQ 300140Z 00000KT 10SM CLR 06/M02 A2996 1040 55 300 000/00 RMK AO2 $
94908KDBQ DBQ20000329194509603/29/00 19:45:31  5-MIN KDBQ 300145Z 00000KT 10SM CLR 06/M02 A2996 1040 57 200 000/00 RMK AO2 $
94908KDBQ DBQ20000329195012303/29/00 19:50:31  5-MIN KDBQ 300150Z AUTO 00000KT 10SM CLR 06/M02 A2996 1040 57 200 000/00 RMK AO2 SLP155 T00561022 TSNO $
94908KDBQ DBQ20000329195512303/29/00 19:55:31  5-MIN KDBQ 300155Z AUTO 00000KT 10SM CLR 05/M02 A2996 1040 59 100 000/00 RMK AO2 SLP155 T00501022 TSNO $
94908KDBQ DBQ20000329200010603/29/00 20:00:31  5-MIN KDBQ 300200Z AUTO 00000KT 10SM CLR 05/M02 A2997 1040 59 100 000/00 RMK AO2 TSNO $
94908KDBQ DBQ20000329200510603/29/00 20:05:31  5-MIN KDBQ 300205Z AUTO 00000KT 10SM CLR 05/M02 A2997 1040 59 100 000/00 RMK AO2 TSNO $
94908KDBQ DBQ20000329201010403/29/00 20:10:31  5-MIN KDBQ 300210Z AUTO 00000KT 10SM CLR 04/M02 A2997 1040 62 0 000/00 RMK AO2 TSNO $
94908KDBQ DBQ20000329201510403/29/00 20:15:31  5-MIN KDBQ 300215Z AUTO 00000KT 10SM CLR 04/M02 A2997 1040 62 0 000/00 RMK AO2 TSNO $
94908KDBQ DBQ20000329202010403/29/00 20:20:31  5-MIN KDBQ 300220Z AUTO 00000KT 10SM CLR 04/M03 A2997 1030 59 0 000/00 RMK AO2 TSNO $
94908KDBQ DBQ20000329202510603/29/00 20:25:31  5-MIN KDBQ 300225Z AUTO 00000KT 10SM CLR 05/M02 A2997 1040 59 100 000/00 RMK AO2 TSNO $
94908KDBQ DBQ20000329203010403/29/00 20:30:31  5-MIN KDBQ 300230Z AUTO 00000KT 10SM CLR 04/M02 A2997 1030 62 0 000/00 RMK AO2 TSNO $
94908KDBQ DBQ20000329203510403/29/00 20:35:31  5-MIN KDBQ 300235Z AUTO 00000KT 10SM CLR 04/M02 A2997 1030 62 0 000/00 RMK AO2 TSNO $
94908KDBQ DBQ20000329204010403/29/00 20:40:31  5-MIN KDBQ 300240Z AUTO 00000KT 10SM CLR 04/M02 A2997 1030 62 0 000/00 RMK AO2 TSNO $
94908KDBQ DBQ20000329204510403/29/00 20:45:31  5-MIN KDBQ 300245Z AUTO 00000KT 10SM CLR 04/M02 A2997 1030 62 0 000/00 RMK AO2 TSNO $
94908KDBQ DBQ20000329205012703/29/00 20:50:31  5-MIN KDBQ 300250Z AUTO 00000KT 10SM CLR 04/M02 A2997 1030 62 0 000/00 RMK AO2 SLP159 T00441022 53005 TSNO $
94908KDBQ DBQ20000329205512703/29/00 20:55:31  5-MIN KDBQ 300255Z AUTO 00000KT 10SM CLR 04/M02 A2997 1030 64 0 000/00 RMK AO2 SLP158 T00391022 51014 TSNO $
94908KDBQ DBQ20000329210010403/29/00 21:00:31  5-MIN KDBQ 300300Z AUTO 00000KT 10SM CLR 04/M03 A2997 1030 62 0 000/00 RMK AO2 TSNO $
94908KDBQ DBQ20000329210510403/29/00 21:05:31  5-MIN KDBQ 300305Z AUTO 00000KT 10SM CLR 03/M02 A2997 1030 67 0 000/00 RMK AO2 TSNO $
94908KDBQ DBQ20000329211010403/29/00 21:10:31  5-MIN KDBQ 300310Z AUTO 00000KT 10SM CLR 04/M02 A2997 1030 64 0 000/00 RMK AO2 TSNO $
94908KDBQ DBQ20000329211510403/29/00 21:15:31  5-MIN KDBQ 300315Z AUTO 00000KT 10SM CLR 04/M02 A2997 1030 62 0 000/00 RMK AO2 TSNO $
94908KDBQ DBQ20000329212010403/29/00 21:20:31  5-MIN KDBQ 300320Z AUTO 00000KT 10SM CLR 04/M02 A2998 1030 62 0 000/00 RMK AO2 TSNO $
94908KDBQ DBQ20000329212510403/29/00 21:25:31  5-MIN KDBQ 300325Z AUTO 00000KT 10SM CLR 04/M03 A2998 1030 59 0 000/00 RMK AO2 TSNO $
94908KDBQ DBQ20000329213010403/29/00 21:30:31  5-MIN KDBQ 300330Z AUTO 00000KT 10SM CLR 04/M03 A2998 1030 59 0 000/00 RMK AO2 TSNO $
94908KDBQ DBQ20000329213510403/29/00 21:35:31  5-MIN KDBQ 300335Z AUTO 00000KT 10SM CLR 04/M03 A2998 1020 62 0 000/00 RMK AO2 TSNO $
94908KDBQ DBQ20000329214010403/29/00 21:40:31  5-MIN KDBQ 300340Z AUTO 00000KT 10SM CLR 04/M03 A2998 1020 62 0 000/00 RMK AO2 TSNO $
94908KDBQ DBQ20000329214510703/29/00 21:45:31  5-MIN KDBQ 300345Z AUTO 00000KT 10SM CLR 03/M03 A2998 1020 64 -100 000/00 RMK AO2 TSNO $
94908KDBQ DBQ20000329215012103/29/00 21:50:31  5-MIN KDBQ 300350Z AUTO 00000KT 10SM CLR 04/M03 A2998 1020 62 0 000/00 RMK AO2 SLP162 T00391028 TSNO $
94908KDBQ DBQ20000329215512103/29/00 21:55:31  5-MIN KDBQ 300355Z AUTO 00000KT 10SM CLR 04/M03 A2998 1020 59 0 000/00 RMK AO2 SLP162 T00441028 TSNO $
94908KDBQ DBQ20000329220010603/29/00 22:00:31  5-MIN KDBQ 300400Z AUTO 00000KT 10SM CLR 05/M03 A2999 1020 57 100 000/00 RMK AO2 TSNO $
94908KDBQ DBQ20000329220510403/29/00 22:05:31  5-MIN KDBQ 300405Z AUTO 00000KT 10SM CLR 04/M03 A2999 1020 59 0 000/00 RMK AO2 TSNO $
94908KDBQ DBQ20000329221010403/29/00 22:10:31  5-MIN KDBQ 300410Z AUTO 00000KT 10SM CLR 04/M03 A2999 1020 59 0 000/00 RMK AO2 TSNO $
94908KDBQ DBQ20000329221510603/29/00 22:15:31  5-MIN KDBQ 300415Z AUTO 30003KT 10SM CLR 06/M03 A2999 1020 55 200 300/03 RMK AO2 TSNO $
94908KDBQ DBQ20000329222010603/29/00 22:20:31  5-MIN KDBQ 300420Z AUTO 32004KT 10SM CLR 05/M03 A2999 1010 55 100 310/04 RMK AO2 TSNO $
94908KDBQ DBQ20000329222510403/29/00 22:25:31  5-MIN KDBQ 300425Z AUTO 32004KT 10SM CLR 04/M03 A2999 1010 57 0 320/04 RMK AO2 TSNO $
94908KDBQ DBQ20000329223010603/29/00 22:30:31  5-MIN KDBQ 300430Z AUTO 32006KT 10SM CLR 05/M03 A2999 1010 55 100 310/06 RMK AO2 TSNO $
94908KDBQ DBQ20000329223510603/29/00 22:35:31  5-MIN KDBQ 300435Z AUTO 33005KT 10SM CLR 06/M03 A2999 1010 55 200 320/05 RMK AO2 TSNO $
94908KDBQ DBQ20000329224010603/29/00 22:40:31  5-MIN KDBQ 300440Z AUTO 33005KT 10SM CLR 07/M03 A2999 1010 51 300 330/05 RMK AO2 TSNO $
94908KDBQ DBQ20000329224510603/29/00 22:45:31  5-MIN KDBQ 300445Z AUTO 33005KT 10SM CLR 06/M03 A2999 1010 53 200 330/05 RMK AO2 TSNO $
94908KDBQ DBQ20000329225012303/29/00 22:50:31  5-MIN KDBQ 300450Z AUTO 34004KT 10SM CLR 06/M03 A2999 1010 55 200 340/04 RMK AO2 SLP163 T00561028 TSNO $
94908KDBQ DBQ20000329225512303/29/00 22:55:31  5-MIN KDBQ 300455Z AUTO 33004KT 10SM CLR 06/M03 A2999 1010 55 200 330/04 RMK AO2 SLP163 T00561028 TSNO $
94908KDBQ DBQ20000329230010603/29/00 23:00:31  5-MIN KDBQ 300500Z AUTO 33005KT 10SM CLR 06/M03 A2999 1010 55 200 330/05 RMK AO2 TSNO $
94908KDBQ DBQ20000329230510603/29/00 23:05:31  5-MIN KDBQ 300505Z AUTO 34005KT 10SM CLR 05/M03 A3000 1010 57 100 340/05 RMK AO2 TSNO $
94908KDBQ DBQ20000329231010603/29/00 23:10:31  5-MIN KDBQ 300510Z AUTO 35005KT 10SM CLR 05/M03 A3000 1010 57 100 340/05 RMK AO2 TSNO $
94908KDBQ DBQ20000329231510603/29/00 23:15:31  5-MIN KDBQ 300515Z AUTO 35005KT 10SM CLR 06/M03 A3000 1010 55 100 350/05 RMK AO2 TSNO $
94908KDBQ DBQ20000329232010603/29/00 23:20:31  5-MIN KDBQ 300520Z AUTO 35006KT 10SM CLR 06/M03 A3000 1010 55 100 340/06 RMK AO2 TSNO $
94908KDBQ DBQ20000329232510603/29/00 23:25:31  5-MIN KDBQ 300525Z AUTO 34006KT 10SM CLR 05/M03 A3000 1010 57 100 340/06 RMK AO2 TSNO $
94908KDBQ DBQ20000329233010403/29/00 23:30:31  5-MIN KDBQ 300530Z AUTO 34006KT 10SM CLR 04/M03 A3000 1010 59 0 340/06 RMK AO2 TSNO $
94908KDBQ DBQ20000329233510403/29/00 23:35:31  5-MIN KDBQ 300535Z AUTO 34006KT 10SM CLR 04/M03 A3000 1010 59 0 340/06 RMK AO2 TSNO $
94908KDBQ DBQ20000329234010403/29/00 23:40:31  5-MIN KDBQ 300540Z AUTO 34006KT 10SM CLR 04/M03 A3000 1010 62 0 340/06 RMK AO2 TSNO $
94908KDBQ DBQ20000329234510703/29/00 23:45:31  5-MIN KDBQ 300545Z AUTO 35007KT 10SM CLR 03/M03 A3000 1010 64 -100 350/07 RMK AO2 TSNO $
94908KDBQ DBQ20000329235015203/29/00 23:50:31  5-MIN KDBQ 300550Z AUTO 35007KT 10SM CLR 03/M03 A3000 1010 64 -100 350/07 RMK AO2 SLP166 T00331028 10100 20033 401111033 51014 TSNO $
94908KDBQ DBQ20000329235515203/29/00 23:55:31  5-MIN KDBQ 300555Z AUTO 35008KT 10SM CLR 03/M03 A3000 1000 64 -100 350/08 RMK AO2 SLP167 T00331028 10100 20033 401111033 51010 TSNO $
94908KDBQ DBQ20000330000010703/30/00 00:00:31  5-MIN KDBQ 300600Z AUTO 35008KT 10SM CLR 03/M03 A3000 1000 64 -100 350/08 RMK AO2 TSNO $
94908KDBQ DBQ20000330000510703/30/00 00:05:31  5-MIN KDBQ 300605Z AUTO 36008KT 10SM CLR 03/M02 A3000 1000 67 -100 350/08 RMK AO2 TSNO $
94908KDBQ DBQ20000330001010703/30/00 00:10:31  5-MIN KDBQ 300610Z AUTO 36008KT 10SM CLR 03/M02 A3000 1000 67 -100 350/08 RMK AO2 TSNO $
94908KDBQ DBQ20000330001510703/30/00 00:15:31  5-MIN KDBQ 300615Z AUTO 36007KT 10SM CLR 03/M02 A3000 1000 69 -100 360/07 RMK AO2 TSNO $
94908KDBQ DBQ20000330002010703/30/00 00:20:31  5-MIN KDBQ 300620Z AUTO 36007KT 10SM CLR 03/M02 A3000 1000 69 -100 360/07 RMK AO2 TSNO $
94908KDBQ DBQ20000330002510703/30/00 00:25:31  5-MIN KDBQ 300625Z AUTO 01008KT 10SM CLR 03/M02 A3000 1000 69 -100 360/08 RMK AO2 TSNO $
94908KDBQ DBQ20000330003010703/30/00 00:30:31  5-MIN KDBQ 300630Z AUTO 01007KT 10SM CLR 03/M02 A3000 1000 69 -100 360/07 RMK AO2 TSNO $
94908KDBQ DBQ20000330003510703/30/00 00:35:31  5-MIN KDBQ 300635Z AUTO 36007KT 10SM CLR 03/M02 A3000 1000 69 -100 360/07 RMK AO2 TSNO $
94908KDBQ DBQ20000330004010703/30/00 00:40:31  5-MIN KDBQ 300640Z AUTO 36008KT 10SM CLR 03/M02 A3001 1000 69 -200 360/08 RMK AO2 TSNO $
94908KDBQ DBQ20000330004510703/30/00 00:45:31  5-MIN KDBQ 300645Z AUTO 36008KT 10SM CLR 03/M02 A3001 1000 69 -200 360/08 RMK AO2 TSNO $
94908KDBQ DBQ20000330005012403/30/00 00:50:31  5-MIN KDBQ 300650Z AUTO 36008KT 10SM CLR 02/M02 A3001 1000 72 -200 360/08 RMK AO2 SLP168 T00221022 TSNO $
94908KDBQ DBQ20000330005512403/30/00 00:55:31  5-MIN KDBQ 300655Z AUTO 01008KT 10SM CLR 02/M02 A3001 1000 72 -200 360/08 RMK AO2 SLP169 T00221022 TSNO $
94908KDBQ DBQ20000330010010703/30/00 01:00:31  5-MIN KDBQ 300700Z AUTO 01008KT 10SM CLR 02/M02 A3001 1000 72 -200 010/08 RMK AO2 TSNO $
94908KDBQ DBQ20000330010510703/30/00 01:05:31  5-MIN KDBQ 300705Z AUTO 01008KT 10SM CLR 02/M03 A3001 1000 69 -200 010/08 RMK AO2 TSNO $
94908KDBQ DBQ20000330011010703/30/00 01:10:31  5-MIN KDBQ 300710Z AUTO 01008KT 10SM CLR 02/M03 A3001 1000 69 -200 010/08 RMK AO2 TSNO $
94908KDBQ DBQ20000330011510603/30/00 01:15:31  5-MIN KDBQ 300715Z AUTO 01008KT 10SM CLR 02/M03 A3001 990 72 -300 010/08 RMK AO2 TSNO $
94908KDBQ DBQ20000330012010603/30/00 01:20:31  5-MIN KDBQ 300720Z AUTO 01007KT 10SM CLR 02/M03 A3001 990 72 -300 010/07 RMK AO2 TSNO $
94908KDBQ DBQ20000330012510603/30/00 01:25:31  5-MIN KDBQ 300725Z AUTO 36008KT 10SM CLR 02/M03 A3001 990 72 -300 360/08 RMK AO2 TSNO $
94908KDBQ DBQ20000330013010603/30/00 01:30:31  5-MIN KDBQ 300730Z AUTO 01008KT 10SM CLR 02/M03 A3001 990 72 -300 010/08 RMK AO2 TSNO $
94908KDBQ DBQ20000330013510603/30/00 01:35:31  5-MIN KDBQ 300735Z AUTO 01007KT 10SM CLR 02/M03 A3002 990 72 -300 010/07 RMK AO2 TSNO $
94908KDBQ DBQ20000330014010603/30/00 01:40:31  5-MIN KDBQ 300740Z AUTO 01008KT 10SM CLR 02/M03 A3001 990 72 -300 010/08 RMK AO2 TSNO $
94908KDBQ DBQ20000330014510603/30/00 01:45:31  5-MIN KDBQ 300745Z AUTO 01007KT 10SM CLR 02/M03 A3002 990 72 -300 010/07 RMK AO2 TSNO $
94908KDBQ DBQ20000330015012303/30/00 01:50:31  5-MIN KDBQ 300750Z AUTO 01007KT 10SM CLR 02/M03 A3002 990 72 -300 010/07 RMK AO2 SLP171 T00171028 TSNO $
94908KDBQ DBQ20000330015512303/30/00 01:55:31  5-MIN KDBQ 300755Z AUTO 01007KT 10SM CLR 02/M03 A3002 990 72 -300 010/07 RMK AO2 SLP171 T00171028 TSNO $
94908KDBQ DBQ20000330020010603/30/00 02:00:31  5-MIN KDBQ 300800Z AUTO 01007KT 10SM CLR 02/M03 A3002 990 72 -300 010/07 RMK AO2 TSNO $
94908KDBQ DBQ20000330020510603/30/00 02:05:31  5-MIN KDBQ 300805Z AUTO 36006KT 10SM CLR 01/M03 A3002 990 75 -400 360/06 RMK AO2 TSNO $
94908KDBQ DBQ20000330021010603/30/00 02:10:31  5-MIN KDBQ 300810Z AUTO 36006KT 10SM CLR 02/M03 A3002 990 72 -300 360/06 RMK AO2 TSNO $
94908KDBQ DBQ20000330021510603/30/00 02:15:31  5-MIN KDBQ 300815Z AUTO 36006KT 10SM CLR 02/M03 A3002 990 72 -300 360/06 RMK AO2 TSNO $
94908KDBQ DBQ20000330022010603/30/00 02:20:31  5-MIN KDBQ 300820Z AUTO 01005KT 10SM CLR 02/M03 A3002 990 72 -300 010/05 RMK AO2 TSNO $
94908KDBQ DBQ20000330022510603/30/00 02:25:31  5-MIN KDBQ 300825Z AUTO 36006KT 10SM CLR 02/M03 A3002 990 72 -300 360/06 RMK AO2 TSNO $
94908KDBQ DBQ20000330023010603/30/00 02:30:31  5-MIN KDBQ 300830Z AUTO 01006KT 10SM CLR 02/M03 A3002 990 72 -300 010/06 RMK AO2 TSNO $
94908KDBQ DBQ20000330023510603/30/00 02:35:31  5-MIN KDBQ 300835Z AUTO 01005KT 10SM CLR 01/M03 A3002 980 75 -400 010/05 RMK AO2 TSNO $
94908KDBQ DBQ20000330024010603/30/00 02:40:31  5-MIN KDBQ 300840Z AUTO 01005KT 10SM CLR 01/M03 A3002 980 75 -400 010/05 RMK AO2 TSNO $
94908KDBQ DBQ20000330024510603/30/00 02:45:31  5-MIN KDBQ 300845Z AUTO 01005KT 10SM CLR 01/M03 A3002 980 75 -400 010/05 RMK AO2 TSNO $
94908KDBQ DBQ20000330025012903/30/00 02:50:31  5-MIN KDBQ 300850Z AUTO 36005KT 10SM CLR 01/M03 A3002 980 75 -400 360/05 RMK AO2 SLP174 T00111028 51010 TSNO $
94908KDBQ DBQ20000330025512903/30/00 02:55:31  5-MIN KDBQ 300855Z AUTO 02005KT 10SM CLR 02/M03 A3003 980 72 -300 020/05 RMK AO2 SLP174 T00171028 53007 TSNO $
94908KDBQ DBQ20000330030010603/30/00 03:00:31  5-MIN KDBQ 300900Z AUTO 02006KT 10SM CLR 01/M03 A3003 980 75 -400 020/06 RMK AO2 TSNO $
94908KDBQ DBQ20000330030510603/30/00 03:05:31  5-MIN KDBQ 300905Z AUTO 01006KT 10SM CLR 01/M03 A3003 980 75 -400 010/06 RMK AO2 TSNO $
94908KDBQ DBQ20000330031010603/30/00 03:10:31  5-MIN KDBQ 300910Z AUTO 01006KT 10SM CLR 01/M03 A3003 980 75 -500 010/06 RMK AO2 TSNO $
94908KDBQ DBQ20000330031510603/30/00 03:15:31  5-MIN KDBQ 300915Z AUTO 01006KT 10SM CLR 01/M03 A3003 980 75 -400 010/06 RMK AO2 TSNO $
94908KDBQ DBQ20000330032010603/30/00 03:20:31  5-MIN KDBQ 300920Z AUTO 01007KT 10SM CLR 01/M03 A3003 980 72 -400 010/07 RMK AO2 TSNO $
94908KDBQ DBQ20000330032510603/30/00 03:25:31  5-MIN KDBQ 300925Z AUTO 01007KT 10SM CLR 01/M03 A3003 980 75 -500 010/07 RMK AO2 TSNO $
94908KDBQ DBQ20000330033010603/30/00 03:30:31  5-MIN KDBQ 300930Z AUTO 02007KT 10SM CLR 00/M03 A3003 980 78 -500 010/07 RMK AO2 TSNO $
94908KDBQ DBQ20000330033510603/30/00 03:35:31  5-MIN KDBQ 300935Z AUTO 02007KT 10SM CLR 01/M03 A3003 980 78 -500 020/07 RMK AO2 TSNO $
94908KDBQ DBQ20000330034010603/30/00 03:40:31  5-MIN KDBQ 300940Z AUTO 01007KT 10SM CLR 01/M03 A3003 980 78 -500 010/07 RMK AO2 TSNO $
94908KDBQ DBQ20000330034510603/30/00 03:45:31  5-MIN KDBQ 300945Z AUTO 01007KT 10SM CLR 01/M03 A3003 980 78 -500 010/07 RMK AO2 TSNO $
94908KDBQ DBQ20000330035012303/30/00 03:50:31  5-MIN KDBQ 300950Z AUTO 01006KT 10SM CLR 01/M03 A3003 980 78 -500 010/06 RMK AO2 SLP176 T00061028 TSNO $
94908KDBQ DBQ20000330035512303/30/00 03:55:31  5-MIN KDBQ 300955Z AUTO 01007KT 10SM CLR 01/M03 A3003 980 78 -500 010/07 RMK AO2 SLP177 T00061028 TSNO $
94908KDBQ DBQ20000330040010603/30/00 04:00:31  5-MIN KDBQ 301000Z AUTO 01006KT 10SM CLR 00/M03 A3003 980 78 -500 010/06 RMK AO2 TSNO $
94908KDBQ DBQ20000330040510603/30/00 04:05:31  5-MIN KDBQ 301005Z AUTO 01006KT 10SM CLR 01/M03 A3003 970 78 -500 010/06 RMK AO2 TSNO $
94908KDBQ DBQ20000330041010603/30/00 04:10:31  5-MIN KDBQ 301010Z AUTO 01006KT 10SM CLR 00/M03 A3003 970 81 -500 010/06 RMK AO2 TSNO $
94908KDBQ DBQ20000330041510603/30/00 04:15:31  5-MIN KDBQ 301015Z AUTO 01005KT 10SM CLR 01/M03 A3004 970 78 -500 010/05 RMK AO2 TSNO $
94908KDBQ DBQ20000330042010603/30/00 04:20:31  5-MIN KDBQ 301020Z AUTO 01006KT 10SM CLR 00/M03 A3004 970 78 -500 010/06 RMK AO2 TSNO $
94908KDBQ DBQ20000330042510603/30/00 04:25:31  5-MIN KDBQ 301025Z AUTO 01006KT 10SM CLR 00/M03 A3004 970 78 -500 360/06 RMK AO2 TSNO $
94908KDBQ DBQ20000330043010603/30/00 04:30:31  5-MIN KDBQ 301030Z AUTO 01007KT 10SM CLR 00/M03 A3004 970 81 -500 360/07 RMK AO2 TSNO $
94908KDBQ DBQ20000330043510603/30/00 04:35:31  5-MIN KDBQ 301035Z AUTO 36007KT 10SM CLR 00/M03 A3004 970 81 -500 360/07 RMK AO2 TSNO $
94908KDBQ DBQ20000330044010603/30/00 04:40:31  5-MIN KDBQ 301040Z AUTO 36007KT 10SM CLR 00/M03 A3004 970 81 -500 360/07 RMK AO2 TSNO $
94908KDBQ DBQ20000330044510603/30/00 04:45:31  5-MIN KDBQ 301045Z AUTO 36007KT 10SM CLR 00/M03 A3004 970 81 -500 360/07 RMK AO2 TSNO $
94908KDBQ DBQ20000330045012303/30/00 04:50:31  5-MIN KDBQ 301050Z AUTO 36007KT 10SM CLR 00/M03 A3004 960 81 -500 360/07 RMK AO2 SLP180 T00001028 TSNO $
94908KDBQ DBQ20000330045512303/30/00 04:55:31  5-MIN KDBQ 301055Z AUTO 01007KT 10SM CLR 00/M03 A3004 960 81 -500 010/07 RMK AO2 SLP181 T00001028 TSNO $
94908KDBQ DBQ20000330050010603/30/00 05:00:31  5-MIN KDBQ 301100Z AUTO 01007KT 10SM CLR 00/M03 A3004 960 81 -500 360/07 RMK AO2 TSNO $
94908KDBQ DBQ20000330050510603/30/00 05:05:31  5-MIN KDBQ 301105Z AUTO 01007KT 10SM CLR 00/M03 A3005 960 81 -500 360/07 RMK AO2 TSNO $
94908KDBQ DBQ20000330051010603/30/00 05:10:31  5-MIN KDBQ 301110Z AUTO 36007KT 10SM CLR 00/M03 A3005 960 81 -500 360/07 RMK AO2 TSNO $
94908KDBQ DBQ20000330051510603/30/00 05:15:31  5-MIN KDBQ 301115Z AUTO 36007KT 10SM CLR 00/M03 A3005 960 81 -500 360/07 RMK AO2 TSNO $
94908KDBQ DBQ20000330052010603/30/00 05:20:31  5-MIN KDBQ 301120Z AUTO 36008KT 10SM CLR 00/M03 A3005 960 81 -500 360/08 RMK AO2 TSNO $
94908KDBQ DBQ20000330052510703/30/00 05:25:31  5-MIN KDBQ 301125Z AUTO 36008KT 10SM CLR M01/M03 A3005 960 85 -600 360/08 RMK AO2 TSNO $
94908KDBQ DBQ20000330053010603/30/00 05:30:31  5-MIN KDBQ 301130Z AUTO 36008KT 10SM CLR 00/M03 A3005 960 81 -600 360/08 RMK AO2 TSNO $
94908KDBQ DBQ20000330053510603/30/00 05:35:31  5-MIN KDBQ 301135Z AUTO 01008KT 10SM CLR 00/M03 A3005 960 81 -600 360/08 RMK AO2 TSNO $
94908KDBQ DBQ20000330054010603/30/00 05:40:31  5-MIN KDBQ 301140Z AUTO 36008KT 10SM CLR 00/M03 A3005 960 81 -600 360/08 RMK AO2 TSNO $
94908KDBQ DBQ20000330054510703/30/00 05:45:31  5-MIN KDBQ 301145Z AUTO 36007KT 10SM CLR M01/M03 A3006 950 85 -600 360/07 RMK AO2 TSNO $
94908KDBQ DBQ20000330055013703/30/00 05:50:31  5-MIN KDBQ 301150Z 01007KT 9SM CLR M01/M03 A3006 950 85 -600 010/07 RMK AO2 SLP186 7//// T10061028 10033 21006 53007 $
94908KDBQ DBQ20000330055513703/30/00 05:55:31  5-MIN KDBQ 301155Z 01007KT 8SM CLR M01/M03 A3006 950 85 -700 010/07 RMK AO2 SLP188 7//// T10111033 10033 21011 53011 $
94908KDBQ DBQ20000330060009603/30/00 06:00:31  5-MIN KDBQ 301200Z 36006KT 8SM CLR M01/M03 A3006 950 85 -700 360/06 RMK AO2 $
94908KDBQ DBQ20000330060509603/30/00 06:05:31  5-MIN KDBQ 301205Z 36006KT 7SM CLR M01/M03 A3006 950 85 -600 360/06 RMK AO2 $
94908KDBQ DBQ20000330061009703/30/00 06:10:31  5-MIN KDBQ 301210Z 36006KT 10SM CLR M01/M03 A3007 940 85 -600 360/06 RMK AO2 $
94908KDBQ DBQ20000330061509703/30/00 06:15:31  5-MIN KDBQ 301215Z 36006KT 10SM CLR M01/M03 A3007 940 85 -600 360/06 RMK AO2 $
94908KDBQ DBQ20000330062009603/30/00 06:20:31  5-MIN KDBQ 301220Z 36006KT 8SM CLR M01/M03 A3007 940 85 -600 360/06 RMK AO2 $
94908KDBQ DBQ20000330062509503/30/00 06:25:31  5-MIN KDBQ 301225Z 36007KT 8SM CLR 00/M02 A3007 940 85 -600 360/07 RMK AO2 $
94908KDBQ DBQ20000330063009503/30/00 06:30:31  5-MIN KDBQ 301230Z 01006KT 8SM CLR 01/M02 A3007 940 82 -500 010/06 RMK AO2 $
94908KDBQ DBQ20000330063509503/30/00 06:35:31  5-MIN KDBQ 301235Z 01006KT 9SM CLR 01/M02 A3007 940 82 -500 010/06 RMK AO2 $
94908KDBQ DBQ20000330064009503/30/00 06:40:31  5-MIN KDBQ 301240Z 01006KT 8SM CLR 01/M02 A3007 940 82 -400 010/06 RMK AO2 $
94908KDBQ DBQ20000330064509603/30/00 06:45:31  5-MIN KDBQ 301245Z 02006KT 10SM CLR 01/M02 A3008 940 82 -400 020/06 RMK AO2 $
94908KDBQ DBQ20000330065011303/30/00 06:50:31  5-MIN KDBQ 301250Z 02006KT 10SM CLR 02/M02 A3008 930 78 -400 020/06 RMK AO2 SLP193 T00171017 $
94908KDBQ DBQ20000330065511303/30/00 06:55:31  5-MIN KDBQ 301255Z 03006KT 10SM CLR 02/M02 A3008 930 75 -300 030/06 RMK AO2 SLP194 T00221017 $
94908KDBQ DBQ20000330070009503/30/00 07:00:31  5-MIN KDBQ 301300Z 03006KT 7SM CLR 02/M02 A3008 930 75 -300 030/06 RMK AO2 $
94908KDBQ DBQ20000330070509503/30/00 07:05:31  5-MIN KDBQ 301305Z 01007KT 7SM CLR 03/M02 A3008 930 72 -200 010/07 RMK AO2 $
94908KDBQ DBQ20000330071009503/30/00 07:10:31  5-MIN KDBQ 301310Z 01006KT 7SM CLR 03/M02 A3008 930 72 -200 010/06 RMK AO2 $
94908KDBQ DBQ20000330071509503/30/00 07:15:31  5-MIN KDBQ 301315Z 01008KT 7SM CLR 03/M02 A3008 930 72 -200 010/08 RMK AO2 $
94908KDBQ DBQ20000330072009503/30/00 07:20:31  5-MIN KDBQ 301320Z 01008KT 8SM CLR 03/M02 A3008 930 72 -200 010/08 RMK AO2 $
94908KDBQ DBQ20000330072509503/30/00 07:25:31  5-MIN KDBQ 301325Z 01007KT 8SM CLR 03/M01 A3008 930 72 -200 010/07 RMK AO2 $
94908KDBQ DBQ20000330073009503/30/00 07:30:31  5-MIN KDBQ 301330Z 01007KT 8SM CLR 03/M01 A3008 930 72 -200 010/07 RMK AO2 $
94908KDBQ DBQ20000330073509503/30/00 07:35:31  5-MIN KDBQ 301335Z 01007KT 8SM CLR 03/M01 A3008 930 76 -200 010/07 RMK AO2 $
94908KDBQ DBQ20000330074009503/30/00 07:40:31  5-MIN KDBQ 301340Z 36009KT 7SM CLR 03/M01 A3008 930 72 -200 360/09 RMK AO2 $
94908KDBQ DBQ20000330074509503/30/00 07:45:31  5-MIN KDBQ 301345Z 36009KT 8SM CLR 03/M01 A3008 930 72 -200 360/09 RMK AO2 $
94908KDBQ DBQ20000330075011203/30/00 07:50:31  5-MIN KDBQ 301350Z 36008KT 8SM CLR 03/M01 A3008 930 72 -200 360/08 RMK AO2 SLP196 T00331011 $
94908KDBQ DBQ20000330075511203/30/00 07:55:31  5-MIN KDBQ 301355Z 01008KT 9SM CLR 04/M01 A3008 930 73 -100 010/08 RMK AO2 SLP196 T00391006 $
94908KDBQ DBQ20000330080009603/30/00 08:00:31  5-MIN KDBQ 301400Z 02008KT 10SM CLR 04/M01 A3009 930 70 -100 010/08 RMK AO2 $
94908KDBQ DBQ20000330080509603/30/00 08:05:31  5-MIN KDBQ 301405Z 02009KT 10SM CLR 04/M01 A3008 930 70 -100 010/09 RMK AO2 $
94908KDBQ DBQ20000330081009303/30/00 08:10:31  5-MIN KDBQ 301410Z 02008KT 10SM CLR 04/M01 A3008 930 70 0 020/08 RMK AO2 $
94908KDBQ DBQ20000330081509303/30/00 08:15:31  5-MIN KDBQ 301415Z 02008KT 10SM CLR 04/M01 A3009 920 67 0 020/08 RMK AO2 $
94908KDBQ DBQ20000330082009303/30/00 08:20:31  5-MIN KDBQ 301420Z 02007KT 10SM CLR 05/M01 A3009 920 67 0 010/07 RMK AO2 $
94908KDBQ DBQ20000330082509303/30/00 08:25:31  5-MIN KDBQ 301425Z 01007KT 10SM CLR 05/M01 A3009 920 67 0 360/07 RMK AO2 $
94908KDBQ DBQ20000330083009303/30/00 08:30:31  5-MIN KDBQ 301430Z 01006KT 10SM CLR 05/M01 A3009 920 67 0 010/06 RMK AO2 $
94908KDBQ DBQ20000330083509203/30/00 08:35:31  5-MIN KDBQ 301435Z 36007KT 10SM CLR 06/00 A3009 920 67 0 360/07 RMK AO2 $
94908KDBQ DBQ20000330084009203/30/00 08:40:31  5-MIN KDBQ 301440Z 36007KT 10SM CLR 06/00 A3009 920 67 0 360/07 RMK AO2 $
94908KDBQ DBQ20000330084509403/30/00 08:45:31  5-MIN KDBQ 301445Z 36006KT 10SM CLR 06/00 A3010 920 65 100 360/06 RMK AO2 $
94908KDBQ DBQ20000330085011803/30/00 08:50:31  5-MIN KDBQ 301450Z 36006KT 10SM CLR 07/M01 A3010 920 60 200 360/06 RMK AO2 SLP198 T00671006 53011 $
94908KDBQ DBQ20000330085511803/30/00 08:55:31  5-MIN KDBQ 301455Z 36007KT 10SM CLR 07/M01 A3009 920 60 200 360/07 RMK AO2 SLP198 T00671006 51012 $
94908KDBQ DBQ20000330090009503/30/00 09:00:31  5-MIN KDBQ 301500Z 02007KT 10SM CLR 07/M01 A3009 920 57 200 020/07 RMK AO2 $
94908KDBQ DBQ20000330090509503/30/00 09:05:31  5-MIN KDBQ 301505Z 01008KT 10SM CLR 07/M01 A3010 920 57 200 010/08 RMK AO2 $
94908KDBQ DBQ20000330091009303/30/00 09:10:31  5-MIN KDBQ 301510Z 36008KT 10SM CLR 07/M01 A3010 910 57 200 360/08 RMK AO2
94908KDBQ DBQ20000330091509303/30/00 09:15:31  5-MIN KDBQ 301515Z 36007KT 10SM CLR 08/M01 A3010 910 55 300 360/07 RMK AO2
94908KDBQ DBQ20000330092009303/30/00 09:20:31  5-MIN KDBQ 301520Z 36008KT 10SM CLR 08/M02 A3010 910 51 300 360/08 RMK AO2
94908KDBQ DBQ20000330092007503/30/00 09:20:31  5-MIN KDBQ 301520Z AUTO M M M M /M RMK AO2 FZRANO TSNO $
94908KDBQ DBQ20000330092509603/30/00 09:25:31  5-MIN KDBQ 301525Z AUTO 01008KT 08/M02 A3010 910 51 300 010/08 RMK AO2 TSNO $
94908KDBQ DBQ20000330093009403/30/00 09:30:31  5-MIN KDBQ 301530Z AUTO 02009KT 08/M02 A3010 910 49 300 020/09 RMK AO2 TSNO
94908KDBQ DBQ20000330093509903/30/00 09:35:31  5-MIN KDBQ 301535Z AUTO 01008KT 10SM 08/M02 A3010 910 49 300 010/08 RMK AO2 TSNO
94908KDBQ DBQ20000330094008903/30/00 09:40:31  5-MIN KDBQ 301540Z 36009KT 10SM 08/M02 A3010 910 47 400 360/09 RMK AO2
94908KDBQ DBQ20000330094508903/30/00 09:45:31  5-MIN KDBQ 301545Z 35008KT 10SM 08/M02 A3010 910 49 300 350/08 RMK AO2
94908KDBQ DBQ20000330095010603/30/00 09:50:31  5-MIN KDBQ 301550Z VRB04KT 10SM 08/M03 A3010 910 47 300 VRB/04 RMK AO2 SLP201 T00781028
94908KDBQ DBQ20000330095511003/30/00 09:55:31  5-MIN KDBQ 301555Z 03007KT 10SM CLR 08/M02 A3011 910 47 400 030/07 RMK AO2 SLP202 T00831022
94908KDBQ DBQ20000330100009303/30/00 10:00:31  5-MIN KDBQ 301600Z 04005KT 10SM CLR 08/M03 A3011 910 47 300 040/05 RMK AO2
94908KDBQ DBQ20000330100509303/30/00 10:05:31  5-MIN KDBQ 301605Z 36007KT 10SM CLR 08/M03 A3011 910 47 300 360/07 RMK AO2
94908KDBQ DBQ20000330101009303/30/00 10:10:31  5-MIN KDBQ 301610Z VRB05KT 10SM CLR 08/M03 A3010 910 45 300 VRB/05 RMK AO2
94908KDBQ DBQ20000330101509303/30/00 10:15:31  5-MIN KDBQ 301615Z 01006KT 10SM CLR 08/M03 A3010 910 43 400 010/06 RMK AO2
94908KDBQ DBQ20000330102009303/30/00 10:20:31  5-MIN KDBQ 301620Z VRB04KT 10SM CLR 08/M04 A3010 910 40 400 VRB/04 RMK AO2
94908KDBQ DBQ20000330102509303/30/00 10:25:31  5-MIN KDBQ 301625Z 03006KT 10SM CLR 08/M04 A3010 910 42 400 030/06 RMK AO2
94908KDBQ DBQ20000330103009303/30/00 10:30:31  5-MIN KDBQ 301630Z 03005KT 10SM CLR 09/M03 A3010 910 42 400 030/05 RMK AO2
94908KDBQ DBQ20000330103509303/30/00 10:35:31  5-MIN KDBQ 301635Z VRB03KT 10SM CLR 08/M03 A3010 910 43 400 VRB/03 RMK AO2
94908KDBQ DBQ20000330104009303/30/00 10:40:31  5-MIN KDBQ 301640Z VRB05KT 10SM CLR 09/M03 A3010 910 43 400 VRB/05 RMK AO2
94908KDBQ DBQ20000330104509303/30/00 10:45:31  5-MIN KDBQ 301645Z 03008KT 10SM CLR 09/M03 A3011 910 42 500 030/08 RMK AO2
94908KDBQ DBQ20000330105011003/30/00 10:50:31  5-MIN KDBQ 301650Z 04007KT 10SM CLR 09/M03 A3011 910 42 400 040/07 RMK AO2 SLP201 T00891033
94908KDBQ DBQ20000330105511003/30/00 10:55:31  5-MIN KDBQ 301655Z 06005KT 10SM CLR 09/M04 A3011 910 40 400 050/05 RMK AO2 SLP202 T00891039
94908KDBQ DBQ20000330110009303/30/00 11:00:31  5-MIN KDBQ 301700Z 36006KT 10SM CLR 09/M03 A3011 900 40 500 360/06 RMK AO2
94908KDBQ DBQ20000330110509303/30/00 11:05:31  5-MIN KDBQ 301705Z 03006KT 10SM CLR 09/M04 A3011 900 40 400 030/06 RMK AO2
94908KDBQ DBQ20000330111009303/30/00 11:10:31  5-MIN KDBQ 301710Z VRB05KT 10SM CLR 09/M04 A3011 910 37 500 VRB/05 RMK AO2
94908KDBQ DBQ20000330111509303/30/00 11:15:31  5-MIN KDBQ 301715Z VRB05KT 10SM CLR 09/M04 A3011 910 37 500 VRB/05 RMK AO2
94908KDBQ DBQ20000330112009303/30/00 11:20:31  5-MIN KDBQ 301720Z 05003KT 10SM CLR 09/M05 A3011 910 35 500 050/03 RMK AO2
94908KDBQ DBQ20000330112509303/30/00 11:25:31  5-MIN KDBQ 301725Z VRB05KT 10SM CLR 09/M06 A3011 910 34 500 VRB/05 RMK AO2
94908KDBQ DBQ20000330113009303/30/00 11:30:31  5-MIN KDBQ 301730Z 35007KT 10SM CLR 10/M04 A3011 900 36 600 340/07 RMK AO2
94908KDBQ DBQ20000330113509303/30/00 11:35:31  5-MIN KDBQ 301735Z 01007KT 10SM CLR 10/M06 A3011 910 33 600 010/07 RMK AO2
94908KDBQ DBQ20000330114009303/30/00 11:40:31  5-MIN KDBQ 301740Z 01006KT 10SM CLR 10/M06 A3011 900 33 600 010/06 RMK AO2
94908KDBQ DBQ20000330114509303/30/00 11:45:31  5-MIN KDBQ 301745Z 32008KT 10SM CLR 10/M04 A3011 900 36 600 320/08 RMK AO2
94908KDBQ DBQ20000330115012803/30/00 11:50:31  5-MIN KDBQ 301750Z VRB05KT 10SM CLR 10/M04 A3011 900 36 600 VRB/05 RMK AO2 SLP203 6//// T01001044 10100 21011
94908KDBQ DBQ20000330115512803/30/00 11:55:31  5-MIN KDBQ 301755Z 35007KT 10SM CLR 11/M04 A3010 910 34 600 350/07 RMK AO2 SLP200 6//// T01061044 10106 21011
94908KDBQ DBQ20000330120009303/30/00 12:00:31  5-MIN KDBQ 301800Z 20003KT 10SM CLR 09/M06 A3010 910 34 500 200/03 RMK AO2
94908KDBQ DBQ20000330120509303/30/00 12:05:31  5-MIN KDBQ 301805Z 31008KT 10SM CLR 11/M04 A3010 910 36 600 300/08 RMK AO2
94908KDBQ DBQ20000330121009303/30/00 12:10:31  5-MIN KDBQ 301810Z VRB04KT 10SM CLR 11/M04 A3010 910 36 600 VRB/04 RMK AO2
94908KDBQ DBQ20000330121509303/30/00 12:15:31  5-MIN KDBQ 301815Z 31007KT 10SM CLR 11/M04 A3010 910 36 600 310/07 RMK AO2
94908KDBQ DBQ20000330122009303/30/00 12:20:31  5-MIN KDBQ 301820Z VRB05KT 10SM CLR 10/M04 A3010 910 36 600 VRB/05 RMK AO2
94908KDBQ DBQ20000330122509303/30/00 12:25:31  5-MIN KDBQ 301825Z 00000KT 10SM CLR 11/M04 A3010 910 36 600 000/00 RMK AO2
94908KDBQ DBQ20000330123009303/30/00 12:30:31  5-MIN KDBQ 301830Z VRB03KT 10SM CLR 11/M03 A3010 910 37 600 VRB/03 RMK AO2
94908KDBQ DBQ20000330123509303/30/00 12:35:31  5-MIN KDBQ 301835Z 00000KT 10SM CLR 11/M03 A3010 910 39 600 000/00 RMK AO2
94908KDBQ DBQ20000330124009303/30/00 12:40:31  5-MIN KDBQ 301840Z 34005KT 10SM CLR 12/M02 A3010 910 39 800 340/05 RMK AO2
94908KDBQ DBQ20000330124509303/30/00 12:45:31  5-MIN KDBQ 301845Z 28007KT 10SM CLR 11/M02 A3010 920 39 700 280/07 RMK AO2
94908KDBQ DBQ20000330125011003/30/00 12:50:31  5-MIN KDBQ 301850Z VRB05KT 10SM CLR 11/M03 A3009 920 37 700 VRB/05 RMK AO2 SLP198 T01111028
94908KDBQ DBQ20000330125512603/30/00 12:55:31  5-MIN KDBQ 301855Z 30008KT 240V330 10SM CLR 12/M02 A3009 920 38 800 300/08 240V330 RMK AO2 SLP197 T01171022
94908KDBQ DBQ20000330130009303/30/00 13:00:31  5-MIN KDBQ 301900Z 29007KT 10SM CLR 12/M02 A3009 920 38 800 290/07 RMK AO2
94908KDBQ DBQ20000330130509303/30/00 13:05:31  5-MIN KDBQ 301905Z VRB05KT 10SM CLR 11/M03 A3009 920 37 700 VRB/05 RMK AO2
94908KDBQ DBQ20000330131009303/30/00 13:10:31  5-MIN KDBQ 301910Z 27006KT 10SM CLR 11/M03 A3009 920 36 700 270/06 RMK AO2
94908KDBQ DBQ20000330131509303/30/00 13:15:31  5-MIN KDBQ 301915Z 29009KT 10SM CLR 12/M03 A3009 920 36 800 290/09 RMK AO2
94908KDBQ DBQ20000330132009303/30/00 13:20:31  5-MIN KDBQ 301920Z 30008KT 10SM CLR 12/M03 A3009 920 35 800 300/08 RMK AO2
94908KDBQ DBQ20000330132510903/30/00 13:25:31  5-MIN KDBQ 301925Z 31007KT 270V340 10SM CLR 12/M03 A3009 920 35 800 310/07 270V340 RMK AO2
94908KDBQ DBQ20000330133009303/30/00 13:30:31  5-MIN KDBQ 301930Z VRB04KT 10SM CLR 12/M03 A3009 920 35 800 VRB/04 RMK AO2
94908KDBQ DBQ20000330133509303/30/00 13:35:31  5-MIN KDBQ 301935Z VRB04KT 10SM CLR 12/M04 A3009 920 32 900 VRB/04 RMK AO2
94908KDBQ DBQ20000330134009303/30/00 13:40:31  5-MIN KDBQ 301940Z 30005KT 10SM CLR 12/M03 A3009 920 35 800 300/05 RMK AO2
94908KDBQ DBQ20000330134509303/30/00 13:45:31  5-MIN KDBQ 301945Z 32005KT 10SM CLR 12/M03 A3009 920 35 800 320/05 RMK AO2
94908KDBQ DBQ20000330135011003/30/00 13:50:31  5-MIN KDBQ 301950Z VRB04KT 10SM CLR 12/M03 A3009 930 35 800 VRB/04 RMK AO2 SLP195 T01171033
94908KDBQ DBQ20000330135511003/30/00 13:55:31  5-MIN KDBQ 301955Z VRB06KT 10SM CLR 12/M02 A3008 930 36 900 VRB/06 RMK AO2 SLP194 T01221022
94908KDBQ DBQ20000330140009303/30/00 14:00:31  5-MIN KDBQ 302000Z VRB03KT 10SM CLR 12/M03 A3009 920 35 900 VRB/03 RMK AO2
94908KDBQ DBQ20000330140509303/30/00 14:05:31  5-MIN KDBQ 302005Z 34006KT 10SM CLR 12/M03 A3009 930 35 900 340/06 RMK AO2
94908KDBQ DBQ20000330141009303/30/00 14:10:31  5-MIN KDBQ 302010Z 34005KT 10SM CLR 12/M03 A3009 930 33 900 340/05 RMK AO2
94908KDBQ DBQ20000330141509303/30/00 14:15:31  5-MIN KDBQ 302015Z 31004KT 10SM CLR 12/M04 A3008 930 32 900 300/04 RMK AO2
94908KDBQ DBQ20000330142009303/30/00 14:20:31  5-MIN KDBQ 302020Z 28006KT 10SM CLR 12/M04 A3008 930 33 800 280/06 RMK AO2
94908KDBQ DBQ20000330142509303/30/00 14:25:31  5-MIN KDBQ 302025Z VRB03KT 10SM CLR 12/M03 A3008 930 33 900 VRB/03 RMK AO2
94908KDBQ DBQ20000330143009303/30/00 14:30:31  5-MIN KDBQ 302030Z 30006KT 10SM CLR 13/M03 A3008 930 33 900 300/06 RMK AO2
94908KDBQ DBQ20000330143509303/30/00 14:35:31  5-MIN KDBQ 302035Z 33006KT 10SM CLR 13/M03 A3008 930 33 900 330/06 RMK AO2
94908KDBQ DBQ20000330144009303/30/00 14:40:31  5-MIN KDBQ 302040Z 00000KT 10SM CLR 12/M03 A3008 930 33 900 000/00 RMK AO2
94908KDBQ DBQ20000330144509303/30/00 14:45:31  5-MIN KDBQ 302045Z 29006KT 10SM CLR 12/M03 A3008 930 33 900 290/06 RMK AO2
94908KDBQ DBQ20000330145011003/30/00 14:50:31  5-MIN KDBQ 302050Z 01009KT 10SM CLR 13/M02 A3008 930 35 900 010/09 RMK AO2 SLP193 T01281022
94908KDBQ DBQ20000330145511603/30/00 14:55:31  5-MIN KDBQ 302055Z VRB06KT 10SM CLR 13/M03 A3008 930 33 900 VRB/06 RMK AO2 SLP193 T01281028 56006
94908KDBQ DBQ20000330150009303/30/00 15:00:31  5-MIN KDBQ 302100Z 00000KT 10SM CLR 12/M04 A3008 930 32 900 000/00 RMK AO2
94908KDBQ DBQ20000330150509303/30/00 15:05:31  5-MIN KDBQ 302105Z 01004KT 10SM CLR 13/M03 A3008 930 32 900 010/04 RMK AO2
94908KDBQ DBQ20000330151009403/30/00 15:10:31  5-MIN KDBQ 302110Z VRB06KT 10SM CLR 13/M03 A3008 930 31 1000 VRB/06 RMK AO2
94908KDBQ DBQ20000330151509403/30/00 15:15:31  5-MIN KDBQ 302115Z 32009KT 10SM CLR 13/M03 A3008 930 32 1000 320/09 RMK AO2
94908KDBQ DBQ20000330152009303/30/00 15:20:31  5-MIN KDBQ 302120Z VRB04KT 10SM CLR 12/M03 A3008 930 33 900 VRB/04 RMK AO2
94908KDBQ DBQ20000330152509303/30/00 15:25:31  5-MIN KDBQ 302125Z VRB04KT 10SM CLR 13/M03 A3008 930 32 900 VRB/04 RMK AO2
94908KDBQ DBQ20000330153009303/30/00 15:30:31  5-MIN KDBQ 302130Z 00000KT 10SM CLR 13/M03 A3008 930 32 900 000/00 RMK AO2
94908KDBQ DBQ20000330153509403/30/00 15:35:31  5-MIN KDBQ 302135Z 33007KT 10SM CLR 13/M03 A3008 930 31 1000 330/07 RMK AO2
94908KDBQ DBQ20000330154009403/30/00 15:40:31  5-MIN KDBQ 302140Z VRB06KT 10SM CLR 13/M03 A3008 930 31 1000 VRB/06 RMK AO2
94908KDBQ DBQ20000330154509403/30/00 15:45:31  5-MIN KDBQ 302145Z 32008KT 10SM CLR 13/M04 A3008 930 30 1000 320/08 RMK AO2
94908KDBQ DBQ20000330155011103/30/00 15:50:31  5-MIN KDBQ 302150Z 31007KT 10SM CLR 13/M04 A3008 930 30 1000 310/07 RMK AO2 SLP191 T01331039
94908KDBQ DBQ20000330155511003/30/00 15:55:31  5-MIN KDBQ 302155Z 00000KT 10SM CLR 13/M05 A3008 930 28 900 000/00 RMK AO2 SLP192 T01281050
94908KDBQ DBQ20000330160009403/30/00 16:00:31  5-MIN KDBQ 302200Z 00000KT 10SM CLR 13/M04 A3008 940 28 1000 000/00 RMK AO2
94908KDBQ DBQ20000330160509403/30/00 16:05:31  5-MIN KDBQ 302205Z VRB04KT 10SM CLR 13/M04 A3008 930 30 1000 VRB/04 RMK AO2
94908KDBQ DBQ20000330161009403/30/00 16:10:31  5-MIN KDBQ 302210Z 33005KT 10SM CLR 13/M03 A3008 930 31 1000 330/05 RMK AO2
94908KDBQ DBQ20000330161509303/30/00 16:15:31  5-MIN KDBQ 302215Z 31005KT 10SM CLR 13/M04 A3008 930 31 900 310/05 RMK AO2
94908KDBQ DBQ20000330162009303/30/00 16:20:31  5-MIN KDBQ 302220Z 33007KT 10SM CLR 13/M03 A3008 930 32 900 330/07 RMK AO2
94908KDBQ DBQ20000330162509303/30/00 16:25:31  5-MIN KDBQ 302225Z 33007KT 10SM CLR 13/M04 A3008 930 31 900 320/07 RMK AO2
94908KDBQ DBQ20000330163009303/30/00 16:30:31  5-MIN KDBQ 302230Z 33006KT 10SM CLR 13/M04 A3008 930 31 900 330/06 RMK AO2
94908KDBQ DBQ20000330163509303/30/00 16:35:31  5-MIN KDBQ 302235Z 32005KT 10SM CLR 13/M04 A3008 930 30 900 320/05 RMK AO2
94908KDBQ DBQ20000330164009303/30/00 16:40:31  5-MIN KDBQ 302240Z 02005KT 10SM CLR 13/M03 A3008 930 32 900 020/05 RMK AO2
94908KDBQ DBQ20000330164509303/30/00 16:45:31  5-MIN KDBQ 302245Z 35006KT 10SM CLR 13/M03 A3008 930 32 900 340/06 RMK AO2
94908KDBQ DBQ20000330165011003/30/00 16:50:31  5-MIN KDBQ 302250Z 35005KT 10SM CLR 12/M04 A3008 930 32 900 350/05 RMK AO2 SLP194 T01221039
94908KDBQ DBQ20000330165511003/30/00 16:55:31  5-MIN KDBQ 302255Z 32005KT 10SM CLR 12/M04 A3008 930 32 900 320/05 RMK AO2 SLP195 T01221039
94908KDBQ DBQ20000330170009303/30/00 17:00:31  5-MIN KDBQ 302300Z 32004KT 10SM CLR 12/M05 A3008 930 29 900 320/04 RMK AO2
94908KDBQ DBQ20000330170509303/30/00 17:05:31  5-MIN KDBQ 302305Z 36004KT 10SM CLR 12/M06 A3008 930 28 900 360/04 RMK AO2
94908KDBQ DBQ20000330171009303/30/00 17:10:31  5-MIN KDBQ 302310Z 34006KT 10SM CLR 12/M05 A3008 930 30 800 340/06 RMK AO2
94908KDBQ DBQ20000330171509303/30/00 17:15:31  5-MIN KDBQ 302315Z 36005KT 10SM CLR 12/M06 A3009 930 29 800 360/05 RMK AO2
94908KDBQ DBQ20000330172009303/30/00 17:20:31  5-MIN KDBQ 302320Z 36005KT 10SM CLR 12/M06 A3009 930 29 800 360/05 RMK AO2
94908KDBQ DBQ20000330172509303/30/00 17:25:31  5-MIN KDBQ 302325Z 34004KT 10SM CLR 12/M06 A3008 930 29 800 340/04 RMK AO2
94908KDBQ DBQ20000330173009303/30/00 17:30:31  5-MIN KDBQ 302330Z 35003KT 10SM CLR 11/M06 A3009 930 30 700 350/03 RMK AO2
94908KDBQ DBQ20000330173509303/30/00 17:35:31  5-MIN KDBQ 302335Z 36003KT 10SM CLR 11/M05 A3009 930 32 700 360/03 RMK AO2
94908KDBQ DBQ20000330174009303/30/00 17:40:31  5-MIN KDBQ 302340Z 01003KT 10SM CLR 11/M05 A3009 920 32 700 010/03 RMK AO2
94908KDBQ DBQ20000330174509303/30/00 17:45:31  5-MIN KDBQ 302345Z 00000KT 10SM CLR 11/M05 A3009 920 32 700 000/00 RMK AO2
94908KDBQ DBQ20000330175012803/30/00 17:50:31  5-MIN KDBQ 302350Z 00000KT 10SM CLR 11/M05 A3009 920 32 700 000/00 RMK AO2 SLP196 T01111050 10133 20094 56006
94908KDBQ DBQ20000330175512803/30/00 17:55:31  5-MIN KDBQ 302355Z 00000KT 10SM CLR 12/M06 A3009 920 29 800 000/00 RMK AO2 SLP196 T01171056 10133 20094 53002
94908KDBQ DBQ20000330180009303/30/00 18:00:31  5-MIN KDBQ 310000Z 00000KT 10SM CLR 11/M05 A3009 920 32 700 000/00 RMK AO2
94908KDBQ DBQ20000330180509303/30/00 18:05:31  5-MIN KDBQ 310005Z 00000KT 10SM CLR 11/M05 A3009 920 32 700 000/00 RMK AO2
94908KDBQ DBQ20000330181009303/30/00 18:10:31  5-MIN KDBQ 310010Z 00000KT 10SM CLR 11/M05 A3009 920 32 700 000/00 RMK AO2
94908KDBQ DBQ20000330181509303/30/00 18:15:31  5-MIN KDBQ 310015Z 00000KT 10SM CLR 11/M04 A3009 920 33 700 000/00 RMK AO2
94908KDBQ DBQ20000330182009303/30/00 18:20:31  5-MIN KDBQ 310020Z 00000KT 10SM CLR 11/M04 A3009 920 34 600 000/00 RMK AO2
94908KDBQ DBQ20000330182509303/30/00 18:25:31  5-MIN KDBQ 310025Z 00000KT 10SM CLR 11/M04 A3009 920 34 600 000/00 RMK AO2
94908KDBQ DBQ20000330183009303/30/00 18:30:31  5-MIN KDBQ 310030Z 00000KT 10SM CLR 11/M04 A3009 920 34 600 000/00 RMK AO2
94908KDBQ DBQ20000330183509303/30/00 18:35:31  5-MIN KDBQ 310035Z 00000KT 10SM CLR 09/M04 A3009 920 39 500 000/00 RMK AO2
94908KDBQ DBQ20000330184009303/30/00 18:40:31  5-MIN KDBQ 310040Z 00000KT 10SM CLR 10/M04 A3009 920 37 600 000/00 RMK AO2
94908KDBQ DBQ20000330184509303/30/00 18:45:31  5-MIN KDBQ 310045Z 00000KT 10SM CLR 09/M03 A3009 920 42 400 000/00 RMK AO2
94908KDBQ DBQ20000330185011003/30/00 18:50:31  5-MIN KDBQ 310050Z 00000KT 10SM CLR 09/M04 A3009 920 40 400 000/00 RMK AO2 SLP197 T00891039
94908KDBQ DBQ20000330185511003/30/00 18:55:31  5-MIN KDBQ 310055Z 00000KT 10SM CLR 09/M03 A3009 920 42 400 000/00 RMK AO2 SLP198 T00891033
94908KDBQ DBQ20000330190009303/30/00 19:00:31  5-MIN KDBQ 310100Z 11003KT 10SM CLR 09/M04 A3010 920 39 500 110/03 RMK AO2
94908KDBQ DBQ20000330190509303/30/00 19:05:31  5-MIN KDBQ 310105Z 11003KT 10SM CLR 09/M04 A3010 920 40 400 100/03 RMK AO2
94908KDBQ DBQ20000330191009303/30/00 19:10:31  5-MIN KDBQ 310110Z 10003KT 10SM CLR 09/M04 A3010 910 37 500 100/03 RMK AO2
94908KDBQ DBQ20000330191509303/30/00 19:15:31  5-MIN KDBQ 310115Z 11003KT 10SM CLR 09/M04 A3010 910 38 400 100/03 RMK AO2
94908KDBQ DBQ20000330192009303/30/00 19:20:31  5-MIN KDBQ 310120Z 11004KT 10SM CLR 09/M04 A3010 910 40 400 100/04 RMK AO2
94908KDBQ DBQ20000330192509303/30/00 19:25:31  5-MIN KDBQ 310125Z 11004KT 10SM CLR 08/M04 A3010 910 42 400 110/04 RMK AO2
94908KDBQ DBQ20000330193009303/30/00 19:30:31  5-MIN KDBQ 310130Z 11004KT 10SM CLR 08/M04 A3010 910 42 400 110/04 RMK AO2
94908KDBQ DBQ20000330193509303/30/00 19:35:31  5-MIN KDBQ 310135Z 11004KT 10SM CLR 08/M04 A3011 910 40 400 100/04 RMK AO2
94908KDBQ DBQ20000330194009303/30/00 19:40:31  5-MIN KDBQ 310140Z 11003KT 10SM CLR 09/M04 A3011 900 38 400 110/03 RMK AO2
94908KDBQ DBQ20000330194509303/30/00 19:45:31  5-MIN KDBQ 310145Z 11003KT 10SM CLR 08/M04 A3011 900 40 400 110/03 RMK AO2
94908KDBQ DBQ20000330195011003/30/00 19:50:31  5-MIN KDBQ 310150Z 00000KT 10SM CLR 08/M04 A3011 900 43 300 000/00 RMK AO2 SLP205 T00781039
94908KDBQ DBQ20000330195512003/30/00 19:55:31  5-MIN KDBQ 310155Z AUTO 00000KT 10SM CLR 07/M04 A3012 900 45 200 000/00 RMK AO2 SLP205 T00721039 TSNO
94908KDBQ DBQ20000330200010303/30/00 20:00:31  5-MIN KDBQ 310200Z AUTO 00000KT 10SM CLR 07/M03 A3012 900 47 200 000/00 RMK AO2 TSNO
94908KDBQ DBQ20000330200510303/30/00 20:05:31  5-MIN KDBQ 310205Z AUTO 00000KT 10SM CLR 07/M03 A3012 900 47 200 000/00 RMK AO2 TSNO
94908KDBQ DBQ20000330201010303/30/00 20:10:31  5-MIN KDBQ 310210Z AUTO 00000KT 10SM CLR 07/M04 A3012 900 45 200 000/00 RMK AO2 TSNO
94908KDBQ DBQ20000330201510303/30/00 20:15:31  5-MIN KDBQ 310215Z AUTO 00000KT 10SM CLR 08/M04 A3012 900 43 300 000/00 RMK AO2 TSNO
94908KDBQ DBQ20000330202010303/30/00 20:20:31  5-MIN KDBQ 310220Z AUTO 00000KT 10SM CLR 08/M04 A3012 900 43 300 000/00 RMK AO2 TSNO
94908KDBQ DBQ20000330202510303/30/00 20:25:31  5-MIN KDBQ 310225Z AUTO 00000KT 10SM CLR 08/M04 A3012 900 43 300 000/00 RMK AO2 TSNO
94908KDBQ DBQ20000330203010303/30/00 20:30:31  5-MIN KDBQ 310230Z AUTO 11003KT 10SM CLR 08/M04 A3012 900 40 400 110/03 RMK AO2 TSNO
94908KDBQ DBQ20000330203510303/30/00 20:35:31  5-MIN KDBQ 310235Z AUTO 00000KT 10SM CLR 08/M03 A3012 900 45 300 000/00 RMK AO2 TSNO
94908KDBQ DBQ20000330204010303/30/00 20:40:31  5-MIN KDBQ 310240Z AUTO 00000KT 10SM CLR 07/M03 A3012 900 47 200 000/00 RMK AO2 TSNO
94908KDBQ DBQ20000330204510303/30/00 20:45:31  5-MIN KDBQ 310245Z AUTO 13003KT 10SM CLR 07/M03 A3012 900 49 200 130/03 RMK AO2 TSNO
94908KDBQ DBQ20000330205012603/30/00 20:50:31  5-MIN KDBQ 310250Z AUTO 00000KT 10SM CLR 07/M03 A3012 900 47 200 000/00 RMK AO2 SLP205 T00721033 53002 TSNO
94908KDBQ DBQ20000330205512603/30/00 20:55:31  5-MIN KDBQ 310255Z AUTO 00000KT 10SM CLR 07/M03 A3012 900 49 200 000/00 RMK AO2 SLP205 T00721028 51009 TSNO
94908KDBQ DBQ20000330210010303/30/00 21:00:31  5-MIN KDBQ 310300Z AUTO 00000KT 10SM CLR 07/M03 A3012 900 51 100 000/00 RMK AO2 TSNO
94908KDBQ DBQ20000330210510303/30/00 21:05:31  5-MIN KDBQ 310305Z AUTO 00000KT 10SM CLR 07/M03 A3012 900 51 100 000/00 RMK AO2 TSNO
94908KDBQ DBQ20000330211010303/30/00 21:10:31  5-MIN KDBQ 310310Z AUTO 00000KT 10SM CLR 07/M03 A3012 900 51 200 000/00 RMK AO2 TSNO
94908KDBQ DBQ20000330211510303/30/00 21:15:31  5-MIN KDBQ 310315Z AUTO 00000KT 10SM CLR 07/M03 A3011 900 49 200 000/00 RMK AO2 TSNO
94908KDBQ DBQ20000330212010303/30/00 21:20:31  5-MIN KDBQ 310320Z AUTO 00000KT 10SM CLR 06/M03 A3011 900 51 100 000/00 RMK AO2 TSNO
94908KDBQ DBQ20000330212510303/30/00 21:25:31  5-MIN KDBQ 310325Z AUTO 00000KT 10SM CLR 06/M03 A3011 900 51 100 000/00 RMK AO2 TSNO
94908KDBQ DBQ20000330213010303/30/00 21:30:31  5-MIN KDBQ 310330Z AUTO 00000KT 10SM CLR 07/M03 A3011 900 49 200 000/00 RMK AO2 TSNO
94908KDBQ DBQ20000330213510303/30/00 21:35:31  5-MIN KDBQ 310335Z AUTO 00000KT 10SM CLR 07/M03 A3011 900 49 200 000/00 RMK AO2 TSNO
94908KDBQ DBQ20000330214010303/30/00 21:40:31  5-MIN KDBQ 310340Z AUTO 00000KT 10SM CLR 06/M03 A3012 900 51 100 000/00 RMK AO2 TSNO
94908KDBQ DBQ20000330214510303/30/00 21:45:31  5-MIN KDBQ 310345Z AUTO 00000KT 10SM CLR 06/M03 A3012 900 51 100 000/00 RMK AO2 TSNO
94908KDBQ DBQ20000330215012003/30/00 21:50:31  5-MIN KDBQ 310350Z AUTO 00000KT 10SM CLR 06/M03 A3012 900 51 100 000/00 RMK AO2 SLP205 T00611033 TSNO
94908KDBQ DBQ20000330215511803/30/00 21:55:31  5-MIN KDBQ 310355Z AUTO 00000KT 10SM CLR 06/M03 A3012 900 55 0 000/00 RMK AO2 SLP204 T00561028 TSNO
94908KDBQ DBQ20000330220010103/30/00 22:00:31  5-MIN KDBQ 310400Z AUTO 00000KT 10SM CLR 06/M03 A3012 900 55 0 000/00 RMK AO2 TSNO
94908KDBQ DBQ20000330220510103/30/00 22:05:31  5-MIN KDBQ 310405Z AUTO 00000KT 10SM CLR 05/M03 A3011 900 57 0 000/00 RMK AO2 TSNO
94908KDBQ DBQ20000330221010103/30/00 22:10:31  5-MIN KDBQ 310410Z AUTO 00000KT 10SM CLR 05/M03 A3011 900 57 0 000/00 RMK AO2 TSNO
94908KDBQ DBQ20000330221510103/30/00 22:15:31  5-MIN KDBQ 310415Z AUTO 00000KT 10SM CLR 06/M03 A3011 900 55 0 000/00 RMK AO2 TSNO
94908KDBQ DBQ20000330222010103/30/00 22:20:31  5-MIN KDBQ 310420Z AUTO 00000KT 10SM CLR 06/M02 A3012 900 57 0 000/00 RMK AO2 TSNO
94908KDBQ DBQ20000330222510103/30/00 22:25:31  5-MIN KDBQ 310425Z AUTO 00000KT 10SM CLR 05/M02 A3012 900 59 0 000/00 RMK AO2 TSNO
94908KDBQ DBQ20000330223010103/30/00 22:30:31  5-MIN KDBQ 310430Z AUTO 00000KT 10SM CLR 06/M03 A3012 900 53 0 000/00 RMK AO2 TSNO
94908KDBQ DBQ20000330223510303/30/00 22:35:31  5-MIN KDBQ 310435Z AUTO 00000KT 10SM CLR 06/M03 A3012 900 51 100 000/00 RMK AO2 TSNO
94908KDBQ DBQ20000330224010103/30/00 22:40:31  5-MIN KDBQ 310440Z AUTO 00000KT 10SM CLR 06/M03 A3012 900 53 0 000/00 RMK AO2 TSNO
94908KDBQ DBQ20000330224510103/30/00 22:45:31  5-MIN KDBQ 310445Z AUTO 00000KT 10SM CLR 06/M03 A3012 900 53 0 000/00 RMK AO2 TSNO
94908KDBQ DBQ20000330225011803/30/00 22:50:31  5-MIN KDBQ 310450Z AUTO 00000KT 10SM CLR 05/M03 A3012 900 55 0 000/00 RMK AO2 SLP204 T00501033 TSNO
94908KDBQ DBQ20000330225511803/30/00 22:55:31  5-MIN KDBQ 310455Z AUTO 00000KT 10SM CLR 05/M03 A3012 900 55 0 000/00 RMK AO2 SLP205 T00501033 TSNO
94908KDBQ DBQ20000330230010103/30/00 23:00:31  5-MIN KDBQ 310500Z AUTO 00000KT 10SM CLR 06/M04 A3012 900 50 0 000/00 RMK AO2 TSNO
94908KDBQ DBQ20000330230510103/30/00 23:05:31  5-MIN KDBQ 310505Z AUTO 00000KT 10SM CLR 06/M04 A3012 900 50 0 000/00 RMK AO2 TSNO
94908KDBQ DBQ20000330231010103/30/00 23:10:31  5-MIN KDBQ 310510Z AUTO 00000KT 10SM CLR 06/M04 A3012 900 50 0 000/00 RMK AO2 TSNO
94908KDBQ DBQ20000330231510303/30/00 23:15:31  5-MIN KDBQ 310515Z AUTO 00000KT 10SM CLR 06/M04 A3012 890 48 100 000/00 RMK AO2 TSNO
94908KDBQ DBQ20000330232010303/30/00 23:20:31  5-MIN KDBQ 310520Z AUTO 00000KT 10SM CLR 06/M04 A3012 890 48 100 000/00 RMK AO2 TSNO
94908KDBQ DBQ20000330232510303/30/00 23:25:31  5-MIN KDBQ 310525Z AUTO 00000KT 10SM CLR 06/M04 A3012 890 46 100 000/00 RMK AO2 TSNO
94908KDBQ DBQ20000330233010303/30/00 23:30:31  5-MIN KDBQ 310530Z AUTO 00000KT 10SM CLR 06/M04 A3012 890 46 100 000/00 RMK AO2 TSNO
94908KDBQ DBQ20000330233510303/30/00 23:35:31  5-MIN KDBQ 310535Z AUTO 00000KT 10SM CLR 06/M04 A3012 890 46 100 000/00 RMK AO2 TSNO
94908KDBQ DBQ20000330234010303/30/00 23:40:31  5-MIN KDBQ 310540Z AUTO 00000KT 10SM CLR 06/M04 A3012 890 46 100 000/00 RMK AO2 TSNO
94908KDBQ DBQ20000330234510303/30/00 23:45:31  5-MIN KDBQ 310545Z AUTO 00000KT 10SM CLR 06/M04 A3013 890 46 100 000/00 RMK AO2 TSNO
94908KDBQ DBQ20000330235014603/30/00 23:50:31  5-MIN KDBQ 310550Z AUTO 00000KT 10SM CLR 05/M04 A3013 890 52 0 000/00 RMK AO2 SLP208 T00501039 10117 20050 401331011 51009 TSNO
94908KDBQ DBQ20000330235514603/30/00 23:55:31  5-MIN KDBQ 310555Z AUTO 00000KT 10SM CLR 06/M04 A3013 890 50 0 000/00 RMK AO2 SLP207 T00561039 10117 20050 401331011 53003 TSNO
94908KDBQ DBQ20000331000010103/31/00 00:00:31  5-MIN KDBQ 310600Z AUTO 00000KT 10SM CLR 06/M04 A3013 890 48 0 000/00 RMK AO2 TSNO
94908KDBQ DBQ20000331000510103/31/00 00:05:31  5-MIN KDBQ 310605Z AUTO 00000KT 10SM CLR 06/M04 A3013 890 48 0 000/00 RMK AO2 TSNO
94908KDBQ DBQ20000331001010103/31/00 00:10:31  5-MIN KDBQ 310610Z AUTO 00000KT 10SM CLR 06/M04 A3013 890 48 0 000/00 RMK AO2 TSNO
94908KDBQ DBQ20000331001510303/31/00 00:15:31  5-MIN KDBQ 310615Z AUTO 00000KT 10SM CLR 06/M04 A3012 890 46 100 000/00 RMK AO2 TSNO
94908KDBQ DBQ20000331002010303/31/00 00:20:31  5-MIN KDBQ 310620Z AUTO 00000KT 10SM CLR 07/M04 A3013 890 45 100 000/00 RMK AO2 TSNO
94908KDBQ DBQ20000331002510303/31/00 00:25:31  5-MIN KDBQ 310625Z AUTO 00000KT 10SM CLR 07/M04 A3013 890 45 100 000/00 RMK AO2 TSNO
94908KDBQ DBQ20000331003010103/31/00 00:30:31  5-MIN KDBQ 310630Z AUTO 00000KT 10SM CLR 06/M04 A3013 890 48 0 000/00 RMK AO2 TSNO
94908KDBQ DBQ20000331003510403/31/00 00:35:31  5-MIN KDBQ 310635Z AUTO 00000KT 10SM CLR 04/M03 A3013 890 57 -100 000/00 RMK AO2 TSNO
94908KDBQ DBQ20000331004010403/31/00 00:40:31  5-MIN KDBQ 310640Z AUTO 00000KT 10SM CLR 04/M03 A3013 890 59 -200 000/00 RMK AO2 TSNO
94908KDBQ DBQ20000331004510403/31/00 00:45:31  5-MIN KDBQ 310645Z AUTO 00000KT 10SM CLR 04/M03 A3013 890 62 -200 000/00 RMK AO2 TSNO
94908KDBQ DBQ20000331005012103/31/00 00:50:31  5-MIN KDBQ 310650Z AUTO 00000KT 10SM CLR 04/M03 A3013 890 57 -100 000/00 RMK AO2 SLP209 T00441033 TSNO
94908KDBQ DBQ20000331005511803/31/00 00:55:31  5-MIN KDBQ 310655Z AUTO 00000KT 10SM CLR 05/M04 A3013 890 52 0 000/00 RMK AO2 SLP207 T00501039 TSNO
94908KDBQ DBQ20000331010010103/31/00 01:00:31  5-MIN KDBQ 310700Z AUTO 00000KT 10SM CLR 06/M04 A3013 890 48 0 000/00 RMK AO2 TSNO
94908KDBQ DBQ20000331010510303/31/00 01:05:31  5-MIN KDBQ 310705Z AUTO 00000KT 10SM CLR 06/M04 A3013 890 46 100 000/00 RMK AO2 TSNO
94908KDBQ DBQ20000331011010103/31/00 01:10:31  5-MIN KDBQ 310710Z AUTO 00000KT 10SM CLR 06/M04 A3013 890 48 0 000/00 RMK AO2 TSNO
94908KDBQ DBQ20000331011510403/31/00 01:15:31  5-MIN KDBQ 310715Z AUTO 00000KT 10SM CLR 04/M04 A3013 890 55 -100 000/00 RMK AO2 TSNO
94908KDBQ DBQ20000331012010103/31/00 01:20:31  5-MIN KDBQ 310720Z AUTO 00000KT 10SM CLR 05/M04 A3013 890 50 0 000/00 RMK AO2 TSNO
94908KDBQ DBQ20000331012510103/31/00 01:25:31  5-MIN KDBQ 310725Z AUTO 00000KT 10SM CLR 05/M04 A3013 890 50 0 000/00 RMK AO2 TSNO
94908KDBQ DBQ20000331013010103/31/00 01:30:31  5-MIN KDBQ 310730Z AUTO 00000KT 10SM CLR 05/M04 A3013 890 50 0 000/00 RMK AO2 TSNO
94908KDBQ DBQ20000331013510403/31/00 01:35:31  5-MIN KDBQ 310735Z AUTO 20003KT 10SM CLR 04/M04 A3013 890 55 -100 200/03 RMK AO2 TSNO
94908KDBQ DBQ20000331014010403/31/00 01:40:31  5-MIN KDBQ 310740Z AUTO 21003KT 10SM CLR 04/M04 A3013 890 57 -200 210/03 RMK AO2 TSNO
94908KDBQ DBQ20000331014510403/31/00 01:45:31  5-MIN KDBQ 310745Z AUTO 20003KT 10SM CLR 03/M04 A3013 880 61 -300 200/03 RMK AO2 TSNO
94908KDBQ DBQ20000331015012103/31/00 01:50:31  5-MIN KDBQ 310750Z AUTO 20003KT 10SM CLR 03/M04 A3013 880 61 -300 200/03 RMK AO2 SLP210 T00281039 TSNO
94908KDBQ DBQ20000331015512103/31/00 01:55:31  5-MIN KDBQ 310755Z AUTO 21003KT 10SM CLR 03/M03 A3013 880 61 -200 200/03 RMK AO2 SLP211 T00331033 TSNO
94908KDBQ DBQ20000331020010403/31/00 02:00:31  5-MIN KDBQ 310800Z AUTO 21003KT 10SM CLR 02/M03 A3013 880 69 -400 210/03 RMK AO2 TSNO
94908KDBQ DBQ20000331020510403/31/00 02:05:31  5-MIN KDBQ 310805Z AUTO 21003KT 10SM CLR 02/M03 A3014 880 69 -400 210/03 RMK AO2 TSNO
94908KDBQ DBQ20000331021010403/31/00 02:10:31  5-MIN KDBQ 310810Z AUTO 22004KT 10SM CLR 02/M03 A3014 880 69 -400 220/04 RMK AO2 TSNO
94908KDBQ DBQ20000331021510403/31/00 02:15:31  5-MIN KDBQ 310815Z AUTO 21004KT 10SM CLR 02/M03 A3014 880 69 -400 210/04 RMK AO2 TSNO
94908KDBQ DBQ20000331022010403/31/00 02:20:31  5-MIN KDBQ 310820Z AUTO 20004KT 10SM CLR 02/M03 A3014 880 69 -400 200/04 RMK AO2 TSNO
94908KDBQ DBQ20000331022510403/31/00 02:25:31  5-MIN KDBQ 310825Z AUTO 21004KT 10SM CLR 02/M03 A3014 880 72 -400 210/04 RMK AO2 TSNO
94908KDBQ DBQ20000331023010403/31/00 02:30:31  5-MIN KDBQ 310830Z AUTO 21003KT 10SM CLR 02/M03 A3014 880 67 -400 210/03 RMK AO2 TSNO
94908KDBQ DBQ20000331023510403/31/00 02:35:31  5-MIN KDBQ 310835Z AUTO 21003KT 10SM CLR 03/M03 A3014 870 64 -300 210/03 RMK AO2 TSNO
94908KDBQ DBQ20000331024010403/31/00 02:40:31  5-MIN KDBQ 310840Z AUTO 21004KT 10SM CLR 03/M04 A3014 870 61 -300 210/04 RMK AO2 TSNO
94908KDBQ DBQ20000331024510403/31/00 02:45:31  5-MIN KDBQ 310845Z AUTO 21004KT 10SM CLR 03/M04 A3014 870 59 -200 210/04 RMK AO2 TSNO
94908KDBQ DBQ20000331025012703/31/00 02:50:31  5-MIN KDBQ 310850Z AUTO 20003KT 10SM CLR 03/M04 A3014 880 59 -200 200/03 RMK AO2 SLP212 T00331039 53003 TSNO
94908KDBQ DBQ20000331025512703/31/00 02:55:31  5-MIN KDBQ 310855Z AUTO 20003KT 10SM CLR 03/M04 A3014 880 59 -200 200/03 RMK AO2 SLP212 T00331039 53005 TSNO
94908KDBQ DBQ20000331030010403/31/00 03:00:31  5-MIN KDBQ 310900Z AUTO 19003KT 10SM CLR 03/M04 A3014 880 59 -200 190/03 RMK AO2 TSNO
94908KDBQ DBQ20000331030510403/31/00 03:05:31  5-MIN KDBQ 310905Z AUTO 19003KT 10SM CLR 03/M04 A3014 880 59 -200 190/03 RMK AO2 TSNO
94908KDBQ DBQ20000331031010403/31/00 03:10:31  5-MIN KDBQ 310910Z AUTO 00000KT 10SM CLR 04/M04 A3014 880 57 -200 000/00 RMK AO2 TSNO
94908KDBQ DBQ20000331031510403/31/00 03:15:31  5-MIN KDBQ 310915Z AUTO 00000KT 10SM CLR 04/M04 A3014 880 57 -200 000/00 RMK AO2 TSNO
94908KDBQ DBQ20000331032010403/31/00 03:20:31  5-MIN KDBQ 310920Z AUTO 00000KT 10SM CLR 04/M04 A3014 880 57 -200 000/00 RMK AO2 TSNO
94908KDBQ DBQ20000331032510403/31/00 03:25:31  5-MIN KDBQ 310925Z AUTO 17003KT 10SM CLR 04/M04 A3014 880 57 -200 170/03 RMK AO2 TSNO
94908KDBQ DBQ20000331033010403/31/00 03:30:31  5-MIN KDBQ 310930Z AUTO 19003KT 10SM CLR 04/M04 A3014 880 55 -100 190/03 RMK AO2 TSNO
94908KDBQ DBQ20000331033510403/31/00 03:35:31  5-MIN KDBQ 310935Z AUTO 20003KT 10SM CLR 04/M04 A3014 880 55 -100 200/03 RMK AO2 TSNO
94908KDBQ DBQ20000331034010403/31/00 03:40:31  5-MIN KDBQ 310940Z AUTO 21003KT 10SM CLR 04/M04 A3014 880 57 -200 210/03 RMK AO2 TSNO
94908KDBQ DBQ20000331034510403/31/00 03:45:31  5-MIN KDBQ 310945Z AUTO 21003KT 10SM CLR 04/M04 A3014 880 55 -100 200/03 RMK AO2 TSNO
94908KDBQ DBQ20000331035012103/31/00 03:50:31  5-MIN KDBQ 310950Z AUTO 21003KT 10SM CLR 04/M04 A3014 880 57 -200 210/03 RMK AO2 SLP211 T00391039 TSNO
94908KDBQ DBQ20000331035512103/31/00 03:55:31  5-MIN KDBQ 310955Z AUTO 20003KT 10SM CLR 03/M04 A3014 880 61 -300 200/03 RMK AO2 SLP212 T00281039 TSNO
94908KDBQ DBQ20000331040010403/31/00 04:00:31  5-MIN KDBQ 311000Z AUTO 19003KT 10SM CLR 03/M04 A3014 880 61 -300 190/03 RMK AO2 TSNO
94908KDBQ DBQ20000331040510403/31/00 04:05:31  5-MIN KDBQ 311005Z AUTO 19003KT 10SM CLR 03/M04 A3014 880 61 -300 190/03 RMK AO2 TSNO
94908KDBQ DBQ20000331041010403/31/00 04:10:31  5-MIN KDBQ 311010Z AUTO 21003KT 10SM CLR 04/M04 A3014 870 57 -200 210/03 RMK AO2 TSNO
94908KDBQ DBQ20000331041510403/31/00 04:15:31  5-MIN KDBQ 311015Z AUTO 21003KT 10SM CLR 04/M04 A3014 870 57 -200 210/03 RMK AO2 TSNO
94908KDBQ DBQ20000331042010403/31/00 04:20:31  5-MIN KDBQ 311020Z AUTO 21004KT 10SM CLR 03/M04 A3015 870 59 -200 210/04 RMK AO2 TSNO
94908KDBQ DBQ20000331042510403/31/00 04:25:31  5-MIN KDBQ 311025Z AUTO 20003KT 10SM CLR 03/M04 A3015 870 59 -200 200/03 RMK AO2 TSNO
94908KDBQ DBQ20000331043010403/31/00 04:30:31  5-MIN KDBQ 311030Z AUTO 19003KT 10SM CLR 03/M04 A3015 870 59 -200 180/03 RMK AO2 TSNO
94908KDBQ DBQ20000331043510403/31/00 04:35:31  5-MIN KDBQ 311035Z AUTO 17003KT 10SM CLR 04/M04 A3015 870 57 -200 170/03 RMK AO2 TSNO
94908KDBQ DBQ20000331044010403/31/00 04:40:31  5-MIN KDBQ 311040Z AUTO 17003KT 10SM CLR 04/M04 A3015 870 57 -200 170/03 RMK AO2 TSNO
94908KDBQ DBQ20000331044510403/31/00 04:45:31  5-MIN KDBQ 311045Z AUTO 18003KT 10SM CLR 04/M04 A3015 870 57 -200 170/03 RMK AO2 TSNO
94908KDBQ DBQ20000331045012103/31/00 04:50:31  5-MIN KDBQ 311050Z AUTO 18003KT 10SM CLR 03/M04 A3015 870 59 -200 180/03 RMK AO2 SLP215 T00331039 TSNO
94908KDBQ DBQ20000331045512103/31/00 04:55:31  5-MIN KDBQ 311055Z AUTO 19003KT 10SM CLR 04/M04 A3015 870 57 -200 190/03 RMK AO2 SLP214 T00391039 TSNO
94908KDBQ DBQ20000331050010403/31/00 05:00:31  5-MIN KDBQ 311100Z AUTO 19003KT 10SM CLR 04/M04 A3015 870 57 -200 190/03 RMK AO2 TSNO
94908KDBQ DBQ20000331050510403/31/00 05:05:31  5-MIN KDBQ 311105Z AUTO 18003KT 10SM CLR 03/M04 A3015 870 59 -200 180/03 RMK AO2 TSNO
94908KDBQ DBQ20000331051010403/31/00 05:10:31  5-MIN KDBQ 311110Z AUTO 18003KT 10SM CLR 03/M04 A3015 860 61 -300 180/03 RMK AO2 TSNO
94908KDBQ DBQ20000331051510403/31/00 05:15:31  5-MIN KDBQ 311115Z AUTO 18003KT 10SM CLR 03/M04 A3015 870 61 -300 180/03 RMK AO2 TSNO
94908KDBQ DBQ20000331052010403/31/00 05:20:31  5-MIN KDBQ 311120Z AUTO 18003KT 10SM CLR 02/M04 A3015 860 64 -400 180/03 RMK AO2 TSNO
94908KDBQ DBQ20000331052510403/31/00 05:25:31  5-MIN KDBQ 311125Z AUTO 18003KT 10SM CLR 03/M04 A3015 860 61 -300 180/03 RMK AO2 TSNO
94908KDBQ DBQ20000331053010403/31/00 05:30:31  5-MIN KDBQ 311130Z AUTO 19003KT 10SM CLR 02/M04 A3015 860 64 -400 190/03 RMK AO2 TSNO
94908KDBQ DBQ20000331053510403/31/00 05:35:31  5-MIN KDBQ 311135Z AUTO 18004KT 10SM CLR 01/M04 A3016 860 69 -500 180/04 RMK AO2 TSNO
94908KDBQ DBQ20000331054010403/31/00 05:40:31  5-MIN KDBQ 311140Z AUTO 18004KT 10SM CLR 01/M04 A3016 860 69 -500 180/04 RMK AO2 TSNO
94908KDBQ DBQ20000331054510403/31/00 05:45:31  5-MIN KDBQ 311145Z AUTO 17004KT 10SM CLR 01/M04 A3016 860 69 -500 170/04 RMK AO2 TSNO
94908KDBQ DBQ20000331055014003/31/00 05:50:31  5-MIN KDBQ 311150Z 18005KT 10SM CLR 02/M04 A3016 850 64 -400 170/05 RMK AO2 SLP221 7//// T00221039 10067 20011 53005 TSNO
94908KDBQ DBQ20000331055513503/31/00 05:55:31  5-MIN KDBQ 311155Z 17005KT 10SM CLR 02/M04 A3016 850 66 -500 170/05 RMK AO2 SLP222 7//// T00171039 10067 20011 53008
94908KDBQ DBQ20000331060009403/31/00 06:00:31  5-MIN KDBQ 311200Z 17005KT 10SM CLR 02/M04 A3017 850 66 -500 160/05 RMK AO2
94908KDBQ DBQ20000331060509403/31/00 06:05:31  5-MIN KDBQ 311205Z 16005KT 10SM CLR 02/M04 A3017 850 64 -400 160/05 RMK AO2
94908KDBQ DBQ20000331061009403/31/00 06:10:31  5-MIN KDBQ 311210Z 16005KT 10SM CLR 02/M04 A3017 850 66 -500 160/05 RMK AO2
94908KDBQ DBQ20000331061509403/31/00 06:15:31  5-MIN KDBQ 311215Z 17005KT 10SM CLR 02/M04 A3017 850 64 -400 170/05 RMK AO2
94908KDBQ DBQ20000331062009403/31/00 06:20:31  5-MIN KDBQ 311220Z 17006KT 10SM CLR 02/M04 A3017 840 64 -400 170/06 RMK AO2
94908KDBQ DBQ20000331062509403/31/00 06:25:31  5-MIN KDBQ 311225Z 18005KT 10SM CLR 02/M04 A3018 840 64 -400 170/05 RMK AO2
94908KDBQ DBQ20000331063009403/31/00 06:30:31  5-MIN KDBQ 311230Z 18004KT 10SM CLR 02/M03 A3018 840 67 -400 180/04 RMK AO2
94908KDBQ DBQ20000331063509403/31/00 06:35:31  5-MIN KDBQ 311235Z 18005KT 10SM CLR 02/M03 A3018 840 72 -500 180/05 RMK AO2
94908KDBQ DBQ20000331064009403/31/00 06:40:31  5-MIN KDBQ 311240Z 18004KT 10SM CLR 02/M03 A3018 840 72 -500 170/04 RMK AO2
94908KDBQ DBQ20000331064509403/31/00 06:45:31  5-MIN KDBQ 311245Z 18004KT 10SM CLR 02/M03 A3018 840 72 -500 180/04 RMK AO2
94908KDBQ DBQ20000331065011103/31/00 06:50:31  5-MIN KDBQ 311250Z 17004KT 10SM CLR 02/M02 A3018 840 75 -500 170/04 RMK AO2 SLP226 T00171022
94908KDBQ DBQ20000331065511103/31/00 06:55:31  5-MIN KDBQ 311255Z 16003KT 10SM CLR 02/M02 A3018 840 72 -400 160/03 RMK AO2 SLP226 T00221022
94908KDBQ DBQ20000331070009403/31/00 07:00:31  5-MIN KDBQ 311300Z 17005KT 10SM CLR 03/M02 A3018 840 67 -300 160/05 RMK AO2
94908KDBQ DBQ20000331070509403/31/00 07:05:31  5-MIN KDBQ 311305Z 17005KT 10SM CLR 04/M02 A3018 840 67 -200 170/05 RMK AO2
94908KDBQ DBQ20000331071009403/31/00 07:10:31  5-MIN KDBQ 311310Z 18004KT 10SM CLR 04/M02 A3018 840 64 -100 180/04 RMK AO2
94908KDBQ DBQ20000331071509403/31/00 07:15:31  5-MIN KDBQ 311315Z 18005KT 10SM CLR 04/M01 A3018 840 67 -100 170/05 RMK AO2
94908KDBQ DBQ20000331072009403/31/00 07:20:31  5-MIN KDBQ 311320Z 18005KT 10SM CLR 05/M01 A3018 840 64 -100 180/05 RMK AO2
94908KDBQ DBQ20000331072509103/31/00 07:25:31  5-MIN KDBQ 311325Z 18006KT 10SM CLR 06/M01 A3018 840 62 0 180/06 RMK AO2
94908KDBQ DBQ20000331073009103/31/00 07:30:31  5-MIN KDBQ 311330Z 18006KT 10SM CLR 06/M01 A3018 840 62 0 180/06 RMK AO2
94908KDBQ DBQ20000331073509303/31/00 07:35:31  5-MIN KDBQ 311335Z 18006KT 10SM CLR 07/M01 A3018 840 57 100 180/06 RMK AO2
94908KDBQ DBQ20000331074009303/31/00 07:40:31  5-MIN KDBQ 311340Z 18005KT 10SM CLR 07/M01 A3018 840 60 100 180/05 RMK AO2
94908KDBQ DBQ20000331074509303/31/00 07:45:31  5-MIN KDBQ 311345Z 19005KT 10SM CLR 07/M01 A3018 840 57 100 190/05 RMK AO2
94908KDBQ DBQ20000331075011003/31/00 07:50:31  5-MIN KDBQ 311350Z 19006KT 10SM CLR 08/M01 A3018 840 53 200 190/06 RMK AO2 SLP227 T00781011
94908KDBQ DBQ20000331075511003/31/00 07:55:31  5-MIN KDBQ 311355Z 19005KT 10SM CLR 08/M01 A3018 840 53 200 180/05 RMK AO2 SLP227 T00781011
94908KDBQ DBQ20000331080009303/31/00 08:00:31  5-MIN KDBQ 311400Z 19007KT 10SM CLR 08/M02 A3018 840 49 300 190/07 RMK AO2
94908KDBQ DBQ20000331080509303/31/00 08:05:31  5-MIN KDBQ 311405Z 20006KT 10SM CLR 08/M02 A3018 840 49 300 200/06 RMK AO2
94908KDBQ DBQ20000331081009303/31/00 08:10:31  5-MIN KDBQ 311410Z 20007KT 10SM CLR 08/M02 A3019 830 49 300 200/07 RMK AO2
94908KDBQ DBQ20000331081509303/31/00 08:15:31  5-MIN KDBQ 311415Z 21007KT 10SM CLR 08/M01 A3018 840 51 300 210/07 RMK AO2
94908KDBQ DBQ20000331082009303/31/00 08:20:31  5-MIN KDBQ 311420Z 20007KT 10SM CLR 09/M01 A3018 840 49 300 200/07 RMK AO2
94908KDBQ DBQ20000331082509303/31/00 08:25:31  5-MIN KDBQ 311425Z 19007KT 10SM CLR 09/M01 A3018 840 47 400 190/07 RMK AO2
94908KDBQ DBQ20000331083009303/31/00 08:30:31  5-MIN KDBQ 311430Z 20007KT 10SM CLR 09/M01 A3018 840 47 400 200/07 RMK AO2
94908KDBQ DBQ20000331083509303/31/00 08:35:31  5-MIN KDBQ 311435Z 19007KT 10SM CLR 10/M01 A3018 840 46 500 190/07 RMK AO2
94908KDBQ DBQ20000331084009303/31/00 08:40:31  5-MIN KDBQ 311440Z 19007KT 10SM CLR 10/M02 A3018 840 44 500 190/07 RMK AO2
94908KDBQ DBQ20000331084509303/31/00 08:45:31  5-MIN KDBQ 311445Z 20007KT 10SM CLR 10/M02 A3018 840 42 500 200/07 RMK AO2
94908KDBQ DBQ20000331085011603/31/00 08:50:31  5-MIN KDBQ 311450Z 21006KT 10SM CLR 10/M03 A3018 840 40 500 210/06 RMK AO2 SLP226 T01001028 53008
94908KDBQ DBQ20000331085511603/31/00 08:55:31  5-MIN KDBQ 311455Z 20007KT 10SM CLR 11/M02 A3018 840 40 500 200/07 RMK AO2 SLP226 T01061022 51006
94908KDBQ DBQ20000331090009303/31/00 09:00:31  5-MIN KDBQ 311500Z 21006KT 10SM CLR 11/M02 A3018 840 42 500 210/06 RMK AO2
94908KDBQ DBQ20000331090509303/31/00 09:05:31  5-MIN KDBQ 311505Z 22007KT 10SM CLR 11/M02 A3018 840 39 600 220/07 RMK AO2
94908KDBQ DBQ20000331092509303/31/00 09:25:31  5-MIN KDBQ 311525Z 19005KT 10SM CLR 12/M01 A3018 840 41 700 190/05 RMK AO2
94908KDBQ DBQ20000331093009303/31/00 09:30:31  5-MIN KDBQ 311530Z 21005KT 10SM CLR 12/M01 A3018 840 41 700 210/05 RMK AO2
94908KDBQ DBQ20000331093509303/31/00 09:35:31  5-MIN KDBQ 311535Z 20007KT 10SM CLR 12/M01 A3018 840 41 700 200/07 RMK AO2
94908KDBQ DBQ20000331094009303/31/00 09:40:31  5-MIN KDBQ 311540Z 23005KT 10SM CLR 12/M01 A3018 840 41 700 230/05 RMK AO2
94908KDBQ DBQ20000331094509303/31/00 09:45:31  5-MIN KDBQ 311545Z 20005KT 10SM CLR 13/M01 A3018 840 38 800 200/05 RMK AO2
94908KDBQ DBQ20000331095011003/31/00 09:50:31  5-MIN KDBQ 311550Z 23006KT 10SM CLR 13/M01 A3018 840 39 800 230/06 RMK AO2 SLP225 T01281006
94908KDBQ DBQ20000331095511003/31/00 09:55:31  5-MIN KDBQ 311555Z 24005KT 10SM CLR 13/M01 A3018 840 38 900 240/05 RMK AO2 SLP225 T01331006
94908KDBQ DBQ20000331100010903/31/00 10:00:31  5-MIN KDBQ 311600Z 24009KT 200V260 10SM CLR 14/M02 A3018 840 34 900 230/09 200V260 RMK AO2
94908KDBQ DBQ20000331100509303/31/00 10:05:31  5-MIN KDBQ 311605Z 25009KT 10SM CLR 14/M02 A3019 830 32 900 250/09 RMK AO2
94908KDBQ DBQ20000331101009403/31/00 10:10:31  5-MIN KDBQ 311610Z 24007KT 10SM CLR 14/M02 A3019 830 31 1000 230/07 RMK AO2
94908KDBQ DBQ20000331101509403/31/00 10:15:31  5-MIN KDBQ 311615Z 23008KT 10SM CLR 14/M02 A3019 830 31 1000 230/08 RMK AO2
94908KDBQ DBQ20000331102009403/31/00 10:20:31  5-MIN KDBQ 311620Z 24009KT 10SM CLR 14/M02 A3019 830 31 1000 230/09 RMK AO2
94908KDBQ DBQ20000331102509403/31/00 10:25:31  5-MIN KDBQ 311625Z 23008KT 10SM CLR 15/M02 A3019 830 30 1100 230/08 RMK AO2
94908KDBQ DBQ20000331103009403/31/00 10:30:31  5-MIN KDBQ 311630Z 22008KT 10SM CLR 15/M02 A3019 830 30 1100 220/08 RMK AO2
94908KDBQ DBQ20000331103509403/31/00 10:35:31  5-MIN KDBQ 311635Z 25009KT 10SM CLR 15/M02 A3019 830 30 1100 240/09 RMK AO2
94908KDBQ DBQ20000331104009403/31/00 10:40:31  5-MIN KDBQ 311640Z 25007KT 10SM CLR 15/M02 A3019 830 31 1100 250/07 RMK AO2
94908KDBQ DBQ20000331104509403/31/00 10:45:31  5-MIN KDBQ 311645Z 23010KT 10SM CLR 16/M02 A3019 830 30 1100 230/10 RMK AO2
94908KDBQ DBQ20000331105011103/31/00 10:50:31  5-MIN KDBQ 311650Z 25009KT 10SM CLR 15/M02 A3019 830 30 1100 250/09 RMK AO2 SLP228 T01501022
94908KDBQ DBQ20000331105511103/31/00 10:55:31  5-MIN KDBQ 311655Z 22009KT 10SM CLR 15/M02 A3019 830 31 1100 220/09 RMK AO2 SLP228 T01501017
94908KDBQ DBQ20000331110009403/31/00 11:00:31  5-MIN KDBQ 311700Z 23007KT 10SM CLR 16/M02 A3018 830 30 1100 230/07 RMK AO2
94908KDBQ DBQ20000331110509403/31/00 11:05:31  5-MIN KDBQ 311705Z 21008KT 10SM CLR 16/M02 A3019 830 30 1100 210/08 RMK AO2
94908KDBQ DBQ20000331111010003/31/00 11:10:31  5-MIN KDBQ 311710Z 23006G15KT 10SM CLR 16/M02 A3019 830 29 1100 230/06G15 RMK AO2
94908KDBQ DBQ20000331111510003/31/00 11:15:31  5-MIN KDBQ 311715Z 22006G15KT 10SM CLR 16/M02 A3018 840 29 1200 220/06G15 RMK AO2
94908KDBQ DBQ20000331112009403/31/00 11:20:31  5-MIN KDBQ 311720Z 24007KT 10SM CLR 17/M02 A3018 840 28 1300 240/07 RMK AO2
94908KDBQ DBQ20000331112511003/31/00 11:25:31  5-MIN KDBQ 311725Z 20007KT 170V240 10SM CLR 16/M02 A3018 840 29 1200 200/07 170V240 RMK AO2
94908KDBQ DBQ20000331113010003/31/00 11:30:31  5-MIN KDBQ 311730Z 23010G16KT 10SM CLR 17/M02 A3018 840 27 1300 230/10G16 RMK AO2
94908KDBQ DBQ20000331113510003/31/00 11:35:31  5-MIN KDBQ 311735Z 21004G16KT 10SM CLR 16/M02 A3017 840 28 1200 210/04G16 RMK AO2
94908KDBQ DBQ20000331114009403/31/00 11:40:31  5-MIN KDBQ 311740Z 25008KT 10SM CLR 17/M02 A3017 840 27 1300 250/08 RMK AO2
94908KDBQ DBQ20000331114509403/31/00 11:45:31  5-MIN KDBQ 311745Z 25007KT 10SM CLR 17/M02 A3018 840 27 1300 250/07 RMK AO2
94908KDBQ DBQ20000331115012903/31/00 11:50:31  5-MIN KDBQ 311750Z 22006KT 10SM CLR 16/M03 A3017 850 27 1200 220/06 RMK AO2 SLP221 T01611028 10172 20011 51006
94908KDBQ DBQ20000331115513503/31/00 11:55:31  5-MIN KDBQ 311755Z 27009G15KT 10SM CLR 17/M03 A3017 850 25 1300 270/09G15 RMK AO2 SLP220 T01671033 10172 20011 58004
94908KDBQ DBQ20000331120010003/31/00 12:00:31  5-MIN KDBQ 311800Z VRB06G15KT 10SM CLR 17/M03 A3017 850 26 1300 VRB/06G15 RMK AO2
94908KDBQ DBQ20000331120510003/31/00 12:05:31  5-MIN KDBQ 311805Z 25009G14KT 10SM CLR 17/M03 A3017 850 24 1300 250/09G14 RMK AO2
94908KDBQ DBQ20000331121010003/31/00 12:10:31  5-MIN KDBQ 311810Z 23009G14KT 10SM CLR 17/M03 A3017 850 24 1300 220/09G14 RMK AO2
94908KDBQ DBQ20000331121509403/31/00 12:15:31  5-MIN KDBQ 311815Z 22011KT 10SM CLR 17/M03 A3017 850 24 1300 220/11 RMK AO2
94908KDBQ DBQ20000331122009403/31/00 12:20:31  5-MIN KDBQ 311820Z 23008KT 10SM CLR 17/M03 A3017 850 24 1400 230/08 RMK AO2
94908KDBQ DBQ20000331122509403/31/00 12:25:31  5-MIN KDBQ 311825Z 23009KT 10SM CLR 17/M03 A3016 850 24 1400 230/09 RMK AO2
94908KDBQ DBQ20000331123009403/31/00 12:30:31  5-MIN KDBQ 311830Z 23010KT 10SM CLR 17/M03 A3016 860 24 1400 230/10 RMK AO2
94908KDBQ DBQ20000331123509403/31/00 12:35:31  5-MIN KDBQ 311835Z 21009KT 10SM CLR 18/M04 A3015 860 22 1400 210/09 RMK AO2
94908KDBQ DBQ20000331124009403/31/00 12:40:31  5-MIN KDBQ 311840Z 22007KT 10SM CLR 18/M04 A3015 870 22 1400 210/07 RMK AO2
94908KDBQ DBQ20000331124509403/31/00 12:45:31  5-MIN KDBQ 311845Z 21008KT 10SM CLR 17/M04 A3015 870 23 1400 210/08 RMK AO2
94908KDBQ DBQ20000331125011103/31/00 12:50:31  5-MIN KDBQ 311850Z 00000KT 10SM CLR 17/M04 A3014 870 22 1400 000/00 RMK AO2 SLP210 T01721044
94908KDBQ DBQ20000331125513303/31/00 12:55:31  5-MIN KDBQ 311855Z 24010G14KT 160V270 10SM CLR 17/M03 A3014 870 24 1400 240/10G14 160V270 RMK AO2 SLP211 T01721033
94908KDBQ DBQ20000331130010003/31/00 13:00:31  5-MIN KDBQ 311900Z 21007G14KT 10SM CLR 18/M03 A3014 880 23 1400 210/07G14 RMK AO2
94908KDBQ DBQ20000331130509403/31/00 13:05:31  5-MIN KDBQ 311905Z 22005KT 10SM CLR 18/M03 A3014 870 23 1400 220/05 RMK AO2
94908KDBQ DBQ20000331131011003/31/00 13:10:31  5-MIN KDBQ 311910Z 22007KT 180V250 10SM CLR 18/M03 A3014 880 23 1400 220/07 180V250 RMK AO2
94908KDBQ DBQ20000331131509403/31/00 13:15:31  5-MIN KDBQ 311915Z 23009KT 10SM CLR 18/M03 A3014 880 22 1500 230/09 RMK AO2
94908KDBQ DBQ20000331132009403/31/00 13:20:31  5-MIN KDBQ 311920Z 22005KT 10SM CLR 17/M04 A3013 880 23 1400 220/05 RMK AO2
94908KDBQ DBQ20000331132510003/31/00 13:25:31  5-MIN KDBQ 311925Z 26008G14KT 10SM CLR 18/M04 A3013 890 22 1500 250/08G14 RMK AO2
94908KDBQ DBQ20000331133010003/31/00 13:30:31  5-MIN KDBQ 311930Z 21010G14KT 10SM CLR 18/M03 A3012 890 22 1500 210/10G14 RMK AO2
94908KDBQ DBQ20000331133509403/31/00 13:35:31  5-MIN KDBQ 311935Z 20007KT 10SM CLR 18/M03 A3012 890 22 1500 200/07 RMK AO2
94908KDBQ DBQ20000331134009403/31/00 13:40:31  5-MIN KDBQ 311940Z 00000KT 10SM CLR 18/M03 A3011 900 22 1500 000/00 RMK AO2
94908KDBQ DBQ20000331134510003/31/00 13:45:31  5-MIN KDBQ 311945Z 26011G14KT 10SM CLR 19/M02 A3011 900 23 1600 260/11G14 RMK AO2
94908KDBQ DBQ20000331135011703/31/00 13:50:31  5-MIN KDBQ 311950Z 31008G14KT 10SM CLR 18/M03 A3011 900 22 1500 300/08G14 RMK AO2 SLP200 T01831033
94908KDBQ DBQ20000331135511103/31/00 13:55:31  5-MIN KDBQ 311955Z 31007KT 10SM CLR 18/M03 A3011 900 23 1500 300/07 RMK AO2 SLP199 T01831028
94908KDBQ DBQ20000331140009403/31/00 14:00:31  5-MIN KDBQ 312000Z VRB04KT 10SM CLR 18/M03 A3011 910 22 1500 VRB/04 RMK AO2
94908KDBQ DBQ20000331140509403/31/00 14:05:31  5-MIN KDBQ 312005Z 21009KT 10SM CLR 18/M03 A3010 910 23 1600 210/09 RMK AO2
94908KDBQ DBQ20000331141009403/31/00 14:10:31  5-MIN KDBQ 312010Z 21011KT 10SM CLR 18/M03 A3010 910 22 1600 210/11 RMK AO2
94908KDBQ DBQ20000331141509403/31/00 14:15:31  5-MIN KDBQ 312015Z 20009KT 10SM CLR 19/M03 A3010 910 22 1600 200/09 RMK AO2
94908KDBQ DBQ20000331142009403/31/00 14:20:31  5-MIN KDBQ 312020Z 22007KT 10SM CLR 18/M04 A3010 910 21 1600 220/07 RMK AO2
94908KDBQ DBQ20000331142509403/31/00 14:25:31  5-MIN KDBQ 312025Z 23011KT 10SM CLR 19/M03 A3011 910 22 1600 230/11 RMK AO2
94908KDBQ DBQ20000331143009403/31/00 14:30:31  5-MIN KDBQ 312030Z 23008KT 10SM CLR 19/M03 A3011 910 22 1600 230/08 RMK AO2
94908KDBQ DBQ20000331143509403/31/00 14:35:31  5-MIN KDBQ 312035Z 21007KT 10SM CLR 19/M03 A3011 900 22 1600 210/07 RMK AO2
94908KDBQ DBQ20000331144009403/31/00 14:40:31  5-MIN KDBQ 312040Z 23008KT 10SM CLR 18/M04 A3011 900 21 1500 220/08 RMK AO2
94908KDBQ DBQ20000331144511003/31/00 14:45:31  5-MIN KDBQ 312045Z 28010KT 240V300 10SM CLR 18/M03 A3011 900 22 1500 270/10 240V300 RMK AO2
94908KDBQ DBQ20000331145011703/31/00 14:50:31  5-MIN KDBQ 312050Z 21011KT 10SM CLR 19/M03 A3011 910 22 1600 210/11 RMK AO2 SLP199 T01891033 58004
94908KDBQ DBQ20000331145511703/31/00 14:55:31  5-MIN KDBQ 312055Z 19007KT 10SM CLR 18/M03 A3011 900 22 1500 190/07 RMK AO2 SLP199 T01831033 56020
94908KDBQ DBQ20000331150009403/31/00 15:00:31  5-MIN KDBQ 312100Z 21012KT 10SM CLR 19/M03 A3011 900 22 1600 210/12 RMK AO2
94908KDBQ DBQ20000331150509403/31/00 15:05:31  5-MIN KDBQ 312105Z 21013KT 10SM CLR 19/M03 A3011 900 22 1600 210/13 RMK AO2
94908KDBQ DBQ20000331151009403/31/00 15:10:31  5-MIN KDBQ 312110Z 21009KT 10SM CLR 18/M03 A3011 900 22 1500 210/09 RMK AO2
94908KDBQ DBQ20000331151509403/31/00 15:15:31  5-MIN KDBQ 312115Z 24009KT 10SM CLR 18/M03 A3011 900 22 1500 230/09 RMK AO2
94908KDBQ DBQ20000331152009403/31/00 15:20:31  5-MIN KDBQ 312120Z 24007KT 10SM CLR 18/M03 A3011 900 22 1500 240/07 RMK AO2
94908KDBQ DBQ20000331152509403/31/00 15:25:31  5-MIN KDBQ 312125Z 22007KT 10SM CLR 18/M04 A3011 900 21 1500 220/07 RMK AO2
94908KDBQ DBQ20000331153009403/31/00 15:30:31  5-MIN KDBQ 312130Z 24009KT 10SM CLR 19/M03 A3011 900 22 1600 240/09 RMK AO2
94908KDBQ DBQ20000331153509403/31/00 15:35:31  5-MIN KDBQ 312135Z 22015KT 10SM CLR 19/M03 A3011 910 22 1600 220/15 RMK AO2
94908KDBQ DBQ20000331154009403/31/00 15:40:31  5-MIN KDBQ 312140Z 23008KT 10SM CLR 18/M03 A3011 900 22 1500 230/08 RMK AO2
94908KDBQ DBQ20000331154509403/31/00 15:45:31  5-MIN KDBQ 312145Z 20008KT 10SM CLR 18/M03 A3011 900 23 1500 200/08 RMK AO2
94908KDBQ DBQ20000331155011103/31/00 15:50:31  5-MIN KDBQ 312150Z 22011KT 10SM CLR 19/M03 A3011 910 22 1600 220/11 RMK AO2 SLP198 T01891028
94908KDBQ DBQ20000331155511103/31/00 15:55:31  5-MIN KDBQ 312155Z VRB05KT 10SM CLR 18/M04 A3011 910 21 1500 VRB/05 RMK AO2 SLP199 T01831039
94908KDBQ DBQ20000331160010003/31/00 16:00:31  5-MIN KDBQ 312200Z 23013G16KT 10SM CLR 19/M03 A3010 910 22 1600 230/13G16 RMK AO2
94908KDBQ DBQ20000331160510003/31/00 16:05:31  5-MIN KDBQ 312205Z 22011G16KT 10SM CLR 18/M03 A3010 910 22 1500 210/11G16 RMK AO2
94908KDBQ DBQ20000331161009403/31/00 16:10:31  5-MIN KDBQ 312210Z 23010KT 10SM CLR 18/M03 A3010 910 22 1500 230/10 RMK AO2
94908KDBQ DBQ20000331161509403/31/00 16:15:31  5-MIN KDBQ 312215Z 22011KT 10SM CLR 18/M03 A3010 910 22 1500 220/11 RMK AO2
94908KDBQ DBQ20000331162009403/31/00 16:20:31  5-MIN KDBQ 312220Z 23010KT 10SM CLR 18/M03 A3011 910 22 1500 230/10 RMK AO2
94908KDBQ DBQ20000331162509703/31/00 16:25:31  5-MIN KDBQ 312225Z 23009KT 10SM FEW090 18/M03 A3011 910 22 1500 230/09 RMK AO2
94908KDBQ DBQ20000331163009703/31/00 16:30:31  5-MIN KDBQ 312230Z 23011KT 10SM SCT095 18/M03 A3011 910 23 1500 230/11 RMK AO2
94908KDBQ DBQ20000331163509703/31/00 16:35:31  5-MIN KDBQ 312235Z 23009KT 10SM SCT095 18/M03 A3010 910 23 1500 230/09 RMK AO2
94908KDBQ DBQ20000331164009703/31/00 16:40:31  5-MIN KDBQ 312240Z 22011KT 10SM BKN095 18/M02 A3010 910 24 1600 220/11 RMK AO2
94908KDBQ DBQ20000331164509703/31/00 16:45:31  5-MIN KDBQ 312245Z 23010KT 10SM BKN095 18/M03 A3010 910 23 1600 230/10 RMK AO2
94908KDBQ DBQ20000331165011403/31/00 16:50:31  5-MIN KDBQ 312250Z 22010KT 10SM BKN095 18/M03 A3010 910 24 1500 220/10 RMK AO2 SLP196 T01781028
94908KDBQ DBQ20000331165511403/31/00 16:55:31  5-MIN KDBQ 312255Z 24008KT 10SM BKN095 18/M03 A3010 910 24 1500 230/08 RMK AO2 SLP196 T01781028
94908KDBQ DBQ20000331170009703/31/00 17:00:31  5-MIN KDBQ 312300Z 24010KT 10SM BKN095 18/M02 A3010 910 26 1500 240/10 RMK AO2
94908KDBQ DBQ20000331170509703/31/00 17:05:31  5-MIN KDBQ 312305Z 23010KT 10SM SCT095 18/M01 A3010 910 27 1500 230/10 RMK AO2
94908KDBQ DBQ20000331171009703/31/00 17:10:31  5-MIN KDBQ 312310Z 24010KT 10SM FEW095 18/M02 A3010 910 26 1500 240/10 RMK AO2
94908KDBQ DBQ20000331171509703/31/00 17:15:31  5-MIN KDBQ 312315Z 24009KT 10SM FEW095 17/M02 A3010 910 27 1400 240/09 RMK AO2
94908KDBQ DBQ20000331172009703/31/00 17:20:31  5-MIN KDBQ 312320Z 25008KT 10SM FEW095 17/M01 A3010 910 28 1400 250/08 RMK AO2
94908KDBQ DBQ20000331172509403/31/00 17:25:31  5-MIN KDBQ 312325Z 26008KT 10SM CLR 17/M01 A3010 910 28 1400 250/08 RMK AO2
94908KDBQ DBQ20000331173009403/31/00 17:30:31  5-MIN KDBQ 312330Z 25007KT 10SM CLR 17/M01 A3010 910 29 1400 250/07 RMK AO2
94908KDBQ DBQ20000331173509403/31/00 17:35:31  5-MIN KDBQ 312335Z 26008KT 10SM CLR 17/M01 A3010 910 29 1400 260/08 RMK AO2
94908KDBQ DBQ20000331174009403/31/00 17:40:31  5-MIN KDBQ 312340Z 26007KT 10SM CLR 17/M01 A3010 910 31 1400 260/07 RMK AO2
94908KDBQ DBQ20000331174509403/31/00 17:45:31  5-MIN KDBQ 312345Z 26006KT 10SM CLR 16/M01 A3010 910 32 1300 260/06 RMK AO2
94908KDBQ DBQ20000331175012903/31/00 17:50:31  5-MIN KDBQ 312350Z 26006KT 10SM CLR 16/M01 A3010 910 32 1300 260/06 RMK AO2 SLP196 T01611006 10189 20161 56020
94908KDBQ DBQ20000331175512903/31/00 17:55:31  5-MIN KDBQ 312355Z 26006KT 10SM CLR 16/M01 A3010 920 33 1200 260/06 RMK AO2 SLP197 T01561006 10189 20156 58004
94908KDBQ DBQ20000331180009403/31/00 18:00:31  5-MIN KDBQ 010000Z 26006KT 10SM CLR 16/M01 A3010 920 33 1200 260/06 RMK AO2
94908KDBQ DBQ20000331180509403/31/00 18:05:31  5-MIN KDBQ 010005Z 26006KT 10SM CLR 15/M01 A3010 920 34 1200 260/06 RMK AO2
94908KDBQ DBQ20000331181009403/31/00 18:10:31  5-MIN KDBQ 010010Z 26006KT 10SM CLR 15/M01 A3010 920 34 1200 260/06 RMK AO2
94908KDBQ DBQ20000331181509403/31/00 18:15:31  5-MIN KDBQ 010015Z 26007KT 10SM CLR 14/M01 A3010 910 35 1100 260/07 RMK AO2
94908KDBQ DBQ20000331182009303/31/00 18:20:31  5-MIN KDBQ 010020Z 26006KT 9SM CLR 14/M01 A3010 920 37 1000 260/06 RMK AO2
94908KDBQ DBQ20000331182509403/31/00 18:25:31  5-MIN KDBQ 010025Z 26007KT 10SM CLR 14/M01 A3010 910 37 1000 260/07 RMK AO2
94908KDBQ DBQ20000331183009403/31/00 18:30:31  5-MIN KDBQ 010030Z 26006KT 10SM CLR 14/M01 A3010 920 37 1000 260/06 RMK AO2
94908KDBQ DBQ20000331183509403/31/00 18:35:31  5-MIN KDBQ 010035Z 26007KT 10SM CLR 13/M01 A3010 920 38 1000 260/07 RMK AO2
94908KDBQ DBQ20000331184009303/31/00 18:40:31  5-MIN KDBQ 010040Z 26007KT 10SM CLR 13/M01 A3010 910 39 900 260/07 RMK AO2
94908KDBQ DBQ20000331184509303/31/00 18:45:31  5-MIN KDBQ 010045Z 26006KT 10SM CLR 12/M01 A3010 910 41 800 260/06 RMK AO2
94908KDBQ DBQ20000331185011003/31/00 18:50:31  5-MIN KDBQ 010050Z 26005KT 10SM CLR 12/M01 A3010 910 41 800 260/05 RMK AO2 SLP199 T01221006
94908KDBQ DBQ20000331185510903/31/00 18:55:31  5-MIN KDBQ 010055Z 27006KT 10SM CLR 12/00 A3010 910 43 800 260/06 RMK AO2 SLP199 T01220000
94908KDBQ DBQ20000331190009203/31/00 19:00:31  5-MIN KDBQ 010100Z 26007KT 10SM CLR 12/00 A3010 910 44 800 260/07 RMK AO2
94908KDBQ DBQ20000331190509203/31/00 19:05:31  5-MIN KDBQ 010105Z 26006KT 10SM CLR 12/00 A3010 910 44 800 260/06 RMK AO2
94908KDBQ DBQ20000331191009203/31/00 19:10:31  5-MIN KDBQ 010110Z 26007KT 10SM CLR 12/00 A3010 910 44 800 260/07 RMK AO2
94908KDBQ DBQ20000331191509203/31/00 19:15:31  5-MIN KDBQ 010115Z 27008KT 10SM CLR 12/00 A3010 910 44 800 270/08 RMK AO2
94908KDBQ DBQ20000331192009203/31/00 19:20:31  5-MIN KDBQ 010120Z 28008KT 10SM CLR 12/00 A3010 910 43 800 270/08 RMK AO2
94908KDBQ DBQ20000331192509203/31/00 19:25:31  5-MIN KDBQ 010125Z 28010KT 10SM CLR 12/01 A3011 910 44 800 280/10 RMK AO2
94908KDBQ DBQ20000331193009303/31/00 19:30:31  5-MIN KDBQ 010130Z 29011KT 10SM CLR 13/00 A3011 910 40 1000 290/11 RMK AO2
94908KDBQ DBQ20000331193509203/31/00 19:35:31  5-MIN KDBQ 010135Z 32013KT 10SM CLR 13/01 A3011 900 43 900 320/13 RMK AO2
94908KDBQ DBQ20000331194009303/31/00 19:40:31  5-MIN KDBQ 010140Z 33009KT 10SM CLR 13/01 A3011 900 41 1000 330/09 RMK AO2
94908KDBQ DBQ20000331194509303/31/00 19:45:31  5-MIN KDBQ 010145Z 33011KT 10SM CLR 13/00 A3011 900 40 1000 330/11 RMK AO2
94908KDBQ DBQ20000331195011103/31/00 19:50:31  5-MIN KDBQ 010150Z 33013KT 10SM CLR 13/M01 A3011 900 38 1000 330/13 RMK AO2 SLP200 T01331006
94908KDBQ DBQ20000331195512003/31/00 19:55:31  5-MIN KDBQ 010155Z AUTO 33010KT 10SM CLR 13/M01 A3011 900 38 900 330/10 RMK AO2 SLP201 T01281011 TSNO
94908KDBQ DBQ20000331200010303/31/00 20:00:31  5-MIN KDBQ 010200Z AUTO 33010KT 10SM CLR 12/M01 A3011 900 39 800 330/10 RMK AO2 TSNO
94908KDBQ DBQ20000331200510303/31/00 20:05:31  5-MIN KDBQ 010205Z AUTO 33009KT 10SM CLR 12/M01 A3011 900 39 800 330/09 RMK AO2 TSNO
94908KDBQ DBQ20000331201010303/31/00 20:10:31  5-MIN KDBQ 010210Z AUTO 33010KT 10SM CLR 12/M02 A3011 900 38 800 330/10 RMK AO2 TSNO
94908KDBQ DBQ20000331201510303/31/00 20:15:31  5-MIN KDBQ 010215Z AUTO 33009KT 10SM CLR 12/M02 A3011 900 38 800 330/09 RMK AO2 TSNO
94908KDBQ DBQ20000331202010303/31/00 20:20:31  5-MIN KDBQ 010220Z AUTO 33009KT 10SM CLR 12/M02 A3011 900 38 800 330/09 RMK AO2 TSNO
94908KDBQ DBQ20000331202510303/31/00 20:25:31  5-MIN KDBQ 010225Z AUTO 33008KT 10SM CLR 12/M02 A3011 900 36 800 330/08 RMK AO2 TSNO
94908KDBQ DBQ20000331203010303/31/00 20:30:31  5-MIN KDBQ 010230Z AUTO 33009KT 10SM CLR 12/M02 A3011 900 36 800 330/09 RMK AO2 TSNO
94908KDBQ DBQ20000331203510303/31/00 20:35:31  5-MIN KDBQ 010235Z AUTO 33008KT 10SM CLR 12/M02 A3011 900 38 800 330/08 RMK AO2 TSNO
94908KDBQ DBQ20000331204010303/31/00 20:40:31  5-MIN KDBQ 010240Z AUTO 33007KT 10SM CLR 12/M02 A3011 900 38 800 330/07 RMK AO2 TSNO
94908KDBQ DBQ20000331204510303/31/00 20:45:31  5-MIN KDBQ 010245Z AUTO 34006KT 10SM CLR 12/M03 A3011 900 36 800 340/06 RMK AO2 TSNO
94908KDBQ DBQ20000331205012603/31/00 20:50:31  5-MIN KDBQ 010250Z AUTO 35005KT 10SM CLR 12/M03 A3011 910 36 800 350/05 RMK AO2 SLP198 T01171028 58004 TSNO
94908KDBQ DBQ20000331205512603/31/00 20:55:31  5-MIN KDBQ 010255Z AUTO 01005KT 10SM CLR 11/M03 A3011 910 37 700 360/05 RMK AO2 SLP198 T01111028 50003 TSNO
94908KDBQ DBQ20000331210010303/31/00 21:00:31  5-MIN KDBQ 010300Z AUTO 02005KT 10SM CLR 11/M02 A3010 910 40 600 010/05 RMK AO2 TSNO
94908KDBQ DBQ20000331210510303/31/00 21:05:31  5-MIN KDBQ 010305Z AUTO 02005KT 10SM CLR 11/M02 A3010 910 40 600 020/05 RMK AO2 TSNO
94908KDBQ DBQ20000331211010303/31/00 21:10:31  5-MIN KDBQ 010310Z AUTO 02005KT 10SM CLR 11/M02 A3010 910 40 600 020/05 RMK AO2 TSNO
94908KDBQ DBQ20000331211510303/31/00 21:15:31  5-MIN KDBQ 010315Z AUTO 01005KT 10SM CLR 11/M03 A3010 910 39 600 010/05 RMK AO2 TSNO
94908KDBQ DBQ20000331212010303/31/00 21:20:31  5-MIN KDBQ 010320Z AUTO 36005KT 10SM CLR 11/M03 A3010 910 39 600 360/05 RMK AO2 TSNO
94908KDBQ DBQ20000331212510303/31/00 21:25:31  5-MIN KDBQ 010325Z AUTO 36005KT 10SM CLR 11/M03 A3010 910 37 700 360/05 RMK AO2 TSNO
94908KDBQ DBQ20000331213010303/31/00 21:30:31  5-MIN KDBQ 010330Z AUTO 36005KT 10SM CLR 11/M03 A3010 910 36 700 360/05 RMK AO2 TSNO
94908KDBQ DBQ20000331213510303/31/00 21:35:31  5-MIN KDBQ 010335Z AUTO 36005KT 10SM CLR 11/M03 A3010 910 36 700 360/05 RMK AO2 TSNO
94908KDBQ DBQ20000331214010303/31/00 21:40:31  5-MIN KDBQ 010340Z AUTO 35004KT 10SM CLR 11/M03 A3011 910 36 700 350/04 RMK AO2 TSNO
94908KDBQ DBQ20000331214510303/31/00 21:45:31  5-MIN KDBQ 010345Z AUTO 34005KT 10SM CLR 11/M04 A3011 900 34 700 340/05 RMK AO2 TSNO
94908KDBQ DBQ20000331215012003/31/00 21:50:31  5-MIN KDBQ 010350Z AUTO 35005KT 10SM CLR 11/M04 A3011 910 36 600 350/05 RMK AO2 SLP198 T01061039 TSNO
94908KDBQ DBQ20000331215512003/31/00 21:55:31  5-MIN KDBQ 010355Z AUTO 36005KT 10SM CLR 11/M04 A3011 910 36 600 360/05 RMK AO2 SLP197 T01061039 TSNO
94908KDBQ DBQ20000331220010303/31/00 22:00:31  5-MIN KDBQ 010400Z AUTO 36005KT 10SM CLR 11/M04 A3011 910 36 600 360/05 RMK AO2 TSNO
94908KDBQ DBQ20000331220510303/31/00 22:05:31  5-MIN KDBQ 010405Z AUTO 36005KT 10SM CLR 11/M04 A3011 910 36 600 360/05 RMK AO2 TSNO
94908KDBQ DBQ20000331221010303/31/00 22:10:31  5-MIN KDBQ 010410Z AUTO 36005KT 10SM CLR 11/M04 A3011 910 36 600 360/05 RMK AO2 TSNO
94908KDBQ DBQ20000331221510303/31/00 22:15:31  5-MIN KDBQ 010415Z AUTO 36004KT 10SM CLR 11/M04 A3010 910 34 700 360/04 RMK AO2 TSNO
94908KDBQ DBQ20000331222010303/31/00 22:20:31  5-MIN KDBQ 010420Z AUTO 36005KT 10SM CLR 11/M04 A3010 910 36 600 360/05 RMK AO2 TSNO
94908KDBQ DBQ20000331222510603/31/00 22:25:31  5-MIN KDBQ 010425Z AUTO 35005KT 10SM FEW120 10/M04 A3011 910 37 600 350/05 RMK AO2 TSNO
94908KDBQ DBQ20000331223010603/31/00 22:30:31  5-MIN KDBQ 010430Z AUTO 35005KT 10SM SCT120 11/M04 A3011 910 34 600 350/05 RMK AO2 TSNO
94908KDBQ DBQ20000331223510603/31/00 22:35:31  5-MIN KDBQ 010435Z AUTO 36005KT 10SM FEW120 11/M04 A3011 910 36 600 350/05 RMK AO2 TSNO
94908KDBQ DBQ20000331224010603/31/00 22:40:31  5-MIN KDBQ 010440Z AUTO 36004KT 10SM FEW120 11/M04 A3011 910 36 600 360/04 RMK AO2 TSNO
94908KDBQ DBQ20000331224510603/31/00 22:45:31  5-MIN KDBQ 010445Z AUTO 35004KT 10SM BKN120 11/M04 A3011 910 36 600 350/04 RMK AO2 TSNO
94908KDBQ DBQ20000331225012303/31/00 22:50:31  5-MIN KDBQ 010450Z AUTO 35004KT 10SM BKN120 11/M04 A3010 910 36 600 350/04 RMK AO2 SLP197 T01061039 TSNO
94908KDBQ DBQ20000331225512303/31/00 22:55:31  5-MIN KDBQ 010455Z AUTO 36004KT 10SM BKN120 11/M04 A3010 910 34 600 360/04 RMK AO2 SLP196 T01061044 TSNO
94908KDBQ DBQ20000331230010603/31/00 23:00:31  5-MIN KDBQ 010500Z AUTO 36004KT 10SM BKN120 11/M04 A3010 910 34 600 360/04 RMK AO2 TSNO
94908KDBQ DBQ20000331230510603/31/00 23:05:31  5-MIN KDBQ 010505Z AUTO 36004KT 10SM BKN120 11/M04 A3010 910 34 600 360/04 RMK AO2 TSNO
94908KDBQ DBQ20000331231010603/31/00 23:10:31  5-MIN KDBQ 010510Z AUTO 34005KT 10SM BKN120 11/M04 A3010 910 34 600 340/05 RMK AO2 TSNO
94908KDBQ DBQ20000331231510603/31/00 23:15:31  5-MIN KDBQ 010515Z AUTO 34005KT 10SM BKN120 10/M04 A3010 910 36 600 340/05 RMK AO2 TSNO
94908KDBQ DBQ20000331232010603/31/00 23:20:31  5-MIN KDBQ 010520Z AUTO 34005KT 10SM SCT120 09/M04 A3010 910 39 500 330/05 RMK AO2 TSNO
94908KDBQ DBQ20000331232510603/31/00 23:25:31  5-MIN KDBQ 010525Z AUTO 33005KT 10SM SCT120 09/M03 A3010 910 40 500 330/05 RMK AO2 TSNO
94908KDBQ DBQ20000331233010603/31/00 23:30:31  5-MIN KDBQ 010530Z AUTO 33004KT 10SM BKN120 09/M03 A3010 910 42 400 330/04 RMK AO2 TSNO
94908KDBQ DBQ20000331233510603/31/00 23:35:31  5-MIN KDBQ 010535Z AUTO 32004KT 10SM BKN120 08/M02 A3010 910 49 300 320/04 RMK AO2 TSNO
94908KDBQ DBQ20000331234010603/31/00 23:40:31  5-MIN KDBQ 010540Z AUTO 30003KT 10SM BKN120 07/M01 A3010 910 57 200 300/03 RMK AO2 TSNO
94908KDBQ DBQ20000331234510603/31/00 23:45:31  5-MIN KDBQ 010545Z AUTO 00000KT 10SM BKN120 06/M01 A3010 910 60 100 000/00 RMK AO2 TSNO
94908KDBQ DBQ20000331235015103/31/00 23:50:31  5-MIN KDBQ 010550Z AUTO 00000KT 10SM BKN120 06/M01 A3010 910 60 100 000/00 RMK AO2 SLP196 T00611011 10156 20061 401890011 50003 TSNO
94908KDBQ DBQ20000331235515103/31/00 23:55:31  5-MIN KDBQ 010555Z AUTO 00000KT 10SM BKN120 06/M01 A3010 910 62 100 000/00 RMK AO2 SLP194 T00611006 10156 20061 401890011 58002 TSNO
