94908KDBQ DBQ20011101000010411/01/01 00:00:32  5-MIN KDBQ 010600Z AUTO 18014KT 10SM CLR 13/02 A2971 1270 46 1400 180/14 RMK AO2 TSNO
94908KDBQ DBQ20011101000510411/01/01 00:05:31  5-MIN KDBQ 010605Z AUTO 17014KT 10SM CLR 13/02 A2971 1280 46 1400 170/14 RMK AO2 TSNO
94908KDBQ DBQ20011101001010411/01/01 00:10:31  5-MIN KDBQ 010610Z AUTO 18016KT 10SM CLR 13/02 A2971 1280 46 1400 180/16 RMK AO2 TSNO
94908KDBQ DBQ20011101001510411/01/01 00:15:31  5-MIN KDBQ 010615Z AUTO 17016KT 10SM CLR 13/02 A2970 1280 46 1400 170/16 RMK AO2 TSNO
94908KDBQ DBQ20011101002010411/01/01 00:20:31  5-MIN KDBQ 010620Z AUTO 17016KT 10SM CLR 13/02 A2970 1280 46 1400 170/16 RMK AO2 TSNO
94908KDBQ DBQ20011101002510411/01/01 00:25:31  5-MIN KDBQ 010625Z AUTO 18016KT 10SM CLR 13/02 A2970 1280 46 1400 180/16 RMK AO2 TSNO
94908KDBQ DBQ20011101003010411/01/01 00:30:31  5-MIN KDBQ 010630Z AUTO 18016KT 10SM CLR 13/02 A2970 1290 46 1400 180/16 RMK AO2 TSNO
94908KDBQ DBQ20011101003510411/01/01 00:35:31  5-MIN KDBQ 010635Z AUTO 17016KT 10SM CLR 13/02 A2969 1290 46 1400 170/16 RMK AO2 TSNO
94908KDBQ DBQ20011101004011011/01/01 00:40:31  5-MIN KDBQ 010640Z AUTO 17017G23KT 10SM CLR 13/02 A2970 1290 46 1400 170/17G23 RMK AO2 TSNO
94908KDBQ DBQ20011101004511011/01/01 00:45:31  5-MIN KDBQ 010645Z AUTO 18017G23KT 10SM CLR 13/02 A2969 1290 46 1400 170/17G23 RMK AO2 TSNO
94908KDBQ DBQ20011101005012111/01/01 00:50:31  5-MIN KDBQ 010650Z AUTO 18016KT 10SM CLR 13/03 A2969 1290 50 1400 180/16 RMK AO2 SLP054 T01280028 TSNO
94908KDBQ DBQ20011101005512111/01/01 00:55:31  5-MIN KDBQ 010655Z AUTO 18017KT 10SM CLR 13/03 A2969 1290 50 1400 180/17 RMK AO2 SLP054 T01280028 TSNO
94908KDBQ DBQ20011101010010411/01/01 01:00:31  5-MIN KDBQ 010700Z AUTO 18018KT 10SM CLR 13/03 A2969 1290 50 1400 180/18 RMK AO2 TSNO
94908KDBQ DBQ20011101010510411/01/01 01:05:31  5-MIN KDBQ 010705Z AUTO 18017KT 10SM CLR 13/03 A2969 1290 48 1400 180/17 RMK AO2 TSNO
94908KDBQ DBQ20011101011010411/01/01 01:10:31  5-MIN KDBQ 010710Z AUTO 18016KT 10SM CLR 13/03 A2969 1290 50 1400 180/16 RMK AO2 TSNO
94908KDBQ DBQ20011101011510411/01/01 01:15:31  5-MIN KDBQ 010715Z AUTO 18016KT 10SM CLR 13/03 A2969 1290 48 1400 180/16 RMK AO2 TSNO
94908KDBQ DBQ20011101012010411/01/01 01:20:31  5-MIN KDBQ 010720Z AUTO 18016KT 10SM CLR 13/03 A2969 1290 48 1400 180/16 RMK AO2 TSNO
94908KDBQ DBQ20011101012511011/01/01 01:25:31  5-MIN KDBQ 010725Z AUTO 18016G22KT 10SM CLR 13/03 A2969 1290 50 1400 180/16G22 RMK AO2 TSNO
94908KDBQ DBQ20011101013011011/01/01 01:30:31  5-MIN KDBQ 010730Z AUTO 18016G22KT 10SM CLR 13/03 A2969 1290 50 1400 180/16G22 RMK AO2 TSNO
94908KDBQ DBQ20011101013510411/01/01 01:35:31  5-MIN KDBQ 010735Z AUTO 18016KT 10SM CLR 13/03 A2969 1290 50 1400 180/16 RMK AO2 TSNO
94908KDBQ DBQ20011101014010411/01/01 01:40:31  5-MIN KDBQ 010740Z AUTO 18016KT 10SM CLR 13/03 A2969 1290 50 1400 180/16 RMK AO2 TSNO
94908KDBQ DBQ20011101014510411/01/01 01:45:31  5-MIN KDBQ 010745Z AUTO 18017KT 10SM CLR 13/03 A2969 1290 50 1400 180/17 RMK AO2 TSNO
94908KDBQ DBQ20011101015012111/01/01 01:50:31  5-MIN KDBQ 010750Z AUTO 18016KT 10SM CLR 13/03 A2969 1290 50 1400 180/16 RMK AO2 SLP053 T01330033 TSNO
94908KDBQ DBQ20011101015512111/01/01 01:55:31  5-MIN KDBQ 010755Z AUTO 18018KT 10SM CLR 13/03 A2969 1290 50 1400 180/18 RMK AO2 SLP052 T01330033 TSNO
94908KDBQ DBQ20011101020011011/01/01 02:00:31  5-MIN KDBQ 010800Z AUTO 18017G25KT 10SM CLR 13/03 A2968 1300 50 1400 180/17G25 RMK AO2 TSNO
94908KDBQ DBQ20011101020511011/01/01 02:05:31  5-MIN KDBQ 010805Z AUTO 18018G25KT 10SM CLR 13/04 A2968 1300 52 1400 180/18G25 RMK AO2 TSNO
94908KDBQ DBQ20011101021011011/01/01 02:10:31  5-MIN KDBQ 010810Z AUTO 18018G24KT 10SM CLR 14/04 A2968 1300 50 1500 180/18G24 RMK AO2 TSNO
94908KDBQ DBQ20011101021511011/01/01 02:15:31  5-MIN KDBQ 010815Z AUTO 18019G25KT 10SM CLR 14/04 A2968 1300 50 1500 180/19G25 RMK AO2 TSNO
94908KDBQ DBQ20011101022011011/01/01 02:20:31  5-MIN KDBQ 010820Z AUTO 18019G25KT 10SM CLR 14/04 A2968 1310 50 1500 180/19G25 RMK AO2 TSNO
94908KDBQ DBQ20011101022510411/01/01 02:25:31  5-MIN KDBQ 010825Z AUTO 19021KT 10SM CLR 14/04 A2968 1300 50 1500 180/21 RMK AO2 TSNO
94908KDBQ DBQ20011101023010411/01/01 02:30:31  5-MIN KDBQ 010830Z AUTO 19018KT 10SM CLR 14/04 A2967 1310 50 1500 180/18 RMK AO2 TSNO
94908KDBQ DBQ20011101023511011/01/01 02:35:31  5-MIN KDBQ 010835Z AUTO 19020G24KT 10SM CLR 14/04 A2967 1310 50 1500 180/20G24 RMK AO2 TSNO
94908KDBQ DBQ20011101024010411/01/01 02:40:31  5-MIN KDBQ 010840Z AUTO 18017KT 10SM CLR 14/04 A2967 1310 50 1500 180/17 RMK AO2 TSNO
94908KDBQ DBQ20011101024510411/01/01 02:45:31  5-MIN KDBQ 010845Z AUTO 18019KT 10SM CLR 14/04 A2967 1310 50 1500 180/19 RMK AO2 TSNO
94908KDBQ DBQ20011101025012711/01/01 02:50:31  5-MIN KDBQ 010850Z AUTO 18018KT 10SM CLR 14/04 A2967 1310 52 1500 180/18 RMK AO2 SLP046 T01390044 58005 TSNO
94908KDBQ DBQ20011101025513311/01/01 02:55:31  5-MIN KDBQ 010855Z AUTO 18019G23KT 10SM CLR 14/04 A2967 1310 52 1500 180/19G23 RMK AO2 SLP047 T01390044 56012 TSNO
94908KDBQ DBQ20011101030011011/01/01 03:00:31  5-MIN KDBQ 010900Z AUTO 18018G24KT 10SM CLR 13/04 A2967 1310 54 1500 180/18G24 RMK AO2 TSNO
94908KDBQ DBQ20011101030510411/01/01 03:05:31  5-MIN KDBQ 010905Z AUTO 19017KT 10SM CLR 13/04 A2967 1310 54 1500 180/17 RMK AO2 TSNO
94908KDBQ DBQ20011101031010411/01/01 03:10:31  5-MIN KDBQ 010910Z AUTO 18019KT 10SM CLR 13/04 A2967 1310 54 1500 180/19 RMK AO2 TSNO
94908KDBQ DBQ20011101031510411/01/01 03:15:31  5-MIN KDBQ 010915Z AUTO 19016KT 10SM CLR 13/04 A2967 1310 54 1500 190/16 RMK AO2 TSNO
94908KDBQ DBQ20011101032010411/01/01 03:20:31  5-MIN KDBQ 010920Z AUTO 19019KT 10SM CLR 13/04 A2967 1310 54 1500 190/19 RMK AO2 TSNO
94908KDBQ DBQ20011101032510411/01/01 03:25:31  5-MIN KDBQ 010925Z AUTO 19017KT 10SM CLR 13/04 A2968 1310 54 1500 190/17 RMK AO2 TSNO
94908KDBQ DBQ20011101033010411/01/01 03:30:31  5-MIN KDBQ 010930Z AUTO 19015KT 10SM CLR 13/04 A2967 1310 54 1500 190/15 RMK AO2 TSNO
94908KDBQ DBQ20011101033510411/01/01 03:35:31  5-MIN KDBQ 010935Z AUTO 18017KT 10SM CLR 13/04 A2967 1310 54 1500 180/17 RMK AO2 TSNO
94908KDBQ DBQ20011101034010411/01/01 03:40:31  5-MIN KDBQ 010940Z AUTO 19016KT 10SM CLR 13/04 A2967 1310 54 1500 180/16 RMK AO2 TSNO
94908KDBQ DBQ20011101034511011/01/01 03:45:31  5-MIN KDBQ 010945Z AUTO 19017G23KT 10SM CLR 13/05 A2967 1310 57 1500 190/17G23 RMK AO2 TSNO
94908KDBQ DBQ20011101035012111/01/01 03:50:31  5-MIN KDBQ 010950Z AUTO 19018KT 10SM CLR 13/05 A2967 1310 57 1500 190/18 RMK AO2 SLP048 T01330050 TSNO
94908KDBQ DBQ20011101035512111/01/01 03:55:31  5-MIN KDBQ 010955Z AUTO 19015KT 10SM CLR 13/05 A2967 1310 57 1500 180/15 RMK AO2 SLP048 T01330050 TSNO
94908KDBQ DBQ20011101040011011/01/01 04:00:31  5-MIN KDBQ 011000Z AUTO 18018G25KT 10SM CLR 13/05 A2967 1310 57 1500 180/18G25 RMK AO2 TSNO
94908KDBQ DBQ20011101040511011/01/01 04:05:31  5-MIN KDBQ 011005Z AUTO 18017G25KT 10SM CLR 13/05 A2967 1310 57 1500 180/17G25 RMK AO2 TSNO
94908KDBQ DBQ20011101041011011/01/01 04:10:31  5-MIN KDBQ 011010Z AUTO 18017G25KT 10SM CLR 13/05 A2968 1300 57 1500 180/17G25 RMK AO2 TSNO
94908KDBQ DBQ20011101041511011/01/01 04:15:31  5-MIN KDBQ 011015Z AUTO 19017G25KT 10SM CLR 13/05 A2968 1300 57 1500 190/17G25 RMK AO2 TSNO
94908KDBQ DBQ20011101042011011/01/01 04:20:31  5-MIN KDBQ 011020Z AUTO 18017G24KT 10SM CLR 13/05 A2968 1300 57 1400 180/17G24 RMK AO2 TSNO
94908KDBQ DBQ20011101042510411/01/01 04:25:31  5-MIN KDBQ 011025Z AUTO 19018KT 10SM CLR 13/05 A2968 1300 57 1400 180/18 RMK AO2 TSNO
94908KDBQ DBQ20011101043010411/01/01 04:30:31  5-MIN KDBQ 011030Z AUTO 19017KT 10SM CLR 13/05 A2968 1300 57 1400 190/17 RMK AO2 TSNO
94908KDBQ DBQ20011101043510411/01/01 04:35:31  5-MIN KDBQ 011035Z AUTO 19017KT 10SM CLR 13/05 A2968 1300 57 1400 190/17 RMK AO2 TSNO
94908KDBQ DBQ20011101044010411/01/01 04:40:31  5-MIN KDBQ 011040Z AUTO 19017KT 10SM CLR 13/06 A2968 1300 59 1400 190/17 RMK AO2 TSNO
94908KDBQ DBQ20011101044510411/01/01 04:45:31  5-MIN KDBQ 011045Z AUTO 19016KT 10SM CLR 13/06 A2968 1300 59 1400 190/16 RMK AO2 TSNO
94908KDBQ DBQ20011101045012111/01/01 04:50:31  5-MIN KDBQ 011050Z AUTO 19016KT 10SM CLR 13/06 A2968 1300 59 1400 190/16 RMK AO2 SLP050 T01330056 TSNO
94908KDBQ DBQ20011101045512111/01/01 04:55:31  5-MIN KDBQ 011055Z AUTO 19016KT 10SM CLR 13/06 A2968 1300 59 1400 190/16 RMK AO2 SLP051 T01330056 TSNO
94908KDBQ DBQ20011101050011011/01/01 05:00:31  5-MIN KDBQ 011100Z AUTO 19017G22KT 10SM CLR 13/06 A2968 1300 59 1400 190/17G22 RMK AO2 TSNO
94908KDBQ DBQ20011101050511311/01/01 05:05:31  5-MIN KDBQ 011105Z AUTO 19014G22KT 10SM FEW120 13/06 A2968 1300 59 1400 190/14G22 RMK AO2 TSNO
94908KDBQ DBQ20011101051010711/01/01 05:10:31  5-MIN KDBQ 011110Z AUTO 19018KT 10SM FEW120 13/06 A2968 1300 59 1400 190/18 RMK AO2 TSNO
94908KDBQ DBQ20011101051510411/01/01 05:15:31  5-MIN KDBQ 011115Z AUTO 19015KT 10SM CLR 13/06 A2968 1300 59 1400 190/15 RMK AO2 TSNO
94908KDBQ DBQ20011101052010711/01/01 05:20:31  5-MIN KDBQ 011120Z AUTO 19016KT 10SM FEW033 13/06 A2968 1300 59 1400 190/16 RMK AO2 TSNO
94908KDBQ DBQ20011101052510711/01/01 05:25:31  5-MIN KDBQ 011125Z AUTO 19017KT 10SM SCT033 13/06 A2968 1300 61 1400 190/17 RMK AO2 TSNO
94908KDBQ DBQ20011101053010711/01/01 05:30:31  5-MIN KDBQ 011130Z AUTO 19016KT 10SM SCT033 13/06 A2968 1300 61 1400 190/16 RMK AO2 TSNO
94908KDBQ DBQ20011101053510711/01/01 05:35:31  5-MIN KDBQ 011135Z AUTO 19015KT 10SM SCT035 13/06 A2968 1300 61 1400 190/15 RMK AO2 TSNO
94908KDBQ DBQ20011101054011411/01/01 05:40:31  5-MIN KDBQ 011140Z AUTO 19016KT 10SM SCT035 BKN100 13/06 A2968 1300 61 1400 190/16 RMK AO2 TSNO
94908KDBQ DBQ20011101054511411/01/01 05:45:31  5-MIN KDBQ 011145Z AUTO 19016KT 10SM SCT035 BKN100 13/06 A2969 1300 61 1400 190/16 RMK AO2 TSNO
94908KDBQ DBQ20011101055014911/01/01 05:50:31  5-MIN KDBQ 011150Z AUTO 20016KT 10SM FEW035 SCT100 13/06 A2969 1290 61 1400 190/16 RMK AO2 SLP053 T01330061 10139 20128 56012 TSNO
94908KDBQ DBQ20011101055513711/01/01 05:55:31  5-MIN KDBQ 011155Z 19017KT 10SM FEW035 13/06 A2969 1290 61 1400 190/17 RMK AO2 SLP052 T01330061 10139 20128 53005 TSNO
94908KDBQ DBQ20011101060009711/01/01 06:00:31  5-MIN KDBQ 011200Z 19014KT 10SM FEW110 13/07 A2969 1290 64 1400 190/14 RMK AO2
94908KDBQ DBQ20011101060510411/01/01 06:05:31  5-MIN KDBQ 011205Z 19016KT 10SM FEW100 SCT120 13/07 A2969 1290 64 1400 190/16 RMK AO2
94908KDBQ DBQ20011101061010411/01/01 06:10:31  5-MIN KDBQ 011210Z 19016KT 10SM SCT100 SCT120 13/07 A2969 1290 64 1400 190/16 RMK AO2
94908KDBQ DBQ20011101061510411/01/01 06:15:31  5-MIN KDBQ 011215Z 20016KT 10SM SCT085 BKN110 13/07 A2969 1290 64 1400 200/16 RMK AO2
94908KDBQ DBQ20011101062012711/01/01 06:20:31  5-MIN KDBQ 011220Z 19014KT 10SM -RA SCT075 SCT100 BKN120 13/07 A2970 1290 69 1400 190/14 RMK AO2 RAB16 P0000
94908KDBQ DBQ20011101062512611/01/01 06:25:31  5-MIN KDBQ 011225Z 19015KT 10SM SCT075 SCT100 BKN120 13/07 A2969 1290 66 1400 190/15 RMK AO2 RAB16E25 P0000
94908KDBQ DBQ20011101063012611/01/01 06:30:31  5-MIN KDBQ 011230Z 19015KT 10SM FEW080 SCT100 BKN120 13/07 A2969 1290 66 1400 190/15 RMK AO2 RAB16E25 P0000
94908KDBQ DBQ20011101063512611/01/01 06:35:31  5-MIN KDBQ 011235Z 19014KT 10SM FEW080 BKN100 BKN120 13/07 A2969 1290 66 1400 190/14 RMK AO2 RAB16E25 P0000
94908KDBQ DBQ20011101064011911/01/01 06:40:31  5-MIN KDBQ 011240Z 19014KT 10SM FEW075 BKN100 13/07 A2969 1290 66 1400 190/14 RMK AO2 RAB16E25 P0000
94908KDBQ DBQ20011101064511911/01/01 06:45:31  5-MIN KDBQ 011245Z 19013KT 10SM FEW070 BKN100 13/07 A2969 1290 66 1400 190/13 RMK AO2 RAB16E25 P0000
94908KDBQ DBQ20011101065013611/01/01 06:50:31  5-MIN KDBQ 011250Z 19013KT 10SM -RA BKN100 13/07 A2968 1300 66 1400 180/13 RMK AO2 RAB16E25B50 SLP051 P0000 T01330072
94908KDBQ DBQ20011101065514311/01/01 06:55:31  5-MIN KDBQ 011255Z 19014KT 10SM -RA FEW080 BKN100 13/08 A2969 1290 71 1400 190/14 RMK AO2 RAB16E25B50 SLP053 P0000 T01280078
94908KDBQ DBQ20011101070011411/01/01 07:00:31  5-MIN KDBQ 011300Z 19014KT 10SM -RA FEW080 OVC100 13/08 A2970 1290 71 1400 190/14 RMK AO2 P0000
94908KDBQ DBQ20011101070510711/01/01 07:05:31  5-MIN KDBQ 011305Z 19014KT 10SM -RA BKN100 13/08 A2970 1280 71 1400 190/14 RMK AO2 P0000
94908KDBQ DBQ20011101071011611/01/01 07:10:31  5-MIN KDBQ 011310Z 19013KT 10SM BKN100 OVC120 13/08 A2970 1280 71 1400 190/13 RMK AO2 RAE10 P0000
94908KDBQ DBQ20011101071510911/01/01 07:15:31  5-MIN KDBQ 011315Z 19013KT 10SM BKN100 13/08 A2970 1290 71 1400 180/13 RMK AO2 RAE10 P0000
94908KDBQ DBQ20011101072011611/01/01 07:20:31  5-MIN KDBQ 011320Z 19013KT 10SM FEW080 OVC100 13/08 A2969 1290 71 1400 180/13 RMK AO2 RAE10 P0000
94908KDBQ DBQ20011101072511311/01/01 07:25:31  5-MIN KDBQ 011325Z 19015KT 7SM -RA SCT055 OVC100 13/08 A2970 1280 74 1400 190/15 RMK AO2 P0000
94908KDBQ DBQ20011101073012011/01/01 07:30:31  5-MIN KDBQ 011330Z 20014KT 7SM -RA FEW034 BKN048 OVC100 12/09 A2970 1280 80 1300 190/14 RMK AO2 P0000
94908KDBQ DBQ20011101073512011/01/01 07:35:31  5-MIN KDBQ 011335Z 19016KT 9SM -RA SCT036 BKN050 OVC100 12/09 A2970 1280 80 1300 190/16 RMK AO2 P0000
94908KDBQ DBQ20011101074012311/01/01 07:40:31  5-MIN KDBQ 011340Z 19015KT 10SM BKN036 BKN050 OVC100 12/09 A2971 1280 80 1300 190/15 RMK AO2 RAE38 P0000
94908KDBQ DBQ20011101074512311/01/01 07:45:31  5-MIN KDBQ 011345Z 19013KT 10SM SCT036 BKN050 OVC100 12/09 A2970 1280 80 1300 180/13 RMK AO2 RAE38 P0000
94908KDBQ DBQ20011101075013611/01/01 07:50:31  5-MIN KDBQ 011350Z 19014KT 6SM RA FEW031 BKN039 OVC100 12/09 A2970 1280 80 1300 190/14 RMK AO2 SLP058 P0002 T01220089
94908KDBQ DBQ20011101075512911/01/01 07:55:31  5-MIN KDBQ 011355Z 19014KT 5SM RA BKN034 OVC100 12/09 A2970 1280 83 1300 190/14 RMK AO2 SLP058 P0002 T01220094
94908KDBQ DBQ20011101080012011/01/01 08:00:31  5-MIN KDBQ 011400Z 19015KT 6SM -RA SCT030 BKN037 BKN100 12/09 A2970 1280 83 1300 190/15 RMK AO2 P0000
94908KDBQ DBQ20011101080512011/01/01 08:05:31  5-MIN KDBQ 011405Z 19015KT 8SM -RA SCT030 SCT037 BKN100 12/09 A2970 1280 83 1300 190/15 RMK AO2 P0000
94908KDBQ DBQ20011101081011511/01/01 08:10:31  5-MIN KDBQ 011410Z 19015KT 9SM FEW040 SCT100 12/09 A2970 1280 83 1300 190/15 RMK AO2 RAE07 P0000
94908KDBQ DBQ20011101081511511/01/01 08:15:31  5-MIN KDBQ 011415Z 19015KT 9SM FEW040 SCT100 12/09 A2971 1280 83 1300 190/15 RMK AO2 RAE07 P0000
94908KDBQ DBQ20011101082010811/01/01 08:20:31  5-MIN KDBQ 011420Z 19015KT 9SM FEW037 12/09 A2971 1270 83 1300 190/15 RMK AO2 RAE07 P0000
94908KDBQ DBQ20011101082510811/01/01 08:25:31  5-MIN KDBQ 011425Z 19014KT 9SM FEW110 12/09 A2971 1270 83 1300 190/14 RMK AO2 RAE07 P0000
94908KDBQ DBQ20011101083010811/01/01 08:30:31  5-MIN KDBQ 011430Z 19015KT 9SM FEW060 12/10 A2971 1270 86 1300 190/15 RMK AO2 RAE07 P0000
94908KDBQ DBQ20011101083512211/01/01 08:35:31  5-MIN KDBQ 011435Z 19014KT 8SM -RA FEW045 SCT100 12/10 A2971 1270 86 1300 190/14 RMK AO2 RAE07B31 P0000
94908KDBQ DBQ20011101084011511/01/01 08:40:31  5-MIN KDBQ 011440Z 20016KT 9SM -RA FEW032 12/10 A2971 1270 86 1300 200/16 RMK AO2 RAE07B31 P0000
94908KDBQ DBQ20011101084511511/01/01 08:45:31  5-MIN KDBQ 011445Z 20014KT 9SM -RA FEW100 13/10 A2971 1270 83 1300 200/14 RMK AO2 RAE07B31 P0000
94908KDBQ DBQ20011101085014411/01/01 08:50:31  5-MIN KDBQ 011450Z 20014KT 9SM -RA FEW033 13/10 A2971 1270 83 1300 200/14 RMK AO2 RAE07B31 SLP061 P0000 60002 T01280100 53005
94908KDBQ DBQ20011101085514411/01/01 08:55:31  5-MIN KDBQ 011455Z 20015KT 9SM -RA FEW033 13/10 A2971 1270 83 1300 190/15 RMK AO2 RAE07B31 SLP062 P0000 60002 T01280100 53008
94908KDBQ DBQ20011101090011111/01/01 09:00:31  5-MIN KDBQ 011500Z 20016KT 9SM FEW049 SCT100 13/10 A2971 1270 83 1300 200/16 RMK AO2 RAE1456
94908KDBQ DBQ20011101090511111/01/01 09:05:31  5-MIN KDBQ 011505Z 19016KT 9SM FEW055 SCT100 13/11 A2971 1280 86 1400 190/16 RMK AO2 RAE1456
94908KDBQ DBQ20011101091011311/01/01 09:10:31  5-MIN KDBQ 011510Z 20015KT 8SM -RA FEW047 SCT100 13/11 A2970 1280 83 1400 200/15 RMK AO2 P0000
94908KDBQ DBQ20011101091512011/01/01 09:15:31  5-MIN KDBQ 011515Z 20014KT 8SM -RA SCT041 SCT060 SCT100 13/11 A2970 1280 83 1400 200/14 RMK AO2 P0001
94908KDBQ DBQ20011101092011311/01/01 09:20:31  5-MIN KDBQ 011520Z 20016KT 9SM -RA SCT040 SCT095 13/11 A2971 1280 83 1400 200/16 RMK AO2 P0001
94908KDBQ DBQ20011101092512111/01/01 09:25:31  5-MIN KDBQ 011525Z 19016G22KT 9SM FEW045 SCT100 13/11 A2971 1270 86 1400 190/16G22 RMK AO2 RAE25 P0001
94908KDBQ DBQ20011101093012111/01/01 09:30:31  5-MIN KDBQ 011530Z 20015G22KT 9SM FEW046 SCT100 13/11 A2971 1280 86 1400 200/15G22 RMK AO2 RAE25 P0001
94908KDBQ DBQ20011101093512211/01/01 09:35:31  5-MIN KDBQ 011535Z 20016KT 9SM FEW049 SCT070 SCT100 13/11 A2971 1280 86 1400 200/16 RMK AO2 RAE25 P0001
94908KDBQ DBQ20011101094011211/01/01 09:40:31  5-MIN KDBQ 011540Z 19017G23KT 8SM -RA FEW047 14/11 A2970 1280 83 1500 190/17G23 RMK AO2 P0001
94908KDBQ DBQ20011101094511211/01/01 09:45:31  5-MIN KDBQ 011545Z 20015G23KT 8SM -RA FEW065 14/11 A2970 1280 83 1500 190/15G23 RMK AO2 P0001
94908KDBQ DBQ20011101095012911/01/01 09:50:31  5-MIN KDBQ 011550Z 20018G22KT 9SM -RA FEW070 14/12 A2970 1280 86 1500 200/18G22 RMK AO2 SLP058 P0001 T01390117
94908KDBQ DBQ20011101095512511/01/01 09:55:31  5-MIN KDBQ 011555Z 20017KT 9SM FEW070 14/12 A2970 1280 83 1600 200/17 RMK AO2 RAE52 SLP058 P0001 T01440117
94908KDBQ DBQ20011101100011711/01/01 10:00:31  5-MIN KDBQ 011600Z 20021G26KT 9SM CLR 15/12 A2970 1280 80 1600 200/21G26 RMK AO2 PK WND 20026/1559
94908KDBQ DBQ20011101100511711/01/01 10:05:31  5-MIN KDBQ 011605Z 20019G26KT 9SM CLR 15/12 A2971 1270 83 1600 200/19G26 RMK AO2 PK WND 20026/1559
94908KDBQ DBQ20011101101011711/01/01 10:10:31  5-MIN KDBQ 011610Z 21017G24KT 9SM CLR 15/12 A2971 1280 80 1600 210/17G24 RMK AO2 PK WND 20026/1559
94908KDBQ DBQ20011101101511711/01/01 10:15:31  5-MIN KDBQ 011615Z 21016G24KT 9SM CLR 15/12 A2971 1280 83 1600 210/16G24 RMK AO2 PK WND 20026/1559
94908KDBQ DBQ20011101102011111/01/01 10:20:31  5-MIN KDBQ 011620Z 21016KT 9SM CLR 15/12 A2971 1280 80 1600 210/16 RMK AO2 PK WND 20026/1559
94908KDBQ DBQ20011101102511811/01/01 10:25:31  5-MIN KDBQ 011625Z 21018G23KT 10SM CLR 16/12 A2971 1280 77 1700 200/18G23 RMK AO2 PK WND 20026/1559
94908KDBQ DBQ20011101103011811/01/01 10:30:31  5-MIN KDBQ 011630Z 21017G23KT 10SM CLR 16/12 A2971 1270 77 1700 210/17G23 RMK AO2 PK WND 20026/1559
94908KDBQ DBQ20011101103511211/01/01 10:35:31  5-MIN KDBQ 011635Z 21018KT 10SM CLR 16/12 A2971 1270 77 1700 210/18 RMK AO2 PK WND 20026/1559
94908KDBQ DBQ20011101104011111/01/01 10:40:31  5-MIN KDBQ 011640Z 21016KT 9SM CLR 16/12 A2971 1270 77 1700 210/16 RMK AO2 PK WND 20026/1559
94908KDBQ DBQ20011101104512011/01/01 10:45:31  5-MIN KDBQ 011645Z 22019G22KT 9SM FEW020 16/12 A2971 1270 77 1700 220/19G22 RMK AO2 PK WND 20026/1559
94908KDBQ DBQ20011101105013811/01/01 10:50:31  5-MIN KDBQ 011650Z 22018G25KT 10SM FEW020 16/12 A2971 1270 77 1700 220/18G25 RMK AO2 PK WND 20026/1559 SLP060 T01610122
94908KDBQ DBQ20011101105513711/01/01 10:55:31  5-MIN KDBQ 011655Z 22016G25KT 9SM FEW022 16/12 A2971 1270 77 1700 220/16G25 RMK AO2 PK WND 20026/1559 SLP060 T01610122
94908KDBQ DBQ20011101110010311/01/01 11:00:31  5-MIN KDBQ 011700Z 22018G22KT 10SM FEW022 17/13 A2971 1270 77 1800 220/18G22 RMK AO2
94908KDBQ DBQ20011101110510311/01/01 11:05:31  5-MIN KDBQ 011705Z 22018G23KT 10SM FEW022 17/13 A2972 1270 77 1800 220/18G23 RMK AO2
94908KDBQ DBQ20011101111010311/01/01 11:10:31  5-MIN KDBQ 011710Z 23019G23KT 10SM FEW022 17/13 A2971 1270 75 1900 230/19G23 RMK AO2
94908KDBQ DBQ20011101111509711/01/01 11:15:31  5-MIN KDBQ 011715Z 22018KT 10SM SCT020 17/13 A2972 1270 75 1900 220/18 RMK AO2
94908KDBQ DBQ20011101112009711/01/01 11:20:31  5-MIN KDBQ 011720Z 22016KT 10SM BKN020 17/13 A2972 1270 77 1800 220/16 RMK AO2
94908KDBQ DBQ20011101112509711/01/01 11:25:31  5-MIN KDBQ 011725Z 22018KT 10SM BKN022 17/13 A2971 1270 75 1900 220/18 RMK AO2
94908KDBQ DBQ20011101113009611/01/01 11:30:31  5-MIN KDBQ 011730Z 23016KT 9SM BKN022 17/13 A2971 1270 75 1900 230/16 RMK AO2
94908KDBQ DBQ20011101113510211/01/01 11:35:31  5-MIN KDBQ 011735Z 22020G24KT 9SM BKN022 17/13 A2971 1270 77 1800 220/20G24 RMK AO2
94908KDBQ DBQ20011101114010211/01/01 11:40:31  5-MIN KDBQ 011740Z 21014G24KT 9SM BKN022 17/13 A2971 1270 75 1900 210/14G24 RMK AO2
94908KDBQ DBQ20011101114509611/01/01 11:45:31  5-MIN KDBQ 011745Z 22019KT 9SM BKN022 17/13 A2971 1270 75 1900 210/19 RMK AO2
94908KDBQ DBQ20011101115013811/01/01 11:50:31  5-MIN KDBQ 011750Z 22016KT 10SM BKN024 17/13 A2971 1270 75 1900 220/16 RMK AO2 SLP060 60003 T01720128 10172 20122 53008
94908KDBQ DBQ20011101115514411/01/01 11:55:31  5-MIN KDBQ 011755Z 22014G22KT 10SM BKN024 17/13 A2972 1270 75 1900 220/14G22 RMK AO2 SLP061 60003 T01720128 10172 20122 53002
94908KDBQ DBQ20011101120009611/01/01 12:00:31  5-MIN KDBQ 011800Z 22014KT 9SM BKN024 17/13 A2972 1260 75 1900 220/14 RMK AO2
94908KDBQ DBQ20011101120509611/01/01 12:05:31  5-MIN KDBQ 011805Z 22014KT 9SM OVC024 17/13 A2972 1270 75 1900 220/14 RMK AO2
94908KDBQ DBQ20011101121009611/01/01 12:10:31  5-MIN KDBQ 011810Z 23013KT 9SM OVC024 17/13 A2972 1270 75 1900 230/13 RMK AO2
94908KDBQ DBQ20011101121511011/01/01 12:15:31  5-MIN KDBQ 011815Z 22015G21KT 10SM BKN024 OVC030 18/13 A2972 1270 75 1900 220/15G21 RMK AO2
94908KDBQ DBQ20011101122011011/01/01 12:20:31  5-MIN KDBQ 011820Z 23019G22KT 10SM BKN024 OVC030 18/12 A2972 1270 69 1900 230/19G22 RMK AO2
94908KDBQ DBQ20011101122509611/01/01 12:25:31  5-MIN KDBQ 011825Z 23017KT 9SM OVC027 18/12 A2972 1270 69 1900 230/17 RMK AO2
94908KDBQ DBQ20011101123009611/01/01 12:30:31  5-MIN KDBQ 011830Z 22019KT 9SM OVC027 18/12 A2971 1270 67 2000 220/19 RMK AO2
94908KDBQ DBQ20011101123510211/01/01 12:35:31  5-MIN KDBQ 011835Z 24014G22KT 9SM BKN027 19/13 A2971 1270 67 2100 240/14G22 RMK AO2
94908KDBQ DBQ20011101124009611/01/01 12:40:31  5-MIN KDBQ 011840Z 22017KT 9SM BKN027 19/13 A2970 1280 67 2100 210/17 RMK AO2
94908KDBQ DBQ20011101124509611/01/01 12:45:31  5-MIN KDBQ 011845Z 23016KT 9SM SCT027 19/13 A2970 1290 67 2100 230/16 RMK AO2
94908KDBQ DBQ20011101125011411/01/01 12:50:31  5-MIN KDBQ 011850Z 22014KT 10SM SCT027 19/13 A2970 1290 67 2100 220/14 RMK AO2 SLP054 T01890128
94908KDBQ DBQ20011101125511411/01/01 12:55:31  5-MIN KDBQ 011855Z 21015KT 10SM FEW027 19/13 A2970 1280 67 2100 210/15 RMK AO2 SLP056 T01890128
94908KDBQ DBQ20011101130009411/01/01 13:00:31  5-MIN KDBQ 011900Z 23014KT 10SM CLR 19/13 A2970 1280 67 2100 230/14 RMK AO2
94908KDBQ DBQ20011101130509411/01/01 13:05:31  5-MIN KDBQ 011905Z 23014KT 10SM CLR 19/13 A2971 1270 67 2100 230/14 RMK AO2
94908KDBQ DBQ20011101131009411/01/01 13:10:31  5-MIN KDBQ 011910Z 22015KT 10SM CLR 19/12 A2971 1270 65 2100 220/15 RMK AO2
94908KDBQ DBQ20011101131509411/01/01 13:15:31  5-MIN KDBQ 011915Z 22016KT 10SM CLR 19/12 A2971 1270 62 2100 220/16 RMK AO2
94908KDBQ DBQ20011101132009411/01/01 13:20:31  5-MIN KDBQ 011920Z 24015KT 10SM CLR 19/12 A2971 1270 62 2100 230/15 RMK AO2
94908KDBQ DBQ20011101132509411/01/01 13:25:31  5-MIN KDBQ 011925Z 23015KT 10SM CLR 19/12 A2971 1270 62 2100 230/15 RMK AO2
94908KDBQ DBQ20011101133009411/01/01 13:30:31  5-MIN KDBQ 011930Z 22015KT 10SM CLR 19/12 A2971 1270 62 2100 220/15 RMK AO2
94908KDBQ DBQ20011101133509411/01/01 13:35:31  5-MIN KDBQ 011935Z 23012KT 10SM CLR 19/12 A2971 1270 62 2100 230/12 RMK AO2
94908KDBQ DBQ20011101134009411/01/01 13:40:31  5-MIN KDBQ 011940Z 22014KT 10SM CLR 19/12 A2972 1270 62 2100 220/14 RMK AO2
94908KDBQ DBQ20011101134509411/01/01 13:45:31  5-MIN KDBQ 011945Z 23012KT 10SM CLR 20/13 A2972 1260 63 2200 230/12 RMK AO2
94908KDBQ DBQ20011101135011111/01/01 13:50:31  5-MIN KDBQ 011950Z 23013KT 10SM CLR 20/13 A2973 1260 63 2200 230/13 RMK AO2 SLP064 T02000128
94908KDBQ DBQ20011101135511111/01/01 13:55:31  5-MIN KDBQ 011955Z 24014KT 10SM CLR 20/12 A2973 1250 60 2200 240/14 RMK AO2 SLP065 T02000122
94908KDBQ DBQ20011101140009411/01/01 14:00:31  5-MIN KDBQ 012000Z 22014KT 10SM CLR 20/12 A2973 1250 60 2200 220/14 RMK AO2
94908KDBQ DBQ20011101140509411/01/01 14:05:31  5-MIN KDBQ 012005Z 23014KT 10SM CLR 20/12 A2973 1260 60 2200 230/14 RMK AO2
94908KDBQ DBQ20011101141009411/01/01 14:10:31  5-MIN KDBQ 012010Z 24013KT 10SM CLR 21/12 A2973 1250 58 2200 240/13 RMK AO2
94908KDBQ DBQ20011101141509711/01/01 14:15:31  5-MIN KDBQ 012015Z 23015KT 10SM FEW037 20/12 A2973 1250 60 2200 230/15 RMK AO2
94908KDBQ DBQ20011101142009711/01/01 14:20:31  5-MIN KDBQ 012020Z 23013KT 10SM FEW037 21/12 A2973 1250 58 2200 230/13 RMK AO2
94908KDBQ DBQ20011101142509411/01/01 14:25:31  5-MIN KDBQ 012025Z 22014KT 10SM CLR 20/12 A2973 1260 60 2200 220/14 RMK AO2
94908KDBQ DBQ20011101143009411/01/01 14:30:31  5-MIN KDBQ 012030Z 22014KT 10SM CLR 20/12 A2973 1250 60 2200 220/14 RMK AO2
94908KDBQ DBQ20011101143509411/01/01 14:35:31  5-MIN KDBQ 012035Z 23011KT 10SM CLR 20/12 A2973 1250 60 2200 230/11 RMK AO2
94908KDBQ DBQ20011101144009411/01/01 14:40:31  5-MIN KDBQ 012040Z 23015KT 10SM CLR 21/12 A2973 1250 56 2200 230/15 RMK AO2
94908KDBQ DBQ20011101144509411/01/01 14:45:31  5-MIN KDBQ 012045Z 22011KT 10SM CLR 20/12 A2974 1250 58 2200 220/11 RMK AO2
94908KDBQ DBQ20011101145011711/01/01 14:50:31  5-MIN KDBQ 012050Z 22012KT 10SM CLR 21/12 A2973 1250 56 2200 220/12 RMK AO2 SLP067 T02060117 53002
94908KDBQ DBQ20011101145511711/01/01 14:55:31  5-MIN KDBQ 012055Z 23013KT 10SM CLR 21/12 A2974 1250 56 2200 230/13 RMK AO2 SLP067 T02060117 53006
94908KDBQ DBQ20011101150009411/01/01 15:00:31  5-MIN KDBQ 012100Z 23012KT 10SM CLR 21/12 A2974 1250 56 2200 230/12 RMK AO2
94908KDBQ DBQ20011101150509411/01/01 15:05:31  5-MIN KDBQ 012105Z 24012KT 10SM CLR 21/12 A2974 1250 56 2200 240/12 RMK AO2
94908KDBQ DBQ20011101151009411/01/01 15:10:31  5-MIN KDBQ 012110Z 22011KT 10SM CLR 21/12 A2974 1250 56 2200 220/11 RMK AO2
94908KDBQ DBQ20011101151509411/01/01 15:15:31  5-MIN KDBQ 012115Z 22011KT 10SM CLR 21/12 A2974 1240 56 2200 220/11 RMK AO2
94908KDBQ DBQ20011101152009411/01/01 15:20:31  5-MIN KDBQ 012120Z 22011KT 10SM CLR 21/11 A2974 1240 54 2200 220/11 RMK AO2
94908KDBQ DBQ20011101152509411/01/01 15:25:31  5-MIN KDBQ 012125Z 22012KT 10SM CLR 20/12 A2975 1240 58 2100 220/12 RMK AO2
94908KDBQ DBQ20011101153009411/01/01 15:30:31  5-MIN KDBQ 012130Z 22010KT 10SM CLR 20/12 A2975 1240 58 2100 220/10 RMK AO2
94908KDBQ DBQ20011101153509411/01/01 15:35:31  5-MIN KDBQ 012135Z 23010KT 10SM CLR 20/11 A2975 1240 56 2100 220/10 RMK AO2
94908KDBQ DBQ20011101154009411/01/01 15:40:31  5-MIN KDBQ 012140Z 22010KT 10SM CLR 20/11 A2975 1240 56 2100 220/10 RMK AO2
94908KDBQ DBQ20011101154509411/01/01 15:45:31  5-MIN KDBQ 012145Z 23012KT 10SM CLR 20/11 A2975 1230 56 2100 230/12 RMK AO2
94908KDBQ DBQ20011101155011111/01/01 15:50:31  5-MIN KDBQ 012150Z 23009KT 10SM CLR 20/11 A2976 1230 56 2100 230/09 RMK AO2 SLP075 T02000111
94908KDBQ DBQ20011101155511111/01/01 15:55:31  5-MIN KDBQ 012155Z 23014KT 10SM CLR 19/12 A2976 1230 60 2100 230/14 RMK AO2 SLP075 T01940117
94908KDBQ DBQ20011101160009411/01/01 16:00:31  5-MIN KDBQ 012200Z 23010KT 10SM CLR 19/11 A2976 1230 58 2100 230/10 RMK AO2
94908KDBQ DBQ20011101160509411/01/01 16:05:31  5-MIN KDBQ 012205Z 23008KT 10SM CLR 19/11 A2976 1220 60 2000 220/08 RMK AO2
94908KDBQ DBQ20011101161009411/01/01 16:10:31  5-MIN KDBQ 012210Z 22008KT 10SM CLR 18/11 A2977 1220 62 1900 220/08 RMK AO2
94908KDBQ DBQ20011101161509411/01/01 16:15:31  5-MIN KDBQ 012215Z 22007KT 10SM CLR 18/11 A2977 1220 62 1900 220/07 RMK AO2
94908KDBQ DBQ20011101162009411/01/01 16:20:31  5-MIN KDBQ 012220Z 22007KT 10SM CLR 18/11 A2977 1220 62 1900 220/07 RMK AO2
94908KDBQ DBQ20011101162509411/01/01 16:25:31  5-MIN KDBQ 012225Z 22007KT 10SM CLR 18/11 A2977 1220 64 1900 220/07 RMK AO2
94908KDBQ DBQ20011101163009411/01/01 16:30:31  5-MIN KDBQ 012230Z 22006KT 10SM CLR 18/11 A2977 1220 62 1900 220/06 RMK AO2
94908KDBQ DBQ20011101163509411/01/01 16:35:31  5-MIN KDBQ 012235Z 21006KT 10SM CLR 17/11 A2977 1220 64 1800 210/06 RMK AO2
94908KDBQ DBQ20011101164009411/01/01 16:40:31  5-MIN KDBQ 012240Z 20007KT 10SM CLR 17/11 A2977 1220 64 1800 200/07 RMK AO2
94908KDBQ DBQ20011101164509411/01/01 16:45:31  5-MIN KDBQ 012245Z 21006KT 10SM CLR 17/11 A2977 1220 67 1700 210/06 RMK AO2
94908KDBQ DBQ20011101165011111/01/01 16:50:31  5-MIN KDBQ 012250Z 21005KT 10SM CLR 16/10 A2978 1210 67 1700 210/05 RMK AO2 SLP083 T01610100
94908KDBQ DBQ20011101165511111/01/01 16:55:31  5-MIN KDBQ 012255Z 21005KT 10SM CLR 17/10 A2978 1210 64 1700 210/05 RMK AO2 SLP083 T01670100
94908KDBQ DBQ20011101170009411/01/01 17:00:31  5-MIN KDBQ 012300Z 21004KT 10SM CLR 16/10 A2978 1210 67 1700 200/04 RMK AO2
94908KDBQ DBQ20011101170509411/01/01 17:05:31  5-MIN KDBQ 012305Z 19006KT 10SM CLR 16/10 A2978 1210 69 1600 190/06 RMK AO2
94908KDBQ DBQ20011101171009411/01/01 17:10:31  5-MIN KDBQ 012310Z 19006KT 10SM CLR 15/10 A2978 1200 72 1500 190/06 RMK AO2
94908KDBQ DBQ20011101171509411/01/01 17:15:31  5-MIN KDBQ 012315Z 19005KT 10SM CLR 15/10 A2978 1210 72 1500 190/05 RMK AO2
94908KDBQ DBQ20011101172009411/01/01 17:20:31  5-MIN KDBQ 012320Z 18006KT 10SM CLR 15/10 A2979 1200 72 1500 180/06 RMK AO2
94908KDBQ DBQ20011101172509411/01/01 17:25:31  5-MIN KDBQ 012325Z 19006KT 10SM CLR 14/09 A2979 1200 72 1500 180/06 RMK AO2
94908KDBQ DBQ20011101173009411/01/01 17:30:31  5-MIN KDBQ 012330Z 19006KT 10SM CLR 14/10 A2979 1200 74 1500 190/06 RMK AO2
94908KDBQ DBQ20011101173509411/01/01 17:35:31  5-MIN KDBQ 012335Z 19006KT 10SM CLR 13/09 A2979 1200 77 1300 190/06 RMK AO2
94908KDBQ DBQ20011101174009411/01/01 17:40:31  5-MIN KDBQ 012340Z 19006KT 10SM CLR 14/10 A2980 1190 77 1400 190/06 RMK AO2
94908KDBQ DBQ20011101174509411/01/01 17:45:31  5-MIN KDBQ 012345Z 19006KT 10SM CLR 14/10 A2980 1190 77 1400 190/06 RMK AO2
94908KDBQ DBQ20011101175012911/01/01 17:50:31  5-MIN KDBQ 012350Z 20006KT 10SM CLR 13/10 A2980 1190 80 1300 190/06 RMK AO2 SLP092 T01330100 10206 20133 53006
94908KDBQ DBQ20011101175512911/01/01 17:55:31  5-MIN KDBQ 012355Z 20005KT 10SM CLR 14/10 A2981 1190 77 1400 200/05 RMK AO2 SLP093 T01390100 10206 20133 53023
94908KDBQ DBQ20011101180009411/01/01 18:00:31  5-MIN KDBQ 020000Z 19005KT 10SM CLR 13/10 A2981 1180 80 1300 190/05 RMK AO2
94908KDBQ DBQ20011101180509411/01/01 18:05:31  5-MIN KDBQ 020005Z 19005KT 10SM CLR 14/10 A2981 1180 77 1400 190/05 RMK AO2
94908KDBQ DBQ20011101181009411/01/01 18:10:31  5-MIN KDBQ 020010Z 19006KT 10SM CLR 14/10 A2981 1180 77 1400 190/06 RMK AO2
94908KDBQ DBQ20011101181509411/01/01 18:15:31  5-MIN KDBQ 020015Z 19005KT 10SM CLR 14/10 A2981 1180 77 1400 190/05 RMK AO2
94908KDBQ DBQ20011101182009411/01/01 18:20:31  5-MIN KDBQ 020020Z 19006KT 10SM CLR 14/10 A2982 1180 77 1400 190/06 RMK AO2
94908KDBQ DBQ20011101182509411/01/01 18:25:31  5-MIN KDBQ 020025Z 19005KT 10SM CLR 14/10 A2982 1170 77 1400 190/05 RMK AO2
94908KDBQ DBQ20011101183009411/01/01 18:30:31  5-MIN KDBQ 020030Z 19005KT 10SM CLR 13/09 A2982 1170 77 1300 190/05 RMK AO2
94908KDBQ DBQ20011101183509411/01/01 18:35:31  5-MIN KDBQ 020035Z 20005KT 10SM CLR 13/09 A2982 1170 80 1200 200/05 RMK AO2
94908KDBQ DBQ20011101184009411/01/01 18:40:31  5-MIN KDBQ 020040Z 19006KT 10SM CLR 13/09 A2982 1170 77 1300 190/06 RMK AO2
94908KDBQ DBQ20011101184509411/01/01 18:45:31  5-MIN KDBQ 020045Z 20006KT 10SM CLR 13/09 A2982 1170 77 1300 200/06 RMK AO2
94908KDBQ DBQ20011101185011111/01/01 18:50:31  5-MIN KDBQ 020050Z 21004KT 10SM CLR 12/09 A2982 1170 83 1200 200/04 RMK AO2 SLP101 T01220094
94908KDBQ DBQ20011101185511111/01/01 18:55:31  5-MIN KDBQ 020055Z 21004KT 10SM CLR 12/09 A2982 1170 83 1200 210/04 RMK AO2 SLP100 T01220094
94908KDBQ DBQ20011101190009411/01/01 19:00:31  5-MIN KDBQ 020100Z 20004KT 10SM CLR 13/09 A2982 1170 80 1200 200/04 RMK AO2
94908KDBQ DBQ20011101190509411/01/01 19:05:31  5-MIN KDBQ 020105Z 20003KT 10SM CLR 13/09 A2982 1170 77 1300 200/03 RMK AO2
94908KDBQ DBQ20011101191009411/01/01 19:10:31  5-MIN KDBQ 020110Z 20005KT 10SM CLR 13/09 A2982 1170 80 1200 190/05 RMK AO2
94908KDBQ DBQ20011101191509411/01/01 19:15:31  5-MIN KDBQ 020115Z 20005KT 10SM CLR 13/09 A2982 1170 80 1200 200/05 RMK AO2
94908KDBQ DBQ20011101192009411/01/01 19:20:31  5-MIN KDBQ 020120Z 20005KT 10SM CLR 13/09 A2982 1170 80 1200 200/05 RMK AO2
94908KDBQ DBQ20011101192509411/01/01 19:25:31  5-MIN KDBQ 020125Z 21004KT 10SM CLR 12/09 A2982 1170 80 1200 200/04 RMK AO2
94908KDBQ DBQ20011101193009411/01/01 19:30:31  5-MIN KDBQ 020130Z 21004KT 10SM CLR 13/09 A2982 1170 77 1200 210/04 RMK AO2
94908KDBQ DBQ20011101193509411/01/01 19:35:31  5-MIN KDBQ 020135Z 22003KT 10SM CLR 12/09 A2982 1170 80 1200 220/03 RMK AO2
94908KDBQ DBQ20011101194009411/01/01 19:40:31  5-MIN KDBQ 020140Z 21003KT 10SM CLR 12/09 A2982 1170 83 1200 210/03 RMK AO2
94908KDBQ DBQ20011101194509911/01/01 19:45:31  5-MIN KDBQ 020145Z AUTO 20003KT 10SM CLR 12/09 A2982 1170 83 1200 200/03 RMK AO2
94908KDBQ DBQ20011101195012111/01/01 19:50:31  5-MIN KDBQ 020150Z AUTO 20004KT 10SM CLR 12/09 A2983 1170 83 1100 200/04 RMK AO2 SLP102 T01220094 TSNO
94908KDBQ DBQ20011101195512111/01/01 19:55:31  5-MIN KDBQ 020155Z AUTO 20004KT 10SM CLR 12/09 A2983 1170 80 1100 200/04 RMK AO2 SLP102 T01220089 TSNO
94908KDBQ DBQ20011101200010411/01/01 20:00:31  5-MIN KDBQ 020200Z AUTO 20005KT 10SM CLR 12/09 A2983 1160 80 1100 190/05 RMK AO2 TSNO
94908KDBQ DBQ20011101200510411/01/01 20:05:31  5-MIN KDBQ 020205Z AUTO 20005KT 10SM CLR 12/09 A2983 1160 80 1100 200/05 RMK AO2 TSNO
94908KDBQ DBQ20011101201010411/01/01 20:10:31  5-MIN KDBQ 020210Z AUTO 20004KT 10SM CLR 12/09 A2983 1160 80 1100 200/04 RMK AO2 TSNO
94908KDBQ DBQ20011101201510411/01/01 20:15:31  5-MIN KDBQ 020215Z AUTO 19005KT 10SM CLR 12/09 A2983 1160 80 1100 190/05 RMK AO2 TSNO
94908KDBQ DBQ20011101202010411/01/01 20:20:31  5-MIN KDBQ 020220Z AUTO 19005KT 10SM CLR 12/09 A2984 1160 80 1100 190/05 RMK AO2 TSNO
94908KDBQ DBQ20011101202510411/01/01 20:25:31  5-MIN KDBQ 020225Z AUTO 19005KT 10SM CLR 12/09 A2984 1160 80 1100 190/05 RMK AO2 TSNO
94908KDBQ DBQ20011101203010411/01/01 20:30:31  5-MIN KDBQ 020230Z AUTO 22004KT 10SM CLR 12/09 A2984 1150 83 1100 220/04 RMK AO2 TSNO
94908KDBQ DBQ20011101203510411/01/01 20:35:31  5-MIN KDBQ 020235Z AUTO 23003KT 10SM CLR 12/09 A2985 1150 83 1100 230/03 RMK AO2 TSNO
94908KDBQ DBQ20011101204010711/01/01 20:40:31  5-MIN KDBQ 020240Z AUTO 25004KT 10SM FEW075 11/08 A2985 1150 83 1000 240/04 RMK AO2 TSNO
94908KDBQ DBQ20011101204510711/01/01 20:45:31  5-MIN KDBQ 020245Z AUTO 23004KT 10SM FEW075 12/09 A2985 1140 83 1100 230/04 RMK AO2 TSNO
94908KDBQ DBQ20011101205013011/01/01 20:50:31  5-MIN KDBQ 020250Z AUTO 24004KT 10SM FEW070 12/09 A2985 1140 80 1100 240/04 RMK AO2 SLP110 T01220089 53023 TSNO
94908KDBQ DBQ20011101205513011/01/01 20:55:31  5-MIN KDBQ 020255Z AUTO 24005KT 10SM SCT070 13/09 A2985 1140 77 1200 230/05 RMK AO2 SLP111 T01280089 53016 TSNO
94908KDBQ DBQ20011101210010711/01/01 21:00:31  5-MIN KDBQ 020300Z AUTO 22004KT 10SM BKN070 13/09 A2986 1140 77 1200 220/04 RMK AO2 TSNO
94908KDBQ DBQ20011101210510711/01/01 21:05:31  5-MIN KDBQ 020305Z AUTO 24003KT 10SM BKN070 12/09 A2986 1130 83 1000 240/03 RMK AO2 TSNO
94908KDBQ DBQ20011101211010711/01/01 21:10:31  5-MIN KDBQ 020310Z AUTO 24003KT 10SM BKN070 12/09 A2987 1130 83 1100 240/03 RMK AO2 TSNO
94908KDBQ DBQ20011101211510711/01/01 21:15:31  5-MIN KDBQ 020315Z AUTO 00000KT 10SM BKN070 12/09 A2986 1130 83 1100 000/00 RMK AO2 TSNO
94908KDBQ DBQ20011101212010711/01/01 21:20:31  5-MIN KDBQ 020320Z AUTO 00000KT 10SM BKN070 13/09 A2987 1130 77 1200 000/00 RMK AO2 TSNO
94908KDBQ DBQ20011101212510711/01/01 21:25:31  5-MIN KDBQ 020325Z AUTO 00000KT 10SM OVC070 12/09 A2987 1120 80 1100 000/00 RMK AO2 TSNO
94908KDBQ DBQ20011101213011411/01/01 21:30:31  5-MIN KDBQ 020330Z AUTO VRB03KT 10SM SCT060 OVC075 13/09 A2987 1120 77 1200 VRB/03 RMK AO2 TSNO
94908KDBQ DBQ20011101213510711/01/01 21:35:31  5-MIN KDBQ 020335Z AUTO 20003KT 10SM BKN070 13/09 A2987 1120 74 1200 200/03 RMK AO2 TSNO
94908KDBQ DBQ20011101214011411/01/01 21:40:31  5-MIN KDBQ 020340Z AUTO 20004KT 10SM SCT060 OVC075 13/09 A2987 1120 74 1200 200/04 RMK AO2 TSNO
94908KDBQ DBQ20011101214511411/01/01 21:45:31  5-MIN KDBQ 020345Z AUTO 20003KT 10SM BKN060 BKN075 13/09 A2987 1120 74 1200 200/03 RMK AO2 TSNO
94908KDBQ DBQ20011101215013111/01/01 21:50:31  5-MIN KDBQ 020350Z AUTO 00000KT 10SM BKN060 BKN075 14/08 A2987 1120 66 1400 000/00 RMK AO2 SLP115 T01440083 TSNO
94908KDBQ DBQ20011101215513111/01/01 21:55:31  5-MIN KDBQ 020355Z AUTO 31004KT 10SM BKN060 BKN075 14/08 A2987 1130 66 1300 310/04 RMK AO2 SLP114 T01390078 TSNO
94908KDBQ DBQ20011101220011411/01/01 22:00:31  5-MIN KDBQ 020400Z AUTO 31004KT 10SM BKN060 BKN080 14/08 A2987 1120 66 1300 310/04 RMK AO2 TSNO
94908KDBQ DBQ20011101220511411/01/01 22:05:31  5-MIN KDBQ 020405Z AUTO 32006KT 10SM BKN060 BKN075 13/08 A2987 1120 69 1200 320/06 RMK AO2 TSNO
94908KDBQ DBQ20011101221011411/01/01 22:10:31  5-MIN KDBQ 020410Z AUTO 32008KT 10SM BKN060 BKN075 13/07 A2988 1120 69 1200 310/08 RMK AO2 TSNO
94908KDBQ DBQ20011101221511411/01/01 22:15:31  5-MIN KDBQ 020415Z AUTO 32008KT 10SM BKN060 BKN080 13/07 A2988 1120 64 1200 320/08 RMK AO2 TSNO
94908KDBQ DBQ20011101222011411/01/01 22:20:31  5-MIN KDBQ 020420Z AUTO 33007KT 10SM SCT060 BKN080 14/06 A2987 1120 59 1300 330/07 RMK AO2 TSNO
94908KDBQ DBQ20011101222511411/01/01 22:25:31  5-MIN KDBQ 020425Z AUTO 33007KT 10SM SCT060 BKN080 13/06 A2987 1120 61 1200 330/07 RMK AO2 TSNO
94908KDBQ DBQ20011101223011411/01/01 22:30:31  5-MIN KDBQ 020430Z AUTO 33007KT 10SM FEW060 BKN080 13/06 A2988 1120 63 1200 330/07 RMK AO2 TSNO
94908KDBQ DBQ20011101223511411/01/01 22:35:31  5-MIN KDBQ 020435Z AUTO 32006KT 10SM FEW060 BKN080 13/06 A2988 1120 63 1200 320/06 RMK AO2 TSNO
94908KDBQ DBQ20011101224011411/01/01 22:40:31  5-MIN KDBQ 020440Z AUTO 32005KT 10SM BKN075 BKN090 13/06 A2988 1120 63 1200 320/05 RMK AO2 TSNO
94908KDBQ DBQ20011101224511411/01/01 22:45:31  5-MIN KDBQ 020445Z AUTO 32004KT 10SM BKN080 BKN090 12/06 A2988 1120 66 1100 320/04 RMK AO2 TSNO
94908KDBQ DBQ20011101225012411/01/01 22:50:31  5-MIN KDBQ 020450Z AUTO 00000KT 10SM SCT080 12/06 A2987 1120 66 1100 000/00 RMK AO2 SLP115 T01220061 TSNO
94908KDBQ DBQ20011101225513111/01/01 22:55:31  5-MIN KDBQ 020455Z AUTO 00000KT 10SM FEW075 SCT085 12/06 A2987 1120 63 1100 000/00 RMK AO2 SLP115 T01220056 TSNO
94908KDBQ DBQ20011101230010711/01/01 23:00:31  5-MIN KDBQ 020500Z AUTO 29003KT 10SM FEW070 12/06 A2988 1120 63 1100 290/03 RMK AO2 TSNO
94908KDBQ DBQ20011101230510711/01/01 23:05:31  5-MIN KDBQ 020505Z AUTO 31004KT 10SM FEW070 12/05 A2988 1120 63 1000 310/04 RMK AO2 TSNO
94908KDBQ DBQ20011101231010411/01/01 23:10:31  5-MIN KDBQ 020510Z AUTO 31004KT 10SM CLR 12/05 A2988 1120 63 1000 300/04 RMK AO2 TSNO
94908KDBQ DBQ20011101231510411/01/01 23:15:31  5-MIN KDBQ 020515Z AUTO 29003KT 10SM CLR 11/05 A2988 1110 66 1000 290/03 RMK AO2 TSNO
94908KDBQ DBQ20011101232010311/01/01 23:20:31  5-MIN KDBQ 020520Z AUTO 30005KT 10SM CLR 11/06 A2989 1110 71 900 300/05 RMK AO2 TSNO
94908KDBQ DBQ20011101232510311/01/01 23:25:31  5-MIN KDBQ 020525Z AUTO 31006KT 10SM CLR 11/04 A2989 1110 63 900 310/06 RMK AO2 TSNO
94908KDBQ DBQ20011101233010711/01/01 23:30:31  5-MIN KDBQ 020530Z AUTO 31007KT 10SM FEW120 12/04 A2989 1110 58 1000 310/07 RMK AO2 TSNO
94908KDBQ DBQ20011101233510711/01/01 23:35:31  5-MIN KDBQ 020535Z AUTO 32008KT 10SM SCT120 12/04 A2989 1110 58 1000 320/08 RMK AO2 TSNO
94908KDBQ DBQ20011101234010711/01/01 23:40:31  5-MIN KDBQ 020540Z AUTO 32010KT 10SM SCT110 13/04 A2989 1110 54 1100 320/10 RMK AO2 TSNO
94908KDBQ DBQ20011101234510711/01/01 23:45:31  5-MIN KDBQ 020545Z AUTO 32011KT 10SM SCT110 13/03 A2989 1110 50 1200 320/11 RMK AO2 TSNO
94908KDBQ DBQ20011101235015211/01/01 23:50:31  5-MIN KDBQ 020550Z AUTO 31010KT 10SM BKN110 13/03 A2990 1100 50 1200 310/10 RMK AO2 SLP123 T01330033 10144 20106 402060106 53016 TSNO
94908KDBQ DBQ20011101235515911/01/01 23:55:31  5-MIN KDBQ 020555Z AUTO 30010KT 10SM FEW090 BKN110 13/04 A2991 1090 54 1100 300/10 RMK AO2 SLP127 T01280039 10144 20106 402060106 53017 TSNO
94908KDBQ DBQ20011102000010711/02/01 00:00:31  5-MIN KDBQ 020600Z AUTO 32011KT 10SM BKN100 13/04 A2991 1090 52 1200 310/11 RMK AO2 TSNO
94908KDBQ DBQ20011102000510711/02/01 00:05:31  5-MIN KDBQ 020605Z AUTO 31012KT 10SM BKN100 14/04 A2991 1090 50 1300 310/12 RMK AO2 TSNO
94908KDBQ DBQ20011102001012111/02/01 00:10:31  5-MIN KDBQ 020610Z AUTO 32009KT 10SM FEW070 BKN090 BKN110 13/04 A2990 1100 52 1200 320/09 RMK AO2 TSNO
94908KDBQ DBQ20011102001511411/02/01 00:15:31  5-MIN KDBQ 020615Z AUTO 32012KT 10SM FEW070 BKN095 13/03 A2990 1100 50 1200 320/12 RMK AO2 TSNO
94908KDBQ DBQ20011102002011411/02/01 00:20:31  5-MIN KDBQ 020620Z AUTO 31021KT 10SM SCT070 OVC090 13/03 A2991 1090 50 1200 310/21 RMK AO2 TSNO
94908KDBQ DBQ20011102002513611/02/01 00:25:31  5-MIN KDBQ 020625Z AUTO 33013G23KT 10SM -RA BKN070 OVC095 13/04 A2991 1090 54 1100 330/13G23 RMK AO2 RAB21 P0000 TSNO
94908KDBQ DBQ20011102003013011/02/01 00:30:31  5-MIN KDBQ 020630Z AUTO 34011KT 10SM -RA BKN070 BKN090 12/03 A2991 1090 54 1100 330/11 RMK AO2 RAB21 P0000 TSNO
94908KDBQ DBQ20011102003512911/02/01 00:35:31  5-MIN KDBQ 020635Z AUTO 33012KT 10SM BKN070 BKN095 12/03 A2991 1090 54 1100 330/12 RMK AO2 RAB21E32 P0000 TSNO
94908KDBQ DBQ20011102004012911/02/01 00:40:31  5-MIN KDBQ 020640Z AUTO 33011KT 10SM SCT070 OVC085 12/03 A2991 1090 54 1100 330/11 RMK AO2 RAB21E32 P0000 TSNO
94908KDBQ DBQ20011102004512911/02/01 00:45:31  5-MIN KDBQ 020645Z AUTO 33010KT 10SM SCT070 OVC090 12/03 A2991 1090 54 1100 330/10 RMK AO2 RAB21E32 P0000 TSNO
94908KDBQ DBQ20011102005014611/02/01 00:50:31  5-MIN KDBQ 020650Z AUTO 33010KT 10SM SCT070 OVC095 12/03 A2991 1090 54 1000 330/10 RMK AO2 RAB21E32 SLP127 P0000 T01170028 TSNO
94908KDBQ DBQ20011102005514611/02/01 00:55:31  5-MIN KDBQ 020655Z AUTO 33011KT 10SM SCT070 BKN090 12/03 A2991 1090 52 1100 330/11 RMK AO2 RAB21E32 SLP127 P0000 T01220028 TSNO
94908KDBQ DBQ20011102010011411/02/01 01:00:31  5-MIN KDBQ 020700Z AUTO 32011KT 10SM FEW070 BKN090 12/02 A2991 1090 50 1100 320/11 RMK AO2 TSNO
94908KDBQ DBQ20011102010511411/02/01 01:05:31  5-MIN KDBQ 020705Z AUTO 32011KT 10SM SCT070 BKN090 13/02 A2991 1090 46 1100 320/11 RMK AO2 TSNO
94908KDBQ DBQ20011102011011411/02/01 01:10:31  5-MIN KDBQ 020710Z AUTO 32012KT 10SM BKN070 BKN100 13/02 A2991 1080 46 1100 320/12 RMK AO2 TSNO
94908KDBQ DBQ20011102011511411/02/01 01:15:31  5-MIN KDBQ 020715Z AUTO 32012KT 10SM BKN070 BKN080 13/02 A2991 1080 46 1100 320/12 RMK AO2 TSNO
94908KDBQ DBQ20011102012010711/02/01 01:20:31  5-MIN KDBQ 020720Z AUTO 32013KT 10SM BKN070 12/02 A2991 1080 48 1000 320/13 RMK AO2 TSNO
94908KDBQ DBQ20011102012510711/02/01 01:25:31  5-MIN KDBQ 020725Z AUTO 32012KT 10SM SCT070 12/01 A2992 1080 46 1000 320/12 RMK AO2 TSNO
94908KDBQ DBQ20011102013010711/02/01 01:30:31  5-MIN KDBQ 020730Z AUTO 32012KT 10SM SCT065 12/01 A2992 1080 46 1000 320/12 RMK AO2 TSNO
94908KDBQ DBQ20011102013510711/02/01 01:35:31  5-MIN KDBQ 020735Z AUTO 32012KT 10SM FEW065 12/01 A2992 1080 46 1000 320/12 RMK AO2 TSNO
94908KDBQ DBQ20011102014010711/02/01 01:40:31  5-MIN KDBQ 020740Z AUTO 32011KT 10SM FEW065 12/01 A2992 1070 46 1000 320/11 RMK AO2 TSNO
94908KDBQ DBQ20011102014510411/02/01 01:45:31  5-MIN KDBQ 020745Z AUTO 32012KT 10SM CLR 12/01 A2993 1070 48 1000 320/12 RMK AO2 TSNO
94908KDBQ DBQ20011102015012111/02/01 01:50:31  5-MIN KDBQ 020750Z AUTO 32012KT 10SM CLR 12/01 A2993 1070 48 1000 310/12 RMK AO2 SLP133 T01170011 TSNO
94908KDBQ DBQ20011102015512111/02/01 01:55:31  5-MIN KDBQ 020755Z AUTO 31010KT 10SM CLR 12/01 A2993 1070 48 1000 310/10 RMK AO2 SLP134 T01170011 TSNO
94908KDBQ DBQ20011102020010311/02/01 02:00:31  5-MIN KDBQ 020800Z AUTO 31009KT 10SM CLR 11/01 A2993 1070 50 900 310/09 RMK AO2 TSNO
94908KDBQ DBQ20011102020510311/02/01 02:05:31  5-MIN KDBQ 020805Z AUTO 31009KT 10SM CLR 11/01 A2993 1070 52 800 310/09 RMK AO2 TSNO
94908KDBQ DBQ20011102021010311/02/01 02:10:31  5-MIN KDBQ 020810Z AUTO 32009KT 10SM CLR 11/01 A2993 1070 48 900 320/09 RMK AO2 TSNO
94908KDBQ DBQ20011102021510311/02/01 02:15:31  5-MIN KDBQ 020815Z AUTO 31009KT 10SM CLR 11/01 A2993 1070 48 900 310/09 RMK AO2 TSNO
94908KDBQ DBQ20011102022010311/02/01 02:20:31  5-MIN KDBQ 020820Z AUTO 31009KT 10SM CLR 11/01 A2993 1070 52 800 310/09 RMK AO2 TSNO
94908KDBQ DBQ20011102022510311/02/01 02:25:31  5-MIN KDBQ 020825Z AUTO 31009KT 10SM CLR 10/01 A2994 1060 52 800 310/09 RMK AO2 TSNO
94908KDBQ DBQ20011102023010311/02/01 02:30:31  5-MIN KDBQ 020830Z AUTO 31008KT 10SM CLR 10/01 A2994 1060 52 800 310/08 RMK AO2 TSNO
94908KDBQ DBQ20011102023510311/02/01 02:35:31  5-MIN KDBQ 020835Z AUTO 31009KT 10SM CLR 10/01 A2994 1060 52 800 310/09 RMK AO2 TSNO
94908KDBQ DBQ20011102024010311/02/01 02:40:31  5-MIN KDBQ 020840Z AUTO 30008KT 10SM CLR 10/01 A2994 1060 52 800 300/08 RMK AO2 TSNO
94908KDBQ DBQ20011102024510311/02/01 02:45:31  5-MIN KDBQ 020845Z AUTO 30007KT 10SM CLR 09/01 A2994 1060 53 700 300/07 RMK AO2 TSNO
94908KDBQ DBQ20011102025013211/02/01 02:50:31  5-MIN KDBQ 020850Z AUTO 30008KT 10SM CLR 09/01 A2994 1060 56 600 300/08 RMK AO2 SLP139 60000 T00890006 53017 TSNO
94908KDBQ DBQ20011102025513211/02/01 02:55:31  5-MIN KDBQ 020855Z AUTO 30008KT 10SM CLR 09/01 A2994 1060 56 600 300/08 RMK AO2 SLP140 60000 T00890006 53013 TSNO
94908KDBQ DBQ20011102030010311/02/01 03:00:31  5-MIN KDBQ 020900Z AUTO 30009KT 10SM CLR 09/01 A2995 1060 56 600 300/09 RMK AO2 TSNO
94908KDBQ DBQ20011102030510311/02/01 03:05:31  5-MIN KDBQ 020905Z AUTO 30008KT 10SM CLR 09/01 A2994 1060 56 600 300/08 RMK AO2 TSNO
94908KDBQ DBQ20011102031010311/02/01 03:10:31  5-MIN KDBQ 020910Z AUTO 30007KT 10SM CLR 08/01 A2995 1050 58 500 300/07 RMK AO2 TSNO
94908KDBQ DBQ20011102031510311/02/01 03:15:31  5-MIN KDBQ 020915Z AUTO 30007KT 10SM CLR 09/00 A2995 1050 53 600 300/07 RMK AO2 TSNO
94908KDBQ DBQ20011102032010311/02/01 03:20:31  5-MIN KDBQ 020920Z AUTO 30007KT 10SM CLR 08/00 A2995 1050 55 500 300/07 RMK AO2 TSNO
94908KDBQ DBQ20011102032510311/02/01 03:25:31  5-MIN KDBQ 020925Z AUTO 29007KT 10SM CLR 08/00 A2995 1050 55 500 290/07 RMK AO2 TSNO
94908KDBQ DBQ20011102033010311/02/01 03:30:31  5-MIN KDBQ 020930Z AUTO 29007KT 10SM CLR 08/00 A2996 1050 55 500 290/07 RMK AO2 TSNO
94908KDBQ DBQ20011102033510311/02/01 03:35:31  5-MIN KDBQ 020935Z AUTO 29007KT 10SM CLR 08/01 A2996 1040 60 500 290/07 RMK AO2 TSNO
94908KDBQ DBQ20011102034010311/02/01 03:40:31  5-MIN KDBQ 020940Z AUTO 28005KT 10SM CLR 08/01 A2996 1040 58 500 280/05 RMK AO2 TSNO
94908KDBQ DBQ20011102034510311/02/01 03:45:31  5-MIN KDBQ 020945Z AUTO 27005KT 10SM CLR 08/00 A2996 1040 55 500 270/05 RMK AO2 TSNO
94908KDBQ DBQ20011102035012011/02/01 03:50:31  5-MIN KDBQ 020950Z AUTO 27003KT 10SM CLR 07/01 A2996 1040 62 400 270/03 RMK AO2 SLP147 T00720006 TSNO
94908KDBQ DBQ20011102035512011/02/01 03:55:31  5-MIN KDBQ 020955Z AUTO 26003KT 10SM CLR 07/01 A2997 1040 62 400 260/03 RMK AO2 SLP148 T00720006 TSNO
94908KDBQ DBQ20011102040010311/02/01 04:00:31  5-MIN KDBQ 021000Z AUTO 00000KT 10SM CLR 07/01 A2997 1030 62 400 000/00 RMK AO2 TSNO
94908KDBQ DBQ20011102040510311/02/01 04:05:31  5-MIN KDBQ 021005Z AUTO 00000KT 10SM CLR 07/01 A2997 1030 65 300 000/00 RMK AO2 TSNO
94908KDBQ DBQ20011102041010311/02/01 04:10:31  5-MIN KDBQ 021010Z AUTO 24003KT 10SM CLR 05/01 A2998 1030 73 100 240/03 RMK AO2 TSNO
94908KDBQ DBQ20011102041510311/02/01 04:15:31  5-MIN KDBQ 021015Z AUTO 22003KT 10SM CLR 06/01 A2998 1020 70 200 220/03 RMK AO2 TSNO
94908KDBQ DBQ20011102042010311/02/01 04:20:31  5-MIN KDBQ 021020Z AUTO VRB03KT 10SM CLR 07/01 A2998 1020 65 300 VRB/03 RMK AO2 TSNO
94908KDBQ DBQ20011102042510311/02/01 04:25:31  5-MIN KDBQ 021025Z AUTO 25003KT 10SM CLR 06/01 A2998 1020 70 200 240/03 RMK AO2 TSNO
94908KDBQ DBQ20011102043010311/02/01 04:30:31  5-MIN KDBQ 021030Z AUTO 24003KT 10SM CLR 07/01 A2998 1020 65 300 240/03 RMK AO2 TSNO
94908KDBQ DBQ20011102043510311/02/01 04:35:31  5-MIN KDBQ 021035Z AUTO 25004KT 10SM CLR 06/01 A2998 1020 70 200 250/04 RMK AO2 TSNO
94908KDBQ DBQ20011102044010311/02/01 04:40:31  5-MIN KDBQ 021040Z AUTO 25005KT 10SM CLR 06/01 A2999 1020 67 200 240/05 RMK AO2 TSNO
94908KDBQ DBQ20011102044510311/02/01 04:45:31  5-MIN KDBQ 021045Z AUTO VRB04KT 10SM CLR 06/01 A2999 1020 70 200 VRB/04 RMK AO2 TSNO
94908KDBQ DBQ20011102045012011/02/01 04:50:31  5-MIN KDBQ 021050Z AUTO VRB03KT 10SM CLR 06/01 A2999 1010 70 200 VRB/03 RMK AO2 SLP159 T00610011 TSNO
94908KDBQ DBQ20011102045512011/02/01 04:55:31  5-MIN KDBQ 021055Z AUTO 27004KT 10SM CLR 06/01 A2999 1010 73 200 270/04 RMK AO2 SLP159 T00560011 TSNO
94908KDBQ DBQ20011102050010311/02/01 05:00:31  5-MIN KDBQ 021100Z AUTO 28007KT 10SM CLR 06/01 A2999 1010 70 200 270/07 RMK AO2 TSNO
94908KDBQ DBQ20011102050510311/02/01 05:05:31  5-MIN KDBQ 021105Z AUTO 28007KT 10SM CLR 07/01 A2999 1010 67 300 280/07 RMK AO2 TSNO
94908KDBQ DBQ20011102051010311/02/01 05:10:31  5-MIN KDBQ 021110Z AUTO 27008KT 10SM CLR 07/01 A2999 1010 67 300 270/08 RMK AO2 TSNO
94908KDBQ DBQ20011102051510311/02/01 05:15:31  5-MIN KDBQ 021115Z AUTO 28007KT 10SM CLR 07/01 A3000 1010 67 300 280/07 RMK AO2 TSNO
94908KDBQ DBQ20011102052010311/02/01 05:20:31  5-MIN KDBQ 021120Z AUTO 28005KT 10SM CLR 07/01 A3000 1010 65 300 280/05 RMK AO2 TSNO
94908KDBQ DBQ20011102052510311/02/01 05:25:31  5-MIN KDBQ 021125Z AUTO 29006KT 10SM CLR 06/01 A3000 1000 67 200 290/06 RMK AO2 TSNO
94908KDBQ DBQ20011102053010311/02/01 05:30:31  5-MIN KDBQ 021130Z AUTO 28007KT 10SM CLR 06/01 A3000 1000 67 200 280/07 RMK AO2 TSNO
94908KDBQ DBQ20011102053510311/02/01 05:35:31  5-MIN KDBQ 021135Z AUTO 28007KT 10SM CLR 07/01 A3000 1000 67 300 280/07 RMK AO2 TSNO
94908KDBQ DBQ20011102054010311/02/01 05:40:31  5-MIN KDBQ 021140Z AUTO 27008KT 10SM CLR 07/01 A3001 1000 67 300 270/08 RMK AO2 TSNO
94908KDBQ DBQ20011102054510311/02/01 05:45:31  5-MIN KDBQ 021145Z AUTO 27008KT 10SM CLR 07/01 A3001 1000 67 300 270/08 RMK AO2 TSNO
94908KDBQ DBQ20011102055014011/02/01 05:50:31  5-MIN KDBQ 021150Z 27007KT 10SM CLR 07/01 A3001 1000 67 300 260/07 RMK AO2 SLP166 60000 70003 T00670011 10139 20050 53013
94908KDBQ DBQ20011102055513911/02/01 05:55:31  5-MIN KDBQ 021155Z 27006KT 10SM CLR 06/01 A3001 990 70 200 270/06 RMK AO2 SLP167 60000 70003 T00610011 10139 20050 51022
94908KDBQ DBQ20011102060009211/02/01 06:00:31  5-MIN KDBQ 021200Z 27006KT 10SM CLR 06/01 A3001 990 73 100 270/06 RMK AO2
94908KDBQ DBQ20011102060509211/02/01 06:05:31  5-MIN KDBQ 021205Z 27005KT 10SM CLR 06/01 A3001 990 70 100 260/05 RMK AO2
94908KDBQ DBQ20011102061009211/02/01 06:10:31  5-MIN KDBQ 021210Z 27007KT 10SM CLR 06/01 A3001 990 70 100 270/07 RMK AO2
94908KDBQ DBQ20011102061509211/02/01 06:15:31  5-MIN KDBQ 021215Z 27008KT 10SM CLR 06/01 A3001 990 70 100 270/08 RMK AO2
94908KDBQ DBQ20011102062009211/02/01 06:20:31  5-MIN KDBQ 021220Z 27010KT 10SM CLR 06/01 A3002 990 70 200 270/10 RMK AO2
94908KDBQ DBQ20011102062509211/02/01 06:25:31  5-MIN KDBQ 021225Z 27012KT 10SM CLR 06/01 A3002 990 70 200 270/12 RMK AO2
94908KDBQ DBQ20011102063009211/02/01 06:30:31  5-MIN KDBQ 021230Z 27010KT 10SM CLR 06/01 A3002 990 67 200 270/10 RMK AO2
94908KDBQ DBQ20011102063509211/02/01 06:35:31  5-MIN KDBQ 021235Z 27009KT 10SM CLR 06/01 A3002 990 67 200 270/09 RMK AO2
94908KDBQ DBQ20011102064009211/02/01 06:40:31  5-MIN KDBQ 021240Z 27009KT 10SM CLR 06/01 A3002 980 70 100 270/09 RMK AO2
94908KDBQ DBQ20011102064509211/02/01 06:45:31  5-MIN KDBQ 021245Z 27010KT 10SM CLR 06/01 A3002 980 70 100 270/10 RMK AO2
94908KDBQ DBQ20011102065010911/02/01 06:50:31  5-MIN KDBQ 021250Z 27009KT 10SM CLR 06/01 A3003 980 70 100 270/09 RMK AO2 SLP174 T00560006
94908KDBQ DBQ20011102065510911/02/01 06:55:31  5-MIN KDBQ 021255Z 27011KT 10SM CLR 06/01 A3003 970 70 100 270/11 RMK AO2 SLP176 T00560006
94908KDBQ DBQ20011102070009211/02/01 07:00:31  5-MIN KDBQ 021300Z 27012KT 10SM CLR 06/01 A3004 970 67 200 270/12 RMK AO2
94908KDBQ DBQ20011102070509211/02/01 07:05:31  5-MIN KDBQ 021305Z 27010KT 10SM CLR 06/01 A3004 970 67 200 270/10 RMK AO2
94908KDBQ DBQ20011102071009211/02/01 07:10:31  5-MIN KDBQ 021310Z 27011KT 10SM CLR 06/01 A3004 970 67 200 270/11 RMK AO2
94908KDBQ DBQ20011102071509211/02/01 07:15:31  5-MIN KDBQ 021315Z 27011KT 10SM CLR 06/01 A3004 970 67 200 270/11 RMK AO2
94908KDBQ DBQ20011102072009211/02/01 07:20:31  5-MIN KDBQ 021320Z 26010KT 10SM CLR 07/01 A3004 960 65 200 260/10 RMK AO2
94908KDBQ DBQ20011102072509211/02/01 07:25:31  5-MIN KDBQ 021325Z 26010KT 10SM CLR 07/01 A3005 960 65 200 260/10 RMK AO2
94908KDBQ DBQ20011102073009211/02/01 07:30:31  5-MIN KDBQ 021330Z 26011KT 10SM CLR 06/01 A3005 960 70 200 260/11 RMK AO2
94908KDBQ DBQ20011102073509211/02/01 07:35:31  5-MIN KDBQ 021335Z 26011KT 10SM CLR 07/01 A3005 960 65 200 260/11 RMK AO2
94908KDBQ DBQ20011102074009211/02/01 07:40:31  5-MIN KDBQ 021340Z 26011KT 10SM CLR 07/01 A3005 960 62 300 260/11 RMK AO2
94908KDBQ DBQ20011102074509211/02/01 07:45:31  5-MIN KDBQ 021345Z 26012KT 10SM CLR 07/01 A3005 960 62 300 260/12 RMK AO2
94908KDBQ DBQ20011102075010911/02/01 07:50:31  5-MIN KDBQ 021350Z 26012KT 10SM CLR 08/01 A3006 950 60 400 260/12 RMK AO2 SLP182 T00780006
94908KDBQ DBQ20011102075510911/02/01 07:55:31  5-MIN KDBQ 021355Z 26012KT 10SM CLR 08/01 A3006 950 60 400 260/12 RMK AO2 SLP182 T00780006
94908KDBQ DBQ20011102080009211/02/01 08:00:31  5-MIN KDBQ 021400Z 26013KT 10SM CLR 08/01 A3006 950 60 300 260/13 RMK AO2
94908KDBQ DBQ20011102080509211/02/01 08:05:31  5-MIN KDBQ 021405Z 26012KT 10SM CLR 08/01 A3006 950 60 300 260/12 RMK AO2
94908KDBQ DBQ20011102081009211/02/01 08:10:31  5-MIN KDBQ 021410Z 26011KT 10SM CLR 08/01 A3007 940 58 400 260/11 RMK AO2
94908KDBQ DBQ20011102081509211/02/01 08:15:31  5-MIN KDBQ 021415Z 26010KT 10SM CLR 08/01 A3007 940 60 400 260/10 RMK AO2
94908KDBQ DBQ20011102082009211/02/01 08:20:31  5-MIN KDBQ 021420Z 26011KT 10SM CLR 09/01 A3007 940 58 500 260/11 RMK AO2
94908KDBQ DBQ20011102082509211/02/01 08:25:31  5-MIN KDBQ 021425Z 26011KT 10SM CLR 09/01 A3007 940 56 500 260/11 RMK AO2
94908KDBQ DBQ20011102083009211/02/01 08:30:31  5-MIN KDBQ 021430Z 25010KT 10SM CLR 09/01 A3007 940 56 500 250/10 RMK AO2
94908KDBQ DBQ20011102083509211/02/01 08:35:31  5-MIN KDBQ 021435Z 25009KT 10SM CLR 09/01 A3007 940 56 500 250/09 RMK AO2
94908KDBQ DBQ20011102084009211/02/01 08:40:31  5-MIN KDBQ 021440Z 25010KT 10SM CLR 10/01 A3007 940 54 600 250/10 RMK AO2
94908KDBQ DBQ20011102084509211/02/01 08:45:31  5-MIN KDBQ 021445Z 25010KT 10SM CLR 10/01 A3008 940 54 600 250/10 RMK AO2
94908KDBQ DBQ20011102085011511/02/01 08:50:31  5-MIN KDBQ 021450Z 25009KT 10SM CLR 10/01 A3008 930 54 600 250/09 RMK AO2 SLP189 T01000011 51022
94908KDBQ DBQ20011102085511511/02/01 08:55:31  5-MIN KDBQ 021455Z 25009KT 10SM CLR 11/02 A3008 930 54 700 250/09 RMK AO2 SLP189 T01060017 53023
94908KDBQ DBQ20011102090009211/02/01 09:00:31  5-MIN KDBQ 021500Z 26009KT 10SM CLR 11/01 A3008 930 50 700 260/09 RMK AO2
94908KDBQ DBQ20011102090509211/02/01 09:05:31  5-MIN KDBQ 021505Z 26012KT 10SM CLR 11/01 A3008 930 48 700 260/12 RMK AO2
94908KDBQ DBQ20011102091009211/02/01 09:10:31  5-MIN KDBQ 021510Z 26010KT 10SM CLR 12/02 A3008 930 50 800 260/10 RMK AO2
94908KDBQ DBQ20011102091509211/02/01 09:15:31  5-MIN KDBQ 021515Z 26011KT 10SM CLR 12/01 A3008 930 48 800 260/11 RMK AO2
94908KDBQ DBQ20011102092009211/02/01 09:20:31  5-MIN KDBQ 021520Z 27010KT 10SM CLR 12/01 A3009 920 48 800 260/10 RMK AO2
94908KDBQ DBQ20011102092509211/02/01 09:25:31  5-MIN KDBQ 021525Z 27010KT 10SM CLR 12/01 A3009 920 46 800 260/10 RMK AO2
94908KDBQ DBQ20011102093009211/02/01 09:30:31  5-MIN KDBQ 021530Z 26009KT 10SM CLR 12/01 A3009 920 46 800 260/09 RMK AO2
94908KDBQ DBQ20011102093509211/02/01 09:35:31  5-MIN KDBQ 021535Z 28013KT 10SM CLR 12/01 A3009 920 46 800 280/13 RMK AO2
94908KDBQ DBQ20011102094009211/02/01 09:40:31  5-MIN KDBQ 021540Z 27011KT 10SM CLR 13/01 A3009 920 44 900 270/11 RMK AO2
94908KDBQ DBQ20011102094509211/02/01 09:45:31  5-MIN KDBQ 021545Z 26011KT 10SM CLR 13/01 A3009 920 43 900 260/11 RMK AO2
94908KDBQ DBQ20011102095010911/02/01 09:50:31  5-MIN KDBQ 021550Z 27011KT 10SM CLR 13/01 A3009 920 43 900 260/11 RMK AO2 SLP192 T01280006
94908KDBQ DBQ20011102095511011/02/01 09:55:31  5-MIN KDBQ 021555Z 27012KT 10SM CLR 13/01 A3010 920 41 1000 260/12 RMK AO2 SLP192 T01330006
94908KDBQ DBQ20011102100009311/02/01 10:00:31  5-MIN KDBQ 021600Z 27010KT 10SM CLR 13/01 A3010 910 43 1000 260/10 RMK AO2
94908KDBQ DBQ20011102100509311/02/01 10:05:31  5-MIN KDBQ 021605Z 28010KT 10SM CLR 13/01 A3010 910 43 1000 270/10 RMK AO2
94908KDBQ DBQ20011102201510111/02/01 20:15:31  5-MIN KDBQ 030215Z AUTO 20003KT 10SM CLR 06/M02 A3025 770 55 0 200/03 RMK AO2 TSNO
94908KDBQ DBQ20011102202010111/02/01 20:20:31  5-MIN KDBQ 030220Z AUTO 00000KT 10SM CLR 06/M03 A3025 770 53 0 000/00 RMK AO2 TSNO
94908KDBQ DBQ20011102202510111/02/01 20:25:31  5-MIN KDBQ 030225Z AUTO 00000KT 10SM CLR 06/M03 A3025 770 53 0 000/00 RMK AO2 TSNO
94908KDBQ DBQ20011102203010111/02/01 20:30:31  5-MIN KDBQ 030230Z AUTO 00000KT 10SM CLR 06/M03 A3025 770 53 0 000/00 RMK AO2 TSNO
94908KDBQ DBQ20011102203510411/02/01 20:35:31  5-MIN KDBQ 030235Z AUTO 20003KT 10SM CLR 05/M03 A3026 770 57 -200 200/03 RMK AO2 TSNO
94908KDBQ DBQ20011102204010111/02/01 20:40:31  5-MIN KDBQ 030240Z AUTO 20004KT 10SM CLR 06/M02 A3026 770 55 0 200/04 RMK AO2 TSNO
94908KDBQ DBQ20011102204510411/02/01 20:45:31  5-MIN KDBQ 030245Z AUTO 19003KT 10SM CLR 06/M02 A3026 770 57 -100 190/03 RMK AO2 TSNO
94908KDBQ DBQ20011102205012711/02/01 20:50:31  5-MIN KDBQ 030250Z AUTO 19004KT 10SM CLR 06/M02 A3026 770 57 -100 190/04 RMK AO2 SLP253 T00561022 53022 TSNO
94908KDBQ DBQ20011102205512711/02/01 20:55:31  5-MIN KDBQ 030255Z AUTO 20004KT 10SM CLR 05/M02 A3026 770 59 -200 200/04 RMK AO2 SLP253 T00501022 51017 TSNO
94908KDBQ DBQ20011102210010411/02/01 21:00:31  5-MIN KDBQ 030300Z AUTO VRB03KT 10SM CLR 06/M03 A3026 770 55 -100 VRB/03 RMK AO2 TSNO
94908KDBQ DBQ20011102210510411/02/01 21:05:31  5-MIN KDBQ 030305Z AUTO 20003KT 10SM CLR 06/M03 A3026 760 55 -100 200/03 RMK AO2 TSNO
94908KDBQ DBQ20011102211010411/02/01 21:10:31  5-MIN KDBQ 030310Z AUTO 20003KT 10SM CLR 05/M03 A3026 760 57 -200 200/03 RMK AO2 TSNO
94908KDBQ DBQ20011102211510411/02/01 21:15:31  5-MIN KDBQ 030315Z AUTO 20003KT 10SM CLR 06/M03 A3026 760 55 -100 200/03 RMK AO2 TSNO
94908KDBQ DBQ20011102212010411/02/01 21:20:31  5-MIN KDBQ 030320Z AUTO 20004KT 10SM CLR 05/M03 A3027 760 57 -200 200/04 RMK AO2 TSNO
94908KDBQ DBQ20011102212510411/02/01 21:25:31  5-MIN KDBQ 030325Z AUTO 20004KT 10SM CLR 05/M02 A3027 760 59 -200 200/04 RMK AO2 TSNO
94908KDBQ DBQ20011102213010411/02/01 21:30:31  5-MIN KDBQ 030330Z AUTO 20003KT 10SM CLR 04/M02 A3027 760 62 -200 200/03 RMK AO2 TSNO
94908KDBQ DBQ20011102213510411/02/01 21:35:31  5-MIN KDBQ 030335Z AUTO 21003KT 10SM CLR 04/M02 A3027 760 62 -200 210/03 RMK AO2 TSNO
94908KDBQ DBQ20011102214010411/02/01 21:40:31  5-MIN KDBQ 030340Z AUTO 20003KT 10SM CLR 04/M03 A3027 760 59 -200 200/03 RMK AO2 TSNO
94908KDBQ DBQ20011102214510411/02/01 21:45:31  5-MIN KDBQ 030345Z AUTO 20004KT 10SM CLR 04/M02 A3027 760 62 -200 200/04 RMK AO2 TSNO
94908KDBQ DBQ20011102215012111/02/01 21:50:31  5-MIN KDBQ 030350Z AUTO 20004KT 10SM CLR 04/M02 A3027 760 62 -200 200/04 RMK AO2 SLP256 T00441022 TSNO
94908KDBQ DBQ20011102215512111/02/01 21:55:31  5-MIN KDBQ 030355Z AUTO 21004KT 10SM CLR 04/M02 A3027 760 62 -300 200/04 RMK AO2 SLP257 T00441022 TSNO
94908KDBQ DBQ20011102220010411/02/01 22:00:31  5-MIN KDBQ 030400Z AUTO 20003KT 10SM CLR 04/M02 A3027 750 62 -300 200/03 RMK AO2 TSNO
94908KDBQ DBQ20011102220510411/02/01 22:05:31  5-MIN KDBQ 030405Z AUTO 20003KT 10SM CLR 04/M02 A3027 750 62 -300 200/03 RMK AO2 TSNO
94908KDBQ DBQ20011102221010411/02/01 22:10:31  5-MIN KDBQ 030410Z AUTO 20003KT 10SM CLR 04/M02 A3027 750 62 -300 200/03 RMK AO2 TSNO
94908KDBQ DBQ20011102221510411/02/01 22:15:31  5-MIN KDBQ 030415Z AUTO 20003KT 10SM CLR 04/M03 A3027 750 59 -300 200/03 RMK AO2 TSNO
94908KDBQ DBQ20011102222010411/02/01 22:20:31  5-MIN KDBQ 030420Z AUTO 20003KT 10SM CLR 04/M03 A3028 750 59 -300 200/03 RMK AO2 TSNO
94908KDBQ DBQ20011102222510411/02/01 22:25:31  5-MIN KDBQ 030425Z AUTO 20003KT 10SM CLR 04/M03 A3028 750 59 -300 200/03 RMK AO2 TSNO
94908KDBQ DBQ20011102223010411/02/01 22:30:31  5-MIN KDBQ 030430Z AUTO 20004KT 10SM CLR 04/M03 A3028 750 62 -300 200/04 RMK AO2 TSNO
94908KDBQ DBQ20011102223510411/02/01 22:35:31  5-MIN KDBQ 030435Z AUTO 20004KT 10SM CLR 04/M02 A3028 750 62 -300 200/04 RMK AO2 TSNO
94908KDBQ DBQ20011102224010411/02/01 22:40:31  5-MIN KDBQ 030440Z AUTO 20004KT 10SM CLR 03/M02 A3028 750 67 -400 200/04 RMK AO2 TSNO
94908KDBQ DBQ20011102224510411/02/01 22:45:31  5-MIN KDBQ 030445Z AUTO 20004KT 10SM CLR 03/M02 A3028 750 67 -400 200/04 RMK AO2 TSNO
94908KDBQ DBQ20011102225012111/02/01 22:50:31  5-MIN KDBQ 030450Z AUTO 20005KT 10SM CLR 03/M02 A3028 750 67 -400 200/05 RMK AO2 SLP259 T00331022 TSNO
94908KDBQ DBQ20011102225512111/02/01 22:55:31  5-MIN KDBQ 030455Z AUTO 21004KT 10SM CLR 04/M02 A3028 750 64 -300 210/04 RMK AO2 SLP259 T00391022 TSNO
94908KDBQ DBQ20011102230010411/02/01 23:00:31  5-MIN KDBQ 030500Z AUTO 21005KT 10SM CLR 03/M02 A3028 750 67 -400 210/05 RMK AO2 TSNO
94908KDBQ DBQ20011102230510411/02/01 23:05:31  5-MIN KDBQ 030505Z AUTO 21005KT 10SM CLR 03/M02 A3028 750 69 -500 210/05 RMK AO2 TSNO
94908KDBQ DBQ20011102231010411/02/01 23:10:31  5-MIN KDBQ 030510Z AUTO 22006KT 10SM CLR 03/M02 A3028 740 69 -500 210/06 RMK AO2 TSNO
94908KDBQ DBQ20011102231510411/02/01 23:15:31  5-MIN KDBQ 030515Z AUTO 21005KT 10SM CLR 02/M02 A3028 740 72 -500 210/05 RMK AO2 TSNO
94908KDBQ DBQ20011102232010411/02/01 23:20:31  5-MIN KDBQ 030520Z AUTO 21004KT 10SM CLR 02/M02 A3028 740 75 -500 210/04 RMK AO2 TSNO
94908KDBQ DBQ20011102232510411/02/01 23:25:31  5-MIN KDBQ 030525Z AUTO 21004KT 10SM CLR 03/M02 A3028 740 72 -500 210/04 RMK AO2 TSNO
94908KDBQ DBQ20011102233010411/02/01 23:30:31  5-MIN KDBQ 030530Z AUTO 21005KT 10SM CLR 03/M02 A3029 740 69 -500 210/05 RMK AO2 TSNO
94908KDBQ DBQ20011102233510411/02/01 23:35:31  5-MIN KDBQ 030535Z AUTO 21004KT 10SM CLR 03/M02 A3029 740 67 -400 210/04 RMK AO2 TSNO
94908KDBQ DBQ20011102234010411/02/01 23:40:31  5-MIN KDBQ 030540Z AUTO 22005KT 10SM CLR 04/M02 A3029 740 64 -300 220/05 RMK AO2 TSNO
94908KDBQ DBQ20011102234510411/02/01 23:45:31  5-MIN KDBQ 030545Z AUTO 22005KT 10SM CLR 04/M02 A3029 740 64 -300 220/05 RMK AO2 TSNO
94908KDBQ DBQ20011102235014911/02/01 23:50:31  5-MIN KDBQ 030550Z AUTO 22005KT 10SM CLR 04/M02 A3029 740 62 -300 220/05 RMK AO2 SLP261 T00441022 10094 20022 401610022 51017 TSNO
94908KDBQ DBQ20011102235514911/02/01 23:55:31  5-MIN KDBQ 030555Z AUTO 21005KT 10SM CLR 04/M02 A3029 740 64 -300 210/05 RMK AO2 SLP261 T00391022 10094 20022 401610022 51009 TSNO
94908KDBQ DBQ20011103000010411/03/01 00:00:31  5-MIN KDBQ 030600Z AUTO 21004KT 10SM CLR 04/M02 A3029 740 64 -300 210/04 RMK AO2 TSNO
94908KDBQ DBQ20011103000510411/03/01 00:05:31  5-MIN KDBQ 030605Z AUTO 22005KT 10SM CLR 04/M02 A3029 740 64 -300 220/05 RMK AO2 TSNO
94908KDBQ DBQ20011103001010411/03/01 00:10:31  5-MIN KDBQ 030610Z AUTO 22005KT 10SM CLR 04/M02 A3029 740 64 -300 220/05 RMK AO2 TSNO
94908KDBQ DBQ20011103001510411/03/01 00:15:31  5-MIN KDBQ 030615Z AUTO 22004KT 10SM CLR 04/M02 A3029 740 62 -300 220/04 RMK AO2 TSNO
94908KDBQ DBQ20011103002010411/03/01 00:20:31  5-MIN KDBQ 030620Z AUTO 21005KT 10SM CLR 04/M02 A3029 740 64 -300 210/05 RMK AO2 TSNO
94908KDBQ DBQ20011103002510411/03/01 00:25:31  5-MIN KDBQ 030625Z AUTO 21004KT 10SM CLR 04/M02 A3029 740 64 -300 210/04 RMK AO2 TSNO
94908KDBQ DBQ20011103003010411/03/01 00:30:31  5-MIN KDBQ 030630Z AUTO 21004KT 10SM CLR 04/M02 A3029 740 62 -300 210/04 RMK AO2 TSNO
94908KDBQ DBQ20011103003510411/03/01 00:35:31  5-MIN KDBQ 030635Z AUTO 21004KT 10SM CLR 04/M02 A3029 730 62 -300 210/04 RMK AO2 TSNO
94908KDBQ DBQ20011103004010411/03/01 00:40:31  5-MIN KDBQ 030640Z AUTO 21004KT 10SM CLR 04/M02 A3030 730 62 -300 200/04 RMK AO2 TSNO
94908KDBQ DBQ20011103004510411/03/01 00:45:31  5-MIN KDBQ 030645Z AUTO 20004KT 10SM CLR 04/M02 A3030 730 64 -300 200/04 RMK AO2 TSNO
94908KDBQ DBQ20011103005012111/03/01 00:50:31  5-MIN KDBQ 030650Z AUTO 21004KT 10SM CLR 04/M02 A3030 730 64 -400 210/04 RMK AO2 SLP265 T00391022 TSNO
94908KDBQ DBQ20011103005512111/03/01 00:55:31  5-MIN KDBQ 030655Z AUTO 21004KT 10SM CLR 04/M02 A3030 730 64 -400 210/04 RMK AO2 SLP265 T00391022 TSNO
94908KDBQ DBQ20011103010010411/03/01 01:00:31  5-MIN KDBQ 030700Z AUTO 20003KT 10SM CLR 03/M02 A3030 730 67 -400 200/03 RMK AO2 TSNO
94908KDBQ DBQ20011103010510411/03/01 01:05:31  5-MIN KDBQ 030705Z AUTO 20003KT 10SM CLR 03/M02 A3030 730 67 -400 200/03 RMK AO2 TSNO
94908KDBQ DBQ20011103011010411/03/01 01:10:31  5-MIN KDBQ 030710Z AUTO 20004KT 10SM CLR 03/M02 A3030 730 67 -400 200/04 RMK AO2 TSNO
94908KDBQ DBQ20011103011510411/03/01 01:15:31  5-MIN KDBQ 030715Z AUTO 20004KT 10SM CLR 03/M02 A3030 730 69 -500 200/04 RMK AO2 TSNO
94908KDBQ DBQ20011103012010411/03/01 01:20:31  5-MIN KDBQ 030720Z AUTO 20003KT 10SM CLR 03/M02 A3030 730 67 -400 200/03 RMK AO2 TSNO
94908KDBQ DBQ20011103012510411/03/01 01:25:31  5-MIN KDBQ 030725Z AUTO 20004KT 10SM CLR 03/M02 A3031 720 67 -400 200/04 RMK AO2 TSNO
94908KDBQ DBQ20011103013010411/03/01 01:30:31  5-MIN KDBQ 030730Z AUTO 20003KT 10SM CLR 03/M02 A3031 720 67 -400 200/03 RMK AO2 TSNO
94908KDBQ DBQ20011103013510411/03/01 01:35:31  5-MIN KDBQ 030735Z AUTO 20004KT 10SM CLR 03/M02 A3031 720 69 -500 200/04 RMK AO2 TSNO
94908KDBQ DBQ20011103014010411/03/01 01:40:31  5-MIN KDBQ 030740Z AUTO 20005KT 10SM CLR 03/M02 A3031 720 69 -500 200/05 RMK AO2 TSNO
94908KDBQ DBQ20011103014510411/03/01 01:45:31  5-MIN KDBQ 030745Z AUTO 21005KT 10SM CLR 02/M02 A3031 720 72 -600 200/05 RMK AO2 TSNO
94908KDBQ DBQ20011103015012111/03/01 01:50:31  5-MIN KDBQ 030750Z AUTO 20005KT 10SM CLR 02/M02 A3031 720 72 -600 200/05 RMK AO2 SLP270 T00221022 TSNO
94908KDBQ DBQ20011103015512111/03/01 01:55:31  5-MIN KDBQ 030755Z AUTO 20004KT 10SM CLR 02/M02 A3031 720 72 -600 200/04 RMK AO2 SLP268 T00221022 TSNO
94908KDBQ DBQ20011103020010411/03/01 02:00:31  5-MIN KDBQ 030800Z AUTO 20004KT 10SM CLR 02/M02 A3031 720 72 -600 200/04 RMK AO2 TSNO
94908KDBQ DBQ20011103020510411/03/01 02:05:31  5-MIN KDBQ 030805Z AUTO 20004KT 10SM CLR 03/M02 A3031 720 69 -500 200/04 RMK AO2 TSNO
94908KDBQ DBQ20011103021010411/03/01 02:10:31  5-MIN KDBQ 030810Z AUTO 20004KT 10SM CLR 03/M02 A3031 720 69 -500 200/04 RMK AO2 TSNO
94908KDBQ DBQ20011103021510411/03/01 02:15:31  5-MIN KDBQ 030815Z AUTO 20004KT 10SM CLR 02/M02 A3031 720 72 -600 200/04 RMK AO2 TSNO
94908KDBQ DBQ20011103022010411/03/01 02:20:31  5-MIN KDBQ 030820Z AUTO 20004KT 10SM CLR 03/M02 A3031 720 69 -500 200/04 RMK AO2 TSNO
94908KDBQ DBQ20011103022510411/03/01 02:25:31  5-MIN KDBQ 030825Z AUTO 20004KT 10SM CLR 03/M02 A3031 720 69 -500 190/04 RMK AO2 TSNO
94908KDBQ DBQ20011103023010411/03/01 02:30:31  5-MIN KDBQ 030830Z AUTO 20004KT 10SM CLR 03/M02 A3031 720 69 -500 200/04 RMK AO2 TSNO
94908KDBQ DBQ20011103023510411/03/01 02:35:31  5-MIN KDBQ 030835Z AUTO 20004KT 10SM CLR 03/M02 A3031 720 69 -500 190/04 RMK AO2 TSNO
94908KDBQ DBQ20011103024010411/03/01 02:40:31  5-MIN KDBQ 030840Z AUTO 20004KT 10SM CLR 03/M02 A3031 720 69 -500 200/04 RMK AO2 TSNO
94908KDBQ DBQ20011103024510411/03/01 02:45:31  5-MIN KDBQ 030845Z AUTO 20003KT 10SM CLR 03/M02 A3031 720 67 -400 200/03 RMK AO2 TSNO
94908KDBQ DBQ20011103025012711/03/01 02:50:31  5-MIN KDBQ 030850Z AUTO 20004KT 10SM CLR 03/M02 A3031 720 67 -400 200/04 RMK AO2 SLP268 T00331022 51009 TSNO
94908KDBQ DBQ20011103025512711/03/01 02:55:31  5-MIN KDBQ 030855Z AUTO 19003KT 10SM CLR 03/M02 A3031 720 67 -400 190/03 RMK AO2 SLP268 T00331022 50006 TSNO
94908KDBQ DBQ20011103030010411/03/01 03:00:31  5-MIN KDBQ 030900Z AUTO 19004KT 10SM CLR 03/M02 A3031 720 67 -400 190/04 RMK AO2 TSNO
94908KDBQ DBQ20011103030510411/03/01 03:05:31  5-MIN KDBQ 030905Z AUTO 19004KT 10SM CLR 04/M02 A3031 720 62 -300 190/04 RMK AO2 TSNO
94908KDBQ DBQ20011103031010411/03/01 03:10:31  5-MIN KDBQ 030910Z AUTO 19003KT 10SM CLR 04/M02 A3031 720 62 -300 180/03 RMK AO2 TSNO
94908KDBQ DBQ20011103031510411/03/01 03:15:31  5-MIN KDBQ 030915Z AUTO 19003KT 10SM CLR 04/M02 A3031 720 62 -300 190/03 RMK AO2 TSNO
94908KDBQ DBQ20011103032010411/03/01 03:20:31  5-MIN KDBQ 030920Z AUTO 19003KT 10SM CLR 04/M02 A3031 720 62 -300 190/03 RMK AO2 TSNO
94908KDBQ DBQ20011103032510411/03/01 03:25:31  5-MIN KDBQ 030925Z AUTO 19003KT 10SM CLR 04/M02 A3031 720 64 -400 190/03 RMK AO2 TSNO
94908KDBQ DBQ20011103033010411/03/01 03:30:31  5-MIN KDBQ 030930Z AUTO 19003KT 10SM CLR 03/M02 A3031 720 67 -400 190/03 RMK AO2 TSNO
94908KDBQ DBQ20011103033510411/03/01 03:35:31  5-MIN KDBQ 030935Z AUTO 20003KT 10SM CLR 03/M02 A3031 720 67 -400 200/03 RMK AO2 TSNO
94908KDBQ DBQ20011103034010411/03/01 03:40:31  5-MIN KDBQ 030940Z AUTO 21003KT 10SM CLR 03/M02 A3032 710 69 -500 210/03 RMK AO2 TSNO
94908KDBQ DBQ20011103034510411/03/01 03:45:31  5-MIN KDBQ 030945Z AUTO 21003KT 10SM CLR 03/M02 A3032 710 69 -500 210/03 RMK AO2 TSNO
94908KDBQ DBQ20011103035012111/03/01 03:50:31  5-MIN KDBQ 030950Z AUTO 21005KT 10SM CLR 02/M02 A3032 710 72 -600 210/05 RMK AO2 SLP274 T00221022 TSNO
94908KDBQ DBQ20011103035512111/03/01 03:55:31  5-MIN KDBQ 030955Z AUTO 21005KT 10SM CLR 02/M02 A3033 710 72 -600 210/05 RMK AO2 SLP275 T00221022 TSNO
94908KDBQ DBQ20011103040010411/03/01 04:00:31  5-MIN KDBQ 031000Z AUTO 21005KT 10SM CLR 02/M02 A3033 700 75 -700 210/05 RMK AO2 TSNO
94908KDBQ DBQ20011103040510411/03/01 04:05:31  5-MIN KDBQ 031005Z AUTO 20005KT 10SM CLR 02/M02 A3033 700 75 -700 200/05 RMK AO2 TSNO
94908KDBQ DBQ20011103041010411/03/01 04:10:31  5-MIN KDBQ 031010Z AUTO 20004KT 10SM CLR 02/M02 A3033 700 72 -600 190/04 RMK AO2 TSNO
94908KDBQ DBQ20011103041510411/03/01 04:15:31  5-MIN KDBQ 031015Z AUTO 20005KT 10SM CLR 02/M02 A3033 700 72 -600 200/05 RMK AO2 TSNO
94908KDBQ DBQ20011103042010411/03/01 04:20:31  5-MIN KDBQ 031020Z AUTO 20005KT 10SM CLR 02/M02 A3033 700 72 -600 200/05 RMK AO2 TSNO
94908KDBQ DBQ20011103042510411/03/01 04:25:31  5-MIN KDBQ 031025Z AUTO 20004KT 10SM CLR 03/M02 A3033 700 69 -500 200/04 RMK AO2 TSNO
94908KDBQ DBQ20011103043010411/03/01 04:30:31  5-MIN KDBQ 031030Z AUTO 20005KT 10SM CLR 02/M02 A3033 700 72 -600 200/05 RMK AO2 TSNO
94908KDBQ DBQ20011103043510411/03/01 04:35:31  5-MIN KDBQ 031035Z AUTO 20005KT 10SM CLR 02/M02 A3033 700 72 -600 200/05 RMK AO2 TSNO
94908KDBQ DBQ20011103044010411/03/01 04:40:31  5-MIN KDBQ 031040Z AUTO 21004KT 10SM CLR 02/M02 A3033 700 75 -700 210/04 RMK AO2 TSNO
94908KDBQ DBQ20011103044510411/03/01 04:45:31  5-MIN KDBQ 031045Z AUTO 21004KT 10SM CLR 02/M02 A3034 700 72 -600 210/04 RMK AO2 TSNO
94908KDBQ DBQ20011103045012111/03/01 04:50:31  5-MIN KDBQ 031050Z AUTO 20004KT 10SM CLR 02/M02 A3034 700 72 -600 200/04 RMK AO2 SLP280 T00221022 TSNO
94908KDBQ DBQ20011103045512111/03/01 04:55:31  5-MIN KDBQ 031055Z AUTO 19003KT 10SM CLR 03/M02 A3034 700 69 -500 190/03 RMK AO2 SLP279 T00281022 TSNO
94908KDBQ DBQ20011103050010411/03/01 05:00:31  5-MIN KDBQ 031100Z AUTO 19003KT 10SM CLR 03/M02 A3033 700 69 -500 190/03 RMK AO2 TSNO
94908KDBQ DBQ20011103050510411/03/01 05:05:31  5-MIN KDBQ 031105Z AUTO 19004KT 10SM CLR 02/M02 A3034 700 72 -600 190/04 RMK AO2 TSNO
94908KDBQ DBQ20011103051010411/03/01 05:10:31  5-MIN KDBQ 031110Z AUTO 19004KT 10SM CLR 02/M02 A3033 700 72 -600 190/04 RMK AO2 TSNO
94908KDBQ DBQ20011103051510411/03/01 05:15:31  5-MIN KDBQ 031115Z AUTO 19004KT 10SM CLR 02/M02 A3033 700 72 -600 190/04 RMK AO2 TSNO
94908KDBQ DBQ20011103052010411/03/01 05:20:31  5-MIN KDBQ 031120Z AUTO 20004KT 10SM CLR 02/M02 A3033 700 72 -600 200/04 RMK AO2 TSNO
94908KDBQ DBQ20011103052509411/03/01 05:25:31  5-MIN KDBQ 031125Z 20004KT 10SM CLR 01/M02 A3033 700 78 -700 200/04 RMK AO2
94908KDBQ DBQ20011103053009411/03/01 05:30:31  5-MIN KDBQ 031130Z 20004KT 10SM CLR 02/M02 A3033 700 75 -700 200/04 RMK AO2
94908KDBQ DBQ20011103053509411/03/01 05:35:31  5-MIN KDBQ 031135Z 20004KT 10SM CLR 01/M02 A3033 700 78 -700 200/04 RMK AO2
94908KDBQ DBQ20011103054009411/03/01 05:40:31  5-MIN KDBQ 031140Z 20004KT 10SM CLR 02/M02 A3033 700 75 -700 200/04 RMK AO2
94908KDBQ DBQ20011103054509411/03/01 05:45:31  5-MIN KDBQ 031145Z 20004KT 10SM CLR 02/M02 A3033 700 75 -700 200/04 RMK AO2
94908KDBQ DBQ20011103055012911/03/01 05:50:31  5-MIN KDBQ 031150Z 20004KT 10SM CLR 02/M02 A3033 700 75 -700 200/04 RMK AO2 SLP279 T00171022 10044 20011 50006
94908KDBQ DBQ20011103055512911/03/01 05:55:31  5-MIN KDBQ 031155Z 20004KT 10SM CLR 02/M02 A3033 700 75 -700 200/04 RMK AO2 SLP279 T00171022 10044 20011 50008
94908KDBQ DBQ20011103060009411/03/01 06:00:31  5-MIN KDBQ 031200Z 19005KT 10SM CLR 02/M02 A3033 700 75 -700 190/05 RMK AO2
94908KDBQ DBQ20011103060509411/03/01 06:05:31  5-MIN KDBQ 031205Z 19005KT 10SM CLR 02/M02 A3033 700 75 -700 190/05 RMK AO2
94908KDBQ DBQ20011103061009411/03/01 06:10:31  5-MIN KDBQ 031210Z 20006KT 10SM CLR 02/M02 A3033 700 72 -600 200/06 RMK AO2
94908KDBQ DBQ20011103061509411/03/01 06:15:31  5-MIN KDBQ 031215Z 20006KT 10SM CLR 02/M02 A3033 700 72 -600 200/06 RMK AO2
94908KDBQ DBQ20011103062009411/03/01 06:20:31  5-MIN KDBQ 031220Z 19006KT 10SM CLR 01/M02 A3033 700 78 -700 190/06 RMK AO2
94908KDBQ DBQ20011103062509411/03/01 06:25:31  5-MIN KDBQ 031225Z 19006KT 10SM CLR 01/M02 A3034 700 82 -800 190/06 RMK AO2
94908KDBQ DBQ20011103063009411/03/01 06:30:31  5-MIN KDBQ 031230Z 20006KT 10SM CLR 01/M02 A3034 700 82 -800 200/06 RMK AO2
94908KDBQ DBQ20011103063509411/03/01 06:35:31  5-MIN KDBQ 031235Z 20007KT 10SM CLR 00/M02 A3034 690 85 -900 200/07 RMK AO2
94908KDBQ DBQ20011103064009411/03/01 06:40:31  5-MIN KDBQ 031240Z 20006KT 10SM CLR 01/M02 A3034 690 82 -800 200/06 RMK AO2
94908KDBQ DBQ20011103064509411/03/01 06:45:31  5-MIN KDBQ 031245Z 19005KT 10SM CLR 01/M02 A3034 700 78 -700 190/05 RMK AO2
94908KDBQ DBQ20011103065011111/03/01 06:50:31  5-MIN KDBQ 031250Z 19005KT 10SM CLR 02/M02 A3034 700 75 -700 190/05 RMK AO2 SLP281 T00171022
94908KDBQ DBQ20011103065511111/03/01 06:55:31  5-MIN KDBQ 031255Z 19005KT 10SM CLR 02/M02 A3034 690 75 -700 190/05 RMK AO2 SLP282 T00171022
94908KDBQ DBQ20011103070009411/03/01 07:00:31  5-MIN KDBQ 031300Z 20005KT 10SM CLR 02/M02 A3034 690 75 -700 200/05 RMK AO2
94908KDBQ DBQ20011103070509411/03/01 07:05:31  5-MIN KDBQ 031305Z 20006KT 10SM CLR 01/M02 A3034 690 78 -700 190/06 RMK AO2
94908KDBQ DBQ20011103071009411/03/01 07:10:31  5-MIN KDBQ 031310Z 19006KT 10SM CLR 02/M02 A3034 690 78 -700 190/06 RMK AO2
94908KDBQ DBQ20011103071509411/03/01 07:15:31  5-MIN KDBQ 031315Z 19006KT 10SM CLR 03/M02 A3034 690 72 -500 190/06 RMK AO2
94908KDBQ DBQ20011103072009411/03/01 07:20:31  5-MIN KDBQ 031320Z 19006KT 10SM CLR 03/M02 A3034 690 72 -500 190/06 RMK AO2
94908KDBQ DBQ20011103072509411/03/01 07:25:31  5-MIN KDBQ 031325Z 20006KT 10SM CLR 03/M01 A3034 690 75 -500 190/06 RMK AO2
94908KDBQ DBQ20011103073009411/03/01 07:30:31  5-MIN KDBQ 031330Z 20007KT 10SM CLR 03/M01 A3034 690 75 -500 190/07 RMK AO2
94908KDBQ DBQ20011103073508411/03/01 07:35:31  5-MIN KDBQ 031335Z 10SM CLR 03/M01 A3034 690 75 -500 M /M RMK AO2
94908KDBQ DBQ20011103074009611/03/01 07:40:31  5-MIN KDBQ 031340Z 19007KT 10SM CLR 03/M01 A3034 690 75 -500 190/07 RMK AO2 $
94908KDBQ DBQ20011103074509511/03/01 07:45:31  5-MIN KDBQ 031345Z 19007KT 10SM CLR 03/00 A3034 690 79 -500 190/07 RMK AO2 $
94908KDBQ DBQ20011103075011211/03/01 07:50:31  5-MIN KDBQ 031350Z 19007KT 10SM CLR 04/00 A3034 690 76 -400 190/07 RMK AO2 SLP284 T00390000 $
94908KDBQ DBQ20011103075511211/03/01 07:55:31  5-MIN KDBQ 031355Z 20006KT 10SM CLR 04/00 A3035 690 73 -300 200/06 RMK AO2 SLP284 T00440000 $
94908KDBQ DBQ20011103080009511/03/01 08:00:31  5-MIN KDBQ 031400Z 20006KT 10SM CLR 04/00 A3035 690 73 -300 200/06 RMK AO2 $
94908KDBQ DBQ20011103080509511/03/01 08:05:31  5-MIN KDBQ 031405Z 20006KT 10SM CLR 05/01 A3035 680 73 -300 200/06 RMK AO2 $
94908KDBQ DBQ20011103081009511/03/01 08:10:31  5-MIN KDBQ 031410Z 21005KT 10SM CLR 06/01 A3035 680 70 -200 210/05 RMK AO2 $
94908KDBQ DBQ20011103081509511/03/01 08:15:31  5-MIN KDBQ 031415Z 20005KT 10SM CLR 06/01 A3035 680 70 -100 200/05 RMK AO2 $
94908KDBQ DBQ20011103082009511/03/01 08:20:31  5-MIN KDBQ 031420Z 20006KT 10SM CLR 07/02 A3035 680 70 -100 200/06 RMK AO2 $
94908KDBQ DBQ20011103082509211/03/01 08:25:31  5-MIN KDBQ 031425Z 21005KT 10SM CLR 07/02 A3035 690 70 0 210/05 RMK AO2 $
94908KDBQ DBQ20011103083009011/03/01 08:30:31  5-MIN KDBQ 031430Z 21007KT 10SM CLR 08/02 A3035 690 65 0 210/07 RMK AO2
94908KDBQ DBQ20011103083509211/03/01 08:35:31  5-MIN KDBQ 031435Z 21007KT 10SM CLR 08/02 A3035 690 63 100 210/07 RMK AO2
94908KDBQ DBQ20011103084009211/03/01 08:40:31  5-MIN KDBQ 031440Z 22007KT 10SM CLR 09/02 A3035 680 60 200 220/07 RMK AO2
94908KDBQ DBQ20011103084509211/03/01 08:45:31  5-MIN KDBQ 031445Z 21008KT 10SM CLR 09/02 A3035 690 60 200 210/08 RMK AO2
94908KDBQ DBQ20011103085011511/03/01 08:50:31  5-MIN KDBQ 031450Z 21008KT 10SM CLR 09/02 A3035 680 58 200 210/08 RMK AO2 SLP284 T00940017 50008
94908KDBQ DBQ20011103085511511/03/01 08:55:31  5-MIN KDBQ 031455Z 21008KT 10SM CLR 10/02 A3035 680 56 300 210/08 RMK AO2 SLP284 T01000017 52006
94908KDBQ DBQ20011103090009211/03/01 09:00:31  5-MIN KDBQ 031500Z 21009KT 10SM CLR 10/02 A3035 680 56 300 210/09 RMK AO2
94908KDBQ DBQ20011103090509211/03/01 09:05:31  5-MIN KDBQ 031505Z 21010KT 10SM CLR 10/02 A3035 680 58 300 210/10 RMK AO2
94908KDBQ DBQ20011103091009211/03/01 09:10:31  5-MIN KDBQ 031510Z 21009KT 10SM CLR 11/02 A3035 680 54 400 210/09 RMK AO2
94908KDBQ DBQ20011103091509211/03/01 09:15:31  5-MIN KDBQ 031515Z 21009KT 10SM CLR 11/02 A3035 680 54 400 210/09 RMK AO2
94908KDBQ DBQ20011103092009211/03/01 09:20:31  5-MIN KDBQ 031520Z 21010KT 10SM CLR 12/03 A3035 680 54 500 210/10 RMK AO2
94908KDBQ DBQ20011103092509211/03/01 09:25:31  5-MIN KDBQ 031525Z 21009KT 10SM CLR 12/03 A3035 680 52 600 210/09 RMK AO2
94908KDBQ DBQ20011103093009211/03/01 09:30:31  5-MIN KDBQ 031530Z 21010KT 10SM CLR 12/03 A3035 680 52 600 210/10 RMK AO2
94908KDBQ DBQ20011103093509211/03/01 09:35:31  5-MIN KDBQ 031535Z 21011KT 10SM CLR 13/03 A3035 680 50 600 210/11 RMK AO2
94908KDBQ DBQ20011103094009211/03/01 09:40:31  5-MIN KDBQ 031540Z 22011KT 10SM CLR 13/03 A3035 690 52 600 220/11 RMK AO2
94908KDBQ DBQ20011103094509211/03/01 09:45:31  5-MIN KDBQ 031545Z 22011KT 10SM CLR 13/03 A3035 690 48 700 220/11 RMK AO2
94908KDBQ DBQ20011103095010911/03/01 09:50:31  5-MIN KDBQ 031550Z 22011KT 10SM CLR 14/03 A3035 690 47 800 220/11 RMK AO2 SLP281 T01390028
94908KDBQ DBQ20011103095510911/03/01 09:55:31  5-MIN KDBQ 031555Z 22012KT 10SM CLR 14/03 A3035 690 45 800 220/12 RMK AO2 SLP281 T01440028
94908KDBQ DBQ20011103100009511/03/01 10:00:31  5-MIN KDBQ 031600Z 22014KT 10SM FEW120 14/03 A3035 690 45 800 220/14 RMK AO2
94908KDBQ DBQ20011103100509511/03/01 10:05:31  5-MIN KDBQ 031605Z 22012KT 10SM FEW120 14/02 A3035 690 45 800 220/12 RMK AO2
94908KDBQ DBQ20011103101009511/03/01 10:10:31  5-MIN KDBQ 031610Z 23011KT 10SM FEW120 14/03 A3035 690 47 800 230/11 RMK AO2
94908KDBQ DBQ20011103101509511/03/01 10:15:31  5-MIN KDBQ 031615Z 23012KT 10SM FEW120 14/03 A3035 680 45 800 230/12 RMK AO2
94908KDBQ DBQ20011103102009511/03/01 10:20:31  5-MIN KDBQ 031620Z 23011KT 10SM FEW120 14/03 A3035 680 45 800 220/11 RMK AO2
94908KDBQ DBQ20011103102509211/03/01 10:25:31  5-MIN KDBQ 031625Z 23012KT 10SM CLR 14/03 A3035 680 45 800 230/12 RMK AO2
94908KDBQ DBQ20011103103009211/03/01 10:30:31  5-MIN KDBQ 031630Z 22011KT 10SM CLR 16/03 A3035 680 43 900 220/11 RMK AO2
94908KDBQ DBQ20011103103509211/03/01 10:35:31  5-MIN KDBQ 031635Z 22012KT 10SM CLR 16/03 A3035 680 42 900 220/12 RMK AO2
94908KDBQ DBQ20011103104009311/03/01 10:40:31  5-MIN KDBQ 031640Z 22012KT 10SM CLR 16/03 A3035 680 42 1000 220/12 RMK AO2
94908KDBQ DBQ20011103104509311/03/01 10:45:31  5-MIN KDBQ 031645Z 21013KT 10SM CLR 17/03 A3035 690 40 1100 210/13 RMK AO2
94908KDBQ DBQ20011103105011011/03/01 10:50:31  5-MIN KDBQ 031650Z 22011KT 10SM CLR 16/03 A3035 690 40 1000 220/11 RMK AO2 SLP281 T01610028
94908KDBQ DBQ20011103105511011/03/01 10:55:31  5-MIN KDBQ 031655Z 22013KT 10SM CLR 16/03 A3035 690 40 1000 210/13 RMK AO2 SLP281 T01610028
94908KDBQ DBQ20011103110009311/03/01 11:00:31  5-MIN KDBQ 031700Z 23014KT 10SM CLR 16/03 A3034 690 42 1000 230/14 RMK AO2
94908KDBQ DBQ20011103110509311/03/01 11:05:31  5-MIN KDBQ 031705Z 22010KT 10SM CLR 16/04 A3034 690 44 1000 210/10 RMK AO2
94908KDBQ DBQ20011103111009311/03/01 11:10:31  5-MIN KDBQ 031710Z 22011KT 10SM CLR 17/03 A3034 690 40 1100 220/11 RMK AO2
94908KDBQ DBQ20011103111509311/03/01 11:15:31  5-MIN KDBQ 031715Z 22012KT 10SM CLR 17/03 A3034 690 40 1100 220/12 RMK AO2
94908KDBQ DBQ20011103112009311/03/01 11:20:31  5-MIN KDBQ 031720Z 23011KT 10SM CLR 17/03 A3034 690 40 1100 230/11 RMK AO2
94908KDBQ DBQ20011103112509311/03/01 11:25:31  5-MIN KDBQ 031725Z 23013KT 10SM CLR 17/03 A3034 690 40 1100 230/13 RMK AO2
94908KDBQ DBQ20011103113009311/03/01 11:30:31  5-MIN KDBQ 031730Z 23010KT 10SM CLR 17/04 A3034 690 41 1200 230/10 RMK AO2
94908KDBQ DBQ20011103113509311/03/01 11:35:31  5-MIN KDBQ 031735Z 23011KT 10SM CLR 17/03 A3034 690 39 1200 230/11 RMK AO2
94908KDBQ DBQ20011103114009311/03/01 11:40:31  5-MIN KDBQ 031740Z 24011KT 10SM CLR 18/04 A3034 700 38 1300 240/11 RMK AO2
94908KDBQ DBQ20011103114509311/03/01 11:45:31  5-MIN KDBQ 031745Z 25014KT 10SM CLR 18/03 A3033 700 38 1200 250/14 RMK AO2
94908KDBQ DBQ20011103115012811/03/01 11:50:31  5-MIN KDBQ 031750Z 25012KT 10SM CLR 18/03 A3033 700 38 1200 250/12 RMK AO2 SLP274 T01780033 10183 20000 52006
94908KDBQ DBQ20011103115512811/03/01 11:55:31  5-MIN KDBQ 031755Z 24011KT 10SM CLR 18/04 A3033 700 39 1300 240/11 RMK AO2 SLP274 T01830044 10183 20000 58007
94908KDBQ DBQ20011103120009311/03/01 12:00:31  5-MIN KDBQ 031800Z 25014KT 10SM CLR 18/03 A3033 700 38 1200 240/14 RMK AO2
94908KDBQ DBQ20011103120509311/03/01 12:05:31  5-MIN KDBQ 031805Z 24013KT 10SM CLR 18/03 A3032 710 38 1200 240/13 RMK AO2
94908KDBQ DBQ20011103121009311/03/01 12:10:31  5-MIN KDBQ 031810Z 24011KT 10SM CLR 17/03 A3032 710 39 1200 240/11 RMK AO2
94908KDBQ DBQ20011103121509311/03/01 12:15:31  5-MIN KDBQ 031815Z 25011KT 10SM CLR 17/03 A3032 710 39 1200 250/11 RMK AO2
94908KDBQ DBQ20011103122009311/03/01 12:20:31  5-MIN KDBQ 031820Z 25012KT 10SM CLR 18/04 A3032 710 39 1200 250/12 RMK AO2
94908KDBQ DBQ20011103122509311/03/01 12:25:31  5-MIN KDBQ 031825Z 25011KT 10SM CLR 18/04 A3032 710 39 1200 250/11 RMK AO2
94908KDBQ DBQ20011103123009311/03/01 12:30:31  5-MIN KDBQ 031830Z 25012KT 10SM CLR 18/03 A3032 710 38 1200 250/12 RMK AO2
94908KDBQ DBQ20011103123509311/03/01 12:35:31  5-MIN KDBQ 031835Z 24012KT 10SM CLR 17/04 A3032 710 41 1200 240/12 RMK AO2
94908KDBQ DBQ20011103124009311/03/01 12:40:31  5-MIN KDBQ 031840Z 25009KT 10SM CLR 17/04 A3032 710 42 1200 240/09 RMK AO2
94908KDBQ DBQ20011103124509311/03/01 12:45:31  5-MIN KDBQ 031845Z 25010KT 10SM CLR 17/04 A3031 720 41 1200 250/10 RMK AO2
94908KDBQ DBQ20011103125011011/03/01 12:50:31  5-MIN KDBQ 031850Z 24010KT 10SM CLR 17/04 A3031 720 42 1200 240/10 RMK AO2 SLP268 T01720044
94908KDBQ DBQ20011103125511011/03/01 12:55:31  5-MIN KDBQ 031855Z 24009KT 10SM CLR 17/04 A3031 720 42 1100 240/09 RMK AO2 SLP268 T01670039
94908KDBQ DBQ20011103130009311/03/01 13:00:31  5-MIN KDBQ 031900Z 24008KT 10SM CLR 17/04 A3031 720 44 1100 240/08 RMK AO2
94908KDBQ DBQ20011103130509311/03/01 13:05:31  5-MIN KDBQ 031905Z 24008KT 10SM CLR 17/04 A3031 720 42 1200 240/08 RMK AO2
94908KDBQ DBQ20011103131009311/03/01 13:10:31  5-MIN KDBQ 031910Z 24010KT 10SM CLR 18/04 A3031 720 41 1300 240/10 RMK AO2
94908KDBQ DBQ20011103131509311/03/01 13:15:31  5-MIN KDBQ 031915Z 24010KT 10SM CLR 18/04 A3031 720 39 1300 240/10 RMK AO2
94908KDBQ DBQ20011103132009311/03/01 13:20:31  5-MIN KDBQ 031920Z 24009KT 10SM CLR 18/04 A3031 720 39 1300 240/09 RMK AO2
94908KDBQ DBQ20011103132509311/03/01 13:25:31  5-MIN KDBQ 031925Z 25009KT 10SM CLR 18/04 A3030 720 41 1300 240/09 RMK AO2
94908KDBQ DBQ20011103133009611/03/01 13:30:31  5-MIN KDBQ 031930Z 24012KT 10SM FEW110 18/04 A3031 720 39 1300 240/12 RMK AO2
94908KDBQ DBQ20011103133509611/03/01 13:35:31  5-MIN KDBQ 031935Z 24012KT 10SM FEW110 18/04 A3030 730 39 1300 240/12 RMK AO2
94908KDBQ DBQ20011103134009611/03/01 13:40:31  5-MIN KDBQ 031940Z 25012KT 10SM FEW110 18/04 A3030 730 39 1300 250/12 RMK AO2
94908KDBQ DBQ20011103134509611/03/01 13:45:31  5-MIN KDBQ 031945Z 23011KT 10SM FEW110 19/04 A3030 730 38 1400 230/11 RMK AO2
94908KDBQ DBQ20011103135011311/03/01 13:50:31  5-MIN KDBQ 031950Z 23012KT 10SM FEW110 19/04 A3030 730 38 1400 230/12 RMK AO2 SLP263 T01890044
94908KDBQ DBQ20011103135511311/03/01 13:55:31  5-MIN KDBQ 031955Z 24010KT 10SM FEW110 19/04 A3030 730 38 1400 240/10 RMK AO2 SLP263 T01890044
94908KDBQ DBQ20011103140009311/03/01 14:00:31  5-MIN KDBQ 032000Z 23013KT 10SM CLR 19/04 A3029 730 38 1400 230/13 RMK AO2
94908KDBQ DBQ20011103140509311/03/01 14:05:31  5-MIN KDBQ 032005Z 24012KT 10SM CLR 19/04 A3029 740 38 1400 240/12 RMK AO2
94908KDBQ DBQ20011103141009311/03/01 14:10:31  5-MIN KDBQ 032010Z 24012KT 10SM CLR 19/04 A3029 740 38 1400 240/12 RMK AO2
94908KDBQ DBQ20011103141509311/03/01 14:15:31  5-MIN KDBQ 032015Z 25010KT 10SM CLR 18/04 A3029 740 39 1300 250/10 RMK AO2
94908KDBQ DBQ20011103142009311/03/01 14:20:31  5-MIN KDBQ 032020Z 25008KT 10SM CLR 19/05 A3029 740 39 1400 250/08 RMK AO2
94908KDBQ DBQ20011103142509311/03/01 14:25:31  5-MIN KDBQ 032025Z 25011KT 10SM CLR 19/04 A3029 740 38 1400 250/11 RMK AO2
94908KDBQ DBQ20011103143009311/03/01 14:30:31  5-MIN KDBQ 032030Z 24011KT 10SM CLR 19/04 A3029 740 38 1400 240/11 RMK AO2
94908KDBQ DBQ20011103143509611/03/01 14:35:31  5-MIN KDBQ 032035Z 25011KT 10SM FEW110 19/04 A3029 740 38 1400 250/11 RMK AO2
94908KDBQ DBQ20011103144009611/03/01 14:40:31  5-MIN KDBQ 032040Z 25011KT 10SM FEW110 19/04 A3029 740 38 1400 250/11 RMK AO2
94908KDBQ DBQ20011103144509611/03/01 14:45:31  5-MIN KDBQ 032045Z 25009KT 10SM FEW110 19/05 A3029 740 38 1500 250/09 RMK AO2
94908KDBQ DBQ20011103145011911/03/01 14:50:31  5-MIN KDBQ 032050Z 24013KT 10SM FEW110 19/04 A3029 740 37 1500 240/13 RMK AO2 SLP259 T01940044 58007
94908KDBQ DBQ20011103145511911/03/01 14:55:31  5-MIN KDBQ 032055Z 24012KT 10SM FEW110 19/04 A3029 740 37 1500 240/12 RMK AO2 SLP259 T01940044 56014
94908KDBQ DBQ20011103150009611/03/01 15:00:31  5-MIN KDBQ 032100Z 25012KT 10SM SCT110 19/04 A3029 740 37 1500 250/12 RMK AO2
94908KDBQ DBQ20011103150509611/03/01 15:05:31  5-MIN KDBQ 032105Z 24012KT 10SM SCT110 19/04 A3029 740 37 1500 240/12 RMK AO2
94908KDBQ DBQ20011103151009611/03/01 15:10:31  5-MIN KDBQ 032110Z 23014KT 10SM SCT110 19/04 A3028 740 37 1500 230/14 RMK AO2
94908KDBQ DBQ20011103151509611/03/01 15:15:31  5-MIN KDBQ 032115Z 24013KT 10SM SCT110 19/04 A3029 740 35 1500 240/13 RMK AO2
94908KDBQ DBQ20011103152009611/03/01 15:20:31  5-MIN KDBQ 032120Z 24011KT 10SM FEW110 19/04 A3028 740 38 1400 240/11 RMK AO2
94908KDBQ DBQ20011103152509611/03/01 15:25:31  5-MIN KDBQ 032125Z 24012KT 10SM FEW110 19/04 A3029 740 38 1400 240/12 RMK AO2
94908KDBQ DBQ20011103153009611/03/01 15:30:31  5-MIN KDBQ 032130Z 24010KT 10SM SCT110 19/05 A3029 740 39 1400 240/10 RMK AO2
94908KDBQ DBQ20011103153509611/03/01 15:35:31  5-MIN KDBQ 032135Z 24010KT 10SM SCT110 19/05 A3029 740 39 1400 240/10 RMK AO2
94908KDBQ DBQ20011103154009611/03/01 15:40:31  5-MIN KDBQ 032140Z 24011KT 10SM SCT110 18/04 A3029 740 39 1300 240/11 RMK AO2
94908KDBQ DBQ20011103154509611/03/01 15:45:31  5-MIN KDBQ 032145Z 25009KT 10SM FEW110 18/05 A3029 730 42 1300 250/09 RMK AO2
94908KDBQ DBQ20011103155011311/03/01 15:50:31  5-MIN KDBQ 032150Z 25008KT 10SM FEW110 17/05 A3029 730 44 1200 250/08 RMK AO2 SLP263 T01720050
94908KDBQ DBQ20011103155511311/03/01 15:55:31  5-MIN KDBQ 032155Z 25008KT 10SM FEW110 16/05 A3029 730 47 1100 250/08 RMK AO2 SLP263 T01610050
94908KDBQ DBQ20011103160009611/03/01 16:00:31  5-MIN KDBQ 032200Z 25007KT 10SM FEW110 16/05 A3029 740 49 1000 250/07 RMK AO2
94908KDBQ DBQ20011103160509311/03/01 16:05:31  5-MIN KDBQ 032205Z 25006KT 10SM CLR 16/05 A3029 740 49 1000 250/06 RMK AO2
94908KDBQ DBQ20011103161009311/03/01 16:10:31  5-MIN KDBQ 032210Z 25006KT 10SM CLR 16/05 A3029 740 49 1000 250/06 RMK AO2
94908KDBQ DBQ20011103161509311/03/01 16:15:31  5-MIN KDBQ 032215Z 25004KT 10SM CLR 16/05 A3029 740 49 1000 240/04 RMK AO2
94908KDBQ DBQ20011103162009311/03/01 16:20:31  5-MIN KDBQ 032220Z 23004KT 10SM CLR 16/05 A3028 740 49 1000 230/04 RMK AO2
94908KDBQ DBQ20011103162509311/03/01 16:25:31  5-MIN KDBQ 032225Z 23005KT 10SM CLR 16/05 A3028 740 49 1000 230/05 RMK AO2
94908KDBQ DBQ20011103163009311/03/01 16:30:31  5-MIN KDBQ 032230Z 22004KT 10SM CLR 15/05 A3028 740 51 1000 220/04 RMK AO2
94908KDBQ DBQ20011103163509311/03/01 16:35:31  5-MIN KDBQ 032235Z 21005KT 10SM CLR 15/05 A3028 740 51 1000 210/05 RMK AO2
94908KDBQ DBQ20011103164009211/03/01 16:40:31  5-MIN KDBQ 032240Z 21005KT 10SM CLR 14/05 A3028 750 55 800 210/05 RMK AO2
94908KDBQ DBQ20011103164509211/03/01 16:45:31  5-MIN KDBQ 032245Z 22005KT 10SM CLR 14/05 A3028 750 55 800 220/05 RMK AO2
94908KDBQ DBQ20011103165010911/03/01 16:50:31  5-MIN KDBQ 032250Z 22005KT 10SM CLR 14/05 A3028 750 55 800 220/05 RMK AO2 SLP259 T01390050
94908KDBQ DBQ20011103165510911/03/01 16:55:31  5-MIN KDBQ 032255Z 22006KT 10SM CLR 14/05 A3028 750 55 800 220/06 RMK AO2 SLP259 T01390050
94908KDBQ DBQ20011103170009211/03/01 17:00:31  5-MIN KDBQ 032300Z 23007KT 10SM CLR 13/05 A3028 750 57 800 230/07 RMK AO2
94908KDBQ DBQ20011103170509211/03/01 17:05:31  5-MIN KDBQ 032305Z 23007KT 10SM CLR 13/06 A3028 750 61 700 230/07 RMK AO2
94908KDBQ DBQ20011103171009211/03/01 17:10:31  5-MIN KDBQ 032310Z 23007KT 10SM CLR 13/06 A3028 750 61 700 230/07 RMK AO2
94908KDBQ DBQ20011103171509211/03/01 17:15:31  5-MIN KDBQ 032315Z 23006KT 10SM CLR 13/06 A3028 750 61 700 230/06 RMK AO2
94908KDBQ DBQ20011103172009211/03/01 17:20:31  5-MIN KDBQ 032320Z 23005KT 10SM CLR 13/06 A3028 750 61 700 230/05 RMK AO2
94908KDBQ DBQ20011103172509211/03/01 17:25:31  5-MIN KDBQ 032325Z 22004KT 10SM CLR 13/06 A3028 740 61 700 220/04 RMK AO2
94908KDBQ DBQ20011103173009211/03/01 17:30:31  5-MIN KDBQ 032330Z 21005KT 10SM CLR 13/06 A3028 740 61 700 210/05 RMK AO2
94908KDBQ DBQ20011103173509211/03/01 17:35:31  5-MIN KDBQ 032335Z 21005KT 10SM CLR 12/06 A3029 740 63 600 210/05 RMK AO2
94908KDBQ DBQ20011103174009211/03/01 17:40:31  5-MIN KDBQ 032340Z 21004KT 10SM CLR 12/06 A3029 740 63 600 210/04 RMK AO2
94908KDBQ DBQ20011103174509211/03/01 17:45:31  5-MIN KDBQ 032345Z 21004KT 10SM CLR 12/06 A3029 740 63 600 210/04 RMK AO2
94908KDBQ DBQ20011103175012711/03/01 17:50:31  5-MIN KDBQ 032350Z 22004KT 10SM CLR 12/06 A3029 740 63 600 210/04 RMK AO2 SLP263 T01220056 10194 20122 56014
94908KDBQ DBQ20011103175512711/03/01 17:55:31  5-MIN KDBQ 032355Z 22004KT 10SM CLR 12/06 A3029 740 63 600 220/04 RMK AO2 SLP263 T01220056 10194 20122 55000
94908KDBQ DBQ20011103180009211/03/01 18:00:31  5-MIN KDBQ 040000Z 22003KT 10SM CLR 12/06 A3029 740 66 600 220/03 RMK AO2
94908KDBQ DBQ20011103180509211/03/01 18:05:31  5-MIN KDBQ 040005Z 22004KT 10SM CLR 12/06 A3028 740 66 600 210/04 RMK AO2
94908KDBQ DBQ20011103181009211/03/01 18:10:31  5-MIN KDBQ 040010Z 21003KT 10SM CLR 11/06 A3028 740 68 500 210/03 RMK AO2
94908KDBQ DBQ20011103181509211/03/01 18:15:31  5-MIN KDBQ 040015Z 21003KT 10SM CLR 12/06 A3028 740 66 600 210/03 RMK AO2
94908KDBQ DBQ20011103182009211/03/01 18:20:31  5-MIN KDBQ 040020Z 22003KT 10SM CLR 11/06 A3028 740 68 500 220/03 RMK AO2
94908KDBQ DBQ20011103182509211/03/01 18:25:31  5-MIN KDBQ 040025Z 22004KT 10SM CLR 11/06 A3028 740 68 500 220/04 RMK AO2
94908KDBQ DBQ20011103183009211/03/01 18:30:31  5-MIN KDBQ 040030Z 23005KT 10SM CLR 11/06 A3029 740 68 500 230/05 RMK AO2
94908KDBQ DBQ20011103183509211/03/01 18:35:31  5-MIN KDBQ 040035Z 23005KT 10SM CLR 11/06 A3029 740 68 500 230/05 RMK AO2
94908KDBQ DBQ20011103184009211/03/01 18:40:31  5-MIN KDBQ 040040Z 23004KT 10SM CLR 11/06 A3029 740 71 400 230/04 RMK AO2
94908KDBQ DBQ20011103184509211/03/01 18:45:31  5-MIN KDBQ 040045Z 23005KT 10SM CLR 10/06 A3029 740 74 400 230/05 RMK AO2
94908KDBQ DBQ20011103185010911/03/01 18:50:31  5-MIN KDBQ 040050Z 23005KT 10SM CLR 10/06 A3029 740 74 400 230/05 RMK AO2 SLP263 T01000056
94908KDBQ DBQ20011103185510911/03/01 18:55:31  5-MIN KDBQ 040055Z 24006KT 10SM CLR 10/05 A3029 740 71 400 240/06 RMK AO2 SLP263 T01000050
94908KDBQ DBQ20011103190009211/03/01 19:00:31  5-MIN KDBQ 040100Z 23006KT 10SM CLR 10/06 A3029 740 74 400 230/06 RMK AO2
94908KDBQ DBQ20011103190509211/03/01 19:05:31  5-MIN KDBQ 040105Z 23006KT 10SM CLR 10/05 A3029 740 71 400 230/06 RMK AO2
94908KDBQ DBQ20011103191009211/03/01 19:10:31  5-MIN KDBQ 040110Z 23006KT 10SM CLR 09/06 A3029 740 76 300 230/06 RMK AO2
94908KDBQ DBQ20011104171009511/04/01 17:10:31  5-MIN KDBQ 042310Z 00000KT 10SM CLR 12/M04 A3034 700 31 600 000/00 RMK AO2 $
94908KDBQ DBQ20011104171509511/04/01 17:15:31  5-MIN KDBQ 042315Z 00000KT 10SM CLR 09/M03 A3034 700 42 200 000/00 RMK AO2 $
94908KDBQ DBQ20011104172009311/04/01 17:20:31  5-MIN KDBQ 042320Z 00000KT 10SM CLR 08/M01 A3034 690 53 0 000/00 RMK AO2 $
94908KDBQ DBQ20011104172509511/04/01 17:25:31  5-MIN KDBQ 042325Z 00000KT 10SM CLR 09/M02 A3034 690 47 200 000/00 RMK AO2 $
94908KDBQ DBQ20011104173009511/04/01 17:30:31  5-MIN KDBQ 042330Z 00000KT 10SM CLR 09/M02 A3034 690 44 200 000/00 RMK AO2 $
94908KDBQ DBQ20011104173509511/04/01 17:35:31  5-MIN KDBQ 042335Z 00000KT 10SM CLR 09/M02 A3034 690 45 200 000/00 RMK AO2 $
94908KDBQ DBQ20011104174009511/04/01 17:40:31  5-MIN KDBQ 042340Z 00000KT 10SM CLR 09/M02 A3035 690 45 200 000/00 RMK AO2 $
94908KDBQ DBQ20011104174509511/04/01 17:45:31  5-MIN KDBQ 042345Z 00000KT 10SM CLR 08/M02 A3035 690 47 100 000/00 RMK AO2 $
94908KDBQ DBQ20011104175012811/04/01 17:50:31  5-MIN KDBQ 042350Z 00000KT 10SM CLR 08/M02 A3035 690 49 0 000/00 RMK AO2 SLP284 T00781022 10156 20078 55002 $
94908KDBQ DBQ20011104175513111/04/01 17:55:31  5-MIN KDBQ 042355Z 00000KT 10SM CLR 07/M02 A3035 690 53 -100 000/00 RMK AO2 SLP285 T00671022 10156 20067 53005 $
94908KDBQ DBQ20011104180008911/04/01 18:00:31  5-MIN KDBQ 050000Z 00000KT 10SM 07/M02 A3035 690 51 0 000/00 RMK AO2 $
94908KDBQ DBQ20011104180509611/04/01 18:05:31  5-MIN KDBQ 050005Z 00000KT 10SM CLR 07/M02 A3034 690 53 -100 000/00 RMK AO2 $
94908KDBQ DBQ20011104181009611/04/01 18:10:31  5-MIN KDBQ 050010Z 00000KT 10SM CLR 06/M01 A3034 690 60 -100 000/00 RMK AO2 $
94908KDBQ DBQ20011104181509611/04/01 18:15:31  5-MIN KDBQ 050015Z 00000KT 10SM CLR 07/M02 A3035 690 55 -100 000/00 RMK AO2 $
94908KDBQ DBQ20011104182009611/04/01 18:20:31  5-MIN KDBQ 050020Z 00000KT 10SM CLR 07/M02 A3035 690 53 -100 000/00 RMK AO2 $
94908KDBQ DBQ20011104182509311/04/01 18:25:31  5-MIN KDBQ 050025Z 00000KT 10SM CLR 07/M02 A3035 690 51 0 000/00 RMK AO2 $
94908KDBQ DBQ20011104183009611/04/01 18:30:31  5-MIN KDBQ 050030Z 00000KT 10SM CLR 06/M02 A3035 680 57 -100 000/00 RMK AO2 $
94908KDBQ DBQ20011104183509611/04/01 18:35:31  5-MIN KDBQ 050035Z 00000KT 10SM CLR 06/M01 A3035 680 62 -200 000/00 RMK AO2 $
94908KDBQ DBQ20011104184009611/04/01 18:40:31  5-MIN KDBQ 050040Z 00000KT 10SM CLR 04/M01 A3035 680 70 -300 000/00 RMK AO2 $
94908KDBQ DBQ20011104184509611/04/01 18:45:31  5-MIN KDBQ 050045Z 00000KT 10SM CLR 04/M01 A3035 680 67 -300 000/00 RMK AO2 $
94908KDBQ DBQ20011104185011311/04/01 18:50:31  5-MIN KDBQ 050050Z 00000KT 10SM CLR 05/M02 A3035 680 62 -300 000/00 RMK AO2 SLP287 T00501017 $
94908KDBQ DBQ20011104185511311/04/01 18:55:31  5-MIN KDBQ 050055Z 00000KT 10SM CLR 05/M02 A3035 690 62 -300 000/00 RMK AO2 SLP287 T00501017 $
94908KDBQ DBQ20011104190009211/04/01 19:00:31  5-MIN KDBQ 050100Z 00000KT 10SM 04/M02 A3035 690 64 -300 000/00 RMK AO2 $
94908KDBQ DBQ20011104190509611/04/01 19:05:31  5-MIN KDBQ 050105Z 00000KT 10SM CLR 05/M02 A3035 690 62 -300 000/00 RMK AO2 $
94908KDBQ DBQ20011104191009611/04/01 19:10:31  5-MIN KDBQ 050110Z 00000KT 10SM CLR 06/M01 A3035 690 62 -200 000/00 RMK AO2 $
94908KDBQ DBQ20011104191509611/04/01 19:15:31  5-MIN KDBQ 050115Z 00000KT 10SM CLR 05/M02 A3035 690 62 -300 000/00 RMK AO2 $
94908KDBQ DBQ20011104192009611/04/01 19:20:31  5-MIN KDBQ 050120Z 00000KT 10SM CLR 05/M02 A3035 680 62 -300 000/00 RMK AO2 $
94908KDBQ DBQ20011104192509611/04/01 19:25:31  5-MIN KDBQ 050125Z 00000KT 10SM CLR 05/M02 A3035 680 62 -300 000/00 RMK AO2 $
94908KDBQ DBQ20011104193009611/04/01 19:30:31  5-MIN KDBQ 050130Z 00000KT 10SM CLR 04/M02 A3035 680 62 -300 000/00 RMK AO2 $
94908KDBQ DBQ20011104193509611/04/01 19:35:31  5-MIN KDBQ 050135Z 00000KT 10SM CLR 06/M02 A3035 690 57 -200 000/00 RMK AO2 $
94908KDBQ DBQ20011104194009611/04/01 19:40:31  5-MIN KDBQ 050140Z 00000KT 10SM CLR 06/M02 A3035 690 57 -200 000/00 RMK AO2 $
94908KDBQ DBQ20011104194509611/04/01 19:45:31  5-MIN KDBQ 050145Z 00000KT 10SM CLR 04/M02 A3035 690 64 -300 000/00 RMK AO2 $
94908KDBQ DBQ20011104195012311/04/01 19:50:31  5-MIN KDBQ 050150Z AUTO 00000KT 10SM CLR 05/M02 A3035 690 59 -300 000/00 RMK AO2 SLP287 T00501022 TSNO $
94908KDBQ DBQ20011104195512311/04/01 19:55:31  5-MIN KDBQ 050155Z AUTO 00000KT 10SM CLR 05/M02 A3035 690 59 -300 000/00 RMK AO2 SLP285 T00501022 TSNO $
94908KDBQ DBQ20011104200010211/04/01 20:00:31  5-MIN KDBQ 050200Z AUTO 00000KT 10SM 06/M03 A3035 690 53 -100 000/00 RMK AO2 TSNO $
94908KDBQ DBQ20011104200510211/04/01 20:05:31  5-MIN KDBQ 050205Z AUTO 00000KT 10SM 06/M03 A3035 690 55 -200 000/00 RMK AO2 TSNO $
94908KDBQ DBQ20011104201010211/04/01 20:10:31  5-MIN KDBQ 050210Z AUTO 00000KT 10SM 05/M03 A3035 680 57 -300 000/00 RMK AO2 TSNO $
94908KDBQ DBQ20011104201510211/04/01 20:15:31  5-MIN KDBQ 050215Z AUTO 00000KT 10SM 07/M03 A3035 680 49 -100 000/00 RMK AO2 TSNO $
94908KDBQ DBQ20011104202010211/04/01 20:20:31  5-MIN KDBQ 050220Z AUTO 00000KT 10SM 05/M03 A3035 680 57 -300 000/00 RMK AO2 TSNO $
94908KDBQ DBQ20011104202510211/04/01 20:25:31  5-MIN KDBQ 050225Z AUTO 00000KT 10SM 06/M03 A3035 680 55 -200 000/00 RMK AO2 TSNO $
94908KDBQ DBQ20011104203010211/04/01 20:30:31  5-MIN KDBQ 050230Z AUTO 00000KT 10SM 04/M03 A3035 680 62 -400 000/00 RMK AO2 TSNO $
94908KDBQ DBQ20011104203510211/04/01 20:35:31  5-MIN KDBQ 050235Z AUTO 00000KT 10SM 04/M03 A3035 680 59 -300 000/00 RMK AO2 TSNO $
94908KDBQ DBQ20011104204010211/04/01 20:40:31  5-MIN KDBQ 050240Z AUTO 00000KT 10SM 03/M02 A3036 680 67 -500 000/00 RMK AO2 TSNO $
94908KDBQ DBQ20011104204510211/04/01 20:45:31  5-MIN KDBQ 050245Z AUTO 00000KT 10SM 04/M03 A3036 680 62 -400 000/00 RMK AO2 TSNO $
94908KDBQ DBQ20011104205012511/04/01 20:50:31  5-MIN KDBQ 050250Z AUTO 00000KT 10SM 04/M03 A3036 680 59 -300 000/00 RMK AO2 SLP285 T00441028 53005 TSNO $
94908KDBQ DBQ20011104205512511/04/01 20:55:31  5-MIN KDBQ 050255Z AUTO 00000KT 10SM 05/M03 A3036 680 55 -300 000/00 RMK AO2 SLP285 T00501033 53003 TSNO $
94908KDBQ DBQ20011104210010211/04/01 21:00:31  5-MIN KDBQ 050300Z AUTO 00000KT 10SM 06/M03 A3036 680 53 -200 000/00 RMK AO2 TSNO $
94908KDBQ DBQ20011104210510211/04/01 21:05:31  5-MIN KDBQ 050305Z AUTO 00000KT 10SM 05/M03 A3036 670 55 -300 000/00 RMK AO2 TSNO $
94908KDBQ DBQ20011104211010211/04/01 21:10:31  5-MIN KDBQ 050310Z AUTO 00000KT 10SM 06/M03 A3036 670 55 -200 000/00 RMK AO2 TSNO $
94908KDBQ DBQ20011104211510211/04/01 21:15:31  5-MIN KDBQ 050315Z AUTO 00000KT 10SM 06/M03 A3036 670 55 -200 000/00 RMK AO2 TSNO $
94908KDBQ DBQ20011104212010211/04/01 21:20:31  5-MIN KDBQ 050320Z AUTO 00000KT 10SM 06/M03 A3036 670 53 -200 000/00 RMK AO2 TSNO $
94908KDBQ DBQ20011104212510211/04/01 21:25:31  5-MIN KDBQ 050325Z AUTO 00000KT 10SM 05/M03 A3036 670 55 -300 000/00 RMK AO2 TSNO $
94908KDBQ DBQ20011104213010211/04/01 21:30:31  5-MIN KDBQ 050330Z AUTO 00000KT 10SM 04/M03 A3036 680 62 -400 000/00 RMK AO2 TSNO $
94908KDBQ DBQ20011104213510211/04/01 21:35:31  5-MIN KDBQ 050335Z AUTO 00000KT 10SM 04/M03 A3036 680 62 -400 000/00 RMK AO2 TSNO $
94908KDBQ DBQ20011104214010211/04/01 21:40:31  5-MIN KDBQ 050340Z AUTO 00000KT 10SM 04/M03 A3036 680 59 -300 000/00 RMK AO2 TSNO $
94908KDBQ DBQ20011104214510211/04/01 21:45:31  5-MIN KDBQ 050345Z AUTO 00000KT 10SM 04/M03 A3036 680 57 -300 000/00 RMK AO2 TSNO $
94908KDBQ DBQ20011104215011911/04/01 21:50:31  5-MIN KDBQ 050350Z AUTO 00000KT 10SM 05/M03 A3036 680 55 -300 000/00 RMK AO2 SLP286 T00501033 TSNO $
94908KDBQ DBQ20011104215511911/04/01 21:55:31  5-MIN KDBQ 050355Z AUTO 00000KT 10SM 05/M03 A3036 680 55 -300 000/00 RMK AO2 SLP286 T00501033 TSNO $
94908KDBQ DBQ20011104220010211/04/01 22:00:31  5-MIN KDBQ 050400Z AUTO 00000KT 10SM 05/M03 A3036 680 55 -300 000/00 RMK AO2 TSNO $
94908KDBQ DBQ20011104220510211/04/01 22:05:31  5-MIN KDBQ 050405Z AUTO 00000KT 10SM 05/M03 A3036 680 55 -300 000/00 RMK AO2 TSNO $
94908KDBQ DBQ20011104221010211/04/01 22:10:31  5-MIN KDBQ 050410Z AUTO 00000KT 10SM 05/M03 A3036 680 55 -300 000/00 RMK AO2 TSNO $
94908KDBQ DBQ20011104221510211/04/01 22:15:31  5-MIN KDBQ 050415Z AUTO 05004KT 10SM 06/M03 A3036 680 53 -200 050/04 RMK AO2 TSNO $
94908KDBQ DBQ20011104222010211/04/01 22:20:31  5-MIN KDBQ 050420Z AUTO 04004KT 10SM 04/M03 A3036 680 57 -300 040/04 RMK AO2 TSNO $
94908KDBQ DBQ20011104222510211/04/01 22:25:31  5-MIN KDBQ 050425Z AUTO 04003KT 10SM 04/M03 A3036 680 62 -400 040/03 RMK AO2 TSNO $
94908KDBQ DBQ20011104223010211/04/01 22:30:31  5-MIN KDBQ 050430Z AUTO 05003KT 10SM 04/M03 A3036 680 62 -400 050/03 RMK AO2 TSNO $
94908KDBQ DBQ20011104223510211/04/01 22:35:31  5-MIN KDBQ 050435Z AUTO 06003KT 10SM 04/M03 A3036 680 62 -400 060/03 RMK AO2 TSNO $
94908KDBQ DBQ20011104224010211/04/01 22:40:31  5-MIN KDBQ 050440Z AUTO 00000KT 10SM 04/M03 A3036 670 59 -400 000/00 RMK AO2 TSNO $
94908KDBQ DBQ20011104224510211/04/01 22:45:31  5-MIN KDBQ 050445Z AUTO 00000KT 10SM 05/M03 A3036 680 55 -300 000/00 RMK AO2 TSNO $
94908KDBQ DBQ20011104225011911/04/01 22:50:31  5-MIN KDBQ 050450Z AUTO 00000KT 10SM 06/M03 A3036 680 53 -200 000/00 RMK AO2 SLP284 T00561033 TSNO $
94908KDBQ DBQ20011104225511911/04/01 22:55:31  5-MIN KDBQ 050455Z AUTO 00000KT 10SM 05/M03 A3036 680 55 -300 000/00 RMK AO2 SLP284 T00501033 TSNO $
94908KDBQ DBQ20011104230010211/04/01 23:00:31  5-MIN KDBQ 050500Z AUTO 10003KT 10SM 04/M03 A3036 680 57 -300 100/03 RMK AO2 TSNO $
94908KDBQ DBQ20011104230510211/04/01 23:05:31  5-MIN KDBQ 050505Z AUTO 10003KT 10SM 05/M03 A3036 680 55 -300 100/03 RMK AO2 TSNO $
94908KDBQ DBQ20011104231010211/04/01 23:10:31  5-MIN KDBQ 050510Z AUTO 09003KT 10SM 06/M04 A3036 680 48 -100 090/03 RMK AO2 TSNO $
94908KDBQ DBQ20011104231509911/04/01 23:15:31  5-MIN KDBQ 050515Z AUTO 10003KT 10SM 07/M04 A3036 670 45 0 100/03 RMK AO2 TSNO $
94908KDBQ DBQ20011104232010211/04/01 23:20:31  5-MIN KDBQ 050520Z AUTO 12003KT 10SM 07/M04 A3036 670 47 -100 120/03 RMK AO2 TSNO $
94908KDBQ DBQ20011104232510211/04/01 23:25:31  5-MIN KDBQ 050525Z AUTO 12003KT 10SM 06/M04 A3036 670 48 -100 120/03 RMK AO2 TSNO $
94908KDBQ DBQ20011104233010211/04/01 23:30:31  5-MIN KDBQ 050530Z AUTO 12003KT 10SM 06/M04 A3036 670 48 -100 120/03 RMK AO2 TSNO $
94908KDBQ DBQ20011104233510211/04/01 23:35:31  5-MIN KDBQ 050535Z AUTO VRB03KT 10SM 06/M04 A3036 670 50 -200 VRB/03 RMK AO2 TSNO $
94908KDBQ DBQ20011104234010211/04/01 23:40:31  5-MIN KDBQ 050540Z AUTO 00000KT 10SM 06/M04 A3036 680 50 -200 000/00 RMK AO2 TSNO $
94908KDBQ DBQ20011104234510211/04/01 23:45:31  5-MIN KDBQ 050545Z AUTO 12003KT 10SM 06/M03 A3036 680 53 -200 120/03 RMK AO2 TSNO $
94908KDBQ DBQ20011104235014711/04/01 23:50:31  5-MIN KDBQ 050550Z AUTO 00000KT 10SM 06/M03 A3036 680 53 -200 000/00 RMK AO2 SLP283 T00561033 10072 20033 401560011 53003 TSNO $
94908KDBQ DBQ20011104235514711/04/01 23:55:31  5-MIN KDBQ 050555Z AUTO 00000KT 10SM 05/M03 A3036 680 55 -300 000/00 RMK AO2 SLP284 T00501033 10072 20033 401560011 54000 TSNO $
94908KDBQ DBQ20011105000010211/05/01 00:00:31  5-MIN KDBQ 050600Z AUTO 00000KT 10SM 04/M03 A3035 680 57 -300 000/00 RMK AO2 TSNO $
94908KDBQ DBQ20011105000510211/05/01 00:05:31  5-MIN KDBQ 050605Z AUTO 11003KT 10SM 05/M03 A3035 680 55 -300 110/03 RMK AO2 TSNO $
94908KDBQ DBQ20011105001010211/05/01 00:10:31  5-MIN KDBQ 050610Z AUTO 00000KT 10SM 05/M03 A3035 680 55 -300 000/00 RMK AO2 TSNO $
94908KDBQ DBQ20011105001510211/05/01 00:15:31  5-MIN KDBQ 050615Z AUTO 00000KT 10SM 05/M03 A3035 680 55 -300 000/00 RMK AO2 TSNO $
94908KDBQ DBQ20011105002010211/05/01 00:20:31  5-MIN KDBQ 050620Z AUTO 00000KT 10SM 04/M04 A3034 690 55 -300 000/00 RMK AO2 TSNO $
94908KDBQ DBQ20011105002510211/05/01 00:25:31  5-MIN KDBQ 050625Z AUTO 14003KT 10SM 05/M04 A3034 690 52 -300 140/03 RMK AO2 TSNO $
94908KDBQ DBQ20011105003010211/05/01 00:30:31  5-MIN KDBQ 050630Z AUTO 00000KT 10SM 06/M04 A3034 690 50 -200 000/00 RMK AO2 TSNO $
94908KDBQ DBQ20011105003510211/05/01 00:35:31  5-MIN KDBQ 050635Z AUTO 16003KT 10SM 06/M04 A3034 690 46 -100 150/03 RMK AO2 TSNO $
94908KDBQ DBQ20011105004010211/05/01 00:40:31  5-MIN KDBQ 050640Z AUTO 00000KT 10SM 06/M04 A3034 690 48 -200 000/00 RMK AO2 TSNO $
94908KDBQ DBQ20011105004510211/05/01 00:45:31  5-MIN KDBQ 050645Z AUTO 00000KT 10SM 06/M04 A3034 690 48 -200 000/00 RMK AO2 TSNO $
94908KDBQ DBQ20011105005011911/05/01 00:50:31  5-MIN KDBQ 050650Z AUTO 00000KT 10SM 06/M04 A3034 690 48 -200 000/00 RMK AO2 SLP278 T00561044 TSNO $
94908KDBQ DBQ20011105005511911/05/01 00:55:31  5-MIN KDBQ 050655Z AUTO 00000KT 10SM 05/M04 A3034 690 50 -300 000/00 RMK AO2 SLP278 T00501044 TSNO $
94908KDBQ DBQ20011105010010211/05/01 01:00:31  5-MIN KDBQ 050700Z AUTO 00000KT 10SM 06/M04 A3034 690 48 -200 000/00 RMK AO2 TSNO $
94908KDBQ DBQ20011105010510211/05/01 01:05:31  5-MIN KDBQ 050705Z AUTO 21003KT 10SM 04/M04 A3034 690 52 -300 210/03 RMK AO2 TSNO $
94908KDBQ DBQ20011105011010211/05/01 01:10:31  5-MIN KDBQ 050710Z AUTO 20003KT 10SM 04/M04 A3034 700 52 -300 200/03 RMK AO2 TSNO $
94908KDBQ DBQ20011105011510211/05/01 01:15:31  5-MIN KDBQ 050715Z AUTO 20003KT 10SM 05/M04 A3034 700 50 -300 200/03 RMK AO2 TSNO $
94908KDBQ DBQ20011105012010211/05/01 01:20:31  5-MIN KDBQ 050720Z AUTO 00000KT 10SM 05/M04 A3034 700 50 -300 000/00 RMK AO2 TSNO $
94908KDBQ DBQ20011105012510211/05/01 01:25:31  5-MIN KDBQ 050725Z AUTO 20003KT 10SM 05/M04 A3033 700 50 -300 200/03 RMK AO2 TSNO $
94908KDBQ DBQ20011105013010211/05/01 01:30:31  5-MIN KDBQ 050730Z AUTO 00000KT 10SM 05/M04 A3033 700 50 -300 000/00 RMK AO2 TSNO $
94908KDBQ DBQ20011105013510211/05/01 01:35:31  5-MIN KDBQ 050735Z AUTO 00000KT 10SM 04/M04 A3034 700 52 -300 000/00 RMK AO2 TSNO $
94908KDBQ DBQ20011105014010211/05/01 01:40:31  5-MIN KDBQ 050740Z AUTO 00000KT 10SM 04/M04 A3034 700 54 -400 000/00 RMK AO2 TSNO $
94908KDBQ DBQ20011105014510211/05/01 01:45:31  5-MIN KDBQ 050745Z AUTO 00000KT 10SM 04/M05 A3033 700 50 -300 000/00 RMK AO2 TSNO $
94908KDBQ DBQ20011105015011911/05/01 01:50:31  5-MIN KDBQ 050750Z AUTO 00000KT 10SM 04/M05 A3033 700 50 -300 000/00 RMK AO2 SLP277 T00441050 TSNO $
94908KDBQ DBQ20011105015511911/05/01 01:55:31  5-MIN KDBQ 050755Z AUTO 00000KT 10SM 04/M05 A3033 700 50 -300 000/00 RMK AO2 SLP277 T00441050 TSNO $
94908KDBQ DBQ20011105020010211/05/01 02:00:31  5-MIN KDBQ 050800Z AUTO 00000KT 10SM 04/M05 A3033 700 50 -300 000/00 RMK AO2 TSNO $
94908KDBQ DBQ20011105020510211/05/01 02:05:31  5-MIN KDBQ 050805Z AUTO 00000KT 10SM 04/M05 A3033 700 50 -300 000/00 RMK AO2 TSNO $
94908KDBQ DBQ20011105021010211/05/01 02:10:31  5-MIN KDBQ 050810Z AUTO 00000KT 10SM 04/M05 A3033 700 50 -300 000/00 RMK AO2 TSNO $
94908KDBQ DBQ20011105021510211/05/01 02:15:31  5-MIN KDBQ 050815Z AUTO 00000KT 10SM 04/M04 A3033 700 52 -300 000/00 RMK AO2 TSNO $
94908KDBQ DBQ20011105022010211/05/01 02:20:31  5-MIN KDBQ 050820Z AUTO 00000KT 10SM 04/M04 A3033 700 54 -400 000/00 RMK AO2 TSNO $
94908KDBQ DBQ20011105022510211/05/01 02:25:31  5-MIN KDBQ 050825Z AUTO 00000KT 10SM 04/M04 A3033 700 54 -400 000/00 RMK AO2 TSNO $
94908KDBQ DBQ20011105023010211/05/01 02:30:31  5-MIN KDBQ 050830Z AUTO 00000KT 10SM 04/M04 A3033 700 54 -400 000/00 RMK AO2 TSNO $
94908KDBQ DBQ20011105023510211/05/01 02:35:31  5-MIN KDBQ 050835Z AUTO 00000KT 10SM 04/M04 A3033 700 54 -400 000/00 RMK AO2 TSNO $
94908KDBQ DBQ20011105024010211/05/01 02:40:31  5-MIN KDBQ 050840Z AUTO 00000KT 10SM 04/M04 A3033 700 54 -400 000/00 RMK AO2 TSNO $
94908KDBQ DBQ20011105024510211/05/01 02:45:31  5-MIN KDBQ 050845Z AUTO 00000KT 10SM 03/M04 A3034 700 57 -500 000/00 RMK AO2 TSNO $
94908KDBQ DBQ20011105025012511/05/01 02:50:31  5-MIN KDBQ 050850Z AUTO 00000KT 10SM 03/M04 A3034 690 57 -500 000/00 RMK AO2 SLP278 T00331044 54000 TSNO $
94908KDBQ DBQ20011105025512511/05/01 02:55:31  5-MIN KDBQ 050855Z AUTO 00000KT 10SM 04/M04 A3034 690 54 -400 000/00 RMK AO2 SLP279 T00391044 55005 TSNO $
94908KDBQ DBQ20011105030010211/05/01 03:00:31  5-MIN KDBQ 050900Z AUTO 00000KT 10SM 04/M04 A3034 690 52 -300 000/00 RMK AO2 TSNO $
94908KDBQ DBQ20011105030510211/05/01 03:05:31  5-MIN KDBQ 050905Z AUTO 00000KT 10SM 04/M04 A3034 690 54 -400 000/00 RMK AO2 TSNO $
94908KDBQ DBQ20011105031010211/05/01 03:10:31  5-MIN KDBQ 050910Z AUTO 00000KT 10SM 04/M04 A3034 690 52 -300 000/00 RMK AO2 TSNO $
94908KDBQ DBQ20011105031510211/05/01 03:15:31  5-MIN KDBQ 050915Z AUTO 00000KT 10SM 04/M04 A3034 690 54 -400 000/00 RMK AO2 TSNO $
94908KDBQ DBQ20011105032010211/05/01 03:20:31  5-MIN KDBQ 050920Z AUTO 00000KT 10SM 04/M04 A3034 690 54 -400 000/00 RMK AO2 TSNO $
94908KDBQ DBQ20011105032510211/05/01 03:25:31  5-MIN KDBQ 050925Z AUTO 00000KT 10SM 04/M04 A3034 690 54 -400 000/00 RMK AO2 TSNO $
94908KDBQ DBQ20011105033010211/05/01 03:30:31  5-MIN KDBQ 050930Z AUTO 00000KT 10SM 04/M04 A3034 690 54 -400 000/00 RMK AO2 TSNO $
94908KDBQ DBQ20011105033510211/05/01 03:35:31  5-MIN KDBQ 050935Z AUTO 18003KT 10SM 04/M04 A3034 690 55 -300 180/03 RMK AO2 TSNO $
94908KDBQ DBQ20011105034010211/05/01 03:40:31  5-MIN KDBQ 050940Z AUTO 17003KT 10SM 04/M04 A3034 690 55 -300 170/03 RMK AO2 TSNO $
94908KDBQ DBQ20011105034510211/05/01 03:45:31  5-MIN KDBQ 050945Z AUTO 18003KT 10SM 04/M04 A3034 690 57 -400 180/03 RMK AO2 TSNO $
94908KDBQ DBQ20011105035011911/05/01 03:50:31  5-MIN KDBQ 050950Z AUTO 18003KT 10SM 04/M04 A3034 690 57 -400 180/03 RMK AO2 SLP279 T00391039 TSNO $
94908KDBQ DBQ20011105035511911/05/01 03:55:31  5-MIN KDBQ 050955Z AUTO 18003KT 10SM 04/M03 A3034 690 57 -300 180/03 RMK AO2 SLP279 T00441033 TSNO $
94908KDBQ DBQ20011105040010211/05/01 04:00:31  5-MIN KDBQ 051000Z AUTO 18003KT 10SM 04/M03 A3034 690 59 -400 180/03 RMK AO2 TSNO $
94908KDBQ DBQ20011105040510211/05/01 04:05:31  5-MIN KDBQ 051005Z AUTO 17004KT 10SM 03/M03 A3034 690 61 -500 170/04 RMK AO2 TSNO $
94908KDBQ DBQ20011105041010211/05/01 04:10:31  5-MIN KDBQ 051010Z AUTO 17005KT 10SM 03/M03 A3034 690 61 -500 170/05 RMK AO2 TSNO $
94908KDBQ DBQ20011105041510211/05/01 04:15:31  5-MIN KDBQ 051015Z AUTO 17005KT 10SM 03/M03 A3034 690 64 -500 170/05 RMK AO2 TSNO $
94908KDBQ DBQ20011105042010211/05/01 04:20:31  5-MIN KDBQ 051020Z AUTO 18005KT 10SM 03/M03 A3034 690 64 -500 180/05 RMK AO2 TSNO $
94908KDBQ DBQ20011105042510211/05/01 04:25:31  5-MIN KDBQ 051025Z AUTO 19004KT 10SM 03/M02 A3035 690 67 -500 190/04 RMK AO2 TSNO $
94908KDBQ DBQ20011105043010211/05/01 04:30:31  5-MIN KDBQ 051030Z AUTO 18006KT 10SM 04/M02 A3035 690 64 -400 180/06 RMK AO2 TSNO $
94908KDBQ DBQ20011105043510211/05/01 04:35:31  5-MIN KDBQ 051035Z AUTO 18005KT 10SM 04/M02 A3035 690 64 -400 180/05 RMK AO2 TSNO $
94908KDBQ DBQ20011105044010211/05/01 04:40:31  5-MIN KDBQ 051040Z AUTO 19006KT 10SM 04/M02 A3035 690 64 -400 190/06 RMK AO2 TSNO $
94908KDBQ DBQ20011105044510211/05/01 04:45:31  5-MIN KDBQ 051045Z AUTO 19007KT 10SM 04/M02 A3035 690 64 -400 190/07 RMK AO2 TSNO $
94908KDBQ DBQ20011105045011911/05/01 04:50:31  5-MIN KDBQ 051050Z AUTO 18006KT 10SM 04/M02 A3035 690 62 -300 180/06 RMK AO2 SLP283 T00441022 TSNO $
94908KDBQ DBQ20011105045511911/05/01 04:55:31  5-MIN KDBQ 051055Z AUTO 18006KT 10SM 04/M02 A3035 690 64 -400 180/06 RMK AO2 SLP282 T00391022 TSNO $
94908KDBQ DBQ20011105050010211/05/01 05:00:31  5-MIN KDBQ 051100Z AUTO 17005KT 10SM 03/M02 A3035 690 67 -500 170/05 RMK AO2 TSNO $
94908KDBQ DBQ20011105050510211/05/01 05:05:31  5-MIN KDBQ 051105Z AUTO 17006KT 10SM 03/M02 A3035 680 67 -500 170/06 RMK AO2 TSNO $
94908KDBQ DBQ20011105051010211/05/01 05:10:31  5-MIN KDBQ 051110Z AUTO 18006KT 10SM 03/M02 A3035 690 70 -500 180/06 RMK AO2 TSNO $
94908KDBQ DBQ20011105051510211/05/01 05:15:31  5-MIN KDBQ 051115Z AUTO 19006KT 10SM 03/M02 A3035 690 70 -500 180/06 RMK AO2 TSNO $
94908KDBQ DBQ20011105052010211/05/01 05:20:31  5-MIN KDBQ 051120Z AUTO 19005KT 10SM 03/M02 A3035 690 70 -500 190/05 RMK AO2 TSNO $
94908KDBQ DBQ20011105052510211/05/01 05:25:31  5-MIN KDBQ 051125Z AUTO 19005KT 10SM 03/M02 A3035 690 70 -500 190/05 RMK AO2 TSNO $
94908KDBQ DBQ20011105053010211/05/01 05:30:31  5-MIN KDBQ 051130Z AUTO 19006KT 10SM 03/M02 A3035 690 70 -500 190/06 RMK AO2 TSNO $
94908KDBQ DBQ20011105053510211/05/01 05:35:31  5-MIN KDBQ 051135Z AUTO 19006KT 10SM 03/M02 A3035 690 70 -500 190/06 RMK AO2 TSNO $
94908KDBQ DBQ20011105054010211/05/01 05:40:31  5-MIN KDBQ 051140Z AUTO 19006KT 10SM 03/M02 A3035 690 70 -500 190/06 RMK AO2 TSNO $
94908KDBQ DBQ20011105054510211/05/01 05:45:31  5-MIN KDBQ 051145Z AUTO 18007KT 10SM 04/M02 A3035 690 67 -400 180/07 RMK AO2 TSNO $
94908KDBQ DBQ20011105055012711/05/01 05:50:31  5-MIN KDBQ 051150Z 18007KT 10SM 03/M02 A3035 690 70 -500 170/07 RMK AO2 SLP284 T00331017 10061 20028 55005 $
94908KDBQ DBQ20011105055513111/05/01 05:55:31  5-MIN KDBQ 051155Z 18006KT 10SM CLR 03/M02 A3035 690 72 -500 180/06 RMK AO2 SLP285 T00281017 10061 20028 51002 $
94908KDBQ DBQ20011105060009611/05/01 06:00:31  5-MIN KDBQ 051200Z 19005KT 10SM CLR 02/M02 A3034 690 75 -700 180/05 RMK AO2 $
94908KDBQ DBQ20011105060509611/05/01 06:05:31  5-MIN KDBQ 051205Z 19004KT 10SM CLR 02/M02 A3035 690 75 -700 190/04 RMK AO2 $
94908KDBQ DBQ20011105061009611/05/01 06:10:31  5-MIN KDBQ 051210Z 19004KT 10SM CLR 02/M02 A3034 690 72 -600 190/04 RMK AO2 $
94908KDBQ DBQ20011105061509611/05/01 06:15:31  5-MIN KDBQ 051215Z 19005KT 10SM CLR 02/M02 A3034 690 72 -600 190/05 RMK AO2 $
94908KDBQ DBQ20011105062009611/05/01 06:20:31  5-MIN KDBQ 051220Z 18005KT 10SM CLR 02/M02 A3034 690 75 -700 180/05 RMK AO2 $
94908KDBQ DBQ20011105062509611/05/01 06:25:31  5-MIN KDBQ 051225Z 19003KT 10SM CLR 02/M02 A3034 690 75 -700 190/03 RMK AO2 $
94908KDBQ DBQ20011105063009611/05/01 06:30:31  5-MIN KDBQ 051230Z 18005KT 10SM CLR 02/M02 A3034 690 75 -700 180/05 RMK AO2 $
94908KDBQ DBQ20011105063509611/05/01 06:35:31  5-MIN KDBQ 051235Z 18005KT 10SM CLR 02/M02 A3034 690 72 -600 180/05 RMK AO2 $
94908KDBQ DBQ20011105064009611/05/01 06:40:31  5-MIN KDBQ 051240Z 18005KT 10SM CLR 02/M02 A3034 690 75 -700 180/05 RMK AO2 $
94908KDBQ DBQ20011105064509611/05/01 06:45:31  5-MIN KDBQ 051245Z 18007KT 10SM CLR 01/M02 A3034 690 82 -800 180/07 RMK AO2 $
94908KDBQ DBQ20011105065011311/05/01 06:50:31  5-MIN KDBQ 051250Z 19004KT 10SM CLR 01/M02 A3034 690 82 -800 190/04 RMK AO2 SLP285 T00061022 $
94908KDBQ DBQ20011105065511311/05/01 06:55:31  5-MIN KDBQ 051255Z 19006KT 10SM CLR 01/M02 A3034 690 78 -700 190/06 RMK AO2 SLP285 T00111022 $
94908KDBQ DBQ20011105070009611/05/01 07:00:31  5-MIN KDBQ 051300Z 19006KT 10SM CLR 01/M02 A3034 690 78 -700 190/06 RMK AO2 $
94908KDBQ DBQ20011105070509611/05/01 07:05:31  5-MIN KDBQ 051305Z 19006KT 10SM CLR 01/M02 A3035 690 78 -700 190/06 RMK AO2 $
94908KDBQ DBQ20011105071009611/05/01 07:10:31  5-MIN KDBQ 051310Z 19006KT 10SM CLR 01/M02 A3035 680 82 -800 190/06 RMK AO2 $
94908KDBQ DBQ20011105071509611/05/01 07:15:31  5-MIN KDBQ 051315Z 19007KT 10SM CLR 02/M01 A3035 680 82 -700 190/07 RMK AO2 $
94908KDBQ DBQ20011105072009611/05/01 07:20:31  5-MIN KDBQ 051320Z 18007KT 10SM CLR 02/M01 A3035 680 82 -700 180/07 RMK AO2 $
94908KDBQ DBQ20011105072509411/05/01 07:25:31  5-MIN KDBQ 051325Z 18008KT 10SM CLR 02/M01 A3035 680 78 -600 180/08 RMK AO2
94908KDBQ DBQ20011105073009411/05/01 07:30:31  5-MIN KDBQ 051330Z 18008KT 10SM CLR 03/M01 A3035 680 72 -500 180/08 RMK AO2
94908KDBQ DBQ20011105073509411/05/01 07:35:31  5-MIN KDBQ 051335Z 18009KT 10SM CLR 03/M01 A3035 680 72 -500 180/09 RMK AO2
94908KDBQ DBQ20011105074009411/05/01 07:40:31  5-MIN KDBQ 051340Z 18009KT 10SM CLR 04/M01 A3035 680 70 -400 180/09 RMK AO2
94908KDBQ DBQ20011105074509411/05/01 07:45:31  5-MIN KDBQ 051345Z 18009KT 10SM CLR 04/M01 A3036 680 73 -400 180/09 RMK AO2
94908KDBQ DBQ20011105075011111/05/01 07:50:31  5-MIN KDBQ 051350Z 18009KT 10SM CLR 04/M01 A3035 680 70 -300 180/09 RMK AO2 SLP287 T00441006
94908KDBQ DBQ20011105075511011/05/01 07:55:31  5-MIN KDBQ 051355Z 18008KT 10SM CLR 04/00 A3035 680 73 -300 180/08 RMK AO2 SLP287 T00440000
94908KDBQ DBQ20011105080009311/05/01 08:00:31  5-MIN KDBQ 051400Z 18008KT 10SM CLR 05/00 A3035 680 70 -300 180/08 RMK AO2
94908KDBQ DBQ20011105080509311/05/01 08:05:31  5-MIN KDBQ 051405Z 19009KT 10SM CLR 06/00 A3035 680 67 -200 190/09 RMK AO2
94908KDBQ DBQ20011105081009311/05/01 08:10:31  5-MIN KDBQ 051410Z 19010KT 10SM CLR 06/00 A3035 680 67 -200 190/10 RMK AO2
94908KDBQ DBQ20011105081509311/05/01 08:15:31  5-MIN KDBQ 051415Z 19010KT 10SM CLR 06/00 A3035 680 67 -200 190/10 RMK AO2
94908KDBQ DBQ20011105082009311/05/01 08:20:31  5-MIN KDBQ 051420Z 19010KT 10SM CLR 06/00 A3035 680 65 -100 190/10 RMK AO2
94908KDBQ DBQ20011105082509311/05/01 08:25:31  5-MIN KDBQ 051425Z 19009KT 10SM CLR 06/01 A3035 680 67 -100 190/09 RMK AO2
94908KDBQ DBQ20011105083009311/05/01 08:30:31  5-MIN KDBQ 051430Z 19010KT 10SM CLR 07/00 A3035 680 62 -100 190/10 RMK AO2
94908KDBQ DBQ20011105083509011/05/01 08:35:31  5-MIN KDBQ 051435Z 19010KT 10SM CLR 07/00 A3035 680 60 0 180/10 RMK AO2
94908KDBQ DBQ20011105084009111/05/01 08:40:31  5-MIN KDBQ 051440Z 18012KT 10SM CLR 07/M01 A3035 680 57 0 180/12 RMK AO2
94908KDBQ DBQ20011105084509111/05/01 08:45:31  5-MIN KDBQ 051445Z 18012KT 10SM CLR 08/M01 A3035 680 55 0 180/12 RMK AO2
94908KDBQ DBQ20011105085011411/05/01 08:50:31  5-MIN KDBQ 051450Z 18014KT 10SM CLR 08/M01 A3035 680 53 0 180/14 RMK AO2 SLP286 T00781011 51002
94908KDBQ DBQ20011105085511411/05/01 08:55:31  5-MIN KDBQ 051455Z 18012KT 10SM CLR 08/M01 A3035 680 53 0 180/12 RMK AO2 SLP285 T00781011 53001
94908KDBQ DBQ20011105090008711/05/01 09:00:31  5-MIN KDBQ 051500Z 18014KT 10SM 08/M02 A3035 690 51 0 180/14 RMK AO2
94908KDBQ DBQ20011105090508911/05/01 09:05:31  5-MIN KDBQ 051505Z 18013KT 10SM 08/M02 A3035 690 49 100 180/13 RMK AO2
94908KDBQ DBQ20011105091009311/05/01 09:10:31  5-MIN KDBQ 051510Z 18011KT 10SM CLR 08/M02 A3035 680 49 100 180/11 RMK AO2
94908KDBQ DBQ20011105091509311/05/01 09:15:31  5-MIN KDBQ 051515Z 18015KT 10SM CLR 08/M02 A3035 690 49 100 180/15 RMK AO2
94908KDBQ DBQ20011105092009311/05/01 09:20:31  5-MIN KDBQ 051520Z 18014KT 10SM CLR 09/M02 A3035 680 47 200 180/14 RMK AO2
94908KDBQ DBQ20011105092509311/05/01 09:25:31  5-MIN KDBQ 051525Z 18013KT 10SM CLR 09/M02 A3035 680 45 200 180/13 RMK AO2
94908KDBQ DBQ20011105093009311/05/01 09:30:31  5-MIN KDBQ 051530Z 19013KT 10SM CLR 09/M02 A3035 680 47 200 180/13 RMK AO2
94908KDBQ DBQ20011105093509311/05/01 09:35:31  5-MIN KDBQ 051535Z 18013KT 10SM CLR 09/M02 A3035 680 47 200 180/13 RMK AO2
94908KDBQ DBQ20011105094009311/05/01 09:40:31  5-MIN KDBQ 051540Z 18014KT 10SM CLR 09/M02 A3035 680 45 200 180/14 RMK AO2
94908KDBQ DBQ20011105094509311/05/01 09:45:31  5-MIN KDBQ 051545Z 19015KT 10SM CLR 09/M02 A3035 690 45 200 190/15 RMK AO2
94908KDBQ DBQ20011105095011011/05/01 09:50:31  5-MIN KDBQ 051550Z 18014KT 10SM CLR 10/M02 A3034 690 44 300 180/14 RMK AO2 SLP282 T01001017
94908KDBQ DBQ20011105095511011/05/01 09:55:31  5-MIN KDBQ 051555Z 19015KT 10SM CLR 10/M02 A3035 690 44 300 190/15 RMK AO2 SLP283 T01001017
94908KDBQ DBQ20011105100009311/05/01 10:00:31  5-MIN KDBQ 051600Z 19013KT 10SM CLR 10/M02 A3034 690 44 300 190/13 RMK AO2
94908KDBQ DBQ20011105100509311/05/01 10:05:31  5-MIN KDBQ 051605Z 18013KT 10SM CLR 10/M01 A3034 690 46 300 180/13 RMK AO2
94908KDBQ DBQ20011105101009311/05/01 10:10:31  5-MIN KDBQ 051610Z 19013KT 10SM CLR 11/M01 A3034 690 44 400 190/13 RMK AO2
94908KDBQ DBQ20011105101509311/05/01 10:15:31  5-MIN KDBQ 051615Z 19012KT 10SM CLR 11/M01 A3034 690 46 400 190/12 RMK AO2
94908KDBQ DBQ20011105102009311/05/01 10:20:31  5-MIN KDBQ 051620Z 18014KT 10SM CLR 11/M01 A3034 690 44 400 180/14 RMK AO2
94908KDBQ DBQ20011105102509311/05/01 10:25:31  5-MIN KDBQ 051625Z 19013KT 10SM CLR 11/M01 A3034 690 44 400 190/13 RMK AO2
94908KDBQ DBQ20011105103009311/05/01 10:30:31  5-MIN KDBQ 051630Z 18014KT 10SM CLR 11/M01 A3034 690 44 400 180/14 RMK AO2
94908KDBQ DBQ20011105103509311/05/01 10:35:31  5-MIN KDBQ 051635Z 19014KT 10SM CLR 11/M01 A3034 700 42 400 180/14 RMK AO2
94908KDBQ DBQ20011105104009311/05/01 10:40:31  5-MIN KDBQ 051640Z 19013KT 10SM CLR 11/M01 A3033 700 44 400 190/13 RMK AO2
94908KDBQ DBQ20011105104509311/05/01 10:45:31  5-MIN KDBQ 051645Z 19013KT 10SM CLR 11/M01 A3033 700 44 400 190/13 RMK AO2
94908KDBQ DBQ20011105105011011/05/01 10:50:31  5-MIN KDBQ 051650Z 18012KT 10SM CLR 12/M01 A3033 700 42 500 180/12 RMK AO2 SLP277 T01171006
94908KDBQ DBQ20011105105511211/05/01 10:55:31  5-MIN KDBQ 051655Z 19014KT 10SM CLR 12/M01 A3033 700 42 500 190/14 RMK AO2 SLP275 T01171006 $
94908KDBQ DBQ20011105110009111/05/01 11:00:31  5-MIN KDBQ 051700Z 19015KT 10SM 12/M01 A3032 710 41 600 190/15 RMK AO2 $
94908KDBQ DBQ20011105110509511/05/01 11:05:31  5-MIN KDBQ 051705Z 20013KT 10SM CLR 12/M01 A3032 710 41 600 200/13 RMK AO2 $
94908KDBQ DBQ20011105111009411/05/01 11:10:31  5-MIN KDBQ 051710Z 20013KT 10SM CLR 12/00 A3032 710 43 600 200/13 RMK AO2 $
94908KDBQ DBQ20011105111509511/05/01 11:15:31  5-MIN KDBQ 051715Z 20014KT 10SM CLR 12/M01 A3031 720 41 600 200/14 RMK AO2 $
94908KDBQ DBQ20011105112009511/05/01 11:20:31  5-MIN KDBQ 051720Z 19013KT 10SM CLR 13/M01 A3031 720 39 700 190/13 RMK AO2 $
94908KDBQ DBQ20011105112509511/05/01 11:25:31  5-MIN KDBQ 051725Z 18012KT 10SM CLR 13/M01 A3031 720 39 700 180/12 RMK AO2 $
94908KDBQ DBQ20011105113009511/05/01 11:30:31  5-MIN KDBQ 051730Z 19012KT 10SM CLR 13/M01 A3031 720 39 700 190/12 RMK AO2 $
94908KDBQ DBQ20011105113509311/05/01 11:35:31  5-MIN KDBQ 051735Z 19013KT 10SM CLR 13/M01 A3031 720 39 700 190/13 RMK AO2
94908KDBQ DBQ20011105114009311/05/01 11:40:31  5-MIN KDBQ 051740Z 18012KT 10SM CLR 13/M01 A3031 720 39 700 180/12 RMK AO2
94908KDBQ DBQ20011105114509311/05/01 11:45:31  5-MIN KDBQ 051745Z 18012KT 10SM CLR 13/M01 A3031 720 38 700 180/12 RMK AO2
94908KDBQ DBQ20011105115012711/05/01 11:50:31  5-MIN KDBQ 051750Z 18010KT 10SM CLR 13/00 A3030 730 40 700 170/10 RMK AO2 SLP266 T01330000 10133 20006 53001
94908KDBQ DBQ20011105115512811/05/01 11:55:31  5-MIN KDBQ 051755Z 17011KT 10SM CLR 13/M01 A3030 730 38 700 170/11 RMK AO2 SLP265 T01331006 10133 20006 58017
94908KDBQ DBQ20011105120009311/05/01 12:00:31  5-MIN KDBQ 051800Z 18012KT 10SM CLR 13/M01 A3030 730 38 700 180/12 RMK AO2
94908KDBQ DBQ20011105120509311/05/01 12:05:31  5-MIN KDBQ 051805Z 19013KT 10SM CLR 13/M01 A3029 730 38 700 190/13 RMK AO2
94908KDBQ DBQ20011105121009311/05/01 12:10:31  5-MIN KDBQ 051810Z 19012KT 10SM CLR 13/M01 A3029 740 38 700 190/12 RMK AO2
94908KDBQ DBQ20011105121509211/05/01 12:15:31  5-MIN KDBQ 051815Z 18011KT 10SM CLR 14/00 A3029 740 38 800 180/11 RMK AO2
94908KDBQ DBQ20011105122009311/05/01 12:20:31  5-MIN KDBQ 051820Z 17012KT 10SM CLR 14/M01 A3029 740 37 800 170/12 RMK AO2
94908KDBQ DBQ20011105122509311/05/01 12:25:31  5-MIN KDBQ 051825Z 18009KT 10SM CLR 14/M01 A3029 740 37 800 180/09 RMK AO2
94908KDBQ DBQ20011105123009311/05/01 12:30:31  5-MIN KDBQ 051830Z 17011KT 10SM CLR 14/M01 A3028 740 37 800 170/11 RMK AO2
94908KDBQ DBQ20011105123509211/05/01 12:35:31  5-MIN KDBQ 051835Z 19012KT 10SM CLR 14/00 A3028 740 37 900 180/12 RMK AO2
94908KDBQ DBQ20011105124009211/05/01 12:40:31  5-MIN KDBQ 051840Z 19013KT 10SM CLR 14/00 A3028 750 37 900 190/13 RMK AO2
94908KDBQ DBQ20011105124509311/05/01 12:45:31  5-MIN KDBQ 051845Z 19011KT 10SM CLR 14/M01 A3028 750 37 800 190/11 RMK AO2
94908KDBQ DBQ20011105125011011/05/01 12:50:31  5-MIN KDBQ 051850Z 19011KT 10SM CLR 14/M01 A3028 750 35 900 190/11 RMK AO2 SLP257 T01441006
94908KDBQ DBQ20011105125510911/05/01 12:55:31  5-MIN KDBQ 051855Z 18012KT 10SM CLR 14/00 A3027 750 37 900 180/12 RMK AO2 SLP257 T01440000
94908KDBQ DBQ20011105130009311/05/01 13:00:31  5-MIN KDBQ 051900Z 19012KT 10SM CLR 14/M01 A3027 760 35 900 190/12 RMK AO2
94908KDBQ DBQ20011105130509311/05/01 13:05:31  5-MIN KDBQ 051905Z 17010KT 10SM CLR 14/M01 A3027 760 35 900 170/10 RMK AO2
94908KDBQ DBQ20011105131009411/05/01 13:10:31  5-MIN KDBQ 051910Z 17013KT 10SM CLR 15/M01 A3027 760 34 1000 170/13 RMK AO2
94908KDBQ DBQ20011105131509411/05/01 13:15:31  5-MIN KDBQ 051915Z 17009KT 10SM CLR 15/M01 A3027 760 34 1000 170/09 RMK AO2
94908KDBQ DBQ20011105132009411/05/01 13:20:31  5-MIN KDBQ 051920Z 18011KT 10SM CLR 15/M01 A3026 760 33 1000 180/11 RMK AO2
94908KDBQ DBQ20011105132509411/05/01 13:25:31  5-MIN KDBQ 051925Z 18010KT 10SM CLR 15/M01 A3026 760 34 1000 180/10 RMK AO2
94908KDBQ DBQ20011105133009411/05/01 13:30:31  5-MIN KDBQ 051930Z 16012KT 10SM CLR 15/M01 A3026 770 33 1000 160/12 RMK AO2
94908KDBQ DBQ20011105133509411/05/01 13:35:31  5-MIN KDBQ 051935Z 18012KT 10SM CLR 15/M02 A3026 770 31 1000 180/12 RMK AO2
94908KDBQ DBQ20011105134009411/05/01 13:40:31  5-MIN KDBQ 051940Z 18012KT 10SM CLR 15/M01 A3026 770 33 1000 170/12 RMK AO2
94908KDBQ DBQ20011105134509411/05/01 13:45:31  5-MIN KDBQ 051945Z 17010KT 10SM CLR 15/M01 A3026 770 33 1000 170/10 RMK AO2
94908KDBQ DBQ20011105135011111/05/01 13:50:31  5-MIN KDBQ 051950Z 17010KT 10SM CLR 15/M02 A3025 770 31 1000 170/10 RMK AO2 SLP250 T01501017
94908KDBQ DBQ20011105135511111/05/01 13:55:31  5-MIN KDBQ 051955Z 17009KT 10SM CLR 15/M01 A3025 770 33 1000 170/09 RMK AO2 SLP249 T01501011
94908KDBQ DBQ20011105140009411/05/01 14:00:31  5-MIN KDBQ 052000Z 18009KT 10SM CLR 15/M01 A3025 770 33 1000 180/09 RMK AO2
94908KDBQ DBQ20011105140509411/05/01 14:05:31  5-MIN KDBQ 052005Z 18009KT 10SM CLR 15/M02 A3025 770 31 1000 180/09 RMK AO2
94908KDBQ DBQ20011105141009411/05/01 14:10:31  5-MIN KDBQ 052010Z 18010KT 10SM CLR 15/M02 A3025 780 31 1000 180/10 RMK AO2
94908KDBQ DBQ20011105141509411/05/01 14:15:31  5-MIN KDBQ 052015Z 18011KT 10SM CLR 16/M02 A3024 780 30 1100 180/11 RMK AO2
94908KDBQ DBQ20011105142009411/05/01 14:20:31  5-MIN KDBQ 052020Z 16013KT 10SM CLR 15/M02 A3024 780 30 1000 160/13 RMK AO2
94908KDBQ DBQ20011105142509411/05/01 14:25:31  5-MIN KDBQ 052025Z 18011KT 10SM CLR 15/M02 A3024 780 30 1000 180/11 RMK AO2
94908KDBQ DBQ20011105143009411/05/01 14:30:31  5-MIN KDBQ 052030Z 17011KT 10SM CLR 15/M02 A3024 780 31 1000 170/11 RMK AO2
94908KDBQ DBQ20011105143509411/05/01 14:35:31  5-MIN KDBQ 052035Z 18010KT 10SM CLR 15/M02 A3024 790 31 1000 180/10 RMK AO2
94908KDBQ DBQ20011105144009411/05/01 14:40:31  5-MIN KDBQ 052040Z 18011KT 10SM CLR 15/M01 A3024 790 33 1000 180/11 RMK AO2
94908KDBQ DBQ20011105144509411/05/01 14:45:31  5-MIN KDBQ 052045Z 18012KT 10SM CLR 15/M02 A3024 780 31 1000 180/12 RMK AO2
94908KDBQ DBQ20011105145011711/05/01 14:50:31  5-MIN KDBQ 052050Z 18011KT 10SM CLR 15/M02 A3024 780 31 1000 180/11 RMK AO2 SLP245 T01501017 58017
94908KDBQ DBQ20011105145511711/05/01 14:55:31  5-MIN KDBQ 052055Z 17011KT 10SM CLR 15/M02 A3024 780 31 1000 170/11 RMK AO2 SLP245 T01501017 56019
94908KDBQ DBQ20011105150009411/05/01 15:00:31  5-MIN KDBQ 052100Z 19012KT 10SM CLR 15/M02 A3024 790 31 1000 190/12 RMK AO2
94908KDBQ DBQ20011105150509411/05/01 15:05:31  5-MIN KDBQ 052105Z 17010KT 10SM CLR 15/M02 A3024 790 31 1000 170/10 RMK AO2
94908KDBQ DBQ20011105151009411/05/01 15:10:31  5-MIN KDBQ 052110Z 18011KT 10SM CLR 15/M02 A3024 790 31 1000 170/11 RMK AO2
94908KDBQ DBQ20011105151509411/05/01 15:15:31  5-MIN KDBQ 052115Z 17009KT 10SM CLR 15/M02 A3024 790 31 1000 170/09 RMK AO2
94908KDBQ DBQ20011105152009411/05/01 15:20:31  5-MIN KDBQ 052120Z 19010KT 10SM CLR 15/M01 A3024 790 33 1000 190/10 RMK AO2
94908KDBQ DBQ20011105152509311/05/01 15:25:31  5-MIN KDBQ 052125Z 18009KT 10SM CLR 14/M01 A3024 780 34 900 180/09 RMK AO2
94908KDBQ DBQ20011105153009311/05/01 15:30:31  5-MIN KDBQ 052130Z 18011KT 10SM CLR 14/M01 A3024 780 34 900 180/11 RMK AO2
94908KDBQ DBQ20011105153509311/05/01 15:35:31  5-MIN KDBQ 052135Z 18010KT 10SM CLR 14/M02 A3024 780 33 900 180/10 RMK AO2
94908KDBQ DBQ20011105154009311/05/01 15:40:31  5-MIN KDBQ 052140Z 17009KT 10SM CLR 14/M02 A3024 780 33 900 170/09 RMK AO2
94908KDBQ DBQ20011105154509311/05/01 15:45:31  5-MIN KDBQ 052145Z 18008KT 10SM CLR 14/M02 A3024 780 33 900 180/08 RMK AO2
94908KDBQ DBQ20011105155011011/05/01 15:50:31  5-MIN KDBQ 052150Z 17009KT 10SM CLR 14/M02 A3024 780 33 900 170/09 RMK AO2 SLP245 T01441017
94908KDBQ DBQ20011105155511011/05/01 15:55:31  5-MIN KDBQ 052155Z 17010KT 10SM CLR 14/M02 A3024 780 33 900 170/10 RMK AO2 SLP244 T01441017
94908KDBQ DBQ20011105160009311/05/01 16:00:31  5-MIN KDBQ 052200Z 17007KT 10SM CLR 14/M02 A3024 790 34 900 170/07 RMK AO2
94908KDBQ DBQ20011105160509311/05/01 16:05:31  5-MIN KDBQ 052205Z 17007KT 10SM CLR 14/M01 A3024 790 35 900 170/07 RMK AO2
94908KDBQ DBQ20011105161009311/05/01 16:10:31  5-MIN KDBQ 052210Z 17007KT 10SM CLR 13/M01 A3024 790 36 800 170/07 RMK AO2
94908KDBQ DBQ20011105161509311/05/01 16:15:31  5-MIN KDBQ 052215Z 17008KT 10SM CLR 13/M01 A3024 790 36 800 160/08 RMK AO2
94908KDBQ DBQ20011105162009311/05/01 16:20:31  5-MIN KDBQ 052220Z 17008KT 10SM CLR 13/M01 A3023 790 38 800 170/08 RMK AO2
94908KDBQ DBQ20011105162509311/05/01 16:25:31  5-MIN KDBQ 052225Z 17008KT 10SM CLR 13/M01 A3023 790 38 800 170/08 RMK AO2
94908KDBQ DBQ20011105163009311/05/01 16:30:31  5-MIN KDBQ 052230Z 17008KT 10SM CLR 12/M01 A3023 790 39 700 170/08 RMK AO2
94908KDBQ DBQ20011105163509311/05/01 16:35:31  5-MIN KDBQ 052235Z 17008KT 10SM CLR 12/M01 A3023 790 41 600 160/08 RMK AO2
94908KDBQ DBQ20011105164009311/05/01 16:40:31  5-MIN KDBQ 052240Z 16008KT 10SM CLR 11/M01 A3023 790 42 600 160/08 RMK AO2
94908KDBQ DBQ20011105164509311/05/01 16:45:31  5-MIN KDBQ 052245Z 16008KT 10SM CLR 11/M01 A3023 800 42 600 160/08 RMK AO2
94908KDBQ DBQ20011105165011011/05/01 16:50:31  5-MIN KDBQ 052250Z 16009KT 10SM CLR 11/M01 A3023 800 44 500 160/09 RMK AO2 SLP242 T01061011
94908KDBQ DBQ20011105165511011/05/01 16:55:31  5-MIN KDBQ 052255Z 16009KT 10SM CLR 10/M01 A3022 800 46 400 160/09 RMK AO2 SLP241 T01001011
94908KDBQ DBQ20011105170009311/05/01 17:00:31  5-MIN KDBQ 052300Z 16009KT 10SM CLR 10/M01 A3022 800 46 400 160/09 RMK AO2
94908KDBQ DBQ20011105170509311/05/01 17:05:31  5-MIN KDBQ 052305Z 15009KT 10SM CLR 10/M01 A3022 800 46 400 150/09 RMK AO2
94908KDBQ DBQ20011105171009311/05/01 17:10:31  5-MIN KDBQ 052310Z 15009KT 10SM CLR 09/M01 A3022 800 47 400 150/09 RMK AO2
94908KDBQ DBQ20011105171509311/05/01 17:15:31  5-MIN KDBQ 052315Z 15009KT 10SM CLR 09/M01 A3022 800 49 300 150/09 RMK AO2
94908KDBQ DBQ20011105172009311/05/01 17:20:31  5-MIN KDBQ 052320Z 15009KT 10SM CLR 09/M01 A3022 800 47 400 150/09 RMK AO2
94908KDBQ DBQ20011105172509311/05/01 17:25:31  5-MIN KDBQ 052325Z 16009KT 10SM CLR 09/M01 A3022 800 47 400 160/09 RMK AO2
94908KDBQ DBQ20011105173009311/05/01 17:30:31  5-MIN KDBQ 052330Z 16009KT 10SM CLR 09/M01 A3022 800 47 400 160/09 RMK AO2
94908KDBQ DBQ20011105173509311/05/01 17:35:31  5-MIN KDBQ 052335Z 16010KT 10SM CLR 09/M01 A3022 800 47 400 150/10 RMK AO2
94908KDBQ DBQ20011105174009311/05/01 17:40:31  5-MIN KDBQ 052340Z 16009KT 10SM CLR 09/M01 A3022 810 47 400 150/09 RMK AO2
94908KDBQ DBQ20011105174509311/05/01 17:45:31  5-MIN KDBQ 052345Z 16009KT 10SM CLR 09/M02 A3022 810 45 400 160/09 RMK AO2
94908KDBQ DBQ20011105175012811/05/01 17:50:31  5-MIN KDBQ 052350Z 16009KT 10SM CLR 09/M02 A3021 810 45 400 160/09 RMK AO2 SLP239 T00941017 10156 20089 56019
94908KDBQ DBQ20011105175512811/05/01 17:55:31  5-MIN KDBQ 052355Z 16008KT 10SM CLR 09/M02 A3021 810 47 300 160/08 RMK AO2 SLP239 T00891017 10156 20089 58009
94908KDBQ DBQ20011105180009311/05/01 18:00:31  5-MIN KDBQ 060000Z 17007KT 10SM CLR 08/M01 A3022 810 51 200 170/07 RMK AO2
94908KDBQ DBQ20011105180509311/05/01 18:05:31  5-MIN KDBQ 060005Z 18007KT 10SM CLR 08/M01 A3022 810 53 200 170/07 RMK AO2
94908KDBQ DBQ20011105181009311/05/01 18:10:31  5-MIN KDBQ 060010Z 17007KT 10SM CLR 08/M01 A3021 810 53 200 170/07 RMK AO2
94908KDBQ DBQ20011105181509311/05/01 18:15:31  5-MIN KDBQ 060015Z 16008KT 10SM CLR 08/M01 A3021 810 53 200 160/08 RMK AO2
94908KDBQ DBQ20011105182009311/05/01 18:20:31  5-MIN KDBQ 060020Z 16008KT 10SM CLR 07/M01 A3021 810 55 100 160/08 RMK AO2
94908KDBQ DBQ20011105182509311/05/01 18:25:31  5-MIN KDBQ 060025Z 17008KT 10SM CLR 07/M01 A3021 810 55 100 170/08 RMK AO2
94908KDBQ DBQ20011105183009311/05/01 18:30:31  5-MIN KDBQ 060030Z 17007KT 10SM CLR 07/M01 A3021 810 55 100 170/07 RMK AO2
94908KDBQ DBQ20011105183509311/05/01 18:35:31  5-MIN KDBQ 060035Z 17007KT 10SM CLR 07/M01 A3021 810 55 100 170/07 RMK AO2
94908KDBQ DBQ20011105184009111/05/01 18:40:31  5-MIN KDBQ 060040Z 17007KT 10SM CLR 07/M01 A3021 810 57 0 170/07 RMK AO2
94908KDBQ DBQ20011105184509111/05/01 18:45:31  5-MIN KDBQ 060045Z 17006KT 10SM CLR 07/M01 A3021 810 57 0 170/06 RMK AO2
94908KDBQ DBQ20011105185010811/05/01 18:50:31  5-MIN KDBQ 060050Z 18006KT 10SM CLR 07/M01 A3021 810 57 0 180/06 RMK AO2 SLP240 T00671011
94908KDBQ DBQ20011105185510811/05/01 18:55:31  5-MIN KDBQ 060055Z 18007KT 10SM CLR 07/M01 A3021 810 57 0 180/07 RMK AO2 SLP240 T00671011
94908KDBQ DBQ20011105190009111/05/01 19:00:31  5-MIN KDBQ 060100Z 18006KT 10SM CLR 06/M01 A3021 810 60 0 180/06 RMK AO2
94908KDBQ DBQ20011105190509111/05/01 19:05:31  5-MIN KDBQ 060105Z 17007KT 10SM CLR 07/M01 A3021 810 57 0 170/07 RMK AO2
94908KDBQ DBQ20011105191009311/05/01 19:10:31  5-MIN KDBQ 060110Z 17007KT 10SM CLR 07/M01 A3021 810 55 100 170/07 RMK AO2
94908KDBQ DBQ20011105191509111/05/01 19:15:31  5-MIN KDBQ 060115Z 17007KT 10SM CLR 07/M01 A3021 810 57 0 170/07 RMK AO2
94908KDBQ DBQ20011105192009311/05/01 19:20:31  5-MIN KDBQ 060120Z 18007KT 10SM CLR 07/M01 A3021 810 55 100 170/07 RMK AO2
94908KDBQ DBQ20011105192509111/05/01 19:25:31  5-MIN KDBQ 060125Z 19007KT 10SM CLR 07/M01 A3021 810 57 0 190/07 RMK AO2
94908KDBQ DBQ20011105193009111/05/01 19:30:31  5-MIN KDBQ 060130Z 19005KT 10SM CLR 06/M01 A3021 810 60 0 190/05 RMK AO2
94908KDBQ DBQ20011105193509111/05/01 19:35:31  5-MIN KDBQ 060135Z 19005KT 10SM CLR 06/M01 A3021 810 60 0 190/05 RMK AO2
94908KDBQ DBQ20011105194009111/05/01 19:40:31  5-MIN KDBQ 060140Z 19006KT 10SM CLR 06/M01 A3021 810 60 0 190/06 RMK AO2
94908KDBQ DBQ20011105194509111/05/01 19:45:31  5-MIN KDBQ 060145Z 20006KT 10SM CLR 07/M02 A3021 810 55 0 190/06 RMK AO2
94908KDBQ DBQ20011105195011811/05/01 19:50:31  5-MIN KDBQ 060150Z AUTO 19006KT 10SM CLR 06/M02 A3021 810 57 0 190/06 RMK AO2 SLP236 T00611017 TSNO
94908KDBQ DBQ20011105195511811/05/01 19:55:31  5-MIN KDBQ 060155Z AUTO 20006KT 10SM CLR 06/M02 A3021 810 57 0 200/06 RMK AO2 SLP236 T00611017 TSNO
94908KDBQ DBQ20011105200010111/05/01 20:00:31  5-MIN KDBQ 060200Z AUTO 20006KT 10SM CLR 06/M02 A3021 810 57 0 200/06 RMK AO2 TSNO
94908KDBQ DBQ20011105200510111/05/01 20:05:31  5-MIN KDBQ 060205Z AUTO 20006KT 10SM CLR 07/M02 A3021 810 55 0 200/06 RMK AO2 TSNO
94908KDBQ DBQ20011105201010111/05/01 20:10:31  5-MIN KDBQ 060210Z AUTO 19006KT 10SM CLR 06/M02 A3020 820 57 0 190/06 RMK AO2 TSNO
94908KDBQ DBQ20011105201510111/05/01 20:15:31  5-MIN KDBQ 060215Z AUTO 19006KT 10SM CLR 06/M02 A3020 820 57 0 190/06 RMK AO2 TSNO
94908KDBQ DBQ20011105202010111/05/01 20:20:31  5-MIN KDBQ 060220Z AUTO 19006KT 10SM CLR 06/M02 A3020 820 59 0 190/06 RMK AO2 TSNO
94908KDBQ DBQ20011105202510111/05/01 20:25:31  5-MIN KDBQ 060225Z AUTO 19006KT 10SM CLR 06/M01 A3020 820 62 0 190/06 RMK AO2 TSNO
94908KDBQ DBQ20011105203010111/05/01 20:30:31  5-MIN KDBQ 060230Z AUTO 19006KT 10SM CLR 06/M02 A3020 820 57 0 190/06 RMK AO2 TSNO
94908KDBQ DBQ20011105203510111/05/01 20:35:31  5-MIN KDBQ 060235Z AUTO 19007KT 10SM CLR 06/M01 A3020 820 62 0 180/07 RMK AO2 TSNO
94908KDBQ DBQ20011105204010111/05/01 20:40:31  5-MIN KDBQ 060240Z AUTO 17008KT 10SM CLR 06/M02 A3020 820 57 0 170/08 RMK AO2 TSNO
94908KDBQ DBQ20011105204510311/05/01 20:45:31  5-MIN KDBQ 060245Z AUTO 17010KT 10SM CLR 07/M02 A3020 820 53 100 170/10 RMK AO2 TSNO
94908KDBQ DBQ20011105205012611/05/01 20:50:31  5-MIN KDBQ 060250Z AUTO 17011KT 10SM CLR 08/M02 A3020 820 49 200 170/11 RMK AO2 SLP233 T00781022 58009 TSNO
94908KDBQ DBQ20011105205512611/05/01 20:55:31  5-MIN KDBQ 060255Z AUTO 17011KT 10SM CLR 08/M02 A3020 820 49 200 160/11 RMK AO2 SLP232 T00781022 58005 TSNO
94908KDBQ DBQ20011105210010311/05/01 21:00:31  5-MIN KDBQ 060300Z AUTO 16011KT 10SM CLR 08/M02 A3020 820 49 200 160/11 RMK AO2 TSNO
94908KDBQ DBQ20011105210510311/05/01 21:05:31  5-MIN KDBQ 060305Z AUTO 17010KT 10SM CLR 07/M02 A3020 820 51 100 170/10 RMK AO2 TSNO
94908KDBQ DBQ20011105211010311/05/01 21:10:31  5-MIN KDBQ 060310Z AUTO 18008KT 10SM CLR 07/M01 A3020 820 55 100 180/08 RMK AO2 TSNO
94908KDBQ DBQ20011105211510111/05/01 21:15:31  5-MIN KDBQ 060315Z AUTO 19007KT 10SM CLR 06/M01 A3021 820 60 0 190/07 RMK AO2 TSNO
94908KDBQ DBQ20011105212010111/05/01 21:20:31  5-MIN KDBQ 060320Z AUTO 20007KT 10SM CLR 06/M02 A3021 820 57 0 200/07 RMK AO2 TSNO
94908KDBQ DBQ20011105212510111/05/01 21:25:31  5-MIN KDBQ 060325Z AUTO 19006KT 10SM CLR 07/M02 A3021 820 53 0 190/06 RMK AO2 TSNO
94908KDBQ DBQ20011105213010111/05/01 21:30:31  5-MIN KDBQ 060330Z AUTO 19005KT 10SM CLR 06/M02 A3020 820 55 0 190/05 RMK AO2 TSNO
94908KDBQ DBQ20011105213510111/05/01 21:35:31  5-MIN KDBQ 060335Z AUTO 19006KT 10SM CLR 06/M02 A3020 820 55 0 180/06 RMK AO2 TSNO
94908KDBQ DBQ20011105214010111/05/01 21:40:31  5-MIN KDBQ 060340Z AUTO 19006KT 10SM CLR 06/M02 A3020 820 55 0 180/06 RMK AO2 TSNO
94908KDBQ DBQ20011105214510111/05/01 21:45:31  5-MIN KDBQ 060345Z AUTO 18006KT 10SM CLR 06/M02 A3020 820 57 0 180/06 RMK AO2 TSNO
94908KDBQ DBQ20011105215011811/05/01 21:50:31  5-MIN KDBQ 060350Z AUTO 18007KT 10SM CLR 06/M02 A3020 820 57 0 180/07 RMK AO2 SLP234 T00561022 TSNO
94908KDBQ DBQ20011105215512111/05/01 21:55:31  5-MIN KDBQ 060355Z AUTO 18007KT 10SM CLR 05/M02 A3020 820 59 -100 180/07 RMK AO2 SLP233 T00501022 TSNO
94908KDBQ DBQ20011105220010411/05/01 22:00:31  5-MIN KDBQ 060400Z AUTO 18008KT 10SM CLR 04/M02 A3020 820 62 -200 180/08 RMK AO2 TSNO
94908KDBQ DBQ20011105220510411/05/01 22:05:31  5-MIN KDBQ 060405Z AUTO 18008KT 10SM CLR 05/M02 A3020 820 59 -100 170/08 RMK AO2 TSNO
94908KDBQ DBQ20011105221010411/05/01 22:10:31  5-MIN KDBQ 060410Z AUTO 18008KT 10SM CLR 05/M02 A3020 820 59 -100 180/08 RMK AO2 TSNO
94908KDBQ DBQ20011105221510411/05/01 22:15:31  5-MIN KDBQ 060415Z AUTO 18008KT 10SM CLR 05/M02 A3020 820 62 -100 180/08 RMK AO2 TSNO
94908KDBQ DBQ20011105222010411/05/01 22:20:31  5-MIN KDBQ 060420Z AUTO 18008KT 10SM CLR 05/M02 A3020 820 59 -100 180/08 RMK AO2 TSNO
94908KDBQ DBQ20011105222510411/05/01 22:25:31  5-MIN KDBQ 060425Z AUTO 18008KT 10SM CLR 05/M02 A3020 820 62 -100 180/08 RMK AO2 TSNO
94908KDBQ DBQ20011105223010411/05/01 22:30:31  5-MIN KDBQ 060430Z AUTO 18009KT 10SM CLR 05/M02 A3020 820 62 -100 180/09 RMK AO2 TSNO
94908KDBQ DBQ20011105223510111/05/01 22:35:31  5-MIN KDBQ 060435Z AUTO 18009KT 10SM CLR 06/M02 A3020 820 57 0 170/09 RMK AO2 TSNO
94908KDBQ DBQ20011105224010111/05/01 22:40:31  5-MIN KDBQ 060440Z AUTO 18009KT 10SM CLR 06/M02 A3020 820 57 0 180/09 RMK AO2 TSNO
94908KDBQ DBQ20011105224510111/05/01 22:45:31  5-MIN KDBQ 060445Z AUTO 18009KT 10SM CLR 06/M02 A3019 830 57 0 170/09 RMK AO2 TSNO
94908KDBQ DBQ20011105225011811/05/01 22:50:31  5-MIN KDBQ 060450Z AUTO 17010KT 10SM CLR 06/M02 A3019 830 57 0 170/10 RMK AO2 SLP229 T00561022 TSNO
94908KDBQ DBQ20011105225511811/05/01 22:55:31  5-MIN KDBQ 060455Z AUTO 18009KT 10SM CLR 06/M02 A3019 830 57 0 170/09 RMK AO2 SLP229 T00561022 TSNO
94908KDBQ DBQ20011105230010111/05/01 23:00:31  5-MIN KDBQ 060500Z AUTO 18009KT 10SM CLR 06/M02 A3019 830 57 0 180/09 RMK AO2 TSNO
94908KDBQ DBQ20011105230510411/05/01 23:05:31  5-MIN KDBQ 060505Z AUTO 18009KT 10SM CLR 05/M02 A3019 830 59 -100 180/09 RMK AO2 TSNO
94908KDBQ DBQ20011105231010411/05/01 23:10:31  5-MIN KDBQ 060510Z AUTO 18009KT 10SM CLR 05/M02 A3019 830 59 -100 180/09 RMK AO2 TSNO
94908KDBQ DBQ20011105231510411/05/01 23:15:31  5-MIN KDBQ 060515Z AUTO 18009KT 10SM CLR 05/M02 A3019 830 59 -100 180/09 RMK AO2 TSNO
94908KDBQ DBQ20011105232010411/05/01 23:20:31  5-MIN KDBQ 060520Z AUTO 18009KT 10SM CLR 05/M02 A3019 830 59 -100 180/09 RMK AO2 TSNO
94908KDBQ DBQ20011105232510411/05/01 23:25:31  5-MIN KDBQ 060525Z AUTO 19009KT 10SM CLR 05/M02 A3019 830 59 -100 190/09 RMK AO2 TSNO
94908KDBQ DBQ20011105233010411/05/01 23:30:31  5-MIN KDBQ 060530Z AUTO 18009KT 10SM CLR 05/M02 A3019 830 59 -100 180/09 RMK AO2 TSNO
94908KDBQ DBQ20011105233510411/05/01 23:35:31  5-MIN KDBQ 060535Z AUTO 18008KT 10SM CLR 04/M02 A3019 830 62 -200 180/08 RMK AO2 TSNO
94908KDBQ DBQ20011105234010411/05/01 23:40:31  5-MIN KDBQ 060540Z AUTO 19008KT 10SM CLR 04/M02 A3019 830 62 -200 180/08 RMK AO2 TSNO
94908KDBQ DBQ20011105234510411/05/01 23:45:31  5-MIN KDBQ 060545Z AUTO 18008KT 10SM CLR 04/M02 A3019 830 62 -200 180/08 RMK AO2 TSNO
94908KDBQ DBQ20011105235014911/05/01 23:50:31  5-MIN KDBQ 060550Z AUTO 18008KT 10SM CLR 05/M02 A3019 830 59 -100 180/08 RMK AO2 SLP228 T00501022 10089 20044 401560006 58005 TSNO
94908KDBQ DBQ20011105235514911/05/01 23:55:31  5-MIN KDBQ 060555Z AUTO 18008KT 10SM CLR 05/M02 A3019 830 59 -100 180/08 RMK AO2 SLP228 T00501022 10089 20044 401560006 58002 TSNO
94908KDBQ DBQ20011106000010411/06/01 00:00:31  5-MIN KDBQ 060600Z AUTO 19009KT 10SM CLR 05/M02 A3019 830 59 -100 180/09 RMK AO2 TSNO
94908KDBQ DBQ20011106000510111/06/01 00:05:31  5-MIN KDBQ 060605Z AUTO 19009KT 10SM CLR 06/M02 A3019 830 57 0 190/09 RMK AO2 TSNO
94908KDBQ DBQ20011106001010111/06/01 00:10:31  5-MIN KDBQ 060610Z AUTO 19009KT 10SM CLR 06/M02 A3019 830 57 0 190/09 RMK AO2 TSNO
94908KDBQ DBQ20011106001510111/06/01 00:15:31  5-MIN KDBQ 060615Z AUTO 19009KT 10SM CLR 06/M02 A3019 830 57 0 190/09 RMK AO2 TSNO
94908KDBQ DBQ20011106002010411/06/01 00:20:31  5-MIN KDBQ 060620Z AUTO 19008KT 10SM CLR 05/M02 A3019 830 59 -100 190/08 RMK AO2 TSNO
94908KDBQ DBQ20011106002510411/06/01 00:25:31  5-MIN KDBQ 060625Z AUTO 19009KT 10SM CLR 05/M02 A3019 830 59 -100 190/09 RMK AO2 TSNO
94908KDBQ DBQ20011106003010411/06/01 00:30:31  5-MIN KDBQ 060630Z AUTO 19008KT 10SM CLR 04/M02 A3019 830 62 -200 180/08 RMK AO2 TSNO
94908KDBQ DBQ20011106003510411/06/01 00:35:31  5-MIN KDBQ 060635Z AUTO 18009KT 10SM CLR 05/M02 A3019 830 59 -100 180/09 RMK AO2 TSNO
94908KDBQ DBQ20011106004010411/06/01 00:40:31  5-MIN KDBQ 060640Z AUTO 19009KT 10SM CLR 04/M02 A3019 830 62 -200 190/09 RMK AO2 TSNO
94908KDBQ DBQ20011106004510411/06/01 00:45:31  5-MIN KDBQ 060645Z AUTO 19009KT 10SM CLR 04/M02 A3019 830 62 -200 180/09 RMK AO2 TSNO
94908KDBQ DBQ20011106005012111/06/01 00:50:31  5-MIN KDBQ 060650Z AUTO 18010KT 10SM CLR 05/M03 A3018 830 57 -100 180/10 RMK AO2 SLP226 T00501028 TSNO
94908KDBQ DBQ20011106005511811/06/01 00:55:31  5-MIN KDBQ 060655Z AUTO 19009KT 10SM CLR 06/M03 A3018 840 55 0 180/09 RMK AO2 SLP226 T00561028 TSNO
94908KDBQ DBQ20011106010010111/06/01 01:00:31  5-MIN KDBQ 060700Z AUTO 19009KT 10SM CLR 06/M03 A3018 840 55 0 180/09 RMK AO2 TSNO
94908KDBQ DBQ20011106010510111/06/01 01:05:31  5-MIN KDBQ 060705Z AUTO 19009KT 10SM CLR 06/M03 A3019 830 55 0 190/09 RMK AO2 TSNO
94908KDBQ DBQ20011106011010411/06/01 01:10:31  5-MIN KDBQ 060710Z AUTO 19010KT 10SM CLR 05/M03 A3019 830 57 -100 190/10 RMK AO2 TSNO
94908KDBQ DBQ20011106011510111/06/01 01:15:31  5-MIN KDBQ 060715Z AUTO 19010KT 10SM CLR 06/M03 A3019 830 55 0 190/10 RMK AO2 TSNO
94908KDBQ DBQ20011106012010411/06/01 01:20:31  5-MIN KDBQ 060720Z AUTO 19009KT 10SM CLR 05/M03 A3019 830 57 -100 190/09 RMK AO2 TSNO
94908KDBQ DBQ20011106012510411/06/01 01:25:31  5-MIN KDBQ 060725Z AUTO 19010KT 10SM CLR 04/M02 A3019 830 62 -200 190/10 RMK AO2 TSNO
94908KDBQ DBQ20011106013010411/06/01 01:30:31  5-MIN KDBQ 060730Z AUTO 19010KT 10SM CLR 04/M03 A3019 830 59 -200 190/10 RMK AO2 TSNO
94908KDBQ DBQ20011106013510411/06/01 01:35:31  5-MIN KDBQ 060735Z AUTO 19010KT 10SM CLR 05/M03 A3019 830 57 -100 190/10 RMK AO2 TSNO
94908KDBQ DBQ20011106014010411/06/01 01:40:31  5-MIN KDBQ 060740Z AUTO 19011KT 10SM CLR 05/M03 A3019 830 57 -100 180/11 RMK AO2 TSNO
94908KDBQ DBQ20011106014510111/06/01 01:45:31  5-MIN KDBQ 060745Z AUTO 18011KT 10SM CLR 06/M03 A3019 830 55 0 180/11 RMK AO2 TSNO
94908KDBQ DBQ20011106015011811/06/01 01:50:31  5-MIN KDBQ 060750Z AUTO 18011KT 10SM CLR 06/M03 A3019 830 53 0 180/11 RMK AO2 SLP226 T00561033 TSNO
94908KDBQ DBQ20011106015511811/06/01 01:55:31  5-MIN KDBQ 060755Z AUTO 18011KT 10SM CLR 06/M03 A3019 830 53 0 180/11 RMK AO2 SLP226 T00561033 TSNO
94908KDBQ DBQ20011106020010111/06/01 02:00:31  5-MIN KDBQ 060800Z AUTO 18010KT 10SM CLR 06/M03 A3019 830 55 0 180/10 RMK AO2 TSNO
94908KDBQ DBQ20011106020510111/06/01 02:05:31  5-MIN KDBQ 060805Z AUTO 18011KT 10SM CLR 06/M03 A3019 830 53 0 180/11 RMK AO2 TSNO
94908KDBQ DBQ20011106021010111/06/01 02:10:31  5-MIN KDBQ 060810Z AUTO 18010KT 10SM CLR 06/M03 A3019 830 55 0 180/10 RMK AO2 TSNO
94908KDBQ DBQ20011106021510411/06/01 02:15:31  5-MIN KDBQ 060815Z AUTO 18011KT 10SM CLR 05/M03 A3019 830 57 -100 180/11 RMK AO2 TSNO
94908KDBQ DBQ20011106022010411/06/01 02:20:31  5-MIN KDBQ 060820Z AUTO 18010KT 10SM CLR 05/M03 A3019 830 57 -100 180/10 RMK AO2 TSNO
94908KDBQ DBQ20011106022510411/06/01 02:25:31  5-MIN KDBQ 060825Z AUTO 18010KT 10SM CLR 05/M03 A3019 830 57 -100 180/10 RMK AO2 TSNO
94908KDBQ DBQ20011106023010111/06/01 02:30:31  5-MIN KDBQ 060830Z AUTO 18011KT 10SM CLR 06/M03 A3019 830 53 0 180/11 RMK AO2 TSNO
94908KDBQ DBQ20011106023510411/06/01 02:35:31  5-MIN KDBQ 060835Z AUTO 18010KT 10SM CLR 05/M03 A3019 830 55 -100 180/10 RMK AO2 TSNO
94908KDBQ DBQ20011106024010411/06/01 02:40:31  5-MIN KDBQ 060840Z AUTO 19008KT 10SM CLR 05/M03 A3019 830 57 -100 190/08 RMK AO2 TSNO
94908KDBQ DBQ20011106024510411/06/01 02:45:31  5-MIN KDBQ 060845Z AUTO 19008KT 10SM CLR 04/M03 A3019 830 59 -200 190/08 RMK AO2 TSNO
94908KDBQ DBQ20011106025012711/06/01 02:50:31  5-MIN KDBQ 060850Z AUTO 19009KT 10SM CLR 04/M03 A3019 830 59 -200 190/09 RMK AO2 SLP228 T00441028 58002 TSNO
94908KDBQ DBQ20011106025512711/06/01 02:55:31  5-MIN KDBQ 060855Z AUTO 19010KT 10SM CLR 04/M03 A3019 830 59 -200 190/10 RMK AO2 SLP227 T00441028 56000 TSNO
94908KDBQ DBQ20011106030010411/06/01 03:00:31  5-MIN KDBQ 060900Z AUTO 19010KT 10SM CLR 05/M03 A3019 830 57 -100 190/10 RMK AO2 TSNO
94908KDBQ DBQ20011106030510411/06/01 03:05:31  5-MIN KDBQ 060905Z AUTO 19010KT 10SM CLR 05/M03 A3019 830 57 -100 190/10 RMK AO2 TSNO
94908KDBQ DBQ20011106031010411/06/01 03:10:31  5-MIN KDBQ 060910Z AUTO 19010KT 10SM CLR 04/M03 A3019 830 59 -200 190/10 RMK AO2 TSNO
94908KDBQ DBQ20011106031510411/06/01 03:15:31  5-MIN KDBQ 060915Z AUTO 19010KT 10SM CLR 04/M03 A3019 830 59 -200 190/10 RMK AO2 TSNO
94908KDBQ DBQ20011106032010411/06/01 03:20:31  5-MIN KDBQ 060920Z AUTO 19010KT 10SM CLR 04/M03 A3019 830 59 -200 190/10 RMK AO2 TSNO
94908KDBQ DBQ20011106032510411/06/01 03:25:31  5-MIN KDBQ 060925Z AUTO 19010KT 10SM CLR 04/M03 A3019 830 59 -200 190/10 RMK AO2 TSNO
94908KDBQ DBQ20011106033010411/06/01 03:30:31  5-MIN KDBQ 060930Z AUTO 20010KT 10SM CLR 04/M03 A3019 830 59 -200 190/10 RMK AO2 TSNO
94908KDBQ DBQ20011106033510411/06/01 03:35:31  5-MIN KDBQ 060935Z AUTO 19010KT 10SM CLR 04/M03 A3019 830 59 -200 190/10 RMK AO2 TSNO
94908KDBQ DBQ20011106034010411/06/01 03:40:31  5-MIN KDBQ 060940Z AUTO 20009KT 10SM CLR 04/M03 A3019 830 59 -200 200/09 RMK AO2 TSNO
94908KDBQ DBQ20011106034510711/06/01 03:45:31  5-MIN KDBQ 060945Z AUTO 20010KT 10SM SCT048 04/M03 A3019 830 59 -200 200/10 RMK AO2 TSNO
94908KDBQ DBQ20011106035012411/06/01 03:50:31  5-MIN KDBQ 060950Z AUTO 20010KT 10SM SCT048 05/M03 A3019 830 57 -100 200/10 RMK AO2 SLP227 T00501028 TSNO
94908KDBQ DBQ20011106035512411/06/01 03:55:31  5-MIN KDBQ 060955Z AUTO 20009KT 10SM SCT048 04/M03 A3019 830 59 -200 200/09 RMK AO2 SLP226 T00441028 TSNO
94908KDBQ DBQ20011106040010711/06/01 04:00:31  5-MIN KDBQ 061000Z AUTO 19009KT 10SM SCT048 04/M03 A3019 830 59 -200 190/09 RMK AO2 TSNO
94908KDBQ DBQ20011106040510711/06/01 04:05:31  5-MIN KDBQ 061005Z AUTO 19009KT 10SM SCT048 05/M03 A3019 830 57 -100 190/09 RMK AO2 TSNO
94908KDBQ DBQ20011106041010711/06/01 04:10:31  5-MIN KDBQ 061010Z AUTO 19009KT 10SM SCT048 05/M03 A3019 830 57 -100 190/09 RMK AO2 TSNO
94908KDBQ DBQ20011106041510711/06/01 04:15:31  5-MIN KDBQ 061015Z AUTO 20009KT 10SM SCT050 05/M03 A3019 830 57 -100 190/09 RMK AO2 TSNO
94908KDBQ DBQ20011106042010411/06/01 04:20:31  5-MIN KDBQ 061020Z AUTO 19010KT 10SM BKN050 06/M03 A3019 830 55 0 190/10 RMK AO2 TSNO
94908KDBQ DBQ20011106042510411/06/01 04:25:31  5-MIN KDBQ 061025Z AUTO 19010KT 10SM BKN050 06/M03 A3019 830 55 0 190/10 RMK AO2 TSNO
94908KDBQ DBQ20011106043010411/06/01 04:30:31  5-MIN KDBQ 061030Z AUTO 19011KT 10SM BKN050 06/M03 A3019 830 55 0 190/11 RMK AO2 TSNO
94908KDBQ DBQ20011106043510411/06/01 04:35:31  5-MIN KDBQ 061035Z AUTO 19010KT 10SM SCT050 06/M03 A3019 830 55 0 190/10 RMK AO2 TSNO
94908KDBQ DBQ20011106044010411/06/01 04:40:31  5-MIN KDBQ 061040Z AUTO 19010KT 10SM SCT050 06/M03 A3019 830 53 0 190/10 RMK AO2 TSNO
94908KDBQ DBQ20011106044510711/06/01 04:45:31  5-MIN KDBQ 061045Z AUTO 19010KT 10SM FEW050 05/M03 A3019 830 55 -100 190/10 RMK AO2 TSNO
94908KDBQ DBQ20011106045012411/06/01 04:50:31  5-MIN KDBQ 061050Z AUTO 19010KT 10SM FEW050 05/M03 A3019 830 57 -100 190/10 RMK AO2 SLP228 T00501028 TSNO
94908KDBQ DBQ20011106045512111/06/01 04:55:31  5-MIN KDBQ 061055Z AUTO 19011KT 10SM CLR 05/M03 A3018 830 55 -100 190/11 RMK AO2 SLP228 T00501033 TSNO
94908KDBQ DBQ20011106050010411/06/01 05:00:31  5-MIN KDBQ 061100Z AUTO 19011KT 10SM FEW045 06/M03 A3018 840 53 0 190/11 RMK AO2 TSNO
94908KDBQ DBQ20011106050510411/06/01 05:05:31  5-MIN KDBQ 061105Z AUTO 19011KT 10SM FEW045 06/M03 A3018 840 53 0 190/11 RMK AO2 TSNO
94908KDBQ DBQ20011106051010411/06/01 05:10:31  5-MIN KDBQ 061110Z AUTO 19011KT 10SM FEW045 06/M03 A3018 840 53 0 190/11 RMK AO2 TSNO
94908KDBQ DBQ20011106051510411/06/01 05:15:31  5-MIN KDBQ 061115Z AUTO 19011KT 10SM FEW047 06/M03 A3018 840 53 0 190/11 RMK AO2 TSNO
94908KDBQ DBQ20011106052010411/06/01 05:20:31  5-MIN KDBQ 061120Z AUTO 19011KT 10SM SCT049 06/M03 A3018 840 53 0 180/11 RMK AO2 TSNO
94908KDBQ DBQ20011106052510411/06/01 05:25:31  5-MIN KDBQ 061125Z AUTO 18011KT 10SM SCT049 06/M03 A3018 840 51 0 180/11 RMK AO2 TSNO
94908KDBQ DBQ20011106053010411/06/01 05:30:31  5-MIN KDBQ 061130Z AUTO 19011KT 10SM SCT049 06/M03 A3018 840 51 0 190/11 RMK AO2 TSNO
94908KDBQ DBQ20011106053510411/06/01 05:35:31  5-MIN KDBQ 061135Z AUTO 19011KT 10SM SCT049 06/M03 A3018 840 51 0 190/11 RMK AO2 TSNO
94908KDBQ DBQ20011106054010411/06/01 05:40:31  5-MIN KDBQ 061140Z AUTO 19011KT 10SM SCT049 06/M03 A3018 840 51 0 190/11 RMK AO2 TSNO
94908KDBQ DBQ20011106054509411/06/01 05:45:31  5-MIN KDBQ 061145Z 19009KT 10SM FEW049 06/M03 A3018 840 53 0 190/09 RMK AO2
94908KDBQ DBQ20011106055012911/06/01 05:50:31  5-MIN KDBQ 061150Z 19010KT 10SM FEW049 06/M03 A3017 840 53 0 190/10 RMK AO2 SLP224 T00561033 10061 20044 56000
94908KDBQ DBQ20011106055512911/06/01 05:55:31  5-MIN KDBQ 061155Z 19010KT 10SM FEW047 06/M03 A3017 850 53 0 180/10 RMK AO2 SLP224 T00561033 10061 20044 58005
94908KDBQ DBQ20011106060009111/06/01 06:00:31  5-MIN KDBQ 061200Z 18009KT 10SM CLR 06/M03 A3017 850 53 0 180/09 RMK AO2
94908KDBQ DBQ20011106060509411/06/01 06:05:31  5-MIN KDBQ 061205Z 19009KT 10SM CLR 05/M03 A3017 850 57 -100 190/09 RMK AO2
94908KDBQ DBQ20011106061009411/06/01 06:10:31  5-MIN KDBQ 061210Z 19009KT 10SM CLR 05/M03 A3017 850 57 -100 190/09 RMK AO2
94908KDBQ DBQ20011106061509411/06/01 06:15:31  5-MIN KDBQ 061215Z 19010KT 10SM CLR 05/M03 A3017 850 57 -100 190/10 RMK AO2
94908KDBQ DBQ20011106062009411/06/01 06:20:31  5-MIN KDBQ 061220Z 19011KT 10SM CLR 05/M03 A3017 850 57 -100 190/11 RMK AO2
94908KDBQ DBQ20011106062509411/06/01 06:25:31  5-MIN KDBQ 061225Z 19011KT 10SM CLR 05/M03 A3017 850 57 -100 190/11 RMK AO2
94908KDBQ DBQ20011106063009411/06/01 06:30:31  5-MIN KDBQ 061230Z 19011KT 10SM CLR 05/M03 A3017 850 57 -100 190/11 RMK AO2
94908KDBQ DBQ20011106063509411/06/01 06:35:31  5-MIN KDBQ 061235Z 19011KT 10SM CLR 05/M03 A3017 850 57 -100 190/11 RMK AO2
94908KDBQ DBQ20011106064009411/06/01 06:40:31  5-MIN KDBQ 061240Z 19011KT 10SM CLR 05/M03 A3017 850 57 -100 190/11 RMK AO2
94908KDBQ DBQ20011106064509411/06/01 06:45:31  5-MIN KDBQ 061245Z 19011KT 10SM CLR 05/M03 A3017 850 57 -100 190/11 RMK AO2
94908KDBQ DBQ20011106065011111/06/01 06:50:31  5-MIN KDBQ 061250Z 19011KT 10SM CLR 05/M03 A3017 850 57 -100 190/11 RMK AO2 SLP224 T00501028
94908KDBQ DBQ20011106065511111/06/01 06:55:31  5-MIN KDBQ 061255Z 19011KT 10SM CLR 05/M03 A3017 850 57 -100 190/11 RMK AO2 SLP223 T00501028
94908KDBQ DBQ20011106070009411/06/01 07:00:31  5-MIN KDBQ 061300Z 19012KT 10SM CLR 05/M03 A3017 850 57 -100 190/12 RMK AO2
94908KDBQ DBQ20011106070509411/06/01 07:05:31  5-MIN KDBQ 061305Z 19012KT 10SM CLR 05/M03 A3017 850 57 -100 190/12 RMK AO2
94908KDBQ DBQ20011106071009411/06/01 07:10:31  5-MIN KDBQ 061310Z 19011KT 10SM CLR 05/M03 A3017 850 57 -100 190/11 RMK AO2
94908KDBQ DBQ20011106071509411/06/01 07:15:31  5-MIN KDBQ 061315Z 19012KT 10SM CLR 05/M03 A3017 850 57 -100 190/12 RMK AO2
94908KDBQ DBQ20011106072009311/06/01 07:20:31  5-MIN KDBQ 061320Z 19011KT 9SM CLR 05/M02 A3017 850 59 -100 190/11 RMK AO2
94908KDBQ DBQ20011106072509011/06/01 07:25:31  5-MIN KDBQ 061325Z 19012KT 8SM CLR 06/M02 A3017 850 57 0 190/12 RMK AO2
94908KDBQ DBQ20011106073009011/06/01 07:30:31  5-MIN KDBQ 061330Z 19011KT 8SM CLR 06/M02 A3017 850 57 0 190/11 RMK AO2
94908KDBQ DBQ20011106073509011/06/01 07:35:31  5-MIN KDBQ 061335Z 19012KT 9SM CLR 06/M02 A3017 850 57 0 190/12 RMK AO2
94908KDBQ DBQ20011106074009111/06/01 07:40:31  5-MIN KDBQ 061340Z 19011KT 10SM CLR 06/M02 A3017 850 55 0 190/11 RMK AO2
94908KDBQ DBQ20011106074509111/06/01 07:45:31  5-MIN KDBQ 061345Z 19011KT 10SM CLR 06/M02 A3017 850 55 0 190/11 RMK AO2
94908KDBQ DBQ20011106075011011/06/01 07:50:31  5-MIN KDBQ 061350Z 19011KT 10SM CLR 07/M02 A3017 850 53 100 190/11 RMK AO2 SLP225 T00671022
94908KDBQ DBQ20011106075511011/06/01 07:55:31  5-MIN KDBQ 061355Z 19011KT 10SM CLR 07/M02 A3017 840 53 100 190/11 RMK AO2 SLP225 T00671022
94908KDBQ DBQ20011106080009311/06/01 08:00:31  5-MIN KDBQ 061400Z 19011KT 10SM CLR 07/M02 A3017 840 51 200 190/11 RMK AO2
94908KDBQ DBQ20011106080509311/06/01 08:05:31  5-MIN KDBQ 061405Z 19012KT 10SM CLR 07/M02 A3018 840 51 100 190/12 RMK AO2
94908KDBQ DBQ20011106081009311/06/01 08:10:31  5-MIN KDBQ 061410Z 19013KT 10SM CLR 07/M02 A3017 850 51 200 190/13 RMK AO2
94908KDBQ DBQ20011106081509311/06/01 08:15:31  5-MIN KDBQ 061415Z 19013KT 10SM CLR 08/M02 A3018 840 49 200 190/13 RMK AO2
94908KDBQ DBQ20011106082009611/06/01 08:20:31  5-MIN KDBQ 061420Z 19013KT 10SM FEW033 08/M02 A3018 840 49 200 180/13 RMK AO2
94908KDBQ DBQ20011106082509611/06/01 08:25:31  5-MIN KDBQ 061425Z 19013KT 10SM FEW033 08/M02 A3018 840 49 300 190/13 RMK AO2
94908KDBQ DBQ20011106083009311/06/01 08:30:31  5-MIN KDBQ 061430Z 19013KT 10SM CLR 08/M02 A3018 840 49 300 190/13 RMK AO2
94908KDBQ DBQ20011106083509311/06/01 08:35:31  5-MIN KDBQ 061435Z 20011KT 10SM CLR 08/M01 A3018 840 51 300 200/11 RMK AO2
94908KDBQ DBQ20011106084009311/06/01 08:40:31  5-MIN KDBQ 061440Z 20012KT 10SM CLR 08/M01 A3018 840 51 300 200/12 RMK AO2
94908KDBQ DBQ20011106084509311/06/01 08:45:31  5-MIN KDBQ 061445Z 20012KT 10SM CLR 08/M01 A3017 850 51 300 190/12 RMK AO2
94908KDBQ DBQ20011106085011611/06/01 08:50:31  5-MIN KDBQ 061450Z 20012KT 10SM CLR 09/M01 A3017 840 51 400 200/12 RMK AO2 SLP223 T00891006 58005
94908KDBQ DBQ20011106085511611/06/01 08:55:31  5-MIN KDBQ 061455Z 19012KT 10SM CLR 09/M01 A3017 840 49 400 190/12 RMK AO2 SLP223 T00941006 53001
94908KDBQ DBQ20011106090009311/06/01 09:00:31  5-MIN KDBQ 061500Z 19012KT 10SM CLR 10/M01 A3017 850 47 500 190/12 RMK AO2
94908KDBQ DBQ20011106090509311/06/01 09:05:31  5-MIN KDBQ 061505Z 19014KT 10SM CLR 10/M01 A3017 850 47 500 190/14 RMK AO2
94908KDBQ DBQ20011106091009311/06/01 09:10:31  5-MIN KDBQ 061510Z 19013KT 10SM CLR 10/M01 A3018 840 47 500 190/13 RMK AO2
94908KDBQ DBQ20011106091509311/06/01 09:15:31  5-MIN KDBQ 061515Z 19013KT 10SM CLR 10/M01 A3018 840 47 500 190/13 RMK AO2
94908KDBQ DBQ20011106092009311/06/01 09:20:31  5-MIN KDBQ 061520Z 19013KT 10SM CLR 11/M01 A3018 840 46 600 190/13 RMK AO2
94908KDBQ DBQ20011106092509211/06/01 09:25:31  5-MIN KDBQ 061525Z 19013KT 10SM CLR 11/00 A3017 840 48 600 190/13 RMK AO2
94908KDBQ DBQ20011106093009211/06/01 09:30:31  5-MIN KDBQ 061530Z 19013KT 10SM CLR 11/00 A3017 840 46 600 190/13 RMK AO2
94908KDBQ DBQ20011106093509211/06/01 09:35:31  5-MIN KDBQ 061535Z 18014KT 10SM CLR 11/00 A3017 850 46 600 180/14 RMK AO2
94908KDBQ DBQ20011106094009211/06/01 09:40:31  5-MIN KDBQ 061540Z 19014KT 10SM CLR 11/01 A3017 850 48 600 190/14 RMK AO2
94908KDBQ DBQ20011106094509211/06/01 09:45:31  5-MIN KDBQ 061545Z 19015KT 10SM CLR 11/01 A3017 850 50 600 190/15 RMK AO2
94908KDBQ DBQ20011106095010911/06/01 09:50:31  5-MIN KDBQ 061550Z 19015KT 10SM CLR 12/01 A3017 850 48 700 190/15 RMK AO2 SLP221 T01170011
94908KDBQ DBQ20011106095511211/06/01 09:55:31  5-MIN KDBQ 061555Z 19014KT 10SM FEW035 12/02 A3017 850 50 700 180/14 RMK AO2 SLP221 T01170017
94908KDBQ DBQ20011106100009511/06/01 10:00:31  5-MIN KDBQ 061600Z 19015KT 10SM FEW037 12/02 A3017 850 50 700 180/15 RMK AO2
94908KDBQ DBQ20011106100509511/06/01 10:05:31  5-MIN KDBQ 061605Z 19014KT 10SM SCT037 12/02 A3017 850 50 800 190/14 RMK AO2
94908KDBQ DBQ20011106101009511/06/01 10:10:31  5-MIN KDBQ 061610Z 18015KT 10SM BKN039 13/03 A3017 850 50 800 180/15 RMK AO2
94908KDBQ DBQ20011106101509511/06/01 10:15:31  5-MIN KDBQ 061615Z 19013KT 10SM BKN039 13/03 A3017 850 50 800 190/13 RMK AO2
94908KDBQ DBQ20011106102009511/06/01 10:20:31  5-MIN KDBQ 061620Z 19013KT 10SM BKN039 13/03 A3017 850 50 900 190/13 RMK AO2
94908KDBQ DBQ20011106102509511/06/01 10:25:31  5-MIN KDBQ 061625Z 19012KT 10SM BKN039 13/03 A3017 850 50 900 190/12 RMK AO2
94908KDBQ DBQ20011106103009511/06/01 10:30:31  5-MIN KDBQ 061630Z 19015KT 10SM BKN039 13/03 A3016 850 50 900 190/15 RMK AO2
94908KDBQ DBQ20011106103509611/06/01 10:35:31  5-MIN KDBQ 061635Z 19014KT 10SM BKN041 14/04 A3017 850 50 1000 190/14 RMK AO2
94908KDBQ DBQ20011106104009611/06/01 10:40:31  5-MIN KDBQ 061640Z 19015KT 10SM SCT041 14/04 A3016 850 52 1000 190/15 RMK AO2
94908KDBQ DBQ20011106104509611/06/01 10:45:31  5-MIN KDBQ 061645Z 20014KT 10SM FEW041 14/04 A3016 850 52 1000 190/14 RMK AO2
94908KDBQ DBQ20011106105011311/06/01 10:50:31  5-MIN KDBQ 061650Z 19013KT 10SM FEW039 14/04 A3016 850 51 1000 190/13 RMK AO2 SLP219 T01440044
94908KDBQ DBQ20011106105511011/06/01 10:55:31  5-MIN KDBQ 061655Z 19015KT 10SM CLR 14/04 A3016 860 51 1000 190/15 RMK AO2 SLP218 T01440044
94908KDBQ DBQ20011106110009311/06/01 11:00:31  5-MIN KDBQ 061700Z 19014KT 10SM CLR 14/04 A3016 860 51 1000 190/14 RMK AO2
94908KDBQ DBQ20011106110509311/06/01 11:05:31  5-MIN KDBQ 061705Z 19013KT 10SM CLR 14/05 A3016 860 53 1000 190/13 RMK AO2
94908KDBQ DBQ20011106111009311/06/01 11:10:31  5-MIN KDBQ 061710Z 19014KT 10SM CLR 15/05 A3016 860 51 1100 190/14 RMK AO2
94908KDBQ DBQ20011106111509311/06/01 11:15:31  5-MIN KDBQ 061715Z 20014KT 10SM CLR 15/05 A3015 860 51 1100 200/14 RMK AO2
94908KDBQ DBQ20011106112009311/06/01 11:20:31  5-MIN KDBQ 061720Z 20012KT 10SM CLR 16/06 A3016 860 51 1200 200/12 RMK AO2
94908KDBQ DBQ20011106112509311/06/01 11:25:31  5-MIN KDBQ 061725Z 20011KT 10SM CLR 16/06 A3015 860 51 1200 200/11 RMK AO2
94908KDBQ DBQ20011106113009311/06/01 11:30:31  5-MIN KDBQ 061730Z 19015KT 10SM CLR 16/06 A3015 870 53 1200 190/15 RMK AO2
94908KDBQ DBQ20011106113509311/06/01 11:35:31  5-MIN KDBQ 061735Z 20014KT 10SM CLR 16/06 A3015 870 53 1200 200/14 RMK AO2
94908KDBQ DBQ20011106114009311/06/01 11:40:31  5-MIN KDBQ 061740Z 19013KT 10SM CLR 16/06 A3015 870 51 1200 190/13 RMK AO2
94908KDBQ DBQ20011106114509311/06/01 11:45:31  5-MIN KDBQ 061745Z 20013KT 10SM CLR 16/06 A3014 870 51 1200 190/13 RMK AO2
94908KDBQ DBQ20011106115012811/06/01 11:50:31  5-MIN KDBQ 061750Z 20014KT 10SM CLR 17/07 A3014 870 51 1300 200/14 RMK AO2 SLP210 T01670067 10167 20050 53001
94908KDBQ DBQ20011106115512811/06/01 11:55:31  5-MIN KDBQ 061755Z 20015KT 10SM CLR 17/07 A3014 880 53 1300 200/15 RMK AO2 SLP209 T01670072 10167 20050 58012
94908KDBQ DBQ20011106120009311/06/01 12:00:31  5-MIN KDBQ 061800Z 20014KT 10SM CLR 17/07 A3014 880 51 1400 200/14 RMK AO2
94908KDBQ DBQ20011106120509311/06/01 12:05:31  5-MIN KDBQ 061805Z 20014KT 10SM CLR 17/08 A3013 880 53 1400 200/14 RMK AO2
94908KDBQ DBQ20011106121009311/06/01 12:10:31  5-MIN KDBQ 061810Z 20014KT 10SM CLR 17/07 A3013 880 51 1400 200/14 RMK AO2
94908KDBQ DBQ20011106121509311/06/01 12:15:31  5-MIN KDBQ 061815Z 20015KT 10SM CLR 17/08 A3013 880 53 1400 200/15 RMK AO2
94908KDBQ DBQ20011106122009311/06/01 12:20:31  5-MIN KDBQ 061820Z 21013KT 10SM CLR 17/08 A3013 880 53 1400 210/13 RMK AO2
94908KDBQ DBQ20011106122509311/06/01 12:25:31  5-MIN KDBQ 061825Z 21012KT 10SM CLR 18/08 A3013 890 51 1500 210/12 RMK AO2
94908KDBQ DBQ20011106123009311/06/01 12:30:31  5-MIN KDBQ 061830Z 21012KT 10SM CLR 18/08 A3013 890 53 1500 200/12 RMK AO2
94908KDBQ DBQ20011106123509311/06/01 12:35:31  5-MIN KDBQ 061835Z 20013KT 10SM CLR 18/08 A3012 890 53 1500 200/13 RMK AO2
94908KDBQ DBQ20011106124009311/06/01 12:40:31  5-MIN KDBQ 061840Z 21013KT 10SM CLR 18/08 A3013 890 53 1500 210/13 RMK AO2
94908KDBQ DBQ20011106124509311/06/01 12:45:31  5-MIN KDBQ 061845Z 21012KT 10SM CLR 18/08 A3012 890 52 1500 210/12 RMK AO2
94908KDBQ DBQ20011106125011011/06/01 12:50:31  5-MIN KDBQ 061850Z 20015KT 10SM CLR 18/09 A3012 890 54 1500 200/15 RMK AO2 SLP203 T01830089
94908KDBQ DBQ20011106125511011/06/01 12:55:31  5-MIN KDBQ 061855Z 20014KT 10SM CLR 18/09 A3012 890 54 1500 200/14 RMK AO2 SLP203 T01830089
94908KDBQ DBQ20011106130009311/06/01 13:00:31  5-MIN KDBQ 061900Z 21011KT 10SM CLR 19/09 A3012 900 54 1600 200/11 RMK AO2
94908KDBQ DBQ20011106130509311/06/01 13:05:31  5-MIN KDBQ 061905Z 21013KT 10SM CLR 19/09 A3012 900 52 1600 210/13 RMK AO2
94908KDBQ DBQ20011106131009311/06/01 13:10:31  5-MIN KDBQ 061910Z 20014KT 10SM CLR 19/09 A3012 890 54 1600 200/14 RMK AO2
94908KDBQ DBQ20011106131509311/06/01 13:15:31  5-MIN KDBQ 061915Z 20016KT 10SM CLR 19/09 A3012 900 54 1600 200/16 RMK AO2
94908KDBQ DBQ20011106132009311/06/01 13:20:31  5-MIN KDBQ 061920Z 21013KT 10SM CLR 19/09 A3011 900 54 1600 210/13 RMK AO2
94908KDBQ DBQ20011106132509311/06/01 13:25:31  5-MIN KDBQ 061925Z 20012KT 10SM CLR 19/09 A3011 900 54 1600 200/12 RMK AO2
94908KDBQ DBQ20011106133009911/06/01 13:30:31  5-MIN KDBQ 061930Z 20015G19KT 10SM CLR 19/09 A3011 900 52 1700 200/15G19 RMK AO2
94908KDBQ DBQ20011106133509311/06/01 13:35:31  5-MIN KDBQ 061935Z 19013KT 10SM CLR 19/09 A3011 910 52 1700 190/13 RMK AO2
94908KDBQ DBQ20011106134009311/06/01 13:40:31  5-MIN KDBQ 061940Z 21015KT 10SM CLR 19/09 A3010 910 52 1700 200/15 RMK AO2
94908KDBQ DBQ20011106134509311/06/01 13:45:31  5-MIN KDBQ 061945Z 21014KT 10SM CLR 19/09 A3010 910 52 1700 210/14 RMK AO2
94908KDBQ DBQ20011106135011011/06/01 13:50:31  5-MIN KDBQ 061950Z 21015KT 10SM CLR 19/10 A3010 920 54 1700 210/15 RMK AO2 SLP194 T01940100
94908KDBQ DBQ20011106135511011/06/01 13:55:31  5-MIN KDBQ 061955Z 19015KT 10SM CLR 19/10 A3010 910 54 1700 190/15 RMK AO2 SLP194 T01940100
94908KDBQ DBQ20011106140009311/06/01 14:00:31  5-MIN KDBQ 062000Z 20015KT 10SM CLR 19/10 A3010 910 54 1700 200/15 RMK AO2
94908KDBQ DBQ20011106140509311/06/01 14:05:31  5-MIN KDBQ 062005Z 20015KT 10SM CLR 19/10 A3010 910 54 1700 200/15 RMK AO2
94908KDBQ DBQ20011106141009311/06/01 14:10:31  5-MIN KDBQ 062010Z 19015KT 10SM CLR 19/10 A3010 910 54 1700 190/15 RMK AO2
94908KDBQ DBQ20011106181009311/06/01 18:10:31  5-MIN KDBQ 070010Z 19010KT 10SM CLR 15/09 A3012 900 69 1100 180/10 RMK AO2
94908KDBQ DBQ20011106181509311/06/01 18:15:31  5-MIN KDBQ 070015Z 19010KT 10SM CLR 14/09 A3012 900 72 1100 180/10 RMK AO2
94908KDBQ DBQ20011106182009311/06/01 18:20:31  5-MIN KDBQ 070020Z 18010KT 10SM CLR 14/09 A3012 900 72 1100 180/10 RMK AO2
94908KDBQ DBQ20011106182509311/06/01 18:25:31  5-MIN KDBQ 070025Z 19009KT 10SM CLR 14/09 A3012 890 72 1100 190/09 RMK AO2
94908KDBQ DBQ20011106183009311/06/01 18:30:31  5-MIN KDBQ 070030Z 19010KT 10SM CLR 14/09 A3012 890 74 1000 190/10 RMK AO2
94908KDBQ DBQ20011106183509311/06/01 18:35:31  5-MIN KDBQ 070035Z 20010KT 10SM CLR 14/09 A3012 890 74 1000 190/10 RMK AO2
94908KDBQ DBQ20011106184009211/06/01 18:40:31  5-MIN KDBQ 070040Z 20009KT 10SM CLR 13/09 A3012 890 77 900 200/09 RMK AO2
94908KDBQ DBQ20011106184509211/06/01 18:45:31  5-MIN KDBQ 070045Z 20010KT 10SM CLR 13/09 A3012 890 77 900 200/10 RMK AO2
94908KDBQ DBQ20011106185010911/06/01 18:50:31  5-MIN KDBQ 070050Z 20010KT 10SM CLR 13/09 A3012 900 77 900 200/10 RMK AO2 SLP203 T01330094
94908KDBQ DBQ20011106185510911/06/01 18:55:31  5-MIN KDBQ 070055Z 20010KT 10SM CLR 13/09 A3012 890 77 900 200/10 RMK AO2 SLP204 T01330094
94908KDBQ DBQ20011106190009211/06/01 19:00:31  5-MIN KDBQ 070100Z 20010KT 10SM CLR 13/09 A3012 900 77 900 200/10 RMK AO2
94908KDBQ DBQ20011106190509211/06/01 19:05:31  5-MIN KDBQ 070105Z 20011KT 10SM CLR 13/09 A3012 900 77 900 200/11 RMK AO2
94908KDBQ DBQ20011106191009211/06/01 19:10:31  5-MIN KDBQ 070110Z 20010KT 10SM CLR 13/09 A3012 900 77 900 200/10 RMK AO2
94908KDBQ DBQ20011106191509311/06/01 19:15:31  5-MIN KDBQ 070115Z 21010KT 10SM CLR 14/09 A3012 890 74 1000 200/10 RMK AO2
94908KDBQ DBQ20011106192009311/06/01 19:20:31  5-MIN KDBQ 070120Z 20010KT 10SM CLR 14/09 A3012 900 74 1000 200/10 RMK AO2
94908KDBQ DBQ20011106192509211/06/01 19:25:31  5-MIN KDBQ 070125Z 20010KT 10SM CLR 13/09 A3012 900 77 900 200/10 RMK AO2
94908KDBQ DBQ20011106193009211/06/01 19:30:31  5-MIN KDBQ 070130Z 20011KT 10SM CLR 13/09 A3012 900 77 900 200/11 RMK AO2
94908KDBQ DBQ20011106193509211/06/01 19:35:31  5-MIN KDBQ 070135Z 20010KT 10SM CLR 13/09 A3012 890 77 900 200/10 RMK AO2
94908KDBQ DBQ20011106194009211/06/01 19:40:31  5-MIN KDBQ 070140Z 20010KT 10SM CLR 13/09 A3012 890 77 900 200/10 RMK AO2
94908KDBQ DBQ20011106194509211/06/01 19:45:31  5-MIN KDBQ 070145Z 20011KT 10SM CLR 13/09 A3012 890 77 900 200/11 RMK AO2
94908KDBQ DBQ20011106195010911/06/01 19:50:31  5-MIN KDBQ 070150Z 20010KT 10SM CLR 13/09 A3012 890 77 900 200/10 RMK AO2 SLP205 T01330094
94908KDBQ DBQ20011106195511911/06/01 19:55:31  5-MIN KDBQ 070155Z AUTO 20009KT 10SM CLR 13/09 A3012 890 77 900 200/09 RMK AO2 SLP205 T01280089 TSNO
94908KDBQ DBQ20011106200010211/06/01 20:00:31  5-MIN KDBQ 070200Z AUTO 20009KT 10SM CLR 13/09 A3012 890 77 900 200/09 RMK AO2 TSNO
94908KDBQ DBQ20011106200510211/06/01 20:05:31  5-MIN KDBQ 070205Z AUTO 20010KT 10SM CLR 13/09 A3012 890 77 900 200/10 RMK AO2 TSNO
94908KDBQ DBQ20011106201010211/06/01 20:10:31  5-MIN KDBQ 070210Z AUTO 21010KT 10SM CLR 13/09 A3013 890 77 900 200/10 RMK AO2 TSNO
94908KDBQ DBQ20011106201510211/06/01 20:15:31  5-MIN KDBQ 070215Z AUTO 20009KT 10SM CLR 13/09 A3013 890 77 900 200/09 RMK AO2 TSNO
94908KDBQ DBQ20011106202010211/06/01 20:20:31  5-MIN KDBQ 070220Z AUTO 20009KT 10SM CLR 13/09 A3013 890 77 900 200/09 RMK AO2 TSNO
94908KDBQ DBQ20011106202510211/06/01 20:25:31  5-MIN KDBQ 070225Z AUTO 20009KT 10SM CLR 13/09 A3013 890 77 900 200/09 RMK AO2 TSNO
94908KDBQ DBQ20011106203010211/06/01 20:30:31  5-MIN KDBQ 070230Z AUTO 20008KT 10SM CLR 12/09 A3013 890 80 800 200/08 RMK AO2 TSNO
94908KDBQ DBQ20011106203510211/06/01 20:35:31  5-MIN KDBQ 070235Z AUTO 20009KT 10SM CLR 12/09 A3013 890 80 800 190/09 RMK AO2 TSNO
94908KDBQ DBQ20011106204010211/06/01 20:40:31  5-MIN KDBQ 070240Z AUTO 19009KT 10SM CLR 12/09 A3013 890 83 700 190/09 RMK AO2 TSNO
94908KDBQ DBQ20011106204510211/06/01 20:45:31  5-MIN KDBQ 070245Z AUTO 20008KT 10SM CLR 12/09 A3013 880 83 700 200/08 RMK AO2 TSNO
94908KDBQ DBQ20011106205012511/06/01 20:50:31  5-MIN KDBQ 070250Z AUTO 20008KT 10SM CLR 12/08 A3013 880 80 700 200/08 RMK AO2 SLP208 T01170083 50008 TSNO
94908KDBQ DBQ20011106205512511/06/01 20:55:31  5-MIN KDBQ 070255Z AUTO 20007KT 10SM CLR 12/09 A3014 880 83 700 200/07 RMK AO2 SLP209 T01170089 53007 TSNO
94908KDBQ DBQ20011106210010211/06/01 21:00:31  5-MIN KDBQ 070300Z AUTO 19006KT 10SM CLR 12/09 A3014 870 83 700 190/06 RMK AO2 TSNO
94908KDBQ DBQ20011106210510211/06/01 21:05:31  5-MIN KDBQ 070305Z AUTO 18005KT 10SM CLR 12/09 A3014 870 80 800 180/05 RMK AO2 TSNO
94908KDBQ DBQ20011106211010211/06/01 21:10:31  5-MIN KDBQ 070310Z AUTO 18005KT 10SM CLR 12/09 A3014 870 80 800 180/05 RMK AO2 TSNO
94908KDBQ DBQ20011106211510211/06/01 21:15:31  5-MIN KDBQ 070315Z AUTO 17005KT 10SM CLR 12/09 A3015 870 80 800 170/05 RMK AO2 TSNO
94908KDBQ DBQ20011106212010211/06/01 21:20:31  5-MIN KDBQ 070320Z AUTO 17006KT 10SM CLR 12/08 A3015 870 80 700 170/06 RMK AO2 TSNO
94908KDBQ DBQ20011106212510211/06/01 21:25:31  5-MIN KDBQ 070325Z AUTO 17006KT 10SM CLR 12/08 A3015 870 80 700 170/06 RMK AO2 TSNO
94908KDBQ DBQ20011106213010211/06/01 21:30:31  5-MIN KDBQ 070330Z AUTO 18006KT 10SM CLR 12/08 A3015 870 80 700 180/06 RMK AO2 TSNO
94908KDBQ DBQ20011106213510211/06/01 21:35:31  5-MIN KDBQ 070335Z AUTO 18007KT 10SM CLR 12/08 A3015 870 80 700 180/07 RMK AO2 TSNO
94908KDBQ DBQ20011106214010511/06/01 21:40:31  5-MIN KDBQ 070340Z AUTO 18007KT 10SM SCT045 11/08 A3015 870 83 600 180/07 RMK AO2 TSNO
94908KDBQ DBQ20011106214510511/06/01 21:45:31  5-MIN KDBQ 070345Z AUTO 18007KT 10SM BKN043 12/08 A3015 870 80 700 180/07 RMK AO2 TSNO
94908KDBQ DBQ20011106215012211/06/01 21:50:31  5-MIN KDBQ 070350Z AUTO 18008KT 10SM BKN043 12/09 A3015 870 80 800 180/08 RMK AO2 SLP212 T01220089 TSNO
94908KDBQ DBQ20011106215512211/06/01 21:55:31  5-MIN KDBQ 070355Z AUTO 19008KT 10SM BKN043 13/09 A3015 870 77 800 190/08 RMK AO2 SLP212 T01280089 TSNO
94908KDBQ DBQ20011106220010511/06/01 22:00:31  5-MIN KDBQ 070400Z AUTO 19008KT 10SM OVC043 13/09 A3015 870 77 800 190/08 RMK AO2 TSNO
94908KDBQ DBQ20011106220510511/06/01 22:05:31  5-MIN KDBQ 070405Z AUTO 19008KT 10SM OVC045 13/09 A3015 870 80 800 190/08 RMK AO2 TSNO
94908KDBQ DBQ20011106221010511/06/01 22:10:31  5-MIN KDBQ 070410Z AUTO 19008KT 10SM OVC045 13/09 A3015 870 80 800 190/08 RMK AO2 TSNO
94908KDBQ DBQ20011106221510511/06/01 22:15:31  5-MIN KDBQ 070415Z AUTO 19008KT 10SM OVC045 13/09 A3015 870 80 800 190/08 RMK AO2 TSNO
94908KDBQ DBQ20011106222010511/06/01 22:20:31  5-MIN KDBQ 070420Z AUTO 19008KT 10SM OVC045 13/09 A3015 870 77 900 190/08 RMK AO2 TSNO
94908KDBQ DBQ20011106222510511/06/01 22:25:31  5-MIN KDBQ 070425Z AUTO 19008KT 10SM OVC047 13/09 A3015 870 77 900 190/08 RMK AO2 TSNO
94908KDBQ DBQ20011106223010511/06/01 22:30:31  5-MIN KDBQ 070430Z AUTO 19008KT 10SM OVC047 13/09 A3015 870 77 900 190/08 RMK AO2 TSNO
94908KDBQ DBQ20011106223510511/06/01 22:35:31  5-MIN KDBQ 070435Z AUTO 19008KT 10SM OVC047 13/09 A3015 870 74 900 190/08 RMK AO2 TSNO
94908KDBQ DBQ20011106224010511/06/01 22:40:31  5-MIN KDBQ 070440Z AUTO 19008KT 10SM OVC047 13/09 A3015 870 74 900 190/08 RMK AO2 TSNO
94908KDBQ DBQ20011106224510511/06/01 22:45:31  5-MIN KDBQ 070445Z AUTO 19008KT 10SM OVC049 13/09 A3014 870 74 900 190/08 RMK AO2 TSNO
94908KDBQ DBQ20011106225012211/06/01 22:50:31  5-MIN KDBQ 070450Z AUTO 19008KT 10SM OVC049 13/09 A3014 870 74 900 190/08 RMK AO2 SLP209 T01330089 TSNO
94908KDBQ DBQ20011106225512211/06/01 22:55:31  5-MIN KDBQ 070455Z AUTO 19008KT 10SM OVC049 13/09 A3014 870 74 900 190/08 RMK AO2 SLP209 T01330089 TSNO
94908KDBQ DBQ20011106230010511/06/01 23:00:31  5-MIN KDBQ 070500Z AUTO 19008KT 10SM OVC049 13/09 A3014 870 74 900 190/08 RMK AO2 TSNO
94908KDBQ DBQ20011106230510511/06/01 23:05:31  5-MIN KDBQ 070505Z AUTO 19008KT 10SM OVC049 13/09 A3014 870 74 900 190/08 RMK AO2 TSNO
94908KDBQ DBQ20011106231010511/06/01 23:10:31  5-MIN KDBQ 070510Z AUTO 19008KT 10SM OVC049 13/09 A3014 870 74 900 190/08 RMK AO2 TSNO
94908KDBQ DBQ20011106231510511/06/01 23:15:31  5-MIN KDBQ 070515Z AUTO 19008KT 10SM OVC049 13/09 A3014 870 74 900 190/08 RMK AO2 TSNO
94908KDBQ DBQ20011106232010511/06/01 23:20:31  5-MIN KDBQ 070520Z AUTO 19008KT 10SM OVC049 13/09 A3014 870 74 900 190/08 RMK AO2 TSNO
94908KDBQ DBQ20011106232510511/06/01 23:25:31  5-MIN KDBQ 070525Z AUTO 19008KT 10SM OVC049 13/09 A3014 870 74 900 190/08 RMK AO2 TSNO
94908KDBQ DBQ20011106233010511/06/01 23:30:31  5-MIN KDBQ 070530Z AUTO 19008KT 10SM OVC049 13/09 A3014 870 74 900 190/08 RMK AO2 TSNO
94908KDBQ DBQ20011106233510511/06/01 23:35:31  5-MIN KDBQ 070535Z AUTO 19008KT 10SM OVC049 13/09 A3014 870 74 900 190/08 RMK AO2 TSNO
94908KDBQ DBQ20011106234010511/06/01 23:40:31  5-MIN KDBQ 070540Z AUTO 19007KT 10SM OVC049 13/09 A3014 870 74 900 190/07 RMK AO2 TSNO
94908KDBQ DBQ20011106234510511/06/01 23:45:31  5-MIN KDBQ 070545Z AUTO 19007KT 10SM OVC049 13/09 A3014 870 74 900 190/07 RMK AO2 TSNO
94908KDBQ DBQ20011106235015011/06/01 23:50:31  5-MIN KDBQ 070550Z AUTO 20007KT 10SM OVC049 13/09 A3014 870 74 900 190/07 RMK AO2 SLP208 T01330089 10150 20111 401940044 53007 TSNO
94908KDBQ DBQ20011106235515011/06/01 23:55:31  5-MIN KDBQ 070555Z AUTO 19008KT 10SM OVC049 13/09 A3014 870 74 900 190/08 RMK AO2 SLP208 T01330089 10150 20111 401940044 51002 TSNO
94908KDBQ DBQ20011107000010511/07/01 00:00:31  5-MIN KDBQ 070600Z AUTO 19008KT 10SM OVC049 13/09 A3014 870 74 900 190/08 RMK AO2 TSNO
94908KDBQ DBQ20011107000510511/07/01 00:05:31  5-MIN KDBQ 070605Z AUTO 20008KT 10SM OVC049 13/09 A3014 870 74 900 190/08 RMK AO2 TSNO
94908KDBQ DBQ20011107001010511/07/01 00:10:31  5-MIN KDBQ 070610Z AUTO 20008KT 10SM OVC049 13/09 A3014 870 74 900 190/08 RMK AO2 TSNO
94908KDBQ DBQ20011107001510511/07/01 00:15:31  5-MIN KDBQ 070615Z AUTO 19008KT 10SM OVC049 13/09 A3014 870 74 900 190/08 RMK AO2 TSNO
94908KDBQ DBQ20011107002010511/07/01 00:20:31  5-MIN KDBQ 070620Z AUTO 19007KT 10SM OVC049 13/09 A3014 870 74 900 190/07 RMK AO2 TSNO
94908KDBQ DBQ20011107002510511/07/01 00:25:31  5-MIN KDBQ 070625Z AUTO 19007KT 10SM OVC049 13/09 A3014 870 74 900 190/07 RMK AO2 TSNO
94908KDBQ DBQ20011107003010511/07/01 00:30:31  5-MIN KDBQ 070630Z AUTO 19007KT 10SM OVC049 13/09 A3014 870 74 900 190/07 RMK AO2 TSNO
94908KDBQ DBQ20011107003510511/07/01 00:35:31  5-MIN KDBQ 070635Z AUTO 19007KT 10SM OVC049 13/09 A3014 870 74 900 190/07 RMK AO2 TSNO
94908KDBQ DBQ20011107004010511/07/01 00:40:31  5-MIN KDBQ 070640Z AUTO 19008KT 10SM OVC049 13/09 A3014 870 74 900 190/08 RMK AO2 TSNO
94908KDBQ DBQ20011107004510511/07/01 00:45:31  5-MIN KDBQ 070645Z AUTO 19007KT 10SM OVC049 13/09 A3014 870 74 900 190/07 RMK AO2 TSNO
94908KDBQ DBQ20011107005012211/07/01 00:50:31  5-MIN KDBQ 070650Z AUTO 19008KT 10SM OVC049 13/09 A3014 870 74 900 190/08 RMK AO2 SLP207 T01330089 TSNO
94908KDBQ DBQ20011107005512211/07/01 00:55:31  5-MIN KDBQ 070655Z AUTO 19007KT 10SM OVC049 13/09 A3014 870 74 900 190/07 RMK AO2 SLP206 T01330089 TSNO
94908KDBQ DBQ20011107010010511/07/01 01:00:31  5-MIN KDBQ 070700Z AUTO 19008KT 10SM OVC049 13/09 A3014 870 74 900 190/08 RMK AO2 TSNO
94908KDBQ DBQ20011107010510511/07/01 01:05:31  5-MIN KDBQ 070705Z AUTO 19008KT 10SM OVC049 13/09 A3014 870 74 900 190/08 RMK AO2 TSNO
94908KDBQ DBQ20011107011010511/07/01 01:10:31  5-MIN KDBQ 070710Z AUTO 19008KT 10SM OVC049 13/09 A3014 870 74 900 190/08 RMK AO2 TSNO
94908KDBQ DBQ20011107011510511/07/01 01:15:31  5-MIN KDBQ 070715Z AUTO 19007KT 10SM OVC049 13/09 A3014 870 74 900 190/07 RMK AO2 TSNO
94908KDBQ DBQ20011107012010511/07/01 01:20:31  5-MIN KDBQ 070720Z AUTO 19007KT 10SM OVC049 13/09 A3014 870 77 900 190/07 RMK AO2 TSNO
94908KDBQ DBQ20011107012510511/07/01 01:25:31  5-MIN KDBQ 070725Z AUTO 19008KT 10SM OVC049 13/09 A3014 870 77 900 190/08 RMK AO2 TSNO
94908KDBQ DBQ20011107013010511/07/01 01:30:31  5-MIN KDBQ 070730Z AUTO 19008KT 10SM OVC049 13/09 A3014 870 77 900 190/08 RMK AO2 TSNO
94908KDBQ DBQ20011107013510511/07/01 01:35:31  5-MIN KDBQ 070735Z AUTO 20008KT 10SM OVC049 13/09 A3015 870 77 900 190/08 RMK AO2 TSNO
94908KDBQ DBQ20011107014010511/07/01 01:40:31  5-MIN KDBQ 070740Z AUTO 20007KT 10SM OVC049 13/09 A3015 870 77 800 200/07 RMK AO2 TSNO
94908KDBQ DBQ20011107014510511/07/01 01:45:31  5-MIN KDBQ 070745Z AUTO 20007KT 10SM OVC049 13/09 A3015 870 77 800 190/07 RMK AO2 TSNO
94908KDBQ DBQ20011107015012211/07/01 01:50:31  5-MIN KDBQ 070750Z AUTO 19007KT 10SM OVC049 13/09 A3015 870 77 800 190/07 RMK AO2 SLP209 T01280089 TSNO
94908KDBQ DBQ20011107015512211/07/01 01:55:31  5-MIN KDBQ 070755Z AUTO 19007KT 10SM OVC049 13/09 A3015 870 77 800 190/07 RMK AO2 SLP209 T01280089 TSNO
94908KDBQ DBQ20011107020010511/07/01 02:00:31  5-MIN KDBQ 070800Z AUTO 19007KT 10SM OVC049 12/09 A3015 870 80 800 190/07 RMK AO2 TSNO
94908KDBQ DBQ20011107020510511/07/01 02:05:31  5-MIN KDBQ 070805Z AUTO 20007KT 10SM OVC049 12/09 A3015 870 80 800 200/07 RMK AO2 TSNO
94908KDBQ DBQ20011107021010511/07/01 02:10:31  5-MIN KDBQ 070810Z AUTO 20007KT 10SM OVC049 12/09 A3015 870 80 800 200/07 RMK AO2 TSNO
94908KDBQ DBQ20011107021510511/07/01 02:15:31  5-MIN KDBQ 070815Z AUTO 20007KT 10SM OVC049 12/09 A3015 870 80 800 200/07 RMK AO2 TSNO
94908KDBQ DBQ20011107022010511/07/01 02:20:31  5-MIN KDBQ 070820Z AUTO 20007KT 10SM OVC049 12/09 A3015 870 83 700 200/07 RMK AO2 TSNO
94908KDBQ DBQ20011107022510511/07/01 02:25:31  5-MIN KDBQ 070825Z AUTO 20007KT 10SM OVC049 12/08 A3015 870 80 700 190/07 RMK AO2 TSNO
94908KDBQ DBQ20011107023010511/07/01 02:30:31  5-MIN KDBQ 070830Z AUTO 20007KT 10SM BKN049 11/08 A3015 870 83 700 190/07 RMK AO2 TSNO
94908KDBQ DBQ20011107023510511/07/01 02:35:31  5-MIN KDBQ 070835Z AUTO 19007KT 10SM BKN049 11/08 A3015 870 83 700 190/07 RMK AO2 TSNO
94908KDBQ DBQ20011107024010511/07/01 02:40:31  5-MIN KDBQ 070840Z AUTO 19007KT 10SM SCT049 11/08 A3015 870 86 600 190/07 RMK AO2 TSNO
94908KDBQ DBQ20011107024510511/07/01 02:45:31  5-MIN KDBQ 070845Z AUTO 19007KT 10SM FEW049 10/08 A3015 870 86 500 190/07 RMK AO2 TSNO
94908KDBQ DBQ20011107025012811/07/01 02:50:31  5-MIN KDBQ 070850Z AUTO 20007KT 10SM FEW055 11/08 A3015 870 83 600 200/07 RMK AO2 SLP209 T01060078 51002 TSNO
94908KDBQ DBQ20011107025512511/07/01 02:55:31  5-MIN KDBQ 070855Z AUTO 20007KT 10SM CLR 11/08 A3014 870 83 600 200/07 RMK AO2 SLP208 T01060078 50000 TSNO
94908KDBQ DBQ20011107030010511/07/01 03:00:31  5-MIN KDBQ 070900Z AUTO 20007KT 10SM FEW060 11/08 A3014 870 83 600 200/07 RMK AO2 TSNO
94908KDBQ DBQ20011107030510511/07/01 03:05:31  5-MIN KDBQ 070905Z AUTO 20007KT 10SM SCT060 11/08 A3014 870 86 600 200/07 RMK AO2 TSNO
94908KDBQ DBQ20011107031010511/07/01 03:10:31  5-MIN KDBQ 070910Z AUTO 20007KT 10SM SCT060 11/08 A3014 870 86 600 200/07 RMK AO2 TSNO
94908KDBQ DBQ20011107031510511/07/01 03:15:31  5-MIN KDBQ 070915Z AUTO 20007KT 10SM BKN055 11/08 A3014 870 83 700 200/07 RMK AO2 TSNO
94908KDBQ DBQ20011107032010511/07/01 03:20:31  5-MIN KDBQ 070920Z AUTO 20007KT 10SM BKN055 11/08 A3014 870 83 700 200/07 RMK AO2 TSNO
94908KDBQ DBQ20011107032511211/07/01 03:25:31  5-MIN KDBQ 070925Z AUTO 20007KT 10SM BKN055 BKN090 11/08 A3014 870 83 700 200/07 RMK AO2 TSNO
94908KDBQ DBQ20011107033011211/07/01 03:30:31  5-MIN KDBQ 070930Z AUTO 20007KT 10SM SCT055 BKN090 11/08 A3014 880 86 600 200/07 RMK AO2 TSNO
94908KDBQ DBQ20011107033511211/07/01 03:35:31  5-MIN KDBQ 070935Z AUTO 20007KT 10SM SCT055 BKN090 11/08 A3014 870 86 600 200/07 RMK AO2 TSNO
94908KDBQ DBQ20011107034011211/07/01 03:40:31  5-MIN KDBQ 070940Z AUTO 20007KT 10SM FEW055 BKN090 11/08 A3014 870 86 600 190/07 RMK AO2 TSNO
94908KDBQ DBQ20011107034511211/07/01 03:45:31  5-MIN KDBQ 070945Z AUTO 19008KT 10SM FEW050 BKN090 11/08 A3014 870 86 600 190/08 RMK AO2 TSNO
94908KDBQ DBQ20011107035012211/07/01 03:50:31  5-MIN KDBQ 070950Z AUTO 19008KT 10SM BKN090 11/08 A3014 870 83 600 190/08 RMK AO2 SLP207 T01060078 TSNO
94908KDBQ DBQ20011107035512211/07/01 03:55:31  5-MIN KDBQ 070955Z AUTO 20007KT 10SM SCT090 10/08 A3014 870 86 500 200/07 RMK AO2 SLP208 T01000078 TSNO
94908KDBQ DBQ20011107040010511/07/01 04:00:31  5-MIN KDBQ 071000Z AUTO 20007KT 10SM FEW090 10/08 A3014 870 86 500 190/07 RMK AO2 TSNO
94908KDBQ DBQ20011107040510511/07/01 04:05:31  5-MIN KDBQ 071005Z AUTO 20008KT 10SM FEW090 10/08 A3014 870 86 500 200/08 RMK AO2 TSNO
94908KDBQ DBQ20011107041010511/07/01 04:10:31  5-MIN KDBQ 071010Z AUTO 20008KT 10SM FEW090 10/08 A3014 870 86 500 200/08 RMK AO2 TSNO
94908KDBQ DBQ20011107041510511/07/01 04:15:31  5-MIN KDBQ 071015Z AUTO 20008KT 10SM FEW050 10/08 A3014 870 86 500 200/08 RMK AO2 TSNO
94908KDBQ DBQ20011107042010511/07/01 04:20:31  5-MIN KDBQ 071020Z AUTO 20007KT 10SM FEW055 10/08 A3014 880 86 500 200/07 RMK AO2 TSNO
94908KDBQ DBQ20011107042511211/07/01 04:25:31  5-MIN KDBQ 071025Z AUTO 20007KT 10SM FEW060 SCT090 10/08 A3014 870 86 500 200/07 RMK AO2 TSNO
94908KDBQ DBQ20011107043011211/07/01 04:30:31  5-MIN KDBQ 071030Z AUTO 20007KT 10SM FEW055 SCT090 10/08 A3014 880 86 500 200/07 RMK AO2 TSNO
94908KDBQ DBQ20011107043510511/07/01 04:35:31  5-MIN KDBQ 071035Z AUTO 20008KT 10SM FEW055 11/08 A3014 880 83 600 200/08 RMK AO2 TSNO
94908KDBQ DBQ20011107044010511/07/01 04:40:31  5-MIN KDBQ 071040Z AUTO 20007KT 10SM FEW055 11/08 A3014 870 86 600 200/07 RMK AO2 TSNO
94908KDBQ DBQ20011107044510411/07/01 04:45:31  5-MIN KDBQ 071045Z AUTO 20007KT 9SM FEW090 10/08 A3014 870 86 500 200/07 RMK AO2 TSNO
94908KDBQ DBQ20011107045012111/07/01 04:50:31  5-MIN KDBQ 071050Z AUTO 20007KT 9SM FEW090 10/08 A3014 870 86 500 200/07 RMK AO2 SLP210 T01000078 TSNO
94908KDBQ DBQ20011107045511811/07/01 04:55:31  5-MIN KDBQ 071055Z AUTO 20007KT 9SM CLR 10/08 A3014 870 86 500 200/07 RMK AO2 SLP210 T01000078 TSNO
94908KDBQ DBQ20011107050010411/07/01 05:00:31  5-MIN KDBQ 071100Z AUTO 20007KT 9SM FEW060 10/08 A3014 870 86 500 200/07 RMK AO2 TSNO
94908KDBQ DBQ20011107050510411/07/01 05:05:31  5-MIN KDBQ 071105Z AUTO 20008KT 9SM FEW060 10/08 A3014 870 86 500 190/08 RMK AO2 TSNO
94908KDBQ DBQ20011107051010111/07/01 05:10:31  5-MIN KDBQ 071110Z AUTO 20007KT 9SM CLR 10/08 A3014 870 86 500 200/07 RMK AO2 TSNO
94908KDBQ DBQ20011107051510111/07/01 05:15:31  5-MIN KDBQ 071115Z AUTO 20007KT 9SM CLR 09/08 A3015 870 89 500 200/07 RMK AO2 TSNO
94908KDBQ DBQ20011107052010411/07/01 05:20:31  5-MIN KDBQ 071120Z AUTO 20006KT 9SM FEW050 09/08 A3014 870 89 500 200/06 RMK AO2 TSNO
94908KDBQ DBQ20011107052510411/07/01 05:25:31  5-MIN KDBQ 071125Z AUTO 20006KT 8SM FEW050 09/08 A3015 870 89 500 190/06 RMK AO2 TSNO
94908KDBQ DBQ20011107053010111/07/01 05:30:31  5-MIN KDBQ 071130Z AUTO 19006KT 8SM CLR 09/08 A3014 870 89 500 190/06 RMK AO2 TSNO
94908KDBQ DBQ20011107053510111/07/01 05:35:31  5-MIN KDBQ 071135Z AUTO 20007KT 8SM CLR 09/08 A3015 870 89 500 200/07 RMK AO2 TSNO
94908KDBQ DBQ20011107054010111/07/01 05:40:31  5-MIN KDBQ 071140Z AUTO 18006KT 8SM CLR 09/08 A3014 870 89 500 180/06 RMK AO2 TSNO
94908KDBQ DBQ20011107054509111/07/01 05:45:31  5-MIN KDBQ 071145Z 18005KT 8SM CLR 09/07 A3014 870 89 400 180/05 RMK AO2
94908KDBQ DBQ20011107055012611/07/01 05:50:31  5-MIN KDBQ 071150Z 19006KT 7SM CLR 09/07 A3014 870 89 400 190/06 RMK AO2 SLP210 T00890072 10133 20089 50000
94908KDBQ DBQ20011107055512611/07/01 05:55:31  5-MIN KDBQ 071155Z 19007KT 7SM CLR 09/07 A3014 870 89 400 190/07 RMK AO2 SLP210 T00890072 10133 20089 56001
94908KDBQ DBQ20011107060009111/07/01 06:00:31  5-MIN KDBQ 071200Z 19006KT 7SM CLR 09/08 A3014 880 89 500 180/06 RMK AO2
94908KDBQ DBQ20011107060509411/07/01 06:05:31  5-MIN KDBQ 071205Z 19006KT 7SM FEW100 09/08 A3014 870 93 400 190/06 RMK AO2
94908KDBQ DBQ20011107061009411/07/01 06:10:31  5-MIN KDBQ 071210Z 20006KT 7SM SCT095 09/08 A3014 870 89 500 200/06 RMK AO2
94908KDBQ DBQ20011107061509411/07/01 06:15:31  5-MIN KDBQ 071215Z 19006KT 7SM SCT095 09/08 A3014 870 89 500 190/06 RMK AO2
94908KDBQ DBQ20011107062009411/07/01 06:20:31  5-MIN KDBQ 071220Z 20006KT 7SM FEW095 09/08 A3014 870 89 500 200/06 RMK AO2
94908KDBQ DBQ20011107062509411/07/01 06:25:31  5-MIN KDBQ 071225Z 20005KT 7SM SCT095 09/08 A3014 880 89 500 200/05 RMK AO2
94908KDBQ DBQ20011107063009711/07/01 06:30:31  5-MIN KDBQ 071230Z 19006KT 6SM BR SCT095 09/08 A3014 880 89 500 190/06 RMK AO2
94908KDBQ DBQ20011107063509711/07/01 06:35:31  5-MIN KDBQ 071235Z 19007KT 6SM BR SCT090 09/08 A3014 880 89 500 190/07 RMK AO2
94908KDBQ DBQ20011107064010411/07/01 06:40:31  5-MIN KDBQ 071240Z 19006KT 6SM BR FEW075 SCT095 09/08 A3014 880 89 500 190/06 RMK AO2
94908KDBQ DBQ20011107064510411/07/01 06:45:31  5-MIN KDBQ 071245Z 19007KT 5SM BR FEW070 BKN090 10/08 A3014 880 89 500 190/07 RMK AO2
94908KDBQ DBQ20011107065012111/07/01 06:50:31  5-MIN KDBQ 071250Z 19008KT 5SM BR SCT070 BKN090 10/08 A3014 880 89 500 190/08 RMK AO2 SLP209 T01000083
94908KDBQ DBQ20011107065512111/07/01 06:55:31  5-MIN KDBQ 071255Z 20008KT 5SM BR BKN070 BKN090 10/08 A3014 880 89 500 200/08 RMK AO2 SLP209 T01000083
94908KDBQ DBQ20011107070010411/07/01 07:00:31  5-MIN KDBQ 071300Z 19008KT 4SM BR BKN070 BKN085 10/09 A3014 880 93 500 190/08 RMK AO2
94908KDBQ DBQ20011107070510411/07/01 07:05:31  5-MIN KDBQ 071305Z 19007KT 5SM BR BKN070 OVC085 11/09 A3014 880 89 600 190/07 RMK AO2
94908KDBQ DBQ20011107071009711/07/01 07:10:31  5-MIN KDBQ 071310Z 19007KT 5SM BR OVC070 11/09 A3014 870 89 600 190/07 RMK AO2
94908KDBQ DBQ20011107071509711/07/01 07:15:31  5-MIN KDBQ 071315Z 19007KT 5SM BR BKN070 11/09 A3014 870 89 600 190/07 RMK AO2
94908KDBQ DBQ20011107072009711/07/01 07:20:31  5-MIN KDBQ 071320Z 19008KT 5SM BR BKN070 10/08 A3014 870 89 500 190/08 RMK AO2
94908KDBQ DBQ20011107072509711/07/01 07:25:31  5-MIN KDBQ 071325Z 19008KT 5SM BR SCT070 10/08 A3014 870 89 500 190/08 RMK AO2
94908KDBQ DBQ20011107073009711/07/01 07:30:31  5-MIN KDBQ 071330Z 19007KT 5SM BR SCT070 10/08 A3014 870 89 500 190/07 RMK AO2
94908KDBQ DBQ20011107073509711/07/01 07:35:31  5-MIN KDBQ 071335Z 19007KT 5SM BR FEW065 10/08 A3014 870 89 500 190/07 RMK AO2
94908KDBQ DBQ20011107074009711/07/01 07:40:31  5-MIN KDBQ 071340Z 20007KT 5SM BR FEW065 10/08 A3014 870 89 500 200/07 RMK AO2
94908KDBQ DBQ20011107074509711/07/01 07:45:31  5-MIN KDBQ 071345Z 20007KT 4SM BR FEW070 11/08 A3015 870 86 600 200/07 RMK AO2
94908KDBQ DBQ20011107075011411/07/01 07:50:31  5-MIN KDBQ 071350Z 20007KT 5SM BR FEW070 11/08 A3015 870 86 600 200/07 RMK AO2 SLP211 T01060083
94908KDBQ DBQ20011107075511111/07/01 07:55:31  5-MIN KDBQ 071355Z 19007KT 5SM BR CLR 11/09 A3015 870 89 600 190/07 RMK AO2 SLP211 T01060089
94908KDBQ DBQ20011107080009411/07/01 08:00:31  5-MIN KDBQ 071400Z 19007KT 5SM BR CLR 11/09 A3015 870 89 600 190/07 RMK AO2
94908KDBQ DBQ20011107080509411/07/01 08:05:31  5-MIN KDBQ 071405Z 19006KT 5SM BR CLR 11/09 A3015 870 89 600 190/06 RMK AO2
94908KDBQ DBQ20011107081009411/07/01 08:10:31  5-MIN KDBQ 071410Z 19006KT 5SM BR CLR 11/09 A3015 870 89 600 190/06 RMK AO2
94908KDBQ DBQ20011107081509411/07/01 08:15:31  5-MIN KDBQ 071415Z 19006KT 5SM BR CLR 11/09 A3015 870 86 600 190/06 RMK AO2
94908KDBQ DBQ20011107082009411/07/01 08:20:31  5-MIN KDBQ 071420Z 19007KT 5SM BR CLR 11/09 A3015 870 86 600 190/07 RMK AO2
94908KDBQ DBQ20011107082509411/07/01 08:25:31  5-MIN KDBQ 071425Z 19007KT 5SM BR CLR 12/09 A3015 870 86 700 190/07 RMK AO2
94908KDBQ DBQ20011107083009411/07/01 08:30:31  5-MIN KDBQ 071430Z 19008KT 6SM HZ CLR 12/09 A3015 870 83 800 190/08 RMK AO2
94908KDBQ DBQ20011107083509411/07/01 08:35:31  5-MIN KDBQ 071435Z 19007KT 6SM HZ CLR 12/09 A3015 870 83 800 190/07 RMK AO2
94908KDBQ DBQ20011107084009711/07/01 08:40:31  5-MIN KDBQ 071440Z 19007KT 6SM HZ FEW080 12/09 A3015 860 83 800 190/07 RMK AO2
94908KDBQ DBQ20011107084509711/07/01 08:45:31  5-MIN KDBQ 071445Z 19006KT 6SM HZ FEW075 13/09 A3015 860 80 800 190/06 RMK AO2
94908KDBQ DBQ20011107085012011/07/01 08:50:31  5-MIN KDBQ 071450Z 19009KT 6SM HZ SCT070 13/09 A3015 860 80 800 190/09 RMK AO2 SLP214 T01280094 56001
94908KDBQ DBQ20011107085512411/07/01 08:55:31  5-MIN KDBQ 071455Z 19008KT 7SM FEW065 SCT085 13/09 A3015 860 80 800 190/08 RMK AO2 SLP213 T01280094 53004
94908KDBQ DBQ20011107090010111/07/01 09:00:31  5-MIN KDBQ 071500Z 19007KT 7SM FEW060 BKN085 13/10 A3015 860 80 900 190/07 RMK AO2
94908KDBQ DBQ20011107090510111/07/01 09:05:31  5-MIN KDBQ 071505Z 19009KT 7SM FEW060 BKN085 13/10 A3015 860 80 900 190/09 RMK AO2
94908KDBQ DBQ20011107091010111/07/01 09:10:31  5-MIN KDBQ 071510Z 20008KT 7SM FEW065 BKN090 13/10 A3015 860 80 900 190/08 RMK AO2
94908KDBQ DBQ20011107091510111/07/01 09:15:31  5-MIN KDBQ 071515Z 20008KT 7SM FEW065 BKN090 13/10 A3015 860 80 900 200/08 RMK AO2
94908KDBQ DBQ20011107092010211/07/01 09:20:31  5-MIN KDBQ 071520Z 20007KT 7SM FEW065 BKN085 14/10 A3015 870 77 1000 190/07 RMK AO2
94908KDBQ DBQ20011107092510211/07/01 09:25:31  5-MIN KDBQ 071525Z 19008KT 7SM SCT070 BKN085 14/10 A3015 860 77 1000 190/08 RMK AO2
94908KDBQ DBQ20011107093010211/07/01 09:30:31  5-MIN KDBQ 071530Z 19007KT 7SM SCT065 BKN090 14/10 A3015 870 77 1000 190/07 RMK AO2
94908KDBQ DBQ20011107093510211/07/01 09:35:31  5-MIN KDBQ 071535Z 18008KT 7SM SCT070 BKN090 14/10 A3015 860 77 1000 180/08 RMK AO2
94908KDBQ DBQ20011107094010211/07/01 09:40:31  5-MIN KDBQ 071540Z 19008KT 8SM SCT070 BKN095 14/10 A3015 870 77 1000 190/08 RMK AO2
94908KDBQ DBQ20011107094510911/07/01 09:45:31  5-MIN KDBQ 071545Z 19010KT 8SM FEW065 SCT080 BKN095 14/10 A3015 870 77 1000 190/10 RMK AO2
94908KDBQ DBQ20011107095011911/07/01 09:50:31  5-MIN KDBQ 071550Z 20009KT 8SM SCT070 BKN095 14/11 A3015 870 77 1000 200/09 RMK AO2 SLP211 T01440106
94908KDBQ DBQ20011107095511911/07/01 09:55:31  5-MIN KDBQ 071555Z 20008KT 8SM SCT070 BKN095 14/11 A3015 870 77 1000 200/08 RMK AO2 SLP211 T01440106
94908KDBQ DBQ20011107100010211/07/01 10:00:31  5-MIN KDBQ 071600Z 20009KT 8SM SCT070 BKN095 14/11 A3015 870 77 1000 200/09 RMK AO2
94908KDBQ DBQ20011107100510211/07/01 10:05:31  5-MIN KDBQ 071605Z 20007KT 8SM BKN070 BKN095 14/11 A3015 870 77 1000 200/07 RMK AO2
94908KDBQ DBQ20011107101010911/07/01 10:10:31  5-MIN KDBQ 071610Z 19009KT 8SM BKN070 BKN080 BKN095 14/11 A3015 870 77 1000 190/09 RMK AO2
94908KDBQ DBQ20011107101510211/07/01 10:15:31  5-MIN KDBQ 071615Z 19010KT 8SM BKN070 BKN090 15/11 A3015 870 74 1100 190/10 RMK AO2
94908KDBQ DBQ20011107102010211/07/01 10:20:31  5-MIN KDBQ 071620Z 19010KT 8SM BKN070 BKN090 16/11 A3015 870 74 1200 190/10 RMK AO2
94908KDBQ DBQ20011107102510211/07/01 10:25:31  5-MIN KDBQ 071625Z 19009KT 8SM BKN070 BKN090 16/11 A3015 870 74 1200 190/09 RMK AO2
94908KDBQ DBQ20011107103010211/07/01 10:30:31  5-MIN KDBQ 071630Z 19008KT 8SM BKN070 BKN090 16/11 A3015 870 72 1200 190/08 RMK AO2
94908KDBQ DBQ20011107103510211/07/01 10:35:31  5-MIN KDBQ 071635Z 20007KT 8SM SCT070 BKN090 16/11 A3015 870 74 1200 200/07 RMK AO2
94908KDBQ DBQ20011107104010211/07/01 10:40:31  5-MIN KDBQ 071640Z 20007KT 8SM SCT070 BKN090 16/11 A3015 870 72 1200 200/07 RMK AO2
94908KDBQ DBQ20011107104510211/07/01 10:45:31  5-MIN KDBQ 071645Z 20007KT 8SM BKN070 BKN090 16/11 A3015 870 72 1200 200/07 RMK AO2
94908KDBQ DBQ20011107105011211/07/01 10:50:31  5-MIN KDBQ 071650Z 20006KT 8SM BKN070 16/11 A3015 870 72 1200 200/06 RMK AO2 SLP209 T01610111
94908KDBQ DBQ20011107105511911/07/01 10:55:31  5-MIN KDBQ 071655Z 21007KT 8SM BKN070 BKN090 16/12 A3015 870 75 1200 200/07 RMK AO2 SLP209 T01610117
94908KDBQ DBQ20011107110010211/07/01 11:00:31  5-MIN KDBQ 071700Z 20008KT 8SM BKN070 BKN090 17/12 A3014 870 72 1300 200/08 RMK AO2
94908KDBQ DBQ20011107110510211/07/01 11:05:31  5-MIN KDBQ 071705Z 19009KT 8SM BKN070 BKN090 17/12 A3014 870 72 1300 190/09 RMK AO2
94908KDBQ DBQ20011107111010211/07/01 11:10:31  5-MIN KDBQ 071710Z 19008KT 8SM BKN065 BKN085 17/11 A3014 870 69 1300 190/08 RMK AO2
94908KDBQ DBQ20011107111510211/07/01 11:15:31  5-MIN KDBQ 071715Z 20008KT 8SM BKN070 BKN090 17/12 A3014 880 69 1400 200/08 RMK AO2
94908KDBQ DBQ20011107112010211/07/01 11:20:31  5-MIN KDBQ 071720Z 20008KT 8SM BKN070 BKN090 17/12 A3014 880 69 1400 200/08 RMK AO2
94908KDBQ DBQ20011107112510211/07/01 11:25:31  5-MIN KDBQ 071725Z 19008KT 8SM BKN070 BKN090 17/12 A3014 880 69 1400 190/08 RMK AO2
94908KDBQ DBQ20011107113010211/07/01 11:30:31  5-MIN KDBQ 071730Z 20008KT 8SM SCT070 BKN090 17/12 A3014 880 69 1400 200/08 RMK AO2
94908KDBQ DBQ20011107113510211/07/01 11:35:31  5-MIN KDBQ 071735Z 18007KT 8SM SCT070 BKN090 17/12 A3013 880 69 1400 180/07 RMK AO2
94908KDBQ DBQ20011107114010211/07/01 11:40:31  5-MIN KDBQ 071740Z 19008KT 8SM SCT075 BKN090 18/12 A3013 890 67 1500 190/08 RMK AO2
94908KDBQ DBQ20011107114510211/07/01 11:45:31  5-MIN KDBQ 071745Z 18010KT 8SM FEW080 SCT090 17/12 A3012 890 69 1400 180/10 RMK AO2
94908KDBQ DBQ20011107115013011/07/01 11:50:31  5-MIN KDBQ 071750Z 19010KT 8SM FEW085 17/12 A3012 890 69 1400 190/10 RMK AO2 SLP200 T01720117 10178 20089 53004
94908KDBQ DBQ20011107115513011/07/01 11:55:31  5-MIN KDBQ 071755Z 18009KT 8SM SCT085 18/12 A3012 890 69 1500 170/09 RMK AO2 SLP200 T01780122 10178 20089 58010
94908KDBQ DBQ20011107120009511/07/01 12:00:31  5-MIN KDBQ 071800Z 17009KT 9SM BKN085 18/12 A3012 890 69 1500 170/09 RMK AO2
94908KDBQ DBQ20011107120509511/07/01 12:05:31  5-MIN KDBQ 071805Z 17007KT 9SM BKN085 18/12 A3012 900 67 1500 170/07 RMK AO2
94908KDBQ DBQ20011107121009511/07/01 12:10:31  5-MIN KDBQ 071810Z 17007KT 9SM BKN085 19/12 A3012 900 65 1600 170/07 RMK AO2
94908KDBQ DBQ20011107121509511/07/01 12:15:31  5-MIN KDBQ 071815Z 17008KT 9SM BKN080 19/12 A3011 900 62 1700 170/08 RMK AO2
94908KDBQ DBQ20011107122009511/07/01 12:20:31  5-MIN KDBQ 071820Z 18009KT 9SM OVC080 19/12 A3011 900 62 1700 180/09 RMK AO2
94908KDBQ DBQ20011107122509511/07/01 12:25:31  5-MIN KDBQ 071825Z 18007KT 9SM OVC080 20/13 A3011 910 63 1700 170/07 RMK AO2
94908KDBQ DBQ20011107123009211/07/01 12:30:31  5-MIN KDBQ 071830Z 19010KT 9SM CLR 20/12 A3010 910 60 1700 190/10 RMK AO2
94908KDBQ DBQ20011107123509211/07/01 12:35:31  5-MIN KDBQ 071835Z 18010KT 9SM CLR 20/12 A3010 910 60 1700 180/10 RMK AO2
94908KDBQ DBQ20011107124009211/07/01 12:40:31  5-MIN KDBQ 071840Z 19009KT 9SM CLR 20/12 A3010 910 60 1700 190/09 RMK AO2
94908KDBQ DBQ20011107124509311/07/01 12:45:31  5-MIN KDBQ 071845Z 19010KT 10SM CLR 21/13 A3009 920 60 1800 190/10 RMK AO2
94908KDBQ DBQ20011107125011011/07/01 12:50:31  5-MIN KDBQ 071850Z 20011KT 10SM CLR 21/13 A3009 920 60 1800 200/11 RMK AO2 SLP189 T02060128
94908KDBQ DBQ20011107125511011/07/01 12:55:31  5-MIN KDBQ 071855Z 20010KT 10SM CLR 21/13 A3009 920 60 1800 200/10 RMK AO2 SLP188 T02060128
94908KDBQ DBQ20011107130009311/07/01 13:00:31  5-MIN KDBQ 071900Z 18011KT 10SM CLR 21/12 A3009 920 58 1800 180/11 RMK AO2
94908KDBQ DBQ20011107130509311/07/01 13:05:31  5-MIN KDBQ 071905Z 19010KT 10SM CLR 21/12 A3008 930 58 1800 190/10 RMK AO2
94908KDBQ DBQ20011107131009311/07/01 13:10:31  5-MIN KDBQ 071910Z 18009KT 10SM CLR 21/12 A3008 930 58 1800 180/09 RMK AO2
94908KDBQ DBQ20011107131509311/07/01 13:15:31  5-MIN KDBQ 071915Z 20011KT 10SM CLR 21/12 A3008 930 56 1900 200/11 RMK AO2
94908KDBQ DBQ20011107132009311/07/01 13:20:31  5-MIN KDBQ 071920Z 19011KT 10SM CLR 21/13 A3008 930 60 1800 190/11 RMK AO2
94908KDBQ DBQ20011107132509311/07/01 13:25:31  5-MIN KDBQ 071925Z 19010KT 10SM CLR 21/12 A3008 930 56 1900 190/10 RMK AO2
94908KDBQ DBQ20011107133009311/07/01 13:30:31  5-MIN KDBQ 071930Z 19012KT 10SM CLR 21/13 A3008 930 58 1900 190/12 RMK AO2
94908KDBQ DBQ20011107133509311/07/01 13:35:31  5-MIN KDBQ 071935Z 20011KT 10SM CLR 21/12 A3007 940 56 1900 200/11 RMK AO2
94908KDBQ DBQ20011107134009311/07/01 13:40:31  5-MIN KDBQ 071940Z 20012KT 10SM CLR 21/12 A3007 940 56 1900 190/12 RMK AO2
94908KDBQ DBQ20011107134509311/07/01 13:45:31  5-MIN KDBQ 071945Z 19012KT 10SM CLR 21/12 A3007 940 56 1900 190/12 RMK AO2
94908KDBQ DBQ20011107135011011/07/01 13:50:31  5-MIN KDBQ 071950Z 20011KT 10SM CLR 21/12 A3007 940 56 1900 200/11 RMK AO2 SLP181 T02110122
94908KDBQ DBQ20011107135511011/07/01 13:55:31  5-MIN KDBQ 071955Z 18011KT 10SM CLR 21/12 A3007 940 56 1900 180/11 RMK AO2 SLP180 T02110122
94908KDBQ DBQ20011107140009311/07/01 14:00:31  5-MIN KDBQ 072000Z 19010KT 10SM CLR 22/12 A3007 940 54 2000 190/10 RMK AO2
94908KDBQ DBQ20011107140509311/07/01 14:05:31  5-MIN KDBQ 072005Z 19013KT 10SM CLR 22/12 A3006 950 52 2000 190/13 RMK AO2
94908KDBQ DBQ20011107141009311/07/01 14:10:31  5-MIN KDBQ 072010Z 19013KT 10SM CLR 22/12 A3006 950 52 2000 190/13 RMK AO2
94908KDBQ DBQ20011107141509311/07/01 14:15:31  5-MIN KDBQ 072015Z 19011KT 10SM CLR 21/12 A3006 950 56 1900 190/11 RMK AO2
94908KDBQ DBQ20011107142009311/07/01 14:20:31  5-MIN KDBQ 072020Z 20011KT 10SM CLR 22/12 A3006 950 54 2000 200/11 RMK AO2
94908KDBQ DBQ20011107142509311/07/01 14:25:31  5-MIN KDBQ 072025Z 20012KT 10SM CLR 22/12 A3006 950 54 2000 200/12 RMK AO2
94908KDBQ DBQ20011107143009311/07/01 14:30:31  5-MIN KDBQ 072030Z 19013KT 10SM CLR 22/12 A3006 950 52 2000 190/13 RMK AO2
94908KDBQ DBQ20011107143509311/07/01 14:35:31  5-MIN KDBQ 072035Z 19012KT 10SM CLR 22/12 A3006 950 52 2000 190/12 RMK AO2
94908KDBQ DBQ20011107144009311/07/01 14:40:31  5-MIN KDBQ 072040Z 19012KT 10SM CLR 22/12 A3006 950 52 2000 190/12 RMK AO2
94908KDBQ DBQ20011107144509311/07/01 14:45:31  5-MIN KDBQ 072045Z 19012KT 10SM CLR 22/12 A3006 950 52 2000 190/12 RMK AO2
94908KDBQ DBQ20011107145011611/07/01 14:50:31  5-MIN KDBQ 072050Z 19013KT 10SM CLR 22/12 A3006 950 52 2000 190/13 RMK AO2 SLP178 T02170117 58010
94908KDBQ DBQ20011107145511611/07/01 14:55:31  5-MIN KDBQ 072055Z 19011KT 10SM CLR 22/11 A3006 950 50 2000 190/11 RMK AO2 SLP177 T02170111 56021
94908KDBQ DBQ20011107150009311/07/01 15:00:31  5-MIN KDBQ 072100Z 19011KT 10SM CLR 21/12 A3006 950 54 1900 190/11 RMK AO2
94908KDBQ DBQ20011107150509311/07/01 15:05:31  5-MIN KDBQ 072105Z 19012KT 10SM CLR 21/11 A3006 950 52 1900 190/12 RMK AO2
94908KDBQ DBQ20011107151009311/07/01 15:10:31  5-MIN KDBQ 072110Z 19013KT 10SM CLR 21/11 A3006 950 52 1900 190/13 RMK AO2
94908KDBQ DBQ20011107151509311/07/01 15:15:31  5-MIN KDBQ 072115Z 19014KT 10SM CLR 21/11 A3006 950 52 1900 190/14 RMK AO2
94908KDBQ DBQ20011107152009311/07/01 15:20:31  5-MIN KDBQ 072120Z 20011KT 10SM CLR 21/11 A3006 950 52 1900 200/11 RMK AO2
94908KDBQ DBQ20011107152509311/07/01 15:25:31  5-MIN KDBQ 072125Z 20011KT 10SM CLR 21/11 A3006 950 54 1900 200/11 RMK AO2
94908KDBQ DBQ20011107153009311/07/01 15:30:31  5-MIN KDBQ 072130Z 19009KT 10SM CLR 21/12 A3006 950 56 1900 190/09 RMK AO2
94908KDBQ DBQ20011107153509311/07/01 15:35:31  5-MIN KDBQ 072135Z 20012KT 10SM CLR 21/11 A3006 950 54 1900 190/12 RMK AO2
94908KDBQ DBQ20011107154009311/07/01 15:40:31  5-MIN KDBQ 072140Z 20010KT 10SM CLR 20/11 A3006 950 56 1800 200/10 RMK AO2
94908KDBQ DBQ20011107154509311/07/01 15:45:31  5-MIN KDBQ 072145Z 19011KT 10SM CLR 21/12 A3006 950 56 1900 190/11 RMK AO2
94908KDBQ DBQ20011107155011011/07/01 15:50:31  5-MIN KDBQ 072150Z 18009KT 10SM CLR 20/12 A3006 950 58 1800 180/09 RMK AO2 SLP177 T02000117
94908KDBQ DBQ20011107155511011/07/01 15:55:31  5-MIN KDBQ 072155Z 19009KT 10SM CLR 20/12 A3005 950 58 1800 190/09 RMK AO2 SLP177 T02000117
94908KDBQ DBQ20011107160009311/07/01 16:00:31  5-MIN KDBQ 072200Z 19009KT 10SM CLR 19/12 A3005 950 60 1700 190/09 RMK AO2
94908KDBQ DBQ20011107160509311/07/01 16:05:31  5-MIN KDBQ 072205Z 18009KT 10SM CLR 19/12 A3005 960 60 1700 180/09 RMK AO2
94908KDBQ DBQ20011107161009311/07/01 16:10:31  5-MIN KDBQ 072210Z 18009KT 10SM CLR 19/12 A3005 960 60 1700 180/09 RMK AO2
94908KDBQ DBQ20011107161509311/07/01 16:15:31  5-MIN KDBQ 072215Z 18010KT 10SM CLR 19/12 A3005 960 60 1700 180/10 RMK AO2
94908KDBQ DBQ20011107162009311/07/01 16:20:31  5-MIN KDBQ 072220Z 18010KT 10SM CLR 19/12 A3005 960 60 1700 180/10 RMK AO2
94908KDBQ DBQ20011107162509311/07/01 16:25:31  5-MIN KDBQ 072225Z 18009KT 10SM CLR 19/12 A3005 960 62 1700 180/09 RMK AO2
94908KDBQ DBQ20011107163009311/07/01 16:30:31  5-MIN KDBQ 072230Z 18009KT 10SM CLR 18/12 A3005 960 65 1600 180/09 RMK AO2
94908KDBQ DBQ20011107163509311/07/01 16:35:31  5-MIN KDBQ 072235Z 18008KT 10SM CLR 18/11 A3005 960 62 1600 180/08 RMK AO2
94908KDBQ DBQ20011107164009311/07/01 16:40:31  5-MIN KDBQ 072240Z 17008KT 10SM CLR 18/11 A3005 960 62 1600 170/08 RMK AO2
94908KDBQ DBQ20011107164509311/07/01 16:45:31  5-MIN KDBQ 072245Z 17007KT 10SM CLR 18/11 A3005 960 64 1500 170/07 RMK AO2
94908KDBQ DBQ20011107165010911/07/01 16:50:31  5-MIN KDBQ 072250Z 17009KT 9SM CLR 17/11 A3005 960 67 1500 170/09 RMK AO2 SLP175 T01720111
94908KDBQ DBQ20011107165510911/07/01 16:55:31  5-MIN KDBQ 072255Z 16009KT 9SM CLR 17/11 A3004 960 67 1500 160/09 RMK AO2 SLP175 T01720111
94908KDBQ DBQ20011107170009311/07/01 17:00:31  5-MIN KDBQ 072300Z 16008KT 10SM CLR 17/11 A3004 960 67 1500 160/08 RMK AO2
94908KDBQ DBQ20011107170509311/07/01 17:05:31  5-MIN KDBQ 072305Z 17009KT 10SM CLR 17/11 A3004 960 69 1400 160/09 RMK AO2
94908KDBQ DBQ20011107211010711/07/01 21:10:31  5-MIN KDBQ 080310Z AUTO 20012KT 10SM SCT120 14/09 A3001 1000 72 1200 200/12 RMK AO2 TSNO
94908KDBQ DBQ20011107211510711/07/01 21:15:31  5-MIN KDBQ 080315Z AUTO 20012KT 10SM SCT120 14/09 A3001 1000 72 1200 200/12 RMK AO2 TSNO
94908KDBQ DBQ20011107212010711/07/01 21:20:31  5-MIN KDBQ 080320Z AUTO 20013KT 10SM BKN120 14/09 A3001 1000 72 1200 200/13 RMK AO2 TSNO
94908KDBQ DBQ20011107212510711/07/01 21:25:31  5-MIN KDBQ 080325Z AUTO 20013KT 10SM BKN120 15/09 A3001 1000 69 1300 200/13 RMK AO2 TSNO
94908KDBQ DBQ20011107213010711/07/01 21:30:31  5-MIN KDBQ 080330Z AUTO 20014KT 10SM OVC120 15/09 A3001 1000 69 1300 200/14 RMK AO2 TSNO
94908KDBQ DBQ20011107213510611/07/01 21:35:31  5-MIN KDBQ 080335Z AUTO 21013KT 10SM OVC120 15/09 A3001 990 69 1300 200/13 RMK AO2 TSNO
94908KDBQ DBQ20011107214010711/07/01 21:40:31  5-MIN KDBQ 080340Z AUTO 21013KT 10SM OVC120 16/09 A3001 1000 67 1300 210/13 RMK AO2 TSNO
94908KDBQ DBQ20011107214511411/07/01 21:45:31  5-MIN KDBQ 080345Z AUTO 21013KT 10SM FEW100 BKN120 15/09 A3001 1000 69 1300 210/13 RMK AO2 TSNO
94908KDBQ DBQ20011107215013111/07/01 21:50:31  5-MIN KDBQ 080350Z AUTO 21013KT 10SM FEW100 BKN120 15/09 A3001 1000 69 1300 210/13 RMK AO2 SLP162 T01500094 TSNO
94908KDBQ DBQ20011107215513111/07/01 21:55:31  5-MIN KDBQ 080355Z AUTO 20012KT 10SM FEW100 BKN120 15/09 A3001 1000 69 1300 200/12 RMK AO2 SLP162 T01500094 TSNO
94908KDBQ DBQ20011107220011411/07/01 22:00:31  5-MIN KDBQ 080400Z AUTO 20013KT 10SM FEW100 BKN120 15/09 A3001 1000 69 1300 200/13 RMK AO2 TSNO
94908KDBQ DBQ20011107220511411/07/01 22:05:31  5-MIN KDBQ 080405Z AUTO 20012KT 10SM FEW100 SCT120 15/09 A3001 1000 69 1300 200/12 RMK AO2 TSNO
94908KDBQ DBQ20011107221010711/07/01 22:10:31  5-MIN KDBQ 080410Z AUTO 20013KT 10SM FEW100 14/09 A3000 1000 72 1200 200/13 RMK AO2 TSNO
94908KDBQ DBQ20011107221510711/07/01 22:15:31  5-MIN KDBQ 080415Z AUTO 20013KT 10SM FEW120 14/09 A3000 1000 72 1200 200/13 RMK AO2 TSNO
94908KDBQ DBQ20011107222010711/07/01 22:20:31  5-MIN KDBQ 080420Z AUTO 20013KT 10SM FEW120 14/09 A3000 1000 72 1200 200/13 RMK AO2 TSNO
94908KDBQ DBQ20011107222510411/07/01 22:25:31  5-MIN KDBQ 080425Z AUTO 20012KT 10SM CLR 14/09 A3000 1000 72 1200 200/12 RMK AO2 TSNO
94908KDBQ DBQ20011107223010411/07/01 22:30:31  5-MIN KDBQ 080430Z AUTO 20012KT 10SM CLR 14/09 A3000 1000 72 1200 200/12 RMK AO2 TSNO
94908KDBQ DBQ20011107223510411/07/01 22:35:31  5-MIN KDBQ 080435Z AUTO 20012KT 10SM CLR 14/09 A3000 1010 72 1200 200/12 RMK AO2 TSNO
94908KDBQ DBQ20011107224010411/07/01 22:40:31  5-MIN KDBQ 080440Z AUTO 20012KT 10SM CLR 14/09 A3000 1010 72 1200 200/12 RMK AO2 TSNO
94908KDBQ DBQ20011107224510411/07/01 22:45:31  5-MIN KDBQ 080445Z AUTO 20012KT 10SM CLR 14/09 A3000 1010 72 1200 200/12 RMK AO2 TSNO
94908KDBQ DBQ20011107225012111/07/01 22:50:31  5-MIN KDBQ 080450Z AUTO 20012KT 10SM CLR 14/09 A3000 1010 72 1200 200/12 RMK AO2 SLP156 T01440094 TSNO
94908KDBQ DBQ20011107225512111/07/01 22:55:31  5-MIN KDBQ 080455Z AUTO 20012KT 10SM CLR 14/09 A2999 1010 72 1200 200/12 RMK AO2 SLP156 T01440094 TSNO
94908KDBQ DBQ20011107230010411/07/01 23:00:31  5-MIN KDBQ 080500Z AUTO 20012KT 10SM CLR 14/09 A2999 1010 69 1200 200/12 RMK AO2 TSNO
94908KDBQ DBQ20011107230510411/07/01 23:05:31  5-MIN KDBQ 080505Z AUTO 20012KT 10SM CLR 14/09 A2999 1010 69 1200 200/12 RMK AO2 TSNO
94908KDBQ DBQ20011107231010411/07/01 23:10:31  5-MIN KDBQ 080510Z AUTO 20013KT 10SM CLR 14/09 A2999 1020 69 1200 200/13 RMK AO2 TSNO
94908KDBQ DBQ20011107231510411/07/01 23:15:31  5-MIN KDBQ 080515Z AUTO 20012KT 10SM CLR 14/09 A2999 1020 69 1200 200/12 RMK AO2 TSNO
94908KDBQ DBQ20011107232010411/07/01 23:20:31  5-MIN KDBQ 080520Z AUTO 20013KT 10SM CLR 14/09 A2999 1020 69 1200 200/13 RMK AO2 TSNO
94908KDBQ DBQ20011107232510411/07/01 23:25:31  5-MIN KDBQ 080525Z AUTO 19013KT 10SM CLR 14/09 A2999 1020 69 1200 190/13 RMK AO2 TSNO
94908KDBQ DBQ20011107233010411/07/01 23:30:31  5-MIN KDBQ 080530Z AUTO 20012KT 10SM CLR 14/09 A2999 1020 71 1200 200/12 RMK AO2 TSNO
94908KDBQ DBQ20011107233510411/07/01 23:35:31  5-MIN KDBQ 080535Z AUTO 20012KT 10SM CLR 14/09 A2999 1020 69 1200 200/12 RMK AO2 TSNO
94908KDBQ DBQ20011107234010411/07/01 23:40:31  5-MIN KDBQ 080540Z AUTO 20011KT 10SM CLR 14/09 A2998 1020 71 1200 200/11 RMK AO2 TSNO
94908KDBQ DBQ20011107234510411/07/01 23:45:31  5-MIN KDBQ 080545Z AUTO 20011KT 10SM CLR 14/09 A2998 1020 71 1200 200/11 RMK AO2 TSNO
94908KDBQ DBQ20011107235014911/07/01 23:50:31  5-MIN KDBQ 080550Z AUTO 21011KT 10SM CLR 14/09 A2999 1020 71 1200 200/11 RMK AO2 SLP154 T01390089 10167 20139 402170089 58008 TSNO
94908KDBQ DBQ20011107235514911/07/01 23:55:31  5-MIN KDBQ 080555Z AUTO 21010KT 10SM CLR 14/09 A2999 1020 71 1200 210/10 RMK AO2 SLP154 T01390089 10167 20139 402170089 58005 TSNO
94908KDBQ DBQ20011108000010711/08/01 00:00:31  5-MIN KDBQ 080600Z AUTO 20010KT 10SM FEW075 14/09 A2999 1020 71 1200 200/10 RMK AO2 TSNO
94908KDBQ DBQ20011108000510711/08/01 00:05:31  5-MIN KDBQ 080605Z AUTO 20011KT 10SM FEW075 14/08 A2998 1020 66 1200 200/11 RMK AO2 TSNO
94908KDBQ DBQ20011108001010411/08/01 00:10:31  5-MIN KDBQ 080610Z AUTO 21013KT 10SM CLR 14/08 A2998 1020 66 1200 210/13 RMK AO2 TSNO
94908KDBQ DBQ20011108001510411/08/01 00:15:31  5-MIN KDBQ 080615Z AUTO 21013KT 10SM CLR 15/08 A2998 1020 64 1300 210/13 RMK AO2 TSNO
94908KDBQ DBQ20011108002010411/08/01 00:20:31  5-MIN KDBQ 080620Z AUTO 21012KT 10SM CLR 15/08 A2998 1020 64 1300 210/12 RMK AO2 TSNO
94908KDBQ DBQ20011108002510411/08/01 00:25:31  5-MIN KDBQ 080625Z AUTO 21012KT 10SM CLR 15/08 A2998 1020 64 1300 210/12 RMK AO2 TSNO
94908KDBQ DBQ20011108003010411/08/01 00:30:31  5-MIN KDBQ 080630Z AUTO 22010KT 10SM CLR 14/08 A2998 1020 66 1200 220/10 RMK AO2 TSNO
94908KDBQ DBQ20011108003510411/08/01 00:35:31  5-MIN KDBQ 080635Z AUTO 22010KT 10SM CLR 14/08 A2998 1020 66 1200 220/10 RMK AO2 TSNO
94908KDBQ DBQ20011108004010411/08/01 00:40:31  5-MIN KDBQ 080640Z AUTO 22010KT 10SM CLR 14/08 A2998 1020 69 1200 220/10 RMK AO2 TSNO
94908KDBQ DBQ20011108004510411/08/01 00:45:31  5-MIN KDBQ 080645Z AUTO 22010KT 10SM CLR 14/08 A2998 1020 69 1200 220/10 RMK AO2 TSNO
94908KDBQ DBQ20011108005012111/08/01 00:50:31  5-MIN KDBQ 080650Z AUTO 21010KT 10SM CLR 14/08 A2998 1020 69 1200 210/10 RMK AO2 SLP150 T01390083 TSNO
94908KDBQ DBQ20011108005512111/08/01 00:55:31  5-MIN KDBQ 080655Z AUTO 21010KT 10SM CLR 13/08 A2998 1030 71 1100 210/10 RMK AO2 SLP149 T01330083 TSNO
94908KDBQ DBQ20011108010010411/08/01 01:00:31  5-MIN KDBQ 080700Z AUTO 21009KT 10SM CLR 13/08 A2998 1020 71 1100 210/09 RMK AO2 TSNO
94908KDBQ DBQ20011108010510411/08/01 01:05:31  5-MIN KDBQ 080705Z AUTO 22006KT 10SM CLR 13/08 A2998 1020 71 1100 220/06 RMK AO2 TSNO
94908KDBQ DBQ20011108011010411/08/01 01:10:31  5-MIN KDBQ 080710Z AUTO 22007KT 10SM CLR 13/08 A2998 1020 74 1000 220/07 RMK AO2 TSNO
94908KDBQ DBQ20011108011510411/08/01 01:15:31  5-MIN KDBQ 080715Z AUTO 22007KT 10SM CLR 12/08 A2998 1030 77 1000 220/07 RMK AO2 TSNO
94908KDBQ DBQ20011108012010411/08/01 01:20:31  5-MIN KDBQ 080720Z AUTO 22007KT 10SM CLR 12/08 A2998 1030 74 1000 220/07 RMK AO2 TSNO
94908KDBQ DBQ20011108012510411/08/01 01:25:31  5-MIN KDBQ 080725Z AUTO 22007KT 10SM CLR 12/08 A2997 1030 74 1000 220/07 RMK AO2 TSNO
94908KDBQ DBQ20011108013010411/08/01 01:30:31  5-MIN KDBQ 080730Z AUTO 23008KT 10SM CLR 12/08 A2998 1030 74 1000 230/08 RMK AO2 TSNO
94908KDBQ DBQ20011108013510411/08/01 01:35:31  5-MIN KDBQ 080735Z AUTO 23009KT 10SM CLR 12/08 A2998 1030 74 1000 230/09 RMK AO2 TSNO
94908KDBQ DBQ20011108014010411/08/01 01:40:31  5-MIN KDBQ 080740Z AUTO 24011KT 10SM CLR 13/08 A2998 1030 71 1100 230/11 RMK AO2 TSNO
94908KDBQ DBQ20011108014510411/08/01 01:45:31  5-MIN KDBQ 080745Z AUTO 24012KT 10SM CLR 14/08 A2998 1030 69 1200 240/12 RMK AO2 TSNO
94908KDBQ DBQ20011108015012111/08/01 01:50:31  5-MIN KDBQ 080750Z AUTO 24011KT 10SM CLR 14/08 A2998 1030 69 1200 240/11 RMK AO2 SLP148 T01390083 TSNO
94908KDBQ DBQ20011108015512111/08/01 01:55:31  5-MIN KDBQ 080755Z AUTO 25012KT 10SM CLR 14/08 A2998 1030 69 1200 250/12 RMK AO2 SLP148 T01390083 TSNO
94908KDBQ DBQ20011108020010411/08/01 02:00:31  5-MIN KDBQ 080800Z AUTO 25012KT 10SM CLR 14/08 A2998 1020 69 1200 250/12 RMK AO2 TSNO
94908KDBQ DBQ20011108020510411/08/01 02:05:31  5-MIN KDBQ 080805Z AUTO 25015KT 10SM CLR 14/08 A2998 1020 69 1200 250/15 RMK AO2 TSNO
94908KDBQ DBQ20011108021010411/08/01 02:10:31  5-MIN KDBQ 080810Z AUTO 26014KT 10SM CLR 14/08 A2999 1020 69 1200 260/14 RMK AO2 TSNO
94908KDBQ DBQ20011108021510411/08/01 02:15:31  5-MIN KDBQ 080815Z AUTO 27013KT 10SM CLR 14/08 A2999 1020 69 1200 260/13 RMK AO2 TSNO
94908KDBQ DBQ20011108022010411/08/01 02:20:31  5-MIN KDBQ 080820Z AUTO 27015KT 10SM CLR 14/08 A2999 1010 69 1200 270/15 RMK AO2 TSNO
94908KDBQ DBQ20011108022510411/08/01 02:25:31  5-MIN KDBQ 080825Z AUTO 27013KT 10SM CLR 14/08 A2999 1010 69 1200 270/13 RMK AO2 TSNO
94908KDBQ DBQ20011108023010411/08/01 02:30:31  5-MIN KDBQ 080830Z AUTO 28012KT 10SM CLR 13/08 A2999 1010 71 1100 280/12 RMK AO2 TSNO
94908KDBQ DBQ20011108023510411/08/01 02:35:31  5-MIN KDBQ 080835Z AUTO 28013KT 10SM CLR 13/08 A2999 1010 71 1100 280/13 RMK AO2 TSNO
94908KDBQ DBQ20011108024010411/08/01 02:40:31  5-MIN KDBQ 080840Z AUTO 28013KT 10SM CLR 13/09 A3000 1010 74 1100 280/13 RMK AO2 TSNO
94908KDBQ DBQ20011108024510411/08/01 02:45:31  5-MIN KDBQ 080845Z AUTO 28013KT 10SM CLR 13/09 A3000 1010 74 1100 280/13 RMK AO2 TSNO
94908KDBQ DBQ20011108025012611/08/01 02:50:31  5-MIN KDBQ 080850Z AUTO 29014KT 9SM CLR 13/09 A3000 1010 77 1100 280/14 RMK AO2 SLP155 T01330094 58005 TSNO
94908KDBQ DBQ20011108025512611/08/01 02:55:31  5-MIN KDBQ 080855Z AUTO 29016KT 8SM CLR 13/09 A3000 1000 77 1100 290/16 RMK AO2 SLP156 T01330094 53004 TSNO
94908KDBQ DBQ20011108030010311/08/01 03:00:31  5-MIN KDBQ 080900Z AUTO 29015KT 8SM CLR 13/09 A3000 1000 77 1100 290/15 RMK AO2 TSNO
94908KDBQ DBQ20011108030510611/08/01 03:05:31  5-MIN KDBQ 080905Z AUTO 30016KT 7SM FEW018 13/09 A3000 1000 77 1100 290/16 RMK AO2 TSNO
94908KDBQ DBQ20011108031010911/08/01 03:10:31  5-MIN KDBQ 080910Z AUTO 30016KT 6SM HZ SCT018 13/10 A3000 1000 80 1100 300/16 RMK AO2 TSNO
94908KDBQ DBQ20011108031510911/08/01 03:15:31  5-MIN KDBQ 080915Z AUTO 30018KT 6SM HZ BKN018 13/10 A3001 1000 80 1100 300/18 RMK AO2 TSNO
94908KDBQ DBQ20011108032010811/08/01 03:20:31  5-MIN KDBQ 080920Z AUTO 31017KT 5SM HZ BKN018 13/10 A3001 990 80 1100 310/17 RMK AO2 TSNO
94908KDBQ DBQ20011108032511411/08/01 03:25:31  5-MIN KDBQ 080925Z AUTO 30017G22KT 4SM HZ BKN018 13/10 A3002 990 80 1100 300/17G22 RMK AO2 TSNO
94908KDBQ DBQ20011108033010811/08/01 03:30:31  5-MIN KDBQ 080930Z AUTO 31015KT 4SM HZ OVC018 13/10 A3002 990 80 1100 310/15 RMK AO2 TSNO
94908KDBQ DBQ20011108033511411/08/01 03:35:31  5-MIN KDBQ 080935Z AUTO 31015G21KT 4SM HZ OVC016 13/10 A3002 980 80 1100 300/15G21 RMK AO2 TSNO
94908KDBQ DBQ20011108034011411/08/01 03:40:31  5-MIN KDBQ 080940Z AUTO 31021G25KT 4SM HZ OVC016 13/10 A3003 980 83 1000 310/21G25 RMK AO2 TSNO
94908KDBQ DBQ20011108034513211/08/01 03:45:31  5-MIN KDBQ 080945Z AUTO 31020G27KT 4SM HZ OVC016 13/10 A3003 980 83 1000 310/20G27 RMK AO2 PK WND 31027/0943 TSNO
94908KDBQ DBQ20011108035014911/08/01 03:50:31  5-MIN KDBQ 080950Z AUTO 31018G27KT 4SM HZ OVC016 13/09 A3003 980 80 1000 310/18G27 RMK AO2 PK WND 31027/0943 SLP168 T01280094 TSNO
94908KDBQ DBQ20011108035514811/08/01 03:55:31  5-MIN KDBQ 080955Z AUTO 31019G24KT 4SM HZ OVC016 12/09 A3003 970 83 900 310/19G24 RMK AO2 PK WND 31027/0943 SLP169 T01220094 TSNO
94908KDBQ DBQ20011108040011311/08/01 04:00:31  5-MIN KDBQ 081000Z AUTO 31019G24KT 4SM HZ OVC016 12/09 A3004 970 83 900 310/19G24 RMK AO2 TSNO
94908KDBQ DBQ20011108040513111/08/01 04:05:31  5-MIN KDBQ 081005Z AUTO 32020G27KT 4SM HZ OVC016 12/09 A3004 970 80 900 320/20G27 RMK AO2 PK WND 33027/1004 TSNO
94908KDBQ DBQ20011108041013111/08/01 04:10:31  5-MIN KDBQ 081010Z AUTO 31019G27KT 5SM HZ OVC016 12/09 A3004 970 83 800 300/19G27 RMK AO2 PK WND 33027/1004 TSNO
94908KDBQ DBQ20011108041513111/08/01 04:15:31  5-MIN KDBQ 081015Z AUTO 30014G23KT 5SM HZ OVC016 12/09 A3005 960 83 800 300/14G23 RMK AO2 PK WND 33027/1004 TSNO
94908KDBQ DBQ20011108042012511/08/01 04:20:31  5-MIN KDBQ 081020Z AUTO 30018KT 5SM HZ OVC016 12/09 A3005 960 83 800 290/18 RMK AO2 PK WND 33027/1004 TSNO
94908KDBQ DBQ20011108042512511/08/01 04:25:31  5-MIN KDBQ 081025Z AUTO 30015KT 5SM HZ OVC016 12/09 A3005 960 83 800 300/15 RMK AO2 PK WND 33027/1004 TSNO
94908KDBQ DBQ20011108043012511/08/01 04:30:31  5-MIN KDBQ 081030Z AUTO 31018KT 5SM HZ OVC016 12/09 A3006 950 83 800 310/18 RMK AO2 PK WND 33027/1004 TSNO
94908KDBQ DBQ20011108043512511/08/01 04:35:31  5-MIN KDBQ 081035Z AUTO 31014KT 5SM HZ OVC016 12/09 A3006 950 83 800 310/14 RMK AO2 PK WND 33027/1004 TSNO
94908KDBQ DBQ20011108044013111/08/01 04:40:31  5-MIN KDBQ 081040Z AUTO 30020G24KT 5SM HZ OVC016 12/08 A3006 950 80 800 300/20G24 RMK AO2 PK WND 33027/1004 TSNO
94908KDBQ DBQ20011108044513111/08/01 04:45:31  5-MIN KDBQ 081045Z AUTO 31017G24KT 6SM HZ OVC016 12/08 A3007 940 80 800 310/17G24 RMK AO2 PK WND 33027/1004 TSNO
94908KDBQ DBQ20011108045015511/08/01 04:50:31  5-MIN KDBQ 081050Z AUTO 33018G23KT 6SM HZ BKN016 OVC045 11/08 A3007 940 83 700 330/18G23 RMK AO2 PK WND 33027/1004 SLP182 T01110083 TSNO
94908KDBQ DBQ20011108045515511/08/01 04:55:31  5-MIN KDBQ 081055Z AUTO 32018G25KT 6SM HZ BKN016 OVC023 11/08 A3007 940 80 700 320/18G25 RMK AO2 PK WND 33027/1004 SLP183 T01110078 TSNO
94908KDBQ DBQ20011108050011111/08/01 05:00:31  5-MIN KDBQ 081100Z AUTO 32016KT 7SM BKN018 OVC023 11/08 A3007 940 80 700 320/16 RMK AO2 TSNO
94908KDBQ DBQ20011108050511111/08/01 05:05:31  5-MIN KDBQ 081105Z AUTO 32014KT 7SM BKN018 OVC023 11/08 A3007 940 80 700 320/14 RMK AO2 TSNO
94908KDBQ DBQ20011108051011111/08/01 05:10:31  5-MIN KDBQ 081110Z AUTO 32013KT 7SM BKN018 OVC023 11/08 A3008 930 80 700 320/13 RMK AO2 TSNO
94908KDBQ DBQ20011108051511111/08/01 05:15:31  5-MIN KDBQ 081115Z AUTO 32014KT 7SM BKN018 OVC023 11/08 A3008 930 80 700 320/14 RMK AO2 TSNO
94908KDBQ DBQ20011108052011711/08/01 05:20:31  5-MIN KDBQ 081120Z AUTO 32016G19KT 7SM BKN018 OVC023 11/08 A3008 930 80 700 320/16G19 RMK AO2 TSNO
94908KDBQ DBQ20011108052511111/08/01 05:25:31  5-MIN KDBQ 081125Z AUTO 32015KT 7SM BKN016 OVC023 11/08 A3008 930 83 700 320/15 RMK AO2 TSNO
94908KDBQ DBQ20011108053011111/08/01 05:30:31  5-MIN KDBQ 081130Z AUTO 31013KT 7SM BKN016 OVC023 11/08 A3008 930 83 700 310/13 RMK AO2 TSNO
94908KDBQ DBQ20011108053512811/08/01 05:35:31  5-MIN KDBQ 081135Z AUTO 32022G26KT 7SM OVC016 11/08 A3008 930 83 700 320/22G26 RMK AO2 PK WND 32026/1134 TSNO
94908KDBQ DBQ20011108054012811/08/01 05:40:31  5-MIN KDBQ 081140Z AUTO 31016G26KT 7SM OVC016 10/08 A3008 930 86 600 310/16G26 RMK AO2 PK WND 32026/1134 TSNO
94908KDBQ DBQ20011108054512211/08/01 05:45:31  5-MIN KDBQ 081145Z AUTO 32014KT 7SM OVC014 10/08 A3008 930 86 600 320/14 RMK AO2 PK WND 32026/1134 TSNO
94908KDBQ DBQ20011108055014711/08/01 05:50:31  5-MIN KDBQ 081150Z 31015KT 7SM OVC014 10/08 A3009 920 86 600 310/15 RMK AO2 PK WND 32026/1134 SLP190 T01000078 10150 20100 53004
94908KDBQ DBQ20011108055514711/08/01 05:55:31  5-MIN KDBQ 081155Z 31016KT 7SM OVC014 10/07 A3009 920 83 600 310/16 RMK AO2 PK WND 32026/1134 SLP193 T01000072 10150 20100 51030
94908KDBQ DBQ20011108060009411/08/01 06:00:31  5-MIN KDBQ 081200Z 32017KT 7SM OVC014 10/07 A3010 920 83 600 310/17 RMK AO2
94908KDBQ DBQ20011108060509411/08/01 06:05:31  5-MIN KDBQ 081205Z 31013KT 7SM OVC014 09/07 A3009 920 86 500 310/13 RMK AO2
94908KDBQ DBQ20011108061010011/08/01 06:10:31  5-MIN KDBQ 081210Z 32014G20KT 7SM OVC014 09/07 A3010 920 83 500 320/14G20 RMK AO2
94908KDBQ DBQ20011108061509411/08/01 06:15:31  5-MIN KDBQ 081215Z 32017KT 7SM OVC014 09/07 A3010 910 83 500 310/17 RMK AO2
94908KDBQ DBQ20011108062009411/08/01 06:20:31  5-MIN KDBQ 081220Z 31015KT 7SM OVC014 09/07 A3011 900 83 500 310/15 RMK AO2
94908KDBQ DBQ20011108062510111/08/01 06:25:31  5-MIN KDBQ 081225Z 30017KT 7SM OVC014 09/07 A3012 890 86 400 300/17 RMK AO2 PRESRR
94908KDBQ DBQ20011108063010111/08/01 06:30:31  5-MIN KDBQ 081230Z 30015KT 7SM OVC014 09/07 A3013 890 86 400 300/15 RMK AO2 PRESRR
94908KDBQ DBQ20011108063509711/08/01 06:35:31  5-MIN KDBQ 081235Z 30017KT 6SM HZ OVC012 09/06 A3013 890 83 400 300/17 RMK AO2
94908KDBQ DBQ20011108064010311/08/01 06:40:31  5-MIN KDBQ 081240Z 31016G21KT 6SM BR OVC012 08/06 A3013 880 86 300 310/16G21 RMK AO2
94908KDBQ DBQ20011108064511011/08/01 06:45:31  5-MIN KDBQ 081245Z 30015G21KT 6SM BR OVC012 08/06 A3014 870 86 300 300/15G21 RMK AO2 PRESRR
94908KDBQ DBQ20011108065012011/08/01 06:50:31  5-MIN KDBQ 081250Z 31018G22KT 6SM BR OVC012 08/06 A3015 870 86 300 310/18G22 RMK AO2 SLP211 T00830061
94908KDBQ DBQ20011108065512011/08/01 06:55:31  5-MIN KDBQ 081255Z 31014G22KT 6SM HZ OVC012 08/06 A3014 870 82 300 310/14G22 RMK AO2 SLP210 T00830056
94908KDBQ DBQ20011108070010311/08/01 07:00:31  5-MIN KDBQ 081300Z 31019G23KT 6SM HZ OVC012 08/06 A3015 870 82 300 300/19G23 RMK AO2
94908KDBQ DBQ20011108070510011/08/01 07:05:31  5-MIN KDBQ 081305Z 31016G23KT 7SM OVC012 08/06 A3015 870 86 200 310/16G23 RMK AO2
94908KDBQ DBQ20011108071011811/08/01 07:10:31  5-MIN KDBQ 081310Z 31017G26KT 7SM OVC012 08/05 A3015 870 82 200 310/17G26 RMK AO2 PK WND 30026/1306
94908KDBQ DBQ20011108071511811/08/01 07:15:31  5-MIN KDBQ 081315Z 32018G26KT 7SM OVC012 08/05 A3016 860 82 200 320/18G26 RMK AO2 PK WND 30026/1306
94908KDBQ DBQ20011108072011811/08/01 07:20:31  5-MIN KDBQ 081320Z 32020G25KT 7SM OVC012 08/05 A3016 860 82 200 320/20G25 RMK AO2 PK WND 30026/1306
94908KDBQ DBQ20011108072512111/08/01 07:25:31  5-MIN KDBQ 081325Z 32018G25KT 6SM HZ OVC012 08/04 A3017 850 79 200 320/18G25 RMK AO2 PK WND 30026/1306
94908KDBQ DBQ20011108073011511/08/01 07:30:31  5-MIN KDBQ 081330Z 32017KT 6SM HZ OVC014 08/04 A3017 850 79 200 320/17 RMK AO2 PK WND 30026/1306
94908KDBQ DBQ20011108073511511/08/01 07:35:31  5-MIN KDBQ 081335Z 32021KT 6SM HZ OVC014 08/04 A3017 840 79 200 320/21 RMK AO2 PK WND 30026/1306
94908KDBQ DBQ20011108074012111/08/01 07:40:31  5-MIN KDBQ 081340Z 32017G24KT 6SM HZ OVC014 07/04 A3018 840 82 100 320/17G24 RMK AO2 PK WND 30026/1306
94908KDBQ DBQ20011108074512111/08/01 07:45:31  5-MIN KDBQ 081345Z 33019G24KT 6SM HZ OVC014 07/04 A3018 840 79 100 330/19G24 RMK AO2 PK WND 30026/1306
94908KDBQ DBQ20011108075013511/08/01 07:50:31  5-MIN KDBQ 081350Z 33017G24KT 7SM OVC016 07/04 A3018 840 79 100 330/17G24 RMK AO2 PK WND 30026/1306 SLP224 T00720039
94908KDBQ DBQ20011108075512911/08/01 07:55:31  5-MIN KDBQ 081355Z 32016KT 7SM OVC016 07/04 A3019 830 79 100 320/16 RMK AO2 PK WND 30026/1306 SLP225 T00720039
94908KDBQ DBQ20011108080012111/08/01 08:00:31  5-MIN KDBQ 081400Z 32019G26KT 6SM HZ OVC016 07/03 A3019 830 76 100 320/19G26 RMK AO2 PK WND 32026/1359
94908KDBQ DBQ20011108080512111/08/01 08:05:31  5-MIN KDBQ 081405Z 32016G26KT 6SM HZ OVC016 07/03 A3020 820 79 100 320/16G26 RMK AO2 PK WND 32026/1359
94908KDBQ DBQ20011108081012111/08/01 08:10:31  5-MIN KDBQ 081410Z 32016G24KT 6SM HZ OVC016 07/03 A3020 820 79 100 320/16G24 RMK AO2 PK WND 32026/1359
94908KDBQ DBQ20011108081512511/08/01 08:15:31  5-MIN KDBQ 081415Z 32017G23KT 7SM BKN016 OVC022 07/03 A3020 820 79 100 320/17G23 RMK AO2 PK WND 32026/1359
94908KDBQ DBQ20011108082011711/08/01 08:20:31  5-MIN KDBQ 081420Z 32017KT 7SM BKN017 OVC022 07/03 A3021 820 79 0 320/17 RMK AO2 PK WND 32026/1359
94908KDBQ DBQ20011108082511611/08/01 08:25:31  5-MIN KDBQ 081425Z 33015G20KT 7SM OVC017 07/03 A3021 810 79 0 330/15G20 RMK AO2 PK WND 32026/1359
94908KDBQ DBQ20011108083011611/08/01 08:30:31  5-MIN KDBQ 081430Z 33019G24KT 8SM OVC017 07/03 A3021 810 76 0 320/19G24 RMK AO2 PK WND 32026/1359
94908KDBQ DBQ20011108083511611/08/01 08:35:31  5-MIN KDBQ 081435Z 33019G25KT 9SM OVC019 07/02 A3021 810 73 0 330/19G25 RMK AO2 PK WND 32026/1359
94908KDBQ DBQ20011108084011711/08/01 08:40:31  5-MIN KDBQ 081440Z 32018G25KT 10SM OVC019 07/02 A3022 810 73 0 320/18G25 RMK AO2 PK WND 32026/1359
94908KDBQ DBQ20011108084511711/08/01 08:45:31  5-MIN KDBQ 081445Z 32017G23KT 10SM OVC019 07/02 A3022 800 73 0 320/17G23 RMK AO2 PK WND 32026/1359
94908KDBQ DBQ20011108085014011/08/01 08:50:31  5-MIN KDBQ 081450Z 33019G23KT 10SM OVC019 07/02 A3022 800 73 0 320/19G23 RMK AO2 PK WND 32026/1359 SLP238 T00670022 51030
94908KDBQ DBQ20011108085513411/08/01 08:55:31  5-MIN KDBQ 081455Z 33017KT 10SM OVC021 07/02 A3022 800 73 0 330/17 RMK AO2 PK WND 32026/1359 SLP238 T00670022 51043
94908KDBQ DBQ20011108090009911/08/01 09:00:31  5-MIN KDBQ 081500Z 32020G24KT 10SM OVC021 07/02 A3022 800 73 0 320/20G24 RMK AO2
94908KDBQ DBQ20011108090511711/08/01 09:05:31  5-MIN KDBQ 081505Z 33021G26KT 10SM OVC021 07/02 A3022 800 70 0 330/21G26 RMK AO2 PK WND 33026/1503
94908KDBQ DBQ20011108091011711/08/01 09:10:31  5-MIN KDBQ 081510Z 32021G26KT 10SM OVC021 07/02 A3023 790 70 0 310/21G26 RMK AO2 PK WND 33026/1503
94908KDBQ DBQ20011108091511711/08/01 09:15:31  5-MIN KDBQ 081515Z 32018G26KT 10SM OVC021 06/02 A3023 790 73 0 320/18G26 RMK AO2 PK WND 32026/1512
94908KDBQ DBQ20011108092011711/08/01 09:20:31  5-MIN KDBQ 081520Z 32021G26KT 10SM OVC023 06/02 A3024 790 73 0 320/21G26 RMK AO2 PK WND 32026/1512
94908KDBQ DBQ20011108092511711/08/01 09:25:31  5-MIN KDBQ 081525Z 32016G24KT 10SM OVC023 07/02 A3024 780 70 0 320/16G24 RMK AO2 PK WND 32026/1512
94908KDBQ DBQ20011108093011711/08/01 09:30:31  5-MIN KDBQ 081530Z 32020G23KT 10SM OVC023 07/02 A3024 780 70 0 320/20G23 RMK AO2 PK WND 32026/1512
94908KDBQ DBQ20011108093511111/08/01 09:35:31  5-MIN KDBQ 081535Z 33016KT 10SM OVC023 07/02 A3025 780 70 0 320/16 RMK AO2 PK WND 32026/1512
94908KDBQ DBQ20011108094011711/08/01 09:40:31  5-MIN KDBQ 081540Z 31019G25KT 10SM OVC023 07/02 A3025 780 70 0 310/19G25 RMK AO2 PK WND 32026/1512
94908KDBQ DBQ20011108094511711/08/01 09:45:31  5-MIN KDBQ 081545Z 32016G25KT 10SM OVC023 07/02 A3025 770 70 0 320/16G25 RMK AO2 PK WND 32026/1512
94908KDBQ DBQ20011108095012811/08/01 09:50:31  5-MIN KDBQ 081550Z 32015KT 10SM OVC025 07/02 A3026 770 70 0 320/15 RMK AO2 PK WND 32026/1512 SLP250 T00670017
94908KDBQ DBQ20011108095512811/08/01 09:55:31  5-MIN KDBQ 081555Z 32018KT 10SM OVC025 06/02 A3026 760 73 0 320/18 RMK AO2 PK WND 32026/1512 SLP251 T00610017
94908KDBQ DBQ20011108100009911/08/01 10:00:31  5-MIN KDBQ 081600Z 32020G24KT 10SM OVC025 06/01 A3027 760 70 0 320/20G24 RMK AO2
94908KDBQ DBQ20011108100509911/08/01 10:05:31  5-MIN KDBQ 081605Z 32013G24KT 10SM OVC025 07/02 A3027 760 70 0 320/13G24 RMK AO2
94908KDBQ DBQ20011108101009311/08/01 10:10:31  5-MIN KDBQ 081610Z 32019KT 10SM OVC025 07/02 A3027 750 70 0 320/19 RMK AO2
94908KDBQ DBQ20011108101509311/08/01 10:15:31  5-MIN KDBQ 081615Z 31018KT 10SM OVC025 07/01 A3028 750 67 0 310/18 RMK AO2
94908KDBQ DBQ20011108102009311/08/01 10:20:31  5-MIN KDBQ 081620Z 32016KT 10SM OVC027 07/02 A3028 750 70 0 320/16 RMK AO2
94908KDBQ DBQ20011108102509611/08/01 10:25:31  5-MIN KDBQ 081625Z 31017KT 10SM OVC027 06/02 A3028 740 73 -100 310/17 RMK AO2
94908KDBQ DBQ20011108103010211/08/01 10:30:31  5-MIN KDBQ 081630Z 32015G21KT 10SM OVC027 06/02 A3029 740 73 -100 320/15G21 RMK AO2
94908KDBQ DBQ20011108103509911/08/01 10:35:31  5-MIN KDBQ 081635Z 33016G23KT 10SM OVC027 07/02 A3029 740 70 0 330/16G23 RMK AO2
94908KDBQ DBQ20011108104010211/08/01 10:40:31  5-MIN KDBQ 081640Z 33017G24KT 10SM OVC027 06/02 A3030 730 73 -100 330/17G24 RMK AO2
94908KDBQ DBQ20011108104510211/08/01 10:45:31  5-MIN KDBQ 081645Z 33017G24KT 10SM OVC025 06/02 A3030 730 73 -100 330/17G24 RMK AO2
94908KDBQ DBQ20011108105011011/08/01 10:50:31  5-MIN KDBQ 081650Z 33016KT 10SM OVC025 07/02 A3030 730 70 0 330/16 RMK AO2 SLP266 T00670017
94908KDBQ DBQ20011108105511911/08/01 10:55:31  5-MIN KDBQ 081655Z 33016G21KT 10SM OVC025 06/02 A3031 720 73 -100 320/16G21 RMK AO2 SLP266 T00610017
94908KDBQ DBQ20011108110012011/08/01 11:00:31  5-MIN KDBQ 081700Z 33019G26KT 10SM OVC025 06/01 A3031 720 70 -100 330/19G26 RMK AO2 PK WND 33026/1656
94908KDBQ DBQ20011108110512011/08/01 11:05:31  5-MIN KDBQ 081705Z 32023G27KT 10SM OVC025 06/01 A3031 720 70 -100 320/23G27 RMK AO2 PK WND 32027/1704
94908KDBQ DBQ20011108111012011/08/01 11:10:31  5-MIN KDBQ 081710Z 33021G27KT 10SM OVC025 06/01 A3031 720 67 -100 330/21G27 RMK AO2 PK WND 32027/1704
94908KDBQ DBQ20011108111511411/08/01 11:15:31  5-MIN KDBQ 081715Z 33019KT 10SM OVC025 06/01 A3031 720 67 -100 330/19 RMK AO2 PK WND 32027/1704
94908KDBQ DBQ20011108112012011/08/01 11:20:31  5-MIN KDBQ 081720Z 33020G25KT 10SM OVC027 06/00 A3031 720 65 -100 330/20G25 RMK AO2 PK WND 32027/1704
94908KDBQ DBQ20011108112512011/08/01 11:25:31  5-MIN KDBQ 081725Z 34015G25KT 10SM OVC027 06/00 A3031 720 65 -100 340/15G25 RMK AO2 PK WND 32027/1704
94908KDBQ DBQ20011108113012011/08/01 11:30:31  5-MIN KDBQ 081730Z 34018G23KT 10SM OVC027 06/00 A3031 720 65 -100 330/18G23 RMK AO2 PK WND 32027/1704
94908KDBQ DBQ20011108113511711/08/01 11:35:31  5-MIN KDBQ 081735Z 34016G23KT 10SM OVC027 07/00 A3031 720 62 0 340/16G23 RMK AO2 PK WND 32027/1704
94908KDBQ DBQ20011108114011711/08/01 11:40:31  5-MIN KDBQ 081740Z 34016G22KT 10SM OVC029 07/00 A3031 720 62 0 340/16G22 RMK AO2 PK WND 32027/1704
94908KDBQ DBQ20011108114511711/08/01 11:45:31  5-MIN KDBQ 081745Z 34019G27KT 10SM BKN029 07/00 A3031 720 60 0 340/19G27 RMK AO2 PK WND 33027/1745
94908KDBQ DBQ20011108115015311/08/01 11:50:31  5-MIN KDBQ 081750Z 36018G27KT 10SM BKN029 07/M01 A3031 720 60 0 360/18G27 RMK AO2 PK WND 33027/1745 SLP266 T00671006 10100 20061 51043
94908KDBQ DBQ20011108115515311/08/01 11:55:31  5-MIN KDBQ 081755Z 34016G24KT 10SM BKN029 07/M01 A3031 720 57 0 340/16G24 RMK AO2 PK WND 33027/1745 SLP267 T00721006 10100 20061 51028
94908KDBQ DBQ20011108120009411/08/01 12:00:31  5-MIN KDBQ 081800Z 33018KT 10SM BKN029 07/M01 A3030 730 57 0 330/18 RMK AO2
94908KDBQ DBQ20011108120510111/08/01 12:05:31  5-MIN KDBQ 081805Z 34014G21KT 10SM BKN029 08/00 A3031 720 58 100 340/14G21 RMK AO2
94908KDBQ DBQ20011108121010111/08/01 12:10:31  5-MIN KDBQ 081810Z 33016G23KT 10SM BKN029 08/00 A3031 720 58 100 330/16G23 RMK AO2
94908KDBQ DBQ20011108121510211/08/01 12:15:31  5-MIN KDBQ 081815Z 33017G23KT 10SM BKN029 08/M01 A3030 730 55 100 330/17G23 RMK AO2
94908KDBQ DBQ20011108122009511/08/01 12:20:31  5-MIN KDBQ 081820Z 34016KT 10SM BKN029 08/00 A3030 730 58 100 340/16 RMK AO2
94908KDBQ DBQ20011108122509511/08/01 12:25:31  5-MIN KDBQ 081825Z 33016KT 10SM BKN029 08/00 A3031 720 58 100 330/16 RMK AO2
94908KDBQ DBQ20011108123010211/08/01 12:30:31  5-MIN KDBQ 081830Z 33016G22KT 10SM BKN029 08/M01 A3030 730 55 100 330/16G22 RMK AO2
94908KDBQ DBQ20011108123509611/08/01 12:35:31  5-MIN KDBQ 081835Z 32016KT 10SM BKN029 08/M01 A3030 720 55 100 320/16 RMK AO2
94908KDBQ DBQ20011108124009611/08/01 12:40:31  5-MIN KDBQ 081840Z 34017KT 10SM BKN029 08/M01 A3031 720 55 100 340/17 RMK AO2
94908KDBQ DBQ20011108124510211/08/01 12:45:31  5-MIN KDBQ 081845Z 34018G22KT 10SM BKN029 08/M01 A3031 720 53 100 340/18G22 RMK AO2
94908KDBQ DBQ20011108125011911/08/01 12:50:31  5-MIN KDBQ 081850Z 35016G22KT 10SM BKN029 08/M01 A3031 720 55 100 350/16G22 RMK AO2 SLP268 T00781006
94908KDBQ DBQ20011108125511811/08/01 12:55:31  5-MIN KDBQ 081855Z 34012G19KT 10SM BKN029 08/00 A3031 720 55 100 340/12G19 RMK AO2 SLP268 T00830000
94908KDBQ DBQ20011108130009311/08/01 13:00:31  5-MIN KDBQ 081900Z 35013KT 10SM CLR 08/M01 A3031 720 53 100 350/13 RMK AO2
94908KDBQ DBQ20011108130509911/08/01 13:05:31  5-MIN KDBQ 081905Z 36015G19KT 10SM CLR 08/M01 A3031 720 53 100 360/15G19 RMK AO2
94908KDBQ DBQ20011108131009311/08/01 13:10:31  5-MIN KDBQ 081910Z 35014KT 10SM CLR 08/M01 A3031 720 53 100 350/14 RMK AO2
94908KDBQ DBQ20011108131509311/08/01 13:15:31  5-MIN KDBQ 081915Z 35011KT 10SM CLR 08/M01 A3031 720 53 100 350/11 RMK AO2
94908KDBQ DBQ20011108132009211/08/01 13:20:31  5-MIN KDBQ 081920Z 36010KT 10SM CLR 09/00 A3030 720 53 200 360/10 RMK AO2
94908KDBQ DBQ20011108132509911/08/01 13:25:31  5-MIN KDBQ 081925Z 36013G18KT 10SM CLR 08/M01 A3031 720 53 100 360/13G18 RMK AO2
94908KDBQ DBQ20011108133009811/08/01 13:30:31  5-MIN KDBQ 081930Z 01010G18KT 10SM CLR 09/00 A3031 720 53 200 360/10G18 RMK AO2
94908KDBQ DBQ20011108133509911/08/01 13:35:31  5-MIN KDBQ 081935Z 36015G21KT 10SM CLR 08/M02 A3031 720 49 100 360/15G21 RMK AO2
94908KDBQ DBQ20011108134009911/08/01 13:40:31  5-MIN KDBQ 081940Z 01014G21KT 10SM CLR 08/M02 A3031 720 49 100 010/14G21 RMK AO2
94908KDBQ DBQ20011108134509311/08/01 13:45:31  5-MIN KDBQ 081945Z 33013KT 10SM CLR 08/M01 A3031 720 53 100 330/13 RMK AO2
94908KDBQ DBQ20011108135011011/08/01 13:50:31  5-MIN KDBQ 081950Z 33014KT 10SM CLR 08/M01 A3031 720 53 100 330/14 RMK AO2 SLP269 T00831006
94908KDBQ DBQ20011108135511011/08/01 13:55:31  5-MIN KDBQ 081955Z 33013KT 10SM CLR 08/M01 A3032 710 53 100 330/13 RMK AO2 SLP270 T00831006
94908KDBQ DBQ20011108140009311/08/01 14:00:31  5-MIN KDBQ 082000Z 36012KT 10SM CLR 08/M01 A3032 710 53 100 360/12 RMK AO2
94908KDBQ DBQ20011108140509311/08/01 14:05:31  5-MIN KDBQ 082005Z 34016KT 10SM CLR 08/M01 A3033 710 53 100 330/16 RMK AO2
94908KDBQ DBQ20011108141009311/08/01 14:10:31  5-MIN KDBQ 082010Z 32010KT 10SM CLR 08/M01 A3033 710 53 100 320/10 RMK AO2
94908KDBQ DBQ20011108141509311/08/01 14:15:31  5-MIN KDBQ 082015Z 33014KT 10SM CLR 08/M01 A3033 700 53 100 330/14 RMK AO2
94908KDBQ DBQ20011108142009311/08/01 14:20:31  5-MIN KDBQ 082020Z 33014KT 10SM CLR 08/M01 A3033 700 51 100 330/14 RMK AO2
94908KDBQ DBQ20011108142509311/08/01 14:25:31  5-MIN KDBQ 082025Z 35011KT 10SM CLR 08/M01 A3033 700 53 100 350/11 RMK AO2
94908KDBQ DBQ20011108143009311/08/01 14:30:31  5-MIN KDBQ 082030Z 32013KT 10SM CLR 08/M01 A3033 700 51 100 320/13 RMK AO2
94908KDBQ DBQ20011108143509311/08/01 14:35:31  5-MIN KDBQ 082035Z 34013KT 10SM CLR 08/M02 A3034 690 49 100 340/13 RMK AO2
94908KDBQ DBQ20011108144009311/08/01 14:40:31  5-MIN KDBQ 082040Z 34012KT 10SM CLR 08/M02 A3034 690 49 100 340/12 RMK AO2
94908KDBQ DBQ20011108144509311/08/01 14:45:31  5-MIN KDBQ 082045Z 34010KT 10SM CLR 08/M02 A3034 690 49 100 340/10 RMK AO2
94908KDBQ DBQ20011108145011611/08/01 14:50:31  5-MIN KDBQ 082050Z 35012KT 10SM CLR 08/M02 A3035 690 49 100 340/12 RMK AO2 SLP280 T00831017 51028
94908KDBQ DBQ20011108145511611/08/01 14:55:31  5-MIN KDBQ 082055Z 34010KT 10SM CLR 08/M02 A3035 680 49 100 340/10 RMK AO2 SLP281 T00831017 53014
94908KDBQ DBQ20011108150009311/08/01 15:00:31  5-MIN KDBQ 082100Z 35009KT 10SM CLR 08/M01 A3035 680 51 100 350/09 RMK AO2
94908KDBQ DBQ20011108150509311/08/01 15:05:31  5-MIN KDBQ 082105Z 34011KT 10SM CLR 08/M01 A3035 680 51 100 340/11 RMK AO2
94908KDBQ DBQ20011108151009311/08/01 15:10:31  5-MIN KDBQ 082110Z 33012KT 10SM CLR 08/M01 A3036 680 51 100 330/12 RMK AO2
94908KDBQ DBQ20011108151509311/08/01 15:15:31  5-MIN KDBQ 082115Z 33013KT 10SM CLR 08/M02 A3036 670 49 100 330/13 RMK AO2
94908KDBQ DBQ20011108152009311/08/01 15:20:31  5-MIN KDBQ 082120Z 33014KT 10SM CLR 08/M02 A3037 670 47 100 330/14 RMK AO2
94908KDBQ DBQ20011108152509311/08/01 15:25:31  5-MIN KDBQ 082125Z 35010KT 10SM CLR 08/M02 A3037 670 47 100 350/10 RMK AO2
94908KDBQ DBQ20011108153009311/08/01 15:30:31  5-MIN KDBQ 082130Z 35011KT 10SM CLR 08/M02 A3037 670 47 100 350/11 RMK AO2
94908KDBQ DBQ20011108153509311/08/01 15:35:31  5-MIN KDBQ 082135Z 34013KT 10SM CLR 08/M02 A3036 670 47 100 340/13 RMK AO2
94908KDBQ DBQ20011108154009111/08/01 15:40:31  5-MIN KDBQ 082140Z 34009KT 10SM CLR 08/M03 A3037 670 47 0 340/09 RMK AO2
94908KDBQ DBQ20011108154509111/08/01 15:45:31  5-MIN KDBQ 082145Z 35011KT 10SM CLR 08/M03 A3037 660 47 0 350/11 RMK AO2
94908KDBQ DBQ20011108155010811/08/01 15:50:31  5-MIN KDBQ 082150Z 34010KT 10SM CLR 08/M03 A3037 660 47 0 340/10 RMK AO2 SLP289 T00781028
94908KDBQ DBQ20011108155510811/08/01 15:55:31  5-MIN KDBQ 082155Z 34009KT 10SM CLR 08/M03 A3037 660 47 0 340/09 RMK AO2 SLP290 T00781028
94908KDBQ DBQ20011108160009111/08/01 16:00:31  5-MIN KDBQ 082200Z 35009KT 10SM CLR 08/M03 A3038 660 47 0 350/09 RMK AO2
94908KDBQ DBQ20011108160509111/08/01 16:05:31  5-MIN KDBQ 082205Z 34012KT 10SM CLR 08/M03 A3038 650 47 0 340/12 RMK AO2
94908KDBQ DBQ20011108161009111/08/01 16:10:31  5-MIN KDBQ 082210Z 34009KT 10SM CLR 07/M03 A3038 650 49 0 340/09 RMK AO2
94908KDBQ DBQ20011108161509111/08/01 16:15:31  5-MIN KDBQ 082215Z 34007KT 10SM CLR 07/M02 A3038 650 51 0 340/07 RMK AO2
94908KDBQ DBQ20011108162009411/08/01 16:20:31  5-MIN KDBQ 082220Z 34007KT 10SM CLR 07/M02 A3039 650 53 -100 340/07 RMK AO2
94908KDBQ DBQ20011108162509411/08/01 16:25:31  5-MIN KDBQ 082225Z 35006KT 10SM CLR 07/M02 A3038 650 53 -100 350/06 RMK AO2
94908KDBQ DBQ20011108163009411/08/01 16:30:31  5-MIN KDBQ 082230Z 34006KT 10SM CLR 06/M02 A3038 650 55 -200 340/06 RMK AO2
94908KDBQ DBQ20011108163509411/08/01 16:35:31  5-MIN KDBQ 082235Z 34006KT 10SM CLR 06/M02 A3038 650 57 -200 340/06 RMK AO2
94908KDBQ DBQ20011108164009411/08/01 16:40:31  5-MIN KDBQ 082240Z 34005KT 10SM CLR 05/M03 A3038 650 57 -300 340/05 RMK AO2
94908KDBQ DBQ20011108164509411/08/01 16:45:31  5-MIN KDBQ 082245Z 34006KT 10SM CLR 05/M03 A3039 650 57 -300 340/06 RMK AO2
94908KDBQ DBQ20011108165011111/08/01 16:50:31  5-MIN KDBQ 082250Z 34006KT 10SM CLR 04/M03 A3039 640 59 -400 340/06 RMK AO2 SLP299 T00441028
94908KDBQ DBQ20011108165511111/08/01 16:55:31  5-MIN KDBQ 082255Z 34006KT 10SM CLR 04/M02 A3040 640 64 -500 340/06 RMK AO2 SLP302 T00391022
94908KDBQ DBQ20011108170009411/08/01 17:00:31  5-MIN KDBQ 082300Z 34007KT 10SM CLR 04/M03 A3040 630 62 -500 330/07 RMK AO2
94908KDBQ DBQ20011108170509411/08/01 17:05:31  5-MIN KDBQ 082305Z 34006KT 10SM CLR 04/M02 A3041 630 64 -500 340/06 RMK AO2
94908KDBQ DBQ20011108171009411/08/01 17:10:31  5-MIN KDBQ 082310Z 33005KT 10SM CLR 04/M02 A3041 630 64 -500 330/05 RMK AO2
94908KDBQ DBQ20011108171509411/08/01 17:15:31  5-MIN KDBQ 082315Z 33005KT 10SM CLR 05/M03 A3041 630 57 -300 330/05 RMK AO2
94908KDBQ DBQ20011108172009411/08/01 17:20:31  5-MIN KDBQ 082320Z 33004KT 10SM CLR 04/M03 A3041 630 59 -400 330/04 RMK AO2
94908KDBQ DBQ20011108172509411/08/01 17:25:31  5-MIN KDBQ 082325Z 33004KT 10SM CLR 04/M03 A3041 620 59 -400 330/04 RMK AO2
94908KDBQ DBQ20011108173009411/08/01 17:30:31  5-MIN KDBQ 082330Z 34005KT 10SM CLR 03/M03 A3042 620 64 -600 340/05 RMK AO2
94908KDBQ DBQ20011108173509411/08/01 17:35:31  5-MIN KDBQ 082335Z 34005KT 10SM CLR 04/M03 A3042 620 59 -400 340/05 RMK AO2
94908KDBQ DBQ20011108174009411/08/01 17:40:31  5-MIN KDBQ 082340Z 33005KT 10SM CLR 05/M03 A3042 620 57 -400 330/05 RMK AO2
94908KDBQ DBQ20011108174509411/08/01 17:45:31  5-MIN KDBQ 082345Z 32003KT 10SM CLR 04/M03 A3042 620 62 -500 310/03 RMK AO2
94908KDBQ DBQ20011108175012911/08/01 17:50:31  5-MIN KDBQ 082350Z 29003KT 10SM CLR 03/M03 A3042 620 67 -600 290/03 RMK AO2 SLP309 T00281028 10089 20028 53014
94908KDBQ DBQ20011108175512911/08/01 17:55:31  5-MIN KDBQ 082355Z 29004KT 10SM CLR 04/M03 A3042 620 62 -500 290/04 RMK AO2 SLP308 T00391028 10089 20028 51023
94908KDBQ DBQ20011108180009411/08/01 18:00:31  5-MIN KDBQ 090000Z 30004KT 10SM CLR 04/M03 A3042 620 62 -500 290/04 RMK AO2
94908KDBQ DBQ20011108180509411/08/01 18:05:31  5-MIN KDBQ 090005Z 28004KT 10SM CLR 03/M03 A3042 620 64 -600 280/04 RMK AO2
94908KDBQ DBQ20011108181009411/08/01 18:10:31  5-MIN KDBQ 090010Z 29004KT 10SM CLR 03/M03 A3041 620 64 -600 280/04 RMK AO2
94908KDBQ DBQ20011108181509411/08/01 18:15:31  5-MIN KDBQ 090015Z 29004KT 10SM CLR 03/M03 A3041 620 64 -600 290/04 RMK AO2
94908KDBQ DBQ20011108182009411/08/01 18:20:31  5-MIN KDBQ 090020Z 29005KT 10SM CLR 04/M03 A3042 620 59 -400 290/05 RMK AO2
94908KDBQ DBQ20011108182509411/08/01 18:25:31  5-MIN KDBQ 090025Z 28004KT 10SM CLR 04/M03 A3042 620 59 -400 280/04 RMK AO2
94908KDBQ DBQ20011108183009411/08/01 18:30:31  5-MIN KDBQ 090030Z 00000KT 10SM CLR 02/M03 A3042 620 72 -800 000/00 RMK AO2
94908KDBQ DBQ20011108183509411/08/01 18:35:31  5-MIN KDBQ 090035Z 00000KT 10SM CLR 02/M02 A3042 610 75 -800 000/00 RMK AO2
94908KDBQ DBQ20011108184009411/08/01 18:40:31  5-MIN KDBQ 090040Z 29004KT 10SM CLR 02/M02 A3043 610 72 -700 290/04 RMK AO2
94908KDBQ DBQ20011108184509411/08/01 18:45:31  5-MIN KDBQ 090045Z 30005KT 10SM CLR 03/M03 A3043 610 67 -600 300/05 RMK AO2
94908KDBQ DBQ20011108185011111/08/01 18:50:31  5-MIN KDBQ 090050Z 30005KT 10SM CLR 03/M03 A3043 610 64 -600 300/05 RMK AO2 SLP313 T00331028
94908KDBQ DBQ20011108185511111/08/01 18:55:31  5-MIN KDBQ 090055Z 31005KT 10SM CLR 04/M03 A3043 610 59 -500 300/05 RMK AO2 SLP313 T00391033
94908KDBQ DBQ20011108190009411/08/01 19:00:31  5-MIN KDBQ 090100Z 30005KT 10SM CLR 04/M03 A3043 610 62 -500 300/05 RMK AO2
94908KDBQ DBQ20011108190509411/08/01 19:05:31  5-MIN KDBQ 090105Z 30005KT 10SM CLR 04/M03 A3043 610 59 -500 300/05 RMK AO2
94908KDBQ DBQ20011108191009411/08/01 19:10:31  5-MIN KDBQ 090110Z 30005KT 10SM CLR 04/M03 A3043 610 59 -400 300/05 RMK AO2
94908KDBQ DBQ20011108191509411/08/01 19:15:31  5-MIN KDBQ 090115Z 29005KT 10SM CLR 03/M03 A3043 610 61 -600 290/05 RMK AO2
94908KDBQ DBQ20011108192009411/08/01 19:20:31  5-MIN KDBQ 090120Z 29005KT 10SM CLR 03/M03 A3043 610 61 -600 290/05 RMK AO2
94908KDBQ DBQ20011108192509411/08/01 19:25:31  5-MIN KDBQ 090125Z 31005KT 10SM CLR 03/M03 A3043 610 61 -600 310/05 RMK AO2
94908KDBQ DBQ20011108193009411/08/01 19:30:31  5-MIN KDBQ 090130Z 30006KT 10SM CLR 02/M03 A3043 610 69 -800 300/06 RMK AO2
94908KDBQ DBQ20011108193509411/08/01 19:35:31  5-MIN KDBQ 090135Z 30006KT 10SM CLR 02/M03 A3043 610 67 -700 300/06 RMK AO2
94908KDBQ DBQ20011108194009411/08/01 19:40:31  5-MIN KDBQ 090140Z 30006KT 10SM CLR 02/M03 A3043 610 67 -700 300/06 RMK AO2
94908KDBQ DBQ20011108194509411/08/01 19:45:31  5-MIN KDBQ 090145Z 30005KT 10SM CLR 02/M03 A3043 610 69 -800 300/05 RMK AO2
94908KDBQ DBQ20011108195011111/08/01 19:50:31  5-MIN KDBQ 090150Z 30005KT 10SM CLR 02/M03 A3043 610 67 -700 300/05 RMK AO2 SLP314 T00221033
94908KDBQ DBQ20011108195511111/08/01 19:55:31  5-MIN KDBQ 090155Z 30005KT 10SM CLR 03/M03 A3043 610 64 -600 300/05 RMK AO2 SLP314 T00281033
94908KDBQ DBQ20011108200010411/08/01 20:00:31  5-MIN KDBQ 090200Z AUTO 30005KT 10SM CLR 02/M03 A3043 610 67 -700 300/05 RMK AO2 TSNO
94908KDBQ DBQ20011108200510411/08/01 20:05:31  5-MIN KDBQ 090205Z AUTO 29004KT 10SM CLR 03/M03 A3043 610 64 -600 290/04 RMK AO2 TSNO
94908KDBQ DBQ20011108201010411/08/01 20:10:31  5-MIN KDBQ 090210Z AUTO 30004KT 10SM CLR 02/M03 A3043 610 69 -800 300/04 RMK AO2 TSNO
94908KDBQ DBQ20011108201510411/08/01 20:15:31  5-MIN KDBQ 090215Z AUTO 29004KT 10SM CLR 01/M03 A3043 610 72 -800 290/04 RMK AO2 TSNO
94908KDBQ DBQ20011108202010411/08/01 20:20:31  5-MIN KDBQ 090220Z AUTO 28004KT 10SM CLR 01/M04 A3044 600 72 -900 280/04 RMK AO2 TSNO
94908KDBQ DBQ20011108202510411/08/01 20:25:31  5-MIN KDBQ 090225Z AUTO 31004KT 10SM CLR 01/M04 A3044 600 72 -900 310/04 RMK AO2 TSNO
94908KDBQ DBQ20011108203010411/08/01 20:30:31  5-MIN KDBQ 090230Z AUTO 31006KT 10SM CLR 01/M04 A3044 600 72 -900 310/06 RMK AO2 TSNO
94908KDBQ DBQ20011108203510411/08/01 20:35:31  5-MIN KDBQ 090235Z AUTO 31007KT 10SM CLR 01/M04 A3044 600 69 -900 310/07 RMK AO2 TSNO
94908KDBQ DBQ20011108204010411/08/01 20:40:31  5-MIN KDBQ 090240Z AUTO 31007KT 10SM CLR 02/M04 A3044 600 66 -800 310/07 RMK AO2 TSNO
94908KDBQ DBQ20011108204510411/08/01 20:45:31  5-MIN KDBQ 090245Z AUTO 32007KT 10SM CLR 02/M04 A3045 600 66 -800 320/07 RMK AO2 TSNO
94908KDBQ DBQ20011108205012711/08/01 20:50:31  5-MIN KDBQ 090250Z AUTO 32007KT 10SM CLR 02/M04 A3044 600 66 -800 320/07 RMK AO2 SLP319 T00171039 51023 TSNO
94908KDBQ DBQ20011108205512711/08/01 20:55:31  5-MIN KDBQ 090255Z AUTO 33008KT 10SM CLR 02/M04 A3045 590 66 -800 330/08 RMK AO2 SLP320 T00171039 53009 TSNO
94908KDBQ DBQ20011108210010411/08/01 21:00:31  5-MIN KDBQ 090300Z AUTO 32008KT 10SM CLR 02/M04 A3045 590 66 -800 320/08 RMK AO2 TSNO
94908KDBQ DBQ20011108210510411/08/01 21:05:31  5-MIN KDBQ 090305Z AUTO 33008KT 10SM CLR 01/M04 A3045 590 69 -900 330/08 RMK AO2 TSNO
94908KDBQ DBQ20011108211010411/08/01 21:10:31  5-MIN KDBQ 090310Z AUTO 33008KT 10SM CLR 01/M03 A3045 590 72 -900 330/08 RMK AO2 TSNO
94908KDBQ DBQ20011108211510411/08/01 21:15:31  5-MIN KDBQ 090315Z AUTO 33007KT 10SM CLR 01/M03 A3045 600 72 -900 330/07 RMK AO2 TSNO
94908KDBQ DBQ20011108212010411/08/01 21:20:31  5-MIN KDBQ 090320Z AUTO 33007KT 10SM CLR 02/M04 A3045 590 64 -700 330/07 RMK AO2 TSNO
94908KDBQ DBQ20011108212510411/08/01 21:25:31  5-MIN KDBQ 090325Z AUTO 33007KT 10SM CLR 02/M04 A3045 590 64 -700 330/07 RMK AO2 TSNO
94908KDBQ DBQ20011108213010411/08/01 21:30:31  5-MIN KDBQ 090330Z AUTO 33007KT 10SM CLR 02/M04 A3045 590 66 -800 330/07 RMK AO2 TSNO
94908KDBQ DBQ20011108213510411/08/01 21:35:31  5-MIN KDBQ 090335Z AUTO 33005KT 10SM CLR 02/M04 A3044 600 66 -800 330/05 RMK AO2 TSNO
94908KDBQ DBQ20011108214010411/08/01 21:40:31  5-MIN KDBQ 090340Z AUTO 32005KT 10SM CLR 01/M04 A3045 600 72 -900 320/05 RMK AO2 TSNO
94908KDBQ DBQ20011108214510411/08/01 21:45:31  5-MIN KDBQ 090345Z AUTO 33006KT 10SM CLR 01/M04 A3044 600 72 -900 330/06 RMK AO2 TSNO
94908KDBQ DBQ20011108215012211/08/01 21:50:31  5-MIN KDBQ 090350Z AUTO 33004KT 10SM CLR 00/M04 A3044 600 72 -1000 320/04 RMK AO2 SLP319 T00001044 TSNO
94908KDBQ DBQ20011108215512211/08/01 21:55:31  5-MIN KDBQ 090355Z AUTO 32003KT 10SM CLR 00/M04 A3044 600 72 -1000 320/03 RMK AO2 SLP319 T00001044 TSNO
94908KDBQ DBQ20011108220010611/08/01 22:00:31  5-MIN KDBQ 090400Z AUTO 00000KT 10SM CLR M01/M05 A3044 600 72 -1100 000/00 RMK AO2 TSNO
94908KDBQ DBQ20011108220510511/08/01 22:05:31  5-MIN KDBQ 090405Z AUTO 00000KT 10SM CLR 00/M04 A3044 600 72 -1000 000/00 RMK AO2 TSNO
94908KDBQ DBQ20011108221010611/08/01 22:10:31  5-MIN KDBQ 090410Z AUTO 00000KT 10SM CLR M01/M04 A3045 600 75 -1100 000/00 RMK AO2 TSNO
94908KDBQ DBQ20011108221510611/08/01 22:15:31  5-MIN KDBQ 090415Z AUTO 24003KT 10SM CLR M01/M04 A3045 590 78 -1100 240/03 RMK AO2 TSNO
94908KDBQ DBQ20011108222010611/08/01 22:20:31  5-MIN KDBQ 090420Z AUTO 22003KT 10SM CLR M02/M04 A3045 590 81 -1200 220/03 RMK AO2 TSNO
94908KDBQ DBQ20011108222510611/08/01 22:25:31  5-MIN KDBQ 090425Z AUTO 20003KT 10SM CLR M02/M04 A3045 590 81 -1200 200/03 RMK AO2 TSNO
94908KDBQ DBQ20011108223010611/08/01 22:30:31  5-MIN KDBQ 090430Z AUTO 00000KT 10SM CLR M01/M04 A3045 590 78 -1200 000/00 RMK AO2 TSNO
94908KDBQ DBQ20011108223510611/08/01 22:35:31  5-MIN KDBQ 090435Z AUTO 00000KT 10SM CLR M01/M04 A3045 600 78 -1100 000/00 RMK AO2 TSNO
94908KDBQ DBQ20011108224010611/08/01 22:40:31  5-MIN KDBQ 090440Z AUTO 00000KT 10SM CLR M01/M04 A3045 600 78 -1100 000/00 RMK AO2 TSNO
94908KDBQ DBQ20011108224510611/08/01 22:45:31  5-MIN KDBQ 090445Z AUTO 17003KT 10SM CLR M02/M04 A3044 600 81 -1200 170/03 RMK AO2 TSNO
94908KDBQ DBQ20011108225012311/08/01 22:50:31  5-MIN KDBQ 090450Z AUTO 00000KT 10SM CLR M02/M05 A3044 600 78 -1200 000/00 RMK AO2 SLP319 T10171050 TSNO
94908KDBQ DBQ20011108225512311/08/01 22:55:31  5-MIN KDBQ 090455Z AUTO 21003KT 10SM CLR M02/M05 A3044 600 81 -1300 210/03 RMK AO2 SLP319 T10221050 TSNO
94908KDBQ DBQ20011108230010611/08/01 23:00:31  5-MIN KDBQ 090500Z AUTO 20003KT 10SM CLR M02/M04 A3044 600 81 -1200 200/03 RMK AO2 TSNO
94908KDBQ DBQ20011108230510611/08/01 23:05:31  5-MIN KDBQ 090505Z AUTO 21004KT 10SM CLR M02/M05 A3044 600 81 -1300 210/04 RMK AO2 TSNO
94908KDBQ DBQ20011108231010611/08/01 23:10:31  5-MIN KDBQ 090510Z AUTO 21004KT 10SM CLR M03/M05 A3044 600 85 -1300 210/04 RMK AO2 TSNO
94908KDBQ DBQ20011108231510611/08/01 23:15:31  5-MIN KDBQ 090515Z AUTO 20005KT 10SM CLR M03/M05 A3044 600 85 -1300 200/05 RMK AO2 TSNO
94908KDBQ DBQ20011108232010611/08/01 23:20:31  5-MIN KDBQ 090520Z AUTO 20004KT 10SM CLR M02/M04 A3044 600 85 -1300 200/04 RMK AO2 TSNO
94908KDBQ DBQ20011108232510611/08/01 23:25:31  5-MIN KDBQ 090525Z AUTO 20004KT 10SM CLR M02/M04 A3044 600 85 -1300 200/04 RMK AO2 TSNO
94908KDBQ DBQ20011108233010611/08/01 23:30:31  5-MIN KDBQ 090530Z AUTO 21004KT 10SM CLR M02/M04 A3044 600 85 -1300 210/04 RMK AO2 TSNO
94908KDBQ DBQ20011108233510611/08/01 23:35:31  5-MIN KDBQ 090535Z AUTO 22004KT 10SM CLR M02/M04 A3045 600 85 -1300 210/04 RMK AO2 TSNO
94908KDBQ DBQ20011108234010611/08/01 23:40:31  5-MIN KDBQ 090540Z AUTO 21004KT 10SM CLR M02/M04 A3045 600 85 -1300 210/04 RMK AO2 TSNO
94908KDBQ DBQ20011108234510611/08/01 23:45:31  5-MIN KDBQ 090545Z AUTO 20004KT 10SM CLR M02/M04 A3044 600 85 -1300 200/04 RMK AO2 TSNO
94908KDBQ DBQ20011108235015111/08/01 23:50:31  5-MIN KDBQ 090550Z AUTO 21005KT 10SM CLR M02/M04 A3044 600 85 -1300 210/05 RMK AO2 SLP319 T10221044 10050 21028 401501028 53009 TSNO
94908KDBQ DBQ20011108235515111/08/01 23:55:31  5-MIN KDBQ 090555Z AUTO 21005KT 10SM CLR M02/M04 A3044 600 85 -1300 210/05 RMK AO2 SLP319 T10221044 10050 21028 401501028 56002 TSNO
94908KDBQ DBQ20011109000010611/09/01 00:00:31  5-MIN KDBQ 090600Z AUTO 20005KT 10SM CLR M02/M04 A3044 600 85 -1300 200/05 RMK AO2 TSNO
94908KDBQ DBQ20011109000510611/09/01 00:05:31  5-MIN KDBQ 090605Z AUTO 21004KT 10SM CLR M02/M04 A3043 610 85 -1300 210/04 RMK AO2 TSNO
94908KDBQ DBQ20011109001010611/09/01 00:10:31  5-MIN KDBQ 090610Z AUTO 19004KT 10SM CLR M02/M04 A3043 610 85 -1300 190/04 RMK AO2 TSNO
94908KDBQ DBQ20011109001510611/09/01 00:15:31  5-MIN KDBQ 090615Z AUTO 20003KT 10SM CLR M02/M04 A3043 610 85 -1300 200/03 RMK AO2 TSNO
94908KDBQ DBQ20011109002010611/09/01 00:20:31  5-MIN KDBQ 090620Z AUTO 20003KT 10SM CLR M02/M04 A3043 610 85 -1300 200/03 RMK AO2 TSNO
94908KDBQ DBQ20011109002510611/09/01 00:25:31  5-MIN KDBQ 090625Z AUTO 21003KT 10SM CLR M02/M04 A3043 610 85 -1300 210/03 RMK AO2 TSNO
94908KDBQ DBQ20011109003010611/09/01 00:30:31  5-MIN KDBQ 090630Z AUTO 20004KT 10SM CLR M02/M04 A3043 610 85 -1300 200/04 RMK AO2 TSNO
94908KDBQ DBQ20011109003510611/09/01 00:35:31  5-MIN KDBQ 090635Z AUTO 20004KT 10SM CLR M03/M05 A3043 610 85 -1300 200/04 RMK AO2 TSNO
94908KDBQ DBQ20011109004010611/09/01 00:40:31  5-MIN KDBQ 090640Z AUTO 20004KT 10SM CLR M03/M05 A3043 610 85 -1300 200/04 RMK AO2 TSNO
94908KDBQ DBQ20011109004510611/09/01 00:45:31  5-MIN KDBQ 090645Z AUTO 20003KT 10SM CLR M02/M04 A3043 610 85 -1300 200/03 RMK AO2 TSNO
94908KDBQ DBQ20011109005012311/09/01 00:50:31  5-MIN KDBQ 090650Z AUTO 20004KT 10SM CLR M02/M04 A3043 610 81 -1200 200/04 RMK AO2 SLP314 T10171044 TSNO
94908KDBQ DBQ20011109005512311/09/01 00:55:31  5-MIN KDBQ 090655Z AUTO 22004KT 10SM CLR M02/M04 A3043 610 85 -1300 220/04 RMK AO2 SLP313 T10221044 TSNO
94908KDBQ DBQ20011109010010611/09/01 01:00:31  5-MIN KDBQ 090700Z AUTO 20004KT 10SM CLR M02/M04 A3042 620 81 -1200 200/04 RMK AO2 TSNO
94908KDBQ DBQ20011109010510611/09/01 01:05:31  5-MIN KDBQ 090705Z AUTO 20005KT 10SM CLR M02/M04 A3042 620 85 -1300 200/05 RMK AO2 TSNO
94908KDBQ DBQ20011109011011311/09/01 01:10:31  5-MIN KDBQ 090710Z AUTO 19006KT 10SM CLR M03/M05 A3041 630 85 -1300 190/06 RMK AO2 PRESFR TSNO
94908KDBQ DBQ20011109011510611/09/01 01:15:31  5-MIN KDBQ 090715Z AUTO 19006KT 10SM CLR M03/M05 A3040 630 85 -1300 190/06 RMK AO2 TSNO
94908KDBQ DBQ20011109012010611/09/01 01:20:31  5-MIN KDBQ 090720Z AUTO 20005KT 10SM CLR M03/M04 A3040 630 88 -1300 200/05 RMK AO2 TSNO
94908KDBQ DBQ20011109012510611/09/01 01:25:31  5-MIN KDBQ 090725Z AUTO 20004KT 10SM CLR M03/M05 A3040 640 85 -1300 190/04 RMK AO2 TSNO
94908KDBQ DBQ20011109013010611/09/01 01:30:31  5-MIN KDBQ 090730Z AUTO 19006KT 10SM CLR M03/M05 A3039 640 85 -1300 190/06 RMK AO2 TSNO
94908KDBQ DBQ20011109013510611/09/01 01:35:31  5-MIN KDBQ 090735Z AUTO 19005KT 10SM CLR M03/M05 A3039 650 85 -1300 180/05 RMK AO2 TSNO
94908KDBQ DBQ20011109014010611/09/01 01:40:31  5-MIN KDBQ 090740Z AUTO 20005KT 10SM CLR M03/M05 A3038 650 85 -1300 200/05 RMK AO2 TSNO
94908KDBQ DBQ20011109014510611/09/01 01:45:31  5-MIN KDBQ 090745Z AUTO 20006KT 10SM CLR M03/M05 A3039 650 85 -1300 200/06 RMK AO2 TSNO
94908KDBQ DBQ20011109015012311/09/01 01:50:31  5-MIN KDBQ 090750Z AUTO 19005KT 10SM CLR M04/M06 A3038 650 85 -1400 190/05 RMK AO2 SLP299 T10391061 TSNO
94908KDBQ DBQ20011109015512311/09/01 01:55:31  5-MIN KDBQ 090755Z AUTO 19005KT 10SM CLR M03/M06 A3038 650 85 -1400 190/05 RMK AO2 SLP299 T10331056 TSNO
94908KDBQ DBQ20011109020010611/09/01 02:00:31  5-MIN KDBQ 090800Z AUTO 20004KT 10SM CLR M03/M05 A3039 650 85 -1300 200/04 RMK AO2 TSNO
94908KDBQ DBQ20011109020510611/09/01 02:05:31  5-MIN KDBQ 090805Z AUTO 21004KT 10SM CLR M03/M06 A3038 650 85 -1400 210/04 RMK AO2 TSNO
94908KDBQ DBQ20011109021010611/09/01 02:10:31  5-MIN KDBQ 090810Z AUTO 21003KT 10SM CLR M03/M05 A3039 650 88 -1400 210/03 RMK AO2 TSNO
94908KDBQ DBQ20011109021510611/09/01 02:15:31  5-MIN KDBQ 090815Z AUTO 25004KT 10SM CLR M03/M05 A3039 640 88 -1400 250/04 RMK AO2 TSNO
94908KDBQ DBQ20011109022010611/09/01 02:20:31  5-MIN KDBQ 090820Z AUTO 25004KT 10SM CLR M03/M06 A3039 640 85 -1400 240/04 RMK AO2 TSNO
94908KDBQ DBQ20011109022510611/09/01 02:25:31  5-MIN KDBQ 090825Z AUTO 21005KT 10SM CLR M03/M06 A3039 650 85 -1400 210/05 RMK AO2 TSNO
94908KDBQ DBQ20011109023010611/09/01 02:30:31  5-MIN KDBQ 090830Z AUTO 21005KT 10SM CLR M03/M05 A3039 650 88 -1400 210/05 RMK AO2 TSNO
94908KDBQ DBQ20011109023510611/09/01 02:35:31  5-MIN KDBQ 090835Z AUTO 22004KT 10SM CLR M03/M06 A3039 640 85 -1400 220/04 RMK AO2 TSNO
94908KDBQ DBQ20011109024010611/09/01 02:40:31  5-MIN KDBQ 090840Z AUTO 21004KT 10SM CLR M03/M05 A3040 640 88 -1400 210/04 RMK AO2 TSNO
94908KDBQ DBQ20011109024510611/09/01 02:45:31  5-MIN KDBQ 090845Z AUTO 21004KT 10SM CLR M03/M05 A3040 640 88 -1400 210/04 RMK AO2 TSNO
94908KDBQ DBQ20011109025012911/09/01 02:50:31  5-MIN KDBQ 090850Z AUTO 20003KT 10SM CLR M03/M05 A3039 640 85 -1300 200/03 RMK AO2 SLP303 T10281050 56002 TSNO
94908KDBQ DBQ20011109025512911/09/01 02:55:31  5-MIN KDBQ 090855Z AUTO 19004KT 10SM CLR M03/M05 A3039 650 88 -1400 190/04 RMK AO2 SLP302 T10331050 55017 TSNO
94908KDBQ DBQ20011109030010611/09/01 03:00:31  5-MIN KDBQ 090900Z AUTO 19004KT 10SM CLR M03/M05 A3039 650 88 -1400 190/04 RMK AO2 TSNO
94908KDBQ DBQ20011109030510611/09/01 03:05:31  5-MIN KDBQ 090905Z AUTO 18004KT 10SM CLR M03/M05 A3038 650 88 -1400 180/04 RMK AO2 TSNO
94908KDBQ DBQ20011109031010611/09/01 03:10:31  5-MIN KDBQ 090910Z AUTO 19005KT 10SM CLR M03/M05 A3038 650 85 -1300 190/05 RMK AO2 TSNO
94908KDBQ DBQ20011109031510611/09/01 03:15:31  5-MIN KDBQ 090915Z AUTO 20004KT 10SM CLR M03/M04 A3038 660 88 -1300 190/04 RMK AO2 TSNO
94908KDBQ DBQ20011109032010611/09/01 03:20:31  5-MIN KDBQ 090920Z AUTO 20004KT 10SM CLR M03/M04 A3038 660 88 -1300 190/04 RMK AO2 TSNO
94908KDBQ DBQ20011109032510611/09/01 03:25:31  5-MIN KDBQ 090925Z AUTO 20004KT 10SM CLR M03/M04 A3038 660 88 -1300 200/04 RMK AO2 TSNO
94908KDBQ DBQ20011109033010611/09/01 03:30:31  5-MIN KDBQ 090930Z AUTO 20004KT 10SM CLR M02/M04 A3038 650 85 -1200 200/04 RMK AO2 TSNO
94908KDBQ DBQ20011109033510611/09/01 03:35:31  5-MIN KDBQ 090935Z AUTO 20004KT 10SM CLR M03/M05 A3038 660 85 -1300 200/04 RMK AO2 TSNO
94908KDBQ DBQ20011109034010611/09/01 03:40:31  5-MIN KDBQ 090940Z AUTO 20005KT 10SM CLR M03/M05 A3038 660 88 -1300 200/05 RMK AO2 TSNO
94908KDBQ DBQ20011109034510611/09/01 03:45:31  5-MIN KDBQ 090945Z AUTO 19005KT 10SM CLR M03/M06 A3037 660 85 -1300 190/05 RMK AO2 TSNO
94908KDBQ DBQ20011109035012311/09/01 03:50:31  5-MIN KDBQ 090950Z AUTO 20006KT 10SM CLR M03/M06 A3037 660 85 -1300 190/06 RMK AO2 SLP295 T10331056 TSNO
94908KDBQ DBQ20011109035512311/09/01 03:55:31  5-MIN KDBQ 090955Z AUTO 19006KT 10SM CLR M03/M06 A3037 670 85 -1300 190/06 RMK AO2 SLP294 T10331056 TSNO
94908KDBQ DBQ20011109040010611/09/01 04:00:31  5-MIN KDBQ 091000Z AUTO 19006KT 10SM CLR M03/M05 A3036 670 88 -1300 190/06 RMK AO2 TSNO
94908KDBQ DBQ20011109040510611/09/01 04:05:31  5-MIN KDBQ 091005Z AUTO 19006KT 10SM CLR M03/M06 A3037 670 85 -1300 190/06 RMK AO2 TSNO
94908KDBQ DBQ20011109041010611/09/01 04:10:31  5-MIN KDBQ 091010Z AUTO 20005KT 10SM CLR M03/M06 A3036 670 85 -1300 200/05 RMK AO2 TSNO
94908KDBQ DBQ20011109041510611/09/01 04:15:31  5-MIN KDBQ 091015Z AUTO 19006KT 10SM CLR M04/M06 A3036 670 88 -1400 190/06 RMK AO2 TSNO
94908KDBQ DBQ20011109042010611/09/01 04:20:31  5-MIN KDBQ 091020Z AUTO 19006KT 10SM CLR M03/M06 A3036 680 85 -1300 190/06 RMK AO2 TSNO
94908KDBQ DBQ20011109042510611/09/01 04:25:31  5-MIN KDBQ 091025Z AUTO 19006KT 10SM CLR M03/M06 A3036 680 85 -1300 190/06 RMK AO2 TSNO
94908KDBQ DBQ20011109043010611/09/01 04:30:31  5-MIN KDBQ 091030Z AUTO 20006KT 10SM CLR M03/M06 A3036 680 85 -1300 200/06 RMK AO2 TSNO
94908KDBQ DBQ20011109043510611/09/01 04:35:31  5-MIN KDBQ 091035Z AUTO 20006KT 10SM CLR M03/M06 A3036 680 85 -1300 200/06 RMK AO2 TSNO
94908KDBQ DBQ20011109044010611/09/01 04:40:31  5-MIN KDBQ 091040Z AUTO 20005KT 10SM CLR M03/M06 A3036 680 85 -1300 200/05 RMK AO2 TSNO
94908KDBQ DBQ20011109044510611/09/01 04:45:31  5-MIN KDBQ 091045Z AUTO 21004KT 10SM CLR M03/M06 A3036 670 85 -1300 210/04 RMK AO2 TSNO
94908KDBQ DBQ20011109045012311/09/01 04:50:31  5-MIN KDBQ 091050Z AUTO 21004KT 10SM CLR M03/M06 A3036 670 85 -1300 210/04 RMK AO2 SLP294 T10331056 TSNO
94908KDBQ DBQ20011109045512311/09/01 04:55:31  5-MIN KDBQ 091055Z AUTO 20004KT 10SM CLR M03/M05 A3036 670 88 -1300 200/04 RMK AO2 SLP295 T10331050 TSNO
94908KDBQ DBQ20011109050010611/09/01 05:00:31  5-MIN KDBQ 091100Z AUTO 21004KT 10SM CLR M03/M06 A3036 670 85 -1300 210/04 RMK AO2 TSNO
94908KDBQ DBQ20011109050510611/09/01 05:05:31  5-MIN KDBQ 091105Z AUTO 21003KT 10SM CLR M03/M06 A3036 670 85 -1300 210/03 RMK AO2 TSNO
94908KDBQ DBQ20011109051010611/09/01 05:10:31  5-MIN KDBQ 091110Z AUTO 19005KT 10SM CLR M03/M06 A3036 680 85 -1300 190/05 RMK AO2 TSNO
94908KDBQ DBQ20011109051510611/09/01 05:15:31  5-MIN KDBQ 091115Z AUTO 19005KT 10SM CLR M04/M06 A3036 680 88 -1400 190/05 RMK AO2 TSNO
94908KDBQ DBQ20011109052010611/09/01 05:20:31  5-MIN KDBQ 091120Z AUTO 20005KT 10SM CLR M04/M06 A3036 680 88 -1400 190/05 RMK AO2 TSNO
94908KDBQ DBQ20011109052510611/09/01 05:25:31  5-MIN KDBQ 091125Z AUTO 20006KT 10SM CLR M04/M06 A3035 680 88 -1400 200/06 RMK AO2 TSNO
94908KDBQ DBQ20011109053010611/09/01 05:30:31  5-MIN KDBQ 091130Z AUTO 19006KT 10SM CLR M04/M06 A3035 680 88 -1400 190/06 RMK AO2 TSNO
94908KDBQ DBQ20011109053509611/09/01 05:35:31  5-MIN KDBQ 091135Z 19005KT 10SM CLR M04/M06 A3035 680 88 -1400 190/05 RMK AO2
94908KDBQ DBQ20011109054009611/09/01 05:40:31  5-MIN KDBQ 091140Z 21005KT 10SM CLR M04/M06 A3035 680 88 -1400 210/05 RMK AO2
94908KDBQ DBQ20011109054509611/09/01 05:45:31  5-MIN KDBQ 091145Z 21004KT 10SM CLR M04/M06 A3035 680 88 -1400 210/04 RMK AO2
94908KDBQ DBQ20011109055013111/09/01 05:50:31  5-MIN KDBQ 091150Z 21004KT 10SM CLR M04/M06 A3035 680 88 -1400 210/04 RMK AO2 SLP291 T10391056 11017 21039 55017
94908KDBQ DBQ20011109055513111/09/01 05:55:31  5-MIN KDBQ 091155Z 22005KT 10SM CLR M03/M06 A3035 680 85 -1300 220/05 RMK AO2 SLP290 T10331056 11017 21039 56013
94908KDBQ DBQ20011109060009611/09/01 06:00:31  5-MIN KDBQ 091200Z 21006KT 10SM CLR M03/M06 A3034 690 85 -1300 210/06 RMK AO2
94908KDBQ DBQ20011109060509611/09/01 06:05:31  5-MIN KDBQ 091205Z 21006KT 10SM CLR M03/M06 A3034 690 85 -1300 210/06 RMK AO2
94908KDBQ DBQ20011109061009611/09/01 06:10:31  5-MIN KDBQ 091210Z 20006KT 10SM CLR M03/M05 A3034 690 88 -1300 200/06 RMK AO2
94908KDBQ DBQ20011109061509611/09/01 06:15:31  5-MIN KDBQ 091215Z 20005KT 10SM CLR M03/M06 A3034 690 85 -1300 200/05 RMK AO2
94908KDBQ DBQ20011109062009611/09/01 06:20:31  5-MIN KDBQ 091220Z 21007KT 10SM CLR M03/M05 A3034 690 85 -1200 210/07 RMK AO2
94908KDBQ DBQ20011109062509611/09/01 06:25:31  5-MIN KDBQ 091225Z 21007KT 10SM CLR M03/M04 A3034 700 88 -1200 210/07 RMK AO2
94908KDBQ DBQ20011109063009611/09/01 06:30:31  5-MIN KDBQ 091230Z 21006KT 10SM CLR M03/M05 A3034 700 85 -1200 210/06 RMK AO2
94908KDBQ DBQ20011109063509611/09/01 06:35:31  5-MIN KDBQ 091235Z 21006KT 10SM CLR M03/M05 A3034 690 88 -1300 210/06 RMK AO2
94908KDBQ DBQ20011109064009611/09/01 06:40:31  5-MIN KDBQ 091240Z 21007KT 10SM CLR M03/M05 A3033 700 85 -1200 210/07 RMK AO2
94908KDBQ DBQ20011109064509611/09/01 06:45:31  5-MIN KDBQ 091245Z 21008KT 10SM CLR M03/M05 A3033 700 85 -1200 210/08 RMK AO2
94908KDBQ DBQ20011109065011311/09/01 06:50:31  5-MIN KDBQ 091250Z 21008KT 10SM CLR M03/M05 A3033 700 85 -1200 210/08 RMK AO2 SLP284 T10281050
94908KDBQ DBQ20011109065511311/09/01 06:55:31  5-MIN KDBQ 091255Z 21008KT 10SM CLR M03/M04 A3033 700 88 -1200 210/08 RMK AO2 SLP284 T10281044
94908KDBQ DBQ20011109070009611/09/01 07:00:31  5-MIN KDBQ 091300Z 21009KT 10SM CLR M02/M04 A3033 700 85 -1100 210/09 RMK AO2
94908KDBQ DBQ20011109070509611/09/01 07:05:31  5-MIN KDBQ 091305Z 21009KT 10SM CLR M02/M04 A3033 700 85 -1100 210/09 RMK AO2
94908KDBQ DBQ20011109071009611/09/01 07:10:31  5-MIN KDBQ 091310Z 20010KT 10SM CLR M01/M04 A3032 710 81 -1000 200/10 RMK AO2
94908KDBQ DBQ20011109071509611/09/01 07:15:31  5-MIN KDBQ 091315Z 20010KT 10SM CLR M01/M04 A3032 710 81 -1000 200/10 RMK AO2
94908KDBQ DBQ20011109072009611/09/01 07:20:31  5-MIN KDBQ 091320Z 21009KT 10SM CLR M01/M03 A3032 710 85 -1000 210/09 RMK AO2
94908KDBQ DBQ20011109072509611/09/01 07:25:31  5-MIN KDBQ 091325Z 20009KT 10SM CLR M01/M03 A3032 710 85 -1000 200/09 RMK AO2
94908KDBQ DBQ20011109073009511/09/01 07:30:31  5-MIN KDBQ 091330Z 21009KT 10SM CLR M01/M03 A3032 710 81 -900 210/09 RMK AO2
94908KDBQ DBQ20011109073509511/09/01 07:35:31  5-MIN KDBQ 091335Z 20010KT 10SM CLR M01/M03 A3031 720 81 -900 200/10 RMK AO2
94908KDBQ DBQ20011109074009511/09/01 07:40:31  5-MIN KDBQ 091340Z 20011KT 10SM CLR M01/M03 A3031 720 85 -900 200/11 RMK AO2
94908KDBQ DBQ20011109074509411/09/01 07:45:31  5-MIN KDBQ 091345Z 20013KT 10SM CLR 00/M03 A3030 730 81 -800 200/13 RMK AO2
94908KDBQ DBQ20011109075011111/09/01 07:50:31  5-MIN KDBQ 091350Z 20013KT 10SM CLR 00/M02 A3030 730 85 -800 200/13 RMK AO2 SLP272 T00001022
94908KDBQ DBQ20011109075511111/09/01 07:55:31  5-MIN KDBQ 091355Z 20013KT 10SM CLR 00/M02 A3030 730 85 -800 200/13 RMK AO2 SLP271 T00001022
94908KDBQ DBQ20011109080009411/09/01 08:00:31  5-MIN KDBQ 091400Z 20012KT 10SM CLR 01/M02 A3030 730 82 -800 200/12 RMK AO2
94908KDBQ DBQ20011109080509411/09/01 08:05:31  5-MIN KDBQ 091405Z 20012KT 10SM CLR 01/M02 A3030 730 85 -800 200/12 RMK AO2
94908KDBQ DBQ20011109081009411/09/01 08:10:31  5-MIN KDBQ 091410Z 20013KT 10SM CLR 01/M02 A3029 740 82 -700 200/13 RMK AO2
94908KDBQ DBQ20011109081509411/09/01 08:15:31  5-MIN KDBQ 091415Z 20012KT 10SM CLR 01/M02 A3029 740 82 -700 200/12 RMK AO2
94908KDBQ DBQ20011109082009411/09/01 08:20:31  5-MIN KDBQ 091420Z 21013KT 10SM CLR 02/M02 A3029 740 78 -600 200/13 RMK AO2
94908KDBQ DBQ20011109082509411/09/01 08:25:31  5-MIN KDBQ 091425Z 20014KT 10SM CLR 02/M01 A3029 740 78 -500 200/14 RMK AO2
94908KDBQ DBQ20011109083009411/09/01 08:30:31  5-MIN KDBQ 091430Z 21013KT 10SM CLR 03/M01 A3029 740 75 -500 210/13 RMK AO2
94908KDBQ DBQ20011109083509411/09/01 08:35:31  5-MIN KDBQ 091435Z 21014KT 10SM CLR 03/M01 A3029 740 75 -500 210/14 RMK AO2
94908KDBQ DBQ20011109084009411/09/01 08:40:31  5-MIN KDBQ 091440Z 21016KT 10SM CLR 03/M01 A3028 740 72 -400 210/16 RMK AO2
94908KDBQ DBQ20011109084510011/09/01 08:45:31  5-MIN KDBQ 091445Z 21017G21KT 10SM CLR 03/M01 A3028 740 72 -400 210/17G21 RMK AO2
94908KDBQ DBQ20011109085011711/09/01 08:50:31  5-MIN KDBQ 091450Z 21017KT 10SM CLR 04/M01 A3028 750 70 -300 210/17 RMK AO2 SLP265 T00391011 56013
94908KDBQ DBQ20011109085511711/09/01 08:55:31  5-MIN KDBQ 091455Z 22015KT 10SM CLR 04/M01 A3028 750 70 -300 220/15 RMK AO2 SLP264 T00391011 57023
94908KDBQ DBQ20011109090009411/09/01 09:00:31  5-MIN KDBQ 091500Z 22017KT 10SM CLR 04/M01 A3028 750 73 -300 220/17 RMK AO2
94908KDBQ DBQ20011109090509411/09/01 09:05:31  5-MIN KDBQ 091505Z 22020KT 10SM CLR 04/M01 A3028 750 67 -300 220/20 RMK AO2
94908KDBQ DBQ20011109091011811/09/01 09:10:31  5-MIN KDBQ 091510Z 22017G26KT 10SM CLR 04/M01 A3028 750 67 -300 220/17G26 RMK AO2 PK WND 22026/1507
94908KDBQ DBQ20011109091511811/09/01 09:15:31  5-MIN KDBQ 091515Z 22017G26KT 10SM CLR 04/M01 A3028 750 70 -300 220/17G26 RMK AO2 PK WND 22026/1507
94908KDBQ DBQ20011109092011211/09/01 09:20:31  5-MIN KDBQ 091520Z 22017KT 10SM CLR 04/M01 A3028 750 67 -300 220/17 RMK AO2 PK WND 22026/1507
94908KDBQ DBQ20011109092511811/09/01 09:25:31  5-MIN KDBQ 091525Z 22016G22KT 10SM CLR 05/M01 A3027 750 67 -200 220/16G22 RMK AO2 PK WND 22026/1507
94908KDBQ DBQ20011109093011811/09/01 09:30:31  5-MIN KDBQ 091530Z 21019G22KT 10SM CLR 05/M01 A3028 750 67 -200 210/19G22 RMK AO2 PK WND 22026/1507
94908KDBQ DBQ20011109093511211/09/01 09:35:31  5-MIN KDBQ 091535Z 22017KT 10SM CLR 05/M01 A3028 750 67 -200 220/17 RMK AO2 PK WND 22026/1507
94908KDBQ DBQ20011109094011811/09/01 09:40:31  5-MIN KDBQ 091540Z 21018G22KT 10SM CLR 06/M01 A3027 750 65 -100 210/18G22 RMK AO2 PK WND 22026/1507
94908KDBQ DBQ20011109094511811/09/01 09:45:31  5-MIN KDBQ 091545Z 21016G22KT 10SM CLR 06/M01 A3026 760 62 -100 210/16G22 RMK AO2 PK WND 22026/1507
94908KDBQ DBQ20011109095013511/09/01 09:50:31  5-MIN KDBQ 091550Z 22019G23KT 10SM CLR 06/M01 A3026 770 62 -100 220/19G23 RMK AO2 PK WND 22026/1507 SLP258 T00561011
94908KDBQ DBQ20011109095512611/09/01 09:55:31  5-MIN KDBQ 091555Z 22021KT 10SM CLR 06/M01 A3026 760 60 0 210/21 RMK AO2 PK WND 22026/1507 SLP257 T00611011
94908KDBQ DBQ20011109100009111/09/01 10:00:31  5-MIN KDBQ 091600Z 22020KT 10SM CLR 06/M01 A3026 760 60 0 220/20 RMK AO2
94908KDBQ DBQ20011109100509111/09/01 10:05:31  5-MIN KDBQ 091605Z 22020KT 10SM CLR 06/M01 A3026 760 60 0 220/20 RMK AO2
94908KDBQ DBQ20011109101009111/09/01 10:10:31  5-MIN KDBQ 091610Z 21017KT 10SM CLR 06/M01 A3027 760 60 0 210/17 RMK AO2
94908KDBQ DBQ20011109101509111/09/01 10:15:31  5-MIN KDBQ 091615Z 22019KT 10SM CLR 06/M01 A3027 760 60 0 220/19 RMK AO2
94908KDBQ DBQ20011109102009711/09/01 10:20:31  5-MIN KDBQ 091620Z 23016G22KT 10SM CLR 07/M01 A3027 750 60 0 220/16G22 RMK AO2
94908KDBQ DBQ20011109102509111/09/01 10:25:31  5-MIN KDBQ 091625Z 22016KT 10SM CLR 07/M01 A3027 760 60 0 220/16 RMK AO2
94908KDBQ DBQ20011109103009111/09/01 10:30:31  5-MIN KDBQ 091630Z 21016KT 10SM CLR 07/M01 A3028 750 57 0 210/16 RMK AO2
94908KDBQ DBQ20011109103509111/09/01 10:35:31  5-MIN KDBQ 091635Z 21016KT 10SM CLR 07/M01 A3027 750 57 0 210/16 RMK AO2
94908KDBQ DBQ20011109104009211/09/01 10:40:31  5-MIN KDBQ 091640Z 22013KT 10SM CLR 08/00 A3027 750 58 100 220/13 RMK AO2
94908KDBQ DBQ20011109104509311/09/01 10:45:31  5-MIN KDBQ 091645Z 22015KT 10SM CLR 08/M01 A3027 760 55 100 220/15 RMK AO2
94908KDBQ DBQ20011109105011011/09/01 10:50:31  5-MIN KDBQ 091650Z 22017KT 10SM CLR 08/M01 A3027 760 53 200 220/17 RMK AO2 SLP260 T00831006
94908KDBQ DBQ20011109105511011/09/01 10:55:31  5-MIN KDBQ 091655Z 23015KT 10SM CLR 08/M01 A3027 760 51 200 230/15 RMK AO2 SLP259 T00831011
94908KDBQ DBQ20011109110009311/09/01 11:00:31  5-MIN KDBQ 091700Z 22016KT 10SM CLR 08/M01 A3026 760 51 200 220/16 RMK AO2
94908KDBQ DBQ20011109110509311/09/01 11:05:31  5-MIN KDBQ 091705Z 21016KT 10SM CLR 09/M01 A3026 760 49 300 210/16 RMK AO2
94908KDBQ DBQ20011109111009311/09/01 11:10:31  5-MIN KDBQ 091710Z 22016KT 10SM CLR 09/M01 A3025 770 49 300 220/16 RMK AO2
94908KDBQ DBQ20011109111509311/09/01 11:15:31  5-MIN KDBQ 091715Z 22015KT 10SM CLR 09/M01 A3025 770 49 300 220/15 RMK AO2
94908KDBQ DBQ20011109112010011/09/01 11:20:31  5-MIN KDBQ 091720Z 22017KT 10SM CLR 09/M01 A3024 780 47 300 220/17 RMK AO2 PRESFR
94908KDBQ DBQ20011109112509911/09/01 11:25:31  5-MIN KDBQ 091725Z 21013G20KT 10SM CLR 09/M02 A3024 780 45 300 210/13G20 RMK AO2
94908KDBQ DBQ20011109113009311/09/01 11:30:31  5-MIN KDBQ 091730Z 22015KT 10SM CLR 09/M01 A3024 780 47 300 220/15 RMK AO2
94908KDBQ DBQ20011109113509311/09/01 11:35:31  5-MIN KDBQ 091735Z 22015KT 10SM CLR 09/M01 A3024 790 47 300 220/15 RMK AO2
94908KDBQ DBQ20011109114009911/09/01 11:40:31  5-MIN KDBQ 091740Z 21016G21KT 10SM CLR 09/M02 A3023 790 45 400 210/16G21 RMK AO2
94908KDBQ DBQ20011109114509311/09/01 11:45:31  5-MIN KDBQ 091745Z 22016KT 10SM CLR 10/M02 A3023 790 44 400 220/16 RMK AO2
94908KDBQ DBQ20011109115012811/09/01 11:50:31  5-MIN KDBQ 091750Z 21014KT 10SM CLR 10/M02 A3023 800 44 400 210/14 RMK AO2 SLP245 T01001017 10100 21039 57023
94908KDBQ DBQ20011109115512811/09/01 11:55:31  5-MIN KDBQ 091755Z 21017KT 10SM CLR 10/M02 A3022 800 42 400 210/17 RMK AO2 SLP244 T01001022 10100 21039 58018
94908KDBQ DBQ20011109120009311/09/01 12:00:31  5-MIN KDBQ 091800Z 22018KT 10SM CLR 11/M02 A3022 800 40 500 220/18 RMK AO2
94908KDBQ DBQ20011109120509311/09/01 12:05:31  5-MIN KDBQ 091805Z 22018KT 10SM CLR 10/M02 A3021 810 42 400 220/18 RMK AO2
94908KDBQ DBQ20011109121009911/09/01 12:10:31  5-MIN KDBQ 091810Z 22018G24KT 10SM CLR 10/M02 A3021 810 42 400 220/18G24 RMK AO2
94908KDBQ DBQ20011109121509911/09/01 12:15:31  5-MIN KDBQ 091815Z 22017G24KT 10SM CLR 11/M02 A3021 810 40 500 220/17G24 RMK AO2
94908KDBQ DBQ20011109122009311/09/01 12:20:31  5-MIN KDBQ 091820Z 22017KT 10SM CLR 11/M02 A3021 820 42 500 220/17 RMK AO2
94908KDBQ DBQ20011109122509311/09/01 12:25:31  5-MIN KDBQ 091825Z 22017KT 10SM CLR 11/M02 A3020 820 40 500 220/17 RMK AO2
94908KDBQ DBQ20011109123009311/09/01 12:30:31  5-MIN KDBQ 091830Z 23016KT 10SM CLR 11/M02 A3020 820 42 500 230/16 RMK AO2
94908KDBQ DBQ20011109123509311/09/01 12:35:31  5-MIN KDBQ 091835Z 21016KT 10SM CLR 11/M01 A3021 820 44 500 210/16 RMK AO2
94908KDBQ DBQ20011109124009311/09/01 12:40:31  5-MIN KDBQ 091840Z 21016KT 10SM CLR 11/M02 A3020 820 42 500 210/16 RMK AO2
94908KDBQ DBQ20011109124509311/09/01 12:45:31  5-MIN KDBQ 091845Z 23015KT 10SM CLR 11/M02 A3020 820 42 500 230/15 RMK AO2
94908KDBQ DBQ20011109125011011/09/01 12:50:31  5-MIN KDBQ 091850Z 22017KT 10SM CLR 11/M02 A3020 820 41 600 220/17 RMK AO2 SLP234 T01111017
94908KDBQ DBQ20011109125511011/09/01 12:55:31  5-MIN KDBQ 091855Z 23017KT 10SM CLR 11/M02 A3019 830 41 600 220/17 RMK AO2 SLP234 T01111017
94908KDBQ DBQ20011109130009311/09/01 13:00:31  5-MIN KDBQ 091900Z 22014KT 10SM CLR 11/M01 A3019 830 42 600 220/14 RMK AO2
94908KDBQ DBQ20011109130509911/09/01 13:05:31  5-MIN KDBQ 091905Z 22017G21KT 10SM CLR 11/M02 A3019 830 41 600 220/17G21 RMK AO2
94908KDBQ DBQ20011109131009311/09/01 13:10:31  5-MIN KDBQ 091910Z 22013KT 10SM CLR 11/M01 A3019 830 42 600 220/13 RMK AO2
94908KDBQ DBQ20011109131509311/09/01 13:15:31  5-MIN KDBQ 091915Z 22014KT 10SM CLR 12/M01 A3018 840 41 700 220/14 RMK AO2
94908KDBQ DBQ20011109132009311/09/01 13:20:31  5-MIN KDBQ 091920Z 22017KT 10SM CLR 12/M02 A3018 840 39 700 220/17 RMK AO2
94908KDBQ DBQ20011109132509911/09/01 13:25:31  5-MIN KDBQ 091925Z 23017G23KT 10SM CLR 12/M02 A3018 840 39 700 230/17G23 RMK AO2
94908KDBQ DBQ20011109133009911/09/01 13:30:31  5-MIN KDBQ 091930Z 24019G23KT 10SM CLR 12/M02 A3018 840 38 700 230/19G23 RMK AO2
94908KDBQ DBQ20011109133509311/09/01 13:35:31  5-MIN KDBQ 091935Z 23016KT 10SM CLR 12/M02 A3018 840 38 800 230/16 RMK AO2
94908KDBQ DBQ20011109134009311/09/01 13:40:31  5-MIN KDBQ 091940Z 23015KT 10SM CLR 12/M02 A3018 840 38 800 230/15 RMK AO2
94908KDBQ DBQ20011109134509311/09/01 13:45:31  5-MIN KDBQ 091945Z 23019KT 10SM CLR 12/M02 A3017 850 38 800 230/19 RMK AO2
94908KDBQ DBQ20011109135011011/09/01 13:50:31  5-MIN KDBQ 091950Z 23016KT 10SM CLR 12/M02 A3017 850 38 800 230/16 RMK AO2 SLP225 T01221017
94908KDBQ DBQ20011109135511011/09/01 13:55:31  5-MIN KDBQ 091955Z 22018KT 10SM CLR 12/M02 A3017 850 38 800 220/18 RMK AO2 SLP226 T01221017
94908KDBQ DBQ20011109140009311/09/01 14:00:31  5-MIN KDBQ 092000Z 23018KT 10SM CLR 12/M02 A3017 850 38 800 230/18 RMK AO2
94908KDBQ DBQ20011109140509311/09/01 14:05:31  5-MIN KDBQ 092005Z 22016KT 10SM CLR 12/M02 A3017 850 38 800 220/16 RMK AO2
94908KDBQ DBQ20011109141009311/09/01 14:10:31  5-MIN KDBQ 092010Z 24015KT 10SM CLR 12/M02 A3017 850 38 800 240/15 RMK AO2
94908KDBQ DBQ20011109141509311/09/01 14:15:31  5-MIN KDBQ 092015Z 23015KT 10SM CLR 12/M01 A3017 850 41 700 230/15 RMK AO2
94908KDBQ DBQ20011109142009311/09/01 14:20:31  5-MIN KDBQ 092020Z 22015KT 10SM CLR 12/M02 A3017 850 39 700 220/15 RMK AO2
94908KDBQ DBQ20011109142509911/09/01 14:25:31  5-MIN KDBQ 092025Z 23015G20KT 10SM CLR 12/M02 A3016 850 38 800 230/15G20 RMK AO2
94908KDBQ DBQ20011109143009911/09/01 14:30:31  5-MIN KDBQ 092030Z 22016G20KT 10SM CLR 12/M01 A3016 860 39 800 220/16G20 RMK AO2
94908KDBQ DBQ20011109143509311/09/01 14:35:31  5-MIN KDBQ 092035Z 24016KT 10SM CLR 12/M01 A3016 860 39 800 240/16 RMK AO2
94908KDBQ DBQ20011109144009311/09/01 14:40:31  5-MIN KDBQ 092040Z 22013KT 10SM CLR 12/M01 A3016 860 39 800 220/13 RMK AO2
94908KDBQ DBQ20011109144509311/09/01 14:45:31  5-MIN KDBQ 092045Z 22015KT 10SM CLR 12/M01 A3015 860 41 800 220/15 RMK AO2
94908KDBQ DBQ20011109145011611/09/01 14:50:31  5-MIN KDBQ 092050Z 22013KT 10SM CLR 12/M01 A3015 860 39 800 220/13 RMK AO2 SLP219 T01221011 58018
94908KDBQ DBQ20011109145511611/09/01 14:55:31  5-MIN KDBQ 092055Z 23016KT 10SM CLR 12/M01 A3015 870 39 800 220/16 RMK AO2 SLP219 T01221011 56023
94908KDBQ DBQ20011109150009311/09/01 15:00:31  5-MIN KDBQ 092100Z 23015KT 10SM CLR 12/M01 A3015 870 39 800 230/15 RMK AO2
94908KDBQ DBQ20011109150509311/09/01 15:05:31  5-MIN KDBQ 092105Z 22012KT 10SM CLR 12/M01 A3015 870 39 800 220/12 RMK AO2
94908KDBQ DBQ20011109151009311/09/01 15:10:31  5-MIN KDBQ 092110Z 23016KT 10SM CLR 12/M02 A3015 870 38 800 230/16 RMK AO2
94908KDBQ DBQ20011109151509311/09/01 15:15:31  5-MIN KDBQ 092115Z 23015KT 10SM CLR 12/M02 A3014 870 38 800 230/15 RMK AO2
94908KDBQ DBQ20011109152009311/09/01 15:20:31  5-MIN KDBQ 092120Z 22015KT 10SM CLR 12/M02 A3014 870 38 800 220/15 RMK AO2
94908KDBQ DBQ20011109152509311/09/01 15:25:31  5-MIN KDBQ 092125Z 22015KT 10SM CLR 12/M02 A3014 870 38 800 220/15 RMK AO2
94908KDBQ DBQ20011109153009311/09/01 15:30:31  5-MIN KDBQ 092130Z 22014KT 10SM CLR 12/M02 A3014 870 38 800 220/14 RMK AO2
94908KDBQ DBQ20011109153509311/09/01 15:35:31  5-MIN KDBQ 092135Z 23016KT 10SM CLR 12/M02 A3014 880 38 700 230/16 RMK AO2
94908KDBQ DBQ20011109154009311/09/01 15:40:31  5-MIN KDBQ 092140Z 23015KT 10SM CLR 12/M02 A3014 880 39 700 230/15 RMK AO2
94908KDBQ DBQ20011109154509311/09/01 15:45:31  5-MIN KDBQ 092145Z 22014KT 10SM CLR 12/M02 A3014 880 39 700 220/14 RMK AO2
94908KDBQ DBQ20011109155011011/09/01 15:50:31  5-MIN KDBQ 092150Z 22012KT 10SM CLR 12/M02 A3014 880 39 700 220/12 RMK AO2 SLP215 T01171017
94908KDBQ DBQ20011109155511011/09/01 15:55:31  5-MIN KDBQ 092155Z 22013KT 10SM CLR 12/M02 A3014 880 39 700 220/13 RMK AO2 SLP215 T01171017
94908KDBQ DBQ20011109160009311/09/01 16:00:31  5-MIN KDBQ 092200Z 22012KT 10SM CLR 12/M02 A3014 880 39 700 220/12 RMK AO2
94908KDBQ DBQ20011109160509311/09/01 16:05:31  5-MIN KDBQ 092205Z 21011KT 10SM CLR 11/M02 A3013 880 41 700 210/11 RMK AO2
94908KDBQ DBQ20011109161009311/09/01 16:10:31  5-MIN KDBQ 092210Z 21009KT 10SM CLR 11/M01 A3014 880 42 700 210/09 RMK AO2
94908KDBQ DBQ20011109161509311/09/01 16:15:31  5-MIN KDBQ 092215Z 21010KT 10SM CLR 11/M01 A3013 880 44 600 210/10 RMK AO2
94908KDBQ DBQ20011109162009311/09/01 16:20:31  5-MIN KDBQ 092220Z 21009KT 10SM CLR 11/M01 A3014 880 44 600 210/09 RMK AO2
94908KDBQ DBQ20011109162509311/09/01 16:25:31  5-MIN KDBQ 092225Z 21010KT 10SM CLR 11/M01 A3013 880 44 600 210/10 RMK AO2
94908KDBQ DBQ20011109163009311/09/01 16:30:31  5-MIN KDBQ 092230Z 21010KT 10SM CLR 11/M01 A3013 880 44 600 210/10 RMK AO2
94908KDBQ DBQ20011109163509311/09/01 16:35:31  5-MIN KDBQ 092235Z 21009KT 10SM CLR 09/M01 A3013 880 47 500 210/09 RMK AO2
94908KDBQ DBQ20011109164009311/09/01 16:40:31  5-MIN KDBQ 092240Z 20008KT 10SM CLR 09/M01 A3013 890 51 400 200/08 RMK AO2
94908KDBQ DBQ20011109164509311/09/01 16:45:31  5-MIN KDBQ 092245Z 20009KT 10SM CLR 08/M01 A3013 890 51 300 200/09 RMK AO2
94908KDBQ DBQ20011109165011011/09/01 16:50:31  5-MIN KDBQ 092250Z 20009KT 10SM CLR 08/M01 A3013 890 51 300 200/09 RMK AO2 SLP212 T00831011
94908KDBQ DBQ20011109165511011/09/01 16:55:31  5-MIN KDBQ 092255Z 20008KT 10SM CLR 08/M01 A3013 890 53 300 200/08 RMK AO2 SLP212 T00781011
94908KDBQ DBQ20011109170009311/09/01 17:00:31  5-MIN KDBQ 092300Z 20008KT 10SM CLR 08/M01 A3013 890 53 300 200/08 RMK AO2
94908KDBQ DBQ20011109170509311/09/01 17:05:31  5-MIN KDBQ 092305Z 21008KT 10SM CLR 07/M01 A3013 890 57 200 210/08 RMK AO2
94908KDBQ DBQ20011109171009311/09/01 17:10:31  5-MIN KDBQ 092310Z 20009KT 10SM CLR 08/M01 A3012 890 53 300 200/09 RMK AO2
94908KDBQ DBQ20011109171509311/09/01 17:15:31  5-MIN KDBQ 092315Z 21010KT 10SM CLR 08/M01 A3013 890 51 300 210/10 RMK AO2
94908KDBQ DBQ20011109172009311/09/01 17:20:31  5-MIN KDBQ 092320Z 21008KT 10SM CLR 08/M01 A3013 890 55 300 210/08 RMK AO2
94908KDBQ DBQ20011109172509311/09/01 17:25:31  5-MIN KDBQ 092325Z 21008KT 10SM CLR 07/M01 A3013 880 57 200 210/08 RMK AO2
94908KDBQ DBQ20011109173009311/09/01 17:30:31  5-MIN KDBQ 092330Z 21008KT 10SM CLR 07/M01 A3013 880 55 200 210/08 RMK AO2
94908KDBQ DBQ20011109173509311/09/01 17:35:31  5-MIN KDBQ 092335Z 21008KT 10SM CLR 07/M01 A3013 890 55 200 210/08 RMK AO2
94908KDBQ DBQ20011109174009311/09/01 17:40:31  5-MIN KDBQ 092340Z 21008KT 10SM CLR 07/M01 A3013 890 57 100 210/08 RMK AO2
94908KDBQ DBQ20011109174509311/09/01 17:45:31  5-MIN KDBQ 092345Z 20009KT 10SM CLR 07/M01 A3012 890 60 100 200/09 RMK AO2
94908KDBQ DBQ20011109175012811/09/01 17:50:31  5-MIN KDBQ 092350Z 21010KT 10SM CLR 07/M01 A3012 890 55 200 210/10 RMK AO2 SLP212 T00721011 10122 20067 56023
94908KDBQ DBQ20011109175512811/09/01 17:55:31  5-MIN KDBQ 092355Z 21009KT 10SM CLR 07/M01 A3013 890 55 200 210/09 RMK AO2 SLP212 T00721011 10122 20067 56008
94908KDBQ DBQ20011109180009311/09/01 18:00:31  5-MIN KDBQ 100000Z 21009KT 10SM CLR 07/M01 A3013 890 57 100 210/09 RMK AO2
94908KDBQ DBQ20011109180509311/09/01 18:05:31  5-MIN KDBQ 100005Z 21009KT 10SM CLR 07/M01 A3013 890 60 100 210/09 RMK AO2
94908KDBQ DBQ20011109181009311/09/01 18:10:31  5-MIN KDBQ 100010Z 21007KT 10SM CLR 07/M01 A3013 890 60 100 210/07 RMK AO2
94908KDBQ DBQ20011109181509311/09/01 18:15:31  5-MIN KDBQ 100015Z 21008KT 10SM CLR 06/M01 A3012 890 60 100 210/08 RMK AO2
94908KDBQ DBQ20011109182009111/09/01 18:20:31  5-MIN KDBQ 100020Z 20010KT 10SM CLR 06/M01 A3012 890 65 0 200/10 RMK AO2
94908KDBQ DBQ20011109182509311/09/01 18:25:31  5-MIN KDBQ 100025Z 20010KT 10SM CLR 06/M01 A3012 900 62 100 200/10 RMK AO2
94908KDBQ DBQ20011109183009311/09/01 18:30:31  5-MIN KDBQ 100030Z 21011KT 10SM CLR 07/M01 A3012 900 57 200 210/11 RMK AO2
94908KDBQ DBQ20011109183509311/09/01 18:35:31  5-MIN KDBQ 100035Z 21011KT 10SM CLR 08/M01 A3012 900 55 300 210/11 RMK AO2
94908KDBQ DBQ20011109184009311/09/01 18:40:31  5-MIN KDBQ 100040Z 21010KT 10SM CLR 08/M01 A3012 900 55 300 210/10 RMK AO2
94908KDBQ DBQ20011109184509311/09/01 18:45:31  5-MIN KDBQ 100045Z 21010KT 10SM CLR 08/M01 A3011 900 55 300 210/10 RMK AO2
94908KDBQ DBQ20011109185011011/09/01 18:50:31  5-MIN KDBQ 100050Z 21009KT 10SM CLR 08/M01 A3012 900 55 300 210/09 RMK AO2 SLP208 T00781006
94908KDBQ DBQ20011109185511011/09/01 18:55:31  5-MIN KDBQ 100055Z 21009KT 10SM CLR 08/M01 A3012 900 55 300 210/09 RMK AO2 SLP209 T00781006
94908KDBQ DBQ20011109190009311/09/01 19:00:31  5-MIN KDBQ 100100Z 21009KT 10SM CLR 08/M01 A3012 900 55 300 210/09 RMK AO2
94908KDBQ DBQ20011109190509311/09/01 19:05:31  5-MIN KDBQ 100105Z 22009KT 10SM CLR 07/M01 A3012 900 57 200 210/09 RMK AO2
94908KDBQ DBQ20011109191009311/09/01 19:10:31  5-MIN KDBQ 100110Z 21009KT 10SM CLR 07/M01 A3012 900 57 200 210/09 RMK AO2
94908KDBQ DBQ20011109191509311/09/01 19:15:31  5-MIN KDBQ 100115Z 21010KT 10SM CLR 07/M01 A3011 900 57 200 210/10 RMK AO2
94908KDBQ DBQ20011109192009311/09/01 19:20:31  5-MIN KDBQ 100120Z 21011KT 10SM CLR 08/M01 A3011 910 55 300 210/11 RMK AO2
94908KDBQ DBQ20011109192509311/09/01 19:25:31  5-MIN KDBQ 100125Z 21012KT 10SM CLR 08/M01 A3010 910 53 400 210/12 RMK AO2
94908KDBQ DBQ20011109193009311/09/01 19:30:31  5-MIN KDBQ 100130Z 21012KT 10SM CLR 08/M01 A3010 910 55 300 210/12 RMK AO2
94908KDBQ DBQ20011109193509311/09/01 19:35:31  5-MIN KDBQ 100135Z 21013KT 10SM CLR 08/M01 A3010 910 53 400 210/13 RMK AO2
94908KDBQ DBQ20011109194009311/09/01 19:40:31  5-MIN KDBQ 100140Z 21013KT 10SM CLR 08/M01 A3010 910 53 400 210/13 RMK AO2
94908KDBQ DBQ20011109194509311/09/01 19:45:31  5-MIN KDBQ 100145Z 21012KT 10SM CLR 08/M01 A3010 910 53 400 210/12 RMK AO2
94908KDBQ DBQ20011109195011011/09/01 19:50:31  5-MIN KDBQ 100150Z 21013KT 10SM CLR 08/M01 A3010 910 53 400 210/13 RMK AO2 SLP202 T00831006
94908KDBQ DBQ20011109195511011/09/01 19:55:31  5-MIN KDBQ 100155Z 21013KT 10SM CLR 08/M01 A3010 910 53 400 210/13 RMK AO2 SLP201 T00831006
94908KDBQ DBQ20011109200010311/09/01 20:00:31  5-MIN KDBQ 100200Z AUTO 21013KT 10SM CLR 08/M01 A3009 920 55 300 210/13 RMK AO2 TSNO
94908KDBQ DBQ20011109200510311/09/01 20:05:31  5-MIN KDBQ 100205Z AUTO 21013KT 10SM CLR 08/M01 A3009 920 55 300 210/13 RMK AO2 TSNO
94908KDBQ DBQ20011109201010311/09/01 20:10:31  5-MIN KDBQ 100210Z AUTO 21014KT 10SM CLR 08/M01 A3009 920 53 400 210/14 RMK AO2 TSNO
94908KDBQ DBQ20011109201510311/09/01 20:15:31  5-MIN KDBQ 100215Z AUTO 21014KT 10SM CLR 08/M01 A3008 930 53 400 210/14 RMK AO2 TSNO
94908KDBQ DBQ20011109202010311/09/01 20:20:31  5-MIN KDBQ 100220Z AUTO 21013KT 10SM CLR 08/M01 A3008 930 53 400 210/13 RMK AO2 TSNO
94908KDBQ DBQ20011109202510311/09/01 20:25:31  5-MIN KDBQ 100225Z AUTO 21013KT 10SM CLR 08/M01 A3008 930 55 300 210/13 RMK AO2 TSNO
94908KDBQ DBQ20011109203010311/09/01 20:30:31  5-MIN KDBQ 100230Z AUTO 21014KT 10SM CLR 08/M01 A3008 930 55 300 210/14 RMK AO2 TSNO
94908KDBQ DBQ20011109203510311/09/01 20:35:31  5-MIN KDBQ 100235Z AUTO 21014KT 10SM CLR 08/M01 A3008 930 55 300 210/14 RMK AO2 TSNO
94908KDBQ DBQ20011109204010311/09/01 20:40:31  5-MIN KDBQ 100240Z AUTO 22014KT 10SM CLR 08/M01 A3008 930 55 300 210/14 RMK AO2 TSNO
94908KDBQ DBQ20011109204510311/09/01 20:45:31  5-MIN KDBQ 100245Z AUTO 22014KT 10SM CLR 08/M01 A3008 930 55 300 220/14 RMK AO2 TSNO
94908KDBQ DBQ20011109205012611/09/01 20:50:31  5-MIN KDBQ 100250Z AUTO 22014KT 10SM CLR 08/M01 A3008 930 55 300 220/14 RMK AO2 SLP193 T00781006 56008 TSNO
94908KDBQ DBQ20011109205512611/09/01 20:55:31  5-MIN KDBQ 100255Z AUTO 22014KT 10SM CLR 08/M01 A3008 930 55 300 220/14 RMK AO2 SLP193 T00781006 58015 TSNO
94908KDBQ DBQ20011109210010311/09/01 21:00:31  5-MIN KDBQ 100300Z AUTO 22014KT 10SM CLR 07/M01 A3008 930 57 300 220/14 RMK AO2 TSNO
94908KDBQ DBQ20011109210510311/09/01 21:05:31  5-MIN KDBQ 100305Z AUTO 22014KT 10SM CLR 07/M01 A3008 930 57 300 220/14 RMK AO2 TSNO
94908KDBQ DBQ20011109211010311/09/01 21:10:31  5-MIN KDBQ 100310Z AUTO 22013KT 10SM CLR 07/M01 A3008 930 57 300 220/13 RMK AO2 TSNO
94908KDBQ DBQ20011109211510311/09/01 21:15:31  5-MIN KDBQ 100315Z AUTO 22012KT 10SM CLR 07/M01 A3008 930 60 200 220/12 RMK AO2 TSNO
94908KDBQ DBQ20011109212010311/09/01 21:20:31  5-MIN KDBQ 100320Z AUTO 22012KT 10SM CLR 07/M01 A3008 930 60 200 210/12 RMK AO2 TSNO
94908KDBQ DBQ20011109212510311/09/01 21:25:31  5-MIN KDBQ 100325Z AUTO 22011KT 10SM CLR 07/M01 A3008 930 60 200 210/11 RMK AO2 TSNO
94908KDBQ DBQ20011109213010311/09/01 21:30:31  5-MIN KDBQ 100330Z AUTO 22011KT 10SM CLR 07/M01 A3007 940 60 200 210/11 RMK AO2 TSNO
94908KDBQ DBQ20011109213510311/09/01 21:35:31  5-MIN KDBQ 100335Z AUTO 22010KT 10SM CLR 07/M01 A3007 940 60 200 220/10 RMK AO2 TSNO
94908KDBQ DBQ20011109214010311/09/01 21:40:31  5-MIN KDBQ 100340Z AUTO 21011KT 10SM CLR 06/M01 A3007 940 62 100 210/11 RMK AO2 TSNO
94908KDBQ DBQ20011109214510311/09/01 21:45:31  5-MIN KDBQ 100345Z AUTO 21011KT 10SM CLR 06/M01 A3007 940 62 100 210/11 RMK AO2 TSNO
94908KDBQ DBQ20011109215012011/09/01 21:50:31  5-MIN KDBQ 100350Z AUTO 21011KT 10SM CLR 06/M01 A3007 940 62 100 210/11 RMK AO2 SLP190 T00611006 TSNO
94908KDBQ DBQ20011109215512011/09/01 21:55:31  5-MIN KDBQ 100355Z AUTO 22010KT 10SM CLR 06/M01 A3007 940 62 100 220/10 RMK AO2 SLP190 T00611006 TSNO
94908KDBQ DBQ20011109220010311/09/01 22:00:31  5-MIN KDBQ 100400Z AUTO 21010KT 10SM CLR 06/M01 A3007 940 65 100 210/10 RMK AO2 TSNO
94908KDBQ DBQ20011109220510311/09/01 22:05:31  5-MIN KDBQ 100405Z AUTO 21011KT 10SM CLR 06/M01 A3007 940 65 100 210/11 RMK AO2 TSNO
94908KDBQ DBQ20011109221010311/09/01 22:10:31  5-MIN KDBQ 100410Z AUTO 21010KT 10SM CLR 06/M01 A3007 940 65 100 210/10 RMK AO2 TSNO
94908KDBQ DBQ20011109221510311/09/01 22:15:31  5-MIN KDBQ 100415Z AUTO 21010KT 10SM CLR 06/M01 A3007 940 65 100 210/10 RMK AO2 TSNO
94908KDBQ DBQ20011109222010311/09/01 22:20:31  5-MIN KDBQ 100420Z AUTO 21011KT 10SM CLR 06/M01 A3007 940 65 100 210/11 RMK AO2 TSNO
94908KDBQ DBQ20011109222510311/09/01 22:25:31  5-MIN KDBQ 100425Z AUTO 21011KT 10SM CLR 06/M01 A3006 950 65 100 210/11 RMK AO2 TSNO
94908KDBQ DBQ20011109223010311/09/01 22:30:31  5-MIN KDBQ 100430Z AUTO 21011KT 10SM CLR 06/M01 A3006 950 65 100 210/11 RMK AO2 TSNO
94908KDBQ DBQ20011109223510311/09/01 22:35:31  5-MIN KDBQ 100435Z AUTO 21012KT 10SM CLR 06/M01 A3006 950 65 100 210/12 RMK AO2 TSNO
94908KDBQ DBQ20011109224010111/09/01 22:40:31  5-MIN KDBQ 100440Z AUTO 21012KT 10SM CLR 05/M01 A3005 960 67 0 210/12 RMK AO2 TSNO
94908KDBQ DBQ20011109224510111/09/01 22:45:31  5-MIN KDBQ 100445Z AUTO 21011KT 10SM CLR 05/M01 A3005 950 67 0 210/11 RMK AO2 TSNO
94908KDBQ DBQ20011109225011811/09/01 22:50:31  5-MIN KDBQ 100450Z AUTO 21011KT 10SM CLR 05/M01 A3006 950 67 0 210/11 RMK AO2 SLP185 T00501006 TSNO
94908KDBQ DBQ20011109225511811/09/01 22:55:31  5-MIN KDBQ 100455Z AUTO 21010KT 10SM CLR 05/M01 A3006 950 67 0 210/10 RMK AO2 SLP185 T00501006 TSNO
94908KDBQ DBQ20011109230010111/09/01 23:00:31  5-MIN KDBQ 100500Z AUTO 21011KT 10SM CLR 05/M01 A3005 960 67 0 210/11 RMK AO2 TSNO
94908KDBQ DBQ20011109230510111/09/01 23:05:31  5-MIN KDBQ 100505Z AUTO 21012KT 10SM CLR 04/M01 A3005 960 70 0 210/12 RMK AO2 TSNO
94908KDBQ DBQ20011109231010111/09/01 23:10:31  5-MIN KDBQ 100510Z AUTO 21011KT 10SM CLR 04/M01 A3005 960 70 0 210/11 RMK AO2 TSNO
94908KDBQ DBQ20011109231510111/09/01 23:15:31  5-MIN KDBQ 100515Z AUTO 21011KT 10SM CLR 04/M01 A3005 960 70 0 210/11 RMK AO2 TSNO
94908KDBQ DBQ20011109232010411/09/01 23:20:31  5-MIN KDBQ 100520Z AUTO 22011KT 10SM CLR 04/M01 A3005 960 73 -100 210/11 RMK AO2 TSNO
94908KDBQ DBQ20011109232510411/09/01 23:25:31  5-MIN KDBQ 100525Z AUTO 22010KT 10SM CLR 04/M01 A3005 960 73 -100 210/10 RMK AO2 TSNO
94908KDBQ DBQ20011109233010411/09/01 23:30:31  5-MIN KDBQ 100530Z AUTO 22010KT 10SM CLR 03/M01 A3005 960 76 -100 210/10 RMK AO2 TSNO
94908KDBQ DBQ20011109233510411/09/01 23:35:31  5-MIN KDBQ 100535Z AUTO 22009KT 10SM CLR 03/M01 A3004 960 76 -100 220/09 RMK AO2 TSNO
94908KDBQ DBQ20011109234010411/09/01 23:40:31  5-MIN KDBQ 100540Z AUTO 22010KT 10SM CLR 03/M01 A3004 970 72 -100 210/10 RMK AO2 TSNO
94908KDBQ DBQ20011109234510411/09/01 23:45:31  5-MIN KDBQ 100545Z AUTO 21010KT 10SM CLR 03/M01 A3004 970 76 -100 210/10 RMK AO2 TSNO
94908KDBQ DBQ20011109235014911/09/01 23:50:31  5-MIN KDBQ 100550Z AUTO 22010KT 10SM CLR 03/M01 A3004 970 76 -100 220/10 RMK AO2 SLP179 T00331006 10083 20033 401221039 58015 TSNO
94908KDBQ DBQ20011109235514911/09/01 23:55:31  5-MIN KDBQ 100555Z AUTO 22010KT 10SM CLR 03/M01 A3004 970 72 -100 220/10 RMK AO2 SLP178 T00331011 10083 20033 401221039 58014 TSNO
94908KDBQ DBQ20011110000010411/10/01 00:00:31  5-MIN KDBQ 100600Z AUTO 21011KT 10SM CLR 03/M01 A3004 970 76 -100 210/11 RMK AO2 TSNO
94908KDBQ DBQ20011110000510411/10/01 00:05:31  5-MIN KDBQ 100605Z AUTO 21010KT 10SM CLR 03/M01 A3003 970 76 -100 210/10 RMK AO2 TSNO
94908KDBQ DBQ20011110001010411/10/01 00:10:31  5-MIN KDBQ 100610Z AUTO 21010KT 10SM CLR 03/M01 A3003 980 76 -100 210/10 RMK AO2 TSNO
94908KDBQ DBQ20011110001510411/10/01 00:15:31  5-MIN KDBQ 100615Z AUTO 21010KT 10SM CLR 03/M01 A3003 980 76 -100 210/10 RMK AO2 TSNO
94908KDBQ DBQ20011110002010411/10/01 00:20:31  5-MIN KDBQ 100620Z AUTO 22010KT 10SM CLR 03/M01 A3003 980 76 -100 210/10 RMK AO2 TSNO
94908KDBQ DBQ20011110002510411/10/01 00:25:31  5-MIN KDBQ 100625Z AUTO 21010KT 10SM CLR 03/M01 A3002 980 75 -200 210/10 RMK AO2 TSNO
94908KDBQ DBQ20011110003010411/10/01 00:30:31  5-MIN KDBQ 100630Z AUTO 21010KT 10SM CLR 03/M01 A3002 990 75 -200 210/10 RMK AO2 TSNO
94908KDBQ DBQ20011110003510411/10/01 00:35:31  5-MIN KDBQ 100635Z AUTO 21010KT 10SM CLR 03/M01 A3002 990 75 -200 210/10 RMK AO2 TSNO
94908KDBQ DBQ20011110004010411/10/01 00:40:31  5-MIN KDBQ 100640Z AUTO 21010KT 10SM CLR 03/M01 A3002 990 75 -200 210/10 RMK AO2 TSNO
94908KDBQ DBQ20011110004510411/10/01 00:45:31  5-MIN KDBQ 100645Z AUTO 21010KT 10SM CLR 02/M01 A3002 990 78 -200 210/10 RMK AO2 TSNO
94908KDBQ DBQ20011110005012111/10/01 00:50:31  5-MIN KDBQ 100650Z AUTO 21010KT 10SM CLR 02/M01 A3001 990 78 -200 210/10 RMK AO2 SLP170 T00221011 TSNO
94908KDBQ DBQ20011110005512211/10/01 00:55:31  5-MIN KDBQ 100655Z AUTO 21010KT 10SM CLR 02/M01 A3001 1000 78 -200 210/10 RMK AO2 SLP169 T00221011 TSNO
94908KDBQ DBQ20011110010010511/10/01 01:00:31  5-MIN KDBQ 100700Z AUTO 21009KT 10SM CLR 03/M01 A3001 1000 75 -200 210/09 RMK AO2 TSNO
94908KDBQ DBQ20011110010510511/10/01 01:05:31  5-MIN KDBQ 100705Z AUTO 21009KT 10SM CLR 03/M01 A3000 1000 75 -100 210/09 RMK AO2 TSNO
94908KDBQ DBQ20011110011010511/10/01 01:10:31  5-MIN KDBQ 100710Z AUTO 21009KT 10SM CLR 03/M01 A3000 1000 75 -200 210/09 RMK AO2 TSNO
94908KDBQ DBQ20011110011510511/10/01 01:15:31  5-MIN KDBQ 100715Z AUTO 21009KT 10SM CLR 03/M01 A3000 1000 75 -100 210/09 RMK AO2 TSNO
94908KDBQ DBQ20011110012010511/10/01 01:20:31  5-MIN KDBQ 100720Z AUTO 21009KT 10SM CLR 03/M01 A3000 1000 75 -200 210/09 RMK AO2 TSNO
94908KDBQ DBQ20011110012510511/10/01 01:25:31  5-MIN KDBQ 100725Z AUTO 21008KT 10SM CLR 03/M01 A3001 1000 75 -200 210/08 RMK AO2 TSNO
94908KDBQ DBQ20011110013010511/10/01 01:30:31  5-MIN KDBQ 100730Z AUTO 21007KT 10SM CLR 02/M01 A3000 1000 78 -200 210/07 RMK AO2 TSNO
94908KDBQ DBQ20011110013510511/10/01 01:35:31  5-MIN KDBQ 100735Z AUTO 20007KT 10SM CLR 02/M01 A3001 1000 78 -200 200/07 RMK AO2 TSNO
94908KDBQ DBQ20011110014010511/10/01 01:40:31  5-MIN KDBQ 100740Z AUTO 19004KT 10SM CLR 02/M01 A3001 1000 78 -200 180/04 RMK AO2 TSNO
94908KDBQ DBQ20011110014510511/10/01 01:45:31  5-MIN KDBQ 100745Z AUTO 17005KT 10SM CLR 02/M01 A3001 1000 78 -200 170/05 RMK AO2 TSNO
94908KDBQ DBQ20011110015012211/10/01 01:50:31  5-MIN KDBQ 100750Z AUTO 17006KT 10SM CLR 02/M01 A3000 1000 78 -200 170/06 RMK AO2 SLP166 T00221011 TSNO
94908KDBQ DBQ20011110015512211/10/01 01:55:31  5-MIN KDBQ 100755Z AUTO 18005KT 10SM CLR 02/M01 A3000 1000 78 -200 180/05 RMK AO2 SLP166 T00221011 TSNO
94908KDBQ DBQ20011110020010511/10/01 02:00:31  5-MIN KDBQ 100800Z AUTO 20007KT 10SM CLR 02/M01 A3000 1000 78 -200 190/07 RMK AO2 TSNO
94908KDBQ DBQ20011110020510511/10/01 02:05:31  5-MIN KDBQ 100805Z AUTO 20007KT 10SM CLR 02/M02 A3000 1000 78 -300 200/07 RMK AO2 TSNO
94908KDBQ DBQ20011110021010511/10/01 02:10:31  5-MIN KDBQ 100810Z AUTO 21007KT 10SM CLR 02/M02 A3000 1000 78 -300 210/07 RMK AO2 TSNO
94908KDBQ DBQ20011110021510511/10/01 02:15:31  5-MIN KDBQ 100815Z AUTO 21008KT 10SM CLR 02/M02 A3000 1000 78 -300 210/08 RMK AO2 TSNO
94908KDBQ DBQ20011110022010511/10/01 02:20:31  5-MIN KDBQ 100820Z AUTO 21009KT 10SM CLR 01/M02 A3000 1010 82 -400 210/09 RMK AO2 TSNO
94908KDBQ DBQ20011110022510511/10/01 02:25:31  5-MIN KDBQ 100825Z AUTO 22010KT 10SM CLR 01/M02 A3000 1000 82 -400 220/10 RMK AO2 TSNO
94908KDBQ DBQ20011110023010511/10/01 02:30:31  5-MIN KDBQ 100830Z AUTO 22011KT 10SM CLR 01/M02 A3000 1000 82 -400 220/11 RMK AO2 TSNO
94908KDBQ DBQ20011110023510511/10/01 02:35:31  5-MIN KDBQ 100835Z AUTO 22010KT 10SM CLR 01/M02 A3000 1010 82 -300 220/10 RMK AO2 TSNO
94908KDBQ DBQ20011110024010511/10/01 02:40:31  5-MIN KDBQ 100840Z AUTO 22011KT 10SM CLR 02/M02 A3000 1010 78 -300 220/11 RMK AO2 TSNO
94908KDBQ DBQ20011110024510511/10/01 02:45:31  5-MIN KDBQ 100845Z AUTO 22011KT 10SM CLR 02/M02 A2999 1010 78 -300 220/11 RMK AO2 TSNO
94908KDBQ DBQ20011110025012811/10/01 02:50:31  5-MIN KDBQ 100850Z AUTO 22010KT 10SM CLR 02/M01 A2999 1010 78 -200 220/10 RMK AO2 SLP163 T00221011 58014 TSNO
94908KDBQ DBQ20011110025512811/10/01 02:55:31  5-MIN KDBQ 100855Z AUTO 22010KT 10SM CLR 02/M01 A2999 1010 78 -200 220/10 RMK AO2 SLP162 T00221011 56015 TSNO
94908KDBQ DBQ20011110030010511/10/01 03:00:31  5-MIN KDBQ 100900Z AUTO 22010KT 10SM CLR 02/M01 A2999 1010 78 -200 220/10 RMK AO2 TSNO
94908KDBQ DBQ20011110030510511/10/01 03:05:31  5-MIN KDBQ 100905Z AUTO 23009KT 10SM CLR 02/M01 A3000 1010 82 -300 220/09 RMK AO2 TSNO
94908KDBQ DBQ20011110031010511/10/01 03:10:31  5-MIN KDBQ 100910Z AUTO 23010KT 10SM CLR 02/M01 A3000 1010 82 -300 220/10 RMK AO2 TSNO
94908KDBQ DBQ20011110031510511/10/01 03:15:31  5-MIN KDBQ 100915Z AUTO 22009KT 10SM CLR 02/M02 A3000 1010 78 -300 220/09 RMK AO2 TSNO
94908KDBQ DBQ20011110032010511/10/01 03:20:31  5-MIN KDBQ 100920Z AUTO 22008KT 10SM CLR 02/M02 A3000 1010 78 -300 220/08 RMK AO2 TSNO
94908KDBQ DBQ20011110032510511/10/01 03:25:31  5-MIN KDBQ 100925Z AUTO 22007KT 10SM CLR 02/M02 A3000 1010 78 -300 220/07 RMK AO2 TSNO
94908KDBQ DBQ20011110033010511/10/01 03:30:31  5-MIN KDBQ 100930Z AUTO 23007KT 10SM CLR 02/M02 A2999 1010 78 -300 220/07 RMK AO2 TSNO
94908KDBQ DBQ20011110033510511/10/01 03:35:31  5-MIN KDBQ 100935Z AUTO 23009KT 10SM CLR 02/M02 A2999 1020 78 -300 230/09 RMK AO2 TSNO
94908KDBQ DBQ20011110034010511/10/01 03:40:31  5-MIN KDBQ 100940Z AUTO 23011KT 10SM CLR 02/M02 A2998 1020 78 -300 230/11 RMK AO2 TSNO
94908KDBQ DBQ20011110034510511/10/01 03:45:31  5-MIN KDBQ 100945Z AUTO 23012KT 10SM CLR 02/M02 A2998 1020 78 -300 230/12 RMK AO2 TSNO
94908KDBQ DBQ20011110035012211/10/01 03:50:31  5-MIN KDBQ 100950Z AUTO 23010KT 10SM CLR 02/M02 A2998 1020 78 -300 230/10 RMK AO2 SLP160 T00171017 TSNO
94908KDBQ DBQ20011110035512211/10/01 03:55:31  5-MIN KDBQ 100955Z AUTO 24011KT 10SM CLR 02/M02 A2998 1020 78 -300 240/11 RMK AO2 SLP160 T00171017 TSNO
94908KDBQ DBQ20011110040010511/10/01 04:00:31  5-MIN KDBQ 101000Z AUTO 24013KT 10SM CLR 03/M02 A2998 1020 72 -100 240/13 RMK AO2 TSNO
94908KDBQ DBQ20011110040510511/10/01 04:05:31  5-MIN KDBQ 101005Z AUTO 24012KT 10SM CLR 03/M01 A2998 1020 75 -100 240/12 RMK AO2 TSNO
94908KDBQ DBQ20011110041010511/10/01 04:10:31  5-MIN KDBQ 101010Z AUTO 24011KT 10SM CLR 03/M02 A2999 1020 72 -100 240/11 RMK AO2 TSNO
94908KDBQ DBQ20011110041510511/10/01 04:15:31  5-MIN KDBQ 101015Z AUTO 24012KT 10SM CLR 03/M02 A2999 1020 72 -100 240/12 RMK AO2 TSNO
94908KDBQ DBQ20011110042010511/10/01 04:20:31  5-MIN KDBQ 101020Z AUTO 24011KT 10SM CLR 02/M02 A2999 1020 75 -200 230/11 RMK AO2 TSNO
94908KDBQ DBQ20011110042510511/10/01 04:25:31  5-MIN KDBQ 101025Z AUTO 24012KT 10SM CLR 02/M02 A2999 1020 75 -200 240/12 RMK AO2 TSNO
94908KDBQ DBQ20011110043010511/10/01 04:30:31  5-MIN KDBQ 101030Z AUTO 24012KT 10SM CLR 02/M02 A2999 1020 75 -200 240/12 RMK AO2 TSNO
94908KDBQ DBQ20011110043510511/10/01 04:35:31  5-MIN KDBQ 101035Z AUTO 24012KT 10SM CLR 02/M02 A2999 1020 75 -200 240/12 RMK AO2 TSNO
94908KDBQ DBQ20011110044010511/10/01 04:40:31  5-MIN KDBQ 101040Z AUTO 24011KT 10SM CLR 02/M02 A2999 1020 75 -200 240/11 RMK AO2 TSNO
94908KDBQ DBQ20011110044510511/10/01 04:45:31  5-MIN KDBQ 101045Z AUTO 24009KT 10SM CLR 02/M02 A2999 1010 75 -200 240/09 RMK AO2 TSNO
94908KDBQ DBQ20011110045012211/10/01 04:50:31  5-MIN KDBQ 101050Z AUTO 24010KT 10SM CLR 02/M02 A2999 1010 75 -200 240/10 RMK AO2 SLP162 T00221017 TSNO
94908KDBQ DBQ20011110045512211/10/01 04:55:31  5-MIN KDBQ 101055Z AUTO 24010KT 10SM CLR 02/M02 A2999 1010 75 -200 240/10 RMK AO2 SLP164 T00221017 TSNO
94908KDBQ DBQ20011110050010511/10/01 05:00:31  5-MIN KDBQ 101100Z AUTO 24011KT 10SM CLR 02/M02 A2999 1010 75 -200 240/11 RMK AO2 TSNO
94908KDBQ DBQ20011110050510511/10/01 05:05:31  5-MIN KDBQ 101105Z AUTO 25012KT 10SM CLR 02/M02 A2999 1010 75 -200 240/12 RMK AO2 TSNO
94908KDBQ DBQ20011110051010511/10/01 05:10:31  5-MIN KDBQ 101110Z AUTO 25012KT 10SM CLR 02/M02 A2999 1010 75 -200 250/12 RMK AO2 TSNO
94908KDBQ DBQ20011110051510511/10/01 05:15:31  5-MIN KDBQ 101115Z AUTO 25010KT 10SM CLR 02/M02 A2999 1010 75 -200 250/10 RMK AO2 TSNO
94908KDBQ DBQ20011110052010511/10/01 05:20:31  5-MIN KDBQ 101120Z AUTO 25008KT 10SM CLR 02/M02 A2999 1010 72 -200 250/08 RMK AO2 TSNO
94908KDBQ DBQ20011110052510511/10/01 05:25:31  5-MIN KDBQ 101125Z AUTO 26010KT 10SM CLR 03/M02 A2999 1010 69 -100 250/10 RMK AO2 TSNO
94908KDBQ DBQ20011110053010511/10/01 05:30:31  5-MIN KDBQ 101130Z AUTO 26011KT 10SM CLR 03/M02 A2999 1010 69 -100 250/11 RMK AO2 TSNO
94908KDBQ DBQ20011110053510511/10/01 05:35:31  5-MIN KDBQ 101135Z AUTO 26012KT 10SM CLR 03/M02 A2999 1010 69 -100 260/12 RMK AO2 TSNO
94908KDBQ DBQ20011110054010511/10/01 05:40:31  5-MIN KDBQ 101140Z AUTO 26011KT 10SM CLR 03/M02 A2999 1010 67 -100 260/11 RMK AO2 TSNO
94908KDBQ DBQ20011110054509511/10/01 05:45:31  5-MIN KDBQ 101145Z 25012KT 10SM CLR 03/M02 A2999 1010 67 -100 250/12 RMK AO2
94908KDBQ DBQ20011110055013011/10/01 05:50:31  5-MIN KDBQ 101150Z 25012KT 10SM CLR 03/M02 A2999 1010 67 -100 250/12 RMK AO2 SLP163 T00331022 10033 20006 56015
94908KDBQ DBQ20011110055513011/10/01 05:55:31  5-MIN KDBQ 101155Z 26013KT 10SM CLR 03/M02 A3000 1010 67 -100 260/13 RMK AO2 SLP165 T00331022 10033 20006 53002
94908KDBQ DBQ20011110060009211/10/01 06:00:31  5-MIN KDBQ 101200Z 27012KT 10SM CLR 04/M02 A3000 1010 64 0 270/12 RMK AO2
94908KDBQ DBQ20011110060509211/10/01 06:05:31  5-MIN KDBQ 101205Z 27012KT 10SM CLR 04/M02 A3000 1000 64 0 270/12 RMK AO2
94908KDBQ DBQ20011110061009211/10/01 06:10:31  5-MIN KDBQ 101210Z 28014KT 10SM CLR 04/M02 A3001 1000 64 0 270/14 RMK AO2
94908KDBQ DBQ20011110061509211/10/01 06:15:31  5-MIN KDBQ 101215Z 28013KT 10SM CLR 04/M02 A3001 1000 64 0 280/13 RMK AO2
94908KDBQ DBQ20011110062009511/10/01 06:20:31  5-MIN KDBQ 101220Z 28009KT 10SM CLR 03/M02 A3000 1000 67 -100 280/09 RMK AO2
94908KDBQ DBQ20011110062509511/10/01 06:25:31  5-MIN KDBQ 101225Z 29008KT 10SM CLR 03/M02 A3000 1000 67 -100 290/08 RMK AO2
94908KDBQ DBQ20011110063009511/10/01 06:30:31  5-MIN KDBQ 101230Z 29009KT 10SM CLR 03/M02 A3000 1000 67 -100 290/09 RMK AO2
94908KDBQ DBQ20011110063509511/10/01 06:35:31  5-MIN KDBQ 101235Z 30008KT 10SM CLR 03/M02 A3001 1000 67 -100 300/08 RMK AO2
94908KDBQ DBQ20011110064009511/10/01 06:40:31  5-MIN KDBQ 101240Z 29008KT 10SM CLR 03/M02 A3001 1000 67 -100 290/08 RMK AO2
94908KDBQ DBQ20011110064509511/10/01 06:45:31  5-MIN KDBQ 101245Z 29009KT 10SM CLR 03/M02 A3001 1000 67 -100 280/09 RMK AO2
94908KDBQ DBQ20011110065011111/10/01 06:50:31  5-MIN KDBQ 101250Z 29008KT 10SM CLR 03/M02 A3001 990 67 -100 290/08 RMK AO2 SLP170 T00331022
94908KDBQ DBQ20011110065511111/10/01 06:55:31  5-MIN KDBQ 101255Z 29009KT 10SM CLR 03/M02 A3002 990 67 -100 290/09 RMK AO2 SLP171 T00331022
94908KDBQ DBQ20011110070009411/10/01 07:00:31  5-MIN KDBQ 101300Z 28009KT 10SM CLR 03/M02 A3002 990 67 -100 280/09 RMK AO2
94908KDBQ DBQ20011110070509411/10/01 07:05:31  5-MIN KDBQ 101305Z 27009KT 10SM CLR 03/M02 A3002 990 67 -100 270/09 RMK AO2
94908KDBQ DBQ20011110071009111/10/01 07:10:31  5-MIN KDBQ 101310Z 27007KT 10SM CLR 04/M02 A3002 990 64 0 270/07 RMK AO2
94908KDBQ DBQ20011110071509411/10/01 07:15:31  5-MIN KDBQ 101315Z 27007KT 10SM CLR 03/M02 A3003 980 67 -100 270/07 RMK AO2
94908KDBQ DBQ20011110072009111/10/01 07:20:31  5-MIN KDBQ 101320Z 27008KT 10SM CLR 04/M02 A3003 980 64 0 270/08 RMK AO2
94908KDBQ DBQ20011110072509111/10/01 07:25:31  5-MIN KDBQ 101325Z 28009KT 10SM CLR 04/M02 A3003 970 64 0 280/09 RMK AO2
94908KDBQ DBQ20011110073009111/10/01 07:30:31  5-MIN KDBQ 101330Z 27014KT 10SM CLR 04/M02 A3003 970 64 0 270/14 RMK AO2
94908KDBQ DBQ20011110073509111/10/01 07:35:31  5-MIN KDBQ 101335Z 27011KT 10SM CLR 04/M02 A3003 970 64 0 270/11 RMK AO2
94908KDBQ DBQ20011110074009111/10/01 07:40:31  5-MIN KDBQ 101340Z 27010KT 10SM CLR 04/M02 A3004 970 64 0 270/10 RMK AO2
94908KDBQ DBQ20011110074509111/10/01 07:45:31  5-MIN KDBQ 101345Z 28009KT 10SM CLR 04/M02 A3004 970 62 0 280/09 RMK AO2
94908KDBQ DBQ20011110075010811/10/01 07:50:31  5-MIN KDBQ 101350Z 27011KT 10SM CLR 04/M02 A3004 970 62 0 270/11 RMK AO2 SLP179 T00441022
94908KDBQ DBQ20011110075510811/10/01 07:55:31  5-MIN KDBQ 101355Z 27009KT 10SM CLR 04/M02 A3004 970 64 0 270/09 RMK AO2 SLP180 T00441017
94908KDBQ DBQ20011110080009111/10/01 08:00:31  5-MIN KDBQ 101400Z 27010KT 10SM CLR 04/M02 A3004 970 64 0 270/10 RMK AO2
94908KDBQ DBQ20011110080509111/10/01 08:05:31  5-MIN KDBQ 101405Z 27011KT 10SM CLR 05/M02 A3004 970 62 0 270/11 RMK AO2
94908KDBQ DBQ20011110081009111/10/01 08:10:31  5-MIN KDBQ 101410Z 27011KT 10SM CLR 05/M02 A3004 970 62 0 270/11 RMK AO2
94908KDBQ DBQ20011110081509311/10/01 08:15:31  5-MIN KDBQ 101415Z 27011KT 10SM CLR 06/M02 A3004 970 59 100 270/11 RMK AO2
94908KDBQ DBQ20011110082009311/10/01 08:20:31  5-MIN KDBQ 101420Z 28011KT 10SM CLR 06/M02 A3004 970 59 100 280/11 RMK AO2
94908KDBQ DBQ20011110082509311/10/01 08:25:31  5-MIN KDBQ 101425Z 27011KT 10SM CLR 06/M02 A3004 970 57 200 270/11 RMK AO2
94908KDBQ DBQ20011110083009311/10/01 08:30:31  5-MIN KDBQ 101430Z 28012KT 10SM CLR 06/M02 A3004 960 57 200 280/12 RMK AO2
94908KDBQ DBQ20011110083509311/10/01 08:35:31  5-MIN KDBQ 101435Z 28011KT 10SM CLR 06/M01 A3005 960 60 200 280/11 RMK AO2
94908KDBQ DBQ20011110084009311/10/01 08:40:31  5-MIN KDBQ 101440Z 28011KT 10SM CLR 07/M02 A3005 960 55 200 280/11 RMK AO2
94908KDBQ DBQ20011110084509311/10/01 08:45:31  5-MIN KDBQ 101445Z 28010KT 10SM CLR 07/M01 A3005 960 57 200 270/10 RMK AO2
94908KDBQ DBQ20011110085011611/10/01 08:50:31  5-MIN KDBQ 101450Z 27009KT 10SM CLR 07/M01 A3005 960 55 300 270/09 RMK AO2 SLP181 T00721011 53002
94908KDBQ DBQ20011110085511611/10/01 08:55:31  5-MIN KDBQ 101455Z 28011KT 10SM CLR 08/M01 A3005 960 53 400 280/11 RMK AO2 SLP182 T00781011 51017
94908KDBQ DBQ20011110090009311/10/01 09:00:31  5-MIN KDBQ 101500Z 29011KT 10SM CLR 08/M01 A3005 960 53 400 280/11 RMK AO2
94908KDBQ DBQ20011110090509311/10/01 09:05:31  5-MIN KDBQ 101505Z 29012KT 10SM CLR 08/M01 A3005 960 53 400 290/12 RMK AO2
94908KDBQ DBQ20011110091009311/10/01 09:10:31  5-MIN KDBQ 101510Z 28011KT 10SM CLR 08/M01 A3005 960 51 400 280/11 RMK AO2
94908KDBQ DBQ20011110091509311/10/01 09:15:31  5-MIN KDBQ 101515Z 28011KT 10SM CLR 08/M01 A3005 950 51 400 280/11 RMK AO2
94908KDBQ DBQ20011110092009311/10/01 09:20:31  5-MIN KDBQ 101520Z 28010KT 10SM CLR 08/M01 A3006 950 51 400 280/10 RMK AO2
94908KDBQ DBQ20011110092509311/10/01 09:25:31  5-MIN KDBQ 101525Z 29012KT 10SM CLR 09/M01 A3006 950 49 500 280/12 RMK AO2
94908KDBQ DBQ20011110093009311/10/01 09:30:31  5-MIN KDBQ 101530Z 29013KT 10SM CLR 09/M01 A3006 950 49 500 290/13 RMK AO2
94908KDBQ DBQ20011110093509311/10/01 09:35:31  5-MIN KDBQ 101535Z 28013KT 10SM CLR 09/M01 A3007 940 47 500 280/13 RMK AO2
94908KDBQ DBQ20011110094009311/10/01 09:40:31  5-MIN KDBQ 101540Z 29012KT 10SM CLR 09/M01 A3007 940 47 500 290/12 RMK AO2
94908KDBQ DBQ20011110094509311/10/01 09:45:31  5-MIN KDBQ 101545Z 29011KT 10SM CLR 09/M01 A3007 940 49 500 290/11 RMK AO2
94908KDBQ DBQ20011110095011011/10/01 09:50:31  5-MIN KDBQ 101550Z 29013KT 10SM CLR 10/M01 A3007 940 46 600 290/13 RMK AO2 SLP188 T01001011
94908KDBQ DBQ20011110095511011/10/01 09:55:31  5-MIN KDBQ 101555Z 29011KT 10SM CLR 10/M01 A3007 940 46 600 290/11 RMK AO2 SLP188 T01001011
94908KDBQ DBQ20011110100009311/10/01 10:00:31  5-MIN KDBQ 101600Z 30009KT 10SM CLR 10/M01 A3007 940 47 600 300/09 RMK AO2
94908KDBQ DBQ20011110100509311/10/01 10:05:31  5-MIN KDBQ 101605Z 31010KT 10SM CLR 11/M01 A3007 940 46 700 310/10 RMK AO2
94908KDBQ DBQ20011110101009311/10/01 10:10:31  5-MIN KDBQ 101610Z 31011KT 10SM CLR 11/M01 A3008 930 46 700 310/11 RMK AO2
94908KDBQ DBQ20011110101509311/10/01 10:15:31  5-MIN KDBQ 101615Z 30012KT 10SM CLR 11/M01 A3008 930 46 700 300/12 RMK AO2
94908KDBQ DBQ20011110102009311/10/01 10:20:31  5-MIN KDBQ 101620Z 30009KT 10SM CLR 11/M01 A3008 930 46 700 300/09 RMK AO2
94908KDBQ DBQ20011110102509211/10/01 10:25:31  5-MIN KDBQ 101625Z 29009KT 10SM CLR 11/00 A3008 930 46 700 290/09 RMK AO2
94908KDBQ DBQ20011110103009211/10/01 10:30:31  5-MIN KDBQ 101630Z 30008KT 10SM CLR 11/00 A3008 930 46 700 290/08 RMK AO2
94908KDBQ DBQ20011110103509211/10/01 10:35:31  5-MIN KDBQ 101635Z 31009KT 10SM CLR 11/00 A3008 930 46 700 310/09 RMK AO2
94908KDBQ DBQ20011110104009211/10/01 10:40:31  5-MIN KDBQ 101640Z 29008KT 10SM CLR 12/00 A3008 930 44 800 290/08 RMK AO2
94908KDBQ DBQ20011110104509311/10/01 10:45:31  5-MIN KDBQ 101645Z 31008KT 10SM CLR 12/M01 A3008 930 42 800 310/08 RMK AO2
94908KDBQ DBQ20011110105011011/10/01 10:50:31  5-MIN KDBQ 101650Z 28007KT 10SM CLR 12/M01 A3008 930 42 800 280/07 RMK AO2 SLP190 T01171006
94908KDBQ DBQ20011110105511011/10/01 10:55:31  5-MIN KDBQ 101655Z 29009KT 10SM CLR 12/M01 A3008 930 41 900 290/09 RMK AO2 SLP190 T01221006
94908KDBQ DBQ20011110110009311/10/01 11:00:31  5-MIN KDBQ 101700Z 28009KT 10SM CLR 12/M01 A3008 940 41 900 280/09 RMK AO2
94908KDBQ DBQ20011110110509311/10/01 11:05:31  5-MIN KDBQ 101705Z 29012KT 10SM CLR 12/M02 A3008 930 38 900 290/12 RMK AO2
94908KDBQ DBQ20011110111009311/10/01 11:10:31  5-MIN KDBQ 101710Z 30009KT 10SM CLR 13/M01 A3008 930 38 900 300/09 RMK AO2
94908KDBQ DBQ20011110111509311/10/01 11:15:31  5-MIN KDBQ 101715Z 31008KT 10SM CLR 13/M01 A3008 940 38 900 310/08 RMK AO2
94908KDBQ DBQ20011110112009311/10/01 11:20:31  5-MIN KDBQ 101720Z 29008KT 10SM CLR 13/M01 A3008 940 38 900 290/08 RMK AO2
94908KDBQ DBQ20011110112510911/10/01 11:25:31  5-MIN KDBQ 101725Z 31009KT 280V350 10SM CLR 13/M01 A3007 940 39 900 310/09 280V350 RMK AO2
94908KDBQ DBQ20011110113009311/10/01 11:30:31  5-MIN KDBQ 101730Z 30011KT 10SM CLR 13/M01 A3007 940 38 900 300/11 RMK AO2
94908KDBQ DBQ20011110113509311/10/01 11:35:31  5-MIN KDBQ 101735Z 30010KT 10SM CLR 13/M01 A3007 940 38 900 300/10 RMK AO2
94908KDBQ DBQ20011110114009311/10/01 11:40:31  5-MIN KDBQ 101740Z 29010KT 10SM CLR 13/M01 A3007 940 38 900 290/10 RMK AO2
94908KDBQ DBQ20011110114509311/10/01 11:45:31  5-MIN KDBQ 101745Z 32010KT 10SM CLR 13/M01 A3007 940 39 900 320/10 RMK AO2
94908KDBQ DBQ20011110115012811/10/01 11:50:31  5-MIN KDBQ 101750Z 31011KT 10SM CLR 13/M01 A3007 940 39 900 300/11 RMK AO2 SLP189 T01281006 10133 20033 51017
94908KDBQ DBQ20011110115512811/10/01 11:55:31  5-MIN KDBQ 101755Z 30012KT 10SM CLR 13/M01 A3008 940 38 900 300/12 RMK AO2 SLP190 T01281011 10133 20033 51008
94908KDBQ DBQ20011110120009311/10/01 12:00:31  5-MIN KDBQ 101800Z 32013KT 10SM CLR 13/M01 A3008 930 38 900 320/13 RMK AO2
94908KDBQ DBQ20011110120509411/10/01 12:05:31  5-MIN KDBQ 101805Z 32011KT 10SM CLR 13/M01 A3008 930 38 1000 320/11 RMK AO2
94908KDBQ DBQ20011110121009411/10/01 12:10:31  5-MIN KDBQ 101810Z 32011KT 10SM CLR 13/M01 A3008 930 38 1000 320/11 RMK AO2
94908KDBQ DBQ20011110121509411/10/01 12:15:31  5-MIN KDBQ 101815Z 31014KT 10SM CLR 13/M01 A3008 930 38 1000 310/14 RMK AO2
94908KDBQ DBQ20011110122009411/10/01 12:20:31  5-MIN KDBQ 101820Z 32011KT 10SM CLR 13/M01 A3008 930 38 1000 310/11 RMK AO2
94908KDBQ DBQ20011110122509411/10/01 12:25:31  5-MIN KDBQ 101825Z 31013KT 10SM CLR 13/M01 A3008 930 38 1000 310/13 RMK AO2
94908KDBQ DBQ20011110123009411/10/01 12:30:31  5-MIN KDBQ 101830Z 30013KT 10SM CLR 13/M01 A3008 930 36 1000 300/13 RMK AO2
94908KDBQ DBQ20011110123509311/10/01 12:35:31  5-MIN KDBQ 101835Z 31014KT 10SM CLR 14/00 A3008 930 38 1100 310/14 RMK AO2
94908KDBQ DBQ20011110124009411/10/01 12:40:31  5-MIN KDBQ 101840Z 33011KT 10SM CLR 13/M01 A3008 930 38 1000 330/11 RMK AO2
94908KDBQ DBQ20011110124509411/10/01 12:45:31  5-MIN KDBQ 101845Z 31012KT 10SM CLR 14/M01 A3008 930 37 1100 310/12 RMK AO2
94908KDBQ DBQ20011110125011111/10/01 12:50:31  5-MIN KDBQ 101850Z 33011KT 10SM CLR 14/M01 A3008 930 37 1100 330/11 RMK AO2 SLP191 T01391006
94908KDBQ DBQ20011110125511711/10/01 12:55:31  5-MIN KDBQ 101855Z 33015G20KT 10SM CLR 14/M01 A3008 930 37 1100 330/15G20 RMK AO2 SLP192 T01391006
94908KDBQ DBQ20011110130010011/10/01 13:00:31  5-MIN KDBQ 101900Z 33013G20KT 10SM CLR 14/M01 A3008 930 37 1100 330/13G20 RMK AO2
94908KDBQ DBQ20011110130509411/10/01 13:05:31  5-MIN KDBQ 101905Z 34013KT 10SM CLR 14/M01 A3008 930 37 1100 340/13 RMK AO2
94908KDBQ DBQ20011110131009411/10/01 13:10:31  5-MIN KDBQ 101910Z 33013KT 10SM CLR 14/M01 A3008 930 35 1100 330/13 RMK AO2
94908KDBQ DBQ20011110131509411/10/01 13:15:31  5-MIN KDBQ 101915Z 33016KT 10SM CLR 14/M02 A3008 930 34 1100 330/16 RMK AO2
94908KDBQ DBQ20011110132009411/10/01 13:20:31  5-MIN KDBQ 101920Z 33016KT 10SM CLR 14/M01 A3008 930 35 1100 330/16 RMK AO2
94908KDBQ DBQ20011110132509411/10/01 13:25:31  5-MIN KDBQ 101925Z 34014KT 10SM CLR 14/M01 A3008 930 35 1100 330/14 RMK AO2
94908KDBQ DBQ20011110133009411/10/01 13:30:31  5-MIN KDBQ 101930Z 33015KT 10SM CLR 14/M01 A3008 930 37 1100 330/15 RMK AO2
94908KDBQ DBQ20011110133509411/10/01 13:35:31  5-MIN KDBQ 101935Z 34016KT 10SM CLR 14/M01 A3008 930 35 1100 330/16 RMK AO2
94908KDBQ DBQ20011110134009411/10/01 13:40:31  5-MIN KDBQ 101940Z 33012KT 10SM CLR 14/M01 A3008 930 35 1100 330/12 RMK AO2
94908KDBQ DBQ20011110134509411/10/01 13:45:31  5-MIN KDBQ 101945Z 32013KT 10SM CLR 14/M01 A3008 930 35 1100 320/13 RMK AO2
94908KDBQ DBQ20011110135011111/10/01 13:50:31  5-MIN KDBQ 101950Z 33013KT 10SM CLR 14/M01 A3009 930 37 1000 330/13 RMK AO2 SLP193 T01391006
94908KDBQ DBQ20011110135511111/10/01 13:55:31  5-MIN KDBQ 101955Z 33012KT 10SM CLR 14/M01 A3009 920 35 1000 330/12 RMK AO2 SLP194 T01391011
94908KDBQ DBQ20011110140009411/10/01 14:00:31  5-MIN KDBQ 102000Z 34014KT 10SM CLR 14/M01 A3009 920 35 1000 340/14 RMK AO2
94908KDBQ DBQ20011110140509411/10/01 14:05:31  5-MIN KDBQ 102005Z 34011KT 10SM CLR 14/M01 A3009 920 35 1000 340/11 RMK AO2
94908KDBQ DBQ20011110141009411/10/01 14:10:31  5-MIN KDBQ 102010Z 32013KT 10SM CLR 14/M01 A3009 920 37 1000 320/13 RMK AO2
94908KDBQ DBQ20011110141509411/10/01 14:15:31  5-MIN KDBQ 102015Z 34012KT 10SM CLR 14/M01 A3009 920 35 1000 330/12 RMK AO2
94908KDBQ DBQ20011110142009411/10/01 14:20:31  5-MIN KDBQ 102020Z 33014KT 10SM CLR 14/M01 A3010 910 35 1000 330/14 RMK AO2
94908KDBQ DBQ20011110142509411/10/01 14:25:31  5-MIN KDBQ 102025Z 32012KT 10SM CLR 14/M01 A3010 910 35 1000 320/12 RMK AO2
94908KDBQ DBQ20011110143009411/10/01 14:30:31  5-MIN KDBQ 102030Z 34011KT 10SM CLR 14/M01 A3010 910 37 1000 340/11 RMK AO2
94908KDBQ DBQ20011110143509411/10/01 14:35:31  5-MIN KDBQ 102035Z 33015KT 10SM CLR 14/M01 A3010 910 37 1000 330/15 RMK AO2
94908KDBQ DBQ20011110144009411/10/01 14:40:31  5-MIN KDBQ 102040Z 33010KT 10SM CLR 14/M01 A3010 910 37 1000 330/10 RMK AO2
94908KDBQ DBQ20011110144509411/10/01 14:45:31  5-MIN KDBQ 102045Z 33014KT 10SM CLR 14/M01 A3010 910 37 1000 330/14 RMK AO2
94908KDBQ DBQ20011110145011711/10/01 14:50:31  5-MIN KDBQ 102050Z 34011KT 10SM CLR 14/M01 A3011 900 37 1000 340/11 RMK AO2 SLP201 T01391006 51008
94908KDBQ DBQ20011110145511711/10/01 14:55:31  5-MIN KDBQ 102055Z 33012KT 10SM CLR 14/M01 A3011 900 35 1000 330/12 RMK AO2 SLP202 T01391011 53012
94908KDBQ DBQ20011110150009411/10/01 15:00:31  5-MIN KDBQ 102100Z 34010KT 10SM CLR 14/M01 A3012 900 35 1000 340/10 RMK AO2
94908KDBQ DBQ20011110150509411/10/01 15:05:31  5-MIN KDBQ 102105Z 34013KT 10SM CLR 14/M01 A3012 900 37 1000 340/13 RMK AO2
94908KDBQ DBQ20011110151009311/10/01 15:10:31  5-MIN KDBQ 102110Z 34013KT 10SM CLR 13/M01 A3012 890 38 900 340/13 RMK AO2
94908KDBQ DBQ20011110151509311/10/01 15:15:31  5-MIN KDBQ 102115Z 34012KT 10SM CLR 13/M01 A3012 890 36 900 340/12 RMK AO2
94908KDBQ DBQ20011110152009311/10/01 15:20:31  5-MIN KDBQ 102120Z 35012KT 10SM CLR 13/M01 A3012 890 38 900 350/12 RMK AO2
94908KDBQ DBQ20011110152509311/10/01 15:25:31  5-MIN KDBQ 102125Z 35012KT 10SM CLR 13/M01 A3013 890 36 900 350/12 RMK AO2
94908KDBQ DBQ20011110153009311/10/01 15:30:31  5-MIN KDBQ 102130Z 35011KT 10SM CLR 13/M01 A3013 890 36 900 350/11 RMK AO2
94908KDBQ DBQ20011110153509311/10/01 15:35:31  5-MIN KDBQ 102135Z 35009KT 10SM CLR 13/M01 A3013 880 38 900 350/09 RMK AO2
94908KDBQ DBQ20011110154009311/10/01 15:40:31  5-MIN KDBQ 102140Z 34011KT 10SM CLR 13/M01 A3013 880 39 900 340/11 RMK AO2
94908KDBQ DBQ20011110154509311/10/01 15:45:31  5-MIN KDBQ 102145Z 34010KT 10SM CLR 13/M01 A3013 880 39 900 340/10 RMK AO2
94908KDBQ DBQ20011110155011011/10/01 15:50:31  5-MIN KDBQ 102150Z 34009KT 10SM CLR 13/M01 A3014 880 39 900 340/09 RMK AO2 SLP211 T01281006
94908KDBQ DBQ20011110155510911/10/01 15:55:31  5-MIN KDBQ 102155Z 35009KT 10SM CLR 12/00 A3014 880 43 800 340/09 RMK AO2 SLP212 T01220000
94908KDBQ DBQ20011110160009211/10/01 16:00:31  5-MIN KDBQ 102200Z 34008KT 10SM CLR 12/00 A3014 880 43 800 340/08 RMK AO2
94908KDBQ DBQ20011110160509211/10/01 16:05:31  5-MIN KDBQ 102205Z 34009KT 10SM CLR 12/00 A3014 880 44 700 330/09 RMK AO2
94908KDBQ DBQ20011111112009011/11/01 11:20:31  5-MIN KDBQ 111720Z 20007KT 10SM CLR 08/02 A3041 630 65 0 200/07 RMK AO2
94908KDBQ DBQ20011111112509011/11/01 11:25:31  5-MIN KDBQ 111725Z 19008KT 10SM CLR 08/02 A3041 630 65 0 190/08 RMK AO2
94908KDBQ DBQ20011111113009011/11/01 11:30:31  5-MIN KDBQ 111730Z 22005KT 10SM CLR 08/01 A3041 630 62 0 220/05 RMK AO2
94908KDBQ DBQ20011111113509011/11/01 11:35:31  5-MIN KDBQ 111735Z 18007KT 10SM CLR 08/02 A3040 630 65 0 180/07 RMK AO2
94908KDBQ DBQ20011111114009011/11/01 11:40:31  5-MIN KDBQ 111740Z 18007KT 10SM CLR 08/02 A3040 640 65 0 180/07 RMK AO2
94908KDBQ DBQ20011111114509011/11/01 11:45:31  5-MIN KDBQ 111745Z VRB05KT 10SM CLR 08/02 A3040 640 65 0 VRB/05 RMK AO2
94908KDBQ DBQ20011111115012511/11/01 11:50:31  5-MIN KDBQ 111750Z 18006KT 10SM CLR 08/02 A3040 640 63 0 180/06 RMK AO2 SLP302 T00830017 10083 21022 52016
94908KDBQ DBQ20011111115512511/11/01 11:55:31  5-MIN KDBQ 111755Z 17005KT 10SM CLR 08/02 A3039 640 65 0 170/05 RMK AO2 SLP302 T00780017 10083 21022 58006
94908KDBQ DBQ20011111120009011/11/01 12:00:31  5-MIN KDBQ 111800Z 17006KT 10SM CLR 08/02 A3039 640 63 0 170/06 RMK AO2
94908KDBQ DBQ20011111120509011/11/01 12:05:31  5-MIN KDBQ 111805Z VRB06KT 10SM CLR 08/02 A3039 640 63 0 VRB/06 RMK AO2
94908KDBQ DBQ20011111121009011/11/01 12:10:31  5-MIN KDBQ 111810Z 18004KT 10SM CLR 08/02 A3039 640 63 0 180/04 RMK AO2
94908KDBQ DBQ20011111121509011/11/01 12:15:31  5-MIN KDBQ 111815Z 17005KT 10SM CLR 08/02 A3039 640 63 0 170/05 RMK AO2
94908KDBQ DBQ20011111122009211/11/01 12:20:31  5-MIN KDBQ 111820Z 18007KT 10SM CLR 09/02 A3039 650 60 100 180/07 RMK AO2
94908KDBQ DBQ20011111122509011/11/01 12:25:31  5-MIN KDBQ 111825Z 19006KT 10SM CLR 08/02 A3039 650 63 0 190/06 RMK AO2
94908KDBQ DBQ20011111123009011/11/01 12:30:31  5-MIN KDBQ 111830Z VRB06KT 10SM CLR 08/02 A3039 650 63 0 VRB/06 RMK AO2
94908KDBQ DBQ20011111123509211/11/01 12:35:31  5-MIN KDBQ 111835Z 20004KT 10SM CLR 09/02 A3039 650 60 100 200/04 RMK AO2
94908KDBQ DBQ20011111124009211/11/01 12:40:31  5-MIN KDBQ 111840Z 19007KT 10SM CLR 09/02 A3038 650 63 100 190/07 RMK AO2
94908KDBQ DBQ20011111124509211/11/01 12:45:31  5-MIN KDBQ 111845Z 16005KT 10SM CLR 09/02 A3038 650 60 100 160/05 RMK AO2
94908KDBQ DBQ20011111125010911/11/01 12:50:31  5-MIN KDBQ 111850Z 14007KT 10SM CLR 09/01 A3038 650 56 200 140/07 RMK AO2 SLP296 T00940011
94908KDBQ DBQ20011111125510911/11/01 12:55:31  5-MIN KDBQ 111855Z 15006KT 10SM CLR 09/01 A3038 660 58 100 150/06 RMK AO2 SLP295 T00890011
94908KDBQ DBQ20011111130009211/11/01 13:00:31  5-MIN KDBQ 111900Z 17006KT 10SM CLR 09/02 A3038 660 58 200 170/06 RMK AO2
94908KDBQ DBQ20011111130509211/11/01 13:05:31  5-MIN KDBQ 111905Z 17007KT 10SM CLR 09/02 A3037 660 58 200 170/07 RMK AO2
94908KDBQ DBQ20011111131009211/11/01 13:10:31  5-MIN KDBQ 111910Z VRB04KT 10SM CLR 09/02 A3037 660 58 200 VRB/04 RMK AO2
94908KDBQ DBQ20011111131509211/11/01 13:15:31  5-MIN KDBQ 111915Z VRB06KT 10SM CLR 09/02 A3037 660 60 200 VRB/06 RMK AO2
94908KDBQ DBQ20011111132009211/11/01 13:20:31  5-MIN KDBQ 111920Z 17007KT 10SM CLR 09/02 A3037 660 58 200 170/07 RMK AO2
94908KDBQ DBQ20011111132509211/11/01 13:25:31  5-MIN KDBQ 111925Z 14005KT 10SM CLR 09/01 A3037 660 56 200 140/05 RMK AO2
94908KDBQ DBQ20011111133009211/11/01 13:30:31  5-MIN KDBQ 111930Z 16007KT 10SM CLR 09/01 A3037 670 56 200 160/07 RMK AO2
94908KDBQ DBQ20011111133509211/11/01 13:35:31  5-MIN KDBQ 111935Z 16008KT 10SM CLR 09/02 A3037 670 58 200 160/08 RMK AO2
94908KDBQ DBQ20011111134009211/11/01 13:40:31  5-MIN KDBQ 111940Z VRB05KT 10SM CLR 09/02 A3037 670 58 200 VRB/05 RMK AO2
94908KDBQ DBQ20011111134509211/11/01 13:45:31  5-MIN KDBQ 111945Z 18007KT 10SM CLR 09/02 A3036 670 58 200 180/07 RMK AO2
94908KDBQ DBQ20011111135010911/11/01 13:50:31  5-MIN KDBQ 111950Z 17004KT 10SM CLR 09/01 A3036 670 56 200 170/04 RMK AO2 SLP290 T00940011
94908KDBQ DBQ20011111135510911/11/01 13:55:31  5-MIN KDBQ 111955Z 19004KT 10SM CLR 09/02 A3036 670 58 200 190/04 RMK AO2 SLP289 T00940017
94908KDBQ DBQ20011111140009211/11/01 14:00:31  5-MIN KDBQ 112000Z 17006KT 10SM CLR 10/02 A3036 670 56 300 170/06 RMK AO2
94908KDBQ DBQ20011111140509211/11/01 14:05:31  5-MIN KDBQ 112005Z 20005KT 10SM CLR 10/02 A3036 670 56 300 200/05 RMK AO2
94908KDBQ DBQ20011111141009211/11/01 14:10:31  5-MIN KDBQ 112010Z 19007KT 10SM CLR 09/02 A3036 680 58 200 190/07 RMK AO2
94908KDBQ DBQ20011111141509211/11/01 14:15:31  5-MIN KDBQ 112015Z 18006KT 10SM CLR 10/02 A3036 680 56 300 180/06 RMK AO2
94908KDBQ DBQ20011111142009211/11/01 14:20:31  5-MIN KDBQ 112020Z 17005KT 10SM CLR 10/02 A3036 680 56 300 170/05 RMK AO2
94908KDBQ DBQ20011111142509211/11/01 14:25:31  5-MIN KDBQ 112025Z 17006KT 10SM CLR 10/02 A3036 680 56 300 170/06 RMK AO2
94908KDBQ DBQ20011111143009211/11/01 14:30:31  5-MIN KDBQ 112030Z 19008KT 10SM CLR 10/01 A3035 680 54 300 190/08 RMK AO2
94908KDBQ DBQ20011111143509211/11/01 14:35:31  5-MIN KDBQ 112035Z 18006KT 10SM CLR 10/02 A3035 680 56 300 180/06 RMK AO2
94908KDBQ DBQ20011111144009211/11/01 14:40:31  5-MIN KDBQ 112040Z 19008KT 10SM CLR 09/01 A3035 680 56 200 190/08 RMK AO2
94908KDBQ DBQ20011111144509211/11/01 14:45:31  5-MIN KDBQ 112045Z 20007KT 10SM CLR 10/01 A3036 680 54 300 200/07 RMK AO2
94908KDBQ DBQ20011111145011511/11/01 14:50:31  5-MIN KDBQ 112050Z 20005KT 10SM CLR 10/01 A3036 680 54 300 200/05 RMK AO2 SLP288 T01000011 58006
94908KDBQ DBQ20011111145511511/11/01 14:55:31  5-MIN KDBQ 112055Z 19007KT 10SM CLR 10/02 A3036 680 56 300 180/07 RMK AO2 SLP287 T01000017 56013
94908KDBQ DBQ20011111150009211/11/01 15:00:31  5-MIN KDBQ 112100Z 19007KT 10SM CLR 10/01 A3036 680 54 300 190/07 RMK AO2
94908KDBQ DBQ20011111150509211/11/01 15:05:31  5-MIN KDBQ 112105Z 18007KT 10SM CLR 10/01 A3036 680 54 300 180/07 RMK AO2
94908KDBQ DBQ20011111151009211/11/01 15:10:31  5-MIN KDBQ 112110Z 19007KT 10SM CLR 10/01 A3036 680 54 300 190/07 RMK AO2
94908KDBQ DBQ20011111151509211/11/01 15:15:31  5-MIN KDBQ 112115Z 19007KT 10SM CLR 09/01 A3036 680 56 200 190/07 RMK AO2
94908KDBQ DBQ20011111152009211/11/01 15:20:31  5-MIN KDBQ 112120Z 17007KT 10SM CLR 09/01 A3036 680 56 200 170/07 RMK AO2
94908KDBQ DBQ20011111152509211/11/01 15:25:31  5-MIN KDBQ 112125Z 18008KT 10SM CLR 10/01 A3036 680 54 300 180/08 RMK AO2
94908KDBQ DBQ20011111153009211/11/01 15:30:31  5-MIN KDBQ 112130Z 17006KT 10SM CLR 10/01 A3036 680 54 300 170/06 RMK AO2
94908KDBQ DBQ20011111153509211/11/01 15:35:31  5-MIN KDBQ 112135Z 18006KT 10SM CLR 09/01 A3036 680 56 200 180/06 RMK AO2
94908KDBQ DBQ20011111154009211/11/01 15:40:31  5-MIN KDBQ 112140Z 18005KT 10SM CLR 09/01 A3036 680 56 200 180/05 RMK AO2
94908KDBQ DBQ20011111154509211/11/01 15:45:31  5-MIN KDBQ 112145Z 18007KT 10SM CLR 09/01 A3036 680 56 200 180/07 RMK AO2
94908KDBQ DBQ20011111155010911/11/01 15:50:31  5-MIN KDBQ 112150Z 17007KT 10SM CLR 09/01 A3036 680 56 200 170/07 RMK AO2 SLP289 T00940011
94908KDBQ DBQ20011111155510911/11/01 15:55:31  5-MIN KDBQ 112155Z 17005KT 10SM CLR 09/01 A3036 680 56 200 170/05 RMK AO2 SLP289 T00940011
94908KDBQ DBQ20011111160009211/11/01 16:00:31  5-MIN KDBQ 112200Z 18005KT 10SM CLR 09/01 A3036 680 56 200 180/05 RMK AO2
94908KDBQ DBQ20011111160509211/11/01 16:05:31  5-MIN KDBQ 112205Z 17004KT 10SM CLR 09/01 A3036 680 58 100 170/04 RMK AO2
94908KDBQ DBQ20011111161009211/11/01 16:10:31  5-MIN KDBQ 112210Z 17004KT 10SM CLR 09/01 A3036 670 58 100 160/04 RMK AO2
94908KDBQ DBQ20011111161509211/11/01 16:15:31  5-MIN KDBQ 112215Z 17005KT 10SM CLR 09/01 A3036 670 58 100 170/05 RMK AO2
94908KDBQ DBQ20011111162009211/11/01 16:20:31  5-MIN KDBQ 112220Z 17004KT 10SM CLR 08/01 A3036 670 60 100 170/04 RMK AO2
94908KDBQ DBQ20011111162509211/11/01 16:25:31  5-MIN KDBQ 112225Z 17005KT 10SM CLR 08/01 A3036 670 60 100 170/05 RMK AO2
94908KDBQ DBQ20011111163009011/11/01 16:30:31  5-MIN KDBQ 112230Z 17005KT 10SM CLR 08/01 A3036 670 62 0 170/05 RMK AO2
94908KDBQ DBQ20011111163509011/11/01 16:35:31  5-MIN KDBQ 112235Z 16004KT 10SM CLR 07/01 A3036 670 62 0 160/04 RMK AO2
94908KDBQ DBQ20011111164009011/11/01 16:40:31  5-MIN KDBQ 112240Z 16005KT 10SM CLR 07/01 A3036 670 65 0 160/05 RMK AO2
94908KDBQ DBQ20011111164509211/11/01 16:45:31  5-MIN KDBQ 112245Z 16005KT 9SM CLR 07/01 A3036 670 67 -100 160/05 RMK AO2
94908KDBQ DBQ20011111165010911/11/01 16:50:31  5-MIN KDBQ 112250Z 16005KT 9SM CLR 06/01 A3036 670 70 -200 160/05 RMK AO2 SLP293 T00610011
94908KDBQ DBQ20011111165511011/11/01 16:55:31  5-MIN KDBQ 112255Z 16005KT 10SM CLR 06/01 A3036 670 67 -200 150/05 RMK AO2 SLP293 T00610006
94908KDBQ DBQ20011111170009211/11/01 17:00:31  5-MIN KDBQ 112300Z 15005KT 9SM CLR 06/01 A3036 670 67 -200 150/05 RMK AO2
94908KDBQ DBQ20011111170509211/11/01 17:05:31  5-MIN KDBQ 112305Z 15005KT 9SM CLR 06/01 A3036 670 70 -200 150/05 RMK AO2
94908KDBQ DBQ20011111171009311/11/01 17:10:31  5-MIN KDBQ 112310Z 14005KT 10SM CLR 06/01 A3036 670 70 -200 140/05 RMK AO2
94908KDBQ DBQ20011111171509311/11/01 17:15:31  5-MIN KDBQ 112315Z 14005KT 10SM CLR 06/01 A3036 670 70 -200 140/05 RMK AO2
94908KDBQ DBQ20011111172009311/11/01 17:20:31  5-MIN KDBQ 112320Z 15005KT 10SM CLR 05/00 A3036 670 70 -300 140/05 RMK AO2
94908KDBQ DBQ20011111172509311/11/01 17:25:31  5-MIN KDBQ 112325Z 15005KT 10SM CLR 05/01 A3036 670 73 -300 150/05 RMK AO2
94908KDBQ DBQ20011111173009311/11/01 17:30:31  5-MIN KDBQ 112330Z 16004KT 10SM CLR 05/00 A3036 670 70 -300 150/04 RMK AO2
94908KDBQ DBQ20011111173509311/11/01 17:35:31  5-MIN KDBQ 112335Z 15004KT 10SM CLR 04/00 A3036 670 73 -400 150/04 RMK AO2
94908KDBQ DBQ20011111174009311/11/01 17:40:31  5-MIN KDBQ 112340Z 14005KT 10SM CLR 04/00 A3037 670 73 -400 140/05 RMK AO2
94908KDBQ DBQ20011111174509311/11/01 17:45:31  5-MIN KDBQ 112345Z 14005KT 10SM CLR 05/00 A3037 670 70 -300 140/05 RMK AO2
94908KDBQ DBQ20011111175012811/11/01 17:50:31  5-MIN KDBQ 112350Z 15006KT 10SM CLR 05/00 A3037 670 70 -300 150/06 RMK AO2 SLP294 T00500000 10100 20039 56013
94908KDBQ DBQ20011111175512811/11/01 17:55:31  5-MIN KDBQ 112355Z 14006KT 10SM CLR 04/00 A3036 670 73 -400 140/06 RMK AO2 SLP294 T00440000 10100 20039 51003
94908KDBQ DBQ20011111180009311/11/01 18:00:31  5-MIN KDBQ 120000Z 14006KT 10SM CLR 04/00 A3036 670 73 -400 140/06 RMK AO2
94908KDBQ DBQ20011111180509311/11/01 18:05:31  5-MIN KDBQ 120005Z 14007KT 10SM CLR 04/00 A3037 670 73 -400 140/07 RMK AO2
94908KDBQ DBQ20011111181009311/11/01 18:10:31  5-MIN KDBQ 120010Z 14006KT 10SM CLR 04/00 A3037 670 73 -400 140/06 RMK AO2
94908KDBQ DBQ20011111181509311/11/01 18:15:31  5-MIN KDBQ 120015Z 14007KT 10SM CLR 04/00 A3037 670 73 -400 140/07 RMK AO2
94908KDBQ DBQ20011111182009311/11/01 18:20:31  5-MIN KDBQ 120020Z 14006KT 10SM CLR 04/00 A3037 670 73 -400 140/06 RMK AO2
94908KDBQ DBQ20011111182509311/11/01 18:25:31  5-MIN KDBQ 120025Z 14006KT 10SM CLR 04/00 A3037 670 73 -400 140/06 RMK AO2
94908KDBQ DBQ20011111183009311/11/01 18:30:31  5-MIN KDBQ 120030Z 14006KT 10SM CLR 04/00 A3037 670 76 -400 140/06 RMK AO2
94908KDBQ DBQ20011111183509311/11/01 18:35:31  5-MIN KDBQ 120035Z 15006KT 10SM CLR 04/00 A3037 670 76 -400 150/06 RMK AO2
94908KDBQ DBQ20011111184009311/11/01 18:40:31  5-MIN KDBQ 120040Z 14006KT 10SM CLR 04/00 A3037 670 76 -400 140/06 RMK AO2
94908KDBQ DBQ20011111184509311/11/01 18:45:31  5-MIN KDBQ 120045Z 15006KT 10SM CLR 04/00 A3037 670 76 -400 150/06 RMK AO2
94908KDBQ DBQ20011111185011011/11/01 18:50:31  5-MIN KDBQ 120050Z 15006KT 10SM CLR 04/00 A3037 670 76 -400 150/06 RMK AO2 SLP296 T00390000
94908KDBQ DBQ20011111185511011/11/01 18:55:31  5-MIN KDBQ 120055Z 15007KT 10SM CLR 04/00 A3037 670 76 -400 150/07 RMK AO2 SLP296 T00390000
94908KDBQ DBQ20011111190009311/11/01 19:00:31  5-MIN KDBQ 120100Z 15007KT 10SM CLR 04/00 A3037 670 76 -400 150/07 RMK AO2
94908KDBQ DBQ20011111190509311/11/01 19:05:31  5-MIN KDBQ 120105Z 15007KT 10SM CLR 04/00 A3037 670 76 -400 150/07 RMK AO2
94908KDBQ DBQ20011111191009311/11/01 19:10:31  5-MIN KDBQ 120110Z 15007KT 10SM CLR 04/00 A3037 670 76 -400 150/07 RMK AO2
94908KDBQ DBQ20011111191509311/11/01 19:15:31  5-MIN KDBQ 120115Z 16006KT 10SM CLR 03/00 A3037 670 79 -500 160/06 RMK AO2
94908KDBQ DBQ20011111192009411/11/01 19:20:31  5-MIN KDBQ 120120Z 16005KT 10SM CLR 03/M01 A3037 660 76 -500 160/05 RMK AO2
94908KDBQ DBQ20011111192509411/11/01 19:25:31  5-MIN KDBQ 120125Z 00000KT 10SM CLR 02/M01 A3037 660 82 -600 000/00 RMK AO2
94908KDBQ DBQ20011111193009411/11/01 19:30:31  5-MIN KDBQ 120130Z 00000KT 10SM CLR 02/M01 A3037 660 82 -700 000/00 RMK AO2
94908KDBQ DBQ20011111193509411/11/01 19:35:31  5-MIN KDBQ 120135Z 00000KT 10SM CLR 03/M01 A3037 660 79 -600 000/00 RMK AO2
94908KDBQ DBQ20011111194009411/11/01 19:40:31  5-MIN KDBQ 120140Z 00000KT 10SM CLR 02/M01 A3037 660 82 -600 000/00 RMK AO2
94908KDBQ DBQ20011111194509411/11/01 19:45:31  5-MIN KDBQ 120145Z 00000KT 10SM CLR 02/M01 A3037 660 82 -600 000/00 RMK AO2
94908KDBQ DBQ20011111195011111/11/01 19:50:31  5-MIN KDBQ 120150Z 00000KT 10SM CLR 03/M01 A3037 660 79 -600 000/00 RMK AO2 SLP297 T00281006
94908KDBQ DBQ20011111195511111/11/01 19:55:31  5-MIN KDBQ 120155Z 15005KT 10SM CLR 02/M01 A3037 660 82 -600 150/05 RMK AO2 SLP296 T00221006
94908KDBQ DBQ20011111200010411/11/01 20:00:31  5-MIN KDBQ 120200Z AUTO 16005KT 10SM CLR 03/M01 A3037 660 79 -600 160/05 RMK AO2 TSNO
94908KDBQ DBQ20011111200510411/11/01 20:05:31  5-MIN KDBQ 120205Z AUTO 16006KT 10SM CLR 03/M01 A3037 660 76 -500 160/06 RMK AO2 TSNO
94908KDBQ DBQ20011111201010411/11/01 20:10:31  5-MIN KDBQ 120210Z AUTO 16007KT 10SM CLR 03/M01 A3037 660 76 -500 160/07 RMK AO2 TSNO
94908KDBQ DBQ20011111201510411/11/01 20:15:31  5-MIN KDBQ 120215Z AUTO 15007KT 10SM CLR 03/M01 A3037 660 76 -500 150/07 RMK AO2 TSNO
94908KDBQ DBQ20011111202010411/11/01 20:20:31  5-MIN KDBQ 120220Z AUTO 15008KT 10SM CLR 03/M01 A3037 660 76 -500 150/08 RMK AO2 TSNO
94908KDBQ DBQ20011111202510411/11/01 20:25:31  5-MIN KDBQ 120225Z AUTO 15007KT 10SM CLR 03/M01 A3037 660 76 -500 150/07 RMK AO2 TSNO
94908KDBQ DBQ20011111203010411/11/01 20:30:31  5-MIN KDBQ 120230Z AUTO 15007KT 10SM CLR 03/M01 A3037 660 79 -600 150/07 RMK AO2 TSNO
94908KDBQ DBQ20011111203510411/11/01 20:35:31  5-MIN KDBQ 120235Z AUTO 16006KT 10SM CLR 03/M01 A3037 660 76 -500 160/06 RMK AO2 TSNO
94908KDBQ DBQ20011111204010411/11/01 20:40:31  5-MIN KDBQ 120240Z AUTO 15003KT 10SM CLR 02/M01 A3037 660 82 -600 150/03 RMK AO2 TSNO
94908KDBQ DBQ20011111204510411/11/01 20:45:31  5-MIN KDBQ 120245Z AUTO 00000KT 10SM CLR 02/M01 A3038 660 82 -700 000/00 RMK AO2 TSNO
94908KDBQ DBQ20011111205012711/11/01 20:50:31  5-MIN KDBQ 120250Z AUTO 20003KT 10SM CLR 02/M01 A3038 660 78 -600 200/03 RMK AO2 SLP296 T00221011 51003 TSNO
94908KDBQ DBQ20011111205512711/11/01 20:55:31  5-MIN KDBQ 120255Z AUTO 19004KT 10SM CLR 03/M01 A3038 660 79 -600 190/04 RMK AO2 SLP297 T00281006 53005 TSNO
94908KDBQ DBQ20011111210010411/11/01 21:00:31  5-MIN KDBQ 120300Z AUTO 19005KT 10SM CLR 03/M01 A3038 660 76 -500 190/05 RMK AO2 TSNO
94908KDBQ DBQ20011111210510411/11/01 21:05:31  5-MIN KDBQ 120305Z AUTO 18005KT 10SM CLR 03/M01 A3038 660 76 -500 180/05 RMK AO2 TSNO
94908KDBQ DBQ20011111211010411/11/01 21:10:31  5-MIN KDBQ 120310Z AUTO 18005KT 10SM CLR 03/M01 A3038 660 76 -500 180/05 RMK AO2 TSNO
94908KDBQ DBQ20011111211510411/11/01 21:15:31  5-MIN KDBQ 120315Z AUTO 18004KT 10SM CLR 03/M01 A3038 660 79 -600 180/04 RMK AO2 TSNO
94908KDBQ DBQ20011111212010411/11/01 21:20:31  5-MIN KDBQ 120320Z AUTO 18003KT 10SM CLR 03/M01 A3038 660 79 -600 180/03 RMK AO2 TSNO
94908KDBQ DBQ20011111212510411/11/01 21:25:31  5-MIN KDBQ 120325Z AUTO 19003KT 10SM CLR 02/M01 A3038 660 78 -600 190/03 RMK AO2 TSNO
94908KDBQ DBQ20011111213010411/11/01 21:30:31  5-MIN KDBQ 120330Z AUTO 19003KT 10SM CLR 02/M01 A3038 660 78 -600 190/03 RMK AO2 TSNO
94908KDBQ DBQ20011111213510411/11/01 21:35:31  5-MIN KDBQ 120335Z AUTO 18004KT 10SM CLR 02/M01 A3038 660 82 -700 180/04 RMK AO2 TSNO
94908KDBQ DBQ20011111214010411/11/01 21:40:31  5-MIN KDBQ 120340Z AUTO 18003KT 10SM CLR 02/M01 A3038 660 82 -700 180/03 RMK AO2 TSNO
94908KDBQ DBQ20011111214510411/11/01 21:45:31  5-MIN KDBQ 120345Z AUTO 18004KT 10SM CLR 02/M01 A3038 660 82 -700 180/04 RMK AO2 TSNO
94908KDBQ DBQ20011111215012111/11/01 21:50:31  5-MIN KDBQ 120350Z AUTO 18004KT 10SM CLR 02/M01 A3038 660 78 -600 180/04 RMK AO2 SLP297 T00221011 TSNO
94908KDBQ DBQ20011111215512111/11/01 21:55:31  5-MIN KDBQ 120355Z AUTO 18004KT 10SM CLR 02/M01 A3038 660 82 -700 180/04 RMK AO2 SLP296 T00171011 TSNO
94908KDBQ DBQ20011111220010411/11/01 22:00:31  5-MIN KDBQ 120400Z AUTO 17005KT 10SM CLR 02/M01 A3038 660 82 -600 170/05 RMK AO2 TSNO
94908KDBQ DBQ20011111220510411/11/01 22:05:31  5-MIN KDBQ 120405Z AUTO 17005KT 10SM CLR 02/M01 A3038 660 82 -700 170/05 RMK AO2 TSNO
94908KDBQ DBQ20011111221010411/11/01 22:10:31  5-MIN KDBQ 120410Z AUTO 17005KT 10SM CLR 02/M01 A3038 660 82 -700 170/05 RMK AO2 TSNO
94908KDBQ DBQ20011111221510411/11/01 22:15:31  5-MIN KDBQ 120415Z AUTO 19005KT 10SM CLR 02/M01 A3038 660 82 -700 180/05 RMK AO2 TSNO
94908KDBQ DBQ20011111222010411/11/01 22:20:31  5-MIN KDBQ 120420Z AUTO 19005KT 10SM CLR 02/M01 A3038 660 82 -700 190/05 RMK AO2 TSNO
94908KDBQ DBQ20011111222510411/11/01 22:25:31  5-MIN KDBQ 120425Z AUTO 19005KT 10SM CLR 02/M01 A3038 660 82 -700 190/05 RMK AO2 TSNO
94908KDBQ DBQ20011111223010411/11/01 22:30:31  5-MIN KDBQ 120430Z AUTO 19004KT 10SM CLR 02/M01 A3038 660 82 -700 190/04 RMK AO2 TSNO
94908KDBQ DBQ20011111223510411/11/01 22:35:31  5-MIN KDBQ 120435Z AUTO 20004KT 10SM CLR 02/M01 A3038 660 82 -700 200/04 RMK AO2 TSNO
94908KDBQ DBQ20011111224010411/11/01 22:40:31  5-MIN KDBQ 120440Z AUTO 19005KT 10SM CLR 02/M01 A3038 660 82 -700 190/05 RMK AO2 TSNO
94908KDBQ DBQ20011111224510411/11/01 22:45:31  5-MIN KDBQ 120445Z AUTO 19005KT 10SM CLR 02/M01 A3038 660 82 -700 190/05 RMK AO2 TSNO
94908KDBQ DBQ20011111225012111/11/01 22:50:31  5-MIN KDBQ 120450Z AUTO 19005KT 10SM CLR 02/M01 A3038 660 82 -700 190/05 RMK AO2 SLP296 T00171011 TSNO
94908KDBQ DBQ20011111225512111/11/01 22:55:31  5-MIN KDBQ 120455Z AUTO 19005KT 10SM CLR 02/M01 A3038 660 82 -700 190/05 RMK AO2 SLP296 T00171011 TSNO
94908KDBQ DBQ20011111230010411/11/01 23:00:31  5-MIN KDBQ 120500Z AUTO 19006KT 10SM CLR 02/M01 A3038 660 82 -700 190/06 RMK AO2 TSNO
94908KDBQ DBQ20011111230510411/11/01 23:05:31  5-MIN KDBQ 120505Z AUTO 19005KT 10SM CLR 01/M01 A3038 660 85 -800 190/05 RMK AO2 TSNO
94908KDBQ DBQ20011111231010411/11/01 23:10:31  5-MIN KDBQ 120510Z AUTO 19005KT 10SM CLR 01/M01 A3038 660 85 -800 190/05 RMK AO2 TSNO
94908KDBQ DBQ20011111231510411/11/01 23:15:31  5-MIN KDBQ 120515Z AUTO 19005KT 10SM CLR 02/M01 A3038 660 82 -700 190/05 RMK AO2 TSNO
94908KDBQ DBQ20011111232010411/11/01 23:20:31  5-MIN KDBQ 120520Z AUTO 19005KT 10SM CLR 02/M01 A3038 660 82 -700 190/05 RMK AO2 TSNO
94908KDBQ DBQ20011111232510411/11/01 23:25:31  5-MIN KDBQ 120525Z AUTO 19004KT 10SM CLR 02/M01 A3038 650 82 -700 190/04 RMK AO2 TSNO
94908KDBQ DBQ20011111233010411/11/01 23:30:31  5-MIN KDBQ 120530Z AUTO 18005KT 10SM CLR 02/M01 A3038 650 78 -700 180/05 RMK AO2 TSNO
94908KDBQ DBQ20011111233510411/11/01 23:35:31  5-MIN KDBQ 120535Z AUTO 18005KT 10SM CLR 03/M01 A3038 650 79 -600 180/05 RMK AO2 TSNO
94908KDBQ DBQ20011111234010411/11/01 23:40:31  5-MIN KDBQ 120540Z AUTO 17006KT 10SM CLR 03/M01 A3038 650 79 -600 170/06 RMK AO2 TSNO
94908KDBQ DBQ20011111234510411/11/01 23:45:31  5-MIN KDBQ 120545Z AUTO 17005KT 10SM CLR 03/M01 A3038 650 79 -600 170/05 RMK AO2 TSNO
94908KDBQ DBQ20011111235014911/11/01 23:50:31  5-MIN KDBQ 120550Z AUTO 18005KT 10SM CLR 03/M01 A3038 650 79 -600 170/05 RMK AO2 SLP296 T00281006 10044 20011 401001022 53005 TSNO
94908KDBQ DBQ20011111235514911/11/01 23:55:31  5-MIN KDBQ 120555Z AUTO 18005KT 10SM CLR 03/M01 A3038 660 75 -600 180/05 RMK AO2 SLP296 T00281011 10044 20011 401001022 53000 TSNO
94908KDBQ DBQ20011112000010411/12/01 00:00:31  5-MIN KDBQ 120600Z AUTO 19004KT 10SM CLR 02/M01 A3038 660 78 -600 190/04 RMK AO2 TSNO
94908KDBQ DBQ20011112000510411/12/01 00:05:31  5-MIN KDBQ 120605Z AUTO 19005KT 10SM CLR 02/M01 A3038 650 78 -700 190/05 RMK AO2 TSNO
94908KDBQ DBQ20011112001010411/12/01 00:10:31  5-MIN KDBQ 120610Z AUTO 19006KT 10SM CLR 02/M01 A3038 650 78 -700 190/06 RMK AO2 TSNO
94908KDBQ DBQ20011112001510411/12/01 00:15:31  5-MIN KDBQ 120615Z AUTO 18005KT 10SM CLR 02/M01 A3038 660 78 -600 180/05 RMK AO2 TSNO
94908KDBQ DBQ20011112002010411/12/01 00:20:31  5-MIN KDBQ 120620Z AUTO 18006KT 10SM CLR 02/M01 A3038 660 78 -600 180/06 RMK AO2 TSNO
94908KDBQ DBQ20011112002510411/12/01 00:25:31  5-MIN KDBQ 120625Z AUTO 18005KT 10SM CLR 02/M01 A3038 660 78 -600 180/05 RMK AO2 TSNO
94908KDBQ DBQ20011112003010411/12/01 00:30:31  5-MIN KDBQ 120630Z AUTO 19003KT 10SM CLR 02/M01 A3038 660 82 -700 190/03 RMK AO2 TSNO
94908KDBQ DBQ20011112003510411/12/01 00:35:31  5-MIN KDBQ 120635Z AUTO 19003KT 10SM CLR 02/M01 A3038 660 78 -600 190/03 RMK AO2 TSNO
94908KDBQ DBQ20011112004010411/12/01 00:40:31  5-MIN KDBQ 120640Z AUTO 19004KT 10SM CLR 02/M01 A3038 660 78 -600 180/04 RMK AO2 TSNO
94908KDBQ DBQ20011112004510411/12/01 00:45:31  5-MIN KDBQ 120645Z AUTO 19004KT 10SM CLR 02/M01 A3038 660 78 -600 190/04 RMK AO2 TSNO
94908KDBQ DBQ20011112005012111/12/01 00:50:31  5-MIN KDBQ 120650Z AUTO 19004KT 10SM CLR 02/M01 A3038 660 78 -600 190/04 RMK AO2 SLP294 T00221011 TSNO
94908KDBQ DBQ20011112005512111/12/01 00:55:31  5-MIN KDBQ 120655Z AUTO 19004KT 10SM CLR 02/M01 A3037 660 78 -600 190/04 RMK AO2 SLP293 T00221011 TSNO
94908KDBQ DBQ20011112010010411/12/01 01:00:31  5-MIN KDBQ 120700Z AUTO 20003KT 10SM CLR 02/M01 A3037 660 82 -700 200/03 RMK AO2 TSNO
94908KDBQ DBQ20011112010510411/12/01 01:05:31  5-MIN KDBQ 120705Z AUTO 19004KT 10SM CLR 02/M01 A3037 670 82 -700 190/04 RMK AO2 TSNO
94908KDBQ DBQ20011112011010411/12/01 01:10:31  5-MIN KDBQ 120710Z AUTO 19004KT 10SM CLR 02/M01 A3037 670 78 -600 190/04 RMK AO2 TSNO
94908KDBQ DBQ20011112011510411/12/01 01:15:31  5-MIN KDBQ 120715Z AUTO 18004KT 10SM CLR 02/M01 A3037 670 82 -700 180/04 RMK AO2 TSNO
94908KDBQ DBQ20011112012010411/12/01 01:20:31  5-MIN KDBQ 120720Z AUTO 18005KT 10SM CLR 02/M01 A3037 670 82 -700 180/05 RMK AO2 TSNO
94908KDBQ DBQ20011112012510411/12/01 01:25:31  5-MIN KDBQ 120725Z AUTO 17006KT 10SM CLR 02/M01 A3037 670 82 -700 170/06 RMK AO2 TSNO
94908KDBQ DBQ20011112013010411/12/01 01:30:31  5-MIN KDBQ 120730Z AUTO 17006KT 10SM CLR 02/M01 A3037 670 82 -700 170/06 RMK AO2 TSNO
94908KDBQ DBQ20011112013510411/12/01 01:35:31  5-MIN KDBQ 120735Z AUTO 18006KT 10SM CLR 02/M01 A3037 670 82 -700 180/06 RMK AO2 TSNO
94908KDBQ DBQ20011112014010411/12/01 01:40:31  5-MIN KDBQ 120740Z AUTO 18006KT 10SM CLR 02/M01 A3037 670 82 -700 180/06 RMK AO2 TSNO
94908KDBQ DBQ20011112014510411/12/01 01:45:31  5-MIN KDBQ 120745Z AUTO 18006KT 10SM CLR 02/M01 A3037 670 82 -700 180/06 RMK AO2 TSNO
94908KDBQ DBQ20011112015012111/12/01 01:50:31  5-MIN KDBQ 120750Z AUTO 18006KT 10SM CLR 01/M01 A3037 670 85 -800 180/06 RMK AO2 SLP291 T00111011 TSNO
94908KDBQ DBQ20011112015512111/12/01 01:55:31  5-MIN KDBQ 120755Z AUTO 18006KT 10SM CLR 01/M01 A3037 670 85 -800 180/06 RMK AO2 SLP292 T00111011 TSNO
94908KDBQ DBQ20011112020010411/12/01 02:00:31  5-MIN KDBQ 120800Z AUTO 18006KT 10SM CLR 01/M01 A3037 660 89 -800 180/06 RMK AO2 TSNO
94908KDBQ DBQ20011112020510411/12/01 02:05:31  5-MIN KDBQ 120805Z AUTO 18005KT 10SM CLR 01/M01 A3037 660 89 -800 180/05 RMK AO2 TSNO
94908KDBQ DBQ20011112021010411/12/01 02:10:31  5-MIN KDBQ 120810Z AUTO 18004KT 10SM CLR 01/M01 A3037 660 89 -800 180/04 RMK AO2 TSNO
94908KDBQ DBQ20011112021510411/12/01 02:15:31  5-MIN KDBQ 120815Z AUTO 18005KT 10SM CLR 01/M01 A3037 660 85 -800 180/05 RMK AO2 TSNO
94908KDBQ DBQ20011112022010411/12/01 02:20:31  5-MIN KDBQ 120820Z AUTO 18005KT 10SM CLR 01/M01 A3037 660 89 -800 180/05 RMK AO2 TSNO
94908KDBQ DBQ20011112022510411/12/01 02:25:31  5-MIN KDBQ 120825Z AUTO 18005KT 10SM CLR 01/M01 A3037 670 85 -800 180/05 RMK AO2 TSNO
94908KDBQ DBQ20011112023010411/12/01 02:30:31  5-MIN KDBQ 120830Z AUTO 19005KT 10SM CLR 01/M01 A3037 670 89 -800 190/05 RMK AO2 TSNO
94908KDBQ DBQ20011112023510411/12/01 02:35:31  5-MIN KDBQ 120835Z AUTO 20005KT 10SM CLR 01/M01 A3037 670 89 -800 200/05 RMK AO2 TSNO
94908KDBQ DBQ20011112024010411/12/01 02:40:31  5-MIN KDBQ 120840Z AUTO 19006KT 10SM CLR 01/M01 A3037 670 89 -800 190/06 RMK AO2 TSNO
94908KDBQ DBQ20011112024510411/12/01 02:45:31  5-MIN KDBQ 120845Z AUTO 20006KT 10SM CLR 01/M01 A3036 670 85 -800 200/06 RMK AO2 TSNO
94908KDBQ DBQ20011112025012711/12/01 02:50:31  5-MIN KDBQ 120850Z AUTO 20007KT 10SM CLR 01/M01 A3036 670 89 -800 200/07 RMK AO2 SLP290 T00061011 53000 TSNO
94908KDBQ DBQ20011112025512711/12/01 02:55:31  5-MIN KDBQ 120855Z AUTO 20007KT 10SM CLR 01/M01 A3036 670 85 -800 200/07 RMK AO2 SLP289 T00111011 57006 TSNO
94908KDBQ DBQ20011112030010411/12/01 03:00:31  5-MIN KDBQ 120900Z AUTO 20008KT 10SM CLR 01/M01 A3036 670 85 -800 200/08 RMK AO2 TSNO
94908KDBQ DBQ20011112030510411/12/01 03:05:31  5-MIN KDBQ 120905Z AUTO 20008KT 10SM CLR 01/M01 A3036 670 85 -800 190/08 RMK AO2 TSNO
94908KDBQ DBQ20011112031010311/12/01 03:10:31  5-MIN KDBQ 120910Z AUTO 20008KT 9SM CLR 01/M01 A3036 680 89 -800 190/08 RMK AO2 TSNO
94908KDBQ DBQ20011112031510311/12/01 03:15:31  5-MIN KDBQ 120915Z AUTO 20008KT 9SM CLR 01/M01 A3036 680 89 -800 190/08 RMK AO2 TSNO
94908KDBQ DBQ20011112032010311/12/01 03:20:31  5-MIN KDBQ 120920Z AUTO 20008KT 9SM CLR 01/M01 A3036 680 89 -800 190/08 RMK AO2 TSNO
94908KDBQ DBQ20011112032510311/12/01 03:25:31  5-MIN KDBQ 120925Z AUTO 19007KT 9SM CLR 01/M01 A3036 680 89 -800 190/07 RMK AO2 TSNO
94908KDBQ DBQ20011112033010311/12/01 03:30:31  5-MIN KDBQ 120930Z AUTO 19007KT 9SM CLR 01/M01 A3035 680 89 -800 180/07 RMK AO2 TSNO
94908KDBQ DBQ20011112033510311/12/01 03:35:31  5-MIN KDBQ 120935Z AUTO 18008KT 9SM CLR 02/M01 A3035 680 85 -700 180/08 RMK AO2 TSNO
94908KDBQ DBQ20011112034010311/12/01 03:40:31  5-MIN KDBQ 120940Z AUTO 19008KT 10SM CLR 02/00 A3035 680 85 -600 190/08 RMK AO2 TSNO
94908KDBQ DBQ20011112034510311/12/01 03:45:31  5-MIN KDBQ 120945Z AUTO 19009KT 10SM CLR 02/00 A3035 680 85 -600 190/09 RMK AO2 TSNO
94908KDBQ DBQ20011112035012011/12/01 03:50:31  5-MIN KDBQ 120950Z AUTO 19009KT 10SM CLR 02/00 A3035 680 85 -600 190/09 RMK AO2 SLP285 T00220000 TSNO
94908KDBQ DBQ20011112035512011/12/01 03:55:31  5-MIN KDBQ 120955Z AUTO 19009KT 10SM CLR 02/00 A3035 680 85 -600 190/09 RMK AO2 SLP286 T00220000 TSNO
94908KDBQ DBQ20011112040010311/12/01 04:00:31  5-MIN KDBQ 121000Z AUTO 19009KT 10SM CLR 02/00 A3035 680 85 -600 190/09 RMK AO2 TSNO
94908KDBQ DBQ20011112040510311/12/01 04:05:31  5-MIN KDBQ 121005Z AUTO 19010KT 10SM CLR 02/00 A3035 680 85 -600 190/10 RMK AO2 TSNO
94908KDBQ DBQ20011112041010311/12/01 04:10:31  5-MIN KDBQ 121010Z AUTO 19009KT 10SM CLR 02/00 A3035 680 85 -600 190/09 RMK AO2 TSNO
94908KDBQ DBQ20011112041510311/12/01 04:15:31  5-MIN KDBQ 121015Z AUTO 20009KT 10SM CLR 02/00 A3035 680 85 -600 200/09 RMK AO2 TSNO
94908KDBQ DBQ20011112042010311/12/01 04:20:31  5-MIN KDBQ 121020Z AUTO 20010KT 9SM CLR 02/M01 A3036 680 85 -700 200/10 RMK AO2 TSNO
94908KDBQ DBQ20011112042510311/12/01 04:25:31  5-MIN KDBQ 121025Z AUTO 20009KT 9SM CLR 02/M01 A3036 670 85 -700 200/09 RMK AO2 TSNO
94908KDBQ DBQ20011112043010311/12/01 04:30:31  5-MIN KDBQ 121030Z AUTO 20010KT 9SM CLR 02/M01 A3036 680 85 -700 200/10 RMK AO2 TSNO
94908KDBQ DBQ20011112043510311/12/01 04:35:31  5-MIN KDBQ 121035Z AUTO 20009KT 9SM CLR 01/M01 A3036 680 89 -800 200/09 RMK AO2 TSNO
94908KDBQ DBQ20011112044010311/12/01 04:40:31  5-MIN KDBQ 121040Z AUTO 19008KT 9SM CLR 01/M01 A3036 670 89 -800 190/08 RMK AO2 TSNO
94908KDBQ DBQ20011112044510311/12/01 04:45:31  5-MIN KDBQ 121045Z AUTO 19008KT 9SM CLR 01/M01 A3036 670 89 -800 190/08 RMK AO2 TSNO
94908KDBQ DBQ20011112045012011/12/01 04:50:31  5-MIN KDBQ 121050Z AUTO 20008KT 8SM CLR 01/M01 A3036 670 89 -800 190/08 RMK AO2 SLP290 T00061011 TSNO
94908KDBQ DBQ20011112045512011/12/01 04:55:31  5-MIN KDBQ 121055Z AUTO 20008KT 8SM CLR 01/M01 A3036 680 89 -800 200/08 RMK AO2 SLP290 T00061011 TSNO
94908KDBQ DBQ20011112050010311/12/01 05:00:31  5-MIN KDBQ 121100Z AUTO 19008KT 8SM CLR 01/M01 A3036 670 89 -800 190/08 RMK AO2 TSNO
94908KDBQ DBQ20011112050510311/12/01 05:05:31  5-MIN KDBQ 121105Z AUTO 19008KT 8SM CLR 00/M01 A3036 670 92 -900 190/08 RMK AO2 TSNO
94908KDBQ DBQ20011112051010311/12/01 05:10:31  5-MIN KDBQ 121110Z AUTO 19008KT 8SM CLR 01/M01 A3036 670 89 -800 190/08 RMK AO2 TSNO
94908KDBQ DBQ20011112051510311/12/01 05:15:31  5-MIN KDBQ 121115Z AUTO 19008KT 8SM CLR 01/M01 A3036 670 89 -800 190/08 RMK AO2 TSNO
94908KDBQ DBQ20011112052010311/12/01 05:20:31  5-MIN KDBQ 121120Z AUTO 20008KT 8SM CLR 01/M01 A3036 670 89 -800 190/08 RMK AO2 TSNO
94908KDBQ DBQ20011112052510311/12/01 05:25:31  5-MIN KDBQ 121125Z AUTO 20008KT 8SM CLR 00/M01 A3036 670 92 -900 200/08 RMK AO2 TSNO
94908KDBQ DBQ20011112053010311/12/01 05:30:31  5-MIN KDBQ 121130Z AUTO 20008KT 8SM CLR 00/M01 A3036 670 92 -900 200/08 RMK AO2 TSNO
94908KDBQ DBQ20011112053510311/12/01 05:35:31  5-MIN KDBQ 121135Z AUTO 19007KT 8SM CLR 00/M01 A3036 670 92 -900 190/07 RMK AO2 TSNO
94908KDBQ DBQ20011112054010311/12/01 05:40:31  5-MIN KDBQ 121140Z AUTO 19009KT 8SM CLR 01/M01 A3036 670 89 -800 190/09 RMK AO2 TSNO
94908KDBQ DBQ20011112054510311/12/01 05:45:31  5-MIN KDBQ 121145Z AUTO 20009KT 9SM CLR 01/M01 A3036 670 89 -800 200/09 RMK AO2 TSNO
94908KDBQ DBQ20011112055013811/12/01 05:50:31  5-MIN KDBQ 121150Z AUTO 20010KT 9SM CLR 01/M01 A3036 680 89 -800 190/10 RMK AO2 SLP290 T00111006 10028 20000 57006 TSNO
94908KDBQ DBQ20011112055513811/12/01 05:55:31  5-MIN KDBQ 121155Z AUTO 19010KT 9SM CLR 01/M01 A3036 680 89 -800 190/10 RMK AO2 SLP291 T00111006 10028 20000 56001 TSNO
94908KDBQ DBQ20011112060010311/12/01 06:00:31  5-MIN KDBQ 121200Z AUTO 19010KT 9SM CLR 01/M01 A3036 670 89 -800 190/10 RMK AO2 TSNO
94908KDBQ DBQ20011112060510311/12/01 06:05:31  5-MIN KDBQ 121205Z AUTO 19010KT 9SM CLR 01/M01 A3036 670 89 -800 190/10 RMK AO2 TSNO
94908KDBQ DBQ20011112061010311/12/01 06:10:31  5-MIN KDBQ 121210Z AUTO 19010KT 9SM CLR 01/M01 A3036 670 89 -800 190/10 RMK AO2 TSNO
94908KDBQ DBQ20011112061510311/12/01 06:15:31  5-MIN KDBQ 121215Z AUTO 19010KT 9SM CLR 01/M01 A3036 670 89 -800 190/10 RMK AO2 TSNO
94908KDBQ DBQ20011112062010311/12/01 06:20:31  5-MIN KDBQ 121220Z AUTO 19010KT 9SM CLR 01/M01 A3036 670 85 -800 190/10 RMK AO2 TSNO
94908KDBQ DBQ20011112062510311/12/01 06:25:31  5-MIN KDBQ 121225Z AUTO 19010KT 9SM CLR 01/M01 A3036 670 85 -800 190/10 RMK AO2 TSNO
94908KDBQ DBQ20011112063010311/12/01 06:30:31  5-MIN KDBQ 121230Z AUTO 18011KT 9SM CLR 01/M01 A3036 670 89 -800 180/11 RMK AO2 TSNO
94908KDBQ DBQ20011112063510411/12/01 06:35:31  5-MIN KDBQ 121235Z AUTO 19010KT 10SM CLR 02/M01 A3036 670 85 -700 190/10 RMK AO2 TSNO
94908KDBQ DBQ20011112064010411/12/01 06:40:31  5-MIN KDBQ 121240Z AUTO 18011KT 10SM CLR 02/M01 A3036 670 85 -700 180/11 RMK AO2 TSNO
94908KDBQ DBQ20011112064510311/12/01 06:45:31  5-MIN KDBQ 121245Z AUTO 18011KT 9SM CLR 02/M01 A3036 670 85 -700 180/11 RMK AO2 TSNO
94908KDBQ DBQ20011112065012011/12/01 06:50:31  5-MIN KDBQ 121250Z AUTO 18011KT 9SM CLR 02/M01 A3036 670 85 -700 180/11 RMK AO2 SLP293 T00171006 TSNO
94908KDBQ DBQ20011112065512011/12/01 06:55:31  5-MIN KDBQ 121255Z AUTO 18011KT 9SM CLR 02/M01 A3036 670 85 -700 180/11 RMK AO2 SLP293 T00171006 TSNO
94908KDBQ DBQ20011112070010311/12/01 07:00:31  5-MIN KDBQ 121300Z AUTO 18011KT 9SM CLR 02/M01 A3036 670 85 -700 180/11 RMK AO2 TSNO
94908KDBQ DBQ20011112070510311/12/01 07:05:31  5-MIN KDBQ 121305Z AUTO 18011KT 9SM CLR 02/M01 A3036 670 85 -700 180/11 RMK AO2 TSNO
94908KDBQ DBQ20011112071010311/12/01 07:10:31  5-MIN KDBQ 121310Z AUTO 18012KT 9SM CLR 02/M01 A3037 670 85 -700 180/12 RMK AO2 TSNO
94908KDBQ DBQ20011112071510311/12/01 07:15:31  5-MIN KDBQ 121315Z AUTO 18011KT 9SM CLR 02/M01 A3037 670 85 -700 180/11 RMK AO2 TSNO
94908KDBQ DBQ20011112072010311/12/01 07:20:31  5-MIN KDBQ 121320Z AUTO 18012KT 9SM CLR 02/M01 A3037 670 85 -700 180/12 RMK AO2 TSNO
94908KDBQ DBQ20011112072510311/12/01 07:25:31  5-MIN KDBQ 121325Z AUTO 18012KT 9SM CLR 02/M01 A3037 670 85 -700 180/12 RMK AO2 TSNO
94908KDBQ DBQ20011112073010311/12/01 07:30:31  5-MIN KDBQ 121330Z AUTO 18011KT 9SM CLR 02/M01 A3037 660 85 -700 180/11 RMK AO2 TSNO
94908KDBQ DBQ20011112073510311/12/01 07:35:31  5-MIN KDBQ 121335Z AUTO 18011KT 9SM CLR 02/M01 A3037 660 85 -700 180/11 RMK AO2 TSNO
94908KDBQ DBQ20011112074010311/12/01 07:40:31  5-MIN KDBQ 121340Z AUTO 18011KT 9SM CLR 02/M01 A3037 660 82 -600 180/11 RMK AO2 TSNO
94908KDBQ DBQ20011112074510411/12/01 07:45:31  5-MIN KDBQ 121345Z AUTO 18012KT 10SM CLR 02/M01 A3037 660 82 -600 180/12 RMK AO2 TSNO
94908KDBQ DBQ20011112075012011/12/01 07:50:31  5-MIN KDBQ 121350Z AUTO 18011KT 10SM CLR 03/00 A3037 660 82 -600 180/11 RMK AO2 SLP295 T00280000 TSNO
94908KDBQ DBQ20011112075512011/12/01 07:55:31  5-MIN KDBQ 121355Z AUTO 18012KT 10SM CLR 03/00 A3037 660 82 -600 180/12 RMK AO2 SLP295 T00280000 TSNO
94908KDBQ DBQ20011112080010211/12/01 08:00:31  5-MIN KDBQ 121400Z AUTO 18012KT 9SM CLR 03/00 A3037 660 82 -600 180/12 RMK AO2 TSNO
94908KDBQ DBQ20011112080510211/12/01 08:05:31  5-MIN KDBQ 121405Z AUTO 19011KT 9SM CLR 03/00 A3037 660 79 -500 180/11 RMK AO2 TSNO
94908KDBQ DBQ20011112081010211/12/01 08:10:31  5-MIN KDBQ 121410Z AUTO 19012KT 9SM CLR 04/00 A3037 660 76 -400 180/12 RMK AO2 TSNO
94908KDBQ DBQ20011112081510211/12/01 08:15:31  5-MIN KDBQ 121415Z AUTO 19011KT 9SM CLR 04/00 A3037 660 76 -400 180/11 RMK AO2 TSNO
94908KDBQ DBQ20011112082010211/12/01 08:20:31  5-MIN KDBQ 121420Z AUTO 18011KT 9SM CLR 04/01 A3037 660 79 -400 180/11 RMK AO2 TSNO
94908KDBQ DBQ20011112082510211/12/01 08:25:31  5-MIN KDBQ 121425Z AUTO 18013KT 9SM CLR 04/01 A3037 660 76 -400 180/13 RMK AO2 TSNO
94908KDBQ DBQ20011112083010311/12/01 08:30:31  5-MIN KDBQ 121430Z AUTO 18013KT 10SM CLR 04/01 A3037 660 76 -400 180/13 RMK AO2 TSNO
94908KDBQ DBQ20011112083510311/12/01 08:35:31  5-MIN KDBQ 121435Z AUTO 18014KT 10SM CLR 05/01 A3037 660 73 -300 180/14 RMK AO2 TSNO
94908KDBQ DBQ20011112084010311/12/01 08:40:31  5-MIN KDBQ 121440Z AUTO 19015KT 10SM CLR 05/01 A3037 660 73 -300 180/15 RMK AO2 TSNO
94908KDBQ DBQ20011112084510311/12/01 08:45:31  5-MIN KDBQ 121445Z AUTO 19014KT 10SM CLR 05/01 A3037 660 73 -300 190/14 RMK AO2 TSNO
94908KDBQ DBQ20011112085012611/12/01 08:50:31  5-MIN KDBQ 121450Z AUTO 19014KT 10SM CLR 06/01 A3037 660 70 -200 190/14 RMK AO2 SLP295 T00560006 56001 TSNO
94908KDBQ DBQ20011112085512611/12/01 08:55:31  5-MIN KDBQ 121455Z AUTO 19014KT 10SM CLR 06/01 A3037 660 70 -200 190/14 RMK AO2 SLP295 T00560006 51005 TSNO
94908KDBQ DBQ20011112090010311/12/01 09:00:31  5-MIN KDBQ 121500Z AUTO 19013KT 10SM CLR 06/01 A3037 660 73 -200 180/13 RMK AO2 TSNO
94908KDBQ DBQ20011112090510311/12/01 09:05:31  5-MIN KDBQ 121505Z AUTO 19014KT 10SM CLR 06/01 A3037 660 73 -200 190/14 RMK AO2 TSNO
94908KDBQ DBQ20011112091010311/12/01 09:10:31  5-MIN KDBQ 121510Z AUTO 19014KT 10SM CLR 06/01 A3037 660 70 -200 190/14 RMK AO2 TSNO
94908KDBQ DBQ20011112091510311/12/01 09:15:31  5-MIN KDBQ 121515Z AUTO 18014KT 10SM CLR 06/01 A3037 660 70 -200 180/14 RMK AO2 TSNO
94908KDBQ DBQ20011112092010311/12/01 09:20:31  5-MIN KDBQ 121520Z AUTO 18014KT 10SM CLR 06/01 A3037 660 70 -200 180/14 RMK AO2 TSNO
94908KDBQ DBQ20011112092510311/12/01 09:25:31  5-MIN KDBQ 121525Z AUTO 19013KT 10SM CLR 06/01 A3037 660 70 -200 180/13 RMK AO2 TSNO
94908KDBQ DBQ20011112093010311/12/01 09:30:31  5-MIN KDBQ 121530Z AUTO 19014KT 10SM CLR 07/02 A3037 660 70 -100 190/14 RMK AO2 TSNO
94908KDBQ DBQ20011112093510311/12/01 09:35:31  5-MIN KDBQ 121535Z AUTO 18013KT 10SM CLR 07/01 A3037 660 67 -100 180/13 RMK AO2 TSNO
94908KDBQ DBQ20011112094010311/12/01 09:40:31  5-MIN KDBQ 121540Z AUTO 19013KT 10SM CLR 07/02 A3037 660 70 -100 180/13 RMK AO2 TSNO
94908KDBQ DBQ20011112094510011/12/01 09:45:31  5-MIN KDBQ 121545Z AUTO 18013KT 10SM CLR 07/02 A3037 660 68 0 180/13 RMK AO2 TSNO
94908KDBQ DBQ20011112095011711/12/01 09:50:31  5-MIN KDBQ 121550Z AUTO 19014KT 10SM CLR 07/02 A3037 660 68 0 180/14 RMK AO2 SLP294 T00720017 TSNO
94908KDBQ DBQ20011112095511711/12/01 09:55:31  5-MIN KDBQ 121555Z AUTO 18012KT 10SM CLR 08/02 A3037 660 65 0 180/12 RMK AO2 SLP294 T00780017 TSNO
94908KDBQ DBQ20011112100010011/12/01 10:00:31  5-MIN KDBQ 121600Z AUTO 18012KT 10SM CLR 08/02 A3038 660 65 0 180/12 RMK AO2 TSNO
94908KDBQ DBQ20011112100510211/12/01 10:05:31  5-MIN KDBQ 121605Z AUTO 18012KT 10SM CLR 08/02 A3037 660 63 100 180/12 RMK AO2 TSNO
94908KDBQ DBQ20011112101010011/12/01 10:10:31  5-MIN KDBQ 121610Z AUTO 19013KT 10SM CLR 08/02 A3037 660 65 0 180/13 RMK AO2 TSNO
94908KDBQ DBQ20011112101510211/12/01 10:15:31  5-MIN KDBQ 121615Z AUTO 18011KT 10SM CLR 08/02 A3037 660 63 100 180/11 RMK AO2 TSNO
94908KDBQ DBQ20011112102010211/12/01 10:20:31  5-MIN KDBQ 121620Z AUTO 19014KT 10SM CLR 08/02 A3037 660 65 100 190/14 RMK AO2 TSNO
94908KDBQ DBQ20011112102510211/12/01 10:25:31  5-MIN KDBQ 121625Z AUTO 18012KT 10SM CLR 09/02 A3037 660 63 100 180/12 RMK AO2 TSNO
94908KDBQ DBQ20011112103010211/12/01 10:30:31  5-MIN KDBQ 121630Z AUTO 18011KT 10SM CLR 09/02 A3037 660 63 100 180/11 RMK AO2 TSNO
94908KDBQ DBQ20011112103510211/12/01 10:35:31  5-MIN KDBQ 121635Z AUTO 18010KT 10SM CLR 09/02 A3037 660 63 100 180/10 RMK AO2 TSNO
94908KDBQ DBQ20011112104010211/12/01 10:40:31  5-MIN KDBQ 121640Z AUTO 18012KT 10SM CLR 09/02 A3037 670 63 100 180/12 RMK AO2 TSNO
94908KDBQ DBQ20011112104510211/12/01 10:45:31  5-MIN KDBQ 121645Z AUTO 18012KT 10SM CLR 09/02 A3037 670 60 200 180/12 RMK AO2 TSNO
94908KDBQ DBQ20011112105011911/12/01 10:50:31  5-MIN KDBQ 121650Z AUTO 18013KT 10SM CLR 09/02 A3036 670 60 200 180/13 RMK AO2 SLP290 T00940022 TSNO
94908KDBQ DBQ20011112105511911/12/01 10:55:31  5-MIN KDBQ 121655Z AUTO 18011KT 10SM CLR 10/02 A3036 670 58 300 180/11 RMK AO2 SLP290 T01000022 TSNO
94908KDBQ DBQ20011112110010211/12/01 11:00:31  5-MIN KDBQ 121700Z AUTO 18013KT 10SM CLR 10/03 A3036 670 60 300 180/13 RMK AO2 TSNO
94908KDBQ DBQ20011112110510211/12/01 11:05:31  5-MIN KDBQ 121705Z AUTO 18014KT 10SM CLR 11/03 A3036 680 58 300 180/14 RMK AO2 TSNO
94908KDBQ DBQ20011112111010211/12/01 11:10:31  5-MIN KDBQ 121710Z AUTO 19014KT 10SM CLR 11/03 A3036 680 58 300 190/14 RMK AO2 TSNO
94908KDBQ DBQ20011112111510211/12/01 11:15:31  5-MIN KDBQ 121715Z AUTO 19012KT 10SM CLR 11/03 A3035 680 58 300 190/12 RMK AO2 TSNO
94908KDBQ DBQ20011112112010211/12/01 11:20:31  5-MIN KDBQ 121720Z AUTO 18013KT 10SM CLR 11/03 A3035 680 56 400 180/13 RMK AO2 TSNO
94908KDBQ DBQ20011112112510211/12/01 11:25:31  5-MIN KDBQ 121725Z AUTO 18014KT 10SM CLR 11/03 A3035 690 56 400 180/14 RMK AO2 TSNO
94908KDBQ DBQ20011112113010211/12/01 11:30:31  5-MIN KDBQ 121730Z AUTO 17014KT 10SM CLR 11/03 A3034 690 58 400 170/14 RMK AO2 TSNO
94908KDBQ DBQ20011112113510211/12/01 11:35:31  5-MIN KDBQ 121735Z AUTO 18015KT 10SM CLR 11/03 A3034 690 56 400 180/15 RMK AO2 TSNO
94908KDBQ DBQ20011112114010211/12/01 11:40:31  5-MIN KDBQ 121740Z AUTO 18016KT 10SM CLR 11/02 A3034 690 54 400 180/16 RMK AO2 TSNO
94908KDBQ DBQ20011112114510211/12/01 11:45:31  5-MIN KDBQ 121745Z AUTO 19014KT 10SM CLR 11/03 A3033 700 56 400 180/14 RMK AO2 TSNO
94908KDBQ DBQ20011112115013711/12/01 11:50:31  5-MIN KDBQ 121750Z AUTO 18014KT 10SM CLR 12/03 A3033 700 54 500 180/14 RMK AO2 SLP278 T01170028 10117 20011 51005 TSNO
94908KDBQ DBQ20011112115513711/12/01 11:55:31  5-MIN KDBQ 121755Z AUTO 18014KT 10SM CLR 12/03 A3033 700 54 500 180/14 RMK AO2 SLP277 T01170028 10117 20011 58015 TSNO
94908KDBQ DBQ20011112120010211/12/01 12:00:31  5-MIN KDBQ 121800Z AUTO 18013KT 10SM CLR 12/03 A3033 710 54 500 180/13 RMK AO2 TSNO
94908KDBQ DBQ20011112120510211/12/01 12:05:31  5-MIN KDBQ 121805Z AUTO 19013KT 10SM CLR 12/03 A3032 710 54 500 190/13 RMK AO2 TSNO
94908KDBQ DBQ20011112121010211/12/01 12:10:31  5-MIN KDBQ 121810Z AUTO 18014KT 10SM CLR 12/03 A3032 710 54 500 180/14 RMK AO2 TSNO
94908KDBQ DBQ20011112121510211/12/01 12:15:31  5-MIN KDBQ 121815Z AUTO 18013KT 10SM CLR 12/03 A3032 710 54 500 170/13 RMK AO2 TSNO
94908KDBQ DBQ20011112122010211/12/01 12:20:31  5-MIN KDBQ 121820Z AUTO 19013KT 10SM CLR 12/03 A3032 710 52 600 180/13 RMK AO2 TSNO
94908KDBQ DBQ20011112122510211/12/01 12:25:31  5-MIN KDBQ 121825Z AUTO 18014KT 10SM CLR 12/03 A3031 720 54 500 180/14 RMK AO2 TSNO
94908KDBQ DBQ20011112123010211/12/01 12:30:31  5-MIN KDBQ 121830Z AUTO 18013KT 10SM CLR 12/03 A3031 720 52 600 180/13 RMK AO2 TSNO
94908KDBQ DBQ20011112123510211/12/01 12:35:31  5-MIN KDBQ 121835Z AUTO 16012KT 10SM CLR 12/03 A3031 720 52 600 160/12 RMK AO2 TSNO
94908KDBQ DBQ20011112124010211/12/01 12:40:31  5-MIN KDBQ 121840Z AUTO 16010KT 10SM CLR 12/03 A3031 720 52 600 160/10 RMK AO2 TSNO
94908KDBQ DBQ20011112124510211/12/01 12:45:31  5-MIN KDBQ 121845Z AUTO 17011KT 10SM CLR 12/03 A3031 720 52 600 160/11 RMK AO2 TSNO
94908KDBQ DBQ20011112125011911/12/01 12:50:31  5-MIN KDBQ 121850Z AUTO 18011KT 10SM CLR 12/03 A3031 720 52 600 170/11 RMK AO2 SLP271 T01220028 TSNO
94908KDBQ DBQ20011112125511911/12/01 12:55:31  5-MIN KDBQ 121855Z AUTO 17009KT 10SM CLR 12/03 A3031 720 52 600 170/09 RMK AO2 SLP270 T01220028 TSNO
94908KDBQ DBQ20011112130010111/12/01 13:00:31  5-MIN KDBQ 121900Z AUTO 17010KT 9SM CLR 13/03 A3031 720 50 700 170/10 RMK AO2 TSNO
94908KDBQ DBQ20011112130510111/12/01 13:05:31  5-MIN KDBQ 121905Z AUTO 19010KT 9SM CLR 13/02 A3031 720 48 700 180/10 RMK AO2 TSNO
94908KDBQ DBQ20011112131010211/12/01 13:10:31  5-MIN KDBQ 121910Z AUTO 20013KT 10SM CLR 13/02 A3031 720 48 700 190/13 RMK AO2 TSNO
94908KDBQ DBQ20011112131510211/12/01 13:15:31  5-MIN KDBQ 121915Z AUTO 18012KT 10SM CLR 13/02 A3031 720 46 700 180/12 RMK AO2 TSNO
94908KDBQ DBQ20011112132010211/12/01 13:20:31  5-MIN KDBQ 121920Z AUTO 19012KT 10SM CLR 13/02 A3031 720 48 700 190/12 RMK AO2 TSNO
94908KDBQ DBQ20011112132510211/12/01 13:25:31  5-MIN KDBQ 121925Z AUTO 18011KT 10SM CLR 13/02 A3031 720 48 700 180/11 RMK AO2 TSNO
94908KDBQ DBQ20011112133010211/12/01 13:30:31  5-MIN KDBQ 121930Z AUTO 18010KT 10SM CLR 13/02 A3031 720 48 700 180/10 RMK AO2 TSNO
94908KDBQ DBQ20011112133510211/12/01 13:35:31  5-MIN KDBQ 121935Z AUTO 17011KT 10SM CLR 13/02 A3030 720 48 700 170/11 RMK AO2 TSNO
94908KDBQ DBQ20011112134010211/12/01 13:40:31  5-MIN KDBQ 121940Z AUTO 17013KT 10SM CLR 13/02 A3030 730 46 700 170/13 RMK AO2 TSNO
94908KDBQ DBQ20011112134510211/12/01 13:45:31  5-MIN KDBQ 121945Z AUTO 19013KT 10SM CLR 13/02 A3030 730 46 700 190/13 RMK AO2 TSNO
94908KDBQ DBQ20011112135011911/12/01 13:50:31  5-MIN KDBQ 121950Z AUTO 18012KT 10SM CLR 13/02 A3030 730 45 700 180/12 RMK AO2 SLP267 T01330017 TSNO
94908KDBQ DBQ20011112135511911/12/01 13:55:31  5-MIN KDBQ 121955Z AUTO 18012KT 10SM CLR 13/02 A3030 730 45 700 180/12 RMK AO2 SLP266 T01330017 TSNO
94908KDBQ DBQ20011112140010211/12/01 14:00:31  5-MIN KDBQ 122000Z AUTO 16011KT 10SM CLR 13/02 A3030 730 45 700 160/11 RMK AO2 TSNO
94908KDBQ DBQ20011112140510211/12/01 14:05:31  5-MIN KDBQ 122005Z AUTO 17011KT 10SM CLR 13/02 A3029 740 46 700 160/11 RMK AO2 TSNO
94908KDBQ DBQ20011112141010211/12/01 14:10:31  5-MIN KDBQ 122010Z AUTO 17013KT 10SM CLR 13/02 A3029 740 45 800 170/13 RMK AO2 TSNO
94908KDBQ DBQ20011112141510211/12/01 14:15:31  5-MIN KDBQ 122015Z AUTO 17013KT 10SM CLR 13/02 A3029 740 45 800 170/13 RMK AO2 TSNO
94908KDBQ DBQ20011112142010211/12/01 14:20:31  5-MIN KDBQ 122020Z AUTO 17012KT 10SM CLR 13/01 A3029 740 43 800 170/12 RMK AO2 TSNO
94908KDBQ DBQ20011112142510211/12/01 14:25:31  5-MIN KDBQ 122025Z AUTO 16013KT 10SM CLR 14/02 A3029 740 45 800 160/13 RMK AO2 TSNO
94908KDBQ DBQ20011112143010211/12/01 14:30:31  5-MIN KDBQ 122030Z AUTO 16012KT 10SM CLR 14/02 A3028 740 43 800 160/12 RMK AO2 TSNO
94908KDBQ DBQ20011112143509211/12/01 14:35:31  5-MIN KDBQ 122035Z 17014KT 10SM CLR 14/02 A3028 750 43 800 170/14 RMK AO2
94908KDBQ DBQ20011112144009211/12/01 14:40:31  5-MIN KDBQ 122040Z 17013KT 10SM CLR 14/02 A3028 750 43 800 170/13 RMK AO2
94908KDBQ DBQ20011112144509211/12/01 14:45:31  5-MIN KDBQ 122045Z 17010KT 10SM CLR 14/02 A3028 750 43 800 170/10 RMK AO2
94908KDBQ DBQ20011112145011511/12/01 14:50:31  5-MIN KDBQ 122050Z 16013KT 10SM CLR 14/01 A3028 750 41 800 160/13 RMK AO2 SLP260 T01390011 58015
94908KDBQ DBQ20011112145511511/12/01 14:55:31  5-MIN KDBQ 122055Z 16014KT 10SM CLR 14/01 A3028 750 41 800 160/14 RMK AO2 SLP259 T01390011 57017
94908KDBQ DBQ20011112150009211/12/01 15:00:31  5-MIN KDBQ 122100Z 16014KT 10SM CLR 14/01 A3028 750 40 800 160/14 RMK AO2
94908KDBQ DBQ20011112150509211/12/01 15:05:31  5-MIN KDBQ 122105Z 17011KT 10SM CLR 14/01 A3027 750 40 800 170/11 RMK AO2
94908KDBQ DBQ20011112151009211/12/01 15:10:31  5-MIN KDBQ 122110Z 16014KT 10SM CLR 14/01 A3027 750 40 800 160/14 RMK AO2
94908KDBQ DBQ20011112151509211/12/01 15:15:31  5-MIN KDBQ 122115Z 17012KT 10SM CLR 13/00 A3027 750 40 800 170/12 RMK AO2
94908KDBQ DBQ20011112152009211/12/01 15:20:31  5-MIN KDBQ 122120Z 16010KT 10SM CLR 13/01 A3027 750 41 800 160/10 RMK AO2
94908KDBQ DBQ20011112152509811/12/01 15:25:31  5-MIN KDBQ 122125Z 16013G18KT 10SM CLR 13/01 A3027 760 41 800 160/13G18 RMK AO2
94908KDBQ DBQ20011112153009211/12/01 15:30:31  5-MIN KDBQ 122130Z 16013KT 10SM CLR 13/01 A3027 760 41 800 160/13 RMK AO2
94908KDBQ DBQ20011112153509211/12/01 15:35:31  5-MIN KDBQ 122135Z 16010KT 10SM CLR 13/01 A3027 760 43 700 160/10 RMK AO2
94908KDBQ DBQ20011112154009211/12/01 15:40:31  5-MIN KDBQ 122140Z 16011KT 10SM CLR 13/01 A3027 760 43 700 160/11 RMK AO2
94908KDBQ DBQ20011112154509211/12/01 15:45:31  5-MIN KDBQ 122145Z 16009KT 10SM CLR 13/01 A3027 760 43 700 160/09 RMK AO2
94908KDBQ DBQ20011112155010911/12/01 15:50:31  5-MIN KDBQ 122150Z 16010KT 10SM CLR 13/01 A3027 760 43 700 160/10 RMK AO2 SLP256 T01280006
94908KDBQ DBQ20011112155510911/12/01 15:55:31  5-MIN KDBQ 122155Z 16009KT 10SM CLR 12/01 A3027 760 46 600 160/09 RMK AO2 SLP255 T01220011
94908KDBQ DBQ20011112160009211/12/01 16:00:31  5-MIN KDBQ 122200Z 16009KT 10SM CLR 12/01 A3026 760 44 700 160/09 RMK AO2
94908KDBQ DBQ20011112160509211/12/01 16:05:31  5-MIN KDBQ 122205Z 16010KT 10SM CLR 12/01 A3026 760 46 700 160/10 RMK AO2
94908KDBQ DBQ20011112161009211/12/01 16:10:31  5-MIN KDBQ 122210Z 16009KT 10SM CLR 12/01 A3026 770 44 700 160/09 RMK AO2
94908KDBQ DBQ20011112161509211/12/01 16:15:31  5-MIN KDBQ 122215Z 16010KT 10SM CLR 12/01 A3026 770 46 600 150/10 RMK AO2
94908KDBQ DBQ20011112162009211/12/01 16:20:31  5-MIN KDBQ 122220Z 16009KT 10SM CLR 11/01 A3026 770 48 500 160/09 RMK AO2
94908KDBQ DBQ20011112162509211/12/01 16:25:31  5-MIN KDBQ 122225Z 16008KT 10SM CLR 11/01 A3026 770 48 500 160/08 RMK AO2
94908KDBQ DBQ20011112163009211/12/01 16:30:31  5-MIN KDBQ 122230Z 16009KT 10SM CLR 11/01 A3026 770 50 500 160/09 RMK AO2
94908KDBQ DBQ20011112163509211/12/01 16:35:31  5-MIN KDBQ 122235Z 16008KT 10SM CLR 11/01 A3026 770 50 500 160/08 RMK AO2
94908KDBQ DBQ20011112164009211/12/01 16:40:31  5-MIN KDBQ 122240Z 16008KT 10SM CLR 10/01 A3026 770 52 400 160/08 RMK AO2
94908KDBQ DBQ20011112164509211/12/01 16:45:31  5-MIN KDBQ 122245Z 16008KT 10SM CLR 10/00 A3026 770 49 400 160/08 RMK AO2
94908KDBQ DBQ20011112165010911/12/01 16:50:31  5-MIN KDBQ 122250Z 16009KT 10SM CLR 09/00 A3026 770 51 300 160/09 RMK AO2 SLP256 T00940000
94908KDBQ DBQ20011112165510911/12/01 16:55:31  5-MIN KDBQ 122255Z 16009KT 10SM CLR 09/00 A3026 770 51 300 160/09 RMK AO2 SLP256 T00940000
94908KDBQ DBQ20011112170009211/12/01 17:00:31  5-MIN KDBQ 122300Z 16009KT 10SM CLR 09/00 A3026 770 53 300 160/09 RMK AO2
94908KDBQ DBQ20011112170509211/12/01 17:05:31  5-MIN KDBQ 122305Z 16009KT 10SM CLR 09/00 A3026 770 53 300 160/09 RMK AO2
94908KDBQ DBQ20011112171009211/12/01 17:10:31  5-MIN KDBQ 122310Z 16009KT 10SM CLR 08/00 A3026 770 55 200 160/09 RMK AO2
94908KDBQ DBQ20011112171509211/12/01 17:15:31  5-MIN KDBQ 122315Z 16008KT 10SM CLR 08/00 A3025 770 55 200 160/08 RMK AO2
94908KDBQ DBQ20011112172009211/12/01 17:20:31  5-MIN KDBQ 122320Z 16009KT 10SM CLR 08/00 A3026 770 58 100 160/09 RMK AO2
94908KDBQ DBQ20011112172509311/12/01 17:25:31  5-MIN KDBQ 122325Z 16010KT 10SM CLR 08/M01 A3026 770 55 100 160/10 RMK AO2
94908KDBQ DBQ20011112173009211/12/01 17:30:31  5-MIN KDBQ 122330Z 16009KT 10SM CLR 08/00 A3026 770 58 100 160/09 RMK AO2
94908KDBQ DBQ20011112173509311/12/01 17:35:31  5-MIN KDBQ 122335Z 16009KT 10SM CLR 07/M01 A3026 770 57 100 160/09 RMK AO2
94908KDBQ DBQ20011112174009311/12/01 17:40:31  5-MIN KDBQ 122340Z 16009KT 10SM CLR 07/M01 A3025 770 57 100 160/09 RMK AO2
94908KDBQ DBQ20011112174509211/12/01 17:45:31  5-MIN KDBQ 122345Z 16009KT 10SM CLR 08/00 A3025 770 58 100 160/09 RMK AO2
94908KDBQ DBQ20011112175012711/12/01 17:50:31  5-MIN KDBQ 122350Z 16010KT 10SM CLR 08/00 A3025 770 58 100 150/10 RMK AO2 SLP253 T00780000 10139 20072 57017
94908KDBQ DBQ20011112175512711/12/01 17:55:31  5-MIN KDBQ 122355Z 16010KT 10SM CLR 08/00 A3025 770 58 100 160/10 RMK AO2 SLP254 T00780000 10139 20072 56008
94908KDBQ DBQ20011112180009211/12/01 18:00:31  5-MIN KDBQ 130000Z 16011KT 10SM CLR 08/00 A3025 770 58 100 160/11 RMK AO2
94908KDBQ DBQ20011112180509211/12/01 18:05:31  5-MIN KDBQ 130005Z 16011KT 10SM CLR 08/00 A3025 780 58 100 160/11 RMK AO2
94908KDBQ DBQ20011112181009211/12/01 18:10:31  5-MIN KDBQ 130010Z 16011KT 10SM CLR 08/00 A3025 780 55 200 160/11 RMK AO2
94908KDBQ DBQ20011112181509211/12/01 18:15:31  5-MIN KDBQ 130015Z 16010KT 10SM CLR 08/00 A3025 780 58 100 160/10 RMK AO2
94908KDBQ DBQ20011112182009211/12/01 18:20:31  5-MIN KDBQ 130020Z 16010KT 10SM CLR 08/00 A3025 780 58 100 160/10 RMK AO2
94908KDBQ DBQ20011112182509211/12/01 18:25:31  5-MIN KDBQ 130025Z 16010KT 10SM CLR 08/00 A3025 780 58 100 160/10 RMK AO2
94908KDBQ DBQ20011112183009211/12/01 18:30:31  5-MIN KDBQ 130030Z 16011KT 10SM CLR 08/00 A3024 780 58 100 160/11 RMK AO2
94908KDBQ DBQ20011112183509211/12/01 18:35:31  5-MIN KDBQ 130035Z 16010KT 10SM CLR 08/00 A3024 780 58 100 160/10 RMK AO2
94908KDBQ DBQ20011112184009211/12/01 18:40:31  5-MIN KDBQ 130040Z 16011KT 10SM CLR 08/00 A3024 780 58 100 160/11 RMK AO2
94908KDBQ DBQ20011112184509211/12/01 18:45:31  5-MIN KDBQ 130045Z 16011KT 10SM CLR 07/00 A3024 790 60 100 160/11 RMK AO2
94908KDBQ DBQ20011112185010911/12/01 18:50:31  5-MIN KDBQ 130050Z 16011KT 10SM CLR 08/00 A3024 790 58 100 160/11 RMK AO2 SLP247 T00780000
94908KDBQ DBQ20011112185510911/12/01 18:55:31  5-MIN KDBQ 130055Z 16011KT 10SM CLR 08/00 A3024 790 58 100 160/11 RMK AO2 SLP247 T00780000
94908KDBQ DBQ20011112190009211/12/01 19:00:31  5-MIN KDBQ 130100Z 16011KT 10SM CLR 08/00 A3023 790 58 200 160/11 RMK AO2
94908KDBQ DBQ20011112190509211/12/01 19:05:31  5-MIN KDBQ 130105Z 16010KT 10SM CLR 08/01 A3023 790 60 200 160/10 RMK AO2
94908KDBQ DBQ20011112191009211/12/01 19:10:31  5-MIN KDBQ 130110Z 16011KT 10SM CLR 07/01 A3023 790 62 100 160/11 RMK AO2
94908KDBQ DBQ20011112191509211/12/01 19:15:31  5-MIN KDBQ 130115Z 16011KT 10SM CLR 07/01 A3023 790 62 100 160/11 RMK AO2
94908KDBQ DBQ20011112192009211/12/01 19:20:31  5-MIN KDBQ 130120Z 17011KT 10SM CLR 07/01 A3023 790 62 100 160/11 RMK AO2
94908KDBQ DBQ20011112192509211/12/01 19:25:31  5-MIN KDBQ 130125Z 17011KT 10SM CLR 07/01 A3023 790 62 100 160/11 RMK AO2
94908KDBQ DBQ20011112193009011/12/01 19:30:31  5-MIN KDBQ 130130Z 17011KT 10SM CLR 07/01 A3023 790 65 0 170/11 RMK AO2
94908KDBQ DBQ20011112193509511/12/01 19:35:31  5-MIN KDBQ 130135Z 17012KT 10SM FEW110 07/01 A3023 790 62 100 170/12 RMK AO2
94908KDBQ DBQ20011112194009511/12/01 19:40:31  5-MIN KDBQ 130140Z 17013KT 10SM FEW110 07/01 A3023 790 62 100 170/13 RMK AO2
94908KDBQ DBQ20011112194509511/12/01 19:45:31  5-MIN KDBQ 130145Z 17013KT 10SM FEW110 08/01 A3023 790 60 200 170/13 RMK AO2
94908KDBQ DBQ20011112195011211/12/01 19:50:31  5-MIN KDBQ 130150Z 17014KT 10SM FEW110 08/01 A3023 790 62 200 170/14 RMK AO2 SLP244 T00780011
94908KDBQ DBQ20011112195511211/12/01 19:55:31  5-MIN KDBQ 130155Z 17012KT 10SM FEW110 08/01 A3023 790 60 200 170/12 RMK AO2 SLP244 T00830011
94908KDBQ DBQ20011112200010511/12/01 20:00:31  5-MIN KDBQ 130200Z AUTO 17012KT 10SM SCT110 08/01 A3023 800 60 200 170/12 RMK AO2 TSNO
94908KDBQ DBQ20011112200510511/12/01 20:05:31  5-MIN KDBQ 130205Z AUTO 17013KT 10SM BKN110 08/01 A3023 790 60 200 170/13 RMK AO2 TSNO
94908KDBQ DBQ20011112201010511/12/01 20:10:31  5-MIN KDBQ 130210Z AUTO 17012KT 10SM BKN110 09/01 A3023 800 58 300 170/12 RMK AO2 TSNO
94908KDBQ DBQ20011112201510511/12/01 20:15:31  5-MIN KDBQ 130215Z AUTO 17013KT 10SM BKN110 09/01 A3023 800 58 300 170/13 RMK AO2 TSNO
94908KDBQ DBQ20011112202010511/12/01 20:20:31  5-MIN KDBQ 130220Z AUTO 17013KT 10SM OVC110 09/01 A3023 800 58 300 170/13 RMK AO2 TSNO
94908KDBQ DBQ20011112202510511/12/01 20:25:31  5-MIN KDBQ 130225Z AUTO 17014KT 10SM OVC110 09/01 A3023 790 58 300 170/14 RMK AO2 TSNO
94908KDBQ DBQ20011112203010511/12/01 20:30:31  5-MIN KDBQ 130230Z AUTO 17014KT 10SM OVC110 09/01 A3023 790 58 300 170/14 RMK AO2 TSNO
94908KDBQ DBQ20011112203510511/12/01 20:35:31  5-MIN KDBQ 130235Z AUTO 17013KT 10SM OVC110 09/01 A3023 790 58 300 170/13 RMK AO2 TSNO
94908KDBQ DBQ20011112204010511/12/01 20:40:31  5-MIN KDBQ 130240Z AUTO 17013KT 10SM OVC110 09/01 A3023 790 58 300 170/13 RMK AO2 TSNO
94908KDBQ DBQ20011112204510511/12/01 20:45:31  5-MIN KDBQ 130245Z AUTO 18011KT 10SM OVC110 09/01 A3023 790 58 300 170/11 RMK AO2 TSNO
94908KDBQ DBQ20011112205012811/12/01 20:50:31  5-MIN KDBQ 130250Z AUTO 17011KT 10SM OVC110 09/01 A3023 790 58 300 170/11 RMK AO2 SLP244 T00890011 56008 TSNO
94908KDBQ DBQ20011112205512811/12/01 20:55:31  5-MIN KDBQ 130255Z AUTO 17011KT 10SM OVC110 09/01 A3023 790 58 300 170/11 RMK AO2 SLP244 T00890011 55007 TSNO
94908KDBQ DBQ20011112210010511/12/01 21:00:31  5-MIN KDBQ 130300Z AUTO 17012KT 10SM OVC110 09/01 A3023 790 58 300 170/12 RMK AO2 TSNO
94908KDBQ DBQ20011112210510511/12/01 21:05:31  5-MIN KDBQ 130305Z AUTO 17012KT 10SM OVC110 09/01 A3023 790 58 300 170/12 RMK AO2 TSNO
94908KDBQ DBQ20011112211010511/12/01 21:10:31  5-MIN KDBQ 130310Z AUTO 17012KT 10SM OVC110 09/02 A3023 790 63 300 170/12 RMK AO2 TSNO
94908KDBQ DBQ20011112211510511/12/01 21:15:31  5-MIN KDBQ 130315Z AUTO 18011KT 10SM OVC110 09/02 A3023 790 63 300 170/11 RMK AO2 TSNO
94908KDBQ DBQ20011112212010511/12/01 21:20:31  5-MIN KDBQ 130320Z AUTO 17013KT 10SM BKN110 09/01 A3023 800 58 300 170/13 RMK AO2 TSNO
94908KDBQ DBQ20011112212510511/12/01 21:25:31  5-MIN KDBQ 130325Z AUTO 17012KT 10SM OVC110 09/01 A3023 800 58 300 170/12 RMK AO2 TSNO
94908KDBQ DBQ20011112213010511/12/01 21:30:31  5-MIN KDBQ 130330Z AUTO 17012KT 10SM OVC110 09/01 A3023 800 58 300 170/12 RMK AO2 TSNO
94908KDBQ DBQ20011112213510511/12/01 21:35:31  5-MIN KDBQ 130335Z AUTO 18013KT 10SM OVC110 09/01 A3023 800 58 300 180/13 RMK AO2 TSNO
94908KDBQ DBQ20011112214010511/12/01 21:40:31  5-MIN KDBQ 130340Z AUTO 18013KT 10SM OVC110 09/01 A3023 790 53 400 180/13 RMK AO2 TSNO
94908KDBQ DBQ20011112214510511/12/01 21:45:31  5-MIN KDBQ 130345Z AUTO 18012KT 10SM OVC110 09/01 A3023 790 53 400 180/12 RMK AO2 TSNO
94908KDBQ DBQ20011112215012211/12/01 21:50:31  5-MIN KDBQ 130350Z AUTO 18012KT 10SM OVC110 09/01 A3023 800 53 400 180/12 RMK AO2 SLP242 T00940006 TSNO
94908KDBQ DBQ20011112215512211/12/01 21:55:31  5-MIN KDBQ 130355Z AUTO 18012KT 10SM OVC110 09/01 A3023 800 53 400 180/12 RMK AO2 SLP241 T00940006 TSNO
94908KDBQ DBQ20011112220010511/12/01 22:00:31  5-MIN KDBQ 130400Z AUTO 18012KT 10SM OVC110 09/01 A3023 800 53 400 180/12 RMK AO2 TSNO
94908KDBQ DBQ20011112220510511/12/01 22:05:31  5-MIN KDBQ 130405Z AUTO 18013KT 10SM OVC110 09/01 A3023 800 56 300 180/13 RMK AO2 TSNO
94908KDBQ DBQ20011112221010511/12/01 22:10:31  5-MIN KDBQ 130410Z AUTO 19013KT 10SM OVC110 09/01 A3023 790 53 400 190/13 RMK AO2 TSNO
94908KDBQ DBQ20011112221510511/12/01 22:15:31  5-MIN KDBQ 130415Z AUTO 18012KT 10SM BKN120 09/01 A3023 800 56 300 180/12 RMK AO2 TSNO
94908KDBQ DBQ20011112222010511/12/01 22:20:31  5-MIN KDBQ 130420Z AUTO 18012KT 10SM BKN120 09/01 A3022 800 56 300 180/12 RMK AO2 TSNO
94908KDBQ DBQ20011112222510511/12/01 22:25:31  5-MIN KDBQ 130425Z AUTO 18012KT 10SM BKN120 09/01 A3022 800 56 300 180/12 RMK AO2 TSNO
94908KDBQ DBQ20011112223010511/12/01 22:30:31  5-MIN KDBQ 130430Z AUTO 18012KT 10SM BKN120 09/01 A3022 800 56 300 180/12 RMK AO2 TSNO
94908KDBQ DBQ20011112223510511/12/01 22:35:31  5-MIN KDBQ 130435Z AUTO 18013KT 10SM BKN110 08/01 A3022 800 58 200 180/13 RMK AO2 TSNO
94908KDBQ DBQ20011112224010511/12/01 22:40:31  5-MIN KDBQ 130440Z AUTO 18012KT 10SM BKN110 09/01 A3022 800 56 300 180/12 RMK AO2 TSNO
94908KDBQ DBQ20011112224510511/12/01 22:45:31  5-MIN KDBQ 130445Z AUTO 19012KT 10SM BKN110 09/01 A3022 800 56 300 180/12 RMK AO2 TSNO
94908KDBQ DBQ20011112225012211/12/01 22:50:31  5-MIN KDBQ 130450Z AUTO 19012KT 10SM BKN110 09/01 A3022 800 56 300 190/12 RMK AO2 SLP238 T00890006 TSNO
94908KDBQ DBQ20011112225512211/12/01 22:55:31  5-MIN KDBQ 130455Z AUTO 18013KT 10SM BKN110 08/01 A3022 800 58 200 180/13 RMK AO2 SLP237 T00830006 TSNO
94908KDBQ DBQ20011112230011211/12/01 23:00:31  5-MIN KDBQ 130500Z AUTO 18012KT 10SM FEW100 BKN120 08/01 A3022 810 58 200 180/12 RMK AO2 TSNO
94908KDBQ DBQ20011112230510511/12/01 23:05:31  5-MIN KDBQ 130505Z AUTO 18012KT 10SM BKN110 09/01 A3021 810 56 300 180/12 RMK AO2 TSNO
94908KDBQ DBQ20011112231010511/12/01 23:10:31  5-MIN KDBQ 130510Z AUTO 18011KT 10SM BKN110 09/01 A3022 810 56 300 180/11 RMK AO2 TSNO
94908KDBQ DBQ20011112231511211/12/01 23:15:31  5-MIN KDBQ 130515Z AUTO 18012KT 10SM SCT100 OVC120 09/01 A3021 810 56 300 180/12 RMK AO2 TSNO
94908KDBQ DBQ20011112232011211/12/01 23:20:31  5-MIN KDBQ 130520Z AUTO 18012KT 10SM BKN095 OVC120 09/01 A3022 810 56 300 180/12 RMK AO2 TSNO
94908KDBQ DBQ20011112232511211/12/01 23:25:31  5-MIN KDBQ 130525Z AUTO 19012KT 10SM BKN100 OVC120 09/01 A3021 810 56 300 190/12 RMK AO2 TSNO
94908KDBQ DBQ20011112233011211/12/01 23:30:31  5-MIN KDBQ 130530Z AUTO 19012KT 10SM BKN100 OVC120 09/01 A3021 810 56 300 190/12 RMK AO2 TSNO
94908KDBQ DBQ20011112233511211/12/01 23:35:31  5-MIN KDBQ 130535Z AUTO 19012KT 10SM BKN095 BKN120 09/01 A3021 810 56 300 190/12 RMK AO2 TSNO
94908KDBQ DBQ20011112234011211/12/01 23:40:31  5-MIN KDBQ 130540Z AUTO 19012KT 10SM SCT100 BKN120 09/01 A3021 810 56 300 190/12 RMK AO2 TSNO
94908KDBQ DBQ20011112234511211/12/01 23:45:31  5-MIN KDBQ 130545Z AUTO 19012KT 10SM SCT100 BKN120 09/01 A3021 810 58 300 190/12 RMK AO2 TSNO
94908KDBQ DBQ20011112235015711/12/01 23:50:31  5-MIN KDBQ 130550Z AUTO 18012KT 10SM BKN100 BKN120 09/01 A3021 810 58 300 180/12 RMK AO2 SLP233 T00890011 10094 20067 401390000 55007 TSNO
94908KDBQ DBQ20011112235515711/12/01 23:55:31  5-MIN KDBQ 130555Z AUTO 18011KT 10SM BKN100 BKN120 09/01 A3021 810 58 300 180/11 RMK AO2 SLP232 T00890011 10094 20067 401390000 58008 TSNO
94908KDBQ DBQ20011113000011911/13/01 00:00:31  5-MIN KDBQ 130600Z AUTO 18012KT 10SM FEW065 BKN100 BKN120 09/01 A3021 820 58 300 180/12 RMK AO2 TSNO
94908KDBQ DBQ20011113000511911/13/01 00:05:31  5-MIN KDBQ 130605Z AUTO 18012KT 10SM FEW045 SCT070 BKN100 09/01 A3020 820 58 300 180/12 RMK AO2 TSNO
94908KDBQ DBQ20011113001011911/13/01 00:10:31  5-MIN KDBQ 130610Z AUTO 18013KT 10SM FEW045 BKN065 OVC120 09/01 A3020 820 58 300 180/13 RMK AO2 TSNO
94908KDBQ DBQ20011113001513311/13/01 00:15:31  5-MIN KDBQ 130615Z AUTO 18013KT 7SM RA FEW045 BKN060 OVC095 09/02 A3020 820 63 300 180/13 RMK AO2 RAB13 P0001 TSNO
94908KDBQ DBQ20011113002013411/13/01 00:20:31  5-MIN KDBQ 130620Z AUTO 18013KT 7SM -RA SCT045 BKN060 OVC085 08/03 A3020 820 68 300 180/13 RMK AO2 RAB13 P0001 TSNO
94908KDBQ DBQ20011113002512711/13/01 00:25:31  5-MIN KDBQ 130625Z AUTO 18012KT 10SM BKN045 OVC060 08/03 A3020 820 68 300 180/12 RMK AO2 RAB13E25 P0001 TSNO
94908KDBQ DBQ20011113003012711/13/01 00:30:31  5-MIN KDBQ 130630Z AUTO 18014KT 7SM -RA BKN045 OVC060 08/03 A3020 820 70 300 180/14 RMK AO2 RAB13 P0002 TSNO
94908KDBQ DBQ20011113003512711/13/01 00:35:31  5-MIN KDBQ 130635Z AUTO 18014KT 5SM -RA BKN045 OVC055 08/03 A3020 820 73 200 180/14 RMK AO2 RAB13 P0002 TSNO
94908KDBQ DBQ20011113004012711/13/01 00:40:31  5-MIN KDBQ 130640Z AUTO 18012KT 5SM -RA BKN043 OVC049 07/04 A3020 820 79 100 180/12 RMK AO2 RAB13 P0005 TSNO
94908KDBQ DBQ20011113004512011/13/01 00:45:31  5-MIN KDBQ 130645Z AUTO 18016KT 4SM +RA OVC043 07/04 A3020 820 79 100 180/16 RMK AO2 RAB13 P0008 TSNO
94908KDBQ DBQ20011113005013711/13/01 00:50:31  5-MIN KDBQ 130650Z AUTO 18013KT 4SM -RA OVC043 07/04 A3020 820 82 100 180/13 RMK AO2 RAB13 SLP230 P0009 T00720044 TSNO
94908KDBQ DBQ20011113005513711/13/01 00:55:31  5-MIN KDBQ 130655Z AUTO 18013KT 7SM -RA OVC045 08/04 A3020 820 79 200 180/13 RMK AO2 RAB13 SLP230 P0009 T00780044 TSNO
94908KDBQ DBQ20011113010011511/13/01 01:00:31  5-MIN KDBQ 130700Z AUTO 18013KT 10SM -RA OVC045 08/04 A3020 820 79 200 180/13 RMK AO2 P0000 TSNO
94908KDBQ DBQ20011113010511711/13/01 01:05:31  5-MIN KDBQ 130705Z AUTO 18011KT 10SM OVC046 08/04 A3019 830 79 200 180/11 RMK AO2 RAE03 P0000 TSNO
94908KDBQ DBQ20011113011011511/13/01 01:10:31  5-MIN KDBQ 130710Z AUTO 18012KT 10SM -RA OVC048 08/04 A3019 830 79 200 180/12 RMK AO2 P0000 TSNO
94908KDBQ DBQ20011113011511511/13/01 01:15:31  5-MIN KDBQ 130715Z AUTO 18012KT 10SM -RA OVC048 08/05 A3019 830 82 200 180/12 RMK AO2 P0000 TSNO
94908KDBQ DBQ20011113012012311/13/01 01:20:31  5-MIN KDBQ 130720Z AUTO 17014G19KT 10SM OVC048 08/05 A3019 830 82 200 170/14G19 RMK AO2 RAE17 P0000 TSNO
94908KDBQ DBQ20011113012512311/13/01 01:25:31  5-MIN KDBQ 130725Z AUTO 16014G19KT 10SM OVC048 08/04 A3018 840 79 200 160/14G19 RMK AO2 RAE17 P0000 TSNO
94908KDBQ DBQ20011113013011711/13/01 01:30:31  5-MIN KDBQ 130730Z AUTO 17012KT 10SM OVC048 08/04 A3018 840 79 200 160/12 RMK AO2 RAE17 P0000 TSNO
94908KDBQ DBQ20011113013511711/13/01 01:35:31  5-MIN KDBQ 130735Z AUTO 17011KT 10SM OVC046 07/05 A3018 840 86 100 170/11 RMK AO2 RAE17 P0000 TSNO
94908KDBQ DBQ20011113014011711/13/01 01:40:31  5-MIN KDBQ 130740Z AUTO 17012KT 10SM OVC046 07/05 A3018 840 86 100 160/12 RMK AO2 RAE17 P0000 TSNO
94908KDBQ DBQ20011113014511711/13/01 01:45:31  5-MIN KDBQ 130745Z AUTO 16013KT 10SM OVC046 08/05 A3018 840 82 200 160/13 RMK AO2 RAE17 P0000 TSNO
94908KDBQ DBQ20011113015013411/13/01 01:50:31  5-MIN KDBQ 130750Z AUTO 16013KT 10SM OVC046 08/04 A3017 850 79 200 160/13 RMK AO2 RAE17 SLP221 P0000 T00780044 TSNO
94908KDBQ DBQ20011113015513411/13/01 01:55:31  5-MIN KDBQ 130755Z AUTO 16014KT 10SM OVC046 08/04 A3017 850 79 200 160/14 RMK AO2 RAE17 SLP221 P0000 T00780044 TSNO
94908KDBQ DBQ20011113020010511/13/01 02:00:31  5-MIN KDBQ 130800Z AUTO 16013KT 10SM OVC046 08/04 A3017 850 79 200 160/13 RMK AO2 TSNO
94908KDBQ DBQ20011113020510511/13/01 02:05:31  5-MIN KDBQ 130805Z AUTO 16014KT 10SM OVC046 08/04 A3017 850 79 200 160/14 RMK AO2 TSNO
94908KDBQ DBQ20011113021010511/13/01 02:10:31  5-MIN KDBQ 130810Z AUTO 16013KT 10SM OVC046 08/04 A3017 850 79 200 160/13 RMK AO2 TSNO
94908KDBQ DBQ20011113021511211/13/01 02:15:31  5-MIN KDBQ 130815Z AUTO 17011KT 10SM BKN046 OVC055 08/04 A3018 840 79 200 170/11 RMK AO2 TSNO
94908KDBQ DBQ20011113022011211/13/01 02:20:31  5-MIN KDBQ 130820Z AUTO 17012KT 10SM BKN045 OVC055 08/04 A3017 850 79 200 170/12 RMK AO2 TSNO
94908KDBQ DBQ20011113022511211/13/01 02:25:31  5-MIN KDBQ 130825Z AUTO 18011KT 10SM BKN045 OVC055 08/04 A3017 850 76 300 180/11 RMK AO2 TSNO
94908KDBQ DBQ20011113023010511/13/01 02:30:31  5-MIN KDBQ 130830Z AUTO 18011KT 10SM OVC043 08/04 A3017 850 76 300 180/11 RMK AO2 TSNO
94908KDBQ DBQ20011113023510511/13/01 02:35:31  5-MIN KDBQ 130835Z AUTO 18012KT 10SM OVC043 08/04 A3017 850 76 300 180/12 RMK AO2 TSNO
94908KDBQ DBQ20011113024010511/13/01 02:40:31  5-MIN KDBQ 130840Z AUTO 18012KT 10SM OVC043 08/04 A3017 850 73 300 180/12 RMK AO2 TSNO
94908KDBQ DBQ20011113024510511/13/01 02:45:31  5-MIN KDBQ 130845Z AUTO 19012KT 10SM OVC043 08/04 A3017 840 73 300 190/12 RMK AO2 TSNO
94908KDBQ DBQ20011113025013411/13/01 02:50:31  5-MIN KDBQ 130850Z AUTO 19012KT 10SM OVC043 08/04 A3017 850 73 300 190/12 RMK AO2 SLP221 60009 T00830039 58008 TSNO
94908KDBQ DBQ20011113025513411/13/01 02:55:31  5-MIN KDBQ 130855Z AUTO 19013KT 10SM OVC045 08/04 A3017 850 73 300 190/13 RMK AO2 SLP220 60009 T00830039 56012 TSNO
94908KDBQ DBQ20011113030010511/13/01 03:00:31  5-MIN KDBQ 130900Z AUTO 19012KT 10SM OVC045 08/04 A3017 850 73 300 190/12 RMK AO2 TSNO
94908KDBQ DBQ20011113030511211/13/01 03:05:31  5-MIN KDBQ 130905Z AUTO 19013KT 10SM BKN045 OVC055 08/04 A3016 850 73 300 190/13 RMK AO2 TSNO
94908KDBQ DBQ20011113031011211/13/01 03:10:31  5-MIN KDBQ 130910Z AUTO 18013KT 10SM BKN047 OVC060 08/04 A3016 860 73 300 180/13 RMK AO2 TSNO
94908KDBQ DBQ20011113031510511/13/01 03:15:31  5-MIN KDBQ 130915Z AUTO 18014KT 10SM OVC049 08/04 A3016 860 73 300 180/14 RMK AO2 TSNO
94908KDBQ DBQ20011113032011211/13/01 03:20:31  5-MIN KDBQ 130920Z AUTO 18013KT 10SM BKN049 OVC060 08/04 A3016 860 73 300 180/13 RMK AO2 TSNO
94908KDBQ DBQ20011113032511911/13/01 03:25:31  5-MIN KDBQ 130925Z AUTO 18014KT 10SM BKN049 BKN060 OVC080 08/04 A3016 860 73 300 170/14 RMK AO2 TSNO
94908KDBQ DBQ20011113033013411/13/01 03:30:31  5-MIN KDBQ 130930Z AUTO 17014KT 9SM -RA SCT049 BKN060 OVC080 08/04 A3015 860 73 300 170/14 RMK AO2 RAB29 P0000 TSNO
94908KDBQ DBQ20011113033512611/13/01 03:35:31  5-MIN KDBQ 130935Z AUTO 18014KT 6SM RA BKN049 OVC060 08/04 A3015 870 76 200 180/14 RMK AO2 RAB29 P0002 TSNO
94908KDBQ DBQ20011113034012611/13/01 03:40:31  5-MIN KDBQ 130940Z AUTO 18014KT 5SM RA BKN050 OVC070 08/04 A3015 870 79 200 180/14 RMK AO2 RAB29 P0003 TSNO
94908KDBQ DBQ20011113034513411/13/01 03:45:31  5-MIN KDBQ 130945Z AUTO 18014KT 7SM -RA SCT050 BKN060 OVC080 08/04 A3015 870 79 300 180/14 RMK AO2 RAB29 P0003 TSNO
94908KDBQ DBQ20011113035015111/13/01 03:50:31  5-MIN KDBQ 130950Z AUTO 18014KT 9SM -RA FEW050 BKN065 OVC085 08/04 A3015 870 79 200 180/14 RMK AO2 RAB29 SLP212 P0004 T00780044 TSNO
94908KDBQ DBQ20011113035515111/13/01 03:55:31  5-MIN KDBQ 130955Z AUTO 18016KT 9SM -RA FEW050 BKN065 OVC080 08/04 A3014 870 79 300 180/16 RMK AO2 RAB29 SLP212 P0004 T00780044 TSNO
94908KDBQ DBQ20011113040012811/13/01 04:00:31  5-MIN KDBQ 131000Z AUTO 18016KT 9SM -RA FEW050 BKN060 OVC085 08/04 A3015 870 79 300 180/16 RMK AO2 P0001 TSNO
94908KDBQ DBQ20011113040512111/13/01 04:05:31  5-MIN KDBQ 131005Z AUTO 19015KT 9SM -RA SCT060 OVC080 08/05 A3015 870 82 200 190/15 RMK AO2 P0001 TSNO
94908KDBQ DBQ20011113041012011/13/01 04:10:31  5-MIN KDBQ 131010Z AUTO 19016KT 8SM RA SCT055 OVC080 08/05 A3015 870 82 200 180/16 RMK AO2 P0002 TSNO
94908KDBQ DBQ20011113041512111/13/01 04:15:31  5-MIN KDBQ 131015Z AUTO 19014KT 8SM -RA BKN050 OVC080 08/06 A3015 860 86 200 190/14 RMK AO2 P0002 TSNO
94908KDBQ DBQ20011113042012311/13/01 04:20:31  5-MIN KDBQ 131020Z AUTO 19014KT 6SM RA BR BKN044 OVC080 08/06 A3015 860 86 200 190/14 RMK AO2 P0003 TSNO
94908KDBQ DBQ20011113042512311/13/01 04:25:31  5-MIN KDBQ 131025Z AUTO 19013KT 6SM RA BR BKN042 OVC075 08/06 A3016 860 86 200 190/13 RMK AO2 P0004 TSNO
94908KDBQ DBQ20011113043012811/13/01 04:30:31  5-MIN KDBQ 131030Z AUTO 19011KT 8SM -RA SCT045 BKN065 OVC075 08/06 A3016 860 86 200 190/11 RMK AO2 P0004 TSNO
94908KDBQ DBQ20011113043512111/13/01 04:35:31  5-MIN KDBQ 131035Z AUTO 21009KT 9SM -RA BKN045 OVC060 08/06 A3017 850 86 200 210/09 RMK AO2 P0005 TSNO
94908KDBQ DBQ20011113044012111/13/01 04:40:31  5-MIN KDBQ 131040Z AUTO 20007KT 9SM -RA BKN045 OVC060 08/06 A3017 850 86 200 200/07 RMK AO2 P0005 TSNO
94908KDBQ DBQ20011113044512911/13/01 04:45:31  5-MIN KDBQ 131045Z AUTO 20008KT 10SM -RA FEW037 BKN048 OVC060 08/06 A3016 860 86 200 190/08 RMK AO2 P0005 TSNO
94908KDBQ DBQ20011113045013811/13/01 04:50:31  5-MIN KDBQ 131050Z AUTO 19011KT 9SM -RA BKN048 OVC060 08/06 A3016 860 86 200 180/11 RMK AO2 SLP217 P0005 T00780056 TSNO
94908KDBQ DBQ20011113045513811/13/01 04:55:31  5-MIN KDBQ 131055Z AUTO 18012KT 7SM -RA BKN048 OVC060 08/06 A3015 860 86 200 180/12 RMK AO2 SLP216 P0006 T00780056 TSNO
94908KDBQ DBQ20011113050013111/13/01 05:00:31  5-MIN KDBQ 131100Z AUTO 18012KT 5SM -RA BR FEW026 BKN048 OVC060 07/06 A3015 870 89 200 170/12 RMK AO2 P0002 TSNO
94908KDBQ DBQ20011113050513011/13/01 05:05:31  5-MIN KDBQ 131105Z AUTO 18010KT 5SM RA BR FEW026 BKN050 OVC060 07/06 A3015 870 89 200 180/10 RMK AO2 P0003 TSNO
94908KDBQ DBQ20011113051012311/13/01 05:10:31  5-MIN KDBQ 131110Z AUTO 18011KT 6SM RA BR BKN046 OVC060 07/06 A3015 870 89 200 180/11 RMK AO2 P0003 TSNO
94908KDBQ DBQ20011113051512111/13/01 05:15:31  5-MIN KDBQ 131115Z AUTO 18011KT 7SM -RA BKN044 OVC060 07/06 A3015 870 89 200 170/11 RMK AO2 P0004 TSNO
94908KDBQ DBQ20011113052012111/13/01 05:20:31  5-MIN KDBQ 131120Z AUTO 17012KT 7SM -RA BKN044 OVC055 07/06 A3014 880 89 200 170/12 RMK AO2 P0004 TSNO
94908KDBQ DBQ20011113052513111/13/01 05:25:31  5-MIN KDBQ 131125Z AUTO 16013KT 6SM -RA BR BKN045 OVC055 07/06 A3013 890 89 200 160/13 RMK AO2 PRESFR P0005 TSNO
94908KDBQ DBQ20011113053011611/13/01 05:30:31  5-MIN KDBQ 131130Z AUTO 17012KT 5SM RA BR OVC045 07/06 A3013 880 89 200 170/12 RMK AO2 P0006 TSNO
94908KDBQ DBQ20011113053512411/13/01 05:35:31  5-MIN KDBQ 131135Z AUTO 17012KT 5SM -RA BR BKN045 OVC055 07/06 A3014 870 89 200 170/12 RMK AO2 P0007 TSNO
94908KDBQ DBQ20011113054013011/13/01 05:40:31  5-MIN KDBQ 131140Z AUTO 18012KT 6SM RA BR FEW042 BKN049 OVC060 07/06 A3015 870 89 200 180/12 RMK AO2 P0008 TSNO
94908KDBQ DBQ20011113054511411/13/01 05:45:31  5-MIN KDBQ 131145Z 18011KT 4SM +RA BR BKN042 OVC060 07/06 A3014 880 89 200 180/11 RMK AO2 P0010
94908KDBQ DBQ20011113055017811/13/01 05:50:31  5-MIN KDBQ 131150Z 18011G17KT 2 1/2SM +RA BR BKN036 BKN046 OVC060 07/06 A3014 870 93 100 180/11G17 RMK AO2 SLP213 P0014 60033 70033 T00670056 10089 20067 56012
94908KDBQ DBQ20011113055516711/13/01 05:55:31  5-MIN KDBQ 131155Z 17011KT 3SM RA BR BKN036 BKN044 OVC060 07/06 A3013 890 93 100 170/11 RMK AO2 SLP208 P0015 60034 70034 T00670056 10089 20067 57014
94908KDBQ DBQ20011113060011411/13/01 06:00:31  5-MIN KDBQ 131200Z 17012KT 5SM -RA BR BKN038 OVC044 07/06 A3013 880 93 100 170/12 RMK AO2 P0001
94908KDBQ DBQ20011113060511411/13/01 06:05:31  5-MIN KDBQ 131205Z 17013KT 4SM +RA BR BKN036 OVC044 07/06 A3013 890 93 100 170/13 RMK AO2 P0006
94908KDBQ DBQ20011113061011311/13/01 06:10:31  5-MIN KDBQ 131210Z 17013KT 3SM RA BR FEW026 OVC038 07/06 A3013 890 93 100 170/13 RMK AO2 P0007
94908KDBQ DBQ20011113061511411/13/01 06:15:31  5-MIN KDBQ 131215Z 16012KT 5SM -RA BR FEW028 OVC038 07/06 A3013 890 93 100 160/12 RMK AO2 P0007
94908KDBQ DBQ20011113062010711/13/01 06:20:31  5-MIN KDBQ 131220Z 16013KT 4SM +RA BR OVC035 07/06 A3013 890 96 100 160/13 RMK AO2 P0009
94908KDBQ DBQ20011113062511811/13/01 06:25:31  5-MIN KDBQ 131225Z 15014KT 2 1/2SM +RA BR FEW016 OVC035 07/06 A3012 890 96 100 150/14 RMK AO2 P0019
94908KDBQ DBQ20011113063011411/13/01 06:30:31  5-MIN KDBQ 131230Z 15014KT 3SM -RA BR FEW013 OVC035 07/06 A3012 890 93 100 150/14 RMK AO2 P0019
94908KDBQ DBQ20011113063510611/13/01 06:35:31  5-MIN KDBQ 131235Z 16014KT 8SM OVC035 07/06 A3012 890 93 100 160/14 RMK AO2 RAE34 P0019
94908KDBQ DBQ20011113064010611/13/01 06:40:31  5-MIN KDBQ 131240Z 16012KT 8SM OVC035 07/06 A3012 890 93 100 160/12 RMK AO2 RAE34 P0019
94908KDBQ DBQ20011113064510411/13/01 06:45:31  5-MIN KDBQ 131245Z 16013KT 7SM -RA OVC035 07/06 A3012 890 93 100 160/13 RMK AO2 P0019
94908KDBQ DBQ20011113065012111/13/01 06:50:31  5-MIN KDBQ 131250Z 16013KT 8SM -RA OVC035 07/06 A3012 890 89 200 160/13 RMK AO2 SLP206 P0019 T00720056
94908KDBQ DBQ20011113065512311/13/01 06:55:31  5-MIN KDBQ 131255Z 16014KT 9SM OVC035 07/06 A3012 890 89 200 160/14 RMK AO2 RAE53 SLP207 P0019 T00720056
94908KDBQ DBQ20011113070009411/13/01 07:00:31  5-MIN KDBQ 131300Z 17013KT 9SM OVC035 07/06 A3012 890 89 200 170/13 RMK AO2
94908KDBQ DBQ20011113070509411/13/01 07:05:31  5-MIN KDBQ 131305Z 17012KT 9SM OVC033 07/05 A3012 890 86 200 170/12 RMK AO2
94908KDBQ DBQ20011113071009411/13/01 07:10:31  5-MIN KDBQ 131310Z 17015KT 9SM OVC033 07/05 A3012 900 86 200 160/15 RMK AO2
94908KDBQ DBQ20011113071509511/13/01 07:15:31  5-MIN KDBQ 131315Z 17013KT 10SM OVC033 07/05 A3012 890 86 200 170/13 RMK AO2
94908KDBQ DBQ20011113072009411/13/01 07:20:31  5-MIN KDBQ 131320Z 17013KT 9SM OVC033 07/05 A3013 890 86 200 170/13 RMK AO2
94908KDBQ DBQ20011113072509411/13/01 07:25:31  5-MIN KDBQ 131325Z 17012KT 9SM BKN033 07/05 A3012 890 86 200 170/12 RMK AO2
94908KDBQ DBQ20011113073010811/13/01 07:30:31  5-MIN KDBQ 131330Z 17013KT 8SM BKN033 BKN040 OVC100 07/05 A3012 890 86 200 170/13 RMK AO2
94908KDBQ DBQ20011113073510111/13/01 07:35:31  5-MIN KDBQ 131335Z 17012KT 9SM BKN033 OVC100 07/05 A3012 890 86 200 170/12 RMK AO2
94908KDBQ DBQ20011113074009411/13/01 07:40:31  5-MIN KDBQ 131340Z 17010KT 9SM OVC031 07/05 A3013 890 86 200 170/10 RMK AO2
94908KDBQ DBQ20011113074509411/13/01 07:45:31  5-MIN KDBQ 131345Z 18011KT 9SM OVC031 07/05 A3013 890 86 200 180/11 RMK AO2
94908KDBQ DBQ20011113075011111/13/01 07:50:31  5-MIN KDBQ 131350Z 17011KT 7SM OVC031 07/05 A3013 880 86 200 170/11 RMK AO2 SLP210 T00720050
94908KDBQ DBQ20011113075512711/13/01 07:55:31  5-MIN KDBQ 131355Z 18010KT 7SM -RA OVC031 07/05 A3014 880 86 200 180/10 RMK AO2 RAB51 SLP212 P0001 T00720050
94908KDBQ DBQ20011113080010411/13/01 08:00:31  5-MIN KDBQ 131400Z 19009KT 9SM -RA OVC031 07/05 A3014 880 86 200 190/09 RMK AO2 P0000
94908KDBQ DBQ20011113080510711/13/01 08:05:31  5-MIN KDBQ 131405Z 18010KT 10SM OVC031 07/05 A3014 880 86 200 180/10 RMK AO2 RAE01 P0000
94908KDBQ DBQ20011113081010711/13/01 08:10:31  5-MIN KDBQ 131410Z 18012KT 10SM OVC031 08/05 A3014 880 82 300 180/12 RMK AO2 RAE01 P0000
94908KDBQ DBQ20011113081510711/13/01 08:15:31  5-MIN KDBQ 131415Z 19010KT 10SM OVC031 08/05 A3014 870 82 300 190/10 RMK AO2 RAE01 P0000
94908KDBQ DBQ20011113082011311/13/01 08:20:31  5-MIN KDBQ 131420Z 18011KT 8SM -RA OVC031 07/05 A3014 880 86 200 180/11 RMK AO2 RAE01B19 P0000
94908KDBQ DBQ20011113082511311/13/01 08:25:31  5-MIN KDBQ 131425Z 19011KT 8SM -RA OVC031 08/05 A3014 880 82 300 190/11 RMK AO2 RAE01B19 P0000
94908KDBQ DBQ20011113083011311/13/01 08:30:31  5-MIN KDBQ 131430Z 18011KT 10SM OVC031 07/05 A3014 880 86 200 180/11 RMK AO2 RAE01B19E28 P0000
94908KDBQ DBQ20011113083511311/13/01 08:35:31  5-MIN KDBQ 131435Z 18011KT 10SM OVC031 08/05 A3014 880 82 300 180/11 RMK AO2 RAE01B19E28 P0000
94908KDBQ DBQ20011113084011311/13/01 08:40:31  5-MIN KDBQ 131440Z 18010KT 10SM OVC029 08/05 A3014 880 82 300 180/10 RMK AO2 RAE01B19E28 P0000
94908KDBQ DBQ20011113084511311/13/01 08:45:31  5-MIN KDBQ 131445Z 19011KT 10SM OVC029 08/06 A3014 880 86 300 190/11 RMK AO2 RAE01B19E28 P0000
94908KDBQ DBQ20011113085014211/13/01 08:50:31  5-MIN KDBQ 131450Z 18011KT 10SM OVC029 08/06 A3013 880 86 300 180/11 RMK AO2 RAE01B19E28 SLP210 P0000 60020 T00780056 57014
94908KDBQ DBQ20011113085514211/13/01 08:55:31  5-MIN KDBQ 131455Z 18011KT 10SM OVC029 08/06 A3013 880 86 300 180/11 RMK AO2 RAE01B19E28 SLP209 P0000 60020 T00780056 50002
94908KDBQ DBQ20011113090009511/13/01 09:00:31  5-MIN KDBQ 131500Z 19011KT 10SM OVC027 08/06 A3013 880 86 300 180/11 RMK AO2
94908KDBQ DBQ20011113090509511/13/01 09:05:31  5-MIN KDBQ 131505Z 19011KT 10SM OVC027 08/06 A3013 880 86 300 190/11 RMK AO2
94908KDBQ DBQ20011113091009511/13/01 09:10:31  5-MIN KDBQ 131510Z 19010KT 10SM OVC027 08/06 A3013 880 89 300 180/10 RMK AO2
94908KDBQ DBQ20011113091509411/13/01 09:15:31  5-MIN KDBQ 131515Z 19010KT 9SM OVC027 08/06 A3013 880 86 300 190/10 RMK AO2
94908KDBQ DBQ20011113092009411/13/01 09:20:31  5-MIN KDBQ 131520Z 19012KT 9SM OVC025 08/06 A3013 880 86 300 190/12 RMK AO2
94908KDBQ DBQ20011113092509411/13/01 09:25:31  5-MIN KDBQ 131525Z 19012KT 9SM OVC025 08/06 A3013 880 86 300 190/12 RMK AO2
94908KDBQ DBQ20011113093009411/13/01 09:30:31  5-MIN KDBQ 131530Z 18011KT 9SM OVC025 08/07 A3013 880 89 300 180/11 RMK AO2
94908KDBQ DBQ20011113093509411/13/01 09:35:31  5-MIN KDBQ 131535Z 18011KT 8SM OVC025 08/07 A3013 880 93 300 180/11 RMK AO2
94908KDBQ DBQ20011113094009411/13/01 09:40:31  5-MIN KDBQ 131540Z 19011KT 8SM OVC025 08/07 A3014 880 93 300 190/11 RMK AO2
94908KDBQ DBQ20011113094509411/13/01 09:45:31  5-MIN KDBQ 131545Z 19011KT 8SM OVC025 08/07 A3013 880 89 300 190/11 RMK AO2
94908KDBQ DBQ20011113095011111/13/01 09:50:31  5-MIN KDBQ 131550Z 19011KT 8SM OVC025 08/07 A3013 880 89 300 190/11 RMK AO2 SLP210 T00830067
94908KDBQ DBQ20011113095511111/13/01 09:55:31  5-MIN KDBQ 131555Z 19014KT 8SM OVC025 08/07 A3013 880 89 300 190/14 RMK AO2 SLP209 T00830067
94908KDBQ DBQ20011113100009411/13/01 10:00:31  5-MIN KDBQ 131600Z 19012KT 8SM OVC025 08/07 A3013 880 89 300 190/12 RMK AO2
94908KDBQ DBQ20011113100509411/13/01 10:05:31  5-MIN KDBQ 131605Z 19011KT 8SM OVC023 08/07 A3013 880 89 300 190/11 RMK AO2
94908KDBQ DBQ20011113101009411/13/01 10:10:31  5-MIN KDBQ 131610Z 19012KT 8SM OVC023 08/07 A3013 880 89 300 190/12 RMK AO2
94908KDBQ DBQ20011113101509411/13/01 10:15:31  5-MIN KDBQ 131615Z 19012KT 8SM OVC023 08/07 A3013 880 93 300 190/12 RMK AO2
94908KDBQ DBQ20011113102010111/13/01 10:20:31  5-MIN KDBQ 131620Z 19013KT 9SM BKN023 OVC037 09/07 A3013 880 89 400 190/13 RMK AO2
94908KDBQ DBQ20011113102510111/13/01 10:25:31  5-MIN KDBQ 131625Z 19013KT 9SM BKN023 OVC041 09/07 A3013 880 89 400 190/13 RMK AO2
94908KDBQ DBQ20011113103009411/13/01 10:30:31  5-MIN KDBQ 131630Z 19012KT 9SM OVC021 09/07 A3013 890 89 400 190/12 RMK AO2
94908KDBQ DBQ20011113103509411/13/01 10:35:31  5-MIN KDBQ 131635Z 19012KT 9SM OVC021 09/07 A3013 890 89 400 180/12 RMK AO2
94908KDBQ DBQ20011113104009411/13/01 10:40:31  5-MIN KDBQ 131640Z 19014KT 9SM OVC021 09/07 A3013 890 86 400 190/14 RMK AO2
94908KDBQ DBQ20011113104509411/13/01 10:45:31  5-MIN KDBQ 131645Z 19011KT 9SM OVC021 09/07 A3012 890 89 400 190/11 RMK AO2
94908KDBQ DBQ20011113105011111/13/01 10:50:31  5-MIN KDBQ 131650Z 19012KT 9SM OVC021 09/07 A3012 890 89 400 180/12 RMK AO2 SLP206 T00890072
94908KDBQ DBQ20011113105511111/13/01 10:55:31  5-MIN KDBQ 131655Z 19011KT 8SM OVC021 09/07 A3012 890 89 400 190/11 RMK AO2 SLP206 T00890072
94908KDBQ DBQ20011113110009411/13/01 11:00:31  5-MIN KDBQ 131700Z 19013KT 8SM OVC021 08/07 A3012 890 93 300 190/13 RMK AO2
94908KDBQ DBQ20011113110509411/13/01 11:05:31  5-MIN KDBQ 131705Z 19013KT 8SM OVC021 08/07 A3012 890 89 300 190/13 RMK AO2
94908KDBQ DBQ20011113111009411/13/01 11:10:31  5-MIN KDBQ 131710Z 19012KT 8SM OVC021 08/07 A3012 900 89 300 190/12 RMK AO2
94908KDBQ DBQ20011113111509411/13/01 11:15:31  5-MIN KDBQ 131715Z 19013KT 8SM OVC021 08/07 A3012 900 89 300 190/13 RMK AO2
94908KDBQ DBQ20011113112009411/13/01 11:20:31  5-MIN KDBQ 131720Z 19011KT 8SM OVC021 08/07 A3012 900 89 400 190/11 RMK AO2
94908KDBQ DBQ20011113112509411/13/01 11:25:31  5-MIN KDBQ 131725Z 19012KT 9SM OVC021 08/07 A3011 900 89 400 190/12 RMK AO2
94908KDBQ DBQ20011113113009411/13/01 11:30:31  5-MIN KDBQ 131730Z 20010KT 8SM OVC021 08/07 A3012 900 89 400 200/10 RMK AO2
94908KDBQ DBQ20011113113509411/13/01 11:35:31  5-MIN KDBQ 131735Z 19010KT 8SM OVC021 08/07 A3011 900 89 400 190/10 RMK AO2
94908KDBQ DBQ20011113114011011/13/01 11:40:31  5-MIN KDBQ 131740Z 20011KT 8SM -RA OVC023 08/07 A3011 900 93 400 200/11 RMK AO2 RAB36 P0000
94908KDBQ DBQ20011113114511011/13/01 11:45:31  5-MIN KDBQ 131745Z 19010KT 8SM -RA OVC023 08/07 A3011 900 89 400 190/10 RMK AO2 RAB36 P0000
94908KDBQ DBQ20011113115015111/13/01 11:50:31  5-MIN KDBQ 131750Z 19011KT 8SM -RA OVC023 08/07 A3011 910 93 400 190/11 RMK AO2 RAB36 SLP200 P0000 60020 T00830072 10089 20067 50002
94908KDBQ DBQ20011113115515711/13/01 11:55:31  5-MIN KDBQ 131755Z 19013KT 8SM BKN023 OVC027 08/07 A3011 910 93 400 190/13 RMK AO2 RAB36E55 SLP200 P0000 60020 T00830072 10089 20067 58009
94908KDBQ DBQ20011113120009411/13/01 12:00:31  5-MIN KDBQ 131800Z 20010KT 8SM OVC023 09/07 A3010 910 89 400 200/10 RMK AO2
94908KDBQ DBQ20011113120509411/13/01 12:05:31  5-MIN KDBQ 131805Z 20011KT 8SM OVC021 09/07 A3010 910 89 400 190/11 RMK AO2
94908KDBQ DBQ20011113121009411/13/01 12:10:31  5-MIN KDBQ 131810Z 20010KT 8SM OVC021 09/07 A3010 910 89 400 190/10 RMK AO2
94908KDBQ DBQ20011113121509411/13/01 12:15:31  5-MIN KDBQ 131815Z 19010KT 8SM OVC021 09/07 A3010 910 89 400 190/10 RMK AO2
94908KDBQ DBQ20011113122009411/13/01 12:20:31  5-MIN KDBQ 131820Z 19010KT 8SM OVC021 09/08 A3010 920 93 400 190/10 RMK AO2
94908KDBQ DBQ20011113122509411/13/01 12:25:31  5-MIN KDBQ 131825Z 19010KT 7SM OVC021 09/08 A3009 920 93 400 190/10 RMK AO2
94908KDBQ DBQ20011113123009411/13/01 12:30:31  5-MIN KDBQ 131830Z 18009KT 7SM OVC021 09/08 A3009 920 93 400 180/09 RMK AO2
94908KDBQ DBQ20011113123509411/13/01 12:35:31  5-MIN KDBQ 131835Z 18008KT 7SM OVC021 09/08 A3009 920 93 400 180/08 RMK AO2
94908KDBQ DBQ20011113124009411/13/01 12:40:31  5-MIN KDBQ 131840Z 19008KT 7SM OVC021 09/08 A3009 920 93 400 190/08 RMK AO2
94908KDBQ DBQ20011113124509411/13/01 12:45:31  5-MIN KDBQ 131845Z 19008KT 7SM OVC021 09/08 A3009 920 93 400 180/08 RMK AO2
94908KDBQ DBQ20011113125011111/13/01 12:50:31  5-MIN KDBQ 131850Z 19008KT 7SM OVC021 09/08 A3009 920 93 500 190/08 RMK AO2 SLP194 T00890078
94908KDBQ DBQ20011113125512711/13/01 12:55:31  5-MIN KDBQ 131855Z 18008KT 7SM -RA OVC021 09/08 A3009 930 89 500 180/08 RMK AO2 RAB55 SLP193 P0000 T00940078
94908KDBQ DBQ20011113130010411/13/01 13:00:31  5-MIN KDBQ 131900Z 17010KT 7SM -RA OVC021 09/08 A3008 930 93 500 170/10 RMK AO2 P0000
94908KDBQ DBQ20011113130510411/13/01 13:05:31  5-MIN KDBQ 131905Z 17008KT 8SM -RA OVC021 09/08 A3008 930 93 500 170/08 RMK AO2 P0000
94908KDBQ DBQ20011113131010611/13/01 13:10:31  5-MIN KDBQ 131910Z 17008KT 7SM OVC021 09/08 A3008 930 93 500 170/08 RMK AO2 RAE06 P0000
94908KDBQ DBQ20011113131510611/13/01 13:15:31  5-MIN KDBQ 131915Z 17008KT 7SM OVC021 09/08 A3008 930 89 500 170/08 RMK AO2 RAE06 P0000
94908KDBQ DBQ20011113132010611/13/01 13:20:31  5-MIN KDBQ 131920Z 17009KT 7SM OVC021 09/08 A3008 930 89 500 170/09 RMK AO2 RAE06 P0000
94908KDBQ DBQ20011113132510611/13/01 13:25:31  5-MIN KDBQ 131925Z 17008KT 7SM OVC021 09/08 A3007 940 89 500 170/08 RMK AO2 RAE06 P0000
94908KDBQ DBQ20011113133010611/13/01 13:30:31  5-MIN KDBQ 131930Z 17009KT 7SM OVC021 09/08 A3008 940 89 500 170/09 RMK AO2 RAE06 P0000
94908KDBQ DBQ20011113133510611/13/01 13:35:31  5-MIN KDBQ 131935Z 16010KT 7SM OVC021 09/08 A3007 940 89 500 160/10 RMK AO2 RAE06 P0000
94908KDBQ DBQ20011113134010611/13/01 13:40:31  5-MIN KDBQ 131940Z 16009KT 8SM OVC021 09/08 A3007 940 89 500 160/09 RMK AO2 RAE06 P0000
94908KDBQ DBQ20011113134510611/13/01 13:45:31  5-MIN KDBQ 131945Z 16008KT 7SM OVC021 10/08 A3007 940 89 600 160/08 RMK AO2 RAE06 P0000
94908KDBQ DBQ20011113135012311/13/01 13:50:31  5-MIN KDBQ 131950Z 17008KT 7SM OVC021 10/08 A3007 940 89 600 160/08 RMK AO2 RAE06 SLP187 P0000 T01000083
94908KDBQ DBQ20011113135512311/13/01 13:55:31  5-MIN KDBQ 131955Z 17009KT 8SM OVC021 10/08 A3007 940 89 600 170/09 RMK AO2 RAE06 SLP187 P0000 T01000083
94908KDBQ DBQ20011113140009411/13/01 14:00:31  5-MIN KDBQ 132000Z 17009KT 8SM OVC021 10/08 A3007 940 89 600 170/09 RMK AO2
94908KDBQ DBQ20011113140509411/13/01 14:05:31  5-MIN KDBQ 132005Z 17007KT 8SM OVC021 10/08 A3007 940 89 600 170/07 RMK AO2
94908KDBQ DBQ20011113141009411/13/01 14:10:31  5-MIN KDBQ 132010Z 17006KT 8SM OVC021 11/08 A3007 940 86 700 170/06 RMK AO2
94908KDBQ DBQ20011113141509411/13/01 14:15:31  5-MIN KDBQ 132015Z 17008KT 7SM OVC021 11/08 A3007 940 86 700 170/08 RMK AO2
94908KDBQ DBQ20011113142009411/13/01 14:20:31  5-MIN KDBQ 132020Z 17007KT 7SM OVC021 11/09 A3006 950 89 700 170/07 RMK AO2
94908KDBQ DBQ20011113142509411/13/01 14:25:31  5-MIN KDBQ 132025Z 18006KT 7SM OVC023 11/09 A3006 950 89 700 180/06 RMK AO2
94908KDBQ DBQ20011113143009411/13/01 14:30:31  5-MIN KDBQ 132030Z 18007KT 7SM OVC023 11/09 A3006 950 89 700 180/07 RMK AO2
94908KDBQ DBQ20011113143509411/13/01 14:35:31  5-MIN KDBQ 132035Z 17007KT 7SM OVC023 11/09 A3006 950 86 700 170/07 RMK AO2
94908KDBQ DBQ20011113144009411/13/01 14:40:31  5-MIN KDBQ 132040Z 17006KT 7SM OVC023 11/09 A3006 950 89 700 170/06 RMK AO2
94908KDBQ DBQ20011113144509411/13/01 14:45:31  5-MIN KDBQ 132045Z 17006KT 7SM OVC023 11/09 A3006 950 93 700 170/06 RMK AO2
94908KDBQ DBQ20011113145012311/13/01 14:50:31  5-MIN KDBQ 132050Z 18005KT 7SM OVC023 11/09 A3006 950 93 700 180/05 RMK AO2 SLP183 60000 T01060094 58009
94908KDBQ DBQ20011113145512311/13/01 14:55:31  5-MIN KDBQ 132055Z 18005KT 7SM OVC023 11/09 A3006 950 93 700 180/05 RMK AO2 SLP182 60000 T01060094 56016
94908KDBQ DBQ20011113150009411/13/01 15:00:31  5-MIN KDBQ 132100Z 17007KT 7SM OVC023 11/09 A3006 950 89 800 170/07 RMK AO2
94908KDBQ DBQ20011113150509411/13/01 15:05:31  5-MIN KDBQ 132105Z 16008KT 7SM OVC023 11/09 A3006 950 89 800 160/08 RMK AO2
94908KDBQ DBQ20011113151009411/13/01 15:10:31  5-MIN KDBQ 132110Z 16008KT 7SM OVC025 11/09 A3005 960 89 800 160/08 RMK AO2
94908KDBQ DBQ20011113151509411/13/01 15:15:31  5-MIN KDBQ 132115Z 16009KT 7SM OVC025 12/09 A3005 960 86 800 160/09 RMK AO2
94908KDBQ DBQ20011113152010111/13/01 15:20:31  5-MIN KDBQ 132120Z 16008KT 7SM BKN025 OVC038 12/09 A3005 960 86 800 160/08 RMK AO2
94908KDBQ DBQ20011113152510111/13/01 15:25:31  5-MIN KDBQ 132125Z 16009KT 7SM SCT025 OVC038 12/10 A3005 960 86 900 160/09 RMK AO2
94908KDBQ DBQ20011113153010111/13/01 15:30:31  5-MIN KDBQ 132130Z 16009KT 7SM SCT025 OVC038 12/10 A3005 960 86 900 160/09 RMK AO2
94908KDBQ DBQ20011113153510111/13/01 15:35:31  5-MIN KDBQ 132135Z 16009KT 7SM FEW025 BKN038 12/10 A3005 960 86 900 160/09 RMK AO2
94908KDBQ DBQ20011113154010811/13/01 15:40:31  5-MIN KDBQ 132140Z 17009KT 7SM FEW027 BKN038 BKN080 12/10 A3005 960 86 900 170/09 RMK AO2
94908KDBQ DBQ20011113154510111/13/01 15:45:31  5-MIN KDBQ 132145Z 16010KT 7SM SCT038 BKN080 12/10 A3005 960 86 900 160/10 RMK AO2
94908KDBQ DBQ20011113155011811/13/01 15:50:31  5-MIN KDBQ 132150Z 16010KT 7SM SCT038 BKN080 12/10 A3004 960 86 900 160/10 RMK AO2 SLP178 T01220100
94908KDBQ DBQ20011113155511811/13/01 15:55:31  5-MIN KDBQ 132155Z 17010KT 7SM FEW038 SCT080 12/10 A3005 960 89 800 160/10 RMK AO2 SLP179 T01170100
94908KDBQ DBQ20011113160010111/13/01 16:00:31  5-MIN KDBQ 132200Z 17009KT 7SM FEW038 SCT080 12/10 A3005 960 89 800 170/09 RMK AO2
94908KDBQ DBQ20011113160509411/13/01 16:05:31  5-MIN KDBQ 132205Z 17009KT 7SM SCT080 12/10 A3005 960 89 800 170/09 RMK AO2
94908KDBQ DBQ20011113161010111/13/01 16:10:31  5-MIN KDBQ 132210Z 17008KT 7SM FEW050 SCT080 12/10 A3005 960 89 800 170/08 RMK AO2
94908KDBQ DBQ20011113161511111/13/01 16:15:31  5-MIN KDBQ 132215Z 18007KT 6SM BR FEW044 SCT050 BKN080 12/10 A3005 960 89 800 180/07 RMK AO2
94908KDBQ DBQ20011113162011111/13/01 16:20:31  5-MIN KDBQ 132220Z 18007KT 6SM BR FEW042 SCT050 BKN080 12/10 A3005 960 89 800 180/07 RMK AO2
94908KDBQ DBQ20011113162511111/13/01 16:25:31  5-MIN KDBQ 132225Z 19006KT 6SM BR FEW042 BKN055 BKN080 12/10 A3005 960 89 800 180/06 RMK AO2
94908KDBQ DBQ20011113163010411/13/01 16:30:31  5-MIN KDBQ 132230Z 18006KT 6SM BR BKN055 BKN080 12/10 A3005 960 89 800 180/06 RMK AO2
94908KDBQ DBQ20011113163510411/13/01 16:35:31  5-MIN KDBQ 132235Z 20004KT 6SM BR BKN055 BKN080 12/10 A3005 960 89 800 200/04 RMK AO2
94908KDBQ DBQ20011113164010411/13/01 16:40:31  5-MIN KDBQ 132240Z 20005KT 6SM BR BKN055 BKN080 11/10 A3006 950 93 800 200/05 RMK AO2
94908KDBQ DBQ20011113164510411/13/01 16:45:31  5-MIN KDBQ 132245Z 19005KT 6SM BR BKN055 OVC080 12/10 A3006 950 89 800 190/05 RMK AO2
94908KDBQ DBQ20011113165012111/13/01 16:50:31  5-MIN KDBQ 132250Z 17006KT 6SM BR BKN055 OVC080 12/10 A3005 960 89 800 170/06 RMK AO2 SLP181 T01170100
94908KDBQ DBQ20011113165512111/13/01 16:55:31  5-MIN KDBQ 132255Z 17007KT 6SM BR BKN055 OVC080 12/10 A3005 960 89 800 170/07 RMK AO2 SLP181 T01170100
94908KDBQ DBQ20011113170010111/13/01 17:00:31  5-MIN KDBQ 132300Z 18007KT 7SM BKN055 OVC080 12/10 A3005 960 89 800 180/07 RMK AO2
94908KDBQ DBQ20011113170510111/13/01 17:05:31  5-MIN KDBQ 132305Z 19007KT 7SM BKN055 BKN080 11/10 A3005 960 93 800 180/07 RMK AO2
94908KDBQ DBQ20011113171009411/13/01 17:10:31  5-MIN KDBQ 132310Z 18007KT 7SM BKN055 11/09 A3005 960 93 700 180/07 RMK AO2
94908KDBQ DBQ20011113171509411/13/01 17:15:31  5-MIN KDBQ 132315Z 19007KT 7SM SCT055 11/09 A3005 960 93 700 180/07 RMK AO2
94908KDBQ DBQ20011113172009411/13/01 17:20:31  5-MIN KDBQ 132320Z 21005KT 7SM SCT055 11/09 A3006 950 93 700 210/05 RMK AO2
94908KDBQ DBQ20011113172510111/13/01 17:25:31  5-MIN KDBQ 132325Z 22005KT 7SM FEW032 SCT060 11/09 A3006 950 93 700 220/05 RMK AO2
94908KDBQ DBQ20011113173010111/13/01 17:30:31  5-MIN KDBQ 132330Z 20005KT 7SM SCT032 SCT060 11/09 A3006 950 93 700 200/05 RMK AO2
94908KDBQ DBQ20011113173509411/13/01 17:35:31  5-MIN KDBQ 132335Z 19005KT 7SM BKN030 11/09 A3006 950 89 700 190/05 RMK AO2
94908KDBQ DBQ20011113174009411/13/01 17:40:31  5-MIN KDBQ 132340Z 19006KT 7SM BKN030 11/09 A3006 950 89 800 190/06 RMK AO2
94908KDBQ DBQ20011113174509411/13/01 17:45:31  5-MIN KDBQ 132345Z 20006KT 7SM BKN030 11/09 A3006 950 93 700 200/06 RMK AO2
94908KDBQ DBQ20011113175013511/13/01 17:50:31  5-MIN KDBQ 132350Z 20007KT 7SM BKN030 11/09 A3006 950 89 700 200/07 RMK AO2 SLP185 60000 T01110094 10122 20083 56016
94908KDBQ DBQ20011113175513511/13/01 17:55:31  5-MIN KDBQ 132355Z 20008KT 7SM OVC030 12/10 A3006 950 89 800 200/08 RMK AO2 SLP184 60000 T01170100 10122 20083 53002
94908KDBQ DBQ20011113180009411/13/01 18:00:31  5-MIN KDBQ 140000Z 19008KT 7SM OVC030 12/10 A3006 950 89 800 190/08 RMK AO2
94908KDBQ DBQ20011113180509411/13/01 18:05:31  5-MIN KDBQ 140005Z 19007KT 7SM OVC030 12/10 A3006 950 89 800 190/07 RMK AO2
94908KDBQ DBQ20011113181009411/13/01 18:10:31  5-MIN KDBQ 140010Z 20007KT 7SM OVC030 12/10 A3006 950 89 800 190/07 RMK AO2
94908KDBQ DBQ20011113181509411/13/01 18:15:31  5-MIN KDBQ 140015Z 21005KT 7SM OVC030 12/10 A3006 950 89 800 210/05 RMK AO2
94908KDBQ DBQ20011113182010111/13/01 18:20:31  5-MIN KDBQ 140020Z 19008KT 7SM BKN030 OVC055 12/10 A3006 950 86 900 190/08 RMK AO2
94908KDBQ DBQ20011113182510111/13/01 18:25:31  5-MIN KDBQ 140025Z 18009KT 7SM BKN030 BKN055 13/10 A3006 950 83 900 180/09 RMK AO2
94908KDBQ DBQ20011113183010211/13/01 18:30:31  5-MIN KDBQ 140030Z 19009KT 8SM SCT030 BKN055 13/10 A3006 950 80 1000 190/09 RMK AO2
94908KDBQ DBQ20011113183510111/13/01 18:35:31  5-MIN KDBQ 140035Z 18009KT 8SM FEW030 OVC050 13/10 A3006 950 83 900 180/09 RMK AO2
94908KDBQ DBQ20011113184010211/13/01 18:40:31  5-MIN KDBQ 140040Z 18009KT 8SM FEW030 BKN055 13/10 A3006 950 80 1000 180/09 RMK AO2
94908KDBQ DBQ20011113184509511/13/01 18:45:31  5-MIN KDBQ 140045Z 18009KT 8SM BKN055 13/10 A3006 950 80 1000 180/09 RMK AO2
94908KDBQ DBQ20011113185011211/13/01 18:50:31  5-MIN KDBQ 140050Z 18011KT 8SM BKN050 13/10 A3006 950 80 1000 180/11 RMK AO2 SLP182 T01330100
94908KDBQ DBQ20011113185512611/13/01 18:55:31  5-MIN KDBQ 140055Z 18010KT 8SM FEW038 BKN050 OVC060 13/10 A3006 950 80 1000 180/10 RMK AO2 SLP182 T01330100
94908KDBQ DBQ20011113190010211/13/01 19:00:31  5-MIN KDBQ 140100Z 18010KT 8SM SCT038 BKN050 13/10 A3006 950 80 1000 170/10 RMK AO2
94908KDBQ DBQ20011113190510211/13/01 19:05:31  5-MIN KDBQ 140105Z 18011KT 8SM BKN036 OVC050 13/10 A3006 950 80 1000 180/11 RMK AO2
94908KDBQ DBQ20011113191010211/13/01 19:10:31  5-MIN KDBQ 140110Z 18011KT 8SM BKN036 OVC050 13/10 A3006 950 80 1000 180/11 RMK AO2
94908KDBQ DBQ20011113191510211/13/01 19:15:31  5-MIN KDBQ 140115Z 18009KT 8SM BKN036 OVC050 13/10 A3006 950 80 1000 180/09 RMK AO2
94908KDBQ DBQ20011113192009511/13/01 19:20:31  5-MIN KDBQ 140120Z 18010KT 8SM OVC036 13/10 A3006 950 80 1000 170/10 RMK AO2
94908KDBQ DBQ20011113192509511/13/01 19:25:31  5-MIN KDBQ 140125Z 17011KT 8SM OVC036 13/10 A3006 950 80 1000 170/11 RMK AO2
94908KDBQ DBQ20011113193009511/13/01 19:30:31  5-MIN KDBQ 140130Z 17012KT 8SM OVC036 13/10 A3006 950 80 1000 170/12 RMK AO2
94908KDBQ DBQ20011113193509511/13/01 19:35:31  5-MIN KDBQ 140135Z 18013KT 8SM OVC036 14/10 A3006 950 77 1100 180/13 RMK AO2
94908KDBQ DBQ20011113194009511/13/01 19:40:31  5-MIN KDBQ 140140Z 18013KT 8SM OVC036 13/10 A3006 950 80 1000 180/13 RMK AO2
94908KDBQ DBQ20011113194509511/13/01 19:45:31  5-MIN KDBQ 140145Z 18014KT 8SM OVC038 13/10 A3005 950 80 1000 180/14 RMK AO2
94908KDBQ DBQ20011113195011911/13/01 19:50:31  5-MIN KDBQ 140150Z 18013KT 8SM BKN038 BKN075 13/09 A3005 950 77 1000 180/13 RMK AO2 SLP180 T01330094
94908KDBQ DBQ20011113195511911/13/01 19:55:31  5-MIN KDBQ 140155Z 18012KT 9SM BKN038 BKN075 13/09 A3006 950 77 1000 180/12 RMK AO2 SLP181 T01330094
94908KDBQ DBQ20011113200010511/13/01 20:00:31  5-MIN KDBQ 140200Z AUTO 19011KT 9SM BKN036 13/09 A3006 950 77 1000 180/11 RMK AO2 TSNO
94908KDBQ DBQ20011113200510511/13/01 20:05:31  5-MIN KDBQ 140205Z AUTO 19011KT 9SM BKN036 13/09 A3006 950 80 1000 190/11 RMK AO2 TSNO
94908KDBQ DBQ20011113201010511/13/01 20:10:31  5-MIN KDBQ 140210Z AUTO 19010KT 8SM BKN036 13/09 A3006 950 80 1000 190/10 RMK AO2 TSNO
94908KDBQ DBQ20011113201510411/13/01 20:15:31  5-MIN KDBQ 140215Z AUTO 19009KT 8SM SCT036 12/09 A3006 950 83 900 190/09 RMK AO2 TSNO
94908KDBQ DBQ20011113202010411/13/01 20:20:31  5-MIN KDBQ 140220Z AUTO 19009KT 8SM SCT036 12/09 A3005 950 83 900 190/09 RMK AO2 TSNO
94908KDBQ DBQ20011113202510411/13/01 20:25:31  5-MIN KDBQ 140225Z AUTO 19008KT 8SM FEW036 12/09 A3006 950 83 800 190/08 RMK AO2 TSNO
94908KDBQ DBQ20011113203010411/13/01 20:30:31  5-MIN KDBQ 140230Z AUTO 20009KT 8SM FEW036 12/09 A3005 950 83 800 200/09 RMK AO2 TSNO
94908KDBQ DBQ20011113203510411/13/01 20:35:31  5-MIN KDBQ 140235Z AUTO 20009KT 8SM SCT036 12/09 A3005 950 83 800 190/09 RMK AO2 TSNO
94908KDBQ DBQ20011113204010411/13/01 20:40:31  5-MIN KDBQ 140240Z AUTO 19009KT 8SM SCT036 12/09 A3005 960 83 800 190/09 RMK AO2 TSNO
94908KDBQ DBQ20011113204510411/13/01 20:45:31  5-MIN KDBQ 140245Z AUTO 19010KT 8SM SCT036 12/09 A3005 960 83 800 190/10 RMK AO2 TSNO
94908KDBQ DBQ20011113205012711/13/01 20:50:31  5-MIN KDBQ 140250Z AUTO 19010KT 8SM FEW036 12/09 A3005 960 83 800 190/10 RMK AO2 SLP181 T01170089 53002 TSNO
94908KDBQ DBQ20011113205512711/13/01 20:55:31  5-MIN KDBQ 140255Z AUTO 20010KT 8SM FEW036 12/09 A3005 960 83 800 200/10 RMK AO2 SLP181 T01170089 58003 TSNO
94908KDBQ DBQ20011113210010411/13/01 21:00:31  5-MIN KDBQ 140300Z AUTO 20010KT 8SM FEW036 12/09 A3005 960 83 800 200/10 RMK AO2 TSNO
94908KDBQ DBQ20011113210510411/13/01 21:05:31  5-MIN KDBQ 140305Z AUTO 19010KT 8SM FEW036 12/09 A3005 950 83 800 190/10 RMK AO2 TSNO
94908KDBQ DBQ20011113211010411/13/01 21:10:31  5-MIN KDBQ 140310Z AUTO 20010KT 8SM SCT036 12/09 A3006 950 83 800 200/10 RMK AO2 TSNO
94908KDBQ DBQ20011113211510411/13/01 21:15:31  5-MIN KDBQ 140315Z AUTO 19010KT 8SM BKN036 12/09 A3006 950 83 800 190/10 RMK AO2 TSNO
94908KDBQ DBQ20011113212010411/13/01 21:20:31  5-MIN KDBQ 140320Z AUTO 20009KT 8SM BKN036 12/09 A3006 950 83 900 190/09 RMK AO2 TSNO
94908KDBQ DBQ20011113212510411/13/01 21:25:31  5-MIN KDBQ 140325Z AUTO 19010KT 8SM BKN036 12/09 A3006 950 83 900 190/10 RMK AO2 TSNO
94908KDBQ DBQ20011113213010411/13/01 21:30:31  5-MIN KDBQ 140330Z AUTO 19010KT 8SM OVC036 12/09 A3006 950 83 900 190/10 RMK AO2 TSNO
94908KDBQ DBQ20011113213510411/13/01 21:35:31  5-MIN KDBQ 140335Z AUTO 20010KT 8SM OVC036 13/09 A3006 950 80 900 190/10 RMK AO2 TSNO
94908KDBQ DBQ20011113214010411/13/01 21:40:31  5-MIN KDBQ 140340Z AUTO 20009KT 8SM OVC036 13/09 A3006 950 80 900 200/09 RMK AO2 TSNO
94908KDBQ DBQ20011113214510411/13/01 21:45:31  5-MIN KDBQ 140345Z AUTO 20010KT 8SM OVC036 13/09 A3006 950 80 900 200/10 RMK AO2 TSNO
94908KDBQ DBQ20011113215012111/13/01 21:50:31  5-MIN KDBQ 140350Z AUTO 20010KT 9SM OVC034 13/09 A3006 950 80 900 200/10 RMK AO2 SLP182 T01280094 TSNO
94908KDBQ DBQ20011113215512111/13/01 21:55:31  5-MIN KDBQ 140355Z AUTO 20010KT 9SM OVC034 13/09 A3006 950 80 900 200/10 RMK AO2 SLP182 T01280094 TSNO
94908KDBQ DBQ20011113220010411/13/01 22:00:31  5-MIN KDBQ 140400Z AUTO 20009KT 9SM OVC034 13/09 A3006 950 80 900 200/09 RMK AO2 TSNO
94908KDBQ DBQ20011113220510411/13/01 22:05:31  5-MIN KDBQ 140405Z AUTO 20009KT 9SM OVC034 13/09 A3006 950 80 900 200/09 RMK AO2 TSNO
94908KDBQ DBQ20011113221010411/13/01 22:10:31  5-MIN KDBQ 140410Z AUTO 20010KT 8SM OVC034 13/09 A3006 950 80 900 200/10 RMK AO2 TSNO
94908KDBQ DBQ20011113221510411/13/01 22:15:31  5-MIN KDBQ 140415Z AUTO 20010KT 9SM OVC032 13/09 A3006 950 80 900 200/10 RMK AO2 TSNO
94908KDBQ DBQ20011113222010411/13/01 22:20:31  5-MIN KDBQ 140420Z AUTO 20010KT 9SM OVC032 13/09 A3006 950 80 900 200/10 RMK AO2 TSNO
94908KDBQ DBQ20011113222510511/13/01 22:25:31  5-MIN KDBQ 140425Z AUTO 20010KT 9SM OVC032 13/09 A3006 950 77 1000 200/10 RMK AO2 TSNO
94908KDBQ DBQ20011113223010511/13/01 22:30:31  5-MIN KDBQ 140430Z AUTO 20010KT 9SM OVC030 13/09 A3006 950 77 1000 200/10 RMK AO2 TSNO
94908KDBQ DBQ20011113223510511/13/01 22:35:31  5-MIN KDBQ 140435Z AUTO 20011KT 9SM OVC030 13/09 A3006 950 77 1000 200/11 RMK AO2 TSNO
94908KDBQ DBQ20011113224010511/13/01 22:40:31  5-MIN KDBQ 140440Z AUTO 20011KT 9SM OVC030 13/09 A3007 940 77 1000 200/11 RMK AO2 TSNO
94908KDBQ DBQ20011113224510511/13/01 22:45:31  5-MIN KDBQ 140445Z AUTO 20011KT 8SM OVC030 13/10 A3007 940 80 1000 200/11 RMK AO2 TSNO
94908KDBQ DBQ20011113225012211/13/01 22:50:31  5-MIN KDBQ 140450Z AUTO 20011KT 8SM OVC028 13/10 A3007 940 80 1000 200/11 RMK AO2 SLP185 T01330100 TSNO
94908KDBQ DBQ20011113225512211/13/01 22:55:31  5-MIN KDBQ 140455Z AUTO 20011KT 8SM OVC028 13/10 A3007 940 80 1000 200/11 RMK AO2 SLP186 T01330100 TSNO
94908KDBQ DBQ20011113230011211/13/01 23:00:31  5-MIN KDBQ 140500Z AUTO 20010KT 8SM FEW020 OVC028 13/10 A3007 940 80 1000 200/10 RMK AO2 TSNO
94908KDBQ DBQ20011113230511211/13/01 23:05:31  5-MIN KDBQ 140505Z AUTO 20010KT 8SM SCT020 OVC028 13/11 A3007 940 83 1000 200/10 RMK AO2 TSNO
94908KDBQ DBQ20011113231011211/13/01 23:10:31  5-MIN KDBQ 140510Z AUTO 20010KT 8SM BKN020 OVC028 13/11 A3007 940 83 1000 200/10 RMK AO2 TSNO
94908KDBQ DBQ20011113231511211/13/01 23:15:31  5-MIN KDBQ 140515Z AUTO 20009KT 8SM BKN020 OVC026 13/11 A3007 940 83 1000 200/09 RMK AO2 TSNO
94908KDBQ DBQ20011113232011211/13/01 23:20:31  5-MIN KDBQ 140520Z AUTO 20010KT 8SM BKN020 OVC026 13/11 A3007 940 83 1000 200/10 RMK AO2 TSNO
94908KDBQ DBQ20011113232510511/13/01 23:25:31  5-MIN KDBQ 140525Z AUTO 21009KT 7SM OVC020 13/11 A3007 940 83 1000 200/09 RMK AO2 TSNO
94908KDBQ DBQ20011113233010511/13/01 23:30:31  5-MIN KDBQ 140530Z AUTO 21009KT 7SM OVC020 14/11 A3007 940 83 1100 210/09 RMK AO2 TSNO
94908KDBQ DBQ20011113233510511/13/01 23:35:31  5-MIN KDBQ 140535Z AUTO 21009KT 7SM OVC020 14/11 A3007 940 83 1100 210/09 RMK AO2 TSNO
94908KDBQ DBQ20011113234010511/13/01 23:40:31  5-MIN KDBQ 140540Z AUTO 21010KT 7SM OVC022 14/11 A3007 940 83 1100 200/10 RMK AO2 TSNO
94908KDBQ DBQ20011113234510511/13/01 23:45:31  5-MIN KDBQ 140545Z AUTO 21009KT 7SM OVC022 14/11 A3007 940 83 1100 210/09 RMK AO2 TSNO
94908KDBQ DBQ20011113235015011/13/01 23:50:31  5-MIN KDBQ 140550Z AUTO 20008KT 7SM OVC022 13/11 A3007 940 86 1000 200/08 RMK AO2 SLP187 T01330111 10139 20117 401390067 58003 TSNO
94908KDBQ DBQ20011113235515011/13/01 23:55:31  5-MIN KDBQ 140555Z AUTO 20008KT 7SM OVC024 13/11 A3008 940 86 1000 200/08 RMK AO2 SLP188 T01330111 10139 20117 401390067 52007 TSNO
94908KDBQ DBQ20011114000010511/14/01 00:00:31  5-MIN KDBQ 140600Z AUTO 20009KT 7SM OVC024 13/11 A3008 930 86 1000 200/09 RMK AO2 TSNO
94908KDBQ DBQ20011114000510511/14/01 00:05:31  5-MIN KDBQ 140605Z AUTO 20008KT 7SM OVC024 13/11 A3008 940 86 1000 200/08 RMK AO2 TSNO
94908KDBQ DBQ20011114001010511/14/01 00:10:31  5-MIN KDBQ 140610Z AUTO 20008KT 7SM OVC024 13/11 A3008 930 86 1000 200/08 RMK AO2 TSNO
94908KDBQ DBQ20011114001510811/14/01 00:15:31  5-MIN KDBQ 140615Z AUTO 20007KT 6SM BR OVC024 13/11 A3008 930 86 1000 200/07 RMK AO2 TSNO
94908KDBQ DBQ20011114002010811/14/01 00:20:31  5-MIN KDBQ 140620Z AUTO 20009KT 6SM BR OVC024 13/11 A3008 930 86 1000 200/09 RMK AO2 TSNO
94908KDBQ DBQ20011114002510811/14/01 00:25:31  5-MIN KDBQ 140625Z AUTO 20009KT 6SM BR OVC024 13/11 A3008 930 86 1000 200/09 RMK AO2 TSNO
94908KDBQ DBQ20011114003010811/14/01 00:30:31  5-MIN KDBQ 140630Z AUTO 20008KT 6SM BR OVC024 13/11 A3008 930 86 1000 200/08 RMK AO2 TSNO
94908KDBQ DBQ20011114003510811/14/01 00:35:31  5-MIN KDBQ 140635Z AUTO 20007KT 6SM BR OVC026 13/11 A3007 940 86 1000 200/07 RMK AO2 TSNO
94908KDBQ DBQ20011114004010811/14/01 00:40:31  5-MIN KDBQ 140640Z AUTO 20007KT 6SM BR OVC026 13/11 A3007 940 86 1000 200/07 RMK AO2 TSNO
94908KDBQ DBQ20011114004510711/14/01 00:45:31  5-MIN KDBQ 140645Z AUTO 20006KT 6SM BR OVC026 13/11 A3007 940 89 900 200/06 RMK AO2 TSNO
94908KDBQ DBQ20011114005012411/14/01 00:50:31  5-MIN KDBQ 140650Z AUTO 20007KT 6SM BR OVC026 13/11 A3007 940 89 900 200/07 RMK AO2 SLP187 T01280111 TSNO
94908KDBQ DBQ20011114005512411/14/01 00:55:31  5-MIN KDBQ 140655Z AUTO 21007KT 6SM BR OVC028 13/11 A3007 940 89 900 210/07 RMK AO2 SLP186 T01280111 TSNO
94908KDBQ DBQ20011114010010811/14/01 01:00:31  5-MIN KDBQ 140700Z AUTO 20007KT 6SM BR OVC028 13/11 A3007 940 86 1000 200/07 RMK AO2 TSNO
94908KDBQ DBQ20011114010511411/14/01 01:05:31  5-MIN KDBQ 140705Z AUTO 20007KT 6SM BR BKN028 OVC036 13/11 A3007 940 89 900 200/07 RMK AO2 TSNO
94908KDBQ DBQ20011114011011411/14/01 01:10:31  5-MIN KDBQ 140710Z AUTO 20006KT 6SM BR BKN028 OVC036 13/11 A3007 940 89 900 200/06 RMK AO2 TSNO
94908KDBQ DBQ20011114011511411/14/01 01:15:31  5-MIN KDBQ 140715Z AUTO 20006KT 6SM BR SCT028 OVC038 13/11 A3007 940 89 900 200/06 RMK AO2 TSNO
94908KDBQ DBQ20011114012012111/14/01 01:20:31  5-MIN KDBQ 140720Z AUTO 21007KT 6SM BR SCT028 BKN038 OVC049 13/11 A3007 940 89 900 210/07 RMK AO2 TSNO
94908KDBQ DBQ20011114012512111/14/01 01:25:31  5-MIN KDBQ 140725Z AUTO 21007KT 5SM BR FEW028 BKN038 OVC049 13/12 A3007 940 93 900 210/07 RMK AO2 TSNO
94908KDBQ DBQ20011114013011411/14/01 01:30:31  5-MIN KDBQ 140730Z AUTO 21007KT 5SM BR BKN038 OVC049 13/12 A3007 940 93 900 210/07 RMK AO2 TSNO
94908KDBQ DBQ20011114013512211/14/01 01:35:31  5-MIN KDBQ 140735Z AUTO 20008KT 5SM BR FEW026 BKN034 OVC049 13/12 A3007 940 89 1000 200/08 RMK AO2 TSNO
94908KDBQ DBQ20011114014012111/14/01 01:40:31  5-MIN KDBQ 140740Z AUTO 20009KT 5SM BR FEW026 BKN034 OVC049 13/12 A3007 940 93 900 200/09 RMK AO2 TSNO
94908KDBQ DBQ20011114014512111/14/01 01:45:31  5-MIN KDBQ 140745Z AUTO 20008KT 5SM BR FEW029 BKN038 OVC065 13/12 A3007 940 93 900 200/08 RMK AO2 TSNO
94908KDBQ DBQ20011114015013811/14/01 01:50:31  5-MIN KDBQ 140750Z AUTO 20008KT 5SM BR SCT030 BKN043 OVC065 13/12 A3007 940 93 900 200/08 RMK AO2 SLP184 T01280117 TSNO
94908KDBQ DBQ20011114015513811/14/01 01:55:31  5-MIN KDBQ 140755Z AUTO 20009KT 5SM BR FEW016 SCT031 BKN046 13/12 A3007 940 93 900 200/09 RMK AO2 SLP185 T01280117 TSNO
94908KDBQ DBQ20011114020012211/14/01 02:00:31  5-MIN KDBQ 140800Z AUTO 21009KT 5SM BR SCT016 BKN031 BKN044 13/12 A3007 940 93 1000 210/09 RMK AO2 TSNO
94908KDBQ DBQ20011114020513811/14/01 02:05:31  5-MIN KDBQ 140805Z AUTO 21009KT 4SM -RA BR SCT016 BKN033 OVC065 13/12 A3007 940 93 1000 210/09 RMK AO2 RAB05 P0000 TSNO
94908KDBQ DBQ20011114021013711/14/01 02:10:31  5-MIN KDBQ 140810Z AUTO 21008KT 3SM RA BR BKN014 BKN044 OVC065 13/12 A3007 940 93 1000 210/08 RMK AO2 RAB05 P0001 TSNO
94908KDBQ DBQ20011114021515011/14/01 02:15:31  5-MIN KDBQ 140815Z AUTO 21007KT 3SM -RA BR BKN011 BKN016 OVC065 13/12 A3007 940 93 1000 200/07 RMK AO2 RAB05 CIG 007V014 P0001 TSNO
94908KDBQ DBQ20011114022013111/14/01 02:20:31  5-MIN KDBQ 140820Z AUTO 21008KT 3SM -RA BR SCT007 OVC013 13/12 A3008 940 93 1000 210/08 RMK AO2 RAB05 P0002 TSNO
94908KDBQ DBQ20011114022513511/14/01 02:25:31  5-MIN KDBQ 140825Z AUTO 21008KT 2 1/2SM -RA BR SCT007 OVC013 13/12 A3007 940 93 1000 200/08 RMK AO2 RAB05 P0003 TSNO
94908KDBQ DBQ20011114023014311/14/01 02:30:31  5-MIN KDBQ 140830Z AUTO 20008KT 2SM -RA BR BKN007 OVC013 13/13 A3007 940 96 1000 200/08 RMK AO2 RAB05 CIG 004V010 P0003 TSNO
94908KDBQ DBQ20011114023515311/14/01 02:35:31  5-MIN KDBQ 140835Z AUTO 21010KT 1 3/4SM RA BR FEW002 BKN005 OVC011 13/13 A3007 940 96 1000 210/10 RMK AO2 RAB05 CIG 003V008 P0004 TSNO
94908KDBQ DBQ20011114024015411/14/01 02:40:31  5-MIN KDBQ 140840Z AUTO 21011KT 1 1/2SM -RA BR BKN002 BKN007 OVC011 13/13 A3007 940 96 1000 210/11 RMK AO2 RAB05 CIG 001V006 P0004 TSNO
94908KDBQ DBQ20011114024515411/14/01 02:45:31  5-MIN KDBQ 140845Z AUTO 21012KT 1 1/2SM -RA BR SCT002 BKN007 OVC031 13/13 A3007 940 96 1000 210/12 RMK AO2 RAB05 CIG 003V009 P0004 TSNO
94908KDBQ DBQ20011114025017211/14/01 02:50:31  5-MIN KDBQ 140850Z AUTO 20012KT 1 1/4SM -RA BR BKN004 BKN015 OVC036 13/13 A3007 940 100 1000 200/12 RMK AO2 RAB05 SLP184 P0004 60004 T01330133 52007 TSNO
94908KDBQ DBQ20011114025517211/14/01 02:55:31  5-MIN KDBQ 140855Z AUTO 20011KT 1 1/4SM -RA BR SCT004 BKN015 OVC045 13/13 A3007 940 100 1000 190/11 RMK AO2 RAB05 SLP184 P0005 60005 T01330133 56003 TSNO
94908KDBQ DBQ20011114030013611/14/01 03:00:31  5-MIN KDBQ 140900Z AUTO 20010KT 1 1/4SM -RA BR SCT002 BKN036 OVC046 13/13 A3007 940 96 1000 190/10 RMK AO2 P0000 TSNO
94908KDBQ DBQ20011114030513611/14/01 03:05:31  5-MIN KDBQ 140905Z AUTO 20010KT 1 1/4SM -RA BR FEW002 BKN036 OVC048 13/13 A3007 940 96 1000 200/10 RMK AO2 P0000 TSNO
94908KDBQ DBQ20011114031013611/14/01 03:10:31  5-MIN KDBQ 140910Z AUTO 19011KT 1 1/2SM -RA BR SCT002 BKN036 OVC046 13/13 A3007 940 96 1000 190/11 RMK AO2 P0000 TSNO
94908KDBQ DBQ20011114031513611/14/01 03:15:31  5-MIN KDBQ 140915Z AUTO 19011KT 1 1/4SM -RA BR SCT002 BKN037 OVC046 13/13 A3006 950 96 1000 190/11 RMK AO2 P0001 TSNO
94908KDBQ DBQ20011114032013711/14/01 03:20:31  5-MIN KDBQ 140920Z AUTO 19013KT 1 1/4SM +RA BR BKN002 BKN037 OVC046 13/13 A3006 950 100 1000 190/13 RMK AO2 P0005 TSNO
94908KDBQ DBQ20011114032512911/14/01 03:25:31  5-MIN KDBQ 140925Z AUTO 19014KT 1 1/2SM +RA BR BKN002 OVC037 13/13 A3006 950 96 1000 190/14 RMK AO2 P0006 TSNO
94908KDBQ DBQ20011114033012511/14/01 03:30:31  5-MIN KDBQ 140930Z AUTO 19014KT 2SM -RA BR BKN002 OVC037 13/13 A3007 940 96 1000 190/14 RMK AO2 P0007 TSNO
94908KDBQ DBQ20011114033513611/14/01 03:35:31  5-MIN KDBQ 140935Z AUTO 19012KT 2 1/2SM -RA BR BKN002 BKN035 OVC048 13/13 A3007 940 100 900 180/12 RMK AO2 P0007 TSNO
94908KDBQ DBQ20011114034013811/14/01 03:40:31  5-MIN KDBQ 140940Z AUTO 18012KT 2 1/2SM BR BKN002 BKN027 OVC048 13/13 A3007 940 100 900 180/12 RMK AO2 RAE38 P0007 TSNO
94908KDBQ DBQ20011114034513411/14/01 03:45:31  5-MIN KDBQ 140945Z AUTO 19011KT 2SM BR SCT002 BKN022 OVC046 13/13 A3007 940 100 900 190/11 RMK AO2 RAE38 P0007 TSNO
94908KDBQ DBQ20011114035014811/14/01 03:50:31  5-MIN KDBQ 140950Z AUTO 18012KT 2SM -RA BR FEW002 BKN022 OVC046 13/12 A3007 940 96 900 180/12 RMK AO2 SLP184 P0007 T01280122 TSNO
94908KDBQ DBQ20011114035515211/14/01 03:55:31  5-MIN KDBQ 140955Z AUTO 18012KT 2 1/2SM -RA BR FEW002 BKN022 OVC046 13/12 A3007 940 96 900 180/12 RMK AO2 SLP184 P0007 T01280122 TSNO
94908KDBQ DBQ20011114040013511/14/01 04:00:31  5-MIN KDBQ 141000Z AUTO 18012KT 3SM BR BKN022 BKN033 OVC048 13/12 A3007 940 96 900 180/12 RMK AO2 RAE0959 P0000 TSNO
94908KDBQ DBQ20011114040512111/14/01 04:05:31  5-MIN KDBQ 141005Z AUTO 18012KT 3SM BR OVC022 13/12 A3007 940 96 900 180/12 RMK AO2 RAE0959 P0000 TSNO
94908KDBQ DBQ20011114041011711/14/01 04:10:31  5-MIN KDBQ 141010Z AUTO 18012KT 3SM -RA BR OVC022 13/12 A3007 940 96 900 180/12 RMK AO2 P0000 TSNO
94908KDBQ DBQ20011114041511711/14/01 04:15:31  5-MIN KDBQ 141015Z AUTO 17011KT 3SM -RA BR OVC022 13/12 A3007 940 96 900 170/11 RMK AO2 P0000 TSNO
94908KDBQ DBQ20011114042011711/14/01 04:20:31  5-MIN KDBQ 141020Z AUTO 17010KT 3SM -RA BR OVC022 13/12 A3007 940 96 900 170/10 RMK AO2 P0000 TSNO
94908KDBQ DBQ20011114042511711/14/01 04:25:31  5-MIN KDBQ 141025Z AUTO 17009KT 3SM -RA BR OVC022 13/12 A3007 940 96 900 170/09 RMK AO2 P0000 TSNO
94908KDBQ DBQ20011114043011711/14/01 04:30:31  5-MIN KDBQ 141030Z AUTO 17010KT 3SM -RA BR OVC022 13/12 A3007 940 93 900 170/10 RMK AO2 P0000 TSNO
94908KDBQ DBQ20011114043511911/14/01 04:35:31  5-MIN KDBQ 141035Z AUTO 17009KT 3SM BR OVC022 13/12 A3007 940 93 900 170/09 RMK AO2 RAE33 P0000 TSNO
94908KDBQ DBQ20011114044011911/14/01 04:40:31  5-MIN KDBQ 141040Z AUTO 17009KT 3SM BR OVC022 13/12 A3007 940 93 900 170/09 RMK AO2 RAE33 P0000 TSNO
94908KDBQ DBQ20011114044511911/14/01 04:45:31  5-MIN KDBQ 141045Z AUTO 17011KT 4SM BR OVC022 13/12 A3007 940 93 900 170/11 RMK AO2 RAE33 P0000 TSNO
94908KDBQ DBQ20011114045013611/14/01 04:50:31  5-MIN KDBQ 141050Z AUTO 17010KT 4SM BR OVC020 13/12 A3007 940 93 900 170/10 RMK AO2 RAE33 SLP186 P0000 T01280117 TSNO
94908KDBQ DBQ20011114045513611/14/01 04:55:31  5-MIN KDBQ 141055Z AUTO 18008KT 4SM BR OVC020 13/12 A3008 940 93 900 180/08 RMK AO2 RAE33 SLP187 P0000 T01280117 TSNO
94908KDBQ DBQ20011114050010711/14/01 05:00:31  5-MIN KDBQ 141100Z AUTO 17011KT 4SM BR OVC020 12/12 A3007 940 96 900 170/11 RMK AO2 TSNO
94908KDBQ DBQ20011114050510711/14/01 05:05:31  5-MIN KDBQ 141105Z AUTO 16011KT 4SM BR OVC020 12/12 A3007 940 96 900 160/11 RMK AO2 TSNO
94908KDBQ DBQ20011114051010711/14/01 05:10:31  5-MIN KDBQ 141110Z AUTO 16010KT 4SM BR OVC020 12/12 A3007 940 96 900 160/10 RMK AO2 TSNO
94908KDBQ DBQ20011114051510711/14/01 05:15:31  5-MIN KDBQ 141115Z AUTO 16009KT 4SM BR OVC020 12/12 A3007 940 96 900 160/09 RMK AO2 TSNO
94908KDBQ DBQ20011114052010711/14/01 05:20:31  5-MIN KDBQ 141120Z AUTO 17010KT 4SM BR OVC020 12/12 A3007 940 96 900 170/10 RMK AO2 TSNO
94908KDBQ DBQ20011114052510711/14/01 05:25:31  5-MIN KDBQ 141125Z AUTO 16009KT 4SM BR OVC020 12/12 A3008 930 96 900 160/09 RMK AO2 TSNO
94908KDBQ DBQ20011114053010711/14/01 05:30:31  5-MIN KDBQ 141130Z AUTO 16009KT 4SM BR OVC022 12/12 A3007 940 96 900 160/09 RMK AO2 TSNO
94908KDBQ DBQ20011114053510711/14/01 05:35:31  5-MIN KDBQ 141135Z AUTO 16011KT 4SM BR OVC022 12/12 A3007 940 96 900 160/11 RMK AO2 TSNO
94908KDBQ DBQ20011114054010711/14/01 05:40:31  5-MIN KDBQ 141140Z AUTO 16010KT 4SM BR OVC024 12/12 A3007 940 96 900 160/10 RMK AO2 TSNO
94908KDBQ DBQ20011114054510711/14/01 05:45:31  5-MIN KDBQ 141145Z AUTO 16010KT 4SM BR OVC024 12/12 A3007 940 96 900 160/10 RMK AO2 TSNO
94908KDBQ DBQ20011114055015411/14/01 05:50:31  5-MIN KDBQ 141150Z AUTO 16010KT 4SM BR OVC024 12/12 A3007 940 96 900 160/10 RMK AO2 SLP185 60012 70032 T01220117 10133 20122 56003 TSNO
94908KDBQ DBQ20011114055515411/14/01 05:55:31  5-MIN KDBQ 141155Z AUTO 17010KT 4SM BR OVC024 12/12 A3007 940 96 900 170/10 RMK AO2 SLP185 60012 70032 T01220117 10133 20122 50001 TSNO
94908KDBQ DBQ20011114060009711/14/01 06:00:31  5-MIN KDBQ 141200Z 17008KT 4SM BR OVC024 12/12 A3007 940 96 900 170/08 RMK AO2
94908KDBQ DBQ20011114060509711/14/01 06:05:31  5-MIN KDBQ 141205Z 17008KT 4SM BR OVC024 12/12 A3007 940 96 900 170/08 RMK AO2
94908KDBQ DBQ20011114061009711/14/01 06:10:31  5-MIN KDBQ 141210Z 17009KT 3SM BR OVC026 12/12 A3007 940 96 900 170/09 RMK AO2
94908KDBQ DBQ20011114061510411/14/01 06:15:31  5-MIN KDBQ 141215Z 17010KT 3SM BR BKN026 OVC060 12/12 A3007 940 96 900 170/10 RMK AO2
94908KDBQ DBQ20011114062010411/14/01 06:20:31  5-MIN KDBQ 141220Z 18009KT 3SM BR BKN026 OVC060 12/12 A3007 940 96 900 170/09 RMK AO2
94908KDBQ DBQ20011114062510411/14/01 06:25:31  5-MIN KDBQ 141225Z 17009KT 3SM BR SCT026 OVC060 12/12 A3007 940 96 900 170/09 RMK AO2
94908KDBQ DBQ20011114063010511/14/01 06:30:31  5-MIN KDBQ 141230Z 17008KT 3SM BR FEW026 OVC060 12/12 A3007 940 100 800 170/08 RMK AO2
94908KDBQ DBQ20011114063510411/14/01 06:35:31  5-MIN KDBQ 141235Z 17008KT 3SM BR FEW026 OVC065 12/11 A3007 940 96 800 170/08 RMK AO2
94908KDBQ DBQ20011114064009711/14/01 06:40:31  5-MIN KDBQ 141240Z 17008KT 3SM BR OVC065 12/11 A3008 940 96 800 170/08 RMK AO2
94908KDBQ DBQ20011114064509711/14/01 06:45:31  5-MIN KDBQ 141245Z 18007KT 3SM BR OVC065 12/11 A3008 930 96 800 180/07 RMK AO2
94908KDBQ DBQ20011114065011411/14/01 06:50:31  5-MIN KDBQ 141250Z 18008KT 3SM BR OVC065 12/11 A3008 930 96 800 180/08 RMK AO2 SLP187 T01170111
94908KDBQ DBQ20011114065511411/14/01 06:55:31  5-MIN KDBQ 141255Z 17008KT 4SM BR OVC065 12/11 A3008 930 96 800 170/08 RMK AO2 SLP187 T01170111
94908KDBQ DBQ20011114070009711/14/01 07:00:31  5-MIN KDBQ 141300Z 17007KT 4SM BR OVC065 12/11 A3008 930 96 800 170/07 RMK AO2
94908KDBQ DBQ20011114070509711/14/01 07:05:31  5-MIN KDBQ 141305Z 17008KT 3SM BR OVC065 12/11 A3008 930 96 800 170/08 RMK AO2
94908KDBQ DBQ20011114071009711/14/01 07:10:31  5-MIN KDBQ 141310Z 18009KT 3SM BR OVC065 12/11 A3008 930 96 800 180/09 RMK AO2
94908KDBQ DBQ20011114071509711/14/01 07:15:31  5-MIN KDBQ 141315Z 17009KT 3SM BR OVC065 12/11 A3008 930 96 800 170/09 RMK AO2
94908KDBQ DBQ20011114072009711/14/01 07:20:31  5-MIN KDBQ 141320Z 17008KT 3SM BR OVC065 12/11 A3008 930 93 800 170/08 RMK AO2
94908KDBQ DBQ20011114072509711/14/01 07:25:31  5-MIN KDBQ 141325Z 17008KT 3SM BR OVC070 12/11 A3008 930 93 800 170/08 RMK AO2
94908KDBQ DBQ20011114073009711/14/01 07:30:31  5-MIN KDBQ 141330Z 18009KT 3SM BR OVC070 12/11 A3008 930 93 800 170/09 RMK AO2
94908KDBQ DBQ20011114073509711/14/01 07:35:31  5-MIN KDBQ 141335Z 19009KT 4SM BR OVC070 12/11 A3008 930 93 800 190/09 RMK AO2
94908KDBQ DBQ20011114074009711/14/01 07:40:31  5-MIN KDBQ 141340Z 18009KT 4SM BR OVC070 12/11 A3008 930 93 800 180/09 RMK AO2
94908KDBQ DBQ20011114074509711/14/01 07:45:31  5-MIN KDBQ 141345Z 17010KT 4SM BR OVC070 12/11 A3008 930 93 800 170/10 RMK AO2
94908KDBQ DBQ20011114075011411/14/01 07:50:31  5-MIN KDBQ 141350Z 18010KT 4SM BR OVC070 12/11 A3008 930 89 900 180/10 RMK AO2 SLP190 T01220106
94908KDBQ DBQ20011114075511411/14/01 07:55:31  5-MIN KDBQ 141355Z 18010KT 4SM BR OVC070 12/11 A3009 930 89 900 180/10 RMK AO2 SLP190 T01220106
94908KDBQ DBQ20011114080009711/14/01 08:00:31  5-MIN KDBQ 141400Z 19008KT 5SM BR OVC070 12/11 A3009 920 89 900 190/08 RMK AO2
94908KDBQ DBQ20011114080509711/14/01 08:05:31  5-MIN KDBQ 141405Z 18008KT 5SM BR OVC070 12/11 A3009 920 89 900 180/08 RMK AO2
94908KDBQ DBQ20011114081009711/14/01 08:10:31  5-MIN KDBQ 141410Z 18008KT 4SM BR OVC070 12/11 A3009 920 89 800 180/08 RMK AO2
94908KDBQ DBQ20011114081509711/14/01 08:15:31  5-MIN KDBQ 141415Z 18009KT 5SM BR BKN070 12/11 A3009 920 89 800 180/09 RMK AO2
94908KDBQ DBQ20011114082009711/14/01 08:20:31  5-MIN KDBQ 141420Z 18010KT 5SM BR BKN070 12/11 A3009 920 89 900 180/10 RMK AO2
94908KDBQ DBQ20011114082509711/14/01 08:25:31  5-MIN KDBQ 141425Z 18010KT 5SM BR BKN070 12/11 A3009 930 89 900 180/10 RMK AO2
94908KDBQ DBQ20011114083009711/14/01 08:30:31  5-MIN KDBQ 141430Z 18010KT 5SM BR BKN065 12/11 A3009 930 89 900 180/10 RMK AO2
94908KDBQ DBQ20011114083509711/14/01 08:35:31  5-MIN KDBQ 141435Z 18010KT 5SM BR BKN065 13/11 A3009 930 86 900 180/10 RMK AO2
94908KDBQ DBQ20011114084009711/14/01 08:40:31  5-MIN KDBQ 141440Z 18011KT 5SM BR BKN065 13/11 A3009 930 86 900 180/11 RMK AO2
94908KDBQ DBQ20011114084509711/14/01 08:45:31  5-MIN KDBQ 141445Z 18010KT 5SM BR SCT065 13/11 A3009 930 86 900 180/10 RMK AO2
94908KDBQ DBQ20011114085012011/14/01 08:50:31  5-MIN KDBQ 141450Z 19011KT 5SM BR SCT065 13/11 A3009 920 86 900 180/11 RMK AO2 SLP191 T01280106 50001
94908KDBQ DBQ20011114085512111/14/01 08:55:31  5-MIN KDBQ 141455Z 19011KT 6SM BR SCT065 13/11 A3009 930 86 1000 190/11 RMK AO2 SLP190 T01330111 51004
94908KDBQ DBQ20011114090009811/14/01 09:00:31  5-MIN KDBQ 141500Z 19012KT 6SM BR SCT065 13/11 A3009 930 86 1000 190/12 RMK AO2
94908KDBQ DBQ20011114090509811/14/01 09:05:31  5-MIN KDBQ 141505Z 19012KT 6SM BR BKN065 13/11 A3009 930 86 1000 190/12 RMK AO2
94908KDBQ DBQ20011114091009811/14/01 09:10:31  5-MIN KDBQ 141510Z 19011KT 6SM BR BKN065 13/11 A3008 930 86 1000 190/11 RMK AO2
94908KDBQ DBQ20011114091509811/14/01 09:15:31  5-MIN KDBQ 141515Z 19012KT 6SM BR BKN065 13/11 A3008 930 86 1000 190/12 RMK AO2
94908KDBQ DBQ20011114092009811/14/01 09:20:31  5-MIN KDBQ 141520Z 19013KT 6SM BR BKN065 13/11 A3008 930 86 1000 190/13 RMK AO2
94908KDBQ DBQ20011114092509811/14/01 09:25:31  5-MIN KDBQ 141525Z 19013KT 6SM HZ BKN065 14/11 A3008 930 83 1100 190/13 RMK AO2
94908KDBQ DBQ20011114093009811/14/01 09:30:31  5-MIN KDBQ 141530Z 19012KT 6SM HZ BKN065 14/11 A3008 930 83 1100 190/12 RMK AO2
94908KDBQ DBQ20011114093509811/14/01 09:35:31  5-MIN KDBQ 141535Z 20013KT 6SM HZ SCT065 14/11 A3008 930 83 1100 190/13 RMK AO2
94908KDBQ DBQ20011114094009811/14/01 09:40:31  5-MIN KDBQ 141540Z 19013KT 6SM HZ SCT065 14/11 A3008 930 83 1100 190/13 RMK AO2
94908KDBQ DBQ20011114094509811/14/01 09:45:31  5-MIN KDBQ 141545Z 19013KT 6SM HZ FEW065 14/11 A3008 930 83 1100 190/13 RMK AO2
94908KDBQ DBQ20011114095011511/14/01 09:50:31  5-MIN KDBQ 141550Z 20014KT 6SM HZ FEW065 14/11 A3008 930 83 1100 200/14 RMK AO2 SLP187 T01390111
94908KDBQ DBQ20011114095511211/14/01 09:55:31  5-MIN KDBQ 141555Z 19012KT 6SM HZ CLR 14/12 A3008 930 83 1100 190/12 RMK AO2 SLP188 T01440117
94908KDBQ DBQ20011114100009511/14/01 10:00:31  5-MIN KDBQ 141600Z 19012KT 6SM HZ CLR 15/12 A3008 930 80 1200 190/12 RMK AO2
94908KDBQ DBQ20011114100509511/14/01 10:05:31  5-MIN KDBQ 141605Z 20014KT 6SM HZ CLR 15/12 A3008 930 83 1200 200/14 RMK AO2
94908KDBQ DBQ20011114101009511/14/01 10:10:31  5-MIN KDBQ 141610Z 20014KT 6SM HZ CLR 15/12 A3008 930 80 1200 200/14 RMK AO2
94908KDBQ DBQ20011114101509511/14/01 10:15:31  5-MIN KDBQ 141615Z 20013KT 6SM HZ CLR 15/12 A3008 930 80 1200 200/13 RMK AO2
94908KDBQ DBQ20011114102009511/14/01 10:20:31  5-MIN KDBQ 141620Z 21013KT 6SM HZ CLR 15/12 A3008 930 80 1200 210/13 RMK AO2
94908KDBQ DBQ20011114102509511/14/01 10:25:31  5-MIN KDBQ 141625Z 20013KT 6SM HZ CLR 15/12 A3009 930 80 1200 200/13 RMK AO2
94908KDBQ DBQ20011114103009811/14/01 10:30:31  5-MIN KDBQ 141630Z 21010KT 6SM HZ FEW019 15/12 A3008 930 83 1200 210/10 RMK AO2
94908KDBQ DBQ20011114103509811/14/01 10:35:31  5-MIN KDBQ 141635Z 20012KT 6SM HZ SCT019 15/12 A3009 930 80 1200 200/12 RMK AO2
94908KDBQ DBQ20011114104009811/14/01 10:40:31  5-MIN KDBQ 141640Z 21012KT 6SM HZ SCT019 16/12 A3008 930 80 1200 210/12 RMK AO2
94908KDBQ DBQ20011114104509811/14/01 10:45:31  5-MIN KDBQ 141645Z 22012KT 6SM HZ BKN019 16/12 A3008 930 80 1300 220/12 RMK AO2
94908KDBQ DBQ20011114105012111/14/01 10:50:31  5-MIN KDBQ 141650Z 20014G18KT 6SM HZ BKN019 16/12 A3008 930 80 1200 200/14G18 RMK AO2 SLP187 T01560122
94908KDBQ DBQ20011114105511511/14/01 10:55:31  5-MIN KDBQ 141655Z 21012KT 6SM HZ BKN019 16/12 A3008 930 80 1300 210/12 RMK AO2 SLP186 T01560122
94908KDBQ DBQ20011114110009811/14/01 11:00:31  5-MIN KDBQ 141700Z 22013KT 5SM HZ OVC017 16/12 A3008 930 80 1300 210/13 RMK AO2
94908KDBQ DBQ20011114110509811/14/01 11:05:31  5-MIN KDBQ 141705Z 22012KT 5SM HZ OVC017 16/12 A3008 930 80 1300 210/12 RMK AO2
94908KDBQ DBQ20011114111009811/14/01 11:10:31  5-MIN KDBQ 141710Z 21013KT 5SM HZ OVC017 16/12 A3008 930 80 1300 210/13 RMK AO2
94908KDBQ DBQ20011114111509811/14/01 11:15:31  5-MIN KDBQ 141715Z 21012KT 5SM HZ OVC015 15/12 A3008 930 83 1200 210/12 RMK AO2
94908KDBQ DBQ20011114112009811/14/01 11:20:31  5-MIN KDBQ 141720Z 21012KT 5SM HZ OVC015 16/12 A3007 940 80 1300 210/12 RMK AO2
94908KDBQ DBQ20011114112509811/14/01 11:25:31  5-MIN KDBQ 141725Z 22012KT 5SM HZ OVC015 16/12 A3007 940 80 1300 220/12 RMK AO2
94908KDBQ DBQ20011114113009811/14/01 11:30:31  5-MIN KDBQ 141730Z 21012KT 5SM HZ OVC015 16/12 A3007 940 80 1300 210/12 RMK AO2
94908KDBQ DBQ20011114113509811/14/01 11:35:31  5-MIN KDBQ 141735Z 21015KT 5SM HZ OVC015 16/12 A3007 940 80 1300 210/15 RMK AO2
94908KDBQ DBQ20011114114009811/14/01 11:40:31  5-MIN KDBQ 141740Z 22014KT 5SM HZ OVC017 16/12 A3006 950 80 1300 220/14 RMK AO2
94908KDBQ DBQ20011114114509811/14/01 11:45:31  5-MIN KDBQ 141745Z 21013KT 5SM HZ BKN017 16/12 A3006 950 80 1300 210/13 RMK AO2
94908KDBQ DBQ20011114115013311/14/01 11:50:31  5-MIN KDBQ 141750Z 21012KT 5SM HZ BKN017 16/13 A3006 950 83 1300 210/12 RMK AO2 SLP178 T01560128 10156 20117 51004
94908KDBQ DBQ20011114115513311/14/01 11:55:31  5-MIN KDBQ 141755Z 21013KT 5SM HZ BKN017 16/13 A3006 950 80 1300 210/13 RMK AO2 SLP178 T01610128 10161 20117 58010
94908KDBQ DBQ20011114120009811/14/01 12:00:31  5-MIN KDBQ 141800Z 21014KT 5SM HZ BKN017 16/13 A3005 960 80 1300 210/14 RMK AO2
94908KDBQ DBQ20011114120509811/14/01 12:05:31  5-MIN KDBQ 141805Z 22013KT 5SM HZ SCT017 17/13 A3005 960 80 1400 210/13 RMK AO2
94908KDBQ DBQ20011114121009811/14/01 12:10:31  5-MIN KDBQ 141810Z 22013KT 5SM HZ SCT017 17/13 A3005 960 80 1400 210/13 RMK AO2
94908KDBQ DBQ20011114121509811/14/01 12:15:31  5-MIN KDBQ 141815Z 22013KT 5SM HZ FEW017 17/13 A3005 960 80 1400 220/13 RMK AO2
94908KDBQ DBQ20011114122009811/14/01 12:20:31  5-MIN KDBQ 141820Z 23012KT 5SM HZ FEW017 17/13 A3005 960 78 1500 220/12 RMK AO2
94908KDBQ DBQ20011114122509811/14/01 12:25:31  5-MIN KDBQ 141825Z 22014KT 5SM HZ FEW019 17/13 A3004 960 78 1500 220/14 RMK AO2
94908KDBQ DBQ20011114123009511/14/01 12:30:31  5-MIN KDBQ 141830Z 22013KT 5SM HZ CLR 17/13 A3005 960 78 1500 210/13 RMK AO2
94908KDBQ DBQ20011114123509511/14/01 12:35:31  5-MIN KDBQ 141835Z 22012KT 5SM HZ CLR 17/13 A3005 960 78 1500 220/12 RMK AO2
94908KDBQ DBQ20011114124009511/14/01 12:40:31  5-MIN KDBQ 141840Z 23013KT 5SM HZ CLR 18/14 A3005 960 78 1500 220/13 RMK AO2
94908KDBQ DBQ20011114124509511/14/01 12:45:31  5-MIN KDBQ 141845Z 21014KT 5SM HZ CLR 17/13 A3004 960 78 1500 210/14 RMK AO2
94908KDBQ DBQ20011114125011511/14/01 12:50:31  5-MIN KDBQ 141850Z 21013KT 5SM HZ FEW055 17/13 A3004 970 75 1500 210/13 RMK AO2 SLP174 T01720128
94908KDBQ DBQ20011114125511511/14/01 12:55:31  5-MIN KDBQ 141855Z 21013KT 5SM HZ SCT055 17/13 A3004 970 78 1500 210/13 RMK AO2 SLP173 T01720133
94908KDBQ DBQ20011114130009811/14/01 13:00:31  5-MIN KDBQ 141900Z 22012KT 5SM HZ SCT055 18/13 A3004 970 75 1600 220/12 RMK AO2
94908KDBQ DBQ20011114130509811/14/01 13:05:31  5-MIN KDBQ 141905Z 21014KT 6SM HZ FEW055 18/13 A3004 970 75 1600 210/14 RMK AO2
94908KDBQ DBQ20011114131009811/14/01 13:10:31  5-MIN KDBQ 141910Z 21015KT 6SM HZ FEW055 17/13 A3004 970 78 1500 210/15 RMK AO2
94908KDBQ DBQ20011114131509811/14/01 13:15:31  5-MIN KDBQ 141915Z 22012KT 6SM HZ FEW055 17/13 A3003 970 78 1500 220/12 RMK AO2
94908KDBQ DBQ20011114132009811/14/01 13:20:31  5-MIN KDBQ 141920Z 21014KT 6SM HZ FEW055 18/13 A3003 970 75 1600 210/14 RMK AO2
94908KDBQ DBQ20011114132509511/14/01 13:25:31  5-MIN KDBQ 141925Z 22014KT 6SM HZ CLR 18/13 A3003 970 75 1600 220/14 RMK AO2
94908KDBQ DBQ20011114133009511/14/01 13:30:31  5-MIN KDBQ 141930Z 21012KT 6SM HZ CLR 18/13 A3003 970 75 1600 210/12 RMK AO2
94908KDBQ DBQ20011114133509511/14/01 13:35:31  5-MIN KDBQ 141935Z 21013KT 6SM HZ CLR 18/13 A3003 980 75 1600 210/13 RMK AO2
94908KDBQ DBQ20011114134009511/14/01 13:40:31  5-MIN KDBQ 141940Z 21014KT 6SM HZ CLR 18/13 A3003 970 75 1600 210/14 RMK AO2
94908KDBQ DBQ20011114134509511/14/01 13:45:31  5-MIN KDBQ 141945Z 22015KT 6SM HZ CLR 18/13 A3003 970 75 1600 220/15 RMK AO2
94908KDBQ DBQ20011114135011211/14/01 13:50:31  5-MIN KDBQ 141950Z 21014KT 6SM HZ CLR 17/13 A3003 970 78 1500 210/14 RMK AO2 SLP170 T01720133
94908KDBQ DBQ20011114135511511/14/01 13:55:31  5-MIN KDBQ 141955Z 22015KT 5SM HZ FEW065 17/13 A3003 980 78 1500 220/15 RMK AO2 SLP168 T01720133
94908KDBQ DBQ20011114140009811/14/01 14:00:31  5-MIN KDBQ 142000Z 21015KT 5SM HZ SCT065 17/13 A3003 980 78 1500 210/15 RMK AO2
94908KDBQ DBQ20011114140509811/14/01 14:05:31  5-MIN KDBQ 142005Z 23013KT 5SM HZ BKN065 17/13 A3003 980 78 1500 220/13 RMK AO2
94908KDBQ DBQ20011114141010511/14/01 14:10:31  5-MIN KDBQ 142010Z 23013KT 5SM HZ SCT025 BKN065 17/13 A3003 980 78 1500 230/13 RMK AO2
94908KDBQ DBQ20011114141510511/14/01 14:15:31  5-MIN KDBQ 142015Z 22012KT 5SM HZ BKN025 BKN065 17/13 A3003 980 78 1500 220/12 RMK AO2
94908KDBQ DBQ20011114142010511/14/01 14:20:31  5-MIN KDBQ 142020Z 22011KT 5SM HZ BKN025 OVC065 17/13 A3003 980 78 1500 210/11 RMK AO2
94908KDBQ DBQ20011114142510511/14/01 14:25:31  5-MIN KDBQ 142025Z 22009KT 5SM HZ BKN025 OVC065 18/14 A3003 980 78 1600 220/09 RMK AO2
94908KDBQ DBQ20011114143009811/14/01 14:30:31  5-MIN KDBQ 142030Z 21011KT 5SM HZ OVC025 18/14 A3003 980 78 1600 210/11 RMK AO2
94908KDBQ DBQ20011114143509811/14/01 14:35:31  5-MIN KDBQ 142035Z 21012KT 6SM HZ OVC023 18/13 A3003 980 75 1600 210/12 RMK AO2
94908KDBQ DBQ20011114144009811/14/01 14:40:31  5-MIN KDBQ 142040Z 21010KT 6SM HZ OVC023 18/14 A3003 980 78 1600 210/10 RMK AO2
94908KDBQ DBQ20011114144509811/14/01 14:45:31  5-MIN KDBQ 142045Z 21012KT 6SM HZ OVC023 18/14 A3002 980 78 1600 210/12 RMK AO2
94908KDBQ DBQ20011114145012111/14/01 14:50:31  5-MIN KDBQ 142050Z 21011KT 6SM HZ OVC023 18/13 A3002 990 75 1600 210/11 RMK AO2 SLP165 T01780133 58010
94908KDBQ DBQ20011114145512111/14/01 14:55:31  5-MIN KDBQ 142055Z 20010KT 6SM HZ OVC023 18/14 A3002 990 78 1600 200/10 RMK AO2 SLP165 T01780139 56012
94908KDBQ DBQ20011114150010511/14/01 15:00:31  5-MIN KDBQ 142100Z 19009KT 6SM HZ BKN023 OVC060 18/14 A3002 990 75 1600 190/09 RMK AO2
94908KDBQ DBQ20011114150510511/14/01 15:05:31  5-MIN KDBQ 142105Z 20010KT 6SM HZ BKN023 BKN065 18/14 A3002 990 78 1600 200/10 RMK AO2
94908KDBQ DBQ20011114151010511/14/01 15:10:31  5-MIN KDBQ 142110Z 19010KT 6SM HZ SCT023 BKN065 18/14 A3002 990 78 1600 190/10 RMK AO2
94908KDBQ DBQ20011114151510511/14/01 15:15:31  5-MIN KDBQ 142115Z 20010KT 6SM HZ BKN023 BKN065 18/14 A3002 980 78 1600 200/10 RMK AO2
94908KDBQ DBQ20011114152010511/14/01 15:20:31  5-MIN KDBQ 142120Z 21010KT 5SM HZ BKN023 BKN065 17/14 A3003 980 80 1500 210/10 RMK AO2
94908KDBQ DBQ20011114152510511/14/01 15:25:31  5-MIN KDBQ 142125Z 21011KT 6SM HZ BKN023 BKN065 17/13 A3003 980 78 1500 210/11 RMK AO2
94908KDBQ DBQ20011114153010511/14/01 15:30:31  5-MIN KDBQ 142130Z 21009KT 6SM HZ BKN023 BKN065 17/13 A3003 980 78 1500 210/09 RMK AO2
94908KDBQ DBQ20011114153510511/14/01 15:35:31  5-MIN KDBQ 142135Z 22008KT 6SM HZ BKN023 BKN065 17/14 A3003 980 80 1500 210/08 RMK AO2
94908KDBQ DBQ20011114154010511/14/01 15:40:31  5-MIN KDBQ 142140Z 21011KT 6SM HZ BKN023 BKN065 17/13 A3003 980 78 1500 210/11 RMK AO2
94908KDBQ DBQ20011114154510511/14/01 15:45:31  5-MIN KDBQ 142145Z 21014KT 6SM HZ BKN023 BKN065 17/13 A3003 980 78 1500 210/14 RMK AO2
94908KDBQ DBQ20011114155012211/14/01 15:50:31  5-MIN KDBQ 142150Z 21011KT 6SM HZ BKN025 BKN060 17/13 A3003 980 78 1500 210/11 RMK AO2 SLP169 T01720133
94908KDBQ DBQ20011114155512911/14/01 15:55:31  5-MIN KDBQ 142155Z 22010KT 6SM HZ SCT025 BKN060 BKN110 17/13 A3003 980 78 1500 220/10 RMK AO2 SLP169 T01720133
94908KDBQ DBQ20011114160011211/14/01 16:00:31  5-MIN KDBQ 142200Z 22011KT 6SM HZ SCT025 BKN060 BKN110 17/13 A3003 980 78 1500 210/11 RMK AO2
94908KDBQ DBQ20011114160511211/14/01 16:05:31  5-MIN KDBQ 142205Z 21009KT 6SM HZ SCT025 SCT060 BKN110 17/13 A3003 980 78 1500 210/09 RMK AO2
94908KDBQ DBQ20011114161010511/14/01 16:10:31  5-MIN KDBQ 142210Z 21009KT 5SM HZ FEW025 SCT110 17/13 A3003 980 80 1400 210/09 RMK AO2
94908KDBQ DBQ20011114161509811/14/01 16:15:31  5-MIN KDBQ 142215Z 21009KT 5SM HZ FEW025 17/13 A3003 980 80 1400 210/09 RMK AO2
94908KDBQ DBQ20011114162009811/14/01 16:20:31  5-MIN KDBQ 142220Z 21009KT 5SM HZ FEW110 16/13 A3003 980 83 1400 210/09 RMK AO2
94908KDBQ DBQ20011114162509511/14/01 16:25:31  5-MIN KDBQ 142225Z 20009KT 5SM HZ CLR 16/13 A3003 980 83 1400 200/09 RMK AO2
94908KDBQ DBQ20011114163009811/14/01 16:30:31  5-MIN KDBQ 142230Z 20009KT 5SM HZ FEW110 16/13 A3003 970 83 1400 200/09 RMK AO2
94908KDBQ DBQ20011114163509811/14/01 16:35:31  5-MIN KDBQ 142235Z 20009KT 5SM BR FEW110 16/13 A3003 970 86 1300 200/09 RMK AO2
94908KDBQ DBQ20011114164009811/14/01 16:40:31  5-MIN KDBQ 142240Z 20009KT 5SM BR FEW110 16/13 A3003 970 86 1300 200/09 RMK AO2
94908KDBQ DBQ20011114164509811/14/01 16:45:31  5-MIN KDBQ 142245Z 20009KT 5SM BR FEW110 15/13 A3003 970 86 1200 200/09 RMK AO2
94908KDBQ DBQ20011114165011511/14/01 16:50:31  5-MIN KDBQ 142250Z 19009KT 5SM BR FEW110 15/13 A3003 970 86 1200 190/09 RMK AO2 SLP172 T01500128
94908KDBQ DBQ20011114165511511/14/01 16:55:31  5-MIN KDBQ 142255Z 19009KT 5SM BR FEW110 15/13 A3004 970 86 1200 190/09 RMK AO2 SLP172 T01500128
94908KDBQ DBQ20011114170009511/14/01 17:00:31  5-MIN KDBQ 142300Z 20009KT 6SM BR CLR 15/13 A3004 970 86 1200 200/09 RMK AO2
94908KDBQ DBQ20011114170509811/14/01 17:05:31  5-MIN KDBQ 142305Z 20009KT 6SM BR FEW065 14/13 A3004 970 90 1200 200/09 RMK AO2
94908KDBQ DBQ20011114171009811/14/01 17:10:31  5-MIN KDBQ 142310Z 20008KT 6SM BR FEW065 14/13 A3004 970 90 1200 200/08 RMK AO2
94908KDBQ DBQ20011114171509811/14/01 17:15:31  5-MIN KDBQ 142315Z 20009KT 6SM BR FEW065 14/13 A3004 970 90 1200 200/09 RMK AO2
94908KDBQ DBQ20011114172009811/14/01 17:20:31  5-MIN KDBQ 142320Z 20009KT 6SM BR SCT065 15/13 A3004 970 86 1200 200/09 RMK AO2
94908KDBQ DBQ20011114172509811/14/01 17:25:31  5-MIN KDBQ 142325Z 20008KT 6SM BR BKN065 15/13 A3004 970 86 1200 200/08 RMK AO2
94908KDBQ DBQ20011114173010511/14/01 17:30:31  5-MIN KDBQ 142330Z 20008KT 6SM BR SCT065 BKN095 14/13 A3004 960 90 1200 200/08 RMK AO2
94908KDBQ DBQ20011114173510511/14/01 17:35:31  5-MIN KDBQ 142335Z 20008KT 6SM BR SCT065 BKN100 14/13 A3004 960 90 1200 200/08 RMK AO2
94908KDBQ DBQ20011114174010511/14/01 17:40:31  5-MIN KDBQ 142340Z 20008KT 6SM BR SCT065 BKN095 14/13 A3005 960 90 1200 200/08 RMK AO2
94908KDBQ DBQ20011114174510511/14/01 17:45:31  5-MIN KDBQ 142345Z 21008KT 6SM BR FEW065 BKN095 14/13 A3005 960 90 1200 210/08 RMK AO2
94908KDBQ DBQ20011114175014011/14/01 17:50:31  5-MIN KDBQ 142350Z 21005KT 6SM BR FEW065 BKN095 14/13 A3005 960 90 1200 210/05 RMK AO2 SLP177 T01440128 10183 20144 56012
94908KDBQ DBQ20011114175513311/14/01 17:55:31  5-MIN KDBQ 142355Z 21006KT 6SM BR BKN100 15/13 A3005 960 86 1200 210/06 RMK AO2 SLP177 T01500128 10183 20144 53009
94908KDBQ DBQ20011114180010511/14/01 18:00:31  5-MIN KDBQ 150000Z 21006KT 6SM BR FEW033 BKN095 14/13 A3005 960 90 1200 210/06 RMK AO2
94908KDBQ DBQ20011114180510511/14/01 18:05:31  5-MIN KDBQ 150005Z 21006KT 6SM BR FEW033 BKN095 14/13 A3005 960 90 1200 210/06 RMK AO2
94908KDBQ DBQ20011114181010511/14/01 18:10:31  5-MIN KDBQ 150010Z 21007KT 6SM BR SCT033 BKN095 15/13 A3005 960 90 1200 210/07 RMK AO2
94908KDBQ DBQ20011114181510511/14/01 18:15:31  5-MIN KDBQ 150015Z 20007KT 6SM BR BKN033 OVC095 15/13 A3005 960 90 1200 200/07 RMK AO2
94908KDBQ DBQ20011114182010511/14/01 18:20:31  5-MIN KDBQ 150020Z 20008KT 6SM BR BKN035 OVC095 15/13 A3005 960 90 1200 200/08 RMK AO2
94908KDBQ DBQ20011114182510511/14/01 18:25:31  5-MIN KDBQ 150025Z 20008KT 6SM BR BKN035 OVC095 15/13 A3005 960 90 1200 200/08 RMK AO2
94908KDBQ DBQ20011114183009811/14/01 18:30:31  5-MIN KDBQ 150030Z 21008KT 6SM BR OVC033 16/13 A3005 960 86 1300 210/08 RMK AO2
94908KDBQ DBQ20011114183509811/14/01 18:35:31  5-MIN KDBQ 150035Z 20008KT 6SM BR OVC033 15/13 A3005 960 90 1200 200/08 RMK AO2
94908KDBQ DBQ20011114184009811/14/01 18:40:31  5-MIN KDBQ 150040Z 20009KT 6SM BR OVC035 15/13 A3005 960 90 1200 200/09 RMK AO2
94908KDBQ DBQ20011114184509811/14/01 18:45:31  5-MIN KDBQ 150045Z 21009KT 6SM BR OVC035 16/13 A3005 960 86 1300 210/09 RMK AO2
94908KDBQ DBQ20011114185011511/14/01 18:50:31  5-MIN KDBQ 150050Z 20009KT 6SM BR OVC035 16/13 A3004 960 86 1300 200/09 RMK AO2 SLP175 T01560133
94908KDBQ DBQ20011114185511511/14/01 18:55:31  5-MIN KDBQ 150055Z 20008KT 6SM BR OVC035 15/13 A3005 960 90 1200 200/08 RMK AO2 SLP175 T01500133
94908KDBQ DBQ20011114190009811/14/01 19:00:31  5-MIN KDBQ 150100Z 20009KT 6SM BR OVC035 15/13 A3004 960 90 1200 200/09 RMK AO2
94908KDBQ DBQ20011114190509811/14/01 19:05:31  5-MIN KDBQ 150105Z 20010KT 6SM BR OVC035 16/13 A3004 970 86 1300 200/10 RMK AO2
94908KDBQ DBQ20011114191009811/14/01 19:10:31  5-MIN KDBQ 150110Z 20012KT 6SM HZ OVC035 16/13 A3004 970 83 1400 200/12 RMK AO2
94908KDBQ DBQ20011114191509511/14/01 19:15:31  5-MIN KDBQ 150115Z 21011KT 7SM OVC035 16/13 A3004 960 83 1400 210/11 RMK AO2
94908KDBQ DBQ20011114192009511/14/01 19:20:31  5-MIN KDBQ 150120Z 21011KT 7SM OVC035 16/13 A3005 960 83 1400 210/11 RMK AO2
94908KDBQ DBQ20011114192509511/14/01 19:25:31  5-MIN KDBQ 150125Z 21011KT 7SM OVC035 16/13 A3005 960 83 1400 210/11 RMK AO2
94908KDBQ DBQ20011114193009511/14/01 19:30:31  5-MIN KDBQ 150130Z 21011KT 7SM OVC035 16/13 A3005 960 83 1400 210/11 RMK AO2
94908KDBQ DBQ20011114193510511/14/01 19:35:31  5-MIN KDBQ 150135Z AUTO 21011KT 7SM OVC035 16/13 A3005 960 83 1400 210/11 RMK AO2 TSNO
94908KDBQ DBQ20011114194010511/14/01 19:40:31  5-MIN KDBQ 150140Z AUTO 21010KT 7SM OVC035 16/13 A3005 960 83 1300 210/10 RMK AO2 TSNO
94908KDBQ DBQ20011114194510511/14/01 19:45:31  5-MIN KDBQ 150145Z AUTO 21011KT 7SM OVC035 16/13 A3005 960 83 1300 210/11 RMK AO2 TSNO
94908KDBQ DBQ20011114195012211/14/01 19:50:31  5-MIN KDBQ 150150Z AUTO 21010KT 7SM OVC035 16/13 A3005 950 83 1300 210/10 RMK AO2 SLP178 T01610133 TSNO
94908KDBQ DBQ20011114195512211/14/01 19:55:31  5-MIN KDBQ 150155Z AUTO 21011KT 7SM OVC035 16/13 A3005 950 83 1300 210/11 RMK AO2 SLP177 T01610133 TSNO
94908KDBQ DBQ20011114200010511/14/01 20:00:31  5-MIN KDBQ 150200Z AUTO 20011KT 7SM OVC037 16/13 A3005 960 83 1300 200/11 RMK AO2 TSNO
94908KDBQ DBQ20011114200510511/14/01 20:05:31  5-MIN KDBQ 150205Z AUTO 20012KT 7SM OVC037 16/13 A3006 950 83 1300 200/12 RMK AO2 TSNO
94908KDBQ DBQ20011114201010511/14/01 20:10:31  5-MIN KDBQ 150210Z AUTO 20011KT 7SM OVC037 16/13 A3006 950 83 1300 200/11 RMK AO2 TSNO
94908KDBQ DBQ20011114201510511/14/01 20:15:31  5-MIN KDBQ 150215Z AUTO 21011KT 7SM OVC039 16/13 A3006 950 83 1300 210/11 RMK AO2 TSNO
94908KDBQ DBQ20011114202010511/14/01 20:20:31  5-MIN KDBQ 150220Z AUTO 21011KT 7SM OVC041 16/13 A3006 950 83 1300 200/11 RMK AO2 TSNO
94908KDBQ DBQ20011114202510511/14/01 20:25:31  5-MIN KDBQ 150225Z AUTO 21011KT 7SM OVC041 16/13 A3006 950 83 1300 210/11 RMK AO2 TSNO
94908KDBQ DBQ20011114203010511/14/01 20:30:31  5-MIN KDBQ 150230Z AUTO 21009KT 7SM OVC043 16/13 A3006 950 83 1300 200/09 RMK AO2 TSNO
94908KDBQ DBQ20011114203511211/14/01 20:35:31  5-MIN KDBQ 150235Z AUTO 20009KT 7SM BKN043 OVC050 16/13 A3006 950 83 1300 200/09 RMK AO2 TSNO
94908KDBQ DBQ20011114204011211/14/01 20:40:31  5-MIN KDBQ 150240Z AUTO 20009KT 7SM BKN045 OVC055 16/13 A3006 950 86 1300 200/09 RMK AO2 TSNO
94908KDBQ DBQ20011114204511911/14/01 20:45:31  5-MIN KDBQ 150245Z AUTO 21009KT 7SM SCT042 BKN049 OVC055 16/13 A3006 950 83 1300 200/09 RMK AO2 TSNO
94908KDBQ DBQ20011114205013511/14/01 20:50:31  5-MIN KDBQ 150250Z AUTO 21008KT 7SM SCT042 OVC049 16/13 A3006 950 86 1300 210/08 RMK AO2 SLP180 T01560133 53009 TSNO
94908KDBQ DBQ20011114205513511/14/01 20:55:31  5-MIN KDBQ 150255Z AUTO 21009KT 7SM BKN042 OVC049 16/13 A3006 950 83 1300 210/09 RMK AO2 SLP180 T01610133 53004 TSNO
94908KDBQ DBQ20011114210011211/14/01 21:00:31  5-MIN KDBQ 150300Z AUTO 21009KT 7SM SCT042 OVC049 16/13 A3006 950 83 1300 210/09 RMK AO2 TSNO
94908KDBQ DBQ20011114210511211/14/01 21:05:31  5-MIN KDBQ 150305Z AUTO 20009KT 7SM SCT042 OVC049 16/13 A3006 950 86 1300 200/09 RMK AO2 TSNO
94908KDBQ DBQ20011114211011211/14/01 21:10:31  5-MIN KDBQ 150310Z AUTO 21009KT 7SM FEW042 OVC049 16/13 A3006 950 83 1300 200/09 RMK AO2 TSNO
94908KDBQ DBQ20011114211511211/14/01 21:15:31  5-MIN KDBQ 150315Z AUTO 20009KT 7SM SCT042 OVC049 16/13 A3006 950 83 1300 200/09 RMK AO2 TSNO
94908KDBQ DBQ20011114212011211/14/01 21:20:31  5-MIN KDBQ 150320Z AUTO 20009KT 7SM SCT043 OVC050 16/13 A3006 950 86 1300 200/09 RMK AO2 TSNO
94908KDBQ DBQ20011114212511211/14/01 21:25:31  5-MIN KDBQ 150325Z AUTO 20010KT 7SM BKN047 OVC055 16/13 A3006 950 86 1300 200/10 RMK AO2 TSNO
94908KDBQ DBQ20011114213011211/14/01 21:30:31  5-MIN KDBQ 150330Z AUTO 20010KT 7SM BKN045 OVC055 16/13 A3006 950 83 1300 200/10 RMK AO2 TSNO
94908KDBQ DBQ20011114213511211/14/01 21:35:31  5-MIN KDBQ 150335Z AUTO 19009KT 7SM BKN045 OVC055 16/13 A3006 950 83 1300 190/09 RMK AO2 TSNO
94908KDBQ DBQ20011114214011511/14/01 21:40:31  5-MIN KDBQ 150340Z AUTO 20010KT 6SM HZ BKN043 OVC060 16/13 A3006 950 83 1300 200/10 RMK AO2 TSNO
94908KDBQ DBQ20011114214512211/14/01 21:45:31  5-MIN KDBQ 150345Z AUTO 20009KT 6SM HZ BKN041 BKN049 OVC060 16/13 A3006 950 83 1300 200/09 RMK AO2 TSNO
94908KDBQ DBQ20011114215013911/14/01 21:50:31  5-MIN KDBQ 150350Z AUTO 20009KT 6SM HZ BKN035 BKN044 OVC060 16/13 A3006 950 83 1300 200/09 RMK AO2 SLP179 T01560128 TSNO
94908KDBQ DBQ20011114215513911/14/01 21:55:31  5-MIN KDBQ 150355Z AUTO 20009KT 6SM HZ BKN035 BKN044 OVC055 16/13 A3006 950 83 1300 200/09 RMK AO2 SLP179 T01560128 TSNO
94908KDBQ DBQ20011114220011511/14/01 22:00:31  5-MIN KDBQ 150400Z AUTO 20009KT 6SM HZ BKN038 OVC046 16/13 A3006 950 83 1300 200/09 RMK AO2 TSNO
94908KDBQ DBQ20011114220511511/14/01 22:05:31  5-MIN KDBQ 150405Z AUTO 19010KT 6SM HZ BKN035 OVC045 16/13 A3005 960 83 1300 190/10 RMK AO2 TSNO
94908KDBQ DBQ20011114221011511/14/01 22:10:31  5-MIN KDBQ 150410Z AUTO 19011KT 6SM BR BKN037 OVC047 15/13 A3005 960 86 1200 190/11 RMK AO2 TSNO
94908KDBQ DBQ20011114221512211/14/01 22:15:31  5-MIN KDBQ 150415Z AUTO 19011KT 6SM BR BKN037 BKN044 OVC050 15/13 A3005 960 86 1200 190/11 RMK AO2 TSNO
94908KDBQ DBQ20011114222011511/14/01 22:20:31  5-MIN KDBQ 150420Z AUTO 19010KT 6SM BR BKN037 BKN049 15/13 A3005 960 86 1200 190/10 RMK AO2 TSNO
94908KDBQ DBQ20011114222511511/14/01 22:25:31  5-MIN KDBQ 150425Z AUTO 20009KT 6SM HZ SCT039 BKN049 15/12 A3005 960 83 1200 200/09 RMK AO2 TSNO
94908KDBQ DBQ20011114223011511/14/01 22:30:31  5-MIN KDBQ 150430Z AUTO 20009KT 6SM BR BKN039 BKN049 14/12 A3005 960 86 1200 190/09 RMK AO2 TSNO
94908KDBQ DBQ20011114223511511/14/01 22:35:31  5-MIN KDBQ 150435Z AUTO 19010KT 6SM BR BKN041 BKN049 14/12 A3005 960 86 1200 190/10 RMK AO2 TSNO
94908KDBQ DBQ20011114224011511/14/01 22:40:31  5-MIN KDBQ 150440Z AUTO 19011KT 6SM BR BKN041 BKN050 14/12 A3005 960 86 1200 190/11 RMK AO2 TSNO
94908KDBQ DBQ20011114224511511/14/01 22:45:31  5-MIN KDBQ 150445Z AUTO 19010KT 6SM BR SCT041 BKN050 14/12 A3005 960 86 1200 190/10 RMK AO2 TSNO
94908KDBQ DBQ20011114225012511/14/01 22:50:31  5-MIN KDBQ 150450Z AUTO 19010KT 6SM BR SCT043 14/12 A3005 960 86 1200 190/10 RMK AO2 SLP176 T01440122 TSNO
94908KDBQ DBQ20011114225513211/14/01 22:55:31  5-MIN KDBQ 150455Z AUTO 19009KT 6SM BR SCT043 SCT050 14/12 A3005 960 90 1100 190/09 RMK AO2 SLP177 T01390122 TSNO
94908KDBQ DBQ20011114230012211/14/01 23:00:31  5-MIN KDBQ 150500Z AUTO 19010KT 6SM BR FEW032 SCT043 BKN050 14/12 A3005 960 90 1100 190/10 RMK AO2 TSNO
94908KDBQ DBQ20011114230511511/14/01 23:05:31  5-MIN KDBQ 150505Z AUTO 19009KT 6SM BR SCT032 BKN049 14/12 A3005 960 86 1200 190/09 RMK AO2 TSNO
94908KDBQ DBQ20011114231011511/14/01 23:10:31  5-MIN KDBQ 150510Z AUTO 19009KT 6SM BR FEW032 BKN049 14/12 A3005 960 90 1100 190/09 RMK AO2 TSNO
94908KDBQ DBQ20011114231511511/14/01 23:15:31  5-MIN KDBQ 150515Z AUTO 19008KT 6SM BR FEW032 BKN049 14/12 A3005 960 90 1100 190/08 RMK AO2 TSNO
94908KDBQ DBQ20011114232011511/14/01 23:20:31  5-MIN KDBQ 150520Z AUTO 19008KT 5SM BR FEW032 BKN049 14/12 A3005 950 90 1100 190/08 RMK AO2 TSNO
94908KDBQ DBQ20011114232512211/14/01 23:25:31  5-MIN KDBQ 150525Z AUTO 19009KT 5SM BR FEW032 BKN047 BKN055 14/12 A3005 960 90 1100 190/09 RMK AO2 TSNO
94908KDBQ DBQ20011114233012211/14/01 23:30:31  5-MIN KDBQ 150530Z AUTO 19009KT 5SM BR FEW034 SCT044 BKN050 14/12 A3005 950 90 1100 190/09 RMK AO2 TSNO
94908KDBQ DBQ20011114233512211/14/01 23:35:31  5-MIN KDBQ 150535Z AUTO 19009KT 5SM BR SCT034 SCT044 BKN055 14/12 A3005 960 90 1100 190/09 RMK AO2 TSNO
94908KDBQ DBQ20011114234012211/14/01 23:40:31  5-MIN KDBQ 150540Z AUTO 19008KT 5SM BR SCT034 BKN046 BKN060 14/12 A3005 950 86 1200 190/08 RMK AO2 TSNO
94908KDBQ DBQ20011114234512211/14/01 23:45:31  5-MIN KDBQ 150545Z AUTO 20008KT 6SM BR SCT034 BKN045 BKN090 14/12 A3006 950 86 1100 190/08 RMK AO2 TSNO
94908KDBQ DBQ20011114235016711/14/01 23:50:31  5-MIN KDBQ 150550Z AUTO 20009KT 6SM BR SCT034 BKN047 BKN060 14/12 A3006 950 86 1100 200/09 RMK AO2 SLP179 T01440122 10167 20139 401830117 53004 TSNO
94908KDBQ DBQ20011114235516711/14/01 23:55:31  5-MIN KDBQ 150555Z AUTO 20009KT 6SM BR SCT032 BKN041 BKN050 14/12 A3006 950 86 1100 200/09 RMK AO2 SLP179 T01440122 10167 20139 401830117 55001 TSNO
94908KDBQ DBQ20011115000012211/15/01 00:00:31  5-MIN KDBQ 150600Z AUTO 20009KT 6SM BR FEW030 SCT036 BKN046 14/13 A3006 950 90 1100 200/09 RMK AO2 TSNO
94908KDBQ DBQ20011115000512211/15/01 00:05:31  5-MIN KDBQ 150605Z AUTO 20009KT 6SM BR FEW030 SCT035 BKN046 14/12 A3006 950 86 1100 200/09 RMK AO2 TSNO
94908KDBQ DBQ20011115001012211/15/01 00:10:31  5-MIN KDBQ 150610Z AUTO 20009KT 6SM BR FEW030 SCT035 BKN046 14/13 A3006 950 90 1100 200/09 RMK AO2 TSNO
94908KDBQ DBQ20011115001512211/15/01 00:15:31  5-MIN KDBQ 150615Z AUTO 20009KT 6SM BR SCT035 BKN046 OVC095 14/13 A3006 950 90 1100 200/09 RMK AO2 TSNO
94908KDBQ DBQ20011115002011511/15/01 00:20:31  5-MIN KDBQ 150620Z AUTO 20009KT 6SM BR SCT035 OVC048 14/13 A3006 950 90 1100 200/09 RMK AO2 TSNO
94908KDBQ DBQ20011115002511511/15/01 00:25:31  5-MIN KDBQ 150625Z AUTO 20009KT 6SM BR SCT035 OVC048 15/13 A3006 950 86 1200 200/09 RMK AO2 TSNO
94908KDBQ DBQ20011115003011511/15/01 00:30:31  5-MIN KDBQ 150630Z AUTO 20009KT 6SM BR SCT036 OVC046 15/13 A3006 950 86 1200 200/09 RMK AO2 TSNO
94908KDBQ DBQ20011115003511511/15/01 00:35:31  5-MIN KDBQ 150635Z AUTO 21008KT 6SM BR SCT036 BKN046 14/12 A3006 950 86 1200 210/08 RMK AO2 TSNO
94908KDBQ DBQ20011115004011511/15/01 00:40:31  5-MIN KDBQ 150640Z AUTO 21009KT 6SM BR FEW038 SCT048 14/12 A3005 950 86 1200 210/09 RMK AO2 TSNO
94908KDBQ DBQ20011115004511511/15/01 00:45:31  5-MIN KDBQ 150645Z AUTO 21009KT 6SM BR FEW038 SCT048 14/12 A3005 960 86 1200 200/09 RMK AO2 TSNO
94908KDBQ DBQ20011115005013211/15/01 00:50:31  5-MIN KDBQ 150650Z AUTO 20009KT 6SM BR FEW038 SCT075 14/12 A3005 960 86 1200 200/09 RMK AO2 SLP176 T01440122 TSNO
94908KDBQ DBQ20011115005512511/15/01 00:55:31  5-MIN KDBQ 150655Z AUTO 21010KT 6SM BR FEW045 14/12 A3005 960 86 1200 210/10 RMK AO2 SLP176 T01440122 TSNO
94908KDBQ DBQ20011115010010811/15/01 01:00:31  5-MIN KDBQ 150700Z AUTO 21010KT 6SM BR FEW075 14/12 A3005 960 86 1200 210/10 RMK AO2 TSNO
94908KDBQ DBQ20011115010510811/15/01 01:05:31  5-MIN KDBQ 150705Z AUTO 21010KT 6SM BR FEW075 14/12 A3005 960 86 1200 210/10 RMK AO2 TSNO
94908KDBQ DBQ20011115011010811/15/01 01:10:31  5-MIN KDBQ 150710Z AUTO 21011KT 6SM BR FEW075 14/12 A3005 960 86 1200 210/11 RMK AO2 TSNO
94908KDBQ DBQ20011115011510511/15/01 01:15:31  5-MIN KDBQ 150715Z AUTO 21011KT 6SM BR CLR 14/12 A3005 960 86 1200 210/11 RMK AO2 TSNO
94908KDBQ DBQ20011115012010811/15/01 01:20:31  5-MIN KDBQ 150720Z AUTO 21010KT 6SM BR FEW029 14/12 A3005 960 86 1200 210/10 RMK AO2 TSNO
94908KDBQ DBQ20011115012510811/15/01 01:25:31  5-MIN KDBQ 150725Z AUTO 22009KT 6SM BR FEW029 14/12 A3005 960 86 1200 210/09 RMK AO2 TSNO
94908KDBQ DBQ20011115013010811/15/01 01:30:31  5-MIN KDBQ 150730Z AUTO 21009KT 5SM BR FEW029 14/12 A3005 960 86 1200 210/09 RMK AO2 TSNO
94908KDBQ DBQ20011115013512211/15/01 01:35:31  5-MIN KDBQ 150735Z AUTO 21009KT 5SM BR FEW029 SCT041 BKN050 14/12 A3005 960 86 1200 210/09 RMK AO2 TSNO
94908KDBQ DBQ20011115014012211/15/01 01:40:31  5-MIN KDBQ 150740Z AUTO 21010KT 5SM BR FEW029 SCT041 BKN050 14/12 A3005 960 86 1200 210/10 RMK AO2 TSNO
94908KDBQ DBQ20011115014512211/15/01 01:45:31  5-MIN KDBQ 150745Z AUTO 21009KT 5SM BR SCT031 BKN041 BKN050 14/12 A3005 960 86 1200 210/09 RMK AO2 TSNO
94908KDBQ DBQ20011115015013911/15/01 01:50:31  5-MIN KDBQ 150750Z AUTO 21009KT 5SM BR SCT031 BKN041 BKN050 14/12 A3005 960 86 1200 210/09 RMK AO2 SLP176 T01440122 TSNO
94908KDBQ DBQ20011115015513911/15/01 01:55:31  5-MIN KDBQ 150755Z AUTO 21009KT 5SM BR BKN031 BKN041 OVC050 14/12 A3005 950 86 1200 210/09 RMK AO2 SLP177 T01440122 TSNO
94908KDBQ DBQ20011115020012211/15/01 02:00:31  5-MIN KDBQ 150800Z AUTO 21009KT 5SM BR FEW027 BKN031 BKN041 14/12 A3006 950 86 1100 210/09 RMK AO2 TSNO
94908KDBQ DBQ20011115020512211/15/01 02:05:31  5-MIN KDBQ 150805Z AUTO 21009KT 5SM BR FEW027 SCT031 BKN041 14/12 A3006 950 86 1200 210/09 RMK AO2 TSNO
94908KDBQ DBQ20011115021011511/15/01 02:10:31  5-MIN KDBQ 150810Z AUTO 21009KT 5SM BR FEW027 SCT033 14/12 A3006 950 90 1100 210/09 RMK AO2 TSNO
94908KDBQ DBQ20011115021511511/15/01 02:15:31  5-MIN KDBQ 150815Z AUTO 21009KT 5SM BR FEW027 SCT033 14/12 A3006 950 90 1100 210/09 RMK AO2 TSNO
94908KDBQ DBQ20011115022010811/15/01 02:20:31  5-MIN KDBQ 150820Z AUTO 21009KT 5SM BR FEW027 14/12 A3006 950 90 1100 210/09 RMK AO2 TSNO
94908KDBQ DBQ20011115022510811/15/01 02:25:31  5-MIN KDBQ 150825Z AUTO 21010KT 5SM BR FEW033 14/12 A3005 960 90 1100 210/10 RMK AO2 TSNO
94908KDBQ DBQ20011115023010511/15/01 02:30:31  5-MIN KDBQ 150830Z AUTO 21010KT 5SM BR CLR 14/12 A3005 960 90 1100 210/10 RMK AO2 TSNO
94908KDBQ DBQ20011115023510511/15/01 02:35:31  5-MIN KDBQ 150835Z AUTO 22009KT 5SM BR CLR 14/12 A3005 960 90 1100 210/09 RMK AO2 TSNO
94908KDBQ DBQ20011115024010511/15/01 02:40:31  5-MIN KDBQ 150840Z AUTO 21009KT 5SM BR CLR 14/12 A3005 960 90 1100 210/09 RMK AO2 TSNO
94908KDBQ DBQ20011115024510511/15/01 02:45:31  5-MIN KDBQ 150845Z AUTO 21009KT 5SM BR CLR 14/12 A3005 960 90 1100 210/09 RMK AO2 TSNO
94908KDBQ DBQ20011115025012811/15/01 02:50:31  5-MIN KDBQ 150850Z AUTO 21009KT 5SM BR CLR 14/12 A3005 960 90 1100 210/09 RMK AO2 SLP174 T01390122 55001 TSNO
94908KDBQ DBQ20011115025513111/15/01 02:55:31  5-MIN KDBQ 150855Z AUTO 21009KT 5SM BR FEW032 14/12 A3005 960 90 1100 210/09 RMK AO2 SLP174 T01390122 57004 TSNO
94908KDBQ DBQ20011115030010811/15/01 03:00:31  5-MIN KDBQ 150900Z AUTO 21008KT 5SM BR FEW032 14/12 A3005 960 90 1100 210/08 RMK AO2 TSNO
94908KDBQ DBQ20011115030510811/15/01 03:05:31  5-MIN KDBQ 150905Z AUTO 21009KT 5SM BR FEW026 14/12 A3005 960 90 1100 210/09 RMK AO2 TSNO
94908KDBQ DBQ20011115031010811/15/01 03:10:31  5-MIN KDBQ 150910Z AUTO 21008KT 5SM BR SCT029 14/12 A3005 960 90 1100 210/08 RMK AO2 TSNO
94908KDBQ DBQ20011115031511511/15/01 03:15:31  5-MIN KDBQ 150915Z AUTO 22008KT 5SM BR SCT025 BKN032 14/12 A3005 960 90 1100 220/08 RMK AO2 TSNO
94908KDBQ DBQ20011115032011511/15/01 03:20:31  5-MIN KDBQ 150920Z AUTO 22008KT 5SM BR SCT025 BKN032 14/12 A3005 960 90 1100 220/08 RMK AO2 TSNO
94908KDBQ DBQ20011115032511511/15/01 03:25:31  5-MIN KDBQ 150925Z AUTO 22008KT 4SM BR SCT025 BKN032 13/12 A3005 960 93 1000 220/08 RMK AO2 TSNO
94908KDBQ DBQ20011115033011511/15/01 03:30:31  5-MIN KDBQ 150930Z AUTO 22007KT 4SM BR SCT025 SCT032 13/12 A3004 960 93 1000 220/07 RMK AO2 TSNO
94908KDBQ DBQ20011115033511511/15/01 03:35:31  5-MIN KDBQ 150935Z AUTO 21007KT 4SM BR FEW025 SCT032 13/12 A3004 960 93 1000 210/07 RMK AO2 TSNO
94908KDBQ DBQ20011115034010811/15/01 03:40:31  5-MIN KDBQ 150940Z AUTO 21006KT 4SM BR FEW023 13/12 A3004 960 93 1000 200/06 RMK AO2 TSNO
94908KDBQ DBQ20011115034510811/15/01 03:45:31  5-MIN KDBQ 150945Z AUTO 21007KT 4SM BR FEW023 13/12 A3004 960 93 1000 210/07 RMK AO2 TSNO
94908KDBQ DBQ20011115035012211/15/01 03:50:31  5-MIN KDBQ 150950Z AUTO 21007KT 4SM BR CLR 13/12 A3004 960 93 1000 210/07 RMK AO2 SLP174 T01280117 TSNO
94908KDBQ DBQ20011115035512211/15/01 03:55:31  5-MIN KDBQ 150955Z AUTO 21007KT 4SM BR CLR 13/12 A3004 960 93 1000 210/07 RMK AO2 SLP174 T01280117 TSNO
94908KDBQ DBQ20011115040010511/15/01 04:00:31  5-MIN KDBQ 151000Z AUTO 21006KT 4SM BR CLR 13/12 A3004 960 93 1000 210/06 RMK AO2 TSNO
94908KDBQ DBQ20011115040510511/15/01 04:05:31  5-MIN KDBQ 151005Z AUTO 21006KT 4SM BR CLR 13/12 A3004 960 93 1000 210/06 RMK AO2 TSNO
94908KDBQ DBQ20011115041010411/15/01 04:10:31  5-MIN KDBQ 151010Z AUTO 21007KT 4SM BR CLR 12/12 A3004 960 96 900 210/07 RMK AO2 TSNO
94908KDBQ DBQ20011115041510411/15/01 04:15:31  5-MIN KDBQ 151015Z AUTO 21007KT 4SM BR CLR 12/12 A3004 960 96 900 200/07 RMK AO2 TSNO
94908KDBQ DBQ20011115042010411/15/01 04:20:31  5-MIN KDBQ 151020Z AUTO 21007KT 4SM BR CLR 12/12 A3004 960 96 900 200/07 RMK AO2 TSNO
94908KDBQ DBQ20011115042510411/15/01 04:25:31  5-MIN KDBQ 151025Z AUTO 21006KT 4SM BR CLR 12/12 A3004 960 96 900 210/06 RMK AO2 TSNO
94908KDBQ DBQ20011115043010411/15/01 04:30:31  5-MIN KDBQ 151030Z AUTO 21006KT 3SM BR CLR 12/12 A3004 960 96 900 210/06 RMK AO2 TSNO
94908KDBQ DBQ20011115043510411/15/01 04:35:31  5-MIN KDBQ 151035Z AUTO 21005KT 3SM BR CLR 12/12 A3004 960 96 900 210/05 RMK AO2 TSNO
94908KDBQ DBQ20011115044010411/15/01 04:40:31  5-MIN KDBQ 151040Z AUTO 21006KT 3SM BR CLR 12/12 A3005 960 96 900 210/06 RMK AO2 TSNO
94908KDBQ DBQ20011115044510711/15/01 04:45:31  5-MIN KDBQ 151045Z AUTO 21005KT 3SM BR FEW031 12/12 A3005 960 96 900 210/05 RMK AO2 TSNO
94908KDBQ DBQ20011115045012511/15/01 04:50:31  5-MIN KDBQ 151050Z AUTO 21005KT 3SM BR SCT031 13/12 A3005 960 93 1000 210/05 RMK AO2 SLP177 T01280117 TSNO
94908KDBQ DBQ20011115045512511/15/01 04:55:31  5-MIN KDBQ 151055Z AUTO 21006KT 3SM BR BKN033 13/12 A3005 960 96 1000 210/06 RMK AO2 SLP177 T01280122 TSNO
94908KDBQ DBQ20011115050011511/15/01 05:00:31  5-MIN KDBQ 151100Z AUTO 21005KT 3SM BR FEW021 BKN033 13/12 A3005 960 96 1000 210/05 RMK AO2 TSNO
94908KDBQ DBQ20011115050511511/15/01 05:05:31  5-MIN KDBQ 151105Z AUTO 21006KT 3SM BR SCT021 BKN033 13/12 A3005 960 96 1000 210/06 RMK AO2 TSNO
94908KDBQ DBQ20011115051011511/15/01 05:10:31  5-MIN KDBQ 151110Z AUTO 21007KT 3SM BR SCT023 OVC033 13/12 A3005 960 93 1000 210/07 RMK AO2 TSNO
94908KDBQ DBQ20011115051511511/15/01 05:15:31  5-MIN KDBQ 151115Z AUTO 21007KT 4SM BR SCT021 OVC033 13/12 A3005 960 93 1000 210/07 RMK AO2 TSNO
94908KDBQ DBQ20011115052012211/15/01 05:20:31  5-MIN KDBQ 151120Z AUTO 21006KT 4SM BR SCT021 BKN033 OVC040 13/13 A3005 960 96 1000 210/06 RMK AO2 TSNO
94908KDBQ DBQ20011115052512211/15/01 05:25:31  5-MIN KDBQ 151125Z AUTO 21006KT 4SM BR SCT019 SCT024 OVC036 13/13 A3005 960 96 1000 210/06 RMK AO2 TSNO
94908KDBQ DBQ20011115053012211/15/01 05:30:31  5-MIN KDBQ 151130Z AUTO 21006KT 4SM BR SCT019 BKN024 OVC036 13/13 A3005 960 96 1000 210/06 RMK AO2 TSNO
94908KDBQ DBQ20011115053512211/15/01 05:35:31  5-MIN KDBQ 151135Z AUTO 21006KT 4SM BR BKN019 BKN028 OVC037 13/13 A3005 950 96 1000 210/06 RMK AO2 TSNO
94908KDBQ DBQ20011115054012211/15/01 05:40:31  5-MIN KDBQ 151140Z AUTO 22006KT 4SM BR BKN019 BKN030 OVC039 13/13 A3005 950 96 1000 210/06 RMK AO2 TSNO
94908KDBQ DBQ20011115054511511/15/01 05:45:31  5-MIN KDBQ 151145Z AUTO 22006KT 4SM BR BKN019 OVC039 14/13 A3005 950 93 1100 220/06 RMK AO2 TSNO
94908KDBQ DBQ20011115055013311/15/01 05:50:31  5-MIN KDBQ 151150Z 22006KT 4SM BR OVC019 14/13 A3005 950 93 1100 220/06 RMK AO2 SLP178 T01390128 10150 20122 57004
94908KDBQ DBQ20011115055513311/15/01 05:55:31  5-MIN KDBQ 151155Z 22006KT 4SM BR OVC019 14/13 A3006 950 93 1100 220/06 RMK AO2 SLP178 T01390128 10150 20122 53002
94908KDBQ DBQ20011115060009811/15/01 06:00:31  5-MIN KDBQ 151200Z 22006KT 4SM BR OVC017 14/13 A3005 950 93 1100 220/06 RMK AO2
94908KDBQ DBQ20011115060509811/15/01 06:05:31  5-MIN KDBQ 151205Z 22006KT 4SM BR OVC017 14/13 A3005 960 93 1100 220/06 RMK AO2
94908KDBQ DBQ20011115061009811/15/01 06:10:31  5-MIN KDBQ 151210Z 21007KT 4SM BR OVC017 14/13 A3005 960 93 1100 210/07 RMK AO2
94908KDBQ DBQ20011115061509811/15/01 06:15:31  5-MIN KDBQ 151215Z 21007KT 4SM BR OVC017 14/13 A3005 950 93 1100 210/07 RMK AO2
94908KDBQ DBQ20011115062009811/15/01 06:20:31  5-MIN KDBQ 151220Z 22007KT 4SM BR OVC017 14/13 A3006 950 93 1100 220/07 RMK AO2
94908KDBQ DBQ20011115062509811/15/01 06:25:31  5-MIN KDBQ 151225Z 22006KT 4SM BR OVC017 14/13 A3006 950 93 1100 220/06 RMK AO2
94908KDBQ DBQ20011115063009811/15/01 06:30:31  5-MIN KDBQ 151230Z 22006KT 4SM BR OVC017 14/13 A3006 950 93 1100 220/06 RMK AO2
94908KDBQ DBQ20011115063509811/15/01 06:35:31  5-MIN KDBQ 151235Z 22007KT 4SM BR OVC015 14/13 A3005 950 93 1100 220/07 RMK AO2
94908KDBQ DBQ20011115064009811/15/01 06:40:31  5-MIN KDBQ 151240Z 22007KT 4SM BR OVC015 14/13 A3006 950 93 1100 220/07 RMK AO2
94908KDBQ DBQ20011115064509811/15/01 06:45:31  5-MIN KDBQ 151245Z 22007KT 4SM BR OVC015 14/13 A3006 950 93 1100 220/07 RMK AO2
94908KDBQ DBQ20011115065011511/15/01 06:50:31  5-MIN KDBQ 151250Z 23006KT 4SM BR OVC015 14/13 A3006 950 93 1100 230/06 RMK AO2 SLP179 T01440133
94908KDBQ DBQ20011115065511511/15/01 06:55:31  5-MIN KDBQ 151255Z 23006KT 4SM BR OVC015 14/13 A3006 950 96 1100 230/06 RMK AO2 SLP179 T01390133
94908KDBQ DBQ20011115070009811/15/01 07:00:31  5-MIN KDBQ 151300Z 23006KT 4SM BR OVC015 14/13 A3006 950 96 1100 230/06 RMK AO2
94908KDBQ DBQ20011115070509811/15/01 07:05:31  5-MIN KDBQ 151305Z 23006KT 3SM BR OVC015 14/13 A3006 950 96 1100 230/06 RMK AO2
94908KDBQ DBQ20011115071010211/15/01 07:10:31  5-MIN KDBQ 151310Z 23006KT 2 1/2SM BR OVC015 14/13 A3006 940 96 1100 230/06 RMK AO2
94908KDBQ DBQ20011115071510211/15/01 07:15:31  5-MIN KDBQ 151315Z 23006KT 2 1/2SM BR OVC015 14/13 A3006 950 93 1100 230/06 RMK AO2
94908KDBQ DBQ20011115072010211/15/01 07:20:31  5-MIN KDBQ 151320Z 23006KT 2 1/2SM BR OVC015 14/13 A3006 950 93 1100 230/06 RMK AO2
94908KDBQ DBQ20011115072510211/15/01 07:25:31  5-MIN KDBQ 151325Z 22006KT 2 1/2SM BR OVC015 14/13 A3007 940 93 1100 220/06 RMK AO2
94908KDBQ DBQ20011115073010211/15/01 07:30:31  5-MIN KDBQ 151330Z 22006KT 2 1/2SM BR OVC015 14/13 A3007 940 93 1100 220/06 RMK AO2
94908KDBQ DBQ20011115073510211/15/01 07:35:31  5-MIN KDBQ 151335Z 22006KT 2 1/2SM BR OVC015 14/13 A3007 940 93 1100 220/06 RMK AO2
94908KDBQ DBQ20011115074010211/15/01 07:40:31  5-MIN KDBQ 151340Z 21006KT 2 1/2SM BR OVC015 14/13 A3007 940 93 1100 210/06 RMK AO2
94908KDBQ DBQ20011115074510211/15/01 07:45:31  5-MIN KDBQ 151345Z 21006KT 2 1/2SM BR OVC015 14/13 A3007 940 93 1100 210/06 RMK AO2
94908KDBQ DBQ20011115075011911/15/01 07:50:31  5-MIN KDBQ 151350Z 21006KT 2 1/2SM BR OVC015 14/13 A3007 940 93 1100 210/06 RMK AO2 SLP181 T01440133
94908KDBQ DBQ20011115075511911/15/01 07:55:31  5-MIN KDBQ 151355Z 22006KT 2 1/2SM BR OVC013 14/13 A3007 940 93 1100 220/06 RMK AO2 SLP182 T01440133
94908KDBQ DBQ20011115080010211/15/01 08:00:31  5-MIN KDBQ 151400Z 22006KT 2 1/2SM BR OVC013 14/13 A3007 940 93 1100 220/06 RMK AO2
94908KDBQ DBQ20011115080510211/15/01 08:05:31  5-MIN KDBQ 151405Z 22007KT 2 1/2SM BR OVC013 14/13 A3007 940 93 1100 210/07 RMK AO2
94908KDBQ DBQ20011115081010211/15/01 08:10:31  5-MIN KDBQ 151410Z 21006KT 2 1/2SM BR OVC013 14/13 A3007 940 93 1100 210/06 RMK AO2
94908KDBQ DBQ20011115081510211/15/01 08:15:31  5-MIN KDBQ 151415Z 21006KT 2 1/2SM BR OVC013 14/13 A3007 940 93 1100 210/06 RMK AO2
94908KDBQ DBQ20011115082010211/15/01 08:20:31  5-MIN KDBQ 151420Z 21006KT 2 1/2SM BR OVC013 14/13 A3007 940 93 1100 210/06 RMK AO2
94908KDBQ DBQ20011115082510211/15/01 08:25:31  5-MIN KDBQ 151425Z 21007KT 2 1/2SM BR OVC013 14/13 A3007 940 93 1100 210/07 RMK AO2
94908KDBQ DBQ20011115083010211/15/01 08:30:31  5-MIN KDBQ 151430Z 22007KT 2 1/2SM BR OVC013 14/13 A3007 940 93 1100 210/07 RMK AO2
94908KDBQ DBQ20011115083510211/15/01 08:35:31  5-MIN KDBQ 151435Z 22006KT 2 1/2SM BR OVC013 14/13 A3008 930 93 1100 210/06 RMK AO2
94908KDBQ DBQ20011115084010211/15/01 08:40:31  5-MIN KDBQ 151440Z 22006KT 2 1/2SM BR OVC011 14/13 A3008 930 93 1100 220/06 RMK AO2
94908KDBQ DBQ20011115084510211/15/01 08:45:31  5-MIN KDBQ 151445Z 22006KT 2 1/2SM BR OVC011 14/13 A3008 930 93 1100 220/06 RMK AO2
94908KDBQ DBQ20011115085012511/15/01 08:50:31  5-MIN KDBQ 151450Z 21006KT 2 1/2SM BR OVC011 14/13 A3008 930 93 1100 210/06 RMK AO2 SLP185 T01440133 53002
94908KDBQ DBQ20011115085512511/15/01 08:55:31  5-MIN KDBQ 151455Z 22007KT 2 1/2SM BR OVC011 14/13 A3008 930 93 1100 220/07 RMK AO2 SLP184 T01440133 53007
94908KDBQ DBQ20011115090010211/15/01 09:00:31  5-MIN KDBQ 151500Z 22007KT 2 1/2SM BR OVC011 14/13 A3008 930 93 1100 220/07 RMK AO2
94908KDBQ DBQ20011115090510211/15/01 09:05:31  5-MIN KDBQ 151505Z 23008KT 2 1/2SM BR OVC011 15/13 A3008 930 90 1200 230/08 RMK AO2
94908KDBQ DBQ20011115091010211/15/01 09:10:31  5-MIN KDBQ 151510Z 23010KT 2 1/2SM BR OVC011 15/13 A3008 930 90 1200 230/10 RMK AO2
94908KDBQ DBQ20011115091510211/15/01 09:15:31  5-MIN KDBQ 151515Z 23008KT 2 1/2SM BR OVC011 15/13 A3008 930 90 1200 230/08 RMK AO2
94908KDBQ DBQ20011115092010211/15/01 09:20:31  5-MIN KDBQ 151520Z 22010KT 2 1/2SM BR OVC011 15/14 A3008 930 93 1200 220/10 RMK AO2
94908KDBQ DBQ20011115092510211/15/01 09:25:31  5-MIN KDBQ 151525Z 23009KT 2 1/2SM BR OVC009 15/14 A3008 940 93 1200 230/09 RMK AO2
94908KDBQ DBQ20011115093010211/15/01 09:30:31  5-MIN KDBQ 151530Z 24009KT 2 1/2SM BR OVC009 15/14 A3008 930 93 1200 230/09 RMK AO2
94908KDBQ DBQ20011115093510211/15/01 09:35:31  5-MIN KDBQ 151535Z 23010KT 2 1/2SM BR OVC009 15/14 A3008 930 93 1200 230/10 RMK AO2
94908KDBQ DBQ20011115094009811/15/01 09:40:31  5-MIN KDBQ 151540Z 24008KT 3SM BR OVC009 16/14 A3008 940 90 1300 240/08 RMK AO2
94908KDBQ DBQ20011115094509811/15/01 09:45:31  5-MIN KDBQ 151545Z 24010KT 3SM BR OVC009 16/14 A3007 940 90 1300 240/10 RMK AO2
94908KDBQ DBQ20011115095011511/15/01 09:50:31  5-MIN KDBQ 151550Z 24011KT 3SM BR OVC009 16/14 A3008 930 90 1300 240/11 RMK AO2 SLP184 T01560139
94908KDBQ DBQ20011115095511511/15/01 09:55:31  5-MIN KDBQ 151555Z 25012KT 3SM BR OVC009 16/14 A3008 930 90 1300 240/12 RMK AO2 SLP185 T01560139
94908KDBQ DBQ20011115100009811/15/01 10:00:31  5-MIN KDBQ 151600Z 25012KT 3SM BR OVC009 16/14 A3008 930 90 1300 250/12 RMK AO2
94908KDBQ DBQ20011115100509811/15/01 10:05:31  5-MIN KDBQ 151605Z 24011KT 3SM BR OVC009 16/14 A3008 930 90 1300 240/11 RMK AO2
94908KDBQ DBQ20011115101009811/15/01 10:10:31  5-MIN KDBQ 151610Z 25011KT 3SM BR OVC009 16/14 A3008 930 90 1300 250/11 RMK AO2
94908KDBQ DBQ20011115101509811/15/01 10:15:31  5-MIN KDBQ 151615Z 25010KT 3SM BR OVC009 16/14 A3008 930 90 1300 250/10 RMK AO2
94908KDBQ DBQ20011115102009811/15/01 10:20:31  5-MIN KDBQ 151620Z 25013KT 3SM BR OVC009 16/14 A3008 930 90 1300 250/13 RMK AO2
94908KDBQ DBQ20011115102509811/15/01 10:25:31  5-MIN KDBQ 151625Z 25014KT 3SM BR OVC009 16/14 A3008 930 90 1300 250/14 RMK AO2
94908KDBQ DBQ20011115103009811/15/01 10:30:31  5-MIN KDBQ 151630Z 25013KT 3SM BR OVC009 16/14 A3008 930 90 1300 240/13 RMK AO2
94908KDBQ DBQ20011115103509811/15/01 10:35:31  5-MIN KDBQ 151635Z 25011KT 3SM BR OVC009 16/14 A3007 940 90 1300 250/11 RMK AO2
94908KDBQ DBQ20011115104009811/15/01 10:40:31  5-MIN KDBQ 151640Z 25012KT 3SM BR OVC009 16/14 A3007 940 90 1300 240/12 RMK AO2
94908KDBQ DBQ20011115104509811/15/01 10:45:31  5-MIN KDBQ 151645Z 25009KT 3SM BR OVC009 16/14 A3007 940 90 1300 250/09 RMK AO2
94908KDBQ DBQ20011115105011511/15/01 10:50:31  5-MIN KDBQ 151650Z 24012KT 3SM BR OVC009 16/14 A3007 940 90 1300 240/12 RMK AO2 SLP182 T01560139
94908KDBQ DBQ20011115105511511/15/01 10:55:31  5-MIN KDBQ 151655Z 24011KT 3SM BR OVC009 16/14 A3007 940 86 1300 240/11 RMK AO2 SLP182 T01610139
94908KDBQ DBQ20011115110009811/15/01 11:00:31  5-MIN KDBQ 151700Z 24013KT 3SM BR OVC009 16/14 A3007 940 90 1300 240/13 RMK AO2
94908KDBQ DBQ20011115110509811/15/01 11:05:31  5-MIN KDBQ 151705Z 25013KT 3SM BR OVC009 16/14 A3006 950 86 1300 250/13 RMK AO2
94908KDBQ DBQ20011115111009811/15/01 11:10:31  5-MIN KDBQ 151710Z 24013KT 3SM BR OVC009 16/14 A3006 950 86 1300 240/13 RMK AO2
94908KDBQ DBQ20011115111509811/15/01 11:15:31  5-MIN KDBQ 151715Z 24012KT 3SM BR OVC009 16/14 A3006 950 86 1300 240/12 RMK AO2
94908KDBQ DBQ20011115112009811/15/01 11:20:31  5-MIN KDBQ 151720Z 24014KT 3SM BR OVC009 16/14 A3006 950 86 1300 240/14 RMK AO2
94908KDBQ DBQ20011115112511011/15/01 11:25:31  5-MIN KDBQ 151725Z 24013KT 3SM BR OVC009 16/14 A3005 960 86 1400 240/13 RMK AO2 CIG 008V012
94908KDBQ DBQ20011115113009811/15/01 11:30:31  5-MIN KDBQ 151730Z 24012KT 3SM BR OVC009 17/14 A3005 960 86 1400 240/12 RMK AO2
94908KDBQ DBQ20011115113511011/15/01 11:35:31  5-MIN KDBQ 151735Z 24014KT 3SM BR OVC009 17/14 A3005 960 86 1400 240/14 RMK AO2 CIG 009V014
94908KDBQ DBQ20011115114009811/15/01 11:40:31  5-MIN KDBQ 151740Z 24013KT 3SM HZ OVC009 17/14 A3005 960 83 1400 240/13 RMK AO2
94908KDBQ DBQ20011115114509811/15/01 11:45:31  5-MIN KDBQ 151745Z 24012KT 3SM BR OVC011 17/14 A3005 960 86 1400 230/12 RMK AO2
94908KDBQ DBQ20011115115013311/15/01 11:50:31  5-MIN KDBQ 151750Z 25012KT 4SM HZ OVC011 17/14 A3005 960 83 1500 250/12 RMK AO2 SLP175 T01720144 10172 20139 53007
94908KDBQ DBQ20011115115513311/15/01 11:55:31  5-MIN KDBQ 151755Z 25011KT 4SM BR BKN011 17/14 A3005 960 86 1400 250/11 RMK AO2 SLP175 T01670144 10172 20139 58008
94908KDBQ DBQ20011115120009811/15/01 12:00:31  5-MIN KDBQ 151800Z 25014KT 4SM HZ BKN011 17/14 A3005 960 83 1500 250/14 RMK AO2
94908KDBQ DBQ20011115120509811/15/01 12:05:31  5-MIN KDBQ 151805Z 25012KT 4SM HZ BKN013 17/14 A3005 960 83 1500 250/12 RMK AO2
94908KDBQ DBQ20011115121009811/15/01 12:10:31  5-MIN KDBQ 151810Z 25012KT 4SM HZ BKN013 17/14 A3005 960 83 1500 250/12 RMK AO2
94908KDBQ DBQ20011115121509811/15/01 12:15:31  5-MIN KDBQ 151815Z 24013KT 4SM HZ BKN013 17/14 A3005 960 83 1500 240/13 RMK AO2
94908KDBQ DBQ20011115122009811/15/01 12:20:31  5-MIN KDBQ 151820Z 25011KT 4SM HZ BKN013 18/14 A3005 960 81 1600 250/11 RMK AO2
94908KDBQ DBQ20011115122509811/15/01 12:25:31  5-MIN KDBQ 151825Z 26010KT 4SM HZ OVC013 17/14 A3004 960 83 1500 260/10 RMK AO2
94908KDBQ DBQ20011115123009811/15/01 12:30:31  5-MIN KDBQ 151830Z 25011KT 4SM HZ BKN013 17/14 A3004 970 83 1500 250/11 RMK AO2
94908KDBQ DBQ20011115123509811/15/01 12:35:31  5-MIN KDBQ 151835Z 25011KT 4SM HZ BKN015 17/14 A3004 970 80 1500 250/11 RMK AO2
94908KDBQ DBQ20011115124009811/15/01 12:40:31  5-MIN KDBQ 151840Z 25011KT 4SM HZ BKN015 17/14 A3004 970 80 1500 250/11 RMK AO2
94908KDBQ DBQ20011115124509811/15/01 12:45:31  5-MIN KDBQ 151845Z 26010KT 4SM HZ BKN015 18/14 A3004 970 81 1600 260/10 RMK AO2
94908KDBQ DBQ20011115125011511/15/01 12:50:31  5-MIN KDBQ 151850Z 25010KT 4SM HZ OVC015 18/14 A3004 970 81 1600 250/10 RMK AO2 SLP171 T01780144
94908KDBQ DBQ20011115125511511/15/01 12:55:31  5-MIN KDBQ 151855Z 25012KT 4SM HZ OVC017 18/14 A3004 970 81 1600 250/12 RMK AO2 SLP170 T01780144
94908KDBQ DBQ20011115130009811/15/01 13:00:31  5-MIN KDBQ 151900Z 25011KT 4SM HZ OVC017 18/14 A3003 970 81 1600 250/11 RMK AO2
94908KDBQ DBQ20011115130509811/15/01 13:05:31  5-MIN KDBQ 151905Z 24012KT 4SM HZ OVC017 18/14 A3003 980 81 1600 240/12 RMK AO2
94908KDBQ DBQ20011115131009811/15/01 13:10:31  5-MIN KDBQ 151910Z 25011KT 4SM HZ OVC017 18/14 A3003 980 78 1600 250/11 RMK AO2
94908KDBQ DBQ20011115131509811/15/01 13:15:31  5-MIN KDBQ 151915Z 25011KT 4SM HZ OVC017 18/14 A3003 980 78 1600 250/11 RMK AO2
94908KDBQ DBQ20011115132009811/15/01 13:20:31  5-MIN KDBQ 151920Z 25011KT 4SM HZ OVC017 17/14 A3003 980 80 1500 250/11 RMK AO2
94908KDBQ DBQ20011115132509811/15/01 13:25:31  5-MIN KDBQ 151925Z 24014KT 4SM HZ OVC017 17/14 A3003 980 80 1500 240/14 RMK AO2
94908KDBQ DBQ20011115133009811/15/01 13:30:31  5-MIN KDBQ 151930Z 25009KT 4SM HZ OVC017 17/14 A3003 980 80 1500 250/09 RMK AO2
94908KDBQ DBQ20011115133509811/15/01 13:35:31  5-MIN KDBQ 151935Z 25012KT 4SM HZ OVC017 17/14 A3003 980 80 1500 250/12 RMK AO2
94908KDBQ DBQ20011115134009811/15/01 13:40:31  5-MIN KDBQ 151940Z 24011KT 4SM HZ OVC017 18/14 A3003 980 78 1600 240/11 RMK AO2
94908KDBQ DBQ20011115134509811/15/01 13:45:31  5-MIN KDBQ 151945Z 25014KT 4SM HZ OVC017 18/14 A3003 980 81 1600 250/14 RMK AO2
94908KDBQ DBQ20011115135011511/15/01 13:50:31  5-MIN KDBQ 151950Z 25012KT 4SM HZ BKN015 17/14 A3002 980 80 1500 250/12 RMK AO2 SLP166 T01720139
94908KDBQ DBQ20011115135511511/15/01 13:55:31  5-MIN KDBQ 151955Z 25013KT 4SM HZ BKN015 17/14 A3002 980 80 1500 250/13 RMK AO2 SLP165 T01720139
94908KDBQ DBQ20011115140009811/15/01 14:00:31  5-MIN KDBQ 152000Z 25013KT 4SM HZ BKN015 17/14 A3002 990 83 1500 250/13 RMK AO2
94908KDBQ DBQ20011115140509811/15/01 14:05:31  5-MIN KDBQ 152005Z 23013KT 4SM HZ BKN015 17/14 A3002 990 80 1500 230/13 RMK AO2
94908KDBQ DBQ20011115141009811/15/01 14:10:31  5-MIN KDBQ 152010Z 24014KT 4SM HZ BKN015 17/14 A3002 990 80 1500 240/14 RMK AO2
94908KDBQ DBQ20011115141509811/15/01 14:15:31  5-MIN KDBQ 152015Z 24012KT 4SM HZ BKN015 17/14 A3001 990 80 1500 240/12 RMK AO2
94908KDBQ DBQ20011115142009811/15/01 14:20:31  5-MIN KDBQ 152020Z 23015KT 4SM HZ BKN015 17/14 A3001 990 80 1500 230/15 RMK AO2
94908KDBQ DBQ20011115142509911/15/01 14:25:31  5-MIN KDBQ 152025Z 24014KT 4SM HZ BKN015 17/14 A3001 1000 80 1500 240/14 RMK AO2
94908KDBQ DBQ20011115143009811/15/01 14:30:31  5-MIN KDBQ 152030Z 25013KT 4SM HZ BKN015 17/14 A3001 990 80 1500 240/13 RMK AO2
94908KDBQ DBQ20011115143509811/15/01 14:35:31  5-MIN KDBQ 152035Z 24011KT 4SM HZ BKN015 17/14 A3001 990 80 1500 240/11 RMK AO2
94908KDBQ DBQ20011115144009811/15/01 14:40:31  5-MIN KDBQ 152040Z 25011KT 4SM HZ BKN015 17/14 A3001 990 80 1500 250/11 RMK AO2
94908KDBQ DBQ20011115144510311/15/01 14:45:31  5-MIN KDBQ 152045Z AUTO 25011KT 4SM HZ BKN015 17/14 A3002 990 80 1500 250/11 RMK AO2
94908KDBQ DBQ20011115145012111/15/01 14:50:31  5-MIN KDBQ 152050Z 25012KT 4SM HZ BKN015 17/14 A3002 990 83 1500 250/12 RMK AO2 SLP164 T01720144 58008
94908KDBQ DBQ20011115145512111/15/01 14:55:31  5-MIN KDBQ 152055Z 24011KT 4SM HZ BKN015 17/14 A3002 990 80 1500 240/11 RMK AO2 SLP164 T01720139 56010
94908KDBQ DBQ20011115150009511/15/01 15:00:31  5-MIN KDBQ 152100Z 24012KT 5SM HZ CLR 17/14 A3002 990 80 1500 240/12 RMK AO2
94908KDBQ DBQ20011115150509511/15/01 15:05:31  5-MIN KDBQ 152105Z 24013KT 5SM HZ CLR 17/14 A3002 990 80 1500 240/13 RMK AO2
94908KDBQ DBQ20011115151009511/15/01 15:10:31  5-MIN KDBQ 152110Z 24011KT 5SM HZ CLR 17/14 A3002 990 80 1500 240/11 RMK AO2
94908KDBQ DBQ20011115151509511/15/01 15:15:31  5-MIN KDBQ 152115Z 24011KT 4SM HZ CLR 17/14 A3002 980 80 1500 240/11 RMK AO2
94908KDBQ DBQ20011115152009511/15/01 15:20:31  5-MIN KDBQ 152120Z 24011KT 4SM HZ CLR 17/14 A3002 980 83 1400 240/11 RMK AO2
94908KDBQ DBQ20011115152509511/15/01 15:25:31  5-MIN KDBQ 152125Z 25010KT 4SM HZ CLR 17/14 A3002 980 83 1400 240/10 RMK AO2
94908KDBQ DBQ20011115153009511/15/01 15:30:31  5-MIN KDBQ 152130Z 25010KT 4SM HZ CLR 17/14 A3003 980 83 1400 250/10 RMK AO2
94908KDBQ DBQ20011115153509511/15/01 15:35:31  5-MIN KDBQ 152135Z 24012KT 4SM BR CLR 16/14 A3003 980 86 1400 230/12 RMK AO2
94908KDBQ DBQ20011115154009511/15/01 15:40:31  5-MIN KDBQ 152140Z 24010KT 4SM HZ CLR 17/14 A3003 980 83 1400 240/10 RMK AO2
94908KDBQ DBQ20011115154509511/15/01 15:45:31  5-MIN KDBQ 152145Z 23011KT 4SM BR CLR 16/14 A3003 980 86 1400 230/11 RMK AO2
94908KDBQ DBQ20011115155011211/15/01 15:50:31  5-MIN KDBQ 152150Z 23010KT 4SM BR CLR 16/14 A3003 980 86 1400 230/10 RMK AO2 SLP168 T01610139
94908KDBQ DBQ20011115155511211/15/01 15:55:31  5-MIN KDBQ 152155Z 24011KT 4SM BR CLR 16/14 A3003 980 86 1400 240/11 RMK AO2 SLP169 T01610139
94908KDBQ DBQ20011115160009511/15/01 16:00:31  5-MIN KDBQ 152200Z 24009KT 4SM BR CLR 16/14 A3003 980 86 1400 240/09 RMK AO2
94908KDBQ DBQ20011115160509511/15/01 16:05:31  5-MIN KDBQ 152205Z 24009KT 4SM BR CLR 16/14 A3003 970 90 1300 240/09 RMK AO2
94908KDBQ DBQ20011115161009511/15/01 16:10:31  5-MIN KDBQ 152210Z 24007KT 4SM BR CLR 16/13 A3003 970 86 1300 240/07 RMK AO2
94908KDBQ DBQ20011115161509511/15/01 16:15:31  5-MIN KDBQ 152215Z 25007KT 4SM BR CLR 15/13 A3004 970 90 1200 250/07 RMK AO2
94908KDBQ DBQ20011115162009511/15/01 16:20:31  5-MIN KDBQ 152220Z 25006KT 4SM BR CLR 15/13 A3004 970 90 1200 250/06 RMK AO2
94908KDBQ DBQ20011115162509511/15/01 16:25:31  5-MIN KDBQ 152225Z 26006KT 4SM BR CLR 15/13 A3004 970 90 1200 260/06 RMK AO2
94908KDBQ DBQ20011115163009511/15/01 16:30:31  5-MIN KDBQ 152230Z 26005KT 4SM BR CLR 14/13 A3004 970 93 1200 260/05 RMK AO2
94908KDBQ DBQ20011115163509511/15/01 16:35:31  5-MIN KDBQ 152235Z 26005KT 4SM BR CLR 14/13 A3004 970 93 1200 260/05 RMK AO2
94908KDBQ DBQ20011115164009511/15/01 16:40:31  5-MIN KDBQ 152240Z 26006KT 4SM BR CLR 14/13 A3004 970 90 1200 260/06 RMK AO2
94908KDBQ DBQ20011115164509511/15/01 16:45:31  5-MIN KDBQ 152245Z 26006KT 3SM BR CLR 14/13 A3004 970 93 1100 260/06 RMK AO2
94908KDBQ DBQ20011115165011611/15/01 16:50:31  5-MIN KDBQ 152250Z 26006KT 2 1/2SM BR CLR 14/12 A3004 970 90 1100 260/06 RMK AO2 SLP174 T01390122
94908KDBQ DBQ20011115165511611/15/01 16:55:31  5-MIN KDBQ 152255Z 26006KT 2 1/2SM BR CLR 14/12 A3004 960 90 1100 250/06 RMK AO2 SLP175 T01390122
94908KDBQ DBQ20011115170009911/15/01 17:00:31  5-MIN KDBQ 152300Z 25004KT 2 1/2SM BR CLR 13/12 A3005 960 93 1000 250/04 RMK AO2
94908KDBQ DBQ20011115170509911/15/01 17:05:31  5-MIN KDBQ 152305Z 24004KT 2 1/2SM BR CLR 14/13 A3005 960 93 1100 240/04 RMK AO2
94908KDBQ DBQ20011115171009911/15/01 17:10:31  5-MIN KDBQ 152310Z 24004KT 2 1/2SM BR CLR 13/12 A3005 960 93 1000 240/04 RMK AO2
94908KDBQ DBQ20011118221013111/18/01 22:10:31  5-MIN KDBQ 190410Z AUTO 23008KT 3SM -RA BR OVC006 12/12 A2993 1070 96 1000 230/08 RMK AO2 CIG 003V009 P0001 TSNO
94908KDBQ DBQ20011118221513111/18/01 22:15:31  5-MIN KDBQ 190415Z AUTO 23007KT 3SM -RA BR OVC006 12/12 A2993 1070 96 1000 230/07 RMK AO2 CIG 003V009 P0001 TSNO
94908KDBQ DBQ20011118222013311/18/01 22:20:31  5-MIN KDBQ 190420Z AUTO 22008KT 3SM BR OVC006 12/12 A2993 1070 96 1000 220/08 RMK AO2 RAE16 CIG 003V007 P0001 TSNO
94908KDBQ DBQ20011118222513311/18/01 22:25:31  5-MIN KDBQ 190425Z AUTO 22008KT 3SM BR OVC004 12/12 A2993 1070 96 1000 220/08 RMK AO2 RAE16 CIG 003V007 P0001 TSNO
94908KDBQ DBQ20011118223013311/18/01 22:30:31  5-MIN KDBQ 190430Z AUTO 22009KT 3SM BR OVC004 12/12 A2993 1070 96 1000 220/09 RMK AO2 RAE16 CIG 003V008 P0001 TSNO
94908KDBQ DBQ20011118223514011/18/01 22:35:31  5-MIN KDBQ 190435Z AUTO 22009KT 3SM BR BKN004 OVC008 12/12 A2992 1080 96 1000 220/09 RMK AO2 RAE16 CIG 003V007 P0001 TSNO
94908KDBQ DBQ20011118224014011/18/01 22:40:31  5-MIN KDBQ 190440Z AUTO 23009KT 3SM -RA BR OVC006 12/12 A2992 1080 96 1000 220/09 RMK AO2 RAE16B39 CIG 003V009 P0001 TSNO
94908KDBQ DBQ20011118224515411/18/01 22:45:31  5-MIN KDBQ 190445Z AUTO 23010KT 3SM -RA BR BKN006 BKN009 OVC027 12/12 A2992 1080 96 1000 230/10 RMK AO2 RAE16B39 CIG 003V008 P0001 TSNO
94908KDBQ DBQ20011118225015611/18/01 22:50:31  5-MIN KDBQ 190450Z AUTO 23010KT 4SM BR OVC006 12/12 A2992 1080 96 1000 230/10 RMK AO2 RAE16B39E50 CIG 004V010 SLP132 P0001 T01220117 TSNO
94908KDBQ DBQ20011118225516311/18/01 22:55:31  5-MIN KDBQ 190455Z AUTO 23009KT 4SM BR BKN006 OVC023 12/12 A2991 1080 96 1000 230/09 RMK AO2 RAE16B39E50 CIG 004V010 SLP131 P0001 T01220117 TSNO
94908KDBQ DBQ20011118230012811/18/01 23:00:31  5-MIN KDBQ 190500Z AUTO 23010KT 3SM BR BKN008 OVC027 12/12 A2991 1080 96 1000 230/10 RMK AO2 CIG 004V010 TSNO
94908KDBQ DBQ20011118230512811/18/01 23:05:31  5-MIN KDBQ 190505Z AUTO 23011KT 3SM BR BKN008 OVC027 12/12 A2991 1080 96 1000 230/11 RMK AO2 CIG 004V010 TSNO
94908KDBQ DBQ20011118231012111/18/01 23:10:31  5-MIN KDBQ 190510Z AUTO 23010KT 4SM BR OVC008 12/12 A2991 1080 96 1000 230/10 RMK AO2 CIG 004V010 TSNO
94908KDBQ DBQ20011118231511611/18/01 23:15:31  5-MIN KDBQ 190515Z AUTO 23011KT 4SM BR BKN006 OVC010 12/12 A2991 1080 96 1000 230/11 RMK AO2 TSNO
94908KDBQ DBQ20011118232012811/18/01 23:20:31  5-MIN KDBQ 190520Z AUTO 24011KT 4SM BR BKN006 OVC012 12/12 A2991 1080 96 1000 240/11 RMK AO2 CIG 005V009 TSNO
94908KDBQ DBQ20011118232512811/18/01 23:25:31  5-MIN KDBQ 190525Z AUTO 24010KT 4SM BR BKN006 OVC012 12/12 A2991 1090 96 1100 240/10 RMK AO2 CIG 005V009 TSNO
94908KDBQ DBQ20011118233012811/18/01 23:30:31  5-MIN KDBQ 190530Z AUTO 24011KT 4SM BR BKN006 OVC012 12/12 A2991 1090 96 1100 240/11 RMK AO2 CIG 005V009 TSNO
94908KDBQ DBQ20011118233513411/18/01 23:35:31  5-MIN KDBQ 190535Z AUTO 24015G19KT 4SM BR BKN006 OVC012 13/12 A2991 1090 93 1100 240/15G19 RMK AO2 CIG 005V009 TSNO
94908KDBQ DBQ20011118234012711/18/01 23:40:31  5-MIN KDBQ 190540Z AUTO 28016G21KT 4SM BR OVC008 13/12 A2992 1080 93 1100 280/16G21 RMK AO2 CIG 005V010 TSNO
94908KDBQ DBQ20011118234515211/18/01 23:45:31  5-MIN KDBQ 190545Z AUTO 31021G26KT 6SM BR OVC008 12/11 A2993 1070 93 1000 310/21G26 RMK AO2 PK WND 30026/0544 CIG 005V013 PRESRR TSNO
94908KDBQ DBQ20011118235021011/18/01 23:50:31  5-MIN KDBQ 190550Z AUTO 31020G26KT 8SM BKN008 OVC014 11/09 A2994 1060 93 800 310/20G26 RMK AO2 PK WND 30026/0544 WSHFT 0532 CIG 006V011 SLP139 60013 T01060094 10139 20106 401610106 58010 TSNO
94908KDBQ DBQ20011118235520511/18/01 23:55:31  5-MIN KDBQ 190555Z AUTO 31014KT 10SM BKN008 OVC014 11/09 A2994 1060 93 800 310/14 RMK AO2 PK WND 30026/0544 WSHFT 0532 CIG 006V011 SLP139 60013 T01060094 10139 20106 401610106 55000 TSNO
94908KDBQ DBQ20011119000013511/19/01 00:00:31  5-MIN KDBQ 190600Z AUTO 32017G24KT 10SM OVC008 10/09 A2994 1060 93 800 320/17G24 RMK AO2 WSHFT 0542 CIG 006V011 TSNO
94908KDBQ DBQ20011119000514211/19/01 00:05:31  5-MIN KDBQ 190605Z AUTO 31017G24KT 10SM BKN008 OVC016 10/08 A2994 1060 89 800 310/17G24 RMK AO2 WSHFT 0542 CIG 006V011 TSNO
94908KDBQ DBQ20011119001013611/19/01 00:10:31  5-MIN KDBQ 190610Z AUTO 32015KT 10SM BKN008 OVC016 10/08 A2994 1060 89 800 320/15 RMK AO2 WSHFT 0542 CIG 006V011 TSNO
94908KDBQ DBQ20011119001512411/19/01 00:15:31  5-MIN KDBQ 190615Z AUTO 33013KT 10SM BKN008 OVC016 09/08 A2994 1060 93 700 330/13 RMK AO2 WSHFT 0542 TSNO
94908KDBQ DBQ20011119002014211/19/01 00:20:31  5-MIN KDBQ 190620Z AUTO 32017G20KT 10SM BKN008 OVC016 09/08 A2994 1060 93 600 320/17G20 RMK AO2 WSHFT 0542 CIG 006V011 TSNO
94908KDBQ DBQ20011119002515311/19/01 00:25:31  5-MIN KDBQ 190625Z AUTO 32018KT 6SM RA BR BKN008 OVC016 09/07 A2994 1060 89 600 320/18 RMK AO2 WSHFT 0542 RAB24 CIG 006V011 P0000 TSNO
94908KDBQ DBQ20011119003015411/19/01 00:30:31  5-MIN KDBQ 190630Z AUTO 32016KT 5SM -RA BR BKN008 OVC016 08/07 A2994 1060 93 500 320/16 RMK AO2 WSHFT 0542 RAB24 CIG 006V011 P0000 TSNO
94908KDBQ DBQ20011119003514711/19/01 00:35:31  5-MIN KDBQ 190635Z AUTO 32016KT 5SM -RA BR OVC008 08/07 A2994 1060 93 500 320/16 RMK AO2 WSHFT 0542 RAB24 CIG 006V011 P0001 TSNO
94908KDBQ DBQ20011119004014411/19/01 00:40:31  5-MIN KDBQ 190640Z AUTO 33013KT 7SM -RA OVC008 08/07 A2995 1050 93 500 330/13 RMK AO2 WSHFT 0542 RAB24 CIG 006V011 P0001 TSNO
94908KDBQ DBQ20011119004514411/19/01 00:45:31  5-MIN KDBQ 190645Z AUTO 32015KT 8SM -RA OVC008 08/07 A2995 1050 93 500 320/15 RMK AO2 WSHFT 0542 RAB24 CIG 006V011 P0001 TSNO
94908KDBQ DBQ20011119005016211/19/01 00:50:31  5-MIN KDBQ 190650Z AUTO 33016KT 10SM -RA OVC008 08/07 A2995 1050 96 500 330/16 RMK AO2 WSHFT 0542 RAB24 CIG 005V011 SLP145 P0001 T00780072 TSNO
94908KDBQ DBQ20011119005516911/19/01 00:55:31  5-MIN KDBQ 190655Z AUTO 33019KT 10SM -RA BKN008 OVC014 08/07 A2995 1050 93 500 330/19 RMK AO2 WSHFT 0542 RAB24 CIG 005V011 SLP144 P0001 T00780067 TSNO
94908KDBQ DBQ20011119010013511/19/01 01:00:31  5-MIN KDBQ 190700Z AUTO 34018KT 10SM -RA BKN008 OVC025 08/06 A2995 1050 89 500 330/18 RMK AO2 CIG 005V013 P0000 TSNO
94908KDBQ DBQ20011119010514211/19/01 01:05:31  5-MIN KDBQ 190705Z AUTO 33019KT 10SM -RA BKN008 BKN013 OVC027 08/06 A2996 1050 89 500 330/19 RMK AO2 CIG 005V009 P0000 TSNO
94908KDBQ DBQ20011119011014211/19/01 01:10:31  5-MIN KDBQ 190710Z AUTO 33018KT 10SM -RA FEW006 BKN010 OVC027 07/06 A2996 1050 93 400 330/18 RMK AO2 CIG 008V012 P0000 TSNO
94908KDBQ DBQ20011119011514811/19/01 01:15:31  5-MIN KDBQ 190715Z AUTO 33019G25KT 10SM -RA BKN008 BKN014 OVC027 07/06 A2996 1040 93 400 330/19G25 RMK AO2 CIG 005V010 P0000 TSNO
94908KDBQ DBQ20011119012013511/19/01 01:20:31  5-MIN KDBQ 190720Z AUTO 33019G25KT 9SM -RA BKN010 BKN016 OVC027 07/06 A2995 1050 93 400 330/19G25 RMK AO2 P0000 TSNO
94908KDBQ DBQ20011119012512311/19/01 01:25:31  5-MIN KDBQ 190725Z AUTO 34016KT 10SM -RA BKN010 OVC016 07/06 A2995 1050 93 400 340/16 RMK AO2 P0000 TSNO
94908KDBQ DBQ20011119013011811/19/01 01:30:31  5-MIN KDBQ 190730Z AUTO 34015KT 10SM OVC010 07/06 A2995 1050 93 400 340/15 RMK AO2 RAE29 P0000 TSNO
94908KDBQ DBQ20011119013512411/19/01 01:35:31  5-MIN KDBQ 190735Z AUTO 33018G22KT 10SM OVC010 07/06 A2995 1050 93 400 330/18G22 RMK AO2 RAE29 P0000 TSNO
94908KDBQ DBQ20011119014012411/19/01 01:40:31  5-MIN KDBQ 190740Z AUTO 34016G22KT 10SM OVC012 07/06 A2996 1040 93 400 340/16G22 RMK AO2 RAE29 P0000 TSNO
94908KDBQ DBQ20011119014512511/19/01 01:45:31  5-MIN KDBQ 190745Z AUTO 34017KT 10SM BKN014 OVC019 07/06 A2996 1040 89 400 330/17 RMK AO2 RAE29 P0000 TSNO
94908KDBQ DBQ20011119015014911/19/01 01:50:31  5-MIN KDBQ 190750Z AUTO 34019KT 10SM BKN012 BKN020 OVC030 07/06 A2997 1040 89 400 340/19 RMK AO2 RAE29 SLP149 P0000 T00720056 TSNO
94908KDBQ DBQ20011119015514211/19/01 01:55:31  5-MIN KDBQ 190755Z AUTO 34017KT 10SM BKN014 OVC030 07/06 A2997 1030 89 400 340/17 RMK AO2 RAE29 SLP151 P0000 T00720056 TSNO
94908KDBQ DBQ20011119020012611/19/01 02:00:31  5-MIN KDBQ 190800Z AUTO 34012G22KT 10SM FEW008 BKN014 OVC030 07/06 A2997 1030 89 400 340/12G22 RMK AO2 TSNO
94908KDBQ DBQ20011119020512011/19/01 02:05:31  5-MIN KDBQ 190805Z AUTO 33015KT 10SM SCT008 BKN014 OVC030 07/06 A2998 1020 89 400 330/15 RMK AO2 TSNO
94908KDBQ DBQ20011119021013211/19/01 02:10:31  5-MIN KDBQ 190810Z AUTO 33018G24KT 10SM SCT008 BKN012 OVC030 07/06 A2998 1020 93 300 330/18G24 RMK AO2 P0001 TSNO
94908KDBQ DBQ20011119021513211/19/01 02:15:31  5-MIN KDBQ 190815Z AUTO 33016G24KT 10SM SCT008 BKN015 OVC030 07/06 A2998 1020 93 300 330/16G24 RMK AO2 P0001 TSNO
94908KDBQ DBQ20011119022013211/19/01 02:20:31  5-MIN KDBQ 190820Z AUTO 32017G21KT 10SM BKN008 BKN015 OVC032 07/06 A2998 1020 93 300 320/17G21 RMK AO2 P0001 TSNO
94908KDBQ DBQ20011119022512411/19/01 02:25:31  5-MIN KDBQ 190825Z AUTO 32017G22KT 9SM BKN008 OVC013 06/05 A2999 1010 93 200 320/17G22 RMK AO2 P0001 TSNO
94908KDBQ DBQ20011119023012411/19/01 02:30:31  5-MIN KDBQ 190830Z AUTO 32015G22KT 8SM BKN008 OVC032 06/05 A2999 1010 93 200 320/15G22 RMK AO2 P0001 TSNO
94908KDBQ DBQ20011119023513611/19/01 02:35:31  5-MIN KDBQ 190835Z AUTO 32017G22KT 7SM BKN008 OVC032 06/05 A3000 1010 93 200 320/17G22 RMK AO2 CIG 006V012 P0001 TSNO
94908KDBQ DBQ20011119024014711/19/01 02:40:31  5-MIN KDBQ 190840Z AUTO 33022G27KT 7SM OVC008 06/04 A3000 1010 92 100 330/22G27 RMK AO2 PK WND 33027/0839 CIG 006V013 P0001 TSNO
94908KDBQ DBQ20011119024514211/19/01 02:45:31  5-MIN KDBQ 190845Z AUTO 33021G27KT 8SM BKN008 OVC011 06/04 A3000 1010 89 100 330/21G27 RMK AO2 PK WND 33027/0839 P0001 TSNO
94908KDBQ DBQ20011119025018411/19/01 02:50:31  5-MIN KDBQ 190850Z AUTO 33018G26KT 10SM BKN008 OVC013 06/04 A3000 1010 89 100 330/18G26 RMK AO2 PK WND 33027/0839 CIG 006V011 SLP162 P0001 60002 T00560039 55000 TSNO
94908KDBQ DBQ20011119025517211/19/01 02:55:31  5-MIN KDBQ 190855Z AUTO 34020G26KT 10SM SCT008 OVC015 06/03 A3000 1010 85 100 340/20G26 RMK AO2 PK WND 33027/0839 SLP162 P0001 60002 T00560033 53020 TSNO
94908KDBQ DBQ20011119030011911/19/01 03:00:31  5-MIN KDBQ 190900Z AUTO 33016G25KT 10SM SCT008 OVC015 06/03 A3000 1000 85 100 330/16G25 RMK AO2 TSNO
94908KDBQ DBQ20011119030511911/19/01 03:05:31  5-MIN KDBQ 190905Z AUTO 34020G25KT 10SM FEW008 OVC015 06/03 A3000 1000 85 100 340/20G25 RMK AO2 TSNO
94908KDBQ DBQ20011119031011211/19/01 03:10:31  5-MIN KDBQ 190910Z AUTO 33016G25KT 10SM OVC015 06/03 A3001 1000 85 100 330/16G25 RMK AO2 TSNO
94908KDBQ DBQ20011119031510611/19/01 03:15:31  5-MIN KDBQ 190915Z AUTO 33018KT 10SM OVC017 06/03 A3001 1000 82 100 330/18 RMK AO2 TSNO
94908KDBQ DBQ20011119032011911/19/01 03:20:31  5-MIN KDBQ 190920Z AUTO 34018G22KT 10SM BKN017 OVC042 06/03 A3001 1000 82 100 330/18G22 RMK AO2 TSNO
94908KDBQ DBQ20011119032511911/19/01 03:25:31  5-MIN KDBQ 190925Z AUTO 34016G22KT 10SM BKN017 OVC042 06/03 A3001 1000 82 100 330/16G22 RMK AO2 TSNO
94908KDBQ DBQ20011119033012011/19/01 03:30:31  5-MIN KDBQ 190930Z AUTO 33018KT 10SM SCT017 BKN042 OVC050 06/03 A3000 1000 82 100 330/18 RMK AO2 TSNO
94908KDBQ DBQ20011119033511311/19/01 03:35:31  5-MIN KDBQ 190935Z AUTO 34017KT 10SM SCT017 OVC046 05/03 A3000 1000 85 100 340/17 RMK AO2 TSNO
94908KDBQ DBQ20011119034011311/19/01 03:40:31  5-MIN KDBQ 190940Z AUTO 33017KT 10SM FEW019 OVC046 05/02 A3001 1000 82 100 330/17 RMK AO2 TSNO
94908KDBQ DBQ20011119034510511/19/01 03:45:31  5-MIN KDBQ 190945Z AUTO 34018KT 10SM OVC048 05/02 A3001 990 82 100 340/18 RMK AO2 TSNO
94908KDBQ DBQ20011119035012211/19/01 03:50:31  5-MIN KDBQ 190950Z AUTO 34018KT 10SM OVC048 05/02 A3002 990 82 100 330/18 RMK AO2 SLP169 T00500022 TSNO
94908KDBQ DBQ20011119035512811/19/01 03:55:31  5-MIN KDBQ 190955Z AUTO 34016G21KT 10SM OVC050 05/02 A3002 980 82 100 330/16G21 RMK AO2 SLP170 T00500022 TSNO
94908KDBQ DBQ20011119040011611/19/01 04:00:31  5-MIN KDBQ 191000Z AUTO 33017G22KT 10SM FEW020 OVC050 05/02 A3003 980 82 0 330/17G22 RMK AO2 TSNO
94908KDBQ DBQ20011119040511611/19/01 04:05:31  5-MIN KDBQ 191005Z AUTO 33017G22KT 10SM FEW020 OVC050 05/02 A3003 980 79 0 320/17G22 RMK AO2 TSNO
94908KDBQ DBQ20011119041011611/19/01 04:10:31  5-MIN KDBQ 191010Z AUTO 32018G25KT 10SM FEW020 OVC050 04/02 A3003 970 82 0 320/18G25 RMK AO2 TSNO
94908KDBQ DBQ20011119041511611/19/01 04:15:31  5-MIN KDBQ 191015Z AUTO 33017G25KT 10SM FEW020 OVC055 04/02 A3003 970 82 0 330/17G25 RMK AO2 TSNO
94908KDBQ DBQ20011119042011011/19/01 04:20:31  5-MIN KDBQ 191020Z AUTO 33015KT 10SM FEW020 OVC055 04/02 A3003 970 82 0 330/15 RMK AO2 TSNO
94908KDBQ DBQ20011119042511011/19/01 04:25:31  5-MIN KDBQ 191025Z AUTO 34015KT 10SM FEW020 OVC060 04/02 A3003 980 82 0 340/15 RMK AO2 TSNO
94908KDBQ DBQ20011119043011011/19/01 04:30:31  5-MIN KDBQ 191030Z AUTO 33014KT 10SM FEW020 OVC060 04/01 A3003 970 79 0 330/14 RMK AO2 TSNO
94908KDBQ DBQ20011119043510311/19/01 04:35:31  5-MIN KDBQ 191035Z AUTO 33016KT 10SM OVC065 04/02 A3004 970 82 0 330/16 RMK AO2 TSNO
94908KDBQ DBQ20011119044010911/19/01 04:40:31  5-MIN KDBQ 191040Z AUTO 33015G22KT 10SM OVC065 04/01 A3004 970 79 0 330/15G22 RMK AO2 TSNO
94908KDBQ DBQ20011119044510911/19/01 04:45:31  5-MIN KDBQ 191045Z AUTO 33015G22KT 10SM OVC070 04/01 A3004 970 79 0 330/15G22 RMK AO2 TSNO
94908KDBQ DBQ20011119045012011/19/01 04:50:31  5-MIN KDBQ 191050Z AUTO 33015KT 10SM OVC070 04/01 A3004 960 79 0 330/15 RMK AO2 SLP179 T00440011 TSNO
94908KDBQ DBQ20011119045512611/19/01 04:55:31  5-MIN KDBQ 191055Z AUTO 33019G22KT 10SM OVC070 04/01 A3004 960 79 0 330/19G22 RMK AO2 SLP179 T00440011 TSNO
94908KDBQ DBQ20011119050011211/19/01 05:00:31  5-MIN KDBQ 191100Z AUTO 33015G22KT 10SM OVC070 04/01 A3005 960 82 -100 330/15G22 RMK AO2 TSNO
94908KDBQ DBQ20011119050510311/19/01 05:05:31  5-MIN KDBQ 191105Z AUTO 33017KT 10SM OVC070 04/01 A3005 960 79 0 330/17 RMK AO2 TSNO
94908KDBQ DBQ20011119051010311/19/01 05:10:31  5-MIN KDBQ 191110Z AUTO 34018KT 10SM OVC070 04/01 A3005 960 76 0 340/18 RMK AO2 TSNO
94908KDBQ DBQ20011119051510611/19/01 05:15:31  5-MIN KDBQ 191115Z AUTO 33015KT 10SM OVC070 04/01 A3005 950 82 -100 330/15 RMK AO2 TSNO
94908KDBQ DBQ20011119052010911/19/01 05:20:31  5-MIN KDBQ 191120Z AUTO 33017G22KT 10SM OVC070 04/01 A3006 950 76 0 330/17G22 RMK AO2 TSNO
94908KDBQ DBQ20011119052511211/19/01 05:25:31  5-MIN KDBQ 191125Z AUTO 33017G23KT 10SM OVC070 04/01 A3006 950 79 -100 330/17G23 RMK AO2 TSNO
94908KDBQ DBQ20011119053011211/19/01 05:30:31  5-MIN KDBQ 191130Z AUTO 33014G23KT 10SM OVC070 04/00 A3006 950 76 -100 330/14G23 RMK AO2 TSNO
94908KDBQ DBQ20011119053510611/19/01 05:35:31  5-MIN KDBQ 191135Z AUTO 33017KT 10SM OVC075 04/01 A3007 940 79 -100 330/17 RMK AO2 TSNO
94908KDBQ DBQ20011119054010611/19/01 05:40:31  5-MIN KDBQ 191140Z AUTO 33017KT 10SM OVC075 04/00 A3007 940 76 -100 330/17 RMK AO2 TSNO
94908KDBQ DBQ20011119054510611/19/01 05:45:31  5-MIN KDBQ 191145Z AUTO 33016KT 10SM OVC080 04/01 A3007 940 79 -100 330/16 RMK AO2 TSNO
94908KDBQ DBQ20011119055015011/19/01 05:50:31  5-MIN KDBQ 191150Z 33014KT 10SM BKN080 OVC090 04/01 A3007 940 79 -100 330/14 RMK AO2 SLP188 60002 70020 T00390006 10106 20039 53020
94908KDBQ DBQ20011119055515011/19/01 05:55:31  5-MIN KDBQ 191155Z 33013KT 10SM SCT080 OVC090 04/01 A3008 930 79 -100 330/13 RMK AO2 SLP190 60002 70020 T00390006 10106 20039 53025
94908KDBQ DBQ20011119060009611/19/01 06:00:31  5-MIN KDBQ 191200Z 33016KT 10SM OVC090 04/00 A3008 930 76 -100 330/16 RMK AO2
94908KDBQ DBQ20011119060509611/19/01 06:05:31  5-MIN KDBQ 191205Z 33015KT 10SM OVC090 04/00 A3008 930 76 -100 330/15 RMK AO2
94908KDBQ DBQ20011119061009611/19/01 06:10:31  5-MIN KDBQ 191210Z 32016KT 10SM OVC090 04/00 A3009 920 76 -100 320/16 RMK AO2
94908KDBQ DBQ20011119061510211/19/01 06:15:31  5-MIN KDBQ 191215Z 32017G22KT 10SM OVC095 04/00 A3009 920 76 -100 320/17G22 RMK AO2
94908KDBQ DBQ20011119062010311/19/01 06:20:31  5-MIN KDBQ 191220Z 33017G22KT 10SM OVC095 04/M01 A3009 920 73 -100 330/17G22 RMK AO2
94908KDBQ DBQ20011119062509711/19/01 06:25:31  5-MIN KDBQ 191225Z 33016KT 10SM OVC100 04/M01 A3010 920 73 -100 330/16 RMK AO2
94908KDBQ DBQ20011119063009711/19/01 06:30:31  5-MIN KDBQ 191230Z 33018KT 10SM OVC100 03/M01 A3010 920 76 -200 330/18 RMK AO2
94908KDBQ DBQ20011119063509711/19/01 06:35:31  5-MIN KDBQ 191235Z 33018KT 10SM BKN100 03/M01 A3010 910 72 -200 330/18 RMK AO2
94908KDBQ DBQ20011119064009711/19/01 06:40:31  5-MIN KDBQ 191240Z 33012KT 10SM BKN100 03/M01 A3010 910 72 -200 330/12 RMK AO2
94908KDBQ DBQ20011119064509711/19/01 06:45:31  5-MIN KDBQ 191245Z 33013KT 10SM SCT100 03/M01 A3010 910 75 -300 330/13 RMK AO2
94908KDBQ DBQ20011119065011411/19/01 06:50:31  5-MIN KDBQ 191250Z 33011KT 10SM FEW100 03/M01 A3011 910 75 -300 330/11 RMK AO2 SLP201 T00281011
94908KDBQ DBQ20011119065511411/19/01 06:55:31  5-MIN KDBQ 191255Z 32013KT 10SM FEW095 03/M01 A3011 910 75 -300 320/13 RMK AO2 SLP201 T00281011
94908KDBQ DBQ20011119070009411/19/01 07:00:31  5-MIN KDBQ 191300Z 32014KT 10SM CLR 03/M01 A3011 900 75 -300 320/14 RMK AO2
94908KDBQ DBQ20011119070509411/19/01 07:05:31  5-MIN KDBQ 191305Z 32015KT 10SM CLR 03/M02 A3011 900 72 -300 320/15 RMK AO2
94908KDBQ DBQ20011119071009411/19/01 07:10:31  5-MIN KDBQ 191310Z 33010KT 10SM CLR 02/M02 A3011 900 75 -300 330/10 RMK AO2
94908KDBQ DBQ20011119071509411/19/01 07:15:31  5-MIN KDBQ 191315Z 32012KT 10SM CLR 02/M02 A3011 900 75 -300 320/12 RMK AO2
94908KDBQ DBQ20011119072009411/19/01 07:20:31  5-MIN KDBQ 191320Z 33011KT 10SM CLR 02/M02 A3012 900 75 -300 330/11 RMK AO2
94908KDBQ DBQ20011119072509411/19/01 07:25:31  5-MIN KDBQ 191325Z 32013KT 10SM CLR 02/M02 A3012 900 75 -300 320/13 RMK AO2
94908KDBQ DBQ20011119073009411/19/01 07:30:31  5-MIN KDBQ 191330Z 32012KT 10SM CLR 03/M02 A3012 890 72 -300 320/12 RMK AO2
94908KDBQ DBQ20011119073509411/19/01 07:35:31  5-MIN KDBQ 191335Z 32012KT 10SM CLR 03/M02 A3012 890 72 -300 320/12 RMK AO2
94908KDBQ DBQ20011119074009411/19/01 07:40:31  5-MIN KDBQ 191340Z 32014KT 10SM CLR 03/M02 A3012 890 72 -300 320/14 RMK AO2
94908KDBQ DBQ20011119074509411/19/01 07:45:31  5-MIN KDBQ 191345Z 33014KT 10SM CLR 03/M02 A3013 890 69 -300 330/14 RMK AO2
94908KDBQ DBQ20011119075011111/19/01 07:50:31  5-MIN KDBQ 191350Z 32013KT 10SM CLR 02/M02 A3013 890 72 -400 320/13 RMK AO2 SLP208 T00221022
94908KDBQ DBQ20011119075511111/19/01 07:55:31  5-MIN KDBQ 191355Z 32015KT 10SM CLR 03/M02 A3013 890 69 -300 320/15 RMK AO2 SLP209 T00281022
94908KDBQ DBQ20011119080009411/19/01 08:00:31  5-MIN KDBQ 191400Z 32016KT 10SM CLR 03/M02 A3013 880 69 -300 320/16 RMK AO2
94908KDBQ DBQ20011119080509411/19/01 08:05:31  5-MIN KDBQ 191405Z 33017KT 10SM CLR 03/M02 A3014 880 69 -300 330/17 RMK AO2
94908KDBQ DBQ20011119081009411/19/01 08:10:31  5-MIN KDBQ 191410Z 33016KT 10SM CLR 03/M02 A3014 880 69 -300 330/16 RMK AO2
94908KDBQ DBQ20011119081509411/19/01 08:15:31  5-MIN KDBQ 191415Z 33017KT 10SM CLR 03/M02 A3014 870 69 -300 330/17 RMK AO2
94908KDBQ DBQ20011119082010011/19/01 08:20:31  5-MIN KDBQ 191420Z 33015G21KT 10SM CLR 03/M03 A3014 870 67 -300 330/15G21 RMK AO2
94908KDBQ DBQ20011119082510011/19/01 08:25:31  5-MIN KDBQ 191425Z 33016G22KT 10SM CLR 03/M03 A3015 870 67 -300 330/16G22 RMK AO2
94908KDBQ DBQ20011119083010011/19/01 08:30:31  5-MIN KDBQ 191430Z 33017G22KT 10SM CLR 03/M02 A3015 870 69 -300 330/17G22 RMK AO2
94908KDBQ DBQ20011119083510011/19/01 08:35:31  5-MIN KDBQ 191435Z 33015G22KT 10SM CLR 03/M03 A3015 870 67 -300 330/15G22 RMK AO2
94908KDBQ DBQ20011119084009411/19/01 08:40:31  5-MIN KDBQ 191440Z 32017KT 10SM CLR 03/M03 A3015 870 64 -200 320/17 RMK AO2
94908KDBQ DBQ20011119084509411/19/01 08:45:31  5-MIN KDBQ 191445Z 32015KT 10SM CLR 03/M02 A3015 870 67 -200 320/15 RMK AO2
94908KDBQ DBQ20011119085011711/19/01 08:50:31  5-MIN KDBQ 191450Z 33015KT 10SM CLR 03/M02 A3015 870 67 -200 330/15 RMK AO2 SLP216 T00331022 53025
94908KDBQ DBQ20011119085511711/19/01 08:55:31  5-MIN KDBQ 191455Z 32013KT 10SM CLR 03/M02 A3015 860 67 -300 320/13 RMK AO2 SLP217 T00331022 51025
94908KDBQ DBQ20011119090010011/19/01 09:00:31  5-MIN KDBQ 191500Z 32017G22KT 10SM CLR 03/M02 A3015 860 67 -300 320/17G22 RMK AO2
94908KDBQ DBQ20011119090510011/19/01 09:05:31  5-MIN KDBQ 191505Z 33013G22KT 10SM CLR 03/M03 A3015 860 64 -300 330/13G22 RMK AO2
94908KDBQ DBQ20011119091010011/19/01 09:10:31  5-MIN KDBQ 191510Z 32015G21KT 10SM CLR 03/M03 A3015 860 64 -300 320/15G21 RMK AO2
94908KDBQ DBQ20011119091509411/19/01 09:15:31  5-MIN KDBQ 191515Z 34015KT 10SM CLR 03/M03 A3016 860 64 -300 340/15 RMK AO2
94908KDBQ DBQ20011119092009411/19/01 09:20:31  5-MIN KDBQ 191520Z 32015KT 10SM CLR 03/M03 A3016 860 64 -300 320/15 RMK AO2
94908KDBQ DBQ20011119092510011/19/01 09:25:31  5-MIN KDBQ 191525Z 33017G23KT 10SM CLR 04/M03 A3016 860 62 -200 330/17G23 RMK AO2
94908KDBQ DBQ20011119093010011/19/01 09:30:31  5-MIN KDBQ 191530Z 33017G23KT 10SM CLR 04/M03 A3016 860 62 -200 330/17G23 RMK AO2
94908KDBQ DBQ20011119093510011/19/01 09:35:31  5-MIN KDBQ 191535Z 33015G20KT 10SM CLR 04/M03 A3016 860 59 -200 330/15G20 RMK AO2
94908KDBQ DBQ20011119094009411/19/01 09:40:31  5-MIN KDBQ 191540Z 32015KT 10SM CLR 04/M03 A3016 860 59 -200 320/15 RMK AO2
94908KDBQ DBQ20011119094509411/19/01 09:45:31  5-MIN KDBQ 191545Z 31013KT 10SM CLR 04/M03 A3016 860 62 -200 310/13 RMK AO2
94908KDBQ DBQ20011119095011111/19/01 09:50:31  5-MIN KDBQ 191550Z 31014KT 10SM CLR 04/M03 A3016 860 62 -200 310/14 RMK AO2 SLP219 T00391028
94908KDBQ DBQ20011119095511711/19/01 09:55:31  5-MIN KDBQ 191555Z 33017G21KT 10SM CLR 04/M03 A3016 860 62 -200 330/17G21 RMK AO2 SLP219 T00391028
94908KDBQ DBQ20011119100010011/19/01 10:00:31  5-MIN KDBQ 191600Z 34017G23KT 10SM CLR 04/M03 A3016 860 62 -200 340/17G23 RMK AO2
94908KDBQ DBQ20011119100510011/19/01 10:05:31  5-MIN KDBQ 191605Z 33015G23KT 10SM CLR 04/M03 A3016 850 59 -200 330/15G23 RMK AO2
94908KDBQ DBQ20011119101009411/19/01 10:10:31  5-MIN KDBQ 191610Z 32016KT 10SM CLR 04/M03 A3016 850 59 -200 320/16 RMK AO2
94908KDBQ DBQ20011119101509411/19/01 10:15:31  5-MIN KDBQ 191615Z 32012KT 10SM CLR 04/M03 A3016 860 59 -100 320/12 RMK AO2
94908KDBQ DBQ20011119102009411/19/01 10:20:31  5-MIN KDBQ 191620Z 32013KT 10SM CLR 04/M03 A3016 860 59 -100 320/13 RMK AO2
94908KDBQ DBQ20011119102509411/19/01 10:25:31  5-MIN KDBQ 191625Z 33013KT 10SM CLR 04/M03 A3016 860 59 -100 330/13 RMK AO2
94908KDBQ DBQ20011119103009411/19/01 10:30:31  5-MIN KDBQ 191630Z 32012KT 10SM CLR 05/M03 A3016 860 57 -100 320/12 RMK AO2
94908KDBQ DBQ20011119103510011/19/01 10:35:31  5-MIN KDBQ 191635Z 33014G19KT 10SM CLR 05/M03 A3016 860 57 -100 330/14G19 RMK AO2
94908KDBQ DBQ20011119104010011/19/01 10:40:31  5-MIN KDBQ 191640Z 33013G19KT 10SM CLR 05/M03 A3016 860 57 -100 330/13G19 RMK AO2
94908KDBQ DBQ20011119104510011/19/01 10:45:31  5-MIN KDBQ 191645Z 32019G23KT 10SM CLR 05/M03 A3016 860 55 -100 320/19G23 RMK AO2
94908KDBQ DBQ20011119105011711/19/01 10:50:31  5-MIN KDBQ 191650Z 32018G23KT 10SM CLR 05/M04 A3016 860 52 -100 320/18G23 RMK AO2 SLP218 T00501039
94908KDBQ DBQ20011119105511711/19/01 10:55:31  5-MIN KDBQ 191655Z 34019G23KT 10SM CLR 05/M04 A3016 860 50 -100 340/19G23 RMK AO2 SLP217 T00501044
94908KDBQ DBQ20011119110009711/19/01 11:00:31  5-MIN KDBQ 191700Z 33016G23KT 10SM CLR 05/M03 A3015 860 55 0 330/16G23 RMK AO2
94908KDBQ DBQ20011119110509111/19/01 11:05:31  5-MIN KDBQ 191705Z 32014KT 10SM CLR 05/M03 A3015 870 55 0 320/14 RMK AO2
94908KDBQ DBQ20011119111009111/19/01 11:10:31  5-MIN KDBQ 191710Z 31015KT 10SM CLR 05/M03 A3015 870 55 0 300/15 RMK AO2
94908KDBQ DBQ20011119111509711/19/01 11:15:31  5-MIN KDBQ 191715Z 31016G21KT 10SM CLR 05/M04 A3014 870 52 0 310/16G21 RMK AO2
94908KDBQ DBQ20011119112009711/19/01 11:20:31  5-MIN KDBQ 191720Z 31018G21KT 10SM CLR 05/M04 A3015 870 52 0 310/18G21 RMK AO2
94908KDBQ DBQ20011119112509111/19/01 11:25:31  5-MIN KDBQ 191725Z 31015KT 10SM CLR 05/M04 A3014 870 50 0 310/15 RMK AO2
94908KDBQ DBQ20011119113009711/19/01 11:30:31  5-MIN KDBQ 191730Z 32020G25KT 10SM CLR 06/M05 A3014 870 46 0 320/20G25 RMK AO2
94908KDBQ DBQ20011119113509711/19/01 11:35:31  5-MIN KDBQ 191735Z 32016G25KT 10SM CLR 06/M04 A3014 880 48 0 310/16G25 RMK AO2
94908KDBQ DBQ20011119114009111/19/01 11:40:31  5-MIN KDBQ 191740Z 31017KT 10SM CLR 06/M04 A3014 880 48 0 310/17 RMK AO2
94908KDBQ DBQ20011119114509111/19/01 11:45:31  5-MIN KDBQ 191745Z 31017KT 10SM CLR 06/M05 A3014 880 46 0 310/17 RMK AO2
94908KDBQ DBQ20011119115012811/19/01 11:50:31  5-MIN KDBQ 191750Z 31014KT 10SM CLR 06/M04 A3014 880 46 100 310/14 RMK AO2 SLP210 T00611044 10061 20022 51025
94908KDBQ DBQ20011119115512611/19/01 11:55:31  5-MIN KDBQ 191755Z 31020KT 10SM CLR 06/M06 A3014 880 44 0 310/20 RMK AO2 SLP210 T00561056 10061 20022 58006
94908KDBQ DBQ20011119120009311/19/01 12:00:31  5-MIN KDBQ 191800Z 32015KT 10SM CLR 06/M05 A3013 880 45 100 320/15 RMK AO2
94908KDBQ DBQ20011119120509311/19/01 12:05:31  5-MIN KDBQ 191805Z 31015KT 10SM CLR 06/M06 A3013 880 43 100 310/15 RMK AO2
94908KDBQ DBQ20011119121009911/19/01 12:10:31  5-MIN KDBQ 191810Z 31017G22KT 10SM CLR 06/M05 A3013 880 45 100 310/17G22 RMK AO2
94908KDBQ DBQ20011119121509911/19/01 12:15:31  5-MIN KDBQ 191815Z 32016G22KT 10SM CLR 06/M06 A3013 880 43 100 320/16G22 RMK AO2
94908KDBQ DBQ20011119122009311/19/01 12:20:31  5-MIN KDBQ 191820Z 29016KT 10SM CLR 06/M04 A3013 880 46 100 290/16 RMK AO2
94908KDBQ DBQ20011119122509311/19/01 12:25:31  5-MIN KDBQ 191825Z 30015KT 10SM CLR 06/M04 A3013 880 46 100 300/15 RMK AO2
94908KDBQ DBQ20011119123009311/19/01 12:30:31  5-MIN KDBQ 191830Z 30016KT 10SM CLR 07/M04 A3013 880 45 100 300/16 RMK AO2
94908KDBQ DBQ20011119123509911/19/01 12:35:31  5-MIN KDBQ 191835Z 31016G22KT 10SM CLR 06/M05 A3014 880 45 100 310/16G22 RMK AO2
94908KDBQ DBQ20011119124009311/19/01 12:40:31  5-MIN KDBQ 191840Z 29020KT 10SM CLR 06/M06 A3014 880 43 100 290/20 RMK AO2
94908KDBQ DBQ20011119124509911/19/01 12:45:31  5-MIN KDBQ 191845Z 30019G25KT 10SM CLR 06/M06 A3014 880 43 100 300/19G25 RMK AO2
94908KDBQ DBQ20011119125011611/19/01 12:50:31  5-MIN KDBQ 191850Z 31019G25KT 10SM CLR 06/M06 A3014 880 43 100 310/19G25 RMK AO2 SLP212 T00611056
94908KDBQ DBQ20011119125511611/19/01 12:55:31  5-MIN KDBQ 191855Z 30017G22KT 10SM CLR 07/M05 A3014 880 43 100 300/17G22 RMK AO2 SLP212 T00671050
94908KDBQ DBQ20011119130011711/19/01 13:00:31  5-MIN KDBQ 191900Z 30019G26KT 10SM CLR 06/M06 A3014 880 41 100 300/19G26 RMK AO2 PK WND 29026/1857
94908KDBQ DBQ20011119130511711/19/01 13:05:31  5-MIN KDBQ 191905Z 31017G26KT 10SM CLR 06/M05 A3014 880 45 100 310/17G26 RMK AO2 PK WND 29026/1857
94908KDBQ DBQ20011119131011111/19/01 13:10:31  5-MIN KDBQ 191910Z 29018KT 10SM CLR 06/M06 A3014 880 43 100 290/18 RMK AO2 PK WND 29026/1857
94908KDBQ DBQ20011119131511711/19/01 13:15:31  5-MIN KDBQ 191915Z 29016G23KT 10SM CLR 06/M06 A3014 880 43 100 290/16G23 RMK AO2 PK WND 29026/1857
94908KDBQ DBQ20011119132011711/19/01 13:20:31  5-MIN KDBQ 191920Z 29018G24KT 10SM CLR 06/M05 A3014 880 45 100 290/18G24 RMK AO2 PK WND 29026/1857
94908KDBQ DBQ20011119132511711/19/01 13:25:31  5-MIN KDBQ 191925Z 30016G24KT 10SM CLR 06/M05 A3014 880 45 100 300/16G24 RMK AO2 PK WND 29026/1857
94908KDBQ DBQ20011119133011711/19/01 13:30:31  5-MIN KDBQ 191930Z 29018G23KT 10SM CLR 06/M04 A3014 880 46 100 290/18G23 RMK AO2 PK WND 29026/1857
94908KDBQ DBQ20011119133511711/19/01 13:35:31  5-MIN KDBQ 191935Z 29017G23KT 10SM CLR 06/M05 A3014 880 45 100 290/17G23 RMK AO2 PK WND 29026/1857
94908KDBQ DBQ20011119134011111/19/01 13:40:31  5-MIN KDBQ 191940Z 29018KT 10SM CLR 06/M05 A3014 880 45 100 290/18 RMK AO2 PK WND 29026/1857
94908KDBQ DBQ20011119134511111/19/01 13:45:31  5-MIN KDBQ 191945Z 29015KT 10SM CLR 06/M06 A3014 880 43 100 290/15 RMK AO2 PK WND 29026/1857
94908KDBQ DBQ20011119135012811/19/01 13:50:31  5-MIN KDBQ 191950Z 30016KT 10SM CLR 06/M05 A3014 880 45 100 300/16 RMK AO2 PK WND 29026/1857 SLP212 T00611050
94908KDBQ DBQ20011119135513411/19/01 13:55:31  5-MIN KDBQ 191955Z 30015G21KT 10SM CLR 06/M05 A3014 880 45 100 300/15G21 RMK AO2 PK WND 29026/1857 SLP212 T00611050
94908KDBQ DBQ20011119140009311/19/01 14:00:31  5-MIN KDBQ 192000Z 31016KT 10SM CLR 06/M04 A3014 880 46 100 300/16 RMK AO2
94908KDBQ DBQ20011119140509911/19/01 14:05:31  5-MIN KDBQ 192005Z 29017G23KT 10SM CLR 06/M05 A3014 880 45 100 290/17G23 RMK AO2
94908KDBQ DBQ20011119141009911/19/01 14:10:31  5-MIN KDBQ 192010Z 30018G23KT 10SM CLR 06/M06 A3014 880 43 100 300/18G23 RMK AO2
94908KDBQ DBQ20011119141509111/19/01 14:15:31  5-MIN KDBQ 192015Z 30017KT 10SM CLR 06/M06 A3013 880 44 0 290/17 RMK AO2
94908KDBQ DBQ20011119142009311/19/01 14:20:31  5-MIN KDBQ 192020Z 29017KT 10SM CLR 06/M05 A3013 880 45 100 280/17 RMK AO2
94908KDBQ DBQ20011119142509311/19/01 14:25:31  5-MIN KDBQ 192025Z 30016KT 10SM CLR 06/M05 A3013 880 45 100 300/16 RMK AO2
94908KDBQ DBQ20011119143009311/19/01 14:30:31  5-MIN KDBQ 192030Z 30014KT 10SM CLR 06/M05 A3014 880 45 100 300/14 RMK AO2
94908KDBQ DBQ20011119143509911/19/01 14:35:31  5-MIN KDBQ 192035Z 28016G21KT 10SM CLR 06/M05 A3014 880 45 100 280/16G21 RMK AO2
94908KDBQ DBQ20011119144009711/19/01 14:40:31  5-MIN KDBQ 192040Z 28018G23KT 10SM CLR 06/M06 A3014 880 44 0 280/18G23 RMK AO2
94908KDBQ DBQ20011119144509711/19/01 14:45:31  5-MIN KDBQ 192045Z 28018G23KT 10SM CLR 06/M06 A3014 880 43 0 280/18G23 RMK AO2
94908KDBQ DBQ20011119145011411/19/01 14:50:31  5-MIN KDBQ 192050Z 29016KT 10SM CLR 06/M06 A3014 880 43 0 290/16 RMK AO2 SLP213 T00561061 58006
94908KDBQ DBQ20011119145511411/19/01 14:55:31  5-MIN KDBQ 192055Z 30014KT 10SM CLR 06/M06 A3014 880 44 0 300/14 RMK AO2 SLP213 T00561056 52001
94908KDBQ DBQ20011119150009711/19/01 15:00:31  5-MIN KDBQ 192100Z 29019G22KT 10SM CLR 06/M06 A3014 880 44 0 290/19G22 RMK AO2
94908KDBQ DBQ20011119150509711/19/01 15:05:31  5-MIN KDBQ 192105Z 30018G22KT 10SM CLR 06/M06 A3014 870 43 0 300/18G22 RMK AO2
94908KDBQ DBQ20011119151009711/19/01 15:10:31  5-MIN KDBQ 192110Z 29018G25KT 10SM CLR 06/M06 A3014 870 43 0 290/18G25 RMK AO2
94908KDBQ DBQ20011119151509711/19/01 15:15:31  5-MIN KDBQ 192115Z 30015G25KT 10SM CLR 06/M06 A3015 870 43 0 300/15G25 RMK AO2
94908KDBQ DBQ20011119152009711/19/01 15:20:31  5-MIN KDBQ 192120Z 29017G22KT 10SM CLR 06/M06 A3015 870 43 0 290/17G22 RMK AO2
94908KDBQ DBQ20011119152509711/19/01 15:25:31  5-MIN KDBQ 192125Z 29017G21KT 10SM CLR 06/M07 A3015 870 41 0 290/17G21 RMK AO2
94908KDBQ DBQ20011119153009111/19/01 15:30:31  5-MIN KDBQ 192130Z 30016KT 10SM CLR 06/M07 A3015 870 41 0 300/16 RMK AO2
94908KDBQ DBQ20011119153509711/19/01 15:35:31  5-MIN KDBQ 192135Z 30018G23KT 10SM CLR 05/M07 A3016 860 42 0 300/18G23 RMK AO2
94908KDBQ DBQ20011119154010011/19/01 15:40:31  5-MIN KDBQ 192140Z 30016G23KT 10SM CLR 05/M07 A3016 860 42 -100 300/16G23 RMK AO2
94908KDBQ DBQ20011119154509411/19/01 15:45:31  5-MIN KDBQ 192145Z 30016KT 10SM CLR 05/M07 A3016 860 42 -100 290/16 RMK AO2
94908KDBQ DBQ20011119155011111/19/01 15:50:31  5-MIN KDBQ 192150Z 29017KT 10SM CLR 05/M07 A3016 860 41 -100 290/17 RMK AO2 SLP221 T00501072
94908KDBQ DBQ20011119155511711/19/01 15:55:31  5-MIN KDBQ 192155Z 29015G23KT 10SM CLR 05/M07 A3016 860 42 -100 290/15G23 RMK AO2 SLP221 T00501067
94908KDBQ DBQ20011119160009411/19/01 16:00:31  5-MIN KDBQ 192200Z 29016KT 10SM CLR 04/M07 A3016 860 44 -100 290/16 RMK AO2
94908KDBQ DBQ20011119160509411/19/01 16:05:31  5-MIN KDBQ 192205Z 30014KT 10SM CLR 04/M07 A3016 860 44 -100 290/14 RMK AO2
94908KDBQ DBQ20011119161009411/19/01 16:10:31  5-MIN KDBQ 192210Z 29017KT 10SM CLR 04/M07 A3016 850 44 -100 290/17 RMK AO2
94908KDBQ DBQ20011119161510011/19/01 16:15:31  5-MIN KDBQ 192215Z 30014G21KT 10SM CLR 04/M07 A3016 850 44 -100 290/14G21 RMK AO2
94908KDBQ DBQ20011119162010011/19/01 16:20:31  5-MIN KDBQ 192220Z 30014G21KT 10SM CLR 04/M07 A3017 850 46 -200 300/14G21 RMK AO2
94908KDBQ DBQ20011119162509411/19/01 16:25:31  5-MIN KDBQ 192225Z 29014KT 10SM CLR 04/M07 A3017 850 46 -200 290/14 RMK AO2
94908KDBQ DBQ20011119163009411/19/01 16:30:31  5-MIN KDBQ 192230Z 30011KT 10SM CLR 03/M06 A3017 850 50 -300 300/11 RMK AO2
94908KDBQ DBQ20011119163509411/19/01 16:35:31  5-MIN KDBQ 192235Z 30011KT 10SM CLR 04/M06 A3017 850 48 -200 300/11 RMK AO2
94908KDBQ DBQ20011119164009411/19/01 16:40:31  5-MIN KDBQ 192240Z 30010KT 10SM CLR 03/M06 A3017 850 50 -300 300/10 RMK AO2
94908KDBQ DBQ20011119164509411/19/01 16:45:31  5-MIN KDBQ 192245Z 30010KT 10SM CLR 03/M06 A3017 850 52 -300 300/10 RMK AO2
94908KDBQ DBQ20011119165011111/19/01 16:50:31  5-MIN KDBQ 192250Z 30014KT 10SM CLR 03/M07 A3017 850 48 -300 300/14 RMK AO2 SLP226 T00331067
94908KDBQ DBQ20011119165511111/19/01 16:55:31  5-MIN KDBQ 192255Z 30013KT 10SM CLR 03/M07 A3017 850 48 -300 300/13 RMK AO2 SLP226 T00331067
94908KDBQ DBQ20011119170010011/19/01 17:00:31  5-MIN KDBQ 192300Z 30016G20KT 10SM CLR 03/M07 A3017 850 48 -300 300/16G20 RMK AO2
94908KDBQ DBQ20011119170510011/19/01 17:05:31  5-MIN KDBQ 192305Z 30014G20KT 10SM CLR 03/M07 A3017 850 48 -300 300/14G20 RMK AO2
94908KDBQ DBQ20011119171009411/19/01 17:10:31  5-MIN KDBQ 192310Z 30011KT 10SM CLR 03/M06 A3017 840 52 -300 300/11 RMK AO2
94908KDBQ DBQ20011119171509411/19/01 17:15:31  5-MIN KDBQ 192315Z 29011KT 10SM CLR 02/M06 A3017 840 54 -400 290/11 RMK AO2
94908KDBQ DBQ20011119172009411/19/01 17:20:31  5-MIN KDBQ 192320Z 29012KT 10SM CLR 02/M06 A3018 840 56 -400 290/12 RMK AO2
94908KDBQ DBQ20011119172510011/19/01 17:25:31  5-MIN KDBQ 192325Z 30016G19KT 10SM CLR 03/M06 A3018 840 54 -400 300/16G19 RMK AO2
94908KDBQ DBQ20011119173009411/19/01 17:30:31  5-MIN KDBQ 192330Z 30013KT 10SM CLR 02/M06 A3018 840 56 -400 300/13 RMK AO2
94908KDBQ DBQ20011119173509411/19/01 17:35:31  5-MIN KDBQ 192335Z 30012KT 10SM CLR 02/M06 A3018 840 56 -400 300/12 RMK AO2
94908KDBQ DBQ20011119174009411/19/01 17:40:31  5-MIN KDBQ 192340Z 30011KT 10SM CLR 02/M06 A3018 840 56 -400 300/11 RMK AO2
94908KDBQ DBQ20011119174509411/19/01 17:45:31  5-MIN KDBQ 192345Z 30010KT 10SM CLR 02/M05 A3019 830 59 -400 300/10 RMK AO2
94908KDBQ DBQ20011119175012911/19/01 17:50:31  5-MIN KDBQ 192350Z 30011KT 10SM CLR 02/M05 A3019 830 59 -400 300/11 RMK AO2 SLP232 T00221050 10067 20017 52001
94908KDBQ DBQ20011119175512911/19/01 17:55:31  5-MIN KDBQ 192355Z 31011KT 10SM CLR 02/M05 A3019 830 59 -400 310/11 RMK AO2 SLP232 T00221050 10067 20017 51016
94908KDBQ DBQ20011119180009411/19/01 18:00:31  5-MIN KDBQ 200000Z 30011KT 10SM CLR 02/M05 A3019 830 59 -400 300/11 RMK AO2
94908KDBQ DBQ20011119180509411/19/01 18:05:31  5-MIN KDBQ 200005Z 31011KT 10SM CLR 02/M05 A3019 830 59 -400 300/11 RMK AO2
94908KDBQ DBQ20011119181009411/19/01 18:10:31  5-MIN KDBQ 200010Z 30012KT 10SM CLR 02/M05 A3019 830 59 -400 300/12 RMK AO2
94908KDBQ DBQ20011119181509411/19/01 18:15:31  5-MIN KDBQ 200015Z 31012KT 10SM CLR 02/M05 A3019 830 59 -400 310/12 RMK AO2
94908KDBQ DBQ20011119182009411/19/01 18:20:31  5-MIN KDBQ 200020Z 31011KT 10SM CLR 02/M05 A3019 830 61 -500 310/11 RMK AO2
94908KDBQ DBQ20011119182509411/19/01 18:25:31  5-MIN KDBQ 200025Z 31012KT 10SM CLR 02/M05 A3019 830 61 -500 310/12 RMK AO2
94908KDBQ DBQ20011119183009411/19/01 18:30:31  5-MIN KDBQ 200030Z 30011KT 10SM CLR 02/M05 A3019 830 61 -500 300/11 RMK AO2
94908KDBQ DBQ20011119183509411/19/01 18:35:31  5-MIN KDBQ 200035Z 31012KT 10SM CLR 02/M05 A3019 830 61 -500 310/12 RMK AO2
94908KDBQ DBQ20011119184009411/19/01 18:40:31  5-MIN KDBQ 200040Z 31011KT 10SM CLR 02/M05 A3020 820 61 -500 300/11 RMK AO2
94908KDBQ DBQ20011119184509411/19/01 18:45:31  5-MIN KDBQ 200045Z 30012KT 10SM CLR 02/M05 A3020 820 61 -500 300/12 RMK AO2
94908KDBQ DBQ20011119185011111/19/01 18:50:31  5-MIN KDBQ 200050Z 31012KT 10SM CLR 02/M05 A3020 820 61 -500 310/12 RMK AO2 SLP237 T00171050
94908KDBQ DBQ20011119185511111/19/01 18:55:31  5-MIN KDBQ 200055Z 31011KT 10SM CLR 02/M05 A3020 820 61 -500 310/11 RMK AO2 SLP237 T00171050
94908KDBQ DBQ20011119190009411/19/01 19:00:31  5-MIN KDBQ 200100Z 31010KT 10SM CLR 01/M05 A3020 820 64 -600 300/10 RMK AO2
94908KDBQ DBQ20011119190509411/19/01 19:05:31  5-MIN KDBQ 200105Z 31011KT 10SM CLR 02/M05 A3020 820 61 -500 310/11 RMK AO2
94908KDBQ DBQ20011119191009411/19/01 19:10:31  5-MIN KDBQ 200110Z 31010KT 10SM CLR 01/M05 A3020 820 64 -600 310/10 RMK AO2
94908KDBQ DBQ20011119191509411/19/01 19:15:31  5-MIN KDBQ 200115Z 31009KT 10SM CLR 01/M05 A3020 820 64 -600 310/09 RMK AO2
94908KDBQ DBQ20011119192009411/19/01 19:20:31  5-MIN KDBQ 200120Z 31010KT 10SM CLR 01/M05 A3021 820 64 -600 310/10 RMK AO2
94908KDBQ DBQ20011119192509411/19/01 19:25:31  5-MIN KDBQ 200125Z 31008KT 10SM CLR 01/M04 A3021 820 66 -600 310/08 RMK AO2
94908KDBQ DBQ20011119193009411/19/01 19:30:31  5-MIN KDBQ 200130Z 31010KT 10SM CLR 01/M04 A3021 820 66 -600 310/10 RMK AO2
94908KDBQ DBQ20011119193509411/19/01 19:35:31  5-MIN KDBQ 200135Z 31009KT 10SM CLR 01/M05 A3021 820 64 -600 310/09 RMK AO2
94908KDBQ DBQ20011119194009411/19/01 19:40:31  5-MIN KDBQ 200140Z 31010KT 10SM CLR 01/M05 A3021 810 64 -600 310/10 RMK AO2
94908KDBQ DBQ20011119194509411/19/01 19:45:31  5-MIN KDBQ 200145Z 31011KT 10SM CLR 01/M04 A3021 810 66 -600 310/11 RMK AO2
94908KDBQ DBQ20011119195011111/19/01 19:50:31  5-MIN KDBQ 200150Z 32010KT 10SM CLR 01/M05 A3021 810 64 -600 310/10 RMK AO2 SLP240 T00111050
94908KDBQ DBQ20011119195512111/19/01 19:55:31  5-MIN KDBQ 200155Z AUTO 32011KT 10SM CLR 01/M05 A3021 820 64 -600 320/11 RMK AO2 SLP239 T00111050 TSNO
94908KDBQ DBQ20011119200010411/19/01 20:00:31  5-MIN KDBQ 200200Z AUTO 32009KT 10SM CLR 01/M05 A3021 820 64 -600 320/09 RMK AO2 TSNO
94908KDBQ DBQ20011119200510411/19/01 20:05:31  5-MIN KDBQ 200205Z AUTO 31011KT 10SM CLR 01/M05 A3021 810 64 -600 310/11 RMK AO2 TSNO
94908KDBQ DBQ20011119201010411/19/01 20:10:31  5-MIN KDBQ 200210Z AUTO 32010KT 10SM CLR 01/M05 A3021 810 64 -600 310/10 RMK AO2 TSNO
94908KDBQ DBQ20011119201510411/19/01 20:15:31  5-MIN KDBQ 200215Z AUTO 32009KT 10SM CLR 01/M05 A3021 810 64 -600 310/09 RMK AO2 TSNO
94908KDBQ DBQ20011119202010411/19/01 20:20:31  5-MIN KDBQ 200220Z AUTO 32010KT 10SM CLR 01/M05 A3021 810 64 -600 310/10 RMK AO2 TSNO
94908KDBQ DBQ20011119202510411/19/01 20:25:31  5-MIN KDBQ 200225Z AUTO 31009KT 10SM CLR 01/M05 A3021 810 64 -600 310/09 RMK AO2 TSNO
94908KDBQ DBQ20011119203010411/19/01 20:30:31  5-MIN KDBQ 200230Z AUTO 31011KT 10SM CLR 01/M05 A3021 810 66 -700 310/11 RMK AO2 TSNO
94908KDBQ DBQ20011119203510411/19/01 20:35:31  5-MIN KDBQ 200235Z AUTO 31009KT 10SM CLR 01/M05 A3021 810 64 -600 310/09 RMK AO2 TSNO
94908KDBQ DBQ20011119204010411/19/01 20:40:31  5-MIN KDBQ 200240Z AUTO 31009KT 10SM CLR 01/M05 A3021 810 66 -700 310/09 RMK AO2 TSNO
94908KDBQ DBQ20011119204510411/19/01 20:45:31  5-MIN KDBQ 200245Z AUTO 32009KT 10SM CLR 01/M05 A3021 810 66 -700 320/09 RMK AO2 TSNO
94908KDBQ DBQ20011119205012711/19/01 20:50:31  5-MIN KDBQ 200250Z AUTO 31009KT 10SM CLR 01/M05 A3021 810 66 -700 310/09 RMK AO2 SLP241 T00061050 51016 TSNO
94908KDBQ DBQ20011119205512711/19/01 20:55:31  5-MIN KDBQ 200255Z AUTO 31009KT 10SM CLR 01/M05 A3021 810 66 -700 310/09 RMK AO2 SLP240 T00061050 51007 TSNO
94908KDBQ DBQ20011119210010411/19/01 21:00:31  5-MIN KDBQ 200300Z AUTO 31008KT 10SM CLR 01/M05 A3021 810 66 -700 310/08 RMK AO2 TSNO
94908KDBQ DBQ20011119210510411/19/01 21:05:31  5-MIN KDBQ 200305Z AUTO 31008KT 10SM CLR 01/M04 A3021 810 69 -700 310/08 RMK AO2 TSNO
94908KDBQ DBQ20011119211010411/19/01 21:10:31  5-MIN KDBQ 200310Z AUTO 31008KT 10SM CLR 00/M04 A3021 810 72 -700 310/08 RMK AO2 TSNO
94908KDBQ DBQ20011119211510411/19/01 21:15:31  5-MIN KDBQ 200315Z AUTO 31009KT 10SM CLR 00/M05 A3021 810 69 -700 310/09 RMK AO2 TSNO
94908KDBQ DBQ20011119212010411/19/01 21:20:31  5-MIN KDBQ 200320Z AUTO 31009KT 10SM CLR 00/M05 A3021 810 69 -700 310/09 RMK AO2 TSNO
94908KDBQ DBQ20011119212510411/19/01 21:25:31  5-MIN KDBQ 200325Z AUTO 31009KT 10SM CLR 00/M05 A3021 810 69 -700 310/09 RMK AO2 TSNO
94908KDBQ DBQ20011119213010411/19/01 21:30:31  5-MIN KDBQ 200330Z AUTO 31009KT 10SM CLR 00/M05 A3022 810 69 -700 310/09 RMK AO2 TSNO
94908KDBQ DBQ20011119213510411/19/01 21:35:31  5-MIN KDBQ 200335Z AUTO 31008KT 10SM CLR 00/M05 A3022 810 69 -700 310/08 RMK AO2 TSNO
94908KDBQ DBQ20011119214010411/19/01 21:40:31  5-MIN KDBQ 200340Z AUTO 31009KT 10SM CLR 00/M05 A3022 810 69 -700 310/09 RMK AO2 TSNO
94908KDBQ DBQ20011119214510411/19/01 21:45:31  5-MIN KDBQ 200345Z AUTO 31008KT 10SM CLR 00/M05 A3022 810 69 -700 310/08 RMK AO2 TSNO
94908KDBQ DBQ20011119215012111/19/01 21:50:31  5-MIN KDBQ 200350Z AUTO 30008KT 10SM CLR 00/M05 A3022 810 69 -700 300/08 RMK AO2 SLP243 T00001050 TSNO
94908KDBQ DBQ20011119215512111/19/01 21:55:31  5-MIN KDBQ 200355Z AUTO 30007KT 10SM CLR 00/M05 A3022 800 69 -700 300/07 RMK AO2 SLP243 T00001050 TSNO
94908KDBQ DBQ20011119220010411/19/01 22:00:31  5-MIN KDBQ 200400Z AUTO 30007KT 10SM CLR 00/M06 A3022 800 66 -700 300/07 RMK AO2 TSNO
94908KDBQ DBQ20011119220510411/19/01 22:05:31  5-MIN KDBQ 200405Z AUTO 30008KT 10SM CLR 00/M06 A3022 800 66 -700 300/08 RMK AO2 TSNO
94908KDBQ DBQ20011119221010511/19/01 22:10:31  5-MIN KDBQ 200410Z AUTO 30007KT 10SM CLR M01/M06 A3022 800 69 -800 300/07 RMK AO2 TSNO
94908KDBQ DBQ20011119221510411/19/01 22:15:31  5-MIN KDBQ 200415Z AUTO 30007KT 10SM CLR 00/M06 A3023 800 66 -800 300/07 RMK AO2 TSNO
94908KDBQ DBQ20011119222010511/19/01 22:20:31  5-MIN KDBQ 200420Z AUTO 30006KT 10SM CLR M01/M06 A3023 790 69 -800 300/06 RMK AO2 TSNO
94908KDBQ DBQ20011119222510511/19/01 22:25:31  5-MIN KDBQ 200425Z AUTO 31006KT 10SM CLR M01/M06 A3023 790 69 -800 300/06 RMK AO2 TSNO
94908KDBQ DBQ20011119223010511/19/01 22:30:31  5-MIN KDBQ 200430Z AUTO 30007KT 10SM CLR M01/M06 A3023 790 69 -800 300/07 RMK AO2 TSNO
94908KDBQ DBQ20011119223510511/19/01 22:35:31  5-MIN KDBQ 200435Z AUTO 31007KT 10SM CLR M01/M06 A3023 790 69 -800 300/07 RMK AO2 TSNO
94908KDBQ DBQ20011119224010511/19/01 22:40:31  5-MIN KDBQ 200440Z AUTO 31007KT 10SM CLR M01/M06 A3023 790 69 -800 310/07 RMK AO2 TSNO
94908KDBQ DBQ20011119224510511/19/01 22:45:31  5-MIN KDBQ 200445Z AUTO 32007KT 10SM CLR M01/M06 A3023 790 72 -900 310/07 RMK AO2 TSNO
94908KDBQ DBQ20011119225012211/19/01 22:50:31  5-MIN KDBQ 200450Z AUTO 32007KT 10SM CLR M01/M06 A3023 790 72 -900 320/07 RMK AO2 SLP247 T10111056 TSNO
94908KDBQ DBQ20011119225512211/19/01 22:55:31  5-MIN KDBQ 200455Z AUTO 32007KT 10SM CLR M01/M06 A3023 800 72 -900 320/07 RMK AO2 SLP246 T10111056 TSNO
94908KDBQ DBQ20011119230010511/19/01 23:00:31  5-MIN KDBQ 200500Z AUTO 31007KT 10SM CLR M01/M06 A3023 800 72 -900 310/07 RMK AO2 TSNO
94908KDBQ DBQ20011119230510511/19/01 23:05:31  5-MIN KDBQ 200505Z AUTO 31007KT 10SM CLR M01/M06 A3023 790 69 -800 310/07 RMK AO2 TSNO
94908KDBQ DBQ20011119231010511/19/01 23:10:31  5-MIN KDBQ 200510Z AUTO 31007KT 10SM CLR M01/M06 A3023 790 72 -900 310/07 RMK AO2 TSNO
94908KDBQ DBQ20011119231510511/19/01 23:15:31  5-MIN KDBQ 200515Z AUTO 31007KT 10SM CLR M01/M06 A3023 790 72 -900 310/07 RMK AO2 TSNO
94908KDBQ DBQ20011119232010511/19/01 23:20:31  5-MIN KDBQ 200520Z AUTO 32007KT 10SM CLR M01/M06 A3023 790 72 -900 320/07 RMK AO2 TSNO
94908KDBQ DBQ20011119232510511/19/01 23:25:31  5-MIN KDBQ 200525Z AUTO 32007KT 10SM CLR M01/M06 A3023 790 72 -900 310/07 RMK AO2 TSNO
94908KDBQ DBQ20011119233010511/19/01 23:30:31  5-MIN KDBQ 200530Z AUTO 32007KT 10SM CLR M01/M06 A3023 790 69 -900 320/07 RMK AO2 TSNO
94908KDBQ DBQ20011119233510511/19/01 23:35:31  5-MIN KDBQ 200535Z AUTO 32008KT 10SM CLR M01/M06 A3023 790 69 -900 320/08 RMK AO2 TSNO
94908KDBQ DBQ20011119234010511/19/01 23:40:31  5-MIN KDBQ 200540Z AUTO 33008KT 10SM CLR M01/M06 A3023 790 66 -800 330/08 RMK AO2 TSNO
94908KDBQ DBQ20011119234510511/19/01 23:45:31  5-MIN KDBQ 200545Z AUTO 33008KT 10SM CLR M01/M06 A3023 800 66 -800 330/08 RMK AO2 TSNO
94908KDBQ DBQ20011119235015011/19/01 23:50:31  5-MIN KDBQ 200550Z AUTO 33008KT 10SM CLR M01/M06 A3023 800 66 -800 320/08 RMK AO2 SLP246 T10061061 10022 21011 401001011 51007 TSNO
94908KDBQ DBQ20011119235515011/19/01 23:55:31  5-MIN KDBQ 200555Z AUTO 33008KT 10SM CLR M01/M06 A3023 800 66 -800 330/08 RMK AO2 SLP246 T10061061 10022 21011 401001011 51006 TSNO
94908KDBQ DBQ20011120000010511/20/01 00:00:31  5-MIN KDBQ 200600Z AUTO 33008KT 10SM CLR M01/M06 A3023 800 66 -800 330/08 RMK AO2 TSNO
94908KDBQ DBQ20011120000510511/20/01 00:05:31  5-MIN KDBQ 200605Z AUTO 33008KT 10SM CLR M01/M06 A3023 800 66 -800 330/08 RMK AO2 TSNO
94908KDBQ DBQ20011120001010511/20/01 00:10:31  5-MIN KDBQ 200610Z AUTO 32008KT 10SM CLR M01/M06 A3022 800 69 -900 320/08 RMK AO2 TSNO
94908KDBQ DBQ20011120001510511/20/01 00:15:31  5-MIN KDBQ 200615Z AUTO 32008KT 10SM CLR M01/M06 A3022 800 66 -800 320/08 RMK AO2 TSNO
94908KDBQ DBQ20011120002010511/20/01 00:20:31  5-MIN KDBQ 200620Z AUTO 32008KT 10SM CLR M01/M06 A3023 800 66 -800 320/08 RMK AO2 TSNO
94908KDBQ DBQ20011120002510511/20/01 00:25:31  5-MIN KDBQ 200625Z AUTO 32008KT 10SM CLR M01/M06 A3023 800 66 -800 320/08 RMK AO2 TSNO
94908KDBQ DBQ20011120003010511/20/01 00:30:31  5-MIN KDBQ 200630Z AUTO 32008KT 10SM CLR M01/M06 A3023 800 66 -800 320/08 RMK AO2 TSNO
94908KDBQ DBQ20011120003510511/20/01 00:35:31  5-MIN KDBQ 200635Z AUTO 32007KT 10SM CLR M01/M06 A3022 800 66 -800 320/07 RMK AO2 TSNO
94908KDBQ DBQ20011120004010511/20/01 00:40:31  5-MIN KDBQ 200640Z AUTO 31008KT 10SM CLR M01/M06 A3022 800 69 -900 310/08 RMK AO2 TSNO
94908KDBQ DBQ20011120004510511/20/01 00:45:31  5-MIN KDBQ 200645Z AUTO 30006KT 10SM CLR M01/M06 A3022 800 69 -900 300/06 RMK AO2 TSNO
94908KDBQ DBQ20011120005012311/20/01 00:50:31  5-MIN KDBQ 200650Z AUTO 28006KT 10SM CLR M02/M06 A3023 800 72 -1000 280/06 RMK AO2 SLP246 T10171061 TSNO
94908KDBQ DBQ20011120005512311/20/01 00:55:31  5-MIN KDBQ 200655Z AUTO 28006KT 10SM CLR M02/M06 A3023 790 75 -1000 280/06 RMK AO2 SLP247 T10221061 TSNO
94908KDBQ DBQ20011120010010611/20/01 01:00:31  5-MIN KDBQ 200700Z AUTO 28006KT 10SM CLR M02/M06 A3023 800 75 -1000 280/06 RMK AO2 TSNO
94908KDBQ DBQ20011120010510611/20/01 01:05:31  5-MIN KDBQ 200705Z AUTO 27007KT 10SM CLR M02/M06 A3023 800 75 -1000 270/07 RMK AO2 TSNO
94908KDBQ DBQ20011120011010611/20/01 01:10:31  5-MIN KDBQ 200710Z AUTO 27006KT 10SM CLR M02/M06 A3023 800 75 -1000 270/06 RMK AO2 TSNO
94908KDBQ DBQ20011120011510611/20/01 01:15:31  5-MIN KDBQ 200715Z AUTO 27006KT 10SM CLR M03/M06 A3023 800 78 -1100 270/06 RMK AO2 TSNO
94908KDBQ DBQ20011120012010611/20/01 01:20:31  5-MIN KDBQ 200720Z AUTO 28006KT 10SM CLR M03/M06 A3023 800 78 -1100 280/06 RMK AO2 TSNO
94908KDBQ DBQ20011120012510611/20/01 01:25:31  5-MIN KDBQ 200725Z AUTO 28006KT 10SM CLR M03/M06 A3022 800 78 -1100 280/06 RMK AO2 TSNO
94908KDBQ DBQ20011120013010611/20/01 01:30:31  5-MIN KDBQ 200730Z AUTO 28006KT 10SM CLR M03/M06 A3022 800 78 -1100 280/06 RMK AO2 TSNO
94908KDBQ DBQ20011120013510611/20/01 01:35:31  5-MIN KDBQ 200735Z AUTO 28006KT 10SM CLR M03/M06 A3023 800 78 -1100 280/06 RMK AO2 TSNO
94908KDBQ DBQ20011120014010611/20/01 01:40:31  5-MIN KDBQ 200740Z AUTO 28007KT 10SM CLR M03/M06 A3023 800 78 -1100 280/07 RMK AO2 TSNO
94908KDBQ DBQ20011120014510611/20/01 01:45:31  5-MIN KDBQ 200745Z AUTO 28007KT 10SM CLR M03/M06 A3022 800 78 -1100 280/07 RMK AO2 TSNO
94908KDBQ DBQ20011120015012311/20/01 01:50:31  5-MIN KDBQ 200750Z AUTO 29007KT 10SM CLR M03/M06 A3023 800 78 -1100 290/07 RMK AO2 SLP247 T10281061 TSNO
94908KDBQ DBQ20011120015512311/20/01 01:55:31  5-MIN KDBQ 200755Z AUTO 29006KT 10SM CLR M03/M06 A3023 800 78 -1100 290/06 RMK AO2 SLP247 T10281061 TSNO
94908KDBQ DBQ20011120020010611/20/01 02:00:31  5-MIN KDBQ 200800Z AUTO 28006KT 10SM CLR M03/M07 A3023 800 75 -1100 280/06 RMK AO2 TSNO
94908KDBQ DBQ20011120020510611/20/01 02:05:31  5-MIN KDBQ 200805Z AUTO 28006KT 10SM CLR M03/M06 A3022 800 78 -1100 280/06 RMK AO2 TSNO
94908KDBQ DBQ20011120021010611/20/01 02:10:31  5-MIN KDBQ 200810Z AUTO 28006KT 10SM CLR M03/M07 A3022 800 75 -1100 280/06 RMK AO2 TSNO
94908KDBQ DBQ20011120021510611/20/01 02:15:31  5-MIN KDBQ 200815Z AUTO 28006KT 10SM CLR M03/M07 A3022 800 75 -1100 270/06 RMK AO2 TSNO
94908KDBQ DBQ20011120022010611/20/01 02:20:31  5-MIN KDBQ 200820Z AUTO 28007KT 10SM CLR M03/M07 A3022 800 78 -1200 280/07 RMK AO2 TSNO
94908KDBQ DBQ20011120022510611/20/01 02:25:31  5-MIN KDBQ 200825Z AUTO 29007KT 10SM CLR M03/M07 A3023 800 75 -1100 290/07 RMK AO2 TSNO
94908KDBQ DBQ20011120023010611/20/01 02:30:31  5-MIN KDBQ 200830Z AUTO 28007KT 10SM CLR M03/M06 A3022 800 78 -1100 280/07 RMK AO2 TSNO
94908KDBQ DBQ20011120023510611/20/01 02:35:31  5-MIN KDBQ 200835Z AUTO 28006KT 10SM CLR M03/M06 A3021 810 78 -1100 280/06 RMK AO2 TSNO
94908KDBQ DBQ20011120024010611/20/01 02:40:31  5-MIN KDBQ 200840Z AUTO 29006KT 10SM CLR M03/M06 A3022 810 78 -1100 280/06 RMK AO2 TSNO
94908KDBQ DBQ20011120024510611/20/01 02:45:31  5-MIN KDBQ 200845Z AUTO VRB03KT 10SM CLR M03/M06 A3022 800 78 -1100 VRB/03 RMK AO2 TSNO
94908KDBQ DBQ20011120025012911/20/01 02:50:31  5-MIN KDBQ 200850Z AUTO 18004KT 10SM CLR M04/M06 A3022 800 85 -1200 180/04 RMK AO2 SLP244 T10391061 51006 TSNO
94908KDBQ DBQ20011120025512911/20/01 02:55:31  5-MIN KDBQ 200855Z AUTO 18005KT 10SM CLR M04/M06 A3022 810 85 -1200 180/05 RMK AO2 SLP243 T10391061 58004 TSNO
94908KDBQ DBQ20011120030010611/20/01 03:00:31  5-MIN KDBQ 200900Z AUTO 20004KT 10SM CLR M03/M06 A3022 810 81 -1200 200/04 RMK AO2 TSNO
94908KDBQ DBQ20011120030510611/20/01 03:05:31  5-MIN KDBQ 200905Z AUTO 22004KT 10SM CLR M04/M06 A3022 810 85 -1200 220/04 RMK AO2 TSNO
94908KDBQ DBQ20011120031010611/20/01 03:10:31  5-MIN KDBQ 200910Z AUTO 23004KT 10SM CLR M04/M07 A3022 810 81 -1200 220/04 RMK AO2 TSNO
94908KDBQ DBQ20011120031510611/20/01 03:15:31  5-MIN KDBQ 200915Z AUTO 22003KT 10SM CLR M04/M07 A3021 810 81 -1200 220/03 RMK AO2 TSNO
94908KDBQ DBQ20011120032010611/20/01 03:20:31  5-MIN KDBQ 200920Z AUTO 20003KT 10SM CLR M04/M07 A3022 810 81 -1200 200/03 RMK AO2 TSNO
94908KDBQ DBQ20011120032510611/20/01 03:25:31  5-MIN KDBQ 200925Z AUTO 19004KT 10SM CLR M04/M06 A3021 810 85 -1200 190/04 RMK AO2 TSNO
94908KDBQ DBQ20011120033010611/20/01 03:30:31  5-MIN KDBQ 200930Z AUTO 20005KT 10SM CLR M04/M07 A3021 810 81 -1200 200/05 RMK AO2 TSNO
94908KDBQ DBQ20011120033510611/20/01 03:35:31  5-MIN KDBQ 200935Z AUTO 21004KT 10SM CLR M04/M07 A3021 810 81 -1200 210/04 RMK AO2 TSNO
94908KDBQ DBQ20011120034010611/20/01 03:40:31  5-MIN KDBQ 200940Z AUTO 21003KT 10SM CLR M04/M06 A3022 810 85 -1200 210/03 RMK AO2 TSNO
94908KDBQ DBQ20011120034510611/20/01 03:45:31  5-MIN KDBQ 200945Z AUTO 21003KT 10SM CLR M04/M07 A3022 810 81 -1200 200/03 RMK AO2 TSNO
94908KDBQ DBQ20011120035012311/20/01 03:50:31  5-MIN KDBQ 200950Z AUTO 21003KT 10SM CLR M04/M07 A3022 800 81 -1200 210/03 RMK AO2 SLP246 T10391067 TSNO
94908KDBQ DBQ20011120035512311/20/01 03:55:31  5-MIN KDBQ 200955Z AUTO 20003KT 10SM CLR M04/M07 A3022 800 84 -1300 200/03 RMK AO2 SLP245 T10441067 TSNO
94908KDBQ DBQ20011120040010611/20/01 04:00:31  5-MIN KDBQ 201000Z AUTO 21004KT 10SM CLR M04/M07 A3022 800 84 -1300 210/04 RMK AO2 TSNO
94908KDBQ DBQ20011120040510611/20/01 04:05:31  5-MIN KDBQ 201005Z AUTO 21004KT 10SM CLR M04/M06 A3022 800 85 -1200 210/04 RMK AO2 TSNO
94908KDBQ DBQ20011120041010611/20/01 04:10:31  5-MIN KDBQ 201010Z AUTO 21003KT 10SM CLR M04/M07 A3022 800 84 -1300 210/03 RMK AO2 TSNO
94908KDBQ DBQ20011120041510611/20/01 04:15:31  5-MIN KDBQ 201015Z AUTO 20004KT 10SM CLR M04/M07 A3022 800 84 -1300 200/04 RMK AO2 TSNO
94908KDBQ DBQ20011120042010611/20/01 04:20:31  5-MIN KDBQ 201020Z AUTO 21003KT 10SM CLR M04/M07 A3022 800 84 -1300 210/03 RMK AO2 TSNO
94908KDBQ DBQ20011120042510611/20/01 04:25:31  5-MIN KDBQ 201025Z AUTO 00000KT 10SM CLR M04/M07 A3023 790 84 -1300 000/00 RMK AO2 TSNO
94908KDBQ DBQ20011120043010611/20/01 04:30:31  5-MIN KDBQ 201030Z AUTO 00000KT 10SM CLR M04/M07 A3023 790 84 -1300 000/00 RMK AO2 TSNO
94908KDBQ DBQ20011120043510611/20/01 04:35:31  5-MIN KDBQ 201035Z AUTO 21003KT 10SM CLR M04/M07 A3023 790 84 -1300 210/03 RMK AO2 TSNO
94908KDBQ DBQ20011120044010611/20/01 04:40:31  5-MIN KDBQ 201040Z AUTO 19004KT 10SM CLR M04/M07 A3023 790 84 -1300 190/04 RMK AO2 TSNO
94908KDBQ DBQ20011120044510611/20/01 04:45:31  5-MIN KDBQ 201045Z AUTO 20004KT 10SM CLR M05/M07 A3023 790 88 -1400 200/04 RMK AO2 TSNO
94908KDBQ DBQ20011120045012311/20/01 04:50:31  5-MIN KDBQ 201050Z AUTO 21004KT 10SM CLR M05/M07 A3023 790 88 -1400 210/04 RMK AO2 SLP251 T10501067 TSNO
94908KDBQ DBQ20011120045512311/20/01 04:55:31  5-MIN KDBQ 201055Z AUTO 21004KT 10SM CLR M05/M07 A3023 790 88 -1400 210/04 RMK AO2 SLP251 T10501067 TSNO
94908KDBQ DBQ20011120050010611/20/01 05:00:31  5-MIN KDBQ 201100Z AUTO 21005KT 10SM CLR M05/M07 A3024 790 88 -1400 210/05 RMK AO2 TSNO
94908KDBQ DBQ20011120050510611/20/01 05:05:31  5-MIN KDBQ 201105Z AUTO 22004KT 10SM CLR M05/M07 A3024 790 84 -1400 220/04 RMK AO2 TSNO
94908KDBQ DBQ20011120051010611/20/01 05:10:31  5-MIN KDBQ 201110Z AUTO 22004KT 10SM CLR M05/M07 A3023 790 84 -1400 220/04 RMK AO2 TSNO
94908KDBQ DBQ20011120051510611/20/01 05:15:31  5-MIN KDBQ 201115Z AUTO 21003KT 10SM CLR M05/M07 A3023 790 84 -1400 210/03 RMK AO2 TSNO
94908KDBQ DBQ20011120052010611/20/01 05:20:31  5-MIN KDBQ 201120Z AUTO 19004KT 10SM CLR M05/M07 A3023 800 88 -1400 190/04 RMK AO2 TSNO
94908KDBQ DBQ20011120052510611/20/01 05:25:31  5-MIN KDBQ 201125Z AUTO 19003KT 10SM CLR M04/M07 A3023 790 84 -1300 190/03 RMK AO2 TSNO
94908KDBQ DBQ20011120053010611/20/01 05:30:31  5-MIN KDBQ 201130Z AUTO 20004KT 10SM CLR M04/M07 A3023 790 84 -1300 200/04 RMK AO2 TSNO
94908KDBQ DBQ20011120053510611/20/01 05:35:31  5-MIN KDBQ 201135Z AUTO 20003KT 10SM CLR M05/M07 A3023 790 88 -1400 190/03 RMK AO2 TSNO
94908KDBQ DBQ20011120054010611/20/01 05:40:31  5-MIN KDBQ 201140Z AUTO 21003KT 10SM CLR M05/M07 A3023 790 88 -1400 210/03 RMK AO2 TSNO
94908KDBQ DBQ20011120054510611/20/01 05:45:31  5-MIN KDBQ 201145Z AUTO 20003KT 10SM CLR M05/M07 A3024 790 88 -1400 200/03 RMK AO2 TSNO
94908KDBQ DBQ20011120055013111/20/01 05:50:31  5-MIN KDBQ 201150Z 21003KT 10SM CLR M04/M07 A3024 790 84 -1300 210/03 RMK AO2 SLP252 T10441067 11006 21050 58004
94908KDBQ DBQ20011120055513111/20/01 05:55:31  5-MIN KDBQ 201155Z 21003KT 10SM CLR M05/M07 A3024 790 84 -1400 210/03 RMK AO2 SLP252 T10501072 11006 21050 52006
94908KDBQ DBQ20011120060009611/20/01 06:00:31  5-MIN KDBQ 201200Z 21004KT 10SM CLR M05/M07 A3023 790 84 -1400 210/04 RMK AO2
94908KDBQ DBQ20011120060509611/20/01 06:05:31  5-MIN KDBQ 201205Z 21003KT 10SM CLR M05/M07 A3023 790 84 -1400 210/03 RMK AO2
94908KDBQ DBQ20011120061009611/20/01 06:10:31  5-MIN KDBQ 201210Z 22003KT 10SM CLR M06/M07 A3024 790 88 -1500 220/03 RMK AO2
94908KDBQ DBQ20011120061509611/20/01 06:15:31  5-MIN KDBQ 201215Z 21004KT 10SM CLR M05/M07 A3024 790 84 -1400 210/04 RMK AO2
94908KDBQ DBQ20011120062009611/20/01 06:20:31  5-MIN KDBQ 201220Z 21003KT 10SM CLR M05/M07 A3024 780 84 -1400 210/03 RMK AO2
94908KDBQ DBQ20011120062509611/20/01 06:25:31  5-MIN KDBQ 201225Z 20004KT 10SM CLR M06/M07 A3024 790 88 -1500 200/04 RMK AO2
94908KDBQ DBQ20011120063009611/20/01 06:30:31  5-MIN KDBQ 201230Z 20004KT 10SM CLR M06/M07 A3023 790 88 -1500 200/04 RMK AO2
94908KDBQ DBQ20011120063509611/20/01 06:35:31  5-MIN KDBQ 201235Z 21005KT 10SM CLR M05/M07 A3023 790 84 -1400 210/05 RMK AO2
94908KDBQ DBQ20011120064009611/20/01 06:40:31  5-MIN KDBQ 201240Z 20003KT 10SM CLR M05/M07 A3023 790 84 -1400 200/03 RMK AO2
94908KDBQ DBQ20011120064509611/20/01 06:45:31  5-MIN KDBQ 201245Z 20003KT 10SM CLR M05/M07 A3024 790 84 -1400 200/03 RMK AO2
94908KDBQ DBQ20011120065011311/20/01 06:50:31  5-MIN KDBQ 201250Z 00000KT 10SM CLR M05/M07 A3024 790 84 -1400 000/00 RMK AO2 SLP253 T10501072
94908KDBQ DBQ20011120065511311/20/01 06:55:31  5-MIN KDBQ 201255Z 00000KT 10SM CLR M05/M07 A3024 790 88 -1400 000/00 RMK AO2 SLP254 T10501067
94908KDBQ DBQ20011120070009611/20/01 07:00:31  5-MIN KDBQ 201300Z 00000KT 10SM CLR M05/M07 A3024 790 88 -1400 000/00 RMK AO2
94908KDBQ DBQ20011120070509611/20/01 07:05:31  5-MIN KDBQ 201305Z 19003KT 10SM CLR M04/M07 A3024 780 84 -1300 190/03 RMK AO2
94908KDBQ DBQ20011120071009611/20/01 07:10:31  5-MIN KDBQ 201310Z 00000KT 10SM CLR M04/M07 A3024 790 84 -1300 000/00 RMK AO2
94908KDBQ DBQ20011120071509611/20/01 07:15:31  5-MIN KDBQ 201315Z 20003KT 10SM CLR M04/M07 A3024 790 84 -1300 190/03 RMK AO2
94908KDBQ DBQ20011120072009611/20/01 07:20:31  5-MIN KDBQ 201320Z 18003KT 10SM CLR M04/M07 A3023 790 84 -1300 180/03 RMK AO2
94908KDBQ DBQ20011120072509611/20/01 07:25:31  5-MIN KDBQ 201325Z 17003KT 10SM CLR M04/M07 A3023 790 84 -1300 170/03 RMK AO2
94908KDBQ DBQ20011120073009611/20/01 07:30:31  5-MIN KDBQ 201330Z 19003KT 10SM CLR M04/M07 A3023 800 84 -1300 190/03 RMK AO2
94908KDBQ DBQ20011120073509611/20/01 07:35:31  5-MIN KDBQ 201335Z 19003KT 10SM CLR M04/M07 A3023 800 84 -1300 190/03 RMK AO2
94908KDBQ DBQ20011120074009611/20/01 07:40:31  5-MIN KDBQ 201340Z 21004KT 10SM CLR M04/M06 A3023 800 85 -1200 210/04 RMK AO2
94908KDBQ DBQ20011120074509611/20/01 07:45:31  5-MIN KDBQ 201345Z 20003KT 10SM CLR M04/M06 A3023 790 85 -1200 200/03 RMK AO2
94908KDBQ DBQ20011120075011311/20/01 07:50:31  5-MIN KDBQ 201350Z 21004KT 10SM CLR M04/M06 A3023 800 88 -1300 210/04 RMK AO2 SLP250 T10441061
94908KDBQ DBQ20011120075511311/20/01 07:55:31  5-MIN KDBQ 201355Z 20004KT 10SM CLR M04/M06 A3023 800 88 -1300 200/04 RMK AO2 SLP250 T10441061
94908KDBQ DBQ20011120080009611/20/01 08:00:31  5-MIN KDBQ 201400Z 19003KT 10SM CLR M04/M06 A3022 800 85 -1200 190/03 RMK AO2
94908KDBQ DBQ20011120080509611/20/01 08:05:31  5-MIN KDBQ 201405Z 20004KT 10SM CLR M04/M06 A3022 800 88 -1200 200/04 RMK AO2
94908KDBQ DBQ20011120081009611/20/01 08:10:31  5-MIN KDBQ 201410Z 21004KT 10SM CLR M04/M06 A3022 800 88 -1200 210/04 RMK AO2
94908KDBQ DBQ20011120081509611/20/01 08:15:31  5-MIN KDBQ 201415Z 22004KT 10SM CLR M04/M06 A3022 800 88 -1200 220/04 RMK AO2
94908KDBQ DBQ20011120082009611/20/01 08:20:31  5-MIN KDBQ 201420Z 21005KT 10SM CLR M03/M05 A3022 800 88 -1200 210/05 RMK AO2
94908KDBQ DBQ20011120082509611/20/01 08:25:31  5-MIN KDBQ 201425Z 21005KT 10SM CLR M03/M05 A3022 800 85 -1100 210/05 RMK AO2
94908KDBQ DBQ20011120083009611/20/01 08:30:31  5-MIN KDBQ 201430Z 21005KT 10SM CLR M03/M05 A3022 800 88 -1200 210/05 RMK AO2
94908KDBQ DBQ20011120083509611/20/01 08:35:31  5-MIN KDBQ 201435Z 20005KT 10SM CLR M03/M05 A3022 810 85 -1100 200/05 RMK AO2
94908KDBQ DBQ20011120084009611/20/01 08:40:31  5-MIN KDBQ 201440Z 20006KT 10SM CLR M03/M05 A3021 810 85 -1100 200/06 RMK AO2
94908KDBQ DBQ20011120084509611/20/01 08:45:31  5-MIN KDBQ 201445Z 21006KT 10SM CLR M03/M05 A3021 810 85 -1100 210/06 RMK AO2
94908KDBQ DBQ20011120085011911/20/01 08:50:31  5-MIN KDBQ 201450Z 21004KT 10SM CLR M03/M05 A3021 810 85 -1100 210/04 RMK AO2 SLP243 T10281050 52006
94908KDBQ DBQ20011120085511911/20/01 08:55:31  5-MIN KDBQ 201455Z 21004KT 10SM CLR M02/M04 A3021 810 85 -1000 210/04 RMK AO2 SLP244 T10221044 58008
94908KDBQ DBQ20011120090009611/20/01 09:00:31  5-MIN KDBQ 201500Z 20005KT 10SM CLR M02/M05 A3021 810 81 -1000 200/05 RMK AO2
94908KDBQ DBQ20011120090509611/20/01 09:05:31  5-MIN KDBQ 201505Z 19005KT 10SM CLR M02/M04 A3020 820 85 -1000 190/05 RMK AO2
94908KDBQ DBQ20011120091009511/20/01 09:10:31  5-MIN KDBQ 201510Z 19006KT 10SM CLR M02/M04 A3020 820 85 -900 190/06 RMK AO2
94908KDBQ DBQ20011120091509511/20/01 09:15:31  5-MIN KDBQ 201515Z 20005KT 10SM CLR M02/M04 A3020 820 85 -900 200/05 RMK AO2
94908KDBQ DBQ20011120092009511/20/01 09:20:31  5-MIN KDBQ 201520Z 21005KT 10SM CLR M01/M04 A3020 820 81 -900 210/05 RMK AO2
94908KDBQ DBQ20011120092509511/20/01 09:25:31  5-MIN KDBQ 201525Z 21006KT 10SM CLR M01/M04 A3020 820 81 -900 210/06 RMK AO2
94908KDBQ DBQ20011120093009511/20/01 09:30:31  5-MIN KDBQ 201530Z 22006KT 10SM CLR M01/M04 A3020 820 81 -900 220/06 RMK AO2
94908KDBQ DBQ20011120093509511/20/01 09:35:31  5-MIN KDBQ 201535Z 22007KT 10SM CLR M01/M04 A3020 820 81 -900 220/07 RMK AO2
94908KDBQ DBQ20011120094009511/20/01 09:40:31  5-MIN KDBQ 201540Z 21006KT 10SM CLR M01/M04 A3020 820 81 -900 210/06 RMK AO2
94908KDBQ DBQ20011120094509511/20/01 09:45:31  5-MIN KDBQ 201545Z 21007KT 10SM CLR M01/M03 A3021 820 81 -800 210/07 RMK AO2
94908KDBQ DBQ20011120095011111/20/01 09:50:31  5-MIN KDBQ 201550Z 22007KT 10SM CLR 00/M03 A3021 810 78 -700 220/07 RMK AO2 SLP242 T00001033
94908KDBQ DBQ20011120095511111/20/01 09:55:31  5-MIN KDBQ 201555Z 21008KT 10SM CLR 00/M03 A3021 810 78 -700 210/08 RMK AO2 SLP242 T00001033
94908KDBQ DBQ20011120100009411/20/01 10:00:31  5-MIN KDBQ 201600Z 21008KT 10SM CLR 01/M04 A3021 820 72 -700 210/08 RMK AO2
94908KDBQ DBQ20011120100509411/20/01 10:05:31  5-MIN KDBQ 201605Z 21008KT 10SM CLR 01/M03 A3020 820 75 -700 210/08 RMK AO2
94908KDBQ DBQ20011120101009411/20/01 10:10:31  5-MIN KDBQ 201610Z 21009KT 10SM CLR 01/M04 A3021 820 69 -600 210/09 RMK AO2
94908KDBQ DBQ20011120101509411/20/01 10:15:31  5-MIN KDBQ 201615Z 21009KT 10SM CLR 01/M03 A3020 820 72 -600 210/09 RMK AO2
94908KDBQ DBQ20011120102009411/20/01 10:20:31  5-MIN KDBQ 201620Z 22008KT 10SM CLR 02/M04 A3020 820 66 -500 220/08 RMK AO2
94908KDBQ DBQ20011120102509411/20/01 10:25:31  5-MIN KDBQ 201625Z 22009KT 10SM CLR 02/M03 A3020 820 67 -400 210/09 RMK AO2
94908KDBQ DBQ20011120103009411/20/01 10:30:31  5-MIN KDBQ 201630Z 21010KT 10SM CLR 02/M03 A3020 820 67 -400 210/10 RMK AO2
94908KDBQ DBQ20011120103509411/20/01 10:35:31  5-MIN KDBQ 201635Z 20010KT 10SM CLR 02/M04 A3019 830 64 -400 200/10 RMK AO2
94908KDBQ DBQ20011120104009411/20/01 10:40:31  5-MIN KDBQ 201640Z 21009KT 10SM CLR 03/M03 A3019 830 64 -400 210/09 RMK AO2
94908KDBQ DBQ20011120104509411/20/01 10:45:31  5-MIN KDBQ 201645Z 20011KT 10SM CLR 03/M04 A3019 830 61 -400 200/11 RMK AO2
94908KDBQ DBQ20011120105011111/20/01 10:50:31  5-MIN KDBQ 201650Z 20011KT 10SM CLR 03/M04 A3019 830 61 -400 200/11 RMK AO2 SLP233 T00281039
94908KDBQ DBQ20011120105511111/20/01 10:55:31  5-MIN KDBQ 201655Z 20010KT 10SM CLR 03/M04 A3019 830 61 -400 200/10 RMK AO2 SLP233 T00281039
94908KDBQ DBQ20011120110009411/20/01 11:00:31  5-MIN KDBQ 201700Z 20010KT 10SM CLR 03/M04 A3018 840 59 -300 200/10 RMK AO2
94908KDBQ DBQ20011120110509411/20/01 11:05:31  5-MIN KDBQ 201705Z 20011KT 10SM CLR 03/M04 A3018 840 57 -300 200/11 RMK AO2
94908KDBQ DBQ20011120111009411/20/01 11:10:31  5-MIN KDBQ 201710Z 21011KT 10SM CLR 03/M04 A3017 850 57 -300 210/11 RMK AO2
94908KDBQ DBQ20011120111509411/20/01 11:15:31  5-MIN KDBQ 201715Z 21011KT 10SM CLR 04/M04 A3017 850 54 -200 210/11 RMK AO2
94908KDBQ DBQ20011120112009411/20/01 11:20:31  5-MIN KDBQ 201720Z 21012KT 10SM CLR 04/M04 A3016 850 54 -200 210/12 RMK AO2
94908KDBQ DBQ20011120112509411/20/01 11:25:31  5-MIN KDBQ 201725Z 22011KT 10SM CLR 03/M05 A3016 860 54 -300 220/11 RMK AO2
94908KDBQ DBQ20011120113009411/20/01 11:30:31  5-MIN KDBQ 201730Z 21010KT 10SM CLR 04/M04 A3016 860 54 -200 210/10 RMK AO2
94908KDBQ DBQ20011120113509411/20/01 11:35:31  5-MIN KDBQ 201735Z 22010KT 10SM CLR 04/M04 A3015 860 54 -200 210/10 RMK AO2
94908KDBQ DBQ20011120114009411/20/01 11:40:31  5-MIN KDBQ 201740Z 21013KT 10SM CLR 04/M04 A3015 860 57 -200 210/13 RMK AO2
94908KDBQ DBQ20011120114509411/20/01 11:45:31  5-MIN KDBQ 201745Z 22011KT 10SM CLR 04/M04 A3014 870 55 -100 220/11 RMK AO2
94908KDBQ DBQ20011120115012911/20/01 11:50:31  5-MIN KDBQ 201750Z 20013KT 10SM CLR 04/M04 A3014 880 55 -100 190/13 RMK AO2 SLP217 T00441039 10044 21056 58008
94908KDBQ DBQ20011120115512911/20/01 11:55:31  5-MIN KDBQ 201755Z 22011KT 10SM CLR 04/M04 A3013 880 55 -100 220/11 RMK AO2 SLP214 T00441039 10044 21056 58026
94908KDBQ DBQ20011120120009111/20/01 12:00:31  5-MIN KDBQ 201800Z 20012KT 10SM CLR 05/M04 A3013 880 52 0 200/12 RMK AO2
94908KDBQ DBQ20011120120509411/20/01 12:05:31  5-MIN KDBQ 201805Z 21012KT 10SM CLR 04/M06 A3014 880 48 -100 210/12 RMK AO2
94908KDBQ DBQ20011120121009411/20/01 12:10:31  5-MIN KDBQ 201810Z 21011KT 10SM CLR 04/M06 A3013 880 48 -100 210/11 RMK AO2
94908KDBQ DBQ20011120121509111/20/01 12:15:31  5-MIN KDBQ 201815Z 22011KT 10SM CLR 05/M05 A3013 890 48 0 220/11 RMK AO2
94908KDBQ DBQ20011120122009111/20/01 12:20:31  5-MIN KDBQ 201820Z 20011KT 10SM CLR 05/M05 A3012 890 48 0 200/11 RMK AO2
94908KDBQ DBQ20011120122509111/20/01 12:25:31  5-MIN KDBQ 201825Z 22012KT 10SM CLR 06/M04 A3012 890 48 0 220/12 RMK AO2
94908KDBQ DBQ20011120123009111/20/01 12:30:31  5-MIN KDBQ 201830Z 20012KT 10SM CLR 05/M05 A3012 900 48 0 200/12 RMK AO2
94908KDBQ DBQ20011120123509111/20/01 12:35:31  5-MIN KDBQ 201835Z 20009KT 10SM CLR 05/M05 A3012 900 48 0 200/09 RMK AO2
94908KDBQ DBQ20011120124009111/20/01 12:40:31  5-MIN KDBQ 201840Z 19011KT 10SM CLR 06/M05 A3011 900 46 0 190/11 RMK AO2
94908KDBQ DBQ20011120124509111/20/01 12:45:31  5-MIN KDBQ 201845Z 20012KT 10SM CLR 06/M06 A3011 910 44 0 200/12 RMK AO2
94908KDBQ DBQ20011120125010811/20/01 12:50:31  5-MIN KDBQ 201850Z 20012KT 10SM CLR 06/M06 A3010 910 44 0 200/12 RMK AO2 SLP204 T00561056
94908KDBQ DBQ20011120125510811/20/01 12:55:31  5-MIN KDBQ 201855Z 19012KT 10SM CLR 06/M06 A3010 910 44 0 190/12 RMK AO2 SLP205 T00561056
94908KDBQ DBQ20011120130009111/20/01 13:00:31  5-MIN KDBQ 201900Z 19013KT 10SM CLR 06/M05 A3010 920 46 0 190/13 RMK AO2
94908KDBQ DBQ20011120130509111/20/01 13:05:31  5-MIN KDBQ 201905Z 19012KT 10SM CLR 05/M06 A3010 920 46 0 190/12 RMK AO2
94908KDBQ DBQ20011120131009111/20/01 13:10:31  5-MIN KDBQ 201910Z 20013KT 10SM CLR 06/M06 A3009 920 44 0 190/13 RMK AO2
94908KDBQ DBQ20011120131509311/20/01 13:15:31  5-MIN KDBQ 201915Z 19014KT 10SM CLR 06/M04 A3010 920 46 100 190/14 RMK AO2
94908KDBQ DBQ20011120132009111/20/01 13:20:31  5-MIN KDBQ 201920Z 20012KT 10SM CLR 06/M05 A3009 920 46 0 200/12 RMK AO2
94908KDBQ DBQ20011120132509311/20/01 13:25:31  5-MIN KDBQ 201925Z 20012KT 10SM CLR 06/M05 A3009 920 45 100 200/12 RMK AO2
94908KDBQ DBQ20011120133009311/20/01 13:30:31  5-MIN KDBQ 201930Z 21013KT 10SM CLR 06/M04 A3008 930 46 100 210/13 RMK AO2
94908KDBQ DBQ20011120133510011/20/01 13:35:31  5-MIN KDBQ 201935Z 20014KT 10SM CLR 07/M04 A3007 940 47 200 200/14 RMK AO2 PRESFR
94908KDBQ DBQ20011120134009311/20/01 13:40:31  5-MIN KDBQ 201940Z 21014KT 10SM CLR 06/M04 A3007 940 46 100 210/14 RMK AO2
94908KDBQ DBQ20011120134509311/20/01 13:45:31  5-MIN KDBQ 201945Z 21014KT 10SM CLR 06/M05 A3007 940 45 100 210/14 RMK AO2
94908KDBQ DBQ20011120135011011/20/01 13:50:31  5-MIN KDBQ 201950Z 21015KT 10SM CLR 06/M05 A3007 940 45 100 210/15 RMK AO2 SLP192 T00611050
94908KDBQ DBQ20011120135511011/20/01 13:55:31  5-MIN KDBQ 201955Z 21014KT 10SM CLR 06/M06 A3006 950 44 100 210/14 RMK AO2 SLP191 T00561056
94908KDBQ DBQ20011120140009311/20/01 14:00:31  5-MIN KDBQ 202000Z 21013KT 10SM CLR 06/M05 A3006 950 46 100 210/13 RMK AO2
94908KDBQ DBQ20011120140509311/20/01 14:05:31  5-MIN KDBQ 202005Z 21014KT 10SM CLR 06/M04 A3006 950 46 100 210/14 RMK AO2
94908KDBQ DBQ20011120141009311/20/01 14:10:31  5-MIN KDBQ 202010Z 20014KT 10SM CLR 06/M04 A3006 950 48 100 200/14 RMK AO2
94908KDBQ DBQ20011120141509311/20/01 14:15:31  5-MIN KDBQ 202015Z 20014KT 10SM CLR 06/M04 A3005 960 48 100 200/14 RMK AO2
94908KDBQ DBQ20011120142009311/20/01 14:20:31  5-MIN KDBQ 202020Z 21012KT 10SM CLR 06/M04 A3005 960 48 100 210/12 RMK AO2
94908KDBQ DBQ20011120142509311/20/01 14:25:31  5-MIN KDBQ 202025Z 20012KT 10SM CLR 06/M04 A3004 960 46 200 200/12 RMK AO2
94908KDBQ DBQ20011120143009311/20/01 14:30:31  5-MIN KDBQ 202030Z 20014KT 10SM CLR 06/M04 A3004 970 46 200 200/14 RMK AO2
94908KDBQ DBQ20011120143509311/20/01 14:35:31  5-MIN KDBQ 202035Z 20014KT 10SM CLR 06/M04 A3003 970 46 200 200/14 RMK AO2
94908KDBQ DBQ20011120144009311/20/01 14:40:31  5-MIN KDBQ 202040Z 20012KT 10SM CLR 06/M04 A3003 970 48 200 200/12 RMK AO2
94908KDBQ DBQ20011120144509311/20/01 14:45:31  5-MIN KDBQ 202045Z 20013KT 10SM CLR 06/M04 A3003 980 46 200 200/13 RMK AO2
94908KDBQ DBQ20011120145012111/20/01 14:50:31  5-MIN KDBQ 202050Z AUTO 20013KT 10SM CLR 06/M04 A3003 980 46 200 200/13 RMK AO2 SLP180 T00611044 58026
94908KDBQ DBQ20011120145512611/20/01 14:55:31  5-MIN KDBQ 202055Z AUTO 20013KT 10SM CLR 06/M04 A3003 980 48 200 200/13 RMK AO2 SLP179 T00611039 58035 TSNO
94908KDBQ DBQ20011120150010311/20/01 15:00:31  5-MIN KDBQ 202100Z AUTO 20013KT 10SM CLR 06/M04 A3003 980 46 200 200/13 RMK AO2 TSNO
94908KDBQ DBQ20011120150510311/20/01 15:05:31  5-MIN KDBQ 202105Z AUTO 20011KT 10SM CLR 06/M04 A3003 980 46 200 200/11 RMK AO2 TSNO
94908KDBQ DBQ20011120151010311/20/01 15:10:31  5-MIN KDBQ 202110Z AUTO 20013KT 10SM CLR 06/M04 A3003 980 46 200 200/13 RMK AO2 TSNO
94908KDBQ DBQ20011120151510311/20/01 15:15:31  5-MIN KDBQ 202115Z AUTO 20013KT 10SM CLR 06/M04 A3002 980 50 100 200/13 RMK AO2 TSNO
94908KDBQ DBQ20011120152010311/20/01 15:20:31  5-MIN KDBQ 202120Z AUTO 20013KT 10SM CLR 06/M04 A3002 990 50 100 200/13 RMK AO2 TSNO
94908KDBQ DBQ20011120152510311/20/01 15:25:31  5-MIN KDBQ 202125Z AUTO 19012KT 10SM CLR 06/M04 A3001 990 50 100 190/12 RMK AO2 TSNO
94908KDBQ DBQ20011120153010411/20/01 15:30:31  5-MIN KDBQ 202130Z AUTO 19012KT 10SM CLR 06/M04 A3001 1000 50 100 190/12 RMK AO2 TSNO
94908KDBQ DBQ20011120153510311/20/01 15:35:31  5-MIN KDBQ 202135Z AUTO 19011KT 10SM CLR 06/M04 A3001 990 50 100 190/11 RMK AO2 TSNO
94908KDBQ DBQ20011120154010311/20/01 15:40:31  5-MIN KDBQ 202140Z AUTO 19012KT 10SM CLR 06/M04 A3001 990 50 100 190/12 RMK AO2 TSNO
94908KDBQ DBQ20011120154510411/20/01 15:45:31  5-MIN KDBQ 202145Z AUTO 18011KT 10SM CLR 06/M03 A3001 1000 53 100 180/11 RMK AO2 TSNO
94908KDBQ DBQ20011120155012111/20/01 15:50:31  5-MIN KDBQ 202150Z AUTO 18010KT 10SM CLR 06/M04 A3001 1000 50 100 180/10 RMK AO2 SLP172 T00561039 TSNO
94908KDBQ DBQ20011120155512111/20/01 15:55:31  5-MIN KDBQ 202155Z AUTO 18011KT 10SM CLR 06/M04 A3000 1000 50 100 180/11 RMK AO2 SLP171 T00561039 TSNO
94908KDBQ DBQ20011120160010411/20/01 16:00:31  5-MIN KDBQ 202200Z AUTO 18010KT 10SM CLR 06/M04 A3000 1010 50 100 180/10 RMK AO2 TSNO
94908KDBQ DBQ20011120160510411/20/01 16:05:31  5-MIN KDBQ 202205Z AUTO 19011KT 10SM CLR 06/M04 A3000 1010 50 200 180/11 RMK AO2 TSNO
94908KDBQ DBQ20011120161010411/20/01 16:10:31  5-MIN KDBQ 202210Z AUTO 19014KT 10SM CLR 06/M04 A3000 1010 50 200 190/14 RMK AO2 TSNO
94908KDBQ DBQ20011120161510411/20/01 16:15:31  5-MIN KDBQ 202215Z AUTO 19012KT 10SM CLR 05/M04 A2999 1010 52 100 190/12 RMK AO2 TSNO
94908KDBQ DBQ20011120162010411/20/01 16:20:31  5-MIN KDBQ 202220Z AUTO 19012KT 10SM CLR 05/M04 A2999 1010 52 100 190/12 RMK AO2 TSNO
94908KDBQ DBQ20011120162510411/20/01 16:25:31  5-MIN KDBQ 202225Z AUTO 19012KT 10SM CLR 05/M03 A2999 1020 55 100 190/12 RMK AO2 TSNO
94908KDBQ DBQ20011120163010411/20/01 16:30:31  5-MIN KDBQ 202230Z AUTO 19013KT 10SM CLR 05/M03 A2998 1020 55 100 180/13 RMK AO2 TSNO
94908KDBQ DBQ20011120163510411/20/01 16:35:31  5-MIN KDBQ 202235Z AUTO 19015KT 10SM CLR 05/M04 A2998 1030 52 100 190/15 RMK AO2 TSNO
94908KDBQ DBQ20011120164010411/20/01 16:40:31  5-MIN KDBQ 202240Z AUTO 19014KT 10SM CLR 05/M04 A2998 1030 52 100 190/14 RMK AO2 TSNO
94908KDBQ DBQ20011120164510411/20/01 16:45:31  5-MIN KDBQ 202245Z AUTO 19013KT 10SM CLR 05/M04 A2997 1030 52 100 190/13 RMK AO2 TSNO
94908KDBQ DBQ20011120165012111/20/01 16:50:31  5-MIN KDBQ 202250Z AUTO 19014KT 10SM CLR 05/M04 A2997 1030 52 100 190/14 RMK AO2 SLP162 T00501039 TSNO
94908KDBQ DBQ20011120165512111/20/01 16:55:31  5-MIN KDBQ 202255Z AUTO 19013KT 10SM CLR 05/M04 A2997 1030 52 100 190/13 RMK AO2 SLP160 T00501039 TSNO
94908KDBQ DBQ20011120170010411/20/01 17:00:31  5-MIN KDBQ 202300Z AUTO 19015KT 10SM CLR 05/M04 A2996 1040 52 100 190/15 RMK AO2 TSNO
94908KDBQ DBQ20011120170510411/20/01 17:05:31  5-MIN KDBQ 202305Z AUTO 19016KT 10SM CLR 05/M04 A2996 1050 52 100 190/16 RMK AO2 TSNO
94908KDBQ DBQ20011120171011111/20/01 17:10:31  5-MIN KDBQ 202310Z AUTO 19016KT 10SM CLR 05/M04 A2995 1050 52 100 190/16 RMK AO2 PRESFR TSNO
94908KDBQ DBQ20011120171510411/20/01 17:15:31  5-MIN KDBQ 202315Z AUTO 18016KT 10SM CLR 05/M04 A2994 1060 52 100 180/16 RMK AO2 TSNO
94908KDBQ DBQ20011120172011111/20/01 17:20:31  5-MIN KDBQ 202320Z AUTO 18016KT 10SM CLR 05/M04 A2994 1060 52 100 180/16 RMK AO2 PRESFR TSNO
94908KDBQ DBQ20011120172510411/20/01 17:25:31  5-MIN KDBQ 202325Z AUTO 18018KT 10SM CLR 05/M04 A2994 1060 52 200 180/18 RMK AO2 TSNO
94908KDBQ DBQ20011120173010411/20/01 17:30:31  5-MIN KDBQ 202330Z AUTO 18017KT 10SM CLR 05/M04 A2993 1070 52 200 180/17 RMK AO2 TSNO
94908KDBQ DBQ20011120173510411/20/01 17:35:31  5-MIN KDBQ 202335Z AUTO 18017KT 10SM CLR 05/M04 A2993 1070 52 200 180/17 RMK AO2 TSNO
94908KDBQ DBQ20011120174010411/20/01 17:40:31  5-MIN KDBQ 202340Z AUTO 18017KT 10SM CLR 05/M04 A2993 1070 52 200 180/17 RMK AO2 TSNO
94908KDBQ DBQ20011120174510411/20/01 17:45:31  5-MIN KDBQ 202345Z AUTO 18017KT 10SM CLR 05/M04 A2993 1070 52 200 180/17 RMK AO2 TSNO
94908KDBQ DBQ20011120175013911/20/01 17:50:31  5-MIN KDBQ 202350Z AUTO 19015KT 10SM CLR 05/M04 A2995 1050 52 100 190/15 RMK AO2 SLP152 T00501039 10067 20044 58035 TSNO
94908KDBQ DBQ20011120175514611/20/01 17:55:31  5-MIN KDBQ 202355Z AUTO 20011KT 10SM CLR 05/M04 A2996 1040 52 100 190/11 RMK AO2 PRESRR SLP157 T00501039 10067 20044 56022 TSNO
94908KDBQ DBQ20011120180010411/20/01 18:00:31  5-MIN KDBQ 210000Z AUTO 19014KT 10SM CLR 05/M04 A2996 1050 52 100 190/14 RMK AO2 TSNO
94908KDBQ DBQ20011120180510411/20/01 18:05:31  5-MIN KDBQ 210005Z AUTO 19012KT 10SM CLR 05/M04 A2996 1050 52 100 190/12 RMK AO2 TSNO
94908KDBQ DBQ20011120181010411/20/01 18:10:31  5-MIN KDBQ 210010Z AUTO 19013KT 10SM CLR 05/M04 A2995 1050 52 100 190/13 RMK AO2 TSNO
94908KDBQ DBQ20011120181510411/20/01 18:15:31  5-MIN KDBQ 210015Z AUTO 19013KT 10SM CLR 05/M04 A2996 1040 52 100 190/13 RMK AO2 TSNO
94908KDBQ DBQ20011120182010411/20/01 18:20:31  5-MIN KDBQ 210020Z AUTO 19012KT 10SM CLR 05/M04 A2996 1040 52 100 190/12 RMK AO2 TSNO
94908KDBQ DBQ20011120182510411/20/01 18:25:31  5-MIN KDBQ 210025Z AUTO 19012KT 10SM CLR 05/M04 A2996 1040 52 100 190/12 RMK AO2 TSNO
94908KDBQ DBQ20011120183010411/20/01 18:30:31  5-MIN KDBQ 210030Z AUTO 19013KT 10SM CLR 05/M04 A2996 1050 52 100 180/13 RMK AO2 TSNO
94908KDBQ DBQ20011120183510411/20/01 18:35:31  5-MIN KDBQ 210035Z AUTO 18013KT 10SM CLR 05/M04 A2995 1050 52 100 180/13 RMK AO2 TSNO
94908KDBQ DBQ20011120184010411/20/01 18:40:31  5-MIN KDBQ 210040Z AUTO 18013KT 10SM CLR 05/M04 A2995 1050 52 100 180/13 RMK AO2 TSNO
94908KDBQ DBQ20011120184510411/20/01 18:45:31  5-MIN KDBQ 210045Z AUTO 19013KT 10SM CLR 05/M04 A2995 1050 52 100 190/13 RMK AO2 TSNO
94908KDBQ DBQ20011120185012111/20/01 18:50:31  5-MIN KDBQ 210050Z AUTO 19013KT 10SM CLR 05/M04 A2995 1050 52 100 190/13 RMK AO2 SLP155 T00501039 TSNO
94908KDBQ DBQ20011120185512111/20/01 18:55:31  5-MIN KDBQ 210055Z AUTO 19013KT 10SM CLR 04/M04 A2995 1050 55 100 190/13 RMK AO2 SLP155 T00441039 TSNO
94908KDBQ DBQ20011120190010411/20/01 19:00:31  5-MIN KDBQ 210100Z AUTO 19013KT 10SM CLR 04/M04 A2995 1050 55 100 190/13 RMK AO2 TSNO
94908KDBQ DBQ20011120190510411/20/01 19:05:31  5-MIN KDBQ 210105Z AUTO 19013KT 10SM CLR 04/M04 A2995 1050 55 100 190/13 RMK AO2 TSNO
94908KDBQ DBQ20011120191010411/20/01 19:10:31  5-MIN KDBQ 210110Z AUTO 19014KT 10SM CLR 04/M04 A2994 1060 55 100 180/14 RMK AO2 TSNO
94908KDBQ DBQ20011120191510411/20/01 19:15:31  5-MIN KDBQ 210115Z AUTO 19015KT 10SM CLR 04/M04 A2993 1070 55 100 180/15 RMK AO2 TSNO
94908KDBQ DBQ20011120192010411/20/01 19:20:31  5-MIN KDBQ 210120Z AUTO 19015KT 10SM CLR 04/M04 A2993 1070 55 100 190/15 RMK AO2 TSNO
94908KDBQ DBQ20011120192510411/20/01 19:25:31  5-MIN KDBQ 210125Z AUTO 19016KT 10SM CLR 04/M04 A2993 1070 55 100 190/16 RMK AO2 TSNO
94908KDBQ DBQ20011120193010411/20/01 19:30:31  5-MIN KDBQ 210130Z AUTO 19016KT 10SM CLR 04/M04 A2993 1070 55 100 190/16 RMK AO2 TSNO
94908KDBQ DBQ20011120193510411/20/01 19:35:31  5-MIN KDBQ 210135Z AUTO 19016KT 10SM CLR 04/M04 A2993 1070 55 100 190/16 RMK AO2 TSNO
94908KDBQ DBQ20011120194010411/20/01 19:40:31  5-MIN KDBQ 210140Z AUTO 19015KT 10SM CLR 04/M03 A2992 1080 57 100 190/15 RMK AO2 TSNO
94908KDBQ DBQ20011120194510411/20/01 19:45:31  5-MIN KDBQ 210145Z AUTO 19015KT 10SM CLR 04/M03 A2992 1080 57 100 190/15 RMK AO2 TSNO
94908KDBQ DBQ20011120195012111/20/01 19:50:31  5-MIN KDBQ 210150Z AUTO 19016KT 10SM CLR 04/M03 A2992 1080 57 100 190/16 RMK AO2 SLP143 T00441033 TSNO
94908KDBQ DBQ20011120195512111/20/01 19:55:31  5-MIN KDBQ 210155Z AUTO 19016KT 10SM CLR 04/M03 A2992 1080 57 100 190/16 RMK AO2 SLP142 T00441033 TSNO
94908KDBQ DBQ20011120200010411/20/01 20:00:31  5-MIN KDBQ 210200Z AUTO 19017KT 10SM CLR 04/M04 A2991 1080 55 100 190/17 RMK AO2 TSNO
94908KDBQ DBQ20011120200510411/20/01 20:05:31  5-MIN KDBQ 210205Z AUTO 19016KT 10SM CLR 04/M03 A2991 1080 57 100 190/16 RMK AO2 TSNO
94908KDBQ DBQ20011120201010411/20/01 20:10:31  5-MIN KDBQ 210210Z AUTO 19016KT 10SM CLR 04/M03 A2991 1080 57 100 190/16 RMK AO2 TSNO
94908KDBQ DBQ20011120201510411/20/01 20:15:31  5-MIN KDBQ 210215Z AUTO 20016KT 10SM CLR 04/M03 A2992 1080 57 100 190/16 RMK AO2 TSNO
94908KDBQ DBQ20011120202010411/20/01 20:20:31  5-MIN KDBQ 210220Z AUTO 19016KT 10SM CLR 04/M04 A2991 1090 55 100 190/16 RMK AO2 TSNO
94908KDBQ DBQ20011120202510411/20/01 20:25:31  5-MIN KDBQ 210225Z AUTO 20015KT 10SM CLR 04/M03 A2991 1090 57 100 190/15 RMK AO2 TSNO
94908KDBQ DBQ20011120203010411/20/01 20:30:31  5-MIN KDBQ 210230Z AUTO 20015KT 10SM CLR 04/M03 A2991 1090 57 100 200/15 RMK AO2 TSNO
94908KDBQ DBQ20011120203510411/20/01 20:35:31  5-MIN KDBQ 210235Z AUTO 20014KT 10SM CLR 04/M04 A2991 1090 55 100 200/14 RMK AO2 TSNO
94908KDBQ DBQ20011120204010211/20/01 20:40:31  5-MIN KDBQ 210240Z AUTO 19014KT 10SM CLR 04/M04 A2991 1090 57 0 190/14 RMK AO2 TSNO
94908KDBQ DBQ20011120204510211/20/01 20:45:31  5-MIN KDBQ 210245Z AUTO 20014KT 10SM CLR 04/M04 A2991 1090 57 0 200/14 RMK AO2 TSNO
94908KDBQ DBQ20011120205012511/20/01 20:50:31  5-MIN KDBQ 210250Z AUTO 20015KT 10SM CLR 04/M04 A2991 1090 57 0 190/15 RMK AO2 SLP139 T00391039 56022 TSNO
94908KDBQ DBQ20011120205512711/20/01 20:55:31  5-MIN KDBQ 210255Z AUTO 20015KT 10SM CLR 04/M04 A2990 1090 57 100 200/15 RMK AO2 SLP137 T00391039 58018 TSNO
94908KDBQ DBQ20011120210010411/20/01 21:00:31  5-MIN KDBQ 210300Z AUTO 20016KT 10SM CLR 04/M04 A2990 1100 57 100 190/16 RMK AO2 TSNO
94908KDBQ DBQ20011120210510411/20/01 21:05:31  5-MIN KDBQ 210305Z AUTO 20017KT 10SM CLR 04/M04 A2989 1100 57 100 200/17 RMK AO2 TSNO
94908KDBQ DBQ20011120211010411/20/01 21:10:31  5-MIN KDBQ 210310Z AUTO 20017KT 10SM CLR 04/M04 A2990 1100 57 100 200/17 RMK AO2 TSNO
94908KDBQ DBQ20011120211510411/20/01 21:15:31  5-MIN KDBQ 210315Z AUTO 20017KT 10SM CLR 04/M04 A2990 1100 55 100 200/17 RMK AO2 TSNO
94908KDBQ DBQ20011120212010411/20/01 21:20:31  5-MIN KDBQ 210320Z AUTO 20016KT 10SM CLR 04/M04 A2989 1110 55 100 200/16 RMK AO2 TSNO
94908KDBQ DBQ20011120212510411/20/01 21:25:31  5-MIN KDBQ 210325Z AUTO 20015KT 10SM CLR 04/M04 A2989 1110 55 100 200/15 RMK AO2 TSNO
94908KDBQ DBQ20011120213010411/20/01 21:30:31  5-MIN KDBQ 210330Z AUTO 20015KT 10SM CLR 04/M04 A2989 1110 55 100 200/15 RMK AO2 TSNO
94908KDBQ DBQ20011120213510411/20/01 21:35:31  5-MIN KDBQ 210335Z AUTO 20015KT 10SM CLR 04/M04 A2989 1110 55 100 200/15 RMK AO2 TSNO
94908KDBQ DBQ20011120214010411/20/01 21:40:31  5-MIN KDBQ 210340Z AUTO 20015KT 10SM CLR 04/M04 A2989 1110 55 100 200/15 RMK AO2 TSNO
94908KDBQ DBQ20011120214510411/20/01 21:45:31  5-MIN KDBQ 210345Z AUTO 20014KT 10SM CLR 04/M04 A2989 1110 57 100 200/14 RMK AO2 TSNO
94908KDBQ DBQ20011120215012111/20/01 21:50:31  5-MIN KDBQ 210350Z AUTO 20013KT 10SM CLR 04/M04 A2989 1110 57 100 200/13 RMK AO2 SLP129 T00391039 TSNO
94908KDBQ DBQ20011120215512111/20/01 21:55:31  5-MIN KDBQ 210355Z AUTO 20014KT 10SM CLR 04/M04 A2989 1110 55 100 200/14 RMK AO2 SLP131 T00441039 TSNO
94908KDBQ DBQ20011120220010411/20/01 22:00:31  5-MIN KDBQ 210400Z AUTO 20014KT 10SM CLR 04/M04 A2988 1110 52 100 200/14 RMK AO2 TSNO
94908KDBQ DBQ20011120220510411/20/01 22:05:31  5-MIN KDBQ 210405Z AUTO 20013KT 10SM CLR 04/M04 A2988 1110 55 100 200/13 RMK AO2 TSNO
94908KDBQ DBQ20011120221010411/20/01 22:10:31  5-MIN KDBQ 210410Z AUTO 20014KT 10SM CLR 04/M04 A2988 1120 55 200 200/14 RMK AO2 TSNO
94908KDBQ DBQ20011120221510411/20/01 22:15:31  5-MIN KDBQ 210415Z AUTO 20015KT 10SM CLR 04/M04 A2987 1120 55 200 200/15 RMK AO2 TSNO
94908KDBQ DBQ20011120222010411/20/01 22:20:31  5-MIN KDBQ 210420Z AUTO 20016KT 10SM CLR 04/M04 A2987 1120 55 200 200/16 RMK AO2 TSNO
94908KDBQ DBQ20011120222510411/20/01 22:25:31  5-MIN KDBQ 210425Z AUTO 20016KT 10SM CLR 04/M04 A2987 1120 55 200 200/16 RMK AO2 TSNO
94908KDBQ DBQ20011120223010411/20/01 22:30:31  5-MIN KDBQ 210430Z AUTO 20015KT 10SM CLR 04/M04 A2987 1130 55 200 200/15 RMK AO2 TSNO
94908KDBQ DBQ20011120223510411/20/01 22:35:31  5-MIN KDBQ 210435Z AUTO 20014KT 10SM CLR 04/M04 A2987 1130 57 100 200/14 RMK AO2 TSNO
94908KDBQ DBQ20011120224010411/20/01 22:40:31  5-MIN KDBQ 210440Z AUTO 20013KT 10SM CLR 04/M04 A2987 1130 57 100 200/13 RMK AO2 TSNO
94908KDBQ DBQ20011120224510411/20/01 22:45:31  5-MIN KDBQ 210445Z AUTO 20014KT 10SM CLR 04/M04 A2987 1130 54 100 200/14 RMK AO2 TSNO
94908KDBQ DBQ20011120225012111/20/01 22:50:31  5-MIN KDBQ 210450Z AUTO 20012KT 10SM CLR 04/M04 A2987 1130 57 100 190/12 RMK AO2 SLP122 T00391039 TSNO
94908KDBQ DBQ20011120225512111/20/01 22:55:31  5-MIN KDBQ 210455Z AUTO 20013KT 10SM CLR 04/M04 A2986 1130 57 100 190/13 RMK AO2 SLP121 T00391039 TSNO
94908KDBQ DBQ20011120230010211/20/01 23:00:31  5-MIN KDBQ 210500Z AUTO 20012KT 10SM CLR 03/M04 A2986 1130 59 0 200/12 RMK AO2 TSNO
94908KDBQ DBQ20011120230510211/20/01 23:05:31  5-MIN KDBQ 210505Z AUTO 20012KT 10SM CLR 03/M04 A2986 1130 59 0 190/12 RMK AO2 TSNO
94908KDBQ DBQ20011120231010211/20/01 23:10:31  5-MIN KDBQ 210510Z AUTO 19012KT 10SM CLR 03/M04 A2986 1130 59 0 190/12 RMK AO2 TSNO
94908KDBQ DBQ20011120231510211/20/01 23:15:31  5-MIN KDBQ 210515Z AUTO 19013KT 10SM CLR 03/M04 A2986 1140 59 0 190/13 RMK AO2 TSNO
94908KDBQ DBQ20011120232010211/20/01 23:20:31  5-MIN KDBQ 210520Z AUTO 20012KT 10SM CLR 03/M04 A2986 1140 61 0 190/12 RMK AO2 TSNO
94908KDBQ DBQ20011120232510211/20/01 23:25:31  5-MIN KDBQ 210525Z AUTO 20013KT 10SM CLR 03/M04 A2986 1140 59 0 190/13 RMK AO2 TSNO
94908KDBQ DBQ20011120233010211/20/01 23:30:31  5-MIN KDBQ 210530Z AUTO 19013KT 10SM CLR 03/M04 A2986 1140 61 0 190/13 RMK AO2 TSNO
94908KDBQ DBQ20011120233510211/20/01 23:35:31  5-MIN KDBQ 210535Z AUTO 19013KT 10SM CLR 03/M04 A2985 1140 61 0 190/13 RMK AO2 TSNO
94908KDBQ DBQ20011120234010211/20/01 23:40:31  5-MIN KDBQ 210540Z AUTO 19013KT 10SM CLR 03/M04 A2985 1140 61 0 190/13 RMK AO2 TSNO
94908KDBQ DBQ20011120234510211/20/01 23:45:31  5-MIN KDBQ 210545Z AUTO 20013KT 10SM CLR 03/M04 A2985 1140 61 0 200/13 RMK AO2 TSNO
94908KDBQ DBQ20011120235014711/20/01 23:50:31  5-MIN KDBQ 210550Z AUTO 19013KT 10SM CLR 03/M04 A2985 1140 61 0 190/13 RMK AO2 SLP116 T00281039 10050 20028 400671056 58018 TSNO
94908KDBQ DBQ20011120235514711/20/01 23:55:31  5-MIN KDBQ 210555Z AUTO 20013KT 10SM CLR 03/M04 A2985 1150 61 0 200/13 RMK AO2 SLP115 T00281039 10050 20028 400671056 58019 TSNO
94908KDBQ DBQ20011121000010211/21/01 00:00:31  5-MIN KDBQ 210600Z AUTO 20013KT 10SM CLR 03/M04 A2985 1150 61 0 200/13 RMK AO2 TSNO
94908KDBQ DBQ20011121000510211/21/01 00:05:31  5-MIN KDBQ 210605Z AUTO 19013KT 10SM CLR 03/M04 A2984 1150 61 0 190/13 RMK AO2 TSNO
94908KDBQ DBQ20011121001010211/21/01 00:10:31  5-MIN KDBQ 210610Z AUTO 20014KT 10SM CLR 02/M04 A2984 1160 64 0 200/14 RMK AO2 TSNO
94908KDBQ DBQ20011121001510211/21/01 00:15:31  5-MIN KDBQ 210615Z AUTO 20014KT 10SM CLR 02/M04 A2983 1160 64 0 200/14 RMK AO2 TSNO
94908KDBQ DBQ20011121002010211/21/01 00:20:31  5-MIN KDBQ 210620Z AUTO 20013KT 10SM CLR 03/M04 A2983 1160 61 0 200/13 RMK AO2 TSNO
94908KDBQ DBQ20011121002510211/21/01 00:25:31  5-MIN KDBQ 210625Z AUTO 20013KT 10SM CLR 03/M04 A2983 1160 61 0 200/13 RMK AO2 TSNO
94908KDBQ DBQ20011121003010211/21/01 00:30:31  5-MIN KDBQ 210630Z AUTO 20013KT 10SM CLR 03/M04 A2983 1160 61 0 200/13 RMK AO2 TSNO
94908KDBQ DBQ20011121003510211/21/01 00:35:31  5-MIN KDBQ 210635Z AUTO 20012KT 10SM CLR 03/M04 A2983 1160 61 0 200/12 RMK AO2 TSNO
94908KDBQ DBQ20011121004010211/21/01 00:40:31  5-MIN KDBQ 210640Z AUTO 20013KT 10SM CLR 03/M04 A2983 1160 61 0 200/13 RMK AO2 TSNO
94908KDBQ DBQ20011121004510211/21/01 00:45:31  5-MIN KDBQ 210645Z AUTO 20012KT 10SM CLR 02/M04 A2983 1160 64 0 200/12 RMK AO2 TSNO
94908KDBQ DBQ20011121005011911/21/01 00:50:31  5-MIN KDBQ 210650Z AUTO 20013KT 10SM CLR 03/M04 A2983 1160 61 0 200/13 RMK AO2 SLP110 T00281039 TSNO
94908KDBQ DBQ20011121005511911/21/01 00:55:31  5-MIN KDBQ 210655Z AUTO 20012KT 10SM CLR 02/M04 A2983 1160 64 0 200/12 RMK AO2 SLP109 T00221039 TSNO
94908KDBQ DBQ20011121010010211/21/01 01:00:31  5-MIN KDBQ 210700Z AUTO 20012KT 10SM CLR 02/M04 A2983 1170 64 0 200/12 RMK AO2 TSNO
94908KDBQ DBQ20011121010510211/21/01 01:05:31  5-MIN KDBQ 210705Z AUTO 20012KT 10SM CLR 02/M04 A2983 1170 64 0 200/12 RMK AO2 TSNO
94908KDBQ DBQ20011121011010211/21/01 01:10:31  5-MIN KDBQ 210710Z AUTO 20012KT 10SM CLR 02/M04 A2982 1170 64 0 200/12 RMK AO2 TSNO
94908KDBQ DBQ20011121011510211/21/01 01:15:31  5-MIN KDBQ 210715Z AUTO 20011KT 10SM CLR 02/M04 A2983 1170 64 0 200/11 RMK AO2 TSNO
94908KDBQ DBQ20011121012010211/21/01 01:20:31  5-MIN KDBQ 210720Z AUTO 20011KT 10SM CLR 02/M04 A2982 1170 64 0 200/11 RMK AO2 TSNO
94908KDBQ DBQ20011121012510211/21/01 01:25:31  5-MIN KDBQ 210725Z AUTO 20011KT 10SM CLR 02/M04 A2983 1170 64 0 200/11 RMK AO2 TSNO
94908KDBQ DBQ20011121013010211/21/01 01:30:31  5-MIN KDBQ 210730Z AUTO 20010KT 10SM CLR 02/M04 A2983 1170 64 0 200/10 RMK AO2 TSNO
94908KDBQ DBQ20011121013510211/21/01 01:35:31  5-MIN KDBQ 210735Z AUTO 20010KT 10SM CLR 02/M04 A2983 1160 64 0 200/10 RMK AO2 TSNO
94908KDBQ DBQ20011121014010211/21/01 01:40:31  5-MIN KDBQ 210740Z AUTO 21010KT 10SM CLR 02/M04 A2983 1160 64 0 200/10 RMK AO2 TSNO
94908KDBQ DBQ20011121014510211/21/01 01:45:31  5-MIN KDBQ 210745Z AUTO 21011KT 10SM CLR 02/M04 A2983 1170 61 0 210/11 RMK AO2 TSNO
94908KDBQ DBQ20011121015011911/21/01 01:50:31  5-MIN KDBQ 210750Z AUTO 22011KT 10SM CLR 03/M04 A2983 1170 59 0 220/11 RMK AO2 SLP108 T00281044 TSNO
94908KDBQ DBQ20011121015511911/21/01 01:55:31  5-MIN KDBQ 210755Z AUTO 22011KT 10SM CLR 02/M04 A2982 1170 64 0 220/11 RMK AO2 SLP108 T00221039 TSNO
94908KDBQ DBQ20011121020010211/21/01 02:00:31  5-MIN KDBQ 210800Z AUTO 22012KT 10SM CLR 03/M04 A2982 1170 59 0 220/12 RMK AO2 TSNO
94908KDBQ DBQ20011121020510211/21/01 02:05:31  5-MIN KDBQ 210805Z AUTO 22012KT 10SM CLR 03/M04 A2982 1170 59 0 220/12 RMK AO2 TSNO
94908KDBQ DBQ20011121021010211/21/01 02:10:31  5-MIN KDBQ 210810Z AUTO 22012KT 10SM CLR 03/M04 A2982 1170 59 0 220/12 RMK AO2 TSNO
94908KDBQ DBQ20011121021510211/21/01 02:15:31  5-MIN KDBQ 210815Z AUTO 22011KT 10SM CLR 02/M04 A2982 1170 61 0 220/11 RMK AO2 TSNO
94908KDBQ DBQ20011121022010211/21/01 02:20:31  5-MIN KDBQ 210820Z AUTO 21011KT 10SM CLR 02/M04 A2982 1170 61 0 210/11 RMK AO2 TSNO
94908KDBQ DBQ20011121022510211/21/01 02:25:31  5-MIN KDBQ 210825Z AUTO 22012KT 10SM CLR 02/M04 A2983 1170 61 0 220/12 RMK AO2 TSNO
94908KDBQ DBQ20011121023010211/21/01 02:30:31  5-MIN KDBQ 210830Z AUTO 22010KT 10SM CLR 02/M04 A2983 1160 61 0 210/10 RMK AO2 TSNO
94908KDBQ DBQ20011121023510211/21/01 02:35:31  5-MIN KDBQ 210835Z AUTO 22009KT 10SM CLR 02/M04 A2983 1170 61 0 220/09 RMK AO2 TSNO
94908KDBQ DBQ20011121024010211/21/01 02:40:31  5-MIN KDBQ 210840Z AUTO 21010KT 10SM CLR 02/M04 A2983 1170 61 0 210/10 RMK AO2 TSNO
94908KDBQ DBQ20011121024510211/21/01 02:45:31  5-MIN KDBQ 210845Z AUTO 22010KT 10SM CLR 02/M04 A2982 1170 61 0 220/10 RMK AO2 TSNO
94908KDBQ DBQ20011121025012511/21/01 02:50:31  5-MIN KDBQ 210850Z AUTO 22010KT 10SM CLR 02/M04 A2982 1170 61 0 220/10 RMK AO2 SLP107 T00221044 58019 TSNO
94908KDBQ DBQ20011121025512511/21/01 02:55:31  5-MIN KDBQ 210855Z AUTO 22011KT 10SM CLR 02/M04 A2982 1170 61 0 220/11 RMK AO2 SLP107 T00221044 56008 TSNO
94908KDBQ DBQ20011121030010211/21/01 03:00:31  5-MIN KDBQ 210900Z AUTO 21010KT 10SM CLR 02/M04 A2982 1170 61 0 210/10 RMK AO2 TSNO
94908KDBQ DBQ20011121030510211/21/01 03:05:31  5-MIN KDBQ 210905Z AUTO 21010KT 10SM CLR 02/M04 A2982 1180 61 0 210/10 RMK AO2 TSNO
94908KDBQ DBQ20011121031010211/21/01 03:10:31  5-MIN KDBQ 210910Z AUTO 21012KT 10SM CLR 02/M04 A2981 1180 61 0 210/12 RMK AO2 TSNO
94908KDBQ DBQ20011121031510211/21/01 03:15:31  5-MIN KDBQ 210915Z AUTO 21011KT 10SM CLR 02/M04 A2981 1180 61 0 210/11 RMK AO2 TSNO
94908KDBQ DBQ20011121032010511/21/01 03:20:31  5-MIN KDBQ 210920Z AUTO 21012KT 10SM CLR 02/M04 A2981 1180 64 -100 210/12 RMK AO2 TSNO
94908KDBQ DBQ20011121032510511/21/01 03:25:31  5-MIN KDBQ 210925Z AUTO 21012KT 10SM CLR 02/M04 A2981 1180 64 -100 210/12 RMK AO2 TSNO
94908KDBQ DBQ20011121033010511/21/01 03:30:31  5-MIN KDBQ 210930Z AUTO 21012KT 10SM CLR 02/M04 A2981 1190 64 -100 210/12 RMK AO2 TSNO
94908KDBQ DBQ20011121033510511/21/01 03:35:31  5-MIN KDBQ 210935Z AUTO 22012KT 10SM CLR 02/M04 A2981 1180 64 -100 220/12 RMK AO2 TSNO
94908KDBQ DBQ20011121034010511/21/01 03:40:31  5-MIN KDBQ 210940Z AUTO 22011KT 10SM CLR 02/M04 A2981 1180 64 -100 220/11 RMK AO2 TSNO
94908KDBQ DBQ20011121034510511/21/01 03:45:31  5-MIN KDBQ 210945Z AUTO 21011KT 10SM CLR 02/M04 A2981 1180 64 -100 210/11 RMK AO2 TSNO
94908KDBQ DBQ20011121035012211/21/01 03:50:31  5-MIN KDBQ 210950Z AUTO 21011KT 10SM CLR 02/M04 A2980 1190 64 -100 210/11 RMK AO2 SLP100 T00171044 TSNO
94908KDBQ DBQ20011121035512211/21/01 03:55:31  5-MIN KDBQ 210955Z AUTO 21012KT 10SM CLR 02/M04 A2980 1190 64 -100 210/12 RMK AO2 SLP099 T00171044 TSNO
94908KDBQ DBQ20011121040010511/21/01 04:00:31  5-MIN KDBQ 211000Z AUTO 21012KT 10SM CLR 02/M04 A2980 1190 64 -100 210/12 RMK AO2 TSNO
94908KDBQ DBQ20011121040510211/21/01 04:05:31  5-MIN KDBQ 211005Z AUTO 21011KT 10SM CLR 02/M04 A2980 1190 64 0 210/11 RMK AO2 TSNO
94908KDBQ DBQ20011121041010511/21/01 04:10:31  5-MIN KDBQ 211010Z AUTO 21011KT 10SM CLR 01/M04 A2979 1200 66 -100 210/11 RMK AO2 TSNO
94908KDBQ DBQ20011121041510511/21/01 04:15:31  5-MIN KDBQ 211015Z AUTO 21012KT 10SM CLR 01/M04 A2979 1200 66 -100 210/12 RMK AO2 TSNO
94908KDBQ DBQ20011121042010511/21/01 04:20:31  5-MIN KDBQ 211020Z AUTO 22011KT 10SM CLR 01/M04 A2980 1190 66 -100 220/11 RMK AO2 TSNO
94908KDBQ DBQ20011121042510511/21/01 04:25:31  5-MIN KDBQ 211025Z AUTO 21012KT 10SM CLR 01/M04 A2979 1200 72 -200 210/12 RMK AO2 TSNO
94908KDBQ DBQ20011121043010511/21/01 04:30:31  5-MIN KDBQ 211030Z AUTO 22012KT 10SM CLR 01/M04 A2979 1200 66 -100 210/12 RMK AO2 TSNO
94908KDBQ DBQ20011121043510511/21/01 04:35:31  5-MIN KDBQ 211035Z AUTO 22012KT 10SM CLR 01/M04 A2980 1190 66 -100 220/12 RMK AO2 TSNO
94908KDBQ DBQ20011121044010511/21/01 04:40:31  5-MIN KDBQ 211040Z AUTO 22011KT 10SM CLR 01/M04 A2980 1190 66 -100 220/11 RMK AO2 TSNO
94908KDBQ DBQ20011121044510511/21/01 04:45:31  5-MIN KDBQ 211045Z AUTO 22010KT 10SM CLR 01/M04 A2980 1190 69 -200 220/10 RMK AO2 TSNO
94908KDBQ DBQ20011121045012211/21/01 04:50:31  5-MIN KDBQ 211050Z AUTO 22009KT 10SM CLR 01/M04 A2980 1190 69 -200 220/09 RMK AO2 SLP101 T00061044 TSNO
94908KDBQ DBQ20011121045512211/21/01 04:55:31  5-MIN KDBQ 211055Z AUTO 22008KT 10SM CLR 01/M04 A2980 1190 69 -200 220/08 RMK AO2 SLP100 T00061044 TSNO
94908KDBQ DBQ20011121050010511/21/01 05:00:31  5-MIN KDBQ 211100Z AUTO 22008KT 10SM CLR 01/M04 A2980 1190 69 -200 220/08 RMK AO2 TSNO
94908KDBQ DBQ20011121050510511/21/01 05:05:31  5-MIN KDBQ 211105Z AUTO 22007KT 10SM CLR 01/M04 A2980 1190 69 -200 220/07 RMK AO2 TSNO
94908KDBQ DBQ20011121051010511/21/01 05:10:31  5-MIN KDBQ 211110Z AUTO 22007KT 10SM CLR 01/M04 A2980 1190 69 -200 220/07 RMK AO2 TSNO
94908KDBQ DBQ20011121051510511/21/01 05:15:31  5-MIN KDBQ 211115Z AUTO 21007KT 10SM CLR 01/M04 A2980 1190 69 -200 210/07 RMK AO2 TSNO
94908KDBQ DBQ20011121052010511/21/01 05:20:31  5-MIN KDBQ 211120Z AUTO 21007KT 10SM CLR 01/M04 A2980 1190 69 -200 210/07 RMK AO2 TSNO
94908KDBQ DBQ20011121052510511/21/01 05:25:31  5-MIN KDBQ 211125Z AUTO 22007KT 10SM CLR 01/M04 A2980 1190 69 -200 210/07 RMK AO2 TSNO
94908KDBQ DBQ20011121053010511/21/01 05:30:31  5-MIN KDBQ 211130Z AUTO 21008KT 10SM CLR 01/M04 A2980 1190 69 -200 210/08 RMK AO2 TSNO
94908KDBQ DBQ20011121053509511/21/01 05:35:31  5-MIN KDBQ 211135Z 22007KT 10SM CLR 01/M04 A2979 1190 69 -200 210/07 RMK AO2
94908KDBQ DBQ20011121054009511/21/01 05:40:31  5-MIN KDBQ 211140Z 22008KT 10SM CLR 00/M04 A2980 1190 75 -300 220/08 RMK AO2
94908KDBQ DBQ20011121054509511/21/01 05:45:31  5-MIN KDBQ 211145Z 22007KT 10SM CLR 00/M04 A2980 1190 75 -300 220/07 RMK AO2
94908KDBQ DBQ20011121055013011/21/01 05:50:31  5-MIN KDBQ 211150Z 22008KT 10SM CLR 00/M04 A2979 1200 75 -300 220/08 RMK AO2 SLP098 T00001039 10028 20000 56008
94908KDBQ DBQ20011121055513011/21/01 05:55:31  5-MIN KDBQ 211155Z 21008KT 10SM CLR 01/M04 A2979 1200 69 -200 210/08 RMK AO2 SLP098 T00061044 10028 20000 56009
94908KDBQ DBQ20011121060009511/21/01 06:00:31  5-MIN KDBQ 211200Z 22006KT 10SM CLR 01/M04 A2980 1190 69 -200 220/06 RMK AO2
94908KDBQ DBQ20011121060509511/21/01 06:05:31  5-MIN KDBQ 211205Z 22007KT 10SM CLR 01/M04 A2980 1190 69 -200 210/07 RMK AO2
94908KDBQ DBQ20011121061009511/21/01 06:10:31  5-MIN KDBQ 211210Z 21007KT 10SM CLR 01/M04 A2980 1190 69 -200 210/07 RMK AO2
94908KDBQ DBQ20011121061509511/21/01 06:15:31  5-MIN KDBQ 211215Z 22007KT 10SM CLR 01/M04 A2980 1190 69 -200 220/07 RMK AO2
94908KDBQ DBQ20011121062009511/21/01 06:20:31  5-MIN KDBQ 211220Z 22008KT 10SM CLR 00/M04 A2980 1190 72 -300 220/08 RMK AO2
94908KDBQ DBQ20011121062509511/21/01 06:25:31  5-MIN KDBQ 211225Z 21010KT 10SM CLR 00/M04 A2980 1190 75 -300 210/10 RMK AO2
94908KDBQ DBQ20011121063009511/21/01 06:30:31  5-MIN KDBQ 211230Z 21010KT 10SM CLR 01/M04 A2980 1190 72 -200 210/10 RMK AO2
94908KDBQ DBQ20011121063509511/21/01 06:35:31  5-MIN KDBQ 211235Z 21010KT 10SM CLR 01/M04 A2980 1190 72 -200 210/10 RMK AO2
94908KDBQ DBQ20011121064009511/21/01 06:40:31  5-MIN KDBQ 211240Z 21009KT 10SM CLR 00/M04 A2980 1190 75 -300 210/09 RMK AO2
94908KDBQ DBQ20011121064509511/21/01 06:45:31  5-MIN KDBQ 211245Z 21009KT 10SM CLR 00/M04 A2980 1190 75 -300 210/09 RMK AO2
94908KDBQ DBQ20011121065011211/21/01 06:50:31  5-MIN KDBQ 211250Z 21009KT 10SM CLR 00/M04 A2980 1190 75 -300 210/09 RMK AO2 SLP100 T00001039
94908KDBQ DBQ20011121065511211/21/01 06:55:31  5-MIN KDBQ 211255Z 21008KT 10SM CLR 00/M04 A2980 1190 75 -300 210/08 RMK AO2 SLP100 T00001039
94908KDBQ DBQ20011121070009511/21/01 07:00:31  5-MIN KDBQ 211300Z 21008KT 10SM CLR 00/M04 A2980 1190 75 -300 210/08 RMK AO2
94908KDBQ DBQ20011121070509511/21/01 07:05:31  5-MIN KDBQ 211305Z 21007KT 10SM CLR 00/M04 A2980 1190 75 -300 210/07 RMK AO2
94908KDBQ DBQ20011121071009511/21/01 07:10:31  5-MIN KDBQ 211310Z 20007KT 10SM CLR 00/M04 A2980 1190 75 -300 200/07 RMK AO2
94908KDBQ DBQ20011121071509511/21/01 07:15:31  5-MIN KDBQ 211315Z 21007KT 10SM CLR 00/M04 A2980 1190 75 -300 200/07 RMK AO2
94908KDBQ DBQ20011121072009511/21/01 07:20:31  5-MIN KDBQ 211320Z 21007KT 10SM CLR 00/M04 A2980 1190 75 -300 210/07 RMK AO2
94908KDBQ DBQ20011121072509511/21/01 07:25:31  5-MIN KDBQ 211325Z 20006KT 10SM CLR 01/M04 A2980 1190 72 -200 200/06 RMK AO2
94908KDBQ DBQ20011121073009511/21/01 07:30:31  5-MIN KDBQ 211330Z 20008KT 10SM CLR 01/M04 A2980 1190 72 -200 200/08 RMK AO2
94908KDBQ DBQ20011121073509511/21/01 07:35:31  5-MIN KDBQ 211335Z 21009KT 10SM CLR 01/M04 A2979 1190 72 -200 210/09 RMK AO2
94908KDBQ DBQ20011121074009511/21/01 07:40:31  5-MIN KDBQ 211340Z 21008KT 10SM CLR 01/M04 A2980 1190 72 -200 210/08 RMK AO2
94908KDBQ DBQ20011121074509511/21/01 07:45:31  5-MIN KDBQ 211345Z 21008KT 10SM CLR 01/M04 A2979 1200 72 -200 210/08 RMK AO2
94908KDBQ DBQ20011121075011211/21/01 07:50:31  5-MIN KDBQ 211350Z 21008KT 10SM CLR 01/M04 A2979 1200 69 -100 210/08 RMK AO2 SLP098 T00111039
94908KDBQ DBQ20011121075511211/21/01 07:55:31  5-MIN KDBQ 211355Z 22009KT 10SM CLR 01/M04 A2980 1190 69 -100 220/09 RMK AO2 SLP099 T00111039
94908KDBQ DBQ20011121080009511/21/01 08:00:31  5-MIN KDBQ 211400Z 22010KT 10SM CLR 01/M03 A2980 1190 72 -100 220/10 RMK AO2
94908KDBQ DBQ20011121080509511/21/01 08:05:31  5-MIN KDBQ 211405Z 22009KT 10SM CLR 02/M03 A2980 1190 69 -100 220/09 RMK AO2
94908KDBQ DBQ20011121081009511/21/01 08:10:31  5-MIN KDBQ 211410Z 22009KT 10SM CLR 02/M03 A2981 1180 69 -100 220/09 RMK AO2
94908KDBQ DBQ20011121081509511/21/01 08:15:31  5-MIN KDBQ 211415Z 22010KT 10SM CLR 02/M03 A2981 1180 69 -100 220/10 RMK AO2
94908KDBQ DBQ20011121082009211/21/01 08:20:31  5-MIN KDBQ 211420Z 22010KT 10SM CLR 02/M03 A2981 1180 67 0 220/10 RMK AO2
94908KDBQ DBQ20011121082509211/21/01 08:25:31  5-MIN KDBQ 211425Z 22010KT 10SM CLR 02/M03 A2981 1180 69 0 220/10 RMK AO2
94908KDBQ DBQ20011121083009211/21/01 08:30:31  5-MIN KDBQ 211430Z 22010KT 10SM CLR 03/M03 A2981 1180 67 0 220/10 RMK AO2
94908KDBQ DBQ20011121083509211/21/01 08:35:31  5-MIN KDBQ 211435Z 23011KT 10SM CLR 03/M03 A2981 1180 67 0 230/11 RMK AO2
94908KDBQ DBQ20011121084009211/21/01 08:40:31  5-MIN KDBQ 211440Z 23011KT 10SM CLR 03/M03 A2981 1180 67 0 230/11 RMK AO2
94908KDBQ DBQ20011121084509411/21/01 08:45:31  5-MIN KDBQ 211445Z 23013KT 10SM CLR 03/M03 A2981 1180 64 100 230/13 RMK AO2
94908KDBQ DBQ20011121085011711/21/01 08:50:31  5-MIN KDBQ 211450Z 23009KT 10SM CLR 03/M03 A2982 1170 64 100 230/09 RMK AO2 SLP105 T00331028 56009
94908KDBQ DBQ20011121085511711/21/01 08:55:31  5-MIN KDBQ 211455Z 23008KT 10SM CLR 04/M02 A2982 1170 64 200 230/08 RMK AO2 SLP106 T00391022 53008
94908KDBQ DBQ20011121090009411/21/01 09:00:31  5-MIN KDBQ 211500Z 23008KT 10SM CLR 04/M02 A2982 1170 64 200 230/08 RMK AO2
94908KDBQ DBQ20011121090509411/21/01 09:05:31  5-MIN KDBQ 211505Z 24009KT 10SM CLR 04/M02 A2982 1170 64 200 240/09 RMK AO2
94908KDBQ DBQ20011121091009411/21/01 09:10:31  5-MIN KDBQ 211510Z 24009KT 10SM CLR 04/M02 A2982 1170 62 200 230/09 RMK AO2
94908KDBQ DBQ20011121091509411/21/01 09:15:31  5-MIN KDBQ 211515Z 24011KT 10SM CLR 04/M02 A2982 1170 62 200 240/11 RMK AO2
94908KDBQ DBQ20011121092009411/21/01 09:20:31  5-MIN KDBQ 211520Z 23011KT 10SM CLR 05/M02 A2982 1170 59 300 230/11 RMK AO2
94908KDBQ DBQ20011121092509411/21/01 09:25:31  5-MIN KDBQ 211525Z 23010KT 10SM CLR 05/M02 A2982 1170 62 300 230/10 RMK AO2
94908KDBQ DBQ20011121093009411/21/01 09:30:31  5-MIN KDBQ 211530Z 23009KT 10SM CLR 06/M01 A2981 1180 62 400 230/09 RMK AO2
94908KDBQ DBQ20011121093509411/21/01 09:35:31  5-MIN KDBQ 211535Z 23010KT 10SM CLR 06/M01 A2981 1180 62 400 230/10 RMK AO2
94908KDBQ DBQ20011121094009411/21/01 09:40:31  5-MIN KDBQ 211540Z 23012KT 10SM CLR 06/M01 A2981 1180 62 400 230/12 RMK AO2
94908KDBQ DBQ20011121094509411/21/01 09:45:31  5-MIN KDBQ 211545Z 23012KT 10SM CLR 06/M01 A2981 1180 60 400 230/12 RMK AO2
94908KDBQ DBQ20011121095011111/21/01 09:50:31  5-MIN KDBQ 211550Z 23013KT 10SM CLR 06/M02 A2982 1170 57 400 230/13 RMK AO2 SLP104 T00611017
94908KDBQ DBQ20011121095511111/21/01 09:55:31  5-MIN KDBQ 211555Z 24013KT 10SM CLR 06/M01 A2982 1170 60 400 240/13 RMK AO2 SLP104 T00611011
94908KDBQ DBQ20011121100009411/21/01 10:00:31  5-MIN KDBQ 211600Z 24010KT 10SM CLR 06/M01 A2982 1170 60 400 240/10 RMK AO2
94908KDBQ DBQ20011121100509411/21/01 10:05:31  5-MIN KDBQ 211605Z 24011KT 10SM CLR 07/M01 A2982 1170 57 500 240/11 RMK AO2
94908KDBQ DBQ20011121101009411/21/01 10:10:31  5-MIN KDBQ 211610Z 24011KT 10SM CLR 07/M01 A2982 1170 57 500 240/11 RMK AO2
94908KDBQ DBQ20011121101509411/21/01 10:15:31  5-MIN KDBQ 211615Z 23011KT 10SM CLR 07/M01 A2982 1170 60 500 230/11 RMK AO2
94908KDBQ DBQ20011121102009411/21/01 10:20:31  5-MIN KDBQ 211620Z 24010KT 10SM CLR 07/M01 A2982 1170 57 600 230/10 RMK AO2
94908KDBQ DBQ20011121102509311/21/01 10:25:31  5-MIN KDBQ 211625Z 24009KT 10SM CLR 08/00 A2982 1170 58 600 240/09 RMK AO2
94908KDBQ DBQ20011121103009411/21/01 10:30:31  5-MIN KDBQ 211630Z 24011KT 10SM CLR 08/M01 A2982 1170 55 600 240/11 RMK AO2
94908KDBQ DBQ20011121103509411/21/01 10:35:31  5-MIN KDBQ 211635Z 24010KT 10SM CLR 08/M01 A2982 1170 55 600 240/10 RMK AO2
94908KDBQ DBQ20011121104009411/21/01 10:40:31  5-MIN KDBQ 211640Z 24010KT 10SM CLR 08/M01 A2982 1170 55 600 240/10 RMK AO2
94908KDBQ DBQ20011121104509311/21/01 10:45:31  5-MIN KDBQ 211645Z 24010KT 10SM CLR 08/00 A2982 1170 55 700 230/10 RMK AO2
94908KDBQ DBQ20011121105011111/21/01 10:50:31  5-MIN KDBQ 211650Z 23008KT 10SM CLR 08/M01 A2982 1180 53 700 230/08 RMK AO2 SLP103 T00831006
94908KDBQ DBQ20011121105511011/21/01 10:55:31  5-MIN KDBQ 211655Z 23009KT 10SM CLR 08/00 A2981 1180 55 700 230/09 RMK AO2 SLP102 T00830000
94908KDBQ DBQ20011121110009311/21/01 11:00:31  5-MIN KDBQ 211700Z 23009KT 10SM CLR 08/00 A2982 1170 55 700 230/09 RMK AO2
94908KDBQ DBQ20011121110509311/21/01 11:05:31  5-MIN KDBQ 211705Z 23009KT 10SM CLR 08/00 A2982 1180 55 700 230/09 RMK AO2
94908KDBQ DBQ20011121111009311/21/01 11:10:31  5-MIN KDBQ 211710Z 23010KT 10SM CLR 09/01 A2981 1180 56 800 220/10 RMK AO2
94908KDBQ DBQ20011121111509311/21/01 11:15:31  5-MIN KDBQ 211715Z 23009KT 10SM CLR 09/00 A2981 1180 53 800 230/09 RMK AO2
94908KDBQ DBQ20011121112009311/21/01 11:20:31  5-MIN KDBQ 211720Z 23009KT 10SM CLR 09/00 A2981 1180 51 800 230/09 RMK AO2
94908KDBQ DBQ20011121112509311/21/01 11:25:31  5-MIN KDBQ 211725Z 23010KT 10SM CLR 09/01 A2981 1180 53 800 230/10 RMK AO2
94908KDBQ DBQ20011121113009311/21/01 11:30:31  5-MIN KDBQ 211730Z 23009KT 10SM CLR 09/01 A2980 1190 53 800 230/09 RMK AO2
94908KDBQ DBQ20011121113509311/21/01 11:35:31  5-MIN KDBQ 211735Z 22009KT 10SM CLR 09/01 A2980 1190 53 800 220/09 RMK AO2
94908KDBQ DBQ20011121114009311/21/01 11:40:31  5-MIN KDBQ 211740Z 22010KT 10SM CLR 10/01 A2980 1190 52 900 220/10 RMK AO2
94908KDBQ DBQ20011121114509311/21/01 11:45:31  5-MIN KDBQ 211745Z 23008KT 10SM CLR 09/01 A2980 1190 53 800 230/08 RMK AO2
94908KDBQ DBQ20011121115012811/21/01 11:50:31  5-MIN KDBQ 211750Z 22010KT 10SM CLR 10/01 A2980 1190 52 900 220/10 RMK AO2 SLP098 T01000006 10100 20000 53008
94908KDBQ DBQ20011121115512811/21/01 11:55:31  5-MIN KDBQ 211755Z 24008KT 10SM CLR 10/01 A2980 1190 52 900 230/08 RMK AO2 SLP098 T01000006 10100 20000 58005
94908KDBQ DBQ20011121120009411/21/01 12:00:31  5-MIN KDBQ 211800Z 22009KT 10SM CLR 11/01 A2980 1190 52 1000 220/09 RMK AO2
94908KDBQ DBQ20011121120509411/21/01 12:05:31  5-MIN KDBQ 211805Z 23011KT 10SM CLR 11/01 A2980 1190 50 1000 230/11 RMK AO2
94908KDBQ DBQ20011121121009411/21/01 12:10:31  5-MIN KDBQ 211810Z 24008KT 10SM CLR 11/01 A2980 1190 50 1000 240/08 RMK AO2
94908KDBQ DBQ20011121121509411/21/01 12:15:31  5-MIN KDBQ 211815Z 24009KT 10SM CLR 11/01 A2980 1190 50 1000 240/09 RMK AO2
94908KDBQ DBQ20011121122009411/21/01 12:20:31  5-MIN KDBQ 211820Z 23010KT 10SM CLR 11/01 A2980 1190 50 1000 230/10 RMK AO2
94908KDBQ DBQ20011121122509411/21/01 12:25:31  5-MIN KDBQ 211825Z 24009KT 10SM CLR 11/01 A2980 1190 50 1000 240/09 RMK AO2
94908KDBQ DBQ20011121123009411/21/01 12:30:31  5-MIN KDBQ 211830Z 24010KT 10SM CLR 12/01 A2980 1190 48 1100 240/10 RMK AO2
94908KDBQ DBQ20011121123509411/21/01 12:35:31  5-MIN KDBQ 211835Z 23009KT 10SM CLR 12/01 A2980 1190 46 1100 230/09 RMK AO2
94908KDBQ DBQ20011121124009411/21/01 12:40:31  5-MIN KDBQ 211840Z 23010KT 10SM CLR 12/01 A2979 1200 46 1100 230/10 RMK AO2
94908KDBQ DBQ20011121124509411/21/01 12:45:31  5-MIN KDBQ 211845Z 22009KT 10SM CLR 12/01 A2979 1200 46 1100 220/09 RMK AO2
94908KDBQ DBQ20011121125011111/21/01 12:50:31  5-MIN KDBQ 211850Z 24010KT 10SM CLR 12/01 A2979 1200 48 1100 240/10 RMK AO2 SLP094 T01170011
94908KDBQ DBQ20011121125511111/21/01 12:55:31  5-MIN KDBQ 211855Z 24009KT 10SM CLR 12/01 A2979 1200 46 1200 230/09 RMK AO2 SLP094 T01220011
94908KDBQ DBQ20011121130009411/21/01 13:00:31  5-MIN KDBQ 211900Z 23009KT 10SM CLR 12/01 A2979 1200 46 1200 230/09 RMK AO2
94908KDBQ DBQ20011121130509411/21/01 13:05:31  5-MIN KDBQ 211905Z 23011KT 10SM CLR 12/01 A2979 1200 46 1200 230/11 RMK AO2
94908KDBQ DBQ20011121131009411/21/01 13:10:31  5-MIN KDBQ 211910Z 23010KT 10SM CLR 12/01 A2978 1210 44 1200 230/10 RMK AO2
94908KDBQ DBQ20011121131509411/21/01 13:15:31  5-MIN KDBQ 211915Z 23010KT 10SM CLR 13/01 A2978 1200 44 1300 230/10 RMK AO2
94908KDBQ DBQ20011121132009411/21/01 13:20:31  5-MIN KDBQ 211920Z 24011KT 10SM CLR 12/01 A2978 1210 44 1200 240/11 RMK AO2
94908KDBQ DBQ20011121132509411/21/01 13:25:31  5-MIN KDBQ 211925Z 24011KT 10SM CLR 13/01 A2978 1210 44 1300 240/11 RMK AO2
94908KDBQ DBQ20011121133009411/21/01 13:30:31  5-MIN KDBQ 211930Z 23011KT 10SM CLR 13/01 A2978 1210 44 1300 230/11 RMK AO2
94908KDBQ DBQ20011121133509411/21/01 13:35:31  5-MIN KDBQ 211935Z 23011KT 10SM CLR 13/01 A2978 1210 44 1300 220/11 RMK AO2
94908KDBQ DBQ20011121134009411/21/01 13:40:31  5-MIN KDBQ 211940Z 23010KT 10SM CLR 13/01 A2978 1210 44 1300 220/10 RMK AO2
94908KDBQ DBQ20011121134509411/21/01 13:45:31  5-MIN KDBQ 211945Z 22010KT 10SM CLR 13/01 A2978 1210 44 1300 220/10 RMK AO2
94908KDBQ DBQ20011121135011111/21/01 13:50:31  5-MIN KDBQ 211950Z 23010KT 10SM CLR 13/01 A2978 1210 43 1300 220/10 RMK AO2 SLP087 T01330011
94908KDBQ DBQ20011121135511111/21/01 13:55:31  5-MIN KDBQ 211955Z 23011KT 10SM CLR 13/01 A2977 1210 44 1300 230/11 RMK AO2 SLP088 T01280011
94908KDBQ DBQ20011121140009411/21/01 14:00:31  5-MIN KDBQ 212000Z 23011KT 10SM CLR 13/01 A2977 1210 41 1300 230/11 RMK AO2
94908KDBQ DBQ20011121140509411/21/01 14:05:31  5-MIN KDBQ 212005Z 24011KT 10SM CLR 13/01 A2977 1220 41 1300 240/11 RMK AO2
94908KDBQ DBQ20011121141009411/21/01 14:10:31  5-MIN KDBQ 212010Z 22008KT 10SM CLR 13/02 A2978 1210 45 1300 220/08 RMK AO2
94908KDBQ DBQ20011121141509411/21/01 14:15:31  5-MIN KDBQ 212015Z 22008KT 10SM CLR 13/02 A2978 1210 46 1300 220/08 RMK AO2
94908KDBQ DBQ20011121142009411/21/01 14:20:31  5-MIN KDBQ 212020Z 22008KT 10SM CLR 13/02 A2978 1210 46 1300 220/08 RMK AO2
94908KDBQ DBQ20011121142509411/21/01 14:25:31  5-MIN KDBQ 212025Z 22009KT 10SM CLR 13/02 A2978 1210 46 1300 220/09 RMK AO2
94908KDBQ DBQ20011121143009411/21/01 14:30:31  5-MIN KDBQ 212030Z 21008KT 10SM CLR 13/01 A2978 1210 44 1300 210/08 RMK AO2
94908KDBQ DBQ20011121143509411/21/01 14:35:31  5-MIN KDBQ 212035Z 21008KT 10SM CLR 13/02 A2977 1210 46 1300 210/08 RMK AO2
94908KDBQ DBQ20011121144009411/21/01 14:40:31  5-MIN KDBQ 212040Z 22009KT 10SM CLR 13/01 A2977 1220 44 1300 210/09 RMK AO2
94908KDBQ DBQ20011121144509411/21/01 14:45:31  5-MIN KDBQ 212045Z 21009KT 10SM CLR 13/01 A2977 1220 44 1300 210/09 RMK AO2
94908KDBQ DBQ20011121145011711/21/01 14:50:31  5-MIN KDBQ 212050Z 22008KT 10SM CLR 13/02 A2977 1220 46 1300 210/08 RMK AO2 SLP087 T01280017 58005
94908KDBQ DBQ20011121145511711/21/01 14:55:31  5-MIN KDBQ 212055Z 21009KT 10SM CLR 13/01 A2977 1210 44 1300 210/09 RMK AO2 SLP088 T01280011 55009
94908KDBQ DBQ20011121150009411/21/01 15:00:31  5-MIN KDBQ 212100Z 22008KT 10SM CLR 13/02 A2978 1210 46 1300 220/08 RMK AO2
94908KDBQ DBQ20011121150509411/21/01 15:05:31  5-MIN KDBQ 212105Z 21009KT 10SM CLR 13/02 A2978 1210 46 1300 210/09 RMK AO2
94908KDBQ DBQ20011121151009411/21/01 15:10:31  5-MIN KDBQ 212110Z 22007KT 10SM CLR 13/02 A2978 1210 46 1300 220/07 RMK AO2
94908KDBQ DBQ20011121151509411/21/01 15:15:31  5-MIN KDBQ 212115Z 21007KT 10SM CLR 12/02 A2978 1200 48 1200 210/07 RMK AO2
94908KDBQ DBQ20011121152009411/21/01 15:20:31  5-MIN KDBQ 212120Z 20007KT 10SM CLR 12/02 A2978 1200 48 1200 200/07 RMK AO2
94908KDBQ DBQ20011121152509411/21/01 15:25:31  5-MIN KDBQ 212125Z 20008KT 10SM CLR 12/02 A2978 1200 48 1200 200/08 RMK AO2
94908KDBQ DBQ20011121153009411/21/01 15:30:31  5-MIN KDBQ 212130Z 22007KT 10SM CLR 12/02 A2979 1200 52 1100 210/07 RMK AO2
94908KDBQ DBQ20011121153509411/21/01 15:35:31  5-MIN KDBQ 212135Z 21007KT 10SM CLR 12/02 A2979 1200 50 1100 210/07 RMK AO2
94908KDBQ DBQ20011121154009411/21/01 15:40:31  5-MIN KDBQ 212140Z 21007KT 10SM CLR 12/02 A2979 1200 50 1100 210/07 RMK AO2
94908KDBQ DBQ20011121154509411/21/01 15:45:31  5-MIN KDBQ 212145Z 20006KT 10SM CLR 12/02 A2979 1200 50 1100 200/06 RMK AO2
94908KDBQ DBQ20011121155011111/21/01 15:50:31  5-MIN KDBQ 212150Z 20006KT 10SM CLR 11/02 A2979 1200 54 1100 200/06 RMK AO2 SLP093 T01110022
94908KDBQ DBQ20011121155511111/21/01 15:55:31  5-MIN KDBQ 212155Z 19006KT 10SM CLR 11/02 A2979 1200 54 1100 190/06 RMK AO2 SLP093 T01110022
94908KDBQ DBQ20011121160009411/21/01 16:00:31  5-MIN KDBQ 212200Z 19005KT 10SM CLR 11/02 A2978 1200 56 1000 180/05 RMK AO2
94908KDBQ DBQ20011121160509411/21/01 16:05:31  5-MIN KDBQ 212205Z 19006KT 10SM CLR 11/02 A2979 1200 56 1000 190/06 RMK AO2
94908KDBQ DBQ20011121161009311/21/01 16:10:31  5-MIN KDBQ 212210Z 19007KT 10SM CLR 10/02 A2979 1200 58 900 190/07 RMK AO2
94908KDBQ DBQ20011121161509311/21/01 16:15:31  5-MIN KDBQ 212215Z 19007KT 10SM CLR 10/02 A2979 1200 58 900 190/07 RMK AO2
94908KDBQ DBQ20011121162009311/21/01 16:20:31  5-MIN KDBQ 212220Z 18007KT 10SM CLR 09/02 A2979 1200 60 900 180/07 RMK AO2
94908KDBQ DBQ20011121162509311/21/01 16:25:31  5-MIN KDBQ 212225Z 18007KT 10SM CLR 09/02 A2978 1200 58 900 180/07 RMK AO2
94908KDBQ DBQ20011121163009311/21/01 16:30:31  5-MIN KDBQ 212230Z 18008KT 10SM CLR 09/02 A2979 1200 60 800 180/08 RMK AO2
94908KDBQ DBQ20011121163509311/21/01 16:35:31  5-MIN KDBQ 212235Z 19008KT 10SM CLR 08/02 A2979 1200 63 700 180/08 RMK AO2
94908KDBQ DBQ20011121164009311/21/01 16:40:31  5-MIN KDBQ 212240Z 19008KT 10SM CLR 08/02 A2979 1200 65 700 190/08 RMK AO2
94908KDBQ DBQ20011121164509311/21/01 16:45:31  5-MIN KDBQ 212245Z 19008KT 10SM CLR 08/02 A2979 1200 65 700 190/08 RMK AO2
94908KDBQ DBQ20011121165011011/21/01 16:50:31  5-MIN KDBQ 212250Z 18008KT 10SM CLR 07/01 A2979 1200 65 600 180/08 RMK AO2 SLP096 T00720011
94908KDBQ DBQ20011121165511011/21/01 16:55:31  5-MIN KDBQ 212255Z 18008KT 10SM CLR 07/01 A2979 1200 65 600 180/08 RMK AO2 SLP096 T00720011
94908KDBQ DBQ20011121171009311/21/01 17:10:31  5-MIN KDBQ 212310Z 18008KT 10SM CLR 08/01 A2979 1200 62 700 180/08 RMK AO2
94908KDBQ DBQ20011121171509311/21/01 17:15:31  5-MIN KDBQ 212315Z 18008KT 10SM CLR 08/01 A2979 1200 62 700 180/08 RMK AO2
94908KDBQ DBQ20011121172009311/21/01 17:20:31  5-MIN KDBQ 212320Z 18009KT 10SM CLR 08/01 A2979 1200 62 700 180/09 RMK AO2
94908KDBQ DBQ20011121172509311/21/01 17:25:31  5-MIN KDBQ 212325Z 18008KT 10SM CLR 07/01 A2979 1200 65 600 180/08 RMK AO2
94908KDBQ DBQ20011121173009311/21/01 17:30:31  5-MIN KDBQ 212330Z 17007KT 10SM CLR 07/01 A2979 1200 65 600 170/07 RMK AO2
94908KDBQ DBQ20011121173509311/21/01 17:35:31  5-MIN KDBQ 212335Z 19007KT 10SM CLR 07/01 A2979 1200 67 500 190/07 RMK AO2
94908KDBQ DBQ20011121174009311/21/01 17:40:31  5-MIN KDBQ 212340Z 19009KT 10SM CLR 07/01 A2979 1200 67 500 190/09 RMK AO2
94908KDBQ DBQ20011121174509311/21/01 17:45:31  5-MIN KDBQ 212345Z 19010KT 10SM CLR 07/02 A2979 1200 68 600 190/10 RMK AO2
94908KDBQ DBQ20011121175012811/21/01 17:50:31  5-MIN KDBQ 212350Z 18009KT 10SM CLR 07/01 A2979 1200 65 600 180/09 RMK AO2 SLP095 T00720011 10133 20061 55009
94908KDBQ DBQ20011121175512811/21/01 17:55:31  5-MIN KDBQ 212355Z 18008KT 10SM CLR 08/01 A2979 1200 62 700 180/08 RMK AO2 SLP096 T00780011 10133 20061 51005
94908KDBQ DBQ20011121180009311/21/01 18:00:31  5-MIN KDBQ 220000Z 18008KT 10SM CLR 07/01 A2979 1200 65 600 180/08 RMK AO2
94908KDBQ DBQ20011121180509311/21/01 18:05:31  5-MIN KDBQ 220005Z 19007KT 10SM CLR 07/01 A2979 1200 67 500 190/07 RMK AO2
94908KDBQ DBQ20011121181009311/21/01 18:10:31  5-MIN KDBQ 220010Z 19008KT 10SM CLR 06/01 A2979 1200 70 500 190/08 RMK AO2
94908KDBQ DBQ20011121181509311/21/01 18:15:31  5-MIN KDBQ 220015Z 19007KT 10SM CLR 06/01 A2979 1200 70 500 190/07 RMK AO2
94908KDBQ DBQ20011121182009311/21/01 18:20:31  5-MIN KDBQ 220020Z 20006KT 10SM CLR 06/01 A2979 1200 73 400 190/06 RMK AO2
94908KDBQ DBQ20011121182509311/21/01 18:25:31  5-MIN KDBQ 220025Z 19006KT 10SM CLR 06/01 A2979 1200 73 400 190/06 RMK AO2
94908KDBQ DBQ20011121183009311/21/01 18:30:31  5-MIN KDBQ 220030Z 19007KT 10SM CLR 06/01 A2979 1200 73 400 190/07 RMK AO2
94908KDBQ DBQ20011121183509311/21/01 18:35:31  5-MIN KDBQ 220035Z 19007KT 10SM CLR 06/01 A2979 1200 73 400 190/07 RMK AO2
94908KDBQ DBQ20011121184009311/21/01 18:40:31  5-MIN KDBQ 220040Z 19008KT 10SM CLR 06/01 A2979 1200 73 400 190/08 RMK AO2
94908KDBQ DBQ20011121184509311/21/01 18:45:31  5-MIN KDBQ 220045Z 18010KT 10SM CLR 07/02 A2979 1200 70 500 180/10 RMK AO2
94908KDBQ DBQ20011121185011011/21/01 18:50:31  5-MIN KDBQ 220050Z 18011KT 10SM CLR 07/02 A2979 1200 68 600 180/11 RMK AO2 SLP096 T00720017
94908KDBQ DBQ20011121185511011/21/01 18:55:31  5-MIN KDBQ 220055Z 18011KT 10SM CLR 07/01 A2979 1200 65 600 180/11 RMK AO2 SLP096 T00720011
94908KDBQ DBQ20011121190009311/21/01 19:00:31  5-MIN KDBQ 220100Z 18012KT 10SM CLR 07/01 A2979 1200 65 600 180/12 RMK AO2
94908KDBQ DBQ20011121190509311/21/01 19:05:31  5-MIN KDBQ 220105Z 18011KT 10SM CLR 07/01 A2979 1200 65 600 180/11 RMK AO2
94908KDBQ DBQ20011121191009311/21/01 19:10:31  5-MIN KDBQ 220110Z 18011KT 10SM CLR 08/01 A2979 1200 62 700 180/11 RMK AO2
94908KDBQ DBQ20011121191509311/21/01 19:15:31  5-MIN KDBQ 220115Z 19011KT 10SM CLR 08/01 A2979 1200 62 700 180/11 RMK AO2
94908KDBQ DBQ20011121192009311/21/01 19:20:31  5-MIN KDBQ 220120Z 19010KT 10SM CLR 07/02 A2980 1190 68 600 190/10 RMK AO2
94908KDBQ DBQ20011121192509311/21/01 19:25:31  5-MIN KDBQ 220125Z 19010KT 10SM CLR 07/02 A2980 1190 68 600 190/10 RMK AO2
94908KDBQ DBQ20011121193009311/21/01 19:30:31  5-MIN KDBQ 220130Z 19009KT 10SM CLR 07/02 A2980 1190 68 600 180/09 RMK AO2
94908KDBQ DBQ20011121193509311/21/01 19:35:31  5-MIN KDBQ 220135Z 20007KT 10SM CLR 06/02 A2980 1190 73 400 190/07 RMK AO2
94908KDBQ DBQ20011121194009311/21/01 19:40:31  5-MIN KDBQ 220140Z 21006KT 10SM CLR 06/01 A2980 1190 73 400 210/06 RMK AO2
94908KDBQ DBQ20011121194509311/21/01 19:45:31  5-MIN KDBQ 220145Z 20007KT 10SM CLR 06/01 A2980 1190 70 400 200/07 RMK AO2
94908KDBQ DBQ20011121195011011/21/01 19:50:31  5-MIN KDBQ 220150Z 19008KT 10SM CLR 07/01 A2980 1190 67 500 190/08 RMK AO2 SLP100 T00670011
94908KDBQ DBQ20011121195512011/21/01 19:55:31  5-MIN KDBQ 220155Z AUTO 19008KT 10SM CLR 06/01 A2980 1190 73 400 190/08 RMK AO2 SLP100 T00560011 TSNO
94908KDBQ DBQ20011121200009311/21/01 20:00:31  5-MIN KDBQ 220200Z 19008KT 10SM CLR 05/01 A2980 1190 76 300 190/08 RMK AO2
94908KDBQ DBQ20011121200510311/21/01 20:05:31  5-MIN KDBQ 220205Z AUTO 20009KT 10SM CLR 06/01 A2980 1190 73 400 200/09 RMK AO2 TSNO
94908KDBQ DBQ20011121201010311/21/01 20:10:31  5-MIN KDBQ 220210Z AUTO 20009KT 10SM CLR 06/01 A2980 1190 73 400 200/09 RMK AO2 TSNO
94908KDBQ DBQ20011121201510311/21/01 20:15:31  5-MIN KDBQ 220215Z AUTO 20009KT 10SM CLR 06/01 A2980 1190 73 400 200/09 RMK AO2 TSNO
94908KDBQ DBQ20011121202010311/21/01 20:20:31  5-MIN KDBQ 220220Z AUTO 20008KT 10SM CLR 05/01 A2980 1190 76 300 200/08 RMK AO2 TSNO
94908KDBQ DBQ20011121202510311/21/01 20:25:31  5-MIN KDBQ 220225Z AUTO 20008KT 10SM CLR 05/01 A2980 1190 76 300 200/08 RMK AO2 TSNO
94908KDBQ DBQ20011121203010311/21/01 20:30:31  5-MIN KDBQ 220230Z AUTO 21008KT 10SM CLR 05/01 A2980 1190 76 300 200/08 RMK AO2 TSNO
94908KDBQ DBQ20011121203510311/21/01 20:35:31  5-MIN KDBQ 220235Z AUTO 21007KT 10SM CLR 05/01 A2980 1190 76 300 200/07 RMK AO2 TSNO
94908KDBQ DBQ20011121204010311/21/01 20:40:31  5-MIN KDBQ 220240Z AUTO 20008KT 10SM CLR 04/01 A2980 1190 79 200 200/08 RMK AO2 TSNO
94908KDBQ DBQ20011121204510311/21/01 20:45:31  5-MIN KDBQ 220245Z AUTO 20008KT 10SM CLR 05/01 A2980 1190 76 300 200/08 RMK AO2 TSNO
94908KDBQ DBQ20011121205012811/21/01 20:50:31  5-MIN KDBQ 220250Z AUTO 20008KT 10SM CLR 04/01 A2980 1190 79 200 200/08 RMK AO2 SLP098 T00440011 51005 TSNO $
94908KDBQ DBQ20011121205512811/21/01 20:55:31  5-MIN KDBQ 220255Z AUTO 20008KT 10SM CLR 04/01 A2980 1190 79 200 200/08 RMK AO2 SLP098 T00440011 50002 TSNO $
94908KDBQ DBQ20011121210010511/21/01 21:00:31  5-MIN KDBQ 220300Z AUTO 20008KT 10SM CLR 04/01 A2979 1190 82 200 200/08 RMK AO2 TSNO $
94908KDBQ DBQ20011121210510511/21/01 21:05:31  5-MIN KDBQ 220305Z AUTO 19009KT 10SM CLR 04/01 A2979 1190 82 200 190/09 RMK AO2 TSNO $
94908KDBQ DBQ20011121211010511/21/01 21:10:31  5-MIN KDBQ 220310Z AUTO 19009KT 10SM CLR 04/01 A2980 1190 82 200 190/09 RMK AO2 TSNO $
94908KDBQ DBQ20011121211510511/21/01 21:15:31  5-MIN KDBQ 220315Z AUTO 19008KT 10SM CLR 04/01 A2980 1190 82 200 190/08 RMK AO2 TSNO $
94908KDBQ DBQ20011121212010511/21/01 21:20:31  5-MIN KDBQ 220320Z AUTO 19008KT 10SM CLR 04/01 A2980 1190 79 200 190/08 RMK AO2 TSNO $
94908KDBQ DBQ20011121212510511/21/01 21:25:31  5-MIN KDBQ 220325Z AUTO 19007KT 10SM CLR 04/01 A2980 1190 79 200 190/07 RMK AO2 TSNO $
94908KDBQ DBQ20011121213010511/21/01 21:30:31  5-MIN KDBQ 220330Z AUTO 19006KT 10SM CLR 04/01 A2980 1190 79 200 190/06 RMK AO2 TSNO $
94908KDBQ DBQ20011121213509511/21/01 21:35:31  5-MIN KDBQ 220335Z AUTO 10SM CLR 05/01 A2980 1190 76 300 M /M RMK AO2 TSNO $
94908KDBQ DBQ20011121214010511/21/01 21:40:31  5-MIN KDBQ 220340Z AUTO 18006KT 10SM CLR 05/01 A2980 1190 76 300 180/06 RMK AO2 TSNO $
94908KDBQ DBQ20011121214510511/21/01 21:45:31  5-MIN KDBQ 220345Z AUTO 18006KT 10SM CLR 05/01 A2980 1190 76 300 180/06 RMK AO2 TSNO $
94908KDBQ DBQ20011121215012211/21/01 21:50:31  5-MIN KDBQ 220350Z AUTO 18005KT 10SM CLR 05/01 A2980 1190 76 300 180/05 RMK AO2 SLP097 T00500011 TSNO $
94908KDBQ DBQ20011121215512211/21/01 21:55:31  5-MIN KDBQ 220355Z AUTO 18005KT 10SM CLR 04/01 A2980 1190 79 200 180/05 RMK AO2 SLP097 T00440011 TSNO $
94908KDBQ DBQ20011121220010511/21/01 22:00:31  5-MIN KDBQ 220400Z AUTO 18005KT 10SM CLR 03/01 A2980 1190 82 100 180/05 RMK AO2 TSNO $
94908KDBQ DBQ20011121220510511/21/01 22:05:31  5-MIN KDBQ 220405Z AUTO 18005KT 10SM CLR 04/01 A2980 1190 79 200 180/05 RMK AO2 TSNO $
94908KDBQ DBQ20011121221010511/21/01 22:10:31  5-MIN KDBQ 220410Z AUTO 18004KT 10SM CLR 04/01 A2980 1190 79 200 180/04 RMK AO2 TSNO $
94908KDBQ DBQ20011121221510511/21/01 22:15:31  5-MIN KDBQ 220415Z AUTO 18004KT 10SM CLR 03/01 A2980 1190 82 100 180/04 RMK AO2 TSNO $
94908KDBQ DBQ20011121222010511/21/01 22:20:31  5-MIN KDBQ 220420Z AUTO 18003KT 10SM CLR 03/01 A2980 1190 82 100 180/03 RMK AO2 TSNO $
94908KDBQ DBQ20011121222510511/21/01 22:25:31  5-MIN KDBQ 220425Z AUTO 18003KT 10SM CLR 03/01 A2980 1190 82 100 180/03 RMK AO2 TSNO $
94908KDBQ DBQ20011121223010511/21/01 22:30:31  5-MIN KDBQ 220430Z AUTO 00000KT 10SM CLR 04/01 A2980 1190 79 200 000/00 RMK AO2 TSNO $
94908KDBQ DBQ20011121223510511/21/01 22:35:31  5-MIN KDBQ 220435Z AUTO 18003KT 10SM CLR 04/01 A2980 1190 79 200 180/03 RMK AO2 TSNO $
94908KDBQ DBQ20011121224010511/21/01 22:40:31  5-MIN KDBQ 220440Z AUTO 17003KT 10SM CLR 04/01 A2980 1190 79 200 170/03 RMK AO2 TSNO $
94908KDBQ DBQ20011121224510511/21/01 22:45:31  5-MIN KDBQ 220445Z AUTO 17004KT 10SM CLR 04/01 A2980 1190 79 200 170/04 RMK AO2 TSNO $
94908KDBQ DBQ20011121225012211/21/01 22:50:31  5-MIN KDBQ 220450Z AUTO 17004KT 10SM CLR 04/01 A2980 1190 79 200 170/04 RMK AO2 SLP098 T00390006 TSNO $
94908KDBQ DBQ20011121225512211/21/01 22:55:31  5-MIN KDBQ 220455Z AUTO 17005KT 10SM CLR 04/01 A2980 1190 79 200 170/05 RMK AO2 SLP098 T00390006 TSNO $
94908KDBQ DBQ20011121230010511/21/01 23:00:31  5-MIN KDBQ 220500Z AUTO 18005KT 10SM CLR 04/01 A2980 1190 79 200 180/05 RMK AO2 TSNO $
94908KDBQ DBQ20011121230510511/21/01 23:05:31  5-MIN KDBQ 220505Z AUTO 18005KT 10SM CLR 03/01 A2980 1190 82 100 180/05 RMK AO2 TSNO $
94908KDBQ DBQ20011121231010311/21/01 23:10:31  5-MIN KDBQ 220510Z AUTO 18005KT 10SM CLR 03/01 A2980 1190 85 0 180/05 RMK AO2 TSNO $
94908KDBQ DBQ20011121231510511/21/01 23:15:31  5-MIN KDBQ 220515Z AUTO 18005KT 10SM CLR 03/01 A2980 1190 82 100 180/05 RMK AO2 TSNO $
94908KDBQ DBQ20011121232010511/21/01 23:20:31  5-MIN KDBQ 220520Z AUTO 18005KT 10SM CLR 03/01 A2980 1190 82 100 180/05 RMK AO2 TSNO $
94908KDBQ DBQ20011121232510511/21/01 23:25:31  5-MIN KDBQ 220525Z AUTO 18005KT 10SM CLR 03/01 A2980 1190 82 100 180/05 RMK AO2 TSNO $
94908KDBQ DBQ20011121233010511/21/01 23:30:31  5-MIN KDBQ 220530Z AUTO 18005KT 10SM CLR 03/01 A2980 1190 82 100 180/05 RMK AO2 TSNO $
94908KDBQ DBQ20011121233510511/21/01 23:35:31  5-MIN KDBQ 220535Z AUTO 17006KT 10SM CLR 03/01 A2980 1190 82 100 170/06 RMK AO2 TSNO $
94908KDBQ DBQ20011121234010511/21/01 23:40:31  5-MIN KDBQ 220540Z AUTO 17006KT 10SM CLR 04/01 A2980 1190 82 200 170/06 RMK AO2 TSNO $
94908KDBQ DBQ20011121234510511/21/01 23:45:31  5-MIN KDBQ 220545Z AUTO 18006KT 10SM CLR 04/01 A2980 1190 82 200 180/06 RMK AO2 TSNO $
94908KDBQ DBQ20011121235015011/21/01 23:50:31  5-MIN KDBQ 220550Z AUTO 18007KT 10SM CLR 04/01 A2980 1190 82 200 170/07 RMK AO2 SLP095 T00390011 10078 20028 401330000 50002 TSNO $
94908KDBQ DBQ20011121235515011/21/01 23:55:31  5-MIN KDBQ 220555Z AUTO 17007KT 10SM CLR 04/01 A2979 1200 82 200 170/07 RMK AO2 SLP095 T00390011 10078 20028 401330000 58000 TSNO $
94908KDBQ DBQ20011122000010511/22/01 00:00:31  5-MIN KDBQ 220600Z AUTO 17007KT 10SM CLR 04/01 A2979 1200 82 200 170/07 RMK AO2 TSNO $
94908KDBQ DBQ20011122000510511/22/01 00:05:31  5-MIN KDBQ 220605Z AUTO 17007KT 10SM CLR 04/01 A2979 1200 82 200 170/07 RMK AO2 TSNO $
94908KDBQ DBQ20011122001010511/22/01 00:10:31  5-MIN KDBQ 220610Z AUTO 17007KT 10SM CLR 04/01 A2979 1200 82 200 170/07 RMK AO2 TSNO $
94908KDBQ DBQ20011122001510511/22/01 00:15:31  5-MIN KDBQ 220615Z AUTO 17006KT 10SM CLR 04/01 A2979 1200 82 200 170/06 RMK AO2 TSNO $
94908KDBQ DBQ20011122002010511/22/01 00:20:31  5-MIN KDBQ 220620Z AUTO 17006KT 10SM CLR 03/01 A2979 1200 85 100 170/06 RMK AO2 TSNO $
94908KDBQ DBQ20011122002510511/22/01 00:25:31  5-MIN KDBQ 220625Z AUTO 17006KT 10SM CLR 04/01 A2979 1200 82 200 170/06 RMK AO2 TSNO $
94908KDBQ DBQ20011122003010511/22/01 00:30:31  5-MIN KDBQ 220630Z AUTO 17006KT 10SM CLR 04/01 A2979 1200 82 200 170/06 RMK AO2 TSNO $
94908KDBQ DBQ20011122003510511/22/01 00:35:31  5-MIN KDBQ 220635Z AUTO 18006KT 10SM CLR 04/01 A2979 1200 82 200 180/06 RMK AO2 TSNO $
94908KDBQ DBQ20011122004007011/22/01 00:40:31  5-MIN KDBQ 220649 1200 82 200 170/06 RMK AO2 TSNO $
94908KDBQ DBQ20011122004510511/22/01 00:45:31  5-MIN KDBQ 220645Z AUTO 18006KT 10SM CLR 04/01 A2979 1200 82 200 180/06 RMK AO2 TSNO $
94908KDBQ DBQ20011122005012211/22/01 00:50:31  5-MIN KDBQ 220650Z AUTO 18006KT 10SM CLR 03/01 A2979 1200 85 100 180/06 RMK AO2 SLP093 T00330011 TSNO $
94908KDBQ DBQ20011122005512211/22/01 00:55:31  5-MIN KDBQ 220655Z AUTO 17006KT 10SM CLR 03/01 A2979 1200 85 100 170/06 RMK AO2 SLP092 T00330011 TSNO $
94908KDBQ DBQ20011122010010511/22/01 01:00:31  5-MIN KDBQ 220700Z AUTO 17006KT 10SM CLR 03/01 A2979 1200 85 100 170/06 RMK AO2 TSNO $
94908KDBQ DBQ20011122010510511/22/01 01:05:31  5-MIN KDBQ 220705Z AUTO 18007KT 10SM CLR 03/01 A2978 1210 85 100 180/07 RMK AO2 TSNO $
94908KDBQ DBQ20011122011010511/22/01 01:10:31  5-MIN KDBQ 220710Z AUTO 17006KT 10SM CLR 04/01 A2978 1210 82 200 170/06 RMK AO2 TSNO $
94908KDBQ DBQ20011122011510511/22/01 01:15:31  5-MIN KDBQ 220715Z AUTO 17006KT 10SM CLR 04/01 A2978 1210 82 200 170/06 RMK AO2 TSNO $
94908KDBQ DBQ20011122012010511/22/01 01:20:31  5-MIN KDBQ 220720Z AUTO 17006KT 10SM CLR 04/01 A2978 1210 82 200 170/06 RMK AO2 TSNO $
94908KDBQ DBQ20011122012510511/22/01 01:25:31  5-MIN KDBQ 220725Z AUTO 17006KT 10SM CLR 04/01 A2978 1210 82 200 170/06 RMK AO2 TSNO $
94908KDBQ DBQ20011122013010511/22/01 01:30:31  5-MIN KDBQ 220730Z AUTO 18005KT 10SM CLR 04/01 A2978 1210 82 200 180/05 RMK AO2 TSNO $
94908KDBQ DBQ20011122013510511/22/01 01:35:31  5-MIN KDBQ 220735Z AUTO 18006KT 10SM CLR 04/01 A2978 1210 82 200 180/06 RMK AO2 TSNO $
94908KDBQ DBQ20011122014010511/22/01 01:40:31  5-MIN KDBQ 220740Z AUTO 18006KT 10SM CLR 04/01 A2978 1210 82 200 180/06 RMK AO2 TSNO $
94908KDBQ DBQ20011122014510511/22/01 01:45:31  5-MIN KDBQ 220745Z AUTO 19006KT 10SM CLR 04/02 A2978 1210 85 200 180/06 RMK AO2 TSNO $
94908KDBQ DBQ20011122015012211/22/01 01:50:31  5-MIN KDBQ 220750Z AUTO 19006KT 10SM CLR 03/02 A2978 1210 89 100 190/06 RMK AO2 SLP090 T00330017 TSNO $
94908KDBQ DBQ20011122015512211/22/01 01:55:31  5-MIN KDBQ 220755Z AUTO 19006KT 10SM CLR 03/02 A2978 1210 89 100 190/06 RMK AO2 SLP090 T00330017 TSNO $
94908KDBQ DBQ20011122020010511/22/01 02:00:31  5-MIN KDBQ 220800Z AUTO 19007KT 10SM CLR 03/02 A2978 1210 89 100 180/07 RMK AO2 TSNO $
94908KDBQ DBQ20011122020510511/22/01 02:05:31  5-MIN KDBQ 220805Z AUTO 18007KT 10SM CLR 04/02 A2978 1210 85 200 180/07 RMK AO2 TSNO $
94908KDBQ DBQ20011122021010511/22/01 02:10:31  5-MIN KDBQ 220810Z AUTO 18006KT 10SM CLR 04/02 A2979 1200 85 200 180/06 RMK AO2 TSNO $
94908KDBQ DBQ20011122021510511/22/01 02:15:31  5-MIN KDBQ 220815Z AUTO 19005KT 10SM CLR 04/02 A2979 1200 85 200 190/05 RMK AO2 TSNO $
94908KDBQ DBQ20011122022010511/22/01 02:20:31  5-MIN KDBQ 220820Z AUTO 19005KT 10SM CLR 04/02 A2978 1210 85 200 190/05 RMK AO2 TSNO $
94908KDBQ DBQ20011122022510511/22/01 02:25:31  5-MIN KDBQ 220825Z AUTO 19005KT 10SM CLR 04/02 A2978 1210 85 200 190/05 RMK AO2 TSNO $
94908KDBQ DBQ20011122023010511/22/01 02:30:31  5-MIN KDBQ 220830Z AUTO 19006KT 10SM CLR 03/02 A2978 1210 89 100 190/06 RMK AO2 TSNO $
94908KDBQ DBQ20011122023510511/22/01 02:35:31  5-MIN KDBQ 220835Z AUTO 18006KT 10SM CLR 04/02 A2978 1210 85 200 180/06 RMK AO2 TSNO $
94908KDBQ DBQ20011122024010511/22/01 02:40:31  5-MIN KDBQ 220840Z AUTO 18007KT 10SM CLR 04/02 A2978 1210 85 200 180/07 RMK AO2 TSNO $
94908KDBQ DBQ20011122024510511/22/01 02:45:31  5-MIN KDBQ 220845Z AUTO 19007KT 10SM CLR 04/02 A2978 1210 85 200 180/07 RMK AO2 TSNO $
94908KDBQ DBQ20011122025012811/22/01 02:50:31  5-MIN KDBQ 220850Z AUTO 19008KT 10SM CLR 04/02 A2978 1210 82 300 190/08 RMK AO2 SLP087 T00440017 58000 TSNO $
94908KDBQ DBQ20011122025512811/22/01 02:55:31  5-MIN KDBQ 220855Z AUTO 19007KT 10SM CLR 04/02 A2977 1210 82 300 190/07 RMK AO2 SLP087 T00440017 58007 TSNO $
94908KDBQ DBQ20011122030010511/22/01 03:00:31  5-MIN KDBQ 220900Z AUTO 18008KT 10SM CLR 04/02 A2977 1220 82 300 180/08 RMK AO2 TSNO $
94908KDBQ DBQ20011122030510511/22/01 03:05:31  5-MIN KDBQ 220905Z AUTO 18008KT 10SM CLR 04/02 A2977 1220 85 300 180/08 RMK AO2 TSNO $
94908KDBQ DBQ20011122031010511/22/01 03:10:31  5-MIN KDBQ 220910Z AUTO 19008KT 10SM CLR 04/02 A2977 1220 85 300 180/08 RMK AO2 TSNO $
94908KDBQ DBQ20011122031510511/22/01 03:15:31  5-MIN KDBQ 220915Z AUTO 19008KT 10SM CLR 04/02 A2977 1220 85 300 190/08 RMK AO2 TSNO $
94908KDBQ DBQ20011122032010511/22/01 03:20:31  5-MIN KDBQ 220920Z AUTO 19009KT 10SM CLR 04/02 A2977 1220 85 300 180/09 RMK AO2 TSNO $
94908KDBQ DBQ20011122032510511/22/01 03:25:31  5-MIN KDBQ 220925Z AUTO 19008KT 10SM CLR 04/02 A2977 1220 85 300 180/08 RMK AO2 TSNO $
94908KDBQ DBQ20011122033010511/22/01 03:30:31  5-MIN KDBQ 220930Z AUTO 19008KT 10SM CLR 04/02 A2977 1220 85 300 190/08 RMK AO2 TSNO $
94908KDBQ DBQ20011122033510511/22/01 03:35:31  5-MIN KDBQ 220935Z AUTO 18008KT 10SM CLR 04/02 A2977 1220 85 300 180/08 RMK AO2 TSNO $
94908KDBQ DBQ20011122034010511/22/01 03:40:31  5-MIN KDBQ 220940Z AUTO 19008KT 10SM CLR 04/02 A2977 1220 85 300 180/08 RMK AO2 TSNO $
94908KDBQ DBQ20011122034510511/22/01 03:45:31  5-MIN KDBQ 220945Z AUTO 19007KT 10SM CLR 04/02 A2977 1220 82 300 190/07 RMK AO2 TSNO $
94908KDBQ DBQ20011122035012211/22/01 03:50:31  5-MIN KDBQ 220950Z AUTO 19006KT 10SM CLR 04/02 A2977 1220 85 200 190/06 RMK AO2 SLP086 T00390017 TSNO $
94908KDBQ DBQ20011122035512211/22/01 03:55:31  5-MIN KDBQ 220955Z AUTO 19006KT 10SM CLR 04/02 A2977 1220 85 200 190/06 RMK AO2 SLP086 T00390017 TSNO $
94908KDBQ DBQ20011122040010511/22/01 04:00:31  5-MIN KDBQ 221000Z AUTO 18007KT 10SM CLR 04/02 A2977 1220 85 200 180/07 RMK AO2 TSNO $
94908KDBQ DBQ20011122040510511/22/01 04:05:31  5-MIN KDBQ 221005Z AUTO 19008KT 10SM CLR 04/02 A2977 1220 85 200 180/08 RMK AO2 TSNO $
94908KDBQ DBQ20011122041010511/22/01 04:10:31  5-MIN KDBQ 221010Z AUTO 18008KT 10SM CLR 04/02 A2977 1220 85 200 180/08 RMK AO2 TSNO $
94908KDBQ DBQ20011122041510511/22/01 04:15:31  5-MIN KDBQ 221015Z AUTO 18008KT 10SM CLR 04/02 A2977 1220 82 300 180/08 RMK AO2 TSNO $
94908KDBQ DBQ20011122042010511/22/01 04:20:31  5-MIN KDBQ 221020Z AUTO 18008KT 10SM CLR 04/02 A2977 1220 82 300 180/08 RMK AO2 TSNO $
94908KDBQ DBQ20011122042510511/22/01 04:25:31  5-MIN KDBQ 221025Z AUTO 18007KT 10SM CLR 04/02 A2977 1220 82 300 180/07 RMK AO2 TSNO $
94908KDBQ DBQ20011122043010511/22/01 04:30:31  5-MIN KDBQ 221030Z AUTO 17006KT 10SM CLR 04/02 A2977 1220 82 300 170/06 RMK AO2 TSNO $
94908KDBQ DBQ20011122043510511/22/01 04:35:31  5-MIN KDBQ 221035Z AUTO 18006KT 10SM CLR 04/02 A2977 1220 82 300 170/06 RMK AO2 TSNO $
94908KDBQ DBQ20011122044010511/22/01 04:40:31  5-MIN KDBQ 221040Z AUTO 18006KT 10SM CLR 04/02 A2977 1220 82 300 180/06 RMK AO2 TSNO $
94908KDBQ DBQ20011122044510511/22/01 04:45:31  5-MIN KDBQ 221045Z AUTO 17007KT 10SM CLR 04/02 A2977 1220 82 300 170/07 RMK AO2 TSNO $
94908KDBQ DBQ20011122045012211/22/01 04:50:31  5-MIN KDBQ 221050Z AUTO 16007KT 10SM CLR 04/02 A2977 1220 85 200 160/07 RMK AO2 SLP086 T00390017 TSNO $
94908KDBQ DBQ20011122045512211/22/01 04:55:31  5-MIN KDBQ 221055Z AUTO 17007KT 10SM CLR 04/02 A2977 1220 85 200 160/07 RMK AO2 SLP086 T00390017 TSNO $
94908KDBQ DBQ20011122050010511/22/01 05:00:31  5-MIN KDBQ 221100Z AUTO 17008KT 10SM CLR 04/02 A2977 1220 85 200 170/08 RMK AO2 TSNO $
94908KDBQ DBQ20011122050510511/22/01 05:05:31  5-MIN KDBQ 221105Z AUTO 17008KT 10SM CLR 04/02 A2977 1220 85 200 170/08 RMK AO2 TSNO $
94908KDBQ DBQ20011122051010511/22/01 05:10:31  5-MIN KDBQ 221110Z AUTO 17009KT 10SM CLR 04/02 A2977 1220 85 200 170/09 RMK AO2 TSNO $
94908KDBQ DBQ20011122051510511/22/01 05:15:31  5-MIN KDBQ 221115Z AUTO 17009KT 10SM CLR 04/02 A2977 1220 85 200 170/09 RMK AO2 TSNO $
94908KDBQ DBQ20011122052010511/22/01 05:20:31  5-MIN KDBQ 221120Z AUTO 17009KT 10SM CLR 04/02 A2977 1220 85 200 170/09 RMK AO2 TSNO $
94908KDBQ DBQ20011122052510511/22/01 05:25:31  5-MIN KDBQ 221125Z AUTO 17009KT 10SM CLR 04/02 A2977 1220 85 200 170/09 RMK AO2 TSNO $
94908KDBQ DBQ20011122053010511/22/01 05:30:31  5-MIN KDBQ 221130Z AUTO 17009KT 10SM CLR 03/02 A2977 1220 89 100 160/09 RMK AO2 TSNO $
94908KDBQ DBQ20011122053510511/22/01 05:35:31  5-MIN KDBQ 221135Z AUTO 17009KT 10SM CLR 03/02 A2977 1220 89 100 170/09 RMK AO2 TSNO $
94908KDBQ DBQ20011122054010511/22/01 05:40:31  5-MIN KDBQ 221140Z AUTO 16009KT 10SM CLR 03/02 A2977 1220 89 100 160/09 RMK AO2 TSNO $
94908KDBQ DBQ20011122054510511/22/01 05:45:31  5-MIN KDBQ 221145Z AUTO 16009KT 10SM CLR 03/02 A2977 1220 89 100 160/09 RMK AO2 TSNO $
94908KDBQ DBQ20011122055013011/22/01 05:50:31  5-MIN KDBQ 221150Z 16009KT 10SM CLR 03/02 A2976 1220 89 100 160/09 RMK AO2 SLP085 T00330017 10044 20033 58007 $
94908KDBQ DBQ20011122055513011/22/01 05:55:31  5-MIN KDBQ 221155Z 16010KT 10SM CLR 03/02 A2976 1230 89 100 160/10 RMK AO2 SLP084 T00330017 10044 20033 58004 $
94908KDBQ DBQ20011122060009511/22/01 06:00:31  5-MIN KDBQ 221200Z 16008KT 10SM CLR 03/02 A2976 1230 89 100 160/08 RMK AO2 $
94908KDBQ DBQ20011122060509511/22/01 06:05:31  5-MIN KDBQ 221205Z 16008KT 10SM CLR 03/02 A2976 1230 89 100 160/08 RMK AO2 $
94908KDBQ DBQ20011122061009511/22/01 06:10:31  5-MIN KDBQ 221210Z 16009KT 10SM CLR 03/02 A2976 1230 89 200 160/09 RMK AO2 $
94908KDBQ DBQ20011122061509511/22/01 06:15:31  5-MIN KDBQ 221215Z 17008KT 10SM CLR 03/02 A2976 1230 89 200 170/08 RMK AO2 $
94908KDBQ DBQ20011122062009511/22/01 06:20:31  5-MIN KDBQ 221220Z 17008KT 10SM CLR 03/02 A2976 1230 89 200 170/08 RMK AO2 $
94908KDBQ DBQ20011122062509511/22/01 06:25:31  5-MIN KDBQ 221225Z 16009KT 10SM CLR 03/02 A2975 1230 89 200 160/09 RMK AO2 $
94908KDBQ DBQ20011122063009511/22/01 06:30:31  5-MIN KDBQ 221230Z 17008KT 10SM CLR 03/02 A2976 1230 89 200 170/08 RMK AO2 $
94908KDBQ DBQ20011122063509511/22/01 06:35:31  5-MIN KDBQ 221235Z 17008KT 10SM CLR 03/02 A2976 1230 89 200 170/08 RMK AO2 $
94908KDBQ DBQ20011122064009511/22/01 06:40:31  5-MIN KDBQ 221240Z 17008KT 10SM CLR 03/02 A2976 1230 89 200 170/08 RMK AO2 $
94908KDBQ DBQ20011122064509511/22/01 06:45:31  5-MIN KDBQ 221245Z 18007KT 10SM CLR 03/01 A2976 1230 85 100 180/07 RMK AO2 $
94908KDBQ DBQ20011122065011211/22/01 06:50:31  5-MIN KDBQ 221250Z 19006KT 10SM CLR 03/01 A2976 1230 85 100 190/06 RMK AO2 SLP085 T00330011 $
94908KDBQ DBQ20011122065511211/22/01 06:55:31  5-MIN KDBQ 221255Z 18006KT 10SM CLR 03/01 A2976 1230 85 200 180/06 RMK AO2 SLP083 T00330011 $
94908KDBQ DBQ20011122070009511/22/01 07:00:31  5-MIN KDBQ 221300Z 18005KT 10SM CLR 03/01 A2976 1230 85 200 180/05 RMK AO2 $
94908KDBQ DBQ20011122070509511/22/01 07:05:31  5-MIN KDBQ 221305Z 19005KT 10SM CLR 03/01 A2976 1230 85 200 190/05 RMK AO2 $
94908KDBQ DBQ20011122071009511/22/01 07:10:31  5-MIN KDBQ 221310Z 19006KT 10SM CLR 04/01 A2976 1230 82 200 190/06 RMK AO2 $
94908KDBQ DBQ20011122071509511/22/01 07:15:31  5-MIN KDBQ 221315Z 18006KT 10SM CLR 03/01 A2975 1230 85 200 180/06 RMK AO2 $
94908KDBQ DBQ20011122072009511/22/01 07:20:31  5-MIN KDBQ 221320Z 18007KT 10SM CLR 04/01 A2975 1230 82 200 180/07 RMK AO2 $
94908KDBQ DBQ20011122072509511/22/01 07:25:31  5-MIN KDBQ 221325Z 17007KT 10SM CLR 04/01 A2975 1230 82 200 170/07 RMK AO2 $
94908KDBQ DBQ20011122073009511/22/01 07:30:31  5-MIN KDBQ 221330Z 17009KT 10SM CLR 04/01 A2975 1240 82 200 170/09 RMK AO2 $
94908KDBQ DBQ20011122073509511/22/01 07:35:31  5-MIN KDBQ 221335Z 17009KT 10SM CLR 04/01 A2975 1240 82 200 170/09 RMK AO2 $
94908KDBQ DBQ20011122074009511/22/01 07:40:31  5-MIN KDBQ 221340Z 17009KT 10SM CLR 04/02 A2975 1240 85 200 170/09 RMK AO2 $
94908KDBQ DBQ20011122074509511/22/01 07:45:31  5-MIN KDBQ 221345Z 18008KT 10SM CLR 04/02 A2975 1240 82 300 180/08 RMK AO2 $
94908KDBQ DBQ20011122075011211/22/01 07:50:31  5-MIN KDBQ 221350Z 18009KT 10SM CLR 04/02 A2975 1240 82 300 180/09 RMK AO2 SLP079 T00440017 $
94908KDBQ DBQ20011122075511211/22/01 07:55:31  5-MIN KDBQ 221355Z 18009KT 10SM CLR 04/02 A2975 1240 82 300 180/09 RMK AO2 SLP080 T00440017 $
94908KDBQ DBQ20011122080009511/22/01 08:00:31  5-MIN KDBQ 221400Z 18010KT 10SM CLR 04/02 A2974 1240 82 300 170/10 RMK AO2 $
94908KDBQ DBQ20011122080509511/22/01 08:05:31  5-MIN KDBQ 221405Z 18010KT 10SM CLR 05/02 A2975 1240 79 400 180/10 RMK AO2 $
94908KDBQ DBQ20011122081009511/22/01 08:10:31  5-MIN KDBQ 221410Z 18011KT 10SM CLR 05/02 A2975 1240 79 400 180/11 RMK AO2 $
94908KDBQ DBQ20011122081509511/22/01 08:15:31  5-MIN KDBQ 221415Z 17011KT 10SM CLR 05/02 A2974 1240 79 400 170/11 RMK AO2 $
94908KDBQ DBQ20011122082009511/22/01 08:20:31  5-MIN KDBQ 221420Z 18012KT 10SM CLR 05/01 A2974 1240 76 400 180/12 RMK AO2 $
94908KDBQ DBQ20011122082509511/22/01 08:25:31  5-MIN KDBQ 221425Z 18012KT 10SM CLR 05/01 A2974 1250 76 400 180/12 RMK AO2 $
94908KDBQ DBQ20011122083009511/22/01 08:30:31  5-MIN KDBQ 221430Z 18012KT 10SM CLR 05/01 A2974 1250 76 400 180/12 RMK AO2 $
94908KDBQ DBQ20011122083509511/22/01 08:35:31  5-MIN KDBQ 221435Z 18013KT 10SM CLR 06/01 A2974 1240 73 400 180/13 RMK AO2 $
94908KDBQ DBQ20011122084009511/22/01 08:40:31  5-MIN KDBQ 221440Z 18011KT 10SM CLR 06/01 A2974 1240 73 400 180/11 RMK AO2 $
94908KDBQ DBQ20011122084509511/22/01 08:45:31  5-MIN KDBQ 221445Z 18012KT 10SM CLR 06/01 A2974 1250 73 400 180/12 RMK AO2 $
94908KDBQ DBQ20011122085011811/22/01 08:50:31  5-MIN KDBQ 221450Z 18014KT 10SM CLR 06/01 A2974 1250 73 500 180/14 RMK AO2 SLP076 T00560011 58004 $
94908KDBQ DBQ20011122085511811/22/01 08:55:31  5-MIN KDBQ 221455Z 18014KT 10SM CLR 06/01 A2974 1250 73 500 180/14 RMK AO2 SLP076 T00560011 58009 $
94908KDBQ DBQ20011122090009511/22/01 09:00:31  5-MIN KDBQ 221500Z 18014KT 10SM CLR 06/01 A2973 1250 70 500 180/14 RMK AO2 $
94908KDBQ DBQ20011122090509511/22/01 09:05:31  5-MIN KDBQ 221505Z 18015KT 10SM CLR 06/01 A2973 1250 70 500 180/15 RMK AO2 $
94908KDBQ DBQ20011122091009511/22/01 09:10:31  5-MIN KDBQ 221510Z 19016KT 10SM CLR 06/01 A2973 1250 70 500 180/16 RMK AO2 $
94908KDBQ DBQ20011122091509511/22/01 09:15:31  5-MIN KDBQ 221515Z 19015KT 10SM CLR 06/01 A2973 1250 70 500 180/15 RMK AO2 $
94908KDBQ DBQ20011122092009511/22/01 09:20:31  5-MIN KDBQ 221520Z 19016KT 10SM CLR 06/01 A2973 1250 70 500 190/16 RMK AO2 $
94908KDBQ DBQ20011122092509511/22/01 09:25:31  5-MIN KDBQ 221525Z 19014KT 10SM CLR 06/01 A2974 1250 70 500 190/14 RMK AO2 $
94908KDBQ DBQ20011122093009511/22/01 09:30:31  5-MIN KDBQ 221530Z 19014KT 10SM CLR 07/01 A2974 1250 67 600 190/14 RMK AO2 $
94908KDBQ DBQ20011122093509511/22/01 09:35:31  5-MIN KDBQ 221535Z 19014KT 10SM CLR 07/01 A2973 1250 67 600 190/14 RMK AO2 $
94908KDBQ DBQ20011122094009511/22/01 09:40:31  5-MIN KDBQ 221540Z 19014KT 10SM CLR 07/01 A2974 1250 67 600 190/14 RMK AO2 $
94908KDBQ DBQ20011122094509511/22/01 09:45:31  5-MIN KDBQ 221545Z 19015KT 10SM CLR 07/01 A2973 1250 62 700 180/15 RMK AO2 $
94908KDBQ DBQ20011122095011211/22/01 09:50:31  5-MIN KDBQ 221550Z 19013KT 10SM CLR 07/01 A2974 1250 62 600 190/13 RMK AO2 SLP077 T00720006 $
94908KDBQ DBQ20011122095511211/22/01 09:55:31  5-MIN KDBQ 221555Z 19014KT 10SM CLR 07/01 A2974 1250 65 700 190/14 RMK AO2 SLP076 T00720011 $
94908KDBQ DBQ20011122100009511/22/01 10:00:31  5-MIN KDBQ 221600Z 19014KT 10SM CLR 07/01 A2973 1250 62 700 190/14 RMK AO2 $
94908KDBQ DBQ20011122100509511/22/01 10:05:31  5-MIN KDBQ 221605Z 18014KT 10SM CLR 08/01 A2973 1250 60 700 180/14 RMK AO2 $
94908KDBQ DBQ20011122101009511/22/01 10:10:31  5-MIN KDBQ 221610Z 18013KT 10SM CLR 08/01 A2973 1250 60 700 180/13 RMK AO2 $
94908KDBQ DBQ20011122101510111/22/01 10:15:31  5-MIN KDBQ 221615Z 19017G21KT 10SM CLR 08/01 A2973 1250 60 800 190/17G21 RMK AO2 $
94908KDBQ DBQ20011122102010111/22/01 10:20:31  5-MIN KDBQ 221620Z 19016G21KT 10SM CLR 08/01 A2973 1250 58 800 190/16G21 RMK AO2 $
94908KDBQ DBQ20011122102509511/22/01 10:25:31  5-MIN KDBQ 221625Z 19015KT 10SM CLR 08/01 A2973 1250 60 800 190/15 RMK AO2 $
94908KDBQ DBQ20011122103009511/22/01 10:30:31  5-MIN KDBQ 221630Z 19014KT 10SM CLR 08/01 A2973 1250 60 800 190/14 RMK AO2 $
94908KDBQ DBQ20011122103509511/22/01 10:35:31  5-MIN KDBQ 221635Z 20015KT 10SM CLR 08/01 A2973 1250 60 800 190/15 RMK AO2 $
94908KDBQ DBQ20011122104009511/22/01 10:40:31  5-MIN KDBQ 221640Z 20015KT 10SM CLR 08/01 A2973 1260 58 800 200/15 RMK AO2 $
94908KDBQ DBQ20011122104509511/22/01 10:45:31  5-MIN KDBQ 221645Z 19017KT 10SM CLR 08/01 A2973 1260 58 800 190/17 RMK AO2 $
94908KDBQ DBQ20011122105011211/22/01 10:50:31  5-MIN KDBQ 221650Z 19015KT 10SM CLR 08/01 A2973 1260 58 800 190/15 RMK AO2 SLP072 T00830006 $
94908KDBQ DBQ20011122105511211/22/01 10:55:31  5-MIN KDBQ 221655Z 19015KT 10SM CLR 08/01 A2972 1260 58 800 190/15 RMK AO2 SLP071 T00830006 $
94908KDBQ DBQ20011122110009511/22/01 11:00:31  5-MIN KDBQ 221700Z 18016KT 10SM CLR 09/01 A2972 1270 56 900 180/16 RMK AO2 $
94908KDBQ DBQ20011122110509511/22/01 11:05:31  5-MIN KDBQ 221705Z 18013KT 10SM CLR 09/01 A2971 1270 58 900 180/13 RMK AO2 $
94908KDBQ DBQ20011122111009611/22/01 11:10:31  5-MIN KDBQ 221710Z 18013KT 10SM CLR 09/01 A2971 1280 56 1000 180/13 RMK AO2 $
94908KDBQ DBQ20011122111509611/22/01 11:15:31  5-MIN KDBQ 221715Z 18018KT 10SM CLR 09/01 A2970 1280 56 1000 180/18 RMK AO2 $
94908KDBQ DBQ20011122112009611/22/01 11:20:31  5-MIN KDBQ 221720Z 18017KT 10SM CLR 09/01 A2970 1280 53 1000 180/17 RMK AO2 $
94908KDBQ DBQ20011122112509611/22/01 11:25:31  5-MIN KDBQ 221725Z 18015KT 10SM CLR 10/01 A2970 1280 54 1000 180/15 RMK AO2 $
94908KDBQ DBQ20011122113009611/22/01 11:30:31  5-MIN KDBQ 221730Z 19017KT 10SM CLR 10/01 A2970 1280 54 1000 190/17 RMK AO2 $
94908KDBQ DBQ20011122113509611/22/01 11:35:31  5-MIN KDBQ 221735Z 19017KT 10SM CLR 10/01 A2969 1290 52 1000 190/17 RMK AO2 $
94908KDBQ DBQ20011122114009611/22/01 11:40:31  5-MIN KDBQ 221740Z 18017KT 10SM CLR 09/01 A2969 1290 53 1000 180/17 RMK AO2 $
94908KDBQ DBQ20011122114509611/22/01 11:45:31  5-MIN KDBQ 221745Z 18017KT 10SM CLR 09/01 A2969 1290 56 1000 180/17 RMK AO2 $
94908KDBQ DBQ20011122115013111/22/01 11:50:31  5-MIN KDBQ 221750Z 19018KT 10SM CLR 09/01 A2969 1290 56 1000 190/18 RMK AO2 SLP060 T00940011 10100 20033 58009 $
94908KDBQ DBQ20011122115513111/22/01 11:55:31  5-MIN KDBQ 221755Z 18016KT 10SM CLR 09/01 A2969 1290 56 1000 180/16 RMK AO2 SLP060 T00940011 10100 20033 58015 $
94908KDBQ DBQ20011122120009611/22/01 12:00:31  5-MIN KDBQ 221800Z 18015KT 10SM CLR 10/01 A2969 1290 54 1000 180/15 RMK AO2 $
94908KDBQ DBQ20011122120509611/22/01 12:05:31  5-MIN KDBQ 221805Z 18015KT 10SM CLR 10/01 A2969 1300 54 1000 180/15 RMK AO2 $
94908KDBQ DBQ20011122121009611/22/01 12:10:31  5-MIN KDBQ 221810Z 18015KT 10SM CLR 11/01 A2968 1300 52 1100 180/15 RMK AO2 $
94908KDBQ DBQ20011122121509611/22/01 12:15:31  5-MIN KDBQ 221815Z 17014KT 10SM CLR 11/01 A2968 1300 52 1100 170/14 RMK AO2 $
94908KDBQ DBQ20011122122009611/22/01 12:20:31  5-MIN KDBQ 221820Z 17011KT 10SM CLR 11/01 A2968 1300 52 1100 170/11 RMK AO2 $
94908KDBQ DBQ20011122122509611/22/01 12:25:31  5-MIN KDBQ 221825Z 17012KT 10SM CLR 11/02 A2968 1300 54 1100 170/12 RMK AO2 $
94908KDBQ DBQ20011122123010211/22/01 12:30:31  5-MIN KDBQ 221830Z 17015G19KT 10SM CLR 11/02 A2968 1310 54 1100 170/15G19 RMK AO2 $
94908KDBQ DBQ20011122123509611/22/01 12:35:31  5-MIN KDBQ 221835Z 18014KT 10SM CLR 11/01 A2967 1310 52 1100 180/14 RMK AO2 $
94908KDBQ DBQ20011122124009611/22/01 12:40:31  5-MIN KDBQ 221840Z 17015KT 10SM CLR 11/01 A2967 1310 52 1100 170/15 RMK AO2 $
94908KDBQ DBQ20011122124509611/22/01 12:45:31  5-MIN KDBQ 221845Z 17014KT 10SM CLR 11/02 A2967 1310 54 1100 170/14 RMK AO2 $
94908KDBQ DBQ20011122125011311/22/01 12:50:31  5-MIN KDBQ 221850Z 17015KT 10SM CLR 11/02 A2967 1310 54 1100 170/15 RMK AO2 SLP052 T01060017 $
94908KDBQ DBQ20011122125511311/22/01 12:55:31  5-MIN KDBQ 221855Z 17016KT 10SM CLR 11/02 A2967 1310 54 1100 170/16 RMK AO2 SLP051 T01060017 $
94908KDBQ DBQ20011122130009611/22/01 13:00:31  5-MIN KDBQ 221900Z 17015KT 10SM CLR 11/02 A2966 1320 54 1100 170/15 RMK AO2 $
94908KDBQ DBQ20011122130509611/22/01 13:05:31  5-MIN KDBQ 221905Z 17015KT 10SM CLR 11/02 A2966 1320 52 1200 170/15 RMK AO2 $
94908KDBQ DBQ20011122131009611/22/01 13:10:31  5-MIN KDBQ 221910Z 18017KT 10SM CLR 11/02 A2966 1320 52 1200 180/17 RMK AO2 $
94908KDBQ DBQ20011122131509611/22/01 13:15:31  5-MIN KDBQ 221915Z 18015KT 10SM CLR 11/02 A2966 1320 52 1200 180/15 RMK AO2 $
94908KDBQ DBQ20011122132009611/22/01 13:20:31  5-MIN KDBQ 221920Z 17014KT 10SM CLR 11/02 A2966 1320 54 1200 170/14 RMK AO2 $
94908KDBQ DBQ20011122132510211/22/01 13:25:31  5-MIN KDBQ 221925Z 18016G19KT 10SM CLR 12/02 A2966 1320 52 1300 180/16G19 RMK AO2 $
94908KDBQ DBQ20011122133010211/22/01 13:30:31  5-MIN KDBQ 221930Z 17016G21KT 10SM CLR 12/02 A2966 1320 50 1300 170/16G21 RMK AO2 $
94908KDBQ DBQ20011122133509611/22/01 13:35:31  5-MIN KDBQ 221935Z 17016KT 10SM CLR 11/02 A2966 1320 52 1200 170/16 RMK AO2 $
94908KDBQ DBQ20011122134009611/22/01 13:40:31  5-MIN KDBQ 221940Z 18016KT 10SM CLR 12/02 A2966 1320 52 1300 180/16 RMK AO2 $
94908KDBQ DBQ20011122134509611/22/01 13:45:31  5-MIN KDBQ 221945Z 17016KT 10SM CLR 12/02 A2965 1330 52 1300 170/16 RMK AO2 $
94908KDBQ DBQ20011122135011311/22/01 13:50:31  5-MIN KDBQ 221950Z 18015KT 10SM CLR 12/02 A2965 1330 52 1300 180/15 RMK AO2 SLP046 T01170022 $
94908KDBQ DBQ20011122135511311/22/01 13:55:31  5-MIN KDBQ 221955Z 17017KT 10SM CLR 12/02 A2965 1330 52 1300 170/17 RMK AO2 SLP046 T01170022 $
94908KDBQ DBQ20011122140009611/22/01 14:00:31  5-MIN KDBQ 222000Z 17017KT 10SM CLR 12/02 A2965 1330 52 1300 170/17 RMK AO2 $
94908KDBQ DBQ20011122140510211/22/01 14:05:31  5-MIN KDBQ 222005Z 17017G22KT 10SM CLR 12/02 A2965 1330 52 1300 170/17G22 RMK AO2 $
94908KDBQ DBQ20011122141010211/22/01 14:10:31  5-MIN KDBQ 222010Z 17018G22KT 10SM CLR 12/02 A2965 1330 50 1400 170/18G22 RMK AO2 $
94908KDBQ DBQ20011122141509611/22/01 14:15:31  5-MIN KDBQ 222015Z 17015KT 10SM CLR 12/03 A2965 1330 52 1400 170/15 RMK AO2 $
94908KDBQ DBQ20011122142009611/22/01 14:20:31  5-MIN KDBQ 222020Z 17015KT 10SM CLR 12/03 A2964 1340 52 1400 170/15 RMK AO2 $
94908KDBQ DBQ20011122142510211/22/01 14:25:31  5-MIN KDBQ 222025Z 17018G22KT 10SM CLR 12/02 A2964 1340 50 1400 170/18G22 RMK AO2 $
94908KDBQ DBQ20011122143010211/22/01 14:30:31  5-MIN KDBQ 222030Z 17017G22KT 10SM CLR 12/03 A2964 1340 52 1400 170/17G22 RMK AO2 $
94908KDBQ DBQ20011122143509611/22/01 14:35:31  5-MIN KDBQ 222035Z 18015KT 10SM CLR 12/03 A2964 1340 52 1400 170/15 RMK AO2 $
94908KDBQ DBQ20011122144009611/22/01 14:40:31  5-MIN KDBQ 222040Z 17017KT 10SM CLR 12/03 A2964 1330 52 1400 170/17 RMK AO2 $
94908KDBQ DBQ20011122144510111/22/01 14:45:31  5-MIN KDBQ 222045Z AUTO 18017KT 10SM CLR 12/03 A2964 1330 52 1400 180/17 RMK AO2 $
94908KDBQ DBQ20011122145012511/22/01 14:50:31  5-MIN KDBQ 222050Z 18017G23KT 10SM CLR 12/03 A2965 1330 52 1400 170/17G23 RMK AO2 SLP043 T01220028 58015 $
94908KDBQ DBQ20011122145512511/22/01 14:55:31  5-MIN KDBQ 222055Z 18019G23KT 10SM CLR 12/03 A2965 1330 52 1400 170/19G23 RMK AO2 SLP044 T01220028 56014 $
94908KDBQ DBQ20011122150009611/22/01 15:00:31  5-MIN KDBQ 222100Z 18016KT 10SM CLR 12/03 A2965 1330 52 1400 180/16 RMK AO2 $
94908KDBQ DBQ20011122150509611/22/01 15:05:31  5-MIN KDBQ 222105Z 18016KT 10SM CLR 12/03 A2965 1330 52 1400 180/16 RMK AO2 $
94908KDBQ DBQ20011122151009611/22/01 15:10:31  5-MIN KDBQ 222110Z 18015KT 10SM CLR 13/03 A2965 1330 50 1400 170/15 RMK AO2 $
94908KDBQ DBQ20011122151509611/22/01 15:15:31  5-MIN KDBQ 222115Z 18017KT 10SM CLR 13/03 A2965 1330 50 1400 180/17 RMK AO2 $
94908KDBQ DBQ20011122152010211/22/01 15:20:31  5-MIN KDBQ 222120Z 18014G19KT 10SM CLR 13/03 A2965 1330 50 1400 170/14G19 RMK AO2 $
94908KDBQ DBQ20011122152510211/22/01 15:25:31  5-MIN KDBQ 222125Z 18016G20KT 10SM CLR 13/03 A2965 1330 50 1400 180/16G20 RMK AO2 $
94908KDBQ DBQ20011122153010211/22/01 15:30:31  5-MIN KDBQ 222130Z 18014G20KT 10SM CLR 12/03 A2965 1330 52 1300 180/14G20 RMK AO2 $
94908KDBQ DBQ20011122153509611/22/01 15:35:31  5-MIN KDBQ 222135Z 18015KT 10SM CLR 12/03 A2965 1330 52 1300 180/15 RMK AO2 $
94908KDBQ DBQ20011122154009611/22/01 15:40:31  5-MIN KDBQ 222140Z 18014KT 10SM CLR 12/03 A2965 1330 52 1300 180/14 RMK AO2 $
94908KDBQ DBQ20011122154509611/22/01 15:45:31  5-MIN KDBQ 222145Z 18014KT 10SM CLR 12/03 A2965 1330 54 1300 180/14 RMK AO2 $
94908KDBQ DBQ20011122155011311/22/01 15:50:31  5-MIN KDBQ 222150Z 18014KT 10SM CLR 12/03 A2965 1320 54 1300 180/14 RMK AO2 SLP046 T01220033 $
94908KDBQ DBQ20011122155511311/22/01 15:55:31  5-MIN KDBQ 222155Z 18014KT 10SM CLR 12/03 A2965 1330 56 1300 180/14 RMK AO2 SLP047 T01170033 $
94908KDBQ DBQ20011122160009611/22/01 16:00:31  5-MIN KDBQ 222200Z 18013KT 10SM CLR 12/03 A2966 1320 56 1300 180/13 RMK AO2 $
94908KDBQ DBQ20011122160509611/22/01 16:05:31  5-MIN KDBQ 222205Z 18013KT 10SM CLR 12/03 A2966 1320 56 1300 180/13 RMK AO2 $
94908KDBQ DBQ20011122161009611/22/01 16:10:31  5-MIN KDBQ 222210Z 18012KT 10SM CLR 12/03 A2966 1320 56 1300 180/12 RMK AO2 $
94908KDBQ DBQ20011122161509611/22/01 16:15:31  5-MIN KDBQ 222215Z 18013KT 10SM CLR 11/03 A2966 1320 58 1200 180/13 RMK AO2 $
94908KDBQ DBQ20011122162009611/22/01 16:20:31  5-MIN KDBQ 222220Z 18013KT 10SM CLR 11/03 A2966 1320 58 1200 180/13 RMK AO2 $
94908KDBQ DBQ20011122162509611/22/01 16:25:31  5-MIN KDBQ 222225Z 18013KT 10SM CLR 11/03 A2966 1320 58 1200 180/13 RMK AO2 $
94908KDBQ DBQ20011122163009611/22/01 16:30:31  5-MIN KDBQ 222230Z 18012KT 10SM CLR 11/03 A2966 1320 58 1200 180/12 RMK AO2 $
94908KDBQ DBQ20011122163509611/22/01 16:35:31  5-MIN KDBQ 222235Z 18012KT 10SM CLR 11/03 A2966 1320 61 1100 180/12 RMK AO2 $
94908KDBQ DBQ20011122164009611/22/01 16:40:31  5-MIN KDBQ 222240Z 18011KT 10SM CLR 11/03 A2966 1320 61 1100 180/11 RMK AO2 $
94908KDBQ DBQ20011122164509611/22/01 16:45:31  5-MIN KDBQ 222245Z 18011KT 10SM CLR 10/03 A2966 1320 63 1100 180/11 RMK AO2 $
94908KDBQ DBQ20011122165011311/22/01 16:50:31  5-MIN KDBQ 222250Z 18012KT 10SM CLR 11/03 A2966 1320 61 1100 180/12 RMK AO2 SLP047 T01060033 $
94908KDBQ DBQ20011122165511311/22/01 16:55:31  5-MIN KDBQ 222255Z 18012KT 10SM CLR 11/03 A2966 1320 61 1100 180/12 RMK AO2 SLP047 T01060033 $
94908KDBQ DBQ20011122170009611/22/01 17:00:31  5-MIN KDBQ 222300Z 18012KT 10SM CLR 11/03 A2966 1320 61 1100 180/12 RMK AO2 $
94908KDBQ DBQ20011122170509611/22/01 17:05:31  5-MIN KDBQ 222305Z 18012KT 10SM CLR 11/03 A2966 1320 61 1100 180/12 RMK AO2 $
94908KDBQ DBQ20011122171009611/22/01 17:10:31  5-MIN KDBQ 222310Z 18012KT 10SM CLR 11/03 A2966 1320 61 1100 180/12 RMK AO2 $
94908KDBQ DBQ20011122171509611/22/01 17:15:31  5-MIN KDBQ 222315Z 18012KT 10SM CLR 11/03 A2966 1320 61 1100 180/12 RMK AO2 $
94908KDBQ DBQ20011122172009611/22/01 17:20:31  5-MIN KDBQ 222320Z 18013KT 10SM CLR 11/03 A2966 1320 61 1100 180/13 RMK AO2 $
94908KDBQ DBQ20011122172509611/22/01 17:25:31  5-MIN KDBQ 222325Z 18013KT 10SM CLR 11/03 A2966 1320 61 1100 180/13 RMK AO2 $
94908KDBQ DBQ20011122173009611/22/01 17:30:31  5-MIN KDBQ 222330Z 17012KT 10SM CLR 11/03 A2966 1320 61 1100 170/12 RMK AO2 $
94908KDBQ DBQ20011122173509611/22/01 17:35:31  5-MIN KDBQ 222335Z 18012KT 10SM CLR 11/03 A2966 1320 61 1100 180/12 RMK AO2 $
94908KDBQ DBQ20011122174009611/22/01 17:40:31  5-MIN KDBQ 222340Z 18012KT 10SM CLR 11/03 A2967 1310 58 1100 180/12 RMK AO2 $
94908KDBQ DBQ20011122174509611/22/01 17:45:31  5-MIN KDBQ 222345Z 18013KT 10SM CLR 11/03 A2967 1310 58 1100 180/13 RMK AO2 $
94908KDBQ DBQ20011122175013111/22/01 17:50:31  5-MIN KDBQ 222350Z 18013KT 10SM CLR 11/03 A2966 1320 58 1100 180/13 RMK AO2 SLP050 T01060028 10128 20094 56014 $
94908KDBQ DBQ20011122175513111/22/01 17:55:31  5-MIN KDBQ 222355Z 18014KT 10SM CLR 11/03 A2967 1320 58 1100 180/14 RMK AO2 SLP050 T01060028 10128 20094 53006 $
94908KDBQ DBQ20011122180009611/22/01 18:00:31  5-MIN KDBQ 230000Z 18013KT 10SM CLR 11/03 A2967 1310 58 1100 180/13 RMK AO2 $
94908KDBQ DBQ20011122180509611/22/01 18:05:31  5-MIN KDBQ 230005Z 17013KT 10SM CLR 11/03 A2967 1310 58 1100 170/13 RMK AO2 $
94908KDBQ DBQ20011122181009611/22/01 18:10:31  5-MIN KDBQ 230010Z 17011KT 10SM CLR 11/03 A2967 1310 58 1100 170/11 RMK AO2 $
94908KDBQ DBQ20011122181509611/22/01 18:15:31  5-MIN KDBQ 230015Z 17012KT 10SM CLR 10/03 A2967 1310 60 1100 170/12 RMK AO2 $
94908KDBQ DBQ20011122182009611/22/01 18:20:31  5-MIN KDBQ 230020Z 17013KT 10SM CLR 10/03 A2967 1310 60 1100 170/13 RMK AO2 $
94908KDBQ DBQ20011122182509611/22/01 18:25:31  5-MIN KDBQ 230025Z 17013KT 10SM CLR 10/03 A2967 1310 60 1100 170/13 RMK AO2 $
94908KDBQ DBQ20011122183009611/22/01 18:30:31  5-MIN KDBQ 230030Z 18014KT 10SM CLR 10/03 A2967 1310 60 1100 180/14 RMK AO2 $
94908KDBQ DBQ20011122183509611/22/01 18:35:31  5-MIN KDBQ 230035Z 18014KT 10SM CLR 10/03 A2967 1310 60 1100 180/14 RMK AO2 $
94908KDBQ DBQ20011122184009611/22/01 18:40:31  5-MIN KDBQ 230040Z 18014KT 10SM CLR 10/03 A2967 1310 60 1100 180/14 RMK AO2 $
94908KDBQ DBQ20011122184509611/22/01 18:45:31  5-MIN KDBQ 230045Z 18014KT 10SM CLR 10/03 A2967 1310 60 1100 180/14 RMK AO2 $
94908KDBQ DBQ20011122185011311/22/01 18:50:31  5-MIN KDBQ 230050Z 18013KT 10SM CLR 10/03 A2967 1310 60 1100 180/13 RMK AO2 SLP054 T01000028 $
94908KDBQ DBQ20011122185511311/22/01 18:55:31  5-MIN KDBQ 230055Z 18012KT 10SM CLR 09/03 A2967 1310 63 1000 180/12 RMK AO2 SLP054 T00940028 $
94908KDBQ DBQ20011122190009611/22/01 19:00:31  5-MIN KDBQ 230100Z 18012KT 10SM CLR 09/03 A2967 1310 63 1000 180/12 RMK AO2 $
94908KDBQ DBQ20011122190509611/22/01 19:05:31  5-MIN KDBQ 230105Z 18011KT 10SM CLR 09/03 A2967 1310 63 1000 170/11 RMK AO2 $
94908KDBQ DBQ20011122191009511/22/01 19:10:31  5-MIN KDBQ 230110Z 18012KT 10SM CLR 09/03 A2967 1310 65 900 170/12 RMK AO2 $
94908KDBQ DBQ20011122191509511/22/01 19:15:31  5-MIN KDBQ 230115Z 17011KT 10SM CLR 09/03 A2967 1310 65 900 170/11 RMK AO2 $
94908KDBQ DBQ20011122192009511/22/01 19:20:31  5-MIN KDBQ 230120Z 17010KT 10SM CLR 09/03 A2968 1300 65 900 170/10 RMK AO2 $
94908KDBQ DBQ20011122192509511/22/01 19:25:31  5-MIN KDBQ 230125Z 18010KT 10SM CLR 09/03 A2968 1300 65 900 170/10 RMK AO2 $
94908KDBQ DBQ20011122193009511/22/01 19:30:31  5-MIN KDBQ 230130Z 17009KT 10SM CLR 08/03 A2968 1300 68 900 170/09 RMK AO2 $
94908KDBQ DBQ20011122193509511/22/01 19:35:31  5-MIN KDBQ 230135Z 17009KT 10SM CLR 08/03 A2968 1300 68 900 170/09 RMK AO2 $
94908KDBQ DBQ20011122194009511/22/01 19:40:31  5-MIN KDBQ 230140Z 17009KT 10SM CLR 08/03 A2968 1300 68 900 170/09 RMK AO2 $
94908KDBQ DBQ20011122194509511/22/01 19:45:31  5-MIN KDBQ 230145Z 17010KT 10SM CLR 08/03 A2968 1300 70 800 170/10 RMK AO2 $
94908KDBQ DBQ20011122195011211/22/01 19:50:31  5-MIN KDBQ 230150Z 16011KT 10SM CLR 08/03 A2968 1300 70 800 160/11 RMK AO2 SLP056 T00780028 $
94908KDBQ DBQ20011122195511211/22/01 19:55:31  5-MIN KDBQ 230155Z 16010KT 10SM CLR 08/03 A2968 1300 70 800 160/10 RMK AO2 SLP056 T00780028 $
94908KDBQ DBQ20011122200010511/22/01 20:00:31  5-MIN KDBQ 230200Z AUTO 16010KT 10SM CLR 07/03 A2968 1300 73 700 160/10 RMK AO2 TSNO $
94908KDBQ DBQ20011122200510511/22/01 20:05:31  5-MIN KDBQ 230205Z AUTO 16011KT 10SM CLR 07/02 A2968 1300 70 700 160/11 RMK AO2 TSNO $
94908KDBQ DBQ20011122201010511/22/01 20:10:31  5-MIN KDBQ 230210Z AUTO 16010KT 10SM CLR 07/02 A2968 1300 70 700 160/10 RMK AO2 TSNO $
94908KDBQ DBQ20011122201510511/22/01 20:15:31  5-MIN KDBQ 230215Z AUTO 16010KT 10SM CLR 07/02 A2968 1300 70 700 160/10 RMK AO2 TSNO $
94908KDBQ DBQ20011122202010511/22/01 20:20:31  5-MIN KDBQ 230220Z AUTO 16010KT 10SM CLR 07/02 A2968 1300 70 700 160/10 RMK AO2 TSNO $
94908KDBQ DBQ20011122202510511/22/01 20:25:31  5-MIN KDBQ 230225Z AUTO 16010KT 10SM CLR 07/02 A2968 1300 70 700 160/10 RMK AO2 TSNO $
94908KDBQ DBQ20011122203010511/22/01 20:30:31  5-MIN KDBQ 230230Z AUTO 16010KT 10SM CLR 07/02 A2968 1300 70 700 160/10 RMK AO2 TSNO $
94908KDBQ DBQ20011122203510511/22/01 20:35:31  5-MIN KDBQ 230235Z AUTO 16011KT 10SM CLR 07/02 A2968 1300 70 700 160/11 RMK AO2 TSNO $
94908KDBQ DBQ20011122204010511/22/01 20:40:31  5-MIN KDBQ 230240Z AUTO 16011KT 10SM CLR 07/02 A2968 1300 70 700 160/11 RMK AO2 TSNO $
94908KDBQ DBQ20011122204510511/22/01 20:45:31  5-MIN KDBQ 230245Z AUTO 17011KT 10SM CLR 07/02 A2968 1300 70 700 170/11 RMK AO2 TSNO $
94908KDBQ DBQ20011122205012811/22/01 20:50:31  5-MIN KDBQ 230250Z AUTO 17011KT 10SM CLR 07/02 A2968 1300 70 700 170/11 RMK AO2 SLP057 T00720022 53006 TSNO $
94908KDBQ DBQ20011122205512811/22/01 20:55:31  5-MIN KDBQ 230255Z AUTO 17011KT 10SM CLR 07/02 A2968 1300 70 700 170/11 RMK AO2 SLP057 T00720022 51005 TSNO $
94908KDBQ DBQ20011122210010511/22/01 21:00:31  5-MIN KDBQ 230300Z AUTO 17012KT 10SM CLR 08/02 A2968 1300 68 800 170/12 RMK AO2 TSNO $
94908KDBQ DBQ20011122210510511/22/01 21:05:31  5-MIN KDBQ 230305Z AUTO 17012KT 10SM CLR 08/02 A2968 1300 68 800 170/12 RMK AO2 TSNO $
94908KDBQ DBQ20011122211010511/22/01 21:10:31  5-MIN KDBQ 230310Z AUTO 17012KT 10SM CLR 08/02 A2968 1300 68 800 170/12 RMK AO2 TSNO $
94908KDBQ DBQ20011122211510511/22/01 21:15:31  5-MIN KDBQ 230315Z AUTO 17011KT 10SM CLR 08/02 A2968 1300 68 800 170/11 RMK AO2 TSNO $
94908KDBQ DBQ20011122212010511/22/01 21:20:31  5-MIN KDBQ 230320Z AUTO 17011KT 10SM CLR 08/02 A2969 1300 68 800 170/11 RMK AO2 TSNO $
94908KDBQ DBQ20011122212510511/22/01 21:25:31  5-MIN KDBQ 230325Z AUTO 17010KT 10SM CLR 07/02 A2969 1300 70 700 170/10 RMK AO2 TSNO $
94908KDBQ DBQ20011122213010511/22/01 21:30:31  5-MIN KDBQ 230330Z AUTO 17010KT 10SM CLR 07/02 A2969 1300 70 700 170/10 RMK AO2 TSNO $
94908KDBQ DBQ20011122213510511/22/01 21:35:31  5-MIN KDBQ 230335Z AUTO 17010KT 10SM CLR 07/02 A2969 1300 68 700 170/10 RMK AO2 TSNO $
94908KDBQ DBQ20011122214010511/22/01 21:40:31  5-MIN KDBQ 230340Z AUTO 17009KT 10SM CLR 07/02 A2969 1290 68 700 170/09 RMK AO2 TSNO $
94908KDBQ DBQ20011122214510511/22/01 21:45:31  5-MIN KDBQ 230345Z AUTO 17009KT 10SM CLR 07/02 A2969 1290 70 600 170/09 RMK AO2 TSNO $
94908KDBQ DBQ20011122215012211/22/01 21:50:31  5-MIN KDBQ 230350Z AUTO 17009KT 10SM CLR 07/02 A2969 1290 70 600 170/09 RMK AO2 SLP058 T00670017 TSNO $
94908KDBQ DBQ20011122215512211/22/01 21:55:31  5-MIN KDBQ 230355Z AUTO 17009KT 10SM CLR 07/02 A2969 1290 70 600 170/09 RMK AO2 SLP059 T00670017 TSNO $
94908KDBQ DBQ20011122220010511/22/01 22:00:31  5-MIN KDBQ 230400Z AUTO 17008KT 10SM CLR 07/02 A2969 1290 70 600 170/08 RMK AO2 TSNO $
94908KDBQ DBQ20011122220510511/22/01 22:05:31  5-MIN KDBQ 230405Z AUTO 18007KT 10SM CLR 07/02 A2969 1290 70 600 180/07 RMK AO2 TSNO $
94908KDBQ DBQ20011122221010511/22/01 22:10:31  5-MIN KDBQ 230410Z AUTO 18008KT 10SM CLR 07/02 A2969 1290 70 600 180/08 RMK AO2 TSNO $
94908KDBQ DBQ20011122221510511/22/01 22:15:31  5-MIN KDBQ 230415Z AUTO 18009KT 10SM CLR 07/02 A2969 1290 70 600 180/09 RMK AO2 TSNO $
94908KDBQ DBQ20011122222010511/22/01 22:20:31  5-MIN KDBQ 230420Z AUTO 18009KT 10SM CLR 07/02 A2969 1290 70 600 180/09 RMK AO2 TSNO $
94908KDBQ DBQ20011122222510511/22/01 22:25:31  5-MIN KDBQ 230425Z AUTO 17009KT 10SM CLR 07/02 A2969 1290 70 600 170/09 RMK AO2 TSNO $
94908KDBQ DBQ20011122223010511/22/01 22:30:31  5-MIN KDBQ 230430Z AUTO 17009KT 10SM CLR 07/02 A2969 1290 70 600 170/09 RMK AO2 TSNO $
94908KDBQ DBQ20011122223510511/22/01 22:35:31  5-MIN KDBQ 230435Z AUTO 17009KT 10SM CLR 07/01 A2969 1290 67 600 170/09 RMK AO2 TSNO $
94908KDBQ DBQ20011122224010511/22/01 22:40:31  5-MIN KDBQ 230440Z AUTO 17009KT 10SM CLR 07/01 A2969 1290 67 600 170/09 RMK AO2 TSNO $
94908KDBQ DBQ20011122224510511/22/01 22:45:31  5-MIN KDBQ 230445Z AUTO 17010KT 10SM CLR 07/01 A2969 1290 67 600 170/10 RMK AO2 TSNO $
94908KDBQ DBQ20011122225012211/22/01 22:50:31  5-MIN KDBQ 230450Z AUTO 17009KT 10SM CLR 07/01 A2969 1290 67 600 170/09 RMK AO2 SLP059 T00670011 TSNO $
94908KDBQ DBQ20011122225512211/22/01 22:55:31  5-MIN KDBQ 230455Z AUTO 18009KT 10SM CLR 07/01 A2969 1290 67 600 180/09 RMK AO2 SLP060 T00670011 TSNO $
94908KDBQ DBQ20011122230010511/22/01 23:00:31  5-MIN KDBQ 230500Z AUTO 18009KT 10SM CLR 07/01 A2969 1290 67 600 180/09 RMK AO2 TSNO $
94908KDBQ DBQ20011122230510511/22/01 23:05:31  5-MIN KDBQ 230505Z AUTO 18008KT 10SM CLR 06/01 A2969 1290 70 600 170/08 RMK AO2 TSNO $
94908KDBQ DBQ20011122231010511/22/01 23:10:31  5-MIN KDBQ 230510Z AUTO 18007KT 10SM CLR 06/01 A2969 1290 73 500 180/07 RMK AO2 TSNO $
94908KDBQ DBQ20011122231510511/22/01 23:15:31  5-MIN KDBQ 230515Z AUTO 19007KT 10SM CLR 06/01 A2970 1290 73 500 190/07 RMK AO2 TSNO $
94908KDBQ DBQ20011122232010511/22/01 23:20:31  5-MIN KDBQ 230520Z AUTO 19006KT 10SM CLR 06/01 A2970 1290 73 500 180/06 RMK AO2 TSNO $
94908KDBQ DBQ20011122232510511/22/01 23:25:31  5-MIN KDBQ 230525Z AUTO 19007KT 10SM CLR 05/01 A2970 1290 76 400 190/07 RMK AO2 TSNO $
94908KDBQ DBQ20011122233010511/22/01 23:30:31  5-MIN KDBQ 230530Z AUTO 20006KT 10SM CLR 05/01 A2970 1280 76 400 200/06 RMK AO2 TSNO $
94908KDBQ DBQ20011122233510811/22/01 23:35:31  5-MIN KDBQ 230535Z AUTO 20007KT 10SM FEW046 06/01 A2970 1280 73 500 200/07 RMK AO2 TSNO $
94908KDBQ DBQ20011122234010811/22/01 23:40:31  5-MIN KDBQ 230540Z AUTO 20007KT 10SM FEW046 06/01 A2970 1280 73 500 200/07 RMK AO2 TSNO $
94908KDBQ DBQ20011122234510811/22/01 23:45:31  5-MIN KDBQ 230545Z AUTO 20007KT 10SM SCT046 06/01 A2970 1290 73 500 200/07 RMK AO2 TSNO $
94908KDBQ DBQ20011122235015311/22/01 23:50:31  5-MIN KDBQ 230550Z AUTO 20007KT 10SM BKN046 06/01 A2970 1290 73 500 200/07 RMK AO2 SLP061 T00560011 10106 20050 401280033 51005 TSNO $
94908KDBQ DBQ20011122235515311/22/01 23:55:31  5-MIN KDBQ 230555Z AUTO 20007KT 10SM SCT046 06/01 A2970 1290 73 500 200/07 RMK AO2 SLP061 T00560011 10106 20050 401280033 51005 TSNO $
94908KDBQ DBQ20011123000010811/23/01 00:00:31  5-MIN KDBQ 230600Z AUTO 20007KT 10SM SCT046 06/01 A2970 1290 73 500 200/07 RMK AO2 TSNO $
94908KDBQ DBQ20011123000510811/23/01 00:05:31  5-MIN KDBQ 230605Z AUTO 20007KT 10SM FEW046 06/01 A2970 1290 73 500 200/07 RMK AO2 TSNO $
94908KDBQ DBQ20011123001010811/23/01 00:10:31  5-MIN KDBQ 230610Z AUTO 20007KT 10SM FEW046 06/01 A2969 1290 73 500 200/07 RMK AO2 TSNO $
94908KDBQ DBQ20011123001510811/23/01 00:15:31  5-MIN KDBQ 230615Z AUTO 20006KT 10SM FEW046 06/01 A2969 1290 70 500 200/06 RMK AO2 TSNO $
94908KDBQ DBQ20011123002010511/23/01 00:20:31  5-MIN KDBQ 230620Z AUTO 20006KT 10SM CLR 05/01 A2969 1290 73 400 200/06 RMK AO2 TSNO $
94908KDBQ DBQ20011123002510511/23/01 00:25:31  5-MIN KDBQ 230625Z AUTO 20007KT 10SM CLR 06/01 A2970 1290 70 500 200/07 RMK AO2 TSNO $
94908KDBQ DBQ20011123003010511/23/01 00:30:31  5-MIN KDBQ 230630Z AUTO 20007KT 10SM CLR 05/01 A2970 1280 73 400 200/07 RMK AO2 TSNO $
94908KDBQ DBQ20011123003510511/23/01 00:35:31  5-MIN KDBQ 230635Z AUTO 19006KT 10SM CLR 05/01 A2970 1280 73 400 190/06 RMK AO2 TSNO $
94908KDBQ DBQ20011123004010811/23/01 00:40:31  5-MIN KDBQ 230640Z AUTO 19007KT 10SM FEW060 06/01 A2970 1280 73 500 190/07 RMK AO2 TSNO $
94908KDBQ DBQ20011123004511511/23/01 00:45:31  5-MIN KDBQ 230645Z AUTO 18007KT 10SM FEW045 BKN055 06/01 A2970 1290 70 600 180/07 RMK AO2 TSNO $
94908KDBQ DBQ20011123005013211/23/01 00:50:31  5-MIN KDBQ 230650Z AUTO 17009KT 10SM FEW045 BKN055 07/01 A2970 1290 67 600 170/09 RMK AO2 SLP060 T00670011 TSNO $
94908KDBQ DBQ20011123005513211/23/01 00:55:31  5-MIN KDBQ 230655Z AUTO 17010KT 10SM FEW045 BKN060 07/01 A2970 1290 67 600 170/10 RMK AO2 SLP060 T00670011 TSNO $
94908KDBQ DBQ20011123010011511/23/01 01:00:31  5-MIN KDBQ 230700Z AUTO 17009KT 10SM FEW045 BKN060 07/01 A2970 1290 67 600 170/09 RMK AO2 TSNO $
94908KDBQ DBQ20011123010511511/23/01 01:05:31  5-MIN KDBQ 230705Z AUTO 17009KT 10SM FEW045 BKN060 07/01 A2970 1290 67 600 170/09 RMK AO2 TSNO $
94908KDBQ DBQ20011123011011511/23/01 01:10:31  5-MIN KDBQ 230710Z AUTO 17008KT 10SM FEW045 BKN060 07/01 A2970 1280 67 600 170/08 RMK AO2 TSNO $
94908KDBQ DBQ20011123011511511/23/01 01:15:31  5-MIN KDBQ 230715Z AUTO 17008KT 10SM FEW045 BKN060 06/01 A2970 1280 70 600 170/08 RMK AO2 TSNO $
94908KDBQ DBQ20011123012010811/23/01 01:20:31  5-MIN KDBQ 230720Z AUTO 18006KT 10SM SCT060 06/01 A2970 1280 70 600 170/06 RMK AO2 TSNO $
94908KDBQ DBQ20011123012510811/23/01 01:25:31  5-MIN KDBQ 230725Z AUTO 17006KT 10SM FEW060 06/01 A2970 1280 70 500 170/06 RMK AO2 TSNO $
94908KDBQ DBQ20011123013010811/23/01 01:30:31  5-MIN KDBQ 230730Z AUTO 17008KT 10SM FEW060 06/01 A2970 1280 70 500 170/08 RMK AO2 TSNO $
94908KDBQ DBQ20011123013510511/23/01 01:35:31  5-MIN KDBQ 230735Z AUTO 17008KT 10SM CLR 06/01 A2970 1280 67 600 170/08 RMK AO2 TSNO $
94908KDBQ DBQ20011123014010811/23/01 01:40:31  5-MIN KDBQ 230740Z AUTO 17008KT 10SM FEW060 06/01 A2970 1280 70 500 170/08 RMK AO2 TSNO $
94908KDBQ DBQ20011123014510811/23/01 01:45:31  5-MIN KDBQ 230745Z AUTO 17008KT 10SM FEW060 06/01 A2971 1280 67 600 170/08 RMK AO2 TSNO $
94908KDBQ DBQ20011123015012211/23/01 01:50:31  5-MIN KDBQ 230750Z AUTO 16008KT 10SM CLR 06/01 A2971 1280 70 500 160/08 RMK AO2 SLP064 T00560006 TSNO $
94908KDBQ DBQ20011123015512211/23/01 01:55:31  5-MIN KDBQ 230755Z AUTO 17007KT 10SM CLR 06/01 A2971 1270 70 500 170/07 RMK AO2 SLP064 T00560006 TSNO $
94908KDBQ DBQ20011123020010511/23/01 02:00:31  5-MIN KDBQ 230800Z AUTO 17007KT 10SM CLR 06/01 A2971 1270 70 500 170/07 RMK AO2 TSNO $
94908KDBQ DBQ20011123020510511/23/01 02:05:31  5-MIN KDBQ 230805Z AUTO 17008KT 10SM CLR 06/01 A2971 1270 70 500 170/08 RMK AO2 TSNO $
94908KDBQ DBQ20011123021010511/23/01 02:10:31  5-MIN KDBQ 230810Z AUTO 16009KT 10SM CLR 06/01 A2971 1270 70 500 160/09 RMK AO2 TSNO $
94908KDBQ DBQ20011123021510811/23/01 02:15:31  5-MIN KDBQ 230815Z AUTO 16008KT 10SM FEW060 06/01 A2971 1270 67 500 160/08 RMK AO2 TSNO $
94908KDBQ DBQ20011123022010811/23/01 02:20:31  5-MIN KDBQ 230820Z AUTO 16008KT 10SM FEW060 06/01 A2972 1270 67 500 160/08 RMK AO2 TSNO $
94908KDBQ DBQ20011123022510811/23/01 02:25:31  5-MIN KDBQ 230825Z AUTO 16009KT 10SM SCT060 06/01 A2972 1270 70 500 160/09 RMK AO2 TSNO $
94908KDBQ DBQ20011123023010811/23/01 02:30:31  5-MIN KDBQ 230830Z AUTO 17009KT 10SM SCT060 07/01 A2972 1270 67 600 160/09 RMK AO2 TSNO $
94908KDBQ DBQ20011123023510811/23/01 02:35:31  5-MIN KDBQ 230835Z AUTO 16009KT 10SM BKN060 07/01 A2971 1270 67 600 160/09 RMK AO2 TSNO $
94908KDBQ DBQ20011123024010811/23/01 02:40:31  5-MIN KDBQ 230840Z AUTO 17008KT 10SM BKN060 07/01 A2971 1270 67 600 170/08 RMK AO2 TSNO $
94908KDBQ DBQ20011123024510811/23/01 02:45:31  5-MIN KDBQ 230845Z AUTO 17008KT 10SM BKN060 07/01 A2971 1270 65 700 170/08 RMK AO2 TSNO $
94908KDBQ DBQ20011123025013111/23/01 02:50:31  5-MIN KDBQ 230850Z AUTO 16008KT 10SM OVC060 07/01 A2971 1270 65 700 160/08 RMK AO2 SLP065 T00720011 51005 TSNO $
94908KDBQ DBQ20011123025513111/23/01 02:55:31  5-MIN KDBQ 230855Z AUTO 16009KT 10SM OVC055 07/01 A2971 1270 65 700 160/09 RMK AO2 SLP065 T00720011 53006 TSNO $
94908KDBQ DBQ20011123030011511/23/01 03:00:31  5-MIN KDBQ 230900Z AUTO 17008KT 10SM BKN050 OVC060 08/01 A2971 1270 62 700 170/08 RMK AO2 TSNO $
94908KDBQ DBQ20011123030511511/23/01 03:05:31  5-MIN KDBQ 230905Z AUTO 17008KT 10SM BKN050 OVC060 08/01 A2971 1270 62 700 170/08 RMK AO2 TSNO $
94908KDBQ DBQ20011123031011511/23/01 03:10:31  5-MIN KDBQ 230910Z AUTO 17007KT 10SM BKN047 OVC055 08/01 A2971 1270 62 700 160/07 RMK AO2 TSNO $
94908KDBQ DBQ20011123031511511/23/01 03:15:31  5-MIN KDBQ 230915Z AUTO 16008KT 10SM BKN045 OVC050 08/01 A2971 1270 62 700 160/08 RMK AO2 TSNO $
94908KDBQ DBQ20011123032010811/23/01 03:20:31  5-MIN KDBQ 230920Z AUTO 17009KT 10SM OVC045 08/01 A2971 1270 62 700 170/09 RMK AO2 TSNO $
94908KDBQ DBQ20011123032510811/23/01 03:25:31  5-MIN KDBQ 230925Z AUTO 17010KT 10SM OVC045 08/01 A2971 1270 62 700 170/10 RMK AO2 TSNO $
94908KDBQ DBQ20011123033010811/23/01 03:30:31  5-MIN KDBQ 230930Z AUTO 17009KT 10SM OVC045 08/01 A2971 1270 62 700 170/09 RMK AO2 TSNO $
94908KDBQ DBQ20011123033510811/23/01 03:35:31  5-MIN KDBQ 230935Z AUTO 17009KT 10SM OVC043 08/01 A2971 1270 62 700 170/09 RMK AO2 TSNO $
94908KDBQ DBQ20011123034010811/23/01 03:40:31  5-MIN KDBQ 230940Z AUTO 17008KT 10SM OVC043 08/01 A2972 1270 62 700 170/08 RMK AO2 TSNO $
94908KDBQ DBQ20011123034510811/23/01 03:45:31  5-MIN KDBQ 230945Z AUTO 17008KT 10SM OVC043 08/01 A2972 1270 62 700 170/08 RMK AO2 TSNO $
94908KDBQ DBQ20011123035012511/23/01 03:50:31  5-MIN KDBQ 230950Z AUTO 17008KT 10SM OVC043 08/01 A2972 1270 62 700 170/08 RMK AO2 SLP066 T00780011 TSNO $
94908KDBQ DBQ20011123035512511/23/01 03:55:31  5-MIN KDBQ 230955Z AUTO 17008KT 10SM OVC043 08/01 A2972 1270 62 700 170/08 RMK AO2 SLP066 T00780011 TSNO $
94908KDBQ DBQ20011123040010811/23/01 04:00:31  5-MIN KDBQ 231000Z AUTO 17008KT 10SM OVC043 08/01 A2972 1270 62 700 170/08 RMK AO2 TSNO $
94908KDBQ DBQ20011123040510811/23/01 04:05:31  5-MIN KDBQ 231005Z AUTO 16007KT 10SM OVC043 08/01 A2972 1270 62 700 160/07 RMK AO2 TSNO $
94908KDBQ DBQ20011123041010811/23/01 04:10:31  5-MIN KDBQ 231010Z AUTO 17008KT 10SM OVC045 07/01 A2972 1270 65 700 170/08 RMK AO2 TSNO $
94908KDBQ DBQ20011123041511511/23/01 04:15:31  5-MIN KDBQ 231015Z AUTO 16008KT 10SM BKN045 BKN070 07/01 A2972 1270 65 700 160/08 RMK AO2 TSNO $
94908KDBQ DBQ20011123042011511/23/01 04:20:31  5-MIN KDBQ 231020Z AUTO 16009KT 10SM BKN045 BKN070 07/01 A2972 1270 62 700 160/09 RMK AO2 TSNO $
94908KDBQ DBQ20011123042511511/23/01 04:25:31  5-MIN KDBQ 231025Z AUTO 16009KT 10SM SCT045 SCT070 07/01 A2972 1270 65 600 160/09 RMK AO2 TSNO $
94908KDBQ DBQ20011123043011511/23/01 04:30:31  5-MIN KDBQ 231030Z AUTO 16009KT 10SM FEW045 SCT070 07/01 A2972 1260 65 600 160/09 RMK AO2 TSNO $
94908KDBQ DBQ20011123043510811/23/01 04:35:31  5-MIN KDBQ 231035Z AUTO 16008KT 10SM FEW047 06/01 A2972 1260 67 500 160/08 RMK AO2 TSNO $
94908KDBQ DBQ20011123044010511/23/01 04:40:31  5-MIN KDBQ 231040Z AUTO 16008KT 10SM CLR 06/01 A2972 1260 67 500 160/08 RMK AO2 TSNO $
94908KDBQ DBQ20011123044510511/23/01 04:45:31  5-MIN KDBQ 231045Z AUTO 16008KT 10SM CLR 06/01 A2972 1260 67 500 160/08 RMK AO2 TSNO $
94908KDBQ DBQ20011123045012511/23/01 04:50:31  5-MIN KDBQ 231050Z AUTO 16008KT 10SM FEW043 06/01 A2972 1260 67 500 160/08 RMK AO2 SLP070 T00610006 TSNO $
94908KDBQ DBQ20011123045513211/23/01 04:55:31  5-MIN KDBQ 231055Z AUTO 15009KT 10SM FEW043 SCT055 06/01 A2972 1260 67 500 150/09 RMK AO2 SLP069 T00610006 TSNO $
94908KDBQ DBQ20011123050011511/23/01 05:00:31  5-MIN KDBQ 231100Z AUTO 15009KT 10SM FEW043 SCT055 06/01 A2972 1260 67 500 150/09 RMK AO2 TSNO $
94908KDBQ DBQ20011123050511511/23/01 05:05:31  5-MIN KDBQ 231105Z AUTO 15009KT 10SM FEW043 SCT050 06/01 A2972 1260 67 500 150/09 RMK AO2 TSNO $
94908KDBQ DBQ20011123051011511/23/01 05:10:31  5-MIN KDBQ 231110Z AUTO 16009KT 10SM FEW043 SCT050 06/01 A2972 1270 67 500 150/09 RMK AO2 TSNO $
94908KDBQ DBQ20011123051510811/23/01 05:15:31  5-MIN KDBQ 231115Z AUTO 16010KT 10SM FEW043 06/01 A2972 1270 67 500 160/10 RMK AO2 TSNO $
94908KDBQ DBQ20011123052010811/23/01 05:20:31  5-MIN KDBQ 231120Z AUTO 16009KT 10SM FEW055 06/01 A2972 1270 67 500 160/09 RMK AO2 TSNO $
94908KDBQ DBQ20011123052510811/23/01 05:25:31  5-MIN KDBQ 231125Z AUTO 16009KT 10SM FEW050 06/01 A2972 1270 67 500 160/09 RMK AO2 TSNO $
94908KDBQ DBQ20011123053010511/23/01 05:30:31  5-MIN KDBQ 231130Z AUTO 16009KT 10SM CLR 06/01 A2972 1270 67 500 160/09 RMK AO2 TSNO $
94908KDBQ DBQ20011123053510511/23/01 05:35:31  5-MIN KDBQ 231135Z AUTO 16010KT 10SM CLR 06/01 A2972 1270 67 500 160/10 RMK AO2 TSNO $
94908KDBQ DBQ20011123054009511/23/01 05:40:31  5-MIN KDBQ 231140Z 16009KT 10SM CLR 06/01 A2972 1270 67 500 160/09 RMK AO2 $
94908KDBQ DBQ20011123054509511/23/01 05:45:31  5-MIN KDBQ 231145Z 16009KT 10SM CLR 06/01 A2972 1270 67 500 160/09 RMK AO2 $
94908KDBQ DBQ20011123055013011/23/01 05:50:31  5-MIN KDBQ 231150Z 16010KT 10SM CLR 06/01 A2972 1260 67 500 160/10 RMK AO2 SLP069 T00610006 10078 20050 53006 $
94908KDBQ DBQ20011123055513011/23/01 05:55:31  5-MIN KDBQ 231155Z 16010KT 10SM CLR 06/01 A2972 1260 67 500 160/10 RMK AO2 SLP069 T00610006 10078 20050 51003 $
94908KDBQ DBQ20011123060009511/23/01 06:00:31  5-MIN KDBQ 231200Z 16009KT 10SM CLR 06/01 A2972 1260 67 500 160/09 RMK AO2 $
94908KDBQ DBQ20011123060509511/23/01 06:05:31  5-MIN KDBQ 231205Z 17010KT 10SM CLR 06/01 A2973 1260 67 500 160/10 RMK AO2 $
94908KDBQ DBQ20011123061009511/23/01 06:10:31  5-MIN KDBQ 231210Z 16010KT 10SM CLR 06/01 A2973 1260 70 500 160/10 RMK AO2 $
94908KDBQ DBQ20011123061509511/23/01 06:15:31  5-MIN KDBQ 231215Z 16010KT 10SM CLR 06/01 A2973 1260 70 500 160/10 RMK AO2 $
94908KDBQ DBQ20011123062009811/23/01 06:20:31  5-MIN KDBQ 231220Z 16009KT 10SM FEW042 06/01 A2973 1260 70 500 160/09 RMK AO2 $
94908KDBQ DBQ20011123062509811/23/01 06:25:31  5-MIN KDBQ 231225Z 16008KT 10SM SCT044 06/01 A2973 1260 67 500 160/08 RMK AO2 $
94908KDBQ DBQ20011123063009811/23/01 06:30:31  5-MIN KDBQ 231230Z 17007KT 10SM BKN044 06/01 A2973 1250 67 500 170/07 RMK AO2 $
94908KDBQ DBQ20011123063509811/23/01 06:35:31  5-MIN KDBQ 231235Z 17007KT 10SM BKN046 06/01 A2973 1260 70 500 160/07 RMK AO2 $
94908KDBQ DBQ20011123064009811/23/01 06:40:31  5-MIN KDBQ 231240Z 17008KT 10SM BKN046 06/01 A2973 1260 70 500 170/08 RMK AO2 $
94908KDBQ DBQ20011123064509811/23/01 06:45:31  5-MIN KDBQ 231245Z 17007KT 10SM OVC046 06/01 A2972 1260 70 500 170/07 RMK AO2 $
94908KDBQ DBQ20011123065011511/23/01 06:50:31  5-MIN KDBQ 231250Z 17007KT 10SM OVC046 06/01 A2972 1260 70 500 170/07 RMK AO2 SLP070 T00610011 $
94908KDBQ DBQ20011123065511511/23/01 06:55:31  5-MIN KDBQ 231255Z 16007KT 10SM OVC046 06/01 A2972 1260 70 500 160/07 RMK AO2 SLP070 T00610011 $
94908KDBQ DBQ20011123070009811/23/01 07:00:31  5-MIN KDBQ 231300Z 16009KT 10SM OVC046 06/01 A2972 1260 70 500 160/09 RMK AO2 $
94908KDBQ DBQ20011123070509811/23/01 07:05:31  5-MIN KDBQ 231305Z 16008KT 10SM OVC046 06/01 A2972 1260 70 500 160/08 RMK AO2 $
94908KDBQ DBQ20011123071009811/23/01 07:10:31  5-MIN KDBQ 231310Z 15008KT 10SM OVC046 06/01 A2972 1260 70 500 150/08 RMK AO2 $
94908KDBQ DBQ20011123071509811/23/01 07:15:31  5-MIN KDBQ 231315Z 15009KT 10SM OVC046 06/01 A2972 1260 70 500 150/09 RMK AO2 $
94908KDBQ DBQ20011123072009811/23/01 07:20:31  5-MIN KDBQ 231320Z 15009KT 10SM BKN046 06/01 A2972 1260 70 500 150/09 RMK AO2 $
94908KDBQ DBQ20011123072509811/23/01 07:25:31  5-MIN KDBQ 231325Z 14009KT 10SM BKN046 06/01 A2972 1270 70 500 140/09 RMK AO2 $
94908KDBQ DBQ20011123073009811/23/01 07:30:31  5-MIN KDBQ 231330Z 14008KT 10SM SCT046 06/01 A2972 1270 70 500 140/08 RMK AO2 $
94908KDBQ DBQ20011123073509811/23/01 07:35:31  5-MIN KDBQ 231335Z 14008KT 10SM SCT046 06/01 A2972 1270 70 500 140/08 RMK AO2 $
94908KDBQ DBQ20011123074009811/23/01 07:40:31  5-MIN KDBQ 231340Z 14008KT 10SM FEW046 06/01 A2971 1270 70 500 140/08 RMK AO2 $
94908KDBQ DBQ20011123074509811/23/01 07:45:31  5-MIN KDBQ 231345Z 14008KT 10SM FEW046 06/01 A2972 1270 70 500 140/08 RMK AO2 $
94908KDBQ DBQ20011123075011211/23/01 07:50:31  5-MIN KDBQ 231350Z 15007KT 10SM CLR 06/01 A2972 1260 70 500 140/07 RMK AO2 SLP070 T00610011 $
94908KDBQ DBQ20011123075511211/23/01 07:55:31  5-MIN KDBQ 231355Z 15007KT 10SM CLR 06/01 A2972 1260 70 500 150/07 RMK AO2 SLP071 T00610011 $
94908KDBQ DBQ20011123080009511/23/01 08:00:31  5-MIN KDBQ 231400Z 14010KT 10SM CLR 06/01 A2972 1260 70 500 140/10 RMK AO2 $
94908KDBQ DBQ20011123080509511/23/01 08:05:31  5-MIN KDBQ 231405Z 15009KT 10SM CLR 06/01 A2973 1260 70 500 150/09 RMK AO2 $
94908KDBQ DBQ20011123081009511/23/01 08:10:31  5-MIN KDBQ 231410Z 15008KT 10SM CLR 06/01 A2973 1250 70 500 150/08 RMK AO2 $
94908KDBQ DBQ20011123081509511/23/01 08:15:31  5-MIN KDBQ 231415Z 15007KT 10SM CLR 06/01 A2973 1250 70 500 150/07 RMK AO2 $
94908KDBQ DBQ20011123082009511/23/01 08:20:31  5-MIN KDBQ 231420Z 14007KT 10SM CLR 06/02 A2973 1250 73 500 140/07 RMK AO2 $
94908KDBQ DBQ20011123082509511/23/01 08:25:31  5-MIN KDBQ 231425Z 14008KT 10SM CLR 06/02 A2973 1250 73 500 140/08 RMK AO2 $
94908KDBQ DBQ20011123083009511/23/01 08:30:31  5-MIN KDBQ 231430Z 15008KT 10SM CLR 07/02 A2973 1250 70 600 150/08 RMK AO2 $
94908KDBQ DBQ20011123083509511/23/01 08:35:31  5-MIN KDBQ 231435Z 15007KT 10SM CLR 07/02 A2973 1250 70 600 150/07 RMK AO2 $
94908KDBQ DBQ20011123084009511/23/01 08:40:31  5-MIN KDBQ 231440Z 14007KT 10SM CLR 07/02 A2973 1250 70 600 140/07 RMK AO2 $
94908KDBQ DBQ20011123084509511/23/01 08:45:31  5-MIN KDBQ 231445Z 15010KT 10SM CLR 07/02 A2973 1260 68 700 150/10 RMK AO2 $
94908KDBQ DBQ20011123085011811/23/01 08:50:31  5-MIN KDBQ 231450Z 15009KT 10SM CLR 07/02 A2973 1260 68 700 150/09 RMK AO2 SLP072 T00720017 51003 $
94908KDBQ DBQ20011123085511811/23/01 08:55:31  5-MIN KDBQ 231455Z 15010KT 10SM CLR 07/02 A2973 1260 68 700 150/10 RMK AO2 SLP071 T00720017 53001 $
94908KDBQ DBQ20011123090009511/23/01 09:00:31  5-MIN KDBQ 231500Z 15011KT 10SM CLR 07/02 A2973 1260 70 700 150/11 RMK AO2 $
94908KDBQ DBQ20011123090509511/23/01 09:05:31  5-MIN KDBQ 231505Z 15012KT 10SM CLR 08/02 A2972 1260 68 700 150/12 RMK AO2 $
94908KDBQ DBQ20011123091009511/23/01 09:10:31  5-MIN KDBQ 231510Z 14011KT 10SM CLR 08/02 A2972 1260 68 700 140/11 RMK AO2 $
94908KDBQ DBQ20011123091509511/23/01 09:15:31  5-MIN KDBQ 231515Z 15013KT 10SM CLR 08/02 A2972 1260 68 700 140/13 RMK AO2 $
94908KDBQ DBQ20011123092009511/23/01 09:20:31  5-MIN KDBQ 231520Z 15012KT 10SM CLR 08/02 A2972 1260 68 700 140/12 RMK AO2 $
94908KDBQ DBQ20011123092509511/23/01 09:25:31  5-MIN KDBQ 231525Z 15012KT 10SM CLR 08/02 A2972 1260 65 800 150/12 RMK AO2 $
94908KDBQ DBQ20011123093009511/23/01 09:30:31  5-MIN KDBQ 231530Z 15012KT 10SM CLR 08/02 A2972 1260 65 800 150/12 RMK AO2 $
94908KDBQ DBQ20011123093509511/23/01 09:35:31  5-MIN KDBQ 231535Z 15012KT 10SM CLR 08/02 A2972 1260 65 800 150/12 RMK AO2 $
94908KDBQ DBQ20011123094009511/23/01 09:40:31  5-MIN KDBQ 231540Z 15010KT 10SM CLR 08/03 A2972 1260 68 800 150/10 RMK AO2 $
94908KDBQ DBQ20011123094509511/23/01 09:45:31  5-MIN KDBQ 231545Z 15009KT 10SM CLR 09/03 A2972 1260 65 900 150/09 RMK AO2 $
94908KDBQ DBQ20011123095011211/23/01 09:50:31  5-MIN KDBQ 231550Z 15011KT 10SM CLR 09/03 A2972 1260 65 900 140/11 RMK AO2 SLP070 T00890028 $
94908KDBQ DBQ20011123095511211/23/01 09:55:31  5-MIN KDBQ 231555Z 15011KT 10SM CLR 09/03 A2972 1260 65 900 140/11 RMK AO2 SLP070 T00890028 $
94908KDBQ DBQ20011123100009511/23/01 10:00:31  5-MIN KDBQ 231600Z 15011KT 10SM CLR 09/03 A2972 1260 63 900 150/11 RMK AO2 $
94908KDBQ DBQ20011123100509511/23/01 10:05:31  5-MIN KDBQ 231605Z 15012KT 10SM CLR 09/03 A2972 1260 63 900 150/12 RMK AO2 $
94908KDBQ DBQ20011123101009811/23/01 10:10:31  5-MIN KDBQ 231610Z 15011KT 10SM FEW026 09/03 A2973 1260 63 900 150/11 RMK AO2 $
94908KDBQ DBQ20011123101509811/23/01 10:15:31  5-MIN KDBQ 231615Z 15012KT 10SM SCT026 09/03 A2973 1260 63 900 150/12 RMK AO2 $
94908KDBQ DBQ20011123102009811/23/01 10:20:31  5-MIN KDBQ 231620Z 14009KT 10SM SCT026 09/03 A2972 1260 63 900 140/09 RMK AO2 $
94908KDBQ DBQ20011123102509811/23/01 10:25:31  5-MIN KDBQ 231625Z 14010KT 10SM BKN026 09/03 A2972 1270 63 900 140/10 RMK AO2 $
94908KDBQ DBQ20011123103009911/23/01 10:30:31  5-MIN KDBQ 231630Z 14008KT 10SM BKN026 10/03 A2972 1270 63 1000 140/08 RMK AO2 $
94908KDBQ DBQ20011123103509911/23/01 10:35:31  5-MIN KDBQ 231635Z 14010KT 10SM BKN026 11/03 A2972 1270 61 1100 140/10 RMK AO2 $
94908KDBQ DBQ20011123104009911/23/01 10:40:31  5-MIN KDBQ 231640Z 15011KT 10SM SCT026 10/03 A2972 1270 60 1000 140/11 RMK AO2 $
94908KDBQ DBQ20011123104509911/23/01 10:45:31  5-MIN KDBQ 231645Z 14011KT 10SM BKN026 11/03 A2972 1270 61 1100 140/11 RMK AO2 $
94908KDBQ DBQ20011123105011611/23/01 10:50:31  5-MIN KDBQ 231650Z 14011KT 10SM FEW026 11/03 A2972 1270 61 1100 140/11 RMK AO2 SLP067 T01060033 $
94908KDBQ DBQ20011123105511311/23/01 10:55:31  5-MIN KDBQ 231655Z 15012KT 10SM CLR 11/03 A2972 1270 61 1100 150/12 RMK AO2 SLP067 T01060033 $
94908KDBQ DBQ20011123110009911/23/01 11:00:31  5-MIN KDBQ 231700Z 14011KT 10SM FEW033 11/03 A2972 1270 61 1100 140/11 RMK AO2 $
94908KDBQ DBQ20011123110509911/23/01 11:05:31  5-MIN KDBQ 231705Z 14012KT 10SM SCT033 11/03 A2972 1260 61 1100 140/12 RMK AO2 $
94908KDBQ DBQ20011123111009911/23/01 11:10:31  5-MIN KDBQ 231710Z 15011KT 10SM BKN031 11/04 A2972 1270 63 1100 150/11 RMK AO2 $
94908KDBQ DBQ20011123111509911/23/01 11:15:31  5-MIN KDBQ 231715Z 14012KT 10SM BKN031 11/03 A2972 1270 61 1100 140/12 RMK AO2 $
94908KDBQ DBQ20011123112009911/23/01 11:20:31  5-MIN KDBQ 231720Z 14011KT 10SM BKN031 11/03 A2971 1270 61 1100 140/11 RMK AO2 $
94908KDBQ DBQ20011123112509911/23/01 11:25:31  5-MIN KDBQ 231725Z 14010KT 10SM OVC031 11/04 A2971 1280 63 1100 140/10 RMK AO2 $
94908KDBQ DBQ20011123113010611/23/01 11:30:31  5-MIN KDBQ 231730Z 14011KT 10SM BKN031 OVC040 11/04 A2970 1280 61 1200 140/11 RMK AO2 $
94908KDBQ DBQ20011123113510611/23/01 11:35:31  5-MIN KDBQ 231735Z 14010KT 10SM BKN031 BKN040 11/03 A2970 1290 58 1200 140/10 RMK AO2 $
94908KDBQ DBQ20011123114010611/23/01 11:40:31  5-MIN KDBQ 231740Z 14011KT 10SM SCT031 BKN040 12/04 A2970 1290 58 1200 140/11 RMK AO2 $
94908KDBQ DBQ20011123114510611/23/01 11:45:31  5-MIN KDBQ 231745Z 13008KT 10SM FEW033 SCT040 12/04 A2970 1290 58 1200 130/08 RMK AO2 $
94908KDBQ DBQ20011123115014111/23/01 11:50:31  5-MIN KDBQ 231750Z 14011KT 10SM FEW033 SCT040 12/04 A2970 1290 58 1200 140/11 RMK AO2 SLP060 T01170039 10117 20056 53001 $
94908KDBQ DBQ20011123115514111/23/01 11:55:31  5-MIN KDBQ 231755Z 13010KT 10SM SCT033 BKN040 12/04 A2969 1290 58 1200 130/10 RMK AO2 SLP060 T01170039 10117 20056 58010 $
94908KDBQ DBQ20011123120009911/23/01 12:00:31  5-MIN KDBQ 231800Z 12009KT 10SM BKN033 12/04 A2969 1290 58 1200 120/09 RMK AO2 $
94908KDBQ DBQ20011123120509911/23/01 12:05:31  5-MIN KDBQ 231805Z 14010KT 10SM BKN033 12/04 A2969 1290 56 1300 140/10 RMK AO2 $
94908KDBQ DBQ20011123121009911/23/01 12:10:31  5-MIN KDBQ 231810Z 12011KT 10SM BKN033 12/04 A2968 1300 59 1300 120/11 RMK AO2 $
94908KDBQ DBQ20011123121509911/23/01 12:15:31  5-MIN KDBQ 231815Z 13009KT 10SM OVC033 12/04 A2968 1300 56 1300 130/09 RMK AO2 $
94908KDBQ DBQ20011123122009911/23/01 12:20:31  5-MIN KDBQ 231820Z 12009KT 10SM BKN033 12/04 A2967 1310 56 1300 120/09 RMK AO2 $
94908KDBQ DBQ20011123122509911/23/01 12:25:31  5-MIN KDBQ 231825Z 13008KT 10SM BKN033 12/04 A2967 1310 56 1300 130/08 RMK AO2 $
94908KDBQ DBQ20011123123009911/23/01 12:30:31  5-MIN KDBQ 231830Z 13009KT 10SM SCT031 12/04 A2967 1310 56 1300 130/09 RMK AO2 $
94908KDBQ DBQ20011123123509911/23/01 12:35:31  5-MIN KDBQ 231835Z 11011KT 10SM SCT031 12/04 A2967 1310 56 1300 110/11 RMK AO2 $
94908KDBQ DBQ20011123124009911/23/01 12:40:31  5-MIN KDBQ 231840Z 11010KT 10SM BKN029 12/04 A2967 1310 56 1300 110/10 RMK AO2 $
94908KDBQ DBQ20011123124509911/23/01 12:45:31  5-MIN KDBQ 231845Z 11009KT 10SM BKN029 12/04 A2966 1320 56 1300 100/09 RMK AO2 $
94908KDBQ DBQ20011123125011611/23/01 12:50:31  5-MIN KDBQ 231850Z 11011KT 10SM SCT027 12/04 A2966 1320 56 1300 110/11 RMK AO2 SLP046 T01220039 $
94908KDBQ DBQ20011123125511611/23/01 12:55:31  5-MIN KDBQ 231855Z 10011KT 10SM SCT027 12/04 A2966 1320 59 1300 100/11 RMK AO2 SLP046 T01220044 $
94908KDBQ DBQ20011123130010611/23/01 13:00:31  5-MIN KDBQ 231900Z 12008KT 10SM FEW022 SCT027 12/04 A2966 1320 59 1300 110/08 RMK AO2 $
94908KDBQ DBQ20011123130509911/23/01 13:05:31  5-MIN KDBQ 231905Z 11010KT 10SM SCT027 12/04 A2965 1330 59 1300 110/10 RMK AO2 $
94908KDBQ DBQ20011123131009911/23/01 13:10:31  5-MIN KDBQ 231910Z 12012KT 10SM FEW027 12/04 A2965 1330 59 1300 120/12 RMK AO2 $
94908KDBQ DBQ20011123131509611/23/01 13:15:31  5-MIN KDBQ 231915Z 12010KT 10SM CLR 12/04 A2965 1330 56 1300 120/10 RMK AO2 $
94908KDBQ DBQ20011123132009911/23/01 13:20:31  5-MIN KDBQ 231920Z 12011KT 10SM FEW024 13/04 A2965 1330 54 1400 120/11 RMK AO2 $
94908KDBQ DBQ20011123132510611/23/01 13:25:31  5-MIN KDBQ 231925Z 11009KT 10SM FEW026 SCT070 13/04 A2965 1330 56 1400 110/09 RMK AO2 $
94908KDBQ DBQ20011123133010611/23/01 13:30:31  5-MIN KDBQ 231930Z 12012KT 10SM FEW026 BKN075 13/04 A2964 1330 56 1400 110/12 RMK AO2 $
94908KDBQ DBQ20011123133511311/23/01 13:35:31  5-MIN KDBQ 231935Z 12014KT 10SM SCT026 SCT043 BKN075 13/04 A2965 1330 56 1400 120/14 RMK AO2 $
94908KDBQ DBQ20011123134011311/23/01 13:40:31  5-MIN KDBQ 231940Z 12013KT 10SM BKN024 BKN043 BKN075 12/04 A2964 1330 56 1400 120/13 RMK AO2 $
94908KDBQ DBQ20011123134511311/23/01 13:45:31  5-MIN KDBQ 231945Z 12012KT 10SM BKN024 BKN045 OVC075 12/04 A2964 1340 56 1400 120/12 RMK AO2 $
94908KDBQ DBQ20011123135013011/23/01 13:50:31  5-MIN KDBQ 231950Z 11014KT 10SM BKN024 BKN047 OVC075 12/04 A2964 1340 56 1400 110/14 RMK AO2 SLP041 T01220039 $
94908KDBQ DBQ20011123135513011/23/01 13:55:31  5-MIN KDBQ 231955Z 12010KT 10SM BKN024 BKN047 BKN075 12/04 A2964 1340 56 1400 120/10 RMK AO2 SLP040 T01220039 $
94908KDBQ DBQ20011123140010611/23/01 14:00:31  5-MIN KDBQ 232000Z 11013KT 10SM SCT024 SCT047 13/04 A2964 1340 56 1400 110/13 RMK AO2 $
94908KDBQ DBQ20011123140510611/23/01 14:05:31  5-MIN KDBQ 232005Z 12011KT 10SM SCT024 SCT047 13/04 A2963 1340 56 1400 120/11 RMK AO2 $
94908KDBQ DBQ20011123141009911/23/01 14:10:31  5-MIN KDBQ 232010Z 12014KT 10SM FEW024 13/04 A2963 1350 56 1400 120/14 RMK AO2 $
94908KDBQ DBQ20011123141509611/23/01 14:15:31  5-MIN KDBQ 232015Z 12014KT 10SM CLR 13/04 A2963 1350 54 1500 120/14 RMK AO2 $
94908KDBQ DBQ20011123142009911/23/01 14:20:31  5-MIN KDBQ 232020Z 12012KT 10SM FEW021 13/05 A2963 1350 57 1500 120/12 RMK AO2 $
94908KDBQ DBQ20011123142510611/23/01 14:25:31  5-MIN KDBQ 232025Z 12011KT 10SM FEW021 SCT090 13/05 A2963 1350 57 1500 120/11 RMK AO2 $
94908KDBQ DBQ20011123143011211/23/01 14:30:31  5-MIN KDBQ 232030Z 12015G19KT 10SM FEW021 SCT090 13/05 A2963 1350 57 1500 120/15G19 RMK AO2 $
94908KDBQ DBQ20011123143511711/23/01 14:35:31  5-MIN KDBQ 232035Z AUTO 12012G19KT 10SM FEW021 BKN090 13/05 A2963 1350 57 1500 120/12G19 RMK AO2 $
94908KDBQ DBQ20011123144011211/23/01 14:40:31  5-MIN KDBQ 232040Z 12017G20KT 10SM FEW021 BKN095 13/06 A2963 1350 59 1500 110/17G20 RMK AO2 $
94908KDBQ DBQ20011123144511211/23/01 14:45:31  5-MIN KDBQ 232045Z 12013G20KT 10SM FEW021 BKN095 13/06 A2963 1350 59 1500 120/13G20 RMK AO2 $
94908KDBQ DBQ20011123145012811/23/01 14:50:31  5-MIN KDBQ 232050Z 12013G21KT 10SM SCT095 13/06 A2963 1350 59 1500 120/13G21 RMK AO2 SLP035 T01330056 58010 $
94908KDBQ DBQ20011123145513511/23/01 14:55:31  5-MIN KDBQ 232055Z 12015G21KT 10SM FEW039 SCT095 13/06 A2963 1340 59 1500 120/15G21 RMK AO2 SLP037 T01330056 56020 $
94908KDBQ DBQ20011123150010611/23/01 15:00:31  5-MIN KDBQ 232100Z 13013KT 10SM SCT039 BKN095 13/06 A2964 1340 59 1500 130/13 RMK AO2 $
94908KDBQ DBQ20011123150511311/23/01 15:05:31  5-MIN KDBQ 232105Z 13011KT 10SM SCT041 SCT050 BKN095 13/06 A2964 1340 59 1500 130/11 RMK AO2 $
94908KDBQ DBQ20011123151010611/23/01 15:10:31  5-MIN KDBQ 232110Z 12012KT 10SM SCT043 BKN100 13/06 A2963 1350 61 1400 120/12 RMK AO2 $
94908KDBQ DBQ20011123151511911/23/01 15:15:31  5-MIN KDBQ 232115Z 12016G20KT 10SM FEW026 BKN043 BKN100 13/06 A2964 1340 59 1500 120/16G20 RMK AO2 $
94908KDBQ DBQ20011123152011211/23/01 15:20:31  5-MIN KDBQ 232120Z 12012G20KT 10SM SCT026 BKN043 13/06 A2964 1340 59 1500 120/12G20 RMK AO2 $
94908KDBQ DBQ20011123152510611/23/01 15:25:31  5-MIN KDBQ 232125Z 12014KT 10SM BKN026 OVC043 13/06 A2963 1340 59 1500 120/14 RMK AO2 $
94908KDBQ DBQ20011123153010611/23/01 15:30:31  5-MIN KDBQ 232130Z 12012KT 10SM BKN026 OVC045 13/06 A2963 1340 61 1500 120/12 RMK AO2 $
94908KDBQ DBQ20011123153510611/23/01 15:35:31  5-MIN KDBQ 232135Z 12013KT 10SM BKN026 OVC043 13/06 A2963 1340 61 1500 120/13 RMK AO2 $
94908KDBQ DBQ20011123154009911/23/01 15:40:31  5-MIN KDBQ 232140Z 12013KT 10SM BKN026 13/06 A2963 1350 61 1500 120/13 RMK AO2 $
94908KDBQ DBQ20011123154510511/23/01 15:45:31  5-MIN KDBQ 232145Z 13014G19KT 10SM BKN026 13/06 A2963 1350 61 1500 120/14G19 RMK AO2 $
94908KDBQ DBQ20011123155011611/23/01 15:50:31  5-MIN KDBQ 232150Z 12013KT 10SM BKN026 13/06 A2963 1350 61 1500 120/13 RMK AO2 SLP036 T01330061 $
94908KDBQ DBQ20011123155511611/23/01 15:55:31  5-MIN KDBQ 232155Z 12013KT 10SM BKN026 13/06 A2963 1350 61 1500 120/13 RMK AO2 SLP036 T01330061 $
94908KDBQ DBQ20011123160009911/23/01 16:00:31  5-MIN KDBQ 232200Z 13013KT 10SM BKN026 13/06 A2963 1350 63 1400 120/13 RMK AO2 $
94908KDBQ DBQ20011123160509911/23/01 16:05:31  5-MIN KDBQ 232205Z 12013KT 10SM BKN026 13/07 A2963 1340 66 1400 120/13 RMK AO2 $
94908KDBQ DBQ20011123161009911/23/01 16:10:31  5-MIN KDBQ 232210Z 13013KT 10SM BKN026 13/07 A2963 1340 66 1400 130/13 RMK AO2 $
94908KDBQ DBQ20011123161510511/23/01 16:15:31  5-MIN KDBQ 232215Z 13013G19KT 10SM BKN026 13/07 A2963 1350 66 1400 130/13G19 RMK AO2 $
94908KDBQ DBQ20011123162010511/23/01 16:20:31  5-MIN KDBQ 232220Z 13012G19KT 10SM BKN026 13/07 A2963 1350 66 1400 130/12G19 RMK AO2 $
94908KDBQ DBQ20011123162509911/23/01 16:25:31  5-MIN KDBQ 232225Z 13013KT 10SM SCT026 13/07 A2963 1350 69 1400 130/13 RMK AO2 $
94908KDBQ DBQ20011123163011311/23/01 16:30:31  5-MIN KDBQ 232230Z 13015KT 10SM FEW026 SCT030 SCT041 13/07 A2963 1340 69 1400 130/15 RMK AO2 $
94908KDBQ DBQ20011123163510611/23/01 16:35:31  5-MIN KDBQ 232235Z 13012KT 10SM SCT028 BKN041 13/08 A2963 1350 71 1400 130/12 RMK AO2 $
94908KDBQ DBQ20011123164010611/23/01 16:40:31  5-MIN KDBQ 232240Z 14013KT 10SM BKN028 BKN041 13/08 A2963 1350 71 1400 130/13 RMK AO2 $
94908KDBQ DBQ20011123164510611/23/01 16:45:31  5-MIN KDBQ 232245Z 13010KT 10SM BKN028 BKN041 12/08 A2963 1350 74 1400 130/10 RMK AO2 $
94908KDBQ DBQ20011123165012311/23/01 16:50:31  5-MIN KDBQ 232250Z 13013KT 10SM BKN028 BKN041 12/08 A2963 1350 74 1400 130/13 RMK AO2 SLP036 T01220078 $
94908KDBQ DBQ20011123165512311/23/01 16:55:31  5-MIN KDBQ 232255Z 13012KT 10SM BKN028 BKN041 12/08 A2963 1350 77 1400 130/12 RMK AO2 SLP037 T01220083 $
94908KDBQ DBQ20011123170009911/23/01 17:00:31  5-MIN KDBQ 232300Z 13013KT 10SM BKN028 12/08 A2964 1340 77 1400 130/13 RMK AO2 $
94908KDBQ DBQ20011123170509911/23/01 17:05:31  5-MIN KDBQ 232305Z 13011KT 10SM OVC028 12/08 A2964 1340 77 1400 130/11 RMK AO2 $
94908KDBQ DBQ20011123171009911/23/01 17:10:31  5-MIN KDBQ 232310Z 13014KT 10SM OVC028 12/08 A2964 1340 77 1400 130/14 RMK AO2 $
94908KDBQ DBQ20011123171509911/23/01 17:15:31  5-MIN KDBQ 232315Z 13011KT 10SM OVC028 12/08 A2964 1340 77 1400 130/11 RMK AO2 $
94908KDBQ DBQ20011123172009911/23/01 17:20:31  5-MIN KDBQ 232320Z 12012KT 10SM OVC028 12/08 A2964 1340 77 1400 120/12 RMK AO2 $
94908KDBQ DBQ20011123172509911/23/01 17:25:31  5-MIN KDBQ 232325Z 13014KT 10SM OVC028 12/08 A2964 1340 77 1400 120/14 RMK AO2 $
94908KDBQ DBQ20011123173009911/23/01 17:30:31  5-MIN KDBQ 232330Z 13014KT 10SM OVC026 12/08 A2964 1340 77 1400 120/14 RMK AO2 $
94908KDBQ DBQ20011123173509911/23/01 17:35:31  5-MIN KDBQ 232335Z 12012KT 10SM OVC026 12/08 A2965 1330 77 1400 120/12 RMK AO2 $
94908KDBQ DBQ20011123174009911/23/01 17:40:31  5-MIN KDBQ 232340Z 12014KT 10SM OVC026 12/08 A2965 1330 77 1400 120/14 RMK AO2 $
94908KDBQ DBQ20011123174509911/23/01 17:45:31  5-MIN KDBQ 232345Z 13015KT 10SM OVC026 12/08 A2965 1330 77 1400 120/15 RMK AO2 $
94908KDBQ DBQ20011123175013411/23/01 17:50:31  5-MIN KDBQ 232350Z 12012KT 10SM OVC026 12/08 A2965 1330 77 1400 120/12 RMK AO2 SLP042 T01220083 10133 20117 56020 $
94908KDBQ DBQ20011123175513411/23/01 17:55:31  5-MIN KDBQ 232355Z 12012KT 10SM OVC026 12/08 A2964 1330 80 1300 120/12 RMK AO2 SLP042 T01170083 10133 20117 53003 $
94908KDBQ DBQ20011123180009911/23/01 18:00:31  5-MIN KDBQ 240000Z 12012KT 10SM OVC026 12/08 A2964 1340 80 1300 120/12 RMK AO2 $
94908KDBQ DBQ20011123180509911/23/01 18:05:31  5-MIN KDBQ 240005Z 12014KT 10SM OVC026 12/08 A2964 1340 77 1400 120/14 RMK AO2 $
94908KDBQ DBQ20011123181009911/23/01 18:10:31  5-MIN KDBQ 240010Z 12014KT 10SM OVC026 12/08 A2964 1340 80 1300 110/14 RMK AO2 $
94908KDBQ DBQ20011123181511211/23/01 18:15:31  5-MIN KDBQ 240015Z 12011G20KT 10SM BKN026 OVC040 12/08 A2964 1340 77 1400 120/11G20 RMK AO2 $
94908KDBQ DBQ20011123182011211/23/01 18:20:31  5-MIN KDBQ 240020Z 12013G20KT 10SM BKN026 OVC040 12/08 A2964 1340 80 1300 120/13G20 RMK AO2 $
94908KDBQ DBQ20011123182511211/23/01 18:25:31  5-MIN KDBQ 240025Z 12014G18KT 10SM SCT026 OVC042 12/08 A2963 1350 80 1300 120/14G18 RMK AO2 $
94908KDBQ DBQ20011123183010611/23/01 18:30:31  5-MIN KDBQ 240030Z 12012KT 10SM SCT026 BKN042 12/08 A2963 1350 80 1300 120/12 RMK AO2 $
94908KDBQ DBQ20011123183510611/23/01 18:35:31  5-MIN KDBQ 240035Z 12014KT 10SM SCT028 BKN042 12/08 A2963 1340 80 1300 120/14 RMK AO2 $
94908KDBQ DBQ20011123184010611/23/01 18:40:31  5-MIN KDBQ 240040Z 13014KT 10SM FEW028 BKN043 12/08 A2963 1350 80 1300 130/14 RMK AO2 $
94908KDBQ DBQ20011123184511911/23/01 18:45:31  5-MIN KDBQ 240045Z 13013G19KT 10SM FEW030 SCT039 BKN047 12/08 A2963 1350 80 1300 130/13G19 RMK AO2 $
94908KDBQ DBQ20011123185013611/23/01 18:50:31  5-MIN KDBQ 240050Z 12015G19KT 10SM SCT035 BKN045 BKN090 12/08 A2963 1350 80 1300 120/15G19 RMK AO2 SLP037 T01170083 $
94908KDBQ DBQ20011123185513011/23/01 18:55:31  5-MIN KDBQ 240055Z 12015KT 10SM SCT035 SCT047 BKN075 12/08 A2962 1360 80 1300 120/15 RMK AO2 SLP035 T01170083 $
94908KDBQ DBQ20011123190011311/23/01 19:00:31  5-MIN KDBQ 240100Z 12015KT 10SM FEW035 BKN075 OVC100 12/08 A2962 1360 80 1300 120/15 RMK AO2 $
94908KDBQ DBQ20011123190511311/23/01 19:05:31  5-MIN KDBQ 240105Z 13014KT 10SM FEW037 BKN085 OVC100 12/08 A2962 1360 80 1300 120/14 RMK AO2 $
94908KDBQ DBQ20011123191010611/23/01 19:10:31  5-MIN KDBQ 240110Z 12015KT 10SM FEW037 BKN090 12/08 A2962 1360 80 1300 120/15 RMK AO2 $
94908KDBQ DBQ20011123191510611/23/01 19:15:31  5-MIN KDBQ 240115Z 13016KT 10SM FEW080 BKN100 12/08 A2962 1360 80 1300 120/16 RMK AO2 $
94908KDBQ DBQ20011123192011311/23/01 19:20:31  5-MIN KDBQ 240120Z 13017KT 10SM FEW080 BKN100 BKN110 12/08 A2962 1360 80 1300 120/17 RMK AO2 $
94908KDBQ DBQ20011123192510611/23/01 19:25:31  5-MIN KDBQ 240125Z 13015KT 10SM BKN095 BKN110 12/08 A2962 1360 80 1300 130/15 RMK AO2 $
94908KDBQ DBQ20011123193011511/23/01 19:30:31  5-MIN KDBQ 240130Z 13015KT 10SM -RA BKN095 12/08 A2962 1360 80 1300 120/15 RMK AO2 RAB28 P0000 $
94908KDBQ DBQ20011123193512111/23/01 19:35:31  5-MIN KDBQ 240135Z 13015G21KT 10SM -RA BKN100 12/08 A2962 1360 80 1300 130/15G21 RMK AO2 RAB28 P0000 $
94908KDBQ DBQ20011123194012011/23/01 19:40:31  5-MIN KDBQ 240140Z 13015G21KT 10SM OVC095 12/08 A2962 1360 80 1300 130/15G21 RMK AO2 RAB28E37 P0000 $
94908KDBQ DBQ20011123194512111/23/01 19:45:31  5-MIN KDBQ 240145Z 14014KT 10SM FEW028 OVC095 12/08 A2963 1350 80 1300 140/14 RMK AO2 RAB28E37 P0000 $
94908KDBQ DBQ20011123195015511/23/01 19:50:31  5-MIN KDBQ 240150Z AUTO 14014KT 10SM BKN028 OVC095 12/08 A2964 1340 80 1300 140/14 RMK AO2 RAB28E37 PRESRR SLP040 P0000 T01170083 TSNO $
94908KDBQ DBQ20011123195515411/23/01 19:55:31  5-MIN KDBQ 240155Z AUTO 14015G20KT 9SM -RA BKN028 OVC095 12/08 A2963 1350 80 1300 140/15G20 RMK AO2 RAB28 SLP038 P0000 T01170083 TSNO $
94908KDBQ DBQ20011123200013811/23/01 20:00:31  5-MIN KDBQ 240200Z AUTO 14015G21KT 7SM -RA BKN028 BKN039 OVC095 12/08 A2964 1340 80 1300 140/15G21 RMK AO2 P0000 TSNO $
94908KDBQ DBQ20011123200514111/23/01 20:05:31  5-MIN KDBQ 240205Z AUTO 14014G21KT 6SM -RA BR BKN028 BKN039 OVC095 11/09 A2963 1350 86 1200 140/14G21 RMK AO2 P0000 TSNO $
94908KDBQ DBQ20011123201012511/23/01 20:10:31  5-MIN KDBQ 240210Z AUTO 14014KT 7SM -RA BKN028 OVC047 11/09 A2963 1350 86 1200 140/14 RMK AO2 P0000 TSNO $
94908KDBQ DBQ20011123201513211/23/01 20:15:31  5-MIN KDBQ 240215Z AUTO 14017KT 7SM -RA SCT028 SCT041 OVC050 11/09 A2962 1350 86 1200 140/17 RMK AO2 P0000 TSNO $
94908KDBQ DBQ20011123202013211/23/01 20:20:31  5-MIN KDBQ 240220Z AUTO 14017KT 7SM -RA FEW028 SCT044 OVC055 11/09 A2962 1350 86 1200 140/17 RMK AO2 P0000 TSNO $
94908KDBQ DBQ20011123202513811/23/01 20:25:31  5-MIN KDBQ 240225Z AUTO 14016G21KT 8SM -RA FEW028 BKN050 OVC080 11/09 A2962 1350 86 1200 140/16G21 RMK AO2 P0000 TSNO $
94908KDBQ DBQ20011123203013211/23/01 20:30:31  5-MIN KDBQ 240230Z AUTO 14016KT 7SM -RA FEW028 BKN050 OVC080 11/09 A2962 1350 86 1200 140/16 RMK AO2 P0000 TSNO $
94908KDBQ DBQ20011123203513511/23/01 20:35:31  5-MIN KDBQ 240235Z AUTO 14017KT 6SM -RA BR SCT030 BKN050 OVC080 11/09 A2962 1360 89 1200 140/17 RMK AO2 P0001 TSNO $
94908KDBQ DBQ20011123204013511/23/01 20:40:31  5-MIN KDBQ 240240Z AUTO 14014KT 6SM -RA BR FEW030 BKN055 OVC080 11/09 A2962 1360 89 1200 140/14 RMK AO2 P0001 TSNO $
94908KDBQ DBQ20011123204513211/23/01 20:45:31  5-MIN KDBQ 240245Z AUTO 14013KT 7SM -RA FEW032 BKN070 OVC085 11/09 A2962 1360 89 1200 140/13 RMK AO2 P0001 TSNO $
94908KDBQ DBQ20011123205016411/23/01 20:50:31  5-MIN KDBQ 240250Z AUTO 14014KT 6SM -RA BR FEW029 BKN065 OVC085 11/09 A2962 1360 89 1200 130/14 RMK AO2 SLP033 P0001 60001 T01060089 53003 TSNO $
94908KDBQ DBQ20011123205516411/23/01 20:55:31  5-MIN KDBQ 240255Z AUTO 14014KT 5SM -RA BR FEW029 BKN060 OVC080 11/09 A2962 1360 89 1200 140/14 RMK AO2 SLP033 P0001 60001 T01060089 56008 TSNO $
94908KDBQ DBQ20011123210013511/23/01 21:00:31  5-MIN KDBQ 240300Z AUTO 14014KT 5SM -RA BR FEW034 BKN060 OVC080 11/09 A2962 1360 93 1200 130/14 RMK AO2 P0001 TSNO $
94908KDBQ DBQ20011123210512811/23/01 21:05:31  5-MIN KDBQ 240305Z AUTO 14014KT 5SM -RA BR BKN060 OVC080 11/09 A2962 1360 93 1200 130/14 RMK AO2 P0001 TSNO $
94908KDBQ DBQ20011123211013511/23/01 21:10:31  5-MIN KDBQ 240310Z AUTO 14014KT 5SM -RA BR FEW030 BKN060 OVC080 11/09 A2962 1360 93 1200 140/14 RMK AO2 P0001 TSNO $
94908KDBQ DBQ20011123211513511/23/01 21:15:31  5-MIN KDBQ 240315Z AUTO 14014KT 5SM -RA BR SCT033 BKN055 OVC075 11/09 A2961 1360 93 1200 130/14 RMK AO2 P0002 TSNO $
94908KDBQ DBQ20011123212013511/23/01 21:20:31  5-MIN KDBQ 240320Z AUTO 14013KT 5SM -RA BR SCT033 BKN050 OVC075 11/09 A2961 1360 93 1200 130/13 RMK AO2 P0002 TSNO $
94908KDBQ DBQ20011123212513511/23/01 21:25:31  5-MIN KDBQ 240325Z AUTO 13013KT 5SM -RA BR SCT031 BKN055 OVC080 11/09 A2961 1360 93 1200 130/13 RMK AO2 P0002 TSNO $
94908KDBQ DBQ20011123213013511/23/01 21:30:31  5-MIN KDBQ 240330Z AUTO 13012KT 4SM -RA BR FEW031 BKN060 OVC075 11/09 A2961 1370 93 1200 130/12 RMK AO2 P0002 TSNO $
94908KDBQ DBQ20011123213513511/23/01 21:35:31  5-MIN KDBQ 240335Z AUTO 13013KT 4SM -RA BR FEW031 BKN060 OVC075 11/09 A2961 1370 93 1200 130/13 RMK AO2 P0003 TSNO $
94908KDBQ DBQ20011123214013511/23/01 21:40:31  5-MIN KDBQ 240340Z AUTO 13014KT 5SM -RA BR SCT031 BKN060 OVC075 11/09 A2961 1370 93 1200 130/14 RMK AO2 P0003 TSNO $
94908KDBQ DBQ20011123214513511/23/01 21:45:31  5-MIN KDBQ 240345Z AUTO 13015KT 5SM -RA BR FEW030 BKN035 OVC075 11/09 A2961 1370 93 1200 130/15 RMK AO2 P0003 TSNO $
94908KDBQ DBQ20011123215015211/23/01 21:50:31  5-MIN KDBQ 240350Z AUTO 13014KT 5SM -RA BR SCT029 BKN036 OVC070 11/09 A2960 1370 93 1200 130/14 RMK AO2 SLP027 P0003 T01060094 TSNO $
94908KDBQ DBQ20011123215515811/23/01 21:55:31  5-MIN KDBQ 240355Z AUTO 13015G19KT 5SM -RA BR BKN031 BKN042 OVC075 11/09 A2960 1370 93 1200 130/15G19 RMK AO2 SLP027 P0003 T01060094 TSNO $
94908KDBQ DBQ20011123220014111/23/01 22:00:31  5-MIN KDBQ 240400Z AUTO 12014G19KT 4SM -RA BR FEW025 BKN035 OVC080 11/09 A2960 1380 93 1200 120/14G19 RMK AO2 P0000 TSNO $
94908KDBQ DBQ20011123220513511/23/01 22:05:31  5-MIN KDBQ 240405Z AUTO 12014KT 5SM -RA BR FEW025 BKN035 OVC090 11/09 A2959 1380 93 1200 120/14 RMK AO2 P0000 TSNO $
94908KDBQ DBQ20011123221013711/23/01 22:10:31  5-MIN KDBQ 240410Z AUTO 13014KT 5SM BR FEW025 BKN035 OVC090 11/09 A2959 1380 93 1200 130/14 RMK AO2 RAE09 P0000 TSNO $
94908KDBQ DBQ20011123221513511/23/01 22:15:31  5-MIN KDBQ 240415Z AUTO 12014KT 4SM -RA BR SCT031 BKN085 OVC110 11/09 A2959 1380 93 1200 120/14 RMK AO2 P0000 TSNO $
94908KDBQ DBQ20011123222013511/23/01 22:20:31  5-MIN KDBQ 240420Z AUTO 13014KT 4SM -RA BR SCT027 BKN055 OVC090 11/09 A2959 1390 93 1200 130/14 RMK AO2 P0000 TSNO $
94908KDBQ DBQ20011123222513511/23/01 22:25:31  5-MIN KDBQ 240425Z AUTO 12014KT 4SM -RA BR FEW021 BKN060 OVC080 11/09 A2959 1390 93 1200 120/14 RMK AO2 P0000 TSNO $
94908KDBQ DBQ20011123223014111/23/01 22:30:31  5-MIN KDBQ 240430Z AUTO 13015G21KT 4SM -RA BR FEW021 BKN065 OVC100 11/09 A2959 1390 93 1200 130/15G21 RMK AO2 P0001 TSNO $
94908KDBQ DBQ20011123223514111/23/01 22:35:31  5-MIN KDBQ 240435Z AUTO 13015G21KT 4SM -RA BR SCT046 BKN065 OVC080 11/09 A2958 1390 93 1200 120/15G21 RMK AO2 P0001 TSNO $
94908KDBQ DBQ20011123224013511/23/01 22:40:31  5-MIN KDBQ 240440Z AUTO 13015KT 4SM -RA BR FEW017 BKN046 OVC080 11/10 A2958 1390 96 1200 130/15 RMK AO2 P0001 TSNO $
94908KDBQ DBQ20011123224514111/23/01 22:45:31  5-MIN KDBQ 240445Z AUTO 13016G21KT 5SM -RA BR SCT017 BKN036 OVC065 11/10 A2958 1400 93 1300 130/16G21 RMK AO2 P0001 TSNO $
94908KDBQ DBQ20011123225016011/23/01 22:50:31  5-MIN KDBQ 240450Z AUTO 13015G21KT 5SM BR SCT019 BKN037 OVC070 11/10 A2958 1400 93 1300 130/15G21 RMK AO2 RAE46 SLP018 P0001 T01110100 TSNO $
94908KDBQ DBQ20011123225515211/23/01 22:55:31  5-MIN KDBQ 240455Z AUTO 13014KT 4SM -RA BR BKN019 BKN035 OVC070 11/10 A2958 1400 93 1300 130/14 RMK AO2 SLP017 P0001 T01110100 TSNO $
94908KDBQ DBQ20011123230014111/23/01 23:00:31  5-MIN KDBQ 240500Z AUTO 13016G20KT 4SM -RA BR BKN019 BKN035 OVC043 11/10 A2958 1400 93 1300 130/16G20 RMK AO2 P0000 TSNO $
94908KDBQ DBQ20011123230512811/23/01 23:05:31  5-MIN KDBQ 240505Z AUTO 13015KT 5SM -RA BR BKN019 OVC035 11/10 A2957 1400 93 1300 130/15 RMK AO2 P0000 TSNO $
94908KDBQ DBQ20011123231013011/23/01 23:10:31  5-MIN KDBQ 240510Z AUTO 13015KT 4SM BR BKN019 OVC037 11/10 A2957 1400 93 1300 120/15 RMK AO2 RAE06 P0000 TSNO $
94908KDBQ DBQ20011123231513711/23/01 23:15:31  5-MIN KDBQ 240515Z AUTO 13016KT 4SM BR FEW014 BKN019 OVC035 11/10 A2957 1400 93 1300 130/16 RMK AO2 RAE06 P0000 TSNO $
94908KDBQ DBQ20011123232013011/23/01 23:20:31  5-MIN KDBQ 240520Z AUTO 13014KT 4SM BR BKN019 OVC035 11/10 A2957 1410 93 1300 130/14 RMK AO2 RAE06 P0000 TSNO $
94908KDBQ DBQ20011123232513011/23/01 23:25:31  5-MIN KDBQ 240525Z AUTO 13014KT 4SM BR BKN019 OVC035 11/10 A2956 1410 93 1300 130/14 RMK AO2 RAE06 P0000 TSNO $
94908KDBQ DBQ20011123233013011/23/01 23:30:31  5-MIN KDBQ 240530Z AUTO 13016KT 4SM BR BKN019 OVC035 11/10 A2956 1410 93 1300 120/16 RMK AO2 RAE06 P0000 TSNO $
94908KDBQ DBQ20011123233512311/23/01 23:35:31  5-MIN KDBQ 240535Z AUTO 13015KT 4SM BR OVC017 11/10 A2956 1410 93 1300 130/15 RMK AO2 RAE06 P0000 TSNO $
94908KDBQ DBQ20011123234012311/23/01 23:40:31  5-MIN KDBQ 240540Z AUTO 13014KT 4SM BR OVC017 11/10 A2956 1410 93 1300 130/14 RMK AO2 RAE06 P0000 TSNO $
94908KDBQ DBQ20011123234512311/23/01 23:45:31  5-MIN KDBQ 240545Z AUTO 13015KT 4SM BR OVC017 11/11 A2956 1410 96 1300 130/15 RMK AO2 RAE06 P0000 TSNO $
94908KDBQ DBQ20011123235020511/23/01 23:50:31  5-MIN KDBQ 240550Z AUTO 14018G26KT 4SM BR BKN013 OVC017 12/11 A2956 1410 93 1400 140/18G26 RMK AO2 PK WND 15026/0550 RAE06 SLP011 P0000 60005 T01170106 10122 20106 401330050 56008 TSNO $
94908KDBQ DBQ20011123235521211/23/01 23:55:31  5-MIN KDBQ 240555Z AUTO 14016G26KT 4SM BR SCT010 BKN013 OVC019 12/11 A2956 1410 93 1400 140/16G26 RMK AO2 PK WND 15026/0550 RAE06 SLP011 P0000 60005 T01170106 10122 20106 401330050 56019 TSNO $
94908KDBQ DBQ20011124000011711/24/01 00:00:31  5-MIN KDBQ 240600Z AUTO 14017G22KT 4SM BR OVC012 12/11 A2956 1410 93 1400 140/17G22 RMK AO2 TSNO $
94908KDBQ DBQ20011124000511711/24/01 00:05:31  5-MIN KDBQ 240605Z AUTO 14015G22KT 4SM BR OVC012 12/11 A2956 1410 93 1400 140/15G22 RMK AO2 TSNO $
94908KDBQ DBQ20011124001011111/24/01 00:10:31  5-MIN KDBQ 240610Z AUTO 14016KT 5SM BR OVC012 12/11 A2956 1420 89 1500 140/16 RMK AO2 TSNO $
94908KDBQ DBQ20011124001511811/24/01 00:15:31  5-MIN KDBQ 240615Z AUTO 14016KT 5SM BR BKN010 OVC090 12/11 A2955 1420 89 1500 140/16 RMK AO2 TSNO $
94908KDBQ DBQ20011124002012511/24/01 00:20:31  5-MIN KDBQ 240620Z AUTO 14014KT 4SM BR FEW008 BKN012 OVC090 12/11 A2955 1420 93 1400 140/14 RMK AO2 TSNO $
94908KDBQ DBQ20011124002511811/24/01 00:25:31  5-MIN KDBQ 240625Z AUTO 14014KT 4SM BR BKN012 OVC090 12/11 A2955 1420 96 1400 130/14 RMK AO2 TSNO $
94908KDBQ DBQ20011124003011811/24/01 00:30:31  5-MIN KDBQ 240630Z AUTO 14015KT 4SM BR BKN012 OVC090 12/11 A2955 1430 93 1500 140/15 RMK AO2 TSNO $
94908KDBQ DBQ20011124003511111/24/01 00:35:31  5-MIN KDBQ 240635Z AUTO 13015KT 4SM BR OVC010 12/11 A2953 1440 93 1500 130/15 RMK AO2 TSNO $
94908KDBQ DBQ20011124004012411/24/01 00:40:31  5-MIN KDBQ 240640Z AUTO 14018G22KT 4SM BR BKN010 OVC090 12/11 A2953 1440 93 1500 140/18G22 RMK AO2 TSNO $
94908KDBQ DBQ20011124004513011/24/01 00:45:31  5-MIN KDBQ 240645Z AUTO 14017KT 4SM BR BKN010 OVC016 12/11 A2954 1430 93 1500 140/17 RMK AO2 CIG 007V015 TSNO $
94908KDBQ DBQ20011124005016311/24/01 00:50:31  5-MIN KDBQ 240650Z AUTO 14015KT 4SM -RA BR BKN010 OVC016 12/11 A2953 1440 93 1500 140/15 RMK AO2 RAB50 CIG 007V013 SLP002 P0000 T01220111 TSNO $
94908KDBQ DBQ20011124005516911/24/01 00:55:31  5-MIN KDBQ 240655Z AUTO 14017G22KT 4SM -RA BR BKN010 OVC016 12/11 A2954 1430 93 1500 140/17G22 RMK AO2 RAB50 CIG 007V013 SLP003 P0000 T01220111 TSNO $
94908KDBQ DBQ20011124010013311/24/01 01:00:31  5-MIN KDBQ 240700Z AUTO 14017KT 5SM -RA BR OVC010 12/12 A2954 1430 96 1500 140/17 RMK AO2 CIG 007V012 P0000 TSNO $
94908KDBQ DBQ20011124010514111/24/01 01:05:31  5-MIN KDBQ 240705Z AUTO 14017G22KT 4SM BR OVC010 12/12 A2953 1440 96 1500 140/17G22 RMK AO2 RAE01 CIG 007V012 P0000 TSNO $
94908KDBQ DBQ20011124011013511/24/01 01:10:31  5-MIN KDBQ 240710Z AUTO 14018KT 4SM BR OVC010 12/12 A2953 1440 96 1500 140/18 RMK AO2 RAE01 CIG 007V012 P0000 TSNO $
94908KDBQ DBQ20011124011512711/24/01 01:15:31  5-MIN KDBQ 240715Z AUTO 13017G23KT 4SM -RA BR OVC010 12/12 A2952 1450 96 1500 130/17G23 RMK AO2 P0000 TSNO $
94908KDBQ DBQ20011124012012711/24/01 01:20:31  5-MIN KDBQ 240720Z AUTO 14018G23KT 4SM -RA BR OVC010 12/12 A2952 1450 96 1500 130/18G23 RMK AO2 P0000 TSNO $
94908KDBQ DBQ20011124012512811/24/01 01:25:31  5-MIN KDBQ 240725Z AUTO 14018KT 4SM -RA BR BKN008 OVC014 12/12 A2952 1450 96 1500 140/18 RMK AO2 P0000 TSNO $
94908KDBQ DBQ20011124013013411/24/01 01:30:31  5-MIN KDBQ 240730Z AUTO 13017G25KT 4SM -RA BR BKN008 OVC014 12/12 A2952 1450 96 1500 130/17G25 RMK AO2 P0000 TSNO $
94908KDBQ DBQ20011124013513611/24/01 01:35:31  5-MIN KDBQ 240735Z AUTO 13016G25KT 4SM BR BKN008 OVC012 12/12 A2953 1440 96 1500 130/16G25 RMK AO2 RAE35 P0000 TSNO $
94908KDBQ DBQ20011124014013611/24/01 01:40:31  5-MIN KDBQ 240740Z AUTO 13015G23KT 4SM BR BKN008 OVC012 12/12 A2953 1440 96 1500 130/15G23 RMK AO2 RAE35 P0000 TSNO $
94908KDBQ DBQ20011124014513011/24/01 01:45:31  5-MIN KDBQ 240745Z AUTO 13015KT 3SM BR BKN008 OVC012 12/12 A2953 1440 96 1500 130/15 RMK AO2 RAE35 P0000 TSNO $
94908KDBQ DBQ20011124015015911/24/01 01:50:31  5-MIN KDBQ 240750Z AUTO 13014KT 3SM BR BKN008 OVC012 12/12 A2953 1440 96 1500 130/14 RMK AO2 RAE35 CIG 005V011 SLP001 P0000 T01220117 TSNO $
94908KDBQ DBQ20011124015514711/24/01 01:55:31  5-MIN KDBQ 240755Z AUTO 13015KT 3SM BR BKN006 OVC012 13/12 A2953 1440 93 1600 130/15 RMK AO2 RAE35 SLP002 P0000 T01280117 TSNO $
94908KDBQ DBQ20011124020012311/24/01 02:00:31  5-MIN KDBQ 240800Z AUTO 14014KT 3SM BR OVC006 13/12 A2953 1440 93 1600 130/14 RMK AO2 CIG 005V010 TSNO $
94908KDBQ DBQ20011124020512311/24/01 02:05:31  5-MIN KDBQ 240805Z AUTO 13013KT 3SM BR OVC008 13/12 A2953 1440 93 1500 130/13 RMK AO2 CIG 005V010 TSNO $
94908KDBQ DBQ20011124021012311/24/01 02:10:31  5-MIN KDBQ 240810Z AUTO 14014KT 3SM BR OVC008 13/12 A2954 1430 93 1500 140/14 RMK AO2 CIG 005V010 TSNO $
94908KDBQ DBQ20011124021512311/24/01 02:15:31  5-MIN KDBQ 240815Z AUTO 14015KT 3SM BR OVC006 13/12 A2954 1430 93 1500 140/15 RMK AO2 CIG 005V009 TSNO $
94908KDBQ DBQ20011124022012311/24/01 02:20:31  5-MIN KDBQ 240820Z AUTO 13014KT 4SM BR OVC006 13/12 A2953 1440 93 1600 130/14 RMK AO2 CIG 005V010 TSNO $
94908KDBQ DBQ20011124022512311/24/01 02:25:31  5-MIN KDBQ 240825Z AUTO 14016KT 4SM BR OVC006 13/12 A2953 1440 93 1600 130/16 RMK AO2 CIG 005V010 TSNO $
94908KDBQ DBQ20011124023012311/24/01 02:30:31  5-MIN KDBQ 240830Z AUTO 14016KT 4SM BR OVC006 13/12 A2953 1440 93 1600 130/16 RMK AO2 CIG 005V010 TSNO $
94908KDBQ DBQ20011124023511111/24/01 02:35:31  5-MIN KDBQ 240835Z AUTO 14013KT 4SM BR OVC006 13/12 A2953 1440 93 1600 140/13 RMK AO2 TSNO $
94908KDBQ DBQ20011124024011711/24/01 02:40:31  5-MIN KDBQ 240840Z AUTO 14015G20KT 4SM BR OVC006 13/12 A2953 1440 93 1600 140/15G20 RMK AO2 TSNO $
94908KDBQ DBQ20011124024511111/24/01 02:45:31  5-MIN KDBQ 240845Z AUTO 14017KT 4SM BR OVC006 13/12 A2952 1450 93 1600 140/17 RMK AO2 TSNO $
94908KDBQ DBQ20011124025015611/24/01 02:50:31  5-MIN KDBQ 240850Z AUTO 14015KT 4SM -RA BR OVC006 13/12 A2952 1450 93 1600 140/15 RMK AO2 RAB47 SLP995 P0000 60000 T01280117 56019 TSNO $
94908KDBQ DBQ20011124025515611/24/01 02:55:31  5-MIN KDBQ 240855Z AUTO 14014KT 4SM -RA BR OVC006 13/12 A2952 1450 93 1600 140/14 RMK AO2 RAB47 SLP995 P0000 60000 T01280117 56014 TSNO $
94908KDBQ DBQ20011124030012811/24/01 03:00:31  5-MIN KDBQ 240900Z AUTO 14013KT 4SM -RA BR BKN006 OVC012 13/12 A2951 1460 93 1600 130/13 RMK AO2 P0000 TSNO $
94908KDBQ DBQ20011124030514611/24/01 03:05:31  5-MIN KDBQ 240905Z AUTO 14017G21KT 4SM -RA BR BKN006 OVC012 13/12 A2951 1460 93 1600 140/17G21 RMK AO2 CIG 005V010 P0001 TSNO $
94908KDBQ DBQ20011124031013911/24/01 03:10:31  5-MIN KDBQ 240910Z AUTO 14017G22KT 4SM -RA BR OVC006 13/12 A2951 1460 93 1600 140/17G22 RMK AO2 CIG 006V012 P0001 TSNO $
94908KDBQ DBQ20011124031513411/24/01 03:15:31  5-MIN KDBQ 240915Z AUTO 14017G22KT 4SM -RA BR BKN006 OVC011 13/12 A2951 1460 93 1600 130/17G22 RMK AO2 P0001 TSNO $
94908KDBQ DBQ20011124032013311/24/01 03:20:31  5-MIN KDBQ 240920Z AUTO 14018KT 4SM -RA BR OVC008 13/12 A2951 1460 93 1600 140/18 RMK AO2 CIG 005V014 P0001 TSNO $
94908KDBQ DBQ20011124032514511/24/01 03:25:31  5-MIN KDBQ 240925Z AUTO 14019G22KT 4SM RA BR BKN008 OVC013 13/12 A2951 1460 93 1600 140/19G22 RMK AO2 CIG 005V010 P0002 TSNO $
94908KDBQ DBQ20011124033015111/24/01 03:30:31  5-MIN KDBQ 240930Z AUTO 14020G26KT 4SM RA BR BKN006 OVC010 13/12 A2950 1470 93 1600 140/20G26 RMK AO2 PK WND 14026/0930 P0003 TSNO $
94908KDBQ DBQ20011124033515811/24/01 03:35:31  5-MIN KDBQ 240935Z AUTO 14020G26KT 4SM RA BR BKN006 BKN010 OVC033 13/12 A2950 1470 96 1600 140/20G26 RMK AO2 PK WND 14026/0935 P0004 TSNO $
94908KDBQ DBQ20011124034015911/24/01 03:40:31  5-MIN KDBQ 240940Z AUTO 14020G27KT 3SM +RA BR BKN006 BKN010 OVC028 13/12 A2950 1470 96 1600 140/20G27 RMK AO2 PK WND 13027/0939 P0006 TSNO $
94908KDBQ DBQ20011124034515811/24/01 03:45:31  5-MIN KDBQ 240945Z AUTO 14020G27KT 3SM RA BR BKN006 BKN013 OVC025 13/12 A2950 1470 96 1600 140/20G27 RMK AO2 PK WND 13027/0939 P0007 TSNO $
94908KDBQ DBQ20011124035017511/24/01 03:50:31  5-MIN KDBQ 240950Z AUTO 14019G24KT 4SM RA BR BKN006 BKN013 OVC031 13/12 A2950 1470 96 1600 130/19G24 RMK AO2 PK WND 13027/0939 SLP989 P0008 T01280122 TSNO $
94908KDBQ DBQ20011124035517611/24/01 03:55:31  5-MIN KDBQ 240955Z AUTO 14019G23KT 4SM -RA BR BKN006 BKN013 OVC031 13/12 A2950 1470 96 1600 140/19G23 RMK AO2 PK WND 13027/0939 SLP988 P0008 T01280122 TSNO $
94908KDBQ DBQ20011124040013411/24/01 04:00:31  5-MIN KDBQ 241000Z AUTO 14018G23KT 4SM -RA BR BKN006 OVC030 13/12 A2950 1470 96 1600 130/18G23 RMK AO2 P0001 TSNO $
94908KDBQ DBQ20011124040513411/24/01 04:05:31  5-MIN KDBQ 241005Z AUTO 14015G22KT 4SM -RA BR BKN008 OVC030 13/12 A2949 1480 96 1600 130/15G22 RMK AO2 P0002 TSNO $
94908KDBQ DBQ20011124041014011/24/01 04:10:31  5-MIN KDBQ 241010Z AUTO 13016G21KT 4SM RA BR BKN008 BKN019 OVC031 13/12 A2949 1480 96 1600 130/16G21 RMK AO2 P0002 TSNO $
94908KDBQ DBQ20011124041513511/24/01 04:15:31  5-MIN KDBQ 241015Z AUTO 13016KT 4SM -RA BR BKN008 BKN016 OVC033 13/12 A2949 1480 96 1600 130/16 RMK AO2 P0003 TSNO $
94908KDBQ DBQ20011124042012811/24/01 04:20:31  5-MIN KDBQ 241020Z AUTO 13016KT 4SM -RA BR BKN008 OVC016 13/12 A2949 1480 96 1600 130/16 RMK AO2 P0003 TSNO $
94908KDBQ DBQ20011124042513511/24/01 04:25:31  5-MIN KDBQ 241025Z AUTO 13015KT 4SM -RA BR BKN008 BKN016 OVC070 13/12 A2949 1480 96 1600 130/15 RMK AO2 P0004 TSNO $
94908KDBQ DBQ20011124043013411/24/01 04:30:31  5-MIN KDBQ 241030Z AUTO 13015G20KT 4SM -RA BR BKN008 OVC016 13/12 A2949 1480 96 1600 120/15G20 RMK AO2 P0004 TSNO $
94908KDBQ DBQ20011124043513411/24/01 04:35:31  5-MIN KDBQ 241035Z AUTO 13014G20KT 4SM -RA BR BKN008 OVC016 13/12 A2948 1480 96 1600 130/14G20 RMK AO2 P0004 TSNO $
94908KDBQ DBQ20011124044014711/24/01 04:40:31  5-MIN KDBQ 241040Z AUTO 13014KT 5SM -RA BR BKN006 BKN013 OVC018 13/12 A2948 1490 96 1600 130/14 RMK AO2 CIG 004V009 P0004 TSNO $
94908KDBQ DBQ20011124044513411/24/01 04:45:31  5-MIN KDBQ 241045Z AUTO 13015G23KT 5SM -RA BR SCT006 OVC012 13/12 A2948 1490 96 1600 130/15G23 RMK AO2 P0005 TSNO $
94908KDBQ DBQ20011124045015111/24/01 04:50:31  5-MIN KDBQ 241050Z AUTO 13016G23KT 5SM -RA BR SCT006 OVC011 13/12 A2948 1490 96 1600 130/16G23 RMK AO2 SLP984 P0005 T01280122 TSNO $
94908KDBQ DBQ20011124045516211/24/01 04:55:31  5-MIN KDBQ 241055Z AUTO 13016G22KT 5SM RA BR BKN007 OVC014 13/12 A2948 1490 96 1600 130/16G22 RMK AO2 CIG 004V011 SLP983 P0006 T01280122 TSNO $
94908KDBQ DBQ20011124050014611/24/01 05:00:31  5-MIN KDBQ 241100Z AUTO 13015G22KT 5SM -RA BR BKN007 OVC012 13/12 A2948 1490 96 1600 120/15G22 RMK AO2 CIG 004V011 P0000 TSNO $
94908KDBQ DBQ20011124050514011/24/01 05:05:31  5-MIN KDBQ 241105Z AUTO 12014KT 5SM -RA BR BKN007 OVC012 13/12 A2947 1500 96 1600 120/14 RMK AO2 CIG 004V011 P0001 TSNO $
94908KDBQ DBQ20011124051013911/24/01 05:10:31  5-MIN KDBQ 241110Z AUTO 12013KT 5SM RA BR BKN007 OVC012 13/12 A2947 1500 93 1600 120/13 RMK AO2 CIG 004V011 P0001 TSNO $
94908KDBQ DBQ20011124051513211/24/01 05:15:31  5-MIN KDBQ 241115Z AUTO 12015KT 4SM RA BR OVC007 13/12 A2946 1500 93 1600 120/15 RMK AO2 CIG 004V011 P0003 TSNO $
94908KDBQ DBQ20011124052014011/24/01 05:20:31  5-MIN KDBQ 241120Z AUTO 12013KT 3SM +RA BR BKN007 OVC010 13/12 A2946 1510 93 1600 120/13 RMK AO2 CIG 004V008 P0005 TSNO $
94908KDBQ DBQ20011124052513911/24/01 05:25:31  5-MIN KDBQ 241125Z AUTO 12013KT 4SM RA BR BKN007 OVC010 13/12 A2946 1510 93 1600 120/13 RMK AO2 CIG 004V008 P0006 TSNO $
94908KDBQ DBQ20011124053012711/24/01 05:30:31  5-MIN KDBQ 241130Z AUTO 11015KT 4SM RA BR BKN007 OVC031 13/12 A2945 1510 93 1600 110/15 RMK AO2 P0007 TSNO $
94908KDBQ DBQ20011124053512511/24/01 05:35:31  5-MIN KDBQ 241135Z 11014KT 5SM -RA BR BKN007 BKN012 OVC027 13/12 A2945 1520 93 1600 110/14 RMK AO2 P0007 $
94908KDBQ DBQ20011124054012411/24/01 05:40:31  5-MIN KDBQ 241140Z 11015KT 5SM RA BR BKN007 BKN012 OVC027 13/12 A2945 1520 96 1700 110/15 RMK AO2 P0008 $
94908KDBQ DBQ20011124054512411/24/01 05:45:31  5-MIN KDBQ 241145Z 11016KT 5SM RA BR SCT005 BKN009 OVC014 13/12 A2944 1520 96 1700 110/16 RMK AO2 P0009 $
94908KDBQ DBQ20011124055016411/24/01 05:50:31  5-MIN KDBQ 241150Z 11014KT 5SM RA BR BKN005 OVC012 13/12 A2944 1530 96 1700 110/14 RMK AO2 SLP969 P0009 60023 70028 T01280122 10128 20117 56014 $
94908KDBQ DBQ20011124055517811/24/01 05:55:31  5-MIN KDBQ 241155Z 11014KT 5SM RA BR BKN005 BKN009 OVC027 13/12 A2943 1540 96 1700 110/14 RMK AO2 PRESFR SLP966 P0010 60024 70029 T01280122 10128 20117 58029 $
94908KDBQ DBQ20011124060012511/24/01 06:00:31  5-MIN KDBQ 241200Z 10014KT 5SM -RA BR BKN005 OVC009 13/12 A2942 1540 96 1700 100/14 RMK AO2 PRESFR P0001 $
94908KDBQ DBQ20011124060513611/24/01 06:05:31  5-MIN KDBQ 241205Z 11014G21KT 5SM -RA BR OVC005 13/12 A2942 1550 96 1700 100/14G21 RMK AO2 CIG 003V008 PRESFR P0001 $
94908KDBQ DBQ20011124061014211/24/01 06:10:31  5-MIN KDBQ 241210Z 11015G21KT 5SM RA BR BKN005 OVC010 13/12 A2941 1550 96 1700 100/15G21 RMK AO2 CIG 003V008 PRESFR P0002 $
94908KDBQ DBQ20011124061511711/24/01 06:15:31  5-MIN KDBQ 241215Z 10016KT 4SM RA BR BKN005 OVC009 13/12 A2941 1560 96 1700 100/16 RMK AO2 P0003 $
94908KDBQ DBQ20011124062012811/24/01 06:20:31  5-MIN KDBQ 241220Z 11015G21KT 5SM RA BR OVC007 13/12 A2940 1560 96 1700 110/15G21 RMK AO2 CIG 004V010 P0004 $
94908KDBQ DBQ20011124062512911/24/01 06:25:31  5-MIN KDBQ 241225Z 11017G20KT 5SM -RA BR OVC007 13/12 A2940 1570 96 1700 110/17G20 RMK AO2 CIG 004V010 P0005 $
94908KDBQ DBQ20011124063012311/24/01 06:30:31  5-MIN KDBQ 241230Z 11016KT 5SM -RA BR OVC007 13/12 A2939 1570 96 1700 110/16 RMK AO2 CIG 005V010 P0005 $
94908KDBQ DBQ20011124063512811/24/01 06:35:31  5-MIN KDBQ 241235Z 11020G24KT 4SM RA BR OVC007 13/12 A2939 1570 96 1700 110/20G24 RMK AO2 CIG 005V009 P0007 $
94908KDBQ DBQ20011124064012911/24/01 06:40:31  5-MIN KDBQ 241240Z 11018G24KT 3SM +RA BR OVC007 13/12 A2938 1580 96 1700 110/18G24 RMK AO2 CIG 005V009 P0010 $
94908KDBQ DBQ20011124064512411/24/01 06:45:31  5-MIN KDBQ 241245Z 11018G25KT 3SM -RA BR BKN007 OVC010 13/12 A2938 1580 93 1800 110/18G25 RMK AO2 P0011 $
94908KDBQ DBQ20011124065014011/24/01 06:50:31  5-MIN KDBQ 241250Z 11017G25KT 5SM RA BR BKN007 OVC010 13/12 A2937 1590 93 1800 110/17G25 RMK AO2 SLP947 P0011 T01330122 $
94908KDBQ DBQ20011124065514711/24/01 06:55:31  5-MIN KDBQ 241255Z 10017G24KT 5SM RA BR BKN007 OVC010 13/12 A2937 1590 96 1700 100/17G24 RMK AO2 PRESFR SLP945 P0012 T01280122 $
94908KDBQ DBQ20011124070011711/24/01 07:00:31  5-MIN KDBQ 241300Z 11017KT 5SM RA BR BKN007 OVC010 13/12 A2936 1600 96 1700 100/17 RMK AO2 P0001 $
94908KDBQ DBQ20011124070513511/24/01 07:05:31  5-MIN KDBQ 241305Z 11018G25KT 5SM RA BR OVC007 13/12 A2936 1600 96 1800 110/18G25 RMK AO2 CIG 005V012 PRESFR P0002 $
94908KDBQ DBQ20011124071015311/24/01 07:10:31  5-MIN KDBQ 241310Z 11019G26KT 5SM RA BR OVC007 13/12 A2935 1610 96 1800 110/19G26 RMK AO2 PK WND 11026/1310 CIG 005V012 PRESFR P0003 $
94908KDBQ DBQ20011124071514211/24/01 07:15:31  5-MIN KDBQ 241315Z 11023G28KT 6SM -RA BR OVC007 13/12 A2934 1620 93 1800 110/23G28 RMK AO2 PK WND 11028/1314 PRESFR P0003 $
94908KDBQ DBQ20011124072015111/24/01 07:20:31  5-MIN KDBQ 241320Z 11019G28KT 7SM -RA OVC007 13/12 A2933 1630 93 1800 110/19G28 RMK AO2 PK WND 11028/1314 CIG 005V012 PRESFR P0003 $
94908KDBQ DBQ20011124072515111/24/01 07:25:31  5-MIN KDBQ 241325Z 11017G26KT 7SM -RA OVC007 13/12 A2933 1630 93 1900 110/17G26 RMK AO2 PK WND 11028/1314 CIG 005V012 PRESFR P0003 $
94908KDBQ DBQ20011124073014411/24/01 07:30:31  5-MIN KDBQ 241330Z 11018G26KT 7SM -RA OVC007 13/12 A2932 1630 93 1900 110/18G26 RMK AO2 PK WND 11028/1314 CIG 005V011 P0004 $
94908KDBQ DBQ20011124073514411/24/01 07:35:31  5-MIN KDBQ 241335Z 12018G24KT 9SM -RA OVC007 13/12 A2933 1630 93 1900 120/18G24 RMK AO2 PK WND 11028/1314 CIG 006V011 P0004 $
94908KDBQ DBQ20011124074013911/24/01 07:40:31  5-MIN KDBQ 241340Z 12016KT 10SM -RA OVC007 13/12 A2932 1630 93 1900 120/16 RMK AO2 PK WND 11028/1314 CIG 006V010 P0004 $
94908KDBQ DBQ20011124074514511/24/01 07:45:31  5-MIN KDBQ 241345Z 12019G25KT 10SM -RA OVC007 13/12 A2932 1640 93 1900 120/19G25 RMK AO2 PK WND 11028/1314 CIG 006V011 P0004 $
94908KDBQ DBQ20011124075015011/24/01 07:50:31  5-MIN KDBQ 241350Z 12018G25KT 10SM -RA OVC007 13/12 A2931 1650 93 1900 120/18G25 RMK AO2 PK WND 11028/1314 SLP925 P0004 T01330122 $
94908KDBQ DBQ20011124075516911/24/01 07:55:31  5-MIN KDBQ 241355Z 12024G32KT 10SM -RA OVC007 13/12 A2930 1660 93 1900 120/24G32 RMK AO2 PK WND 13032/1354 CIG 006V011 PRESFR SLP921 P0004 T01330122 $
94908KDBQ DBQ20011124080014011/24/01 08:00:31  5-MIN KDBQ 241400Z 12022G32KT 10SM -RA BKN007 OVC011 13/12 A2930 1660 93 1900 120/22G32 RMK AO2 PK WND 12029/1400 P0000 $
94908KDBQ DBQ20011124080514711/24/01 08:05:31  5-MIN KDBQ 241405Z 11025G33KT 10SM -RA BKN007 OVC011 13/12 A2928 1670 93 1900 110/25G33 RMK AO2 PK WND 11033/1405 PRESFR P0000 $
94908KDBQ DBQ20011124081015411/24/01 08:10:31  5-MIN KDBQ 241410Z 11024G33KT 10SM OVC007 13/12 A2926 1690 93 1900 110/24G33 RMK AO2 PK WND 11033/1405 RAE08 CIG 006V011 PRESFR P0000 $
94908KDBQ DBQ20011124081513511/24/01 08:15:31  5-MIN KDBQ 241415Z 12024G32KT 10SM OVC007 13/12 A2928 1680 93 1900 120/24G32 RMK AO2 PK WND 11033/1405 RAE08 P0000 $
94908KDBQ DBQ20011124082014211/24/01 08:20:31  5-MIN KDBQ 241420Z 13023G30KT 10SM BKN007 OVC011 13/12 A2931 1650 93 1900 130/23G30 RMK AO2 PK WND 11033/1405 RAE08 P0000 $
94908KDBQ DBQ20011124082515111/24/01 08:25:31  5-MIN KDBQ 241425Z 14023G33KT 9SM -RA OVC007 13/12 A2932 1640 93 1900 140/23G33 RMK AO2 PK WND 13033/1421 CIG 006V013 PRESRR P0000 $
94908KDBQ DBQ20011124083014411/24/01 08:30:31  5-MIN KDBQ 241430Z 13023G33KT 7SM -RA OVC007 13/12 A2932 1640 93 1900 130/23G33 RMK AO2 PK WND 13033/1421 CIG 006V011 P0000 $
94908KDBQ DBQ20011124083515311/24/01 08:35:31  5-MIN KDBQ 241435Z 13024G32KT 6SM RA BR BKN009 OVC014 13/12 A2932 1640 93 1900 130/24G32 RMK AO2 PK WND 13033/1421 CIG 006V011 P0001 $
94908KDBQ DBQ20011124084015111/24/01 08:40:31  5-MIN KDBQ 241440Z 13023G32KT 8SM -RA BKN009 OVC014 13/12 A2932 1640 93 1900 120/23G32 RMK AO2 PK WND 13033/1421 CIG 007V011 P0001 $
94908KDBQ DBQ20011124084515211/24/01 08:45:31  5-MIN KDBQ 241445Z 14021G29KT 10SM -RA BKN009 OVC014 13/12 A2932 1640 93 1900 140/21G29 RMK AO2 PK WND 13033/1421 CIG 007V011 P0001 $
94908KDBQ DBQ20011124085018111/24/01 08:50:31  5-MIN KDBQ 241450Z 13023G31KT 10SM -RA BKN009 OVC014 14/12 A2931 1640 90 1900 130/23G31 RMK AO2 PK WND 13033/1421 CIG 007V011 SLP927 P0001 60017 T01390122 58029 $
94908KDBQ DBQ20011124085516211/24/01 08:55:31  5-MIN KDBQ 241455Z 13025G31KT 10SM -RA OVC012 14/12 A2930 1650 90 1900 130/25G31 RMK AO2 PK WND 13033/1421 SLP923 P0001 60017 T01390122 55041 $
94908KDBQ DBQ20011124090014011/24/01 09:00:31  5-MIN KDBQ 241500Z 13020G31KT 10SM -RA OVC012 14/12 A2929 1660 90 2000 130/20G31 RMK AO2 PK WND 13027/1458 PRESFR P0000 $
94908KDBQ DBQ20011124090514711/24/01 09:05:31  5-MIN KDBQ 241505Z 12019G27KT 10SM -RA BKN012 OVC019 14/12 A2927 1680 90 2000 120/19G27 RMK AO2 PK WND 13027/1458 PRESFR P0000 $
94908KDBQ DBQ20011124091014011/24/01 09:10:31  5-MIN KDBQ 241510Z 12017G25KT 10SM -RA BKN012 OVC019 14/12 A2927 1680 90 2000 120/17G25 RMK AO2 PK WND 13027/1458 P0000 $
94908KDBQ DBQ20011124091514011/24/01 09:15:31  5-MIN KDBQ 241515Z 13020G23KT 10SM -RA BKN014 OVC019 14/12 A2928 1670 90 2000 130/20G23 RMK AO2 PK WND 13027/1458 P0000 $
94908KDBQ DBQ20011124092014211/24/01 09:20:31  5-MIN KDBQ 241520Z 13019G24KT 10SM BKN014 OVC019 14/12 A2928 1670 90 2000 130/19G24 RMK AO2 PK WND 13027/1458 RAE16 P0000 $
94908KDBQ DBQ20011124092514211/24/01 09:25:31  5-MIN KDBQ 241525Z 14022G25KT 10SM BKN012 OVC019 14/12 A2929 1670 90 2000 140/22G25 RMK AO2 PK WND 13027/1458 RAE16 P0000 $
94908KDBQ DBQ20011124093013911/24/01 09:30:31  5-MIN KDBQ 241530Z 14022G26KT 9SM -RA BKN012 OVC016 14/12 A2929 1670 90 2000 140/22G26 RMK AO2 PK WND 13027/1458 P0000 $
94908KDBQ DBQ20011124093514011/24/01 09:35:31  5-MIN KDBQ 241535Z 14017G26KT 10SM -RA BKN012 OVC016 14/13 A2929 1670 93 2000 140/17G26 RMK AO2 PK WND 13027/1458 P0000 $
94908KDBQ DBQ20011124094014211/24/01 09:40:31  5-MIN KDBQ 241540Z 15021G26KT 10SM BKN012 OVC018 14/13 A2930 1660 93 2000 150/21G26 RMK AO2 PK WND 13027/1458 RAE39 P0000 $
94908KDBQ DBQ20011124094514211/24/01 09:45:31  5-MIN KDBQ 241545Z 14018G26KT 10SM BKN012 OVC024 14/13 A2930 1660 93 2000 140/18G26 RMK AO2 PK WND 13027/1458 RAE39 P0000 $
94908KDBQ DBQ20011124095016411/24/01 09:50:31  5-MIN KDBQ 241550Z 14021G26KT 10SM -RA SCT012 BKN020 OVC039 14/13 A2929 1660 93 2000 140/21G26 RMK AO2 PK WND 13027/1458 SLP920 P0000 T01390128 $
94908KDBQ DBQ20011124095516311/24/01 09:55:31  5-MIN KDBQ 241555Z 14019G26KT 9SM -RA SCT012 BKN020 OVC039 14/13 A2929 1670 93 2000 140/19G26 RMK AO2 PK WND 13027/1458 SLP919 P0000 T01390128 $
94908KDBQ DBQ20011124100012811/24/01 10:00:31  5-MIN KDBQ 241600Z 15018G24KT 9SM -RA SCT012 BKN020 OVC039 14/13 A2929 1670 93 2000 140/18G24 RMK AO2 P0000 $
94908KDBQ DBQ20011124100514611/24/01 10:05:31  5-MIN KDBQ 241605Z 14018G27KT 9SM -RA SCT012 BKN020 OVC039 14/13 A2928 1670 93 2000 140/18G27 RMK AO2 PK WND 15027/1602 P0000 $
94908KDBQ DBQ20011124101014611/24/01 10:10:31  5-MIN KDBQ 241610Z 14018G27KT 8SM -RA SCT012 BKN020 OVC039 14/13 A2928 1680 93 2000 140/18G27 RMK AO2 PK WND 15027/1602 P0000 $
94908KDBQ DBQ20011124101514611/24/01 10:15:31  5-MIN KDBQ 241615Z 15016G23KT 7SM -RA SCT012 BKN020 OVC039 14/13 A2928 1680 93 2000 140/16G23 RMK AO2 PK WND 15027/1602 P0001 $
94908KDBQ DBQ20011124102014011/24/01 10:20:31  5-MIN KDBQ 241620Z 15016KT 8SM -RA SCT012 BKN020 OVC039 14/13 A2927 1680 93 2000 140/16 RMK AO2 PK WND 15027/1602 P0001 $
94908KDBQ DBQ20011124102514311/24/01 10:25:31  5-MIN KDBQ 241625Z 15016KT 6SM -RA BR SCT012 BKN020 OVC039 14/13 A2927 1680 93 2000 140/16 RMK AO2 PK WND 15027/1602 P0001 $
94908KDBQ DBQ20011124103014311/24/01 10:30:31  5-MIN KDBQ 241630Z 14017KT 6SM -RA BR FEW014 BKN031 OVC040 14/13 A2927 1690 93 2000 140/17 RMK AO2 PK WND 15027/1602 P0001 $
94908KDBQ DBQ20011124103514611/24/01 10:35:31  5-MIN KDBQ 241635Z 15015G22KT 8SM -RA SCT017 BKN035 OVC055 14/13 A2927 1690 93 2000 150/15G22 RMK AO2 PK WND 15027/1602 P0001 $
94908KDBQ DBQ20011124104014611/24/01 10:40:31  5-MIN KDBQ 241640Z 15017G22KT 9SM -RA FEW015 BKN035 OVC055 14/13 A2926 1690 93 2000 150/17G22 RMK AO2 PK WND 15027/1602 P0001 $
94908KDBQ DBQ20011124104514111/24/01 10:45:31  5-MIN KDBQ 241645Z 15016KT 10SM -RA FEW015 BKN040 OVC060 14/13 A2927 1690 93 2000 150/16 RMK AO2 PK WND 15027/1602 P0001 $
94908KDBQ DBQ20011124105016411/24/01 10:50:31  5-MIN KDBQ 241650Z 16017G22KT 10SM -RA FEW020 BKN037 OVC060 14/12 A2927 1690 90 2000 150/17G22 RMK AO2 PK WND 15027/1602 SLP911 P0001 T01390122 $
94908KDBQ DBQ20011124105516411/24/01 10:55:31  5-MIN KDBQ 241655Z 15015G22KT 10SM -RA BKN020 BKN039 OVC060 14/12 A2926 1690 90 2000 150/15G22 RMK AO2 PK WND 15027/1602 SLP910 P0001 T01390122 $
94908KDBQ DBQ20011124110012711/24/01 11:00:31  5-MIN KDBQ 241700Z 16016G22KT 10SM BKN020 BKN033 OVC060 14/12 A2926 1690 90 2000 150/16G22 RMK AO2 RAE1656 $
94908KDBQ DBQ20011124110512711/24/01 11:05:31  5-MIN KDBQ 241705Z 15017G22KT 10SM BKN020 BKN033 OVC060 14/12 A2926 1700 90 2000 150/17G22 RMK AO2 RAE1656 $
94908KDBQ DBQ20011124111012011/24/01 11:10:31  5-MIN KDBQ 241710Z 15016G22KT 10SM FEW020 OVC070 14/12 A2926 1700 90 2000 150/16G22 RMK AO2 RAE1656 $
94908KDBQ DBQ20011124111512011/24/01 11:15:31  5-MIN KDBQ 241715Z 15017G22KT 10SM FEW020 OVC070 14/12 A2925 1700 90 2000 150/17G22 RMK AO2 RAE1656 $
94908KDBQ DBQ20011124112011911/24/01 11:20:31  5-MIN KDBQ 241720Z 15018G21KT 9SM FEW030 OVC065 14/12 A2925 1700 90 2000 150/18G21 RMK AO2 RAE1656 $
94908KDBQ DBQ20011124112511311/24/01 11:25:31  5-MIN KDBQ 241725Z 16015KT 9SM FEW027 OVC065 14/12 A2925 1700 90 2000 160/15 RMK AO2 RAE1656 $
94908KDBQ DBQ20011124113012011/24/01 11:30:31  5-MIN KDBQ 241730Z 16017G22KT 10SM FEW027 OVC065 14/12 A2925 1700 90 2000 150/17G22 RMK AO2 RAE1656 $
94908KDBQ DBQ20011124113512011/24/01 11:35:31  5-MIN KDBQ 241735Z 16017G22KT 10SM FEW025 OVC070 14/12 A2925 1710 86 2100 160/17G22 RMK AO2 RAE1656 $
94908KDBQ DBQ20011124114012011/24/01 11:40:31  5-MIN KDBQ 241740Z 17017G24KT 10SM FEW025 OVC070 14/12 A2925 1710 86 2100 160/17G24 RMK AO2 RAE1656 $
94908KDBQ DBQ20011124114512711/24/01 11:45:31  5-MIN KDBQ 241745Z 16015G24KT 10SM FEW025 SCT060 OVC075 14/12 A2925 1710 86 2100 160/15G24 RMK AO2 RAE1656 $
94908KDBQ DBQ20011124115016811/24/01 11:50:31  5-MIN KDBQ 241750Z 16015G24KT 10SM FEW020 SCT060 OVC075 14/12 A2925 1700 86 2100 160/15G24 RMK AO2 RAE1656 SLP904 60018 T01440122 10144 20128 55041 $
94908KDBQ DBQ20011124115516811/24/01 11:55:31  5-MIN KDBQ 241755Z 16015G20KT 10SM FEW022 SCT060 OVC075 14/13 A2925 1710 90 2100 160/15G20 RMK AO2 RAE1656 SLP903 60018 T01440128 10144 20128 58018 $
94908KDBQ DBQ20011124120011211/24/01 12:00:31  5-MIN KDBQ 241800Z 17016G21KT 10SM FEW020 OVC075 14/12 A2924 1710 86 2100 170/16G21 RMK AO2 $
94908KDBQ DBQ20011124120511211/24/01 12:05:31  5-MIN KDBQ 241805Z 17013G21KT 10SM FEW020 OVC075 14/12 A2924 1710 86 2100 170/13G21 RMK AO2 $
94908KDBQ DBQ20011124121011211/24/01 12:10:31  5-MIN KDBQ 241810Z 17017G20KT 10SM FEW020 OVC075 15/12 A2924 1710 83 2100 170/17G20 RMK AO2 $
94908KDBQ DBQ20011124121511211/24/01 12:15:31  5-MIN KDBQ 241815Z 17016G20KT 10SM FEW022 OVC075 14/12 A2924 1710 86 2100 170/16G20 RMK AO2 $
94908KDBQ DBQ20011124122011211/24/01 12:20:31  5-MIN KDBQ 241820Z 16017G22KT 10SM SCT022 OVC075 15/12 A2924 1710 83 2200 160/17G22 RMK AO2 $
94908KDBQ DBQ20011124122511211/24/01 12:25:31  5-MIN KDBQ 241825Z 17017G22KT 10SM SCT023 OVC070 14/12 A2924 1710 86 2100 170/17G22 RMK AO2 $
94908KDBQ DBQ20011124123011311/24/01 12:30:31  5-MIN KDBQ 241830Z 17018KT 10SM BKN023 BKN027 OVC075 15/12 A2924 1720 80 2200 170/18 RMK AO2 $
94908KDBQ DBQ20011124123510611/24/01 12:35:31  5-MIN KDBQ 241835Z 17020KT 10SM SCT023 OVC070 16/12 A2923 1720 77 2200 170/20 RMK AO2 $
94908KDBQ DBQ20011124124013011/24/01 12:40:31  5-MIN KDBQ 241840Z 17018G26KT 10SM SCT023 OVC070 15/12 A2923 1720 80 2200 160/18G26 RMK AO2 PK WND 16026/1838 $
94908KDBQ DBQ20011124124513011/24/01 12:45:31  5-MIN KDBQ 241845Z 16018G26KT 10SM SCT023 OVC070 15/12 A2923 1720 80 2200 160/18G26 RMK AO2 PK WND 16026/1838 $
94908KDBQ DBQ20011124125014711/24/01 12:50:31  5-MIN KDBQ 241850Z 17016G24KT 10SM BKN025 OVC070 15/12 A2923 1720 80 2200 160/16G24 RMK AO2 PK WND 16026/1838 SLP898 T01500117 $
94908KDBQ DBQ20011124125514811/24/01 12:55:31  5-MIN KDBQ 241855Z 17016KT 10SM FEW021 BKN026 BKN070 15/12 A2923 1720 80 2200 160/16 RMK AO2 PK WND 16026/1838 SLP897 T01500117 $
94908KDBQ DBQ20011124130011911/24/01 13:00:31  5-MIN KDBQ 241900Z 17017G24KT 10SM SCT024 BKN030 OVC070 15/12 A2923 1720 80 2200 170/17G24 RMK AO2 $
94908KDBQ DBQ20011124130511911/24/01 13:05:31  5-MIN KDBQ 241905Z 17017G24KT 10SM SCT024 BKN030 OVC065 15/12 A2923 1720 80 2200 170/17G24 RMK AO2 $
94908KDBQ DBQ20011124131011911/24/01 13:10:31  5-MIN KDBQ 241910Z 17016G24KT 10SM SCT024 BKN030 OVC065 15/12 A2923 1720 80 2200 170/16G24 RMK AO2 $
94908KDBQ DBQ20011124131513711/24/01 13:15:31  5-MIN KDBQ 241915Z 17020G26KT 10SM FEW024 BKN030 OVC065 15/11 A2923 1720 77 2200 160/20G26 RMK AO2 PK WND 17026/1914 $
94908KDBQ DBQ20011124132013711/24/01 13:20:31  5-MIN KDBQ 241920Z 17016G26KT 10SM FEW024 SCT030 BKN050 15/12 A2923 1720 80 2200 170/16G26 RMK AO2 PK WND 17026/1914 $
94908KDBQ DBQ20011124132513711/24/01 13:25:31  5-MIN KDBQ 241925Z 17020G23KT 10SM FEW024 SCT038 BKN065 15/11 A2923 1720 77 2200 170/20G23 RMK AO2 PK WND 17026/1914 $
94908KDBQ DBQ20011124133013711/24/01 13:30:31  5-MIN KDBQ 241930Z 17016G23KT 10SM FEW024 SCT042 BKN060 15/11 A2923 1720 77 2200 170/16G23 RMK AO2 PK WND 17026/1914 $
94908KDBQ DBQ20011124133513111/24/01 13:35:31  5-MIN KDBQ 241935Z 17016KT 10SM FEW024 SCT030 BKN060 15/11 A2923 1720 74 2200 170/16 RMK AO2 PK WND 17026/1914 $
94908KDBQ DBQ20011124134013011/24/01 13:40:31  5-MIN KDBQ 241940Z 17019G26KT 10SM FEW027 BKN060 16/11 A2923 1720 72 2200 170/19G26 RMK AO2 PK WND 18026/1938 $
94908KDBQ DBQ20011124134513011/24/01 13:45:31  5-MIN KDBQ 241945Z 17018G28KT 10SM FEW027 SCT060 16/10 A2923 1730 69 2200 170/18G28 RMK AO2 PK WND 17028/1943 $
94908KDBQ DBQ20011124135014011/24/01 13:50:31  5-MIN KDBQ 241950Z 17017G28KT 10SM FEW027 15/09 A2923 1730 69 2200 170/17G28 RMK AO2 PK WND 17028/1943 SLP896 T01500094 $
94908KDBQ DBQ20011124135514111/24/01 13:55:31  5-MIN KDBQ 241955Z 17020KT 10SM FEW027 SCT065 16/09 A2923 1730 67 2200 170/20 RMK AO2 PK WND 17028/1943 SLP895 T01560094 $
94908KDBQ DBQ20011124140010611/24/01 14:00:31  5-MIN KDBQ 242000Z 17017KT 10SM FEW047 SCT065 16/10 A2923 1730 69 2200 170/17 RMK AO2 $
94908KDBQ DBQ20011124140510511/24/01 14:05:31  5-MIN KDBQ 242005Z 17017G24KT 10SM SCT060 15/10 A2923 1730 72 2200 170/17G24 RMK AO2 $
94908KDBQ DBQ20011124141010511/24/01 14:10:31  5-MIN KDBQ 242010Z 17015G24KT 10SM BKN065 15/10 A2923 1730 72 2200 170/15G24 RMK AO2 $
94908KDBQ DBQ20011124141510511/24/01 14:15:31  5-MIN KDBQ 242015Z 17015G21KT 10SM BKN065 15/10 A2922 1730 72 2200 170/15G21 RMK AO2 $
94908KDBQ DBQ20011124142010511/24/01 14:20:31  5-MIN KDBQ 242020Z 17018G23KT 10SM SCT065 16/10 A2922 1730 69 2200 170/18G23 RMK AO2 $
94908KDBQ DBQ20011124142510511/24/01 14:25:31  5-MIN KDBQ 242025Z 17016G23KT 10SM SCT065 15/10 A2922 1730 72 2200 170/16G23 RMK AO2 $
94908KDBQ DBQ20011124143010611/24/01 14:30:31  5-MIN KDBQ 242030Z 16017KT 10SM FEW033 SCT060 15/09 A2922 1730 69 2200 160/17 RMK AO2 $
94908KDBQ DBQ20011124143511911/24/01 14:35:31  5-MIN KDBQ 242035Z 16014G20KT 10SM FEW033 SCT041 BKN060 15/10 A2922 1730 72 2200 160/14G20 RMK AO2 $
94908KDBQ DBQ20011124144011911/24/01 14:40:31  5-MIN KDBQ 242040Z 16018G23KT 10SM SCT035 SCT043 BKN060 16/10 A2922 1740 69 2200 160/18G23 RMK AO2 $
94908KDBQ DBQ20011124144511211/24/01 14:45:31  5-MIN KDBQ 242045Z 16016G23KT 10SM SCT035 SCT042 15/09 A2922 1740 69 2200 160/16G23 RMK AO2 $
94908KDBQ DBQ20011124145015311/24/01 14:50:31  5-MIN KDBQ 242050Z 16021G26KT 10SM SCT035 BKN045 15/09 A2922 1730 69 2200 160/21G26 RMK AO2 PK WND 16026/2050 SLP894 T01500094 58018 $
94908KDBQ DBQ20011124145518211/24/01 14:55:31  5-MIN KDBQ 242055Z 16017G27KT 10SM -RA FEW033 BKN040 BKN048 14/09 A2922 1740 74 2000 160/17G27 RMK AO2 PK WND 16027/2051 RAB54 SLP893 P0000 60000 T01390094 56010 $
94908KDBQ DBQ20011124150012311/24/01 15:00:31  5-MIN KDBQ 242100Z 16016KT 10SM -RA FEW035 SCT043 BKN055 13/09 A2922 1730 77 2000 160/16 RMK AO2 P0000 $
94908KDBQ DBQ20011124150513111/24/01 15:05:31  5-MIN KDBQ 242105Z 16017G22KT 10SM FEW036 SCT050 BKN110 13/09 A2922 1730 74 2000 160/17G22 RMK AO2 RAE03 P0000 $
94908KDBQ DBQ20011124151013111/24/01 15:10:31  5-MIN KDBQ 242110Z 16014G22KT 10SM FEW036 SCT055 BKN095 13/09 A2922 1730 74 2000 160/14G22 RMK AO2 RAE03 P0000 $
94908KDBQ DBQ20011124151512511/24/01 15:15:31  5-MIN KDBQ 242115Z 16014KT 10SM FEW036 SCT070 BKN095 13/09 A2922 1730 74 2000 160/14 RMK AO2 RAE03 P0000 $
94908KDBQ DBQ20011124152012511/24/01 15:20:31  5-MIN KDBQ 242120Z 17014KT 10SM FEW050 SCT075 BKN095 13/09 A2923 1720 77 2000 170/14 RMK AO2 RAE03 P0000 $
94908KDBQ DBQ20011124152515511/24/01 15:25:31  5-MIN KDBQ 242125Z 20024G30KT 8SM -RA FEW026 SCT060 BKN075 13/09 A2923 1720 80 1900 200/24G30 RMK AO2 PK WND 20030/2124 RAE03B22 P0001 $
94908KDBQ DBQ20011124153016211/24/01 15:30:31  5-MIN KDBQ 242130Z 20018G30KT 2 1/2SM +RA BR FEW027 BKN042 OVC095 11/09 A2924 1710 89 1700 200/18G30 RMK AO2 PK WND 20030/2124 RAE03B22 P0007 $
94908KDBQ DBQ20011124153516411/24/01 15:35:31  5-MIN KDBQ 242135Z 20017KT 2SM +RA BR FEW018 BKN038 OVC095 11/09 A2924 1710 93 1600 200/17 RMK AO2 PK WND 20030/2124 VIS 1 1/4V4 RAE03B22 P0009 $
94908KDBQ DBQ20011124154015111/24/01 15:40:31  5-MIN KDBQ 242140Z 20015KT 3SM RA BR FEW021 BKN036 OVC095 11/09 A2924 1710 93 1600 200/15 RMK AO2 PK WND 20030/2124 RAE03B22 P0010 $
94908KDBQ DBQ20011124154515211/24/01 15:45:31  5-MIN KDBQ 242145Z 20016KT 5SM -RA BR FEW030 BKN038 OVC055 11/09 A2924 1710 93 1600 200/16 RMK AO2 PK WND 20030/2124 RAE03B22 P0011 $
94908KDBQ DBQ20011124155016811/24/01 15:50:31  5-MIN KDBQ 242150Z 20015KT 5SM RA BR FEW022 BKN035 OVC055 11/09 A2924 1710 93 1600 190/15 RMK AO2 PK WND 20030/2124 RAE03B22 SLP902 P0012 T01060094 $
94908KDBQ DBQ20011124155516611/24/01 15:55:31  5-MIN KDBQ 242155Z 19012KT 7SM -RA SCT031 BKN047 OVC055 11/10 A2924 1710 96 1600 190/12 RMK AO2 PK WND 20030/2124 RAE03B22 SLP902 P0012 T01060100 $
94908KDBQ DBQ20011124160012311/24/01 16:00:31  5-MIN KDBQ 242200Z 18012KT 10SM -RA FEW034 SCT048 OVC060 11/09 A2925 1710 89 1700 180/12 RMK AO2 P0000 $
94908KDBQ DBQ20011124160512511/24/01 16:05:31  5-MIN KDBQ 242205Z 18012KT 10SM FEW036 SCT048 OVC060 11/09 A2925 1710 93 1600 180/12 RMK AO2 RAE02 P0000 $
94908KDBQ DBQ20011124161012511/24/01 16:10:31  5-MIN KDBQ 242210Z 18014KT 10SM FEW036 BKN060 OVC080 11/09 A2924 1710 89 1700 180/14 RMK AO2 RAE02 P0001 $
94908KDBQ DBQ20011124161512511/24/01 16:15:31  5-MIN KDBQ 242215Z 18013KT 10SM FEW031 BKN060 OVC080 11/09 A2924 1710 89 1700 180/13 RMK AO2 RAE02 P0001 $
94908KDBQ DBQ20011124162012511/24/01 16:20:31  5-MIN KDBQ 242220Z 17012KT 10SM FEW031 BKN060 OVC080 11/09 A2925 1710 89 1700 170/12 RMK AO2 RAE02 P0001 $
94908KDBQ DBQ20011124162512511/24/01 16:25:31  5-MIN KDBQ 242225Z 17011KT 10SM FEW031 BKN060 OVC085 11/10 A2925 1700 96 1600 170/11 RMK AO2 RAE02 P0001 $
94908KDBQ DBQ20011124163012511/24/01 16:30:31  5-MIN KDBQ 242230Z 17011KT 10SM FEW035 BKN060 OVC090 11/10 A2925 1700 96 1600 170/11 RMK AO2 RAE02 P0001 $
94908KDBQ DBQ20011124163512511/24/01 16:35:31  5-MIN KDBQ 242235Z 17013KT 10SM SCT035 BKN046 OVC085 11/10 A2925 1700 96 1600 170/13 RMK AO2 RAE02 P0001 $
94908KDBQ DBQ20011124164012511/24/01 16:40:31  5-MIN KDBQ 242240Z 17011KT 10SM SCT027 BKN037 OVC090 11/10 A2926 1700 96 1600 170/11 RMK AO2 RAE02 P0001 $
94908KDBQ DBQ20011124164513211/24/01 16:45:31  5-MIN KDBQ 242245Z 18012KT 10SM -RA FEW019 BKN029 OVC042 11/10 A2926 1690 93 1700 180/12 RMK AO2 RAE02B41 P0001 $
94908KDBQ DBQ20011124165014811/24/01 16:50:31  5-MIN KDBQ 242250Z 21014KT 8SM -RA FEW007 BKN031 OVC048 11/10 A2927 1690 96 1600 210/14 RMK AO2 RAE02B41 SLP912 P0002 T01060100 $
94908KDBQ DBQ20011124165517511/24/01 16:55:31  5-MIN KDBQ 242255Z 21021G27KT 6SM -RA BR FEW007 BKN022 OVC039 11/09 A2926 1690 89 1600 210/21G27 RMK AO2 PK WND 21027/2253 RAE02B41 SLP909 P0003 T01060089 $
94908KDBQ DBQ20011124170012711/24/01 17:00:31  5-MIN KDBQ 242300Z 20020G27KT 7SM RA FEW014 SCT027 OVC039 10/08 A2926 1690 89 1500 200/20G27 RMK AO2 P0001 $
94908KDBQ DBQ20011124170512211/24/01 17:05:31  5-MIN KDBQ 242305Z 20015KT 8SM -RA FEW015 BKN039 OVC060 09/08 A2927 1690 93 1500 200/15 RMK AO2 P0001 $
94908KDBQ DBQ20011124171012311/24/01 17:10:31  5-MIN KDBQ 242310Z 20013KT 10SM -RA FEW015 SCT031 OVC044 09/08 A2927 1690 93 1500 190/13 RMK AO2 P0001 $
94908KDBQ DBQ20011124171512511/24/01 17:15:31  5-MIN KDBQ 242315Z 19011KT 10SM FEW018 BKN044 OVC065 09/08 A2927 1690 93 1500 190/11 RMK AO2 RAE14 P0001 $
94908KDBQ DBQ20011124172011811/24/01 17:20:31  5-MIN KDBQ 242320Z 19012KT 10SM SCT044 OVC060 09/08 A2927 1690 89 1500 190/12 RMK AO2 RAE14 P0001 $
94908KDBQ DBQ20011124172511811/24/01 17:25:31  5-MIN KDBQ 242325Z 19013KT 10SM SCT044 OVC060 09/08 A2927 1680 89 1500 190/13 RMK AO2 RAE14 P0001 $
94908KDBQ DBQ20011124173012511/24/01 17:30:31  5-MIN KDBQ 242330Z 19014KT 10SM -RA SCT042 OVC060 09/08 A2928 1680 89 1500 190/14 RMK AO2 RAE14B30 P0001 $
94908KDBQ DBQ20011124173513211/24/01 17:35:31  5-MIN KDBQ 242335Z 19013KT 10SM -RA SCT042 BKN060 OVC080 09/08 A2928 1680 93 1500 190/13 RMK AO2 RAE14B30 P0002 $
94908KDBQ DBQ20011124174013211/24/01 17:40:31  5-MIN KDBQ 242340Z 19013KT 10SM -RA FEW044 BKN060 OVC080 09/08 A2928 1680 93 1500 190/13 RMK AO2 RAE14B30 P0002 $
94908KDBQ DBQ20011124174513111/24/01 17:45:31  5-MIN KDBQ 242345Z 19014KT 10SM SCT046 BKN055 OVC075 09/08 A2928 1680 93 1400 190/14 RMK AO2 RAE14B30E45 P0002 $
94908KDBQ DBQ20011124175017211/24/01 17:50:31  5-MIN KDBQ 242350Z 18015KT 10SM SCT035 BKN046 OVC070 09/08 A2928 1680 93 1400 180/15 RMK AO2 RAE14B30E45 SLP916 P0002 60017 T00940083 10156 20094 56010 $
94908KDBQ DBQ20011124175517211/24/01 17:55:31  5-MIN KDBQ 242355Z 18014KT 10SM SCT037 BKN043 OVC075 09/08 A2928 1680 89 1400 180/14 RMK AO2 RAE14B30E45 SLP916 P0002 60017 T00940078 10156 20094 51021 $
94908KDBQ DBQ20011124180011311/24/01 18:00:31  5-MIN KDBQ 250000Z 18014KT 10SM BKN039 BKN046 OVC080 09/08 A2928 1670 89 1400 180/14 RMK AO2 $
94908KDBQ DBQ20011124180511911/24/01 18:05:31  5-MIN KDBQ 250005Z 18015G22KT 10SM SCT039 BKN049 OVC075 09/08 A2928 1670 89 1400 180/15G22 RMK AO2 $
94908KDBQ DBQ20011124181011211/24/01 18:10:31  5-MIN KDBQ 250010Z 18017G22KT 10SM SCT039 OVC049 09/08 A2928 1670 89 1400 180/17G22 RMK AO2 $
94908KDBQ DBQ20011124181511211/24/01 18:15:31  5-MIN KDBQ 250015Z 19017G22KT 10SM SCT039 OVC047 09/08 A2928 1670 89 1400 190/17G22 RMK AO2 $
94908KDBQ DBQ20011124182010611/24/01 18:20:31  5-MIN KDBQ 250020Z 19018KT 10SM BKN041 OVC047 09/07 A2929 1670 86 1400 190/18 RMK AO2 $
94908KDBQ DBQ20011124182509911/24/01 18:25:31  5-MIN KDBQ 250025Z 18017KT 10SM OVC044 09/07 A2929 1670 86 1400 180/17 RMK AO2 $
94908KDBQ DBQ20011124183010611/24/01 18:30:31  5-MIN KDBQ 250030Z 19019KT 10SM FEW020 OVC044 09/07 A2929 1670 86 1400 180/19 RMK AO2 $
94908KDBQ DBQ20011124183512811/24/01 18:35:31  5-MIN KDBQ 250035Z 19018G23KT 10SM -RA FEW020 OVC046 09/07 A2929 1670 86 1400 190/18G23 RMK AO2 RAB35 P0000 $
94908KDBQ DBQ20011124184013511/24/01 18:40:31  5-MIN KDBQ 250040Z 19016G23KT 10SM -RA FEW018 SCT023 OVC046 09/07 A2929 1670 86 1400 180/16G23 RMK AO2 RAB35 P0000 $
94908KDBQ DBQ20011124184512811/24/01 18:45:31  5-MIN KDBQ 250045Z 18017G21KT 10SM -RA BKN020 OVC046 09/07 A2929 1670 89 1400 180/17G21 RMK AO2 RAB35 P0000 $
94908KDBQ DBQ20011124185014411/24/01 18:50:31  5-MIN KDBQ 250050Z 19015G21KT 10SM SCT018 OVC048 09/07 A2929 1670 89 1400 190/15G21 RMK AO2 RAB35E48 SLP919 P0000 T00890072 $
94908KDBQ DBQ20011124185514511/24/01 18:55:31  5-MIN KDBQ 250055Z 19016KT 10SM SCT018 BKN039 OVC046 09/07 A2929 1660 89 1400 190/16 RMK AO2 RAB35E48 SLP920 P0000 T00890072 $
94908KDBQ DBQ20011124190011211/24/01 19:00:31  5-MIN KDBQ 250100Z 19016KT 9SM FEW016 BKN021 OVC048 09/07 A2929 1670 89 1400 190/16 RMK AO2 $
94908KDBQ DBQ20011124190511211/24/01 19:05:31  5-MIN KDBQ 250105Z 19016KT 7SM SCT016 BKN021 OVC050 09/07 A2929 1660 89 1400 190/16 RMK AO2 $
94908KDBQ DBQ20011124191011211/24/01 19:10:31  5-MIN KDBQ 250110Z 19015KT 7SM SCT014 BKN021 OVC037 09/07 A2929 1660 89 1400 190/15 RMK AO2 $
94908KDBQ DBQ20011124191511211/24/01 19:15:31  5-MIN KDBQ 250115Z 19016KT 9SM SCT014 BKN021 OVC050 09/08 A2930 1660 93 1400 190/16 RMK AO2 $
94908KDBQ DBQ20011124192011311/24/01 19:20:31  5-MIN KDBQ 250120Z 19015KT 10SM SCT014 BKN021 OVC039 09/07 A2930 1660 89 1400 180/15 RMK AO2 $
94908KDBQ DBQ20011124192511311/24/01 19:25:31  5-MIN KDBQ 250125Z 19016KT 10SM SCT016 BKN021 OVC037 09/07 A2930 1660 89 1400 180/16 RMK AO2 $
94908KDBQ DBQ20011124193011311/24/01 19:30:31  5-MIN KDBQ 250130Z 19015KT 10SM SCT016 BKN024 OVC037 09/07 A2930 1660 89 1400 190/15 RMK AO2 $
94908KDBQ DBQ20011124193511111/24/01 19:35:31  5-MIN KDBQ 250135Z 19013KT 10SM SCT016 BKN024 OVC037 09/07 A2930 1660 89 1400 190/13 RMK AO2
94908KDBQ DBQ20011124194011111/24/01 19:40:31  5-MIN KDBQ 250140Z 18015KT 10SM FEW014 BKN021 OVC037 09/07 A2930 1660 89 1400 180/15 RMK AO2
94908KDBQ DBQ20011124194511611/24/01 19:45:31  5-MIN KDBQ 250145Z 19017G23KT 9SM BKN017 BKN023 OVC037 09/07 A2930 1660 89 1400 190/17G23 RMK AO2
94908KDBQ DBQ20011124195014911/24/01 19:50:31  5-MIN KDBQ 250150Z 19014G23KT 8SM -RA SCT013 BKN022 OVC035 08/07 A2930 1650 93 1300 190/14G23 RMK AO2 RAB49 SLP924 P0000 T00830072
94908KDBQ DBQ20011124195514611/24/01 19:55:31  5-MIN KDBQ 250155Z 18013KT 6SM -RA BR SCT013 BKN019 OVC023 08/07 A2930 1650 93 1300 180/13 RMK AO2 RAB49 SLP924 P0000 T00830072
94908KDBQ DBQ20011124200013311/24/01 20:00:31  5-MIN KDBQ 250200Z AUTO 18013KT 5SM -RA BR SCT009 BKN013 OVC019 08/07 A2930 1660 93 1300 180/13 RMK AO2 P0000 TSNO
94908KDBQ DBQ20011124200513811/24/01 20:05:31  5-MIN KDBQ 250205Z AUTO 18013KT 5SM -RA BR BKN009 OVC017 08/07 A2930 1650 93 1300 180/13 RMK AO2 CIG 007V012 P0000 TSNO
94908KDBQ DBQ20011124201012611/24/01 20:10:31  5-MIN KDBQ 250210Z AUTO 18012KT 5SM -RA BR SCT009 OVC014 08/08 A2930 1660 96 1300 180/12 RMK AO2 P0001 TSNO
94908KDBQ DBQ20011124201513811/24/01 20:15:31  5-MIN KDBQ 250215Z AUTO 18011KT 6SM -RA BR BKN009 OVC014 08/08 A2930 1650 96 1300 170/11 RMK AO2 CIG 006V011 P0001 TSNO
94908KDBQ DBQ20011124202013811/24/01 20:20:31  5-MIN KDBQ 250220Z AUTO 17009KT 6SM -RA BR BKN009 OVC014 08/08 A2930 1650 96 1300 170/09 RMK AO2 CIG 004V010 P0001 TSNO
94908KDBQ DBQ20011124202514411/24/01 20:25:31  5-MIN KDBQ 250225Z AUTO 17013G18KT 6SM -RA BR FEW005 OVC011 08/08 A2930 1660 96 1300 170/13G18 RMK AO2 CIG 008V014 P0001 TSNO
94908KDBQ DBQ20011124203013811/24/01 20:30:31  5-MIN KDBQ 250230Z AUTO 18014KT 6SM -RA BR BKN008 OVC012 08/08 A2930 1660 96 1300 170/14 RMK AO2 CIG 004V011 P0001 TSNO
94908KDBQ DBQ20011124203513511/24/01 20:35:31  5-MIN KDBQ 250235Z AUTO 17014KT 7SM -RA BKN008 OVC014 08/07 A2930 1660 93 1300 170/14 RMK AO2 CIG 004V012 P0001 TSNO
94908KDBQ DBQ20011124204013511/24/01 20:40:31  5-MIN KDBQ 250240Z AUTO 18012KT 7SM -RA BKN008 OVC014 08/07 A2930 1660 93 1300 170/12 RMK AO2 CIG 004V010 P0001 TSNO
94908KDBQ DBQ20011124204514411/24/01 20:45:31  5-MIN KDBQ 250245Z AUTO 18013G18KT 6SM -RA BR BKN008 OVC012 08/07 A2930 1660 93 1300 170/13G18 RMK AO2 CIG 004V011 P0001 TSNO
94908KDBQ DBQ20011124205017311/24/01 20:50:31  5-MIN KDBQ 250250Z AUTO 17014G18KT 6SM -RA BR BKN008 OVC012 08/08 A2930 1660 96 1300 170/14G18 RMK AO2 CIG 005V011 SLP923 P0001 60001 T00830078 51021 TSNO
94908KDBQ DBQ20011124205516911/24/01 20:55:31  5-MIN KDBQ 250255Z AUTO 17011KT 5SM BR BKN008 OVC013 08/08 A2930 1660 96 1300 170/11 RMK AO2 RAE51 CIG 005V011 SLP923 P0001 60001 T00830078 50006 TSNO
94908KDBQ DBQ20011124210013411/24/01 21:00:31  5-MIN KDBQ 250300Z AUTO 18013KT 5SM BR BKN008 OVC013 08/08 A2930 1660 96 1300 170/13 RMK AO2 CIG 005V010 P0001 TSNO
94908KDBQ DBQ20011124210514411/24/01 21:05:31  5-MIN KDBQ 250305Z AUTO 17010KT 4SM -RA BR BKN008 OVC013 08/08 A2930 1660 96 1300 170/10 RMK AO2 RAB01 CIG 004V010 P0001 TSNO
94908KDBQ DBQ20011124211014411/24/01 21:10:31  5-MIN KDBQ 250310Z AUTO 18013KT 4SM -RA BR BKN008 OVC012 08/08 A2930 1660 96 1300 180/13 RMK AO2 RAB01 CIG 004V009 P0001 TSNO
94908KDBQ DBQ20011124211514411/24/01 21:15:31  5-MIN KDBQ 250315Z AUTO 18011KT 4SM -RA BR BKN008 OVC012 08/07 A2930 1660 93 1300 180/11 RMK AO2 RAB01 CIG 004V009 P0001 TSNO
94908KDBQ DBQ20011124212014411/24/01 21:20:31  5-MIN KDBQ 250320Z AUTO 17010KT 4SM -RA BR BKN008 OVC012 08/07 A2930 1660 93 1300 170/10 RMK AO2 RAB01 CIG 004V009 P0001 TSNO
94908KDBQ DBQ20011124212514411/24/01 21:25:31  5-MIN KDBQ 250325Z AUTO 18012KT 4SM -RA BR BKN008 OVC012 08/07 A2930 1660 93 1300 170/12 RMK AO2 RAB01 CIG 004V009 P0001 TSNO
94908KDBQ DBQ20011124213014411/24/01 21:30:31  5-MIN KDBQ 250330Z AUTO 17014KT 4SM -RA BR BKN008 OVC012 08/07 A2930 1660 93 1300 170/14 RMK AO2 RAB01 CIG 004V009 P0001 TSNO
94908KDBQ DBQ20011124213514411/24/01 21:35:31  5-MIN KDBQ 250335Z AUTO 18012KT 3SM -RA BR BKN008 OVC012 08/08 A2930 1660 96 1300 180/12 RMK AO2 RAB01 CIG 004V009 P0001 TSNO
94908KDBQ DBQ20011124214014411/24/01 21:40:31  5-MIN KDBQ 250340Z AUTO 18012KT 3SM -RA BR BKN008 OVC012 08/08 A2930 1660 96 1300 180/12 RMK AO2 RAB01 CIG 004V009 P0002 TSNO
94908KDBQ DBQ20011124214514411/24/01 21:45:31  5-MIN KDBQ 250345Z AUTO 18012KT 4SM -RA BR BKN008 OVC012 08/08 A2929 1660 96 1300 180/12 RMK AO2 RAB01 CIG 004V009 P0002 TSNO
94908KDBQ DBQ20011124215016111/24/01 21:50:31  5-MIN KDBQ 250350Z AUTO 18011KT 4SM -RA BR BKN006 OVC010 08/08 A2929 1660 96 1300 180/11 RMK AO2 RAB01 CIG 004V009 SLP921 P0002 T00830078 TSNO
94908KDBQ DBQ20011124215516111/24/01 21:55:31  5-MIN KDBQ 250355Z AUTO 18011KT 4SM -RA BR BKN006 OVC012 08/08 A2929 1660 96 1300 180/11 RMK AO2 RAB01 CIG 004V010 SLP920 P0002 T00830078 TSNO
94908KDBQ DBQ20011124220013811/24/01 22:00:31  5-MIN KDBQ 250400Z AUTO 18012KT 4SM -RA BR BKN006 OVC011 08/08 A2929 1660 96 1300 180/12 RMK AO2 CIG 004V009 P0000 TSNO
94908KDBQ DBQ20011124220513111/24/01 22:05:31  5-MIN KDBQ 250405Z AUTO 18011KT 5SM -RA BR OVC006 08/08 A2929 1660 96 1300 180/11 RMK AO2 CIG 004V009 P0000 TSNO
94908KDBQ DBQ20011124221013011/24/01 22:10:31  5-MIN KDBQ 250410Z AUTO 18011KT 7SM OVC006 08/08 A2929 1660 96 1300 180/11 RMK AO2 RAE10 CIG 004V011 P0000 TSNO
94908KDBQ DBQ20011124221513011/24/01 22:15:31  5-MIN KDBQ 250415Z AUTO 18012KT 9SM OVC008 08/08 A2929 1660 96 1300 180/12 RMK AO2 RAE10 CIG 004V010 P0000 TSNO
94908KDBQ DBQ20011124222013011/24/01 22:20:31  5-MIN KDBQ 250420Z AUTO 18011KT 7SM OVC008 08/08 A2929 1660 96 1300 180/11 RMK AO2 RAE10 CIG 004V010 P0000 TSNO
94908KDBQ DBQ20011124222513811/24/01 22:25:31  5-MIN KDBQ 250425Z AUTO 18010KT 4SM -RA BR BKN008 OVC013 08/08 A2929 1660 96 1300 180/10 RMK AO2 CIG 004V010 P0000 TSNO
94908KDBQ DBQ20011124223013811/24/01 22:30:31  5-MIN KDBQ 250430Z AUTO 18012KT 3SM -RA BR BKN008 OVC013 08/08 A2929 1660 96 1300 180/12 RMK AO2 CIG 004V010 P0000 TSNO
94908KDBQ DBQ20011124223513811/24/01 22:35:31  5-MIN KDBQ 250435Z AUTO 18011KT 3SM -RA BR BKN008 OVC013 08/08 A2929 1660 96 1300 180/11 RMK AO2 CIG 004V010 P0000 TSNO
94908KDBQ DBQ20011124224013111/24/01 22:40:31  5-MIN KDBQ 250440Z AUTO 18012KT 4SM -RA BR OVC008 08/08 A2929 1660 96 1300 180/12 RMK AO2 CIG 004V012 P0000 TSNO
94908KDBQ DBQ20011124224514011/24/01 22:45:31  5-MIN KDBQ 250445Z AUTO 18012KT 5SM BR BKN006 OVC011 08/08 A2929 1660 96 1300 180/12 RMK AO2 RAE43 CIG 004V009 P0000 TSNO
94908KDBQ DBQ20011124225015711/24/01 22:50:31  5-MIN KDBQ 250450Z AUTO 18012KT 6SM BR BKN006 OVC011 08/08 A2930 1660 96 1300 180/12 RMK AO2 RAE43 CIG 004V008 SLP922 P0000 T00830078 TSNO
94908KDBQ DBQ20011124225515711/24/01 22:55:31  5-MIN KDBQ 250455Z AUTO 18012KT 6SM BR BKN006 OVC011 08/08 A2930 1660 96 1300 180/12 RMK AO2 RAE43 CIG 004V009 SLP922 P0000 T00830078 TSNO
94908KDBQ DBQ20011124230012811/24/01 23:00:31  5-MIN KDBQ 250500Z AUTO 18013KT 5SM BR BKN006 OVC011 08/08 A2930 1660 96 1300 180/13 RMK AO2 CIG 004V008 TSNO
94908KDBQ DBQ20011124230512811/24/01 23:05:31  5-MIN KDBQ 250505Z AUTO 18011KT 4SM BR BKN006 OVC011 08/08 A2930 1660 96 1300 180/11 RMK AO2 CIG 005V008 TSNO
94908KDBQ DBQ20011124231012811/24/01 23:10:31  5-MIN KDBQ 250510Z AUTO 19012KT 5SM BR BKN006 OVC011 08/08 A2930 1660 96 1300 190/12 RMK AO2 CIG 005V008 TSNO
94908KDBQ DBQ20011124231512511/24/01 23:15:31  5-MIN KDBQ 250515Z AUTO 19013KT 7SM BKN008 OVC013 08/08 A2930 1650 96 1300 190/13 RMK AO2 CIG 005V010 TSNO
94908KDBQ DBQ20011124232012611/24/01 23:20:31  5-MIN KDBQ 250520Z AUTO 19013KT 10SM BKN008 OVC013 08/07 A2931 1650 93 1300 190/13 RMK AO2 CIG 005V011 TSNO
94908KDBQ DBQ20011124232511411/24/01 23:25:31  5-MIN KDBQ 250525Z AUTO 19013KT 10SM SCT008 OVC011 08/07 A2931 1650 93 1300 190/13 RMK AO2 TSNO
94908KDBQ DBQ20011124233011411/24/01 23:30:31  5-MIN KDBQ 250530Z AUTO 19014KT 10SM FEW006 OVC011 08/07 A2931 1650 93 1300 190/14 RMK AO2 TSNO
94908KDBQ DBQ20011124233510711/24/01 23:35:31  5-MIN KDBQ 250535Z AUTO 20014KT 10SM OVC011 08/07 A2931 1650 93 1300 200/14 RMK AO2 TSNO
94908KDBQ DBQ20011124234011911/24/01 23:40:31  5-MIN KDBQ 250540Z AUTO 20013KT 10SM OVC011 08/07 A2931 1650 93 1300 200/13 RMK AO2 CIG 006V015 TSNO
94908KDBQ DBQ20011124234511811/24/01 23:45:31  5-MIN KDBQ 250545Z AUTO 20013KT 9SM OVC011 08/07 A2932 1640 93 1300 200/13 RMK AO2 CIG 008V014 TSNO
94908KDBQ DBQ20011124235016911/24/01 23:50:31  5-MIN KDBQ 250550Z AUTO 20014KT 7SM OVC009 08/07 A2932 1640 93 1300 200/14 RMK AO2 CIG 007V012 SLP928 60003 T00830072 10094 20083 401560083 50006 TSNO
94908KDBQ DBQ20011124235516911/24/01 23:55:31  5-MIN KDBQ 250555Z AUTO 20015KT 8SM OVC009 08/07 A2932 1640 93 1300 200/15 RMK AO2 CIG 007V012 SLP928 60003 T00830072 10094 20083 401560083 53006 TSNO
94908KDBQ DBQ20011125000011811/25/01 00:00:31  5-MIN KDBQ 250600Z AUTO 21015KT 9SM OVC009 08/07 A2932 1640 93 1300 210/15 RMK AO2 CIG 007V012 TSNO
94908KDBQ DBQ20011125000511811/25/01 00:05:31  5-MIN KDBQ 250605Z AUTO 20014KT 9SM OVC009 08/07 A2932 1640 93 1300 200/14 RMK AO2 CIG 007V012 TSNO
94908KDBQ DBQ20011125001011911/25/01 00:10:31  5-MIN KDBQ 250610Z AUTO 21014KT 10SM OVC009 08/07 A2932 1640 93 1300 200/14 RMK AO2 CIG 007V012 TSNO
94908KDBQ DBQ20011125001510711/25/01 00:15:31  5-MIN KDBQ 250615Z AUTO 21013KT 10SM OVC009 08/07 A2933 1630 96 1200 210/13 RMK AO2 TSNO
94908KDBQ DBQ20011125002010711/25/01 00:20:31  5-MIN KDBQ 250620Z AUTO 21012KT 10SM OVC009 08/07 A2933 1630 93 1200 210/12 RMK AO2 TSNO
94908KDBQ DBQ20011125002510611/25/01 00:25:31  5-MIN KDBQ 250625Z AUTO 21014KT 9SM OVC007 08/07 A2933 1630 93 1200 210/14 RMK AO2 TSNO
94908KDBQ DBQ20011125003010611/25/01 00:30:31  5-MIN KDBQ 250630Z AUTO 21012KT 8SM OVC007 08/07 A2933 1630 93 1200 210/12 RMK AO2 TSNO
94908KDBQ DBQ20011125003510611/25/01 00:35:31  5-MIN KDBQ 250635Z AUTO 21010KT 9SM OVC007 08/07 A2933 1630 93 1200 210/10 RMK AO2 TSNO
94908KDBQ DBQ20011125004010711/25/01 00:40:31  5-MIN KDBQ 250640Z AUTO 21014KT 10SM OVC007 08/07 A2933 1630 96 1200 210/14 RMK AO2 TSNO
94908KDBQ DBQ20011125004510711/25/01 00:45:31  5-MIN KDBQ 250645Z AUTO 21013KT 10SM OVC007 08/07 A2934 1620 96 1200 210/13 RMK AO2 TSNO
94908KDBQ DBQ20011125005012411/25/01 00:50:31  5-MIN KDBQ 250650Z AUTO 22013KT 10SM OVC007 08/07 A2934 1620 96 1200 220/13 RMK AO2 SLP936 T00780072 TSNO
94908KDBQ DBQ20011125005512411/25/01 00:55:31  5-MIN KDBQ 250655Z AUTO 22012KT 10SM OVC005 08/07 A2934 1620 96 1200 220/12 RMK AO2 SLP937 T00780072 TSNO
94908KDBQ DBQ20011125010010711/25/01 01:00:31  5-MIN KDBQ 250700Z AUTO 21013KT 10SM OVC005 08/07 A2935 1610 96 1200 210/13 RMK AO2 TSNO
94908KDBQ DBQ20011125010510711/25/01 01:05:31  5-MIN KDBQ 250705Z AUTO 21012KT 10SM OVC005 08/07 A2935 1610 96 1200 210/12 RMK AO2 TSNO
94908KDBQ DBQ20011125011010711/25/01 01:10:31  5-MIN KDBQ 250710Z AUTO 21014KT 10SM OVC005 08/07 A2935 1610 96 1200 210/14 RMK AO2 TSNO
94908KDBQ DBQ20011125011510711/25/01 01:15:31  5-MIN KDBQ 250715Z AUTO 21015KT 10SM OVC005 08/07 A2935 1610 96 1200 210/15 RMK AO2 TSNO
94908KDBQ DBQ20011125012010711/25/01 01:20:31  5-MIN KDBQ 250720Z AUTO 22011KT 10SM OVC005 08/07 A2936 1600 96 1200 210/11 RMK AO2 TSNO
94908KDBQ DBQ20011125012510711/25/01 01:25:31  5-MIN KDBQ 250725Z AUTO 21013KT 10SM OVC005 08/07 A2936 1600 96 1200 210/13 RMK AO2 TSNO
94908KDBQ DBQ20011125013010711/25/01 01:30:31  5-MIN KDBQ 250730Z AUTO 21012KT 10SM OVC005 08/07 A2937 1600 96 1100 210/12 RMK AO2 TSNO
94908KDBQ DBQ20011125013510711/25/01 01:35:31  5-MIN KDBQ 250735Z AUTO 21011KT 10SM OVC005 08/07 A2937 1590 96 1100 210/11 RMK AO2 TSNO
94908KDBQ DBQ20011125014010711/25/01 01:40:31  5-MIN KDBQ 250740Z AUTO 21012KT 10SM OVC005 08/07 A2937 1590 96 1100 210/12 RMK AO2 TSNO
94908KDBQ DBQ20011125014510611/25/01 01:45:31  5-MIN KDBQ 250745Z AUTO 21011KT 7SM OVC005 08/07 A2937 1590 96 1100 210/11 RMK AO2 TSNO
94908KDBQ DBQ20011125015012611/25/01 01:50:31  5-MIN KDBQ 250750Z AUTO 22011KT 6SM BR OVC005 08/07 A2937 1590 96 1100 210/11 RMK AO2 SLP947 T00780072 TSNO
94908KDBQ DBQ20011125015512611/25/01 01:55:31  5-MIN KDBQ 250755Z AUTO 22013KT 6SM BR OVC005 08/07 A2937 1590 96 1100 220/13 RMK AO2 SLP947 T00780072 TSNO
94908KDBQ DBQ20011125020010911/25/01 02:00:31  5-MIN KDBQ 250800Z AUTO 22013KT 6SM BR OVC005 08/07 A2938 1590 96 1100 220/13 RMK AO2 TSNO
94908KDBQ DBQ20011125020510611/25/01 02:05:31  5-MIN KDBQ 250805Z AUTO 22013KT 7SM OVC005 08/07 A2938 1580 96 1100 220/13 RMK AO2 TSNO
94908KDBQ DBQ20011125021010911/25/01 02:10:31  5-MIN KDBQ 250810Z AUTO 22014KT 6SM BR OVC005 08/07 A2938 1580 96 1100 220/14 RMK AO2 TSNO
94908KDBQ DBQ20011125021510911/25/01 02:15:31  5-MIN KDBQ 250815Z AUTO 22015KT 5SM BR OVC005 08/07 A2938 1590 96 1100 220/15 RMK AO2 TSNO
94908KDBQ DBQ20011125022012511/25/01 02:20:31  5-MIN KDBQ 250820Z AUTO 22013KT 5SM -RA BR OVC005 08/07 A2938 1580 96 1100 220/13 RMK AO2 RAB17 P0000 TSNO
94908KDBQ DBQ20011125022513111/25/01 02:25:31  5-MIN KDBQ 250825Z AUTO 25017G21KT 6SM -RA BR OVC005 08/07 A2939 1580 93 1200 250/17G21 RMK AO2 RAB17 P0001 TSNO
94908KDBQ DBQ20011125023012211/25/01 02:30:31  5-MIN KDBQ 250830Z AUTO 25022KT 7SM -RA OVC005 07/07 A2939 1580 96 1100 250/22 RMK AO2 RAB17 P0001 TSNO
94908KDBQ DBQ20011125023512111/25/01 02:35:31  5-MIN KDBQ 250835Z AUTO 25018KT 9SM OVC005 07/06 A2939 1580 96 1000 250/18 RMK AO2 RAB17E35 P0001 TSNO
94908KDBQ DBQ20011125024012711/25/01 02:40:31  5-MIN KDBQ 250840Z AUTO 25015G23KT 7SM OVC005 07/06 A2939 1570 96 1000 250/15G23 RMK AO2 RAB17E35 P0001 TSNO
94908KDBQ DBQ20011125024512111/25/01 02:45:31  5-MIN KDBQ 250845Z AUTO 25017KT 7SM OVC005 07/06 A2940 1570 96 1000 240/17 RMK AO2 RAB17E35 P0001 TSNO
94908KDBQ DBQ20011125025015011/25/01 02:50:31  5-MIN KDBQ 250850Z AUTO 24018KT 8SM OVC005 07/06 A2940 1570 93 1000 240/18 RMK AO2 RAB17E35 SLP956 P0001 60001 T00670056 53006 TSNO
94908KDBQ DBQ20011125025515611/25/01 02:55:31  5-MIN KDBQ 250855Z AUTO 25017G24KT 10SM OVC005 06/06 A2940 1560 96 900 250/17G24 RMK AO2 RAB17E35 SLP958 P0001 60001 T00610056 52027 TSNO
94908KDBQ DBQ20011125030011211/25/01 03:00:31  5-MIN KDBQ 250900Z AUTO 25017G24KT 10SM OVC005 06/05 A2940 1560 93 900 250/17G24 RMK AO2 TSNO
94908KDBQ DBQ20011125030512511/25/01 03:05:31  5-MIN KDBQ 250905Z AUTO 24019KT 10SM BKN005 OVC009 06/04 A2941 1560 89 900 240/19 RMK AO2 CIG 004V008 TSNO
94908KDBQ DBQ20011125031013211/25/01 03:10:31  5-MIN KDBQ 250910Z AUTO 25018KT 10SM BKN009 OVC013 06/04 A2942 1550 92 800 250/18 RMK AO2 CIG 005V010 PRESRR TSNO
94908KDBQ DBQ20011125031513111/25/01 03:15:31  5-MIN KDBQ 250915Z AUTO 25017G22KT 10SM BKN009 OVC013 06/04 A2942 1540 92 800 250/17G22 RMK AO2 CIG 005V010 TSNO
94908KDBQ DBQ20011125032012411/25/01 03:20:31  5-MIN KDBQ 250920Z AUTO 25018G22KT 10SM OVC009 06/04 A2943 1540 92 800 250/18G22 RMK AO2 CIG 005V013 TSNO
94908KDBQ DBQ20011125032511811/25/01 03:25:31  5-MIN KDBQ 250925Z AUTO 24020KT 10SM OVC009 06/04 A2943 1540 92 800 240/20 RMK AO2 CIG 006V010 TSNO
94908KDBQ DBQ20011125033012411/25/01 03:30:31  5-MIN KDBQ 250930Z AUTO 25017G22KT 10SM OVC009 05/04 A2944 1530 92 700 250/17G22 RMK AO2 CIG 007V013 TSNO
94908KDBQ DBQ20011125033511811/25/01 03:35:31  5-MIN KDBQ 250935Z AUTO 24019KT 10SM OVC009 05/04 A2944 1530 92 700 240/19 RMK AO2 CIG 007V012 TSNO
94908KDBQ DBQ20011125034011211/25/01 03:40:31  5-MIN KDBQ 250940Z AUTO 24021G25KT 10SM OVC009 05/04 A2944 1520 92 700 240/21G25 RMK AO2 TSNO
94908KDBQ DBQ20011125034513011/25/01 03:45:31  5-MIN KDBQ 250945Z AUTO 25021G26KT 10SM OVC009 05/03 A2945 1520 89 700 240/21G26 RMK AO2 PK WND 24026/0945 TSNO
94908KDBQ DBQ20011125035014611/25/01 03:50:31  5-MIN KDBQ 250950Z AUTO 24020G27KT 9SM OVC009 05/03 A2945 1520 89 700 240/20G27 RMK AO2 PK WND 24027/0946 SLP977 T00500033 TSNO
94908KDBQ DBQ20011125035515811/25/01 03:55:31  5-MIN KDBQ 250955Z AUTO 25018G26KT 8SM OVC009 05/03 A2945 1520 89 700 250/18G26 RMK AO2 PK WND 24027/0946 CIG 009V013 SLP977 T00500033 TSNO
94908KDBQ DBQ20011125040012911/25/01 04:00:31  5-MIN KDBQ 251000Z AUTO 25022G25KT 9SM OVC011 05/03 A2946 1510 89 700 250/22G25 RMK AO2 PK WND 25026/1000 TSNO
94908KDBQ DBQ20011125040513011/25/01 04:05:31  5-MIN KDBQ 251005Z AUTO 25018G25KT 10SM OVC011 04/03 A2947 1500 92 600 250/18G25 RMK AO2 PK WND 25026/1000 TSNO
94908KDBQ DBQ20011125041013011/25/01 04:10:31  5-MIN KDBQ 251010Z AUTO 25019G28KT 10SM OVC011 04/03 A2947 1500 92 600 250/19G28 RMK AO2 PK WND 25028/1007 TSNO
94908KDBQ DBQ20011125041513011/25/01 04:15:31  5-MIN KDBQ 251015Z AUTO 25016G28KT 10SM OVC011 04/03 A2948 1490 92 600 250/16G28 RMK AO2 PK WND 25028/1007 TSNO
94908KDBQ DBQ20011125042013011/25/01 04:20:31  5-MIN KDBQ 251020Z AUTO 25022G27KT 10SM OVC011 04/03 A2948 1490 92 600 250/22G27 RMK AO2 PK WND 25028/1007 TSNO
94908KDBQ DBQ20011125042513011/25/01 04:25:31  5-MIN KDBQ 251025Z AUTO 25019G27KT 10SM OVC011 04/03 A2948 1490 89 600 250/19G27 RMK AO2 PK WND 25028/1007 TSNO
94908KDBQ DBQ20011125043013011/25/01 04:30:31  5-MIN KDBQ 251030Z AUTO 25021G25KT 10SM OVC011 04/03 A2948 1490 89 600 250/21G25 RMK AO2 PK WND 25028/1007 TSNO
94908KDBQ DBQ20011125043514211/25/01 04:35:31  5-MIN KDBQ 251035Z AUTO 24022G28KT 10SM OVC011 04/03 A2949 1480 89 600 240/22G28 RMK AO2 PK WND 24028/1034 CIG 009V015 TSNO
94908KDBQ DBQ20011125044013711/25/01 04:40:31  5-MIN KDBQ 251040Z AUTO 25017G28KT 10SM OVC011 04/03 A2950 1470 92 500 250/17G28 RMK AO2 PK WND 24028/1034 PRESRR TSNO
94908KDBQ DBQ20011125044514911/25/01 04:45:31  5-MIN KDBQ 251045Z AUTO 25022G27KT 10SM BKN011 OVC017 04/03 A2950 1470 92 500 250/22G27 RMK AO2 PK WND 24028/1034 CIG 009V013 TSNO
94908KDBQ DBQ20011125045015411/25/01 04:50:31  5-MIN KDBQ 251050Z AUTO 26023G27KT 10SM BKN011 OVC015 04/02 A2951 1460 89 500 260/23G27 RMK AO2 PK WND 24028/1034 SLP998 T00390022 TSNO
94908KDBQ DBQ20011125045516011/25/01 04:55:31  5-MIN KDBQ 251055Z AUTO 26018G27KT 9SM BKN011 OVC019 04/02 A2952 1450 89 500 250/18G27 RMK AO2 PK WND 24028/1034 PRESRR SLP000 T00390022 TSNO
94908KDBQ DBQ20011125050010511/25/01 05:00:31  5-MIN KDBQ 251100Z AUTO 25017KT 9SM OVC013 04/02 A2952 1450 89 500 250/17 RMK AO2 TSNO
94908KDBQ DBQ20011125050512911/25/01 05:05:31  5-MIN KDBQ 251105Z AUTO 25019G27KT 7SM OVC013 04/02 A2952 1450 89 500 250/19G27 RMK AO2 PK WND 25027/1101 TSNO
94908KDBQ DBQ20011125051012911/25/01 05:10:31  5-MIN KDBQ 251110Z AUTO 26017G27KT 7SM OVC013 04/02 A2953 1440 89 500 250/17G27 RMK AO2 PK WND 25027/1101 TSNO
94908KDBQ DBQ20011125051512911/25/01 05:15:31  5-MIN KDBQ 251115Z AUTO 26020G27KT 7SM OVC011 04/02 A2953 1440 89 500 250/20G27 RMK AO2 PK WND 25027/1113 TSNO
94908KDBQ DBQ20011125052012911/25/01 05:20:31  5-MIN KDBQ 251120Z AUTO 26020G27KT 7SM OVC011 03/02 A2954 1430 92 400 260/20G27 RMK AO2 PK WND 25027/1113 TSNO
94908KDBQ DBQ20011125052512911/25/01 05:25:31  5-MIN KDBQ 251125Z AUTO 26019G26KT 8SM OVC011 03/02 A2954 1430 92 400 250/19G26 RMK AO2 PK WND 25027/1113 TSNO
94908KDBQ DBQ20011125053012911/25/01 05:30:31  5-MIN KDBQ 251130Z AUTO 26017G26KT 8SM OVC011 03/02 A2955 1420 92 400 260/17G26 RMK AO2 PK WND 25027/1113 TSNO
94908KDBQ DBQ20011125053512611/25/01 05:35:31  5-MIN KDBQ 251135Z 26019G26KT 8SM BKN011 OVC017 03/02 A2955 1420 92 400 260/19G26 RMK AO2 PK WND 25027/1113
94908KDBQ DBQ20011125054012611/25/01 05:40:31  5-MIN KDBQ 251140Z 25016G26KT 9SM BKN011 OVC024 03/02 A2956 1420 92 400 250/16G26 RMK AO2 PK WND 25027/1113
94908KDBQ DBQ20011125054512011/25/01 05:45:31  5-MIN KDBQ 251145Z 26018KT 8SM BKN011 OVC016 03/03 A2956 1410 96 400 260/18 RMK AO2 PK WND 25027/1113
94908KDBQ DBQ20011125055018511/25/01 05:50:31  5-MIN KDBQ 251150Z 25017G22KT 7SM BKN009 OVC014 03/03 A2956 1410 96 400 250/17G22 RMK AO2 PK WND 25027/1113 CIG 007V011 SLP016 60001 70039 T00330028 10083 20033 52027
94908KDBQ DBQ20011125055517911/25/01 05:55:31  5-MIN KDBQ 251155Z 26021KT 8SM BKN009 OVC016 03/02 A2956 1410 92 400 260/21 RMK AO2 PK WND 25027/1113 CIG 007V014 SLP017 60001 70039 T00330022 10083 20033 51054
94908KDBQ DBQ20011125060010311/25/01 06:00:31  5-MIN KDBQ 251200Z 26018KT 10SM BKN009 OVC016 03/02 A2957 1400 92 400 260/18 RMK AO2
94908KDBQ DBQ20011125060512711/25/01 06:05:31  5-MIN KDBQ 251205Z 26020G26KT 10SM BKN009 OVC016 03/02 A2958 1400 92 400 260/20G26 RMK AO2 PK WND 26026/1202
94908KDBQ DBQ20011125061012711/25/01 06:10:31  5-MIN KDBQ 251210Z 26020G28KT 10SM BKN009 OVC016 03/02 A2958 1390 92 400 260/20G28 RMK AO2 PK WND 28028/1210
94908KDBQ DBQ20011125061512611/25/01 06:15:31  5-MIN KDBQ 251215Z 26021G28KT 8SM BKN009 OVC016 03/02 A2959 1390 92 400 260/21G28 RMK AO2 PK WND 28028/1210
94908KDBQ DBQ20011125062012611/25/01 06:20:31  5-MIN KDBQ 251220Z 26020G26KT 9SM BKN009 OVC016 04/02 A2959 1380 89 400 260/20G26 RMK AO2 PK WND 28028/1210
94908KDBQ DBQ20011125062512711/25/01 06:25:31  5-MIN KDBQ 251225Z 26019G27KT 10SM BKN009 OVC016 04/02 A2960 1380 89 400 260/19G27 RMK AO2 PK WND 28028/1210
94908KDBQ DBQ20011125063012711/25/01 06:30:31  5-MIN KDBQ 251230Z 27021G28KT 10SM BKN009 OVC016 04/02 A2960 1380 89 400 260/21G28 RMK AO2 PK WND 25028/1226
94908KDBQ DBQ20011125063512711/25/01 06:35:31  5-MIN KDBQ 251235Z 26021G28KT 10SM BKN009 OVC016 04/02 A2960 1370 89 400 260/21G28 RMK AO2 PK WND 27028/1232
94908KDBQ DBQ20011125064012711/25/01 06:40:31  5-MIN KDBQ 251240Z 26020G28KT 10SM BKN009 OVC016 04/02 A2961 1370 89 400 260/20G28 RMK AO2 PK WND 27028/1232
94908KDBQ DBQ20011125064512011/25/01 06:45:31  5-MIN KDBQ 251245Z 26019G28KT 10SM OVC013 03/02 A2961 1360 92 300 260/19G28 RMK AO2 PK WND 27028/1243
94908KDBQ DBQ20011125065013711/25/01 06:50:31  5-MIN KDBQ 251250Z 26021G28KT 10SM OVC013 03/02 A2962 1360 92 300 260/21G28 RMK AO2 PK WND 27028/1243 SLP036 T00330022
94908KDBQ DBQ20011125065514411/25/01 06:55:31  5-MIN KDBQ 251255Z 27021G26KT 10SM OVC013 03/02 A2963 1350 92 300 270/21G26 RMK AO2 PK WND 27028/1243 PRESRR SLP038 T00330022
94908KDBQ DBQ20011125070010211/25/01 07:00:31  5-MIN KDBQ 251300Z 26020G26KT 10SM OVC013 03/02 A2963 1350 92 300 260/20G26 RMK AO2
94908KDBQ DBQ20011125070512011/25/01 07:05:31  5-MIN KDBQ 251305Z 26016G26KT 10SM OVC013 03/02 A2963 1350 92 300 260/16G26 RMK AO2 PK WND 27026/1301
94908KDBQ DBQ20011125071012011/25/01 07:10:31  5-MIN KDBQ 251310Z 26018G26KT 10SM OVC013 03/02 A2963 1340 92 300 260/18G26 RMK AO2 PK WND 27026/1301
94908KDBQ DBQ20011125071512011/25/01 07:15:31  5-MIN KDBQ 251315Z 26019G22KT 10SM OVC011 03/02 A2964 1340 92 300 260/19G22 RMK AO2 PK WND 27026/1301
94908KDBQ DBQ20011125072012011/25/01 07:20:31  5-MIN KDBQ 251320Z 27021G28KT 10SM OVC011 03/02 A2964 1340 92 300 260/21G28 RMK AO2 PK WND 27028/1318
94908KDBQ DBQ20011125072512011/25/01 07:25:31  5-MIN KDBQ 251325Z 27020G28KT 10SM OVC013 03/02 A2965 1330 89 300 270/20G28 RMK AO2 PK WND 27028/1318
94908KDBQ DBQ20011125073012011/25/01 07:30:31  5-MIN KDBQ 251330Z 27022G27KT 10SM OVC013 03/02 A2966 1320 89 300 260/22G27 RMK AO2 PK WND 27028/1318
94908KDBQ DBQ20011125073512011/25/01 07:35:31  5-MIN KDBQ 251335Z 26018G27KT 10SM OVC013 03/02 A2966 1320 92 300 260/18G27 RMK AO2 PK WND 27028/1318
94908KDBQ DBQ20011125074012011/25/01 07:40:31  5-MIN KDBQ 251340Z 26018G23KT 10SM OVC013 03/02 A2966 1320 89 300 260/18G23 RMK AO2 PK WND 27028/1318
94908KDBQ DBQ20011125074512711/25/01 07:45:31  5-MIN KDBQ 251345Z 26018G26KT 10SM OVC015 03/02 A2967 1310 89 300 260/18G26 RMK AO2 PK WND 27028/1318 PRESRR
94908KDBQ DBQ20011125075013711/25/01 07:50:31  5-MIN KDBQ 251350Z 26019G26KT 10SM OVC015 03/02 A2967 1310 89 300 260/19G26 RMK AO2 PK WND 27028/1318 SLP054 T00330017
94908KDBQ DBQ20011125075513711/25/01 07:55:31  5-MIN KDBQ 251355Z 27020G26KT 10SM OVC013 03/02 A2968 1300 89 200 260/20G26 RMK AO2 PK WND 27028/1318 SLP057 T00330017
94908KDBQ DBQ20011125080012711/25/01 08:00:31  5-MIN KDBQ 251400Z 26021G27KT 10SM OVC013 03/02 A2969 1290 89 200 260/21G27 RMK AO2 PK WND 26027/1400 PRESRR
94908KDBQ DBQ20011125080512711/25/01 08:05:31  5-MIN KDBQ 251405Z 27023G28KT 10SM OVC013 03/01 A2970 1290 85 200 270/23G28 RMK AO2 PK WND 26028/1405 PRESRR
94908KDBQ DBQ20011125081012011/25/01 08:10:31  5-MIN KDBQ 251410Z 27017G28KT 10SM OVC013 03/01 A2970 1280 85 200 270/17G28 RMK AO2 PK WND 26028/1405
94908KDBQ DBQ20011125081512011/25/01 08:15:31  5-MIN KDBQ 251415Z 27023G28KT 10SM OVC013 03/01 A2970 1280 85 200 270/23G28 RMK AO2 PK WND 27028/1415
94908KDBQ DBQ20011125082012011/25/01 08:20:31  5-MIN KDBQ 251420Z 27020G28KT 10SM OVC013 03/01 A2971 1270 85 200 260/20G28 RMK AO2 PK WND 27028/1418
94908KDBQ DBQ20011125082512011/25/01 08:25:31  5-MIN KDBQ 251425Z 27022G29KT 10SM OVC014 03/01 A2971 1270 85 200 270/22G29 RMK AO2 PK WND 28029/1421
94908KDBQ DBQ20011125083012011/25/01 08:30:31  5-MIN KDBQ 251430Z 27021G29KT 10SM OVC014 03/01 A2972 1270 85 200 270/21G29 RMK AO2 PK WND 28029/1421
94908KDBQ DBQ20011125083512011/25/01 08:35:31  5-MIN KDBQ 251435Z 27020G27KT 10SM OVC014 03/01 A2972 1260 82 200 260/20G27 RMK AO2 PK WND 28029/1421
94908KDBQ DBQ20011125084012011/25/01 08:40:31  5-MIN KDBQ 251440Z 27022G28KT 10SM OVC014 03/01 A2972 1260 82 200 270/22G28 RMK AO2 PK WND 28029/1421
94908KDBQ DBQ20011125084512011/25/01 08:45:31  5-MIN KDBQ 251445Z 26022G28KT 10SM OVC017 03/01 A2973 1260 82 200 260/22G28 RMK AO2 PK WND 28029/1421
94908KDBQ DBQ20011125085014311/25/01 08:50:31  5-MIN KDBQ 251450Z 27020G25KT 10SM OVC017 03/01 A2973 1260 82 200 270/20G25 RMK AO2 PK WND 28029/1421 SLP073 T00330006 51054
94908KDBQ DBQ20011125085514311/25/01 08:55:31  5-MIN KDBQ 251455Z 27021G26KT 10SM OVC017 03/01 A2973 1250 82 200 270/21G26 RMK AO2 PK WND 28029/1421 SLP074 T00330006 51055
94908KDBQ DBQ20011125090012011/25/01 09:00:31  5-MIN KDBQ 251500Z 27023G27KT 10SM OVC017 03/01 A2974 1250 82 200 270/23G27 RMK AO2 PK WND 27027/1459
94908KDBQ DBQ20011125090512011/25/01 09:05:31  5-MIN KDBQ 251505Z 27024G27KT 10SM OVC017 03/01 A2975 1240 82 200 270/24G27 RMK AO2 PK WND 27027/1505
94908KDBQ DBQ20011125091011411/25/01 09:10:31  5-MIN KDBQ 251510Z 27020KT 10SM OVC017 03/01 A2975 1240 82 200 270/20 RMK AO2 PK WND 27027/1505
94908KDBQ DBQ20011125091512011/25/01 09:15:31  5-MIN KDBQ 251515Z 27021G25KT 10SM OVC017 03/01 A2975 1230 82 200 260/21G25 RMK AO2 PK WND 27027/1505
94908KDBQ DBQ20011125092012011/25/01 09:20:31  5-MIN KDBQ 251520Z 27020G25KT 10SM OVC017 03/01 A2976 1230 82 100 270/20G25 RMK AO2 PK WND 27027/1505
94908KDBQ DBQ20011125092512011/25/01 09:25:31  5-MIN KDBQ 251525Z 27021G24KT 10SM OVC017 03/01 A2976 1220 82 100 270/21G24 RMK AO2 PK WND 27027/1505
94908KDBQ DBQ20011125093012011/25/01 09:30:31  5-MIN KDBQ 251530Z 27019G28KT 10SM OVC017 03/01 A2976 1220 82 100 270/19G28 RMK AO2 PK WND 27028/1526
94908KDBQ DBQ20011125093512011/25/01 09:35:31  5-MIN KDBQ 251535Z 27018G28KT 10SM OVC017 03/01 A2978 1210 82 100 270/18G28 RMK AO2 PK WND 27028/1526
94908KDBQ DBQ20011125094012011/25/01 09:40:31  5-MIN KDBQ 251540Z 28020G27KT 10SM OVC017 03/01 A2978 1210 82 100 280/20G27 RMK AO2 PK WND 27028/1526
94908KDBQ DBQ20011125094512711/25/01 09:45:31  5-MIN KDBQ 251545Z 27019G27KT 10SM OVC017 03/01 A2979 1200 82 100 270/19G27 RMK AO2 PK WND 27028/1526 PRESRR
94908KDBQ DBQ20011125095013711/25/01 09:50:31  5-MIN KDBQ 251550Z 27020G26KT 10SM OVC017 03/01 A2979 1200 82 100 270/20G26 RMK AO2 PK WND 27028/1526 SLP095 T00330006
94908KDBQ DBQ20011125095513711/25/01 09:55:31  5-MIN KDBQ 251555Z 28014G26KT 10SM OVC015 03/01 A2979 1200 82 100 270/14G26 RMK AO2 PK WND 27028/1526 SLP095 T00330006
94908KDBQ DBQ20011125100009611/25/01 10:00:31  5-MIN KDBQ 251600Z 26016KT 10SM OVC015 03/01 A2980 1190 85 100 260/16 RMK AO2
94908KDBQ DBQ20011125100509611/25/01 10:05:31  5-MIN KDBQ 251605Z 26015KT 10SM OVC015 03/01 A2980 1190 85 100 260/15 RMK AO2
94908KDBQ DBQ20011125101012011/25/01 10:10:31  5-MIN KDBQ 251610Z 26021G26KT 10SM OVC015 03/01 A2980 1190 82 100 260/21G26 RMK AO2 PK WND 28026/1607
94908KDBQ DBQ20011125101512011/25/01 10:15:31  5-MIN KDBQ 251615Z 27016G26KT 10SM OVC015 03/01 A2981 1180 82 100 270/16G26 RMK AO2 PK WND 28026/1607
94908KDBQ DBQ20011125102012011/25/01 10:20:31  5-MIN KDBQ 251620Z 26020G24KT 10SM OVC015 03/01 A2981 1180 82 100 260/20G24 RMK AO2 PK WND 28026/1607
94908KDBQ DBQ20011125102512011/25/01 10:25:31  5-MIN KDBQ 251625Z 27019G27KT 10SM OVC015 03/01 A2982 1180 82 100 270/19G27 RMK AO2 PK WND 27027/1623
94908KDBQ DBQ20011125103012011/25/01 10:30:31  5-MIN KDBQ 251630Z 28016G27KT 10SM OVC017 03/01 A2982 1170 82 100 270/16G27 RMK AO2 PK WND 27027/1623
94908KDBQ DBQ20011125103512011/25/01 10:35:31  5-MIN KDBQ 251635Z 27019G24KT 10SM OVC017 03/01 A2982 1170 82 100 270/19G24 RMK AO2 PK WND 27027/1623
94908KDBQ DBQ20011125104012011/25/01 10:40:31  5-MIN KDBQ 251640Z 28016G24KT 10SM OVC017 03/01 A2982 1170 82 100 280/16G24 RMK AO2 PK WND 27027/1623
94908KDBQ DBQ20011125104512011/25/01 10:45:31  5-MIN KDBQ 251645Z 27018G24KT 10SM OVC017 03/01 A2982 1170 82 100 270/18G24 RMK AO2 PK WND 27027/1623
94908KDBQ DBQ20011125105013711/25/01 10:50:31  5-MIN KDBQ 251650Z 27018G23KT 10SM OVC017 03/01 A2983 1160 82 100 270/18G23 RMK AO2 PK WND 27027/1623 SLP108 T00330006
94908KDBQ DBQ20011125105513711/25/01 10:55:31  5-MIN KDBQ 251655Z 26019G22KT 10SM OVC017 03/01 A2983 1160 82 100 260/19G22 RMK AO2 PK WND 27027/1623 SLP107 T00330006
94908KDBQ DBQ20011125110009611/25/01 11:00:31  5-MIN KDBQ 251700Z 26017KT 10SM OVC017 03/01 A2982 1170 82 100 260/17 RMK AO2
94908KDBQ DBQ20011125110509611/25/01 11:05:31  5-MIN KDBQ 251705Z 27018KT 10SM OVC017 04/01 A2983 1160 79 100 270/18 RMK AO2
94908KDBQ DBQ20011125111012011/25/01 11:10:31  5-MIN KDBQ 251710Z 28021G29KT 10SM OVC017 04/01 A2982 1170 79 100 280/21G29 RMK AO2 PK WND 28029/1707
94908KDBQ DBQ20011125111512011/25/01 11:15:31  5-MIN KDBQ 251715Z 28017G29KT 10SM OVC017 04/01 A2983 1170 79 100 280/17G29 RMK AO2 PK WND 28029/1707
94908KDBQ DBQ20011125112012011/25/01 11:20:31  5-MIN KDBQ 251720Z 27021G25KT 10SM OVC017 04/01 A2983 1160 79 100 270/21G25 RMK AO2 PK WND 28029/1707
94908KDBQ DBQ20011125112512011/25/01 11:25:31  5-MIN KDBQ 251725Z 27016G25KT 10SM OVC019 04/01 A2983 1160 79 100 270/16G25 RMK AO2 PK WND 28029/1707
94908KDBQ DBQ20011125113012011/25/01 11:30:31  5-MIN KDBQ 251730Z 27020G23KT 10SM OVC019 04/01 A2983 1160 79 100 270/20G23 RMK AO2 PK WND 28029/1707
94908KDBQ DBQ20011125113512011/25/01 11:35:31  5-MIN KDBQ 251735Z 28018G25KT 10SM OVC019 04/01 A2983 1160 79 100 280/18G25 RMK AO2 PK WND 28029/1707
94908KDBQ DBQ20011125114012011/25/01 11:40:31  5-MIN KDBQ 251740Z 27020G27KT 10SM OVC019 04/00 A2984 1160 76 100 270/20G27 RMK AO2 PK WND 28029/1707
94908KDBQ DBQ20011125114512011/25/01 11:45:31  5-MIN KDBQ 251745Z 27018G27KT 10SM OVC019 04/01 A2984 1160 79 100 270/18G27 RMK AO2 PK WND 28029/1707
94908KDBQ DBQ20011125115015511/25/01 11:50:31  5-MIN KDBQ 251750Z 26015G25KT 10SM OVC019 04/01 A2984 1150 79 100 260/15G25 RMK AO2 PK WND 28029/1707 SLP112 T00390006 10039 20033 51055
94908KDBQ DBQ20011125115515511/25/01 11:55:31  5-MIN KDBQ 251755Z 27016G26KT 10SM OVC019 04/01 A2985 1150 79 100 270/16G26 RMK AO2 PK WND 28029/1707 SLP113 T00390006 10039 20033 51037
94908KDBQ DBQ20011125120010211/25/01 12:00:31  5-MIN KDBQ 251800Z 26018G26KT 10SM OVC019 04/01 A2985 1150 79 100 260/18G26 RMK AO2
94908KDBQ DBQ20011125120512011/25/01 12:05:31  5-MIN KDBQ 251805Z 27020G26KT 10SM OVC019 04/01 A2985 1140 79 100 270/20G26 RMK AO2 PK WND 27026/1803
94908KDBQ DBQ20011125121012011/25/01 12:10:31  5-MIN KDBQ 251810Z 27023G27KT 10SM OVC019 04/01 A2985 1140 79 100 270/23G27 RMK AO2 PK WND 27027/1810
94908KDBQ DBQ20011125121512011/25/01 12:15:31  5-MIN KDBQ 251815Z 28018G27KT 10SM OVC019 04/00 A2986 1130 76 100 280/18G27 RMK AO2 PK WND 27027/1810
94908KDBQ DBQ20011125122011411/25/01 12:20:31  5-MIN KDBQ 251820Z 27017KT 10SM OVC019 04/01 A2986 1130 79 100 270/17 RMK AO2 PK WND 27027/1810
94908KDBQ DBQ20011125122512011/25/01 12:25:31  5-MIN KDBQ 251825Z 27019G25KT 10SM OVC019 04/01 A2986 1130 79 100 270/19G25 RMK AO2 PK WND 27027/1810
94908KDBQ DBQ20011125123012011/25/01 12:30:31  5-MIN KDBQ 251830Z 27021G25KT 10SM OVC019 04/00 A2987 1130 76 100 270/21G25 RMK AO2 PK WND 27027/1810
94908KDBQ DBQ20011125123512011/25/01 12:35:31  5-MIN KDBQ 251835Z 27016G25KT 10SM OVC019 04/01 A2987 1130 79 100 270/16G25 RMK AO2 PK WND 27027/1810
94908KDBQ DBQ20011125124012011/25/01 12:40:31  5-MIN KDBQ 251840Z 27020G28KT 10SM OVC019 04/01 A2987 1130 79 100 260/20G28 RMK AO2 PK WND 27028/1840
94908KDBQ DBQ20011125124512011/25/01 12:45:31  5-MIN KDBQ 251845Z 27021G28KT 10SM OVC021 04/00 A2987 1120 76 100 270/21G28 RMK AO2 PK WND 27028/1840
94908KDBQ DBQ20011125125013711/25/01 12:50:31  5-MIN KDBQ 251850Z 26023G28KT 10SM OVC021 04/01 A2987 1120 79 100 260/23G28 RMK AO2 PK WND 27028/1850 SLP123 T00390006
94908KDBQ DBQ20011125125513711/25/01 12:55:31  5-MIN KDBQ 251855Z 27021G28KT 10SM OVC021 04/01 A2987 1120 79 100 260/21G28 RMK AO2 PK WND 27028/1850 SLP122 T00390006
94908KDBQ DBQ20011125130012011/25/01 13:00:31  5-MIN KDBQ 251900Z 27022G29KT 10SM OVC021 04/00 A2987 1120 76 100 270/22G29 RMK AO2 PK WND 26029/1856
94908KDBQ DBQ20011125130512011/25/01 13:05:31  5-MIN KDBQ 251905Z 27021G29KT 10SM OVC021 04/01 A2988 1120 79 100 270/21G29 RMK AO2 PK WND 26029/1856
94908KDBQ DBQ20011125131012011/25/01 13:10:31  5-MIN KDBQ 251910Z 28017G27KT 10SM OVC021 04/01 A2988 1120 79 100 280/17G27 RMK AO2 PK WND 26029/1856
94908KDBQ DBQ20011125131512011/25/01 13:15:31  5-MIN KDBQ 251915Z 27018G24KT 10SM OVC021 04/01 A2988 1120 79 100 270/18G24 RMK AO2 PK WND 26029/1856
94908KDBQ DBQ20011125132011411/25/01 13:20:31  5-MIN KDBQ 251920Z 27022KT 10SM OVC021 04/01 A2988 1120 79 100 260/22 RMK AO2 PK WND 26029/1856
94908KDBQ DBQ20011125132512011/25/01 13:25:31  5-MIN KDBQ 251925Z 27021G27KT 10SM OVC021 04/01 A2987 1120 79 100 260/21G27 RMK AO2 PK WND 26029/1856
94908KDBQ DBQ20011125133012011/25/01 13:30:31  5-MIN KDBQ 251930Z 27022G27KT 10SM OVC021 04/00 A2988 1110 76 100 270/22G27 RMK AO2 PK WND 26029/1856
94908KDBQ DBQ20011125133512011/25/01 13:35:31  5-MIN KDBQ 251935Z 28021G27KT 10SM OVC021 04/00 A2989 1110 76 100 280/21G27 RMK AO2 PK WND 26029/1856
94908KDBQ DBQ20011125134012011/25/01 13:40:31  5-MIN KDBQ 251940Z 28020G26KT 10SM OVC021 04/00 A2989 1110 76 100 280/20G26 RMK AO2 PK WND 26029/1856
94908KDBQ DBQ20011125134512011/25/01 13:45:31  5-MIN KDBQ 251945Z 27019G26KT 10SM OVC021 04/00 A2989 1110 76 100 270/19G26 RMK AO2 PK WND 26029/1856
94908KDBQ DBQ20011125135013711/25/01 13:50:31  5-MIN KDBQ 251950Z 27018G24KT 10SM OVC021 04/00 A2989 1110 76 100 270/18G24 RMK AO2 PK WND 26029/1856 SLP127 T00390000
94908KDBQ DBQ20011125135513711/25/01 13:55:31  5-MIN KDBQ 251955Z 27018G24KT 10SM OVC021 04/00 A2989 1110 76 100 270/18G24 RMK AO2 PK WND 26029/1856 SLP127 T00390000
94908KDBQ DBQ20011125140009611/25/01 14:00:31  5-MIN KDBQ 252000Z 27019KT 10SM OVC021 04/00 A2989 1110 76 100 270/19 RMK AO2
94908KDBQ DBQ20011125140509611/25/01 14:05:31  5-MIN KDBQ 252005Z 27018KT 10SM OVC021 04/00 A2989 1110 76 100 270/18 RMK AO2
94908KDBQ DBQ20011125141010211/25/01 14:10:31  5-MIN KDBQ 252010Z 28016G22KT 10SM OVC019 04/00 A2989 1100 76 100 280/16G22 RMK AO2
94908KDBQ DBQ20011125141510211/25/01 14:15:31  5-MIN KDBQ 252015Z 27015G22KT 10SM OVC019 04/01 A2989 1100 79 100 270/15G22 RMK AO2
94908KDBQ DBQ20011125142010211/25/01 14:20:31  5-MIN KDBQ 252020Z 27012G19KT 10SM OVC019 04/01 A2990 1100 79 100 270/12G19 RMK AO2
94908KDBQ DBQ20011125142509611/25/01 14:25:31  5-MIN KDBQ 252025Z 28012KT 10SM OVC019 04/01 A2990 1100 79 100 280/12 RMK AO2
94908KDBQ DBQ20011125143009411/25/01 14:30:31  5-MIN KDBQ 252030Z 28015KT 10SM OVC017 03/01 A2990 1100 82 0 280/15 RMK AO2
94908KDBQ DBQ20011125143509411/25/01 14:35:31  5-MIN KDBQ 252035Z 28013KT 10SM OVC017 03/01 A2990 1090 82 0 280/13 RMK AO2
94908KDBQ DBQ20011125144009411/25/01 14:40:31  5-MIN KDBQ 252040Z 27015KT 10SM OVC017 03/01 A2991 1090 82 0 270/15 RMK AO2
94908KDBQ DBQ20011125144509411/25/01 14:45:31  5-MIN KDBQ 252045Z 27014KT 10SM OVC017 03/01 A2991 1090 82 0 270/14 RMK AO2
94908KDBQ DBQ20011125145011711/25/01 14:50:31  5-MIN KDBQ 252050Z 27014KT 10SM OVC017 03/01 A2992 1080 82 0 270/14 RMK AO2 SLP139 T00330006 51037
94908KDBQ DBQ20011125145512411/25/01 14:55:31  5-MIN KDBQ 252055Z 27014KT 10SM OVC017 03/01 A2993 1070 82 0 270/14 RMK AO2 PRESRR SLP142 T00330006 53027
94908KDBQ DBQ20011125150010111/25/01 15:00:31  5-MIN KDBQ 252100Z 27014KT 10SM OVC017 03/01 A2993 1070 82 0 270/14 RMK AO2 PRESRR
94908KDBQ DBQ20011125150509411/25/01 15:05:31  5-MIN KDBQ 252105Z 27012KT 10SM OVC017 03/01 A2994 1060 82 0 270/12 RMK AO2
94908KDBQ DBQ20011125151009411/25/01 15:10:31  5-MIN KDBQ 252110Z 27010KT 10SM OVC017 04/01 A2994 1060 79 0 270/10 RMK AO2
94908KDBQ DBQ20011125151509411/25/01 15:15:31  5-MIN KDBQ 252115Z 26010KT 10SM OVC017 04/01 A2994 1060 79 0 260/10 RMK AO2
94908KDBQ DBQ20011125152009411/25/01 15:20:31  5-MIN KDBQ 252120Z 27011KT 10SM OVC017 04/01 A2995 1060 79 0 260/11 RMK AO2
94908KDBQ DBQ20011125152509411/25/01 15:25:31  5-MIN KDBQ 252125Z 26014KT 10SM OVC017 04/01 A2995 1050 79 0 260/14 RMK AO2
94908KDBQ DBQ20011125153009411/25/01 15:30:31  5-MIN KDBQ 252130Z 27014KT 10SM OVC017 04/01 A2995 1050 79 0 270/14 RMK AO2
94908KDBQ DBQ20011125153509411/25/01 15:35:31  5-MIN KDBQ 252135Z 27011KT 10SM OVC017 04/01 A2996 1050 79 0 270/11 RMK AO2
94908KDBQ DBQ20011125154009411/25/01 15:40:31  5-MIN KDBQ 252140Z 26010KT 10SM OVC017 04/01 A2996 1040 82 0 260/10 RMK AO2
94908KDBQ DBQ20011125154509411/25/01 15:45:31  5-MIN KDBQ 252145Z 26012KT 10SM OVC017 04/01 A2997 1040 82 0 260/12 RMK AO2
94908KDBQ DBQ20011125155011111/25/01 15:50:31  5-MIN KDBQ 252150Z 26012KT 10SM OVC017 04/01 A2997 1030 82 0 260/12 RMK AO2 SLP158 T00390011
94908KDBQ DBQ20011125155511111/25/01 15:55:31  5-MIN KDBQ 252155Z 26013KT 10SM OVC017 04/01 A2998 1030 82 0 260/13 RMK AO2 SLP160 T00390011
94908KDBQ DBQ20011125160009411/25/01 16:00:31  5-MIN KDBQ 252200Z 25013KT 10SM OVC017 04/01 A2998 1030 82 0 250/13 RMK AO2
94908KDBQ DBQ20011125160509411/25/01 16:05:31  5-MIN KDBQ 252205Z 26017KT 10SM OVC017 04/01 A2998 1020 82 0 260/17 RMK AO2
94908KDBQ DBQ20011125161009411/25/01 16:10:31  5-MIN KDBQ 252210Z 27014KT 10SM OVC017 04/01 A2998 1020 82 0 270/14 RMK AO2
94908KDBQ DBQ20011125161509411/25/01 16:15:31  5-MIN KDBQ 252215Z 27014KT 10SM OVC017 04/01 A2998 1020 82 0 270/14 RMK AO2
94908KDBQ DBQ20011125162009411/25/01 16:20:31  5-MIN KDBQ 252220Z 27013KT 10SM OVC017 04/01 A2999 1020 82 0 260/13 RMK AO2
94908KDBQ DBQ20011125162510011/25/01 16:25:31  5-MIN KDBQ 252225Z 27012G21KT 10SM OVC017 04/01 A2999 1020 82 0 270/12G21 RMK AO2
94908KDBQ DBQ20011125163010011/25/01 16:30:31  5-MIN KDBQ 252230Z 27015G21KT 10SM OVC017 04/01 A2999 1020 79 0 270/15G21 RMK AO2
94908KDBQ DBQ20011125163510011/25/01 16:35:31  5-MIN KDBQ 252235Z 28014G20KT 10SM OVC017 04/01 A2999 1010 79 0 280/14G20 RMK AO2
94908KDBQ DBQ20011125164009411/25/01 16:40:31  5-MIN KDBQ 252240Z 28012KT 10SM OVC017 04/01 A3000 1010 82 0 280/12 RMK AO2
94908KDBQ DBQ20011125164510011/25/01 16:45:31  5-MIN KDBQ 252245Z 28016G19KT 10SM OVC017 04/01 A3000 1010 79 0 280/16G19 RMK AO2
94908KDBQ DBQ20011125165012011/25/01 16:50:31  5-MIN KDBQ 252250Z 29011G19KT 10SM OVC017 03/01 A3000 1010 82 -100 290/11G19 RMK AO2 SLP167 T00330006
94908KDBQ DBQ20011125165511411/25/01 16:55:31  5-MIN KDBQ 252255Z 28008KT 10SM OVC017 03/01 A3000 1000 82 -100 280/08 RMK AO2 SLP169 T00330006
94908KDBQ DBQ20011125170009711/25/01 17:00:31  5-MIN KDBQ 252300Z 27011KT 10SM OVC017 03/01 A3001 1000 82 -100 260/11 RMK AO2
94908KDBQ DBQ20011125170509611/25/01 17:05:31  5-MIN KDBQ 252305Z 27010KT 10SM OVC017 03/01 A3001 990 82 -100 270/10 RMK AO2
94908KDBQ DBQ20011125171009611/25/01 17:10:31  5-MIN KDBQ 252310Z 28010KT 10SM OVC017 03/01 A3002 990 82 -100 280/10 RMK AO2
94908KDBQ DBQ20011125171509611/25/01 17:15:31  5-MIN KDBQ 252315Z 29010KT 10SM OVC017 03/01 A3001 990 82 -100 290/10 RMK AO2
94908KDBQ DBQ20011125172009611/25/01 17:20:31  5-MIN KDBQ 252320Z 28009KT 10SM OVC017 03/01 A3002 990 82 -100 280/09 RMK AO2
94908KDBQ DBQ20011125172509611/25/01 17:25:31  5-MIN KDBQ 252325Z 28011KT 10SM OVC017 03/01 A3002 980 82 -100 280/11 RMK AO2
94908KDBQ DBQ20011125173009611/25/01 17:30:31  5-MIN KDBQ 252330Z 28008KT 10SM OVC017 03/01 A3002 980 82 -100 280/08 RMK AO2
94908KDBQ DBQ20011125173509611/25/01 17:35:31  5-MIN KDBQ 252335Z 30008KT 10SM OVC017 03/01 A3002 980 82 -100 290/08 RMK AO2
94908KDBQ DBQ20011125174009611/25/01 17:40:31  5-MIN KDBQ 252340Z 29010KT 10SM OVC017 03/01 A3002 980 82 -100 290/10 RMK AO2
94908KDBQ DBQ20011125174509611/25/01 17:45:31  5-MIN KDBQ 252345Z 30007KT 10SM OVC017 03/01 A3002 990 82 -100 290/07 RMK AO2
94908KDBQ DBQ20011125175013111/25/01 17:50:31  5-MIN KDBQ 252350Z 30008KT 10SM OVC017 03/01 A3002 990 82 -100 290/08 RMK AO2 SLP173 T00330006 10039 20033 53027
94908KDBQ DBQ20011125175513111/25/01 17:55:31  5-MIN KDBQ 252355Z 29009KT 10SM OVC017 03/01 A3002 990 82 -100 290/09 RMK AO2 SLP173 T00330006 10039 20033 51029
94908KDBQ DBQ20011125180009611/25/01 18:00:31  5-MIN KDBQ 260000Z 29009KT 10SM OVC017 03/01 A3001 990 82 -100 290/09 RMK AO2
94908KDBQ DBQ20011125180509611/25/01 18:05:31  5-MIN KDBQ 260005Z 29007KT 10SM OVC017 03/01 A3002 990 82 -100 290/07 RMK AO2
94908KDBQ DBQ20011125181009611/25/01 18:10:31  5-MIN KDBQ 260010Z 29007KT 10SM OVC017 03/01 A3002 990 82 -100 290/07 RMK AO2
94908KDBQ DBQ20011125181509611/25/01 18:15:31  5-MIN KDBQ 260015Z 29006KT 10SM OVC017 03/01 A3001 990 82 -100 290/06 RMK AO2
94908KDBQ DBQ20011125182009611/25/01 18:20:31  5-MIN KDBQ 260020Z 29005KT 10SM OVC017 03/01 A3001 990 85 -200 290/05 RMK AO2
94908KDBQ DBQ20011125182509611/25/01 18:25:31  5-MIN KDBQ 260025Z 31006KT 10SM OVC015 03/01 A3001 990 85 -200 310/06 RMK AO2
94908KDBQ DBQ20011125183009611/25/01 18:30:31  5-MIN KDBQ 260030Z 30007KT 10SM OVC015 03/01 A3001 990 85 -200 300/07 RMK AO2
94908KDBQ DBQ20011125183509611/25/01 18:35:31  5-MIN KDBQ 260035Z 29005KT 10SM OVC015 03/01 A3001 990 85 -200 290/05 RMK AO2
94908KDBQ DBQ20011125184009611/25/01 18:40:31  5-MIN KDBQ 260040Z 29007KT 10SM OVC015 03/01 A3002 990 85 -200 290/07 RMK AO2
94908KDBQ DBQ20011125184509611/25/01 18:45:31  5-MIN KDBQ 260045Z 29006KT 10SM OVC015 03/01 A3002 990 85 -200 290/06 RMK AO2
94908KDBQ DBQ20011125185011311/25/01 18:50:31  5-MIN KDBQ 260050Z 30005KT 10SM OVC015 03/01 A3002 990 85 -200 300/05 RMK AO2 SLP174 T00280006
94908KDBQ DBQ20011125185511311/25/01 18:55:31  5-MIN KDBQ 260055Z 31006KT 10SM OVC015 03/01 A3001 990 85 -200 310/06 RMK AO2 SLP173 T00280006
94908KDBQ DBQ20011125190009611/25/01 19:00:31  5-MIN KDBQ 260100Z 30006KT 10SM OVC015 03/01 A3002 990 85 -200 290/06 RMK AO2
94908KDBQ DBQ20011125190509611/25/01 19:05:31  5-MIN KDBQ 260105Z 30007KT 10SM OVC015 03/01 A3002 990 85 -200 300/07 RMK AO2
94908KDBQ DBQ20011125191009611/25/01 19:10:31  5-MIN KDBQ 260110Z 30005KT 10SM OVC015 03/01 A3002 990 85 -200 300/05 RMK AO2
94908KDBQ DBQ20011125191509611/25/01 19:15:31  5-MIN KDBQ 260115Z 29005KT 10SM OVC015 03/01 A3002 990 85 -200 290/05 RMK AO2
94908KDBQ DBQ20011125192009711/25/01 19:20:31  5-MIN KDBQ 260120Z 30005KT 10SM OVC015 03/01 A3001 1000 85 -200 300/05 RMK AO2
94908KDBQ DBQ20011125192509611/25/01 19:25:31  5-MIN KDBQ 260125Z 30006KT 10SM OVC015 03/01 A3001 990 85 -200 300/06 RMK AO2
94908KDBQ DBQ20011125193009611/25/01 19:30:31  5-MIN KDBQ 260130Z 29004KT 10SM OVC015 03/01 A3002 980 85 -200 290/04 RMK AO2
94908KDBQ DBQ20011125193509611/25/01 19:35:31  5-MIN KDBQ 260135Z 28006KT 10SM OVC015 03/01 A3003 980 85 -200 280/06 RMK AO2
94908KDBQ DBQ20011125194010311/25/01 19:40:31  5-MIN KDBQ 260140Z 27007KT 10SM OVC015 03/01 A3004 970 85 -200 270/07 RMK AO2 PRESRR
94908KDBQ DBQ20011125194509611/25/01 19:45:31  5-MIN KDBQ 260145Z 27007KT 10SM OVC015 03/01 A3004 970 85 -200 270/07 RMK AO2
94908KDBQ DBQ20011125195011311/25/01 19:50:31  5-MIN KDBQ 260150Z 28006KT 10SM OVC015 03/01 A3003 970 85 -200 280/06 RMK AO2 SLP179 T00280006
94908KDBQ DBQ20011125195511311/25/01 19:55:31  5-MIN KDBQ 260155Z 29004KT 10SM OVC015 03/01 A3003 980 85 -200 290/04 RMK AO2 SLP177 T00280006
94908KDBQ DBQ20011125200010611/25/01 20:00:31  5-MIN KDBQ 260200Z AUTO 30004KT 10SM OVC015 03/01 A3002 980 85 -200 300/04 RMK AO2 TSNO
94908KDBQ DBQ20011125200511311/25/01 20:05:31  5-MIN KDBQ 260205Z AUTO 32004KT 10SM OVC015 03/01 A3001 990 85 -200 320/04 RMK AO2 PRESFR TSNO
94908KDBQ DBQ20011125201010611/25/01 20:10:31  5-MIN KDBQ 260210Z AUTO 32004KT 10SM OVC015 03/01 A3001 990 85 -200 320/04 RMK AO2 TSNO
94908KDBQ DBQ20011125201510611/25/01 20:15:31  5-MIN KDBQ 260215Z AUTO 00000KT 10SM OVC015 03/01 A3002 990 85 -200 000/00 RMK AO2 TSNO
94908KDBQ DBQ20011125202010611/25/01 20:20:31  5-MIN KDBQ 260220Z AUTO 24003KT 10SM OVC015 03/01 A3003 980 85 -200 230/03 RMK AO2 TSNO
94908KDBQ DBQ20011125202510611/25/01 20:25:31  5-MIN KDBQ 260225Z AUTO 27004KT 10SM OVC015 03/01 A3003 980 85 -200 270/04 RMK AO2 TSNO
94908KDBQ DBQ20011125203010611/25/01 20:30:31  5-MIN KDBQ 260230Z AUTO 30003KT 10SM OVC015 03/01 A3002 980 85 -200 300/03 RMK AO2 TSNO
94908KDBQ DBQ20011125203510611/25/01 20:35:31  5-MIN KDBQ 260235Z AUTO 29003KT 10SM OVC015 03/01 A3003 980 85 -200 290/03 RMK AO2 TSNO
94908KDBQ DBQ20011125204010611/25/01 20:40:31  5-MIN KDBQ 260240Z AUTO 28004KT 10SM OVC015 03/01 A3003 970 85 -200 280/04 RMK AO2 TSNO
94908KDBQ DBQ20011125204510611/25/01 20:45:31  5-MIN KDBQ 260245Z AUTO 27004KT 10SM OVC015 03/01 A3003 970 85 -200 270/04 RMK AO2 TSNO
94908KDBQ DBQ20011125205012911/25/01 20:50:31  5-MIN KDBQ 260250Z AUTO 28003KT 10SM OVC015 03/01 A3004 970 85 -200 280/03 RMK AO2 SLP180 T00280006 51029 TSNO
94908KDBQ DBQ20011125205512911/25/01 20:55:31  5-MIN KDBQ 260255Z AUTO 29003KT 10SM OVC015 03/01 A3003 970 85 -200 290/03 RMK AO2 SLP179 T00280006 53005 TSNO
94908KDBQ DBQ20011125210010611/25/01 21:00:31  5-MIN KDBQ 260300Z AUTO 00000KT 10SM OVC015 03/01 A3003 970 85 -200 000/00 RMK AO2 TSNO
94908KDBQ DBQ20011125210510611/25/01 21:05:31  5-MIN KDBQ 260305Z AUTO 28003KT 10SM OVC013 03/01 A3004 970 85 -200 280/03 RMK AO2 TSNO
94908KDBQ DBQ20011125211010611/25/01 21:10:31  5-MIN KDBQ 260310Z AUTO 30003KT 10SM OVC013 03/01 A3004 970 85 -200 300/03 RMK AO2 TSNO
94908KDBQ DBQ20011125211510611/25/01 21:15:31  5-MIN KDBQ 260315Z AUTO 30003KT 10SM OVC013 03/01 A3004 970 85 -200 290/03 RMK AO2 TSNO
94908KDBQ DBQ20011125212010611/25/01 21:20:31  5-MIN KDBQ 260320Z AUTO 00000KT 10SM OVC013 03/01 A3004 970 85 -200 000/00 RMK AO2 TSNO
94908KDBQ DBQ20011125212510611/25/01 21:25:31  5-MIN KDBQ 260325Z AUTO 00000KT 10SM OVC013 03/01 A3004 970 85 -200 000/00 RMK AO2 TSNO
94908KDBQ DBQ20011125213010611/25/01 21:30:31  5-MIN KDBQ 260330Z AUTO 34003KT 10SM OVC013 03/01 A3004 970 85 -200 340/03 RMK AO2 TSNO
94908KDBQ DBQ20011125213510611/25/01 21:35:31  5-MIN KDBQ 260335Z AUTO 00000KT 10SM OVC013 03/01 A3004 970 85 -200 000/00 RMK AO2 TSNO
94908KDBQ DBQ20011125214010611/25/01 21:40:31  5-MIN KDBQ 260340Z AUTO 00000KT 10SM OVC013 03/01 A3004 970 85 -200 000/00 RMK AO2 TSNO
94908KDBQ DBQ20011125214510611/25/01 21:45:31  5-MIN KDBQ 260345Z AUTO 00000KT 10SM OVC013 03/01 A3004 970 85 -200 000/00 RMK AO2 TSNO
94908KDBQ DBQ20011125215012311/25/01 21:50:31  5-MIN KDBQ 260350Z AUTO 00000KT 10SM OVC013 03/01 A3004 970 85 -200 000/00 RMK AO2 SLP182 T00280006 TSNO
94908KDBQ DBQ20011125215512311/25/01 21:55:31  5-MIN KDBQ 260355Z AUTO 00000KT 10SM OVC013 03/01 A3005 960 85 -200 000/00 RMK AO2 SLP184 T00280006 TSNO
94908KDBQ DBQ20011125220010611/25/01 22:00:31  5-MIN KDBQ 260400Z AUTO 00000KT 10SM OVC013 03/01 A3005 960 85 -200 000/00 RMK AO2 TSNO
94908KDBQ DBQ20011125220510611/25/01 22:05:31  5-MIN KDBQ 260405Z AUTO 00000KT 10SM OVC013 03/01 A3005 960 89 -200 000/00 RMK AO2 TSNO
94908KDBQ DBQ20011125221010611/25/01 22:10:31  5-MIN KDBQ 260410Z AUTO 00000KT 10SM OVC013 03/01 A3005 960 85 -200 000/00 RMK AO2 TSNO
94908KDBQ DBQ20011125221510611/25/01 22:15:31  5-MIN KDBQ 260415Z AUTO 32004KT 10SM OVC013 03/01 A3006 950 85 -200 320/04 RMK AO2 TSNO
94908KDBQ DBQ20011125222010611/25/01 22:20:31  5-MIN KDBQ 260420Z AUTO 32006KT 10SM OVC013 03/01 A3006 950 85 -200 310/06 RMK AO2 TSNO
94908KDBQ DBQ20011125222510611/25/01 22:25:31  5-MIN KDBQ 260425Z AUTO 31005KT 10SM OVC013 03/01 A3006 950 85 -200 310/05 RMK AO2 TSNO
94908KDBQ DBQ20011125223010611/25/01 22:30:31  5-MIN KDBQ 260430Z AUTO 32005KT 10SM OVC013 03/01 A3007 940 85 -200 320/05 RMK AO2 TSNO
94908KDBQ DBQ20011125223510611/25/01 22:35:31  5-MIN KDBQ 260435Z AUTO 32004KT 10SM OVC013 03/01 A3007 940 85 -200 320/04 RMK AO2 TSNO
94908KDBQ DBQ20011125224010611/25/01 22:40:31  5-MIN KDBQ 260440Z AUTO 32005KT 10SM OVC013 03/01 A3007 940 85 -200 320/05 RMK AO2 TSNO
94908KDBQ DBQ20011125224510611/25/01 22:45:31  5-MIN KDBQ 260445Z AUTO 32005KT 10SM OVC013 03/01 A3007 940 85 -200 320/05 RMK AO2 TSNO
94908KDBQ DBQ20011125225012311/25/01 22:50:31  5-MIN KDBQ 260450Z AUTO 31004KT 10SM OVC013 03/01 A3008 930 85 -200 310/04 RMK AO2 SLP194 T00280006 TSNO
94908KDBQ DBQ20011125225512311/25/01 22:55:31  5-MIN KDBQ 260455Z AUTO 33003KT 10SM OVC013 03/01 A3008 940 85 -200 320/03 RMK AO2 SLP193 T00280006 TSNO
94908KDBQ DBQ20011125230010611/25/01 23:00:31  5-MIN KDBQ 260500Z AUTO 32003KT 10SM OVC013 03/01 A3008 930 85 -200 320/03 RMK AO2 TSNO
94908KDBQ DBQ20011125230510611/25/01 23:05:31  5-MIN KDBQ 260505Z AUTO 32003KT 10SM OVC013 03/01 A3009 920 85 -200 320/03 RMK AO2 TSNO
94908KDBQ DBQ20011125231010611/25/01 23:10:31  5-MIN KDBQ 260510Z AUTO 31004KT 10SM OVC013 03/01 A3009 920 85 -200 310/04 RMK AO2 TSNO
94908KDBQ DBQ20011125231510611/25/01 23:15:31  5-MIN KDBQ 260515Z AUTO 30003KT 10SM OVC013 03/01 A3009 920 85 -200 300/03 RMK AO2 TSNO
94908KDBQ DBQ20011125232010611/25/01 23:20:31  5-MIN KDBQ 260520Z AUTO 32003KT 10SM OVC013 03/01 A3009 920 85 -200 320/03 RMK AO2 TSNO
94908KDBQ DBQ20011125232510611/25/01 23:25:31  5-MIN KDBQ 260525Z AUTO 00000KT 10SM OVC013 03/01 A3009 920 89 -300 000/00 RMK AO2 TSNO
94908KDBQ DBQ20011125233010611/25/01 23:30:31  5-MIN KDBQ 260530Z AUTO 00000KT 10SM OVC013 03/01 A3009 920 85 -300 000/00 RMK AO2 TSNO
94908KDBQ DBQ20011125233510611/25/01 23:35:31  5-MIN KDBQ 260535Z AUTO 32003KT 10SM OVC013 03/01 A3010 920 89 -300 320/03 RMK AO2 TSNO
94908KDBQ DBQ20011125234010611/25/01 23:40:31  5-MIN KDBQ 260540Z AUTO 00000KT 10SM OVC013 03/01 A3010 910 85 -300 000/00 RMK AO2 TSNO
94908KDBQ DBQ20011125234510611/25/01 23:45:31  5-MIN KDBQ 260545Z AUTO 31003KT 10SM OVC013 03/01 A3010 910 85 -300 310/03 RMK AO2 TSNO
94908KDBQ DBQ20011125235015111/25/01 23:50:31  5-MIN KDBQ 260550Z AUTO 34003KT 10SM OVC013 03/01 A3010 910 85 -300 340/03 RMK AO2 SLP201 T00280006 10033 20028 400830028 53005 TSNO
94908KDBQ DBQ20011125235515111/25/01 23:55:31  5-MIN KDBQ 260555Z AUTO 01003KT 10SM OVC013 03/01 A3010 910 89 -300 010/03 RMK AO2 SLP202 T00280011 10033 20028 400830028 53022 TSNO
94908KDBQ DBQ20011126000010611/26/01 00:00:31  5-MIN KDBQ 260600Z AUTO 01003KT 10SM OVC013 03/01 A3010 910 85 -300 010/03 RMK AO2 TSNO
94908KDBQ DBQ20011126000510611/26/01 00:05:31  5-MIN KDBQ 260605Z AUTO 02004KT 10SM OVC013 03/01 A3010 910 85 -300 020/04 RMK AO2 TSNO
94908KDBQ DBQ20011126001010611/26/01 00:10:31  5-MIN KDBQ 260610Z AUTO 02004KT 10SM OVC013 03/01 A3009 920 89 -300 020/04 RMK AO2 TSNO
94908KDBQ DBQ20011126001510611/26/01 00:15:31  5-MIN KDBQ 260615Z AUTO 03003KT 10SM OVC013 03/01 A3009 920 85 -300 030/03 RMK AO2 TSNO
94908KDBQ DBQ20011126002010611/26/01 00:20:31  5-MIN KDBQ 260620Z AUTO 03004KT 10SM OVC013 03/01 A3010 920 85 -300 030/04 RMK AO2 TSNO
94908KDBQ DBQ20011126002510611/26/01 00:25:31  5-MIN KDBQ 260625Z AUTO 02005KT 10SM OVC013 03/01 A3009 920 85 -300 020/05 RMK AO2 TSNO
94908KDBQ DBQ20011126003010611/26/01 00:30:31  5-MIN KDBQ 260630Z AUTO 03006KT 10SM OVC013 03/01 A3009 920 85 -200 030/06 RMK AO2 TSNO
94908KDBQ DBQ20011126003510611/26/01 00:35:31  5-MIN KDBQ 260635Z AUTO 03005KT 10SM OVC013 03/01 A3009 920 85 -200 030/05 RMK AO2 TSNO
94908KDBQ DBQ20011126004010611/26/01 00:40:31  5-MIN KDBQ 260640Z AUTO 04005KT 10SM OVC013 03/01 A3009 920 85 -200 040/05 RMK AO2 TSNO
94908KDBQ DBQ20011126004510611/26/01 00:45:31  5-MIN KDBQ 260645Z AUTO 05005KT 10SM OVC013 03/01 A3009 920 85 -200 050/05 RMK AO2 TSNO
94908KDBQ DBQ20011126005012311/26/01 00:50:31  5-MIN KDBQ 260650Z AUTO 04005KT 10SM OVC013 03/01 A3008 930 85 -200 040/05 RMK AO2 SLP196 T00280006 TSNO
94908KDBQ DBQ20011126005512311/26/01 00:55:31  5-MIN KDBQ 260655Z AUTO 04005KT 10SM OVC013 03/01 A3009 930 85 -200 030/05 RMK AO2 SLP197 T00280006 TSNO
94908KDBQ DBQ20011126010010611/26/01 01:00:31  5-MIN KDBQ 260700Z AUTO 04005KT 10SM OVC013 03/01 A3008 930 85 -200 040/05 RMK AO2 TSNO
94908KDBQ DBQ20011126010510611/26/01 01:05:31  5-MIN KDBQ 260705Z AUTO 04005KT 10SM OVC013 03/01 A3008 930 85 -200 040/05 RMK AO2 TSNO
94908KDBQ DBQ20011126011010611/26/01 01:10:31  5-MIN KDBQ 260710Z AUTO 03005KT 10SM OVC013 02/01 A3008 930 89 -300 030/05 RMK AO2 TSNO
94908KDBQ DBQ20011126011510611/26/01 01:15:31  5-MIN KDBQ 260715Z AUTO 03004KT 10SM OVC013 02/01 A3009 930 89 -300 030/04 RMK AO2 TSNO
94908KDBQ DBQ20011126012010611/26/01 01:20:31  5-MIN KDBQ 260720Z AUTO 03003KT 10SM OVC013 03/01 A3009 920 85 -200 030/03 RMK AO2 TSNO
94908KDBQ DBQ20011126012510611/26/01 01:25:31  5-MIN KDBQ 260725Z AUTO 03004KT 10SM OVC013 02/01 A3009 920 89 -300 030/04 RMK AO2 TSNO
94908KDBQ DBQ20011126013010611/26/01 01:30:31  5-MIN KDBQ 260730Z AUTO 04004KT 10SM OVC013 02/01 A3009 920 89 -300 040/04 RMK AO2 TSNO
94908KDBQ DBQ20011126013510611/26/01 01:35:31  5-MIN KDBQ 260735Z AUTO 00000KT 10SM OVC013 02/01 A3010 910 89 -300 000/00 RMK AO2 TSNO
94908KDBQ DBQ20011126014010611/26/01 01:40:31  5-MIN KDBQ 260740Z AUTO 04004KT 10SM OVC013 02/01 A3009 920 89 -300 040/04 RMK AO2 TSNO
94908KDBQ DBQ20011126014510611/26/01 01:45:31  5-MIN KDBQ 260745Z AUTO 06005KT 10SM OVC013 02/01 A3009 930 89 -300 050/05 RMK AO2 TSNO
94908KDBQ DBQ20011126015012311/26/01 01:50:31  5-MIN KDBQ 260750Z AUTO 04003KT 10SM OVC013 02/01 A3009 920 89 -300 040/03 RMK AO2 SLP199 T00220006 TSNO
94908KDBQ DBQ20011126015512311/26/01 01:55:31  5-MIN KDBQ 260755Z AUTO 04004KT 10SM OVC013 02/01 A3010 920 89 -300 040/04 RMK AO2 SLP201 T00220006 TSNO
94908KDBQ DBQ20011126020010611/26/01 02:00:31  5-MIN KDBQ 260800Z AUTO 05006KT 10SM OVC013 02/01 A3009 920 89 -300 050/06 RMK AO2 TSNO
94908KDBQ DBQ20011126020510611/26/01 02:05:31  5-MIN KDBQ 260805Z AUTO 03004KT 10SM OVC013 02/01 A3010 920 89 -300 030/04 RMK AO2 TSNO
94908KDBQ DBQ20011126021010611/26/01 02:10:31  5-MIN KDBQ 260810Z AUTO 04004KT 10SM OVC013 02/01 A3009 920 89 -300 040/04 RMK AO2 TSNO
94908KDBQ DBQ20011126021510611/26/01 02:15:31  5-MIN KDBQ 260815Z AUTO 07005KT 10SM OVC013 02/01 A3009 920 92 -400 070/05 RMK AO2 TSNO
94908KDBQ DBQ20011126022010611/26/01 02:20:31  5-MIN KDBQ 260820Z AUTO 07005KT 10SM OVC013 02/01 A3010 920 89 -300 070/05 RMK AO2 TSNO
94908KDBQ DBQ20011126022510611/26/01 02:25:31  5-MIN KDBQ 260825Z AUTO 07005KT 10SM OVC013 02/01 A3010 920 89 -300 070/05 RMK AO2 TSNO
94908KDBQ DBQ20011126023010611/26/01 02:30:31  5-MIN KDBQ 260830Z AUTO 05005KT 10SM OVC013 02/01 A3009 920 89 -300 050/05 RMK AO2 TSNO
94908KDBQ DBQ20011126023510611/26/01 02:35:31  5-MIN KDBQ 260835Z AUTO 04005KT 10SM OVC011 02/01 A3010 920 89 -300 040/05 RMK AO2 TSNO
94908KDBQ DBQ20011126024010611/26/01 02:40:31  5-MIN KDBQ 260840Z AUTO 05004KT 10SM OVC011 02/00 A3010 910 89 -400 050/04 RMK AO2 TSNO
94908KDBQ DBQ20011126024510611/26/01 02:45:31  5-MIN KDBQ 260845Z AUTO 04003KT 10SM OVC011 02/00 A3010 910 89 -400 040/03 RMK AO2 TSNO
94908KDBQ DBQ20011126025012911/26/01 02:50:31  5-MIN KDBQ 260850Z AUTO 05005KT 10SM OVC011 02/00 A3010 920 89 -400 050/05 RMK AO2 SLP202 T00170000 53022 TSNO
94908KDBQ DBQ20011126025512911/26/01 02:55:31  5-MIN KDBQ 260855Z AUTO 05005KT 10SM OVC011 02/00 A3009 920 89 -400 050/05 RMK AO2 SLP201 T00170000 56002 TSNO
94908KDBQ DBQ20011126030010611/26/01 03:00:31  5-MIN KDBQ 260900Z AUTO 05005KT 10SM BKN011 01/00 A3009 920 92 -500 050/05 RMK AO2 TSNO
94908KDBQ DBQ20011126030510611/26/01 03:05:31  5-MIN KDBQ 260905Z AUTO 06004KT 10SM BKN011 01/00 A3009 920 92 -500 060/04 RMK AO2 TSNO
94908KDBQ DBQ20011126031010611/26/01 03:10:31  5-MIN KDBQ 260910Z AUTO 07006KT 10SM BKN011 02/00 A3009 920 89 -400 060/06 RMK AO2 TSNO
94908KDBQ DBQ20011126031510611/26/01 03:15:31  5-MIN KDBQ 260915Z AUTO 07006KT 10SM SCT011 02/00 A3008 930 89 -400 070/06 RMK AO2 TSNO
94908KDBQ DBQ20011126032010611/26/01 03:20:31  5-MIN KDBQ 260920Z AUTO 07006KT 10SM FEW011 02/00 A3008 930 89 -400 070/06 RMK AO2 TSNO
94908KDBQ DBQ20011126032510611/26/01 03:25:31  5-MIN KDBQ 260925Z AUTO 06007KT 10SM FEW011 01/00 A3008 930 92 -400 060/07 RMK AO2 TSNO
94908KDBQ DBQ20011126033010611/26/01 03:30:31  5-MIN KDBQ 260930Z AUTO 05009KT 10SM FEW011 02/00 A3007 940 89 -400 050/09 RMK AO2 TSNO
94908KDBQ DBQ20011126033511011/26/01 03:35:31  5-MIN KDBQ 260935Z AUTO 04009KT 10SM CLR 02/00 A3006 950 89 -300 040/09 RMK AO2 PRESFR TSNO
94908KDBQ DBQ20011126034011011/26/01 03:40:31  5-MIN KDBQ 260940Z AUTO 04010KT 10SM CLR 02/00 A3005 960 89 -300 040/10 RMK AO2 PRESFR TSNO
94908KDBQ DBQ20011126034510311/26/01 03:45:31  5-MIN KDBQ 260945Z AUTO 05011KT 10SM CLR 02/00 A3005 950 89 -300 050/11 RMK AO2 TSNO
94908KDBQ DBQ20011126035012011/26/01 03:50:31  5-MIN KDBQ 260950Z AUTO 05010KT 10SM CLR 02/00 A3005 950 89 -300 050/10 RMK AO2 SLP187 T00170000 TSNO
94908KDBQ DBQ20011126035512011/26/01 03:55:31  5-MIN KDBQ 260955Z AUTO 05009KT 10SM CLR 02/00 A3005 960 89 -300 050/09 RMK AO2 SLP187 T00170000 TSNO
94908KDBQ DBQ20011126040010311/26/01 04:00:31  5-MIN KDBQ 261000Z AUTO 05010KT 10SM CLR 02/00 A3005 960 89 -300 050/10 RMK AO2 TSNO
94908KDBQ DBQ20011126040510211/26/01 04:05:31  5-MIN KDBQ 261005Z AUTO 05008KT 9SM CLR 02/00 A3005 960 89 -300 050/08 RMK AO2 TSNO
94908KDBQ DBQ20011126041010211/26/01 04:10:31  5-MIN KDBQ 261010Z AUTO 06010KT 9SM CLR 02/00 A3005 960 89 -300 060/10 RMK AO2 TSNO
94908KDBQ DBQ20011126041510211/26/01 04:15:31  5-MIN KDBQ 261015Z AUTO 07009KT 9SM CLR 02/00 A3005 960 89 -300 060/09 RMK AO2 TSNO
94908KDBQ DBQ20011126042010211/26/01 04:20:31  5-MIN KDBQ 261020Z AUTO 07008KT 9SM CLR 02/00 A3005 960 89 -300 060/08 RMK AO2 TSNO
94908KDBQ DBQ20011126042510211/26/01 04:25:31  5-MIN KDBQ 261025Z AUTO 07009KT 9SM CLR 02/00 A3005 960 89 -300 070/09 RMK AO2 TSNO
94908KDBQ DBQ20011126043010211/26/01 04:30:31  5-MIN KDBQ 261030Z AUTO 07008KT 8SM CLR 02/00 A3005 960 89 -300 070/08 RMK AO2 TSNO
94908KDBQ DBQ20011126043510211/26/01 04:35:31  5-MIN KDBQ 261035Z AUTO 07010KT 8SM CLR 01/00 A3005 960 92 -400 070/10 RMK AO2 TSNO
94908KDBQ DBQ20011126044010211/26/01 04:40:31  5-MIN KDBQ 261040Z AUTO 07008KT 8SM CLR 02/00 A3005 950 89 -300 070/08 RMK AO2 TSNO
94908KDBQ DBQ20011126044510211/26/01 04:45:31  5-MIN KDBQ 261045Z AUTO 07009KT 8SM CLR 02/00 A3006 950 89 -300 070/09 RMK AO2 TSNO
94908KDBQ DBQ20011126045011911/26/01 04:50:31  5-MIN KDBQ 261050Z AUTO 07008KT 8SM CLR 02/00 A3006 950 89 -300 070/08 RMK AO2 SLP188 T00170000 TSNO
94908KDBQ DBQ20011126045511911/26/01 04:55:31  5-MIN KDBQ 261055Z AUTO 07007KT 8SM CLR 01/00 A3006 950 92 -400 070/07 RMK AO2 SLP188 T00110000 TSNO
94908KDBQ DBQ20011126050010211/26/01 05:00:31  5-MIN KDBQ 261100Z AUTO 07007KT 8SM CLR 01/00 A3006 950 92 -400 070/07 RMK AO2 TSNO
94908KDBQ DBQ20011126050510311/26/01 05:05:31  5-MIN KDBQ 261105Z AUTO 06006KT 8SM CLR 01/M01 A3006 950 89 -400 060/06 RMK AO2 TSNO
94908KDBQ DBQ20011126051010311/26/01 05:10:31  5-MIN KDBQ 261110Z AUTO 07007KT 8SM CLR 01/M01 A3006 950 89 -400 070/07 RMK AO2 TSNO
94908KDBQ DBQ20011126051510311/26/01 05:15:31  5-MIN KDBQ 261115Z AUTO 07005KT 8SM CLR 01/M01 A3006 950 89 -400 060/05 RMK AO2 TSNO
94908KDBQ DBQ20011126052010311/26/01 05:20:31  5-MIN KDBQ 261120Z AUTO 06005KT 8SM CLR 01/M01 A3007 940 89 -400 050/05 RMK AO2 TSNO
94908KDBQ DBQ20011126052510311/26/01 05:25:31  5-MIN KDBQ 261125Z AUTO 05006KT 8SM CLR 01/M01 A3006 950 89 -400 050/06 RMK AO2 TSNO
94908KDBQ DBQ20011126053010311/26/01 05:30:31  5-MIN KDBQ 261130Z AUTO 06007KT 8SM CLR 01/M01 A3006 950 89 -400 060/07 RMK AO2 TSNO
94908KDBQ DBQ20011126053510211/26/01 05:35:31  5-MIN KDBQ 261135Z AUTO 05007KT 8SM CLR 01/00 A3006 950 92 -400 050/07 RMK AO2 TSNO
94908KDBQ DBQ20011126054010211/26/01 05:40:31  5-MIN KDBQ 261140Z AUTO 06007KT 8SM CLR 01/00 A3006 950 92 -400 060/07 RMK AO2 TSNO
94908KDBQ DBQ20011126054509211/26/01 05:45:31  5-MIN KDBQ 261145Z 06008KT 8SM CLR 01/00 A3006 950 92 -400 060/08 RMK AO2
94908KDBQ DBQ20011126055012711/26/01 05:50:31  5-MIN KDBQ 261150Z 06010KT 8SM CLR 01/00 A3005 960 92 -400 060/10 RMK AO2 SLP186 T00110000 10028 20011 56002
94908KDBQ DBQ20011126055512711/26/01 05:55:31  5-MIN KDBQ 261155Z 05010KT 8SM CLR 01/00 A3004 970 92 -400 050/10 RMK AO2 SLP183 T00110000 10028 20011 56017
94908KDBQ DBQ20011126060009211/26/01 06:00:31  5-MIN KDBQ 261200Z 05010KT 8SM CLR 01/00 A3004 960 92 -400 050/10 RMK AO2
94908KDBQ DBQ20011126060509211/26/01 06:05:31  5-MIN KDBQ 261205Z 05009KT 8SM CLR 01/00 A3004 970 92 -400 050/09 RMK AO2
94908KDBQ DBQ20011126061009511/26/01 06:10:31  5-MIN KDBQ 261210Z 06008KT 8SM FEW120 01/00 A3005 960 92 -400 050/08 RMK AO2
94908KDBQ DBQ20011126061509511/26/01 06:15:31  5-MIN KDBQ 261215Z 05009KT 8SM SCT120 02/00 A3005 960 89 -300 050/09 RMK AO2
94908KDBQ DBQ20011126062009511/26/01 06:20:31  5-MIN KDBQ 261220Z 05010KT 8SM SCT120 02/00 A3005 960 89 -300 050/10 RMK AO2
94908KDBQ DBQ20011126062509511/26/01 06:25:31  5-MIN KDBQ 261225Z 05009KT 8SM SCT120 02/00 A3005 960 89 -300 050/09 RMK AO2
94908KDBQ DBQ20011126063009511/26/01 06:30:31  5-MIN KDBQ 261230Z 05010KT 8SM SCT120 02/00 A3005 960 89 -300 050/10 RMK AO2
94908KDBQ DBQ20011126063509511/26/01 06:35:31  5-MIN KDBQ 261235Z 05009KT 8SM BKN120 02/00 A3005 960 89 -300 050/09 RMK AO2
94908KDBQ DBQ20011126064009511/26/01 06:40:31  5-MIN KDBQ 261240Z 06010KT 8SM BKN120 02/00 A3005 960 89 -300 060/10 RMK AO2
94908KDBQ DBQ20011126064509511/26/01 06:45:31  5-MIN KDBQ 261245Z 05010KT 8SM BKN120 02/00 A3005 960 89 -300 050/10 RMK AO2
94908KDBQ DBQ20011126065011211/26/01 06:50:31  5-MIN KDBQ 261250Z 05008KT 8SM BKN120 02/00 A3005 960 89 -300 050/08 RMK AO2 SLP186 T00170000
94908KDBQ DBQ20011126065511211/26/01 06:55:31  5-MIN KDBQ 261255Z 06008KT 8SM BKN120 02/00 A3005 960 89 -300 050/08 RMK AO2 SLP186 T00170000
94908KDBQ DBQ20011126070009511/26/01 07:00:31  5-MIN KDBQ 261300Z 06010KT 8SM BKN120 02/00 A3005 960 89 -300 060/10 RMK AO2
94908KDBQ DBQ20011126070509511/26/01 07:05:31  5-MIN KDBQ 261305Z 06009KT 8SM BKN120 02/00 A3004 960 89 -300 060/09 RMK AO2
94908KDBQ DBQ20011126071009511/26/01 07:10:31  5-MIN KDBQ 261310Z 06011KT 8SM BKN110 02/00 A3004 970 89 -300 060/11 RMK AO2
94908KDBQ DBQ20011126071509511/26/01 07:15:31  5-MIN KDBQ 261315Z 06009KT 8SM BKN110 02/00 A3005 960 89 -300 060/09 RMK AO2
94908KDBQ DBQ20011126072009511/26/01 07:20:31  5-MIN KDBQ 261320Z 06011KT 7SM BKN110 02/00 A3004 970 89 -300 060/11 RMK AO2
94908KDBQ DBQ20011126072509511/26/01 07:25:31  5-MIN KDBQ 261325Z 05010KT 7SM BKN110 02/00 A3004 970 89 -300 050/10 RMK AO2
94908KDBQ DBQ20011126073009511/26/01 07:30:31  5-MIN KDBQ 261330Z 06009KT 7SM BKN110 02/00 A3003 970 89 -300 060/09 RMK AO2
94908KDBQ DBQ20011126073509511/26/01 07:35:31  5-MIN KDBQ 261335Z 05008KT 7SM SCT110 02/00 A3004 970 89 -300 050/08 RMK AO2
94908KDBQ DBQ20011126074009511/26/01 07:40:31  5-MIN KDBQ 261340Z 06009KT 7SM SCT110 02/01 A3004 970 92 -300 060/09 RMK AO2
94908KDBQ DBQ20011126074509511/26/01 07:45:31  5-MIN KDBQ 261345Z 06009KT 7SM FEW110 02/01 A3004 970 92 -300 060/09 RMK AO2
94908KDBQ DBQ20011126075011211/26/01 07:50:31  5-MIN KDBQ 261350Z 06010KT 7SM FEW120 02/01 A3004 970 92 -300 060/10 RMK AO2 SLP182 T00170006
94908KDBQ DBQ20011126075511211/26/01 07:55:31  5-MIN KDBQ 261355Z 06010KT 7SM FEW120 02/01 A3003 970 89 -300 060/10 RMK AO2 SLP180 T00220006
94908KDBQ DBQ20011126080009511/26/01 08:00:31  5-MIN KDBQ 261400Z 06011KT 7SM SCT120 02/01 A3003 980 89 -200 060/11 RMK AO2
94908KDBQ DBQ20011126080509511/26/01 08:05:31  5-MIN KDBQ 261405Z 08009KT 7SM BKN110 02/01 A3003 970 89 -300 070/09 RMK AO2
94908KDBQ DBQ20011126081009511/26/01 08:10:31  5-MIN KDBQ 261410Z 07010KT 8SM BKN110 02/01 A3003 980 89 -300 070/10 RMK AO2
94908KDBQ DBQ20011126081509511/26/01 08:15:31  5-MIN KDBQ 261415Z 07010KT 8SM SCT110 02/01 A3003 980 89 -300 070/10 RMK AO2
94908KDBQ DBQ20011126082009511/26/01 08:20:31  5-MIN KDBQ 261420Z 07012KT 8SM BKN110 03/01 A3003 970 89 -200 070/12 RMK AO2
94908KDBQ DBQ20011126082509511/26/01 08:25:31  5-MIN KDBQ 261425Z 08010KT 8SM BKN110 03/01 A3003 970 85 -200 080/10 RMK AO2
94908KDBQ DBQ20011126083010811/26/01 08:30:31  5-MIN KDBQ 261430Z 08011G17KT 8SM FEW010 BKN110 03/01 A3003 970 89 -200 080/11G17 RMK AO2
94908KDBQ DBQ20011126083510211/26/01 08:35:31  5-MIN KDBQ 261435Z 08009KT 8SM FEW010 BKN110 03/01 A3004 970 89 -200 080/09 RMK AO2
94908KDBQ DBQ20011126084010211/26/01 08:40:31  5-MIN KDBQ 261440Z 09011KT 8SM FEW010 BKN110 03/01 A3004 970 89 -200 090/11 RMK AO2
94908KDBQ DBQ20011126084510211/26/01 08:45:31  5-MIN KDBQ 261445Z 09011KT 8SM FEW010 BKN110 03/01 A3004 970 89 -200 090/11 RMK AO2
94908KDBQ DBQ20011126085013111/26/01 08:50:31  5-MIN KDBQ 261450Z 08009G16KT 8SM FEW010 SCT110 03/01 A3004 970 89 -200 080/09G16 RMK AO2 SLP182 T00280011 56017
94908KDBQ DBQ20011126085512511/26/01 08:55:31  5-MIN KDBQ 261455Z 09008KT 8SM FEW010 BKN120 03/01 A3004 970 89 -200 090/08 RMK AO2 SLP183 T00280011 58001
94908KDBQ DBQ20011126090009511/26/01 09:00:31  5-MIN KDBQ 261500Z 09011KT 8SM BKN110 03/01 A3004 970 89 -200 090/11 RMK AO2
94908KDBQ DBQ20011126090509511/26/01 09:05:31  5-MIN KDBQ 261505Z 09011KT 8SM BKN110 03/01 A3004 960 89 -200 090/11 RMK AO2
94908KDBQ DBQ20011126091010211/26/01 09:10:31  5-MIN KDBQ 261510Z 09010KT 8SM BKN100 BKN120 03/01 A3004 970 89 -200 090/10 RMK AO2
94908KDBQ DBQ20011126091510211/26/01 09:15:31  5-MIN KDBQ 261515Z 09012KT 8SM BKN095 BKN120 03/01 A3004 970 89 -200 090/12 RMK AO2
94908KDBQ DBQ20011126092010211/26/01 09:20:31  5-MIN KDBQ 261520Z 09012KT 8SM BKN100 OVC120 03/01 A3004 970 89 -200 090/12 RMK AO2
94908KDBQ DBQ20011126092509511/26/01 09:25:31  5-MIN KDBQ 261525Z 09010KT 8SM BKN095 03/01 A3004 970 89 -200 090/10 RMK AO2
94908KDBQ DBQ20011126093009511/26/01 09:30:31  5-MIN KDBQ 261530Z 10014KT 8SM OVC095 03/01 A3003 970 89 -200 100/14 RMK AO2
94908KDBQ DBQ20011126093509511/26/01 09:35:31  5-MIN KDBQ 261535Z 09014KT 8SM OVC095 03/01 A3002 990 89 -200 090/14 RMK AO2
94908KDBQ DBQ20011126094010811/26/01 09:40:31  5-MIN KDBQ 261540Z 09018G21KT 8SM OVC095 03/01 A3002 990 85 -100 090/18G21 RMK AO2 PRESFR
94908KDBQ DBQ20011126094509511/26/01 09:45:31  5-MIN KDBQ 261545Z 09017KT 8SM BKN095 03/01 A3002 990 85 -100 090/17 RMK AO2
94908KDBQ DBQ20011126095011211/26/01 09:50:31  5-MIN KDBQ 261550Z 10016KT 8SM BKN095 03/01 A3002 990 85 -100 100/16 RMK AO2 SLP174 T00330011
94908KDBQ DBQ20011126095511311/26/01 09:55:31  5-MIN KDBQ 261555Z 09017KT 8SM BKN095 03/02 A3001 1000 89 -100 090/17 RMK AO2 SLP171 T00330017
94908KDBQ DBQ20011126100009511/26/01 10:00:31  5-MIN KDBQ 261600Z 10017KT 7SM BKN095 03/02 A3002 990 89 -100 100/17 RMK AO2
94908KDBQ DBQ20011126100509511/26/01 10:05:31  5-MIN KDBQ 261605Z 10016KT 7SM BKN095 03/02 A3002 990 89 -100 100/16 RMK AO2
94908KDBQ DBQ20011126101009511/26/01 10:10:31  5-MIN KDBQ 261610Z 10016KT 7SM BKN095 03/02 A3002 990 89 -100 100/16 RMK AO2
94908KDBQ DBQ20011126101509511/26/01 10:15:31  5-MIN KDBQ 261615Z 10013KT 7SM BKN090 03/02 A3002 990 89 -100 100/13 RMK AO2
94908KDBQ DBQ20011126102010111/26/01 10:20:31  5-MIN KDBQ 261620Z 10014G20KT 7SM BKN090 03/02 A3001 990 89 -100 100/14G20 RMK AO2
94908KDBQ DBQ20011126102511511/26/01 10:25:31  5-MIN KDBQ 261625Z 10014G20KT 7SM FEW046 BKN075 BKN100 03/02 A3001 990 89 -100 100/14G20 RMK AO2
94908KDBQ DBQ20011126103012911/26/01 10:30:31  5-MIN KDBQ 261630Z 10014G20KT 7SM -RA FEW046 BKN070 BKN100 04/02 A3000 1000 89 0 100/14G20 RMK AO2 RAB30 P0000
94908KDBQ DBQ20011126103512311/26/01 10:35:31  5-MIN KDBQ 261635Z 10016KT 7SM -RA FEW046 BKN065 BKN080 04/02 A3000 1000 89 0 100/16 RMK AO2 RAB30 P0000
94908KDBQ DBQ20011126104012211/26/01 10:40:31  5-MIN KDBQ 261640Z 10016KT 7SM FEW046 BKN060 04/02 A2999 1010 89 0 100/16 RMK AO2 RAB30E40 PRESFR P0000
94908KDBQ DBQ20011126104512111/26/01 10:45:31  5-MIN KDBQ 261645Z 10017G22KT 7SM FEW046 OVC060 04/02 A2999 1010 89 0 100/17G22 RMK AO2 RAB30E40 P0000
94908KDBQ DBQ20011126105014611/26/01 10:50:31  5-MIN KDBQ 261650Z 10015G22KT 7SM -RA FEW044 BKN055 OVC070 04/02 A2999 1010 89 0 100/15G22 RMK AO2 RAB30 SLP166 P0000 T00390022
94908KDBQ DBQ20011126105514011/26/01 10:55:31  5-MIN KDBQ 261655Z 09016KT 7SM -RA FEW011 BKN055 OVC070 04/02 A2999 1010 89 0 090/16 RMK AO2 RAB30 SLP165 P0000 T00390022
94908KDBQ DBQ20011126110012711/26/01 11:00:31  5-MIN KDBQ 261700Z 10015G23KT 7SM FEW011 BKN055 OVC070 04/02 A2999 1010 89 0 100/15G23 RMK AO2 RAE1659 P0000
94908KDBQ DBQ20011126110512711/26/01 11:05:31  5-MIN KDBQ 261705Z 10013G23KT 7SM SCT011 BKN050 OVC070 04/02 A2999 1010 89 0 100/13G23 RMK AO2 RAE1659 P0000
94908KDBQ DBQ20011126111012111/26/01 11:10:31  5-MIN KDBQ 261710Z 09013KT 7SM SCT011 BKN050 OVC070 04/03 A2998 1020 89 0 090/13 RMK AO2 RAE1659 P0000
94908KDBQ DBQ20011126111512111/26/01 11:15:31  5-MIN KDBQ 261715Z 09015KT 7SM BKN011 BKN050 OVC075 04/03 A2998 1030 89 0 090/15 RMK AO2 RAE1659 P0000
94908KDBQ DBQ20011126112012411/26/01 11:20:31  5-MIN KDBQ 261720Z 10015KT 6SM BR BKN011 BKN050 OVC075 04/03 A2997 1030 89 0 100/15 RMK AO2 RAE1659 P0000
94908KDBQ DBQ20011126112513111/26/01 11:25:31  5-MIN KDBQ 261725Z 10013KT 6SM -RA BR BKN011 OVC050 04/03 A2997 1040 89 0 100/13 RMK AO2 RAE1659B21 PRESFR P0000
94908KDBQ DBQ20011126113013311/26/01 11:30:31  5-MIN KDBQ 261730Z 10014KT 6SM -RA BR BKN011 BKN060 04/03 A2995 1050 92 100 100/14 RMK AO2 RAE1659B21 PRESFR P0000
94908KDBQ DBQ20011126113513611/26/01 11:35:31  5-MIN KDBQ 261735Z 09015KT 7SM BKN011 BKN070 BKN085 04/03 A2995 1050 92 100 090/15 RMK AO2 RAE1659B21E33 PRESFR P0000
94908KDBQ DBQ20011126114013811/26/01 11:40:31  5-MIN KDBQ 261740Z 09016G22KT 6SM BR SCT011 BKN070 04/03 A2994 1060 92 100 090/16G22 RMK AO2 RAE1659B21E33 PRESFR P0000
94908KDBQ DBQ20011126114513911/26/01 11:45:31  5-MIN KDBQ 261745Z 09015G22KT 6SM -RA BR SCT011 SCT038 BKN050 05/03 A2994 1060 89 200 090/15G22 RMK AO2 RAE1659B21 P0000
94908KDBQ DBQ20011126115018011/26/01 11:50:31  5-MIN KDBQ 261750Z 09016G21KT 6SM -RA BR FEW011 BKN050 BKN070 05/03 A2994 1060 89 200 090/16G21 RMK AO2 RAE1659B21 SLP146 P0000 60000 T00500033 10050 20011 58001
94908KDBQ DBQ20011126115518011/26/01 11:55:31  5-MIN KDBQ 261755Z 09014G21KT 6SM -RA BR FEW009 SCT060 BKN090 05/03 A2994 1060 89 200 090/14G21 RMK AO2 RAE1659B21 SLP146 P0000 60000 T00500033 10050 20011 58035
94908KDBQ DBQ20011126120012011/26/01 12:00:31  5-MIN KDBQ 261800Z 09019KT 6SM BR FEW009 SCT060 BKN085 05/03 A2993 1070 89 200 090/19 RMK AO2 RAE1756
94908KDBQ DBQ20011126120512011/26/01 12:05:31  5-MIN KDBQ 261805Z 09015KT 6SM BR FEW009 SCT050 BKN080 05/03 A2993 1070 89 200 080/15 RMK AO2 RAE1756
94908KDBQ DBQ20011126121011911/26/01 12:10:31  5-MIN KDBQ 261810Z 09016G23KT 6SM BR FEW009 OVC080 05/03 A2993 1070 89 200 090/16G23 RMK AO2 RAE1756
94908KDBQ DBQ20011126121511911/26/01 12:15:31  5-MIN KDBQ 261815Z 09017G23KT 6SM BR FEW009 OVC080 05/03 A2993 1070 89 200 090/17G23 RMK AO2 RAE1756
94908KDBQ DBQ20011126122011911/26/01 12:20:31  5-MIN KDBQ 261820Z 09014G22KT 6SM BR SCT010 OVC080 05/03 A2992 1080 89 200 090/14G22 RMK AO2 RAE1756
94908KDBQ DBQ20011126122511311/26/01 12:25:31  5-MIN KDBQ 261825Z 08017KT 6SM BR SCT012 OVC075 05/03 A2991 1080 89 200 080/17 RMK AO2 RAE1756
94908KDBQ DBQ20011126123011311/26/01 12:30:31  5-MIN KDBQ 261830Z 08016KT 6SM BR SCT010 OVC075 05/03 A2991 1090 89 200 080/16 RMK AO2 RAE1756
94908KDBQ DBQ20011126123511911/26/01 12:35:31  5-MIN KDBQ 261835Z 09019G23KT 6SM BR FEW010 OVC070 05/03 A2991 1090 89 200 090/19G23 RMK AO2 RAE1756
94908KDBQ DBQ20011126124011911/26/01 12:40:31  5-MIN KDBQ 261840Z 09018G23KT 6SM BR FEW010 OVC075 06/04 A2990 1090 89 300 090/18G23 RMK AO2 RAE1756
94908KDBQ DBQ20011126124511311/26/01 12:45:31  5-MIN KDBQ 261845Z 08018KT 6SM BR FEW012 OVC070 06/04 A2990 1090 89 300 080/18 RMK AO2 RAE1756
94908KDBQ DBQ20011126125013011/26/01 12:50:31  5-MIN KDBQ 261850Z 08015KT 6SM BR FEW010 OVC070 06/04 A2990 1090 89 300 080/15 RMK AO2 RAE1756 SLP134 T00560039
94908KDBQ DBQ20011126125513011/26/01 12:55:31  5-MIN KDBQ 261855Z 08016KT 6SM BR FEW010 OVC070 06/04 A2990 1100 89 300 080/16 RMK AO2 RAE1756 SLP134 T00560039
94908KDBQ DBQ20011126130010511/26/01 13:00:31  5-MIN KDBQ 261900Z 09015KT 6SM BR FEW010 OVC070 06/04 A2990 1100 89 300 090/15 RMK AO2
94908KDBQ DBQ20011126130511111/26/01 13:05:31  5-MIN KDBQ 261905Z 09017G23KT 6SM BR FEW010 OVC065 06/04 A2990 1100 89 300 090/17G23 RMK AO2
94908KDBQ DBQ20011126131011111/26/01 13:10:31  5-MIN KDBQ 261910Z 09016G23KT 6SM BR FEW011 OVC065 06/04 A2990 1100 89 300 090/16G23 RMK AO2
94908KDBQ DBQ20011126131511111/26/01 13:15:31  5-MIN KDBQ 261915Z 09019G22KT 6SM BR FEW011 OVC060 06/04 A2989 1100 89 300 090/19G22 RMK AO2
94908KDBQ DBQ20011126132011111/26/01 13:20:31  5-MIN KDBQ 261920Z 09018G22KT 5SM BR SCT011 OVC060 06/04 A2990 1100 89 300 090/18G22 RMK AO2
94908KDBQ DBQ20011126132511811/26/01 13:25:31  5-MIN KDBQ 261925Z 09017G22KT 5SM BR SCT011 SCT015 OVC060 06/04 A2990 1100 89 300 090/17G22 RMK AO2
94908KDBQ DBQ20011126133011711/26/01 13:30:31  5-MIN KDBQ 261930Z 09016KT 5SM BR BKN011 OVC060 06/04 A2989 1100 89 300 090/16 RMK AO2 CIG 008V014
94908KDBQ DBQ20011126133511711/26/01 13:35:31  5-MIN KDBQ 261935Z 10014KT 5SM BR BKN011 OVC060 06/04 A2991 1090 89 300 100/14 RMK AO2 CIG 008V016
94908KDBQ DBQ20011126134014611/26/01 13:40:31  5-MIN KDBQ 261940Z 10014G20KT 5SM -RA BR BKN011 OVC060 06/04 A2993 1070 89 300 100/14G20 RMK AO2 RAB40 CIG 008V016 PRESRR P0000
94908KDBQ DBQ20011126134512811/26/01 13:45:31  5-MIN KDBQ 261945Z 09013KT 5SM -RA BR BKN011 BKN034 OVC060 06/04 A2992 1080 89 300 090/13 RMK AO2 RAB40 P0000
94908KDBQ DBQ20011126135015111/26/01 13:50:31  5-MIN KDBQ 261950Z 10016G20KT 4SM -RA BR BKN011 BKN014 OVC060 06/04 A2990 1100 89 300 100/16G20 RMK AO2 RAB40 SLP133 P0000 T00610044
94908KDBQ DBQ20011126135515211/26/01 13:55:31  5-MIN KDBQ 261955Z 09018KT 3SM -RA BR SCT011 BKN035 OVC044 06/05 A2989 1110 93 300 090/18 RMK AO2 RAB40 PRESFR SLP130 P0001 T00610050
94908KDBQ DBQ20011126140012111/26/01 14:00:31  5-MIN KDBQ 262000Z 10014KT 3SM RA BR BKN011 BKN035 OVC044 06/05 A2990 1090 93 300 090/14 RMK AO2 P0000
94908KDBQ DBQ20011126140512211/26/01 14:05:31  5-MIN KDBQ 262005Z 09015KT 3SM -RA BR BKN011 BKN035 OVC044 06/05 A2990 1100 93 300 090/15 RMK AO2 P0000
94908KDBQ DBQ20011126141012811/26/01 14:10:31  5-MIN KDBQ 262010Z 09017G20KT 4SM -RA BR SCT011 BKN035 OVC044 06/05 A2989 1100 93 300 090/17G20 RMK AO2 P0000
94908KDBQ DBQ20011126141512811/26/01 14:15:31  5-MIN KDBQ 262015Z 09015G20KT 4SM -RA BR SCT011 BKN035 OVC055 06/05 A2989 1110 93 300 090/15G20 RMK AO2 P0001
94908KDBQ DBQ20011126142013511/26/01 14:20:31  5-MIN KDBQ 262020Z 09015G20KT 4SM -RA BR SCT011 BKN046 OVC055 06/05 A2988 1110 93 400 090/15G20 RMK AO2 PRESFR P0001
94908KDBQ DBQ20011126142511511/26/01 14:25:31  5-MIN KDBQ 262025Z 09016KT 4SM -RA BR SCT011 OVC048 06/05 A2988 1120 93 400 090/16 RMK AO2 P0001
94908KDBQ DBQ20011126143013511/26/01 14:30:31  5-MIN KDBQ 262030Z 08016G20KT 4SM -RA BR SCT011 BKN048 OVC055 06/05 A2987 1120 93 400 080/16G20 RMK AO2 PRESFR P0001
94908KDBQ DBQ20011126143512811/26/01 14:35:31  5-MIN KDBQ 262035Z 08017G20KT 4SM -RA BR FEW009 BKN048 OVC060 06/05 A2987 1130 93 400 080/17G20 RMK AO2 P0001
94908KDBQ DBQ20011126144012811/26/01 14:40:31  5-MIN KDBQ 262040Z 09015G22KT 4SM -RA BR FEW009 BKN050 OVC060 07/05 A2987 1130 89 400 090/15G22 RMK AO2 P0001
94908KDBQ DBQ20011126144512811/26/01 14:45:31  5-MIN KDBQ 262045Z 08016G22KT 5SM -RA BR FEW009 BKN047 OVC060 07/05 A2987 1130 89 400 080/16G22 RMK AO2 P0001
94908KDBQ DBQ20011126145015711/26/01 14:50:31  5-MIN KDBQ 262050Z 09012G21KT 4SM -RA BR SCT009 BKN047 OVC060 07/06 A2987 1120 93 400 080/12G21 RMK AO2 SLP125 P0001 60002 T00670056 58035
94908KDBQ DBQ20011126145515711/26/01 14:55:31  5-MIN KDBQ 262055Z 08017G21KT 4SM -RA BR FEW009 SCT047 OVC060 07/06 A2987 1130 93 400 080/17G21 RMK AO2 SLP122 P0002 60003 T00670056 56022
94908KDBQ DBQ20011126150012911/26/01 15:00:31  5-MIN KDBQ 262100Z 07017KT 4SM -RA BR FEW009 SCT050 OVC065 06/05 A2985 1150 93 400 070/17 RMK AO2 PRESFR P0000
94908KDBQ DBQ20011126150512211/26/01 15:05:31  5-MIN KDBQ 262105Z 08019KT 4SM -RA BR FEW009 SCT047 OVC060 06/05 A2985 1140 93 400 080/19 RMK AO2 P0000
94908KDBQ DBQ20011126151012211/26/01 15:10:31  5-MIN KDBQ 262110Z 08016KT 4SM -RA BR FEW009 BKN047 OVC060 07/06 A2985 1140 93 500 080/16 RMK AO2 P0000
94908KDBQ DBQ20011126151512211/26/01 15:15:31  5-MIN KDBQ 262115Z 08014KT 4SM -RA BR FEW009 BKN050 OVC065 07/06 A2985 1140 93 400 080/14 RMK AO2 P0000
94908KDBQ DBQ20011126152011511/26/01 15:20:31  5-MIN KDBQ 262120Z 08014KT 4SM -RA BR SCT046 OVC070 07/06 A2986 1140 93 400 070/14 RMK AO2 P0000
94908KDBQ DBQ20011126152512111/26/01 15:25:31  5-MIN KDBQ 262125Z 08015G19KT 4SM -RA BR FEW046 OVC065 07/06 A2986 1130 93 400 080/15G19 RMK AO2 P0000
94908KDBQ DBQ20011126153012811/26/01 15:30:31  5-MIN KDBQ 262130Z 08014G19KT 4SM -RA BR FEW046 BKN060 OVC070 07/06 A2986 1130 93 400 080/14G19 RMK AO2 P0000
94908KDBQ DBQ20011126153512211/26/01 15:35:31  5-MIN KDBQ 262135Z 08013KT 4SM -RA BR FEW046 BKN060 OVC070 07/06 A2987 1120 93 400 080/13 RMK AO2 P0000
94908KDBQ DBQ20011126154011511/26/01 15:40:31  5-MIN KDBQ 262140Z 08016KT 4SM -RA BR BKN060 OVC070 07/06 A2986 1140 93 400 080/16 RMK AO2 P0000
94908KDBQ DBQ20011126154511511/26/01 15:45:31  5-MIN KDBQ 262145Z 09015KT 4SM -RA BR FEW010 OVC060 07/06 A2986 1130 93 400 080/15 RMK AO2 P0000
94908KDBQ DBQ20011126155013911/26/01 15:50:31  5-MIN KDBQ 262150Z 09015KT 3SM -RA BR FEW010 SCT035 OVC060 07/06 A2986 1130 93 400 090/15 RMK AO2 SLP120 P0001 T00670056
94908KDBQ DBQ20011126155514111/26/01 15:55:31  5-MIN KDBQ 262155Z 08014G22KT 2 1/2SM RA BR SCT039 OVC055 07/06 A2985 1140 93 500 080/14G22 RMK AO2 SLP116 P0002 T00670056
94908KDBQ DBQ20011126160013211/26/01 16:00:31  5-MIN KDBQ 262200Z 09013G22KT 2 1/2SM -RA BR FEW011 BKN041 OVC060 07/06 A2985 1140 93 400 080/13G22 RMK AO2 P0000
94908KDBQ DBQ20011126160512811/26/01 16:05:31  5-MIN KDBQ 262205Z 09016G22KT 3SM -RA BR FEW011 BKN043 OVC060 07/06 A2986 1130 93 400 090/16G22 RMK AO2 P0000
94908KDBQ DBQ20011126161012811/26/01 16:10:31  5-MIN KDBQ 262210Z 09017G21KT 4SM -RA BR FEW027 BKN043 OVC055 07/06 A2986 1130 93 400 090/17G21 RMK AO2 P0001
94908KDBQ DBQ20011126161512811/26/01 16:15:31  5-MIN KDBQ 262215Z 09016G20KT 4SM -RA BR FEW010 BKN043 OVC055 07/06 A2985 1140 93 500 090/16G20 RMK AO2 P0001
94908KDBQ DBQ20011126162012811/26/01 16:20:31  5-MIN KDBQ 262220Z 09016G21KT 3SM -RA BR FEW010 BKN046 OVC055 07/06 A2984 1150 93 500 080/16G21 RMK AO2 P0002
94908KDBQ DBQ20011126162512711/26/01 16:25:31  5-MIN KDBQ 262225Z 09019G24KT 3SM RA BR FEW008 BKN039 OVC055 07/06 A2984 1150 93 500 090/19G24 RMK AO2 P0002
94908KDBQ DBQ20011126163012711/26/01 16:30:31  5-MIN KDBQ 262230Z 09017G24KT 3SM RA BR SCT010 BKN037 OVC055 07/06 A2983 1160 93 500 090/17G24 RMK AO2 P0003
94908KDBQ DBQ20011126163514611/26/01 16:35:31  5-MIN KDBQ 262235Z 09020G26KT 3SM -RA BR SCT008 BKN033 OVC055 07/06 A2983 1160 93 500 090/20G26 RMK AO2 PK WND 09026/2235 P0004
94908KDBQ DBQ20011126164014611/26/01 16:40:31  5-MIN KDBQ 262240Z 09018G26KT 4SM -RA BR BKN010 BKN033 OVC048 07/06 A2983 1160 93 500 090/18G26 RMK AO2 PK WND 09026/2235 P0004
94908KDBQ DBQ20011126164514611/26/01 16:45:31  5-MIN KDBQ 262245Z 09017G25KT 5SM -RA BR BKN010 BKN038 OVC080 07/06 A2983 1170 93 500 090/17G25 RMK AO2 PK WND 09026/2235 P0004
94908KDBQ DBQ20011126165016511/26/01 16:50:31  5-MIN KDBQ 262250Z 09016G25KT 6SM BR BKN010 BKN038 OVC080 07/06 A2984 1150 93 500 090/16G25 RMK AO2 PK WND 09026/2235 RAE47 SLP113 P0004 T00670056
94908KDBQ DBQ20011126165515911/26/01 16:55:31  5-MIN KDBQ 262255Z 10019KT 6SM BR BKN010 BKN036 OVC075 07/06 A2984 1150 93 500 100/19 RMK AO2 PK WND 09026/2235 RAE47 SLP114 P0004 T00670056
94908KDBQ DBQ20011126170013611/26/01 17:00:31  5-MIN KDBQ 262300Z 10022G26KT 5SM BR BKN010 BKN045 OVC080 07/06 A2982 1170 93 500 100/22G26 RMK AO2 PK WND 10026/2300
94908KDBQ DBQ20011126170515811/26/01 17:05:31  5-MIN KDBQ 262305Z 09022G26KT 5SM RA BR BKN010 BKN036 OVC055 07/06 A2980 1190 93 500 090/22G26 RMK AO2 PK WND 09026/2304 RAB02 PRESFR P0000
94908KDBQ DBQ20011126171015111/26/01 17:10:31  5-MIN KDBQ 262310Z 09023G30KT 4SM RA BR BKN010 BKN036 OVC080 07/06 A2981 1180 93 500 090/23G30 RMK AO2 PK WND 10030/2309 RAB02 P0001
94908KDBQ DBQ20011126171515211/26/01 17:15:31  5-MIN KDBQ 262315Z 10020G30KT 4SM -RA BR BKN008 BKN031 OVC080 07/06 A2982 1170 93 500 100/20G30 RMK AO2 PK WND 10030/2309 RAB02 P0001
94908KDBQ DBQ20011126172015211/26/01 17:20:31  5-MIN KDBQ 262320Z 10020G26KT 4SM -RA BR BKN008 BKN031 OVC080 07/06 A2981 1180 93 500 090/20G26 RMK AO2 PK WND 10030/2309 RAB02 P0001
94908KDBQ DBQ20011126172515211/26/01 17:25:31  5-MIN KDBQ 262325Z 09017G25KT 5SM -RA BR BKN008 BKN031 OVC080 07/06 A2982 1170 93 500 090/17G25 RMK AO2 PK WND 10030/2309 RAB02 P0001
94908KDBQ DBQ20011126173015211/26/01 17:30:31  5-MIN KDBQ 262330Z 10020G24KT 5SM -RA BR BKN008 BKN014 OVC080 07/06 A2982 1170 93 500 100/20G24 RMK AO2 PK WND 10030/2309 RAB02 P0002
94908KDBQ DBQ20011126173516311/26/01 17:35:31  5-MIN KDBQ 262335Z 10019G24KT 6SM BR BKN008 BKN012 OVC080 07/06 A2982 1170 93 500 100/19G24 RMK AO2 PK WND 10030/2309 RAB02E33 CIG 006V011 P0002
94908KDBQ DBQ20011126174015611/26/01 17:40:31  5-MIN KDBQ 262340Z 10020G25KT 5SM BR BKN008 OVC080 07/06 A2982 1170 93 500 090/20G25 RMK AO2 PK WND 10030/2309 RAB02E33 CIG 006V012 P0002
94908KDBQ DBQ20011126174515611/26/01 17:45:31  5-MIN KDBQ 262345Z 10019G25KT 5SM BR BKN008 OVC016 07/06 A2982 1170 93 500 100/19G25 RMK AO2 PK WND 10030/2309 RAB02E33 CIG 006V012 P0002
94908KDBQ DBQ20011126175019711/26/01 17:50:31  5-MIN KDBQ 262350Z 10019G25KT 5SM BR BKN008 OVC016 07/06 A2982 1170 93 500 100/19G25 RMK AO2 PK WND 10030/2309 RAB02E33 CIG 006V012 SLP106 P0002 60011 T00670056 10067 20050 56022
94908KDBQ DBQ20011126175519711/26/01 17:55:31  5-MIN KDBQ 262355Z 10019G25KT 5SM BR BKN008 OVC016 07/06 A2981 1180 93 500 100/19G25 RMK AO2 PK WND 10030/2309 RAB02E33 CIG 006V013 SLP104 P0002 60011 T00670056 10067 20050 58018
94908KDBQ DBQ20011126180012311/26/01 18:00:31  5-MIN KDBQ 270000Z 10019G24KT 5SM BR BKN008 OVC016 07/06 A2981 1180 93 500 100/19G24 RMK AO2 CIG 006V013
94908KDBQ DBQ20011126180511711/26/01 18:05:31  5-MIN KDBQ 270005Z 10019KT 5SM BR BKN008 OVC016 07/06 A2981 1180 93 500 100/19 RMK AO2 CIG 006V013
94908KDBQ DBQ20011126181014111/26/01 18:10:31  5-MIN KDBQ 270010Z 10018G26KT 5SM BR BKN008 OVC014 07/06 A2981 1180 93 500 100/18G26 RMK AO2 PK WND 11026/0006 CIG 006V012
94908KDBQ DBQ20011126181514111/26/01 18:15:31  5-MIN KDBQ 270015Z 10019G26KT 5SM BR BKN008 OVC014 07/06 A2981 1180 93 500 100/19G26 RMK AO2 PK WND 11026/0006 CIG 007V012
94908KDBQ DBQ20011126182012811/26/01 18:20:31  5-MIN KDBQ 270020Z 10021KT 5SM BR OVC010 07/06 A2980 1190 93 500 100/21 RMK AO2 PK WND 11026/0006 CIG 007V014
94908KDBQ DBQ20011126182515011/26/01 18:25:31  5-MIN KDBQ 270025Z 11022G26KT 4SM -RA BR OVC010 07/06 A2980 1190 93 500 100/22G26 RMK AO2 PK WND 10026/0025 RAB23 CIG 007V013 P0000
94908KDBQ DBQ20011126183016011/26/01 18:30:31  5-MIN KDBQ 270030Z 10021G26KT 2 1/2SM RA BR BKN008 OVC012 07/06 A2980 1190 93 500 100/21G26 RMK AO2 PK WND 10026/0029 RAB23 CIG 007V010 P0000
94908KDBQ DBQ20011126183515711/26/01 18:35:31  5-MIN KDBQ 270035Z 10019G26KT 2SM -RA BR BKN008 OVC012 07/06 A2980 1190 93 500 100/19G26 RMK AO2 PK WND 10026/0029 RAB23 CIG 006V010 P0001
94908KDBQ DBQ20011126184015411/26/01 18:40:31  5-MIN KDBQ 270040Z 10018G24KT 2 1/2SM -RA BR OVC008 07/06 A2980 1190 96 500 100/18G24 RMK AO2 PK WND 10026/0029 RAB23 CIG 006V015 P0001
94908KDBQ DBQ20011126184515411/26/01 18:45:31  5-MIN KDBQ 270045Z 10019G24KT 2 1/2SM -RA BR OVC008 07/06 A2979 1200 96 500 100/19G24 RMK AO2 PK WND 10026/0029 RAB23 CIG 006V015 P0001
94908KDBQ DBQ20011126185016711/26/01 18:50:31  5-MIN KDBQ 270050Z 10020G25KT 3SM -RA BR OVC008 07/06 A2979 1200 96 500 100/20G25 RMK AO2 PK WND 10026/0029 RAB23 CIG 005V011 SLP095 P0001 T00670061
94908KDBQ DBQ20011126185516711/26/01 18:55:31  5-MIN KDBQ 270055Z 10021G25KT 3SM -RA BR OVC008 07/06 A2979 1200 96 500 100/21G25 RMK AO2 PK WND 10026/0029 RAB23 CIG 005V011 SLP095 P0001 T00670061
94908KDBQ DBQ20011126190013311/26/01 19:00:31  5-MIN KDBQ 270100Z 10020G25KT 3SM -RA BR BKN008 OVC011 07/06 A2978 1200 96 500 100/20G25 RMK AO2 CIG 005V009 P0000
94908KDBQ DBQ20011126190513311/26/01 19:05:31  5-MIN KDBQ 270105Z 10019G25KT 3SM -RA BR BKN008 OVC011 07/06 A2978 1210 96 500 100/19G25 RMK AO2 CIG 005V009 P0000
94908KDBQ DBQ20011126191014411/26/01 19:10:31  5-MIN KDBQ 270110Z 10020G27KT 3SM -RA BR OVC008 07/06 A2977 1210 96 500 100/20G27 RMK AO2 PK WND 10027/0107 CIG 005V011 P0000
94908KDBQ DBQ20011126191514411/26/01 19:15:31  5-MIN KDBQ 270115Z 10020G27KT 3SM -RA BR OVC008 07/06 A2978 1210 96 500 100/20G27 RMK AO2 PK WND 10027/0107 CIG 005V011 P0000
94908KDBQ DBQ20011126192014611/26/01 19:20:31  5-MIN KDBQ 270120Z 11021G25KT 3SM BR OVC008 07/06 A2978 1210 96 500 110/21G25 RMK AO2 PK WND 10027/0107 RAE20 CIG 005V010 P0001
94908KDBQ DBQ20011126192514611/26/01 19:25:31  5-MIN KDBQ 270125Z 10016G25KT 3SM BR OVC008 07/06 A2978 1210 93 600 100/16G25 RMK AO2 PK WND 10027/0107 RAE20 CIG 005V010 P0001
94908KDBQ DBQ20011126193014411/26/01 19:30:31  5-MIN KDBQ 270130Z 11018G24KT 3SM -RA BR OVC008 07/06 A2978 1210 93 600 110/18G24 RMK AO2 PK WND 10027/0107 CIG 005V010 P0001
94908KDBQ DBQ20011126193514411/26/01 19:35:31  5-MIN KDBQ 270135Z 11017G24KT 3SM -RA BR OVC008 07/06 A2978 1210 93 600 110/17G24 RMK AO2 PK WND 10027/0107 CIG 005V012 P0001
94908KDBQ DBQ20011126194014611/26/01 19:40:31  5-MIN KDBQ 270140Z 10015G24KT 3SM BR OVC006 07/06 A2978 1210 93 600 100/15G24 RMK AO2 PK WND 10027/0107 RAE38 CIG 005V011 P0001
94908KDBQ DBQ20011126194514611/26/01 19:45:31  5-MIN KDBQ 270145Z 11016G23KT 3SM BR OVC006 07/06 A2978 1210 93 600 110/16G23 RMK AO2 PK WND 10027/0107 RAE38 CIG 005V010 P0001
94908KDBQ DBQ20011126195016111/26/01 19:50:31  5-MIN KDBQ 270150Z 11018G22KT 3SM -RA BR OVC006 07/06 A2978 1210 93 600 110/18G22 RMK AO2 PK WND 10027/0107 CIG 005V012 SLP093 P0001 T00720061
94908KDBQ DBQ20011126195516511/26/01 19:55:31  5-MIN KDBQ 270155Z 11019G25KT 2 1/2SM -RA BR OVC006 07/06 A2978 1210 93 600 110/19G25 RMK AO2 PK WND 10027/0107 CIG 005V010 SLP092 P0001 T00720061
94908KDBQ DBQ20011126200013611/26/01 20:00:31  5-MIN KDBQ 270200Z AUTO 11018G25KT 2SM -RA BR OVC006 07/07 A2978 1200 96 600 110/18G25 RMK AO2 CIG 005V010 P0000 TSNO
94908KDBQ DBQ20011126200513411/26/01 20:05:31  5-MIN KDBQ 270205Z AUTO 11016KT 1 3/4SM -RA BR OVC008 07/07 A2979 1200 96 600 110/16 RMK AO2 CIG 005V010 P0001 TSNO
94908KDBQ DBQ20011126201013411/26/01 20:10:31  5-MIN KDBQ 270210Z AUTO 11016KT 1 3/4SM -RA BR OVC008 07/07 A2978 1210 96 600 110/16 RMK AO2 CIG 005V010 P0001 TSNO
94908KDBQ DBQ20011126201513011/26/01 20:15:31  5-MIN KDBQ 270215Z AUTO 11015KT 2SM -RA BR OVC008 07/07 A2978 1210 96 600 110/15 RMK AO2 CIG 005V010 P0001 TSNO
94908KDBQ DBQ20011126202014111/26/01 20:20:31  5-MIN KDBQ 270220Z AUTO 11014KT 2 1/2SM -RA BR BKN008 OVC013 07/07 A2978 1210 96 600 110/14 RMK AO2 CIG 005V010 P0002 TSNO
94908KDBQ DBQ20011126202514111/26/01 20:25:31  5-MIN KDBQ 270225Z AUTO 11015KT 2 1/2SM -RA BR BKN008 OVC013 07/07 A2977 1210 96 600 110/15 RMK AO2 CIG 005V010 P0002 TSNO
94908KDBQ DBQ20011126203013411/26/01 20:30:31  5-MIN KDBQ 270230Z AUTO 10015KT 2 1/2SM -RA BR OVC008 07/07 A2977 1220 96 600 100/15 RMK AO2 CIG 005V014 P0002 TSNO
94908KDBQ DBQ20011126203513011/26/01 20:35:31  5-MIN KDBQ 270235Z AUTO 11015KT 2SM -RA BR OVC008 07/07 A2977 1220 96 600 100/15 RMK AO2 CIG 005V013 P0002 TSNO
94908KDBQ DBQ20011126204013411/26/01 20:40:31  5-MIN KDBQ 270240Z AUTO 10012KT 2 1/2SM -RA BR OVC008 07/07 A2977 1220 96 600 100/12 RMK AO2 CIG 004V013 P0003 TSNO
94908KDBQ DBQ20011126204514111/26/01 20:45:31  5-MIN KDBQ 270245Z AUTO 10016KT 2 1/2SM -RA BR BKN006 OVC010 07/07 A2977 1220 96 600 100/16 RMK AO2 CIG 004V008 P0003 TSNO
94908KDBQ DBQ20011126205017011/26/01 20:50:31  5-MIN KDBQ 270250Z AUTO 10015KT 2 1/2SM -RA BR BKN006 OVC013 07/07 A2976 1220 96 600 100/15 RMK AO2 CIG 004V010 SLP086 P0003 60005 T00720067 58018 TSNO
94908KDBQ DBQ20011126205516611/26/01 20:55:31  5-MIN KDBQ 270255Z AUTO 10016KT 3SM -RA BR BKN006 OVC012 07/07 A2976 1230 96 600 100/16 RMK AO2 CIG 004V010 SLP085 P0003 60005 T00720067 56017 TSNO
94908KDBQ DBQ20011126210014111/26/01 21:00:31  5-MIN KDBQ 270300Z AUTO 10015KT 2 1/2SM -RA BR BKN006 OVC011 07/07 A2976 1230 96 600 100/15 RMK AO2 CIG 004V009 P0000 TSNO
94908KDBQ DBQ20011126210514711/26/01 21:05:31  5-MIN KDBQ 270305Z AUTO 10015G20KT 2 1/2SM -RA BR BKN006 OVC011 07/07 A2976 1230 96 600 100/15G20 RMK AO2 CIG 004V009 P0000 TSNO
94908KDBQ DBQ20011126211014711/26/01 21:10:31  5-MIN KDBQ 270310Z AUTO 10014G20KT 2 1/2SM -RA BR BKN006 OVC011 07/07 A2976 1230 96 600 100/14G20 RMK AO2 CIG 004V009 P0000 TSNO
94908KDBQ DBQ20011126211513411/26/01 21:15:31  5-MIN KDBQ 270315Z AUTO 11014KT 2 1/2SM -RA BR OVC008 07/07 A2975 1230 96 600 110/14 RMK AO2 CIG 005V011 P0000 TSNO
94908KDBQ DBQ20011126212012911/26/01 21:20:31  5-MIN KDBQ 270320Z AUTO 11016KT 2 1/2SM -RA BR BKN006 OVC010 07/07 A2975 1240 96 600 110/16 RMK AO2 P0001 TSNO
94908KDBQ DBQ20011126212513411/26/01 21:25:31  5-MIN KDBQ 270325Z AUTO 11017KT 2 1/2SM -RA BR OVC008 07/07 A2975 1240 96 600 110/17 RMK AO2 CIG 005V010 P0001 TSNO
94908KDBQ DBQ20011126213013011/26/01 21:30:31  5-MIN KDBQ 270330Z AUTO 11017KT 3SM -RA BR OVC008 08/07 A2975 1240 93 700 110/17 RMK AO2 CIG 005V014 P0001 TSNO
94908KDBQ DBQ20011126213514511/26/01 21:35:31  5-MIN KDBQ 270335Z AUTO 11015G22KT 3SM BR BKN008 OVC011 08/07 A2975 1240 93 700 110/15G22 RMK AO2 RAE34 CIG 005V010 P0001 TSNO
94908KDBQ DBQ20011126214013811/26/01 21:40:31  5-MIN KDBQ 270340Z AUTO 11017G22KT 3SM BR OVC008 08/07 A2974 1240 93 700 110/17G22 RMK AO2 RAE34 CIG 005V010 P0001 TSNO
94908KDBQ DBQ20011126214514511/26/01 21:45:31  5-MIN KDBQ 270345Z AUTO 11017G22KT 3SM BR BKN006 OVC010 08/07 A2974 1250 93 700 110/17G22 RMK AO2 RAE34 CIG 005V008 P0001 TSNO
94908KDBQ DBQ20011126215014711/26/01 21:50:31  5-MIN KDBQ 270350Z AUTO 11016KT 3SM -RA BR OVC006 08/07 A2973 1250 93 700 110/16 RMK AO2 CIG 005V010 SLP074 P0001 T00780067 TSNO
94908KDBQ DBQ20011126215514711/26/01 21:55:31  5-MIN KDBQ 270355Z AUTO 11015KT 3SM -RA BR OVC006 08/07 A2973 1260 93 700 110/15 RMK AO2 CIG 005V010 SLP073 P0001 T00780067 TSNO
94908KDBQ DBQ20011126220013011/26/01 22:00:31  5-MIN KDBQ 270400Z AUTO 11016KT 3SM -RA BR OVC006 08/07 A2973 1260 93 700 100/16 RMK AO2 CIG 005V010 P0000 TSNO
94908KDBQ DBQ20011126220514111/26/01 22:05:31  5-MIN KDBQ 270405Z AUTO 11018KT 2 1/2SM -RA BR BKN006 OVC011 08/07 A2972 1260 96 700 110/18 RMK AO2 CIG 005V008 P0000 TSNO
94908KDBQ DBQ20011126221014711/26/01 22:10:31  5-MIN KDBQ 270410Z AUTO 11018G23KT 2 1/2SM -RA BR BKN006 OVC010 08/07 A2972 1260 96 700 110/18G23 RMK AO2 CIG 005V008 P0000 TSNO
94908KDBQ DBQ20011126221514011/26/01 22:15:31  5-MIN KDBQ 270415Z AUTO 11017G23KT 2 1/2SM -RA BR OVC006 08/07 A2972 1260 96 700 110/17G23 RMK AO2 CIG 005V009 P0000 TSNO
94908KDBQ DBQ20011126222014211/26/01 22:20:31  5-MIN KDBQ 270420Z AUTO 11017G22KT 2 1/2SM BR OVC006 08/07 A2972 1270 96 700 110/17G22 RMK AO2 RAE17 CIG 004V010 P0000 TSNO
94908KDBQ DBQ20011126222514011/26/01 22:25:31  5-MIN KDBQ 270425Z AUTO 11015G22KT 2 1/2SM -RA BR OVC006 08/07 A2972 1270 96 700 110/15G22 RMK AO2 CIG 004V010 P0000 TSNO
94908KDBQ DBQ20011126223013011/26/01 22:30:31  5-MIN KDBQ 270430Z AUTO 11016KT 2SM -RA BR OVC006 08/07 A2972 1270 96 700 110/16 RMK AO2 CIG 003V011 P0000 TSNO
94908KDBQ DBQ20011126223513611/26/01 22:35:31  5-MIN KDBQ 270435Z AUTO 11017G23KT 2SM -RA BR OVC006 08/07 A2972 1270 96 700 110/17G23 RMK AO2 CIG 003V010 P0000 TSNO
94908KDBQ DBQ20011126224013611/26/01 22:40:31  5-MIN KDBQ 270440Z AUTO 12014G23KT 2SM -RA BR OVC006 08/07 A2972 1270 96 700 120/14G23 RMK AO2 CIG 003V009 P0000 TSNO
94908KDBQ DBQ20011126224511811/26/01 22:45:31  5-MIN KDBQ 270445Z AUTO 12018KT 2SM -RA BR OVC006 08/07 A2972 1270 96 700 120/18 RMK AO2 P0001 TSNO
94908KDBQ DBQ20011126225014711/26/01 22:50:31  5-MIN KDBQ 270450Z AUTO 12014KT 2SM -RA BR OVC006 08/07 A2972 1270 96 700 120/14 RMK AO2 CIG 003V009 SLP069 P0001 T00780072 TSNO
94908KDBQ DBQ20011126225515311/26/01 22:55:31  5-MIN KDBQ 270455Z AUTO 12012G20KT 2SM -RA BR OVC006 08/07 A2972 1270 96 700 120/12G20 RMK AO2 CIG 003V010 SLP069 P0001 T00780072 TSNO
94908KDBQ DBQ20011126230013611/26/01 23:00:31  5-MIN KDBQ 270500Z AUTO 12013G20KT 2SM -RA BR OVC006 08/07 A2972 1270 96 700 120/13G20 RMK AO2 CIG 003V010 P0000 TSNO
94908KDBQ DBQ20011126230513011/26/01 23:05:31  5-MIN KDBQ 270505Z AUTO 12015KT 2SM -RA BR OVC006 08/07 A2972 1270 96 700 120/15 RMK AO2 CIG 003V009 P0000 TSNO
94908KDBQ DBQ20011126231013411/26/01 23:10:31  5-MIN KDBQ 270510Z AUTO 13011KT 2 1/2SM -RA BR OVC006 08/07 A2972 1270 96 700 130/11 RMK AO2 CIG 003V009 P0001 TSNO
94908KDBQ DBQ20011126231513411/26/01 23:15:31  5-MIN KDBQ 270515Z AUTO 13010KT 2 1/2SM -RA BR OVC006 08/07 A2972 1270 96 700 130/10 RMK AO2 CIG 003V011 P0001 TSNO
94908KDBQ DBQ20011126232012911/26/01 23:20:31  5-MIN KDBQ 270520Z AUTO 13011KT 2 1/2SM -RA BR BKN004 OVC008 08/07 A2971 1270 96 700 130/11 RMK AO2 P0001 TSNO
94908KDBQ DBQ20011126232513411/26/01 23:25:31  5-MIN KDBQ 270525Z AUTO 12013KT 2 1/2SM -RA BR OVC004 08/07 A2971 1270 96 700 120/13 RMK AO2 CIG 003V009 P0001 TSNO
94908KDBQ DBQ20011126233013511/26/01 23:30:31  5-MIN KDBQ 270530Z AUTO 13012KT 2 1/2SM -RA BR OVC004 08/08 A2971 1270 100 700 130/12 RMK AO2 CIG 003V007 P0001 TSNO
94908KDBQ DBQ20011126233512311/26/01 23:35:31  5-MIN KDBQ 270535Z AUTO 13010KT 2 1/2SM -RA BR OVC004 08/08 A2971 1270 100 800 130/10 RMK AO2 P0001 TSNO
94908KDBQ DBQ20011126234013211/26/01 23:40:31  5-MIN KDBQ 270540Z AUTO 13010KT 3SM BR OVC004 08/08 A2971 1280 96 800 130/10 RMK AO2 RAE40 CIG 003V008 P0001 TSNO
94908KDBQ DBQ20011126234513211/26/01 23:45:31  5-MIN KDBQ 270545Z AUTO 15010KT 3SM BR OVC004 08/08 A2971 1280 96 800 140/10 RMK AO2 RAE40 CIG 003V008 P0001 TSNO
94908KDBQ DBQ20011126235018911/26/01 23:50:31  5-MIN KDBQ 270550Z AUTO 14011G17KT 3SM BR OVC004 08/08 A2970 1280 96 800 140/11G17 RMK AO2 RAE40 CIG 003V008 SLP065 P0001 60008 T00830078 10083 20067 400830011 56017 TSNO
94908KDBQ DBQ20011126235518911/26/01 23:55:31  5-MIN KDBQ 270555Z AUTO 14011G17KT 3SM BR OVC004 08/08 A2970 1280 96 800 140/11G17 RMK AO2 RAE40 CIG 003V008 SLP065 P0001 60008 T00830078 10083 20067 400830011 56018 TSNO
94908KDBQ DBQ20011127000012011/27/01 00:00:31  5-MIN KDBQ 270600Z AUTO 15008KT 3SM BR OVC004 08/08 A2970 1280 96 800 140/08 RMK AO2 CIG 003V008 TSNO
94908KDBQ DBQ20011127000513611/27/01 00:05:31  5-MIN KDBQ 270605Z AUTO 15009KT 3SM -RA BR OVC004 08/08 A2970 1290 96 800 150/09 RMK AO2 RAB01 CIG 003V008 P0000 TSNO
94908KDBQ DBQ20011127001012411/27/01 00:10:31  5-MIN KDBQ 270610Z AUTO 15010KT 3SM -RA BR OVC004 08/08 A2970 1290 96 800 150/10 RMK AO2 RAB01 P0000 TSNO
94908KDBQ DBQ20011127001512511/27/01 00:15:31  5-MIN KDBQ 270615Z AUTO 14010KT 3SM -RA BR OVC004 08/08 A2969 1290 100 800 140/10 RMK AO2 RAB01 P0001 TSNO
94908KDBQ DBQ20011127002012911/27/01 00:20:31  5-MIN KDBQ 270620Z AUTO 14010KT 2 1/2SM -RA BR OVC004 08/08 A2969 1290 100 800 140/10 RMK AO2 RAB01 P0001 TSNO
94908KDBQ DBQ20011127002512911/27/01 00:25:31  5-MIN KDBQ 270625Z AUTO 14009KT 2 1/2SM -RA BR OVC004 08/08 A2969 1290 100 800 130/09 RMK AO2 RAB01 P0001 TSNO
94908KDBQ DBQ20011127003012911/27/01 00:30:31  5-MIN KDBQ 270630Z AUTO 13011KT 2 1/2SM -RA BR OVC002 08/08 A2969 1290 100 800 130/11 RMK AO2 RAB01 P0001 TSNO
94908KDBQ DBQ20011127003512411/27/01 00:35:31  5-MIN KDBQ 270635Z AUTO 14011KT 2SM BR OVC002 08/08 A2969 1300 100 800 140/11 RMK AO2 RAB01E31 P0001 TSNO
94908KDBQ DBQ20011127004012411/27/01 00:40:31  5-MIN KDBQ 270640Z AUTO 13012KT 2SM BR OVC002 08/08 A2968 1300 100 800 130/12 RMK AO2 RAB01E31 P0001 TSNO
94908KDBQ DBQ20011127004512811/27/01 00:45:31  5-MIN KDBQ 270645Z AUTO 14009KT 1 3/4SM BR OVC002 08/08 A2969 1300 100 800 140/09 RMK AO2 RAB01E31 P0001 TSNO
94908KDBQ DBQ20011127005014511/27/01 00:50:31  5-MIN KDBQ 270650Z AUTO 14010KT 1 3/4SM BR OVC002 08/08 A2968 1300 100 800 140/10 RMK AO2 RAB01E31 SLP057 P0001 T00830083 TSNO
94908KDBQ DBQ20011127005514511/27/01 00:55:31  5-MIN KDBQ 270655Z AUTO 14010KT 1 1/2SM BR OVC002 08/08 A2968 1300 100 900 140/10 RMK AO2 RAB01E31 SLP056 P0001 T00830083 TSNO
94908KDBQ DBQ20011127010011211/27/01 01:00:31  5-MIN KDBQ 270700Z AUTO 13011KT 1 3/4SM BR OVC002 09/08 A2968 1300 96 900 130/11 RMK AO2 TSNO
94908KDBQ DBQ20011127010511211/27/01 01:05:31  5-MIN KDBQ 270705Z AUTO 14011KT 1 3/4SM BR OVC002 09/08 A2968 1300 96 900 140/11 RMK AO2 TSNO
94908KDBQ DBQ20011127011011211/27/01 01:10:31  5-MIN KDBQ 270710Z AUTO 14008KT 1 3/4SM BR OVC002 09/08 A2968 1300 96 900 140/08 RMK AO2 TSNO
94908KDBQ DBQ20011127011511211/27/01 01:15:31  5-MIN KDBQ 270715Z AUTO 14010KT 1 3/4SM BR OVC002 09/08 A2968 1300 96 900 140/10 RMK AO2 TSNO
94908KDBQ DBQ20011127012012411/27/01 01:20:31  5-MIN KDBQ 270720Z AUTO 15009KT 1 3/4SM BR OVC002 09/08 A2968 1300 96 900 150/09 RMK AO2 CIG 001V005 TSNO
94908KDBQ DBQ20011127012512011/27/01 01:25:31  5-MIN KDBQ 270725Z AUTO 15009KT 2SM BR OVC002 09/08 A2968 1300 96 900 150/09 RMK AO2 CIG 001V006 TSNO
94908KDBQ DBQ20011127013011511/27/01 01:30:31  5-MIN KDBQ 270730Z AUTO 16008KT 2SM BR BKN002 OVC007 09/08 A2968 1300 96 900 160/08 RMK AO2 TSNO
94908KDBQ DBQ20011127013512111/27/01 01:35:31  5-MIN KDBQ 270735Z AUTO 16010KT 2SM BR OVC004 09/09 A2968 1300 100 900 160/10 RMK AO2 CIG 001V008 TSNO
94908KDBQ DBQ20011127014012511/27/01 01:40:31  5-MIN KDBQ 270740Z AUTO 16009KT 2 1/2SM BR OVC004 09/09 A2968 1300 100 900 160/09 RMK AO2 CIG 001V009 TSNO
94908KDBQ DBQ20011127014512511/27/01 01:45:31  5-MIN KDBQ 270745Z AUTO 16008KT 2 1/2SM BR OVC004 09/09 A2968 1300 100 900 160/08 RMK AO2 CIG 002V009 TSNO
94908KDBQ DBQ20011127015015611/27/01 01:50:31  5-MIN KDBQ 270750Z AUTO 16008KT 2 1/2SM BR BKN004 BKN012 OVC017 09/09 A2968 1300 100 900 150/08 RMK AO2 CIG 002V009 SLP057 T00890089 TSNO
94908KDBQ DBQ20011127015515511/27/01 01:55:31  5-MIN KDBQ 270755Z AUTO 16008KT 2 1/2SM BR FEW004 BKN008 BKN016 09/08 A2968 1300 96 900 160/08 RMK AO2 CIG 005V013 SLP056 T00890083 TSNO
94908KDBQ DBQ20011127020012611/27/01 02:00:31  5-MIN KDBQ 270800Z AUTO 16008KT 2 1/2SM BR SCT004 BKN016 OVC044 09/08 A2968 1300 96 900 160/08 RMK AO2 TSNO
94908KDBQ DBQ20011127020512711/27/01 02:05:31  5-MIN KDBQ 270805Z AUTO 16009KT 2 1/2SM BR SCT006 BKN016 OVC044 09/09 A2968 1300 100 900 160/09 RMK AO2 TSNO
94908KDBQ DBQ20011127021012711/27/01 02:10:31  5-MIN KDBQ 270810Z AUTO 16008KT 2 1/2SM BR SCT006 BKN011 OVC044 09/09 A2968 1300 100 900 160/08 RMK AO2 TSNO
94908KDBQ DBQ20011127021512711/27/01 02:15:31  5-MIN KDBQ 270815Z AUTO 16009KT 2 1/2SM BR FEW006 BKN011 OVC044 09/09 A2968 1300 96 1000 160/09 RMK AO2 TSNO
94908KDBQ DBQ20011127022012711/27/01 02:20:31  5-MIN KDBQ 270820Z AUTO 16008KT 2 1/2SM BR SCT006 BKN012 OVC022 09/09 A2968 1300 96 1000 160/08 RMK AO2 TSNO
94908KDBQ DBQ20011127022512711/27/01 02:25:31  5-MIN KDBQ 270825Z AUTO 17008KT 2 1/2SM BR SCT006 BKN012 OVC017 09/09 A2968 1300 96 1000 170/08 RMK AO2 TSNO
94908KDBQ DBQ20011127023013511/27/01 02:30:31  5-MIN KDBQ 270830Z AUTO 17008KT 3SM BR BKN008 BKN017 OVC041 09/09 A2968 1300 96 1000 170/08 RMK AO2 CIG 005V012 TSNO
94908KDBQ DBQ20011127023513511/27/01 02:35:31  5-MIN KDBQ 270835Z AUTO 18010KT 3SM BR BKN006 BKN010 OVC040 09/09 A2968 1300 96 1000 170/10 RMK AO2 CIG 005V009 TSNO
94908KDBQ DBQ20011127024012311/27/01 02:40:31  5-MIN KDBQ 270840Z AUTO 17009KT 3SM BR SCT006 BKN010 OVC042 09/09 A2968 1300 96 1000 170/09 RMK AO2 TSNO
94908KDBQ DBQ20011127024512211/27/01 02:45:31  5-MIN KDBQ 270845Z AUTO 17008KT 3SM BR SCT008 BKN016 BKN042 09/08 A2968 1300 96 900 170/08 RMK AO2 TSNO
94908KDBQ DBQ20011127025015111/27/01 02:50:31  5-MIN KDBQ 270850Z AUTO 18010KT 3SM BR SCT008 BKN014 BKN024 09/08 A2969 1290 96 900 180/10 RMK AO2 SLP058 60001 T00890083 56018 TSNO
94908KDBQ DBQ20011127025515111/27/01 02:55:31  5-MIN KDBQ 270855Z AUTO 19012KT 4SM BR SCT008 BKN016 OVC049 09/08 A2969 1290 96 900 190/12 RMK AO2 SLP059 60001 T00890083 55005 TSNO
94908KDBQ DBQ20011127030012211/27/01 03:00:31  5-MIN KDBQ 270900Z AUTO 21013KT 4SM BR FEW008 BKN011 OVC043 09/08 A2969 1290 96 900 200/13 RMK AO2 TSNO
94908KDBQ DBQ20011127030512211/27/01 03:05:31  5-MIN KDBQ 270905Z AUTO 21012KT 5SM BR FEW009 BKN013 BKN024 09/07 A2969 1290 89 900 210/12 RMK AO2 TSNO
94908KDBQ DBQ20011127031011911/27/01 03:10:31  5-MIN KDBQ 270910Z AUTO 21009KT 7SM FEW009 SCT016 BKN034 08/07 A2969 1290 93 800 210/09 RMK AO2 TSNO
94908KDBQ DBQ20011127031511911/27/01 03:15:31  5-MIN KDBQ 270915Z AUTO 21010KT 7SM SCT011 SCT024 BKN034 08/07 A2969 1290 93 800 210/10 RMK AO2 TSNO
94908KDBQ DBQ20011127032011211/27/01 03:20:31  5-MIN KDBQ 270920Z AUTO 21009KT 8SM FEW009 BKN034 08/07 A2969 1290 89 800 210/09 RMK AO2 TSNO
94908KDBQ DBQ20011127032511211/27/01 03:25:31  5-MIN KDBQ 270925Z AUTO 21009KT 8SM FEW009 BKN034 08/07 A2969 1290 93 800 210/09 RMK AO2 TSNO
94908KDBQ DBQ20011127033010511/27/01 03:30:31  5-MIN KDBQ 270930Z AUTO 21010KT 8SM SCT034 08/06 A2969 1290 89 800 210/10 RMK AO2 TSNO
94908KDBQ DBQ20011127033510511/27/01 03:35:31  5-MIN KDBQ 270935Z AUTO 22011KT 9SM SCT034 08/06 A2969 1290 86 800 220/11 RMK AO2 TSNO
94908KDBQ DBQ20011127034010611/27/01 03:40:31  5-MIN KDBQ 270940Z AUTO 22011KT 10SM SCT034 07/06 A2969 1290 89 700 220/11 RMK AO2 TSNO
94908KDBQ DBQ20011127034511311/27/01 03:45:31  5-MIN KDBQ 270945Z AUTO 23010KT 10SM FEW010 SCT034 07/05 A2970 1290 89 600 230/10 RMK AO2 TSNO
94908KDBQ DBQ20011127035013011/27/01 03:50:31  5-MIN KDBQ 270950Z AUTO 23009KT 10SM SCT010 BKN034 07/06 A2970 1280 93 600 230/09 RMK AO2 SLP063 T00670056 TSNO
94908KDBQ DBQ20011127035513011/27/01 03:55:31  5-MIN KDBQ 270955Z AUTO 23010KT 10SM BKN010 BKN034 07/06 A2970 1280 93 600 230/10 RMK AO2 SLP064 T00670056 TSNO
94908KDBQ DBQ20011127040012411/27/01 04:00:31  5-MIN KDBQ 271000Z AUTO 22013KT 9SM BKN008 BKN034 07/06 A2971 1280 93 600 220/13 RMK AO2 CIG 007V012 TSNO
94908KDBQ DBQ20011127040511211/27/01 04:05:31  5-MIN KDBQ 271005Z AUTO 22013KT 9SM BKN008 OVC034 07/05 A2971 1280 89 600 220/13 RMK AO2 TSNO
94908KDBQ DBQ20011127041011711/27/01 04:10:31  5-MIN KDBQ 271010Z AUTO 22015KT 9SM OVC008 06/05 A2971 1280 93 600 220/15 RMK AO2 CIG 007V012 TSNO
94908KDBQ DBQ20011127041512511/27/01 04:15:31  5-MIN KDBQ 271015Z AUTO 22011KT 10SM BKN010 OVC014 06/05 A2971 1270 93 500 220/11 RMK AO2 CIG 007V013 TSNO
94908KDBQ DBQ20011127042012511/27/01 04:20:31  5-MIN KDBQ 271020Z AUTO 22010KT 10SM BKN010 OVC014 06/04 A2972 1270 92 500 220/10 RMK AO2 CIG 007V013 TSNO
94908KDBQ DBQ20011127042512411/27/01 04:25:31  5-MIN KDBQ 271025Z AUTO 22009KT 9SM BKN010 BKN014 06/04 A2971 1270 92 500 220/09 RMK AO2 CIG 009V013 TSNO
94908KDBQ DBQ20011127043012411/27/01 04:30:31  5-MIN KDBQ 271030Z AUTO 22010KT 9SM BKN010 BKN014 05/04 A2972 1270 92 400 220/10 RMK AO2 CIG 007V012 TSNO
94908KDBQ DBQ20011127043512411/27/01 04:35:31  5-MIN KDBQ 271035Z AUTO 22011KT 9SM BKN010 OVC014 05/04 A2972 1260 92 400 220/11 RMK AO2 CIG 007V013 TSNO
94908KDBQ DBQ20011127044012411/27/01 04:40:31  5-MIN KDBQ 271040Z AUTO 23012KT 9SM BKN010 OVC014 05/04 A2973 1260 92 400 230/12 RMK AO2 CIG 007V012 TSNO
94908KDBQ DBQ20011127044510511/27/01 04:45:31  5-MIN KDBQ 271045Z AUTO 25013KT 9SM OVC012 05/03 A2973 1260 89 400 240/13 RMK AO2 TSNO
94908KDBQ DBQ20011127045012211/27/01 04:50:31  5-MIN KDBQ 271050Z AUTO 24012KT 9SM OVC012 05/03 A2972 1260 89 400 240/12 RMK AO2 SLP072 T00500033 TSNO
94908KDBQ DBQ20011127045512211/27/01 04:55:31  5-MIN KDBQ 271055Z AUTO 24013KT 9SM OVC012 04/03 A2973 1260 89 300 240/13 RMK AO2 SLP072 T00440028 TSNO
94908KDBQ DBQ20011128163509511/28/01 16:35:31  5-MIN KDBQ 282235Z 00000KT 8SM OVC012 02/00 A3020 820 85 -400 000/00 RMK AO2
94908KDBQ DBQ20011128164009511/28/01 16:40:31  5-MIN KDBQ 282240Z 00000KT 8SM OVC012 02/00 A3021 810 85 -500 000/00 RMK AO2
94908KDBQ DBQ20011128164509511/28/01 16:45:31  5-MIN KDBQ 282245Z 00000KT 8SM OVC012 02/00 A3021 810 85 -500 000/00 RMK AO2
94908KDBQ DBQ20011128165011211/28/01 16:50:31  5-MIN KDBQ 282250Z 00000KT 8SM OVC014 02/00 A3021 810 85 -500 000/00 RMK AO2 SLP241 T00220000
94908KDBQ DBQ20011128165511211/28/01 16:55:31  5-MIN KDBQ 282255Z 00000KT 8SM OVC014 02/00 A3021 810 85 -500 000/00 RMK AO2 SLP241 T00220000
94908KDBQ DBQ20011128170009511/28/01 17:00:31  5-MIN KDBQ 282300Z 00000KT 7SM OVC014 02/00 A3020 820 85 -400 000/00 RMK AO2
94908KDBQ DBQ20011128170509511/28/01 17:05:31  5-MIN KDBQ 282305Z 00000KT 7SM OVC014 02/00 A3020 820 85 -400 000/00 RMK AO2
94908KDBQ DBQ20011128171009511/28/01 17:10:31  5-MIN KDBQ 282310Z 00000KT 7SM OVC014 02/00 A3020 820 85 -400 000/00 RMK AO2
94908KDBQ DBQ20011128171509511/28/01 17:15:31  5-MIN KDBQ 282315Z 00000KT 8SM OVC014 02/01 A3020 820 89 -400 000/00 RMK AO2
94908KDBQ DBQ20011128172009511/28/01 17:20:31  5-MIN KDBQ 282320Z 00000KT 7SM OVC014 02/01 A3020 820 89 -400 000/00 RMK AO2
94908KDBQ DBQ20011128172509811/28/01 17:25:31  5-MIN KDBQ 282325Z 00000KT 6SM BR OVC014 02/01 A3020 820 89 -400 000/00 RMK AO2
94908KDBQ DBQ20011128173009811/28/01 17:30:31  5-MIN KDBQ 282330Z 00000KT 6SM BR OVC014 02/01 A3020 820 89 -400 000/00 RMK AO2
94908KDBQ DBQ20011128173510511/28/01 17:35:31  5-MIN KDBQ 282335Z 00000KT 5SM BR BKN014 OVC019 02/01 A3020 820 89 -400 000/00 RMK AO2
94908KDBQ DBQ20011128174010511/28/01 17:40:31  5-MIN KDBQ 282340Z 00000KT 6SM BR BKN014 OVC019 02/01 A3020 820 89 -400 000/00 RMK AO2
94908KDBQ DBQ20011128174510511/28/01 17:45:31  5-MIN KDBQ 282345Z 00000KT 6SM BR FEW008 OVC016 02/01 A3020 820 89 -400 000/00 RMK AO2
94908KDBQ DBQ20011128175014011/28/01 17:50:31  5-MIN KDBQ 282350Z 00000KT 6SM BR SCT008 OVC014 02/01 A3020 820 89 -400 000/00 RMK AO2 SLP238 T00220006 10022 20017 56009
94908KDBQ DBQ20011128175515911/28/01 17:55:31  5-MIN KDBQ 282355Z 00000KT 5SM -SN FEW008 OVC016 02/01 A3020 820 89 -400 000/00 RMK AO2 SNB53 SLP238 P0000 60000 T00220006 10022 20017 58005
94908KDBQ DBQ20011128180011211/28/01 18:00:31  5-MIN KDBQ 290000Z 00000KT 5SM -SN FEW008 OVC016 02/01 A3020 820 89 -400 000/00 RMK AO2 P0000
94908KDBQ DBQ20011128180512411/28/01 18:05:31  5-MIN KDBQ 290005Z 00000KT 5SM BR FEW008 BKN016 OVC022 02/01 A3020 820 89 -400 000/00 RMK AO2 SNE02 P0000
94908KDBQ DBQ20011128181012411/28/01 18:10:31  5-MIN KDBQ 290010Z 00000KT 5SM BR FEW008 BKN016 OVC022 02/01 A3020 820 89 -400 000/00 RMK AO2 SNE02 P0000
94908KDBQ DBQ20011128181512411/28/01 18:15:31  5-MIN KDBQ 290015Z 00000KT 6SM BR FEW008 BKN016 OVC022 02/01 A3020 820 89 -400 000/00 RMK AO2 SNE02 P0000
94908KDBQ DBQ20011128182011711/28/01 18:20:31  5-MIN KDBQ 290020Z 00000KT 6SM BR SCT016 OVC022 02/01 A3020 820 89 -400 000/00 RMK AO2 SNE02 P0000
94908KDBQ DBQ20011128182511711/28/01 18:25:31  5-MIN KDBQ 290025Z 00000KT 6SM BR FEW016 OVC022 02/01 A3019 830 89 -400 000/00 RMK AO2 SNE02 P0000
94908KDBQ DBQ20011128183011711/28/01 18:30:31  5-MIN KDBQ 290030Z 00000KT 5SM BR SCT016 OVC022 02/01 A3019 830 92 -400 000/00 RMK AO2 SNE02 P0000
94908KDBQ DBQ20011128183511711/28/01 18:35:31  5-MIN KDBQ 290035Z 00000KT 6SM BR SCT014 OVC022 02/01 A3019 830 92 -400 000/00 RMK AO2 SNE02 P0000
94908KDBQ DBQ20011128184011711/28/01 18:40:31  5-MIN KDBQ 290040Z 00000KT 6SM BR SCT014 OVC022 02/01 A3019 830 92 -400 000/00 RMK AO2 SNE02 P0000
94908KDBQ DBQ20011128184511711/28/01 18:45:31  5-MIN KDBQ 290045Z 00000KT 6SM BR SCT014 OVC022 02/01 A3019 830 89 -400 000/00 RMK AO2 SNE02 P0000
94908KDBQ DBQ20011128185013411/28/01 18:50:31  5-MIN KDBQ 290050Z 00000KT 6SM BR FEW014 OVC022 02/01 A3019 830 89 -400 000/00 RMK AO2 SNE02 SLP234 P0000 T00220006
94908KDBQ DBQ20011128185513411/28/01 18:55:31  5-MIN KDBQ 290055Z 00000KT 6SM BR FEW014 OVC022 02/01 A3019 830 92 -400 000/00 RMK AO2 SNE02 SLP233 P0000 T00220011
94908KDBQ DBQ20011128190010511/28/01 19:00:31  5-MIN KDBQ 290100Z 00000KT 6SM BR FEW014 OVC022 02/01 A3019 830 89 -400 000/00 RMK AO2
94908KDBQ DBQ20011128190510511/28/01 19:05:31  5-MIN KDBQ 290105Z 00000KT 6SM BR FEW014 OVC022 02/01 A3019 830 92 -500 000/00 RMK AO2
94908KDBQ DBQ20011128191009811/28/01 19:10:31  5-MIN KDBQ 290110Z 00000KT 6SM BR OVC022 02/01 A3019 830 89 -400 000/00 RMK AO2
94908KDBQ DBQ20011128191509811/28/01 19:15:31  5-MIN KDBQ 290115Z 00000KT 6SM BR OVC022 02/01 A3019 830 89 -400 000/00 RMK AO2
94908KDBQ DBQ20011128192009811/28/01 19:20:31  5-MIN KDBQ 290120Z 00000KT 6SM BR OVC024 02/01 A3019 830 92 -500 000/00 RMK AO2
94908KDBQ DBQ20011128192509811/28/01 19:25:31  5-MIN KDBQ 290125Z 00000KT 6SM BR OVC024 02/01 A3018 830 96 -500 000/00 RMK AO2
94908KDBQ DBQ20011128193009811/28/01 19:30:31  5-MIN KDBQ 290130Z 00000KT 6SM BR OVC024 02/01 A3018 830 89 -400 000/00 RMK AO2
94908KDBQ DBQ20011128193509811/28/01 19:35:31  5-MIN KDBQ 290135Z 00000KT 6SM BR OVC024 02/01 A3019 830 92 -500 000/00 RMK AO2
94908KDBQ DBQ20011128194009811/28/01 19:40:31  5-MIN KDBQ 290140Z 27003KT 6SM BR OVC024 02/01 A3019 830 92 -500 270/03 RMK AO2
94908KDBQ DBQ20011128194509811/28/01 19:45:31  5-MIN KDBQ 290145Z 00000KT 6SM BR OVC024 02/01 A3018 840 96 -500 000/00 RMK AO2
94908KDBQ DBQ20011128195011511/28/01 19:50:31  5-MIN KDBQ 290150Z 00000KT 6SM BR OVC026 02/01 A3018 840 96 -500 000/00 RMK AO2 SLP232 T00170011
94908KDBQ DBQ20011128195511511/28/01 19:55:31  5-MIN KDBQ 290155Z 00000KT 5SM BR OVC026 02/01 A3018 840 96 -500 000/00 RMK AO2 SLP231 T00170011
94908KDBQ DBQ20011128200010811/28/01 20:00:31  5-MIN KDBQ 290200Z AUTO 00000KT 5SM BR OVC026 02/01 A3018 840 96 -500 000/00 RMK AO2 TSNO
94908KDBQ DBQ20011128200510811/28/01 20:05:31  5-MIN KDBQ 290205Z AUTO 32003KT 5SM BR OVC026 02/01 A3018 840 96 -500 320/03 RMK AO2 TSNO
94908KDBQ DBQ20011128201010811/28/01 20:10:31  5-MIN KDBQ 290210Z AUTO 34003KT 5SM BR OVC026 02/01 A3017 850 96 -500 340/03 RMK AO2 TSNO
94908KDBQ DBQ20011128201510811/28/01 20:15:31  5-MIN KDBQ 290215Z AUTO 33003KT 5SM BR OVC026 02/01 A3017 850 96 -500 330/03 RMK AO2 TSNO
94908KDBQ DBQ20011128202010811/28/01 20:20:31  5-MIN KDBQ 290220Z AUTO 00000KT 5SM BR OVC026 02/01 A3017 850 96 -500 000/00 RMK AO2 TSNO
94908KDBQ DBQ20011128202510811/28/01 20:25:31  5-MIN KDBQ 290225Z AUTO 00000KT 5SM BR OVC026 02/01 A3017 850 96 -500 000/00 RMK AO2 TSNO
94908KDBQ DBQ20011128203010811/28/01 20:30:31  5-MIN KDBQ 290230Z AUTO 00000KT 5SM BR OVC026 02/01 A3017 850 96 -500 000/00 RMK AO2 TSNO
94908KDBQ DBQ20011128203510811/28/01 20:35:31  5-MIN KDBQ 290235Z AUTO 35003KT 5SM BR OVC026 02/01 A3016 850 96 -500 350/03 RMK AO2 TSNO
94908KDBQ DBQ20011128204010811/28/01 20:40:31  5-MIN KDBQ 290240Z AUTO 00000KT 5SM BR OVC026 02/01 A3017 850 96 -500 000/00 RMK AO2 TSNO
94908KDBQ DBQ20011128204510811/28/01 20:45:31  5-MIN KDBQ 290245Z AUTO 00000KT 5SM BR OVC026 02/01 A3016 860 96 -500 000/00 RMK AO2 TSNO
94908KDBQ DBQ20011128205013711/28/01 20:50:31  5-MIN KDBQ 290250Z AUTO 00000KT 5SM BR OVC024 02/01 A3015 860 96 -500 000/00 RMK AO2 SLP222 60000 T00170011 58005 TSNO
94908KDBQ DBQ20011128205515911/28/01 20:55:31  5-MIN KDBQ 290255Z AUTO 03003KT 5SM UP BR FEW004 OVC024 02/01 A3015 860 96 -500 030/03 RMK AO2 UPB55 SLP222 P0000 60000 T00170011 58015 TSNO
94908KDBQ DBQ20011128210014011/28/01 21:00:31  5-MIN KDBQ 290300Z AUTO 00000KT 4SM -SN BR FEW004 OVC024 02/01 A3015 860 96 -500 000/00 RMK AO2 UPE0259SNB0259 P0000 TSNO
94908KDBQ DBQ20011128210513311/28/01 21:05:31  5-MIN KDBQ 290305Z AUTO 01003KT 4SM -SN BR OVC022 02/01 A3016 860 96 -500 010/03 RMK AO2 UPE0259SNB0259 P0000 TSNO
94908KDBQ DBQ20011128211013311/28/01 21:10:31  5-MIN KDBQ 290310Z AUTO 36003KT 4SM -SN BR OVC022 02/01 A3016 860 96 -500 350/03 RMK AO2 UPE0259SNB0259 P0000 TSNO
94908KDBQ DBQ20011128211512811/28/01 21:15:31  5-MIN KDBQ 290315Z AUTO 00000KT 4SM UP BR OVC020 02/01 A3016 860 96 -500 000/00 RMK AO2 SNB0259E12 P0000 TSNO
94908KDBQ DBQ20011128212014311/28/01 21:20:31  5-MIN KDBQ 290320Z AUTO 00000KT 4SM -FZRA BR OVC020 02/01 A3016 860 96 -500 000/00 RMK AO2 UPE17FZRAB17SNB0259E12 P0000 TSNO
94908KDBQ DBQ20011128212514311/28/01 21:25:31  5-MIN KDBQ 290325Z AUTO 00000KT 4SM -FZRA BR OVC020 02/01 A3016 860 96 -500 000/00 RMK AO2 UPE17FZRAB17SNB0259E12 P0000 TSNO
94908KDBQ DBQ20011128213014311/28/01 21:30:31  5-MIN KDBQ 290330Z AUTO 00000KT 5SM -FZRA BR OVC018 02/01 A3016 860 96 -500 000/00 RMK AO2 UPE17FZRAB17SNB0259E12 P0000 TSNO
94908KDBQ DBQ20011128213515011/28/01 21:35:31  5-MIN KDBQ 290335Z AUTO 00000KT 5SM -FZRA BR BKN018 OVC023 02/01 A3015 870 96 -500 000/00 RMK AO2 UPE17FZRAB17SNB0259E12 P0000 TSNO
94908KDBQ DBQ20011128214015011/28/01 21:40:31  5-MIN KDBQ 290340Z AUTO 00000KT 4SM -FZRA BR BKN018 OVC023 02/01 A3015 870 96 -500 000/00 RMK AO2 UPE17FZRAB17SNB0259E12 P0000 TSNO
94908KDBQ DBQ20011128214515411/28/01 21:45:31  5-MIN KDBQ 290345Z AUTO 00000KT 4SM -SN BR FEW003 OVC020 02/01 A3014 870 96 -400 000/00 RMK AO2 UPE17FZRAB17E44SNB0259E12B44 P0000 TSNO
94908KDBQ DBQ20011128215017111/28/01 21:50:31  5-MIN KDBQ 290350Z AUTO 03003KT 4SM -SN BR FEW003 OVC020 02/01 A3014 880 92 -400 030/03 RMK AO2 UPE17FZRAB17E44SNB0259E12B44 SLP217 P0001 T00170006 TSNO
94908KDBQ DBQ20011128215516411/28/01 21:55:31  5-MIN KDBQ 290355Z AUTO 02003KT 3SM -SN BR OVC020 02/01 A3014 880 92 -400 020/03 RMK AO2 UPE17FZRAB17E44SNB0259E12B44 SLP216 P0001 T00170006 TSNO
94908KDBQ DBQ20011128220011811/28/01 22:00:31  5-MIN KDBQ 290400Z AUTO 02003KT 3SM -SN BR OVC020 02/01 A3013 880 96 -400 010/03 RMK AO2 P0000 TSNO
94908KDBQ DBQ20011128220512511/28/01 22:05:31  5-MIN KDBQ 290405Z AUTO 36003KT 3SM -SN BR BKN020 OVC080 02/01 A3014 880 96 -400 360/03 RMK AO2 P0000 TSNO
94908KDBQ DBQ20011128221013511/28/01 22:10:31  5-MIN KDBQ 290410Z AUTO 35003KT 4SM UP BR BKN020 OVC080 02/01 A3013 880 96 -400 350/03 RMK AO2 UPB09SNE09 P0000 TSNO
94908KDBQ DBQ20011128221515511/28/01 22:15:31  5-MIN KDBQ 290415Z AUTO 35004KT 4SM -FZRA BR BKN017 BKN022 OVC080 02/01 A3013 880 96 -400 350/04 RMK AO2 UPB09E14FZRAB14SNE09 P0000 TSNO
94908KDBQ DBQ20011128222014811/28/01 22:20:31  5-MIN KDBQ 290420Z AUTO 35004KT 4SM -FZRA BR BKN017 OVC022 02/01 A3013 880 96 -400 350/04 RMK AO2 UPB09E14FZRAB14SNE09 P0000 TSNO
94908KDBQ DBQ20011128222515511/28/01 22:25:31  5-MIN KDBQ 290425Z AUTO 34004KT 4SM -FZRA BR FEW006 BKN017 OVC022 02/01 A3014 880 96 -400 340/04 RMK AO2 UPB09E14FZRAB14SNE09 P0000 TSNO
94908KDBQ DBQ20011128223015511/28/01 22:30:31  5-MIN KDBQ 290430Z AUTO 34003KT 4SM -FZRA BR SCT006 BKN017 OVC022 02/01 A3014 870 96 -400 340/03 RMK AO2 UPB09E14FZRAB14SNE09 P0000 TSNO
94908KDBQ DBQ20011128223514811/28/01 22:35:31  5-MIN KDBQ 290435Z AUTO 01003KT 4SM -FZRA BR SCT006 OVC015 02/01 A3014 880 96 -400 010/03 RMK AO2 UPB09E14FZRAB14SNE09 P0000 TSNO
94908KDBQ DBQ20011128224014811/28/01 22:40:31  5-MIN KDBQ 290440Z AUTO 33003KT 4SM -FZRA BR SCT006 OVC017 02/01 A3014 870 96 -400 330/03 RMK AO2 UPB09E14FZRAB14SNE09 P0000 TSNO
94908KDBQ DBQ20011128224514511/28/01 22:45:31  5-MIN KDBQ 290445Z AUTO 36003KT 5SM BR BKN006 OVC017 02/01 A3014 880 96 -400 360/03 RMK AO2 UPB09E14FZRAB14E42SNE09 P0000 TSNO
94908KDBQ DBQ20011128225016211/28/01 22:50:31  5-MIN KDBQ 290450Z AUTO 00000KT 4SM BR BKN006 OVC017 02/01 A3014 880 96 -400 000/00 RMK AO2 UPB09E14FZRAB14E42SNE09 SLP216 P0000 T00170011 TSNO
94908KDBQ DBQ20011128225516211/28/01 22:55:31  5-MIN KDBQ 290455Z AUTO 00000KT 4SM BR BKN006 OVC017 02/01 A3014 880 96 -400 000/00 RMK AO2 UPB09E14FZRAB14E42SNE09 SLP217 P0000 T00170011 TSNO
94908KDBQ DBQ20011128230011511/28/01 23:00:31  5-MIN KDBQ 290500Z AUTO 36003KT 4SM BR BKN006 OVC017 02/01 A3014 880 96 -400 360/03 RMK AO2 TSNO
94908KDBQ DBQ20011128230510811/28/01 23:05:31  5-MIN KDBQ 290505Z AUTO 36003KT 4SM BR OVC006 02/01 A3014 880 96 -400 360/03 RMK AO2 TSNO
94908KDBQ DBQ20011128231010811/28/01 23:10:31  5-MIN KDBQ 290510Z AUTO 35004KT 4SM BR OVC006 02/01 A3013 880 96 -400 350/04 RMK AO2 TSNO
94908KDBQ DBQ20011128231510811/28/01 23:15:31  5-MIN KDBQ 290515Z AUTO 36003KT 4SM BR OVC006 02/01 A3013 880 96 -400 360/03 RMK AO2 TSNO
94908KDBQ DBQ20011128232010811/28/01 23:20:31  5-MIN KDBQ 290520Z AUTO 01004KT 4SM BR OVC006 02/01 A3013 890 96 -400 010/04 RMK AO2 TSNO
94908KDBQ DBQ20011128232510811/28/01 23:25:31  5-MIN KDBQ 290525Z AUTO 36004KT 4SM BR OVC006 02/01 A3012 890 96 -400 360/04 RMK AO2 TSNO
94908KDBQ DBQ20011128233010811/28/01 23:30:31  5-MIN KDBQ 290530Z AUTO 01003KT 4SM BR OVC004 02/01 A3013 880 96 -400 360/03 RMK AO2 TSNO
94908KDBQ DBQ20011128233510811/28/01 23:35:31  5-MIN KDBQ 290535Z AUTO 01003KT 4SM BR OVC004 02/01 A3014 880 96 -400 010/03 RMK AO2 TSNO
94908KDBQ DBQ20011128234010811/28/01 23:40:31  5-MIN KDBQ 290540Z AUTO 00000KT 4SM BR OVC004 02/01 A3014 880 96 -400 000/00 RMK AO2 TSNO
94908KDBQ DBQ20011128234510811/28/01 23:45:31  5-MIN KDBQ 290545Z AUTO 00000KT 4SM BR OVC004 02/01 A3014 880 96 -400 000/00 RMK AO2 TSNO
94908KDBQ DBQ20011128235015911/28/01 23:50:31  5-MIN KDBQ 290550Z AUTO 00000KT 4SM BR OVC004 02/01 A3014 880 96 -400 000/00 RMK AO2 SLP215 60001 T00170011 10022 20017 400220000 58015 TSNO
94908KDBQ DBQ20011128235517111/28/01 23:55:31  5-MIN KDBQ 290555Z AUTO 00000KT 4SM BR OVC004 02/01 A3014 870 96 -400 000/00 RMK AO2 CIG 003V009 SLP217 60001 T00170011 10022 20017 400220000 55004 TSNO
94908KDBQ DBQ20011129000012711/29/01 00:00:31  5-MIN KDBQ 290600Z AUTO 00000KT 4SM BR BKN004 OVC008 02/01 A3014 880 96 -400 000/00 RMK AO2 CIG 003V007 TSNO
94908KDBQ DBQ20011129000512011/29/01 00:05:31  5-MIN KDBQ 290605Z AUTO 00000KT 4SM BR OVC006 02/01 A3013 880 96 -400 000/00 RMK AO2 CIG 003V009 TSNO
94908KDBQ DBQ20011129001012011/29/01 00:10:31  5-MIN KDBQ 290610Z AUTO 00000KT 4SM BR OVC006 02/01 A3013 890 96 -400 000/00 RMK AO2 CIG 003V009 TSNO
94908KDBQ DBQ20011129001510811/29/01 00:15:31  5-MIN KDBQ 290615Z AUTO 00000KT 4SM BR OVC004 02/01 A3013 890 96 -400 000/00 RMK AO2 TSNO
94908KDBQ DBQ20011129002010811/29/01 00:20:31  5-MIN KDBQ 290620Z AUTO 01003KT 4SM BR OVC004 02/01 A3012 890 96 -400 010/03 RMK AO2 TSNO
94908KDBQ DBQ20011129002512011/29/01 00:25:31  5-MIN KDBQ 290625Z AUTO 00000KT 4SM BR OVC004 02/01 A3012 890 96 -400 000/00 RMK AO2 CIG 003V007 TSNO
94908KDBQ DBQ20011129003010811/29/01 00:30:31  5-MIN KDBQ 290630Z AUTO 00000KT 4SM BR OVC004 02/01 A3013 890 96 -400 000/00 RMK AO2 TSNO
94908KDBQ DBQ20011129003510811/29/01 00:35:31  5-MIN KDBQ 290635Z AUTO 00000KT 4SM BR OVC004 02/01 A3013 890 96 -400 000/00 RMK AO2 TSNO
94908KDBQ DBQ20011129004010811/29/01 00:40:31  5-MIN KDBQ 290640Z AUTO 00000KT 4SM BR OVC004 02/01 A3013 890 96 -400 000/00 RMK AO2 TSNO
94908KDBQ DBQ20011129004510811/29/01 00:45:31  5-MIN KDBQ 290645Z AUTO 00000KT 4SM BR OVC004 02/01 A3012 890 96 -400 000/00 RMK AO2 TSNO
94908KDBQ DBQ20011129005012511/29/01 00:50:31  5-MIN KDBQ 290650Z AUTO 00000KT 3SM BR OVC004 02/01 A3012 900 96 -400 000/00 RMK AO2 SLP208 T00170011 TSNO
94908KDBQ DBQ20011129005512511/29/01 00:55:31  5-MIN KDBQ 290655Z AUTO 03003KT 3SM BR OVC004 02/01 A3012 900 96 -400 030/03 RMK AO2 SLP208 T00170011 TSNO
94908KDBQ DBQ20011129010011211/29/01 01:00:31  5-MIN KDBQ 290700Z AUTO 02003KT 2 1/2SM BR OVC002 02/01 A3012 900 96 -400 020/03 RMK AO2 TSNO
94908KDBQ DBQ20011129010511211/29/01 01:05:31  5-MIN KDBQ 290705Z AUTO 00000KT 2 1/2SM BR OVC002 02/01 A3012 900 96 -400 000/00 RMK AO2 TSNO
94908KDBQ DBQ20011129011010811/29/01 01:10:31  5-MIN KDBQ 290710Z AUTO 35004KT 2SM BR OVC002 02/01 A3011 910 96 -400 350/04 RMK AO2 TSNO
94908KDBQ DBQ20011129011511311/29/01 01:15:31  5-MIN KDBQ 290715Z AUTO 00000KT 1 3/4SM BR OVC002 02/02 A3011 900 100 -400 000/00 RMK AO2 TSNO
94908KDBQ DBQ20011129012011211/29/01 01:20:31  5-MIN KDBQ 290720Z AUTO 00000KT 1 1/2SM BR OVC002 02/01 A3011 910 96 -400 000/00 RMK AO2 TSNO
94908KDBQ DBQ20011129012511311/29/01 01:25:31  5-MIN KDBQ 290725Z AUTO 01003KT 1 1/4SM BR OVC002 02/02 A3011 910 100 -400 010/03 RMK AO2 TSNO
94908KDBQ DBQ20011129013010911/29/01 01:30:31  5-MIN KDBQ 290730Z AUTO 00000KT 1SM BR OVC002 02/02 A3011 900 100 -400 000/00 RMK AO2 TSNO
94908KDBQ DBQ20011129013510911/29/01 01:35:31  5-MIN KDBQ 290735Z AUTO 35003KT 1SM BR OVC002 02/02 A3011 900 100 -400 350/03 RMK AO2 TSNO
94908KDBQ DBQ20011129014010911/29/01 01:40:31  5-MIN KDBQ 290740Z AUTO 32003KT 1SM BR OVC002 02/02 A3012 900 100 -400 320/03 RMK AO2 TSNO
94908KDBQ DBQ20011129014510911/29/01 01:45:31  5-MIN KDBQ 290745Z AUTO 32005KT 1SM BR OVC002 02/02 A3012 890 100 -400 320/05 RMK AO2 TSNO
94908KDBQ DBQ20011129015012611/29/01 01:50:31  5-MIN KDBQ 290750Z AUTO 33005KT 1SM BR OVC002 02/02 A3012 890 100 -400 330/05 RMK AO2 SLP210 T00170017 TSNO
94908KDBQ DBQ20011129015512811/29/01 01:55:31  5-MIN KDBQ 290755Z AUTO 34005KT 3/4SM BR OVC002 02/02 A3012 900 100 -400 340/05 RMK AO2 SLP209 T00170017 TSNO
94908KDBQ DBQ20011129020011111/29/01 02:00:31  5-MIN KDBQ 290800Z AUTO 33005KT 3/4SM BR OVC002 02/02 A3012 890 100 -400 330/05 RMK AO2 TSNO
94908KDBQ DBQ20011129020511111/29/01 02:05:31  5-MIN KDBQ 290805Z AUTO 32005KT 3/4SM BR OVC002 02/02 A3012 890 100 -400 320/05 RMK AO2 TSNO
94908KDBQ DBQ20011129021011111/29/01 02:10:31  5-MIN KDBQ 290810Z AUTO 32006KT 1/2SM FG OVC002 02/02 A3012 890 100 -400 320/06 RMK AO2 TSNO
94908KDBQ DBQ20011129021511011/29/01 02:15:31  5-MIN KDBQ 290815Z AUTO 33006KT 3/4SM BR VV001 02/02 A3012 890 100 -400 330/06 RMK AO2 TSNO
94908KDBQ DBQ20011129022011011/29/01 02:20:31  5-MIN KDBQ 290820Z AUTO 33005KT 3/4SM BR VV001 02/02 A3012 900 100 -400 330/05 RMK AO2 TSNO
94908KDBQ DBQ20011129022511011/29/01 02:25:31  5-MIN KDBQ 290825Z AUTO 34005KT 3/4SM BR VV001 02/02 A3012 890 100 -400 340/05 RMK AO2 TSNO
94908KDBQ DBQ20011129023011011/29/01 02:30:31  5-MIN KDBQ 290830Z AUTO 35004KT 3/4SM BR VV001 02/02 A3011 900 100 -400 350/04 RMK AO2 TSNO
94908KDBQ DBQ20011129023511011/29/01 02:35:31  5-MIN KDBQ 290835Z AUTO 35004KT 1/2SM FG VV001 02/02 A3011 900 100 -400 340/04 RMK AO2 TSNO
94908KDBQ DBQ20011129024011011/29/01 02:40:31  5-MIN KDBQ 290840Z AUTO 36004KT 1/2SM FG VV001 02/02 A3011 900 100 -400 360/04 RMK AO2 TSNO
94908KDBQ DBQ20011129024511011/29/01 02:45:31  5-MIN KDBQ 290845Z AUTO 36004KT 1/2SM FG VV001 02/02 A3011 910 100 -400 360/04 RMK AO2 TSNO
94908KDBQ DBQ20011129025013311/29/01 02:50:31  5-MIN KDBQ 290850Z AUTO 02003KT 3/4SM BR VV001 02/02 A3011 910 100 -400 020/03 RMK AO2 SLP205 T00170017 55004 TSNO
94908KDBQ DBQ20011129025513311/29/01 02:55:31  5-MIN KDBQ 290855Z AUTO 03004KT 3/4SM BR VV001 02/02 A3010 910 100 -400 030/04 RMK AO2 SLP203 T00170017 56013 TSNO
94908KDBQ DBQ20011129030011111/29/01 03:00:31  5-MIN KDBQ 290900Z AUTO 01006KT 3/4SM BR OVC001 02/02 A3010 920 100 -400 010/06 RMK AO2 TSNO
94908KDBQ DBQ20011129030511111/29/01 03:05:31  5-MIN KDBQ 290905Z AUTO 01006KT 3/4SM BR OVC001 02/02 A3009 920 100 -400 010/06 RMK AO2 TSNO
94908KDBQ DBQ20011129031010911/29/01 03:10:31  5-MIN KDBQ 290910Z AUTO 01005KT 1SM BR OVC001 02/02 A3010 920 100 -400 360/05 RMK AO2 TSNO
94908KDBQ DBQ20011129031511311/29/01 03:15:31  5-MIN KDBQ 290915Z AUTO 01005KT 1 1/4SM BR OVC001 02/02 A3009 920 100 -400 010/05 RMK AO2 TSNO
94908KDBQ DBQ20011129032011311/29/01 03:20:31  5-MIN KDBQ 290920Z AUTO 02006KT 1 1/2SM BR OVC001 02/02 A3009 920 100 -400 020/06 RMK AO2 TSNO
94908KDBQ DBQ20011129032511311/29/01 03:25:31  5-MIN KDBQ 290925Z AUTO 03005KT 2 1/2SM BR OVC001 02/02 A3009 920 100 -400 030/05 RMK AO2 TSNO
94908KDBQ DBQ20011129033010811/29/01 03:30:31  5-MIN KDBQ 290930Z AUTO 03005KT 4SM BR OVC001 02/01 A3008 930 96 -400 030/05 RMK AO2 TSNO
94908KDBQ DBQ20011129033510911/29/01 03:35:31  5-MIN KDBQ 290935Z AUTO 02006KT 4SM BR OVC001 02/02 A3008 930 100 -400 020/06 RMK AO2 TSNO
94908KDBQ DBQ20011129034010911/29/01 03:40:31  5-MIN KDBQ 290940Z AUTO 02006KT 3SM BR OVC003 02/02 A3008 930 100 -400 020/06 RMK AO2 TSNO
94908KDBQ DBQ20011129034510911/29/01 03:45:31  5-MIN KDBQ 290945Z AUTO 02006KT 3SM BR OVC003 02/02 A3008 930 100 -400 020/06 RMK AO2 TSNO
94908KDBQ DBQ20011129035012611/29/01 03:50:31  5-MIN KDBQ 290950Z AUTO 02006KT 3SM BR OVC003 02/02 A3007 940 100 -400 020/06 RMK AO2 SLP194 T00170017 TSNO
94908KDBQ DBQ20011129035512511/29/01 03:55:31  5-MIN KDBQ 290955Z AUTO 02006KT 3SM BR OVC003 02/01 A3008 940 96 -400 020/06 RMK AO2 SLP194 T00170011 TSNO
94908KDBQ DBQ20011129040010911/29/01 04:00:31  5-MIN KDBQ 291000Z AUTO 02006KT 3SM BR OVC003 02/02 A3007 940 100 -400 020/06 RMK AO2 TSNO
94908KDBQ DBQ20011129040510911/29/01 04:05:31  5-MIN KDBQ 291005Z AUTO 02007KT 3SM BR OVC003 02/02 A3008 930 100 -400 020/07 RMK AO2 TSNO
94908KDBQ DBQ20011129041012011/29/01 04:10:31  5-MIN KDBQ 291010Z AUTO 02007KT 3SM BR OVC003 02/01 A3008 930 96 -400 020/07 RMK AO2 CIG 002V005 TSNO
94908KDBQ DBQ20011129041512011/29/01 04:15:31  5-MIN KDBQ 291015Z AUTO 02006KT 4SM BR OVC003 02/01 A3008 930 96 -400 020/06 RMK AO2 CIG 002V005 TSNO
94908KDBQ DBQ20011129042012011/29/01 04:20:31  5-MIN KDBQ 291020Z AUTO 02006KT 4SM BR OVC003 02/01 A3008 930 96 -400 020/06 RMK AO2 CIG 002V005 TSNO
94908KDBQ DBQ20011129042510811/29/01 04:25:31  5-MIN KDBQ 291025Z AUTO 02007KT 4SM BR OVC003 02/01 A3007 940 96 -400 020/07 RMK AO2 TSNO
94908KDBQ DBQ20011129043010811/29/01 04:30:31  5-MIN KDBQ 291030Z AUTO 02007KT 4SM BR OVC003 02/01 A3007 940 96 -400 020/07 RMK AO2 TSNO
94908KDBQ DBQ20011129043510811/29/01 04:35:31  5-MIN KDBQ 291035Z AUTO 03006KT 4SM BR OVC003 02/01 A3007 940 96 -400 020/06 RMK AO2 TSNO
94908KDBQ DBQ20011129044012011/29/01 04:40:31  5-MIN KDBQ 291040Z AUTO 02005KT 3SM BR OVC003 02/01 A3008 930 96 -400 020/05 RMK AO2 CIG 002V005 TSNO
94908KDBQ DBQ20011129044512011/29/01 04:45:31  5-MIN KDBQ 291045Z AUTO 03006KT 3SM BR OVC003 02/01 A3008 940 96 -400 030/06 RMK AO2 CIG 002V005 TSNO
94908KDBQ DBQ20011129045013811/29/01 04:50:31  5-MIN KDBQ 291050Z AUTO 03006KT 3SM BR OVC003 02/02 A3008 930 100 -400 020/06 RMK AO2 CIG 002V005 SLP195 T00170017 TSNO
94908KDBQ DBQ20011129045513711/29/01 04:55:31  5-MIN KDBQ 291055Z AUTO 02006KT 3SM BR OVC003 02/01 A3007 940 96 -400 020/06 RMK AO2 CIG 002V005 SLP193 T00170011 TSNO
94908KDBQ DBQ20011129050010811/29/01 05:00:31  5-MIN KDBQ 291100Z AUTO 03005KT 3SM BR OVC003 02/01 A3007 940 96 -400 030/05 RMK AO2 TSNO
94908KDBQ DBQ20011129050510811/29/01 05:05:31  5-MIN KDBQ 291105Z AUTO 04005KT 3SM BR OVC003 02/01 A3007 940 96 -400 040/05 RMK AO2 TSNO
94908KDBQ DBQ20011129051010811/29/01 05:10:31  5-MIN KDBQ 291110Z AUTO 02006KT 3SM BR OVC003 02/01 A3007 940 96 -400 020/06 RMK AO2 TSNO
94908KDBQ DBQ20011129051510811/29/01 05:15:31  5-MIN KDBQ 291115Z AUTO 03005KT 3SM BR OVC003 02/01 A3007 940 96 -400 030/05 RMK AO2 TSNO
94908KDBQ DBQ20011129052010811/29/01 05:20:31  5-MIN KDBQ 291120Z AUTO 02005KT 3SM BR OVC003 02/01 A3007 940 96 -400 020/05 RMK AO2 TSNO
94908KDBQ DBQ20011129052512011/29/01 05:25:31  5-MIN KDBQ 291125Z AUTO 02005KT 3SM BR OVC003 02/01 A3007 940 96 -400 020/05 RMK AO2 CIG 002V006 TSNO
94908KDBQ DBQ20011129053012011/29/01 05:30:31  5-MIN KDBQ 291130Z AUTO 04005KT 3SM BR OVC003 02/01 A3007 940 96 -400 040/05 RMK AO2 CIG 002V006 TSNO
94908KDBQ DBQ20011129053512011/29/01 05:35:31  5-MIN KDBQ 291135Z AUTO 04006KT 3SM BR OVC003 02/01 A3006 950 96 -400 040/06 RMK AO2 CIG 002V006 TSNO
94908KDBQ DBQ20011129054012011/29/01 05:40:31  5-MIN KDBQ 291140Z AUTO 04005KT 3SM BR OVC003 02/01 A3006 950 96 -400 030/05 RMK AO2 CIG 002V007 TSNO
94908KDBQ DBQ20011129054512011/29/01 05:45:31  5-MIN KDBQ 291145Z AUTO 02006KT 3SM BR OVC003 02/01 A3006 950 96 -300 020/06 RMK AO2 CIG 002V007 TSNO
94908KDBQ DBQ20011129055016111/29/01 05:50:31  5-MIN KDBQ 291150Z AUTO 03005KT 3SM BR OVC003 02/01 A3006 950 96 -300 030/05 RMK AO2 CIG 002V007 SLP188 70001 T00170011 10017 20017 56013 TSNO
94908KDBQ DBQ20011129055515111/29/01 05:55:31  5-MIN KDBQ 291155Z 04004KT 3SM BR OVC003 02/01 A3006 950 96 -300 040/04 RMK AO2 CIG 002V005 SLP188 70001 T00170011 10017 20017 56015
94908KDBQ DBQ20011129060011011/29/01 06:00:31  5-MIN KDBQ 291200Z 04005KT 3SM BR OVC003 02/01 A3005 950 96 -300 040/05 RMK AO2 CIG 002V005
94908KDBQ DBQ20011129060509811/29/01 06:05:31  5-MIN KDBQ 291205Z 05006KT 3SM BR OVC003 02/01 A3006 950 96 -300 050/06 RMK AO2
94908KDBQ DBQ20011129061009811/29/01 06:10:31  5-MIN KDBQ 291210Z 05005KT 4SM BR OVC003 02/01 A3006 940 96 -400 050/05 RMK AO2
94908KDBQ DBQ20011129061509811/29/01 06:15:31  5-MIN KDBQ 291215Z 05004KT 4SM BR OVC003 02/01 A3007 940 96 -400 050/04 RMK AO2
94908KDBQ DBQ20011129062009811/29/01 06:20:31  5-MIN KDBQ 291220Z 05004KT 4SM BR OVC003 02/01 A3006 950 96 -300 050/04 RMK AO2
94908KDBQ DBQ20011129062509811/29/01 06:25:31  5-MIN KDBQ 291225Z 06005KT 4SM BR OVC003 02/01 A3006 950 96 -400 050/05 RMK AO2
94908KDBQ DBQ20011129063009811/29/01 06:30:31  5-MIN KDBQ 291230Z 05004KT 3SM BR OVC003 02/01 A3006 950 96 -400 050/04 RMK AO2
94908KDBQ DBQ20011129063509811/29/01 06:35:31  5-MIN KDBQ 291235Z 05004KT 4SM BR OVC003 02/01 A3007 940 96 -400 050/04 RMK AO2
94908KDBQ DBQ20011129064011011/29/01 06:40:31  5-MIN KDBQ 291240Z 06004KT 4SM BR OVC003 02/01 A3007 940 96 -400 060/04 RMK AO2 CIG 002V006
94908KDBQ DBQ20011129064511011/29/01 06:45:31  5-MIN KDBQ 291245Z 04004KT 4SM BR OVC003 02/01 A3006 950 96 -400 040/04 RMK AO2 CIG 002V006
94908KDBQ DBQ20011129065011511/29/01 06:50:31  5-MIN KDBQ 291250Z 04004KT 4SM BR OVC003 02/01 A3006 950 96 -400 040/04 RMK AO2 SLP190 T00170011
94908KDBQ DBQ20011129065511511/29/01 06:55:31  5-MIN KDBQ 291255Z 04004KT 4SM BR OVC003 02/01 A3006 950 96 -400 040/04 RMK AO2 SLP190 T00170011
94908KDBQ DBQ20011129070009811/29/01 07:00:31  5-MIN KDBQ 291300Z 03004KT 4SM BR OVC005 02/01 A3007 940 96 -400 030/04 RMK AO2
94908KDBQ DBQ20011129070509811/29/01 07:05:31  5-MIN KDBQ 291305Z 04003KT 4SM BR OVC005 02/01 A3007 940 96 -400 040/03 RMK AO2
94908KDBQ DBQ20011129071011011/29/01 07:10:31  5-MIN KDBQ 291310Z 04003KT 4SM BR OVC005 02/01 A3007 940 96 -400 040/03 RMK AO2 CIG 004V009
94908KDBQ DBQ20011129071511011/29/01 07:15:31  5-MIN KDBQ 291315Z 03004KT 4SM BR OVC005 02/01 A3007 940 96 -400 020/04 RMK AO2 CIG 003V009
94908KDBQ DBQ20011129072011011/29/01 07:20:31  5-MIN KDBQ 291320Z 03005KT 4SM BR OVC005 02/01 A3007 940 96 -400 030/05 RMK AO2 CIG 003V009
94908KDBQ DBQ20011129072511011/29/01 07:25:31  5-MIN KDBQ 291325Z 03004KT 4SM BR OVC005 02/01 A3007 940 96 -400 030/04 RMK AO2 CIG 002V009
94908KDBQ DBQ20011129073011711/29/01 07:30:31  5-MIN KDBQ 291330Z 03004KT 3SM BR BKN005 OVC008 02/01 A3007 940 96 -400 030/04 RMK AO2 CIG 002V006
94908KDBQ DBQ20011129073510511/29/01 07:35:31  5-MIN KDBQ 291335Z 04006KT 3SM BR BKN003 OVC008 02/01 A3007 940 96 -400 040/06 RMK AO2
94908KDBQ DBQ20011129074011411/29/01 07:40:31  5-MIN KDBQ 291340Z AUTO 03006KT 2 1/2SM BR BKN003 OVC008 02/01 A3006 950 96 -400 030/06 RMK AO2
94908KDBQ DBQ20011129074510811/29/01 07:45:31  5-MIN KDBQ 291345Z AUTO 04006KT 3SM BR OVC003 02/01 A3006 950 96 -400 040/06 RMK AO2 TSNO
94908KDBQ DBQ20011129075012511/29/01 07:50:31  5-MIN KDBQ 291350Z AUTO 03006KT 3SM BR OVC003 02/01 A3007 940 96 -400 030/06 RMK AO2 SLP193 T00170011 TSNO
94908KDBQ DBQ20011129075512711/29/01 07:55:31  5-MIN KDBQ 291355Z 04007KT 4SM BR OVC003 02/01 A3007 940 92 -400 040/07 RMK AO2 CIG 002V006 SLP194 T00170006
94908KDBQ DBQ20011129080011011/29/01 08:00:31  5-MIN KDBQ 291400Z 04007KT 4SM BR OVC003 02/01 A3007 940 92 -400 040/07 RMK AO2 CIG 002V006
94908KDBQ DBQ20011129080509811/29/01 08:05:31  5-MIN KDBQ 291405Z 04007KT 4SM BR OVC003 02/01 A3007 940 92 -400 040/07 RMK AO2
94908KDBQ DBQ20011129081009811/29/01 08:10:31  5-MIN KDBQ 291410Z 05006KT 4SM BR OVC003 02/01 A3007 940 92 -400 050/06 RMK AO2
94908KDBQ DBQ20011129081511011/29/01 08:15:31  5-MIN KDBQ 291415Z 05007KT 4SM BR OVC003 01/01 A3007 940 96 -400 050/07 RMK AO2 CIG 003V006
94908KDBQ DBQ20011129082011011/29/01 08:20:31  5-MIN KDBQ 291420Z 04006KT 3SM BR OVC003 02/01 A3007 940 92 -400 040/06 RMK AO2 CIG 003V008
94908KDBQ DBQ20011129082511011/29/01 08:25:31  5-MIN KDBQ 291425Z 06005KT 3SM BR OVC003 01/01 A3007 940 96 -400 050/05 RMK AO2 CIG 003V008
94908KDBQ DBQ20011129083009811/29/01 08:30:31  5-MIN KDBQ 291430Z 05006KT 3SM BR OVC003 02/01 A3007 940 92 -400 050/06 RMK AO2
94908KDBQ DBQ20011129083509811/29/01 08:35:31  5-MIN KDBQ 291435Z 04007KT 3SM BR OVC003 02/01 A3006 950 92 -400 040/07 RMK AO2
94908KDBQ DBQ20011129084009811/29/01 08:40:31  5-MIN KDBQ 291440Z 03005KT 3SM BR OVC003 01/01 A3006 950 96 -400 030/05 RMK AO2
94908KDBQ DBQ20011129084509811/29/01 08:45:31  5-MIN KDBQ 291445Z 03005KT 3SM BR OVC003 02/01 A3007 940 92 -400 030/05 RMK AO2
94908KDBQ DBQ20011129085012111/29/01 08:50:31  5-MIN KDBQ 291450Z 04007KT 3SM BR OVC003 01/01 A3007 940 96 -400 040/07 RMK AO2 SLP195 T00110006 56015
94908KDBQ DBQ20011129085512111/29/01 08:55:31  5-MIN KDBQ 291455Z 05007KT 3SM BR OVC003 01/01 A3008 930 96 -400 050/07 RMK AO2 SLP196 T00110006 53007
94908KDBQ DBQ20011129090009811/29/01 09:00:31  5-MIN KDBQ 291500Z 04006KT 3SM BR OVC003 01/01 A3008 930 96 -400 040/06 RMK AO2
94908KDBQ DBQ20011129090509811/29/01 09:05:31  5-MIN KDBQ 291505Z 04006KT 3SM BR OVC003 01/01 A3008 930 96 -400 040/06 RMK AO2
94908KDBQ DBQ20011129091009811/29/01 09:10:31  5-MIN KDBQ 291510Z 03007KT 4SM BR OVC003 01/01 A3008 930 96 -400 030/07 RMK AO2
94908KDBQ DBQ20011129091509811/29/01 09:15:31  5-MIN KDBQ 291515Z 03007KT 4SM BR OVC003 01/01 A3008 930 96 -400 030/07 RMK AO2
94908KDBQ DBQ20011129092009811/29/01 09:20:31  5-MIN KDBQ 291520Z 04006KT 4SM BR OVC003 01/01 A3007 940 96 -400 040/06 RMK AO2
94908KDBQ DBQ20011129092509811/29/01 09:25:31  5-MIN KDBQ 291525Z 04007KT 4SM BR OVC003 02/01 A3007 940 92 -400 040/07 RMK AO2
94908KDBQ DBQ20011129093009811/29/01 09:30:31  5-MIN KDBQ 291530Z 04008KT 4SM BR OVC003 01/01 A3007 940 96 -400 040/08 RMK AO2
94908KDBQ DBQ20011129093509811/29/01 09:35:31  5-MIN KDBQ 291535Z 04008KT 3SM BR OVC003 01/01 A3007 940 96 -400 040/08 RMK AO2
94908KDBQ DBQ20011129094009811/29/01 09:40:31  5-MIN KDBQ 291540Z 04008KT 4SM BR OVC003 01/01 A3007 940 96 -400 040/08 RMK AO2
94908KDBQ DBQ20011129094509811/29/01 09:45:31  5-MIN KDBQ 291545Z 03008KT 4SM BR OVC003 01/01 A3007 940 96 -400 030/08 RMK AO2
94908KDBQ DBQ20011129095011511/29/01 09:50:31  5-MIN KDBQ 291550Z 04007KT 3SM BR OVC003 01/01 A3007 940 96 -400 040/07 RMK AO2 SLP193 T00110006
94908KDBQ DBQ20011129095511511/29/01 09:55:31  5-MIN KDBQ 291555Z 05007KT 4SM BR OVC003 01/01 A3007 940 96 -400 050/07 RMK AO2 SLP192 T00110006
94908KDBQ DBQ20011129100009811/29/01 10:00:31  5-MIN KDBQ 291600Z 02008KT 4SM BR OVC003 01/01 A3007 940 96 -400 020/08 RMK AO2
94908KDBQ DBQ20011129100509811/29/01 10:05:31  5-MIN KDBQ 291605Z 04006KT 5SM BR OVC003 01/01 A3008 930 96 -400 040/06 RMK AO2
94908KDBQ DBQ20011129101009811/29/01 10:10:31  5-MIN KDBQ 291610Z 06008KT 5SM BR OVC003 01/01 A3008 930 96 -400 060/08 RMK AO2
94908KDBQ DBQ20011129101509811/29/01 10:15:31  5-MIN KDBQ 291615Z 06009KT 6SM BR OVC003 01/00 A3008 930 92 -400 050/09 RMK AO2
94908KDBQ DBQ20011129102009811/29/01 10:20:31  5-MIN KDBQ 291620Z 05006KT 6SM BR OVC003 01/00 A3008 930 92 -400 050/06 RMK AO2
94908KDBQ DBQ20011129102509811/29/01 10:25:31  5-MIN KDBQ 291625Z 05008KT 5SM BR OVC003 01/01 A3008 930 96 -400 050/08 RMK AO2
94908KDBQ DBQ20011129103009811/29/01 10:30:31  5-MIN KDBQ 291630Z 04008KT 6SM BR OVC003 01/01 A3007 940 96 -400 030/08 RMK AO2
94908KDBQ DBQ20011129103509811/29/01 10:35:31  5-MIN KDBQ 291635Z 04008KT 6SM BR OVC005 01/00 A3007 940 92 -400 040/08 RMK AO2
94908KDBQ DBQ20011129104009511/29/01 10:40:31  5-MIN KDBQ 291640Z 03009KT 7SM OVC005 01/00 A3006 950 92 -400 030/09 RMK AO2
94908KDBQ DBQ20011129104509511/29/01 10:45:31  5-MIN KDBQ 291645Z 01007KT 7SM OVC005 01/00 A3006 950 92 -400 010/07 RMK AO2
94908KDBQ DBQ20011129105011511/29/01 10:50:31  5-MIN KDBQ 291650Z 03007KT 6SM BR OVC005 01/01 A3006 950 96 -400 030/07 RMK AO2 SLP189 T00110006
94908KDBQ DBQ20011129105511511/29/01 10:55:31  5-MIN KDBQ 291655Z 05006KT 6SM BR OVC005 01/01 A3005 960 96 -400 050/06 RMK AO2 SLP188 T00110006
94908KDBQ DBQ20011129110009811/29/01 11:00:31  5-MIN KDBQ 291700Z 03010KT 6SM BR OVC005 01/00 A3005 960 92 -400 030/10 RMK AO2
94908KDBQ DBQ20011129110510711/29/01 11:05:31  5-MIN KDBQ 291705Z 03010KT 7SM OVC005 01/00 A3005 960 92 -400 030/10 RMK AO2 CIG 004V009
94908KDBQ DBQ20011129111010711/29/01 11:10:31  5-MIN KDBQ 291710Z 03008KT 7SM OVC005 01/00 A3005 960 92 -400 030/08 RMK AO2 CIG 004V009
94908KDBQ DBQ20011129111509511/29/01 11:15:31  5-MIN KDBQ 291715Z 02008KT 7SM OVC005 01/00 A3005 960 92 -400 020/08 RMK AO2
94908KDBQ DBQ20011129112009511/29/01 11:20:31  5-MIN KDBQ 291720Z 01009KT 7SM OVC005 02/01 A3005 960 92 -300 010/09 RMK AO2
94908KDBQ DBQ20011129112509511/29/01 11:25:31  5-MIN KDBQ 291725Z 02009KT 7SM OVC005 02/00 A3005 960 89 -300 020/09 RMK AO2
94908KDBQ DBQ20011129113009511/29/01 11:30:31  5-MIN KDBQ 291730Z 03009KT 7SM OVC005 02/01 A3005 960 92 -300 030/09 RMK AO2
94908KDBQ DBQ20011129113509811/29/01 11:35:31  5-MIN KDBQ 291735Z 06008KT 6SM BR OVC005 01/00 A3005 960 92 -400 060/08 RMK AO2
94908KDBQ DBQ20011129114009511/29/01 11:40:31  5-MIN KDBQ 291740Z 03010KT 7SM OVC005 01/00 A3004 960 92 -400 030/10 RMK AO2
94908KDBQ DBQ20011129114509511/29/01 11:45:31  5-MIN KDBQ 291745Z 02009KT 7SM OVC005 01/00 A3004 970 92 -400 020/09 RMK AO2
94908KDBQ DBQ20011129115013311/29/01 11:50:31  5-MIN KDBQ 291750Z 02009KT 6SM BR OVC005 01/00 A3003 970 92 -400 010/09 RMK AO2 SLP181 T00110000 10017 20011 53007
94908KDBQ DBQ20011129115513311/29/01 11:55:31  5-MIN KDBQ 291755Z 03006KT 5SM BR OVC005 01/00 A3003 980 92 -400 030/06 RMK AO2 SLP180 T00110000 10017 20011 58015
94908KDBQ DBQ20011129120009811/29/01 12:00:31  5-MIN KDBQ 291800Z 03008KT 5SM BR OVC005 01/00 A3003 980 92 -400 030/08 RMK AO2
94908KDBQ DBQ20011129120509811/29/01 12:05:31  5-MIN KDBQ 291805Z 03011KT 5SM BR OVC005 01/00 A3002 980 92 -400 030/11 RMK AO2
94908KDBQ DBQ20011129121009811/29/01 12:10:31  5-MIN KDBQ 291810Z 03009KT 5SM BR OVC005 01/00 A3003 980 92 -400 030/09 RMK AO2
94908KDBQ DBQ20011129121509811/29/01 12:15:31  5-MIN KDBQ 291815Z 04009KT 5SM BR OVC005 01/00 A3003 980 92 -400 040/09 RMK AO2
94908KDBQ DBQ20011129122009811/29/01 12:20:31  5-MIN KDBQ 291820Z 04009KT 6SM BR OVC005 01/00 A3002 980 92 -400 040/09 RMK AO2
94908KDBQ DBQ20011129122509811/29/01 12:25:31  5-MIN KDBQ 291825Z 05007KT 6SM BR OVC005 01/00 A3002 980 92 -400 050/07 RMK AO2
94908KDBQ DBQ20011129123009811/29/01 12:30:31  5-MIN KDBQ 291830Z 03008KT 5SM BR OVC005 01/00 A3002 990 92 -400 030/08 RMK AO2
94908KDBQ DBQ20011129123509811/29/01 12:35:31  5-MIN KDBQ 291835Z 06006KT 5SM BR OVC005 01/00 A3002 990 92 -400 050/06 RMK AO2
94908KDBQ DBQ20011129124009811/29/01 12:40:31  5-MIN KDBQ 291840Z 06009KT 5SM BR OVC005 01/00 A3002 990 92 -400 060/09 RMK AO2
94908KDBQ DBQ20011129124509811/29/01 12:45:31  5-MIN KDBQ 291845Z 05009KT 5SM BR OVC005 01/00 A3002 990 92 -400 050/09 RMK AO2
94908KDBQ DBQ20011129125011611/29/01 12:50:31  5-MIN KDBQ 291850Z 02009KT 6SM BR OVC005 01/M01 A3002 990 89 -400 020/09 RMK AO2 SLP176 T00111006
94908KDBQ DBQ20011129125511511/29/01 12:55:31  5-MIN KDBQ 291855Z 04008KT 6SM BR OVC005 01/00 A3002 990 92 -400 040/08 RMK AO2 SLP175 T00110000
94908KDBQ DBQ20011129130009811/29/01 13:00:31  5-MIN KDBQ 291900Z 04008KT 6SM BR OVC005 01/00 A3002 990 92 -400 040/08 RMK AO2
94908KDBQ DBQ20011129130509911/29/01 13:05:31  5-MIN KDBQ 291905Z 04007KT 5SM BR OVC005 01/00 A3001 1000 92 -400 040/07 RMK AO2
94908KDBQ DBQ20011129131009911/29/01 13:10:31  5-MIN KDBQ 291910Z 05007KT 5SM BR OVC005 01/00 A3001 1000 92 -400 050/07 RMK AO2
94908KDBQ DBQ20011130211012211/30/01 21:10:31  5-MIN KDBQ 010310Z AUTO 24013KT 6SM BR FEW009 BKN016 OVC021 04/03 A2978 1200 92 300 240/13 RMK AO2 TSNO
94908KDBQ DBQ20011130211512211/30/01 21:15:31  5-MIN KDBQ 010315Z AUTO 23012KT 6SM BR SCT009 BKN016 OVC028 04/03 A2978 1200 92 300 230/12 RMK AO2 TSNO
94908KDBQ DBQ20011130212012211/30/01 21:20:31  5-MIN KDBQ 010320Z AUTO 23012KT 5SM BR SCT009 BKN012 OVC018 04/03 A2978 1200 92 300 230/12 RMK AO2 TSNO
94908KDBQ DBQ20011130212512211/30/01 21:25:31  5-MIN KDBQ 010325Z AUTO 24011KT 5SM BR SCT009 BKN014 OVC021 04/03 A2979 1200 92 300 240/11 RMK AO2 TSNO
94908KDBQ DBQ20011130213012211/30/01 21:30:31  5-MIN KDBQ 010330Z AUTO 24011KT 5SM BR FEW009 BKN014 OVC020 04/03 A2979 1200 92 300 230/11 RMK AO2 TSNO
94908KDBQ DBQ20011130213512211/30/01 21:35:31  5-MIN KDBQ 010335Z AUTO 24012KT 5SM BR FEW009 BKN013 OVC023 04/03 A2979 1200 92 300 240/12 RMK AO2 TSNO
94908KDBQ DBQ20011130214012211/30/01 21:40:31  5-MIN KDBQ 010340Z AUTO 24012KT 5SM BR SCT011 BKN016 OVC029 04/03 A2978 1210 92 300 240/12 RMK AO2 TSNO
94908KDBQ DBQ20011130214512211/30/01 21:45:31  5-MIN KDBQ 010345Z AUTO 24012KT 5SM BR SCT010 BKN021 OVC044 04/03 A2978 1200 96 200 240/12 RMK AO2 TSNO
94908KDBQ DBQ20011130215013911/30/01 21:50:31  5-MIN KDBQ 010350Z AUTO 25012KT 6SM BR FEW009 BKN012 OVC044 04/03 A2978 1200 96 200 250/12 RMK AO2 SLP094 T00390033 TSNO
94908KDBQ DBQ20011130215515511/30/01 21:55:31  5-MIN KDBQ 010355Z AUTO 25010KT 5SM -RA BR SCT007 BKN013 OVC029 04/03 A2979 1200 96 200 250/10 RMK AO2 RAB54 SLP095 P0000 T00390033 TSNO
94908KDBQ DBQ20011130220013211/30/01 22:00:31  5-MIN KDBQ 010400Z AUTO 24012KT 5SM -RA BR FEW007 BKN011 OVC028 04/03 A2979 1200 92 200 240/12 RMK AO2 P0000 TSNO
94908KDBQ DBQ20011130220512911/30/01 22:05:31  5-MIN KDBQ 010405Z AUTO 24014KT 7SM -RA SCT009 BKN018 OVC041 04/03 A2979 1200 92 200 240/14 RMK AO2 P0000 TSNO
94908KDBQ DBQ20011130221012911/30/01 22:10:31  5-MIN KDBQ 010410Z AUTO 24013KT 8SM -RA FEW007 BKN018 OVC041 04/02 A2979 1200 89 200 240/13 RMK AO2 P0000 TSNO
94908KDBQ DBQ20011130221512911/30/01 22:15:31  5-MIN KDBQ 010415Z AUTO 24014KT 8SM -RA SCT007 BKN018 OVC025 03/03 A2979 1200 96 100 240/14 RMK AO2 P0000 TSNO
94908KDBQ DBQ20011130222012911/30/01 22:20:31  5-MIN KDBQ 010420Z AUTO 24013KT 8SM -RA BKN009 BKN018 OVC025 04/03 A2979 1190 92 200 240/13 RMK AO2 P0001 TSNO
94908KDBQ DBQ20011130222513111/30/01 22:25:31  5-MIN KDBQ 010425Z AUTO 24014KT 8SM BKN009 BKN018 OVC025 04/03 A2980 1190 92 200 240/14 RMK AO2 RAE21 P0001 TSNO
94908KDBQ DBQ20011130223012711/30/01 22:30:31  5-MIN KDBQ 010430Z AUTO 24013KT 6SM BR BKN009 OVC018 04/03 A2980 1190 92 200 240/13 RMK AO2 RAE21 P0001 TSNO
94908KDBQ DBQ20011130223512711/30/01 22:35:31  5-MIN KDBQ 010435Z AUTO 24012KT 6SM BR BKN007 OVC016 04/03 A2980 1190 92 200 240/12 RMK AO2 RAE21 P0001 TSNO
94908KDBQ DBQ20011130224013211/30/01 22:40:31  5-MIN KDBQ 010440Z AUTO 24015KT 5SM BR OVC007 04/03 A2981 1190 92 200 240/15 RMK AO2 RAE21 CIG 006V010 P0001 TSNO
94908KDBQ DBQ20011130224512011/30/01 22:45:31  5-MIN KDBQ 010445Z AUTO 24014KT 6SM BR OVC007 04/03 A2981 1180 92 200 240/14 RMK AO2 RAE21 P0001 TSNO
94908KDBQ DBQ20011130225013711/30/01 22:50:31  5-MIN KDBQ 010450Z AUTO 24013KT 5SM BR OVC007 04/03 A2981 1180 92 200 240/13 RMK AO2 RAE21 SLP103 P0001 T00390028 TSNO
94908KDBQ DBQ20011130225516311/30/01 22:55:31  5-MIN KDBQ 010455Z AUTO 25011KT 5SM -RA BR BKN007 OVC013 03/03 A2981 1180 96 100 250/11 RMK AO2 RAE21B53 CIG 006V011 SLP103 P0001 T00330028 TSNO
94908KDBQ DBQ20011130230013711/30/01 23:00:31  5-MIN KDBQ 010500Z AUTO 24010KT 5SM -RA BR BKN007 OVC013 03/03 A2982 1170 96 100 240/10 RMK AO2 CIG 006V010 P0000 TSNO
94908KDBQ DBQ20011130230512911/30/01 23:05:31  5-MIN KDBQ 010505Z AUTO 24011KT 7SM OVC007 03/03 A2982 1170 96 100 240/11 RMK AO2 RAE05 CIG 006V010 P0000 TSNO
94908KDBQ DBQ20011130231013811/30/01 23:10:31  5-MIN KDBQ 010510Z AUTO 26012G19KT 6SM BR OVC007 03/03 A2983 1160 96 100 260/12G19 RMK AO2 RAE05 CIG 006V010 P0000 TSNO
94908KDBQ DBQ20011130231513611/30/01 23:15:31  5-MIN KDBQ 010515Z AUTO 27013G19KT 6SM -RA BR BKN007 BKN012 OVC023 03/02 A2983 1160 92 0 270/13G19 RMK AO2 P0000 TSNO
94908KDBQ DBQ20011130232013011/30/01 23:20:31  5-MIN KDBQ 010520Z AUTO 26013KT 6SM -RA BR SCT007 BKN012 OVC023 03/02 A2982 1170 92 0 260/13 RMK AO2 P0000 TSNO
94908KDBQ DBQ20011130232513011/30/01 23:25:31  5-MIN KDBQ 010525Z AUTO 25012KT 8SM UP SCT007 OVC023 03/02 A2983 1170 92 0 250/12 RMK AO2 RAE24UPB24 P0000 TSNO
94908KDBQ DBQ20011130233013211/30/01 23:30:31  5-MIN KDBQ 010530Z AUTO 25011KT 8SM FEW007 OVC023 03/02 A2983 1160 89 100 250/11 RMK AO2 RAE27UPB24E26 P0000 TSNO
94908KDBQ DBQ20011130233513611/30/01 23:35:31  5-MIN KDBQ 010535Z AUTO 25011KT 8SM -RA FEW007 BKN026 OVC044 03/02 A2983 1170 92 0 250/11 RMK AO2 UPB24E26 P0000 TSNO
94908KDBQ DBQ20011130234013711/30/01 23:40:31  5-MIN KDBQ 010540Z AUTO 25010KT 8SM FEW010 BKN026 OVC044 03/02 A2983 1160 92 0 240/10 RMK AO2 RAE39UPB24E26 P0000 TSNO
94908KDBQ DBQ20011130234514311/30/01 23:45:31  5-MIN KDBQ 010545Z AUTO 25011KT 8SM UP FEW010 BKN021 OVC034 03/02 A2983 1160 96 0 250/11 RMK AO2 RAE42UPB24E26B42 P0000 TSNO
94908KDBQ DBQ20011130235019611/30/01 23:50:31  5-MIN KDBQ 010550Z AUTO 24010KT 8SM UP FEW010 BKN019 OVC034 03/02 A2983 1160 92 100 240/10 RMK AO2 RAE42UPB24E26B42 SLP109 P0000 60003 T00330022 10044 20028 400500017 51008 TSNO
94908KDBQ DBQ20011130235519611/30/01 23:55:31  5-MIN KDBQ 010555Z AUTO 24011KT 8SM SCT010 BKN017 OVC034 03/02 A2983 1160 92 100 240/11 RMK AO2 RAE42UPB24E26B42E51 SLP111 P0000 60003 T00330022 10044 20028 400500017 53017 TSNO
